station,valid,lon,lat,elevation,tmpf,dwpf,relh,drct,sknt,p01i,alti,mslp,vsby,gust,skyc1,skyc2,skyc3,skyc4,skyl1,skyl2,skyl3,skyl4,wxcodes,ice_accretion_1hr,ice_accretion_3hr,ice_accretion_6hr,peak_wind_gust,peak_wind_drct,peak_wind_time,feel,metar,snowdepth
BVU,2023-08-09 00:15,-114.8611,35.9475,671.00,104.00,17.60,4.53,220.00,14.00,0.00,29.83,M,10.00,M,CLR,M,M,M,M,M,M,M,M,M,M,M,M,M,M,95.83,KBVU 090015Z AUTO 22014KT 10SM CLR 40/M08 A2983 RMK AO2,M
CXP,2023-08-09 00:15,-119.7326,39.1923,1431.00,86.00,42.80,22.02,280.00,12.00,0.00,30.06,M,10.00,17.00,CLR,M,M,M,M,M,M,M,M,M,M,M,M,M,M,82.95,KCXP 090015Z AUTO 28012G17KT 240V300 10SM CLR 30/06 A3006 RMK AO2,M
DRA,2023-08-09 00:15,-116.0278,36.6206,1009.00,97.00,29.00,9.04,240.00,11.00,0.00,29.92,M,10.00,M,CLR,M,M,M,M,M,M,M,M,M,M,M,M,M,M,90.98,KDRA 090015Z AUTO 24011KT 10SM CLR 36/M02 A2992 RMK AO2 WSHFT 2358 T03611017,M
RTS,2023-08-09 00:15,-119.8764,39.6682,1539.00,84.20,39.20,20.29,310.00,14.00,0.00,30.08,M,10.00,19.00,CLR,M,M,M,M,M,M,M,M,M,M,M,M,M,M,81.44,KRTS 090015Z AUTO 31014G19KT 10SM CLR 29/04 A3008 RMK AO2,M
05U,2023-08-09 00:15,-116.0051,39.6042,1811.23,84.20,32.00,15.25,M,M,0.00,30.12,M,10.00,M,M,M,M,M,M,M,M,M,M,M,M,M,M,M,M,81.28,K05U 090015Z AUTO 10SM 29/M00 A3012 RMK A01,M
MEV,2023-08-09 00:15,-119.7500,38.9963,1441.42,86.00,44.60,23.59,300.00,12.00,0.00,30.05,M,10.00,17.00,CLR,M,M,M,M,M,M,M,M,M,M,M,M,M,M,83.07,KMEV 090015Z AUTO 30012G17KT 10SM CLR 30/07 A3005 RMK AO2,M
HTH,2023-08-09 00:15,-118.6315,38.5448,1282.89,89.60,32.00,12.84,320.00,12.00,0.00,29.99,M,10.00,18.00,CLR,M,M,M,M,M,M,M,M,M,M,M,M,M,M,85.54,KHTH 090015Z AUTO 32012G18KT 10SM CLR 32/M00 A2999 RMK A01,M
10U,2023-08-09 00:15,-116.1876,41.9532,1637.00,77.00,37.40,23.93,M,5.00,0.00,30.13,M,10.00,M,CLR,M,M,M,M,M,M,M,M,M,M,M,M,M,M,77.00,K10U 090015Z AUTO VRB05KT 10SM CLR 25/03 A3013 RMK AO2,M
BAM,2023-08-09 00:15,-116.8743,40.5990,1382.36,86.00,41.00,20.54,10.00,3.00,0.00,30.05,M,10.00,M,CLR,M,M,M,M,M,M,M,M,M,M,M,M,M,M,82.86,KBAM 090015Z AUTO 01003KT 10SM CLR 30/05 A3005 RMK AO1,M
TMT,2023-08-09 00:15,-117.1971,39.4643,1749.34,84.00,37.00,18.74,0.00,0.00,0.00,30.11,M,M,M,CLR,M,M,M,M,M,M,M,M,M,M,M,M,M,M,81.23,KTMT 090015Z AUTO 00000KT CLR 29/03 A3011 RMK AO2 T02890028 PWINO,M
BVU,2023-08-09 00:35,-114.8611,35.9475,671.00,102.20,15.80,4.43,M,M,0.00,29.82,M,10.00,M,CLR,M,M,M,M,M,M,M,M,M,M,M,M,M,M,94.24,KBVU 090035Z AUTO 19.45833319G26KT 10SM CLR 39/M09 A2982 RMK AO2,M
CXP,2023-08-09 00:35,-119.7326,39.1923,1431.00,86.00,42.80,22.02,270.00,11.00,0.00,30.06,M,10.00,18.00,CLR,M,M,M,M,M,M,M,M,M,M,M,M,M,M,82.95,KCXP 090035Z AUTO 27011G18KT 10SM CLR 30/06 A3006 RMK AO2,M
RTS,2023-08-09 00:35,-119.8764,39.6682,1539.00,84.20,41.00,21.76,300.00,16.00,0.00,30.08,M,10.00,M,CLR,M,M,M,M,M,M,M,M,M,M,M,M,M,M,81.52,KRTS 090035Z AUTO 30016KT 10SM CLR 29/05 A3008 RMK AO2,M
05U,2023-08-09 00:35,-116.0051,39.6042,1811.23,84.20,32.00,15.25,M,M,0.00,30.12,M,10.00,M,M,M,M,M,M,M,M,M,M,M,M,M,M,M,M,81.28,K05U 090035Z AUTO 10SM 29/00 A3012 RMK A01,M
MEV,2023-08-09 00:35,-119.7500,38.9963,1441.42,84.20,44.60,24.99,300.00,12.00,0.00,30.04,M,10.00,18.00,CLR,M,M,M,M,M,M,M,M,M,M,M,M,M,M,81.73,KMEV 090035Z AUTO 30012G18KT 10SM CLR 29/07 A3004 RMK AO2,M
HTH,2023-08-09 00:35,-118.6315,38.5448,1282.89,89.60,30.20,11.94,320.00,12.00,0.00,29.99,M,10.00,M,CLR,M,M,M,M,M,M,M,M,M,M,M,M,M,M,85.34,KHTH 090035Z AUTO 32012KT 10SM CLR 32/M01 A2999 RMK A01,M
10U,2023-08-09 00:35,-116.1876,41.9532,1637.00,77.00,37.40,23.93,320.00,7.00,0.00,30.12,M,10.00,13.00,CLR,M,M,M,M,M,M,M,M,M,M,M,M,M,M,77.00,K10U 090035Z AUTO 32007G13KT 10SM CLR 25/03 A3012 RMK AO2,M
BAM,2023-08-09 00:35,-116.8743,40.5990,1382.36,86.00,42.80,22.02,330.00,4.00,0.00,30.05,M,10.00,M,CLR,M,M,M,M,M,M,M,M,M,M,M,M,M,M,82.95,KBAM 090035Z AUTO 33004KT 10SM CLR 30/06 A3005 RMK AO1,M
TMT,2023-08-09 00:35,-117.1971,39.4643,1749.34,83.00,35.00,17.88,0.00,0.00,0.00,30.11,M,M,M,CLR,M,M,M,M,M,M,M,M,M,M,M,M,M,M,80.47,KTMT 090035Z AUTO 00000KT CLR 28/02 A3011 RMK AO2 T02830016 PWINO,M
P68,2023-08-09 00:53,-116.0056,39.6014,1993.00,84.00,35.00,17.31,350.00,10.00,0.00,30.09,1011.50,M,M,M,M,M,M,M,M,M,M,M,M,M,M,M,M,M,81.18,KP68 090053Z AUTO 35010KT 29/02 A3009 RMK AO1 SLP115 T02890017,M
DRA,2023-08-09 00:53,-116.0278,36.6206,1009.00,96.00,29.00,9.32,250.00,14.00,0.00,29.91,1007.60,10.00,20.00,CLR,M,M,M,M,M,M,M,M,M,M,M,M,M,M,90.16,KDRA 090053Z AUTO 25014G20KT 10SM CLR 36/M02 A2991 RMK AO2 WSHFT 2358 SLP076 T03561017,M
ELY,2023-08-09 00:53,-114.8453,39.2950,1909.00,81.00,34.00,18.33,300.00,5.00,0.00,30.12,1010.70,10.00,M,CLR,M,M,M,M,M,M,M,M,M,M,M,M,M,M,79.13,KELY 090053Z AUTO 30005KT 10SM CLR 27/01 A3012 RMK AO2 SLP107 T02720011,M
VGT,2023-08-09 00:53,-115.1933,36.2111,667.00,103.00,26.00,6.66,240.00,16.00,0.00,29.80,1007.70,10.00,24.00,CLR,M,M,M,M,M,M,M,M,M,M,M,M,M,M,95.70,KVGT 090053Z 24016G24KT 10SM CLR 39/M03 A2980 RMK AO2 SLP077 T03941033,M
LOL,2023-08-09 00:53,-118.5701,40.0684,1192.43,87.00,38.00,17.70,100.00,10.00,0.00,29.97,1010.90,10.00,M,CLR,M,M,M,M,M,M,M,M,M,M,M,M,M,M,83.53,KLOL 090053Z AUTO 10010KT 10SM CLR 31/03 A2997 RMK AO2 SLP109 T03060033,M
BVU,2023-08-09 00:55,-114.8611,35.9475,671.00,102.20,12.20,3.78,240.00,20.00,0.00,29.82,M,10.00,26.00,CLR,M,M,M,M,M,M,M,M,M,M,M,M,M,M,94.05,KBVU 090055Z AUTO 24020G26KT 10SM CLR 39/M11 A2982 RMK AO2,M
CXP,2023-08-09 00:55,-119.7326,39.1923,1431.00,84.20,42.80,23.33,270.00,10.00,0.00,30.06,M,10.00,15.00,CLR,M,M,M,M,M,M,M,M,M,M,M,M,M,M,81.61,KCXP 090055Z AUTO 27010G15KT 10SM CLR 29/06 A3006 RMK AO2,M
RNO,2023-08-09 00:55,-119.7711,39.4839,1341.00,89.00,41.00,18.68,280.00,13.00,0.00,30.01,1010.40,10.00,M,FEW,SCT,M,M,11000.00,25000.00,M,M,M,M,M,M,M,M,M,85.30,KRNO 090055Z 28013KT 10SM FEW110 SCT250 32/05 A3001 RMK AO2 SLP104 T03170050,M
RTS,2023-08-09 00:55,-119.8764,39.6682,1539.00,82.40,41.00,23.07,310.00,16.00,0.00,30.08,M,10.00,24.00,CLR,M,M,M,M,M,M,M,M,M,M,M,M,M,M,80.29,KRTS 090055Z AUTO 31016G24KT 10SM CLR 28/05 A3008 RMK AO2,M
05U,2023-08-09 00:55,-116.0051,39.6042,1811.23,84.20,35.60,17.61,M,M,0.00,30.12,M,10.00,M,M,M,M,M,M,M,M,M,M,M,M,M,M,M,M,81.34,K05U 090055Z AUTO 10SM 29/02 A3012 RMK A01,M
MEV,2023-08-09 00:55,-119.7500,38.9963,1441.42,84.20,46.40,26.76,280.00,11.00,0.00,30.04,M,10.00,18.00,CLR,M,M,M,M,M,M,M,M,M,M,M,M,M,M,81.87,KMEV 090055Z AUTO 28011G18KT 10SM CLR 29/08 A3004 RMK AO2,M
HTH,2023-08-09 00:55,-118.6315,38.5448,1282.89,89.60,30.20,11.94,320.00,11.00,0.00,29.98,M,10.00,M,CLR,M,M,M,M,M,M,M,M,M,M,M,M,M,M,85.34,KHTH 090055Z AUTO 32011KT 10SM CLR 32/M01 A2998 RMK A01,M
BAM,2023-08-09 00:55,-116.8743,40.5990,1382.36,84.20,41.00,21.76,0.00,0.00,0.00,30.05,M,10.00,M,CLR,M,M,M,M,M,M,M,M,M,M,M,M,M,M,81.52,KBAM 090055Z AUTO 00000KT 10SM CLR 29/05 A3005 RMK AO1,M
TMT,2023-08-09 00:55,-117.1971,39.4643,1749.34,83.30,34.30,17.22,300.00,11.00,0.00,30.11,M,M,M,CLR,M,M,M,M,M,M,M,M,M,M,M,M,M,M,80.67,KTMT 090055Z AUTO 30011KT CLR 29/01 A3011 RMK AO2 T02850013 PWINO,M
10U,2023-08-09 00:55,-116.1876,41.9532,1637.00,77.00,37.40,23.93,0.00,0.00,0.00,30.12,M,10.00,M,CLR,M,M,M,M,M,M,M,M,M,M,M,M,M,M,77.00,K10U 090055Z AUTO 00000KT 10SM CLR 25/03 A3012 RMK AO2,M
INS,2023-08-09 00:55,-115.6733,36.5872,955.00,96.40,14.50,4.99,250.00,20.00,0.00,29.88,1006.80,10.00,M,CLR,M,M,M,M,M,M,M,M,M,M,M,28.00,290.00,2023-08-08 23:55,89.38,KINS 090055Z AUTO 25020KT 10SM CLR 36/M10 A2988 RMK AO2 PK WND 29028/2355 SLP068 T03581097 $,M
LSV,2023-08-09 00:55,-115.0343,36.2362,570.00,102.60,18.70,4.96,180.00,18.00,0.00,29.76,1005.00,10.00,M,CLR,M,M,M,M,M,M,M,M,M,M,M,M,M,M,94.75,KLSV 090055Z AUTO 18018KT 10SM CLR 39/M07 A2976 RMK AO2 SLP050 T03921074 $,M
EKO,2023-08-09 00:56,-115.7860,40.8242,1367.00,82.00,37.00,19.99,260.00,8.00,0.00,30.07,1013.60,10.00,M,CLR,M,M,M,M,M,M,M,M,M,M,M,M,M,M,79.86,KEKO 090056Z AUTO 26008KT 10SM CLR 28/03 A3007 RMK AO2 SLP136 T02780028,M
WMC,2023-08-09 00:56,-117.8072,40.9019,1315.00,86.00,39.00,19.01,0.00,0.00,0.00,30.01,1012.40,10.00,M,CLR,M,M,M,M,M,M,M,M,M,M,M,M,M,M,82.78,KWMC 090056Z AUTO 00000KT 10SM CLR 30/04 A3001 RMK AO2 SLP124 T03000039,M
NFL,2023-08-09 00:56,-118.7010,39.4166,1199.00,89.00,35.00,14.76,M,5.00,0.00,29.97,1012.20,10.00,M,FEW,SCT,BKN,M,8000.00,12000.00,25000.00,M,M,M,M,M,M,M,M,85.10,KNFL 090056Z VRB05KT 10SM FEW080 SCT120 BKN250 32/02 A2997 RMK AO2 SLP122 T03170017,M
HND,2023-08-09 00:56,-115.1344,35.9729,742.79,101.00,25.00,6.79,230.00,16.00,0.00,29.87,1009.50,10.00,21.00,CLR,M,M,M,M,M,M,M,M,M,M,M,M,M,M,93.92,KHND 090056Z 23016G21KT 10SM CLR 38/M04 A2987 RMK AO2 SLP095 T03831039,M
TPH,2023-08-09 00:56,-117.0904,38.0505,1654.00,88.00,47.00,24.24,310.00,8.00,0.00,30.06,1009.40,10.00,M,CLR,M,M,M,M,M,M,M,M,M,M,M,M,M,M,84.91,KTPH 090056Z AUTO 31008KT 270V340 10SM CLR 31/08 A3006 RMK AO2 SLP094 T03110083,M
LAS,2023-08-09 00:56,-115.1634,36.0719,663.00,102.00,25.00,6.59,270.00,17.00,0.00,29.82,1006.70,10.00,24.00,FEW,M,M,M,12000.00,M,M,M,M,M,M,M,26.00,270.00,2023-08-09 00:30,94.76,KLAS 090056Z 27017G24KT 10SM FEW120 39/M04 A2982 RMK AO2 PK WND 27026/0030 SLP067 T03891039,M
BVU,2023-08-09 01:15,-114.8611,35.9475,671.00,102.20,10.40,3.49,220.00,16.00,0.00,29.81,M,10.00,22.00,CLR,M,M,M,M,M,M,M,M,M,M,M,M,M,M,93.97,KBVU 090115Z AUTO 22016G22KT 10SM CLR 39/M12 A2981 RMK AO2,M
CXP,2023-08-09 01:15,-119.7326,39.1923,1431.00,84.20,42.80,23.33,270.00,8.00,0.00,30.06,M,10.00,15.00,CLR,M,M,M,M,M,M,M,M,M,M,M,M,M,M,81.61,KCXP 090115Z AUTO 27008G15KT 10SM CLR 29/06 A3006 RMK AO2,M
RTS,2023-08-09 01:15,-119.8764,39.6682,1539.00,82.40,41.00,23.07,310.00,15.00,0.00,30.08,M,10.00,23.00,CLR,M,M,M,M,M,M,M,M,M,M,M,M,M,M,80.29,KRTS 090115Z AUTO 31015G23KT 10SM CLR 28/05 A3008 RMK AO2,M
05U,2023-08-09 01:15,-116.0051,39.6042,1811.23,82.40,35.60,18.67,M,M,0.00,30.12,M,10.00,M,M,M,M,M,M,M,M,M,M,M,M,M,M,M,M,80.08,K05U 090115Z AUTO 10SM 28/02 A3012 RMK A01,M
MEV,2023-08-09 01:15,-119.7500,38.9963,1441.42,82.40,44.60,26.49,290.00,8.00,0.00,30.04,M,10.00,17.00,CLR,M,M,M,M,M,M,M,M,M,M,M,M,M,M,80.50,KMEV 090115Z AUTO 29008G17KT 10SM CLR 28/07 A3004 RMK AO2,M
HTH,2023-08-09 01:15,-118.6315,38.5448,1282.89,89.60,30.20,11.94,320.00,13.00,0.00,29.98,M,10.00,M,CLR,M,M,M,M,M,M,M,M,M,M,M,M,M,M,85.34,KHTH 090115Z AUTO 32013KT 10SM CLR 32/M01 A2998 RMK A01,M
10U,2023-08-09 01:15,-116.1876,41.9532,1637.00,77.00,37.40,23.93,290.00,5.00,0.00,30.12,M,10.00,M,CLR,M,M,M,M,M,M,M,M,M,M,M,M,M,M,77.00,K10U 090115Z AUTO 29005KT 10SM CLR 25/03 A3012 RMK AO2,M
BAM,2023-08-09 01:15,-116.8743,40.5990,1382.36,84.20,41.00,21.76,10.00,6.00,0.00,30.04,M,10.00,M,CLR,M,M,M,M,M,M,M,M,M,M,M,M,M,M,81.52,KBAM 090115Z AUTO 01006KT 10SM CLR 29/05 A3004 RMK AO1,M
TMT,2023-08-09 01:15,-117.1971,39.4643,1749.34,82.60,34.70,17.90,350.00,3.00,0.00,30.11,M,M,M,CLR,M,M,M,M,M,M,M,M,M,M,M,M,M,M,80.19,KTMT 090115Z AUTO 35003KT CLR 28/02 A3011 RMK AO2 T02810015 PWINO,M
BVU,2023-08-09 01:35,-114.8611,35.9475,671.00,100.40,8.60,3.40,260.00,17.00,0.00,29.82,M,10.00,M,CLR,M,M,M,M,M,M,M,M,M,M,M,M,M,M,92.43,KBVU 090135Z AUTO 26017KT 10SM CLR 38/M13 A2982 RMK AO2,M
CXP,2023-08-09 01:35,-119.7326,39.1923,1431.00,84.20,42.80,23.33,280.00,7.00,0.00,30.06,M,10.00,14.00,CLR,M,M,M,M,M,M,M,M,M,M,M,M,M,M,81.61,KCXP 090135Z AUTO 28007G14KT 10SM CLR 29/06 A3006 RMK AO2,M
RTS,2023-08-09 01:35,-119.8764,39.6682,1539.00,80.60,39.20,22.81,310.00,17.00,0.00,30.08,M,10.00,M,CLR,M,M,M,M,M,M,M,M,M,M,M,M,M,M,79.10,KRTS 090135Z AUTO 31017KT 10SM CLR 27/04 A3008 RMK AO2,M
05U,2023-08-09 01:35,-116.0051,39.6042,1811.23,82.40,35.60,18.67,M,M,0.00,30.12,M,10.00,M,M,M,M,M,M,M,M,M,M,M,M,M,M,M,M,80.08,K05U 090135Z AUTO 10SM 28/02 A3012 RMK A01,M
MEV,2023-08-09 01:35,-119.7500,38.9963,1441.42,82.40,44.60,26.49,290.00,11.00,0.00,30.04,M,10.00,19.00,CLR,M,M,M,M,M,M,M,M,M,M,M,M,M,M,80.50,KMEV 090135Z AUTO 29011G19KT 10SM CLR 28/07 A3004 RMK AO2,M
BAM,2023-08-09 01:35,-116.8743,40.5990,1382.36,82.40,41.00,23.07,0.00,0.00,0.00,30.04,M,10.00,M,CLR,M,M,M,M,M,M,M,M,M,M,M,M,M,M,80.29,KBAM 090135Z AUTO 00000KT 10SM CLR 28/05 A3004 RMK AO1,M
HTH,2023-08-09 01:35,-118.6315,38.5448,1282.89,89.60,30.20,11.94,320.00,11.00,0.00,29.98,M,10.00,M,CLR,M,M,M,M,M,M,M,M,M,M,M,M,M,M,85.34,KHTH 090135Z AUTO 32011KT 10SM CLR 32/M01 A2998 RMK A01,M
10U,2023-08-09 01:35,-116.1876,41.9532,1637.00,75.20,37.40,25.40,M,3.00,0.00,30.11,M,10.00,M,CLR,M,M,M,M,M,M,M,M,M,M,M,M,M,M,75.20,K10U 090135Z AUTO VRB03KT 10SM CLR 24/03 A3011 RMK AO2,M
TMT,2023-08-09 01:35,-117.1971,39.4643,1749.34,82.00,31.00,15.73,290.00,9.00,0.00,30.11,M,M,M,CLR,M,M,M,M,M,M,M,M,M,M,M,M,M,M,79.71,KTMT 090135Z AUTO 29009KT CLR 28/00 A3011 RMK AO2 T02781005 PWINO,M
P68,2023-08-09 01:53,-116.0056,39.6014,1993.00,81.00,35.00,19.08,30.00,11.00,0.00,30.09,1011.30,M,M,M,M,M,M,M,M,M,M,M,M,M,M,M,M,M,79.16,KP68 090153Z AUTO 03011KT 27/02 A3009 RMK AO1 SLP113 T02720017,M
DRA,2023-08-09 01:53,-116.0278,36.6206,1009.00,95.00,27.00,8.85,210.00,9.00,0.00,29.91,1007.40,10.00,M,CLR,M,M,M,M,M,M,M,M,M,M,M,M,M,M,89.12,KDRA 090153Z AUTO 21009KT 10SM CLR 35/M03 A2991 RMK AO2 SLP074 T03501028,M
ELY,2023-08-09 01:53,-114.8453,39.2950,1909.00,79.00,35.00,20.37,10.00,9.00,0.00,30.12,1010.00,10.00,M,CLR,M,M,M,M,M,M,M,M,M,M,M,M,M,M,79.00,KELY 090153Z AUTO 01009KT 10SM CLR 26/02 A3012 RMK AO2 SLP100 T02610017,M
VGT,2023-08-09 01:53,-115.1933,36.2111,667.00,101.00,26.00,7.07,240.00,16.00,0.00,29.81,1007.90,10.00,24.00,CLR,M,M,M,M,M,M,M,M,M,M,M,27.00,260.00,2023-08-09 01:36,94.02,KVGT 090153Z 24016G24KT 10SM CLR 38/M03 A2981 RMK AO2 PK WND 26027/0136 SLP079 T03831033,M
LOL,2023-08-09 01:53,-118.5701,40.0684,1192.43,86.00,38.00,18.28,100.00,5.00,0.00,29.97,1010.60,10.00,M,CLR,M,M,M,M,M,M,M,M,M,M,M,M,M,M,82.75,KLOL 090153Z AUTO 10005KT 10SM CLR 30/03 A2997 RMK AO2 SLP106 T03000033,M
BVU,2023-08-09 01:55,-114.8611,35.9475,671.00,100.40,8.60,3.40,230.00,13.00,0.00,29.82,M,10.00,19.00,CLR,M,M,M,M,M,M,M,M,M,M,M,M,M,M,92.43,KBVU 090155Z AUTO 23013G19KT 10SM CLR 38/M13 A2982 RMK AO2,M
CXP,2023-08-09 01:55,-119.7326,39.1923,1431.00,82.40,42.80,24.72,290.00,8.00,0.00,30.06,M,10.00,13.00,CLR,M,M,M,M,M,M,M,M,M,M,M,M,M,M,80.39,KCXP 090155Z AUTO 29008G13KT 10SM CLR 28/06 A3006 RMK AO2,M
RNO,2023-08-09 01:55,-119.7711,39.4839,1341.00,86.00,42.00,21.35,280.00,13.00,0.00,30.01,1010.40,10.00,23.00,FEW,FEW,M,M,10000.00,25000.00,M,M,M,M,M,M,M,M,M,82.91,KRNO 090155Z 28013G23KT 10SM FEW100 FEW250 30/06 A3001 RMK AO2 SLP104 T03000056,M
RTS,2023-08-09 01:55,-119.8764,39.6682,1539.00,80.60,39.20,22.81,310.00,16.00,0.00,30.08,M,10.00,21.00,CLR,M,M,M,M,M,M,M,M,M,M,M,M,M,M,79.10,KRTS 090155Z AUTO 31016G21KT 10SM CLR 27/04 A3008 RMK AO2,M
05U,2023-08-09 01:55,-116.0051,39.6042,1811.23,80.60,35.60,19.79,M,M,0.00,30.12,M,10.00,M,M,M,M,M,M,M,M,M,M,M,M,M,M,M,M,78.94,K05U 090155Z AUTO 10SM 27/02 A3012 RMK A01,M
MEV,2023-08-09 01:55,-119.7500,38.9963,1441.42,80.60,42.80,26.22,280.00,14.00,0.00,30.04,M,10.00,20.00,CLR,M,M,M,M,M,M,M,M,M,M,M,M,M,M,79.30,KMEV 090155Z AUTO 28014G20KT 10SM CLR 27/06 A3004 RMK AO2,M
HTH,2023-08-09 01:55,-118.6315,38.5448,1282.89,89.60,30.20,11.94,320.00,11.00,0.00,29.98,M,10.00,M,CLR,M,M,M,M,M,M,M,M,M,M,M,M,M,M,85.34,KHTH 090155Z AUTO 32011KT 10SM CLR 32/M01 A2998 RMK A01,M
BAM,2023-08-09 01:55,-116.8743,40.5990,1382.36,82.40,41.00,23.07,350.00,5.00,0.00,30.04,M,10.00,M,CLR,M,M,M,M,M,M,M,M,M,M,M,M,M,M,80.29,KBAM 090155Z AUTO 35005KT 10SM CLR 28/05 A3004 RMK AO1,M
TMT,2023-08-09 01:55,-117.1971,39.4643,1749.34,81.00,30.60,15.99,330.00,5.00,0.00,30.11,M,M,M,CLR,M,M,M,M,M,M,M,M,M,M,M,M,M,M,79.03,KTMT 090155Z AUTO 33005KT CLR 27/M01 A3011 RMK AO2 T02731008 PWINO,M
10U,2023-08-09 01:55,-116.1876,41.9532,1637.00,75.20,39.20,27.26,M,4.00,0.00,30.11,M,10.00,M,CLR,M,M,M,M,M,M,M,M,M,M,M,M,M,M,75.20,K10U 090155Z AUTO VRB04KT 10SM CLR 24/04 A3011 RMK AO2,M
INS,2023-08-09 01:55,-115.6733,36.5872,955.00,94.60,17.40,5.98,240.00,14.00,0.00,29.89,1007.20,10.00,M,CLR,M,M,M,M,M,M,M,M,M,M,M,M,M,M,88.09,KINS 090155Z AUTO 24014KT 10SM CLR 35/M08 A2989 RMK AO2 SLP072 T03481081 $,M
LSV,2023-08-09 01:55,-115.0343,36.2362,570.00,101.00,22.00,5.98,190.00,18.00,0.00,29.76,1005.00,10.00,M,CLR,M,M,M,M,M,M,M,M,M,M,M,M,M,M,93.67,KLSV 090155Z AUTO 19018KT 10SM CLR 38/M05 A2976 RMK AO2 SLP050 T03841055 $,M
EKO,2023-08-09 01:56,-115.7860,40.8242,1367.00,81.00,36.00,19.85,300.00,7.00,0.00,30.07,1013.40,10.00,M,CLR,M,M,M,M,M,M,M,M,M,M,M,M,M,M,79.20,KEKO 090156Z AUTO 30007KT 10SM CLR 27/02 A3007 RMK AO2 SLP134 T02720022,M
WMC,2023-08-09 01:56,-117.8072,40.9019,1315.00,85.00,39.00,19.62,10.00,3.00,0.00,30.01,1011.90,10.00,M,CLR,M,M,M,M,M,M,M,M,M,M,M,M,M,M,82.02,KWMC 090156Z AUTO 01003KT 10SM CLR 29/04 A3001 RMK AO2 SLP119 T02940039,M
NFL,2023-08-09 01:56,-118.7010,39.4166,1199.00,89.00,34.00,14.18,30.00,6.00,0.00,29.96,1011.80,10.00,M,SCT,BKN,M,M,12000.00,25000.00,M,M,M,M,M,M,M,M,M,85.09,KNFL 090156Z 03006KT 10SM SCT120 BKN250 32/01 A2996 RMK AO2 SLP118 T03170011,M
HND,2023-08-09 01:56,-115.1344,35.9729,742.79,99.00,23.00,6.63,220.00,13.00,0.00,29.87,1009.70,10.00,M,CLR,M,M,M,M,M,M,M,M,M,M,M,M,M,M,92.08,KHND 090156Z 22013KT 10SM CLR 37/M05 A2987 RMK AO2 SLP097 T03721050,M
TPH,2023-08-09 01:56,-117.0904,38.0505,1654.00,87.00,45.00,23.20,M,4.00,0.00,30.06,1009.00,10.00,M,CLR,M,M,M,M,M,M,M,M,M,M,M,M,M,M,83.90,KTPH 090156Z AUTO VRB04KT 10SM CLR 31/07 A3006 RMK AO2 SLP090 T03060072 $,M
LAS,2023-08-09 01:56,-115.1634,36.0719,663.00,100.00,26.00,7.29,240.00,13.00,0.00,29.82,1006.70,10.00,22.00,FEW,FEW,M,M,12000.00,22000.00,M,M,M,M,M,M,M,M,M,93.18,KLAS 090156Z 24013G22KT 10SM FEW120 FEW220 38/M03 A2982 RMK AO2 SLP067 T03781033,M
BVU,2023-08-09 02:15,-114.8611,35.9475,671.00,98.60,10.40,3.89,240.00,12.00,0.00,29.82,M,10.00,17.00,CLR,M,M,M,M,M,M,M,M,M,M,M,M,M,M,91.03,KBVU 090215Z AUTO 24012G17KT 10SM CLR 37/M12 A2982 RMK AO2,M
CXP,2023-08-09 02:15,-119.7326,39.1923,1431.00,82.40,42.80,24.72,300.00,7.00,0.00,30.06,M,10.00,M,CLR,M,M,M,M,M,M,M,M,M,M,M,M,M,M,80.39,KCXP 090215Z AUTO 30007KT 10SM CLR 28/06 A3006 RMK AO2,M
RTS,2023-08-09 02:15,-119.8764,39.6682,1539.00,78.80,37.40,22.54,310.00,16.00,0.00,30.09,M,10.00,22.00,CLR,M,M,M,M,M,M,M,M,M,M,M,M,M,M,78.80,KRTS 090215Z AUTO 31016G22KT 10SM CLR 26/03 A3009 RMK AO2,M
05U,2023-08-09 02:15,-116.0051,39.6042,1811.23,78.80,35.60,21.00,M,M,0.00,30.12,M,10.00,M,M,M,M,M,M,M,M,M,M,M,M,M,M,M,M,78.80,K05U 090215Z AUTO 10SM 26/02 A3012 RMK A01,M
MEV,2023-08-09 02:15,-119.7500,38.9963,1441.42,80.60,44.60,28.08,280.00,8.00,0.00,30.04,M,10.00,16.00,CLR,M,M,M,M,M,M,M,M,M,M,M,M,M,M,79.42,KMEV 090215Z AUTO 28008G16KT 10SM CLR 27/07 A3004 RMK AO2,M
BAM,2023-08-09 02:15,-116.8743,40.5990,1382.36,82.40,44.60,26.49,360.00,5.00,0.00,30.04,M,10.00,M,SCT,M,M,M,10000.00,M,M,M,M,M,M,M,M,M,M,80.50,KBAM 090215Z AUTO 36005KT 10SM SCT100 28/07 A3004 RMK AO1,M
HTH,2023-08-09 02:15,-118.6315,38.5448,1282.89,87.80,30.20,12.64,310.00,10.00,0.00,29.98,M,10.00,M,CLR,M,M,M,M,M,M,M,M,M,M,M,M,M,M,84.01,KHTH 090215Z AUTO 31010KT 10SM CLR 31/M01 A2998 RMK A01,M
10U,2023-08-09 02:15,-116.1876,41.9532,1637.00,73.40,41.00,31.05,70.00,5.00,0.00,30.11,M,10.00,M,CLR,M,M,M,M,M,M,M,M,M,M,M,M,M,M,73.40,K10U 090215Z AUTO 07005KT 10SM CLR 23/05 A3011 RMK AO2,M
TMT,2023-08-09 02:15,-117.1971,39.4643,1749.34,79.50,36.00,20.85,20.00,5.00,0.00,30.11,M,M,M,CLR,M,M,M,M,M,M,M,M,M,M,M,M,M,M,79.50,KTMT 090215Z AUTO 02005KT CLR 26/02 A3011 RMK AO2 T02640022 PWINO,M
BVU,2023-08-09 02:35,-114.8611,35.9475,671.00,96.80,8.60,3.79,240.00,9.00,0.00,29.83,M,10.00,14.00,CLR,M,M,M,M,M,M,M,M,M,M,M,M,M,M,89.47,KBVU 090235Z AUTO 24009G14KT 10SM CLR 36/M13 A2983 RMK AO2,M
CXP,2023-08-09 02:35,-119.7326,39.1923,1431.00,80.60,42.80,26.22,330.00,9.00,0.00,30.06,M,10.00,M,CLR,M,M,M,M,M,M,M,M,M,M,M,M,M,M,79.30,KCXP 090235Z AUTO 33009KT 10SM CLR 27/06 A3006 RMK AO2,M
RTS,2023-08-09 02:35,-119.8764,39.6682,1539.00,77.00,37.40,23.93,310.00,14.00,0.00,30.09,M,10.00,21.00,CLR,M,M,M,M,M,M,M,M,M,M,M,M,M,M,77.00,KRTS 090235Z AUTO 31014G21KT 10SM CLR 25/03 A3009 RMK AO2,M
05U,2023-08-09 02:35,-116.0051,39.6042,1811.23,77.00,33.80,20.74,M,M,0.00,30.13,M,10.00,M,M,M,M,M,M,M,M,M,M,M,M,M,M,M,M,77.00,K05U 090235Z AUTO 10SM 25/01 A3013 RMK A01,M
MEV,2023-08-09 02:35,-119.7500,38.9963,1441.42,78.80,44.60,29.79,290.00,8.00,0.00,30.05,M,10.00,M,CLR,M,M,M,M,M,M,M,M,M,M,M,M,M,M,78.80,KMEV 090235Z AUTO 29008KT 10SM CLR 26/07 A3005 RMK AO2,M
HTH,2023-08-09 02:35,-118.6315,38.5448,1282.89,86.00,30.20,13.38,310.00,9.00,0.00,29.98,M,10.00,M,CLR,M,M,M,M,M,M,M,M,M,M,M,M,M,M,82.64,KHTH 090235Z AUTO 31009KT 10SM CLR 30/M01 A2998 RMK A01,M
10U,2023-08-09 02:35,-116.1876,41.9532,1637.00,69.80,42.80,37.61,130.00,4.00,0.00,30.11,M,10.00,M,CLR,M,M,M,M,M,M,M,M,M,M,M,M,M,M,69.80,K10U 090235Z AUTO 13004KT 10SM CLR 21/06 A3011 RMK AO2,M
BAM,2023-08-09 02:35,-116.8743,40.5990,1382.36,80.60,42.80,26.22,330.00,5.00,0.00,30.04,M,10.00,M,CLR,M,M,M,M,M,M,M,M,M,M,M,M,M,M,79.30,KBAM 090235Z AUTO 33005KT 10SM CLR 27/06 A3004 RMK AO1,M
TMT,2023-08-09 02:35,-117.1971,39.4643,1749.34,77.00,35.00,21.76,360.00,8.00,0.00,30.11,M,M,M,CLR,M,M,M,M,M,M,M,M,M,M,M,M,M,M,77.00,KTMT 090235Z AUTO 36008KT CLR 25/02 A3011 RMK AO2 T02490017 PWINO,M
P68,2023-08-09 02:53,-116.0056,39.6014,1993.00,74.00,35.00,24.05,30.00,9.00,0.00,30.10,1011.20,M,M,M,M,M,M,M,M,M,M,M,M,M,M,M,M,M,74.00,KP68 090253Z AUTO 03009KT 23/02 A3010 RMK AO1 SLP112 T02330017 55000,M
DRA,2023-08-09 02:53,-116.0278,36.6206,1009.00,91.00,26.00,9.62,210.00,11.00,0.00,29.90,1007.20,10.00,M,CLR,M,M,M,M,M,M,M,M,M,M,M,M,M,M,86.01,KDRA 090253Z AUTO 21011KT 10SM CLR 33/M03 A2990 RMK AO2 SLP072 T03281033 56006,M
ELY,2023-08-09 02:53,-114.8453,39.2950,1909.00,71.00,37.00,28.81,360.00,8.00,0.00,30.13,1011.00,10.00,M,CLR,M,M,M,M,M,M,M,M,M,M,M,M,M,M,71.00,KELY 090253Z AUTO 36008KT 10SM CLR 22/03 A3013 RMK AO2 SLP110 T02170028 55002,M
VGT,2023-08-09 02:53,-115.1933,36.2111,667.00,99.00,27.00,7.83,230.00,12.00,0.00,29.81,1008.10,10.00,21.00,CLR,M,M,M,M,M,M,M,M,M,M,M,26.00,240.00,2023-08-09 01:59,92.44,KVGT 090253Z 23012G21KT 10SM CLR 37/M03 A2981 RMK AO2 PK WND 24026/0159 SLP081 T03721028 55001,M
LOL,2023-08-09 02:53,-118.5701,40.0684,1192.43,81.00,41.00,24.14,60.00,4.00,0.00,29.96,1010.50,10.00,M,CLR,M,M,M,M,M,M,M,M,M,M,M,M,M,M,79.43,KLOL 090253Z AUTO 06004KT 10SM CLR 27/05 A2996 RMK AO2 SLP105 T02720050 56008,M
BVU,2023-08-09 02:55,-114.8611,35.9475,671.00,96.80,6.80,3.50,240.00,9.00,0.00,29.83,M,10.00,16.00,M,M,M,M,M,M,M,M,M,M,M,M,M,M,M,89.41,KBVU 090255Z AUTO 24009G16KT 10SM 36/M14 A2983 RMK AO2,M
CXP,2023-08-09 02:55,-119.7326,39.1923,1431.00,78.80,42.80,27.81,0.00,0.00,0.00,30.06,M,10.00,M,CLR,M,M,M,M,M,M,M,M,M,M,M,M,M,M,78.80,KCXP 090255Z AUTO 00000KT 10SM CLR 26/06 A3006 RMK AO2,M
RNO,2023-08-09 02:55,-119.7711,39.4839,1341.00,82.00,42.00,24.29,290.00,13.00,0.00,30.02,1010.80,10.00,22.00,FEW,FEW,M,M,10000.00,25000.00,M,M,M,M,M,M,M,M,M,80.09,KRNO 090255Z 29013G22KT 10SM FEW100 FEW250 28/06 A3002 RMK AO2 SLP108 T02780056 53001,M
RTS,2023-08-09 02:55,-119.8764,39.6682,1539.00,75.20,35.60,23.66,310.00,15.00,0.00,30.09,M,10.00,M,CLR,M,M,M,M,M,M,M,M,M,M,M,M,M,M,75.20,KRTS 090255Z AUTO 31015KT 10SM CLR 24/02 A3009 RMK AO2,M
05U,2023-08-09 02:55,-116.0051,39.6042,1811.23,73.40,35.60,25.13,M,M,0.00,30.13,M,10.00,M,M,M,M,M,M,M,M,M,M,M,M,M,M,M,M,73.40,K05U 090255Z AUTO 10SM 23/02 A3013 RMK A01,M
MEV,2023-08-09 02:55,-119.7500,38.9963,1441.42,77.00,44.60,31.62,290.00,6.00,0.00,30.05,M,10.00,M,CLR,M,M,M,M,M,M,M,M,M,M,M,M,M,M,77.00,KMEV 090255Z AUTO 29006KT 10SM CLR 25/07 A3005 RMK AO2,M
HTH,2023-08-09 02:55,-118.6315,38.5448,1282.89,84.20,30.20,14.18,310.00,7.00,0.00,29.98,M,10.00,M,CLR,M,M,M,M,M,M,M,M,M,M,M,M,M,M,81.26,KHTH 090255Z AUTO 31007KT 10SM CLR 29/M01 A2998 RMK A01,M
BAM,2023-08-09 02:55,-116.8743,40.5990,1382.36,78.80,42.80,27.81,340.00,3.00,0.00,30.04,M,10.00,M,CLR,M,M,M,M,M,M,M,M,M,M,M,M,M,M,78.80,KBAM 090255Z AUTO 34003KT 10SM CLR 26/06 A3004 RMK AO1,M
TMT,2023-08-09 02:55,-117.1971,39.4643,1749.34,74.50,34.70,23.37,360.00,4.00,0.00,30.12,M,M,M,CLR,M,M,M,M,M,M,M,M,M,M,M,M,M,M,74.50,KTMT 090255Z AUTO 36004KT CLR 24/02 A3012 RMK AO2 T02360015 PWINO,M
10U,2023-08-09 02:55,-116.1876,41.9532,1637.00,69.80,41.00,35.09,130.00,5.00,0.00,30.11,M,10.00,M,CLR,M,M,M,M,M,M,M,M,M,M,M,M,M,M,69.80,K10U 090255Z AUTO 13005KT 10SM CLR 21/05 A3011 RMK AO2,M
INS,2023-08-09 02:55,-115.6733,36.5872,955.00,91.80,15.40,5.98,200.00,10.00,0.00,29.89,1007.00,10.00,M,CLR,M,M,M,M,M,M,M,M,M,M,M,M,M,M,85.95,KINS 090255Z AUTO 20010KT 10SM CLR 33/M09 A2989 RMK AO2 SLP070 T03321092 53003 $,M
LSV,2023-08-09 02:55,-115.0343,36.2362,570.00,98.80,24.00,6.96,200.00,15.00,0.00,29.76,1005.00,10.00,M,CLR,M,M,M,M,M,M,M,M,M,M,M,M,M,M,92.00,KLSV 090255Z AUTO 20015KT 10SM CLR 37/M04 A2976 RMK AO2 SLP050 T03711044 55003 $,M
EKO,2023-08-09 02:56,-115.7860,40.8242,1367.00,73.00,40.00,30.28,0.00,0.00,0.00,30.07,1013.40,10.00,M,CLR,M,M,M,M,M,M,M,M,M,M,M,M,M,M,73.00,KEKO 090256Z AUTO 00000KT 10SM CLR 23/04 A3007 RMK AO2 SLP134 T02280044 55002,M
WMC,2023-08-09 02:56,-117.8072,40.9019,1315.00,80.00,40.00,23.99,20.00,5.00,0.00,30.01,1011.70,10.00,M,CLR,M,M,M,M,M,M,M,M,M,M,M,M,M,M,78.83,KWMC 090256Z AUTO 02005KT 10SM CLR 27/04 A3001 RMK AO2 SLP117 T02670044 56006,M
NFL,2023-08-09 02:56,-118.7010,39.4166,1199.00,82.00,36.00,19.21,50.00,7.00,0.00,29.96,1011.70,10.00,M,SCT,BKN,M,M,12000.00,25000.00,M,M,M,M,M,M,M,M,M,79.83,KNFL 090256Z 05007KT 10SM SCT120 BKN250 28/02 A2996 RMK AO2 SLP117 T02780022 56009,M
HND,2023-08-09 02:56,-115.1344,35.9729,742.79,96.00,14.00,4.94,230.00,11.00,0.00,29.88,1009.90,10.00,M,CLR,M,M,M,M,M,M,M,M,M,M,M,M,M,M,89.03,KHND 090256Z 23011KT 10SM CLR 36/M10 A2988 RMK AO2 SLP099 T03561100 55002,M
TPH,2023-08-09 02:56,-117.0904,38.0505,1654.00,83.00,42.00,23.51,340.00,4.00,0.00,30.06,1009.00,10.00,M,CLR,M,M,M,M,M,M,M,M,M,M,M,M,M,M,80.74,KTPH 090256Z AUTO 34004KT 10SM CLR 28/06 A3006 RMK AO2 SLP090 T02830056 55006 $,M
LAS,2023-08-09 02:56,-115.1634,36.0719,663.00,98.00,25.00,7.43,230.00,7.00,0.00,29.83,1007.00,10.00,M,FEW,FEW,M,M,12000.00,22000.00,M,M,M,M,M,M,M,M,M,91.42,KLAS 090256Z 23007KT 10SM FEW120 FEW220 37/M04 A2983 RMK AO2 SLP070 T03671039 55001,M
05U,2023-08-09 03:10,-116.0051,39.6042,1811.23,73.40,35.60,25.13,M,M,0.00,30.13,M,10.00,M,M,M,M,M,M,M,M,M,M,M,M,M,M,M,M,73.40,K05U 090310Z AUTO 10SM 23/02 A3013 RMK A01,M
BVU,2023-08-09 03:15,-114.8611,35.9475,671.00,95.00,5.00,3.40,230.00,6.00,0.00,29.83,M,10.00,11.00,CLR,M,M,M,M,M,M,M,M,M,M,M,M,M,M,87.86,KBVU 090315Z AUTO 23006G11KT 10SM CLR 35/M15 A2983 RMK AO2,M
CXP,2023-08-09 03:15,-119.7326,39.1923,1431.00,77.00,44.60,31.62,M,3.00,0.00,30.07,M,10.00,M,CLR,M,M,M,M,M,M,M,M,M,M,M,M,M,M,77.00,KCXP 090315Z AUTO VRB03KT 10SM CLR 25/07 A3007 RMK AO2,M
RTS,2023-08-09 03:15,-119.8764,39.6682,1539.00,75.20,35.60,23.66,300.00,13.00,0.00,30.10,M,10.00,M,CLR,M,M,M,M,M,M,M,M,M,M,M,M,M,M,75.20,KRTS 090315Z AUTO 30013KT 10SM CLR 24/02 A3010 RMK AO2,M
MEV,2023-08-09 03:15,-119.7500,38.9963,1441.42,75.20,44.60,33.57,M,4.00,0.00,30.06,M,10.00,12.00,CLR,M,M,M,M,M,M,M,M,M,M,M,M,M,M,75.20,KMEV 090315Z AUTO VRB04G12KT 10SM CLR 24/07 A3006 RMK AO2,M
HTH,2023-08-09 03:15,-118.6315,38.5448,1282.89,82.40,32.00,16.17,310.00,7.00,0.00,29.99,M,10.00,M,CLR,M,M,M,M,M,M,M,M,M,M,M,M,M,M,80.00,KHTH 090315Z AUTO 31007KT 10SM CLR 28/M00 A2999 RMK A01,M
10U,2023-08-09 03:15,-116.1876,41.9532,1637.00,66.20,42.80,42.57,130.00,6.00,0.00,30.11,M,10.00,M,CLR,M,M,M,M,M,M,M,M,M,M,M,M,M,M,66.20,K10U 090315Z AUTO 13006KT 10SM CLR 19/06 A3011 RMK AO2,M
BAM,2023-08-09 03:15,-116.8743,40.5990,1382.36,77.00,42.80,29.51,350.00,3.00,0.00,30.04,M,10.00,M,CLR,M,M,M,M,M,M,M,M,M,M,M,M,M,M,77.00,KBAM 090315Z AUTO 35003KT 10SM CLR 25/06 A3004 RMK AO1,M
TMT,2023-08-09 03:15,-117.1971,39.4643,1749.34,68.50,34.30,28.19,0.00,0.00,0.00,30.13,M,M,M,CLR,M,M,M,M,M,M,M,M,M,M,M,M,M,M,68.50,KTMT 090315Z AUTO 00000KT CLR 20/01 A3013 RMK AO2 T02030013 PWINO,M
BVU,2023-08-09 03:35,-114.8611,35.9475,671.00,93.20,3.20,3.31,220.00,5.00,0.00,29.84,M,10.00,M,CLR,M,M,M,M,M,M,M,M,M,M,M,M,M,M,86.55,KBVU 090335Z AUTO 22005KT 10SM CLR 34/M16 A2984 RMK AO2,M
CXP,2023-08-09 03:35,-119.7326,39.1923,1431.00,77.00,44.60,31.62,270.00,5.00,0.00,30.07,M,10.00,M,CLR,M,M,M,M,M,M,M,M,M,M,M,M,M,M,77.00,KCXP 090335Z AUTO 27005KT 10SM CLR 25/07 A3007 RMK AO2,M
RTS,2023-08-09 03:35,-119.8764,39.6682,1539.00,73.40,35.60,25.13,300.00,12.00,0.00,30.10,M,10.00,M,CLR,M,M,M,M,M,M,M,M,M,M,M,M,M,M,73.40,KRTS 090335Z AUTO 30012KT 10SM CLR 23/02 A3010 RMK AO2,M
05U,2023-08-09 03:35,-116.0051,39.6042,1811.23,68.00,35.60,30.20,M,M,0.00,30.14,M,10.00,M,M,M,M,M,M,M,M,M,M,M,M,M,M,M,M,68.00,K05U 090335Z AUTO 10SM 20/02 A3014 RMK A01,M
MEV,2023-08-09 03:35,-119.7500,38.9963,1441.42,75.20,44.60,33.57,290.00,10.00,0.00,30.06,M,10.00,M,CLR,M,M,M,M,M,M,M,M,M,M,M,M,M,M,75.20,KMEV 090335Z AUTO 29010KT 10SM CLR 24/07 A3006 RMK AO2,M
HTH,2023-08-09 03:35,-118.6315,38.5448,1282.89,82.40,32.00,16.17,310.00,5.00,0.00,29.99,M,10.00,M,CLR,M,M,M,M,M,M,M,M,M,M,M,M,M,M,80.00,KHTH 090335Z AUTO 31005KT 10SM CLR 28/M00 A2999 RMK A01,M
10U,2023-08-09 03:35,-116.1876,41.9532,1637.00,64.40,44.60,48.55,140.00,7.00,0.00,30.11,M,10.00,M,CLR,M,M,M,M,M,M,M,M,M,M,M,M,M,M,64.40,K10U 090335Z AUTO 14007KT 10SM CLR 18/07 A3011 RMK AO2,M
BAM,2023-08-09 03:35,-116.8743,40.5990,1382.36,75.20,41.00,29.23,350.00,5.00,0.00,30.05,M,10.00,M,CLR,M,M,M,M,M,M,M,M,M,M,M,M,M,M,75.20,KBAM 090335Z AUTO 35005KT 10SM CLR 24/05 A3005 RMK AO1,M
TMT,2023-08-09 03:35,-117.1971,39.4643,1749.34,66.00,35.00,31.60,0.00,0.00,0.00,30.13,M,M,M,CLR,M,M,M,M,M,M,M,M,M,M,M,M,M,M,66.00,KTMT 090335Z AUTO 00000KT CLR 19/02 A3013 RMK AO2 T01890016 PWINO,M
05U,2023-08-09 03:50,-116.0051,39.6042,1811.23,68.00,37.40,32.43,M,M,0.00,30.15,M,10.00,M,M,M,M,M,M,M,M,M,M,M,M,M,M,M,M,68.00,K05U 090350Z AUTO 10SM 20/03 A3015 RMK A01,M
P68,2023-08-09 03:53,-116.0056,39.6014,1993.00,66.00,38.00,35.58,80.00,4.00,0.00,30.12,1012.40,M,M,M,M,M,M,M,M,M,M,M,M,M,M,M,M,M,66.00,KP68 090353Z AUTO 08004KT 19/03 A3012 RMK AO1 SLP124 T01890033,M
DRA,2023-08-09 03:53,-116.0278,36.6206,1009.00,90.00,24.00,9.13,200.00,11.00,0.00,29.91,1007.40,10.00,17.00,CLR,M,M,M,M,M,M,M,M,M,M,M,M,M,M,85.11,KDRA 090353Z AUTO 20011G17KT 10SM CLR 32/M04 A2991 RMK AO2 SLP074 T03221044,M
ELY,2023-08-09 03:53,-114.8453,39.2950,1909.00,67.00,37.00,33.04,320.00,6.00,0.00,30.14,1011.10,10.00,M,CLR,M,M,M,M,M,M,M,M,M,M,M,M,M,M,67.00,KELY 090353Z AUTO 32006KT 10SM CLR 19/03 A3014 RMK AO2 SLP111 T01940028,M
VGT,2023-08-09 03:53,-115.1933,36.2111,667.00,98.00,26.00,7.75,240.00,9.00,0.00,29.82,1008.30,10.00,M,CLR,M,M,M,M,M,M,M,M,M,M,M,M,M,M,91.51,KVGT 090353Z 24009KT 10SM CLR 37/M03 A2982 RMK AO2 SLP083 T03671033,M
LOL,2023-08-09 03:53,-118.5701,40.0684,1192.43,78.00,41.00,26.64,0.00,0.00,0.00,29.97,1010.80,10.00,M,CLR,M,M,M,M,M,M,M,M,M,M,M,M,M,M,78.00,KLOL 090353Z AUTO 00000KT 10SM CLR 26/05 A2997 RMK AO2 SLP108 T02560050,M
BVU,2023-08-09 03:55,-114.8611,35.9475,671.00,91.40,1.40,3.22,220.00,4.00,0.00,29.84,M,10.00,M,CLR,M,M,M,M,M,M,M,M,M,M,M,M,M,M,85.24,KBVU 090355Z AUTO 22004KT 10SM CLR 33/M17 A2984 RMK AO2,M
CXP,2023-08-09 03:55,-119.7326,39.1923,1431.00,77.00,42.80,29.51,280.00,4.00,0.00,30.07,M,10.00,M,CLR,M,M,M,M,M,M,M,M,M,M,M,M,M,M,77.00,KCXP 090355Z AUTO 28004KT 10SM CLR 25/06 A3007 RMK AO2,M
RNO,2023-08-09 03:55,-119.7711,39.4839,1341.00,80.00,41.00,24.94,330.00,14.00,0.00,30.04,1011.30,10.00,M,FEW,M,M,M,25000.00,M,M,M,M,M,M,M,M,M,M,78.87,KRNO 090355Z 33014KT 10SM FEW250 27/05 A3004 RMK AO2 SLP113 T02670050,M
RTS,2023-08-09 03:55,-119.8764,39.6682,1539.00,73.40,37.40,26.98,310.00,12.00,0.00,30.10,M,10.00,M,CLR,M,M,M,M,M,M,M,M,M,M,M,M,M,M,73.40,KRTS 090355Z AUTO 31012KT 10SM CLR 23/03 A3010 RMK AO2,M
MEV,2023-08-09 03:55,-119.7500,38.9963,1441.42,75.20,44.60,33.57,280.00,5.00,0.00,30.06,M,10.00,13.00,CLR,M,M,M,M,M,M,M,M,M,M,M,M,M,M,75.20,KMEV 090355Z AUTO 28005G13KT 10SM CLR 24/07 A3006 RMK AO2,M
HTH,2023-08-09 03:55,-118.6315,38.5448,1282.89,80.60,32.00,17.14,330.00,5.00,0.00,30.00,M,10.00,M,CLR,M,M,M,M,M,M,M,M,M,M,M,M,M,M,78.82,KHTH 090355Z AUTO 33005KT 10SM CLR 27/00 A3000 RMK A01,M
BAM,2023-08-09 03:55,-116.8743,40.5990,1382.36,73.40,41.00,31.05,40.00,3.00,0.00,30.05,M,10.00,M,CLR,M,M,M,M,M,M,M,M,M,M,M,M,M,M,73.40,KBAM 090355Z AUTO 04003KT 10SM CLR 23/05 A3005 RMK AO1,M
TMT,2023-08-09 03:55,-117.1971,39.4643,1749.34,68.50,33.80,27.63,0.00,0.00,0.00,30.13,M,M,M,CLR,M,M,M,M,M,M,M,M,M,M,M,M,M,M,68.50,KTMT 090355Z AUTO 00000KT CLR 20/01 A3013 RMK AO2 T02030010 PWINO,M
10U,2023-08-09 03:55,-116.1876,41.9532,1637.00,60.80,44.60,55.12,M,5.00,0.00,30.12,M,10.00,M,CLR,M,M,M,M,M,M,M,M,M,M,M,M,M,M,60.80,K10U 090355Z AUTO VRB05KT 10SM CLR 16/07 A3012 RMK AO2,M
INS,2023-08-09 03:55,-115.6733,36.5872,955.00,90.00,14.00,5.95,170.00,9.00,0.00,29.90,1007.20,10.00,M,CLR,M,M,M,M,M,M,M,M,M,M,M,M,M,M,84.59,KINS 090355Z AUTO 17009KT 10SM CLR 32/M10 A2990 RMK AO2 SLP072 T03231099 $,M
LSV,2023-08-09 03:55,-115.0343,36.2362,570.00,95.00,21.40,7.00,200.00,10.00,0.00,29.78,1005.60,10.00,M,CLR,M,M,M,M,M,M,M,M,M,M,M,M,M,M,88.64,KLSV 090355Z AUTO 20010KT 10SM CLR 35/M06 A2978 RMK AO2 SLP056 T03511059 $,M
EKO,2023-08-09 03:56,-115.7860,40.8242,1367.00,71.00,37.00,28.81,0.00,0.00,0.00,30.08,1013.40,10.00,M,CLR,M,M,M,M,M,M,M,M,M,M,M,M,M,M,71.00,KEKO 090356Z AUTO 00000KT 10SM CLR 22/03 A3008 RMK AO2 SLP134 T02170028,M
WMC,2023-08-09 03:56,-117.8072,40.9019,1315.00,72.00,41.00,32.56,70.00,4.00,0.00,30.01,1011.90,10.00,M,CLR,M,M,M,M,M,M,M,M,M,M,M,M,M,M,72.00,KWMC 090356Z AUTO 07004KT 10SM CLR 22/05 A3001 RMK AO2 SLP119 T02220050,M
NFL,2023-08-09 03:56,-118.7010,39.4166,1199.00,75.00,39.00,27.23,40.00,6.00,0.00,29.97,1012.00,10.00,M,FEW,SCT,M,M,12000.00,25000.00,M,M,M,M,M,M,M,M,M,75.00,KNFL 090356Z 04006KT 10SM FEW120 SCT250 24/04 A2997 RMK AO2 SLP120 T02390039,M
HND,2023-08-09 03:56,-115.1344,35.9729,742.79,92.00,11.00,4.90,210.00,12.00,0.00,29.89,1010.30,10.00,M,CLR,M,M,M,M,M,M,M,M,M,M,M,M,M,M,85.92,KHND 090356Z AUTO 21012KT 10SM CLR 33/M12 A2989 RMK AO2 SLP103 T03331117,M
TPH,2023-08-09 03:56,-117.0904,38.0505,1654.00,75.00,34.00,22.35,350.00,5.00,0.00,30.06,1009.60,10.00,M,CLR,M,M,M,M,M,M,M,M,M,M,M,M,M,M,75.00,KTPH 090356Z AUTO 35005KT 10SM CLR 24/01 A3006 RMK AO2 SLP096 T02390011 $,M
LAS,2023-08-09 03:56,-115.1634,36.0719,663.00,96.00,12.00,4.52,230.00,9.00,0.00,29.84,1007.40,10.00,M,FEW,FEW,M,M,12000.00,22000.00,M,M,M,M,M,M,M,M,M,88.94,KLAS 090356Z 23009KT 10SM FEW120 FEW220 36/M11 A2984 RMK AO2 SLP074 T03561111,M
05U,2023-08-09 04:10,-116.0051,39.6042,1811.23,66.20,37.40,34.51,M,M,0.00,30.15,M,10.00,M,M,M,M,M,M,M,M,M,M,M,M,M,M,M,M,66.20,K05U 090410Z AUTO 10SM 19/03 A3015 RMK A01,M
BVU,2023-08-09 04:15,-114.8611,35.9475,671.00,91.40,1.40,3.22,0.00,0.00,0.00,29.85,M,10.00,M,CLR,M,M,M,M,M,M,M,M,M,M,M,M,M,M,85.24,KBVU 090415Z AUTO 00000KT 10SM CLR 33/M17 A2985 RMK AO2,M
CXP,2023-08-09 04:15,-119.7326,39.1923,1431.00,75.20,44.60,33.57,M,5.00,0.00,30.08,M,10.00,M,CLR,M,M,M,M,M,M,M,M,M,M,M,M,M,M,75.20,KCXP 090415Z AUTO VRB05KT 10SM CLR 24/07 A3008 RMK AO2,M
RTS,2023-08-09 04:15,-119.8764,39.6682,1539.00,71.60,37.40,28.68,300.00,12.00,0.00,30.11,M,10.00,M,CLR,M,M,M,M,M,M,M,M,M,M,M,M,M,M,71.60,KRTS 090415Z AUTO 30012KT 10SM CLR 22/03 A3011 RMK AO2,M
MEV,2023-08-09 04:15,-119.7500,38.9963,1441.42,73.40,46.40,38.18,300.00,3.00,0.00,30.07,M,10.00,M,CLR,M,M,M,M,M,M,M,M,M,M,M,M,M,M,73.40,KMEV 090415Z AUTO 30003KT 10SM CLR 23/08 A3007 RMK AO2,M
HTH,2023-08-09 04:15,-118.6315,38.5448,1282.89,78.80,33.80,19.55,320.00,5.00,0.00,30.00,M,10.00,M,CLR,M,M,M,M,M,M,M,M,M,M,M,M,M,M,78.80,KHTH 090415Z AUTO 32005KT 10SM CLR 26/01 A3000 RMK A01,M
10U,2023-08-09 04:15,-116.1876,41.9532,1637.00,62.60,42.80,48.28,0.00,0.00,0.00,30.12,M,10.00,M,CLR,M,M,M,M,M,M,M,M,M,M,M,M,M,M,62.60,K10U 090415Z AUTO 00000KT 10SM CLR 17/06 A3012 RMK AO2,M
BAM,2023-08-09 04:15,-116.8743,40.5990,1382.36,69.80,42.80,37.61,60.00,3.00,0.00,30.05,M,10.00,M,CLR,M,M,M,M,M,M,M,M,M,M,M,M,M,M,69.80,KBAM 090415Z AUTO 06003KT 10SM CLR 21/06 A3005 RMK AO1,M
TMT,2023-08-09 04:15,-117.1971,39.4643,1749.34,58.50,33.00,38.01,160.00,3.00,0.00,30.14,M,M,M,CLR,M,M,M,M,M,M,M,M,M,M,M,M,M,M,58.50,KTMT 090415Z AUTO 16003KT CLR 15/01 A3014 RMK AO2 T01470006 PWINO,M
05U,2023-08-09 04:30,-116.0051,39.6042,1811.23,64.40,37.40,36.74,M,M,0.00,30.16,M,10.00,M,M,M,M,M,M,M,M,M,M,M,M,M,M,M,M,64.40,K05U 090430Z AUTO 10SM 18/03 A3016 RMK A01,M
BVU,2023-08-09 04:35,-114.8611,35.9475,671.00,87.80,19.40,8.06,0.00,0.00,0.00,29.85,M,10.00,M,CLR,M,M,M,M,M,M,M,M,M,M,M,M,M,M,83.23,KBVU 090435Z AUTO 00000KT 10SM CLR 31/M07 A2985 RMK AO2,M
CXP,2023-08-09 04:35,-119.7326,39.1923,1431.00,73.40,42.80,33.29,M,4.00,0.00,30.08,M,10.00,M,CLR,M,M,M,M,M,M,M,M,M,M,M,M,M,M,73.40,KCXP 090435Z AUTO VRB04KT 10SM CLR 23/06 A3008 RMK AO2,M
RTS,2023-08-09 04:35,-119.8764,39.6682,1539.00,71.60,37.40,28.68,290.00,11.00,0.00,30.11,M,10.00,17.00,CLR,M,M,M,M,M,M,M,M,M,M,M,M,M,M,71.60,KRTS 090435Z AUTO 29011G17KT 10SM CLR 22/03 A3011 RMK AO2,M
MEV,2023-08-09 04:35,-119.7500,38.9963,1441.42,69.80,46.40,43.13,0.00,0.00,0.00,30.08,M,10.00,M,CLR,M,M,M,M,M,M,M,M,M,M,M,M,M,M,69.80,KMEV 090435Z AUTO 00000KT 10SM CLR 21/08 A3008 RMK AO2,M
HTH,2023-08-09 04:35,-118.6315,38.5448,1282.89,78.80,33.80,19.55,340.00,5.00,0.00,30.01,M,10.00,M,CLR,M,M,M,M,M,M,M,M,M,M,M,M,M,M,78.80,KHTH 090435Z AUTO 34005KT 10SM CLR 26/01 A3001 RMK A01,M
10U,2023-08-09 04:35,-116.1876,41.9532,1637.00,62.60,42.80,48.28,160.00,4.00,0.00,30.12,M,10.00,M,CLR,M,M,M,M,M,M,M,M,M,M,M,M,M,M,62.60,K10U 090435Z AUTO 16004KT 10SM CLR 17/06 A3012 RMK AO2,M
BAM,2023-08-09 04:35,-116.8743,40.5990,1382.36,69.80,41.00,35.09,30.00,3.00,0.00,30.05,M,10.00,M,CLR,M,M,M,M,M,M,M,M,M,M,M,M,M,M,69.80,KBAM 090435Z AUTO 03003KT 10SM CLR 21/05 A3005 RMK AO1,M
TMT,2023-08-09 04:35,-117.1971,39.4643,1749.34,59.50,30.70,33.43,170.00,4.00,0.00,30.14,M,M,M,CLR,M,M,M,M,M,M,M,M,M,M,M,M,M,M,59.50,KTMT 090435Z AUTO 17004KT CLR 15/M01 A3014 RMK AO2 T01531007 PWINO,M
05U,2023-08-09 04:50,-116.0051,39.6042,1811.23,62.60,35.60,36.45,M,M,0.00,30.16,M,10.00,M,M,M,M,M,M,M,M,M,M,M,M,M,M,M,M,62.60,K05U 090450Z AUTO 10SM 17/02 A3016 RMK A01,M
P68,2023-08-09 04:53,-116.0056,39.6014,1993.00,62.00,36.00,37.83,150.00,3.00,0.00,30.14,1012.90,M,M,M,M,M,M,M,M,M,M,M,M,M,M,M,M,M,62.00,KP68 090453Z AUTO 15003KT 17/02 A3014 RMK AO1 SLP129 T01670022,M
DRA,2023-08-09 04:53,-116.0278,36.6206,1009.00,89.00,14.00,6.14,200.00,12.00,0.00,29.93,1007.70,10.00,22.00,CLR,M,M,M,M,M,M,M,M,M,M,M,27.00,210.00,2023-08-09 04:33,83.86,KDRA 090453Z AUTO 20012G22KT 10SM CLR 32/M10 A2993 RMK AO2 PK WND 21027/0433 SLP077 T03171100,M
ELY,2023-08-09 04:53,-114.8453,39.2950,1909.00,63.00,39.00,41.09,M,4.00,0.00,30.15,1011.40,10.00,M,CLR,M,M,M,M,M,M,M,M,M,M,M,M,M,M,63.00,KELY 090453Z AUTO VRB04KT 10SM CLR 17/04 A3015 RMK AO2 SLP114 T01720039,M
LOL,2023-08-09 04:53,-118.5701,40.0684,1192.43,72.00,36.00,26.77,310.00,7.00,0.00,29.98,1011.40,10.00,M,CLR,M,M,M,M,M,M,M,M,M,M,M,M,M,M,72.00,KLOL 090453Z AUTO 31007KT 10SM CLR 22/02 A2998 RMK AO2 SLP114 T02220022,M
BVU,2023-08-09 04:55,-114.8611,35.9475,671.00,89.60,5.00,4.03,0.00,0.00,0.00,29.85,M,10.00,M,CLR,M,M,M,M,M,M,M,M,M,M,M,M,M,M,84.03,KBVU 090455Z AUTO 00000KT 10SM CLR 32/M15 A2985 RMK AO2,M
CXP,2023-08-09 04:55,-119.7326,39.1923,1431.00,73.40,42.80,33.29,340.00,4.00,0.00,30.09,M,10.00,M,CLR,M,M,M,M,M,M,M,M,M,M,M,M,M,M,73.40,KCXP 090455Z AUTO 34004KT 10SM CLR 23/06 A3009 RMK AO2,M
RNO,2023-08-09 04:55,-119.7711,39.4839,1341.00,77.00,44.00,30.90,300.00,10.00,0.00,30.05,1011.70,10.00,M,CLR,M,M,M,M,M,M,M,M,M,M,M,M,M,M,77.00,KRNO 090455Z 30010KT 10SM CLR 25/07 A3005 RMK AO2 SLP117 T02500067,M
RTS,2023-08-09 04:55,-119.8764,39.6682,1539.00,69.80,39.20,32.72,290.00,11.00,0.00,30.12,M,10.00,M,CLR,M,M,M,M,M,M,M,M,M,M,M,M,M,M,69.80,KRTS 090455Z AUTO 29011KT 10SM CLR 21/04 A3012 RMK AO2,M
MEV,2023-08-09 04:55,-119.7500,38.9963,1441.42,71.60,44.60,37.89,0.00,0.00,0.00,30.08,M,10.00,M,CLR,M,M,M,M,M,M,M,M,M,M,M,M,M,M,71.60,KMEV 090455Z AUTO 00000KT 10SM CLR 22/07 A3008 RMK AO2,M
HTH,2023-08-09 04:55,-118.6315,38.5448,1282.89,77.00,41.00,27.53,M,4.00,0.00,30.01,M,10.00,M,CLR,M,M,M,M,M,M,M,M,M,M,M,M,M,M,77.00,KHTH 090455Z AUTO VRB04KT 10SM CLR 25/05 A3001 RMK A01,M
BAM,2023-08-09 04:55,-116.8743,40.5990,1382.36,66.20,39.20,37.03,170.00,4.00,0.00,30.06,M,10.00,M,CLR,M,M,M,M,M,M,M,M,M,M,M,M,M,M,66.20,KBAM 090455Z AUTO 17004KT 10SM CLR 19/04 A3006 RMK AO1,M
TMT,2023-08-09 04:55,-117.1971,39.4643,1749.34,54.00,28.20,36.82,180.00,6.00,0.00,30.14,M,M,M,CLR,M,M,M,M,M,M,M,M,M,M,M,M,M,M,54.00,KTMT 090455Z AUTO 18006KT CLR 12/M02 A3014 RMK AO2 T01231021 PWINO,M
10U,2023-08-09 04:55,-116.1876,41.9532,1637.00,57.20,44.60,62.69,200.00,3.00,0.00,30.12,M,10.00,M,CLR,M,M,M,M,M,M,M,M,M,M,M,M,M,M,57.20,K10U 090455Z AUTO 20003KT 10SM CLR 14/07 A3012 RMK AO2,M
INS,2023-08-09 04:55,-115.6733,36.5872,955.00,89.80,10.00,5.02,170.00,8.00,0.00,29.90,1007.00,10.00,M,CLR,M,M,M,M,M,M,M,M,M,M,M,M,M,M,84.31,KINS 090455Z AUTO 17008KT 10SM CLR 32/M12 A2990 RMK AO2 SLP070 T03211123 $,M
LSV,2023-08-09 04:55,-115.0343,36.2362,570.00,89.60,20.50,7.98,180.00,6.00,0.00,29.79,1006.00,10.00,M,CLR,M,M,M,M,M,M,M,M,M,M,M,M,M,M,84.60,KLSV 090455Z AUTO 18006KT 10SM CLR 32/M06 A2979 RMK AO2 SLP060 T03201064 $,M
EKO,2023-08-09 04:56,-115.7860,40.8242,1367.00,65.00,36.00,34.05,110.00,6.00,0.00,30.09,1013.60,10.00,M,CLR,M,M,M,M,M,M,M,M,M,M,M,M,M,M,65.00,KEKO 090456Z AUTO 11006KT 10SM CLR 18/02 A3009 RMK AO2 SLP136 T01830022,M
WMC,2023-08-09 04:56,-117.8072,40.9019,1315.00,68.00,38.00,33.20,0.00,0.00,0.00,30.01,1011.90,10.00,M,CLR,M,M,M,M,M,M,M,M,M,M,M,M,M,M,68.00,KWMC 090456Z AUTO 00000KT 10SM CLR 20/03 A3001 RMK AO2 SLP119 T02000033,M
NFL,2023-08-09 04:56,-118.7010,39.4166,1199.00,73.00,38.00,28.00,320.00,4.00,0.00,29.98,1012.40,10.00,M,FEW,M,M,M,25000.00,M,M,M,M,M,M,M,M,M,M,73.00,KNFL 090456Z 32004KT 10SM FEW250 23/03 A2998 RMK AO2 SLP124 T02280033,M
HND,2023-08-09 04:56,-115.1344,35.9729,742.79,92.00,17.00,6.37,210.00,14.00,0.00,29.90,1010.50,10.00,M,CLR,M,M,M,M,M,M,M,M,M,M,M,M,M,M,86.17,KHND 090456Z AUTO 21014KT 10SM CLR 33/M08 A2990 RMK AO2 SLP105 T03331083,M
TPH,2023-08-09 04:56,-117.0904,38.0505,1654.00,75.00,32.00,20.63,200.00,8.00,0.00,30.08,1009.70,10.00,M,CLR,M,M,M,M,M,M,M,M,M,M,M,M,M,M,75.00,KTPH 090456Z AUTO 20008KT 10SM CLR 24/00 A3008 RMK AO2 SLP097 T02390000 $,M
LAS,2023-08-09 04:56,-115.1634,36.0719,663.00,93.00,17.00,6.17,260.00,6.00,0.00,29.85,1007.80,10.00,M,FEW,BKN,M,M,12000.00,20000.00,M,M,M,M,M,M,M,M,M,86.90,KLAS 090456Z 26006KT 10SM FEW120 BKN200 34/M08 A2985 RMK AO2 SLP078 T03391083,M
05U,2023-08-09 05:10,-116.0051,39.6042,1811.23,60.80,37.40,41.71,M,M,0.00,30.16,M,10.00,M,M,M,M,M,M,M,M,M,M,M,M,M,M,M,M,60.80,K05U 090510Z AUTO 10SM 16/03 A3016 RMK A01,M
BVU,2023-08-09 05:15,-114.8611,35.9475,671.00,91.40,5.00,3.81,190.00,5.00,0.00,29.85,M,10.00,M,CLR,M,M,M,M,M,M,M,M,M,M,M,M,M,M,85.32,KBVU 090515Z AUTO 19005KT 10SM CLR 33/M15 A2985 RMK AO2,M
CXP,2023-08-09 05:15,-119.7326,39.1923,1431.00,73.40,42.80,33.29,0.00,0.00,0.00,30.09,M,10.00,M,CLR,M,M,M,M,M,M,M,M,M,M,M,M,M,M,73.40,KCXP 090515Z AUTO 00000KT 10SM CLR 23/06 A3009 RMK AO2,M
RTS,2023-08-09 05:15,-119.8764,39.6682,1539.00,69.80,39.20,32.72,290.00,11.00,0.00,30.12,M,10.00,M,CLR,M,M,M,M,M,M,M,M,M,M,M,M,M,M,69.80,KRTS 090515Z AUTO 29011KT 10SM CLR 21/04 A3012 RMK AO2,M
MEV,2023-08-09 05:15,-119.7500,38.9963,1441.42,68.00,44.60,42.85,100.00,5.00,0.00,30.08,M,10.00,M,CLR,M,M,M,M,M,M,M,M,M,M,M,M,M,M,68.00,KMEV 090515Z AUTO 10005KT 10SM CLR 20/07 A3008 RMK AO2,M
BAM,2023-08-09 05:15,-116.8743,40.5990,1382.36,68.00,39.20,34.80,0.00,0.00,0.00,30.05,M,10.00,M,CLR,M,M,M,M,M,M,M,M,M,M,M,M,M,M,68.00,KBAM 090515Z AUTO 00000KT 10SM CLR 20/04 A3005 RMK AO1,M
HTH,2023-08-09 05:15,-118.6315,38.5448,1282.89,77.00,37.40,23.93,0.00,0.00,0.00,30.01,M,10.00,M,M,M,M,M,M,M,M,M,M,M,M,M,M,M,M,77.00,KHTH 090515Z AUTO 00000KT 10SM 25/03 A3001 RMK A01,M
10U,2023-08-09 05:15,-116.1876,41.9532,1637.00,60.80,44.60,55.12,0.00,0.00,0.00,30.11,M,10.00,M,CLR,M,M,M,M,M,M,M,M,M,M,M,M,M,M,60.80,K10U 090515Z AUTO 00000KT 10SM CLR 16/07 A3011 RMK AO2,M
TMT,2023-08-09 05:15,-117.1971,39.4643,1749.34,54.00,27.50,35.78,170.00,5.00,0.00,30.14,M,M,M,CLR,M,M,M,M,M,M,M,M,M,M,M,M,M,M,54.00,KTMT 090515Z AUTO 17005KT CLR 12/M02 A3014 RMK AO2 T01231025 PWINO,M
05U,2023-08-09 05:30,-116.0051,39.6042,1811.23,59.00,35.60,41.42,M,M,0.00,30.16,M,10.00,M,M,M,M,M,M,M,M,M,M,M,M,M,M,M,M,59.00,K05U 090530Z AUTO 10SM 15/02 A3016 RMK A01,M
BVU,2023-08-09 05:35,-114.8611,35.9475,671.00,89.60,6.80,4.37,220.00,7.00,0.00,29.85,M,10.00,M,CLR,M,M,M,M,M,M,M,M,M,M,M,M,M,M,84.07,KBVU 090535Z AUTO 22007KT 10SM CLR 32/M14 A2985 RMK AO2,M
CXP,2023-08-09 05:35,-119.7326,39.1923,1431.00,73.40,44.60,35.66,10.00,4.00,0.00,30.09,M,10.00,M,CLR,M,M,M,M,M,M,M,M,M,M,M,M,M,M,73.40,KCXP 090535Z AUTO 01004KT 10SM CLR 23/07 A3009 RMK AO2,M
RTS,2023-08-09 05:35,-119.8764,39.6682,1539.00,68.00,37.40,32.43,290.00,10.00,0.00,30.12,M,10.00,M,CLR,M,M,M,M,M,M,M,M,M,M,M,M,M,M,68.00,KRTS 090535Z AUTO 29010KT 10SM CLR 20/03 A3012 RMK AO2,M
MEV,2023-08-09 05:35,-119.7500,38.9963,1441.42,62.60,44.60,51.72,90.00,4.00,0.00,30.08,M,10.00,M,CLR,M,M,M,M,M,M,M,M,M,M,M,M,M,M,62.60,KMEV 090535Z AUTO 09004KT 10SM CLR 17/07 A3008 RMK AO2,M
HTH,2023-08-09 05:35,-118.6315,38.5448,1282.89,77.00,39.20,25.67,0.00,0.00,0.00,30.01,M,10.00,M,M,M,M,M,M,M,M,M,M,M,M,M,M,M,M,77.00,KHTH 090535Z AUTO 00000KT 10SM 25/04 A3001 RMK A01,M
10U,2023-08-09 05:35,-116.1876,41.9532,1637.00,59.00,44.60,58.77,130.00,5.00,0.00,30.11,M,10.00,M,CLR,M,M,M,M,M,M,M,M,M,M,M,M,M,M,59.00,K10U 090535Z AUTO 13005KT 10SM CLR 15/07 A3011 RMK AO2,M
BAM,2023-08-09 05:35,-116.8743,40.5990,1382.36,62.60,35.60,36.45,0.00,0.00,0.00,30.05,M,10.00,M,CLR,M,M,M,M,M,M,M,M,M,M,M,M,M,M,62.60,KBAM 090535Z AUTO 00000KT 10SM CLR 17/02 A3005 RMK AO1,M
TMT,2023-08-09 05:35,-117.1971,39.4643,1749.34,54.50,28.00,35.86,210.00,5.00,0.00,30.14,M,M,M,CLR,M,M,M,M,M,M,M,M,M,M,M,M,M,M,54.50,KTMT 090535Z AUTO 21005KT CLR 13/M02 A3014 RMK AO2 T01251023 PWINO,M
05U,2023-08-09 05:50,-116.0051,39.6042,1811.23,59.00,33.80,38.56,M,M,0.00,30.16,M,10.00,M,M,M,M,M,M,M,M,M,M,M,M,M,M,M,M,59.00,K05U 090550Z AUTO 10SM 15/01 A3016 RMK A01,M
P68,2023-08-09 05:53,-116.0056,39.6014,1993.00,58.00,36.00,43.62,100.00,5.00,0.00,30.13,1012.70,M,M,M,M,M,M,M,M,M,M,M,M,M,M,M,M,M,58.00,KP68 090553Z AUTO 10005KT 14/02 A3013 RMK AO1 SLP127 T01440022 10294 20144 50009,M
DRA,2023-08-09 05:53,-116.0278,36.6206,1009.00,86.00,23.00,9.94,220.00,14.00,0.00,29.92,1007.50,10.00,M,CLR,M,M,M,M,M,M,M,M,M,M,M,28.00,230.00,2023-08-09 05:27,82.14,KDRA 090553Z AUTO 22014KT 10SM CLR 30/M05 A2992 RMK AO2 PK WND 23028/0527 SLP075 T03001050 10367 20300 50005,M
ELY,2023-08-09 05:53,-114.8453,39.2950,1909.00,63.00,38.00,39.51,340.00,4.00,0.00,30.15,1010.80,10.00,M,CLR,M,M,M,M,M,M,M,M,M,M,M,M,M,M,63.00,KELY 090553Z AUTO 34004KT 10SM CLR 17/03 A3015 RMK AO2 SLP108 T01720033 10283 20167 51007,M
VGT,2023-08-09 05:53,-115.1933,36.2111,667.00,95.00,16.00,5.56,240.00,12.00,0.00,29.83,1008.60,10.00,M,CLR,M,M,M,M,M,M,M,M,M,M,M,M,M,M,88.30,KVGT 090553Z AUTO 24012KT 10SM CLR 35/M09 A2983 RMK AO2 SLP086 6//// T03501089 10400 20350 $,M
LOL,2023-08-09 05:53,-118.5701,40.0684,1192.43,70.00,36.00,28.65,260.00,6.00,0.00,29.98,1011.30,10.00,M,CLR,M,M,M,M,M,M,M,M,M,M,M,M,M,M,70.00,KLOL 090553Z AUTO 26006KT 10SM CLR 21/02 A2998 RMK AO2 SLP113 T02110022 10311 20206 51006,M
BVU,2023-08-09 05:55,-114.8611,35.9475,671.00,87.80,10.40,5.44,220.00,7.00,0.00,29.85,M,10.00,M,CLR,M,M,M,M,M,M,M,M,M,M,M,M,M,M,82.88,KBVU 090555Z AUTO 22007KT 10SM CLR 31/M12 A2985 RMK AO2,M
CXP,2023-08-09 05:55,-119.7326,39.1923,1431.00,71.60,44.60,37.89,360.00,4.00,0.00,30.09,M,10.00,M,CLR,M,M,M,M,M,M,M,M,M,M,M,M,M,M,71.60,KCXP 090555Z AUTO 36004KT 10SM CLR 22/07 A3009 RMK AO2,M
RNO,2023-08-09 05:55,-119.7711,39.4839,1341.00,75.00,45.00,34.31,330.00,6.00,0.00,30.06,1011.80,10.00,M,CLR,M,M,M,M,M,M,M,M,M,M,M,M,M,M,75.00,KRNO 090555Z 33006KT 10SM CLR 24/07 A3006 RMK AO2 SLP118 T02390072 10328 20239 51013,M
RTS,2023-08-09 05:55,-119.8764,39.6682,1539.00,68.00,37.40,32.43,290.00,13.00,0.00,30.12,M,10.00,M,CLR,M,M,M,M,M,M,M,M,M,M,M,M,M,M,68.00,KRTS 090555Z AUTO 29013KT 10SM CLR 20/03 A3012 RMK AO2,M
MEV,2023-08-09 05:55,-119.7500,38.9963,1441.42,59.00,46.40,62.92,120.00,4.00,0.00,30.08,M,10.00,M,FEW,FEW,M,M,4300.00,5000.00,M,M,M,M,M,M,M,M,M,59.00,KMEV 090555Z AUTO 12004KT 10SM FEW043 FEW050 15/08 A3008 RMK AO2,M
HTH,2023-08-09 05:55,-118.6315,38.5448,1282.89,77.00,33.80,20.74,0.00,0.00,0.00,30.01,M,10.00,M,CLR,M,M,M,M,M,M,M,M,M,M,M,M,M,M,77.00,KHTH 090555Z AUTO 00000KT 10SM CLR 25/01 A3001 RMK A01,M
BAM,2023-08-09 05:55,-116.8743,40.5990,1382.36,60.80,33.80,36.16,170.00,5.00,0.00,30.05,M,10.00,M,CLR,M,M,M,M,M,M,M,M,M,M,M,M,M,M,60.80,KBAM 090555Z AUTO 17005KT 10SM CLR 16/01 A3005 RMK AO1,M
TMT,2023-08-09 05:55,-117.1971,39.4643,1749.34,55.00,32.00,41.44,230.00,4.00,0.00,30.14,M,M,M,CLR,M,M,M,M,M,M,M,M,M,M,M,M,M,M,55.00,KTMT 090555Z AUTO 23004KT CLR 13/00 A3014 RMK AO2 T01281001 10289 20122 PWINO,M
10U,2023-08-09 05:55,-116.1876,41.9532,1637.00,60.80,44.60,55.12,130.00,9.00,0.00,30.10,M,10.00,M,CLR,M,M,M,M,M,M,M,M,M,M,M,M,M,M,60.80,K10U 090555Z AUTO 13009KT 10SM CLR 16/07 A3010 RMK AO2,M
INS,2023-08-09 05:55,-115.6733,36.5872,955.00,84.40,13.60,6.99,40.00,4.00,0.00,29.91,1007.50,10.00,16.00,CLR,M,M,M,M,M,M,M,M,M,M,M,M,M,M,80.56,KINS 090555Z AUTO 04004G16KT 10SM CLR 29/M10 A2991 RMK AO2 SLP075 T02911102 10364 20290 52006 $,M
LSV,2023-08-09 05:55,-115.0343,36.2362,570.00,88.30,13.00,6.01,190.00,8.00,0.00,29.79,1006.00,10.00,M,CLR,M,M,M,M,M,M,M,M,M,M,M,M,M,M,83.32,KLSV 090555Z AUTO 19008KT 10SM CLR 31/M11 A2979 RMK AO2 SLP060 T03131106 10405 20313 50010 $,M
EKO,2023-08-09 05:56,-115.7860,40.8242,1367.00,66.00,36.00,32.88,40.00,4.00,0.00,30.09,1013.30,10.00,M,CLR,M,M,M,M,M,M,M,M,M,M,M,M,M,M,66.00,KEKO 090556Z AUTO 04004KT 10SM CLR 19/02 A3009 RMK AO2 SLP133 T01890022 10289 20183 51004,M
WMC,2023-08-09 05:56,-117.8072,40.9019,1315.00,66.00,40.00,38.47,90.00,4.00,0.00,30.00,1011.40,10.00,M,CLR,M,M,M,M,M,M,M,M,M,M,M,M,M,M,66.00,KWMC 090556Z AUTO 09004KT 10SM CLR 19/04 A3000 RMK AO2 SLP114 T01890044 10311 20183 58001,M
NFL,2023-08-09 05:56,-118.7010,39.4166,1199.00,71.00,40.00,32.40,270.00,5.00,0.00,29.98,1012.50,10.00,M,FEW,M,M,M,25000.00,M,M,M,M,M,M,M,M,M,M,71.00,KNFL 090556Z 27005KT 10SM FEW250 22/04 A2998 RMK AO2 SLP125 T02170044 10328 20211 51007,M
HND,2023-08-09 05:56,-115.1344,35.9729,742.79,90.00,28.00,10.78,190.00,14.00,0.00,29.89,1010.30,10.00,M,CLR,M,M,M,M,M,M,M,M,M,M,M,M,M,M,85.43,KHND 090556Z AUTO 19014KT 10SM CLR 32/M02 A2989 RMK AO2 SLP103 T03221022 10389 20322 50004,M
TPH,2023-08-09 05:56,-117.0904,38.0505,1654.00,71.00,29.00,20.90,50.00,7.00,0.00,30.08,1010.00,10.00,M,CLR,M,M,M,M,M,M,M,M,M,M,M,M,M,M,71.00,KTPH 090556Z AUTO 05007KT 10SM CLR 22/M02 A3008 RMK AO2 SLP100 T02171017 10322 20217 51006 $,M
LAS,2023-08-09 05:56,-115.1634,36.0719,663.00,92.00,21.00,7.56,250.00,12.00,0.00,29.85,1007.50,10.00,17.00,FEW,BKN,M,M,12000.00,20000.00,M,M,M,M,M,M,M,M,M,86.40,KLAS 090556Z 25012G17KT 10SM FEW120 BKN200 33/M06 A2985 RMK AO2 SLP075 T03331061 10394 20333 50006,M
CXP,2023-08-09 06:15,-119.7326,39.1923,1431.00,69.80,44.60,40.29,340.00,5.00,0.00,30.09,M,10.00,M,CLR,M,M,M,M,M,M,M,M,M,M,M,M,M,M,69.80,KCXP 090615Z AUTO 34005KT 10SM CLR 21/07 A3009 RMK AO2,M
RTS,2023-08-09 06:15,-119.8764,39.6682,1539.00,68.00,39.20,34.80,290.00,10.00,0.00,30.11,M,10.00,M,CLR,M,M,M,M,M,M,M,M,M,M,M,M,M,M,68.00,KRTS 090615Z AUTO 29010KT 10SM CLR 20/04 A3011 RMK AO2,M
05U,2023-08-09 06:15,-116.0051,39.6042,1811.23,55.40,35.60,47.16,M,M,0.00,30.16,M,10.00,M,M,M,M,M,M,M,M,M,M,M,M,M,M,M,M,55.40,K05U 090615Z AUTO 10SM 13/02 A3016 RMK A01,M
MEV,2023-08-09 06:15,-119.7500,38.9963,1441.42,60.80,44.60,55.12,110.00,6.00,0.00,30.08,M,10.00,M,FEW,FEW,M,M,4500.00,5000.00,M,M,M,M,M,M,M,M,M,60.80,KMEV 090615Z AUTO 11006KT 10SM FEW045 FEW050 16/07 A3008 RMK AO2,M
HTH,2023-08-09 06:15,-118.6315,38.5448,1282.89,75.20,33.80,22.02,0.00,0.00,0.00,30.01,M,10.00,M,CLR,M,M,M,M,M,M,M,M,M,M,M,M,M,M,75.20,KHTH 090615Z AUTO 00000KT 10SM CLR 24/01 A3001 RMK A01,M
10U,2023-08-09 06:15,-116.1876,41.9532,1637.00,60.80,44.60,55.12,120.00,9.00,0.00,30.10,M,10.00,M,CLR,M,M,M,M,M,M,M,M,M,M,M,M,M,M,60.80,K10U 090615Z AUTO 12009KT 10SM CLR 16/07 A3010 RMK AO2,M
BAM,2023-08-09 06:15,-116.8743,40.5990,1382.36,62.60,37.40,39.14,0.00,0.00,0.00,30.04,M,10.00,M,CLR,M,M,M,M,M,M,M,M,M,M,M,M,M,M,62.60,KBAM 090615Z AUTO 00000KT 10SM CLR 17/03 A3004 RMK AO1,M
TMT,2023-08-09 06:15,-117.1971,39.4643,1749.34,52.00,31.30,44.96,230.00,5.00,0.00,30.14,M,M,M,CLR,M,M,M,M,M,M,M,M,M,M,M,M,M,M,52.00,KTMT 090615Z AUTO 23005KT CLR 11/00 A3014 RMK AO2 T01121004 PWINO,M
05U,2023-08-09 06:35,-116.0051,39.6042,1811.23,53.60,33.80,46.88,M,M,0.00,30.16,M,10.00,M,M,M,M,M,M,M,M,M,M,M,M,M,M,M,M,53.60,K05U 090635Z AUTO 10SM 12/01 A3016 RMK A01,M
BVU,2023-08-09 06:35,-114.8611,35.9475,671.00,86.00,19.40,8.53,240.00,4.00,0.00,29.86,M,10.00,M,CLR,M,M,M,M,M,M,M,M,M,M,M,M,M,M,81.94,KBVU 090635Z AUTO 24004KT 10SM CLR 30/M07 A2986 RMK AO2,M
CXP,2023-08-09 06:35,-119.7326,39.1923,1431.00,68.00,44.60,42.85,130.00,3.00,0.00,30.09,M,10.00,M,CLR,M,M,M,M,M,M,M,M,M,M,M,M,M,M,68.00,KCXP 090635Z AUTO 13003KT 10SM CLR 20/07 A3009 RMK AO2,M
RTS,2023-08-09 06:35,-119.8764,39.6682,1539.00,66.20,39.20,37.03,290.00,7.00,0.00,30.12,M,10.00,M,CLR,M,M,M,M,M,M,M,M,M,M,M,M,M,M,66.20,KRTS 090635Z AUTO 29007KT 10SM CLR 19/04 A3012 RMK AO2,M
MEV,2023-08-09 06:35,-119.7500,38.9963,1441.42,60.80,44.60,55.12,100.00,9.00,0.00,30.08,M,10.00,M,FEW,M,M,M,5000.00,M,M,M,M,M,M,M,M,M,M,60.80,KMEV 090635Z AUTO 10009KT 10SM FEW050 16/07 A3008 RMK AO2,M
HTH,2023-08-09 06:35,-118.6315,38.5448,1282.89,75.20,33.80,22.02,0.00,0.00,0.00,30.01,M,10.00,M,CLR,M,M,M,M,M,M,M,M,M,M,M,M,M,M,75.20,KHTH 090635Z AUTO 00000KT 10SM CLR 24/01 A3001 RMK A01,M
10U,2023-08-09 06:35,-116.1876,41.9532,1637.00,60.80,44.60,55.12,110.00,10.00,0.00,30.10,M,10.00,M,CLR,M,M,M,M,M,M,M,M,M,M,M,M,M,M,60.80,K10U 090635Z AUTO 11010KT 10SM CLR 16/07 A3010 RMK AO2,M
BAM,2023-08-09 06:35,-116.8743,40.5990,1382.36,62.60,35.60,36.45,160.00,4.00,0.00,30.04,M,10.00,M,CLR,M,M,M,M,M,M,M,M,M,M,M,M,M,M,62.60,KBAM 090635Z AUTO 16004KT 10SM CLR 17/02 A3004 RMK AO1,M
TMT,2023-08-09 06:35,-117.1971,39.4643,1749.34,53.80,33.00,45.07,230.00,3.00,0.00,30.14,M,M,M,CLR,M,M,M,M,M,M,M,M,M,M,M,M,M,M,53.80,KTMT 090635Z AUTO 23003KT CLR 12/01 A3014 RMK AO2 T01210006 PWINO,M
P68,2023-08-09 06:53,-116.0056,39.6014,1993.00,54.00,34.00,46.57,0.00,0.00,0.00,30.14,1013.10,M,M,M,M,M,M,M,M,M,M,M,M,M,M,M,M,M,54.00,KP68 090653Z AUTO 00000KT 12/01 A3014 RMK AO1 SLP131 T01220011,M
DRA,2023-08-09 06:53,-116.0278,36.6206,1009.00,84.00,25.00,11.52,240.00,14.00,0.00,29.92,1007.60,10.00,M,CLR,M,M,M,M,M,M,M,M,M,M,M,M,M,M,80.88,KDRA 090653Z AUTO 24014KT 10SM CLR 29/M04 A2992 RMK AO2 SLP076 T02891039,M
ELY,2023-08-09 06:53,-114.8453,39.2950,1909.00,60.00,37.00,42.24,0.00,0.00,0.00,30.16,1011.10,10.00,M,CLR,M,M,M,M,M,M,M,M,M,M,M,M,M,M,60.00,KELY 090653Z AUTO 00000KT 10SM CLR 16/03 A3016 RMK AO2 SLP111 T01560028,M
VGT,2023-08-09 06:53,-115.1933,36.2111,667.00,93.00,21.00,7.33,230.00,7.00,0.00,29.83,1008.60,10.00,M,CLR,M,M,M,M,M,M,M,M,M,M,M,M,M,M,87.13,KVGT 090653Z AUTO 23007KT 10SM CLR 34/M06 A2983 RMK AO2 SLP086 T03391061 $,M
LOL,2023-08-09 06:53,-118.5701,40.0684,1192.43,68.00,38.00,33.20,90.00,6.00,0.00,29.98,1011.20,10.00,M,CLR,M,M,M,M,M,M,M,M,M,M,M,M,M,M,68.00,KLOL 090653Z AUTO 09006KT 10SM CLR 20/03 A2998 RMK AO2 SLP112 T02000033,M
BVU,2023-08-09 06:55,-114.8611,35.9475,671.00,86.00,21.20,9.21,220.00,5.00,0.00,29.86,M,10.00,M,CLR,M,M,M,M,M,M,M,M,M,M,M,M,M,M,82.04,KBVU 090655Z AUTO 22005KT 10SM CLR 30/M06 A2986 RMK AO2,M
CXP,2023-08-09 06:55,-119.7326,39.1923,1431.00,68.00,44.60,42.85,0.00,0.00,0.00,30.10,M,10.00,M,CLR,M,M,M,M,M,M,M,M,M,M,M,M,M,M,68.00,KCXP 090655Z AUTO 00000KT 10SM CLR 20/07 A3010 RMK AO2,M
RNO,2023-08-09 06:55,-119.7711,39.4839,1341.00,73.00,45.00,36.70,320.00,7.00,0.00,30.06,1011.90,10.00,M,CLR,M,M,M,M,M,M,M,M,M,M,M,M,M,M,73.00,KRNO 090655Z 32007KT 10SM CLR 23/07 A3006 RMK AO2 SLP119 T02280072,M
RTS,2023-08-09 06:55,-119.8764,39.6682,1539.00,66.20,39.20,37.03,290.00,12.00,0.00,30.11,M,10.00,M,CLR,M,M,M,M,M,M,M,M,M,M,M,M,M,M,66.20,KRTS 090655Z AUTO 29012KT 10SM CLR 19/04 A3011 RMK AO2,M
05U,2023-08-09 06:55,-116.0051,39.6042,1811.23,51.80,32.00,46.59,M,M,0.00,30.16,M,10.00,M,M,M,M,M,M,M,M,M,M,M,M,M,M,M,M,51.80,K05U 090655Z AUTO 10SM 11/00 A3016 RMK A01,M
MEV,2023-08-09 06:55,-119.7500,38.9963,1441.42,59.00,46.40,62.92,110.00,6.00,0.00,30.08,M,10.00,M,FEW,M,M,M,5000.00,M,M,M,M,M,M,M,M,M,M,59.00,KMEV 090655Z AUTO 11006KT 10SM FEW050 15/08 A3008 RMK AO2,M
HTH,2023-08-09 06:55,-118.6315,38.5448,1282.89,69.80,33.80,26.43,100.00,4.00,0.00,30.01,M,10.00,M,CLR,M,M,M,M,M,M,M,M,M,M,M,M,M,M,69.80,KHTH 090655Z AUTO 10004KT 10SM CLR 21/01 A3001 RMK A01,M
BAM,2023-08-09 06:55,-116.8743,40.5990,1382.36,60.80,35.60,38.85,140.00,4.00,0.00,30.04,M,10.00,M,CLR,M,M,M,M,M,M,M,M,M,M,M,M,M,M,60.80,KBAM 090655Z AUTO 14004KT 10SM CLR 16/02 A3004 RMK AO1,M
TMT,2023-08-09 06:55,-117.1971,39.4643,1749.34,53.00,32.00,44.58,220.00,4.00,0.00,30.14,M,M,M,CLR,M,M,M,M,M,M,M,M,M,M,M,M,M,M,53.00,KTMT 090655Z AUTO 22004KT CLR 12/00 A3014 RMK AO2 T01160001 PWINO,M
10U,2023-08-09 06:55,-116.1876,41.9532,1637.00,60.80,44.60,55.12,120.00,10.00,0.00,30.09,M,10.00,M,CLR,M,M,M,M,M,M,M,M,M,M,M,M,M,M,60.80,K10U 090655Z AUTO 12010KT 10SM CLR 16/07 A3009 RMK AO2,M
INS,2023-08-09 06:55,-115.6733,36.5872,955.00,80.00,10.20,6.93,30.00,7.00,0.00,29.91,1007.50,10.00,M,CLR,M,M,M,M,M,M,M,M,M,M,M,M,M,M,77.51,KINS 090655Z AUTO 03007KT 10SM CLR 27/M12 A2991 RMK AO2 SLP075 T02661121 $,M
LSV,2023-08-09 06:55,-115.0343,36.2362,570.00,89.00,17.00,7.00,160.00,11.00,0.00,29.79,1005.80,10.00,M,CLR,M,M,M,M,M,M,M,M,M,M,M,M,M,M,83.99,KLSV 090655Z AUTO 16011KT 10SM CLR 32/M08 A2979 RMK AO2 SLP058 T03171084 $,M
EKO,2023-08-09 06:56,-115.7860,40.8242,1367.00,63.00,35.00,35.10,0.00,0.00,0.00,30.08,1013.50,10.00,M,CLR,M,M,M,M,M,M,M,M,M,M,M,M,M,M,63.00,KEKO 090656Z AUTO 00000KT 10SM CLR 17/02 A3008 RMK AO2 SLP135 T01720017,M
WMC,2023-08-09 06:56,-117.8072,40.9019,1315.00,66.00,37.00,34.21,160.00,8.00,0.00,30.00,1011.00,10.00,M,CLR,M,M,M,M,M,M,M,M,M,M,M,M,M,M,66.00,KWMC 090656Z AUTO 16008KT 10SM CLR 19/03 A3000 RMK AO2 SLP110 T01890028,M
NFL,2023-08-09 06:56,-118.7010,39.4166,1199.00,72.00,40.00,31.32,290.00,5.00,0.00,29.99,1012.60,10.00,M,CLR,M,M,M,M,M,M,M,M,M,M,M,M,M,M,72.00,KNFL 090656Z AUTO 29005KT 10SM CLR 22/04 A2999 RMK AO2 SLP126 T02220044,M
HND,2023-08-09 06:56,-115.1344,35.9729,742.79,88.00,34.00,14.64,170.00,13.00,0.00,29.90,1010.50,10.00,M,CLR,M,M,M,M,M,M,M,M,M,M,M,M,M,M,84.26,KHND 090656Z AUTO 17013KT 10SM CLR 31/01 A2990 RMK AO2 SLP105 T03110011 403890267,M
TPH,2023-08-09 06:56,-117.0904,38.0505,1654.00,66.00,25.00,21.04,30.00,5.00,0.00,30.08,1010.40,10.00,M,CLR,M,M,M,M,M,M,M,M,M,M,M,M,M,M,66.00,KTPH 090656Z AUTO 03005KT 10SM CLR 19/M04 A3008 RMK AO2 SLP104 T01891039 $,M
LAS,2023-08-09 06:56,-115.1634,36.0719,663.00,91.00,29.00,10.88,170.00,5.00,0.00,29.85,1007.70,10.00,14.00,BKN,M,M,M,20000.00,M,M,M,M,M,M,M,M,M,M,86.28,KLAS 090656Z 17005G14KT 10SM BKN200 33/M02 A2985 RMK AO2 SLP077 T03281017,M
BVU,2023-08-09 07:15,-114.8611,35.9475,671.00,87.80,26.60,10.91,220.00,8.00,0.00,29.86,M,10.00,M,CLR,M,M,M,M,M,M,M,M,M,M,M,M,M,M,83.69,KBVU 090715Z AUTO 22008KT 10SM CLR 31/M03 A2986 RMK AO2,M
CXP,2023-08-09 07:15,-119.7326,39.1923,1431.00,66.20,44.60,45.60,0.00,0.00,0.00,30.10,M,10.00,M,CLR,M,M,M,M,M,M,M,M,M,M,M,M,M,M,66.20,KCXP 090715Z AUTO 00000KT 10SM CLR 19/07 A3010 RMK AO2,M
05U,2023-08-09 07:15,-116.0051,39.6042,1811.23,53.60,33.80,46.88,M,M,0.00,30.16,M,10.00,M,M,M,M,M,M,M,M,M,M,M,M,M,M,M,M,53.60,K05U 090715Z AUTO 10SM 12/01 A3016 RMK A01,M
RTS,2023-08-09 07:15,-119.8764,39.6682,1539.00,64.40,39.20,39.43,290.00,11.00,0.00,30.11,M,10.00,M,CLR,M,M,M,M,M,M,M,M,M,M,M,M,M,M,64.40,KRTS 090715Z AUTO 29011KT 10SM CLR 18/04 A3011 RMK AO2,M
MEV,2023-08-09 07:15,-119.7500,38.9963,1441.42,57.20,44.60,62.69,0.00,0.00,0.00,30.09,M,10.00,M,CLR,M,M,M,M,M,M,M,M,M,M,M,M,M,M,57.20,KMEV 090715Z AUTO 00000KT 10SM CLR 14/07 A3009 RMK AO2,M
BAM,2023-08-09 07:15,-116.8743,40.5990,1382.36,60.80,35.60,38.85,130.00,5.00,0.00,30.05,M,10.00,M,CLR,M,M,M,M,M,M,M,M,M,M,M,M,M,M,60.80,KBAM 090715Z AUTO 13005KT 10SM CLR 16/02 A3005 RMK AO1,M
HTH,2023-08-09 07:15,-118.6315,38.5448,1282.89,71.60,35.60,26.71,0.00,0.00,0.00,30.01,M,10.00,M,CLR,M,M,M,M,M,M,M,M,M,M,M,M,M,M,71.60,KHTH 090715Z AUTO 00000KT 10SM CLR 22/02 A3001 RMK A01,M
10U,2023-08-09 07:15,-116.1876,41.9532,1637.00,60.80,44.60,55.12,120.00,9.00,0.00,30.10,M,10.00,M,CLR,M,M,M,M,M,M,M,M,M,M,M,M,M,M,60.80,K10U 090715Z AUTO 12009KT 10SM CLR 16/07 A3010 RMK AO2,M
TMT,2023-08-09 07:15,-117.1971,39.4643,1749.34,51.00,30.60,45.35,210.00,4.00,0.00,30.14,M,M,M,CLR,M,M,M,M,M,M,M,M,M,M,M,M,M,M,51.00,KTMT 090715Z AUTO 21004KT CLR 11/M01 A3014 RMK AO2 T01061008 PWINO,M
BVU,2023-08-09 07:35,-114.8611,35.9475,671.00,87.80,28.40,11.74,230.00,9.00,0.00,29.85,M,10.00,M,FEW,M,M,M,11000.00,M,M,M,M,M,M,M,M,M,M,83.84,KBVU 090735Z AUTO 23009KT 10SM FEW110 31/M02 A2985 RMK AO2,M
CXP,2023-08-09 07:35,-119.7326,39.1923,1431.00,68.00,42.80,40.00,0.00,0.00,0.00,30.10,M,10.00,M,CLR,M,M,M,M,M,M,M,M,M,M,M,M,M,M,68.00,KCXP 090735Z AUTO 00000KT 10SM CLR 20/06 A3010 RMK AO2,M
RTS,2023-08-09 07:35,-119.8764,39.6682,1539.00,64.40,42.80,45.32,280.00,12.00,0.00,30.11,M,10.00,M,CLR,M,M,M,M,M,M,M,M,M,M,M,M,M,M,64.40,KRTS 090735Z AUTO 28012KT 10SM CLR 18/06 A3011 RMK AO2,M
05U,2023-08-09 07:35,-116.0051,39.6042,1811.23,51.80,33.80,50.08,M,M,0.00,30.16,M,10.00,M,M,M,M,M,M,M,M,M,M,M,M,M,M,M,M,51.80,K05U 090735Z AUTO 10SM 11/01 A3016 RMK A01,M
MEV,2023-08-09 07:35,-119.7500,38.9963,1441.42,57.20,44.60,62.69,0.00,0.00,0.00,30.09,M,10.00,M,CLR,M,M,M,M,M,M,M,M,M,M,M,M,M,M,57.20,KMEV 090735Z AUTO 00000KT 10SM CLR 14/07 A3009 RMK AO2,M
BAM,2023-08-09 07:35,-116.8743,40.5990,1382.36,59.00,35.60,41.42,0.00,0.00,0.00,30.04,M,10.00,M,CLR,M,M,M,M,M,M,M,M,M,M,M,M,M,M,59.00,KBAM 090735Z AUTO 00000KT 10SM CLR 15/02 A3004 RMK AO1,M
HTH,2023-08-09 07:35,-118.6315,38.5448,1282.89,73.40,39.20,28.96,0.00,0.00,0.00,30.01,M,10.00,M,CLR,M,M,M,M,M,M,M,M,M,M,M,M,M,M,73.40,KHTH 090735Z AUTO 00000KT 10SM CLR 23/04 A3001 RMK A01,M
10U,2023-08-09 07:35,-116.1876,41.9532,1637.00,57.20,44.60,62.69,100.00,8.00,0.00,30.10,M,10.00,M,CLR,M,M,M,M,M,M,M,M,M,M,M,M,M,M,57.20,K10U 090735Z AUTO 10008KT 10SM CLR 14/07 A3010 RMK AO2,M
TMT,2023-08-09 07:35,-117.1971,39.4643,1749.34,48.00,27.70,45.05,0.00,0.00,0.00,30.15,M,M,M,CLR,M,M,M,M,M,M,M,M,M,M,M,M,M,M,48.00,KTMT 090735Z AUTO 00000KT CLR 09/M02 A3015 RMK AO2 T00881024 PWINO,M
P68,2023-08-09 07:53,-116.0056,39.6014,1993.00,53.00,35.00,50.27,170.00,3.00,0.00,30.14,1013.10,M,M,M,M,M,M,M,M,M,M,M,M,M,M,M,M,M,53.00,KP68 090753Z AUTO 17003KT 12/02 A3014 RMK AO1 SLP131 T01170017 402940072,M
DRA,2023-08-09 07:53,-116.0278,36.6206,1009.00,82.00,24.00,11.79,M,3.00,0.00,29.93,1007.70,10.00,M,CLR,M,M,M,M,M,M,M,M,M,M,M,M,M,M,79.47,KDRA 090753Z AUTO VRB03KT 10SM CLR 28/M04 A2993 RMK AO2 SLP077 T02781044 403720222,M
ELY,2023-08-09 07:53,-114.8453,39.2950,1909.00,54.00,39.00,56.74,190.00,6.00,0.00,30.17,1011.50,10.00,M,CLR,M,M,M,M,M,M,M,M,M,M,M,M,M,M,54.00,KELY 090753Z AUTO 19006KT 10SM CLR 12/04 A3017 RMK AO2 SLP115 T01220039 402830083,M
VGT,2023-08-09 07:53,-115.1933,36.2111,667.00,91.00,31.00,11.80,210.00,10.00,0.00,29.83,1008.40,10.00,M,CLR,M,M,M,M,M,M,M,M,M,M,M,M,M,M,86.49,KVGT 090753Z AUTO 21010KT 10SM CLR 33/M01 A2983 RMK AO2 SLP084 T03281006 404060256 $,M
LOL,2023-08-09 07:53,-118.5701,40.0684,1192.43,62.00,38.00,40.93,140.00,4.00,0.00,29.99,1011.60,10.00,M,CLR,M,M,M,M,M,M,M,M,M,M,M,M,M,M,62.00,KLOL 090753Z AUTO 14004KT 10SM CLR 17/03 A2999 RMK AO2 SLP116 T01670033 403170161,M
BVU,2023-08-09 07:55,-114.8611,35.9475,671.00,87.80,28.40,11.74,230.00,8.00,0.00,29.85,M,10.00,M,FEW,FEW,M,M,9000.00,11000.00,M,M,M,M,M,M,M,M,M,83.84,KBVU 090755Z AUTO 23008KT 10SM FEW090 FEW110 31/M02 A2985 RMK AO2,M
CXP,2023-08-09 07:55,-119.7326,39.1923,1431.00,64.40,42.80,45.32,0.00,0.00,0.00,30.09,M,10.00,M,CLR,M,M,M,M,M,M,M,M,M,M,M,M,M,M,64.40,KCXP 090755Z AUTO 00000KT 10SM CLR 18/06 A3009 RMK AO2,M
RNO,2023-08-09 07:55,-119.7711,39.4839,1341.00,72.00,45.00,37.96,310.00,4.00,0.00,30.07,1011.90,10.00,M,CLR,M,M,M,M,M,M,M,M,M,M,M,M,M,M,72.00,KRNO 090755Z 31004KT 10SM CLR 22/07 A3007 RMK AO2 SLP119 T02220072 403330161,M
RTS,2023-08-09 07:55,-119.8764,39.6682,1539.00,66.20,41.00,39.72,270.00,12.00,0.00,30.11,M,10.00,20.00,CLR,M,M,M,M,M,M,M,M,M,M,M,M,M,M,66.20,KRTS 090755Z AUTO 27012G20KT 10SM CLR 19/05 A3011 RMK AO2,M
05U,2023-08-09 07:55,-116.0051,39.6042,1811.23,51.80,33.80,50.08,M,M,0.00,30.16,M,10.00,M,M,M,M,M,M,M,M,M,M,M,M,M,M,M,M,51.80,K05U 090755Z AUTO 10SM 11/01 A3016 RMK A01,M
MEV,2023-08-09 07:55,-119.7500,38.9963,1441.42,57.20,44.60,62.69,100.00,3.00,0.00,30.09,M,10.00,M,CLR,M,M,M,M,M,M,M,M,M,M,M,M,M,M,57.20,KMEV 090755Z AUTO 10003KT 10SM CLR 14/07 A3009 RMK AO2,M
BAM,2023-08-09 07:55,-116.8743,40.5990,1382.36,59.00,33.80,38.56,90.00,3.00,0.00,30.04,M,10.00,M,CLR,M,M,M,M,M,M,M,M,M,M,M,M,M,M,59.00,KBAM 090755Z AUTO 09003KT 10SM CLR 15/01 A3004 RMK AO1,M
HTH,2023-08-09 07:55,-118.6315,38.5448,1282.89,71.60,39.20,30.77,230.00,6.00,0.00,30.02,M,10.00,M,CLR,M,M,M,M,M,M,M,M,M,M,M,M,M,M,71.60,KHTH 090755Z AUTO 23006KT 10SM CLR 22/04 A3002 RMK A01,M
TMT,2023-08-09 07:55,-117.1971,39.4643,1749.34,48.40,32.70,54.38,240.00,4.00,0.00,30.14,M,M,M,CLR,M,M,M,M,M,M,M,M,M,M,M,M,M,M,46.57,KTMT 090755Z AUTO 24004KT CLR 09/00 A3014 RMK AO2 T00910004 402920043 PWINO,M
10U,2023-08-09 07:55,-116.1876,41.9532,1637.00,57.20,44.60,62.69,100.00,6.00,0.00,30.09,M,10.00,M,CLR,M,M,M,M,M,M,M,M,M,M,M,M,M,M,57.20,K10U 090755Z AUTO 10006KT 10SM CLR 14/07 A3009 RMK AO2,M
INS,2023-08-09 07:55,-115.6733,36.5872,955.00,78.30,12.00,7.94,0.00,0.00,0.00,29.92,1007.90,10.00,M,CLR,M,M,M,M,M,M,M,M,M,M,M,M,M,M,78.30,KINS 090755Z AUTO 00000KT 10SM CLR 26/M11 A2992 RMK AO2 SLP079 T02571111 403740181 $,M
LSV,2023-08-09 07:55,-115.0343,36.2362,570.00,89.00,30.00,12.07,160.00,10.00,0.00,29.79,1005.80,10.00,M,CLR,M,M,M,M,M,M,M,M,M,M,M,M,M,M,84.88,KLSV 090755Z AUTO 16010KT 10SM CLR 32/M01 A2979 RMK AO2 SLP058 T03171012 404180270 $,M
EKO,2023-08-09 07:56,-115.7860,40.8242,1367.00,54.00,41.00,61.32,220.00,3.00,0.00,30.08,1013.90,10.00,M,CLR,M,M,M,M,M,M,M,M,M,M,M,M,M,M,54.00,KEKO 090756Z AUTO 22003KT 10SM CLR 12/05 A3008 RMK AO2 SLP139 T01220050 402890089,M
WMC,2023-08-09 07:56,-117.8072,40.9019,1315.00,62.00,36.00,37.83,0.00,0.00,0.00,30.01,1011.30,10.00,M,CLR,M,M,M,M,M,M,M,M,M,M,M,M,M,M,62.00,KWMC 090756Z AUTO 00000KT 10SM CLR 17/02 A3001 RMK AO2 SLP113 T01670022 403170089,M
NFL,2023-08-09 07:56,-118.7010,39.4166,1199.00,65.00,41.00,41.41,130.00,4.00,0.00,29.99,1012.60,10.00,M,CLR,M,M,M,M,M,M,M,M,M,M,M,M,M,M,65.00,KNFL 090756Z AUTO 13004KT 10SM CLR 18/05 A2999 RMK AO2 SLP126 T01830050 403280139,M
HND,2023-08-09 07:56,-115.1344,35.9729,742.79,88.00,33.00,14.06,220.00,10.00,0.00,29.90,1010.60,10.00,M,CLR,M,M,M,M,M,M,M,M,M,M,M,M,M,M,84.25,KHND 090756Z AUTO 22010KT 10SM CLR 31/01 A2990 RMK AO2 SLP106 T03110006,M
TPH,2023-08-09 07:56,-117.0904,38.0505,1654.00,64.00,23.00,20.75,340.00,3.00,0.00,30.08,1010.70,10.00,M,CLR,M,M,M,M,M,M,M,M,M,M,M,M,M,M,64.00,KTPH 090756Z AUTO 34003KT 10SM CLR 18/M05 A3008 RMK AO2 SLP107 T01781050 403220172 $,M
LAS,2023-08-09 07:56,-115.1634,36.0719,663.00,89.00,31.00,12.57,190.00,11.00,0.00,29.85,1007.50,10.00,16.00,BKN,M,M,M,20000.00,M,M,M,M,M,M,M,M,M,M,84.98,KLAS 090756Z 19011G16KT 10SM BKN200 32/M01 A2985 RMK AO2 SLP075 T03171006 403940278,M
BVU,2023-08-09 08:15,-114.8611,35.9475,671.00,87.80,30.20,12.64,220.00,8.00,0.00,29.85,M,10.00,M,FEW,FEW,M,M,9000.00,11000.00,M,M,M,M,M,M,M,M,M,84.01,KBVU 090815Z AUTO 22008KT 10SM FEW090 FEW110 31/M01 A2985 RMK AO2,M
CXP,2023-08-09 08:15,-119.7326,39.1923,1431.00,62.60,44.60,51.72,0.00,0.00,0.00,30.10,M,10.00,M,CLR,M,M,M,M,M,M,M,M,M,M,M,M,M,M,62.60,KCXP 090815Z AUTO 00000KT 10SM CLR 17/07 A3010 RMK AO2,M
RTS,2023-08-09 08:15,-119.8764,39.6682,1539.00,68.00,41.00,37.32,260.00,14.00,0.00,30.11,M,10.00,19.00,CLR,M,M,M,M,M,M,M,M,M,M,M,M,M,M,68.00,KRTS 090815Z AUTO 26014G19KT 10SM CLR 20/05 A3011 RMK AO2,M
05U,2023-08-09 08:15,-116.0051,39.6042,1811.23,51.80,33.80,50.08,M,M,0.00,30.16,M,10.00,M,M,M,M,M,M,M,M,M,M,M,M,M,M,M,M,51.80,K05U 090815Z AUTO 10SM 11/01 A3016 RMK A01,M
MEV,2023-08-09 08:15,-119.7500,38.9963,1441.42,53.60,42.80,66.70,120.00,7.00,0.00,30.08,M,10.00,M,CLR,M,M,M,M,M,M,M,M,M,M,M,M,M,M,53.60,KMEV 090815Z AUTO 12007KT 10SM CLR 12/06 A3008 RMK AO2,M
BAM,2023-08-09 08:15,-116.8743,40.5990,1382.36,59.00,33.80,38.56,100.00,3.00,0.00,30.04,M,10.00,M,CLR,M,M,M,M,M,M,M,M,M,M,M,M,M,M,59.00,KBAM 090815Z AUTO 10003KT 10SM CLR 15/01 A3004 RMK AO1,M
HTH,2023-08-09 08:15,-118.6315,38.5448,1282.89,71.60,39.20,30.77,280.00,6.00,0.00,30.01,M,10.00,M,CLR,M,M,M,M,M,M,M,M,M,M,M,M,M,M,71.60,KHTH 090815Z AUTO 28006KT 10SM CLR 22/04 A3001 RMK A01,M
10U,2023-08-09 08:15,-116.1876,41.9532,1637.00,53.60,44.60,71.45,100.00,6.00,0.00,30.09,M,10.00,M,CLR,M,M,M,M,M,M,M,M,M,M,M,M,M,M,53.60,K10U 090815Z AUTO 10006KT 10SM CLR 12/07 A3009 RMK AO2,M
TMT,2023-08-09 08:15,-117.1971,39.4643,1749.34,49.00,29.00,45.77,240.00,6.00,0.00,30.13,M,M,M,CLR,M,M,M,M,M,M,M,M,M,M,M,M,M,M,46.00,KTMT 090815Z AUTO 24006KT CLR 10/M02 A3013 RMK AO2 T00951016 PWINO,M
BVU,2023-08-09 08:35,-114.8611,35.9475,671.00,87.80,30.20,12.64,220.00,5.00,0.00,29.86,M,10.00,M,FEW,SCT,BKN,M,4200.00,6500.00,7500.00,M,M,M,M,M,M,M,M,84.01,KBVU 090835Z AUTO 22005KT 10SM FEW042 SCT065 BKN075 31/M01 A2986 RMK AO2,M
CXP,2023-08-09 08:35,-119.7326,39.1923,1431.00,62.60,44.60,51.72,0.00,0.00,0.00,30.10,M,10.00,M,CLR,M,M,M,M,M,M,M,M,M,M,M,M,M,M,62.60,KCXP 090835Z AUTO 00000KT 10SM CLR 17/07 A3010 RMK AO2,M
RTS,2023-08-09 08:35,-119.8764,39.6682,1539.00,66.20,41.00,39.72,260.00,12.00,0.00,30.10,M,10.00,21.00,CLR,M,M,M,M,M,M,M,M,M,M,M,M,M,M,66.20,KRTS 090835Z AUTO 26012G21KT 10SM CLR 19/05 A3010 RMK AO2,M
05U,2023-08-09 08:35,-116.0051,39.6042,1811.23,51.80,33.80,50.08,M,M,0.00,30.16,M,10.00,M,M,M,M,M,M,M,M,M,M,M,M,M,M,M,M,51.80,K05U 090835Z AUTO 10SM 11/01 A3016 RMK A01,M
MEV,2023-08-09 08:35,-119.7500,38.9963,1441.42,55.40,44.60,66.91,100.00,6.00,0.00,30.08,M,10.00,M,CLR,M,M,M,M,M,M,M,M,M,M,M,M,M,M,55.40,KMEV 090835Z AUTO 10006KT 10SM CLR 13/07 A3008 RMK AO2,M
HTH,2023-08-09 08:35,-118.6315,38.5448,1282.89,71.60,41.00,33.00,290.00,6.00,0.00,30.02,M,10.00,M,CLR,M,M,M,M,M,M,M,M,M,M,M,M,M,M,71.60,KHTH 090835Z AUTO 29006KT 10SM CLR 22/05 A3002 RMK A01,M
10U,2023-08-09 08:35,-116.1876,41.9532,1637.00,57.20,42.80,58.52,110.00,8.00,0.00,30.09,M,10.00,M,CLR,M,M,M,M,M,M,M,M,M,M,M,M,M,M,57.20,K10U 090835Z AUTO 11008KT 10SM CLR 14/06 A3009 RMK AO2,M
BAM,2023-08-09 08:35,-116.8743,40.5990,1382.36,59.00,35.60,41.42,210.00,4.00,0.00,30.04,M,10.00,M,CLR,M,M,M,M,M,M,M,M,M,M,M,M,M,M,59.00,KBAM 090835Z AUTO 21004KT 10SM CLR 15/02 A3004 RMK AO1,M
TMT,2023-08-09 08:35,-117.1971,39.4643,1749.34,49.00,27.50,43.04,250.00,3.00,0.00,30.13,M,M,M,CLR,M,M,M,M,M,M,M,M,M,M,M,M,M,M,48.12,KTMT 090835Z AUTO 25003KT CLR 09/M02 A3013 RMK AO2 T00941025 PWINO,M
05U,2023-08-09 08:50,-116.0051,39.6042,1811.23,51.80,33.80,50.08,M,M,0.00,30.16,M,10.00,M,M,M,M,M,M,M,M,M,M,M,M,M,M,M,M,51.80,K05U 090850Z AUTO 10SM 11/01 A3016 RMK A01,M
P68,2023-08-09 08:53,-116.0056,39.6014,1993.00,52.00,34.00,50.12,180.00,4.00,0.00,30.13,1012.50,M,M,M,M,M,M,M,M,M,M,M,M,M,M,M,M,M,52.00,KP68 090853Z AUTO 18004KT 11/01 A3013 RMK AO1 SLP125 T01110011 58000,M
DRA,2023-08-09 08:53,-116.0278,36.6206,1009.00,76.00,24.00,14.36,M,3.00,0.00,29.92,1007.60,10.00,M,CLR,M,M,M,M,M,M,M,M,M,M,M,M,M,M,76.00,KDRA 090853Z AUTO VRB03KT 10SM CLR 24/M04 A2992 RMK AO2 SLP076 T02441044 50000,M
ELY,2023-08-09 08:53,-114.8453,39.2950,1909.00,50.00,39.00,65.75,170.00,7.00,0.00,30.17,1012.30,10.00,M,CLR,M,M,M,M,M,M,M,M,M,M,M,M,M,M,50.00,KELY 090853Z AUTO 17007KT 10SM CLR 10/04 A3017 RMK AO2 SLP123 T01000039 51005,M
VGT,2023-08-09 08:53,-115.1933,36.2111,667.00,89.00,32.00,13.09,200.00,6.00,0.00,29.83,1008.60,10.00,M,CLR,M,M,M,M,M,M,M,M,M,M,M,M,M,M,85.07,KVGT 090853Z AUTO 20006KT 10SM CLR 32/00 A2983 RMK AO2 SLP086 T03170000 55000 $,M
LOL,2023-08-09 08:53,-118.5701,40.0684,1192.43,65.00,39.00,38.31,50.00,7.00,0.00,29.98,1011.20,10.00,M,CLR,M,M,M,M,M,M,M,M,M,M,M,M,M,M,65.00,KLOL 090853Z AUTO 05007KT 10SM CLR 18/04 A2998 RMK AO2 SLP112 T01830039 50001,M
BVU,2023-08-09 08:55,-114.8611,35.9475,671.00,87.80,32.00,13.59,220.00,4.00,0.00,29.85,M,10.00,M,FEW,FEW,SCT,M,4000.00,6000.00,9000.00,M,M,M,M,M,M,M,M,84.08,KBVU 090855Z AUTO 22004KT 10SM FEW040 FEW060 SCT090 31/00 A2985 RMK AO2,M
CXP,2023-08-09 08:55,-119.7326,39.1923,1431.00,62.60,44.60,51.72,0.00,0.00,0.00,30.10,M,10.00,M,CLR,M,M,M,M,M,M,M,M,M,M,M,M,M,M,62.60,KCXP 090855Z AUTO 00000KT 10SM CLR 17/07 A3010 RMK AO2,M
RNO,2023-08-09 08:55,-119.7711,39.4839,1341.00,67.00,45.00,45.04,0.00,0.00,0.00,30.07,1012.00,10.00,M,CLR,M,M,M,M,M,M,M,M,M,M,M,M,M,M,67.00,KRNO 090855Z 00000KT 10SM CLR 19/07 A3007 RMK AO2 SLP120 T01940072 51001,M
RTS,2023-08-09 08:55,-119.8764,39.6682,1539.00,66.20,41.00,39.72,260.00,14.00,0.00,30.10,M,10.00,M,CLR,M,M,M,M,M,M,M,M,M,M,M,M,M,M,66.20,KRTS 090855Z AUTO 26014KT 10SM CLR 19/05 A3010 RMK AO2,M
MEV,2023-08-09 08:55,-119.7500,38.9963,1441.42,53.60,42.80,66.70,310.00,4.00,0.00,30.08,M,10.00,M,CLR,M,M,M,M,M,M,M,M,M,M,M,M,M,M,53.60,KMEV 090855Z AUTO 31004KT 10SM CLR 12/06 A3008 RMK AO2,M
HTH,2023-08-09 08:55,-118.6315,38.5448,1282.89,71.60,44.60,37.89,310.00,8.00,0.00,30.02,M,10.00,M,CLR,M,M,M,M,M,M,M,M,M,M,M,M,M,M,71.60,KHTH 090855Z AUTO 31008KT 10SM CLR 22/07 A3002 RMK A01,M
BAM,2023-08-09 08:55,-116.8743,40.5990,1382.36,59.00,35.60,41.42,0.00,0.00,0.00,30.04,M,10.00,M,CLR,M,M,M,M,M,M,M,M,M,M,M,M,M,M,59.00,KBAM 090855Z AUTO 00000KT 10SM CLR 15/02 A3004 RMK AO1,M
TMT,2023-08-09 08:55,-117.1971,39.4643,1749.34,46.40,28.00,48.44,0.00,0.00,0.00,30.14,M,M,M,CLR,M,M,M,M,M,M,M,M,M,M,M,M,M,M,46.40,KTMT 090855Z AUTO 00000KT CLR 08/M02 A3014 RMK AO2 T00801022 PWINO,M
10U,2023-08-09 08:55,-116.1876,41.9532,1637.00,57.20,42.80,58.52,120.00,9.00,0.00,30.09,M,10.00,M,CLR,M,M,M,M,M,M,M,M,M,M,M,M,M,M,57.20,K10U 090855Z AUTO 12009KT 10SM CLR 14/06 A3009 RMK AO2,M
INS,2023-08-09 08:55,-115.6733,36.5872,955.00,70.70,11.50,10.02,0.00,0.00,0.00,29.91,1007.70,10.00,M,CLR,M,M,M,M,M,M,M,M,M,M,M,M,M,M,70.70,KINS 090855Z AUTO 00000KT 10SM CLR 22/M11 A2991 RMK AO2 SLP077 T02151114 58001 $,M
LSV,2023-08-09 08:55,-115.0343,36.2362,570.00,88.00,31.00,12.97,160.00,13.00,0.00,29.79,1005.70,10.00,M,CLR,M,M,M,M,M,M,M,M,M,M,M,M,M,M,84.23,KLSV 090855Z AUTO 16013KT 10SM CLR 31/M00 A2979 RMK AO2 SLP057 T03121005 56001 $,M
EKO,2023-08-09 08:56,-115.7860,40.8242,1367.00,58.00,38.00,47.20,0.00,0.00,0.00,30.08,1013.30,10.00,M,CLR,M,M,M,M,M,M,M,M,M,M,M,M,M,M,58.00,KEKO 090856Z AUTO 00000KT 10SM CLR 14/03 A3008 RMK AO2 SLP133 T01440033 56001,M
WMC,2023-08-09 08:56,-117.8072,40.9019,1315.00,59.00,36.00,42.08,300.00,4.00,0.00,30.01,1011.40,10.00,M,CLR,M,M,M,M,M,M,M,M,M,M,M,M,M,M,59.00,KWMC 090856Z AUTO 30004KT 10SM CLR 15/02 A3001 RMK AO2 SLP114 T01500022 53001,M
NFL,2023-08-09 08:56,-118.7010,39.4166,1199.00,65.00,41.00,41.41,100.00,6.00,0.00,30.00,1012.90,10.00,M,CLR,M,M,M,M,M,M,M,M,M,M,M,M,M,M,65.00,KNFL 090856Z AUTO 10006KT 10SM CLR 18/05 A3000 RMK AO2 SLP129 T01830050 53004,M
HND,2023-08-09 08:56,-115.1344,35.9729,742.79,84.00,43.00,23.66,200.00,12.00,T,29.90,1010.50,10.00,M,FEW,SCT,M,M,5000.00,11000.00,M,M,M,M,M,M,M,M,M,81.48,KHND 090856Z AUTO 20012KT 10SM FEW050 SCT110 29/06 A2990 RMK AO2 RAB30E46 SLP105 P0000 60000 T02890061 50002,M
TPH,2023-08-09 08:56,-117.0904,38.0505,1654.00,62.00,24.00,23.21,360.00,4.00,0.00,30.09,1010.90,10.00,M,CLR,M,M,M,M,M,M,M,M,M,M,M,M,M,M,62.00,KTPH 090856Z AUTO 36004KT 10SM CLR 17/M04 A3009 RMK AO2 SLP109 T01671044 $,M
LAS,2023-08-09 08:56,-115.1634,36.0719,663.00,88.00,37.00,16.49,180.00,13.00,0.00,29.83,1007.00,10.00,20.00,BKN,OVC,M,M,15000.00,20000.00,M,M,M,M,M,M,M,M,M,84.32,KLAS 090856Z 18013G20KT 10SM BKN150 OVC200 31/03 A2983 RMK AO2 SLP070 T03110028 58005,M
05U,2023-08-09 09:10,-116.0051,39.6042,1811.23,51.80,33.80,50.08,M,M,0.00,30.16,M,10.00,M,M,M,M,M,M,M,M,M,M,M,M,M,M,M,M,51.80,K05U 090910Z AUTO 10SM 11/01 A3016 RMK A01,M
CXP,2023-08-09 09:15,-119.7326,39.1923,1431.00,64.40,44.60,48.55,310.00,5.00,0.00,30.09,M,10.00,M,CLR,M,M,M,M,M,M,M,M,M,M,M,M,M,M,64.40,KCXP 090915Z AUTO 31005KT 10SM CLR 18/07 A3009 RMK AO2,M
BVU,2023-08-09 09:15,-114.8611,35.9475,671.00,87.80,30.20,12.64,230.00,7.00,0.00,29.86,M,10.00,M,FEW,M,M,M,8000.00,M,M,M,M,M,M,M,M,M,M,84.01,KBVU 090915Z AUTO 23007KT 10SM FEW080 31/M01 A2986 RMK AO2,M
RTS,2023-08-09 09:15,-119.8764,39.6682,1539.00,66.20,39.20,37.03,260.00,10.00,0.00,30.10,M,10.00,M,CLR,M,M,M,M,M,M,M,M,M,M,M,M,M,M,66.20,KRTS 090915Z AUTO 26010KT 10SM CLR 19/04 A3010 RMK AO2,M
MEV,2023-08-09 09:15,-119.7500,38.9963,1441.42,55.40,41.00,58.27,0.00,0.00,0.00,30.08,M,10.00,M,CLR,M,M,M,M,M,M,M,M,M,M,M,M,M,M,55.40,KMEV 090915Z AUTO 00000KT 10SM CLR 13/05 A3008 RMK AO2,M
BAM,2023-08-09 09:15,-116.8743,40.5990,1382.36,55.40,32.00,40.84,180.00,4.00,0.00,30.04,M,10.00,M,CLR,M,M,M,M,M,M,M,M,M,M,M,M,M,M,55.40,KBAM 090915Z AUTO 18004KT 10SM CLR 13/00 A3004 RMK AO1,M
HTH,2023-08-09 09:15,-118.6315,38.5448,1282.89,71.60,44.60,37.89,290.00,9.00,0.00,30.02,M,10.00,M,CLR,M,M,M,M,M,M,M,M,M,M,M,M,M,M,71.60,KHTH 090915Z AUTO 29009KT 10SM CLR 22/07 A3002 RMK A01,M
10U,2023-08-09 09:15,-116.1876,41.9532,1637.00,57.20,42.80,58.52,120.00,7.00,0.00,30.09,M,10.00,M,CLR,M,M,M,M,M,M,M,M,M,M,M,M,M,M,57.20,K10U 090915Z AUTO 12007KT 10SM CLR 14/06 A3009 RMK AO2,M
TMT,2023-08-09 09:15,-117.1971,39.4643,1749.34,42.00,27.00,54.99,0.00,0.00,0.00,30.14,M,M,M,CLR,M,M,M,M,M,M,M,M,M,M,M,M,M,M,42.00,KTMT 090915Z AUTO 00000KT CLR 06/M03 A3014 RMK AO2 T00551028 PWINO,M
BVU,2023-08-09 09:35,-114.8611,35.9475,671.00,87.80,30.20,12.64,230.00,5.00,0.00,29.86,M,10.00,M,FEW,FEW,SCT,M,5500.00,7500.00,9500.00,M,M,M,M,M,M,M,M,84.01,KBVU 090935Z AUTO 23005KT 10SM FEW055 FEW075 SCT095 31/M01 A2986 RMK AO2,M
CXP,2023-08-09 09:35,-119.7326,39.1923,1431.00,64.40,44.60,48.55,0.00,0.00,0.00,30.09,M,10.00,M,CLR,M,M,M,M,M,M,M,M,M,M,M,M,M,M,64.40,KCXP 090935Z AUTO 00000KT 10SM CLR 18/07 A3009 RMK AO2,M
RTS,2023-08-09 09:35,-119.8764,39.6682,1539.00,62.60,39.20,42.00,20.00,7.00,0.00,30.11,M,10.00,M,CLR,M,M,M,M,M,M,M,M,M,M,M,M,M,M,62.60,KRTS 090935Z AUTO 02007KT 10SM CLR 17/04 A3011 RMK AO2,M
05U,2023-08-09 09:35,-116.0051,39.6042,1811.23,51.80,33.80,50.08,M,M,0.00,30.16,M,10.00,M,M,M,M,M,M,M,M,M,M,M,M,M,M,M,M,51.80,K05U 090935Z AUTO 10SM 11/01 A3016 RMK A01,M
MEV,2023-08-09 09:35,-119.7500,38.9963,1441.42,53.60,41.00,62.23,0.00,0.00,0.00,30.08,M,10.00,M,CLR,M,M,M,M,M,M,M,M,M,M,M,M,M,M,53.60,KMEV 090935Z AUTO 00000KT 10SM CLR 12/05 A3008 RMK AO2,M
BAM,2023-08-09 09:35,-116.8743,40.5990,1382.36,55.40,33.80,43.90,0.00,0.00,0.00,30.04,M,10.00,M,CLR,M,M,M,M,M,M,M,M,M,M,M,M,M,M,55.40,KBAM 090935Z AUTO 00000KT 10SM CLR 13/01 A3004 RMK AO1,M
HTH,2023-08-09 09:35,-118.6315,38.5448,1282.89,71.60,42.80,35.37,290.00,7.00,0.00,30.02,M,10.00,M,CLR,M,M,M,M,M,M,M,M,M,M,M,M,M,M,71.60,KHTH 090935Z AUTO 29007KT 10SM CLR 22/06 A3002 RMK A01,M
10U,2023-08-09 09:35,-116.1876,41.9532,1637.00,55.40,42.80,62.46,150.00,5.00,0.00,30.09,M,10.00,M,CLR,M,M,M,M,M,M,M,M,M,M,M,M,M,M,55.40,K10U 090935Z AUTO 15005KT 10SM CLR 13/06 A3009 RMK AO2,M
TMT,2023-08-09 09:35,-117.1971,39.4643,1749.34,43.70,28.20,54.12,0.00,0.00,0.00,30.14,M,M,M,CLR,M,M,M,M,M,M,M,M,M,M,M,M,M,M,43.70,KTMT 090935Z AUTO 00000KT CLR 07/M02 A3014 RMK AO2 T00651021 PWINO,M
05U,2023-08-09 09:50,-116.0051,39.6042,1811.23,51.80,33.80,50.08,M,M,0.00,30.16,M,10.00,M,M,M,M,M,M,M,M,M,M,M,M,M,M,M,M,51.80,K05U 090950Z AUTO 10SM 11/01 A3016 RMK A01,M
P68,2023-08-09 09:53,-116.0056,39.6014,1993.00,51.00,34.00,52.00,190.00,3.00,0.00,30.14,1012.70,M,M,M,M,M,M,M,M,M,M,M,M,M,M,M,M,M,51.00,KP68 090953Z AUTO 19003KT 11/01 A3014 RMK AO1 SLP127 T01060011,M
DRA,2023-08-09 09:53,-116.0278,36.6206,1009.00,75.00,25.00,15.48,40.00,6.00,0.00,29.92,1007.70,10.00,M,CLR,M,M,M,M,M,M,M,M,M,M,M,M,M,M,75.00,KDRA 090953Z AUTO 04006KT 10SM CLR 24/M04 A2992 RMK AO2 SLP077 T02391039,M
ELY,2023-08-09 09:53,-114.8453,39.2950,1909.00,49.00,38.00,65.63,200.00,6.00,0.00,30.18,1012.50,10.00,M,CLR,M,M,M,M,M,M,M,M,M,M,M,M,M,M,46.00,KELY 090953Z AUTO 20006KT 10SM CLR 09/03 A3018 RMK AO2 SLP125 T00940033,M
VGT,2023-08-09 09:53,-115.1933,36.2111,667.00,85.00,30.00,13.71,280.00,4.00,0.00,29.84,1008.90,10.00,M,CLR,M,M,M,M,M,M,M,M,M,M,M,M,M,M,81.86,KVGT 090953Z AUTO 28004KT 10SM CLR 29/M01 A2984 RMK AO2 SLP089 T02941011 $,M
LOL,2023-08-09 09:53,-118.5701,40.0684,1192.43,57.00,37.00,47.04,0.00,0.00,0.00,29.99,1011.90,10.00,M,CLR,M,M,M,M,M,M,M,M,M,M,M,M,M,M,57.00,KLOL 090953Z AUTO 00000KT 10SM CLR 14/03 A2999 RMK AO2 SLP119 T01390028,M
BVU,2023-08-09 09:55,-114.8611,35.9475,671.00,86.00,30.20,13.38,0.00,0.00,0.00,29.85,M,10.00,M,SCT,BKN,BKN,M,5000.00,8500.00,11000.00,M,M,M,M,M,M,M,M,82.64,KBVU 090955Z AUTO 00000KT 10SM SCT050 BKN085 BKN110 30/M01 A2985 RMK AO2,M
CXP,2023-08-09 09:55,-119.7326,39.1923,1431.00,62.60,44.60,51.72,0.00,0.00,0.00,30.10,M,10.00,M,CLR,M,M,M,M,M,M,M,M,M,M,M,M,M,M,62.60,KCXP 090955Z AUTO 00000KT 10SM CLR 17/07 A3010 RMK AO2,M
RNO,2023-08-09 09:55,-119.7711,39.4839,1341.00,65.00,46.00,50.14,0.00,0.00,0.00,30.07,1012.30,10.00,M,CLR,M,M,M,M,M,M,M,M,M,M,M,M,M,M,65.00,KRNO 090955Z 00000KT 10SM CLR 18/08 A3007 RMK AO2 SLP123 T01830078,M
RTS,2023-08-09 09:55,-119.8764,39.6682,1539.00,62.60,39.20,42.00,0.00,0.00,0.00,30.11,M,10.00,M,CLR,M,M,M,M,M,M,M,M,M,M,M,M,M,M,62.60,KRTS 090955Z AUTO 00000KT 10SM CLR 17/04 A3011 RMK AO2,M
MEV,2023-08-09 09:55,-119.7500,38.9963,1441.42,51.80,42.80,71.26,70.00,3.00,0.00,30.08,M,10.00,M,CLR,M,M,M,M,M,M,M,M,M,M,M,M,M,M,51.80,KMEV 090955Z AUTO 07003KT 10SM CLR 11/06 A3008 RMK AO2,M
HTH,2023-08-09 09:55,-118.6315,38.5448,1282.89,71.60,41.00,33.00,M,5.00,0.00,30.02,M,10.00,M,CLR,M,M,M,M,M,M,M,M,M,M,M,M,M,M,71.60,KHTH 090955Z AUTO VRB05KT 10SM CLR 22/05 A3002 RMK A01,M
BAM,2023-08-09 09:55,-116.8743,40.5990,1382.36,55.40,33.80,43.90,50.00,3.00,0.00,30.04,M,10.00,M,CLR,M,M,M,M,M,M,M,M,M,M,M,M,M,M,55.40,KBAM 090955Z AUTO 05003KT 10SM CLR 13/01 A3004 RMK AO1,M
TMT,2023-08-09 09:55,-117.1971,39.4643,1749.34,43.50,27.00,51.91,0.00,0.00,0.00,30.14,M,M,M,CLR,M,M,M,M,M,M,M,M,M,M,M,M,M,M,43.50,KTMT 090955Z AUTO 00000KT CLR 06/M03 A3014 RMK AO2 T00641028 PWINO,M
10U,2023-08-09 09:55,-116.1876,41.9532,1637.00,55.40,42.80,62.46,140.00,6.00,0.00,30.09,M,10.00,M,CLR,M,M,M,M,M,M,M,M,M,M,M,M,M,M,55.40,K10U 090955Z AUTO 14006KT 10SM CLR 13/06 A3009 RMK AO2,M
INS,2023-08-09 09:55,-115.6733,36.5872,955.00,72.00,12.60,10.07,0.00,0.00,0.00,29.91,1007.70,10.00,M,CLR,M,M,M,M,M,M,M,M,M,M,M,M,M,M,72.00,KINS 090955Z AUTO 00000KT 10SM CLR 22/M11 A2991 RMK AO2 SLP077 T02231108 $,M
LSV,2023-08-09 09:55,-115.0343,36.2362,570.00,88.00,36.30,16.04,160.00,11.00,0.00,29.79,1005.70,10.00,M,FEW,BKN,M,M,17000.00,19000.00,M,M,M,M,M,M,M,M,M,84.30,KLSV 090955Z AUTO 16011KT 10SM FEW170 BKN190 31/02 A2979 RMK AO2 SLP057 T03120024 $,M
EKO,2023-08-09 09:56,-115.7860,40.8242,1367.00,53.00,38.00,56.59,0.00,0.00,0.00,30.09,1013.90,10.00,M,CLR,M,M,M,M,M,M,M,M,M,M,M,M,M,M,53.00,KEKO 090956Z AUTO 00000KT 10SM CLR 12/03 A3009 RMK AO2 SLP139 T01170033,M
WMC,2023-08-09 09:56,-117.8072,40.9019,1315.00,56.00,35.00,45.06,0.00,0.00,0.00,30.01,1011.60,10.00,M,CLR,M,M,M,M,M,M,M,M,M,M,M,M,M,M,56.00,KWMC 090956Z AUTO 00000KT 10SM CLR 13/02 A3001 RMK AO2 SLP116 T01330017,M
NFL,2023-08-09 09:56,-118.7010,39.4166,1199.00,66.00,41.00,39.99,230.00,3.00,0.00,30.01,1013.20,10.00,M,CLR,M,M,M,M,M,M,M,M,M,M,M,M,M,M,66.00,KNFL 090956Z AUTO 23003KT 10SM CLR 19/05 A3001 RMK AO2 SLP132 T01890050,M
HND,2023-08-09 09:56,-115.1344,35.9729,742.79,86.00,36.00,16.89,190.00,15.00,0.00,29.89,1010.20,10.00,20.00,CLR,M,M,M,M,M,M,M,M,M,M,M,M,M,M,82.70,KHND 090956Z AUTO 19015G20KT 10SM CLR 30/02 A2989 RMK AO2 SLP102 T03000022,M
TPH,2023-08-09 09:56,-117.0904,38.0505,1654.00,60.00,21.00,21.96,350.00,7.00,0.00,30.09,1011.00,10.00,M,CLR,M,M,M,M,M,M,M,M,M,M,M,M,M,M,60.00,KTPH 090956Z AUTO 35007KT 10SM CLR 16/M06 A3009 RMK AO2 SLP110 T01561061 $,M
LAS,2023-08-09 09:56,-115.1634,36.0719,663.00,87.00,39.00,18.41,190.00,10.00,0.00,29.84,1007.20,10.00,19.00,BKN,OVC,M,M,11000.00,20000.00,M,M,M,M,M,M,M,M,M,83.57,KLAS 090956Z 19010G19KT 10SM BKN110 OVC200 31/04 A2984 RMK AO2 SLP072 VIRGA N-NE BKN V OVC T03060039,M
BVU,2023-08-09 10:15,-114.8611,35.9475,671.00,86.00,28.40,12.44,210.00,5.00,0.00,29.85,M,10.00,M,FEW,FEW,FEW,M,5000.00,8500.00,12000.00,M,M,M,M,M,M,M,M,82.54,KBVU 091015Z AUTO 21005KT 10SM FEW050 FEW085 FEW120 30/M02 A2985 RMK AO2,M
CXP,2023-08-09 10:15,-119.7326,39.1923,1431.00,60.80,42.80,51.45,330.00,4.00,0.00,30.09,M,10.00,M,CLR,M,M,M,M,M,M,M,M,M,M,M,M,M,M,60.80,KCXP 091015Z AUTO 33004KT 10SM CLR 16/06 A3009 RMK AO2,M
RTS,2023-08-09 10:15,-119.8764,39.6682,1539.00,60.80,41.00,48.00,0.00,0.00,0.00,30.11,M,10.00,M,CLR,M,M,M,M,M,M,M,M,M,M,M,M,M,M,60.80,KRTS 091015Z AUTO 00000KT 10SM CLR 16/05 A3011 RMK AO2,M
05U,2023-08-09 10:15,-116.0051,39.6042,1811.23,50.00,33.80,53.54,M,M,0.00,30.16,M,10.00,M,M,M,M,M,M,M,M,M,M,M,M,M,M,M,M,50.00,K05U 091015Z AUTO 10SM 10/01 A3016 RMK A01,M
MEV,2023-08-09 10:15,-119.7500,38.9963,1441.42,50.00,42.80,76.18,0.00,0.00,0.00,30.08,M,10.00,M,CLR,M,M,M,M,M,M,M,M,M,M,M,M,M,M,50.00,KMEV 091015Z AUTO 00000KT 10SM CLR 10/06 A3008 RMK AO2,M
HTH,2023-08-09 10:15,-118.6315,38.5448,1282.89,66.20,42.80,42.57,0.00,0.00,0.00,30.03,M,10.00,M,CLR,M,M,M,M,M,M,M,M,M,M,M,M,M,M,66.20,KHTH 091015Z AUTO 00000KT 10SM CLR 19/06 A3003 RMK A01,M
10U,2023-08-09 10:15,-116.1876,41.9532,1637.00,55.40,42.80,62.46,130.00,8.00,0.00,30.08,M,10.00,M,CLR,M,M,M,M,M,M,M,M,M,M,M,M,M,M,55.40,K10U 091015Z AUTO 13008KT 10SM CLR 13/06 A3008 RMK AO2,M
BAM,2023-08-09 10:15,-116.8743,40.5990,1382.36,57.20,35.60,44.19,0.00,0.00,0.00,30.04,M,10.00,M,CLR,M,M,M,M,M,M,M,M,M,M,M,M,M,M,57.20,KBAM 091015Z AUTO 00000KT 10SM CLR 14/02 A3004 RMK AO1,M
TMT,2023-08-09 10:15,-117.1971,39.4643,1749.34,44.20,29.00,54.86,0.00,0.00,0.00,30.14,M,M,M,CLR,M,M,M,M,M,M,M,M,M,M,M,M,M,M,44.20,KTMT 091015Z AUTO 00000KT CLR 07/M02 A3014 RMK AO2 T00681016 PWINO,M
05U,2023-08-09 10:30,-116.0051,39.6042,1811.23,50.00,33.80,53.54,M,M,0.00,30.16,M,10.00,M,M,M,M,M,M,M,M,M,M,M,M,M,M,M,M,50.00,K05U 091030Z AUTO 10SM 10/01 A3016 RMK A01,M
BVU,2023-08-09 10:35,-114.8611,35.9475,671.00,84.20,35.60,17.61,80.00,6.00,0.00,29.85,M,10.00,M,CLR,M,M,M,M,M,M,M,M,M,M,M,M,M,M,81.34,KBVU 091035Z AUTO 08006KT 10SM CLR 29/02 A2985 RMK AO2,M
CXP,2023-08-09 10:35,-119.7326,39.1923,1431.00,60.80,44.60,55.12,0.00,0.00,0.00,30.09,M,10.00,M,CLR,M,M,M,M,M,M,M,M,M,M,M,M,M,M,60.80,KCXP 091035Z AUTO 00000KT 10SM CLR 16/07 A3009 RMK AO2,M
RTS,2023-08-09 10:35,-119.8764,39.6682,1539.00,59.00,42.80,54.86,0.00,0.00,0.00,30.11,M,10.00,M,CLR,M,M,M,M,M,M,M,M,M,M,M,M,M,M,59.00,KRTS 091035Z AUTO 00000KT 10SM CLR 15/06 A3011 RMK AO2,M
MEV,2023-08-09 10:35,-119.7500,38.9963,1441.42,48.20,42.80,81.47,0.00,0.00,0.00,30.08,M,10.00,M,CLR,M,M,M,M,M,M,M,M,M,M,M,M,M,M,48.20,KMEV 091035Z AUTO 00000KT 10SM CLR 09/06 A3008 RMK AO2,M
BAM,2023-08-09 10:35,-116.8743,40.5990,1382.36,59.00,35.60,41.42,50.00,6.00,0.00,30.04,M,10.00,M,CLR,M,M,M,M,M,M,M,M,M,M,M,M,M,M,59.00,KBAM 091035Z AUTO 05006KT 10SM CLR 15/02 A3004 RMK AO1,M
HTH,2023-08-09 10:35,-118.6315,38.5448,1282.89,68.00,42.80,40.00,0.00,0.00,0.00,30.03,M,10.00,M,CLR,M,M,M,M,M,M,M,M,M,M,M,M,M,M,68.00,KHTH 091035Z AUTO 00000KT 10SM CLR 20/06 A3003 RMK A01,M
10U,2023-08-09 10:35,-116.1876,41.9532,1637.00,57.20,42.80,58.52,130.00,7.00,0.00,30.08,M,10.00,M,CLR,M,M,M,M,M,M,M,M,M,M,M,M,M,M,57.20,K10U 091035Z AUTO 13007KT 10SM CLR 14/06 A3008 RMK AO2,M
TMT,2023-08-09 10:35,-117.1971,39.4643,1749.34,45.00,29.00,53.22,0.00,0.00,0.00,30.13,M,M,M,CLR,M,M,M,M,M,M,M,M,M,M,M,M,M,M,45.00,KTMT 091035Z AUTO 00000KT CLR 07/M02 A3013 RMK AO2 T00721017 PWINO,M
P68,2023-08-09 10:53,-116.0056,39.6014,1993.00,52.00,35.00,52.15,190.00,8.00,0.00,30.14,1012.90,M,M,M,M,M,M,M,M,M,M,M,M,M,M,M,M,M,52.00,KP68 091053Z AUTO 19008KT 11/02 A3014 RMK AO1 SLP129 T01110017,M
DRA,2023-08-09 10:53,-116.0278,36.6206,1009.00,74.00,24.00,15.36,360.00,6.00,0.00,29.92,1007.70,10.00,M,CLR,M,M,M,M,M,M,M,M,M,M,M,M,M,M,74.00,KDRA 091053Z AUTO 36006KT 10SM CLR 23/M04 A2992 RMK AO2 SLP077 T02331044,M
ELY,2023-08-09 10:53,-114.8453,39.2950,1909.00,48.00,38.00,68.13,180.00,6.00,0.00,30.18,1012.50,10.00,M,CLR,M,M,M,M,M,M,M,M,M,M,M,M,M,M,44.80,KELY 091053Z AUTO 18006KT 10SM CLR 09/03 A3018 RMK AO2 SLP125 T00890033,M
VGT,2023-08-09 10:53,-115.1933,36.2111,667.00,85.00,28.00,12.63,150.00,4.00,0.00,29.85,1009.20,10.00,M,CLR,M,M,M,M,M,M,M,M,M,M,M,M,M,M,81.80,KVGT 091053Z AUTO 15004KT 10SM CLR 29/M02 A2985 RMK AO2 SLP092 T02941022 $,M
LOL,2023-08-09 10:53,-118.5701,40.0684,1192.43,55.00,36.00,48.62,280.00,3.00,0.00,30.00,1012.20,10.00,M,CLR,M,M,M,M,M,M,M,M,M,M,M,M,M,M,55.00,KLOL 091053Z AUTO 28003KT 10SM CLR 13/02 A3000 RMK AO2 SLP122 T01280022,M
BVU,2023-08-09 10:55,-114.8611,35.9475,671.00,86.00,30.20,13.38,140.00,5.00,0.00,29.85,M,10.00,M,CLR,M,M,M,M,M,M,M,M,M,M,M,M,M,M,82.64,KBVU 091055Z AUTO 14005KT 10SM CLR 30/M01 A2985 RMK AO2,M
CXP,2023-08-09 10:55,-119.7326,39.1923,1431.00,60.80,42.80,51.45,320.00,3.00,0.00,30.09,M,10.00,M,CLR,M,M,M,M,M,M,M,M,M,M,M,M,M,M,60.80,KCXP 091055Z AUTO 32003KT 10SM CLR 16/06 A3009 RMK AO2,M
RNO,2023-08-09 10:55,-119.7711,39.4839,1341.00,63.00,44.00,49.84,180.00,3.00,0.00,30.07,1012.20,10.00,M,CLR,M,M,M,M,M,M,M,M,M,M,M,M,M,M,63.00,KRNO 091055Z 18003KT 10SM CLR 17/07 A3007 RMK AO2 SLP122 T01720067,M
RTS,2023-08-09 10:55,-119.8764,39.6682,1539.00,60.80,42.80,51.45,0.00,0.00,0.00,30.11,M,10.00,M,CLR,M,M,M,M,M,M,M,M,M,M,M,M,M,M,60.80,KRTS 091055Z AUTO 00000KT 10SM CLR 16/06 A3011 RMK AO2,M
05U,2023-08-09 10:55,-116.0051,39.6042,1811.23,51.80,35.60,53.81,M,M,0.00,30.16,M,10.00,M,M,M,M,M,M,M,M,M,M,M,M,M,M,M,M,51.80,K05U 091055Z AUTO 10SM 11/02 A3016 RMK A01,M
MEV,2023-08-09 10:55,-119.7500,38.9963,1441.42,48.20,42.80,81.47,0.00,0.00,0.00,30.08,M,10.00,M,CLR,M,M,M,M,M,M,M,M,M,M,M,M,M,M,48.20,KMEV 091055Z AUTO 00000KT 10SM CLR 09/06 A3008 RMK AO2,M
BAM,2023-08-09 10:55,-116.8743,40.5990,1382.36,55.40,39.20,54.34,40.00,7.00,0.00,30.04,M,10.00,M,CLR,M,M,M,M,M,M,M,M,M,M,M,M,M,M,55.40,KBAM 091055Z AUTO 04007KT 10SM CLR 13/04 A3004 RMK AO1,M
HTH,2023-08-09 10:55,-118.6315,38.5448,1282.89,69.80,42.80,37.61,0.00,0.00,0.00,30.03,M,10.00,M,CLR,M,M,M,M,M,M,M,M,M,M,M,M,M,M,69.80,KHTH 091055Z AUTO 00000KT 10SM CLR 21/06 A3003 RMK A01,M
TMT,2023-08-09 10:55,-117.1971,39.4643,1749.34,39.40,25.70,57.63,120.00,3.00,0.00,30.14,M,M,M,CLR,M,M,M,M,M,M,M,M,M,M,M,M,M,M,37.15,KTMT 091055Z AUTO 12003KT CLR 04/M03 A3014 RMK AO2 T00411035 PWINO,M
10U,2023-08-09 10:55,-116.1876,41.9532,1637.00,57.20,42.80,58.52,120.00,10.00,0.00,30.07,M,10.00,M,CLR,M,M,M,M,M,M,M,M,M,M,M,M,M,M,57.20,K10U 091055Z AUTO 12010KT 10SM CLR 14/06 A3007 RMK AO2,M
INS,2023-08-09 10:55,-115.6733,36.5872,955.00,66.00,10.00,11.02,240.00,4.00,0.00,29.91,1007.80,10.00,M,CLR,M,M,M,M,M,M,M,M,M,M,M,M,M,M,66.00,KINS 091055Z AUTO 24004KT 10SM CLR 19/M12 A2991 RMK AO2 SLP078 T01891122 $,M
LSV,2023-08-09 10:55,-115.0343,36.2362,570.00,86.50,36.50,16.96,170.00,10.00,0.00,29.80,1006.10,10.00,M,SCT,SCT,M,M,16000.00,19000.00,M,M,M,M,M,M,M,M,M,83.10,KLSV 091055Z AUTO 17010KT 10SM SCT160 SCT190 30/03 A2980 RMK AO2 SLP061 T03030025 $,M
EKO,2023-08-09 10:56,-115.7860,40.8242,1367.00,51.00,39.00,63.36,0.00,0.00,0.00,30.09,1014.10,10.00,M,CLR,M,M,M,M,M,M,M,M,M,M,M,M,M,M,51.00,KEKO 091056Z AUTO 00000KT 10SM CLR 11/04 A3009 RMK AO2 SLP141 T01060039,M
WMC,2023-08-09 10:56,-117.8072,40.9019,1315.00,56.00,35.00,45.06,0.00,0.00,0.00,30.01,1011.80,10.00,M,CLR,M,M,M,M,M,M,M,M,M,M,M,M,M,M,56.00,KWMC 091056Z AUTO 00000KT 10SM CLR 13/02 A3001 RMK AO2 SLP118 T01330017,M
NFL,2023-08-09 10:56,-118.7010,39.4166,1199.00,65.00,40.00,39.83,270.00,3.00,0.00,30.01,1013.10,10.00,M,CLR,M,M,M,M,M,M,M,M,M,M,M,M,M,M,65.00,KNFL 091056Z AUTO 27003KT 10SM CLR 18/04 A3001 RMK AO2 SLP131 T01830044,M
HND,2023-08-09 10:56,-115.1344,35.9729,742.79,85.00,36.00,17.44,190.00,15.00,0.00,29.90,1010.30,10.00,M,CLR,M,M,M,M,M,M,M,M,M,M,M,M,M,M,81.93,KHND 091056Z AUTO 19015KT 10SM CLR 29/02 A2990 RMK AO2 SLP103 T02940022,M
TPH,2023-08-09 10:56,-117.0904,38.0505,1654.00,60.00,23.00,23.90,350.00,8.00,0.00,30.09,1011.10,10.00,M,CLR,M,M,M,M,M,M,M,M,M,M,M,M,M,M,60.00,KTPH 091056Z AUTO 35008KT 10SM CLR 16/M05 A3009 RMK AO2 SLP111 T01561050 $,M
LAS,2023-08-09 10:56,-115.1634,36.0719,663.00,87.00,36.00,16.36,200.00,10.00,0.00,29.84,1007.40,10.00,18.00,FEW,OVC,M,M,11000.00,15000.00,M,M,M,M,M,M,M,M,M,83.48,KLAS 091056Z 20010G18KT 10SM FEW110 OVC150 31/02 A2984 RMK AO2 SLP074 VIRGA NW-N T03060022,M
BVU,2023-08-09 11:15,-114.8611,35.9475,671.00,84.20,30.20,14.18,160.00,6.00,0.00,29.85,M,10.00,M,CLR,M,M,M,M,M,M,M,M,M,M,M,M,M,M,81.26,KBVU 091115Z AUTO 16006KT 10SM CLR 29/M01 A2985 RMK AO2,M
CXP,2023-08-09 11:15,-119.7326,39.1923,1431.00,59.00,42.80,54.86,320.00,4.00,0.00,30.09,M,10.00,M,CLR,M,M,M,M,M,M,M,M,M,M,M,M,M,M,59.00,KCXP 091115Z AUTO 32004KT 10SM CLR 15/06 A3009 RMK AO2,M
RTS,2023-08-09 11:15,-119.8764,39.6682,1539.00,57.20,41.00,54.60,0.00,0.00,0.00,30.11,M,10.00,M,CLR,M,M,M,M,M,M,M,M,M,M,M,M,M,M,57.20,KRTS 091115Z AUTO 00000KT 10SM CLR 14/05 A3011 RMK AO2,M
05U,2023-08-09 11:15,-116.0051,39.6042,1811.23,51.80,33.80,50.08,M,M,0.00,30.16,M,10.00,M,M,M,M,M,M,M,M,M,M,M,M,M,M,M,M,51.80,K05U 091115Z AUTO 10SM 11/01 A3016 RMK A01,M
MEV,2023-08-09 11:15,-119.7500,38.9963,1441.42,50.00,44.60,81.61,0.00,0.00,0.00,30.08,M,10.00,M,CLR,M,M,M,M,M,M,M,M,M,M,M,M,M,M,50.00,KMEV 091115Z AUTO 00000KT 10SM CLR 10/07 A3008 RMK AO2,M
BAM,2023-08-09 11:15,-116.8743,40.5990,1382.36,57.20,37.40,47.44,0.00,0.00,0.00,30.05,M,10.00,M,CLR,M,M,M,M,M,M,M,M,M,M,M,M,M,M,57.20,KBAM 091115Z AUTO 00000KT 10SM CLR 14/03 A3005 RMK AO1,M
HTH,2023-08-09 11:15,-118.6315,38.5448,1282.89,68.00,42.80,40.00,0.00,0.00,0.00,30.03,M,10.00,M,CLR,M,M,M,M,M,M,M,M,M,M,M,M,M,M,68.00,KHTH 091115Z AUTO 00000KT 10SM CLR 20/06 A3003 RMK A01,M
10U,2023-08-09 11:15,-116.1876,41.9532,1637.00,57.20,42.80,58.52,130.00,7.00,0.00,30.07,M,10.00,13.00,CLR,M,M,M,M,M,M,M,M,M,M,M,M,M,M,57.20,K10U 091115Z AUTO 13007G13KT 10SM CLR 14/06 A3007 RMK AO2,M
TMT,2023-08-09 11:15,-117.1971,39.4643,1749.34,41.70,25.30,51.85,0.00,0.00,0.00,30.14,M,M,M,CLR,M,M,M,M,M,M,M,M,M,M,M,M,M,M,41.70,KTMT 091115Z AUTO 00000KT CLR 05/M04 A3014 RMK AO2 T00541037 PWINO,M
CXP,2023-08-09 11:35,-119.7326,39.1923,1431.00,59.00,42.80,54.86,300.00,3.00,0.00,30.09,M,10.00,M,CLR,M,M,M,M,M,M,M,M,M,M,M,M,M,M,59.00,KCXP 091135Z AUTO 30003KT 10SM CLR 15/06 A3009 RMK AO2,M
RTS,2023-08-09 11:35,-119.8764,39.6682,1539.00,57.20,42.80,58.52,0.00,0.00,0.00,30.10,M,10.00,M,CLR,M,M,M,M,M,M,M,M,M,M,M,M,M,M,57.20,KRTS 091135Z AUTO 00000KT 10SM CLR 14/06 A3010 RMK AO2,M
05U,2023-08-09 11:35,-116.0051,39.6042,1811.23,51.80,33.80,50.08,M,M,0.00,30.16,M,10.00,M,M,M,M,M,M,M,M,M,M,M,M,M,M,M,M,51.80,K05U 091135Z AUTO 10SM 11/01 A3016 RMK A01,M
MEV,2023-08-09 11:35,-119.7500,38.9963,1441.42,48.20,41.00,76.01,0.00,0.00,0.00,30.08,M,10.00,M,CLR,M,M,M,M,M,M,M,M,M,M,M,M,M,M,48.20,KMEV 091135Z AUTO 00000KT 10SM CLR 09/05 A3008 RMK AO2,M
BAM,2023-08-09 11:35,-116.8743,40.5990,1382.36,55.40,35.60,47.16,210.00,3.00,0.00,30.05,M,10.00,M,CLR,M,M,M,M,M,M,M,M,M,M,M,M,M,M,55.40,KBAM 091135Z AUTO 21003KT 10SM CLR 13/02 A3005 RMK AO1,M
HTH,2023-08-09 11:35,-118.6315,38.5448,1282.89,68.00,41.00,37.32,250.00,3.00,0.00,30.03,M,10.00,M,CLR,M,M,M,M,M,M,M,M,M,M,M,M,M,M,68.00,KHTH 091135Z AUTO 25003KT 10SM CLR 20/05 A3003 RMK A01,M
10U,2023-08-09 11:35,-116.1876,41.9532,1637.00,57.20,42.80,58.52,130.00,6.00,0.00,30.07,M,10.00,M,BKN,M,M,M,9000.00,M,M,M,M,M,M,M,M,M,M,57.20,K10U 091135Z AUTO 13006KT 10SM BKN090 14/06 A3007 RMK AO2,M
TMT,2023-08-09 11:35,-117.1971,39.4643,1749.34,44.40,27.00,50.16,0.00,0.00,0.00,30.14,M,M,M,CLR,M,M,M,M,M,M,M,M,M,M,M,M,M,M,44.40,KTMT 091135Z AUTO 00000KT CLR 07/M03 A3014 RMK AO2 T00691028 PWINO,M
BVU,2023-08-09 11:35,-114.8611,35.9475,671.00,82.40,35.60,18.67,30.00,4.00,0.00,29.85,M,10.00,M,CLR,M,M,M,M,M,M,M,M,M,M,M,M,M,M,80.08,KBVU 091135Z AUTO 03004KT 10SM CLR 28/02 A2985 RMK AO2,M
05U,2023-08-09 11:50,-116.0051,39.6042,1811.23,53.60,33.80,46.88,M,M,0.00,30.16,M,10.00,M,M,M,M,M,M,M,M,M,M,M,M,M,M,M,M,53.60,K05U 091150Z AUTO 10SM 12/01 A3016 RMK A01,M
P68,2023-08-09 11:53,-116.0056,39.6014,1993.00,54.00,35.00,48.46,180.00,7.00,0.00,30.14,1012.10,M,M,M,M,M,M,M,M,M,M,M,M,M,M,M,M,M,54.00,KP68 091153Z AUTO 18007KT 12/02 A3014 RMK AO1 SLP121 T01220017 10144 20094 50002,M
DRA,2023-08-09 11:53,-116.0278,36.6206,1009.00,70.00,23.00,16.86,60.00,8.00,0.00,29.93,1008.30,10.00,M,CLR,M,M,M,M,M,M,M,M,M,M,M,M,M,M,70.00,KDRA 091153Z AUTO 06008KT 10SM CLR 21/M05 A2993 RMK AO2 SLP083 T02111050 10300 20206 53003,M
ELY,2023-08-09 11:53,-114.8453,39.2950,1909.00,45.00,38.00,76.31,160.00,6.00,0.00,30.19,1013.20,10.00,M,CLR,M,M,M,M,M,M,M,M,M,M,M,M,M,M,41.19,KELY 091153Z AUTO 16006KT 10SM CLR 07/03 A3019 RMK AO2 SLP132 T00720033 10172 20072 52005,M
VGT,2023-08-09 11:53,-115.1933,36.2111,667.00,85.00,30.00,13.71,0.00,0.00,0.00,29.85,1009.20,10.00,M,CLR,M,M,M,M,M,M,M,M,M,M,M,M,M,M,81.86,KVGT 091153Z AUTO 00000KT 10SM CLR 29/M01 A2985 RMK AO2 SLP092 7//// T02941011 10344 20289 51006 $,M
LOL,2023-08-09 11:53,-118.5701,40.0684,1192.43,53.00,35.00,50.27,0.00,0.00,0.00,30.01,1012.60,10.00,M,CLR,M,M,M,M,M,M,M,M,M,M,M,M,M,M,53.00,KLOL 091153Z AUTO 00000KT 10SM CLR 12/02 A3001 RMK AO2 SLP126 T01170017 10217 20111 53006,M
CXP,2023-08-09 11:55,-119.7326,39.1923,1431.00,57.20,42.80,58.52,0.00,0.00,0.00,30.09,M,10.00,M,CLR,M,M,M,M,M,M,M,M,M,M,M,M,M,M,57.20,KCXP 091155Z AUTO 00000KT 10SM CLR 14/06 A3009 RMK AO2,M
RNO,2023-08-09 11:55,-119.7711,39.4839,1341.00,61.00,44.00,53.49,160.00,3.00,0.00,30.06,1012.20,10.00,M,CLR,M,M,M,M,M,M,M,M,M,M,M,M,M,M,61.00,KRNO 091155Z 16003KT 10SM CLR 16/07 A3006 RMK AO2 SLP122 T01610067 10239 20161 58001,M
RTS,2023-08-09 11:55,-119.8764,39.6682,1539.00,59.00,41.00,51.18,130.00,4.00,0.00,30.10,M,10.00,M,CLR,M,M,M,M,M,M,M,M,M,M,M,M,M,M,59.00,KRTS 091155Z AUTO 13004KT 10SM CLR 15/05 A3010 RMK AO2,M
MEV,2023-08-09 11:55,-119.7500,38.9963,1441.42,46.40,39.20,75.84,0.00,0.00,0.00,30.08,M,10.00,M,CLR,M,M,M,M,M,M,M,M,M,M,M,M,M,M,46.40,KMEV 091155Z AUTO 00000KT 10SM CLR 08/04 A3008 RMK AO2,M
BAM,2023-08-09 11:55,-116.8743,40.5990,1382.36,55.40,35.60,47.16,220.00,5.00,0.00,30.05,M,10.00,M,CLR,M,M,M,M,M,M,M,M,M,M,M,M,M,M,55.40,KBAM 091155Z AUTO 22005KT 10SM CLR 13/02 A3005 RMK AO1,M
HTH,2023-08-09 11:55,-118.6315,38.5448,1282.89,68.00,44.60,42.85,260.00,4.00,0.00,30.03,M,10.00,M,CLR,M,M,M,M,M,M,M,M,M,M,M,M,M,M,68.00,KHTH 091155Z AUTO 26004KT 10SM CLR 20/07 A3003 RMK A01,M
TMT,2023-08-09 11:55,-117.1971,39.4643,1749.34,39.00,24.30,55.23,0.00,0.00,0.00,30.14,M,M,M,CLR,M,M,M,M,M,M,M,M,M,M,M,M,M,M,39.00,KTMT 091155Z AUTO 00000KT CLR 04/M04 A3014 RMK AO2 T00391043 10135 20038 PWINO,M
10U,2023-08-09 11:55,-116.1876,41.9532,1637.00,59.00,42.80,54.86,190.00,5.00,0.00,30.08,M,10.00,M,OVC,M,M,M,9000.00,M,M,M,M,M,M,M,M,M,M,59.00,K10U 091155Z AUTO 19005KT 10SM OVC090 15/06 A3008 RMK AO2,M
INS,2023-08-09 11:55,-115.6733,36.5872,955.00,70.30,15.30,12.00,0.00,0.00,0.00,29.91,1007.70,10.00,M,CLR,M,M,M,M,M,M,M,M,M,M,M,M,M,M,70.30,KINS 091155Z AUTO 00000KT 10SM CLR 21/M09 A2991 RMK AO2 SLP077 T02131093 10289 20188 50002 $,M
LSV,2023-08-09 11:55,-115.0343,36.2362,570.00,86.00,33.00,14.99,240.00,5.00,0.00,29.81,1006.50,10.00,M,FEW,M,M,M,20000.00,M,M,M,M,M,M,M,M,M,M,82.65,KLSV 091155Z AUTO 24005KT 10SM FEW200 30/01 A2981 RMK AO2 SLP065 T03000005 10324 20300 53006 $,M
EKO,2023-08-09 11:56,-115.7860,40.8242,1367.00,51.00,36.00,56.31,0.00,0.00,0.00,30.10,1014.40,10.00,M,CLR,M,M,M,M,M,M,M,M,M,M,M,M,M,M,51.00,KEKO 091156Z AUTO 00000KT 10SM CLR 11/02 A3010 RMK AO2 SLP144 T01060022 10194 20094 53005,M
WMC,2023-08-09 11:56,-117.8072,40.9019,1315.00,54.00,36.00,50.42,M,3.00,0.00,30.02,1012.10,10.00,M,CLR,M,M,M,M,M,M,M,M,M,M,M,M,M,M,54.00,KWMC 091156Z AUTO VRB03KT 10SM CLR 12/02 A3002 RMK AO2 SLP121 T01220022 10206 20111 53005,M
NFL,2023-08-09 11:56,-118.7010,39.4166,1199.00,63.00,41.00,44.41,290.00,4.00,0.00,30.01,1013.10,10.00,M,CLR,M,M,M,M,M,M,M,M,M,M,M,M,M,M,63.00,KNFL 091156Z AUTO 29004KT 10SM CLR 17/05 A3001 RMK AO2 SLP131 T01720050 10222 20150 51003,M
HND,2023-08-09 11:56,-115.1344,35.9729,742.79,85.00,37.00,18.14,220.00,11.00,0.00,29.90,1010.60,10.00,M,CLR,M,M,M,M,M,M,M,M,M,M,M,M,M,M,81.96,KHND 091156Z AUTO 22011KT 10SM CLR 29/03 A2990 RMK AO2 SLP106 60000 T02940028 10322 20283 53001,M
TPH,2023-08-09 11:56,-117.0904,38.0505,1654.00,59.00,24.00,25.82,350.00,8.00,0.00,30.09,1011.00,10.00,M,CLR,M,M,M,M,M,M,M,M,M,M,M,M,M,M,59.00,KTPH 091156Z AUTO 35008KT 10SM CLR 15/M04 A3009 RMK AO2 SLP110 T01501044 10217 20144 50001 $,M
LAS,2023-08-09 11:56,-115.1634,36.0719,663.00,86.00,37.00,17.57,190.00,15.00,0.00,29.85,1007.40,10.00,25.00,FEW,OVC,M,M,15000.00,18000.00,M,M,M,M,M,M,M,M,M,82.72,KLAS 091156Z 19015G25KT 10SM FEW150 OVC180 30/03 A2985 RMK AO2 SLP074 OVC V BKN T03000028 10333 20300 51003,M
BVU,2023-08-09 12:15,-114.8611,35.9475,671.00,78.80,41.00,25.95,50.00,3.00,0.00,29.86,M,10.00,M,FEW,FEW,FEW,M,6500.00,8000.00,10000.00,M,M,M,M,M,M,M,M,78.80,KBVU 091215Z AUTO 05003KT 10SM FEW065 FEW080 FEW100 26/05 A2986 RMK AO2,M
CXP,2023-08-09 12:15,-119.7326,39.1923,1431.00,57.20,41.00,54.60,0.00,0.00,0.00,30.09,M,10.00,M,CLR,M,M,M,M,M,M,M,M,M,M,M,M,M,M,57.20,KCXP 091215Z AUTO 00000KT 10SM CLR 14/05 A3009 RMK AO2,M
RTS,2023-08-09 12:15,-119.8764,39.6682,1539.00,57.20,42.80,58.52,150.00,4.00,0.00,30.10,M,10.00,M,CLR,M,M,M,M,M,M,M,M,M,M,M,M,M,M,57.20,KRTS 091215Z AUTO 15004KT 10SM CLR 14/06 A3010 RMK AO2,M
05U,2023-08-09 12:15,-116.0051,39.6042,1811.23,51.80,33.80,50.08,M,M,0.00,30.17,M,10.00,M,M,M,M,M,M,M,M,M,M,M,M,M,M,M,M,51.80,K05U 091215Z AUTO 10SM 11/01 A3017 RMK A01,M
MEV,2023-08-09 12:15,-119.7500,38.9963,1441.42,46.40,39.20,75.84,0.00,0.00,0.00,30.08,M,10.00,M,CLR,M,M,M,M,M,M,M,M,M,M,M,M,M,M,46.40,KMEV 091215Z AUTO 00000KT 10SM CLR 08/04 A3008 RMK AO2,M
HTH,2023-08-09 12:15,-118.6315,38.5448,1282.89,66.20,42.80,42.57,260.00,5.00,0.00,30.03,M,10.00,M,CLR,M,M,M,M,M,M,M,M,M,M,M,M,M,M,66.20,KHTH 091215Z AUTO 26005KT 10SM CLR 19/06 A3003 RMK A01,M
10U,2023-08-09 12:15,-116.1876,41.9532,1637.00,57.20,42.80,58.52,150.00,6.00,0.00,30.08,M,10.00,M,OVC,M,M,M,9500.00,M,M,M,M,M,M,M,M,M,M,57.20,K10U 091215Z AUTO 15006KT 10SM OVC095 14/06 A3008 RMK AO2,M
BAM,2023-08-09 12:15,-116.8743,40.5990,1382.36,50.00,32.00,49.81,140.00,4.00,0.00,30.06,M,10.00,M,CLR,M,M,M,M,M,M,M,M,M,M,M,M,M,M,50.00,KBAM 091215Z AUTO 14004KT 10SM CLR 10/00 A3006 RMK AO1,M
TMT,2023-08-09 12:15,-117.1971,39.4643,1749.34,39.60,24.40,54.17,0.00,0.00,0.00,30.14,M,M,M,CLR,M,M,M,M,M,M,M,M,M,M,M,M,M,M,39.60,KTMT 091215Z AUTO 00000KT CLR 04/M04 A3014 RMK AO2 T00421042 PWINO,M
05U,2023-08-09 12:30,-116.0051,39.6042,1811.23,48.20,33.80,57.26,M,M,0.00,30.17,M,10.00,M,M,M,M,M,M,M,M,M,M,M,M,M,M,M,M,M,K05U 091230Z AUTO 10SM 09/01 A3017 RMK A01,M
BVU,2023-08-09 12:35,-114.8611,35.9475,671.00,82.40,41.00,23.07,70.00,4.00,0.00,29.87,M,10.00,M,FEW,SCT,BKN,M,4700.00,6000.00,7500.00,M,M,M,M,M,M,M,M,80.29,KBVU 091235Z AUTO 07004KT 10SM FEW047 SCT060 BKN075 28/05 A2987 RMK AO2,M
CXP,2023-08-09 12:35,-119.7326,39.1923,1431.00,55.40,42.80,62.46,0.00,0.00,0.00,30.10,M,10.00,M,CLR,M,M,M,M,M,M,M,M,M,M,M,M,M,M,55.40,KCXP 091235Z AUTO 00000KT 10SM CLR 13/06 A3010 RMK AO2,M
RTS,2023-08-09 12:35,-119.8764,39.6682,1539.00,59.00,41.00,51.18,0.00,0.00,0.00,30.11,M,10.00,M,CLR,M,M,M,M,M,M,M,M,M,M,M,M,M,M,59.00,KRTS 091235Z AUTO 00000KT 10SM CLR 15/05 A3011 RMK AO2,M
MEV,2023-08-09 12:35,-119.7500,38.9963,1441.42,46.40,37.40,70.68,0.00,0.00,0.00,30.09,M,10.00,M,CLR,M,M,M,M,M,M,M,M,M,M,M,M,M,M,46.40,KMEV 091235Z AUTO 00000KT 10SM CLR 08/03 A3009 RMK AO2,M
HTH,2023-08-09 12:35,-118.6315,38.5448,1282.89,66.20,44.60,45.60,260.00,4.00,0.00,30.04,M,10.00,M,CLR,M,M,M,M,M,M,M,M,M,M,M,M,M,M,66.20,KHTH 091235Z AUTO 26004KT 10SM CLR 19/07 A3004 RMK A01,M
10U,2023-08-09 12:35,-116.1876,41.9532,1637.00,59.00,42.80,54.86,120.00,7.00,0.00,30.08,M,10.00,M,OVC,M,M,M,9500.00,M,M,M,M,M,M,M,M,M,M,59.00,K10U 091235Z AUTO 12007KT 10SM OVC095 15/06 A3008 RMK AO2,M
BAM,2023-08-09 12:35,-116.8743,40.5990,1382.36,50.00,33.80,53.54,160.00,4.00,0.00,30.06,M,10.00,M,CLR,M,M,M,M,M,M,M,M,M,M,M,M,M,M,50.00,KBAM 091235Z AUTO 16004KT 10SM CLR 10/01 A3006 RMK AO1,M
TMT,2023-08-09 12:35,-117.1971,39.4643,1749.34,42.00,28.00,57.30,0.00,0.00,0.00,30.14,M,M,M,CLR,M,M,M,M,M,M,M,M,M,M,M,M,M,M,42.00,KTMT 091235Z AUTO 00000KT CLR 06/M02 A3014 RMK AO2 T00561023 PWINO,M
05U,2023-08-09 12:50,-116.0051,39.6042,1811.23,50.00,33.80,53.54,M,M,0.00,30.17,M,10.00,M,M,M,M,M,M,M,M,M,M,M,M,M,M,M,M,50.00,K05U 091250Z AUTO 10SM 10/01 A3017 RMK A01,M
P68,2023-08-09 12:53,-116.0056,39.6014,1993.00,51.00,35.00,54.12,180.00,6.00,0.00,30.15,1012.80,M,M,M,M,M,M,M,M,M,M,M,M,M,M,M,M,M,51.00,KP68 091253Z AUTO 18006KT 11/02 A3015 RMK AO1 SLP128 T01060017,M
DRA,2023-08-09 12:53,-116.0278,36.6206,1009.00,70.00,26.00,19.11,30.00,7.00,0.00,29.95,1008.90,10.00,M,CLR,M,M,M,M,M,M,M,M,M,M,M,M,M,M,70.00,KDRA 091253Z AUTO 03007KT 10SM CLR 21/M03 A2995 RMK AO2 SLP089 T02111033,M
ELY,2023-08-09 12:53,-114.8453,39.2950,1909.00,44.00,38.00,79.27,170.00,6.00,0.00,30.19,1013.60,10.00,M,CLR,M,M,M,M,M,M,M,M,M,M,M,M,M,M,39.98,KELY 091253Z AUTO 17006KT 10SM CLR 07/03 A3019 RMK AO2 SLP136 T00670033,M
VGT,2023-08-09 12:53,-115.1933,36.2111,667.00,84.00,30.00,14.16,10.00,5.00,0.00,29.87,1009.70,10.00,M,CLR,M,M,M,M,M,M,M,M,M,M,M,M,M,M,81.11,KVGT 091253Z 01005KT 10SM CLR 29/M01 A2987 RMK AO2 SLP097 T02891011 $,M
LOL,2023-08-09 12:53,-118.5701,40.0684,1192.43,53.00,36.00,52.30,50.00,3.00,0.00,30.02,1013.10,10.00,M,CLR,M,M,M,M,M,M,M,M,M,M,M,M,M,M,53.00,KLOL 091253Z AUTO 05003KT 10SM CLR 12/02 A3002 RMK AO2 SLP131 T01170022,M
BVU,2023-08-09 12:55,-114.8611,35.9475,671.00,84.20,35.60,17.61,0.00,0.00,0.00,29.87,M,10.00,M,FEW,FEW,SCT,M,6000.00,7000.00,8000.00,M,M,M,M,M,M,M,M,81.34,KBVU 091255Z AUTO 00000KT 10SM FEW060 FEW070 SCT080 29/02 A2987 RMK AO2,M
CXP,2023-08-09 12:55,-119.7326,39.1923,1431.00,55.40,42.80,62.46,0.00,0.00,0.00,30.10,M,10.00,M,CLR,M,M,M,M,M,M,M,M,M,M,M,M,M,M,55.40,KCXP 091255Z AUTO 00000KT 10SM CLR 13/06 A3010 RMK AO2,M
RNO,2023-08-09 12:55,-119.7711,39.4839,1341.00,62.00,44.00,51.63,0.00,0.00,0.00,30.07,1012.50,10.00,M,CLR,M,M,M,M,M,M,M,M,M,M,M,M,M,M,62.00,KRNO 091255Z 00000KT 10SM CLR 17/07 A3007 RMK AO2 SLP125 T01670067,M
RTS,2023-08-09 12:55,-119.8764,39.6682,1539.00,59.00,41.00,51.18,0.00,0.00,0.00,30.11,M,10.00,M,CLR,M,M,M,M,M,M,M,M,M,M,M,M,M,M,59.00,KRTS 091255Z AUTO 00000KT 10SM CLR 15/05 A3011 RMK AO2,M
MEV,2023-08-09 12:55,-119.7500,38.9963,1441.42,44.60,41.00,87.09,0.00,0.00,0.00,30.09,M,9.00,M,CLR,M,M,M,M,M,M,M,M,M,M,M,M,M,M,44.60,KMEV 091255Z AUTO 00000KT 9SM CLR 07/05 A3009 RMK AO2,M
BAM,2023-08-09 12:55,-116.8743,40.5990,1382.36,51.80,33.80,50.08,0.00,0.00,0.00,30.07,M,10.00,M,CLR,M,M,M,M,M,M,M,M,M,M,M,M,M,M,51.80,KBAM 091255Z AUTO 00000KT 10SM CLR 11/01 A3007 RMK AO1,M
HTH,2023-08-09 12:55,-118.6315,38.5448,1282.89,66.20,44.60,45.60,270.00,5.00,0.00,30.04,M,10.00,M,CLR,M,M,M,M,M,M,M,M,M,M,M,M,M,M,66.20,KHTH 091255Z AUTO 27005KT 10SM CLR 19/07 A3004 RMK A01,M
TMT,2023-08-09 12:55,-117.1971,39.4643,1749.34,41.00,29.50,63.32,300.00,4.00,0.00,30.15,M,M,M,CLR,M,M,M,M,M,M,M,M,M,M,M,M,M,M,37.93,KTMT 091255Z AUTO 30004KT CLR 05/M01 A3015 RMK AO2 T00511014 PWINO,M
10U,2023-08-09 12:55,-116.1876,41.9532,1637.00,59.00,42.80,54.86,140.00,6.00,0.00,30.09,M,10.00,M,SCT,M,M,M,9500.00,M,M,M,M,M,M,M,M,M,M,59.00,K10U 091255Z AUTO 14006KT 10SM SCT095 15/06 A3009 RMK AO2,M
INS,2023-08-09 12:55,-115.6733,36.5872,955.00,64.40,12.40,12.96,0.00,0.00,0.00,29.94,1009.00,10.00,M,CLR,M,M,M,M,M,M,M,M,M,M,M,M,M,M,64.40,KINS 091255Z AUTO 00000KT 10SM CLR 18/M11 A2994 RMK AO2 SLP090 T01801109 $,M
LSV,2023-08-09 12:55,-115.0343,36.2362,570.00,82.00,31.30,15.92,0.00,0.00,0.00,29.83,1007.30,10.00,M,FEW,M,M,M,14000.00,M,M,M,M,M,M,M,M,M,M,79.71,KLSV 091255Z AUTO 00000KT 10SM FEW140 28/M00 A2983 RMK AO2 SLP073 T02771004 $,M
EKO,2023-08-09 12:56,-115.7860,40.8242,1367.00,54.00,38.00,54.56,30.00,3.00,0.00,30.11,1014.60,10.00,M,CLR,M,M,M,M,M,M,M,M,M,M,M,M,M,M,54.00,KEKO 091256Z AUTO 03003KT 10SM CLR 12/03 A3011 RMK AO2 SLP146 T01220033,M
WMC,2023-08-09 12:56,-117.8072,40.9019,1315.00,51.00,36.00,56.31,140.00,4.00,0.00,30.04,1012.80,10.00,M,CLR,M,M,M,M,M,M,M,M,M,M,M,M,M,M,51.00,KWMC 091256Z AUTO 14004KT 10SM CLR 11/02 A3004 RMK AO2 SLP128 T01060022,M
NFL,2023-08-09 12:56,-118.7010,39.4166,1199.00,58.00,40.00,51.03,210.00,3.00,0.00,30.02,1013.50,10.00,M,CLR,M,M,M,M,M,M,M,M,M,M,M,M,M,M,58.00,KNFL 091256Z AUTO 21003KT 10SM CLR 14/04 A3002 RMK AO2 SLP135 T01440044,M
HND,2023-08-09 12:56,-115.1344,35.9729,742.79,83.00,39.00,20.93,210.00,10.00,0.00,29.92,1011.10,10.00,M,CLR,M,M,M,M,M,M,M,M,M,M,M,M,M,M,80.60,KHND 091256Z 21010KT 10SM CLR 28/04 A2992 RMK AO2 SLP111 T02830039,M
TPH,2023-08-09 12:56,-117.0904,38.0505,1654.00,57.00,24.00,27.75,360.00,9.00,0.00,30.10,1011.40,10.00,M,CLR,M,M,M,M,M,M,M,M,M,M,M,M,M,M,57.00,KTPH 091256Z AUTO 36009KT 10SM CLR 14/M04 A3010 RMK AO2 SLP114 T01391044 $,M
LAS,2023-08-09 12:56,-115.1634,36.0719,663.00,85.00,38.00,18.87,190.00,10.00,0.00,29.87,1008.10,10.00,18.00,FEW,BKN,M,M,12000.00,15000.00,M,M,M,M,M,M,26.00,190.00,2023-08-09 12:03,81.99,KLAS 091256Z 19010G18KT 10SM FEW120 BKN150 29/03 A2987 RMK AO2 PK WND 19026/1203 SLP081 T02940033,M
05U,2023-08-09 13:10,-116.0051,39.6042,1811.23,53.60,33.80,46.88,M,M,0.00,30.17,M,10.00,M,M,M,M,M,M,M,M,M,M,M,M,M,M,M,M,53.60,K05U 091310Z AUTO 10SM 12/01 A3017 RMK A01,M
BVU,2023-08-09 13:15,-114.8611,35.9475,671.00,82.40,37.40,20.04,60.00,6.00,0.00,29.88,M,10.00,M,FEW,FEW,FEW,M,4900.00,6000.00,10000.00,M,M,M,M,M,M,M,M,80.14,KBVU 091315Z AUTO 06006KT 10SM FEW049 FEW060 FEW100 28/03 A2988 RMK AO2,M
CXP,2023-08-09 13:15,-119.7326,39.1923,1431.00,53.60,42.80,66.70,0.00,0.00,0.00,30.10,M,10.00,M,CLR,M,M,M,M,M,M,M,M,M,M,M,M,M,M,53.60,KCXP 091315Z AUTO 00000KT 10SM CLR 12/06 A3010 RMK AO2,M
RTS,2023-08-09 13:15,-119.8764,39.6682,1539.00,57.20,42.80,58.52,0.00,0.00,0.00,30.11,M,9.00,M,CLR,M,M,M,M,M,M,M,M,M,M,M,M,M,M,57.20,KRTS 091315Z AUTO 00000KT 9SM CLR 14/06 A3011 RMK AO2,M
MEV,2023-08-09 13:15,-119.7500,38.9963,1441.42,42.80,39.20,86.99,160.00,4.00,0.00,30.09,M,10.00,M,CLR,M,M,M,M,M,M,M,M,M,M,M,M,M,M,40.03,KMEV 091315Z AUTO 16004KT 10SM CLR 06/04 A3009 RMK AO2,M
HTH,2023-08-09 13:15,-118.6315,38.5448,1282.89,64.40,46.40,51.98,260.00,4.00,0.00,30.05,M,10.00,M,CLR,M,M,M,M,M,M,M,M,M,M,M,M,M,M,64.40,KHTH 091315Z AUTO 26004KT 10SM CLR 18/08 A3005 RMK A01,M
10U,2023-08-09 13:15,-116.1876,41.9532,1637.00,59.00,41.00,51.18,130.00,10.00,0.00,30.09,M,10.00,M,CLR,M,M,M,M,M,M,M,M,M,M,M,M,M,M,59.00,K10U 091315Z AUTO 13010KT 10SM CLR 15/05 A3009 RMK AO2,M
BAM,2023-08-09 13:15,-116.8743,40.5990,1382.36,50.00,33.80,53.54,0.00,0.00,0.00,30.07,M,10.00,M,CLR,M,M,M,M,M,M,M,M,M,M,M,M,M,M,50.00,KBAM 091315Z AUTO 00000KT 10SM CLR 10/01 A3007 RMK AO1,M
TMT,2023-08-09 13:15,-117.1971,39.4643,1749.34,41.40,31.30,67.08,0.00,0.00,0.00,30.15,M,M,M,CLR,M,M,M,M,M,M,M,M,M,M,M,M,M,M,41.40,KTMT 091315Z AUTO 00000KT CLR 05/00 A3015 RMK AO2 T00521004 PWINO,M
BVU,2023-08-09 13:35,-114.8611,35.9475,671.00,82.40,33.80,17.38,90.00,4.00,0.00,29.89,M,10.00,M,FEW,FEW,FEW,M,4900.00,6000.00,10000.00,M,M,M,M,M,M,M,M,80.03,KBVU 091335Z AUTO 09004KT 10SM FEW049 FEW060 FEW100 28/01 A2989 RMK AO2,M
CXP,2023-08-09 13:35,-119.7326,39.1923,1431.00,53.60,42.80,66.70,0.00,0.00,0.00,30.10,M,10.00,M,CLR,M,M,M,M,M,M,M,M,M,M,M,M,M,M,53.60,KCXP 091335Z AUTO 00000KT 10SM CLR 12/06 A3010 RMK AO2,M
RTS,2023-08-09 13:35,-119.8764,39.6682,1539.00,55.40,46.40,71.64,0.00,0.00,0.00,30.12,M,7.00,M,CLR,M,M,M,M,M,M,M,M,M,M,M,M,M,M,55.40,KRTS 091335Z AUTO 00000KT 7SM CLR 13/08 A3012 RMK AO2,M
05U,2023-08-09 13:35,-116.0051,39.6042,1811.23,53.60,33.80,46.88,M,M,0.00,30.17,M,10.00,M,M,M,M,M,M,M,M,M,M,M,M,M,M,M,M,53.60,K05U 091335Z AUTO 10SM 12/01 A3017 RMK A01,M
MEV,2023-08-09 13:35,-119.7500,38.9963,1441.42,44.60,39.20,81.20,150.00,4.00,0.00,30.09,M,8.00,M,CLR,M,M,M,M,M,M,M,M,M,M,M,M,M,M,42.13,KMEV 091335Z AUTO 15004KT 8SM CLR 07/04 A3009 RMK AO2,M
HTH,2023-08-09 13:35,-118.6315,38.5448,1282.89,66.20,46.40,48.83,230.00,4.00,0.00,30.06,M,10.00,M,CLR,M,M,M,M,M,M,M,M,M,M,M,M,M,M,66.20,KHTH 091335Z AUTO 23004KT 10SM CLR 19/08 A3006 RMK A01,M
10U,2023-08-09 13:35,-116.1876,41.9532,1637.00,59.00,41.00,51.18,130.00,8.00,0.00,30.09,M,10.00,M,SCT,M,M,M,9000.00,M,M,M,M,M,M,M,M,M,M,59.00,K10U 091335Z AUTO 13008KT 10SM SCT090 15/05 A3009 RMK AO2,M
BAM,2023-08-09 13:35,-116.8743,40.5990,1382.36,53.60,35.60,50.36,0.00,0.00,0.00,30.08,M,10.00,M,CLR,M,M,M,M,M,M,M,M,M,M,M,M,M,M,53.60,KBAM 091335Z AUTO 00000KT 10SM CLR 12/02 A3008 RMK AO1,M
TMT,2023-08-09 13:35,-117.1971,39.4643,1749.34,44.60,31.50,59.81,0.00,0.00,0.00,30.15,M,M,M,CLR,M,M,M,M,M,M,M,M,M,M,M,M,M,M,44.60,KTMT 091335Z AUTO 00000KT CLR 07/00 A3015 RMK AO2 T00701003 PWINO,M
NFL,2023-08-09 13:48,-118.7010,39.4166,1199.00,62.00,42.00,47.82,250.00,4.00,0.00,30.03,M,10.00,M,FEW,M,M,M,15000.00,M,M,M,M,M,M,M,M,M,M,62.00,KNFL 091348Z 25004KT 10SM FEW150 17/06 A3003 RMK AO2 T01670056,M
P68,2023-08-09 13:53,-116.0056,39.6014,1993.00,53.00,36.00,52.30,210.00,5.00,0.00,30.15,1013.10,M,M,M,M,M,M,M,M,M,M,M,M,M,M,M,M,M,53.00,KP68 091353Z AUTO 21005KT 12/02 A3015 RMK AO1 SLP131 T01170022,M
DRA,2023-08-09 13:53,-116.0278,36.6206,1009.00,76.00,33.00,20.77,340.00,3.00,0.00,29.97,1009.30,10.00,M,CLR,M,M,M,M,M,M,M,M,M,M,M,M,M,M,76.00,KDRA 091353Z AUTO 34003KT 10SM CLR 24/01 A2997 RMK AO2 SLP093 T02440006,M
ELY,2023-08-09 13:53,-114.8453,39.2950,1909.00,50.00,40.00,68.37,180.00,9.00,0.00,30.20,1013.40,10.00,M,CLR,M,M,M,M,M,M,M,M,M,M,M,M,M,M,50.00,KELY 091353Z AUTO 18009KT 10SM CLR 10/04 A3020 RMK AO2 SLP134 T01000044,M
VGT,2023-08-09 13:53,-115.1933,36.2111,667.00,83.00,30.00,14.62,20.00,5.00,0.00,29.89,1010.50,10.00,M,CLR,M,M,M,M,M,M,M,M,M,M,M,M,M,M,80.39,KVGT 091353Z 02005KT 10SM CLR 28/M01 A2989 RMK AO2 SLP105 T02831011 $,M
LOL,2023-08-09 13:53,-118.5701,40.0684,1192.43,58.00,39.00,49.08,40.00,3.00,0.00,30.03,1013.10,10.00,M,CLR,M,M,M,M,M,M,M,M,M,M,M,M,M,M,58.00,KLOL 091353Z AUTO 04003KT 10SM CLR 14/04 A3003 RMK AO2 SLP131 T01440039,M
BVU,2023-08-09 13:55,-114.8611,35.9475,671.00,84.20,37.40,18.91,40.00,4.00,0.00,29.89,M,10.00,M,CLR,M,M,M,M,M,M,M,M,M,M,M,M,M,M,81.38,KBVU 091355Z AUTO 04004KT 10SM CLR 29/03 A2989 RMK AO2,M
CXP,2023-08-09 13:55,-119.7326,39.1923,1431.00,57.20,42.80,58.52,0.00,0.00,0.00,30.11,M,10.00,M,CLR,M,M,M,M,M,M,M,M,M,M,M,M,M,M,57.20,KCXP 091355Z AUTO 00000KT 10SM CLR 14/06 A3011 RMK AO2,M
RNO,2023-08-09 13:55,-119.7711,39.4839,1341.00,63.00,43.00,47.97,M,3.00,0.00,30.08,1013.10,10.00,M,FEW,M,M,M,20000.00,M,M,M,M,M,M,M,M,M,M,63.00,KRNO 091355Z VRB03KT 10SM FEW200 17/06 A3008 RMK AO2 SLP131 T01720061,M
RTS,2023-08-09 13:55,-119.8764,39.6682,1539.00,57.20,42.80,58.52,0.00,0.00,0.00,30.12,M,9.00,M,CLR,M,M,M,M,M,M,M,M,M,M,M,M,M,M,57.20,KRTS 091355Z AUTO 00000KT 9SM CLR 14/06 A3012 RMK AO2,M
05U,2023-08-09 13:55,-116.0051,39.6042,1811.23,55.40,35.60,47.16,M,M,0.00,30.18,M,10.00,M,M,M,M,M,M,M,M,M,M,M,M,M,M,M,M,55.40,K05U 091355Z AUTO 10SM 13/02 A3018 RMK A01,M
MEV,2023-08-09 13:55,-119.7500,38.9963,1441.42,46.40,39.20,75.84,0.00,0.00,0.00,30.10,M,10.00,M,CLR,M,M,M,M,M,M,M,M,M,M,M,M,M,M,46.40,KMEV 091355Z AUTO 00000KT 10SM CLR 08/04 A3010 RMK AO2,M
HTH,2023-08-09 13:55,-118.6315,38.5448,1282.89,66.20,46.40,48.83,0.00,0.00,0.00,30.06,M,10.00,M,CLR,M,M,M,M,M,M,M,M,M,M,M,M,M,M,66.20,KHTH 091355Z AUTO 00000KT 10SM CLR 19/08 A3006 RMK A01,M
BAM,2023-08-09 13:55,-116.8743,40.5990,1382.36,59.00,37.40,44.47,0.00,0.00,0.00,30.08,M,10.00,M,CLR,M,M,M,M,M,M,M,M,M,M,M,M,M,M,59.00,KBAM 091355Z AUTO 00000KT 10SM CLR 15/03 A3008 RMK AO1,M
TMT,2023-08-09 13:55,-117.1971,39.4643,1749.34,45.00,30.00,55.43,0.00,0.00,0.00,30.16,M,M,M,CLR,M,M,M,M,M,M,M,M,M,M,M,M,M,M,45.00,KTMT 091355Z AUTO 00000KT CLR 07/M01 A3016 RMK AO2 T00731012 PWINO,M
10U,2023-08-09 13:55,-116.1876,41.9532,1637.00,62.60,41.00,45.04,130.00,11.00,0.00,30.10,M,10.00,M,FEW,M,M,M,9000.00,M,M,M,M,M,M,M,M,M,M,62.60,K10U 091355Z AUTO 13011KT 10SM FEW090 17/05 A3010 RMK AO2,M
INS,2023-08-09 13:55,-115.6733,36.5872,955.00,68.00,13.50,12.00,0.00,0.00,0.00,29.96,1009.70,10.00,M,CLR,M,M,M,M,M,M,M,M,M,M,M,M,M,M,68.00,KINS 091355Z AUTO 00000KT 10SM CLR 20/M10 A2996 RMK AO2 SLP097 T02001103 $,M
LSV,2023-08-09 13:55,-115.0343,36.2362,570.00,84.00,36.00,18.01,210.00,4.00,0.00,29.84,1007.60,10.00,M,CLR,M,M,M,M,M,M,M,M,M,M,M,M,M,M,81.20,KLSV 091355Z AUTO 21004KT 10SM CLR 29/02 A2984 RMK AO2 SLP076 T02890022 $,M
EKO,2023-08-09 13:56,-115.7860,40.8242,1367.00,56.00,38.00,50.73,90.00,4.00,0.00,30.12,1014.70,10.00,M,CLR,M,M,M,M,M,M,M,M,M,M,M,M,M,M,56.00,KEKO 091356Z AUTO 09004KT 10SM CLR 13/03 A3012 RMK AO2 SLP147 T01330033,M
WMC,2023-08-09 13:56,-117.8072,40.9019,1315.00,57.00,36.00,45.22,120.00,3.00,0.00,30.05,1012.90,10.00,M,CLR,M,M,M,M,M,M,M,M,M,M,M,M,M,M,57.00,KWMC 091356Z AUTO 12003KT 10SM CLR 14/02 A3005 RMK AO2 SLP129 T01390022,M
NFL,2023-08-09 13:56,-118.7010,39.4166,1199.00,64.00,43.00,46.32,0.00,0.00,0.00,30.03,1013.80,9.00,M,FEW,M,M,M,15000.00,M,M,M,M,M,M,M,M,M,M,64.00,KNFL 091356Z 00000KT 9SM FEW150 18/06 A3003 RMK AO2 SLP138 T01780061,M
HND,2023-08-09 13:56,-115.1344,35.9729,742.79,83.00,38.00,20.13,190.00,8.00,0.00,29.93,1011.80,10.00,M,CLR,M,M,M,M,M,M,M,M,M,M,M,M,M,M,80.56,KHND 091356Z 19008KT 10SM CLR 28/03 A2993 RMK AO2 SLP118 T02830033,M
TPH,2023-08-09 13:56,-117.0904,38.0505,1654.00,60.00,26.00,27.08,350.00,7.00,0.00,30.11,1011.80,10.00,M,CLR,M,M,M,M,M,M,M,M,M,M,M,M,M,M,60.00,KTPH 091356Z AUTO 35007KT 10SM CLR 16/M03 A3011 RMK AO2 SLP118 T01561033 $,M
LAS,2023-08-09 13:56,-115.1634,36.0719,663.00,84.00,39.00,20.27,180.00,9.00,0.00,29.88,1008.80,10.00,17.00,FEW,BKN,M,M,12000.00,15000.00,M,M,M,M,M,M,M,M,M,81.29,KLAS 091356Z 18009G17KT 10SM FEW120 BKN150 29/04 A2988 RMK AO2 SLP088 T02890039,M
BVU,2023-08-09 14:15,-114.8611,35.9475,671.00,86.00,32.00,14.40,130.00,6.00,0.00,29.90,M,10.00,M,CLR,M,M,M,M,M,M,M,M,M,M,M,M,M,M,82.64,KBVU 091415Z AUTO 13006KT 10SM CLR 30/00 A2990 RMK AO2,M
CXP,2023-08-09 14:15,-119.7326,39.1923,1431.00,59.00,42.80,54.86,0.00,0.00,0.00,30.11,M,10.00,M,CLR,M,M,M,M,M,M,M,M,M,M,M,M,M,M,59.00,KCXP 091415Z AUTO 00000KT 10SM CLR 15/06 A3011 RMK AO2,M
RTS,2023-08-09 14:15,-119.8764,39.6682,1539.00,59.00,42.80,54.86,0.00,0.00,0.00,30.12,M,10.00,M,CLR,M,M,M,M,M,M,M,M,M,M,M,M,M,M,59.00,KRTS 091415Z AUTO 00000KT 10SM CLR 15/06 A3012 RMK AO2,M
05U,2023-08-09 14:15,-116.0051,39.6042,1811.23,59.00,35.60,41.42,M,M,0.00,30.17,M,10.00,M,M,M,M,M,M,M,M,M,M,M,M,M,M,M,M,59.00,K05U 091415Z AUTO 10SM 15/02 A3017 RMK A01,M
MEV,2023-08-09 14:15,-119.7500,38.9963,1441.42,51.80,41.00,66.48,0.00,0.00,0.00,30.10,M,6.00,M,CLR,M,M,M,M,M,M,M,HZ,M,M,M,M,M,M,51.80,KMEV 091415Z AUTO 00000KT 6SM HZ CLR 11/05 A3010 RMK AO2,M
HTH,2023-08-09 14:15,-118.6315,38.5448,1282.89,69.80,46.40,43.13,0.00,0.00,0.00,30.06,M,10.00,M,CLR,M,M,M,M,M,M,M,M,M,M,M,M,M,M,69.80,KHTH 091415Z AUTO 00000KT 10SM CLR 21/08 A3006 RMK A01,M
10U,2023-08-09 14:15,-116.1876,41.9532,1637.00,62.60,41.00,45.04,120.00,10.00,0.00,30.10,M,10.00,15.00,CLR,M,M,M,M,M,M,M,M,M,M,M,M,M,M,62.60,K10U 091415Z AUTO 12010G15KT 10SM CLR 17/05 A3010 RMK AO2,M
BAM,2023-08-09 14:15,-116.8743,40.5990,1382.36,60.80,37.40,41.71,0.00,0.00,0.00,30.08,M,10.00,M,CLR,M,M,M,M,M,M,M,M,M,M,M,M,M,M,60.80,KBAM 091415Z AUTO 00000KT 10SM CLR 16/03 A3008 RMK AO1,M
TMT,2023-08-09 14:15,-117.1971,39.4643,1749.34,47.70,30.60,51.29,0.00,0.00,0.00,30.16,M,M,M,CLR,M,M,M,M,M,M,M,M,M,M,M,M,M,M,47.70,KTMT 091415Z AUTO 00000KT CLR 09/M01 A3016 RMK AO2 T00871008 PWINO,M
BVU,2023-08-09 14:35,-114.8611,35.9475,671.00,86.00,32.00,14.40,130.00,4.00,0.00,29.91,M,10.00,M,CLR,M,M,M,M,M,M,M,M,M,M,M,M,M,M,82.64,KBVU 091435Z AUTO 13004KT 10SM CLR 30/M00 A2991 RMK AO2,M
CXP,2023-08-09 14:35,-119.7326,39.1923,1431.00,60.80,42.80,51.45,0.00,0.00,0.00,30.11,M,10.00,M,CLR,M,M,M,M,M,M,M,M,M,M,M,M,M,M,60.80,KCXP 091435Z AUTO 00000KT 10SM CLR 16/06 A3011 RMK AO2,M
RTS,2023-08-09 14:35,-119.8764,39.6682,1539.00,62.60,42.80,48.28,0.00,0.00,0.00,30.12,M,10.00,M,CLR,M,M,M,M,M,M,M,M,M,M,M,M,M,M,62.60,KRTS 091435Z AUTO 00000KT 10SM CLR 17/06 A3012 RMK AO2,M
05U,2023-08-09 14:35,-116.0051,39.6042,1811.23,62.60,35.60,36.45,M,M,0.00,30.17,M,10.00,M,M,M,M,M,M,M,M,M,M,M,M,M,M,M,M,62.60,K05U 091435Z AUTO 10SM 17/02 A3017 RMK A01,M
MEV,2023-08-09 14:35,-119.7500,38.9963,1441.42,57.20,41.00,54.60,0.00,0.00,0.00,30.10,M,8.00,M,CLR,M,M,M,M,M,M,M,M,M,M,M,M,M,M,57.20,KMEV 091435Z AUTO 00000KT 8SM CLR 14/05 A3010 RMK AO2,M
BAM,2023-08-09 14:35,-116.8743,40.5990,1382.36,64.40,37.40,36.74,0.00,0.00,0.00,30.07,M,10.00,M,CLR,M,M,M,M,M,M,M,M,M,M,M,M,M,M,64.40,KBAM 091435Z AUTO 00000KT 10SM CLR 18/03 A3007 RMK AO1,M
HTH,2023-08-09 14:35,-118.6315,38.5448,1282.89,71.60,44.60,37.89,0.00,0.00,0.00,30.06,M,10.00,M,CLR,M,M,M,M,M,M,M,M,M,M,M,M,M,M,71.60,KHTH 091435Z AUTO 00000KT 10SM CLR 22/07 A3006 RMK A01,M
10U,2023-08-09 14:35,-116.1876,41.9532,1637.00,66.20,41.00,39.72,120.00,10.00,0.00,30.10,M,10.00,M,CLR,M,M,M,M,M,M,M,M,M,M,M,M,M,M,66.20,K10U 091435Z AUTO 12010KT 10SM CLR 19/05 A3010 RMK AO2,M
TMT,2023-08-09 14:35,-117.1971,39.4643,1749.34,51.60,31.50,46.00,0.00,0.00,0.00,30.16,M,M,M,CLR,M,M,M,M,M,M,M,M,M,M,M,M,M,M,51.60,KTMT 091435Z AUTO 00000KT CLR 11/00 A3016 RMK AO2 T01091003 PWINO,M
05U,2023-08-09 14:50,-116.0051,39.6042,1811.23,64.40,37.40,36.74,M,M,0.00,30.17,M,10.00,M,M,M,M,M,M,M,M,M,M,M,M,M,M,M,M,64.40,K05U 091450Z AUTO 10SM 18/03 A3017 RMK A01,M
P68,2023-08-09 14:53,-116.0056,39.6014,1993.00,63.00,37.00,37.99,0.00,0.00,0.00,30.14,1012.40,M,M,M,M,M,M,M,M,M,M,M,M,M,M,M,M,M,63.00,KP68 091453Z AUTO 00000KT 17/03 A3014 RMK AO1 SLP124 T01720028 50001,M
DRA,2023-08-09 14:53,-116.0278,36.6206,1009.00,80.00,32.00,17.48,0.00,0.00,0.00,29.98,1009.90,10.00,M,CLR,M,M,M,M,M,M,M,M,M,M,M,M,M,M,78.52,KDRA 091453Z AUTO 00000KT 10SM CLR 27/00 A2998 RMK AO2 SLP099 T02670000 53016,M
ELY,2023-08-09 14:53,-114.8453,39.2950,1909.00,58.00,41.00,53.05,180.00,5.00,0.00,30.20,1013.30,10.00,M,CLR,M,M,M,M,M,M,M,M,M,M,M,M,M,M,58.00,KELY 091453Z AUTO 18005KT 10SM CLR 14/05 A3020 RMK AO2 SLP133 T01440050 50003,M
VGT,2023-08-09 14:53,-115.1933,36.2111,667.00,85.00,34.00,16.11,30.00,6.00,0.00,29.91,1011.20,10.00,M,CLR,M,M,M,M,M,M,M,M,M,M,M,M,M,M,81.90,KVGT 091453Z 03006KT 10SM CLR 29/01 A2991 RMK AO2 SLP112 T02940011 53017 $,M
LOL,2023-08-09 14:53,-118.5701,40.0684,1192.43,66.00,40.00,38.47,0.00,0.00,0.00,30.03,1013.00,10.00,M,CLR,M,M,M,M,M,M,M,M,M,M,M,M,M,M,66.00,KLOL 091453Z AUTO 00000KT 10SM CLR 19/04 A3003 RMK AO2 SLP130 T01890044 51008,M
BVU,2023-08-09 14:55,-114.8611,35.9475,671.00,87.80,30.20,12.64,0.00,0.00,0.00,29.91,M,10.00,M,CLR,M,M,M,M,M,M,M,M,M,M,M,M,M,M,84.01,KBVU 091455Z AUTO 00000KT 10SM CLR 31/M01 A2991 RMK AO2,M
CXP,2023-08-09 14:55,-119.7326,39.1923,1431.00,62.60,41.00,45.04,0.00,0.00,0.00,30.11,M,6.00,M,CLR,M,M,M,M,M,M,M,HZ,M,M,M,M,M,M,62.60,KCXP 091455Z AUTO 00000KT 6SM HZ CLR 17/05 A3011 RMK AO2,M
RNO,2023-08-09 14:55,-119.7711,39.4839,1341.00,65.00,42.00,43.04,0.00,0.00,0.00,30.08,1013.30,10.00,M,FEW,M,M,M,20000.00,M,M,M,M,M,M,M,M,M,M,65.00,KRNO 091455Z 00000KT 10SM FEW200 18/06 A3008 RMK AO2 SLP133 T01830056 51007,M
RTS,2023-08-09 14:55,-119.8764,39.6682,1539.00,64.40,41.00,42.28,0.00,0.00,0.00,30.12,M,10.00,M,CLR,M,M,M,M,M,M,M,M,M,M,M,M,M,M,64.40,KRTS 091455Z AUTO 00000KT 10SM CLR 18/05 A3012 RMK AO2,M
MEV,2023-08-09 14:55,-119.7500,38.9963,1441.42,60.80,42.80,51.45,0.00,0.00,0.00,30.10,M,9.00,M,CLR,M,M,M,M,M,M,M,M,M,M,M,M,M,M,60.80,KMEV 091455Z AUTO 00000KT 9SM CLR 16/06 A3010 RMK AO2,M
HTH,2023-08-09 14:55,-118.6315,38.5448,1282.89,71.60,44.60,37.89,0.00,0.00,0.00,30.06,M,10.00,M,CLR,M,M,M,M,M,M,M,M,M,M,M,M,M,M,71.60,KHTH 091455Z AUTO 00000KT 10SM CLR 22/07 A3006 RMK A01,M
BAM,2023-08-09 14:55,-116.8743,40.5990,1382.36,66.20,41.00,39.72,0.00,0.00,0.00,30.08,M,10.00,M,CLR,M,M,M,M,M,M,M,M,M,M,M,M,M,M,66.20,KBAM 091455Z AUTO 00000KT 10SM CLR 19/05 A3008 RMK AO1,M
TMT,2023-08-09 14:55,-117.1971,39.4643,1749.34,55.00,32.00,41.44,0.00,0.00,0.00,30.15,M,M,M,CLR,M,M,M,M,M,M,M,M,M,M,M,M,M,M,55.00,KTMT 091455Z AUTO 00000KT CLR 13/00 A3015 RMK AO2 T01280000 PWINO,M
10U,2023-08-09 14:55,-116.1876,41.9532,1637.00,66.20,41.00,39.72,120.00,11.00,0.00,30.10,M,10.00,M,CLR,M,M,M,M,M,M,M,M,M,M,M,M,M,M,66.20,K10U 091455Z AUTO 12011KT 10SM CLR 19/05 A3010 RMK AO2,M
INS,2023-08-09 14:55,-115.6733,36.5872,955.00,76.30,15.60,9.94,0.00,0.00,0.00,29.97,1009.70,10.00,M,CLR,M,M,M,M,M,M,M,M,M,M,M,M,M,M,76.30,KINS 091455Z AUTO 00000KT 10SM CLR 25/M09 A2997 RMK AO2 SLP097 T02461091 52018 $,M
LSV,2023-08-09 14:55,-115.0343,36.2362,570.00,86.00,37.40,17.85,0.00,0.00,0.00,29.87,1008.60,10.00,M,SCT,M,M,M,14000.00,M,M,M,M,M,M,M,M,M,M,82.73,KLSV 091455Z AUTO 00000KT 10SM SCT140 30/03 A2987 RMK AO2 SLP086 T02990030 52019 $,M
EKO,2023-08-09 14:56,-115.7860,40.8242,1367.00,61.00,40.00,45.85,60.00,4.00,0.00,30.12,1015.10,10.00,M,CLR,M,M,M,M,M,M,M,M,M,M,M,M,M,M,61.00,KEKO 091456Z AUTO 06004KT 10SM CLR 16/04 A3012 RMK AO2 SLP151 T01610044 51006,M
WMC,2023-08-09 14:56,-117.8072,40.9019,1315.00,67.00,38.00,34.37,0.00,0.00,0.00,30.05,1012.70,10.00,M,CLR,M,M,M,M,M,M,M,M,M,M,M,M,M,M,67.00,KWMC 091456Z AUTO 00000KT 10SM CLR 19/03 A3005 RMK AO2 SLP127 T01940033 51008,M
NFL,2023-08-09 14:56,-118.7010,39.4166,1199.00,73.00,43.00,34.00,320.00,4.00,0.00,30.03,1013.90,10.00,M,FEW,FEW,M,M,15000.00,22000.00,M,M,M,M,M,M,M,M,M,73.00,KNFL 091456Z 32004KT 10SM FEW150 FEW220 23/06 A3003 RMK AO2 SLP139 T02280061 51008,M
HND,2023-08-09 14:56,-115.1344,35.9729,742.79,86.00,37.00,17.57,190.00,11.00,0.00,29.95,1012.30,10.00,M,CLR,M,M,M,M,M,M,M,M,M,M,M,M,M,M,82.72,KHND 091456Z 19011KT 10SM CLR 30/03 A2995 RMK AO2 SLP123 T03000028 53015,M
TPH,2023-08-09 14:56,-117.0904,38.0505,1654.00,69.00,28.00,21.48,0.00,0.00,0.00,30.12,1011.70,10.00,M,CLR,M,M,M,M,M,M,M,M,M,M,M,M,M,M,69.00,KTPH 091456Z AUTO 00000KT 10SM CLR 21/M02 A3012 RMK AO2 SLP117 T02061022 53009 $,M
LAS,2023-08-09 14:56,-115.1634,36.0719,663.00,86.00,39.00,19.01,170.00,8.00,0.00,29.91,1009.60,10.00,M,FEW,BKN,M,M,11000.00,15000.00,M,M,M,M,M,M,M,M,M,82.78,KLAS 091456Z 17008KT 10SM FEW110 BKN150 30/04 A2991 RMK AO2 SLP096 T03000039 53020,M
05U,2023-08-09 15:10,-116.0051,39.6042,1811.23,68.00,37.40,32.43,M,M,0.00,30.17,M,10.00,M,M,M,M,M,M,M,M,M,M,M,M,M,M,M,M,68.00,K05U 091510Z AUTO 10SM 20/03 A3017 RMK A01,M
BVU,2023-08-09 15:15,-114.8611,35.9475,671.00,89.60,30.20,11.94,0.00,0.00,0.00,29.91,M,10.00,M,CLR,M,M,M,M,M,M,M,M,M,M,M,M,M,M,85.34,KBVU 091515Z AUTO 00000KT 10SM CLR 32/M01 A2991 RMK AO2,M
CXP,2023-08-09 15:15,-119.7326,39.1923,1431.00,64.40,41.00,42.28,0.00,0.00,0.00,30.11,M,3.00,M,CLR,M,M,M,M,M,M,M,HZ,M,M,M,M,M,M,64.40,KCXP 091515Z AUTO 00000KT 3SM HZ CLR 18/05 A3011 RMK AO2,M
RTS,2023-08-09 15:15,-119.8764,39.6682,1539.00,66.20,39.20,37.03,0.00,0.00,0.00,30.12,M,10.00,M,CLR,M,M,M,M,M,M,M,M,M,M,M,M,M,M,66.20,KRTS 091515Z AUTO 00000KT 10SM CLR 19/04 A3012 RMK AO2,M
MEV,2023-08-09 15:15,-119.7500,38.9963,1441.42,62.60,42.80,48.28,0.00,0.00,0.00,30.10,M,10.00,M,CLR,M,M,M,M,M,M,M,M,M,M,M,M,M,M,62.60,KMEV 091515Z AUTO 00000KT 10SM CLR 17/06 A3010 RMK AO2,M
HTH,2023-08-09 15:15,-118.6315,38.5448,1282.89,73.40,44.60,35.66,0.00,0.00,0.00,30.06,M,10.00,M,CLR,M,M,M,M,M,M,M,M,M,M,M,M,M,M,73.40,KHTH 091515Z AUTO 00000KT 10SM CLR 23/07 A3006 RMK A01,M
10U,2023-08-09 15:15,-116.1876,41.9532,1637.00,69.80,41.00,35.09,120.00,10.00,0.00,30.10,M,10.00,M,CLR,M,M,M,M,M,M,M,M,M,M,M,M,M,M,69.80,K10U 091515Z AUTO 12010KT 10SM CLR 21/05 A3010 RMK AO2,M
BAM,2023-08-09 15:15,-116.8743,40.5990,1382.36,69.80,42.80,37.61,0.00,0.00,0.00,30.07,M,10.00,M,CLR,M,M,M,M,M,M,M,M,M,M,M,M,M,M,69.80,KBAM 091515Z AUTO 00000KT 10SM CLR 21/06 A3007 RMK AO1,M
TMT,2023-08-09 15:15,-117.1971,39.4643,1749.34,58.60,33.30,38.34,0.00,0.00,0.00,30.15,M,M,M,CLR,M,M,M,M,M,M,M,M,M,M,M,M,M,M,58.60,KTMT 091515Z AUTO 00000KT CLR 15/01 A3015 RMK AO2 T01480007 PWINO,M
BVU,2023-08-09 15:35,-114.8611,35.9475,671.00,89.60,30.20,11.94,0.00,0.00,0.00,29.91,M,10.00,M,CLR,M,M,M,M,M,M,M,M,M,M,M,M,M,M,85.34,KBVU 091535Z AUTO 00000KT 10SM CLR 32/M01 A2991 RMK AO2,M
CXP,2023-08-09 15:35,-119.7326,39.1923,1431.00,66.20,39.20,37.03,0.00,0.00,0.00,30.11,M,9.00,M,CLR,M,M,M,M,M,M,M,M,M,M,M,M,M,M,66.20,KCXP 091535Z AUTO 00000KT 9SM CLR 19/04 A3011 RMK AO2,M
RTS,2023-08-09 15:35,-119.8764,39.6682,1539.00,68.00,39.20,34.80,0.00,0.00,0.00,30.12,M,10.00,M,CLR,M,M,M,M,M,M,M,M,M,M,M,M,M,M,68.00,KRTS 091535Z AUTO 00000KT 10SM CLR 20/04 A3012 RMK AO2,M
05U,2023-08-09 15:35,-116.0051,39.6042,1811.23,71.60,35.60,26.71,M,M,0.00,30.16,M,10.00,M,M,M,M,M,M,M,M,M,M,M,M,M,M,M,M,71.60,K05U 091535Z AUTO 10SM 22/02 A3016 RMK A01,M
MEV,2023-08-09 15:35,-119.7500,38.9963,1441.42,64.40,42.80,45.32,0.00,0.00,0.00,30.09,M,10.00,M,CLR,M,M,M,M,M,M,M,M,M,M,M,M,M,M,64.40,KMEV 091535Z AUTO 00000KT 10SM CLR 18/06 A3009 RMK AO2,M
HTH,2023-08-09 15:35,-118.6315,38.5448,1282.89,73.40,44.60,35.66,0.00,0.00,0.00,30.06,M,10.00,M,CLR,M,M,M,M,M,M,M,M,M,M,M,M,M,M,73.40,KHTH 091535Z AUTO 00000KT 10SM CLR 23/07 A3006 RMK A01,M
10U,2023-08-09 15:35,-116.1876,41.9532,1637.00,71.60,41.00,33.00,120.00,10.00,0.00,30.09,M,10.00,M,CLR,M,M,M,M,M,M,M,M,M,M,M,M,M,M,71.60,K10U 091535Z AUTO 12010KT 10SM CLR 22/05 A3009 RMK AO2,M
BAM,2023-08-09 15:35,-116.8743,40.5990,1382.36,73.40,41.00,31.05,70.00,5.00,0.00,30.07,M,10.00,M,CLR,M,M,M,M,M,M,M,M,M,M,M,M,M,M,73.40,KBAM 091535Z AUTO 07005KT 10SM CLR 23/05 A3007 RMK AO1,M
TMT,2023-08-09 15:35,-117.1971,39.4643,1749.34,62.00,33.80,34.66,0.00,0.00,0.00,30.15,M,M,M,CLR,M,M,M,M,M,M,M,M,M,M,M,M,M,M,62.00,KTMT 091535Z AUTO 00000KT CLR 17/01 A3015 RMK AO2 T01670010 PWINO,M
P68,2023-08-09 15:53,-116.0056,39.6014,1993.00,70.00,37.00,29.81,0.00,0.00,0.00,30.13,1012.30,M,M,M,M,M,M,M,M,M,M,M,M,M,M,M,M,M,70.00,KP68 091553Z AUTO 00000KT 21/03 A3013 RMK AO1 SLP123 T02110028,M
DRA,2023-08-09 15:53,-116.0278,36.6206,1009.00,82.00,35.00,18.47,0.00,0.00,0.00,29.98,1009.70,10.00,M,CLR,M,M,M,M,M,M,M,M,M,M,M,M,M,M,79.80,KDRA 091553Z AUTO 00000KT 10SM CLR 28/02 A2998 RMK AO2 SLP097 T02780017,M
ELY,2023-08-09 15:53,-114.8453,39.2950,1909.00,66.00,41.00,39.99,0.00,0.00,0.00,30.18,1012.40,10.00,M,CLR,M,M,M,M,M,M,M,M,M,M,M,M,M,M,66.00,KELY 091553Z AUTO 00000KT 10SM CLR 19/05 A3018 RMK AO2 SLP124 T01890050,M
VGT,2023-08-09 15:53,-115.1933,36.2111,667.00,90.00,38.00,16.10,170.00,11.00,0.00,29.91,1011.10,10.00,M,CLR,M,M,M,M,M,M,M,M,M,M,M,M,M,M,86.03,KVGT 091553Z AUTO 17011KT 10SM CLR 32/03 A2991 RMK AO2 SLP111 T03220033,M
LOL,2023-08-09 15:53,-118.5701,40.0684,1192.43,74.00,43.00,32.87,0.00,0.00,0.00,30.02,1012.40,10.00,M,CLR,M,M,M,M,M,M,M,M,M,M,M,M,M,M,74.00,KLOL 091553Z AUTO 00000KT 10SM CLR 23/06 A3002 RMK AO2 SLP124 T02330061,M
BVU,2023-08-09 15:55,-114.8611,35.9475,671.00,89.60,30.20,11.94,290.00,4.00,0.00,29.91,M,10.00,M,CLR,M,M,M,M,M,M,M,VCTS,M,M,M,M,M,M,85.34,KBVU 091555Z AUTO 29004KT 10SM VCTS CLR 32/M01 A2991 RMK AO2 LTG DSNT E,M
CXP,2023-08-09 15:55,-119.7326,39.1923,1431.00,68.00,37.40,32.43,0.00,0.00,0.00,30.10,M,10.00,M,CLR,M,M,M,M,M,M,M,M,M,M,M,M,M,M,68.00,KCXP 091555Z AUTO 00000KT 10SM CLR 20/03 A3010 RMK AO2,M
RNO,2023-08-09 15:55,-119.7711,39.4839,1341.00,71.00,42.00,35.01,0.00,0.00,0.00,30.08,1012.70,10.00,M,FEW,M,M,M,20000.00,M,M,M,M,M,M,M,M,M,M,71.00,KRNO 091555Z 00000KT 10SM FEW200 22/06 A3008 RMK AO2 SLP127 T02170056,M
RTS,2023-08-09 15:55,-119.8764,39.6682,1539.00,68.00,39.20,34.80,0.00,0.00,0.00,30.12,M,10.00,M,CLR,M,M,M,M,M,M,M,M,M,M,M,M,M,M,68.00,KRTS 091555Z AUTO 00000KT 10SM CLR 20/04 A3012 RMK AO2,M
05U,2023-08-09 15:55,-116.0051,39.6042,1811.23,73.40,35.60,25.13,M,M,0.00,30.16,M,10.00,M,M,M,M,M,M,M,M,M,M,M,M,M,M,M,M,73.40,K05U 091555Z AUTO 10SM 23/02 A3016 RMK A01,M
MEV,2023-08-09 15:55,-119.7500,38.9963,1441.42,66.20,42.80,42.57,0.00,0.00,0.00,30.09,M,10.00,M,CLR,M,M,M,M,M,M,M,M,M,M,M,M,M,M,66.20,KMEV 091555Z AUTO 00000KT 10SM CLR 19/06 A3009 RMK AO2,M
HTH,2023-08-09 15:55,-118.6315,38.5448,1282.89,75.20,42.80,31.34,40.00,3.00,0.00,30.06,M,10.00,M,CLR,M,M,M,M,M,M,M,M,M,M,M,M,M,M,75.20,KHTH 091555Z AUTO 04003KT 10SM CLR 24/06 A3006 RMK A01,M
BAM,2023-08-09 15:55,-116.8743,40.5990,1382.36,73.40,39.20,28.96,50.00,4.00,0.00,30.06,M,10.00,M,CLR,M,M,M,M,M,M,M,M,M,M,M,M,M,M,73.40,KBAM 091555Z AUTO 05004KT 10SM CLR 23/04 A3006 RMK AO1,M
TMT,2023-08-09 15:55,-117.1971,39.4643,1749.34,66.40,35.00,31.17,0.00,0.00,0.00,30.14,M,M,M,CLR,M,M,M,M,M,M,M,M,M,M,M,M,M,M,66.40,KTMT 091555Z AUTO 00000KT CLR 19/02 A3014 RMK AO2 T01910017 PWINO,M
10U,2023-08-09 15:55,-116.1876,41.9532,1637.00,73.40,41.00,31.05,100.00,6.00,0.00,30.09,M,10.00,12.00,CLR,M,M,M,M,M,M,M,M,M,M,M,M,M,M,73.40,K10U 091555Z AUTO 10006G12KT 10SM CLR 23/05 A3009 RMK AO2,M
INS,2023-08-09 15:55,-115.6733,36.5872,955.00,84.00,21.40,9.91,0.00,0.00,0.00,29.96,1009.10,10.00,M,CLR,M,M,M,M,M,M,M,M,M,M,M,M,M,M,80.65,KINS 091555Z AUTO 00000KT 10SM CLR 29/M06 A2996 RMK AO2 SLP091 T02881059 $,M
LSV,2023-08-09 15:55,-115.0343,36.2362,570.00,88.30,38.00,16.99,0.00,0.00,0.00,29.87,1008.70,10.00,M,BKN,M,M,M,13000.00,M,M,M,M,M,M,M,M,M,M,84.59,KLSV 091555Z AUTO 00000KT 10SM BKN130 31/03 A2987 RMK AO2 SLP087 T03130033 $,M
EKO,2023-08-09 15:56,-115.7860,40.8242,1367.00,68.00,41.00,37.32,0.00,0.00,0.00,30.10,1014.00,10.00,M,CLR,M,M,M,M,M,M,M,M,M,M,M,M,M,M,68.00,KEKO 091556Z AUTO 00000KT 10SM CLR 20/05 A3010 RMK AO2 SLP140 T02000050,M
WMC,2023-08-09 15:56,-117.8072,40.9019,1315.00,77.00,35.00,21.76,10.00,4.00,0.00,30.04,1012.20,10.00,M,CLR,M,M,M,M,M,M,M,M,M,M,M,M,M,M,77.00,KWMC 091556Z AUTO 01004KT 10SM CLR 25/02 A3004 RMK AO2 SLP122 T02500017,M
HND,2023-08-09 15:56,-115.1344,35.9729,742.79,86.00,40.00,19.76,220.00,11.00,T,29.95,1012.60,10.00,M,CLR,M,M,M,M,M,M,M,M,M,M,M,M,M,M,82.82,KHND 091556Z 22011KT 10SM CLR 30/04 A2995 RMK AO2 RAB35E48 SLP126 P0000 T03000044,M
TPH,2023-08-09 15:56,-117.0904,38.0505,1654.00,73.00,31.00,21.18,160.00,4.00,0.00,30.12,1012.00,10.00,M,CLR,M,M,M,M,M,M,M,M,M,M,M,M,M,M,73.00,KTPH 091556Z AUTO 16004KT 10SM CLR 23/M01 A3012 RMK AO2 SLP120 T02281006 $,M
LAS,2023-08-09 15:56,-115.1634,36.0719,663.00,88.00,38.00,17.15,200.00,6.00,0.00,29.91,1009.70,10.00,M,FEW,BKN,M,M,11000.00,15000.00,M,M,M,M,M,M,M,M,M,84.35,KLAS 091556Z 20006KT 10SM FEW110 BKN150 31/03 A2991 RMK AO2 SLP097 T03110033,M
NFL,2023-08-09 15:56,-118.7010,39.4166,1199.00,76.00,40.00,27.38,0.00,0.00,0.00,30.03,1013.70,10.00,M,SCT,SCT,M,M,18000.00,22000.00,M,M,M,M,M,M,M,M,M,76.00,KNFL 091556Z COR 00000KT 10SM SCT180 SCT220 24/04 A3003 RMK SLP137 T02440044,M
05U,2023-08-09 16:10,-116.0051,39.6042,1811.23,75.20,37.40,25.40,M,M,0.00,30.16,M,10.00,M,M,M,M,M,M,M,M,M,M,M,M,M,M,M,M,75.20,K05U 091610Z AUTO 10SM 24/03 A3016 RMK A01,M
BVU,2023-08-09 16:15,-114.8611,35.9475,671.00,89.60,28.40,11.09,280.00,4.00,0.00,29.91,M,10.00,M,CLR,M,M,M,M,M,M,M,M,M,M,M,M,M,M,85.17,KBVU 091615Z AUTO 28004KT 10SM CLR 32/M02 A2991 RMK AO2,M
CXP,2023-08-09 16:15,-119.7326,39.1923,1431.00,71.60,37.40,28.68,0.00,0.00,0.00,30.10,M,10.00,M,CLR,M,M,M,M,M,M,M,M,M,M,M,M,M,M,71.60,KCXP 091615Z AUTO 00000KT 10SM CLR 22/03 A3010 RMK AO2,M
RTS,2023-08-09 16:15,-119.8764,39.6682,1539.00,69.80,37.40,30.49,130.00,4.00,0.00,30.11,M,10.00,M,CLR,M,M,M,M,M,M,M,M,M,M,M,M,M,M,69.80,KRTS 091615Z AUTO 13004KT 10SM CLR 21/03 A3011 RMK AO2,M
MEV,2023-08-09 16:15,-119.7500,38.9963,1441.42,68.00,42.80,40.00,M,3.00,0.00,30.09,M,10.00,M,CLR,M,M,M,M,M,M,M,M,M,M,M,M,M,M,68.00,KMEV 091615Z AUTO VRB03KT 10SM CLR 20/06 A3009 RMK AO2,M
HTH,2023-08-09 16:15,-118.6315,38.5448,1282.89,77.00,42.80,29.51,290.00,4.00,0.00,30.06,M,10.00,M,CLR,M,M,M,M,M,M,M,M,M,M,M,M,M,M,77.00,KHTH 091615Z AUTO 29004KT 10SM CLR 25/06 A3006 RMK A01,M
10U,2023-08-09 16:15,-116.1876,41.9532,1637.00,75.20,41.00,29.23,M,4.00,0.00,30.09,M,10.00,M,CLR,M,M,M,M,M,M,M,M,M,M,M,M,M,M,75.20,K10U 091615Z AUTO VRB04KT 10SM CLR 24/05 A3009 RMK AO2,M
BAM,2023-08-09 16:15,-116.8743,40.5990,1382.36,77.00,42.80,29.51,20.00,6.00,0.00,30.06,M,10.00,M,CLR,M,M,M,M,M,M,M,M,M,M,M,M,M,M,77.00,KBAM 091615Z AUTO 02006KT 10SM CLR 25/06 A3006 RMK AO1,M
TMT,2023-08-09 16:15,-117.1971,39.4643,1749.34,68.00,35.00,29.49,0.00,0.00,0.00,30.13,M,M,M,CLR,M,M,M,M,M,M,M,M,M,M,M,M,M,M,68.00,KTMT 091615Z AUTO 00000KT CLR 20/02 A3013 RMK AO2 T02010017 PWINO,M
05U,2023-08-09 16:35,-116.0051,39.6042,1811.23,78.80,37.40,22.54,M,M,0.00,30.15,M,10.00,M,M,M,M,M,M,M,M,M,M,M,M,M,M,M,M,78.80,K05U 091635Z AUTO 10SM 26/03 A3015 RMK A01,M
BVU,2023-08-09 16:35,-114.8611,35.9475,671.00,91.40,28.40,10.48,0.00,0.00,0.00,29.91,M,10.00,M,FEW,M,M,M,12000.00,M,M,M,M,M,M,M,M,M,M,86.53,KBVU 091635Z AUTO 00000KT 10SM FEW120 33/M02 A2991 RMK AO2,M
CXP,2023-08-09 16:35,-119.7326,39.1923,1431.00,73.40,35.60,25.13,0.00,0.00,0.00,30.09,M,10.00,M,CLR,M,M,M,M,M,M,M,M,M,M,M,M,M,M,73.40,KCXP 091635Z AUTO 00000KT 10SM CLR 23/02 A3009 RMK AO2,M
RTS,2023-08-09 16:35,-119.8764,39.6682,1539.00,71.60,35.60,26.71,M,4.00,0.00,30.11,M,10.00,M,CLR,M,M,M,M,M,M,M,M,M,M,M,M,M,M,71.60,KRTS 091635Z AUTO VRB04KT 10SM CLR 22/02 A3011 RMK AO2,M
MEV,2023-08-09 16:35,-119.7500,38.9963,1441.42,71.60,33.80,24.86,0.00,0.00,0.00,30.08,M,10.00,M,CLR,M,M,M,M,M,M,M,M,M,M,M,M,M,M,71.60,KMEV 091635Z AUTO 00000KT 10SM CLR 22/01 A3008 RMK AO2,M
HTH,2023-08-09 16:35,-118.6315,38.5448,1282.89,77.00,41.00,27.53,0.00,0.00,0.00,30.05,M,10.00,M,CLR,M,M,M,M,M,M,M,M,M,M,M,M,M,M,77.00,KHTH 091635Z AUTO 00000KT 10SM CLR 25/05 A3005 RMK A01,M
10U,2023-08-09 16:35,-116.1876,41.9532,1637.00,77.00,41.00,27.53,220.00,7.00,0.00,30.08,M,10.00,M,CLR,M,M,M,M,M,M,M,M,M,M,M,M,M,M,77.00,K10U 091635Z AUTO 22007KT 10SM CLR 25/05 A3008 RMK AO2,M
BAM,2023-08-09 16:35,-116.8743,40.5990,1382.36,78.80,41.00,25.95,30.00,4.00,0.00,30.05,M,10.00,M,CLR,M,M,M,M,M,M,M,M,M,M,M,M,M,M,78.80,KBAM 091635Z AUTO 03004KT 10SM CLR 26/05 A3005 RMK AO1,M
TMT,2023-08-09 16:35,-117.1971,39.4643,1749.34,70.00,35.80,28.43,0.00,0.00,0.00,30.12,M,M,M,CLR,M,M,M,M,M,M,M,M,M,M,M,M,M,M,70.00,KTMT 091635Z AUTO 00000KT CLR 21/02 A3012 RMK AO2 T02120021 PWINO,M
P68,2023-08-09 16:53,-116.0056,39.6014,1993.00,77.00,37.00,23.55,M,4.00,0.00,30.12,1011.30,M,M,M,M,M,M,M,M,M,M,M,M,M,M,M,M,M,77.00,KP68 091653Z AUTO VRB04KT 25/03 A3012 RMK AO1 SLP113 T02500028,M
DRA,2023-08-09 16:53,-116.0278,36.6206,1009.00,87.00,37.00,17.02,210.00,8.00,0.00,29.98,1009.50,10.00,M,CLR,M,M,M,M,M,M,M,M,M,M,M,M,M,M,83.51,KDRA 091653Z AUTO 21008KT 10SM CLR 31/03 A2998 RMK AO2 SLP095 T03060028,M
ELY,2023-08-09 16:53,-114.8453,39.2950,1909.00,70.00,40.00,33.52,160.00,3.00,0.00,30.17,1011.90,10.00,M,CLR,M,M,M,M,M,M,M,M,M,M,M,M,M,M,70.00,KELY 091653Z AUTO 16003KT 10SM CLR 21/04 A3017 RMK AO2 SLP119 T02110044,M
VGT,2023-08-09 16:53,-115.1933,36.2111,667.00,92.00,39.00,15.73,210.00,5.00,0.00,29.90,1010.90,10.00,M,CLR,M,M,M,M,M,M,M,M,M,M,M,M,M,M,87.83,KVGT 091653Z 21005KT 10SM CLR 33/04 A2990 RMK AO2 SLP109 T03330039,M
LOL,2023-08-09 16:53,-118.5701,40.0684,1192.43,79.00,39.00,23.85,140.00,4.00,0.00,30.01,1012.10,10.00,M,CLR,M,M,M,M,M,M,M,M,M,M,M,M,M,M,79.00,KLOL 091653Z AUTO 14004KT 10SM CLR 26/04 A3001 RMK AO2 SLP121 T02610039,M
BVU,2023-08-09 16:55,-114.8611,35.9475,671.00,93.20,32.00,11.48,M,4.00,0.00,29.91,M,10.00,M,FEW,M,M,M,12000.00,M,M,M,M,M,M,M,M,M,M,88.31,KBVU 091655Z AUTO VRB04KT 10SM FEW120 34/00 A2991 RMK AO2,M
CXP,2023-08-09 16:55,-119.7326,39.1923,1431.00,73.40,33.80,23.39,0.00,0.00,0.00,30.09,M,10.00,M,CLR,M,M,M,M,M,M,M,M,M,M,M,M,M,M,73.40,KCXP 091655Z AUTO 00000KT 10SM CLR 23/01 A3009 RMK AO2,M
RNO,2023-08-09 16:55,-119.7711,39.4839,1341.00,75.00,41.00,29.43,M,3.00,0.00,30.06,1012.30,10.00,M,FEW,M,M,M,20000.00,M,M,M,M,M,M,M,M,M,M,75.00,KRNO 091655Z VRB03KT 10SM FEW200 24/05 A3006 RMK AO2 SLP123 T02390050,M
RTS,2023-08-09 16:55,-119.8764,39.6682,1539.00,71.60,33.80,24.86,140.00,5.00,0.00,30.11,M,10.00,M,CLR,M,M,M,M,M,M,M,M,M,M,M,M,M,M,71.60,KRTS 091655Z AUTO 14005KT 10SM CLR 22/01 A3011 RMK AO2,M
05U,2023-08-09 16:55,-116.0051,39.6042,1811.23,78.80,37.40,22.54,M,M,0.00,30.15,M,10.00,M,M,M,M,M,M,M,M,M,M,M,M,M,M,M,M,78.80,K05U 091655Z AUTO 10SM 26/03 A3015 RMK A01,M
MEV,2023-08-09 16:55,-119.7500,38.9963,1441.42,71.60,33.80,24.86,0.00,0.00,0.00,30.07,M,10.00,M,CLR,M,M,M,M,M,M,M,M,M,M,M,M,M,M,71.60,KMEV 091655Z AUTO 00000KT 10SM CLR 22/01 A3007 RMK AO2,M
BAM,2023-08-09 16:55,-116.8743,40.5990,1382.36,80.60,41.00,24.46,30.00,3.00,0.00,30.05,M,10.00,M,CLR,M,M,M,M,M,M,M,M,M,M,M,M,M,M,79.20,KBAM 091655Z AUTO 03003KT 10SM CLR 27/05 A3005 RMK AO1,M
HTH,2023-08-09 16:55,-118.6315,38.5448,1282.89,78.80,41.00,25.95,10.00,4.00,0.00,30.05,M,10.00,M,CLR,M,M,M,M,M,M,M,M,M,M,M,M,M,M,78.80,KHTH 091655Z AUTO 01004KT 10SM CLR 26/05 A3005 RMK A01,M
10U,2023-08-09 16:55,-116.1876,41.9532,1637.00,78.80,39.20,24.19,220.00,12.00,0.00,30.08,M,10.00,17.00,CLR,M,M,M,M,M,M,M,M,M,M,M,M,M,M,78.80,K10U 091655Z AUTO 22012G17KT 10SM CLR 26/04 A3008 RMK AO2,M
TMT,2023-08-09 16:55,-117.1971,39.4643,1749.34,72.70,35.20,25.33,0.00,0.00,0.00,30.12,M,M,M,CLR,M,M,M,M,M,M,M,M,M,M,M,M,M,M,72.70,KTMT 091655Z AUTO 00000KT CLR 23/02 A3012 RMK AO2 T02260018 PWINO,M
INS,2023-08-09 16:55,-115.6733,36.5872,955.00,86.40,18.00,7.93,0.00,0.00,0.00,29.96,1009.10,10.00,M,SCT,M,M,M,14000.00,M,M,M,M,M,M,M,M,M,M,82.16,KINS 091655Z AUTO 00000KT 10SM SCT140 30/M08 A2996 RMK AO2 SLP091 T03021077 $,M
LSV,2023-08-09 16:55,-115.0343,36.2362,570.00,98.00,34.30,10.86,0.00,0.00,0.00,29.86,1008.20,10.00,M,SCT,M,M,M,13000.00,M,M,M,M,M,M,M,M,M,M,92.52,KLSV 091655Z 00000KT 10SM SCT130 37/01 A2986 RMK AO2A SLP082 T03660013 $,M
EKO,2023-08-09 16:56,-115.7860,40.8242,1367.00,74.00,40.00,29.28,60.00,3.00,0.00,30.09,1013.40,10.00,M,CLR,M,M,M,M,M,M,M,M,M,M,M,M,M,M,74.00,KEKO 091656Z AUTO 06003KT 10SM CLR 23/04 A3009 RMK AO2 SLP134 T02330044,M
WMC,2023-08-09 16:56,-117.8072,40.9019,1315.00,82.00,28.00,13.92,300.00,6.00,0.00,30.03,1011.90,10.00,M,CLR,M,M,M,M,M,M,M,M,M,M,M,M,M,M,79.66,KWMC 091656Z AUTO 30006KT 10SM CLR 28/M02 A3003 RMK AO2 SLP119 T02781022,M
NFL,2023-08-09 16:56,-118.7010,39.4166,1199.00,79.00,41.00,25.78,M,4.00,0.00,30.02,1013.50,10.00,M,FEW,SCT,M,M,15000.00,22000.00,M,M,M,M,M,M,M,M,M,79.00,KNFL 091656Z VRB04KT 10SM FEW150 SCT220 26/05 A3002 RMK AO2 SLP135 T02610050,M
HND,2023-08-09 16:56,-115.1344,35.9729,742.79,91.00,38.00,15.60,230.00,11.00,0.00,29.94,1012.00,10.00,M,CLR,M,M,M,M,M,M,M,M,M,M,M,M,M,M,86.90,KHND 091656Z 23011KT 10SM CLR 33/03 A2994 RMK AO2 SLP120 T03280033,M
TPH,2023-08-09 16:56,-117.0904,38.0505,1654.00,77.00,34.00,20.91,180.00,6.00,0.00,30.11,1011.20,10.00,M,CLR,M,M,M,M,M,M,M,M,M,M,M,M,M,M,77.00,KTPH 091656Z AUTO 18006KT 10SM CLR 25/01 A3011 RMK AO2 SLP112 T02500011 $,M
LAS,2023-08-09 16:56,-115.1634,36.0719,663.00,93.00,36.00,13.55,200.00,8.00,0.00,29.90,1009.50,10.00,M,FEW,SCT,M,M,11000.00,15000.00,M,M,M,M,M,M,M,M,M,88.59,KLAS 091656Z 20008KT 10SM FEW110 SCT150 34/02 A2990 RMK AO2 SLP095 T03390022,M
BVU,2023-08-09 17:15,-114.8611,35.9475,671.00,93.20,42.80,17.55,110.00,5.00,0.00,29.90,M,10.00,11.00,CLR,M,M,M,M,M,M,M,M,M,M,M,M,M,M,89.17,KBVU 091715Z AUTO 11005G11KT 10SM CLR 34/06 A2990 RMK AO2,M
CXP,2023-08-09 17:15,-119.7326,39.1923,1431.00,77.00,32.00,19.30,0.00,0.00,0.00,30.09,M,10.00,M,CLR,M,M,M,M,M,M,M,M,M,M,M,M,M,M,77.00,KCXP 091715Z AUTO 00000KT 10SM CLR 25/M00 A3009 RMK AO2,M
RTS,2023-08-09 17:15,-119.8764,39.6682,1539.00,73.40,32.00,21.76,M,4.00,0.00,30.10,M,10.00,M,CLR,M,M,M,M,M,M,M,M,M,M,M,M,M,M,73.40,KRTS 091715Z AUTO VRB04KT 10SM CLR 23/00 A3010 RMK AO2,M
05U,2023-08-09 17:15,-116.0051,39.6042,1811.23,80.60,39.20,22.81,M,M,0.00,30.14,M,10.00,M,M,M,M,M,M,M,M,M,M,M,M,M,M,M,M,79.10,K05U 091715Z AUTO 10SM 27/04 A3014 RMK A01,M
MEV,2023-08-09 17:15,-119.7500,38.9963,1441.42,71.60,32.00,23.13,0.00,0.00,0.00,30.07,M,10.00,M,CLR,M,M,M,M,M,M,M,M,M,M,M,M,M,M,71.60,KMEV 091715Z AUTO 00000KT 10SM CLR 22/M00 A3007 RMK AO2,M
HTH,2023-08-09 17:15,-118.6315,38.5448,1282.89,78.80,39.20,24.19,0.00,0.00,0.00,30.04,M,10.00,M,CLR,M,M,M,M,M,M,M,M,M,M,M,M,M,M,78.80,KHTH 091715Z AUTO 00000KT 10SM CLR 26/04 A3004 RMK A01,M
10U,2023-08-09 17:15,-116.1876,41.9532,1637.00,78.80,39.20,24.19,240.00,9.00,0.00,30.08,M,10.00,14.00,CLR,M,M,M,M,M,M,M,M,M,M,M,M,M,M,78.80,K10U 091715Z AUTO 24009G14KT 10SM CLR 26/04 A3008 RMK AO2,M
BAM,2023-08-09 17:15,-116.8743,40.5990,1382.36,80.60,41.00,24.46,30.00,3.00,0.00,30.04,M,10.00,M,CLR,M,M,M,M,M,M,M,M,M,M,M,M,M,M,79.20,KBAM 091715Z AUTO 03003KT 10SM CLR 27/05 A3004 RMK AO1,M
TMT,2023-08-09 17:15,-117.1971,39.4643,1749.34,74.00,35.00,24.05,0.00,0.00,0.00,30.12,M,M,M,CLR,M,M,M,M,M,M,M,M,M,M,M,M,M,M,74.00,KTMT 091715Z AUTO 00000KT CLR 23/02 A3012 RMK AO2 T02340017 PWINO,M
BVU,2023-08-09 17:35,-114.8611,35.9475,671.00,95.00,41.00,15.49,160.00,12.00,0.00,29.90,M,10.00,M,CLR,M,M,M,M,M,M,M,M,M,M,M,M,M,M,90.70,KBVU 091735Z AUTO 16012KT 120V190 10SM CLR 35/05 A2990 RMK AO2,M
CXP,2023-08-09 17:35,-119.7326,39.1923,1431.00,77.00,32.00,19.30,0.00,0.00,0.00,30.08,M,10.00,M,CLR,M,M,M,M,M,M,M,M,M,M,M,M,M,M,77.00,KCXP 091735Z AUTO 00000KT 10SM CLR 25/00 A3008 RMK AO2,M
RTS,2023-08-09 17:35,-119.8764,39.6682,1539.00,75.20,30.20,19.05,M,6.00,0.00,30.10,M,10.00,M,CLR,M,M,M,M,M,M,M,M,M,M,M,M,M,M,75.20,KRTS 091735Z AUTO VRB06KT 10SM CLR 24/M01 A3010 RMK AO2,M
05U,2023-08-09 17:35,-116.0051,39.6042,1811.23,82.40,39.20,21.51,M,M,0.00,30.14,M,10.00,M,M,M,M,M,M,M,M,M,M,M,M,M,M,M,M,80.21,K05U 091735Z AUTO 10SM 28/04 A3014 RMK A01,M
MEV,2023-08-09 17:35,-119.7500,38.9963,1441.42,75.20,28.40,17.70,0.00,0.00,0.00,30.07,M,10.00,M,CLR,M,M,M,M,M,M,M,M,M,M,M,M,M,M,75.20,KMEV 091735Z AUTO 00000KT 10SM CLR 24/M02 A3007 RMK AO2,M
HTH,2023-08-09 17:35,-118.6315,38.5448,1282.89,80.60,39.20,22.81,350.00,5.00,0.00,30.04,M,10.00,M,CLR,M,M,M,M,M,M,M,M,M,M,M,M,M,M,79.10,KHTH 091735Z AUTO 35005KT 10SM CLR 27/04 A3004 RMK A01,M
10U,2023-08-09 17:35,-116.1876,41.9532,1637.00,80.60,39.20,22.81,230.00,11.00,0.00,30.07,M,10.00,M,CLR,M,M,M,M,M,M,M,M,M,M,M,M,M,M,79.10,K10U 091735Z AUTO 23011KT 10SM CLR 27/04 A3007 RMK AO2,M
BAM,2023-08-09 17:35,-116.8743,40.5990,1382.36,82.40,41.00,23.07,330.00,4.00,0.00,30.04,M,10.00,M,CLR,M,M,M,M,M,M,M,M,M,M,M,M,M,M,80.29,KBAM 091735Z AUTO 33004KT 10SM CLR 28/05 A3004 RMK AO1,M
TMT,2023-08-09 17:35,-117.1971,39.4643,1749.34,75.70,35.40,23.08,0.00,0.00,0.00,30.12,M,M,M,CLR,M,M,M,M,M,M,M,M,M,M,M,M,M,M,75.70,KTMT 091735Z AUTO 00000KT CLR 24/02 A3012 RMK AO2 T02430019 PWINO,M
05U,2023-08-09 17:50,-116.0051,39.6042,1811.23,82.40,37.40,20.04,M,M,0.00,30.14,M,10.00,M,M,M,M,M,M,M,M,M,M,M,M,M,M,M,M,80.14,K05U 091750Z AUTO 10SM 28/03 A3014 RMK A01,M
P68,2023-08-09 17:53,-116.0056,39.6014,1993.00,81.00,37.00,20.65,0.00,0.00,0.00,30.11,1011.00,M,M,M,M,M,M,M,M,M,M,M,M,M,M,M,M,M,79.24,KP68 091753Z AUTO 00000KT 27/03 A3011 RMK AO1 SLP110 T02720028 10272 20094 57010,M
DRA,2023-08-09 17:53,-116.0278,36.6206,1009.00,88.00,37.00,16.49,M,3.00,0.00,29.98,1009.60,10.00,M,CLR,M,M,M,M,M,M,M,M,M,M,M,M,M,M,84.32,KDRA 091753Z AUTO VRB03KT 10SM CLR 31/03 A2998 RMK AO2 SLP096 T03110028 10317 20200 56001,M
ELY,2023-08-09 17:53,-114.8453,39.2950,1909.00,77.00,40.00,26.49,0.00,0.00,0.00,30.15,1010.70,10.00,M,CLR,M,M,M,M,M,M,M,M,M,M,M,M,M,M,77.00,KELY 091753Z AUTO 00000KT 10SM CLR 25/04 A3015 RMK AO2 SLP107 T02500044 10256 20067 57013,M
VGT,2023-08-09 17:53,-115.1933,36.2111,667.00,97.00,33.00,10.63,180.00,10.00,0.00,29.90,1010.70,10.00,M,CLR,M,M,M,M,M,M,M,M,M,M,M,M,M,M,91.49,KVGT 091753Z 18010KT 10SM CLR 36/01 A2990 RMK AO2 SLP107 T03610006 10361 20278 58003,M
LOL,2023-08-09 17:53,-118.5701,40.0684,1192.43,83.00,32.00,15.85,60.00,3.00,0.00,30.00,1011.50,10.00,M,CLR,M,M,M,M,M,M,M,M,M,M,M,M,M,M,80.41,KLOL 091753Z AUTO 06003KT 10SM CLR 28/00 A3000 RMK AO2 SLP115 T02830000 10283 20111 58009,M
BVU,2023-08-09 17:55,-114.8611,35.9475,671.00,96.80,39.20,13.66,160.00,11.00,0.00,29.90,M,10.00,19.00,CLR,M,M,M,M,M,M,M,M,M,M,M,M,M,M,92.23,KBVU 091755Z AUTO 16011G19KT 10SM CLR 36/04 A2990 RMK AO2,M
CXP,2023-08-09 17:55,-119.7326,39.1923,1431.00,78.80,30.20,16.90,0.00,0.00,0.00,30.08,M,10.00,M,CLR,M,M,M,M,M,M,M,M,M,M,M,M,M,M,78.80,KCXP 091755Z AUTO 00000KT 10SM CLR 26/M01 A3008 RMK AO2,M
RNO,2023-08-09 17:55,-119.7711,39.4839,1341.00,81.00,37.00,20.65,M,3.00,0.00,30.05,1011.60,10.00,M,FEW,M,M,M,20000.00,M,M,M,M,M,M,M,M,M,M,79.24,KRNO 091755Z VRB03KT 10SM FEW200 27/03 A3005 RMK AO2 SLP116 T02720028 10272 20156 58009,M
RTS,2023-08-09 17:55,-119.8764,39.6682,1539.00,75.20,30.20,19.05,M,3.00,0.00,30.10,M,10.00,M,CLR,M,M,M,M,M,M,M,M,M,M,M,M,M,M,75.20,KRTS 091755Z AUTO VRB03KT 10SM CLR 24/M01 A3010 RMK AO2,M
MEV,2023-08-09 17:55,-119.7500,38.9963,1441.42,77.00,26.60,15.48,0.00,0.00,0.00,30.07,M,10.00,M,CLR,M,M,M,M,M,M,M,M,M,M,M,M,M,M,77.00,KMEV 091755Z AUTO 00000KT 10SM CLR 25/M03 A3007 RMK AO2,M
HTH,2023-08-09 17:55,-118.6315,38.5448,1282.89,80.60,39.20,22.81,M,3.00,0.00,30.03,M,10.00,M,CLR,M,M,M,M,M,M,M,M,M,M,M,M,M,M,79.10,KHTH 091755Z AUTO VRB03KT 10SM CLR 27/04 A3003 RMK A01,M
BAM,2023-08-09 17:55,-116.8743,40.5990,1382.36,82.40,41.00,23.07,320.00,4.00,0.00,30.04,M,10.00,M,CLR,M,M,M,M,M,M,M,M,M,M,M,M,M,M,80.29,KBAM 091755Z AUTO 32004KT 10SM CLR 28/05 A3004 RMK AO1,M
TMT,2023-08-09 17:55,-117.1971,39.4643,1749.34,79.00,37.00,22.05,0.00,0.00,0.00,30.11,M,M,M,CLR,M,M,M,M,M,M,M,M,M,M,M,M,M,M,79.00,KTMT 091755Z AUTO 00000KT CLR 26/03 A3011 RMK AO2 T02610028 10261 20034 PWINO,M
10U,2023-08-09 17:55,-116.1876,41.9532,1637.00,80.60,39.20,22.81,200.00,12.00,0.00,30.07,M,10.00,M,CLR,M,M,M,M,M,M,M,M,M,M,M,M,M,M,79.10,K10U 091755Z AUTO 20012KT 10SM CLR 27/04 A3007 RMK AO2,M
INS,2023-08-09 17:55,-115.6733,36.5872,955.00,89.80,20.70,8.00,230.00,4.00,0.00,29.95,1008.90,10.00,M,BKN,M,M,M,14000.00,M,M,M,M,M,M,M,M,M,M,84.76,KINS 091755Z AUTO 23004KT 10SM BKN140 32/M06 A2995 RMK AO2 SLP089 T03211063 10322 20179 57006 $,M
LSV,2023-08-09 17:55,-115.0343,36.2362,570.00,102.00,32.40,8.92,0.00,0.00,0.00,29.85,1007.90,10.00,M,CLR,M,M,M,M,M,M,M,M,M,M,M,M,M,M,95.63,KLSV 091755Z 00000KT 10SM CLR 39/00 A2985 RMK AO2A SLP079 T03880002 10389 20277 58004 $,M
EKO,2023-08-09 17:56,-115.7860,40.8242,1367.00,80.00,41.00,24.94,M,3.00,0.00,30.07,1012.50,10.00,M,CLR,M,M,M,M,M,M,M,M,M,M,M,M,M,M,78.87,KEKO 091756Z AUTO VRB03KT 10SM CLR 27/05 A3007 RMK AO2 SLP125 T02670050 10267 20106 56014,M
WMC,2023-08-09 17:56,-117.8072,40.9019,1315.00,86.00,26.00,11.27,250.00,8.00,0.00,30.02,1011.30,10.00,M,CLR,M,M,M,M,M,M,M,M,M,M,M,M,M,M,82.35,KWMC 091756Z AUTO 25008KT 10SM CLR 30/M03 A3002 RMK AO2 SLP113 T03001033 10300 20106 58010,M
NFL,2023-08-09 17:56,-118.7010,39.4166,1199.00,85.00,36.00,17.44,M,5.00,0.00,30.01,1013.30,10.00,M,FEW,SCT,M,M,15000.00,22000.00,M,M,M,M,M,M,M,M,M,81.93,KNFL 091756Z VRB05KT 10SM FEW150 SCT220 29/02 A3001 RMK AO2 SLP133 T02940022 10294 20133 58006,M
HND,2023-08-09 17:56,-115.1344,35.9729,742.79,96.00,35.00,11.87,190.00,12.00,0.00,29.94,1012.00,10.00,M,CLR,M,M,M,M,M,M,M,M,M,M,M,M,M,M,90.97,KHND 091756Z 19012KT 10SM CLR 36/02 A2994 RMK AO2 SLP120 60000 T03560017 10356 20283 58002,M
TPH,2023-08-09 17:56,-117.0904,38.0505,1654.00,81.00,39.00,22.33,190.00,9.00,0.00,30.11,1011.20,10.00,M,CLR,M,M,M,M,M,M,M,M,M,M,M,M,M,M,79.33,KTPH 091756Z AUTO 19009KT 10SM CLR 27/04 A3011 RMK AO2 SLP112 T02720039 10278 20139 56005 $,M
LAS,2023-08-09 17:56,-115.1634,36.0719,663.00,96.00,33.00,10.96,190.00,8.00,0.00,29.91,1009.50,10.00,15.00,FEW,FEW,M,M,11000.00,15000.00,M,M,M,M,M,M,M,M,M,90.66,KLAS 091756Z 19008G15KT 10SM FEW110 FEW150 36/01 A2991 RMK AO2 SLP095 T03560006 10356 20289 55001,M
05U,2023-08-09 18:10,-116.0051,39.6042,1811.23,84.20,39.20,20.29,M,M,0.00,30.13,M,10.00,M,M,M,M,M,M,M,M,M,M,M,M,M,M,M,M,81.44,K05U 091810Z AUTO 10SM 29/04 A3013 RMK A01,M
BVU,2023-08-09 18:15,-114.8611,35.9475,671.00,98.60,37.40,12.05,160.00,11.00,0.00,29.89,M,10.00,17.00,CLR,M,M,M,M,M,M,M,M,M,M,M,M,M,M,93.54,KBVU 091815Z AUTO 16011G17KT 10SM CLR 37/03 A2989 RMK AO2,M
CXP,2023-08-09 18:15,-119.7326,39.1923,1431.00,80.60,26.60,13.75,M,3.00,0.00,30.07,M,10.00,M,CLR,M,M,M,M,M,M,M,M,M,M,M,M,M,M,78.68,KCXP 091815Z AUTO VRB03KT 10SM CLR 27/M03 A3007 RMK AO2 LTG DSNT SE,M
RTS,2023-08-09 18:15,-119.8764,39.6682,1539.00,77.00,28.40,16.67,M,5.00,0.00,30.10,M,10.00,M,CLR,M,M,M,M,M,M,M,M,M,M,M,M,M,M,77.00,KRTS 091815Z AUTO VRB05KT 10SM CLR 25/M02 A3010 RMK AO2,M
MEV,2023-08-09 18:15,-119.7500,38.9963,1441.42,77.00,23.00,13.32,0.00,0.00,0.00,30.06,M,10.00,M,CLR,M,M,M,M,M,M,M,M,M,M,M,M,M,M,77.00,KMEV 091815Z AUTO 00000KT 10SM CLR 25/M05 A3006 RMK AO2 LTG DSNT SE,M
HTH,2023-08-09 18:15,-118.6315,38.5448,1282.89,82.40,39.20,21.51,320.00,7.00,0.00,30.03,M,10.00,M,CLR,M,M,M,M,M,M,M,M,M,M,M,M,M,M,80.21,KHTH 091815Z AUTO 32007KT 10SM CLR 28/04 A3003 RMK A01,M
10U,2023-08-09 18:15,-116.1876,41.9532,1637.00,82.40,39.20,21.51,220.00,11.00,0.00,30.07,M,10.00,17.00,CLR,M,M,M,M,M,M,M,M,M,M,M,M,M,M,80.21,K10U 091815Z AUTO 22011G17KT 190V250 10SM CLR 28/04 A3007 RMK AO2,M
BAM,2023-08-09 18:15,-116.8743,40.5990,1382.36,84.20,41.00,21.76,340.00,5.00,0.00,30.04,M,10.00,M,CLR,M,M,M,M,M,M,M,M,M,M,M,M,M,M,81.52,KBAM 091815Z AUTO 34005KT 10SM CLR 29/05 A3004 RMK AO1,M
TMT,2023-08-09 18:15,-117.1971,39.4643,1749.34,79.00,36.50,21.62,280.00,3.00,0.00,30.11,M,M,M,CLR,M,M,M,M,M,M,M,M,M,M,M,M,M,M,79.00,KTMT 091815Z AUTO 28003KT CLR 26/03 A3011 RMK AO2 LTG DSNT SE T02610025 PWINO,M
RTS,2023-08-09 18:25,-119.8764,39.6682,1539.00,77.00,28.40,16.67,0.00,0.00,0.00,30.10,M,10.00,M,CLR,M,M,M,M,M,M,M,M,M,M,M,M,M,M,77.00,KRTS 091825Z AUTO 00000KT 10SM CLR 25/M02 A3010 RMK AO2,M
BVU,2023-08-09 18:35,-114.8611,35.9475,671.00,98.60,37.40,12.05,130.00,11.00,0.00,29.89,M,10.00,17.00,CLR,M,M,M,M,M,M,M,M,M,M,M,M,M,M,93.54,KBVU 091835Z AUTO 13011G17KT 10SM CLR 37/03 A2989 RMK AO2,M
CXP,2023-08-09 18:35,-119.7326,39.1923,1431.00,80.60,28.40,14.81,M,3.00,0.00,30.07,M,10.00,M,CLR,M,M,M,M,M,M,M,M,M,M,M,M,M,M,78.72,KCXP 091835Z AUTO VRB03KT 10SM CLR 27/M02 A3007 RMK AO2,M
05U,2023-08-09 18:35,-116.0051,39.6042,1811.23,86.00,37.40,17.85,M,M,0.00,30.12,M,10.00,M,M,M,M,M,M,M,M,M,M,M,M,M,M,M,M,82.73,K05U 091835Z AUTO 10SM 30/03 A3012 RMK A01,M
MEV,2023-08-09 18:35,-119.7500,38.9963,1441.42,78.80,21.20,11.64,0.00,0.00,0.00,30.05,M,10.00,M,CLR,M,M,M,M,M,M,M,M,M,M,M,M,M,M,78.80,KMEV 091835Z AUTO 00000KT 10SM CLR 26/M06 A3005 RMK AO2,M
HTH,2023-08-09 18:35,-118.6315,38.5448,1282.89,82.40,39.20,21.51,M,4.00,0.00,30.02,M,10.00,11.00,CLR,M,M,M,M,M,M,M,M,M,M,M,M,M,M,80.21,KHTH 091835Z AUTO VRB04G11KT 10SM CLR 28/04 A3002 RMK A01,M
10U,2023-08-09 18:35,-116.1876,41.9532,1637.00,82.40,39.20,21.51,210.00,8.00,0.00,30.06,M,10.00,16.00,CLR,M,M,M,M,M,M,M,M,M,M,M,M,M,M,80.21,K10U 091835Z AUTO 21008G16KT 170V250 10SM CLR 28/04 A3006 RMK AO2,M
BAM,2023-08-09 18:35,-116.8743,40.5990,1382.36,84.20,41.00,21.76,0.00,0.00,0.00,30.03,M,10.00,M,CLR,M,M,M,M,M,M,M,M,M,M,M,M,M,M,81.52,KBAM 091835Z AUTO 00000KT 10SM CLR 29/05 A3003 RMK AO1,M
TMT,2023-08-09 18:35,-117.1971,39.4643,1749.34,81.00,37.60,21.14,350.00,4.00,0.00,30.10,M,M,M,CLR,M,M,M,M,M,M,M,M,M,M,M,M,M,M,79.26,KTMT 091835Z AUTO 35004KT CLR 27/03 A3010 RMK AO2 T02720031 PWINO,M
RTS,2023-08-09 18:44,-119.8764,39.6682,1539.00,80.60,21.20,10.97,M,5.00,0.00,30.08,M,10.00,18.00,CLR,M,M,M,M,M,M,M,M,M,M,M,M,M,M,78.68,KRTS 091844Z AUTO VRB05G18KT 10SM CLR 27/M06 A3008 RMK AO2,M
05U,2023-08-09 18:50,-116.0051,39.6042,1811.23,86.00,35.60,16.63,M,M,0.00,30.12,M,10.00,M,M,M,M,M,M,M,M,M,M,M,M,M,M,M,M,82.69,K05U 091850Z AUTO 10SM 30/02 A3012 RMK A01,M
RTS,2023-08-09 18:50,-119.8764,39.6682,1539.00,78.80,24.80,13.54,240.00,6.00,0.00,30.09,M,10.00,M,CLR,M,M,M,M,M,M,M,M,M,M,M,M,M,M,78.80,KRTS 091850Z AUTO 24006KT 10SM CLR 26/M04 A3009 RMK AO2,M
P68,2023-08-09 18:53,-116.0056,39.6014,1993.00,84.00,36.00,18.01,M,5.00,0.00,30.09,1010.40,M,M,M,M,M,M,M,M,M,M,M,M,M,M,M,M,M,81.20,KP68 091853Z AUTO VRB05KT 29/02 A3009 RMK AO1 SLP104 T02890022,M
DRA,2023-08-09 18:53,-116.0278,36.6206,1009.00,88.00,34.00,14.64,230.00,12.00,0.00,29.98,1009.80,10.00,23.00,BKN,M,M,M,11000.00,M,M,M,M,M,M,M,M,M,M,84.26,KDRA 091853Z AUTO 23012G23KT 10SM BKN110 31/01 A2998 RMK AO2 SLP098 T03110011,M
ELY,2023-08-09 18:53,-114.8453,39.2950,1909.00,82.00,37.00,19.99,M,M,0.00,30.14,1009.80,10.00,M,CLR,M,M,M,M,M,M,M,M,M,M,M,M,M,M,79.86,KELY 091853Z AUTO 10SM CLR 28/03 A3014 RMK AO2 SLP098 T02780028,M
VGT,2023-08-09 18:53,-115.1933,36.2111,667.00,100.00,36.00,10.93,160.00,11.00,0.00,29.88,1010.20,10.00,20.00,CLR,M,M,M,M,M,M,M,M,M,M,M,M,M,M,94.48,KVGT 091853Z 16011G20KT 10SM CLR 38/02 A2988 RMK AO2 SLP102 T03780022,M
LOL,2023-08-09 18:53,-118.5701,40.0684,1192.43,86.00,35.00,16.23,M,5.00,0.00,29.98,1011.00,10.00,M,CLR,M,M,M,M,M,M,M,M,M,M,M,M,M,M,82.68,KLOL 091853Z AUTO VRB05KT 10SM CLR 30/02 A2998 RMK AO2 SLP110 T03000017,M
BVU,2023-08-09 18:55,-114.8611,35.9475,671.00,98.60,37.40,12.05,120.00,14.00,0.00,29.89,M,10.00,M,CLR,M,M,M,M,M,M,M,M,M,M,M,M,M,M,93.54,KBVU 091855Z AUTO 12014KT 10SM CLR 37/03 A2989 RMK AO2,M
CXP,2023-08-09 18:55,-119.7326,39.1923,1431.00,84.20,26.60,12.23,0.00,0.00,0.00,30.06,M,9.00,M,CLR,M,M,M,M,M,M,M,M,M,M,M,M,M,M,81.13,KCXP 091855Z AUTO 00000KT 9SM CLR 29/M03 A3006 RMK AO2,M
RNO,2023-08-09 18:55,-119.7711,39.4839,1341.00,83.00,32.00,15.85,0.00,0.00,0.00,30.04,1011.00,10.00,M,SCT,M,M,M,20000.00,M,M,M,M,M,M,M,M,M,M,80.41,KRNO 091855Z 00000KT 10SM SCT200 28/00 A3004 RMK AO2 SLP110 T02830000,M
MEV,2023-08-09 18:55,-119.7500,38.9963,1441.42,82.40,24.80,12.03,M,4.00,0.00,30.05,M,10.00,M,CLR,M,M,M,M,M,M,M,M,M,M,M,M,M,M,79.79,KMEV 091855Z AUTO VRB04KT 10SM CLR 28/M04 A3005 RMK AO2,M
HTH,2023-08-09 18:55,-118.6315,38.5448,1282.89,84.20,37.40,18.91,0.00,0.00,0.00,30.01,M,10.00,M,CLR,M,M,M,M,M,M,M,M,M,M,M,M,M,M,81.38,KHTH 091855Z AUTO 00000KT 10SM CLR 29/03 A3001 RMK A01,M
BAM,2023-08-09 18:55,-116.8743,40.5990,1382.36,87.80,42.80,20.79,320.00,6.00,0.00,30.02,M,10.00,M,CLR,M,M,M,M,M,M,M,M,M,M,M,M,M,M,84.40,KBAM 091855Z AUTO 32006KT 300V010 10SM CLR 31/06 A3002 RMK AO1,M
TMT,2023-08-09 18:55,-117.1971,39.4643,1749.34,81.30,36.00,19.66,0.00,0.00,0.00,30.10,M,M,M,CLR,M,M,M,M,M,M,M,M,M,M,M,M,M,M,79.39,KTMT 091855Z AUTO 00000KT CLR 27/02 A3010 RMK AO2 T02740022 PWINO,M
10U,2023-08-09 18:55,-116.1876,41.9532,1637.00,82.40,39.20,21.51,190.00,14.00,0.00,30.05,M,10.00,19.00,CLR,M,M,M,M,M,M,M,M,M,M,M,M,M,M,80.21,K10U 091855Z AUTO 19014G19KT 10SM CLR 28/04 A3005 RMK AO2,M
INS,2023-08-09 18:55,-115.6733,36.5872,955.00,93.00,19.80,6.96,250.00,8.00,0.00,29.95,1008.90,10.00,M,SCT,M,M,M,19000.00,M,M,M,M,M,M,M,M,M,M,87.06,KINS 091855Z AUTO 25008KT 10SM SCT190 34/M07 A2995 RMK AO2 SLP089 T03391068 $,M
LSV,2023-08-09 18:55,-115.0343,36.2362,570.00,100.00,31.00,8.95,100.00,10.00,0.00,29.84,1007.50,10.00,15.00,CLR,M,M,M,M,M,M,M,M,M,M,M,M,M,M,93.74,KLSV 091855Z AUTO 10010G15KT 10SM CLR 38/M00 A2984 RMK AO2 SLP075 T03781005 $,M
EKO,2023-08-09 18:56,-115.7860,40.8242,1367.00,84.00,41.00,21.90,M,M,0.00,30.05,1011.60,10.00,M,CLR,M,M,M,M,M,M,M,M,M,M,M,M,M,M,81.37,KEKO 091856Z AUTO 10SM CLR 29/05 A3005 RMK AO2 SLP116 T02890050,M
WMC,2023-08-09 18:56,-117.8072,40.9019,1315.00,87.00,29.00,12.35,270.00,10.00,0.00,30.00,1010.60,10.00,M,CLR,M,M,M,M,M,M,M,M,M,M,M,M,M,M,83.31,KWMC 091856Z AUTO 27010KT 10SM CLR 31/M02 A3000 RMK AO2 SLP106 T03061017,M
NFL,2023-08-09 18:56,-118.7010,39.4166,1199.00,86.00,35.00,16.23,M,3.00,0.00,30.00,1012.90,10.00,M,FEW,SCT,M,M,15000.00,22000.00,M,M,M,M,M,M,M,M,M,82.68,KNFL 091856Z VRB03KT 10SM FEW150 SCT220 30/02 A3000 RMK AO2 SLP129 T03000017,M
HND,2023-08-09 18:56,-115.1344,35.9729,742.79,98.00,38.00,12.57,200.00,12.00,0.00,29.94,1011.80,10.00,21.00,CLR,M,M,M,M,M,M,M,M,M,M,M,M,M,M,93.15,KHND 091856Z 20012G21KT 10SM CLR 37/03 A2994 RMK AO2 SLP118 T03670033,M
TPH,2023-08-09 18:56,-117.0904,38.0505,1654.00,84.00,42.00,22.77,170.00,9.00,0.00,30.09,1010.80,10.00,15.00,CLR,M,M,M,M,M,M,M,M,M,M,M,M,M,M,81.42,KTPH 091856Z AUTO 17009G15KT 10SM CLR 29/06 A3009 RMK AO2 SLP108 T02890056 $,M
LAS,2023-08-09 18:56,-115.1634,36.0719,663.00,97.00,37.00,12.46,190.00,9.00,0.00,29.89,1009.00,10.00,20.00,FEW,SCT,M,M,11000.00,15000.00,M,M,M,M,M,M,M,M,M,92.13,KLAS 091856Z 19009G20KT 10SM FEW110 SCT150 36/03 A2989 RMK AO2 SLP090 T03610028,M
RTS,2023-08-09 19:04,-119.8764,39.6682,1539.00,82.40,23.00,11.16,240.00,13.00,0.00,30.08,M,10.00,M,CLR,M,M,M,M,M,M,M,M,M,M,M,M,M,M,79.67,KRTS 091904Z AUTO 24013KT 10SM CLR 28/M05 A3008 RMK AO2,M
BVU,2023-08-09 19:15,-114.8611,35.9475,671.00,100.40,37.40,11.41,M,6.00,0.00,29.88,M,10.00,18.00,CLR,M,M,M,M,M,M,M,M,M,M,M,M,M,M,95.08,KBVU 091915Z AUTO VRB06G18KT 10SM CLR 38/03 A2988 RMK AO2,M
CXP,2023-08-09 19:15,-119.7326,39.1923,1431.00,84.20,24.80,11.35,160.00,4.00,0.00,30.05,M,10.00,M,CLR,M,M,M,M,M,M,M,M,M,M,M,M,M,M,81.00,KCXP 091915Z AUTO 16004KT 10SM CLR 29/M04 A3005 RMK AO2,M
05U,2023-08-09 19:15,-116.0051,39.6042,1811.23,84.20,33.80,16.39,M,M,0.00,30.11,M,10.00,M,M,M,M,M,M,M,M,M,M,M,M,M,M,M,M,81.30,K05U 091915Z AUTO 10SM 29/01 A3011 RMK A01,M
MEV,2023-08-09 19:15,-119.7500,38.9963,1441.42,84.20,19.40,9.04,260.00,5.00,0.00,30.04,M,9.00,M,CLR,M,M,M,M,M,M,M,M,M,M,M,M,M,M,80.68,KMEV 091915Z AUTO 26005KT 9SM CLR 29/M07 A3004 RMK AO2,M
HTH,2023-08-09 19:15,-118.6315,38.5448,1282.89,86.00,37.40,17.85,M,7.00,0.00,30.00,M,10.00,12.00,CLR,M,M,M,M,M,M,M,M,M,M,M,M,M,M,82.73,KHTH 091915Z AUTO VRB07G12KT 10SM CLR 30/03 A3000 RMK A01,M
10U,2023-08-09 19:15,-116.1876,41.9532,1637.00,84.20,39.20,20.29,200.00,11.00,0.00,30.05,M,10.00,27.00,CLR,M,M,M,M,M,M,M,M,M,M,M,M,M,M,81.44,K10U 091915Z AUTO 20011G27KT 10SM CLR 29/04 A3005 RMK AO2,M
BAM,2023-08-09 19:15,-116.8743,40.5990,1382.36,86.00,41.00,20.54,10.00,5.00,0.00,30.01,M,10.00,M,CLR,M,M,M,M,M,M,M,M,M,M,M,M,M,M,82.86,KBAM 091915Z AUTO 01005KT 10SM CLR 30/05 A3001 RMK AO1,M
TMT,2023-08-09 19:15,-117.1971,39.4643,1749.34,83.50,35.60,18.02,270.00,6.00,0.00,30.09,M,M,M,CLR,M,M,M,M,M,M,M,M,M,M,M,M,M,M,80.84,KTMT 091915Z AUTO 27006KT CLR 29/02 A3009 RMK AO2 T02860020 PWINO,M
RTS,2023-08-09 19:24,-119.8764,39.6682,1539.00,82.40,23.00,11.16,250.00,7.00,0.00,30.07,M,10.00,18.00,CLR,M,M,M,M,M,M,M,M,M,M,M,M,M,M,79.67,KRTS 091924Z AUTO 25007G18KT 220V280 10SM CLR 28/M05 A3007 RMK AO2,M
05U,2023-08-09 19:30,-116.0051,39.6042,1811.23,87.80,33.80,14.61,M,M,0.00,30.11,M,10.00,M,M,M,M,M,M,M,M,M,M,M,M,M,M,M,M,84.10,K05U 091930Z AUTO 10SM 31/01 A3011 RMK A01,M
BVU,2023-08-09 19:35,-114.8611,35.9475,671.00,98.60,33.80,10.45,M,5.00,0.00,29.88,M,10.00,M,CLR,M,M,M,M,M,M,M,M,M,M,M,M,M,M,92.94,KBVU 091935Z AUTO VRB05KT 10SM CLR 37/01 A2988 RMK AO2,M
CXP,2023-08-09 19:35,-119.7326,39.1923,1431.00,86.00,19.40,8.53,190.00,5.00,0.00,30.05,M,10.00,M,CLR,M,M,M,M,M,M,M,M,M,M,M,M,M,M,81.94,KCXP 091935Z AUTO 19005KT 10SM CLR 30/M07 A3005 RMK AO2,M
MEV,2023-08-09 19:35,-119.7500,38.9963,1441.42,84.20,17.60,8.37,M,4.00,0.00,30.03,M,9.00,M,CLR,M,M,M,M,M,M,M,M,M,M,M,M,M,M,80.59,KMEV 091935Z AUTO VRB04KT 9SM CLR 29/M08 A3003 RMK AO2,M
HTH,2023-08-09 19:35,-118.6315,38.5448,1282.89,86.00,37.40,17.85,M,4.00,0.00,29.99,M,10.00,M,CLR,M,M,M,M,M,M,M,M,M,M,M,M,M,M,82.73,KHTH 091935Z AUTO VRB04KT 10SM CLR 30/03 A2999 RMK A01,M
10U,2023-08-09 19:35,-116.1876,41.9532,1637.00,84.20,37.40,18.91,270.00,8.00,0.00,30.05,M,10.00,20.00,CLR,M,M,M,M,M,M,M,M,M,M,M,M,M,M,81.38,K10U 091935Z AUTO 27008G20KT 10SM CLR 29/03 A3005 RMK AO2,M
BAM,2023-08-09 19:35,-116.8743,40.5990,1382.36,87.80,41.00,19.40,230.00,4.00,0.00,30.01,M,10.00,M,CLR,M,M,M,M,M,M,M,M,M,M,M,M,M,M,84.30,KBAM 091935Z AUTO 23004KT 10SM CLR 31/05 A3001 RMK AO1,M
TMT,2023-08-09 19:35,-117.1971,39.4643,1749.34,84.00,34.70,17.10,230.00,5.00,0.00,30.09,M,M,M,CLR,M,M,M,M,M,M,M,M,M,M,M,M,M,M,81.17,KTMT 091935Z AUTO 23005KT CLR 29/02 A3009 RMK AO2 T02890015 PWINO,M
RTS,2023-08-09 19:44,-119.8764,39.6682,1539.00,82.40,21.20,10.34,230.00,7.00,0.00,30.07,M,10.00,17.00,CLR,M,M,M,M,M,M,M,M,M,M,M,M,M,M,79.55,KRTS 091944Z AUTO 23007G17KT 10SM CLR 28/M06 A3007 RMK AO2,M
05U,2023-08-09 19:50,-116.0051,39.6042,1811.23,86.00,32.00,14.40,M,M,0.00,30.10,M,10.00,M,M,M,M,M,M,M,M,M,M,M,M,M,M,M,M,82.64,K05U 091950Z AUTO 10SM 30/M00 A3010 RMK A01,M
P68,2023-08-09 19:53,-116.0056,39.6014,1993.00,84.00,31.00,14.74,0.00,0.00,0.00,30.07,1009.80,M,M,M,M,M,M,M,M,M,M,M,M,M,M,M,M,M,81.12,KP68 091953Z AUTO 00000KT 29/M01 A3007 RMK AO1 SLP098 T02891006,M
DRA,2023-08-09 19:53,-116.0278,36.6206,1009.00,90.00,29.00,11.23,220.00,16.00,0.00,29.98,1009.90,10.00,24.00,FEW,BKN,M,M,9000.00,11000.00,M,M,M,M,M,M,26.00,210.00,2023-08-09 19:39,85.53,KDRA 091953Z AUTO 22016G24KT 10SM FEW090 BKN110 32/M02 A2998 RMK AO2 PK WND 21026/1939 SLP099 T03221017,M
ELY,2023-08-09 19:53,-114.8453,39.2950,1909.00,85.00,32.00,14.86,220.00,13.00,0.00,30.13,1009.70,10.00,21.00,CLR,M,M,M,M,M,M,M,M,M,M,M,M,M,M,81.87,KELY 091953Z AUTO 22013G21KT 10SM CLR 29/00 A3013 RMK AO2 SLP097 T02940000,M
VGT,2023-08-09 19:53,-115.1933,36.2111,667.00,100.00,43.00,14.36,200.00,13.00,0.00,29.87,1009.70,10.00,23.00,CLR,M,M,M,M,M,M,M,M,M,M,M,26.00,210.00,2023-08-09 19:42,95.68,KVGT 091953Z 20013G23KT 10SM CLR 38/06 A2987 RMK AO2 PK WND 21026/1942 SLP097 T03780061,M
LOL,2023-08-09 19:53,-118.5701,40.0684,1192.43,88.00,33.00,14.06,180.00,9.00,0.00,29.97,1010.70,10.00,M,CLR,M,M,M,M,M,M,M,M,M,M,M,M,M,M,84.25,KLOL 091953Z AUTO 18009KT 10SM CLR 31/01 A2997 RMK AO2 SLP107 T03110006,M
BVU,2023-08-09 19:55,-114.8611,35.9475,671.00,100.40,33.80,9.90,170.00,13.00,0.00,29.87,M,10.00,22.00,CLR,M,M,M,M,M,M,M,M,M,M,M,M,M,M,94.47,KBVU 091955Z AUTO 17013G22KT 10SM CLR 38/01 A2987 RMK AO2,M
CXP,2023-08-09 19:55,-119.7326,39.1923,1431.00,86.00,23.00,9.94,M,4.00,0.00,30.04,M,10.00,M,CLR,M,M,M,M,M,M,M,M,M,M,M,M,M,M,82.14,KCXP 091955Z AUTO VRB04KT 10SM CLR 30/M05 A3004 RMK AO2,M
RNO,2023-08-09 19:55,-119.7711,39.4839,1341.00,86.00,32.00,14.40,M,4.00,0.00,30.02,1010.20,10.00,M,SCT,M,M,M,20000.00,M,M,M,M,M,M,M,M,M,M,82.64,KRNO 091955Z VRB04KT 10SM SCT200 30/00 A3002 RMK AO2 SLP102 T03000000,M
MEV,2023-08-09 19:55,-119.7500,38.9963,1441.42,84.20,23.00,10.53,0.00,0.00,0.00,30.03,M,6.00,M,CLR,M,M,M,M,M,M,M,HZ,M,M,M,M,M,M,80.88,KMEV 091955Z AUTO 00000KT 6SM HZ CLR 29/M05 A3003 RMK AO2,M
BAM,2023-08-09 19:55,-116.8743,40.5990,1382.36,89.60,41.00,18.33,0.00,0.00,0.00,30.00,M,10.00,M,CLR,M,M,M,M,M,M,M,M,M,M,M,M,M,M,85.82,KBAM 091955Z AUTO 00000KT 10SM CLR 32/05 A3000 RMK AO1,M
HTH,2023-08-09 19:55,-118.6315,38.5448,1282.89,87.80,37.40,16.86,330.00,7.00,0.00,29.99,M,10.00,13.00,CLR,M,M,M,M,M,M,M,M,M,M,M,M,M,M,84.16,KHTH 091955Z AUTO 33007G13KT 10SM CLR 31/03 A2999 RMK A01,M
TMT,2023-08-09 19:55,-117.1971,39.4643,1749.34,84.00,34.00,16.63,270.00,3.00,0.00,30.08,M,M,M,CLR,M,M,M,M,M,M,M,M,M,M,M,M,M,M,81.16,KTMT 091955Z AUTO 27003KT CLR 29/01 A3008 RMK AO2 T02880011 PWINO,M
10U,2023-08-09 19:55,-116.1876,41.9532,1637.00,86.00,33.80,15.48,250.00,11.00,0.00,30.04,M,10.00,19.00,FEW,M,M,M,10000.00,M,M,M,M,M,M,M,M,M,M,82.66,K10U 091955Z AUTO 25011G19KT 220V280 10SM FEW100 30/01 A3004 RMK AO2,M
INS,2023-08-09 19:55,-115.6733,36.5872,955.00,93.00,25.70,8.92,270.00,8.00,0.00,29.94,1008.60,10.00,M,FEW,BKN,OVC,M,10000.00,13000.00,17000.00,M,M,M,M,M,M,M,M,87.49,KINS 091955Z AUTO 27008KT 10SM FEW100 BKN130 OVC170 34/M03 A2994 RMK AO2 SLP086 T03381035 $,M
LSV,2023-08-09 19:55,-115.0343,36.2362,570.00,102.40,37.80,10.92,160.00,10.00,0.00,29.83,1007.20,10.00,18.00,FEW,SCT,M,M,15000.00,19000.00,M,M,M,M,M,M,M,M,M,96.88,KLSV 091955Z AUTO 16010G18KT 10SM FEW150 SCT190 39/03 A2983 RMK AO2 SLP072 T03910032 $,M
EKO,2023-08-09 19:56,-115.7860,40.8242,1367.00,88.00,40.00,18.54,M,M,0.00,30.03,1011.30,10.00,M,CLR,M,M,M,M,M,M,M,M,M,M,M,M,M,M,84.42,KEKO 091956Z AUTO 10SM CLR 31/04 A3003 RMK AO2 SLP113 T03110044,M
WMC,2023-08-09 19:56,-117.8072,40.9019,1315.00,90.00,31.00,12.18,240.00,9.00,0.00,29.98,1010.00,10.00,23.00,CLR,M,M,M,M,M,M,M,M,M,M,M,M,M,M,85.73,KWMC 091956Z AUTO 24009G23KT 10SM CLR 32/M01 A2998 RMK AO2 SLP100 T03221006,M
NFL,2023-08-09 19:56,-118.7010,39.4166,1199.00,85.00,37.00,18.14,30.00,5.00,0.00,29.98,1012.20,10.00,M,FEW,FEW,SCT,M,8000.00,15000.00,22000.00,M,M,M,M,M,M,M,M,81.96,KNFL 091956Z 03005KT 10SM FEW080 FEW150 SCT220 29/03 A2998 RMK AO2 SLP122 T02940028,M
HND,2023-08-09 19:56,-115.1344,35.9729,742.79,100.00,39.00,12.30,230.00,17.00,0.00,29.92,1011.10,10.00,22.00,CLR,M,M,M,M,M,M,M,M,M,M,M,M,M,M,95.05,KHND 091956Z 23017G22KT 10SM CLR 38/04 A2992 RMK AO2 SLP111 T03780039,M
TPH,2023-08-09 19:56,-117.0904,38.0505,1654.00,87.00,44.00,22.33,220.00,8.00,0.00,30.07,1010.00,10.00,M,CLR,M,M,M,M,M,M,M,M,M,M,M,M,M,M,83.82,KTPH 091956Z AUTO 22008KT 10SM CLR 31/07 A3007 RMK AO2 SLP100 T03060067 $,M
LAS,2023-08-09 19:56,-115.1634,36.0719,663.00,100.00,39.00,12.30,230.00,13.00,0.00,29.88,1008.70,10.00,20.00,FEW,SCT,M,M,11000.00,15000.00,M,M,M,M,M,M,M,M,M,95.05,KLAS 091956Z 23013G20KT 10SM FEW110 SCT150 38/04 A2988 RMK AO2 SLP087 T03780039,M
RTS,2023-08-09 20:04,-119.8764,39.6682,1539.00,84.20,19.40,9.04,240.00,9.00,0.00,30.06,M,10.00,16.00,CLR,M,M,M,M,M,M,M,M,M,M,M,M,M,M,80.68,KRTS 092004Z AUTO 24009G16KT 10SM CLR 29/M07 A3006 RMK AO2,M
LSV,2023-08-09 20:08,-115.0343,36.2362,570.00,102.20,41.00,12.44,190.00,15.00,0.00,29.82,1006.80,10.00,M,SCT,SCT,M,M,14000.00,18000.00,M,M,M,M,M,M,M,M,M,97.39,KLSV 092008Z AUTO 19015KT 10SM SCT140 SCT180 39/05 A2982 RMK AO2 WSHFT 06 SLP068 $,M
BVU,2023-08-09 20:15,-114.8611,35.9475,671.00,100.40,35.60,10.63,50.00,5.00,0.00,29.86,M,10.00,14.00,CLR,M,M,M,M,M,M,M,M,M,M,M,M,M,M,94.76,KBVU 092015Z AUTO 05005G14KT 10SM CLR 38/02 A2986 RMK AO2,M
CXP,2023-08-09 20:15,-119.7326,39.1923,1431.00,86.00,23.00,9.94,0.00,0.00,0.00,30.04,M,9.00,M,CLR,M,M,M,M,M,M,M,M,M,M,M,M,M,M,82.14,KCXP 092015Z AUTO 00000KT 9SM CLR 30/M05 A3004 RMK AO2,M
05U,2023-08-09 20:15,-116.0051,39.6042,1811.23,89.60,32.00,12.84,M,M,0.00,30.09,M,10.00,M,M,M,M,M,M,M,M,M,M,M,M,M,M,M,M,85.54,K05U 092015Z AUTO 10SM 32/M00 A3009 RMK A01,M
MEV,2023-08-09 20:15,-119.7500,38.9963,1441.42,84.20,23.00,10.53,M,5.00,0.00,30.02,M,7.00,11.00,CLR,M,M,M,M,M,M,M,M,M,M,M,M,M,M,80.88,KMEV 092015Z AUTO VRB05G11KT 7SM CLR 29/M05 A3002 RMK AO2,M
BAM,2023-08-09 20:15,-116.8743,40.5990,1382.36,89.60,37.40,15.92,150.00,3.00,0.00,29.99,M,10.00,M,CLR,M,M,M,M,M,M,M,M,M,M,M,M,M,M,85.67,KBAM 092015Z AUTO 15003KT 10SM CLR 32/03 A2999 RMK AO1,M
HTH,2023-08-09 20:15,-118.6315,38.5448,1282.89,86.00,37.40,17.85,290.00,7.00,0.00,29.98,M,10.00,M,CLR,M,M,M,M,M,M,M,M,M,M,M,M,M,M,82.73,KHTH 092015Z AUTO 29007KT 10SM CLR 30/03 A2998 RMK A01,M
10U,2023-08-09 20:15,-116.1876,41.9532,1637.00,86.00,35.60,16.63,230.00,13.00,0.00,30.04,M,10.00,M,SCT,M,M,M,10000.00,M,M,M,M,M,M,M,M,M,M,82.69,K10U 092015Z AUTO 23013KT 10SM SCT100 30/02 A3004 RMK AO2,M
TMT,2023-08-09 20:15,-117.1971,39.4643,1749.34,86.50,34.30,15.54,270.00,7.00,0.00,30.07,M,M,17.00,CLR,M,M,M,M,M,M,M,M,M,M,M,M,M,M,83.06,KTMT 092015Z AUTO 27007G17KT CLR 30/01 A3007 RMK AO2 T03030013 PWINO,M
RTS,2023-08-09 20:24,-119.8764,39.6682,1539.00,84.20,19.40,9.04,230.00,11.00,0.00,30.06,M,10.00,20.00,CLR,M,M,M,M,M,M,M,M,M,M,M,M,M,M,80.68,KRTS 092024Z AUTO 23011G20KT 10SM CLR 29/M07 A3006 RMK AO2,M
BVU,2023-08-09 20:35,-114.8611,35.9475,671.00,100.40,30.20,8.56,M,3.00,0.00,29.85,M,10.00,11.00,CLR,M,M,M,M,M,M,M,M,M,M,M,M,M,M,93.98,KBVU 092035Z AUTO VRB03G11KT 10SM CLR 38/M01 A2985 RMK AO2,M
CXP,2023-08-09 20:35,-119.7326,39.1923,1431.00,86.00,21.20,9.21,290.00,10.00,0.00,30.03,M,10.00,17.00,CLR,M,M,M,M,M,M,M,M,M,M,M,M,M,M,82.04,KCXP 092035Z AUTO 29010G17KT 10SM CLR 30/M06 A3003 RMK AO2,M
05U,2023-08-09 20:35,-116.0051,39.6042,1811.23,86.00,30.20,13.38,M,M,0.00,30.09,M,10.00,M,M,M,M,M,M,M,M,M,M,M,M,M,M,M,M,82.64,K05U 092035Z AUTO 10SM 30/M01 A3009 RMK A01,M
MEV,2023-08-09 20:35,-119.7500,38.9963,1441.42,86.00,24.80,10.72,330.00,8.00,0.00,30.02,M,9.00,13.00,CLR,M,M,M,M,M,M,M,M,M,M,M,M,M,M,82.26,KMEV 092035Z AUTO 33008G13KT 300V360 9SM CLR 30/M04 A3002 RMK AO2,M
HTH,2023-08-09 20:35,-118.6315,38.5448,1282.89,87.80,37.40,16.86,270.00,7.00,0.00,29.96,M,10.00,M,CLR,M,M,M,M,M,M,M,M,M,M,M,M,M,M,84.16,KHTH 092035Z AUTO 27007KT 10SM CLR 31/03 A2996 RMK A01,M
10U,2023-08-09 20:35,-116.1876,41.9532,1637.00,86.00,33.80,15.48,250.00,13.00,0.00,30.04,M,10.00,21.00,FEW,M,M,M,10000.00,M,M,M,M,M,M,M,M,M,M,82.66,K10U 092035Z AUTO 25013G21KT 10SM FEW100 30/01 A3004 RMK AO2,M
BAM,2023-08-09 20:35,-116.8743,40.5990,1382.36,89.60,37.40,15.92,300.00,7.00,0.00,29.99,M,10.00,M,CLR,M,M,M,M,M,M,M,M,M,M,M,M,M,M,85.67,KBAM 092035Z AUTO 30007KT 10SM CLR 32/03 A2999 RMK AO1,M
TMT,2023-08-09 20:35,-117.1971,39.4643,1749.34,86.00,33.30,15.17,220.00,6.00,0.00,30.06,M,M,M,CLR,M,M,M,M,M,M,M,M,M,M,M,M,M,M,82.66,KTMT 092035Z AUTO 22006KT CLR 30/01 A3006 RMK AO2 T03000007 PWINO,M
INS,2023-08-09 20:41,-115.6733,36.5872,955.00,89.60,33.80,13.80,240.00,29.00,0.00,29.95,1009.20,9.00,34.00,BKN,OVC,M,M,11000.00,17000.00,M,M,TS,M,M,M,M,M,M,85.59,KINS 092041Z AUTO 24029G34KT 9SM TS BKN110 OVC170 32/01 A2995 RMK AO2 TSB41 SLP092 $,M
RTS,2023-08-09 20:44,-119.8764,39.6682,1539.00,84.20,19.40,9.04,230.00,15.00,0.00,30.06,M,10.00,20.00,CLR,M,M,M,M,M,M,M,M,M,M,M,M,M,M,80.68,KRTS 092044Z AUTO 23015G20KT 10SM CLR 29/M07 A3006 RMK AO2,M
INS,2023-08-09 20:49,-115.6733,36.5872,955.00,87.80,39.20,18.09,210.00,23.00,0.00,29.94,1009.00,9.00,34.00,BKN,OVC,M,M,11000.00,13000.00,M,M,TS -DZ,M,M,M,M,M,M,84.22,KINS 092049Z AUTO 21023G34KT 9SM TS -DZ BKN110 OVC130 31/04 A2994 RMK AO2 DZB49 TSB41 SLP090 $,M
05U,2023-08-09 20:50,-116.0051,39.6042,1811.23,89.60,32.00,12.84,M,M,0.00,30.08,M,10.00,M,M,M,M,M,M,M,M,M,M,M,M,M,M,M,M,85.54,K05U 092050Z AUTO 10SM 32/M00 A3008 RMK A01,M
P68,2023-08-09 20:53,-116.0056,39.6014,1993.00,86.00,30.00,13.28,180.00,13.00,0.00,30.05,1009.00,M,21.00,M,M,M,M,M,M,M,M,M,M,M,M,M,M,M,82.64,KP68 092053Z AUTO 18013G21KT 30/M01 A3005 RMK AO1 SLP090 T03001011 58017,M
DRA,2023-08-09 20:53,-116.0278,36.6206,1009.00,90.00,29.00,11.23,M,5.00,0.00,29.96,1009.50,10.00,M,SCT,M,M,M,11000.00,M,M,M,M,M,M,M,M,M,M,85.53,KDRA 092053Z AUTO VRB05KT 10SM SCT110 32/M02 A2996 RMK AO2 SLP095 T03221017 58005,M
ELY,2023-08-09 20:53,-114.8453,39.2950,1909.00,83.00,31.00,15.23,0.00,0.00,0.00,30.11,1009.90,10.00,M,CLR,M,M,M,M,M,M,M,M,M,M,M,M,M,M,80.40,KELY 092053Z AUTO 00000KT 10SM CLR 28/M01 A3011 RMK AO2 SLP099 T02831006 56012,M
VGT,2023-08-09 20:53,-115.1933,36.2111,667.00,102.00,41.00,12.52,180.00,15.00,0.00,29.85,1009.10,10.00,23.00,CLR,M,M,M,M,M,M,M,M,M,M,M,29.00,170.00,2023-08-09 20:17,97.21,KVGT 092053Z 18015G23KT 10SM CLR 39/05 A2985 RMK AO2 PK WND 17029/2017 LTG DSNT NW SLP091 T03890050 58015,M
LOL,2023-08-09 20:53,-118.5701,40.0684,1192.43,86.00,34.00,15.60,M,5.00,0.00,29.95,1009.90,10.00,M,CLR,M,M,M,M,M,M,M,M,M,M,M,M,M,M,82.66,KLOL 092053Z AUTO VRB05KT 10SM CLR 30/01 A2995 RMK AO2 SLP099 T03000011 58015,M
BVU,2023-08-09 20:55,-114.8611,35.9475,671.00,102.20,30.20,8.11,250.00,7.00,0.00,29.85,M,10.00,M,CLR,M,M,M,M,M,M,M,M,M,M,M,M,M,M,95.50,KBVU 092055Z AUTO 25007KT 210V270 10SM CLR 39/M01 A2985 RMK AO2,M
CXP,2023-08-09 20:55,-119.7326,39.1923,1431.00,87.80,26.60,10.91,280.00,11.00,0.00,30.03,M,10.00,19.00,CLR,M,M,M,M,M,M,M,M,M,M,M,M,M,M,83.69,KCXP 092055Z AUTO 28011G19KT 10SM CLR 31/M03 A3003 RMK AO2,M
INS,2023-08-09 20:55,-115.6733,36.5872,955.00,86.40,46.40,24.93,220.00,24.00,T,29.95,1009.60,10.00,33.00,OVC,M,M,M,12000.00,M,M,M,TS -DZ,M,M,M,34.00,240.00,2023-08-09 20:40,83.54,KINS 092055Z AUTO 22024G33KT 10SM TS -DZ OVC120 30/08 A2995 RMK AO2 PK WND 24034/40 DZB49 TSB41 SLP096 P0000 60000 T03020080 55002 $,M
RNO,2023-08-09 20:55,-119.7711,39.4839,1341.00,87.00,29.00,12.35,70.00,4.00,0.00,30.00,1009.80,10.00,M,SCT,M,M,M,24000.00,M,M,M,M,M,M,M,26.00,260.00,2023-08-09 20:29,83.31,KRNO 092055Z 07004KT 10SM SCT240 31/M02 A3000 RMK AO2 PK WND 26026/2029 SLP098 T03061017 58017,M
MEV,2023-08-09 20:55,-119.7500,38.9963,1441.42,87.80,24.80,10.12,290.00,9.00,0.00,30.01,M,10.00,15.00,CLR,M,M,M,M,M,M,M,M,M,M,M,M,M,M,83.56,KMEV 092055Z AUTO 29009G15KT 10SM CLR 31/M04 A3001 RMK AO2,M
HTH,2023-08-09 20:55,-118.6315,38.5448,1282.89,89.60,35.60,14.83,M,5.00,0.00,29.95,M,10.00,13.00,CLR,M,M,M,M,M,M,M,M,M,M,M,M,M,M,85.62,KHTH 092055Z AUTO VRB05G13KT 10SM CLR 32/02 A2995 RMK A01,M
BAM,2023-08-09 20:55,-116.8743,40.5990,1382.36,93.20,37.40,14.23,230.00,3.00,0.00,29.98,M,10.00,M,CLR,M,M,M,M,M,M,M,M,M,M,M,M,M,M,88.83,KBAM 092055Z AUTO 23003KT 10SM CLR 34/03 A2998 RMK AO1,M
TMT,2023-08-09 20:55,-117.1971,39.4643,1749.34,87.30,32.40,14.04,260.00,7.00,0.00,30.06,M,M,17.00,SCT,M,M,M,12000.00,M,M,M,M,M,M,M,M,M,M,83.68,KTMT 092055Z AUTO 26007G17KT SCT120 31/00 A3006 RMK AO2 T03070002 PWINO,M
10U,2023-08-09 20:55,-116.1876,41.9532,1637.00,86.00,33.80,15.48,250.00,12.00,0.00,30.04,M,10.00,23.00,FEW,M,M,M,11000.00,M,M,M,M,M,M,M,M,M,M,82.66,K10U 092055Z AUTO 25012G23KT 10SM FEW110 30/01 A3004 RMK AO2,M
LSV,2023-08-09 20:55,-115.0343,36.2362,570.00,103.30,38.50,10.93,200.00,16.00,0.00,29.80,1006.10,10.00,23.00,FEW,SCT,SCT,M,14000.00,17000.00,19000.00,M,M,M,M,M,M,M,M,97.80,KLSV 092055Z AUTO 20016G23KT 10SM FEW140 SCT170 SCT190 40/04 A2980 RMK AO2 SLP061 T03960036 57016 $,M
EKO,2023-08-09 20:56,-115.7860,40.8242,1367.00,86.00,38.00,18.28,M,5.00,0.00,30.01,1010.50,10.00,M,CLR,M,M,M,M,M,M,M,M,M,M,M,M,M,M,82.75,KEKO 092056Z AUTO VRB05KT 10SM CLR 30/03 A3001 RMK AO2 SLP105 T03000033 56018,M
WMC,2023-08-09 20:56,-117.8072,40.9019,1315.00,92.00,32.00,11.91,270.00,11.00,0.00,29.96,1009.30,10.00,27.00,CLR,M,M,M,M,M,M,M,M,M,M,M,27.00,270.00,2023-08-09 20:51,87.38,KWMC 092056Z AUTO 27011G27KT 10SM CLR 33/00 A2996 RMK AO2 PK WND 27027/2051 SLP093 T03330000 58017,M
NFL,2023-08-09 20:56,-118.7010,39.4166,1199.00,86.00,37.00,17.57,M,5.00,0.00,29.96,1011.70,10.00,M,FEW,SCT,BKN,M,8000.00,15000.00,25000.00,M,M,M,M,M,M,M,M,82.72,KNFL 092056Z VRB05KT 10SM FEW080 SCT150 BKN250 30/03 A2996 RMK AO2 SLP117 T03000028 58016,M
HND,2023-08-09 20:56,-115.1344,35.9729,742.79,98.00,37.00,12.08,230.00,12.00,0.00,29.90,1010.80,10.00,M,FEW,M,M,M,11000.00,M,M,M,M,M,M,M,M,M,M,92.97,KHND 092056Z 23012KT 10SM FEW110 37/03 A2990 RMK AO2 SLP108 T03670028 58012,M
TPH,2023-08-09 20:56,-117.0904,38.0505,1654.00,87.00,45.00,23.20,170.00,9.00,0.00,30.05,1009.50,10.00,14.00,CLR,M,M,M,M,M,M,M,M,M,M,M,M,M,M,83.90,KTPH 092056Z AUTO 17009G14KT 10SM CLR 31/07 A3005 RMK AO2 SLP095 T03060072 58015 $,M
LAS,2023-08-09 20:56,-115.1634,36.0719,663.00,98.00,38.00,12.57,210.00,10.00,0.00,29.86,1008.10,10.00,20.00,FEW,SCT,M,M,11000.00,15000.00,M,M,M,M,M,M,M,M,M,93.15,KLAS 092056Z 21010G20KT 10SM FEW110 SCT150 37/03 A2986 RMK AO2 SLP081 T03670033 58013,M
INS,2023-08-09 20:57,-115.6733,36.5872,955.00,86.00,50.00,28.90,190.00,22.00,0.00,29.95,1009.60,10.00,33.00,BKN,OVC,M,M,11000.00,13000.00,M,M,TS -DZ,M,M,M,M,M,M,83.62,KINS 092057Z AUTO 19022G33KT 10SM TS -DZ BKN110 OVC130 30/10 A2995 RMK AO2 WSHFT 42 SLP096 $,M
INS,2023-08-09 21:02,-115.6733,36.5872,955.00,82.40,53.60,37.07,150.00,13.00,0.00,29.95,1009.70,10.00,30.00,FEW,OVC,M,M,8000.00,12000.00,M,M,TS -DZ,M,M,M,M,M,M,81.46,KINS 092102Z AUTO 15013G30KT 10SM TS -DZ FEW080 OVC120 28/12 A2995 RMK AO2 WSHFT 2057 SLP097 $,M
INS,2023-08-09 21:03,-115.6733,36.5872,955.00,82.40,53.60,37.07,100.00,10.00,0.00,29.95,1009.70,9.00,30.00,FEW,SCT,OVC,M,300.00,8000.00,12000.00,M,TSRA,M,M,M,M,M,M,81.46,KINS 092103Z AUTO 10010G30KT 9SM TSRA FEW003 SCT080 OVC120 28/12 A2995 RMK AO2 WSHFT 02 DZE03RAB03 SLP097 $,M
RTS,2023-08-09 21:04,-119.8764,39.6682,1539.00,86.00,21.20,9.21,250.00,15.00,0.00,30.05,M,10.00,M,CLR,M,M,M,M,M,M,M,M,M,M,M,M,M,M,82.04,KRTS 092104Z AUTO 25015KT 10SM CLR 30/M06 A3005 RMK AO2,M
INS,2023-08-09 21:13,-115.6733,36.5872,955.00,84.20,48.20,28.63,290.00,6.00,0.00,29.93,1009.00,10.00,M,FEW,SCT,OVC,M,300.00,8000.00,13000.00,M,-RA,M,M,M,M,M,M,82.04,KINS 092113Z AUTO 29006KT 10SM -RA FEW003 SCT080 OVC130 29/09 A2993 RMK AO2 DZE03RAB03 TSE13 PRESFR SLP090 $,M
BVU,2023-08-09 21:15,-114.8611,35.9475,671.00,102.20,32.00,8.72,290.00,9.00,0.00,29.84,M,10.00,15.00,CLR,M,M,M,M,M,M,M,M,M,M,M,M,M,M,95.74,KBVU 092115Z AUTO 29009G15KT 10SM CLR 39/M00 A2984 RMK AO2,M
CXP,2023-08-09 21:15,-119.7326,39.1923,1431.00,87.80,24.80,10.12,270.00,11.00,0.00,30.02,M,10.00,M,CLR,M,M,M,M,M,M,M,M,M,M,M,M,M,M,83.56,KCXP 092115Z AUTO 27011KT 10SM CLR 31/M04 A3002 RMK AO2,M
05U,2023-08-09 21:15,-116.0051,39.6042,1811.23,86.00,30.20,13.38,M,M,0.00,30.07,M,10.00,M,M,M,M,M,M,M,M,M,M,M,M,M,M,M,M,82.64,K05U 092115Z AUTO 10SM 30/M01 A3007 RMK A01,M
MEV,2023-08-09 21:15,-119.7500,38.9963,1441.42,87.80,26.60,10.91,280.00,10.00,0.00,30.01,M,10.00,15.00,CLR,M,M,M,M,M,M,M,M,M,M,M,M,M,M,83.69,KMEV 092115Z AUTO 28010G15KT 10SM CLR 31/M03 A3001 RMK AO2,M
HTH,2023-08-09 21:15,-118.6315,38.5448,1282.89,89.60,35.60,14.83,M,4.00,0.00,29.94,M,10.00,10.00,CLR,M,M,M,M,M,M,M,M,M,M,M,M,M,M,85.62,KHTH 092115Z AUTO VRB04G10KT 10SM CLR 32/02 A2994 RMK A01,M
10U,2023-08-09 21:15,-116.1876,41.9532,1637.00,86.00,32.00,14.40,300.00,8.00,0.00,30.03,M,10.00,22.00,FEW,M,M,M,11000.00,M,M,M,M,M,M,M,M,M,M,82.64,K10U 092115Z AUTO 30008G22KT 10SM FEW110 30/M00 A3003 RMK AO2,M
BAM,2023-08-09 21:15,-116.8743,40.5990,1382.36,91.40,35.60,14.02,280.00,11.00,0.00,29.97,M,10.00,14.00,CLR,M,M,M,M,M,M,M,M,M,M,M,M,M,M,87.17,KBAM 092115Z AUTO 28011G14KT 230V300 10SM CLR 33/02 A2997 RMK AO1,M
TMT,2023-08-09 21:15,-117.1971,39.4643,1749.34,86.00,32.40,14.63,130.00,4.00,0.00,30.05,M,M,19.00,CLR,M,M,M,M,M,M,M,M,M,M,M,M,M,M,82.65,KTMT 092115Z AUTO 13004G19KT CLR 30/00 A3005 RMK AO2 T03010002 PWINO,M
INS,2023-08-09 21:16,-115.6733,36.5872,955.00,84.20,50.00,30.62,310.00,5.00,0.00,29.93,1009.00,10.00,M,FEW,FEW,BKN,M,300.00,8000.00,12000.00,M,M,M,M,M,M,M,M,82.24,KINS 092116Z AUTO 31005KT 10SM FEW003 FEW080 BKN120 29/10 A2993 RMK AO2 DZE03RAB03E16 TSE13 SLP090 $,M
RTS,2023-08-09 21:24,-119.8764,39.6682,1539.00,84.20,21.20,9.76,250.00,11.00,0.00,30.05,M,10.00,22.00,CLR,M,M,M,M,M,M,M,M,M,M,M,M,M,M,80.77,KRTS 092124Z AUTO 25011G22KT 10SM CLR 29/M06 A3005 RMK AO2,M
BVU,2023-08-09 21:35,-114.8611,35.9475,671.00,102.20,32.00,8.72,230.00,10.00,0.00,29.83,M,10.00,15.00,CLR,M,M,M,M,M,M,M,M,M,M,M,M,M,M,95.74,KBVU 092135Z AUTO 23010G15KT 10SM CLR 39/M00 A2983 RMK AO2,M
CXP,2023-08-09 21:35,-119.7326,39.1923,1431.00,86.00,26.60,11.55,290.00,11.00,0.00,30.02,M,10.00,18.00,CLR,M,M,M,M,M,M,M,M,M,M,M,M,M,M,82.39,KCXP 092135Z AUTO 29011G18KT 10SM CLR 30/M03 A3002 RMK AO2,M
05U,2023-08-09 21:35,-116.0051,39.6042,1811.23,89.60,28.40,11.09,M,M,0.00,30.06,M,7.00,M,M,M,M,M,M,M,M,M,M,M,M,M,M,M,M,85.17,K05U 092135Z AUTO 7SM 32/M02 A3006 RMK A01,M
MEV,2023-08-09 21:35,-119.7500,38.9963,1441.42,86.00,26.60,11.55,270.00,11.00,0.00,30.01,M,10.00,M,CLR,M,M,M,M,M,M,M,M,M,M,M,M,M,M,82.39,KMEV 092135Z AUTO 27011KT 10SM CLR 30/M03 A3001 RMK AO2,M
HTH,2023-08-09 21:35,-118.6315,38.5448,1282.89,91.40,35.60,14.02,290.00,8.00,0.00,29.93,M,10.00,M,CLR,M,M,M,M,M,M,M,M,M,M,M,M,M,M,87.17,KHTH 092135Z AUTO 29008KT 10SM CLR 33/02 A2993 RMK A01,M
10U,2023-08-09 21:35,-116.1876,41.9532,1637.00,86.00,28.40,12.44,270.00,11.00,0.00,30.02,M,10.00,20.00,CLR,M,M,M,M,M,M,M,M,M,M,M,M,M,M,82.54,K10U 092135Z AUTO 27011G20KT 10SM CLR 30/M02 A3002 RMK AO2,M
BAM,2023-08-09 21:35,-116.8743,40.5990,1382.36,89.60,35.60,14.83,270.00,10.00,0.00,29.97,M,10.00,14.00,CLR,M,M,M,M,M,M,M,M,M,M,M,M,M,M,85.62,KBAM 092135Z AUTO 27010G14KT 10SM CLR 32/02 A2997 RMK AO1,M
TMT,2023-08-09 21:35,-117.1971,39.4643,1749.34,89.40,32.40,13.13,240.00,13.00,0.00,30.05,M,M,20.00,CLR,M,M,M,M,M,M,M,M,M,M,M,M,M,M,85.41,KTMT 092135Z AUTO 24013G20KT CLR 32/00 A3005 RMK AO2 T03190002 PWINO,M
RTS,2023-08-09 21:44,-119.8764,39.6682,1539.00,86.00,17.60,7.90,240.00,13.00,0.00,30.04,M,10.00,20.00,CLR,M,M,M,M,M,M,M,M,M,M,M,M,M,M,81.85,KRTS 092144Z AUTO 24013G20KT 10SM CLR 30/M08 A3004 RMK AO2,M
05U,2023-08-09 21:50,-116.0051,39.6042,1811.23,89.60,28.40,11.09,M,M,0.00,30.05,M,10.00,M,M,M,M,M,M,M,M,M,M,M,M,M,M,M,M,85.17,K05U 092150Z AUTO 10SM 32/M02 A3005 RMK A01,M
P68,2023-08-09 21:53,-116.0056,39.6014,1993.00,87.00,28.00,11.85,M,3.00,0.00,30.02,1008.20,M,M,M,M,M,M,M,M,M,M,M,M,M,M,M,M,M,83.22,KP68 092153Z AUTO VRB03KT 31/M02 A3002 RMK AO1 SLP082 T03061022,M
DRA,2023-08-09 21:53,-116.0278,36.6206,1009.00,95.00,21.00,6.89,220.00,10.00,0.00,29.93,1008.10,10.00,M,CLR,M,M,M,M,M,M,M,M,M,M,M,M,M,M,88.61,KDRA 092153Z AUTO 22010KT 10SM CLR 35/M06 A2993 RMK AO2 SLP081 T03501061,M
ELY,2023-08-09 21:53,-114.8453,39.2950,1909.00,85.00,28.00,12.63,270.00,6.00,0.00,30.09,1009.30,10.00,25.00,CLR,M,M,M,M,M,M,M,M,M,M,M,M,M,M,81.80,KELY 092153Z AUTO 27006G25KT 10SM CLR 29/M02 A3009 RMK AO2 SLP093 T02941022,M
VGT,2023-08-09 21:53,-115.1933,36.2111,667.00,101.00,41.00,12.90,190.00,16.00,0.00,29.82,1008.40,10.00,21.00,CLR,M,M,M,M,M,M,M,M,M,M,M,26.00,200.00,2023-08-09 21:30,96.34,KVGT 092153Z 19016G21KT 10SM CLR 38/05 A2982 RMK AO2 PK WND 20026/2130 SLP084 T03830050,M
LOL,2023-08-09 21:53,-118.5701,40.0684,1192.43,90.00,37.00,15.48,130.00,11.00,0.00,29.92,1009.10,10.00,M,CLR,M,M,M,M,M,M,M,M,M,M,M,M,M,M,86.00,KLOL 092153Z AUTO 13011KT 10SM CLR 32/03 A2992 RMK AO2 SLP091 T03220028,M
BVU,2023-08-09 21:55,-114.8611,35.9475,671.00,102.20,32.00,8.72,210.00,12.00,0.00,29.82,M,10.00,M,CLR,M,M,M,M,M,M,M,M,M,M,M,M,M,M,95.74,KBVU 092155Z AUTO 21012KT 10SM CLR 39/M00 A2982 RMK AO2,M
CXP,2023-08-09 21:55,-119.7326,39.1923,1431.00,86.00,26.60,11.55,250.00,11.00,0.00,30.02,M,10.00,19.00,CLR,M,M,M,M,M,M,M,M,M,M,M,M,M,M,82.39,KCXP 092155Z AUTO 25011G19KT 10SM CLR 30/M03 A3002 RMK AO2,M
RNO,2023-08-09 21:55,-119.7711,39.4839,1341.00,91.00,29.00,10.88,300.00,15.00,0.00,29.98,1009.00,10.00,21.00,SCT,M,M,M,24000.00,M,M,M,M,M,M,M,M,M,M,86.28,KRNO 092155Z 30015G21KT 10SM SCT240 33/M02 A2998 RMK AO2 SLP090 T03281017,M
MEV,2023-08-09 21:55,-119.7500,38.9963,1441.42,87.80,28.40,11.74,300.00,9.00,0.00,30.00,M,10.00,16.00,CLR,M,M,M,M,M,M,M,M,M,M,M,M,M,M,83.84,KMEV 092155Z AUTO 30009G16KT 10SM CLR 31/M02 A3000 RMK AO2,M
HTH,2023-08-09 21:55,-118.6315,38.5448,1282.89,91.40,33.80,13.05,340.00,7.00,0.00,29.92,M,10.00,M,CLR,M,M,M,M,M,M,M,M,M,M,M,M,M,M,87.13,KHTH 092155Z AUTO 34007KT 10SM CLR 33/01 A2992 RMK A01,M
BAM,2023-08-09 21:55,-116.8743,40.5990,1382.36,89.60,33.80,13.80,270.00,10.00,0.00,29.96,M,10.00,19.00,CLR,M,M,M,M,M,M,M,M,M,M,M,M,M,M,85.59,KBAM 092155Z AUTO 27010G19KT 10SM CLR 32/01 A2996 RMK AO1,M
TMT,2023-08-09 21:55,-117.1971,39.4643,1749.34,87.80,30.60,12.85,220.00,5.00,0.00,30.04,M,M,15.00,CLR,M,M,M,M,M,M,M,M,M,M,M,M,M,M,84.05,KTMT 092155Z AUTO 22005G15KT CLR 31/M01 A3004 RMK AO2 T03101008 PWINO,M
10U,2023-08-09 21:55,-116.1876,41.9532,1637.00,87.80,28.40,11.74,260.00,11.00,0.00,30.02,M,10.00,19.00,CLR,M,M,M,M,M,M,M,M,M,M,M,M,M,M,83.84,K10U 092155Z AUTO 26011G19KT 230V290 10SM CLR 31/M02 A3002 RMK AO2,M
INS,2023-08-09 21:55,-115.6733,36.5872,955.00,89.00,42.80,20.02,300.00,5.00,0.03,29.91,1008.00,10.00,M,FEW,SCT,BKN,M,12000.00,16000.00,18000.00,M,M,M,M,M,30.00,190.00,2023-08-09 20:55,85.41,KINS 092155Z AUTO 30005KT 10SM FEW120 SCT160 BKN180 32/06 A2991 RMK AO2 PK WND 19030/2055 DZE03RAB03E16 TSE13 SLP080 P0003 T03170060 $,M
LSV,2023-08-09 21:55,-115.0343,36.2362,570.00,103.30,41.00,12.04,180.00,16.00,0.00,29.78,1005.40,10.00,M,FEW,M,M,M,20000.00,M,M,M,M,M,M,M,M,M,M,98.35,KLSV 092155Z AUTO 18016KT 10SM FEW200 40/05 A2978 RMK AO2 SLP054 T03960049 $,M
EKO,2023-08-09 21:56,-115.7860,40.8242,1367.00,87.00,39.00,18.41,220.00,5.00,0.00,29.99,1010.00,10.00,M,CLR,M,M,M,M,M,M,M,M,M,M,M,M,M,M,83.57,KEKO 092156Z AUTO 22005KT 10SM CLR 31/04 A2999 RMK AO2 SLP100 T03060039,M
WMC,2023-08-09 21:56,-117.8072,40.9019,1315.00,89.00,29.00,11.59,220.00,8.00,0.00,29.95,1009.40,10.00,M,CLR,M,M,M,M,M,M,M,M,M,M,M,28.00,230.00,2023-08-09 21:35,84.78,KWMC 092156Z AUTO 22008KT 10SM CLR 32/M02 A2995 RMK AO2 PK WND 23028/2135 SLP094 T03171017,M
NFL,2023-08-09 21:56,-118.7010,39.4166,1199.00,89.00,37.00,15.97,M,5.00,0.00,29.93,1010.90,10.00,M,FEW,SCT,BKN,M,8000.00,15000.00,25000.00,M,M,M,M,M,M,M,M,85.15,KNFL 092156Z VRB05KT 10SM FEW080 SCT150 BKN250 32/03 A2993 RMK AO2 SLP109 T03170028,M
HND,2023-08-09 21:56,-115.1344,35.9729,742.79,100.00,44.00,14.92,230.00,12.00,0.00,29.88,1009.90,10.00,20.00,CLR,M,M,M,M,M,M,M,M,M,M,M,M,M,M,95.83,KHND 092156Z 23012G20KT 10SM CLR 38/07 A2988 RMK AO2 SLP099 T03780067,M
TPH,2023-08-09 21:56,-117.0904,38.0505,1654.00,90.00,47.00,22.76,210.00,13.00,0.00,30.03,1008.60,10.00,24.00,CLR,M,M,M,M,M,M,M,M,M,M,M,M,M,M,86.66,KTPH 092156Z AUTO 21013G24KT 10SM CLR 32/08 A3003 RMK AO2 SLP086 T03220083 $,M
LAS,2023-08-09 21:56,-115.1634,36.0719,663.00,100.00,45.00,15.50,260.00,13.00,0.00,29.85,1007.40,10.00,M,FEW,SCT,BKN,M,11000.00,15000.00,22000.00,M,M,M,M,M,M,M,M,95.99,KLAS 092156Z 26013KT 10SM FEW110 SCT150 BKN220 38/07 A2985 RMK AO2 SLP074 VIRGA OHD-N CB DSNT NW-NE-E VCSH DSNT N T03780072,M
RTS,2023-08-09 22:04,-119.8764,39.6682,1539.00,84.20,17.60,8.37,250.00,14.00,0.00,30.04,M,10.00,22.00,CLR,M,M,M,M,M,M,M,M,M,M,M,M,M,M,80.59,KRTS 092204Z AUTO 25014G22KT 10SM CLR 29/M08 A3004 RMK AO2,M
BVU,2023-08-09 22:15,-114.8611,35.9475,671.00,102.20,32.00,8.72,270.00,9.00,0.00,29.81,M,10.00,M,CLR,M,M,M,M,M,M,M,M,M,M,M,M,M,M,95.74,KBVU 092215Z AUTO 27009KT 10SM CLR 39/00 A2981 RMK AO2,M
CXP,2023-08-09 22:15,-119.7326,39.1923,1431.00,87.80,30.20,12.64,280.00,12.00,0.00,30.01,M,10.00,21.00,CLR,M,M,M,M,M,M,M,M,M,M,M,M,M,M,84.01,KCXP 092215Z AUTO 28012G21KT 10SM CLR 31/M01 A3001 RMK AO2,M
05U,2023-08-09 22:15,-116.0051,39.6042,1811.23,87.80,30.20,12.64,M,M,0.00,30.04,M,10.00,M,M,M,M,M,M,M,M,M,M,M,M,M,M,M,M,84.01,K05U 092215Z AUTO 10SM 31/M01 A3004 RMK A01,M
MEV,2023-08-09 22:15,-119.7500,38.9963,1441.42,86.00,30.20,13.38,290.00,13.00,0.00,30.00,M,10.00,18.00,CLR,M,M,M,M,M,M,M,M,M,M,M,M,M,M,82.64,KMEV 092215Z AUTO 29013G18KT 10SM CLR 30/M01 A3000 RMK AO2,M
HTH,2023-08-09 22:15,-118.6315,38.5448,1282.89,93.20,33.80,12.34,320.00,10.00,0.00,29.91,M,10.00,M,CLR,M,M,M,M,M,M,M,M,M,M,M,M,M,M,88.55,KHTH 092215Z AUTO 32010KT 10SM CLR 34/01 A2991 RMK A01,M
10U,2023-08-09 22:15,-116.1876,41.9532,1637.00,87.80,28.40,11.74,250.00,9.00,0.00,30.01,M,10.00,23.00,CLR,M,M,M,M,M,M,M,M,M,M,M,M,M,M,83.84,K10U 092215Z AUTO 25009G23KT 10SM CLR 31/M02 A3001 RMK AO2,M
BAM,2023-08-09 22:15,-116.8743,40.5990,1382.36,89.60,33.80,13.80,270.00,11.00,0.00,29.96,M,10.00,M,CLR,M,M,M,M,M,M,M,M,M,M,M,M,M,M,85.59,KBAM 092215Z AUTO 27011KT 10SM CLR 32/01 A2996 RMK AO1,M
TMT,2023-08-09 22:15,-117.1971,39.4643,1749.34,87.00,31.00,13.39,290.00,3.00,0.00,30.03,M,M,M,CLR,M,M,M,M,M,M,M,M,M,M,M,M,M,M,83.43,KTMT 092215Z AUTO 29003KT CLR 31/M01 A3003 RMK AO2 T03061006 PWINO,M
RTS,2023-08-09 22:24,-119.8764,39.6682,1539.00,86.00,21.20,9.21,240.00,19.00,0.00,30.04,M,10.00,M,CLR,M,M,M,M,M,M,M,M,M,M,M,M,M,M,82.04,KRTS 092224Z AUTO 24019KT 10SM CLR 30/M06 A3004 RMK AO2,M
05U,2023-08-09 22:30,-116.0051,39.6042,1811.23,91.40,30.20,11.28,M,M,0.00,30.04,M,10.00,M,M,M,M,M,M,M,M,M,M,M,M,M,M,M,M,86.71,K05U 092230Z AUTO 10SM 33/M01 A3004 RMK A01,M
BVU,2023-08-09 22:35,-114.8611,35.9475,671.00,102.20,33.80,9.37,250.00,8.00,0.00,29.81,M,10.00,14.00,CLR,M,M,M,M,M,M,M,M,M,M,M,M,M,M,96.01,KBVU 092235Z AUTO 25008G14KT 10SM CLR 39/01 A2981 RMK AO2,M
CXP,2023-08-09 22:35,-119.7326,39.1923,1431.00,86.00,30.20,13.38,270.00,11.00,0.00,30.01,M,10.00,19.00,CLR,M,M,M,M,M,M,M,M,M,M,M,M,M,M,82.64,KCXP 092235Z AUTO 27011G19KT 10SM CLR 30/M01 A3001 RMK AO2,M
MEV,2023-08-09 22:35,-119.7500,38.9963,1441.42,86.00,33.80,15.48,280.00,17.00,0.00,29.99,M,10.00,M,CLR,M,M,M,M,M,M,M,M,M,M,M,M,M,M,82.66,KMEV 092235Z AUTO 28017KT 10SM CLR 30/01 A2999 RMK AO2,M
HTH,2023-08-09 22:35,-118.6315,38.5448,1282.89,91.40,32.00,12.14,340.00,8.00,0.00,29.91,M,10.00,15.00,CLR,M,M,M,M,M,M,M,M,M,M,M,M,M,M,86.91,KHTH 092235Z AUTO 34008G15KT 10SM CLR 33/M00 A2991 RMK A01,M
10U,2023-08-09 22:35,-116.1876,41.9532,1637.00,84.20,26.60,12.23,250.00,14.00,0.00,30.01,M,10.00,M,CLR,M,M,M,M,M,M,M,M,M,M,M,M,M,M,81.13,K10U 092235Z AUTO 25014KT 10SM CLR 29/M03 A3001 RMK AO2,M
BAM,2023-08-09 22:35,-116.8743,40.5990,1382.36,89.60,30.20,11.94,270.00,12.00,0.00,29.95,M,10.00,19.00,CLR,M,M,M,M,M,M,M,M,M,M,M,M,M,M,85.34,KBAM 092235Z AUTO 27012G19KT 10SM CLR 32/M01 A2995 RMK AO1,M
TMT,2023-08-09 22:35,-117.1971,39.4643,1749.34,89.00,29.00,11.59,220.00,9.00,0.00,30.03,M,M,16.00,CLR,M,M,M,M,M,M,M,M,M,M,M,M,M,M,84.78,KTMT 092235Z AUTO 22009G16KT CLR 32/M02 A3003 RMK AO2 T03161017 PWINO,M
RTS,2023-08-09 22:44,-119.8764,39.6682,1539.00,86.00,19.40,8.53,240.00,19.00,0.00,30.04,M,10.00,M,CLR,M,M,M,M,M,M,M,M,M,M,M,M,M,M,81.94,KRTS 092244Z AUTO 24019KT 10SM CLR 30/M07 A3004 RMK AO2,M
P68,2023-08-09 22:53,-116.0056,39.6014,1993.00,88.00,25.00,10.14,0.00,0.00,0.00,30.00,1007.20,M,M,M,M,M,M,M,M,M,M,M,M,M,M,M,M,M,83.71,KP68 092253Z AUTO 00000KT 31/M04 A3000 RMK AO1 SLP072 T03111039,M
DRA,2023-08-09 22:53,-116.0278,36.6206,1009.00,96.00,26.00,8.24,230.00,11.00,0.00,29.92,1007.60,10.00,20.00,CLR,M,M,M,M,M,M,M,M,M,M,M,M,M,M,89.85,KDRA 092253Z AUTO 23011G20KT 10SM CLR 36/M03 A2992 RMK AO2 SLP076 T03561033,M
ELY,2023-08-09 22:53,-114.8453,39.2950,1909.00,85.00,27.00,12.12,180.00,5.00,0.00,30.07,1008.60,10.00,25.00,CLR,M,M,M,M,M,M,M,M,M,M,M,M,M,M,81.72,KELY 092253Z AUTO 18005G25KT 10SM CLR 29/M03 A3007 RMK AO2 SLP086 T02941028,M
VGT,2023-08-09 22:53,-115.1933,36.2111,667.00,100.00,44.00,14.92,170.00,13.00,0.00,29.80,1007.70,10.00,M,CLR,M,M,M,M,M,M,M,M,M,M,M,M,M,M,95.83,KVGT 092253Z 17013KT 10SM CLR 38/07 A2980 RMK AO2 SLP077 T03780067,M
LOL,2023-08-09 22:53,-118.5701,40.0684,1192.43,92.00,33.00,12.40,M,M,0.00,29.90,1008.30,10.00,M,CLR,M,M,M,M,M,M,M,M,M,M,M,M,M,M,87.50,KLOL 092253Z AUTO 10SM CLR 33/01 A2990 RMK AO2 SLP083 T03330006,M
BVU,2023-08-09 22:55,-114.8611,35.9475,671.00,104.00,35.60,9.54,210.00,8.00,0.00,29.80,M,10.00,18.00,CLR,M,M,M,M,M,M,M,M,M,M,M,M,M,M,97.85,KBVU 092255Z AUTO 21008G18KT 10SM CLR 40/02 A2980 RMK AO2,M
CXP,2023-08-09 22:55,-119.7326,39.1923,1431.00,86.00,32.00,14.40,260.00,14.00,0.00,30.01,M,10.00,21.00,CLR,M,M,M,M,M,M,M,M,M,M,M,M,M,M,82.64,KCXP 092255Z AUTO 26014G21KT 10SM CLR 30/00 A3001 RMK AO2,M
RNO,2023-08-09 22:55,-119.7711,39.4839,1341.00,91.00,32.00,12.29,270.00,14.00,0.00,29.97,1008.70,10.00,22.00,FEW,M,M,M,25000.00,M,M,M,M,M,M,M,M,M,M,86.61,KRNO 092255Z 27014G22KT 10SM FEW250 33/00 A2997 RMK AO2 SLP087 T03280000,M
05U,2023-08-09 22:55,-116.0051,39.6042,1811.23,91.40,26.60,9.74,M,M,0.00,30.03,M,10.00,M,M,M,M,M,M,M,M,M,M,M,M,M,M,M,M,86.36,K05U 092255Z AUTO 10SM 33/M03 A3003 RMK A01,M
MEV,2023-08-09 22:55,-119.7500,38.9963,1441.42,86.00,33.80,15.48,290.00,13.00,0.00,29.99,M,10.00,23.00,CLR,M,M,M,M,M,M,M,M,M,M,M,M,M,M,82.66,KMEV 092255Z AUTO 29013G23KT 10SM CLR 30/01 A2999 RMK AO2,M
HTH,2023-08-09 22:55,-118.6315,38.5448,1282.89,93.20,30.20,10.67,320.00,12.00,0.00,29.90,M,10.00,M,CLR,M,M,M,M,M,M,M,M,M,M,M,M,M,M,88.09,KHTH 092255Z AUTO 32012KT 10SM CLR 34/M01 A2990 RMK A01,M
BAM,2023-08-09 22:55,-116.8743,40.5990,1382.36,91.40,28.40,10.48,280.00,9.00,0.00,29.95,M,10.00,M,CLR,M,M,M,M,M,M,M,M,M,M,M,M,M,M,86.53,KBAM 092255Z AUTO 28009KT 10SM CLR 33/M02 A2995 RMK AO1,M
TMT,2023-08-09 22:55,-117.1971,39.4643,1749.34,89.00,29.00,11.59,250.00,7.00,0.00,30.02,M,M,M,CLR,M,M,M,M,M,M,M,M,M,M,M,M,M,M,84.78,KTMT 092255Z AUTO 25007KT 240V310 CLR 32/M02 A3002 RMK AO2 T03161017 PWINO,M
10U,2023-08-09 22:55,-116.1876,41.9532,1637.00,86.00,30.20,13.38,260.00,13.00,0.00,30.00,M,10.00,18.00,CLR,M,M,M,M,M,M,M,M,M,M,M,M,M,M,82.64,K10U 092255Z AUTO 26013G18KT 10SM CLR 30/M01 A3000 RMK AO2,M
INS,2023-08-09 22:55,-115.6733,36.5872,955.00,93.60,37.20,13.94,350.00,8.00,0.00,29.89,1007.50,10.00,M,FEW,FEW,M,M,15000.00,20000.00,M,M,M,M,M,M,M,M,M,89.18,KINS 092255Z AUTO 35008KT 10SM FEW150 FEW200 34/03 A2989 RMK AO2 SLP075 T03420029 $,M
LSV,2023-08-09 22:55,-115.0343,36.2362,570.00,102.70,44.40,13.97,190.00,15.00,0.00,29.76,1004.80,10.00,M,CLR,M,M,M,M,M,M,M,M,M,M,M,M,M,M,98.52,KLSV 092255Z AUTO 19015KT 10SM CLR 39/07 A2976 RMK AO2 SLP048 T03930069 $,M
EKO,2023-08-09 22:56,-115.7860,40.8242,1367.00,90.00,38.00,16.10,M,5.00,0.00,29.96,1008.90,10.00,15.00,FEW,M,M,M,12000.00,M,M,M,M,M,M,M,M,M,M,86.03,KEKO 092256Z AUTO VRB05G15KT 10SM FEW120 32/03 A2996 RMK AO2 SLP089 T03220033,M
WMC,2023-08-09 22:56,-117.8072,40.9019,1315.00,89.00,26.00,10.24,230.00,9.00,0.00,29.94,1008.90,10.00,17.00,CLR,M,M,M,M,M,M,M,M,M,M,M,M,M,M,84.52,KWMC 092256Z AUTO 23009G17KT 10SM CLR 32/M03 A2994 RMK AO2 SLP089 T03171033,M
NFL,2023-08-09 22:56,-118.7010,39.4166,1199.00,92.00,35.00,13.43,M,5.00,0.00,29.91,1010.20,10.00,M,FEW,SCT,BKN,M,8000.00,15000.00,25000.00,M,M,M,M,M,M,M,M,87.68,KNFL 092256Z VRB05KT 10SM FEW080 SCT150 BKN250 33/02 A2991 RMK AO2 SLP102 T03330017,M
HND,2023-08-09 22:56,-115.1344,35.9729,742.79,99.00,48.00,17.90,220.00,13.00,0.00,29.86,1009.20,10.00,20.00,CLR,M,M,M,M,M,M,M,M,M,M,M,M,M,M,95.54,KHND 092256Z 22013G20KT 10SM CLR 37/09 A2986 RMK AO2 SLP092 T03720089,M
TPH,2023-08-09 22:56,-117.0904,38.0505,1654.00,90.00,47.00,22.76,190.00,14.00,0.00,30.01,1008.00,10.00,25.00,CLR,M,M,M,M,M,M,M,M,M,M,M,M,M,M,86.66,KTPH 092256Z AUTO 19014G25KT 10SM CLR 32/08 A3001 RMK AO2 SLP080 T03220083,M
LAS,2023-08-09 22:56,-115.1634,36.0719,663.00,99.00,45.00,15.98,240.00,12.00,0.00,29.82,1006.60,10.00,19.00,FEW,SCT,BKN,M,11000.00,15000.00,22000.00,M,M,M,M,M,M,M,M,95.00,KLAS 092256Z 24012G19KT 10SM FEW110 SCT150 BKN220 37/07 A2982 RMK AO2 SLP066 T03720072,M
RTS,2023-08-09 23:04,-119.8764,39.6682,1539.00,84.20,19.40,9.04,230.00,13.00,0.00,30.04,M,10.00,20.00,CLR,M,M,M,M,M,M,M,M,M,M,M,M,M,M,80.68,KRTS 092304Z AUTO 23013G20KT 10SM CLR 29/M07 A3004 RMK AO2,M
05U,2023-08-09 23:10,-116.0051,39.6042,1811.23,91.40,26.60,9.74,M,M,0.00,30.02,M,10.00,M,M,M,M,M,M,M,M,M,M,M,M,M,M,M,M,86.36,K05U 092310Z AUTO 10SM 33/M03 A3002 RMK A01,M
BVU,2023-08-09 23:15,-114.8611,35.9475,671.00,102.20,35.60,10.07,220.00,9.00,0.00,29.80,M,10.00,16.00,CLR,M,M,M,M,M,M,M,M,M,M,M,M,M,M,96.30,KBVU 092315Z AUTO 22009G16KT 10SM CLR 39/02 A2980 RMK AO2,M
CXP,2023-08-09 23:15,-119.7326,39.1923,1431.00,86.00,33.80,15.48,280.00,13.00,0.00,30.01,M,10.00,21.00,CLR,M,M,M,M,M,M,M,M,M,M,M,M,M,M,82.66,KCXP 092315Z AUTO 28013G21KT 240V300 10SM CLR 30/01 A3001 RMK AO2,M
MEV,2023-08-09 23:15,-119.7500,38.9963,1441.42,86.00,37.40,17.85,280.00,14.00,0.00,29.99,M,10.00,21.00,CLR,M,M,M,M,M,M,M,M,M,M,M,M,M,M,82.73,KMEV 092315Z AUTO 28014G21KT 10SM CLR 30/03 A2999 RMK AO2,M
BAM,2023-08-09 23:15,-116.8743,40.5990,1382.36,89.60,30.20,11.94,270.00,9.00,0.00,29.95,M,10.00,15.00,CLR,M,M,M,M,M,M,M,M,M,M,M,M,M,M,85.34,KBAM 092315Z AUTO 27009G15KT 10SM CLR 32/M01 A2995 RMK AO1,M
HTH,2023-08-09 23:15,-118.6315,38.5448,1282.89,93.20,30.20,10.67,340.00,11.00,0.00,29.89,M,10.00,M,CLR,M,M,M,M,M,M,M,M,M,M,M,M,M,M,88.09,KHTH 092315Z AUTO 34011KT 10SM CLR 34/M01 A2989 RMK A01,M
10U,2023-08-09 23:15,-116.1876,41.9532,1637.00,87.80,28.40,11.74,270.00,13.00,0.00,30.00,M,10.00,21.00,CLR,M,M,M,M,M,M,M,M,M,M,M,M,M,M,83.84,K10U 092315Z AUTO 27013G21KT 230V300 10SM CLR 31/M02 A3000 RMK AO2,M
TMT,2023-08-09 23:15,-117.1971,39.4643,1749.34,88.70,30.00,12.18,270.00,8.00,0.00,30.02,M,M,M,CLR,M,M,M,M,M,M,M,M,M,M,M,M,M,M,84.65,KTMT 092315Z AUTO 27008KT CLR 32/M01 A3002 RMK AO2 T03151011 PWINO,M
RTS,2023-08-09 23:24,-119.8764,39.6682,1539.00,84.20,23.00,10.53,240.00,16.00,0.00,30.04,M,10.00,21.00,CLR,M,M,M,M,M,M,M,M,M,M,M,M,M,M,80.88,KRTS 092324Z AUTO 24016G21KT 10SM CLR 29/M05 A3004 RMK AO2,M
05U,2023-08-09 23:30,-116.0051,39.6042,1811.23,89.60,26.60,10.30,M,M,0.00,30.02,M,10.00,M,M,M,M,M,M,M,M,M,M,M,M,M,M,M,M,85.02,K05U 092330Z AUTO 10SM 32/M03 A3002 RMK A01,M
BVU,2023-08-09 23:35,-114.8611,35.9475,671.00,102.20,37.40,10.81,180.00,13.00,0.00,29.80,M,10.00,M,CLR,M,M,M,M,M,M,M,M,M,M,M,M,M,M,96.63,KBVU 092335Z AUTO 18013KT 10SM CLR 39/03 A2980 RMK AO2,M
CXP,2023-08-09 23:35,-119.7326,39.1923,1431.00,84.20,35.60,17.61,260.00,16.00,0.00,30.01,M,10.00,24.00,CLR,M,M,M,M,M,M,M,M,M,M,M,M,M,M,81.34,KCXP 092335Z AUTO 26016G24KT 10SM CLR 29/02 A3001 RMK AO2,M
MEV,2023-08-09 23:35,-119.7500,38.9963,1441.42,84.20,37.40,18.91,270.00,17.00,0.00,29.99,M,10.00,25.00,CLR,M,M,M,M,M,M,M,M,M,M,M,M,M,M,81.38,KMEV 092335Z AUTO 27017G25KT 10SM CLR 29/03 A2999 RMK AO2,M
HTH,2023-08-09 23:35,-118.6315,38.5448,1282.89,93.20,30.20,10.67,320.00,13.00,0.00,29.89,M,10.00,M,CLR,M,M,M,M,M,M,M,M,M,M,M,M,M,M,88.09,KHTH 092335Z AUTO 32013KT 10SM CLR 34/M01 A2989 RMK A01,M
10U,2023-08-09 23:35,-116.1876,41.9532,1637.00,87.80,26.60,10.91,260.00,16.00,0.00,29.99,M,10.00,M,CLR,M,M,M,M,M,M,M,M,M,M,M,M,M,M,83.69,K10U 092335Z AUTO 26016KT 10SM CLR 31/M03 A2999 RMK AO2,M
BAM,2023-08-09 23:35,-116.8743,40.5990,1382.36,91.40,30.20,11.28,280.00,11.00,0.00,29.93,M,10.00,14.00,CLR,M,M,M,M,M,M,M,M,M,M,M,M,M,M,86.71,KBAM 092335Z AUTO 28011G14KT 10SM CLR 33/M01 A2993 RMK AO1,M
TMT,2023-08-09 23:35,-117.1971,39.4643,1749.34,89.00,29.30,11.73,230.00,8.00,0.00,30.02,M,M,14.00,CLR,M,M,M,M,M,M,M,M,M,M,M,M,M,M,84.81,KTMT 092335Z AUTO 23008G14KT 190V250 CLR 32/M01 A3002 RMK AO2 T03171015 PWINO,M
RTS,2023-08-09 23:44,-119.8764,39.6682,1539.00,84.20,26.60,12.23,220.00,16.00,0.00,30.04,M,10.00,M,CLR,M,M,M,M,M,M,M,M,M,M,M,M,M,M,81.13,KRTS 092344Z AUTO 22016KT 10SM CLR 29/M03 A3004 RMK AO2,M
P68,2023-08-09 23:53,-116.0056,39.6014,1993.00,86.00,25.00,10.81,230.00,5.00,0.00,30.00,1007.20,M,M,M,M,M,M,M,M,M,M,M,M,M,M,M,M,M,82.27,KP68 092353Z AUTO 23005KT 30/M04 A3000 RMK AO1 SLP072 T03001039 10328 20272 55013,M
DRA,2023-08-09 23:53,-116.0278,36.6206,1009.00,95.00,38.00,13.78,210.00,14.00,0.00,29.90,1007.30,10.00,21.00,CLR,M,M,M,M,M,M,M,M,M,M,M,26.00,230.00,2023-08-09 23:20,90.49,KDRA 092353Z AUTO 21014G21KT 10SM CLR 35/03 A2990 RMK AO2 PK WND 23026/2320 SLP073 T03500033 10356 20306 56019,M
ELY,2023-08-09 23:53,-114.8453,39.2950,1909.00,86.00,27.00,11.74,190.00,17.00,0.00,30.06,1008.30,10.00,24.00,CLR,M,M,M,M,M,M,M,M,M,M,M,M,M,M,82.42,KELY 092353Z AUTO 19017G24KT 10SM CLR 30/M03 A3006 RMK AO2 SLP083 T03001028 10311 20250 56014,M
VGT,2023-08-09 23:53,-115.1933,36.2111,667.00,102.00,44.00,14.05,230.00,11.00,0.00,29.79,1007.30,10.00,18.00,CLR,M,M,M,M,M,M,M,M,M,M,M,M,M,M,97.77,KVGT 092353Z 23011G18KT 10SM CLR 39/07 A2979 RMK AO2 SLP073 T03890067 10394 20361 56018,M
LOL,2023-08-09 23:53,-118.5701,40.0684,1192.43,91.00,29.00,10.88,300.00,8.00,0.00,29.89,1008.50,10.00,M,CLR,M,M,M,M,M,M,M,M,M,M,M,M,M,M,86.28,KLOL 092353Z AUTO 30008KT 10SM CLR 33/M02 A2989 RMK AO2 SLP085 T03281017 10344 20283 56016,M
BVU,2023-08-09 23:55,-114.8611,35.9475,671.00,102.20,37.40,10.81,220.00,12.00,0.00,29.80,M,10.00,M,CLR,M,M,M,M,M,M,M,M,M,M,M,M,M,M,96.63,KBVU 092355Z AUTO 22012KT 10SM CLR 39/03 A2980 RMK AO2,M
CXP,2023-08-09 23:55,-119.7326,39.1923,1431.00,84.20,37.40,18.91,270.00,15.00,0.00,30.01,M,10.00,22.00,CLR,M,M,M,M,M,M,M,M,M,M,M,M,M,M,81.38,KCXP 092355Z AUTO 27015G22KT 10SM CLR 29/03 A3001 RMK AO2,M
RNO,2023-08-09 23:55,-119.7711,39.4839,1341.00,89.00,33.00,13.62,280.00,16.00,0.00,29.96,1008.90,10.00,28.00,FEW,M,M,M,25000.00,M,M,M,M,M,M,M,35.00,290.00,2023-08-09 23:31,85.08,KRNO 092355Z 28016G28KT 10SM FEW250 32/01 A2996 RMK AO2 PK WND 29035/2331 SLP089 T03170006 10333 20267 56010,M
05U,2023-08-09 23:55,-116.0051,39.6042,1811.23,86.00,26.60,11.55,M,M,0.00,30.03,M,10.00,M,M,M,M,M,M,M,M,M,M,M,M,M,M,M,M,82.39,K05U 092355Z AUTO 10SM 30/M03 A3003 RMK A01,M
MEV,2023-08-09 23:55,-119.7500,38.9963,1441.42,84.20,37.40,18.91,260.00,15.00,0.00,29.99,M,10.00,21.00,CLR,M,M,M,M,M,M,M,M,M,M,M,M,M,M,81.38,KMEV 092355Z AUTO 26015G21KT 10SM CLR 29/03 A2999 RMK AO2,M
HTH,2023-08-09 23:55,-118.6315,38.5448,1282.89,91.40,28.40,10.48,320.00,12.00,0.00,29.89,M,10.00,M,CLR,M,M,M,M,M,M,M,M,M,M,M,M,M,M,86.53,KHTH 092355Z AUTO 32012KT 10SM CLR 33/M02 A2989 RMK A01,M
BAM,2023-08-09 23:55,-116.8743,40.5990,1382.36,91.40,28.40,10.48,290.00,7.00,0.00,29.93,M,10.00,M,CLR,M,M,M,M,M,M,M,M,M,M,M,M,M,M,86.53,KBAM 092355Z AUTO 29007KT 10SM CLR 33/M02 A2993 RMK AO1,M
TMT,2023-08-09 23:55,-117.1971,39.4643,1749.34,89.00,28.60,11.40,240.00,7.00,0.00,30.02,M,M,M,CLR,M,M,M,M,M,M,M,M,M,M,M,M,M,M,84.74,KTMT 092355Z AUTO 24007KT CLR 32/M02 A3002 RMK AO2 T03161019 10320 20257 PWINO,M
10U,2023-08-09 23:55,-116.1876,41.9532,1637.00,86.00,24.80,10.72,260.00,11.00,0.00,30.00,M,10.00,21.00,CLR,M,M,M,M,M,M,M,M,M,M,M,M,M,M,82.26,K10U 092355Z AUTO 26011G21KT 10SM CLR 30/M04 A3000 RMK AO2,M
INS,2023-08-09 23:55,-115.6733,36.5872,955.00,95.00,21.40,7.00,0.00,0.00,0.00,29.88,1006.80,10.00,M,FEW,M,M,M,13000.00,M,M,M,M,M,M,M,M,M,M,88.64,KINS 092355Z AUTO 00000KT 10SM FEW130 35/M06 A2988 RMK AO2 SLP068 60003 T03511059 10356 20276 57021 $,M
LSV,2023-08-09 23:55,-115.0343,36.2362,570.00,102.40,44.00,13.88,190.00,14.00,0.00,29.75,1004.40,10.00,M,CLR,M,M,M,M,M,M,M,M,M,M,M,M,M,M,98.16,KLSV 092355Z AUTO 19014KT 10SM CLR 39/07 A2975 RMK AO2 SLP044 T03910067 10399 20374 57018 $,M
EKO,2023-08-09 23:56,-115.7860,40.8242,1367.00,86.00,39.00,19.01,240.00,5.00,0.00,29.95,1008.80,10.00,M,CLR,M,M,M,M,M,M,M,M,M,M,M,M,M,M,82.78,KEKO 092356Z AUTO 24005KT 10SM CLR 30/04 A2995 RMK AO2 SLP088 T03000039 10333 20267 56018,M
WMC,2023-08-09 23:56,-117.8072,40.9019,1315.00,92.00,28.00,10.12,260.00,7.00,0.00,29.93,1008.60,10.00,17.00,CLR,M,M,M,M,M,M,M,M,M,M,M,M,M,M,86.94,KWMC 092356Z AUTO 26007G17KT 10SM CLR 33/M02 A2993 RMK AO2 SLP086 T03331022 10339 20289 58009,M
NFL,2023-08-09 23:56,-118.7010,39.4166,1199.00,94.00,29.00,9.91,20.00,6.00,0.00,29.89,1009.70,10.00,M,FEW,SCT,BKN,M,8000.00,15000.00,25000.00,M,M,M,M,M,M,M,M,88.57,KNFL 092356Z 02006KT 10SM FEW080 SCT150 BKN250 34/M02 A2989 RMK AO2 SLP097 T03441017 10344 20289 56019,M
HND,2023-08-09 23:56,-115.1344,35.9729,742.79,98.00,45.00,16.47,230.00,14.00,0.00,29.86,1009.00,10.00,M,CLR,M,M,M,M,M,M,M,M,M,M,M,M,M,M,94.02,KHND 092356Z 23014KT 10SM CLR 37/07 A2986 RMK AO2 SLP090 T03670072 10383 20356 56015,M
TPH,2023-08-09 23:56,-117.0904,38.0505,1654.00,88.00,47.00,24.24,M,M,0.00,30.00,1008.00,10.00,M,CLR,M,M,M,M,M,M,M,M,M,M,M,26.00,200.00,2023-08-09 23:08,84.91,KTPH 092356Z AUTO 10SM CLR 31/08 A3000 RMK AO2 PK WND 20026/2308 SLP080 T03110083 10328 20272 56015,M
LAS,2023-08-09 23:56,-115.1634,36.0719,663.00,101.00,45.00,15.04,200.00,7.00,0.00,29.81,1006.10,10.00,M,FEW,SCT,BKN,M,11000.00,15000.00,20000.00,M,M,M,M,M,M,M,M,96.97,KLAS 092356Z 20007KT 10SM FEW110 SCT150 BKN200 38/07 A2981 RMK AO2 SLP061 CB DSNT E-S-SW T03830072 10389 20350 56018,M
