station,valid,lon,lat,elevation,tmpf,dwpf,relh,drct,sknt,p01i,alti,mslp,vsby,gust,skyc1,skyc2,skyc3,skyc4,skyl1,skyl2,skyl3,skyl4,wxcodes,ice_accretion_1hr,ice_accretion_3hr,ice_accretion_6hr,peak_wind_gust,peak_wind_drct,peak_wind_time,feel,metar,snowdepth
TMT,2025-06-05 00:10,-117.1971,39.4643,1749.34,74.50,22.50,14.18,320.00,14.00,0.00,29.99,M,10.00,17.00,CLR,M,M,M,M,M,M,M,M,M,M,M,M,M,M,74.50,KTMT 050010Z AUTO 32014G17KT 10SM CLR 24/M05 A2999 RMK AO2 T02361053,M
BVU,2025-06-05 00:15,-114.8611,35.9475,671.00,91.40,46.40,21.35,180.00,15.00,0.00,29.73,M,10.00,M,CLR,M,M,M,M,M,M,M,M,M,M,M,M,M,M,87.87,KBVU 050015Z AUTO 18015KT 10SM CLR 33/08 A2973 RMK AO2 LTG DSNT E AND SW,M
BAM,2025-06-05 00:15,-116.8743,40.5990,1382.36,77.00,28.40,16.68,360.00,7.00,0.00,29.96,M,10.00,M,CLR,M,M,M,M,M,M,M,M,M,M,M,M,M,M,77.00,KBAM 050015Z AUTO 36007KT 10SM CLR 25/M02 A2996 RMK AO1,M
CXP,2025-06-05 00:15,-119.7326,39.1923,1431.00,82.40,24.80,12.05,290.00,6.00,0.00,29.92,M,10.00,11.00,CLR,M,M,M,M,M,M,M,M,M,M,M,M,M,M,79.79,KCXP 050015Z AUTO 29006G11KT 10SM CLR 28/M04 A2992 RMK AO2,M
RTS,2025-06-05 00:15,-119.8764,39.6682,1539.00,77.00,21.20,12.35,70.00,10.00,0.00,29.96,M,10.00,M,CLR,M,M,M,M,M,M,M,M,M,M,M,M,M,M,77.00,KRTS 050015Z AUTO 07010KT 10SM CLR 25/M06 A2996 RMK AO2,M
MEV,2025-06-05 00:15,-119.7500,38.9963,1441.42,80.60,26.60,13.76,0.00,0.00,0.00,29.91,M,10.00,11.00,CLR,M,M,M,M,M,M,M,M,M,M,M,M,M,M,78.68,KMEV 050015Z AUTO 00000G11KT 10SM CLR 27/M03 A2991 RMK AO2,M
HTH,2025-06-05 00:15,-118.6315,38.5448,1282.89,80.60,21.20,10.98,330.00,7.00,0.00,29.90,M,10.00,M,CLR,M,M,M,M,M,M,M,M,M,M,M,M,M,M,78.68,KHTH 050015Z AUTO 33007KT 10SM CLR 27/M06 A2990 RMK A01,M
HND,2025-06-05 00:24,-115.1344,35.9729,742.79,91.40,50.00,24.44,150.00,14.00,0.00,29.77,M,10.00,21.00,BKN,M,M,M,10000.00,M,M,M,M,M,M,M,M,M,M,88.38,KHND 050024Z 15014G21KT 10SM BKN100 33/10 A2977 RMK AO2 WSHFT 0004 LTG DSNT S $,M
MEV,2025-06-05 00:30,-119.7500,38.9963,1441.42,80.60,26.60,13.76,290.00,4.00,0.00,29.91,M,10.00,10.00,CLR,M,M,M,M,M,M,M,M,M,M,M,M,M,M,78.68,KMEV 050030Z AUTO 29004G10KT 10SM CLR 27/M03 A2991 RMK AO2,M
TMT,2025-06-05 00:30,-117.1971,39.4643,1749.34,73.40,21.70,14.23,330.00,12.00,0.00,29.99,M,10.00,21.00,CLR,M,M,M,M,M,M,M,M,M,M,M,M,M,M,73.40,KTMT 050030Z AUTO 33012G21KT 310V020 10SM CLR 23/M06 A2999 RMK AO2 T02301057,M
BVU,2025-06-05 00:35,-114.8611,35.9475,671.00,89.60,46.40,22.59,160.00,16.00,0.00,29.73,M,10.00,M,CLR,M,M,M,M,M,M,M,M,M,M,M,M,M,M,86.24,KBVU 050035Z AUTO 16016KT 10SM CLR 32/08 A2973 RMK AO2,M
BAM,2025-06-05 00:35,-116.8743,40.5990,1382.36,77.00,26.60,15.49,350.00,5.00,0.00,29.95,M,10.00,M,CLR,M,M,M,M,M,M,M,M,M,M,M,M,M,M,77.00,KBAM 050035Z AUTO 35005KT 10SM CLR 25/M03 A2995 RMK AO1,M
CXP,2025-06-05 00:35,-119.7326,39.1923,1431.00,82.40,26.60,12.98,340.00,9.00,0.00,29.92,M,10.00,M,CLR,M,M,M,M,M,M,M,M,M,M,M,M,M,M,79.92,KCXP 050035Z AUTO 34009KT 10SM CLR 28/M03 A2992 RMK AO2,M
RTS,2025-06-05 00:35,-119.8764,39.6682,1539.00,77.00,21.20,12.35,80.00,12.00,0.00,29.96,M,10.00,M,CLR,M,M,M,M,M,M,M,M,M,M,M,M,M,M,77.00,KRTS 050035Z AUTO 08012KT 10SM CLR 25/M06 A2996 RMK AO2,M
HTH,2025-06-05 00:35,-118.6315,38.5448,1282.89,82.40,21.20,10.35,320.00,10.00,0.00,29.90,M,10.00,M,CLR,M,M,M,M,M,M,M,M,M,M,M,M,M,M,79.56,KHTH 050035Z AUTO 32010KT 10SM CLR 28/M06 A2990 RMK A01,M
HTH,2025-06-05 00:50,-118.6315,38.5448,1282.89,80.60,21.20,10.98,310.00,10.00,0.00,29.90,M,10.00,M,CLR,M,M,M,M,M,M,M,M,M,M,M,M,M,M,78.68,KHTH 050050Z AUTO 31010KT 10SM CLR 27/M06 A2990 RMK A01,M
TMT,2025-06-05 00:50,-117.1971,39.4643,1749.34,72.70,21.00,14.14,10.00,10.00,0.00,29.98,M,10.00,19.00,CLR,M,M,M,M,M,M,M,M,M,M,M,M,M,M,72.70,KTMT 050050Z AUTO 01010G19KT 10SM CLR 23/M06 A2998 RMK AO2 T02261062,M
P68,2025-06-05 00:53,-116.0056,39.6014,1993.00,74.00,22.00,14.12,340.00,12.00,0.00,29.96,1008.90,M,20.00,M,M,M,M,M,M,M,M,M,M,M,M,M,M,M,74.00,KP68 050053Z AUTO 34012G20KT 23/M06 A2996 RMK AO1 SLP089 T02331056,M
DRA,2025-06-05 00:53,-116.0278,36.6206,1009.00,90.00,39.00,16.79,230.00,15.00,0.00,29.78,1003.70,10.00,20.00,CLR,M,M,M,M,M,M,M,M,M,M,M,M,M,M,86.07,KDRA 050053Z AUTO 23015G20KT 10SM CLR 32/04 A2978 RMK AO2 SLP037 T03220039,M
ELY,2025-06-05 00:53,-114.8453,39.2950,1909.00,75.00,21.00,13.09,290.00,7.00,0.00,29.97,1006.80,10.00,17.00,BKN,M,M,M,11000.00,M,M,M,M,M,M,M,M,M,M,75.00,KELY 050053Z AUTO 29007G17KT 10SM BKN110 24/M06 A2997 RMK AO2 SLP068 T02391061,M
VGT,2025-06-05 00:53,-115.1933,36.2111,667.00,91.00,39.00,16.27,180.00,3.00,0.00,29.73,1005.90,10.00,M,CLR,M,M,M,M,M,M,M,M,M,M,M,M,M,M,86.94,KVGT 050053Z 18003KT 10SM CLR 33/04 A2973 RMK AO2 LTG DSNT SW AND W SLP059 T03280039,M
LOL,2025-06-05 00:53,-118.5701,40.0684,1192.43,80.00,24.00,12.60,80.00,12.00,0.00,29.89,1008.80,10.00,M,CLR,M,M,M,M,M,M,M,M,M,M,M,M,M,M,78.26,KLOL 050053Z AUTO 08012KT 10SM CLR 27/M04 A2989 RMK AO2 SLP088 T02671044,M
BVU,2025-06-05 00:55,-114.8611,35.9475,671.00,89.60,46.40,22.59,160.00,15.00,0.00,29.73,M,10.00,M,CLR,M,M,M,M,M,M,M,M,M,M,M,M,M,M,86.24,KBVU 050055Z AUTO 16015KT 10SM CLR 32/08 A2973 RMK AO2,M
RNO,2025-06-05 00:55,-119.7711,39.4839,1341.00,82.00,25.00,12.31,30.00,10.00,0.00,29.90,1007.60,10.00,20.00,FEW,SCT,M,M,9000.00,25000.00,M,M,M,M,M,M,M,M,M,79.54,KRNO 050055Z 03010G20KT 10SM FEW090 SCT250 28/M04 A2990 RMK AO2 SLP076 CB DSNT S T02781039,M
BAM,2025-06-05 00:55,-116.8743,40.5990,1382.36,77.00,26.60,15.49,340.00,9.00,0.00,29.95,M,10.00,M,CLR,M,M,M,M,M,M,M,M,M,M,M,M,M,M,77.00,KBAM 050055Z AUTO 34009KT 10SM CLR 25/M03 A2995 RMK AO1,M
CXP,2025-06-05 00:55,-119.7326,39.1923,1431.00,80.60,26.60,13.76,340.00,7.00,0.00,29.92,M,10.00,M,CLR,M,M,M,M,M,M,M,M,M,M,M,M,M,M,78.68,KCXP 050055Z AUTO 34007KT 10SM CLR 27/M03 A2992 RMK AO2,M
RTS,2025-06-05 00:55,-119.8764,39.6682,1539.00,77.00,21.20,12.35,70.00,10.00,0.00,29.96,M,10.00,16.00,CLR,M,M,M,M,M,M,M,M,M,M,M,M,M,M,77.00,KRTS 050055Z AUTO 07010G16KT 10SM CLR 25/M06 A2996 RMK AO2,M
MEV,2025-06-05 00:55,-119.7500,38.9963,1441.42,80.60,33.80,18.45,320.00,8.00,0.00,29.91,M,10.00,M,CLR,M,M,M,M,M,M,M,-RA,M,M,M,M,M,M,78.88,KMEV 050055Z AUTO 32008KT 10SM -RA CLR 27/01 A2991 RMK AO2,M
INS,2025-06-05 00:55,-115.6733,36.5872,955.00,87.60,40.30,19.04,130.00,9.00,0.00,29.77,1003.50,10.00,M,CLR,M,M,M,M,M,M,M,M,M,M,M,M,M,M,84.11,KINS 050055Z AUTO 13009KT 10SM CLR 31/05 A2977 RMK AO2 LTG DSNT NE AND S SLP035 T03090046 $,M
LSV,2025-06-05 00:55,-115.0343,36.2362,570.00,93.40,33.00,11.91,290.00,8.00,0.00,29.67,1001.90,10.00,M,BKN,M,M,M,15000.00,M,M,M,M,M,M,M,M,M,M,88.60,KLSV 050055Z 29008KT 10SM BKN150 34/01 A2967 RMK AO2A LTG DSNT SW-W SLP019 T03410006 $,M
EKO,2025-06-05 00:56,-115.7860,40.8242,1367.00,73.00,20.00,13.41,290.00,10.00,0.00,29.95,1011.00,10.00,19.00,CLR,M,M,M,M,M,M,M,M,M,M,M,M,M,M,73.00,KEKO 050056Z AUTO 29010G19KT 10SM CLR 23/M07 A2995 RMK AO2 SLP110 T02281067,M
WMC,2025-06-05 00:56,-117.8072,40.9019,1315.00,77.00,21.00,12.25,340.00,8.00,0.00,29.94,1010.60,10.00,M,CLR,M,M,M,M,M,M,M,M,M,M,M,M,M,M,77.00,KWMC 050056Z AUTO 34008KT 10SM CLR 25/M06 A2994 RMK AO2 SLP106 T02501061 TSNO,M
HND,2025-06-05 00:56,-115.1344,35.9729,742.79,90.00,50.00,25.53,160.00,12.00,0.00,29.77,1006.80,10.00,M,FEW,M,M,M,11000.00,M,M,M,M,M,M,M,M,M,M,87.07,KHND 050056Z 16012KT 10SM FEW110 32/10 A2977 RMK AO2 WSHFT 0004 LTG DSNT NW SLP068 T03220100 $,M
TPH,2025-06-05 00:56,-117.0904,38.0505,1654.00,80.00,29.00,15.49,M,M,0.00,29.93,1006.50,10.00,M,M,M,M,M,M,M,M,M,M,M,M,M,27.00,300.00,2025-06-05 00:08,78.43,KTPH 050056Z AUTO 10SM 27/M02 A2993 RMK AO2 PK WND 30027/0008 SLP065 T02671017 $,M
LAS,2025-06-05 00:56,-115.1634,36.0719,663.00,93.00,40.00,15.90,340.00,9.00,0.00,29.73,1004.20,10.00,16.00,FEW,FEW,SCT,M,10000.00,15000.00,25000.00,M,M,M,M,M,M,M,M,88.79,KLAS 050056Z 34009G16KT 10SM FEW100 FEW150 SCT250 34/04 A2973 RMK AO2 LTG DSNT W SLP042 CB DSNT S-W T03390044 $,M
NFL,2025-06-05 00:57,-118.7010,39.4166,1199.00,82.00,23.00,11.32,10.00,12.00,0.00,29.88,1009.40,10.00,18.00,FEW,M,M,M,25000.00,M,M,M,M,M,M,M,M,M,M,79.40,KNFL 050057Z 01012G18KT 10SM FEW250 28/M05 A2988 RMK AO2 SLP094 T02781050 $,M
TMT,2025-06-05 01:10,-117.1971,39.4643,1749.34,73.00,21.20,14.12,340.00,12.00,0.00,29.98,M,10.00,19.00,CLR,M,M,M,M,M,M,M,M,M,M,M,M,M,M,73.00,KTMT 050110Z AUTO 34012G19KT 10SM CLR 23/M06 A2998 RMK AO2 T02271060,M
BVU,2025-06-05 01:15,-114.8611,35.9475,671.00,89.60,46.40,22.59,150.00,16.00,0.00,29.73,M,10.00,21.00,CLR,M,M,M,M,M,M,M,M,M,M,M,M,M,M,86.24,KBVU 050115Z AUTO 15016G21KT 10SM CLR 32/08 A2973 RMK AO2,M
BAM,2025-06-05 01:15,-116.8743,40.5990,1382.36,77.00,26.60,15.49,330.00,6.00,0.00,29.95,M,10.00,M,CLR,M,M,M,M,M,M,M,M,M,M,M,M,M,M,77.00,KBAM 050115Z AUTO 33006KT 10SM CLR 25/M03 A2995 RMK AO1,M
CXP,2025-06-05 01:15,-119.7326,39.1923,1431.00,80.60,30.20,15.95,300.00,10.00,0.00,29.92,M,10.00,M,CLR,M,M,M,M,M,M,M,M,M,M,M,M,M,M,78.77,KCXP 050115Z AUTO 30010KT 10SM CLR 27/M01 A2992 RMK AO2,M
RTS,2025-06-05 01:15,-119.8764,39.6682,1539.00,75.20,19.40,12.15,70.00,12.00,0.00,29.96,M,10.00,M,CLR,M,M,M,M,M,M,M,M,M,M,M,M,M,M,75.20,KRTS 050115Z AUTO 07012KT 10SM CLR 24/M07 A2996 RMK AO2,M
MEV,2025-06-05 01:15,-119.7500,38.9963,1441.42,80.60,35.60,19.82,310.00,10.00,0.00,29.91,M,10.00,M,CLR,M,M,M,M,M,M,M,-RA,M,M,M,M,M,M,78.95,KMEV 050115Z AUTO 31010KT 10SM -RA CLR 27/02 A2991 RMK AO2,M
HTH,2025-06-05 01:15,-118.6315,38.5448,1282.89,80.60,23.00,11.84,M,M,0.00,29.90,M,10.00,M,CLR,M,M,M,M,M,M,M,M,M,M,M,M,M,M,78.80,KHTH 050115Z AUTO 11.58333312KT 10SM CLR 27/M05 A2990 RMK A01,M
P68,2025-06-05 01:26,-116.0056,39.6014,1993.00,72.00,22.00,15.10,10.00,13.00,0.00,29.96,M,M,M,M,M,M,M,M,M,M,M,M,M,M,M,M,M,M,72.00,KP68 050126Z AUTO 01013KT 22/M06 A2996 RMK AO1 WSHFT 0109 T02221056,M
TMT,2025-06-05 01:30,-117.1971,39.4643,1749.34,71.80,21.00,14.58,350.00,10.00,0.00,29.99,M,10.00,M,CLR,M,M,M,M,M,M,M,M,M,M,M,M,M,M,71.80,KTMT 050130Z AUTO 35010KT 10SM CLR 22/M06 A2999 RMK AO2 T02211062,M
BVU,2025-06-05 01:35,-114.8611,35.9475,671.00,87.80,44.60,22.33,160.00,13.00,0.00,29.74,M,10.00,21.00,CLR,M,M,M,M,M,M,M,M,M,M,M,M,M,M,84.53,KBVU 050135Z AUTO 16013G21KT 10SM CLR 31/07 A2974 RMK AO2,M
BAM,2025-06-05 01:35,-116.8743,40.5990,1382.36,77.00,26.60,15.49,340.00,8.00,0.00,29.95,M,10.00,17.00,CLR,M,M,M,M,M,M,M,M,M,M,M,M,M,M,77.00,KBAM 050135Z AUTO 34008G17KT 10SM CLR 25/M03 A2995 RMK AO1,M
CXP,2025-06-05 01:35,-119.7326,39.1923,1431.00,80.60,30.20,15.95,310.00,9.00,0.00,29.93,M,10.00,M,CLR,M,M,M,M,M,M,M,M,M,M,M,M,M,M,78.77,KCXP 050135Z AUTO 31009KT 10SM CLR 27/M01 A2993 RMK AO2,M
RTS,2025-06-05 01:35,-119.8764,39.6682,1539.00,75.20,19.40,12.15,60.00,12.00,0.00,29.96,M,10.00,18.00,CLR,M,M,M,M,M,M,M,M,M,M,M,M,M,M,75.20,KRTS 050135Z AUTO 06012G18KT 10SM CLR 24/M07 A2996 RMK AO2,M
MEV,2025-06-05 01:35,-119.7500,38.9963,1441.42,78.80,41.00,25.98,290.00,12.00,0.00,29.91,M,10.00,M,CLR,M,M,M,M,M,M,M,M,M,M,M,M,M,M,78.80,KMEV 050135Z AUTO 29012KT 10SM CLR 26/05 A2991 RMK AO2,M
HTH,2025-06-05 01:35,-118.6315,38.5448,1282.89,80.60,23.00,11.84,320.00,12.00,0.00,29.90,M,10.00,M,CLR,M,M,M,M,M,M,M,M,M,M,M,M,M,M,78.80,KHTH 050135Z AUTO 32012KT 10SM CLR 27/M05 A2990 RMK A01,M
MEV,2025-06-05 01:45,-119.7500,38.9963,1441.42,77.00,41.00,27.57,280.00,10.00,0.00,29.92,M,10.00,M,CLR,M,M,M,M,M,M,M,M,M,M,M,M,M,M,77.00,KMEV 050145Z AUTO 28010KT 10SM CLR 25/05 A2992 RMK AO2 LTG DSNT S AND SW,M
RTS,2025-06-05 01:45,-119.8764,39.6682,1539.00,75.20,19.40,12.15,70.00,10.00,0.00,29.96,M,10.00,16.00,CLR,M,M,M,M,M,M,M,M,M,M,M,M,M,M,75.20,KRTS 050145Z AUTO 07010G16KT 10SM CLR 24/M07 A2996 RMK AO2,M
TMT,2025-06-05 01:50,-117.1971,39.4643,1749.34,70.70,20.30,14.69,340.00,11.00,0.00,29.99,M,10.00,M,CLR,M,M,M,M,M,M,M,M,M,M,M,M,M,M,70.70,KTMT 050150Z AUTO 34011KT 10SM CLR 22/M06 A2999 RMK AO2 T02151065,M
LOL,2025-06-05 01:53,-118.5701,40.0684,1192.43,79.00,23.00,12.48,50.00,14.00,0.00,29.89,1008.70,10.00,M,CLR,M,M,M,M,M,M,M,M,M,M,M,M,M,M,79.00,KLOL 050153Z AUTO 05014KT 10SM CLR 26/M05 A2989 RMK AO2 SLP087 T02611050,M
P68,2025-06-05 01:53,-116.0056,39.6014,1993.00,72.00,17.00,12.20,330.00,10.00,0.00,29.97,1008.60,M,M,M,M,M,M,M,M,M,M,M,M,M,M,M,M,M,72.00,KP68 050153Z AUTO 33010KT 22/M08 A2997 RMK AO1 WSHFT 0109 SLP086 T02221083,M
DRA,2025-06-05 01:53,-116.0278,36.6206,1009.00,88.00,40.00,18.59,220.00,10.00,0.00,29.78,1003.70,10.00,M,CLR,M,M,M,M,M,M,M,M,M,M,M,M,M,M,84.42,KDRA 050153Z AUTO 22010KT 10SM CLR 31/04 A2978 RMK AO2 SLP037 T03110044,M
ELY,2025-06-05 01:53,-114.8453,39.2950,1909.00,72.00,20.00,13.87,270.00,9.00,0.00,29.97,1006.40,10.00,M,FEW,M,M,M,12000.00,M,M,M,M,M,M,M,M,M,M,72.00,KELY 050153Z AUTO 27009KT 10SM FEW120 22/M07 A2997 RMK AO2 SLP064 T02221067,M
VGT,2025-06-05 01:53,-115.1933,36.2111,667.00,92.00,40.00,16.40,110.00,8.00,0.00,29.73,1005.70,10.00,M,CLR,M,M,M,M,M,M,M,M,M,M,M,M,M,M,87.88,KVGT 050153Z 11008KT 10SM CLR 33/04 A2973 RMK AO2 SLP057 T03330044,M
BAM,2025-06-05 01:55,-116.8743,40.5990,1382.36,75.20,24.80,15.26,350.00,9.00,0.00,29.95,M,10.00,M,CLR,M,M,M,M,M,M,M,M,M,M,M,M,M,M,75.20,KBAM 050155Z AUTO 35009KT 10SM CLR 24/M04 A2995 RMK AO1,M
BVU,2025-06-05 01:55,-114.8611,35.9475,671.00,87.80,44.60,22.33,170.00,14.00,0.00,29.74,M,10.00,21.00,CLR,M,M,M,M,M,M,M,TS,M,M,M,M,M,M,84.53,KBVU 050155Z AUTO 17014G21KT 10SM TS CLR 31/07 A2974 RMK AO2 LTG DSNT NE,M
CXP,2025-06-05 01:55,-119.7326,39.1923,1431.00,78.80,28.40,15.72,310.00,8.00,0.00,29.93,M,10.00,M,CLR,M,M,M,M,M,M,M,M,M,M,M,M,M,M,78.80,KCXP 050155Z AUTO 31008KT 10SM CLR 26/M02 A2993 RMK AO2 LTG DSNT S AND W,M
RNO,2025-06-05 01:55,-119.7711,39.4839,1341.00,79.00,24.00,13.02,10.00,11.00,0.00,29.91,1008.00,10.00,M,FEW,SCT,M,M,10000.00,25000.00,M,M,M,M,M,M,M,M,M,79.00,KRNO 050155Z COR 01011KT 10SM FEW100 SCT250 26/M04 A2991 RMK AO2 SLP080 CB DSNT S T02611044,M
HTH,2025-06-05 01:55,-118.6315,38.5448,1282.89,80.60,23.00,11.84,330.00,13.00,0.00,29.90,M,10.00,M,CLR,M,M,M,M,M,M,M,M,M,M,M,M,M,M,78.80,KHTH 050155Z AUTO 33013KT 10SM CLR 27/M05 A2990 RMK A01,M
INS,2025-06-05 01:55,-115.6733,36.5872,955.00,87.40,40.00,18.94,100.00,8.00,0.00,29.77,1003.20,10.00,M,CLR,M,M,M,M,M,M,M,M,M,M,M,M,M,M,83.93,KINS 050155Z AUTO 10008KT 10SM CLR 31/05 A2977 RMK AO2 SLP032 T03080045 $,M
LSV,2025-06-05 01:55,-115.0343,36.2362,570.00,93.00,44.60,18.98,190.00,15.00,0.00,29.67,1001.80,10.00,M,BKN,M,M,M,15000.00,M,M,M,M,M,M,M,M,M,M,89.17,KLSV 050155Z 19015KT 10SM BKN150 34/07 A2967 RMK AO2A SLP018 T03390070 $,M
WMC,2025-06-05 01:56,-117.8072,40.9019,1315.00,75.00,22.00,13.66,10.00,7.00,0.00,29.93,1009.90,10.00,M,CLR,M,M,M,M,M,M,M,M,M,M,M,M,M,M,75.00,KWMC 050156Z AUTO 01007KT 10SM CLR 24/M06 A2993 RMK AO2 SLP099 T02391056 TSNO,M
HND,2025-06-05 01:56,-115.1344,35.9729,742.79,87.00,50.00,28.06,180.00,13.00,0.00,29.78,1007.40,10.00,21.00,CLR,M,M,M,M,M,M,M,M,M,M,M,M,M,M,84.44,KHND 050156Z 18013G21KT 10SM CLR 31/10 A2978 RMK AO2 LTG DSNT SW SLP074 T03060100 $,M
TPH,2025-06-05 01:56,-117.0904,38.0505,1654.00,79.00,28.00,15.36,340.00,16.00,0.00,29.93,1006.20,10.00,20.00,CLR,M,M,M,M,M,M,M,M,M,M,M,M,M,M,79.00,KTPH 050156Z AUTO 34016G20KT 10SM CLR 26/M02 A2993 RMK AO2 SLP062 T02611022 $,M
LAS,2025-06-05 01:56,-115.1634,36.0719,663.00,89.00,47.00,23.55,170.00,12.00,0.00,29.74,1004.70,10.00,22.00,FEW,FEW,BKN,M,10000.00,15000.00,20000.00,M,M,M,M,M,M,M,M,85.78,KLAS 050156Z 17012G22KT 10SM FEW100 FEW150 BKN200 32/08 A2974 RMK AO2 LTG DSNT S SLP047 CB DSNT E AND S-SW T03170083 $,M
EKO,2025-06-05 01:56,-115.7860,40.8242,1367.00,72.00,20.00,13.87,330.00,10.00,0.00,29.96,1010.60,10.00,M,CLR,M,M,M,M,M,M,M,M,M,M,M,M,M,M,72.00,KEKO 050156Z AUTO 33010KT 10SM CLR 22/M07 A2996 RMK AO2 SLP106 T02221067,M
NFL,2025-06-05 01:57,-118.7010,39.4166,1199.00,80.00,24.00,12.60,30.00,12.00,0.00,29.88,1009.40,10.00,M,FEW,M,M,M,25000.00,M,M,M,M,M,M,M,M,M,M,78.26,KNFL 050157Z 03012KT 10SM FEW250 27/M04 A2988 RMK AO2 SLP094 T02671044 $,M
TMT,2025-06-05 02:10,-117.1971,39.4643,1749.34,70.00,20.70,15.30,340.00,8.00,0.00,30.00,M,10.00,M,CLR,M,M,M,M,M,M,M,M,M,M,M,M,M,M,70.00,KTMT 050210Z AUTO 34008KT 10SM CLR 21/M06 A3000 RMK AO2 T02111063,M
BVU,2025-06-05 02:15,-114.8611,35.9475,671.00,86.00,42.80,22.07,160.00,17.00,0.00,29.75,M,10.00,M,CLR,M,M,M,M,M,M,M,M,M,M,M,M,M,M,82.96,KBVU 050215Z AUTO 16017KT 10SM CLR 30/06 A2975 RMK AO2,M
BAM,2025-06-05 02:15,-116.8743,40.5990,1382.36,75.20,26.60,16.44,340.00,8.00,0.00,29.95,M,10.00,M,CLR,M,M,M,M,M,M,M,M,M,M,M,M,M,M,75.20,KBAM 050215Z AUTO 34008KT 10SM CLR 24/M03 A2995 RMK AO1,M
CXP,2025-06-05 02:15,-119.7326,39.1923,1431.00,77.00,39.20,25.70,290.00,7.00,0.00,29.94,M,10.00,M,CLR,M,M,M,M,M,M,M,M,M,M,M,M,M,M,77.00,KCXP 050215Z AUTO 29007KT 10SM CLR 25/04 A2994 RMK AO2 LTG DSNT W,M
RTS,2025-06-05 02:15,-119.8764,39.6682,1539.00,73.40,17.60,11.94,40.00,9.00,0.00,29.97,M,10.00,M,CLR,M,M,M,M,M,M,M,M,M,M,M,M,M,M,73.40,KRTS 050215Z AUTO 04009KT 10SM CLR 23/M08 A2997 RMK AO2,M
MEV,2025-06-05 02:15,-119.7500,38.9963,1441.42,73.40,42.80,33.31,270.00,8.00,0.00,29.92,M,10.00,M,CLR,M,M,M,M,M,M,M,M,M,M,M,M,M,M,73.40,KMEV 050215Z AUTO 27008KT 10SM CLR 23/06 A2992 RMK AO2 LTG DSNT NW,M
HTH,2025-06-05 02:15,-118.6315,38.5448,1282.89,78.80,24.80,13.55,330.00,10.00,0.00,29.90,M,10.00,M,CLR,M,M,M,M,M,M,M,M,M,M,M,M,M,M,78.80,KHTH 050215Z AUTO 33010KT 10SM CLR 26/M04 A2990 RMK A01,M
RTS,2025-06-05 02:25,-119.8764,39.6682,1539.00,73.40,17.60,11.94,10.00,8.00,0.00,29.97,M,10.00,M,CLR,M,M,M,M,M,M,M,M,M,M,M,M,M,M,73.40,KRTS 050225Z AUTO 01008KT 10SM CLR 23/M08 A2997 RMK AO2,M
MEV,2025-06-05 02:25,-119.7500,38.9963,1441.42,73.40,42.80,33.31,270.00,8.00,0.00,29.93,M,10.00,13.00,FEW,M,M,M,12000.00,M,M,M,M,M,M,M,M,M,M,73.40,KMEV 050225Z AUTO 27008G13KT 10SM FEW120 23/06 A2993 RMK AO2 LTG DSNT NW,M
CXP,2025-06-05 02:30,-119.7326,39.1923,1431.00,75.20,41.00,29.26,M,6.00,0.00,29.94,M,10.00,12.00,CLR,M,M,M,M,M,M,M,M,M,M,M,M,M,M,75.20,KCXP 050230Z AUTO VRB06G12KT 10SM CLR 24/05 A2994 RMK AO2,M
TMT,2025-06-05 02:30,-117.1971,39.4643,1749.34,68.70,19.40,15.13,340.00,9.00,0.00,30.00,M,10.00,M,CLR,M,M,M,M,M,M,M,M,M,M,M,M,M,M,68.70,KTMT 050230Z AUTO 34009KT 10SM CLR 20/M07 A3000 RMK AO2 T02041070,M
BVU,2025-06-05 02:35,-114.8611,35.9475,671.00,86.00,42.80,22.07,160.00,16.00,0.00,29.75,M,10.00,M,CLR,M,M,M,M,M,M,M,M,M,M,M,M,M,M,82.96,KBVU 050235Z AUTO 16016KT 10SM CLR 30/06 A2975 RMK AO2,M
BAM,2025-06-05 02:35,-116.8743,40.5990,1382.36,73.40,24.80,16.21,340.00,8.00,0.00,29.95,M,10.00,M,CLR,M,M,M,M,M,M,M,M,M,M,M,M,M,M,73.40,KBAM 050235Z AUTO 34008KT 10SM CLR 23/M04 A2995 RMK AO1,M
HTH,2025-06-05 02:35,-118.6315,38.5448,1282.89,78.80,24.80,13.55,330.00,14.00,0.00,29.90,M,10.00,M,M,M,M,M,M,M,M,M,M,M,M,M,M,M,M,78.80,KHTH 050235Z AUTO 33014KT 10SM 26/M04 A2990 RMK A01,M
MEV,2025-06-05 02:45,-119.7500,38.9963,1441.42,69.80,41.00,35.11,M,6.00,0.00,29.95,M,10.00,17.00,FEW,M,M,M,12000.00,M,M,M,M,M,M,M,M,M,M,69.80,KMEV 050245Z AUTO VRB06G17KT 10SM FEW120 21/05 A2995 RMK AO2,M
RTS,2025-06-05 02:45,-119.8764,39.6682,1539.00,73.40,17.60,11.94,30.00,5.00,0.00,29.98,M,10.00,10.00,CLR,M,M,M,M,M,M,M,M,M,M,M,M,M,M,73.40,KRTS 050245Z AUTO 03005G10KT 10SM CLR 23/M08 A2998 RMK AO2,M
TMT,2025-06-05 02:50,-117.1971,39.4643,1749.34,66.00,20.30,17.26,340.00,8.00,0.00,30.01,M,10.00,M,CLR,M,M,M,M,M,M,M,M,M,M,M,M,M,M,66.00,KTMT 050250Z AUTO 34008KT 10SM CLR 19/M06 A3001 RMK AO2 T01881065,M
P68,2025-06-05 02:53,-116.0056,39.6014,1993.00,64.00,22.00,19.88,40.00,6.00,0.00,29.99,1009.00,M,M,M,M,M,M,M,M,M,M,M,M,M,M,M,M,M,64.00,KP68 050253Z AUTO 04006KT 18/M06 A2999 RMK AO1 SLP090 T01781056 53009,M
DRA,2025-06-05 02:53,-116.0278,36.6206,1009.00,85.00,40.00,20.44,210.00,8.00,0.00,29.79,1003.90,10.00,M,CLR,M,M,M,M,M,M,M,M,M,M,M,M,M,M,82.06,KDRA 050253Z AUTO 21008KT 10SM CLR 29/04 A2979 RMK AO2 SLP039 T02940044 53001,M
ELY,2025-06-05 02:53,-114.8453,39.2950,1909.00,68.00,17.00,13.98,330.00,10.00,0.00,29.99,1006.90,10.00,M,BKN,M,M,M,12000.00,M,M,M,M,M,M,M,M,M,M,68.00,KELY 050253Z AUTO 33010KT 10SM BKN120 20/M08 A2999 RMK AO2 SLP069 T02001083 53006,M
VGT,2025-06-05 02:53,-115.1933,36.2111,667.00,89.00,47.00,23.55,220.00,10.00,0.00,29.74,1006.10,10.00,M,CLR,M,M,M,M,M,M,M,M,M,M,M,M,M,M,85.78,KVGT 050253Z 22010KT 10SM CLR 32/08 A2974 RMK AO2 SLP061 T03170083 53001,M
LOL,2025-06-05 02:53,-118.5701,40.0684,1192.43,75.00,24.00,14.86,50.00,9.00,0.00,29.90,1009.00,10.00,M,CLR,M,M,M,M,M,M,M,M,M,M,M,M,M,M,75.00,KLOL 050253Z AUTO 05009KT 10SM CLR 24/M04 A2990 RMK AO2 SLP090 T02391044 53001,M
BVU,2025-06-05 02:55,-114.8611,35.9475,671.00,86.00,44.60,23.64,170.00,12.00,0.00,29.76,M,10.00,18.00,CLR,M,M,M,M,M,M,M,M,M,M,M,M,M,M,83.08,KBVU 050255Z AUTO 17012G18KT 10SM CLR 30/07 A2976 RMK AO2,M
RNO,2025-06-05 02:55,-119.7711,39.4839,1341.00,77.00,21.00,12.25,360.00,10.00,0.00,29.93,1008.30,10.00,M,FEW,FEW,M,M,10000.00,25000.00,M,M,M,M,M,M,M,M,M,77.00,KRNO 050255Z 36010KT 10SM FEW100 FEW250 25/M06 A2993 RMK AO2 SLP083 CB DSNT SE T02501061 53006,M
BAM,2025-06-05 02:55,-116.8743,40.5990,1382.36,71.60,26.60,18.56,340.00,6.00,0.00,29.96,M,10.00,M,CLR,M,M,M,M,M,M,M,M,M,M,M,M,M,M,71.60,KBAM 050255Z AUTO 34006KT 10SM CLR 22/M03 A2996 RMK AO1,M
CXP,2025-06-05 02:55,-119.7326,39.1923,1431.00,73.40,41.00,31.08,310.00,8.00,0.00,29.95,M,10.00,M,CLR,M,M,M,M,M,M,M,M,M,M,M,M,M,M,73.40,KCXP 050255Z AUTO 31008KT 10SM CLR 23/05 A2995 RMK AO2,M
HTH,2025-06-05 02:55,-118.6315,38.5448,1282.89,77.00,28.40,16.68,330.00,11.00,0.00,29.91,M,10.00,M,CLR,M,M,M,M,M,M,M,M,M,M,M,M,M,M,77.00,KHTH 050255Z AUTO 33011KT 10SM CLR 25/M02 A2991 RMK A01,M
INS,2025-06-05 02:55,-115.6733,36.5872,955.00,84.70,39.20,20.01,110.00,14.00,0.00,29.78,1003.30,10.00,M,CLR,M,M,M,M,M,M,M,M,M,M,M,M,M,M,81.81,KINS 050255Z AUTO 11014KT 10SM CLR 29/04 A2978 RMK AO2 SLP033 T02930040 53001 $,M
LSV,2025-06-05 02:55,-115.0343,36.2362,570.00,91.00,45.70,21.06,170.00,17.00,0.00,29.69,1002.50,10.00,M,SCT,M,M,M,15000.00,M,M,M,M,M,M,M,M,M,M,87.43,KLSV 050255Z 17017KT 10SM SCT150 33/08 A2969 RMK AO2A SLP025 T03280076 53001 $,M
EKO,2025-06-05 02:56,-115.7860,40.8242,1367.00,69.00,19.00,14.72,340.00,7.00,0.00,29.96,1010.70,10.00,M,CLR,M,M,M,M,M,M,M,M,M,M,M,M,M,M,69.00,KEKO 050256Z AUTO 34007KT 10SM CLR 21/M07 A2996 RMK AO2 SLP107 T02061072 53004,M
WMC,2025-06-05 02:56,-117.8072,40.9019,1315.00,71.00,23.00,16.30,20.00,7.00,0.00,29.94,1010.00,10.00,M,CLR,M,M,M,M,M,M,M,M,M,M,M,M,M,M,71.00,KWMC 050256Z AUTO 02007KT 10SM CLR 22/M05 A2994 RMK AO2 SLP100 T02171050 55002 TSNO,M
HND,2025-06-05 02:56,-115.1344,35.9729,742.79,85.00,48.00,27.75,170.00,10.00,0.00,29.79,1007.50,10.00,M,FEW,SCT,BKN,M,5000.00,6500.00,10000.00,M,M,M,M,M,M,M,M,82.61,KHND 050256Z 17010KT 10SM FEW050 SCT065 BKN100 29/09 A2979 RMK AO2 SLP075 T02940089 53005 $,M
TPH,2025-06-05 02:56,-117.0904,38.0505,1654.00,75.00,26.00,16.15,340.00,13.00,0.00,29.94,1006.50,10.00,M,CLR,M,M,M,M,M,M,M,M,M,M,M,M,M,M,75.00,KTPH 050256Z AUTO 34013KT 10SM CLR 24/M03 A2994 RMK AO2 SLP065 T02391033 53003 $,M
LAS,2025-06-05 02:56,-115.1634,36.0719,663.00,88.00,48.00,25.23,180.00,7.00,0.00,29.76,1005.20,10.00,21.00,FEW,FEW,BKN,M,10000.00,15000.00,20000.00,M,M,M,M,M,M,M,M,85.03,KLAS 050256Z 18007G21KT 10SM FEW100 FEW150 BKN200 31/09 A2976 RMK AO2 SLP052 T03110089 53003 $,M
NFL,2025-06-05 02:57,-118.7010,39.4166,1199.00,77.00,24.00,13.90,30.00,8.00,0.00,29.89,1009.60,10.00,M,FEW,M,M,M,25000.00,M,M,M,M,M,M,M,M,M,M,77.00,KNFL 050257Z 03008KT 10SM FEW250 25/M04 A2989 RMK AO2 SLP096 T02501044 55001 $,M
TMT,2025-06-05 03:10,-117.1971,39.4643,1749.34,63.30,19.80,18.56,350.00,6.00,0.00,30.01,M,10.00,M,CLR,M,M,M,M,M,M,M,M,M,M,M,M,M,M,63.30,KTMT 050310Z AUTO 35006KT 10SM CLR 17/M07 A3001 RMK AO2 T01741068,M
BVU,2025-06-05 03:15,-114.8611,35.9475,671.00,86.00,44.60,23.64,160.00,12.00,0.00,29.76,M,10.00,19.00,CLR,M,M,M,M,M,M,M,M,M,M,M,M,M,M,83.08,KBVU 050315Z AUTO 16012G19KT 10SM CLR 30/07 A2976 RMK AO2,M
BAM,2025-06-05 03:15,-116.8743,40.5990,1382.36,69.80,28.40,21.24,330.00,5.00,0.00,29.96,M,10.00,M,CLR,M,M,M,M,M,M,M,M,M,M,M,M,M,M,69.80,KBAM 050315Z AUTO 33005KT 10SM CLR 21/M02 A2996 RMK AO1,M
CXP,2025-06-05 03:15,-119.7326,39.1923,1431.00,73.40,42.80,33.31,330.00,11.00,0.00,29.95,M,10.00,17.00,CLR,M,M,M,M,M,M,M,M,M,M,M,M,M,M,73.40,KCXP 050315Z AUTO 33011G17KT 10SM CLR 23/06 A2995 RMK AO2,M
RTS,2025-06-05 03:15,-119.8764,39.6682,1539.00,69.80,23.00,16.98,360.00,4.00,0.00,29.99,M,10.00,M,CLR,M,M,M,M,M,M,M,M,M,M,M,M,M,M,69.80,KRTS 050315Z AUTO 36004KT 10SM CLR 21/M05 A2999 RMK AO2,M
MEV,2025-06-05 03:15,-119.7500,38.9963,1441.42,66.20,41.00,39.73,150.00,8.00,0.00,29.95,M,10.00,M,CLR,M,M,M,M,M,M,M,M,M,M,M,M,M,M,66.20,KMEV 050315Z AUTO 15008KT 10SM CLR 19/05 A2995 RMK AO2,M
HTH,2025-06-05 03:15,-118.6315,38.5448,1282.89,75.20,32.00,20.50,320.00,9.00,0.00,29.92,M,10.00,M,CLR,M,M,M,M,M,M,M,M,M,M,M,M,M,M,75.20,KHTH 050315Z AUTO 32009KT 10SM CLR 24/00 A2992 RMK A01,M
RTS,2025-06-05 03:25,-119.8764,39.6682,1539.00,68.00,23.00,18.06,350.00,4.00,0.00,29.99,M,10.00,M,CLR,M,M,M,M,M,M,M,M,M,M,M,M,M,M,68.00,KRTS 050325Z AUTO 35004KT 10SM CLR 20/M05 A2999 RMK AO2,M
MEV,2025-06-05 03:25,-119.7500,38.9963,1441.42,66.20,41.00,39.73,160.00,9.00,0.00,29.95,M,10.00,M,CLR,M,M,M,M,M,M,M,M,M,M,M,M,M,M,66.20,KMEV 050325Z AUTO 16009KT 10SM CLR 19/05 A2995 RMK AO2,M
TMT,2025-06-05 03:30,-117.1971,39.4643,1749.34,59.00,20.00,21.80,330.00,5.00,0.00,30.02,M,10.00,M,CLR,M,M,M,M,M,M,M,M,M,M,M,M,M,M,59.00,KTMT 050330Z AUTO 33005KT 10SM CLR 15/M07 A3002 RMK AO2 T01511066,M
BVU,2025-06-05 03:35,-114.8611,35.9475,671.00,86.00,44.60,23.64,160.00,13.00,0.00,29.76,M,10.00,M,CLR,M,M,M,M,M,M,M,M,M,M,M,M,M,M,83.08,KBVU 050335Z AUTO 16013KT 10SM CLR 30/07 A2976 RMK AO2,M
BAM,2025-06-05 03:35,-116.8743,40.5990,1382.36,68.00,28.40,22.60,340.00,6.00,0.00,29.96,M,10.00,M,CLR,M,M,M,M,M,M,M,M,M,M,M,M,M,M,68.00,KBAM 050335Z AUTO 34006KT 10SM CLR 20/M02 A2996 RMK AO1,M
HTH,2025-06-05 03:35,-118.6315,38.5448,1282.89,73.40,30.20,20.24,320.00,9.00,0.00,29.92,M,10.00,M,CLR,M,M,M,M,M,M,M,M,M,M,M,M,M,M,73.40,KHTH 050335Z AUTO 32009KT 10SM CLR 23/M01 A2992 RMK A01,M
CXP,2025-06-05 03:35,-119.7326,39.1923,1431.00,73.40,42.80,33.31,350.00,5.00,0.00,29.96,M,10.00,11.00,BKN,M,M,M,12000.00,M,M,M,M,M,M,M,M,M,M,73.40,KCXP 050335Z AUTO 35005G11KT 10SM BKN120 23/06 A2996 RMK AO2,M
MEV,2025-06-05 03:45,-119.7500,38.9963,1441.42,64.40,41.00,42.30,160.00,8.00,0.00,29.96,M,10.00,M,CLR,M,M,M,M,M,M,M,M,M,M,M,M,M,M,64.40,KMEV 050345Z AUTO 16008KT 10SM CLR 18/05 A2996 RMK AO2,M
TMT,2025-06-05 03:50,-117.1971,39.4643,1749.34,58.00,18.30,21.01,330.00,5.00,0.00,30.02,M,10.00,M,CLR,M,M,M,M,M,M,M,M,M,M,M,M,M,M,58.00,KTMT 050350Z AUTO 33005KT 10SM CLR 14/M08 A3002 RMK AO2 T01441076,M
DRA,2025-06-05 03:53,-116.0278,36.6206,1009.00,83.00,40.00,21.80,190.00,8.00,0.00,29.80,1004.30,10.00,M,CLR,M,M,M,M,M,M,M,M,M,M,M,M,M,M,80.64,KDRA 050353Z AUTO 19008KT 10SM CLR 28/04 A2980 RMK AO2 SLP043 T02830044,M
ELY,2025-06-05 03:53,-114.8453,39.2950,1909.00,60.00,19.00,20.15,10.00,7.00,0.00,30.01,1008.30,10.00,M,SCT,M,M,M,12000.00,M,M,M,M,M,M,M,M,M,M,60.00,KELY 050353Z AUTO 01007KT 10SM SCT120 16/M07 A3001 RMK AO2 SLP083 T01561072,M
VGT,2025-06-05 03:53,-115.1933,36.2111,667.00,86.00,45.00,24.00,210.00,8.00,0.00,29.75,1006.60,10.00,M,CLR,M,M,M,M,M,M,M,M,M,M,M,M,M,M,83.11,KVGT 050353Z 21008KT 10SM CLR 30/07 A2975 RMK AO2 SLP066 T03000072,M
LOL,2025-06-05 03:53,-118.5701,40.0684,1192.43,68.00,25.00,19.63,30.00,6.00,0.00,29.91,1009.60,10.00,M,CLR,M,M,M,M,M,M,M,M,M,M,M,M,M,M,68.00,KLOL 050353Z AUTO 03006KT 10SM CLR 20/M04 A2991 RMK AO2 SLP096 T02001039,M
P68,2025-06-05 03:53,-116.0056,39.6014,1993.00,56.00,29.00,35.36,350.00,3.00,0.00,30.01,1010.40,M,M,M,M,M,M,M,M,M,M,M,M,M,M,M,M,M,56.00,KP68 050353Z AUTO 35003KT 13/M02 A3001 RMK AO1 SLP104 T01331017,M
RNO,2025-06-05 03:55,-119.7711,39.4839,1341.00,74.00,19.00,12.43,40.00,4.00,0.00,29.94,1008.70,10.00,M,FEW,M,M,M,10000.00,M,M,M,M,M,M,M,M,M,M,74.00,KRNO 050355Z 04004KT 10SM FEW100 23/M07 A2994 RMK AO2 SLP087 T02331072,M
BAM,2025-06-05 03:55,-116.8743,40.5990,1382.36,66.20,30.20,25.88,350.00,5.00,0.00,29.96,M,10.00,M,CLR,M,M,M,M,M,M,M,M,M,M,M,M,M,M,66.20,KBAM 050355Z AUTO 35005KT 10SM CLR 19/M01 A2996 RMK AO1,M
BVU,2025-06-05 03:55,-114.8611,35.9475,671.00,86.00,42.80,22.07,160.00,12.00,0.00,29.76,M,10.00,M,CLR,M,M,M,M,M,M,M,M,M,M,M,M,M,M,82.96,KBVU 050355Z AUTO 16012KT 10SM CLR 30/06 A2976 RMK AO2,M
HTH,2025-06-05 03:55,-118.6315,38.5448,1282.89,73.40,28.40,18.81,320.00,8.00,0.00,29.92,M,10.00,M,CLR,M,M,M,M,M,M,M,M,M,M,M,M,M,M,73.40,KHTH 050355Z AUTO 32008KT 10SM CLR 23/M02 A2992 RMK A01,M
CXP,2025-06-05 03:55,-119.7326,39.1923,1431.00,71.60,42.80,35.40,130.00,3.00,0.00,29.97,M,10.00,M,BKN,M,M,M,12000.00,M,M,M,M,M,M,M,M,M,M,71.60,KCXP 050355Z AUTO 13003KT 10SM BKN120 22/06 A2997 RMK AO2,M
RTS,2025-06-05 03:55,-119.8764,39.6682,1539.00,66.20,23.00,19.21,290.00,4.00,0.00,29.99,M,10.00,M,CLR,M,M,M,M,M,M,M,M,M,M,M,M,M,M,66.20,KRTS 050355Z AUTO 29004KT 10SM CLR 19/M05 A2999 RMK AO2,M
INS,2025-06-05 03:55,-115.6733,36.5872,955.00,84.00,39.70,20.86,250.00,5.00,0.00,29.79,1003.50,10.00,M,CLR,M,M,M,M,M,M,M,M,M,M,M,M,M,M,81.32,KINS 050355Z AUTO 25005KT 10SM CLR 29/04 A2979 RMK AO2 SLP035 T02880043 $,M
LSV,2025-06-05 03:55,-115.0343,36.2362,570.00,88.30,47.00,24.07,190.00,19.00,0.00,29.70,1002.90,10.00,M,FEW,M,M,M,15000.00,M,M,M,M,M,M,M,M,M,M,85.17,KLSV 050355Z 19019KT 10SM FEW150 31/08 A2970 RMK AO2A SLP029 T03130083 $,M
WMC,2025-06-05 03:56,-117.8072,40.9019,1315.00,64.00,25.00,22.55,60.00,4.00,0.00,29.94,1010.40,10.00,M,CLR,M,M,M,M,M,M,M,M,M,M,M,M,M,M,64.00,KWMC 050356Z AUTO 06004KT 10SM CLR 18/M04 A2994 RMK AO2 SLP104 T01781039 TSNO,M
HND,2025-06-05 03:56,-115.1344,35.9729,742.79,82.00,50.00,32.94,200.00,11.00,0.00,29.81,1008.10,10.00,M,CLR,M,M,M,M,M,M,M,M,M,M,M,M,M,M,80.73,KHND 050356Z AUTO 20011KT 10SM CLR 28/10 A2981 RMK AO2 SLP081 T02780100 $,M
TPH,2025-06-05 03:56,-117.0904,38.0505,1654.00,72.00,24.00,16.43,350.00,9.00,0.00,29.95,1006.80,10.00,M,CLR,M,M,M,M,M,M,M,M,M,M,M,M,M,M,72.00,KTPH 050356Z AUTO 35009KT 10SM CLR 22/M04 A2995 RMK AO2 SLP068 T02221044 $,M
LAS,2025-06-05 03:56,-115.1634,36.0719,663.00,85.00,47.00,26.73,180.00,7.00,0.00,29.78,1005.70,10.00,17.00,FEW,FEW,BKN,M,10000.00,15000.00,20000.00,M,M,M,M,M,M,M,M,82.51,KLAS 050356Z 18007G17KT 10SM FEW100 FEW150 BKN200 29/08 A2978 RMK AO2 SLP057 T02940083 $,M
EKO,2025-06-05 03:56,-115.7860,40.8242,1367.00,64.00,20.00,18.27,100.00,4.00,0.00,29.97,1011.10,10.00,M,CLR,M,M,M,M,M,M,M,M,M,M,M,M,M,M,64.00,KEKO 050356Z AUTO 10004KT 10SM CLR 18/M07 A2997 RMK AO2 SLP111 T01781067,M
NFL,2025-06-05 03:57,-118.7010,39.4166,1199.00,71.00,24.00,17.00,M,5.00,0.00,29.90,1009.90,10.00,M,CLR,M,M,M,M,M,M,M,M,M,M,M,M,M,M,71.00,KNFL 050357Z VRB05KT 10SM CLR 22/M04 A2990 RMK AO2 SLP099 T02171044 $,M
TMT,2025-06-05 04:10,-117.1971,39.4643,1749.34,52.00,17.40,25.14,0.00,0.00,0.00,30.03,M,10.00,M,CLR,M,M,M,M,M,M,M,M,M,M,M,M,M,M,52.00,KTMT 050410Z AUTO 00000KT 10SM CLR 11/M08 A3003 RMK AO2 T01111081,M
BVU,2025-06-05 04:15,-114.8611,35.9475,671.00,84.20,42.80,23.37,170.00,10.00,0.00,29.77,M,10.00,16.00,CLR,M,M,M,M,M,M,M,M,M,M,M,M,M,M,81.61,KBVU 050415Z AUTO 17010G16KT 10SM CLR 29/06 A2977 RMK AO2,M
CXP,2025-06-05 04:15,-119.7326,39.1923,1431.00,71.60,42.80,35.40,340.00,4.00,0.00,29.98,M,10.00,M,CLR,M,M,M,M,M,M,M,M,M,M,M,M,M,M,71.60,KCXP 050415Z AUTO 34004KT 10SM CLR 22/06 A2998 RMK AO2,M
RTS,2025-06-05 04:15,-119.8764,39.6682,1539.00,62.60,21.20,20.19,0.00,0.00,0.00,29.99,M,10.00,M,CLR,M,M,M,M,M,M,M,M,M,M,M,M,M,M,62.60,KRTS 050415Z AUTO 00000KT 10SM CLR 17/M06 A2999 RMK AO2,M
MEV,2025-06-05 04:15,-119.7500,38.9963,1441.42,62.60,41.00,45.05,150.00,8.00,0.00,29.96,M,10.00,M,CLR,M,M,M,M,M,M,M,M,M,M,M,M,M,M,62.60,KMEV 050415Z AUTO 15008KT 10SM CLR 17/05 A2996 RMK AO2,M
HTH,2025-06-05 04:15,-118.6315,38.5448,1282.89,71.60,21.20,14.80,320.00,6.00,0.00,29.92,M,10.00,M,CLR,M,M,M,M,M,M,M,M,M,M,M,M,M,M,71.60,KHTH 050415Z AUTO 32006KT 10SM CLR 22/M06 A2992 RMK A01,M
BAM,2025-06-05 04:15,-116.8743,40.5990,1382.36,62.60,28.40,27.26,340.00,3.00,0.00,29.97,M,10.00,M,CLR,M,M,M,M,M,M,M,M,M,M,M,M,M,M,62.60,KBAM 050415Z AUTO 34003KT 10SM CLR 17/M02 A2997 RMK AO1,M
MEV,2025-06-05 04:25,-119.7500,38.9963,1441.42,60.80,41.00,48.01,170.00,6.00,0.00,29.97,M,10.00,M,FEW,FEW,M,M,4600.00,9000.00,M,M,M,M,M,M,M,M,M,60.80,KMEV 050425Z AUTO 17006KT 10SM FEW046 FEW090 16/05 A2997 RMK AO2,M
RTS,2025-06-05 04:25,-119.8764,39.6682,1539.00,60.80,19.40,19.93,350.00,4.00,0.00,30.00,M,10.00,M,CLR,M,M,M,M,M,M,M,M,M,M,M,M,M,M,60.80,KRTS 050425Z AUTO 35004KT 10SM CLR 16/M07 A3000 RMK AO2,M
TMT,2025-06-05 04:30,-117.1971,39.4643,1749.34,49.50,17.60,27.82,0.00,0.00,0.00,30.04,M,10.00,M,CLR,M,M,M,M,M,M,M,M,M,M,M,M,M,M,49.50,KTMT 050430Z AUTO 00000KT 10SM CLR 10/M08 A3004 RMK AO2 T00971080,M
HTH,2025-06-05 04:35,-118.6315,38.5448,1282.89,71.60,19.40,13.71,340.00,6.00,0.00,29.93,M,10.00,M,CLR,M,M,M,M,M,M,M,M,M,M,M,M,M,M,71.60,KHTH 050435Z AUTO 34006KT 10SM CLR 22/M07 A2993 RMK A01,M
BVU,2025-06-05 04:35,-114.8611,35.9475,671.00,84.20,44.60,25.04,160.00,14.00,0.00,29.77,M,10.00,M,CLR,M,M,M,M,M,M,M,M,M,M,M,M,M,M,81.73,KBVU 050435Z AUTO 16014KT 10SM CLR 29/07 A2977 RMK AO2,M
BAM,2025-06-05 04:35,-116.8743,40.5990,1382.36,62.60,26.60,25.31,330.00,4.00,0.00,29.97,M,10.00,M,CLR,M,M,M,M,M,M,M,M,M,M,M,M,M,M,62.60,KBAM 050435Z AUTO 33004KT 10SM CLR 17/M03 A2997 RMK AO1,M
CXP,2025-06-05 04:35,-119.7326,39.1923,1431.00,69.80,41.00,35.11,220.00,4.00,0.00,29.99,M,10.00,M,CLR,M,M,M,M,M,M,M,M,M,M,M,M,M,M,69.80,KCXP 050435Z AUTO 22004KT 10SM CLR 21/05 A2999 RMK AO2,M
TMT,2025-06-05 04:50,-117.1971,39.4643,1749.34,45.70,15.00,28.66,180.00,5.00,0.00,30.05,M,10.00,M,CLR,M,M,M,M,M,M,M,M,M,M,M,M,M,M,42.67,KTMT 050450Z AUTO 18005KT 10SM CLR 08/M09 A3005 RMK AO2 T00761095,M
P68,2025-06-05 04:53,-116.0056,39.6014,1993.00,55.00,23.00,28.59,350.00,6.00,0.00,30.03,1011.00,M,M,M,M,M,M,M,M,M,M,M,M,M,M,M,M,M,55.00,KP68 050453Z AUTO 35006KT 13/M05 A3003 RMK AO1 SLP110 T01281050,M
DRA,2025-06-05 04:53,-116.0278,36.6206,1009.00,83.00,40.00,21.80,190.00,16.00,0.00,29.81,1004.30,10.00,23.00,CLR,M,M,M,M,M,M,M,M,M,M,M,M,M,M,80.64,KDRA 050453Z AUTO 19016G23KT 10SM CLR 28/04 A2981 RMK AO2 SLP043 T02830044,M
ELY,2025-06-05 04:53,-114.8453,39.2950,1909.00,55.00,17.00,22.13,310.00,6.00,0.00,30.03,1009.30,10.00,M,FEW,M,M,M,11000.00,M,M,M,M,M,M,M,M,M,M,55.00,KELY 050453Z AUTO 31006KT 10SM FEW110 13/M08 A3003 RMK AO2 SLP093 T01281083,M
VGT,2025-06-05 04:53,-115.1933,36.2111,667.00,84.00,47.00,27.60,180.00,9.00,0.00,29.77,1007.20,10.00,M,CLR,M,M,M,M,M,M,M,M,M,M,M,M,M,M,81.78,KVGT 050453Z AUTO 18009KT 10SM CLR 29/08 A2977 RMK AO2 SLP072 T02890083,M
LOL,2025-06-05 04:53,-118.5701,40.0684,1192.43,64.00,24.00,21.63,50.00,8.00,0.00,29.92,1009.90,10.00,M,CLR,M,M,M,M,M,M,M,M,M,M,M,M,M,M,64.00,KLOL 050453Z AUTO 05008KT 10SM CLR 18/M04 A2992 RMK AO2 SLP099 T01781044,M
BVU,2025-06-05 04:55,-114.8611,35.9475,671.00,84.20,44.60,25.04,160.00,10.00,0.00,29.78,M,10.00,20.00,CLR,M,M,M,M,M,M,M,M,M,M,M,M,M,M,81.73,KBVU 050455Z AUTO 16010G20KT 10SM CLR 29/07 A2978 RMK AO2,M
RNO,2025-06-05 04:55,-119.7711,39.4839,1341.00,73.00,21.00,14.00,280.00,5.00,0.00,29.96,1009.30,10.00,M,FEW,FEW,M,M,6000.00,12000.00,M,M,M,M,M,M,M,M,M,73.00,KRNO 050455Z 28005KT 10SM FEW060 FEW120 23/M06 A2996 RMK AO2 SLP093 T02281061,M
BAM,2025-06-05 04:55,-116.8743,40.5990,1382.36,62.60,26.60,25.31,320.00,6.00,0.00,29.98,M,10.00,M,CLR,M,M,M,M,M,M,M,M,M,M,M,M,M,M,62.60,KBAM 050455Z AUTO 32006KT 10SM CLR 17/M03 A2998 RMK AO1,M
CXP,2025-06-05 04:55,-119.7326,39.1923,1431.00,68.00,39.20,34.81,0.00,0.00,0.00,29.99,M,10.00,M,CLR,M,M,M,M,M,M,M,M,M,M,M,M,M,M,68.00,KCXP 050455Z AUTO 00000KT 10SM CLR 20/04 A2999 RMK AO2,M
RTS,2025-06-05 04:55,-119.8764,39.6682,1539.00,59.00,21.20,22.94,350.00,5.00,0.00,30.01,M,10.00,M,CLR,M,M,M,M,M,M,M,M,M,M,M,M,M,M,59.00,KRTS 050455Z AUTO 35005KT 10SM CLR 15/M06 A3001 RMK AO2,M
MEV,2025-06-05 04:55,-119.7500,38.9963,1441.42,60.80,41.00,48.01,80.00,3.00,0.00,29.98,M,10.00,M,FEW,FEW,FEW,M,3700.00,4600.00,5000.00,M,M,M,M,M,M,M,M,60.80,KMEV 050455Z AUTO 08003KT 10SM FEW037 FEW046 FEW050 16/05 A2998 RMK AO2,M
HTH,2025-06-05 04:55,-118.6315,38.5448,1282.89,71.60,19.40,13.71,320.00,6.00,0.00,29.94,M,10.00,M,CLR,M,M,M,M,M,M,M,M,M,M,M,M,M,M,71.60,KHTH 050455Z AUTO 32006KT 10SM CLR 22/M07 A2994 RMK A01,M
INS,2025-06-05 04:55,-115.6733,36.5872,955.00,80.60,39.40,23.02,30.00,5.00,0.00,29.80,1003.80,10.00,M,CLR,M,M,M,M,M,M,M,M,M,M,M,M,M,M,79.12,KINS 050455Z AUTO 03005KT 10SM CLR 27/04 A2980 RMK AO2 SLP038 T02700041 $,M
LSV,2025-06-05 04:55,-115.0343,36.2362,570.00,86.00,44.80,23.82,200.00,6.00,0.00,29.73,1004.00,10.00,M,CLR,M,M,M,M,M,M,M,M,M,M,M,M,M,M,83.09,KLSV 050455Z AUTO 20006KT 10SM CLR 30/07 A2973 RMK AO2 SLP040 T02990071 $,M
EKO,2025-06-05 04:56,-115.7860,40.8242,1367.00,59.00,20.00,21.80,80.00,3.00,0.00,29.99,1011.80,10.00,M,CLR,M,M,M,M,M,M,M,M,M,M,M,M,M,M,59.00,KEKO 050456Z AUTO 08003KT 10SM CLR 15/M07 A2999 RMK AO2 SLP118 T01501067,M
WMC,2025-06-05 04:56,-117.8072,40.9019,1315.00,54.00,23.00,29.65,110.00,3.00,0.00,29.96,1011.40,10.00,M,CLR,M,M,M,M,M,M,M,M,M,M,M,M,M,M,54.00,KWMC 050456Z AUTO 11003KT 10SM CLR 12/M05 A2996 RMK AO2 SLP114 T01221050 TSNO,M
HND,2025-06-05 04:56,-115.1344,35.9729,742.79,80.00,50.00,35.15,170.00,11.00,0.00,29.82,1008.60,10.00,M,CLR,M,M,M,M,M,M,M,M,M,M,M,M,M,M,79.55,KHND 050456Z AUTO 17011KT 10SM CLR 27/10 A2982 RMK AO2 SLP086 T02670100 $,M
TPH,2025-06-05 04:56,-117.0904,38.0505,1654.00,70.00,21.00,15.49,340.00,12.00,0.00,29.97,1007.50,10.00,M,CLR,M,M,M,M,M,M,M,M,M,M,M,M,M,M,70.00,KTPH 050456Z AUTO 34012KT 10SM CLR 21/M06 A2997 RMK AO2 SLP075 T02111061 $,M
LAS,2025-06-05 04:56,-115.1634,36.0719,663.00,83.00,49.00,30.72,180.00,7.00,0.00,29.78,1006.00,10.00,M,FEW,FEW,SCT,M,10000.00,15000.00,20000.00,M,M,M,M,M,M,M,M,81.28,KLAS 050456Z 18007KT 10SM FEW100 FEW150 SCT200 28/09 A2978 RMK AO2 SLP060 T02830094 $,M
NFL,2025-06-05 04:57,-118.7010,39.4166,1199.00,65.00,26.00,22.70,60.00,5.00,0.00,29.91,1010.30,10.00,M,CLR,M,M,M,M,M,M,M,M,M,M,M,M,M,M,65.00,KNFL 050457Z 06005KT 10SM CLR 18/M03 A2991 RMK AO2 SLP103 T01831033 $,M
RTS,2025-06-05 05:05,-119.8764,39.6682,1539.00,60.80,21.20,21.52,350.00,6.00,0.00,30.01,M,10.00,M,CLR,M,M,M,M,M,M,M,M,M,M,M,M,M,M,60.80,KRTS 050505Z AUTO 35006KT 10SM CLR 16/M06 A3001 RMK AO2,M
MEV,2025-06-05 05:05,-119.7500,38.9963,1441.42,60.80,41.00,48.01,100.00,5.00,0.00,29.98,M,10.00,M,FEW,M,M,M,4900.00,M,M,M,M,M,M,M,M,M,M,60.80,KMEV 050505Z AUTO 10005KT 10SM FEW049 16/05 A2998 RMK AO2,M
TMT,2025-06-05 05:10,-117.1971,39.4643,1749.34,45.00,13.50,27.56,180.00,3.00,0.00,30.05,M,10.00,M,CLR,M,M,M,M,M,M,M,M,M,M,M,M,M,M,43.55,KTMT 050510Z AUTO 18003KT 10SM CLR 07/M10 A3005 RMK AO2 T00731103,M
HTH,2025-06-05 05:15,-118.6315,38.5448,1282.89,69.80,19.40,14.57,310.00,4.00,0.00,29.94,M,10.00,M,CLR,M,M,M,M,M,M,M,M,M,M,M,M,M,M,69.80,KHTH 050515Z AUTO 31004KT 10SM CLR 21/M07 A2994 RMK A01,M
BVU,2025-06-05 05:15,-114.8611,35.9475,671.00,84.20,46.40,26.81,170.00,13.00,0.00,29.78,M,10.00,M,CLR,M,M,M,M,M,M,M,M,M,M,M,M,M,M,81.87,KBVU 050515Z AUTO 17013KT 10SM CLR 29/08 A2978 RMK AO2,M
BAM,2025-06-05 05:15,-116.8743,40.5990,1382.36,64.40,24.80,22.05,340.00,6.00,0.00,29.99,M,10.00,M,CLR,M,M,M,M,M,M,M,M,M,M,M,M,M,M,64.40,KBAM 050515Z AUTO 34006KT 10SM CLR 18/M04 A2999 RMK AO1,M
CXP,2025-06-05 05:15,-119.7326,39.1923,1431.00,68.00,39.20,34.81,0.00,0.00,0.00,30.00,M,10.00,M,CLR,M,M,M,M,M,M,M,M,M,M,M,M,M,M,68.00,KCXP 050515Z AUTO 00000KT 10SM CLR 20/04 A3000 RMK AO2,M
TMT,2025-06-05 05:30,-117.1971,39.4643,1749.34,44.20,14.00,29.05,170.00,4.00,0.00,30.05,M,10.00,M,CLR,M,M,M,M,M,M,M,M,M,M,M,M,M,M,41.67,KTMT 050530Z AUTO 17004KT 10SM CLR 07/M10 A3005 RMK AO2 T00681100,M
CXP,2025-06-05 05:35,-119.7326,39.1923,1431.00,66.20,39.20,37.04,0.00,0.00,0.00,30.00,M,10.00,M,CLR,M,M,M,M,M,M,M,M,M,M,M,M,M,M,66.20,KCXP 050535Z AUTO 00000KT 10SM CLR 19/04 A3000 RMK AO2,M
RTS,2025-06-05 05:35,-119.8764,39.6682,1539.00,59.00,21.20,22.94,340.00,9.00,0.00,30.01,M,10.00,M,CLR,M,M,M,M,M,M,M,M,M,M,M,M,M,M,59.00,KRTS 050535Z AUTO 34009KT 10SM CLR 15/M06 A3001 RMK AO2,M
MEV,2025-06-05 05:35,-119.7500,38.9963,1441.42,55.40,44.60,66.91,130.00,4.00,0.00,29.98,M,10.00,M,SCT,SCT,M,M,4900.00,6500.00,M,M,M,M,M,M,M,M,M,55.40,KMEV 050535Z AUTO 13004KT 10SM SCT049 SCT065 13/07 A2998 RMK AO2,M
HTH,2025-06-05 05:35,-118.6315,38.5448,1282.89,69.80,19.40,14.57,280.00,4.00,0.00,29.94,M,10.00,M,CLR,M,M,M,M,M,M,M,M,M,M,M,M,M,M,69.80,KHTH 050535Z AUTO 28004KT 10SM CLR 21/M07 A2994 RMK A01,M
BVU,2025-06-05 05:35,-114.8611,35.9475,671.00,82.40,46.40,28.41,170.00,6.00,0.00,29.79,M,10.00,M,CLR,M,M,M,M,M,M,M,M,M,M,M,M,M,M,80.64,KBVU 050535Z AUTO 17006KT 10SM CLR 28/08 A2979 RMK AO2,M
BAM,2025-06-05 05:35,-116.8743,40.5990,1382.36,62.60,26.60,25.31,320.00,4.00,0.00,29.99,M,10.00,M,CLR,M,M,M,M,M,M,M,M,M,M,M,M,M,M,62.60,KBAM 050535Z AUTO 32004KT 10SM CLR 17/M03 A2999 RMK AO1,M
TMT,2025-06-05 05:50,-117.1971,39.4643,1749.34,45.30,15.00,29.10,180.00,5.00,0.00,30.05,M,10.00,M,CLR,M,M,M,M,M,M,M,M,M,M,M,M,M,M,42.19,KTMT 050550Z AUTO 18005KT 10SM CLR 07/M09 A3005 RMK AO2 T00741094,M
P68,2025-06-05 05:53,-116.0056,39.6014,1993.00,47.00,22.00,36.86,160.00,6.00,0.00,30.04,1011.70,M,M,M,M,M,M,M,M,M,M,M,M,M,M,M,M,M,43.60,KP68 050553Z AUTO 16006KT 08/M06 A3004 RMK AO1 SLP117 T00831056 10239 20083 51014,M
DRA,2025-06-05 05:53,-116.0278,36.6206,1009.00,82.00,43.00,25.28,200.00,16.00,0.00,29.81,1004.20,10.00,M,CLR,M,M,M,M,M,M,M,M,M,M,M,26.00,180.00,2025-06-05 05:11,80.15,KDRA 050553Z AUTO 20016KT 10SM CLR 28/06 A2981 RMK AO2 PK WND 18026/0511 SLP042 T02780061 10322 20272 51004,M
ELY,2025-06-05 05:53,-114.8453,39.2950,1909.00,54.00,16.00,21.98,30.00,5.00,0.00,30.04,1009.20,10.00,M,CLR,M,M,M,M,M,M,M,M,M,M,M,M,M,M,54.00,KELY 050553Z AUTO 03005KT 10SM CLR 12/M09 A3004 RMK AO2 SLP092 T01221089 10244 20122 51014,M
VGT,2025-06-05 05:53,-115.1933,36.2111,667.00,83.00,48.00,29.59,130.00,9.00,0.00,29.77,1006.90,10.00,M,CLR,M,M,M,M,M,M,M,M,M,M,M,M,M,M,81.18,KVGT 050553Z AUTO 13009KT 10SM CLR 28/09 A2977 RMK AO2 SLP069 T02830089 10344 20283 50009,M
LOL,2025-06-05 05:53,-118.5701,40.0684,1192.43,60.00,24.00,24.91,300.00,3.00,0.00,29.92,1010.10,10.00,M,CLR,M,M,M,M,M,M,M,M,M,M,M,M,M,M,60.00,KLOL 050553Z AUTO 30003KT 10SM CLR 16/M04 A2992 RMK AO2 SLP101 T01561044 10272 20156 51006,M
BVU,2025-06-05 05:55,-114.8611,35.9475,671.00,82.40,46.40,28.41,170.00,3.00,0.00,29.78,M,10.00,M,CLR,M,M,M,M,M,M,M,M,M,M,M,M,M,M,80.64,KBVU 050555Z AUTO 17003KT 10SM CLR 28/08 A2978 RMK AO2,M
RNO,2025-06-05 05:55,-119.7711,39.4839,1341.00,68.00,30.00,24.12,290.00,8.00,0.00,29.96,1009.60,10.00,M,SCT,M,M,M,9000.00,M,M,M,M,M,M,M,M,M,M,68.00,KRNO 050555Z 29008KT 10SM SCT090 20/M01 A2996 RMK AO2 SLP096 T02001011 10289 20200 51012,M
BAM,2025-06-05 05:55,-116.8743,40.5990,1382.36,59.00,24.80,26.69,120.00,4.00,0.00,29.99,M,10.00,M,CLR,M,M,M,M,M,M,M,M,M,M,M,M,M,M,59.00,KBAM 050555Z AUTO 12004KT 10SM CLR 15/M04 A2999 RMK AO1,M
CXP,2025-06-05 05:55,-119.7326,39.1923,1431.00,62.60,39.20,42.00,330.00,4.00,0.00,29.99,M,10.00,M,CLR,M,M,M,M,M,M,M,M,M,M,M,M,M,M,62.60,KCXP 050555Z AUTO 33004KT 10SM CLR 17/04 A2999 RMK AO2,M
RTS,2025-06-05 05:55,-119.8764,39.6682,1539.00,59.00,21.20,22.94,340.00,6.00,0.00,30.01,M,10.00,M,CLR,M,M,M,M,M,M,M,M,M,M,M,M,M,M,59.00,KRTS 050555Z AUTO 34006KT 10SM CLR 15/M06 A3001 RMK AO2,M
MEV,2025-06-05 05:55,-119.7500,38.9963,1441.42,53.60,42.80,66.70,M,3.00,0.00,29.98,M,10.00,M,FEW,SCT,BKN,M,3300.00,4500.00,5000.00,M,M,M,M,M,M,M,M,53.60,KMEV 050555Z AUTO VRB03KT 10SM FEW033 SCT045 BKN050 12/06 A2998 RMK AO2,M
HTH,2025-06-05 05:55,-118.6315,38.5448,1282.89,69.80,19.40,14.57,280.00,3.00,0.00,29.94,M,10.00,M,CLR,M,M,M,M,M,M,M,M,M,M,M,M,M,M,69.80,KHTH 050555Z AUTO 28003KT 10SM CLR 21/M07 A2994 RMK A01,M
INS,2025-06-05 05:55,-115.6733,36.5872,955.00,80.00,41.00,24.98,10.00,3.00,0.00,29.81,1004.10,10.00,M,CLR,M,M,M,M,M,M,M,M,M,M,M,M,M,M,78.87,KINS 050555Z AUTO 01003KT 10SM CLR 27/05 A2981 RMK AO2 SLP041 T02660049 10315 20258 52009 $,M
LSV,2025-06-05 05:55,-115.0343,36.2362,570.00,84.60,47.00,27.07,200.00,6.00,0.00,29.72,1003.50,10.00,M,FEW,SCT,M,M,15000.00,20000.00,M,M,M,M,M,M,M,M,M,82.22,KLSV 050555Z 20006KT 10SM FEW150 SCT200 29/08 A2972 RMK AO2A SLP035 T02920083 10351 20292 50012 $,M
EKO,2025-06-05 05:56,-115.7860,40.8242,1367.00,56.00,22.00,26.43,80.00,4.00,0.00,30.00,1011.90,10.00,M,CLR,M,M,M,M,M,M,M,M,M,M,M,M,M,M,56.00,KEKO 050556Z AUTO 08004KT 10SM CLR 13/M06 A3000 RMK AO2 SLP119 T01331056 10239 20133 51010,M
WMC,2025-06-05 05:56,-117.8072,40.9019,1315.00,55.00,26.00,32.41,30.00,5.00,0.00,29.96,1011.30,10.00,M,CLR,M,M,M,M,M,M,M,M,M,M,M,M,M,M,55.00,KWMC 050556Z AUTO 03005KT 10SM CLR 13/M03 A2996 RMK AO2 SLP113 T01281033 10250 20106 52008 TSNO,M
HND,2025-06-05 05:56,-115.1344,35.9729,742.79,80.00,49.00,33.86,180.00,11.00,0.00,29.82,1008.40,10.00,M,CLR,M,M,M,M,M,M,M,M,M,M,M,M,M,M,79.46,KHND 050556Z AUTO 18011KT 10SM CLR 27/09 A2982 RMK AO2 SLP084 T02670094 10339 20261 50008 $,M
TPH,2025-06-05 05:56,-117.0904,38.0505,1654.00,65.00,20.00,17.64,350.00,11.00,0.00,29.97,1007.80,10.00,M,CLR,M,M,M,M,M,M,M,M,M,M,M,M,M,M,65.00,KTPH 050556Z AUTO 35011KT 10SM CLR 18/M07 A2997 RMK AO2 SLP078 T01831067 10278 20183 51010 $,M
LAS,2025-06-05 05:56,-115.1634,36.0719,663.00,82.00,47.00,29.44,170.00,10.00,0.00,29.78,1005.90,10.00,18.00,FEW,FEW,M,M,15000.00,20000.00,M,M,M,M,M,M,M,M,M,80.44,KLAS 050556Z 17010G18KT 10SM FEW150 FEW200 28/08 A2978 RMK AO2 SLP059 T02780083 10344 20278 51008 $,M
NFL,2025-06-05 05:57,-118.7010,39.4166,1199.00,61.00,27.00,27.23,20.00,5.00,0.00,29.92,1010.40,10.00,M,CLR,M,M,M,M,M,M,M,M,M,M,M,M,M,M,61.00,KNFL 050557Z 02005KT 10SM CLR 16/M03 A2992 RMK AO2 SLP104 T01611028 10289 20161 51008 $,M
RTS,2025-06-05 06:05,-119.8764,39.6682,1539.00,55.40,21.20,26.12,350.00,7.00,0.00,30.01,M,10.00,M,CLR,M,M,M,M,M,M,M,M,M,M,M,M,M,M,55.40,KRTS 050605Z AUTO 35007KT 10SM CLR 13/M06 A3001 RMK AO2,M
MEV,2025-06-05 06:05,-119.7500,38.9963,1441.42,53.60,41.00,62.22,0.00,0.00,0.00,29.98,M,10.00,M,FEW,FEW,SCT,M,3200.00,4500.00,7000.00,M,M,M,M,M,M,M,M,53.60,KMEV 050605Z AUTO 00000KT 10SM FEW032 FEW045 SCT070 12/05 A2998 RMK AO2,M
TMT,2025-06-05 06:10,-117.1971,39.4643,1749.34,44.00,15.00,30.58,210.00,5.00,0.00,30.05,M,10.00,M,CLR,M,M,M,M,M,M,M,M,M,M,M,M,M,M,40.65,KTMT 050610Z AUTO 21005KT 10SM CLR 07/M09 A3005 RMK AO2 T00671094,M
HTH,2025-06-05 06:15,-118.6315,38.5448,1282.89,69.80,19.40,14.57,0.00,0.00,0.00,29.94,M,10.00,M,CLR,M,M,M,M,M,M,M,M,M,M,M,M,M,M,69.80,KHTH 050615Z AUTO 00000KT 10SM CLR 21/M07 A2994 RMK A01,M
BVU,2025-06-05 06:15,-114.8611,35.9475,671.00,80.60,46.40,30.12,0.00,0.00,0.00,29.78,M,10.00,M,CLR,M,M,M,M,M,M,M,M,M,M,M,M,M,M,79.56,KBVU 050615Z AUTO 00000KT 10SM CLR 27/08 A2978 RMK AO2,M
BAM,2025-06-05 06:15,-116.8743,40.5990,1382.36,53.60,21.20,27.89,0.00,0.00,0.00,29.99,M,10.00,M,CLR,M,M,M,M,M,M,M,M,M,M,M,M,M,M,53.60,KBAM 050615Z AUTO 00000KT 10SM CLR 12/M06 A2999 RMK AO1,M
CXP,2025-06-05 06:15,-119.7326,39.1923,1431.00,62.60,39.20,42.00,350.00,3.00,0.00,29.99,M,10.00,M,CLR,M,M,M,M,M,M,M,M,M,M,M,M,M,M,62.60,KCXP 050615Z AUTO 35003KT 10SM CLR 17/04 A2999 RMK AO2,M
TMT,2025-06-05 06:30,-117.1971,39.4643,1749.34,43.00,15.30,32.19,230.00,5.00,0.00,30.05,M,10.00,M,CLR,M,M,M,M,M,M,M,M,M,M,M,M,M,M,39.46,KTMT 050630Z AUTO 23005KT 10SM CLR 06/M09 A3005 RMK AO2 T00611093,M
BVU,2025-06-05 06:35,-114.8611,35.9475,671.00,80.60,46.40,30.12,0.00,0.00,0.00,29.78,M,10.00,M,CLR,M,M,M,M,M,M,M,M,M,M,M,M,M,M,79.56,KBVU 050635Z AUTO 00000KT 10SM CLR 27/08 A2978 RMK AO2 LTG DSNT NE AND W,M
BAM,2025-06-05 06:35,-116.8743,40.5990,1382.36,53.60,23.00,30.09,140.00,4.00,0.00,29.99,M,10.00,M,CLR,M,M,M,M,M,M,M,M,M,M,M,M,M,M,53.60,KBAM 050635Z AUTO 14004KT 10SM CLR 12/M05 A2999 RMK AO1,M
CXP,2025-06-05 06:35,-119.7326,39.1923,1431.00,60.80,39.20,44.76,0.00,0.00,0.00,29.99,M,10.00,M,CLR,M,M,M,M,M,M,M,M,M,M,M,M,M,M,60.80,KCXP 050635Z AUTO 00000KT 10SM CLR 16/04 A2999 RMK AO2,M
HTH,2025-06-05 06:35,-118.6315,38.5448,1282.89,62.60,19.40,18.70,120.00,6.00,0.00,29.94,M,10.00,M,CLR,M,M,M,M,M,M,M,M,M,M,M,M,M,M,62.60,KHTH 050635Z AUTO 12006KT 10SM CLR 17/M07 A2994 RMK A01,M
MEV,2025-06-05 06:45,-119.7500,38.9963,1441.42,51.80,39.20,61.99,150.00,4.00,0.00,29.98,M,10.00,M,BKN,M,M,M,8500.00,M,M,M,M,M,M,M,M,M,M,51.80,KMEV 050645Z AUTO 15004KT 10SM BKN085 11/04 A2998 RMK AO2,M
RTS,2025-06-05 06:45,-119.8764,39.6682,1539.00,53.60,21.20,27.89,340.00,7.00,0.00,30.00,M,10.00,M,CLR,M,M,M,M,M,M,M,M,M,M,M,M,M,M,53.60,KRTS 050645Z AUTO 34007KT 10SM CLR 12/M06 A3000 RMK AO2,M
TMT,2025-06-05 06:50,-117.1971,39.4643,1749.34,40.60,17.00,38.02,210.00,7.00,0.00,30.05,M,10.00,M,CLR,M,M,M,M,M,M,M,M,M,M,M,M,M,M,35.26,KTMT 050650Z AUTO 21007KT 10SM CLR 05/M08 A3005 RMK AO2 T00481083,M
P68,2025-06-05 06:53,-116.0056,39.6014,1993.00,43.00,22.00,42.92,0.00,0.00,0.00,30.03,1011.50,M,M,M,M,M,M,M,M,M,M,M,M,M,M,M,M,M,43.00,KP68 050653Z AUTO 00000KT 06/M06 A3003 RMK AO1 SLP115 T00611056,M
DRA,2025-06-05 06:53,-116.0278,36.6206,1009.00,81.00,44.00,27.13,210.00,15.00,0.00,29.82,1004.40,10.00,M,CLR,M,M,M,M,M,M,M,M,M,M,M,27.00,210.00,2025-06-05 06:42,79.61,KDRA 050653Z AUTO 21015KT 10SM CLR 27/07 A2982 RMK AO2 PK WND 21027/0642 SLP044 T02720067,M
ELY,2025-06-05 06:53,-114.8453,39.2950,1909.00,53.00,19.00,25.95,350.00,5.00,0.00,30.04,1008.70,10.00,M,CLR,M,M,M,M,M,M,M,M,M,M,M,M,M,M,53.00,KELY 050653Z AUTO 35005KT 10SM CLR 12/M07 A3004 RMK AO2 SLP087 T01171072,M
VGT,2025-06-05 06:53,-115.1933,36.2111,667.00,81.00,47.00,30.41,150.00,6.00,0.00,29.77,1007.00,10.00,M,CLR,M,M,M,M,M,M,M,M,M,M,M,M,M,M,79.84,KVGT 050653Z AUTO 15006KT 10SM CLR 27/08 A2977 RMK AO2 SLP070 T02720083,M
LOL,2025-06-05 06:53,-118.5701,40.0684,1192.43,57.00,24.00,27.73,320.00,5.00,0.00,29.92,1010.00,10.00,M,CLR,M,M,M,M,M,M,M,M,M,M,M,M,M,M,57.00,KLOL 050653Z AUTO 32005KT 10SM CLR 14/M04 A2992 RMK AO2 SLP100 T01391044,M
BVU,2025-06-05 06:55,-114.8611,35.9475,671.00,80.60,46.40,30.12,160.00,8.00,0.00,29.78,M,10.00,M,CLR,M,M,M,M,M,M,M,M,M,M,M,M,M,M,79.56,KBVU 050655Z AUTO 16008KT 10SM CLR 27/08 A2978 RMK AO2,M
RNO,2025-06-05 06:55,-119.7711,39.4839,1341.00,66.00,39.00,37.01,190.00,4.00,0.00,29.96,1009.50,10.00,M,FEW,M,M,M,9000.00,M,M,M,M,M,M,M,M,M,M,66.00,KRNO 050655Z 19004KT 10SM FEW090 19/04 A2996 RMK AO2 SLP095 T01890039,M
BAM,2025-06-05 06:55,-116.8743,40.5990,1382.36,51.80,23.00,32.15,160.00,4.00,0.00,29.99,M,10.00,M,CLR,M,M,M,M,M,M,M,M,M,M,M,M,M,M,51.80,KBAM 050655Z AUTO 16004KT 10SM CLR 11/M05 A2999 RMK AO1,M
CXP,2025-06-05 06:55,-119.7326,39.1923,1431.00,62.60,35.60,36.45,340.00,4.00,0.00,29.99,M,10.00,M,CLR,M,M,M,M,M,M,M,M,M,M,M,M,M,M,62.60,KCXP 050655Z AUTO 34004KT 10SM CLR 17/02 A2999 RMK AO2,M
HTH,2025-06-05 06:55,-118.6315,38.5448,1282.89,64.40,21.20,18.96,120.00,3.00,0.00,29.94,M,10.00,M,CLR,M,M,M,M,M,M,M,M,M,M,M,M,M,M,64.40,KHTH 050655Z AUTO 12003KT 10SM CLR 18/M06 A2994 RMK A01,M
INS,2025-06-05 06:55,-115.6733,36.5872,955.00,77.40,42.60,28.94,100.00,7.00,0.00,29.81,1004.10,10.00,M,CLR,M,M,M,M,M,M,M,M,M,M,M,M,M,M,77.40,KINS 050655Z AUTO 10007KT 10SM CLR 25/06 A2981 RMK AO2 SLP041 T02520059 $,M
LSV,2025-06-05 06:55,-115.0343,36.2362,570.00,84.40,46.80,27.04,190.00,8.00,0.00,29.72,1003.50,10.00,M,FEW,M,M,M,15000.00,M,M,M,M,M,M,M,M,M,M,82.05,KLSV 050655Z 19008KT 10SM FEW150 29/08 A2972 RMK AO2A SLP035 T02910082 $,M
EKO,2025-06-05 06:56,-115.7860,40.8242,1367.00,47.00,30.00,51.37,160.00,4.00,0.00,30.01,1013.10,10.00,M,CLR,M,M,M,M,M,M,M,M,M,M,M,M,M,M,44.94,KEKO 050656Z AUTO 16004KT 10SM CLR 08/M01 A3001 RMK AO2 SLP131 T00831011,M
WMC,2025-06-05 06:56,-117.8072,40.9019,1315.00,62.00,26.00,25.22,50.00,10.00,0.00,29.96,1010.60,10.00,M,CLR,M,M,M,M,M,M,M,M,M,M,M,M,M,M,62.00,KWMC 050656Z AUTO 05010KT 10SM CLR 17/M03 A2996 RMK AO2 SLP106 T01671033 TSNO,M
HND,2025-06-05 06:56,-115.1344,35.9729,742.79,79.00,50.00,36.32,210.00,13.00,0.00,29.81,1008.00,10.00,M,CLR,M,M,M,M,M,M,M,M,M,M,M,M,M,M,79.00,KHND 050656Z AUTO 21013KT 10SM CLR 26/10 A2981 RMK AO2 SLP080 T02610100 403390211 $,M
TPH,2025-06-05 06:56,-117.0904,38.0505,1654.00,61.00,18.00,18.63,340.00,6.00,0.00,29.98,1008.20,10.00,M,CLR,M,M,M,M,M,M,M,M,M,M,M,M,M,M,61.00,KTPH 050656Z AUTO 34006KT 10SM CLR 16/M08 A2998 RMK AO2 SLP082 T01611078 $,M
LAS,2025-06-05 06:56,-115.1634,36.0719,663.00,81.00,48.00,31.57,190.00,8.00,0.00,29.78,1005.90,10.00,M,SCT,M,M,M,20000.00,M,M,M,M,M,M,M,M,M,M,79.93,KLAS 050656Z 19008KT 10SM SCT200 27/09 A2978 RMK AO2 SLP059 T02720089 $,M
NFL,2025-06-05 06:57,-118.7010,39.4166,1199.00,58.00,25.00,27.89,0.00,0.00,0.00,29.91,1010.30,10.00,M,CLR,M,M,M,M,M,M,M,M,M,M,M,M,M,M,58.00,KNFL 050657Z AUTO 00000KT 10SM CLR 14/M04 A2991 RMK AO2 SLP103 T01441039 $,M
RTS,2025-06-05 07:05,-119.8764,39.6682,1539.00,51.80,21.20,29.79,340.00,6.00,0.00,30.01,M,10.00,M,CLR,M,M,M,M,M,M,M,M,M,M,M,M,M,M,51.80,KRTS 050705Z AUTO 34006KT 10SM CLR 11/M06 A3001 RMK AO2,M
TMT,2025-06-05 07:10,-117.1971,39.4643,1749.34,41.70,17.40,37.07,0.00,0.00,0.00,30.05,M,10.00,M,CLR,M,M,M,M,M,M,M,M,M,M,M,M,M,M,41.70,KTMT 050710Z AUTO 00000KT 10SM CLR 05/M08 A3005 RMK AO2 T00541081,M
BVU,2025-06-05 07:15,-114.8611,35.9475,671.00,80.60,46.40,30.12,180.00,5.00,0.00,29.78,M,10.00,M,CLR,M,M,M,M,M,M,M,M,M,M,M,M,M,M,79.56,KBVU 050715Z AUTO 18005KT 10SM CLR 27/08 A2978 RMK AO2,M
BAM,2025-06-05 07:15,-116.8743,40.5990,1382.36,51.80,21.20,29.79,170.00,3.00,0.00,29.99,M,10.00,M,CLR,M,M,M,M,M,M,M,M,M,M,M,M,M,M,51.80,KBAM 050715Z AUTO 17003KT 10SM CLR 11/M06 A2999 RMK AO1,M
CXP,2025-06-05 07:15,-119.7326,39.1923,1431.00,60.80,35.60,38.85,140.00,3.00,0.00,29.99,M,10.00,M,CLR,M,M,M,M,M,M,M,M,M,M,M,M,M,M,60.80,KCXP 050715Z AUTO 14003KT 10SM CLR 16/02 A2999 RMK AO2,M
MEV,2025-06-05 07:15,-119.7500,38.9963,1441.42,51.80,41.00,66.48,120.00,7.00,0.00,29.98,M,10.00,M,FEW,SCT,M,M,8000.00,9000.00,M,M,M,M,M,M,M,M,M,51.80,KMEV 050715Z AUTO 12007KT 10SM FEW080 SCT090 11/05 A2998 RMK AO2,M
HTH,2025-06-05 07:15,-118.6315,38.5448,1282.89,64.40,21.20,18.96,170.00,3.00,0.00,29.94,M,10.00,M,CLR,M,M,M,M,M,M,M,M,M,M,M,M,M,M,64.40,KHTH 050715Z AUTO 17003KT 10SM CLR 18/M06 A2994 RMK A01,M
TMT,2025-06-05 07:30,-117.1971,39.4643,1749.34,40.00,21.00,46.20,220.00,5.00,0.00,30.05,M,10.00,M,CLR,M,M,M,M,M,M,M,M,M,M,M,M,M,M,35.90,KTMT 050730Z AUTO 22005KT 10SM CLR 04/M06 A3005 RMK AO2 T00441062,M
CXP,2025-06-05 07:35,-119.7326,39.1923,1431.00,59.00,39.20,47.72,0.00,0.00,0.00,29.99,M,10.00,M,CLR,M,M,M,M,M,M,M,M,M,M,M,M,M,M,59.00,KCXP 050735Z AUTO 00000KT 10SM CLR 15/04 A2999 RMK AO2,M
RTS,2025-06-05 07:35,-119.8764,39.6682,1539.00,53.60,26.60,34.97,310.00,4.00,0.00,30.00,M,10.00,M,M,M,M,M,M,M,M,M,M,M,M,M,M,M,M,53.60,KRTS 050735Z AUTO 31004KT 10SM 12/M03 A3000 RMK AO2,M
MEV,2025-06-05 07:35,-119.7500,38.9963,1441.42,51.80,37.40,57.76,120.00,8.00,0.00,29.98,M,10.00,M,FEW,FEW,M,M,4000.00,8000.00,M,M,M,M,M,M,M,M,M,51.80,KMEV 050735Z AUTO 12008KT 10SM FEW040 FEW080 11/03 A2998 RMK AO2,M
HTH,2025-06-05 07:35,-118.6315,38.5448,1282.89,64.40,23.00,20.45,0.00,0.00,0.00,29.94,M,10.00,M,CLR,M,M,M,M,M,M,M,M,M,M,M,M,M,M,64.40,KHTH 050735Z AUTO 00000KT 10SM CLR 18/M05 A2994 RMK A01,M
BVU,2025-06-05 07:35,-114.8611,35.9475,671.00,80.60,46.40,30.12,210.00,5.00,0.00,29.78,M,10.00,M,CLR,M,M,M,M,M,M,M,M,M,M,M,M,M,M,79.56,KBVU 050735Z AUTO 21005KT 10SM CLR 27/08 A2978 RMK AO2 LTG DSNT NE,M
BAM,2025-06-05 07:35,-116.8743,40.5990,1382.36,48.20,23.00,36.75,220.00,3.00,0.00,29.99,M,10.00,M,CLR,M,M,M,M,M,M,M,M,M,M,M,M,M,M,47.21,KBAM 050735Z AUTO 22003KT 10SM CLR 09/M05 A2999 RMK AO1,M
TMT,2025-06-05 07:50,-117.1971,39.4643,1749.34,38.00,19.60,47.06,0.00,0.00,0.00,30.05,M,10.00,M,CLR,M,M,M,M,M,M,M,M,M,M,M,M,M,M,38.00,KTMT 050750Z AUTO 00000KT 10SM CLR 03/M07 A3005 RMK AO2 T00341069,M
P68,2025-06-05 07:53,-116.0056,39.6014,1993.00,42.00,18.00,37.61,270.00,3.00,0.00,30.03,1011.60,M,M,M,M,M,M,M,M,M,M,M,M,M,M,M,M,M,40.12,KP68 050753Z AUTO 27003KT 06/M08 A3003 RMK AO1 SLP116 T00561078 402440011,M
DRA,2025-06-05 07:53,-116.0278,36.6206,1009.00,79.00,45.00,30.09,190.00,16.00,0.00,29.81,1004.30,10.00,28.00,CLR,M,M,M,M,M,M,M,M,M,M,M,30.00,210.00,2025-06-05 07:17,79.00,KDRA 050753Z AUTO 19016G28KT 10SM CLR 26/07 A2981 RMK AO2 PK WND 21030/0717 SLP043 T02610072 403220172,M
ELY,2025-06-05 07:53,-114.8453,39.2950,1909.00,47.00,18.00,31.08,140.00,6.00,0.00,30.04,1008.90,10.00,M,CLR,M,M,M,M,M,M,M,M,M,M,M,M,M,M,43.60,KELY 050753Z AUTO 14006KT 10SM CLR 08/M08 A3004 RMK AO2 SLP089 T00831078 402440044,M
VGT,2025-06-05 07:53,-115.1933,36.2111,667.00,81.00,49.00,32.78,150.00,7.00,0.00,29.76,1006.70,10.00,M,CLR,M,M,M,M,M,M,M,M,M,M,M,M,M,M,80.02,KVGT 050753Z AUTO 15007KT 10SM CLR 27/09 A2976 RMK AO2 SLP067 T02720094 403500217,M
LOL,2025-06-05 07:53,-118.5701,40.0684,1192.43,53.00,24.00,32.08,70.00,5.00,0.00,29.93,1010.80,10.00,M,CLR,M,M,M,M,M,M,M,M,M,M,M,M,M,M,53.00,KLOL 050753Z AUTO 07005KT 10SM CLR 12/M04 A2993 RMK AO2 SLP108 T01171044 402720089,M
BVU,2025-06-05 07:55,-114.8611,35.9475,671.00,78.80,46.40,31.94,230.00,4.00,0.00,29.78,M,10.00,M,CLR,M,M,M,M,M,M,M,M,M,M,M,M,M,M,78.80,KBVU 050755Z AUTO 23004KT 10SM CLR 26/08 A2978 RMK AO2,M
RNO,2025-06-05 07:55,-119.7711,39.4839,1341.00,66.00,41.00,40.01,270.00,4.00,0.00,29.96,1009.40,10.00,M,FEW,M,M,M,10000.00,M,M,M,M,M,M,M,M,M,M,66.00,KRNO 050755Z 27004KT 10SM FEW100 19/05 A2996 RMK AO2 SLP094 T01890050 402890133,M
BAM,2025-06-05 07:55,-116.8743,40.5990,1382.36,50.00,23.00,34.37,250.00,3.00,0.00,29.99,M,10.00,M,CLR,M,M,M,M,M,M,M,M,M,M,M,M,M,M,50.00,KBAM 050755Z AUTO 25003KT 10SM CLR 10/M05 A2999 RMK AO1,M
RTS,2025-06-05 07:55,-119.8764,39.6682,1539.00,53.60,26.60,34.97,340.00,4.00,0.00,30.00,M,10.00,M,M,M,M,M,M,M,M,M,M,M,M,M,M,M,M,53.60,KRTS 050755Z AUTO 34004KT 10SM 12/M03 A3000 RMK AO2,M
MEV,2025-06-05 07:55,-119.7500,38.9963,1441.42,51.80,37.40,57.76,110.00,6.00,0.00,29.98,M,10.00,M,CLR,M,M,M,M,M,M,M,M,M,M,M,M,M,M,51.80,KMEV 050755Z AUTO 11006KT 10SM CLR 11/03 A2998 RMK AO2,M
HTH,2025-06-05 07:55,-118.6315,38.5448,1282.89,62.60,23.00,21.78,220.00,3.00,0.00,29.94,M,10.00,M,CLR,M,M,M,M,M,M,M,M,M,M,M,M,M,M,62.60,KHTH 050755Z AUTO 22003KT 10SM CLR 17/M05 A2994 RMK A01,M
CXP,2025-06-05 07:55,-119.7326,39.1923,1431.00,57.20,39.20,50.91,360.00,3.00,0.00,29.99,M,10.00,M,CLR,M,M,M,M,M,M,M,M,M,M,M,M,M,M,57.20,KCXP 050755Z AUTO 36003KT 10SM CLR 14/04 A2999 RMK AO2,M
INS,2025-06-05 07:55,-115.6733,36.5872,955.00,74.50,42.60,31.86,0.00,0.00,0.00,29.81,1004.10,10.00,M,CLR,M,M,M,M,M,M,M,M,M,M,M,M,M,M,74.50,KINS 050755Z AUTO 00000KT 10SM CLR 24/06 A2981 RMK AO2 SLP041 T02360059 403220152 $,M
LSV,2025-06-05 07:55,-115.0343,36.2362,570.00,81.30,48.00,31.27,230.00,7.00,0.00,29.72,1003.50,10.00,M,CLR,M,M,M,M,M,M,M,M,M,M,M,M,M,M,80.10,KLSV 050755Z AUTO 23007KT 10SM CLR 27/09 A2972 RMK AO2 SLP035 T02740088 403510236 $,M
EKO,2025-06-05 07:56,-115.7860,40.8242,1367.00,47.00,30.00,51.37,0.00,0.00,0.00,30.01,1012.90,10.00,M,CLR,M,M,M,M,M,M,M,M,M,M,M,M,M,M,47.00,KEKO 050756Z AUTO 00000KT 10SM CLR 08/M01 A3001 RMK AO2 SLP129 T00831011 402390028,M
WMC,2025-06-05 07:56,-117.8072,40.9019,1315.00,55.00,26.00,32.41,90.00,6.00,0.00,29.97,1011.10,10.00,M,CLR,M,M,M,M,M,M,M,M,M,M,M,M,M,M,55.00,KWMC 050756Z AUTO 09006KT 10SM CLR 13/M03 A2997 RMK AO2 SLP111 T01281033 402560061 TSNO,M
HND,2025-06-05 07:56,-115.1344,35.9729,742.79,78.00,50.00,37.53,190.00,8.00,0.00,29.82,1008.30,10.00,M,CLR,M,M,M,M,M,M,M,M,M,M,M,M,M,M,78.00,KHND 050756Z AUTO 19008KT 10SM CLR 26/10 A2982 RMK AO2 SLP083 T02560100 $,M
TPH,2025-06-05 07:56,-117.0904,38.0505,1654.00,62.00,17.00,17.23,360.00,4.00,0.00,29.98,1008.00,10.00,M,CLR,M,M,M,M,M,M,M,M,M,M,M,M,M,M,62.00,KTPH 050756Z AUTO 36004KT 10SM CLR 17/M08 A2998 RMK AO2 SLP080 T01671083 402780122 $,M
LAS,2025-06-05 07:56,-115.1634,36.0719,663.00,80.00,51.00,36.48,170.00,7.00,0.00,29.78,1005.60,10.00,M,SCT,M,M,M,20000.00,M,M,M,M,M,M,M,M,M,M,79.65,KLAS 050756Z 17007KT 10SM SCT200 27/11 A2978 RMK AO2 SLP056 T02670106 403440228 $,M
NFL,2025-06-05 07:57,-118.7010,39.4166,1199.00,58.00,32.00,37.17,220.00,3.00,0.00,29.91,1010.40,10.00,M,CLR,M,M,M,M,M,M,M,M,M,M,M,M,M,M,58.00,KNFL 050757Z AUTO 22003KT 10SM CLR 14/00 A2991 RMK AO2 SLP104 T01440000 402890094 $,M
TMT,2025-06-05 08:10,-117.1971,39.4643,1749.34,35.00,15.80,44.98,0.00,0.00,0.00,30.05,M,10.00,M,CLR,M,M,M,M,M,M,M,M,M,M,M,M,M,M,35.00,KTMT 050810Z AUTO 00000KT 10SM CLR 02/M09 A3005 RMK AO2 T00171090,M
BAM,2025-06-05 08:15,-116.8743,40.5990,1382.36,50.00,23.00,34.37,0.00,0.00,0.00,29.99,M,10.00,M,CLR,M,M,M,M,M,M,M,M,M,M,M,M,M,M,50.00,KBAM 050815Z AUTO 00000KT 10SM CLR 10/M05 A2999 RMK AO1,M
CXP,2025-06-05 08:15,-119.7326,39.1923,1431.00,57.20,37.40,47.44,0.00,0.00,0.00,29.99,M,10.00,M,CLR,M,M,M,M,M,M,M,M,M,M,M,M,M,M,57.20,KCXP 050815Z AUTO 00000KT 10SM CLR 14/03 A2999 RMK AO2,M
RTS,2025-06-05 08:15,-119.8764,39.6682,1539.00,53.60,30.20,40.53,360.00,5.00,0.00,30.00,M,10.00,M,M,M,M,M,M,M,M,M,M,M,M,M,M,M,M,53.60,KRTS 050815Z AUTO 36005KT 10SM 12/M01 A3000 RMK AO2,M
MEV,2025-06-05 08:15,-119.7500,38.9963,1441.42,48.20,37.40,66.04,110.00,7.00,0.00,29.98,M,10.00,M,FEW,FEW,FEW,M,2600.00,3500.00,4600.00,M,M,M,M,M,M,M,M,44.53,KMEV 050815Z AUTO 11007KT 10SM FEW026 FEW035 FEW046 09/03 A2998 RMK AO2,M
HTH,2025-06-05 08:15,-118.6315,38.5448,1282.89,64.40,24.80,22.05,0.00,0.00,0.00,29.94,M,10.00,M,CLR,M,M,M,M,M,M,M,M,M,M,M,M,M,M,64.40,KHTH 050815Z AUTO 00000KT 10SM CLR 18/M04 A2994 RMK A01,M
BVU,2025-06-05 08:15,-114.8611,35.9475,671.00,77.00,48.20,36.27,0.00,0.00,0.00,29.78,M,10.00,M,CLR,M,M,M,M,M,M,M,M,M,M,M,M,M,M,77.00,KBVU 050815Z AUTO 00000KT 10SM CLR 25/09 A2978 RMK AO2,M
RTS,2025-06-05 08:25,-119.8764,39.6682,1539.00,57.20,32.00,38.25,310.00,5.00,0.00,30.00,M,10.00,M,M,M,M,M,M,M,M,M,M,M,M,M,M,M,M,57.20,KRTS 050825Z AUTO 31005KT 10SM 14/00 A3000 RMK AO2,M
MEV,2025-06-05 08:25,-119.7500,38.9963,1441.42,50.00,37.40,61.75,110.00,4.00,0.00,29.98,M,10.00,M,FEW,FEW,SCT,M,3700.00,4300.00,7000.00,M,M,M,M,M,M,M,M,50.00,KMEV 050825Z AUTO 11004KT 10SM FEW037 FEW043 SCT070 10/03 A2998 RMK AO2,M
TMT,2025-06-05 08:30,-117.1971,39.4643,1749.34,37.00,17.00,43.77,180.00,5.00,0.00,30.05,M,10.00,M,CLR,M,M,M,M,M,M,M,M,M,M,M,M,M,M,32.33,KTMT 050830Z AUTO 18005KT 10SM CLR 03/M08 A3005 RMK AO2 T00281084,M
BVU,2025-06-05 08:35,-114.8611,35.9475,671.00,75.20,50.00,41.18,350.00,3.00,0.00,29.78,M,10.00,M,CLR,M,M,M,M,M,M,M,M,M,M,M,M,M,M,75.20,KBVU 050835Z AUTO 35003KT 10SM CLR 24/10 A2978 RMK AO2,M
BAM,2025-06-05 08:35,-116.8743,40.5990,1382.36,46.40,23.00,39.33,0.00,0.00,0.00,29.99,M,10.00,M,CLR,M,M,M,M,M,M,M,M,M,M,M,M,M,M,46.40,KBAM 050835Z AUTO 00000KT 10SM CLR 08/M05 A2999 RMK AO1,M
CXP,2025-06-05 08:35,-119.7326,39.1923,1431.00,57.20,35.60,44.18,0.00,0.00,0.00,29.99,M,10.00,M,CLR,M,M,M,M,M,M,M,M,M,M,M,M,M,M,57.20,KCXP 050835Z AUTO 00000KT 10SM CLR 14/02 A2999 RMK AO2,M
HTH,2025-06-05 08:35,-118.6315,38.5448,1282.89,62.60,24.80,23.49,160.00,3.00,0.00,29.94,M,10.00,M,CLR,M,M,M,M,M,M,M,M,M,M,M,M,M,M,62.60,KHTH 050835Z AUTO 16003KT 10SM CLR 17/M04 A2994 RMK A01,M
TMT,2025-06-05 08:50,-117.1971,39.4643,1749.34,35.80,17.80,47.51,300.00,4.00,0.00,30.04,M,10.00,M,CLR,M,M,M,M,M,M,M,M,M,M,M,M,M,M,31.86,KTMT 050850Z AUTO 30004KT 10SM CLR 02/M08 A3004 RMK AO2 T00211079,M
P68,2025-06-05 08:53,-116.0056,39.6014,1993.00,40.00,18.00,40.64,200.00,5.00,0.00,30.03,1011.50,M,M,M,M,M,M,M,M,M,M,M,M,M,M,M,M,M,35.90,KP68 050853Z AUTO 20005KT 04/M08 A3003 RMK AO1 SLP115 T00441078 56001,M
DRA,2025-06-05 08:53,-116.0278,36.6206,1009.00,79.00,46.00,31.26,190.00,7.00,0.00,29.82,1004.30,10.00,M,CLR,M,M,M,M,M,M,M,M,M,M,M,26.00,190.00,2025-06-05 08:02,79.00,KDRA 050853Z AUTO 19007KT 10SM CLR 26/08 A2982 RMK AO2 PK WND 19026/0802 SLP043 T02610078 51003,M
ELY,2025-06-05 08:53,-114.8453,39.2950,1909.00,42.00,18.00,37.61,190.00,6.00,0.00,30.04,1009.90,10.00,M,CLR,M,M,M,M,M,M,M,M,M,M,M,M,M,M,37.57,KELY 050853Z AUTO 19006KT 10SM CLR 06/M08 A3004 RMK AO2 SLP099 T00561078 53001,M
VGT,2025-06-05 08:53,-115.1933,36.2111,667.00,80.00,50.00,35.15,120.00,7.00,0.00,29.76,1006.50,10.00,M,CLR,M,M,M,M,M,M,M,M,M,M,M,M,M,M,79.55,KVGT 050853Z AUTO 12007KT 10SM CLR 27/10 A2976 RMK AO2 SLP065 T02670100 58004,M
LOL,2025-06-05 08:53,-118.5701,40.0684,1192.43,49.00,22.00,34.20,260.00,3.00,0.00,29.92,1010.70,10.00,M,CLR,M,M,M,M,M,M,M,M,M,M,M,M,M,M,48.12,KLOL 050853Z AUTO 26003KT 10SM CLR 09/M06 A2992 RMK AO2 SLP107 T00941056 50002,M
BVU,2025-06-05 08:55,-114.8611,35.9475,671.00,75.20,50.00,41.18,0.00,0.00,0.00,29.78,M,10.00,M,CLR,M,M,M,M,M,M,M,M,M,M,M,M,M,M,75.20,KBVU 050855Z AUTO 00000KT 10SM CLR 24/10 A2978 RMK AO2,M
RNO,2025-06-05 08:55,-119.7711,39.4839,1341.00,62.00,34.00,34.93,190.00,4.00,0.00,29.96,1009.50,10.00,M,FEW,M,M,M,20000.00,M,M,M,M,M,M,M,M,M,M,62.00,KRNO 050855Z 19004KT 10SM FEW200 17/01 A2996 RMK AO2 SLP095 T01670011 56001,M
BAM,2025-06-05 08:55,-116.8743,40.5990,1382.36,51.80,24.80,34.67,340.00,3.00,0.00,29.99,M,10.00,M,CLR,M,M,M,M,M,M,M,M,M,M,M,M,M,M,51.80,KBAM 050855Z AUTO 34003KT 10SM CLR 11/M04 A2999 RMK AO1,M
CXP,2025-06-05 08:55,-119.7326,39.1923,1431.00,59.00,35.60,41.42,310.00,3.00,0.00,29.99,M,10.00,M,CLR,M,M,M,M,M,M,M,M,M,M,M,M,M,M,59.00,KCXP 050855Z AUTO 31003KT 10SM CLR 15/02 A2999 RMK AO2,M
RTS,2025-06-05 08:55,-119.8764,39.6682,1539.00,53.60,30.20,40.53,350.00,6.00,0.00,30.00,M,10.00,M,M,M,M,M,M,M,M,M,M,M,M,M,M,M,M,53.60,KRTS 050855Z AUTO 35006KT 10SM 12/M01 A3000 RMK AO2,M
MEV,2025-06-05 08:55,-119.7500,38.9963,1441.42,48.20,37.40,66.04,100.00,4.00,0.00,29.98,M,10.00,M,FEW,FEW,SCT,M,4300.00,5000.00,6000.00,M,M,M,M,M,M,M,M,46.34,KMEV 050855Z AUTO 10004KT 10SM FEW043 FEW050 SCT060 09/03 A2998 RMK AO2,M
HTH,2025-06-05 08:55,-118.6315,38.5448,1282.89,62.60,24.80,23.49,0.00,0.00,0.00,29.94,M,10.00,M,CLR,M,M,M,M,M,M,M,M,M,M,M,M,M,M,62.60,KHTH 050855Z AUTO 00000KT 10SM CLR 17/M04 A2994 RMK A01,M
INS,2025-06-05 08:55,-115.6733,36.5872,955.00,73.20,44.00,35.12,210.00,3.00,0.00,29.82,1004.50,10.00,M,CLR,M,M,M,M,M,M,M,M,M,M,M,M,M,M,73.20,KINS 050855Z AUTO 21003KT 10SM CLR 23/07 A2982 RMK AO2 SLP045 T02290066 53001 $,M
LSV,2025-06-05 08:55,-115.0343,36.2362,570.00,82.00,46.60,29.00,130.00,5.00,0.00,29.71,1003.10,10.00,M,CLR,M,M,M,M,M,M,M,M,M,M,M,M,M,M,80.41,KLSV 050855Z AUTO 13005KT 10SM CLR 28/08 A2971 RMK AO2 SLP031 T02780081 56004 $,M
EKO,2025-06-05 08:56,-115.7860,40.8242,1367.00,43.00,30.00,59.81,0.00,0.00,0.00,30.01,1012.90,10.00,M,CLR,M,M,M,M,M,M,M,M,M,M,M,M,M,M,43.00,KEKO 050856Z AUTO 00000KT 10SM CLR 06/M01 A3001 RMK AO2 SLP129 T00611011 50004,M
WMC,2025-06-05 08:56,-117.8072,40.9019,1315.00,51.00,24.00,34.53,110.00,8.00,0.00,29.96,1011.30,10.00,M,CLR,M,M,M,M,M,M,M,M,M,M,M,M,M,M,51.00,KWMC 050856Z AUTO 11008KT 10SM CLR 11/M04 A2996 RMK AO2 SLP113 T01061044 54000 TSNO,M
HND,2025-06-05 08:56,-115.1344,35.9729,742.79,78.00,51.00,38.95,170.00,11.00,0.00,29.81,1008.00,10.00,M,CLR,M,M,M,M,M,M,M,M,M,M,M,M,M,M,78.00,KHND 050856Z AUTO 17011KT 10SM CLR 26/11 A2981 RMK AO2 SLP080 T02560106 58003 $,M
TPH,2025-06-05 08:56,-117.0904,38.0505,1654.00,55.00,15.00,20.29,320.00,4.00,0.00,29.99,1008.90,10.00,M,CLR,M,M,M,M,M,M,M,M,M,M,M,M,M,M,55.00,KTPH 050856Z AUTO 32004KT 10SM CLR 13/M09 A2999 RMK AO2 SLP089 T01281094 53004 $,M
LAS,2025-06-05 08:56,-115.1634,36.0719,663.00,79.00,51.00,37.69,180.00,9.00,0.00,29.78,1005.70,10.00,M,SCT,M,M,M,20000.00,M,M,M,M,M,M,M,M,M,M,79.00,KLAS 050856Z 18009KT 10SM SCT200 26/11 A2978 RMK AO2 SLP057 T02610106 55001 $,M
NFL,2025-06-05 08:57,-118.7010,39.4166,1199.00,52.00,28.00,39.29,0.00,0.00,0.00,29.91,1010.30,10.00,M,CLR,M,M,M,M,M,M,M,M,M,M,M,M,M,M,52.00,KNFL 050857Z AUTO 00000KT 10SM CLR 11/M02 A2991 RMK AO2 SLP103 T01111022 56001 $,M
RTS,2025-06-05 09:05,-119.8764,39.6682,1539.00,53.60,32.00,43.60,330.00,6.00,0.00,29.99,M,10.00,M,M,M,M,M,M,M,M,M,M,M,M,M,M,M,M,53.60,KRTS 050905Z AUTO 33006KT 10SM 12/M00 A2999 RMK AO2,M
MEV,2025-06-05 09:05,-119.7500,38.9963,1441.42,46.40,37.40,70.67,110.00,4.00,0.00,29.97,M,10.00,M,FEW,FEW,SCT,M,4000.00,4600.00,5000.00,M,M,M,M,M,M,M,M,44.24,KMEV 050905Z AUTO 11004KT 10SM FEW040 FEW046 SCT050 08/03 A2997 RMK AO2,M
TMT,2025-06-05 09:10,-117.1971,39.4643,1749.34,36.00,18.30,48.16,250.00,5.00,0.00,30.04,M,10.00,M,CLR,M,M,M,M,M,M,M,M,M,M,M,M,M,M,31.15,KTMT 050910Z AUTO 25005KT 10SM CLR 02/M08 A3004 RMK AO2 T00231076,M
BVU,2025-06-05 09:15,-114.8611,35.9475,671.00,77.00,50.00,38.79,100.00,3.00,0.00,29.78,M,10.00,M,CLR,M,M,M,M,M,M,M,M,M,M,M,M,M,M,77.00,KBVU 050915Z AUTO 10003KT 10SM CLR 25/10 A2978 RMK AO2,M
BAM,2025-06-05 09:15,-116.8743,40.5990,1382.36,53.60,26.60,34.97,350.00,7.00,0.00,30.00,M,10.00,M,CLR,M,M,M,M,M,M,M,M,M,M,M,M,M,M,53.60,KBAM 050915Z AUTO 35007KT 10SM CLR 12/M03 A3000 RMK AO1,M
CXP,2025-06-05 09:15,-119.7326,39.1923,1431.00,59.00,39.20,47.72,0.00,0.00,0.00,29.99,M,10.00,M,CLR,M,M,M,M,M,M,M,M,M,M,M,M,M,M,59.00,KCXP 050915Z AUTO 00000KT 10SM CLR 15/04 A2999 RMK AO2,M
HTH,2025-06-05 09:15,-118.6315,38.5448,1282.89,62.60,23.00,21.78,170.00,3.00,0.00,29.94,M,10.00,M,CLR,M,M,M,M,M,M,M,M,M,M,M,M,M,M,62.60,KHTH 050915Z AUTO 17003KT 10SM CLR 17/M05 A2994 RMK A01,M
RTS,2025-06-05 09:25,-119.8764,39.6682,1539.00,53.60,32.00,43.60,170.00,4.00,0.00,30.00,M,10.00,M,CLR,M,M,M,M,M,M,M,M,M,M,M,M,M,M,53.60,KRTS 050925Z AUTO 17004KT 10SM CLR 12/00 A3000 RMK AO2,M
MEV,2025-06-05 09:25,-119.7500,38.9963,1441.42,48.20,35.60,61.50,110.00,6.00,0.00,29.97,M,10.00,M,FEW,SCT,M,M,3900.00,5000.00,M,M,M,M,M,M,M,M,M,45.04,KMEV 050925Z AUTO 11006KT 10SM FEW039 SCT050 09/02 A2997 RMK AO2,M
TMT,2025-06-05 09:30,-117.1971,39.4643,1749.34,36.30,17.00,45.00,270.00,3.00,0.00,30.04,M,10.00,M,CLR,M,M,M,M,M,M,M,M,M,M,M,M,M,M,33.60,KTMT 050930Z AUTO 27003KT 10SM CLR 02/M08 A3004 RMK AO2 T00241083,M
CXP,2025-06-05 09:35,-119.7326,39.1923,1431.00,59.00,39.20,47.72,0.00,0.00,0.00,29.99,M,10.00,M,CLR,M,M,M,M,M,M,M,M,M,M,M,M,M,M,59.00,KCXP 050935Z AUTO 00000KT 10SM CLR 15/04 A2999 RMK AO2,M
HTH,2025-06-05 09:35,-118.6315,38.5448,1282.89,60.80,24.80,25.03,0.00,0.00,0.00,29.94,M,10.00,M,CLR,M,M,M,M,M,M,M,M,M,M,M,M,M,M,60.80,KHTH 050935Z AUTO 00000KT 10SM CLR 16/M04 A2994 RMK A01,M
BVU,2025-06-05 09:35,-114.8611,35.9475,671.00,77.00,48.20,36.27,150.00,4.00,0.00,29.78,M,10.00,M,CLR,M,M,M,M,M,M,M,M,M,M,M,M,M,M,77.00,KBVU 050935Z AUTO 15004KT 10SM CLR 25/09 A2978 RMK AO2,M
BAM,2025-06-05 09:35,-116.8743,40.5990,1382.36,50.00,28.40,43.01,60.00,4.00,0.00,30.00,M,10.00,M,CLR,M,M,M,M,M,M,M,M,M,M,M,M,M,M,50.00,KBAM 050935Z AUTO 06004KT 10SM CLR 10/M02 A3000 RMK AO1,M
RTS,2025-06-05 09:45,-119.8764,39.6682,1539.00,55.40,32.00,40.83,0.00,0.00,0.00,30.00,M,10.00,M,CLR,M,M,M,M,M,M,M,M,M,M,M,M,M,M,55.40,KRTS 050945Z AUTO 00000KT 10SM CLR 13/M00 A3000 RMK AO2,M
TMT,2025-06-05 09:50,-117.1971,39.4643,1749.34,30.60,13.30,48.12,0.00,0.00,0.00,30.05,M,10.00,M,CLR,M,M,M,M,M,M,M,M,M,M,M,M,M,M,30.60,KTMT 050950Z AUTO 00000KT 10SM CLR M01/M10 A3005 RMK AO2 T10081104,M
P68,2025-06-05 09:53,-116.0056,39.6014,1993.00,38.00,21.00,49.95,160.00,6.00,0.00,30.03,1011.50,M,M,M,M,M,M,M,M,M,M,M,M,M,M,M,M,M,32.76,KP68 050953Z AUTO 16006KT 03/M06 A3003 RMK AO1 SLP115 T00331061,M
DRA,2025-06-05 09:53,-116.0278,36.6206,1009.00,77.00,43.00,29.78,290.00,4.00,0.00,29.82,1004.50,10.00,M,CLR,M,M,M,M,M,M,M,M,M,M,M,M,M,M,77.00,KDRA 050953Z AUTO 29004KT 10SM CLR 25/06 A2982 RMK AO2 SLP045 T02500061,M
ELY,2025-06-05 09:53,-114.8453,39.2950,1909.00,41.00,19.00,40.80,190.00,8.00,0.00,30.04,1009.70,10.00,M,CLR,M,M,M,M,M,M,M,M,M,M,M,M,M,M,35.20,KELY 050953Z AUTO 19008KT 10SM CLR 05/M07 A3004 RMK AO2 SLP097 T00501072,M
VGT,2025-06-05 09:53,-115.1933,36.2111,667.00,78.00,50.00,37.53,110.00,4.00,0.00,29.76,1006.80,10.00,M,CLR,M,M,M,M,M,M,M,M,M,M,M,M,M,M,78.00,KVGT 050953Z AUTO 11004KT 10SM CLR 26/10 A2976 RMK AO2 SLP068 T02560100,M
LOL,2025-06-05 09:53,-118.5701,40.0684,1192.43,48.00,26.00,41.98,170.00,6.00,0.00,29.93,1010.80,10.00,M,CLR,M,M,M,M,M,M,M,M,M,M,M,M,M,M,44.80,KLOL 050953Z AUTO 17006KT 10SM CLR 09/M03 A2993 RMK AO2 SLP108 T00891033,M
BAM,2025-06-05 09:55,-116.8743,40.5990,1382.36,46.40,26.60,45.70,60.00,4.00,0.00,30.00,M,10.00,M,CLR,M,M,M,M,M,M,M,M,M,M,M,M,M,M,44.24,KBAM 050955Z AUTO 06004KT 10SM CLR 08/M03 A3000 RMK AO1,M
BVU,2025-06-05 09:55,-114.8611,35.9475,671.00,78.80,48.20,34.18,150.00,4.00,0.00,29.78,M,10.00,M,CLR,M,M,M,M,M,M,M,M,M,M,M,M,M,M,78.80,KBVU 050955Z AUTO 15004KT 10SM CLR 26/09 A2978 RMK AO2,M
RNO,2025-06-05 09:55,-119.7711,39.4839,1341.00,61.00,36.00,39.19,210.00,3.00,0.00,29.96,1009.20,10.00,M,CLR,M,M,M,M,M,M,M,M,M,M,M,M,M,M,61.00,KRNO 050955Z 21003KT 10SM CLR 16/02 A2996 RMK AO2 SLP092 T01610022,M
CXP,2025-06-05 09:55,-119.7326,39.1923,1431.00,53.60,39.20,58.02,0.00,0.00,0.00,29.99,M,10.00,M,CLR,M,M,M,M,M,M,M,M,M,M,M,M,M,M,53.60,KCXP 050955Z AUTO 00000KT 10SM CLR 12/04 A2999 RMK AO2,M
MEV,2025-06-05 09:55,-119.7500,38.9963,1441.42,46.40,35.60,65.82,110.00,5.00,0.00,29.97,M,10.00,M,FEW,SCT,SCT,M,3500.00,4400.00,5000.00,M,M,M,M,M,M,M,M,43.50,KMEV 050955Z AUTO 11005KT 10SM FEW035 SCT044 SCT050 08/02 A2997 RMK AO2,M
HTH,2025-06-05 09:55,-118.6315,38.5448,1282.89,59.00,23.00,24.75,170.00,3.00,0.00,29.94,M,10.00,M,CLR,M,M,M,M,M,M,M,M,M,M,M,M,M,M,59.00,KHTH 050955Z AUTO 17003KT 10SM CLR 15/M05 A2994 RMK A01,M
INS,2025-06-05 09:55,-115.6733,36.5872,955.00,72.30,44.00,36.20,50.00,6.00,0.00,29.82,1004.50,10.00,M,CLR,M,M,M,M,M,M,M,M,M,M,M,M,M,M,72.30,KINS 050955Z AUTO 05006KT 10SM CLR 22/07 A2982 RMK AO2 SLP045 T02240066 $,M
LSV,2025-06-05 09:55,-115.0343,36.2362,570.00,83.00,47.30,28.82,190.00,3.00,0.00,29.72,1003.40,10.00,M,CLR,M,M,M,M,M,M,M,M,M,M,M,M,M,M,81.12,KLSV 050955Z AUTO 19003KT 10SM CLR 28/09 A2972 RMK AO2 SLP034 T02830085 $,M
HND,2025-06-05 09:56,-115.1344,35.9729,742.79,78.00,50.00,37.53,180.00,11.00,0.00,29.81,1007.90,10.00,M,CLR,M,M,M,M,M,M,M,M,M,M,M,M,M,M,78.00,KHND 050956Z AUTO 18011KT 10SM CLR 26/10 A2981 RMK AO2 SLP079 T02560100 $,M
TPH,2025-06-05 09:56,-117.0904,38.0505,1654.00,55.00,15.00,20.29,340.00,6.00,0.00,29.98,1008.50,10.00,M,CLR,M,M,M,M,M,M,M,M,M,M,M,M,M,M,55.00,KTPH 050956Z AUTO 34006KT 10SM CLR 13/M09 A2998 RMK AO2 SLP085 T01281094 $,M
LAS,2025-06-05 09:56,-115.1634,36.0719,663.00,79.00,51.00,37.69,180.00,6.00,0.00,29.77,1005.30,10.00,M,SCT,M,M,M,20000.00,M,M,M,M,M,M,M,M,M,M,79.00,KLAS 050956Z 18006KT 10SM SCT200 26/11 A2977 RMK AO2 SLP053 T02610106 $,M
EKO,2025-06-05 09:56,-115.7860,40.8242,1367.00,43.00,27.00,52.89,0.00,0.00,0.00,30.01,1012.90,10.00,M,CLR,M,M,M,M,M,M,M,M,M,M,M,M,M,M,43.00,KEKO 050956Z AUTO 00000KT 10SM CLR 06/M03 A3001 RMK AO2 SLP129 T00611028,M
WMC,2025-06-05 09:56,-117.8072,40.9019,1315.00,58.00,23.00,25.65,60.00,11.00,0.00,29.96,1010.50,10.00,M,BKN,M,M,M,10000.00,M,M,M,M,M,M,M,M,M,M,58.00,KWMC 050956Z AUTO 06011KT 10SM BKN100 14/M05 A2996 RMK AO2 SLP105 T01441050 TSNO,M
NFL,2025-06-05 09:57,-118.7010,39.4166,1199.00,50.00,27.00,40.60,60.00,3.00,0.00,29.92,1010.50,10.00,M,CLR,M,M,M,M,M,M,M,M,M,M,M,M,M,M,50.00,KNFL 050957Z AUTO 06003KT 10SM CLR 10/M03 A2992 RMK AO2 SLP105 T01001028 $,M
TMT,2025-06-05 10:10,-117.1971,39.4643,1749.34,31.30,14.00,48.23,150.00,3.00,0.00,30.05,M,10.00,M,CLR,M,M,M,M,M,M,M,M,M,M,M,M,M,M,27.89,KTMT 051010Z AUTO 15003KT 10SM CLR 00/M10 A3005 RMK AO2 T10041099,M
BVU,2025-06-05 10:15,-114.8611,35.9475,671.00,78.80,48.20,34.18,140.00,5.00,0.00,29.77,M,10.00,M,CLR,M,M,M,M,M,M,M,M,M,M,M,M,M,M,78.80,KBVU 051015Z AUTO 14005KT 10SM CLR 26/09 A2977 RMK AO2,M
BAM,2025-06-05 10:15,-116.8743,40.5990,1382.36,46.40,26.60,45.70,20.00,3.00,0.00,29.99,M,10.00,M,CLR,M,M,M,M,M,M,M,M,M,M,M,M,M,M,45.15,KBAM 051015Z AUTO 02003KT 10SM CLR 08/M03 A2999 RMK AO1,M
CXP,2025-06-05 10:15,-119.7326,39.1923,1431.00,55.40,39.20,54.33,0.00,0.00,0.00,29.99,M,10.00,M,CLR,M,M,M,M,M,M,M,M,M,M,M,M,M,M,55.40,KCXP 051015Z AUTO 00000KT 10SM CLR 13/04 A2999 RMK AO2,M
RTS,2025-06-05 10:15,-119.8764,39.6682,1539.00,50.00,28.40,43.01,350.00,4.00,0.00,30.00,M,10.00,M,M,M,M,M,M,M,M,M,M,M,M,M,M,M,M,50.00,KRTS 051015Z AUTO 35004KT 10SM 10/M02 A3000 RMK AO2,M
MEV,2025-06-05 10:15,-119.7500,38.9963,1441.42,46.40,35.60,65.82,0.00,0.00,0.00,29.98,M,10.00,M,FEW,FEW,SCT,M,3300.00,4000.00,4800.00,M,M,M,M,M,M,M,M,46.40,KMEV 051015Z AUTO 00000KT 10SM FEW033 FEW040 SCT048 08/02 A2998 RMK AO2,M
HTH,2025-06-05 10:15,-118.6315,38.5448,1282.89,59.00,23.00,24.75,200.00,4.00,0.00,29.94,M,10.00,M,CLR,M,M,M,M,M,M,M,M,M,M,M,M,M,M,59.00,KHTH 051015Z AUTO 20004KT 10SM CLR 15/M05 A2994 RMK A01,M
TMT,2025-06-05 10:30,-117.1971,39.4643,1749.34,31.30,13.00,46.16,110.00,4.00,0.00,30.05,M,10.00,M,CLR,M,M,M,M,M,M,M,M,M,M,M,M,M,M,26.60,KTMT 051030Z AUTO 11004KT 10SM CLR 00/M10 A3005 RMK AO2 T10041105,M
BVU,2025-06-05 10:35,-114.8611,35.9475,671.00,77.00,48.20,36.27,180.00,4.00,0.00,29.78,M,10.00,M,CLR,M,M,M,M,M,M,M,M,M,M,M,M,M,M,77.00,KBVU 051035Z AUTO 18004KT 10SM CLR 25/09 A2978 RMK AO2,M
BAM,2025-06-05 10:35,-116.8743,40.5990,1382.36,48.20,26.60,42.71,0.00,0.00,0.00,29.99,M,10.00,M,CLR,M,M,M,M,M,M,M,M,M,M,M,M,M,M,48.20,KBAM 051035Z AUTO 00000KT 10SM CLR 09/M03 A2999 RMK AO1,M
CXP,2025-06-05 10:35,-119.7326,39.1923,1431.00,51.80,39.20,61.99,0.00,0.00,0.00,29.99,M,10.00,M,CLR,M,M,M,M,M,M,M,M,M,M,M,M,M,M,51.80,KCXP 051035Z AUTO 00000KT 10SM CLR 11/04 A2999 RMK AO2,M
RTS,2025-06-05 10:35,-119.8764,39.6682,1539.00,48.20,26.60,42.71,350.00,3.00,0.00,30.00,M,10.00,M,CLR,M,M,M,M,M,M,M,M,M,M,M,M,M,M,47.21,KRTS 051035Z AUTO 35003KT 10SM CLR 09/M03 A3000 RMK AO2,M
MEV,2025-06-05 10:35,-119.7500,38.9963,1441.42,46.40,35.60,65.82,0.00,0.00,0.00,29.98,M,10.00,M,FEW,SCT,SCT,M,4000.00,4600.00,5500.00,M,M,M,M,M,M,M,M,46.40,KMEV 051035Z AUTO 00000KT 10SM FEW040 SCT046 SCT055 08/02 A2998 RMK AO2,M
HTH,2025-06-05 10:35,-118.6315,38.5448,1282.89,59.00,21.20,22.94,190.00,3.00,0.00,29.94,M,10.00,M,CLR,M,M,M,M,M,M,M,M,M,M,M,M,M,M,59.00,KHTH 051035Z AUTO 19003KT 10SM CLR 15/M06 A2994 RMK A01,M
TMT,2025-06-05 10:50,-117.1971,39.4643,1749.34,30.00,16.00,55.49,0.00,0.00,0.00,30.05,M,10.00,M,CLR,M,M,M,M,M,M,M,M,M,M,M,M,M,M,30.00,KTMT 051050Z AUTO 00000KT 10SM CLR M01/M09 A3005 RMK AO2 T10121089,M
LOL,2025-06-05 10:53,-118.5701,40.0684,1192.43,45.00,23.00,41.48,180.00,3.00,0.00,29.93,1011.10,10.00,M,CLR,M,M,M,M,M,M,M,M,M,M,M,M,M,M,43.55,KLOL 051053Z AUTO 18003KT 10SM CLR 07/M05 A2993 RMK AO2 SLP111 T00721050,M
P68,2025-06-05 10:53,-116.0056,39.6014,1993.00,40.00,19.00,42.42,160.00,4.00,0.00,30.02,1010.80,M,M,M,M,M,M,M,M,M,M,M,M,M,M,M,M,M,36.76,KP68 051053Z AUTO 16004KT 04/M07 A3002 RMK AO1 SLP108 T00441072,M
DRA,2025-06-05 10:53,-116.0278,36.6206,1009.00,75.00,45.00,34.35,20.00,5.00,0.00,29.84,1005.20,10.00,M,CLR,M,M,M,M,M,M,M,M,M,M,M,M,M,M,75.00,KDRA 051053Z AUTO 02005KT 10SM CLR 24/07 A2984 RMK AO2 SLP052 T02390072,M
ELY,2025-06-05 10:53,-114.8453,39.2950,1909.00,38.00,20.00,47.87,180.00,8.00,0.00,30.06,1010.40,10.00,M,CLR,M,M,M,M,M,M,M,M,M,M,M,M,M,M,31.50,KELY 051053Z AUTO 18008KT 10SM CLR 03/M07 A3006 RMK AO2 SLP104 T00331067,M
VGT,2025-06-05 10:53,-115.1933,36.2111,667.00,76.00,49.00,38.63,80.00,5.00,0.00,29.77,1007.20,10.00,M,CLR,M,M,M,M,M,M,M,M,M,M,M,M,M,M,76.00,KVGT 051053Z AUTO 08005KT 10SM CLR 24/09 A2977 RMK AO2 SLP072 T02440094,M
RNO,2025-06-05 10:55,-119.7711,39.4839,1341.00,59.00,36.00,42.08,170.00,3.00,0.00,29.96,1009.40,10.00,M,CLR,M,M,M,M,M,M,M,M,M,M,M,M,M,M,59.00,KRNO 051055Z 17003KT 10SM CLR 15/02 A2996 RMK AO2 SLP094 T01500022,M
BAM,2025-06-05 10:55,-116.8743,40.5990,1382.36,44.60,23.00,42.11,0.00,0.00,0.00,29.99,M,10.00,M,CLR,M,M,M,M,M,M,M,M,M,M,M,M,M,M,44.60,KBAM 051055Z AUTO 00000KT 10SM CLR 07/M05 A2999 RMK AO1,M
BVU,2025-06-05 10:55,-114.8611,35.9475,671.00,77.00,48.20,36.27,170.00,3.00,0.00,29.78,M,10.00,M,CLR,M,M,M,M,M,M,M,M,M,M,M,M,M,M,77.00,KBVU 051055Z AUTO 17003KT 10SM CLR 25/09 A2978 RMK AO2,M
CXP,2025-06-05 10:55,-119.7326,39.1923,1431.00,53.60,39.20,58.02,0.00,0.00,0.00,29.99,M,10.00,M,CLR,M,M,M,M,M,M,M,M,M,M,M,M,M,M,53.60,KCXP 051055Z AUTO 00000KT 10SM CLR 12/04 A2999 RMK AO2,M
RTS,2025-06-05 10:55,-119.8764,39.6682,1539.00,44.60,26.60,48.94,310.00,5.00,0.00,30.00,M,10.00,M,CLR,M,M,M,M,M,M,M,M,M,M,M,M,M,M,41.36,KRTS 051055Z AUTO 31005KT 10SM CLR 07/M03 A3000 RMK AO2,M
MEV,2025-06-05 10:55,-119.7500,38.9963,1441.42,41.00,33.80,75.32,0.00,0.00,0.00,29.98,M,10.00,M,FEW,FEW,SCT,M,3900.00,4500.00,6000.00,M,M,M,M,M,M,M,M,41.00,KMEV 051055Z AUTO 00000KT 10SM FEW039 FEW045 SCT060 05/01 A2998 RMK AO2,M
HTH,2025-06-05 10:55,-118.6315,38.5448,1282.89,59.00,23.00,24.75,0.00,0.00,0.00,29.94,M,10.00,M,CLR,M,M,M,M,M,M,M,M,M,M,M,M,M,M,59.00,KHTH 051055Z AUTO 00000KT 10SM CLR 15/M05 A2994 RMK A01,M
INS,2025-06-05 10:55,-115.6733,36.5872,955.00,73.00,44.40,35.90,150.00,4.00,0.00,29.84,1005.20,10.00,M,OVC,M,M,M,16000.00,M,M,M,M,M,M,M,M,M,M,73.00,KINS 051055Z AUTO 15004KT 10SM OVC160 23/07 A2984 RMK AO2 SLP052 T02280069 $,M
LSV,2025-06-05 10:55,-115.0343,36.2362,570.00,79.00,47.50,33.08,60.00,8.00,0.00,29.73,1003.80,10.00,M,SCT,M,M,M,15000.00,M,M,M,M,M,M,M,M,M,M,79.00,KLSV 051055Z 06008KT 10SM SCT150 26/09 A2973 RMK AO2A SLP038 T02610086 $,M
WMC,2025-06-05 10:56,-117.8072,40.9019,1315.00,49.00,24.00,37.20,120.00,7.00,0.00,29.97,1011.30,10.00,M,CLR,M,M,M,M,M,M,M,M,M,M,M,M,M,M,45.50,KWMC 051056Z AUTO 12007KT 10SM CLR 09/M04 A2997 RMK AO2 SLP113 T00941044 TSNO,M
HND,2025-06-05 10:56,-115.1344,35.9729,742.79,76.00,50.00,40.10,180.00,12.00,0.00,29.81,1008.00,10.00,M,CLR,M,M,M,M,M,M,M,M,M,M,M,M,M,M,76.00,KHND 051056Z AUTO 18012KT 10SM CLR 24/10 A2981 RMK AO2 SLP080 T02440100 $,M
TPH,2025-06-05 10:56,-117.0904,38.0505,1654.00,57.00,16.00,19.71,M,M,0.00,29.99,1008.50,10.00,M,CLR,M,M,M,M,M,M,M,M,M,M,M,M,M,M,57.00,KTPH 051056Z AUTO 10SM CLR 14/M09 A2999 RMK AO2 SLP085 T01391089 $,M
LAS,2025-06-05 10:56,-115.1634,36.0719,663.00,79.00,50.00,36.32,220.00,5.00,0.00,29.78,1005.70,10.00,M,SCT,M,M,M,20000.00,M,M,M,M,M,M,M,M,M,M,79.00,KLAS 051056Z 22005KT 10SM SCT200 26/10 A2978 RMK AO2 SLP057 T02610100 $,M
EKO,2025-06-05 10:56,-115.7860,40.8242,1367.00,43.00,24.00,46.69,0.00,0.00,0.00,30.01,1012.90,10.00,M,CLR,M,M,M,M,M,M,M,M,M,M,M,M,M,M,43.00,KEKO 051056Z AUTO 00000KT 10SM CLR 06/M04 A3001 RMK AO2 SLP129 T00611044,M
NFL,2025-06-05 10:57,-118.7010,39.4166,1199.00,53.00,26.00,34.87,0.00,0.00,0.00,29.93,1010.70,10.00,M,CLR,M,M,M,M,M,M,M,M,M,M,M,M,M,M,53.00,KNFL 051057Z AUTO 00000KT 10SM CLR 12/M03 A2993 RMK AO2 SLP107 T01171033 $,M
TMT,2025-06-05 11:10,-117.1971,39.4643,1749.34,30.20,14.70,52.00,340.00,3.00,0.00,30.05,M,10.00,M,CLR,M,M,M,M,M,M,M,M,M,M,M,M,M,M,26.63,KTMT 051110Z AUTO 34003KT 10SM CLR M01/M10 A3005 RMK AO2 T10101096,M
BVU,2025-06-05 11:15,-114.8611,35.9475,671.00,77.00,50.00,38.79,0.00,0.00,0.00,29.78,M,10.00,M,CLR,M,M,M,M,M,M,M,M,M,M,M,M,M,M,77.00,KBVU 051115Z AUTO 00000KT 10SM CLR 25/10 A2978 RMK AO2,M
BAM,2025-06-05 11:15,-116.8743,40.5990,1382.36,42.80,24.80,48.65,290.00,4.00,0.00,30.00,M,10.00,M,CLR,M,M,M,M,M,M,M,M,M,M,M,M,M,M,40.03,KBAM 051115Z AUTO 29004KT 10SM CLR 06/M04 A3000 RMK AO1,M
CXP,2025-06-05 11:15,-119.7326,39.1923,1431.00,51.80,39.20,61.99,0.00,0.00,0.00,29.99,M,10.00,M,CLR,M,M,M,M,M,M,M,M,M,M,M,M,M,M,51.80,KCXP 051115Z AUTO 00000KT 10SM CLR 11/04 A2999 RMK AO2,M
RTS,2025-06-05 11:15,-119.8764,39.6682,1539.00,44.60,30.20,56.72,350.00,6.00,0.00,30.00,M,10.00,M,M,M,M,M,M,M,M,M,M,M,M,M,M,M,M,40.71,KRTS 051115Z AUTO 35006KT 10SM 07/M01 A3000 RMK AO2,M
MEV,2025-06-05 11:15,-119.7500,38.9963,1441.42,44.60,35.60,70.47,60.00,3.00,0.00,29.98,M,10.00,M,FEW,FEW,FEW,M,3800.00,4700.00,7000.00,M,M,M,M,M,M,M,M,43.09,KMEV 051115Z AUTO 06003KT 10SM FEW038 FEW047 FEW070 07/02 A2998 RMK AO2,M
HTH,2025-06-05 11:15,-118.6315,38.5448,1282.89,57.20,23.00,26.40,160.00,4.00,0.00,29.94,M,10.00,M,CLR,M,M,M,M,M,M,M,M,M,M,M,M,M,M,57.20,KHTH 051115Z AUTO 16004KT 10SM CLR 14/M05 A2994 RMK A01,M
RTS,2025-06-05 11:25,-119.8764,39.6682,1539.00,46.40,28.40,49.22,340.00,5.00,0.00,30.00,M,10.00,M,M,M,M,M,M,M,M,M,M,M,M,M,M,M,M,43.50,KRTS 051125Z AUTO 34005KT 10SM 08/M02 A3000 RMK AO2,M
MEV,2025-06-05 11:25,-119.7500,38.9963,1441.42,44.60,37.40,75.67,0.00,0.00,0.00,29.97,M,10.00,M,CLR,M,M,M,M,M,M,M,M,M,M,M,M,M,M,44.60,KMEV 051125Z AUTO 00000KT 10SM CLR 07/03 A2997 RMK AO2,M
TMT,2025-06-05 11:30,-117.1971,39.4643,1749.34,31.60,17.40,55.25,270.00,3.00,0.00,30.05,M,10.00,M,CLR,M,M,M,M,M,M,M,M,M,M,M,M,M,M,28.23,KTMT 051130Z AUTO 27003KT 10SM CLR 00/M08 A3005 RMK AO2 T10021081,M
BVU,2025-06-05 11:35,-114.8611,35.9475,671.00,73.40,51.80,46.75,0.00,0.00,0.00,29.78,M,10.00,M,CLR,M,M,M,M,M,M,M,M,M,M,M,M,M,M,73.40,KBVU 051135Z AUTO 00000KT 10SM CLR 23/11 A2978 RMK AO2,M
BAM,2025-06-05 11:35,-116.8743,40.5990,1382.36,48.20,26.60,42.71,30.00,4.00,0.00,29.99,M,10.00,M,CLR,M,M,M,M,M,M,M,M,M,M,M,M,M,M,46.34,KBAM 051135Z AUTO 03004KT 10SM CLR 09/M03 A2999 RMK AO1,M
CXP,2025-06-05 11:35,-119.7326,39.1923,1431.00,51.80,39.20,61.99,0.00,0.00,0.00,29.99,M,10.00,M,CLR,M,M,M,M,M,M,M,M,M,M,M,M,M,M,51.80,KCXP 051135Z AUTO 00000KT 10SM CLR 11/04 A2999 RMK AO2,M
HTH,2025-06-05 11:35,-118.6315,38.5448,1282.89,57.20,24.80,28.47,0.00,0.00,0.00,29.94,M,10.00,M,CLR,M,M,M,M,M,M,M,M,M,M,M,M,M,M,57.20,KHTH 051135Z AUTO 00000KT 10SM CLR 14/M04 A2994 RMK A01,M
TMT,2025-06-05 11:50,-117.1971,39.4643,1749.34,30.20,15.60,54.09,0.00,0.00,0.00,30.06,M,10.00,M,CLR,M,M,M,M,M,M,M,M,M,M,M,M,M,M,30.20,KTMT 051150Z AUTO 00000KT 10SM CLR M01/M09 A3006 RMK AO2 T10101091,M
P68,2025-06-05 11:53,-116.0056,39.6014,1993.00,39.00,18.00,42.25,210.00,7.00,0.00,30.05,1012.00,M,M,M,M,M,M,M,M,M,M,M,M,M,M,M,M,M,33.31,KP68 051153Z AUTO 21007KT 04/M08 A3005 RMK AO1 SLP120 T00391078 10083 20028 53005,M
DRA,2025-06-05 11:53,-116.0278,36.6206,1009.00,72.00,45.00,37.99,90.00,7.00,0.00,29.85,1005.70,10.00,M,CLR,M,M,M,M,M,M,M,M,M,M,M,M,M,M,72.00,KDRA 051153Z AUTO 09007KT 10SM CLR 22/07 A2985 RMK AO2 SLP057 T02220072 10278 20222 53009,M
ELY,2025-06-05 11:53,-114.8453,39.2950,1909.00,38.00,21.00,49.95,180.00,8.00,0.00,30.06,1010.60,10.00,M,BKN,M,M,M,12000.00,M,M,M,M,M,M,M,M,M,M,31.50,KELY 051153Z AUTO 18008KT 10SM BKN120 03/M06 A3006 RMK AO2 SLP106 T00331061 10139 20033 53006,M
VGT,2025-06-05 11:53,-115.1933,36.2111,667.00,77.00,49.00,37.37,40.00,7.00,0.00,29.79,1007.70,10.00,M,CLR,M,M,M,M,M,M,M,M,M,M,M,M,M,M,77.00,KVGT 051153Z AUTO 04007KT 10SM CLR 25/09 A2979 RMK AO2 SLP077 T02500094 10283 20244 53011,M
LOL,2025-06-05 11:53,-118.5701,40.0684,1192.43,47.00,26.00,43.58,220.00,3.00,0.00,29.94,1011.10,10.00,M,CLR,M,M,M,M,M,M,M,M,M,M,M,M,M,M,45.84,KLOL 051153Z AUTO 22003KT 10SM CLR 08/M03 A2994 RMK AO2 SLP111 T00831033 10167 20067 52004,M
BVU,2025-06-05 11:55,-114.8611,35.9475,671.00,73.40,51.80,46.75,0.00,0.00,0.00,29.79,M,10.00,M,CLR,M,M,M,M,M,M,M,M,M,M,M,M,M,M,73.40,KBVU 051155Z AUTO 00000KT 10SM CLR 23/11 A2979 RMK AO2,M
BAM,2025-06-05 11:55,-116.8743,40.5990,1382.36,44.60,26.60,48.94,180.00,3.00,0.00,30.00,M,10.00,M,CLR,M,M,M,M,M,M,M,M,M,M,M,M,M,M,43.09,KBAM 051155Z AUTO 18003KT 10SM CLR 07/M03 A3000 RMK AO1,M
CXP,2025-06-05 11:55,-119.7326,39.1923,1431.00,51.80,37.40,57.76,0.00,0.00,0.00,29.99,M,10.00,M,CLR,M,M,M,M,M,M,M,M,M,M,M,M,M,M,51.80,KCXP 051155Z AUTO 00000KT 10SM CLR 11/03 A2999 RMK AO2,M
RTS,2025-06-05 11:55,-119.8764,39.6682,1539.00,50.00,26.60,39.93,340.00,3.00,0.00,30.00,M,10.00,M,CLR,M,M,M,M,M,M,M,M,M,M,M,M,M,M,50.00,KRTS 051155Z AUTO 34003KT 10SM CLR 10/M03 A3000 RMK AO2,M
MEV,2025-06-05 11:55,-119.7500,38.9963,1441.42,42.80,33.80,70.27,130.00,5.00,0.00,29.98,M,10.00,M,FEW,FEW,M,M,4700.00,5500.00,M,M,M,M,M,M,M,M,M,39.22,KMEV 051155Z AUTO 13005KT 10SM FEW047 FEW055 06/01 A2998 RMK AO2,M
HTH,2025-06-05 11:55,-118.6315,38.5448,1282.89,57.20,24.80,28.47,0.00,0.00,0.00,29.94,M,10.00,M,CLR,M,M,M,M,M,M,M,M,M,M,M,M,M,M,57.20,KHTH 051155Z AUTO 00000KT 10SM CLR 14/M04 A2994 RMK A01,M
RNO,2025-06-05 11:55,-119.7711,39.4839,1341.00,58.00,37.00,45.37,190.00,3.00,0.00,29.97,1009.80,10.00,M,FEW,M,M,M,8000.00,M,M,M,M,M,M,M,M,M,M,58.00,KRNO 051155Z COR 19003KT 10SM FEW080 14/03 A2997 RMK AO2 SLP098 T01440028 10200 20144 53002,M
INS,2025-06-05 11:55,-115.6733,36.5872,955.00,68.40,45.50,43.76,280.00,5.00,0.00,29.85,1005.80,10.00,M,BKN,M,M,M,13000.00,M,M,M,M,M,M,M,M,M,M,68.40,KINS 051155Z AUTO 28005KT 10SM BKN130 20/08 A2985 RMK AO2 SLP058 T02020075 10265 20201 52010 $,M
LSV,2025-06-05 11:55,-115.0343,36.2362,570.00,78.00,47.50,34.18,70.00,10.00,0.00,29.75,1004.50,10.00,M,FEW,M,M,M,12000.00,M,M,M,M,M,M,M,M,M,M,78.00,KLSV 051155Z 07010KT 10SM FEW120 26/09 A2975 RMK AO2A SLP045 T02560086 10295 20256 52010 $,M
EKO,2025-06-05 11:56,-115.7860,40.8242,1367.00,43.00,26.00,50.75,0.00,0.00,0.00,30.02,1013.10,10.00,M,CLR,M,M,M,M,M,M,M,M,M,M,M,M,M,M,43.00,KEKO 051156Z AUTO 00000KT 10SM CLR 06/M03 A3002 RMK AO2 SLP131 T00611033 10139 20039 53003,M
WMC,2025-06-05 11:56,-117.8072,40.9019,1315.00,42.00,24.00,48.52,160.00,5.00,0.00,29.97,1011.80,10.00,M,CLR,M,M,M,M,M,M,M,M,M,M,M,M,M,M,38.27,KWMC 051156Z AUTO 16005KT 10SM CLR 06/M04 A2997 RMK AO2 SLP118 T00561044 10167 20056 53002 TSNO,M
HND,2025-06-05 11:56,-115.1344,35.9729,742.79,75.00,50.00,41.45,200.00,9.00,0.00,29.82,1008.50,10.00,M,CLR,M,M,M,M,M,M,M,M,M,M,M,M,M,M,75.00,KHND 051156Z AUTO 20009KT 10SM CLR 24/10 A2982 RMK AO2 SLP085 T02390100 10267 20239 53005 $,M
TPH,2025-06-05 11:56,-117.0904,38.0505,1654.00,M,M,M,M,M,0.00,30.00,M,M,M,M,M,M,M,M,M,M,M,M,M,M,M,M,M,M,M,KTPH 051156Z AUTO A3000 RMK AO2 SLPNO 10183 20122 53005 PWINO $,M
LAS,2025-06-05 11:56,-115.1634,36.0719,663.00,78.00,50.00,37.53,0.00,0.00,0.00,29.80,1006.30,10.00,M,FEW,M,M,M,12000.00,M,M,M,M,M,M,M,M,M,M,78.00,KLAS 051156Z 00000KT 10SM FEW120 26/10 A2980 RMK AO2 SLP063 ACC DSNT NE T02560100 10278 20256 53006 $,M
NFL,2025-06-05 11:57,-118.7010,39.4166,1199.00,47.00,24.00,40.10,0.00,0.00,0.00,29.93,1010.80,10.00,M,CLR,M,M,M,M,M,M,M,M,M,M,M,M,M,M,47.00,KNFL 051157Z AUTO 00000KT 10SM CLR 08/M04 A2993 RMK AO2 SLP108 T00831044 10167 20083 51005 $,M
TMT,2025-06-05 12:10,-117.1971,39.4643,1749.34,26.20,11.00,52.05,0.00,0.00,0.00,30.07,M,10.00,M,CLR,M,M,M,M,M,M,M,M,M,M,M,M,M,M,26.20,KTMT 051210Z AUTO 00000KT 10SM CLR M03/M12 A3007 RMK AO2 T10321116,M
BVU,2025-06-05 12:15,-114.8611,35.9475,671.00,75.20,50.00,41.18,0.00,0.00,0.00,29.79,M,10.00,M,CLR,M,M,M,M,M,M,M,M,M,M,M,M,M,M,75.20,KBVU 051215Z AUTO 00000KT 10SM CLR 24/10 A2979 RMK AO2,M
BAM,2025-06-05 12:15,-116.8743,40.5990,1382.36,42.80,24.80,48.65,0.00,0.00,0.00,30.00,M,10.00,M,CLR,M,M,M,M,M,M,M,M,M,M,M,M,M,M,42.80,KBAM 051215Z AUTO 00000KT 10SM CLR 06/M04 A3000 RMK AO1,M
CXP,2025-06-05 12:15,-119.7326,39.1923,1431.00,50.00,39.20,66.26,0.00,0.00,0.00,30.00,M,10.00,M,CLR,M,M,M,M,M,M,M,M,M,M,M,M,M,M,50.00,KCXP 051215Z AUTO 00000KT 10SM CLR 10/04 A3000 RMK AO2,M
RTS,2025-06-05 12:15,-119.8764,39.6682,1539.00,50.00,28.40,43.01,320.00,3.00,0.00,30.00,M,10.00,M,CLR,M,M,M,M,M,M,M,M,M,M,M,M,M,M,50.00,KRTS 051215Z AUTO 32003KT 10SM CLR 10/M02 A3000 RMK AO2,M
MEV,2025-06-05 12:15,-119.7500,38.9963,1441.42,44.60,33.80,65.59,0.00,0.00,0.00,29.98,M,10.00,M,FEW,M,M,M,5000.00,M,M,M,M,M,M,M,M,M,M,44.60,KMEV 051215Z AUTO 00000KT 10SM FEW050 07/01 A2998 RMK AO2,M
HTH,2025-06-05 12:15,-118.6315,38.5448,1282.89,57.20,23.00,26.40,150.00,3.00,0.00,29.95,M,10.00,M,CLR,M,M,M,M,M,M,M,M,M,M,M,M,M,M,57.20,KHTH 051215Z AUTO 15003KT 10SM CLR 14/M05 A2995 RMK A01,M
MEV,2025-06-05 12:25,-119.7500,38.9963,1441.42,46.40,35.60,65.82,110.00,6.00,0.00,29.98,M,10.00,M,CLR,M,M,M,M,M,M,M,M,M,M,M,M,M,M,42.87,KMEV 051225Z AUTO 11006KT 10SM CLR 08/02 A2998 RMK AO2,M
RTS,2025-06-05 12:25,-119.8764,39.6682,1539.00,50.00,26.60,39.93,350.00,3.00,0.00,30.01,M,10.00,M,CLR,M,M,M,M,M,M,M,M,M,M,M,M,M,M,50.00,KRTS 051225Z AUTO 35003KT 10SM CLR 10/M03 A3001 RMK AO2,M
TMT,2025-06-05 12:30,-117.1971,39.4643,1749.34,26.20,12.20,54.90,0.00,0.00,0.00,30.07,M,10.00,M,CLR,M,M,M,M,M,M,M,M,M,M,M,M,M,M,26.20,KTMT 051230Z AUTO 00000KT 10SM CLR M03/M11 A3007 RMK AO2 T10321110,M
BVU,2025-06-05 12:35,-114.8611,35.9475,671.00,75.20,48.20,38.50,110.00,3.00,0.00,29.80,M,10.00,M,CLR,M,M,M,M,M,M,M,M,M,M,M,M,M,M,75.20,KBVU 051235Z AUTO 11003KT 10SM CLR 24/09 A2980 RMK AO2,M
BAM,2025-06-05 12:35,-116.8743,40.5990,1382.36,41.00,23.00,48.36,0.00,0.00,0.00,30.01,M,10.00,M,CLR,M,M,M,M,M,M,M,M,M,M,M,M,M,M,41.00,KBAM 051235Z AUTO 00000KT 10SM CLR 05/M05 A3001 RMK AO1,M
CXP,2025-06-05 12:35,-119.7326,39.1923,1431.00,50.00,39.20,66.26,0.00,0.00,0.00,30.00,M,10.00,M,CLR,M,M,M,M,M,M,M,M,M,M,M,M,M,M,50.00,KCXP 051235Z AUTO 00000KT 10SM CLR 10/04 A3000 RMK AO2,M
HTH,2025-06-05 12:35,-118.6315,38.5448,1282.89,59.00,24.80,26.69,280.00,3.00,0.00,29.95,M,10.00,M,CLR,M,M,M,M,M,M,M,M,M,M,M,M,M,M,59.00,KHTH 051235Z AUTO 28003KT 10SM CLR 15/M04 A2995 RMK A01,M
TMT,2025-06-05 12:50,-117.1971,39.4643,1749.34,28.20,15.40,58.18,0.00,0.00,0.00,30.07,M,10.00,M,CLR,M,M,M,M,M,M,M,M,M,M,M,M,M,M,28.20,KTMT 051250Z AUTO 00000KT 10SM CLR M02/M09 A3007 RMK AO2 T10211092,M
LOL,2025-06-05 12:53,-118.5701,40.0684,1192.43,46.00,23.00,39.93,0.00,0.00,0.00,29.94,1011.50,10.00,M,CLR,M,M,M,M,M,M,M,M,M,M,M,M,M,M,46.00,KLOL 051253Z AUTO 00000KT 10SM CLR 08/M05 A2994 RMK AO2 SLP115 T00781050,M
P68,2025-06-05 12:53,-116.0056,39.6014,1993.00,39.00,20.00,46.03,190.00,7.00,0.00,30.06,1012.20,M,M,M,M,M,M,M,M,M,M,M,M,M,M,M,M,M,33.31,KP68 051253Z AUTO 19007KT 04/M07 A3006 RMK AO1 SLP122 T00391067,M
DRA,2025-06-05 12:53,-116.0278,36.6206,1009.00,73.00,46.00,38.15,100.00,8.00,0.00,29.86,1005.90,10.00,M,CLR,M,M,M,M,M,M,M,M,M,M,M,M,M,M,73.00,KDRA 051253Z AUTO 10008KT 10SM CLR 23/08 A2986 RMK AO2 SLP059 T02280078,M
ELY,2025-06-05 12:53,-114.8453,39.2950,1909.00,37.00,19.00,47.71,190.00,8.00,0.00,30.08,1011.40,10.00,M,SCT,M,M,M,12000.00,M,M,M,M,M,M,M,M,M,M,30.27,KELY 051253Z AUTO 19008KT 10SM SCT120 03/M07 A3008 RMK AO2 SLP114 T00281072,M
VGT,2025-06-05 12:53,-115.1933,36.2111,667.00,77.00,49.00,37.37,60.00,7.00,0.00,29.81,1008.40,10.00,M,CLR,M,M,M,M,M,M,M,M,M,M,M,M,M,M,77.00,KVGT 051253Z AUTO 06007KT 10SM CLR 25/09 A2981 RMK AO2 SLP084 T02500094,M
RNO,2025-06-05 12:55,-119.7711,39.4839,1341.00,57.00,40.00,52.90,280.00,4.00,0.00,29.98,1010.20,10.00,M,FEW,M,M,M,8000.00,M,M,M,M,M,M,M,M,M,M,57.00,KRNO 051255Z 28004KT 10SM FEW080 14/04 A2998 RMK AO2 SLP102 T01390044,M
BVU,2025-06-05 12:55,-114.8611,35.9475,671.00,75.20,50.00,41.18,0.00,0.00,0.00,29.81,M,10.00,M,CLR,M,M,M,M,M,M,M,M,M,M,M,M,M,M,75.20,KBVU 051255Z AUTO 00000KT 10SM CLR 24/10 A2981 RMK AO2,M
BAM,2025-06-05 12:55,-116.8743,40.5990,1382.36,42.80,24.80,48.65,80.00,5.00,0.00,30.01,M,10.00,M,CLR,M,M,M,M,M,M,M,M,M,M,M,M,M,M,39.22,KBAM 051255Z AUTO 08005KT 10SM CLR 06/M04 A3001 RMK AO1,M
CXP,2025-06-05 12:55,-119.7326,39.1923,1431.00,50.00,39.20,66.26,0.00,0.00,0.00,30.00,M,10.00,M,CLR,M,M,M,M,M,M,M,M,M,M,M,M,M,M,50.00,KCXP 051255Z AUTO 00000KT 10SM CLR 10/04 A3000 RMK AO2,M
HTH,2025-06-05 12:55,-118.6315,38.5448,1282.89,53.60,23.00,30.09,310.00,7.00,0.00,29.96,M,10.00,M,CLR,M,M,M,M,M,M,M,M,M,M,M,M,M,M,53.60,KHTH 051255Z AUTO 31007KT 10SM CLR 12/M05 A2996 RMK A01,M
INS,2025-06-05 12:55,-115.6733,36.5872,955.00,68.50,46.40,45.12,290.00,5.00,0.00,29.86,1006.30,10.00,M,SCT,M,M,M,14000.00,M,M,M,M,M,M,M,M,M,M,68.50,KINS 051255Z AUTO 29005KT 10SM SCT140 20/08 A2986 RMK AO2 LTG DSNT E SLP063 T02030080 $,M
LSV,2025-06-05 12:55,-115.0343,36.2362,570.00,79.00,47.50,33.08,80.00,10.00,0.00,29.77,1005.20,10.00,M,SCT,M,M,M,15000.00,M,M,M,M,M,M,M,M,M,M,79.00,KLSV 051255Z 08010KT 10SM SCT150 26/09 A2977 RMK AO2A LTG DSNT N SLP052 T02610086 $,M
WMC,2025-06-05 12:56,-117.8072,40.9019,1315.00,44.00,25.00,46.85,150.00,4.00,0.00,29.98,1012.10,10.00,M,CLR,M,M,M,M,M,M,M,M,M,M,M,M,M,M,41.43,KWMC 051256Z AUTO 15004KT 10SM CLR 07/M04 A2998 RMK AO2 SLP121 T00671039 TSNO $,M
HND,2025-06-05 12:56,-115.1344,35.9729,742.79,75.00,52.00,44.64,250.00,9.00,0.00,29.85,1009.70,10.00,M,CLR,M,M,M,M,M,M,M,M,M,M,M,M,M,M,75.00,KHND 051256Z 25009KT 10SM CLR 24/11 A2985 RMK AO2 SLP097 T02390111 $,M
EKO,2025-06-05 12:56,-115.7860,40.8242,1367.00,45.00,25.00,45.10,80.00,3.00,0.00,30.04,1013.70,10.00,M,CLR,M,M,M,M,M,M,M,M,M,M,M,M,M,M,43.55,KEKO 051256Z AUTO 08003KT 10SM CLR 07/M04 A3004 RMK AO2 SLP137 T00721039,M
TPH,2025-06-05 12:56,-117.0904,38.0505,1654.00,55.00,16.00,21.20,10.00,11.00,0.00,30.01,1009.30,10.00,M,M,M,M,M,M,M,M,M,M,M,M,M,M,M,M,55.00,KTPH 051256Z AUTO 01011KT 10SM 13/M09 A3001 RMK AO2 SLP093 T01281089 $,M
LAS,2025-06-05 12:56,-115.1634,36.0719,663.00,76.00,51.00,41.61,290.00,4.00,0.00,29.83,1007.40,10.00,M,FEW,M,M,M,12000.00,M,M,M,M,M,M,M,M,M,M,76.00,KLAS 051256Z 29004KT 10SM FEW120 24/11 A2983 RMK AO2 SLP074 ACC DSNT N-NE T02440106 $,M
NFL,2025-06-05 12:57,-118.7010,39.4166,1199.00,47.00,27.00,45.43,0.00,0.00,0.00,29.94,1011.30,9.00,M,CLR,M,M,M,M,M,M,M,M,M,M,M,M,M,M,47.00,KNFL 051257Z AUTO 00000KT 9SM CLR 08/M03 A2994 RMK AO2 SLP113 T00831028 $,M
TMT,2025-06-05 13:10,-117.1971,39.4643,1749.34,32.00,16.00,51.17,140.00,3.00,0.00,30.08,M,10.00,M,CLR,M,M,M,M,M,M,M,M,M,M,M,M,M,M,28.69,KTMT 051310Z AUTO 14003KT 10SM CLR 00/M09 A3008 RMK AO2 T00011089,M
BVU,2025-06-05 13:15,-114.8611,35.9475,671.00,77.00,50.00,38.79,90.00,4.00,0.00,29.81,M,10.00,M,CLR,M,M,M,M,M,M,M,M,M,M,M,M,M,M,77.00,KBVU 051315Z AUTO 09004KT 10SM CLR 25/10 A2981 RMK AO2,M
BAM,2025-06-05 13:15,-116.8743,40.5990,1382.36,42.80,23.00,45.11,0.00,0.00,0.00,30.02,M,10.00,M,CLR,M,M,M,M,M,M,M,M,M,M,M,M,M,M,42.80,KBAM 051315Z AUTO 00000KT 10SM CLR 06/M05 A3002 RMK AO1,M
CXP,2025-06-05 13:15,-119.7326,39.1923,1431.00,51.80,39.20,61.99,0.00,0.00,0.00,30.01,M,10.00,M,CLR,M,M,M,M,M,M,M,M,M,M,M,M,M,M,51.80,KCXP 051315Z AUTO 00000KT 10SM CLR 11/04 A3001 RMK AO2,M
RTS,2025-06-05 13:15,-119.8764,39.6682,1539.00,50.00,28.40,43.01,350.00,4.00,0.00,30.01,M,10.00,M,CLR,M,M,M,M,M,M,M,M,M,M,M,M,M,M,50.00,KRTS 051315Z AUTO 35004KT 10SM CLR 10/M02 A3001 RMK AO2,M
MEV,2025-06-05 13:15,-119.7500,38.9963,1441.42,44.60,35.60,70.47,0.00,0.00,0.00,30.00,M,10.00,M,CLR,M,M,M,M,M,M,M,M,M,M,M,M,M,M,44.60,KMEV 051315Z AUTO 00000KT 10SM CLR 07/02 A3000 RMK AO2,M
HTH,2025-06-05 13:15,-118.6315,38.5448,1282.89,53.60,24.80,32.45,300.00,6.00,0.00,29.97,M,10.00,M,CLR,M,M,M,M,M,M,M,M,M,M,M,M,M,M,53.60,KHTH 051315Z AUTO 30006KT 10SM CLR 12/M04 A2997 RMK A01,M
TMT,2025-06-05 13:30,-117.1971,39.4643,1749.34,37.80,18.70,45.64,0.00,0.00,0.00,30.08,M,10.00,M,CLR,M,M,M,M,M,M,M,M,M,M,M,M,M,M,37.80,KTMT 051330Z AUTO 00000KT 10SM CLR 03/M07 A3008 RMK AO2 T00321074,M
NFL,2025-06-05 13:32,-118.7010,39.4166,1199.00,53.00,29.00,39.45,0.00,0.00,0.00,29.95,M,9.00,M,SCT,M,M,M,10000.00,M,M,M,M,M,M,M,M,M,M,53.00,KNFL 051332Z 00000KT 9SM SCT100 12/M02 A2995 RMK AO2 T01171017 $,M
BVU,2025-06-05 13:35,-114.8611,35.9475,671.00,78.80,48.20,34.18,110.00,5.00,0.00,29.82,M,10.00,M,CLR,M,M,M,M,M,M,M,M,M,M,M,M,M,M,78.80,KBVU 051335Z AUTO 11005KT 10SM CLR 26/09 A2982 RMK AO2,M
BAM,2025-06-05 13:35,-116.8743,40.5990,1382.36,44.60,24.80,45.41,0.00,0.00,0.00,30.03,M,10.00,M,CLR,M,M,M,M,M,M,M,M,M,M,M,M,M,M,44.60,KBAM 051335Z AUTO 00000KT 10SM CLR 07/M04 A3003 RMK AO1,M
CXP,2025-06-05 13:35,-119.7326,39.1923,1431.00,51.80,39.20,61.99,0.00,0.00,0.00,30.02,M,10.00,M,CLR,M,M,M,M,M,M,M,M,M,M,M,M,M,M,51.80,KCXP 051335Z AUTO 00000KT 10SM CLR 11/04 A3002 RMK AO2,M
RTS,2025-06-05 13:35,-119.8764,39.6682,1539.00,50.00,30.20,46.29,0.00,0.00,0.00,30.01,M,10.00,M,CLR,M,M,M,M,M,M,M,M,M,M,M,M,M,M,50.00,KRTS 051335Z AUTO 00000KT 10SM CLR 10/M01 A3001 RMK AO2,M
MEV,2025-06-05 13:35,-119.7500,38.9963,1441.42,48.20,37.40,66.04,0.00,0.00,0.00,30.00,M,10.00,M,CLR,M,M,M,M,M,M,M,M,M,M,M,M,M,M,48.20,KMEV 051335Z AUTO 00000KT 10SM CLR 09/03 A3000 RMK AO2,M
HTH,2025-06-05 13:35,-118.6315,38.5448,1282.89,55.40,24.80,30.39,0.00,0.00,0.00,29.97,M,10.00,M,CLR,M,M,M,M,M,M,M,M,M,M,M,M,M,M,55.40,KHTH 051335Z AUTO 00000KT 10SM CLR 13/M04 A2997 RMK A01,M
TMT,2025-06-05 13:50,-117.1971,39.4643,1749.34,41.70,19.40,40.40,0.00,0.00,0.00,30.08,M,10.00,M,CLR,M,M,M,M,M,M,M,M,M,M,M,M,M,M,41.70,KTMT 051350Z AUTO 00000KT 10SM CLR 05/M07 A3008 RMK AO2 T00541070,M
P68,2025-06-05 13:53,-116.0056,39.6014,1993.00,48.00,24.00,38.62,0.00,0.00,0.00,30.07,1011.90,M,M,M,M,M,M,M,M,M,M,M,M,M,M,M,M,M,48.00,KP68 051353Z AUTO 00000KT 09/M04 A3007 RMK AO1 SLP119 T00891044 $,M
DRA,2025-06-05 13:53,-116.0278,36.6206,1009.00,74.00,46.00,36.89,300.00,4.00,0.00,29.87,1006.50,10.00,M,CLR,M,M,M,M,M,M,M,M,M,M,M,M,M,M,74.00,KDRA 051353Z AUTO 30004KT 10SM CLR 23/08 A2987 RMK AO2 SLP065 T02330078 $,M
ELY,2025-06-05 13:53,-114.8453,39.2950,1909.00,47.00,20.00,33.86,180.00,5.00,0.00,30.09,1010.70,10.00,M,SCT,M,M,M,11000.00,M,M,M,M,M,M,M,M,M,M,44.21,KELY 051353Z AUTO 18005KT 10SM SCT110 08/M07 A3009 RMK AO2 SLP107 T00831067,M
VGT,2025-06-05 13:53,-115.1933,36.2111,667.00,79.00,49.00,34.99,90.00,6.00,0.00,29.83,1009.10,10.00,M,CLR,M,M,M,M,M,M,M,M,M,M,M,M,M,M,79.00,KVGT 051353Z 09006KT 10SM CLR 26/09 A2983 RMK AO2 SLP091 T02610094,M
LOL,2025-06-05 13:53,-118.5701,40.0684,1192.43,57.00,27.00,31.42,20.00,5.00,0.00,29.96,1011.20,10.00,M,FEW,M,M,M,10000.00,M,M,M,M,M,M,M,M,M,M,57.00,KLOL 051353Z AUTO 02005KT 10SM FEW100 14/M03 A2996 RMK AO2 SLP112 T01391028,M
BAM,2025-06-05 13:55,-116.8743,40.5990,1382.36,44.60,23.00,42.11,0.00,0.00,0.00,30.03,M,10.00,M,CLR,M,M,M,M,M,M,M,M,M,M,M,M,M,M,44.60,KBAM 051355Z AUTO 00000KT 10SM CLR 07/M05 A3003 RMK AO1,M
BVU,2025-06-05 13:55,-114.8611,35.9475,671.00,78.80,48.20,34.18,110.00,4.00,0.00,29.83,M,10.00,M,CLR,M,M,M,M,M,M,M,M,M,M,M,M,M,M,78.80,KBVU 051355Z AUTO 11004KT 10SM CLR 26/09 A2983 RMK AO2 LTG DSNT NE,M
RNO,2025-06-05 13:55,-119.7711,39.4839,1341.00,58.00,37.00,45.37,180.00,4.00,0.00,29.99,1010.60,10.00,M,FEW,M,M,M,8000.00,M,M,M,M,M,M,M,M,M,M,58.00,KRNO 051355Z 18004KT 10SM FEW080 14/03 A2999 RMK AO2 SLP106 T01440028,M
CXP,2025-06-05 13:55,-119.7326,39.1923,1431.00,55.40,41.00,58.27,0.00,0.00,0.00,30.02,M,10.00,M,CLR,M,M,M,M,M,M,M,M,M,M,M,M,M,M,55.40,KCXP 051355Z AUTO 00000KT 10SM CLR 13/05 A3002 RMK AO2,M
RTS,2025-06-05 13:55,-119.8764,39.6682,1539.00,53.60,33.80,46.87,0.00,0.00,0.00,30.02,M,10.00,M,CLR,M,M,M,M,M,M,M,M,M,M,M,M,M,M,53.60,KRTS 051355Z AUTO 00000KT 10SM CLR 12/01 A3002 RMK AO2,M
MEV,2025-06-05 13:55,-119.7500,38.9963,1441.42,51.80,37.40,57.76,0.00,0.00,0.00,30.01,M,10.00,M,CLR,M,M,M,M,M,M,M,M,M,M,M,M,M,M,51.80,KMEV 051355Z AUTO 00000KT 10SM CLR 11/03 A3001 RMK AO2,M
HTH,2025-06-05 13:55,-118.6315,38.5448,1282.89,59.00,24.80,26.69,300.00,5.00,0.00,29.98,M,10.00,M,CLR,M,M,M,M,M,M,M,M,M,M,M,M,M,M,59.00,KHTH 051355Z AUTO 30005KT 10SM CLR 15/M04 A2998 RMK A01,M
INS,2025-06-05 13:55,-115.6733,36.5872,955.00,73.80,45.00,35.75,0.00,0.00,0.00,29.88,1006.60,10.00,M,FEW,BKN,M,M,11000.00,14000.00,M,M,M,M,M,M,M,M,M,73.80,KINS 051355Z AUTO 00000KT 10SM FEW110 BKN140 23/07 A2988 RMK AO2 SLP066 T02320073 $,M
LSV,2025-06-05 13:55,-115.0343,36.2362,570.00,82.00,47.50,30.00,60.00,10.00,0.00,29.79,1005.80,10.00,M,SCT,M,M,M,12000.00,M,M,M,M,M,M,M,M,M,M,80.49,KLSV 051355Z 06010KT 10SM SCT120 28/09 A2979 RMK AO2A SLP058 T02780086 $,M
EKO,2025-06-05 13:56,-115.7860,40.8242,1367.00,49.00,29.00,45.75,100.00,5.00,0.00,30.05,1013.90,10.00,M,CLR,M,M,M,M,M,M,M,M,M,M,M,M,M,M,46.58,KEKO 051356Z AUTO 10005KT 10SM CLR 09/M02 A3005 RMK AO2 SLP139 T00941017,M
WMC,2025-06-05 13:56,-117.8072,40.9019,1315.00,52.00,27.00,37.70,120.00,3.00,0.00,29.99,1012.00,10.00,M,SCT,M,M,M,10000.00,M,M,M,M,M,M,M,M,M,M,52.00,KWMC 051356Z AUTO 12003KT 10SM SCT100 11/M03 A2999 RMK AO2 SLP120 T01111028 TSNO $,M
HND,2025-06-05 13:56,-115.1344,35.9729,742.79,76.00,52.00,43.18,200.00,6.00,0.00,29.87,1010.40,10.00,M,CLR,M,M,M,M,M,M,M,M,M,M,M,M,M,M,76.00,KHND 051356Z 20006KT 10SM CLR 24/11 A2987 RMK AO2 SLP104 T02440111 $,M
TPH,2025-06-05 13:56,-117.0904,38.0505,1654.00,58.00,18.00,20.74,360.00,13.00,0.00,30.02,1009.40,10.00,M,M,M,M,M,M,M,M,M,M,M,M,M,M,M,M,58.00,KTPH 051356Z AUTO 36013KT 10SM 14/M08 A3002 RMK AO2 SLP094 T01441078 $,M
LAS,2025-06-05 13:56,-115.1634,36.0719,663.00,78.00,50.00,37.53,40.00,3.00,0.00,29.85,1008.10,10.00,M,FEW,M,M,M,12000.00,M,M,M,M,M,M,M,M,M,M,78.00,KLAS 051356Z 04003KT 10SM FEW120 26/10 A2985 RMK AO2 SLP081 CB DSNT N T02560100 $,M
NFL,2025-06-05 13:57,-118.7010,39.4166,1199.00,56.00,28.00,33.94,170.00,3.00,0.00,29.95,1011.50,9.00,M,SCT,M,M,M,10000.00,M,M,M,M,M,M,M,M,M,M,56.00,KNFL 051357Z 17003KT 9SM SCT100 13/M02 A2995 RMK AO2 SLP115 T01331022 $,M
TMT,2025-06-05 14:10,-117.1971,39.4643,1749.34,44.20,20.00,37.66,0.00,0.00,0.00,30.08,M,10.00,M,CLR,M,M,M,M,M,M,M,M,M,M,M,M,M,M,44.20,KTMT 051410Z AUTO 00000KT 10SM CLR 07/M07 A3008 RMK AO2 T00681067,M
BVU,2025-06-05 14:15,-114.8611,35.9475,671.00,78.80,48.20,34.18,M,3.00,0.00,29.83,M,10.00,M,CLR,M,M,M,M,M,M,M,M,M,M,M,M,M,M,78.80,KBVU 051415Z AUTO VRB03KT 10SM CLR 26/09 A2983 RMK AO2,M
BAM,2025-06-05 14:15,-116.8743,40.5990,1382.36,48.20,26.60,42.71,70.00,4.00,0.00,30.03,M,10.00,M,CLR,M,M,M,M,M,M,M,M,M,M,M,M,M,M,46.34,KBAM 051415Z AUTO 07004KT 10SM CLR 09/M03 A3003 RMK AO1,M
CXP,2025-06-05 14:15,-119.7326,39.1923,1431.00,57.20,39.20,50.91,0.00,0.00,0.00,30.02,M,10.00,M,CLR,M,M,M,M,M,M,M,M,M,M,M,M,M,M,57.20,KCXP 051415Z AUTO 00000KT 10SM CLR 14/04 A3002 RMK AO2,M
RTS,2025-06-05 14:15,-119.8764,39.6682,1539.00,55.40,33.80,43.89,0.00,0.00,0.00,30.02,M,10.00,M,CLR,M,M,M,M,M,M,M,M,M,M,M,M,M,M,55.40,KRTS 051415Z AUTO 00000KT 10SM CLR 13/01 A3002 RMK AO2,M
MEV,2025-06-05 14:15,-119.7500,38.9963,1441.42,53.60,39.20,58.02,0.00,0.00,0.00,30.01,M,10.00,M,CLR,M,M,M,M,M,M,M,M,M,M,M,M,M,M,53.60,KMEV 051415Z AUTO 00000KT 10SM CLR 12/04 A3001 RMK AO2,M
HTH,2025-06-05 14:15,-118.6315,38.5448,1282.89,59.00,21.20,22.94,M,3.00,0.00,29.98,M,10.00,M,CLR,M,M,M,M,M,M,M,M,M,M,M,M,M,M,59.00,KHTH 051415Z AUTO VRB03KT 10SM CLR 15/M06 A2998 RMK A01,M
TMT,2025-06-05 14:30,-117.1971,39.4643,1749.34,48.00,21.00,34.03,0.00,0.00,0.00,30.08,M,10.00,M,CLR,M,M,M,M,M,M,M,M,M,M,M,M,M,M,48.00,KTMT 051430Z AUTO 00000KT 10SM CLR 09/M06 A3008 RMK AO2 T00881061,M
BVU,2025-06-05 14:35,-114.8611,35.9475,671.00,80.60,48.20,32.23,70.00,6.00,0.00,29.84,M,10.00,M,CLR,M,M,M,M,M,M,M,M,M,M,M,M,M,M,79.72,KBVU 051435Z AUTO 07006KT 10SM CLR 27/09 A2984 RMK AO2,M
BAM,2025-06-05 14:35,-116.8743,40.5990,1382.36,51.80,28.40,40.23,40.00,5.00,0.00,30.03,M,10.00,M,SCT,M,M,M,11000.00,M,M,M,M,M,M,M,M,M,M,51.80,KBAM 051435Z AUTO 04005KT 10SM SCT110 11/M02 A3003 RMK AO1,M
CXP,2025-06-05 14:35,-119.7326,39.1923,1431.00,59.00,39.20,47.72,0.00,0.00,0.00,30.02,M,10.00,M,CLR,M,M,M,M,M,M,M,M,M,M,M,M,M,M,59.00,KCXP 051435Z AUTO 00000KT 10SM CLR 15/04 A3002 RMK AO2,M
RTS,2025-06-05 14:35,-119.8764,39.6682,1539.00,59.00,32.00,35.86,0.00,0.00,0.00,30.02,M,10.00,M,CLR,M,M,M,M,M,M,M,M,M,M,M,M,M,M,59.00,KRTS 051435Z AUTO 00000KT 10SM CLR 15/00 A3002 RMK AO2,M
MEV,2025-06-05 14:35,-119.7500,38.9963,1441.42,57.20,41.00,54.60,0.00,0.00,0.00,30.01,M,10.00,M,CLR,M,M,M,M,M,M,M,M,M,M,M,M,M,M,57.20,KMEV 051435Z AUTO 00000KT 10SM CLR 14/05 A3001 RMK AO2,M
HTH,2025-06-05 14:35,-118.6315,38.5448,1282.89,60.80,23.00,23.21,0.00,0.00,0.00,29.99,M,10.00,M,CLR,M,M,M,M,M,M,M,M,M,M,M,M,M,M,60.80,KHTH 051435Z AUTO 00000KT 10SM CLR 16/M05 A2999 RMK A01,M
TMT,2025-06-05 14:50,-117.1971,39.4643,1749.34,51.00,22.30,32.15,0.00,0.00,0.00,30.08,M,10.00,M,CLR,M,M,M,M,M,M,M,M,M,M,M,M,M,M,51.00,KTMT 051450Z AUTO 00000KT 10SM CLR 11/M05 A3008 RMK AO2 T01061054,M
P68,2025-06-05 14:53,-116.0056,39.6014,1993.00,55.00,22.00,27.41,0.00,0.00,0.00,30.07,1011.70,M,M,M,M,M,M,M,M,M,M,M,M,M,M,M,M,M,55.00,KP68 051453Z AUTO 00000KT 13/M06 A3007 RMK AO1 SLP117 T01281056 50005 $,M
DRA,2025-06-05 14:53,-116.0278,36.6206,1009.00,78.00,46.00,32.30,260.00,4.00,0.00,29.88,1006.80,10.00,M,CLR,M,M,M,M,M,M,M,M,M,M,M,M,M,M,78.00,KDRA 051453Z AUTO 26004KT 10SM CLR 26/08 A2988 RMK AO2 SLP068 T02560078 53011 $,M
ELY,2025-06-05 14:53,-114.8453,39.2950,1909.00,53.00,20.00,27.09,0.00,0.00,0.00,30.09,1010.50,10.00,M,BKN,M,M,M,10000.00,M,M,M,M,M,M,M,M,M,M,53.00,KELY 051453Z AUTO 00000KT 10SM BKN100 12/M07 A3009 RMK AO2 SLP105 T01171067 51007,M
VGT,2025-06-05 14:53,-115.1933,36.2111,667.00,82.00,49.00,31.73,100.00,7.00,0.00,29.85,1009.80,10.00,M,CLR,M,M,M,M,M,M,M,M,M,M,M,M,M,M,80.63,KVGT 051453Z 10007KT 10SM CLR 28/09 A2985 RMK AO2 SLP098 T02780094 53020,M
LOL,2025-06-05 14:53,-118.5701,40.0684,1192.43,64.00,27.00,24.50,350.00,5.00,0.00,29.96,1011.00,10.00,M,CLR,M,M,M,M,M,M,M,M,M,M,M,M,M,M,64.00,KLOL 051453Z AUTO 35005KT 10SM CLR 18/M03 A2996 RMK AO2 SLP110 T01781028 51006,M
BVU,2025-06-05 14:55,-114.8611,35.9475,671.00,80.60,48.20,32.23,80.00,8.00,0.00,29.85,M,10.00,M,CLR,M,M,M,M,M,M,M,M,M,M,M,M,M,M,79.72,KBVU 051455Z AUTO 08008KT 10SM CLR 27/09 A2985 RMK AO2,M
RNO,2025-06-05 14:55,-119.7711,39.4839,1341.00,63.00,37.00,37.99,150.00,3.00,0.00,30.00,1010.70,10.00,M,CLR,M,M,M,M,M,M,M,M,M,M,M,M,M,M,63.00,KRNO 051455Z 15003KT 10SM CLR 17/03 A3000 RMK AO2 SLP107 T01720028 51008,M
BAM,2025-06-05 14:55,-116.8743,40.5990,1382.36,55.40,30.20,37.96,50.00,5.00,0.00,30.03,M,10.00,M,SCT,M,M,M,11000.00,M,M,M,M,M,M,M,M,M,M,55.40,KBAM 051455Z AUTO 05005KT 10SM SCT110 13/M01 A3003 RMK AO1,M
CXP,2025-06-05 14:55,-119.7326,39.1923,1431.00,60.80,39.20,44.76,0.00,0.00,0.00,30.02,M,10.00,M,CLR,M,M,M,M,M,M,M,M,M,M,M,M,M,M,60.80,KCXP 051455Z AUTO 00000KT 10SM CLR 16/04 A3002 RMK AO2,M
RTS,2025-06-05 14:55,-119.8764,39.6682,1539.00,60.80,30.20,31.27,0.00,0.00,0.00,30.02,M,10.00,M,CLR,M,M,M,M,M,M,M,M,M,M,M,M,M,M,60.80,KRTS 051455Z AUTO 00000KT 10SM CLR 16/M01 A3002 RMK AO2,M
MEV,2025-06-05 14:55,-119.7500,38.9963,1441.42,57.20,42.80,58.52,210.00,3.00,0.00,30.00,M,10.00,M,CLR,M,M,M,M,M,M,M,M,M,M,M,M,M,M,57.20,KMEV 051455Z AUTO 21003KT 10SM CLR 14/06 A3000 RMK AO2,M
HTH,2025-06-05 14:55,-118.6315,38.5448,1282.89,62.60,24.80,23.49,0.00,0.00,0.00,29.99,M,10.00,M,CLR,M,M,M,M,M,M,M,M,M,M,M,M,M,M,62.60,KHTH 051455Z AUTO 00000KT 10SM CLR 17/M04 A2999 RMK A01,M
INS,2025-06-05 14:55,-115.6733,36.5872,955.00,77.70,47.00,33.88,120.00,9.00,0.00,29.88,1006.60,10.00,M,SCT,M,M,M,20000.00,M,M,M,M,M,M,M,M,M,M,77.70,KINS 051455Z AUTO 12009KT 10SM SCT200 25/08 A2988 RMK AO2 SLP066 T02540084 51009 $,M
LSV,2025-06-05 14:55,-115.0343,36.2362,570.00,83.30,48.60,29.97,50.00,13.00,0.00,29.81,1006.50,10.00,M,CLR,M,M,M,M,M,M,M,M,M,M,M,M,M,M,81.45,KLSV 051455Z AUTO 05013KT 10SM CLR 29/09 A2981 RMK AO2 SLP065 T02850092 52020 $,M
EKO,2025-06-05 14:56,-115.7860,40.8242,1367.00,54.00,27.00,35.03,60.00,3.00,0.00,30.05,1013.70,10.00,M,CLR,M,M,M,M,M,M,M,M,M,M,M,M,M,M,54.00,KEKO 051456Z AUTO 06003KT 10SM CLR 12/M03 A3005 RMK AO2 SLP137 T01221028 51010,M
WMC,2025-06-05 14:56,-117.8072,40.9019,1315.00,61.00,25.00,25.06,70.00,10.00,0.00,30.00,1011.90,10.00,M,FEW,M,M,M,11000.00,M,M,M,M,M,M,M,M,M,M,61.00,KWMC 051456Z AUTO 07010KT 10SM FEW110 16/M04 A3000 RMK AO2 SLP119 T01611039 51009 TSNO $,M
HND,2025-06-05 14:56,-115.1344,35.9729,742.79,80.00,51.00,36.48,180.00,4.00,0.00,29.89,1011.00,10.00,M,CLR,M,M,M,M,M,M,M,M,M,M,M,M,M,M,79.65,KHND 051456Z 18004KT 10SM CLR 27/11 A2989 RMK AO2 SLP110 T02670106 51022 $,M
TPH,2025-06-05 14:56,-117.0904,38.0505,1654.00,64.00,22.00,19.88,10.00,10.00,0.00,30.02,1009.40,10.00,M,CLR,M,M,M,M,M,M,M,M,M,M,M,M,M,M,64.00,KTPH 051456Z AUTO 01010KT 10SM CLR 18/M06 A3002 RMK AO2 SLP094 T01781056 53005 $,M
LAS,2025-06-05 14:56,-115.1634,36.0719,663.00,80.00,50.00,35.15,110.00,5.00,0.00,29.87,1008.70,10.00,M,FEW,M,M,M,12000.00,M,M,M,M,M,M,M,M,M,M,79.55,KLAS 051456Z 11005KT 10SM FEW120 27/10 A2987 RMK AO2 SLP087 T02670100 51021 $,M
NFL,2025-06-05 14:57,-118.7010,39.4166,1199.00,63.00,26.00,24.35,220.00,3.00,0.00,29.96,1011.80,9.00,M,FEW,M,M,M,8000.00,M,M,M,M,M,M,M,M,M,M,63.00,KNFL 051457Z 22003KT 9SM FEW080 17/M03 A2996 RMK AO2 SLP118 T01721033 51010,M
TMT,2025-06-05 15:10,-117.1971,39.4643,1749.34,53.80,23.40,30.38,0.00,0.00,0.00,30.08,M,10.00,M,CLR,M,M,M,M,M,M,M,M,M,M,M,M,M,M,53.80,KTMT 051510Z AUTO 00000KT 10SM CLR 12/M05 A3008 RMK AO2 T01211048,M
BVU,2025-06-05 15:15,-114.8611,35.9475,671.00,82.40,48.20,30.40,100.00,9.00,0.00,29.85,M,10.00,M,CLR,M,M,M,M,M,M,M,M,M,M,M,M,M,M,80.81,KBVU 051515Z AUTO 10009KT 10SM CLR 28/09 A2985 RMK AO2,M
CXP,2025-06-05 15:15,-119.7326,39.1923,1431.00,62.60,39.20,42.00,M,3.00,0.00,30.02,M,10.00,M,CLR,M,M,M,M,M,M,M,M,M,M,M,M,M,M,62.60,KCXP 051515Z AUTO VRB03KT 10SM CLR 17/04 A3002 RMK AO2,M
RTS,2025-06-05 15:15,-119.8764,39.6682,1539.00,62.60,30.20,29.34,0.00,0.00,0.00,30.02,M,10.00,M,CLR,M,M,M,M,M,M,M,M,M,M,M,M,M,M,62.60,KRTS 051515Z AUTO 00000KT 10SM CLR 17/M01 A3002 RMK AO2,M
MEV,2025-06-05 15:15,-119.7500,38.9963,1441.42,59.00,44.60,58.78,0.00,0.00,0.00,30.01,M,10.00,M,CLR,M,M,M,M,M,M,M,M,M,M,M,M,M,M,59.00,KMEV 051515Z AUTO 00000KT 10SM CLR 15/07 A3001 RMK AO2,M
BAM,2025-06-05 15:15,-116.8743,40.5990,1382.36,57.20,32.00,38.25,30.00,6.00,0.00,30.04,M,10.00,M,CLR,M,M,M,M,M,M,M,M,M,M,M,M,M,M,57.20,KBAM 051515Z AUTO 03006KT 10SM CLR 14/00 A3004 RMK AO1,M
HTH,2025-06-05 15:15,-118.6315,38.5448,1282.89,64.40,28.40,25.60,0.00,0.00,0.00,29.99,M,10.00,M,CLR,M,M,M,M,M,M,M,M,M,M,M,M,M,M,64.40,KHTH 051515Z AUTO 00000KT 10SM CLR 18/M02 A2999 RMK A01,M
TMT,2025-06-05 15:30,-117.1971,39.4643,1749.34,57.20,24.00,27.53,0.00,0.00,0.00,30.08,M,10.00,M,CLR,M,M,M,M,M,M,M,M,M,M,M,M,M,M,57.20,KTMT 051530Z AUTO 00000KT 10SM CLR 14/M04 A3008 RMK AO2 T01401044,M
BVU,2025-06-05 15:35,-114.8611,35.9475,671.00,82.40,48.20,30.40,100.00,7.00,0.00,29.86,M,10.00,M,CLR,M,M,M,M,M,M,M,M,M,M,M,M,M,M,80.81,KBVU 051535Z AUTO 10007KT 10SM CLR 28/09 A2986 RMK AO2,M
BAM,2025-06-05 15:35,-116.8743,40.5990,1382.36,60.80,32.00,33.64,30.00,7.00,0.00,30.04,M,7.00,M,CLR,M,M,M,M,M,M,M,M,M,M,M,M,M,M,60.80,KBAM 051535Z AUTO 03007KT 7SM CLR 16/00 A3004 RMK AO1,M
CXP,2025-06-05 15:35,-119.7326,39.1923,1431.00,64.40,39.20,39.44,0.00,0.00,0.00,30.02,M,10.00,M,CLR,M,M,M,M,M,M,M,M,M,M,M,M,M,M,64.40,KCXP 051535Z AUTO 00000KT 10SM CLR 18/04 A3002 RMK AO2,M
RTS,2025-06-05 15:35,-119.8764,39.6682,1539.00,64.40,32.00,29.63,0.00,0.00,0.00,30.02,M,10.00,M,CLR,M,M,M,M,M,M,M,M,M,M,M,M,M,M,64.40,KRTS 051535Z AUTO 00000KT 10SM CLR 18/M00 A3002 RMK AO2,M
MEV,2025-06-05 15:35,-119.7500,38.9963,1441.42,62.60,42.80,48.29,0.00,0.00,0.00,30.01,M,10.00,M,CLR,M,M,M,M,M,M,M,M,M,M,M,M,M,M,62.60,KMEV 051535Z AUTO 00000KT 10SM CLR 17/06 A3001 RMK AO2,M
HTH,2025-06-05 15:35,-118.6315,38.5448,1282.89,M,M,M,0.00,0.00,0.00,29.99,M,10.00,M,M,M,M,M,M,M,M,M,M,M,M,M,M,M,M,M,KHTH 051535Z AUTO 00000KT 10SM A2999 RMK A01,M
TMT,2025-06-05 15:50,-117.1971,39.4643,1749.34,58.60,23.50,25.64,0.00,0.00,0.00,30.07,M,10.00,M,CLR,M,M,M,M,M,M,M,M,M,M,M,M,M,M,58.60,KTMT 051550Z AUTO 00000KT 10SM CLR 15/M05 A3007 RMK AO2 T01481047,M
P68,2025-06-05 15:53,-116.0056,39.6014,1993.00,61.00,23.00,23.05,0.00,0.00,0.00,30.07,1012.00,M,M,M,M,M,M,M,M,M,M,M,M,M,M,M,M,M,61.00,KP68 051553Z AUTO 00000KT 16/M05 A3007 RMK AO1 SLP120 T01611050,M
DRA,2025-06-05 15:53,-116.0278,36.6206,1009.00,82.00,45.00,27.29,120.00,8.00,0.00,29.89,1007.00,10.00,M,CLR,M,M,M,M,M,M,M,M,M,M,M,M,M,M,80.28,KDRA 051553Z AUTO 12008KT 10SM CLR 28/07 A2989 RMK AO2 SLP070 T02780072,M
ELY,2025-06-05 15:53,-114.8453,39.2950,1909.00,60.00,20.00,21.03,0.00,0.00,0.00,30.09,1010.80,10.00,M,SCT,M,M,M,10000.00,M,M,M,M,M,M,M,M,M,M,60.00,KELY 051553Z AUTO 00000KT 10SM SCT100 16/M07 A3009 RMK AO2 SLP108 T01561067,M
VGT,2025-06-05 15:53,-115.1933,36.2111,667.00,84.00,49.00,29.75,70.00,12.00,0.00,29.86,1010.30,10.00,M,CLR,M,M,M,M,M,M,M,M,M,M,M,M,M,M,81.98,KVGT 051553Z 07012KT 10SM CLR 29/09 A2986 RMK AO2 SLP103 T02890094,M
LOL,2025-06-05 15:53,-118.5701,40.0684,1192.43,70.00,28.00,20.76,50.00,7.00,0.00,29.96,1011.30,10.00,M,CLR,M,M,M,M,M,M,M,M,M,M,M,M,M,M,70.00,KLOL 051553Z AUTO 05007KT 10SM CLR 21/M02 A2996 RMK AO2 SLP113 T02111022,M
BVU,2025-06-05 15:55,-114.8611,35.9475,671.00,82.40,50.00,32.51,110.00,10.00,0.00,29.86,M,10.00,M,CLR,M,M,M,M,M,M,M,M,M,M,M,M,M,M,80.99,KBVU 051555Z AUTO 11010KT 10SM CLR 28/10 A2986 RMK AO2,M
RNO,2025-06-05 15:55,-119.7711,39.4839,1341.00,66.00,36.00,32.89,0.00,0.00,0.00,29.99,1010.60,10.00,M,CLR,M,M,M,M,M,M,M,M,M,M,M,M,M,M,66.00,KRNO 051555Z 00000KT 10SM CLR 19/02 A2999 RMK AO2 SLP106 T01890022,M
BAM,2025-06-05 15:55,-116.8743,40.5990,1382.36,60.80,30.20,31.27,40.00,7.00,0.00,30.04,M,10.00,M,CLR,M,M,M,M,M,M,M,M,M,M,M,M,M,M,60.80,KBAM 051555Z AUTO 04007KT 10SM CLR 16/M01 A3004 RMK AO1,M
CXP,2025-06-05 15:55,-119.7326,39.1923,1431.00,66.20,39.20,37.04,0.00,0.00,0.00,30.02,M,10.00,M,CLR,M,M,M,M,M,M,M,M,M,M,M,M,M,M,66.20,KCXP 051555Z AUTO 00000KT 10SM CLR 19/04 A3002 RMK AO2,M
RTS,2025-06-05 15:55,-119.8764,39.6682,1539.00,66.20,28.40,24.04,0.00,0.00,0.00,30.02,M,10.00,M,CLR,M,M,M,M,M,M,M,M,M,M,M,M,M,M,66.20,KRTS 051555Z AUTO 00000KT 10SM CLR 19/M02 A3002 RMK AO2,M
MEV,2025-06-05 15:55,-119.7500,38.9963,1441.42,64.40,41.00,42.30,0.00,0.00,0.00,30.01,M,10.00,M,CLR,M,M,M,M,M,M,M,M,M,M,M,M,M,M,64.40,KMEV 051555Z AUTO 00000KT 10SM CLR 18/05 A3001 RMK AO2,M
HTH,2025-06-05 15:55,-118.6315,38.5448,1282.89,68.00,26.60,20.98,0.00,0.00,0.00,29.99,M,10.00,M,M,M,M,M,M,M,M,M,M,M,M,M,M,M,M,68.00,KHTH 051555Z AUTO 00000KT 10SM 20/M03 A2999 RMK A01,M
INS,2025-06-05 15:55,-115.6733,36.5872,955.00,82.60,46.20,28.01,120.00,13.00,0.00,29.88,1006.30,10.00,M,FEW,M,M,M,11000.00,M,M,M,M,M,M,M,M,M,M,80.76,KINS 051555Z AUTO 12013KT 10SM FEW110 28/08 A2988 RMK AO2 SLP063 T02810079 $,M
LSV,2025-06-05 15:55,-115.0343,36.2362,570.00,86.00,47.00,25.89,100.00,10.00,0.00,29.82,1006.80,10.00,M,SCT,M,M,M,13000.00,M,M,M,M,M,M,M,M,M,M,83.28,KLSV 051555Z 10010KT 10SM SCT130 30/08 A2982 RMK AO2A SLP068 T03000084 $,M
EKO,2025-06-05 15:56,-115.7860,40.8242,1367.00,60.00,28.00,29.40,M,3.00,0.00,30.05,1013.60,10.00,M,CLR,M,M,M,M,M,M,M,M,M,M,M,M,M,M,60.00,KEKO 051556Z AUTO VRB03KT 10SM CLR 16/M02 A3005 RMK AO2 SLP136 T01561022,M
WMC,2025-06-05 15:56,-117.8072,40.9019,1315.00,66.00,26.00,21.93,60.00,11.00,0.00,30.00,1012.00,10.00,M,CLR,M,M,M,M,M,M,M,M,M,M,M,M,M,M,66.00,KWMC 051556Z AUTO 06011KT 10SM CLR 19/M03 A3000 RMK AO2 SLP120 T01891033 TSNO,M
HND,2025-06-05 15:56,-115.1344,35.9729,742.79,82.00,51.00,34.18,260.00,4.00,0.00,29.90,1011.50,10.00,M,CLR,M,M,M,M,M,M,M,M,M,M,M,M,M,M,80.85,KHND 051556Z 26004KT 10SM CLR 28/11 A2990 RMK AO2 SLP115 T02780106 $,M
TPH,2025-06-05 15:56,-117.0904,38.0505,1654.00,70.00,20.00,14.85,0.00,0.00,0.00,30.03,1009.30,10.00,M,CLR,M,M,M,M,M,M,M,M,M,M,M,M,M,M,70.00,KTPH 051556Z AUTO 00000KT 10SM CLR 21/M07 A3003 RMK AO2 SLP093 T02111067 $,M
LAS,2025-06-05 15:56,-115.1634,36.0719,663.00,82.00,50.00,32.94,140.00,5.00,0.00,29.88,1009.10,10.00,M,FEW,FEW,M,M,12000.00,15000.00,M,M,M,M,M,M,M,M,M,80.73,KLAS 051556Z 14005KT 10SM FEW120 FEW150 28/10 A2988 RMK AO2 SLP091 ACC DSNT SE T02780100 $,M
NFL,2025-06-05 15:57,-118.7010,39.4166,1199.00,69.00,27.00,20.61,280.00,5.00,0.00,29.96,1011.90,10.00,M,CLR,M,M,M,M,M,M,M,M,M,M,M,M,M,M,69.00,KNFL 051557Z 28005KT 10SM CLR 21/M03 A2996 RMK AO2 SLP119 T02061028,M
TMT,2025-06-05 16:10,-117.1971,39.4643,1749.34,61.70,24.00,23.45,0.00,0.00,0.00,30.07,M,10.00,M,CLR,M,M,M,M,M,M,M,M,M,M,M,M,M,M,61.70,KTMT 051610Z AUTO 00000KT 10SM CLR 17/M04 A3007 RMK AO2 T01651045,M
BVU,2025-06-05 16:15,-114.8611,35.9475,671.00,82.40,50.00,32.51,130.00,9.00,0.00,29.86,M,10.00,M,CLR,M,M,M,M,M,M,M,M,M,M,M,M,M,M,80.99,KBVU 051615Z AUTO 13009KT 10SM CLR 28/10 A2986 RMK AO2,M
BAM,2025-06-05 16:15,-116.8743,40.5990,1382.36,64.40,32.00,29.63,20.00,8.00,0.00,30.04,M,10.00,M,CLR,M,M,M,M,M,M,M,M,M,M,M,M,M,M,64.40,KBAM 051615Z AUTO 02008KT 10SM CLR 18/00 A3004 RMK AO1,M
CXP,2025-06-05 16:15,-119.7326,39.1923,1431.00,68.00,39.20,34.81,0.00,0.00,0.00,30.02,M,9.00,M,CLR,M,M,M,M,M,M,M,M,M,M,M,M,M,M,68.00,KCXP 051615Z AUTO 00000KT 9SM CLR 20/04 A3002 RMK AO2,M
RTS,2025-06-05 16:15,-119.8764,39.6682,1539.00,68.00,26.60,20.98,M,4.00,0.00,30.02,M,10.00,M,CLR,M,M,M,M,M,M,M,M,M,M,M,M,M,M,68.00,KRTS 051615Z AUTO VRB04KT 10SM CLR 20/M03 A3002 RMK AO2,M
MEV,2025-06-05 16:15,-119.7500,38.9963,1441.42,66.20,42.80,42.59,0.00,0.00,0.00,30.00,M,10.00,M,CLR,M,M,M,M,M,M,M,M,M,M,M,M,M,M,66.20,KMEV 051615Z AUTO 00000KT 10SM CLR 19/06 A3000 RMK AO2,M
HTH,2025-06-05 16:15,-118.6315,38.5448,1282.89,68.00,26.60,20.98,M,3.00,0.00,29.99,M,10.00,M,CLR,M,M,M,M,M,M,M,M,M,M,M,M,M,M,68.00,KHTH 051615Z AUTO VRB03KT 10SM CLR 20/M03 A2999 RMK A01,M
LSV,2025-06-05 16:16,-115.0343,36.2362,570.00,86.00,48.20,27.08,80.00,10.00,0.00,29.82,1006.90,10.00,18.00,CLR,M,M,M,M,M,M,M,M,M,M,M,M,M,M,83.41,KLSV 051616Z AUTO 08010G18KT 10SM CLR 30/09 A2982 RMK AO2 WSHFT 10 SLP069 $,M
RTS,2025-06-05 16:25,-119.8764,39.6682,1539.00,68.00,26.60,20.98,110.00,5.00,0.00,30.02,M,10.00,M,CLR,M,M,M,M,M,M,M,M,M,M,M,M,M,M,68.00,KRTS 051625Z AUTO 11005KT 10SM CLR 20/M03 A3002 RMK AO2,M
MEV,2025-06-05 16:25,-119.7500,38.9963,1441.42,66.20,42.80,42.59,M,4.00,0.00,30.00,M,10.00,M,CLR,M,M,M,M,M,M,M,M,M,M,M,M,M,M,66.20,KMEV 051625Z AUTO VRB04KT 10SM CLR 19/06 A3000 RMK AO2,M
TMT,2025-06-05 16:30,-117.1971,39.4643,1749.34,63.70,24.60,22.41,0.00,0.00,0.00,30.06,M,10.00,M,CLR,M,M,M,M,M,M,M,M,M,M,M,M,M,M,63.70,KTMT 051630Z AUTO 00000KT 10SM CLR 18/M04 A3006 RMK AO2 T01761041,M
BVU,2025-06-05 16:35,-114.8611,35.9475,671.00,84.20,50.00,30.68,120.00,11.00,0.00,29.86,M,10.00,M,CLR,M,M,M,M,M,M,M,M,M,M,M,M,M,M,82.24,KBVU 051635Z AUTO 12011KT 10SM CLR 29/10 A2986 RMK AO2,M
BAM,2025-06-05 16:35,-116.8743,40.5990,1382.36,64.40,32.00,29.63,30.00,8.00,0.00,30.03,M,10.00,M,CLR,M,M,M,M,M,M,M,M,M,M,M,M,M,M,64.40,KBAM 051635Z AUTO 03008KT 10SM CLR 18/00 A3003 RMK AO1,M
CXP,2025-06-05 16:35,-119.7326,39.1923,1431.00,69.80,37.40,30.50,M,4.00,0.00,30.01,M,10.00,M,CLR,M,M,M,M,M,M,M,M,M,M,M,M,M,M,69.80,KCXP 051635Z AUTO VRB04KT 10SM CLR 21/03 A3001 RMK AO2,M
HTH,2025-06-05 16:35,-118.6315,38.5448,1282.89,69.80,28.40,21.24,M,4.00,0.00,29.98,M,10.00,M,CLR,M,M,M,M,M,M,M,M,M,M,M,M,M,M,69.80,KHTH 051635Z AUTO VRB04KT 10SM CLR 21/M02 A2998 RMK A01,M
LSV,2025-06-05 16:40,-115.0343,36.2362,570.00,87.80,48.20,25.58,60.00,13.00,0.00,29.82,1006.80,10.00,18.00,FEW,M,M,M,19000.00,M,M,M,M,M,M,M,M,M,M,84.88,KLSV 051640Z AUTO 06013G18KT 10SM FEW190 31/09 A2982 RMK AO2 WSHFT 34 SLP068 $,M
TMT,2025-06-05 16:50,-117.1971,39.4643,1749.34,66.20,25.50,21.33,0.00,0.00,0.00,30.06,M,10.00,M,CLR,M,M,M,M,M,M,M,M,M,M,M,M,M,M,66.20,KTMT 051650Z AUTO 00000KT 10SM CLR 19/M04 A3006 RMK AO2 T01901036,M
P68,2025-06-05 16:53,-116.0056,39.6014,1993.00,66.00,24.00,20.17,M,4.00,0.00,30.06,1011.30,M,M,M,M,M,M,M,M,M,M,M,M,M,M,M,M,M,66.00,KP68 051653Z AUTO VRB04KT 19/M04 A3006 RMK AO1 SLP113 T01891044,M
DRA,2025-06-05 16:53,-116.0278,36.6206,1009.00,84.00,46.00,26.58,M,M,0.00,29.89,1006.90,10.00,M,CLR,M,M,M,M,M,M,M,M,M,M,M,M,M,M,81.70,KDRA 051653Z AUTO 10SM CLR 29/08 A2989 RMK AO2 SLP069 T02890078,M
ELY,2025-06-05 16:53,-114.8453,39.2950,1909.00,64.00,23.00,20.74,0.00,0.00,0.00,30.08,1010.40,10.00,M,BKN,M,M,M,11000.00,M,M,M,M,M,M,M,M,M,M,64.00,KELY 051653Z AUTO 00000KT 10SM BKN110 18/M05 A3008 RMK AO2 SLP104 T01781050,M
VGT,2025-06-05 16:53,-115.1933,36.2111,667.00,86.00,49.00,27.91,120.00,7.00,0.00,29.86,1010.20,10.00,M,CLR,M,M,M,M,M,M,M,M,M,M,M,M,M,M,83.50,KVGT 051653Z 12007KT 10SM CLR 30/09 A2986 RMK AO2 SLP102 T03000094,M
LOL,2025-06-05 16:53,-118.5701,40.0684,1192.43,73.00,26.00,17.27,10.00,3.00,0.00,29.96,1011.00,10.00,M,CLR,M,M,M,M,M,M,M,M,M,M,M,M,M,M,73.00,KLOL 051653Z AUTO 01003KT 10SM CLR 23/M03 A2996 RMK AO2 SLP110 T02281033,M
BVU,2025-06-05 16:55,-114.8611,35.9475,671.00,86.00,50.00,28.97,140.00,8.00,0.00,29.86,M,10.00,14.00,CLR,M,M,M,M,M,M,M,M,M,M,M,M,M,M,83.62,KBVU 051655Z AUTO 14008G14KT 110V170 10SM CLR 30/10 A2986 RMK AO2,M
RNO,2025-06-05 16:55,-119.7711,39.4839,1341.00,72.00,31.00,21.92,0.00,0.00,0.00,29.98,1009.80,10.00,M,FEW,M,M,M,8000.00,M,M,M,M,M,M,M,M,M,M,72.00,KRNO 051655Z 00000KT 10SM FEW080 22/M01 A2998 RMK AO2 SLP098 T02221006,M
BAM,2025-06-05 16:55,-116.8743,40.5990,1382.36,68.00,32.00,26.16,20.00,7.00,0.00,30.03,M,10.00,M,CLR,M,M,M,M,M,M,M,M,M,M,M,M,M,M,68.00,KBAM 051655Z AUTO 02007KT 10SM CLR 20/00 A3003 RMK AO1,M
CXP,2025-06-05 16:55,-119.7326,39.1923,1431.00,71.60,37.40,28.69,150.00,4.00,0.00,30.00,M,10.00,M,CLR,M,M,M,M,M,M,M,M,M,M,M,M,M,M,71.60,KCXP 051655Z AUTO 15004KT 10SM CLR 22/03 A3000 RMK AO2,M
RTS,2025-06-05 16:55,-119.8764,39.6682,1539.00,69.80,28.40,21.24,80.00,6.00,0.00,30.02,M,10.00,M,CLR,M,M,M,M,M,M,M,M,M,M,M,M,M,M,69.80,KRTS 051655Z AUTO 08006KT 10SM CLR 21/M02 A3002 RMK AO2,M
MEV,2025-06-05 16:55,-119.7500,38.9963,1441.42,68.00,42.80,40.02,M,3.00,0.00,29.99,M,10.00,M,CLR,M,M,M,M,M,M,M,M,M,M,M,M,M,M,68.00,KMEV 051655Z AUTO VRB03KT 10SM CLR 20/06 A2999 RMK AO2,M
HTH,2025-06-05 16:55,-118.6315,38.5448,1282.89,71.60,23.00,15.97,20.00,4.00,0.00,29.98,M,10.00,M,CLR,M,M,M,M,M,M,M,M,M,M,M,M,M,M,71.60,KHTH 051655Z AUTO 02004KT 10SM CLR 22/M05 A2998 RMK A01,M
INS,2025-06-05 16:55,-115.6733,36.5872,955.00,84.20,45.50,25.91,120.00,16.00,0.00,29.87,1006.00,10.00,21.00,FEW,M,M,M,12000.00,M,M,M,M,M,M,M,M,M,M,81.80,KINS 051655Z AUTO 12016G21KT 10SM FEW120 29/08 A2987 RMK AO2 SLP060 T02900075 $,M
LSV,2025-06-05 16:55,-115.0343,36.2362,570.00,87.00,49.00,27.03,70.00,10.00,0.00,29.82,1006.90,10.00,M,FEW,M,M,M,20000.00,M,M,M,M,M,M,M,M,M,M,84.31,KLSV 051655Z AUTO 07010KT 10SM FEW200 31/09 A2982 RMK AO2 SLP069 T03050094 $,M
EKO,2025-06-05 16:56,-115.7860,40.8242,1367.00,65.00,26.00,22.70,0.00,0.00,0.00,30.04,1013.30,10.00,M,CLR,M,M,M,M,M,M,M,M,M,M,M,M,M,M,65.00,KEKO 051656Z AUTO 00000KT 10SM CLR 18/M03 A3004 RMK AO2 SLP133 T01831033,M
WMC,2025-06-05 16:56,-117.8072,40.9019,1315.00,71.00,26.00,18.47,40.00,6.00,0.00,29.99,1012.10,10.00,M,CLR,M,M,M,M,M,M,M,M,M,M,M,M,M,M,71.00,KWMC 051656Z AUTO 04006KT 10SM CLR 22/M03 A2999 RMK AO2 SLP121 T02171033 TSNO,M
HND,2025-06-05 16:56,-115.1344,35.9729,742.79,85.00,51.00,31.04,M,3.00,0.00,29.90,1011.30,10.00,M,CLR,M,M,M,M,M,M,M,M,M,M,M,M,M,M,82.97,KHND 051656Z VRB03KT 10SM CLR 29/11 A2990 RMK AO2 SLP113 T02940106 $,M
TPH,2025-06-05 16:56,-117.0904,38.0505,1654.00,74.00,23.00,14.73,M,5.00,0.00,30.02,1009.00,10.00,M,CLR,M,M,M,M,M,M,M,M,M,M,M,M,M,M,74.00,KTPH 051656Z AUTO VRB05KT 10SM CLR 23/M05 A3002 RMK AO2 SLP090 T02331050 $,M
LAS,2025-06-05 16:56,-115.1634,36.0719,663.00,85.00,50.00,29.91,M,3.00,0.00,29.88,1009.10,10.00,M,FEW,FEW,SCT,M,12000.00,15000.00,20000.00,M,M,M,M,M,M,M,M,82.84,KLAS 051656Z VRB03KT 10SM FEW120 FEW150 SCT200 29/10 A2988 RMK AO2 SLP091 TCU DSNT S AND NW T02940100 $,M
NFL,2025-06-05 16:57,-118.7010,39.4166,1199.00,74.00,27.00,17.40,M,4.00,0.00,29.96,1011.70,10.00,M,FEW,M,M,M,20000.00,M,M,M,M,M,M,M,M,M,M,74.00,KNFL 051657Z VRB04KT 10SM FEW200 23/M03 A2996 RMK AO2 SLP117 T02331028,M
TMT,2025-06-05 17:10,-117.1971,39.4643,1749.34,67.50,25.50,20.39,0.00,0.00,0.00,30.06,M,10.00,M,CLR,M,M,M,M,M,M,M,M,M,M,M,M,M,M,67.50,KTMT 051710Z AUTO 00000KT 10SM CLR 20/M04 A3006 RMK AO2 T01971036,M
BVU,2025-06-05 17:15,-114.8611,35.9475,671.00,84.20,50.00,30.68,140.00,7.00,0.00,29.85,M,10.00,M,CLR,M,M,M,M,M,M,M,M,M,M,M,M,M,M,82.24,KBVU 051715Z AUTO 14007KT 10SM CLR 29/10 A2985 RMK AO2,M
BAM,2025-06-05 17:15,-116.8743,40.5990,1382.36,69.80,32.00,24.60,30.00,4.00,0.00,30.03,M,10.00,M,CLR,M,M,M,M,M,M,M,M,M,M,M,M,M,M,69.80,KBAM 051715Z AUTO 03004KT 10SM CLR 21/00 A3003 RMK AO1,M
CXP,2025-06-05 17:15,-119.7326,39.1923,1431.00,71.60,37.40,28.69,200.00,4.00,0.00,30.00,M,10.00,M,CLR,M,M,M,M,M,M,M,M,M,M,M,M,M,M,71.60,KCXP 051715Z AUTO 20004KT 10SM CLR 22/03 A3000 RMK AO2,M
RTS,2025-06-05 17:15,-119.8764,39.6682,1539.00,69.80,28.40,21.24,M,3.00,0.00,30.01,M,10.00,M,CLR,M,M,M,M,M,M,M,M,M,M,M,M,M,M,69.80,KRTS 051715Z AUTO VRB03KT 10SM CLR 21/M02 A3001 RMK AO2,M
MEV,2025-06-05 17:15,-119.7500,38.9963,1441.42,69.80,42.80,37.63,0.00,0.00,0.00,29.99,M,10.00,M,CLR,M,M,M,M,M,M,M,M,M,M,M,M,M,M,69.80,KMEV 051715Z AUTO 00000KT 10SM CLR 21/06 A2999 RMK AO2,M
HTH,2025-06-05 17:15,-118.6315,38.5448,1282.89,73.40,21.20,13.93,310.00,4.00,0.00,29.98,M,10.00,M,CLR,M,M,M,M,M,M,M,M,M,M,M,M,M,M,73.40,KHTH 051715Z AUTO 31004KT 10SM CLR 23/M06 A2998 RMK A01,M
MEV,2025-06-05 17:25,-119.7500,38.9963,1441.42,71.60,41.00,33.02,180.00,4.00,0.00,29.98,M,10.00,M,CLR,M,M,M,M,M,M,M,M,M,M,M,M,M,M,71.60,KMEV 051725Z AUTO 18004KT 10SM CLR 22/05 A2998 RMK AO2,M
TMT,2025-06-05 17:30,-117.1971,39.4643,1749.34,71.00,26.40,18.78,40.00,4.00,0.00,30.05,M,10.00,M,CLR,M,M,M,M,M,M,M,M,M,M,M,M,M,M,71.00,KTMT 051730Z AUTO 04004KT 10SM CLR 22/M03 A3005 RMK AO2 T02161031,M
BVU,2025-06-05 17:35,-114.8611,35.9475,671.00,86.00,50.00,28.97,130.00,5.00,0.00,29.85,M,10.00,M,CLR,M,M,M,M,M,M,M,M,M,M,M,M,M,M,83.62,KBVU 051735Z AUTO 13005KT 10SM CLR 30/10 A2985 RMK AO2,M
BAM,2025-06-05 17:35,-116.8743,40.5990,1382.36,71.60,30.20,21.51,30.00,4.00,0.00,30.02,M,10.00,M,CLR,M,M,M,M,M,M,M,M,M,M,M,M,M,M,71.60,KBAM 051735Z AUTO 03004KT 10SM CLR 22/M01 A3002 RMK AO1,M
CXP,2025-06-05 17:35,-119.7326,39.1923,1431.00,73.40,37.40,27.00,0.00,0.00,0.00,30.00,M,10.00,M,CLR,M,M,M,M,M,M,M,M,M,M,M,M,M,M,73.40,KCXP 051735Z AUTO 00000KT 10SM CLR 23/03 A3000 RMK AO2,M
RTS,2025-06-05 17:35,-119.8764,39.6682,1539.00,71.60,30.20,21.51,140.00,5.00,0.00,30.01,M,10.00,10.00,CLR,M,M,M,M,M,M,M,M,M,M,M,M,M,M,71.60,KRTS 051735Z AUTO 14005G10KT 10SM CLR 22/M01 A3001 RMK AO2,M
HTH,2025-06-05 17:35,-118.6315,38.5448,1282.89,73.40,21.20,13.93,330.00,4.00,0.00,29.97,M,10.00,M,CLR,M,M,M,M,M,M,M,M,M,M,M,M,M,M,73.40,KHTH 051735Z AUTO 33004KT 10SM CLR 23/M06 A2997 RMK A01,M
INS,2025-06-05 17:43,-115.6733,36.5872,955.00,86.00,46.40,25.31,120.00,15.00,0.00,29.87,1006.00,10.00,M,SCT,BKN,M,M,12000.00,15000.00,M,M,TS,M,M,M,M,M,M,83.23,KINS 051743Z AUTO 12015KT 10SM TS SCT120 BKN150 30/08 A2987 RMK AO2 TSB43 SLP060 $,M
TMT,2025-06-05 17:50,-117.1971,39.4643,1749.34,70.50,26.00,18.79,310.00,3.00,0.00,30.05,M,10.00,M,CLR,M,M,M,M,M,M,M,M,M,M,M,M,M,M,70.50,KTMT 051750Z AUTO 31003KT 10SM CLR 21/M03 A3005 RMK AO2 T02141033,M
P68,2025-06-05 17:53,-116.0056,39.6014,1993.00,70.00,22.00,16.16,50.00,6.00,0.00,30.05,1011.30,M,M,M,M,M,M,M,M,M,M,M,M,M,M,M,M,M,70.00,KP68 051753Z AUTO 05006KT 21/M06 A3005 RMK AO1 SLP113 T02111056 10211 20033 58005,M
DRA,2025-06-05 17:53,-116.0278,36.6206,1009.00,89.00,42.00,19.46,230.00,14.00,0.00,29.88,1006.40,10.00,26.00,CLR,M,M,M,M,M,M,M,M,M,M,M,26.00,220.00,2025-06-05 17:53,85.36,KDRA 051753Z AUTO 23014G26KT 10SM CLR 32/06 A2988 RMK AO2 PK WND 22026/1753 SLP064 T03170056 10317 20222 50000,M
ELY,2025-06-05 17:53,-114.8453,39.2950,1909.00,68.00,19.00,15.23,M,M,0.00,30.07,1009.70,10.00,M,CLR,M,M,M,M,M,M,M,M,M,M,M,M,M,M,68.00,KELY 051753Z AUTO 10SM CLR 20/M07 A3007 RMK AO2 SLP097 T02001072 10200 20028 58007,M
VGT,2025-06-05 17:53,-115.1933,36.2111,667.00,86.00,49.00,27.91,M,3.00,0.00,29.86,1010.20,10.00,15.00,CLR,M,M,M,M,M,M,M,M,M,M,M,M,M,M,83.50,KVGT 051753Z VRB03G15KT 10SM CLR 30/09 A2986 RMK AO2 SLP102 T03000094 10311 20244 50003,M
LOL,2025-06-05 17:53,-118.5701,40.0684,1192.43,77.00,24.00,13.90,M,M,0.00,29.95,1010.80,10.00,M,CLR,M,M,M,M,M,M,M,M,M,M,M,M,M,M,77.00,KLOL 051753Z AUTO 10SM CLR 25/M04 A2995 RMK AO2 SLP108 T02501044 10250 20067 58003,M
BVU,2025-06-05 17:55,-114.8611,35.9475,671.00,87.80,50.00,27.36,M,3.00,0.00,29.85,M,10.00,M,CLR,M,M,M,M,M,M,M,M,M,M,M,M,M,M,85.12,KBVU 051755Z AUTO VRB03KT 10SM CLR 31/10 A2985 RMK AO2,M
INS,2025-06-05 17:55,-115.6733,36.5872,955.00,84.20,48.40,28.90,120.00,14.00,0.00,29.87,1006.00,10.00,M,SCT,BKN,BKN,M,10000.00,12000.00,15000.00,M,TS,M,M,M,27.00,90.00,2025-06-05 17:47,82.06,KINS 051755Z AUTO 12014KT 10SM TS SCT100 BKN120 BKN150 29/09 A2987 RMK AO2 PK WND 09027/47 TSE1655TSB43 SLP060 T02900091 10303 20201 55002 $,M
RNO,2025-06-05 17:55,-119.7711,39.4839,1341.00,75.00,32.00,20.64,M,3.00,0.00,29.97,1009.60,10.00,M,FEW,M,M,M,8000.00,M,M,M,M,M,M,M,M,M,M,75.00,KRNO 051755Z VRB03KT 10SM FEW080 24/00 A2997 RMK AO2 SLP096 T02390000 10244 20139 58007,M
BAM,2025-06-05 17:55,-116.8743,40.5990,1382.36,73.40,28.40,18.81,0.00,0.00,0.00,30.02,M,10.00,M,CLR,M,M,M,M,M,M,M,M,M,M,M,M,M,M,73.40,KBAM 051755Z AUTO 00000KT 10SM CLR 23/M02 A3002 RMK AO1,M
CXP,2025-06-05 17:55,-119.7326,39.1923,1431.00,75.20,37.40,25.43,M,4.00,0.00,29.99,M,10.00,M,CLR,M,M,M,M,M,M,M,M,M,M,M,M,M,M,75.20,KCXP 051755Z AUTO VRB04KT 10SM CLR 24/03 A2999 RMK AO2,M
RTS,2025-06-05 17:55,-119.8764,39.6682,1539.00,73.40,30.20,20.24,120.00,6.00,0.00,30.01,M,10.00,M,CLR,M,M,M,M,M,M,M,M,M,M,M,M,M,M,73.40,KRTS 051755Z AUTO 12006KT 10SM CLR 23/M01 A3001 RMK AO2,M
MEV,2025-06-05 17:55,-119.7500,38.9963,1441.42,73.40,39.20,28.98,0.00,0.00,0.00,29.98,M,10.00,M,CLR,M,M,M,M,M,M,M,M,M,M,M,M,M,M,73.40,KMEV 051755Z AUTO 00000KT 10SM CLR 23/04 A2998 RMK AO2,M
HTH,2025-06-05 17:55,-118.6315,38.5448,1282.89,75.20,19.40,12.15,300.00,4.00,0.00,29.97,M,10.00,M,CLR,M,M,M,M,M,M,M,M,M,M,M,M,M,M,75.20,KHTH 051755Z AUTO 30004KT 10SM CLR 24/M07 A2997 RMK A01,M
LSV,2025-06-05 17:55,-115.0343,36.2362,570.00,88.00,49.00,26.19,60.00,12.00,0.00,29.81,1006.60,10.00,16.00,CLR,M,M,M,M,M,M,M,M,M,M,M,M,M,M,85.15,KLSV 051755Z AUTO 06012G16KT 10SM CLR 31/09 A2981 RMK AO2 SLP066 T03120094 10314 20252 50001 $,M
EKO,2025-06-05 17:56,-115.7860,40.8242,1367.00,69.00,24.00,18.19,M,3.00,0.00,30.04,1012.80,10.00,M,CLR,M,M,M,M,M,M,M,M,M,M,M,M,M,M,69.00,KEKO 051756Z AUTO VRB03KT 10SM CLR 21/M04 A3004 RMK AO2 SLP128 T02061044 10206 20056 58006,M
WMC,2025-06-05 17:56,-117.8072,40.9019,1315.00,75.00,26.00,16.15,30.00,7.00,0.00,29.98,1011.40,10.00,M,CLR,M,M,M,M,M,M,M,M,M,M,M,M,M,M,75.00,KWMC 051756Z AUTO 03007KT 10SM CLR 24/M03 A2998 RMK AO2 SLP114 T02391033 10239 20044 58006 TSNO,M
HND,2025-06-05 17:56,-115.1344,35.9729,742.79,87.00,51.00,29.12,10.00,7.00,0.00,29.90,1011.00,10.00,M,CLR,M,M,M,M,M,M,M,M,M,M,M,M,M,M,84.59,KHND 051756Z 01007KT 10SM CLR 31/11 A2990 RMK AO2 LTG DSNT S SLP110 T03060106 10311 20233 50001 $,M
TPH,2025-06-05 17:56,-117.0904,38.0505,1654.00,75.00,26.00,16.15,M,M,0.00,30.02,1009.20,10.00,M,CLR,M,M,M,M,M,M,M,M,M,M,M,M,M,M,75.00,KTPH 051756Z AUTO 10SM CLR 24/M03 A3002 RMK AO2 SLP092 T02391033 58002 $,M
LAS,2025-06-05 17:56,-115.1634,36.0719,663.00,88.00,50.00,27.19,M,4.00,0.00,29.87,1008.80,10.00,M,FEW,FEW,SCT,M,10000.00,15000.00,20000.00,M,M,M,M,M,M,M,M,85.29,KLAS 051756Z VRB04KT 10SM FEW100 FEW150 SCT200 31/10 A2987 RMK AO2 LTG DSNT S SLP088 CB DSNT E AND S T03110100 10311 20244 50002 $,M
INS,2025-06-05 17:56,-115.6733,36.5872,955.00,84.20,50.00,30.68,120.00,15.00,0.00,29.87,1006.00,10.00,M,BKN,BKN,BKN,M,11000.00,14000.00,16000.00,M,M,M,M,M,M,M,M,82.24,KINS 051756Z AUTO 12015KT 10SM BKN110 BKN140 BKN160 29/10 A2987 RMK AO2 TSE56 SLP060 $,M
NFL,2025-06-05 17:57,-118.7010,39.4166,1199.00,78.00,24.00,13.45,270.00,4.00,0.00,29.95,1011.30,10.00,M,FEW,FEW,M,M,8000.00,20000.00,M,M,M,M,M,M,M,M,M,78.00,KNFL 051757Z 27004KT 10SM FEW080 FEW200 26/M04 A2995 RMK AO2 SLP113 T02561044 10256 20078 58005,M
TMT,2025-06-05 18:10,-117.1971,39.4643,1749.34,71.00,26.40,18.78,330.00,5.00,0.00,30.05,M,10.00,M,SCT,M,M,M,11000.00,M,M,M,M,M,M,M,M,M,M,71.00,KTMT 051810Z AUTO 33005KT 10SM SCT110 22/M03 A3005 RMK AO2 T02171031,M
HTH,2025-06-05 18:15,-118.6315,38.5448,1282.89,77.00,19.40,11.44,M,6.00,0.00,29.96,M,10.00,M,CLR,M,M,M,M,M,M,M,M,M,M,M,M,M,M,77.00,KHTH 051815Z AUTO VRB06KT 10SM CLR 25/M07 A2996 RMK A01,M
BVU,2025-06-05 18:15,-114.8611,35.9475,671.00,87.80,50.00,27.36,M,6.00,0.00,29.85,M,10.00,M,CLR,M,M,M,M,M,M,M,M,M,M,M,M,M,M,85.12,KBVU 051815Z AUTO VRB06KT 10SM CLR 31/10 A2985 RMK AO2,M
BAM,2025-06-05 18:15,-116.8743,40.5990,1382.36,75.20,30.20,19.06,40.00,5.00,0.00,30.01,M,10.00,M,CLR,M,M,M,M,M,M,M,M,M,M,M,M,M,M,75.20,KBAM 051815Z AUTO 04005KT 10SM CLR 24/M01 A3001 RMK AO1,M
CXP,2025-06-05 18:15,-119.7326,39.1923,1431.00,77.00,37.40,23.95,0.00,0.00,0.00,29.99,M,10.00,M,CLR,M,M,M,M,M,M,M,M,M,M,M,M,M,M,77.00,KCXP 051815Z AUTO 00000KT 10SM CLR 25/03 A2999 RMK AO2,M
RTS,2025-06-05 18:15,-119.8764,39.6682,1539.00,73.40,32.00,21.77,110.00,3.00,0.00,30.01,M,10.00,M,CLR,M,M,M,M,M,M,M,M,M,M,M,M,M,M,73.40,KRTS 051815Z AUTO 11003KT 10SM CLR 23/M00 A3001 RMK AO2,M
MEV,2025-06-05 18:15,-119.7500,38.9963,1441.42,75.20,39.20,27.28,M,3.00,0.00,29.97,M,10.00,M,CLR,M,M,M,M,M,M,M,M,M,M,M,M,M,M,75.20,KMEV 051815Z AUTO VRB03KT 10SM CLR 24/04 A2997 RMK AO2,M
LSV,2025-06-05 18:30,-115.0343,36.2362,570.00,89.60,48.20,24.17,50.00,12.00,0.00,29.80,1006.10,10.00,18.00,SCT,M,M,M,14000.00,M,M,M,M,M,M,M,M,M,M,86.45,KLSV 051830Z 05012G18KT 10SM SCT140 32/09 A2980 RMK LTG DSNT S SLP061 $,M
TMT,2025-06-05 18:30,-117.1971,39.4643,1749.34,72.00,26.40,18.16,0.00,0.00,0.00,30.05,M,10.00,M,SCT,M,M,M,11000.00,M,M,M,M,M,M,M,M,M,M,72.00,KTMT 051830Z AUTO 00000KT 10SM SCT110 22/M03 A3005 RMK AO2 T02231031,M
INS,2025-06-05 18:31,-115.6733,36.5872,955.00,86.00,48.20,27.08,120.00,17.00,0.00,29.87,1006.00,10.00,24.00,BKN,M,M,M,10000.00,M,M,M,TS,M,M,M,M,M,M,83.41,KINS 051831Z AUTO 12017G24KT 10SM TS BKN100 30/09 A2987 RMK AO2 TSB1755E1756TSB31 SLP060 $,M
BVU,2025-06-05 18:35,-114.8611,35.9475,671.00,86.00,50.00,28.97,70.00,4.00,0.00,29.84,M,10.00,12.00,CLR,M,M,M,M,M,M,M,M,M,M,M,M,M,M,83.62,KBVU 051835Z AUTO 07004G12KT 10SM CLR 30/10 A2984 RMK AO2,M
BAM,2025-06-05 18:35,-116.8743,40.5990,1382.36,75.20,30.20,19.06,350.00,4.00,0.00,30.01,M,10.00,M,CLR,M,M,M,M,M,M,M,M,M,M,M,M,M,M,75.20,KBAM 051835Z AUTO 35004KT 10SM CLR 24/M01 A3001 RMK AO1,M
CXP,2025-06-05 18:35,-119.7326,39.1923,1431.00,78.80,37.40,22.57,M,3.00,0.00,29.99,M,10.00,12.00,CLR,M,M,M,M,M,M,M,M,M,M,M,M,M,M,78.80,KCXP 051835Z AUTO VRB03G12KT 10SM CLR 26/03 A2999 RMK AO2,M
RTS,2025-06-05 18:35,-119.8764,39.6682,1539.00,75.20,32.00,20.50,M,5.00,0.00,30.00,M,10.00,10.00,CLR,M,M,M,M,M,M,M,M,M,M,M,M,M,M,75.20,KRTS 051835Z AUTO VRB05G10KT 10SM CLR 24/M00 A3000 RMK AO2,M
MEV,2025-06-05 18:35,-119.7500,38.9963,1441.42,77.00,39.20,25.70,160.00,5.00,0.00,29.97,M,10.00,M,CLR,M,M,M,M,M,M,M,M,M,M,M,M,M,M,77.00,KMEV 051835Z AUTO 16005KT 10SM CLR 25/04 A2997 RMK AO2,M
HTH,2025-06-05 18:35,-118.6315,38.5448,1282.89,78.80,19.40,10.78,0.00,0.00,0.00,29.96,M,10.00,M,CLR,M,M,M,M,M,M,M,M,M,M,M,M,M,M,78.80,KHTH 051835Z AUTO 00000KT 10SM CLR 26/M07 A2996 RMK A01,M
TMT,2025-06-05 18:50,-117.1971,39.4643,1749.34,72.70,26.60,17.88,230.00,9.00,0.00,30.05,M,10.00,M,CLR,M,M,M,M,M,M,M,M,M,M,M,M,M,M,72.70,KTMT 051850Z AUTO 23009KT 10SM CLR 23/M03 A3005 RMK AO2 T02261030,M
P68,2025-06-05 18:53,-116.0056,39.6014,1993.00,71.00,23.00,16.30,M,5.00,0.00,30.04,1011.30,M,M,M,M,M,M,M,M,M,M,M,M,M,M,M,M,M,71.00,KP68 051853Z AUTO VRB05KT 22/M05 A3004 RMK AO1 SLP113 T02171050,M
DRA,2025-06-05 18:53,-116.0278,36.6206,1009.00,89.00,42.00,19.46,230.00,13.00,0.00,29.87,1006.20,10.00,23.00,CLR,M,M,M,M,M,M,M,M,M,M,M,M,M,M,85.36,KDRA 051853Z AUTO 23013G23KT 10SM CLR 32/06 A2987 RMK AO2 SLP062 T03170056,M
ELY,2025-06-05 18:53,-114.8453,39.2950,1909.00,71.00,20.00,14.35,M,3.00,0.00,30.06,1009.10,10.00,M,FEW,M,M,M,10000.00,M,M,M,M,M,M,M,M,M,M,71.00,KELY 051853Z AUTO VRB03KT 10SM FEW100 22/M07 A3006 RMK AO2 SLP091 T02171067,M
VGT,2025-06-05 18:53,-115.1933,36.2111,667.00,89.00,49.00,25.38,140.00,9.00,0.00,29.85,1009.60,10.00,M,CLR,M,M,M,M,M,M,M,M,M,M,M,M,M,M,86.02,KVGT 051853Z 14009KT 10SM CLR 32/09 A2985 RMK AO2 LTG DSNT NW SLP096 T03170094,M
LOL,2025-06-05 18:53,-118.5701,40.0684,1192.43,80.00,25.00,13.13,80.00,7.00,0.00,29.94,1010.30,10.00,M,CLR,M,M,M,M,M,M,M,M,M,M,M,M,M,M,78.32,KLOL 051853Z AUTO 08007KT 040V110 10SM CLR 27/M04 A2994 RMK AO2 SLP103 T02671039,M
BVU,2025-06-05 18:55,-114.8611,35.9475,671.00,87.80,50.00,27.36,150.00,8.00,0.00,29.84,M,10.00,M,CLR,M,M,M,M,M,M,M,M,M,M,M,M,M,M,85.12,KBVU 051855Z AUTO 15008KT 10SM CLR 31/10 A2984 RMK AO2,M
RNO,2025-06-05 18:55,-119.7711,39.4839,1341.00,79.00,33.00,18.83,250.00,6.00,0.00,29.96,1009.00,10.00,M,FEW,M,M,M,9000.00,M,M,M,M,M,M,M,M,M,M,79.00,KRNO 051855Z 25006KT 10SM FEW090 26/01 A2996 RMK AO2 SLP090 T02610006,M
BAM,2025-06-05 18:55,-116.8743,40.5990,1382.36,77.00,30.20,17.96,360.00,4.00,0.00,30.01,M,10.00,M,CLR,M,M,M,M,M,M,M,M,M,M,M,M,M,M,77.00,KBAM 051855Z AUTO 36004KT 10SM CLR 25/M01 A3001 RMK AO1,M
CXP,2025-06-05 18:55,-119.7326,39.1923,1431.00,80.60,35.60,19.82,180.00,6.00,0.00,29.98,M,10.00,M,CLR,M,M,M,M,M,M,M,M,M,M,M,M,M,M,78.95,KCXP 051855Z AUTO 18006KT 10SM CLR 27/02 A2998 RMK AO2,M
RTS,2025-06-05 18:55,-119.8764,39.6682,1539.00,77.00,30.20,17.96,M,6.00,0.00,30.00,M,10.00,M,CLR,M,M,M,M,M,M,M,M,M,M,M,M,M,M,77.00,KRTS 051855Z AUTO VRB06KT 10SM CLR 25/M01 A3000 RMK AO2,M
MEV,2025-06-05 18:55,-119.7500,38.9963,1441.42,78.80,37.40,22.57,200.00,4.00,0.00,29.97,M,10.00,M,CLR,M,M,M,M,M,M,M,M,M,M,M,M,M,M,78.80,KMEV 051855Z AUTO 20004KT 10SM CLR 26/03 A2997 RMK AO2,M
HTH,2025-06-05 18:55,-118.6315,38.5448,1282.89,78.80,17.60,9.98,0.00,0.00,0.00,29.95,M,10.00,M,CLR,M,M,M,M,M,M,M,M,M,M,M,M,M,M,78.80,KHTH 051855Z AUTO 00000KT 10SM CLR 26/M08 A2995 RMK A01,M
INS,2025-06-05 18:55,-115.6733,36.5872,955.00,84.00,48.40,29.09,130.00,17.00,0.00,29.87,1006.20,10.00,22.00,BKN,M,M,M,10000.00,M,M,M,TS,M,M,M,28.00,90.00,2025-06-05 18:37,81.92,KINS 051855Z AUTO 13017G22KT 10SM TS BKN100 29/09 A2987 RMK AO2 PK WND 09028/37 TSE1756TSB31 SLP062 T02890091 $,M
LSV,2025-06-05 18:55,-115.0343,36.2362,570.00,91.20,47.00,21.98,60.00,10.00,0.00,29.80,1006.10,10.00,15.00,FEW,SCT,M,M,10000.00,15000.00,M,M,M,M,M,M,M,M,M,87.76,KLSV 051855Z 06010G15KT 10SM FEW100 SCT150 33/08 A2980 RMK AO2A LTG DSNT S AND NW SLP061 CB DSNT N AND SE-S T03290083 $,M
EKO,2025-06-05 18:56,-115.7860,40.8242,1367.00,72.00,28.00,19.40,120.00,7.00,0.00,30.02,1013.00,10.00,M,SCT,M,M,M,9500.00,M,M,M,M,M,M,M,M,M,M,72.00,KEKO 051856Z AUTO 12007KT 10SM SCT095 22/M02 A3002 RMK AO2 SLP130 T02221022,M
WMC,2025-06-05 18:56,-117.8072,40.9019,1315.00,78.00,26.00,14.62,340.00,5.00,0.00,29.97,1010.40,10.00,M,CLR,M,M,M,M,M,M,M,M,M,M,M,M,M,M,78.00,KWMC 051856Z AUTO 34005KT 10SM CLR 26/M03 A2997 RMK AO2 SLP104 T02561033 TSNO,M
HND,2025-06-05 18:56,-115.1344,35.9729,742.79,89.00,52.00,28.37,350.00,7.00,0.00,29.88,1010.30,10.00,M,CLR,M,M,M,M,M,M,M,M,M,M,M,M,M,M,86.50,KHND 051856Z 35007KT 10SM CLR 32/11 A2988 RMK AO2 LTG DSNT S AND SW SLP103 T03170111 $,M
TPH,2025-06-05 18:56,-117.0904,38.0505,1654.00,78.00,28.00,15.88,M,M,0.00,30.00,1008.80,M,M,M,M,M,M,M,M,M,M,M,M,M,M,M,M,M,78.00,KTPH 051856Z AUTO 26/M02 A3000 RMK AO2 SLP088 T02561022 $,M
LAS,2025-06-05 18:56,-115.1634,36.0719,663.00,87.00,48.00,26.04,0.00,0.00,0.00,29.85,1008.10,10.00,M,FEW,SCT,M,M,10000.00,25000.00,M,M,M,M,M,M,M,M,M,84.19,KLAS 051856Z 00000KT 10SM FEW100 SCT250 31/09 A2985 RMK AO2 LTG DSNT S SLP081 CB DSNT N AND SE-S T03060089 $,M
NFL,2025-06-05 18:57,-118.7010,39.4166,1199.00,82.00,23.00,11.32,0.00,0.00,0.00,29.93,1010.90,10.00,M,SCT,SCT,M,M,8000.00,12000.00,M,M,M,M,M,M,M,M,M,79.40,KNFL 051857Z 00000KT 10SM SCT080 SCT120 28/M05 A2993 RMK AO2 SLP109 T02781050,M
HND,2025-06-05 19:03,-115.1344,35.9729,742.79,87.80,51.80,29.25,0.00,0.00,0.00,29.88,M,10.00,M,CLR,M,M,M,M,M,M,M,VCTS,M,M,M,M,M,M,85.40,KHND 051903Z 00000KT 10SM VCTS CLR 31/11 A2988 RMK AO2 LTG DSNT S AND SW TSB1857 $,M
TMT,2025-06-05 19:10,-117.1971,39.4643,1749.34,74.00,26.60,17.12,180.00,5.00,0.00,30.04,M,10.00,M,SCT,M,M,M,12000.00,M,M,M,M,M,M,M,M,M,M,74.00,KTMT 051910Z AUTO 18005KT 10SM SCT120 23/M03 A3004 RMK AO2 T02331030,M
CXP,2025-06-05 19:15,-119.7326,39.1923,1431.00,78.80,37.40,22.57,330.00,11.00,0.00,29.97,M,10.00,M,CLR,M,M,M,M,M,M,M,M,M,M,M,M,M,M,78.80,KCXP 051915Z AUTO 33011KT 280V340 10SM CLR 26/03 A2997 RMK AO2 LTG DSNT SE,M
RTS,2025-06-05 19:15,-119.8764,39.6682,1539.00,77.00,30.20,17.96,M,3.00,0.00,29.99,M,10.00,M,CLR,M,M,M,M,M,M,M,M,M,M,M,M,M,M,77.00,KRTS 051915Z AUTO VRB03KT 10SM CLR 25/M01 A2999 RMK AO2,M
MEV,2025-06-05 19:15,-119.7500,38.9963,1441.42,78.80,37.40,22.57,180.00,6.00,0.00,29.96,M,10.00,M,CLR,M,M,M,M,M,M,M,M,M,M,M,M,M,M,78.80,KMEV 051915Z AUTO 18006KT 10SM CLR 26/03 A2996 RMK AO2 LTG DSNT SE,M
HTH,2025-06-05 19:15,-118.6315,38.5448,1282.89,80.60,17.60,9.41,M,5.00,0.00,29.94,M,10.00,M,CLR,M,M,M,M,M,M,M,M,M,M,M,M,M,M,78.45,KHTH 051915Z AUTO VRB05KT 10SM CLR 27/M08 A2994 RMK A01,M
BAM,2025-06-05 19:15,-116.8743,40.5990,1382.36,77.00,30.20,17.96,350.00,6.00,0.00,30.00,M,10.00,M,CLR,M,M,M,M,M,M,M,M,M,M,M,M,M,M,77.00,KBAM 051915Z AUTO 35006KT 10SM CLR 25/M01 A3000 RMK AO1,M
BVU,2025-06-05 19:15,-114.8611,35.9475,671.00,87.80,50.00,27.36,150.00,8.00,0.00,29.83,M,10.00,M,CLR,M,M,M,M,M,M,M,M,M,M,M,M,M,M,85.12,KBVU 051915Z AUTO 15008KT 10SM CLR 31/10 A2983 RMK AO2 LTG DSNT ALQDS,M
HND,2025-06-05 19:18,-115.1344,35.9729,742.79,87.80,53.60,31.25,150.00,13.00,0.00,29.88,M,10.00,16.00,BKN,M,M,M,8000.00,M,M,M,M,M,M,M,M,M,M,85.73,KHND 051918Z 15013G16KT 10SM BKN080 31/12 A2988 RMK AO2 LTG DSNT S TSB1857E12 $,M
INS,2025-06-05 19:29,-115.6733,36.5872,955.00,82.40,50.00,32.51,130.00,16.00,0.00,29.86,1006.10,10.00,25.00,FEW,FEW,SCT,BKN,10000.00,13000.00,17000.00,20000.00,M,M,M,M,M,M,M,80.99,KINS 051929Z AUTO 13016G25KT 10SM FEW100 FEW130 SCT170 BKN200 28/10 A2986 RMK AO2 LTG DSNT NE-E TSE29 SLP061 $,M
INS,2025-06-05 19:30,-115.6733,36.5872,955.00,82.40,48.20,30.40,130.00,13.00,0.00,29.86,1006.10,10.00,25.00,FEW,FEW,SCT,BKN,10000.00,13000.00,17000.00,20000.00,TS,M,M,M,M,M,M,80.81,KINS 051930Z AUTO 13013G25KT 10SM TS FEW100 FEW130 SCT170 BKN200 28/09 A2986 RMK AO2 TSE29TSB30 SLP061 $,M
TMT,2025-06-05 19:30,-117.1971,39.4643,1749.34,74.00,26.80,17.26,270.00,6.00,0.00,30.03,M,10.00,M,SCT,M,M,M,12000.00,M,M,M,M,M,M,M,M,M,M,74.00,KTMT 051930Z AUTO 27006KT 10SM SCT120 23/M03 A3003 RMK AO2 T02341029,M
INS,2025-06-05 19:31,-115.6733,36.5872,955.00,82.40,48.20,30.40,140.00,11.00,0.00,29.86,1006.10,10.00,25.00,FEW,SCT,BKN,M,13000.00,17000.00,20000.00,M,M,M,M,M,M,M,M,80.81,KINS 051931Z AUTO 14011G25KT 10SM FEW130 SCT170 BKN200 28/09 A2986 RMK AO2 LTG DSNT NE-E TSE29TSB30E31 SLP061 $,M
BAM,2025-06-05 19:35,-116.8743,40.5990,1382.36,78.80,30.20,16.92,350.00,9.00,0.00,30.00,M,10.00,14.00,CLR,M,M,M,M,M,M,M,M,M,M,M,M,M,M,78.80,KBAM 051935Z AUTO 35009G14KT 10SM CLR 26/M01 A3000 RMK AO1,M
CXP,2025-06-05 19:35,-119.7326,39.1923,1431.00,78.80,37.40,22.57,M,6.00,0.00,29.97,M,10.00,11.00,CLR,M,M,M,M,M,M,M,M,M,M,M,M,M,M,78.80,KCXP 051935Z AUTO VRB06G11KT 10SM CLR 26/03 A2997 RMK AO2,M
RTS,2025-06-05 19:35,-119.8764,39.6682,1539.00,75.20,30.20,19.06,250.00,9.00,0.00,30.00,M,10.00,16.00,SCT,M,M,M,9000.00,M,M,M,M,M,M,M,M,M,M,75.20,KRTS 051935Z AUTO 25009G16KT 10SM SCT090 24/M01 A3000 RMK AO2,M
MEV,2025-06-05 19:35,-119.7500,38.9963,1441.42,78.80,39.20,24.22,M,4.00,0.00,29.96,M,10.00,10.00,CLR,M,M,M,M,M,M,M,M,M,M,M,M,M,M,78.80,KMEV 051935Z AUTO VRB04G10KT 10SM CLR 26/04 A2996 RMK AO2,M
HTH,2025-06-05 19:35,-118.6315,38.5448,1282.89,80.60,19.40,10.17,340.00,6.00,0.00,29.93,M,10.00,M,CLR,M,M,M,M,M,M,M,M,M,M,M,M,M,M,78.56,KHTH 051935Z AUTO 34006KT 10SM CLR 27/M07 A2993 RMK A01,M
TMT,2025-06-05 19:50,-117.1971,39.4643,1749.34,75.60,27.50,16.84,250.00,4.00,0.00,30.03,M,10.00,M,SCT,M,M,M,12000.00,M,M,M,M,M,M,M,M,M,M,75.60,KTMT 051950Z AUTO 25004KT 10SM SCT120 24/M02 A3003 RMK AO2 T02421025,M
INS,2025-06-05 19:53,-115.6733,36.5872,955.00,82.40,48.20,30.40,120.00,13.00,0.00,29.86,1006.10,10.00,M,FEW,SCT,SCT,BKN,6500.00,8000.00,10000.00,12000.00,-DZ,M,M,M,M,M,M,80.81,KINS 051953Z AUTO 12013KT 10SM -DZ FEW065 SCT080 SCT100 BKN120 BKN170 BKN200 28/09 A2986 RMK AO2 LTG DSNT NE-E DZB53 TSB1855E29TSB30E31 SLP061 $,M
P68,2025-06-05 19:53,-116.0056,39.6014,1993.00,74.00,22.00,14.12,M,M,0.00,30.02,1010.40,M,M,M,M,M,M,M,M,M,M,M,M,M,M,26.00,10.00,2025-06-05 19:23,74.00,KP68 051953Z AUTO 23/M06 A3002 RMK AO1 PK WND 01026/1923 SLP104 T02331056,M
DRA,2025-06-05 19:53,-116.0278,36.6206,1009.00,91.00,42.00,18.28,190.00,11.00,0.00,29.86,1005.70,10.00,25.00,CLR,M,M,M,M,M,M,M,M,M,M,M,27.00,240.00,2025-06-05 19:16,87.11,KDRA 051953Z AUTO 19011G25KT 10SM CLR 33/06 A2986 RMK AO2 PK WND 24027/1916 SLP057 T03280056,M
ELY,2025-06-05 19:53,-114.8453,39.2950,1909.00,73.00,20.00,13.41,240.00,8.00,0.00,30.04,1008.90,10.00,17.00,FEW,M,M,M,11000.00,M,M,M,M,M,M,M,M,M,M,73.00,KELY 051953Z AUTO 24008G17KT 200V280 10SM FEW110 23/M07 A3004 RMK AO2 SLP089 T02281067,M
VGT,2025-06-05 19:53,-115.1933,36.2111,667.00,92.00,49.00,23.11,M,5.00,0.00,29.82,1008.80,10.00,M,CLR,M,M,M,M,M,M,M,M,M,M,M,M,M,M,88.79,KVGT 051953Z VRB05KT 10SM CLR 33/09 A2982 RMK AO2 SLP088 T03330094,M
LOL,2025-06-05 19:53,-118.5701,40.0684,1192.43,81.00,25.00,12.71,350.00,5.00,0.00,29.92,1010.20,10.00,M,FEW,M,M,M,10000.00,M,M,M,M,M,M,M,M,M,M,78.89,KLOL 051953Z AUTO 35005KT 10SM FEW100 27/M04 A2992 RMK AO2 SLP102 T02721039,M
RNO,2025-06-05 19:55,-119.7711,39.4839,1341.00,81.00,33.00,17.64,50.00,10.00,0.00,29.95,1008.50,10.00,M,SCT,M,M,M,10000.00,M,M,M,M,M,M,M,M,M,M,79.10,KRNO 051955Z 05010KT 10SM SCT100 27/01 A2995 RMK AO2 SLP085 SH DSNT NW T02720006,M
BAM,2025-06-05 19:55,-116.8743,40.5990,1382.36,78.80,30.20,16.92,20.00,5.00,0.00,30.00,M,10.00,M,CLR,M,M,M,M,M,M,M,M,M,M,M,M,M,M,78.80,KBAM 051955Z AUTO 02005KT 10SM CLR 26/M01 A3000 RMK AO1,M
CXP,2025-06-05 19:55,-119.7326,39.1923,1431.00,80.60,37.40,21.28,0.00,0.00,0.00,29.97,M,10.00,10.00,CLR,M,M,M,M,M,M,M,M,M,M,M,M,M,M,79.02,KCXP 051955Z AUTO 00000G10KT 10SM CLR 27/03 A2997 RMK AO2,M
RTS,2025-06-05 19:55,-119.8764,39.6682,1539.00,69.80,35.60,28.41,140.00,12.00,0.00,30.01,M,8.00,21.00,FEW,FEW,BKN,M,1700.00,2800.00,4500.00,M,M,M,M,M,M,M,M,69.80,KRTS 051955Z AUTO 14012G21KT 8SM FEW017 FEW028 BKN045 21/02 A3001 RMK AO2,M
MEV,2025-06-05 19:55,-119.7500,38.9963,1441.42,78.80,41.00,25.98,220.00,7.00,0.00,29.96,M,10.00,M,FEW,M,M,M,8000.00,M,M,M,M,M,M,M,M,M,M,78.80,KMEV 051955Z AUTO 22007KT 10SM FEW080 26/05 A2996 RMK AO2,M
HTH,2025-06-05 19:55,-118.6315,38.5448,1282.89,82.40,19.40,9.59,M,5.00,0.00,29.92,M,10.00,M,CLR,M,M,M,M,M,M,M,M,M,M,M,M,M,M,79.45,KHTH 051955Z AUTO VRB05KT 10SM CLR 28/M07 A2992 RMK A01,M
INS,2025-06-05 19:55,-115.6733,36.5872,955.00,82.80,49.00,30.92,120.00,15.00,T,29.86,1006.10,10.00,M,FEW,SCT,BKN,BKN,5500.00,7500.00,10000.00,12000.00,-DZ,M,M,M,M,M,M,81.15,KINS 051955Z AUTO 12015KT 10SM -DZ FEW055 SCT075 BKN100 BKN120 BKN170 BKN200 28/09 A2986 RMK AO2 LTG DSNT NE-E DZB53 TSB1855E29TSB30E31 SLP061 P0000 T02820094 $,M
LSV,2025-06-05 19:55,-115.0343,36.2362,570.00,92.00,46.60,21.12,150.00,3.00,0.00,29.77,1005.20,10.00,M,FEW,BKN,M,M,11000.00,14000.00,M,M,M,M,M,M,M,M,M,88.45,KLSV 051955Z 15003KT 10SM FEW110 BKN140 33/08 A2977 RMK AO2A LTG DSNT N SLP052 T03340081 $,M
EKO,2025-06-05 19:56,-115.7860,40.8242,1367.00,75.00,28.00,17.54,M,6.00,0.00,30.01,1012.40,10.00,M,BKN,M,M,M,10000.00,M,M,M,M,M,M,M,M,M,M,75.00,KEKO 051956Z AUTO VRB06KT 10SM BKN100 24/M02 A3001 RMK AO2 SLP124 T02391022,M
WMC,2025-06-05 19:56,-117.8072,40.9019,1315.00,78.00,26.00,14.62,170.00,7.00,0.00,29.96,1010.40,10.00,M,SCT,M,M,M,11000.00,M,M,M,M,M,M,M,M,M,M,78.00,KWMC 051956Z AUTO 17007KT 10SM SCT110 26/M03 A2996 RMK AO2 SLP104 T02561033 TSNO,M
HND,2025-06-05 19:56,-115.1344,35.9729,742.79,88.00,53.00,30.37,160.00,12.00,0.00,29.87,1010.20,10.00,15.00,FEW,M,M,M,8000.00,M,M,M,M,M,M,M,M,M,M,85.79,KHND 051956Z 16012G15KT 10SM FEW080 31/12 A2987 RMK AO2 LTG DSNT S AND SW TSB1857E12 SLP102 T03110117 $,M
TPH,2025-06-05 19:56,-117.0904,38.0505,1654.00,79.00,30.00,16.67,170.00,8.00,0.00,29.98,1007.80,10.00,M,M,M,M,M,M,M,M,M,M,M,M,M,M,M,M,79.00,KTPH 051956Z AUTO 17008KT 10SM 26/M01 A2998 RMK AO2 SLP078 T02611011 $,M
LAS,2025-06-05 19:56,-115.1634,36.0719,663.00,90.00,50.00,25.53,70.00,6.00,0.00,29.83,1007.50,10.00,M,SCT,SCT,M,M,10000.00,25000.00,M,M,M,M,M,M,M,M,M,87.07,KLAS 051956Z 07006KT 10SM SCT100 SCT250 32/10 A2983 RMK AO2 LTG DSNT S AND SW SLP075 TCU E-SE VCSH E-SE CB DSNT S-SW AND NW T03220100 $,M
NFL,2025-06-05 19:57,-118.7010,39.4166,1199.00,83.00,23.00,10.96,300.00,4.00,0.00,29.92,1010.40,10.00,M,SCT,SCT,M,M,8000.00,12000.00,M,M,M,M,M,M,M,M,M,80.07,KNFL 051957Z 30004KT 10SM SCT080 SCT120 28/M05 A2992 RMK AO2 SLP104 T02831050,M
INS,2025-06-05 20:06,-115.6733,36.5872,955.00,87.80,48.20,25.58,120.00,16.00,0.00,29.85,1005.50,10.00,M,FEW,FEW,SCT,SCT,4100.00,5500.00,7500.00,10000.00,M,M,M,M,M,M,M,84.88,KINS 052006Z AUTO 12016KT 10SM FEW041 FEW055 SCT075 SCT100 SCT120 BKN180 31/09 A2985 RMK AO2 LTG DSNT NE DZE06 SLP055 $,M
TMT,2025-06-05 20:10,-117.1971,39.4643,1749.34,77.00,27.70,16.21,210.00,8.00,0.00,30.02,M,10.00,M,CLR,M,M,M,M,M,M,M,M,M,M,M,M,M,M,77.00,KTMT 052010Z AUTO 21008KT 170V230 10SM CLR 25/M02 A3002 RMK AO2 T02491024,M
BAM,2025-06-05 20:15,-116.8743,40.5990,1382.36,78.80,30.20,16.92,20.00,7.00,0.00,29.99,M,10.00,M,CLR,M,M,M,M,M,M,M,M,M,M,M,M,M,M,78.80,KBAM 052015Z AUTO 02007KT 10SM CLR 26/M01 A2999 RMK AO1,M
CXP,2025-06-05 20:15,-119.7326,39.1923,1431.00,80.60,35.60,19.82,M,6.00,0.00,29.96,M,10.00,13.00,FEW,M,M,M,8500.00,M,M,M,M,M,M,M,M,M,M,78.95,KCXP 052015Z AUTO VRB06G13KT 10SM FEW085 27/02 A2996 RMK AO2,M
RTS,2025-06-05 20:15,-119.8764,39.6682,1539.00,71.60,35.60,26.72,120.00,8.00,0.00,30.00,M,10.00,13.00,FEW,FEW,OVC,M,1600.00,2800.00,9000.00,M,M,M,M,M,M,M,M,71.60,KRTS 052015Z AUTO 12008G13KT 10SM FEW016 FEW028 OVC090 22/02 A3000 RMK AO2,M
MEV,2025-06-05 20:15,-119.7500,38.9963,1441.42,80.60,39.20,22.84,M,4.00,0.00,29.95,M,10.00,10.00,FEW,M,M,M,11000.00,M,M,M,M,M,M,M,M,M,M,79.11,KMEV 052015Z AUTO VRB04G10KT 10SM FEW110 27/04 A2995 RMK AO2,M
HTH,2025-06-05 20:15,-118.6315,38.5448,1282.89,84.20,19.40,9.05,360.00,9.00,0.00,29.91,M,10.00,M,CLR,M,M,M,M,M,M,M,M,M,M,M,M,M,M,80.68,KHTH 052015Z AUTO 36009KT 340V040 10SM CLR 29/M07 A2991 RMK A01,M
TMT,2025-06-05 20:30,-117.1971,39.4643,1749.34,75.20,27.00,16.72,180.00,5.00,0.00,30.01,M,10.00,M,SCT,M,M,M,12000.00,M,M,M,M,M,M,M,M,M,M,75.20,KTMT 052030Z AUTO 18005KT 10SM SCT120 24/M03 A3001 RMK AO2 T02401027,M
BVU,2025-06-05 20:35,-114.8611,35.9475,671.00,82.40,51.80,34.75,250.00,9.00,0.00,29.84,M,10.00,M,CLR,M,M,M,M,M,M,M,M,M,M,M,M,M,M,81.21,KBVU 052035Z AUTO 25009KT 10SM CLR 28/11 A2984 RMK AO2 LTG DSNT N-SE,M
BAM,2025-06-05 20:35,-116.8743,40.5990,1382.36,80.60,30.20,15.95,350.00,4.00,0.00,29.99,M,10.00,M,CLR,M,M,M,M,M,M,M,M,M,M,M,M,M,M,78.77,KBAM 052035Z AUTO 35004KT 10SM CLR 27/M01 A2999 RMK AO1,M
CXP,2025-06-05 20:35,-119.7326,39.1923,1431.00,82.40,35.60,18.70,290.00,11.00,0.00,29.96,M,10.00,M,CLR,M,M,M,M,M,M,M,M,M,M,M,M,M,M,80.08,KCXP 052035Z AUTO 29011KT 10SM CLR 28/02 A2996 RMK AO2,M
RTS,2025-06-05 20:35,-119.8764,39.6682,1539.00,71.60,33.80,24.87,0.00,0.00,0.00,29.99,M,10.00,M,BKN,BKN,M,M,9500.00,12000.00,M,M,M,M,M,M,M,M,M,71.60,KRTS 052035Z AUTO 00000KT 10SM BKN095 BKN120 22/01 A2999 RMK AO2,M
MEV,2025-06-05 20:35,-119.7500,38.9963,1441.42,78.80,39.20,24.22,270.00,7.00,0.00,29.95,M,10.00,13.00,CLR,M,M,M,M,M,M,M,M,M,M,M,M,M,M,78.80,KMEV 052035Z AUTO 27007G13KT 10SM CLR 26/04 A2995 RMK AO2,M
HTH,2025-06-05 20:35,-118.6315,38.5448,1282.89,84.20,21.20,9.77,360.00,7.00,0.00,29.90,M,10.00,M,CLR,M,M,M,M,M,M,M,M,M,M,M,M,M,M,80.78,KHTH 052035Z AUTO 36007KT 330V030 10SM CLR 29/M06 A2990 RMK A01,M
LAS,2025-06-05 20:42,-115.1634,36.0719,663.00,89.00,50.00,26.34,170.00,15.00,0.00,29.82,M,10.00,24.00,SCT,BKN,M,M,9000.00,25000.00,M,M,TS,M,M,M,M,M,M,86.17,KLAS 052042Z 17015G24KT 10SM TS SCT090CB BKN250 32/10 A2982 RMK AO2 TSE38B41 OCNL LTGICCG TS S-SW MOV NE T03170100 $,M
TMT,2025-06-05 20:50,-117.1971,39.4643,1749.34,75.00,26.40,16.42,0.00,0.00,0.00,30.00,M,10.00,M,SCT,M,M,M,12000.00,M,M,M,M,M,M,M,M,M,M,75.00,KTMT 052050Z AUTO 00000KT 10SM SCT120 24/M03 A3000 RMK AO2 T02391031,M
LSV,2025-06-05 20:52,-115.0343,36.2362,570.00,93.20,48.20,21.61,160.00,11.00,0.00,29.75,1004.40,10.00,M,BKN,M,M,M,10000.00,M,M,M,M,M,M,M,M,M,M,89.82,KLSV 052052Z 16011KT 10SM BKN0100 34/09 A2975 RMK AO2A WSHFT 47 LTG DSNT N-NE AND SW-W SLP044 $,M
P68,2025-06-05 20:53,-116.0056,39.6014,1993.00,74.00,23.00,14.73,350.00,8.00,0.00,30.00,1010.10,M,M,M,M,M,M,M,M,M,M,M,M,M,M,M,M,M,74.00,KP68 052053Z AUTO 35008KT 23/M05 A3000 RMK AO1 SLP101 T02331050 58013,M
DRA,2025-06-05 20:53,-116.0278,36.6206,1009.00,92.00,42.00,17.72,210.00,8.00,0.00,29.84,1004.90,10.00,19.00,FEW,M,M,M,11000.00,M,M,M,M,M,M,M,27.00,210.00,2025-06-05 19:59,88.01,KDRA 052053Z AUTO 21008G19KT 10SM FEW110 33/06 A2984 RMK AO2 PK WND 21027/1959 SLP049 T03330056 58013,M
ELY,2025-06-05 20:53,-114.8453,39.2950,1909.00,76.00,20.00,12.13,260.00,10.00,0.00,30.02,1008.60,10.00,M,SCT,M,M,M,11000.00,M,M,M,M,M,M,M,M,M,M,76.00,KELY 052053Z AUTO 26010KT 10SM SCT110 24/M07 A3002 RMK AO2 SLP086 T02441067 58013,M
VGT,2025-06-05 20:53,-115.1933,36.2111,667.00,91.00,49.00,23.84,120.00,13.00,0.00,29.80,1008.00,10.00,21.00,FEW,FEW,M,M,9000.00,11000.00,M,M,VCTS,M,M,M,M,M,M,87.84,KVGT 052053Z 12013G21KT 10SM VCTS FEW090 FEW110 33/09 A2980 RMK AO2 LTG DSNT N AND SW SLP080 T03280094 58020,M
LOL,2025-06-05 20:53,-118.5701,40.0684,1192.43,85.00,25.00,11.17,200.00,9.00,0.00,29.90,1009.50,10.00,M,CLR,M,M,M,M,M,M,M,M,M,M,M,M,M,M,81.57,KLOL 052053Z AUTO 20009KT 10SM CLR 29/M04 A2990 RMK AO2 SLP095 T02941039 58014,M
BVU,2025-06-05 20:55,-114.8611,35.9475,671.00,82.40,51.80,34.75,250.00,8.00,0.00,29.83,M,10.00,M,CLR,M,M,M,M,M,M,M,M,M,M,M,M,M,M,81.21,KBVU 052055Z AUTO 25008KT 10SM CLR 28/11 A2983 RMK AO2,M
RNO,2025-06-05 20:55,-119.7711,39.4839,1341.00,84.00,34.00,16.66,M,6.00,0.00,29.92,1007.80,10.00,M,BKN,M,M,M,10000.00,M,M,M,M,M,M,M,M,M,M,81.16,KRNO 052055Z VRB06KT 10SM BKN100 29/01 A2992 RMK AO2 SLP078 T02890011 58014,M
BAM,2025-06-05 20:55,-116.8743,40.5990,1382.36,80.60,30.20,15.95,350.00,11.00,0.00,29.98,M,10.00,16.00,CLR,M,M,M,M,M,M,M,M,M,M,M,M,M,M,78.77,KBAM 052055Z AUTO 35011G16KT 10SM CLR 27/M01 A2998 RMK AO1,M
CXP,2025-06-05 20:55,-119.7326,39.1923,1431.00,82.40,32.00,16.19,290.00,10.00,0.00,29.95,M,10.00,17.00,CLR,M,M,M,M,M,M,M,M,M,M,M,M,M,M,80.00,KCXP 052055Z AUTO 29010G17KT 10SM CLR 28/00 A2995 RMK AO2,M
RTS,2025-06-05 20:55,-119.8764,39.6682,1539.00,73.40,33.80,23.41,M,4.00,0.00,29.99,M,10.00,M,SCT,M,M,M,9500.00,M,M,M,M,M,M,M,M,M,M,73.40,KRTS 052055Z AUTO VRB04KT 10SM SCT095 23/01 A2999 RMK AO2,M
MEV,2025-06-05 20:55,-119.7500,38.9963,1441.42,80.60,39.20,22.84,M,4.00,0.00,29.93,M,10.00,14.00,CLR,M,M,M,M,M,M,M,M,M,M,M,M,M,M,79.11,KMEV 052055Z AUTO VRB04G14KT 10SM CLR 27/04 A2993 RMK AO2,M
HTH,2025-06-05 20:55,-118.6315,38.5448,1282.89,86.00,21.20,9.23,320.00,9.00,0.00,29.89,M,10.00,M,CLR,M,M,M,M,M,M,M,M,M,M,M,M,M,M,82.04,KHTH 052055Z AUTO 32009KT 10SM CLR 30/M06 A2989 RMK A01,M
INS,2025-06-05 20:55,-115.6733,36.5872,955.00,87.40,46.20,24.03,120.00,16.00,T,29.83,1004.80,10.00,M,SCT,SCT,M,M,10000.00,13000.00,M,M,M,M,M,M,M,M,M,84.34,KINS 052055Z AUTO 12016KT 10SM SCT100 SCT130 31/08 A2983 RMK AO2 LTG DSNT E-SE DZB1955E06 SLP048 P0000 60000 T03080079 57013 $,M
LSV,2025-06-05 20:55,-115.0343,36.2362,570.00,92.50,48.00,21.92,160.00,11.00,0.00,29.75,1004.40,10.00,M,BKN,M,M,M,10000.00,M,M,M,M,M,M,M,28.00,210.00,2025-06-05 20:45,89.11,KLSV 052055Z 16011KT 10SM BKN100 34/09 A2975 RMK AO2A PK WND 21028/45 LTG DSNT N-NE AND SW-W SLP044 T03360089 57020 $,M
EKO,2025-06-05 20:56,-115.7860,40.8242,1367.00,75.00,27.00,16.83,M,6.00,0.00,30.00,1012.30,10.00,M,FEW,M,M,M,10000.00,M,M,M,M,M,M,M,M,M,M,75.00,KEKO 052056Z AUTO VRB06KT 10SM FEW100 24/M03 A3000 RMK AO2 SLP123 T02391028 57011,M
WMC,2025-06-05 20:56,-117.8072,40.9019,1315.00,81.00,25.00,12.71,M,5.00,0.00,29.94,1010.00,10.00,M,CLR,M,M,M,M,M,M,M,M,M,M,M,M,M,M,78.89,KWMC 052056Z AUTO VRB05KT 10SM CLR 27/M04 A2994 RMK AO2 SLP100 T02721039 58010 TSNO,M
HND,2025-06-05 20:56,-115.1344,35.9729,742.79,85.00,49.00,28.81,150.00,13.00,0.00,29.87,1010.30,10.00,M,CLR,M,M,M,M,M,M,M,M,M,M,M,M,M,M,82.72,KHND 052056Z 15013KT 10SM CLR 29/09 A2987 RMK AO2 LTG DSNT ALQDS SLP103 T02940094 56008 $,M
TPH,2025-06-05 20:56,-117.0904,38.0505,1654.00,82.00,30.00,15.12,310.00,8.00,0.00,29.96,1007.50,10.00,17.00,CLR,M,M,M,M,M,M,M,M,M,M,M,M,M,M,79.69,KTPH 052056Z AUTO 31008G17KT 10SM CLR 28/M01 A2996 RMK AO2 SLP075 T02781011 58015,M
LAS,2025-06-05 20:56,-115.1634,36.0719,663.00,88.00,51.00,28.22,170.00,12.00,0.00,29.82,1007.30,10.00,22.00,SCT,BKN,M,M,9000.00,25000.00,M,M,TS,M,M,M,M,M,M,85.44,KLAS 052056Z 17012G22KT 10SM TS SCT090CB BKN250 31/11 A2982 RMK AO2 TSE38B41 SLP073 OCNL LTGICCG TS S-SW MOV NE T03110106 56015 $,M
NFL,2025-06-05 20:57,-118.7010,39.4166,1199.00,85.00,24.00,10.72,M,5.00,0.00,29.90,1009.80,10.00,M,SCT,SCT,M,M,8000.00,12000.00,M,M,M,M,M,M,M,M,M,81.50,KNFL 052057Z VRB05KT 10SM SCT080 SCT120 29/M04 A2990 RMK AO2 SLP098 T02941044 58015,M
VGT,2025-06-05 21:07,-115.1933,36.2111,667.00,90.00,49.00,24.60,170.00,16.00,0.00,29.79,M,10.00,20.00,BKN,BKN,M,M,9000.00,11000.00,M,M,VCTS,M,M,M,M,M,M,86.92,KVGT 052107Z 17016G20KT 10SM VCTS BKN090 BKN110 32/09 A2979 RMK AO2 WSHFT 2047 LTG DSNT N T03220094,M
LSV,2025-06-05 21:10,-115.0343,36.2362,570.00,93.20,50.00,23.11,180.00,19.00,0.00,29.75,1004.40,10.00,25.00,FEW,FEW,BKN,M,9000.00,12000.00,15000.00,M,TS,M,M,M,M,M,M,90.11,KLSV 052110Z 18019G25KT 10SM TS FEW090 FEW120 BKN150 34/10 A2975 RMK AO2A TSB10 SLP044 $,M
TMT,2025-06-05 21:10,-117.1971,39.4643,1749.34,77.40,27.70,16.00,340.00,4.00,0.00,30.00,M,10.00,M,SCT,M,M,M,12000.00,M,M,M,M,M,M,M,M,M,M,77.40,KTMT 052110Z AUTO 34004KT 10SM SCT120 25/M02 A3000 RMK AO2 T02521024,M
BVU,2025-06-05 21:15,-114.8611,35.9475,671.00,82.40,48.20,30.40,230.00,13.00,0.00,29.84,M,10.00,19.00,CLR,M,M,M,M,M,M,M,M,M,M,M,M,M,M,80.81,KBVU 052115Z AUTO 23013G19KT 10SM CLR 28/09 A2984 RMK AO2 LTG DSNT SE-SW,M
BAM,2025-06-05 21:15,-116.8743,40.5990,1382.36,80.60,30.20,15.95,60.00,4.00,0.00,29.98,M,10.00,M,CLR,M,M,M,M,M,M,M,M,M,M,M,M,M,M,78.77,KBAM 052115Z AUTO 06004KT 10SM CLR 27/M01 A2998 RMK AO1,M
CXP,2025-06-05 21:15,-119.7326,39.1923,1431.00,82.40,28.40,13.98,M,6.00,0.00,29.94,M,10.00,11.00,CLR,M,M,M,M,M,M,M,M,M,M,M,M,M,M,79.94,KCXP 052115Z AUTO VRB06G11KT 10SM CLR 28/M02 A2994 RMK AO2,M
RTS,2025-06-05 21:15,-119.8764,39.6682,1539.00,77.00,35.60,22.31,350.00,8.00,0.00,29.98,M,10.00,M,CLR,M,M,M,M,M,M,M,M,M,M,M,M,M,M,77.00,KRTS 052115Z AUTO 35008KT 10SM CLR 25/02 A2998 RMK AO2,M
MEV,2025-06-05 21:15,-119.7500,38.9963,1441.42,80.60,41.00,24.49,M,6.00,0.00,29.93,M,10.00,M,CLR,M,M,M,M,M,M,M,M,M,M,M,M,M,M,79.20,KMEV 052115Z AUTO VRB06KT 10SM CLR 27/05 A2993 RMK AO2,M
HTH,2025-06-05 21:15,-118.6315,38.5448,1282.89,84.20,21.20,9.77,320.00,11.00,0.00,29.88,M,10.00,M,CLR,M,M,M,M,M,M,M,M,M,M,M,M,M,M,80.78,KHTH 052115Z AUTO 32011KT 10SM CLR 29/M06 A2988 RMK A01,M
VGT,2025-06-05 21:16,-115.1933,36.2111,667.00,89.00,49.00,25.38,200.00,15.00,0.00,29.81,M,10.00,28.00,BKN,BKN,M,M,8500.00,11000.00,M,M,TS,M,M,M,28.00,190.00,2025-06-05 21:14,86.02,KVGT 052116Z 20015G28KT 10SM TS BKN085 BKN110 32/09 A2981 RMK AO2 PK WND 19028/2114 WSHFT 2047 LTG DSNT N AND SW TSB10 T03170094,M
RTS,2025-06-05 21:25,-119.8764,39.6682,1539.00,77.00,35.60,22.31,330.00,8.00,0.00,29.98,M,10.00,M,CLR,M,M,M,M,M,M,M,M,M,M,M,M,M,M,77.00,KRTS 052125Z AUTO 33008KT 10SM CLR 25/02 A2998 RMK AO2,M
MEV,2025-06-05 21:25,-119.7500,38.9963,1441.42,80.60,39.20,22.84,280.00,9.00,0.00,29.93,M,10.00,M,FEW,M,M,M,9500.00,M,M,M,M,M,M,M,M,M,M,79.11,KMEV 052125Z AUTO 28009KT 10SM FEW095 27/04 A2993 RMK AO2,M
VGT,2025-06-05 21:26,-115.1933,36.2111,667.00,82.00,54.00,38.17,230.00,17.00,T,29.83,M,10.00,28.00,OVC,M,M,M,8500.00,M,M,M,-TSRA,M,M,M,28.00,240.00,2025-06-05 21:24,81.25,KVGT 052126Z 23017G28KT 10SM -TSRA OVC085 28/12 A2983 RMK AO2 PK WND 24028/2124 WSHFT 2106 LTG DSNT W-NE RAB24 TSB10 PRESRR P0000 T02780122,M
HND,2025-06-05 21:28,-115.1344,35.9729,742.79,87.80,48.20,25.58,260.00,14.00,0.00,29.86,M,10.00,19.00,FEW,M,M,M,9000.00,M,M,M,M,M,M,M,M,M,M,84.88,KHND 052128Z 26014G19KT 10SM FEW090 31/09 A2986 RMK AO2 WSHFT 2108 LTG DSNT ALQDS $,M
TMT,2025-06-05 21:30,-117.1971,39.4643,1749.34,77.00,27.50,16.08,340.00,8.00,0.00,29.99,M,10.00,M,SCT,M,M,M,11000.00,M,M,M,M,M,M,M,M,M,M,77.00,KTMT 052130Z AUTO 34008KT 10SM SCT110 25/M02 A2999 RMK AO2 T02511025,M
CXP,2025-06-05 21:35,-119.7326,39.1923,1431.00,82.40,26.60,12.98,280.00,7.00,0.00,29.94,M,10.00,M,CLR,M,M,M,M,M,M,M,M,M,M,M,M,M,M,79.92,KCXP 052135Z AUTO 28007KT 250V310 10SM CLR 28/M03 A2994 RMK AO2,M
HTH,2025-06-05 21:35,-118.6315,38.5448,1282.89,84.20,21.20,9.77,320.00,11.00,0.00,29.88,M,10.00,M,CLR,M,M,M,M,M,M,M,M,M,M,M,M,M,M,80.78,KHTH 052135Z AUTO 32011KT 10SM CLR 29/M06 A2988 RMK A01,M
BVU,2025-06-05 21:35,-114.8611,35.9475,671.00,82.40,44.60,26.53,200.00,19.00,0.00,29.83,M,10.00,25.00,FEW,SCT,M,M,10000.00,12000.00,M,M,M,M,M,M,M,M,M,80.51,KBVU 052135Z AUTO 20019G25KT 10SM FEW100 SCT120 28/07 A2983 RMK AO2,M
BAM,2025-06-05 21:35,-116.8743,40.5990,1382.36,80.60,30.20,15.95,30.00,6.00,0.00,29.97,M,10.00,15.00,CLR,M,M,M,M,M,M,M,M,M,M,M,M,M,M,78.77,KBAM 052135Z AUTO 03006G15KT 10SM CLR 27/M01 A2997 RMK AO1,M
VGT,2025-06-05 21:36,-115.1933,36.2111,667.00,74.00,61.00,63.90,290.00,15.00,0.07,29.83,M,3.00,29.00,OVC,M,M,M,9000.00,M,M,M,TSRA,M,M,M,29.00,280.00,2025-06-05 21:29,74.00,KVGT 052136Z 29015G29KT 3SM TSRA OVC090 23/16 A2983 RMK AO2 PK WND 28029/2129 WSHFT 2116 LTG DSNT NE RAB24 TSB10 P0007 T02330161,M
HND,2025-06-05 21:45,-115.1344,35.9729,742.79,89.60,42.80,19.69,160.00,14.00,0.00,29.86,M,10.00,20.00,FEW,M,M,M,8000.00,M,M,M,M,M,M,M,M,M,M,85.93,KHND 052145Z 16014G20KT 10SM FEW080 32/06 A2986 RMK AO2 WSHFT 2125 LTG DSNT N AND S $,M
TMT,2025-06-05 21:50,-117.1971,39.4643,1749.34,76.50,27.00,16.01,340.00,7.00,0.00,29.99,M,10.00,M,CLR,M,M,M,M,M,M,M,M,M,M,M,M,M,M,76.50,KTMT 052150Z AUTO 34007KT 10SM CLR 25/M03 A2999 RMK AO2 T02471028,M
P68,2025-06-05 21:53,-116.0056,39.6014,1993.00,74.00,24.00,15.36,10.00,13.00,0.00,29.99,1009.90,M,27.00,M,M,M,M,M,M,M,M,M,M,M,M,27.00,30.00,2025-06-05 21:49,74.00,KP68 052153Z AUTO 01013G27KT 23/M04 A2999 RMK AO1 PK WND 03027/2149 SLP099 T02331044,M
DRA,2025-06-05 21:53,-116.0278,36.6206,1009.00,94.00,42.00,16.66,240.00,16.00,0.00,29.83,1004.50,10.00,23.00,BKN,M,M,M,11000.00,M,M,M,M,M,M,M,27.00,200.00,2025-06-05 21:11,89.86,KDRA 052153Z AUTO 24016G23KT 10SM BKN110 34/06 A2983 RMK AO2 PK WND 20027/2111 SLP045 T03440056,M
ELY,2025-06-05 21:53,-114.8453,39.2950,1909.00,75.00,21.00,13.09,320.00,6.00,0.00,30.00,1008.30,10.00,M,BKN,M,M,M,12000.00,M,M,M,M,M,M,M,M,M,M,75.00,KELY 052153Z AUTO 32006KT 10SM BKN120 24/M06 A3000 RMK AO2 SLP083 T02391061,M
VGT,2025-06-05 21:53,-115.1933,36.2111,667.00,78.00,62.00,57.97,210.00,9.00,0.10,29.82,1009.10,10.00,M,SCT,OVC,M,M,9000.00,11000.00,M,M,VCTS -RA,M,M,M,29.00,280.00,2025-06-05 21:29,78.00,KVGT 052153Z 21009KT 10SM VCTS -RA SCT090 OVC110 26/17 A2982 RMK AO2 PK WND 28029/2129 WSHFT 2116 LTG DSNT NE RAB24 TSB10E50 SLP091 P0010 T02560167,M
LOL,2025-06-05 21:53,-118.5701,40.0684,1192.43,84.00,22.00,10.17,170.00,6.00,0.00,29.89,1008.90,10.00,M,CLR,M,M,M,M,M,M,M,M,M,M,M,M,M,M,80.69,KLOL 052153Z AUTO 17006KT 10SM CLR 29/M06 A2989 RMK AO2 SLP089 T02891056,M
BVU,2025-06-05 21:55,-114.8611,35.9475,671.00,84.20,42.80,23.37,180.00,13.00,0.00,29.81,M,10.00,20.00,FEW,FEW,SCT,M,5500.00,6500.00,12000.00,M,M,M,M,M,M,M,M,81.61,KBVU 052155Z AUTO 18013G20KT 10SM FEW055 FEW065 SCT120 29/06 A2981 RMK AO2 LTG DSNT N AND NE AND SW,M
RNO,2025-06-05 21:55,-119.7711,39.4839,1341.00,84.00,35.00,17.34,20.00,7.00,0.00,29.91,1007.40,10.00,M,BKN,M,M,M,9500.00,M,M,M,M,M,M,M,M,M,M,81.18,KRNO 052155Z 02007KT 10SM BKN095 29/02 A2991 RMK AO2 SLP074 T02890017,M
CXP,2025-06-05 21:55,-119.7326,39.1923,1431.00,82.40,26.60,12.98,320.00,8.00,0.00,29.94,M,10.00,M,CLR,M,M,M,M,M,M,M,M,M,M,M,M,M,M,79.92,KCXP 052155Z AUTO 32008KT 10SM CLR 28/M03 A2994 RMK AO2,M
RTS,2025-06-05 21:55,-119.8764,39.6682,1539.00,77.00,33.80,20.76,350.00,11.00,0.00,29.98,M,10.00,M,CLR,M,M,M,M,M,M,M,M,M,M,M,M,M,M,77.00,KRTS 052155Z AUTO 35011KT 10SM CLR 25/01 A2998 RMK AO2,M
BAM,2025-06-05 21:55,-116.8743,40.5990,1382.36,80.60,28.40,14.82,310.00,5.00,0.00,29.96,M,10.00,M,CLR,M,M,M,M,M,M,M,M,M,M,M,M,M,M,78.72,KBAM 052155Z AUTO 31005KT 10SM CLR 27/M02 A2996 RMK AO1,M
MEV,2025-06-05 21:55,-119.7500,38.9963,1441.42,82.40,39.20,21.54,M,6.00,0.00,29.93,M,10.00,13.00,FEW,SCT,M,M,9000.00,11000.00,M,M,M,M,M,M,M,M,M,80.21,KMEV 052155Z AUTO VRB06G13KT 220V300 10SM FEW090 SCT110 28/04 A2993 RMK AO2 LTG DSNT S AND SW,M
HTH,2025-06-05 21:55,-118.6315,38.5448,1282.89,84.20,21.20,9.77,320.00,13.00,0.00,29.87,M,10.00,M,CLR,M,M,M,M,M,M,M,M,M,M,M,M,M,M,80.78,KHTH 052155Z AUTO 32013KT 10SM CLR 29/M06 A2987 RMK A01,M
INS,2025-06-05 21:55,-115.6733,36.5872,955.00,88.70,45.00,22.04,120.00,16.00,0.00,29.81,1004.10,10.00,M,BKN,BKN,M,M,11000.00,15000.00,M,M,M,M,M,M,M,M,M,85.32,KINS 052155Z AUTO 12016KT 10SM BKN110 BKN150 32/07 A2981 RMK AO2 LTG DSNT E AND S SLP041 T03150072 $,M
LSV,2025-06-05 21:55,-115.0343,36.2362,570.00,89.00,48.60,25.00,200.00,17.00,0.00,29.77,1005.20,10.00,M,SCT,BKN,M,M,10000.00,15000.00,M,M,-TSRA,M,M,M,26.00,180.00,2025-06-05 20:57,85.97,KLSV 052155Z 20017KT 10SM -TSRA SCT100CB BKN150 32/09 A2977 RMK AO2A PK WND 18026/2057 TSE2055TSB10 SLP052 T03170092 $,M
EKO,2025-06-05 21:56,-115.7860,40.8242,1367.00,76.00,27.00,16.28,0.00,0.00,0.00,29.98,1011.50,10.00,M,FEW,M,M,M,11000.00,M,M,M,M,M,M,M,M,M,M,76.00,KEKO 052156Z AUTO 00000KT 10SM FEW110 24/M03 A2998 RMK AO2 SLP115 T02441028,M
WMC,2025-06-05 21:56,-117.8072,40.9019,1315.00,81.00,25.00,12.71,M,3.00,0.00,29.93,1008.90,10.00,M,SCT,M,M,M,12000.00,M,M,M,M,M,M,M,M,M,M,78.89,KWMC 052156Z AUTO VRB03KT 10SM SCT120 27/M04 A2993 RMK AO2 SLP089 T02721039 TSNO,M
HND,2025-06-05 21:56,-115.1344,35.9729,742.79,89.00,42.00,19.46,130.00,11.00,0.00,29.86,1009.60,10.00,17.00,CLR,M,M,M,M,M,M,M,M,M,M,M,M,M,M,85.36,KHND 052156Z 13011G17KT 10SM CLR 32/06 A2986 RMK AO2 WSHFT 2125 LTG DSNT N AND NE AND S SLP096 T03170056 $,M
TPH,2025-06-05 21:56,-117.0904,38.0505,1654.00,83.00,31.00,15.25,M,M,0.00,29.94,1006.70,M,M,M,M,M,M,M,M,M,M,M,M,M,M,M,M,M,80.40,KTPH 052156Z AUTO 28/M01 A2994 RMK AO2 SLP067 T02831006 PWINO $,M
LAS,2025-06-05 21:56,-115.1634,36.0719,663.00,87.00,47.00,25.08,130.00,5.00,T,29.83,1007.40,10.00,M,SCT,SCT,BKN,BKN,9000.00,15000.00,18000.00,22000.00,-TSRA,M,M,M,M,M,M,84.08,KLAS 052156Z COR 13005KT 10SM -TSRA SCT090CB SCT150 BKN180 BKN220 31/08 A2983 RMK AO2 LTG DSNT N AND NE OCNL LTGICCG OHD-NW-NE TS OHD-NW-NE MOV NE RAB50 SLP074 VCSH N-NE OHD-NW-NE TS OHD-NW-NE MOV NE P0000 T03060083 $,M
NFL,2025-06-05 21:57,-118.7010,39.4166,1199.00,86.00,25.00,10.82,330.00,12.00,0.00,29.88,1009.20,10.00,18.00,SCT,SCT,M,M,8000.00,12000.00,M,M,M,M,M,M,M,M,M,82.28,KNFL 052157Z 33012G18KT 10SM SCT080 SCT120 30/M04 A2988 RMK AO2 SLP092 T03001039,M
VGT,2025-06-05 22:01,-115.1933,36.2111,667.00,81.00,63.00,54.43,200.00,10.00,T,29.81,M,10.00,M,SCT,BKN,M,M,9000.00,11000.00,M,M,M,M,M,M,M,M,M,82.29,KVGT 052201Z 20010KT 10SM SCT090 BKN110 27/17 A2981 RMK AO2 LTG DSNT NE RAE01 P0000 T02720172,M
TMT,2025-06-05 22:10,-117.1971,39.4643,1749.34,78.60,27.00,14.94,350.00,10.00,0.00,29.99,M,10.00,16.00,CLR,M,M,M,M,M,M,M,M,M,M,M,M,M,M,78.60,KTMT 052210Z AUTO 35010G16KT 10SM CLR 26/M03 A2999 RMK AO2 T02591028,M
BVU,2025-06-05 22:15,-114.8611,35.9475,671.00,86.00,41.00,20.59,220.00,9.00,0.00,29.81,M,10.00,M,CLR,M,M,M,M,M,M,M,M,M,M,M,M,M,M,82.86,KBVU 052215Z AUTO 22009KT 190V250 10SM CLR 30/05 A2981 RMK AO2,M
BAM,2025-06-05 22:15,-116.8743,40.5990,1382.36,80.60,30.20,15.95,350.00,8.00,0.00,29.96,M,10.00,M,CLR,M,M,M,M,M,M,M,M,M,M,M,M,M,M,78.77,KBAM 052215Z AUTO 35008KT 280V010 10SM CLR 27/M01 A2996 RMK AO1,M
CXP,2025-06-05 22:15,-119.7326,39.1923,1431.00,82.40,28.40,13.98,M,5.00,0.00,29.93,M,10.00,14.00,CLR,M,M,M,M,M,M,M,M,M,M,M,M,M,M,79.94,KCXP 052215Z AUTO VRB05G14KT 10SM CLR 28/M02 A2993 RMK AO2 LTG DSNT S AND SW,M
RTS,2025-06-05 22:15,-119.8764,39.6682,1539.00,78.80,33.80,19.57,350.00,9.00,0.00,29.97,M,10.00,15.00,CLR,M,M,M,M,M,M,M,M,M,M,M,M,M,M,78.80,KRTS 052215Z AUTO 35009G15KT 10SM CLR 26/01 A2997 RMK AO2,M
MEV,2025-06-05 22:15,-119.7500,38.9963,1441.42,78.80,39.20,24.22,280.00,7.00,0.00,29.93,M,10.00,16.00,BKN,M,M,M,9000.00,M,M,M,M,M,M,M,M,M,M,78.80,KMEV 052215Z AUTO 28007G16KT 250V310 10SM BKN090 26/04 A2993 RMK AO2 LTG DSNT SW,M
HTH,2025-06-05 22:15,-118.6315,38.5448,1282.89,84.20,23.00,10.54,330.00,9.00,0.00,29.87,M,10.00,M,CLR,M,M,M,M,M,M,M,M,M,M,M,M,M,M,80.88,KHTH 052215Z AUTO 33009KT 10SM CLR 29/M05 A2987 RMK A01,M
LSV,2025-06-05 22:23,-115.0343,36.2362,570.00,86.00,46.40,25.31,200.00,5.00,0.00,29.75,1004.80,10.00,M,SCT,BKN,M,M,10000.00,15000.00,M,M,-RA,M,M,M,M,M,M,83.23,KLSV 052223Z 20005KT 10SM -RA SCT100 BKN150 30/08 A2975 RMK AO2A LTG DSNT N-NE AND W RAE2155RAB02E03RAB10E15RAB15E15 TSE23 SLP048 $,M
LAS,2025-06-05 22:27,-115.1634,36.0719,663.00,91.00,41.00,17.59,60.00,6.00,T,29.82,M,10.00,M,FEW,FEW,SCT,BKN,9000.00,15000.00,18000.00,22000.00,M,M,M,M,M,M,M,87.05,KLAS 052227Z 06006KT 10SM FEW090 FEW150 SCT180 BKN220 33/05 A2982 RMK AO2 LTG DSNT W-NE RAE20 TSE27 TS MOVD NE VIRGA W-N VCSH N-E-SE CB DSNT N-E-S P0000 T03280050 $,M
LSV,2025-06-05 22:29,-115.0343,36.2362,570.00,86.00,48.20,27.08,210.00,6.00,0.00,29.75,1004.80,10.00,M,SCT,BKN,M,M,10000.00,15000.00,M,M,M,M,M,M,M,M,M,83.41,KLSV 052229Z 21006KT 10SM SCT100 BKN150 30/09 A2975 RMK AO2A LTG DSNT N-NE AND W RAE2155RAB02E03RAB10E15RAB15E15 TSB2155E23 SLP048 $,M
TMT,2025-06-05 22:30,-117.1971,39.4643,1749.34,75.00,26.40,16.42,360.00,5.00,0.00,29.99,M,10.00,M,CLR,M,M,M,M,M,M,M,M,M,M,M,M,M,M,75.00,KTMT 052230Z AUTO 36005KT 10SM CLR 24/M03 A2999 RMK AO2 T02381031,M
BVU,2025-06-05 22:35,-114.8611,35.9475,671.00,87.80,41.00,19.44,200.00,7.00,0.00,29.81,M,10.00,12.00,CLR,M,M,M,M,M,M,M,M,M,M,M,M,M,M,84.30,KBVU 052235Z AUTO 20007G12KT 10SM CLR 31/05 A2981 RMK AO2,M
BAM,2025-06-05 22:35,-116.8743,40.5990,1382.36,82.40,30.20,15.05,360.00,9.00,0.00,29.96,M,10.00,M,CLR,M,M,M,M,M,M,M,M,M,M,M,M,M,M,79.97,KBAM 052235Z AUTO 36009KT 10SM CLR 28/M01 A2996 RMK AO1,M
CXP,2025-06-05 22:35,-119.7326,39.1923,1431.00,82.40,26.60,12.98,290.00,8.00,0.00,29.93,M,10.00,16.00,CLR,M,M,M,M,M,M,M,M,M,M,M,M,M,M,79.92,KCXP 052235Z AUTO 29008G16KT 230V310 10SM CLR 28/M03 A2993 RMK AO2 LTG DSNT S,M
RTS,2025-06-05 22:35,-119.8764,39.6682,1539.00,78.80,33.80,19.57,330.00,7.00,0.00,29.97,M,10.00,17.00,CLR,M,M,M,M,M,M,M,M,M,M,M,M,M,M,78.80,KRTS 052235Z AUTO 33007G17KT 290V350 10SM CLR 26/01 A2997 RMK AO2,M
MEV,2025-06-05 22:35,-119.7500,38.9963,1441.42,75.20,42.80,31.37,210.00,19.00,0.00,29.94,M,10.00,27.00,BKN,BKN,M,M,8000.00,10000.00,M,M,TS,M,M,M,M,M,M,75.20,KMEV 052235Z AUTO 21019G27KT 10SM TS BKN080 BKN100 24/06 A2994 RMK AO2 LTG DSNT SE-SW,M
HTH,2025-06-05 22:35,-118.6315,38.5448,1282.89,84.20,21.20,9.77,330.00,10.00,0.00,29.86,M,10.00,M,CLR,M,M,M,M,M,M,M,M,M,M,M,M,M,M,80.78,KHTH 052235Z AUTO 33010KT 10SM CLR 29/M06 A2986 RMK A01,M
TMT,2025-06-05 22:50,-117.1971,39.4643,1749.34,75.20,26.40,16.31,350.00,8.00,0.00,29.99,M,10.00,M,CLR,M,M,M,M,M,M,M,M,M,M,M,M,M,M,75.20,KTMT 052250Z AUTO 35008KT 10SM CLR 24/M03 A2999 RMK AO2 T02401031,M
P68,2025-06-05 22:53,-116.0056,39.6014,1993.00,76.00,23.00,13.78,M,4.00,0.00,29.98,1009.30,M,M,M,M,M,M,M,M,M,M,M,M,M,M,M,M,M,76.00,KP68 052253Z AUTO VRB04KT 24/M05 A2998 RMK AO1 SLP093 T02441050,M
DRA,2025-06-05 22:53,-116.0278,36.6206,1009.00,92.00,41.00,17.05,190.00,16.00,0.00,29.81,1004.20,10.00,26.00,FEW,M,M,M,11000.00,M,M,M,M,M,M,M,33.00,210.00,2025-06-05 22:37,87.94,KDRA 052253Z AUTO 19016G26KT 10SM FEW110 33/05 A2981 RMK AO2 PK WND 21033/2237 SLP042 T03330050,M
ELY,2025-06-05 22:53,-114.8453,39.2950,1909.00,75.00,22.00,13.66,190.00,5.00,0.00,30.00,1008.30,10.00,M,BKN,M,M,M,11000.00,M,M,M,M,M,M,M,M,M,M,75.00,KELY 052253Z AUTO 19005KT 10SM BKN110 24/M06 A3000 RMK AO2 SLP083 T02391056,M
VGT,2025-06-05 22:53,-115.1933,36.2111,667.00,82.00,60.00,47.39,260.00,8.00,T,29.81,1009.00,10.00,19.00,SCT,BKN,BKN,M,5500.00,7500.00,9500.00,M,M,M,M,M,M,M,M,82.39,KVGT 052253Z 26008G19KT 10SM SCT055 BKN075 BKN095 28/16 A2981 RMK AO2 LTG DSNT W-NE RAE01 SLP090 P0000 T02780156,M
LOL,2025-06-05 22:53,-118.5701,40.0684,1192.43,86.00,23.00,9.95,250.00,7.00,0.00,29.87,1008.30,10.00,M,CLR,M,M,M,M,M,M,M,M,M,M,M,M,M,M,82.14,KLOL 052253Z AUTO 25007KT 190V270 10SM CLR 30/M05 A2987 RMK AO2 SLP083 T03001050,M
BVU,2025-06-05 22:55,-114.8611,35.9475,671.00,89.60,41.00,18.37,210.00,10.00,0.00,29.80,M,10.00,21.00,CLR,M,M,M,M,M,M,M,M,M,M,M,M,M,M,85.82,KBVU 052255Z AUTO 21010G21KT 10SM CLR 32/05 A2980 RMK AO2 LTG DSNT E AND SW,M
RNO,2025-06-05 22:55,-119.7711,39.4839,1341.00,84.00,36.00,18.04,M,4.00,0.00,29.91,1007.30,10.00,M,BKN,M,M,M,11000.00,M,M,M,M,M,M,M,M,M,M,81.20,KRNO 052255Z VRB04KT 10SM BKN110 29/02 A2991 RMK AO2 SLP073 CB DSNT S T02890022,M
BAM,2025-06-05 22:55,-116.8743,40.5990,1382.36,80.60,28.40,14.82,330.00,6.00,0.00,29.95,M,10.00,M,CLR,M,M,M,M,M,M,M,M,M,M,M,M,M,M,78.72,KBAM 052255Z AUTO 33006KT 10SM CLR 27/M02 A2995 RMK AO1,M
CXP,2025-06-05 22:55,-119.7326,39.1923,1431.00,82.40,30.20,15.05,240.00,6.00,0.00,29.93,M,10.00,14.00,SCT,M,M,M,10000.00,M,M,M,TS,M,M,M,M,M,M,79.97,KCXP 052255Z AUTO 24006G14KT 10SM TS SCT100 28/M01 A2993 RMK AO2 LTG DSNT SE AND S,M
RTS,2025-06-05 22:55,-119.8764,39.6682,1539.00,78.80,33.80,19.57,220.00,6.00,0.00,29.96,M,10.00,16.00,CLR,M,M,M,M,M,M,M,M,M,M,M,M,M,M,78.80,KRTS 052255Z AUTO 22006G16KT 10SM CLR 26/01 A2996 RMK AO2,M
MEV,2025-06-05 22:55,-119.7500,38.9963,1441.42,68.00,46.40,45.91,190.00,20.00,0.00,29.94,M,6.00,27.00,SCT,BKN,M,M,8500.00,11000.00,M,M,-TSRA HZ,M,M,M,M,M,M,68.00,KMEV 052255Z AUTO 19020G27KT 6SM -TSRA HZ SCT085 BKN110 20/08 A2994 RMK AO2 LTG DSNT SE-SW,M
HTH,2025-06-05 22:55,-118.6315,38.5448,1282.89,86.00,21.20,9.23,320.00,9.00,0.00,29.86,M,10.00,M,CLR,M,M,M,M,M,M,M,M,M,M,M,M,M,M,82.04,KHTH 052255Z AUTO 32009KT 10SM CLR 30/M06 A2986 RMK A01,M
INS,2025-06-05 22:55,-115.6733,36.5872,955.00,89.20,44.20,21.04,110.00,23.00,0.00,29.80,1003.80,10.00,26.00,FEW,SCT,M,M,13000.00,15000.00,M,M,M,M,M,M,28.00,100.00,2025-06-05 22:52,85.69,KINS 052255Z AUTO 11023G26KT 10SM FEW130 SCT150 32/07 A2980 RMK AO2 PK WND 10028/52 LTG DSNT NE AND SE-S SLP038 T03180068 $,M
LSV,2025-06-05 22:55,-115.0343,36.2362,570.00,89.40,41.70,19.00,290.00,3.00,T,29.76,1005.00,10.00,M,SCT,BKN,M,M,13000.00,18000.00,M,M,M,M,M,M,M,M,M,85.69,KLSV 052255Z 29003KT 10SM SCT130 BKN180 32/05 A2976 RMK AO2A LTG DSNT N-NE AND W RAB02E03RAB10E15RAB15E15 TSB2155E23 SLP050 P0000 T03190054 $,M
EKO,2025-06-05 22:56,-115.7860,40.8242,1367.00,77.00,27.00,15.75,M,5.00,0.00,29.97,1011.20,10.00,M,BKN,M,M,M,11000.00,M,M,M,M,M,M,M,M,M,M,77.00,KEKO 052256Z AUTO VRB05KT 10SM BKN110 25/M03 A2997 RMK AO2 SLP112 T02501028,M
WMC,2025-06-05 22:56,-117.8072,40.9019,1315.00,82.00,25.00,12.31,90.00,7.00,0.00,29.92,1009.10,10.00,M,FEW,M,M,M,12000.00,M,M,M,M,M,M,M,M,M,M,79.54,KWMC 052256Z AUTO 09007KT 060V120 10SM FEW120 28/M04 A2992 RMK AO2 SLP091 T02781039 TSNO,M
HND,2025-06-05 22:56,-115.1344,35.9729,742.79,90.00,44.00,20.36,150.00,12.00,0.00,29.84,1009.20,10.00,M,CLR,M,M,M,M,M,M,M,M,M,M,M,M,M,M,86.37,KHND 052256Z 15012KT 10SM CLR 32/07 A2984 RMK AO2 LTG DSNT S AND NW SLP092 T03220067 $,M
TPH,2025-06-05 22:56,-117.0904,38.0505,1654.00,M,M,M,M,M,0.00,29.94,M,M,M,M,M,M,M,M,M,M,M,M,M,M,M,M,M,M,M,KTPH 052256Z AUTO A2994 RMK AO2 SLPNO PWINO,M
LAS,2025-06-05 22:56,-115.1634,36.0719,663.00,91.00,40.00,16.92,330.00,3.00,T,29.81,1006.90,10.00,M,FEW,FEW,BKN,M,15000.00,18000.00,22000.00,M,M,M,M,M,M,M,M,86.99,KLAS 052256Z 33003KT 10SM FEW150 FEW180 BKN220 33/04 A2981 RMK AO2 LTG DSNT W RAE20 TSE27 SLP069 TS MOVD NE VIRGA NW CB DSNT NE AND SE P0000 T03280044 $,M
NFL,2025-06-05 22:57,-118.7010,39.4166,1199.00,86.00,25.00,10.82,330.00,10.00,0.00,29.86,1008.60,10.00,M,SCT,SCT,SCT,M,8000.00,12000.00,25000.00,M,M,M,M,M,M,M,M,82.28,KNFL 052257Z 33010KT 10SM SCT080 SCT120 SCT250 30/M04 A2986 RMK AO2 SLP086 T03001039,M
MEV,2025-06-05 23:10,-119.7500,38.9963,1441.42,66.20,44.60,45.62,190.00,9.00,0.00,29.95,M,8.00,20.00,FEW,FEW,M,M,9500.00,11000.00,M,M,-TSRA,M,M,M,M,M,M,66.20,KMEV 052310Z AUTO 19009G20KT 8SM -TSRA FEW095 FEW110 19/07 A2995 RMK AO2 LTG DSNT SW,M
TMT,2025-06-05 23:10,-117.1971,39.4643,1749.34,76.00,27.00,16.28,320.00,8.00,0.00,29.99,M,10.00,M,CLR,M,M,M,M,M,M,M,M,M,M,M,M,M,M,76.00,KTMT 052310Z AUTO 32008KT 10SM CLR 25/M03 A2999 RMK AO2 T02451028,M
BVU,2025-06-05 23:15,-114.8611,35.9475,671.00,89.60,41.00,18.37,160.00,11.00,0.00,29.81,M,10.00,M,FEW,M,M,M,10000.00,M,M,M,M,M,M,M,M,M,M,85.82,KBVU 052315Z AUTO 16011KT 10SM FEW100 32/05 A2981 RMK AO2 LTG DSNT NE,M
BAM,2025-06-05 23:15,-116.8743,40.5990,1382.36,80.60,28.40,14.82,0.00,0.00,0.00,29.95,M,10.00,M,CLR,M,M,M,M,M,M,M,M,M,M,M,M,M,M,78.72,KBAM 052315Z AUTO 00000KT 10SM CLR 27/M02 A2995 RMK AO1,M
CXP,2025-06-05 23:15,-119.7326,39.1923,1431.00,82.40,28.40,13.98,M,3.00,0.00,29.93,M,10.00,13.00,SCT,M,M,M,11000.00,M,M,M,M,M,M,M,M,M,M,79.94,KCXP 052315Z AUTO VRB03G13KT 10SM SCT110 28/M02 A2993 RMK AO2 LTG DSNT S AND SW,M
RTS,2025-06-05 23:15,-119.8764,39.6682,1539.00,77.00,33.80,20.76,M,3.00,0.00,29.96,M,10.00,13.00,CLR,M,M,M,M,M,M,M,M,M,M,M,M,M,M,77.00,KRTS 052315Z AUTO VRB03G13KT 10SM CLR 25/01 A2996 RMK AO2,M
HTH,2025-06-05 23:15,-118.6315,38.5448,1282.89,86.00,23.00,9.95,320.00,11.00,0.00,29.85,M,10.00,M,CLR,M,M,M,M,M,M,M,M,M,M,M,M,M,M,82.14,KHTH 052315Z AUTO 32011KT 10SM CLR 30/M05 A2985 RMK A01,M
RTS,2025-06-05 23:25,-119.8764,39.6682,1539.00,78.80,32.00,18.20,260.00,10.00,0.00,29.95,M,10.00,15.00,CLR,M,M,M,M,M,M,M,M,M,M,M,M,M,M,78.80,KRTS 052325Z AUTO 26010G15KT 10SM CLR 26/00 A2995 RMK AO2,M
MEV,2025-06-05 23:25,-119.7500,38.9963,1441.42,64.40,46.40,52.00,220.00,12.00,0.00,29.96,M,10.00,21.00,FEW,FEW,SCT,M,3700.00,9000.00,11000.00,M,VCTS RA,M,M,M,M,M,M,64.40,KMEV 052325Z AUTO 22012G21KT 10SM VCTS RA FEW037 FEW090 SCT110 18/08 A2996 RMK AO2 LTG DSNT SE-W,M
LSV,2025-06-05 23:28,-115.0343,36.2362,570.00,87.80,50.00,27.36,20.00,18.00,0.00,29.78,1005.70,10.00,22.00,SCT,BKN,M,M,10000.00,15000.00,M,M,M,M,M,M,M,M,M,85.12,KLSV 052328Z 02018G22KT 10SM SCT100 BKN150 31/10 A2978 RMK AO2A WSHFT 14 LTG DSNT NE AND W SLP057 $,M
TMT,2025-06-05 23:30,-117.1971,39.4643,1749.34,76.00,26.60,16.01,240.00,5.00,0.00,29.98,M,10.00,M,CLR,M,M,M,M,M,M,M,M,M,M,M,M,M,M,76.00,KTMT 052330Z AUTO 24005KT 10SM CLR 25/M03 A2998 RMK AO2 T02451030,M
BVU,2025-06-05 23:35,-114.8611,35.9475,671.00,89.60,42.80,19.69,150.00,7.00,0.00,29.81,M,10.00,13.00,FEW,M,M,M,10000.00,M,M,M,M,M,M,M,M,M,M,85.93,KBVU 052335Z AUTO 15007G13KT 10SM FEW100 32/06 A2981 RMK AO2 LTG DSNT N AND E,M
BAM,2025-06-05 23:35,-116.8743,40.5990,1382.36,80.60,28.40,14.82,360.00,4.00,0.00,29.95,M,10.00,M,CLR,M,M,M,M,M,M,M,M,M,M,M,M,M,M,78.72,KBAM 052335Z AUTO 36004KT 10SM CLR 27/M02 A2995 RMK AO1,M
CXP,2025-06-05 23:35,-119.7326,39.1923,1431.00,84.20,35.60,17.64,220.00,9.00,0.00,29.94,M,10.00,27.00,FEW,M,M,M,10000.00,M,M,M,VCTS,M,M,M,M,M,M,81.34,KCXP 052335Z AUTO 22009G27KT 10SM VCTS FEW100 29/02 A2994 RMK AO2 LTG DSNT S,M
HTH,2025-06-05 23:35,-118.6315,38.5448,1282.89,84.20,21.20,9.77,300.00,11.00,0.00,29.85,M,10.00,M,CLR,M,M,M,M,M,M,M,M,M,M,M,M,M,M,80.78,KHTH 052335Z AUTO 30011KT 10SM CLR 29/M06 A2985 RMK A01,M
TMT,2025-06-05 23:50,-117.1971,39.4643,1749.34,77.40,27.00,15.54,330.00,7.00,0.00,29.97,M,10.00,M,CLR,M,M,M,M,M,M,M,M,M,M,M,M,M,M,77.40,KTMT 052350Z AUTO 33007KT 10SM CLR 25/M03 A2997 RMK AO2 T02521028,M
P68,2025-06-05 23:53,-116.0056,39.6014,1993.00,74.00,23.00,14.73,340.00,4.00,0.00,29.99,1009.40,M,M,M,M,M,M,M,M,M,M,M,M,M,M,M,M,M,74.00,KP68 052353Z AUTO 34004KT 23/M05 A2999 RMK AO1 SLP094 T02331050 10256 20200 55005,M
DRA,2025-06-05 23:53,-116.0278,36.6206,1009.00,93.00,41.00,16.53,250.00,11.00,0.00,29.81,1004.20,10.00,21.00,CLR,M,M,M,M,M,M,M,M,M,M,M,28.00,170.00,2025-06-05 23:01,88.85,KDRA 052353Z AUTO 25011G21KT 10SM CLR 34/05 A2981 RMK AO2 PK WND 17028/2301 SLP042 T03390050 10344 20311 56008,M
ELY,2025-06-05 23:53,-114.8453,39.2950,1909.00,75.00,22.00,13.66,20.00,6.00,0.00,30.00,1008.40,10.00,M,SCT,M,M,M,12000.00,M,M,M,M,M,M,M,M,M,M,75.00,KELY 052353Z AUTO 02006KT 10SM SCT120 24/M06 A3000 RMK AO2 SLP084 T02391056 10261 20194 55005,M
VGT,2025-06-05 23:53,-115.1933,36.2111,667.00,84.00,53.00,34.50,50.00,12.00,0.00,29.81,1008.70,10.00,17.00,CLR,M,M,M,M,M,M,M,M,M,M,M,M,M,M,82.52,KVGT 052353Z 05012G17KT 10SM CLR 29/12 A2981 RMK AO2 LTG DSNT W SLP087 60010 T02890117 10339 20233 50004 $,M
LOL,2025-06-05 23:53,-118.5701,40.0684,1192.43,86.00,25.00,10.82,80.00,9.00,0.00,29.86,1007.80,9.00,M,CLR,M,M,M,M,M,M,M,M,M,M,M,M,M,M,82.28,KLOL 052353Z AUTO 08009KT 9SM CLR 30/M04 A2986 RMK AO2 SLP078 T03001039 10300 20250 56015,M
CXP,2025-06-05 23:55,-119.7326,39.1923,1431.00,78.80,41.00,25.98,170.00,19.00,0.00,29.94,M,10.00,25.00,FEW,M,M,M,10000.00,M,M,M,M,M,M,M,M,M,M,78.80,KCXP 052355Z AUTO 17019G25KT 10SM FEW100 26/05 A2994 RMK AO2,M
RTS,2025-06-05 23:55,-119.8764,39.6682,1539.00,80.60,30.20,15.95,280.00,13.00,0.00,29.95,M,10.00,M,FEW,M,M,M,9500.00,M,M,M,M,M,M,M,M,M,M,78.77,KRTS 052355Z AUTO 28013KT 10SM FEW095 27/M01 A2995 RMK AO2,M
MEV,2025-06-05 23:55,-119.7500,38.9963,1441.42,64.40,48.20,55.65,230.00,17.00,0.01,29.96,M,10.00,M,BKN,M,M,M,11000.00,M,M,M,-RA,M,M,M,M,M,M,64.40,KMEV 052355Z AUTO 23017KT 10SM -RA BKN110 18/09 A2996 RMK AO2 LTG DSNT SE AND SW P0001,M
HTH,2025-06-05 23:55,-118.6315,38.5448,1282.89,86.00,23.00,9.95,310.00,13.00,0.00,29.85,M,10.00,M,CLR,M,M,M,M,M,M,M,M,M,M,M,M,M,M,82.14,KHTH 052355Z AUTO 31013KT 10SM CLR 30/M05 A2985 RMK A01,M
BVU,2025-06-05 23:55,-114.8611,35.9475,671.00,89.60,41.00,18.37,180.00,8.00,0.00,29.80,M,10.00,M,CLR,M,M,M,M,M,M,M,M,M,M,M,M,M,M,85.82,KBVU 052355Z AUTO 18008KT 10SM CLR 32/05 A2980 RMK AO2,M
RNO,2025-06-05 23:55,-119.7711,39.4839,1341.00,81.00,35.00,19.10,M,5.00,0.00,29.90,1007.40,10.00,M,SCT,SCT,M,M,10000.00,15000.00,M,M,M,M,M,M,M,M,M,79.17,KRNO 052355Z VRB05KT 10SM SCT100 SCT150 27/02 A2990 RMK AO2 SLP074 CB DSNT S AND NW T02720017 10300 20239 56006,M
BAM,2025-06-05 23:55,-116.8743,40.5990,1382.36,82.40,28.40,13.98,40.00,7.00,0.00,29.94,M,10.00,M,CLR,M,M,M,M,M,M,M,M,M,M,M,M,M,M,79.94,KBAM 052355Z AUTO 04007KT 010V070 10SM CLR 28/M02 A2994 RMK AO1,M
INS,2025-06-05 23:55,-115.6733,36.5872,955.00,86.40,41.70,20.88,100.00,21.00,0.00,29.81,1004.60,10.00,26.00,SCT,SCT,M,M,11000.00,14000.00,M,M,M,M,M,M,37.00,80.00,2025-06-05 23:15,83.21,KINS 052355Z AUTO 10021G26KT 10SM SCT110 SCT140 30/05 A2981 RMK AO2 PK WND 08037/15 LTG DSNT N-NE AND SE-S SLP046 60000 T03020054 10325 20271 55008 $,M
LSV,2025-06-05 23:55,-115.0343,36.2362,570.00,85.00,52.70,33.05,40.00,18.00,0.00,29.77,1005.50,10.00,M,SCT,BKN,M,M,10000.00,15000.00,M,M,M,M,M,M,M,M,M,83.23,KLSV 052355Z 04018KT 10SM SCT100 BKN150 30/12 A2977 RMK AO2A LTG DSNT W SLP055 60000 T02950115 10344 20293 50008 $,M
EKO,2025-06-05 23:56,-115.7860,40.8242,1367.00,77.00,26.00,15.11,330.00,8.00,0.00,29.97,1010.90,10.00,15.00,CLR,M,M,M,M,M,M,M,M,M,M,M,M,M,M,77.00,KEKO 052356Z AUTO 33008G15KT 10SM CLR 25/M03 A2997 RMK AO2 SLP109 T02501033 10267 20206 56010,M
WMC,2025-06-05 23:56,-117.8072,40.9019,1315.00,82.00,25.00,12.31,M,M,0.00,29.91,1009.50,10.00,M,CLR,M,M,M,M,M,M,M,M,M,M,M,26.00,10.00,2025-06-05 23:12,79.54,KWMC 052356Z AUTO 10SM CLR 28/M04 A2991 RMK AO2 PK WND 01026/2312 SLP095 T02781039 10289 20239 56009 TSNO,M
HND,2025-06-05 23:56,-115.1344,35.9729,742.79,90.00,49.00,24.60,180.00,16.00,0.00,29.83,1008.90,10.00,19.00,FEW,M,M,M,11000.00,M,M,M,M,M,M,M,M,M,M,86.92,KHND 052356Z 18016G19KT 10SM FEW110 32/09 A2983 RMK AO2 LTG DSNT NW SLP089 T03220094 10333 20294 56011 $,M
TPH,2025-06-05 23:56,-117.0904,38.0505,1654.00,80.00,34.00,18.96,140.00,9.00,0.00,29.94,1006.80,10.00,22.00,M,M,M,M,M,M,M,M,M,M,M,M,27.00,160.00,2025-06-05 23:01,78.59,KTPH 052356Z AUTO 14009G22KT 10SM 27/01 A2994 RMK AO2 PK WND 16027/2301 SLP068 6//// T02670011,M
LAS,2025-06-05 23:56,-115.1634,36.0719,663.00,92.00,40.00,16.40,80.00,10.00,0.00,29.81,1006.80,10.00,15.00,FEW,FEW,SCT,BKN,12000.00,15000.00,18000.00,22000.00,M,M,M,M,M,M,M,87.88,KLAS 052356Z 08010G15KT 10SM FEW120 FEW150 SCT180 BKN220 33/04 A2981 RMK AO2 LTG DSNT W SLP068 ACC ALQDS VIRGA NW-N CB DSNT NW 60000 T03330044 10339 20294 58004 $,M
NFL,2025-06-05 23:57,-118.7010,39.4166,1199.00,89.00,25.00,9.84,350.00,7.00,0.00,29.85,1008.50,10.00,14.00,SCT,SCT,SCT,M,8000.00,12000.00,25000.00,M,M,M,M,M,M,M,M,84.45,KNFL 052357Z 35007G14KT 10SM SCT080 SCT120 SCT250 32/M04 A2985 RMK AO2 SLP085 T03171039 10317 20256 56014,M
