station,valid,lon,lat,elevation,tmpf,dwpf,relh,drct,sknt,p01i,alti,mslp,vsby,gust,skyc1,skyc2,skyc3,skyc4,skyl1,skyl2,skyl3,skyl4,wxcodes,ice_accretion_1hr,ice_accretion_3hr,ice_accretion_6hr,peak_wind_gust,peak_wind_drct,peak_wind_time,feel,metar,snowdepth
LAS,2022-07-28 00:02,-115.1634,36.0719,663.00,93.00,62.00,35.94,180.00,8.00,0.00,29.88,M,10.00,M,SCT,SCT,BKN,M,10000.00,17000.00,22000.00,M,TS,M,M,M,M,M,M,93.72,KLAS 280002Z 18008KT 10SM TS SCT100CB SCT170 BKN220 34/17 A2988 RMK AO2 LTG DSNT ALQDS OCNL LTGICCG OHD-W TS OHD-W MOV SW CB DSNT ALQDS T03390167,M
TPH,2022-07-28 00:03,-117.0904,38.0505,1654.00,91.00,43.00,18.94,200.00,18.00,0.00,30.11,M,10.00,26.00,CLR,M,M,M,M,M,M,M,M,M,M,M,M,M,M,87.18,KTPH 280003Z AUTO 20018G26KT 10SM CLR 33/06 A3011 RMK AO2 WSHFT 2343 T03280061,M
CXP,2022-07-28 00:15,-119.7326,39.1923,1431.00,98.60,26.60,7.80,M,4.00,0.00,30.06,M,10.00,M,CLR,M,M,M,M,M,M,M,M,M,M,M,M,M,M,92.07,KCXP 280015Z AUTO VRB04KT 10SM CLR 37/M03 A3006 RMK AO2,M
RTS,2022-07-28 00:15,-119.8764,39.6682,1539.00,95.00,19.40,6.43,310.00,8.00,0.00,30.11,M,10.00,M,CLR,M,M,M,M,M,M,M,M,M,M,M,M,M,M,88.50,KRTS 280015Z AUTO 31008KT 10SM CLR 35/M07 A3011 RMK AO2,M
MEV,2022-07-28 00:15,-119.7500,38.9963,1441.42,98.60,24.80,7.24,350.00,10.00,0.00,30.04,M,10.00,17.00,CLR,M,M,M,M,M,M,M,M,M,M,M,M,M,M,91.90,KMEV 280015Z AUTO 35010G17KT 10SM CLR 37/M04 A3004 RMK AO2,M
BAM,2022-07-28 00:15,-116.8743,40.5990,1382.36,M,M,M,330.00,7.00,0.00,30.03,M,10.00,M,CLR,M,M,M,M,M,M,M,M,M,M,M,M,M,M,M,KBAM 280015Z AUTO 33007KT 10SM CLR A3003 RMK AO1,M
HTH,2022-07-28 00:15,-118.6315,38.5448,1282.89,98.60,23.00,6.71,320.00,8.00,0.00,29.98,M,10.00,15.00,CLR,M,M,M,M,M,M,M,M,M,M,M,M,M,M,91.75,KHTH 280015Z AUTO 32008G15KT 10SM CLR 37/M05 A2998 RMK A01,M
TMT,2022-07-28 00:15,-117.1971,39.4643,1749.34,M,M,M,20.00,11.00,0.00,30.13,M,10.00,14.00,CLR,M,M,M,M,M,M,M,M,M,M,M,M,M,M,M,KTMT 280015Z AUTO 02011G14KT 10SM CLR A3013 RMK AO2,M
BVU,2022-07-28 00:15,-114.8611,35.9475,671.00,M,M,M,M,M,0.00,M,M,M,M,M,M,M,M,M,M,M,M,M,M,M,M,M,M,M,M,KBVU 280015Z AUTO RMK AO2 PNO PWINO TSNO,M
BAM,2022-07-28 00:35,-116.8743,40.5990,1382.36,M,M,M,360.00,6.00,0.00,30.03,M,10.00,M,CLR,M,M,M,M,M,M,M,M,M,M,M,M,M,M,M,KBAM 280035Z AUTO 36006KT 10SM CLR A3003 RMK AO1,M
RTS,2022-07-28 00:35,-119.8764,39.6682,1539.00,95.00,19.40,6.43,300.00,8.00,0.00,30.11,M,10.00,M,CLR,M,M,M,M,M,M,M,M,M,M,M,M,M,M,88.50,KRTS 280035Z AUTO 30008KT 10SM CLR 35/M07 A3011 RMK AO2,M
MEV,2022-07-28 00:35,-119.7500,38.9963,1441.42,98.60,23.00,6.71,360.00,15.00,0.00,30.04,M,10.00,M,CLR,M,M,M,M,M,M,M,M,M,M,M,M,M,M,91.75,KMEV 280035Z AUTO 36015KT 10SM CLR 37/M05 A3004 RMK AO2,M
BVU,2022-07-28 00:35,-114.8611,35.9475,671.00,M,M,M,M,M,0.00,M,M,M,M,M,M,M,M,M,M,M,M,M,M,M,M,M,M,M,M,KBVU 280035Z AUTO RMK AO2 PNO PWINO TSNO,M
TMT,2022-07-28 00:35,-117.1971,39.4643,1749.34,M,M,M,350.00,9.00,0.00,30.13,M,10.00,16.00,CLR,M,M,M,M,M,M,M,M,M,M,M,M,M,M,M,KTMT 280035Z AUTO 35009G16KT 10SM CLR A3013 RMK AO2,M
HTH,2022-07-28 00:35,-118.6315,38.5448,1282.89,100.40,23.00,6.36,310.00,13.00,0.00,29.98,M,10.00,M,CLR,M,M,M,M,M,M,M,M,M,M,M,M,M,M,93.25,KHTH 280035Z AUTO 31013KT 10SM CLR 38/M05 A2998 RMK A01,M
CXP,2022-07-28 00:35,-119.7326,39.1923,1431.00,98.60,24.80,7.24,330.00,6.00,0.00,30.06,M,10.00,M,CLR,M,M,M,M,M,M,M,M,M,M,M,M,M,M,91.90,KCXP 280035Z AUTO 33006KT 10SM CLR 37/M04 A3006 RMK AO2,M
LAS,2022-07-28 00:40,-115.1634,36.0719,663.00,91.00,64.00,40.90,180.00,7.00,0.00,29.88,M,10.00,M,FEW,BKN,BKN,BKN,8000.00,12000.00,17000.00,22000.00,M,M,M,M,M,M,M,92.52,KLAS 280040Z 18007KT 10SM FEW080 BKN120 BKN170 BKN220 33/18 A2988 RMK AO2 TSE39 TS DSIPTD CB DSNT ALQDS T03280178,M
ELY,2022-07-28 00:53,-114.8453,39.2950,1909.00,87.00,39.00,18.35,180.00,9.00,0.00,30.15,1010.90,10.00,M,CLR,M,M,M,M,M,M,M,M,M,M,M,M,M,M,83.65,KELY 280053Z AUTO 18009KT 10SM CLR 31/04 A3015 RMK AO2 SLP109 T03060039,M
LOL,2022-07-28 00:53,-118.5701,40.0684,1192.43,103.00,27.00,6.97,50.00,10.00,0.00,29.96,1009.10,10.00,M,CLR,M,M,M,M,M,M,M,M,M,M,M,26.00,10.00,2022-07-28 00:09,95.72,KLOL 280053Z AUTO 05010KT 10SM CLR 39/M03 A2996 RMK AO2 PK WND 01026/0009 SLP091 T03941028,M
DRA,2022-07-28 00:53,-116.0278,36.6206,1009.00,97.00,53.00,22.98,80.00,7.00,0.00,29.93,1007.90,10.00,M,CLR,M,M,M,M,M,M,M,M,M,M,M,M,M,M,94.67,KDRA 280053Z AUTO 08007KT 10SM CLR 36/12 A2993 RMK AO2 SLP079 T03610117,M
P68,2022-07-28 00:53,-116.0056,39.6014,1993.00,93.00,25.00,8.67,20.00,12.00,0.00,30.11,1010.20,M,M,M,M,M,M,M,M,M,M,M,M,M,M,M,M,M,87.43,KP68 280053Z AUTO 02012KT 34/M04 A3011 RMK AO1 SLP102 T03391039,M
VGT,2022-07-28 00:53,-115.1933,36.2111,667.00,96.00,61.00,31.41,170.00,10.00,0.00,29.87,1010.20,10.00,M,CLR,M,M,M,M,M,M,M,M,M,M,M,M,M,M,96.64,KVGT 280053Z 17010KT 10SM CLR 36/16 A2987 RMK AO2 LTG DSNT SW SLP102 T03560161,M
TMT,2022-07-28 00:55,-117.1971,39.4643,1749.34,M,M,M,10.00,11.00,0.00,30.12,M,10.00,M,CLR,M,M,M,M,M,M,M,M,M,M,M,M,M,M,M,KTMT 280055Z AUTO 01011KT 10SM CLR A3012 RMK AO2,M
MEV,2022-07-28 00:55,-119.7500,38.9963,1441.42,98.60,23.00,6.71,350.00,12.00,0.00,30.04,M,10.00,M,CLR,M,M,M,M,M,M,M,M,M,M,M,M,M,M,91.75,KMEV 280055Z AUTO 35012KT 10SM CLR 37/M05 A3004 RMK AO2,M
BVU,2022-07-28 00:55,-114.8611,35.9475,671.00,M,M,M,M,M,0.00,M,M,M,M,M,M,M,M,M,M,M,M,M,M,M,M,M,M,M,M,KBVU 280055Z AUTO RMK AO2 PNO PWINO TSNO,M
CXP,2022-07-28 00:55,-119.7326,39.1923,1431.00,98.60,23.00,6.71,90.00,5.00,0.00,30.05,M,10.00,M,CLR,M,M,M,M,M,M,M,M,M,M,M,M,M,M,91.75,KCXP 280055Z AUTO 09005KT 10SM CLR 37/M05 A3005 RMK AO2,M
RTS,2022-07-28 00:55,-119.8764,39.6682,1539.00,95.00,24.80,8.08,250.00,12.00,0.00,30.09,M,10.00,M,CLR,M,M,M,M,M,M,M,M,M,M,M,M,M,M,88.91,KRTS 280055Z AUTO 25012KT 200V330 10SM CLR 35/M04 A3009 RMK AO2,M
RNO,2022-07-28 00:55,-119.7711,39.4839,1341.00,100.00,28.90,8.22,50.00,6.00,0.00,30.02,1009.40,10.00,M,FEW,FEW,M,M,13000.00,18000.00,M,M,M,M,M,M,M,M,M,93.48,KRNO 280055Z 05006KT 10SM FEW130 FEW180 38/M02 A3002 RMK AO2 SLP094 HZ ALQDS T03781017,M
BAM,2022-07-28 00:55,-116.8743,40.5990,1382.36,M,M,M,310.00,13.00,0.00,30.03,M,10.00,16.00,CLR,M,M,M,M,M,M,M,M,M,M,M,M,M,M,M,KBAM 280055Z AUTO 31013G16KT 10SM CLR A3003 RMK AO1,M
HTH,2022-07-28 00:55,-118.6315,38.5448,1282.89,98.60,23.00,6.71,320.00,14.00,0.00,29.97,M,10.00,M,CLR,M,M,M,M,M,M,M,M,M,M,M,M,M,M,91.75,KHTH 280055Z AUTO 32014KT 10SM CLR 37/M05 A2997 RMK A01,M
TPH,2022-07-28 00:56,-117.0904,38.0505,1654.00,91.00,39.00,16.23,190.00,13.00,0.00,30.10,1010.20,10.00,20.00,CLR,M,M,M,M,M,M,M,M,M,M,M,26.00,230.00,2022-07-28 00:06,86.94,KTPH 280056Z AUTO 19013G20KT 10SM CLR 33/04 A3010 RMK AO2 PK WND 23026/0006 WSHFT 2343 SLP102 T03280039,M
NFL,2022-07-28 00:56,-118.7010,39.4166,1199.00,103.00,19.90,5.17,340.00,7.00,0.00,29.95,1011.50,10.00,M,FEW,SCT,BKN,M,8000.00,12000.00,25000.00,M,M,M,M,M,M,M,M,95.08,KNFL 280056Z 34007KT 10SM FEW080 SCT120 BKN250 39/M07 A2995 RMK AO2 SLP115 T03941067,M
EKO,2022-07-28 00:56,-115.7860,40.8242,1367.00,98.00,30.90,9.44,300.00,13.00,0.00,30.03,1010.20,10.00,M,CLR,M,M,M,M,M,M,M,M,M,M,M,M,M,M,92.13,KEKO 280056Z AUTO 30013KT 10SM CLR 37/M01 A3003 RMK AO2 SLP102 T03671006,M
WMC,2022-07-28 00:56,-117.8072,40.9019,1315.00,101.00,27.00,7.40,320.00,15.00,0.00,30.01,1010.70,10.00,23.00,CLR,M,M,M,M,M,M,M,M,M,M,M,26.00,340.00,2022-07-28 00:23,94.04,KWMC 280056Z AUTO 32015G23KT 10SM CLR 38/M03 A3001 RMK AO2 PK WND 34026/0023 SLP107 T03831028,M
HND,2022-07-28 00:56,-115.1344,35.9729,742.79,91.00,64.00,40.90,200.00,8.00,0.00,29.92,1011.70,10.00,M,CLR,M,M,M,M,M,M,M,M,M,M,M,M,M,M,92.52,KHND 280056Z 20008KT 10SM CLR 33/18 A2992 RMK AO2 LTG DSNT W SLP117 T03280178,M
LAS,2022-07-28 00:56,-115.1634,36.0719,663.00,91.00,63.00,39.49,190.00,6.00,0.00,29.88,1009.00,10.00,M,FEW,BKN,BKN,BKN,8000.00,12000.00,17000.00,22000.00,M,M,M,M,M,M,M,92.00,KLAS 280056Z 19006KT 10SM FEW080 BKN120 BKN170 BKN220 33/17 A2988 RMK AO2 LTG DSNT W TSE39 SLP090 TS DSIPTD CB DSNT ALQDS T03280172,M
LSV,2022-07-28 00:58,-115.0343,36.2362,570.00,96.40,62.60,32.94,190.00,10.00,0.00,29.85,1008.20,10.00,M,FEW,M,M,M,13000.00,M,M,M,M,M,M,M,M,M,M,97.82,KLSV 280058Z AUTO 19010KT 10SM FEW130 36/17 A2985 RMK AO2 SLP082 T03580170 $,M
INS,2022-07-28 00:58,-115.6733,36.5872,955.00,97.30,53.20,22.86,0.00,0.00,0.00,29.92,1007.80,10.00,M,SCT,SCT,M,M,9000.00,12000.00,M,M,M,M,M,M,M,M,M,95.01,KINS 280058Z AUTO 00000KT 10SM SCT090 SCT120 36/12 A2992 RMK AO2 SLP078 T03630118,M
CXP,2022-07-28 01:15,-119.7326,39.1923,1431.00,98.60,24.80,7.24,330.00,5.00,0.00,30.05,M,10.00,16.00,CLR,M,M,M,M,M,M,M,M,M,M,M,M,M,M,91.90,KCXP 280115Z AUTO 33005G16KT 10SM CLR 37/M04 A3005 RMK AO2,M
TMT,2022-07-28 01:15,-117.1971,39.4643,1749.34,M,M,M,360.00,11.00,0.00,30.12,M,10.00,15.00,CLR,M,M,M,M,M,M,M,M,M,M,M,M,M,M,M,KTMT 280115Z AUTO 36011G15KT 10SM CLR A3012 RMK AO2,M
BVU,2022-07-28 01:15,-114.8611,35.9475,671.00,M,M,M,M,M,0.00,M,M,M,M,M,M,M,M,M,M,M,M,M,M,M,M,M,M,M,M,KBVU 280115Z AUTO RMK AO2 PNO PWINO TSNO,M
RTS,2022-07-28 01:15,-119.8764,39.6682,1539.00,95.00,23.00,7.49,290.00,10.00,0.00,30.10,M,10.00,16.00,CLR,M,M,M,M,M,M,M,M,M,M,M,M,M,M,88.76,KRTS 280115Z AUTO 29010G16KT 10SM CLR 35/M05 A3010 RMK AO2,M
MEV,2022-07-28 01:15,-119.7500,38.9963,1441.42,98.60,24.80,7.24,340.00,13.00,0.00,30.03,M,10.00,M,CLR,M,M,M,M,M,M,M,M,M,M,M,M,M,M,91.90,KMEV 280115Z AUTO 34013KT 10SM CLR 37/M04 A3003 RMK AO2,M
HTH,2022-07-28 01:15,-118.6315,38.5448,1282.89,98.60,23.00,6.71,320.00,13.00,0.00,29.97,M,10.00,M,CLR,M,M,M,M,M,M,M,M,M,M,M,M,M,M,91.75,KHTH 280115Z AUTO 32013KT 10SM CLR 37/M05 A2997 RMK A01,M
BAM,2022-07-28 01:15,-116.8743,40.5990,1382.36,M,M,M,330.00,14.00,0.00,30.03,M,10.00,18.00,CLR,M,M,M,M,M,M,M,M,M,M,M,M,M,M,M,KBAM 280115Z AUTO 33014G18KT 10SM CLR A3003 RMK AO1,M
RTS,2022-07-28 01:35,-119.8764,39.6682,1539.00,95.00,21.20,6.95,340.00,15.00,0.00,30.10,M,10.00,M,CLR,M,M,M,M,M,M,M,M,M,M,M,M,M,M,88.62,KRTS 280135Z AUTO 34015KT 10SM CLR 35/M06 A3010 RMK AO2,M
BVU,2022-07-28 01:35,-114.8611,35.9475,671.00,M,M,M,M,M,0.00,M,M,M,M,M,M,M,M,M,M,M,M,M,M,M,M,M,M,M,M,KBVU 280135Z AUTO RMK AO2 PNO PWINO TSNO,M
BAM,2022-07-28 01:35,-116.8743,40.5990,1382.36,M,M,M,340.00,11.00,0.00,30.03,M,10.00,M,CLR,M,M,M,M,M,M,M,M,M,M,M,M,M,M,M,KBAM 280135Z AUTO 34011KT 10SM CLR A3003 RMK AO1,M
MEV,2022-07-28 01:35,-119.7500,38.9963,1441.42,96.80,35.60,11.86,310.00,11.00,0.00,30.03,M,10.00,M,CLR,M,M,M,M,M,M,M,M,M,M,M,M,M,M,91.72,KMEV 280135Z AUTO 31011KT 10SM CLR 36/02 A3003 RMK AO2,M
HTH,2022-07-28 01:35,-118.6315,38.5448,1282.89,98.60,26.60,7.80,330.00,12.00,0.00,29.97,M,10.00,M,CLR,M,M,M,M,M,M,M,M,M,M,M,M,M,M,92.07,KHTH 280135Z AUTO 33012KT 10SM CLR 37/M03 A2997 RMK A01,M
TMT,2022-07-28 01:35,-117.1971,39.4643,1749.34,M,M,M,360.00,9.00,0.00,30.12,M,10.00,M,CLR,M,M,M,M,M,M,M,M,M,M,M,M,M,M,M,KTMT 280135Z AUTO 36009KT 10SM CLR A3012 RMK AO2,M
CXP,2022-07-28 01:35,-119.7326,39.1923,1431.00,98.60,24.80,7.24,0.00,0.00,0.00,30.05,M,10.00,M,CLR,M,M,M,M,M,M,M,M,M,M,M,M,M,M,91.90,KCXP 280135Z AUTO 00000KT 10SM CLR 37/M04 A3005 RMK AO2,M
VGT,2022-07-28 01:53,-115.1933,36.2111,667.00,95.00,61.00,32.50,180.00,7.00,0.00,29.88,1010.40,10.00,M,CLR,M,M,M,M,M,M,M,M,M,M,M,M,M,M,95.40,KVGT 280153Z 18007KT 10SM CLR 35/16 A2988 RMK AO2 LTG DSNT W-N SLP104 T03500161,M
P68,2022-07-28 01:53,-116.0056,39.6014,1993.00,90.00,30.00,11.70,360.00,9.00,0.00,30.11,1009.90,M,M,M,M,M,M,M,M,M,M,M,M,M,M,M,M,M,85.63,KP68 280153Z AUTO 36009KT 32/M01 A3011 RMK AO1 SLP099 T03221011,M
LOL,2022-07-28 01:53,-118.5701,40.0684,1192.43,101.00,24.10,6.56,10.00,13.00,0.00,29.96,1009.10,10.00,M,CLR,M,M,M,M,M,M,M,M,M,M,M,M,M,M,93.76,KLOL 280153Z AUTO 01013KT 10SM CLR 38/M04 A2996 RMK AO2 SLP091 T03831044,M
ELY,2022-07-28 01:53,-114.8453,39.2950,1909.00,85.00,38.00,18.86,150.00,8.00,0.00,30.15,1010.00,10.00,M,CLR,M,M,M,M,M,M,M,M,M,M,M,M,M,M,81.91,KELY 280153Z AUTO 15008KT 10SM CLR 29/03 A3015 RMK AO2 SLP100 T02940033,M
DRA,2022-07-28 01:53,-116.0278,36.6206,1009.00,96.00,53.00,23.62,120.00,7.00,0.00,29.93,1007.90,10.00,M,CLR,M,M,M,M,M,M,M,M,M,M,M,M,M,M,93.72,KDRA 280153Z AUTO 12007KT 10SM CLR 36/12 A2993 RMK AO2 SLP079 T03560117,M
HTH,2022-07-28 01:55,-118.6315,38.5448,1282.89,96.80,28.40,8.87,330.00,12.00,0.00,29.97,M,10.00,M,CLR,M,M,M,M,M,M,M,M,M,M,M,M,M,M,90.75,KHTH 280155Z AUTO 33012KT 10SM CLR 36/M02 A2997 RMK A01,M
TMT,2022-07-28 01:55,-117.1971,39.4643,1749.34,M,M,M,10.00,9.00,0.00,30.13,M,10.00,M,CLR,M,M,M,M,M,M,M,M,M,M,M,M,M,M,M,KTMT 280155Z AUTO 01009KT 10SM CLR A3013 RMK AO2,M
CXP,2022-07-28 01:55,-119.7326,39.1923,1431.00,96.80,24.80,7.65,340.00,9.00,0.00,30.05,M,10.00,M,CLR,M,M,M,M,M,M,M,M,M,M,M,M,M,M,90.40,KCXP 280155Z AUTO 34009KT 10SM CLR 36/M04 A3005 RMK AO2,M
BVU,2022-07-28 01:55,-114.8611,35.9475,671.00,M,M,M,M,M,0.00,M,M,M,M,M,M,M,M,M,M,M,M,M,M,M,M,M,M,M,M,KBVU 280155Z AUTO RMK AO2 PNO PWINO TSNO,M
RNO,2022-07-28 01:55,-119.7711,39.4839,1341.00,99.00,34.00,10.41,310.00,12.00,0.00,30.02,1009.20,10.00,20.00,FEW,FEW,M,M,13000.00,18000.00,M,M,M,M,M,M,M,M,M,93.31,KRNO 280155Z 31012G20KT 10SM FEW130 FEW180 37/01 A3002 RMK AO2 SLP092 HZ ALQDS T03720011,M
RTS,2022-07-28 01:55,-119.8764,39.6682,1539.00,95.00,21.20,6.95,340.00,14.00,0.00,30.10,M,10.00,M,CLR,M,M,M,M,M,M,M,M,M,M,M,M,M,M,88.62,KRTS 280155Z AUTO 34014KT 10SM CLR 35/M06 A3010 RMK AO2,M
MEV,2022-07-28 01:55,-119.7500,38.9963,1441.42,95.00,39.20,14.44,300.00,9.00,0.00,30.04,M,10.00,M,CLR,M,M,M,M,M,M,M,M,M,M,M,M,M,M,90.57,KMEV 280155Z AUTO 30009KT 10SM CLR 35/04 A3004 RMK AO2,M
BAM,2022-07-28 01:55,-116.8743,40.5990,1382.36,M,M,M,330.00,10.00,0.00,30.03,M,10.00,M,CLR,M,M,M,M,M,M,M,M,M,M,M,M,M,M,M,KBAM 280155Z AUTO 33010KT 10SM CLR A3003 RMK AO1,M
LAS,2022-07-28 01:56,-115.1634,36.0719,663.00,93.00,61.00,34.57,190.00,6.00,0.00,29.89,1009.20,10.00,M,FEW,BKN,BKN,BKN,8000.00,12000.00,17000.00,22000.00,M,M,M,M,M,M,M,93.20,KLAS 280156Z 19006KT 10SM FEW080 BKN120 BKN170 BKN220 34/16 A2989 RMK AO2 SLP092 CB DSNT ALQDS T03390161,M
WMC,2022-07-28 01:56,-117.8072,40.9019,1315.00,98.00,28.90,8.70,350.00,13.00,0.00,30.01,1010.40,10.00,22.00,CLR,M,M,M,M,M,M,M,M,M,M,M,M,M,M,91.89,KWMC 280156Z AUTO 35013G22KT 10SM CLR 37/M02 A3001 RMK AO2 SLP104 T03671017,M
TPH,2022-07-28 01:56,-117.0904,38.0505,1654.00,90.00,39.00,16.74,210.00,9.00,0.00,30.10,1010.00,10.00,M,CLR,M,M,M,M,M,M,M,M,M,M,M,M,M,M,86.07,KTPH 280156Z AUTO 21009KT 10SM CLR 32/04 A3010 RMK AO2 SLP100 T03220039,M
NFL,2022-07-28 01:56,-118.7010,39.4166,1199.00,102.00,26.10,6.89,10.00,10.00,0.00,29.95,1011.40,10.00,M,FEW,SCT,BKN,M,8000.00,12000.00,25000.00,M,M,M,M,M,M,M,M,94.87,KNFL 280156Z 01010KT 10SM FEW080 SCT120 BKN250 39/M03 A2995 RMK AO2 SLP114 T03891033,M
HND,2022-07-28 01:56,-115.1344,35.9729,742.79,90.00,64.00,42.20,220.00,11.00,0.00,29.92,1011.80,10.00,M,CLR,M,M,M,M,M,M,M,M,M,M,M,M,M,M,91.44,KHND 280156Z 22011KT 10SM CLR 32/18 A2992 RMK AO2 SLP118 T03220178,M
EKO,2022-07-28 01:56,-115.7860,40.8242,1367.00,96.00,30.90,10.04,310.00,7.00,0.00,30.04,1010.10,10.00,19.00,CLR,M,M,M,M,M,M,M,M,M,M,M,M,M,M,90.46,KEKO 280156Z AUTO 31007G19KT 10SM CLR 36/M01 A3004 RMK AO2 SLP101 T03561006,M
INS,2022-07-28 01:58,-115.6733,36.5872,955.00,94.30,54.00,25.90,190.00,10.00,0.00,29.93,1008.20,10.00,18.00,SCT,M,M,M,13000.00,M,M,M,M,M,M,M,M,M,M,92.12,KINS 280158Z AUTO 19010G18KT 10SM SCT130 35/12 A2993 RMK AO2 SLP082 T03460123,M
LSV,2022-07-28 01:58,-115.0343,36.2362,570.00,96.30,61.50,31.78,160.00,5.00,0.00,29.87,1008.80,10.00,M,CLR,M,M,M,M,M,M,M,M,M,M,M,M,M,M,97.11,KLSV 280158Z AUTO 16005KT 10SM CLR 36/16 A2987 RMK AO2 LTG DSNT NE SLP088 T03570164 $,M
LSV,2022-07-28 02:12,-115.0343,36.2362,570.00,95.00,62.60,34.39,50.00,31.00,0.00,29.90,1009.90,8.00,38.00,FEW,SCT,M,M,10000.00,12000.00,M,M,SQ,M,M,M,M,M,M,96.22,KLSV 280212Z AUTO 05031G38KT 8SM SQ FEW100 SCT120 35/17 A2990 RMK AO2 PRESRR SLP099 $,M
LSV,2022-07-28 02:14,-115.0343,36.2362,570.00,95.00,62.60,34.39,40.00,28.00,0.00,29.91,1010.20,7.00,38.00,FEW,SCT,M,M,10000.00,12000.00,M,M,SQ,M,M,M,M,M,M,96.22,KLSV 280214Z AUTO 04028G38KT 7SM SQ FEW100 SCT120 35/17 A2991 RMK AO2 WSHFT 08 SLP102 $,M
TMT,2022-07-28 02:15,-117.1971,39.4643,1749.34,M,M,M,20.00,8.00,0.00,30.13,M,10.00,M,CLR,M,M,M,M,M,M,M,M,M,M,M,M,M,M,M,KTMT 280215Z AUTO 02008KT 10SM CLR A3013 RMK AO2,M
HTH,2022-07-28 02:15,-118.6315,38.5448,1282.89,96.80,30.20,9.55,320.00,12.00,0.00,29.97,M,10.00,M,CLR,M,M,M,M,M,M,M,M,M,M,M,M,M,M,90.96,KHTH 280215Z AUTO 32012KT 10SM CLR 36/M01 A2997 RMK A01,M
BVU,2022-07-28 02:15,-114.8611,35.9475,671.00,M,M,M,M,M,0.00,M,M,M,M,M,M,M,M,M,M,M,M,M,M,M,M,M,M,M,M,KBVU 280215Z AUTO RMK AO2 PNO PWINO TSNO,M
CXP,2022-07-28 02:15,-119.7326,39.1923,1431.00,96.80,24.80,7.65,350.00,9.00,0.00,30.06,M,10.00,17.00,CLR,M,M,M,M,M,M,M,M,M,M,M,M,M,M,90.40,KCXP 280215Z AUTO 35009G17KT 10SM CLR 36/M04 A3006 RMK AO2,M
BAM,2022-07-28 02:15,-116.8743,40.5990,1382.36,M,M,M,350.00,10.00,0.00,30.03,M,10.00,M,CLR,M,M,M,M,M,M,M,M,M,M,M,M,M,M,M,KBAM 280215Z AUTO 35010KT 10SM CLR A3003 RMK AO1,M
MEV,2022-07-28 02:15,-119.7500,38.9963,1441.42,93.20,42.80,17.55,310.00,11.00,0.00,30.04,M,10.00,M,CLR,M,M,M,M,M,M,M,M,M,M,M,M,M,M,89.17,KMEV 280215Z AUTO 31011KT 10SM CLR 34/06 A3004 RMK AO2,M
RTS,2022-07-28 02:15,-119.8764,39.6682,1539.00,93.20,21.20,7.34,330.00,8.00,0.00,30.11,M,10.00,M,CLR,M,M,M,M,M,M,M,M,M,M,M,M,M,M,87.29,KRTS 280215Z AUTO 33008KT 10SM CLR 34/M06 A3011 RMK AO2,M
LSV,2022-07-28 02:18,-115.0343,36.2362,570.00,95.00,62.60,34.39,40.00,32.00,0.00,29.91,1010.20,3.00,38.00,FEW,SCT,BKN,M,8000.00,10000.00,12000.00,M,HZ SQ,M,M,M,M,M,M,96.22,KLSV 280218Z AUTO 04032G38KT 3SM HZ SQ FEW080 SCT100 BKN120 35/17 A2991 RMK AO2 SLP102 $,M
LSV,2022-07-28 02:19,-115.0343,36.2362,570.00,95.00,62.60,34.39,40.00,33.00,0.00,29.91,1010.20,3.00,38.00,FEW,SCT,BKN,M,8000.00,10000.00,12000.00,M,-DZ SQ,M,M,M,M,M,M,96.22,KLSV 280219Z AUTO 04033G38KT 3SM -DZ SQ FEW080 SCT100 BKN120 35/17 A2991 RMK AO2 DZB18 SLP102 $,M
LSV,2022-07-28 02:20,-115.0343,36.2362,570.00,93.20,64.40,38.73,40.00,34.00,0.00,29.92,1010.60,2.25,40.00,SCT,SCT,BKN,M,8000.00,10000.00,12000.00,M,-DZ SQ,M,M,M,M,M,M,95.20,KLSV 280220Z AUTO 04034G40KT 2 1/4SM -DZ SQ SCT080 SCT100 BKN120 34/18 A2992 RMK AO2 VIS 2 1/4V10 DZB18 SLP106 $,M
LSV,2022-07-28 02:21,-115.0343,36.2362,570.00,93.20,64.40,38.73,40.00,34.00,0.00,29.92,1010.60,1.38,40.00,SCT,SCT,BKN,M,8000.00,10000.00,12000.00,M,-DZ SQ,M,M,M,M,M,M,95.20,KLSV 280221Z AUTO 04034G40KT 1 3/8SM -DZ SQ SCT080 SCT100 BKN120 34/18 A2992 RMK AO2 VIS 1 3/8V9 DZB18 SLP106 $,M
LSV,2022-07-28 02:22,-115.0343,36.2362,570.00,93.20,64.40,38.73,40.00,33.00,0.00,29.92,1010.60,1.00,40.00,SCT,SCT,BKN,M,8000.00,10000.00,12000.00,M,-DZ SQ,M,M,M,M,M,M,95.20,KLSV 280222Z AUTO 04033G40KT 1SM R21L/5000VP6000FT -DZ SQ SCT080 SCT100 BKN120 34/18 A2992 RMK AO2 VIS 1V8 DZB18 SLP106 $,M
LSV,2022-07-28 02:26,-115.0343,36.2362,570.00,91.40,64.40,40.96,30.00,41.00,0.00,29.92,1010.60,0.88,47.00,BKN,BKN,M,M,8000.00,12000.00,M,M,-DZ SQ,M,M,M,M,M,M,93.19,KLSV 280226Z AUTO 03041G47KT 7/8SM R21L/4000VP6000FT -DZ SQ BKN080 BKN120 33/18 A2992 RMK AO2 VIS 7/8V5 DZB18 SLP106 $,M
LSV,2022-07-28 02:29,-115.0343,36.2362,570.00,89.60,62.60,40.69,40.00,38.00,0.00,29.93,1011.00,0.62,47.00,BKN,BKN,M,M,8000.00,12000.00,M,M,-DZ SQ,M,M,M,M,M,M,90.32,KLSV 280229Z AUTO 04038G47KT 5/8SM R21L/4000VP6000FT -DZ SQ BKN080 BKN120 32/17 A2993 RMK AO2 VIS 5/8V2 1/4 DZB18 SLP110 $,M
VGT,2022-07-28 02:32,-115.1933,36.2111,667.00,87.00,61.00,41.62,50.00,37.00,0.00,29.93,M,4.00,51.00,SCT,BKN,M,M,8000.00,11000.00,M,M,HZ,M,M,M,51.00,50.00,2022-07-28 02:32,87.15,KVGT 280232Z 05037G51KT 4SM HZ SCT080 BKN110 31/16 A2993 RMK AO2 PK WND 05051/0232 LTG DSNT N T03060161,M
TMT,2022-07-28 02:35,-117.1971,39.4643,1749.34,M,M,M,20.00,8.00,0.00,30.13,M,10.00,M,CLR,M,M,M,M,M,M,M,M,M,M,M,M,M,M,M,KTMT 280235Z AUTO 02008KT 10SM CLR A3013 RMK AO2,M
CXP,2022-07-28 02:35,-119.7326,39.1923,1431.00,95.00,26.60,8.71,320.00,13.00,0.00,30.06,M,10.00,M,CLR,M,M,M,M,M,M,M,M,M,M,M,M,M,M,89.08,KCXP 280235Z AUTO 32013KT 10SM CLR 35/M03 A3006 RMK AO2,M
MEV,2022-07-28 02:35,-119.7500,38.9963,1441.42,89.60,44.60,21.04,330.00,11.00,0.00,30.04,M,10.00,M,CLR,M,M,M,M,M,M,M,M,M,M,M,M,M,M,86.07,KMEV 280235Z AUTO 33011KT 10SM CLR 32/07 A3004 RMK AO2,M
BAM,2022-07-28 02:35,-116.8743,40.5990,1382.36,M,M,M,350.00,11.00,0.00,30.03,M,10.00,M,CLR,M,M,M,M,M,M,M,M,M,M,M,M,M,M,M,KBAM 280235Z AUTO 35011KT 10SM CLR A3003 RMK AO1,M
HTH,2022-07-28 02:35,-118.6315,38.5448,1282.89,95.00,35.60,12.53,340.00,11.00,0.00,29.98,M,10.00,M,CLR,M,M,M,M,M,M,M,M,M,M,M,M,M,M,90.25,KHTH 280235Z AUTO 34011KT 10SM CLR 35/02 A2998 RMK A01,M
BVU,2022-07-28 02:35,-114.8611,35.9475,671.00,M,M,M,M,M,0.00,M,M,M,M,M,M,M,M,M,M,M,M,M,M,M,M,M,M,M,M,KBVU 280235Z AUTO RMK AO2 PNO PWINO TSNO,M
RTS,2022-07-28 02:35,-119.8764,39.6682,1539.00,91.40,21.20,7.77,330.00,8.00,0.00,30.11,M,10.00,M,CLR,M,M,M,M,M,M,M,M,M,M,M,M,M,M,85.96,KRTS 280235Z AUTO 33008KT 10SM CLR 33/M06 A3011 RMK AO2,M
VGT,2022-07-28 02:38,-115.1933,36.2111,667.00,85.00,62.00,46.42,50.00,29.00,T,29.96,M,2.50,51.00,BKN,BKN,M,M,8000.00,11000.00,M,M,-RA,M,M,M,51.00,50.00,2022-07-28 02:32,85.49,KVGT 280238Z 05029G51KT 2 1/2SM -RA BKN080 BKN110 29/17 A2996 RMK AO2 PK WND 05051/0232 WSHFT 0224 LTG DSNT N RAB34 PRESRR P0000 T02940167,M
LSV,2022-07-28 02:38,-115.0343,36.2362,570.00,87.80,64.40,45.88,30.00,39.00,0.00,29.94,1011.30,0.38,49.00,BKN,BKN,M,M,8000.00,10000.00,M,M,-DZ SQ,M,M,M,M,M,M,89.33,KLSV 280238Z AUTO 03039G49KT 3/8SM R21L/3000V5000FT -DZ SQ BKN080 BKN100 31/18 A2994 RMK AO2 DZB18 SLP113 $,M
LSV,2022-07-28 02:40,-115.0343,36.2362,570.00,86.00,64.40,48.58,30.00,40.00,0.00,29.95,1011.70,0.50,49.00,BKN,BKN,M,M,8000.00,10000.00,M,M,-DZ SQ,M,M,M,M,M,M,87.49,KLSV 280240Z AUTO 03040G49KT 1/2SM R21L/3000VP6000FT -DZ SQ BKN080 BKN100 30/18 A2995 RMK AO2 DZB18 SLP117 $,M
LSV,2022-07-28 02:52,-115.0343,36.2362,570.00,84.20,64.40,51.47,30.00,41.00,0.00,29.96,1012.10,0.75,52.00,BKN,BKN,BKN,M,8000.00,10000.00,15000.00,M,-DZ SQ,M,M,M,M,M,M,85.71,KLSV 280252Z AUTO 03041G52KT 3/4SM R21L/2400VP6000FT -DZ SQ BKN080 BKN100 BKN150 29/18 A2996 RMK AO2 DZB18 SLP121 $,M
DRA,2022-07-28 02:53,-116.0278,36.6206,1009.00,93.00,56.00,28.79,90.00,9.00,0.00,29.94,1008.10,10.00,M,CLR,M,M,M,M,M,M,M,M,M,M,M,M,M,M,91.29,KDRA 280253Z AUTO 09009KT 10SM CLR 34/13 A2994 RMK AO2 SLP081 T03390133 55001,M
P68,2022-07-28 02:53,-116.0056,39.6014,1993.00,86.00,28.00,12.23,350.00,7.00,0.00,30.13,1010.10,M,M,M,M,M,M,M,M,M,M,M,M,M,M,M,M,M,82.50,KP68 280253Z AUTO 35007KT 30/M02 A3013 RMK AO1 SLP101 T03001022 53002,M
VGT,2022-07-28 02:53,-115.1933,36.2111,667.00,84.00,61.00,45.96,50.00,29.00,T,29.96,1013.60,10.00,40.00,OVC,M,M,M,8500.00,M,M,M,M,M,M,M,51.00,50.00,2022-07-28 02:32,84.32,KVGT 280253Z 05029G40KT 10SM OVC085 29/16 A2996 RMK AO2 PK WND 05051/0232 WSHFT 0224 LTG DSNT N RAB34E44 SLP136 P0000 60000 T02890161 53029,M
LOL,2022-07-28 02:53,-118.5701,40.0684,1192.43,96.00,25.00,7.88,350.00,9.00,0.00,29.97,1009.20,10.00,M,CLR,M,M,M,M,M,M,M,M,M,M,M,M,M,M,89.84,KLOL 280253Z AUTO 35009KT 10SM CLR 36/M04 A2997 RMK AO2 SLP092 T03561039 55000,M
ELY,2022-07-28 02:53,-114.8453,39.2950,1909.00,79.00,40.00,24.70,210.00,8.00,0.00,30.16,1010.30,10.00,M,CLR,M,M,M,M,M,M,M,M,M,M,M,M,M,M,79.00,KELY 280253Z AUTO 21008KT 10SM CLR 26/04 A3016 RMK AO2 SLP103 T02610044 55000,M
RTS,2022-07-28 02:55,-119.8764,39.6682,1539.00,87.80,21.20,8.70,310.00,7.00,0.00,30.11,M,10.00,M,CLR,M,M,M,M,M,M,M,M,M,M,M,M,M,M,83.33,KRTS 280255Z AUTO 31007KT 10SM CLR 31/M06 A3011 RMK AO2,M
RNO,2022-07-28 02:55,-119.7711,39.4839,1341.00,96.00,32.00,10.49,310.00,9.00,0.00,30.03,1009.80,10.00,M,FEW,FEW,M,M,13000.00,18000.00,M,M,M,M,M,M,M,M,M,90.61,KRNO 280255Z 31009KT 10SM FEW130 FEW180 36/00 A3003 RMK AO2 SLP098 HZ ALQDS T03560000 55001,M
MEV,2022-07-28 02:55,-119.7500,38.9963,1441.42,84.20,51.80,32.73,130.00,5.00,0.00,30.05,M,10.00,M,CLR,M,M,M,M,M,M,M,M,M,M,M,M,M,M,82.48,KMEV 280255Z AUTO 13005KT 10SM CLR 29/11 A3005 RMK AO2,M
BAM,2022-07-28 02:55,-116.8743,40.5990,1382.36,M,M,M,350.00,7.00,0.00,30.03,M,10.00,M,CLR,M,M,M,M,M,M,M,M,M,M,M,M,M,M,M,KBAM 280255Z AUTO 35007KT 10SM CLR A3003 RMK AO1,M
HTH,2022-07-28 02:55,-118.6315,38.5448,1282.89,95.00,32.00,10.85,340.00,13.00,0.00,29.98,M,10.00,M,CLR,M,M,M,M,M,M,M,M,M,M,M,M,M,M,89.71,KHTH 280255Z AUTO 34013KT 10SM CLR 35/M00 A2998 RMK A01,M
TMT,2022-07-28 02:55,-117.1971,39.4643,1749.34,M,M,M,10.00,7.00,0.00,30.14,M,10.00,M,CLR,M,M,M,M,M,M,M,M,M,M,M,M,M,M,M,KTMT 280255Z AUTO 01007KT 10SM CLR A3014 RMK AO2,M
CXP,2022-07-28 02:55,-119.7326,39.1923,1431.00,93.20,32.00,11.48,320.00,10.00,0.00,30.06,M,10.00,15.00,CLR,M,M,M,M,M,M,M,M,M,M,M,M,M,M,88.31,KCXP 280255Z AUTO 32010G15KT 10SM CLR 34/M00 A3006 RMK AO2,M
BVU,2022-07-28 02:55,-114.8611,35.9475,671.00,M,M,M,M,M,0.00,M,M,M,M,M,M,M,M,M,M,M,M,M,M,M,M,M,M,M,M,KBVU 280255Z AUTO RMK AO2 PNO PWINO TSNO,M
LSV,2022-07-28 02:55,-115.0343,36.2362,570.00,82.40,64.40,54.55,30.00,39.00,0.00,29.96,1012.10,1.00,52.00,BKN,BKN,M,M,8000.00,15000.00,M,M,-DZ SQ,M,M,M,M,M,M,83.98,KLSV 280255Z AUTO 03039G52KT 1SM R21L/2400VP6000FT -DZ SQ BKN080 BKN150 28/18 A2996 RMK AO2 VIS 1/2V1 DZB18 SLP121 $,M
LAS,2022-07-28 02:56,-115.1634,36.0719,663.00,83.00,62.00,49.51,20.00,37.00,0.00,29.97,1012.20,4.00,49.00,FEW,BKN,BKN,OVC,1200.00,8000.00,11000.00,16000.00,BLDU,M,M,M,52.00,30.00,2022-07-28 02:40,83.70,KLAS 280256Z 02037G49KT 4SM BLDU FEW012 BKN080CB BKN110 OVC160 28/17 A2997 RMK AO2 PK WND 03052/0240 LTG DSNT N SLP122 CB N-NE AND W T02830167 53027,M
WMC,2022-07-28 02:56,-117.8072,40.9019,1315.00,93.00,28.90,10.18,360.00,9.00,0.00,30.02,1010.40,10.00,M,CLR,M,M,M,M,M,M,M,M,M,M,M,M,M,M,87.79,KWMC 280256Z AUTO 36009KT 10SM CLR 34/M02 A3002 RMK AO2 SLP104 T03391017 53003,M
LSV,2022-07-28 02:56,-115.0343,36.2362,570.00,82.40,66.20,58.08,30.00,37.00,0.00,29.96,1012.10,1.12,47.00,BKN,BKN,M,M,8000.00,15000.00,M,M,-DZ SQ,M,M,M,M,M,M,84.63,KLSV 280256Z AUTO 03037G47KT 1 1/8SM -DZ SQ BKN080 BKN150 28/19 A2996 RMK AO2 VIS 1/2V1 1/8 DZB18 SLP121 $,M
NFL,2022-07-28 02:56,-118.7010,39.4166,1199.00,95.00,33.00,11.34,340.00,6.00,0.00,29.96,1011.60,10.00,M,SCT,BKN,BKN,M,8000.00,12000.00,25000.00,M,M,M,M,M,M,M,M,89.86,KNFL 280256Z 34006KT 10SM SCT080 BKN120 BKN250 35/01 A2996 RMK AO2 SLP116 T03500006 55003,M
HND,2022-07-28 02:56,-115.1344,35.9729,742.79,87.00,63.00,44.66,40.00,21.00,0.00,29.99,1014.20,7.00,31.00,SCT,BKN,M,M,8000.00,11000.00,M,M,M,M,M,M,31.00,10.00,2022-07-28 02:52,87.96,KHND 280256Z 04021G31KT 7SM SCT080 BKN110 31/17 A2999 RMK AO2 PK WND 01031/0252 LTG DSNT N PRESRR SLP142 T03060172 53019,M
TPH,2022-07-28 02:56,-117.0904,38.0505,1654.00,88.00,41.00,19.28,210.00,9.00,0.00,30.11,1010.40,10.00,M,CLR,M,M,M,M,M,M,M,M,M,M,M,M,M,M,84.46,KTPH 280256Z AUTO 21009KT 10SM CLR 31/05 A3011 RMK AO2 SLP104 T03110050 55001,M
EKO,2022-07-28 02:56,-115.7860,40.8242,1367.00,92.00,27.00,9.75,340.00,10.00,0.00,30.05,1010.40,10.00,M,CLR,M,M,M,M,M,M,M,M,M,M,M,M,M,M,86.77,KEKO 280256Z AUTO 34010KT 10SM CLR 33/M03 A3005 RMK AO2 SLP104 T03331028 53003,M
LSV,2022-07-28 02:57,-115.0343,36.2362,570.00,82.40,66.20,58.08,30.00,35.00,0.00,29.97,1012.40,1.38,47.00,BKN,BKN,M,M,8000.00,15000.00,M,M,-DZ SQ,M,M,M,M,M,M,84.63,KLSV 280257Z AUTO 03035G47KT 1 3/8SM -DZ SQ BKN080 BKN150 28/19 A2997 RMK AO2 VIS 1/2V1 3/8 DZB18 SLP124 $,M
LSV,2022-07-28 02:58,-115.0343,36.2362,570.00,82.80,65.80,56.54,20.00,36.00,0.02,29.97,1012.40,1.75,47.00,BKN,BKN,M,M,8000.00,15000.00,M,M,-DZ SQ,M,M,M,52.00,20.00,2022-07-28 02:44,84.89,KLSV 280258Z AUTO 02036G47KT 1 3/4SM -DZ SQ BKN080 BKN150 28/19 A2997 RMK AO2 PK WND 02052/44 VIS 1/2V1 3/4 DZB18 SLP124 P0002 60002 T02820188 53038 $,M
INS,2022-07-28 02:58,-115.6733,36.5872,955.00,91.00,55.20,29.88,120.00,8.00,0.00,29.96,1009.20,10.00,M,OVC,M,M,M,12000.00,M,M,M,M,M,M,M,M,M,M,89.08,KINS 280258Z AUTO 12008KT 10SM OVC120 33/13 A2996 RMK AO2 LTG DSNT E SLP092 T03280129 53008,M
LSV,2022-07-28 02:59,-115.0343,36.2362,570.00,82.40,66.20,58.08,20.00,38.00,0.00,29.96,1012.10,2.00,47.00,BKN,BKN,M,M,8000.00,15000.00,M,M,-DZ SQ,M,M,M,M,M,M,84.63,KLSV 280259Z AUTO 02038G47KT 2SM -DZ SQ BKN080 BKN150 28/19 A2996 RMK AO2 VIS 1/2V2 SLP121 $,M
LSV,2022-07-28 03:00,-115.0343,36.2362,570.00,82.40,66.20,58.08,20.00,37.00,0.00,29.96,1012.10,2.50,47.00,BKN,BKN,M,M,8000.00,15000.00,M,M,-DZ SQ,M,M,M,M,M,M,84.63,KLSV 280300Z AUTO 02037G47KT 2 1/2SM -DZ SQ BKN080 BKN150 28/19 A2996 RMK AO2 VIS 5/8V2 1/2 SLP121 $,M
LSV,2022-07-28 03:02,-115.0343,36.2362,570.00,82.40,66.20,58.08,20.00,37.00,0.00,29.96,1012.10,3.00,47.00,BKN,BKN,OVC,M,8000.00,10000.00,15000.00,M,-DZ SQ,M,M,M,M,M,M,84.63,KLSV 280302Z AUTO 02037G47KT 3SM -DZ SQ BKN080 BKN100 OVC150 28/19 A2996 RMK AO2 LTG DSNT E SLP121 $,M
LSV,2022-07-28 03:05,-115.0343,36.2362,570.00,82.40,66.20,58.08,20.00,37.00,0.00,29.97,1012.40,4.00,45.00,BKN,BKN,OVC,M,8000.00,10000.00,15000.00,M,-DZ SQ,M,M,M,M,M,M,84.63,KLSV 280305Z AUTO 02037G45KT 4SM -DZ SQ BKN080 BKN100 OVC150 28/19 A2997 RMK AO2 LTG DSNT E SLP124 $,M
HND,2022-07-28 03:07,-115.1344,35.9729,742.79,82.40,62.60,51.21,20.00,26.00,0.00,30.02,M,8.00,33.00,SCT,BKN,M,M,8000.00,11000.00,M,M,M,M,M,M,33.00,20.00,2022-07-28 03:04,83.41,KHND 280307Z AUTO 02026G33KT 8SM SCT080 BKN110 28/17 A3002 RMK AO2 PK WND 02033/0304 WSHFT 0247 LTG DSNT N AND NE PRESRR,M
INS,2022-07-28 03:10,-115.6733,36.5872,955.00,89.60,59.00,35.81,100.00,29.00,0.00,30.00,1010.60,8.00,40.00,SCT,OVC,M,M,10000.00,12000.00,M,M,M,M,M,M,M,M,M,88.86,KINS 280310Z AUTO 10029G40KT 8SM SCT100 OVC120 32/15 A3000 RMK AO2 LTG DSNT NE PRESRR SLP106,M
CXP,2022-07-28 03:15,-119.7326,39.1923,1431.00,91.40,30.20,11.28,340.00,8.00,0.00,30.07,M,10.00,M,CLR,M,M,M,M,M,M,M,M,M,M,M,M,M,M,86.71,KCXP 280315Z AUTO 34008KT 10SM CLR 33/M01 A3007 RMK AO2,M
BVU,2022-07-28 03:15,-114.8611,35.9475,671.00,M,M,M,M,M,0.00,M,M,M,M,M,M,M,M,M,M,M,M,M,M,M,M,M,M,M,M,KBVU 280315Z AUTO RMK AO2 PNO PWINO TSNO,M
RTS,2022-07-28 03:15,-119.8764,39.6682,1539.00,84.20,24.80,11.35,340.00,4.00,0.00,30.12,M,10.00,M,CLR,M,M,M,M,M,M,M,M,M,M,M,M,M,M,81.00,KRTS 280315Z AUTO 34004KT 10SM CLR 29/M04 A3012 RMK AO2,M
MEV,2022-07-28 03:15,-119.7500,38.9963,1441.42,82.40,48.20,30.35,120.00,4.00,0.00,30.06,M,10.00,M,CLR,M,M,M,M,M,M,M,M,M,M,M,M,M,M,80.80,KMEV 280315Z AUTO 12004KT 10SM CLR 28/09 A3006 RMK AO2,M
BAM,2022-07-28 03:15,-116.8743,40.5990,1382.36,M,M,M,340.00,7.00,0.00,30.04,M,10.00,M,CLR,M,M,M,M,M,M,M,M,M,M,M,M,M,M,M,KBAM 280315Z AUTO 34007KT 10SM CLR A3004 RMK AO1,M
HTH,2022-07-28 03:15,-118.6315,38.5448,1282.89,93.20,35.60,13.25,340.00,10.00,0.00,29.98,M,10.00,M,CLR,M,M,M,M,M,M,M,M,M,M,M,M,M,M,88.76,KHTH 280315Z AUTO 34010KT 10SM CLR 34/02 A2998 RMK A01,M
TMT,2022-07-28 03:15,-117.1971,39.4643,1749.34,M,M,M,10.00,7.00,0.00,30.14,M,10.00,M,CLR,M,M,M,M,M,M,M,M,M,M,M,M,M,M,M,KTMT 280315Z AUTO 01007KT 10SM CLR A3014 RMK AO2,M
LSV,2022-07-28 03:20,-115.0343,36.2362,570.00,80.60,68.00,65.54,10.00,26.00,0.00,29.99,1013.10,10.00,39.00,OVC,M,M,M,9000.00,M,M,M,VCTS SQ,M,M,M,M,M,M,83.29,KLSV 280320Z AUTO 01026G39KT 10SM VCTS SQ OVC090 27/20 A2999 RMK AO2 DZE05RAB05E20 PRESRR SLP131 $,M
LSV,2022-07-28 03:23,-115.0343,36.2362,570.00,78.80,68.00,69.52,20.00,25.00,0.00,29.99,1013.20,9.00,M,BKN,M,M,M,9000.00,M,M,M,VCTS +RA SQ,M,M,M,M,M,M,78.80,KLSV 280323Z AUTO 02025KT 9SM VCTS +RA SQ BKN090 26/20 A2999 RMK AO2 DZE05RAB05E20RAB23 SLP132 $,M
VGT,2022-07-28 03:32,-115.1933,36.2111,667.00,81.00,63.00,54.36,40.00,25.00,T,29.99,M,10.00,40.00,FEW,BKN,M,M,6000.00,8500.00,M,M,VCTS,M,M,M,44.00,40.00,2022-07-28 03:22,82.28,KVGT 280332Z 04025G40KT 10SM VCTS FEW060 BKN085 27/17 A2999 RMK AO2 PK WND 04044/0322 LTG DSNT ALQDS RAB03E15 P0000 T02720172,M
LAS,2022-07-28 03:32,-115.1634,36.0719,663.00,80.00,63.00,55.98,40.00,27.00,0.00,30.00,M,7.00,39.00,FEW,BKN,BKN,OVC,1200.00,8000.00,11000.00,16000.00,VCTS,M,M,M,49.00,20.00,2022-07-28 02:57,81.50,KLAS 280332Z 04027G39KT 7SM VCTS FEW012 BKN080CB BKN110 OVC160 27/17 A3000 RMK AO2 PK WND 02049/0257 LTG DSNT NW-NE TSE26 CB N-NE AND W T02670172,M
RTS,2022-07-28 03:35,-119.8764,39.6682,1539.00,82.40,24.80,12.03,320.00,7.00,0.00,30.12,M,10.00,M,CLR,M,M,M,M,M,M,M,M,M,M,M,M,M,M,79.79,KRTS 280335Z AUTO 32007KT 10SM CLR 28/M04 A3012 RMK AO2,M
MEV,2022-07-28 03:35,-119.7500,38.9963,1441.42,84.20,44.60,24.99,0.00,0.00,0.00,30.07,M,10.00,M,CLR,M,M,M,M,M,M,M,M,M,M,M,M,M,M,81.73,KMEV 280335Z AUTO 00000KT 10SM CLR 29/07 A3007 RMK AO2,M
CXP,2022-07-28 03:35,-119.7326,39.1923,1431.00,89.60,30.20,11.94,330.00,11.00,0.00,30.07,M,10.00,M,CLR,M,M,M,M,M,M,M,M,M,M,M,M,M,M,85.34,KCXP 280335Z AUTO 33011KT 10SM CLR 32/M01 A3007 RMK AO2,M
BVU,2022-07-28 03:35,-114.8611,35.9475,671.00,M,M,M,M,M,0.00,M,M,M,M,M,M,M,M,M,M,M,M,M,M,M,M,M,M,M,M,KBVU 280335Z AUTO RMK AO2 PNO PWINO TSNO,M
HTH,2022-07-28 03:35,-118.6315,38.5448,1282.89,91.40,35.60,14.02,340.00,10.00,0.00,29.99,M,10.00,M,CLR,M,M,M,M,M,M,M,M,M,M,M,M,M,M,87.17,KHTH 280335Z AUTO 34010KT 10SM CLR 33/02 A2999 RMK A01,M
BAM,2022-07-28 03:35,-116.8743,40.5990,1382.36,M,M,M,330.00,7.00,0.00,30.04,M,10.00,M,CLR,M,M,M,M,M,M,M,M,M,M,M,M,M,M,M,KBAM 280335Z AUTO 33007KT 10SM CLR A3004 RMK AO1,M
TMT,2022-07-28 03:35,-117.1971,39.4643,1749.34,M,M,M,10.00,6.00,0.00,30.15,M,10.00,M,CLR,M,M,M,M,M,M,M,M,M,M,M,M,M,M,M,KTMT 280335Z AUTO 01006KT 10SM CLR A3015 RMK AO2,M
LAS,2022-07-28 03:35,-115.1634,36.0719,663.00,81.00,63.00,54.36,30.00,25.00,0.00,30.01,M,7.00,39.00,FEW,BKN,BKN,OVC,1200.00,8000.00,11000.00,16000.00,TS,M,M,M,49.00,20.00,2022-07-28 02:57,82.28,KLAS 280335Z 03025G39KT 7SM TS FEW012 BKN080CB BKN110 OVC160 27/17 A3001 RMK AO2 PK WND 02049/0257 LTG DSNT ALQDS TSE26B35 OCNL LTGICCG NW-N-E TS NW-N-E MOV S T02720172,M
LSV,2022-07-28 03:41,-115.0343,36.2362,570.00,73.40,66.20,78.19,50.00,21.00,0.00,29.98,1013.00,4.00,26.00,BKN,BKN,M,M,3700.00,9000.00,M,M,+RA,M,M,M,M,M,M,73.40,KLSV 280341Z AUTO 05021G26KT 4SM +RA BKN037 BKN090 23/19 A2998 RMK AO2 LTG DSNT NE-SE AND SW DZE05RAB05E20RAB23 SLP130 $,M
LSV,2022-07-28 03:48,-115.0343,36.2362,570.00,73.40,68.00,83.21,50.00,20.00,0.00,29.98,1013.00,5.00,M,BKN,BKN,M,M,3300.00,9500.00,M,M,VCTS HZ,M,M,M,M,M,M,73.40,KLSV 280348Z AUTO 05020KT 5SM VCTS HZ BKN033 BKN095 23/20 A2998 RMK AO2 DZE05RAB05E20RAB23E48 SLP130 $,M
LSV,2022-07-28 03:52,-115.0343,36.2362,570.00,73.40,69.80,88.51,50.00,19.00,0.00,29.98,1013.00,7.00,26.00,BKN,M,M,M,3300.00,M,M,M,VCTS -RA,M,M,M,M,M,M,73.40,KLSV 280352Z AUTO 05019G26KT 7SM VCTS -RA BKN033 23/21 A2998 RMK AO2 DZE05RAB05E20RAB23E48RAB52 SLP130 $,M
P68,2022-07-28 03:53,-116.0056,39.6014,1993.00,82.00,28.00,13.92,330.00,4.00,0.00,30.14,1010.40,M,M,M,M,M,M,M,M,M,M,M,M,M,M,M,M,M,79.66,KP68 280353Z AUTO 33004KT 28/M02 A3014 RMK AO1 SLP104 T02781022,M
DRA,2022-07-28 03:53,-116.0278,36.6206,1009.00,84.00,61.00,45.96,110.00,34.00,0.00,29.98,1010.00,10.00,48.00,CLR,M,M,M,M,M,M,M,M,M,M,M,48.00,110.00,2022-07-28 03:46,84.32,KDRA 280353Z AUTO 11034G48KT 10SM CLR 29/16 A2998 RMK AO2 PK WND 11048/0346 SLP100 T02890161,M
ELY,2022-07-28 03:53,-114.8453,39.2950,1909.00,75.00,40.00,28.20,170.00,5.00,0.00,30.17,1010.60,10.00,M,CLR,M,M,M,M,M,M,M,M,M,M,M,M,M,M,75.00,KELY 280353Z AUTO 17005KT 10SM CLR 24/04 A3017 RMK AO2 SLP106 T02390044,M
LOL,2022-07-28 03:53,-118.5701,40.0684,1192.43,92.00,26.10,9.39,360.00,9.00,0.00,29.98,1009.60,10.00,M,CLR,M,M,M,M,M,M,M,M,M,M,M,M,M,M,86.69,KLOL 280353Z AUTO 36009KT 10SM CLR 33/M03 A2998 RMK AO2 SLP096 T03331033,M
VGT,2022-07-28 03:53,-115.1933,36.2111,667.00,81.00,62.00,52.66,50.00,16.00,T,30.00,1015.00,10.00,30.00,SCT,OVC,M,M,9000.00,11000.00,M,M,VCTS,M,M,M,44.00,40.00,2022-07-28 03:22,82.06,KVGT 280353Z 05016G30KT 10SM VCTS SCT090 OVC110 27/17 A3000 RMK AO2 PK WND 04044/0322 LTG DSNT ALQDS RAB03E15 SLP150 P0000 T02720167,M
RNO,2022-07-28 03:55,-119.7711,39.4839,1341.00,91.00,37.00,15.00,280.00,7.00,0.00,30.05,1010.40,10.00,M,FEW,FEW,M,M,12000.00,18000.00,M,M,M,M,M,M,M,M,M,86.86,KRNO 280355Z 28007KT 10SM FEW120 FEW180 33/03 A3005 RMK AO2 SLP104 HZ DSNT S THRU W T03280028,M
BVU,2022-07-28 03:55,-114.8611,35.9475,671.00,M,M,M,M,M,0.00,M,M,M,M,M,M,M,M,M,M,M,M,M,M,M,M,M,M,M,M,KBVU 280355Z AUTO RMK AO2 PNO PWINO TSNO,M
CXP,2022-07-28 03:55,-119.7326,39.1923,1431.00,87.80,30.20,12.64,310.00,10.00,0.00,30.08,M,10.00,M,CLR,M,M,M,M,M,M,M,M,M,M,M,M,M,M,84.01,KCXP 280355Z AUTO 31010KT 10SM CLR 31/M01 A3008 RMK AO2,M
RTS,2022-07-28 03:55,-119.8764,39.6682,1539.00,82.40,26.60,12.97,280.00,8.00,0.00,30.13,M,10.00,M,CLR,M,M,M,M,M,M,M,M,M,M,M,M,M,M,79.92,KRTS 280355Z AUTO 28008KT 10SM CLR 28/M03 A3013 RMK AO2,M
MEV,2022-07-28 03:55,-119.7500,38.9963,1441.42,78.80,46.40,31.90,0.00,0.00,0.00,30.07,M,10.00,M,CLR,M,M,M,M,M,M,M,M,M,M,M,M,M,M,78.80,KMEV 280355Z AUTO 00000KT 10SM CLR 26/08 A3007 RMK AO2,M
BAM,2022-07-28 03:55,-116.8743,40.5990,1382.36,M,M,M,340.00,7.00,0.00,30.05,M,10.00,M,CLR,M,M,M,M,M,M,M,M,M,M,M,M,M,M,M,KBAM 280355Z AUTO 34007KT 10SM CLR A3005 RMK AO1,M
HTH,2022-07-28 03:55,-118.6315,38.5448,1282.89,89.60,41.00,18.33,320.00,8.00,0.00,29.99,M,10.00,M,CLR,M,M,M,M,M,M,M,M,M,M,M,M,M,M,85.82,KHTH 280355Z AUTO 32008KT 10SM CLR 32/05 A2999 RMK A01,M
TMT,2022-07-28 03:55,-117.1971,39.4643,1749.34,M,M,M,10.00,4.00,0.00,30.15,M,10.00,M,CLR,M,M,M,M,M,M,M,M,M,M,M,M,M,M,M,KTMT 280355Z AUTO 01004KT 10SM CLR A3015 RMK AO2 LTG DSNT S,M
WMC,2022-07-28 03:56,-117.8072,40.9019,1315.00,86.00,28.00,12.23,50.00,3.00,0.00,30.04,1011.00,10.00,M,CLR,M,M,M,M,M,M,M,M,M,M,M,M,M,M,82.50,KWMC 280356Z AUTO 05003KT 10SM CLR 30/M02 A3004 RMK AO2 SLP110 T03001022,M
LAS,2022-07-28 03:56,-115.1634,36.0719,663.00,78.00,64.00,61.92,40.00,15.00,T,30.02,1014.20,8.00,28.00,FEW,BKN,BKN,OVC,1200.00,7000.00,9000.00,16000.00,-TSRA,M,M,M,49.00,20.00,2022-07-28 02:57,78.10,KLAS 280356Z 04015G28KT 8SM -TSRA FEW012 BKN070CB BKN090 OVC160 26/18 A3002 RMK AO2 PK WND 02049/0257 LTG DSNT ALQDS RAB41 TSE26B35 SLP142 OCNL LTGICCG NW-NE-E TS NW-NE-E MOV S P0000 T02560178 $,M
HND,2022-07-28 03:56,-115.1344,35.9729,742.79,74.00,67.00,78.77,70.00,13.00,T,30.05,1016.50,10.00,19.00,SCT,OVC,M,M,8000.00,11000.00,M,M,VCTS -RA,M,M,M,33.00,20.00,2022-07-28 03:04,73.90,KHND 280356Z AUTO 07013G19KT 10SM VCTS -RA SCT080 OVC110 23/19 A3005 RMK AO2 PK WND 02033/0304 WSHFT 0247 LTG DSNT ALQDS TSB50RAB22 SLP165 P0000 T02330194,M
NFL,2022-07-28 03:56,-118.7010,39.4166,1199.00,87.00,33.00,14.53,350.00,7.00,0.00,29.97,1012.00,10.00,M,SCT,SCT,BKN,M,8000.00,12000.00,25000.00,M,M,M,M,M,M,M,M,83.52,KNFL 280356Z 35007KT 10SM SCT080 SCT120 BKN250 31/01 A2997 RMK AO2 SLP120 T03060006,M
EKO,2022-07-28 03:56,-115.7860,40.8242,1367.00,87.00,25.00,10.43,330.00,10.00,0.00,30.06,1010.80,10.00,M,CLR,M,M,M,M,M,M,M,M,M,M,M,M,M,M,83.06,KEKO 280356Z AUTO 33010KT 10SM CLR 31/M04 A3006 RMK AO2 SLP108 T03061039,M
TPH,2022-07-28 03:56,-117.0904,38.0505,1654.00,84.00,42.00,22.85,220.00,6.00,0.00,30.12,1010.90,10.00,M,CLR,M,M,M,M,M,M,M,M,M,M,M,M,M,M,81.43,KTPH 280356Z AUTO 22006KT 10SM CLR 29/06 A3012 RMK AO2 SLP109 T02890056,M
LSV,2022-07-28 03:57,-115.0343,36.2362,570.00,73.40,73.40,100.00,50.00,16.00,0.00,29.98,1013.00,10.00,M,SCT,M,M,M,3300.00,M,M,M,VCTS -RA,M,M,M,M,M,M,73.40,KLSV 280357Z AUTO 05016KT 10SM VCTS -RA SCT033 23/23 A2998 RMK AO2 DZE05RAB05E20RAB23E48RAB52 SLP130 $,M
INS,2022-07-28 03:58,-115.6733,36.5872,955.00,84.70,55.60,37.02,140.00,20.00,0.00,30.00,1010.80,10.00,23.00,OVC,M,M,M,16000.00,M,M,M,M,M,M,M,40.00,100.00,2022-07-28 03:06,83.52,KINS 280358Z AUTO 14020G23KT 10SM OVC160 29/13 A3000 RMK AO2 PK WND 10040/06 LTG DSNT S SLP108 T02930131,M
LSV,2022-07-28 03:58,-115.0343,36.2362,570.00,73.40,73.00,98.66,50.00,16.00,0.13,29.98,1013.00,10.00,M,SCT,M,M,M,3300.00,M,M,M,VCTS -RA,M,M,M,45.00,20.00,2022-07-28 03:00,73.40,KLSV 280358Z AUTO 05016KT 10SM VCTS -RA SCT033 23/23 A2998 RMK AO2 PK WND 02045/00 DZE05RAB05E20RAB23E48RAB52 SLP130 P0013 T02300228 $,M
LSV,2022-07-28 04:05,-115.0343,36.2362,570.00,73.40,73.40,100.00,90.00,12.00,0.00,29.99,1013.30,10.00,M,SCT,M,M,M,3100.00,M,M,M,VCTS -RA,M,M,M,M,M,M,73.40,KLSV 280405Z AUTO 09012KT 10SM VCTS -RA SCT031 23/23 A2999 RMK AO2 WSHFT 0353 SLP133 $,M
CXP,2022-07-28 04:15,-119.7326,39.1923,1431.00,87.80,30.20,12.64,320.00,10.00,0.00,30.08,M,10.00,M,CLR,M,M,M,M,M,M,M,M,M,M,M,M,M,M,84.01,KCXP 280415Z AUTO 32010KT 10SM CLR 31/M01 A3008 RMK AO2,M
RTS,2022-07-28 04:15,-119.8764,39.6682,1539.00,80.60,28.40,14.81,300.00,6.00,0.00,30.14,M,10.00,M,CLR,M,M,M,M,M,M,M,M,M,M,M,M,M,M,78.72,KRTS 280415Z AUTO 30006KT 10SM CLR 27/M02 A3014 RMK AO2,M
MEV,2022-07-28 04:15,-119.7500,38.9963,1441.42,73.40,46.40,38.18,M,3.00,0.00,30.08,M,10.00,M,CLR,M,M,M,M,M,M,M,M,M,M,M,M,M,M,73.40,KMEV 280415Z AUTO VRB03KT 10SM CLR 23/08 A3008 RMK AO2,M
BAM,2022-07-28 04:15,-116.8743,40.5990,1382.36,M,M,M,340.00,6.00,0.00,30.05,M,10.00,M,CLR,M,M,M,M,M,M,M,M,M,M,M,M,M,M,M,KBAM 280415Z AUTO 34006KT 10SM CLR A3005 RMK AO1,M
HTH,2022-07-28 04:15,-118.6315,38.5448,1282.89,87.80,46.40,23.85,320.00,7.00,0.00,30.00,M,10.00,M,CLR,M,M,M,M,M,M,M,M,M,M,M,M,M,M,84.68,KHTH 280415Z AUTO 32007KT 10SM CLR 31/08 A3000 RMK A01,M
TMT,2022-07-28 04:15,-117.1971,39.4643,1749.34,M,M,M,90.00,5.00,0.00,30.16,M,10.00,M,CLR,M,M,M,M,M,M,M,M,M,M,M,M,M,M,M,KTMT 280415Z AUTO 09005KT 10SM CLR A3016 RMK AO2,M
BVU,2022-07-28 04:15,-114.8611,35.9475,671.00,M,M,M,M,M,0.00,M,M,M,M,M,M,M,M,M,M,M,M,M,M,M,M,M,M,M,M,KBVU 280415Z AUTO RMK AO2 PNO PWINO TSNO,M
VGT,2022-07-28 04:15,-115.1933,36.2111,667.00,81.00,62.00,52.66,M,4.00,T,30.04,M,10.00,M,FEW,OVC,M,M,4300.00,11000.00,M,M,-RA,M,M,M,M,M,M,82.06,KVGT 280415Z AUTO VRB04KT 10SM -RA FEW043 OVC110 27/17 A3004 RMK AO2 LTG DSNT E AND SE AND NW RAB09 P0000 T02720167,M
HND,2022-07-28 04:19,-115.1344,35.9729,742.79,71.60,68.00,88.43,20.00,8.00,T,30.09,M,10.00,M,SCT,OVC,M,M,8000.00,10000.00,M,M,-TSRA,M,M,M,M,M,M,71.60,KHND 280419Z AUTO 02008KT 10SM -TSRA SCT080 OVC100 22/20 A3009 RMK AO2 WSHFT 0359 LTG DSNT ALQDS PRESRR P0000,M
BVU,2022-07-28 04:35,-114.8611,35.9475,671.00,M,M,M,M,M,0.00,M,M,M,M,M,M,M,M,M,M,M,M,M,M,M,M,M,M,M,M,KBVU 280435Z AUTO RMK AO2 PNO PWINO TSNO,M
CXP,2022-07-28 04:35,-119.7326,39.1923,1431.00,87.80,28.40,11.74,340.00,7.00,0.00,30.09,M,9.00,M,CLR,M,M,M,M,M,M,M,M,M,M,M,M,M,M,83.84,KCXP 280435Z AUTO 34007KT 9SM CLR 31/M02 A3009 RMK AO2,M
RTS,2022-07-28 04:35,-119.8764,39.6682,1539.00,80.60,32.00,17.14,320.00,6.00,0.00,30.15,M,10.00,M,CLR,M,M,M,M,M,M,M,M,M,M,M,M,M,M,78.82,KRTS 280435Z AUTO 32006KT 10SM CLR 27/00 A3015 RMK AO2,M
MEV,2022-07-28 04:35,-119.7500,38.9963,1441.42,68.00,46.40,45.88,M,3.00,0.00,30.09,M,10.00,M,CLR,M,M,M,M,M,M,M,M,M,M,M,M,M,M,68.00,KMEV 280435Z AUTO VRB03KT 10SM CLR 20/08 A3009 RMK AO2,M
TMT,2022-07-28 04:35,-117.1971,39.4643,1749.34,M,M,M,30.00,5.00,0.00,30.16,M,10.00,M,CLR,M,M,M,M,M,M,M,M,M,M,M,M,M,M,M,KTMT 280435Z AUTO 03005KT 10SM CLR A3016 RMK AO2,M
BAM,2022-07-28 04:35,-116.8743,40.5990,1382.36,M,M,M,310.00,4.00,0.00,30.06,M,10.00,M,CLR,M,M,M,M,M,M,M,M,M,M,M,M,M,M,M,KBAM 280435Z AUTO 31004KT 10SM CLR A3006 RMK AO1,M
HTH,2022-07-28 04:35,-118.6315,38.5448,1282.89,87.80,37.40,16.86,310.00,7.00,0.00,30.00,M,10.00,M,CLR,M,M,M,M,M,M,M,M,M,M,M,M,M,M,84.16,KHTH 280435Z AUTO 31007KT 10SM CLR 31/03 A3000 RMK A01,M
LAS,2022-07-28 04:38,-115.1634,36.0719,663.00,79.00,62.00,56.23,310.00,3.00,T,30.06,M,9.00,M,FEW,SCT,OVC,M,1200.00,8000.00,14000.00,M,-TSRA,M,M,M,M,M,M,79.00,KLAS 280438Z 31003KT 9SM -TSRA FEW012 SCT080CB OVC140 26/17 A3006 RMK AO2 LTG DSNT E OCNL LTGICCG NW-NE-SE TS NW-NE-SE STNRY P0000 T02610167 $,M
ELY,2022-07-28 04:53,-114.8453,39.2950,1909.00,71.00,42.00,35.02,M,3.00,0.00,30.19,1010.80,10.00,M,CLR,M,M,M,M,M,M,M,M,M,M,M,M,M,M,71.10,KELY 280453Z AUTO VRB03KT 10SM CLR 22/06 A3019 RMK AO2 SLP108 T02170056 TSNO,M
LOL,2022-07-28 04:53,-118.5701,40.0684,1192.43,86.00,27.00,11.74,20.00,8.00,0.00,30.00,1010.10,10.00,M,CLR,M,M,M,M,M,M,M,M,M,M,M,M,M,M,82.42,KLOL 280453Z AUTO 02008KT 10SM CLR 30/M03 A3000 RMK AO2 SLP101 T03001028,M
DRA,2022-07-28 04:53,-116.0278,36.6206,1009.00,84.00,58.00,41.14,100.00,19.00,0.00,29.97,1009.30,10.00,35.00,CLR,M,M,M,M,M,M,M,M,M,M,M,46.00,110.00,2022-07-28 04:01,83.47,KDRA 280453Z AUTO 10019G35KT 10SM CLR 29/14 A2997 RMK AO2 PK WND 11046/0401 SLP093 T02890144,M
VGT,2022-07-28 04:53,-115.1933,36.2111,667.00,80.00,64.00,57.98,190.00,6.00,T,30.02,1015.50,10.00,M,FEW,SCT,M,M,10000.00,12000.00,M,M,-RA,M,M,M,M,M,M,81.71,KVGT 280453Z AUTO 19006KT 10SM -RA FEW100 SCT120 27/18 A3002 RMK AO2 RAB09 SLP155 P0000 T02670178,M
P68,2022-07-28 04:53,-116.0056,39.6014,1993.00,80.00,30.90,16.67,40.00,4.00,0.00,30.16,1010.80,M,M,M,M,M,M,M,M,M,M,M,M,M,M,M,M,M,78.59,KP68 280453Z AUTO 04004KT 27/M01 A3016 RMK AO1 SLP108 T02671006,M
BVU,2022-07-28 04:55,-114.8611,35.9475,671.00,M,M,M,M,M,0.00,M,M,M,M,M,M,M,M,M,M,M,M,M,M,M,M,M,M,M,M,KBVU 280455Z AUTO RMK AO2 PNO PWINO TSNO,M
CXP,2022-07-28 04:55,-119.7326,39.1923,1431.00,86.00,28.40,12.44,330.00,7.00,0.00,30.09,M,10.00,M,CLR,M,M,M,M,M,M,M,M,M,M,M,M,M,M,82.54,KCXP 280455Z AUTO 33007KT 10SM CLR 30/M02 A3009 RMK AO2,M
RNO,2022-07-28 04:55,-119.7711,39.4839,1341.00,90.00,36.00,14.88,30.00,5.00,0.00,30.07,1011.10,10.00,M,FEW,M,M,M,12000.00,M,M,M,M,M,M,M,M,M,M,85.97,KRNO 280455Z 03005KT 10SM FEW120 32/02 A3007 RMK AO2 SLP111 T03220022,M
RTS,2022-07-28 04:55,-119.8764,39.6682,1539.00,80.60,35.60,19.79,320.00,5.00,0.00,30.15,M,10.00,M,CLR,M,M,M,M,M,M,M,M,M,M,M,M,M,M,78.94,KRTS 280455Z AUTO 32005KT 10SM CLR 27/02 A3015 RMK AO2,M
MEV,2022-07-28 04:55,-119.7500,38.9963,1441.42,69.80,51.80,52.77,160.00,8.00,0.00,30.09,M,10.00,M,CLR,M,M,M,M,M,M,M,M,M,M,M,M,M,M,69.80,KMEV 280455Z AUTO 16008KT 10SM CLR 21/11 A3009 RMK AO2,M
BAM,2022-07-28 04:55,-116.8743,40.5990,1382.36,M,M,M,0.00,0.00,0.00,30.07,M,10.00,M,CLR,M,M,M,M,M,M,M,M,M,M,M,M,M,M,M,KBAM 280455Z AUTO 00000KT 10SM CLR A3007 RMK AO1,M
HTH,2022-07-28 04:55,-118.6315,38.5448,1282.89,89.60,30.20,11.94,320.00,8.00,0.00,30.01,M,10.00,M,CLR,M,M,M,M,M,M,M,M,M,M,M,M,M,M,85.34,KHTH 280455Z AUTO 32008KT 10SM CLR 32/M01 A3001 RMK A01,M
TMT,2022-07-28 04:55,-117.1971,39.4643,1749.34,M,M,M,0.00,0.00,0.00,30.16,M,10.00,M,CLR,M,M,M,M,M,M,M,M,M,M,M,M,M,M,M,KTMT 280455Z AUTO 00000KT 10SM CLR A3016 RMK AO2,M
NFL,2022-07-28 04:56,-118.7010,39.4166,1199.00,83.00,33.00,16.62,360.00,6.00,0.00,29.98,1012.50,10.00,M,SCT,SCT,SCT,M,8000.00,12000.00,25000.00,M,M,M,M,M,M,M,M,80.36,KNFL 280456Z 36006KT 10SM SCT080 SCT120 SCT250 28/01 A2998 RMK AO2 SLP125 T02830006,M
WMC,2022-07-28 04:56,-117.8072,40.9019,1315.00,73.00,28.00,18.74,260.00,6.00,0.00,30.05,1011.90,10.00,M,CLR,M,M,M,M,M,M,M,M,M,M,M,M,M,M,73.00,KWMC 280456Z AUTO 26006KT 10SM CLR 23/M02 A3005 RMK AO2 SLP119 T02281022 TSNO,M
EKO,2022-07-28 04:56,-115.7860,40.8242,1367.00,84.00,28.90,13.53,60.00,8.00,0.00,30.10,1011.80,10.00,M,CLR,M,M,M,M,M,M,M,M,M,M,M,M,M,M,81.10,KEKO 280456Z AUTO 06008KT 10SM CLR 29/M02 A3010 RMK AO2 SLP118 T02891017 TSNO,M
HND,2022-07-28 04:56,-115.1344,35.9729,742.79,73.00,69.00,87.59,250.00,6.00,0.02,30.07,1017.30,10.00,M,FEW,SCT,M,M,7000.00,11000.00,M,M,M,M,M,M,M,M,M,73.00,KHND 280456Z AUTO 25006KT 10SM FEW070 SCT110 23/21 A3007 RMK AO2 WSHFT 0359 TSE50RAE53 SLP173 P0002 T02280206 TSNO,M
TPH,2022-07-28 04:56,-117.0904,38.0505,1654.00,82.00,44.00,26.33,180.00,9.00,0.00,30.14,1011.50,10.00,M,CLR,M,M,M,M,M,M,M,M,M,M,M,M,M,M,80.22,KTPH 280456Z AUTO 18009KT 10SM CLR 28/07 A3014 RMK AO2 SLP115 T02780067 TSNO,M
LAS,2022-07-28 04:56,-115.1634,36.0719,663.00,79.00,62.00,56.23,0.00,0.00,T,30.03,1014.40,10.00,M,FEW,SCT,OVC,M,1200.00,8000.00,16000.00,M,TS,M,M,M,M,M,M,79.00,KLAS 280456Z 00000KT 10SM TS FEW012 SCT080CB OVC160 26/17 A3003 RMK AO2 RAE47 SLP144 OCNL LTGICCG NW-NE-SE TS NW-NE-SE STNRY P0000 T02610167 $,M
INS,2022-07-28 04:58,-115.6733,36.5872,955.00,82.40,55.60,39.87,90.00,16.00,0.00,30.02,1011.30,10.00,M,CLR,M,M,M,M,M,M,M,M,M,M,M,M,M,M,81.78,KINS 280458Z AUTO 09016KT 10SM CLR 28/13 A3002 RMK AO2 SLP113 T02800131,M
LSV,2022-07-28 04:58,-115.0343,36.2362,570.00,74.30,74.30,100.00,260.00,7.00,0.09,29.98,1012.80,9.00,M,SCT,BKN,M,M,6000.00,15000.00,M,M,-DZ,M,M,M,M,M,M,74.30,KLSV 280458Z COR 26007KT 9SM -DZ SCT060 BKN150 24/24 A2998 RMK RAB0409E0423RAB0428E02RAB04 SLP128 P0009 60024 T02350235 10395 20229 50022 $ COR 0517,M
BVU,2022-07-28 05:15,-114.8611,35.9475,671.00,M,M,M,M,M,0.00,M,M,M,M,M,M,M,M,M,M,M,M,M,M,M,M,M,M,M,M,KBVU 280515Z AUTO RMK AO2 PNO PWINO TSNO,M
TMT,2022-07-28 05:15,-117.1971,39.4643,1749.34,M,M,M,360.00,5.00,0.00,30.17,M,10.00,M,CLR,M,M,M,M,M,M,M,M,M,M,M,M,M,M,M,KTMT 280515Z AUTO 36005KT 10SM CLR A3017 RMK AO2,M
HTH,2022-07-28 05:15,-118.6315,38.5448,1282.89,87.80,32.00,13.59,0.00,0.00,0.00,30.01,M,10.00,M,CLR,M,M,M,M,M,M,M,M,M,M,M,M,M,M,84.08,KHTH 280515Z AUTO 00000KT 10SM CLR 31/M00 A3001 RMK A01,M
BAM,2022-07-28 05:15,-116.8743,40.5990,1382.36,M,M,M,300.00,3.00,0.00,30.07,M,10.00,M,CLR,M,M,M,M,M,M,M,M,M,M,M,M,M,M,M,KBAM 280515Z AUTO 30003KT 10SM CLR A3007 RMK AO1,M
MEV,2022-07-28 05:15,-119.7500,38.9963,1441.42,75.20,48.20,38.46,180.00,4.00,0.00,30.10,M,10.00,M,CLR,M,M,M,M,M,M,M,M,M,M,M,M,M,M,75.20,KMEV 280515Z AUTO 18004KT 10SM CLR 24/09 A3010 RMK AO2,M
RTS,2022-07-28 05:15,-119.8764,39.6682,1539.00,78.80,28.40,15.71,340.00,5.00,0.00,30.15,M,10.00,M,CLR,M,M,M,M,M,M,M,M,M,M,M,M,M,M,78.80,KRTS 280515Z AUTO 34005KT 10SM CLR 26/M02 A3015 RMK AO2,M
CXP,2022-07-28 05:15,-119.7326,39.1923,1431.00,84.20,35.60,17.61,0.00,0.00,0.00,30.10,M,10.00,M,CLR,M,M,M,M,M,M,M,M,M,M,M,M,M,M,81.34,KCXP 280515Z AUTO 00000KT 10SM CLR 29/02 A3010 RMK AO2,M
LAS,2022-07-28 05:25,-115.1634,36.0719,663.00,79.00,64.00,60.11,200.00,8.00,0.00,30.00,M,10.00,M,FEW,FEW,OVC,M,6000.00,9500.00,12000.00,M,M,M,M,M,M,M,M,79.00,KLAS 280525Z 20008KT 10SM FEW060 FEW095CB OVC120 26/18 A3000 RMK AO2 LTG DSNT SE AND S TSE25 CB SW-NW MOV SW T02610178 $,M
HTH,2022-07-28 05:35,-118.6315,38.5448,1282.89,89.60,30.20,11.94,0.00,0.00,0.00,30.02,M,10.00,M,CLR,M,M,M,M,M,M,M,M,M,M,M,M,M,M,85.34,KHTH 280535Z AUTO 00000KT 10SM CLR 32/M01 A3002 RMK A01,M
BVU,2022-07-28 05:35,-114.8611,35.9475,671.00,M,M,M,M,M,0.00,M,M,M,M,M,M,M,M,M,M,M,M,M,M,M,M,M,M,M,M,KBVU 280535Z AUTO RMK AO2 PNO PWINO TSNO,M
CXP,2022-07-28 05:35,-119.7326,39.1923,1431.00,80.60,35.60,19.79,0.00,0.00,0.00,30.11,M,10.00,M,CLR,M,M,M,M,M,M,M,M,M,M,M,M,M,M,78.94,KCXP 280535Z AUTO 00000KT 10SM CLR 27/02 A3011 RMK AO2,M
RTS,2022-07-28 05:35,-119.8764,39.6682,1539.00,77.00,28.40,16.67,320.00,6.00,0.00,30.15,M,10.00,M,CLR,M,M,M,M,M,M,M,M,M,M,M,M,M,M,77.00,KRTS 280535Z AUTO 32006KT 10SM CLR 25/M02 A3015 RMK AO2,M
TMT,2022-07-28 05:35,-117.1971,39.4643,1749.34,M,M,M,0.00,0.00,0.00,30.18,M,10.00,M,CLR,M,M,M,M,M,M,M,M,M,M,M,M,M,M,M,KTMT 280535Z AUTO 00000KT 10SM CLR A3018 RMK AO2,M
BAM,2022-07-28 05:35,-116.8743,40.5990,1382.36,M,M,M,0.00,0.00,0.00,30.08,M,10.00,M,CLR,M,M,M,M,M,M,M,M,M,M,M,M,M,M,M,KBAM 280535Z AUTO 00000KT 10SM CLR A3008 RMK AO1,M
MEV,2022-07-28 05:35,-119.7500,38.9963,1441.42,69.80,48.20,46.16,0.00,0.00,0.00,30.10,M,10.00,M,CLR,M,M,M,M,M,M,M,M,M,M,M,M,M,M,69.80,KMEV 280535Z AUTO 00000KT 10SM CLR 21/09 A3010 RMK AO2,M
LSV,2022-07-28 05:41,-115.0343,36.2362,570.00,75.20,M,M,290.00,5.00,0.00,29.97,1012.40,10.00,M,FEW,BKN,M,M,8000.00,15000.00,M,M,M,M,M,M,M,M,M,M,KLSV 280541Z 29005KT 10SM FEW080 BKN150 24/ A2997 RMK DZE0458RAB0458E02RAB04E40 SLP124 $,M
LOL,2022-07-28 05:53,-118.5701,40.0684,1192.43,86.00,26.10,11.31,M,5.00,0.00,30.00,1010.20,10.00,M,CLR,M,M,M,M,M,M,M,M,M,M,M,M,M,M,82.35,KLOL 280553Z AUTO VRB05KT 10SM CLR 30/M03 A3000 RMK AO2 SLP102 T03001033 10406 20294 51010,M
DRA,2022-07-28 05:53,-116.0278,36.6206,1009.00,86.00,53.00,32.41,110.00,23.00,0.00,29.98,1009.40,10.00,29.00,CLR,M,M,M,M,M,M,M,M,M,M,M,32.00,110.00,2022-07-28 05:10,84.09,KDRA 280553Z AUTO 11023G29KT 10SM CLR 30/12 A2998 RMK AO2 PK WND 11032/0510 SLP094 T03000117 10367 20278 51013,M
VGT,2022-07-28 05:53,-115.1933,36.2111,667.00,80.00,66.00,62.17,60.00,3.00,T,29.98,1014.00,10.00,M,SCT,M,M,M,12000.00,M,M,M,-RA,M,M,M,M,M,M,82.17,KVGT 280553Z AUTO 06003KT 10SM -RA SCT120 27/19 A2998 RMK AO2 SLP140 P0000 60000 T02670189 10356 20261 50005,M
ELY,2022-07-28 05:53,-114.8453,39.2950,1909.00,71.00,45.00,39.13,210.00,14.00,0.00,30.20,1010.90,10.00,M,CLR,M,M,M,M,M,M,M,M,M,M,M,M,M,M,71.10,KELY 280553Z AUTO 21014KT 10SM CLR 22/07 A3020 RMK AO2 SLP109 T02170072 10311 20194 51011,M
P68,2022-07-28 05:53,-116.0056,39.6014,1993.00,79.00,27.00,14.73,0.00,0.00,0.00,30.16,1010.70,M,M,M,M,M,M,M,M,M,M,M,M,M,M,M,M,M,79.00,KP68 280553Z AUTO 00000KT 26/M03 A3016 RMK AO1 SLP107 T02611028 10339 20244 51010,M
TMT,2022-07-28 05:55,-117.1971,39.4643,1749.34,M,M,M,210.00,3.00,0.00,30.18,M,10.00,M,CLR,M,M,M,M,M,M,M,M,M,M,M,M,M,M,M,KTMT 280555Z AUTO 21003KT 10SM CLR A3018 RMK AO2,M
RNO,2022-07-28 05:55,-119.7711,39.4839,1341.00,87.00,42.00,20.70,M,3.00,0.00,30.08,1011.60,10.00,M,SCT,M,M,M,16000.00,M,M,M,M,M,M,M,M,M,M,83.79,KRNO 280555Z VRB03KT 10SM SCT160 31/06 A3008 RMK AO2 SLP116 T03060056 10389 20306 51017,M
CXP,2022-07-28 05:55,-119.7326,39.1923,1431.00,78.80,33.80,19.55,160.00,5.00,0.00,30.11,M,10.00,M,CLR,M,M,M,M,M,M,M,M,M,M,M,M,M,M,78.80,KCXP 280555Z AUTO 16005KT 10SM CLR 26/01 A3011 RMK AO2,M
BVU,2022-07-28 05:55,-114.8611,35.9475,671.00,M,M,M,M,M,0.00,M,M,M,M,M,M,M,M,M,M,M,M,M,M,M,M,M,M,M,M,KBVU 280555Z AUTO RMK AO2 PNO PWINO TSNO,M
RTS,2022-07-28 05:55,-119.8764,39.6682,1539.00,77.00,35.60,22.28,290.00,6.00,0.00,30.16,M,10.00,M,CLR,M,M,M,M,M,M,M,M,M,M,M,M,M,M,77.00,KRTS 280555Z AUTO 29006KT 10SM CLR 25/02 A3016 RMK AO2,M
HTH,2022-07-28 05:55,-118.6315,38.5448,1282.89,89.60,32.00,12.84,M,4.00,0.00,30.02,M,10.00,M,CLR,M,M,M,M,M,M,M,M,M,M,M,M,M,M,85.54,KHTH 280555Z AUTO VRB04KT 10SM CLR 32/M00 A3002 RMK A01,M
BAM,2022-07-28 05:55,-116.8743,40.5990,1382.36,M,M,M,0.00,0.00,0.00,30.08,M,10.00,M,CLR,M,M,M,M,M,M,M,M,M,M,M,M,M,M,M,KBAM 280555Z AUTO 00000KT 10SM CLR A3008 RMK AO1,M
MEV,2022-07-28 05:55,-119.7500,38.9963,1441.42,66.20,48.20,52.25,90.00,4.00,0.00,30.11,M,10.00,M,CLR,M,M,M,M,M,M,M,M,M,M,M,M,M,M,66.20,KMEV 280555Z AUTO 09004KT 10SM CLR 19/09 A3011 RMK AO2,M
WMC,2022-07-28 05:56,-117.8072,40.9019,1315.00,74.00,30.00,19.73,0.00,0.00,0.00,30.05,1011.60,10.00,M,CLR,M,M,M,M,M,M,M,M,M,M,M,M,M,M,73.90,KWMC 280556Z AUTO 00000KT 10SM CLR 23/M01 A3005 RMK AO2 SLP116 T02331011 10394 20211 51010,M
EKO,2022-07-28 05:56,-115.7860,40.8242,1367.00,79.00,32.00,18.06,40.00,6.00,0.00,30.11,1012.20,10.00,M,CLR,M,M,M,M,M,M,M,M,M,M,M,M,M,M,79.00,KEKO 280556Z AUTO 04006KT 10SM CLR 26/00 A3011 RMK AO2 SLP122 T02610000 10372 20261 51018,M
HND,2022-07-28 05:56,-115.1344,35.9729,742.79,74.00,68.00,81.82,190.00,10.00,T,30.01,1015.00,10.00,M,SCT,SCT,M,M,9000.00,11000.00,M,M,-RA,M,M,M,M,M,M,73.90,KHND 280556Z AUTO 19010KT 10SM -RA SCT090 SCT110 23/20 A3001 RMK AO2 RAB50 SLP150 P0000 60002 T02330200 10333 20217 50006,M
LAS,2022-07-28 05:56,-115.1634,36.0719,663.00,81.00,63.00,54.36,240.00,6.00,T,29.97,1012.20,10.00,M,FEW,SCT,OVC,M,6000.00,11000.00,13000.00,M,-RA,M,M,M,M,M,M,82.28,KLAS 280556Z 24006KT 10SM -RA FEW060 SCT110 OVC130 27/17 A2997 RMK AO2 RAB47 TSE25 SLP122 CB DSNT SW P0000 60000 T02720172 10339 20256 50002 $,M
TPH,2022-07-28 05:56,-117.0904,38.0505,1654.00,79.00,44.00,29.04,200.00,7.00,0.00,30.15,1011.70,10.00,M,CLR,M,M,M,M,M,M,M,M,M,M,M,M,M,M,79.00,KTPH 280556Z AUTO 20007KT 10SM CLR 26/07 A3015 RMK AO2 SLP117 T02610067 10339 20261 51010,M
INS,2022-07-28 05:58,-115.6733,36.5872,955.00,79.20,57.20,46.90,100.00,14.00,0.00,30.00,1010.60,10.00,M,CLR,M,M,M,M,M,M,M,M,M,M,M,M,M,M,79.20,KINS 280558Z AUTO 10014KT 10SM CLR 26/14 A3000 RMK AO2 SLP106 T02620140 10368 20262 50012,M
LSV,2022-07-28 05:58,-115.0343,36.2362,570.00,75.20,68.00,78.34,230.00,4.00,0.01,29.96,1012.10,10.00,M,FEW,BKN,M,M,8000.00,12000.00,M,M,M,M,M,M,M,M,M,75.20,KLSV 280558Z 23004KT 10SM FEW080 BKN120 24/20 A2996 RMK AO2A DZE0458RAB0458E02RAB04E10 SLP121 P0001 60024 10363 20229 58003 $,M
BVU,2022-07-28 06:15,-114.8611,35.9475,671.00,M,M,M,M,M,0.00,M,M,M,M,M,M,M,M,M,M,M,M,M,M,M,M,M,M,M,M,KBVU 280615Z AUTO RMK AO2 PNO PWINO TSNO,M
CXP,2022-07-28 06:15,-119.7326,39.1923,1431.00,80.60,33.80,18.42,230.00,4.00,0.00,30.11,M,10.00,M,CLR,M,M,M,M,M,M,M,M,M,M,M,M,M,M,78.88,KCXP 280615Z AUTO 23004KT 10SM CLR 27/01 A3011 RMK AO2,M
RTS,2022-07-28 06:15,-119.8764,39.6682,1539.00,75.20,33.80,22.02,300.00,5.00,0.00,30.15,M,10.00,M,CLR,M,M,M,M,M,M,M,M,M,M,M,M,M,M,75.20,KRTS 280615Z AUTO 30005KT 10SM CLR 24/01 A3015 RMK AO2,M
MEV,2022-07-28 06:15,-119.7500,38.9963,1441.42,66.20,48.20,52.25,100.00,4.00,0.00,30.11,M,10.00,M,CLR,M,M,M,M,M,M,M,M,M,M,M,M,M,M,66.20,KMEV 280615Z AUTO 10004KT 10SM CLR 19/09 A3011 RMK AO2,M
HTH,2022-07-28 06:15,-118.6315,38.5448,1282.89,89.60,35.60,14.83,M,4.00,0.00,30.03,M,10.00,M,CLR,M,M,M,M,M,M,M,M,M,M,M,M,M,M,85.62,KHTH 280615Z AUTO VRB04KT 10SM CLR 32/02 A3003 RMK A01,M
BAM,2022-07-28 06:15,-116.8743,40.5990,1382.36,M,M,M,110.00,3.00,0.00,30.08,M,10.00,M,CLR,M,M,M,M,M,M,M,M,M,M,M,M,M,M,M,KBAM 280615Z AUTO 11003KT 10SM CLR A3008 RMK AO1,M
TMT,2022-07-28 06:15,-117.1971,39.4643,1749.34,M,M,M,210.00,4.00,0.00,30.18,M,10.00,M,CLR,M,M,M,M,M,M,M,M,M,M,M,M,M,M,M,KTMT 280615Z AUTO 21004KT 10SM CLR A3018 RMK AO2,M
BAM,2022-07-28 06:35,-116.8743,40.5990,1382.36,M,M,M,200.00,3.00,0.00,30.08,M,10.00,M,CLR,M,M,M,M,M,M,M,M,M,M,M,M,M,M,M,KBAM 280635Z AUTO 20003KT 10SM CLR A3008 RMK AO1,M
TMT,2022-07-28 06:35,-117.1971,39.4643,1749.34,M,M,M,320.00,4.00,0.00,30.18,M,10.00,M,CLR,M,M,M,M,M,M,M,M,M,M,M,M,M,M,M,KTMT 280635Z AUTO 32004KT 10SM CLR A3018 RMK AO2,M
BVU,2022-07-28 06:35,-114.8611,35.9475,671.00,M,M,M,M,M,0.00,M,M,M,M,M,M,M,M,M,M,M,M,M,M,M,M,M,M,M,M,KBVU 280635Z AUTO RMK AO2 PNO PWINO TSNO,M
CXP,2022-07-28 06:35,-119.7326,39.1923,1431.00,82.40,32.00,16.17,230.00,9.00,0.00,30.11,M,10.00,M,CLR,M,M,M,M,M,M,M,M,M,M,M,M,M,M,80.00,KCXP 280635Z AUTO 23009KT 10SM CLR 28/00 A3011 RMK AO2,M
RTS,2022-07-28 06:35,-119.8764,39.6682,1539.00,75.20,35.60,23.66,300.00,4.00,0.00,30.15,M,10.00,M,CLR,M,M,M,M,M,M,M,M,M,M,M,M,M,M,75.20,KRTS 280635Z AUTO 30004KT 10SM CLR 24/02 A3015 RMK AO2,M
MEV,2022-07-28 06:35,-119.7500,38.9963,1441.42,64.40,46.40,51.98,110.00,7.00,0.00,30.11,M,10.00,M,CLR,M,M,M,M,M,M,M,M,M,M,M,M,M,M,64.40,KMEV 280635Z AUTO 11007KT 10SM CLR 18/08 A3011 RMK AO2,M
HTH,2022-07-28 06:35,-118.6315,38.5448,1282.89,89.60,33.80,13.80,M,6.00,0.00,30.02,M,10.00,M,CLR,M,M,M,M,M,M,M,M,M,M,M,M,M,M,85.59,KHTH 280635Z AUTO VRB06KT 10SM CLR 32/01 A3002 RMK A01,M
VGT,2022-07-28 06:53,-115.1933,36.2111,667.00,78.00,68.00,71.14,60.00,3.00,T,29.95,1013.00,10.00,M,CLR,M,M,M,M,M,M,M,M,M,M,M,M,M,M,78.10,KVGT 280653Z AUTO 06003KT 10SM CLR 26/20 A2995 RMK AO2 RAE0557 SLP130 P0000 T02560200,M
LOL,2022-07-28 06:53,-118.5701,40.0684,1192.43,68.00,28.90,23.06,0.00,0.00,0.00,30.01,1011.30,10.00,M,CLR,M,M,M,M,M,M,M,M,M,M,M,M,M,M,68.00,KLOL 280653Z AUTO 00000KT 10SM CLR 20/M02 A3001 RMK AO2 SLP113 T02001017,M
P68,2022-07-28 06:53,-116.0056,39.6014,1993.00,72.00,32.00,22.82,0.00,0.00,0.00,30.17,1011.20,M,M,M,M,M,M,M,M,M,M,M,M,M,M,M,M,M,72.00,KP68 280653Z AUTO 00000KT 22/00 A3017 RMK AO1 SLP112 T02220000,M
DRA,2022-07-28 06:53,-116.0278,36.6206,1009.00,80.00,56.00,43.44,0.00,0.00,0.00,29.99,1009.70,10.00,M,CLR,M,M,M,M,M,M,M,M,M,M,M,26.00,110.00,2022-07-28 05:54,80.29,KDRA 280653Z AUTO 00000KT 10SM CLR 27/13 A2999 RMK AO2 PK WND 11026/0554 SLP097 T02670133,M
ELY,2022-07-28 06:53,-114.8453,39.2950,1909.00,69.00,47.00,45.02,220.00,15.00,0.00,30.21,1011.10,10.00,M,CLR,M,M,M,M,M,M,M,M,M,M,M,M,M,M,69.10,KELY 280653Z AUTO 22015KT 10SM CLR 21/08 A3021 RMK AO2 SLP111 T02060083 403330106,M
MEV,2022-07-28 06:55,-119.7500,38.9963,1441.42,62.60,41.00,45.04,110.00,8.00,0.00,30.11,M,10.00,M,CLR,M,M,M,M,M,M,M,M,M,M,M,M,M,M,62.60,KMEV 280655Z AUTO 11008KT 10SM CLR 17/05 A3011 RMK AO2,M
HTH,2022-07-28 06:55,-118.6315,38.5448,1282.89,87.80,33.80,14.61,310.00,8.00,0.00,30.03,M,10.00,M,CLR,M,M,M,M,M,M,M,M,M,M,M,M,M,M,84.10,KHTH 280655Z AUTO 31008KT 10SM CLR 31/01 A3003 RMK A01,M
CXP,2022-07-28 06:55,-119.7326,39.1923,1431.00,80.60,33.80,18.42,140.00,5.00,0.00,30.11,M,10.00,M,CLR,M,M,M,M,M,M,M,M,M,M,M,M,M,M,78.88,KCXP 280655Z AUTO 14005KT 10SM CLR 27/01 A3011 RMK AO2,M
RNO,2022-07-28 06:55,-119.7711,39.4839,1341.00,85.00,44.00,23.97,0.00,0.00,0.00,30.09,1011.30,10.00,M,FEW,M,M,M,16000.00,M,M,M,M,M,M,M,M,M,M,82.20,KRNO 280655Z 00000KT 10SM FEW160 29/07 A3009 RMK AO2 SLP113 T02940067,M
BVU,2022-07-28 06:55,-114.8611,35.9475,671.00,M,M,M,M,M,0.00,M,M,M,M,M,M,M,M,M,M,M,M,M,M,M,M,M,M,M,M,KBVU 280655Z AUTO RMK AO2 PNO PWINO TSNO,M
RTS,2022-07-28 06:55,-119.8764,39.6682,1539.00,75.20,33.80,22.02,340.00,7.00,0.00,30.15,M,10.00,M,CLR,M,M,M,M,M,M,M,M,M,M,M,M,M,M,75.20,KRTS 280655Z AUTO 34007KT 10SM CLR 24/01 A3015 RMK AO2,M
TMT,2022-07-28 06:55,-117.1971,39.4643,1749.34,M,M,M,360.00,3.00,0.00,30.18,M,10.00,M,CLR,M,M,M,M,M,M,M,M,M,M,M,M,M,M,M,KTMT 280655Z AUTO 36003KT 10SM CLR A3018 RMK AO2,M
BAM,2022-07-28 06:55,-116.8743,40.5990,1382.36,M,M,M,0.00,0.00,0.00,30.08,M,10.00,M,CLR,M,M,M,M,M,M,M,M,M,M,M,M,M,M,M,KBAM 280655Z AUTO 00000KT 10SM CLR A3008 RMK AO1,M
NFL,2022-07-28 06:56,-118.7010,39.4166,1199.00,75.00,33.00,21.56,330.00,5.00,0.00,30.00,1012.90,10.00,M,CLR,M,M,M,M,M,M,M,M,M,M,M,M,M,M,75.00,KNFL 280656Z 33005KT 10SM CLR 24/01 A3000 RMK AO2 SLP129 T02390006,M
EKO,2022-07-28 06:56,-115.7860,40.8242,1367.00,75.00,36.00,24.20,130.00,3.00,0.00,30.12,1012.40,10.00,M,CLR,M,M,M,M,M,M,M,M,M,M,M,M,M,M,75.00,KEKO 280656Z AUTO 13003KT 10SM CLR 24/02 A3012 RMK AO2 SLP124 T02390022,M
LAS,2022-07-28 06:56,-115.1634,36.0719,663.00,79.00,65.00,62.03,80.00,6.00,T,29.96,1011.80,10.00,M,FEW,OVC,M,M,11000.00,16000.00,M,M,M,M,M,M,M,M,M,79.00,KLAS 280656Z 08006KT 10SM FEW110 OVC160 26/18 A2996 RMK AO2 RAE02 SLP118 P0000 T02610183 $,M
HND,2022-07-28 06:56,-115.1344,35.9729,742.79,76.00,67.00,73.68,230.00,10.00,T,29.99,1014.30,10.00,M,CLR,M,M,M,M,M,M,M,M,M,M,M,M,M,M,75.90,KHND 280656Z AUTO 23010KT 10SM CLR 24/19 A2999 RMK AO2 RAE19 SLP143 P0000 T02440194 403780217,M
TPH,2022-07-28 06:56,-117.0904,38.0505,1654.00,75.00,42.00,30.71,120.00,4.00,0.00,30.15,1011.90,10.00,M,CLR,M,M,M,M,M,M,M,M,M,M,M,M,M,M,75.00,KTPH 280656Z AUTO 12004KT 10SM CLR 24/06 A3015 RMK AO2 SLP119 T02390056,M
WMC,2022-07-28 06:56,-117.8072,40.9019,1315.00,73.00,33.00,23.06,360.00,4.00,0.00,30.06,1011.70,10.00,M,CLR,M,M,M,M,M,M,M,M,M,M,M,M,M,M,73.00,KWMC 280656Z AUTO 36004KT 10SM CLR 23/01 A3006 RMK AO2 SLP117 T02280006,M
LSV,2022-07-28 06:58,-115.0343,36.2362,570.00,76.50,76.50,100.00,220.00,8.00,0.00,29.90,1010.00,10.00,M,SCT,BKN,M,M,10000.00,12000.00,M,M,M,M,M,M,M,M,M,76.50,KLSV 280658Z 22008KT 10SM SCT100 BKN120 25/25 A2990 RMK AO2A PRESFR SLP100 T02470247 $,M
INS,2022-07-28 06:58,-115.6733,36.5872,955.00,76.50,57.00,50.91,120.00,13.00,0.00,30.00,1010.60,10.00,M,CLR,M,M,M,M,M,M,M,M,M,M,M,26.00,90.00,2022-07-28 06:23,76.50,KINS 280658Z AUTO 12013KT 10SM CLR 25/14 A3000 RMK AO2 PK WND 09026/23 SLP106 T02470139,M
CXP,2022-07-28 07:15,-119.7326,39.1923,1431.00,80.60,33.80,18.42,0.00,0.00,0.00,30.12,M,10.00,M,CLR,M,M,M,M,M,M,M,M,M,M,M,M,M,M,78.88,KCXP 280715Z AUTO 00000KT 10SM CLR 27/01 A3012 RMK AO2,M
RTS,2022-07-28 07:15,-119.8764,39.6682,1539.00,75.20,35.60,23.66,310.00,7.00,0.00,30.15,M,10.00,M,CLR,M,M,M,M,M,M,M,M,M,M,M,M,M,M,75.20,KRTS 280715Z AUTO 31007KT 10SM CLR 24/02 A3015 RMK AO2,M
BVU,2022-07-28 07:15,-114.8611,35.9475,671.00,M,M,M,M,M,0.00,M,M,M,M,M,M,M,M,M,M,M,M,M,M,M,M,M,M,M,M,KBVU 280715Z AUTO RMK AO2 PNO PWINO TSNO,M
MEV,2022-07-28 07:15,-119.7500,38.9963,1441.42,66.20,39.20,37.03,110.00,7.00,0.00,30.11,M,10.00,M,CLR,M,M,M,M,M,M,M,M,M,M,M,M,M,M,66.20,KMEV 280715Z AUTO 11007KT 10SM CLR 19/04 A3011 RMK AO2,M
BAM,2022-07-28 07:15,-116.8743,40.5990,1382.36,M,M,M,320.00,5.00,0.00,30.08,M,10.00,M,CLR,M,M,M,M,M,M,M,M,M,M,M,M,M,M,M,KBAM 280715Z AUTO 32005KT 10SM CLR A3008 RMK AO1,M
HTH,2022-07-28 07:15,-118.6315,38.5448,1282.89,86.00,39.20,19.15,M,6.00,0.00,30.03,M,10.00,M,CLR,M,M,M,M,M,M,M,M,M,M,M,M,M,M,82.79,KHTH 280715Z AUTO VRB06KT 10SM CLR 30/04 A3003 RMK A01,M
TMT,2022-07-28 07:15,-117.1971,39.4643,1749.34,64.00,30.70,28.61,0.00,0.00,0.00,30.18,M,10.00,M,CLR,M,M,M,M,M,M,M,M,M,M,M,M,M,M,63.90,KTMT 280715Z AUTO 00000KT 10SM CLR 18/M01 A3018 RMK AO2 T01771007,M
CXP,2022-07-28 07:30,-119.7326,39.1923,1431.00,80.60,33.80,18.42,330.00,3.00,0.00,30.12,M,10.00,M,CLR,M,M,M,M,M,M,M,M,M,M,M,M,M,M,78.88,KCXP 280730Z AUTO 33003KT 10SM CLR 27/01 A3012 RMK AO2,M
RTS,2022-07-28 07:35,-119.8764,39.6682,1539.00,73.40,35.60,25.13,310.00,9.00,0.00,30.15,M,10.00,M,CLR,M,M,M,M,M,M,M,M,M,M,M,M,M,M,73.40,KRTS 280735Z AUTO 31009KT 10SM CLR 23/02 A3015 RMK AO2,M
BVU,2022-07-28 07:35,-114.8611,35.9475,671.00,M,M,M,M,M,0.00,M,M,M,M,M,M,M,M,M,M,M,M,M,M,M,M,M,M,M,M,KBVU 280735Z AUTO RMK AO2 PNO PWINO TSNO,M
MEV,2022-07-28 07:35,-119.7500,38.9963,1441.42,66.20,39.20,37.03,110.00,4.00,0.00,30.11,M,10.00,M,FEW,M,M,M,5000.00,M,M,M,M,M,M,M,M,M,M,66.20,KMEV 280735Z AUTO 11004KT 10SM FEW050 19/04 A3011 RMK AO2,M
BAM,2022-07-28 07:35,-116.8743,40.5990,1382.36,M,M,M,0.00,0.00,0.00,30.09,M,10.00,M,CLR,M,M,M,M,M,M,M,M,M,M,M,M,M,M,M,KBAM 280735Z AUTO 00000KT 10SM CLR A3009 RMK AO1,M
HTH,2022-07-28 07:35,-118.6315,38.5448,1282.89,87.80,32.00,13.59,300.00,4.00,0.00,30.03,M,10.00,M,CLR,M,M,M,M,M,M,M,M,M,M,M,M,M,M,84.08,KHTH 280735Z AUTO 30004KT 10SM CLR 31/00 A3003 RMK A01,M
TMT,2022-07-28 07:35,-117.1971,39.4643,1749.34,M,M,M,140.00,5.00,0.00,30.18,M,10.00,M,CLR,M,M,M,M,M,M,M,M,M,M,M,M,M,M,M,KTMT 280735Z AUTO 14005KT 10SM CLR A3018 RMK AO2,M
LOL,2022-07-28 07:53,-118.5701,40.0684,1192.43,68.00,28.90,23.06,130.00,4.00,0.00,30.01,1011.10,10.00,M,CLR,M,M,M,M,M,M,M,M,M,M,M,M,M,M,68.00,KLOL 280753Z AUTO 13004KT 10SM CLR 20/M02 A3001 RMK AO2 SLP111 T02001017 404110172,M
VGT,2022-07-28 07:53,-115.1933,36.2111,667.00,78.00,68.00,71.14,100.00,4.00,0.00,29.93,1012.30,10.00,M,CLR,M,M,M,M,M,M,M,M,M,M,M,M,M,M,78.10,KVGT 280753Z AUTO 10004KT 10SM CLR 26/20 A2993 RMK AO2 SLP123 T02560200 403780256,M
P68,2022-07-28 07:53,-116.0056,39.6014,1993.00,65.00,30.00,26.85,220.00,5.00,0.00,30.16,1011.50,M,M,M,M,M,M,M,M,M,M,M,M,M,M,M,M,M,64.90,KP68 280753Z AUTO 22005KT 18/M01 A3016 RMK AO1 SLP115 T01831011 403560117,M
ELY,2022-07-28 07:53,-114.8453,39.2950,1909.00,65.00,47.00,52.06,220.00,6.00,0.00,30.21,1011.40,10.00,M,CLR,M,M,M,M,M,M,M,M,M,M,M,M,M,M,64.90,KELY 280753Z AUTO 22006KT 10SM CLR 18/08 A3021 RMK AO2 SLP114 T01830083,M
DRA,2022-07-28 07:53,-116.0278,36.6206,1009.00,76.00,58.00,53.64,120.00,16.00,0.00,30.00,1010.30,10.00,24.00,CLR,M,M,M,M,M,M,M,M,M,M,M,M,M,M,75.90,KDRA 280753Z AUTO 12016G24KT 10SM CLR 24/14 A3000 RMK AO2 SLP103 T02440144 403670239,M
BAM,2022-07-28 07:55,-116.8743,40.5990,1382.36,M,M,M,360.00,6.00,0.00,30.09,M,10.00,M,CLR,M,M,M,M,M,M,M,M,M,M,M,M,M,M,M,KBAM 280755Z AUTO 36006KT 10SM CLR A3009 RMK AO1,M
BVU,2022-07-28 07:55,-114.8611,35.9475,671.00,M,M,M,M,M,0.00,M,M,M,M,M,M,M,M,M,M,M,M,M,M,M,M,M,M,M,M,KBVU 280755Z AUTO RMK AO2 PNO PWINO TSNO,M
CXP,2022-07-28 07:55,-119.7326,39.1923,1431.00,78.80,35.60,21.00,240.00,5.00,0.00,30.11,M,10.00,M,CLR,M,M,M,M,M,M,M,M,M,M,M,M,M,M,78.80,KCXP 280755Z AUTO 24005KT 10SM CLR 26/02 A3011 RMK AO2,M
RTS,2022-07-28 07:55,-119.8764,39.6682,1539.00,73.40,35.60,25.13,270.00,6.00,0.00,30.15,M,10.00,M,CLR,M,M,M,M,M,M,M,M,M,M,M,M,M,M,73.40,KRTS 280755Z AUTO 27006KT 10SM CLR 23/02 A3015 RMK AO2,M
MEV,2022-07-28 07:55,-119.7500,38.9963,1441.42,64.40,42.80,45.32,0.00,0.00,0.00,30.12,M,10.00,M,CLR,M,M,M,M,M,M,M,M,M,M,M,M,M,M,64.40,KMEV 280755Z AUTO 00000KT 10SM CLR 18/06 A3012 RMK AO2,M
HTH,2022-07-28 07:55,-118.6315,38.5448,1282.89,84.20,33.80,16.39,320.00,6.00,0.00,30.02,M,10.00,M,CLR,M,M,M,M,M,M,M,M,M,M,M,M,M,M,81.30,KHTH 280755Z AUTO 32006KT 10SM CLR 29/01 A3002 RMK A01,M
TMT,2022-07-28 07:55,-117.1971,39.4643,1749.34,59.70,26.80,28.29,220.00,5.00,0.00,30.18,M,10.00,M,CLR,M,M,M,M,M,M,M,M,M,M,M,M,M,M,59.70,KTMT 280755Z AUTO 22005KT 10SM CLR 15/M03 A3018 RMK AO2 T01541029,M
RNO,2022-07-28 07:55,-119.7711,39.4839,1341.00,82.00,44.00,26.33,290.00,3.00,0.00,30.08,1011.30,10.00,M,CLR,M,M,M,M,M,M,M,M,M,M,M,M,M,M,80.22,KRNO 280755Z 29003KT 10SM CLR 28/07 A3008 RMK AO2 SLP113 T02780067 403890228,M
EKO,2022-07-28 07:56,-115.7860,40.8242,1367.00,65.00,36.00,34.17,230.00,6.00,0.00,30.11,1012.90,10.00,M,CLR,M,M,M,M,M,M,M,M,M,M,M,M,M,M,64.90,KEKO 280756Z AUTO 23006KT 10SM CLR 18/02 A3011 RMK AO2 SLP129 T01830022 403780133,M
HND,2022-07-28 07:56,-115.1344,35.9729,742.79,76.00,67.00,73.68,180.00,10.00,0.00,29.97,1013.40,10.00,M,CLR,M,M,M,M,M,M,M,M,M,M,M,M,M,M,75.90,KHND 280756Z AUTO 18010KT 10SM CLR 24/19 A2997 RMK AO2 SLP134 T02440194,M
WMC,2022-07-28 07:56,-117.8072,40.9019,1315.00,74.00,35.00,24.23,350.00,5.00,0.00,30.06,1011.60,10.00,M,CLR,M,M,M,M,M,M,M,M,M,M,M,M,M,M,73.90,KWMC 280756Z AUTO 35005KT 10SM CLR 23/02 A3006 RMK AO2 SLP116 T02330017 404000111,M
LAS,2022-07-28 07:56,-115.1634,36.0719,663.00,79.00,64.00,60.11,0.00,0.00,0.00,29.94,1011.00,10.00,M,FEW,BKN,M,M,11000.00,14000.00,M,M,M,M,M,M,M,M,M,79.00,KLAS 280756Z 00000KT 10SM FEW110 BKN140 26/18 A2994 RMK AO2 SLP110 T02610178 403830256 $,M
TPH,2022-07-28 07:56,-117.0904,38.0505,1654.00,71.00,41.00,33.57,0.00,0.00,0.00,30.15,1011.50,10.00,M,CLR,M,M,M,M,M,M,M,M,M,M,M,M,M,M,71.10,KTPH 280756Z AUTO 00000KT 10SM CLR 22/05 A3015 RMK AO2 SLP115 T02170050 403440183,M
NFL,2022-07-28 07:56,-118.7010,39.4166,1199.00,78.00,28.90,16.41,0.00,0.00,0.00,30.00,1012.90,10.00,M,CLR,M,M,M,M,M,M,M,M,M,M,M,M,M,M,78.10,KNFL 280756Z AUTO 00000KT 10SM CLR 26/M02 A3000 RMK AO2 SLP129 T02561017 404060189,M
LSV,2022-07-28 07:58,-115.0343,36.2362,570.00,76.80,76.80,100.00,40.00,4.00,0.00,29.91,1010.20,10.00,M,SCT,M,M,M,15000.00,M,M,M,M,M,M,M,M,M,M,76.80,KLSV 280758Z AUTO 04004KT 10SM SCT150 25/25 A2991 RMK AO2 SLP102 T02490249 404150229 $,M
INS,2022-07-28 07:58,-115.6733,36.5872,955.00,75.40,57.60,53.96,100.00,7.00,0.00,30.00,1010.60,10.00,M,CLR,M,M,M,M,M,M,M,M,M,M,M,M,M,M,75.40,KINS 280758Z AUTO 10007KT 10SM CLR 24/14 A3000 RMK AO2 SLP106 T02410142 403680241,M
MEV,2022-07-28 08:15,-119.7500,38.9963,1441.42,62.60,44.60,51.72,120.00,7.00,0.00,30.11,M,10.00,M,CLR,M,M,M,M,M,M,M,M,M,M,M,M,M,M,62.60,KMEV 280815Z AUTO 12007KT 10SM CLR 17/07 A3011 RMK AO2,M
TMT,2022-07-28 08:15,-117.1971,39.4643,1749.34,M,M,M,190.00,6.00,0.00,30.18,M,10.00,M,CLR,M,M,M,M,M,M,M,M,M,M,M,M,M,M,M,KTMT 280815Z AUTO 19006KT 10SM CLR A3018 RMK AO2,M
HTH,2022-07-28 08:15,-118.6315,38.5448,1282.89,82.40,35.60,18.67,330.00,5.00,0.00,30.03,M,10.00,M,CLR,M,M,M,M,M,M,M,M,M,M,M,M,M,M,80.08,KHTH 280815Z AUTO 33005KT 10SM CLR 28/02 A3003 RMK A01,M
BAM,2022-07-28 08:15,-116.8743,40.5990,1382.36,M,M,M,10.00,5.00,0.00,30.09,M,10.00,M,CLR,M,M,M,M,M,M,M,M,M,M,M,M,M,M,M,KBAM 280815Z AUTO 01005KT 10SM CLR A3009 RMK AO1,M
RTS,2022-07-28 08:15,-119.8764,39.6682,1539.00,71.60,37.40,28.68,290.00,7.00,0.00,30.15,M,10.00,M,CLR,M,M,M,M,M,M,M,M,M,M,M,M,M,M,71.60,KRTS 280815Z AUTO 29007KT 10SM CLR 22/03 A3015 RMK AO2,M
CXP,2022-07-28 08:15,-119.7326,39.1923,1431.00,78.80,37.40,22.54,M,4.00,0.00,30.12,M,10.00,M,CLR,M,M,M,M,M,M,M,M,M,M,M,M,M,M,78.80,KCXP 280815Z AUTO VRB04KT 10SM CLR 26/03 A3012 RMK AO2,M
BVU,2022-07-28 08:15,-114.8611,35.9475,671.00,M,M,M,M,M,0.00,M,M,M,M,M,M,M,M,M,M,M,M,M,M,M,M,M,M,M,M,KBVU 280815Z AUTO RMK AO2 PNO PWINO TSNO,M
TMT,2022-07-28 08:35,-117.1971,39.4643,1749.34,55.60,24.40,29.68,240.00,3.00,0.00,30.18,M,10.00,M,CLR,M,M,M,M,M,M,M,M,M,M,M,M,M,M,55.60,KTMT 280835Z AUTO 24003KT 10SM CLR 13/M04 A3018 RMK AO2 T01311042,M
CXP,2022-07-28 08:35,-119.7326,39.1923,1431.00,75.20,42.80,31.34,190.00,8.00,0.00,30.11,M,10.00,M,CLR,M,M,M,M,M,M,M,M,M,M,M,M,M,M,75.20,KCXP 280835Z AUTO 19008KT 10SM CLR 24/06 A3011 RMK AO2,M
BVU,2022-07-28 08:35,-114.8611,35.9475,671.00,M,M,M,M,M,0.00,M,M,M,M,M,M,M,M,M,M,M,M,M,M,M,M,M,M,M,M,KBVU 280835Z AUTO RMK AO2 PNO PWINO TSNO,M
HTH,2022-07-28 08:35,-118.6315,38.5448,1282.89,82.40,33.80,17.38,350.00,4.00,0.00,30.02,M,10.00,M,CLR,M,M,M,M,M,M,M,M,M,M,M,M,M,M,80.03,KHTH 280835Z AUTO 35004KT 10SM CLR 28/01 A3002 RMK A01,M
MEV,2022-07-28 08:35,-119.7500,38.9963,1441.42,62.60,42.80,48.28,90.00,6.00,0.00,30.11,M,10.00,M,CLR,M,M,M,M,M,M,M,M,M,M,M,M,M,M,62.60,KMEV 280835Z AUTO 09006KT 10SM CLR 17/06 A3011 RMK AO2,M
RTS,2022-07-28 08:35,-119.8764,39.6682,1539.00,71.60,39.20,30.77,300.00,8.00,0.00,30.15,M,10.00,M,CLR,M,M,M,M,M,M,M,M,M,M,M,M,M,M,71.60,KRTS 280835Z AUTO 30008KT 10SM CLR 22/04 A3015 RMK AO2,M
BAM,2022-07-28 08:35,-116.8743,40.5990,1382.36,M,M,M,40.00,7.00,0.00,30.08,M,10.00,M,CLR,M,M,M,M,M,M,M,M,M,M,M,M,M,M,M,KBAM 280835Z AUTO 04007KT 10SM CLR A3008 RMK AO1,M
LOL,2022-07-28 08:53,-118.5701,40.0684,1192.43,68.00,28.90,23.06,140.00,5.00,0.00,30.01,1010.90,10.00,M,CLR,M,M,M,M,M,M,M,M,M,M,M,M,M,M,68.00,KLOL 280853Z AUTO 14005KT 10SM CLR 20/M02 A3001 RMK AO2 SLP109 T02001017 51002,M
VGT,2022-07-28 08:53,-115.1933,36.2111,667.00,77.00,69.00,76.62,100.00,6.00,0.00,29.92,1011.90,10.00,M,CLR,M,M,M,M,M,M,M,M,M,M,M,M,M,M,77.00,KVGT 280853Z AUTO 10006KT 10SM CLR 25/21 A2992 RMK AO2 SLP119 60000 T02500206 56018,M
P68,2022-07-28 08:53,-116.0056,39.6014,1993.00,65.00,28.00,24.75,190.00,5.00,0.00,30.16,1011.40,M,M,M,M,M,M,M,M,M,M,M,M,M,M,M,M,M,64.90,KP68 280853Z AUTO 19005KT 18/M02 A3016 RMK AO1 SLP114 T01831022 58001,M
DRA,2022-07-28 08:53,-116.0278,36.6206,1009.00,75.00,59.00,57.50,110.00,9.00,0.00,29.99,1010.50,10.00,M,CLR,M,M,M,M,M,M,M,M,M,M,M,M,M,M,75.00,KDRA 280853Z AUTO 11009KT 10SM CLR 24/15 A2999 RMK AO2 SLP105 T02390150 50002,M
ELY,2022-07-28 08:53,-114.8453,39.2950,1909.00,61.00,46.00,57.72,140.00,6.00,0.00,30.20,1011.60,10.00,M,CLR,M,M,M,M,M,M,M,M,M,M,M,M,M,M,61.00,KELY 280853Z AUTO 14006KT 10SM CLR 16/08 A3020 RMK AO2 SLP116 T01610078 50000,M
HTH,2022-07-28 08:55,-118.6315,38.5448,1282.89,80.60,32.00,17.14,0.00,0.00,0.00,30.03,M,10.00,M,CLR,M,M,M,M,M,M,M,M,M,M,M,M,M,M,78.82,KHTH 280855Z AUTO 00000KT 10SM CLR 27/M00 A3003 RMK A01,M
BVU,2022-07-28 08:55,-114.8611,35.9475,671.00,M,M,M,M,M,0.00,M,M,M,M,M,M,M,M,M,M,M,M,M,M,M,M,M,M,M,M,KBVU 280855Z AUTO RMK AO2 PNO PWINO TSNO,M
RTS,2022-07-28 08:55,-119.8764,39.6682,1539.00,71.60,41.00,33.00,280.00,8.00,0.00,30.14,M,10.00,M,CLR,M,M,M,M,M,M,M,M,M,M,M,M,M,M,71.60,KRTS 280855Z AUTO 28008KT 10SM CLR 22/05 A3014 RMK AO2,M
BAM,2022-07-28 08:55,-116.8743,40.5990,1382.36,M,M,M,0.00,0.00,0.00,30.08,M,10.00,M,CLR,M,M,M,M,M,M,M,M,M,M,M,M,M,M,M,KBAM 280855Z AUTO 00000KT 10SM CLR A3008 RMK AO1,M
MEV,2022-07-28 08:55,-119.7500,38.9963,1441.42,62.60,41.00,45.04,0.00,0.00,0.00,30.11,M,10.00,M,CLR,M,M,M,M,M,M,M,M,M,M,M,M,M,M,62.60,KMEV 280855Z AUTO 00000KT 10SM CLR 17/05 A3011 RMK AO2,M
RNO,2022-07-28 08:55,-119.7711,39.4839,1341.00,80.00,44.00,28.01,290.00,3.00,0.00,30.08,1011.30,10.00,M,CLR,M,M,M,M,M,M,M,M,M,M,M,M,M,M,79.12,KRNO 280855Z 29003KT 10SM CLR 27/07 A3008 RMK AO2 SLP113 T02670067 58001,M
TMT,2022-07-28 08:55,-117.1971,39.4643,1749.34,56.00,27.30,32.87,200.00,4.00,0.00,30.18,M,10.00,M,CLR,M,M,M,M,M,M,M,M,M,M,M,M,M,M,56.10,KTMT 280855Z AUTO 20004KT 10SM CLR 13/M03 A3018 RMK AO2 T01341026,M
CXP,2022-07-28 08:55,-119.7326,39.1923,1431.00,77.00,42.80,29.51,M,4.00,0.00,30.12,M,10.00,15.00,CLR,M,M,M,M,M,M,M,M,M,M,M,M,M,M,77.00,KCXP 280855Z AUTO VRB04G15KT 10SM CLR 25/06 A3012 RMK AO2,M
EKO,2022-07-28 08:56,-115.7860,40.8242,1367.00,65.00,33.00,30.44,270.00,3.00,0.00,30.11,1012.50,10.00,M,CLR,M,M,M,M,M,M,M,M,M,M,M,M,M,M,64.90,KEKO 280856Z AUTO 27003KT 10SM CLR 18/01 A3011 RMK AO2 SLP125 T01830006 58000,M
TPH,2022-07-28 08:56,-117.0904,38.0505,1654.00,68.00,40.00,35.76,330.00,5.00,0.00,30.15,1011.60,10.00,M,CLR,M,M,M,M,M,M,M,M,M,M,M,M,M,M,68.00,KTPH 280856Z AUTO 33005KT 10SM CLR 20/04 A3015 RMK AO2 SLP116 T02000044 50000,M
WMC,2022-07-28 08:56,-117.8072,40.9019,1315.00,73.00,36.00,25.88,360.00,5.00,0.00,30.06,1011.30,10.00,M,CLR,M,M,M,M,M,M,M,M,M,M,M,M,M,M,73.00,KWMC 280856Z AUTO 36005KT 10SM CLR 23/02 A3006 RMK AO2 SLP113 T02280022 50001,M
HND,2022-07-28 08:56,-115.1344,35.9729,742.79,76.00,67.00,73.68,140.00,5.00,0.00,29.96,1013.00,10.00,M,CLR,M,M,M,M,M,M,M,M,M,M,M,M,M,M,75.90,KHND 280856Z AUTO 14005KT 10SM CLR 24/19 A2996 RMK AO2 SLP130 60000 T02440194 56016,M
LAS,2022-07-28 08:56,-115.1634,36.0719,663.00,78.00,66.00,66.39,120.00,7.00,0.00,29.93,1010.70,10.00,M,FEW,BKN,M,M,10000.00,14000.00,M,M,M,M,M,M,M,M,M,78.10,KLAS 280856Z 12007KT 10SM FEW100 BKN140 26/19 A2993 RMK AO2 SLP107 60000 T02560189 56012 $,M
NFL,2022-07-28 08:56,-118.7010,39.4166,1199.00,71.00,33.00,24.59,0.00,0.00,0.00,30.00,1012.90,10.00,M,CLR,M,M,M,M,M,M,M,M,M,M,M,M,M,M,71.10,KNFL 280856Z AUTO 00000KT 10SM CLR 22/01 A3000 RMK AO2 SLP129 T02170006 51001,M
INS,2022-07-28 08:58,-115.6733,36.5872,955.00,76.60,56.70,50.19,170.00,5.00,0.00,29.99,1010.20,10.00,M,CLR,M,M,M,M,M,M,M,M,M,M,M,M,M,M,76.60,KINS 280858Z AUTO 17005KT 10SM CLR 25/14 A2999 RMK AO2 SLP102 T02480137 58003,M
LSV,2022-07-28 08:58,-115.0343,36.2362,570.00,76.80,76.80,100.00,80.00,5.00,0.00,29.91,1010.20,10.00,M,BKN,M,M,M,14000.00,M,M,M,M,M,M,M,M,M,M,76.80,KLSV 280858Z AUTO 08005KT 10SM BKN140 25/25 A2991 RMK AO2 SLP102 T02490249 55015 $,M
HTH,2022-07-28 09:15,-118.6315,38.5448,1282.89,80.60,33.80,18.42,240.00,4.00,0.00,30.03,M,10.00,M,CLR,M,M,M,M,M,M,M,M,M,M,M,M,M,M,78.88,KHTH 280915Z AUTO 24004KT 10SM CLR 27/01 A3003 RMK A01,M
BVU,2022-07-28 09:15,-114.8611,35.9475,671.00,M,M,M,M,M,0.00,M,M,M,M,M,M,M,M,M,M,M,M,M,M,M,M,M,M,M,M,KBVU 280915Z AUTO RMK AO2 PNO PWINO TSNO,M
MEV,2022-07-28 09:15,-119.7500,38.9963,1441.42,60.80,42.80,51.45,0.00,0.00,0.00,30.11,M,10.00,M,CLR,M,M,M,M,M,M,M,M,M,M,M,M,M,M,60.80,KMEV 280915Z AUTO 00000KT 10SM CLR 16/06 A3011 RMK AO2,M
RTS,2022-07-28 09:15,-119.8764,39.6682,1539.00,71.60,41.00,33.00,M,6.00,0.00,30.15,M,10.00,M,CLR,M,M,M,M,M,M,M,M,M,M,M,M,M,M,71.60,KRTS 280915Z AUTO VRB06KT 10SM CLR 22/05 A3015 RMK AO2,M
CXP,2022-07-28 09:15,-119.7326,39.1923,1431.00,75.20,44.60,33.57,0.00,0.00,0.00,30.12,M,10.00,M,CLR,M,M,M,M,M,M,M,M,M,M,M,M,M,M,75.20,KCXP 280915Z AUTO 00000KT 10SM CLR 24/07 A3012 RMK AO2,M
TMT,2022-07-28 09:15,-117.1971,39.4643,1749.34,55.00,28.60,36.22,220.00,5.00,0.00,30.18,M,10.00,M,CLR,M,M,M,M,M,M,M,M,M,M,M,M,M,M,54.90,KTMT 280915Z AUTO 22005KT 10SM CLR 13/M02 A3018 RMK AO2 T01271019,M
BAM,2022-07-28 09:20,-116.8743,40.5990,1382.36,M,M,M,0.00,0.00,0.00,30.08,M,10.00,M,CLR,M,M,M,M,M,M,M,M,M,M,M,M,M,M,M,KBAM 280920Z AUTO 00000KT 10SM CLR A3008 RMK AO1,M
BVU,2022-07-28 09:35,-114.8611,35.9475,671.00,M,M,M,M,M,0.00,M,M,M,M,M,M,M,M,M,M,M,M,M,M,M,M,M,M,M,M,KBVU 280935Z AUTO RMK AO2 PNO PWINO TSNO,M
CXP,2022-07-28 09:35,-119.7326,39.1923,1431.00,71.60,44.60,37.89,0.00,0.00,0.00,30.12,M,10.00,M,CLR,M,M,M,M,M,M,M,M,M,M,M,M,M,M,71.60,KCXP 280935Z AUTO 00000KT 10SM CLR 22/07 A3012 RMK AO2,M
BAM,2022-07-28 09:35,-116.8743,40.5990,1382.36,M,M,M,0.00,0.00,0.00,30.08,M,10.00,M,CLR,M,M,M,M,M,M,M,M,M,M,M,M,M,M,M,KBAM 280935Z AUTO 00000KT 10SM CLR A3008 RMK AO1,M
MEV,2022-07-28 09:35,-119.7500,38.9963,1441.42,60.80,42.80,51.45,110.00,5.00,0.00,30.11,M,10.00,M,CLR,M,M,M,M,M,M,M,M,M,M,M,M,M,M,60.80,KMEV 280935Z AUTO 11005KT 10SM CLR 16/06 A3011 RMK AO2,M
TMT,2022-07-28 09:35,-117.1971,39.4643,1749.34,52.00,27.50,38.50,200.00,5.00,0.00,30.18,M,10.00,M,CLR,M,M,M,M,M,M,M,M,M,M,M,M,M,M,52.00,KTMT 280935Z AUTO 20005KT 10SM CLR 11/M02 A3018 RMK AO2 T01111025,M
RTS,2022-07-28 09:35,-119.8764,39.6682,1539.00,68.00,41.00,37.32,300.00,8.00,0.00,30.14,M,10.00,M,CLR,M,M,M,M,M,M,M,M,M,M,M,M,M,M,68.00,KRTS 280935Z AUTO 30008KT 10SM CLR 20/05 A3014 RMK AO2,M
HTH,2022-07-28 09:35,-118.6315,38.5448,1282.89,77.00,35.60,22.28,250.00,3.00,0.00,30.03,M,10.00,M,CLR,M,M,M,M,M,M,M,M,M,M,M,M,M,M,77.00,KHTH 280935Z AUTO 25003KT 10SM CLR 25/02 A3003 RMK A01,M
ELY,2022-07-28 09:53,-114.8453,39.2950,1909.00,56.00,44.00,64.47,140.00,3.00,0.00,30.21,1011.90,10.00,M,CLR,M,M,M,M,M,M,M,M,M,M,M,M,M,M,55.90,KELY 280953Z AUTO 14003KT 10SM CLR 13/07 A3021 RMK AO2 SLP119 T01330067,M
P68,2022-07-28 09:53,-116.0056,39.6014,1993.00,57.00,28.90,33.98,210.00,4.00,0.00,30.16,1012.30,M,M,M,M,M,M,M,M,M,M,M,M,M,M,M,M,M,57.00,KP68 280953Z AUTO 21004KT 14/M02 A3016 RMK AO1 SLP123 T01391017,M
LOL,2022-07-28 09:53,-118.5701,40.0684,1192.43,66.00,30.00,25.85,320.00,7.00,0.00,30.01,1011.10,10.00,M,CLR,M,M,M,M,M,M,M,M,M,M,M,M,M,M,66.00,KLOL 280953Z AUTO 32007KT 10SM CLR 19/M01 A3001 RMK AO2 SLP111 T01891011,M
DRA,2022-07-28 09:53,-116.0278,36.6206,1009.00,74.00,58.00,57.36,90.00,5.00,0.00,29.98,1009.80,10.00,M,CLR,M,M,M,M,M,M,M,M,M,M,M,M,M,M,73.90,KDRA 280953Z AUTO 09005KT 10SM CLR 23/14 A2998 RMK AO2 SLP098 T02330144,M
VGT,2022-07-28 09:53,-115.1933,36.2111,667.00,78.00,67.00,68.49,70.00,3.00,0.00,29.93,1012.20,10.00,M,CLR,M,M,M,M,M,M,M,M,M,M,M,M,M,M,78.10,KVGT 280953Z AUTO 07003KT 10SM CLR 26/19 A2993 RMK AO2 SLP122 T02560194,M
MEV,2022-07-28 09:55,-119.7500,38.9963,1441.42,59.00,44.60,58.77,0.00,0.00,0.00,30.11,M,10.00,M,CLR,M,M,M,M,M,M,M,M,M,M,M,M,M,M,59.00,KMEV 280955Z AUTO 00000KT 10SM CLR 15/07 A3011 RMK AO2,M
BVU,2022-07-28 09:55,-114.8611,35.9475,671.00,M,M,M,M,M,0.00,M,M,M,M,M,M,M,M,M,M,M,M,M,M,M,M,M,M,M,M,KBVU 280955Z AUTO RMK AO2 PNO PWINO TSNO,M
CXP,2022-07-28 09:55,-119.7326,39.1923,1431.00,69.80,42.80,37.61,0.00,0.00,0.00,30.12,M,10.00,M,CLR,M,M,M,M,M,M,M,M,M,M,M,M,M,M,69.80,KCXP 280955Z AUTO 00000KT 10SM CLR 21/06 A3012 RMK AO2,M
RNO,2022-07-28 09:55,-119.7711,39.4839,1341.00,75.00,45.00,34.31,200.00,5.00,0.00,30.09,1011.80,10.00,M,CLR,M,M,M,M,M,M,M,M,M,M,M,M,M,M,75.00,KRNO 280955Z 20005KT 10SM CLR 24/07 A3009 RMK AO2 SLP118 T02390072,M
RTS,2022-07-28 09:55,-119.8764,39.6682,1539.00,69.80,42.80,37.61,310.00,8.00,0.00,30.15,M,10.00,M,CLR,M,M,M,M,M,M,M,M,M,M,M,M,M,M,69.80,KRTS 280955Z AUTO 31008KT 10SM CLR 21/06 A3015 RMK AO2,M
BAM,2022-07-28 09:55,-116.8743,40.5990,1382.36,M,M,M,340.00,5.00,0.00,30.08,M,10.00,M,CLR,M,M,M,M,M,M,M,M,M,M,M,M,M,M,M,KBAM 280955Z AUTO 34005KT 10SM CLR A3008 RMK AO1,M
HTH,2022-07-28 09:55,-118.6315,38.5448,1282.89,77.00,35.60,22.28,190.00,4.00,0.00,30.03,M,10.00,M,CLR,M,M,M,M,M,M,M,M,M,M,M,M,M,M,77.00,KHTH 280955Z AUTO 19004KT 10SM CLR 25/02 A3003 RMK A01,M
TMT,2022-07-28 09:55,-117.1971,39.4643,1749.34,50.00,26.20,39.30,200.00,4.00,0.00,30.18,M,10.00,M,CLR,M,M,M,M,M,M,M,M,M,M,M,M,M,M,50.00,KTMT 280955Z AUTO 20004KT 10SM CLR 10/M03 A3018 RMK AO2 T01001032,M
TPH,2022-07-28 09:56,-117.0904,38.0505,1654.00,67.00,41.00,38.76,30.00,8.00,0.00,30.14,1011.60,10.00,M,CLR,M,M,M,M,M,M,M,M,M,M,M,M,M,M,66.90,KTPH 280956Z AUTO 03008KT 10SM CLR 19/05 A3014 RMK AO2 SLP116 T01940050,M
LAS,2022-07-28 09:56,-115.1634,36.0719,663.00,75.00,68.00,78.86,100.00,3.00,0.00,29.93,1010.70,10.00,M,FEW,OVC,M,M,10000.00,16000.00,M,M,M,M,M,M,M,M,M,75.00,KLAS 280956Z 10003KT 10SM FEW100 OVC160 24/20 A2993 RMK AO2 SLP107 T02390200 $,M
WMC,2022-07-28 09:56,-117.8072,40.9019,1315.00,70.00,36.00,28.65,340.00,3.00,0.00,30.06,1011.50,10.00,M,CLR,M,M,M,M,M,M,M,M,M,M,M,M,M,M,70.00,KWMC 280956Z AUTO 34003KT 10SM CLR 21/02 A3006 RMK AO2 SLP115 T02110022,M
HND,2022-07-28 09:56,-115.1344,35.9729,742.79,76.00,67.00,73.68,180.00,5.00,0.00,29.96,1013.10,10.00,M,CLR,M,M,M,M,M,M,M,M,M,M,M,M,M,M,75.90,KHND 280956Z AUTO 18005KT 10SM CLR 24/19 A2996 RMK AO2 SLP131 T02440194,M
EKO,2022-07-28 09:56,-115.7860,40.8242,1367.00,63.00,33.00,32.53,290.00,4.00,0.00,30.11,1012.40,10.00,M,CLR,M,M,M,M,M,M,M,M,M,M,M,M,M,M,63.00,KEKO 280956Z AUTO 29004KT 10SM CLR 17/01 A3011 RMK AO2 SLP124 T01720006,M
NFL,2022-07-28 09:56,-118.7010,39.4166,1199.00,69.00,37.00,30.74,240.00,5.00,0.00,30.01,1013.20,10.00,M,CLR,M,M,M,M,M,M,M,M,M,M,M,M,M,M,69.10,KNFL 280956Z AUTO 24005KT 10SM CLR 21/03 A3001 RMK AO2 SLP132 T02060028,M
LSV,2022-07-28 09:58,-115.0343,36.2362,570.00,76.60,76.60,100.00,80.00,14.00,0.00,29.92,1010.50,10.00,M,BKN,M,M,M,15000.00,M,M,M,M,M,M,M,M,M,M,76.60,KLSV 280958Z AUTO 08014KT 10SM BKN150 25/25 A2992 RMK AO2 SLP105 T02480248 $,M
INS,2022-07-28 09:58,-115.6733,36.5872,955.00,74.80,56.00,51.77,280.00,4.00,0.00,29.98,1010.10,10.00,M,BKN,M,M,M,17000.00,M,M,M,M,M,M,M,M,M,M,74.80,KINS 280958Z AUTO 28004KT 10SM BKN170 24/13 A2998 RMK AO2 SLP101 T02380133,M
MEV,2022-07-28 10:15,-119.7500,38.9963,1441.42,60.80,41.00,48.00,0.00,0.00,0.00,30.12,M,10.00,M,FEW,FEW,M,M,4200.00,5000.00,M,M,M,M,M,M,M,M,M,60.80,KMEV 281015Z AUTO 00000KT 10SM FEW042 FEW050 16/05 A3012 RMK AO2,M
HTH,2022-07-28 10:15,-118.6315,38.5448,1282.89,77.00,32.00,19.30,220.00,5.00,0.00,30.03,M,10.00,M,M,M,M,M,M,M,M,M,M,M,M,M,M,M,M,77.00,KHTH 281015Z AUTO 22005KT 10SM 25/00 A3003 RMK A01,M
TMT,2022-07-28 10:15,-117.1971,39.4643,1749.34,51.60,26.60,37.65,230.00,4.00,0.00,30.18,M,10.00,M,CLR,M,M,M,M,M,M,M,M,M,M,M,M,M,M,51.60,KTMT 281015Z AUTO 23004KT 10SM CLR 11/M03 A3018 RMK AO2 T01091030,M
BVU,2022-07-28 10:15,-114.8611,35.9475,671.00,M,M,M,M,M,0.00,M,M,M,M,M,M,M,M,M,M,M,M,M,M,M,M,M,M,M,M,KBVU 281015Z AUTO RMK AO2 PNO PWINO TSNO,M
CXP,2022-07-28 10:15,-119.7326,39.1923,1431.00,68.00,44.60,42.85,0.00,0.00,0.00,30.12,M,10.00,M,CLR,M,M,M,M,M,M,M,M,M,M,M,M,M,M,68.00,KCXP 281015Z AUTO 00000KT 10SM CLR 20/07 A3012 RMK AO2,M
RTS,2022-07-28 10:15,-119.8764,39.6682,1539.00,68.00,41.00,37.32,300.00,7.00,0.00,30.15,M,10.00,M,CLR,M,M,M,M,M,M,M,M,M,M,M,M,M,M,68.00,KRTS 281015Z AUTO 30007KT 10SM CLR 20/05 A3015 RMK AO2,M
BAM,2022-07-28 10:15,-116.8743,40.5990,1382.36,M,M,M,330.00,7.00,0.00,30.08,M,10.00,M,CLR,M,M,M,M,M,M,M,M,M,M,M,M,M,M,M,KBAM 281015Z AUTO 33007KT 10SM CLR A3008 RMK AO1,M
BAM,2022-07-28 10:35,-116.8743,40.5990,1382.36,M,M,M,330.00,6.00,0.00,30.08,M,7.00,M,CLR,M,M,M,M,M,M,M,M,M,M,M,M,M,M,M,KBAM 281035Z AUTO 33006KT 7SM CLR A3008 RMK AO1,M
BVU,2022-07-28 10:35,-114.8611,35.9475,671.00,M,M,M,M,M,0.00,M,M,M,M,M,M,M,M,M,M,M,M,M,M,M,M,M,M,M,M,KBVU 281035Z AUTO RMK AO2 PNO PWINO TSNO,M
CXP,2022-07-28 10:35,-119.7326,39.1923,1431.00,69.80,42.80,37.61,0.00,0.00,0.00,30.13,M,10.00,M,CLR,M,M,M,M,M,M,M,M,M,M,M,M,M,M,69.80,KCXP 281035Z AUTO 00000KT 10SM CLR 21/06 A3013 RMK AO2,M
RTS,2022-07-28 10:35,-119.8764,39.6682,1539.00,66.20,42.80,42.57,320.00,5.00,0.00,30.15,M,10.00,M,CLR,M,M,M,M,M,M,M,M,M,M,M,M,M,M,66.20,KRTS 281035Z AUTO 32005KT 10SM CLR 19/06 A3015 RMK AO2,M
MEV,2022-07-28 10:35,-119.7500,38.9963,1441.42,59.00,41.00,51.18,0.00,0.00,0.00,30.11,M,10.00,M,CLR,M,M,M,M,M,M,M,M,M,M,M,M,M,M,59.00,KMEV 281035Z AUTO 00000KT 10SM CLR 15/05 A3011 RMK AO2,M
HTH,2022-07-28 10:35,-118.6315,38.5448,1282.89,77.00,30.20,17.94,250.00,6.00,0.00,30.03,M,10.00,M,CLR,M,M,M,M,M,M,M,M,M,M,M,M,M,M,77.00,KHTH 281035Z AUTO 25006KT 10SM CLR 25/M01 A3003 RMK A01,M
TMT,2022-07-28 10:35,-117.1971,39.4643,1749.34,53.80,27.50,36.04,230.00,4.00,0.00,30.18,M,10.00,M,CLR,M,M,M,M,M,M,M,M,M,M,M,M,M,M,53.80,KTMT 281035Z AUTO 23004KT 10SM CLR 12/M02 A3018 RMK AO2 T01211025,M
ELY,2022-07-28 10:53,-114.8453,39.2950,1909.00,54.00,44.00,69.09,190.00,8.00,0.00,30.21,1012.30,10.00,M,CLR,M,M,M,M,M,M,M,M,M,M,M,M,M,M,54.00,KELY 281053Z AUTO 19008KT 10SM CLR 12/07 A3021 RMK AO2 SLP123 T01220067,M
P68,2022-07-28 10:53,-116.0056,39.6014,1993.00,59.00,28.90,31.63,210.00,5.00,0.00,30.17,1012.10,M,M,M,M,M,M,M,M,M,M,M,M,M,M,M,M,M,59.00,KP68 281053Z AUTO 21005KT 15/M02 A3017 RMK AO1 SLP121 T01501017,M
VGT,2022-07-28 10:53,-115.1933,36.2111,667.00,77.00,66.00,68.85,110.00,7.00,0.00,29.95,1012.90,10.00,M,CLR,M,M,M,M,M,M,M,M,M,M,M,M,M,M,77.00,KVGT 281053Z AUTO 11007KT 10SM CLR 25/19 A2995 RMK AO2 SLP129 T02500189,M
DRA,2022-07-28 10:53,-116.0278,36.6206,1009.00,74.00,58.00,57.36,110.00,7.00,0.00,29.98,1009.90,10.00,M,CLR,M,M,M,M,M,M,M,M,M,M,M,M,M,M,73.90,KDRA 281053Z AUTO 11007KT 10SM CLR 23/14 A2998 RMK AO2 SLP099 T02330144,M
LOL,2022-07-28 10:53,-118.5701,40.0684,1192.43,76.00,32.00,20.01,10.00,5.00,0.00,30.02,1010.80,10.00,M,CLR,M,M,M,M,M,M,M,M,M,M,M,M,M,M,75.90,KLOL 281053Z AUTO 01005KT 10SM CLR 24/00 A3002 RMK AO2 SLP108 T02440000,M
HTH,2022-07-28 10:55,-118.6315,38.5448,1282.89,78.80,30.20,16.90,270.00,7.00,0.00,30.03,M,10.00,M,CLR,M,M,M,M,M,M,M,M,M,M,M,M,M,M,78.80,KHTH 281055Z AUTO 27007KT 10SM CLR 26/M01 A3003 RMK A01,M
BAM,2022-07-28 10:55,-116.8743,40.5990,1382.36,M,M,M,360.00,3.00,0.00,30.09,M,10.00,M,CLR,M,M,M,M,M,M,M,M,M,M,M,M,M,M,M,KBAM 281055Z AUTO 36003KT 10SM CLR A3009 RMK AO1,M
BVU,2022-07-28 10:55,-114.8611,35.9475,671.00,M,M,M,M,M,0.00,M,M,M,M,M,M,M,M,M,M,M,M,M,M,M,M,M,M,M,M,KBVU 281055Z AUTO RMK AO2 PNO PWINO TSNO,M
RNO,2022-07-28 10:55,-119.7711,39.4839,1341.00,75.00,45.00,34.31,250.00,4.00,0.00,30.09,1011.90,10.00,M,CLR,M,M,M,M,M,M,M,M,M,M,M,M,M,M,75.00,KRNO 281055Z 25004KT 10SM CLR 24/07 A3009 RMK AO2 SLP119 T02390072,M
CXP,2022-07-28 10:55,-119.7326,39.1923,1431.00,68.00,42.80,40.00,0.00,0.00,0.00,30.13,M,10.00,M,CLR,M,M,M,M,M,M,M,M,M,M,M,M,M,M,68.00,KCXP 281055Z AUTO 00000KT 10SM CLR 20/06 A3013 RMK AO2,M
RTS,2022-07-28 10:55,-119.8764,39.6682,1539.00,66.20,42.80,42.57,300.00,7.00,0.00,30.15,M,10.00,M,CLR,M,M,M,M,M,M,M,M,M,M,M,M,M,M,66.20,KRTS 281055Z AUTO 30007KT 10SM CLR 19/06 A3015 RMK AO2,M
TMT,2022-07-28 10:55,-117.1971,39.4643,1749.34,53.00,28.20,38.34,0.00,0.00,0.00,30.18,M,10.00,M,CLR,M,M,M,M,M,M,M,M,M,M,M,M,M,M,52.90,KTMT 281055Z AUTO 00000KT 10SM CLR 12/M02 A3018 RMK AO2 T01161021,M
MEV,2022-07-28 10:55,-119.7500,38.9963,1441.42,55.40,42.80,62.46,0.00,0.00,0.00,30.12,M,10.00,M,CLR,M,M,M,M,M,M,M,M,M,M,M,M,M,M,55.40,KMEV 281055Z AUTO 00000KT 10SM CLR 13/06 A3012 RMK AO2,M
NFL,2022-07-28 10:56,-118.7010,39.4166,1199.00,71.00,33.00,24.59,250.00,3.00,0.00,30.01,1013.30,10.00,M,CLR,M,M,M,M,M,M,M,M,M,M,M,M,M,M,71.10,KNFL 281056Z AUTO 25003KT 10SM CLR 22/01 A3001 RMK AO2 SLP133 T02170006,M
EKO,2022-07-28 10:56,-115.7860,40.8242,1367.00,63.00,34.00,33.72,90.00,4.00,0.00,30.12,1013.10,10.00,M,CLR,M,M,M,M,M,M,M,M,M,M,M,M,M,M,63.00,KEKO 281056Z AUTO 09004KT 10SM CLR 17/01 A3012 RMK AO2 SLP131 T01720011,M
WMC,2022-07-28 10:56,-117.8072,40.9019,1315.00,68.00,36.00,30.69,320.00,7.00,0.00,30.07,1012.20,10.00,M,CLR,M,M,M,M,M,M,M,M,M,M,M,M,M,M,68.00,KWMC 281056Z AUTO 32007KT 10SM CLR 20/02 A3007 RMK AO2 SLP122 T02000022,M
HND,2022-07-28 10:56,-115.1344,35.9729,742.79,74.00,68.00,81.82,0.00,0.00,0.00,29.98,1014.10,10.00,M,SCT,M,M,M,11000.00,M,M,M,M,M,M,M,M,M,M,73.90,KHND 281056Z AUTO 00000KT 10SM SCT110 23/20 A2998 RMK AO2 SLP141 T02330200,M
TPH,2022-07-28 10:56,-117.0904,38.0505,1654.00,65.00,39.00,38.44,360.00,5.00,0.00,30.15,1011.90,10.00,M,CLR,M,M,M,M,M,M,M,M,M,M,M,M,M,M,64.90,KTPH 281056Z AUTO 36005KT 10SM CLR 18/04 A3015 RMK AO2 SLP119 T01830039,M
LAS,2022-07-28 10:56,-115.1634,36.0719,663.00,77.00,66.00,68.85,70.00,4.00,0.00,29.95,1011.50,10.00,M,BKN,OVC,M,M,11000.00,16000.00,M,M,M,M,M,M,M,M,M,77.00,KLAS 281056Z 07004KT 10SM BKN110 OVC160 25/19 A2995 RMK AO2 SLP115 T02500189 $,M
LSV,2022-07-28 10:58,-115.0343,36.2362,570.00,76.30,76.30,100.00,80.00,6.00,0.00,29.92,1010.60,10.00,M,OVC,M,M,M,16000.00,M,M,M,M,M,M,M,M,M,M,76.30,KLSV 281058Z AUTO 08006KT 10SM OVC160 25/25 A2992 RMK AO2 SLP106 T02460246 $,M
INS,2022-07-28 10:58,-115.6733,36.5872,955.00,75.00,57.20,53.90,0.00,0.00,0.00,29.98,1009.90,10.00,M,OVC,M,M,M,17000.00,M,M,M,M,M,M,M,M,M,M,75.00,KINS 281058Z AUTO 00000KT 10SM OVC170 24/14 A2998 RMK AO2 SLP099 T02390140,M
BVU,2022-07-28 11:15,-114.8611,35.9475,671.00,M,M,M,M,M,0.00,M,M,M,M,M,M,M,M,M,M,M,M,M,M,M,M,M,M,M,M,KBVU 281115Z AUTO RMK AO2 PNO PWINO TSNO,M
CXP,2022-07-28 11:15,-119.7326,39.1923,1431.00,66.20,42.80,42.57,0.00,0.00,0.00,30.13,M,10.00,M,CLR,M,M,M,M,M,M,M,M,M,M,M,M,M,M,66.20,KCXP 281115Z AUTO 00000KT 10SM CLR 19/06 A3013 RMK AO2,M
RTS,2022-07-28 11:15,-119.8764,39.6682,1539.00,64.40,41.00,42.28,350.00,4.00,0.00,30.16,M,10.00,M,CLR,M,M,M,M,M,M,M,M,M,M,M,M,M,M,64.40,KRTS 281115Z AUTO 35004KT 10SM CLR 18/05 A3016 RMK AO2,M
MEV,2022-07-28 11:15,-119.7500,38.9963,1441.42,57.20,42.80,58.52,80.00,3.00,0.00,30.12,M,10.00,M,CLR,M,M,M,M,M,M,M,M,M,M,M,M,M,M,57.20,KMEV 281115Z AUTO 08003KT 10SM CLR 14/06 A3012 RMK AO2,M
HTH,2022-07-28 11:15,-118.6315,38.5448,1282.89,75.20,32.00,20.49,0.00,0.00,0.00,30.04,M,10.00,M,CLR,M,M,M,M,M,M,M,M,M,M,M,M,M,M,75.20,KHTH 281115Z AUTO 00000KT 10SM CLR 24/M00 A3004 RMK A01,M
BAM,2022-07-28 11:15,-116.8743,40.5990,1382.36,M,M,M,90.00,3.00,0.00,30.09,M,10.00,M,CLR,M,M,M,M,M,M,M,M,M,M,M,M,M,M,M,KBAM 281115Z AUTO 09003KT 10SM CLR A3009 RMK AO1,M
TMT,2022-07-28 11:15,-117.1971,39.4643,1749.34,48.20,26.10,41.86,0.00,0.00,0.00,30.19,M,10.00,M,CLR,M,M,M,M,M,M,M,M,M,M,M,M,M,M,48.20,KTMT 281115Z AUTO 00000KT 10SM CLR 09/M03 A3019 RMK AO2 T00901033,M
MEV,2022-07-28 11:35,-119.7500,38.9963,1441.42,55.40,41.00,58.27,0.00,0.00,0.00,30.12,M,10.00,M,CLR,M,M,M,M,M,M,M,M,M,M,M,M,M,M,55.40,KMEV 281135Z AUTO 00000KT 10SM CLR 13/05 A3012 RMK AO2,M
HTH,2022-07-28 11:35,-118.6315,38.5448,1282.89,73.40,30.20,20.23,0.00,0.00,0.00,30.04,M,10.00,M,CLR,M,M,M,M,M,M,M,M,M,M,M,M,M,M,73.40,KHTH 281135Z AUTO 00000KT 10SM CLR 23/M01 A3004 RMK A01,M
TMT,2022-07-28 11:35,-117.1971,39.4643,1749.34,46.40,24.40,41.73,0.00,0.00,0.00,30.19,M,10.00,M,CLR,M,M,M,M,M,M,M,M,M,M,M,M,M,M,46.40,KTMT 281135Z AUTO 00000KT 10SM CLR 08/M04 A3019 RMK AO2 T00801042,M
BVU,2022-07-28 11:35,-114.8611,35.9475,671.00,M,M,M,M,M,0.00,M,M,M,M,M,M,M,M,M,M,M,M,M,M,M,M,M,M,M,M,KBVU 281135Z AUTO RMK AO2 PNO PWINO TSNO,M
CXP,2022-07-28 11:35,-119.7326,39.1923,1431.00,66.20,42.80,42.57,0.00,0.00,0.00,30.13,M,10.00,M,CLR,M,M,M,M,M,M,M,M,M,M,M,M,M,M,66.20,KCXP 281135Z AUTO 00000KT 10SM CLR 19/06 A3013 RMK AO2,M
RTS,2022-07-28 11:35,-119.8764,39.6682,1539.00,64.40,41.00,42.28,330.00,6.00,0.00,30.16,M,10.00,M,CLR,M,M,M,M,M,M,M,M,M,M,M,M,M,M,64.40,KRTS 281135Z AUTO 33006KT 10SM CLR 18/05 A3016 RMK AO2,M
BAM,2022-07-28 11:35,-116.8743,40.5990,1382.36,M,M,M,90.00,4.00,0.00,30.10,M,10.00,M,CLR,M,M,M,M,M,M,M,M,M,M,M,M,M,M,M,KBAM 281135Z AUTO 09004KT 10SM CLR A3010 RMK AO1,M
LOL,2022-07-28 11:53,-118.5701,40.0684,1192.43,74.00,33.00,22.37,10.00,8.00,0.00,30.03,1011.30,10.00,M,CLR,M,M,M,M,M,M,M,M,M,M,M,M,M,M,73.90,KLOL 281153Z AUTO 01008KT 10SM CLR 23/01 A3003 RMK AO2 SLP113 T02330006 10289 20172 53005,M
P68,2022-07-28 11:53,-116.0056,39.6014,1993.00,58.00,30.90,35.69,200.00,6.00,0.00,30.18,1012.40,M,M,M,M,M,M,M,M,M,M,M,M,M,M,M,M,M,57.90,KP68 281153Z AUTO 20006KT 14/M01 A3018 RMK AO1 SLP124 T01441006 10261 20128 53005,M
VGT,2022-07-28 11:53,-115.1933,36.2111,667.00,78.00,66.00,66.39,210.00,4.00,0.00,29.95,1013.00,10.00,M,CLR,M,M,M,M,M,M,M,M,M,M,M,M,M,M,78.10,KVGT 281153Z AUTO 21004KT 10SM CLR 26/19 A2995 RMK AO2 SLP130 60000 T02560189 10267 20250 51008,M
ELY,2022-07-28 11:53,-114.8453,39.2950,1909.00,52.00,44.00,74.35,160.00,6.00,0.00,30.21,1013.10,10.00,M,CLR,M,M,M,M,M,M,M,M,M,M,M,M,M,M,52.00,KELY 281153Z AUTO 16006KT 10SM CLR 11/07 A3021 RMK AO2 SLP131 T01110067 10217 20111 51002,M
DRA,2022-07-28 11:53,-116.0278,36.6206,1009.00,72.00,58.00,61.15,130.00,4.00,0.00,29.98,1010.00,10.00,M,CLR,M,M,M,M,M,M,M,M,M,M,M,M,M,M,72.00,KDRA 281153Z AUTO 13004KT 10SM CLR 22/14 A2998 RMK AO2 SLP100 T02220144 10300 20217 55002,M
CXP,2022-07-28 11:55,-119.7326,39.1923,1431.00,64.40,42.80,45.32,0.00,0.00,0.00,30.13,M,10.00,M,CLR,M,M,M,M,M,M,M,M,M,M,M,M,M,M,64.40,KCXP 281155Z AUTO 00000KT 10SM CLR 18/06 A3013 RMK AO2,M
RNO,2022-07-28 11:55,-119.7711,39.4839,1341.00,70.00,46.00,42.20,0.00,0.00,0.00,30.10,1012.40,10.00,M,CLR,M,M,M,M,M,M,M,M,M,M,M,M,M,M,70.00,KRNO 281155Z 00000KT 10SM CLR 21/08 A3010 RMK AO2 SLP124 T02110078 10311 20211 53006,M
RTS,2022-07-28 11:55,-119.8764,39.6682,1539.00,64.40,41.00,42.28,330.00,6.00,0.00,30.16,M,10.00,M,CLR,M,M,M,M,M,M,M,M,M,M,M,M,M,M,64.40,KRTS 281155Z AUTO 33006KT 10SM CLR 18/05 A3016 RMK AO2,M
MEV,2022-07-28 11:55,-119.7500,38.9963,1441.42,55.40,42.80,62.46,90.00,4.00,0.00,30.12,M,10.00,M,CLR,M,M,M,M,M,M,M,M,M,M,M,M,M,M,55.40,KMEV 281155Z AUTO 09004KT 10SM CLR 13/06 A3012 RMK AO2,M
BAM,2022-07-28 11:55,-116.8743,40.5990,1382.36,M,M,M,0.00,0.00,0.00,30.10,M,10.00,M,CLR,M,M,M,M,M,M,M,M,M,M,M,M,M,M,M,KBAM 281155Z AUTO 00000KT 10SM CLR A3010 RMK AO1,M
HTH,2022-07-28 11:55,-118.6315,38.5448,1282.89,73.40,32.00,21.76,210.00,4.00,0.00,30.05,M,10.00,M,CLR,M,M,M,M,M,M,M,M,M,M,M,M,M,M,73.40,KHTH 281155Z AUTO 21004KT 10SM CLR 23/00 A3005 RMK A01,M
TMT,2022-07-28 11:55,-117.1971,39.4643,1749.34,44.20,24.60,45.75,140.00,6.00,0.00,30.19,M,10.00,M,CLR,M,M,M,M,M,M,M,M,M,M,M,M,M,M,40.22,KTMT 281155Z AUTO 14006KT 10SM CLR 07/M04 A3019 RMK AO2 T00681041,M
BVU,2022-07-28 11:55,-114.8611,35.9475,671.00,M,M,M,M,M,0.00,M,M,M,M,M,M,M,M,M,M,M,M,M,M,M,M,M,M,M,M,KBVU 281155Z AUTO RMK AO2 PNO PWINO TSNO,M
WMC,2022-07-28 11:56,-117.8072,40.9019,1315.00,65.00,36.00,34.17,280.00,6.00,0.00,30.08,1012.30,10.00,M,CLR,M,M,M,M,M,M,M,M,M,M,M,M,M,M,64.90,KWMC 281156Z AUTO 28006KT 10SM CLR 18/02 A3008 RMK AO2 SLP123 T01830022 10272 20183 53005,M
TPH,2022-07-28 11:56,-117.0904,38.0505,1654.00,65.00,40.00,39.82,360.00,8.00,0.00,30.15,1012.10,10.00,M,CLR,M,M,M,M,M,M,M,M,M,M,M,M,M,M,64.90,KTPH 281156Z AUTO 36008KT 10SM CLR 18/04 A3015 RMK AO2 SLP121 T01830044 10261 20178 53001,M
EKO,2022-07-28 11:56,-115.7860,40.8242,1367.00,62.00,35.00,36.37,100.00,5.00,0.00,30.12,1013.30,10.00,M,CLR,M,M,M,M,M,M,M,M,M,M,M,M,M,M,62.10,KEKO 281156Z AUTO 10005KT 10SM CLR 17/02 A3012 RMK AO2 SLP133 T01670017 10267 20156 53004,M
NFL,2022-07-28 11:56,-118.7010,39.4166,1199.00,67.00,35.00,30.75,250.00,3.00,0.00,30.03,1013.70,10.00,M,CLR,M,M,M,M,M,M,M,M,M,M,M,M,M,M,66.90,KNFL 281156Z AUTO 25003KT 10SM CLR 19/02 A3003 RMK AO2 SLP137 T01940017 10278 20189 53008,M
LAS,2022-07-28 11:56,-115.1634,36.0719,663.00,78.00,65.00,63.90,290.00,8.00,0.00,29.96,1011.70,10.00,M,FEW,OVC,M,M,11000.00,17000.00,M,M,M,M,M,M,M,M,M,78.10,KLAS 281156Z 29008KT 10SM FEW110 OVC170 26/18 A2996 RMK AO2 SLP117 60000 T02560183 10272 20239 53007 $,M
HND,2022-07-28 11:56,-115.1344,35.9729,742.79,76.00,66.00,71.41,310.00,3.00,0.00,29.99,1014.40,10.00,M,FEW,M,M,M,11000.00,M,M,M,M,M,M,M,M,M,M,75.90,KHND 281156Z AUTO 31003KT 10SM FEW110 24/19 A2999 RMK AO2 SLP144 60000 70002 T02440189 10250 20233 53009,M
LSV,2022-07-28 11:58,-115.0343,36.2362,570.00,76.50,76.50,100.00,80.00,5.00,0.00,29.93,1011.00,10.00,M,BKN,OVC,M,M,17000.00,20000.00,M,M,M,M,M,M,M,M,M,76.50,KLSV 281158Z AUTO 08005KT 10SM BKN170 OVC200 25/25 A2993 RMK AO2 SLP110 70024 T02470247 10251 20240 52005 $,M
INS,2022-07-28 11:58,-115.6733,36.5872,955.00,75.00,58.60,56.69,110.00,10.00,0.00,29.99,1010.20,10.00,M,OVC,M,M,M,18000.00,M,M,M,M,M,M,M,M,M,M,75.00,KINS 281158Z AUTO 11010KT 10SM OVC180 24/15 A2999 RMK AO2 SLP102 T02390148 10261 20234 53002,M
CXP,2022-07-28 12:15,-119.7326,39.1923,1431.00,62.60,41.00,45.04,0.00,0.00,0.00,30.14,M,10.00,M,CLR,M,M,M,M,M,M,M,M,M,M,M,M,M,M,62.60,KCXP 281215Z AUTO 00000KT 10SM CLR 17/05 A3014 RMK AO2,M
BVU,2022-07-28 12:15,-114.8611,35.9475,671.00,M,M,M,M,M,0.00,M,M,M,M,M,M,M,M,M,M,M,M,M,M,M,M,M,M,M,M,KBVU 281215Z AUTO RMK AO2 PNO PWINO TSNO,M
RTS,2022-07-28 12:15,-119.8764,39.6682,1539.00,62.60,41.00,45.04,M,5.00,0.00,30.16,M,10.00,M,CLR,M,M,M,M,M,M,M,M,M,M,M,M,M,M,62.60,KRTS 281215Z AUTO VRB05KT 10SM CLR 17/05 A3016 RMK AO2,M
MEV,2022-07-28 12:15,-119.7500,38.9963,1441.42,55.40,42.80,62.46,0.00,0.00,0.00,30.12,M,10.00,M,CLR,M,M,M,M,M,M,M,M,M,M,M,M,M,M,55.40,KMEV 281215Z AUTO 00000KT 10SM CLR 13/06 A3012 RMK AO2,M
BAM,2022-07-28 12:15,-116.8743,40.5990,1382.36,M,M,M,0.00,0.00,0.00,30.10,M,10.00,M,CLR,M,M,M,M,M,M,M,M,M,M,M,M,M,M,M,KBAM 281215Z AUTO 00000KT 10SM CLR A3010 RMK AO1,M
HTH,2022-07-28 12:15,-118.6315,38.5448,1282.89,73.40,33.80,23.39,0.00,0.00,0.00,30.05,M,10.00,M,CLR,M,M,M,M,M,M,M,M,M,M,M,M,M,M,73.40,KHTH 281215Z AUTO 00000KT 10SM CLR 23/01 A3005 RMK A01,M
TMT,2022-07-28 12:15,-117.1971,39.4643,1749.34,47.30,26.80,44.57,0.00,0.00,0.00,30.19,M,10.00,M,CLR,M,M,M,M,M,M,M,M,M,M,M,M,M,M,47.30,KTMT 281215Z AUTO 00000KT 10SM CLR 09/M03 A3019 RMK AO2 T00851029,M
BAM,2022-07-28 12:35,-116.8743,40.5990,1382.36,M,M,M,110.00,4.00,0.00,30.10,M,10.00,M,CLR,M,M,M,M,M,M,M,M,M,M,M,M,M,M,M,KBAM 281235Z AUTO 11004KT 10SM CLR A3010 RMK AO1,M
BVU,2022-07-28 12:35,-114.8611,35.9475,671.00,M,M,M,M,M,0.00,M,M,M,M,M,M,M,M,M,M,M,M,M,M,M,M,M,M,M,M,KBVU 281235Z AUTO RMK AO2 PNO PWINO TSNO,M
CXP,2022-07-28 12:35,-119.7326,39.1923,1431.00,64.40,41.00,42.28,0.00,0.00,0.00,30.14,M,10.00,M,CLR,M,M,M,M,M,M,M,M,M,M,M,M,M,M,64.40,KCXP 281235Z AUTO 00000KT 10SM CLR 18/05 A3014 RMK AO2,M
RTS,2022-07-28 12:35,-119.8764,39.6682,1539.00,62.60,41.00,45.04,320.00,9.00,0.00,30.17,M,10.00,M,CLR,M,M,M,M,M,M,M,M,M,M,M,M,M,M,62.60,KRTS 281235Z AUTO 32009KT 10SM CLR 17/05 A3017 RMK AO2,M
HTH,2022-07-28 12:35,-118.6315,38.5448,1282.89,73.40,32.00,21.76,0.00,0.00,0.00,30.06,M,10.00,M,CLR,M,M,M,M,M,M,M,M,M,M,M,M,M,M,73.40,KHTH 281235Z AUTO 00000KT 10SM CLR 23/00 A3006 RMK A01,M
TMT,2022-07-28 12:35,-117.1971,39.4643,1749.34,45.00,26.20,47.43,0.00,0.00,0.00,30.20,M,10.00,M,CLR,M,M,M,M,M,M,M,M,M,M,M,M,M,M,45.00,KTMT 281235Z AUTO 00000KT 10SM CLR 07/M03 A3020 RMK AO2 T00721032,M
MEV,2022-07-28 12:35,-119.7500,38.9963,1441.42,53.60,42.80,66.70,40.00,3.00,0.00,30.13,M,10.00,M,CLR,M,M,M,M,M,M,M,M,M,M,M,M,M,M,53.60,KMEV 281235Z AUTO 04003KT 10SM CLR 12/06 A3013 RMK AO2,M
ELY,2022-07-28 12:53,-114.8453,39.2950,1909.00,53.00,45.00,73.89,170.00,10.00,0.00,30.21,1012.80,10.00,M,CLR,M,M,M,M,M,M,M,M,M,M,M,M,M,M,53.10,KELY 281253Z AUTO 17010KT 10SM CLR 12/07 A3021 RMK AO2 SLP128 T01170072,M
VGT,2022-07-28 12:53,-115.1933,36.2111,667.00,79.00,64.00,60.11,0.00,0.00,0.00,29.95,1013.00,10.00,M,CLR,M,M,M,M,M,M,M,M,M,M,M,M,M,M,79.00,KVGT 281253Z 00000KT 10SM CLR 26/18 A2995 RMK AO2 SLP130 T02610178,M
P68,2022-07-28 12:53,-116.0056,39.6014,1993.00,57.00,32.00,38.54,190.00,5.00,0.00,30.18,1012.70,M,M,M,M,M,M,M,M,M,M,M,M,M,M,M,M,M,57.00,KP68 281253Z AUTO 19005KT 14/00 A3018 RMK AO1 SLP127 T01390000,M
LOL,2022-07-28 12:53,-118.5701,40.0684,1192.43,70.00,33.00,25.53,M,6.00,0.00,30.04,1011.80,10.00,M,CLR,M,M,M,M,M,M,M,M,M,M,M,M,M,M,70.00,KLOL 281253Z AUTO VRB06KT 10SM CLR 21/01 A3004 RMK AO2 SLP118 T02110006,M
DRA,2022-07-28 12:53,-116.0278,36.6206,1009.00,73.00,58.00,59.12,90.00,11.00,0.00,29.99,1010.10,10.00,M,CLR,M,M,M,M,M,M,M,M,M,M,M,M,M,M,73.00,KDRA 281253Z AUTO 09011KT 10SM CLR 23/14 A2999 RMK AO2 SLP101 T02280144,M
RTS,2022-07-28 12:55,-119.8764,39.6682,1539.00,64.40,41.00,42.28,300.00,8.00,0.00,30.17,M,10.00,M,CLR,M,M,M,M,M,M,M,M,M,M,M,M,M,M,64.40,KRTS 281255Z AUTO 30008KT 10SM CLR 18/05 A3017 RMK AO2,M
BVU,2022-07-28 12:55,-114.8611,35.9475,671.00,M,M,M,M,M,0.00,M,M,M,M,M,M,M,M,M,M,M,M,M,M,M,M,M,M,M,M,KBVU 281255Z AUTO RMK AO2 PNO PWINO TSNO,M
RNO,2022-07-28 12:55,-119.7711,39.4839,1341.00,69.00,46.00,43.52,180.00,3.00,0.00,30.11,1012.90,10.00,M,FEW,M,M,M,15000.00,M,M,M,M,M,M,M,M,M,M,69.10,KRNO 281255Z 18003KT 10SM FEW150 21/08 A3011 RMK AO2 SLP129 T02060078,M
MEV,2022-07-28 12:55,-119.7500,38.9963,1441.42,51.80,41.00,66.48,110.00,3.00,0.00,30.13,M,10.00,M,CLR,M,M,M,M,M,M,M,M,M,M,M,M,M,M,51.80,KMEV 281255Z AUTO 11003KT 10SM CLR 11/05 A3013 RMK AO2,M
BAM,2022-07-28 12:55,-116.8743,40.5990,1382.36,M,M,M,0.00,0.00,0.00,30.10,M,10.00,M,CLR,M,M,M,M,M,M,M,M,M,M,M,M,M,M,M,KBAM 281255Z AUTO 00000KT 10SM CLR A3010 RMK AO1,M
HTH,2022-07-28 12:55,-118.6315,38.5448,1282.89,73.40,32.00,21.76,220.00,6.00,0.00,30.06,M,10.00,M,CLR,M,M,M,M,M,M,M,M,M,M,M,M,M,M,73.40,KHTH 281255Z AUTO 22006KT 10SM CLR 23/M00 A3006 RMK A01,M
CXP,2022-07-28 12:55,-119.7326,39.1923,1431.00,62.60,42.80,48.28,0.00,0.00,0.00,30.14,M,10.00,M,CLR,M,M,M,M,M,M,M,M,M,M,M,M,M,M,62.60,KCXP 281255Z AUTO 00000KT 10SM CLR 17/06 A3014 RMK AO2,M
TMT,2022-07-28 12:55,-117.1971,39.4643,1749.34,46.40,28.20,48.84,10.00,4.00,0.00,30.21,M,10.00,M,CLR,M,M,M,M,M,M,M,M,M,M,M,M,M,M,44.24,KTMT 281255Z AUTO 01004KT 10SM CLR 08/M02 A3021 RMK AO2 T00801021,M
EKO,2022-07-28 12:56,-115.7860,40.8242,1367.00,61.00,35.00,37.81,20.00,3.00,0.00,30.13,1013.50,10.00,M,CLR,M,M,M,M,M,M,M,M,M,M,M,M,M,M,61.00,KEKO 281256Z AUTO 02003KT 10SM CLR 16/02 A3013 RMK AO2 SLP135 T01610017,M
WMC,2022-07-28 12:56,-117.8072,40.9019,1315.00,64.00,36.00,35.26,300.00,5.00,0.00,30.09,1012.90,10.00,M,CLR,M,M,M,M,M,M,M,M,M,M,M,M,M,M,64.00,KWMC 281256Z AUTO 30005KT 10SM CLR 18/02 A3009 RMK AO2 SLP129 T01780022,M
NFL,2022-07-28 12:56,-118.7010,39.4166,1199.00,66.00,36.00,32.88,M,3.00,0.00,30.04,1014.10,10.00,M,CLR,M,M,M,M,M,M,M,M,M,M,M,M,M,M,66.00,KNFL 281256Z AUTO VRB03KT 10SM CLR 19/02 A3004 RMK AO2 SLP141 T01890022,M
HND,2022-07-28 12:56,-115.1344,35.9729,742.79,76.00,66.00,71.41,260.00,3.00,0.00,29.99,1014.40,10.00,M,CLR,M,M,M,M,M,M,M,M,M,M,M,M,M,M,75.90,KHND 281256Z AUTO 26003KT 10SM CLR 24/19 A2999 RMK AO2 SLP144 T02440189,M
TPH,2022-07-28 12:56,-117.0904,38.0505,1654.00,64.00,41.00,42.88,350.00,6.00,0.00,30.16,1012.40,10.00,M,CLR,M,M,M,M,M,M,M,M,M,M,M,M,M,M,64.00,KTPH 281256Z AUTO 35006KT 10SM CLR 18/05 A3016 RMK AO2 SLP124 T01780050,M
LAS,2022-07-28 12:56,-115.1634,36.0719,663.00,78.00,63.00,59.78,290.00,6.00,0.00,29.96,1011.90,10.00,M,SCT,BKN,M,M,15000.00,20000.00,M,M,M,M,M,M,M,M,M,78.10,KLAS 281256Z 29006KT 10SM SCT150 BKN200 26/17 A2996 RMK AO2 SLP119 T02560172 $,M
LSV,2022-07-28 12:58,-115.0343,36.2362,570.00,77.00,77.00,100.00,290.00,5.00,0.00,29.93,1011.10,10.00,M,OVC,M,M,M,19000.00,M,M,M,M,M,M,M,M,M,M,77.00,KLSV 281258Z AUTO 29005KT 10SM OVC190 25/25 A2993 RMK AO2 SLP111 T02500250 $,M
INS,2022-07-28 12:58,-115.6733,36.5872,955.00,72.70,62.80,71.09,110.00,8.00,0.00,30.00,1010.60,10.00,M,SCT,BKN,M,M,16000.00,19000.00,M,M,M,M,M,M,M,M,M,72.70,KINS 281258Z AUTO 11008KT 10SM SCT160 BKN190 23/17 A3000 RMK AO2 SLP106 T02260171,M
BVU,2022-07-28 13:15,-114.8611,35.9475,671.00,M,M,M,M,M,0.00,M,M,M,M,M,M,M,M,M,M,M,M,M,M,M,M,M,M,M,M,KBVU 281315Z AUTO RMK AO2 PNO PWINO TSNO,M
CXP,2022-07-28 13:15,-119.7326,39.1923,1431.00,62.60,42.80,48.28,0.00,0.00,0.00,30.15,M,10.00,M,CLR,M,M,M,M,M,M,M,M,M,M,M,M,M,M,62.60,KCXP 281315Z AUTO 00000KT 10SM CLR 17/06 A3015 RMK AO2,M
RTS,2022-07-28 13:15,-119.8764,39.6682,1539.00,62.60,39.20,42.00,340.00,4.00,0.00,30.17,M,10.00,M,CLR,M,M,M,M,M,M,M,M,M,M,M,M,M,M,62.60,KRTS 281315Z AUTO 34004KT 10SM CLR 17/04 A3017 RMK AO2,M
MEV,2022-07-28 13:15,-119.7500,38.9963,1441.42,53.60,41.00,62.23,0.00,0.00,0.00,30.14,M,10.00,M,CLR,M,M,M,M,M,M,M,M,M,M,M,M,M,M,53.60,KMEV 281315Z AUTO 00000KT 10SM CLR 12/05 A3014 RMK AO2,M
BAM,2022-07-28 13:15,-116.8743,40.5990,1382.36,M,M,M,0.00,0.00,0.00,30.11,M,10.00,M,CLR,M,M,M,M,M,M,M,M,M,M,M,M,M,M,M,KBAM 281315Z AUTO 00000KT 10SM CLR A3011 RMK AO1,M
HTH,2022-07-28 13:15,-118.6315,38.5448,1282.89,75.20,30.20,19.05,240.00,8.00,0.00,30.07,M,10.00,M,CLR,M,M,M,M,M,M,M,M,M,M,M,M,M,M,75.20,KHTH 281315Z AUTO 24008KT 10SM CLR 24/M01 A3007 RMK A01,M
TMT,2022-07-28 13:15,-117.1971,39.4643,1749.34,46.00,27.50,48.36,200.00,4.00,0.00,30.21,M,10.00,M,CLR,M,M,M,M,M,M,M,M,M,M,M,M,M,M,43.65,KTMT 281315Z AUTO 20004KT 10SM CLR 08/M02 A3021 RMK AO2 T00771025,M
CXP,2022-07-28 13:30,-119.7326,39.1923,1431.00,64.40,42.80,45.32,0.00,0.00,0.00,30.15,M,10.00,M,CLR,M,M,M,M,M,M,M,M,M,M,M,M,M,M,64.40,KCXP 281330Z AUTO 00000KT 10SM CLR 18/06 A3015 RMK AO2,M
BAM,2022-07-28 13:35,-116.8743,40.5990,1382.36,M,M,M,0.00,0.00,0.00,30.11,M,10.00,M,CLR,M,M,M,M,M,M,M,M,M,M,M,M,M,M,M,KBAM 281335Z AUTO 00000KT 10SM CLR A3011 RMK AO1,M
HTH,2022-07-28 13:35,-118.6315,38.5448,1282.89,75.20,30.20,19.05,230.00,6.00,0.00,30.07,M,10.00,M,CLR,M,M,M,M,M,M,M,M,M,M,M,M,M,M,75.20,KHTH 281335Z AUTO 23006KT 10SM CLR 24/M01 A3007 RMK A01,M
TMT,2022-07-28 13:35,-117.1971,39.4643,1749.34,48.70,27.70,43.88,200.00,5.00,0.00,30.21,M,10.00,M,CLR,M,M,M,M,M,M,M,M,M,M,M,M,M,M,46.23,KTMT 281335Z AUTO 20005KT 10SM CLR 09/M02 A3021 RMK AO2 T00931024,M
BVU,2022-07-28 13:35,-114.8611,35.9475,671.00,M,M,M,M,M,0.00,M,M,M,M,M,M,M,M,M,M,M,M,M,M,M,M,M,M,M,M,KBVU 281335Z AUTO RMK AO2 PNO PWINO TSNO,M
RTS,2022-07-28 13:35,-119.8764,39.6682,1539.00,62.60,39.20,42.00,350.00,4.00,0.00,30.18,M,10.00,M,CLR,M,M,M,M,M,M,M,M,M,M,M,M,M,M,62.60,KRTS 281335Z AUTO 35004KT 10SM CLR 17/04 A3018 RMK AO2,M
MEV,2022-07-28 13:35,-119.7500,38.9963,1441.42,53.60,42.80,66.70,110.00,4.00,0.00,30.14,M,10.00,M,CLR,M,M,M,M,M,M,M,M,M,M,M,M,M,M,53.60,KMEV 281335Z AUTO 11004KT 10SM CLR 12/06 A3014 RMK AO2,M
ELY,2022-07-28 13:53,-114.8453,39.2950,1909.00,58.00,46.00,64.47,180.00,9.00,0.00,30.22,1012.60,10.00,M,CLR,M,M,M,M,M,M,M,M,M,M,M,M,M,M,57.90,KELY 281353Z AUTO 18009KT 10SM CLR 14/08 A3022 RMK AO2 SLP126 T01440078,M
DRA,2022-07-28 13:53,-116.0278,36.6206,1009.00,77.00,58.00,51.72,70.00,3.00,0.00,30.00,1010.20,10.00,M,CLR,M,M,M,M,M,M,M,M,M,M,M,M,M,M,77.00,KDRA 281353Z AUTO 07003KT 10SM CLR 25/14 A3000 RMK AO2 SLP102 T02500144,M
LOL,2022-07-28 13:53,-118.5701,40.0684,1192.43,66.00,32.00,28.03,200.00,4.00,0.00,30.06,1012.80,10.00,M,CLR,M,M,M,M,M,M,M,M,M,M,M,M,M,M,66.00,KLOL 281353Z AUTO 20004KT 10SM CLR 19/00 A3006 RMK AO2 SLP128 T01890000,M
P68,2022-07-28 13:53,-116.0056,39.6014,1993.00,61.00,39.00,44.10,170.00,3.00,0.00,30.19,1012.90,M,M,M,M,M,M,M,M,M,M,M,M,M,M,M,M,M,61.00,KP68 281353Z AUTO 17003KT 16/04 A3019 RMK AO1 SLP129 T01610039,M
VGT,2022-07-28 13:53,-115.1933,36.2111,667.00,80.00,65.00,59.83,0.00,0.00,0.00,29.95,1012.90,10.00,M,CLR,M,M,M,M,M,M,M,M,M,M,M,M,M,M,81.91,KVGT 281353Z 00000KT 10SM CLR 27/18 A2995 RMK AO2 SLP129 T02670183,M
HTH,2022-07-28 13:55,-118.6315,38.5448,1282.89,77.00,30.20,17.94,260.00,4.00,0.00,30.08,M,10.00,M,CLR,M,M,M,M,M,M,M,M,M,M,M,M,M,M,77.00,KHTH 281355Z AUTO 26004KT 10SM CLR 25/M01 A3008 RMK A01,M
MEV,2022-07-28 13:55,-119.7500,38.9963,1441.42,59.00,39.20,47.72,0.00,0.00,0.00,30.15,M,10.00,M,CLR,M,M,M,M,M,M,M,M,M,M,M,M,M,M,59.00,KMEV 281355Z AUTO 00000KT 10SM CLR 15/04 A3015 RMK AO2,M
RTS,2022-07-28 13:55,-119.8764,39.6682,1539.00,64.40,39.20,39.43,0.00,0.00,0.00,30.18,M,10.00,M,CLR,M,M,M,M,M,M,M,M,M,M,M,M,M,M,64.40,KRTS 281355Z AUTO 00000KT 10SM CLR 18/04 A3018 RMK AO2,M
RNO,2022-07-28 13:55,-119.7711,39.4839,1341.00,72.00,46.00,39.42,280.00,4.00,0.00,30.13,1013.20,10.00,M,FEW,M,M,M,15000.00,M,M,M,M,M,M,M,M,M,M,72.00,KRNO 281355Z 28004KT 10SM FEW150 22/08 A3013 RMK AO2 SLP132 T02220078,M
BVU,2022-07-28 13:55,-114.8611,35.9475,671.00,M,M,M,M,M,0.00,M,M,M,M,M,M,M,M,M,M,M,M,M,M,M,M,M,M,M,M,KBVU 281355Z AUTO RMK AO2 PNO PWINO TSNO,M
CXP,2022-07-28 13:55,-119.7326,39.1923,1431.00,66.20,42.80,42.57,0.00,0.00,0.00,30.16,M,10.00,M,CLR,M,M,M,M,M,M,M,M,M,M,M,M,M,M,66.20,KCXP 281355Z AUTO 00000KT 10SM CLR 19/06 A3016 RMK AO2,M
TMT,2022-07-28 13:55,-117.1971,39.4643,1749.34,52.50,28.40,39.22,0.00,0.00,0.00,30.22,M,10.00,M,CLR,M,M,M,M,M,M,M,M,M,M,M,M,M,M,52.50,KTMT 281355Z AUTO 00000KT 10SM CLR 11/M02 A3022 RMK AO2 T01141020,M
BAM,2022-07-28 13:55,-116.8743,40.5990,1382.36,M,M,M,0.00,0.00,0.00,30.12,M,10.00,M,CLR,M,M,M,M,M,M,M,M,M,M,M,M,M,M,M,KBAM 281355Z AUTO 00000KT 10SM CLR A3012 RMK AO1,M
LAS,2022-07-28 13:56,-115.1634,36.0719,663.00,80.00,62.00,54.23,0.00,0.00,0.00,29.96,1011.70,10.00,M,FEW,BKN,M,M,15000.00,20000.00,M,M,M,M,M,M,M,M,M,81.31,KLAS 281356Z 00000KT 10SM FEW150 BKN200 27/17 A2996 RMK AO2 SLP117 ACC DSNT E T02670167 $,M
TPH,2022-07-28 13:56,-117.0904,38.0505,1654.00,68.00,42.00,38.94,20.00,10.00,0.00,30.16,1012.50,10.00,M,CLR,M,M,M,M,M,M,M,M,M,M,M,M,M,M,68.00,KTPH 281356Z AUTO 02010KT 10SM CLR 20/06 A3016 RMK AO2 SLP125 T02000056,M
HND,2022-07-28 13:56,-115.1344,35.9729,742.79,77.00,67.00,71.03,270.00,3.00,0.00,30.00,1014.50,10.00,M,CLR,M,M,M,M,M,M,M,M,M,M,M,M,M,M,77.00,KHND 281356Z 27003KT 10SM CLR 25/19 A3000 RMK AO2 SLP145 T02500194,M
NFL,2022-07-28 13:56,-118.7010,39.4166,1199.00,68.00,35.00,29.61,170.00,3.00,0.00,30.05,1014.60,10.00,M,CLR,M,M,M,M,M,M,M,M,M,M,M,M,M,M,68.00,KNFL 281356Z AUTO 17003KT 10SM CLR 20/02 A3005 RMK AO2 SLP146 T02000017,M
WMC,2022-07-28 13:56,-117.8072,40.9019,1315.00,69.00,37.00,30.74,0.00,0.00,0.00,30.10,1013.10,10.00,M,CLR,M,M,M,M,M,M,M,M,M,M,M,M,M,M,69.10,KWMC 281356Z AUTO 00000KT 10SM CLR 21/03 A3010 RMK AO2 SLP131 T02060028,M
EKO,2022-07-28 13:56,-115.7860,40.8242,1367.00,62.00,36.00,37.69,0.00,0.00,0.00,30.14,1014.10,10.00,M,CLR,M,M,M,M,M,M,M,M,M,M,M,M,M,M,62.10,KEKO 281356Z AUTO 00000KT 10SM CLR 17/02 A3014 RMK AO2 SLP141 T01670022,M
INS,2022-07-28 13:58,-115.6733,36.5872,955.00,74.80,62.20,64.86,100.00,8.00,0.00,30.01,1011.10,10.00,M,BKN,BKN,M,M,17000.00,19000.00,M,M,M,M,M,M,M,M,M,74.80,KINS 281358Z AUTO 10008KT 10SM BKN170 BKN190 24/17 A3001 RMK AO2 SLP111 T02380168,M
LSV,2022-07-28 13:58,-115.0343,36.2362,570.00,77.40,77.40,100.00,0.00,0.00,0.00,29.93,1011.10,10.00,M,BKN,M,M,M,20000.00,M,M,M,M,M,M,M,M,M,M,77.40,KLSV 281358Z 00000KT 10SM BKN200 25/25 A2993 RMK AO2A SLP111 T02520252 $,M
BVU,2022-07-28 14:15,-114.8611,35.9475,671.00,M,M,M,M,M,0.00,M,M,M,M,M,M,M,M,M,M,M,M,M,M,M,M,M,M,M,M,KBVU 281415Z AUTO RMK AO2 PNO PWINO TSNO,M
TMT,2022-07-28 14:15,-117.1971,39.4643,1749.34,56.00,29.80,36.68,0.00,0.00,0.00,30.22,M,10.00,M,CLR,M,M,M,M,M,M,M,M,M,M,M,M,M,M,55.90,KTMT 281415Z AUTO 00000KT 10SM CLR 13/M01 A3022 RMK AO2 T01331012,M
HTH,2022-07-28 14:15,-118.6315,38.5448,1282.89,78.80,32.00,18.18,260.00,4.00,0.00,30.09,M,10.00,M,CLR,M,M,M,M,M,M,M,M,M,M,M,M,M,M,78.80,KHTH 281415Z AUTO 26004KT 10SM CLR 26/M00 A3009 RMK A01,M
BAM,2022-07-28 14:15,-116.8743,40.5990,1382.36,M,M,M,0.00,0.00,0.00,30.12,M,10.00,M,CLR,M,M,M,M,M,M,M,M,M,M,M,M,M,M,M,KBAM 281415Z AUTO 00000KT 10SM CLR A3012 RMK AO1,M
MEV,2022-07-28 14:15,-119.7500,38.9963,1441.42,64.40,39.20,39.43,0.00,0.00,0.00,30.15,M,10.00,M,CLR,M,M,M,M,M,M,M,M,M,M,M,M,M,M,64.40,KMEV 281415Z AUTO 00000KT 10SM CLR 18/04 A3015 RMK AO2,M
RTS,2022-07-28 14:15,-119.8764,39.6682,1539.00,68.00,39.20,34.80,350.00,5.00,0.00,30.18,M,10.00,M,CLR,M,M,M,M,M,M,M,M,M,M,M,M,M,M,68.00,KRTS 281415Z AUTO 35005KT 10SM CLR 20/04 A3018 RMK AO2,M
CXP,2022-07-28 14:15,-119.7326,39.1923,1431.00,68.00,44.60,42.85,0.00,0.00,0.00,30.16,M,10.00,M,CLR,M,M,M,M,M,M,M,M,M,M,M,M,M,M,68.00,KCXP 281415Z AUTO 00000KT 10SM CLR 20/07 A3016 RMK AO2,M
CXP,2022-07-28 14:35,-119.7326,39.1923,1431.00,69.80,42.80,37.61,0.00,0.00,0.00,30.17,M,10.00,M,CLR,M,M,M,M,M,M,M,M,M,M,M,M,M,M,69.80,KCXP 281435Z AUTO 00000KT 10SM CLR 21/06 A3017 RMK AO2,M
RTS,2022-07-28 14:35,-119.8764,39.6682,1539.00,71.60,41.00,33.00,0.00,0.00,0.00,30.19,M,10.00,M,CLR,M,M,M,M,M,M,M,M,M,M,M,M,M,M,71.60,KRTS 281435Z AUTO 00000KT 10SM CLR 22/05 A3019 RMK AO2,M
HTH,2022-07-28 14:35,-118.6315,38.5448,1282.89,80.60,35.60,19.79,250.00,4.00,0.00,30.09,M,10.00,M,CLR,M,M,M,M,M,M,M,M,M,M,M,M,M,M,78.94,KHTH 281435Z AUTO 25004KT 10SM CLR 27/02 A3009 RMK A01,M
MEV,2022-07-28 14:35,-119.7500,38.9963,1441.42,68.00,41.00,37.32,0.00,0.00,0.00,30.15,M,10.00,M,CLR,M,M,M,M,M,M,M,M,M,M,M,M,M,M,68.00,KMEV 281435Z AUTO 00000KT 10SM CLR 20/05 A3015 RMK AO2,M
TMT,2022-07-28 14:35,-117.1971,39.4643,1749.34,60.00,31.10,33.49,0.00,0.00,0.00,30.22,M,10.00,M,CLR,M,M,M,M,M,M,M,M,M,M,M,M,M,M,59.90,KTMT 281435Z AUTO 00000KT 10SM CLR 16/00 A3022 RMK AO2 T01551005,M
BAM,2022-07-28 14:35,-116.8743,40.5990,1382.36,M,M,M,0.00,0.00,0.00,30.12,M,10.00,M,CLR,M,M,M,M,M,M,M,M,M,M,M,M,M,M,M,KBAM 281435Z AUTO 00000KT 10SM CLR A3012 RMK AO1,M
BVU,2022-07-28 14:35,-114.8611,35.9475,671.00,M,M,M,M,M,0.00,M,M,M,M,M,M,M,M,M,M,M,M,M,M,M,M,M,M,M,M,KBVU 281435Z AUTO RMK AO2 PNO PWINO TSNO,M
NFL,2022-07-28 14:44,-118.7010,39.4166,1199.00,75.00,33.00,21.56,160.00,5.00,0.00,30.06,M,10.00,M,SCT,M,M,M,12000.00,M,M,M,M,M,M,M,M,M,M,75.00,KNFL 281444Z 16005KT 10SM SCT120 24/01 A3006 RMK AO2 T02390006,M
LOL,2022-07-28 14:53,-118.5701,40.0684,1192.43,82.00,35.00,18.54,0.00,0.00,0.00,30.07,1012.60,10.00,M,CLR,M,M,M,M,M,M,M,M,M,M,M,M,M,M,79.80,KLOL 281453Z AUTO 00000KT 10SM CLR 28/02 A3007 RMK AO2 SLP126 T02780017 51012,M
DRA,2022-07-28 14:53,-116.0278,36.6206,1009.00,78.00,60.00,53.95,110.00,11.00,0.00,30.01,1010.70,10.00,M,CLR,M,M,M,M,M,M,M,M,M,M,M,M,M,M,78.10,KDRA 281453Z AUTO 11011KT 10SM CLR 26/16 A3001 RMK AO2 SLP107 T02560156 53007,M
VGT,2022-07-28 14:53,-115.1933,36.2111,667.00,82.00,65.00,56.24,0.00,0.00,0.00,29.95,1013.50,10.00,M,CLR,M,M,M,M,M,M,M,M,M,M,M,M,M,M,83.76,KVGT 281453Z 00000KT 10SM CLR 28/18 A2995 RMK AO2 SLP135 T02780183 53002,M
ELY,2022-07-28 14:53,-114.8453,39.2950,1909.00,66.00,49.00,54.01,170.00,8.00,0.00,30.22,1012.20,10.00,M,CLR,M,M,M,M,M,M,M,M,M,M,M,M,M,M,66.00,KELY 281453Z AUTO 17008KT 10SM CLR 19/09 A3022 RMK AO2 SLP122 T01890094 50002,M
P68,2022-07-28 14:53,-116.0056,39.6014,1993.00,73.00,34.00,23.90,0.00,0.00,0.00,30.20,1012.60,M,M,M,M,M,M,M,M,M,M,M,M,M,M,M,M,M,73.00,KP68 281453Z AUTO 00000KT 23/01 A3020 RMK AO1 SLP126 T02280011 53006,M
TMT,2022-07-28 14:55,-117.1971,39.4643,1749.34,M,M,M,0.00,0.00,0.00,30.22,M,10.00,M,CLR,M,M,M,M,M,M,M,M,M,M,M,M,M,M,M,KTMT 281455Z AUTO 00000KT 10SM CLR A3022 RMK AO2,M
RNO,2022-07-28 14:55,-119.7711,39.4839,1341.00,77.00,47.00,34.50,300.00,4.00,0.00,30.13,1013.30,10.00,M,FEW,M,M,M,18000.00,M,M,M,M,M,M,M,M,M,M,77.00,KRNO 281455Z 30004KT 10SM FEW180 25/08 A3013 RMK AO2 SLP133 T02500083 51009,M
BVU,2022-07-28 14:55,-114.8611,35.9475,671.00,M,M,M,M,M,0.00,M,M,M,M,M,M,M,M,M,M,M,M,M,M,M,M,M,M,M,M,KBVU 281455Z AUTO RMK AO2 PNO PWINO TSNO,M
CXP,2022-07-28 14:55,-119.7326,39.1923,1431.00,71.60,44.60,37.89,0.00,0.00,0.00,30.17,M,10.00,M,CLR,M,M,M,M,M,M,M,M,M,M,M,M,M,M,71.60,KCXP 281455Z AUTO 00000KT 10SM CLR 22/07 A3017 RMK AO2,M
RTS,2022-07-28 14:55,-119.8764,39.6682,1539.00,75.20,41.00,29.23,0.00,0.00,0.00,30.19,M,10.00,M,CLR,M,M,M,M,M,M,M,M,M,M,M,M,M,M,75.20,KRTS 281455Z AUTO 00000KT 10SM CLR 24/05 A3019 RMK AO2,M
MEV,2022-07-28 14:55,-119.7500,38.9963,1441.42,69.80,41.00,35.09,0.00,0.00,0.00,30.16,M,10.00,M,CLR,M,M,M,M,M,M,M,M,M,M,M,M,M,M,69.80,KMEV 281455Z AUTO 00000KT 10SM CLR 21/05 A3016 RMK AO2,M
BAM,2022-07-28 14:55,-116.8743,40.5990,1382.36,M,M,M,0.00,0.00,0.00,30.13,M,10.00,M,CLR,M,M,M,M,M,M,M,M,M,M,M,M,M,M,M,KBAM 281455Z AUTO 00000KT 10SM CLR A3013 RMK AO1,M
HTH,2022-07-28 14:55,-118.6315,38.5448,1282.89,80.60,35.60,19.79,270.00,4.00,0.00,30.09,M,10.00,M,CLR,M,M,M,M,M,M,M,M,M,M,M,M,M,M,78.94,KHTH 281455Z AUTO 27004KT 10SM CLR 27/02 A3009 RMK A01,M
WMC,2022-07-28 14:56,-117.8072,40.9019,1315.00,74.00,40.00,29.26,160.00,3.00,0.00,30.10,1013.30,10.00,M,CLR,M,M,M,M,M,M,M,M,M,M,M,M,M,M,73.90,KWMC 281456Z AUTO 16003KT 10SM CLR 23/04 A3010 RMK AO2 SLP133 T02330044 51008,M
NFL,2022-07-28 14:56,-118.7010,39.4166,1199.00,77.00,33.00,20.17,160.00,5.00,0.00,30.06,1014.90,10.00,M,SCT,M,M,M,12000.00,M,M,M,M,M,M,M,M,M,M,77.00,KNFL 281456Z 16005KT 10SM SCT120 25/01 A3006 RMK AO2 SLP149 T02500006 51012,M
LAS,2022-07-28 14:56,-115.1634,36.0719,663.00,80.00,65.00,59.83,180.00,3.00,0.00,29.96,1012.20,10.00,M,FEW,BKN,M,M,15000.00,20000.00,M,M,M,M,M,M,M,M,M,81.91,KLAS 281456Z 18003KT 10SM FEW150 BKN200 27/18 A2996 RMK AO2 SLP122 ACC DSNT E T02670183 53003 $,M
HND,2022-07-28 14:56,-115.1344,35.9729,742.79,77.00,67.00,71.03,170.00,4.00,0.00,30.00,1014.80,10.00,M,CLR,M,M,M,M,M,M,M,M,M,M,M,M,M,M,77.00,KHND 281456Z 17004KT 10SM CLR 25/19 A3000 RMK AO2 SLP148 T02500194 52002,M
EKO,2022-07-28 14:56,-115.7860,40.8242,1367.00,71.00,36.00,27.60,0.00,0.00,0.00,30.15,1013.80,10.00,M,CLR,M,M,M,M,M,M,M,M,M,M,M,M,M,M,71.10,KEKO 281456Z AUTO 00000KT 10SM CLR 22/02 A3015 RMK AO2 SLP138 T02170022 51007,M
TPH,2022-07-28 14:56,-117.0904,38.0505,1654.00,75.00,44.00,33.16,20.00,6.00,0.00,30.17,1012.10,10.00,M,CLR,M,M,M,M,M,M,M,M,M,M,M,M,M,M,75.00,KTPH 281456Z AUTO 02006KT 10SM CLR 24/07 A3017 RMK AO2 SLP121 T02390067 53005,M
LSV,2022-07-28 14:58,-115.0343,36.2362,570.00,84.40,78.30,81.98,0.00,0.00,0.00,29.94,1011.50,10.00,M,FEW,M,M,M,20000.00,M,M,M,M,M,M,M,M,M,M,95.91,KLSV 281458Z AUTO 00000KT 10SM FEW200 29/26 A2994 RMK AO2 SLP115 T02910257 53004 $,M
INS,2022-07-28 14:58,-115.6733,36.5872,955.00,77.20,60.30,55.98,0.00,0.00,0.00,30.01,1011.10,10.00,M,OVC,M,M,M,17000.00,M,M,M,M,M,M,M,M,M,M,77.20,KINS 281458Z AUTO 00000KT 10SM OVC170 25/16 A3001 RMK AO2 SLP111 T02510157 52007,M
MEV,2022-07-28 15:15,-119.7500,38.9963,1441.42,73.40,41.00,31.05,0.00,0.00,0.00,30.16,M,10.00,M,CLR,M,M,M,M,M,M,M,M,M,M,M,M,M,M,73.40,KMEV 281515Z AUTO 00000KT 10SM CLR 23/05 A3016 RMK AO2,M
TMT,2022-07-28 15:15,-117.1971,39.4643,1749.34,M,M,M,0.00,0.00,0.00,30.22,M,10.00,M,CLR,M,M,M,M,M,M,M,M,M,M,M,M,M,M,M,KTMT 281515Z AUTO 00000KT 10SM CLR A3022 RMK AO2,M
BVU,2022-07-28 15:15,-114.8611,35.9475,671.00,M,M,M,M,M,0.00,M,M,M,M,M,M,M,M,M,M,M,M,M,M,M,M,M,M,M,M,KBVU 281515Z AUTO RMK AO2 PNO PWINO TSNO,M
CXP,2022-07-28 15:15,-119.7326,39.1923,1431.00,73.40,44.60,35.66,0.00,0.00,0.00,30.17,M,10.00,M,CLR,M,M,M,M,M,M,M,M,M,M,M,M,M,M,73.40,KCXP 281515Z AUTO 00000KT 10SM CLR 23/07 A3017 RMK AO2,M
BAM,2022-07-28 15:15,-116.8743,40.5990,1382.36,M,M,M,0.00,0.00,0.00,30.13,M,10.00,M,CLR,M,M,M,M,M,M,M,M,M,M,M,M,M,M,M,KBAM 281515Z AUTO 00000KT 10SM CLR A3013 RMK AO1,M
HTH,2022-07-28 15:15,-118.6315,38.5448,1282.89,82.40,35.60,18.67,280.00,5.00,0.00,30.10,M,10.00,M,CLR,M,M,M,M,M,M,M,M,M,M,M,M,M,M,80.08,KHTH 281515Z AUTO 28005KT 10SM CLR 28/02 A3010 RMK A01,M
RTS,2022-07-28 15:15,-119.8764,39.6682,1539.00,77.00,41.00,27.53,0.00,0.00,0.00,30.19,M,10.00,M,CLR,M,M,M,M,M,M,M,M,M,M,M,M,M,M,77.00,KRTS 281515Z AUTO 00000KT 10SM CLR 25/05 A3019 RMK AO2,M
MEV,2022-07-28 15:35,-119.7500,38.9963,1441.42,75.20,41.00,29.23,0.00,0.00,0.00,30.16,M,1.75,M,CLR,M,M,M,M,M,M,M,HZ,M,M,M,M,M,M,75.20,KMEV 281535Z AUTO 00000KT 1 3/4SM HZ CLR 24/05 A3016 RMK AO2,M
BVU,2022-07-28 15:35,-114.8611,35.9475,671.00,M,M,M,M,M,0.00,M,M,M,M,M,M,M,M,M,M,M,M,M,M,M,M,M,M,M,M,KBVU 281535Z AUTO RMK AO2 PNO PWINO TSNO,M
TMT,2022-07-28 15:35,-117.1971,39.4643,1749.34,M,M,M,0.00,0.00,0.00,30.22,M,10.00,M,CLR,M,M,M,M,M,M,M,M,M,M,M,M,M,M,M,KTMT 281535Z AUTO 00000KT 10SM CLR A3022 RMK AO2,M
HTH,2022-07-28 15:35,-118.6315,38.5448,1282.89,82.40,35.60,18.67,290.00,5.00,0.00,30.10,M,10.00,M,CLR,M,M,M,M,M,M,M,M,M,M,M,M,M,M,80.08,KHTH 281535Z AUTO 29005KT 10SM CLR 28/02 A3010 RMK A01,M
RTS,2022-07-28 15:35,-119.8764,39.6682,1539.00,78.80,42.80,27.81,0.00,0.00,0.00,30.19,M,10.00,M,CLR,M,M,M,M,M,M,M,M,M,M,M,M,M,M,78.80,KRTS 281535Z AUTO 00000KT 10SM CLR 26/06 A3019 RMK AO2,M
CXP,2022-07-28 15:35,-119.7326,39.1923,1431.00,75.20,44.60,33.57,0.00,0.00,0.00,30.17,M,10.00,M,CLR,M,M,M,M,M,M,M,M,M,M,M,M,M,M,75.20,KCXP 281535Z AUTO 00000KT 10SM CLR 24/07 A3017 RMK AO2,M
DRA,2022-07-28 15:53,-116.0278,36.6206,1009.00,81.00,61.00,50.65,120.00,10.00,0.00,30.01,1011.10,10.00,M,CLR,M,M,M,M,M,M,M,M,M,M,M,M,M,M,81.81,KDRA 281553Z AUTO 12010KT 10SM CLR 27/16 A3001 RMK AO2 SLP111 T02720161,M
LOL,2022-07-28 15:53,-118.5701,40.0684,1192.43,89.00,38.00,16.50,50.00,9.00,0.00,30.06,1012.30,10.00,M,CLR,M,M,M,M,M,M,M,M,M,M,M,M,M,M,85.26,KLOL 281553Z AUTO 05009KT 10SM CLR 32/03 A3006 RMK AO2 SLP123 T03170033,M
ELY,2022-07-28 15:53,-114.8453,39.2950,1909.00,75.00,48.00,38.43,M,3.00,0.00,30.21,1011.50,10.00,M,CLR,M,M,M,M,M,M,M,M,M,M,M,M,M,M,75.00,KELY 281553Z AUTO VRB03KT 10SM CLR 24/09 A3021 RMK AO2 SLP115 T02390089,M
P68,2022-07-28 15:53,-116.0056,39.6014,1993.00,81.00,35.00,19.15,350.00,6.00,0.00,30.19,1012.00,M,M,M,M,M,M,M,M,M,M,M,M,M,M,M,M,M,79.17,KP68 281553Z AUTO 35006KT 27/02 A3019 RMK AO1 SLP120 T02720017,M
VGT,2022-07-28 15:53,-115.1933,36.2111,667.00,84.00,63.00,49.32,90.00,4.00,0.00,29.96,1013.60,10.00,M,CLR,M,M,M,M,M,M,M,M,M,M,M,M,M,M,84.99,KVGT 281553Z 09004KT 10SM CLR 29/17 A2996 RMK AO2 SLP136 T02890172,M
CXP,2022-07-28 15:55,-119.7326,39.1923,1431.00,78.80,42.80,27.81,210.00,4.00,0.00,30.17,M,10.00,M,CLR,M,M,M,M,M,M,M,M,M,M,M,M,M,M,78.80,KCXP 281555Z AUTO 21004KT 10SM CLR 26/06 A3017 RMK AO2,M
BVU,2022-07-28 15:55,-114.8611,35.9475,671.00,M,M,M,M,M,0.00,M,M,M,M,M,M,M,M,M,M,M,M,M,M,M,M,M,M,M,M,KBVU 281555Z AUTO RMK AO2 PNO PWINO TSNO,M
HTH,2022-07-28 15:55,-118.6315,38.5448,1282.89,84.20,32.00,15.25,320.00,6.00,0.00,30.10,M,10.00,M,CLR,M,M,M,M,M,M,M,M,M,M,M,M,M,M,81.28,KHTH 281555Z AUTO 32006KT 10SM CLR 29/00 A3010 RMK A01,M
MEV,2022-07-28 15:55,-119.7500,38.9963,1441.42,77.00,42.80,29.51,0.00,0.00,0.00,30.16,M,10.00,M,CLR,M,M,M,M,M,M,M,M,M,M,M,M,M,M,77.00,KMEV 281555Z AUTO 00000KT 10SM CLR 25/06 A3016 RMK AO2,M
RTS,2022-07-28 15:55,-119.8764,39.6682,1539.00,80.60,39.20,22.81,M,4.00,0.00,30.19,M,10.00,M,CLR,M,M,M,M,M,M,M,M,M,M,M,M,M,M,79.10,KRTS 281555Z AUTO VRB04KT 10SM CLR 27/04 A3019 RMK AO2,M
TMT,2022-07-28 15:55,-117.1971,39.4643,1749.34,M,M,M,0.00,0.00,0.00,30.22,M,10.00,M,CLR,M,M,M,M,M,M,M,M,M,M,M,M,M,M,M,KTMT 281555Z AUTO 00000KT 10SM CLR A3022 RMK AO2,M
RNO,2022-07-28 15:55,-119.7711,39.4839,1341.00,80.00,46.00,30.11,170.00,4.00,0.00,30.13,1013.50,10.00,M,FEW,FEW,M,M,10000.00,20000.00,M,M,M,M,M,M,M,M,M,79.26,KRNO 281555Z 17004KT 10SM FEW100 FEW200 27/08 A3013 RMK AO2 SLP135 T02670078,M
NFL,2022-07-28 15:56,-118.7010,39.4166,1199.00,84.00,34.00,16.63,M,3.00,0.00,30.07,1015.10,10.00,M,CLR,M,M,M,M,M,M,M,M,M,M,M,M,M,M,81.16,KNFL 281556Z VRB03KT 10SM CLR 29/01 A3007 RMK AO2 SLP151 T02890011,M
HND,2022-07-28 15:56,-115.1344,35.9729,742.79,82.00,65.00,56.24,0.00,0.00,0.00,30.00,1015.20,10.00,M,CLR,M,M,M,M,M,M,M,M,M,M,M,M,M,M,83.76,KHND 281556Z 00000KT 10SM CLR 28/18 A3000 RMK AO2 SLP152 T02780183,M
WMC,2022-07-28 15:56,-117.8072,40.9019,1315.00,85.00,39.00,19.69,0.00,0.00,0.00,30.11,1013.20,10.00,M,CLR,M,M,M,M,M,M,M,M,M,M,M,M,M,M,81.95,KWMC 281556Z AUTO 00000KT 10SM CLR 29/04 A3011 RMK AO2 SLP132 T02940039,M
EKO,2022-07-28 15:56,-115.7860,40.8242,1367.00,79.00,38.00,22.84,0.00,0.00,0.00,30.14,1013.50,10.00,M,CLR,M,M,M,M,M,M,M,M,M,M,M,M,M,M,79.00,KEKO 281556Z AUTO 00000KT 10SM CLR 26/03 A3014 RMK AO2 SLP135 T02610033,M
LAS,2022-07-28 15:56,-115.1634,36.0719,663.00,82.00,65.00,56.24,M,3.00,0.00,29.97,1012.60,10.00,M,FEW,SCT,M,M,15000.00,20000.00,M,M,M,M,M,M,M,M,M,83.76,KLAS 281556Z VRB03KT 10SM FEW150 SCT200 28/18 A2997 RMK AO2 SLP126 T02780183 $,M
TPH,2022-07-28 15:56,-117.0904,38.0505,1654.00,78.00,51.00,38.92,0.00,0.00,0.00,30.17,1012.40,10.00,M,CLR,M,M,M,M,M,M,M,M,M,M,M,M,M,M,78.10,KTPH 281556Z AUTO 00000KT 10SM CLR 26/11 A3017 RMK AO2 SLP124 T02560106,M
INS,2022-07-28 15:58,-115.6733,36.5872,955.00,81.70,58.30,44.96,0.00,0.00,0.00,30.01,1011.10,10.00,M,SCT,M,M,M,17000.00,M,M,M,M,M,M,M,M,M,M,81.78,KINS 281558Z AUTO 00000KT 10SM SCT170 28/15 A3001 RMK AO2 SLP111 T02760146,M
LSV,2022-07-28 15:58,-115.0343,36.2362,570.00,89.00,68.00,49.88,0.00,0.00,0.00,29.94,1011.60,10.00,M,CLR,M,M,M,M,M,M,M,M,M,M,M,M,M,M,92.90,KLSV 281558Z AUTO 00000KT 10SM CLR 32/20 A2994 RMK AO2 SLP116 T03170200 $,M
TMT,2022-07-28 16:15,-117.1971,39.4643,1749.34,M,M,M,0.00,0.00,0.00,30.21,M,10.00,M,CLR,M,M,M,M,M,M,M,M,M,M,M,M,M,M,M,KTMT 281615Z AUTO 00000KT 10SM CLR A3021 RMK AO2,M
HTH,2022-07-28 16:15,-118.6315,38.5448,1282.89,86.00,30.20,13.38,310.00,6.00,0.00,30.10,M,10.00,M,CLR,M,M,M,M,M,M,M,M,M,M,M,M,M,M,82.64,KHTH 281615Z AUTO 31006KT 10SM CLR 30/M01 A3010 RMK A01,M
MEV,2022-07-28 16:15,-119.7500,38.9963,1441.42,78.80,42.80,27.81,0.00,0.00,0.00,30.15,M,9.00,M,CLR,M,M,M,M,M,M,M,M,M,M,M,M,M,M,78.80,KMEV 281615Z AUTO 00000KT 9SM CLR 26/06 A3015 RMK AO2,M
RTS,2022-07-28 16:15,-119.8764,39.6682,1539.00,84.20,35.60,17.61,M,5.00,0.00,30.19,M,10.00,M,CLR,M,M,M,M,M,M,M,M,M,M,M,M,M,M,81.34,KRTS 281615Z AUTO VRB05KT 10SM CLR 29/02 A3019 RMK AO2,M
CXP,2022-07-28 16:15,-119.7326,39.1923,1431.00,80.60,42.80,26.22,210.00,5.00,0.00,30.16,M,10.00,M,CLR,M,M,M,M,M,M,M,M,M,M,M,M,M,M,79.30,KCXP 281615Z AUTO 21005KT 10SM CLR 27/06 A3016 RMK AO2,M
BVU,2022-07-28 16:15,-114.8611,35.9475,671.00,M,M,M,M,M,0.00,M,M,M,M,M,M,M,M,M,M,M,M,M,M,M,M,M,M,M,M,KBVU 281615Z AUTO RMK AO2 PNO PWINO TSNO,M
TMT,2022-07-28 16:35,-117.1971,39.4643,1749.34,M,M,M,0.00,0.00,0.00,30.21,M,10.00,M,CLR,M,M,M,M,M,M,M,M,M,M,M,M,M,M,M,KTMT 281635Z AUTO 00000KT 10SM CLR A3021 RMK AO2,M
BVU,2022-07-28 16:35,-114.8611,35.9475,671.00,M,M,M,M,M,0.00,M,M,M,M,M,M,M,M,M,M,M,M,M,M,M,M,M,M,M,M,KBVU 281635Z AUTO RMK AO2 PNO PWINO TSNO,M
CXP,2022-07-28 16:35,-119.7326,39.1923,1431.00,82.40,42.80,24.72,0.00,0.00,0.00,30.16,M,10.00,M,CLR,M,M,M,M,M,M,M,M,M,M,M,M,M,M,80.39,KCXP 281635Z AUTO 00000KT 10SM CLR 28/06 A3016 RMK AO2,M
RTS,2022-07-28 16:35,-119.8764,39.6682,1539.00,86.00,35.60,16.63,M,3.00,0.00,30.18,M,10.00,M,CLR,M,M,M,M,M,M,M,M,M,M,M,M,M,M,82.69,KRTS 281635Z AUTO VRB03KT 10SM CLR 30/02 A3018 RMK AO2,M
MEV,2022-07-28 16:35,-119.7500,38.9963,1441.42,80.60,44.60,28.08,0.00,0.00,0.00,30.15,M,10.00,M,CLR,M,M,M,M,M,M,M,M,M,M,M,M,M,M,79.42,KMEV 281635Z AUTO 00000KT 10SM CLR 27/07 A3015 RMK AO2,M
HTH,2022-07-28 16:35,-118.6315,38.5448,1282.89,87.80,28.40,11.74,330.00,9.00,0.00,30.09,M,10.00,M,CLR,M,M,M,M,M,M,M,M,M,M,M,M,M,M,83.84,KHTH 281635Z AUTO 33009KT 10SM CLR 31/M02 A3009 RMK A01,M
CXP,2022-07-28 16:50,-119.7326,39.1923,1431.00,84.20,42.80,23.33,0.00,0.00,0.00,30.15,M,10.00,M,CLR,M,M,M,M,M,M,M,M,M,M,M,M,M,M,81.61,KCXP 281650Z AUTO 00000KT 10SM CLR 29/06 A3015 RMK AO2,M
P68,2022-07-28 16:53,-116.0056,39.6014,1993.00,83.00,37.00,19.41,20.00,10.00,0.00,30.19,1011.80,M,M,M,M,M,M,M,M,M,M,M,M,M,M,M,M,M,80.46,KP68 281653Z AUTO 02010KT 28/03 A3019 RMK AO1 SLP118 T02830028,M
DRA,2022-07-28 16:53,-116.0278,36.6206,1009.00,84.00,60.00,44.51,110.00,5.00,0.00,30.01,1011.00,10.00,M,CLR,M,M,M,M,M,M,M,M,M,M,M,M,M,M,84.05,KDRA 281653Z AUTO 11005KT 10SM CLR 29/16 A3001 RMK AO2 SLP110 T02890156,M
LOL,2022-07-28 16:53,-118.5701,40.0684,1192.43,92.00,39.00,15.77,30.00,7.00,0.00,30.06,1012.30,10.00,M,CLR,M,M,M,M,M,M,M,M,M,M,M,M,M,M,87.74,KLOL 281653Z AUTO 03007KT 360V060 10SM CLR 33/04 A3006 RMK AO2 SLP123 T03330039,M
VGT,2022-07-28 16:53,-115.1933,36.2111,667.00,87.00,63.00,44.66,M,4.00,0.00,29.95,1013.40,10.00,M,CLR,M,M,M,M,M,M,M,M,M,M,M,M,M,M,87.96,KVGT 281653Z VRB04KT 10SM CLR 31/17 A2995 RMK AO2 SLP134 T03060172,M
ELY,2022-07-28 16:53,-114.8453,39.2950,1909.00,82.00,45.00,27.24,80.00,4.00,0.00,30.20,1010.70,10.00,M,CLR,M,M,M,M,M,M,M,M,M,M,M,M,M,M,80.28,KELY 281653Z AUTO 08004KT 10SM CLR 28/07 A3020 RMK AO2 SLP107 T02780072,M
BVU,2022-07-28 16:55,-114.8611,35.9475,671.00,M,M,M,M,M,0.00,M,M,M,M,M,M,M,M,M,M,M,M,M,M,M,M,M,M,M,M,KBVU 281655Z AUTO RMK AO2 PNO PWINO TSNO,M
RNO,2022-07-28 16:55,-119.7711,39.4839,1341.00,84.00,45.00,25.54,0.00,0.00,0.00,30.13,1013.10,10.00,M,FEW,M,M,M,20000.00,M,M,M,M,M,M,M,M,M,M,81.61,KRNO 281655Z 00000KT 10SM FEW200 29/07 A3013 RMK AO2 SLP131 T02890072,M
RTS,2022-07-28 16:55,-119.8764,39.6682,1539.00,86.00,33.80,15.48,M,4.00,0.00,30.18,M,10.00,M,CLR,M,M,M,M,M,M,M,M,M,M,M,M,M,M,82.66,KRTS 281655Z AUTO VRB04KT 10SM CLR 30/01 A3018 RMK AO2,M
MEV,2022-07-28 16:55,-119.7500,38.9963,1441.42,84.20,46.40,26.76,0.00,0.00,0.00,30.14,M,8.00,M,CLR,M,M,M,M,M,M,M,M,M,M,M,M,M,M,81.87,KMEV 281655Z AUTO 00000KT 8SM CLR 29/08 A3014 RMK AO2,M
HTH,2022-07-28 16:55,-118.6315,38.5448,1282.89,89.60,28.40,11.09,330.00,8.00,0.00,30.09,M,10.00,M,CLR,M,M,M,M,M,M,M,M,M,M,M,M,M,M,85.17,KHTH 281655Z AUTO 33008KT 10SM CLR 32/M02 A3009 RMK A01,M
TMT,2022-07-28 16:55,-117.1971,39.4643,1749.34,M,M,M,330.00,4.00,0.00,30.21,M,10.00,M,CLR,M,M,M,M,M,M,M,M,M,M,M,M,M,M,M,KTMT 281655Z AUTO 33004KT 10SM CLR A3021 RMK AO2,M
LSV,2022-07-28 16:56,-115.0343,36.2362,570.00,91.00,67.30,45.87,0.00,0.00,0.00,29.94,1011.60,10.00,M,CLR,M,M,M,M,M,M,M,M,M,M,M,M,M,M,94.58,KLSV 281656Z AUTO 00000KT 10SM CLR 33/20 A2994 RMK AO2 SLP116 T03280196 $,M
NFL,2022-07-28 16:56,-118.7010,39.4166,1199.00,90.00,34.00,13.74,330.00,7.00,0.00,30.07,1014.90,10.00,M,SCT,M,M,M,12000.00,M,M,M,M,M,M,M,M,M,M,85.93,KNFL 281656Z 33007KT 10SM SCT120 32/01 A3007 RMK AO2 SLP149 T03220011,M
HND,2022-07-28 16:56,-115.1344,35.9729,742.79,86.00,63.00,46.25,360.00,4.00,0.00,30.00,1014.80,10.00,M,CLR,M,M,M,M,M,M,M,M,M,M,M,M,M,M,86.88,KHND 281656Z 36004KT 10SM CLR 30/17 A3000 RMK AO2 SLP148 T03000172,M
WMC,2022-07-28 16:56,-117.8072,40.9019,1315.00,91.00,44.00,19.76,360.00,7.00,0.00,30.09,1013.20,10.00,M,CLR,M,M,M,M,M,M,M,M,M,M,M,M,M,M,87.27,KWMC 281656Z AUTO 36007KT 10SM CLR 33/07 A3009 RMK AO2 SLP132 T03280067,M
LAS,2022-07-28 16:56,-115.1634,36.0719,663.00,86.00,62.00,44.81,0.00,0.00,0.00,29.96,1012.20,10.00,M,FEW,FEW,SCT,M,12000.00,15000.00,20000.00,M,M,M,M,M,M,M,M,86.52,KLAS 281656Z 00000KT 10SM FEW120 FEW150 SCT200 30/17 A2996 RMK AO2 SLP122 T03000167,M
TPH,2022-07-28 16:56,-117.0904,38.0505,1654.00,83.00,51.00,33.27,0.00,0.00,0.00,30.16,1011.70,10.00,M,CLR,M,M,M,M,M,M,M,M,M,M,M,M,M,M,81.45,KTPH 281656Z AUTO 00000KT 10SM CLR 28/11 A3016 RMK AO2 SLP117 T02830106,M
EKO,2022-07-28 16:56,-115.7860,40.8242,1367.00,84.00,40.00,20.99,200.00,3.00,0.00,30.13,1012.80,10.00,M,CLR,M,M,M,M,M,M,M,M,M,M,M,M,M,M,81.33,KEKO 281656Z AUTO 20003KT 10SM CLR 29/04 A3013 RMK AO2 SLP128 T02890044,M
INS,2022-07-28 16:56,-115.6733,36.5872,955.00,85.30,56.70,37.79,0.00,0.00,0.00,30.00,1010.80,10.00,M,FEW,M,M,M,18000.00,M,M,M,M,M,M,M,M,M,M,84.25,KINS 281656Z AUTO 00000KT 10SM FEW180 30/14 A3000 RMK AO2 SLP108 T02960137,M
TMT,2022-07-28 17:15,-117.1971,39.4643,1749.34,M,M,M,360.00,5.00,0.00,30.21,M,10.00,M,CLR,M,M,M,M,M,M,M,M,M,M,M,M,M,M,M,KTMT 281715Z AUTO 36005KT 10SM CLR A3021 RMK AO2,M
BVU,2022-07-28 17:15,-114.8611,35.9475,671.00,M,M,M,M,M,0.00,M,M,M,M,M,M,M,M,M,M,M,M,M,M,M,M,M,M,M,M,KBVU 281715Z AUTO RMK AO2 PNO PWINO TSNO,M
CXP,2022-07-28 17:15,-119.7326,39.1923,1431.00,87.80,41.00,19.40,0.00,0.00,0.00,30.15,M,10.00,M,CLR,M,M,M,M,M,M,M,M,M,M,M,M,M,M,84.30,KCXP 281715Z AUTO 00000KT 10SM CLR 31/05 A3015 RMK AO2,M
RTS,2022-07-28 17:15,-119.8764,39.6682,1539.00,87.80,33.80,14.61,120.00,4.00,0.00,30.18,M,10.00,M,CLR,M,M,M,M,M,M,M,M,M,M,M,M,M,M,84.10,KRTS 281715Z AUTO 12004KT 10SM CLR 31/01 A3018 RMK AO2,M
MEV,2022-07-28 17:15,-119.7500,38.9963,1441.42,86.00,42.80,22.02,0.00,0.00,0.00,30.14,M,10.00,M,CLR,M,M,M,M,M,M,M,M,M,M,M,M,M,M,82.95,KMEV 281715Z AUTO 00000KT 10SM CLR 30/06 A3014 RMK AO2,M
HTH,2022-07-28 17:15,-118.6315,38.5448,1282.89,89.60,28.40,11.09,340.00,10.00,0.00,30.09,M,10.00,M,CLR,M,M,M,M,M,M,M,M,M,M,M,M,M,M,85.17,KHTH 281715Z AUTO 34010KT 10SM CLR 32/M02 A3009 RMK A01,M
BAM,2022-07-28 17:18,-116.8743,40.5990,1382.36,89.60,39.20,17.09,360.00,3.00,0.00,30.12,M,10.00,M,M,M,M,M,M,M,M,M,M,M,M,M,M,M,M,85.73,KBAM 281718Z AUTO 36003KT 10SM 32/04 A3012 RMK AO1,M
TMT,2022-07-28 17:35,-117.1971,39.4643,1749.34,M,M,M,330.00,4.00,0.00,30.21,M,10.00,M,CLR,M,M,M,M,M,M,M,M,M,M,M,M,M,M,M,KTMT 281735Z AUTO 33004KT 10SM CLR A3021 RMK AO2,M
BVU,2022-07-28 17:35,-114.8611,35.9475,671.00,M,M,M,M,M,0.00,M,M,M,M,M,M,M,M,M,M,M,M,M,M,M,M,M,M,M,M,KBVU 281735Z AUTO RMK AO2 PNO PWINO TSNO,M
CXP,2022-07-28 17:35,-119.7326,39.1923,1431.00,91.40,35.60,14.02,330.00,8.00,0.00,30.15,M,10.00,M,CLR,M,M,M,M,M,M,M,M,M,M,M,M,M,M,87.17,KCXP 281735Z AUTO 33008KT 10SM CLR 33/02 A3015 RMK AO2,M
RTS,2022-07-28 17:35,-119.8764,39.6682,1539.00,87.80,33.80,14.61,160.00,6.00,0.00,30.18,M,10.00,M,CLR,M,M,M,M,M,M,M,M,M,M,M,M,M,M,84.10,KRTS 281735Z AUTO 16006KT 10SM CLR 31/01 A3018 RMK AO2,M
MEV,2022-07-28 17:35,-119.7500,38.9963,1441.42,87.80,42.80,20.79,310.00,6.00,0.00,30.14,M,10.00,M,CLR,M,M,M,M,M,M,M,M,M,M,M,M,M,M,84.40,KMEV 281735Z AUTO 31006KT 10SM CLR 31/06 A3014 RMK AO2,M
BAM,2022-07-28 17:35,-116.8743,40.5990,1382.36,89.60,41.00,18.33,240.00,3.00,0.00,30.11,M,10.00,M,CLR,M,M,M,M,M,M,M,M,M,M,M,M,M,M,85.82,KBAM 281735Z AUTO 24003KT 10SM CLR 32/05 A3011 RMK AO1,M
HTH,2022-07-28 17:35,-118.6315,38.5448,1282.89,91.40,28.40,10.48,330.00,10.00,0.00,30.09,M,10.00,M,CLR,M,M,M,M,M,M,M,M,M,M,M,M,M,M,86.53,KHTH 281735Z AUTO 33010KT 10SM CLR 33/M02 A3009 RMK A01,M
LOL,2022-07-28 17:53,-118.5701,40.0684,1192.43,95.00,39.00,14.33,0.00,0.00,0.00,30.05,1011.90,10.00,M,CLR,M,M,M,M,M,M,M,M,M,M,M,M,M,M,90.55,KLOL 281753Z AUTO 00000KT 10SM CLR 35/04 A3005 RMK AO2 SLP119 T03500039 10361 20167 58004,M
DRA,2022-07-28 17:53,-116.0278,36.6206,1009.00,90.00,56.00,31.62,M,5.00,0.00,30.01,1010.50,10.00,M,CLR,M,M,M,M,M,M,M,M,M,M,M,M,M,M,88.29,KDRA 281753Z AUTO VRB05KT 10SM CLR 32/13 A3001 RMK AO2 SLP105 T03220133 10322 20222 50001,M
P68,2022-07-28 17:53,-116.0056,39.6014,1993.00,87.00,36.00,16.31,10.00,8.00,0.00,30.18,1011.60,M,M,M,M,M,M,M,M,M,M,M,M,M,M,M,M,M,83.56,KP68 281753Z AUTO 01008KT 31/02 A3018 RMK AO1 SLP116 T03060022 10306 20122 56004,M
ELY,2022-07-28 17:53,-114.8453,39.2950,1909.00,84.00,43.00,23.66,M,4.00,0.00,30.19,1010.20,10.00,M,CLR,M,M,M,M,M,M,M,M,M,M,M,M,M,M,81.48,KELY 281753Z AUTO VRB04KT 10SM CLR 29/06 A3019 RMK AO2 SLP102 T02890061 10306 20111 58008,M
VGT,2022-07-28 17:53,-115.1933,36.2111,667.00,89.00,61.00,39.06,110.00,4.00,0.00,29.95,1013.10,10.00,M,CLR,M,M,M,M,M,M,M,M,M,M,M,M,M,M,89.11,KVGT 281753Z 11004KT 10SM CLR 32/16 A2995 RMK AO2 SLP131 T03170161 10322 20256 58002,M
BAM,2022-07-28 17:55,-116.8743,40.5990,1382.36,91.40,44.60,19.89,10.00,5.00,0.00,30.11,M,10.00,M,CLR,M,M,M,M,M,M,M,M,M,M,M,M,M,M,87.68,KBAM 281755Z AUTO 01005KT 10SM CLR 33/07 A3011 RMK AO1,M
MEV,2022-07-28 17:55,-119.7500,38.9963,1441.42,89.60,39.20,17.09,M,4.00,0.00,30.14,M,10.00,M,CLR,M,M,M,M,M,M,M,M,M,M,M,M,M,M,85.73,KMEV 281755Z AUTO VRB04KT 10SM CLR 32/04 A3014 RMK AO2,M
CXP,2022-07-28 17:55,-119.7326,39.1923,1431.00,89.60,35.60,14.83,330.00,4.00,0.00,30.15,M,10.00,M,CLR,M,M,M,M,M,M,M,M,M,M,M,M,M,M,85.62,KCXP 281755Z AUTO 33004KT 10SM CLR 32/02 A3015 RMK AO2,M
BVU,2022-07-28 17:55,-114.8611,35.9475,671.00,M,M,M,M,M,0.00,M,M,M,M,M,M,M,M,M,M,M,M,M,M,M,M,M,M,M,M,KBVU 281755Z AUTO RMK AO2 PNO PWINO TSNO,M
RTS,2022-07-28 17:55,-119.8764,39.6682,1539.00,87.80,32.00,13.59,0.00,0.00,0.00,30.18,M,10.00,10.00,CLR,M,M,M,M,M,M,M,M,M,M,M,M,M,M,84.08,KRTS 281755Z AUTO 00000G10KT 10SM CLR 31/00 A3018 RMK AO2,M
RNO,2022-07-28 17:55,-119.7711,39.4839,1341.00,91.00,42.00,18.30,70.00,5.00,0.00,30.12,1012.70,10.00,M,FEW,M,M,M,11000.00,M,M,M,M,M,M,M,M,M,M,87.11,KRNO 281755Z 07005KT 10SM FEW110 33/06 A3012 RMK AO2 SLP127 T03280056 10328 20206 58004,M
TMT,2022-07-28 17:55,-117.1971,39.4643,1749.34,M,M,M,30.00,3.00,0.00,30.21,M,10.00,M,CLR,M,M,M,M,M,M,M,M,M,M,M,M,M,M,M,KTMT 281755Z AUTO 03003KT 10SM CLR A3021 RMK AO2,M
HTH,2022-07-28 17:55,-118.6315,38.5448,1282.89,93.20,30.20,10.67,350.00,12.00,0.00,30.09,M,10.00,M,CLR,M,M,M,M,M,M,M,M,M,M,M,M,M,M,88.09,KHTH 281755Z AUTO 35012KT 10SM CLR 34/M01 A3009 RMK A01,M
NFL,2022-07-28 17:56,-118.7010,39.4166,1199.00,94.00,35.00,12.71,320.00,8.00,0.00,30.06,1014.80,10.00,M,FEW,M,M,M,12000.00,M,M,M,M,M,M,M,M,M,M,89.29,KNFL 281756Z 32008KT 10SM FEW120 34/02 A3006 RMK AO2 SLP148 T03440017 10344 20172 58001,M
LAS,2022-07-28 17:56,-115.1634,36.0719,663.00,88.00,61.00,40.44,120.00,3.00,0.00,29.96,1011.70,10.00,M,SCT,SCT,M,M,15000.00,20000.00,M,M,M,M,M,M,M,M,M,88.02,KLAS 281756Z 12003KT 10SM SCT150 SCT200 31/16 A2996 RMK AO2 SLP117 T03110161 10317 20256 58002,M
TPH,2022-07-28 17:56,-117.0904,38.0505,1654.00,88.00,48.00,25.17,M,4.00,0.00,30.15,1011.10,10.00,M,CLR,M,M,M,M,M,M,M,M,M,M,M,M,M,M,85.02,KTPH 281756Z AUTO VRB04KT 10SM CLR 31/09 A3015 RMK AO2 SLP111 T03110089 10311 20172 58005,M
LSV,2022-07-28 17:56,-115.0343,36.2362,570.00,93.00,68.50,44.92,30.00,3.00,0.00,29.93,1011.20,10.00,M,FEW,M,M,M,16000.00,M,M,M,M,M,M,M,M,M,M,97.82,KLSV 281756Z AUTO 03003KT 10SM FEW160 34/20 A2993 RMK AO2 SLP112 T03390203 10339 20247 58004 $,M
WMC,2022-07-28 17:56,-117.8072,40.9019,1315.00,94.00,45.00,18.68,320.00,7.00,0.00,30.09,1012.90,10.00,M,CLR,M,M,M,M,M,M,M,M,M,M,M,M,M,M,90.05,KWMC 281756Z AUTO 32007KT 10SM CLR 34/07 A3009 RMK AO2 SLP129 T03440072 10344 20167 58004,M
INS,2022-07-28 17:56,-115.6733,36.5872,955.00,88.30,54.70,31.94,60.00,3.00,0.00,30.00,1010.80,10.00,M,CLR,M,M,M,M,M,M,M,M,M,M,M,M,M,M,86.40,KINS 281756Z AUTO 06003KT 10SM CLR 31/13 A3000 RMK AO2 SLP108 T03130126 10313 20226 58005,M
EKO,2022-07-28 17:56,-115.7860,40.8242,1367.00,90.00,41.00,18.10,M,3.00,0.00,30.12,1012.50,10.00,M,CLR,M,M,M,M,M,M,M,M,M,M,M,M,M,M,86.16,KEKO 281756Z AUTO VRB03KT 10SM CLR 32/05 A3012 RMK AO2 SLP125 T03220050 10322 20133 58008,M
HND,2022-07-28 17:56,-115.1344,35.9729,742.79,87.00,62.00,43.27,90.00,4.00,0.00,29.99,1014.40,10.00,M,CLR,M,M,M,M,M,M,M,M,M,M,M,M,M,M,87.58,KHND 281756Z 09004KT 10SM CLR 31/17 A2999 RMK AO2 SLP144 T03060167 10311 20239 58003,M
CXP,2022-07-28 18:10,-119.7326,39.1923,1431.00,89.60,33.80,13.80,0.00,0.00,0.00,30.14,M,10.00,M,CLR,M,M,M,M,M,M,M,M,M,M,M,M,M,M,85.59,KCXP 281810Z AUTO 00000KT 10SM CLR 32/01 A3014 RMK AO2,M
BAM,2022-07-28 18:15,-116.8743,40.5990,1382.36,91.40,44.60,19.89,300.00,6.00,0.00,30.11,M,10.00,M,CLR,M,M,M,M,M,M,M,M,M,M,M,M,M,M,87.68,KBAM 281815Z AUTO 30006KT 10SM CLR 33/07 A3011 RMK AO1,M
HTH,2022-07-28 18:15,-118.6315,38.5448,1282.89,93.20,30.20,10.67,330.00,12.00,0.00,30.08,M,10.00,M,CLR,M,M,M,M,M,M,M,M,M,M,M,M,M,M,88.09,KHTH 281815Z AUTO 33012KT 10SM CLR 34/M01 A3008 RMK A01,M
MEV,2022-07-28 18:15,-119.7500,38.9963,1441.42,91.40,39.20,16.15,320.00,4.00,0.00,30.13,M,10.00,11.00,CLR,M,M,M,M,M,M,M,M,M,M,M,M,M,M,87.30,KMEV 281815Z AUTO 32004G11KT 10SM CLR 33/04 A3013 RMK AO2,M
BVU,2022-07-28 18:15,-114.8611,35.9475,671.00,M,M,M,M,M,0.00,M,M,M,M,M,M,M,M,M,M,M,M,M,M,M,M,M,M,M,M,KBVU 281815Z AUTO RMK AO2 PNO PWINO TSNO,M
RTS,2022-07-28 18:15,-119.8764,39.6682,1539.00,91.40,32.00,12.14,140.00,7.00,0.00,30.18,M,10.00,M,CLR,M,M,M,M,M,M,M,M,M,M,M,M,M,M,86.91,KRTS 281815Z AUTO 14007KT 10SM CLR 33/00 A3018 RMK AO2,M
TMT,2022-07-28 18:15,-117.1971,39.4643,1749.34,M,M,M,360.00,5.00,0.00,30.20,M,10.00,M,CLR,M,M,M,M,M,M,M,M,M,M,M,M,M,M,M,KTMT 281815Z AUTO 36005KT 10SM CLR A3020 RMK AO2,M
HTH,2022-07-28 18:35,-118.6315,38.5448,1282.89,93.20,30.20,10.67,320.00,10.00,0.00,30.08,M,10.00,17.00,CLR,M,M,M,M,M,M,M,M,M,M,M,M,M,M,88.09,KHTH 281835Z AUTO 32010G17KT 10SM CLR 34/M01 A3008 RMK A01,M
TMT,2022-07-28 18:35,-117.1971,39.4643,1749.34,M,M,M,0.00,0.00,0.00,30.19,M,10.00,M,CLR,M,M,M,M,M,M,M,M,M,M,M,M,M,M,M,KTMT 281835Z AUTO 00000KT 10SM CLR A3019 RMK AO2,M
MEV,2022-07-28 18:35,-119.7500,38.9963,1441.42,93.20,41.00,16.37,0.00,0.00,0.00,30.13,M,10.00,M,CLR,M,M,M,M,M,M,M,M,M,M,M,M,M,M,89.03,KMEV 281835Z AUTO 00000KT 10SM CLR 34/05 A3013 RMK AO2,M
BAM,2022-07-28 18:35,-116.8743,40.5990,1382.36,93.20,42.80,17.55,310.00,8.00,0.00,30.10,M,10.00,M,CLR,M,M,M,M,M,M,M,M,M,M,M,M,M,M,89.17,KBAM 281835Z AUTO 31008KT 260V320 10SM CLR 34/06 A3010 RMK AO1,M
BVU,2022-07-28 18:35,-114.8611,35.9475,671.00,M,M,M,M,M,0.00,M,M,M,M,M,M,M,M,M,M,M,M,M,M,M,M,M,M,M,M,KBVU 281835Z AUTO RMK AO2 PNO PWINO TSNO,M
CXP,2022-07-28 18:35,-119.7326,39.1923,1431.00,93.20,33.80,12.34,260.00,5.00,0.00,30.14,M,10.00,M,CLR,M,M,M,M,M,M,M,M,M,M,M,M,M,M,88.55,KCXP 281835Z AUTO 26005KT 10SM CLR 34/01 A3014 RMK AO2,M
RTS,2022-07-28 18:35,-119.8764,39.6682,1539.00,91.40,32.00,12.14,160.00,7.00,0.00,30.17,M,10.00,M,CLR,M,M,M,M,M,M,M,M,M,M,M,M,M,M,86.91,KRTS 281835Z AUTO 16007KT 120V190 10SM CLR 33/M00 A3017 RMK AO2,M
VGT,2022-07-28 18:53,-115.1933,36.2111,667.00,92.00,62.00,37.19,120.00,7.00,0.00,29.93,1012.40,10.00,M,CLR,M,M,M,M,M,M,M,M,M,M,M,M,M,M,92.52,KVGT 281853Z 12007KT 10SM CLR 33/17 A2993 RMK AO2 SLP124 T03330167,M
DRA,2022-07-28 18:53,-116.0278,36.6206,1009.00,92.00,55.00,28.84,M,M,0.00,29.99,1010.10,10.00,M,CLR,M,M,M,M,M,M,M,M,M,M,M,M,M,M,89.92,KDRA 281853Z AUTO 10SM CLR 33/13 A2999 RMK AO2 SLP101 T03330128,M
LOL,2022-07-28 18:53,-118.5701,40.0684,1192.43,99.00,38.00,12.15,50.00,10.00,0.00,30.04,1012.10,10.00,17.00,CLR,M,M,M,M,M,M,M,M,M,M,M,M,M,M,93.98,KLOL 281853Z AUTO 05010G17KT 10SM CLR 37/03 A3004 RMK AO2 SLP121 T03720033,M
P68,2022-07-28 18:53,-116.0056,39.6014,1993.00,89.00,33.00,13.64,M,4.00,0.00,30.17,1011.20,M,17.00,M,M,M,M,M,M,M,M,M,M,M,M,M,M,M,85.16,KP68 281853Z AUTO VRB04G17KT 32/01 A3017 RMK AO1 SLP112 T03170006,M
ELY,2022-07-28 18:53,-114.8453,39.2950,1909.00,89.00,44.00,20.97,60.00,8.00,0.00,30.17,1009.30,10.00,M,CLR,M,M,M,M,M,M,M,M,M,M,M,M,M,M,85.59,KELY 281853Z AUTO 06008KT 10SM CLR 32/07 A3017 RMK AO2 SLP093 T03170067 $,M
CXP,2022-07-28 18:55,-119.7326,39.1923,1431.00,95.00,35.60,12.53,110.00,7.00,0.00,30.13,M,9.00,16.00,CLR,M,M,M,M,M,M,M,M,M,M,M,M,M,M,90.25,KCXP 281855Z AUTO 11007G16KT 9SM CLR 35/02 A3013 RMK AO2,M
RNO,2022-07-28 18:55,-119.7711,39.4839,1341.00,96.00,40.00,14.35,20.00,3.00,0.00,30.10,1011.90,10.00,M,FEW,M,M,M,12000.00,M,M,M,M,M,M,M,M,M,M,91.64,KRNO 281855Z 02003KT 10SM FEW120 36/04 A3010 RMK AO2 SLP119 T03560044,M
RTS,2022-07-28 18:55,-119.8764,39.6682,1539.00,91.40,30.20,11.28,M,5.00,0.00,30.17,M,10.00,12.00,CLR,M,M,M,M,M,M,M,M,M,M,M,M,M,M,86.71,KRTS 281855Z AUTO VRB05G12KT 10SM CLR 33/M01 A3017 RMK AO2,M
MEV,2022-07-28 18:55,-119.7500,38.9963,1441.42,M,M,M,M,M,0.00,M,M,M,M,M,M,M,M,M,M,M,M,M,M,M,M,M,M,M,M,KMEV 281855Z AUTO RMK AO2 PNO PWINO TSNO,M
BAM,2022-07-28 18:55,-116.8743,40.5990,1382.36,95.00,42.80,16.60,330.00,9.00,0.00,30.09,M,10.00,16.00,CLR,M,M,M,M,M,M,M,M,M,M,M,M,M,M,90.86,KBAM 281855Z AUTO 33009G16KT 10SM CLR 35/06 A3009 RMK AO1,M
HTH,2022-07-28 18:55,-118.6315,38.5448,1282.89,95.00,30.20,10.09,330.00,10.00,0.00,30.07,M,10.00,M,CLR,M,M,M,M,M,M,M,M,M,M,M,M,M,M,89.48,KHTH 281855Z AUTO 33010KT 10SM CLR 35/M01 A3007 RMK A01,M
TMT,2022-07-28 18:55,-117.1971,39.4643,1749.34,M,M,M,30.00,7.00,0.00,30.19,M,10.00,M,CLR,M,M,M,M,M,M,M,M,M,M,M,M,M,M,M,KTMT 281855Z AUTO 03007KT 10SM CLR A3019 RMK AO2,M
BVU,2022-07-28 18:55,-114.8611,35.9475,671.00,M,M,M,M,M,0.00,M,M,M,M,M,M,M,M,M,M,M,M,M,M,M,M,M,M,M,M,KBVU 281855Z AUTO RMK AO2 PNO PWINO TSNO,M
EKO,2022-07-28 18:56,-115.7860,40.8242,1367.00,92.00,39.00,15.77,110.00,6.00,0.00,30.10,1012.00,10.00,M,CLR,M,M,M,M,M,M,M,M,M,M,M,M,M,M,87.74,KEKO 281856Z AUTO 11006KT 10SM CLR 33/04 A3010 RMK AO2 SLP120 T03330039,M
TPH,2022-07-28 18:56,-117.0904,38.0505,1654.00,91.00,40.00,16.80,M,3.00,0.00,30.13,1010.60,10.00,M,CLR,M,M,M,M,M,M,M,M,M,M,M,M,M,M,86.98,KTPH 281856Z AUTO VRB03KT 10SM CLR 33/04 A3013 RMK AO2 SLP106 T03280044,M
LAS,2022-07-28 18:56,-115.1634,36.0719,663.00,92.00,61.00,35.77,M,5.00,0.00,29.94,1011.10,10.00,M,FEW,SCT,M,M,15000.00,20000.00,M,M,M,M,M,M,M,M,M,92.01,KLAS 281856Z VRB05KT 10SM FEW150 SCT200 33/16 A2994 RMK AO2 SLP111 TCU DSNT NE-SE T03330161,M
NFL,2022-07-28 18:56,-118.7010,39.4166,1199.00,97.00,35.00,11.56,M,6.00,0.00,30.05,1014.40,10.00,M,FEW,M,M,M,12000.00,M,M,M,M,M,M,M,M,M,M,91.81,KNFL 281856Z VRB06KT 10SM FEW120 36/02 A3005 RMK AO2 SLP144 T03610017,M
WMC,2022-07-28 18:56,-117.8072,40.9019,1315.00,95.00,43.00,16.73,M,5.00,0.00,30.08,1012.40,10.00,M,CLR,M,M,M,M,M,M,M,M,M,M,M,M,M,M,90.88,KWMC 281856Z AUTO VRB05KT 10SM CLR 35/06 A3008 RMK AO2 SLP124 T03500061,M
HND,2022-07-28 18:56,-115.1344,35.9729,742.79,91.00,63.00,39.49,360.00,4.00,0.00,29.97,1013.60,10.00,M,CLR,M,M,M,M,M,M,M,M,M,M,M,M,M,M,92.00,KHND 281856Z 36004KT 10SM CLR 33/17 A2997 RMK AO2 SLP136 T03280172,M
LSV,2022-07-28 18:58,-115.0343,36.2362,570.00,94.80,68.00,41.76,60.00,5.00,0.00,29.91,1010.40,10.00,M,CLR,M,M,M,M,M,M,M,M,M,M,M,M,M,M,99.58,KLSV 281858Z AUTO 06005KT 10SM CLR 35/20 A2991 RMK AO2 SLP104 T03490200 $,M
INS,2022-07-28 18:58,-115.6733,36.5872,955.00,91.00,53.40,27.98,80.00,8.00,0.00,29.98,1010.10,10.00,M,CLR,M,M,M,M,M,M,M,M,M,M,M,M,M,M,88.64,KINS 281858Z AUTO 08008KT 10SM CLR 33/12 A2998 RMK AO2 SLP101 T03280119,M
BVU,2022-07-28 19:15,-114.8611,35.9475,671.00,M,M,M,M,M,0.00,M,M,M,M,M,M,M,M,M,M,M,M,M,M,M,M,M,M,M,M,KBVU 281915Z AUTO RMK AO2 PNO PWINO TSNO,M
CXP,2022-07-28 19:15,-119.7326,39.1923,1431.00,95.00,33.80,11.67,0.00,0.00,0.00,30.12,M,10.00,M,CLR,M,M,M,M,M,M,M,M,M,M,M,M,M,M,89.97,KCXP 281915Z AUTO 00000KT 10SM CLR 35/01 A3012 RMK AO2,M
RTS,2022-07-28 19:15,-119.8764,39.6682,1539.00,93.20,30.20,10.67,110.00,10.00,0.00,30.16,M,10.00,M,CLR,M,M,M,M,M,M,M,M,M,M,M,M,M,M,88.09,KRTS 281915Z AUTO 11010KT 090V150 10SM CLR 34/M01 A3016 RMK AO2,M
MEV,2022-07-28 19:15,-119.7500,38.9963,1441.42,M,M,M,M,M,0.00,M,M,M,M,M,M,M,M,M,M,M,M,M,M,M,M,M,M,M,M,KMEV 281915Z AUTO RMK AO2 TSNO,M
BAM,2022-07-28 19:15,-116.8743,40.5990,1382.36,95.00,42.80,16.60,290.00,8.00,0.00,30.09,M,10.00,M,CLR,M,M,M,M,M,M,M,M,M,M,M,M,M,M,90.86,KBAM 281915Z AUTO 29008KT 10SM CLR 35/06 A3009 RMK AO1,M
HTH,2022-07-28 19:15,-118.6315,38.5448,1282.89,96.80,30.20,9.55,330.00,12.00,0.00,30.06,M,10.00,M,CLR,M,M,M,M,M,M,M,M,M,M,M,M,M,M,90.96,KHTH 281915Z AUTO 33012KT 10SM CLR 36/M01 A3006 RMK A01,M
TMT,2022-07-28 19:15,-117.1971,39.4643,1749.34,M,M,M,0.00,0.00,0.00,30.18,M,10.00,M,CLR,M,M,M,M,M,M,M,M,M,M,M,M,M,M,M,KTMT 281915Z AUTO 00000KT 10SM CLR A3018 RMK AO2,M
TMT,2022-07-28 19:35,-117.1971,39.4643,1749.34,M,M,M,340.00,4.00,0.00,30.18,M,10.00,17.00,CLR,M,M,M,M,M,M,M,M,M,M,M,M,M,M,M,KTMT 281935Z AUTO 34004G17KT 10SM CLR A3018 RMK AO2,M
HTH,2022-07-28 19:35,-118.6315,38.5448,1282.89,96.80,30.20,9.55,330.00,13.00,0.00,30.06,M,10.00,M,CLR,M,M,M,M,M,M,M,M,M,M,M,M,M,M,90.96,KHTH 281935Z AUTO 33013KT 10SM CLR 36/M01 A3006 RMK A01,M
MEV,2022-07-28 19:35,-119.7500,38.9963,1441.42,M,M,M,M,M,0.00,M,M,M,M,M,M,M,M,M,M,M,M,M,M,M,M,M,M,M,M,KMEV 281935Z AUTO RMK AO2 PNO PWINO TSNO,M
CXP,2022-07-28 19:35,-119.7326,39.1923,1431.00,96.80,33.80,11.04,0.00,0.00,0.00,30.12,M,10.00,M,CLR,M,M,M,M,M,M,M,M,M,M,M,M,M,M,91.44,KCXP 281935Z AUTO 00000KT 10SM CLR 36/01 A3012 RMK AO2,M
RTS,2022-07-28 19:35,-119.8764,39.6682,1539.00,93.20,28.40,9.91,0.00,0.00,0.00,30.16,M,10.00,14.00,CLR,M,M,M,M,M,M,M,M,M,M,M,M,M,M,87.89,KRTS 281935Z AUTO 00000G14KT 10SM CLR 34/M02 A3016 RMK AO2,M
BVU,2022-07-28 19:35,-114.8611,35.9475,671.00,M,M,M,M,M,0.00,M,M,M,M,M,M,M,M,M,M,M,M,M,M,M,M,M,M,M,M,KBVU 281935Z AUTO RMK AO2 PNO PWINO TSNO,M
BAM,2022-07-28 19:35,-116.8743,40.5990,1382.36,95.00,42.80,16.60,300.00,11.00,0.00,30.08,M,10.00,16.00,CLR,M,M,M,M,M,M,M,M,M,M,M,M,M,M,90.86,KBAM 281935Z AUTO 30011G16KT 10SM CLR 35/06 A3008 RMK AO1,M
ELY,2022-07-28 19:53,-114.8453,39.2950,1909.00,83.00,40.00,21.75,350.00,9.00,T,30.16,1010.00,10.00,24.00,FEW,FEW,SCT,M,5500.00,10000.00,11000.00,M,-RA,M,M,M,27.00,320.00,2022-07-28 19:42,80.57,KELY 281953Z AUTO 35009G24KT 10SM -RA FEW055 FEW100 SCT110 28/04 A3016 RMK AO2 PK WND 32027/1942 WSHFT 1933 LTG DSNT S RAB39 SLP100 P0000 T02830044 $,M
VGT,2022-07-28 19:53,-115.1933,36.2111,667.00,94.00,62.00,34.95,130.00,6.00,0.00,29.91,1011.80,10.00,M,CLR,M,M,M,M,M,M,M,M,M,M,M,M,M,M,94.72,KVGT 281953Z 13006KT 10SM CLR 34/17 A2991 RMK AO2 SLP118 T03440167,M
P68,2022-07-28 19:53,-116.0056,39.6014,1993.00,92.00,30.90,11.43,10.00,15.00,0.00,30.14,1010.70,M,23.00,M,M,M,M,M,M,M,M,M,M,M,M,M,M,M,87.17,KP68 281953Z AUTO 01015G23KT 33/M01 A3014 RMK AO1 SLP107 T03331006,M
DRA,2022-07-28 19:53,-116.0278,36.6206,1009.00,96.00,53.00,23.62,M,M,0.00,29.96,1009.20,10.00,M,CLR,M,M,M,M,M,M,M,M,M,M,M,M,M,M,93.72,KDRA 281953Z AUTO 10SM CLR 36/12 A2996 RMK AO2 SLP092 T03560117,M
LOL,2022-07-28 19:53,-118.5701,40.0684,1192.43,100.00,37.00,11.37,M,6.00,0.00,30.02,1011.40,10.00,M,CLR,M,M,M,M,M,M,M,M,M,M,M,M,M,M,94.66,KLOL 281953Z AUTO VRB06KT 10SM CLR 38/03 A3002 RMK AO2 SLP114 T03780028,M
TMT,2022-07-28 19:55,-117.1971,39.4643,1749.34,M,M,M,320.00,6.00,0.00,30.17,M,10.00,M,CLR,M,M,M,M,M,M,M,M,M,M,M,M,M,M,M,KTMT 281955Z AUTO 32006KT 10SM CLR A3017 RMK AO2,M
HTH,2022-07-28 19:55,-118.6315,38.5448,1282.89,98.60,28.40,8.40,320.00,12.00,0.00,30.05,M,10.00,17.00,CLR,M,M,M,M,M,M,M,M,M,M,M,M,M,M,92.25,KHTH 281955Z AUTO 32012G17KT 10SM CLR 37/M02 A3005 RMK A01,M
BAM,2022-07-28 19:55,-116.8743,40.5990,1382.36,96.80,42.80,15.71,340.00,3.00,0.00,30.08,M,10.00,15.00,CLR,M,M,M,M,M,M,M,M,M,M,M,M,M,M,92.57,KBAM 281955Z AUTO 34003G15KT 10SM CLR 36/06 A3008 RMK AO1,M
MEV,2022-07-28 19:55,-119.7500,38.9963,1441.42,96.80,30.20,9.55,10.00,11.00,0.00,30.10,M,10.00,17.00,M,M,M,M,M,M,M,M,M,M,M,M,M,M,M,90.96,KMEV 281955Z AUTO 01011G17KT 10SM 36/M01 A3010 RMK AO2,M
RTS,2022-07-28 19:55,-119.8764,39.6682,1539.00,95.00,26.60,8.71,340.00,9.00,0.00,30.15,M,10.00,19.00,CLR,M,M,M,M,M,M,M,M,M,M,M,M,M,M,89.08,KRTS 281955Z AUTO 34009G19KT 10SM CLR 35/M03 A3015 RMK AO2,M
RNO,2022-07-28 19:55,-119.7711,39.4839,1341.00,98.00,37.00,12.05,130.00,5.00,0.00,30.08,1011.20,10.00,M,FEW,M,M,M,12000.00,M,M,M,M,M,M,M,M,M,M,93.05,KRNO 281955Z 13005KT 10SM FEW120 37/03 A3008 RMK AO2 SLP112 T03670028,M
CXP,2022-07-28 19:55,-119.7326,39.1923,1431.00,96.80,33.80,11.04,140.00,6.00,0.00,30.11,M,10.00,M,CLR,M,M,M,M,M,M,M,M,M,M,M,M,M,M,91.44,KCXP 281955Z AUTO 14006KT 10SM CLR 36/01 A3011 RMK AO2,M
BVU,2022-07-28 19:55,-114.8611,35.9475,671.00,M,M,M,M,M,0.00,M,M,M,M,M,M,M,M,M,M,M,M,M,M,M,M,M,M,M,M,KBVU 281955Z AUTO RMK AO2 PNO PWINO TSNO,M
WMC,2022-07-28 19:56,-117.8072,40.9019,1315.00,98.00,40.00,13.50,70.00,8.00,0.00,30.06,1011.60,10.00,M,CLR,M,M,M,M,M,M,M,M,M,M,M,M,M,M,93.51,KWMC 281956Z AUTO 07008KT 10SM CLR 37/04 A3006 RMK AO2 SLP116 T03670044,M
EKO,2022-07-28 19:56,-115.7860,40.8242,1367.00,95.00,36.00,12.73,300.00,8.00,0.00,30.08,1011.70,10.00,M,CLR,M,M,M,M,M,M,M,M,M,M,M,M,M,M,90.32,KEKO 281956Z AUTO 30008KT 10SM CLR 35/02 A3008 RMK AO2 SLP117 T03500022,M
TPH,2022-07-28 19:56,-117.0904,38.0505,1654.00,94.00,37.00,13.71,M,5.00,0.00,30.11,1009.70,10.00,M,CLR,M,M,M,M,M,M,M,M,M,M,M,M,M,M,89.44,KTPH 281956Z AUTO VRB05KT 10SM CLR 34/03 A3011 RMK AO2 SLP097 T03440028,M
LAS,2022-07-28 19:56,-115.1634,36.0719,663.00,94.00,61.00,33.62,50.00,5.00,0.00,29.92,1010.40,10.00,M,FEW,SCT,M,M,15000.00,20000.00,M,M,M,M,M,M,M,M,M,94.18,KLAS 281956Z 05005KT 10SM FEW150 SCT200 34/16 A2992 RMK AO2 SLP104 CB DSNT E TCU DSNT NE-SE T03440161,M
NFL,2022-07-28 19:56,-118.7010,39.4166,1199.00,100.00,34.00,10.10,0.00,0.00,0.00,30.03,1013.80,10.00,M,FEW,FEW,M,M,8000.00,12000.00,M,M,M,M,M,M,M,M,M,94.16,KNFL 281956Z 00000KT 10SM FEW080 FEW120 38/01 A3003 RMK AO2 SLP138 T03780011,M
HND,2022-07-28 19:56,-115.1344,35.9729,742.79,94.00,63.00,36.08,70.00,7.00,0.00,29.95,1012.70,10.00,M,CLR,M,M,M,M,M,M,M,M,M,M,M,M,M,M,95.19,KHND 281956Z 07007KT 030V100 10SM CLR 34/17 A2995 RMK AO2 SLP127 T03440172,M
INS,2022-07-28 19:58,-115.6733,36.5872,955.00,93.20,53.20,25.93,60.00,5.00,0.00,29.95,1009.00,10.00,M,CLR,M,M,M,M,M,M,M,M,M,M,M,M,M,M,90.77,KINS 281958Z AUTO 06005KT 10SM CLR 34/12 A2995 RMK AO2 SLP090 T03400118,M
LSV,2022-07-28 19:58,-115.0343,36.2362,570.00,95.50,64.20,35.82,130.00,4.00,0.00,29.89,1009.70,10.00,M,CLR,M,M,M,M,M,M,M,M,M,M,M,M,M,M,97.72,KLSV 281958Z AUTO 13004KT 10SM CLR 35/18 A2989 RMK AO2 SLP097 T03530179 $,M
RTS,2022-07-28 20:15,-119.8764,39.6682,1539.00,95.00,28.40,9.38,40.00,12.00,0.00,30.14,M,10.00,17.00,CLR,M,M,M,M,M,M,M,M,M,M,M,M,M,M,89.27,KRTS 282015Z AUTO 04012G17KT 10SM CLR 35/M02 A3014 RMK AO2,M
BAM,2022-07-28 20:15,-116.8743,40.5990,1382.36,96.80,42.80,15.71,320.00,7.00,0.00,30.08,M,10.00,18.00,CLR,M,M,M,M,M,M,M,M,M,M,M,M,M,M,92.57,KBAM 282015Z AUTO 32007G18KT 10SM CLR 36/06 A3008 RMK AO1,M
HTH,2022-07-28 20:15,-118.6315,38.5448,1282.89,98.60,28.40,8.40,320.00,12.00,0.00,30.04,M,10.00,17.00,CLR,M,M,M,M,M,M,M,M,M,M,M,M,M,M,92.25,KHTH 282015Z AUTO 32012G17KT 10SM CLR 37/M02 A3004 RMK A01,M
TMT,2022-07-28 20:15,-117.1971,39.4643,1749.34,M,M,M,290.00,10.00,0.00,30.16,M,10.00,15.00,CLR,M,M,M,M,M,M,M,M,M,M,M,M,M,M,M,KTMT 282015Z AUTO 29010G15KT 10SM CLR A3016 RMK AO2,M
BVU,2022-07-28 20:15,-114.8611,35.9475,671.00,M,M,M,M,M,0.00,M,M,M,M,M,M,M,M,M,M,M,M,M,M,M,M,M,M,M,M,KBVU 282015Z AUTO RMK AO2 PNO PWINO TSNO,M
CXP,2022-07-28 20:15,-119.7326,39.1923,1431.00,95.00,33.80,11.67,170.00,5.00,0.00,30.11,M,10.00,M,CLR,M,M,M,M,M,M,M,M,M,M,M,M,M,M,89.97,KCXP 282015Z AUTO 17005KT 10SM CLR 35/01 A3011 RMK AO2,M
MEV,2022-07-28 20:15,-119.7500,38.9963,1441.42,98.60,30.20,9.04,10.00,11.00,0.00,30.09,M,10.00,20.00,CLR,M,M,M,M,M,M,M,M,M,M,M,M,M,M,92.46,KMEV 282015Z AUTO 01011G20KT 10SM CLR 37/M01 A3009 RMK AO2,M
BAM,2022-07-28 20:35,-116.8743,40.5990,1382.36,96.80,41.00,14.66,310.00,15.00,0.00,30.06,M,10.00,21.00,CLR,M,M,M,M,M,M,M,M,M,M,M,M,M,M,92.39,KBAM 282035Z AUTO 31015G21KT 10SM CLR 36/05 A3006 RMK AO1,M
TMT,2022-07-28 20:35,-117.1971,39.4643,1749.34,92.70,34.50,12.88,320.00,13.00,0.00,30.16,M,10.00,17.00,CLR,M,M,M,M,M,M,M,M,M,M,M,M,M,M,88.26,KTMT 282035Z AUTO 32013G17KT 10SM CLR 34/01 A3016 RMK AO2 T03370014,M
BVU,2022-07-28 20:35,-114.8611,35.9475,671.00,M,M,M,M,M,0.00,M,M,M,M,M,M,M,M,M,M,M,M,M,M,M,M,M,M,M,M,KBVU 282035Z AUTO RMK AO2 PNO PWINO TSNO,M
CXP,2022-07-28 20:35,-119.7326,39.1923,1431.00,95.00,32.00,10.85,140.00,4.00,0.00,30.10,M,10.00,M,CLR,M,M,M,M,M,M,M,M,M,M,M,M,M,M,89.71,KCXP 282035Z AUTO 14004KT 10SM CLR 35/00 A3010 RMK AO2,M
RTS,2022-07-28 20:35,-119.8764,39.6682,1539.00,91.40,28.40,10.48,M,6.00,0.00,30.14,M,10.00,M,CLR,M,M,M,M,M,M,M,M,M,M,M,M,M,M,86.53,KRTS 282035Z AUTO VRB06KT 10SM CLR 33/M02 A3014 RMK AO2,M
MEV,2022-07-28 20:35,-119.7500,38.9963,1441.42,98.60,30.20,9.04,360.00,12.00,0.00,30.08,M,10.00,18.00,CLR,M,M,M,M,M,M,M,M,M,M,M,M,M,M,92.46,KMEV 282035Z AUTO 36012G18KT 10SM CLR 37/M01 A3008 RMK AO2,M
HTH,2022-07-28 20:35,-118.6315,38.5448,1282.89,98.60,28.40,8.40,310.00,11.00,0.00,30.04,M,10.00,17.00,CLR,M,M,M,M,M,M,M,M,M,M,M,M,M,M,92.25,KHTH 282035Z AUTO 31011G17KT 10SM CLR 37/M02 A3004 RMK A01,M
ELY,2022-07-28 20:53,-114.8453,39.2950,1909.00,87.00,32.00,13.90,30.00,6.00,T,30.14,1009.40,10.00,M,FEW,M,M,M,12000.00,M,M,M,M,M,M,M,M,M,M,83.51,KELY 282053Z AUTO 03006KT 10SM FEW120 31/00 A3014 RMK AO2 RAE16 SLP094 P0000 60000 T03060000 58013 $,M
P68,2022-07-28 20:53,-116.0056,39.6014,1993.00,91.00,30.00,11.33,40.00,7.00,0.00,30.12,1010.30,M,19.00,M,M,M,M,M,M,M,M,M,M,M,M,M,M,M,86.38,KP68 282053Z AUTO 04007G19KT 350V070 33/M01 A3012 RMK AO1 SLP103 T03281011 57017,M
LOL,2022-07-28 20:53,-118.5701,40.0684,1192.43,102.00,32.00,8.77,330.00,9.00,0.00,30.00,1010.50,10.00,18.00,CLR,M,M,M,M,M,M,M,M,M,M,M,M,M,M,95.57,KLOL 282053Z AUTO 33009G18KT 10SM CLR 39/00 A3000 RMK AO2 SLP105 T03890000 58017,M
VGT,2022-07-28 20:53,-115.1933,36.2111,667.00,95.00,61.00,32.50,170.00,4.00,0.00,29.88,1010.70,10.00,M,CLR,M,M,M,M,M,M,M,M,M,M,M,M,M,M,95.40,KVGT 282053Z 17004KT 10SM CLR 35/16 A2988 RMK AO2 SLP107 T03500161 58023,M
DRA,2022-07-28 20:53,-116.0278,36.6206,1009.00,98.00,52.00,21.34,M,5.00,0.00,29.94,1008.10,10.00,M,CLR,M,M,M,M,M,M,M,M,M,M,M,M,M,M,95.53,KDRA 282053Z AUTO VRB05KT 10SM CLR 37/11 A2994 RMK AO2 SLP081 T03670111 58022,M
RNO,2022-07-28 20:55,-119.7711,39.4839,1341.00,100.00,33.00,9.74,40.00,10.00,0.00,30.06,1010.60,10.00,20.00,FEW,M,M,M,10000.00,M,M,M,M,M,M,M,M,M,M,94.03,KRNO 282055Z 04010G20KT 020V080 10SM FEW100 38/01 A3006 RMK AO2 SLP106 T03780006 58017,M
RTS,2022-07-28 20:55,-119.8764,39.6682,1539.00,96.80,28.40,8.87,330.00,16.00,0.00,30.13,M,10.00,M,CLR,M,M,M,M,M,M,M,M,M,M,M,M,M,M,90.75,KRTS 282055Z AUTO 33016KT 10SM CLR 36/M02 A3013 RMK AO2,M
CXP,2022-07-28 20:55,-119.7326,39.1923,1431.00,98.60,32.00,9.72,M,3.00,0.00,30.09,M,10.00,M,CLR,M,M,M,M,M,M,M,M,M,M,M,M,M,M,92.69,KCXP 282055Z AUTO VRB03KT 10SM CLR 37/M00 A3009 RMK AO2,M
BVU,2022-07-28 20:55,-114.8611,35.9475,671.00,M,M,M,M,M,0.00,M,M,M,M,M,M,M,M,M,M,M,M,M,M,M,M,M,M,M,M,KBVU 282055Z AUTO RMK AO2 PNO PWINO TSNO,M
TMT,2022-07-28 20:55,-117.1971,39.4643,1749.34,M,M,M,360.00,11.00,0.00,30.16,M,10.00,19.00,CLR,M,M,M,M,M,M,M,M,M,M,M,M,M,M,M,KTMT 282055Z AUTO 36011G19KT 330V030 10SM CLR A3016 RMK AO2,M
HTH,2022-07-28 20:55,-118.6315,38.5448,1282.89,98.60,28.40,8.40,350.00,12.00,0.00,30.03,M,10.00,M,CLR,M,M,M,M,M,M,M,M,M,M,M,M,M,M,92.25,KHTH 282055Z AUTO 35012KT 10SM CLR 37/M02 A3003 RMK A01,M
BAM,2022-07-28 20:55,-116.8743,40.5990,1382.36,96.80,41.00,14.66,310.00,13.00,0.00,30.06,M,10.00,20.00,CLR,M,M,M,M,M,M,M,M,M,M,M,M,M,M,92.39,KBAM 282055Z AUTO 31013G20KT 10SM CLR 36/05 A3006 RMK AO1,M
MEV,2022-07-28 20:55,-119.7500,38.9963,1441.42,98.60,30.20,9.04,350.00,10.00,0.00,30.08,M,10.00,20.00,CLR,M,M,M,M,M,M,M,M,M,M,M,M,M,M,92.46,KMEV 282055Z AUTO 35010G20KT 10SM CLR 37/M01 A3008 RMK AO2,M
EKO,2022-07-28 20:56,-115.7860,40.8242,1367.00,95.00,35.00,12.29,240.00,8.00,0.00,30.06,1010.90,10.00,M,CLR,M,M,M,M,M,M,M,M,M,M,M,M,M,M,90.17,KEKO 282056Z AUTO 24008KT 10SM CLR 35/02 A3006 RMK AO2 SLP109 T03500017 58018,M
WMC,2022-07-28 20:56,-117.8072,40.9019,1315.00,99.00,37.00,11.72,280.00,8.00,0.00,30.04,1011.00,10.00,17.00,CLR,M,M,M,M,M,M,M,M,M,M,M,M,M,M,93.81,KWMC 282056Z AUTO 28008G17KT 10SM CLR 37/03 A3004 RMK AO2 SLP110 T03720028 58015,M
NFL,2022-07-28 20:56,-118.7010,39.4166,1199.00,102.00,30.90,8.39,280.00,7.00,0.00,30.00,1013.10,10.00,14.00,SCT,M,M,M,11000.00,M,M,M,M,M,M,M,M,M,M,95.42,KNFL 282056Z 28007G14KT 10SM SCT110 39/M01 A3000 RMK AO2 SLP131 T03891006 58018,M
TPH,2022-07-28 20:56,-117.0904,38.0505,1654.00,96.00,27.00,8.56,M,5.00,0.00,30.08,1008.90,10.00,M,CLR,M,M,M,M,M,M,M,M,M,M,M,M,M,M,90.03,KTPH 282056Z AUTO VRB05KT 10SM CLR 36/M03 A3008 RMK AO2 SLP089 T03561028 58021,M
LAS,2022-07-28 20:56,-115.1634,36.0719,663.00,95.00,61.00,32.50,0.00,0.00,0.00,29.88,1009.10,10.00,M,FEW,SCT,M,M,15000.00,20000.00,M,M,M,M,M,M,M,M,M,95.40,KLAS 282056Z 00000KT 10SM FEW150 SCT200 35/16 A2988 RMK AO2 SLP091 CB DSNT E-SE T03500161 58023,M
HND,2022-07-28 20:56,-115.1344,35.9729,742.79,95.00,62.00,33.79,0.00,0.00,0.00,29.92,1011.60,10.00,M,CLR,M,M,M,M,M,M,M,M,M,M,M,M,M,M,95.95,KHND 282056Z 00000KT 10SM CLR 35/17 A2992 RMK AO2 SLP116 T03500167 58022,M
INS,2022-07-28 20:58,-115.6733,36.5872,955.00,94.50,51.00,22.88,20.00,4.00,0.00,29.93,1008.20,10.00,M,CLR,M,M,M,M,M,M,M,M,M,M,M,M,M,M,91.56,KINS 282058Z AUTO 02004KT 10SM CLR 35/11 A2993 RMK AO2 SLP082 T03470105 57022,M
LSV,2022-07-28 20:58,-115.0343,36.2362,570.00,98.00,63.00,31.83,0.00,0.00,0.00,29.86,1008.60,10.00,M,CLR,M,M,M,M,M,M,M,M,M,M,M,M,M,M,100.09,KLSV 282058Z AUTO 00000KT 10SM CLR 37/17 A2986 RMK AO2 SLP086 T03670173 57022 $,M
TMT,2022-07-28 21:15,-117.1971,39.4643,1749.34,M,M,M,360.00,8.00,0.00,30.15,M,10.00,14.00,CLR,M,M,M,M,M,M,M,M,M,M,M,M,M,M,M,KTMT 282115Z AUTO 36008G14KT 10SM CLR A3015 RMK AO2,M
RTS,2022-07-28 21:15,-119.8764,39.6682,1539.00,98.60,26.60,7.80,10.00,13.00,0.00,30.13,M,10.00,22.00,CLR,M,M,M,M,M,M,M,M,M,M,M,M,M,M,92.07,KRTS 282115Z AUTO 01013G22KT 320V060 10SM CLR 37/M03 A3013 RMK AO2,M
HTH,2022-07-28 21:15,-118.6315,38.5448,1282.89,100.40,26.60,7.39,320.00,13.00,0.00,30.02,M,10.00,21.00,CLR,M,M,M,M,M,M,M,M,M,M,M,M,M,M,93.57,KHTH 282115Z AUTO 32013G21KT 10SM CLR 38/M03 A3002 RMK A01,M
BVU,2022-07-28 21:15,-114.8611,35.9475,671.00,M,M,M,M,M,0.00,M,M,M,M,M,M,M,M,M,M,M,M,M,M,M,M,M,M,M,M,KBVU 282115Z AUTO RMK AO2 PNO PWINO TSNO,M
MEV,2022-07-28 21:15,-119.7500,38.9963,1441.42,98.60,30.20,9.04,360.00,8.00,0.00,30.07,M,10.00,17.00,CLR,M,M,M,M,M,M,M,M,M,M,M,M,M,M,92.46,KMEV 282115Z AUTO 36008G17KT 10SM CLR 37/M01 A3007 RMK AO2,M
CXP,2022-07-28 21:15,-119.7326,39.1923,1431.00,100.40,28.40,7.95,10.00,14.00,0.00,30.09,M,10.00,19.00,CLR,M,M,M,M,M,M,M,M,M,M,M,M,M,M,93.77,KCXP 282115Z AUTO 01014G19KT 10SM CLR 38/M02 A3009 RMK AO2,M
BAM,2022-07-28 21:15,-116.8743,40.5990,1382.36,96.80,41.00,14.66,350.00,4.00,0.00,30.05,M,10.00,21.00,CLR,M,M,M,M,M,M,M,M,M,M,M,M,M,M,92.39,KBAM 282115Z AUTO 35004G21KT 10SM CLR 36/05 A3005 RMK AO1,M
BVU,2022-07-28 21:35,-114.8611,35.9475,671.00,M,M,M,M,M,0.00,M,M,M,M,M,M,M,M,M,M,M,M,M,M,M,M,M,M,M,M,KBVU 282135Z AUTO RMK AO2 PNO PWINO TSNO,M
RTS,2022-07-28 21:35,-119.8764,39.6682,1539.00,98.60,24.80,7.24,360.00,15.00,0.00,30.13,M,10.00,20.00,CLR,M,M,M,M,M,M,M,M,M,M,M,M,M,M,91.90,KRTS 282135Z AUTO 36015G20KT 10SM CLR 37/M04 A3013 RMK AO2,M
MEV,2022-07-28 21:35,-119.7500,38.9963,1441.42,98.60,30.20,9.04,M,6.00,0.00,30.07,M,10.00,19.00,CLR,M,M,M,M,M,M,M,M,M,M,M,M,M,M,92.46,KMEV 282135Z AUTO VRB06G19KT 10SM CLR 37/M01 A3007 RMK AO2,M
BAM,2022-07-28 21:35,-116.8743,40.5990,1382.36,98.60,41.00,13.87,360.00,10.00,0.00,30.04,M,10.00,15.00,CLR,M,M,M,M,M,M,M,M,M,M,M,M,M,M,94.09,KBAM 282135Z AUTO 36010G15KT 10SM CLR 37/05 A3004 RMK AO1,M
HTH,2022-07-28 21:35,-118.6315,38.5448,1282.89,98.60,26.60,7.80,330.00,13.00,0.00,30.02,M,10.00,20.00,CLR,M,M,M,M,M,M,M,M,M,M,M,M,M,M,92.07,KHTH 282135Z AUTO 33013G20KT 10SM CLR 37/M03 A3002 RMK A01,M
TMT,2022-07-28 21:35,-117.1971,39.4643,1749.34,93.40,30.90,10.91,350.00,14.00,0.00,30.14,M,10.00,17.00,CLR,M,M,M,M,M,M,M,M,M,M,M,M,M,M,88.32,KTMT 282135Z AUTO 35014G17KT 310V020 10SM CLR 34/M01 A3014 RMK AO2 T03411006,M
CXP,2022-07-28 21:35,-119.7326,39.1923,1431.00,96.80,26.60,8.24,360.00,9.00,0.00,30.09,M,10.00,15.00,CLR,M,M,M,M,M,M,M,M,M,M,M,M,M,M,90.57,KCXP 282135Z AUTO 36009G15KT 10SM CLR 36/M03 A3009 RMK AO2,M
LOL,2022-07-28 21:53,-118.5701,40.0684,1192.43,104.00,26.10,6.49,340.00,12.00,0.00,29.98,1009.90,10.00,21.00,CLR,M,M,M,M,M,M,M,M,M,M,M,M,M,M,96.55,KLOL 282153Z AUTO 34012G21KT 10SM CLR 40/M03 A2998 RMK AO2 SLP099 T04001033,M
DRA,2022-07-28 21:53,-116.0278,36.6206,1009.00,99.00,51.00,20.09,M,6.00,0.00,29.91,1007.10,10.00,15.00,CLR,M,M,M,M,M,M,M,M,M,M,M,M,M,M,96.24,KDRA 282153Z AUTO VRB06G15KT 10SM CLR 37/11 A2991 RMK AO2 SLP071 T03720106,M
ELY,2022-07-28 21:53,-114.8453,39.2950,1909.00,90.00,36.00,14.88,170.00,21.00,0.00,30.13,1009.00,10.00,34.00,CLR,M,M,M,M,M,M,M,M,M,M,M,34.00,170.00,2022-07-28 21:52,85.97,KELY 282153Z AUTO 17021G34KT 10SM CLR 32/02 A3013 RMK AO2 PK WND 17034/2152 WSHFT 2133 SLP090 T03220022 $,M
P68,2022-07-28 21:53,-116.0056,39.6014,1993.00,94.00,28.00,9.54,10.00,14.00,0.00,30.11,1010.00,M,22.00,M,M,M,M,M,M,M,M,M,M,M,M,28.00,10.00,2022-07-28 21:43,88.39,KP68 282153Z AUTO 01014G22KT 34/M02 A3011 RMK AO1 PK WND 01028/2143 SLP100 T03441022,M
VGT,2022-07-28 21:53,-115.1933,36.2111,667.00,98.00,59.00,27.52,M,M,0.00,29.85,1009.60,10.00,M,CLR,M,M,M,M,M,M,M,M,M,M,M,M,M,M,97.96,KVGT 282153Z 10SM CLR 37/15 A2985 RMK AO2 SLP096 T03670150,M
RNO,2022-07-28 21:55,-119.7711,39.4839,1341.00,101.00,36.00,10.64,40.00,13.00,0.00,30.04,1010.10,10.00,20.00,SCT,M,M,M,10000.00,M,M,M,M,M,M,M,M,M,M,95.25,KRNO 282155Z 04013G20KT 10SM SCT100 38/02 A3004 RMK AO2 SLP101 T03830022,M
BVU,2022-07-28 21:55,-114.8611,35.9475,671.00,M,M,M,M,M,0.00,M,M,M,M,M,M,M,M,M,M,M,M,M,M,M,M,M,M,M,M,KBVU 282155Z AUTO RMK AO2 PNO PWINO TSNO,M
CXP,2022-07-28 21:55,-119.7326,39.1923,1431.00,100.40,26.60,7.39,310.00,9.00,0.00,30.08,M,9.00,18.00,CLR,M,M,M,M,M,M,M,M,M,M,M,M,M,M,93.57,KCXP 282155Z AUTO 31009G18KT 9SM CLR 38/M03 A3008 RMK AO2,M
RTS,2022-07-28 21:55,-119.8764,39.6682,1539.00,96.80,24.80,7.65,10.00,14.00,0.00,30.12,M,10.00,21.00,CLR,M,M,M,M,M,M,M,M,M,M,M,M,M,M,90.40,KRTS 282155Z AUTO 01014G21KT 10SM CLR 36/M04 A3012 RMK AO2,M
MEV,2022-07-28 21:55,-119.7500,38.9963,1441.42,98.60,28.40,8.40,10.00,13.00,0.00,30.06,M,10.00,M,CLR,M,M,M,M,M,M,M,M,M,M,M,M,M,M,92.25,KMEV 282155Z AUTO 01013KT 10SM CLR 37/M02 A3006 RMK AO2,M
HTH,2022-07-28 21:55,-118.6315,38.5448,1282.89,100.40,26.60,7.39,320.00,13.00,0.00,30.01,M,10.00,M,CLR,M,M,M,M,M,M,M,M,M,M,M,M,M,M,93.57,KHTH 282155Z AUTO 32013KT 10SM CLR 38/M03 A3001 RMK A01,M
BAM,2022-07-28 21:55,-116.8743,40.5990,1382.36,98.60,41.00,13.87,340.00,11.00,0.00,30.04,M,10.00,17.00,CLR,M,M,M,M,M,M,M,M,M,M,M,M,M,M,94.09,KBAM 282155Z AUTO 34011G17KT 10SM CLR 37/05 A3004 RMK AO1,M
TMT,2022-07-28 21:55,-117.1971,39.4643,1749.34,M,M,M,330.00,16.00,0.00,30.14,M,10.00,25.00,CLR,M,M,M,M,M,M,M,M,M,M,M,M,M,M,M,KTMT 282155Z AUTO 33016G25KT 10SM CLR A3014 RMK AO2,M
LAS,2022-07-28 21:56,-115.1634,36.0719,663.00,96.00,61.00,31.41,M,3.00,0.00,29.86,1008.30,10.00,M,FEW,SCT,M,M,15000.00,20000.00,M,M,M,M,M,M,M,M,M,96.64,KLAS 282156Z VRB03KT 10SM FEW150 SCT200 36/16 A2986 RMK AO2 SLP083 CB DSNT E-SE T03560161,M
NFL,2022-07-28 21:56,-118.7010,39.4166,1199.00,103.00,28.90,7.53,350.00,7.00,0.00,29.98,1012.30,10.00,M,FEW,M,M,M,11000.00,M,M,M,M,M,M,M,M,M,M,95.93,KNFL 282156Z 35007KT 300V020 10SM FEW110 39/M02 A2998 RMK AO2 SLP123 T03941017,M
WMC,2022-07-28 21:56,-117.8072,40.9019,1315.00,100.00,36.00,10.93,10.00,7.00,0.00,30.02,1010.40,10.00,23.00,CLR,M,M,M,M,M,M,M,M,M,M,M,M,M,M,94.48,KWMC 282156Z AUTO 01007G23KT 10SM CLR 38/02 A3002 RMK AO2 SLP104 T03780022,M
EKO,2022-07-28 21:56,-115.7860,40.8242,1367.00,97.00,35.00,11.56,310.00,11.00,0.00,30.03,1010.10,10.00,19.00,CLR,M,M,M,M,M,M,M,M,M,M,M,M,M,M,91.81,KEKO 282156Z AUTO 31011G19KT 10SM CLR 36/02 A3003 RMK AO2 SLP101 T03610017,M
HND,2022-07-28 21:56,-115.1344,35.9729,742.79,97.00,64.00,33.97,90.00,7.00,0.00,29.89,1010.70,10.00,M,CLR,M,M,M,M,M,M,M,M,M,M,M,M,M,M,99.35,KHND 282156Z 09007KT 050V120 10SM CLR 36/18 A2989 RMK AO2 SLP107 T03610178,M
TPH,2022-07-28 21:56,-117.0904,38.0505,1654.00,95.00,28.00,9.22,30.00,13.00,0.00,30.07,1008.80,10.00,M,CLR,M,M,M,M,M,M,M,M,M,M,M,M,M,M,89.22,KTPH 282156Z AUTO 03013KT 10SM CLR 35/M02 A3007 RMK AO2 SLP088 T03501022,M
INS,2022-07-28 21:58,-115.6733,36.5872,955.00,96.80,51.60,21.88,70.00,4.00,0.00,29.90,1007.10,10.00,M,CLR,M,M,M,M,M,M,M,M,M,M,M,M,M,M,94.07,KINS 282158Z AUTO 07004KT 10SM CLR 36/11 A2990 RMK AO2 SLP071 T03600109,M
LSV,2022-07-28 21:58,-115.0343,36.2362,570.00,100.20,63.00,29.86,190.00,3.00,0.00,29.83,1007.60,10.00,M,FEW,M,M,M,10000.00,M,M,M,M,M,M,M,M,M,M,102.57,KLSV 282158Z COR 19003KT 10SM FEW100 38/17 A2983 RMK AO2 SLP076 T03790173 $ COR 2208,M
LSV,2022-07-28 22:08,-115.0343,36.2362,570.00,100.40,60.80,27.37,M,5.00,0.00,29.82,1007.20,10.00,M,FEW,M,M,M,10000.00,M,M,M,M,M,M,M,M,M,M,101.47,KLSV 282208Z VRB05KT 10SM FEW100 38/16 A2982 RMK SLP072 $,M
RTS,2022-07-28 22:15,-119.8764,39.6682,1539.00,96.80,24.80,7.65,330.00,12.00,0.00,30.12,M,10.00,19.00,CLR,M,M,M,M,M,M,M,M,M,M,M,M,M,M,90.40,KRTS 282215Z AUTO 33012G19KT 10SM CLR 36/M04 A3012 RMK AO2,M
MEV,2022-07-28 22:15,-119.7500,38.9963,1441.42,100.40,28.40,7.95,340.00,14.00,0.00,30.06,M,10.00,20.00,CLR,M,M,M,M,M,M,M,M,M,M,M,M,M,M,93.77,KMEV 282215Z AUTO 34014G20KT 10SM CLR 38/M02 A3006 RMK AO2,M
HTH,2022-07-28 22:15,-118.6315,38.5448,1282.89,100.40,26.60,7.39,320.00,14.00,0.00,30.00,M,10.00,20.00,CLR,M,M,M,M,M,M,M,M,M,M,M,M,M,M,93.57,KHTH 282215Z AUTO 32014G20KT 10SM CLR 38/M03 A3000 RMK A01,M
BAM,2022-07-28 22:15,-116.8743,40.5990,1382.36,98.60,41.00,13.87,300.00,10.00,0.00,30.03,M,10.00,16.00,CLR,M,M,M,M,M,M,M,M,M,M,M,M,M,M,94.09,KBAM 282215Z AUTO 30010G16KT 10SM CLR 37/05 A3003 RMK AO1,M
BVU,2022-07-28 22:15,-114.8611,35.9475,671.00,M,M,M,M,M,0.00,M,M,M,M,M,M,M,M,M,M,M,M,M,M,M,M,M,M,M,M,KBVU 282215Z AUTO RMK AO2 PNO PWINO TSNO,M
CXP,2022-07-28 22:15,-119.7326,39.1923,1431.00,100.40,26.60,7.39,290.00,12.00,0.00,30.07,M,10.00,22.00,CLR,M,M,M,M,M,M,M,M,M,M,M,M,M,M,93.57,KCXP 282215Z AUTO 29012G22KT 250V320 10SM CLR 38/M03 A3007 RMK AO2,M
TMT,2022-07-28 22:15,-117.1971,39.4643,1749.34,M,M,M,310.00,10.00,0.00,30.13,M,10.00,18.00,CLR,M,M,M,M,M,M,M,M,M,M,M,M,M,M,M,KTMT 282215Z AUTO 31010G18KT 280V340 10SM CLR A3013 RMK AO2,M
TPH,2022-07-28 22:24,-117.0904,38.0505,1654.00,95.00,28.00,9.22,20.00,10.00,0.00,30.06,M,10.00,22.00,CLR,M,M,M,M,M,M,M,M,M,M,M,M,M,M,89.22,KTPH 282224Z AUTO 02010G22KT 10SM CLR 35/M02 A3006 RMK AO2 WSHFT 2204 T03501022,M
HTH,2022-07-28 22:35,-118.6315,38.5448,1282.89,100.40,24.80,6.85,330.00,11.00,0.00,29.99,M,10.00,18.00,CLR,M,M,M,M,M,M,M,M,M,M,M,M,M,M,93.40,KHTH 282235Z AUTO 33011G18KT 10SM CLR 38/M04 A2999 RMK A01,M
BVU,2022-07-28 22:35,-114.8611,35.9475,671.00,M,M,M,M,M,0.00,M,M,M,M,M,M,M,M,M,M,M,M,M,M,M,M,M,M,M,M,KBVU 282235Z AUTO RMK AO2 PNO PWINO TSNO,M
CXP,2022-07-28 22:35,-119.7326,39.1923,1431.00,100.40,26.60,7.39,320.00,12.00,0.00,30.07,M,10.00,19.00,CLR,M,M,M,M,M,M,M,M,M,M,M,M,M,M,93.57,KCXP 282235Z AUTO 32012G19KT 10SM CLR 38/M03 A3007 RMK AO2,M
RTS,2022-07-28 22:35,-119.8764,39.6682,1539.00,96.80,26.60,8.24,20.00,13.00,0.00,30.11,M,10.00,20.00,CLR,M,M,M,M,M,M,M,M,M,M,M,M,M,M,90.57,KRTS 282235Z AUTO 02013G20KT 340V040 10SM CLR 36/M03 A3011 RMK AO2,M
TMT,2022-07-28 22:35,-117.1971,39.4643,1749.34,M,M,M,300.00,9.00,0.00,30.12,M,10.00,M,CLR,M,M,M,M,M,M,M,M,M,M,M,M,M,M,M,KTMT 282235Z AUTO 30009KT 10SM CLR A3012 RMK AO2,M
MEV,2022-07-28 22:35,-119.7500,38.9963,1441.42,102.20,28.40,7.53,320.00,18.00,0.00,30.05,M,10.00,23.00,CLR,M,M,M,M,M,M,M,M,M,M,M,M,M,M,95.28,KMEV 282235Z AUTO 32018G23KT 10SM CLR 39/M02 A3005 RMK AO2,M
BAM,2022-07-28 22:35,-116.8743,40.5990,1382.36,98.60,41.00,13.87,340.00,9.00,0.00,30.02,M,10.00,18.00,SCT,M,M,M,12000.00,M,M,M,M,M,M,M,M,M,M,94.09,KBAM 282235Z AUTO 34009G18KT 10SM SCT120 37/05 A3002 RMK AO1,M
CXP,2022-07-28 22:50,-119.7326,39.1923,1431.00,100.40,26.60,7.39,320.00,13.00,0.00,30.06,M,10.00,M,CLR,M,M,M,M,M,M,M,M,M,M,M,M,M,M,93.57,KCXP 282250Z AUTO 32013KT 10SM CLR 38/M03 A3006 RMK AO2,M
ELY,2022-07-28 22:53,-114.8453,39.2950,1909.00,88.00,39.00,17.83,160.00,13.00,0.00,30.12,1009.20,10.00,M,CLR,M,M,M,M,M,M,M,M,M,M,M,26.00,170.00,2022-07-28 21:57,84.38,KELY 282253Z AUTO 16013KT 10SM CLR 31/04 A3012 RMK AO2 PK WND 17026/2157 SLP092 T03110039 $,M
VGT,2022-07-28 22:53,-115.1933,36.2111,667.00,100.00,58.00,24.97,40.00,4.00,0.00,29.82,1008.40,10.00,M,CLR,M,M,M,M,M,M,M,M,M,M,M,M,M,M,99.61,KVGT 282253Z 04004KT 10SM CLR 38/14 A2982 RMK AO2 SLP084 T03780144,M
P68,2022-07-28 22:53,-116.0056,39.6014,1993.00,94.00,28.90,9.90,10.00,12.00,0.00,30.10,1009.40,M,22.00,M,M,M,M,M,M,M,M,M,M,M,M,M,M,M,88.48,KP68 282253Z AUTO 01012G22KT 34/M02 A3010 RMK AO1 SLP094 T03441017,M
DRA,2022-07-28 22:53,-116.0278,36.6206,1009.00,100.00,50.00,18.71,220.00,7.00,0.00,29.88,1006.30,10.00,M,CLR,M,M,M,M,M,M,M,M,M,M,M,M,M,M,97.00,KDRA 282253Z AUTO 22007KT 170V260 10SM CLR 38/10 A2988 RMK AO2 SLP063 T03780100,M
LOL,2022-07-28 22:53,-118.5701,40.0684,1192.43,103.00,25.00,6.41,330.00,15.00,0.00,29.96,1008.80,10.00,24.00,CLR,M,M,M,M,M,M,M,M,M,M,M,M,M,M,95.51,KLOL 282253Z AUTO 33015G24KT 10SM CLR 39/M04 A2996 RMK AO2 SLP088 T03941039,M
MEV,2022-07-28 22:55,-119.7500,38.9963,1441.42,100.40,26.60,7.39,310.00,7.00,0.00,30.04,M,10.00,18.00,CLR,M,M,M,M,M,M,M,M,M,M,M,M,M,M,93.57,KMEV 282255Z AUTO 31007G18KT 280V340 10SM CLR 38/M03 A3004 RMK AO2,M
TMT,2022-07-28 22:55,-117.1971,39.4643,1749.34,M,M,M,360.00,8.00,0.00,30.12,M,10.00,M,CLR,M,M,M,M,M,M,M,M,M,M,M,M,M,M,M,KTMT 282255Z AUTO 36008KT 10SM CLR A3012 RMK AO2,M
HTH,2022-07-28 22:55,-118.6315,38.5448,1282.89,102.20,24.80,6.49,330.00,10.00,0.00,29.99,M,10.00,23.00,CLR,M,M,M,M,M,M,M,M,M,M,M,M,M,M,94.91,KHTH 282255Z AUTO 33010G23KT 310V010 10SM CLR 39/M04 A2999 RMK A01,M
BAM,2022-07-28 22:55,-116.8743,40.5990,1382.36,98.60,39.20,12.94,350.00,14.00,0.00,30.01,M,10.00,20.00,SCT,M,M,M,12000.00,M,M,M,M,M,M,M,M,M,M,93.89,KBAM 282255Z AUTO 35014G20KT 10SM SCT120 37/04 A3001 RMK AO1,M
RTS,2022-07-28 22:55,-119.8764,39.6682,1539.00,96.80,21.20,6.57,10.00,7.00,0.00,30.10,M,10.00,21.00,CLR,M,M,M,M,M,M,M,M,M,M,M,M,M,M,90.11,KRTS 282255Z AUTO 01007G21KT 330V030 10SM CLR 36/M06 A3010 RMK AO2,M
RNO,2022-07-28 22:55,-119.7711,39.4839,1341.00,102.00,34.00,9.51,320.00,6.00,0.00,30.02,1009.20,10.00,M,FEW,FEW,M,M,13000.00,18000.00,M,M,M,M,M,M,M,M,M,95.87,KRNO 282255Z 32006KT 10SM FEW130 FEW180 39/01 A3002 RMK AO2 SLP092 T03890011,M
BVU,2022-07-28 22:55,-114.8611,35.9475,671.00,M,M,M,M,M,0.00,M,M,M,M,M,M,M,M,M,M,M,M,M,M,M,M,M,M,M,M,KBVU 282255Z AUTO RMK AO2 PNO PWINO TSNO,M
HND,2022-07-28 22:56,-115.1344,35.9729,742.79,98.00,63.00,31.71,350.00,5.00,0.00,29.86,1009.80,10.00,M,CLR,M,M,M,M,M,M,M,M,M,M,M,M,M,M,100.03,KHND 282256Z 35005KT 10SM CLR 37/17 A2986 RMK AO2 SLP098 T03670172,M
TPH,2022-07-28 22:56,-117.0904,38.0505,1654.00,96.00,30.00,9.68,300.00,19.00,0.00,30.06,1008.50,10.00,29.00,CLR,M,M,M,M,M,M,M,M,M,M,M,31.00,320.00,2022-07-28 22:42,90.35,KTPH 282256Z AUTO 30019G29KT 10SM CLR 36/M01 A3006 RMK AO2 PK WND 32031/2242 WSHFT 2204 SLP085 T03561011,M
NFL,2022-07-28 22:56,-118.7010,39.4166,1199.00,103.00,28.00,7.26,360.00,9.00,0.00,29.95,1011.60,10.00,23.00,SCT,M,M,M,10000.00,M,M,M,M,M,M,M,M,M,M,95.83,KNFL 282256Z 36009G23KT 10SM SCT100 39/M02 A2995 RMK AO2 SLP116 T03941022,M
EKO,2022-07-28 22:56,-115.7860,40.8242,1367.00,97.00,36.00,11.98,320.00,7.00,0.00,30.02,1009.50,10.00,19.00,CLR,M,M,M,M,M,M,M,M,M,M,M,M,M,M,91.96,KEKO 282256Z AUTO 32007G19KT 280V350 10SM CLR 36/02 A3002 RMK AO2 SLP095 T03610022,M
WMC,2022-07-28 22:56,-117.8072,40.9019,1315.00,100.00,36.00,10.93,M,5.00,0.00,30.00,1009.80,10.00,M,CLR,M,M,M,M,M,M,M,M,M,M,M,M,M,M,94.48,KWMC 282256Z AUTO VRB05KT 10SM CLR 38/02 A3000 RMK AO2 SLP098 T03780022,M
LAS,2022-07-28 22:56,-115.1634,36.0719,663.00,99.00,61.00,28.75,90.00,7.00,0.00,29.83,1007.20,10.00,M,FEW,FEW,SCT,M,12000.00,15000.00,20000.00,M,M,M,M,M,M,M,M,99.96,KLAS 282256Z 09007KT 060V140 10SM FEW120 FEW150 SCT200 37/16 A2983 RMK AO2 SLP072 CB DSNT NW-NE AND E-SE T03720161,M
INS,2022-07-28 22:58,-115.6733,36.5872,955.00,98.00,51.30,20.92,0.00,0.00,0.00,29.87,1006.00,10.00,M,CLR,M,M,M,M,M,M,M,M,M,M,M,M,M,M,95.14,KINS 282258Z AUTO 00000KT 10SM CLR 37/11 A2987 RMK AO2 SLP060 T03660107,M
LSV,2022-07-28 22:58,-115.0343,36.2362,570.00,101.80,60.40,25.87,60.00,5.00,0.00,29.80,1006.40,10.00,M,CLR,M,M,M,M,M,M,M,M,M,M,M,M,M,M,102.88,KLSV 282258Z AUTO 06005KT 10SM CLR 39/16 A2980 RMK AO2 SLP064 T03880158 $,M
BVU,2022-07-28 23:15,-114.8611,35.9475,671.00,M,M,M,M,M,0.00,M,M,M,M,M,M,M,M,M,M,M,M,M,M,M,M,M,M,M,M,KBVU 282315Z AUTO RMK AO2 PNO PWINO TSNO,M
TMT,2022-07-28 23:15,-117.1971,39.4643,1749.34,M,M,M,340.00,11.00,0.00,30.11,M,10.00,18.00,CLR,M,M,M,M,M,M,M,M,M,M,M,M,M,M,M,KTMT 282315Z AUTO 34011G18KT 10SM CLR A3011 RMK AO2,M
HTH,2022-07-28 23:15,-118.6315,38.5448,1282.89,102.20,24.80,6.49,350.00,13.00,0.00,29.98,M,10.00,19.00,CLR,M,M,M,M,M,M,M,M,M,M,M,M,M,M,94.91,KHTH 282315Z AUTO 35013G19KT 10SM CLR 39/M04 A2998 RMK A01,M
BAM,2022-07-28 23:15,-116.8743,40.5990,1382.36,98.60,39.20,12.94,300.00,12.00,0.00,30.00,M,10.00,16.00,SCT,M,M,M,12000.00,M,M,M,M,M,M,M,M,M,M,93.89,KBAM 282315Z AUTO 30012G16KT 10SM SCT120 37/04 A3000 RMK AO1,M
MEV,2022-07-28 23:15,-119.7500,38.9963,1441.42,100.40,24.80,6.85,320.00,8.00,0.00,30.04,M,10.00,16.00,CLR,M,M,M,M,M,M,M,M,M,M,M,M,M,M,93.40,KMEV 282315Z AUTO 32008G16KT 10SM CLR 38/M04 A3004 RMK AO2,M
RTS,2022-07-28 23:15,-119.8764,39.6682,1539.00,96.80,23.00,7.09,340.00,9.00,0.00,30.10,M,10.00,20.00,CLR,M,M,M,M,M,M,M,M,M,M,M,M,M,M,90.25,KRTS 282315Z AUTO 34009G20KT 310V010 10SM CLR 36/M05 A3010 RMK AO2,M
CXP,2022-07-28 23:15,-119.7326,39.1923,1431.00,100.40,28.40,7.95,330.00,11.00,0.00,30.05,M,10.00,21.00,CLR,M,M,M,M,M,M,M,M,M,M,M,M,M,M,93.77,KCXP 282315Z AUTO 33011G21KT 10SM CLR 38/M02 A3005 RMK AO2,M
RTS,2022-07-28 23:35,-119.8764,39.6682,1539.00,96.80,23.00,7.09,350.00,9.00,0.00,30.09,M,10.00,M,CLR,M,M,M,M,M,M,M,M,M,M,M,M,M,M,90.25,KRTS 282335Z AUTO 35009KT 10SM CLR 36/M05 A3009 RMK AO2,M
MEV,2022-07-28 23:35,-119.7500,38.9963,1441.42,100.40,24.80,6.85,340.00,10.00,0.00,30.04,M,10.00,16.00,CLR,M,M,M,M,M,M,M,M,M,M,M,M,M,M,93.40,KMEV 282335Z AUTO 34010G16KT 300V020 10SM CLR 38/M04 A3004 RMK AO2,M
BAM,2022-07-28 23:35,-116.8743,40.5990,1382.36,100.40,39.20,12.25,350.00,7.00,0.00,30.00,M,10.00,16.00,CLR,M,M,M,M,M,M,M,M,M,M,M,M,M,M,95.43,KBAM 282335Z AUTO 35007G16KT 10SM CLR 38/04 A3000 RMK AO1,M
HTH,2022-07-28 23:35,-118.6315,38.5448,1282.89,102.20,24.80,6.49,340.00,14.00,0.00,29.98,M,10.00,20.00,CLR,M,M,M,M,M,M,M,M,M,M,M,M,M,M,94.91,KHTH 282335Z AUTO 34014G20KT 10SM CLR 39/M04 A2998 RMK A01,M
TMT,2022-07-28 23:35,-117.1971,39.4643,1749.34,M,M,M,350.00,10.00,0.00,30.11,M,10.00,14.00,CLR,M,M,M,M,M,M,M,M,M,M,M,M,M,M,M,KTMT 282335Z AUTO 35010G14KT 10SM CLR A3011 RMK AO2,M
BVU,2022-07-28 23:35,-114.8611,35.9475,671.00,M,M,M,M,M,0.00,M,M,M,M,M,M,M,M,M,M,M,M,M,M,M,M,M,M,M,M,KBVU 282335Z AUTO RMK AO2 PNO PWINO TSNO,M
CXP,2022-07-28 23:35,-119.7326,39.1923,1431.00,100.40,30.20,8.56,300.00,13.00,0.00,30.05,M,10.00,21.00,CLR,M,M,M,M,M,M,M,M,M,M,M,M,M,M,93.98,KCXP 282335Z AUTO 30013G21KT 10SM CLR 38/M01 A3005 RMK AO2,M
LOL,2022-07-28 23:53,-118.5701,40.0684,1192.43,104.00,19.00,4.82,10.00,8.00,0.00,29.95,1008.50,10.00,M,CLR,M,M,M,M,M,M,M,M,M,M,M,M,M,M,95.93,KLOL 282353Z AUTO 01008KT 10SM CLR 40/M07 A2995 RMK AO2 SLP085 T04001072 10406 20350 56014,M
P68,2022-07-28 23:53,-116.0056,39.6014,1993.00,92.00,32.00,11.95,360.00,10.00,0.00,30.09,1009.60,M,M,M,M,M,M,M,M,M,M,M,M,M,M,M,M,M,87.30,KP68 282353Z AUTO 36010KT 33/00 A3009 RMK AO1 SLP096 T03330000 10350 20300 56009,M
ELY,2022-07-28 23:53,-114.8453,39.2950,1909.00,87.00,37.00,16.97,180.00,13.00,0.00,30.11,1009.20,10.00,M,CLR,M,M,M,M,M,M,M,M,M,M,M,M,M,M,83.59,KELY 282353Z AUTO 18013KT 10SM CLR 31/03 A3011 RMK AO2 SLP092 60000 T03060028 10328 20272 56008 $,M
DRA,2022-07-28 23:53,-116.0278,36.6206,1009.00,101.00,50.00,18.21,180.00,6.00,0.00,29.88,1006.10,10.00,M,CLR,M,M,M,M,M,M,M,M,M,M,M,M,M,M,97.94,KDRA 282353Z AUTO 18006KT 10SM CLR 38/10 A2988 RMK AO2 SLP061 T03830100 10383 20317 56019,M
VGT,2022-07-28 23:53,-115.1933,36.2111,667.00,100.00,58.00,24.97,120.00,5.00,0.00,29.81,1008.10,10.00,M,CLR,M,M,M,M,M,M,M,M,M,M,M,M,M,M,99.61,KVGT 282353Z 12005KT 10SM CLR 38/14 A2981 RMK AO2 SLP081 T03780144 10383 20317 56021,M
BAM,2022-07-28 23:55,-116.8743,40.5990,1382.36,100.40,39.20,12.25,330.00,9.00,0.00,29.99,M,10.00,21.00,CLR,M,M,M,M,M,M,M,M,M,M,M,M,M,M,95.43,KBAM 282355Z AUTO 33009G21KT 10SM CLR 38/04 A2999 RMK AO1,M
TMT,2022-07-28 23:55,-117.1971,39.4643,1749.34,M,M,M,330.00,11.00,0.00,30.11,M,10.00,14.00,CLR,M,M,M,M,M,M,M,M,M,M,M,M,M,M,M,KTMT 282355Z AUTO 33011G14KT 10SM CLR A3011 RMK AO2,M
BVU,2022-07-28 23:55,-114.8611,35.9475,671.00,M,M,M,M,M,0.00,M,M,M,M,M,M,M,M,M,M,M,M,M,M,M,M,M,M,M,M,KBVU 282355Z AUTO RMK AO2 PNO PWINO TSNO,M
CXP,2022-07-28 23:55,-119.7326,39.1923,1431.00,100.40,28.40,7.95,360.00,9.00,0.00,30.05,M,10.00,19.00,CLR,M,M,M,M,M,M,M,M,M,M,M,M,M,M,93.77,KCXP 282355Z AUTO 36009G19KT 10SM CLR 38/M02 A3005 RMK AO2,M
RNO,2022-07-28 23:55,-119.7711,39.4839,1341.00,103.00,30.90,8.17,330.00,15.00,0.00,30.01,1009.00,10.00,23.00,FEW,M,M,M,15000.00,M,M,M,M,M,M,M,M,M,M,96.19,KRNO 282355Z 33015G23KT 10SM FEW150 39/M01 A3001 RMK AO2 SLP090 T03941006 10394 20328 56016,M
RTS,2022-07-28 23:55,-119.8764,39.6682,1539.00,96.80,23.00,7.09,320.00,15.00,0.00,30.08,M,10.00,M,CLR,M,M,M,M,M,M,M,M,M,M,M,M,M,M,90.25,KRTS 282355Z AUTO 32015KT 10SM CLR 36/M05 A3008 RMK AO2,M
HTH,2022-07-28 23:55,-118.6315,38.5448,1282.89,100.40,26.60,7.39,350.00,13.00,0.00,29.98,M,10.00,M,CLR,M,M,M,M,M,M,M,M,M,M,M,M,M,M,93.57,KHTH 282355Z AUTO 35013KT 10SM CLR 38/M03 A2998 RMK A01,M
MEV,2022-07-28 23:55,-119.7500,38.9963,1441.42,98.60,28.40,8.40,330.00,11.00,0.00,30.04,M,10.00,20.00,CLR,M,M,M,M,M,M,M,M,M,M,M,M,M,M,92.25,KMEV 282355Z AUTO 33011G20KT 10SM CLR 37/M02 A3004 RMK AO2,M
NFL,2022-07-28 23:56,-118.7010,39.4166,1199.00,104.00,24.10,5.98,350.00,14.00,0.00,29.94,1011.20,10.00,22.00,SCT,M,M,M,10000.00,M,M,M,M,M,M,M,M,M,M,96.35,KNFL 282356Z 35014G22KT 10SM SCT100 40/M04 A2994 RMK AO2 SLP112 T04001044 10406 20344 56019,M
HND,2022-07-28 23:56,-115.1344,35.9729,742.79,101.00,61.00,27.15,80.00,7.00,0.00,29.86,1009.20,10.00,M,CLR,M,M,M,M,M,M,M,M,M,M,M,M,M,M,102.16,KHND 282356Z 08007KT 10SM CLR 38/16 A2986 RMK AO2 SLP092 T03830161 10383 20306 56020,M
TPH,2022-07-28 23:56,-117.0904,38.0505,1654.00,98.00,27.00,8.05,340.00,9.00,0.00,30.04,1007.50,10.00,M,CLR,M,M,M,M,M,M,M,M,M,M,M,26.00,300.00,2022-07-28 22:57,91.69,KTPH 282356Z AUTO 34009KT 10SM CLR 37/M03 A3004 RMK AO2 PK WND 30026/2257 SLP075 T03671028 10372 20306 58012,M
WMC,2022-07-28 23:56,-117.8072,40.9019,1315.00,101.00,38.00,11.47,M,5.00,0.00,29.99,1009.40,10.00,M,CLR,M,M,M,M,M,M,M,M,M,M,M,M,M,M,95.60,KWMC 282356Z AUTO VRB05KT 10SM CLR 38/03 A2999 RMK AO2 SLP094 T03830033 10389 20344 56017,M
EKO,2022-07-28 23:56,-115.7860,40.8242,1367.00,97.00,35.00,11.56,260.00,5.00,0.00,30.00,1008.90,10.00,19.00,CLR,M,M,M,M,M,M,M,M,M,M,M,M,M,M,91.81,KEKO 282356Z AUTO 26005G19KT 10SM CLR 36/02 A3000 RMK AO2 SLP089 T03610017 10372 20322 56017,M
LAS,2022-07-28 23:56,-115.1634,36.0719,663.00,99.00,60.00,27.85,90.00,5.00,0.00,29.82,1006.80,10.00,M,FEW,FEW,SCT,M,12000.00,15000.00,20000.00,M,M,M,M,M,M,M,M,99.50,KLAS 282356Z 09005KT 10SM FEW120 FEW150 SCT200 37/16 A2982 RMK AO2 SLP068 CB DSNT NW-NE AND E-SE T03720156 10372 20311 56019,M
LSV,2022-07-28 23:58,-115.0343,36.2362,570.00,100.00,58.80,25.79,110.00,6.00,0.00,29.79,1006.20,10.00,M,CLR,M,M,M,M,M,M,M,M,M,M,M,M,M,M,100.02,KLSV 282358Z AUTO 11006KT 10SM CLR 38/15 A2979 RMK AO2 SLP062 T03780149 10388 20341 57021 $,M
INS,2022-07-28 23:58,-115.6733,36.5872,955.00,99.00,52.20,20.92,100.00,10.00,0.00,29.86,1005.80,10.00,M,CLR,M,M,M,M,M,M,M,M,M,M,M,M,M,M,96.53,KINS 282358Z AUTO 10010KT 10SM CLR 37/11 A2986 RMK AO2 SLP058 T03720112 10373 20314 57020,M
