station,valid,lon,lat,elevation,tmpf,dwpf,relh,drct,sknt,p01i,alti,mslp,vsby,gust,skyc1,skyc2,skyc3,skyc4,skyl1,skyl2,skyl3,skyl4,wxcodes,ice_accretion_1hr,ice_accretion_3hr,ice_accretion_6hr,peak_wind_gust,peak_wind_drct,peak_wind_time,feel,metar,snowdepth
10U,2023-09-03 00:00,-116.1876,41.9532,1637.00,66.20,53.60,63.82,120.00,9.00,0.00,30.13,M,10.00,15.00,BKN,BKN,M,M,8500.00,12000.00,M,M,M,M,M,M,M,M,M,66.20,K10U 030000Z AUTO 12009G15KT 10SM BKN085 BKN120 19/12 A3013 RMK AO2,M
05U,2023-09-03 00:10,-116.0051,39.6042,1811.23,69.80,55.40,60.21,M,M,0.00,30.16,M,10.00,M,CLR,M,M,M,M,M,M,M,M,M,M,M,M,M,M,69.80,K05U 030010Z AUTO 10SM CLR 21/13 A3016 RMK A01,M
BVU,2023-09-03 00:15,-114.8611,35.9475,671.00,77.00,66.20,69.33,20.00,11.00,0.00,30.01,M,10.00,17.00,BKN,BKN,BKN,M,5000.00,5500.00,9000.00,M,VCTS,M,M,M,M,M,M,77.00,KBVU 030015Z AUTO 02011G17KT 10SM VCTS BKN050 BKN055 BKN090 25/19 A3001 RMK AO2 LTG DSNT NE AND E AND W,M
CXP,2023-09-03 00:15,-119.7326,39.1923,1431.00,64.40,53.60,67.95,310.00,11.00,0.00,30.06,M,10.00,M,FEW,BKN,M,M,7500.00,9000.00,M,M,M,M,M,M,M,M,M,64.40,KCXP 030015Z AUTO 31011KT 10SM FEW075 BKN090 18/12 A3006 RMK AO2,M
RTS,2023-09-03 00:15,-119.8764,39.6682,1539.00,60.80,51.80,72.20,130.00,4.00,0.00,30.10,M,10.00,M,CLR,M,M,M,M,M,M,M,M,M,M,M,M,M,M,60.80,KRTS 030015Z AUTO 13004KT 10SM CLR 16/11 A3010 RMK AO2,M
MEV,2023-09-03 00:15,-119.7500,38.9963,1441.42,66.20,50.00,55.88,350.00,9.00,0.00,30.04,M,10.00,M,SCT,BKN,BKN,M,6500.00,7000.00,8000.00,M,M,M,M,M,M,M,M,66.20,KMEV 030015Z AUTO 35009KT 10SM SCT065 BKN070 BKN080 19/10 A3004 RMK AO2,M
HTH,2023-09-03 00:15,-118.6315,38.5448,1282.89,73.40,53.60,49.90,0.00,0.00,0.00,29.99,M,10.00,M,M,M,M,M,M,M,M,M,M,M,M,M,M,M,M,73.40,KHTH 030015Z AUTO 00000KT 10SM 23/12 A2999 RMK A01,M
10U,2023-09-03 00:15,-116.1876,41.9532,1637.00,64.40,53.60,67.95,120.00,10.00,0.00,30.12,M,10.00,17.00,SCT,BKN,M,M,9000.00,12000.00,M,M,M,M,M,M,M,M,M,64.40,K10U 030015Z AUTO 12010G17KT 10SM SCT090 BKN120 18/12 A3012 RMK AO2,M
BAM,2023-09-03 00:15,-116.8743,40.5990,1382.36,59.00,57.20,93.74,280.00,14.00,0.00,30.09,M,4.00,17.00,SCT,SCT,OVC,M,1200.00,3900.00,6000.00,M,M,M,M,M,M,M,M,59.00,KBAM 030015Z AUTO 28014G17KT 4SM SCT012 SCT039 OVC060 15/14 A3009 RMK AO1,M
TMT,2023-09-03 00:15,-117.1971,39.4643,1749.34,63.00,53.80,71.89,20.00,8.00,0.00,30.13,M,M,M,SCT,BKN,OVC,M,2900.00,5000.00,7000.00,M,M,M,M,M,M,M,M,63.00,KTMT 030015Z AUTO 02008KT SCT029 BKN050 OVC070 17/12 A3013 RMK AO2 LTG DSNT SE AND SW T01720121 PWINO,M
05U,2023-09-03 00:25,-116.0051,39.6042,1811.23,68.00,55.40,64.04,M,M,0.00,30.16,M,10.00,M,CLR,M,M,M,M,M,M,M,M,M,M,M,M,M,M,68.00,K05U 030025Z AUTO 10SM CLR 20/13 A3016 RMK A01,M
HND,2023-09-03 00:29,-115.1344,35.9729,742.79,73.40,66.20,78.19,260.00,5.00,0.03,30.07,M,10.00,M,FEW,BKN,M,M,7000.00,10000.00,M,M,M,M,M,M,M,M,M,73.40,KHND 030029Z 26005KT 10SM FEW070 BKN100 23/19 A3007 RMK AO2 LTG DSNT E-SW TSE23RAE23 P0003,M
BVU,2023-09-03 00:35,-114.8611,35.9475,671.00,77.00,66.20,69.33,320.00,9.00,0.00,30.02,M,10.00,M,BKN,BKN,BKN,M,5000.00,9000.00,11000.00,M,-DZ,M,M,M,M,M,M,77.00,KBVU 030035Z AUTO 32009KT 10SM -DZ BKN050 BKN090 BKN110 25/19 A3002 RMK AO2 LTG DSNT ALQDS,M
CXP,2023-09-03 00:35,-119.7326,39.1923,1431.00,64.40,53.60,67.95,320.00,11.00,0.00,30.06,M,10.00,M,FEW,BKN,BKN,M,7000.00,8000.00,9000.00,M,M,M,M,M,M,M,M,64.40,KCXP 030035Z AUTO 32011KT 10SM FEW070 BKN080 BKN090 18/12 A3006 RMK AO2,M
RTS,2023-09-03 00:35,-119.8764,39.6682,1539.00,60.80,50.00,67.54,0.00,0.00,0.00,30.10,M,10.00,M,FEW,FEW,SCT,M,5500.00,7000.00,9000.00,M,M,M,M,M,M,M,M,60.80,KRTS 030035Z AUTO 00000KT 10SM FEW055 FEW070 SCT090 16/10 A3010 RMK AO2,M
MEV,2023-09-03 00:35,-119.7500,38.9963,1441.42,64.40,51.80,63.60,330.00,8.00,0.00,30.05,M,9.00,M,FEW,SCT,M,M,5500.00,7000.00,M,M,-RA,M,M,M,M,M,M,64.40,KMEV 030035Z AUTO 33008KT 9SM -RA FEW055 SCT070 18/11 A3005 RMK AO2,M
BAM,2023-09-03 00:35,-116.8743,40.5990,1382.36,59.00,59.00,100.00,230.00,5.00,0.00,30.13,M,1.75,8.00,SCT,BKN,OVC,M,1800.00,4300.00,6000.00,M,M,M,M,M,M,M,M,59.00,KBAM 030035Z AUTO 23005G08KT 1 3/4SM SCT018 BKN043 OVC060 15/15 A3013 RMK AO1 VIS 1V2 1/2,M
HTH,2023-09-03 00:35,-118.6315,38.5448,1282.89,73.40,57.20,56.88,350.00,9.00,0.00,29.99,M,10.00,15.00,SCT,M,M,M,9000.00,M,M,M,M,M,M,M,M,M,M,73.40,KHTH 030035Z AUTO 35009G15KT 10SM SCT090 23/14 A2999 RMK A01,M
10U,2023-09-03 00:35,-116.1876,41.9532,1637.00,64.40,53.60,67.95,120.00,9.00,0.00,30.12,M,10.00,M,SCT,BKN,M,M,9000.00,11000.00,M,M,M,M,M,M,M,M,M,64.40,K10U 030035Z AUTO 12009KT 10SM SCT090 BKN110 18/12 A3012 RMK AO2,M
TMT,2023-09-03 00:35,-117.1971,39.4643,1749.34,61.50,54.50,77.76,50.00,12.00,0.00,30.12,M,M,M,SCT,SCT,OVC,M,3200.00,5000.00,7500.00,M,M,M,M,M,M,M,M,61.50,KTMT 030035Z AUTO 05012KT SCT032 SCT050 OVC075 16/13 A3012 RMK AO2 T01640125 PWINO,M
LSV,2023-09-03 00:38,-115.0343,36.2362,570.00,78.80,68.00,69.52,180.00,7.00,0.00,29.99,1013.70,10.00,M,SCT,M,M,M,5500.00,M,M,M,-DZ,M,M,M,M,M,M,78.80,KLSV 030038Z AUTO 18007KT 10SM -DZ SCT055 26/20 A2999 RMK AO2 DZB38 SLP137 $,M
HND,2023-09-03 00:45,-115.1344,35.9729,742.79,73.40,66.20,78.19,210.00,8.00,0.03,30.07,M,10.00,M,FEW,BKN,BKN,M,7000.00,10000.00,12000.00,M,VCTS,M,M,M,M,M,M,73.40,KHND 030045Z 21008KT 10SM VCTS FEW070 BKN100 BKN120 23/19 A3007 RMK AO2 LTG DSNT SE-SW TSE23B39RAE23 P0003,M
05U,2023-09-03 00:50,-116.0051,39.6042,1811.23,68.00,55.40,64.04,M,M,0.00,30.16,M,10.00,M,CLR,M,M,M,M,M,M,M,M,M,M,M,M,M,M,68.00,K05U 030050Z AUTO 10SM CLR 20/13 A3016 RMK A01,M
P68,2023-09-03 00:53,-116.0056,39.6014,1993.00,66.00,56.00,70.14,140.00,18.00,0.00,30.13,1013.70,M,26.00,M,M,M,M,M,M,M,M,M,M,M,M,29.00,140.00,2023-09-02 23:54,66.00,KP68 030053Z AUTO 14018G26KT 19/13 A3013 RMK AO1 PK WND 14029/2354 SLP137 T01890133 $,M
DRA,2023-09-03 00:53,-116.0278,36.6206,1009.00,81.00,62.00,52.48,140.00,7.00,0.00,30.03,1012.60,10.00,M,FEW,SCT,M,M,5000.00,7000.00,M,M,M,M,M,M,M,M,M,82.04,KDRA 030053Z AUTO 14007KT 120V180 10SM FEW050 SCT070 27/17 A3003 RMK AO2 SLP126 T02720167,M
ELY,2023-09-03 00:53,-114.8453,39.2950,1909.00,60.00,55.00,83.53,190.00,8.00,0.01,30.23,1016.20,10.00,M,OVC,M,M,M,7500.00,M,M,M,-RA,M,M,M,M,M,M,60.00,KELY 030053Z AUTO 19008KT 10SM -RA OVC075 16/13 A3023 RMK AO2 SLP162 P0001 T01560128,M
VGT,2023-09-03 00:53,-115.1933,36.2111,667.00,78.00,68.00,71.38,170.00,7.00,T,30.02,1016.30,10.00,M,CLR,M,M,M,M,M,M,M,M,M,M,M,M,M,M,78.00,KVGT 030053Z 17007KT 10SM CLR 26/20 A3002 RMK AO2 LTG DSNT E AND S RAB04E36 SLP163 P0000 T02560200 $,M
LOL,2023-09-03 00:53,-118.5701,40.0684,1192.43,74.00,50.00,42.82,160.00,7.00,T,29.99,1012.40,10.00,M,FEW,SCT,OVC,M,6000.00,7500.00,10000.00,M,-RA,M,M,M,M,M,M,74.00,KLOL 030053Z AUTO 16007KT 10SM -RA FEW060 SCT075 OVC100 23/10 A2999 RMK AO2 RAB53 SLP124 P0000 T02330100,M
BVU,2023-09-03 00:55,-114.8611,35.9475,671.00,73.40,66.20,78.19,50.00,12.00,0.00,30.02,M,0.50,19.00,OVC,M,M,M,400.00,M,M,M,VCTS RA,M,M,M,M,M,M,73.40,KBVU 030055Z AUTO 05012G19KT 1/2SM VCTS RA OVC004 23/19 A3002 RMK AO2 LTG DSNT ALQDS,M
CXP,2023-09-03 00:55,-119.7326,39.1923,1431.00,62.60,51.80,67.75,310.00,8.00,0.00,30.07,M,10.00,M,BKN,BKN,M,M,8000.00,8500.00,M,M,M,M,M,M,M,M,M,62.60,KCXP 030055Z AUTO 31008KT 10SM BKN080 BKN085 17/11 A3007 RMK AO2,M
RNO,2023-09-03 00:55,-119.7711,39.4839,1341.00,64.00,55.00,72.52,0.00,0.00,0.00,30.06,1014.50,10.00,M,FEW,BKN,BKN,M,1800.00,7500.00,9500.00,M,M,M,M,M,M,M,M,64.00,KRNO 030055Z 00000KT 10SM FEW018 BKN075 BKN095 18/13 A3006 RMK AO2 SLP145 T01780128,M
RTS,2023-09-03 00:55,-119.8764,39.6682,1539.00,60.80,50.00,67.54,0.00,0.00,0.00,30.10,M,10.00,M,BKN,M,M,M,8500.00,M,M,M,M,M,M,M,M,M,M,60.80,KRTS 030055Z AUTO 00000KT 10SM BKN085 16/10 A3010 RMK AO2,M
MEV,2023-09-03 00:55,-119.7500,38.9963,1441.42,64.40,51.80,63.60,310.00,4.00,0.00,30.05,M,10.00,10.00,CLR,M,M,M,M,M,M,M,M,M,M,M,M,M,M,64.40,KMEV 030055Z AUTO 31004G10KT 10SM CLR 18/11 A3005 RMK AO2,M
BAM,2023-09-03 00:55,-116.8743,40.5990,1382.36,59.00,59.00,100.00,160.00,3.00,0.00,30.13,M,2.50,M,SCT,BKN,OVC,M,1300.00,1800.00,4400.00,M,M,M,M,M,M,M,M,59.00,KBAM 030055Z AUTO 16003KT 2 1/2SM SCT013 BKN018 OVC044 15/15 A3013 RMK AO1,M
HTH,2023-09-03 00:55,-118.6315,38.5448,1282.89,71.60,57.20,60.44,340.00,11.00,0.00,29.99,M,10.00,M,BKN,BKN,M,M,8500.00,11000.00,M,M,M,M,M,M,M,M,M,71.60,KHTH 030055Z AUTO 34011KT 10SM BKN085 BKN110 22/14 A2999 RMK A01,M
10U,2023-09-03 00:55,-116.1876,41.9532,1637.00,64.40,53.60,67.95,110.00,8.00,0.00,30.12,M,10.00,M,FEW,BKN,M,M,9000.00,11000.00,M,M,M,M,M,M,M,M,M,64.40,K10U 030055Z AUTO 11008KT 10SM FEW090 BKN110 18/12 A3012 RMK AO2,M
LSV,2023-09-03 00:55,-115.0343,36.2362,570.00,77.00,66.20,69.33,160.00,8.00,T,29.99,1013.80,10.00,M,FEW,FEW,M,M,6000.00,13000.00,M,M,-DZ,M,M,M,M,M,M,77.00,KLSV 030055Z AUTO 16008KT 10SM -DZ FEW060 FEW130 25/19 A2999 RMK AO2 LTG DSNT SE-S DZB38E40RAB40E49DZB49 SLP138 P0000 T02490190 $,M
TMT,2023-09-03 00:55,-117.1971,39.4643,1749.34,61.00,53.60,76.59,40.00,7.00,0.00,30.12,M,M,M,BKN,BKN,BKN,M,7000.00,8500.00,11000.00,M,M,M,M,M,M,M,M,61.00,KTMT 030055Z AUTO 04007KT BKN070 BKN085 BKN110 16/12 A3012 RMK AO2 LTG DSNT SW T01610120 PWINO,M
INS,2023-09-03 00:55,-115.6733,36.5872,955.00,78.00,63.30,60.62,80.00,18.00,0.00,30.03,1013.00,10.00,M,OVC,M,M,M,15000.00,M,M,M,M,M,M,M,M,M,M,78.00,KINS 030055Z AUTO 08018KT 10SM OVC150 26/17 A3003 RMK AO2 SLP130 T02550174 $,M
EKO,2023-09-03 00:56,-115.7860,40.8242,1367.00,73.00,49.00,42.67,170.00,5.00,0.00,30.08,1013.80,10.00,M,SCT,M,M,M,10000.00,M,M,M,M,M,M,M,M,M,M,73.00,KEKO 030056Z AUTO 17005KT 10SM SCT100 23/09 A3008 RMK AO2 SLP138 T02280094,M
WMC,2023-09-03 00:56,-117.8072,40.9019,1315.00,67.00,59.00,75.48,70.00,5.00,T,30.05,1014.50,10.00,M,SCT,M,M,M,11000.00,M,M,M,M,M,M,M,M,M,M,67.00,KWMC 030056Z AUTO 07005KT 10SM SCT110 19/15 A3005 RMK AO2 RAE2359 SLP145 P0000 T01940150,M
NFL,2023-09-03 00:56,-118.7010,39.4166,1199.00,74.00,54.00,49.63,150.00,3.00,0.00,29.99,1012.60,10.00,M,FEW,FEW,FEW,M,3700.00,8000.00,11000.00,M,M,M,M,M,M,M,M,74.00,KNFL 030056Z AUTO 15003KT 10SM FEW037 FEW080 FEW110 23/12 A2999 RMK AO2 SLP126 T02330122,M
HND,2023-09-03 00:56,-115.1344,35.9729,742.79,73.00,69.00,87.29,170.00,7.00,0.03,30.06,1017.70,10.00,M,FEW,SCT,BKN,M,7000.00,10000.00,12000.00,M,VCTS,M,M,M,M,M,M,73.00,KHND 030056Z 17007KT 10SM VCTS FEW070 SCT100 BKN120 23/21 A3006 RMK AO2 LTG DSNT ALQDS TSE23B39RAE23 SLP177 P0003 T02280206,M
TPH,2023-09-03 00:56,-117.0904,38.0505,1654.00,73.00,53.00,49.48,180.00,21.00,0.00,30.10,1012.90,10.00,34.00,CLR,M,M,M,M,M,M,M,M,M,M,M,35.00,180.00,2023-09-03 00:36,73.00,KTPH 030056Z AUTO 18021G34KT 10SM CLR 23/12 A3010 RMK AO2 PK WND 18035/0036 SLP129 T02280117,M
LAS,2023-09-03 00:56,-115.1634,36.0719,663.00,76.00,68.00,76.27,180.00,4.00,T,30.03,1015.00,10.00,M,SCT,BKN,BKN,M,8000.00,10000.00,20000.00,M,-RA,M,M,M,M,M,M,76.00,KLAS 030056Z 18004KT 10SM -RA SCT080 BKN100 BKN200 24/20 A3003 RMK AO2 LTG DSNT E-S RAB49 SLP150 P0000 T02440200 $,M
LSV,2023-09-03 00:58,-115.0343,36.2362,570.00,77.00,68.00,73.78,170.00,7.00,0.00,29.99,1013.80,10.00,M,FEW,M,M,M,13000.00,M,M,M,M,M,M,M,M,M,M,77.00,KLSV 030058Z AUTO 17007KT 10SM FEW130 25/20 A2999 RMK AO2 LTG DSNT SE-S DZE58 SLP138 $,M
05U,2023-09-03 01:10,-116.0051,39.6042,1811.23,66.20,55.40,68.15,M,M,0.00,30.16,M,10.00,M,CLR,M,M,M,M,M,M,M,M,M,M,M,M,M,M,66.20,K05U 030110Z AUTO 10SM CLR 19/13 A3016 RMK A01,M
BVU,2023-09-03 01:15,-114.8611,35.9475,671.00,77.00,66.20,69.33,40.00,5.00,0.00,30.02,M,10.00,M,SCT,SCT,BKN,M,400.00,3500.00,4800.00,M,-RA,M,M,M,M,M,M,77.00,KBVU 030115Z AUTO 04005KT 10SM -RA SCT004 SCT035 BKN048 25/19 A3002 RMK AO2 LTG DSNT SW,M
CXP,2023-09-03 01:15,-119.7326,39.1923,1431.00,62.60,53.60,72.38,M,5.00,0.00,30.06,M,10.00,11.00,OVC,M,M,M,7500.00,M,M,M,M,M,M,M,M,M,M,62.60,KCXP 030115Z AUTO VRB05G11KT 10SM OVC075 17/12 A3006 RMK AO2,M
RTS,2023-09-03 01:15,-119.8764,39.6682,1539.00,60.80,50.00,67.54,0.00,0.00,0.00,30.09,M,10.00,M,BKN,BKN,M,M,8500.00,12000.00,M,M,M,M,M,M,M,M,M,60.80,KRTS 030115Z AUTO 00000KT 10SM BKN085 BKN120 16/10 A3009 RMK AO2,M
MEV,2023-09-03 01:15,-119.7500,38.9963,1441.42,68.00,44.60,42.85,240.00,8.00,0.00,30.04,M,10.00,M,CLR,M,M,M,M,M,M,M,M,M,M,M,M,M,M,68.00,KMEV 030115Z AUTO 24008KT 10SM CLR 20/07 A3004 RMK AO2,M
BAM,2023-09-03 01:15,-116.8743,40.5990,1382.36,59.00,57.20,93.74,0.00,0.00,0.00,30.12,M,3.00,M,SCT,BKN,OVC,M,1500.00,6000.00,7000.00,M,M,M,M,M,M,M,M,59.00,KBAM 030115Z AUTO 00000KT 3SM SCT015 BKN060 OVC070 15/14 A3012 RMK AO1,M
HTH,2023-09-03 01:15,-118.6315,38.5448,1282.89,69.80,57.20,64.26,320.00,10.00,0.00,29.99,M,10.00,M,BKN,BKN,M,M,8000.00,11000.00,M,M,M,M,M,M,M,M,M,69.80,KHTH 030115Z AUTO 32010KT 10SM BKN080 BKN110 21/14 A2999 RMK A01,M
10U,2023-09-03 01:15,-116.1876,41.9532,1637.00,64.40,55.40,72.56,120.00,6.00,0.00,30.12,M,10.00,13.00,FEW,SCT,BKN,M,4600.00,7000.00,8500.00,M,-RA,M,M,M,M,M,M,64.40,K10U 030115Z AUTO 12006G13KT 10SM -RA FEW046 SCT070 BKN085 18/13 A3012 RMK AO2,M
TMT,2023-09-03 01:15,-117.1971,39.4643,1749.34,61.70,53.60,74.72,350.00,6.00,0.00,30.13,M,M,M,BKN,BKN,BKN,M,7000.00,8500.00,12000.00,M,VCTS,M,M,M,M,M,M,61.70,KTMT 030115Z AUTO 35006KT VCTS BKN070 BKN085 BKN120 17/12 A3013 RMK AO2 LTG DSNT SW THRU NW T01650120,M
HND,2023-09-03 01:18,-115.1344,35.9729,742.79,73.40,68.00,83.21,200.00,8.00,0.01,30.07,M,10.00,M,BKN,M,M,M,11000.00,M,M,M,-RA,M,M,M,M,M,M,73.40,KHND 030118Z 20008KT 10SM -RA BKN110 23/20 A3007 RMK AO2 LTG DSNT S TSE12RAB00 P0001,M
05U,2023-09-03 01:25,-116.0051,39.6042,1811.23,66.20,55.40,68.15,M,M,0.00,30.16,M,10.00,M,CLR,M,M,M,M,M,M,M,M,M,M,M,M,M,M,66.20,K05U 030125Z AUTO 10SM CLR 19/13 A3016 RMK A01,M
LSV,2023-09-03 01:32,-115.0343,36.2362,570.00,75.20,69.80,83.32,170.00,5.00,0.00,29.99,1013.80,10.00,M,SCT,M,M,M,13000.00,M,M,M,-RA,M,M,M,M,M,M,75.20,KLSV 030132Z AUTO 17005KT 10SM -RA SCT130 24/21 A2999 RMK AO2 DZE0058RAB32 SLP138 $,M
BVU,2023-09-03 01:35,-114.8611,35.9475,671.00,77.00,68.00,73.78,110.00,4.00,0.00,30.02,M,10.00,M,BKN,BKN,BKN,M,4700.00,6000.00,7500.00,M,M,M,M,M,M,M,M,77.00,KBVU 030135Z AUTO 11004KT 10SM BKN047 BKN060 BKN075 25/20 A3002 RMK AO2 LTG DSNT SE-W,M
CXP,2023-09-03 01:35,-119.7326,39.1923,1431.00,62.60,51.80,67.75,310.00,5.00,0.00,30.06,M,10.00,M,BKN,BKN,M,M,7500.00,8500.00,M,M,M,M,M,M,M,M,M,62.60,KCXP 030135Z AUTO 31005KT 10SM BKN075 BKN085 17/11 A3006 RMK AO2,M
RTS,2023-09-03 01:35,-119.8764,39.6682,1539.00,60.80,50.00,67.54,0.00,0.00,0.00,30.09,M,10.00,M,SCT,BKN,BKN,M,8000.00,9000.00,12000.00,M,M,M,M,M,M,M,M,60.80,KRTS 030135Z AUTO 00000KT 10SM SCT080 BKN090 BKN120 16/10 A3009 RMK AO2,M
MEV,2023-09-03 01:35,-119.7500,38.9963,1441.42,68.00,42.80,40.00,240.00,12.00,0.00,30.03,M,10.00,M,CLR,M,M,M,M,M,M,M,M,M,M,M,M,M,M,68.00,KMEV 030135Z AUTO 24012KT 10SM CLR 20/06 A3003 RMK AO2,M
HTH,2023-09-03 01:35,-118.6315,38.5448,1282.89,69.80,55.40,60.21,310.00,6.00,0.00,30.00,M,10.00,M,SCT,SCT,M,M,8500.00,11000.00,M,M,M,M,M,M,M,M,M,69.80,KHTH 030135Z AUTO 31006KT 10SM SCT085 SCT110 21/13 A3000 RMK A01,M
BAM,2023-09-03 01:35,-116.8743,40.5990,1382.36,59.00,59.00,100.00,140.00,5.00,0.00,30.11,M,10.00,M,SCT,SCT,OVC,M,5500.00,7000.00,10000.00,M,M,M,M,M,M,M,M,59.00,KBAM 030135Z AUTO 14005KT 10SM SCT055 SCT070 OVC100 15/15 A3011 RMK AO1,M
TMT,2023-09-03 01:35,-117.1971,39.4643,1749.34,55.60,52.00,87.66,360.00,10.00,0.28,30.16,M,M,19.00,M,M,M,M,M,M,M,M,TS,M,M,M,M,M,M,55.60,KTMT 030135Z AUTO 36010G19KT TS 13/11 A3016 RMK AO2 LTG DSNT ALQS P0028 T01310111,M
10U,2023-09-03 01:40,-116.1876,41.9532,1637.00,62.60,55.40,77.29,120.00,8.00,0.00,30.12,M,9.00,M,SCT,BKN,OVC,M,6000.00,7000.00,9000.00,M,VCTS RA,M,M,M,M,M,M,62.60,K10U 030140Z AUTO 12008KT 9SM VCTS RA SCT060 BKN070 OVC090 17/13 A3012 RMK AO2 LTG DSNT SW,M
LSV,2023-09-03 01:45,-115.0343,36.2362,570.00,75.20,68.00,78.34,190.00,5.00,0.00,29.99,1013.80,10.00,M,CLR,M,M,M,M,M,M,M,M,M,M,M,M,M,M,75.20,KLSV 030145Z AUTO 19005KT 10SM CLR 24/20 A2999 RMK AO2 DZE0058RAB32E45 SLP138 $,M
05U,2023-09-03 01:50,-116.0051,39.6042,1811.23,64.40,55.40,72.56,M,M,0.00,30.16,M,10.00,M,CLR,M,M,M,M,M,M,M,M,M,M,M,M,M,M,64.40,K05U 030150Z AUTO 10SM CLR 18/13 A3016 RMK A01,M
P68,2023-09-03 01:53,-116.0056,39.6014,1993.00,64.00,55.00,72.52,180.00,14.00,0.00,30.13,1013.70,M,22.00,M,M,M,M,M,M,M,M,M,M,M,M,M,M,M,64.00,KP68 030153Z AUTO 18014G22KT 18/13 A3013 RMK AO1 SLP137 T01780128 $,M
DRA,2023-09-03 01:53,-116.0278,36.6206,1009.00,79.00,62.00,56.03,150.00,8.00,0.00,30.03,1012.80,10.00,M,SCT,M,M,M,8000.00,M,M,M,M,M,M,M,M,M,M,79.00,KDRA 030153Z AUTO 15008KT 10SM SCT080 26/17 A3003 RMK AO2 SLP128 T02610167,M
ELY,2023-09-03 01:53,-114.8453,39.2950,1909.00,60.00,56.00,86.61,210.00,11.00,T,30.23,1015.90,10.00,M,OVC,M,M,M,9000.00,M,M,M,M,M,M,M,M,M,M,60.00,KELY 030153Z AUTO 21011KT 10SM OVC090 16/13 A3023 RMK AO2 RAE01 SLP159 P0000 T01560133,M
VGT,2023-09-03 01:53,-115.1933,36.2111,667.00,78.00,68.00,71.38,130.00,4.00,T,30.02,1016.30,10.00,M,FEW,FEW,M,M,4100.00,5500.00,M,M,M,M,M,M,M,M,M,78.00,KVGT 030153Z 13004KT 10SM FEW041 FEW055 26/20 A3002 RMK AO2 LTG DSNT SE AND S RAB36E51 SLP163 P0000 T02560200 $,M
LOL,2023-09-03 01:53,-118.5701,40.0684,1192.43,72.00,54.00,53.09,140.00,4.00,T,29.99,1012.80,10.00,M,CLR,M,M,M,M,M,M,M,M,M,M,M,M,M,M,72.00,KLOL 030153Z AUTO 14004KT 10SM CLR 22/12 A2999 RMK AO2 RAE11 SLP128 P0000 T02220122,M
BVU,2023-09-03 01:55,-114.8611,35.9475,671.00,73.40,66.20,78.19,160.00,10.00,0.00,30.03,M,10.00,M,SCT,BKN,BKN,M,4700.00,5000.00,6000.00,M,M,M,M,M,M,M,M,73.40,KBVU 030155Z AUTO 16010KT 10SM SCT047 BKN050 BKN060 23/19 A3003 RMK AO2 LTG DSNT SW,M
CXP,2023-09-03 01:55,-119.7326,39.1923,1431.00,62.60,51.80,67.75,340.00,10.00,0.00,30.06,M,10.00,M,BKN,M,M,M,8000.00,M,M,M,M,M,M,M,M,M,M,62.60,KCXP 030155Z AUTO 34010KT 10SM BKN080 17/11 A3006 RMK AO2,M
RNO,2023-09-03 01:55,-119.7711,39.4839,1341.00,63.00,55.00,75.11,160.00,3.00,0.00,30.06,1014.30,10.00,M,SCT,SCT,BKN,M,6000.00,8000.00,9500.00,M,M,M,M,M,M,M,M,63.00,KRNO 030155Z 16003KT 10SM SCT060 SCT080 BKN095 17/13 A3006 RMK AO2 SLP143 T01720128,M
RTS,2023-09-03 01:55,-119.8764,39.6682,1539.00,60.80,50.00,67.54,0.00,0.00,0.00,30.09,M,10.00,M,FEW,BKN,BKN,M,7000.00,8500.00,11000.00,M,M,M,M,M,M,M,M,60.80,KRTS 030155Z AUTO 00000KT 10SM FEW070 BKN085 BKN110 16/10 A3009 RMK AO2,M
MEV,2023-09-03 01:55,-119.7500,38.9963,1441.42,68.00,41.00,37.32,230.00,14.00,0.00,30.03,M,10.00,M,CLR,M,M,M,M,M,M,M,M,M,M,M,M,M,M,68.00,KMEV 030155Z AUTO 23014KT 10SM CLR 20/05 A3003 RMK AO2,M
BAM,2023-09-03 01:55,-116.8743,40.5990,1382.36,59.00,59.00,100.00,160.00,5.00,0.00,30.12,M,10.00,M,OVC,M,M,M,10000.00,M,M,M,M,M,M,M,M,M,M,59.00,KBAM 030155Z AUTO 16005KT 10SM OVC100 15/15 A3012 RMK AO1,M
HTH,2023-09-03 01:55,-118.6315,38.5448,1282.89,69.80,55.40,60.21,300.00,4.00,0.00,30.00,M,10.00,M,SCT,M,M,M,9500.00,M,M,M,M,M,M,M,M,M,M,69.80,KHTH 030155Z AUTO 30004KT 10SM SCT095 21/13 A3000 RMK A01,M
TMT,2023-09-03 01:55,-117.1971,39.4643,1749.34,54.50,53.00,94.66,80.00,5.00,0.29,30.15,M,M,M,M,M,M,M,M,M,M,M,TS,M,M,M,M,M,M,54.50,KTMT 030155Z AUTO 08005KT TS 13/12 A3015 RMK AO2 LTG DSNT N AND NE P0029 T01250117,M
INS,2023-09-03 01:55,-115.6733,36.5872,955.00,76.30,62.00,61.26,80.00,19.00,0.00,30.03,1013.00,10.00,23.00,BKN,M,M,M,15000.00,M,M,M,M,M,M,M,M,M,M,76.30,KINS 030155Z AUTO 08019G23KT 10SM BKN150 25/17 A3003 RMK AO2 SLP130 T02460166 $,M
LSV,2023-09-03 01:55,-115.0343,36.2362,570.00,74.70,68.40,80.76,190.00,3.00,0.01,29.99,1013.80,10.00,M,CLR,M,M,M,M,M,M,M,M,M,M,M,M,M,M,74.70,KLSV 030155Z AUTO 19003KT 10SM CLR 24/20 A2999 RMK AO2 DZE0058RAB32E45 SLP138 P0001 T02370202 $,M
EKO,2023-09-03 01:56,-115.7860,40.8242,1367.00,68.00,53.00,58.67,0.00,0.00,0.00,30.07,1014.10,10.00,M,CLR,M,M,M,M,M,M,M,M,M,M,M,M,M,M,68.00,KEKO 030156Z AUTO 00000KT 10SM CLR 20/12 A3007 RMK AO2 LTG DSNT SW AND W SLP141 T02000117,M
WMC,2023-09-03 01:56,-117.8072,40.9019,1315.00,66.00,58.00,75.39,30.00,9.00,0.00,30.05,1014.40,10.00,M,BKN,M,M,M,11000.00,M,M,M,M,M,M,M,M,M,M,66.00,KWMC 030156Z AUTO 03009KT 320V060 10SM BKN110 19/14 A3005 RMK AO2 SLP144 T01890144,M
NFL,2023-09-03 01:56,-118.7010,39.4166,1199.00,74.00,54.00,49.63,360.00,3.00,0.00,29.98,1012.40,10.00,M,CLR,M,M,M,M,M,M,M,M,M,M,M,M,M,M,74.00,KNFL 030156Z AUTO 36003KT 10SM CLR 23/12 A2998 RMK AO2 SLP124 T02330122,M
HND,2023-09-03 01:56,-115.1344,35.9729,742.79,71.00,67.00,87.19,230.00,7.00,0.02,30.07,1018.00,10.00,M,FEW,SCT,BKN,M,3500.00,6000.00,8500.00,M,-RA,M,M,M,M,M,M,71.00,KHND 030156Z 23007KT 10SM -RA FEW035 SCT060 BKN085 22/19 A3007 RMK AO2 LTG DSNT SE TSE12RAB00 SLP180 P0002 T02170194,M
TPH,2023-09-03 01:56,-117.0904,38.0505,1654.00,70.00,55.00,58.94,170.00,18.00,0.00,30.10,1013.30,10.00,30.00,CLR,M,M,M,M,M,M,M,M,M,M,M,34.00,170.00,2023-09-03 01:05,70.00,KTPH 030156Z AUTO 17018G30KT 10SM CLR 21/13 A3010 RMK AO2 PK WND 17034/0105 SLP133 T02110128,M
LAS,2023-09-03 01:56,-115.1634,36.0719,663.00,75.00,71.00,87.38,180.00,3.00,0.02,30.03,1015.20,10.00,M,SCT,BKN,BKN,M,8000.00,10000.00,20000.00,M,-RA,M,M,M,M,M,M,75.00,KLAS 030156Z 18003KT 10SM -RA SCT080 BKN100 BKN200 24/22 A3003 RMK AO2 LTG DSNT SE SLP152 TCU DSNT N P0002 T02390217 $,M
10U,2023-09-03 02:00,-116.1876,41.9532,1637.00,60.80,55.40,82.37,120.00,11.00,0.00,30.13,M,10.00,16.00,FEW,BKN,OVC,M,6000.00,7000.00,9000.00,M,-RA,M,M,M,M,M,M,60.80,K10U 030200Z AUTO 12011G16KT 10SM -RA FEW060 BKN070 OVC090 16/13 A3013 RMK AO2,M
05U,2023-09-03 02:10,-116.0051,39.6042,1811.23,62.60,55.40,77.29,M,M,0.00,30.16,M,10.00,M,CLR,M,M,M,M,M,M,M,M,M,M,M,M,M,M,62.60,K05U 030210Z AUTO 10SM CLR 17/13 A3016 RMK A01,M
BVU,2023-09-03 02:15,-114.8611,35.9475,671.00,73.40,66.20,78.19,230.00,7.00,0.00,30.03,M,10.00,14.00,FEW,SCT,BKN,M,3800.00,4800.00,6500.00,M,M,M,M,M,M,M,M,73.40,KBVU 030215Z AUTO 23007G14KT 10SM FEW038 SCT048 BKN065 23/19 A3003 RMK AO2,M
CXP,2023-09-03 02:15,-119.7326,39.1923,1431.00,62.60,51.80,67.75,310.00,7.00,0.00,30.06,M,10.00,M,SCT,M,M,M,8000.00,M,M,M,M,M,M,M,M,M,M,62.60,KCXP 030215Z AUTO 31007KT 10SM SCT080 17/11 A3006 RMK AO2,M
RTS,2023-09-03 02:15,-119.8764,39.6682,1539.00,60.80,51.80,72.20,0.00,0.00,0.00,30.09,M,10.00,M,FEW,BKN,OVC,M,7000.00,9000.00,11000.00,M,M,M,M,M,M,M,M,60.80,KRTS 030215Z AUTO 00000KT 10SM FEW070 BKN090 OVC110 16/11 A3009 RMK AO2,M
MEV,2023-09-03 02:15,-119.7500,38.9963,1441.42,66.20,39.20,37.03,220.00,15.00,0.00,30.03,M,10.00,21.00,CLR,M,M,M,M,M,M,M,M,M,M,M,M,M,M,66.20,KMEV 030215Z AUTO 22015G21KT 10SM CLR 19/04 A3003 RMK AO2,M
BAM,2023-09-03 02:15,-116.8743,40.5990,1382.36,59.00,59.00,100.00,120.00,4.00,0.00,30.10,M,10.00,M,SCT,OVC,M,M,7000.00,10000.00,M,M,M,M,M,M,M,M,M,59.00,KBAM 030215Z AUTO 12004KT 10SM SCT070 OVC100 15/15 A3010 RMK AO1,M
HTH,2023-09-03 02:15,-118.6315,38.5448,1282.89,69.80,53.60,56.38,290.00,5.00,0.00,30.01,M,10.00,M,FEW,M,M,M,9500.00,M,M,M,M,M,M,M,M,M,M,69.80,KHTH 030215Z AUTO 29005KT 10SM FEW095 21/12 A3001 RMK A01,M
10U,2023-09-03 02:15,-116.1876,41.9532,1637.00,60.80,55.40,82.37,170.00,4.00,0.00,30.14,M,10.00,13.00,FEW,SCT,OVC,M,4500.00,5000.00,7000.00,M,-RA,M,M,M,M,M,M,60.80,K10U 030215Z AUTO 17004G13KT 10SM -RA FEW045 SCT050 OVC070 16/13 A3014 RMK AO2 LTG DSNT SW,M
TMT,2023-09-03 02:15,-117.1971,39.4643,1749.34,55.60,54.50,96.08,90.00,4.00,0.00,30.15,M,M,M,M,M,M,M,M,M,M,M,M,M,M,M,M,M,M,55.60,KTMT 030215Z AUTO 09004KT 13/13 A3015 RMK AO2 T01310125 PWINO,M
05U,2023-09-03 02:30,-116.0051,39.6042,1811.23,62.60,55.40,77.29,M,M,0.00,30.16,M,10.00,M,CLR,M,M,M,M,M,M,M,M,M,M,M,M,M,M,62.60,K05U 030230Z AUTO 10SM CLR 17/13 A3016 RMK A01,M
BVU,2023-09-03 02:35,-114.8611,35.9475,671.00,71.60,68.00,88.43,0.00,0.00,0.00,30.04,M,10.00,M,FEW,SCT,BKN,M,3900.00,5500.00,8500.00,M,M,M,M,M,M,M,M,71.60,KBVU 030235Z AUTO 00000KT 10SM FEW039 SCT055 BKN085 22/20 A3004 RMK AO2,M
CXP,2023-09-03 02:35,-119.7326,39.1923,1431.00,62.60,50.00,63.38,330.00,7.00,0.00,30.06,M,10.00,M,BKN,M,M,M,8500.00,M,M,M,M,M,M,M,M,M,M,62.60,KCXP 030235Z AUTO 33007KT 10SM BKN085 17/10 A3006 RMK AO2,M
RTS,2023-09-03 02:35,-119.8764,39.6682,1539.00,60.80,51.80,72.20,0.00,0.00,0.00,30.09,M,10.00,M,SCT,OVC,M,M,8500.00,11000.00,M,M,M,M,M,M,M,M,M,60.80,KRTS 030235Z AUTO 00000KT 10SM SCT085 OVC110 16/11 A3009 RMK AO2,M
MEV,2023-09-03 02:35,-119.7500,38.9963,1441.42,62.60,41.00,45.04,150.00,5.00,0.00,30.04,M,10.00,12.00,CLR,M,M,M,M,M,M,M,M,M,M,M,M,M,M,62.60,KMEV 030235Z AUTO 15005G12KT 10SM CLR 17/05 A3004 RMK AO2,M
BAM,2023-09-03 02:35,-116.8743,40.5990,1382.36,59.00,59.00,100.00,0.00,0.00,0.00,30.11,M,10.00,M,SCT,OVC,M,M,7000.00,9000.00,M,M,M,M,M,M,M,M,M,59.00,KBAM 030235Z AUTO 00000KT 10SM SCT070 OVC090 15/15 A3011 RMK AO1,M
HTH,2023-09-03 02:35,-118.6315,38.5448,1282.89,69.80,53.60,56.38,210.00,3.00,0.00,30.01,M,10.00,M,SCT,M,M,M,10000.00,M,M,M,M,M,M,M,M,M,M,69.80,KHTH 030235Z AUTO 21003KT 10SM SCT100 21/12 A3001 RMK A01,M
10U,2023-09-03 02:35,-116.1876,41.9532,1637.00,59.00,55.40,87.83,260.00,10.00,0.00,30.16,M,6.00,17.00,FEW,SCT,BKN,M,700.00,2800.00,4600.00,M,-RA,M,M,M,M,M,M,59.00,K10U 030235Z AUTO 26010G17KT 6SM -RA FEW007 SCT028 BKN046 15/13 A3016 RMK AO2 LTG DSNT S AND SW,M
TMT,2023-09-03 02:35,-117.1971,39.4643,1749.34,56.30,55.80,98.20,70.00,5.00,0.00,30.13,M,M,M,M,M,M,M,M,M,M,M,M,M,M,M,M,M,M,56.30,KTMT 030235Z AUTO 07005KT 14/13 A3013 RMK AO2 LTG DSNT NW T01350132 PWINO,M
LSV,2023-09-03 02:46,-115.0343,36.2362,570.00,75.20,73.40,94.14,200.00,3.00,0.00,30.00,1014.20,10.00,M,BKN,M,M,M,4500.00,M,M,M,M,M,M,M,M,M,M,75.20,KLSV 030246Z AUTO 20003KT 10SM BKN045 24/23 A3000 RMK AO2 SLP142 $,M
05U,2023-09-03 02:50,-116.0051,39.6042,1811.23,62.60,55.40,77.29,M,M,0.00,30.16,M,10.00,M,CLR,M,M,M,M,M,M,M,M,M,M,M,M,M,M,62.60,K05U 030250Z AUTO 10SM CLR 17/13 A3016 RMK A01,M
LSV,2023-09-03 02:52,-115.0343,36.2362,570.00,75.20,73.40,94.14,190.00,3.00,0.00,30.01,1014.50,10.00,M,SCT,BKN,M,M,4500.00,16000.00,M,M,M,M,M,M,M,M,M,75.20,KLSV 030252Z AUTO 19003KT 10SM SCT045 BKN160 24/23 A3001 RMK AO2 SLP145 $,M
P68,2023-09-03 02:53,-116.0056,39.6014,1993.00,63.00,55.00,75.11,180.00,11.00,0.00,30.14,1014.30,M,25.00,M,M,M,M,M,M,M,M,M,M,M,M,26.00,160.00,2023-09-03 02:42,63.00,KP68 030253Z AUTO 18011G25KT 17/13 A3014 RMK AO1 PK WND 16026/0242 SLP143 T01720128 53003 $,M
DRA,2023-09-03 02:53,-116.0278,36.6206,1009.00,76.00,65.00,68.74,140.00,8.00,0.00,30.04,1013.20,10.00,M,CLR,M,M,M,M,M,M,M,M,M,M,M,M,M,M,76.00,KDRA 030253Z AUTO 14008KT 10SM CLR 24/18 A3004 RMK AO2 SLP132 T02440183 53004,M
ELY,2023-09-03 02:53,-114.8453,39.2950,1909.00,59.00,55.00,86.56,190.00,10.00,0.00,30.23,1015.60,10.00,M,BKN,M,M,M,10000.00,M,M,M,M,M,M,M,M,M,M,59.00,KELY 030253Z AUTO 19010KT 10SM BKN100 15/13 A3023 RMK AO2 SLP156 60001 T01500128 55002,M
VGT,2023-09-03 02:53,-115.1933,36.2111,667.00,77.00,68.00,73.78,170.00,5.00,0.00,30.03,1016.70,10.00,M,FEW,M,M,M,4100.00,M,M,M,M,M,M,M,M,M,M,77.00,KVGT 030253Z 17005KT 10SM FEW041 25/20 A3003 RMK AO2 SLP167 60000 T02500200 53004 $,M
LOL,2023-09-03 02:53,-118.5701,40.0684,1192.43,69.00,52.00,54.64,330.00,6.00,0.00,29.99,1013.10,10.00,M,CLR,M,M,M,M,M,M,M,M,M,M,M,M,M,M,69.00,KLOL 030253Z AUTO 33006KT 10SM CLR 21/11 A2999 RMK AO2 SLP131 60000 T02060111 53002,M
BVU,2023-09-03 02:55,-114.8611,35.9475,671.00,73.40,68.00,83.21,10.00,4.00,0.00,30.03,M,10.00,M,FEW,SCT,BKN,M,4900.00,6500.00,9500.00,M,M,M,M,M,M,M,M,73.40,KBVU 030255Z AUTO 01004KT 10SM FEW049 SCT065 BKN095 23/20 A3003 RMK AO2,M
CXP,2023-09-03 02:55,-119.7326,39.1923,1431.00,62.60,51.80,67.75,320.00,7.00,0.00,30.07,M,10.00,M,OVC,M,M,M,9000.00,M,M,M,M,M,M,M,M,M,M,62.60,KCXP 030255Z AUTO 32007KT 10SM OVC090 17/11 A3007 RMK AO2,M
RNO,2023-09-03 02:55,-119.7711,39.4839,1341.00,61.00,55.00,80.61,200.00,4.00,0.00,30.06,1014.60,10.00,M,SCT,SCT,M,M,6000.00,9500.00,M,M,M,M,M,M,M,M,M,61.00,KRNO 030255Z 20004KT 10SM SCT060 SCT095 16/13 A3006 RMK AO2 SLP146 ACSL DSNT S T01610128 55001,M
RTS,2023-09-03 02:55,-119.8764,39.6682,1539.00,59.00,51.80,76.98,0.00,0.00,0.00,30.09,M,10.00,M,FEW,OVC,M,M,8000.00,11000.00,M,M,M,M,M,M,M,M,M,59.00,KRTS 030255Z AUTO 00000KT 10SM FEW080 OVC110 15/11 A3009 RMK AO2,M
MEV,2023-09-03 02:55,-119.7500,38.9963,1441.42,60.80,39.20,44.76,140.00,4.00,0.00,30.04,M,10.00,M,CLR,M,M,M,M,M,M,M,M,M,M,M,M,M,M,60.80,KMEV 030255Z AUTO 14004KT 10SM CLR 16/04 A3004 RMK AO2,M
BAM,2023-09-03 02:55,-116.8743,40.5990,1382.36,60.80,59.00,93.79,0.00,0.00,0.00,30.12,M,10.00,M,OVC,M,M,M,9000.00,M,M,M,M,M,M,M,M,M,M,60.80,KBAM 030255Z AUTO 00000KT 10SM OVC090 16/15 A3012 RMK AO1,M
HTH,2023-09-03 02:55,-118.6315,38.5448,1282.89,69.80,55.40,60.21,0.00,0.00,0.00,30.02,M,10.00,M,BKN,BKN,M,M,8500.00,11000.00,M,M,M,M,M,M,M,M,M,69.80,KHTH 030255Z AUTO 00000KT 10SM BKN085 BKN110 21/13 A3002 RMK A01,M
TMT,2023-09-03 02:55,-117.1971,39.4643,1749.34,57.00,56.30,97.50,360.00,3.00,0.00,30.13,M,M,M,BKN,OVC,M,M,9500.00,12000.00,M,M,M,M,M,M,M,M,M,57.00,KTMT 030255Z AUTO 36003KT BKN095 OVC120 14/14 A3013 RMK AO2 LTG DSNT SW AND W 60029 T01390135 PWINO,M
10U,2023-09-03 02:55,-116.1876,41.9532,1637.00,57.20,55.40,93.69,280.00,6.00,0.00,30.16,M,7.00,12.00,FEW,SCT,BKN,M,400.00,2000.00,4800.00,M,-RA,M,M,M,M,M,M,57.20,K10U 030255Z AUTO 28006G12KT 7SM -RA FEW004 SCT020 BKN048 14/13 A3016 RMK AO2 LTG DSNT S,M
INS,2023-09-03 02:55,-115.6733,36.5872,955.00,73.00,62.20,68.90,90.00,17.00,0.00,30.04,1013.50,10.00,M,CLR,M,M,M,M,M,M,M,M,M,M,M,26.00,100.00,2023-09-03 02:36,73.00,KINS 030255Z AUTO 09017KT 10SM CLR 23/17 A3004 RMK AO2 PK WND 10026/36 SLP135 T02280168 53003 $,M
LSV,2023-09-03 02:55,-115.0343,36.2362,570.00,74.30,74.00,99.00,190.00,3.00,0.00,30.01,1014.50,10.00,M,SCT,BKN,M,M,4500.00,16000.00,M,M,M,M,M,M,M,M,M,74.30,KLSV 030255Z AUTO 19003KT 10SM SCT045 BKN160 24/23 A3001 RMK AO2 SLP145 60001 T02350233 52007 $,M
EKO,2023-09-03 02:56,-115.7860,40.8242,1367.00,65.00,55.00,70.03,270.00,10.00,0.00,30.13,1016.40,10.00,M,SCT,OVC,M,M,4300.00,5000.00,M,M,M,M,M,M,M,M,M,65.00,KEKO 030256Z AUTO 27010KT 10SM SCT043 OVC050 18/13 A3013 RMK AO2 SLP164 T01830128 53016,M
WMC,2023-09-03 02:56,-117.8072,40.9019,1315.00,63.00,58.00,83.72,50.00,8.00,0.00,30.06,1014.80,10.00,M,FEW,M,M,M,11000.00,M,M,M,M,M,M,M,M,M,M,63.00,KWMC 030256Z AUTO 05008KT 10SM FEW110 17/14 A3006 RMK AO2 SLP148 60000 T01720144 53003,M
NFL,2023-09-03 02:56,-118.7010,39.4166,1199.00,69.00,52.00,54.64,300.00,5.00,0.00,30.01,1013.20,10.00,M,CLR,M,M,M,M,M,M,M,M,M,M,M,M,M,M,69.00,KNFL 030256Z AUTO 30005KT 10SM CLR 21/11 A3001 RMK AO2 SLP132 T02060111 53006,M
HND,2023-09-03 02:56,-115.1344,35.9729,742.79,72.00,66.00,81.41,230.00,6.00,T,30.07,1018.10,10.00,M,CLR,M,M,M,M,M,M,M,M,M,M,M,M,M,M,72.00,KHND 030256Z 23006KT 10SM CLR 22/19 A3007 RMK AO2 RAE09 SLP181 P0000 60005 T02220189 53002,M
TPH,2023-09-03 02:56,-117.0904,38.0505,1654.00,67.00,56.00,67.75,170.00,19.00,0.00,30.12,1013.80,10.00,25.00,CLR,M,M,M,M,M,M,M,M,M,M,M,32.00,170.00,2023-09-03 02:07,67.00,KTPH 030256Z AUTO 17019G25KT 10SM CLR 19/13 A3012 RMK AO2 PK WND 17032/0207 SLP138 T01940133 53007,M
LAS,2023-09-03 02:56,-115.1634,36.0719,663.00,74.00,66.00,76.10,190.00,4.00,T,30.04,1015.40,10.00,M,SCT,BKN,M,M,10000.00,20000.00,M,M,M,M,M,M,M,M,M,74.00,KLAS 030256Z 19004KT 10SM SCT100 BKN200 23/19 A3004 RMK AO2 RAE42 SLP154 TCU DSNT N P0000 60002 T02330189 53003 $,M
05U,2023-09-03 03:10,-116.0051,39.6042,1811.23,60.80,53.60,77.14,M,M,0.00,30.18,M,10.00,M,CLR,M,M,M,M,M,M,M,M,M,M,M,M,M,M,60.80,K05U 030310Z AUTO 10SM CLR 16/12 A3018 RMK A01,M
BVU,2023-09-03 03:15,-114.8611,35.9475,671.00,73.40,68.00,83.21,30.00,4.00,0.00,30.04,M,10.00,M,CLR,M,M,M,M,M,M,M,M,M,M,M,M,M,M,73.40,KBVU 030315Z AUTO 03004KT 10SM CLR 23/20 A3004 RMK AO2,M
CXP,2023-09-03 03:15,-119.7326,39.1923,1431.00,60.80,51.80,72.20,290.00,4.00,0.00,30.07,M,10.00,M,BKN,M,M,M,9000.00,M,M,M,M,M,M,M,M,M,M,60.80,KCXP 030315Z AUTO 29004KT 10SM BKN090 16/11 A3007 RMK AO2,M
RTS,2023-09-03 03:15,-119.8764,39.6682,1539.00,59.00,51.80,76.98,0.00,0.00,0.00,30.10,M,10.00,M,FEW,OVC,M,M,8500.00,11000.00,M,M,M,M,M,M,M,M,M,59.00,KRTS 030315Z AUTO 00000KT 10SM FEW085 OVC110 15/11 A3010 RMK AO2,M
MEV,2023-09-03 03:15,-119.7500,38.9963,1441.42,59.00,39.20,47.72,110.00,6.00,0.00,30.05,M,10.00,M,CLR,M,M,M,M,M,M,M,M,M,M,M,M,M,M,59.00,KMEV 030315Z AUTO 11006KT 10SM CLR 15/04 A3005 RMK AO2,M
BAM,2023-09-03 03:15,-116.8743,40.5990,1382.36,60.80,59.00,93.79,0.00,0.00,0.00,30.13,M,7.00,M,OVC,M,M,M,10000.00,M,M,M,M,M,M,M,M,M,M,60.80,KBAM 030315Z AUTO 00000KT 7SM OVC100 16/15 A3013 RMK AO1,M
HTH,2023-09-03 03:15,-118.6315,38.5448,1282.89,68.00,57.20,68.35,70.00,5.00,0.00,30.03,M,10.00,M,FEW,M,M,M,8000.00,M,M,M,M,M,M,M,M,M,M,68.00,KHTH 030315Z AUTO 07005KT 10SM FEW080 20/14 A3003 RMK A01,M
TMT,2023-09-03 03:15,-117.1971,39.4643,1749.34,56.50,55.80,97.50,330.00,4.00,0.00,30.14,M,M,M,M,M,M,M,M,M,M,M,M,M,M,M,M,M,M,56.50,KTMT 030315Z AUTO 33004KT 14/13 A3014 RMK AO2 LTG DSNT NW T01360132 PWINO,M
10U,2023-09-03 03:20,-116.1876,41.9532,1637.00,57.20,55.40,93.69,190.00,6.00,0.00,30.19,M,10.00,M,FEW,SCT,BKN,M,900.00,3100.00,3900.00,M,VCTS RA,M,M,M,M,M,M,57.20,K10U 030320Z AUTO 19006KT 10SM VCTS RA FEW009 SCT031 BKN039 14/13 A3019 RMK AO2 LTG DSNT SW,M
05U,2023-09-03 03:30,-116.0051,39.6042,1811.23,60.80,53.60,77.14,M,M,0.00,30.19,M,10.00,M,FEW,M,M,M,3200.00,M,M,M,M,M,M,M,M,M,M,60.80,K05U 030330Z AUTO 10SM FEW032 16/12 A3019 RMK A01,M
BVU,2023-09-03 03:35,-114.8611,35.9475,671.00,73.40,68.00,83.21,0.00,0.00,0.00,30.04,M,10.00,M,CLR,M,M,M,M,M,M,M,M,M,M,M,M,M,M,73.40,KBVU 030335Z AUTO 00000KT 10SM CLR 23/20 A3004 RMK AO2,M
CXP,2023-09-03 03:35,-119.7326,39.1923,1431.00,60.80,51.80,72.20,M,4.00,0.00,30.08,M,10.00,M,BKN,M,M,M,9000.00,M,M,M,M,M,M,M,M,M,M,60.80,KCXP 030335Z AUTO VRB04KT 10SM BKN090 16/11 A3008 RMK AO2,M
RTS,2023-09-03 03:35,-119.8764,39.6682,1539.00,59.00,50.00,72.01,0.00,0.00,0.00,30.11,M,10.00,M,FEW,OVC,M,M,4600.00,10000.00,M,M,M,M,M,M,M,M,M,59.00,KRTS 030335Z AUTO 00000KT 10SM FEW046 OVC100 15/10 A3011 RMK AO2,M
MEV,2023-09-03 03:35,-119.7500,38.9963,1441.42,60.80,39.20,44.76,120.00,7.00,0.00,30.06,M,10.00,M,CLR,M,M,M,M,M,M,M,M,M,M,M,M,M,M,60.80,KMEV 030335Z AUTO 12007KT 10SM CLR 16/04 A3006 RMK AO2,M
BAM,2023-09-03 03:35,-116.8743,40.5990,1382.36,60.80,59.00,93.79,50.00,8.00,0.00,30.11,M,10.00,M,BKN,OVC,M,M,10000.00,11000.00,M,M,M,M,M,M,M,M,M,60.80,KBAM 030335Z AUTO 05008KT 10SM BKN100 OVC110 16/15 A3011 RMK AO1,M
HTH,2023-09-03 03:35,-118.6315,38.5448,1282.89,64.40,59.00,82.62,100.00,6.00,0.00,30.03,M,10.00,M,CLR,M,M,M,M,M,M,M,M,M,M,M,M,M,M,64.40,KHTH 030335Z AUTO 10006KT 10SM CLR 18/15 A3003 RMK A01,M
TMT,2023-09-03 03:35,-117.1971,39.4643,1749.34,56.50,55.80,97.50,330.00,4.00,0.00,30.14,M,M,M,M,M,M,M,M,M,M,M,M,M,M,M,M,M,M,56.50,KTMT 030335Z AUTO 33004KT 14/13 A3014 RMK AO2 LTG DSNT W AND NW T01360132 PWINO,M
10U,2023-09-03 03:40,-116.1876,41.9532,1637.00,57.20,55.40,93.69,240.00,11.00,0.00,30.20,M,3.00,19.00,FEW,SCT,BKN,M,600.00,1600.00,2900.00,M,-RA,M,M,M,M,M,M,57.20,K10U 030340Z AUTO 24011G19KT 3SM -RA FEW006 SCT016 BKN029 14/13 A3020 RMK AO2,M
05U,2023-09-03 03:50,-116.0051,39.6042,1811.23,60.80,53.60,77.14,M,M,0.00,30.19,M,10.00,M,SCT,SCT,M,M,2800.00,3300.00,M,M,M,M,M,M,M,M,M,60.80,K05U 030350Z AUTO 10SM SCT028 SCT033 16/12 A3019 RMK A01,M
P68,2023-09-03 03:53,-116.0056,39.6014,1993.00,63.00,54.00,72.42,0.00,0.00,0.00,30.17,1014.80,M,M,M,M,M,M,M,M,M,M,M,M,M,M,M,M,M,63.00,KP68 030353Z AUTO 00000KT 17/12 A3017 RMK AO1 SLP148 T01720122 $,M
DRA,2023-09-03 03:53,-116.0278,36.6206,1009.00,74.00,64.00,70.97,140.00,5.00,0.00,30.06,1013.90,10.00,M,FEW,M,M,M,12000.00,M,M,M,M,M,M,M,M,M,M,74.00,KDRA 030353Z AUTO 14005KT 10SM FEW120 23/18 A3006 RMK AO2 SLP139 T02330178,M
ELY,2023-09-03 03:53,-114.8453,39.2950,1909.00,58.00,53.00,83.39,200.00,10.00,0.00,30.25,1016.30,10.00,M,SCT,M,M,M,11000.00,M,M,M,M,M,M,M,M,M,M,58.00,KELY 030353Z AUTO 20010KT 10SM SCT110 14/12 A3025 RMK AO2 SLP163 T01440117,M
VGT,2023-09-03 03:53,-115.1933,36.2111,667.00,75.00,70.00,84.46,100.00,4.00,0.00,30.05,1017.30,10.00,M,CLR,M,M,M,M,M,M,M,M,M,M,M,M,M,M,75.00,KVGT 030353Z 10004KT 10SM CLR 24/21 A3005 RMK AO2 SLP173 T02390211 $,M
LOL,2023-09-03 03:53,-118.5701,40.0684,1192.43,67.00,55.00,65.33,80.00,3.00,0.00,30.02,1013.60,10.00,M,BKN,M,M,M,6000.00,M,M,M,M,M,M,M,M,M,M,67.00,KLOL 030353Z AUTO 08003KT 10SM BKN060 19/13 A3002 RMK AO2 SLP136 T01940128,M
BVU,2023-09-03 03:55,-114.8611,35.9475,671.00,73.40,66.20,78.19,350.00,4.00,0.00,30.05,M,10.00,M,CLR,M,M,M,M,M,M,M,M,M,M,M,M,M,M,73.40,KBVU 030355Z AUTO 35004KT 10SM CLR 23/19 A3005 RMK AO2,M
CXP,2023-09-03 03:55,-119.7326,39.1923,1431.00,60.80,51.80,72.20,330.00,8.00,0.00,30.09,M,10.00,M,BKN,M,M,M,9000.00,M,M,M,M,M,M,M,M,M,M,60.80,KCXP 030355Z AUTO 33008KT 10SM BKN090 16/11 A3009 RMK AO2,M
RNO,2023-09-03 03:55,-119.7711,39.4839,1341.00,60.00,55.00,83.53,220.00,3.00,0.00,30.08,1015.00,10.00,M,FEW,SCT,SCT,M,6000.00,9500.00,14000.00,M,M,M,M,M,M,M,M,60.00,KRNO 030355Z 22003KT 10SM FEW060 SCT095 SCT140 16/13 A3008 RMK AO2 SLP150 T01560128,M
RTS,2023-09-03 03:55,-119.8764,39.6682,1539.00,57.20,51.80,82.12,0.00,0.00,0.00,30.11,M,10.00,M,FEW,BKN,M,M,4500.00,10000.00,M,M,M,M,M,M,M,M,M,57.20,KRTS 030355Z AUTO 00000KT 10SM FEW045 BKN100 14/11 A3011 RMK AO2,M
MEV,2023-09-03 03:55,-119.7500,38.9963,1441.42,57.20,41.00,54.60,100.00,6.00,0.00,30.07,M,10.00,M,SCT,M,M,M,8500.00,M,M,M,M,M,M,M,M,M,M,57.20,KMEV 030355Z AUTO 10006KT 10SM SCT085 14/05 A3007 RMK AO2,M
BAM,2023-09-03 03:55,-116.8743,40.5990,1382.36,59.00,59.00,100.00,60.00,7.00,0.00,30.12,M,10.00,M,BKN,BKN,M,M,10000.00,12000.00,M,M,M,M,M,M,M,M,M,59.00,KBAM 030355Z AUTO 06007KT 10SM BKN100 BKN120 15/15 A3012 RMK AO1,M
HTH,2023-09-03 03:55,-118.6315,38.5448,1282.89,66.20,59.00,77.60,120.00,6.00,0.00,30.04,M,10.00,M,FEW,M,M,M,12000.00,M,M,M,M,M,M,M,M,M,M,66.20,KHTH 030355Z AUTO 12006KT 10SM FEW120 19/15 A3004 RMK A01,M
TMT,2023-09-03 03:55,-117.1971,39.4643,1749.34,57.20,55.60,94.38,350.00,9.00,0.00,30.15,M,M,M,M,M,M,M,M,M,M,M,M,M,M,M,M,M,M,57.20,KTMT 030355Z AUTO 35009KT 14/13 A3015 RMK AO2 LTG DSNT NW T01400131 PWINO,M
10U,2023-09-03 03:55,-116.1876,41.9532,1637.00,57.20,55.40,93.69,210.00,6.00,0.00,30.21,M,10.00,12.00,FEW,SCT,BKN,M,700.00,1900.00,4900.00,M,-RA,M,M,M,M,M,M,57.20,K10U 030355Z AUTO 21006G12KT 10SM -RA FEW007 SCT019 BKN049 14/13 A3021 RMK AO2,M
INS,2023-09-03 03:55,-115.6733,36.5872,955.00,72.00,63.00,73.31,80.00,15.00,0.00,30.07,1014.30,10.00,M,FEW,M,M,M,15000.00,M,M,M,M,M,M,M,M,M,M,72.00,KINS 030355Z AUTO 08015KT 10SM FEW150 22/17 A3007 RMK AO2 SLP143 T02230172 $,M
LSV,2023-09-03 03:55,-115.0343,36.2362,570.00,73.40,73.00,98.66,0.00,0.00,0.00,30.01,1014.50,10.00,M,CLR,M,M,M,M,M,M,M,M,M,M,M,M,M,M,73.40,KLSV 030355Z AUTO 00000KT 10SM CLR 23/23 A3001 RMK AO2 SLP145 T02300228 $,M
EKO,2023-09-03 03:56,-115.7860,40.8242,1367.00,63.00,55.00,75.11,280.00,7.00,0.00,30.15,1017.00,10.00,M,SCT,OVC,M,M,6000.00,8000.00,M,M,M,M,M,M,M,M,M,63.00,KEKO 030356Z AUTO 28007KT 10SM SCT060 OVC080 17/13 A3015 RMK AO2 SLP170 T01720128,M
WMC,2023-09-03 03:56,-117.8072,40.9019,1315.00,63.00,57.00,80.76,50.00,10.00,0.00,30.06,1014.60,10.00,M,CLR,M,M,M,M,M,M,M,M,M,M,M,M,M,M,63.00,KWMC 030356Z AUTO 05010KT 10SM CLR 17/14 A3006 RMK AO2 SLP146 T01720139,M
HND,2023-09-03 03:56,-115.1344,35.9729,742.79,71.00,66.00,84.22,160.00,3.00,0.00,30.09,1018.60,10.00,M,CLR,M,M,M,M,M,M,M,M,M,M,M,M,M,M,71.00,KHND 030356Z AUTO 16003KT 10SM CLR 22/19 A3009 RMK AO2 SLP186 T02170189,M
TPH,2023-09-03 03:56,-117.0904,38.0505,1654.00,66.00,57.00,72.72,170.00,15.00,0.00,30.15,1014.90,10.00,24.00,CLR,M,M,M,M,M,M,M,M,M,M,M,27.00,170.00,2023-09-03 03:14,66.00,KTPH 030356Z AUTO 17015G24KT 10SM CLR 19/14 A3015 RMK AO2 PK WND 17027/0314 SLP149 T01890139,M
LAS,2023-09-03 03:56,-115.1634,36.0719,663.00,74.00,65.00,73.50,0.00,0.00,0.00,30.05,1015.70,10.00,M,SCT,SCT,M,M,12000.00,20000.00,M,M,M,M,M,M,M,M,M,74.00,KLAS 030356Z 00000KT 10SM SCT120 SCT200 23/18 A3005 RMK AO2 SLP157 T02330183 $,M
NFL,2023-09-03 03:56,-118.7010,39.4166,1199.00,67.00,51.00,56.41,300.00,7.00,0.00,30.02,1013.50,10.00,M,CLR,M,M,M,M,M,M,M,M,M,M,M,M,M,M,67.00,KNFL 030356Z AUTO 30007KT 10SM CLR 19/11 A3002 RMK AO2 SLP135 T01940106,M
05U,2023-09-03 04:05,-116.0051,39.6042,1811.23,62.60,53.60,72.38,M,M,0.00,30.19,M,10.00,M,FEW,FEW,M,M,2800.00,3200.00,M,M,M,M,M,M,M,M,M,62.60,K05U 030405Z AUTO 10SM FEW028 FEW032 17/12 A3019 RMK A01,M
BVU,2023-09-03 04:15,-114.8611,35.9475,671.00,73.40,66.20,78.19,30.00,3.00,0.00,30.05,M,10.00,M,CLR,M,M,M,M,M,M,M,M,M,M,M,M,M,M,73.40,KBVU 030415Z AUTO 03003KT 10SM CLR 23/19 A3005 RMK AO2,M
CXP,2023-09-03 04:15,-119.7326,39.1923,1431.00,60.80,51.80,72.20,290.00,4.00,0.00,30.09,M,10.00,M,OVC,M,M,M,9000.00,M,M,M,M,M,M,M,M,M,M,60.80,KCXP 030415Z AUTO 29004KT 10SM OVC090 16/11 A3009 RMK AO2,M
RTS,2023-09-03 04:15,-119.8764,39.6682,1539.00,55.40,50.00,81.99,0.00,0.00,0.00,30.12,M,10.00,M,FEW,BKN,M,M,9000.00,11000.00,M,M,M,M,M,M,M,M,M,55.40,KRTS 030415Z AUTO 00000KT 10SM FEW090 BKN110 13/10 A3012 RMK AO2,M
MEV,2023-09-03 04:15,-119.7500,38.9963,1441.42,57.20,41.00,54.60,130.00,4.00,0.00,30.07,M,10.00,M,BKN,M,M,M,8500.00,M,M,M,M,M,M,M,M,M,M,57.20,KMEV 030415Z AUTO 13004KT 10SM BKN085 14/05 A3007 RMK AO2,M
BAM,2023-09-03 04:15,-116.8743,40.5990,1382.36,60.80,59.00,93.79,80.00,11.00,0.00,30.13,M,10.00,M,BKN,OVC,M,M,9000.00,12000.00,M,M,M,M,M,M,M,M,M,60.80,KBAM 030415Z AUTO 08011KT 10SM BKN090 OVC120 16/15 A3013 RMK AO1,M
HTH,2023-09-03 04:15,-118.6315,38.5448,1282.89,66.20,57.20,72.74,0.00,0.00,0.00,30.04,M,10.00,M,BKN,M,M,M,11000.00,M,M,M,M,M,M,M,M,M,M,66.20,KHTH 030415Z AUTO 00000KT 10SM BKN110 19/14 A3004 RMK A01,M
10U,2023-09-03 04:15,-116.1876,41.9532,1637.00,57.20,55.40,93.69,M,M,0.00,30.22,M,10.00,M,FEW,BKN,OVC,M,3100.00,5000.00,7500.00,M,-RA,M,M,M,M,M,M,57.20,K10U 030415Z AUTO 10SM -RA FEW031 BKN050 OVC075 14/13 A3022 RMK AO2,M
TMT,2023-09-03 04:15,-117.1971,39.4643,1749.34,57.00,55.40,94.37,330.00,8.00,0.00,30.16,M,M,M,BKN,BKN,M,M,6500.00,12000.00,M,M,M,M,M,M,M,M,M,57.00,KTMT 030415Z AUTO 33008KT BKN065 BKN120 14/13 A3016 RMK AO2 LTG DSNT N T01380130 PWINO,M
05U,2023-09-03 04:30,-116.0051,39.6042,1811.23,60.80,53.60,77.14,M,M,0.00,30.19,M,10.00,M,CLR,M,M,M,M,M,M,M,M,M,M,M,M,M,M,60.80,K05U 030430Z AUTO 10SM CLR 16/12 A3019 RMK A01,M
BVU,2023-09-03 04:35,-114.8611,35.9475,671.00,73.40,66.20,78.19,50.00,4.00,0.00,30.05,M,10.00,M,CLR,M,M,M,M,M,M,M,M,M,M,M,M,M,M,73.40,KBVU 030435Z AUTO 05004KT 10SM CLR 23/19 A3005 RMK AO2,M
CXP,2023-09-03 04:35,-119.7326,39.1923,1431.00,60.80,51.80,72.20,330.00,4.00,0.00,30.10,M,10.00,M,BKN,M,M,M,9000.00,M,M,M,M,M,M,M,M,M,M,60.80,KCXP 030435Z AUTO 33004KT 10SM BKN090 16/11 A3010 RMK AO2,M
RTS,2023-09-03 04:35,-119.8764,39.6682,1539.00,57.20,48.20,71.83,0.00,0.00,0.00,30.12,M,10.00,M,BKN,M,M,M,11000.00,M,M,M,M,M,M,M,M,M,M,57.20,KRTS 030435Z AUTO 00000KT 10SM BKN110 14/09 A3012 RMK AO2,M
MEV,2023-09-03 04:35,-119.7500,38.9963,1441.42,55.40,41.00,58.27,150.00,3.00,0.00,30.08,M,10.00,M,SCT,M,M,M,8500.00,M,M,M,M,M,M,M,M,M,M,55.40,KMEV 030435Z AUTO 15003KT 10SM SCT085 13/05 A3008 RMK AO2,M
BAM,2023-09-03 04:35,-116.8743,40.5990,1382.36,60.80,57.20,87.92,60.00,14.00,0.00,30.12,M,10.00,M,BKN,BKN,M,M,10000.00,12000.00,M,M,M,M,M,M,M,M,M,60.80,KBAM 030435Z AUTO 06014KT 10SM BKN100 BKN120 16/14 A3012 RMK AO1,M
HTH,2023-09-03 04:35,-118.6315,38.5448,1282.89,66.20,57.20,72.74,0.00,0.00,0.00,30.05,M,10.00,M,BKN,M,M,M,11000.00,M,M,M,M,M,M,M,M,M,M,66.20,KHTH 030435Z AUTO 00000KT 10SM BKN110 19/14 A3005 RMK A01,M
10U,2023-09-03 04:35,-116.1876,41.9532,1637.00,57.20,55.40,93.69,M,M,0.00,30.21,M,9.00,M,FEW,SCT,BKN,M,2100.00,3200.00,5000.00,M,-RA,M,M,M,M,M,M,57.20,K10U 030435Z AUTO 9SM -RA FEW021 SCT032 BKN050 14/13 A3021 RMK AO2,M
TMT,2023-09-03 04:35,-117.1971,39.4643,1749.34,57.40,54.50,90.02,0.00,0.00,0.00,30.18,M,M,M,M,M,M,M,M,M,M,M,M,M,M,M,M,M,M,57.40,KTMT 030435Z AUTO 00000KT 14/13 A3018 RMK AO2 T01410125 PWINO,M
05U,2023-09-03 04:45,-116.0051,39.6042,1811.23,60.80,55.40,82.37,M,M,0.00,30.19,M,10.00,M,FEW,SCT,M,M,3300.00,10000.00,M,M,M,M,M,M,M,M,M,60.80,K05U 030445Z AUTO 10SM FEW033 SCT100 16/13 A3019 RMK A01,M
P68,2023-09-03 04:53,-116.0056,39.6014,1993.00,61.00,55.00,80.61,80.00,5.00,0.00,30.17,1014.70,M,M,M,M,M,M,M,M,M,M,M,M,M,M,M,M,M,61.00,KP68 030453Z AUTO 08005KT 16/13 A3017 RMK AO1 SLP147 T01610128 $,M
DRA,2023-09-03 04:53,-116.0278,36.6206,1009.00,73.00,64.00,73.40,0.00,0.00,0.00,30.07,1014.10,10.00,M,SCT,M,M,M,11000.00,M,M,M,M,M,M,M,M,M,M,73.00,KDRA 030453Z AUTO 00000KT 10SM SCT110 23/18 A3007 RMK AO2 SLP141 T02280178,M
ELY,2023-09-03 04:53,-114.8453,39.2950,1909.00,57.00,53.00,86.45,200.00,11.00,0.00,30.25,1015.80,10.00,M,BKN,M,M,M,11000.00,M,M,M,M,M,M,M,M,M,M,57.00,KELY 030453Z AUTO 20011KT 10SM BKN110 14/12 A3025 RMK AO2 SLP158 T01390117,M
VGT,2023-09-03 04:53,-115.1933,36.2111,667.00,75.00,70.00,84.46,0.00,0.00,0.00,30.05,1017.40,10.00,M,CLR,M,M,M,M,M,M,M,M,M,M,M,M,M,M,75.00,KVGT 030453Z AUTO 00000KT 10SM CLR 24/21 A3005 RMK AO2 SLP174 T02390211 $,M
LOL,2023-09-03 04:53,-118.5701,40.0684,1192.43,66.00,53.00,62.87,0.00,0.00,0.00,30.03,1013.80,10.00,M,BKN,OVC,M,M,5500.00,8000.00,M,M,M,M,M,M,M,M,M,66.00,KLOL 030453Z AUTO 00000KT 10SM BKN055 OVC080 19/12 A3003 RMK AO2 SLP138 T01890117,M
BVU,2023-09-03 04:55,-114.8611,35.9475,671.00,73.40,66.20,78.19,40.00,6.00,0.00,30.05,M,10.00,M,CLR,M,M,M,M,M,M,M,M,M,M,M,M,M,M,73.40,KBVU 030455Z AUTO 04006KT 10SM CLR 23/19 A3005 RMK AO2,M
CXP,2023-09-03 04:55,-119.7326,39.1923,1431.00,59.00,51.80,76.98,330.00,5.00,0.00,30.10,M,10.00,M,BKN,M,M,M,9000.00,M,M,M,M,M,M,M,M,M,M,59.00,KCXP 030455Z AUTO 33005KT 10SM BKN090 15/11 A3010 RMK AO2,M
RNO,2023-09-03 04:55,-119.7711,39.4839,1341.00,60.00,54.00,80.53,0.00,0.00,0.00,30.09,1015.30,10.00,M,FEW,SCT,SCT,M,6000.00,8500.00,12000.00,M,M,M,M,M,M,M,M,60.00,KRNO 030455Z 00000KT 10SM FEW060 SCT085 SCT120 16/12 A3009 RMK AO2 SLP153 T01560122,M
RTS,2023-09-03 04:55,-119.8764,39.6682,1539.00,57.20,48.20,71.83,0.00,0.00,0.00,30.12,M,10.00,M,BKN,M,M,M,11000.00,M,M,M,M,M,M,M,M,M,M,57.20,KRTS 030455Z AUTO 00000KT 10SM BKN110 14/09 A3012 RMK AO2,M
MEV,2023-09-03 04:55,-119.7500,38.9963,1441.42,55.40,41.00,58.27,80.00,5.00,0.00,30.08,M,10.00,M,CLR,M,M,M,M,M,M,M,M,M,M,M,M,M,M,55.40,KMEV 030455Z AUTO 08005KT 10SM CLR 13/05 A3008 RMK AO2,M
BAM,2023-09-03 04:55,-116.8743,40.5990,1382.36,60.80,57.20,87.92,110.00,5.00,0.00,30.14,M,10.00,8.00,SCT,BKN,BKN,M,7500.00,10000.00,12000.00,M,M,M,M,M,M,M,M,60.80,KBAM 030455Z AUTO 11005G08KT 10SM SCT075 BKN100 BKN120 16/14 A3014 RMK AO1,M
HTH,2023-09-03 04:55,-118.6315,38.5448,1282.89,66.20,57.20,72.74,0.00,0.00,0.00,30.05,M,10.00,M,SCT,M,M,M,12000.00,M,M,M,M,M,M,M,M,M,M,66.20,KHTH 030455Z AUTO 00000KT 10SM SCT120 19/14 A3005 RMK A01,M
TMT,2023-09-03 04:55,-117.1971,39.4643,1749.34,56.50,55.40,96.09,110.00,3.00,0.00,30.19,M,M,M,M,M,M,M,M,M,M,M,M,M,M,M,M,M,M,56.50,KTMT 030455Z AUTO 11003KT 14/13 A3019 RMK AO2 T01360130 PWINO,M
10U,2023-09-03 04:55,-116.1876,41.9532,1637.00,55.40,53.60,93.65,M,M,0.00,30.16,M,10.00,M,FEW,BKN,OVC,M,3000.00,6000.00,7500.00,M,M,M,M,M,M,M,M,55.40,K10U 030455Z AUTO 10SM FEW030 BKN060 OVC075 13/12 A3016 RMK AO2,M
INS,2023-09-03 04:55,-115.6733,36.5872,955.00,72.00,62.80,72.79,80.00,15.00,0.00,30.07,1014.30,10.00,M,SCT,M,M,M,15000.00,M,M,M,M,M,M,M,M,M,M,72.00,KINS 030455Z AUTO 08015KT 10SM SCT150 22/17 A3007 RMK AO2 SLP143 T02220171 $,M
LSV,2023-09-03 04:55,-115.0343,36.2362,570.00,74.00,73.60,98.66,50.00,4.00,0.00,30.02,1014.80,10.00,M,OVC,M,M,M,15000.00,M,M,M,M,M,M,M,M,M,M,74.00,KLSV 030455Z AUTO 05004KT 10SM OVC150 23/23 A3002 RMK AO2 SLP148 T02330231 $,M
EKO,2023-09-03 04:56,-115.7860,40.8242,1367.00,60.00,54.00,80.53,220.00,6.00,0.00,30.16,1017.20,10.00,M,BKN,OVC,M,M,4500.00,6000.00,M,M,M,M,M,M,M,M,M,60.00,KEKO 030456Z AUTO 22006KT 10SM BKN045 OVC060 16/12 A3016 RMK AO2 SLP172 T01560122,M
WMC,2023-09-03 04:56,-117.8072,40.9019,1315.00,63.00,57.00,80.76,50.00,7.00,0.00,30.08,1014.70,10.00,M,CLR,M,M,M,M,M,M,M,M,M,M,M,M,M,M,63.00,KWMC 030456Z AUTO 05007KT 10SM CLR 17/14 A3008 RMK AO2 SLP147 T01720139,M
NFL,2023-09-03 04:56,-118.7010,39.4166,1199.00,65.00,51.00,60.47,0.00,0.00,0.00,30.04,1014.10,10.00,M,OVC,M,M,M,5000.00,M,M,M,M,M,M,M,M,M,M,65.00,KNFL 030456Z AUTO 00000KT 10SM OVC050 18/11 A3004 RMK AO2 SLP141 T01830106,M
HND,2023-09-03 04:56,-115.1344,35.9729,742.79,71.00,67.00,87.19,210.00,4.00,0.00,30.09,1018.50,10.00,M,CLR,M,M,M,M,M,M,M,M,M,M,M,M,M,M,71.00,KHND 030456Z AUTO 21004KT 10SM CLR 22/19 A3009 RMK AO2 SLP185 T02170194,M
TPH,2023-09-03 04:56,-117.0904,38.0505,1654.00,66.00,57.00,72.72,180.00,16.00,0.00,30.16,1014.90,10.00,22.00,SCT,M,M,M,11000.00,M,M,M,M,M,M,M,M,M,M,66.00,KTPH 030456Z AUTO 18016G22KT 10SM SCT110 19/14 A3016 RMK AO2 SLP149 T01890139,M
LAS,2023-09-03 04:56,-115.1634,36.0719,663.00,73.00,65.00,76.01,0.00,0.00,0.00,30.05,1015.70,10.00,M,SCT,SCT,M,M,12000.00,20000.00,M,M,M,M,M,M,M,M,M,73.00,KLAS 030456Z 00000KT 10SM SCT120 SCT200 23/18 A3005 RMK AO2 SLP157 T02280183 $,M
05U,2023-09-03 05:10,-116.0051,39.6042,1811.23,62.60,55.40,77.29,M,M,0.00,30.20,M,10.00,M,BKN,BKN,M,M,3400.00,10000.00,M,M,M,M,M,M,M,M,M,62.60,K05U 030510Z AUTO 10SM BKN034 BKN100 17/13 A3020 RMK A01,M
BVU,2023-09-03 05:15,-114.8611,35.9475,671.00,75.20,66.20,73.61,70.00,7.00,0.00,30.05,M,10.00,M,CLR,M,M,M,M,M,M,M,M,M,M,M,M,M,M,75.20,KBVU 030515Z AUTO 07007KT 10SM CLR 24/19 A3005 RMK AO2,M
CXP,2023-09-03 05:15,-119.7326,39.1923,1431.00,59.00,51.80,76.98,340.00,7.00,0.00,30.10,M,10.00,M,BKN,M,M,M,9000.00,M,M,M,M,M,M,M,M,M,M,59.00,KCXP 030515Z AUTO 34007KT 10SM BKN090 15/11 A3010 RMK AO2,M
RTS,2023-09-03 05:15,-119.8764,39.6682,1539.00,57.20,44.60,62.69,0.00,0.00,0.00,30.13,M,10.00,M,OVC,M,M,M,11000.00,M,M,M,M,M,M,M,M,M,M,57.20,KRTS 030515Z AUTO 00000KT 10SM OVC110 14/07 A3013 RMK AO2,M
MEV,2023-09-03 05:15,-119.7500,38.9963,1441.42,53.60,42.80,66.70,100.00,5.00,0.00,30.08,M,10.00,M,CLR,M,M,M,M,M,M,M,M,M,M,M,M,M,M,53.60,KMEV 030515Z AUTO 10005KT 10SM CLR 12/06 A3008 RMK AO2,M
BAM,2023-09-03 05:15,-116.8743,40.5990,1382.36,60.80,57.20,87.92,60.00,7.00,0.00,30.14,M,7.00,M,SCT,BKN,OVC,M,5000.00,7500.00,9000.00,M,M,M,M,M,M,M,M,60.80,KBAM 030515Z AUTO 06007KT 7SM SCT050 BKN075 OVC090 16/14 A3014 RMK AO1,M
HTH,2023-09-03 05:15,-118.6315,38.5448,1282.89,68.00,55.40,64.04,0.00,0.00,0.00,30.05,M,10.00,M,FEW,M,M,M,11000.00,M,M,M,M,M,M,M,M,M,M,68.00,KHTH 030515Z AUTO 00000KT 10SM FEW110 20/13 A3005 RMK A01,M
TMT,2023-09-03 05:15,-117.1971,39.4643,1749.34,56.30,55.00,95.39,70.00,6.00,0.00,30.19,M,M,M,M,M,M,M,M,M,M,M,M,M,M,M,M,M,M,56.30,KTMT 030515Z AUTO 07006KT 14/13 A3019 RMK AO2 LTG DSNT NE AND W T01350127 PWINO,M
10U,2023-09-03 05:20,-116.1876,41.9532,1637.00,55.40,53.60,93.65,M,M,0.00,30.15,M,10.00,M,FEW,OVC,M,M,7500.00,9000.00,M,M,M,M,M,M,M,M,M,55.40,K10U 030520Z AUTO 10SM FEW075 OVC090 13/12 A3015 RMK AO2,M
05U,2023-09-03 05:30,-116.0051,39.6042,1811.23,62.60,55.40,77.29,M,M,0.00,30.20,M,10.00,M,BKN,BKN,M,M,3300.00,11000.00,M,M,M,M,M,M,M,M,M,62.60,K05U 030530Z AUTO 10SM BKN033 BKN110 17/13 A3020 RMK A01,M
BVU,2023-09-03 05:35,-114.8611,35.9475,671.00,75.20,66.20,73.61,70.00,6.00,0.00,30.05,M,10.00,M,CLR,M,M,M,M,M,M,M,M,M,M,M,M,M,M,75.20,KBVU 030535Z AUTO 07006KT 10SM CLR 24/19 A3005 RMK AO2,M
CXP,2023-09-03 05:35,-119.7326,39.1923,1431.00,59.00,51.80,76.98,0.00,0.00,0.00,30.10,M,10.00,M,SCT,M,M,M,9000.00,M,M,M,M,M,M,M,M,M,M,59.00,KCXP 030535Z AUTO 00000KT 10SM SCT090 15/11 A3010 RMK AO2,M
RTS,2023-09-03 05:35,-119.8764,39.6682,1539.00,55.40,50.00,81.99,0.00,0.00,0.00,30.13,M,10.00,M,OVC,M,M,M,10000.00,M,M,M,M,M,M,M,M,M,M,55.40,KRTS 030535Z AUTO 00000KT 10SM OVC100 13/10 A3013 RMK AO2,M
MEV,2023-09-03 05:35,-119.7500,38.9963,1441.42,53.60,42.80,66.70,90.00,4.00,0.00,30.08,M,10.00,M,CLR,M,M,M,M,M,M,M,M,M,M,M,M,M,M,53.60,KMEV 030535Z AUTO 09004KT 10SM CLR 12/06 A3008 RMK AO2,M
BAM,2023-09-03 05:35,-116.8743,40.5990,1382.36,60.80,59.00,93.79,170.00,4.00,0.00,30.18,M,10.00,M,SCT,SCT,OVC,M,4800.00,6000.00,9000.00,M,M,M,M,M,M,M,M,60.80,KBAM 030535Z AUTO 17004KT 10SM SCT048 SCT060 OVC090 16/15 A3018 RMK AO1,M
HTH,2023-09-03 05:35,-118.6315,38.5448,1282.89,68.00,57.20,68.35,290.00,5.00,0.00,30.05,M,10.00,M,CLR,M,M,M,M,M,M,M,M,M,M,M,M,M,M,68.00,KHTH 030535Z AUTO 29005KT 10SM CLR 20/14 A3005 RMK A01,M
10U,2023-09-03 05:35,-116.1876,41.9532,1637.00,55.40,53.60,93.65,M,M,0.00,30.15,M,10.00,M,FEW,SCT,OVC,M,3400.00,5500.00,9000.00,M,M,M,M,M,M,M,M,55.40,K10U 030535Z AUTO 10SM FEW034 SCT055 OVC090 13/12 A3015 RMK AO2,M
TMT,2023-09-03 05:35,-117.1971,39.4643,1749.34,55.40,54.30,96.07,40.00,6.00,0.00,30.18,M,M,M,M,M,M,M,M,M,M,M,M,M,M,M,M,M,M,55.40,KTMT 030535Z AUTO 04006KT 13/12 A3018 RMK AO2 LTG DSNT NW T01300124 PWINO,M
05U,2023-09-03 05:45,-116.0051,39.6042,1811.23,62.60,55.40,77.29,M,M,0.00,30.21,M,10.00,M,BKN,OVC,M,M,3400.00,11000.00,M,M,M,M,M,M,M,M,M,62.60,K05U 030545Z AUTO 10SM BKN034 OVC110 17/13 A3021 RMK A01,M
P68,2023-09-03 05:53,-116.0056,39.6014,1993.00,62.00,55.00,77.81,120.00,5.00,0.00,30.18,1014.60,M,M,M,M,M,M,M,M,M,M,M,M,M,M,M,M,M,62.00,KP68 030553Z AUTO 12005KT 17/13 A3018 RMK AO1 SLP146 T01670128 10200 20161 51012 $,M
DRA,2023-09-03 05:53,-116.0278,36.6206,1009.00,72.00,64.00,75.92,100.00,5.00,0.00,30.08,1014.30,10.00,M,CLR,M,M,M,M,M,M,M,M,M,M,M,M,M,M,72.00,KDRA 030553Z AUTO 10005KT 10SM CLR 22/18 A3008 RMK AO2 SLP143 T02220178 10283 20222 51010,M
ELY,2023-09-03 05:53,-114.8453,39.2950,1909.00,56.00,52.00,86.40,210.00,7.00,0.00,30.24,1015.90,10.00,M,CLR,M,M,M,M,M,M,M,M,M,M,M,M,M,M,56.00,KELY 030553Z AUTO 21007KT 10SM CLR 13/11 A3024 RMK AO2 SLP159 60001 T01330111 10161 20128 50004,M
VGT,2023-09-03 05:53,-115.1933,36.2111,667.00,74.00,69.00,84.40,120.00,3.00,0.00,30.06,1017.60,10.00,M,CLR,M,M,M,M,M,M,M,M,M,M,M,M,M,M,74.00,KVGT 030553Z AUTO 12003KT 10SM CLR 23/21 A3006 RMK AO2 SLP176 60000 T02330206 10256 20233 51008 $,M
LOL,2023-09-03 05:53,-118.5701,40.0684,1192.43,64.00,51.00,62.62,90.00,4.00,0.00,30.04,1014.20,10.00,M,FEW,BKN,M,M,5500.00,9500.00,M,M,M,M,M,M,M,M,M,64.00,KLOL 030553Z AUTO 09004KT 10SM FEW055 BKN095 18/11 A3004 RMK AO2 SLP142 60000 T01780106 10244 20178 51014,M
BVU,2023-09-03 05:55,-114.8611,35.9475,671.00,75.20,66.20,73.61,90.00,5.00,0.00,30.05,M,10.00,M,CLR,M,M,M,M,M,M,M,M,M,M,M,M,M,M,75.20,KBVU 030555Z AUTO 09005KT 10SM CLR 24/19 A3005 RMK AO2,M
CXP,2023-09-03 05:55,-119.7326,39.1923,1431.00,57.20,51.80,82.12,0.00,0.00,0.00,30.10,M,10.00,M,CLR,M,M,M,M,M,M,M,M,M,M,M,M,M,M,57.20,KCXP 030555Z AUTO 00000KT 10SM CLR 14/11 A3010 RMK AO2,M
RNO,2023-09-03 05:55,-119.7711,39.4839,1341.00,58.00,54.00,86.51,280.00,4.00,0.00,30.09,1015.60,10.00,M,FEW,SCT,SCT,M,6000.00,8500.00,12000.00,M,M,M,M,M,M,M,M,58.00,KRNO 030555Z 28004KT 10SM FEW060 SCT085 SCT120 14/12 A3009 RMK AO2 SLP156 T01440122 10178 20144 51010,M
RTS,2023-09-03 05:55,-119.8764,39.6682,1539.00,55.40,48.20,76.66,0.00,0.00,0.00,30.13,M,10.00,M,OVC,M,M,M,10000.00,M,M,M,M,M,M,M,M,M,M,55.40,KRTS 030555Z AUTO 00000KT 10SM OVC100 13/09 A3013 RMK AO2,M
MEV,2023-09-03 05:55,-119.7500,38.9963,1441.42,55.40,42.80,62.46,20.00,3.00,0.00,30.09,M,10.00,M,FEW,M,M,M,6000.00,M,M,M,M,M,M,M,M,M,M,55.40,KMEV 030555Z AUTO 02003KT 10SM FEW060 13/06 A3009 RMK AO2,M
BAM,2023-09-03 05:55,-116.8743,40.5990,1382.36,60.80,59.00,93.79,170.00,8.00,0.00,30.18,M,7.00,M,SCT,BKN,OVC,M,5500.00,7500.00,9000.00,M,M,M,M,M,M,M,M,60.80,KBAM 030555Z AUTO 17008KT 7SM SCT055 BKN075 OVC090 16/15 A3018 RMK AO1,M
HTH,2023-09-03 05:55,-118.6315,38.5448,1282.89,68.00,57.20,68.35,290.00,5.00,0.00,30.06,M,10.00,M,SCT,SCT,M,M,6500.00,11000.00,M,M,M,M,M,M,M,M,M,68.00,KHTH 030555Z AUTO 29005KT 10SM SCT065 SCT110 20/14 A3006 RMK A01,M
10U,2023-09-03 05:55,-116.1876,41.9532,1637.00,55.40,53.60,93.65,M,M,0.00,30.16,M,10.00,M,FEW,SCT,BKN,M,2300.00,3700.00,5500.00,M,M,M,M,M,M,M,M,55.40,K10U 030555Z AUTO 10SM FEW023 SCT037 BKN055 13/12 A3016 RMK AO2,M
TMT,2023-09-03 05:55,-117.1971,39.4643,1749.34,54.50,52.50,92.94,50.00,5.00,0.00,30.18,M,M,M,M,M,M,M,M,M,M,M,M,M,M,M,M,M,M,54.50,KTMT 030555Z AUTO 05005KT 13/11 A3018 RMK AO2 60029 T01250114 10173 20125 PWINO,M
INS,2023-09-03 05:55,-115.6733,36.5872,955.00,71.60,62.00,71.73,90.00,8.00,0.00,30.07,1014.30,10.00,M,BKN,M,M,M,14000.00,M,M,M,M,M,M,M,M,M,M,71.60,KINS 030555Z AUTO 09008KT 10SM BKN140 22/17 A3007 RMK AO2 SLP143 T02200167 10260 20220 51010 $,M
LSV,2023-09-03 05:55,-115.0343,36.2362,570.00,73.00,72.70,98.99,10.00,3.00,0.00,30.02,1014.70,10.00,M,CLR,M,M,M,M,M,M,M,M,M,M,M,M,M,M,73.00,KLSV 030555Z AUTO 01003KT 10SM CLR 23/23 A3002 RMK AO2 SLP147 60001 T02280226 10256 20228 51006 $,M
EKO,2023-09-03 05:56,-115.7860,40.8242,1367.00,59.00,55.00,86.56,230.00,4.00,T,30.17,1017.20,10.00,M,BKN,OVC,M,M,6000.00,8000.00,M,M,-RA,M,M,M,M,M,M,59.00,KEKO 030556Z AUTO 23004KT 10SM -RA BKN060 OVC080 15/13 A3017 RMK AO2 RAB53 SLP172 P0000 60000 T01500128 10233 20150 51010,M
WMC,2023-09-03 05:56,-117.8072,40.9019,1315.00,62.00,58.00,86.72,40.00,3.00,T,30.08,1015.00,10.00,M,SCT,BKN,OVC,M,5000.00,9000.00,11000.00,M,-RA,M,M,M,M,M,M,62.00,KWMC 030556Z AUTO 04003KT 10SM -RA SCT050 BKN090 OVC110 17/14 A3008 RMK AO2 RAB39 SLP150 P0000 60000 T01670144 10206 20167 51007,M
NFL,2023-09-03 05:56,-118.7010,39.4166,1199.00,64.00,51.00,62.62,140.00,5.00,0.00,30.04,1014.20,10.00,M,FEW,M,M,M,5500.00,M,M,M,M,M,M,M,M,M,M,64.00,KNFL 030556Z AUTO 14005KT 10SM FEW055 18/11 A3004 RMK AO2 SLP142 T01780106 10239 20178 51010,M
HND,2023-09-03 05:56,-115.1344,35.9729,742.79,70.00,66.00,87.14,190.00,3.00,0.00,30.10,1018.80,10.00,M,CLR,M,M,M,M,M,M,M,M,M,M,M,M,M,M,70.00,KHND 030556Z AUTO 19003KT 10SM CLR 21/19 A3010 RMK AO2 SLP188 60005 T02110189 10233 20211 51007,M
TPH,2023-09-03 05:56,-117.0904,38.0505,1654.00,65.00,57.00,75.30,170.00,16.00,0.00,30.16,1014.80,10.00,22.00,OVC,M,M,M,11000.00,M,M,M,M,M,M,M,M,M,M,65.00,KTPH 030556Z AUTO 17016G22KT 10SM OVC110 18/14 A3016 RMK AO2 SLP148 T01830139 10244 20183 51013,M
LAS,2023-09-03 05:56,-115.1634,36.0719,663.00,73.00,66.00,78.70,0.00,0.00,0.00,30.06,1016.00,10.00,M,FEW,M,M,M,12000.00,M,M,M,M,M,M,M,M,M,M,73.00,KLAS 030556Z 00000KT 10SM FEW120 23/19 A3006 RMK AO2 SLP160 60002 T02280189 10244 20228 51007 $,M
05U,2023-09-03 06:05,-116.0051,39.6042,1811.23,60.80,55.40,82.37,M,M,0.00,30.21,M,10.00,M,OVC,M,M,M,3300.00,M,M,M,M,M,M,M,M,M,M,60.80,K05U 030605Z AUTO 10SM OVC033 16/13 A3021 RMK A01,M
BVU,2023-09-03 06:15,-114.8611,35.9475,671.00,73.40,66.20,78.19,80.00,6.00,0.00,30.05,M,10.00,M,CLR,M,M,M,M,M,M,M,M,M,M,M,M,M,M,73.40,KBVU 030615Z AUTO 08006KT 10SM CLR 23/19 A3005 RMK AO2,M
CXP,2023-09-03 06:15,-119.7326,39.1923,1431.00,55.40,51.80,87.65,70.00,3.00,0.00,30.11,M,10.00,M,FEW,FEW,M,M,6000.00,7500.00,M,M,M,M,M,M,M,M,M,55.40,KCXP 030615Z AUTO 07003KT 10SM FEW060 FEW075 13/11 A3011 RMK AO2,M
RTS,2023-09-03 06:15,-119.8764,39.6682,1539.00,53.60,48.20,81.87,310.00,4.00,0.00,30.13,M,10.00,M,OVC,M,M,M,10000.00,M,M,M,M,M,M,M,M,M,M,53.60,KRTS 030615Z AUTO 31004KT 10SM OVC100 12/09 A3013 RMK AO2,M
MEV,2023-09-03 06:15,-119.7500,38.9963,1441.42,53.60,42.80,66.70,30.00,4.00,0.00,30.09,M,10.00,M,BKN,M,M,M,6000.00,M,M,M,M,M,M,M,M,M,M,53.60,KMEV 030615Z AUTO 03004KT 10SM BKN060 12/06 A3009 RMK AO2,M
BAM,2023-09-03 06:15,-116.8743,40.5990,1382.36,60.80,59.00,93.79,0.00,0.00,0.00,30.17,M,10.00,M,SCT,OVC,M,M,7000.00,10000.00,M,M,M,M,M,M,M,M,M,60.80,KBAM 030615Z AUTO 00000KT 10SM SCT070 OVC100 16/15 A3017 RMK AO1,M
HTH,2023-09-03 06:15,-118.6315,38.5448,1282.89,66.20,57.20,72.74,310.00,3.00,0.00,30.06,M,10.00,M,BKN,OVC,M,M,6500.00,11000.00,M,M,M,M,M,M,M,M,M,66.20,KHTH 030615Z AUTO 31003KT 10SM BKN065 OVC110 19/14 A3006 RMK A01,M
TMT,2023-09-03 06:15,-117.1971,39.4643,1749.34,54.30,51.00,88.57,20.00,4.00,0.00,30.18,M,M,M,M,M,M,M,M,M,M,M,M,M,M,M,M,M,M,54.30,KTMT 030615Z AUTO 02004KT 12/11 A3018 RMK AO2 LTG DSNT NW T01240106 PWINO,M
10U,2023-09-03 06:20,-116.1876,41.9532,1637.00,57.20,51.80,82.12,M,M,0.00,30.17,M,10.00,M,FEW,SCT,OVC,M,2900.00,6500.00,7500.00,M,M,M,M,M,M,M,M,57.20,K10U 030620Z AUTO 10SM FEW029 SCT065 OVC075 14/11 A3017 RMK AO2,M
05U,2023-09-03 06:30,-116.0051,39.6042,1811.23,62.60,55.40,77.29,M,M,0.00,30.21,M,10.00,M,BKN,BKN,BKN,M,3400.00,9500.00,11000.00,M,M,M,M,M,M,M,M,62.60,K05U 030630Z AUTO 10SM BKN034 BKN095 BKN110 17/13 A3021 RMK A01,M
BVU,2023-09-03 06:35,-114.8611,35.9475,671.00,73.40,68.00,83.21,0.00,0.00,0.00,30.05,M,10.00,M,CLR,M,M,M,M,M,M,M,M,M,M,M,M,M,M,73.40,KBVU 030635Z AUTO 00000KT 10SM CLR 23/20 A3005 RMK AO2,M
CXP,2023-09-03 06:35,-119.7326,39.1923,1431.00,55.40,50.00,81.99,0.00,0.00,0.00,30.11,M,10.00,M,SCT,BKN,BKN,M,6000.00,7000.00,10000.00,M,M,M,M,M,M,M,M,55.40,KCXP 030635Z AUTO 00000KT 10SM SCT060 BKN070 BKN100 13/10 A3011 RMK AO2,M
RTS,2023-09-03 06:35,-119.8764,39.6682,1539.00,53.60,48.20,81.87,320.00,4.00,0.00,30.13,M,10.00,M,OVC,M,M,M,11000.00,M,M,M,M,M,M,M,M,M,M,53.60,KRTS 030635Z AUTO 32004KT 10SM OVC110 12/09 A3013 RMK AO2,M
MEV,2023-09-03 06:35,-119.7500,38.9963,1441.42,53.60,42.80,66.70,30.00,3.00,0.00,30.09,M,10.00,M,OVC,M,M,M,5500.00,M,M,M,M,M,M,M,M,M,M,53.60,KMEV 030635Z AUTO 03003KT 10SM OVC055 12/06 A3009 RMK AO2,M
BAM,2023-09-03 06:35,-116.8743,40.5990,1382.36,60.80,59.00,93.79,110.00,3.00,0.00,30.17,M,7.00,M,BKN,OVC,M,M,9000.00,10000.00,M,M,M,M,M,M,M,M,M,60.80,KBAM 030635Z AUTO 11003KT 7SM BKN090 OVC100 16/15 A3017 RMK AO1,M
HTH,2023-09-03 06:35,-118.6315,38.5448,1282.89,66.20,57.20,72.74,0.00,0.00,0.00,30.06,M,10.00,M,FEW,FEW,OVC,M,6500.00,8000.00,11000.00,M,M,M,M,M,M,M,M,66.20,KHTH 030635Z AUTO 00000KT 10SM FEW065 FEW080 OVC110 19/14 A3006 RMK A01,M
TMT,2023-09-03 06:35,-117.1971,39.4643,1749.34,53.20,50.40,90.18,350.00,6.00,0.00,30.16,M,M,M,M,M,M,M,M,M,M,M,M,M,M,M,M,M,M,53.20,KTMT 030635Z AUTO 35006KT 12/10 A3016 RMK AO2 T01180102 PWINO,M
10U,2023-09-03 06:40,-116.1876,41.9532,1637.00,57.20,53.60,87.74,M,M,0.00,30.15,M,10.00,M,FEW,SCT,BKN,M,3100.00,5000.00,6000.00,M,-RA,M,M,M,M,M,M,57.20,K10U 030640Z AUTO 10SM -RA FEW031 SCT050 BKN060 14/12 A3015 RMK AO2,M
05U,2023-09-03 06:45,-116.0051,39.6042,1811.23,62.60,55.40,77.29,M,M,0.00,30.20,M,10.00,M,FEW,SCT,BKN,M,3400.00,5500.00,9000.00,M,M,M,M,M,M,M,M,62.60,K05U 030645Z AUTO 10SM FEW034 SCT055 BKN090 17/13 A3020 RMK A01,M
P68,2023-09-03 06:53,-116.0056,39.6014,1993.00,63.00,55.00,75.11,160.00,16.00,0.00,30.17,1014.10,M,M,M,M,M,M,M,M,M,M,M,M,M,M,M,M,M,63.00,KP68 030653Z AUTO 16016KT 17/13 A3017 RMK AO1 SLP141 T01720128 $,M
DRA,2023-09-03 06:53,-116.0278,36.6206,1009.00,71.00,64.00,78.54,90.00,5.00,0.00,30.08,1014.40,10.00,M,OVC,M,M,M,6000.00,M,M,M,M,M,M,M,M,M,M,71.00,KDRA 030653Z AUTO 09005KT 10SM OVC060 22/18 A3008 RMK AO2 SLP144 T02170178,M
ELY,2023-09-03 06:53,-114.8453,39.2950,1909.00,56.00,53.00,89.64,220.00,9.00,0.00,30.25,1015.70,10.00,M,BKN,M,M,M,11000.00,M,M,M,M,M,M,M,M,M,M,56.00,KELY 030653Z AUTO 22009KT 10SM BKN110 13/12 A3025 RMK AO2 SLP157 T01330117,M
VGT,2023-09-03 06:53,-115.1933,36.2111,667.00,74.00,68.00,81.55,0.00,0.00,0.00,30.05,1017.30,10.00,M,CLR,M,M,M,M,M,M,M,M,M,M,M,M,M,M,74.00,KVGT 030653Z AUTO 00000KT 10SM CLR 23/20 A3005 RMK AO2 SLP173 T02330200 $,M
LOL,2023-09-03 06:53,-118.5701,40.0684,1192.43,64.00,49.00,58.13,350.00,7.00,0.00,30.03,1013.60,10.00,M,FEW,M,M,M,9500.00,M,M,M,M,M,M,M,M,M,M,64.00,KLOL 030653Z AUTO 35007KT 10SM FEW095 18/09 A3003 RMK AO2 SLP136 T01780094,M
BVU,2023-09-03 06:55,-114.8611,35.9475,671.00,71.60,66.20,83.09,50.00,4.00,0.00,30.05,M,10.00,M,CLR,M,M,M,M,M,M,M,M,M,M,M,M,M,M,71.60,KBVU 030655Z AUTO 05004KT 10SM CLR 22/19 A3005 RMK AO2,M
CXP,2023-09-03 06:55,-119.7326,39.1923,1431.00,57.20,50.00,76.82,0.00,0.00,0.00,30.11,M,10.00,M,FEW,BKN,BKN,M,6000.00,7000.00,10000.00,M,M,M,M,M,M,M,M,57.20,KCXP 030655Z AUTO 00000KT 10SM FEW060 BKN070 BKN100 14/10 A3011 RMK AO2,M
RNO,2023-09-03 06:55,-119.7711,39.4839,1341.00,57.00,53.00,86.45,130.00,3.00,0.00,30.10,1015.80,10.00,M,FEW,SCT,M,M,7000.00,11000.00,M,M,M,M,M,M,M,M,M,57.00,KRNO 030655Z 13003KT 10SM FEW070 SCT110 14/12 A3010 RMK AO2 SLP158 T01390117,M
RTS,2023-09-03 06:55,-119.8764,39.6682,1539.00,53.60,48.20,81.87,310.00,5.00,0.00,30.13,M,10.00,M,BKN,M,M,M,11000.00,M,M,M,M,M,M,M,M,M,M,53.60,KRTS 030655Z AUTO 31005KT 10SM BKN110 12/09 A3013 RMK AO2,M
MEV,2023-09-03 06:55,-119.7500,38.9963,1441.42,53.60,42.80,66.70,80.00,3.00,0.00,30.10,M,10.00,M,BKN,OVC,M,M,6000.00,7000.00,M,M,M,M,M,M,M,M,M,53.60,KMEV 030655Z AUTO 08003KT 10SM BKN060 OVC070 12/06 A3010 RMK AO2,M
BAM,2023-09-03 06:55,-116.8743,40.5990,1382.36,60.80,59.00,93.79,80.00,6.00,0.00,30.15,M,10.00,M,OVC,M,M,M,9000.00,M,M,M,M,M,M,M,M,M,M,60.80,KBAM 030655Z AUTO 08006KT 10SM OVC090 16/15 A3015 RMK AO1,M
HTH,2023-09-03 06:55,-118.6315,38.5448,1282.89,66.20,57.20,72.74,0.00,0.00,0.00,30.06,M,10.00,M,FEW,FEW,OVC,M,5500.00,6500.00,11000.00,M,M,M,M,M,M,M,M,66.20,KHTH 030655Z AUTO 00000KT 10SM FEW055 FEW065 OVC110 19/14 A3006 RMK A01,M
TMT,2023-09-03 06:55,-117.1971,39.4643,1749.34,53.00,51.00,92.89,340.00,7.00,0.00,30.16,M,M,M,M,M,M,M,M,M,M,M,M,M,M,M,M,M,M,53.00,KTMT 030655Z AUTO 34007KT 12/11 A3016 RMK AO2 T01160105 PWINO,M
INS,2023-09-03 06:55,-115.6733,36.5872,955.00,71.80,62.20,71.75,120.00,3.00,0.00,30.08,1014.50,10.00,M,FEW,M,M,M,15000.00,M,M,M,M,M,M,M,M,M,M,71.80,KINS 030655Z AUTO 12003KT 10SM FEW150 22/17 A3008 RMK AO2 SLP145 T02210168 $,M
LSV,2023-09-03 06:55,-115.0343,36.2362,570.00,72.70,72.30,98.66,50.00,4.00,0.00,30.02,1014.60,10.00,M,CLR,M,M,M,M,M,M,M,M,M,M,M,M,M,M,72.70,KLSV 030655Z AUTO 05004KT 10SM CLR 23/22 A3002 RMK AO2 SLP146 T02260224 $,M
EKO,2023-09-03 06:56,-115.7860,40.8242,1367.00,60.00,56.00,86.61,0.00,0.00,T,30.16,1016.40,10.00,M,BKN,BKN,OVC,M,4800.00,5500.00,7000.00,M,M,M,M,M,M,M,M,60.00,KEKO 030656Z AUTO 00000KT 10SM BKN048 BKN055 OVC070 16/13 A3016 RMK AO2 RAE05 SLP164 P0000 T01560133,M
WMC,2023-09-03 06:56,-117.8072,40.9019,1315.00,64.00,57.00,77.97,90.00,4.00,T,30.07,1014.40,10.00,M,SCT,BKN,M,M,10000.00,12000.00,M,M,M,M,M,M,M,M,M,64.00,KWMC 030656Z AUTO 09004KT 10SM SCT100 BKN120 18/14 A3007 RMK AO2 RAE05 SLP144 P0000 T01780139,M
NFL,2023-09-03 06:56,-118.7010,39.4166,1199.00,66.00,51.00,58.40,220.00,3.00,0.00,30.04,1014.20,10.00,M,OVC,M,M,M,8000.00,M,M,M,M,M,M,M,M,M,M,66.00,KNFL 030656Z AUTO 22003KT 10SM OVC080 19/11 A3004 RMK AO2 SLP142 T01890106,M
HND,2023-09-03 06:56,-115.1344,35.9729,742.79,69.00,66.00,90.17,160.00,3.00,0.00,30.09,1018.60,10.00,M,CLR,M,M,M,M,M,M,M,M,M,M,M,M,M,M,69.00,KHND 030656Z AUTO 16003KT 10SM CLR 21/19 A3009 RMK AO2 SLP186 T02060189 402670200,M
TPH,2023-09-03 06:56,-117.0904,38.0505,1654.00,65.00,57.00,75.30,160.00,10.00,0.00,30.17,1015.20,10.00,M,SCT,SCT,BKN,M,2300.00,3300.00,10000.00,M,M,M,M,M,M,M,M,65.00,KTPH 030656Z AUTO 16010KT 10SM SCT023 SCT033 BKN100 18/14 A3017 RMK AO2 SLP152 T01830139,M
LAS,2023-09-03 06:56,-115.1634,36.0719,663.00,73.00,66.00,78.70,0.00,0.00,0.00,30.06,1015.80,10.00,M,FEW,M,M,M,12000.00,M,M,M,M,M,M,M,M,M,M,73.00,KLAS 030656Z 00000KT 10SM FEW120 23/19 A3006 RMK AO2 SLP158 T02280189 $,M
10U,2023-09-03 07:00,-116.1876,41.9532,1637.00,57.20,51.80,82.12,M,M,0.00,30.15,M,10.00,M,FEW,BKN,OVC,M,3300.00,6000.00,7000.00,M,-RA,M,M,M,M,M,M,57.20,K10U 030700Z AUTO 10SM -RA FEW033 BKN060 OVC070 14/11 A3015 RMK AO2,M
05U,2023-09-03 07:05,-116.0051,39.6042,1811.23,62.60,55.40,77.29,M,M,0.00,30.19,M,10.00,M,FEW,FEW,OVC,M,4700.00,6500.00,9500.00,M,M,M,M,M,M,M,M,62.60,K05U 030705Z AUTO 10SM FEW047 FEW065 OVC095 17/13 A3019 RMK A01,M
BVU,2023-09-03 07:15,-114.8611,35.9475,671.00,73.40,66.20,78.19,60.00,3.00,0.00,30.05,M,10.00,M,CLR,M,M,M,M,M,M,M,M,M,M,M,M,M,M,73.40,KBVU 030715Z AUTO 06003KT 10SM CLR 23/19 A3005 RMK AO2,M
CXP,2023-09-03 07:15,-119.7326,39.1923,1431.00,55.40,50.00,81.99,190.00,3.00,0.00,30.11,M,10.00,M,FEW,SCT,SCT,M,6500.00,7500.00,9500.00,M,M,M,M,M,M,M,M,55.40,KCXP 030715Z AUTO 19003KT 10SM FEW065 SCT075 SCT095 13/10 A3011 RMK AO2,M
RTS,2023-09-03 07:15,-119.8764,39.6682,1539.00,53.60,46.40,76.50,320.00,3.00,0.00,30.14,M,10.00,M,SCT,SCT,M,M,10000.00,12000.00,M,M,M,M,M,M,M,M,M,53.60,KRTS 030715Z AUTO 32003KT 10SM SCT100 SCT120 12/08 A3014 RMK AO2,M
TPH,2023-09-03 07:15,-117.0904,38.0505,1654.00,66.00,57.00,72.72,160.00,10.00,0.00,30.17,M,10.00,M,BKN,BKN,BKN,M,2500.00,3600.00,4600.00,M,M,M,M,M,M,M,M,66.00,KTPH 030715Z AUTO 16010KT 10SM BKN025 BKN036 BKN046 19/14 A3017 RMK AO2 T01890139,M
MEV,2023-09-03 07:15,-119.7500,38.9963,1441.42,51.80,42.80,71.26,70.00,4.00,0.00,30.09,M,10.00,M,OVC,M,M,M,6500.00,M,M,M,M,M,M,M,M,M,M,51.80,KMEV 030715Z AUTO 07004KT 10SM OVC065 11/06 A3009 RMK AO2,M
BAM,2023-09-03 07:15,-116.8743,40.5990,1382.36,60.80,59.00,93.79,0.00,0.00,0.00,30.15,M,10.00,M,BKN,OVC,M,M,9000.00,11000.00,M,M,M,M,M,M,M,M,M,60.80,KBAM 030715Z AUTO 00000KT 10SM BKN090 OVC110 16/15 A3015 RMK AO1,M
HTH,2023-09-03 07:15,-118.6315,38.5448,1282.89,66.20,57.20,72.74,280.00,3.00,0.00,30.06,M,10.00,M,FEW,BKN,M,M,5500.00,11000.00,M,M,M,M,M,M,M,M,M,66.20,KHTH 030715Z AUTO 28003KT 10SM FEW055 BKN110 19/14 A3006 RMK A01,M
10U,2023-09-03 07:15,-116.1876,41.9532,1637.00,57.20,51.80,82.12,M,M,0.00,30.16,M,10.00,M,FEW,SCT,BKN,M,4000.00,5500.00,7500.00,M,M,M,M,M,M,M,M,57.20,K10U 030715Z AUTO 10SM FEW040 SCT055 BKN075 14/11 A3016 RMK AO2,M
TMT,2023-09-03 07:15,-117.1971,39.4643,1749.34,52.70,51.00,93.92,280.00,3.00,0.00,30.16,M,M,M,M,M,M,M,M,M,M,M,VCTS,M,M,M,M,M,M,52.70,KTMT 030715Z AUTO 28003KT VCTS 12/11 A3016 RMK AO2 T01150105,M
05U,2023-09-03 07:30,-116.0051,39.6042,1811.23,62.60,55.40,77.29,M,M,0.00,30.19,M,10.00,M,OVC,M,M,M,11000.00,M,M,M,M,M,M,M,M,M,M,62.60,K05U 030730Z AUTO 10SM OVC110 17/13 A3019 RMK A01,M
BVU,2023-09-03 07:35,-114.8611,35.9475,671.00,73.40,66.20,78.19,80.00,5.00,0.00,30.04,M,10.00,M,CLR,M,M,M,M,M,M,M,M,M,M,M,M,M,M,73.40,KBVU 030735Z AUTO 08005KT 10SM CLR 23/19 A3004 RMK AO2,M
CXP,2023-09-03 07:35,-119.7326,39.1923,1431.00,55.40,51.80,87.65,90.00,3.00,0.00,30.11,M,10.00,M,SCT,SCT,BKN,M,7000.00,7500.00,9500.00,M,M,M,M,M,M,M,M,55.40,KCXP 030735Z AUTO 09003KT 10SM SCT070 SCT075 BKN095 13/11 A3011 RMK AO2,M
RTS,2023-09-03 07:35,-119.8764,39.6682,1539.00,51.80,46.40,81.74,320.00,4.00,0.00,30.13,M,10.00,M,SCT,SCT,M,M,10000.00,12000.00,M,M,M,M,M,M,M,M,M,51.80,KRTS 030735Z AUTO 32004KT 10SM SCT100 SCT120 11/08 A3013 RMK AO2,M
MEV,2023-09-03 07:35,-119.7500,38.9963,1441.42,51.80,42.80,71.26,0.00,0.00,0.00,30.09,M,10.00,M,BKN,M,M,M,7000.00,M,M,M,M,M,M,M,M,M,M,51.80,KMEV 030735Z AUTO 00000KT 10SM BKN070 11/06 A3009 RMK AO2,M
BAM,2023-09-03 07:35,-116.8743,40.5990,1382.36,59.00,59.00,100.00,60.00,8.00,0.00,30.13,M,10.00,M,OVC,M,M,M,8000.00,M,M,M,M,M,M,M,M,M,M,59.00,KBAM 030735Z AUTO 06008KT 10SM OVC080 15/15 A3013 RMK AO1,M
HTH,2023-09-03 07:35,-118.6315,38.5448,1282.89,64.40,57.20,77.45,350.00,4.00,0.00,30.06,M,10.00,M,BKN,M,M,M,12000.00,M,M,M,M,M,M,M,M,M,M,64.40,KHTH 030735Z AUTO 35004KT 10SM BKN120 18/14 A3006 RMK A01,M
10U,2023-09-03 07:35,-116.1876,41.9532,1637.00,57.20,53.60,87.74,M,M,0.00,30.17,M,10.00,M,FEW,FEW,OVC,M,4400.00,6000.00,7500.00,M,M,M,M,M,M,M,M,57.20,K10U 030735Z AUTO 10SM FEW044 FEW060 OVC075 14/12 A3017 RMK AO2,M
TMT,2023-09-03 07:35,-117.1971,39.4643,1749.34,53.00,51.00,92.89,290.00,4.00,0.00,30.16,M,M,M,M,M,M,M,M,M,M,M,M,M,M,M,M,M,M,53.00,KTMT 030735Z AUTO 29004KT 12/11 A3016 RMK AO2 T01160105 PWINO,M
TPH,2023-09-03 07:45,-117.0904,38.0505,1654.00,65.00,58.00,78.06,190.00,15.00,0.00,30.16,M,10.00,22.00,SCT,BKN,BKN,M,2000.00,2500.00,3400.00,M,VCTS,M,M,M,M,M,M,65.00,KTPH 030745Z AUTO 19015G22KT 10SM VCTS SCT020 BKN025 BKN034 18/14 A3016 RMK AO2 LTG DSNT N AND NE T01830144,M
05U,2023-09-03 07:50,-116.0051,39.6042,1811.23,60.80,55.40,82.37,M,M,0.00,30.19,M,10.00,M,FEW,BKN,M,M,8500.00,11000.00,M,M,M,M,M,M,M,M,M,60.80,K05U 030750Z AUTO 10SM FEW085 BKN110 16/13 A3019 RMK A01,M
P68,2023-09-03 07:53,-116.0056,39.6014,1993.00,62.00,55.00,77.81,170.00,11.00,0.00,30.17,1014.50,M,M,M,M,M,M,M,M,M,M,M,M,M,M,M,M,M,62.00,KP68 030753Z AUTO 17011KT 17/13 A3017 RMK AO1 SLP145 T01670128 402060133 $,M
DRA,2023-09-03 07:53,-116.0278,36.6206,1009.00,70.00,63.00,78.46,300.00,6.00,0.00,30.07,1014.10,10.00,M,SCT,M,M,M,5500.00,M,M,M,M,M,M,M,M,M,M,70.00,KDRA 030753Z AUTO 30006KT 10SM SCT055 21/17 A3007 RMK AO2 SLP141 T02110172 402890178,M
ELY,2023-09-03 07:53,-114.8453,39.2950,1909.00,57.00,54.00,89.68,200.00,11.00,0.00,30.22,1014.50,10.00,M,BKN,M,M,M,10000.00,M,M,M,M,M,M,M,M,M,M,57.00,KELY 030753Z AUTO 20011KT 10SM BKN100 14/12 A3022 RMK AO2 SLP145 T01390122 402280122,M
VGT,2023-09-03 07:53,-115.1933,36.2111,667.00,74.00,69.00,84.40,0.00,0.00,0.00,30.04,1016.90,10.00,M,CLR,M,M,M,M,M,M,M,M,M,M,M,M,M,M,74.00,KVGT 030753Z AUTO 00000KT 10SM CLR 23/21 A3004 RMK AO2 SLP169 T02330206 402780217 $,M
LOL,2023-09-03 07:53,-118.5701,40.0684,1192.43,64.00,49.00,58.13,360.00,5.00,0.00,30.03,1013.30,10.00,M,SCT,OVC,M,M,4600.00,9000.00,M,M,M,M,M,M,M,M,M,64.00,KLOL 030753Z AUTO 36005KT 10SM SCT046 OVC090 18/09 A3003 RMK AO2 LTG DSNT E-S SLP133 T01780094 402500128,M
BVU,2023-09-03 07:55,-114.8611,35.9475,671.00,73.40,66.20,78.19,90.00,3.00,0.00,30.04,M,10.00,M,CLR,M,M,M,M,M,M,M,M,M,M,M,M,M,M,73.40,KBVU 030755Z AUTO 09003KT 10SM CLR 23/19 A3004 RMK AO2,M
CXP,2023-09-03 07:55,-119.7326,39.1923,1431.00,55.40,51.80,87.65,0.00,0.00,0.00,30.11,M,10.00,M,FEW,SCT,SCT,M,7000.00,8000.00,9500.00,M,M,M,M,M,M,M,M,55.40,KCXP 030755Z AUTO 00000KT 10SM FEW070 SCT080 SCT095 13/11 A3011 RMK AO2,M
RNO,2023-09-03 07:55,-119.7711,39.4839,1341.00,56.00,53.00,89.64,0.00,0.00,0.00,30.10,1015.80,10.00,M,SCT,BKN,M,M,7000.00,10000.00,M,M,M,M,M,M,M,M,M,56.00,KRNO 030755Z 00000KT 10SM SCT070 BKN100 13/12 A3010 RMK AO2 SLP158 T01330117 401890128,M
RTS,2023-09-03 07:55,-119.8764,39.6682,1539.00,51.80,46.40,81.74,300.00,3.00,0.00,30.14,M,10.00,M,CLR,M,M,M,M,M,M,M,M,M,M,M,M,M,M,51.80,KRTS 030755Z AUTO 30003KT 10SM CLR 11/08 A3014 RMK AO2,M
MEV,2023-09-03 07:55,-119.7500,38.9963,1441.42,51.80,42.80,71.26,0.00,0.00,0.00,30.10,M,10.00,M,FEW,M,M,M,7000.00,M,M,M,M,M,M,M,M,M,M,51.80,KMEV 030755Z AUTO 00000KT 10SM FEW070 11/06 A3010 RMK AO2,M
BAM,2023-09-03 07:55,-116.8743,40.5990,1382.36,60.80,59.00,93.79,70.00,10.00,0.00,30.12,M,10.00,M,SCT,BKN,BKN,M,8000.00,9500.00,12000.00,M,M,M,M,M,M,M,M,60.80,KBAM 030755Z AUTO 07010KT 10SM SCT080 BKN095 BKN120 16/15 A3012 RMK AO1,M
HTH,2023-09-03 07:55,-118.6315,38.5448,1282.89,64.40,57.20,77.45,0.00,0.00,0.00,30.06,M,10.00,M,BKN,M,M,M,11000.00,M,M,M,M,M,M,M,M,M,M,64.40,KHTH 030755Z AUTO 00000KT 10SM BKN110 18/14 A3006 RMK A01,M
TMT,2023-09-03 07:55,-117.1971,39.4643,1749.34,52.00,50.70,95.31,0.00,0.00,0.00,30.16,M,M,M,M,M,M,M,M,M,M,M,M,M,M,M,M,M,M,52.00,KTMT 030755Z AUTO 00000KT 11/10 A3016 RMK AO2 LTG DSNT W T01110104 402460105 PWINO,M
10U,2023-09-03 07:55,-116.1876,41.9532,1637.00,57.20,53.60,87.74,M,M,0.00,30.18,M,10.00,M,FEW,SCT,OVC,M,3800.00,6500.00,7500.00,M,M,M,M,M,M,M,M,57.20,K10U 030755Z AUTO 10SM FEW038 SCT065 OVC075 14/12 A3018 RMK AO2,M
INS,2023-09-03 07:55,-115.6733,36.5872,955.00,69.60,63.00,79.54,80.00,7.00,0.00,30.06,1013.80,10.00,M,CLR,M,M,M,M,M,M,M,M,M,M,M,M,M,M,69.60,KINS 030755Z AUTO 08007KT 10SM CLR 21/17 A3006 RMK AO2 SLP138 T02090173 402680182 $,M
LSV,2023-09-03 07:55,-115.0343,36.2362,570.00,71.40,71.00,98.65,0.00,0.00,0.00,30.01,1014.30,10.00,M,CLR,M,M,M,M,M,M,M,M,M,M,M,M,M,M,71.40,KLSV 030755Z AUTO 00000KT 10SM CLR 22/22 A3001 RMK AO2 SLP143 T02190217 402900210 $,M
EKO,2023-09-03 07:56,-115.7860,40.8242,1367.00,59.00,57.00,93.07,M,3.00,0.01,30.17,1016.70,10.00,M,FEW,OVC,M,M,1300.00,4400.00,M,M,-RA,M,M,M,M,M,M,59.00,KEKO 030756Z AUTO VRB03KT 10SM -RA FEW013 OVC044 15/14 A3017 RMK AO2 RAB45 SLP167 P0001 T01500139 402670133,M
WMC,2023-09-03 07:56,-117.8072,40.9019,1315.00,61.00,57.00,86.67,90.00,4.00,0.00,30.06,1014.10,10.00,M,CLR,M,M,M,M,M,M,M,M,M,M,M,M,M,M,61.00,KWMC 030756Z AUTO 09004KT 10SM CLR 16/14 A3006 RMK AO2 SLP141 T01610139 402610111,M
NFL,2023-09-03 07:56,-118.7010,39.4166,1199.00,66.00,50.00,56.27,270.00,7.00,0.00,30.04,1014.20,10.00,M,FEW,FEW,OVC,M,3200.00,6000.00,7500.00,M,M,M,M,M,M,M,M,66.00,KNFL 030756Z AUTO 27007KT 10SM FEW032 FEW060 OVC075 19/10 A3004 RMK AO2 SLP142 T01890100 402500117,M
HND,2023-09-03 07:56,-115.1344,35.9729,742.79,68.00,66.00,93.32,170.00,5.00,0.00,30.08,1018.20,10.00,M,CLR,M,M,M,M,M,M,M,M,M,M,M,M,M,M,68.00,KHND 030756Z AUTO 17005KT 10SM CLR 20/19 A3008 RMK AO2 SLP182 T02000189,M
TPH,2023-09-03 07:56,-117.0904,38.0505,1654.00,65.00,58.00,78.06,170.00,12.00,0.00,30.16,1014.70,10.00,22.00,SCT,BKN,BKN,M,2000.00,2800.00,12000.00,M,VCTS,M,M,M,M,M,M,65.00,KTPH 030756Z AUTO 17012G22KT 10SM VCTS SCT020 BKN028 BKN120 18/14 A3016 RMK AO2 LTG DSNT N AND NE CIG 025V039 SLP147 T01830144 402500150,M
LAS,2023-09-03 07:56,-115.1634,36.0719,663.00,73.00,67.00,81.48,0.00,0.00,0.00,30.04,1015.00,10.00,M,CLR,M,M,M,M,M,M,M,M,M,M,M,M,M,M,73.00,KLAS 030756Z 00000KT 10SM CLR 23/19 A3004 RMK AO2 SLP150 T02280194 403110200 $,M
05U,2023-09-03 08:00,-116.0051,39.6042,1811.23,60.80,55.40,82.37,M,M,0.00,30.19,M,10.00,M,FEW,BKN,BKN,M,7000.00,9500.00,11000.00,M,M,M,M,M,M,M,M,60.80,K05U 030800Z AUTO 10SM FEW070 BKN095 BKN110 16/13 A3019 RMK A01,M
TPH,2023-09-03 08:01,-117.0904,38.0505,1654.00,65.00,58.00,78.06,180.00,12.00,0.00,30.16,M,10.00,M,FEW,SCT,BKN,M,2000.00,2800.00,4200.00,M,M,M,M,M,M,M,M,65.00,KTPH 030801Z AUTO 18012KT 10SM FEW020 SCT028 BKN042 18/14 A3016 RMK AO2 LTG DSNT N T01830144,M
BVU,2023-09-03 08:15,-114.8611,35.9475,671.00,73.40,66.20,78.19,70.00,4.00,0.00,30.04,M,10.00,M,CLR,M,M,M,M,M,M,M,M,M,M,M,M,M,M,73.40,KBVU 030815Z AUTO 07004KT 10SM CLR 23/19 A3004 RMK AO2,M
CXP,2023-09-03 08:15,-119.7326,39.1923,1431.00,55.40,51.80,87.65,M,3.00,0.00,30.11,M,10.00,M,FEW,FEW,M,M,7000.00,9000.00,M,M,M,M,M,M,M,M,M,55.40,KCXP 030815Z AUTO VRB03KT 10SM FEW070 FEW090 13/11 A3011 RMK AO2,M
RTS,2023-09-03 08:15,-119.8764,39.6682,1539.00,51.80,46.40,81.74,310.00,7.00,0.00,30.14,M,10.00,M,SCT,SCT,M,M,7000.00,8000.00,M,M,M,M,M,M,M,M,M,51.80,KRTS 030815Z AUTO 31007KT 10SM SCT070 SCT080 11/08 A3014 RMK AO2,M
MEV,2023-09-03 08:15,-119.7500,38.9963,1441.42,50.00,42.80,76.18,0.00,0.00,0.00,30.09,M,10.00,M,CLR,M,M,M,M,M,M,M,M,M,M,M,M,M,M,50.00,KMEV 030815Z AUTO 00000KT 10SM CLR 10/06 A3009 RMK AO2,M
BAM,2023-09-03 08:15,-116.8743,40.5990,1382.36,59.00,57.20,93.74,70.00,9.00,0.00,30.13,M,10.00,M,SCT,BKN,M,M,8000.00,9500.00,M,M,M,M,M,M,M,M,M,59.00,KBAM 030815Z AUTO 07009KT 10SM SCT080 BKN095 15/14 A3013 RMK AO1,M
HTH,2023-09-03 08:15,-118.6315,38.5448,1282.89,64.40,57.20,77.45,300.00,6.00,0.00,30.06,M,10.00,M,BKN,M,M,M,11000.00,M,M,M,M,M,M,M,M,M,M,64.40,KHTH 030815Z AUTO 30006KT 10SM BKN110 18/14 A3006 RMK A01,M
TMT,2023-09-03 08:15,-117.1971,39.4643,1749.34,49.30,48.60,97.42,200.00,6.00,0.00,30.16,M,M,M,M,M,M,M,M,M,M,M,M,M,M,M,M,M,M,46.37,KTMT 030815Z AUTO 20006KT 10/09 A3016 RMK AO2 LTG DSNT N T00960092 PWINO,M
10U,2023-09-03 08:20,-116.1876,41.9532,1637.00,57.20,53.60,87.74,M,M,0.00,30.20,M,10.00,M,FEW,BKN,OVC,M,3500.00,5500.00,7000.00,M,-RA,M,M,M,M,M,M,57.20,K10U 030820Z AUTO 10SM -RA FEW035 BKN055 OVC070 14/12 A3020 RMK AO2,M
05U,2023-09-03 08:30,-116.0051,39.6042,1811.23,62.60,55.40,77.29,M,M,0.00,30.18,M,10.00,M,BKN,OVC,M,M,10000.00,12000.00,M,M,M,M,M,M,M,M,M,62.60,K05U 030830Z AUTO 10SM BKN100 OVC120 17/13 A3018 RMK A01,M
BVU,2023-09-03 08:35,-114.8611,35.9475,671.00,71.60,66.20,83.09,70.00,5.00,0.00,30.04,M,10.00,M,CLR,M,M,M,M,M,M,M,M,M,M,M,M,M,M,71.60,KBVU 030835Z AUTO 07005KT 10SM CLR 22/19 A3004 RMK AO2,M
CXP,2023-09-03 08:35,-119.7326,39.1923,1431.00,55.40,51.80,87.65,0.00,0.00,0.00,30.11,M,10.00,M,FEW,M,M,M,10000.00,M,M,M,M,M,M,M,M,M,M,55.40,KCXP 030835Z AUTO 00000KT 10SM FEW100 13/11 A3011 RMK AO2,M
RTS,2023-09-03 08:35,-119.8764,39.6682,1539.00,50.00,46.40,87.37,M,M,0.00,30.13,M,10.00,M,SCT,BKN,M,M,7000.00,8000.00,M,M,M,M,M,M,M,M,M,50.00,KRTS 030835Z AUTO 10SM SCT070 BKN080 10/08 A3013 RMK AO2,M
MEV,2023-09-03 08:35,-119.7500,38.9963,1441.42,51.80,44.60,76.34,0.00,0.00,0.00,30.10,M,10.00,M,FEW,SCT,M,M,4600.00,8000.00,M,M,M,M,M,M,M,M,M,51.80,KMEV 030835Z AUTO 00000KT 10SM FEW046 SCT080 11/07 A3010 RMK AO2,M
BAM,2023-09-03 08:35,-116.8743,40.5990,1382.36,59.00,59.00,100.00,60.00,9.00,0.00,30.12,M,10.00,M,SCT,BKN,OVC,M,5500.00,8000.00,9000.00,M,M,M,M,M,M,M,M,59.00,KBAM 030835Z AUTO 06009KT 10SM SCT055 BKN080 OVC090 15/15 A3012 RMK AO1,M
HTH,2023-09-03 08:35,-118.6315,38.5448,1282.89,64.40,57.20,77.45,280.00,5.00,0.00,30.06,M,10.00,M,FEW,BKN,M,M,8000.00,12000.00,M,M,M,M,M,M,M,M,M,64.40,KHTH 030835Z AUTO 28005KT 10SM FEW080 BKN120 18/14 A3006 RMK A01,M
10U,2023-09-03 08:35,-116.1876,41.9532,1637.00,57.20,53.60,87.74,M,M,0.00,30.19,M,10.00,M,SCT,SCT,OVC,M,2600.00,3600.00,6000.00,M,-DZ,M,M,M,M,M,M,57.20,K10U 030835Z AUTO 10SM -DZ SCT026 SCT036 OVC060 14/12 A3019 RMK AO2,M
TMT,2023-09-03 08:35,-117.1971,39.4643,1749.34,49.50,49.00,98.15,200.00,5.00,0.00,30.15,M,M,M,M,M,M,M,M,M,M,M,M,M,M,M,M,M,M,47.18,KTMT 030835Z AUTO 20005KT 10/10 A3015 RMK AO2 LTG DSNT N T00970095 PWINO,M
05U,2023-09-03 08:40,-116.0051,39.6042,1811.23,62.60,55.40,77.29,M,M,0.00,30.19,M,10.00,M,FEW,OVC,M,M,8000.00,11000.00,M,M,M,M,M,M,M,M,M,62.60,K05U 030840Z AUTO 10SM FEW080 OVC110 17/13 A3019 RMK A01,M
P68,2023-09-03 08:53,-116.0056,39.6014,1993.00,62.00,55.00,77.81,170.00,12.00,0.00,30.16,1014.00,M,M,M,M,M,M,M,M,M,M,M,M,M,M,M,M,M,62.00,KP68 030853Z AUTO 17012KT 17/13 A3016 RMK AO1 SLP140 T01670128 56007 $,M
DRA,2023-09-03 08:53,-116.0278,36.6206,1009.00,70.00,63.00,78.46,0.00,0.00,0.00,30.07,1014.00,10.00,M,BKN,M,M,M,5500.00,M,M,M,M,M,M,M,M,M,M,70.00,KDRA 030853Z AUTO 00000KT 10SM BKN055 21/17 A3007 RMK AO2 SLP140 T02110172 58003,M
ELY,2023-09-03 08:53,-114.8453,39.2950,1909.00,56.00,53.00,89.64,200.00,8.00,0.00,30.22,1014.10,10.00,M,CLR,M,M,M,M,M,M,M,M,M,M,M,M,M,M,56.00,KELY 030853Z AUTO 20008KT 10SM CLR 13/12 A3022 RMK AO2 SLP141 T01330117 58006,M
VGT,2023-09-03 08:53,-115.1933,36.2111,667.00,74.00,69.00,84.40,0.00,0.00,0.00,30.03,1016.60,10.00,M,CLR,M,M,M,M,M,M,M,M,M,M,M,M,M,M,74.00,KVGT 030853Z AUTO 00000KT 10SM CLR 23/21 A3003 RMK AO2 SLP166 T02330206 58007 $,M
LOL,2023-09-03 08:53,-118.5701,40.0684,1192.43,64.00,49.00,58.13,0.00,0.00,0.00,30.04,1013.80,10.00,M,SCT,OVC,M,M,4800.00,8500.00,M,M,M,M,M,M,M,M,M,64.00,KLOL 030853Z AUTO 00000KT 10SM SCT048 OVC085 18/09 A3004 RMK AO2 SLP138 T01780094 55001,M
TPH,2023-09-03 08:54,-117.0904,38.0505,1654.00,64.40,57.20,77.45,140.00,9.00,0.00,30.16,M,10.00,M,BKN,M,M,M,2100.00,M,M,M,M,M,M,M,M,M,M,64.40,KTPH 030854Z AUTO 14009KT 10SM BKN021 18/14 A3016 RMK AO2,M
BVU,2023-09-03 08:55,-114.8611,35.9475,671.00,71.60,66.20,83.09,70.00,4.00,0.00,30.04,M,10.00,M,CLR,M,M,M,M,M,M,M,M,M,M,M,M,M,M,71.60,KBVU 030855Z AUTO 07004KT 10SM CLR 22/19 A3004 RMK AO2,M
CXP,2023-09-03 08:55,-119.7326,39.1923,1431.00,55.40,50.00,81.99,0.00,0.00,0.00,30.10,M,10.00,M,BKN,M,M,M,9000.00,M,M,M,M,M,M,M,M,M,M,55.40,KCXP 030855Z AUTO 00000KT 10SM BKN090 13/10 A3010 RMK AO2,M
RNO,2023-09-03 08:55,-119.7711,39.4839,1341.00,56.00,53.00,89.64,0.00,0.00,0.00,30.10,1016.00,10.00,M,SCT,BKN,M,M,9000.00,15000.00,M,M,M,M,M,M,M,M,M,56.00,KRNO 030855Z 00000KT 10SM SCT090 BKN150 13/12 A3010 RMK AO2 SLP160 T01330117 50001,M
RTS,2023-09-03 08:55,-119.8764,39.6682,1539.00,50.00,46.40,87.37,0.00,0.00,0.00,30.13,M,10.00,M,FEW,FEW,M,M,7500.00,8500.00,M,M,M,M,M,M,M,M,M,50.00,KRTS 030855Z AUTO 00000KT 10SM FEW075 FEW085 10/08 A3013 RMK AO2,M
MEV,2023-09-03 08:55,-119.7500,38.9963,1441.42,53.60,44.60,71.45,50.00,4.00,0.00,30.08,M,10.00,M,FEW,BKN,M,M,4500.00,8000.00,M,M,M,M,M,M,M,M,M,53.60,KMEV 030855Z AUTO 05004KT 10SM FEW045 BKN080 12/07 A3008 RMK AO2,M
BAM,2023-09-03 08:55,-116.8743,40.5990,1382.36,59.00,59.00,100.00,50.00,11.00,0.00,30.12,M,10.00,15.00,OVC,M,M,M,5500.00,M,M,M,M,M,M,M,M,M,M,59.00,KBAM 030855Z AUTO 05011G15KT 10SM OVC055 15/15 A3012 RMK AO1,M
HTH,2023-09-03 08:55,-118.6315,38.5448,1282.89,64.40,57.20,77.45,290.00,5.00,0.00,30.06,M,10.00,M,BKN,M,M,M,12000.00,M,M,M,M,M,M,M,M,M,M,64.40,KHTH 030855Z AUTO 29005KT 10SM BKN120 18/14 A3006 RMK A01,M
TMT,2023-09-03 08:55,-117.1971,39.4643,1749.34,49.60,49.00,97.79,210.00,3.00,0.00,30.14,M,M,M,M,M,M,M,M,M,M,M,M,M,M,M,M,M,M,48.81,KTMT 030855Z AUTO 21003KT 10/09 A3014 RMK AO2 LTG DSNT N T00980094 PWINO,M
10U,2023-09-03 08:55,-116.1876,41.9532,1637.00,55.40,53.60,93.65,M,M,0.00,30.19,M,10.00,M,FEW,SCT,BKN,M,2400.00,4300.00,6000.00,M,M,M,M,M,M,M,M,55.40,K10U 030855Z AUTO 10SM FEW024 SCT043 BKN060 13/12 A3019 RMK AO2,M
INS,2023-09-03 08:55,-115.6733,36.5872,955.00,68.40,65.00,88.90,180.00,4.00,0.00,30.06,1014.00,10.00,M,CLR,M,M,M,M,M,M,M,M,M,M,M,M,M,M,68.40,KINS 030855Z AUTO 18004KT 10SM CLR 20/18 A3006 RMK AO2 SLP140 T02020183 58004 $,M
LSV,2023-09-03 08:55,-115.0343,36.2362,570.00,70.70,70.30,98.65,0.00,0.00,0.00,30.00,1013.90,10.00,M,CLR,M,M,M,M,M,M,M,M,M,M,M,M,M,M,70.70,KLSV 030855Z AUTO 00000KT 10SM CLR 22/21 A3000 RMK AO2 SLP139 T02150213 57007 $,M
EKO,2023-09-03 08:56,-115.7860,40.8242,1367.00,58.00,56.00,93.04,140.00,5.00,0.06,30.15,1016.40,10.00,M,SCT,BKN,OVC,M,4700.00,5500.00,7500.00,M,M,M,M,M,M,M,M,58.00,KEKO 030856Z AUTO 14005KT 10SM SCT047 BKN055 OVC075 14/13 A3015 RMK AO2 RAE37 SLP164 P0006 60007 T01440133 58005,M
WMC,2023-09-03 08:56,-117.8072,40.9019,1315.00,60.00,56.00,86.61,190.00,9.00,T,30.06,1013.80,10.00,M,BKN,OVC,M,M,9500.00,11000.00,M,M,-RA,M,M,M,M,M,M,60.00,KWMC 030856Z AUTO 19009KT 10SM -RA BKN095 OVC110 16/13 A3006 RMK AO2 RAB28 SLP138 P0000 60000 T01560133 56006,M
NFL,2023-09-03 08:56,-118.7010,39.4166,1199.00,65.00,50.00,58.26,260.00,7.00,0.00,30.04,1014.20,10.00,M,BKN,OVC,M,M,5000.00,8000.00,M,M,M,M,M,M,M,M,M,65.00,KNFL 030856Z AUTO 26007KT 10SM BKN050 OVC080 18/10 A3004 RMK AO2 SLP142 T01830100 57000,M
HND,2023-09-03 08:56,-115.1344,35.9729,742.79,68.00,66.00,93.32,160.00,4.00,0.00,30.08,1018.10,10.00,M,CLR,M,M,M,M,M,M,M,M,M,M,M,M,M,M,68.00,KHND 030856Z AUTO 16004KT 10SM CLR 20/19 A3008 RMK AO2 SLP181 T02000189 58006,M
TPH,2023-09-03 08:56,-117.0904,38.0505,1654.00,65.00,57.00,75.30,140.00,11.00,0.00,30.16,1014.20,10.00,16.00,BKN,M,M,M,2100.00,M,M,M,M,M,M,M,M,M,M,65.00,KTPH 030856Z AUTO 14011G16KT 10SM BKN021 18/14 A3016 RMK AO2 SLP142 T01830139 56003,M
LAS,2023-09-03 08:56,-115.1634,36.0719,663.00,72.00,67.00,84.28,0.00,0.00,0.00,30.04,1015.30,10.00,M,CLR,M,M,M,M,M,M,M,M,M,M,M,M,M,M,72.00,KLAS 030856Z 00000KT 10SM CLR 22/19 A3004 RMK AO2 SLP153 T02220194 55005 $,M
05U,2023-09-03 09:10,-116.0051,39.6042,1811.23,60.80,55.40,82.37,M,M,0.00,30.18,M,10.00,M,FEW,SCT,BKN,M,3600.00,4600.00,12000.00,M,M,M,M,M,M,M,M,60.80,K05U 030910Z AUTO 10SM FEW036 SCT046 BKN120 16/13 A3018 RMK A01,M
BVU,2023-09-03 09:15,-114.8611,35.9475,671.00,71.60,66.20,83.09,70.00,4.00,0.00,30.03,M,10.00,M,CLR,M,M,M,M,M,M,M,M,M,M,M,M,M,M,71.60,KBVU 030915Z AUTO 07004KT 10SM CLR 22/19 A3003 RMK AO2,M
CXP,2023-09-03 09:15,-119.7326,39.1923,1431.00,55.40,51.80,87.65,0.00,0.00,0.00,30.10,M,10.00,M,OVC,M,M,M,8500.00,M,M,M,M,M,M,M,M,M,M,55.40,KCXP 030915Z AUTO 00000KT 10SM OVC085 13/11 A3010 RMK AO2,M
RTS,2023-09-03 09:15,-119.8764,39.6682,1539.00,50.00,46.40,87.37,0.00,0.00,0.00,30.13,M,10.00,M,CLR,M,M,M,M,M,M,M,M,M,M,M,M,M,M,50.00,KRTS 030915Z AUTO 00000KT 10SM CLR 10/08 A3013 RMK AO2,M
MEV,2023-09-03 09:15,-119.7500,38.9963,1441.42,50.00,42.80,76.18,0.00,0.00,0.00,30.08,M,10.00,M,BKN,BKN,M,M,8000.00,9000.00,M,M,M,M,M,M,M,M,M,50.00,KMEV 030915Z AUTO 00000KT 10SM BKN080 BKN090 10/06 A3008 RMK AO2,M
BAM,2023-09-03 09:15,-116.8743,40.5990,1382.36,59.00,59.00,100.00,50.00,9.00,0.00,30.11,M,10.00,M,OVC,M,M,M,5500.00,M,M,M,M,M,M,M,M,M,M,59.00,KBAM 030915Z AUTO 05009KT 10SM OVC055 15/15 A3011 RMK AO1,M
HTH,2023-09-03 09:15,-118.6315,38.5448,1282.89,64.40,57.20,77.45,300.00,5.00,0.00,30.05,M,10.00,M,SCT,M,M,M,12000.00,M,M,M,M,M,M,M,M,M,M,64.40,KHTH 030915Z AUTO 30005KT 10SM SCT120 18/14 A3005 RMK A01,M
10U,2023-09-03 09:15,-116.1876,41.9532,1637.00,57.20,53.60,87.74,M,M,0.00,30.18,M,10.00,M,FEW,FEW,OVC,M,4300.00,4800.00,7500.00,M,M,M,M,M,M,M,M,57.20,K10U 030915Z AUTO 10SM FEW043 FEW048 OVC075 14/12 A3018 RMK AO2,M
TMT,2023-09-03 09:15,-117.1971,39.4643,1749.34,49.00,48.60,98.52,230.00,4.00,0.00,30.14,M,M,M,M,M,M,M,M,M,M,M,M,M,M,M,M,M,M,47.27,KTMT 030915Z AUTO 23004KT 09/09 A3014 RMK AO2 LTG DSNT N AND NW T00940092 PWINO,M
05U,2023-09-03 09:30,-116.0051,39.6042,1811.23,60.80,55.40,82.37,M,M,0.00,30.18,M,10.00,M,FEW,BKN,M,M,4700.00,12000.00,M,M,M,M,M,M,M,M,M,60.80,K05U 030930Z AUTO 10SM FEW047 BKN120 16/13 A3018 RMK A01,M
BVU,2023-09-03 09:35,-114.8611,35.9475,671.00,71.60,66.20,83.09,80.00,5.00,0.00,30.03,M,10.00,M,CLR,M,M,M,M,M,M,M,M,M,M,M,M,M,M,71.60,KBVU 030935Z AUTO 08005KT 10SM CLR 22/19 A3003 RMK AO2,M
CXP,2023-09-03 09:35,-119.7326,39.1923,1431.00,55.40,51.80,87.65,0.00,0.00,0.00,30.10,M,10.00,M,SCT,OVC,M,M,8000.00,9000.00,M,M,M,M,M,M,M,M,M,55.40,KCXP 030935Z AUTO 00000KT 10SM SCT080 OVC090 13/11 A3010 RMK AO2,M
RTS,2023-09-03 09:35,-119.8764,39.6682,1539.00,50.00,46.40,87.37,340.00,6.00,0.00,30.12,M,10.00,M,FEW,SCT,M,M,9000.00,11000.00,M,M,M,M,M,M,M,M,M,50.00,KRTS 030935Z AUTO 34006KT 10SM FEW090 SCT110 10/08 A3012 RMK AO2,M
MEV,2023-09-03 09:35,-119.7500,38.9963,1441.42,50.00,44.60,81.61,0.00,0.00,0.00,30.09,M,10.00,M,OVC,M,M,M,8000.00,M,M,M,M,M,M,M,M,M,M,50.00,KMEV 030935Z AUTO 00000KT 10SM OVC080 10/07 A3009 RMK AO2,M
BAM,2023-09-03 09:35,-116.8743,40.5990,1382.36,59.00,57.20,93.74,50.00,10.00,0.00,30.11,M,10.00,M,OVC,M,M,M,5000.00,M,M,M,M,M,M,M,M,M,M,59.00,KBAM 030935Z AUTO 05010KT 10SM OVC050 15/14 A3011 RMK AO1,M
HTH,2023-09-03 09:35,-118.6315,38.5448,1282.89,64.40,57.20,77.45,280.00,3.00,0.00,30.06,M,10.00,M,FEW,SCT,M,M,4400.00,12000.00,M,M,M,M,M,M,M,M,M,64.40,KHTH 030935Z AUTO 28003KT 10SM FEW044 SCT120 18/14 A3006 RMK A01,M
10U,2023-09-03 09:35,-116.1876,41.9532,1637.00,55.40,53.60,93.65,M,M,0.00,30.17,M,10.00,M,OVC,M,M,M,7500.00,M,M,M,M,M,M,M,M,M,M,55.40,K10U 030935Z AUTO 10SM OVC075 13/12 A3017 RMK AO2,M
TMT,2023-09-03 09:35,-117.1971,39.4643,1749.34,48.20,47.70,98.14,0.00,0.00,0.00,30.15,M,M,M,M,M,M,M,M,M,M,M,M,M,M,M,M,M,M,48.20,KTMT 030935Z AUTO 00000KT 09/09 A3015 RMK AO2 T00900087 PWINO,M
05U,2023-09-03 09:50,-116.0051,39.6042,1811.23,60.80,55.40,82.37,M,M,0.00,30.18,M,10.00,M,BKN,M,M,M,12000.00,M,M,M,M,M,M,M,M,M,M,60.80,K05U 030950Z AUTO 10SM BKN120 16/13 A3018 RMK A01,M
P68,2023-09-03 09:53,-116.0056,39.6014,1993.00,62.00,55.00,77.81,170.00,13.00,0.00,30.16,1014.00,M,20.00,M,M,M,M,M,M,M,M,M,M,M,M,M,M,M,62.00,KP68 030953Z AUTO 17013G20KT 17/13 A3016 RMK AO1 SLP140 T01670128 $,M
DRA,2023-09-03 09:53,-116.0278,36.6206,1009.00,68.00,64.00,87.03,110.00,4.00,0.00,30.06,1013.80,10.00,M,CLR,M,M,M,M,M,M,M,M,M,M,M,M,M,M,68.00,KDRA 030953Z AUTO 11004KT 10SM CLR 20/18 A3006 RMK AO2 SLP138 T02000178,M
ELY,2023-09-03 09:53,-114.8453,39.2950,1909.00,56.00,53.00,89.64,210.00,10.00,0.00,30.22,1015.00,10.00,19.00,CLR,M,M,M,M,M,M,M,M,M,M,M,M,M,M,56.00,KELY 030953Z AUTO 21010G19KT 10SM CLR 13/12 A3022 RMK AO2 SLP150 T01330117,M
VGT,2023-09-03 09:53,-115.1933,36.2111,667.00,73.00,69.00,87.29,0.00,0.00,0.00,30.03,1016.80,10.00,M,CLR,M,M,M,M,M,M,M,M,M,M,M,M,M,M,73.00,KVGT 030953Z AUTO 00000KT 10SM CLR 23/21 A3003 RMK AO2 SLP168 T02280206 $,M
LOL,2023-09-03 09:53,-118.5701,40.0684,1192.43,64.00,50.00,60.34,40.00,3.00,0.00,30.03,1013.60,10.00,M,BKN,M,M,M,8000.00,M,M,M,M,M,M,M,M,M,M,64.00,KLOL 030953Z AUTO 04003KT 10SM BKN080 18/10 A3003 RMK AO2 LTG DSNT E SLP136 T01780100,M
BVU,2023-09-03 09:55,-114.8611,35.9475,671.00,71.60,66.20,83.09,70.00,6.00,0.00,30.03,M,10.00,M,CLR,M,M,M,M,M,M,M,M,M,M,M,M,M,M,71.60,KBVU 030955Z AUTO 07006KT 10SM CLR 22/19 A3003 RMK AO2,M
CXP,2023-09-03 09:55,-119.7326,39.1923,1431.00,55.40,51.80,87.65,0.00,0.00,0.00,30.10,M,10.00,M,BKN,OVC,M,M,7500.00,9000.00,M,M,M,M,M,M,M,M,M,55.40,KCXP 030955Z AUTO 00000KT 10SM BKN075 OVC090 13/11 A3010 RMK AO2,M
RNO,2023-09-03 09:55,-119.7711,39.4839,1341.00,56.00,52.00,86.40,0.00,0.00,0.00,30.09,1015.80,10.00,M,SCT,BKN,M,M,8500.00,15000.00,M,M,M,M,M,M,M,M,M,56.00,KRNO 030955Z 00000KT 10SM SCT085 BKN150 13/11 A3009 RMK AO2 SLP158 T01330111,M
RTS,2023-09-03 09:55,-119.8764,39.6682,1539.00,50.00,46.40,87.37,330.00,4.00,0.00,30.13,M,10.00,M,SCT,OVC,M,M,9000.00,11000.00,M,M,M,M,M,M,M,M,M,50.00,KRTS 030955Z AUTO 33004KT 10SM SCT090 OVC110 10/08 A3013 RMK AO2,M
MEV,2023-09-03 09:55,-119.7500,38.9963,1441.42,50.00,44.60,81.61,0.00,0.00,0.00,30.09,M,10.00,M,BKN,OVC,M,M,7500.00,8500.00,M,M,M,M,M,M,M,M,M,50.00,KMEV 030955Z AUTO 00000KT 10SM BKN075 OVC085 10/07 A3009 RMK AO2,M
HTH,2023-09-03 09:55,-118.6315,38.5448,1282.89,64.40,59.00,82.62,0.00,0.00,0.00,30.06,M,10.00,M,CLR,M,M,M,M,M,M,M,M,M,M,M,M,M,M,64.40,KHTH 030955Z AUTO 00000KT 10SM CLR 18/15 A3006 RMK A01,M
BAM,2023-09-03 09:55,-116.8743,40.5990,1382.36,59.00,57.20,93.74,60.00,11.00,0.00,30.11,M,10.00,M,OVC,M,M,M,5000.00,M,M,M,M,M,M,M,M,M,M,59.00,KBAM 030955Z AUTO 06011KT 10SM OVC050 15/14 A3011 RMK AO1,M
05U,2023-09-03 09:55,-116.0051,39.6042,1811.23,62.60,55.40,77.29,M,M,0.00,30.18,M,10.00,M,FEW,BKN,M,M,7000.00,12000.00,M,M,M,M,M,M,M,M,M,62.60,K05U 030955Z AUTO 10SM FEW070 BKN120 17/13 A3018 RMK A01,M
INS,2023-09-03 09:55,-115.6733,36.5872,955.00,68.00,65.00,90.13,140.00,3.00,0.00,30.06,1014.00,10.00,M,CLR,M,M,M,M,M,M,M,M,M,M,M,M,M,M,68.00,KINS 030955Z AUTO 14003KT 10SM CLR 20/18 A3006 RMK AO2 SLP140 T01990184 $,M
LSV,2023-09-03 09:55,-115.0343,36.2362,570.00,70.00,69.80,99.32,0.00,0.00,0.00,30.00,1014.40,10.00,M,CLR,M,M,M,M,M,M,M,M,M,M,M,M,M,M,70.00,KLSV 030955Z AUTO 00000KT 10SM CLR 21/21 A3000 RMK AO2 SLP144 T02120210 $,M
EKO,2023-09-03 09:56,-115.7860,40.8242,1367.00,59.00,56.00,89.76,0.00,0.00,0.00,30.14,1015.90,10.00,M,BKN,OVC,M,M,4600.00,6000.00,M,M,M,M,M,M,M,M,M,59.00,KEKO 030956Z AUTO 00000KT 10SM BKN046 OVC060 15/13 A3014 RMK AO2 SLP159 T01500133,M
WMC,2023-09-03 09:56,-117.8072,40.9019,1315.00,59.00,56.00,89.76,180.00,6.00,0.06,30.06,1014.30,10.00,M,FEW,BKN,OVC,M,6500.00,8500.00,10000.00,M,VCTS -RA,M,M,M,M,M,M,59.00,KWMC 030956Z AUTO 18006KT 10SM VCTS -RA FEW065 BKN085 OVC100 15/13 A3006 RMK AO2 LTG DSNT SE AND NW SLP143 P0006 T01500133,M
HND,2023-09-03 09:56,-115.1344,35.9729,742.79,67.00,65.00,93.29,170.00,4.00,0.00,30.07,1018.10,10.00,M,CLR,M,M,M,M,M,M,M,M,M,M,M,M,M,M,67.00,KHND 030956Z AUTO 17004KT 10SM CLR 19/18 A3007 RMK AO2 SLP181 T01940183,M
TPH,2023-09-03 09:56,-117.0904,38.0505,1654.00,63.00,57.00,80.76,140.00,10.00,0.00,30.15,1014.00,10.00,M,OVC,M,M,M,1600.00,M,M,M,M,M,M,M,M,M,M,63.00,KTPH 030956Z AUTO 14010KT 10SM OVC016 17/14 A3015 RMK AO2 SLP140 T01720139,M
LAS,2023-09-03 09:56,-115.1634,36.0719,663.00,71.00,67.00,87.19,210.00,3.00,0.00,30.03,1015.00,10.00,M,CLR,M,M,M,M,M,M,M,M,M,M,M,M,M,M,71.00,KLAS 030956Z 21003KT 10SM CLR 22/19 A3003 RMK AO2 SLP150 T02170194 $,M
NFL,2023-09-03 09:56,-118.7010,39.4166,1199.00,63.00,52.00,67.29,270.00,3.00,0.00,30.03,1013.90,10.00,M,FEW,SCT,BKN,M,5000.00,8000.00,10000.00,M,M,M,M,M,M,M,M,63.00,KNFL 030956Z AUTO 27003KT 10SM FEW050 SCT080 BKN100 17/11 A3003 RMK AO2 SLP139 T01720111,M
10U,2023-09-03 10:00,-116.1876,41.9532,1637.00,55.40,53.60,93.65,M,M,0.00,30.16,M,10.00,M,FEW,BKN,OVC,M,2800.00,6000.00,7500.00,M,-RA,M,M,M,M,M,M,55.40,K10U 031000Z AUTO 10SM -RA FEW028 BKN060 OVC075 13/12 A3016 RMK AO2,M
WMC,2023-09-03 10:11,-117.8072,40.9019,1315.00,59.00,56.00,89.76,200.00,9.00,T,30.06,M,10.00,M,FEW,SCT,OVC,M,2900.00,8000.00,11000.00,M,M,M,M,M,M,M,M,59.00,KWMC 031011Z AUTO 20009KT 10SM FEW029 SCT080 OVC110 15/13 A3006 RMK AO2 LTG DSNT SE AND NW RAE05 P0000 T01500133,M
BVU,2023-09-03 10:15,-114.8611,35.9475,671.00,71.60,66.20,83.09,70.00,5.00,0.00,30.03,M,10.00,M,CLR,M,M,M,M,M,M,M,M,M,M,M,M,M,M,71.60,KBVU 031015Z AUTO 07005KT 10SM CLR 22/19 A3003 RMK AO2,M
CXP,2023-09-03 10:15,-119.7326,39.1923,1431.00,57.20,50.00,76.82,0.00,0.00,0.00,30.10,M,10.00,M,BKN,OVC,M,M,7500.00,9000.00,M,M,M,M,M,M,M,M,M,57.20,KCXP 031015Z AUTO 00000KT 10SM BKN075 OVC090 14/10 A3010 RMK AO2,M
RTS,2023-09-03 10:15,-119.8764,39.6682,1539.00,50.00,48.20,93.50,350.00,4.00,0.00,30.12,M,10.00,M,OVC,M,M,M,9000.00,M,M,M,M,M,M,M,M,M,M,50.00,KRTS 031015Z AUTO 35004KT 10SM OVC090 10/09 A3012 RMK AO2,M
MEV,2023-09-03 10:15,-119.7500,38.9963,1441.42,51.80,46.40,81.74,0.00,0.00,0.00,30.08,M,10.00,M,BKN,OVC,M,M,7000.00,8500.00,M,M,M,M,M,M,M,M,M,51.80,KMEV 031015Z AUTO 00000KT 10SM BKN070 OVC085 11/08 A3008 RMK AO2,M
BAM,2023-09-03 10:15,-116.8743,40.5990,1382.36,59.00,57.20,93.74,60.00,8.00,0.00,30.11,M,10.00,M,OVC,M,M,M,5000.00,M,M,M,M,M,M,M,M,M,M,59.00,KBAM 031015Z AUTO 06008KT 10SM OVC050 15/14 A3011 RMK AO1,M
HTH,2023-09-03 10:15,-118.6315,38.5448,1282.89,62.60,59.00,88.00,M,4.00,0.00,30.06,M,10.00,M,CLR,M,M,M,M,M,M,M,M,M,M,M,M,M,M,62.60,KHTH 031015Z AUTO VRB04KT 10SM CLR 17/15 A3006 RMK A01,M
TMT,2023-09-03 10:15,-117.1971,39.4643,1749.34,50.00,50.00,100.00,340.00,3.00,0.00,30.13,M,M,M,M,M,M,M,M,M,M,M,M,M,M,M,M,M,M,50.00,KTMT 031015Z AUTO 34003KT 10/10 A3013 RMK AO2 LTG DSNT W T01010100 PWINO,M
10U,2023-09-03 10:20,-116.1876,41.9532,1637.00,55.40,53.60,93.65,M,M,0.00,30.13,M,10.00,M,FEW,FEW,OVC,M,200.00,2700.00,6000.00,M,-RA,M,M,M,M,M,M,55.40,K10U 031020Z AUTO 10SM -RA FEW002 FEW027 OVC060 13/12 A3013 RMK AO2,M
05U,2023-09-03 10:30,-116.0051,39.6042,1811.23,60.80,55.40,82.37,M,M,0.00,30.17,M,10.00,M,SCT,BKN,M,M,9500.00,12000.00,M,M,M,M,M,M,M,M,M,60.80,K05U 031030Z AUTO 10SM SCT095 BKN120 16/13 A3017 RMK A01,M
BVU,2023-09-03 10:35,-114.8611,35.9475,671.00,71.60,66.20,83.09,50.00,4.00,0.00,30.02,M,10.00,M,CLR,M,M,M,M,M,M,M,M,M,M,M,M,M,M,71.60,KBVU 031035Z AUTO 05004KT 10SM CLR 22/19 A3002 RMK AO2,M
CXP,2023-09-03 10:35,-119.7326,39.1923,1431.00,55.40,50.00,81.99,230.00,4.00,0.00,30.10,M,10.00,M,BKN,BKN,M,M,8000.00,9000.00,M,M,M,M,M,M,M,M,M,55.40,KCXP 031035Z AUTO 23004KT 10SM BKN080 BKN090 13/10 A3010 RMK AO2,M
RTS,2023-09-03 10:35,-119.8764,39.6682,1539.00,50.00,46.40,87.37,350.00,4.00,0.00,30.11,M,10.00,M,OVC,M,M,M,9000.00,M,M,M,M,M,M,M,M,M,M,50.00,KRTS 031035Z AUTO 35004KT 10SM OVC090 10/08 A3011 RMK AO2,M
MEV,2023-09-03 10:35,-119.7500,38.9963,1441.42,53.60,46.40,76.50,0.00,0.00,0.00,30.08,M,10.00,M,SCT,BKN,M,M,7500.00,9000.00,M,M,M,M,M,M,M,M,M,53.60,KMEV 031035Z AUTO 00000KT 10SM SCT075 BKN090 12/08 A3008 RMK AO2,M
BAM,2023-09-03 10:35,-116.8743,40.5990,1382.36,59.00,57.20,93.74,360.00,12.00,0.00,30.11,M,10.00,M,OVC,M,M,M,5000.00,M,M,M,M,M,M,M,M,M,M,59.00,KBAM 031035Z AUTO 36012KT 10SM OVC050 15/14 A3011 RMK AO1,M
HTH,2023-09-03 10:35,-118.6315,38.5448,1282.89,62.60,59.00,88.00,300.00,6.00,0.00,30.06,M,10.00,M,CLR,M,M,M,M,M,M,M,M,M,M,M,M,M,M,62.60,KHTH 031035Z AUTO 30006KT 10SM CLR 17/15 A3006 RMK A01,M
10U,2023-09-03 10:35,-116.1876,41.9532,1637.00,55.40,53.60,93.65,M,M,0.00,30.13,M,10.00,M,BKN,BKN,OVC,M,6000.00,7000.00,7500.00,M,M,M,M,M,M,M,M,55.40,K10U 031035Z AUTO 10SM BKN060 BKN070 OVC075 13/12 A3013 RMK AO2,M
TMT,2023-09-03 10:35,-117.1971,39.4643,1749.34,49.00,48.60,98.52,0.00,0.00,0.00,30.13,M,M,M,M,M,M,M,M,M,M,M,VCTS,M,M,M,M,M,M,49.00,KTMT 031035Z AUTO 00000KT VCTS 10/09 A3013 RMK AO2 LTG DSNT W T00950092,M
05U,2023-09-03 10:45,-116.0051,39.6042,1811.23,60.80,55.40,82.37,M,M,0.00,30.17,M,10.00,M,FEW,BKN,M,M,7500.00,9000.00,M,M,M,M,M,M,M,M,M,60.80,K05U 031045Z AUTO 10SM FEW075 BKN090 16/13 A3017 RMK A01,M
P68,2023-09-03 10:53,-116.0056,39.6014,1993.00,60.00,55.00,83.53,150.00,11.00,0.00,30.15,1013.70,M,19.00,M,M,M,M,M,M,M,M,M,M,M,M,M,M,M,60.00,KP68 031053Z AUTO 15011G19KT 16/13 A3015 RMK AO1 SLP137 T01560128 $,M
DRA,2023-09-03 10:53,-116.0278,36.6206,1009.00,69.00,64.00,84.09,0.00,0.00,0.00,30.06,1013.60,10.00,M,CLR,M,M,M,M,M,M,M,M,M,M,M,M,M,M,69.00,KDRA 031053Z AUTO 00000KT 10SM CLR 21/18 A3006 RMK AO2 SLP136 T02060178,M
ELY,2023-09-03 10:53,-114.8453,39.2950,1909.00,57.00,53.00,86.45,200.00,8.00,T,30.22,1015.80,10.00,M,FEW,FEW,M,M,2600.00,5500.00,M,M,M,M,M,M,M,M,M,57.00,KELY 031053Z AUTO 20008KT 10SM FEW026 FEW055 14/12 A3022 RMK AO2 RAB09E35 SLP158 P0000 T01390117,M
VGT,2023-09-03 10:53,-115.1933,36.2111,667.00,73.00,68.00,84.34,0.00,0.00,0.00,30.02,1016.30,10.00,M,CLR,M,M,M,M,M,M,M,M,M,M,M,M,M,M,73.00,KVGT 031053Z AUTO 00000KT 10SM CLR 23/20 A3002 RMK AO2 SLP163 T02280200 $,M
LOL,2023-09-03 10:53,-118.5701,40.0684,1192.43,58.00,49.00,71.91,0.00,0.00,0.00,30.03,1013.80,10.00,M,BKN,BKN,M,M,4900.00,8000.00,M,M,M,M,M,M,M,M,M,58.00,KLOL 031053Z AUTO 00000KT 10SM BKN049 BKN080 14/09 A3003 RMK AO2 LTG DSNT E-S SLP138 T01440094,M
BVU,2023-09-03 10:55,-114.8611,35.9475,671.00,71.60,66.20,83.09,60.00,5.00,0.00,30.02,M,10.00,M,CLR,M,M,M,M,M,M,M,M,M,M,M,M,M,M,71.60,KBVU 031055Z AUTO 06005KT 10SM CLR 22/19 A3002 RMK AO2,M
CXP,2023-09-03 10:55,-119.7326,39.1923,1431.00,57.20,48.20,71.83,M,3.00,0.00,30.09,M,10.00,M,SCT,BKN,M,M,8000.00,9000.00,M,M,M,M,M,M,M,M,M,57.20,KCXP 031055Z AUTO VRB03KT 10SM SCT080 BKN090 14/09 A3009 RMK AO2,M
RNO,2023-09-03 10:55,-119.7711,39.4839,1341.00,54.00,50.00,86.29,0.00,0.00,0.00,30.09,1015.70,10.00,M,FEW,SCT,M,M,8500.00,15000.00,M,M,M,M,M,M,M,M,M,54.00,KRNO 031055Z 00000KT 10SM FEW085 SCT150 12/10 A3009 RMK AO2 SLP157 T01220100,M
RTS,2023-09-03 10:55,-119.8764,39.6682,1539.00,50.00,46.40,87.37,290.00,6.00,0.00,30.13,M,10.00,M,SCT,OVC,M,M,7500.00,9000.00,M,M,M,M,M,M,M,M,M,50.00,KRTS 031055Z AUTO 29006KT 10SM SCT075 OVC090 10/08 A3013 RMK AO2,M
MEV,2023-09-03 10:55,-119.7500,38.9963,1441.42,50.00,44.60,81.61,0.00,0.00,0.00,30.08,M,10.00,M,FEW,BKN,M,M,7500.00,9000.00,M,M,M,M,M,M,M,M,M,50.00,KMEV 031055Z AUTO 00000KT 10SM FEW075 BKN090 10/07 A3008 RMK AO2,M
HTH,2023-09-03 10:55,-118.6315,38.5448,1282.89,62.60,57.20,82.50,320.00,6.00,0.00,30.05,M,10.00,M,CLR,M,M,M,M,M,M,M,M,M,M,M,M,M,M,62.60,KHTH 031055Z AUTO 32006KT 10SM CLR 17/14 A3005 RMK A01,M
BAM,2023-09-03 10:55,-116.8743,40.5990,1382.36,60.80,55.40,82.37,20.00,7.00,0.00,30.10,M,10.00,M,BKN,OVC,M,M,4800.00,6000.00,M,M,M,M,M,M,M,M,M,60.80,KBAM 031055Z AUTO 02007KT 10SM BKN048 OVC060 16/13 A3010 RMK AO1,M
TMT,2023-09-03 10:55,-117.1971,39.4643,1749.34,47.50,47.30,99.25,0.00,0.00,0.00,30.13,M,M,M,BKN,M,M,M,6000.00,M,M,M,M,M,M,M,M,M,M,47.50,KTMT 031055Z AUTO 00000KT BKN060 09/09 A3013 RMK AO2 LTG DSNT N AND NW T00860085 PWINO,M
10U,2023-09-03 10:55,-116.1876,41.9532,1637.00,57.20,53.60,87.74,M,M,0.00,30.14,M,10.00,M,FEW,BKN,OVC,M,4900.00,7000.00,8000.00,M,M,M,M,M,M,M,M,57.20,K10U 031055Z AUTO 10SM FEW049 BKN070 OVC080 14/12 A3014 RMK AO2,M
INS,2023-09-03 10:55,-115.6733,36.5872,955.00,67.00,65.70,95.59,210.00,5.00,0.00,30.06,1013.80,10.00,M,CLR,M,M,M,M,M,M,M,M,M,M,M,M,M,M,67.00,KINS 031055Z AUTO 21005KT 10SM CLR 20/19 A3006 RMK AO2 SLP138 T01950187 $,M
LSV,2023-09-03 10:55,-115.0343,36.2362,570.00,70.00,69.60,98.64,30.00,3.00,0.00,29.98,1013.50,10.00,M,CLR,M,M,M,M,M,M,M,M,M,M,M,M,M,M,70.00,KLSV 031055Z AUTO 03003KT 10SM CLR 21/21 A2998 RMK AO2 SLP135 T02110209 $,M
EKO,2023-09-03 10:56,-115.7860,40.8242,1367.00,58.00,56.00,93.04,90.00,3.00,0.00,30.13,1015.90,10.00,M,BKN,BKN,M,M,4100.00,5000.00,M,M,M,M,M,M,M,M,M,58.00,KEKO 031056Z AUTO 09003KT 10SM BKN041 BKN050 14/13 A3013 RMK AO2 SLP159 T01440133,M
WMC,2023-09-03 10:56,-117.8072,40.9019,1315.00,59.00,56.00,89.76,170.00,7.00,T,30.06,1014.20,10.00,M,FEW,OVC,M,M,6500.00,9000.00,M,M,-RA,M,M,M,M,M,M,59.00,KWMC 031056Z AUTO 17007KT 10SM -RA FEW065 OVC090 15/13 A3006 RMK AO2 LTG DSNT SE AND SW RAE05B38 SLP142 P0000 T01500133,M
NFL,2023-09-03 10:56,-118.7010,39.4166,1199.00,63.00,52.00,67.29,280.00,4.00,0.00,30.03,1014.00,10.00,M,BKN,OVC,M,M,3400.00,4200.00,M,M,M,M,M,M,M,M,M,63.00,KNFL 031056Z AUTO 28004KT 10SM BKN034 OVC042 17/11 A3003 RMK AO2 SLP140 T01720111,M
HND,2023-09-03 10:56,-115.1344,35.9729,742.79,67.00,65.00,93.29,190.00,3.00,0.00,30.06,1017.60,10.00,M,CLR,M,M,M,M,M,M,M,M,M,M,M,M,M,M,67.00,KHND 031056Z AUTO 19003KT 10SM CLR 19/18 A3006 RMK AO2 SLP176 T01940183,M
TPH,2023-09-03 10:56,-117.0904,38.0505,1654.00,62.00,57.00,83.65,130.00,4.00,0.00,30.15,1014.00,10.00,M,BKN,BKN,M,M,1900.00,2600.00,M,M,M,M,M,M,M,M,M,62.00,KTPH 031056Z AUTO 13004KT 10SM BKN019 BKN026 17/14 A3015 RMK AO2 SLP140 T01670139,M
LAS,2023-09-03 10:56,-115.1634,36.0719,663.00,71.00,66.00,84.22,0.00,0.00,0.00,30.02,1014.70,10.00,M,CLR,M,M,M,M,M,M,M,M,M,M,M,M,M,M,71.00,KLAS 031056Z 00000KT 10SM CLR 22/19 A3002 RMK AO2 SLP147 T02170189 $,M
LOL,2023-09-03 11:10,-118.5701,40.0684,1192.43,61.00,50.00,67.06,20.00,3.00,0.00,30.03,M,10.00,M,BKN,OVC,M,M,3800.00,5000.00,M,M,VCTS,M,M,M,M,M,M,61.00,KLOL 031110Z AUTO 02003KT 10SM VCTS BKN038 OVC050 16/10 A3003 RMK AO2 LTG DSNT NE-SE T01610100,M
05U,2023-09-03 11:10,-116.0051,39.6042,1811.23,59.00,55.40,87.83,M,M,0.00,30.17,M,10.00,M,FEW,M,M,M,8500.00,M,M,M,M,M,M,M,M,M,M,59.00,K05U 031110Z AUTO 10SM FEW085 15/13 A3017 RMK A01,M
BVU,2023-09-03 11:15,-114.8611,35.9475,671.00,71.60,66.20,83.09,70.00,5.00,0.00,30.02,M,10.00,M,CLR,M,M,M,M,M,M,M,M,M,M,M,M,M,M,71.60,KBVU 031115Z AUTO 07005KT 10SM CLR 22/19 A3002 RMK AO2,M
CXP,2023-09-03 11:15,-119.7326,39.1923,1431.00,55.40,48.20,76.66,0.00,0.00,0.00,30.09,M,10.00,M,BKN,M,M,M,8500.00,M,M,M,M,M,M,M,M,M,M,55.40,KCXP 031115Z AUTO 00000KT 10SM BKN085 13/09 A3009 RMK AO2,M
RTS,2023-09-03 11:15,-119.8764,39.6682,1539.00,51.80,48.20,87.47,360.00,5.00,0.00,30.12,M,10.00,M,FEW,SCT,BKN,M,5000.00,7000.00,9000.00,M,M,M,M,M,M,M,M,51.80,KRTS 031115Z AUTO 36005KT 10SM FEW050 SCT070 BKN090 11/09 A3012 RMK AO2,M
TPH,2023-09-03 11:15,-117.0904,38.0505,1654.00,61.00,57.00,86.67,110.00,4.00,0.00,30.15,M,10.00,M,SCT,M,M,M,1800.00,M,M,M,M,M,M,M,M,M,M,61.00,KTPH 031115Z AUTO 11004KT 10SM SCT018 16/14 A3015 RMK AO2 T01610139,M
MEV,2023-09-03 11:15,-119.7500,38.9963,1441.42,48.20,42.80,81.47,60.00,4.00,0.00,30.08,M,10.00,M,FEW,FEW,SCT,M,4300.00,5500.00,8500.00,M,M,M,M,M,M,M,M,46.34,KMEV 031115Z AUTO 06004KT 10SM FEW043 FEW055 SCT085 09/06 A3008 RMK AO2,M
BAM,2023-09-03 11:15,-116.8743,40.5990,1382.36,60.80,59.00,93.79,330.00,5.00,0.00,30.11,M,10.00,M,BKN,OVC,M,M,4800.00,6000.00,M,M,M,M,M,M,M,M,M,60.80,KBAM 031115Z AUTO 33005KT 10SM BKN048 OVC060 16/15 A3011 RMK AO1,M
HTH,2023-09-03 11:15,-118.6315,38.5448,1282.89,62.60,57.20,82.50,290.00,6.00,0.00,30.05,M,10.00,M,CLR,M,M,M,M,M,M,M,M,M,M,M,M,M,M,62.60,KHTH 031115Z AUTO 29006KT 10SM CLR 17/14 A3005 RMK A01,M
TMT,2023-09-03 11:15,-117.1971,39.4643,1749.34,47.50,47.30,99.25,0.00,0.00,0.00,30.12,M,M,M,BKN,M,M,M,6000.00,M,M,M,M,M,M,M,M,M,M,47.50,KTMT 031115Z AUTO 00000KT BKN060 09/09 A3012 RMK AO2 LTG DSNT W THRU N T00860085 PWINO,M
10U,2023-09-03 11:20,-116.1876,41.9532,1637.00,55.40,51.80,87.65,M,M,0.00,30.15,M,10.00,M,SCT,OVC,M,M,6000.00,7000.00,M,M,M,M,M,M,M,M,M,55.40,K10U 031120Z AUTO 10SM SCT060 OVC070 13/11 A3015 RMK AO2,M
WMC,2023-09-03 11:20,-117.8072,40.9019,1315.00,58.00,56.00,93.04,60.00,4.00,0.02,30.05,M,10.00,M,FEW,OVC,M,M,4100.00,8500.00,M,M,VCTS -RA,M,M,M,M,M,M,58.00,KWMC 031120Z AUTO 06004KT 10SM VCTS -RA FEW041 OVC085 14/13 A3005 RMK AO2 LTG DSNT SW-NW P0002 T01440133,M
LOL,2023-09-03 11:25,-118.5701,40.0684,1192.43,61.00,50.00,67.06,330.00,3.00,0.00,30.02,M,10.00,M,BKN,BKN,OVC,M,3900.00,6000.00,9000.00,M,M,M,M,M,M,M,M,61.00,KLOL 031125Z AUTO 33003KT 10SM BKN039 BKN060 OVC090 16/10 A3002 RMK AO2 LTG DSNT NE-SE T01610100,M
05U,2023-09-03 11:30,-116.0051,39.6042,1811.23,59.00,55.40,87.83,M,M,0.00,30.16,M,10.00,M,CLR,M,M,M,M,M,M,M,M,M,M,M,M,M,M,59.00,K05U 031130Z AUTO 10SM CLR 15/13 A3016 RMK A01,M
BVU,2023-09-03 11:35,-114.8611,35.9475,671.00,69.80,66.20,88.34,60.00,5.00,0.00,30.02,M,10.00,M,CLR,M,M,M,M,M,M,M,M,M,M,M,M,M,M,69.80,KBVU 031135Z AUTO 06005KT 10SM CLR 21/19 A3002 RMK AO2,M
CXP,2023-09-03 11:35,-119.7326,39.1923,1431.00,55.40,50.00,81.99,300.00,5.00,0.00,30.09,M,10.00,M,FEW,M,M,M,8500.00,M,M,M,M,M,M,M,M,M,M,55.40,KCXP 031135Z AUTO 30005KT 10SM FEW085 13/10 A3009 RMK AO2,M
RTS,2023-09-03 11:35,-119.8764,39.6682,1539.00,50.00,46.40,87.37,330.00,5.00,0.00,30.11,M,10.00,M,FEW,SCT,SCT,M,7000.00,9000.00,11000.00,M,M,M,M,M,M,M,M,50.00,KRTS 031135Z AUTO 33005KT 10SM FEW070 SCT090 SCT110 10/08 A3011 RMK AO2,M
MEV,2023-09-03 11:35,-119.7500,38.9963,1441.42,46.40,41.00,81.34,0.00,0.00,0.00,30.07,M,10.00,M,SCT,SCT,BKN,M,4200.00,5000.00,6500.00,M,M,M,M,M,M,M,M,46.40,KMEV 031135Z AUTO 00000KT 10SM SCT042 SCT050 BKN065 08/05 A3007 RMK AO2,M
BAM,2023-09-03 11:35,-116.8743,40.5990,1382.36,60.80,55.40,82.37,60.00,13.00,0.00,30.07,M,10.00,M,BKN,OVC,M,M,4800.00,9000.00,M,M,M,M,M,M,M,M,M,60.80,KBAM 031135Z AUTO 06013KT 10SM BKN048 OVC090 16/13 A3007 RMK AO1,M
HTH,2023-09-03 11:35,-118.6315,38.5448,1282.89,62.60,59.00,88.00,260.00,5.00,0.00,30.04,M,10.00,M,FEW,M,M,M,12000.00,M,M,M,M,M,M,M,M,M,M,62.60,KHTH 031135Z AUTO 26005KT 10SM FEW120 17/15 A3004 RMK A01,M
TMT,2023-09-03 11:35,-117.1971,39.4643,1749.34,48.00,47.50,98.14,0.00,0.00,0.00,30.12,M,M,M,M,M,M,M,M,M,M,M,VCTS,M,M,M,M,M,M,48.00,KTMT 031135Z AUTO 00000KT VCTS 09/09 A3012 RMK AO2 LTG DSNT W AND NW T00880086,M
10U,2023-09-03 11:40,-116.1876,41.9532,1637.00,55.40,53.60,93.65,M,M,0.00,30.16,M,10.00,M,FEW,FEW,OVC,M,3300.00,6000.00,7000.00,M,M,M,M,M,M,M,M,55.40,K10U 031140Z AUTO 10SM FEW033 FEW060 OVC070 13/12 A3016 RMK AO2,M
WMC,2023-09-03 11:48,-117.8072,40.9019,1315.00,58.00,56.00,93.04,90.00,6.00,0.04,30.05,M,10.00,M,BKN,BKN,OVC,M,3000.00,5500.00,8000.00,M,-RA,M,M,M,M,M,M,58.00,KWMC 031148Z AUTO 09006KT 10SM -RA BKN030 BKN055 OVC080 14/13 A3005 RMK AO2 LTG DSNT ALQDS P0004 T01440133,M
05U,2023-09-03 11:50,-116.0051,39.6042,1811.23,59.00,53.60,82.25,M,M,0.00,30.17,M,10.00,M,CLR,M,M,M,M,M,M,M,M,M,M,M,M,M,M,59.00,K05U 031150Z AUTO 10SM CLR 15/12 A3017 RMK A01,M
P68,2023-09-03 11:53,-116.0056,39.6014,1993.00,59.00,54.00,83.46,160.00,8.00,0.00,30.14,1013.60,M,M,M,M,M,M,M,M,M,M,M,M,M,M,M,M,M,59.00,KP68 031153Z AUTO 16008KT 15/12 A3014 RMK AO1 SLP136 70016 T01500122 10172 20150 58004 $,M
DRA,2023-09-03 11:53,-116.0278,36.6206,1009.00,67.00,65.00,93.29,0.00,0.00,0.00,30.05,1013.30,10.00,M,FEW,M,M,M,5500.00,M,M,M,M,M,M,M,M,M,M,67.00,KDRA 031153Z AUTO 00000KT 10SM FEW055 19/18 A3005 RMK AO2 SLP133 T01940183 10222 20194 58005,M
ELY,2023-09-03 11:53,-114.8453,39.2950,1909.00,57.00,53.00,86.45,210.00,9.00,0.00,30.20,1014.90,10.00,M,FEW,SCT,M,M,4800.00,10000.00,M,M,M,M,M,M,M,M,M,57.00,KELY 031153Z AUTO 21009KT 10SM FEW048 SCT100 14/12 A3020 RMK AO2 SLP149 60000 70016 T01390117 10144 20128 58006,M
VGT,2023-09-03 11:53,-115.1933,36.2111,667.00,72.00,67.00,84.28,0.00,0.00,0.00,30.02,1016.20,10.00,M,CLR,M,M,M,M,M,M,M,M,M,M,M,M,M,M,72.00,KVGT 031153Z AUTO 00000KT 10SM CLR 22/19 A3002 RMK AO2 SLP162 70008 T02220194 10239 20222 56005 $,M
LOL,2023-09-03 11:53,-118.5701,40.0684,1192.43,60.00,50.00,69.49,100.00,3.00,0.00,30.02,1013.30,10.00,M,SCT,SCT,BKN,M,4000.00,6000.00,8500.00,M,M,M,M,M,M,M,M,60.00,KLOL 031153Z AUTO 10003KT 10SM SCT040 SCT060 BKN085 16/10 A3002 RMK AO2 LTG DSNT NE AND E SLP133 T01560100 10178 20144 58006,M
BVU,2023-09-03 11:55,-114.8611,35.9475,671.00,69.80,66.20,88.34,70.00,4.00,0.00,30.02,M,10.00,M,CLR,M,M,M,M,M,M,M,M,M,M,M,M,M,M,69.80,KBVU 031155Z AUTO 07004KT 10SM CLR 21/19 A3002 RMK AO2,M
CXP,2023-09-03 11:55,-119.7326,39.1923,1431.00,55.40,48.20,76.66,M,6.00,0.00,30.08,M,10.00,M,CLR,M,M,M,M,M,M,M,M,M,M,M,M,M,M,55.40,KCXP 031155Z AUTO VRB06KT 10SM CLR 13/09 A3008 RMK AO2 LTG DSNT S,M
RNO,2023-09-03 11:55,-119.7711,39.4839,1341.00,53.00,50.00,89.51,0.00,0.00,0.00,30.08,1015.40,10.00,M,SCT,M,M,M,9000.00,M,M,M,M,M,M,M,M,M,M,53.00,KRNO 031155Z 00000KT 10SM SCT090 12/10 A3008 RMK AO2 SLP154 70009 T01170100 10144 20117 58006,M
RTS,2023-09-03 11:55,-119.8764,39.6682,1539.00,50.00,48.20,93.50,320.00,5.00,0.00,30.11,M,10.00,M,FEW,M,M,M,9000.00,M,M,M,M,M,M,M,M,M,M,50.00,KRTS 031155Z AUTO 32005KT 10SM FEW090 10/09 A3011 RMK AO2,M
MEV,2023-09-03 11:55,-119.7500,38.9963,1441.42,48.20,42.80,81.47,0.00,0.00,0.00,30.07,M,10.00,M,FEW,SCT,SCT,M,4100.00,4900.00,6500.00,M,M,M,M,M,M,M,M,48.20,KMEV 031155Z AUTO 00000KT 10SM FEW041 SCT049 SCT065 09/06 A3007 RMK AO2 LTG DSNT S,M
BAM,2023-09-03 11:55,-116.8743,40.5990,1382.36,59.00,57.20,93.74,290.00,13.00,0.00,30.12,M,10.00,25.00,BKN,BKN,OVC,M,4600.00,6000.00,9500.00,M,M,M,M,M,M,M,M,59.00,KBAM 031155Z AUTO 29013G25KT 10SM BKN046 BKN060 OVC095 15/14 A3012 RMK AO1,M
HTH,2023-09-03 11:55,-118.6315,38.5448,1282.89,62.60,57.20,82.50,280.00,4.00,0.00,30.04,M,10.00,M,FEW,M,M,M,12000.00,M,M,M,M,M,M,M,M,M,M,62.60,KHTH 031155Z AUTO 28004KT 10SM FEW120 17/14 A3004 RMK A01,M
TMT,2023-09-03 11:55,-117.1971,39.4643,1749.34,47.30,47.00,98.88,360.00,4.00,0.00,30.12,M,M,M,M,M,M,M,M,M,M,M,M,M,M,M,M,M,M,45.29,KTMT 031155Z AUTO 36004KT 09/08 A3012 RMK AO2 LTG DSNT SW AND NW 70034 T00850084 10124 20085 PWINO,M
10U,2023-09-03 11:55,-116.1876,41.9532,1637.00,55.40,53.60,93.65,M,M,0.00,30.17,M,10.00,M,FEW,BKN,OVC,M,2800.00,6500.00,7500.00,M,-RA,M,M,M,M,M,M,55.40,K10U 031155Z AUTO 10SM -RA FEW028 BKN065 OVC075 13/12 A3017 RMK AO2,M
INS,2023-09-03 11:55,-115.6733,36.5872,955.00,65.00,64.80,99.30,0.00,0.00,0.00,30.05,1013.70,10.00,M,CLR,M,M,M,M,M,M,M,M,M,M,M,M,M,M,65.00,KINS 031155Z AUTO 00000KT 10SM CLR 18/18 A3005 RMK AO2 SLP137 T01840182 10222 20181 58003 $,M
LSV,2023-09-03 11:55,-115.0343,36.2362,570.00,69.40,69.00,98.64,330.00,3.00,0.00,29.99,1013.80,10.00,M,CLR,M,M,M,M,M,M,M,M,M,M,M,M,M,M,69.40,KLSV 031155Z AUTO 33003KT 10SM CLR 21/21 A2999 RMK AO2 SLP138 70037 T02080206 10228 20208 55005 $,M
EKO,2023-09-03 11:56,-115.7860,40.8242,1367.00,59.00,55.00,86.56,350.00,3.00,0.00,30.11,1014.90,10.00,M,OVC,M,M,M,3900.00,M,M,M,M,M,M,M,M,M,M,59.00,KEKO 031156Z AUTO 35003KT 10SM OVC039 15/13 A3011 RMK AO2 SLP149 60007 70012 T01500128 10156 20139 58011,M
WMC,2023-09-03 11:56,-117.8072,40.9019,1315.00,58.00,56.00,93.04,90.00,5.00,0.04,30.04,1014.10,10.00,M,SCT,SCT,BKN,M,3000.00,6000.00,8000.00,M,M,M,M,M,M,M,M,58.00,KWMC 031156Z AUTO 09005KT 10SM SCT030 SCT060 BKN080 14/13 A3004 RMK AO2 LTG DSNT ALQDS RAE50 SLP141 P0004 60010 70024 T01440133 10178 20144 58005,M
NFL,2023-09-03 11:56,-118.7010,39.4166,1199.00,59.00,52.00,77.55,0.00,0.00,0.00,30.02,1013.70,10.00,M,FEW,M,M,M,6000.00,M,M,M,M,M,M,M,M,M,M,59.00,KNFL 031156Z AUTO 00000KT 10SM FEW060 15/11 A3002 RMK AO2 SLP137 T01500111 10189 20150 58005,M
HND,2023-09-03 11:56,-115.1344,35.9729,742.79,66.00,64.00,93.26,170.00,3.00,0.00,30.06,1017.70,10.00,M,CLR,M,M,M,M,M,M,M,M,M,M,M,M,M,M,66.00,KHND 031156Z AUTO 17003KT 10SM CLR 19/18 A3006 RMK AO2 SLP177 70014 T01890178 10211 20189 55005,M
TPH,2023-09-03 11:56,-117.0904,38.0505,1654.00,60.00,57.00,89.80,120.00,4.00,0.00,30.13,1013.70,10.00,M,FEW,SCT,M,M,2200.00,3800.00,M,M,M,M,M,M,M,M,M,60.00,KTPH 031156Z AUTO 12004KT 10SM FEW022 SCT038 16/14 A3013 RMK AO2 SLP137 T01560139 10194 20156 58007,M
LAS,2023-09-03 11:56,-115.1634,36.0719,663.00,70.00,67.00,90.21,280.00,3.00,0.00,30.03,1014.90,10.00,M,CLR,M,M,M,M,M,M,M,M,M,M,M,M,M,M,70.00,KLAS 031156Z 28003KT 10SM CLR 21/19 A3003 RMK AO2 SLP149 7//// T02110194 10228 20211 55006 $,M
05U,2023-09-03 12:05,-116.0051,39.6042,1811.23,59.00,53.60,82.25,M,M,0.00,30.16,M,10.00,M,CLR,M,M,M,M,M,M,M,M,M,M,M,M,M,M,59.00,K05U 031205Z AUTO 10SM CLR 15/12 A3016 RMK A01,M
WMC,2023-09-03 12:06,-117.8072,40.9019,1315.00,58.00,56.00,93.04,110.00,6.00,0.00,30.05,M,10.00,M,FEW,BKN,M,M,2900.00,11000.00,M,M,TS,M,M,M,M,M,M,58.00,KWMC 031206Z AUTO 11006KT 10SM TS FEW029 BKN110 14/13 A3005 RMK AO2 LTG DSNT ALQDS TSB00 T01440133,M
BVU,2023-09-03 12:15,-114.8611,35.9475,671.00,69.80,66.20,88.34,60.00,3.00,0.00,30.02,M,10.00,M,CLR,M,M,M,M,M,M,M,M,M,M,M,M,M,M,69.80,KBVU 031215Z AUTO 06003KT 10SM CLR 21/19 A3002 RMK AO2,M
CXP,2023-09-03 12:15,-119.7326,39.1923,1431.00,55.40,48.20,76.66,M,4.00,0.00,30.08,M,10.00,M,CLR,M,M,M,M,M,M,M,M,M,M,M,M,M,M,55.40,KCXP 031215Z AUTO VRB04KT 10SM CLR 13/09 A3008 RMK AO2,M
RTS,2023-09-03 12:15,-119.8764,39.6682,1539.00,50.00,48.20,93.50,310.00,5.00,0.00,30.11,M,10.00,M,SCT,BKN,M,M,6500.00,8500.00,M,M,M,M,M,M,M,M,M,50.00,KRTS 031215Z AUTO 31005KT 10SM SCT065 BKN085 10/09 A3011 RMK AO2,M
MEV,2023-09-03 12:15,-119.7500,38.9963,1441.42,46.40,42.80,87.19,M,4.00,0.00,30.06,M,10.00,M,FEW,FEW,M,M,4400.00,5000.00,M,M,M,M,M,M,M,M,M,44.24,KMEV 031215Z AUTO VRB04KT 10SM FEW044 FEW050 08/06 A3006 RMK AO2,M
BAM,2023-09-03 12:15,-116.8743,40.5990,1382.36,60.80,55.40,82.37,50.00,11.00,0.00,30.07,M,10.00,M,SCT,BKN,OVC,M,2500.00,4400.00,7000.00,M,M,M,M,M,M,M,M,60.80,KBAM 031215Z AUTO 05011KT 10SM SCT025 BKN044 OVC070 16/13 A3007 RMK AO1,M
HTH,2023-09-03 12:15,-118.6315,38.5448,1282.89,59.00,57.20,93.74,0.00,0.00,0.00,30.05,M,10.00,M,CLR,M,M,M,M,M,M,M,M,M,M,M,M,M,M,59.00,KHTH 031215Z AUTO 00000KT 10SM CLR 15/14 A3005 RMK A01,M
10U,2023-09-03 12:15,-116.1876,41.9532,1637.00,55.40,53.60,93.65,M,M,0.00,30.17,M,10.00,M,SCT,SCT,OVC,M,3000.00,5000.00,6500.00,M,-RA,M,M,M,M,M,M,55.40,K10U 031215Z AUTO 10SM -RA SCT030 SCT050 OVC065 13/12 A3017 RMK AO2,M
TMT,2023-09-03 12:15,-117.1971,39.4643,1749.34,47.50,47.50,100.00,30.00,4.00,0.00,30.12,M,M,M,M,M,M,M,M,M,M,M,M,M,M,M,M,M,M,45.52,KTMT 031215Z AUTO 03004KT 09/09 A3012 RMK AO2 LTG DSNT W THRU N T00860086 PWINO,M
WMC,2023-09-03 12:21,-117.8072,40.9019,1315.00,58.00,56.00,93.04,120.00,6.00,T,30.05,M,10.00,M,SCT,BKN,BKN,M,8000.00,9500.00,12000.00,M,-RA,M,M,M,M,M,M,58.00,KWMC 031221Z AUTO 12006KT 10SM -RA SCT080 BKN095 BKN120 14/13 A3005 RMK AO2 LTG DSNT ALQDS RAB11 TSB00E15 P0000 T01440133,M
05U,2023-09-03 12:25,-116.0051,39.6042,1811.23,57.20,53.60,87.74,M,M,0.00,30.16,M,10.00,M,CLR,M,M,M,M,M,M,M,M,M,M,M,M,M,M,57.20,K05U 031225Z AUTO 10SM CLR 14/12 A3016 RMK A01,M
BVU,2023-09-03 12:35,-114.8611,35.9475,671.00,71.60,64.40,78.04,0.00,0.00,0.00,30.01,M,10.00,M,CLR,M,M,M,M,M,M,M,M,M,M,M,M,M,M,71.60,KBVU 031235Z AUTO 00000KT 10SM CLR 22/18 A3001 RMK AO2,M
CXP,2023-09-03 12:35,-119.7326,39.1923,1431.00,53.60,48.20,81.87,340.00,3.00,0.00,30.08,M,10.00,M,FEW,M,M,M,8500.00,M,M,M,M,M,M,M,M,M,M,53.60,KCXP 031235Z AUTO 34003KT 10SM FEW085 12/09 A3008 RMK AO2,M
RTS,2023-09-03 12:35,-119.8764,39.6682,1539.00,50.00,48.20,93.50,320.00,5.00,0.00,30.11,M,10.00,M,FEW,BKN,BKN,M,6000.00,7000.00,8000.00,M,M,M,M,M,M,M,M,50.00,KRTS 031235Z AUTO 32005KT 10SM FEW060 BKN070 BKN080 10/09 A3011 RMK AO2,M
MEV,2023-09-03 12:35,-119.7500,38.9963,1441.42,46.40,42.80,87.19,0.00,0.00,0.00,30.06,M,10.00,M,FEW,M,M,M,7500.00,M,M,M,M,M,M,M,M,M,M,46.40,KMEV 031235Z AUTO 00000KT 10SM FEW075 08/06 A3006 RMK AO2,M
HTH,2023-09-03 12:35,-118.6315,38.5448,1282.89,59.00,57.20,93.74,210.00,5.00,0.00,30.04,M,10.00,M,FEW,M,M,M,11000.00,M,M,M,M,M,M,M,M,M,M,59.00,KHTH 031235Z AUTO 21005KT 10SM FEW110 15/14 A3004 RMK A01,M
BAM,2023-09-03 12:35,-116.8743,40.5990,1382.36,60.80,55.40,82.37,70.00,5.00,0.00,30.08,M,10.00,8.00,SCT,BKN,OVC,M,6000.00,7000.00,11000.00,M,M,M,M,M,M,M,M,60.80,KBAM 031235Z AUTO 07005G08KT 10SM SCT060 BKN070 OVC110 16/13 A3008 RMK AO1,M
TMT,2023-09-03 12:35,-117.1971,39.4643,1749.34,48.40,48.40,100.00,0.00,0.00,0.00,30.12,M,M,M,M,M,M,M,M,M,M,M,M,M,M,M,M,M,M,48.40,KTMT 031235Z AUTO 00000KT 09/09 A3012 RMK AO2 LTG DSNT N AND W T00910091 PWINO,M
10U,2023-09-03 12:35,-116.1876,41.9532,1637.00,55.40,53.60,93.65,210.00,8.00,0.00,30.16,M,10.00,M,SCT,BKN,OVC,M,2800.00,5500.00,7500.00,M,-RA,M,M,M,M,M,M,55.40,K10U 031235Z AUTO 21008KT 10SM -RA SCT028 BKN055 OVC075 13/12 A3016 RMK AO2,M
WMC,2023-09-03 12:37,-117.8072,40.9019,1315.00,58.00,56.00,93.04,150.00,5.00,T,30.06,M,10.00,M,SCT,BKN,OVC,M,3100.00,7500.00,9500.00,M,VCTS -RA,M,M,M,M,M,M,58.00,KWMC 031237Z AUTO 15005KT 10SM VCTS -RA SCT031 BKN075 OVC095 14/13 A3006 RMK AO2 LTG DSNT S-W RAB11 TSB00E15 P0000 T01440133,M
TPH,2023-09-03 12:44,-117.0904,38.0505,1654.00,60.00,56.00,86.61,150.00,7.00,0.00,30.13,M,10.00,M,BKN,M,M,M,1700.00,M,M,M,M,M,M,M,M,M,M,60.00,KTPH 031244Z AUTO 15007KT 10SM BKN017 16/13 A3013 RMK AO2 T01560133,M
05U,2023-09-03 12:50,-116.0051,39.6042,1811.23,57.20,53.60,87.74,M,M,0.00,30.15,M,10.00,M,FEW,M,M,M,5000.00,M,M,M,M,M,M,M,M,M,M,57.20,K05U 031250Z AUTO 10SM FEW050 14/12 A3015 RMK A01,M
P68,2023-09-03 12:53,-116.0056,39.6014,1993.00,57.00,53.00,86.45,130.00,7.00,0.00,30.13,1013.40,M,M,M,M,M,M,M,M,M,M,M,M,M,M,M,M,M,57.00,KP68 031253Z AUTO 13007KT 14/12 A3013 RMK AO1 SLP134 T01390117 $,M
DRA,2023-09-03 12:53,-116.0278,36.6206,1009.00,67.00,64.00,90.09,120.00,4.00,0.00,30.05,1013.40,10.00,M,FEW,SCT,M,M,2900.00,3600.00,M,M,M,M,M,M,M,M,M,67.00,KDRA 031253Z AUTO 12004KT 10SM FEW029 SCT036 19/18 A3005 RMK AO2 SLP134 T01940178,M
ELY,2023-09-03 12:53,-114.8453,39.2950,1909.00,57.00,54.00,89.68,200.00,8.00,0.02,30.19,1014.50,10.00,M,BKN,BKN,OVC,M,4500.00,6000.00,9500.00,M,M,M,M,M,M,M,M,57.00,KELY 031253Z AUTO 20008KT 10SM BKN045 BKN060 OVC095 14/12 A3019 RMK AO2 RAB06E40 SLP145 P0002 T01390122,M
VGT,2023-09-03 12:53,-115.1933,36.2111,667.00,72.00,67.00,84.28,0.00,0.00,0.00,30.01,1016.10,10.00,M,CLR,M,M,M,M,M,M,M,M,M,M,M,M,M,M,72.00,KVGT 031253Z 00000KT 10SM CLR 22/19 A3001 RMK AO2 SLP161 T02220194 $,M
LOL,2023-09-03 12:53,-118.5701,40.0684,1192.43,60.00,49.00,66.95,10.00,7.00,0.00,30.01,1013.30,10.00,M,SCT,M,M,M,8000.00,M,M,M,M,M,M,M,M,M,M,60.00,KLOL 031253Z AUTO 01007KT 10SM SCT080 16/09 A3001 RMK AO2 LTG DSNT N AND NE SLP133 T01560094,M
BVU,2023-09-03 12:55,-114.8611,35.9475,671.00,69.80,66.20,88.34,90.00,4.00,0.00,30.02,M,10.00,M,CLR,M,M,M,M,M,M,M,M,M,M,M,M,M,M,69.80,KBVU 031255Z AUTO 09004KT 10SM CLR 21/19 A3002 RMK AO2,M
CXP,2023-09-03 12:55,-119.7326,39.1923,1431.00,55.40,48.20,76.66,M,4.00,0.00,30.07,M,10.00,M,SCT,SCT,M,M,8000.00,8500.00,M,M,M,M,M,M,M,M,M,55.40,KCXP 031255Z AUTO VRB04KT 10SM SCT080 SCT085 13/09 A3007 RMK AO2,M
RNO,2023-09-03 12:55,-119.7711,39.4839,1341.00,53.00,50.00,89.51,0.00,0.00,0.00,30.08,1015.10,10.00,M,SCT,SCT,BKN,M,9000.00,15000.00,24000.00,M,M,M,M,M,M,M,M,53.00,KRNO 031255Z 00000KT 10SM SCT090 SCT150 BKN240 12/10 A3008 RMK AO2 SLP151 T01170100,M
RTS,2023-09-03 12:55,-119.8764,39.6682,1539.00,48.20,48.20,100.00,340.00,4.00,0.00,30.11,M,10.00,M,BKN,BKN,BKN,M,6500.00,7500.00,9000.00,M,M,M,M,M,M,M,M,46.34,KRTS 031255Z AUTO 34004KT 10SM BKN065 BKN075 BKN090 09/09 A3011 RMK AO2,M
MEV,2023-09-03 12:55,-119.7500,38.9963,1441.42,46.40,42.80,87.19,0.00,0.00,0.00,30.05,M,10.00,M,BKN,BKN,M,M,7000.00,9000.00,M,M,M,M,M,M,M,M,M,46.40,KMEV 031255Z AUTO 00000KT 10SM BKN070 BKN090 08/06 A3005 RMK AO2,M
BAM,2023-09-03 12:55,-116.8743,40.5990,1382.36,60.80,55.40,82.37,330.00,5.00,0.00,30.08,M,10.00,M,BKN,BKN,OVC,M,4200.00,5500.00,9000.00,M,M,M,M,M,M,M,M,60.80,KBAM 031255Z AUTO 33005KT 10SM BKN042 BKN055 OVC090 16/13 A3008 RMK AO1,M
HTH,2023-09-03 12:55,-118.6315,38.5448,1282.89,60.80,55.40,82.37,270.00,5.00,0.00,30.04,M,10.00,M,BKN,M,M,M,11000.00,M,M,M,M,M,M,M,M,M,M,60.80,KHTH 031255Z AUTO 27005KT 10SM BKN110 16/13 A3004 RMK A01,M
TMT,2023-09-03 12:55,-117.1971,39.4643,1749.34,48.00,48.00,100.00,0.00,0.00,0.00,30.12,M,M,M,BKN,BKN,M,M,300.00,5500.00,M,M,M,M,M,M,M,M,M,48.00,KTMT 031255Z AUTO 00000KT BKN003 BKN055 09/09 A3012 RMK AO2 T00890089 PWINO,M
INS,2023-09-03 12:55,-115.6733,36.5872,955.00,65.50,65.00,98.27,40.00,3.00,0.00,30.05,1013.70,10.00,M,CLR,M,M,M,M,M,M,M,M,M,M,M,M,M,M,65.50,KINS 031255Z AUTO 04003KT 10SM CLR 19/18 A3005 RMK AO2 SLP137 T01860184 $,M
LSV,2023-09-03 12:55,-115.0343,36.2362,570.00,68.70,68.40,98.97,0.00,0.00,0.00,29.98,1013.60,10.00,M,CLR,M,M,M,M,M,M,M,M,M,M,M,M,M,M,68.70,KLSV 031255Z AUTO 00000KT 10SM CLR 20/20 A2998 RMK AO2 SLP136 T02040202 $,M
EKO,2023-09-03 12:56,-115.7860,40.8242,1367.00,58.00,56.00,93.04,0.00,0.00,0.00,30.10,1014.50,10.00,M,SCT,BKN,OVC,M,3300.00,4800.00,7000.00,M,M,M,M,M,M,M,M,58.00,KEKO 031256Z AUTO 00000KT 10SM SCT033 BKN048 OVC070 14/13 A3010 RMK AO2 SLP145 T01440133,M
WMC,2023-09-03 12:56,-117.8072,40.9019,1315.00,58.00,56.00,93.04,0.00,0.00,0.02,30.05,1014.00,10.00,M,SCT,BKN,OVC,M,2700.00,5500.00,9500.00,M,VCTS -RA,M,M,M,M,M,M,58.00,KWMC 031256Z AUTO 00000KT 10SM VCTS -RA SCT027 BKN055 OVC095 14/13 A3005 RMK AO2 LTG DSNT S-NW RAB11 TSB00E15 SLP140 P0002 T01440133,M
NFL,2023-09-03 12:56,-118.7010,39.4166,1199.00,58.00,51.00,77.47,230.00,4.00,0.00,30.03,1013.70,10.00,M,CLR,M,M,M,M,M,M,M,M,M,M,M,M,M,M,58.00,KNFL 031256Z AUTO 23004KT 10SM CLR 14/11 A3003 RMK AO2 SLP137 T01440106,M
HND,2023-09-03 12:56,-115.1344,35.9729,742.79,67.00,64.00,90.09,0.00,0.00,0.00,30.05,1017.50,10.00,M,CLR,M,M,M,M,M,M,M,M,M,M,M,M,M,M,67.00,KHND 031256Z AUTO 00000KT 10SM CLR 19/18 A3005 RMK AO2 SLP175 T01940178,M
TPH,2023-09-03 12:56,-117.0904,38.0505,1654.00,60.00,56.00,86.61,150.00,5.00,0.00,30.13,1013.70,10.00,M,BKN,BKN,BKN,M,1600.00,2200.00,3600.00,M,M,M,M,M,M,M,M,60.00,KTPH 031256Z AUTO 15005KT 10SM BKN016 BKN022 BKN036 16/13 A3013 RMK AO2 SLP137 T01560133,M
LAS,2023-09-03 12:56,-115.1634,36.0719,663.00,70.00,66.00,87.14,220.00,3.00,0.00,30.02,1014.80,10.00,M,FEW,M,M,M,10000.00,M,M,M,M,M,M,M,M,M,M,70.00,KLAS 031256Z 22003KT 10SM FEW100 21/19 A3002 RMK AO2 SLP148 T02110189 $,M
10U,2023-09-03 13:00,-116.1876,41.9532,1637.00,55.40,53.60,93.65,0.00,0.00,0.00,30.16,M,10.00,M,BKN,OVC,M,M,6000.00,7000.00,M,M,M,M,M,M,M,M,M,55.40,K10U 031300Z AUTO 00000KT 10SM BKN060 OVC070 13/12 A3016 RMK AO2,M
05U,2023-09-03 13:05,-116.0051,39.6042,1811.23,55.40,53.60,93.65,M,M,0.00,30.16,M,10.00,M,CLR,M,M,M,M,M,M,M,M,M,M,M,M,M,M,55.40,K05U 031305Z AUTO 10SM CLR 13/12 A3016 RMK A01,M
BVU,2023-09-03 13:15,-114.8611,35.9475,671.00,69.80,66.20,88.34,90.00,4.00,0.00,30.02,M,10.00,M,CLR,M,M,M,M,M,M,M,M,M,M,M,M,M,M,69.80,KBVU 031315Z AUTO 09004KT 10SM CLR 21/19 A3002 RMK AO2,M
CXP,2023-09-03 13:15,-119.7326,39.1923,1431.00,55.40,48.20,76.66,M,4.00,0.00,30.07,M,10.00,10.00,BKN,OVC,M,M,7500.00,9000.00,M,M,M,M,M,M,M,M,M,55.40,KCXP 031315Z AUTO VRB04G10KT 10SM BKN075 OVC090 13/09 A3007 RMK AO2,M
RTS,2023-09-03 13:15,-119.8764,39.6682,1539.00,48.20,46.40,93.45,360.00,4.00,0.00,30.10,M,10.00,M,SCT,BKN,BKN,M,6000.00,7500.00,8500.00,M,M,M,M,M,M,M,M,46.34,KRTS 031315Z AUTO 36004KT 10SM SCT060 BKN075 BKN085 09/08 A3010 RMK AO2,M
MEV,2023-09-03 13:15,-119.7500,38.9963,1441.42,46.40,42.80,87.19,170.00,5.00,0.00,30.06,M,10.00,M,BKN,OVC,M,M,6500.00,7500.00,M,M,M,M,M,M,M,M,M,43.50,KMEV 031315Z AUTO 17005KT 10SM BKN065 OVC075 08/06 A3006 RMK AO2,M
BAM,2023-09-03 13:15,-116.8743,40.5990,1382.36,59.00,55.40,87.83,310.00,6.00,0.00,30.09,M,10.00,M,SCT,OVC,M,M,2000.00,4200.00,M,M,M,M,M,M,M,M,M,59.00,KBAM 031315Z AUTO 31006KT 10SM SCT020 OVC042 15/13 A3009 RMK AO1,M
HTH,2023-09-03 13:15,-118.6315,38.5448,1282.89,60.80,55.40,82.37,280.00,6.00,0.00,30.04,M,10.00,M,OVC,M,M,M,11000.00,M,M,M,M,M,M,M,M,M,M,60.80,KHTH 031315Z AUTO 28006KT 10SM OVC110 16/13 A3004 RMK A01,M
TMT,2023-09-03 13:15,-117.1971,39.4643,1749.34,47.30,47.30,100.00,0.00,0.00,0.00,30.11,M,M,M,OVC,M,M,M,300.00,M,M,M,VCTS,M,M,M,M,M,M,47.30,KTMT 031315Z AUTO 00000KT VCTS OVC003 09/09 A3011 RMK AO2 LTG DSNT N AND NW T00850085,M
10U,2023-09-03 13:20,-116.1876,41.9532,1637.00,55.40,53.60,93.65,170.00,5.00,0.00,30.16,M,10.00,M,BKN,OVC,M,M,5500.00,6500.00,M,M,M,M,M,M,M,M,M,55.40,K10U 031320Z AUTO 17005KT 10SM BKN055 OVC065 13/12 A3016 RMK AO2,M
TPH,2023-09-03 13:28,-117.0904,38.0505,1654.00,61.00,56.00,83.59,160.00,10.00,0.00,30.12,M,10.00,M,BKN,BKN,OVC,M,1400.00,2500.00,7000.00,M,M,M,M,M,M,M,M,61.00,KTPH 031328Z AUTO 16010KT 10SM BKN014 BKN025 OVC070 16/13 A3012 RMK AO2 T01610133,M
05U,2023-09-03 13:30,-116.0051,39.6042,1811.23,59.00,53.60,82.25,M,M,0.00,30.15,M,10.00,M,CLR,M,M,M,M,M,M,M,M,M,M,M,M,M,M,59.00,K05U 031330Z AUTO 10SM CLR 15/12 A3015 RMK A01,M
WMC,2023-09-03 13:32,-117.8072,40.9019,1315.00,58.00,56.00,93.04,50.00,5.00,0.01,30.05,M,10.00,M,FEW,BKN,OVC,M,2000.00,3500.00,8500.00,M,-TSRA,M,M,M,M,M,M,58.00,KWMC 031332Z AUTO 05005KT 10SM -TSRA FEW020 BKN035 OVC085 14/13 A3005 RMK AO2 LTG DSNT ALQDS TSB26 P0001 T01440133,M
BVU,2023-09-03 13:35,-114.8611,35.9475,671.00,71.60,64.40,78.04,70.00,3.00,0.00,30.02,M,10.00,M,CLR,M,M,M,M,M,M,M,M,M,M,M,M,M,M,71.60,KBVU 031335Z AUTO 07003KT 10SM CLR 22/18 A3002 RMK AO2,M
CXP,2023-09-03 13:35,-119.7326,39.1923,1431.00,55.40,48.20,76.66,360.00,7.00,0.00,30.07,M,10.00,M,OVC,M,M,M,6500.00,M,M,M,M,M,M,M,M,M,M,55.40,KCXP 031335Z AUTO 36007KT 320V040 10SM OVC065 13/09 A3007 RMK AO2,M
RTS,2023-09-03 13:35,-119.8764,39.6682,1539.00,50.00,48.20,93.50,0.00,0.00,0.00,30.11,M,10.00,M,BKN,BKN,BKN,M,5000.00,6000.00,7000.00,M,M,M,M,M,M,M,M,50.00,KRTS 031335Z AUTO 00000KT 10SM BKN050 BKN060 BKN070 10/09 A3011 RMK AO2,M
MEV,2023-09-03 13:35,-119.7500,38.9963,1441.42,48.20,44.60,87.28,0.00,0.00,0.00,30.06,M,10.00,M,OVC,M,M,M,7000.00,M,M,M,M,M,M,M,M,M,M,48.20,KMEV 031335Z AUTO 00000KT 10SM OVC070 09/07 A3006 RMK AO2,M
BAM,2023-09-03 13:35,-116.8743,40.5990,1382.36,59.00,55.40,87.83,360.00,9.00,0.00,30.08,M,10.00,M,SCT,BKN,OVC,M,2200.00,4000.00,5000.00,M,M,M,M,M,M,M,M,59.00,KBAM 031335Z AUTO 36009KT 10SM SCT022 BKN040 OVC050 15/13 A3008 RMK AO1,M
HTH,2023-09-03 13:35,-118.6315,38.5448,1282.89,62.60,53.60,72.38,300.00,5.00,0.00,30.04,M,10.00,M,OVC,M,M,M,10000.00,M,M,M,M,M,M,M,M,M,M,62.60,KHTH 031335Z AUTO 30005KT 10SM OVC100 17/12 A3004 RMK A01,M
TMT,2023-09-03 13:35,-117.1971,39.4643,1749.34,48.00,48.00,100.00,0.00,0.00,0.00,30.11,M,M,M,OVC,M,M,M,100.00,M,M,M,M,M,M,M,M,M,M,48.00,KTMT 031335Z AUTO 00000KT OVC001 09/09 A3011 RMK AO2 LTG DSNT N T00880088 PWINO,M
10U,2023-09-03 13:40,-116.1876,41.9532,1637.00,55.40,51.80,87.65,0.00,0.00,0.00,30.15,M,7.00,M,BKN,BKN,OVC,M,5500.00,7000.00,8000.00,M,-RA,M,M,M,M,M,M,55.40,K10U 031340Z AUTO 00000KT 7SM -RA BKN055 BKN070 OVC080 13/11 A3015 RMK AO2,M
WMC,2023-09-03 13:49,-117.8072,40.9019,1315.00,59.00,56.00,89.76,60.00,8.00,0.01,30.06,M,8.00,M,BKN,BKN,OVC,M,3300.00,4700.00,7000.00,M,VCTS -RA,M,M,M,M,M,M,59.00,KWMC 031349Z AUTO 06008KT 8SM VCTS -RA BKN033 BKN047 OVC070 15/13 A3006 RMK AO2 LTG DSNT ALQDS TSB26E43 P0001 T01500133,M
05U,2023-09-03 13:50,-116.0051,39.6042,1811.23,59.00,51.80,76.98,M,M,0.00,30.15,M,10.00,M,CLR,M,M,M,M,M,M,M,M,M,M,M,M,M,M,59.00,K05U 031350Z AUTO 10SM CLR 15/11 A3015 RMK A01,M
P68,2023-09-03 13:53,-116.0056,39.6014,1993.00,59.00,52.00,77.55,170.00,8.00,0.00,30.12,1013.30,M,M,M,M,M,M,M,M,M,M,M,M,M,M,M,M,M,59.00,KP68 031353Z AUTO 17008KT 15/11 A3012 RMK AO1 SLP133 T01500111 $,M
DRA,2023-09-03 13:53,-116.0278,36.6206,1009.00,68.00,64.00,87.03,120.00,6.00,0.00,30.05,1013.20,10.00,M,SCT,SCT,M,M,2700.00,3300.00,M,M,M,M,M,M,M,M,M,68.00,KDRA 031353Z AUTO 12006KT 10SM SCT027 SCT033 20/18 A3005 RMK AO2 SLP132 T02000178,M
ELY,2023-09-03 13:53,-114.8453,39.2950,1909.00,57.00,54.00,89.68,210.00,10.00,T,30.18,1014.30,7.00,M,FEW,FEW,BKN,M,5500.00,7000.00,10000.00,M,-RA,M,M,M,M,M,M,57.00,KELY 031353Z AUTO 21010KT 7SM -RA FEW055 FEW070 BKN100 14/12 A3018 RMK AO2 RAB1254E08B49 SLP143 P0000 T01390122,M
VGT,2023-09-03 13:53,-115.1933,36.2111,667.00,72.00,67.00,84.28,320.00,3.00,0.00,30.02,1016.40,10.00,M,CLR,M,M,M,M,M,M,M,M,M,M,M,M,M,M,72.00,KVGT 031353Z 32003KT 10SM CLR 22/19 A3002 RMK AO2 SLP164 T02220194 $,M
LOL,2023-09-03 13:53,-118.5701,40.0684,1192.43,56.00,48.00,74.45,0.00,0.00,0.00,30.02,1014.10,10.00,M,CLR,M,M,M,M,M,M,M,M,M,M,M,M,M,M,56.00,KLOL 031353Z AUTO 00000KT 10SM CLR 13/09 A3002 RMK AO2 SLP141 T01330089,M
BVU,2023-09-03 13:55,-114.8611,35.9475,671.00,69.80,66.20,88.34,0.00,0.00,0.00,30.03,M,10.00,M,CLR,M,M,M,M,M,M,M,M,M,M,M,M,M,M,69.80,KBVU 031355Z AUTO 00000KT 10SM CLR 21/19 A3003 RMK AO2,M
CXP,2023-09-03 13:55,-119.7326,39.1923,1431.00,57.20,48.20,71.83,10.00,8.00,0.00,30.08,M,10.00,M,BKN,OVC,M,M,6000.00,7500.00,M,M,M,M,M,M,M,M,M,57.20,KCXP 031355Z AUTO 01008KT 10SM BKN060 OVC075 14/09 A3008 RMK AO2 LTG DSNT NE AND E,M
RNO,2023-09-03 13:55,-119.7711,39.4839,1341.00,53.00,49.00,86.23,M,3.00,0.00,30.08,1015.40,10.00,M,FEW,BKN,BKN,M,4500.00,9000.00,22000.00,M,M,M,M,M,M,M,M,53.00,KRNO 031355Z VRB03KT 10SM FEW045 BKN090 BKN220 12/09 A3008 RMK AO2 SLP154 MTN TOPS OBSCD DSNT SW T01170094,M
RTS,2023-09-03 13:55,-119.8764,39.6682,1539.00,48.20,46.40,93.45,340.00,3.00,0.00,30.11,M,10.00,M,SCT,SCT,M,M,5000.00,8000.00,M,M,M,M,M,M,M,M,M,47.21,KRTS 031355Z AUTO 34003KT 10SM SCT050 SCT080 09/08 A3011 RMK AO2,M
MEV,2023-09-03 13:55,-119.7500,38.9963,1441.42,50.00,46.40,87.37,140.00,5.00,0.00,30.07,M,10.00,M,BKN,OVC,M,M,6000.00,7000.00,M,M,M,M,M,M,M,M,M,50.00,KMEV 031355Z AUTO 14005KT 10SM BKN060 OVC070 10/08 A3007 RMK AO2 LTG DSNT NE AND E,M
HTH,2023-09-03 13:55,-118.6315,38.5448,1282.89,60.80,53.60,77.14,300.00,5.00,0.00,30.04,M,10.00,M,BKN,BKN,M,M,10000.00,12000.00,M,M,M,M,M,M,M,M,M,60.80,KHTH 031355Z AUTO 30005KT 10SM BKN100 BKN120 16/12 A3004 RMK A01,M
BAM,2023-09-03 13:55,-116.8743,40.5990,1382.36,59.00,55.40,87.83,320.00,8.00,0.00,30.09,M,10.00,M,SCT,BKN,OVC,M,500.00,2400.00,4100.00,M,M,M,M,M,M,M,M,59.00,KBAM 031355Z AUTO 32008KT 10SM SCT005 BKN024 OVC041 15/13 A3009 RMK AO1,M
TMT,2023-09-03 13:55,-117.1971,39.4643,1749.34,49.30,49.30,100.00,0.00,0.00,0.00,30.12,M,M,M,OVC,M,M,M,100.00,M,M,M,M,M,M,M,M,M,M,49.30,KTMT 031355Z AUTO 00000KT OVC001 10/10 A3012 RMK AO2 LTG DSNT N AND NW T00960096 PWINO,M
10U,2023-09-03 13:55,-116.1876,41.9532,1637.00,55.40,51.80,87.65,0.00,0.00,0.00,30.15,M,10.00,M,FEW,BKN,OVC,M,5500.00,6500.00,7500.00,M,-RA,M,M,M,M,M,M,55.40,K10U 031355Z AUTO 00000KT 10SM -RA FEW055 BKN065 OVC075 13/11 A3015 RMK AO2,M
INS,2023-09-03 13:55,-115.6733,36.5872,955.00,65.00,64.60,98.61,0.00,0.00,0.00,30.05,1013.80,10.00,M,CLR,M,M,M,M,M,M,M,M,M,M,M,M,M,M,65.00,KINS 031355Z AUTO 00000KT 10SM CLR 18/18 A3005 RMK AO2 SLP138 T01830181 $,M
LSV,2023-09-03 13:55,-115.0343,36.2362,570.00,70.00,69.60,98.64,0.00,0.00,0.00,29.99,1013.90,10.00,M,CLR,M,M,M,M,M,M,M,M,M,M,M,M,M,M,70.00,KLSV 031355Z AUTO 00000KT 10SM CLR 21/21 A2999 RMK AO2 SLP139 T02110209 $,M
EKO,2023-09-03 13:56,-115.7860,40.8242,1367.00,59.00,56.00,89.76,0.00,0.00,0.00,30.10,1014.90,10.00,M,OVC,M,M,M,3100.00,M,M,M,M,M,M,M,M,M,M,59.00,KEKO 031356Z AUTO 00000KT 10SM OVC031 15/13 A3010 RMK AO2 LTG DSNT NW SLP149 T01500133,M
WMC,2023-09-03 13:56,-117.8072,40.9019,1315.00,58.00,56.00,93.04,50.00,7.00,0.04,30.06,1014.80,3.00,M,SCT,BKN,OVC,M,3300.00,4500.00,7000.00,M,VCTS +RA BR,M,M,M,M,M,M,58.00,KWMC 031356Z AUTO 05007KT 3SM VCTS +RA BR SCT033 BKN045 OVC070 14/13 A3006 RMK AO2 LTG DSNT N AND SE AND W TSB26E43 SLP148 P0004 T01440133,M
NFL,2023-09-03 13:56,-118.7010,39.4166,1199.00,54.00,50.00,86.29,120.00,3.00,0.00,30.02,1013.70,7.00,M,FEW,M,M,M,12000.00,M,M,M,M,M,M,M,M,M,M,54.00,KNFL 031356Z AUTO 12003KT 7SM FEW120 12/10 A3002 RMK AO2 SLP137 T01220100,M
HND,2023-09-03 13:56,-115.1344,35.9729,742.79,68.00,65.00,90.13,150.00,5.00,0.00,30.06,1017.70,10.00,M,CLR,M,M,M,M,M,M,M,M,M,M,M,M,M,M,68.00,KHND 031356Z 15005KT 10SM CLR 20/18 A3006 RMK AO2 SLP177 T02000183,M
TPH,2023-09-03 13:56,-117.0904,38.0505,1654.00,60.00,57.00,89.80,170.00,4.00,0.00,30.12,1014.10,10.00,M,BKN,M,M,M,1400.00,M,M,M,M,M,M,M,M,M,M,60.00,KTPH 031356Z AUTO 17004KT 10SM BKN014 16/14 A3012 RMK AO2 SLP141 T01560139,M
LAS,2023-09-03 13:56,-115.1634,36.0719,663.00,70.00,66.00,87.14,220.00,3.00,0.00,30.03,1014.90,10.00,M,FEW,M,M,M,10000.00,M,M,M,M,M,M,M,M,M,M,70.00,KLAS 031356Z 22003KT 10SM FEW100 21/19 A3003 RMK AO2 SLP149 T02110189 $,M
TPH,2023-09-03 14:08,-117.0904,38.0505,1654.00,61.00,57.00,86.67,160.00,8.00,0.00,30.12,M,10.00,M,FEW,BKN,BKN,M,1400.00,7000.00,8500.00,M,M,M,M,M,M,M,M,61.00,KTPH 031408Z AUTO 16008KT 10SM FEW014 BKN070 BKN085 16/14 A3012 RMK AO2 T01610139,M
05U,2023-09-03 14:10,-116.0051,39.6042,1811.23,60.80,53.60,77.14,M,M,0.00,30.15,M,10.00,M,CLR,M,M,M,M,M,M,M,M,M,M,M,M,M,M,60.80,K05U 031410Z AUTO 10SM CLR 16/12 A3015 RMK A01,M
WMC,2023-09-03 14:14,-117.8072,40.9019,1315.00,58.00,56.00,93.04,40.00,7.00,0.04,30.06,M,10.00,M,BKN,BKN,OVC,M,1300.00,4500.00,7000.00,M,M,M,M,M,M,M,M,58.00,KWMC 031414Z AUTO 04007KT 10SM BKN013 BKN045 OVC070 14/13 A3006 RMK AO2 LTG DSNT W RAE14 P0004 T01440133,M
BVU,2023-09-03 14:15,-114.8611,35.9475,671.00,71.60,66.20,83.09,0.00,0.00,0.00,30.03,M,10.00,M,FEW,M,M,M,3500.00,M,M,M,M,M,M,M,M,M,M,71.60,KBVU 031415Z AUTO 00000KT 10SM FEW035 22/19 A3003 RMK AO2,M
CXP,2023-09-03 14:15,-119.7326,39.1923,1431.00,57.20,48.20,71.83,M,5.00,0.00,30.09,M,10.00,11.00,OVC,M,M,M,6000.00,M,M,M,M,M,M,M,M,M,M,57.20,KCXP 031415Z AUTO VRB05G11KT 10SM OVC060 14/09 A3009 RMK AO2 LTG DSNT NE AND E,M
RTS,2023-09-03 14:15,-119.8764,39.6682,1539.00,48.20,46.40,93.45,360.00,6.00,0.00,30.12,M,10.00,M,CLR,M,M,M,M,M,M,M,M,M,M,M,M,M,M,45.04,KRTS 031415Z AUTO 36006KT 10SM CLR 09/08 A3012 RMK AO2,M
MEV,2023-09-03 14:15,-119.7500,38.9963,1441.42,51.80,46.40,81.74,0.00,0.00,0.00,30.07,M,10.00,M,BKN,BKN,OVC,M,6000.00,7500.00,9000.00,M,M,M,M,M,M,M,M,51.80,KMEV 031415Z AUTO 00000KT 10SM BKN060 BKN075 OVC090 11/08 A3007 RMK AO2,M
HTH,2023-09-03 14:15,-118.6315,38.5448,1282.89,62.60,55.40,77.29,260.00,6.00,0.00,30.05,M,10.00,M,BKN,M,M,M,11000.00,M,M,M,M,M,M,M,M,M,M,62.60,KHTH 031415Z AUTO 26006KT 10SM BKN110 17/13 A3005 RMK A01,M
10U,2023-09-03 14:15,-116.1876,41.9532,1637.00,55.40,53.60,93.65,0.00,0.00,0.00,30.16,M,10.00,M,SCT,OVC,M,M,5000.00,6000.00,M,M,M,M,M,M,M,M,M,55.40,K10U 031415Z AUTO 00000KT 10SM SCT050 OVC060 13/12 A3016 RMK AO2,M
BAM,2023-09-03 14:15,-116.8743,40.5990,1382.36,59.00,55.40,87.83,10.00,10.00,0.00,30.09,M,10.00,M,SCT,BKN,OVC,M,500.00,2500.00,3700.00,M,M,M,M,M,M,M,M,59.00,KBAM 031415Z AUTO 01010KT 10SM SCT005 BKN025 OVC037 15/13 A3009 RMK AO1,M
WMC,2023-09-03 14:26,-117.8072,40.9019,1315.00,58.00,56.00,93.04,40.00,6.00,0.04,30.06,M,10.00,M,SCT,SCT,OVC,M,1300.00,4400.00,7000.00,M,-RA,M,M,M,M,M,M,58.00,KWMC 031426Z AUTO 04006KT 10SM -RA SCT013 SCT044 OVC070 14/13 A3006 RMK AO2 LTG DSNT ALQDS RAE14B25 P0004 T01440133,M
EKO,2023-09-03 14:28,-115.7860,40.8242,1367.00,60.00,55.00,83.53,60.00,3.00,0.00,30.09,M,10.00,M,OVC,M,M,M,2800.00,M,M,M,M,M,M,M,M,M,M,60.00,KEKO 031428Z AUTO 06003KT 10SM OVC028 16/13 A3009 RMK AO2 T01560128,M
05U,2023-09-03 14:30,-116.0051,39.6042,1811.23,60.80,53.60,77.14,M,M,0.00,30.16,M,10.00,M,CLR,M,M,M,M,M,M,M,M,M,M,M,M,M,M,60.80,K05U 031430Z AUTO 10SM CLR 16/12 A3016 RMK A01,M
BVU,2023-09-03 14:35,-114.8611,35.9475,671.00,73.40,66.20,78.19,110.00,3.00,0.00,30.02,M,10.00,M,SCT,M,M,M,3400.00,M,M,M,M,M,M,M,M,M,M,73.40,KBVU 031435Z AUTO 11003KT 10SM SCT034 23/19 A3002 RMK AO2,M
CXP,2023-09-03 14:35,-119.7326,39.1923,1431.00,57.20,48.20,71.83,330.00,7.00,0.00,30.08,M,10.00,M,BKN,SCT,BKN,M,6000.00,8000.00,9500.00,M,M,M,M,M,M,M,M,57.20,KCXP 031435Z AUTO 33007KT 10SM BKN060 SCT080 BKN095 14/09 A3008 RMK AO2,M
RTS,2023-09-03 14:35,-119.8764,39.6682,1539.00,50.00,48.20,93.50,320.00,5.00,0.00,30.12,M,10.00,M,SCT,SCT,SCT,M,3400.00,4100.00,7500.00,M,M,M,M,M,M,M,M,50.00,KRTS 031435Z AUTO 32005KT 10SM SCT034 SCT041 SCT075 10/09 A3012 RMK AO2,M
MEV,2023-09-03 14:35,-119.7500,38.9963,1441.42,51.80,48.20,87.47,0.00,0.00,0.00,30.07,M,9.00,M,SCT,BKN,BKN,M,6500.00,7500.00,9000.00,M,M,M,M,M,M,M,M,51.80,KMEV 031435Z AUTO 00000KT 9SM SCT065 BKN075 BKN090 11/09 A3007 RMK AO2,M
HTH,2023-09-03 14:35,-118.6315,38.5448,1282.89,62.60,57.20,82.50,300.00,4.00,0.00,30.05,M,10.00,M,SCT,BKN,M,M,8000.00,10000.00,M,M,M,M,M,M,M,M,M,62.60,KHTH 031435Z AUTO 30004KT 10SM SCT080 BKN100 17/14 A3005 RMK A01,M
BAM,2023-09-03 14:35,-116.8743,40.5990,1382.36,59.00,55.40,87.83,50.00,5.00,0.00,30.09,M,7.00,M,SCT,SCT,OVC,M,2600.00,3700.00,5000.00,M,M,M,M,M,M,M,M,59.00,KBAM 031435Z AUTO 05005KT 7SM SCT026 SCT037 OVC050 15/13 A3009 RMK AO1,M
TMT,2023-09-03 14:35,-117.1971,39.4643,1749.34,51.80,51.80,100.00,0.00,0.00,0.01,30.12,M,M,M,OVC,M,M,M,100.00,M,M,M,M,M,M,M,M,M,M,51.80,KTMT 031435Z AUTO 00000KT OVC001 11/11 A3012 RMK AO2 LTG DSNT W AND NW P0001 T01100110 PWINO,M
10U,2023-09-03 14:40,-116.1876,41.9532,1637.00,55.40,51.80,87.65,0.00,0.00,0.00,30.16,M,8.00,M,FEW,SCT,SCT,M,3600.00,4900.00,6000.00,M,-RA,M,M,M,M,M,M,55.40,K10U 031440Z AUTO 00000KT 8SM -RA FEW036 SCT049 SCT060 13/11 A3016 RMK AO2,M
05U,2023-09-03 14:50,-116.0051,39.6042,1811.23,64.40,53.60,67.95,M,M,0.00,30.15,M,10.00,M,CLR,M,M,M,M,M,M,M,M,M,M,M,M,M,M,64.40,K05U 031450Z AUTO 10SM CLR 18/12 A3015 RMK A01,M
P68,2023-09-03 14:53,-116.0056,39.6014,1993.00,64.00,54.00,69.92,170.00,13.00,0.00,30.12,1012.80,M,M,M,M,M,M,M,M,M,M,M,M,M,M,M,M,M,64.00,KP68 031453Z AUTO 17013KT 18/12 A3012 RMK AO1 SLP128 T01780122 56005 $,M
DRA,2023-09-03 14:53,-116.0278,36.6206,1009.00,71.00,64.00,78.54,120.00,9.00,0.00,30.04,1013.20,10.00,M,SCT,BKN,M,M,2600.00,7000.00,M,M,M,M,M,M,M,M,M,71.00,KDRA 031453Z AUTO 12009KT 10SM SCT026 BKN070 22/18 A3004 RMK AO2 SLP132 T02170178 58002,M
ELY,2023-09-03 14:53,-114.8453,39.2950,1909.00,60.00,55.00,83.53,180.00,10.00,0.01,30.18,1013.80,10.00,M,CLR,M,M,M,M,M,M,M,M,M,M,M,M,M,M,60.00,KELY 031453Z AUTO 18010KT 10SM CLR 16/13 A3018 RMK AO2 RAE01 SLP138 P0001 60003 T01560128 56006,M
VGT,2023-09-03 14:53,-115.1933,36.2111,667.00,74.00,68.00,81.55,0.00,0.00,0.00,30.02,1016.20,10.00,M,CLR,M,M,M,M,M,M,M,M,M,M,M,M,M,M,74.00,KVGT 031453Z 00000KT 10SM CLR 23/20 A3002 RMK AO2 SLP162 T02330200 53001 $,M
LOL,2023-09-03 14:53,-118.5701,40.0684,1192.43,64.00,52.00,64.97,50.00,8.00,0.00,30.02,1013.40,10.00,M,CLR,M,M,M,M,M,M,M,M,M,M,M,M,M,M,64.00,KLOL 031453Z AUTO 05008KT 10SM CLR 18/11 A3002 RMK AO2 SLP134 T01780111 50000,M
BVU,2023-09-03 14:55,-114.8611,35.9475,671.00,73.40,66.20,78.19,0.00,0.00,0.00,30.03,M,10.00,M,CLR,M,M,M,M,M,M,M,M,M,M,M,M,M,M,73.40,KBVU 031455Z AUTO 00000KT 10SM CLR 23/19 A3003 RMK AO2,M
CXP,2023-09-03 14:55,-119.7326,39.1923,1431.00,57.20,48.20,71.83,80.00,6.00,0.00,30.09,M,10.00,M,SCT,BKN,M,M,7500.00,9000.00,M,M,VCTS,M,M,M,M,M,M,57.20,KCXP 031455Z AUTO 08006KT 10SM VCTS SCT075 BKN090 14/09 A3009 RMK AO2 LTG DSNT NE-SE,M
RNO,2023-09-03 14:55,-119.7711,39.4839,1341.00,53.00,49.00,86.23,130.00,3.00,0.00,30.09,1015.70,10.00,M,SCT,BKN,M,M,4000.00,6000.00,M,M,M,M,M,M,M,M,M,53.00,KRNO 031455Z 13003KT 10SM SCT040 BKN060 12/09 A3009 RMK AO2 LTG DSNT SE SLP157 T01170094 53002,M
RTS,2023-09-03 14:55,-119.8764,39.6682,1539.00,50.00,50.00,100.00,320.00,4.00,0.00,30.10,M,10.00,M,BKN,BKN,BKN,M,3400.00,4000.00,9000.00,M,M,M,M,M,M,M,M,50.00,KRTS 031455Z AUTO 32004KT 10SM BKN034 BKN040 BKN090 10/10 A3010 RMK AO2,M
MEV,2023-09-03 14:55,-119.7500,38.9963,1441.42,53.60,46.40,76.50,110.00,5.00,0.00,30.08,M,10.00,M,BKN,OVC,M,M,6000.00,8500.00,M,M,M,M,M,M,M,M,M,53.60,KMEV 031455Z AUTO 11005KT 10SM BKN060 OVC085 12/08 A3008 RMK AO2 LTG DSNT NE AND E,M
BAM,2023-09-03 14:55,-116.8743,40.5990,1382.36,59.00,55.40,87.83,30.00,3.00,0.00,30.09,M,10.00,M,SCT,BKN,OVC,M,3400.00,5000.00,6500.00,M,M,M,M,M,M,M,M,59.00,KBAM 031455Z AUTO 03003KT 10SM SCT034 BKN050 OVC065 15/13 A3009 RMK AO1,M
HTH,2023-09-03 14:55,-118.6315,38.5448,1282.89,62.60,55.40,77.29,350.00,4.00,0.00,30.05,M,10.00,M,BKN,BKN,M,M,7500.00,10000.00,M,M,M,M,M,M,M,M,M,62.60,KHTH 031455Z AUTO 35004KT 10SM BKN075 BKN100 17/13 A3005 RMK A01,M
TMT,2023-09-03 14:55,-117.1971,39.4643,1749.34,52.50,52.50,100.00,0.00,0.00,0.01,30.12,M,M,M,OVC,M,M,M,100.00,M,M,M,VCTS,M,M,M,M,M,M,52.50,KTMT 031455Z AUTO 00000KT VCTS OVC001 11/11 A3012 RMK AO2 LTG DSNT W THRU N P0001 60001 T01140114,M
INS,2023-09-03 14:55,-115.6733,36.5872,955.00,68.00,65.70,92.35,0.00,0.00,0.00,30.04,1013.50,10.00,M,CLR,M,M,M,M,M,M,M,M,M,M,M,M,M,M,68.00,KINS 031455Z AUTO 00000KT 10SM CLR 20/19 A3004 RMK AO2 SLP135 T02010187 56003 $,M
LSV,2023-09-03 14:55,-115.0343,36.2362,570.00,75.40,75.00,98.67,0.00,0.00,0.00,29.99,1013.70,10.00,M,CLR,M,M,M,M,M,M,M,M,M,M,M,M,M,M,75.40,KLSV 031455Z AUTO 00000KT 10SM CLR 24/24 A2999 RMK AO2 SLP137 T02410239 55000 $,M
EKO,2023-09-03 14:56,-115.7860,40.8242,1367.00,63.00,55.00,75.11,360.00,4.00,0.00,30.10,1014.80,10.00,M,BKN,M,M,M,2800.00,M,M,M,M,M,M,M,M,M,M,63.00,KEKO 031456Z AUTO 36004KT 10SM BKN028 17/13 A3010 RMK AO2 SLP148 T01720128 56005,M
WMC,2023-09-03 14:56,-117.8072,40.9019,1315.00,58.00,56.00,93.04,60.00,6.00,0.04,30.06,1014.60,10.00,M,FEW,BKN,M,M,1300.00,9000.00,M,M,M,M,M,M,M,M,M,58.00,KWMC 031456Z AUTO 06006KT 10SM FEW013 BKN090 14/13 A3006 RMK AO2 LTG DSNT SE AND S AND NW RAE14B25E36 SLP146 P0004 60010 T01440133 50004,M
NFL,2023-09-03 14:56,-118.7010,39.4166,1199.00,60.00,50.00,69.49,310.00,4.00,0.00,30.03,1013.80,10.00,M,BKN,M,M,M,11000.00,M,M,M,M,M,M,M,M,M,M,60.00,KNFL 031456Z AUTO 31004KT 10SM BKN110 16/10 A3003 RMK AO2 SLP138 T01560100 53002,M
HND,2023-09-03 14:56,-115.1344,35.9729,742.79,71.00,66.00,84.22,210.00,4.00,0.00,30.06,1017.50,10.00,M,CLR,M,M,M,M,M,M,M,M,M,M,M,M,M,M,71.00,KHND 031456Z 21004KT 10SM CLR 22/19 A3006 RMK AO2 SLP175 T02170189 56002,M
TPH,2023-09-03 14:56,-117.0904,38.0505,1654.00,63.00,57.00,80.76,160.00,13.00,0.00,30.11,1013.70,10.00,M,SCT,M,M,M,1800.00,M,M,M,M,M,M,M,M,M,M,63.00,KTPH 031456Z AUTO 16013KT 10SM SCT018 17/14 A3011 RMK AO2 LTG DSNT NE SLP137 T01720139 58006,M
LAS,2023-09-03 14:56,-115.1634,36.0719,663.00,72.00,66.00,81.41,120.00,3.00,0.00,30.02,1014.80,10.00,M,FEW,M,M,M,10000.00,M,M,M,M,M,M,M,M,M,M,72.00,KLAS 031456Z 12003KT 10SM FEW100 22/19 A3002 RMK AO2 SLP148 T02220189 57001 $,M
10U,2023-09-03 15:00,-116.1876,41.9532,1637.00,53.60,51.80,93.60,0.00,0.00,0.00,30.17,M,9.00,M,SCT,SCT,M,M,6000.00,8500.00,M,M,-RA,M,M,M,M,M,M,53.60,K10U 031500Z AUTO 00000KT 9SM -RA SCT060 SCT085 12/11 A3017 RMK AO2,M
WMC,2023-09-03 15:04,-117.8072,40.9019,1315.00,58.00,56.00,93.04,70.00,6.00,0.00,30.06,M,10.00,M,BKN,M,M,M,9000.00,M,M,M,VCTS,M,M,M,M,M,M,58.00,KWMC 031504Z AUTO 07006KT 10SM VCTS BKN090 14/13 A3006 RMK AO2 LTG DSNT ALQDS T01440133,M
05U,2023-09-03 15:10,-116.0051,39.6042,1811.23,66.20,53.60,63.82,M,M,0.00,30.14,M,10.00,M,CLR,M,M,M,M,M,M,M,M,M,M,M,M,M,M,66.20,K05U 031510Z AUTO 10SM CLR 19/12 A3014 RMK A01,M
BVU,2023-09-03 15:15,-114.8611,35.9475,671.00,73.40,66.20,78.19,0.00,0.00,0.00,30.02,M,10.00,M,CLR,M,M,M,M,M,M,M,M,M,M,M,M,M,M,73.40,KBVU 031515Z AUTO 00000KT 10SM CLR 23/19 A3002 RMK AO2,M
CXP,2023-09-03 15:15,-119.7326,39.1923,1431.00,55.40,50.00,81.99,40.00,5.00,0.00,30.10,M,10.00,M,BKN,OVC,M,M,5500.00,7500.00,M,M,M,M,M,M,M,M,M,55.40,KCXP 031515Z AUTO 04005KT 10SM BKN055 OVC075 13/10 A3010 RMK AO2 LTG DSNT NE-SE,M
RTS,2023-09-03 15:15,-119.8764,39.6682,1539.00,51.80,48.20,87.47,0.00,0.00,0.00,30.11,M,10.00,M,SCT,BKN,M,M,3600.00,9000.00,M,M,M,M,M,M,M,M,M,51.80,KRTS 031515Z AUTO 00000KT 10SM SCT036 BKN090 11/09 A3011 RMK AO2,M
MEV,2023-09-03 15:15,-119.7500,38.9963,1441.42,57.20,48.20,71.83,70.00,5.00,0.00,30.08,M,10.00,M,SCT,BKN,M,M,6000.00,9500.00,M,M,VCTS,M,M,M,M,M,M,57.20,KMEV 031515Z AUTO 07005KT 10SM VCTS SCT060 BKN095 14/09 A3008 RMK AO2 LTG DSNT NE AND E,M
BAM,2023-09-03 15:15,-116.8743,40.5990,1382.36,59.00,55.40,87.83,30.00,5.00,0.00,30.08,M,10.00,M,SCT,SCT,OVC,M,3200.00,5000.00,9000.00,M,M,M,M,M,M,M,M,59.00,KBAM 031515Z AUTO 03005KT 10SM SCT032 SCT050 OVC090 15/13 A3008 RMK AO1,M
HTH,2023-09-03 15:15,-118.6315,38.5448,1282.89,64.40,55.40,72.56,320.00,5.00,0.00,30.05,M,10.00,M,FEW,SCT,BKN,M,7000.00,8000.00,10000.00,M,M,M,M,M,M,M,M,64.40,KHTH 031515Z AUTO 32005KT 10SM FEW070 SCT080 BKN100 18/13 A3005 RMK A01,M
10U,2023-09-03 15:15,-116.1876,41.9532,1637.00,53.60,51.80,93.60,170.00,4.00,0.00,30.18,M,4.00,M,SCT,BKN,M,M,6000.00,7000.00,M,M,-RA,M,M,M,M,M,M,53.60,K10U 031515Z AUTO 17004KT 4SM -RA SCT060 BKN070 12/11 A3018 RMK AO2,M
TMT,2023-09-03 15:15,-117.1971,39.4643,1749.34,52.70,52.70,100.00,90.00,3.00,0.00,30.11,M,M,M,OVC,M,M,M,300.00,M,M,M,M,M,M,M,M,M,M,52.70,KTMT 031515Z AUTO 09003KT OVC003 12/12 A3011 RMK AO2 LTG DSNT W THRU N T01150115 PWINO,M
WMC,2023-09-03 15:19,-117.8072,40.9019,1315.00,58.00,56.00,93.04,30.00,8.00,0.00,30.06,M,10.00,M,SCT,BKN,BKN,M,7000.00,9000.00,11000.00,M,M,M,M,M,M,M,M,58.00,KWMC 031519Z AUTO 03008KT 10SM SCT070 BKN090 BKN110 14/13 A3006 RMK AO2 LTG DSNT E AND SE AND NW T01440133,M
DRA,2023-09-03 15:28,-116.0278,36.6206,1009.00,73.00,64.00,73.40,110.00,7.00,0.00,30.04,M,10.00,M,BKN,BKN,OVC,M,2100.00,3400.00,7000.00,M,M,M,M,M,M,M,M,73.00,KDRA 031528Z AUTO 11007KT 10SM BKN021 BKN034 OVC070 23/18 A3004 RMK AO2 T02280178,M
05U,2023-09-03 15:30,-116.0051,39.6042,1811.23,68.00,53.60,59.97,M,M,0.00,30.14,M,10.00,M,CLR,M,M,M,M,M,M,M,M,M,M,M,M,M,M,68.00,K05U 031530Z AUTO 10SM CLR 20/12 A3014 RMK A01,M
BVU,2023-09-03 15:35,-114.8611,35.9475,671.00,75.20,66.20,73.61,0.00,0.00,0.00,30.02,M,10.00,M,CLR,M,M,M,M,M,M,M,M,M,M,M,M,M,M,75.20,KBVU 031535Z AUTO 00000KT 10SM CLR 24/19 A3002 RMK AO2,M
CXP,2023-09-03 15:35,-119.7326,39.1923,1431.00,57.20,50.00,76.82,360.00,7.00,0.00,30.09,M,10.00,M,SCT,BKN,BKN,M,5500.00,7500.00,9500.00,M,M,M,M,M,M,M,M,57.20,KCXP 031535Z AUTO 36007KT 320V030 10SM SCT055 BKN075 BKN095 14/10 A3009 RMK AO2 LTG DSNT N-SE,M
RTS,2023-09-03 15:35,-119.8764,39.6682,1539.00,51.80,48.20,87.47,0.00,0.00,0.00,30.11,M,10.00,M,FEW,BKN,OVC,M,3000.00,3700.00,6500.00,M,M,M,M,M,M,M,M,51.80,KRTS 031535Z AUTO 00000KT 10SM FEW030 BKN037 OVC065 11/09 A3011 RMK AO2,M
MEV,2023-09-03 15:35,-119.7500,38.9963,1441.42,57.20,50.00,76.82,120.00,5.00,0.00,30.07,M,10.00,M,SCT,SCT,M,M,6000.00,9500.00,M,M,M,M,M,M,M,M,M,57.20,KMEV 031535Z AUTO 12005KT 10SM SCT060 SCT095 14/10 A3007 RMK AO2 LTG DSNT N-E,M
BAM,2023-09-03 15:35,-116.8743,40.5990,1382.36,59.00,57.20,93.74,320.00,5.00,0.00,30.08,M,10.00,M,SCT,BKN,OVC,M,2000.00,5000.00,9000.00,M,M,M,M,M,M,M,M,59.00,KBAM 031535Z AUTO 32005KT 10SM SCT020 BKN050 OVC090 15/14 A3008 RMK AO1,M
HTH,2023-09-03 15:35,-118.6315,38.5448,1282.89,64.40,55.40,72.56,330.00,6.00,0.00,30.04,M,10.00,M,FEW,BKN,M,M,6500.00,9000.00,M,M,M,M,M,M,M,M,M,64.40,KHTH 031535Z AUTO 33006KT 10SM FEW065 BKN090 18/13 A3004 RMK A01,M
10U,2023-09-03 15:35,-116.1876,41.9532,1637.00,53.60,51.80,93.60,0.00,0.00,0.00,30.18,M,5.00,M,FEW,FEW,BKN,M,3800.00,5000.00,6000.00,M,-RA,M,M,M,M,M,M,53.60,K10U 031535Z AUTO 00000KT 5SM -RA FEW038 FEW050 BKN060 12/11 A3018 RMK AO2 LTG DSNT W,M
TMT,2023-09-03 15:35,-117.1971,39.4643,1749.34,54.30,54.30,100.00,0.00,0.00,0.00,30.11,M,M,M,OVC,M,M,M,300.00,M,M,M,M,M,M,M,M,M,M,54.30,KTMT 031535Z AUTO 00000KT OVC003 12/12 A3011 RMK AO2 LTG DSNT N AND W T01240124 PWINO,M
DRA,2023-09-03 15:44,-116.0278,36.6206,1009.00,72.00,65.00,78.62,220.00,10.00,0.00,30.05,M,10.00,M,SCT,BKN,OVC,M,2100.00,3200.00,5000.00,M,M,M,M,M,M,M,M,72.00,KDRA 031544Z AUTO 22010KT 10SM SCT021 BKN032 OVC050 22/18 A3005 RMK AO2 T02220183,M
05U,2023-09-03 15:50,-116.0051,39.6042,1811.23,69.80,53.60,56.38,M,M,0.00,30.14,M,10.00,M,CLR,M,M,M,M,M,M,M,M,M,M,M,M,M,M,69.80,K05U 031550Z AUTO 10SM CLR 21/12 A3014 RMK A01,M
P68,2023-09-03 15:53,-116.0056,39.6014,1993.00,68.00,54.00,60.86,170.00,14.00,0.00,30.11,1011.80,M,M,M,M,M,M,M,M,M,M,M,M,M,M,M,M,M,68.00,KP68 031553Z AUTO 17014KT 20/12 A3011 RMK AO1 SLP118 T02000122 $,M
DRA,2023-09-03 15:53,-116.0278,36.6206,1009.00,72.00,64.00,75.92,220.00,9.00,0.00,30.04,1013.20,10.00,M,SCT,BKN,OVC,M,2100.00,4200.00,5000.00,M,M,M,M,M,M,M,M,72.00,KDRA 031553Z AUTO 22009KT 10SM SCT021 BKN042 OVC050 22/18 A3004 RMK AO2 SLP132 T02220178,M
ELY,2023-09-03 15:53,-114.8453,39.2950,1909.00,65.00,54.00,67.52,170.00,17.00,0.00,30.16,1012.80,10.00,23.00,CLR,M,M,M,M,M,M,M,M,M,M,M,M,M,M,65.00,KELY 031553Z AUTO 17017G23KT 10SM CLR 18/12 A3016 RMK AO2 SLP128 T01830122,M
VGT,2023-09-03 15:53,-115.1933,36.2111,667.00,76.00,67.00,73.69,90.00,5.00,0.00,30.01,1015.90,10.00,M,FEW,M,M,M,5500.00,M,M,M,M,M,M,M,M,M,M,76.00,KVGT 031553Z 09005KT 10SM FEW055 24/19 A3001 RMK AO2 SLP159 T02440194 $,M
LOL,2023-09-03 15:53,-118.5701,40.0684,1192.43,62.00,53.00,72.32,80.00,6.00,0.00,30.03,1013.90,10.00,M,BKN,BKN,OVC,M,4000.00,4900.00,8500.00,M,M,M,M,M,M,M,M,62.00,KLOL 031553Z AUTO 08006KT 10SM BKN040 BKN049 OVC085 17/12 A3003 RMK AO2 LTG DSNT SE-W SLP139 T01670117,M
BVU,2023-09-03 15:55,-114.8611,35.9475,671.00,75.20,66.20,73.61,0.00,0.00,0.00,30.02,M,10.00,M,CLR,M,M,M,M,M,M,M,M,M,M,M,M,M,M,75.20,KBVU 031555Z AUTO 00000KT 10SM CLR 24/19 A3002 RMK AO2,M
CXP,2023-09-03 15:55,-119.7326,39.1923,1431.00,57.20,50.00,76.82,100.00,4.00,0.00,30.09,M,10.00,M,FEW,BKN,BKN,M,6000.00,7500.00,9500.00,M,M,M,M,M,M,M,M,57.20,KCXP 031555Z AUTO 10004KT 10SM FEW060 BKN075 BKN095 14/10 A3009 RMK AO2 LTG DSNT E,M
RNO,2023-09-03 15:55,-119.7711,39.4839,1341.00,56.00,49.00,77.29,170.00,4.00,0.00,30.09,1015.80,10.00,M,SCT,BKN,OVC,M,2500.00,4000.00,8000.00,M,M,M,M,M,M,M,M,56.00,KRNO 031555Z 17004KT 10SM SCT025 BKN040 OVC080 13/09 A3009 RMK AO2 LTG DSNT E AND SE SLP158 T01330094,M
RTS,2023-09-03 15:55,-119.8764,39.6682,1539.00,53.60,48.20,81.87,340.00,3.00,0.00,30.11,M,10.00,M,SCT,BKN,OVC,M,3900.00,6500.00,8500.00,M,M,M,M,M,M,M,M,53.60,KRTS 031555Z AUTO 34003KT 10SM SCT039 BKN065 OVC085 12/09 A3011 RMK AO2,M
MEV,2023-09-03 15:55,-119.7500,38.9963,1441.42,57.20,50.00,76.82,0.00,0.00,0.00,30.08,M,10.00,M,FEW,SCT,M,M,6000.00,9000.00,M,M,M,M,M,M,M,M,M,57.20,KMEV 031555Z AUTO 00000KT 10SM FEW060 SCT090 14/10 A3008 RMK AO2 LTG DSNT NE AND E,M
HTH,2023-09-03 15:55,-118.6315,38.5448,1282.89,64.40,55.40,72.56,350.00,5.00,0.00,30.04,M,10.00,M,FEW,SCT,M,M,9000.00,11000.00,M,M,M,M,M,M,M,M,M,64.40,KHTH 031555Z AUTO 35005KT 10SM FEW090 SCT110 18/13 A3004 RMK A01,M
BAM,2023-09-03 15:55,-116.8743,40.5990,1382.36,59.00,55.40,87.83,300.00,10.00,0.00,30.09,M,3.00,M,SCT,BKN,OVC,M,1400.00,3700.00,5000.00,M,M,M,M,M,M,M,M,59.00,KBAM 031555Z AUTO 30010KT 3SM SCT014 BKN037 OVC050 15/13 A3009 RMK AO1,M
TMT,2023-09-03 15:55,-117.1971,39.4643,1749.34,55.00,55.00,100.00,100.00,3.00,0.00,30.10,M,M,M,OVC,M,M,M,300.00,M,M,M,M,M,M,M,M,M,M,55.00,KTMT 031555Z AUTO 10003KT OVC003 13/13 A3010 RMK AO2 LTG DSNT ALQS T01280127 PWINO,M
10U,2023-09-03 15:55,-116.1876,41.9532,1637.00,53.60,50.00,87.56,0.00,0.00,0.00,30.18,M,4.00,M,FEW,SCT,M,M,3700.00,6000.00,M,M,-RA,M,M,M,M,M,M,53.60,K10U 031555Z AUTO 00000KT 4SM -RA FEW037 SCT060 12/10 A3018 RMK AO2,M
INS,2023-09-03 15:55,-115.6733,36.5872,955.00,73.40,63.30,70.66,120.00,8.00,0.00,30.04,1013.10,10.00,M,SCT,M,M,M,2100.00,M,M,M,M,M,M,M,M,M,M,73.40,KINS 031555Z AUTO 12008KT 10SM SCT021 23/17 A3004 RMK AO2 SLP131 T02300174 $,M
LSV,2023-09-03 15:55,-115.0343,36.2362,570.00,81.50,81.00,98.38,0.00,0.00,0.00,29.98,1013.20,10.00,M,CLR,M,M,M,M,M,M,M,M,M,M,M,M,M,M,93.65,KLSV 031555Z AUTO 00000KT 10SM CLR 28/27 A2998 RMK AO2 SLP132 T02750273 $,M
EKO,2023-09-03 15:56,-115.7860,40.8242,1367.00,67.00,56.00,67.75,50.00,8.00,0.00,30.08,1014.10,10.00,M,BKN,BKN,M,M,2800.00,8500.00,M,M,M,M,M,M,M,M,M,67.00,KEKO 031556Z AUTO 05008KT 10SM BKN028 BKN085 19/13 A3008 RMK AO2 LTG DSNT W SLP141 T01940133,M
WMC,2023-09-03 15:56,-117.8072,40.9019,1315.00,58.00,56.00,93.04,50.00,8.00,0.00,30.06,1014.70,10.00,M,FEW,FEW,M,M,4800.00,10000.00,M,M,M,M,M,M,M,M,M,58.00,KWMC 031556Z AUTO 05008KT 10SM FEW048 FEW100 14/13 A3006 RMK AO2 SLP147 T01440133,M
HND,2023-09-03 15:56,-115.1344,35.9729,742.79,76.00,66.00,71.18,0.00,0.00,0.00,30.05,1017.00,10.00,M,CLR,M,M,M,M,M,M,M,M,M,M,M,M,M,M,76.00,KHND 031556Z 00000KT 10SM CLR 24/19 A3005 RMK AO2 SLP170 T02440189,M
TPH,2023-09-03 15:56,-117.0904,38.0505,1654.00,64.00,56.00,75.20,190.00,15.00,0.00,30.10,1013.20,10.00,22.00,BKN,BKN,BKN,M,1900.00,2600.00,4100.00,M,M,M,M,M,M,M,M,64.00,KTPH 031556Z AUTO 19015G22KT 10SM BKN019 BKN026 BKN041 18/13 A3010 RMK AO2 SLP132 T01780133,M
LAS,2023-09-03 15:56,-115.1634,36.0719,663.00,76.00,66.00,71.18,0.00,0.00,0.00,30.01,1014.30,10.00,M,FEW,M,M,M,10000.00,M,M,M,M,M,M,M,M,M,M,76.00,KLAS 031556Z 00000KT 10SM FEW100 24/19 A3001 RMK AO2 SLP143 T02440189 $,M
NFL,2023-09-03 15:56,-118.7010,39.4166,1199.00,61.00,51.00,69.60,290.00,7.00,0.00,30.02,1013.50,10.00,M,SCT,SCT,M,M,9500.00,11000.00,M,M,M,M,M,M,M,M,M,61.00,KNFL 031556Z AUTO 29007KT 10SM SCT095 SCT110 16/11 A3002 RMK AO2 SLP135 T01610106,M
HND,2023-09-03 15:58,-115.1344,35.9729,742.79,75.20,66.20,73.61,0.00,0.00,0.00,30.05,M,10.00,M,FEW,M,M,M,11000.00,M,M,M,M,M,M,M,M,M,M,75.20,KHND 031558Z 00000KT 10SM FEW110 24/19 A3005 RMK SP,M
EKO,2023-09-03 16:09,-115.7860,40.8242,1367.00,67.00,55.00,65.33,60.00,4.00,0.00,30.08,M,10.00,M,SCT,OVC,M,M,3000.00,8500.00,M,M,M,M,M,M,M,M,M,67.00,KEKO 031609Z AUTO 06004KT 10SM SCT030 OVC085 19/13 A3008 RMK AO2 T01940128,M
05U,2023-09-03 16:10,-116.0051,39.6042,1811.23,69.80,51.80,52.77,M,M,0.00,30.13,M,10.00,M,FEW,M,M,M,3700.00,M,M,M,M,M,M,M,M,M,M,69.80,K05U 031610Z AUTO 10SM FEW037 21/11 A3013 RMK A01,M
BVU,2023-09-03 16:15,-114.8611,35.9475,671.00,77.00,66.20,69.33,0.00,0.00,0.00,30.02,M,10.00,M,CLR,M,M,M,M,M,M,M,M,M,M,M,M,M,M,77.00,KBVU 031615Z AUTO 00000KT 10SM CLR 25/19 A3002 RMK AO2,M
CXP,2023-09-03 16:15,-119.7326,39.1923,1431.00,59.00,50.00,72.01,70.00,8.00,0.00,30.09,M,10.00,M,FEW,BKN,M,M,7500.00,10000.00,M,M,M,M,M,M,M,M,M,59.00,KCXP 031615Z AUTO 07008KT 10SM FEW075 BKN100 15/10 A3009 RMK AO2 LTG DSNT NE AND E,M
RTS,2023-09-03 16:15,-119.8764,39.6682,1539.00,53.60,48.20,81.87,10.00,4.00,0.00,30.11,M,10.00,M,FEW,SCT,BKN,M,2500.00,3700.00,4700.00,M,M,M,M,M,M,M,M,53.60,KRTS 031615Z AUTO 01004KT 10SM FEW025 SCT037 BKN047 12/09 A3011 RMK AO2,M
MEV,2023-09-03 16:15,-119.7500,38.9963,1441.42,59.00,48.20,67.33,350.00,7.00,0.00,30.07,M,9.00,M,BKN,BKN,M,M,9000.00,11000.00,M,M,M,M,M,M,M,M,M,59.00,KMEV 031615Z AUTO 35007KT 9SM BKN090 BKN110 15/09 A3007 RMK AO2 LTG DSNT NE AND E,M
HTH,2023-09-03 16:15,-118.6315,38.5448,1282.89,66.20,53.60,63.82,340.00,7.00,0.00,30.03,M,10.00,M,FEW,M,M,M,11000.00,M,M,M,M,M,M,M,M,M,M,66.20,KHTH 031615Z AUTO 34007KT 10SM FEW110 19/12 A3003 RMK A01,M
BAM,2023-09-03 16:15,-116.8743,40.5990,1382.36,59.00,55.40,87.83,10.00,6.00,0.00,30.08,M,2.00,M,BKN,OVC,M,M,1600.00,2500.00,M,M,M,M,M,M,M,M,M,59.00,KBAM 031615Z AUTO 01006KT 2SM BKN016 OVC025 15/13 A3008 RMK AO1,M
TMT,2023-09-03 16:15,-117.1971,39.4643,1749.34,55.60,54.70,96.78,0.00,0.00,0.00,30.10,M,M,M,BKN,OVC,M,M,500.00,5500.00,M,M,M,M,M,M,M,M,M,55.60,KTMT 031615Z AUTO 00000KT BKN005 OVC055 13/13 A3010 RMK AO2 LTG DSNT W THRU N T01310126 PWINO,M
10U,2023-09-03 16:20,-116.1876,41.9532,1637.00,55.40,51.80,87.65,M,3.00,0.00,30.16,M,7.00,M,SCT,M,M,M,6500.00,M,M,M,-RA,M,M,M,M,M,M,55.40,K10U 031620Z AUTO VRB03KT 7SM -RA SCT065 13/11 A3016 RMK AO2,M
05U,2023-09-03 16:30,-116.0051,39.6042,1811.23,68.00,51.80,56.13,M,M,0.00,30.13,M,10.00,M,FEW,M,M,M,3800.00,M,M,M,M,M,M,M,M,M,M,68.00,K05U 031630Z AUTO 10SM FEW038 20/11 A3013 RMK A01,M
BVU,2023-09-03 16:35,-114.8611,35.9475,671.00,77.00,66.20,69.33,M,4.00,0.00,30.02,M,10.00,M,CLR,M,M,M,M,M,M,M,M,M,M,M,M,M,M,77.00,KBVU 031635Z AUTO VRB04KT 10SM CLR 25/19 A3002 RMK AO2,M
CXP,2023-09-03 16:35,-119.7326,39.1923,1431.00,59.00,50.00,72.01,330.00,8.00,0.00,30.09,M,10.00,M,FEW,OVC,M,M,2600.00,10000.00,M,M,M,M,M,M,M,M,M,59.00,KCXP 031635Z AUTO 33008KT 10SM FEW026 OVC100 15/10 A3009 RMK AO2,M
RTS,2023-09-03 16:35,-119.8764,39.6682,1539.00,53.60,48.20,81.87,M,3.00,0.00,30.11,M,10.00,M,FEW,BKN,OVC,M,2500.00,4300.00,6500.00,M,M,M,M,M,M,M,M,53.60,KRTS 031635Z AUTO VRB03KT 10SM FEW025 BKN043 OVC065 12/09 A3011 RMK AO2,M
MEV,2023-09-03 16:35,-119.7500,38.9963,1441.42,59.00,48.20,67.33,360.00,8.00,0.00,30.08,M,10.00,M,BKN,BKN,OVC,M,8000.00,9000.00,11000.00,M,M,M,M,M,M,M,M,59.00,KMEV 031635Z AUTO 36008KT 10SM BKN080 BKN090 OVC110 15/09 A3008 RMK AO2 LTG DSNT NE,M
BAM,2023-09-03 16:35,-116.8743,40.5990,1382.36,57.20,55.40,93.69,10.00,8.00,0.00,30.09,M,3.00,M,SCT,BKN,OVC,M,1800.00,3300.00,6500.00,M,M,M,M,M,M,M,M,57.20,KBAM 031635Z AUTO 01008KT 3SM SCT018 BKN033 OVC065 14/13 A3009 RMK AO1,M
HTH,2023-09-03 16:35,-118.6315,38.5448,1282.89,66.20,53.60,63.82,M,4.00,0.00,30.03,M,10.00,M,CLR,M,M,M,M,M,M,M,M,M,M,M,M,M,M,66.20,KHTH 031635Z AUTO VRB04KT 10SM CLR 19/12 A3003 RMK A01,M
TMT,2023-09-03 16:35,-117.1971,39.4643,1749.34,56.30,55.00,95.39,0.00,0.00,0.00,30.10,M,M,M,BKN,OVC,M,M,500.00,5500.00,M,M,M,M,M,M,M,M,M,56.30,KTMT 031635Z AUTO 00000KT BKN005 OVC055 14/13 A3010 RMK AO2 LTG DSNT W THRU N T01350127 PWINO,M
10U,2023-09-03 16:40,-116.1876,41.9532,1637.00,55.40,51.80,87.65,0.00,0.00,0.00,30.15,M,5.00,M,FEW,SCT,SCT,M,1300.00,3300.00,5000.00,M,RA,M,M,M,M,M,M,55.40,K10U 031640Z AUTO 00000KT 5SM RA FEW013 SCT033 SCT050 13/11 A3015 RMK AO2,M
LOL,2023-09-03 16:44,-118.5701,40.0684,1192.43,64.00,52.00,64.97,40.00,4.00,0.00,30.02,M,10.00,M,SCT,OVC,M,M,4200.00,7500.00,M,M,VCTS,M,M,M,M,M,M,64.00,KLOL 031644Z AUTO 04004KT 10SM VCTS SCT042 OVC075 18/11 A3002 RMK AO2 LTG DSNT ALQDS T01780111,M
05U,2023-09-03 16:50,-116.0051,39.6042,1811.23,64.40,51.80,63.60,M,M,0.00,30.12,M,10.00,M,FEW,BKN,M,M,7500.00,10000.00,M,M,M,M,M,M,M,M,M,64.40,K05U 031650Z AUTO 10SM FEW075 BKN100 18/11 A3012 RMK A01,M
HTH,2023-09-03 16:50,-118.6315,38.5448,1282.89,66.20,53.60,63.82,340.00,7.00,0.00,30.03,M,10.00,M,CLR,M,M,M,M,M,M,M,M,M,M,M,M,M,M,66.20,KHTH 031650Z AUTO 34007KT 310V010 10SM CLR 19/12 A3003 RMK A01,M
P68,2023-09-03 16:53,-116.0056,39.6014,1993.00,63.00,53.00,69.82,140.00,18.00,0.00,30.09,1012.20,M,M,M,M,M,M,M,M,M,M,M,M,M,M,M,M,M,63.00,KP68 031653Z AUTO 14018KT 17/12 A3009 RMK AO1 SLP122 T01720117 $,M
DRA,2023-09-03 16:53,-116.0278,36.6206,1009.00,75.00,64.00,68.64,230.00,16.00,0.00,30.03,1012.60,10.00,M,SCT,M,M,M,4300.00,M,M,M,M,M,M,M,M,M,M,75.00,KDRA 031653Z AUTO 23016KT 10SM SCT043 24/18 A3003 RMK AO2 SLP126 T02390178,M
ELY,2023-09-03 16:53,-114.8453,39.2950,1909.00,68.00,53.00,58.67,170.00,17.00,0.00,30.15,1012.20,10.00,24.00,CLR,M,M,M,M,M,M,M,M,M,M,M,M,M,M,68.00,KELY 031653Z AUTO 17017G24KT 10SM CLR 20/12 A3015 RMK AO2 SLP122 T02000117,M
VGT,2023-09-03 16:53,-115.1933,36.2111,667.00,78.00,67.00,68.96,M,5.00,0.00,30.01,1015.90,10.00,M,FEW,M,M,M,5500.00,M,M,M,M,M,M,M,M,M,M,78.00,KVGT 031653Z VRB05KT 10SM FEW055 26/19 A3001 RMK AO2 SLP159 T02560194 $,M
LOL,2023-09-03 16:53,-118.5701,40.0684,1192.43,64.00,52.00,64.97,350.00,5.00,0.00,30.02,1013.90,10.00,M,SCT,OVC,M,M,4300.00,7500.00,M,M,M,M,M,M,M,M,M,64.00,KLOL 031653Z AUTO 35005KT 10SM SCT043 OVC075 18/11 A3002 RMK AO2 LTG DSNT ALQDS SLP139 T01780111,M
BVU,2023-09-03 16:55,-114.8611,35.9475,671.00,78.80,66.20,65.33,M,5.00,0.00,30.01,M,10.00,M,CLR,M,M,M,M,M,M,M,M,M,M,M,M,M,M,78.80,KBVU 031655Z AUTO VRB05KT 10SM CLR 26/19 A3001 RMK AO2,M
CXP,2023-09-03 16:55,-119.7326,39.1923,1431.00,59.00,50.00,72.01,340.00,10.00,0.00,30.09,M,10.00,M,FEW,SCT,BKN,M,2600.00,7500.00,9000.00,M,M,M,M,M,M,M,M,59.00,KCXP 031655Z AUTO 34010KT 10SM FEW026 SCT075 BKN090 15/10 A3009 RMK AO2 LTG DSNT NE-SE,M
RNO,2023-09-03 16:55,-119.7711,39.4839,1341.00,56.00,51.00,83.26,0.00,0.00,0.03,30.09,1015.70,6.00,M,SCT,BKN,OVC,M,2000.00,4000.00,6000.00,M,-RA,M,M,M,M,M,M,56.00,KRNO 031655Z 00000KT 6SM -RA SCT020 BKN040 OVC060 13/11 A3009 RMK AO2 RAB33 SLP157 P0003 T01330106 $,M
RTS,2023-09-03 16:55,-119.8764,39.6682,1539.00,53.60,50.00,87.56,240.00,5.00,0.00,30.13,M,2.50,M,FEW,SCT,BKN,M,1300.00,2800.00,4000.00,M,-DZ,M,M,M,M,M,M,53.60,KRTS 031655Z AUTO 24005KT 2 1/2SM -DZ FEW013 SCT028 BKN040 12/10 A3013 RMK AO2,M
MEV,2023-09-03 16:55,-119.7500,38.9963,1441.42,60.80,50.00,67.54,360.00,9.00,0.00,30.07,M,10.00,M,SCT,BKN,BKN,M,7000.00,8500.00,11000.00,M,-RA,M,M,M,M,M,M,60.80,KMEV 031655Z AUTO 36009KT 10SM -RA SCT070 BKN085 BKN110 16/10 A3007 RMK AO2 LTG DSNT NE AND E,M
BAM,2023-09-03 16:55,-116.8743,40.5990,1382.36,57.20,55.40,93.69,30.00,5.00,0.00,30.08,M,7.00,M,SCT,SCT,OVC,M,1800.00,4600.00,6500.00,M,M,M,M,M,M,M,M,57.20,KBAM 031655Z AUTO 03005KT 7SM SCT018 SCT046 OVC065 14/13 A3008 RMK AO1,M
LSV,2023-09-03 16:55,-115.0343,36.2362,570.00,84.00,70.30,63.50,0.00,0.00,0.00,29.98,1013.20,10.00,M,CLR,M,M,M,M,M,M,M,M,M,M,M,M,M,M,88.50,KLSV 031655Z AUTO 00000KT 10SM CLR 29/21 A2998 RMK AO2 SLP132 T02880213 $,M
TMT,2023-09-03 16:55,-117.1971,39.4643,1749.34,56.50,54.70,93.67,0.00,0.00,0.00,30.08,M,M,M,BKN,M,M,M,500.00,M,M,M,M,M,M,M,M,M,M,56.50,KTMT 031655Z AUTO 00000KT BKN005 14/13 A3008 RMK AO2 LTG DSNT W THRU E T01360126 PWINO,M
INS,2023-09-03 16:55,-115.6733,36.5872,955.00,77.00,63.00,62.00,80.00,14.00,0.00,30.02,1012.30,10.00,M,FEW,M,M,M,9000.00,M,M,M,M,M,M,M,M,M,M,77.00,KINS 031655Z AUTO 08014KT 10SM FEW090 25/17 A3002 RMK AO2 SLP123 T02500172 $,M
EKO,2023-09-03 16:56,-115.7860,40.8242,1367.00,68.00,56.00,65.45,60.00,4.00,0.00,30.06,1013.60,10.00,M,BKN,M,M,M,8000.00,M,M,M,M,M,M,M,M,M,M,68.00,KEKO 031656Z AUTO 06004KT 10SM BKN080 20/13 A3006 RMK AO2 SLP136 T02000133,M
WMC,2023-09-03 16:56,-117.8072,40.9019,1315.00,59.00,56.00,89.76,30.00,12.00,0.01,30.04,1014.10,10.00,M,FEW,SCT,SCT,M,2700.00,3300.00,12000.00,M,M,M,M,M,M,M,M,59.00,KWMC 031656Z AUTO 03012KT 10SM FEW027 SCT033 SCT120 15/13 A3004 RMK AO2 LTG DSNT S RAB21E40 SLP141 P0001 T01500133,M
HND,2023-09-03 16:56,-115.1344,35.9729,742.79,79.00,67.00,66.72,330.00,3.00,0.00,30.05,1016.90,10.00,M,CLR,M,M,M,M,M,M,M,M,M,M,M,M,M,M,79.00,KHND 031656Z 33003KT 10SM CLR 26/19 A3005 RMK AO2 SLP169 T02610194,M
LAS,2023-09-03 16:56,-115.1634,36.0719,663.00,78.00,67.00,68.96,0.00,0.00,0.00,30.02,1014.40,10.00,M,SCT,BKN,M,M,5500.00,10000.00,M,M,M,M,M,M,M,M,M,78.00,KLAS 031656Z 00000KT 10SM SCT055 BKN100 26/19 A3002 RMK AO2 SLP144 T02560194 $,M
NFL,2023-09-03 16:56,-118.7010,39.4166,1199.00,61.00,52.00,72.22,300.00,16.00,T,30.03,1014.00,7.00,26.00,BKN,OVC,M,M,3600.00,6000.00,M,M,-RA,M,M,M,26.00,290.00,2023-09-03 16:41,61.00,KNFL 031656Z AUTO 30016G26KT 7SM -RA BKN036 OVC060 16/11 A3003 RMK AO2 PK WND 29026/1641 RAB45 SLP140 P0000 T01610111,M
10U,2023-09-03 17:00,-116.1876,41.9532,1637.00,55.40,50.00,81.99,0.00,0.00,0.00,30.15,M,8.00,M,FEW,FEW,BKN,M,1200.00,4300.00,7000.00,M,-RA,M,M,M,M,M,M,55.40,K10U 031700Z AUTO 00000KT 8SM -RA FEW012 FEW043 BKN070 13/10 A3015 RMK AO2,M
05U,2023-09-03 17:10,-116.0051,39.6042,1811.23,60.80,44.60,55.12,M,M,0.00,30.13,M,10.00,M,FEW,BKN,OVC,M,6500.00,9000.00,11000.00,M,M,M,M,M,M,M,M,60.80,K05U 031710Z AUTO 10SM FEW065 BKN090 OVC110 16/07 A3013 RMK A01,M
BVU,2023-09-03 17:15,-114.8611,35.9475,671.00,80.60,66.20,61.58,M,5.00,0.00,30.01,M,10.00,M,BKN,M,M,M,3400.00,M,M,M,M,M,M,M,M,M,M,82.75,KBVU 031715Z AUTO VRB05KT 10SM BKN034 27/19 A3001 RMK AO2,M
CXP,2023-09-03 17:15,-119.7326,39.1923,1431.00,59.00,48.20,67.33,330.00,11.00,0.00,30.09,M,10.00,M,BKN,OVC,M,M,8000.00,9000.00,M,M,VCTS,M,M,M,M,M,M,59.00,KCXP 031715Z AUTO 33011KT 10SM VCTS BKN080 OVC090 15/09 A3009 RMK AO2 LTG DSNT E AND SE,M
RTS,2023-09-03 17:15,-119.8764,39.6682,1539.00,53.60,51.80,93.60,350.00,4.00,0.00,30.12,M,7.00,M,FEW,SCT,BKN,M,1400.00,2500.00,3800.00,M,-DZ,M,M,M,M,M,M,53.60,KRTS 031715Z AUTO 35004KT 7SM -DZ FEW014 SCT025 BKN038 12/11 A3012 RMK AO2,M
MEV,2023-09-03 17:15,-119.7500,38.9963,1441.42,59.00,48.20,67.33,350.00,8.00,0.00,30.08,M,10.00,M,FEW,BKN,OVC,M,3700.00,6000.00,8500.00,M,VCTS,M,M,M,M,M,M,59.00,KMEV 031715Z AUTO 35008KT 10SM VCTS FEW037 BKN060 OVC085 15/09 A3008 RMK AO2 LTG DSNT NW-E,M
BAM,2023-09-03 17:15,-116.8743,40.5990,1382.36,59.00,55.40,87.83,30.00,5.00,0.00,30.07,M,10.00,M,OVC,M,M,M,6500.00,M,M,M,M,M,M,M,M,M,M,59.00,KBAM 031715Z AUTO 03005KT 10SM OVC065 15/13 A3007 RMK AO1,M
HTH,2023-09-03 17:15,-118.6315,38.5448,1282.89,68.00,51.80,56.13,330.00,12.00,0.00,30.01,M,10.00,M,CLR,M,M,M,M,M,M,M,M,M,M,M,M,M,M,68.00,KHTH 031715Z AUTO 33012KT 10SM CLR 20/11 A3001 RMK A01,M
10U,2023-09-03 17:15,-116.1876,41.9532,1637.00,55.40,51.80,87.65,140.00,4.00,0.00,30.16,M,8.00,M,SCT,BKN,M,M,6000.00,7000.00,M,M,-RA,M,M,M,M,M,M,55.40,K10U 031715Z AUTO 14004KT 8SM -RA SCT060 BKN070 13/11 A3016 RMK AO2,M
TMT,2023-09-03 17:15,-117.1971,39.4643,1749.34,57.40,55.00,91.68,0.00,0.00,0.00,30.07,M,M,M,M,M,M,M,M,M,M,M,M,M,M,M,M,M,M,57.40,KTMT 031715Z AUTO 00000KT 14/13 A3007 RMK AO2 LTG DSNT ALQS T01410128 PWINO,M
LOL,2023-09-03 17:24,-118.5701,40.0684,1192.43,62.00,51.00,67.18,340.00,17.00,0.00,30.00,M,8.00,26.00,SCT,BKN,M,M,4200.00,8000.00,M,M,VCTS,M,M,M,26.00,330.00,2023-09-03 17:22,62.00,KLOL 031724Z AUTO 34017G26KT 8SM VCTS SCT042 BKN080 17/11 A3000 RMK AO2 PK WND 33026/1722 LTG DSNT ALQDS PRESFR T01670106,M
05U,2023-09-03 17:30,-116.0051,39.6042,1811.23,60.80,48.20,63.15,M,M,0.00,30.13,M,8.00,M,FEW,SCT,BKN,M,4400.00,6000.00,7500.00,M,M,M,M,M,M,M,M,60.80,K05U 031730Z AUTO 8SM FEW044 SCT060 BKN075 16/09 A3013 RMK A01,M
BVU,2023-09-03 17:35,-114.8611,35.9475,671.00,82.40,66.20,58.08,150.00,11.00,0.00,30.00,M,10.00,M,SCT,SCT,SCT,M,3600.00,4200.00,4800.00,M,M,M,M,M,M,M,M,84.63,KBVU 031735Z AUTO 15011KT 10SM SCT036 SCT042 SCT048 28/19 A3000 RMK AO2,M
CXP,2023-09-03 17:35,-119.7326,39.1923,1431.00,59.00,48.20,67.33,340.00,9.00,0.00,30.09,M,10.00,16.00,BKN,BKN,OVC,M,6500.00,8000.00,9000.00,M,M,M,M,M,M,M,M,59.00,KCXP 031735Z AUTO 34009G16KT 10SM BKN065 BKN080 OVC090 15/09 A3009 RMK AO2 LTG DSNT E AND SE,M
RTS,2023-09-03 17:35,-119.8764,39.6682,1539.00,53.60,50.00,87.56,0.00,0.00,0.00,30.12,M,9.00,M,FEW,SCT,BKN,M,2300.00,4200.00,6500.00,M,M,M,M,M,M,M,M,53.60,KRTS 031735Z AUTO 00000KT 9SM FEW023 SCT042 BKN065 12/10 A3012 RMK AO2,M
MEV,2023-09-03 17:35,-119.7500,38.9963,1441.42,59.00,50.00,72.01,350.00,12.00,0.00,30.07,M,10.00,M,BKN,BKN,M,M,6000.00,8000.00,M,M,M,M,M,M,M,M,M,59.00,KMEV 031735Z AUTO 35012KT 10SM BKN060 BKN080 15/10 A3007 RMK AO2 LTG DSNT E,M
BAM,2023-09-03 17:35,-116.8743,40.5990,1382.36,59.00,55.40,87.83,10.00,4.00,0.00,30.07,M,10.00,M,OVC,M,M,M,5500.00,M,M,M,M,M,M,M,M,M,M,59.00,KBAM 031735Z AUTO 01004KT 10SM OVC055 15/13 A3007 RMK AO1,M
HTH,2023-09-03 17:35,-118.6315,38.5448,1282.89,68.00,51.80,56.13,340.00,15.00,0.00,30.00,M,10.00,M,FEW,M,M,M,11000.00,M,M,M,M,M,M,M,M,M,M,68.00,KHTH 031735Z AUTO 34015KT 10SM FEW110 20/11 A3000 RMK A01,M
TMT,2023-09-03 17:35,-117.1971,39.4643,1749.34,57.60,54.70,90.03,0.00,0.00,0.00,30.07,M,M,M,M,M,M,M,M,M,M,M,M,M,M,M,M,M,M,57.60,KTMT 031735Z AUTO 00000KT 14/13 A3007 RMK AO2 LTG DSNT NW THRU E T01420126 PWINO,M
10U,2023-09-03 17:35,-116.1876,41.9532,1637.00,53.60,51.80,93.60,0.00,0.00,0.00,30.16,M,3.00,M,FEW,M,M,M,6000.00,M,M,M,RA,M,M,M,M,M,M,53.60,K10U 031735Z AUTO 00000KT 3SM RA FEW060 12/11 A3016 RMK AO2,M
LOL,2023-09-03 17:38,-118.5701,40.0684,1192.43,61.00,50.00,67.06,310.00,25.00,0.00,30.03,M,3.00,32.00,BKN,BKN,M,M,4000.00,4800.00,M,M,TS HZ,M,M,M,32.00,300.00,2023-09-03 17:36,61.00,KLOL 031738Z AUTO 31025G32KT 3SM TS HZ BKN040 BKN048 16/10 A3003 RMK AO2 PK WND 30032/1736 LTG DSNT ALQDS TSB32 PRESRR T01610100,M
LOL,2023-09-03 17:45,-118.5701,40.0684,1192.43,61.00,50.00,67.06,300.00,21.00,0.00,30.04,M,2.50,32.00,SCT,BKN,BKN,M,4100.00,5000.00,5500.00,M,TS HZ,M,M,M,32.00,300.00,2023-09-03 17:36,61.00,KLOL 031745Z AUTO 30021G32KT 2 1/2SM TS HZ SCT041 BKN050 BKN055 16/10 A3004 RMK AO2 PK WND 30032/1736 LTG DSNT ALQDS TSB32 PRESRR T01610100,M
05U,2023-09-03 17:50,-116.0051,39.6042,1811.23,55.40,50.00,81.99,M,M,0.00,30.11,M,2.50,M,FEW,SCT,BKN,M,2800.00,4100.00,6000.00,M,HZ,M,M,M,M,M,M,55.40,K05U 031750Z AUTO 2 1/2SM HZ FEW028 SCT041 BKN060 13/10 A3011 RMK A01,M
P68,2023-09-03 17:53,-116.0056,39.6014,1993.00,57.00,51.00,80.31,180.00,4.00,0.02,30.10,1012.90,M,M,M,M,M,M,M,M,M,M,M,M,M,M,34.00,190.00,2023-09-03 17:37,57.00,KP68 031753Z AUTO 18004KT 14/11 A3010 RMK AO1 PK WND 19034/1737 SLP129 P0002 60002 T01390106 10206 20128 55006 $,M
DRA,2023-09-03 17:53,-116.0278,36.6206,1009.00,80.00,62.00,54.22,230.00,18.00,0.00,30.01,1011.80,10.00,24.00,FEW,M,M,M,4500.00,M,M,M,M,M,M,M,26.00,220.00,2023-09-03 17:42,81.21,KDRA 031753Z AUTO 23018G24KT 10SM FEW045 27/17 A3001 RMK AO2 PK WND 22026/1742 SLP118 T02670167 10267 20194 58010,M
ELY,2023-09-03 17:53,-114.8453,39.2950,1909.00,71.00,51.00,49.18,150.00,20.00,0.00,30.11,1010.60,10.00,30.00,CLR,M,M,M,M,M,M,M,M,M,M,M,30.00,160.00,2023-09-03 17:52,71.00,KELY 031753Z AUTO 15020G30KT 10SM CLR 22/11 A3011 RMK AO2 PK WND 16030/1752 LTG DSNT SW SLP106 60003 T02170106 10222 20133 58018,M
VGT,2023-09-03 17:53,-115.1933,36.2111,667.00,81.00,67.00,62.49,90.00,6.00,0.00,29.98,1015.00,10.00,M,CLR,M,M,M,M,M,M,M,M,M,M,M,M,M,M,83.43,KVGT 031753Z 09006KT 10SM CLR 27/19 A2998 RMK AO2 SLP150 T02720194 10272 20217 58011 $,M
LOL,2023-09-03 17:53,-118.5701,40.0684,1192.43,58.00,49.00,71.91,270.00,15.00,0.03,30.04,1015.00,2.00,27.00,BKN,OVC,M,M,4100.00,5000.00,M,M,TSRA,M,M,M,32.00,300.00,2023-09-03 17:36,58.00,KLOL 031753Z AUTO 27015G27KT 2SM TSRA BKN041 OVC050 14/09 A3004 RMK AO2 PK WND 30032/1736 LTG DSNT ALQDS RAB50 TSB32 SLP150 P0003 60003 T01440094 10183 20122 53005,M
BVU,2023-09-03 17:55,-114.8611,35.9475,671.00,82.40,66.20,58.08,150.00,11.00,0.00,29.99,M,10.00,16.00,CLR,M,M,M,M,M,M,M,M,M,M,M,M,M,M,84.63,KBVU 031755Z AUTO 15011G16KT 10SM CLR 28/19 A2999 RMK AO2,M
CXP,2023-09-03 17:55,-119.7326,39.1923,1431.00,57.20,50.00,76.82,360.00,7.00,0.00,30.10,M,10.00,13.00,FEW,SCT,BKN,M,3900.00,4700.00,6000.00,M,UP,M,M,M,M,M,M,57.20,KCXP 031755Z AUTO 36007G13KT 10SM UP FEW039 SCT047 BKN060 14/10 A3010 RMK AO2 LTG DSNT SE,M
RNO,2023-09-03 17:55,-119.7711,39.4839,1341.00,56.00,53.00,89.64,320.00,4.00,0.13,30.09,1016.00,1.25,M,BKN,OVC,M,M,1100.00,3000.00,M,M,+RA BR,M,M,M,M,M,M,56.00,KRNO 031755Z 32004KT 1 1/4SM +RA BR BKN011 OVC030 13/12 A3009 RMK AO2 SLP160 P0013 60016 T01330117 10139 20111 52003 $,M
RTS,2023-09-03 17:55,-119.8764,39.6682,1539.00,53.60,50.00,87.56,0.00,0.00,0.01,30.12,M,5.00,M,FEW,BKN,BKN,M,2000.00,3500.00,4200.00,M,-DZ,M,M,M,M,M,M,53.60,KRTS 031755Z AUTO 00000KT 5SM -DZ FEW020 BKN035 BKN042 12/10 A3012 RMK AO2 P0001,M
MEV,2023-09-03 17:55,-119.7500,38.9963,1441.42,59.00,48.20,67.33,360.00,12.00,0.00,30.07,M,10.00,M,FEW,BKN,BKN,M,5000.00,6000.00,8500.00,M,M,M,M,M,M,M,M,59.00,KMEV 031755Z AUTO 36012KT 10SM FEW050 BKN060 BKN085 15/09 A3007 RMK AO2 LTG DSNT E AND SE,M
BAM,2023-09-03 17:55,-116.8743,40.5990,1382.36,59.00,55.40,87.83,10.00,4.00,0.00,30.05,M,10.00,M,OVC,M,M,M,5500.00,M,M,M,M,M,M,M,M,M,M,59.00,KBAM 031755Z AUTO 01004KT 10SM OVC055 15/13 A3005 RMK AO1,M
HTH,2023-09-03 17:55,-118.6315,38.5448,1282.89,64.40,55.40,72.56,340.00,12.00,0.01,30.02,M,6.00,19.00,BKN,BKN,BKN,M,3800.00,4400.00,11000.00,M,HZ,M,M,M,M,M,M,64.40,KHTH 031755Z AUTO 34012G19KT 6SM HZ BKN038 BKN044 BKN110 18/13 A3002 RMK A01 P0001,M
TMT,2023-09-03 17:55,-117.1971,39.4643,1749.34,60.00,55.20,84.13,0.00,0.00,0.00,30.06,M,M,M,CLR,M,M,M,M,M,M,M,VCTS,M,M,M,M,M,M,60.00,KTMT 031755Z AUTO 00000KT VCTS CLR 16/13 A3006 RMK AO2 LTG DSNT ALQS 60001 T01550129 10155 20084,M
INS,2023-09-03 17:55,-115.6733,36.5872,955.00,79.30,61.70,54.89,70.00,13.00,0.00,30.00,1011.60,10.00,M,CLR,M,M,M,M,M,M,M,M,M,M,M,M,M,M,79.30,KINS 031755Z AUTO 07013KT 10SM CLR 26/17 A3000 RMK AO2 SLP116 T02630165 10263 20183 58013 $,M
LSV,2023-09-03 17:55,-115.0343,36.2362,570.00,85.00,68.00,56.84,0.00,0.00,0.00,29.96,1012.50,10.00,M,CLR,M,M,M,M,M,M,M,M,M,M,M,M,M,M,88.30,KLSV 031755Z AUTO 00000KT 10SM CLR 30/20 A2996 RMK AO2 SLP125 T02950200 10299 20204 57010 $,M
EKO,2023-09-03 17:56,-115.7860,40.8242,1367.00,68.00,54.00,60.86,20.00,9.00,0.00,30.03,1012.60,10.00,M,SCT,BKN,BKN,M,4500.00,5500.00,6500.00,M,M,M,M,M,M,M,M,68.00,KEKO 031756Z AUTO 02009KT 10SM SCT045 BKN055 BKN065 20/12 A3003 RMK AO2 LTG DSNT W SLP126 T02000122 10206 20144 58018,M
WMC,2023-09-03 17:56,-117.8072,40.9019,1315.00,59.00,55.00,86.56,60.00,9.00,T,30.05,1014.60,10.00,M,BKN,OVC,M,M,3700.00,4500.00,M,M,VCTS -RA,M,M,M,M,M,M,59.00,KWMC 031756Z AUTO 06009KT 10SM VCTS -RA BKN037 OVC045 15/13 A3005 RMK AO2 LTG DSNT S RAB52 SLP146 P0000 60011 T01500128 10150 20144 55001,M
NFL,2023-09-03 17:56,-118.7010,39.4166,1199.00,62.00,52.00,69.71,330.00,10.00,T,30.02,1013.60,10.00,M,FEW,M,M,M,10000.00,M,M,M,M,M,M,M,28.00,300.00,2023-09-03 16:58,62.00,KNFL 031756Z AUTO 33010KT 10SM FEW100 17/11 A3002 RMK AO2 PK WND 30028/1658 RAE06 SLP136 P0000 60000 T01670111 10178 20117 58003,M
HND,2023-09-03 17:56,-115.1344,35.9729,742.79,79.00,67.00,66.72,20.00,3.00,0.00,30.03,1016.10,10.00,M,FEW,M,M,M,4400.00,M,M,M,M,M,M,M,M,M,M,79.00,KHND 031756Z 02003KT 10SM FEW044 26/19 A3003 RMK AO2 SLP161 T02610194 10267 20189 58009,M
TPH,2023-09-03 17:56,-117.0904,38.0505,1654.00,71.00,52.00,51.03,190.00,17.00,0.00,30.07,1011.50,10.00,25.00,CLR,M,M,M,M,M,M,M,M,M,M,M,28.00,190.00,2023-09-03 17:03,71.00,KTPH 031756Z AUTO 19017G25KT 10SM CLR 22/11 A3007 RMK AO2 PK WND 19028/1703 SLP115 T02170111 10222 20156 58012,M
LAS,2023-09-03 17:56,-115.1634,36.0719,663.00,80.00,67.00,64.57,M,5.00,0.00,29.99,1013.50,10.00,M,FEW,SCT,M,M,5000.00,10000.00,M,M,M,M,M,M,M,M,M,82.32,KLAS 031756Z VRB05KT 10SM FEW050 SCT100 27/19 A2999 RMK AO2 SLP135 T02670194 10267 20206 58010 $,M
RNO,2023-09-03 18:00,-119.7711,39.4839,1341.00,56.00,53.00,89.64,20.00,5.00,0.03,30.09,M,2.50,M,BKN,OVC,M,M,1500.00,3000.00,M,M,-RA BR,M,M,M,M,M,M,56.00,KRNO 031800Z 02005KT 2 1/2SM -RA BR BKN015 OVC030 13/12 A3009 RMK AO2 P0003 T01330117 $,M
LOL,2023-09-03 18:00,-118.5701,40.0684,1192.43,56.00,50.00,80.23,310.00,12.00,0.02,30.04,M,1.50,20.00,FEW,BKN,OVC,M,4000.00,4600.00,7000.00,M,TSRA,M,M,M,M,M,M,56.00,KLOL 031800Z AUTO 31012G20KT 1 1/2SM TSRA FEW040 BKN046 OVC070 13/10 A3004 RMK AO2 LTG DSNT ALQDS P0002 T01330100,M
10U,2023-09-03 18:00,-116.1876,41.9532,1637.00,53.60,50.00,87.56,0.00,0.00,0.00,30.14,M,3.00,M,FEW,FEW,M,M,4800.00,5500.00,M,M,RA,M,M,M,M,M,M,53.60,K10U 031800Z AUTO 00000KT 3SM RA FEW048 FEW055 12/10 A3014 RMK AO2 LTG DSNT SE AND NW,M
RNO,2023-09-03 18:02,-119.7711,39.4839,1341.00,56.00,53.00,89.64,20.00,5.00,0.04,30.09,M,4.00,M,BKN,OVC,M,M,1500.00,3000.00,M,M,-RA BR,M,M,M,M,M,M,56.00,KRNO 031802Z 02005KT 4SM -RA BR BKN015 OVC030 13/12 A3009 RMK AO2 P0004 T01330117 $,M
EKO,2023-09-03 18:03,-115.7860,40.8242,1367.00,68.00,54.00,60.86,40.00,10.00,0.00,30.03,M,10.00,M,SCT,BKN,BKN,M,4200.00,5500.00,7000.00,M,VCTS,M,M,M,M,M,M,68.00,KEKO 031803Z AUTO 04010KT 10SM VCTS SCT042 BKN055 BKN070 20/12 A3003 RMK AO2 LTG DSNT W AND NW T02000122,M
05U,2023-09-03 18:10,-116.0051,39.6042,1811.23,57.20,51.80,82.12,M,M,0.00,30.12,M,10.00,M,FEW,FEW,SCT,M,2800.00,3500.00,9000.00,M,M,M,M,M,M,M,M,57.20,K05U 031810Z AUTO 10SM FEW028 FEW035 SCT090 14/11 A3012 RMK A01,M
WMC,2023-09-03 18:11,-117.8072,40.9019,1315.00,58.00,56.00,93.04,60.00,9.00,0.03,30.04,M,2.50,M,FEW,BKN,OVC,M,2600.00,3400.00,4500.00,M,TSRA BR,M,M,M,M,M,M,58.00,KWMC 031811Z AUTO 06009KT 2 1/2SM TSRA BR FEW026 BKN034 OVC045 14/13 A3004 RMK AO2 LTG DSNT ALQDS TSB07 P0003 T01440133,M
EKO,2023-09-03 18:13,-115.7860,40.8242,1367.00,68.00,54.00,60.86,40.00,10.00,0.00,30.02,M,10.00,M,FEW,SCT,OVC,M,3900.00,4600.00,5500.00,M,TS,M,M,M,M,M,M,68.00,KEKO 031813Z AUTO 04010KT 10SM TS FEW039 SCT046 OVC055 20/12 A3002 RMK AO2 LTG DSNT ALQDS TSB07 T02000122,M
LOL,2023-09-03 18:14,-118.5701,40.0684,1192.43,55.00,51.00,86.34,90.00,4.00,0.07,30.05,M,3.00,M,FEW,BKN,OVC,M,4400.00,5500.00,7000.00,M,TSRA BR,M,M,M,M,M,M,55.00,KLOL 031814Z AUTO 09004KT 3SM TSRA BR FEW044 BKN055 OVC070 13/11 A3005 RMK AO2 LTG DSNT N-SE P0007 T01280106,M
BVU,2023-09-03 18:15,-114.8611,35.9475,671.00,82.40,64.40,54.55,150.00,14.00,0.00,29.98,M,10.00,M,FEW,FEW,M,M,4600.00,7000.00,M,M,M,M,M,M,M,M,M,83.98,KBVU 031815Z AUTO 15014KT 10SM FEW046 FEW070 28/18 A2998 RMK AO2,M
CXP,2023-09-03 18:15,-119.7326,39.1923,1431.00,60.80,50.00,67.54,50.00,6.00,0.00,30.08,M,10.00,M,FEW,SCT,BKN,M,3900.00,4600.00,7000.00,M,M,M,M,M,M,M,M,60.80,KCXP 031815Z AUTO 05006KT 10SM FEW039 SCT046 BKN070 16/10 A3008 RMK AO2 LTG DSNT E AND SE,M
RTS,2023-09-03 18:15,-119.8764,39.6682,1539.00,51.80,48.20,87.47,290.00,6.00,0.00,30.13,M,1.75,13.00,SCT,SCT,OVC,M,300.00,1600.00,2800.00,M,RA,M,M,M,M,M,M,51.80,KRTS 031815Z AUTO 29006G13KT 1 3/4SM RA SCT003 SCT016 OVC028 11/09 A3013 RMK AO2 VIS 1 1/4V3,M
MEV,2023-09-03 18:15,-119.7500,38.9963,1441.42,60.80,48.20,63.15,360.00,14.00,0.00,30.06,M,10.00,M,SCT,OVC,M,M,5000.00,6500.00,M,M,M,M,M,M,M,M,M,60.80,KMEV 031815Z AUTO 36014KT 10SM SCT050 OVC065 16/09 A3006 RMK AO2 LTG DSNT E AND SE,M
BAM,2023-09-03 18:15,-116.8743,40.5990,1382.36,60.80,57.20,87.92,60.00,7.00,0.00,30.04,M,10.00,M,OVC,M,M,M,5000.00,M,M,M,M,M,M,M,M,M,M,60.80,KBAM 031815Z AUTO 06007KT 10SM OVC050 16/14 A3004 RMK AO1,M
HTH,2023-09-03 18:15,-118.6315,38.5448,1282.89,60.80,55.40,82.37,330.00,12.00,0.00,30.02,M,7.00,M,FEW,SCT,BKN,M,400.00,2500.00,4000.00,M,M,M,M,M,M,M,M,60.80,KHTH 031815Z AUTO 33012KT 7SM FEW004 SCT025 BKN040 16/13 A3002 RMK A01,M
10U,2023-09-03 18:15,-116.1876,41.9532,1637.00,53.60,50.00,87.56,80.00,5.00,0.00,30.14,M,5.00,M,FEW,M,M,M,5000.00,M,M,M,RA,M,M,M,M,M,M,53.60,K10U 031815Z AUTO 08005KT 5SM RA FEW050 12/10 A3014 RMK AO2,M
TMT,2023-09-03 18:15,-117.1971,39.4643,1749.34,62.40,53.80,73.43,0.00,0.00,0.00,30.05,M,M,M,CLR,M,M,M,M,M,M,M,M,M,M,M,M,M,M,62.40,KTMT 031815Z AUTO 00000KT CLR 17/12 A3005 RMK AO2 LTG DSNT SW THRU N T01690121 PWINO,M
ELY,2023-09-03 18:22,-114.8453,39.2950,1909.00,68.00,50.00,52.51,170.00,15.00,T,30.11,M,10.00,27.00,FEW,SCT,M,M,7000.00,9000.00,M,M,VCTS -RA,M,M,M,28.00,170.00,2023-09-03 18:09,68.00,KELY 031822Z AUTO 17015G27KT 10SM VCTS -RA FEW070 SCT090 20/10 A3011 RMK AO2 PK WND 17028/1809 LTG DSNT N AND S AND SW RAB19 P0000 T02000100,M
05U,2023-09-03 18:30,-116.0051,39.6042,1811.23,57.20,50.00,76.82,M,M,0.00,30.08,M,9.00,M,FEW,FEW,SCT,M,5500.00,6500.00,9000.00,M,M,M,M,M,M,M,M,57.20,K05U 031830Z AUTO 9SM FEW055 FEW065 SCT090 14/10 A3008 RMK A01,M
WMC,2023-09-03 18:33,-117.8072,40.9019,1315.00,58.00,56.00,93.04,50.00,10.00,0.13,30.04,M,4.00,M,FEW,SCT,OVC,M,3500.00,5500.00,7000.00,M,TSRA BR,M,M,M,M,M,M,58.00,KWMC 031833Z AUTO 05010KT 4SM TSRA BR FEW035 SCT055 OVC070 14/13 A3004 RMK AO2 LTG DSNT ALQDS TSB07 P0013 T01440133,M
LOL,2023-09-03 18:33,-118.5701,40.0684,1192.43,55.00,53.00,92.95,50.00,6.00,0.08,30.02,M,7.00,M,SCT,BKN,OVC,M,6000.00,7000.00,9500.00,M,VCTS -RA,M,M,M,M,M,M,55.00,KLOL 031833Z AUTO 05006KT 7SM VCTS -RA SCT060 BKN070 OVC095 13/12 A3002 RMK AO2 LTG DSNT N-E TSE27 P0008 T01280117,M
ELY,2023-09-03 18:34,-114.8453,39.2950,1909.00,61.00,55.00,80.61,220.00,16.00,T,30.13,M,5.00,26.00,FEW,SCT,BKN,M,3200.00,4400.00,8000.00,M,TSRA,M,M,M,28.00,170.00,2023-09-03 18:09,61.00,KELY 031834Z AUTO 22016G26KT 5SM TSRA FEW032 SCT044 BKN080 16/13 A3013 RMK AO2 PK WND 17028/1809 LTG DSNT N AND SW RAB19 TSB28 P0000 T01610128,M
BVU,2023-09-03 18:35,-114.8611,35.9475,671.00,82.40,66.20,58.08,170.00,9.00,0.00,29.97,M,10.00,16.00,FEW,SCT,BKN,M,4200.00,4800.00,5500.00,M,M,M,M,M,M,M,M,84.63,KBVU 031835Z AUTO 17009G16KT 100V180 10SM FEW042 SCT048 BKN055 28/19 A2997 RMK AO2,M
CXP,2023-09-03 18:35,-119.7326,39.1923,1431.00,60.80,48.20,63.15,320.00,12.00,0.00,30.08,M,10.00,M,FEW,BKN,OVC,M,4100.00,6000.00,7000.00,M,M,M,M,M,M,M,M,60.80,KCXP 031835Z AUTO 32012KT 10SM FEW041 BKN060 OVC070 16/09 A3008 RMK AO2 LTG DSNT E AND SE,M
EKO,2023-09-03 18:35,-115.7860,40.8242,1367.00,67.00,54.00,62.99,20.00,12.00,0.00,30.01,M,10.00,M,FEW,BKN,BKN,M,3900.00,5500.00,7500.00,M,VCTS,M,M,M,M,M,M,67.00,KEKO 031835Z AUTO 02012KT 10SM VCTS FEW039 BKN055 BKN075 19/12 A3001 RMK AO2 LTG DSNT ALQDS TSB07E29 T01940122,M
RTS,2023-09-03 18:35,-119.8764,39.6682,1539.00,53.60,50.00,87.56,300.00,8.00,0.00,30.12,M,9.00,M,FEW,SCT,BKN,M,2100.00,2800.00,4000.00,M,-DZ,M,M,M,M,M,M,53.60,KRTS 031835Z AUTO 30008KT 9SM -DZ FEW021 SCT028 BKN040 12/10 A3012 RMK AO2,M
MEV,2023-09-03 18:35,-119.7500,38.9963,1441.42,59.00,50.00,72.01,360.00,14.00,0.00,30.07,M,5.00,19.00,FEW,SCT,BKN,M,3400.00,4300.00,5500.00,M,VCTS RA HZ,M,M,M,M,M,M,59.00,KMEV 031835Z AUTO 36014G19KT 5SM VCTS RA HZ FEW034 SCT043 BKN055 15/10 A3007 RMK AO2 LTG DSNT E AND SE,M
BAM,2023-09-03 18:35,-116.8743,40.5990,1382.36,60.80,57.20,87.92,40.00,9.00,0.00,30.01,M,10.00,M,OVC,M,M,M,5000.00,M,M,M,M,M,M,M,M,M,M,60.80,KBAM 031835Z AUTO 04009KT 10SM OVC050 16/14 A3001 RMK AO1,M
HTH,2023-09-03 18:35,-118.6315,38.5448,1282.89,60.80,55.40,82.37,350.00,12.00,0.00,30.01,M,6.00,19.00,FEW,SCT,BKN,M,400.00,3200.00,5500.00,M,BR,M,M,M,M,M,M,60.80,KHTH 031835Z AUTO 35012G19KT 6SM BR FEW004 SCT032 BKN055 16/13 A3001 RMK A01,M
10U,2023-09-03 18:35,-116.1876,41.9532,1637.00,53.60,50.00,87.56,120.00,5.00,0.00,30.14,M,5.00,M,CLR,M,M,M,M,M,M,M,-RA,M,M,M,M,M,M,53.60,K10U 031835Z AUTO 12005KT 5SM -RA CLR 12/10 A3014 RMK AO2,M
TMT,2023-09-03 18:35,-117.1971,39.4643,1749.34,61.70,54.00,75.82,130.00,5.00,0.00,30.03,M,M,M,CLR,M,M,M,M,M,M,M,M,M,M,M,M,M,M,61.70,KTMT 031835Z AUTO 13005KT CLR 17/12 A3003 RMK AO2 LTG DSNT SW THRU N T01650122 PWINO,M
ELY,2023-09-03 18:42,-114.8453,39.2950,1909.00,59.00,53.00,80.46,240.00,13.00,0.02,30.12,M,6.00,23.00,FEW,BKN,OVC,M,3000.00,8000.00,9000.00,M,-TSRA,M,M,M,28.00,170.00,2023-09-03 18:09,59.00,KELY 031842Z AUTO 24013G23KT 6SM -TSRA FEW030 BKN080 OVC090 15/12 A3012 RMK AO2 PK WND 17028/1809 WSHFT 1822 LTG DSNT N AND SW RAB19 TSB28 P0002 T01500117,M
05U,2023-09-03 18:50,-116.0051,39.6042,1811.23,59.00,50.00,72.01,M,M,0.00,30.08,M,10.00,M,FEW,M,M,M,11000.00,M,M,M,M,M,M,M,M,M,M,59.00,K05U 031850Z AUTO 10SM FEW110 15/10 A3008 RMK A01,M
P68,2023-09-03 18:53,-116.0056,39.6014,1993.00,60.00,49.00,66.95,190.00,13.00,0.00,30.05,1010.80,M,20.00,M,M,M,M,M,M,M,M,M,M,M,M,M,M,M,60.00,KP68 031853Z AUTO 19013G20KT 16/09 A3005 RMK AO1 SLP108 T01560094 $,M
DRA,2023-09-03 18:53,-116.0278,36.6206,1009.00,82.00,58.00,44.05,200.00,16.00,0.00,29.99,1011.00,10.00,25.00,CLR,M,M,M,M,M,M,M,M,M,M,M,28.00,210.00,2023-09-03 18:40,81.94,KDRA 031853Z AUTO 20016G25KT 10SM CLR 28/14 A2999 RMK AO2 PK WND 21028/1840 SLP110 T02780144,M
ELY,2023-09-03 18:53,-114.8453,39.2950,1909.00,60.00,52.00,74.83,220.00,10.00,0.02,30.11,1012.20,10.00,M,FEW,BKN,OVC,M,3200.00,5500.00,8000.00,M,-TSRA,M,M,M,28.00,170.00,2023-09-03 18:09,60.00,KELY 031853Z AUTO 22010KT 10SM -TSRA FEW032 BKN055 OVC080 16/11 A3011 RMK AO2 PK WND 17028/1809 WSHFT 1822 LTG DSNT N AND SW RAB19 TSB28 SLP122 P0002 T01560111,M
VGT,2023-09-03 18:53,-115.1933,36.2111,667.00,85.00,67.00,54.91,100.00,10.00,0.00,29.95,1013.70,10.00,17.00,FEW,M,M,M,3700.00,M,M,M,M,M,M,M,M,M,M,87.75,KVGT 031853Z 10010G17KT 10SM FEW037 29/19 A2995 RMK AO2 SLP137 T02940194 $,M
LOL,2023-09-03 18:53,-118.5701,40.0684,1192.43,56.00,53.00,89.64,60.00,9.00,0.09,30.02,1014.50,10.00,M,FEW,SCT,OVC,M,5000.00,7000.00,9000.00,M,-RA,M,M,M,M,M,M,56.00,KLOL 031853Z AUTO 06009KT 10SM -RA FEW050 SCT070 OVC090 13/12 A3002 RMK AO2 LTG DSNT NE AND E TSE27 SLP145 P0009 T01330117,M
EKO,2023-09-03 18:54,-115.7860,40.8242,1367.00,66.20,53.60,63.82,40.00,7.00,M,30.01,M,10.00,M,FEW,BKN,BKN,M,3999.00,4799.00,6000.00,M,TS,M,M,M,M,M,M,66.20,SPECI KEKO 031854Z 04007KT 10SM TS FEW040 BKN048 BKN060 19/12 A3001 RMK AO2 LTG DSNT ALQDS TSB07E29B51 FIBI,M
BVU,2023-09-03 18:55,-114.8611,35.9475,671.00,82.40,64.40,54.55,140.00,13.00,0.00,29.95,M,10.00,M,BKN,BKN,OVC,M,4600.00,6000.00,8000.00,M,M,M,M,M,M,M,M,83.98,KBVU 031855Z AUTO 14013KT 10SM BKN046 BKN060 OVC080 28/18 A2995 RMK AO2,M
CXP,2023-09-03 18:55,-119.7326,39.1923,1431.00,59.00,50.00,72.01,300.00,9.00,0.02,30.08,M,2.50,15.00,FEW,BKN,OVC,M,300.00,4100.00,10000.00,M,RA HZ,M,M,M,M,M,M,59.00,KCXP 031855Z AUTO 30009G15KT 2 1/2SM RA HZ FEW003 BKN041 OVC100 15/10 A3008 RMK AO2 LTG DSNT NE-SE P0002,M
RNO,2023-09-03 18:55,-119.7711,39.4839,1341.00,60.00,52.00,74.83,M,4.00,0.04,30.07,1014.90,10.00,M,BKN,OVC,M,M,2000.00,3500.00,M,M,M,M,M,M,M,M,M,60.00,KRNO 031855Z VRB04KT 10SM BKN020 OVC035 16/11 A3007 RMK AO2 RAE31 SLP149 P0004 T01560111 $,M
RTS,2023-09-03 18:55,-119.8764,39.6682,1539.00,53.60,50.00,87.56,310.00,8.00,0.17,30.11,M,2.50,M,FEW,FEW,FEW,M,2700.00,3100.00,3800.00,M,-RA,M,M,M,M,M,M,53.60,KRTS 031855Z AUTO 31008KT 2 1/2SM -RA FEW027 FEW031 FEW038 12/10 A3011 RMK AO2 P0017,M
MEV,2023-09-03 18:55,-119.7500,38.9963,1441.42,59.00,51.80,76.98,350.00,9.00,0.00,30.07,M,10.00,M,FEW,FEW,BKN,M,3400.00,4300.00,6000.00,M,M,M,M,M,M,M,M,59.00,KMEV 031855Z AUTO 35009KT 10SM FEW034 FEW043 BKN060 15/11 A3007 RMK AO2 LTG DSNT E AND SE,M
BAM,2023-09-03 18:55,-116.8743,40.5990,1382.36,62.60,55.40,77.29,50.00,13.00,0.00,30.01,M,10.00,M,BKN,BKN,M,M,5000.00,11000.00,M,M,M,M,M,M,M,M,M,62.60,KBAM 031855Z AUTO 05013KT 10SM BKN050 BKN110 17/13 A3001 RMK AO1,M
HTH,2023-09-03 18:55,-118.6315,38.5448,1282.89,60.80,55.40,82.37,350.00,10.00,0.14,30.01,M,10.00,16.00,FEW,FEW,FEW,M,2400.00,3800.00,5000.00,M,M,M,M,M,M,M,M,60.80,KHTH 031855Z AUTO 35010G16KT 10SM FEW024 FEW038 FEW050 16/13 A3001 RMK A01 P0014,M
TMT,2023-09-03 18:55,-117.1971,39.4643,1749.34,64.00,54.30,70.69,120.00,3.00,0.00,30.02,M,M,M,CLR,M,M,M,M,M,M,M,VCTS,M,M,M,M,M,M,64.00,KTMT 031855Z AUTO 12003KT VCTS CLR 18/12 A3002 RMK AO2 LTG DSNT ALQS T01780124,M
10U,2023-09-03 18:55,-116.1876,41.9532,1637.00,51.80,50.00,93.55,0.00,0.00,0.00,30.13,M,7.00,M,CLR,M,M,M,M,M,M,M,-RA,M,M,M,M,M,M,51.80,K10U 031855Z AUTO 00000KT 7SM -RA CLR 11/10 A3013 RMK AO2 LTG DSNT S AND W,M
INS,2023-09-03 18:55,-115.6733,36.5872,955.00,81.00,59.50,48.02,80.00,15.00,0.00,29.97,1010.40,10.00,M,FEW,BKN,M,M,5500.00,7000.00,M,M,M,M,M,M,M,M,M,81.50,KINS 031855Z AUTO 08015KT 10SM FEW055 BKN070 27/15 A2997 RMK AO2 SLP104 T02730153 $,M
LSV,2023-09-03 18:55,-115.0343,36.2362,570.00,84.40,66.40,54.83,110.00,6.00,0.00,29.92,1011.10,10.00,M,FEW,M,M,M,19000.00,M,M,M,M,M,M,M,M,M,M,86.81,KLSV 031855Z AUTO 11006KT 10SM FEW190 29/19 A2992 RMK AO2 SLP111 T02910191 $,M
EKO,2023-09-03 18:56,-115.7860,40.8242,1367.00,67.00,53.00,60.73,M,4.00,0.00,30.02,1012.00,10.00,M,FEW,BKN,BKN,M,3500.00,4800.00,6000.00,M,TS,M,M,M,M,M,M,67.00,KEKO 031856Z AUTO VRB04KT 10SM TS FEW035 BKN048 BKN060 19/12 A3002 RMK AO2 LTG DSNT ALQDS TSB07E29B51 SLP120 T01940117,M
WMC,2023-09-03 18:56,-117.8072,40.9019,1315.00,58.00,56.00,93.04,70.00,9.00,0.16,30.02,1013.20,7.00,24.00,BKN,OVC,M,M,7000.00,8500.00,M,M,-TSRA,M,M,M,M,M,M,58.00,KWMC 031856Z AUTO 07009G24KT 7SM -TSRA BKN070 OVC085 14/13 A3002 RMK AO2 LTG DSNT ALQDS TSB07 SLP132 P0016 T01440133,M
HND,2023-09-03 18:56,-115.1344,35.9729,742.79,85.00,65.00,51.22,M,4.00,0.00,29.99,1014.70,10.00,M,FEW,M,M,M,4600.00,M,M,M,M,M,M,M,M,M,M,86.77,KHND 031856Z VRB04KT 10SM FEW046 29/18 A2999 RMK AO2 SLP147 T02940183,M
TPH,2023-09-03 18:56,-117.0904,38.0505,1654.00,73.00,45.00,36.70,180.00,22.00,0.00,30.04,1010.10,10.00,33.00,FEW,M,M,M,4700.00,M,M,M,M,M,M,M,33.00,180.00,2023-09-03 18:55,73.00,KTPH 031856Z AUTO 18022G33KT 10SM FEW047 23/07 A3004 RMK AO2 PK WND 18033/1855 SLP101 T02280072,M
LAS,2023-09-03 18:56,-115.1634,36.0719,663.00,84.00,65.00,52.90,M,3.00,0.00,29.96,1012.20,10.00,M,SCT,BKN,M,M,5000.00,10000.00,M,M,M,M,M,M,M,M,M,85.77,KLAS 031856Z VRB03KT 10SM SCT050 BKN100 29/18 A2996 RMK AO2 SLP122 T02890183 $,M
WMC,2023-09-03 19:04,-117.8072,40.9019,1315.00,58.00,56.00,93.04,50.00,9.00,0.01,30.01,M,10.00,18.00,BKN,OVC,M,M,7000.00,8500.00,M,M,VCTS -RA,M,M,M,M,M,M,58.00,KWMC 031904Z AUTO 05009G18KT 10SM VCTS -RA BKN070 OVC085 14/13 A3001 RMK AO2 LTG DSNT ALQDS TSE1858 P0001 T01440133,M
ELY,2023-09-03 19:05,-114.8453,39.2950,1909.00,61.00,51.00,69.60,220.00,9.00,T,30.11,M,10.00,M,FEW,SCT,BKN,M,4800.00,6500.00,8000.00,M,M,M,M,M,M,M,M,61.00,KELY 031905Z AUTO 22009KT 10SM FEW048 SCT065 BKN080 16/11 A3011 RMK AO2 LTG DSNT N AND SW RAE02 TSE01 P0000 T01610106,M
INS,2023-09-03 19:10,-115.6733,36.5872,955.00,82.40,59.00,45.07,110.00,14.00,0.00,29.96,1010.10,10.00,M,SCT,BKN,M,M,5000.00,7000.00,M,M,M,M,M,M,M,M,M,82.46,KINS 031910Z AUTO 11014KT 10SM SCT050 BKN070 28/15 A2996 RMK AO2 WSHFT 08 SLP101 $,M
05U,2023-09-03 19:10,-116.0051,39.6042,1811.23,60.80,46.40,59.01,M,M,0.00,30.06,M,10.00,M,FEW,M,M,M,11000.00,M,M,M,M,M,M,M,M,M,M,60.80,K05U 031910Z AUTO 10SM FEW110 16/08 A3006 RMK A01,M
WMC,2023-09-03 19:13,-117.8072,40.9019,1315.00,58.00,56.00,93.04,40.00,14.00,0.02,30.00,M,10.00,21.00,BKN,OVC,M,M,7500.00,9000.00,M,M,-RA,M,M,M,M,M,M,58.00,KWMC 031913Z AUTO 04014G21KT 10SM -RA BKN075 OVC090 14/13 A3000 RMK AO2 LTG DSNT ALQDS TSE1858 P0002 T01440133,M
BVU,2023-09-03 19:15,-114.8611,35.9475,671.00,84.20,64.40,51.47,140.00,15.00,0.00,29.94,M,10.00,24.00,BKN,OVC,M,M,4700.00,5500.00,M,M,M,M,M,M,M,M,M,85.71,KBVU 031915Z AUTO 14015G24KT 10SM BKN047 OVC055 29/18 A2994 RMK AO2,M
CXP,2023-09-03 19:15,-119.7326,39.1923,1431.00,57.20,51.80,82.12,0.00,0.00,0.00,30.08,M,2.50,M,FEW,SCT,BKN,M,300.00,4000.00,4600.00,M,-RA HZ,M,M,M,M,M,M,57.20,KCXP 031915Z AUTO 00000KT 2 1/2SM -RA HZ FEW003 SCT040 BKN046 14/11 A3008 RMK AO2 VIS 1 1/4V5,M
RTS,2023-09-03 19:15,-119.8764,39.6682,1539.00,55.40,50.00,81.99,340.00,10.00,0.00,30.10,M,9.00,M,CLR,M,M,M,M,M,M,M,M,M,M,M,M,M,M,55.40,KRTS 031915Z AUTO 34010KT 9SM CLR 13/10 A3010 RMK AO2,M
MEV,2023-09-03 19:15,-119.7500,38.9963,1441.42,55.40,51.80,87.65,310.00,4.00,0.00,30.07,M,2.00,M,SCT,BKN,OVC,M,2200.00,3200.00,5500.00,M,-RA HZ,M,M,M,M,M,M,55.40,KMEV 031915Z AUTO 31004KT 2SM -RA HZ SCT022 BKN032 OVC055 13/11 A3007 RMK AO2,M
BAM,2023-09-03 19:15,-116.8743,40.5990,1382.36,60.80,55.40,82.37,40.00,10.00,0.00,29.99,M,10.00,M,SCT,BKN,BKN,M,5000.00,7000.00,10000.00,M,M,M,M,M,M,M,M,60.80,KBAM 031915Z AUTO 04010KT 10SM SCT050 BKN070 BKN100 16/13 A2999 RMK AO1,M
HTH,2023-09-03 19:15,-118.6315,38.5448,1282.89,60.80,55.40,82.37,330.00,15.00,0.00,30.00,M,10.00,M,CLR,M,M,M,M,M,M,M,M,M,M,M,M,M,M,60.80,KHTH 031915Z AUTO 33015KT 10SM CLR 16/13 A3000 RMK A01,M
10U,2023-09-03 19:15,-116.1876,41.9532,1637.00,53.60,50.00,87.56,140.00,4.00,0.00,30.13,M,7.00,M,SCT,SCT,M,M,5500.00,6500.00,M,M,RA,M,M,M,M,M,M,53.60,K10U 031915Z AUTO 14004KT 7SM RA SCT055 SCT065 12/10 A3013 RMK AO2,M
TMT,2023-09-03 19:15,-117.1971,39.4643,1749.34,66.00,53.60,64.27,0.00,0.00,0.00,30.00,M,M,M,CLR,M,M,M,M,M,M,M,VCTS,M,M,M,M,M,M,66.00,KTMT 031915Z AUTO 00000KT VCTS CLR 19/12 A3000 RMK AO2 LTG DSNT SW THRU NE T01880120,M
EKO,2023-09-03 19:16,-115.7860,40.8242,1367.00,66.00,53.00,62.87,340.00,12.00,0.00,30.02,M,10.00,20.00,BKN,BKN,M,M,3300.00,4800.00,M,M,VCTS,M,M,M,M,M,M,66.00,KEKO 031916Z AUTO 34012G20KT 10SM VCTS BKN033 BKN048 19/12 A3002 RMK AO2 LTG DSNT ALQDS TSE10 T01890117,M
ELY,2023-09-03 19:17,-114.8453,39.2950,1909.00,61.00,49.00,64.61,230.00,9.00,T,30.11,M,10.00,17.00,FEW,SCT,BKN,M,4600.00,6500.00,9000.00,M,VCTS,M,M,M,M,M,M,61.00,KELY 031917Z AUTO 23009G17KT 10SM VCTS FEW046 SCT065 BKN090 16/09 A3011 RMK AO2 LTG DSNT SW-N RAE02 TSE01 P0000 T01610094,M
INS,2023-09-03 19:22,-115.6733,36.5872,955.00,82.40,55.40,39.58,190.00,10.00,0.00,29.96,1010.10,10.00,15.00,SCT,SCT,SCT,M,5500.00,7000.00,8500.00,M,M,M,M,M,M,M,M,81.75,KINS 031922Z AUTO 19010G15KT 10SM SCT055 SCT070 SCT085 28/13 A2996 RMK AO2 WSHFT 21 SLP101 $,M
WMC,2023-09-03 19:23,-117.8072,40.9019,1315.00,58.00,56.00,93.04,40.00,17.00,0.02,29.99,M,10.00,M,OVC,M,M,M,8000.00,M,M,M,-TSRA,M,M,M,M,M,M,58.00,KWMC 031923Z AUTO 04017KT 10SM -TSRA OVC080 14/13 A2999 RMK AO2 LTG DSNT ALQDS TSE1858B23 P0002 T01440133,M
05U,2023-09-03 19:30,-116.0051,39.6042,1811.23,60.80,48.20,63.15,M,M,0.00,30.04,M,10.00,M,CLR,M,M,M,M,M,M,M,M,M,M,M,M,M,M,60.80,K05U 031930Z AUTO 10SM CLR 16/09 A3004 RMK A01,M
BVU,2023-09-03 19:35,-114.8611,35.9475,671.00,84.20,62.60,48.32,150.00,17.00,0.00,29.93,M,10.00,24.00,BKN,BKN,BKN,M,5000.00,6000.00,7000.00,M,M,M,M,M,M,M,M,85.03,KBVU 031935Z AUTO 15017G24KT 10SM BKN050 BKN060 BKN070 29/17 A2993 RMK AO2,M
CXP,2023-09-03 19:35,-119.7326,39.1923,1431.00,55.40,51.80,87.65,0.00,0.00,0.00,30.10,M,1.50,13.00,FEW,SCT,BKN,M,1700.00,2700.00,6500.00,M,RA BR,M,M,M,M,M,M,55.40,KCXP 031935Z AUTO 00000G13KT 1 1/2SM RA BR FEW017 SCT027 BKN065 13/11 A3010 RMK AO2 LTG DSNT E AND SE,M
RTS,2023-09-03 19:35,-119.8764,39.6682,1539.00,55.40,48.20,76.66,320.00,8.00,0.00,30.11,M,10.00,M,FEW,SCT,SCT,M,2200.00,4300.00,7000.00,M,M,M,M,M,M,M,M,55.40,KRTS 031935Z AUTO 32008KT 10SM FEW022 SCT043 SCT070 13/09 A3011 RMK AO2,M
MEV,2023-09-03 19:35,-119.7500,38.9963,1441.42,55.40,50.00,81.99,300.00,4.00,0.00,30.07,M,10.00,M,FEW,SCT,BKN,M,1800.00,2200.00,7000.00,M,M,M,M,M,M,M,M,55.40,KMEV 031935Z AUTO 30004KT 10SM FEW018 SCT022 BKN070 13/10 A3007 RMK AO2 LTG DSNT NE AND E,M
BAM,2023-09-03 19:35,-116.8743,40.5990,1382.36,55.40,53.60,93.65,260.00,3.00,0.00,30.06,M,1.50,22.00,SCT,BKN,OVC,M,1500.00,2600.00,6500.00,M,M,M,M,M,M,M,M,55.40,KBAM 031935Z AUTO 26003G22KT 1 1/2SM SCT015 BKN026 OVC065 13/12 A3006 RMK AO1,M
HTH,2023-09-03 19:35,-118.6315,38.5448,1282.89,64.40,53.60,67.95,340.00,15.00,0.00,29.99,M,10.00,M,CLR,M,M,M,M,M,M,M,M,M,M,M,M,M,M,64.40,KHTH 031935Z AUTO 34015KT 10SM CLR 18/12 A2999 RMK A01,M
TMT,2023-09-03 19:35,-117.1971,39.4643,1749.34,66.00,51.00,58.40,300.00,6.00,0.00,30.00,M,M,M,CLR,M,M,M,M,M,M,M,M,M,M,M,M,M,M,66.00,KTMT 031935Z AUTO 30006KT CLR 19/11 A3000 RMK AO2 LTG DSNT SW THRU NE T01890106 PWINO,M
10U,2023-09-03 19:35,-116.1876,41.9532,1637.00,53.60,50.00,87.56,0.00,0.00,0.00,30.12,M,5.00,M,FEW,SCT,M,M,5000.00,6000.00,M,M,-RA,M,M,M,M,M,M,53.60,K10U 031935Z AUTO 00000KT 5SM -RA FEW050 SCT060 12/10 A3012 RMK AO2 LTG DSNT E AND S,M
EKO,2023-09-03 19:43,-115.7860,40.8242,1367.00,64.00,50.00,60.34,220.00,4.00,0.00,30.00,M,10.00,21.00,FEW,SCT,BKN,M,3000.00,3600.00,4400.00,M,M,M,M,M,M,M,M,64.00,KEKO 031943Z AUTO 22004G21KT 10SM FEW030 SCT036 BKN044 18/10 A3000 RMK AO2 LTG DSNT ALQDS TSE10 T01780100,M
WMC,2023-09-03 19:45,-117.8072,40.9019,1315.00,52.00,49.00,89.46,240.00,25.00,0.04,30.09,M,1.50,48.00,SCT,BKN,OVC,M,3000.00,7500.00,9000.00,M,TSRA BR,M,M,M,48.00,240.00,2023-09-03 19:42,52.00,KWMC 031945Z AUTO 24025G48KT 1 1/2SM TSRA BR SCT030 BKN075 OVC090 11/09 A3009 RMK AO2 PK WND 24048/1942 LTG DSNT ALQDS TSE1858B23 PRESRR P0004 T01110094,M
ELY,2023-09-03 19:46,-114.8453,39.2950,1909.00,58.00,49.00,71.91,250.00,25.00,T,30.12,M,10.00,39.00,FEW,BKN,OVC,M,4900.00,8000.00,9500.00,M,-RA,M,M,M,39.00,230.00,2023-09-03 19:46,58.00,KELY 031946Z AUTO 25025G39KT 10SM -RA FEW049 BKN080 OVC095 14/09 A3012 RMK AO2 PK WND 23039/1946 LTG DSNT SE-SW RAE02B22 TSE01 P0000 T01440094,M
INS,2023-09-03 19:47,-115.6733,36.5872,955.00,84.20,57.20,39.86,110.00,13.00,0.00,29.95,1009.70,10.00,18.00,FEW,FEW,M,M,8500.00,10000.00,M,M,M,M,M,M,M,M,M,83.47,KINS 031947Z AUTO 11013G18KT 10SM FEW085 FEW100 29/14 A2995 RMK AO2 WSHFT 38 SLP097 $,M
WMC,2023-09-03 19:50,-117.8072,40.9019,1315.00,51.80,48.20,87.47,250.00,23.00,0.10,30.10,M,0.75,48.00,SCT,BKN,OVC,M,3000.00,5500.00,7500.00,M,+TSRA BR,M,M,M,48.00,240.00,2023-09-03 19:42,51.80,KWMC 031950Z AUTO 25023G48KT 3/4SM +TSRA BR SCT030 BKN055 OVC075 11/09 A3010 RMK AO2 PK WND 24048/1942 LTG DSNT ALQDS TSE1858B23 PRESRR P0010,M
05U,2023-09-03 19:50,-116.0051,39.6042,1811.23,66.20,48.20,52.25,M,M,0.00,30.02,M,10.00,M,CLR,M,M,M,M,M,M,M,M,M,M,M,M,M,M,66.20,K05U 031950Z AUTO 10SM CLR 19/09 A3002 RMK A01,M
P68,2023-09-03 19:53,-116.0056,39.6014,1993.00,65.00,48.00,54.07,170.00,13.00,0.00,29.99,1008.20,M,24.00,M,M,M,M,M,M,M,M,M,M,M,M,M,M,M,65.00,KP68 031953Z AUTO 17013G24KT 18/09 A2999 RMK AO1 SLP082 T01830089 $,M
DRA,2023-09-03 19:53,-116.0278,36.6206,1009.00,85.00,54.00,34.59,200.00,20.00,0.00,29.96,1009.80,10.00,30.00,FEW,M,M,M,6000.00,M,M,M,M,M,M,M,30.00,210.00,2023-09-03 19:52,83.45,KDRA 031953Z AUTO 20020G30KT 10SM FEW060 29/12 A2996 RMK AO2 PK WND 21030/1952 SLP098 T02940122,M
ELY,2023-09-03 19:53,-114.8453,39.2950,1909.00,56.00,47.00,71.70,250.00,20.00,T,30.11,1012.20,10.00,39.00,SCT,BKN,OVC,M,4900.00,7000.00,9000.00,M,-RA,M,M,M,39.00,230.00,2023-09-03 19:46,56.00,KELY 031953Z AUTO 25020G39KT 10SM -RA SCT049 BKN070 OVC090 13/08 A3011 RMK AO2 PK WND 23039/1946 LTG DSNT SE-SW RAE02B22 TSE01 SLP122 P0000 T01330083,M
VGT,2023-09-03 19:53,-115.1933,36.2111,667.00,86.00,66.00,51.37,120.00,11.00,0.00,29.92,1012.50,10.00,16.00,FEW,FEW,M,M,4700.00,7500.00,M,M,M,M,M,M,M,M,M,88.28,KVGT 031953Z 12011G16KT 10SM FEW047 FEW075 30/19 A2992 RMK AO2 SLP125 T03000189 $,M
LOL,2023-09-03 19:53,-118.5701,40.0684,1192.43,58.00,52.00,80.38,50.00,10.00,T,30.03,1014.40,10.00,M,FEW,BKN,OVC,M,3500.00,7000.00,11000.00,M,-RA,M,M,M,M,M,M,58.00,KLOL 031953Z AUTO 05010KT 10SM -RA FEW035 BKN070 OVC110 14/11 A3003 RMK AO2 LTG DSNT SE RAE01B40 SLP144 P0000 T01440111,M
BVU,2023-09-03 19:55,-114.8611,35.9475,671.00,86.00,64.40,48.58,170.00,15.00,0.00,29.92,M,10.00,M,BKN,BKN,M,M,5000.00,6000.00,M,M,M,M,M,M,M,M,M,87.49,KBVU 031955Z AUTO 17015KT 10SM BKN050 BKN060 30/18 A2992 RMK AO2,M
CXP,2023-09-03 19:55,-119.7326,39.1923,1431.00,53.60,50.00,87.56,0.00,0.00,0.25,30.09,M,1.25,M,VV ,M,M,M,700.00,M,M,M,RA HZ,M,M,M,M,M,M,53.60,KCXP 031955Z AUTO 00000KT 1 1/4SM RA HZ VV007 12/10 A3009 RMK AO2 LTG DSNT NE-SE P0025,M
RNO,2023-09-03 19:55,-119.7711,39.4839,1341.00,61.00,49.00,64.61,350.00,13.00,0.00,30.06,1014.60,10.00,M,BKN,OVC,M,M,2000.00,3500.00,M,M,M,M,M,M,M,M,M,61.00,KRNO 031955Z 35013KT 10SM BKN020 OVC035 16/09 A3006 RMK AO2 LTG DSNT SE SLP146 T01610094 $,M
RTS,2023-09-03 19:55,-119.8764,39.6682,1539.00,55.40,48.20,76.66,320.00,10.00,0.00,30.10,M,10.00,M,FEW,BKN,OVC,M,2500.00,3300.00,5000.00,M,M,M,M,M,M,M,M,55.40,KRTS 031955Z AUTO 32010KT 10SM FEW025 BKN033 OVC050 13/09 A3010 RMK AO2,M
MEV,2023-09-03 19:55,-119.7500,38.9963,1441.42,57.20,50.00,76.82,350.00,5.00,0.00,30.07,M,10.00,M,BKN,BKN,M,M,6000.00,7000.00,M,M,-RA,M,M,M,M,M,M,57.20,KMEV 031955Z AUTO 35005KT 10SM -RA BKN060 BKN070 14/10 A3007 RMK AO2 LTG DSNT NE AND E,M
BAM,2023-09-03 19:55,-116.8743,40.5990,1382.36,55.40,53.60,93.65,350.00,8.00,0.00,30.03,M,10.00,M,SCT,BKN,OVC,M,1300.00,7000.00,8500.00,M,M,M,M,M,M,M,M,55.40,KBAM 031955Z AUTO 35008KT 10SM SCT013 BKN070 OVC085 13/12 A3003 RMK AO1,M
HTH,2023-09-03 19:55,-118.6315,38.5448,1282.89,68.00,53.60,59.97,350.00,19.00,0.00,29.99,M,10.00,M,FEW,M,M,M,8000.00,M,M,M,M,M,M,M,M,M,M,68.00,KHTH 031955Z AUTO 35019KT 10SM FEW080 20/12 A2999 RMK A01,M
TMT,2023-09-03 19:55,-117.1971,39.4643,1749.34,63.00,53.00,69.82,330.00,19.00,0.01,29.99,M,M,26.00,SCT,BKN,M,M,7000.00,9000.00,M,M,TS,M,M,M,M,M,M,63.00,KTMT 031955Z AUTO 33019G26KT TS SCT070 BKN090 17/12 A2999 RMK AO2 LTG DSNT SW THRU N P0001 T01720117,M
INS,2023-09-03 19:55,-115.6733,36.5872,955.00,83.50,56.70,40.04,100.00,16.00,0.00,29.93,1009.00,10.00,M,FEW,FEW,SCT,M,5500.00,8000.00,10000.00,M,M,M,M,M,29.00,200.00,2023-09-03 19:32,82.81,KINS 031955Z AUTO 10016KT 10SM FEW055 FEW080 SCT100 29/14 A2993 RMK AO2 PK WND 20029/32 PRESFR SLP090 T02860137 $,M
LSV,2023-09-03 19:55,-115.0343,36.2362,570.00,86.00,66.20,51.72,70.00,5.00,0.00,29.89,1010.10,10.00,M,CLR,M,M,M,M,M,M,M,M,M,M,M,M,M,M,88.39,KLSV 031955Z AUTO 07005KT 10SM CLR 30/19 A2989 RMK AO2 SLP101 T03000190 $,M
EKO,2023-09-03 19:56,-115.7860,40.8242,1367.00,67.00,52.00,58.53,10.00,7.00,0.00,29.99,1011.20,10.00,M,FEW,FEW,M,M,3600.00,4500.00,M,M,M,M,M,M,M,M,M,67.00,KEKO 031956Z AUTO 01007KT 340V040 10SM FEW036 FEW045 19/11 A2999 RMK AO2 LTG DSNT ALQDS TSE10 SLP112 T01940111,M
WMC,2023-09-03 19:56,-117.8072,40.9019,1315.00,51.00,49.00,92.83,250.00,18.00,0.19,30.10,1016.80,1.00,35.00,BKN,BKN,OVC,M,3200.00,5000.00,7000.00,M,+TSRA BR,M,M,M,48.00,240.00,2023-09-03 19:42,51.00,KWMC 031956Z AUTO 25018G35KT 1SM +TSRA BR BKN032 BKN050 OVC070 11/09 A3010 RMK AO2 PK WND 24048/1942 WSHFT 1938 LTG DSNT ALQDS TSE1858B23 SLP168 P0019 T01060094,M
HND,2023-09-03 19:56,-115.1344,35.9729,742.79,87.00,62.00,43.25,200.00,11.00,0.00,29.96,1013.50,10.00,15.00,FEW,SCT,M,M,6000.00,8500.00,M,M,M,M,M,M,M,M,M,87.44,KHND 031956Z 20011G15KT 10SM FEW060 SCT085 31/17 A2996 RMK AO2 SLP135 T03060167,M
TPH,2023-09-03 19:56,-117.0904,38.0505,1654.00,75.00,45.00,34.31,200.00,24.00,0.00,30.00,1008.70,10.00,32.00,CLR,M,M,M,M,M,M,M,M,M,M,M,37.00,180.00,2023-09-03 19:05,75.00,KTPH 031956Z AUTO 20024G32KT 10SM CLR 24/07 A3000 RMK AO2 PK WND 18037/1905 SLP087 T02390072,M
LAS,2023-09-03 19:56,-115.1634,36.0719,663.00,88.00,58.00,36.34,210.00,8.00,0.00,29.92,1010.80,10.00,17.00,FEW,SCT,BKN,M,4000.00,6000.00,12000.00,M,M,M,M,M,M,M,M,86.99,KLAS 031956Z 21008G17KT 10SM FEW040 SCT060 BKN120 31/14 A2992 RMK AO2 SLP108 T03110144 $,M
NFL,2023-09-03 19:56,-118.7010,39.4166,1199.00,59.00,54.00,83.46,40.00,8.00,T,30.04,1014.10,10.00,M,SCT,BKN,OVC,M,2400.00,7500.00,10000.00,M,M,M,M,M,M,M,M,59.00,KNFL 031956Z AUTO 04008KT 10SM SCT024 BKN075 OVC100 15/12 A3004 RMK AO2 RAB16E51 SLP141 P0000 T01500122,M
10U,2023-09-03 20:00,-116.1876,41.9532,1637.00,53.60,50.00,87.56,80.00,6.00,0.00,30.08,M,8.00,M,FEW,M,M,M,6500.00,M,M,M,-RA,M,M,M,M,M,M,53.60,K10U 032000Z AUTO 08006KT 8SM -RA FEW065 12/10 A3008 RMK AO2 LTG DSNT SE AND W,M
ELY,2023-09-03 20:01,-114.8453,39.2950,1909.00,55.00,46.00,71.60,250.00,25.00,T,30.11,M,7.00,40.00,BKN,BKN,OVC,M,6000.00,7500.00,9000.00,M,VCTS -RA,M,M,M,40.00,250.00,2023-09-03 19:57,55.00,KELY 032001Z AUTO 25025G40KT 7SM VCTS -RA BKN060 BKN075 OVC090 13/08 A3011 RMK AO2 PK WND 25040/1957 LTG DSNT NE-S P0000 T01280078,M
NFL,2023-09-03 20:07,-118.7010,39.4166,1199.00,58.00,53.00,83.39,60.00,8.00,0.01,30.04,M,10.00,M,BKN,BKN,OVC,M,2400.00,6500.00,10000.00,M,-RA,M,M,M,M,M,M,58.00,KNFL 032007Z AUTO 06008KT 10SM -RA BKN024 BKN065 OVC100 14/12 A3004 RMK AO2 RAB07 P0001 T01440117,M
ELY,2023-09-03 20:08,-114.8453,39.2950,1909.00,55.00,47.00,74.36,220.00,12.00,T,30.10,M,4.00,35.00,SCT,BKN,OVC,M,5000.00,6000.00,8000.00,M,TSRA,M,M,M,40.00,250.00,2023-09-03 19:57,55.00,KELY 032008Z AUTO 22012G35KT 4SM TSRA SCT050 BKN060 OVC080 13/08 A3010 RMK AO2 PK WND 25040/1957 LTG DSNT NE-SE TSB02 P0000 T01280083,M
05U,2023-09-03 20:10,-116.0051,39.6042,1811.23,66.20,50.00,55.88,M,M,0.00,30.01,M,10.00,M,CLR,M,M,M,M,M,M,M,M,M,M,M,M,M,M,66.20,K05U 032010Z AUTO 10SM CLR 19/10 A3001 RMK A01,M
INS,2023-09-03 20:13,-115.6733,36.5872,955.00,84.20,57.20,39.86,120.00,11.00,0.00,29.94,1009.40,10.00,M,SCT,SCT,M,M,6000.00,8000.00,M,M,M,M,M,M,M,M,M,83.47,KINS 032013Z AUTO 12011KT 10SM SCT060 SCT080 29/14 A2994 RMK AO2 WSHFT 08 SLP094 $,M
BVU,2023-09-03 20:15,-114.8611,35.9475,671.00,87.80,62.60,43.07,160.00,16.00,0.00,29.91,M,10.00,25.00,FEW,SCT,BKN,M,5500.00,6500.00,8500.00,M,M,M,M,M,M,M,M,88.48,KBVU 032015Z AUTO 16016G25KT 10SM FEW055 SCT065 BKN085 31/17 A2991 RMK AO2,M
CXP,2023-09-03 20:15,-119.7326,39.1923,1431.00,55.40,50.00,81.99,350.00,4.00,0.00,30.09,M,10.00,M,SCT,BKN,BKN,M,5500.00,7000.00,8500.00,M,M,M,M,M,M,M,M,55.40,KCXP 032015Z AUTO 35004KT 10SM SCT055 BKN070 BKN085 13/10 A3009 RMK AO2 LTG DSNT E,M
WMC,2023-09-03 20:15,-117.8072,40.9019,1315.00,51.00,49.00,92.83,250.00,9.00,0.18,30.10,M,1.50,18.00,OVC,M,M,M,3800.00,M,M,M,+TSRA BR,M,M,M,M,M,M,51.00,KWMC 032015Z AUTO 25009G18KT 1 1/2SM +TSRA BR OVC038 11/09 A3010 RMK AO2 LTG DSNT ALQDS P0018 T01060094,M
RTS,2023-09-03 20:15,-119.8764,39.6682,1539.00,55.40,48.20,76.66,310.00,13.00,0.00,30.10,M,10.00,M,SCT,BKN,OVC,M,3300.00,5000.00,6500.00,M,M,M,M,M,M,M,M,55.40,KRTS 032015Z AUTO 31013KT 10SM SCT033 BKN050 OVC065 13/09 A3010 RMK AO2,M
MEV,2023-09-03 20:15,-119.7500,38.9963,1441.42,59.00,51.80,76.98,360.00,7.00,0.00,30.06,M,9.00,M,FEW,SCT,M,M,6500.00,7500.00,M,M,-RA,M,M,M,M,M,M,59.00,KMEV 032015Z AUTO 36007KT 9SM -RA FEW065 SCT075 15/11 A3006 RMK AO2 LTG DSNT E,M
BAM,2023-09-03 20:15,-116.8743,40.5990,1382.36,55.40,53.60,93.65,0.00,0.00,0.00,30.07,M,10.00,M,BKN,OVC,M,M,5500.00,6500.00,M,M,M,M,M,M,M,M,M,55.40,KBAM 032015Z AUTO 00000KT 10SM BKN055 OVC065 13/12 A3007 RMK AO1,M
HTH,2023-09-03 20:15,-118.6315,38.5448,1282.89,66.20,51.80,59.74,360.00,17.00,0.00,29.99,M,10.00,M,BKN,BKN,M,M,8000.00,9000.00,M,M,M,M,M,M,M,M,M,66.20,KHTH 032015Z AUTO 36017KT 10SM BKN080 BKN090 19/11 A2999 RMK A01,M
10U,2023-09-03 20:15,-116.1876,41.9532,1637.00,55.40,51.80,87.65,70.00,7.00,0.00,30.06,M,10.00,M,FEW,SCT,M,M,6500.00,11000.00,M,M,M,M,M,M,M,M,M,55.40,K10U 032015Z AUTO 07007KT 10SM FEW065 SCT110 13/11 A3006 RMK AO2,M
TMT,2023-09-03 20:15,-117.1971,39.4643,1749.34,54.30,50.70,87.59,340.00,18.00,0.00,30.01,M,M,22.00,M,M,M,M,M,M,M,M,TS,M,M,M,M,M,M,54.30,KTMT 032015Z AUTO 34018G22KT TS 12/10 A3001 RMK AO2 LTG DSNT ALQS T01240104,M
NFL,2023-09-03 20:16,-118.7010,39.4166,1199.00,58.00,53.00,83.39,60.00,6.00,0.02,30.03,M,6.00,M,SCT,BKN,OVC,M,2400.00,7000.00,9500.00,M,-RA,M,M,M,M,M,M,58.00,KNFL 032016Z AUTO 06006KT 6SM -RA SCT024 BKN070 OVC095 14/12 A3003 RMK AO2 RAB07 P0002 T01440117,M
WMC,2023-09-03 20:24,-117.8072,40.9019,1315.00,51.00,49.00,92.83,240.00,6.00,0.23,30.10,M,2.00,M,OVC,M,M,M,4200.00,M,M,M,VCTS RA BR,M,M,M,M,M,M,51.00,KWMC 032024Z AUTO 24006KT 2SM VCTS RA BR OVC042 11/09 A3010 RMK AO2 LTG DSNT ALQDS TSE20 P0023 T01060094,M
ELY,2023-09-03 20:29,-114.8453,39.2950,1909.00,56.00,49.00,77.29,160.00,9.00,0.02,30.09,M,10.00,21.00,FEW,BKN,OVC,M,5000.00,7000.00,10000.00,M,VCTS,M,M,M,40.00,250.00,2023-09-03 19:57,56.00,KELY 032029Z AUTO 16009G21KT 120V200 10SM VCTS FEW050 BKN070 OVC100 13/09 A3009 RMK AO2 PK WND 25040/1957 LTG DSNT NE AND E RAE20 TSB02E23 P0002 T01330094,M
RNO,2023-09-03 20:30,-119.7711,39.4839,1341.00,57.00,50.00,77.38,350.00,7.00,0.04,30.07,M,2.50,M,BKN,OVC,M,M,2000.00,3500.00,M,M,RA,M,M,M,M,M,M,57.00,KRNO 032030Z 35007KT 2 1/2SM RA BKN020 OVC035 14/10 A3007 RMK AO2 LTG DSNT E AND SE RAB08 P0004 T01390100 $,M
05U,2023-09-03 20:30,-116.0051,39.6042,1811.23,71.60,48.20,43.42,M,M,0.00,30.01,M,10.00,M,CLR,M,M,M,M,M,M,M,M,M,M,M,M,M,M,71.60,K05U 032030Z AUTO 10SM CLR 22/09 A3001 RMK A01,M
WMC,2023-09-03 20:33,-117.8072,40.9019,1315.00,52.00,49.00,89.46,290.00,4.00,0.27,30.10,M,1.75,M,OVC,M,M,M,4800.00,M,M,M,RA BR,M,M,M,M,M,M,52.00,KWMC 032033Z AUTO 29004KT 1 3/4SM RA BR OVC048 11/09 A3010 RMK AO2 LTG DSNT ALQDS TSE20 P0027 T01110094,M
P68,2023-09-03 20:34,-116.0056,39.6014,1993.00,71.00,49.00,45.66,180.00,13.00,0.00,29.98,M,M,20.00,M,M,M,M,M,M,M,M,M,M,M,M,M,M,M,71.00,KP68 032034Z AUTO 18013G20KT 22/09 A2998 RMK AO1 WSHFT 2017 T02170094 $,M
RNO,2023-09-03 20:34,-119.7711,39.4839,1341.00,57.00,50.00,77.38,360.00,7.00,0.04,30.07,M,4.00,M,BKN,OVC,M,M,2000.00,3500.00,M,M,RA,M,M,M,M,M,M,57.00,KRNO 032034Z 36007KT 4SM RA BKN020 OVC035 14/10 A3007 RMK AO2 LTG DSNT E AND SE RAB08 P0004 T01390100 $,M
BVU,2023-09-03 20:35,-114.8611,35.9475,671.00,87.80,62.60,43.07,160.00,18.00,0.00,29.89,M,10.00,M,SCT,SCT,M,M,7000.00,8500.00,M,M,M,M,M,M,M,M,M,88.48,KBVU 032035Z AUTO 16018KT 10SM SCT070 SCT085 31/17 A2989 RMK AO2,M
CXP,2023-09-03 20:35,-119.7326,39.1923,1431.00,57.20,50.00,76.82,M,3.00,0.00,30.08,M,10.00,M,FEW,BKN,OVC,M,4500.00,5500.00,10000.00,M,M,M,M,M,M,M,M,57.20,KCXP 032035Z AUTO VRB03KT 10SM FEW045 BKN055 OVC100 14/10 A3008 RMK AO2 LTG DSNT E,M
RTS,2023-09-03 20:35,-119.8764,39.6682,1539.00,57.20,46.40,67.12,310.00,14.00,0.00,30.11,M,10.00,M,FEW,BKN,BKN,M,5000.00,6500.00,8000.00,M,M,M,M,M,M,M,M,57.20,KRTS 032035Z AUTO 31014KT 10SM FEW050 BKN065 BKN080 14/08 A3011 RMK AO2,M
MEV,2023-09-03 20:35,-119.7500,38.9963,1441.42,60.80,50.00,67.54,20.00,8.00,0.00,30.05,M,10.00,M,CLR,M,M,M,M,M,M,M,M,M,M,M,M,M,M,60.80,KMEV 032035Z AUTO 02008KT 10SM CLR 16/10 A3005 RMK AO2 LTG DSNT NE AND E,M
BAM,2023-09-03 20:35,-116.8743,40.5990,1382.36,55.40,53.60,93.65,340.00,5.00,0.00,30.07,M,3.00,M,SCT,SCT,OVC,M,3600.00,4300.00,5000.00,M,M,M,M,M,M,M,M,55.40,KBAM 032035Z AUTO 34005KT 3SM SCT036 SCT043 OVC050 13/12 A3007 RMK AO1,M
HTH,2023-09-03 20:35,-118.6315,38.5448,1282.89,68.00,51.80,56.13,320.00,17.00,0.00,29.98,M,10.00,24.00,FEW,SCT,M,M,8000.00,9000.00,M,M,M,M,M,M,M,M,M,68.00,KHTH 032035Z AUTO 32017G24KT 10SM FEW080 SCT090 20/11 A2998 RMK A01,M
10U,2023-09-03 20:35,-116.1876,41.9532,1637.00,57.20,50.00,76.82,70.00,6.00,0.00,30.05,M,10.00,M,BKN,M,M,M,11000.00,M,M,M,M,M,M,M,M,M,M,57.20,K10U 032035Z AUTO 07006KT 10SM BKN110 14/10 A3005 RMK AO2 LTG DSNT SE AND SW,M
TMT,2023-09-03 20:35,-117.1971,39.4643,1749.34,M,M,M,30.00,9.00,0.00,30.03,M,M,M,M,M,M,M,M,M,M,M,VCTS,M,M,M,M,M,M,M,KTMT 032035Z AUTO 03009KT VCTS A3003 RMK AO2 LTG DSNT ALQS,M
WMC,2023-09-03 20:37,-117.8072,40.9019,1315.00,52.00,49.00,89.46,340.00,6.00,0.29,30.09,M,1.50,M,BKN,OVC,M,M,5000.00,6500.00,M,M,+TSRA BR,M,M,M,M,M,M,52.00,KWMC 032037Z AUTO 34006KT 1 1/2SM +TSRA BR BKN050 OVC065 11/09 A3009 RMK AO2 LTG DSNT ALQDS TSE20B37 P0029 T01110094,M
INS,2023-09-03 20:38,-115.6733,36.5872,955.00,84.20,57.20,39.86,110.00,12.00,0.00,29.93,1009.00,10.00,24.00,FEW,SCT,M,M,7000.00,10000.00,M,M,M,M,M,M,M,M,M,83.47,KINS 032038Z AUTO 11012G24KT 10SM FEW070 SCT100 29/14 A2993 RMK AO2 WSHFT 28 SLP090 $,M
ELY,2023-09-03 20:41,-114.8453,39.2950,1909.00,57.00,50.00,77.38,170.00,8.00,0.02,30.08,M,10.00,M,FEW,BKN,OVC,M,7000.00,10000.00,11000.00,M,M,M,M,M,40.00,250.00,2023-09-03 19:57,57.00,KELY 032041Z AUTO 17008KT 10SM FEW070 BKN100 OVC110 14/10 A3008 RMK AO2 PK WND 25040/1957 LTG DSNT NE-S RAE20 TSB02E23 P0002 T01390100,M
WMC,2023-09-03 20:47,-117.8072,40.9019,1315.00,52.00,50.00,92.86,360.00,8.00,0.35,30.08,M,3.00,M,OVC,M,M,M,5500.00,M,M,M,TSRA BR,M,M,M,M,M,M,52.00,KWMC 032047Z AUTO 36008KT 3SM TSRA BR OVC055 11/10 A3008 RMK AO2 LTG DSNT ALQDS TSE20B37 P0035 T01110100,M
05U,2023-09-03 20:50,-116.0051,39.6042,1811.23,71.60,51.80,49.64,M,M,0.00,30.00,M,10.00,M,CLR,M,M,M,M,M,M,M,M,M,M,M,M,M,M,71.60,K05U 032050Z AUTO 10SM CLR 22/11 A3000 RMK A01,M
INS,2023-09-03 20:52,-115.6733,36.5872,955.00,86.00,41.00,20.54,170.00,17.00,0.00,29.92,1008.70,10.00,23.00,SCT,SCT,M,M,7000.00,10000.00,M,M,M,M,M,M,M,M,M,82.86,KINS 032052Z AUTO 17017G23KT 10SM SCT070 SCT100 30/05 A2992 RMK AO2 WSHFT 49 SLP087 $,M
P68,2023-09-03 20:53,-116.0056,39.6014,1993.00,69.00,52.00,54.64,140.00,21.00,0.00,29.97,1007.00,M,30.00,M,M,M,M,M,M,M,M,M,M,M,M,30.00,140.00,2023-09-03 20:53,69.00,KP68 032053Z AUTO 14021G30KT 21/11 A2997 RMK AO1 PK WND 14030/2053 WSHFT 2017 SLP070 T02060111 56037 $,M
DRA,2023-09-03 20:53,-116.0278,36.6206,1009.00,85.00,54.00,34.59,200.00,18.00,0.00,29.95,1009.40,10.00,32.00,FEW,M,M,M,6500.00,M,M,M,M,M,M,M,32.00,190.00,2023-09-03 20:44,83.45,KDRA 032053Z AUTO 20018G32KT 10SM FEW065 29/12 A2995 RMK AO2 PK WND 19032/2044 SLP094 T02940122 56019,M
ELY,2023-09-03 20:53,-114.8453,39.2950,1909.00,61.00,52.00,72.22,150.00,11.00,0.02,30.08,1010.70,10.00,M,FEW,BKN,M,M,7000.00,10000.00,M,M,M,M,M,M,40.00,250.00,2023-09-03 19:57,61.00,KELY 032053Z AUTO 15011KT 10SM FEW070 BKN100 16/11 A3008 RMK AO2 PK WND 25040/1957 LTG DSNT NE AND S RAE20 TSB02E23 SLP107 P0002 60004 T01610111 58009,M
VGT,2023-09-03 20:53,-115.1933,36.2111,667.00,89.00,63.00,42.05,220.00,7.00,0.00,29.88,1011.20,10.00,18.00,FEW,M,M,M,7000.00,M,M,M,M,M,M,M,M,M,M,89.89,KVGT 032053Z 22007G18KT 10SM FEW070 32/17 A2988 RMK AO2 SLP112 T03170172 57032 $,M
LOL,2023-09-03 20:53,-118.5701,40.0684,1192.43,59.00,52.00,77.55,40.00,12.00,T,30.04,1014.90,10.00,M,BKN,BKN,OVC,M,3900.00,7000.00,11000.00,M,M,M,M,M,M,M,M,59.00,KLOL 032053Z AUTO 04012KT 10SM BKN039 BKN070 OVC110 15/11 A3004 RMK AO2 RAE24B44E53 SLP149 P0000 60009 T01500111 53000,M
BVU,2023-09-03 20:55,-114.8611,35.9475,671.00,87.80,60.80,40.41,160.00,19.00,0.00,29.88,M,9.00,29.00,SCT,BKN,M,M,6000.00,7500.00,M,M,M,M,M,M,M,M,M,87.75,KBVU 032055Z AUTO 16019G29KT 9SM SCT060 BKN075 31/16 A2988 RMK AO2,M
CXP,2023-09-03 20:55,-119.7326,39.1923,1431.00,60.80,51.80,72.20,0.00,0.00,0.01,30.07,M,10.00,M,SCT,SCT,SCT,M,6000.00,7000.00,10000.00,M,M,M,M,M,M,M,M,60.80,KCXP 032055Z AUTO 00000KT 10SM SCT060 SCT070 SCT100 16/11 A3007 RMK AO2 LTG DSNT N AND NE P0001,M
RNO,2023-09-03 20:55,-119.7711,39.4839,1341.00,58.00,51.00,77.47,350.00,5.00,0.07,30.07,1015.30,10.00,M,BKN,OVC,M,M,2000.00,3500.00,M,M,-RA,M,M,M,M,M,M,58.00,KRNO 032055Z 35005KT 10SM -RA BKN020 OVC035 14/11 A3007 RMK AO2 SLP153 P0007 60011 T01440106 55006 $,M
RTS,2023-09-03 20:55,-119.8764,39.6682,1539.00,57.20,44.60,62.69,300.00,13.00,0.00,30.10,M,10.00,M,SCT,BKN,BKN,M,6500.00,8000.00,9000.00,M,M,M,M,M,M,M,M,57.20,KRTS 032055Z AUTO 30013KT 10SM SCT065 BKN080 BKN090 14/07 A3010 RMK AO2,M
MEV,2023-09-03 20:55,-119.7500,38.9963,1441.42,62.60,46.40,55.37,340.00,8.00,0.00,30.05,M,10.00,13.00,FEW,SCT,M,M,6000.00,7000.00,M,M,M,M,M,M,M,M,M,62.60,KMEV 032055Z AUTO 34008G13KT 310V020 10SM FEW060 SCT070 17/08 A3005 RMK AO2,M
BAM,2023-09-03 20:55,-116.8743,40.5990,1382.36,55.40,55.40,100.00,310.00,7.00,0.00,30.07,M,5.00,M,SCT,BKN,OVC,M,4000.00,7000.00,9000.00,M,M,M,M,M,M,M,M,55.40,KBAM 032055Z AUTO 31007KT 5SM SCT040 BKN070 OVC090 13/13 A3007 RMK AO1,M
HTH,2023-09-03 20:55,-118.6315,38.5448,1282.89,66.20,51.80,59.74,320.00,18.00,0.00,29.99,M,10.00,25.00,FEW,FEW,M,M,9000.00,11000.00,M,M,M,M,M,M,M,M,M,66.20,KHTH 032055Z AUTO 32018G25KT 10SM FEW090 FEW110 19/11 A2999 RMK A01,M
10U,2023-09-03 20:55,-116.1876,41.9532,1637.00,57.20,48.20,71.83,0.00,0.00,0.00,30.05,M,10.00,M,SCT,BKN,OVC,M,7000.00,8500.00,11000.00,M,M,M,M,M,M,M,M,57.20,K10U 032055Z AUTO 00000KT 10SM SCT070 BKN085 OVC110 14/09 A3005 RMK AO2 LTG DSNT SE AND SW,M
INS,2023-09-03 20:55,-115.6733,36.5872,955.00,87.30,41.00,19.71,150.00,9.00,0.00,29.93,1008.90,10.00,23.00,FEW,SCT,SCT,M,6000.00,7500.00,10000.00,M,M,M,M,M,27.00,220.00,2023-09-03 20:25,83.89,KINS 032055Z AUTO 15009G23KT 10SM FEW060 SCT075 SCT100 31/05 A2993 RMK AO2 PK WND 22027/25 SLP089 T03070051 56022 $,M
LSV,2023-09-03 20:55,-115.0343,36.2362,570.00,89.00,66.60,47.68,60.00,8.00,0.00,29.85,1008.60,10.00,M,CLR,M,M,M,M,M,M,M,M,M,M,M,M,M,M,91.86,KLSV 032055Z AUTO 06008KT 10SM CLR 32/19 A2985 RMK AO2 SLP086 T03160192 57033 $,M
EKO,2023-09-03 20:56,-115.7860,40.8242,1367.00,68.00,51.00,54.50,40.00,14.00,0.00,29.97,1010.60,10.00,M,CLR,M,M,M,M,M,M,M,M,M,M,M,M,M,M,68.00,KEKO 032056Z AUTO 04014KT 10SM CLR 20/11 A2997 RMK AO2 LTG DSNT W AND NW SLP106 T02000106 58018,M
WMC,2023-09-03 20:56,-117.8072,40.9019,1315.00,52.00,50.00,92.86,20.00,8.00,0.38,30.08,1016.10,4.00,M,OVC,M,M,M,6000.00,M,M,M,-RA BR,M,M,M,M,M,M,52.00,KWMC 032056Z AUTO 02008KT 4SM -RA BR OVC060 11/10 A3008 RMK AO2 LTG DSNT ALQDS TSE20B37E52 SLP161 P0038 60073 T01110100 53007,M
NFL,2023-09-03 20:56,-118.7010,39.4166,1199.00,61.00,54.00,77.72,20.00,9.00,0.02,30.03,1013.70,10.00,M,BKN,BKN,M,M,8500.00,12000.00,M,M,M,M,M,M,M,M,M,61.00,KNFL 032056Z AUTO 02009KT 10SM BKN085 BKN120 16/12 A3003 RMK AO2 RAB07E33 SLP137 P0002 60003 T01610122 50002,M
HND,2023-09-03 20:56,-115.1344,35.9729,742.79,91.00,54.00,28.60,220.00,9.00,0.00,29.92,1012.20,10.00,17.00,FEW,M,M,M,7000.00,M,M,M,M,M,M,M,M,M,M,88.78,KHND 032056Z 22009G17KT 10SM FEW070 33/12 A2992 RMK AO2 SLP122 T03280122 56033,M
TPH,2023-09-03 20:56,-117.0904,38.0505,1654.00,76.00,44.00,31.95,190.00,21.00,0.00,29.97,1007.50,10.00,32.00,CLR,M,M,M,M,M,M,M,M,M,M,M,33.00,180.00,2023-09-03 20:09,76.00,KTPH 032056Z AUTO 19021G32KT 10SM CLR 24/07 A2997 RMK AO2 PK WND 18033/2009 LTG DSNT NW SLP075 T02440067 56028,M
LAS,2023-09-03 20:56,-115.1634,36.0719,663.00,90.00,55.00,30.61,190.00,13.00,0.00,29.89,1009.70,10.00,20.00,FEW,M,M,M,8500.00,M,M,M,M,M,M,M,M,M,M,88.06,KLAS 032056Z 19013G20KT 10SM FEW085TCU 32/13 A2989 RMK AO2 SLP097 TCU VC NE-E T03220128 56033 $,M
05U,2023-09-03 21:10,-116.0051,39.6042,1811.23,69.80,51.80,52.77,M,M,0.00,30.00,M,10.00,M,CLR,M,M,M,M,M,M,M,M,M,M,M,M,M,M,69.80,K05U 032110Z AUTO 10SM CLR 21/11 A3000 RMK A01,M
BVU,2023-09-03 21:15,-114.8611,35.9475,671.00,89.60,62.60,40.69,160.00,18.00,0.00,29.87,M,10.00,26.00,SCT,SCT,M,M,6500.00,7500.00,M,M,M,M,M,M,M,M,M,90.32,KBVU 032115Z AUTO 16018G26KT 10SM SCT065 SCT075 32/17 A2987 RMK AO2,M
CXP,2023-09-03 21:15,-119.7326,39.1923,1431.00,62.60,50.00,63.38,230.00,5.00,0.00,30.07,M,10.00,M,SCT,M,M,M,7500.00,M,M,M,M,M,M,M,M,M,M,62.60,KCXP 032115Z AUTO 23005KT 10SM SCT075 17/10 A3007 RMK AO2,M
RTS,2023-09-03 21:15,-119.8764,39.6682,1539.00,57.20,46.40,67.12,300.00,14.00,0.00,30.10,M,10.00,M,FEW,BKN,BKN,M,3900.00,6000.00,6500.00,M,M,M,M,M,M,M,M,57.20,KRTS 032115Z AUTO 30014KT 10SM FEW039 BKN060 BKN065 14/08 A3010 RMK AO2,M
MEV,2023-09-03 21:15,-119.7500,38.9963,1441.42,66.20,44.60,45.60,270.00,13.00,0.00,30.05,M,10.00,M,FEW,SCT,SCT,M,6000.00,7000.00,8500.00,M,M,M,M,M,M,M,M,66.20,KMEV 032115Z AUTO 27013KT 10SM FEW060 SCT070 SCT085 19/07 A3005 RMK AO2,M
HTH,2023-09-03 21:15,-118.6315,38.5448,1282.89,66.20,53.60,63.82,340.00,23.00,0.00,30.00,M,10.00,30.00,FEW,SCT,M,M,4000.00,9000.00,M,M,M,M,M,M,M,M,M,66.20,KHTH 032115Z AUTO 34023G30KT 10SM FEW040 SCT090 19/12 A3000 RMK A01,M
BAM,2023-09-03 21:15,-116.8743,40.5990,1382.36,55.40,51.80,87.65,320.00,11.00,0.00,30.08,M,10.00,14.00,SCT,BKN,OVC,M,900.00,6500.00,9000.00,M,M,M,M,M,M,M,M,55.40,KBAM 032115Z AUTO 32011G14KT 10SM SCT009 BKN065 OVC090 13/11 A3008 RMK AO1,M
10U,2023-09-03 21:20,-116.1876,41.9532,1637.00,59.00,46.40,62.92,0.00,0.00,0.00,30.05,M,10.00,M,SCT,BKN,BKN,M,7000.00,8000.00,9000.00,M,M,M,M,M,M,M,M,59.00,K10U 032120Z AUTO 00000KT 10SM SCT070 BKN080 BKN090 15/08 A3005 RMK AO2,M
EKO,2023-09-03 21:21,-115.7860,40.8242,1367.00,67.00,50.00,54.35,20.00,11.00,T,29.96,M,10.00,M,FEW,BKN,BKN,M,5500.00,8000.00,10000.00,M,VCTS -RA,M,M,M,M,M,M,67.00,KEKO 032121Z AUTO 02011KT 10SM VCTS -RA FEW055 BKN080 BKN100 19/10 A2996 RMK AO2 LTG DSNT S-NW RAB21 P0000 T01940100,M
05U,2023-09-03 21:30,-116.0051,39.6042,1811.23,73.40,51.80,46.71,M,M,0.00,29.99,M,10.00,M,CLR,M,M,M,M,M,M,M,M,M,M,M,M,M,M,73.40,K05U 032130Z AUTO 10SM CLR 23/11 A2999 RMK A01,M
EKO,2023-09-03 21:31,-115.7860,40.8242,1367.00,65.00,53.00,65.09,10.00,10.00,T,29.96,M,10.00,M,FEW,BKN,OVC,M,4400.00,7500.00,10000.00,M,-TSRA,M,M,M,M,M,M,65.00,KEKO 032131Z AUTO 01010KT 10SM -TSRA FEW044 BKN075 OVC100 18/12 A2996 RMK AO2 LTG DSNT S-NW RAB21 TSB25 P0000 T01830117,M
BVU,2023-09-03 21:35,-114.8611,35.9475,671.00,89.60,60.80,38.18,170.00,16.00,0.00,29.86,M,10.00,24.00,FEW,FEW,M,M,6500.00,7500.00,M,M,M,M,M,M,M,M,M,89.54,KBVU 032135Z AUTO 17016G24KT 10SM FEW065 FEW075 32/16 A2986 RMK AO2,M
CXP,2023-09-03 21:35,-119.7326,39.1923,1431.00,60.80,51.80,72.20,310.00,6.00,0.00,30.08,M,10.00,M,SCT,BKN,BKN,M,5000.00,7000.00,9000.00,M,M,M,M,M,M,M,M,60.80,KCXP 032135Z AUTO 31006KT 10SM SCT050 BKN070 BKN090 16/11 A3008 RMK AO2 LTG DSNT E AND SE,M
RTS,2023-09-03 21:35,-119.8764,39.6682,1539.00,59.00,46.40,62.92,310.00,14.00,0.00,30.10,M,10.00,19.00,SCT,BKN,BKN,M,6000.00,7000.00,10000.00,M,M,M,M,M,M,M,M,59.00,KRTS 032135Z AUTO 31014G19KT 10SM SCT060 BKN070 BKN100 15/08 A3010 RMK AO2,M
MEV,2023-09-03 21:35,-119.7500,38.9963,1441.42,62.60,46.40,55.37,330.00,11.00,0.00,30.06,M,10.00,16.00,SCT,BKN,M,M,4900.00,11000.00,M,M,M,M,M,M,M,M,M,62.60,KMEV 032135Z AUTO 33011G16KT 10SM SCT049 BKN110 17/08 A3006 RMK AO2 LTG DSNT E,M
BAM,2023-09-03 21:35,-116.8743,40.5990,1382.36,53.60,51.80,93.60,330.00,9.00,0.00,30.09,M,10.00,M,SCT,BKN,OVC,M,1900.00,2600.00,3400.00,M,M,M,M,M,M,M,M,53.60,KBAM 032135Z AUTO 33009KT 10SM SCT019 BKN026 OVC034 12/11 A3009 RMK AO1,M
HTH,2023-09-03 21:35,-118.6315,38.5448,1282.89,64.40,51.80,63.60,350.00,18.00,0.00,30.00,M,10.00,26.00,FEW,SCT,M,M,6000.00,9500.00,M,M,M,M,M,M,M,M,M,64.40,KHTH 032135Z AUTO 35018G26KT 10SM FEW060 SCT095 18/11 A3000 RMK A01,M
10U,2023-09-03 21:40,-116.1876,41.9532,1637.00,57.20,48.20,71.83,0.00,0.00,0.00,30.06,M,10.00,M,BKN,OVC,M,M,6500.00,7500.00,M,M,M,M,M,M,M,M,M,57.20,K10U 032140Z AUTO 00000KT 10SM BKN065 OVC075 14/09 A3006 RMK AO2,M
05U,2023-09-03 21:50,-116.0051,39.6042,1811.23,73.40,46.40,38.18,M,M,0.00,29.97,M,10.00,M,CLR,M,M,M,M,M,M,M,M,M,M,M,M,M,M,73.40,K05U 032150Z AUTO 10SM CLR 23/08 A2997 RMK A01,M
P68,2023-09-03 21:53,-116.0056,39.6014,1993.00,73.00,45.00,36.70,170.00,22.00,0.00,29.93,1005.30,M,31.00,M,M,M,M,M,M,M,M,M,M,M,M,31.00,170.00,2023-09-03 21:50,73.00,KP68 032153Z AUTO 17022G31KT 23/07 A2993 RMK AO1 PK WND 17031/2150 SLP053 T02280072 $,M
DRA,2023-09-03 21:53,-116.0278,36.6206,1009.00,86.00,53.00,32.29,210.00,15.00,0.00,29.91,1008.40,10.00,33.00,FEW,M,M,M,7000.00,M,M,M,M,M,M,M,33.00,170.00,2023-09-03 21:44,84.07,KDRA 032153Z AUTO 21015G33KT 10SM FEW070 30/12 A2991 RMK AO2 PK WND 17033/2144 SLP084 T03000117,M
ELY,2023-09-03 21:53,-114.8453,39.2950,1909.00,67.00,51.00,56.41,160.00,19.00,0.00,30.03,1008.20,10.00,27.00,CLR,M,M,M,M,M,M,M,M,M,M,M,30.00,170.00,2023-09-03 21:34,67.00,KELY 032153Z AUTO 16019G27KT 10SM CLR 19/11 A3003 RMK AO2 PK WND 17030/2134 LTG DSNT E AND SE SLP082 T01940106,M
VGT,2023-09-03 21:53,-115.1933,36.2111,667.00,93.00,54.00,26.87,190.00,12.00,0.00,29.84,1009.70,10.00,19.00,FEW,M,M,M,8000.00,M,M,M,M,M,M,M,M,M,M,90.76,KVGT 032153Z 19012G19KT 10SM FEW080 34/12 A2984 RMK AO2 LTG DSNT E SLP097 T03390122 $,M
LOL,2023-09-03 21:53,-118.5701,40.0684,1192.43,58.00,53.00,83.39,40.00,10.00,T,30.03,1014.60,10.00,M,SCT,BKN,OVC,M,4400.00,6000.00,7000.00,M,-RA,M,M,M,M,M,M,58.00,KLOL 032153Z AUTO 04010KT 10SM -RA SCT044 BKN060 OVC070 14/12 A3003 RMK AO2 LTG DSNT S AND SW RAB00E14B33 SLP146 P0000 T01440117,M
EKO,2023-09-03 21:54,-115.7860,40.8242,1367.00,57.20,51.80,82.12,300.00,17.11,M,29.99,M,2.00,27.99,BKN,BKN,OVC,M,2998.00,3900.00,7500.00,M,+RA TS,M,M,M,28.00,320.00,2023-09-03 21:48,57.20,SPECI KEKO 032154Z 30017G28KT 2SM +TSRA BKN030 BKN039 OVC075 14/11 A2999 RMK AO2 PK WND 32028/2148 LTG DSNT ALQDS RAB21 TSB25 PRESRR P0002 FIBI,M
BVU,2023-09-03 21:55,-114.8611,35.9475,671.00,87.80,62.60,43.07,170.00,17.00,0.00,29.85,M,10.00,24.00,FEW,FEW,SCT,M,7000.00,9000.00,11000.00,M,M,M,M,M,M,M,M,88.48,KBVU 032155Z AUTO 17017G24KT 10SM FEW070 FEW090 SCT110 31/17 A2985 RMK AO2,M
CXP,2023-09-03 21:55,-119.7326,39.1923,1431.00,62.60,48.20,59.26,300.00,8.00,0.00,30.08,M,10.00,M,FEW,BKN,OVC,M,4300.00,5000.00,8500.00,M,M,M,M,M,M,M,M,62.60,KCXP 032155Z AUTO 30008KT 10SM FEW043 BKN050 OVC085 17/09 A3008 RMK AO2,M
RNO,2023-09-03 21:55,-119.7711,39.4839,1341.00,61.00,51.00,69.60,350.00,6.00,T,30.07,1014.80,10.00,M,SCT,BKN,BKN,M,3000.00,5000.00,9000.00,M,M,M,M,M,M,M,M,61.00,KRNO 032155Z 35006KT 10SM SCT030 BKN050 BKN090 16/11 A3007 RMK AO2 RAE16B34E55 SLP148 P0000 T01610106 $,M
RTS,2023-09-03 21:55,-119.8764,39.6682,1539.00,57.20,44.60,62.69,310.00,15.00,0.00,30.10,M,10.00,22.00,FEW,FEW,M,M,6000.00,10000.00,M,M,M,M,M,M,M,M,M,57.20,KRTS 032155Z AUTO 31015G22KT 10SM FEW060 FEW100 14/07 A3010 RMK AO2,M
MEV,2023-09-03 21:55,-119.7500,38.9963,1441.42,62.60,44.60,51.72,310.00,11.00,0.00,30.06,M,10.00,M,BKN,BKN,BKN,M,5000.00,5500.00,7000.00,M,M,M,M,M,M,M,M,62.60,KMEV 032155Z AUTO 31011KT 10SM BKN050 BKN055 BKN070 17/07 A3006 RMK AO2,M
BAM,2023-09-03 21:55,-116.8743,40.5990,1382.36,53.60,51.80,93.60,350.00,9.00,0.00,30.09,M,10.00,M,SCT,SCT,OVC,M,2500.00,4300.00,6000.00,M,M,M,M,M,M,M,M,53.60,KBAM 032155Z AUTO 35009KT 10SM SCT025 SCT043 OVC060 12/11 A3009 RMK AO1,M
HTH,2023-09-03 21:55,-118.6315,38.5448,1282.89,60.80,53.60,77.14,350.00,19.00,0.04,30.01,M,3.00,34.00,SCT,SCT,BKN,M,3300.00,4700.00,6500.00,M,HZ,M,M,M,M,M,M,60.80,KHTH 032155Z AUTO 35019G34KT 3SM HZ SCT033 SCT047 BKN065 16/12 A3001 RMK A01 P0004,M
INS,2023-09-03 21:55,-115.6733,36.5872,955.00,87.40,40.00,18.90,200.00,23.00,0.00,29.88,1007.30,10.00,29.00,CLR,M,M,M,M,M,M,M,M,M,M,M,33.00,240.00,2023-09-03 21:21,83.93,KINS 032155Z AUTO 20023G29KT 10SM CLR 31/05 A2988 RMK AO2 PK WND 24033/21 SLP073 T03080045 $,M
LSV,2023-09-03 21:55,-115.0343,36.2362,570.00,91.60,62.20,37.68,0.00,0.00,0.00,29.80,1006.90,10.00,M,CLR,M,M,M,M,M,M,M,M,M,M,M,M,M,M,92.25,KLSV 032155Z AUTO 00000KT 10SM CLR 33/17 A2980 RMK AO2 SLP069 T03310168 $,M
EKO,2023-09-03 21:56,-115.7860,40.8242,1367.00,57.00,52.00,83.33,290.00,16.00,0.04,30.00,1012.60,2.00,28.00,BKN,BKN,OVC,M,3000.00,3600.00,7000.00,M,+TSRA,M,M,M,28.00,320.00,2023-09-03 21:48,57.00,KEKO 032156Z AUTO 29016G28KT 2SM +TSRA BKN030 BKN036 OVC070 14/11 A3000 RMK AO2 PK WND 32028/2148 LTG DSNT ALQDS RAB21 TSB25 PRESRR SLP126 P0004 T01390111,M
WMC,2023-09-03 21:56,-117.8072,40.9019,1315.00,56.00,52.00,86.40,10.00,4.00,0.06,30.06,1015.20,10.00,M,BKN,M,M,M,9000.00,M,M,M,M,M,M,M,M,M,M,56.00,KWMC 032156Z AUTO 01004KT 10SM BKN090 13/11 A3006 RMK AO2 RAE42 SLP152 P0006 T01330111,M
HND,2023-09-03 21:56,-115.1344,35.9729,742.79,92.00,54.00,27.72,220.00,13.00,0.00,29.89,1010.90,10.00,20.00,FEW,M,M,M,9000.00,M,M,M,M,M,M,M,M,M,M,89.76,KHND 032156Z 22013G20KT 10SM FEW090 33/12 A2989 RMK AO2 SLP109 T03330122,M
LAS,2023-09-03 21:56,-115.1634,36.0719,663.00,92.00,54.00,27.72,230.00,9.00,0.00,29.85,1008.30,10.00,19.00,FEW,M,M,M,8500.00,M,M,M,M,M,M,M,M,M,M,89.76,KLAS 032156Z 23009G19KT 170V260 10SM FEW085TCU 33/12 A2985 RMK AO2 LTG DSNT E SLP083 TCU VC NE-SE T03330122 $,M
10U,2023-09-03 22:00,-116.1876,41.9532,1637.00,57.20,50.00,76.82,250.00,5.00,0.00,30.07,M,10.00,M,OVC,M,M,M,6000.00,M,M,M,-RA,M,M,M,M,M,M,57.20,K10U 032200Z AUTO 25005KT 10SM -RA OVC060 14/10 A3007 RMK AO2,M
EKO,2023-09-03 22:08,-115.7860,40.8242,1367.00,55.00,50.00,83.20,220.00,12.00,0.05,30.04,M,5.00,M,OVC,M,M,M,3300.00,M,M,M,-TSRA,M,M,M,27.00,280.00,2023-09-03 21:57,55.00,KEKO 032208Z AUTO 22012KT 5SM -TSRA OVC033 13/10 A3004 RMK AO2 PK WND 28027/2157 LTG DSNT N AND SE AND S PRESRR P0005 T01280100,M
05U,2023-09-03 22:10,-116.0051,39.6042,1811.23,71.60,44.60,37.89,M,M,0.00,29.97,M,10.00,M,CLR,M,M,M,M,M,M,M,M,M,M,M,M,M,M,71.60,K05U 032210Z AUTO 10SM CLR 22/07 A2997 RMK A01,M
BVU,2023-09-03 22:15,-114.8611,35.9475,671.00,91.40,60.80,36.08,180.00,19.00,0.00,29.84,M,10.00,25.00,FEW,SCT,M,M,8000.00,11000.00,M,M,M,M,M,M,M,M,M,91.40,KBVU 032215Z AUTO 18019G25KT 10SM FEW080 SCT110 33/16 A2984 RMK AO2,M
CXP,2023-09-03 22:15,-119.7326,39.1923,1431.00,60.80,50.00,67.54,330.00,10.00,0.00,30.08,M,10.00,M,BKN,BKN,OVC,M,5000.00,6500.00,8500.00,M,M,M,M,M,M,M,M,60.80,KCXP 032215Z AUTO 33010KT 10SM BKN050 BKN065 OVC085 16/10 A3008 RMK AO2,M
EKO,2023-09-03 22:15,-115.7860,40.8242,1367.00,53.00,50.00,89.51,230.00,15.00,0.05,30.05,M,8.00,26.00,BKN,OVC,M,M,3300.00,4500.00,M,M,-TSRA,M,M,M,27.00,280.00,2023-09-03 21:57,53.00,KEKO 032215Z AUTO 23015G26KT 8SM -TSRA BKN033 OVC045 12/10 A3005 RMK AO2 PK WND 28027/2157 WSHFT 2155 LTG DSNT SE AND S PRESRR P0005 T01170100,M
RTS,2023-09-03 22:15,-119.8764,39.6682,1539.00,57.20,44.60,62.69,300.00,16.00,0.00,30.10,M,10.00,23.00,FEW,BKN,M,M,4800.00,6000.00,M,M,M,M,M,M,M,M,M,57.20,KRTS 032215Z AUTO 30016G23KT 10SM FEW048 BKN060 14/07 A3010 RMK AO2,M
MEV,2023-09-03 22:15,-119.7500,38.9963,1441.42,64.40,44.60,48.55,320.00,12.00,0.00,30.05,M,10.00,M,BKN,BKN,BKN,M,6000.00,7500.00,11000.00,M,M,M,M,M,M,M,M,64.40,KMEV 032215Z AUTO 32012KT 10SM BKN060 BKN075 BKN110 18/07 A3005 RMK AO2,M
BAM,2023-09-03 22:15,-116.8743,40.5990,1382.36,53.60,51.80,93.60,350.00,5.00,0.00,30.09,M,10.00,M,OVC,M,M,M,6000.00,M,M,M,M,M,M,M,M,M,M,53.60,KBAM 032215Z AUTO 35005KT 10SM OVC060 12/11 A3009 RMK AO1,M
HTH,2023-09-03 22:15,-118.6315,38.5448,1282.89,57.20,51.80,82.12,350.00,18.00,0.00,30.01,M,2.00,26.00,BKN,BKN,OVC,M,3500.00,4500.00,8500.00,M,HZ,M,M,M,M,M,M,57.20,KHTH 032215Z AUTO 35018G26KT 2SM HZ BKN035 BKN045 OVC085 14/11 A3001 RMK A01,M
10U,2023-09-03 22:15,-116.1876,41.9532,1637.00,55.40,51.80,87.65,230.00,7.00,0.00,30.08,M,9.00,M,BKN,OVC,M,M,4600.00,6000.00,M,M,-RA,M,M,M,M,M,M,55.40,K10U 032215Z AUTO 23007KT 9SM -RA BKN046 OVC060 13/11 A3008 RMK AO2,M
P68,2023-09-03 22:24,-116.0056,39.6014,1993.00,66.00,46.00,48.43,330.00,17.00,0.00,29.97,M,M,27.00,M,M,M,M,M,M,M,M,M,M,M,M,31.00,180.00,2023-09-03 21:56,66.00,KP68 032224Z AUTO 33017G27KT 19/08 A2997 RMK AO1 PK WND 18031/2156 WSHFT 2207 PRESRR T01890078 $,M
P68,2023-09-03 22:28,-116.0056,39.6014,1993.00,61.00,47.00,59.94,340.00,23.00,0.00,29.98,M,M,31.00,M,M,M,M,M,M,M,M,M,M,M,M,31.00,330.00,2023-09-03 22:27,61.00,KP68 032228Z AUTO 34023G31KT 16/08 A2998 RMK AO1 PK WND 33031/2227 WSHFT 2211 PRESRR T01610083 $,M
TPH,2023-09-03 22:30,-117.0904,38.0505,1654.00,75.00,42.00,30.59,190.00,25.00,0.00,29.94,M,10.00,35.00,FEW,M,M,M,12000.00,M,M,M,VCTS,M,M,M,36.00,180.00,2023-09-03 22:20,75.00,KTPH 032230Z AUTO 19025G35KT 10SM VCTS FEW120 24/06 A2994 RMK AO2 PK WND 18036/2220 LTG DSNT W-N T02390056,M
05U,2023-09-03 22:30,-116.0051,39.6042,1811.23,62.60,48.20,59.26,M,M,0.00,30.02,M,8.00,M,SCT,BKN,BKN,M,6000.00,7000.00,8500.00,M,M,M,M,M,M,M,M,62.60,K05U 032230Z AUTO 8SM SCT060 BKN070 BKN085 17/09 A3002 RMK A01,M
P68,2023-09-03 22:33,-116.0056,39.6014,1993.00,56.00,48.00,74.45,360.00,22.00,0.00,29.99,M,M,32.00,M,M,M,M,M,M,M,M,M,M,M,M,32.00,360.00,2023-09-03 22:33,56.00,KP68 032233Z AUTO 36022G32KT 13/09 A2999 RMK AO1 PK WND 36032/2233 WSHFT 2216 PRESRR T01330089 $,M
BVU,2023-09-03 22:35,-114.8611,35.9475,671.00,89.60,62.60,40.69,170.00,21.00,0.00,29.83,M,10.00,27.00,FEW,FEW,FEW,M,7000.00,8000.00,12000.00,M,M,M,M,M,M,M,M,90.32,KBVU 032235Z AUTO 17021G27KT 10SM FEW070 FEW080 FEW120 32/17 A2983 RMK AO2,M
CXP,2023-09-03 22:35,-119.7326,39.1923,1431.00,62.60,46.40,55.37,330.00,9.00,0.00,30.08,M,10.00,M,FEW,OVC,M,M,5500.00,7500.00,M,M,M,M,M,M,M,M,M,62.60,KCXP 032235Z AUTO 33009KT 10SM FEW055 OVC075 17/08 A3008 RMK AO2,M
RTS,2023-09-03 22:35,-119.8764,39.6682,1539.00,57.20,44.60,62.69,300.00,15.00,0.00,30.10,M,10.00,M,FEW,SCT,SCT,M,4800.00,6000.00,6500.00,M,-DZ,M,M,M,M,M,M,57.20,KRTS 032235Z AUTO 30015KT 10SM -DZ FEW048 SCT060 SCT065 14/07 A3010 RMK AO2,M
MEV,2023-09-03 22:35,-119.7500,38.9963,1441.42,62.60,44.60,51.72,310.00,7.00,0.00,30.06,M,10.00,15.00,FEW,BKN,OVC,M,4100.00,5000.00,6500.00,M,M,M,M,M,M,M,M,62.60,KMEV 032235Z AUTO 31007G15KT 10SM FEW041 BKN050 OVC065 17/07 A3006 RMK AO2,M
BAM,2023-09-03 22:35,-116.8743,40.5990,1382.36,53.60,51.80,93.60,330.00,4.00,0.00,30.10,M,7.00,M,SCT,BKN,OVC,M,3900.00,4400.00,6000.00,M,M,M,M,M,M,M,M,53.60,KBAM 032235Z AUTO 33004KT 7SM SCT039 BKN044 OVC060 12/11 A3010 RMK AO1,M
HTH,2023-09-03 22:35,-118.6315,38.5448,1282.89,57.20,51.80,82.12,330.00,14.00,0.00,30.02,M,5.00,24.00,FEW,SCT,BKN,M,3300.00,4700.00,8500.00,M,HZ,M,M,M,M,M,M,57.20,KHTH 032235Z AUTO 33014G24KT 5SM HZ FEW033 SCT047 BKN085 14/11 A3002 RMK A01,M
10U,2023-09-03 22:35,-116.1876,41.9532,1637.00,53.60,50.00,87.56,230.00,9.00,0.00,30.08,M,3.00,M,OVC,M,M,M,4300.00,M,M,M,RA,M,M,M,M,M,M,53.60,K10U 032235Z AUTO 23009KT 3SM RA OVC043 12/10 A3008 RMK AO2 LTG DSNT E AND NW,M
INS,2023-09-03 22:41,-115.6733,36.5872,955.00,86.00,41.00,20.54,170.00,24.00,0.00,29.87,1007.00,10.00,29.00,FEW,M,M,M,10000.00,M,M,M,M,M,M,M,M,M,M,82.86,KINS 032241Z AUTO 17024G29KT 10SM FEW100 30/05 A2987 RMK AO2 WSHFT 29 SLP070 $,M
05U,2023-09-03 22:50,-116.0051,39.6042,1811.23,51.80,46.40,81.74,M,M,0.00,30.10,M,3.00,M,FEW,SCT,BKN,M,300.00,3600.00,5500.00,M,HZ,M,M,M,M,M,M,51.80,K05U 032250Z AUTO 3SM HZ FEW003 SCT036 BKN055 11/08 A3010 RMK A01,M
P68,2023-09-03 22:53,-116.0056,39.6014,1993.00,50.00,47.00,89.37,10.00,9.00,0.03,30.09,1013.50,M,31.00,M,M,M,M,M,M,M,M,M,M,M,M,32.00,360.00,2023-09-03 22:33,50.00,KP68 032253Z AUTO 01009G31KT 10/08 A3009 RMK AO1 PK WND 36032/2233 WSHFT 2216 PRESRR SLP135 P0003 T01000083 $,M
DRA,2023-09-03 22:53,-116.0278,36.6206,1009.00,85.00,51.00,30.97,210.00,17.00,0.00,29.89,1007.50,10.00,26.00,FEW,M,M,M,7500.00,M,M,M,M,M,M,M,32.00,170.00,2023-09-03 22:11,82.97,KDRA 032253Z AUTO 21017G26KT 10SM FEW075 29/11 A2989 RMK AO2 PK WND 17032/2211 SLP075 T02940106,M
ELY,2023-09-03 22:53,-114.8453,39.2950,1909.00,68.00,49.00,50.59,160.00,19.00,0.00,30.00,1006.80,10.00,30.00,SCT,SCT,M,M,6000.00,10000.00,M,M,M,M,M,M,32.00,160.00,2023-09-03 22:28,68.00,KELY 032253Z AUTO 16019G30KT 10SM SCT060 SCT100 20/09 A3000 RMK AO2 PK WND 16032/2228 SLP068 T02000094,M
VGT,2023-09-03 22:53,-115.1933,36.2111,667.00,93.00,51.00,24.06,220.00,13.00,0.00,29.81,1008.60,10.00,21.00,SCT,M,M,M,9500.00,M,M,M,M,M,M,M,M,M,M,90.09,KVGT 032253Z 22013G21KT 10SM SCT095 34/11 A2981 RMK AO2 SLP086 T03390106 $,M
LOL,2023-09-03 22:53,-118.5701,40.0684,1192.43,57.00,55.00,93.01,160.00,9.00,0.03,30.06,1015.90,10.00,M,OVC,M,M,M,7000.00,M,M,M,-RA,M,M,M,M,M,M,57.00,KLOL 032253Z AUTO 16009KT 10SM -RA OVC070 14/13 A3006 RMK AO2 SLP159 P0003 T01390128,M
BVU,2023-09-03 22:55,-114.8611,35.9475,671.00,89.60,60.80,38.18,160.00,16.00,0.00,29.82,M,10.00,26.00,FEW,SCT,SCT,M,6500.00,7500.00,8500.00,M,M,M,M,M,M,M,M,89.54,KBVU 032255Z AUTO 16016G26KT 10SM FEW065 SCT075 SCT085 32/16 A2982 RMK AO2,M
CXP,2023-09-03 22:55,-119.7326,39.1923,1431.00,62.60,46.40,55.37,300.00,9.00,0.00,30.08,M,10.00,M,SCT,SCT,M,M,7000.00,8000.00,M,M,M,M,M,M,M,M,M,62.60,KCXP 032255Z AUTO 30009KT 10SM SCT070 SCT080 17/08 A3008 RMK AO2,M
RNO,2023-09-03 22:55,-119.7711,39.4839,1341.00,58.00,51.00,77.47,260.00,9.00,0.03,30.08,1015.50,10.00,M,FEW,BKN,OVC,M,3900.00,6000.00,7500.00,M,RA,M,M,M,M,M,M,58.00,KRNO 032255Z 26009KT 10SM RA FEW039 BKN060 OVC075 14/11 A3008 RMK AO2 RAB05 SLP155 P0003 T01440106 $,M
RTS,2023-09-03 22:55,-119.8764,39.6682,1539.00,59.00,44.60,58.77,300.00,15.00,0.00,30.10,M,10.00,23.00,FEW,FEW,SCT,M,5500.00,7000.00,9500.00,M,M,M,M,M,M,M,M,59.00,KRTS 032255Z AUTO 30015G23KT 10SM FEW055 FEW070 SCT095 15/07 A3010 RMK AO2,M
MEV,2023-09-03 22:55,-119.7500,38.9963,1441.42,62.60,46.40,55.37,340.00,9.00,0.00,30.06,M,10.00,M,FEW,SCT,BKN,M,4200.00,5000.00,6000.00,M,-RA,M,M,M,M,M,M,62.60,KMEV 032255Z AUTO 34009KT 10SM -RA FEW042 SCT050 BKN060 17/08 A3006 RMK AO2,M
HTH,2023-09-03 22:55,-118.6315,38.5448,1282.89,59.00,55.40,87.83,340.00,14.00,0.10,30.03,M,8.00,19.00,FEW,SCT,BKN,M,4400.00,5000.00,5500.00,M,M,M,M,M,M,M,M,59.00,KHTH 032255Z AUTO 34014G19KT 8SM FEW044 SCT050 BKN055 15/13 A3003 RMK A01 P0010,M
10U,2023-09-03 22:55,-116.1876,41.9532,1637.00,51.80,50.00,93.55,230.00,7.00,0.00,30.09,M,6.00,M,FEW,SCT,SCT,M,3900.00,4700.00,5500.00,M,-RA,M,M,M,M,M,M,51.80,K10U 032255Z AUTO 23007KT 6SM -RA FEW039 SCT047 SCT055 11/10 A3009 RMK AO2,M
BAM,2023-09-03 22:55,-116.8743,40.5990,1382.36,53.60,51.80,93.60,0.00,0.00,0.00,30.11,M,4.00,M,SCT,BKN,OVC,M,3700.00,4700.00,5000.00,M,M,M,M,M,M,M,M,53.60,KBAM 032255Z AUTO 00000KT 4SM SCT037 BKN047 OVC050 12/11 A3011 RMK AO1,M
INS,2023-09-03 22:55,-115.6733,36.5872,955.00,86.00,45.00,23.95,190.00,18.00,0.00,29.87,1007.00,10.00,26.00,FEW,M,M,M,10000.00,M,M,M,M,M,M,M,32.00,210.00,2023-09-03 22:10,83.10,KINS 032255Z AUTO 19018G26KT 10SM FEW100 30/07 A2987 RMK AO2 PK WND 21032/10 SLP070 T03010073 $,M
LSV,2023-09-03 22:55,-115.0343,36.2362,570.00,95.00,51.40,22.95,210.00,23.00,0.00,29.77,1005.80,10.00,M,CLR,M,M,M,M,M,M,M,M,M,M,M,26.00,210.00,2023-09-03 22:53,92.18,KLSV 032255Z AUTO 21023KT 10SM CLR 35/11 A2977 RMK AO2 PK WND 21026/53 SLP058 T03510108 $,M
EKO,2023-09-03 22:56,-115.7860,40.8242,1367.00,53.00,49.00,86.23,250.00,3.00,0.09,30.05,1014.80,5.00,M,OVC,M,M,M,6000.00,M,M,M,TSRA BR,M,M,M,27.00,280.00,2023-09-03 21:57,53.00,KEKO 032256Z AUTO 25003KT 5SM TSRA BR OVC060 12/09 A3005 RMK AO2 PK WND 28027/2157 WSHFT 2155 LTG DSNT ALQDS TSE29B30E45B50 SLP148 P0009 T01170094,M
WMC,2023-09-03 22:56,-117.8072,40.9019,1315.00,58.00,52.00,80.38,30.00,11.00,0.00,30.05,1014.60,10.00,M,CLR,M,M,M,M,M,M,M,M,M,M,M,M,M,M,58.00,KWMC 032256Z AUTO 03011KT 10SM CLR 14/11 A3005 RMK AO2 SLP146 T01440111,M
NFL,2023-09-03 22:56,-118.7010,39.4166,1199.00,59.00,54.00,83.46,40.00,8.00,0.01,30.05,1014.60,10.00,M,CLR,M,M,M,M,M,M,M,M,M,M,M,M,M,M,59.00,KNFL 032256Z AUTO 04008KT 10SM CLR 15/12 A3005 RMK AO2 RAE17 SLP146 P0001 T01500122,M
HND,2023-09-03 22:56,-115.1344,35.9729,742.79,90.00,54.00,29.51,240.00,13.00,0.00,29.86,1010.10,10.00,19.00,FEW,SCT,M,M,9500.00,11000.00,M,M,M,M,M,M,M,M,M,87.82,KHND 032256Z 24013G19KT 10SM FEW095 SCT110 32/12 A2986 RMK AO2 SLP101 T03220122,M
TPH,2023-09-03 22:56,-117.0904,38.0505,1654.00,72.00,43.00,35.16,220.00,21.00,0.00,29.96,1008.00,10.00,39.00,SCT,BKN,M,M,7500.00,10000.00,M,M,VCTS,M,M,M,39.00,240.00,2023-09-03 22:56,72.00,KTPH 032256Z AUTO 22021G39KT 10SM VCTS SCT075 BKN100 22/06 A2996 RMK AO2 PK WND 24039/2256 LTG DSNT W-N SLP080 T02220061,M
LAS,2023-09-03 22:56,-115.1634,36.0719,663.00,92.00,52.00,25.76,240.00,11.00,0.00,29.82,1007.30,10.00,19.00,FEW,M,M,M,8500.00,M,M,M,M,M,M,M,26.00,230.00,2023-09-03 22:11,89.31,KLAS 032256Z 24011G19KT 10SM FEW085 33/11 A2982 RMK AO2 PK WND 23026/2211 SLP073 CB DSNT NE TCU DSNT E-SE T03330111 $,M
05U,2023-09-03 23:10,-116.0051,39.6042,1811.23,50.00,46.40,87.37,M,M,0.00,30.13,M,7.00,M,FEW,BKN,OVC,M,1500.00,2700.00,4500.00,M,M,M,M,M,M,M,M,50.00,K05U 032310Z AUTO 7SM FEW015 BKN027 OVC045 10/08 A3013 RMK A01,M
TPH,2023-09-03 23:14,-117.0904,38.0505,1654.00,62.00,48.00,60.07,20.00,19.00,T,29.99,M,10.00,25.00,BKN,OVC,M,M,6500.00,8000.00,M,M,-TSRA,M,M,M,M,M,M,62.00,KTPH 032314Z AUTO 02019G25KT 10SM -TSRA BKN065 OVC080 17/09 A2999 RMK AO2 LTG DSNT ALQDS RAB12 TSB08 P0000 T01670089,M
BVU,2023-09-03 23:15,-114.8611,35.9475,671.00,89.60,60.80,38.18,180.00,17.00,0.00,29.81,M,10.00,23.00,FEW,SCT,M,M,7500.00,8500.00,M,M,M,M,M,M,M,M,M,89.54,KBVU 032315Z AUTO 18017G23KT 10SM FEW075 SCT085 32/16 A2981 RMK AO2,M
CXP,2023-09-03 23:15,-119.7326,39.1923,1431.00,62.60,46.40,55.37,M,4.00,0.00,30.08,M,10.00,M,SCT,SCT,M,M,6500.00,7500.00,M,M,M,M,M,M,M,M,M,62.60,KCXP 032315Z AUTO VRB04KT 10SM SCT065 SCT075 17/08 A3008 RMK AO2,M
RTS,2023-09-03 23:15,-119.8764,39.6682,1539.00,60.80,44.60,55.12,280.00,12.00,0.00,30.10,M,10.00,19.00,FEW,BKN,BKN,M,3400.00,6000.00,9500.00,M,M,M,M,M,M,M,M,60.80,KRTS 032315Z AUTO 28012G19KT 10SM FEW034 BKN060 BKN095 16/07 A3010 RMK AO2,M
MEV,2023-09-03 23:15,-119.7500,38.9963,1441.42,64.40,42.80,45.32,320.00,11.00,0.00,30.06,M,10.00,M,FEW,BKN,M,M,6000.00,7000.00,M,M,M,M,M,M,M,M,M,64.40,KMEV 032315Z AUTO 32011KT 10SM FEW060 BKN070 18/06 A3006 RMK AO2,M
BAM,2023-09-03 23:15,-116.8743,40.5990,1382.36,53.60,51.80,93.60,0.00,0.00,0.00,30.10,M,5.00,M,SCT,BKN,OVC,M,4600.00,6000.00,6500.00,M,M,M,M,M,M,M,M,53.60,KBAM 032315Z AUTO 00000KT 5SM SCT046 BKN060 OVC065 12/11 A3010 RMK AO1,M
HTH,2023-09-03 23:15,-118.6315,38.5448,1282.89,59.00,55.40,87.83,340.00,13.00,0.00,30.03,M,10.00,M,SCT,OVC,M,M,4500.00,5000.00,M,M,M,M,M,M,M,M,M,59.00,KHTH 032315Z AUTO 34013KT 10SM SCT045 OVC050 15/13 A3003 RMK A01,M
10U,2023-09-03 23:15,-116.1876,41.9532,1637.00,51.80,50.00,93.55,220.00,11.00,0.00,30.08,M,7.00,M,FEW,SCT,M,M,4600.00,5500.00,M,M,-RA,M,M,M,M,M,M,51.80,K10U 032315Z AUTO 22011KT 7SM -RA FEW046 SCT055 11/10 A3008 RMK AO2,M
TPH,2023-09-03 23:22,-117.0904,38.0505,1654.00,59.00,49.00,69.38,10.00,14.00,T,29.99,M,10.00,25.00,BKN,OVC,M,M,7000.00,9000.00,M,M,-TSRA,M,M,M,M,M,M,59.00,KTPH 032322Z AUTO 01014G25KT 10SM -TSRA BKN070 OVC090 15/09 A2999 RMK AO2 WSHFT 2302 LTG DSNT ALQDS RAB12 TSB08 P0000 T01500094,M
EKO,2023-09-03 23:26,-115.7860,40.8242,1367.00,53.00,48.00,83.06,300.00,6.00,0.07,30.05,M,7.00,M,OVC,M,M,M,5500.00,M,M,M,RA,M,M,M,M,M,M,53.00,KEKO 032326Z AUTO 30006KT 7SM RA OVC055 12/09 A3005 RMK AO2 LTG DSNT NE-S TSE20 P0007 T01170089,M
05U,2023-09-03 23:30,-116.0051,39.6042,1811.23,50.00,48.20,93.50,M,M,0.00,30.15,M,8.00,M,BKN,BKN,OVC,M,1900.00,2700.00,4600.00,M,M,M,M,M,M,M,M,50.00,K05U 032330Z AUTO 8SM BKN019 BKN027 OVC046 10/09 A3015 RMK A01,M
BVU,2023-09-03 23:35,-114.8611,35.9475,671.00,89.60,60.80,38.18,180.00,19.00,0.00,29.80,M,10.00,27.00,FEW,SCT,SCT,M,7500.00,9000.00,12000.00,M,M,M,M,M,M,M,M,89.54,KBVU 032335Z AUTO 18019G27KT 10SM FEW075 SCT090 SCT120 32/16 A2980 RMK AO2,M
CXP,2023-09-03 23:35,-119.7326,39.1923,1431.00,60.80,51.80,72.20,320.00,10.00,0.00,30.09,M,5.00,19.00,SCT,BKN,BKN,M,3600.00,4900.00,6000.00,M,-RA HZ,M,M,M,M,M,M,60.80,KCXP 032335Z AUTO 32010G19KT 5SM -RA HZ SCT036 BKN049 BKN060 16/11 A3009 RMK AO2,M
RTS,2023-09-03 23:35,-119.8764,39.6682,1539.00,60.80,44.60,55.12,280.00,10.00,0.00,30.09,M,10.00,18.00,FEW,FEW,M,M,3600.00,6000.00,M,M,M,M,M,M,M,M,M,60.80,KRTS 032335Z AUTO 28010G18KT 10SM FEW036 FEW060 16/07 A3009 RMK AO2,M
TPH,2023-09-03 23:35,-117.0904,38.0505,1654.00,59.00,49.00,69.38,360.00,19.00,T,30.00,M,10.00,27.00,SCT,SCT,BKN,M,6500.00,8000.00,9000.00,M,VCTS,M,M,M,27.00,360.00,2023-09-03 23:33,59.00,KTPH 032335Z AUTO 36019G27KT 10SM VCTS SCT065 SCT080 BKN090 15/09 A3000 RMK AO2 PK WND 36027/2333 WSHFT 2302 LTG DSNT N AND NE AND SW RAB12E29 TSB08E29 P0000 T01500094,M
MEV,2023-09-03 23:35,-119.7500,38.9963,1441.42,62.60,42.80,48.28,270.00,8.00,0.00,30.06,M,10.00,M,SCT,SCT,M,M,5500.00,6500.00,M,M,M,M,M,M,M,M,M,62.60,KMEV 032335Z AUTO 27008KT 240V310 10SM SCT055 SCT065 17/06 A3006 RMK AO2,M
BAM,2023-09-03 23:35,-116.8743,40.5990,1382.36,53.60,51.80,93.60,0.00,0.00,0.00,30.09,M,4.00,M,OVC,M,M,M,6500.00,M,M,M,M,M,M,M,M,M,M,53.60,KBAM 032335Z AUTO 00000KT 4SM OVC065 12/11 A3009 RMK AO1,M
HTH,2023-09-03 23:35,-118.6315,38.5448,1282.89,59.00,51.80,76.98,350.00,13.00,0.00,30.04,M,10.00,18.00,SCT,OVC,M,M,4100.00,5000.00,M,M,M,M,M,M,M,M,M,59.00,KHTH 032335Z AUTO 35013G18KT 10SM SCT041 OVC050 15/11 A3004 RMK A01,M
10U,2023-09-03 23:40,-116.1876,41.9532,1637.00,51.80,50.00,93.55,200.00,9.00,0.00,30.07,M,7.00,M,FEW,FEW,M,M,4600.00,5500.00,M,M,-RA,M,M,M,M,M,M,51.80,K10U 032340Z AUTO 20009KT 7SM -RA FEW046 FEW055 11/10 A3007 RMK AO2,M
05U,2023-09-03 23:50,-116.0051,39.6042,1811.23,50.00,48.20,93.50,M,M,0.00,30.14,M,8.00,M,SCT,BKN,OVC,M,2000.00,2600.00,3400.00,M,M,M,M,M,M,M,M,50.00,K05U 032350Z AUTO 8SM SCT020 BKN026 OVC034 10/09 A3014 RMK A01,M
P68,2023-09-03 23:53,-116.0056,39.6014,1993.00,50.00,47.00,89.37,30.00,7.00,0.04,30.11,1014.40,M,M,M,M,M,M,M,M,M,M,M,M,M,M,M,M,M,50.00,KP68 032353Z AUTO 03007KT 10/08 A3011 RMK AO1 SLP144 P0004 60007 T01000083 10228 20094 53041 $,M
DRA,2023-09-03 23:53,-116.0278,36.6206,1009.00,82.00,49.00,31.68,210.00,16.00,0.00,29.87,1006.90,10.00,27.00,FEW,M,M,M,7500.00,M,M,M,M,M,M,M,34.00,170.00,2023-09-03 23:30,80.62,KDRA 032353Z AUTO 21016G27KT 10SM FEW075 28/09 A2987 RMK AO2 PK WND 17034/2330 SLP069 T02780094 10300 20261 56025,M
ELY,2023-09-03 23:53,-114.8453,39.2950,1909.00,64.00,47.00,53.92,160.00,17.00,0.00,29.99,1007.00,10.00,30.00,FEW,BKN,M,M,8000.00,10000.00,M,M,VCTS,M,M,M,33.00,160.00,2023-09-03 23:40,64.00,KELY 032353Z AUTO 16017G30KT 10SM VCTS FEW080 BKN100 18/08 A2999 RMK AO2 PK WND 16033/2340 LTG DSNT W AND NW SLP070 60004 T01780083 10217 20122 56025,M
VGT,2023-09-03 23:53,-115.1933,36.2111,667.00,92.00,53.00,26.72,240.00,10.00,0.00,29.79,1007.90,10.00,M,CLR,M,M,M,M,M,M,M,M,M,M,M,M,M,M,89.53,KVGT 032353Z 24010KT 10SM CLR 33/12 A2979 RMK AO2 SLP079 T03330117 10350 20272 56030 $,M
LOL,2023-09-03 23:53,-118.5701,40.0684,1192.43,57.00,53.00,86.45,140.00,4.00,0.01,30.04,1015.10,10.00,M,CLR,M,M,M,M,M,M,M,M,M,M,M,M,M,M,57.00,KLOL 032353Z AUTO 14004KT 10SM CLR 14/12 A3004 RMK AO2 RAE24 SLP151 P0001 60013 T01390117 10156 20122 58001,M
BVU,2023-09-03 23:55,-114.8611,35.9475,671.00,89.60,55.40,31.45,180.00,19.00,0.00,29.80,M,10.00,28.00,FEW,BKN,BKN,M,8000.00,9500.00,12000.00,M,M,M,M,M,M,M,M,87.78,KBVU 032355Z AUTO 18019G28KT 10SM FEW080 BKN095 BKN120 32/13 A2980 RMK AO2,M
CXP,2023-09-03 23:55,-119.7326,39.1923,1431.00,60.80,50.00,67.54,320.00,10.00,0.00,30.09,M,10.00,M,FEW,FEW,SCT,M,3600.00,6000.00,7000.00,M,M,M,M,M,M,M,M,60.80,KCXP 032355Z AUTO 32010KT 10SM FEW036 FEW060 SCT070 16/10 A3009 RMK AO2,M
RNO,2023-09-03 23:55,-119.7711,39.4839,1341.00,60.00,50.00,69.49,270.00,4.00,0.04,30.07,1015.10,10.00,M,FEW,BKN,BKN,M,4900.00,6500.00,8000.00,M,M,M,M,M,M,M,M,60.00,KRNO 032355Z 27004KT 10SM FEW049 BKN065 BKN080 16/10 A3007 RMK AO2 RAE30 SLP151 P0004 60018 T01560100 10172 20133 57001,M
RTS,2023-09-03 23:55,-119.8764,39.6682,1539.00,60.80,42.80,51.45,290.00,12.00,0.00,30.09,M,10.00,20.00,FEW,M,M,M,3700.00,M,M,M,M,M,M,M,M,M,M,60.80,KRTS 032355Z AUTO 29012G20KT 10SM FEW037 16/06 A3009 RMK AO2,M
MEV,2023-09-03 23:55,-119.7500,38.9963,1441.42,62.60,42.80,48.28,260.00,7.00,0.00,30.06,M,10.00,15.00,BKN,M,M,M,6000.00,M,M,M,M,M,M,M,M,M,M,62.60,KMEV 032355Z AUTO 26007G15KT 10SM BKN060 17/06 A3006 RMK AO2,M
BAM,2023-09-03 23:55,-116.8743,40.5990,1382.36,53.60,51.80,93.60,0.00,0.00,0.00,30.09,M,10.00,M,OVC,M,M,M,8000.00,M,M,M,M,M,M,M,M,M,M,53.60,KBAM 032355Z AUTO 00000KT 10SM OVC080 12/11 A3009 RMK AO1,M
HTH,2023-09-03 23:55,-118.6315,38.5448,1282.89,57.20,53.60,87.74,330.00,12.00,0.01,30.05,M,5.00,M,SCT,BKN,OVC,M,3200.00,4000.00,6000.00,M,HZ,M,M,M,M,M,M,57.20,KHTH 032355Z AUTO 33012KT 5SM HZ SCT032 BKN040 OVC060 14/12 A3005 RMK A01 P0001,M
10U,2023-09-03 23:55,-116.1876,41.9532,1637.00,51.80,50.00,93.55,190.00,8.00,0.00,30.06,M,9.00,M,FEW,SCT,M,M,4800.00,5500.00,M,M,-RA,M,M,M,M,M,M,51.80,K10U 032355Z AUTO 19008KT 9SM -RA FEW048 SCT055 11/10 A3006 RMK AO2 LTG DSNT SE,M
INS,2023-09-03 23:55,-115.6733,36.5872,955.00,85.00,45.30,25.01,190.00,22.00,0.00,29.85,1006.40,10.00,32.00,CLR,M,M,M,M,M,M,M,M,M,M,M,39.00,230.00,2023-09-03 23:28,82.36,KINS 032355Z AUTO 19022G32KT 10SM CLR 30/07 A2985 RMK AO2 PK WND 23039/28 SLP064 T02950074 10309 20264 57025 $,M
LSV,2023-09-03 23:55,-115.0343,36.2362,570.00,94.30,54.00,25.81,210.00,14.00,0.00,29.75,1005.10,10.00,18.00,CLR,M,M,M,M,M,M,M,M,M,M,M,M,M,M,92.09,KLSV 032355Z AUTO 21014G18KT 10SM CLR 35/12 A2975 RMK AO2 SLP051 T03460123 10355 20289 57034 $,M
EKO,2023-09-03 23:56,-115.7860,40.8242,1367.00,52.00,49.00,89.46,220.00,5.00,0.20,30.05,1014.80,4.00,M,OVC,M,M,M,6000.00,M,M,M,-RA BR,M,M,M,M,M,M,52.00,KEKO 032356Z AUTO 22005KT 4SM -RA BR OVC060 11/09 A3005 RMK AO2 LTG DSNT E TSE20 SLP148 P0020 60033 T01110094 10211 20111 51024,M
WMC,2023-09-03 23:56,-117.8072,40.9019,1315.00,58.00,49.00,71.91,360.00,6.00,0.00,30.03,1014.30,10.00,M,SCT,BKN,M,M,6500.00,11000.00,M,M,M,M,M,M,M,M,M,58.00,KWMC 032356Z AUTO 36006KT 10SM SCT065 BKN110 14/09 A3003 RMK AO2 SLP143 60079 T01440094 10150 20106 56013,M
NFL,2023-09-03 23:56,-118.7010,39.4166,1199.00,58.00,52.00,80.38,70.00,6.00,0.00,30.06,1014.80,10.00,M,SCT,SCT,M,M,8000.00,12000.00,M,M,M,M,M,M,M,M,M,58.00,KNFL 032356Z AUTO 07006KT 10SM SCT080 SCT120 14/11 A3006 RMK AO2 SLP148 60018 T01440111 10167 20128 53002,M
HND,2023-09-03 23:56,-115.1344,35.9729,742.79,89.00,54.00,30.45,240.00,14.00,0.00,29.83,1009.30,10.00,M,SCT,SCT,M,M,9500.00,12000.00,M,M,M,M,M,M,M,M,M,86.89,KHND 032356Z 24014KT 10SM SCT095 SCT120 32/12 A2983 RMK AO2 SLP093 T03170122 10333 20261 56028,M
TPH,2023-09-03 23:56,-117.0904,38.0505,1654.00,58.00,49.00,71.91,10.00,18.00,T,30.01,1011.30,10.00,27.00,BKN,BKN,OVC,M,7000.00,8000.00,10000.00,M,VCTS -RA,M,M,M,29.00,360.00,2023-09-03 23:37,58.00,KTPH 032356Z AUTO 01018G27KT 10SM VCTS -RA BKN070 BKN080 OVC100 14/09 A3001 RMK AO2 PK WND 36029/2337 WSHFT 2302 LTG DSNT ALQDS RAB12E29B49 TSB08E29 SLP113 P0000 60000 T01440094 10250 20144 53010,M
LAS,2023-09-03 23:56,-115.1634,36.0719,663.00,90.00,55.00,30.61,240.00,13.00,0.00,29.80,1006.70,10.00,22.00,SCT,M,M,M,9000.00,M,M,M,M,M,M,M,M,M,M,88.06,KLAS 032356Z 24013G22KT 10SM SCT090 32/13 A2980 RMK AO2 SLP067 T03220128 10333 20267 56029 $,M
