station,valid,lon,lat,elevation,tmpf,dwpf,relh,drct,sknt,p01i,alti,mslp,vsby,gust,skyc1,skyc2,skyc3,skyc4,skyl1,skyl2,skyl3,skyl4,wxcodes,ice_accretion_1hr,ice_accretion_3hr,ice_accretion_6hr,peak_wind_gust,peak_wind_drct,peak_wind_time,feel,metar,snowdepth
MEV,2021-08-30 00:15,-119.7500,38.9963,1441.42,86.00,28.40,12.44,240.00,8.00,0.00,30.00,M,2.00,M,CLR,M,M,M,M,M,M,M,HZ,M,M,M,M,M,M,82.54,KMEV 300015Z AUTO 24008KT 2SM HZ CLR 30/M02 A3000 RMK AO2,M
BVU,2021-08-30 00:15,-114.8611,35.9475,671.00,105.80,44.60,12.84,M,6.00,0.00,29.72,M,10.00,12.00,CLR,M,M,M,M,M,M,M,M,M,M,M,M,M,M,101.53,KBVU 300015Z AUTO VRB06G12KT 090V150 10SM CLR 41/07 A2972 RMK AO2,M
TMT,2021-08-30 00:15,-117.1971,39.4643,1749.34,88.30,23.20,9.32,310.00,11.00,0.00,30.05,M,10.00,M,CLR,M,M,M,M,M,M,M,M,M,M,M,M,M,M,83.81,KTMT 300015Z AUTO 31011KT 10SM CLR 31/M05 A3005 RMK AO2 T03131049,M
RTS,2021-08-30 00:15,-119.8764,39.6682,1539.00,89.60,12.20,5.57,250.00,12.00,0.00,30.02,M,10.00,18.00,CLR,M,M,M,M,M,M,M,M,M,M,M,M,M,M,84.23,KRTS 300015Z AUTO 25012G18KT 10SM CLR 32/M11 A3002 RMK AO2,M
HTH,2021-08-30 00:15,-118.6315,38.5448,1282.89,95.00,23.00,7.49,340.00,19.00,0.00,29.91,M,9.00,M,CLR,M,M,M,M,M,M,M,M,M,M,M,M,M,M,88.76,KHTH 300015Z AUTO 34019KT 9SM CLR 35/M05 A2991 RMK A01,M
BAM,2021-08-30 00:15,-116.8743,40.5990,1382.36,95.00,21.20,6.95,240.00,9.00,0.00,29.93,M,10.00,M,CLR,M,M,M,M,M,M,M,M,M,M,M,M,M,M,88.62,KBAM 300015Z AUTO 24009KT 10SM CLR 35/M06 A2993 RMK AO1,M
CXP,2021-08-30 00:15,-119.7326,39.1923,1431.00,91.40,21.20,7.77,M,6.00,0.00,30.01,M,9.00,15.00,CLR,M,M,M,M,M,M,M,M,M,M,M,M,M,M,85.96,KCXP 300015Z AUTO VRB06G15KT 9SM CLR 33/M06 A3001 RMK AO2,M
NFL,2021-08-30 00:32,-118.7010,39.4166,1199.00,95.00,23.00,7.49,190.00,6.00,0.00,29.88,M,2.50,M,BKN,OVC,M,M,2800.00,3900.00,M,M,HZ,M,M,M,M,M,M,88.76,KNFL 300032Z AUTO 19006KT 2 1/2SM HZ BKN028 OVC039 35/M05 A2988 RMK AO2 T03501050,M
CXP,2021-08-30 00:35,-119.7326,39.1923,1431.00,89.60,21.20,8.22,300.00,11.00,0.00,30.00,M,9.00,M,CLR,M,M,M,M,M,M,M,M,M,M,M,M,M,M,84.64,KCXP 300035Z AUTO 30011KT 270V330 9SM CLR 32/M06 A3000 RMK AO2,M
BVU,2021-08-30 00:35,-114.8611,35.9475,671.00,105.80,42.80,11.98,M,6.00,0.00,29.72,M,10.00,14.00,CLR,M,M,M,M,M,M,M,M,M,M,M,M,M,M,101.02,KBVU 300035Z AUTO VRB06G14KT 10SM CLR 41/06 A2972 RMK AO2,M
RTS,2021-08-30 00:35,-119.8764,39.6682,1539.00,89.60,12.20,5.57,240.00,12.00,0.00,30.01,M,10.00,19.00,CLR,M,M,M,M,M,M,M,M,M,M,M,M,M,M,84.23,KRTS 300035Z AUTO 24012G19KT 10SM CLR 32/M11 A3001 RMK AO2,M
MEV,2021-08-30 00:35,-119.7500,38.9963,1441.42,84.20,30.20,14.18,250.00,7.00,0.00,30.00,M,2.00,M,CLR,M,M,M,M,M,M,M,HZ,M,M,M,M,M,M,81.26,KMEV 300035Z AUTO 25007KT 2SM HZ CLR 29/M01 A3000 RMK AO2,M
BAM,2021-08-30 00:35,-116.8743,40.5990,1382.36,95.00,21.20,6.95,230.00,11.00,0.00,29.93,M,10.00,14.00,CLR,M,M,M,M,M,M,M,M,M,M,M,M,M,M,88.62,KBAM 300035Z AUTO 23011G14KT 10SM CLR 35/M06 A2993 RMK AO1,M
HTH,2021-08-30 00:35,-118.6315,38.5448,1282.89,95.00,21.20,6.95,350.00,18.00,0.00,29.91,M,7.00,M,CLR,M,M,M,M,M,M,M,M,M,M,M,M,M,M,88.62,KHTH 300035Z AUTO 35018KT 7SM CLR 35/M06 A2991 RMK A01,M
TMT,2021-08-30 00:35,-117.1971,39.4643,1749.34,87.80,22.60,9.23,300.00,8.00,0.00,30.05,M,10.00,M,CLR,M,M,M,M,M,M,M,M,M,M,M,M,M,M,83.41,KTMT 300035Z AUTO 30008KT 10SM CLR 31/M05 A3005 RMK AO2 T03101052,M
P68,2021-08-30 00:53,-116.0056,39.6014,1993.00,89.00,17.10,7.01,290.00,8.00,0.00,30.02,1008.60,M,M,M,M,M,M,M,M,M,M,M,M,M,M,M,M,M,84.06,KP68 300053Z AUTO 29008KT 32/M08 A3002 RMK AO1 SLP086 T03171083,M
LOL,2021-08-30 00:53,-118.5701,40.0684,1192.43,94.00,23.00,7.75,190.00,6.00,0.00,29.87,1007.80,7.00,M,CLR,M,M,M,M,M,M,M,M,M,M,M,M,M,M,87.94,KLOL 300053Z AUTO 19006KT 7SM CLR 34/M05 A2987 RMK AO2 SLP078 T03441050,M
ELY,2021-08-30 00:53,-114.8453,39.2950,1909.00,86.00,15.10,7.09,210.00,6.00,0.00,30.07,1009.10,10.00,M,CLR,M,M,M,M,M,M,M,M,M,M,M,M,M,M,81.75,KELY 300053Z AUTO 21006KT 10SM CLR 30/M09 A3007 RMK AO2 SLP091 T03001094 $,M
VGT,2021-08-30 00:53,-115.1933,36.2111,667.00,107.00,42.00,11.23,130.00,9.00,0.00,29.70,1003.90,10.00,M,CLR,M,M,M,M,M,M,M,M,M,M,M,M,M,M,101.99,KVGT 300053Z 13009KT 10SM CLR 42/06 A2970 RMK AO2 SLP039 T04170056,M
TMT,2021-08-30 00:55,-117.1971,39.4643,1749.34,85.60,21.60,9.49,310.00,13.00,0.00,30.05,M,10.00,17.00,CLR,M,M,M,M,M,M,M,M,M,M,M,M,M,M,81.78,KTMT 300055Z AUTO 31013G17KT 10SM CLR 30/M06 A3005 RMK AO2 T02981058,M
RNO,2021-08-30 00:55,-119.7711,39.4839,1341.00,92.00,18.00,6.67,270.00,16.00,0.00,29.95,1008.70,10.00,22.00,SCT,M,M,M,0.00,M,M,M,M,M,M,M,M,M,M,86.15,KRNO 300055Z 27016G22KT 10SM SCT000 33/M08 A2995 RMK AO2 SLP087 FU SCT000 T03331078 $,M
BVU,2021-08-30 00:55,-114.8611,35.9475,671.00,105.80,41.00,11.18,M,4.00,0.00,29.72,M,10.00,M,CLR,M,M,M,M,M,M,M,M,M,M,M,M,M,M,100.56,KBVU 300055Z AUTO VRB04KT 10SM CLR 41/05 A2972 RMK AO2,M
CXP,2021-08-30 00:55,-119.7326,39.1923,1431.00,89.60,21.20,8.22,240.00,6.00,0.00,30.00,M,9.00,M,CLR,M,M,M,M,M,M,M,M,M,M,M,M,M,M,84.64,KCXP 300055Z AUTO 24006KT 9SM CLR 32/M06 A3000 RMK AO2,M
RTS,2021-08-30 00:55,-119.8764,39.6682,1539.00,87.80,14.00,6.38,250.00,13.00,0.00,30.01,M,10.00,20.00,CLR,M,M,M,M,M,M,M,M,M,M,M,M,M,M,83.00,KRTS 300055Z AUTO 25013G20KT 10SM CLR 31/M10 A3001 RMK AO2,M
MEV,2021-08-30 00:55,-119.7500,38.9963,1441.42,84.20,30.20,14.18,230.00,8.00,0.00,30.00,M,2.50,M,CLR,M,M,M,M,M,M,M,HZ,M,M,M,M,M,M,81.26,KMEV 300055Z AUTO 23008KT 2 1/2SM HZ CLR 29/M01 A3000 RMK AO2,M
BAM,2021-08-30 00:55,-116.8743,40.5990,1382.36,95.00,21.20,6.95,250.00,12.00,0.00,29.93,M,10.00,16.00,CLR,M,M,M,M,M,M,M,M,M,M,M,M,M,M,88.62,KBAM 300055Z AUTO 25012G16KT 10SM CLR 35/M06 A2993 RMK AO1,M
HTH,2021-08-30 00:55,-118.6315,38.5448,1282.89,93.20,21.20,7.34,350.00,18.00,0.00,29.91,M,6.00,M,CLR,M,M,M,M,M,M,M,HZ,M,M,M,M,M,M,87.29,KHTH 300055Z AUTO 35018KT 6SM HZ CLR 34/M06 A2991 RMK A01,M
HND,2021-08-30 00:56,-115.1344,35.9729,742.79,104.00,46.00,14.28,150.00,5.00,0.00,29.76,1005.50,10.00,M,CLR,M,M,M,M,M,M,M,M,M,M,M,M,M,M,100.12,KHND 300056Z 15005KT 10SM CLR 40/08 A2976 RMK AO2 SLP055 T04000078,M
EKO,2021-08-30 00:56,-115.7860,40.8242,1367.00,89.00,23.00,9.01,300.00,8.00,0.00,29.98,1010.00,7.00,M,CLR,M,M,M,M,M,M,M,M,M,M,M,M,M,M,84.38,KEKO 300056Z AUTO 30008KT 7SM CLR 32/M05 A2998 RMK AO2 SLP100 T03171050,M
LAS,2021-08-30 00:56,-115.1634,36.0719,663.00,106.00,43.00,12.01,210.00,4.00,0.00,29.72,1002.90,10.00,M,FEW,FEW,M,M,12000.00,20000.00,M,M,M,M,M,M,M,M,M,101.25,KLAS 300056Z 21004KT 10SM FEW120 FEW200 41/06 A2972 RMK AO2 SLP029 T04110061,M
WMC,2021-08-30 00:56,-117.8072,40.9019,1315.00,94.00,18.00,6.27,240.00,15.00,0.00,29.90,1007.90,8.00,24.00,CLR,M,M,M,M,M,M,M,M,M,M,M,M,M,M,87.61,KWMC 300056Z AUTO 24015G24KT 200V280 8SM CLR 34/M08 A2990 RMK AO2 SLP079 T03441078 $,M
NFL,2021-08-30 00:56,-118.7010,39.4166,1199.00,93.00,25.00,8.67,190.00,6.00,0.00,29.88,1009.40,2.50,M,OVC,M,M,M,2600.00,M,M,M,HZ,M,M,M,M,M,M,87.43,KNFL 300056Z AUTO 19006KT 2 1/2SM HZ OVC026 34/M04 A2988 RMK AO2 SLP094 T03391039,M
TPH,2021-08-30 00:56,-117.0904,38.0505,1654.00,92.00,17.10,6.42,0.00,0.00,0.00,30.00,1007.60,10.00,M,CLR,M,M,M,M,M,M,M,M,M,M,M,M,M,M,86.10,KTPH 300056Z AUTO 00000KT 10SM CLR 33/M08 A3000 RMK AO2 SLP076 T03331083 $,M
LSV,2021-08-30 00:58,-115.0343,36.2362,570.00,106.70,38.70,9.96,140.00,8.00,0.00,29.68,1002.20,10.00,M,CLR,M,M,M,M,M,M,M,M,M,M,M,M,M,M,100.82,KLSV 300058Z AUTO 14008KT 10SM CLR 42/04 A2968 RMK AO2 SLP022 T04150037 $,M
BVU,2021-08-30 01:15,-114.8611,35.9475,671.00,104.00,41.00,11.79,190.00,5.00,0.00,29.72,M,10.00,10.00,CLR,M,M,M,M,M,M,M,M,M,M,M,M,M,M,98.97,KBVU 300115Z AUTO 19005G10KT 10SM CLR 40/05 A2972 RMK AO2,M
CXP,2021-08-30 01:15,-119.7326,39.1923,1431.00,89.60,23.00,8.87,240.00,6.00,0.00,30.01,M,9.00,M,CLR,M,M,M,M,M,M,M,M,M,M,M,M,M,M,84.75,KCXP 300115Z AUTO 24006KT 9SM CLR 32/M05 A3001 RMK AO2,M
RTS,2021-08-30 01:15,-119.8764,39.6682,1539.00,87.80,12.20,5.89,280.00,14.00,0.00,30.02,M,10.00,19.00,CLR,M,M,M,M,M,M,M,M,M,M,M,M,M,M,82.93,KRTS 300115Z AUTO 28014G19KT 10SM CLR 31/M11 A3002 RMK AO2,M
MEV,2021-08-30 01:15,-119.7500,38.9963,1441.42,86.00,28.40,12.44,250.00,7.00,0.00,30.00,M,4.00,M,CLR,M,M,M,M,M,M,M,HZ,M,M,M,M,M,M,82.54,KMEV 300115Z AUTO 25007KT 4SM HZ CLR 30/M02 A3000 RMK AO2,M
BAM,2021-08-30 01:15,-116.8743,40.5990,1382.36,93.20,19.40,6.80,240.00,14.00,0.00,29.93,M,10.00,17.00,CLR,M,M,M,M,M,M,M,M,M,M,M,M,M,M,87.18,KBAM 300115Z AUTO 24014G17KT 10SM CLR 34/M07 A2993 RMK AO1,M
HTH,2021-08-30 01:15,-118.6315,38.5448,1282.89,91.40,19.40,7.19,360.00,17.00,0.00,29.91,M,5.00,M,CLR,M,M,M,M,M,M,M,HZ,M,M,M,M,M,M,85.86,KHTH 300115Z AUTO 36017KT 5SM HZ CLR 33/M07 A2991 RMK A01,M
TMT,2021-08-30 01:15,-117.1971,39.4643,1749.34,84.20,21.90,10.05,310.00,8.00,0.00,30.05,M,10.00,M,CLR,M,M,M,M,M,M,M,M,M,M,M,M,M,M,80.82,KTMT 300115Z AUTO 31008KT 10SM CLR 29/M06 A3005 RMK AO2 T02901056,M
NFL,2021-08-30 01:23,-118.7010,39.4166,1199.00,91.00,28.00,10.44,180.00,5.00,0.00,29.88,M,2.50,M,SCT,M,M,M,2700.00,M,M,M,HZ,M,M,M,M,M,M,86.19,KNFL 300123Z AUTO 18005KT 2 1/2SM HZ SCT027 33/M02 A2988 RMK AO2 T03281022,M
NFL,2021-08-30 01:30,-118.7010,39.4166,1199.00,91.00,26.10,9.66,200.00,7.00,0.00,29.88,M,3.00,M,FEW,M,M,M,2500.00,M,M,M,HZ,M,M,M,M,M,M,86.02,KNFL 300130Z AUTO 20007KT 3SM HZ FEW025 33/M03 A2988 RMK AO2 T03281033,M
BVU,2021-08-30 01:35,-114.8611,35.9475,671.00,104.00,41.00,11.79,160.00,8.00,0.00,29.72,M,10.00,13.00,CLR,M,M,M,M,M,M,M,M,M,M,M,M,M,M,98.97,KBVU 300135Z AUTO 16008G13KT 10SM CLR 40/05 A2972 RMK AO2,M
CXP,2021-08-30 01:35,-119.7326,39.1923,1431.00,87.80,21.20,8.70,M,6.00,0.00,30.01,M,9.00,12.00,CLR,M,M,M,M,M,M,M,M,M,M,M,M,M,M,83.33,KCXP 300135Z AUTO VRB06G12KT 9SM CLR 31/M06 A3001 RMK AO2,M
RTS,2021-08-30 01:35,-119.8764,39.6682,1539.00,86.00,14.00,6.75,250.00,17.00,0.00,30.02,M,10.00,M,CLR,M,M,M,M,M,M,M,M,M,M,M,M,M,M,81.71,KRTS 300135Z AUTO 25017KT 10SM CLR 30/M10 A3002 RMK AO2,M
MEV,2021-08-30 01:35,-119.7500,38.9963,1441.42,84.20,30.20,14.18,280.00,9.00,0.00,30.00,M,3.00,M,CLR,M,M,M,M,M,M,M,HZ,M,M,M,M,M,M,81.26,KMEV 300135Z AUTO 28009KT 3SM HZ CLR 29/M01 A3000 RMK AO2,M
BAM,2021-08-30 01:35,-116.8743,40.5990,1382.36,91.40,19.40,7.19,250.00,11.00,0.00,29.93,M,10.00,M,CLR,M,M,M,M,M,M,M,M,M,M,M,M,M,M,85.86,KBAM 300135Z AUTO 25011KT 10SM CLR 33/M07 A2993 RMK AO1,M
HTH,2021-08-30 01:35,-118.6315,38.5448,1282.89,89.60,26.60,10.30,350.00,16.00,0.00,29.92,M,4.00,M,CLR,M,M,M,M,M,M,M,HZ,M,M,M,M,M,M,85.02,KHTH 300135Z AUTO 35016KT 4SM HZ CLR 32/M03 A2992 RMK A01,M
TMT,2021-08-30 01:35,-117.1971,39.4643,1749.34,82.00,23.70,11.64,320.00,5.00,0.00,30.05,M,10.00,M,CLR,M,M,M,M,M,M,M,M,M,M,M,M,M,M,79.45,KTMT 300135Z AUTO 32005KT 10SM CLR 28/M05 A3005 RMK AO2 T02781046,M
P68,2021-08-30 01:53,-116.0056,39.6014,1993.00,81.00,24.10,12.23,340.00,5.00,0.00,30.03,1009.30,M,M,M,M,M,M,M,M,M,M,M,M,M,M,M,M,M,78.83,KP68 300153Z AUTO 34005KT 27/M04 A3003 RMK AO1 SLP093 T02721044,M
VGT,2021-08-30 01:53,-115.1933,36.2111,667.00,105.00,43.00,12.33,120.00,7.00,0.00,29.70,1004.00,10.00,M,CLR,M,M,M,M,M,M,M,M,M,M,M,M,M,M,100.45,KVGT 300153Z 12007KT 10SM CLR 41/06 A2970 RMK AO2 SLP040 T04060061,M
ELY,2021-08-30 01:53,-114.8453,39.2950,1909.00,78.00,19.00,10.84,220.00,6.00,0.00,30.06,1009.50,10.00,M,CLR,M,M,M,M,M,M,M,M,M,M,M,M,M,M,78.10,KELY 300153Z AUTO 22006KT 10SM CLR 26/M07 A3006 RMK AO2 SLP095 T02561072 $,M
LOL,2021-08-30 01:53,-118.5701,40.0684,1192.43,90.00,21.90,8.36,310.00,13.00,0.00,29.88,1008.20,4.00,M,CLR,M,M,M,M,M,M,M,HZ,M,M,M,M,M,M,84.98,KLOL 300153Z AUTO 31013KT 4SM HZ CLR 32/M06 A2988 RMK AO2 SLP082 T03221056,M
CXP,2021-08-30 01:55,-119.7326,39.1923,1431.00,86.00,23.00,9.94,M,6.00,0.00,30.01,M,9.00,14.00,CLR,M,M,M,M,M,M,M,M,M,M,M,M,M,M,82.14,KCXP 300155Z AUTO VRB06G14KT 9SM CLR 30/M05 A3001 RMK AO2,M
BAM,2021-08-30 01:55,-116.8743,40.5990,1382.36,89.60,19.40,7.61,250.00,9.00,0.00,29.93,M,10.00,M,CLR,M,M,M,M,M,M,M,M,M,M,M,M,M,M,84.54,KBAM 300155Z AUTO 25009KT 10SM CLR 32/M07 A2993 RMK AO1,M
MEV,2021-08-30 01:55,-119.7500,38.9963,1441.42,84.20,28.40,13.18,280.00,10.00,0.00,29.99,M,5.00,M,CLR,M,M,M,M,M,M,M,HZ,M,M,M,M,M,M,81.25,KMEV 300155Z AUTO 28010KT 5SM HZ CLR 29/M02 A2999 RMK AO2,M
RTS,2021-08-30 01:55,-119.8764,39.6682,1539.00,86.00,15.80,7.31,260.00,11.00,0.00,30.02,M,10.00,M,CLR,M,M,M,M,M,M,M,M,M,M,M,M,M,M,81.78,KRTS 300155Z AUTO 26011KT 10SM CLR 30/M09 A3002 RMK AO2,M
BVU,2021-08-30 01:55,-114.8611,35.9475,671.00,104.00,41.00,11.79,160.00,8.00,0.00,29.72,M,10.00,M,CLR,M,M,M,M,M,M,M,M,M,M,M,M,M,M,98.97,KBVU 300155Z AUTO 16008KT 10SM CLR 40/05 A2972 RMK AO2,M
RNO,2021-08-30 01:55,-119.7711,39.4839,1341.00,89.00,21.00,8.28,260.00,13.00,0.00,29.96,1009.20,10.00,M,SCT,M,M,M,0.00,M,M,M,M,M,M,M,M,M,M,84.26,KRNO 300155Z 26013KT 10SM SCT000 32/M06 A2996 RMK AO2 SLP092 FU SCT000 T03171061 $,M
TMT,2021-08-30 01:55,-117.1971,39.4643,1749.34,79.50,23.70,12.63,310.00,5.00,0.00,30.05,M,10.00,M,CLR,M,M,M,M,M,M,M,M,M,M,M,M,M,M,79.50,KTMT 300155Z AUTO 31005KT 10SM CLR 26/M05 A3005 RMK AO2 T02641046,M
HTH,2021-08-30 01:55,-118.6315,38.5448,1282.89,87.80,28.40,11.74,340.00,13.00,0.00,29.92,M,2.50,M,CLR,M,M,M,M,M,M,M,HZ,M,M,M,M,M,M,83.84,KHTH 300155Z AUTO 34013KT 2 1/2SM HZ CLR 31/M02 A2992 RMK A01,M
LAS,2021-08-30 01:56,-115.1634,36.0719,663.00,104.00,44.00,13.29,180.00,5.00,0.00,29.72,1003.00,10.00,M,FEW,FEW,M,M,12000.00,20000.00,M,M,M,M,M,M,M,M,M,99.72,KLAS 300156Z 18005KT 10SM FEW120 FEW200 40/07 A2972 RMK AO2 SLP030 T04000067,M
WMC,2021-08-30 01:56,-117.8072,40.9019,1315.00,88.00,19.90,8.18,290.00,7.00,0.00,29.91,1008.40,7.00,M,CLR,M,M,M,M,M,M,M,M,M,M,M,M,M,M,83.40,KWMC 300156Z AUTO 29007KT 7SM CLR 31/M07 A2991 RMK AO2 SLP084 T03111067 $,M
HND,2021-08-30 01:56,-115.1344,35.9729,742.79,103.00,46.00,14.76,140.00,7.00,0.00,29.76,1005.60,10.00,M,CLR,M,M,M,M,M,M,M,M,M,M,M,M,M,M,99.04,KHND 300156Z 14007KT 10SM CLR 39/08 A2976 RMK AO2 SLP056 T03940078,M
TPH,2021-08-30 01:56,-117.0904,38.0505,1654.00,89.00,19.90,7.90,0.00,0.00,0.00,29.99,1007.60,10.00,M,CLR,M,M,M,M,M,M,M,M,M,M,M,M,M,M,84.20,KTPH 300156Z AUTO 00000KT 10SM CLR 32/M07 A2999 RMK AO2 SLP076 T03171067 $,M
NFL,2021-08-30 01:56,-118.7010,39.4166,1199.00,90.00,21.90,8.36,230.00,9.00,0.00,29.88,1009.20,6.00,M,CLR,M,M,M,M,M,M,M,HZ,M,M,M,M,M,M,84.98,KNFL 300156Z AUTO 23009KT 6SM HZ CLR 32/M06 A2988 RMK AO2 SLP092 T03221056,M
EKO,2021-08-30 01:56,-115.7860,40.8242,1367.00,84.00,23.00,10.60,310.00,4.00,0.00,29.97,1010.00,8.00,M,CLR,M,M,M,M,M,M,M,M,M,M,M,M,M,M,80.75,KEKO 300156Z AUTO 31004KT 8SM CLR 29/M05 A2997 RMK AO2 SLP100 T02891050,M
LSV,2021-08-30 01:58,-115.0343,36.2362,570.00,105.00,39.70,10.92,100.00,5.00,0.00,29.68,1002.10,10.00,M,CLR,M,M,M,M,M,M,M,M,M,M,M,M,M,M,99.46,KLSV 300158Z AUTO 10005KT 10SM CLR 41/04 A2968 RMK AO2 SLP021 T04050043 $,M
BAM,2021-08-30 02:15,-116.8743,40.5990,1382.36,86.00,19.40,8.53,250.00,6.00,0.00,29.93,M,10.00,M,CLR,M,M,M,M,M,M,M,M,M,M,M,M,M,M,81.94,KBAM 300215Z AUTO 25006KT 10SM CLR 30/M07 A2993 RMK AO1,M
HTH,2021-08-30 02:15,-118.6315,38.5448,1282.89,87.80,26.60,10.91,350.00,11.00,0.00,29.93,M,3.00,M,CLR,M,M,M,M,M,M,M,HZ,M,M,M,M,M,M,83.69,KHTH 300215Z AUTO 35011KT 3SM HZ CLR 31/M03 A2993 RMK A01,M
BVU,2021-08-30 02:15,-114.8611,35.9475,671.00,102.20,41.00,12.44,150.00,7.00,0.00,29.72,M,10.00,M,CLR,M,M,M,M,M,M,M,M,M,M,M,M,M,M,97.39,KBVU 300215Z AUTO 15007KT 10SM CLR 39/05 A2972 RMK AO2,M
CXP,2021-08-30 02:15,-119.7326,39.1923,1431.00,84.20,26.60,12.23,200.00,6.00,0.00,30.01,M,9.00,12.00,CLR,M,M,M,M,M,M,M,M,M,M,M,M,M,M,81.13,KCXP 300215Z AUTO 20006G12KT 9SM CLR 29/M03 A3001 RMK AO2,M
RTS,2021-08-30 02:15,-119.8764,39.6682,1539.00,82.40,15.80,8.20,270.00,7.00,0.00,30.03,M,10.00,M,CLR,M,M,M,M,M,M,M,M,M,M,M,M,M,M,79.28,KRTS 300215Z AUTO 27007KT 10SM CLR 28/M09 A3003 RMK AO2,M
MEV,2021-08-30 02:15,-119.7500,38.9963,1441.42,82.40,26.60,12.97,280.00,8.00,0.00,30.00,M,6.00,14.00,CLR,M,M,M,M,M,M,M,HZ,M,M,M,M,M,M,79.92,KMEV 300215Z AUTO 28008G14KT 6SM HZ CLR 28/M03 A3000 RMK AO2,M
TMT,2021-08-30 02:15,-117.1971,39.4643,1749.34,72.00,22.80,15.62,90.00,8.00,0.00,30.06,M,10.00,M,CLR,M,M,M,M,M,M,M,M,M,M,M,M,M,M,72.00,KTMT 300215Z AUTO 09008KT 10SM CLR 22/M05 A3006 RMK AO2 T02221051,M
BVU,2021-08-30 02:35,-114.8611,35.9475,671.00,100.40,46.40,16.15,150.00,13.00,0.00,29.74,M,10.00,M,CLR,M,M,M,M,M,M,M,M,M,M,M,M,M,M,96.63,KBVU 300235Z AUTO 15013KT 10SM CLR 38/08 A2974 RMK AO2,M
TMT,2021-08-30 02:35,-117.1971,39.4643,1749.34,72.30,21.70,14.76,90.00,5.00,0.00,30.06,M,10.00,M,CLR,M,M,M,M,M,M,M,M,M,M,M,M,M,M,72.30,KTMT 300235Z AUTO 09005KT 10SM CLR 22/M06 A3006 RMK AO2 T02241057,M
HTH,2021-08-30 02:35,-118.6315,38.5448,1282.89,87.80,26.60,10.91,360.00,13.00,0.00,29.93,M,3.00,M,FEW,M,M,M,3900.00,M,M,M,HZ,M,M,M,M,M,M,83.69,KHTH 300235Z AUTO 36013KT 3SM HZ FEW039 31/M03 A2993 RMK A01,M
BAM,2021-08-30 02:35,-116.8743,40.5990,1382.36,80.60,17.60,9.40,260.00,7.00,0.00,29.94,M,10.00,M,CLR,M,M,M,M,M,M,M,M,M,M,M,M,M,M,78.45,KBAM 300235Z AUTO 26007KT 10SM CLR 27/M08 A2994 RMK AO1,M
MEV,2021-08-30 02:35,-119.7500,38.9963,1441.42,80.60,28.40,14.81,260.00,6.00,0.00,30.01,M,6.00,M,BKN,BKN,BKN,M,4800.00,5500.00,6500.00,M,HZ,M,M,M,M,M,M,78.72,KMEV 300235Z AUTO 26006KT 6SM HZ BKN048 BKN055 BKN065 27/M02 A3001 RMK AO2,M
RTS,2021-08-30 02:35,-119.8764,39.6682,1539.00,80.60,15.80,8.70,270.00,8.00,0.00,30.03,M,10.00,M,CLR,M,M,M,M,M,M,M,M,M,M,M,M,M,M,78.35,KRTS 300235Z AUTO 27008KT 10SM CLR 27/M09 A3003 RMK AO2,M
CXP,2021-08-30 02:35,-119.7326,39.1923,1431.00,82.40,26.60,12.97,M,4.00,0.00,30.01,M,8.00,M,CLR,M,M,M,M,M,M,M,M,M,M,M,M,M,M,79.92,KCXP 300235Z AUTO VRB04KT 8SM CLR 28/M03 A3001 RMK AO2,M
LOL,2021-08-30 02:53,-118.5701,40.0684,1192.43,83.00,21.90,10.48,340.00,6.00,0.00,29.89,1008.70,4.00,M,BKN,M,M,M,3800.00,M,M,M,HZ,M,M,M,M,M,M,79.93,KLOL 300253Z AUTO 34006KT 4SM HZ BKN038 28/M06 A2989 RMK AO2 SLP087 T02831056 53004,M
P68,2021-08-30 02:53,-116.0056,39.6014,1993.00,74.00,21.00,13.58,310.00,5.00,0.00,30.06,1010.00,M,M,M,M,M,M,M,M,M,M,M,M,M,M,M,M,M,73.90,KP68 300253Z AUTO 31005KT 23/M06 A3006 RMK AO1 SLP100 T02331061 53009,M
ELY,2021-08-30 02:53,-114.8453,39.2950,1909.00,69.00,17.10,13.52,170.00,10.00,0.00,30.07,1009.90,10.00,M,CLR,M,M,M,M,M,M,M,M,M,M,M,M,M,M,69.10,KELY 300253Z AUTO 17010KT 10SM CLR 21/M08 A3007 RMK AO2 SLP099 T02061083 55001 $,M
VGT,2021-08-30 02:53,-115.1933,36.2111,667.00,103.00,44.00,13.73,120.00,6.00,0.00,29.72,1004.60,10.00,M,CLR,M,M,M,M,M,M,M,M,M,M,M,M,M,M,98.66,KVGT 300253Z 12006KT 10SM CLR 39/07 A2972 RMK AO2 SLP046 T03940067 53003,M
BAM,2021-08-30 02:55,-116.8743,40.5990,1382.36,77.00,15.80,9.79,240.00,6.00,0.00,29.94,M,10.00,M,CLR,M,M,M,M,M,M,M,M,M,M,M,M,M,M,77.00,KBAM 300255Z AUTO 24006KT 10SM CLR 25/M09 A2994 RMK AO1,M
BVU,2021-08-30 02:55,-114.8611,35.9475,671.00,100.40,44.60,15.08,170.00,11.00,0.00,29.75,M,10.00,16.00,CLR,M,M,M,M,M,M,M,M,M,M,M,M,M,M,96.31,KBVU 300255Z AUTO 17011G16KT 10SM CLR 38/07 A2975 RMK AO2,M
CXP,2021-08-30 02:55,-119.7326,39.1923,1431.00,82.40,24.80,12.03,M,4.00,0.00,30.01,M,9.00,11.00,CLR,M,M,M,M,M,M,M,M,M,M,M,M,M,M,79.79,KCXP 300255Z AUTO VRB04G11KT 9SM CLR 28/M04 A3001 RMK AO2,M
RTS,2021-08-30 02:55,-119.8764,39.6682,1539.00,78.80,15.80,9.23,270.00,8.00,0.00,30.04,M,10.00,M,CLR,M,M,M,M,M,M,M,M,M,M,M,M,M,M,78.80,KRTS 300255Z AUTO 27008KT 10SM CLR 26/M09 A3004 RMK AO2,M
HTH,2021-08-30 02:55,-118.6315,38.5448,1282.89,86.00,24.80,10.72,360.00,11.00,0.00,29.94,M,5.00,16.00,BKN,BKN,BKN,M,2200.00,3100.00,4000.00,M,HZ,M,M,M,M,M,M,82.26,KHTH 300255Z AUTO 36011G16KT 5SM HZ BKN022 BKN031 BKN040 30/M04 A2994 RMK A01,M
MEV,2021-08-30 02:55,-119.7500,38.9963,1441.42,77.00,30.20,17.94,220.00,3.00,0.00,30.02,M,7.00,M,SCT,BKN,OVC,M,5000.00,6000.00,7000.00,M,M,M,M,M,M,M,M,77.00,KMEV 300255Z AUTO 22003KT 7SM SCT050 BKN060 OVC070 25/M01 A3002 RMK AO2,M
TMT,2021-08-30 02:55,-117.1971,39.4643,1749.34,69.00,21.20,16.12,0.00,0.00,0.00,30.07,M,10.00,M,CLR,M,M,M,M,M,M,M,M,M,M,M,M,M,M,69.10,KTMT 300255Z AUTO 00000KT 10SM CLR 21/M06 A3007 RMK AO2 T02061060,M
RNO,2021-08-30 02:55,-119.7711,39.4839,1341.00,85.00,21.90,9.83,270.00,7.00,0.00,29.97,1009.40,10.00,M,SCT,M,M,M,0.00,M,M,M,M,M,M,M,M,M,M,81.30,KRNO 300255Z 27007KT 10SM SCT000 29/M06 A2997 RMK AO2 SLP094 FU SCT000 T02941056 53008 $,M
WMC,2021-08-30 02:56,-117.8072,40.9019,1315.00,77.00,19.90,11.68,210.00,6.00,0.00,29.91,1008.90,7.00,M,FEW,M,M,M,5000.00,M,M,M,M,M,M,M,M,M,M,77.00,KWMC 300256Z AUTO 21006KT 7SM FEW050 25/M07 A2991 RMK AO2 SLP089 T02501067 53002 $,M
EKO,2021-08-30 02:56,-115.7860,40.8242,1367.00,76.00,23.00,13.82,0.00,0.00,0.00,29.98,1010.60,9.00,M,CLR,M,M,M,M,M,M,M,M,M,M,M,M,M,M,75.90,KEKO 300256Z AUTO 00000KT 9SM CLR 24/M05 A2998 RMK AO2 SLP106 T02441050 55002,M
NFL,2021-08-30 02:56,-118.7010,39.4166,1199.00,81.00,27.00,13.80,270.00,7.00,0.00,29.90,1010.00,7.00,M,CLR,M,M,M,M,M,M,M,M,M,M,M,M,M,M,78.96,KNFL 300256Z AUTO 27007KT 7SM CLR 27/M03 A2990 RMK AO2 SLP100 T02721028 53004,M
TPH,2021-08-30 02:56,-117.0904,38.0505,1654.00,81.00,18.00,9.44,360.00,3.00,0.00,30.00,1008.10,10.00,M,CLR,M,M,M,M,M,M,M,M,M,M,M,M,M,M,78.46,KTPH 300256Z AUTO 36003KT 10SM CLR 27/M08 A3000 RMK AO2 SLP081 T02721078 55002 $,M
LAS,2021-08-30 02:56,-115.1634,36.0719,663.00,102.00,44.00,14.10,170.00,10.00,0.00,29.74,1003.70,10.00,14.00,FEW,FEW,M,M,12000.00,20000.00,M,M,M,M,M,M,M,M,M,97.79,KLAS 300256Z 17010G14KT 10SM FEW120 FEW200 39/07 A2974 RMK AO2 SLP037 T03890067 53004,M
HND,2021-08-30 02:56,-115.1344,35.9729,742.79,98.00,50.00,19.82,160.00,17.00,0.00,29.78,1006.50,10.00,22.00,CLR,M,M,M,M,M,M,M,M,M,M,M,M,M,M,95.04,KHND 300256Z 16017G22KT 10SM CLR 37/10 A2978 RMK AO2 SLP065 T03670100 53006,M
LSV,2021-08-30 02:58,-115.0343,36.2362,570.00,102.60,44.20,13.91,130.00,8.00,0.00,29.70,1002.70,10.00,M,CLR,M,M,M,M,M,M,M,M,M,M,M,M,M,M,98.39,KLSV 300258Z AUTO 13008KT 10SM CLR 39/07 A2970 RMK AO2 SLP027 T03920068 53002 $,M
INS,2021-08-30 02:58,-115.6733,36.5872,955.00,96.30,22.10,6.93,230.00,7.00,0.00,29.82,1004.20,10.00,M,CLR,M,M,M,M,M,M,M,M,M,M,M,M,M,M,89.76,KINS 300258Z AUTO 23007KT 10SM CLR 36/M05 A2982 RMK AO2 SLP042 T03571055 53005 $,M
MEV,2021-08-30 03:15,-119.7500,38.9963,1441.42,77.00,28.40,16.67,270.00,5.00,0.00,30.02,M,7.00,M,BKN,OVC,M,M,5500.00,6500.00,M,M,M,M,M,M,M,M,M,77.00,KMEV 300315Z AUTO 27005KT 7SM BKN055 OVC065 25/M02 A3002 RMK AO2,M
RTS,2021-08-30 03:15,-119.8764,39.6682,1539.00,75.20,15.80,10.40,260.00,5.00,0.00,30.05,M,10.00,M,CLR,M,M,M,M,M,M,M,M,M,M,M,M,M,M,75.20,KRTS 300315Z AUTO 26005KT 10SM CLR 24/M09 A3005 RMK AO2,M
TMT,2021-08-30 03:15,-117.1971,39.4643,1749.34,64.60,21.20,18.83,160.00,5.00,0.00,30.07,M,10.00,M,CLR,M,M,M,M,M,M,M,M,M,M,M,M,M,M,64.60,KTMT 300315Z AUTO 16005KT 10SM CLR 18/M06 A3007 RMK AO2 T01811060,M
BAM,2021-08-30 03:15,-116.8743,40.5990,1382.36,75.20,14.00,9.61,240.00,7.00,0.00,29.95,M,10.00,M,CLR,M,M,M,M,M,M,M,M,M,M,M,M,M,M,75.20,KBAM 300315Z AUTO 24007KT 10SM CLR 24/M10 A2995 RMK AO1,M
HTH,2021-08-30 03:15,-118.6315,38.5448,1282.89,86.00,26.60,11.55,350.00,10.00,0.00,29.95,M,5.00,M,OVC,M,M,M,2100.00,M,M,M,HZ,M,M,M,M,M,M,82.39,KHTH 300315Z AUTO 35010KT 5SM HZ OVC021 30/M03 A2995 RMK A01,M
CXP,2021-08-30 03:15,-119.7326,39.1923,1431.00,80.60,26.60,13.75,0.00,0.00,0.00,30.02,M,10.00,M,FEW,M,M,M,8000.00,M,M,M,M,M,M,M,M,M,M,78.68,KCXP 300315Z AUTO 00000KT 10SM FEW080 27/M03 A3002 RMK AO2,M
BVU,2021-08-30 03:15,-114.8611,35.9475,671.00,98.60,46.40,17.05,220.00,5.00,0.00,29.76,M,10.00,13.00,CLR,M,M,M,M,M,M,M,M,M,M,M,M,M,M,94.84,KBVU 300315Z AUTO 22005G13KT 10SM CLR 37/08 A2976 RMK AO2,M
BAM,2021-08-30 03:35,-116.8743,40.5990,1382.36,71.60,15.80,11.74,210.00,7.00,0.00,29.95,M,10.00,M,CLR,M,M,M,M,M,M,M,M,M,M,M,M,M,M,71.60,KBAM 300335Z AUTO 21007KT 10SM CLR 22/M09 A2995 RMK AO1,M
HTH,2021-08-30 03:35,-118.6315,38.5448,1282.89,84.20,28.40,13.18,350.00,9.00,0.00,29.95,M,5.00,M,OVC,M,M,M,2100.00,M,M,M,HZ,M,M,M,M,M,M,81.25,KHTH 300335Z AUTO 35009KT 5SM HZ OVC021 29/M02 A2995 RMK A01,M
BVU,2021-08-30 03:35,-114.8611,35.9475,671.00,98.60,44.60,15.93,250.00,14.00,0.00,29.77,M,10.00,M,CLR,M,M,M,M,M,M,M,M,M,M,M,M,M,M,94.55,KBVU 300335Z AUTO 25014KT 10SM CLR 37/07 A2977 RMK AO2,M
TMT,2021-08-30 03:35,-117.1971,39.4643,1749.34,62.20,20.10,19.55,150.00,5.00,0.00,30.08,M,10.00,M,CLR,M,M,M,M,M,M,M,M,M,M,M,M,M,M,62.20,KTMT 300335Z AUTO 15005KT 10SM CLR 17/M07 A3008 RMK AO2 T01681066,M
CXP,2021-08-30 03:35,-119.7326,39.1923,1431.00,75.20,24.80,15.25,M,4.00,0.00,30.03,M,10.00,M,FEW,FEW,M,M,8000.00,9000.00,M,M,M,M,M,M,M,M,M,75.20,KCXP 300335Z AUTO VRB04KT 10SM FEW080 FEW090 24/M04 A3003 RMK AO2,M
RTS,2021-08-30 03:35,-119.8764,39.6682,1539.00,75.20,15.80,10.40,240.00,7.00,0.00,30.06,M,10.00,M,CLR,M,M,M,M,M,M,M,M,M,M,M,M,M,M,75.20,KRTS 300335Z AUTO 24007KT 10SM CLR 24/M09 A3006 RMK AO2,M
MEV,2021-08-30 03:35,-119.7500,38.9963,1441.42,77.00,28.40,16.67,270.00,9.00,0.00,30.02,M,7.00,M,SCT,OVC,M,M,5000.00,6000.00,M,M,M,M,M,M,M,M,M,77.00,KMEV 300335Z AUTO 27009KT 7SM SCT050 OVC060 25/M02 A3002 RMK AO2,M
MEV,2021-08-30 03:45,-119.7500,38.9963,1441.42,77.00,30.20,17.94,240.00,9.00,0.00,30.03,M,7.00,M,FEW,BKN,OVC,M,4500.00,5000.00,6000.00,M,M,M,M,M,M,M,M,77.00,KMEV 300345Z AUTO 24009KT 7SM FEW045 BKN050 OVC060 25/M01 A3003 RMK AO2,M
ELY,2021-08-30 03:53,-114.8453,39.2950,1909.00,64.00,18.00,16.77,180.00,10.00,0.00,30.09,1009.50,10.00,M,CLR,M,M,M,M,M,M,M,M,M,M,M,M,M,M,64.00,KELY 300353Z AUTO 18010KT 10SM CLR 18/M08 A3009 RMK AO2 SLP095 T01781078 $,M
LOL,2021-08-30 03:53,-118.5701,40.0684,1192.43,73.00,25.00,16.56,160.00,7.00,0.00,29.91,1009.20,4.00,M,FEW,M,M,M,4400.00,M,M,M,HZ,M,M,M,M,M,M,73.00,KLOL 300353Z AUTO 16007KT 4SM HZ FEW044 23/M04 A2991 RMK AO2 SLP092 T02281039,M
VGT,2021-08-30 03:53,-115.1933,36.2111,667.00,100.00,49.00,17.96,180.00,12.00,0.00,29.74,1005.40,10.00,M,CLR,M,M,M,M,M,M,M,M,M,M,M,M,M,M,96.75,KVGT 300353Z AUTO 18012KT 10SM CLR 38/09 A2974 RMK AO2 SLP054 T03780094,M
P68,2021-08-30 03:53,-116.0056,39.6014,1993.00,63.00,27.00,25.38,120.00,7.00,0.00,30.08,1011.50,M,M,M,M,M,M,M,M,M,M,M,M,M,M,M,M,M,63.00,KP68 300353Z AUTO 12007KT 17/M03 A3008 RMK AO1 SLP115 T01721028,M
CXP,2021-08-30 03:55,-119.7326,39.1923,1431.00,73.40,24.80,16.20,120.00,5.00,0.00,30.03,M,10.00,M,FEW,BKN,BKN,M,6500.00,8000.00,8500.00,M,M,M,M,M,M,M,M,73.40,KCXP 300355Z AUTO 12005KT 10SM FEW065 BKN080 BKN085 23/M04 A3003 RMK AO2,M
RNO,2021-08-30 03:55,-119.7711,39.4839,1341.00,80.00,23.00,12.03,260.00,3.00,0.00,30.00,1010.50,10.00,M,CLR,M,M,M,M,M,M,M,M,M,M,M,M,M,M,78.29,KRNO 300355Z 26003KT 10SM CLR 27/M05 A3000 RMK AO2 SLP105 HZ FU ALQDS T02671050 $,M
BVU,2021-08-30 03:55,-114.8611,35.9475,671.00,96.80,46.40,18.02,220.00,11.00,0.00,29.79,M,10.00,M,CLR,M,M,M,M,M,M,M,M,M,M,M,M,M,M,93.05,KBVU 300355Z AUTO 22011KT 10SM CLR 36/08 A2979 RMK AO2,M
HTH,2021-08-30 03:55,-118.6315,38.5448,1282.89,84.20,30.20,14.18,340.00,10.00,0.00,29.96,M,5.00,M,OVC,M,M,M,2100.00,M,M,M,HZ,M,M,M,M,M,M,81.26,KHTH 300355Z AUTO 34010KT 5SM HZ OVC021 29/M01 A2996 RMK A01,M
TMT,2021-08-30 03:55,-117.1971,39.4643,1749.34,59.70,18.00,19.53,150.00,9.00,0.00,30.08,M,10.00,M,CLR,M,M,M,M,M,M,M,M,M,M,M,M,M,M,59.70,KTMT 300355Z AUTO 15009KT 10SM CLR 15/M08 A3008 RMK AO2 T01541078,M
BAM,2021-08-30 03:55,-116.8743,40.5990,1382.36,73.40,14.00,10.21,0.00,0.00,0.00,29.96,M,10.00,M,CLR,M,M,M,M,M,M,M,M,M,M,M,M,M,M,73.40,KBAM 300355Z AUTO 00000KT 10SM CLR 23/M10 A2996 RMK AO1,M
RTS,2021-08-30 03:55,-119.8764,39.6682,1539.00,73.40,17.60,11.94,240.00,8.00,0.00,30.06,M,10.00,M,CLR,M,M,M,M,M,M,M,M,M,M,M,M,M,M,73.40,KRTS 300355Z AUTO 24008KT 10SM CLR 23/M08 A3006 RMK AO2,M
HND,2021-08-30 03:56,-115.1344,35.9729,742.79,97.00,50.00,20.49,160.00,13.00,0.00,29.80,1007.00,10.00,20.00,CLR,M,M,M,M,M,M,M,M,M,M,M,M,M,M,93.91,KHND 300356Z AUTO 16013G20KT 10SM CLR 36/10 A2980 RMK AO2 SLP070 T03610100,M
EKO,2021-08-30 03:56,-115.7860,40.8242,1367.00,70.00,21.90,16.10,90.00,3.00,0.00,29.99,1011.40,9.00,M,CLR,M,M,M,M,M,M,M,M,M,M,M,M,M,M,70.00,KEKO 300356Z AUTO 09003KT 9SM CLR 21/M06 A2999 RMK AO2 SLP114 T02111056,M
TPH,2021-08-30 03:56,-117.0904,38.0505,1654.00,74.00,14.00,10.04,350.00,6.00,0.00,30.02,1009.00,10.00,M,CLR,M,M,M,M,M,M,M,M,M,M,M,M,M,M,73.90,KTPH 300356Z AUTO 35006KT 10SM CLR 23/M10 A3002 RMK AO2 SLP090 T02331100 $,M
NFL,2021-08-30 03:56,-118.7010,39.4166,1199.00,82.00,23.00,11.31,280.00,8.00,0.00,29.93,1010.80,5.00,M,FEW,M,M,M,4900.00,M,M,M,HZ,M,M,M,M,M,M,79.40,KNFL 300356Z AUTO 28008KT 5SM HZ FEW049 28/M05 A2993 RMK AO2 SLP108 T02781050,M
WMC,2021-08-30 03:56,-117.8072,40.9019,1315.00,71.00,24.10,17.01,0.00,0.00,0.00,29.93,1009.40,6.00,M,OVC,M,M,M,5000.00,M,M,M,HZ,M,M,M,M,M,M,71.10,KWMC 300356Z AUTO 00000KT 6SM HZ OVC050 22/M04 A2993 RMK AO2 SLP094 T02171044 $,M
LAS,2021-08-30 03:56,-115.1634,36.0719,663.00,99.00,48.00,17.90,200.00,9.00,0.00,29.76,1004.50,10.00,19.00,FEW,M,M,M,12000.00,M,M,M,M,M,M,M,27.00,160.00,2021-08-30 03:13,95.54,KLAS 300356Z 20009G19KT 10SM FEW120 37/09 A2976 RMK AO2 PK WND 16027/0313 SLP045 T03720089,M
INS,2021-08-30 03:58,-115.6733,36.5872,955.00,94.30,23.90,7.95,200.00,7.00,0.00,29.84,1004.60,10.00,M,CLR,M,M,M,M,M,M,M,M,M,M,M,M,M,M,88.31,KINS 300358Z AUTO 20007KT 10SM CLR 35/M04 A2984 RMK AO2 SLP046 T03461045 $,M
LSV,2021-08-30 03:58,-115.0343,36.2362,570.00,100.20,49.00,17.85,180.00,19.00,0.00,29.72,1003.40,10.00,24.00,CLR,M,M,M,M,M,M,M,M,M,M,M,M,M,M,96.95,KLSV 300358Z AUTO 18019G24KT 10SM CLR 38/09 A2972 RMK AO2 SLP034 T03790094 $,M
RTS,2021-08-30 04:15,-119.8764,39.6682,1539.00,71.60,15.80,11.74,250.00,7.00,0.00,30.06,M,10.00,M,CLR,M,M,M,M,M,M,M,M,M,M,M,M,M,M,71.60,KRTS 300415Z AUTO 25007KT 10SM CLR 22/M09 A3006 RMK AO2,M
BVU,2021-08-30 04:15,-114.8611,35.9475,671.00,96.80,46.40,18.02,220.00,14.00,0.00,29.80,M,10.00,M,CLR,M,M,M,M,M,M,M,M,M,M,M,M,M,M,93.05,KBVU 300415Z AUTO 22014KT 10SM CLR 36/08 A2980 RMK AO2,M
HTH,2021-08-30 04:15,-118.6315,38.5448,1282.89,82.40,30.20,15.03,310.00,7.00,0.00,29.97,M,6.00,M,BKN,OVC,M,M,2100.00,2600.00,M,M,HZ,M,M,M,M,M,M,79.97,KHTH 300415Z AUTO 31007KT 6SM HZ BKN021 OVC026 28/M01 A2997 RMK A01,M
CXP,2021-08-30 04:15,-119.7326,39.1923,1431.00,73.40,26.60,17.46,0.00,0.00,0.00,30.04,M,10.00,M,FEW,BKN,OVC,M,6500.00,7500.00,8500.00,M,M,M,M,M,M,M,M,73.40,KCXP 300415Z AUTO 00000KT 10SM FEW065 BKN075 OVC085 23/M03 A3004 RMK AO2,M
MEV,2021-08-30 04:15,-119.7500,38.9963,1441.42,71.60,30.20,21.50,130.00,4.00,0.00,30.03,M,7.00,M,SCT,BKN,OVC,M,2200.00,4200.00,8500.00,M,M,M,M,M,M,M,M,71.60,KMEV 300415Z AUTO 13004KT 7SM SCT022 BKN042 OVC085 22/M01 A3003 RMK AO2,M
BAM,2021-08-30 04:15,-116.8743,40.5990,1382.36,69.80,14.00,11.54,0.00,0.00,0.00,29.97,M,10.00,M,CLR,M,M,M,M,M,M,M,M,M,M,M,M,M,M,69.80,KBAM 300415Z AUTO 00000KT 10SM CLR 21/M10 A2997 RMK AO1,M
TMT,2021-08-30 04:15,-117.1971,39.4643,1749.34,62.00,19.20,18.88,150.00,4.00,0.00,30.09,M,10.00,M,CLR,M,M,M,M,M,M,M,M,M,M,M,M,M,M,62.10,KTMT 300415Z AUTO 15004KT 10SM CLR 17/M07 A3009 RMK AO2 T01671071,M
CXP,2021-08-30 04:35,-119.7326,39.1923,1431.00,73.40,26.60,17.46,0.00,0.00,0.00,30.04,M,10.00,M,BKN,OVC,M,M,7500.00,8500.00,M,M,M,M,M,M,M,M,M,73.40,KCXP 300435Z AUTO 00000KT 10SM BKN075 OVC085 23/M03 A3004 RMK AO2,M
BAM,2021-08-30 04:35,-116.8743,40.5990,1382.36,71.60,14.00,10.85,0.00,0.00,0.00,29.97,M,10.00,M,CLR,M,M,M,M,M,M,M,M,M,M,M,M,M,M,71.60,KBAM 300435Z AUTO 00000KT 10SM CLR 22/M10 A2997 RMK AO1,M
TMT,2021-08-30 04:35,-117.1971,39.4643,1749.34,58.60,19.60,21.75,320.00,5.00,0.00,30.09,M,10.00,M,CLR,M,M,M,M,M,M,M,M,M,M,M,M,M,M,58.60,KTMT 300435Z AUTO 32005KT 10SM CLR 15/M07 A3009 RMK AO2 T01481069,M
BVU,2021-08-30 04:35,-114.8611,35.9475,671.00,95.00,48.20,20.38,210.00,15.00,0.00,29.81,M,10.00,M,CLR,M,M,M,M,M,M,M,M,M,M,M,M,M,M,91.56,KBVU 300435Z AUTO 21015KT 10SM CLR 35/09 A2981 RMK AO2,M
RTS,2021-08-30 04:35,-119.8764,39.6682,1539.00,71.60,15.80,11.74,240.00,7.00,0.00,30.07,M,10.00,M,CLR,M,M,M,M,M,M,M,M,M,M,M,M,M,M,71.60,KRTS 300435Z AUTO 24007KT 10SM CLR 22/M09 A3007 RMK AO2,M
HTH,2021-08-30 04:35,-118.6315,38.5448,1282.89,82.40,32.00,16.17,300.00,6.00,0.00,29.97,M,6.00,M,OVC,M,M,M,2000.00,M,M,M,HZ,M,M,M,M,M,M,80.00,KHTH 300435Z AUTO 30006KT 6SM HZ OVC020 28/M00 A2997 RMK A01,M
MEV,2021-08-30 04:35,-119.7500,38.9963,1441.42,68.00,33.80,28.11,110.00,7.00,0.00,30.03,M,6.00,M,FEW,BKN,OVC,M,2000.00,2800.00,9000.00,M,HZ,M,M,M,M,M,M,68.00,KMEV 300435Z AUTO 11007KT 6SM HZ FEW020 BKN028 OVC090 20/01 A3003 RMK AO2,M
P68,2021-08-30 04:53,-116.0056,39.6014,1993.00,59.00,25.00,26.92,230.00,7.00,0.00,30.09,1011.90,M,M,M,M,M,M,M,M,M,M,M,M,M,M,M,M,M,59.00,KP68 300453Z AUTO 23007KT 15/M04 A3009 RMK AO1 SLP119 T01501039,M
ELY,2021-08-30 04:53,-114.8453,39.2950,1909.00,60.00,19.90,20.88,160.00,7.00,0.00,30.10,1009.50,10.00,M,CLR,M,M,M,M,M,M,M,M,M,M,M,M,M,M,60.10,KELY 300453Z AUTO 16007KT 10SM CLR 16/M07 A3010 RMK AO2 SLP095 T01561067 $,M
VGT,2021-08-30 04:53,-115.1933,36.2111,667.00,98.00,48.00,18.39,180.00,11.00,0.00,29.76,1005.80,10.00,16.00,CLR,M,M,M,M,M,M,M,M,M,M,M,M,M,M,94.63,KVGT 300453Z AUTO 18011G16KT 10SM CLR 37/09 A2976 RMK AO2 SLP058 T03670089,M
LOL,2021-08-30 04:53,-118.5701,40.0684,1192.43,73.00,25.00,16.56,0.00,0.00,0.00,29.92,1009.30,4.00,M,BKN,M,M,M,12000.00,M,M,M,HZ,M,M,M,M,M,M,73.00,KLOL 300453Z AUTO 00000KT 4SM HZ BKN120 23/M04 A2992 RMK AO2 SLP093 T02281039,M
BVU,2021-08-30 04:55,-114.8611,35.9475,671.00,91.40,50.00,24.37,230.00,11.00,0.00,29.81,M,10.00,M,CLR,M,M,M,M,M,M,M,M,M,M,M,M,M,M,88.36,KBVU 300455Z AUTO 23011KT 10SM CLR 33/10 A2981 RMK AO2,M
CXP,2021-08-30 04:55,-119.7326,39.1923,1431.00,71.60,24.80,17.22,340.00,5.00,0.00,30.04,M,10.00,M,OVC,M,M,M,7000.00,M,M,M,M,M,M,M,M,M,M,71.60,KCXP 300455Z AUTO 34005KT 10SM OVC070 22/M04 A3004 RMK AO2,M
BAM,2021-08-30 04:55,-116.8743,40.5990,1382.36,71.60,14.00,10.85,240.00,3.00,0.00,29.97,M,10.00,M,CLR,M,M,M,M,M,M,M,M,M,M,M,M,M,M,71.60,KBAM 300455Z AUTO 24003KT 10SM CLR 22/M10 A2997 RMK AO1,M
MEV,2021-08-30 04:55,-119.7500,38.9963,1441.42,66.20,30.20,25.88,120.00,9.00,0.00,30.03,M,5.00,M,BKN,BKN,OVC,M,3000.00,3500.00,9500.00,M,HZ,M,M,M,M,M,M,66.20,KMEV 300455Z AUTO 12009KT 5SM HZ BKN030 BKN035 OVC095 19/M01 A3003 RMK AO2,M
RTS,2021-08-30 04:55,-119.8764,39.6682,1539.00,71.60,15.80,11.74,0.00,0.00,0.00,30.07,M,10.00,M,CLR,M,M,M,M,M,M,M,M,M,M,M,M,M,M,71.60,KRTS 300455Z AUTO 00000KT 10SM CLR 22/M09 A3007 RMK AO2,M
RNO,2021-08-30 04:55,-119.7711,39.4839,1341.00,79.00,21.00,11.46,310.00,12.00,0.00,29.99,1010.00,10.00,M,CLR,M,M,M,M,M,M,M,M,M,M,M,M,M,M,79.00,KRNO 300455Z 31012KT 10SM CLR 26/M06 A2999 RMK AO2 SLP100 HZ FU ALQDS T02611061 $,M
TMT,2021-08-30 04:55,-117.1971,39.4643,1749.34,58.00,20.30,22.82,0.00,0.00,0.00,30.09,M,10.00,M,CLR,M,M,M,M,M,M,M,M,M,M,M,M,M,M,58.10,KTMT 300455Z AUTO 00000KT 10SM CLR 15/M06 A3009 RMK AO2 T01451065,M
HTH,2021-08-30 04:55,-118.6315,38.5448,1282.89,80.60,30.20,15.94,160.00,5.00,0.00,29.97,M,5.00,M,OVC,M,M,M,2100.00,M,M,M,HZ,M,M,M,M,M,M,78.77,KHTH 300455Z AUTO 16005KT 5SM HZ OVC021 27/M01 A2997 RMK A01,M
HND,2021-08-30 04:56,-115.1344,35.9729,742.79,93.00,52.00,24.97,160.00,24.00,0.00,29.81,1007.30,10.00,28.00,CLR,M,M,M,M,M,M,M,M,M,M,M,31.00,160.00,2021-08-30 04:39,90.29,KHND 300456Z AUTO 16024G28KT 10SM CLR 34/11 A2981 RMK AO2 PK WND 16031/0439 SLP073 T03390111,M
LAS,2021-08-30 04:56,-115.1634,36.0719,663.00,96.00,49.00,20.22,170.00,13.00,0.00,29.77,1004.70,10.00,23.00,FEW,M,M,M,14000.00,M,M,M,M,M,M,M,M,M,M,92.78,KLAS 300456Z 17013G23KT 10SM FEW140 36/09 A2977 RMK AO2 SLP047 FEW V SCT T03560094,M
TPH,2021-08-30 04:56,-117.0904,38.0505,1654.00,70.00,14.00,11.46,350.00,7.00,0.00,30.04,1009.10,10.00,M,CLR,M,M,M,M,M,M,M,M,M,M,M,M,M,M,70.00,KTPH 300456Z AUTO 35007KT 10SM CLR 21/M10 A3004 RMK AO2 SLP091 T02111100 $,M
NFL,2021-08-30 04:56,-118.7010,39.4166,1199.00,74.00,24.10,15.47,270.00,6.00,0.00,29.94,1011.20,4.00,M,BKN,M,M,M,11000.00,M,M,M,HZ,M,M,M,M,M,M,73.90,KNFL 300456Z AUTO 27006KT 4SM HZ BKN110 23/M04 A2994 RMK AO2 SLP112 T02331044,M
EKO,2021-08-30 04:56,-115.7860,40.8242,1367.00,64.00,23.00,20.75,0.00,0.00,0.00,30.00,1011.70,9.00,M,CLR,M,M,M,M,M,M,M,M,M,M,M,M,M,M,64.00,KEKO 300456Z AUTO 00000KT 9SM CLR 18/M05 A3000 RMK AO2 SLP117 T01781050,M
WMC,2021-08-30 04:56,-117.8072,40.9019,1315.00,65.00,21.90,19.19,130.00,3.00,0.00,29.93,1009.10,6.00,M,OVC,M,M,M,6000.00,M,M,M,HZ,M,M,M,M,M,M,64.90,KWMC 300456Z AUTO 13003KT 6SM HZ OVC060 18/M06 A2993 RMK AO2 SLP091 T01831056 $,M
INS,2021-08-30 04:58,-115.6733,36.5872,955.00,88.30,24.80,9.96,10.00,4.00,0.00,29.84,1004.80,10.00,M,CLR,M,M,M,M,M,M,M,M,M,M,M,M,M,M,83.92,KINS 300458Z AUTO 01004KT 10SM CLR 31/M04 A2984 RMK AO2 SLP048 T03131040 $,M
LSV,2021-08-30 04:58,-115.0343,36.2362,570.00,97.70,49.80,19.91,180.00,17.00,0.00,29.73,1003.60,10.00,M,CLR,M,M,M,M,M,M,M,M,M,M,M,29.00,180.00,2021-08-30 04:45,94.59,KLSV 300458Z AUTO 18017KT 10SM CLR 37/10 A2973 RMK AO2 PK WND 18029/45 SLP036 T03650099 $,M
BVU,2021-08-30 05:15,-114.8611,35.9475,671.00,91.40,48.20,22.78,230.00,9.00,0.00,29.81,M,10.00,16.00,CLR,M,M,M,M,M,M,M,M,M,M,M,M,M,M,88.09,KBVU 300515Z AUTO 23009G16KT 10SM CLR 33/09 A2981 RMK AO2,M
BAM,2021-08-30 05:15,-116.8743,40.5990,1382.36,64.40,12.20,12.84,200.00,4.00,0.00,29.97,M,10.00,M,CLR,M,M,M,M,M,M,M,M,M,M,M,M,M,M,64.40,KBAM 300515Z AUTO 20004KT 10SM CLR 18/M11 A2997 RMK AO1,M
MEV,2021-08-30 05:15,-119.7500,38.9963,1441.42,66.20,30.20,25.88,140.00,5.00,0.00,30.03,M,5.00,M,OVC,M,M,M,3000.00,M,M,M,HZ,M,M,M,M,M,M,66.20,KMEV 300515Z AUTO 14005KT 5SM HZ OVC030 19/M01 A3003 RMK AO2,M
HTH,2021-08-30 05:15,-118.6315,38.5448,1282.89,80.60,26.60,13.75,140.00,4.00,0.00,29.98,M,5.00,M,BKN,BKN,BKN,M,2300.00,3500.00,4100.00,M,HZ,M,M,M,M,M,M,78.68,KHTH 300515Z AUTO 14004KT 5SM HZ BKN023 BKN035 BKN041 27/M03 A2998 RMK A01,M
CXP,2021-08-30 05:15,-119.7326,39.1923,1431.00,71.60,24.80,17.22,0.00,0.00,0.00,30.04,M,10.00,M,FEW,OVC,M,M,5500.00,7000.00,M,M,M,M,M,M,M,M,M,71.60,KCXP 300515Z AUTO 00000KT 10SM FEW055 OVC070 22/M04 A3004 RMK AO2,M
RTS,2021-08-30 05:15,-119.8764,39.6682,1539.00,69.80,15.80,12.48,320.00,9.00,0.00,30.07,M,10.00,M,CLR,M,M,M,M,M,M,M,M,M,M,M,M,M,M,69.80,KRTS 300515Z AUTO 32009KT 10SM CLR 21/M09 A3007 RMK AO2,M
TMT,2021-08-30 05:15,-117.1971,39.4643,1749.34,56.50,19.20,23.06,200.00,6.00,0.00,30.09,M,10.00,M,CLR,M,M,M,M,M,M,M,M,M,M,M,M,M,M,56.50,KTMT 300515Z AUTO 20006KT 10SM CLR 14/M07 A3009 RMK AO2 T01361071,M
CXP,2021-08-30 05:35,-119.7326,39.1923,1431.00,71.60,26.60,18.55,0.00,0.00,0.00,30.04,M,10.00,M,OVC,M,M,M,7000.00,M,M,M,M,M,M,M,M,M,M,71.60,KCXP 300535Z AUTO 00000KT 10SM OVC070 22/M03 A3004 RMK AO2,M
RTS,2021-08-30 05:35,-119.8764,39.6682,1539.00,69.80,15.80,12.48,290.00,6.00,0.00,30.07,M,10.00,M,CLR,M,M,M,M,M,M,M,M,M,M,M,M,M,M,69.80,KRTS 300535Z AUTO 29006KT 10SM CLR 21/M09 A3007 RMK AO2,M
MEV,2021-08-30 05:35,-119.7500,38.9963,1441.42,64.40,32.00,29.63,110.00,7.00,0.00,30.04,M,5.00,M,BKN,OVC,M,M,2600.00,3200.00,M,M,HZ,M,M,M,M,M,M,64.40,KMEV 300535Z AUTO 11007KT 5SM HZ BKN026 OVC032 18/00 A3004 RMK AO2,M
BAM,2021-08-30 05:35,-116.8743,40.5990,1382.36,64.40,14.00,13.90,200.00,6.00,0.00,29.98,M,10.00,M,CLR,M,M,M,M,M,M,M,M,M,M,M,M,M,M,64.40,KBAM 300535Z AUTO 20006KT 10SM CLR 18/M10 A2998 RMK AO1,M
HTH,2021-08-30 05:35,-118.6315,38.5448,1282.89,77.00,28.40,16.67,190.00,4.00,0.00,29.98,M,5.00,M,BKN,BKN,BKN,M,2300.00,3500.00,7500.00,M,HZ,M,M,M,M,M,M,77.00,KHTH 300535Z AUTO 19004KT 5SM HZ BKN023 BKN035 BKN075 25/M02 A2998 RMK A01,M
TMT,2021-08-30 05:35,-117.1971,39.4643,1749.34,53.80,19.00,25.22,170.00,5.00,0.00,30.10,M,10.00,M,CLR,M,M,M,M,M,M,M,M,M,M,M,M,M,M,53.80,KTMT 300535Z AUTO 17005KT 10SM CLR 12/M07 A3010 RMK AO2 T01211072,M
BVU,2021-08-30 05:35,-114.8611,35.9475,671.00,91.40,48.20,22.78,230.00,8.00,0.00,29.82,M,10.00,M,CLR,M,M,M,M,M,M,M,M,M,M,M,M,M,M,88.09,KBVU 300535Z AUTO 23008KT 10SM CLR 33/09 A2982 RMK AO2,M
LOL,2021-08-30 05:53,-118.5701,40.0684,1192.43,75.00,19.00,12.02,240.00,8.00,0.00,29.93,1008.90,7.00,M,OVC,M,M,M,11000.00,M,M,M,M,M,M,M,M,M,M,75.00,KLOL 300553Z AUTO 24008KT 7SM OVC110 24/M07 A2993 RMK AO2 SLP089 T02391072 10361 20194 51010,M
VGT,2021-08-30 05:53,-115.1933,36.2111,667.00,96.00,50.00,21.07,170.00,9.00,0.00,29.77,1006.30,10.00,M,CLR,M,M,M,M,M,M,M,M,M,M,M,M,M,M,93.00,KVGT 300553Z AUTO 17009KT 10SM CLR 36/10 A2977 RMK AO2 SLP063 T03560100 10422 20356 51016,M
P68,2021-08-30 05:53,-116.0056,39.6014,1993.00,59.00,19.90,21.72,180.00,6.00,0.00,30.09,1011.20,M,M,M,M,M,M,M,M,M,M,M,M,M,M,M,M,M,59.00,KP68 300553Z AUTO 18006KT 15/M07 A3009 RMK AO1 SLP112 T01501067 10328 20144 50010,M
ELY,2021-08-30 05:53,-114.8453,39.2950,1909.00,59.00,19.90,21.72,240.00,4.00,0.00,30.11,1009.00,10.00,M,CLR,M,M,M,M,M,M,M,M,M,M,M,M,M,M,59.00,KELY 300553Z AUTO 24004KT 10SM CLR 15/M07 A3011 RMK AO2 SLP090 T01501067 10311 20139 51012 $,M
BVU,2021-08-30 05:55,-114.8611,35.9475,671.00,89.60,48.20,24.11,240.00,6.00,0.00,29.81,M,10.00,M,CLR,M,M,M,M,M,M,M,M,M,M,M,M,M,M,86.44,KBVU 300555Z AUTO 24006KT 10SM CLR 32/09 A2981 RMK AO2,M
BAM,2021-08-30 05:55,-116.8743,40.5990,1382.36,66.20,14.00,13.06,200.00,4.00,0.00,29.98,M,10.00,M,CLR,M,M,M,M,M,M,M,M,M,M,M,M,M,M,66.20,KBAM 300555Z AUTO 20004KT 10SM CLR 19/M10 A2998 RMK AO1,M
MEV,2021-08-30 05:55,-119.7500,38.9963,1441.42,62.60,32.00,31.56,120.00,8.00,0.00,30.03,M,5.00,M,BKN,OVC,M,M,2500.00,3100.00,M,M,HZ,M,M,M,M,M,M,62.60,KMEV 300555Z AUTO 12008KT 5SM HZ BKN025 OVC031 17/00 A3003 RMK AO2,M
RTS,2021-08-30 05:55,-119.8764,39.6682,1539.00,66.20,17.60,15.27,10.00,7.00,0.00,30.07,M,10.00,M,CLR,M,M,M,M,M,M,M,M,M,M,M,M,M,M,66.20,KRTS 300555Z AUTO 01007KT 10SM CLR 19/M08 A3007 RMK AO2,M
CXP,2021-08-30 05:55,-119.7326,39.1923,1431.00,69.80,24.80,18.30,0.00,0.00,0.00,30.04,M,10.00,M,BKN,OVC,M,M,7500.00,8500.00,M,M,M,M,M,M,M,M,M,69.80,KCXP 300555Z AUTO 00000KT 10SM BKN075 OVC085 21/M04 A3004 RMK AO2,M
RNO,2021-08-30 05:55,-119.7711,39.4839,1341.00,78.00,21.90,12.26,0.00,0.00,0.00,30.01,1010.10,10.00,M,CLR,M,M,M,M,M,M,M,M,M,M,M,M,M,M,78.10,KRNO 300555Z 00000KT 10SM CLR 26/M06 A3001 RMK AO2 SLP101 HZ FU ALQDS T02561056 10344 20244 51012 $,M
TMT,2021-08-30 05:55,-117.1971,39.4643,1749.34,54.00,19.20,25.16,260.00,4.00,0.00,30.10,M,10.00,M,CLR,M,M,M,M,M,M,M,M,M,M,M,M,M,M,54.10,KTMT 300555Z AUTO 26004KT 10SM CLR 12/M07 A3010 RMK AO2 T01231071 10318 20117,M
HTH,2021-08-30 05:55,-118.6315,38.5448,1282.89,75.20,26.60,16.43,0.00,0.00,0.00,29.98,M,5.00,M,SCT,SCT,BKN,M,2300.00,2900.00,4100.00,M,HZ,M,M,M,M,M,M,75.20,KHTH 300555Z AUTO 00000KT 5SM HZ SCT023 SCT029 BKN041 24/M03 A2998 RMK A01,M
EKO,2021-08-30 05:56,-115.7860,40.8242,1367.00,61.00,24.10,24.15,60.00,5.00,0.00,30.00,1011.10,9.00,M,CLR,M,M,M,M,M,M,M,M,M,M,M,M,M,M,61.00,KEKO 300556Z AUTO 06005KT 9SM CLR 16/M04 A3000 RMK AO2 SLP111 T01611044 10322 20133 50007,M
NFL,2021-08-30 05:56,-118.7010,39.4166,1199.00,77.00,21.90,12.72,310.00,5.00,0.00,29.95,1011.40,5.00,M,OVC,M,M,M,10000.00,M,M,M,HZ,M,M,M,M,M,M,77.00,KNFL 300556Z AUTO 31005KT 5SM HZ OVC100 25/M06 A2995 RMK AO2 SLP114 T02501056 10356 20233 51014,M
WMC,2021-08-30 05:56,-117.8072,40.9019,1315.00,67.00,19.90,16.45,180.00,10.00,0.00,29.94,1008.80,9.00,M,BKN,M,M,M,5000.00,M,M,M,M,M,M,M,M,M,M,66.90,KWMC 300556Z AUTO 18010KT 9SM BKN050 19/M07 A2994 RMK AO2 SLP088 T01941067 10350 20172 51007 $,M
HND,2021-08-30 05:56,-115.1344,35.9729,742.79,92.00,50.00,23.99,170.00,18.00,0.00,29.82,1007.60,10.00,M,CLR,M,M,M,M,M,M,M,M,M,M,M,27.00,160.00,2021-08-30 05:37,88.84,KHND 300556Z AUTO 17018KT 10SM CLR 33/10 A2982 RMK AO2 PK WND 16027/0537 SLP076 T03330100 10411 20333 51012,M
LAS,2021-08-30 05:56,-115.1634,36.0719,663.00,94.00,48.00,20.92,180.00,11.00,0.00,29.78,1005.10,10.00,21.00,FEW,M,M,M,14000.00,M,M,M,M,M,M,M,M,M,M,90.45,KLAS 300556Z 18011G21KT 10SM FEW140 34/09 A2978 RMK AO2 SLP051 T03440089 10411 20344 51013 $,M
TPH,2021-08-30 05:56,-117.0904,38.0505,1654.00,68.00,15.10,12.88,330.00,5.00,0.00,30.04,1008.90,10.00,M,CLR,M,M,M,M,M,M,M,M,M,M,M,M,M,M,68.00,KTPH 300556Z AUTO 33005KT 10SM CLR 20/M09 A3004 RMK AO2 SLP089 T02001094 10344 20200 51012 $,M
LSV,2021-08-30 05:58,-115.0343,36.2362,570.00,95.20,49.00,20.94,160.00,17.00,0.00,29.75,1004.40,10.00,22.00,CLR,M,M,M,M,M,M,M,M,M,M,M,28.00,170.00,2021-08-30 05:45,91.92,KLSV 300558Z AUTO 16017G22KT 10SM CLR 35/10 A2975 RMK AO2 PK WND 17028/45 SLP044 T03510095 10420 20351 52018 $,M
INS,2021-08-30 05:58,-115.6733,36.5872,955.00,86.70,25.90,10.97,120.00,3.00,0.00,29.85,1005.00,10.00,M,CLR,M,M,M,M,M,M,M,M,M,M,M,M,M,M,82.84,KINS 300558Z AUTO 12003KT 10SM CLR 30/M03 A2985 RMK AO2 SLP050 T03041034 10389 20291 51010 $,M
CXP,2021-08-30 06:15,-119.7326,39.1923,1431.00,69.80,24.80,18.30,320.00,3.00,0.00,30.04,M,10.00,M,SCT,OVC,M,M,7500.00,9000.00,M,M,M,M,M,M,M,M,M,69.80,KCXP 300615Z AUTO 32003KT 10SM SCT075 OVC090 21/M04 A3004 RMK AO2,M
BVU,2021-08-30 06:15,-114.8611,35.9475,671.00,89.60,48.20,24.11,240.00,6.00,0.00,29.81,M,10.00,M,CLR,M,M,M,M,M,M,M,M,M,M,M,M,M,M,86.44,KBVU 300615Z AUTO 24006KT 10SM CLR 32/09 A2981 RMK AO2,M
RTS,2021-08-30 06:15,-119.8764,39.6682,1539.00,68.00,17.60,14.35,350.00,8.00,0.00,30.07,M,10.00,M,CLR,M,M,M,M,M,M,M,M,M,M,M,M,M,M,68.00,KRTS 300615Z AUTO 35008KT 10SM CLR 20/M08 A3007 RMK AO2,M
MEV,2021-08-30 06:15,-119.7500,38.9963,1441.42,62.60,32.00,31.56,120.00,8.00,0.00,30.04,M,5.00,M,FEW,BKN,OVC,M,2500.00,3100.00,3800.00,M,HZ,M,M,M,M,M,M,62.60,KMEV 300615Z AUTO 12008KT 5SM HZ FEW025 BKN031 OVC038 17/M00 A3004 RMK AO2,M
TMT,2021-08-30 06:15,-117.1971,39.4643,1749.34,54.50,21.20,27.00,260.00,6.00,0.00,30.10,M,10.00,M,CLR,M,M,M,M,M,M,M,M,M,M,M,M,M,M,54.50,KTMT 300615Z AUTO 26006KT 10SM CLR 13/M06 A3010 RMK AO2 T01251060,M
BAM,2021-08-30 06:15,-116.8743,40.5990,1382.36,60.80,12.20,14.58,150.00,7.00,0.00,29.98,M,10.00,M,CLR,M,M,M,M,M,M,M,M,M,M,M,M,M,M,60.80,KBAM 300615Z AUTO 15007KT 10SM CLR 16/M11 A2998 RMK AO1,M
HTH,2021-08-30 06:15,-118.6315,38.5448,1282.89,75.20,28.40,17.70,0.00,0.00,0.00,29.98,M,5.00,M,M,M,M,M,M,M,M,M,HZ,M,M,M,M,M,M,75.20,KHTH 300615Z AUTO 00000KT 5SM HZ 24/M02 A2998 RMK A01,M
BVU,2021-08-30 06:35,-114.8611,35.9475,671.00,89.60,48.20,24.11,230.00,6.00,0.00,29.80,M,10.00,M,CLR,M,M,M,M,M,M,M,M,M,M,M,M,M,M,86.44,KBVU 300635Z AUTO 23006KT 10SM CLR 32/09 A2980 RMK AO2,M
MEV,2021-08-30 06:35,-119.7500,38.9963,1441.42,64.40,30.20,27.55,130.00,5.00,0.00,30.04,M,4.00,M,OVC,M,M,M,3500.00,M,M,M,HZ,M,M,M,M,M,M,64.40,KMEV 300635Z AUTO 13005KT 4SM HZ OVC035 18/M01 A3004 RMK AO2,M
CXP,2021-08-30 06:35,-119.7326,39.1923,1431.00,66.20,24.80,20.72,0.00,0.00,0.00,30.04,M,10.00,M,BKN,OVC,M,M,7500.00,9000.00,M,M,M,M,M,M,M,M,M,66.20,KCXP 300635Z AUTO 00000KT 10SM BKN075 OVC090 19/M04 A3004 RMK AO2,M
TMT,2021-08-30 06:35,-117.1971,39.4643,1749.34,53.20,19.40,26.23,280.00,8.00,0.00,30.10,M,10.00,M,CLR,M,M,M,M,M,M,M,M,M,M,M,M,M,M,53.20,KTMT 300635Z AUTO 28008KT 10SM CLR 12/M07 A3010 RMK AO2 T01181070,M
HTH,2021-08-30 06:35,-118.6315,38.5448,1282.89,73.40,24.80,16.20,210.00,5.00,0.00,29.98,M,5.00,M,M,M,M,M,M,M,M,M,HZ,M,M,M,M,M,M,73.40,KHTH 300635Z AUTO 21005KT 5SM HZ 23/M04 A2998 RMK A01,M
BAM,2021-08-30 06:35,-116.8743,40.5990,1382.36,59.00,12.20,15.55,150.00,6.00,0.00,29.97,M,10.00,M,CLR,M,M,M,M,M,M,M,M,M,M,M,M,M,M,59.00,KBAM 300635Z AUTO 15006KT 10SM CLR 15/M11 A2997 RMK AO1,M
RTS,2021-08-30 06:35,-119.8764,39.6682,1539.00,68.00,15.80,13.27,310.00,8.00,0.00,30.07,M,10.00,M,CLR,M,M,M,M,M,M,M,M,M,M,M,M,M,M,68.00,KRTS 300635Z AUTO 31008KT 10SM CLR 20/M09 A3007 RMK AO2,M
LOL,2021-08-30 06:53,-118.5701,40.0684,1192.43,74.00,19.90,12.96,260.00,5.00,0.00,29.93,1008.90,9.00,M,FEW,OVC,M,M,4800.00,11000.00,M,M,M,M,M,M,M,M,M,73.90,KLOL 300653Z AUTO 26005KT 9SM FEW048 OVC110 23/M07 A2993 RMK AO2 SLP089 T02331067,M
VGT,2021-08-30 06:53,-115.1933,36.2111,667.00,93.00,50.00,23.18,130.00,4.00,0.00,29.77,1006.40,10.00,M,CLR,M,M,M,M,M,M,M,M,M,M,M,M,M,M,89.90,KVGT 300653Z AUTO 13004KT 10SM CLR 34/10 A2977 RMK AO2 SLP064 T03390100,M
P68,2021-08-30 06:53,-116.0056,39.6014,1993.00,58.00,21.90,24.59,180.00,7.00,0.00,30.09,1010.70,M,M,M,M,M,M,M,M,M,M,M,M,M,M,M,M,M,57.90,KP68 300653Z AUTO 18007KT 14/M06 A3009 RMK AO1 SLP107 T01441056,M
ELY,2021-08-30 06:53,-114.8453,39.2950,1909.00,56.00,19.00,23.37,160.00,3.00,0.00,30.11,1008.70,10.00,M,CLR,M,M,M,M,M,M,M,M,M,M,M,M,M,M,55.90,KELY 300653Z AUTO 16003KT 10SM CLR 13/M07 A3011 RMK AO2 SLP087 T01331072 $,M
RTS,2021-08-30 06:55,-119.8764,39.6682,1539.00,64.40,15.80,15.04,60.00,5.00,0.00,30.07,M,10.00,M,CLR,M,M,M,M,M,M,M,M,M,M,M,M,M,M,64.40,KRTS 300655Z AUTO 06005KT 10SM CLR 18/M09 A3007 RMK AO2,M
RNO,2021-08-30 06:55,-119.7711,39.4839,1341.00,67.00,27.00,22.15,200.00,3.00,0.00,30.01,1010.40,10.00,M,CLR,M,M,M,M,M,M,M,M,M,M,M,M,M,M,66.90,KRNO 300655Z 20003KT 10SM CLR 19/M03 A3001 RMK AO2 SLP104 T01941028 $,M
BVU,2021-08-30 06:55,-114.8611,35.9475,671.00,87.80,48.20,25.52,250.00,4.00,0.00,29.80,M,10.00,M,CLR,M,M,M,M,M,M,M,M,M,M,M,M,M,M,84.87,KBVU 300655Z AUTO 25004KT 10SM CLR 31/09 A2980 RMK AO2,M
CXP,2021-08-30 06:55,-119.7326,39.1923,1431.00,66.20,24.80,20.72,320.00,3.00,0.00,30.05,M,10.00,M,BKN,OVC,M,M,7500.00,9000.00,M,M,M,M,M,M,M,M,M,66.20,KCXP 300655Z AUTO 32003KT 10SM BKN075 OVC090 19/M04 A3005 RMK AO2,M
TMT,2021-08-30 06:55,-117.1971,39.4643,1749.34,52.00,19.60,27.65,220.00,5.00,0.00,30.10,M,10.00,M,CLR,M,M,M,M,M,M,M,M,M,M,M,M,M,M,52.00,KTMT 300655Z AUTO 22005KT 10SM CLR 11/M07 A3010 RMK AO2 T01111069,M
MEV,2021-08-30 06:55,-119.7500,38.9963,1441.42,62.60,30.20,29.35,110.00,7.00,0.00,30.04,M,4.00,M,OVC,M,M,M,3200.00,M,M,M,HZ,M,M,M,M,M,M,62.60,KMEV 300655Z AUTO 11007KT 4SM HZ OVC032 17/M01 A3004 RMK AO2,M
BAM,2021-08-30 06:55,-116.8743,40.5990,1382.36,60.80,12.20,14.58,200.00,4.00,0.00,29.97,M,10.00,M,CLR,M,M,M,M,M,M,M,M,M,M,M,M,M,M,60.80,KBAM 300655Z AUTO 20004KT 10SM CLR 16/M11 A2997 RMK AO1,M
HTH,2021-08-30 06:55,-118.6315,38.5448,1282.89,73.40,28.40,18.80,210.00,5.00,0.00,29.99,M,5.00,M,FEW,SCT,BKN,M,2400.00,3900.00,4400.00,M,HZ,M,M,M,M,M,M,73.40,KHTH 300655Z AUTO 21005KT 5SM HZ FEW024 SCT039 BKN044 23/M02 A2999 RMK A01,M
EKO,2021-08-30 06:56,-115.7860,40.8242,1367.00,58.00,24.10,26.98,0.00,0.00,0.00,30.01,1011.00,8.00,M,CLR,M,M,M,M,M,M,M,M,M,M,M,M,M,M,57.90,KEKO 300656Z AUTO 00000KT 8SM CLR 14/M04 A3001 RMK AO2 SLP110 T01441044,M
WMC,2021-08-30 06:56,-117.8072,40.9019,1315.00,65.00,19.90,17.63,0.00,0.00,0.00,29.94,1008.60,8.00,M,OVC,M,M,M,5000.00,M,M,M,M,M,M,M,M,M,M,64.90,KWMC 300656Z AUTO 00000KT 8SM OVC050 18/M07 A2994 RMK AO2 SLP086 T01831067 $,M
LAS,2021-08-30 06:56,-115.1634,36.0719,663.00,93.00,50.00,23.18,210.00,10.00,0.00,29.78,1005.20,10.00,19.00,FEW,M,M,M,14000.00,M,M,M,M,M,M,M,M,M,M,89.90,KLAS 300656Z 21010G19KT 10SM FEW140 34/10 A2978 RMK AO2 SLP052 T03390100 $,M
NFL,2021-08-30 06:56,-118.7010,39.4166,1199.00,74.00,23.00,14.77,280.00,6.00,0.00,29.95,1011.60,7.00,M,OVC,M,M,M,9000.00,M,M,M,M,M,M,M,M,M,M,73.90,KNFL 300656Z AUTO 28006KT 7SM OVC090 23/M05 A2995 RMK AO2 SLP116 T02331050,M
TPH,2021-08-30 06:56,-117.0904,38.0505,1654.00,69.00,16.00,12.89,350.00,11.00,0.00,30.05,1008.70,10.00,M,CLR,M,M,M,M,M,M,M,M,M,M,M,M,M,M,69.10,KTPH 300656Z AUTO 35011KT 10SM CLR 21/M09 A3005 RMK AO2 SLP087 T02061089 $,M
HND,2021-08-30 06:56,-115.1344,35.9729,742.79,90.00,50.00,25.46,210.00,12.00,0.00,29.82,1007.50,10.00,M,CLR,M,M,M,M,M,M,M,M,M,M,M,M,M,M,87.06,KHND 300656Z AUTO 21012KT 10SM CLR 32/10 A2982 RMK AO2 SLP075 T03220100 404170283,M
LSV,2021-08-30 06:58,-115.0343,36.2362,570.00,93.60,49.00,21.84,0.00,0.00,0.00,29.76,1004.70,10.00,M,CLR,M,M,M,M,M,M,M,M,M,M,M,M,M,M,90.30,KLSV 300658Z AUTO 00000KT 10SM CLR 34/09 A2976 RMK AO2 SLP047 T03420094 $,M
INS,2021-08-30 06:58,-115.6733,36.5872,955.00,88.00,26.80,10.93,120.00,5.00,0.00,29.84,1004.50,10.00,M,CLR,M,M,M,M,M,M,M,M,M,M,M,M,M,M,83.85,KINS 300658Z AUTO 12005KT 10SM CLR 31/M03 A2984 RMK AO2 SLP045 T03111029 $,M
CXP,2021-08-30 07:15,-119.7326,39.1923,1431.00,66.20,24.80,20.72,350.00,6.00,0.00,30.04,M,10.00,M,BKN,OVC,M,M,7500.00,8500.00,M,M,M,M,M,M,M,M,M,66.20,KCXP 300715Z AUTO 35006KT 10SM BKN075 OVC085 19/M04 A3004 RMK AO2,M
BVU,2021-08-30 07:15,-114.8611,35.9475,671.00,86.00,48.20,27.03,260.00,5.00,0.00,29.79,M,10.00,M,CLR,M,M,M,M,M,M,M,M,M,M,M,M,M,M,83.40,KBVU 300715Z AUTO 26005KT 10SM CLR 30/09 A2979 RMK AO2,M
RTS,2021-08-30 07:15,-119.8764,39.6682,1539.00,59.00,15.80,18.20,0.00,0.00,0.00,30.07,M,10.00,M,CLR,M,M,M,M,M,M,M,M,M,M,M,M,M,M,59.00,KRTS 300715Z AUTO 00000KT 10SM CLR 15/M09 A3007 RMK AO2,M
MEV,2021-08-30 07:15,-119.7500,38.9963,1441.42,60.80,30.20,31.28,110.00,7.00,0.00,30.04,M,5.00,M,SCT,OVC,M,M,400.00,3000.00,M,M,HZ,M,M,M,M,M,M,60.80,KMEV 300715Z AUTO 11007KT 5SM HZ SCT004 OVC030 16/M01 A3004 RMK AO2,M
BAM,2021-08-30 07:15,-116.8743,40.5990,1382.36,59.00,14.00,16.83,240.00,3.00,0.00,29.97,M,10.00,M,CLR,M,M,M,M,M,M,M,M,M,M,M,M,M,M,59.00,KBAM 300715Z AUTO 24003KT 10SM CLR 15/M10 A2997 RMK AO1,M
HTH,2021-08-30 07:15,-118.6315,38.5448,1282.89,73.40,26.60,17.46,220.00,6.00,0.00,29.99,M,6.00,M,FEW,BKN,OVC,M,3100.00,3700.00,4400.00,M,HZ,M,M,M,M,M,M,73.40,KHTH 300715Z AUTO 22006KT 6SM HZ FEW031 BKN037 OVC044 23/M03 A2999 RMK A01,M
TMT,2021-08-30 07:15,-117.1971,39.4643,1749.34,51.80,18.90,27.03,0.00,0.00,0.00,30.10,M,10.00,M,CLR,M,M,M,M,M,M,M,M,M,M,M,M,M,M,51.80,KTMT 300715Z AUTO 00000KT 10SM CLR 11/M07 A3010 RMK AO2 T01101073,M
RTS,2021-08-30 07:35,-119.8764,39.6682,1539.00,60.80,15.80,17.07,0.00,0.00,0.00,30.07,M,10.00,M,CLR,M,M,M,M,M,M,M,M,M,M,M,M,M,M,60.80,KRTS 300735Z AUTO 00000KT 10SM CLR 16/M09 A3007 RMK AO2,M
TMT,2021-08-30 07:35,-117.1971,39.4643,1749.34,50.50,18.70,28.12,0.00,0.00,0.00,30.10,M,10.00,M,CLR,M,M,M,M,M,M,M,M,M,M,M,M,M,M,50.50,KTMT 300735Z AUTO 00000KT 10SM CLR 10/M07 A3010 RMK AO2 T01031074,M
BVU,2021-08-30 07:35,-114.8611,35.9475,671.00,86.00,50.00,28.90,0.00,0.00,0.00,29.79,M,10.00,M,CLR,M,M,M,M,M,M,M,M,M,M,M,M,M,M,83.62,KBVU 300735Z AUTO 00000KT 10SM CLR 30/10 A2979 RMK AO2,M
BAM,2021-08-30 07:35,-116.8743,40.5990,1382.36,60.80,14.00,15.78,210.00,5.00,0.00,29.98,M,10.00,M,CLR,M,M,M,M,M,M,M,M,M,M,M,M,M,M,60.80,KBAM 300735Z AUTO 21005KT 10SM CLR 16/M10 A2998 RMK AO1,M
HTH,2021-08-30 07:35,-118.6315,38.5448,1282.89,73.40,26.60,17.46,230.00,6.00,0.00,29.99,M,6.00,M,FEW,SCT,BKN,M,2800.00,4000.00,6000.00,M,HZ,M,M,M,M,M,M,73.40,KHTH 300735Z AUTO 23006KT 6SM HZ FEW028 SCT040 BKN060 23/M03 A2999 RMK A01,M
CXP,2021-08-30 07:35,-119.7326,39.1923,1431.00,66.20,23.00,19.22,340.00,3.00,0.00,30.05,M,10.00,M,OVC,M,M,M,7500.00,M,M,M,M,M,M,M,M,M,M,66.20,KCXP 300735Z AUTO 34003KT 10SM OVC075 19/M05 A3005 RMK AO2,M
MEV,2021-08-30 07:35,-119.7500,38.9963,1441.42,60.80,30.20,31.28,0.00,0.00,0.00,30.04,M,5.00,M,FEW,SCT,OVC,M,400.00,2700.00,3300.00,M,HZ,M,M,M,M,M,M,60.80,KMEV 300735Z AUTO 00000KT 5SM HZ FEW004 SCT027 OVC033 16/M01 A3004 RMK AO2,M
P68,2021-08-30 07:53,-116.0056,39.6014,1993.00,55.00,21.00,26.29,190.00,6.00,0.00,30.09,1010.30,M,M,M,M,M,M,M,M,M,M,M,M,M,M,M,M,M,55.00,KP68 300753Z AUTO 19006KT 13/M06 A3009 RMK AO1 SLP103 T01281061 403330050,M
VGT,2021-08-30 07:53,-115.1933,36.2111,667.00,92.00,50.00,23.99,350.00,6.00,0.00,29.77,1006.20,10.00,M,CLR,M,M,M,M,M,M,M,M,M,M,M,M,M,M,88.84,KVGT 300753Z AUTO 35006KT 10SM CLR 33/10 A2977 RMK AO2 SLP062 T03330100 404280272,M
ELY,2021-08-30 07:53,-114.8453,39.2950,1909.00,52.00,18.00,25.82,170.00,6.00,0.00,30.11,1009.20,10.00,M,CLR,M,M,M,M,M,M,M,M,M,M,M,M,M,M,52.00,KELY 300753Z AUTO 17006KT 10SM CLR 11/M08 A3011 RMK AO2 SLP092 T01111078 403220044 $,M
LOL,2021-08-30 07:53,-118.5701,40.0684,1192.43,63.00,26.10,24.46,130.00,3.00,0.00,29.94,1009.70,7.00,M,OVC,M,M,M,10000.00,M,M,M,M,M,M,M,M,M,M,63.00,KLOL 300753Z AUTO 13003KT 7SM OVC100 17/M03 A2994 RMK AO2 SLP097 T01721033 403610094,M
MEV,2021-08-30 07:55,-119.7500,38.9963,1441.42,57.20,33.80,41.13,150.00,3.00,0.00,30.04,M,4.00,M,FEW,SCT,BKN,M,400.00,2200.00,2700.00,M,HZ,M,M,M,M,M,M,57.20,KMEV 300755Z AUTO 15003KT 4SM HZ FEW004 SCT022 BKN027 14/01 A3004 RMK AO2,M
HTH,2021-08-30 07:55,-118.6315,38.5448,1282.89,73.40,26.60,17.46,220.00,6.00,0.00,29.99,M,6.00,M,FEW,SCT,M,M,4900.00,6000.00,M,M,HZ,M,M,M,M,M,M,73.40,KHTH 300755Z AUTO 22006KT 6SM HZ FEW049 SCT060 23/M03 A2999 RMK A01,M
BAM,2021-08-30 07:55,-116.8743,40.5990,1382.36,64.40,15.80,15.04,230.00,4.00,0.00,29.98,M,10.00,M,CLR,M,M,M,M,M,M,M,M,M,M,M,M,M,M,64.40,KBAM 300755Z AUTO 23004KT 10SM CLR 18/M09 A2998 RMK AO1,M
RNO,2021-08-30 07:55,-119.7711,39.4839,1341.00,66.00,28.00,23.82,0.00,0.00,0.00,30.01,1010.30,10.00,M,CLR,M,M,M,M,M,M,M,M,M,M,M,M,M,M,66.00,KRNO 300755Z 00000KT 10SM CLR 19/M02 A3001 RMK AO2 SLP103 T01891022 403610117 $,M
CXP,2021-08-30 07:55,-119.7326,39.1923,1431.00,64.40,24.80,22.06,M,3.00,0.00,30.05,M,10.00,M,OVC,M,M,M,7000.00,M,M,M,M,M,M,M,M,M,M,64.40,KCXP 300755Z AUTO VRB03KT 10SM OVC070 18/M04 A3005 RMK AO2,M
TMT,2021-08-30 07:55,-117.1971,39.4643,1749.34,47.80,18.10,30.31,210.00,3.00,0.00,30.11,M,10.00,M,CLR,M,M,M,M,M,M,M,M,M,M,M,M,M,M,46.75,KTMT 300755Z AUTO 21003KT 10SM CLR 09/M08 A3011 RMK AO2 T00881077 403360007,M
RTS,2021-08-30 07:55,-119.8764,39.6682,1539.00,55.40,15.80,20.73,330.00,4.00,0.00,30.07,M,10.00,M,CLR,M,M,M,M,M,M,M,M,M,M,M,M,M,M,55.40,KRTS 300755Z AUTO 33004KT 10SM CLR 13/M09 A3007 RMK AO2,M
BVU,2021-08-30 07:55,-114.8611,35.9475,671.00,84.20,48.20,28.63,290.00,5.00,0.00,29.79,M,10.00,M,CLR,M,M,M,M,M,M,M,M,M,M,M,M,M,M,82.04,KBVU 300755Z AUTO 29005KT 10SM CLR 29/09 A2979 RMK AO2,M
EKO,2021-08-30 07:56,-115.7860,40.8242,1367.00,56.00,21.90,26.43,60.00,6.00,0.00,30.02,1011.20,8.00,M,CLR,M,M,M,M,M,M,M,M,M,M,M,M,M,M,55.90,KEKO 300756Z AUTO 06006KT 8SM CLR 13/M06 A3002 RMK AO2 SLP112 T01331056 403280078,M
NFL,2021-08-30 07:56,-118.7010,39.4166,1199.00,67.00,25.00,20.39,130.00,4.00,0.00,29.96,1011.60,8.00,M,BKN,OVC,M,M,6500.00,8000.00,M,M,M,M,M,M,M,M,M,66.90,KNFL 300756Z AUTO 13004KT 8SM BKN065 OVC080 19/M04 A2996 RMK AO2 SLP116 T01941039 403560106,M
LAS,2021-08-30 07:56,-115.1634,36.0719,663.00,92.00,49.00,23.03,150.00,5.00,0.00,29.79,1005.20,10.00,M,CLR,M,M,M,M,M,M,M,M,M,M,M,M,M,M,88.66,KLAS 300756Z 15005KT 10SM CLR 33/09 A2979 RMK AO2 SLP052 T03330094 404220294 $,M
HND,2021-08-30 07:56,-115.1344,35.9729,742.79,90.00,50.00,25.46,180.00,9.00,0.00,29.82,1007.50,10.00,M,CLR,M,M,M,M,M,M,M,M,M,M,M,M,M,M,87.06,KHND 300756Z AUTO 18009KT 10SM CLR 32/10 A2982 RMK AO2 SLP075 T03220100,M
WMC,2021-08-30 07:56,-117.8072,40.9019,1315.00,59.00,23.00,24.76,0.00,0.00,0.00,29.95,1009.20,9.00,M,BKN,M,M,M,5500.00,M,M,M,M,M,M,M,M,M,M,59.00,KWMC 300756Z AUTO 00000KT 9SM BKN055 15/M05 A2995 RMK AO2 SLP092 T01501050 403610061 $,M
TPH,2021-08-30 07:56,-117.0904,38.0505,1654.00,67.00,15.10,13.37,M,3.00,0.00,30.06,1008.80,10.00,M,CLR,M,M,M,M,M,M,M,M,M,M,M,M,M,M,66.90,KTPH 300756Z AUTO VRB03KT 10SM CLR 19/M09 A3006 RMK AO2 SLP088 T01941094 403500139 $,M
INS,2021-08-30 07:58,-115.6733,36.5872,955.00,78.00,26.40,14.90,210.00,5.00,0.00,29.85,1005.10,10.00,M,CLR,M,M,M,M,M,M,M,M,M,M,M,M,M,M,77.90,KINS 300758Z AUTO 21005KT 10SM CLR 26/M03 A2985 RMK AO2 SLP051 T02551031 403960208 $,M
LSV,2021-08-30 07:58,-115.0343,36.2362,570.00,88.70,50.40,26.93,60.00,6.00,0.00,29.75,1004.40,10.00,M,CLR,M,M,M,M,M,M,M,M,M,M,M,M,M,M,85.95,KLSV 300758Z AUTO 06006KT 10SM CLR 32/10 A2975 RMK AO2 SLP044 T03150102 404230255 $,M
CXP,2021-08-30 08:10,-119.7326,39.1923,1431.00,64.40,24.80,22.06,0.00,0.00,0.00,30.04,M,10.00,M,OVC,M,M,M,7000.00,M,M,M,M,M,M,M,M,M,M,64.40,KCXP 300810Z AUTO 00000KT 10SM OVC070 18/M04 A3004 RMK AO2,M
RTS,2021-08-30 08:15,-119.8764,39.6682,1539.00,55.40,15.80,20.73,340.00,5.00,0.00,30.07,M,10.00,M,CLR,M,M,M,M,M,M,M,M,M,M,M,M,M,M,55.40,KRTS 300815Z AUTO 34005KT 10SM CLR 13/M09 A3007 RMK AO2,M
MEV,2021-08-30 08:15,-119.7500,38.9963,1441.42,55.40,33.80,43.90,110.00,6.00,0.00,30.04,M,5.00,M,OVC,M,M,M,2300.00,M,M,M,HZ,M,M,M,M,M,M,55.40,KMEV 300815Z AUTO 11006KT 5SM HZ OVC023 13/01 A3004 RMK AO2,M
BAM,2021-08-30 08:15,-116.8743,40.5990,1382.36,59.00,12.20,15.55,180.00,5.00,0.00,29.98,M,10.00,M,CLR,M,M,M,M,M,M,M,M,M,M,M,M,M,M,59.00,KBAM 300815Z AUTO 18005KT 10SM CLR 15/M11 A2998 RMK AO1,M
HTH,2021-08-30 08:15,-118.6315,38.5448,1282.89,73.40,26.60,17.46,250.00,4.00,0.00,29.99,M,6.00,M,FEW,BKN,M,M,5000.00,6000.00,M,M,HZ,M,M,M,M,M,M,73.40,KHTH 300815Z AUTO 25004KT 6SM HZ FEW050 BKN060 23/M03 A2999 RMK A01,M
TMT,2021-08-30 08:15,-117.1971,39.4643,1749.34,45.50,17.80,32.64,140.00,3.00,0.00,30.11,M,10.00,M,CLR,M,M,M,M,M,M,M,M,M,M,M,M,M,M,44.12,KTMT 300815Z AUTO 14003KT 10SM CLR 08/M08 A3011 RMK AO2 T00751079,M
BVU,2021-08-30 08:15,-114.8611,35.9475,671.00,86.00,48.20,27.03,270.00,4.00,0.00,29.79,M,10.00,M,CLR,M,M,M,M,M,M,M,M,M,M,M,M,M,M,83.40,KBVU 300815Z AUTO 27004KT 10SM CLR 30/09 A2979 RMK AO2,M
MEV,2021-08-30 08:35,-119.7500,38.9963,1441.42,55.40,30.20,37.97,110.00,6.00,0.00,30.04,M,6.00,M,OVC,M,M,M,2200.00,M,M,M,HZ,M,M,M,M,M,M,55.40,KMEV 300835Z AUTO 11006KT 6SM HZ OVC022 13/M01 A3004 RMK AO2,M
RTS,2021-08-30 08:35,-119.8764,39.6682,1539.00,60.80,17.60,18.46,350.00,4.00,0.00,30.06,M,10.00,M,FEW,M,M,M,4000.00,M,M,M,M,M,M,M,M,M,M,60.80,KRTS 300835Z AUTO 35004KT 10SM FEW040 16/M08 A3006 RMK AO2,M
CXP,2021-08-30 08:35,-119.7326,39.1923,1431.00,60.80,23.00,23.23,0.00,0.00,0.00,30.04,M,10.00,M,BKN,OVC,M,M,7500.00,9000.00,M,M,M,M,M,M,M,M,M,60.80,KCXP 300835Z AUTO 00000KT 10SM BKN075 OVC090 16/M05 A3004 RMK AO2,M
BVU,2021-08-30 08:35,-114.8611,35.9475,671.00,86.00,48.20,27.03,310.00,3.00,0.00,29.79,M,10.00,M,CLR,M,M,M,M,M,M,M,M,M,M,M,M,M,M,83.40,KBVU 300835Z AUTO 31003KT 10SM CLR 30/09 A2979 RMK AO2,M
TMT,2021-08-30 08:35,-117.1971,39.4643,1749.34,48.00,18.30,30.35,0.00,0.00,0.00,30.11,M,10.00,M,CLR,M,M,M,M,M,M,M,M,M,M,M,M,M,M,48.00,KTMT 300835Z AUTO 00000KT 10SM CLR 09/M08 A3011 RMK AO2 T00891076,M
HTH,2021-08-30 08:35,-118.6315,38.5448,1282.89,71.60,24.80,17.22,0.00,0.00,0.00,29.99,M,6.00,M,BKN,BKN,BKN,M,2300.00,5500.00,6000.00,M,HZ,M,M,M,M,M,M,71.60,KHTH 300835Z AUTO 00000KT 6SM HZ BKN023 BKN055 BKN060 22/M04 A2999 RMK A01,M
BAM,2021-08-30 08:35,-116.8743,40.5990,1382.36,55.40,14.00,19.16,110.00,9.00,0.00,29.98,M,10.00,M,CLR,M,M,M,M,M,M,M,M,M,M,M,M,M,M,55.40,KBAM 300835Z AUTO 11009KT 10SM CLR 13/M10 A2998 RMK AO1,M
CXP,2021-08-30 08:50,-119.7326,39.1923,1431.00,64.40,24.80,22.06,0.00,0.00,0.00,30.04,M,10.00,M,FEW,BKN,M,M,7000.00,9000.00,M,M,M,M,M,M,M,M,M,64.40,KCXP 300850Z AUTO 00000KT 10SM FEW070 BKN090 18/M04 A3004 RMK AO2,M
VGT,2021-08-30 08:53,-115.1933,36.2111,667.00,89.00,50.00,26.19,0.00,0.00,0.00,29.76,1005.90,10.00,M,CLR,M,M,M,M,M,M,M,M,M,M,M,M,M,M,86.25,KVGT 300853Z AUTO 00000KT 10SM CLR 32/10 A2976 RMK AO2 SLP059 T03170100 58003,M
P68,2021-08-30 08:53,-116.0056,39.6014,1993.00,60.00,19.00,20.09,190.00,10.00,0.00,30.07,1009.20,M,M,M,M,M,M,M,M,M,M,M,M,M,M,M,M,M,60.10,KP68 300853Z AUTO 19010KT 16/M07 A3007 RMK AO1 SLP092 T01561072 58004,M
LOL,2021-08-30 08:53,-118.5701,40.0684,1192.43,62.00,26.10,25.24,60.00,4.00,0.00,29.94,1009.40,7.00,M,OVC,M,M,M,11000.00,M,M,M,M,M,M,M,M,M,M,62.10,KLOL 300853Z AUTO 06004KT 7SM OVC110 17/M03 A2994 RMK AO2 SLP094 T01671033 50004,M
ELY,2021-08-30 08:53,-114.8453,39.2950,1909.00,49.00,19.90,31.42,150.00,6.00,0.00,30.12,1009.60,10.00,M,CLR,M,M,M,M,M,M,M,M,M,M,M,M,M,M,45.88,KELY 300853Z AUTO 15006KT 10SM CLR 09/M07 A3012 RMK AO2 SLP096 T00941067 53001 $,M
HTH,2021-08-30 08:55,-118.6315,38.5448,1282.89,69.80,24.80,18.30,0.00,0.00,0.00,29.99,M,6.00,M,SCT,BKN,OVC,M,2400.00,3300.00,6000.00,M,HZ,M,M,M,M,M,M,69.80,KHTH 300855Z AUTO 00000KT 6SM HZ SCT024 BKN033 OVC060 21/M04 A2999 RMK A01,M
RTS,2021-08-30 08:55,-119.8764,39.6682,1539.00,60.80,17.60,18.46,330.00,4.00,0.00,30.06,M,10.00,M,CLR,M,M,M,M,M,M,M,M,M,M,M,M,M,M,60.80,KRTS 300855Z AUTO 33004KT 10SM CLR 16/M08 A3006 RMK AO2,M
BVU,2021-08-30 08:55,-114.8611,35.9475,671.00,84.20,50.00,30.62,0.00,0.00,0.00,29.78,M,10.00,M,CLR,M,M,M,M,M,M,M,M,M,M,M,M,M,M,82.24,KBVU 300855Z AUTO 00000KT 10SM CLR 29/10 A2978 RMK AO2,M
RNO,2021-08-30 08:55,-119.7711,39.4839,1341.00,64.00,27.00,24.51,180.00,3.00,0.00,30.01,1009.70,10.00,M,CLR,M,M,M,M,M,M,M,M,M,M,M,M,M,M,64.00,KRNO 300855Z 18003KT 10SM CLR 18/M03 A3001 RMK AO2 SLP097 T01781028 58002 $,M
MEV,2021-08-30 08:55,-119.7500,38.9963,1441.42,53.60,35.60,50.36,130.00,3.00,0.00,30.04,M,4.00,M,OVC,M,M,M,2200.00,M,M,M,HZ,M,M,M,M,M,M,53.60,KMEV 300855Z AUTO 13003KT 4SM HZ OVC022 12/02 A3004 RMK AO2,M
BAM,2021-08-30 08:55,-116.8743,40.5990,1382.36,55.40,14.00,19.16,120.00,7.00,0.00,29.98,M,10.00,M,CLR,M,M,M,M,M,M,M,M,M,M,M,M,M,M,55.40,KBAM 300855Z AUTO 12007KT 10SM CLR 13/M10 A2998 RMK AO1,M
TMT,2021-08-30 08:55,-117.1971,39.4643,1749.34,46.00,17.60,31.87,310.00,4.00,0.00,30.10,M,10.00,M,CLR,M,M,M,M,M,M,M,M,M,M,M,M,M,M,43.65,KTMT 300855Z AUTO 31004KT 10SM CLR 08/M08 A3010 RMK AO2 T00771080,M
LAS,2021-08-30 08:56,-115.1634,36.0719,663.00,90.00,49.00,24.44,210.00,4.00,0.00,29.78,1004.90,10.00,M,CLR,M,M,M,M,M,M,M,M,M,M,M,M,M,M,86.90,KLAS 300856Z 21004KT 10SM CLR 32/09 A2978 RMK AO2 SLP049 T03220094 58001 $,M
TPH,2021-08-30 08:56,-117.0904,38.0505,1654.00,68.00,16.00,13.39,10.00,11.00,0.00,30.05,1008.40,10.00,M,CLR,M,M,M,M,M,M,M,M,M,M,M,M,M,M,68.00,KTPH 300856Z AUTO 01011KT 10SM CLR 20/M09 A3005 RMK AO2 SLP084 T02001089 50002 $,M
EKO,2021-08-30 08:56,-115.7860,40.8242,1367.00,55.00,21.90,27.31,0.00,0.00,0.00,30.01,1010.70,9.00,M,BKN,M,M,M,12000.00,M,M,M,M,M,M,M,M,M,M,55.00,KEKO 300856Z AUTO 00000KT 9SM BKN120 13/M06 A3001 RMK AO2 SLP107 T01281056 50003,M
NFL,2021-08-30 08:56,-118.7010,39.4166,1199.00,65.00,27.00,23.75,220.00,5.00,0.00,29.95,1011.50,7.00,M,OVC,M,M,M,6500.00,M,M,M,M,M,M,M,M,M,M,64.90,KNFL 300856Z AUTO 22005KT 7SM OVC065 18/M03 A2995 RMK AO2 SLP115 T01831028 50001,M
WMC,2021-08-30 08:56,-117.8072,40.9019,1315.00,58.00,21.90,24.59,80.00,4.00,0.00,29.95,1008.90,8.00,M,FEW,M,M,M,5500.00,M,M,M,M,M,M,M,M,M,M,57.90,KWMC 300856Z AUTO 08004KT 8SM FEW055 14/M06 A2995 RMK AO2 SLP089 T01441056 50003 $,M
HND,2021-08-30 08:56,-115.1344,35.9729,742.79,89.00,50.00,26.19,200.00,11.00,0.00,29.82,1007.40,10.00,M,CLR,M,M,M,M,M,M,M,M,M,M,M,M,M,M,86.25,KHND 300856Z AUTO 20011KT 10SM CLR 32/10 A2982 RMK AO2 SLP074 T03170100 55000,M
INS,2021-08-30 08:58,-115.6733,36.5872,955.00,80.00,31.10,16.91,0.00,0.00,0.00,29.85,1005.00,10.00,M,CLR,M,M,M,M,M,M,M,M,M,M,M,M,M,M,79.90,KINS 300858Z AUTO 00000KT 10SM CLR 27/M00 A2985 RMK AO2 SLP050 T02661005 55000 $,M
LSV,2021-08-30 08:58,-115.0343,36.2362,570.00,86.70,50.50,28.80,70.00,7.00,0.00,29.75,1004.40,10.00,M,CLR,M,M,M,M,M,M,M,M,M,M,M,M,M,M,84.25,KLSV 300858Z AUTO 07007KT 10SM CLR 30/10 A2975 RMK AO2 SLP044 T03040103 58003 $,M
MEV,2021-08-30 09:15,-119.7500,38.9963,1441.42,51.80,33.80,50.08,0.00,0.00,0.00,30.04,M,7.00,M,OVC,M,M,M,2100.00,M,M,M,M,M,M,M,M,M,M,51.80,KMEV 300915Z AUTO 00000KT 7SM OVC021 11/01 A3004 RMK AO2,M
BVU,2021-08-30 09:15,-114.8611,35.9475,671.00,82.40,50.00,32.46,320.00,4.00,0.00,29.78,M,10.00,M,CLR,M,M,M,M,M,M,M,M,M,M,M,M,M,M,80.99,KBVU 300915Z AUTO 32004KT 10SM CLR 28/10 A2978 RMK AO2,M
HTH,2021-08-30 09:15,-118.6315,38.5448,1282.89,71.60,26.60,18.55,0.00,0.00,0.00,29.98,M,6.00,M,SCT,BKN,OVC,M,2500.00,3100.00,6000.00,M,HZ,M,M,M,M,M,M,71.60,KHTH 300915Z AUTO 00000KT 6SM HZ SCT025 BKN031 OVC060 22/M03 A2998 RMK A01,M
BAM,2021-08-30 09:15,-116.8743,40.5990,1382.36,55.40,14.00,19.16,130.00,5.00,0.00,29.98,M,10.00,M,CLR,M,M,M,M,M,M,M,M,M,M,M,M,M,M,55.40,KBAM 300915Z AUTO 13005KT 10SM CLR 13/M10 A2998 RMK AO1,M
TMT,2021-08-30 09:15,-117.1971,39.4643,1749.34,45.70,17.60,32.12,0.00,0.00,0.00,30.10,M,10.00,M,CLR,M,M,M,M,M,M,M,M,M,M,M,M,M,M,45.70,KTMT 300915Z AUTO 00000KT 10SM CLR 08/M08 A3010 RMK AO2 T00761080,M
CXP,2021-08-30 09:15,-119.7326,39.1923,1431.00,62.60,24.80,23.50,290.00,4.00,0.00,30.04,M,10.00,M,BKN,M,M,M,9500.00,M,M,M,M,M,M,M,M,M,M,62.60,KCXP 300915Z AUTO 29004KT 10SM BKN095 17/M04 A3004 RMK AO2,M
RTS,2021-08-30 09:15,-119.8764,39.6682,1539.00,55.40,17.60,22.41,320.00,5.00,0.00,30.06,M,10.00,M,CLR,M,M,M,M,M,M,M,M,M,M,M,M,M,M,55.40,KRTS 300915Z AUTO 32005KT 10SM CLR 13/M08 A3006 RMK AO2,M
MEV,2021-08-30 09:35,-119.7500,38.9963,1441.42,53.60,33.80,46.88,0.00,0.00,0.00,30.04,M,5.00,M,OVC,M,M,M,2000.00,M,M,M,HZ,M,M,M,M,M,M,53.60,KMEV 300935Z AUTO 00000KT 5SM HZ OVC020 12/01 A3004 RMK AO2,M
TMT,2021-08-30 09:35,-117.1971,39.4643,1749.34,44.60,15.80,30.98,0.00,0.00,0.00,30.10,M,10.00,M,CLR,M,M,M,M,M,M,M,M,M,M,M,M,M,M,44.60,KTMT 300935Z AUTO 00000KT 10SM CLR 07/M09 A3010 RMK AO2 T00701090,M
CXP,2021-08-30 09:35,-119.7326,39.1923,1431.00,59.00,24.80,26.70,0.00,0.00,0.00,30.04,M,10.00,M,SCT,M,M,M,9500.00,M,M,M,M,M,M,M,M,M,M,59.00,KCXP 300935Z AUTO 00000KT 10SM SCT095 15/M04 A3004 RMK AO2,M
BAM,2021-08-30 09:35,-116.8743,40.5990,1382.36,59.00,17.60,19.68,0.00,0.00,0.00,29.98,M,10.00,M,CLR,M,M,M,M,M,M,M,M,M,M,M,M,M,M,59.00,KBAM 300935Z AUTO 00000KT 10SM CLR 15/M08 A2998 RMK AO1,M
HTH,2021-08-30 09:35,-118.6315,38.5448,1282.89,69.80,26.60,19.72,150.00,4.00,0.00,29.98,M,6.00,M,SCT,BKN,OVC,M,2100.00,2600.00,6500.00,M,HZ,M,M,M,M,M,M,69.80,KHTH 300935Z AUTO 15004KT 6SM HZ SCT021 BKN026 OVC065 21/M03 A2998 RMK A01,M
RTS,2021-08-30 09:35,-119.8764,39.6682,1539.00,55.40,17.60,22.41,350.00,7.00,0.00,30.06,M,10.00,M,CLR,M,M,M,M,M,M,M,M,M,M,M,M,M,M,55.40,KRTS 300935Z AUTO 35007KT 10SM CLR 13/M08 A3006 RMK AO2,M
BVU,2021-08-30 09:35,-114.8611,35.9475,671.00,84.20,48.20,28.63,0.00,0.00,0.00,29.78,M,10.00,M,CLR,M,M,M,M,M,M,M,M,M,M,M,M,M,M,82.04,KBVU 300935Z AUTO 00000KT 10SM CLR 29/09 A2978 RMK AO2,M
LOL,2021-08-30 09:53,-118.5701,40.0684,1192.43,61.00,26.10,26.25,0.00,0.00,0.00,29.94,1009.40,7.00,M,BKN,OVC,M,M,6000.00,9500.00,M,M,M,M,M,M,M,M,M,61.00,KLOL 300953Z AUTO 00000KT 7SM BKN060 OVC095 16/M03 A2994 RMK AO2 SLP094 T01611033,M
ELY,2021-08-30 09:53,-114.8453,39.2950,1909.00,48.00,19.90,32.50,170.00,10.00,0.00,30.11,1009.40,10.00,M,CLR,M,M,M,M,M,M,M,M,M,M,M,M,M,M,43.03,KELY 300953Z AUTO 17010KT 10SM CLR 09/M07 A3011 RMK AO2 SLP094 T00891067 $,M
VGT,2021-08-30 09:53,-115.1933,36.2111,667.00,87.00,50.00,27.91,300.00,4.00,0.00,29.76,1005.80,10.00,M,CLR,M,M,M,M,M,M,M,M,M,M,M,M,M,M,84.51,KVGT 300953Z AUTO 30004KT 10SM CLR 31/10 A2976 RMK AO2 SLP058 T03060100,M
P68,2021-08-30 09:53,-116.0056,39.6014,1993.00,57.00,21.00,24.45,190.00,8.00,0.00,30.07,1009.30,M,M,M,M,M,M,M,M,M,M,M,M,M,M,M,M,M,57.00,KP68 300953Z AUTO 19008KT 14/M06 A3007 RMK AO1 SLP093 T01391061,M
HTH,2021-08-30 09:55,-118.6315,38.5448,1282.89,69.80,26.60,19.72,140.00,4.00,0.00,29.98,M,6.00,M,FEW,SCT,OVC,M,2100.00,2600.00,7000.00,M,HZ,M,M,M,M,M,M,69.80,KHTH 300955Z AUTO 14004KT 6SM HZ FEW021 SCT026 OVC070 21/M03 A2998 RMK A01,M
CXP,2021-08-30 09:55,-119.7326,39.1923,1431.00,59.00,24.80,26.70,0.00,0.00,0.00,30.04,M,10.00,M,CLR,M,M,M,M,M,M,M,M,M,M,M,M,M,M,59.00,KCXP 300955Z AUTO 00000KT 10SM CLR 15/M04 A3004 RMK AO2,M
RNO,2021-08-30 09:55,-119.7711,39.4839,1341.00,61.00,28.00,28.38,0.00,0.00,0.00,30.01,1009.90,10.00,M,CLR,M,M,M,M,M,M,M,M,M,M,M,M,M,M,61.00,KRNO 300955Z 00000KT 10SM CLR 16/M02 A3001 RMK AO2 SLP099 T01611022 $,M
MEV,2021-08-30 09:55,-119.7500,38.9963,1441.42,53.60,32.00,43.61,70.00,4.00,0.00,30.03,M,5.00,M,OVC,M,M,M,2000.00,M,M,M,HZ,M,M,M,M,M,M,53.60,KMEV 300955Z AUTO 07004KT 5SM HZ OVC020 12/00 A3003 RMK AO2,M
BAM,2021-08-30 09:55,-116.8743,40.5990,1382.36,60.80,17.60,18.46,0.00,0.00,0.00,29.97,M,10.00,M,CLR,M,M,M,M,M,M,M,M,M,M,M,M,M,M,60.80,KBAM 300955Z AUTO 00000KT 10SM CLR 16/M08 A2997 RMK AO1,M
TMT,2021-08-30 09:55,-117.1971,39.4643,1749.34,39.20,16.00,38.48,160.00,3.00,0.00,30.10,M,10.00,M,CLR,M,M,M,M,M,M,M,M,M,M,M,M,M,M,36.92,KTMT 300955Z AUTO 16003KT 10SM CLR 04/M09 A3010 RMK AO2 T00401089,M
RTS,2021-08-30 09:55,-119.8764,39.6682,1539.00,57.20,19.40,22.68,350.00,7.00,0.00,30.06,M,10.00,M,CLR,M,M,M,M,M,M,M,M,M,M,M,M,M,M,57.20,KRTS 300955Z AUTO 35007KT 10SM CLR 14/M07 A3006 RMK AO2,M
BVU,2021-08-30 09:55,-114.8611,35.9475,671.00,82.40,48.20,30.35,350.00,3.00,0.00,29.78,M,10.00,M,CLR,M,M,M,M,M,M,M,M,M,M,M,M,M,M,80.80,KBVU 300955Z AUTO 35003KT 10SM CLR 28/09 A2978 RMK AO2,M
EKO,2021-08-30 09:56,-115.7860,40.8242,1367.00,46.00,24.10,41.84,240.00,3.00,0.00,30.02,1011.50,9.00,M,SCT,M,M,M,10000.00,M,M,M,M,M,M,M,M,M,M,44.69,KEKO 300956Z AUTO 24003KT 9SM SCT100 08/M04 A3002 RMK AO2 SLP115 T00781044,M
WMC,2021-08-30 09:56,-117.8072,40.9019,1315.00,52.00,19.90,28.01,0.00,0.00,0.00,29.95,1009.10,8.00,M,BKN,OVC,M,M,6000.00,10000.00,M,M,M,M,M,M,M,M,M,52.00,KWMC 300956Z AUTO 00000KT 8SM BKN060 OVC100 11/M07 A2995 RMK AO2 SLP091 T01111067 $,M
LAS,2021-08-30 09:56,-115.1634,36.0719,663.00,89.00,49.00,25.14,0.00,0.00,0.00,29.78,1004.90,10.00,M,FEW,M,M,M,15000.00,M,M,M,M,M,M,M,M,M,M,86.09,KLAS 300956Z 00000KT 10SM FEW150 32/09 A2978 RMK AO2 SLP049 T03170094 $,M
TPH,2021-08-30 09:56,-117.0904,38.0505,1654.00,65.00,16.00,14.91,20.00,10.00,0.00,30.05,1008.50,10.00,M,CLR,M,M,M,M,M,M,M,M,M,M,M,M,M,M,64.90,KTPH 300956Z AUTO 02010KT 10SM CLR 18/M09 A3005 RMK AO2 SLP085 T01831089 $,M
HND,2021-08-30 09:56,-115.1344,35.9729,742.79,88.00,49.00,26.03,180.00,8.00,0.00,29.81,1007.20,10.00,M,CLR,M,M,M,M,M,M,M,M,M,M,M,M,M,M,85.13,KHND 300956Z AUTO 18008KT 10SM CLR 31/09 A2981 RMK AO2 SLP072 T03110094,M
NFL,2021-08-30 09:56,-118.7010,39.4166,1199.00,61.00,28.00,28.38,170.00,7.00,0.00,29.95,1011.50,8.00,M,SCT,M,M,M,7500.00,M,M,M,M,M,M,M,M,M,M,61.00,KNFL 300956Z AUTO 17007KT 8SM SCT075 16/M02 A2995 RMK AO2 SLP115 T01611022,M
INS,2021-08-30 09:58,-115.6733,36.5872,955.00,76.30,39.70,26.80,290.00,4.00,0.00,29.85,1005.10,10.00,M,CLR,M,M,M,M,M,M,M,M,M,M,M,M,M,M,76.30,KINS 300958Z AUTO 29004KT 10SM CLR 25/04 A2985 RMK AO2 SLP051 T02460043 $,M
LSV,2021-08-30 09:58,-115.0343,36.2362,570.00,85.50,50.50,29.92,70.00,6.00,0.00,29.74,1004.00,10.00,M,CLR,M,M,M,M,M,M,M,M,M,M,M,M,M,M,83.29,KLSV 300958Z AUTO 07006KT 10SM CLR 30/10 A2974 RMK AO2 SLP040 T02970103 $,M
BVU,2021-08-30 10:15,-114.8611,35.9475,671.00,82.40,50.00,32.46,0.00,0.00,0.00,29.77,M,10.00,M,CLR,M,M,M,M,M,M,M,M,M,M,M,M,M,M,80.99,KBVU 301015Z AUTO 00000KT 10SM CLR 28/10 A2977 RMK AO2,M
TMT,2021-08-30 10:15,-117.1971,39.4643,1749.34,40.60,18.50,40.59,0.00,0.00,0.00,30.10,M,10.00,M,CLR,M,M,M,M,M,M,M,M,M,M,M,M,M,M,40.60,KTMT 301015Z AUTO 00000KT 10SM CLR 05/M07 A3010 RMK AO2 T00481075,M
HTH,2021-08-30 10:15,-118.6315,38.5448,1282.89,68.00,26.60,20.98,160.00,5.00,0.00,29.99,M,6.00,M,OVC,M,M,M,7000.00,M,M,M,HZ,M,M,M,M,M,M,68.00,KHTH 301015Z AUTO 16005KT 6SM HZ OVC070 20/M03 A2999 RMK A01,M
BAM,2021-08-30 10:15,-116.8743,40.5990,1382.36,55.40,17.60,22.41,70.00,3.00,0.00,29.98,M,10.00,M,CLR,M,M,M,M,M,M,M,M,M,M,M,M,M,M,55.40,KBAM 301015Z AUTO 07003KT 10SM CLR 13/M08 A2998 RMK AO1,M
CXP,2021-08-30 10:15,-119.7326,39.1923,1431.00,59.00,24.80,26.70,290.00,3.00,0.00,30.04,M,10.00,M,CLR,M,M,M,M,M,M,M,M,M,M,M,M,M,M,59.00,KCXP 301015Z AUTO 29003KT 10SM CLR 15/M04 A3004 RMK AO2,M
MEV,2021-08-30 10:15,-119.7500,38.9963,1441.42,53.60,32.00,43.61,160.00,3.00,0.00,30.03,M,4.00,M,OVC,M,M,M,1800.00,M,M,M,HZ,M,M,M,M,M,M,53.60,KMEV 301015Z AUTO 16003KT 4SM HZ OVC018 12/00 A3003 RMK AO2,M
RTS,2021-08-30 10:15,-119.8764,39.6682,1539.00,57.20,17.60,20.99,350.00,7.00,0.00,30.05,M,10.00,M,CLR,M,M,M,M,M,M,M,M,M,M,M,M,M,M,57.20,KRTS 301015Z AUTO 35007KT 10SM CLR 14/M08 A3005 RMK AO2,M
BVU,2021-08-30 10:35,-114.8611,35.9475,671.00,82.40,50.00,32.46,0.00,0.00,0.00,29.77,M,10.00,M,CLR,M,M,M,M,M,M,M,M,M,M,M,M,M,M,80.99,KBVU 301035Z AUTO 00000KT 10SM CLR 28/10 A2977 RMK AO2,M
HTH,2021-08-30 10:35,-118.6315,38.5448,1282.89,68.00,26.60,20.98,170.00,5.00,0.00,29.99,M,6.00,M,OVC,M,M,M,7000.00,M,M,M,HZ,M,M,M,M,M,M,68.00,KHTH 301035Z AUTO 17005KT 6SM HZ OVC070 20/M03 A2999 RMK A01,M
BAM,2021-08-30 10:35,-116.8743,40.5990,1382.36,53.60,17.60,23.93,100.00,3.00,0.00,29.97,M,10.00,M,CLR,M,M,M,M,M,M,M,M,M,M,M,M,M,M,53.60,KBAM 301035Z AUTO 10003KT 10SM CLR 12/M08 A2997 RMK AO1,M
MEV,2021-08-30 10:35,-119.7500,38.9963,1441.42,50.00,33.80,53.54,0.00,0.00,0.00,30.03,M,4.00,M,OVC,M,M,M,1800.00,M,M,M,HZ,M,M,M,M,M,M,50.00,KMEV 301035Z AUTO 00000KT 4SM HZ OVC018 10/01 A3003 RMK AO2,M
TMT,2021-08-30 10:35,-117.1971,39.4643,1749.34,42.00,17.80,37.17,0.00,0.00,0.00,30.11,M,10.00,M,CLR,M,M,M,M,M,M,M,M,M,M,M,M,M,M,42.10,KTMT 301035Z AUTO 00000KT 10SM CLR 06/M08 A3011 RMK AO2 T00561079,M
CXP,2021-08-30 10:35,-119.7326,39.1923,1431.00,55.40,26.60,32.76,0.00,0.00,0.00,30.04,M,10.00,M,CLR,M,M,M,M,M,M,M,M,M,M,M,M,M,M,55.40,KCXP 301035Z AUTO 00000KT 10SM CLR 13/M03 A3004 RMK AO2,M
RTS,2021-08-30 10:35,-119.8764,39.6682,1539.00,51.80,19.40,27.62,360.00,7.00,0.00,30.05,M,10.00,M,CLR,M,M,M,M,M,M,M,M,M,M,M,M,M,M,51.80,KRTS 301035Z AUTO 36007KT 10SM CLR 11/M07 A3005 RMK AO2,M
P68,2021-08-30 10:53,-116.0056,39.6014,1993.00,57.00,19.90,23.34,190.00,9.00,0.00,30.08,1009.60,M,M,M,M,M,M,M,M,M,M,M,M,M,M,M,M,M,57.00,KP68 301053Z AUTO 19009KT 14/M07 A3008 RMK AO1 SLP096 T01391067,M
VGT,2021-08-30 10:53,-115.1933,36.2111,667.00,85.00,51.00,31.19,350.00,4.00,0.00,29.76,1005.80,10.00,M,CLR,M,M,M,M,M,M,M,M,M,M,M,M,M,M,82.90,KVGT 301053Z AUTO 35004KT 10SM CLR 29/11 A2976 RMK AO2 SLP058 T02940106,M
LOL,2021-08-30 10:53,-118.5701,40.0684,1192.43,56.00,27.00,32.71,40.00,3.00,0.00,29.94,1009.70,7.00,M,OVC,M,M,M,5500.00,M,M,M,M,M,M,M,M,M,M,55.90,KLOL 301053Z AUTO 04003KT 7SM OVC055 13/M03 A2994 RMK AO2 SLP097 T01331028,M
ELY,2021-08-30 10:53,-114.8453,39.2950,1909.00,50.00,21.90,32.83,200.00,4.00,0.00,30.11,1009.20,10.00,M,CLR,M,M,M,M,M,M,M,M,M,M,M,M,M,M,50.00,KELY 301053Z AUTO 20004KT 10SM CLR 10/M06 A3011 RMK AO2 SLP092 T01001056 $,M
TMT,2021-08-30 10:55,-117.1971,39.4643,1749.34,37.60,13.60,36.89,0.00,0.00,0.00,30.11,M,10.00,M,CLR,M,M,M,M,M,M,M,M,M,M,M,M,M,M,37.60,KTMT 301055Z AUTO 00000KT 10SM CLR 03/M10 A3011 RMK AO2 T00311102,M
BVU,2021-08-30 10:55,-114.8611,35.9475,671.00,82.40,50.00,32.46,M,3.00,0.00,29.77,M,10.00,M,CLR,M,M,M,M,M,M,M,M,M,M,M,M,M,M,80.99,KBVU 301055Z AUTO VRB03KT 10SM CLR 28/10 A2977 RMK AO2,M
RNO,2021-08-30 10:55,-119.7711,39.4839,1341.00,61.00,28.00,28.38,0.00,0.00,0.00,30.01,1010.00,10.00,M,CLR,M,M,M,M,M,M,M,M,M,M,M,M,M,M,61.00,KRNO 301055Z 00000KT 10SM CLR 16/M02 A3001 RMK AO2 SLP100 T01611022 $,M
RTS,2021-08-30 10:55,-119.8764,39.6682,1539.00,57.20,19.40,22.68,0.00,0.00,0.00,30.05,M,10.00,M,CLR,M,M,M,M,M,M,M,M,M,M,M,M,M,M,57.20,KRTS 301055Z AUTO 00000KT 10SM CLR 14/M07 A3005 RMK AO2,M
CXP,2021-08-30 10:55,-119.7326,39.1923,1431.00,57.20,26.60,30.69,0.00,0.00,0.00,30.04,M,10.00,M,SCT,M,M,M,2500.00,M,M,M,M,M,M,M,M,M,M,57.20,KCXP 301055Z AUTO 00000KT 10SM SCT025 14/M03 A3004 RMK AO2,M
MEV,2021-08-30 10:55,-119.7500,38.9963,1441.42,51.80,33.80,50.08,0.00,0.00,0.00,30.03,M,3.00,M,OVC,M,M,M,2000.00,M,M,M,HZ,M,M,M,M,M,M,51.80,KMEV 301055Z AUTO 00000KT 3SM HZ OVC020 11/01 A3003 RMK AO2,M
BAM,2021-08-30 10:55,-116.8743,40.5990,1382.36,53.60,21.20,27.91,90.00,3.00,0.00,29.97,M,10.00,M,CLR,M,M,M,M,M,M,M,M,M,M,M,M,M,M,53.60,KBAM 301055Z AUTO 09003KT 10SM CLR 12/M06 A2997 RMK AO1,M
HTH,2021-08-30 10:55,-118.6315,38.5448,1282.89,68.00,28.40,22.59,210.00,4.00,0.00,29.99,M,6.00,M,OVC,M,M,M,7000.00,M,M,M,HZ,M,M,M,M,M,M,68.00,KHTH 301055Z AUTO 21004KT 6SM HZ OVC070 20/M02 A2999 RMK A01,M
TPH,2021-08-30 10:56,-117.0904,38.0505,1654.00,64.00,16.00,15.39,20.00,8.00,0.00,30.05,1008.70,10.00,M,CLR,M,M,M,M,M,M,M,M,M,M,M,M,M,M,64.00,KTPH 301056Z AUTO 02008KT 10SM CLR 18/M09 A3005 RMK AO2 SLP087 T01781089 $,M
EKO,2021-08-30 10:56,-115.7860,40.8242,1367.00,46.00,24.10,41.84,160.00,3.00,0.00,30.02,1011.40,9.00,M,CLR,M,M,M,M,M,M,M,M,M,M,M,M,M,M,44.69,KEKO 301056Z AUTO 16003KT 9SM CLR 08/M04 A3002 RMK AO2 SLP114 T00781044,M
WMC,2021-08-30 10:56,-117.8072,40.9019,1315.00,49.00,19.90,31.42,0.00,0.00,0.00,29.95,1009.20,7.00,M,OVC,M,M,M,5500.00,M,M,M,M,M,M,M,M,M,M,48.90,KWMC 301056Z AUTO 00000KT 7SM OVC055 09/M07 A2995 RMK AO2 SLP092 T00941067 $,M
HND,2021-08-30 10:56,-115.1344,35.9729,742.79,87.00,49.00,26.79,180.00,11.00,0.00,29.80,1007.00,10.00,M,CLR,M,M,M,M,M,M,M,M,M,M,M,M,M,M,84.37,KHND 301056Z AUTO 18011KT 10SM CLR 31/09 A2980 RMK AO2 SLP070 T03060094,M
LAS,2021-08-30 10:56,-115.1634,36.0719,663.00,85.00,50.00,29.94,300.00,3.00,0.00,29.77,1004.60,10.00,M,FEW,M,M,M,15000.00,M,M,M,M,M,M,M,M,M,M,82.76,KLAS 301056Z 30003KT 10SM FEW150 29/10 A2977 RMK AO2 SLP046 T02940100 $,M
NFL,2021-08-30 10:56,-118.7010,39.4166,1199.00,61.00,24.10,24.15,170.00,5.00,0.00,29.95,1011.50,6.00,M,OVC,M,M,M,7000.00,M,M,M,HZ,M,M,M,M,M,M,61.00,KNFL 301056Z AUTO 17005KT 6SM HZ OVC070 16/M04 A2995 RMK AO2 SLP115 T01611044,M
INS,2021-08-30 10:58,-115.6733,36.5872,955.00,72.70,33.80,23.95,0.00,0.00,0.00,29.85,1005.30,10.00,M,CLR,M,M,M,M,M,M,M,M,M,M,M,M,M,M,72.70,KINS 301058Z AUTO 00000KT 10SM CLR 23/01 A2985 RMK AO2 SLP053 T02260010 $,M
LSV,2021-08-30 10:58,-115.0343,36.2362,570.00,84.70,50.70,30.93,10.00,5.00,0.00,29.74,1004.10,10.00,M,CLR,M,M,M,M,M,M,M,M,M,M,M,M,M,M,82.70,KLSV 301058Z AUTO 01005KT 10SM CLR 29/10 A2974 RMK AO2 SLP041 T02930104 $,M
MEV,2021-08-30 11:15,-119.7500,38.9963,1441.42,48.20,32.00,53.27,110.00,6.00,0.00,30.03,M,3.00,M,OVC,M,M,M,2200.00,M,M,M,HZ,M,M,M,M,M,M,45.04,KMEV 301115Z AUTO 11006KT 3SM HZ OVC022 09/00 A3003 RMK AO2,M
HTH,2021-08-30 11:15,-118.6315,38.5448,1282.89,68.00,26.60,20.98,240.00,5.00,0.00,29.99,M,6.00,M,OVC,M,M,M,7500.00,M,M,M,HZ,M,M,M,M,M,M,68.00,KHTH 301115Z AUTO 24005KT 6SM HZ OVC075 20/M03 A2999 RMK A01,M
BAM,2021-08-30 11:15,-116.8743,40.5990,1382.36,53.60,19.40,25.85,120.00,4.00,0.00,29.98,M,10.00,M,CLR,M,M,M,M,M,M,M,M,M,M,M,M,M,M,53.60,KBAM 301115Z AUTO 12004KT 10SM CLR 12/M07 A2998 RMK AO1,M
RTS,2021-08-30 11:15,-119.8764,39.6682,1539.00,55.40,19.40,24.21,0.00,0.00,0.00,30.05,M,10.00,M,CLR,M,M,M,M,M,M,M,M,M,M,M,M,M,M,55.40,KRTS 301115Z AUTO 00000KT 10SM CLR 13/M07 A3005 RMK AO2,M
CXP,2021-08-30 11:15,-119.7326,39.1923,1431.00,57.20,26.60,30.69,0.00,0.00,0.00,30.04,M,7.00,M,OVC,M,M,M,2400.00,M,M,M,M,M,M,M,M,M,M,57.20,KCXP 301115Z AUTO 00000KT 7SM OVC024 14/M03 A3004 RMK AO2,M
TMT,2021-08-30 11:15,-117.1971,39.4643,1749.34,37.00,15.10,40.34,0.00,0.00,0.00,30.11,M,10.00,M,CLR,M,M,M,M,M,M,M,M,M,M,M,M,M,M,37.00,KTMT 301115Z AUTO 00000KT 10SM CLR 03/M09 A3011 RMK AO2 T00281094,M
BVU,2021-08-30 11:15,-114.8611,35.9475,671.00,84.20,50.00,30.62,110.00,6.00,0.00,29.78,M,10.00,M,CLR,M,M,M,M,M,M,M,M,M,M,M,M,M,M,82.24,KBVU 301115Z AUTO 11006KT 10SM CLR 29/10 A2978 RMK AO2,M
CXP,2021-08-30 11:35,-119.7326,39.1923,1431.00,53.60,28.40,37.67,0.00,0.00,0.00,30.04,M,10.00,M,OVC,M,M,M,2500.00,M,M,M,M,M,M,M,M,M,M,53.60,KCXP 301135Z AUTO 00000KT 10SM OVC025 12/M02 A3004 RMK AO2,M
HTH,2021-08-30 11:35,-118.6315,38.5448,1282.89,66.20,26.60,22.33,0.00,0.00,0.00,29.99,M,6.00,M,OVC,M,M,M,7000.00,M,M,M,HZ,M,M,M,M,M,M,66.20,KHTH 301135Z AUTO 00000KT 6SM HZ OVC070 19/M03 A2999 RMK A01,M
BAM,2021-08-30 11:35,-116.8743,40.5990,1382.36,51.80,17.60,25.56,120.00,5.00,0.00,29.98,M,10.00,M,CLR,M,M,M,M,M,M,M,M,M,M,M,M,M,M,51.80,KBAM 301135Z AUTO 12005KT 10SM CLR 11/M08 A2998 RMK AO1,M
MEV,2021-08-30 11:35,-119.7500,38.9963,1441.42,50.00,32.00,49.81,0.00,0.00,0.00,30.03,M,4.00,M,OVC,M,M,M,2300.00,M,M,M,HZ,M,M,M,M,M,M,50.00,KMEV 301135Z AUTO 00000KT 4SM HZ OVC023 10/00 A3003 RMK AO2,M
RTS,2021-08-30 11:35,-119.8764,39.6682,1539.00,53.60,19.40,25.85,0.00,0.00,0.00,30.05,M,10.00,M,CLR,M,M,M,M,M,M,M,M,M,M,M,M,M,M,53.60,KRTS 301135Z AUTO 00000KT 10SM CLR 12/M07 A3005 RMK AO2,M
TMT,2021-08-30 11:35,-117.1971,39.4643,1749.34,40.30,17.10,38.67,0.00,0.00,0.00,30.11,M,10.00,M,CLR,M,M,M,M,M,M,M,M,M,M,M,M,M,M,40.30,KTMT 301135Z AUTO 00000KT 10SM CLR 05/M08 A3011 RMK AO2 T00461083,M
BVU,2021-08-30 11:35,-114.8611,35.9475,671.00,80.60,50.00,34.41,60.00,6.00,0.00,29.77,M,10.00,M,CLR,M,M,M,M,M,M,M,M,M,M,M,M,M,M,79.88,KBVU 301135Z AUTO 06006KT 10SM CLR 27/10 A2977 RMK AO2,M
LOL,2021-08-30 11:53,-118.5701,40.0684,1192.43,52.00,25.00,34.72,0.00,0.00,0.00,29.94,1010.00,7.00,M,OVC,M,M,M,6000.00,M,M,M,M,M,M,M,M,M,M,52.00,KLOL 301153Z AUTO 00000KT 7SM OVC060 11/M04 A2994 RMK AO2 SLP100 T01111039 10267 20100 53002,M
ELY,2021-08-30 11:53,-114.8453,39.2950,1909.00,46.00,23.00,39.96,180.00,9.00,0.00,30.11,1009.80,10.00,M,CLR,M,M,M,M,M,M,M,M,M,M,M,M,M,M,40.92,KELY 301153Z AUTO 18009KT 10SM CLR 08/M05 A3011 RMK AO2 SLP098 T00781050 10156 20072 57002 $,M
VGT,2021-08-30 11:53,-115.1933,36.2111,667.00,84.00,51.00,32.10,340.00,7.00,0.00,29.76,1005.90,10.00,M,CLR,M,M,M,M,M,M,M,M,M,M,M,M,M,M,82.23,KVGT 301153Z AUTO 34007KT 10SM CLR 29/11 A2976 RMK AO2 SLP059 T02890106 10356 20289 56001,M
P68,2021-08-30 11:53,-116.0056,39.6014,1993.00,55.00,19.00,24.14,190.00,8.00,0.00,30.09,1009.80,M,M,M,M,M,M,M,M,M,M,M,M,M,M,M,M,M,55.00,KP68 301153Z AUTO 19008KT 13/M07 A3009 RMK AO1 SLP098 T01281072 10167 20111 53004,M
BVU,2021-08-30 11:55,-114.8611,35.9475,671.00,78.80,51.80,39.02,50.00,5.00,0.00,29.78,M,10.00,M,CLR,M,M,M,M,M,M,M,M,M,M,M,M,M,M,78.80,KBVU 301155Z AUTO 05005KT 10SM CLR 26/11 A2978 RMK AO2,M
BAM,2021-08-30 11:55,-116.8743,40.5990,1382.36,55.40,19.40,24.21,90.00,8.00,0.00,29.98,M,10.00,M,CLR,M,M,M,M,M,M,M,M,M,M,M,M,M,M,55.40,KBAM 301155Z AUTO 09008KT 10SM CLR 13/M07 A2998 RMK AO1,M
RTS,2021-08-30 11:55,-119.8764,39.6682,1539.00,51.80,19.40,27.62,0.00,0.00,0.00,30.05,M,10.00,M,CLR,M,M,M,M,M,M,M,M,M,M,M,M,M,M,51.80,KRTS 301155Z AUTO 00000KT 10SM CLR 11/M07 A3005 RMK AO2,M
MEV,2021-08-30 11:55,-119.7500,38.9963,1441.42,50.00,32.00,49.81,0.00,0.00,0.00,30.03,M,4.00,M,OVC,M,M,M,2300.00,M,M,M,HZ,M,M,M,M,M,M,50.00,KMEV 301155Z AUTO 00000KT 4SM HZ OVC023 10/00 A3003 RMK AO2,M
RNO,2021-08-30 11:55,-119.7711,39.4839,1341.00,57.00,28.00,32.75,0.00,0.00,0.00,30.01,1010.60,10.00,M,CLR,M,M,M,M,M,M,M,M,M,M,M,M,M,M,57.00,KRNO 301155Z 00000KT 10SM CLR 14/M02 A3001 RMK AO2 SLP106 T01391022 10256 20139 53002 $,M
CXP,2021-08-30 11:55,-119.7326,39.1923,1431.00,53.60,28.40,37.67,0.00,0.00,0.00,30.04,M,9.00,M,OVC,M,M,M,2300.00,M,M,M,M,M,M,M,M,M,M,53.60,KCXP 301155Z AUTO 00000KT 9SM OVC023 12/M02 A3004 RMK AO2,M
HTH,2021-08-30 11:55,-118.6315,38.5448,1282.89,64.40,26.60,23.77,130.00,4.00,0.00,29.99,M,6.00,M,OVC,M,M,M,7000.00,M,M,M,HZ,M,M,M,M,M,M,64.40,KHTH 301155Z AUTO 13004KT 6SM HZ OVC070 18/M03 A2999 RMK A01,M
TMT,2021-08-30 11:55,-117.1971,39.4643,1749.34,40.00,16.00,37.44,0.00,0.00,0.00,30.11,M,10.00,M,CLR,M,M,M,M,M,M,M,M,M,M,M,M,M,M,39.90,KTMT 301155Z AUTO 00000KT 10SM CLR 04/M09 A3011 RMK AO2 T00441089 10127 20022,M
NFL,2021-08-30 11:56,-118.7010,39.4166,1199.00,58.00,21.00,23.67,150.00,5.00,0.00,29.96,1011.60,7.00,M,BKN,M,M,M,8000.00,M,M,M,M,M,M,M,M,M,M,57.90,KNFL 301156Z AUTO 15005KT 7SM BKN080 14/M06 A2996 RMK AO2 SLP116 T01441061 10256 20144 53001,M
HND,2021-08-30 11:56,-115.1344,35.9729,742.79,86.00,49.00,27.74,180.00,11.00,0.00,29.80,1006.90,10.00,M,CLR,M,M,M,M,M,M,M,M,M,M,M,M,M,M,83.48,KHND 301156Z AUTO 18011KT 10SM CLR 30/09 A2980 RMK AO2 SLP069 T03000094 10339 20294 56006,M
LAS,2021-08-30 11:56,-115.1634,36.0719,663.00,84.00,51.00,32.10,290.00,6.00,0.00,29.77,1004.80,10.00,M,FEW,M,M,M,15000.00,M,M,M,M,M,M,M,M,M,M,82.23,KLAS 301156Z 29006KT 10SM FEW150 29/11 A2977 RMK AO2 SLP048 T02890106 10344 20289 55002 $,M
WMC,2021-08-30 11:56,-117.8072,40.9019,1315.00,54.00,23.00,29.67,160.00,6.00,0.00,29.96,1009.20,6.00,M,OVC,M,M,M,6000.00,M,M,M,HZ,M,M,M,M,M,M,54.00,KWMC 301156Z AUTO 16006KT 6SM HZ OVC060 12/M05 A2996 RMK AO2 SLP092 T01221050 10206 20094 53003 $,M
TPH,2021-08-30 11:56,-117.0904,38.0505,1654.00,61.00,19.00,19.46,360.00,8.00,0.00,30.06,1009.30,10.00,M,CLR,M,M,M,M,M,M,M,M,M,M,M,M,M,M,61.00,KTPH 301156Z AUTO 36008KT 10SM CLR 16/M07 A3006 RMK AO2 SLP093 T01611072 10217 20161 53002 $,M
EKO,2021-08-30 11:56,-115.7860,40.8242,1367.00,49.00,21.90,34.20,80.00,3.00,0.00,30.02,1011.50,9.00,M,FEW,M,M,M,9000.00,M,M,M,M,M,M,M,M,M,M,48.01,KEKO 301156Z AUTO 08003KT 9SM FEW090 09/M06 A3002 RMK AO2 SLP115 T00941056 10161 20072 51003,M
LSV,2021-08-30 11:58,-115.0343,36.2362,570.00,84.00,49.30,30.03,40.00,8.00,0.00,29.74,1004.10,10.00,M,CLR,M,M,M,M,M,M,M,M,M,M,M,M,M,M,82.01,KLSV 301158Z AUTO 04008KT 10SM CLR 29/10 A2974 RMK AO2 SLP041 T02890096 10351 20285 55002 $,M
INS,2021-08-30 11:58,-115.6733,36.5872,955.00,73.00,37.80,27.88,0.00,0.00,0.00,29.85,1005.30,10.00,M,CLR,M,M,M,M,M,M,M,M,M,M,M,M,M,M,72.90,KINS 301158Z AUTO 00000KT 10SM CLR 23/03 A2985 RMK AO2 SLP053 T02270032 10316 20215 50001 $,M
HTH,2021-08-30 12:15,-118.6315,38.5448,1282.89,64.40,26.60,23.77,0.00,0.00,0.00,29.99,M,6.00,M,OVC,M,M,M,7000.00,M,M,M,HZ,M,M,M,M,M,M,64.40,KHTH 301215Z AUTO 00000KT 6SM HZ OVC070 18/M03 A2999 RMK A01,M
CXP,2021-08-30 12:15,-119.7326,39.1923,1431.00,55.40,30.20,37.97,0.00,0.00,0.00,30.04,M,8.00,M,OVC,M,M,M,2100.00,M,M,M,M,M,M,M,M,M,M,55.40,KCXP 301215Z AUTO 00000KT 8SM OVC021 13/M01 A3004 RMK AO2,M
BVU,2021-08-30 12:15,-114.8611,35.9475,671.00,80.60,51.80,36.79,40.00,6.00,0.00,29.77,M,10.00,M,CLR,M,M,M,M,M,M,M,M,M,M,M,M,M,M,80.08,KBVU 301215Z AUTO 04006KT 10SM CLR 27/11 A2977 RMK AO2,M
TMT,2021-08-30 12:15,-117.1971,39.4643,1749.34,40.00,17.10,38.97,300.00,3.00,0.00,30.11,M,10.00,M,CLR,M,M,M,M,M,M,M,M,M,M,M,M,M,M,37.95,KTMT 301215Z AUTO 30003KT 10SM CLR 05/M08 A3011 RMK AO2 T00451083,M
RTS,2021-08-30 12:15,-119.8764,39.6682,1539.00,53.60,19.40,25.85,0.00,0.00,0.00,30.05,M,10.00,M,CLR,M,M,M,M,M,M,M,M,M,M,M,M,M,M,53.60,KRTS 301215Z AUTO 00000KT 10SM CLR 12/M07 A3005 RMK AO2,M
MEV,2021-08-30 12:15,-119.7500,38.9963,1441.42,48.20,32.00,53.27,0.00,0.00,0.00,30.03,M,5.00,M,BKN,OVC,M,M,2300.00,7000.00,M,M,HZ,M,M,M,M,M,M,48.20,KMEV 301215Z AUTO 00000KT 5SM HZ BKN023 OVC070 09/00 A3003 RMK AO2,M
BAM,2021-08-30 12:15,-116.8743,40.5990,1382.36,53.60,17.60,23.93,110.00,6.00,0.00,29.99,M,10.00,M,CLR,M,M,M,M,M,M,M,M,M,M,M,M,M,M,53.60,KBAM 301215Z AUTO 11006KT 10SM CLR 12/M08 A2999 RMK AO1,M
MEV,2021-08-30 12:35,-119.7500,38.9963,1441.42,48.20,33.80,57.26,90.00,4.00,0.00,30.03,M,4.00,M,BKN,OVC,M,M,2300.00,7000.00,M,M,HZ,M,M,M,M,M,M,46.34,KMEV 301235Z AUTO 09004KT 4SM HZ BKN023 OVC070 09/01 A3003 RMK AO2,M
CXP,2021-08-30 12:35,-119.7326,39.1923,1431.00,53.60,26.60,34.98,0.00,0.00,0.00,30.04,M,8.00,M,OVC,M,M,M,2200.00,M,M,M,M,M,M,M,M,M,M,53.60,KCXP 301235Z AUTO 00000KT 8SM OVC022 12/M03 A3004 RMK AO2,M
HTH,2021-08-30 12:35,-118.6315,38.5448,1282.89,64.40,26.60,23.77,0.00,0.00,0.00,30.00,M,6.00,M,OVC,M,M,M,7000.00,M,M,M,HZ,M,M,M,M,M,M,64.40,KHTH 301235Z AUTO 00000KT 6SM HZ OVC070 18/M03 A3000 RMK A01,M
TMT,2021-08-30 12:35,-117.1971,39.4643,1749.34,34.70,14.50,43.04,0.00,0.00,0.00,30.11,M,10.00,M,CLR,M,M,M,M,M,M,M,M,M,M,M,M,M,M,34.70,KTMT 301235Z AUTO 00000KT 10SM CLR 02/M10 A3011 RMK AO2 T00151097,M
BAM,2021-08-30 12:35,-116.8743,40.5990,1382.36,51.80,17.60,25.56,140.00,3.00,0.00,29.99,M,10.00,M,CLR,M,M,M,M,M,M,M,M,M,M,M,M,M,M,51.80,KBAM 301235Z AUTO 14003KT 10SM CLR 11/M08 A2999 RMK AO1,M
RTS,2021-08-30 12:35,-119.8764,39.6682,1539.00,53.60,24.80,32.46,M,3.00,0.00,30.06,M,10.00,M,CLR,M,M,M,M,M,M,M,M,M,M,M,M,M,M,53.60,KRTS 301235Z AUTO VRB03KT 10SM CLR 12/M04 A3006 RMK AO2,M
BVU,2021-08-30 12:35,-114.8611,35.9475,671.00,80.60,51.80,36.79,60.00,7.00,0.00,29.78,M,10.00,M,CLR,M,M,M,M,M,M,M,M,M,M,M,M,M,M,80.08,KBVU 301235Z AUTO 06007KT 10SM CLR 27/11 A2978 RMK AO2,M
P68,2021-08-30 12:53,-116.0056,39.6014,1993.00,53.00,19.00,25.88,180.00,7.00,0.00,30.10,1010.50,M,M,M,M,M,M,M,M,M,M,M,M,M,M,M,M,M,53.10,KP68 301253Z AUTO 18007KT 12/M07 A3010 RMK AO1 SLP105 T01171072,M
ELY,2021-08-30 12:53,-114.8453,39.2950,1909.00,45.00,23.00,41.50,180.00,10.00,0.00,30.12,1010.50,10.00,M,CLR,M,M,M,M,M,M,M,M,M,M,M,M,M,M,39.27,KELY 301253Z AUTO 18010KT 10SM CLR 07/M05 A3012 RMK AO2 SLP105 T00721050 $,M
VGT,2021-08-30 12:53,-115.1933,36.2111,667.00,82.00,51.00,34.25,320.00,5.00,0.00,29.77,1006.60,10.00,M,CLR,M,M,M,M,M,M,M,M,M,M,M,M,M,M,80.85,KVGT 301253Z AUTO 32005KT 10SM CLR 28/11 A2977 RMK AO2 SLP066 T02780106,M
LOL,2021-08-30 12:53,-118.5701,40.0684,1192.43,51.00,28.00,40.63,0.00,0.00,0.00,29.95,1010.50,8.00,M,OVC,M,M,M,5000.00,M,M,M,M,M,M,M,M,M,M,51.10,KLOL 301253Z AUTO 00000KT 8SM OVC050 11/M02 A2995 RMK AO2 SLP105 T01061022,M
CXP,2021-08-30 12:55,-119.7326,39.1923,1431.00,51.80,30.20,43.32,0.00,0.00,0.00,30.05,M,8.00,M,OVC,M,M,M,2300.00,M,M,M,M,M,M,M,M,M,M,51.80,KCXP 301255Z AUTO 00000KT 8SM OVC023 11/M01 A3005 RMK AO2,M
RTS,2021-08-30 12:55,-119.8764,39.6682,1539.00,46.40,17.60,31.28,310.00,5.00,0.00,30.06,M,10.00,M,CLR,M,M,M,M,M,M,M,M,M,M,M,M,M,M,43.50,KRTS 301255Z AUTO 31005KT 10SM CLR 08/M08 A3006 RMK AO2,M
MEV,2021-08-30 12:55,-119.7500,38.9963,1441.42,48.20,33.80,57.26,0.00,0.00,0.00,30.03,M,3.00,M,OVC,M,M,M,2300.00,M,M,M,HZ,M,M,M,M,M,M,48.20,KMEV 301255Z AUTO 00000KT 3SM HZ OVC023 09/01 A3003 RMK AO2,M
BAM,2021-08-30 12:55,-116.8743,40.5990,1382.36,50.00,17.60,27.33,110.00,4.00,0.00,29.99,M,10.00,M,CLR,M,M,M,M,M,M,M,M,M,M,M,M,M,M,50.00,KBAM 301255Z AUTO 11004KT 10SM CLR 10/M08 A2999 RMK AO1,M
RNO,2021-08-30 12:55,-119.7711,39.4839,1341.00,56.00,30.90,38.36,0.00,0.00,0.00,30.02,1011.00,10.00,M,CLR,M,M,M,M,M,M,M,M,M,M,M,M,M,M,55.90,KRNO 301255Z 00000KT 10SM CLR 13/M01 A3002 RMK AO2 SLP110 FU ALF DSNT NE THRU E T01331006 $,M
TMT,2021-08-30 12:55,-117.1971,39.4643,1749.34,37.00,15.80,41.58,0.00,0.00,0.00,30.11,M,10.00,M,CLR,M,M,M,M,M,M,M,M,M,M,M,M,M,M,37.00,KTMT 301255Z AUTO 00000KT 10SM CLR 03/M09 A3011 RMK AO2 T00281090,M
HTH,2021-08-30 12:55,-118.6315,38.5448,1282.89,64.40,26.60,23.77,0.00,0.00,0.00,30.00,M,7.00,M,OVC,M,M,M,7500.00,M,M,M,M,M,M,M,M,M,M,64.40,KHTH 301255Z AUTO 00000KT 7SM OVC075 18/M03 A3000 RMK A01,M
BVU,2021-08-30 12:55,-114.8611,35.9475,671.00,80.60,51.80,36.79,50.00,6.00,0.00,29.79,M,10.00,M,CLR,M,M,M,M,M,M,M,M,M,M,M,M,M,M,80.08,KBVU 301255Z AUTO 05006KT 10SM CLR 27/11 A2979 RMK AO2,M
HND,2021-08-30 12:56,-115.1344,35.9729,742.79,84.00,48.00,28.60,190.00,3.00,0.00,29.82,1007.80,10.00,M,CLR,M,M,M,M,M,M,M,M,M,M,M,M,M,M,81.87,KHND 301256Z 19003KT 10SM CLR 29/09 A2982 RMK AO2 SLP078 T02890089,M
EKO,2021-08-30 12:56,-115.7860,40.8242,1367.00,43.00,24.10,46.91,0.00,0.00,0.00,30.04,1012.50,9.00,M,CLR,M,M,M,M,M,M,M,M,M,M,M,M,M,M,43.00,KEKO 301256Z AUTO 00000KT 9SM CLR 06/M04 A3004 RMK AO2 SLP125 T00611044,M
NFL,2021-08-30 12:56,-118.7010,39.4166,1199.00,59.00,21.90,23.64,140.00,6.00,0.00,29.96,1011.70,7.00,M,CLR,M,M,M,M,M,M,M,M,M,M,M,M,M,M,59.00,KNFL 301256Z AUTO 14006KT 7SM CLR 15/M06 A2996 RMK AO2 SLP117 T01501056,M
LAS,2021-08-30 12:56,-115.1634,36.0719,663.00,82.00,52.00,35.41,310.00,4.00,0.00,29.79,1005.40,10.00,M,FEW,M,M,M,15000.00,M,M,M,M,M,M,M,M,M,M,80.97,KLAS 301256Z 31004KT 10SM FEW150 28/11 A2979 RMK AO2 SLP054 T02780111 $,M
TPH,2021-08-30 12:56,-117.0904,38.0505,1654.00,60.00,17.10,18.52,360.00,10.00,0.00,30.06,1009.60,10.00,M,CLR,M,M,M,M,M,M,M,M,M,M,M,M,M,M,60.10,KTPH 301256Z AUTO 36010KT 10SM CLR 16/M08 A3006 RMK AO2 SLP096 T01561083 $,M
WMC,2021-08-30 12:56,-117.8072,40.9019,1315.00,49.00,23.00,35.83,0.00,0.00,0.00,29.96,1009.90,6.00,M,OVC,M,M,M,8000.00,M,M,M,HZ,M,M,M,M,M,M,48.90,KWMC 301256Z AUTO 00000KT 6SM HZ OVC080 09/M05 A2996 RMK AO2 SLP099 T00941050 $,M
LSV,2021-08-30 12:58,-115.0343,36.2362,570.00,83.00,49.30,30.91,50.00,11.00,0.00,29.75,1004.50,10.00,M,CLR,M,M,M,M,M,M,M,M,M,M,M,M,M,M,81.38,KLSV 301258Z AUTO 05011KT 10SM CLR 28/10 A2975 RMK AO2 SLP045 T02840096 $,M
INS,2021-08-30 12:58,-115.6733,36.5872,955.00,70.00,36.30,28.99,250.00,4.00,0.00,29.86,1005.80,10.00,M,CLR,M,M,M,M,M,M,M,M,M,M,M,M,M,M,70.00,KINS 301258Z AUTO 25004KT 10SM CLR 21/02 A2986 RMK AO2 SLP058 T02110024 $,M
TMT,2021-08-30 13:15,-117.1971,39.4643,1749.34,37.40,18.10,45.21,0.00,0.00,0.00,30.11,M,10.00,M,CLR,M,M,M,M,M,M,M,M,M,M,M,M,M,M,37.40,KTMT 301315Z AUTO 00000KT 10SM CLR 03/M08 A3011 RMK AO2 T00301077,M
BVU,2021-08-30 13:15,-114.8611,35.9475,671.00,82.40,51.80,34.69,70.00,4.00,0.00,29.79,M,10.00,M,CLR,M,M,M,M,M,M,M,M,M,M,M,M,M,M,81.20,KBVU 301315Z AUTO 07004KT 10SM CLR 28/11 A2979 RMK AO2,M
CXP,2021-08-30 13:15,-119.7326,39.1923,1431.00,50.00,32.00,49.81,0.00,0.00,0.00,30.05,M,7.00,M,OVC,M,M,M,2400.00,M,M,M,M,M,M,M,M,M,M,50.00,KCXP 301315Z AUTO 00000KT 7SM OVC024 10/M00 A3005 RMK AO2,M
RTS,2021-08-30 13:15,-119.8764,39.6682,1539.00,50.00,19.40,29.52,330.00,4.00,0.00,30.06,M,10.00,M,CLR,M,M,M,M,M,M,M,M,M,M,M,M,M,M,50.00,KRTS 301315Z AUTO 33004KT 10SM CLR 10/M07 A3006 RMK AO2,M
MEV,2021-08-30 13:15,-119.7500,38.9963,1441.42,46.40,32.00,57.00,0.00,0.00,0.00,30.04,M,3.00,M,OVC,M,M,M,2400.00,M,M,M,HZ,M,M,M,M,M,M,46.40,KMEV 301315Z AUTO 00000KT 3SM HZ OVC024 08/M00 A3004 RMK AO2,M
BAM,2021-08-30 13:15,-116.8743,40.5990,1382.36,50.00,19.40,29.52,110.00,5.00,0.00,29.99,M,10.00,M,CLR,M,M,M,M,M,M,M,M,M,M,M,M,M,M,50.00,KBAM 301315Z AUTO 11005KT 10SM CLR 10/M07 A2999 RMK AO1,M
HTH,2021-08-30 13:15,-118.6315,38.5448,1282.89,62.60,24.80,23.50,0.00,0.00,0.00,30.00,M,7.00,M,FEW,SCT,BKN,M,2900.00,3400.00,7500.00,M,M,M,M,M,M,M,M,62.60,KHTH 301315Z AUTO 00000KT 7SM FEW029 SCT034 BKN075 17/M04 A3000 RMK A01,M
CXP,2021-08-30 13:35,-119.7326,39.1923,1431.00,50.00,30.20,46.31,0.00,0.00,0.00,30.05,M,6.00,M,OVC,M,M,M,2300.00,M,M,M,HZ,M,M,M,M,M,M,50.00,KCXP 301335Z AUTO 00000KT 6SM HZ OVC023 10/M01 A3005 RMK AO2,M
BAM,2021-08-30 13:35,-116.8743,40.5990,1382.36,50.00,21.20,31.87,100.00,5.00,0.00,30.00,M,10.00,M,CLR,M,M,M,M,M,M,M,M,M,M,M,M,M,M,50.00,KBAM 301335Z AUTO 10005KT 10SM CLR 10/M06 A3000 RMK AO1,M
HTH,2021-08-30 13:35,-118.6315,38.5448,1282.89,64.40,30.20,27.55,0.00,0.00,0.00,30.01,M,4.00,M,FEW,FEW,M,M,3100.00,3700.00,M,M,HZ,M,M,M,M,M,M,64.40,KHTH 301335Z AUTO 00000KT 4SM HZ FEW031 FEW037 18/M01 A3001 RMK A01,M
TMT,2021-08-30 13:35,-117.1971,39.4643,1749.34,36.00,16.30,44.21,0.00,0.00,0.00,30.12,M,10.00,M,CLR,M,M,M,M,M,M,M,M,M,M,M,M,M,M,36.00,KTMT 301335Z AUTO 00000KT 10SM CLR 02/M09 A3012 RMK AO2 T00221087,M
RTS,2021-08-30 13:35,-119.8764,39.6682,1539.00,48.20,19.40,31.57,0.00,0.00,0.00,30.06,M,10.00,M,CLR,M,M,M,M,M,M,M,M,M,M,M,M,M,M,48.20,KRTS 301335Z AUTO 00000KT 10SM CLR 09/M07 A3006 RMK AO2,M
BVU,2021-08-30 13:35,-114.8611,35.9475,671.00,80.60,51.80,36.79,20.00,5.00,0.00,29.79,M,10.00,M,CLR,M,M,M,M,M,M,M,M,M,M,M,M,M,M,80.08,KBVU 301335Z AUTO 02005KT 10SM CLR 27/11 A2979 RMK AO2,M
MEV,2021-08-30 13:35,-119.7500,38.9963,1441.42,46.40,33.80,61.28,0.00,0.00,0.00,30.04,M,1.25,M,OVC,M,M,M,2600.00,M,M,M,HZ,M,M,M,M,M,M,46.40,KMEV 301335Z AUTO 00000KT 1 1/4SM HZ OVC026 08/01 A3004 RMK AO2 VIS 1/2V2 1/2,M
P68,2021-08-30 13:53,-116.0056,39.6014,1993.00,51.00,21.90,31.52,180.00,7.00,0.00,30.10,1011.70,M,M,M,M,M,M,M,M,M,M,M,M,M,M,M,M,M,51.10,KP68 301353Z AUTO 18007KT 11/M06 A3010 RMK AO1 SLP117 T01061056,M
ELY,2021-08-30 13:53,-114.8453,39.2950,1909.00,48.00,24.10,38.80,170.00,9.00,0.00,30.13,1011.40,10.00,M,CLR,M,M,M,M,M,M,M,M,M,M,M,M,M,M,43.41,KELY 301353Z AUTO 17009KT 10SM CLR 09/M04 A3013 RMK AO2 SLP114 T00891044 $,M
VGT,2021-08-30 13:53,-115.1933,36.2111,667.00,84.00,49.00,29.58,320.00,3.00,0.00,29.79,1007.30,10.00,M,CLR,M,M,M,M,M,M,M,M,M,M,M,M,M,M,81.97,KVGT 301353Z AUTO 32003KT 10SM CLR 29/09 A2979 RMK AO2 SLP073 T02890094,M
LOL,2021-08-30 13:53,-118.5701,40.0684,1192.43,50.00,26.10,39.14,90.00,5.00,0.00,29.97,1011.20,5.00,M,OVC,M,M,M,5000.00,M,M,M,HZ,M,M,M,M,M,M,50.00,KLOL 301353Z AUTO 09005KT 5SM HZ OVC050 10/M03 A2997 RMK AO2 SLP112 T01001033,M
BAM,2021-08-30 13:55,-116.8743,40.5990,1382.36,50.00,21.20,31.87,100.00,5.00,0.00,30.01,M,7.00,M,CLR,M,M,M,M,M,M,M,M,M,M,M,M,M,M,50.00,KBAM 301355Z AUTO 10005KT 7SM CLR 10/M06 A3001 RMK AO1,M
TMT,2021-08-30 13:55,-117.1971,39.4643,1749.34,38.80,17.40,41.53,0.00,0.00,0.00,30.12,M,10.00,M,CLR,M,M,M,M,M,M,M,M,M,M,M,M,M,M,38.80,KTMT 301355Z AUTO 00000KT 10SM CLR 04/M08 A3012 RMK AO2 T00381081,M
BVU,2021-08-30 13:55,-114.8611,35.9475,671.00,82.40,51.80,34.69,40.00,4.00,0.00,29.80,M,10.00,M,CLR,M,M,M,M,M,M,M,M,M,M,M,M,M,M,81.20,KBVU 301355Z AUTO 04004KT 10SM CLR 28/11 A2980 RMK AO2,M
RNO,2021-08-30 13:55,-119.7711,39.4839,1341.00,56.00,32.00,40.10,140.00,3.00,0.00,30.03,1011.40,10.00,M,CLR,M,M,M,M,M,M,M,M,M,M,M,M,M,M,55.90,KRNO 301355Z 14003KT 10SM CLR 13/00 A3003 RMK AO2 SLP114 FU DSNT SE THRU SW FU ALF DSNT NE THRU E T01330000 $,M
CXP,2021-08-30 13:55,-119.7326,39.1923,1431.00,50.00,30.20,46.31,0.00,0.00,0.00,30.05,M,6.00,M,OVC,M,M,M,2200.00,M,M,M,HZ,M,M,M,M,M,M,50.00,KCXP 301355Z AUTO 00000KT 6SM HZ OVC022 10/M01 A3005 RMK AO2,M
RTS,2021-08-30 13:55,-119.8764,39.6682,1539.00,51.80,19.40,27.62,340.00,4.00,0.00,30.06,M,10.00,M,CLR,M,M,M,M,M,M,M,M,M,M,M,M,M,M,51.80,KRTS 301355Z AUTO 34004KT 10SM CLR 11/M07 A3006 RMK AO2,M
MEV,2021-08-30 13:55,-119.7500,38.9963,1441.42,44.60,35.60,70.48,120.00,4.00,0.00,30.04,M,2.00,M,BKN,BKN,M,M,2700.00,3200.00,M,M,HZ,M,M,M,M,M,M,42.13,KMEV 301355Z AUTO 12004KT 2SM HZ BKN027 BKN032 07/02 A3004 RMK AO2,M
HTH,2021-08-30 13:55,-118.6315,38.5448,1282.89,62.60,28.40,27.27,140.00,4.00,0.00,30.01,M,5.00,M,CLR,M,M,M,M,M,M,M,HZ,M,M,M,M,M,M,62.60,KHTH 301355Z AUTO 14004KT 5SM HZ CLR 17/M02 A3001 RMK A01,M
WMC,2021-08-30 13:56,-117.8072,40.9019,1315.00,48.00,23.00,37.06,160.00,5.00,0.00,29.98,1011.00,5.00,M,OVC,M,M,M,7000.00,M,M,M,HZ,M,M,M,M,M,M,45.40,KWMC 301356Z AUTO 16005KT 5SM HZ OVC070 09/M05 A2998 RMK AO2 SLP110 T00891050 $,M
LAS,2021-08-30 13:56,-115.1634,36.0719,663.00,84.00,51.00,32.10,290.00,4.00,0.00,29.81,1006.10,10.00,M,FEW,M,M,M,15000.00,M,M,M,M,M,M,M,M,M,M,82.23,KLAS 301356Z 29004KT 10SM FEW150 29/11 A2981 RMK AO2 SLP061 T02890106 $,M
TPH,2021-08-30 13:56,-117.0904,38.0505,1654.00,61.00,19.00,19.46,10.00,8.00,0.00,30.08,1010.30,10.00,M,CLR,M,M,M,M,M,M,M,M,M,M,M,M,M,M,61.00,KTPH 301356Z AUTO 01008KT 10SM CLR 16/M07 A3008 RMK AO2 SLP103 T01611072 $,M
HND,2021-08-30 13:56,-115.1344,35.9729,742.79,81.00,50.00,33.97,180.00,3.00,0.00,29.84,1008.60,10.00,M,CLR,M,M,M,M,M,M,M,M,M,M,M,M,M,M,80.12,KHND 301356Z 18003KT 10SM CLR 27/10 A2984 RMK AO2 SLP086 T02720100,M
NFL,2021-08-30 13:56,-118.7010,39.4166,1199.00,59.00,23.00,24.76,180.00,6.00,0.00,29.97,1012.00,6.00,M,BKN,M,M,M,9000.00,M,M,M,HZ,M,M,M,M,M,M,59.00,KNFL 301356Z AUTO 18006KT 6SM HZ BKN090 15/M05 A2997 RMK AO2 SLP120 T01501050,M
EKO,2021-08-30 13:56,-115.7860,40.8242,1367.00,48.00,19.90,32.50,0.00,0.00,0.00,30.05,1012.90,7.00,M,FEW,M,M,M,9500.00,M,M,M,M,M,M,M,M,M,M,48.00,KEKO 301356Z AUTO 00000KT 7SM FEW095 09/M07 A3005 RMK AO2 SLP129 T00891067,M
INS,2021-08-30 13:58,-115.6733,36.5872,955.00,71.80,36.00,26.95,0.00,0.00,0.00,29.88,1006.50,10.00,M,FEW,M,M,M,15000.00,M,M,M,M,M,M,M,M,M,M,71.80,KINS 301358Z AUTO 00000KT 10SM FEW150 22/02 A2988 RMK AO2 SLP065 T02210022 $,M
LSV,2021-08-30 13:58,-115.0343,36.2362,570.00,84.60,48.70,28.80,60.00,9.00,0.00,29.78,1005.50,10.00,M,CLR,M,M,M,M,M,M,M,M,M,M,M,M,M,M,82.38,KLSV 301358Z AUTO 06009KT 10SM CLR 29/09 A2978 RMK AO2 SLP055 T02920093 $,M
BVU,2021-08-30 14:15,-114.8611,35.9475,671.00,84.20,51.80,32.73,50.00,5.00,0.00,29.80,M,10.00,M,CLR,M,M,M,M,M,M,M,M,M,M,M,M,M,M,82.48,KBVU 301415Z AUTO 05005KT 10SM CLR 29/11 A2980 RMK AO2,M
HTH,2021-08-30 14:15,-118.6315,38.5448,1282.89,62.60,24.80,23.50,120.00,5.00,0.00,30.01,M,5.00,M,CLR,M,M,M,M,M,M,M,HZ,M,M,M,M,M,M,62.60,KHTH 301415Z AUTO 12005KT 5SM HZ CLR 17/M04 A3001 RMK A01,M
BAM,2021-08-30 14:15,-116.8743,40.5990,1382.36,51.80,21.20,29.82,90.00,4.00,0.00,30.01,M,10.00,M,CLR,M,M,M,M,M,M,M,M,M,M,M,M,M,M,51.80,KBAM 301415Z AUTO 09004KT 10SM CLR 11/M06 A3001 RMK AO1,M
TMT,2021-08-30 14:15,-117.1971,39.4643,1749.34,39.20,17.20,40.53,0.00,0.00,0.00,30.13,M,10.00,M,CLR,M,M,M,M,M,M,M,M,M,M,M,M,M,M,39.20,KTMT 301415Z AUTO 00000KT 10SM CLR 04/M08 A3013 RMK AO2 T00401082,M
RTS,2021-08-30 14:15,-119.8764,39.6682,1539.00,51.80,19.40,27.62,320.00,3.00,0.00,30.06,M,10.00,M,CLR,M,M,M,M,M,M,M,M,M,M,M,M,M,M,51.80,KRTS 301415Z AUTO 32003KT 10SM CLR 11/M07 A3006 RMK AO2,M
CXP,2021-08-30 14:15,-119.7326,39.1923,1431.00,51.80,32.00,46.59,0.00,0.00,0.00,30.05,M,6.00,M,BKN,OVC,M,M,2000.00,2500.00,M,M,HZ,M,M,M,M,M,M,51.80,KCXP 301415Z AUTO 00000KT 6SM HZ BKN020 OVC025 11/M00 A3005 RMK AO2,M
MEV,2021-08-30 14:15,-119.7500,38.9963,1441.42,46.40,35.60,65.83,160.00,7.00,0.00,30.04,M,5.00,M,FEW,FEW,SCT,M,1300.00,2700.00,3100.00,M,HZ,M,M,M,M,M,M,42.33,KMEV 301415Z AUTO 16007KT 5SM HZ FEW013 FEW027 SCT031 08/02 A3004 RMK AO2,M
BAM,2021-08-30 14:35,-116.8743,40.5990,1382.36,53.60,23.00,30.11,110.00,3.00,0.00,30.01,M,10.00,M,CLR,M,M,M,M,M,M,M,M,M,M,M,M,M,M,53.60,KBAM 301435Z AUTO 11003KT 10SM CLR 12/M05 A3001 RMK AO1,M
RTS,2021-08-30 14:35,-119.8764,39.6682,1539.00,53.60,19.40,25.85,0.00,0.00,0.00,30.06,M,10.00,M,CLR,M,M,M,M,M,M,M,M,M,M,M,M,M,M,53.60,KRTS 301435Z AUTO 00000KT 10SM CLR 12/M07 A3006 RMK AO2,M
BVU,2021-08-30 14:35,-114.8611,35.9475,671.00,87.80,51.80,29.18,80.00,4.00,0.00,29.81,M,8.00,M,CLR,M,M,M,M,M,M,M,M,M,M,M,M,M,M,85.39,KBVU 301435Z AUTO 08004KT 8SM CLR 31/11 A2981 RMK AO2,M
CXP,2021-08-30 14:35,-119.7326,39.1923,1431.00,55.40,30.20,37.97,0.00,0.00,0.00,30.05,M,6.00,M,OVC,M,M,M,2000.00,M,M,M,HZ,M,M,M,M,M,M,55.40,KCXP 301435Z AUTO 00000KT 6SM HZ OVC020 13/M01 A3005 RMK AO2,M
TMT,2021-08-30 14:35,-117.1971,39.4643,1749.34,43.50,19.40,37.73,0.00,0.00,0.00,30.13,M,10.00,M,CLR,M,M,M,M,M,M,M,M,M,M,M,M,M,M,43.50,KTMT 301435Z AUTO 00000KT 10SM CLR 06/M07 A3013 RMK AO2 T00641070,M
HTH,2021-08-30 14:35,-118.6315,38.5448,1282.89,64.40,24.80,22.06,120.00,4.00,0.00,30.01,M,6.00,M,CLR,M,M,M,M,M,M,M,HZ,M,M,M,M,M,M,64.40,KHTH 301435Z AUTO 12004KT 6SM HZ CLR 18/M04 A3001 RMK A01,M
MEV,2021-08-30 14:35,-119.7500,38.9963,1441.42,48.20,35.60,61.52,0.00,0.00,0.00,30.05,M,1.25,M,BKN,M,M,M,1400.00,M,M,M,HZ,M,M,M,M,M,M,48.20,KMEV 301435Z AUTO 00000KT 1 1/4SM HZ BKN014 09/02 A3005 RMK AO2 VIS 1/2V5,M
NFL,2021-08-30 14:41,-118.7010,39.4166,1199.00,63.00,23.00,21.49,220.00,4.00,0.00,29.97,M,5.00,M,OVC,M,M,M,4900.00,M,M,M,FU,M,M,M,M,M,M,63.00,KNFL 301441Z 22004KT 5SM FU OVC049 17/M05 A2997 RMK AO2 FU OVC049 T01721050,M
ELY,2021-08-30 14:53,-114.8453,39.2950,1909.00,54.00,26.10,33.77,170.00,7.00,0.00,30.13,1011.80,10.00,M,CLR,M,M,M,M,M,M,M,M,M,M,M,M,M,M,54.00,KELY 301453Z AUTO 17007KT 10SM CLR 12/M03 A3013 RMK AO2 SLP118 T01221033 51007 $,M
LOL,2021-08-30 14:53,-118.5701,40.0684,1192.43,58.00,30.90,35.69,80.00,3.00,0.00,29.97,1011.30,5.00,M,BKN,OVC,M,M,3400.00,4900.00,M,M,HZ,M,M,M,M,M,M,57.90,KLOL 301453Z AUTO 08003KT 5SM HZ BKN034 OVC049 14/M01 A2997 RMK AO2 SLP113 T01441006 51008,M
VGT,2021-08-30 14:53,-115.1933,36.2111,667.00,89.00,50.00,26.19,340.00,3.00,0.00,29.80,1007.50,10.00,M,CLR,M,M,M,M,M,M,M,M,M,M,M,M,M,M,86.25,KVGT 301453Z AUTO 34003KT 10SM CLR 32/10 A2980 RMK AO2 SLP075 T03170100 51015,M
RNO,2021-08-30 14:55,-119.7711,39.4839,1341.00,60.00,30.00,31.80,170.00,5.00,0.00,30.03,1011.50,10.00,M,CLR,M,M,M,M,M,M,M,M,M,M,M,M,M,M,60.10,KRNO 301455Z 17005KT 10SM CLR 16/M01 A3003 RMK AO2 SLP115 FU ALF DSNT N THRU NE AND SE THRU SW T01561011 51005,M
TMT,2021-08-30 14:55,-117.1971,39.4643,1749.34,46.80,21.40,36.24,0.00,0.00,0.00,30.12,M,10.00,M,CLR,M,M,M,M,M,M,M,M,M,M,M,M,M,M,46.80,KTMT 301455Z AUTO 00000KT 10SM CLR 08/M06 A3012 RMK AO2 T00821059,M
BVU,2021-08-30 14:55,-114.8611,35.9475,671.00,87.80,48.20,25.52,0.00,0.00,0.00,29.82,M,10.00,M,CLR,M,M,M,M,M,M,M,M,M,M,M,M,M,M,84.87,KBVU 301455Z AUTO 00000KT 10SM CLR 31/09 A2982 RMK AO2,M
MEV,2021-08-30 14:55,-119.7500,38.9963,1441.42,50.00,35.60,57.52,250.00,6.00,0.00,30.05,M,1.25,M,SCT,M,M,M,1400.00,M,M,M,HZ,M,M,M,M,M,M,50.00,KMEV 301455Z AUTO 25006KT 1 1/4SM HZ SCT014 10/02 A3005 RMK AO2,M
HTH,2021-08-30 14:55,-118.6315,38.5448,1282.89,66.20,24.80,20.72,130.00,4.00,0.00,30.01,M,5.00,M,CLR,M,M,M,M,M,M,M,HZ,M,M,M,M,M,M,66.20,KHTH 301455Z AUTO 13004KT 5SM HZ CLR 19/M04 A3001 RMK A01,M
RTS,2021-08-30 14:55,-119.8764,39.6682,1539.00,57.20,19.40,22.68,0.00,0.00,0.00,30.06,M,10.00,M,CLR,M,M,M,M,M,M,M,M,M,M,M,M,M,M,57.20,KRTS 301455Z AUTO 00000KT 10SM CLR 14/M07 A3006 RMK AO2,M
CXP,2021-08-30 14:55,-119.7326,39.1923,1431.00,57.20,30.20,35.57,0.00,0.00,0.00,30.05,M,5.00,M,OVC,M,M,M,2000.00,M,M,M,HZ,M,M,M,M,M,M,57.20,KCXP 301455Z AUTO 00000KT 5SM HZ OVC020 14/M01 A3005 RMK AO2,M
BAM,2021-08-30 14:55,-116.8743,40.5990,1382.36,55.40,23.00,28.20,0.00,0.00,0.00,30.01,M,10.00,M,CLR,M,M,M,M,M,M,M,M,M,M,M,M,M,M,55.40,KBAM 301455Z AUTO 00000KT 10SM CLR 13/M05 A3001 RMK AO1,M
EKO,2021-08-30 14:56,-115.7860,40.8242,1367.00,51.00,19.00,27.86,70.00,6.00,0.00,30.05,1013.40,6.00,M,CLR,M,M,M,M,M,M,M,HZ,M,M,M,M,M,M,51.10,KEKO 301456Z AUTO 07006KT 6SM HZ CLR 11/M07 A3005 RMK AO2 SLP134 T01061072 51009,M
WMC,2021-08-30 14:56,-117.8072,40.9019,1315.00,57.00,25.00,28.93,0.00,0.00,0.00,29.98,1011.30,5.00,M,BKN,OVC,M,M,4200.00,5000.00,M,M,HZ,M,M,M,M,M,M,57.00,KWMC 301456Z AUTO 00000KT 5SM HZ BKN042 OVC050 14/M04 A2998 RMK AO2 SLP113 T01391039 51008 $,M
HND,2021-08-30 14:56,-115.1344,35.9729,742.79,87.00,51.00,29.07,M,3.00,0.00,29.85,1009.00,10.00,M,CLR,M,M,M,M,M,M,M,M,M,M,M,M,M,M,84.67,KHND 301456Z VRB03KT 10SM CLR 31/11 A2985 RMK AO2 SLP090 T03060106 51017,M
LAS,2021-08-30 14:56,-115.1634,36.0719,663.00,87.00,51.00,29.07,300.00,3.00,0.00,29.82,1006.60,10.00,M,FEW,M,M,M,15000.00,M,M,M,M,M,M,M,M,M,M,84.67,KLAS 301456Z 30003KT 10SM FEW150 31/11 A2982 RMK AO2 SLP066 T03060106 51017 $,M
TPH,2021-08-30 14:56,-117.0904,38.0505,1654.00,67.00,19.90,16.45,20.00,10.00,0.00,30.08,1010.70,10.00,M,CLR,M,M,M,M,M,M,M,M,M,M,M,M,M,M,66.90,KTPH 301456Z AUTO 02010KT 10SM CLR 19/M07 A3008 RMK AO2 SLP107 T01941067 52007 $,M
NFL,2021-08-30 14:56,-118.7010,39.4166,1199.00,62.00,25.00,24.12,220.00,4.00,0.00,29.97,1012.20,5.00,M,OVC,M,M,M,4900.00,M,M,M,FU,M,M,M,M,M,M,62.10,KNFL 301456Z 22004KT 5SM FU OVC049 17/M04 A2997 RMK AO2 SLP122 FU OVC049 T01671039 53005,M
LSV,2021-08-30 14:58,-115.0343,36.2362,570.00,89.40,50.00,25.95,70.00,8.00,0.00,29.79,1005.70,10.00,M,CLR,M,M,M,M,M,M,M,M,M,M,M,M,M,M,86.51,KLSV 301458Z AUTO 07008KT 10SM CLR 32/10 A2979 RMK AO2 SLP057 T03190100 52014 $,M
INS,2021-08-30 14:58,-115.6733,36.5872,955.00,77.00,39.20,25.67,0.00,0.00,0.00,29.94,M,10.00,M,FEW,M,M,M,12000.00,M,M,M,M,M,M,M,M,M,M,77.00,KINS 301458Z 00000KT 10SM FEW120 25/04 A2994 RMK SLPNO WND DATA ESTMD ALSTG DATA ESTMD,M
BAM,2021-08-30 15:15,-116.8743,40.5990,1382.36,62.60,26.60,25.32,60.00,3.00,0.00,30.01,M,10.00,M,CLR,M,M,M,M,M,M,M,M,M,M,M,M,M,M,62.60,KBAM 301515Z AUTO 06003KT 10SM CLR 17/M03 A3001 RMK AO1,M
RTS,2021-08-30 15:15,-119.8764,39.6682,1539.00,60.80,21.20,21.53,0.00,0.00,0.00,30.06,M,10.00,M,CLR,M,M,M,M,M,M,M,M,M,M,M,M,M,M,60.80,KRTS 301515Z AUTO 00000KT 10SM CLR 16/M06 A3006 RMK AO2,M
CXP,2021-08-30 15:15,-119.7326,39.1923,1431.00,59.00,33.80,38.56,0.00,0.00,0.00,30.05,M,5.00,M,OVC,M,M,M,2000.00,M,M,M,HZ,M,M,M,M,M,M,59.00,KCXP 301515Z AUTO 00000KT 5SM HZ OVC020 15/01 A3005 RMK AO2,M
BVU,2021-08-30 15:15,-114.8611,35.9475,671.00,91.40,50.00,24.37,0.00,0.00,0.00,29.82,M,10.00,M,CLR,M,M,M,M,M,M,M,M,M,M,M,M,M,M,88.36,KBVU 301515Z AUTO 00000KT 10SM CLR 33/10 A2982 RMK AO2,M
MEV,2021-08-30 15:15,-119.7500,38.9963,1441.42,51.80,35.60,53.81,0.00,0.00,0.00,30.04,M,2.50,M,CLR,M,M,M,M,M,M,M,HZ,M,M,M,M,M,M,51.80,KMEV 301515Z AUTO 00000KT 2 1/2SM HZ CLR 11/02 A3004 RMK AO2,M
TMT,2021-08-30 15:15,-117.1971,39.4643,1749.34,50.20,22.30,33.14,0.00,0.00,0.00,30.12,M,10.00,M,CLR,M,M,M,M,M,M,M,M,M,M,M,M,M,M,50.20,KTMT 301515Z AUTO 00000KT 10SM CLR 10/M05 A3012 RMK AO2 T01011054,M
HTH,2021-08-30 15:15,-118.6315,38.5448,1282.89,69.80,26.60,19.72,0.00,0.00,0.00,30.01,M,6.00,M,CLR,M,M,M,M,M,M,M,HZ,M,M,M,M,M,M,69.80,KHTH 301515Z AUTO 00000KT 6SM HZ CLR 21/M03 A3001 RMK A01,M
RTS,2021-08-30 15:35,-119.8764,39.6682,1539.00,64.40,23.00,20.46,0.00,0.00,0.00,30.06,M,10.00,M,CLR,M,M,M,M,M,M,M,M,M,M,M,M,M,M,64.40,KRTS 301535Z AUTO 00000KT 10SM CLR 18/M05 A3006 RMK AO2,M
TMT,2021-08-30 15:35,-117.1971,39.4643,1749.34,54.00,23.70,30.44,0.00,0.00,0.00,30.12,M,10.00,M,CLR,M,M,M,M,M,M,M,M,M,M,M,M,M,M,54.10,KTMT 301535Z AUTO 00000KT 10SM CLR 12/M05 A3012 RMK AO2 T01231046,M
BAM,2021-08-30 15:35,-116.8743,40.5990,1382.36,66.20,23.00,19.22,0.00,0.00,0.00,30.01,M,10.00,M,CLR,M,M,M,M,M,M,M,M,M,M,M,M,M,M,66.20,KBAM 301535Z AUTO 00000KT 10SM CLR 19/M05 A3001 RMK AO1,M
MEV,2021-08-30 15:35,-119.7500,38.9963,1441.42,53.60,35.60,50.36,0.00,0.00,0.00,30.04,M,1.00,M,CLR,M,M,M,M,M,M,M,HZ,M,M,M,M,M,M,53.60,KMEV 301535Z AUTO 00000KT 1SM HZ CLR 12/02 A3004 RMK AO2 VIS 1/2V4,M
CXP,2021-08-30 15:35,-119.7326,39.1923,1431.00,60.80,33.80,36.16,0.00,0.00,0.00,30.05,M,5.00,M,BKN,OVC,M,M,1800.00,2400.00,M,M,HZ,M,M,M,M,M,M,60.80,KCXP 301535Z AUTO 00000KT 5SM HZ BKN018 OVC024 16/01 A3005 RMK AO2,M
HTH,2021-08-30 15:35,-118.6315,38.5448,1282.89,73.40,26.60,17.46,0.00,0.00,0.00,30.01,M,5.00,M,CLR,M,M,M,M,M,M,M,HZ,M,M,M,M,M,M,73.40,KHTH 301535Z AUTO 00000KT 5SM HZ CLR 23/M03 A3001 RMK A01,M
BVU,2021-08-30 15:35,-114.8611,35.9475,671.00,91.40,48.20,22.78,140.00,4.00,0.00,29.82,M,10.00,M,CLR,M,M,M,M,M,M,M,M,M,M,M,M,M,M,88.09,KBVU 301535Z AUTO 14004KT 10SM CLR 33/09 A2982 RMK AO2,M
LOL,2021-08-30 15:53,-118.5701,40.0684,1192.43,67.00,32.00,27.17,280.00,3.00,0.00,29.97,1011.30,4.00,M,BKN,OVC,M,M,3800.00,4900.00,M,M,HZ,M,M,M,M,M,M,66.90,KLOL 301553Z AUTO 28003KT 4SM HZ BKN038 OVC049 19/00 A2997 RMK AO2 SLP113 T01940000,M
VGT,2021-08-30 15:53,-115.1933,36.2111,667.00,93.00,51.00,24.15,90.00,6.00,0.00,29.81,1007.50,10.00,M,CLR,M,M,M,M,M,M,M,M,M,M,M,M,M,M,90.11,KVGT 301553Z 09006KT 10SM CLR 34/11 A2981 RMK AO2 SLP075 T03390106,M
ELY,2021-08-30 15:53,-114.8453,39.2950,1909.00,65.00,27.00,23.75,170.00,3.00,0.00,30.12,1010.80,10.00,M,CLR,M,M,M,M,M,M,M,M,M,M,M,M,M,M,64.90,KELY 301553Z AUTO 17003KT 10SM CLR 18/M03 A3012 RMK AO2 SLP108 T01831028,M
DRA,2021-08-30 15:53,-116.0278,36.6206,1009.00,86.00,36.00,16.89,0.00,0.00,0.00,29.89,1006.50,10.00,M,CLR,M,M,M,M,M,M,M,M,M,M,M,M,M,M,82.70,KDRA 301553Z AUTO 00000KT 10SM CLR 30/02 A2989 RMK AO2 SLP065 T03000022,M
MEV,2021-08-30 15:55,-119.7500,38.9963,1441.42,55.40,35.60,47.16,0.00,0.00,0.00,30.04,M,3.00,M,CLR,M,M,M,M,M,M,M,HZ,M,M,M,M,M,M,55.40,KMEV 301555Z AUTO 00000KT 3SM HZ CLR 13/02 A3004 RMK AO2,M
CXP,2021-08-30 15:55,-119.7326,39.1923,1431.00,62.60,32.00,31.56,0.00,0.00,0.00,30.04,M,6.00,M,OVC,M,M,M,1700.00,M,M,M,HZ,M,M,M,M,M,M,62.60,KCXP 301555Z AUTO 00000KT 6SM HZ OVC017 17/00 A3004 RMK AO2,M
RNO,2021-08-30 15:55,-119.7711,39.4839,1341.00,66.00,28.90,24.71,0.00,0.00,0.00,30.02,1011.10,10.00,M,CLR,M,M,M,M,M,M,M,M,M,M,M,M,M,M,66.00,KRNO 301555Z 00000KT 10SM CLR 19/M02 A3002 RMK AO2 SLP111 FU DSNT ALQDS T01891017,M
RTS,2021-08-30 15:55,-119.8764,39.6682,1539.00,68.00,28.40,22.59,160.00,3.00,0.00,30.05,M,10.00,M,CLR,M,M,M,M,M,M,M,M,M,M,M,M,M,M,68.00,KRTS 301555Z AUTO 16003KT 10SM CLR 20/M02 A3005 RMK AO2,M
TMT,2021-08-30 15:55,-117.1971,39.4643,1749.34,58.50,25.20,27.64,0.00,0.00,0.00,30.12,M,10.00,M,CLR,M,M,M,M,M,M,M,M,M,M,M,M,M,M,58.50,KTMT 301555Z AUTO 00000KT 10SM CLR 15/M04 A3012 RMK AO2 T01471038,M
BAM,2021-08-30 15:55,-116.8743,40.5990,1382.36,69.80,23.00,16.98,0.00,0.00,0.00,30.01,M,10.00,M,CLR,M,M,M,M,M,M,M,M,M,M,M,M,M,M,69.80,KBAM 301555Z AUTO 00000KT 10SM CLR 21/M05 A3001 RMK AO1,M
HTH,2021-08-30 15:55,-118.6315,38.5448,1282.89,73.40,24.80,16.20,0.00,0.00,0.00,30.00,M,5.00,M,CLR,M,M,M,M,M,M,M,HZ,M,M,M,M,M,M,73.40,KHTH 301555Z AUTO 00000KT 5SM HZ CLR 23/M04 A3000 RMK A01,M
BVU,2021-08-30 15:55,-114.8611,35.9475,671.00,93.20,48.20,21.54,110.00,6.00,0.00,29.82,M,10.00,M,CLR,M,M,M,M,M,M,M,M,M,M,M,M,M,M,89.80,KBVU 301555Z AUTO 11006KT 10SM CLR 34/09 A2982 RMK AO2,M
EKO,2021-08-30 15:56,-115.7860,40.8242,1367.00,57.00,21.90,25.40,100.00,3.00,0.00,30.05,1013.10,7.00,M,CLR,M,M,M,M,M,M,M,M,M,M,M,M,M,M,57.00,KEKO 301556Z AUTO 10003KT 7SM CLR 14/M06 A3005 RMK AO2 SLP131 T01391056,M
NFL,2021-08-30 15:56,-118.7010,39.4166,1199.00,70.00,27.00,19.92,0.00,0.00,0.00,29.97,1012.10,4.00,M,OVC,M,M,M,4900.00,M,M,M,FU,M,M,M,M,M,M,70.00,KNFL 301556Z 00000KT 4SM FU OVC049 21/M03 A2997 RMK AO2 SLP121 FU OVC049 T02111028,M
LAS,2021-08-30 15:56,-115.1634,36.0719,663.00,91.00,51.00,25.70,M,3.00,0.00,29.82,1006.70,10.00,M,FEW,M,M,M,15000.00,M,M,M,M,M,M,M,M,M,M,88.18,KLAS 301556Z VRB03KT 10SM FEW150 33/11 A2982 RMK AO2 SLP067 T03280106 $,M
HND,2021-08-30 15:56,-115.1344,35.9729,742.79,91.00,51.00,25.70,260.00,3.00,0.00,29.86,1009.00,10.00,M,CLR,M,M,M,M,M,M,M,M,M,M,M,M,M,M,88.18,KHND 301556Z 26003KT 10SM CLR 33/11 A2986 RMK AO2 SLP090 T03280106,M
TPH,2021-08-30 15:56,-117.0904,38.0505,1654.00,74.00,21.90,14.11,90.00,4.00,0.00,30.08,1010.60,10.00,M,CLR,M,M,M,M,M,M,M,M,M,M,M,M,M,M,73.90,KTPH 301556Z AUTO 09004KT 10SM CLR 23/M06 A3008 RMK AO2 SLP106 T02331056,M
WMC,2021-08-30 15:56,-117.8072,40.9019,1315.00,69.00,25.00,18.91,0.00,0.00,0.00,29.98,1010.60,5.00,M,BKN,OVC,M,M,4100.00,5000.00,M,M,HZ,M,M,M,M,M,M,69.10,KWMC 301556Z AUTO 00000KT 5SM HZ BKN041 OVC050 21/M04 A2998 RMK AO2 SLP106 T02061039,M
INS,2021-08-30 15:58,-115.6733,36.5872,955.00,85.80,46.60,25.61,0.00,0.00,0.00,29.93,M,10.00,M,FEW,M,M,M,12000.00,M,M,M,M,M,M,M,M,M,M,83.08,KINS 301558Z 00000KT 10SM FEW120 30/08 A2993 RMK SLPNO WND DATA ESTMD ALSTG ESTMD T02990081,M
LSV,2021-08-30 15:58,-115.0343,36.2362,570.00,92.50,51.40,24.80,200.00,4.00,0.00,29.79,1005.70,10.00,M,CLR,M,M,M,M,M,M,M,M,M,M,M,M,M,M,89.68,KLSV 301558Z AUTO 20004KT 10SM CLR 34/11 A2979 RMK AO2 SLP057 T03360108 $,M
CXP,2021-08-30 16:15,-119.7326,39.1923,1431.00,64.40,33.80,31.85,M,3.00,0.00,30.04,M,6.00,M,OVC,M,M,M,1700.00,M,M,M,HZ,M,M,M,M,M,M,64.40,KCXP 301615Z AUTO VRB03KT 6SM HZ OVC017 18/01 A3004 RMK AO2,M
HTH,2021-08-30 16:15,-118.6315,38.5448,1282.89,75.20,24.80,15.25,360.00,4.00,0.00,30.00,M,5.00,M,CLR,M,M,M,M,M,M,M,HZ,M,M,M,M,M,M,75.20,KHTH 301615Z AUTO 36004KT 5SM HZ CLR 24/M04 A3000 RMK A01,M
TMT,2021-08-30 16:15,-117.1971,39.4643,1749.34,62.20,26.20,25.26,0.00,0.00,0.00,30.11,M,10.00,M,CLR,M,M,M,M,M,M,M,M,M,M,M,M,M,M,62.20,KTMT 301615Z AUTO 00000KT 10SM CLR 17/M03 A3011 RMK AO2 T01681032,M
BVU,2021-08-30 16:15,-114.8611,35.9475,671.00,95.00,48.20,20.38,130.00,4.00,0.00,29.82,M,10.00,M,CLR,M,M,M,M,M,M,M,M,M,M,M,M,M,M,91.56,KBVU 301615Z AUTO 13004KT 10SM CLR 35/09 A2982 RMK AO2,M
BAM,2021-08-30 16:15,-116.8743,40.5990,1382.36,71.60,23.00,15.97,80.00,4.00,0.00,30.00,M,10.00,M,CLR,M,M,M,M,M,M,M,M,M,M,M,M,M,M,71.60,KBAM 301615Z AUTO 08004KT 10SM CLR 22/M05 A3000 RMK AO1,M
RTS,2021-08-30 16:15,-119.8764,39.6682,1539.00,69.80,30.20,22.86,0.00,0.00,0.00,30.04,M,10.00,M,CLR,M,M,M,M,M,M,M,M,M,M,M,M,M,M,69.80,KRTS 301615Z AUTO 00000KT 10SM CLR 21/M01 A3004 RMK AO2,M
MEV,2021-08-30 16:15,-119.7500,38.9963,1441.42,57.20,37.40,47.44,0.00,0.00,0.00,30.03,M,0.75,M,VV ,M,M,M,500.00,M,M,M,HZ,M,M,M,M,M,M,57.20,KMEV 301615Z AUTO 00000KT 3/4SM HZ VV005 14/03 A3003 RMK AO2 VIS 1/4V3,M
MEV,2021-08-30 16:35,-119.7500,38.9963,1441.42,59.00,39.20,47.72,0.00,0.00,0.00,30.03,M,0.50,M,VV ,M,M,M,500.00,M,M,M,UP HZ,M,M,M,M,M,M,59.00,KMEV 301635Z AUTO 00000KT 1/2SM UP HZ VV005 15/04 A3003 RMK AO2 VIS 1/4V2,M
BVU,2021-08-30 16:35,-114.8611,35.9475,671.00,95.00,48.20,20.38,140.00,9.00,0.00,29.82,M,10.00,M,CLR,M,M,M,M,M,M,M,M,M,M,M,M,M,M,91.56,KBVU 301635Z AUTO 14009KT 10SM CLR 35/09 A2982 RMK AO2,M
HTH,2021-08-30 16:35,-118.6315,38.5448,1282.89,77.00,24.80,14.37,0.00,0.00,0.00,30.00,M,4.00,M,CLR,M,M,M,M,M,M,M,HZ,M,M,M,M,M,M,77.00,KHTH 301635Z AUTO 00000KT 4SM HZ CLR 25/M04 A3000 RMK A01,M
BAM,2021-08-30 16:35,-116.8743,40.5990,1382.36,73.40,23.00,15.03,0.00,0.00,0.00,30.00,M,7.00,M,SCT,SCT,M,M,5000.00,6000.00,M,M,M,M,M,M,M,M,M,73.40,KBAM 301635Z AUTO 00000KT 7SM SCT050 SCT060 23/M05 A3000 RMK AO1,M
TMT,2021-08-30 16:35,-117.1971,39.4643,1749.34,64.40,27.70,24.87,0.00,0.00,0.00,30.11,M,10.00,M,SCT,SCT,M,M,4300.00,5000.00,M,M,M,M,M,M,M,M,M,64.40,KTMT 301635Z AUTO 00000KT 10SM SCT043 SCT050 18/M02 A3011 RMK AO2 T01801024,M
RTS,2021-08-30 16:35,-119.8764,39.6682,1539.00,73.40,24.80,16.20,0.00,0.00,0.00,30.04,M,10.00,M,CLR,M,M,M,M,M,M,M,M,M,M,M,M,M,M,73.40,KRTS 301635Z AUTO 00000KT 10SM CLR 23/M04 A3004 RMK AO2,M
CXP,2021-08-30 16:35,-119.7326,39.1923,1431.00,66.20,33.80,29.92,0.00,0.00,0.00,30.04,M,6.00,M,BKN,BKN,OVC,M,1700.00,2400.00,2800.00,M,HZ,M,M,M,M,M,M,66.20,KCXP 301635Z AUTO 00000KT 6SM HZ BKN017 BKN024 OVC028 19/01 A3004 RMK AO2,M
VGT,2021-08-30 16:53,-115.1933,36.2111,667.00,94.00,51.00,23.48,130.00,7.00,0.00,29.81,1007.80,10.00,M,CLR,M,M,M,M,M,M,M,M,M,M,M,M,M,M,91.00,KVGT 301653Z 13007KT 10SM CLR 34/11 A2981 RMK AO2 SLP078 T03440106,M
P68,2021-08-30 16:53,-116.0056,39.6014,1993.00,78.00,24.10,13.45,250.00,5.00,0.00,30.09,1010.50,M,M,M,M,M,M,M,M,M,M,M,M,M,M,M,M,M,78.10,KP68 301653Z AUTO 25005KT 26/M04 A3009 RMK AO1 SLP105 T02561044,M
DRA,2021-08-30 16:53,-116.0278,36.6206,1009.00,92.00,40.00,16.34,0.00,0.00,0.00,29.89,1006.30,10.00,M,CLR,M,M,M,M,M,M,M,M,M,M,M,M,M,M,87.78,KDRA 301653Z AUTO 00000KT 10SM CLR 33/04 A2989 RMK AO2 SLP063 T03330044,M
LOL,2021-08-30 16:53,-118.5701,40.0684,1192.43,77.00,30.90,18.46,0.00,0.00,0.00,29.96,1010.40,5.00,M,OVC,M,M,M,4100.00,M,M,M,HZ,M,M,M,M,M,M,77.00,KLOL 301653Z AUTO 00000KT 5SM HZ OVC041 25/M01 A2996 RMK AO2 SLP104 T02501006,M
ELY,2021-08-30 16:53,-114.8453,39.2950,1909.00,75.00,28.00,17.53,190.00,4.00,0.00,30.12,1009.90,10.00,M,CLR,M,M,M,M,M,M,M,M,M,M,M,M,M,M,75.00,KELY 301653Z AUTO 19004KT 10SM CLR 24/M02 A3012 RMK AO2 SLP099 T02391022,M
CXP,2021-08-30 16:55,-119.7326,39.1923,1431.00,68.00,32.00,26.15,0.00,0.00,0.00,30.03,M,6.00,M,BKN,OVC,M,M,1500.00,2500.00,M,M,HZ,M,M,M,M,M,M,68.00,KCXP 301655Z AUTO 00000KT 6SM HZ BKN015 OVC025 20/00 A3003 RMK AO2,M
RNO,2021-08-30 16:55,-119.7711,39.4839,1341.00,70.00,28.00,20.75,0.00,0.00,0.00,30.00,1010.20,10.00,M,CLR,M,M,M,M,M,M,M,M,M,M,M,M,M,M,70.00,KRNO 301655Z 00000KT 10SM CLR 21/M02 A3000 RMK AO2 SLP102 FU DSNT ALQDS T02111022 PNO $,M
MEV,2021-08-30 16:55,-119.7500,38.9963,1441.42,59.00,41.00,51.18,0.00,0.00,0.00,30.03,M,0.50,M,VV ,M,M,M,500.00,M,M,M,UP HZ,M,M,M,M,M,M,59.00,KMEV 301655Z AUTO 00000KT 1/2SM UP HZ VV005 15/05 A3003 RMK AO2,M
TMT,2021-08-30 16:55,-117.1971,39.4643,1749.34,67.30,28.40,23.15,0.00,0.00,0.00,30.11,M,10.00,M,CLR,M,M,M,M,M,M,M,M,M,M,M,M,M,M,67.30,KTMT 301655Z AUTO 00000KT 10SM CLR 20/M02 A3011 RMK AO2 T01961020,M
BAM,2021-08-30 16:55,-116.8743,40.5990,1382.36,77.00,23.00,13.32,0.00,0.00,0.00,30.00,M,10.00,M,CLR,M,M,M,M,M,M,M,M,M,M,M,M,M,M,77.00,KBAM 301655Z AUTO 00000KT 10SM CLR 25/M05 A3000 RMK AO1,M
HTH,2021-08-30 16:55,-118.6315,38.5448,1282.89,77.00,28.40,16.67,350.00,4.00,0.00,29.99,M,4.00,M,CLR,M,M,M,M,M,M,M,HZ,M,M,M,M,M,M,77.00,KHTH 301655Z AUTO 35004KT 4SM HZ CLR 25/M02 A2999 RMK A01,M
RTS,2021-08-30 16:55,-119.8764,39.6682,1539.00,75.20,23.00,14.15,M,5.00,0.00,30.04,M,10.00,M,CLR,M,M,M,M,M,M,M,M,M,M,M,M,M,M,75.20,KRTS 301655Z AUTO VRB05KT 10SM CLR 24/M05 A3004 RMK AO2,M
BVU,2021-08-30 16:55,-114.8611,35.9475,671.00,95.00,48.20,20.38,170.00,5.00,0.00,29.82,M,10.00,M,CLR,M,M,M,M,M,M,M,M,M,M,M,M,M,M,91.56,KBVU 301655Z AUTO 17005KT 10SM CLR 35/09 A2982 RMK AO2,M
TPH,2021-08-30 16:56,-117.0904,38.0505,1654.00,77.00,21.00,12.24,0.00,0.00,0.00,30.07,1010.40,10.00,M,CLR,M,M,M,M,M,M,M,M,M,M,M,M,M,M,77.00,KTPH 301656Z AUTO 00000KT 10SM CLR 25/M06 A3007 RMK AO2 SLP104 T02501061,M
NFL,2021-08-30 16:56,-118.7010,39.4166,1199.00,75.00,28.00,17.53,160.00,3.00,0.00,29.97,1011.90,4.00,M,OVC,M,M,M,4800.00,M,M,M,FU,M,M,M,M,M,M,75.00,KNFL 301656Z 16003KT 4SM FU OVC048 24/M02 A2997 RMK AO2 SLP119 FU OVC048 T02391022,M
WMC,2021-08-30 16:56,-117.8072,40.9019,1315.00,77.00,27.00,15.74,160.00,3.00,0.00,29.97,1010.20,5.00,M,OVC,M,M,M,4000.00,M,M,M,HZ,M,M,M,M,M,M,77.00,KWMC 301656Z AUTO 16003KT 5SM HZ OVC040 25/M03 A2997 RMK AO2 SLP102 T02501028,M
EKO,2021-08-30 16:56,-115.7860,40.8242,1367.00,65.00,23.00,20.11,0.00,0.00,0.00,30.04,1012.60,8.00,M,CLR,M,M,M,M,M,M,M,M,M,M,M,M,M,M,64.90,KEKO 301656Z AUTO 00000KT 8SM CLR 18/M05 A3004 RMK AO2 SLP126 T01831050,M
LAS,2021-08-30 16:56,-115.1634,36.0719,663.00,94.00,50.00,22.55,0.00,0.00,0.00,29.83,1006.80,10.00,M,FEW,FEW,SCT,M,13000.00,17000.00,25000.00,M,M,M,M,M,M,M,M,90.79,KLAS 301656Z 00000KT 10SM FEW130 FEW170 SCT250 34/10 A2983 RMK AO2 SLP068 T03440100,M
HND,2021-08-30 16:56,-115.1344,35.9729,742.79,94.00,52.00,24.28,270.00,3.00,0.00,29.86,1009.00,10.00,M,CLR,M,M,M,M,M,M,M,M,M,M,M,M,M,M,91.19,KHND 301656Z 27003KT 10SM CLR 34/11 A2986 RMK AO2 SLP090 T03440111,M
INS,2021-08-30 16:58,-115.6733,36.5872,955.00,92.50,49.30,22.94,90.00,2.00,0.00,29.93,M,10.00,M,SCT,M,M,M,12000.00,M,M,M,M,M,M,M,M,M,M,89.30,KINS 301658Z 09002KT 10SM SCT120 34/10 A2993 RMK SLPNO WND DATA ESTMD ALSTG ESTMD T03360096,M
LSV,2021-08-30 16:58,-115.0343,36.2362,570.00,94.80,51.30,23.01,0.00,0.00,0.00,29.80,1006.10,10.00,M,FEW,M,M,M,14000.00,M,M,M,M,M,M,M,M,M,M,91.95,KLSV 301658Z AUTO 00000KT 10SM FEW140 35/11 A2980 RMK AO2 SLP061 T03490107 $,M
TMT,2021-08-30 17:15,-117.1971,39.4643,1749.34,71.40,29.50,21.04,0.00,0.00,0.00,30.10,M,10.00,M,CLR,M,M,M,M,M,M,M,M,M,M,M,M,M,M,71.40,KTMT 301715Z AUTO 00000KT 10SM CLR 22/M01 A3010 RMK AO2 T02191014,M
CXP,2021-08-30 17:15,-119.7326,39.1923,1431.00,71.60,32.00,23.13,0.00,0.00,0.00,30.03,M,6.00,M,BKN,OVC,M,M,1400.00,2300.00,M,M,HZ,M,M,M,M,M,M,71.60,KCXP 301715Z AUTO 00000KT 6SM HZ BKN014 OVC023 22/00 A3003 RMK AO2,M
MEV,2021-08-30 17:15,-119.7500,38.9963,1441.42,62.60,37.40,39.14,0.00,0.00,0.00,30.02,M,0.50,M,VV ,M,M,M,500.00,M,M,M,UP HZ,M,M,M,M,M,M,62.60,KMEV 301715Z AUTO 00000KT 1/2SM UP HZ VV005 17/03 A3002 RMK AO2 VIS 1/4V1 3/4,M
HTH,2021-08-30 17:15,-118.6315,38.5448,1282.89,78.80,26.60,14.59,0.00,0.00,0.00,29.99,M,4.00,M,CLR,M,M,M,M,M,M,M,HZ,M,M,M,M,M,M,78.80,KHTH 301715Z AUTO 00000KT 4SM HZ CLR 26/M03 A2999 RMK A01,M
RTS,2021-08-30 17:15,-119.8764,39.6682,1539.00,78.80,24.80,13.54,M,5.00,0.00,30.03,M,10.00,M,CLR,M,M,M,M,M,M,M,M,M,M,M,M,M,M,78.80,KRTS 301715Z AUTO VRB05KT 10SM CLR 26/M04 A3003 RMK AO2,M
BVU,2021-08-30 17:15,-114.8611,35.9475,671.00,95.00,48.20,20.38,120.00,6.00,0.00,29.82,M,10.00,M,CLR,M,M,M,M,M,M,M,M,M,M,M,M,M,M,91.56,KBVU 301715Z AUTO 12006KT 10SM CLR 35/09 A2982 RMK AO2,M
BAM,2021-08-30 17:15,-116.8743,40.5990,1382.36,80.60,24.80,12.76,90.00,3.00,0.00,29.99,M,10.00,M,CLR,M,M,M,M,M,M,M,M,M,M,M,M,M,M,78.94,KBAM 301715Z AUTO 09003KT 10SM CLR 27/M04 A2999 RMK AO1,M
CXP,2021-08-30 17:35,-119.7326,39.1923,1431.00,73.40,30.20,20.23,0.00,0.00,0.00,30.02,M,8.00,M,BKN,OVC,M,M,1300.00,1900.00,M,M,M,M,M,M,M,M,M,73.40,KCXP 301735Z AUTO 00000KT 8SM BKN013 OVC019 23/M01 A3002 RMK AO2,M
RTS,2021-08-30 17:35,-119.8764,39.6682,1539.00,82.40,23.00,11.16,210.00,7.00,0.00,30.03,M,10.00,M,CLR,M,M,M,M,M,M,M,M,M,M,M,M,M,M,79.67,KRTS 301735Z AUTO 21007KT 170V230 10SM CLR 28/M05 A3003 RMK AO2,M
BAM,2021-08-30 17:35,-116.8743,40.5990,1382.36,84.20,26.60,12.23,260.00,8.00,0.00,29.99,M,7.00,M,CLR,M,M,M,M,M,M,M,M,M,M,M,M,M,M,81.13,KBAM 301735Z AUTO 26008KT 7SM CLR 29/M03 A2999 RMK AO1,M
HTH,2021-08-30 17:35,-118.6315,38.5448,1282.89,80.60,30.20,15.94,360.00,3.00,0.00,29.98,M,4.00,M,CLR,M,M,M,M,M,M,M,HZ,M,M,M,M,M,M,78.77,KHTH 301735Z AUTO 36003KT 4SM HZ CLR 27/M01 A2998 RMK A01,M
BVU,2021-08-30 17:35,-114.8611,35.9475,671.00,93.20,51.80,24.63,100.00,14.00,0.00,29.82,M,10.00,M,CLR,M,M,M,M,M,M,M,M,M,M,M,M,M,M,90.45,KBVU 301735Z AUTO 10014KT 10SM CLR 34/11 A2982 RMK AO2,M
TMT,2021-08-30 17:35,-117.1971,39.4643,1749.34,76.80,29.50,17.55,0.00,0.00,0.00,30.10,M,10.00,M,CLR,M,M,M,M,M,M,M,M,M,M,M,M,M,M,76.80,KTMT 301735Z AUTO 00000KT 10SM CLR 25/M01 A3010 RMK AO2 T02491014,M
MEV,2021-08-30 17:35,-119.7500,38.9963,1441.42,64.40,37.40,36.74,0.00,0.00,0.00,30.01,M,0.75,M,VV ,M,M,M,500.00,M,M,M,UP HZ,M,M,M,M,M,M,64.40,KMEV 301735Z AUTO 00000KT 3/4SM UP HZ VV005 18/03 A3001 RMK AO2 VIS 1/2V2,M
LOL,2021-08-30 17:53,-118.5701,40.0684,1192.43,84.00,28.90,13.53,190.00,6.00,0.00,29.94,1009.20,5.00,M,OVC,M,M,M,4400.00,M,M,M,HZ,M,M,M,M,M,M,81.10,KLOL 301753Z AUTO 19006KT 5SM HZ OVC044 29/M02 A2994 RMK AO2 SLP092 T02891017 10289 20089 58009,M
VGT,2021-08-30 17:53,-115.1933,36.2111,667.00,96.00,51.00,21.95,M,4.00,0.00,29.80,1007.60,10.00,M,CLR,M,M,M,M,M,M,M,M,M,M,M,M,M,M,93.23,KVGT 301753Z VRB04KT 10SM CLR 36/11 A2980 RMK AO2 SLP076 T03560106 10356 20278 50000,M
P68,2021-08-30 17:53,-116.0056,39.6014,1993.00,82.00,19.00,9.54,300.00,4.00,0.00,30.08,1009.70,M,M,M,M,M,M,M,M,M,M,M,M,M,M,M,M,M,79.17,KP68 301753Z AUTO 30004KT 28/M07 A3008 RMK AO1 SLP097 T02781072 10278 20089 58008,M
ELY,2021-08-30 17:53,-114.8453,39.2950,1909.00,82.00,23.00,11.31,60.00,3.00,0.00,30.10,1008.40,10.00,M,CLR,M,M,M,M,M,M,M,M,M,M,M,M,M,M,79.40,KELY 301753Z AUTO 06003KT 10SM CLR 28/M05 A3010 RMK AO2 SLP084 T02781050 10278 20072 58010,M
DRA,2021-08-30 17:53,-116.0278,36.6206,1009.00,95.00,38.00,13.73,0.00,0.00,0.00,29.88,1005.80,10.00,M,CLR,M,M,M,M,M,M,M,M,M,M,M,M,M,M,90.48,KDRA 301753Z AUTO 00000KT 10SM CLR 35/03 A2988 RMK AO2 SLP058 T03500033 10356 20217 58004,M
MEV,2021-08-30 17:55,-119.7500,38.9963,1441.42,66.20,35.60,32.14,0.00,0.00,0.00,30.01,M,1.00,M,CLR,M,M,M,M,M,M,M,UP HZ,M,M,M,M,M,M,66.20,KMEV 301755Z AUTO 00000KT 1SM UP HZ CLR 19/02 A3001 RMK AO2 VIS 1/4V2,M
HTH,2021-08-30 17:55,-118.6315,38.5448,1282.89,82.40,28.40,13.96,0.00,0.00,0.00,29.98,M,4.00,M,CLR,M,M,M,M,M,M,M,HZ,M,M,M,M,M,M,79.94,KHTH 301755Z AUTO 00000KT 4SM HZ CLR 28/M02 A2998 RMK A01,M
RNO,2021-08-30 17:55,-119.7711,39.4839,1341.00,73.00,28.90,19.45,M,3.00,0.00,29.97,1009.10,10.00,M,CLR,M,M,M,M,M,M,M,M,M,M,M,M,M,M,73.00,KRNO 301755Z VRB03KT 10SM CLR 23/M02 A2997 RMK AO2 SLP091 HZ AND FU ALQDS 6//// T02281017 58017 PNO $,M
BVU,2021-08-30 17:55,-114.8611,35.9475,671.00,93.20,50.00,23.04,130.00,13.00,0.00,29.82,M,10.00,M,CLR,M,M,M,M,M,M,M,M,M,M,M,M,M,M,90.10,KBVU 301755Z AUTO 13013KT 10SM CLR 34/10 A2982 RMK AO2,M
RTS,2021-08-30 17:55,-119.8764,39.6682,1539.00,84.20,23.00,10.53,230.00,12.00,0.00,30.02,M,10.00,17.00,CLR,M,M,M,M,M,M,M,M,M,M,M,M,M,M,80.88,KRTS 301755Z AUTO 23012G17KT 10SM CLR 29/M05 A3002 RMK AO2,M
BAM,2021-08-30 17:55,-116.8743,40.5990,1382.36,86.00,26.60,11.55,240.00,10.00,0.00,29.98,M,5.00,15.00,CLR,M,M,M,M,M,M,M,M,M,M,M,M,M,M,82.39,KBAM 301755Z AUTO 24010G15KT 5SM CLR 30/M03 A2998 RMK AO1,M
CXP,2021-08-30 17:55,-119.7326,39.1923,1431.00,75.20,28.40,17.70,0.00,0.00,0.00,30.02,M,9.00,M,SCT,SCT,SCT,M,1300.00,2000.00,2600.00,M,M,M,M,M,M,M,M,75.20,KCXP 301755Z AUTO 00000KT 9SM SCT013 SCT020 SCT026 24/M02 A3002 RMK AO2,M
TMT,2021-08-30 17:55,-117.1971,39.4643,1749.34,81.00,26.10,13.29,220.00,5.00,0.00,30.09,M,10.00,M,CLR,M,M,M,M,M,M,M,M,M,M,M,M,M,M,78.94,KTMT 301755Z AUTO 22005KT 10SM CLR 27/M03 A3009 RMK AO2 T02721033 10272 20013,M
EKO,2021-08-30 17:56,-115.7860,40.8242,1367.00,75.00,26.10,16.21,M,3.00,0.00,30.02,1011.40,8.00,M,CLR,M,M,M,M,M,M,M,M,M,M,M,M,M,M,75.00,KEKO 301756Z AUTO VRB03KT 8SM CLR 24/M03 A3002 RMK AO2 SLP114 T02391033 10239 20061 58011,M
HND,2021-08-30 17:56,-115.1344,35.9729,742.79,96.00,52.00,22.69,350.00,4.00,0.00,29.85,1008.70,10.00,M,CLR,M,M,M,M,M,M,M,M,M,M,M,M,M,M,93.44,KHND 301756Z 35004KT 10SM CLR 36/11 A2985 RMK AO2 SLP087 T03560111 10356 20272 58002,M
TPH,2021-08-30 17:56,-117.0904,38.0505,1654.00,83.00,21.00,10.09,180.00,3.00,0.00,30.06,1009.50,7.00,M,BKN,M,M,M,4000.00,M,M,M,M,M,M,M,M,M,M,79.88,KTPH 301756Z AUTO 18003KT 7SM BKN040 28/M06 A3006 RMK AO2 SLP095 T02831061 10283 20150 58006,M
WMC,2021-08-30 17:56,-117.8072,40.9019,1315.00,84.00,30.00,14.16,180.00,5.00,0.00,29.96,1009.10,4.00,M,OVC,M,M,M,3700.00,M,M,M,HZ,M,M,M,M,M,M,81.11,KWMC 301756Z AUTO 18005KT 4SM HZ OVC037 29/M01 A2996 RMK AO2 SLP091 T02891011 10289 20083 58008,M
LAS,2021-08-30 17:56,-115.1634,36.0719,663.00,96.00,51.00,21.95,0.00,0.00,0.00,29.82,1006.50,10.00,M,FEW,SCT,SCT,M,13000.00,17000.00,25000.00,M,M,M,M,M,M,M,M,93.23,KLAS 301756Z 00000KT 10SM FEW130 SCT170 SCT250 36/11 A2982 RMK AO2 SLP065 ACC DSNT N T03560106 10356 20278 58001,M
NFL,2021-08-30 17:56,-118.7010,39.4166,1199.00,81.00,27.00,13.80,0.00,0.00,0.00,29.95,1011.50,3.00,M,BKN,M,M,M,4500.00,M,M,M,FU,M,M,M,M,M,M,78.96,KNFL 301756Z 00000KT 3SM FU BKN045 27/M03 A2995 RMK AO2 SLP115 FU BKN045 VIS 5 SE-S T02721028 10278 20139 58007,M
INS,2021-08-30 17:58,-115.6733,36.5872,955.00,95.50,51.00,22.35,90.00,4.00,0.00,29.93,M,10.00,M,SCT,M,M,M,12000.00,M,M,M,M,M,M,M,M,M,M,92.62,KINS 301758Z 09004KT 10SM SCT120 35/11 A2993 RMK SLPNO WND DATA ESTMD ALSTG ESTMD T03530106 10353 20250 54000,M
LSV,2021-08-30 17:58,-115.0343,36.2362,570.00,97.30,50.70,20.84,130.00,6.00,0.00,29.78,1005.40,10.00,M,CLR,M,M,M,M,M,M,M,M,M,M,M,M,M,M,94.38,KLSV 301758Z AUTO 13006KT 10SM CLR 36/10 A2978 RMK AO2 SLP054 T03630104 10368 20276 58001 $,M
MEV,2021-08-30 18:15,-119.7500,38.9963,1441.42,68.00,35.60,30.20,0.00,0.00,0.00,30.00,M,0.75,M,VV ,M,M,M,500.00,M,M,M,UP HZ,M,M,M,M,M,M,68.00,KMEV 301815Z AUTO 00000KT 3/4SM UP HZ VV005 20/02 A3000 RMK AO2,M
BVU,2021-08-30 18:15,-114.8611,35.9475,671.00,95.00,50.00,21.79,150.00,10.00,0.00,29.81,M,10.00,M,CLR,M,M,M,M,M,M,M,M,M,M,M,M,M,M,91.89,KBVU 301815Z AUTO 15010KT 10SM CLR 35/10 A2981 RMK AO2,M
BAM,2021-08-30 18:15,-116.8743,40.5990,1382.36,87.80,26.60,10.91,250.00,10.00,0.00,29.98,M,5.00,M,CLR,M,M,M,M,M,M,M,M,M,M,M,M,M,M,83.69,KBAM 301815Z AUTO 25010KT 5SM CLR 31/M03 A2998 RMK AO1,M
TMT,2021-08-30 18:15,-117.1971,39.4643,1749.34,81.70,26.10,12.99,250.00,4.00,0.00,30.09,M,7.00,M,CLR,M,M,M,M,M,M,M,M,M,M,M,M,M,M,79.42,KTMT 301815Z AUTO 25004KT 7SM CLR 28/M03 A3009 RMK AO2 T02761033,M
CXP,2021-08-30 18:15,-119.7326,39.1923,1431.00,78.80,30.20,16.90,0.00,0.00,0.00,30.01,M,9.00,M,CLR,M,M,M,M,M,M,M,M,M,M,M,M,M,M,78.80,KCXP 301815Z AUTO 00000KT 9SM CLR 26/M01 A3001 RMK AO2,M
RTS,2021-08-30 18:15,-119.8764,39.6682,1539.00,86.00,23.00,9.94,210.00,13.00,0.00,30.01,M,10.00,19.00,CLR,M,M,M,M,M,M,M,M,M,M,M,M,M,M,82.14,KRTS 301815Z AUTO 21013G19KT 10SM CLR 30/M05 A3001 RMK AO2,M
HTH,2021-08-30 18:15,-118.6315,38.5448,1282.89,86.00,28.40,12.44,320.00,6.00,0.00,29.96,M,5.00,M,CLR,M,M,M,M,M,M,M,HZ,M,M,M,M,M,M,82.54,KHTH 301815Z AUTO 32006KT 5SM HZ CLR 30/M02 A2996 RMK A01,M
BVU,2021-08-30 18:35,-114.8611,35.9475,671.00,95.00,50.00,21.79,140.00,9.00,0.00,29.81,M,10.00,M,CLR,M,M,M,M,M,M,M,M,M,M,M,M,M,M,91.89,KBVU 301835Z AUTO 14009KT 10SM CLR 35/10 A2981 RMK AO2,M
CXP,2021-08-30 18:35,-119.7326,39.1923,1431.00,80.60,30.20,15.94,0.00,0.00,0.00,30.00,M,8.00,M,CLR,M,M,M,M,M,M,M,M,M,M,M,M,M,M,78.77,KCXP 301835Z AUTO 00000KT 8SM CLR 27/M01 A3000 RMK AO2,M
RTS,2021-08-30 18:35,-119.8764,39.6682,1539.00,87.80,23.00,9.39,200.00,13.00,0.00,30.00,M,10.00,24.00,CLR,M,M,M,M,M,M,M,M,M,M,M,M,M,M,83.43,KRTS 301835Z AUTO 20013G24KT 10SM CLR 31/M05 A3000 RMK AO2,M
BAM,2021-08-30 18:35,-116.8743,40.5990,1382.36,87.80,26.60,10.91,240.00,15.00,0.00,29.97,M,4.00,M,CLR,M,M,M,M,M,M,M,M,M,M,M,M,M,M,83.69,KBAM 301835Z AUTO 24015KT 4SM CLR 31/M03 A2997 RMK AO1,M
HTH,2021-08-30 18:35,-118.6315,38.5448,1282.89,87.80,30.20,12.64,M,5.00,0.00,29.96,M,5.00,M,CLR,M,M,M,M,M,M,M,HZ,M,M,M,M,M,M,84.01,KHTH 301835Z AUTO VRB05KT 5SM HZ CLR 31/M01 A2996 RMK A01,M
TMT,2021-08-30 18:35,-117.1971,39.4643,1749.34,83.70,26.80,12.54,290.00,8.00,0.00,30.08,M,7.00,M,CLR,M,M,M,M,M,M,M,M,M,M,M,M,M,M,80.81,KTMT 301835Z AUTO 29008KT 7SM CLR 29/M03 A3008 RMK AO2 T02871029,M
MEV,2021-08-30 18:35,-119.7500,38.9963,1441.42,69.80,33.80,26.43,0.00,0.00,0.00,30.00,M,0.50,M,VV ,M,M,M,500.00,M,M,M,UP HZ,M,M,M,M,M,M,69.80,KMEV 301835Z AUTO 00000KT 1/2SM UP HZ VV005 21/01 A3000 RMK AO2 VIS 1/4V2 1/2,M
VGT,2021-08-30 18:53,-115.1933,36.2111,667.00,101.00,52.00,19.61,120.00,7.00,0.00,29.78,1006.60,10.00,M,CLR,M,M,M,M,M,M,M,M,M,M,M,M,M,M,98.48,KVGT 301853Z 12007KT 10SM CLR 38/11 A2978 RMK AO2 SLP066 T03830111,M
LOL,2021-08-30 18:53,-118.5701,40.0684,1192.43,89.00,27.00,10.64,160.00,7.00,0.00,29.92,1008.30,5.00,M,OVC,M,M,M,4300.00,M,M,M,HZ,M,M,M,M,M,M,84.68,KLOL 301853Z AUTO 16007KT 5SM HZ OVC043 32/M03 A2992 RMK AO2 SLP083 T03171028,M
ELY,2021-08-30 18:53,-114.8453,39.2950,1909.00,86.00,24.10,10.41,230.00,4.00,0.00,30.08,1007.70,10.00,M,CLR,M,M,M,M,M,M,M,M,M,M,M,M,M,M,82.21,KELY 301853Z AUTO 23004KT 10SM CLR 30/M04 A3008 RMK AO2 SLP077 T03001044,M
P68,2021-08-30 18:53,-116.0056,39.6014,1993.00,85.00,19.90,9.03,M,3.00,0.00,30.05,1008.80,M,M,M,M,M,M,M,M,M,M,M,M,M,M,M,M,M,81.19,KP68 301853Z AUTO VRB03KT 29/M07 A3005 RMK AO1 SLP088 T02941067,M
DRA,2021-08-30 18:53,-116.0278,36.6206,1009.00,98.00,37.00,12.05,0.00,0.00,0.00,29.86,1005.20,10.00,M,CLR,M,M,M,M,M,M,M,M,M,M,M,M,M,M,93.05,KDRA 301853Z AUTO 00000KT 10SM CLR 37/03 A2986 RMK AO2 SLP052 T03670028,M
MEV,2021-08-30 18:55,-119.7500,38.9963,1441.42,73.40,35.60,25.13,0.00,0.00,0.00,29.99,M,1.25,M,CLR,M,M,M,M,M,M,M,HZ,M,M,M,M,M,M,73.40,KMEV 301855Z AUTO 00000KT 1 1/4SM HZ CLR 23/02 A2999 RMK AO2 VIS 1/2V2 1/2,M
RTS,2021-08-30 18:55,-119.8764,39.6682,1539.00,87.80,23.00,9.39,190.00,8.00,0.00,30.00,M,10.00,22.00,CLR,M,M,M,M,M,M,M,M,M,M,M,M,M,M,83.43,KRTS 301855Z AUTO 19008G22KT 10SM CLR 31/M05 A3000 RMK AO2,M
BVU,2021-08-30 18:55,-114.8611,35.9475,671.00,95.00,50.00,21.79,140.00,11.00,0.00,29.80,M,10.00,M,CLR,M,M,M,M,M,M,M,M,M,M,M,M,M,M,91.89,KBVU 301855Z AUTO 14011KT 10SM CLR 35/10 A2980 RMK AO2,M
BAM,2021-08-30 18:55,-116.8743,40.5990,1382.36,89.60,23.00,8.87,240.00,9.00,0.00,29.97,M,5.00,17.00,CLR,M,M,M,M,M,M,M,M,M,M,M,M,M,M,84.75,KBAM 301855Z AUTO 24009G17KT 5SM CLR 32/M05 A2997 RMK AO1,M
CXP,2021-08-30 18:55,-119.7326,39.1923,1431.00,84.20,28.40,13.18,0.00,0.00,0.00,30.00,M,7.00,M,CLR,M,M,M,M,M,M,M,M,M,M,M,M,M,M,81.25,KCXP 301855Z AUTO 00000KT 7SM CLR 29/M02 A3000 RMK AO2,M
HTH,2021-08-30 18:55,-118.6315,38.5448,1282.89,87.80,28.40,11.74,340.00,7.00,0.00,29.95,M,6.00,M,CLR,M,M,M,M,M,M,M,HZ,M,M,M,M,M,M,83.84,KHTH 301855Z AUTO 34007KT 280V360 6SM HZ CLR 31/M02 A2995 RMK A01,M
RNO,2021-08-30 18:55,-119.7711,39.4839,1341.00,80.00,28.00,14.81,M,4.00,0.00,29.95,1008.70,8.00,M,CLR,M,M,M,M,M,M,M,M,M,M,M,M,M,M,78.51,KRNO 301855Z VRB04KT 8SM CLR 27/M02 A2995 RMK AO2 SLP087 FU AND HZ ALQDS T02671022 PNO $,M
TMT,2021-08-30 18:55,-117.1971,39.4643,1749.34,84.20,25.90,11.89,220.00,5.00,0.00,30.07,M,7.00,M,CLR,M,M,M,M,M,M,M,M,M,M,M,M,M,M,81.08,KTMT 301855Z AUTO 22005KT 7SM CLR 29/M03 A3007 RMK AO2 T02901034,M
EKO,2021-08-30 18:56,-115.7860,40.8242,1367.00,83.00,26.10,12.50,220.00,7.00,0.00,30.00,1010.00,6.00,M,CLR,M,M,M,M,M,M,M,HZ,M,M,M,M,M,M,80.21,KEKO 301856Z AUTO 22007KT 6SM HZ CLR 28/M03 A3000 RMK AO2 SLP100 T02831033,M
WMC,2021-08-30 18:56,-117.8072,40.9019,1315.00,86.00,28.90,12.69,0.00,0.00,0.00,29.94,1008.60,3.00,M,BKN,M,M,M,3600.00,M,M,M,HZ,M,M,M,M,M,M,82.58,KWMC 301856Z AUTO 00000KT 3SM HZ BKN036 30/M02 A2994 RMK AO2 SLP086 T03001017,M
LAS,2021-08-30 18:56,-115.1634,36.0719,663.00,99.00,51.00,20.09,110.00,8.00,0.00,29.80,1005.70,10.00,M,FEW,SCT,SCT,M,13000.00,17000.00,25000.00,M,M,M,M,M,M,M,M,96.24,KLAS 301856Z 11008KT 10SM FEW130 SCT170 SCT250 37/11 A2980 RMK AO2 SLP057 T03720106,M
NFL,2021-08-30 18:56,-118.7010,39.4166,1199.00,86.00,27.00,11.74,0.00,0.00,0.00,29.93,1011.00,4.00,M,BKN,OVC,M,M,6000.00,9000.00,M,M,FU,M,M,M,M,M,M,82.42,KNFL 301856Z 00000KT 4SM FU BKN060 OVC090 30/M03 A2993 RMK AO2 SLP110 FU BKN060 OVC090 T03001028,M
TPH,2021-08-30 18:56,-117.0904,38.0505,1654.00,87.00,21.90,9.16,0.00,0.00,0.00,30.04,1008.30,5.00,M,BKN,M,M,M,3600.00,M,M,M,HZ,M,M,M,M,M,M,82.86,KTPH 301856Z AUTO 00000KT 5SM HZ BKN036 31/M06 A3004 RMK AO2 SLP083 T03061056,M
HND,2021-08-30 18:56,-115.1344,35.9729,742.79,96.00,54.00,24.42,50.00,7.00,0.00,29.83,1008.20,10.00,M,CLR,M,M,M,M,M,M,M,M,M,M,M,M,M,M,93.97,KHND 301856Z 05007KT 10SM CLR 36/12 A2983 RMK AO2 SLP082 T03560122,M
INS,2021-08-30 18:58,-115.6733,36.5872,955.00,99.00,52.20,20.86,90.00,4.00,0.00,29.91,M,10.00,M,SCT,M,M,M,12000.00,M,M,M,M,M,M,M,M,M,M,96.63,KINS 301858Z 09004KT 10SM SCT120 37/11 A2991 RMK SLPNO WND DATA ESTMD ALSTG ESTMD T03730112,M
LSV,2021-08-30 18:58,-115.0343,36.2362,570.00,99.30,51.00,19.91,130.00,6.00,0.00,29.76,1004.70,10.00,M,FEW,M,M,M,19000.00,M,M,M,M,M,M,M,M,M,M,96.55,KLSV 301858Z AUTO 13006KT 10SM FEW190 37/11 A2976 RMK AO2 SLP047 T03740106 $,M
HTH,2021-08-30 19:15,-118.6315,38.5448,1282.89,89.60,26.60,10.30,350.00,6.00,0.00,29.94,M,7.00,M,CLR,M,M,M,M,M,M,M,M,M,M,M,M,M,M,85.02,KHTH 301915Z AUTO 35006KT 7SM CLR 32/M03 A2994 RMK A01,M
BVU,2021-08-30 19:15,-114.8611,35.9475,671.00,95.00,50.00,21.79,130.00,8.00,0.00,29.80,M,10.00,M,FEW,M,M,M,6000.00,M,M,M,M,M,M,M,M,M,M,91.89,KBVU 301915Z AUTO 13008KT 10SM FEW060 35/10 A2980 RMK AO2,M
RTS,2021-08-30 19:15,-119.8764,39.6682,1539.00,89.60,19.40,7.61,220.00,19.00,0.00,29.98,M,10.00,M,CLR,M,M,M,M,M,M,M,M,M,M,M,M,M,M,84.54,KRTS 301915Z AUTO 22019KT 10SM CLR 32/M07 A2998 RMK AO2,M
CXP,2021-08-30 19:15,-119.7326,39.1923,1431.00,86.00,28.40,12.44,M,4.00,0.00,29.99,M,5.00,M,CLR,M,M,M,M,M,M,M,HZ,M,M,M,M,M,M,82.54,KCXP 301915Z AUTO VRB04KT 5SM HZ CLR 30/M02 A2999 RMK AO2,M
MEV,2021-08-30 19:15,-119.7500,38.9963,1441.42,75.20,35.60,23.66,0.00,0.00,0.00,29.99,M,0.75,M,VV ,M,M,M,500.00,M,M,M,UP HZ,M,M,M,M,M,M,75.20,KMEV 301915Z AUTO 00000KT 3/4SM UP HZ VV005 24/02 A2999 RMK AO2 VIS 1/4V2,M
TMT,2021-08-30 19:15,-117.1971,39.4643,1749.34,85.80,25.20,10.97,210.00,7.00,0.00,30.06,M,7.00,M,CLR,M,M,M,M,M,M,M,M,M,M,M,M,M,M,82.15,KTMT 301915Z AUTO 21007KT 7SM CLR 30/M04 A3006 RMK AO2 T02991038,M
BAM,2021-08-30 19:15,-116.8743,40.5990,1382.36,89.60,23.00,8.87,210.00,10.00,0.00,29.96,M,5.00,17.00,CLR,M,M,M,M,M,M,M,M,M,M,M,M,M,M,84.75,KBAM 301915Z AUTO 21010G17KT 5SM CLR 32/M05 A2996 RMK AO1,M
BAM,2021-08-30 19:35,-116.8743,40.5990,1382.36,91.40,23.00,8.38,270.00,5.00,0.00,29.95,M,5.00,16.00,CLR,M,M,M,M,M,M,M,M,M,M,M,M,M,M,86.08,KBAM 301935Z AUTO 27005G16KT 5SM CLR 33/M05 A2995 RMK AO1,M
HTH,2021-08-30 19:35,-118.6315,38.5448,1282.89,89.60,24.80,9.56,320.00,8.00,0.00,29.92,M,7.00,M,CLR,M,M,M,M,M,M,M,M,M,M,M,M,M,M,84.88,KHTH 301935Z AUTO 32008KT 7SM CLR 32/M04 A2992 RMK A01,M
BVU,2021-08-30 19:35,-114.8611,35.9475,671.00,95.00,50.00,21.79,120.00,5.00,0.00,29.79,M,10.00,M,CLR,M,M,M,M,M,M,M,M,M,M,M,M,M,M,91.89,KBVU 301935Z AUTO 12005KT 10SM CLR 35/10 A2979 RMK AO2,M
MEV,2021-08-30 19:35,-119.7500,38.9963,1441.42,77.00,37.40,23.93,160.00,4.00,0.00,29.98,M,0.75,M,VV ,M,M,M,500.00,M,M,M,UP HZ,M,M,M,M,M,M,77.00,KMEV 301935Z AUTO 16004KT 3/4SM UP HZ VV005 25/03 A2998 RMK AO2,M
TMT,2021-08-30 19:35,-117.1971,39.4643,1749.34,85.00,24.60,11.01,270.00,4.00,0.00,30.05,M,7.00,M,CLR,M,M,M,M,M,M,M,M,M,M,M,M,M,M,81.47,KTMT 301935Z AUTO 27004KT 7SM CLR 29/M04 A3005 RMK AO2 T02941041,M
RTS,2021-08-30 19:35,-119.8764,39.6682,1539.00,89.60,17.60,7.05,210.00,16.00,0.00,29.97,M,10.00,21.00,CLR,M,M,M,M,M,M,M,M,M,M,M,M,M,M,84.45,KRTS 301935Z AUTO 21016G21KT 10SM CLR 32/M08 A2997 RMK AO2,M
CXP,2021-08-30 19:35,-119.7326,39.1923,1431.00,87.80,28.40,11.74,0.00,0.00,0.00,29.98,M,5.00,M,CLR,M,M,M,M,M,M,M,HZ,M,M,M,M,M,M,83.84,KCXP 301935Z AUTO 00000KT 5SM HZ CLR 31/M02 A2998 RMK AO2,M
LOL,2021-08-30 19:53,-118.5701,40.0684,1192.43,92.00,27.00,9.75,190.00,9.00,0.00,29.89,1007.70,3.00,18.00,BKN,M,M,M,3300.00,M,M,M,HZ,M,M,M,M,M,M,86.77,KLOL 301953Z AUTO 19009G18KT 150V240 3SM HZ BKN033 33/M03 A2989 RMK AO2 SLP077 T03331028,M
P68,2021-08-30 19:53,-116.0056,39.6014,1993.00,88.00,19.90,8.18,280.00,9.00,0.00,30.03,1007.80,M,15.00,M,M,M,M,M,M,M,M,M,M,M,M,M,M,M,83.40,KP68 301953Z AUTO 28009G15KT 31/M07 A3003 RMK AO1 SLP078 T03111067,M
VGT,2021-08-30 19:53,-115.1933,36.2111,667.00,103.00,51.00,17.86,110.00,9.00,0.00,29.75,1005.70,10.00,15.00,CLR,M,M,M,M,M,M,M,M,M,M,M,M,M,M,100.32,KVGT 301953Z 11009G15KT 10SM CLR 39/11 A2975 RMK AO2 SLP057 T03940106,M
DRA,2021-08-30 19:53,-116.0278,36.6206,1009.00,101.00,39.00,11.97,250.00,9.00,0.00,29.84,1004.30,10.00,M,CLR,M,M,M,M,M,M,M,M,M,M,M,M,M,M,95.82,KDRA 301953Z AUTO 25009KT 10SM CLR 38/04 A2984 RMK AO2 SLP043 T03830039,M
ELY,2021-08-30 19:53,-114.8453,39.2950,1909.00,89.00,24.10,9.43,190.00,10.00,0.00,30.05,1006.90,10.00,20.00,CLR,M,M,M,M,M,M,M,M,M,M,M,M,M,M,84.46,KELY 301953Z AUTO 19010G20KT 10SM CLR 32/M04 A3005 RMK AO2 SLP069 T03171044,M
MEV,2021-08-30 19:55,-119.7500,38.9963,1441.42,78.80,39.20,24.19,0.00,0.00,0.00,29.97,M,1.00,M,CLR,M,M,M,M,M,M,M,UP HZ,M,M,M,M,M,M,78.80,KMEV 301955Z AUTO 00000KT 1SM UP HZ CLR 26/04 A2997 RMK AO2,M
HTH,2021-08-30 19:55,-118.6315,38.5448,1282.89,91.40,21.20,7.77,330.00,7.00,0.00,29.91,M,8.00,M,CLR,M,M,M,M,M,M,M,M,M,M,M,M,M,M,85.96,KHTH 301955Z AUTO 33007KT 8SM CLR 33/M06 A2991 RMK A01,M
RTS,2021-08-30 19:55,-119.8764,39.6682,1539.00,89.60,17.60,7.05,190.00,16.00,0.00,29.97,M,10.00,M,CLR,M,M,M,M,M,M,M,M,M,M,M,M,M,M,84.45,KRTS 301955Z AUTO 19016KT 10SM CLR 32/M08 A2997 RMK AO2,M
CXP,2021-08-30 19:55,-119.7326,39.1923,1431.00,89.60,24.80,9.56,M,5.00,0.00,29.97,M,4.00,M,CLR,M,M,M,M,M,M,M,HZ,M,M,M,M,M,M,84.88,KCXP 301955Z AUTO VRB05KT 4SM HZ CLR 32/M04 A2997 RMK AO2,M
TMT,2021-08-30 19:55,-117.1971,39.4643,1749.34,85.30,25.30,11.19,190.00,11.00,0.00,30.04,M,7.00,M,CLR,M,M,M,M,M,M,M,M,M,M,M,M,M,M,81.80,KTMT 301955Z AUTO 19011KT 7SM CLR 30/M04 A3004 RMK AO2 T02961037,M
RNO,2021-08-30 19:55,-119.7711,39.4839,1341.00,86.00,30.00,13.28,110.00,6.00,0.00,29.92,1007.30,9.00,M,CLR,M,M,M,M,M,M,M,M,M,M,M,M,M,M,82.64,KRNO 301955Z 11006KT 9SM CLR 30/M01 A2992 RMK AO2 SLP073 HZ AND FU ALQDS T03001011 PNO $,M
BVU,2021-08-30 19:55,-114.8611,35.9475,671.00,96.80,50.00,20.62,100.00,6.00,0.00,29.77,M,10.00,M,CLR,M,M,M,M,M,M,M,M,M,M,M,M,M,M,93.71,KBVU 301955Z AUTO 10006KT 10SM CLR 36/10 A2977 RMK AO2,M
BAM,2021-08-30 19:55,-116.8743,40.5990,1382.36,91.40,23.00,8.38,250.00,12.00,0.00,29.94,M,5.00,18.00,CLR,M,M,M,M,M,M,M,M,M,M,M,M,M,M,86.08,KBAM 301955Z AUTO 25012G18KT 5SM CLR 33/M05 A2994 RMK AO1,M
TPH,2021-08-30 19:56,-117.0904,38.0505,1654.00,90.00,21.90,8.36,M,M,0.00,30.02,1007.40,6.00,M,SCT,M,M,M,3400.00,M,M,M,HZ,M,M,M,M,M,M,84.98,KTPH 301956Z AUTO 6SM HZ SCT034 32/M06 A3002 RMK AO2 SLP074 T03221056,M
EKO,2021-08-30 19:56,-115.7860,40.8242,1367.00,87.00,26.10,10.92,220.00,9.00,0.00,29.97,1009.10,4.00,M,CLR,M,M,M,M,M,M,M,HZ,M,M,M,M,M,M,83.14,KEKO 301956Z AUTO 22009KT 4SM HZ CLR 31/M03 A2997 RMK AO2 SLP091 T03061033,M
LAS,2021-08-30 19:56,-115.1634,36.0719,663.00,97.00,52.00,22.07,110.00,7.00,0.00,29.78,1005.10,10.00,M,FEW,SCT,BKN,M,13000.00,17000.00,25000.00,M,M,M,M,M,M,M,M,94.38,KLAS 301956Z 11007KT 10SM FEW130 SCT170 BKN250 36/11 A2978 RMK AO2 LTG DSNT S SLP051 CB DSNT S T03610111,M
NFL,2021-08-30 19:56,-118.7010,39.4166,1199.00,88.00,26.10,10.61,0.00,0.00,0.00,29.90,1010.10,4.00,M,BKN,OVC,M,M,4800.00,8000.00,M,M,FU,M,M,M,M,M,M,83.80,KNFL 301956Z COR 00000KT 4SM FU BKN048 OVC080 31/M03 A2990 RMK AO2 SLP101 FU BKN048 OVC080 T03111033,M
HND,2021-08-30 19:56,-115.1344,35.9729,742.79,98.00,54.00,22.97,50.00,6.00,0.00,29.81,1007.20,10.00,M,CLR,M,M,M,M,M,M,M,M,M,M,M,M,M,M,96.10,KHND 301956Z 05006KT 10SM CLR 37/12 A2981 RMK AO2 LTG DSNT S SLP072 T03670122,M
WMC,2021-08-30 19:56,-117.8072,40.9019,1315.00,90.00,27.00,10.34,270.00,8.00,0.00,29.92,1007.90,4.00,18.00,CLR,M,M,M,M,M,M,M,HZ,M,M,M,M,M,M,85.35,KWMC 301956Z AUTO 27008G18KT 4SM HZ CLR 32/M03 A2992 RMK AO2 SLP079 T03221028,M
INS,2021-08-30 19:58,-115.6733,36.5872,955.00,96.30,46.40,18.30,90.00,3.00,0.00,29.88,M,10.00,M,SCT,M,M,M,12000.00,M,M,M,M,M,M,M,M,M,M,92.56,KINS 301958Z 09003KT 10SM SCT120 36/08 A2988 RMK SPLNO WND DATA ESTMD ALSTG ESTMD T03570080,M
LSV,2021-08-30 19:58,-115.0343,36.2362,570.00,99.30,51.00,19.91,130.00,10.00,0.00,29.74,1004.20,10.00,M,M,M,M,M,M,M,M,M,M,M,M,M,M,M,M,96.55,KLSV 301958Z AUTO 13010KT 10SM M 37/11 A2974 RMK AO2 SLP042 T03740106 $,M
RTS,2021-08-30 20:10,-119.8764,39.6682,1539.00,89.60,17.60,7.05,210.00,13.00,0.00,29.97,M,10.00,23.00,CLR,M,M,M,M,M,M,M,M,M,M,M,M,M,M,84.45,KRTS 302010Z AUTO 21013G23KT 10SM CLR 32/M08 A2997 RMK AO2,M
CXP,2021-08-30 20:10,-119.7326,39.1923,1431.00,89.60,24.80,9.56,240.00,9.00,0.00,29.96,M,3.00,M,CLR,M,M,M,M,M,M,M,HZ,M,M,M,M,M,M,84.88,KCXP 302010Z AUTO 24009KT 230V290 3SM HZ CLR 32/M04 A2996 RMK AO2,M
HTH,2021-08-30 20:10,-118.6315,38.5448,1282.89,91.40,21.20,7.77,320.00,8.00,0.00,29.91,M,9.00,M,CLR,M,M,M,M,M,M,M,M,M,M,M,M,M,M,85.96,KHTH 302010Z AUTO 32008KT 9SM CLR 33/M06 A2991 RMK A01,M
MEV,2021-08-30 20:10,-119.7500,38.9963,1441.42,80.60,41.00,24.46,0.00,0.00,0.00,29.96,M,0.75,M,VV ,M,M,M,500.00,M,M,M,UP HZ,M,M,M,M,M,M,79.20,KMEV 302010Z AUTO 00000KT 3/4SM UP HZ VV005 27/05 A2996 RMK AO2 VIS 1/4V2 1/2,M
TMT,2021-08-30 20:15,-117.1971,39.4643,1749.34,87.00,25.50,10.72,260.00,10.00,0.00,30.03,M,5.00,16.00,CLR,M,M,M,M,M,M,M,HZ,M,M,M,M,M,M,82.95,KTMT 302015Z AUTO 26010G16KT 5SM HZ CLR 31/M04 A3003 RMK AO2 T03051036,M
BVU,2021-08-30 20:15,-114.8611,35.9475,671.00,100.40,50.00,18.48,0.00,0.00,0.00,29.76,M,10.00,M,CLR,M,M,M,M,M,M,M,M,M,M,M,M,M,M,97.42,KBVU 302015Z AUTO 00000KT 10SM CLR 38/10 A2976 RMK AO2 LTG DSNT SW,M
BAM,2021-08-30 20:15,-116.8743,40.5990,1382.36,91.40,21.20,7.77,240.00,11.00,0.00,29.93,M,7.00,16.00,CLR,M,M,M,M,M,M,M,M,M,M,M,M,M,M,85.96,KBAM 302015Z AUTO 24011G16KT 7SM CLR 33/M06 A2993 RMK AO1,M
MEV,2021-08-30 20:35,-119.7500,38.9963,1441.42,84.20,37.40,18.91,230.00,3.00,0.00,29.95,M,1.75,M,CLR,M,M,M,M,M,M,M,HZ,M,M,M,M,M,M,81.38,KMEV 302035Z AUTO 23003KT 1 3/4SM HZ CLR 29/03 A2995 RMK AO2,M
TMT,2021-08-30 20:35,-117.1971,39.4643,1749.34,88.00,25.70,10.44,260.00,14.00,0.00,30.02,M,5.00,M,CLR,M,M,M,M,M,M,M,HZ,M,M,M,M,M,M,83.77,KTMT 302035Z AUTO 26014KT 5SM HZ CLR 31/M03 A3002 RMK AO2 T03111035,M
HTH,2021-08-30 20:35,-118.6315,38.5448,1282.89,93.20,19.40,6.80,330.00,8.00,0.00,29.89,M,10.00,M,CLR,M,M,M,M,M,M,M,M,M,M,M,M,M,M,87.18,KHTH 302035Z AUTO 33008KT 10SM CLR 34/M07 A2989 RMK A01,M
BAM,2021-08-30 20:35,-116.8743,40.5990,1382.36,93.20,19.40,6.80,220.00,14.00,0.00,29.92,M,7.00,17.00,CLR,M,M,M,M,M,M,M,M,M,M,M,M,M,M,87.18,KBAM 302035Z AUTO 22014G17KT 7SM CLR 34/M07 A2992 RMK AO1,M
RTS,2021-08-30 20:35,-119.8764,39.6682,1539.00,91.40,14.00,5.69,230.00,18.00,0.00,29.96,M,10.00,25.00,CLR,M,M,M,M,M,M,M,M,M,M,M,M,M,M,85.60,KRTS 302035Z AUTO 23018G25KT 10SM CLR 33/M10 A2996 RMK AO2,M
CXP,2021-08-30 20:35,-119.7326,39.1923,1431.00,91.40,21.20,7.77,250.00,8.00,0.00,29.95,M,9.00,18.00,CLR,M,M,M,M,M,M,M,M,M,M,M,M,M,M,85.96,KCXP 302035Z AUTO 25008G18KT 200V260 9SM CLR 33/M06 A2995 RMK AO2,M
BVU,2021-08-30 20:35,-114.8611,35.9475,671.00,100.40,50.00,18.48,90.00,8.00,0.00,29.75,M,10.00,M,CLR,M,M,M,M,M,M,M,M,M,M,M,M,M,M,97.42,KBVU 302035Z AUTO 09008KT 060V130 10SM CLR 38/10 A2975 RMK AO2 LTG DSNT SW,M
P68,2021-08-30 20:53,-116.0056,39.6014,1993.00,90.00,19.90,7.68,270.00,11.00,0.00,30.00,1006.50,M,18.00,M,M,M,M,M,M,M,M,M,M,M,M,M,M,M,84.86,KP68 302053Z AUTO 27011G18KT 32/M07 A3000 RMK AO1 SLP065 T03221067 58021,M
DRA,2021-08-30 20:53,-116.0278,36.6206,1009.00,102.00,37.00,10.71,240.00,9.00,0.00,29.81,1003.40,10.00,15.00,CLR,M,M,M,M,M,M,M,M,M,M,M,M,M,M,96.38,KDRA 302053Z AUTO 24009G15KT 10SM CLR 39/03 A2981 RMK AO2 SLP034 T03890028 58020,M
LOL,2021-08-30 20:53,-118.5701,40.0684,1192.43,94.00,25.00,8.43,200.00,11.00,0.00,29.87,1006.80,4.00,M,BKN,M,M,M,3700.00,M,M,M,HZ,M,M,M,M,M,M,88.10,KLOL 302053Z AUTO 20011KT 4SM HZ BKN037 34/M04 A2987 RMK AO2 SLP068 T03441039 58023,M
ELY,2021-08-30 20:53,-114.8453,39.2950,1909.00,88.00,24.10,9.77,210.00,15.00,0.00,30.03,1006.70,10.00,25.00,CLR,M,M,M,M,M,M,M,M,M,M,M,M,M,M,83.65,KELY 302053Z AUTO 21015G25KT 10SM CLR 31/M04 A3003 RMK AO2 SLP067 T03111044 56018,M
VGT,2021-08-30 20:53,-115.1933,36.2111,667.00,100.00,51.00,19.49,130.00,7.00,0.00,29.74,1005.30,10.00,16.00,CLR,M,M,M,M,M,M,M,M,M,M,M,M,M,M,97.28,KVGT 302053Z 13007G16KT 10SM CLR 38/11 A2974 RMK AO2 LTG DSNT S SLP053 T03780106 56021,M
TMT,2021-08-30 20:55,-117.1971,39.4643,1749.34,89.00,24.80,9.71,260.00,15.00,0.00,30.02,M,5.00,20.00,CLR,M,M,M,M,M,M,M,HZ,M,M,M,M,M,M,84.51,KTMT 302055Z AUTO 26015G20KT 5SM HZ CLR 32/M04 A3002 RMK AO2 T03171040,M
RTS,2021-08-30 20:55,-119.8764,39.6682,1539.00,91.40,12.20,5.26,240.00,17.00,0.00,29.95,M,10.00,23.00,CLR,M,M,M,M,M,M,M,M,M,M,M,M,M,M,85.53,KRTS 302055Z AUTO 24017G23KT 10SM CLR 33/M11 A2995 RMK AO2,M
BAM,2021-08-30 20:55,-116.8743,40.5990,1382.36,93.20,19.40,6.80,250.00,7.00,0.00,29.92,M,7.00,19.00,CLR,M,M,M,M,M,M,M,M,M,M,M,M,M,M,87.18,KBAM 302055Z AUTO 25007G19KT 7SM CLR 34/M07 A2992 RMK AO1,M
MEV,2021-08-30 20:55,-119.7500,38.9963,1441.42,84.20,37.40,18.91,290.00,4.00,0.00,29.94,M,1.50,M,CLR,M,M,M,M,M,M,M,HZ,M,M,M,M,M,M,81.38,KMEV 302055Z AUTO 29004KT 1 1/2SM HZ CLR 29/03 A2994 RMK AO2,M
HTH,2021-08-30 20:55,-118.6315,38.5448,1282.89,93.20,19.40,6.80,330.00,12.00,0.00,29.88,M,10.00,M,CLR,M,M,M,M,M,M,M,M,M,M,M,M,M,M,87.18,KHTH 302055Z AUTO 33012KT 10SM CLR 34/M07 A2988 RMK A01,M
RNO,2021-08-30 20:55,-119.7711,39.4839,1341.00,94.00,23.00,7.75,250.00,8.00,0.00,29.90,1006.20,10.00,M,CLR,M,M,M,M,M,M,M,M,M,M,M,M,M,M,87.94,KRNO 302055Z 25008KT 150V280 10SM CLR 34/M05 A2990 RMK AO2 SLP062 FU ALF DSNT SE THRU SW AND NE THRU N 6//// T03441050 56022,M
CXP,2021-08-30 20:55,-119.7326,39.1923,1431.00,91.40,21.20,7.77,260.00,13.00,0.00,29.95,M,9.00,23.00,CLR,M,M,M,M,M,M,M,M,M,M,M,M,M,M,85.96,KCXP 302055Z AUTO 26013G23KT 9SM CLR 33/M06 A2995 RMK AO2,M
BVU,2021-08-30 20:55,-114.8611,35.9475,671.00,100.40,50.00,18.48,70.00,8.00,0.00,29.74,M,10.00,14.00,CLR,M,M,M,M,M,M,M,M,M,M,M,M,M,M,97.42,KBVU 302055Z AUTO 07008G14KT 030V120 10SM CLR 38/10 A2974 RMK AO2,M
WMC,2021-08-30 20:56,-117.8072,40.9019,1315.00,91.00,24.10,8.89,220.00,13.00,0.00,29.89,1007.00,7.00,20.00,CLR,M,M,M,M,M,M,M,M,M,M,M,M,M,M,85.86,KWMC 302056Z AUTO 22013G20KT 7SM CLR 33/M04 A2989 RMK AO2 SLP070 T03281044 58019,M
EKO,2021-08-30 20:56,-115.7860,40.8242,1367.00,90.00,21.90,8.36,230.00,11.00,0.00,29.94,1007.90,3.00,20.00,CLR,M,M,M,M,M,M,M,HZ,M,M,M,M,M,M,84.98,KEKO 302056Z AUTO 23011G20KT 3SM HZ CLR 32/M06 A2994 RMK AO2 SLP079 T03221056 58023,M
NFL,2021-08-30 20:56,-118.7010,39.4166,1199.00,92.00,24.10,8.64,260.00,6.00,0.00,29.87,1009.20,4.00,M,BKN,OVC,M,M,4000.00,8000.00,M,M,FU,M,M,M,M,M,M,86.53,KNFL 302056Z 26006KT 4SM FU BKN040 OVC080 33/M04 A2987 RMK AO2 SLP092 FU BKN040 OVC080 VIS 3SM NW-NE T03331044 58023,M
HND,2021-08-30 20:56,-115.1344,35.9729,742.79,101.00,54.00,21.10,30.00,7.00,0.00,29.78,1006.30,10.00,M,CLR,M,M,M,M,M,M,M,M,M,M,M,M,M,M,99.11,KHND 302056Z 03007KT 10SM CLR 38/12 A2978 RMK AO2 LTG DSNT S SLP063 T03830122 58021,M
TPH,2021-08-30 20:56,-117.0904,38.0505,1654.00,92.00,23.00,8.25,290.00,10.00,0.00,30.00,1006.50,8.00,M,CLR,M,M,M,M,M,M,M,M,M,M,M,M,M,M,86.45,KTPH 302056Z AUTO 29010KT 8SM CLR 33/M05 A3000 RMK AO2 SLP065 T03331050 56018,M
LAS,2021-08-30 20:56,-115.1634,36.0719,663.00,98.00,51.00,20.64,100.00,7.00,0.00,29.75,1004.10,10.00,M,SCT,SCT,BKN,M,13000.00,17000.00,25000.00,M,M,M,M,M,M,M,M,95.30,KLAS 302056Z 10007KT 10SM SCT130 SCT170 BKN250 37/11 A2975 RMK AO2 LTG DSNT S SLP041 CB DSNT S AND W VIRGA DSNT W T03670106 58022,M
LSV,2021-08-30 20:58,-115.0343,36.2362,570.00,99.30,51.00,19.91,150.00,6.00,0.00,29.72,1003.50,10.00,M,FEW,FEW,M,M,16000.00,19000.00,M,M,M,M,M,M,M,M,M,96.55,KLSV 302058Z AUTO 15006KT 10SM FEW160 FEW190 37/11 A2972 RMK AO2 SLP035 T03740106 57021 $,M
INS,2021-08-30 20:58,-115.6733,36.5872,955.00,98.80,35.20,10.98,90.00,5.00,0.00,29.82,1002.10,10.00,M,BKN,M,M,M,15000.00,M,M,M,M,M,M,M,M,M,M,93.33,KINS 302058Z 09005KT 10SM BKN150 37/02 A2982 RMK SLP021 WND DATA ESTMD T03710018 57022,M
RTS,2021-08-30 21:15,-119.8764,39.6682,1539.00,91.40,12.20,5.26,230.00,16.00,0.00,29.95,M,10.00,25.00,CLR,M,M,M,M,M,M,M,M,M,M,M,M,M,M,85.53,KRTS 302115Z AUTO 23016G25KT 10SM CLR 33/M11 A2995 RMK AO2,M
CXP,2021-08-30 21:15,-119.7326,39.1923,1431.00,91.40,19.40,7.19,280.00,10.00,0.00,29.94,M,10.00,18.00,CLR,M,M,M,M,M,M,M,M,M,M,M,M,M,M,85.86,KCXP 302115Z AUTO 28010G18KT 10SM CLR 33/M07 A2994 RMK AO2,M
BVU,2021-08-30 21:15,-114.8611,35.9475,671.00,102.20,48.20,16.37,150.00,9.00,0.00,29.73,M,10.00,M,CLR,M,M,M,M,M,M,M,M,M,M,M,M,M,M,98.83,KBVU 302115Z AUTO 15009KT 10SM CLR 39/09 A2973 RMK AO2,M
HTH,2021-08-30 21:15,-118.6315,38.5448,1282.89,95.00,17.60,5.96,330.00,12.00,0.00,29.87,M,10.00,M,CLR,M,M,M,M,M,M,M,M,M,M,M,M,M,M,88.39,KHTH 302115Z AUTO 33012KT 10SM CLR 35/M08 A2987 RMK A01,M
BAM,2021-08-30 21:15,-116.8743,40.5990,1382.36,93.20,21.20,7.34,260.00,13.00,0.00,29.91,M,7.00,17.00,CLR,M,M,M,M,M,M,M,M,M,M,M,M,M,M,87.29,KBAM 302115Z AUTO 26013G17KT 210V270 7SM CLR 34/M06 A2991 RMK AO1,M
MEV,2021-08-30 21:15,-119.7500,38.9963,1441.42,86.00,39.20,19.15,0.00,0.00,0.00,29.94,M,1.50,M,CLR,M,M,M,M,M,M,M,HZ,M,M,M,M,M,M,82.79,KMEV 302115Z AUTO 00000KT 1 1/2SM HZ CLR 30/04 A2994 RMK AO2,M
TMT,2021-08-30 21:15,-117.1971,39.4643,1749.34,89.00,23.40,9.22,260.00,18.00,0.00,30.01,M,7.00,21.00,CLR,M,M,M,M,M,M,M,M,M,M,M,M,M,M,84.26,KTMT 302115Z AUTO 26018G21KT 7SM CLR 32/M05 A3001 RMK AO2 T03161048,M
CXP,2021-08-30 21:30,-119.7326,39.1923,1431.00,91.40,19.40,7.19,270.00,10.00,0.00,29.94,M,10.00,21.00,CLR,M,M,M,M,M,M,M,M,M,M,M,M,M,M,85.86,KCXP 302130Z AUTO 27010G21KT 250V310 10SM CLR 33/M07 A2994 RMK AO2,M
HND,2021-08-30 21:33,-115.1344,35.9729,742.79,98.60,51.80,20.87,200.00,21.00,0.00,29.76,M,10.00,26.00,CLR,M,M,M,M,M,M,M,M,M,M,M,28.00,200.00,2021-08-30 21:18,96.00,KHND 302133Z 20021G26KT 10SM CLR 37/11 A2976 RMK AO2 PK WND 20028/2118 WSHFT 2113 LTG DSNT NW,M
BVU,2021-08-30 21:35,-114.8611,35.9475,671.00,102.20,48.20,16.37,180.00,12.00,0.00,29.72,M,10.00,M,CLR,M,M,M,M,M,M,M,M,M,M,M,M,M,M,98.83,KBVU 302135Z AUTO 18012KT 10SM CLR 39/09 A2972 RMK AO2,M
BAM,2021-08-30 21:35,-116.8743,40.5990,1382.36,93.20,23.00,7.92,230.00,11.00,0.00,29.90,M,7.00,18.00,CLR,M,M,M,M,M,M,M,M,M,M,M,M,M,M,87.42,KBAM 302135Z AUTO 23011G18KT 210V270 7SM CLR 34/M05 A2990 RMK AO1,M
RTS,2021-08-30 21:35,-119.8764,39.6682,1539.00,91.40,14.00,5.69,240.00,16.00,0.00,29.94,M,10.00,22.00,CLR,M,M,M,M,M,M,M,M,M,M,M,M,M,M,85.60,KRTS 302135Z AUTO 24016G22KT 10SM CLR 33/M10 A2994 RMK AO2,M
MEV,2021-08-30 21:35,-119.7500,38.9963,1441.42,86.00,33.80,15.48,140.00,3.00,0.00,29.93,M,1.25,M,CLR,M,M,M,M,M,M,M,HZ,M,M,M,M,M,M,82.66,KMEV 302135Z AUTO 14003KT 1 1/4SM HZ CLR 30/01 A2993 RMK AO2,M
TMT,2021-08-30 21:35,-117.1971,39.4643,1749.34,89.60,22.60,8.72,250.00,13.00,0.00,30.00,M,10.00,20.00,CLR,M,M,M,M,M,M,M,M,M,M,M,M,M,M,84.73,KTMT 302135Z AUTO 25013G20KT 10SM CLR 32/M05 A3000 RMK AO2 T03201052,M
HTH,2021-08-30 21:35,-118.6315,38.5448,1282.89,95.00,15.80,5.51,350.00,12.00,0.00,29.86,M,10.00,M,CLR,M,M,M,M,M,M,M,M,M,M,M,M,M,M,88.29,KHTH 302135Z AUTO 35012KT 10SM CLR 35/M09 A2986 RMK A01,M
LAS,2021-08-30 21:38,-115.1634,36.0719,663.00,99.00,51.00,20.09,200.00,9.00,0.00,29.74,M,10.00,15.00,SCT,SCT,BKN,M,13000.00,17000.00,25000.00,M,M,M,M,M,M,M,M,96.24,KLAS 302138Z 20009G15KT 10SM SCT130 SCT170 BKN250 37/11 A2974 RMK AO2 LTG DSNT NW CB DSNT S AND W VIRGA DSNT W T03720106,M
DRA,2021-08-30 21:53,-116.0278,36.6206,1009.00,104.00,36.00,9.70,250.00,9.00,0.00,29.78,1002.50,10.00,19.00,CLR,M,M,M,M,M,M,M,M,M,M,M,M,M,M,97.93,KDRA 302153Z AUTO 25009G19KT 10SM CLR 40/02 A2978 RMK AO2 SLP025 T04000022,M
P68,2021-08-30 21:53,-116.0056,39.6014,1993.00,91.00,19.90,7.44,280.00,15.00,0.00,29.97,1005.40,M,25.00,M,M,M,M,M,M,M,M,M,M,M,M,M,M,M,85.59,KP68 302153Z AUTO 28015G25KT 33/M07 A2997 RMK AO1 SLP054 T03281067,M
ELY,2021-08-30 21:53,-114.8453,39.2950,1909.00,89.00,21.90,8.60,210.00,12.00,0.00,30.01,1005.70,10.00,23.00,CLR,M,M,M,M,M,M,M,M,M,M,M,28.00,220.00,2021-08-30 21:07,84.31,KELY 302153Z AUTO 21012G23KT 10SM CLR 32/M06 A3001 RMK AO2 PK WND 22028/2107 SLP057 T03171056,M
LOL,2021-08-30 21:53,-118.5701,40.0684,1192.43,95.00,27.00,8.85,M,6.00,0.00,29.83,1005.70,3.00,M,OVC,M,M,M,3400.00,M,M,M,HZ,M,M,M,M,M,M,89.12,KLOL 302153Z AUTO VRB06KT 3SM HZ OVC034 35/M03 A2983 RMK AO2 SLP057 T03501028,M
VGT,2021-08-30 21:53,-115.1933,36.2111,667.00,101.00,51.00,18.97,150.00,8.00,0.00,29.71,1004.40,10.00,M,CLR,M,M,M,M,M,M,M,M,M,M,M,M,M,M,98.23,KVGT 302153Z 15008KT 10SM CLR 38/11 A2971 RMK AO2 LTG DSNT W AND NW SLP044 T03830106,M
HTH,2021-08-30 21:55,-118.6315,38.5448,1282.89,95.00,12.20,4.70,330.00,15.00,0.00,29.85,M,10.00,M,CLR,M,M,M,M,M,M,M,M,M,M,M,M,M,M,88.11,KHTH 302155Z AUTO 33015KT 10SM CLR 35/M11 A2985 RMK A01,M
BAM,2021-08-30 21:55,-116.8743,40.5990,1382.36,93.20,21.20,7.34,240.00,11.00,0.00,29.89,M,7.00,17.00,CLR,M,M,M,M,M,M,M,M,M,M,M,M,M,M,87.29,KBAM 302155Z AUTO 24011G17KT 7SM CLR 34/M06 A2989 RMK AO1,M
RNO,2021-08-30 21:55,-119.7711,39.4839,1341.00,95.00,21.90,7.15,250.00,10.00,0.00,29.87,1005.30,10.00,20.00,CLR,M,M,M,M,M,M,M,M,M,M,M,M,M,M,88.67,KRNO 302155Z 25010G20KT 10SM CLR 35/M06 A2987 RMK AO2 SLP053 FU ALF SE THRU W AND DSNT NW THRU NE HZ ALQDS T03501056,M
MEV,2021-08-30 21:55,-119.7500,38.9963,1441.42,87.80,28.40,11.74,0.00,0.00,0.00,29.92,M,0.75,M,VV ,M,M,M,500.00,M,M,M,HZ,M,M,M,M,M,M,83.84,KMEV 302155Z AUTO 00000KT 3/4SM HZ VV005 31/M02 A2992 RMK AO2,M
TMT,2021-08-30 21:55,-117.1971,39.4643,1749.34,90.00,19.20,7.45,260.00,15.00,0.00,29.99,M,10.00,22.00,CLR,M,M,M,M,M,M,M,M,M,M,M,M,M,M,84.82,KTMT 302155Z AUTO 26015G22KT 10SM CLR 32/M07 A2999 RMK AO2 T03221071,M
RTS,2021-08-30 21:55,-119.8764,39.6682,1539.00,91.40,14.00,5.69,250.00,15.00,0.00,29.93,M,10.00,M,CLR,M,M,M,M,M,M,M,M,M,M,M,M,M,M,85.60,KRTS 302155Z AUTO 25015KT 10SM CLR 33/M10 A2993 RMK AO2,M
BVU,2021-08-30 21:55,-114.8611,35.9475,671.00,102.20,48.20,16.37,220.00,11.00,0.00,29.71,M,10.00,17.00,CLR,M,M,M,M,M,M,M,M,M,M,M,M,M,M,98.83,KBVU 302155Z AUTO 22011G17KT 10SM CLR 39/09 A2971 RMK AO2,M
CXP,2021-08-30 21:55,-119.7326,39.1923,1431.00,91.40,21.20,7.77,280.00,10.00,0.00,29.93,M,9.00,18.00,CLR,M,M,M,M,M,M,M,M,M,M,M,M,M,M,85.96,KCXP 302155Z AUTO 28010G18KT 9SM CLR 33/M06 A2993 RMK AO2,M
EKO,2021-08-30 21:56,-115.7860,40.8242,1367.00,91.00,23.00,8.49,260.00,16.00,0.00,29.91,1007.50,5.00,20.00,CLR,M,M,M,M,M,M,M,HZ,M,M,M,M,M,M,85.79,KEKO 302156Z AUTO 26016G20KT 5SM HZ CLR 33/M05 A2991 RMK AO2 SLP075 T03281050,M
NFL,2021-08-30 21:56,-118.7010,39.4166,1199.00,93.00,25.00,8.67,240.00,4.00,0.00,29.84,1008.20,3.00,M,OVC,M,M,M,4500.00,M,M,M,FU,M,M,M,M,M,M,87.43,KNFL 302156Z 24004KT 3SM FU OVC045 34/M04 A2984 RMK AO2 SLP082 FU OVC045 VIS SE-SW 4 T03391039,M
INS,2021-08-30 21:56,-115.6733,36.5872,955.00,99.00,35.20,10.92,100.00,8.00,0.00,29.79,1001.50,M,M,BKN,M,M,M,14000.00,M,M,M,M,M,M,M,M,M,M,93.50,KINS 302156Z 10008KT BKN140 37/02 A2979 RMK AO2 LTG DSNT SE SLP015 WND DATA ESTMD T03720018 PWINO $,M
HND,2021-08-30 21:56,-115.1344,35.9729,742.79,97.00,53.00,22.98,210.00,15.00,0.00,29.75,1005.50,10.00,21.00,CLR,M,M,M,M,M,M,M,M,M,M,M,28.00,200.00,2021-08-30 21:18,94.67,KHND 302156Z 21015G21KT 10SM CLR 36/12 A2975 RMK AO2 PK WND 20028/2118 WSHFT 2113 LTG DSNT NW SLP055 T03610117,M
TPH,2021-08-30 21:56,-117.0904,38.0505,1654.00,93.00,23.00,7.97,250.00,13.00,0.00,29.97,1005.70,9.00,M,CLR,M,M,M,M,M,M,M,M,M,M,M,M,M,M,87.27,KTPH 302156Z AUTO 25013KT 9SM CLR 34/M05 A2997 RMK AO2 SLP057 T03391050,M
LAS,2021-08-30 21:56,-115.1634,36.0719,663.00,98.00,49.00,19.02,190.00,7.00,0.00,29.73,1003.50,10.00,M,SCT,BKN,BKN,M,13000.00,17000.00,22000.00,M,M,M,M,M,M,M,M,94.81,KLAS 302156Z 19007KT 10SM SCT130 BKN170 BKN220 37/09 A2973 RMK AO2 LTG DSNT NW SLP035 CB DSNT ALQDS VIRGA DSNT SE-S T03670094,M
WMC,2021-08-30 21:56,-117.8072,40.9019,1315.00,93.00,24.10,8.35,230.00,11.00,0.00,29.87,1006.40,8.00,20.00,CLR,M,M,M,M,M,M,M,M,M,M,M,M,M,M,87.36,KWMC 302156Z AUTO 23011G20KT 8SM CLR 34/M04 A2987 RMK AO2 SLP064 T03391044,M
LSV,2021-08-30 21:58,-115.0343,36.2362,570.00,99.30,49.60,18.83,0.00,0.00,0.00,29.69,1002.60,10.00,M,FEW,M,M,M,14000.00,M,M,M,M,M,M,M,M,M,M,96.19,KLSV 302158Z AUTO 00000KT 10SM FEW140 37/10 A2969 RMK AO2 LTG DSNT W SLP026 T03740098 $,M
CXP,2021-08-30 22:15,-119.7326,39.1923,1431.00,91.40,21.20,7.77,260.00,9.00,0.00,29.92,M,10.00,16.00,CLR,M,M,M,M,M,M,M,M,M,M,M,M,M,M,85.96,KCXP 302215Z AUTO 26009G16KT 220V280 10SM CLR 33/M06 A2992 RMK AO2,M
BAM,2021-08-30 22:15,-116.8743,40.5990,1382.36,91.40,21.20,7.77,240.00,11.00,0.00,29.89,M,7.00,17.00,CLR,M,M,M,M,M,M,M,M,M,M,M,M,M,M,85.96,KBAM 302215Z AUTO 24011G17KT 7SM CLR 33/M06 A2989 RMK AO1,M
BVU,2021-08-30 22:15,-114.8611,35.9475,671.00,102.20,48.20,16.37,210.00,16.00,0.00,29.70,M,10.00,M,CLR,M,M,M,M,M,M,M,M,M,M,M,M,M,M,98.83,KBVU 302215Z AUTO 21016KT 10SM CLR 39/09 A2970 RMK AO2,M
HTH,2021-08-30 22:15,-118.6315,38.5448,1282.89,95.00,14.00,5.09,320.00,14.00,0.00,29.84,M,10.00,M,CLR,M,M,M,M,M,M,M,M,M,M,M,M,M,M,88.20,KHTH 302215Z AUTO 32014KT 10SM CLR 35/M10 A2984 RMK A01,M
RTS,2021-08-30 22:15,-119.8764,39.6682,1539.00,91.40,14.00,5.69,230.00,13.00,0.00,29.93,M,10.00,22.00,CLR,M,M,M,M,M,M,M,M,M,M,M,M,M,M,85.60,KRTS 302215Z AUTO 23013G22KT 200V280 10SM CLR 33/M10 A2993 RMK AO2,M
MEV,2021-08-30 22:15,-119.7500,38.9963,1441.42,87.80,26.60,10.91,260.00,4.00,0.00,29.92,M,1.00,M,CLR,M,M,M,M,M,M,M,HZ,M,M,M,M,M,M,83.69,KMEV 302215Z AUTO 26004KT 1SM HZ CLR 31/M03 A2992 RMK AO2,M
TMT,2021-08-30 22:15,-117.1971,39.4643,1749.34,89.60,17.10,6.90,250.00,15.00,0.00,29.99,M,10.00,19.00,CLR,M,M,M,M,M,M,M,M,M,M,M,M,M,M,84.43,KTMT 302215Z AUTO 25015G19KT 10SM CLR 32/M08 A2999 RMK AO2 T03201083,M
CXP,2021-08-30 22:30,-119.7326,39.1923,1431.00,91.40,21.20,7.77,270.00,12.00,0.00,29.91,M,10.00,23.00,CLR,M,M,M,M,M,M,M,M,M,M,M,M,M,M,85.96,KCXP 302230Z AUTO 27012G23KT 10SM CLR 33/M06 A2991 RMK AO2,M
BAM,2021-08-30 22:35,-116.8743,40.5990,1382.36,91.40,21.20,7.77,240.00,9.00,0.00,29.88,M,7.00,M,CLR,M,M,M,M,M,M,M,M,M,M,M,M,M,M,85.96,KBAM 302235Z AUTO 24009KT 7SM CLR 33/M06 A2988 RMK AO1,M
MEV,2021-08-30 22:35,-119.7500,38.9963,1441.42,87.80,26.60,10.91,250.00,5.00,0.00,29.91,M,2.00,11.00,CLR,M,M,M,M,M,M,M,HZ,M,M,M,M,M,M,83.69,KMEV 302235Z AUTO 25005G11KT 2SM HZ CLR 31/M03 A2991 RMK AO2,M
RTS,2021-08-30 22:35,-119.8764,39.6682,1539.00,91.40,15.80,6.16,210.00,16.00,0.00,29.92,M,10.00,22.00,CLR,M,M,M,M,M,M,M,M,M,M,M,M,M,M,85.68,KRTS 302235Z AUTO 21016G22KT 10SM CLR 33/M09 A2992 RMK AO2,M
HTH,2021-08-30 22:35,-118.6315,38.5448,1282.89,95.00,14.00,5.09,320.00,14.00,0.00,29.83,M,10.00,M,CLR,M,M,M,M,M,M,M,M,M,M,M,M,M,M,88.20,KHTH 302235Z AUTO 32014KT 10SM CLR 35/M10 A2983 RMK A01,M
BVU,2021-08-30 22:35,-114.8611,35.9475,671.00,102.20,48.20,16.37,210.00,10.00,0.00,29.70,M,10.00,M,CLR,M,M,M,M,M,M,M,M,M,M,M,M,M,M,98.83,KBVU 302235Z AUTO 21010KT 10SM CLR 39/09 A2970 RMK AO2 LTG DSNT SE AND SW,M
TMT,2021-08-30 22:35,-117.1971,39.4643,1749.34,90.00,16.90,6.75,250.00,15.00,0.00,29.98,M,10.00,21.00,CLR,M,M,M,M,M,M,M,M,M,M,M,M,M,M,84.71,KTMT 302235Z AUTO 25015G21KT 10SM CLR 32/M08 A2998 RMK AO2 T03221084,M
INS,2021-08-30 22:40,-115.6733,36.5872,955.00,99.30,38.30,12.23,130.00,11.00,0.00,29.77,1001.00,10.00,25.00,BKN,M,M,M,13000.00,M,M,M,M,M,M,M,M,M,M,94.31,KINS 302240Z 13011G25KT 10SM BKN130 37/04 A2977 RMK AO2 SLP010 WND DATA ESTMD T03740035 PWINO $,M
NFL,2021-08-30 22:46,-118.7010,39.4166,1199.00,94.00,25.00,8.43,270.00,4.00,0.00,29.82,M,2.00,M,BKN,M,M,M,3500.00,M,M,M,FU,M,M,M,M,M,M,88.10,KNFL 302246Z 27004KT 2SM FU BKN035 34/M04 A2982 RMK AO2 FU BKN035 T03441039,M
LOL,2021-08-30 22:53,-118.5701,40.0684,1192.43,95.00,27.00,8.85,M,3.00,0.00,29.80,1004.70,4.00,M,BKN,M,M,M,3600.00,M,M,M,HZ,M,M,M,M,M,M,89.12,KLOL 302253Z AUTO VRB03KT 4SM HZ BKN036 35/M03 A2980 RMK AO2 SLP047 T03501028,M
VGT,2021-08-30 22:53,-115.1933,36.2111,667.00,101.00,47.00,16.21,220.00,14.00,0.00,29.69,1003.80,10.00,M,CLR,M,M,M,M,M,M,M,M,M,M,M,M,M,M,97.23,KVGT 302253Z 22014KT 10SM CLR 38/08 A2969 RMK AO2 SLP038 T03830083,M
ELY,2021-08-30 22:53,-114.8453,39.2950,1909.00,89.00,21.00,8.28,210.00,21.00,0.00,29.98,1004.70,10.00,26.00,CLR,M,M,M,M,M,M,M,M,M,M,M,33.00,230.00,2021-08-30 22:06,84.26,KELY 302253Z AUTO 21021G26KT 10SM CLR 32/M06 A2998 RMK AO2 PK WND 23033/2206 SLP047 T03171061,M
P68,2021-08-30 22:53,-116.0056,39.6014,1993.00,91.00,19.00,7.16,280.00,10.00,0.00,29.94,1004.60,M,16.00,M,M,M,M,M,M,M,M,M,M,M,M,M,M,M,85.54,KP68 302253Z AUTO 28010G16KT 33/M07 A2994 RMK AO1 SLP046 T03281072,M
DRA,2021-08-30 22:53,-116.0278,36.6206,1009.00,102.00,36.00,10.29,270.00,7.00,0.00,29.76,1001.90,10.00,M,CLR,M,M,M,M,M,M,M,M,M,M,M,M,M,M,96.20,KDRA 302253Z AUTO 27007KT 10SM CLR 39/02 A2976 RMK AO2 SLP019 T03890022,M
HTH,2021-08-30 22:55,-118.6315,38.5448,1282.89,96.80,14.00,4.82,320.00,11.00,0.00,29.83,M,10.00,17.00,CLR,M,M,M,M,M,M,M,M,M,M,M,M,M,M,89.69,KHTH 302255Z AUTO 32011G17KT 10SM CLR 36/M10 A2983 RMK A01,M
BVU,2021-08-30 22:55,-114.8611,35.9475,671.00,102.20,48.20,16.37,200.00,11.00,0.00,29.69,M,10.00,M,CLR,M,M,M,M,M,M,M,M,M,M,M,M,M,M,98.83,KBVU 302255Z AUTO 20011KT 10SM CLR 39/09 A2969 RMK AO2 LTG DSNT E AND SE,M
CXP,2021-08-30 22:55,-119.7326,39.1923,1431.00,91.40,17.60,6.66,260.00,10.00,0.00,29.91,M,10.00,22.00,CLR,M,M,M,M,M,M,M,M,M,M,M,M,M,M,85.76,KCXP 302255Z AUTO 26010G22KT 10SM CLR 33/M08 A2991 RMK AO2,M
TMT,2021-08-30 22:55,-117.1971,39.4643,1749.34,89.00,17.80,7.22,250.00,14.00,0.00,29.97,M,10.00,21.00,CLR,M,M,M,M,M,M,M,M,M,M,M,M,M,M,84.09,KTMT 302255Z AUTO 25014G21KT 10SM CLR 32/M08 A2997 RMK AO2 T03171079,M
RTS,2021-08-30 22:55,-119.8764,39.6682,1539.00,91.40,14.00,5.69,240.00,15.00,0.00,29.93,M,10.00,21.00,CLR,M,M,M,M,M,M,M,M,M,M,M,M,M,M,85.60,KRTS 302255Z AUTO 24015G21KT 10SM CLR 33/M10 A2993 RMK AO2,M
MEV,2021-08-30 22:55,-119.7500,38.9963,1441.42,87.80,28.40,11.74,170.00,6.00,0.00,29.91,M,1.00,M,CLR,M,M,M,M,M,M,M,HZ,M,M,M,M,M,M,83.84,KMEV 302255Z AUTO 17006KT 1SM HZ CLR 31/M02 A2991 RMK AO2,M
BAM,2021-08-30 22:55,-116.8743,40.5990,1382.36,91.40,21.20,7.77,250.00,9.00,0.00,29.88,M,7.00,M,CLR,M,M,M,M,M,M,M,M,M,M,M,M,M,M,85.96,KBAM 302255Z AUTO 25009KT 7SM CLR 33/M06 A2988 RMK AO1,M
RNO,2021-08-30 22:55,-119.7711,39.4839,1341.00,94.00,23.00,7.75,230.00,12.00,0.00,29.86,1004.80,10.00,20.00,CLR,M,M,M,M,M,M,M,M,M,M,M,M,M,M,87.94,KRNO 302255Z 23012G20KT 10SM CLR 34/M05 A2986 RMK AO2 SLP048 FU DSNT NW THRU NE AND SE THRU S HZ ALQDS T03441050,M
TPH,2021-08-30 22:56,-117.0904,38.0505,1654.00,93.00,21.00,7.33,280.00,9.00,0.00,29.94,1004.90,7.00,M,CLR,M,M,M,M,M,M,M,M,M,M,M,M,M,M,87.13,KTPH 302256Z AUTO 28009KT 7SM CLR 34/M06 A2994 RMK AO2 SLP049 T03391061,M
NFL,2021-08-30 22:56,-118.7010,39.4166,1199.00,94.00,26.10,8.82,300.00,5.00,0.00,29.82,1007.40,2.00,M,BKN,M,M,M,3500.00,M,M,M,FU,M,M,M,M,M,M,88.20,KNFL 302256Z 30005KT 2SM FU BKN035 34/M03 A2982 RMK AO2 SLP074 FU BKN035 T03441033,M
HND,2021-08-30 22:56,-115.1344,35.9729,742.79,98.00,47.00,17.65,240.00,9.00,0.00,29.74,1005.10,10.00,M,CLR,M,M,M,M,M,M,M,M,M,M,M,M,M,M,94.43,KHND 302256Z 24009KT 10SM CLR 37/08 A2974 RMK AO2 LTG DSNT S SLP051 T03670083,M
LAS,2021-08-30 22:56,-115.1634,36.0719,663.00,99.00,45.00,15.98,230.00,8.00,0.00,29.71,1002.80,10.00,M,SCT,BKN,BKN,M,13000.00,17000.00,22000.00,M,M,M,M,M,M,M,M,95.00,KLAS 302256Z 23008KT 10SM SCT130 BKN170 BKN220 37/07 A2971 RMK AO2 SLP028 CB DSNT NE-SE AND S VIRGA DSNT S T03720072,M
EKO,2021-08-30 22:56,-115.7860,40.8242,1367.00,90.00,21.90,8.36,250.00,8.00,0.00,29.89,1006.90,5.00,M,CLR,M,M,M,M,M,M,M,HZ,M,M,M,M,M,M,84.98,KEKO 302256Z AUTO 25008KT 5SM HZ CLR 32/M06 A2989 RMK AO2 SLP069 T03221056,M
WMC,2021-08-30 22:56,-117.8072,40.9019,1315.00,93.00,21.00,7.33,210.00,11.00,0.00,29.84,1005.90,7.00,M,FEW,M,M,M,4600.00,M,M,M,M,M,M,M,M,M,M,87.13,KWMC 302256Z AUTO 21011KT 7SM FEW046 34/M06 A2984 RMK AO2 SLP059 T03391061,M
INS,2021-08-30 22:56,-115.6733,36.5872,955.00,98.80,37.80,12.17,140.00,16.00,0.00,29.76,1001.10,10.00,27.00,BKN,M,M,M,14000.00,M,M,M,M,M,M,M,M,M,M,93.79,KINS 302256Z 14016G27KT 10SM BKN140 37/03 A2976 RMK AO2 SLP011 WND DATA ESTMD T03710032 PWINO $,M
LSV,2021-08-30 22:58,-115.0343,36.2362,570.00,101.00,48.00,16.90,230.00,15.00,0.00,29.67,1001.80,10.00,M,FEW,M,M,M,16000.00,M,M,M,M,M,M,M,M,M,M,97.46,KLSV 302258Z AUTO 23015KT 10SM FEW160 38/09 A2967 RMK AO2 SLP018 T03830089 $,M
MEV,2021-08-30 23:15,-119.7500,38.9963,1441.42,87.80,26.60,10.91,230.00,8.00,0.00,29.91,M,1.50,M,CLR,M,M,M,M,M,M,M,HZ,M,M,M,M,M,M,83.69,KMEV 302315Z AUTO 23008KT 1 1/2SM HZ CLR 31/M03 A2991 RMK AO2,M
BVU,2021-08-30 23:15,-114.8611,35.9475,671.00,102.20,48.20,16.37,210.00,8.00,0.00,29.69,M,10.00,M,CLR,M,M,M,M,M,M,M,M,M,M,M,M,M,M,98.83,KBVU 302315Z AUTO 21008KT 10SM CLR 39/09 A2969 RMK AO2,M
CXP,2021-08-30 23:15,-119.7326,39.1923,1431.00,91.40,17.60,6.66,270.00,16.00,0.00,29.90,M,10.00,21.00,CLR,M,M,M,M,M,M,M,M,M,M,M,M,M,M,85.76,KCXP 302315Z AUTO 27016G21KT 10SM CLR 33/M08 A2990 RMK AO2,M
RTS,2021-08-30 23:15,-119.8764,39.6682,1539.00,91.40,10.40,4.86,270.00,14.00,0.00,29.92,M,10.00,22.00,CLR,M,M,M,M,M,M,M,M,M,M,M,M,M,M,85.47,KRTS 302315Z AUTO 27014G22KT 10SM CLR 33/M12 A2992 RMK AO2,M
BAM,2021-08-30 23:15,-116.8743,40.5990,1382.36,91.40,21.20,7.77,240.00,13.00,0.00,29.88,M,7.00,21.00,CLR,M,M,M,M,M,M,M,M,M,M,M,M,M,M,85.96,KBAM 302315Z AUTO 24013G21KT 7SM CLR 33/M06 A2988 RMK AO1,M
HTH,2021-08-30 23:15,-118.6315,38.5448,1282.89,96.80,14.00,4.82,310.00,10.00,0.00,29.82,M,10.00,M,CLR,M,M,M,M,M,M,M,M,M,M,M,M,M,M,89.69,KHTH 302315Z AUTO 31010KT 10SM CLR 36/M10 A2982 RMK A01,M
TMT,2021-08-30 23:15,-117.1971,39.4643,1749.34,88.50,19.90,8.05,240.00,12.00,0.00,29.97,M,10.00,19.00,CLR,M,M,M,M,M,M,M,M,M,M,M,M,M,M,83.76,KTMT 302315Z AUTO 24012G19KT 10SM CLR 31/M07 A2997 RMK AO2 T03141067,M
CXP,2021-08-30 23:35,-119.7326,39.1923,1431.00,91.40,15.80,6.16,240.00,16.00,0.00,29.90,M,10.00,26.00,CLR,M,M,M,M,M,M,M,M,M,M,M,M,M,M,85.68,KCXP 302335Z AUTO 24016G26KT 10SM CLR 33/M09 A2990 RMK AO2,M
TMT,2021-08-30 23:35,-117.1971,39.4643,1749.34,89.00,19.40,7.78,230.00,13.00,0.00,29.97,M,10.00,17.00,CLR,M,M,M,M,M,M,M,M,M,M,M,M,M,M,84.03,KTMT 302335Z AUTO 23013G17KT 10SM CLR 32/M07 A2997 RMK AO2 T03161070,M
RTS,2021-08-30 23:35,-119.8764,39.6682,1539.00,91.40,8.60,4.48,250.00,16.00,0.00,29.92,M,10.00,M,CLR,M,M,M,M,M,M,M,M,M,M,M,M,M,M,85.42,KRTS 302335Z AUTO 25016KT 10SM CLR 33/M13 A2992 RMK AO2,M
MEV,2021-08-30 23:35,-119.7500,38.9963,1441.42,87.80,24.80,10.12,290.00,7.00,0.00,29.90,M,4.00,M,CLR,M,M,M,M,M,M,M,HZ,M,M,M,M,M,M,83.56,KMEV 302335Z AUTO 29007KT 4SM HZ CLR 31/M04 A2990 RMK AO2,M
BAM,2021-08-30 23:35,-116.8743,40.5990,1382.36,91.40,21.20,7.77,220.00,8.00,0.00,29.87,M,7.00,M,CLR,M,M,M,M,M,M,M,M,M,M,M,M,M,M,85.96,KBAM 302335Z AUTO 22008KT 7SM CLR 33/M06 A2987 RMK AO1,M
HTH,2021-08-30 23:35,-118.6315,38.5448,1282.89,96.80,15.80,5.21,320.00,11.00,0.00,29.82,M,10.00,M,CLR,M,M,M,M,M,M,M,M,M,M,M,M,M,M,89.78,KHTH 302335Z AUTO 32011KT 290V350 10SM CLR 36/M09 A2982 RMK A01,M
BVU,2021-08-30 23:35,-114.8611,35.9475,671.00,104.00,46.40,14.50,250.00,10.00,0.00,29.68,M,10.00,16.00,CLR,M,M,M,M,M,M,M,M,M,M,M,M,M,M,100.21,KBVU 302335Z AUTO 25010G16KT 10SM CLR 40/08 A2968 RMK AO2 LTG DSNT E,M
VGT,2021-08-30 23:53,-115.1933,36.2111,667.00,102.00,46.00,15.16,230.00,7.00,0.00,29.67,1003.30,10.00,M,CLR,M,M,M,M,M,M,M,M,M,M,M,M,M,M,98.15,KVGT 302353Z 23007KT 10SM CLR 39/08 A2967 RMK AO2 SLP033 T03890078 10394 20356 56020,M
ELY,2021-08-30 23:53,-114.8453,39.2950,1909.00,87.00,19.90,8.42,230.00,11.00,0.00,29.97,1004.90,10.00,24.00,CLR,M,M,M,M,M,M,M,M,M,M,M,M,M,M,82.75,KELY 302353Z AUTO 23011G24KT 10SM CLR 31/M07 A2997 RMK AO2 SLP049 T03061067 10322 20278 56018,M
LOL,2021-08-30 23:53,-118.5701,40.0684,1192.43,95.00,26.10,8.53,180.00,13.00,0.00,29.78,1004.20,5.00,M,CLR,M,M,M,M,M,M,M,HZ,M,M,M,M,M,M,89.03,KLOL 302353Z AUTO 18013KT 5SM HZ CLR 35/M03 A2978 RMK AO2 SLP042 T03501033 10367 20289 56026,M
DRA,2021-08-30 23:53,-116.0278,36.6206,1009.00,103.00,34.00,9.25,210.00,11.00,0.00,29.74,1001.20,10.00,M,CLR,M,M,M,M,M,M,M,M,M,M,M,M,M,M,96.64,KDRA 302353Z AUTO 21011KT 10SM CLR 39/01 A2974 RMK AO2 SLP012 T03940011 10400 20339 56022,M
P68,2021-08-30 23:53,-116.0056,39.6014,1993.00,90.00,17.10,6.81,270.00,10.00,0.00,29.93,1004.40,M,23.00,M,M,M,M,M,M,M,M,M,M,M,M,M,M,M,84.72,KP68 302353Z AUTO 27010G23KT 230V300 32/M08 A2993 RMK AO1 SLP044 T03221083 10333 20278 56020,M
RNO,2021-08-30 23:55,-119.7711,39.4839,1341.00,93.00,21.00,7.33,260.00,15.00,0.00,29.85,1004.90,10.00,22.00,CLR,M,M,M,M,M,M,M,M,M,M,M,26.00,290.00,2021-08-30 23:41,87.13,KRNO 302355Z 26015G22KT 10SM CLR 34/M06 A2985 RMK AO2 PK WND 29026/2341 SLP049 FU DSNT NW THRU NE AND SE THRU S HZ ALQDS 6//// T03391061 56016,M
HTH,2021-08-30 23:55,-118.6315,38.5448,1282.89,96.80,17.60,5.63,350.00,13.00,0.00,29.81,M,10.00,M,CLR,M,M,M,M,M,M,M,M,M,M,M,M,M,M,89.88,KHTH 302355Z AUTO 35013KT 10SM CLR 36/M08 A2981 RMK A01,M
BAM,2021-08-30 23:55,-116.8743,40.5990,1382.36,91.40,19.40,7.19,230.00,7.00,0.00,29.86,M,7.00,M,CLR,M,M,M,M,M,M,M,M,M,M,M,M,M,M,85.86,KBAM 302355Z AUTO 23007KT 7SM CLR 33/M07 A2986 RMK AO1,M
CXP,2021-08-30 23:55,-119.7326,39.1923,1431.00,91.40,17.60,6.66,280.00,19.00,0.00,29.89,M,10.00,28.00,CLR,M,M,M,M,M,M,M,M,M,M,M,M,M,M,85.76,KCXP 302355Z AUTO 28019G28KT 10SM CLR 33/M08 A2989 RMK AO2,M
BVU,2021-08-30 23:55,-114.8611,35.9475,671.00,104.00,44.60,13.54,220.00,7.00,0.00,29.69,M,10.00,18.00,CLR,M,M,M,M,M,M,M,M,M,M,M,M,M,M,99.82,KBVU 302355Z AUTO 22007G18KT 180V260 10SM CLR 40/07 A2969 RMK AO2 LTG DSNT E,M
MEV,2021-08-30 23:55,-119.7500,38.9963,1441.42,86.00,26.60,11.55,250.00,10.00,0.00,29.90,M,2.50,15.00,CLR,M,M,M,M,M,M,M,HZ,M,M,M,M,M,M,82.39,KMEV 302355Z AUTO 25010G15KT 2 1/2SM HZ CLR 30/M03 A2990 RMK AO2,M
RTS,2021-08-30 23:55,-119.8764,39.6682,1539.00,89.60,8.60,4.74,280.00,15.00,0.00,29.92,M,10.00,21.00,CLR,M,M,M,M,M,M,M,M,M,M,M,M,M,M,84.12,KRTS 302355Z AUTO 28015G21KT 10SM CLR 32/M13 A2992 RMK AO2,M
TMT,2021-08-30 23:55,-117.1971,39.4643,1749.34,88.50,18.00,7.42,210.00,6.00,0.00,29.96,M,10.00,M,CLR,M,M,M,M,M,M,M,M,M,M,M,M,M,M,83.67,KTMT 302355Z AUTO 21006KT 10SM CLR 31/M08 A2996 RMK AO2 T03141078 10326 20269,M
TPH,2021-08-30 23:56,-117.0904,38.0505,1654.00,92.00,19.90,7.24,260.00,7.00,0.00,29.93,1004.70,7.00,M,CLR,M,M,M,M,M,M,M,M,M,M,M,M,M,M,86.25,KTPH 302356Z AUTO 26007KT 230V300 7SM CLR 33/M07 A2993 RMK AO2 SLP047 T03331067 10344 20283 56020,M
WMC,2021-08-30 23:56,-117.8072,40.9019,1315.00,93.00,21.90,7.61,220.00,12.00,0.00,29.82,1004.80,8.00,15.00,CLR,M,M,M,M,M,M,M,M,M,M,M,M,M,M,87.19,KWMC 302356Z AUTO 22012G15KT 8SM CLR 34/M06 A2982 RMK AO2 SLP048 T03391056 10339 20289 56020 $,M
HND,2021-08-30 23:56,-115.1344,35.9729,742.79,96.00,52.00,22.69,210.00,15.00,0.00,29.74,1005.00,10.00,M,CLR,M,M,M,M,M,M,M,M,M,M,M,26.00,230.00,2021-08-30 23:27,93.44,KHND 302356Z 21015KT 10SM CLR 36/11 A2974 RMK AO2 PK WND 23026/2327 SLP050 T03560111 10383 20356 56014,M
LAS,2021-08-30 23:56,-115.1634,36.0719,663.00,97.00,49.00,19.67,200.00,14.00,0.00,29.70,1002.70,10.00,24.00,FEW,FEW,BKN,M,13000.00,17000.00,22000.00,M,M,M,M,M,M,M,M,93.69,KLAS 302356Z 20014G24KT 10SM FEW130 FEW170 BKN220 36/09 A2970 RMK AO2 SLP027 CB DSNT E-S T03610094 10378 20350 56015,M
NFL,2021-08-30 23:56,-118.7010,39.4166,1199.00,94.00,24.10,8.12,210.00,7.00,0.00,29.80,1006.90,1.50,M,OVC,M,M,M,3500.00,M,M,M,FU,M,M,M,M,M,M,88.03,KNFL 302356Z 21007KT 1 1/2SM FU OVC035 34/M04 A2980 RMK AO2 SLP069 FU OVC035 T03441044 10350 20272 56022,M
EKO,2021-08-30 23:56,-115.7860,40.8242,1367.00,89.00,19.00,7.60,270.00,13.00,0.00,29.88,1006.40,6.00,18.00,CLR,M,M,M,M,M,M,M,HZ,M,M,M,M,M,M,84.15,KEKO 302356Z AUTO 27013G18KT 6SM HZ CLR 32/M07 A2988 RMK AO2 SLP064 T03171072 10333 20239 56017,M
LSV,2021-08-30 23:58,-115.0343,36.2362,570.00,102.00,45.50,14.88,240.00,10.00,0.00,29.65,1001.10,10.00,M,CLR,M,M,M,M,M,M,M,M,M,M,M,M,M,M,98.05,KLSV 302358Z AUTO 24010KT 10SM CLR 39/08 A2965 RMK AO2 SLP011 T03890075 10389 20364 57020 $,M
INS,2021-08-30 23:59,-115.6733,36.5872,955.00,100.20,36.50,11.08,130.00,7.00,0.00,29.74,1000.00,M,M,CLR,M,M,M,M,M,M,M,M,M,M,M,M,M,M,94.74,KINS 302359Z 13007KT CLR 38/03 A2974 RMK AO2A SLP000 WND DATA ESTMD T03790025 10372 20216 403990208 57024 PWINO $,M
