station,valid,lon,lat,elevation,tmpf,dwpf,relh,drct,sknt,p01i,alti,mslp,vsby,gust,skyc1,skyc2,skyc3,skyc4,skyl1,skyl2,skyl3,skyl4,wxcodes,ice_accretion_1hr,ice_accretion_3hr,ice_accretion_6hr,peak_wind_gust,peak_wind_drct,peak_wind_time,feel,metar,snowdepth
LSV,2022-09-14 00:03,-115.0343,36.2362,570.00,87.80,57.20,35.53,120.00,14.00,0.00,29.72,1004.10,10.00,M,SCT,BKN,M,M,10000.00,13000.00,M,M,-RA,M,M,M,M,M,M,86.58,KLSV 140003Z AUTO 12014KT 10SM -RA SCT100 BKN130 31/14 A2972 RMK AO2 RAB03 SLP041 $,M
RNO,2022-09-14 00:04,-119.7711,39.4839,1341.00,78.00,39.00,24.56,280.00,16.00,0.00,29.86,M,3.00,M,SCT,M,M,M,2000.00,M,M,M,FU,M,M,M,M,M,M,78.10,KRNO 140004Z 28016KT 3SM FU SCT020 26/04 A2986 RMK AO2 FU SCT020 T02560039,M
RNO,2022-09-14 00:12,-119.7711,39.4839,1341.00,77.00,39.00,25.47,270.00,16.00,0.00,29.87,M,3.00,M,BKN,M,M,M,2000.00,M,M,M,FU,M,M,M,M,M,M,77.00,KRNO 140012Z 27016KT 3SM FU BKN020 25/04 A2987 RMK AO2 FU BKN020 T02500039,M
CXP,2022-09-14 00:15,-119.7326,39.1923,1431.00,77.00,39.20,25.67,270.00,7.00,0.00,29.91,M,10.00,16.00,CLR,M,M,M,M,M,M,M,M,M,M,M,M,M,M,77.00,KCXP 140015Z AUTO 27007G16KT 10SM CLR 25/04 A2991 RMK AO2,M
BVU,2022-09-14 00:15,-114.8611,35.9475,671.00,82.40,59.00,45.07,140.00,11.00,0.00,29.77,M,M,M,M,M,M,M,M,M,M,M,M,M,M,M,M,M,M,82.46,KBVU 140015Z AUTO 14011KT 28/15 A2977 RMK AO2 TSNO,M
MEV,2022-09-14 00:15,-119.7500,38.9963,1441.42,78.80,35.60,21.00,260.00,8.00,0.00,29.90,M,10.00,M,CLR,M,M,M,M,M,M,M,M,M,M,M,M,M,M,78.80,KMEV 140015Z AUTO 26008KT 10SM CLR 26/02 A2990 RMK AO2,M
RTS,2022-09-14 00:15,-119.8764,39.6682,1539.00,71.60,30.20,21.50,250.00,14.00,0.00,29.94,M,4.00,19.00,CLR,M,M,M,M,M,M,M,HZ,M,M,M,M,M,M,71.60,KRTS 140015Z AUTO 25014G19KT 4SM HZ CLR 22/M01 A2994 RMK AO2,M
BAM,2022-09-14 00:15,-116.8743,40.5990,1382.36,69.80,55.40,60.21,70.00,3.00,0.00,29.91,M,10.00,M,SCT,M,M,M,10000.00,M,M,M,M,M,M,M,M,M,M,69.80,KBAM 140015Z AUTO 07003KT 10SM SCT100 21/13 A2991 RMK AO1,M
HTH,2022-09-14 00:15,-118.6315,38.5448,1282.89,77.00,46.40,33.85,150.00,4.00,0.00,29.87,M,10.00,M,FEW,M,M,M,11000.00,M,M,M,M,M,M,M,M,M,M,77.00,KHTH 140015Z AUTO 15004KT 10SM FEW110 25/08 A2987 RMK A01,M
TMT,2022-09-14 00:15,-117.1971,39.4643,1749.34,M,M,M,270.00,4.00,0.00,29.99,M,10.00,M,SCT,BKN,M,M,9000.00,12000.00,M,M,VCTS,M,M,M,M,M,M,M,KTMT 140015Z AUTO 27004KT 10SM VCTS SCT090 BKN120 A2999 RMK AO2 LTG DSNT E THRU S,M
RNO,2022-09-14 00:20,-119.7711,39.4839,1341.00,76.00,39.00,26.42,280.00,16.00,0.00,29.87,M,2.50,23.00,BKN,M,M,M,2000.00,M,M,M,FU,M,M,M,M,M,M,75.90,KRNO 140020Z 28016G23KT 2 1/2SM FU BKN020 24/04 A2987 RMK AO2 FU BKN020 T02440039,M
LSV,2022-09-14 00:20,-115.0343,36.2362,570.00,86.00,59.00,40.14,110.00,14.00,0.00,29.72,1004.10,10.00,M,BKN,M,M,M,11000.00,M,M,M,M,M,M,M,M,M,M,85.47,KLSV 140020Z AUTO 11014KT 10SM BKN110 30/15 A2972 RMK AO2 RAB03E17DZB17E20 SLP041 $,M
INS,2022-09-14 00:21,-115.6733,36.5872,955.00,75.20,51.80,43.97,10.00,10.00,0.00,29.82,1005.70,10.00,M,BKN,BKN,M,M,9000.00,11000.00,M,M,M,M,M,M,M,M,M,75.20,KINS 140021Z AUTO 01010KT 10SM BKN090 BKN110 24/11 A2982 RMK AO2 SLP057 $,M
RTS,2022-09-14 00:35,-119.8764,39.6682,1539.00,69.80,28.40,21.24,250.00,14.00,0.00,29.95,M,6.00,M,CLR,M,M,M,M,M,M,M,HZ,M,M,M,M,M,M,69.80,KRTS 140035Z AUTO 25014KT 6SM HZ CLR 21/M02 A2995 RMK AO2,M
MEV,2022-09-14 00:35,-119.7500,38.9963,1441.42,77.00,35.60,22.28,240.00,15.00,0.00,29.90,M,10.00,M,CLR,M,M,M,M,M,M,M,M,M,M,M,M,M,M,77.00,KMEV 140035Z AUTO 24015KT 10SM CLR 25/02 A2990 RMK AO2 LTG DSNT E,M
TMT,2022-09-14 00:35,-117.1971,39.4643,1749.34,M,M,M,250.00,3.00,0.00,29.99,M,10.00,M,BKN,M,M,M,9000.00,M,M,M,-VCTSRA,M,M,M,M,M,M,M,KTMT 140035Z AUTO 25003KT 10SM -VCTSRA BKN090 A2999 RMK AO2 LTG DSNT SE AND S,M
HTH,2022-09-14 00:35,-118.6315,38.5448,1282.89,77.00,48.20,36.22,160.00,6.00,0.00,29.86,M,10.00,M,FEW,SCT,M,M,10000.00,12000.00,M,M,M,M,M,M,M,M,M,77.00,KHTH 140035Z AUTO 16006KT 10SM FEW100 SCT120 25/09 A2986 RMK A01,M
BAM,2022-09-14 00:35,-116.8743,40.5990,1382.36,69.80,55.40,60.21,110.00,3.00,0.00,29.90,M,10.00,M,SCT,M,M,M,10000.00,M,M,M,M,M,M,M,M,M,M,69.80,KBAM 140035Z AUTO 11003KT 10SM SCT100 21/13 A2990 RMK AO1,M
BVU,2022-09-14 00:35,-114.8611,35.9475,671.00,82.40,59.00,45.07,150.00,15.00,0.00,29.77,M,M,M,M,M,M,M,M,M,M,M,M,M,M,M,M,M,M,82.46,KBVU 140035Z AUTO 15015KT 28/15 A2977 RMK AO2 TSNO,M
CXP,2022-09-14 00:35,-119.7326,39.1923,1431.00,77.00,39.20,25.67,280.00,13.00,0.00,29.91,M,10.00,M,CLR,M,M,M,M,M,M,M,M,M,M,M,M,M,M,77.00,KCXP 140035Z AUTO 28013KT 10SM CLR 25/04 A2991 RMK AO2 LTG DSNT E,M
ELY,2022-09-14 00:51,-114.8453,39.2950,1909.00,53.60,46.40,76.50,330.00,19.00,T,30.04,M,8.00,37.00,FEW,SCT,OVC,M,4000.00,4700.00,6000.00,M,-TSRA,M,M,M,37.00,320.00,2022-09-14 00:45,53.60,KELY 140051Z AUTO 33019G37KT 8SM -TSRA FEW040 SCT047 OVC060 12/08 A3004 RMK AO2 PK WND 32037/0045 LTG DSNT SW AND W RAB42 TSB45 P0000,M
TPH,2022-09-14 00:52,-117.0904,38.0505,1654.00,68.00,53.60,59.97,310.00,17.00,0.00,29.98,M,10.00,26.00,SCT,M,M,M,9000.00,M,M,M,VCTS,M,M,M,26.00,290.00,2022-09-14 00:50,68.00,KTPH 140052Z AUTO 31017G26KT 10SM VCTS SCT090 20/12 A2998 RMK AO2 PK WND 29026/0050 WSHFT 0038 LTG DSNT W-NE PRESRR,M
P68,2022-09-14 00:53,-116.0056,39.6014,1993.00,57.00,50.00,77.38,210.00,3.00,0.00,29.98,1009.40,M,M,M,M,M,M,M,M,M,M,M,M,M,M,M,M,M,57.00,KP68 140053Z AUTO 21003KT 14/10 A2998 RMK AO1 SLP094 T01390100,M
DRA,2022-09-14 00:53,-116.0278,36.6206,1009.00,82.00,54.00,38.11,240.00,9.00,0.00,29.82,1005.50,10.00,M,CLR,M,M,M,M,M,M,M,M,M,M,M,M,M,M,81.24,KDRA 140053Z AUTO 24009KT 10SM CLR 28/12 A2982 RMK AO2 SLP055 T02780122,M
VGT,2022-09-14 00:53,-115.1933,36.2111,667.00,87.00,55.00,33.55,120.00,13.00,T,29.74,1006.20,10.00,M,OVC,M,M,M,8500.00,M,M,M,M,M,M,M,M,M,M,85.40,KVGT 140053Z 12013KT 10SM OVC085 31/13 A2974 RMK AO2 LTG DSNT N RAE07 SLP062 P0000 T03060128,M
LOL,2022-09-14 00:53,-118.5701,40.0684,1192.43,79.00,50.00,36.27,0.00,0.00,0.00,29.81,1005.40,10.00,M,CLR,M,M,M,M,M,M,M,M,M,M,M,M,M,M,79.00,KLOL 140053Z AUTO 00000KT 10SM CLR 26/10 A2981 RMK AO2 SLP054 T02610100 $,M
ELY,2022-09-14 00:53,-114.8453,39.2950,1909.00,53.00,47.00,79.40,340.00,15.00,T,30.04,1010.60,6.00,37.00,FEW,SCT,OVC,M,4000.00,4700.00,6000.00,M,TSRA,M,M,M,37.00,320.00,2022-09-14 00:45,53.10,KELY 140053Z AUTO 34015G37KT 6SM TSRA FEW040 SCT047 OVC060 12/08 A3004 RMK AO2 PK WND 32037/0045 LTG DSNT SW AND W RAB42 TSB45 SLP106 P0000 T01170083,M
CXP,2022-09-14 00:55,-119.7326,39.1923,1431.00,75.20,39.20,27.26,250.00,10.00,0.00,29.91,M,10.00,M,CLR,M,M,M,M,M,M,M,M,M,M,M,M,M,M,75.20,KCXP 140055Z AUTO 25010KT 10SM CLR 24/04 A2991 RMK AO2,M
RTS,2022-09-14 00:55,-119.8764,39.6682,1539.00,69.80,30.20,22.86,250.00,14.00,0.00,29.94,M,5.00,20.00,CLR,M,M,M,M,M,M,M,HZ,M,M,M,M,M,M,69.80,KRTS 140055Z AUTO 25014G20KT 5SM HZ CLR 21/M01 A2994 RMK AO2,M
MEV,2022-09-14 00:55,-119.7500,38.9963,1441.42,75.20,35.60,23.66,250.00,10.00,0.00,29.90,M,10.00,17.00,CLR,M,M,M,M,M,M,M,M,M,M,M,M,M,M,75.20,KMEV 140055Z AUTO 25010G17KT 10SM CLR 24/02 A2990 RMK AO2,M
BAM,2022-09-14 00:55,-116.8743,40.5990,1382.36,69.80,53.60,56.38,0.00,0.00,0.00,29.90,M,10.00,M,CLR,M,M,M,M,M,M,M,M,M,M,M,M,M,M,69.80,KBAM 140055Z AUTO 00000KT 10SM CLR 21/12 A2990 RMK AO1,M
HTH,2022-09-14 00:55,-118.6315,38.5448,1282.89,77.00,46.40,33.85,180.00,5.00,0.00,29.86,M,10.00,M,FEW,BKN,BKN,M,7000.00,10000.00,12000.00,M,M,M,M,M,M,M,M,77.00,KHTH 140055Z AUTO 18005KT 10SM FEW070 BKN100 BKN120 25/08 A2986 RMK A01,M
BVU,2022-09-14 00:55,-114.8611,35.9475,671.00,82.40,59.00,45.07,150.00,13.00,0.00,29.77,M,M,M,M,M,M,M,M,M,M,M,M,M,M,M,M,M,M,82.46,KBVU 140055Z AUTO 15013KT 28/15 A2977 RMK AO2 TSNO,M
TMT,2022-09-14 00:55,-117.1971,39.4643,1749.34,M,M,M,220.00,3.00,0.00,29.99,M,10.00,M,BKN,M,M,M,8000.00,M,M,M,-RA,M,M,M,M,M,M,M,KTMT 140055Z AUTO 22003KT 10SM -RA BKN080 A2999 RMK AO2 LTG DSNT E THRU S,M
RNO,2022-09-14 00:55,-119.7711,39.4839,1341.00,74.00,39.00,28.25,280.00,15.00,0.00,29.87,1006.60,2.50,23.00,BKN,BKN,M,M,2000.00,7000.00,M,M,FU,M,M,M,M,M,M,73.90,KRNO 140055Z 28015G23KT 2 1/2SM FU BKN020 BKN070 23/04 A2987 RMK AO2 SLP066 FU BKN020 T02330039,M
WMC,2022-09-14 00:56,-117.8072,40.9019,1315.00,74.00,53.00,48.18,130.00,5.00,0.00,29.86,1006.50,10.00,M,CLR,M,M,M,M,M,M,M,M,M,M,M,M,M,M,73.90,KWMC 140056Z AUTO 13005KT 10SM CLR 23/12 A2986 RMK AO2 SLP065 T02330117,M
LAS,2022-09-14 00:56,-115.1634,36.0719,663.00,88.00,53.00,30.41,200.00,9.00,0.00,29.75,1004.90,10.00,15.00,SCT,BKN,BKN,M,8000.00,12000.00,22000.00,M,M,M,M,M,M,M,M,85.80,KLAS 140056Z 20009G15KT 10SM SCT080 BKN120TCU BKN220 31/12 A2975 RMK AO2 LTG DSNT NW SLP049 TCU ALQDS CB DSNT NW T03110117,M
EKO,2022-09-14 00:56,-115.7860,40.8242,1367.00,66.00,51.00,58.62,220.00,5.00,0.00,29.92,1009.00,10.00,M,CLR,M,M,M,M,M,M,M,M,M,M,M,M,M,M,66.00,KEKO 140056Z AUTO 22005KT 10SM CLR 19/11 A2992 RMK AO2 SLP090 T01890106,M
NFL,2022-09-14 00:56,-118.7010,39.4166,1199.00,83.00,37.00,19.41,250.00,7.00,0.00,29.81,1007.10,10.00,M,BKN,BKN,BKN,M,8000.00,12000.00,25000.00,M,M,M,M,M,M,M,M,80.46,KNFL 140056Z 25007KT 10SM BKN080 BKN120 BKN250 28/03 A2981 RMK AO2 SLP071 CB DSNT E-SE FU VC ALQDS T02830028,M
LSV,2022-09-14 00:56,-115.0343,36.2362,570.00,86.40,57.00,36.88,110.00,11.00,T,29.72,1004.10,10.00,M,SCT,BKN,M,M,12000.00,16000.00,M,M,M,M,M,M,M,M,M,85.27,KLSV 140056Z AUTO 11011KT 10SM SCT120 BKN160 30/14 A2972 RMK AO2 LTG DSNT SW RAB03E17DZB17E20 SLP041 P0000 T03020139 $,M
HND,2022-09-14 00:56,-115.1344,35.9729,742.79,87.00,54.00,32.34,220.00,9.00,0.00,29.79,1007.50,10.00,M,CLR,M,M,M,M,M,M,M,M,M,M,M,M,M,M,85.19,KHND 140056Z 22009KT 10SM CLR 31/12 A2979 RMK AO2 SLP075 T03060122,M
TPH,2022-09-14 00:56,-117.0904,38.0505,1654.00,64.00,52.00,64.97,310.00,20.00,0.00,29.98,1009.80,10.00,34.00,FEW,BKN,M,M,4300.00,9000.00,M,M,VCTS,M,M,M,34.00,320.00,2022-09-14 00:56,64.00,KTPH 140056Z AUTO 31020G34KT 10SM VCTS FEW043 BKN090 18/11 A2998 RMK AO2 PK WND 32034/0056 WSHFT 0038 LTG DSNT W-NE PRESRR SLP098 T01780111,M
INS,2022-09-14 00:56,-115.6733,36.5872,955.00,75.00,54.00,47.99,340.00,6.00,0.00,29.83,1006.10,10.00,M,BKN,OVC,M,M,8000.00,9500.00,M,M,M,M,M,M,M,M,M,75.00,KINS 140056Z AUTO 34006KT 10SM BKN080 OVC095 24/12 A2983 RMK AO2 SLP061 T02390122 $,M
TPH,2022-09-14 01:03,-117.0904,38.0505,1654.00,63.00,46.00,53.78,320.00,25.00,0.00,29.98,M,10.00,47.00,FEW,SCT,BKN,M,4300.00,9000.00,11000.00,M,VCTS,M,M,M,47.00,320.00,2022-09-14 00:57,63.00,KTPH 140103Z AUTO 32025G47KT 10SM VCTS FEW043 SCT090 BKN110 17/08 A2998 RMK AO2 PK WND 32047/0057 WSHFT 0043 LTG DSNT W-NE T01720078,M
LSV,2022-09-14 01:05,-115.0343,36.2362,570.00,86.00,59.00,40.14,120.00,11.00,0.00,29.73,1004.40,10.00,M,FEW,BKN,M,M,9000.00,12000.00,M,M,-RA,M,M,M,M,M,M,85.47,KLSV 140105Z AUTO 12011KT 10SM -RA FEW090 BKN120 30/15 A2973 RMK AO2 RAB05 SLP044 $,M
ELY,2022-09-14 01:15,-114.8453,39.2950,1909.00,53.00,49.00,85.59,80.00,4.00,0.02,30.05,M,8.00,20.00,OVC,M,M,M,6500.00,M,M,M,VCTS -RA,M,M,M,M,M,M,53.10,KELY 140115Z AUTO 08004G20KT 8SM VCTS -RA OVC065 12/09 A3005 RMK AO2 LTG DSNT SW TSE09 P0002 T01170094 $,M
BVU,2022-09-14 01:15,-114.8611,35.9475,671.00,82.40,59.00,45.07,150.00,13.00,0.00,29.77,M,M,M,M,M,M,M,M,M,M,M,M,M,M,M,M,M,M,82.46,KBVU 140115Z AUTO 15013KT 28/15 A2977 RMK AO2 TSNO,M
CXP,2022-09-14 01:15,-119.7326,39.1923,1431.00,75.20,39.20,27.26,260.00,10.00,0.00,29.92,M,10.00,15.00,CLR,M,M,M,M,M,M,M,M,M,M,M,M,M,M,75.20,KCXP 140115Z AUTO 26010G15KT 10SM CLR 24/04 A2992 RMK AO2,M
RTS,2022-09-14 01:15,-119.8764,39.6682,1539.00,68.00,28.40,22.59,250.00,12.00,0.00,29.95,M,4.00,M,FEW,M,M,M,5500.00,M,M,M,HZ,M,M,M,M,M,M,68.00,KRTS 140115Z AUTO 25012KT 4SM HZ FEW055 20/M02 A2995 RMK AO2,M
MEV,2022-09-14 01:15,-119.7500,38.9963,1441.42,75.20,37.40,25.40,280.00,9.00,0.00,29.90,M,10.00,M,CLR,M,M,M,M,M,M,M,M,M,M,M,M,M,M,75.20,KMEV 140115Z AUTO 28009KT 10SM CLR 24/03 A2990 RMK AO2,M
BAM,2022-09-14 01:15,-116.8743,40.5990,1382.36,69.80,55.40,60.21,0.00,0.00,0.00,29.90,M,10.00,M,CLR,M,M,M,M,M,M,M,M,M,M,M,M,M,M,69.80,KBAM 140115Z AUTO 00000KT 10SM CLR 21/13 A2990 RMK AO1,M
HTH,2022-09-14 01:15,-118.6315,38.5448,1282.89,77.00,46.40,33.85,170.00,5.00,0.00,29.86,M,10.00,M,BKN,M,M,M,10000.00,M,M,M,M,M,M,M,M,M,M,77.00,KHTH 140115Z AUTO 17005KT 10SM BKN100 25/08 A2986 RMK A01,M
TMT,2022-09-14 01:15,-117.1971,39.4643,1749.34,59.40,55.00,85.33,0.00,0.00,0.00,29.99,M,10.00,M,SCT,OVC,M,M,7000.00,8000.00,M,M,DZ,M,M,M,M,M,M,59.40,KTMT 140115Z AUTO 00000KT 10SM DZ SCT070 OVC080 15/13 A2999 RMK AO2 LTG DSNT ALQS T01520128,M
LAS,2022-09-14 01:20,-115.1634,36.0719,663.00,88.00,53.00,30.41,210.00,6.00,0.00,29.76,M,10.00,M,SCT,BKN,BKN,M,8000.00,12000.00,22000.00,M,TS,M,M,M,M,M,M,85.80,KLAS 140120Z 21006KT 10SM TS SCT080 BKN120CB BKN220 31/12 A2976 RMK AO2 TSB20 OCNL LTGICCG N-NE TS N-NE MOV NE CB DSNT W-NW T03110117,M
ELY,2022-09-14 01:22,-114.8453,39.2950,1909.00,53.00,49.00,81.87,0.00,0.00,0.02,30.05,M,10.00,M,OVC,M,M,M,6500.00,M,M,M,-RA,M,M,M,M,M,M,53.60,KELY 140122Z AUTO 00000KT 10SM -RA OVC065 12/09 A3005 RMK AO2 LTG DSNT SW TSE09 P0002 T01170094 $,M
VGT,2022-09-14 01:23,-115.1933,36.2111,667.00,87.00,56.00,34.66,120.00,9.00,0.00,29.75,M,10.00,M,OVC,M,M,M,8500.00,M,M,M,VCTS,M,M,M,M,M,M,85.61,KVGT 140123Z 12009KT 10SM VCTS OVC085 31/13 A2975 RMK AO2 T03060133,M
INS,2022-09-14 01:24,-115.6733,36.5872,955.00,75.20,55.40,50.17,30.00,14.00,0.00,29.84,1006.40,10.00,M,OVC,M,M,M,7000.00,M,M,M,TS,M,M,M,M,M,M,75.20,KINS 140124Z AUTO 03014KT 10SM TS OVC070 24/13 A2984 RMK AO2 TSB24 SLP064 $,M
LSV,2022-09-14 01:28,-115.0343,36.2362,570.00,82.40,64.40,54.55,120.00,8.00,0.00,29.74,1004.90,10.00,M,SCT,BKN,M,M,9000.00,12000.00,M,M,-TSRA,M,M,M,M,M,M,83.98,KLSV 140128Z AUTO 12008KT 10SM -TSRA SCT090 BKN120 28/18 A2974 RMK AO2 RAB05 TSB28 SLP049 $,M
INS,2022-09-14 01:28,-115.6733,36.5872,955.00,73.40,55.40,53.29,360.00,10.00,0.00,29.84,1006.60,10.00,M,OVC,M,M,M,7000.00,M,M,M,TS,M,M,M,M,M,M,73.40,KINS 140128Z AUTO 36010KT 10SM TS OVC070 23/13 A2984 RMK AO2 WSHFT 22 TSB24 SLP066 $,M
HTH,2022-09-14 01:35,-118.6315,38.5448,1282.89,77.00,46.40,33.85,150.00,4.00,0.00,29.87,M,10.00,M,OVC,M,M,M,10000.00,M,M,M,M,M,M,M,M,M,M,77.00,KHTH 140135Z AUTO 15004KT 10SM OVC100 25/08 A2987 RMK A01,M
TMT,2022-09-14 01:35,-117.1971,39.4643,1749.34,M,M,M,180.00,5.00,0.01,29.97,M,10.00,M,SCT,SCT,OVC,M,3300.00,4400.00,9000.00,M,-VCTSRA,M,M,M,M,M,M,M,KTMT 140135Z AUTO 18005KT 10SM -VCTSRA SCT033 SCT044 OVC090 A2997 RMK AO2 LTG DSNT SE THRU W P0001,M
BAM,2022-09-14 01:35,-116.8743,40.5990,1382.36,68.00,55.40,64.04,50.00,6.00,0.00,29.91,M,10.00,M,SCT,M,M,M,12000.00,M,M,M,M,M,M,M,M,M,M,68.00,KBAM 140135Z AUTO 05006KT 10SM SCT120 20/13 A2991 RMK AO1,M
MEV,2022-09-14 01:35,-119.7500,38.9963,1441.42,73.40,37.40,26.98,270.00,6.00,0.00,29.90,M,10.00,M,CLR,M,M,M,M,M,M,M,M,M,M,M,M,M,M,73.40,KMEV 140135Z AUTO 27006KT 10SM CLR 23/03 A2990 RMK AO2,M
RTS,2022-09-14 01:35,-119.8764,39.6682,1539.00,68.00,28.40,22.59,260.00,8.00,0.00,29.95,M,5.00,16.00,FEW,M,M,M,5500.00,M,M,M,HZ,M,M,M,M,M,M,68.00,KRTS 140135Z AUTO 26008G16KT 5SM HZ FEW055 20/M02 A2995 RMK AO2,M
CXP,2022-09-14 01:35,-119.7326,39.1923,1431.00,73.40,39.20,28.96,280.00,8.00,0.00,29.92,M,10.00,M,CLR,M,M,M,M,M,M,M,M,M,M,M,M,M,M,73.40,KCXP 140135Z AUTO 28008KT 10SM CLR 23/04 A2992 RMK AO2,M
BVU,2022-09-14 01:35,-114.8611,35.9475,671.00,82.40,59.00,45.07,150.00,11.00,0.00,29.77,M,M,M,M,M,M,M,M,M,M,M,M,M,M,M,M,M,M,82.46,KBVU 140135Z AUTO 15011KT 28/15 A2977 RMK AO2 TSNO,M
INS,2022-09-14 01:39,-115.6733,36.5872,955.00,73.40,55.40,53.29,360.00,11.00,0.00,29.83,1006.20,10.00,M,BKN,OVC,M,M,7000.00,9500.00,M,M,VCTS,M,M,M,M,M,M,73.40,KINS 140139Z AUTO 36011KT 10SM VCTS BKN070 OVC095 23/13 A2983 RMK AO2 TSB24E39 SLP062 $,M
TPH,2022-09-14 01:41,-117.0904,38.0505,1654.00,59.00,52.00,77.55,290.00,12.00,T,29.97,M,10.00,M,FEW,OVC,M,M,7000.00,9000.00,M,M,-RA,M,M,M,47.00,320.00,2022-09-14 00:57,59.00,KTPH 140141Z AUTO 29012KT 10SM -RA FEW070 OVC090 15/11 A2997 RMK AO2 PK WND 32047/0057 WSHFT 0043 LTG DSNT N AND NE AND SW RAB19 P0000 T01500111,M
LSV,2022-09-14 01:43,-115.0343,36.2362,570.00,80.60,60.80,50.95,50.00,7.00,0.00,29.74,1005.00,6.00,M,SCT,SCT,BKN,M,4800.00,6000.00,9000.00,M,+RA,M,M,M,M,M,M,81.46,KLSV 140143Z AUTO 05007KT 6SM +RA SCT048 SCT060 BKN090 27/16 A2974 RMK AO2 LTG DSNT NE RAB05 TSB28E43 SLP050 $,M
INS,2022-09-14 01:44,-115.6733,36.5872,955.00,73.40,55.40,53.29,360.00,9.00,0.00,29.84,1006.60,10.00,M,SCT,OVC,M,M,7000.00,10000.00,M,M,VCTS,M,M,M,M,M,M,73.40,KINS 140144Z AUTO 36009KT 10SM VCTS SCT070 OVC100 23/13 A2984 RMK AO2 TSB24E39 SLP066 $,M
LSV,2022-09-14 01:46,-115.0343,36.2362,570.00,80.60,59.00,47.79,50.00,10.00,0.00,29.74,1005.00,3.00,18.00,SCT,BKN,BKN,M,4300.00,6000.00,9000.00,M,+RA,M,M,M,M,M,M,81.11,KLSV 140146Z AUTO 05010G18KT 3SM +RA SCT043 BKN060 BKN090 27/15 A2974 RMK AO2 LTG DSNT NE RAB05 TSB28E43 SLP050 $,M
LSV,2022-09-14 01:47,-115.0343,36.2362,570.00,78.80,59.00,50.69,40.00,8.00,0.00,29.74,1005.00,2.50,18.00,SCT,BKN,BKN,M,4300.00,6000.00,9000.00,M,+RA,M,M,M,M,M,M,78.80,KLSV 140147Z AUTO 04008G18KT 2 1/2SM +RA SCT043 BKN060 BKN090 26/15 A2974 RMK AO2 VIS 2 1/2V8 LTG DSNT NE RAB05 TSB28E43 SLP050 $,M
LSV,2022-09-14 01:48,-115.0343,36.2362,570.00,78.80,59.00,50.69,30.00,7.00,0.00,29.74,1005.00,2.25,18.00,SCT,BKN,BKN,M,4300.00,6000.00,9000.00,M,+RA,M,M,M,M,M,M,78.80,KLSV 140148Z AUTO 03007G18KT 2 1/4SM +RA SCT043 BKN060 BKN090 26/15 A2974 RMK AO2 VIS 2 1/4V8 LTG DSNT NE RAB05 TSB28E43 SLP050 $,M
LSV,2022-09-14 01:49,-115.0343,36.2362,570.00,78.80,57.20,47.52,30.00,8.00,0.00,29.74,1005.00,2.25,18.00,BKN,BKN,BKN,M,4100.00,6000.00,9000.00,M,+TSRA,M,M,M,M,M,M,78.80,KLSV 140149Z AUTO 03008G18KT 2 1/4SM +TSRA BKN041 BKN060 BKN090 26/14 A2974 RMK AO2 VIS 2 1/4V7 RAB05 TSB28E43TSB49 SLP050 $,M
INS,2022-09-14 01:49,-115.6733,36.5872,955.00,73.40,57.20,56.88,360.00,13.00,0.00,29.84,1006.60,10.00,M,SCT,OVC,M,M,7000.00,10000.00,M,M,VCTS,M,M,M,M,M,M,73.40,KINS 140149Z AUTO 36013KT 10SM VCTS SCT070 OVC100 23/14 A2984 RMK AO2 TSB24E39 SLP066 $,M
VGT,2022-09-14 01:50,-115.1933,36.2111,667.00,86.00,57.20,37.62,90.00,10.00,0.00,29.75,M,10.00,M,BKN,M,M,M,8500.00,M,M,M,M,M,M,M,M,M,M,84.97,KVGT 140150Z 09010KT 10SM BKN085 30/14 A2975 RMK AO2,M
LSV,2022-09-14 01:51,-115.0343,36.2362,570.00,77.00,57.20,50.43,30.00,11.00,0.00,29.74,1005.10,2.50,18.00,BKN,BKN,BKN,M,4100.00,6000.00,9000.00,M,+TSRA,M,M,M,M,M,M,77.00,KLSV 140151Z AUTO 03011G18KT 2 1/2SM +TSRA BKN041 BKN060 BKN090 25/14 A2974 RMK AO2 VIS 2 1/4V7 RAB05 TSB28E43TSB49 SLP051 $,M
LSV,2022-09-14 01:53,-115.0343,36.2362,570.00,77.00,57.20,50.43,20.00,11.00,0.00,29.73,1004.70,3.00,18.00,BKN,BKN,BKN,M,4100.00,6000.00,9000.00,M,+TSRA,M,M,M,M,M,M,77.00,KLSV 140153Z AUTO 02011G18KT 3SM +TSRA BKN041 BKN060 BKN090 25/14 A2973 RMK AO2 RAB05 TSB28E43TSB49 SLP047 $,M
LOL,2022-09-14 01:53,-118.5701,40.0684,1192.43,76.00,56.00,49.91,0.00,0.00,0.00,29.82,1005.80,10.00,M,CLR,M,M,M,M,M,M,M,M,M,M,M,M,M,M,75.90,KLOL 140153Z AUTO 00000KT 10SM CLR 24/13 A2982 RMK AO2 SLP058 T02440133 $,M
ELY,2022-09-14 01:53,-114.8453,39.2950,1909.00,53.00,50.00,89.18,210.00,7.00,0.02,30.04,1010.80,9.00,M,SCT,OVC,M,M,6000.00,7500.00,M,M,-RA,M,M,M,M,M,M,53.10,KELY 140153Z AUTO 21007KT 9SM -RA SCT060 OVC075 12/10 A3004 RMK AO2 LTG DSNT SE AND S RAE25B48 TSE09 SLP108 P0002 T01170100 $,M
VGT,2022-09-14 01:53,-115.1933,36.2111,667.00,86.00,57.00,37.35,70.00,10.00,0.00,29.75,1006.60,10.00,M,BKN,M,M,M,8500.00,M,M,M,VCTS,M,M,M,M,M,M,84.92,KVGT 140153Z 07010KT 10SM VCTS BKN085 30/14 A2975 RMK AO2 SLP066 T03000139,M
P68,2022-09-14 01:53,-116.0056,39.6014,1993.00,58.00,51.00,78.03,0.00,0.00,0.00,29.99,1009.70,M,M,M,M,M,M,M,M,M,M,M,M,M,M,M,M,M,57.90,KP68 140153Z AUTO 00000KT 14/11 A2999 RMK AO1 SLP097 T01440106,M
DRA,2022-09-14 01:53,-116.0278,36.6206,1009.00,79.00,55.00,43.59,270.00,10.00,T,29.83,1005.80,10.00,M,BKN,M,M,M,10000.00,M,M,M,-RA,M,M,M,M,M,M,79.00,KDRA 140153Z AUTO 27010KT 10SM -RA BKN100 26/13 A2983 RMK AO2 RAB53 SLP058 P0000 T02610128,M
LSV,2022-09-14 01:54,-115.0343,36.2362,570.00,77.00,57.20,50.43,20.00,12.00,0.00,29.73,1004.70,4.00,15.00,BKN,BKN,BKN,M,4100.00,6000.00,9000.00,M,+TSRA,M,M,M,M,M,M,77.00,KLSV 140154Z AUTO 02012G15KT 4SM +TSRA BKN041 BKN060 BKN090 25/14 A2973 RMK AO2 RAB05 TSB28E43TSB49 SLP047 $,M
RNO,2022-09-14 01:55,-119.7711,39.4839,1341.00,73.00,38.00,27.89,280.00,11.00,0.00,29.88,1007.00,2.00,M,BKN,M,M,M,1700.00,M,M,M,FU,M,M,M,M,M,M,73.00,KRNO 140155Z 28011KT 2SM FU BKN017 23/03 A2988 RMK AO2 SLP070 FU BKN017 T02280033,M
BVU,2022-09-14 01:55,-114.8611,35.9475,671.00,82.40,57.20,42.25,150.00,9.00,0.00,29.77,M,M,M,M,M,M,M,M,M,M,M,M,M,M,M,M,M,M,82.08,KBVU 140155Z AUTO 15009KT 28/14 A2977 RMK AO2 TSNO,M
CXP,2022-09-14 01:55,-119.7326,39.1923,1431.00,71.60,41.00,33.00,270.00,8.00,0.00,29.92,M,10.00,M,CLR,M,M,M,M,M,M,M,M,M,M,M,M,M,M,71.60,KCXP 140155Z AUTO 27008KT 10SM CLR 22/05 A2992 RMK AO2 LTG DSNT E,M
RTS,2022-09-14 01:55,-119.8764,39.6682,1539.00,66.20,30.20,25.88,250.00,6.00,0.00,29.95,M,4.00,M,FEW,M,M,M,6000.00,M,M,M,HZ,M,M,M,M,M,M,66.20,KRTS 140155Z AUTO 25006KT 4SM HZ FEW060 19/M01 A2995 RMK AO2,M
MEV,2022-09-14 01:55,-119.7500,38.9963,1441.42,69.80,37.40,30.49,260.00,10.00,0.00,29.90,M,10.00,M,CLR,M,M,M,M,M,M,M,M,M,M,M,M,M,M,69.80,KMEV 140155Z AUTO 26010KT 10SM CLR 21/03 A2990 RMK AO2,M
BAM,2022-09-14 01:55,-116.8743,40.5990,1382.36,68.00,55.40,64.04,60.00,5.00,0.00,29.92,M,10.00,M,BKN,M,M,M,12000.00,M,M,M,M,M,M,M,M,M,M,68.00,KBAM 140155Z AUTO 06005KT 10SM BKN120 20/13 A2992 RMK AO1,M
HTH,2022-09-14 01:55,-118.6315,38.5448,1282.89,75.20,46.40,35.94,190.00,4.00,0.00,29.86,M,10.00,M,BKN,OVC,M,M,9500.00,11000.00,M,M,M,M,M,M,M,M,M,75.20,KHTH 140155Z AUTO 19004KT 10SM BKN095 OVC110 24/08 A2986 RMK A01,M
TMT,2022-09-14 01:55,-117.1971,39.4643,1749.34,M,M,M,0.00,0.00,0.01,29.99,M,10.00,M,SCT,OVC,M,M,4400.00,9000.00,M,M,-VCTSDZ,M,M,M,M,M,M,M,KTMT 140155Z AUTO 00000KT 10SM -VCTSDZ SCT044 OVC090 A2999 RMK AO2 LTG DSNT SE THRU SW P0001,M
EKO,2022-09-14 01:56,-115.7860,40.8242,1367.00,64.00,50.00,60.34,180.00,6.00,0.00,29.93,1009.60,10.00,M,SCT,M,M,M,10000.00,M,M,M,M,M,M,M,M,M,M,64.00,KEKO 140156Z AUTO 18006KT 10SM SCT100 18/10 A2993 RMK AO2 LTG DSNT NW SLP096 T01780100,M
LAS,2022-09-14 01:56,-115.1634,36.0719,663.00,87.00,53.00,31.30,240.00,9.00,0.00,29.76,1005.10,10.00,M,SCT,BKN,BKN,M,8000.00,12000.00,22000.00,M,TS,M,M,M,M,M,M,85.01,KLAS 140156Z 24009KT 10SM TS SCT080 BKN120CB BKN220 31/12 A2976 RMK AO2 LTG DSNT NE TSB20 SLP051 OCNL LTGICCG NE-SE TS NE-SE MOV NE CB DSNT W-NW T03060117,M
TPH,2022-09-14 01:56,-117.0904,38.0505,1654.00,60.00,53.00,77.65,300.00,6.00,T,29.97,1009.90,10.00,M,OVC,M,M,M,9000.00,M,M,M,-RA,M,M,M,47.00,320.00,2022-09-14 00:57,60.10,KTPH 140156Z AUTO 30006KT 10SM -RA OVC090 16/12 A2997 RMK AO2 PK WND 32047/0057 WSHFT 0043 LTG DSNT NE AND SW RAB19 SLP099 P0000 T01560117,M
HND,2022-09-14 01:56,-115.1344,35.9729,742.79,86.00,54.00,33.50,230.00,12.00,0.00,29.79,1007.70,10.00,M,CLR,M,M,M,M,M,M,M,M,M,M,M,M,M,M,84.26,KHND 140156Z 23012KT 10SM CLR 30/12 A2979 RMK AO2 LTG DSNT N SLP077 T03000122,M
LSV,2022-09-14 01:56,-115.0343,36.2362,570.00,75.20,58.80,56.71,30.00,11.00,0.33,29.73,1004.70,6.00,M,BKN,BKN,BKN,BKN,4100.00,6000.00,9000.00,11000.00,-TSRA,M,M,M,M,M,M,75.20,KLSV 140156Z AUTO 03011KT 6SM -TSRA BKN041 BKN060 BKN090 BKN110 24/15 A2973 RMK AO2 RAB05 TSB28E43TSB49 SLP047 P0033 T02400149 $,M
WMC,2022-09-14 01:56,-117.8072,40.9019,1315.00,70.00,52.00,52.80,100.00,4.00,0.00,29.85,1006.60,10.00,M,CLR,M,M,M,M,M,M,M,M,M,M,M,M,M,M,70.00,KWMC 140156Z AUTO 10004KT 10SM CLR 21/11 A2985 RMK AO2 SLP066 T02110111,M
INS,2022-09-14 01:56,-115.6733,36.5872,955.00,71.80,55.80,57.07,360.00,10.00,0.00,29.84,1006.60,10.00,M,FEW,OVC,M,M,7000.00,10000.00,M,M,VCTS,M,M,M,M,M,M,71.80,KINS 140156Z AUTO 36010KT 10SM VCTS FEW070 OVC100 22/13 A2984 RMK AO2 TSB24E39 SLP066 T02210132 $,M
NFL,2022-09-14 01:56,-118.7010,39.4166,1199.00,80.00,38.00,22.03,290.00,5.00,0.00,29.81,1007.30,10.00,M,BKN,BKN,BKN,M,8000.00,12000.00,25000.00,M,M,M,M,M,M,M,M,78.85,KNFL 140156Z 29005KT 10SM BKN080 BKN120 BKN250 27/03 A2981 RMK AO2 SLP073 CB DSNT N AND SE T02670033,M
LSV,2022-09-14 01:57,-115.0343,36.2362,570.00,75.20,59.00,57.12,40.00,12.00,0.00,29.73,1004.70,6.00,M,SCT,SCT,BKN,BKN,4100.00,6000.00,9000.00,11000.00,-TSRA,M,M,M,M,M,M,75.20,KLSV 140157Z AUTO 04012KT 6SM -TSRA SCT041 SCT060 BKN090 BKN110 24/15 A2973 RMK AO2 SLP047 $,M
LSV,2022-09-14 02:00,-115.0343,36.2362,570.00,73.40,62.60,68.94,40.00,11.00,0.00,29.73,1004.80,9.00,M,FEW,SCT,BKN,BKN,1000.00,4300.00,7000.00,9000.00,-TSRA,M,M,M,M,M,M,73.40,KLSV 140200Z AUTO 04011KT 9SM -TSRA FEW010 SCT043 BKN070 BKN090 BKN110 23/17 A2973 RMK AO2 SLP048 $,M
INS,2022-09-14 02:01,-115.6733,36.5872,955.00,71.60,55.40,56.63,10.00,9.00,0.00,29.84,1006.60,10.00,M,OVC,M,M,M,9500.00,M,M,M,VCTS,M,M,M,M,M,M,71.60,KINS 140201Z AUTO 01009KT 10SM VCTS OVC095 22/13 A2984 RMK AO2 SLP066 $,M
LSV,2022-09-14 02:02,-115.0343,36.2362,570.00,73.40,62.60,68.94,50.00,11.00,0.00,29.74,1005.20,10.00,M,FEW,BKN,BKN,BKN,1000.00,4400.00,7000.00,9000.00,TSRA,M,M,M,M,M,M,73.40,KLSV 140202Z AUTO 05011KT 10SM TSRA FEW010 BKN044 BKN070 BKN090 BKN110 23/17 A2974 RMK AO2 SLP052 $,M
INS,2022-09-14 02:06,-115.6733,36.5872,955.00,71.60,55.40,56.63,10.00,10.00,0.00,29.84,1006.60,10.00,M,OVC,M,M,M,10000.00,M,M,M,M,M,M,M,M,M,M,71.60,KINS 140206Z AUTO 01010KT 10SM OVC100 22/13 A2984 RMK AO2 LTG DSNT NE SLP066 $,M
LSV,2022-09-14 02:10,-115.0343,36.2362,570.00,73.40,62.60,68.94,30.00,13.00,0.00,29.74,1005.20,9.00,M,FEW,SCT,BKN,BKN,1900.00,4000.00,5500.00,9000.00,-TSRA,M,M,M,M,M,M,73.40,KLSV 140210Z AUTO 03013KT 9SM -TSRA FEW019 SCT040 BKN055 BKN090 23/17 A2974 RMK AO2 SLP052 $,M
HND,2022-09-14 02:11,-115.1344,35.9729,742.79,86.00,53.60,33.01,230.00,8.00,0.00,29.79,M,10.00,M,CLR,M,M,M,M,M,M,M,VCTS,M,M,M,M,M,M,84.18,KHND 140211Z 23008KT 10SM VCTS CLR 30/12 A2979 RMK AO2 LTG DSNT E TSB05,M
LSV,2022-09-14 02:13,-115.0343,36.2362,570.00,73.40,62.60,68.94,30.00,14.00,0.00,29.74,1005.20,10.00,M,FEW,SCT,SCT,BKN,1900.00,4300.00,5500.00,8500.00,-RA,M,M,M,M,M,M,73.40,KLSV 140213Z AUTO 03014KT 10SM -RA FEW019 SCT043 SCT055 BKN085 23/17 A2974 RMK AO2 LTG DSNT NE TSE13 SLP052 $,M
VGT,2022-09-14 02:13,-115.1933,36.2111,667.00,85.00,57.00,38.69,90.00,11.00,0.00,29.75,M,10.00,M,SCT,M,M,M,8000.00,M,M,M,M,M,M,M,M,M,M,83.99,KVGT 140213Z 09011KT 10SM SCT080 29/14 A2975 RMK AO2 LTG DSNT SE T02940139,M
LSV,2022-09-14 02:14,-115.0343,36.2362,570.00,73.40,62.60,68.94,30.00,14.00,0.00,29.74,1005.20,10.00,M,FEW,SCT,SCT,BKN,1600.00,4300.00,5500.00,8500.00,-TSRA,M,M,M,M,M,M,73.40,KLSV 140214Z AUTO 03014KT 10SM -TSRA FEW016 SCT043 SCT055 BKN085 23/17 A2974 RMK AO2 TSE13TSB14 SLP052 $,M
CXP,2022-09-14 02:15,-119.7326,39.1923,1431.00,69.80,41.00,35.09,270.00,9.00,0.00,29.92,M,10.00,14.00,CLR,M,M,M,M,M,M,M,M,M,M,M,M,M,M,69.80,KCXP 140215Z AUTO 27009G14KT 10SM CLR 21/05 A2992 RMK AO2,M
BAM,2022-09-14 02:15,-116.8743,40.5990,1382.36,66.20,55.40,68.15,60.00,8.00,0.00,29.91,M,10.00,M,BKN,M,M,M,12000.00,M,M,M,M,M,M,M,M,M,M,66.20,KBAM 140215Z AUTO 06008KT 10SM BKN120 19/13 A2991 RMK AO1,M
TMT,2022-09-14 02:15,-117.1971,39.4643,1749.34,M,M,M,0.00,0.00,0.00,29.99,M,10.00,M,OVC,M,M,M,9000.00,M,M,M,M,M,M,M,M,M,M,M,KTMT 140215Z AUTO 00000KT 10SM OVC090 A2999 RMK AO2 LTG DSNT SE AND S,M
MEV,2022-09-14 02:15,-119.7500,38.9963,1441.42,68.00,35.60,30.20,250.00,4.00,0.00,29.91,M,10.00,M,CLR,M,M,M,M,M,M,M,M,M,M,M,M,M,M,68.00,KMEV 140215Z AUTO 25004KT 10SM CLR 20/02 A2991 RMK AO2,M
RTS,2022-09-14 02:15,-119.8764,39.6682,1539.00,64.40,32.00,29.63,270.00,7.00,0.00,29.96,M,2.00,M,SCT,M,M,M,5500.00,M,M,M,HZ,M,M,M,M,M,M,64.40,KRTS 140215Z AUTO 27007KT 2SM HZ SCT055 18/M00 A2996 RMK AO2,M
BVU,2022-09-14 02:15,-114.8611,35.9475,671.00,80.60,57.20,44.80,M,4.00,0.00,29.78,M,M,10.00,M,M,M,M,M,M,M,M,M,M,M,M,M,M,M,80.81,KBVU 140215Z AUTO VRB04G10KT 27/14 A2978 RMK AO2 TSNO,M
HTH,2022-09-14 02:15,-118.6315,38.5448,1282.89,75.20,46.40,35.94,190.00,3.00,0.00,29.86,M,10.00,M,OVC,M,M,M,11000.00,M,M,M,M,M,M,M,M,M,M,75.20,KHTH 140215Z AUTO 19003KT 10SM OVC110 24/08 A2986 RMK A01,M
LSV,2022-09-14 02:27,-115.0343,36.2362,570.00,75.20,69.80,83.32,30.00,13.00,0.00,29.74,1005.10,10.00,M,FEW,BKN,M,M,5500.00,8500.00,M,M,TS,M,M,M,M,M,M,75.20,KLSV 140227Z AUTO 03013KT 10SM TS FEW055 BKN085 24/21 A2974 RMK AO2 RAE27 TSE13TSB14 SLP051 $,M
HND,2022-09-14 02:29,-115.1344,35.9729,742.79,84.20,55.40,37.35,220.00,9.00,0.00,29.80,M,10.00,M,CLR,M,M,M,M,M,M,M,M,M,M,M,M,M,M,83.09,KHND 140229Z 22009KT 10SM CLR 29/13 A2980 RMK AO2 LTG DSNT N AND E TSB05E23,M
LSV,2022-09-14 02:29,-115.0343,36.2362,570.00,75.20,71.60,88.59,30.00,15.00,0.00,29.74,1005.10,10.00,M,FEW,BKN,M,M,5500.00,8500.00,M,M,M,M,M,M,M,M,M,75.20,KLSV 140229Z AUTO 03015KT 10SM FEW055 BKN085 24/22 A2974 RMK AO2 LTG DSNT N-NE AND SE-S RAE27 TSE13TSB14E29 SLP051 $,M
INS,2022-09-14 02:31,-115.6733,36.5872,955.00,69.80,55.40,60.21,360.00,12.00,0.00,29.84,1006.60,10.00,M,BKN,BKN,M,M,7000.00,10000.00,M,M,M,M,M,M,M,M,M,69.80,KINS 140231Z AUTO 36012KT 10SM BKN070 BKN100 21/13 A2984 RMK AO2 SLP066 $,M
BVU,2022-09-14 02:35,-114.8611,35.9475,671.00,80.60,57.20,44.80,0.00,0.00,0.00,29.78,M,M,M,M,M,M,M,M,M,M,M,M,M,M,M,M,M,M,80.81,KBVU 140235Z AUTO 00000KT 27/14 A2978 RMK AO2 TSNO,M
CXP,2022-09-14 02:35,-119.7326,39.1923,1431.00,69.80,41.00,35.09,280.00,9.00,0.00,29.92,M,10.00,16.00,CLR,M,M,M,M,M,M,M,M,M,M,M,M,M,M,69.80,KCXP 140235Z AUTO 28009G16KT 10SM CLR 21/05 A2992 RMK AO2,M
HTH,2022-09-14 02:35,-118.6315,38.5448,1282.89,73.40,48.20,40.85,180.00,7.00,0.00,29.86,M,10.00,M,OVC,M,M,M,10000.00,M,M,M,M,M,M,M,M,M,M,73.40,KHTH 140235Z AUTO 18007KT 10SM OVC100 23/09 A2986 RMK A01,M
RTS,2022-09-14 02:35,-119.8764,39.6682,1539.00,62.60,32.00,31.56,300.00,4.00,0.00,29.96,M,3.00,M,OVC,M,M,M,6000.00,M,M,M,HZ,M,M,M,M,M,M,62.60,KRTS 140235Z AUTO 30004KT 3SM HZ OVC060 17/M00 A2996 RMK AO2,M
MEV,2022-09-14 02:35,-119.7500,38.9963,1441.42,66.20,37.40,34.51,260.00,4.00,0.00,29.91,M,10.00,M,CLR,M,M,M,M,M,M,M,M,M,M,M,M,M,M,66.20,KMEV 140235Z AUTO 26004KT 10SM CLR 19/03 A2991 RMK AO2,M
BAM,2022-09-14 02:35,-116.8743,40.5990,1382.36,64.40,55.40,72.56,70.00,8.00,0.00,29.91,M,10.00,M,SCT,M,M,M,12000.00,M,M,M,M,M,M,M,M,M,M,64.40,KBAM 140235Z AUTO 07008KT 10SM SCT120 18/13 A2991 RMK AO1,M
TMT,2022-09-14 02:35,-117.1971,39.4643,1749.34,M,M,M,0.00,0.00,0.00,29.99,M,10.00,M,BKN,BKN,M,M,8000.00,11000.00,M,M,M,M,M,M,M,M,M,M,KTMT 140235Z AUTO 00000KT 10SM BKN080 BKN110 A2999 RMK AO2 LTG DSNT NE THRU SE,M
LAS,2022-09-14 02:46,-115.1634,36.0719,663.00,86.00,54.00,33.50,240.00,6.00,0.00,29.77,M,10.00,M,SCT,BKN,BKN,M,8000.00,12000.00,22000.00,M,M,M,M,M,M,M,M,84.26,KLAS 140246Z 24006KT 10SM SCT080 BKN120 BKN220 30/12 A2977 RMK AO2 LTG DSNT E TSE46 TS DSIPTD T03000122,M
ELY,2022-09-14 02:53,-114.8453,39.2950,1909.00,53.00,50.00,89.18,220.00,8.00,0.01,30.01,1009.80,10.00,M,OVC,M,M,M,10000.00,M,M,M,M,M,M,M,M,M,M,53.10,KELY 140253Z AUTO 22008KT 10SM OVC100 12/10 A3001 RMK AO2 RAE45 SLP098 P0001 60003 T01170100 58006 $,M
VGT,2022-09-14 02:53,-115.1933,36.2111,667.00,84.00,57.00,39.83,70.00,10.00,0.00,29.77,1007.20,10.00,M,FEW,M,M,M,9000.00,M,M,M,M,M,M,M,M,M,M,83.26,KVGT 140253Z 07010KT 10SM FEW090 29/14 A2977 RMK AO2 LTG DSNT N SLP072 60000 T02890139 53007,M
DRA,2022-09-14 02:53,-116.0278,36.6206,1009.00,71.00,58.00,63.05,40.00,18.00,0.01,29.85,1006.90,10.00,29.00,BKN,BKN,M,M,6500.00,11000.00,M,M,M,M,M,M,29.00,40.00,2022-09-14 02:48,71.10,KDRA 140253Z AUTO 04018G29KT 10SM BKN065 BKN110 22/14 A2985 RMK AO2 PK WND 04029/0248 RAE28 SLP069 P0001 60001 T02170144 53012,M
P68,2022-09-14 02:53,-116.0056,39.6014,1993.00,56.00,53.00,90.29,100.00,3.00,0.00,30.00,1010.50,M,M,M,M,M,M,M,M,M,M,M,M,M,M,M,M,M,55.90,KP68 140253Z AUTO 10003KT 13/12 A3000 RMK AO1 SLP105 T01330117 53004,M
LOL,2022-09-14 02:53,-118.5701,40.0684,1192.43,73.00,58.00,59.12,270.00,4.00,0.00,29.83,1006.50,10.00,M,OVC,M,M,M,11000.00,M,M,M,M,M,M,M,M,M,M,73.00,KLOL 140253Z AUTO 27004KT 10SM OVC110 23/14 A2983 RMK AO2 SLP065 T02280144 53001 $,M
EKO,2022-09-14 02:54,-115.7860,40.8242,1367.00,62.60,46.40,55.37,350.00,13.02,M,29.96,M,10.00,33.05,SCT,OVC,M,M,3900.00,7500.00,M,M,VCTS,M,M,M,33.00,300.00,2022-09-14 02:48,62.60,SPECI KEKO 140254Z 35013G33KT 10SM VCTS SCT039 OVC075 17/08 A2996 RMK AO2 PK WND 30033/0248 LTG DSNT N AND W FIBI,M
BAM,2022-09-14 02:55,-116.8743,40.5990,1382.36,64.40,55.40,72.56,60.00,9.00,0.00,29.93,M,10.00,M,SCT,M,M,M,6000.00,M,M,M,M,M,M,M,M,M,M,64.40,KBAM 140255Z AUTO 06009KT 10SM SCT060 18/13 A2993 RMK AO1,M
HTH,2022-09-14 02:55,-118.6315,38.5448,1282.89,73.40,50.00,43.69,200.00,4.00,0.00,29.87,M,10.00,M,BKN,BKN,M,M,9500.00,12000.00,M,M,M,M,M,M,M,M,M,73.40,KHTH 140255Z AUTO 20004KT 10SM BKN095 BKN120 23/10 A2987 RMK A01,M
RNO,2022-09-14 02:55,-119.7711,39.4839,1341.00,69.00,39.00,33.25,280.00,13.00,0.00,29.89,1007.50,2.50,21.00,BKN,M,M,M,2200.00,M,M,M,FU,M,M,M,M,M,M,69.10,KRNO 140255Z 28013G21KT 2 1/2SM FU BKN022 21/04 A2989 RMK AO2 SLP075 FU BKN022 T02060039 51009,M
BVU,2022-09-14 02:55,-114.8611,35.9475,671.00,80.60,57.20,44.80,M,4.00,0.00,29.79,M,M,M,M,M,M,M,M,M,M,M,M,M,M,M,M,M,M,80.81,KBVU 140255Z AUTO VRB04KT 27/14 A2979 RMK AO2 TSNO,M
TMT,2022-09-14 02:55,-117.1971,39.4643,1749.34,M,M,M,0.00,0.00,0.00,30.00,M,10.00,M,BKN,OVC,M,M,9000.00,11000.00,M,M,VCTS,M,M,M,M,M,M,M,KTMT 140255Z AUTO 00000KT 10SM VCTS BKN090 OVC110 A3000 RMK AO2 LTG DSNT SE AND S 60001,M
RTS,2022-09-14 02:55,-119.8764,39.6682,1539.00,60.80,32.00,33.64,280.00,8.00,0.00,29.97,M,3.00,M,OVC,M,M,M,5500.00,M,M,M,HZ,M,M,M,M,M,M,60.80,KRTS 140255Z AUTO 28008KT 3SM HZ OVC055 16/00 A2997 RMK AO2,M
MEV,2022-09-14 02:55,-119.7500,38.9963,1441.42,68.00,37.40,32.43,240.00,3.00,0.00,29.92,M,10.00,13.00,CLR,M,M,M,M,M,M,M,M,M,M,M,M,M,M,68.00,KMEV 140255Z AUTO 24003G13KT 10SM CLR 20/03 A2992 RMK AO2,M
CXP,2022-09-14 02:55,-119.7326,39.1923,1431.00,68.00,41.00,37.32,290.00,11.00,0.00,29.93,M,10.00,16.00,CLR,M,M,M,M,M,M,M,M,M,M,M,M,M,M,68.00,KCXP 140255Z AUTO 29011G16KT 10SM CLR 20/05 A2993 RMK AO2,M
EKO,2022-09-14 02:56,-115.7860,40.8242,1367.00,61.00,47.00,59.71,350.00,13.00,0.00,29.96,1010.50,10.00,33.00,FEW,BKN,OVC,M,3700.00,4400.00,8000.00,M,VCTS,M,M,M,33.00,300.00,2022-09-14 02:48,61.00,KEKO 140256Z AUTO 35013G33KT 10SM VCTS FEW037 BKN044 OVC080 16/08 A2996 RMK AO2 PK WND 30033/0248 LTG DSNT N AND W SLP105 T01610083 53010,M
HND,2022-09-14 02:56,-115.1344,35.9729,742.79,84.00,56.00,38.28,220.00,9.00,0.00,29.81,1008.20,10.00,M,FEW,M,M,M,11000.00,M,M,M,M,M,M,M,M,M,M,83.03,KHND 140256Z 22009KT 10SM FEW110 29/13 A2981 RMK AO2 TSB05E23 SLP082 T02890133 53007,M
LSV,2022-09-14 02:56,-115.0343,36.2362,570.00,75.40,75.40,100.00,30.00,12.00,0.06,29.75,1005.30,10.00,M,SCT,OVC,M,M,10000.00,17000.00,M,M,M,M,M,M,M,M,M,75.40,KLSV 140256Z AUTO 03012KT 10SM SCT100 OVC170 24/24 A2975 RMK AO2 RAE27 TSE13TSB14E29 SLP053 P0006 60039 T02410241 53010 $,M
NFL,2022-09-14 02:56,-118.7010,39.4166,1199.00,77.00,39.00,25.47,280.00,16.00,0.00,29.82,1007.60,10.00,M,BKN,BKN,BKN,M,8000.00,12000.00,25000.00,M,M,M,M,M,M,M,M,77.00,KNFL 140256Z 28016KT 10SM BKN080 BKN120 BKN250 25/04 A2982 RMK AO2 SLP076 CB DSNT NE T02500039 53003,M
LAS,2022-09-14 02:56,-115.1634,36.0719,663.00,86.00,54.00,33.50,230.00,6.00,0.00,29.77,1005.60,10.00,M,SCT,BKN,BKN,M,8000.00,12000.00,22000.00,M,M,M,M,M,M,M,M,84.26,KLAS 140256Z 23006KT 10SM SCT080 BKN120 BKN220 30/12 A2977 RMK AO2 TSE46 SLP056 TS DSIPTD T03000122 53006,M
WMC,2022-09-14 02:56,-117.8072,40.9019,1315.00,65.00,51.00,60.90,70.00,6.00,0.00,29.86,1007.20,10.00,M,CLR,M,M,M,M,M,M,M,M,M,M,M,M,M,M,64.90,KWMC 140256Z AUTO 07006KT 10SM CLR 18/11 A2986 RMK AO2 SLP072 T01830106 55000,M
TPH,2022-09-14 02:56,-117.0904,38.0505,1654.00,60.00,53.00,77.65,340.00,5.00,T,29.99,1010.60,10.00,M,OVC,M,M,M,10000.00,M,M,M,M,M,M,M,M,M,M,60.10,KTPH 140256Z AUTO 34005KT 10SM OVC100 16/12 A2999 RMK AO2 LTG DSNT S RAE15 SLP106 P0000 60000 T01560117 51015,M
INS,2022-09-14 02:56,-115.6733,36.5872,955.00,68.50,55.40,62.95,10.00,18.00,0.00,29.86,1007.40,10.00,23.00,OVC,M,M,M,7000.00,M,M,M,M,M,M,M,M,M,M,68.50,KINS 140256Z AUTO 01018G23KT 10SM OVC070 20/13 A2986 RMK AO2 SLP074 T02030130 52014 $,M
EKO,2022-09-14 03:14,-115.7860,40.8242,1367.00,58.00,49.00,71.90,310.00,14.00,T,29.97,M,10.00,22.00,FEW,BKN,OVC,M,3900.00,4900.00,6000.00,M,-TSRA,M,M,M,M,M,M,57.90,KEKO 140314Z AUTO 31014G22KT 10SM -TSRA FEW039 BKN049 OVC060 14/09 A2997 RMK AO2 LTG DSNT ALQDS RAB00 TSB08 P0000 T01440094,M
CXP,2022-09-14 03:15,-119.7326,39.1923,1431.00,68.00,41.00,37.32,300.00,7.00,0.00,29.94,M,10.00,12.00,CLR,M,M,M,M,M,M,M,M,M,M,M,M,M,M,68.00,KCXP 140315Z AUTO 30007G12KT 10SM CLR 20/05 A2994 RMK AO2,M
RTS,2022-09-14 03:15,-119.8764,39.6682,1539.00,60.80,32.00,33.64,280.00,9.00,0.00,29.97,M,4.00,M,SCT,SCT,OVC,M,1800.00,2400.00,5000.00,M,HZ,M,M,M,M,M,M,60.80,KRTS 140315Z AUTO 28009KT 4SM HZ SCT018 SCT024 OVC050 16/00 A2997 RMK AO2,M
MEV,2022-09-14 03:15,-119.7500,38.9963,1441.42,64.40,39.20,39.43,240.00,5.00,0.00,29.93,M,10.00,M,CLR,M,M,M,M,M,M,M,M,M,M,M,M,M,M,64.40,KMEV 140315Z AUTO 24005KT 10SM CLR 18/04 A2993 RMK AO2,M
BVU,2022-09-14 03:15,-114.8611,35.9475,671.00,82.40,57.20,42.25,240.00,7.00,0.00,29.79,M,M,14.00,M,M,M,M,M,M,M,M,M,M,M,M,M,M,M,82.08,KBVU 140315Z AUTO 24007G14KT 28/14 A2979 RMK AO2 TSNO,M
TMT,2022-09-14 03:15,-117.1971,39.4643,1749.34,M,M,M,0.00,0.00,0.00,30.00,M,10.00,M,OVC,M,M,M,9000.00,M,M,M,-RA,M,M,M,M,M,M,M,KTMT 140315Z AUTO 00000KT 10SM -RA OVC090 A3000 RMK AO2 LTG DSNT S,M
HTH,2022-09-14 03:15,-118.6315,38.5448,1282.89,71.60,50.00,46.43,130.00,7.00,0.00,29.88,M,10.00,M,BKN,M,M,M,9500.00,M,M,M,M,M,M,M,M,M,M,71.60,KHTH 140315Z AUTO 13007KT 10SM BKN095 22/10 A2988 RMK A01,M
BAM,2022-09-14 03:15,-116.8743,40.5990,1382.36,64.40,53.60,67.95,60.00,14.00,0.00,29.93,M,10.00,19.00,SCT,M,M,M,6000.00,M,M,M,M,M,M,M,M,M,M,64.40,KBAM 140315Z AUTO 06014G19KT 10SM SCT060 18/12 A2993 RMK AO1,M
HTH,2022-09-14 03:35,-118.6315,38.5448,1282.89,71.60,51.80,49.64,150.00,10.00,0.00,29.88,M,10.00,M,OVC,M,M,M,9500.00,M,M,M,M,M,M,M,M,M,M,71.60,KHTH 140335Z AUTO 15010KT 10SM OVC095 22/11 A2988 RMK A01,M
RTS,2022-09-14 03:35,-119.8764,39.6682,1539.00,59.00,32.00,35.87,280.00,8.00,0.00,29.98,M,4.00,M,BKN,OVC,M,M,2000.00,5500.00,M,M,HZ,M,M,M,M,M,M,59.00,KRTS 140335Z AUTO 28008KT 4SM HZ BKN020 OVC055 15/00 A2998 RMK AO2,M
CXP,2022-09-14 03:35,-119.7326,39.1923,1431.00,66.20,41.00,39.72,M,3.00,0.00,29.95,M,10.00,M,CLR,M,M,M,M,M,M,M,M,M,M,M,M,M,M,66.20,KCXP 140335Z AUTO VRB03KT 10SM CLR 19/05 A2995 RMK AO2,M
BVU,2022-09-14 03:35,-114.8611,35.9475,671.00,80.60,57.20,44.80,200.00,7.00,0.00,29.80,M,M,M,M,M,M,M,M,M,M,M,M,M,M,M,M,M,M,80.81,KBVU 140335Z AUTO 20007KT 27/14 A2980 RMK AO2 TSNO,M
MEV,2022-09-14 03:35,-119.7500,38.9963,1441.42,64.40,39.20,39.43,0.00,0.00,0.00,29.94,M,10.00,M,CLR,M,M,M,M,M,M,M,M,M,M,M,M,M,M,64.40,KMEV 140335Z AUTO 00000KT 10SM CLR 18/04 A2994 RMK AO2,M
BAM,2022-09-14 03:35,-116.8743,40.5990,1382.36,62.60,50.00,63.38,80.00,10.00,0.00,29.93,M,10.00,M,CLR,M,M,M,M,M,M,M,M,M,M,M,M,M,M,62.60,KBAM 140335Z AUTO 08010KT 10SM CLR 17/10 A2993 RMK AO1,M
TMT,2022-09-14 03:35,-117.1971,39.4643,1749.34,M,M,M,210.00,6.00,0.00,30.00,M,10.00,M,OVC,M,M,M,9000.00,M,M,M,-RA,M,M,M,M,M,M,M,KTMT 140335Z AUTO 21006KT 10SM -RA OVC090 A3000 RMK AO2 LTG DSNT SE,M
EKO,2022-09-14 03:37,-115.7860,40.8242,1367.00,60.00,47.00,61.65,0.00,0.00,0.01,29.96,M,10.00,M,FEW,BKN,OVC,M,4300.00,6000.00,7500.00,M,VCTS -RA,M,M,M,M,M,M,60.10,KEKO 140337Z AUTO 00000KT 10SM VCTS -RA FEW043 BKN060 OVC075 16/08 A2996 RMK AO2 RAB00 TSB08E31 P0001 T01560083,M
P68,2022-09-14 03:53,-116.0056,39.6014,1993.00,57.00,51.00,80.60,200.00,4.00,0.00,30.01,1010.60,M,M,M,M,M,M,M,M,M,M,M,M,M,M,M,M,M,57.00,KP68 140353Z AUTO 20004KT 14/11 A3001 RMK AO1 SLP106 T01390106,M
ELY,2022-09-14 03:53,-114.8453,39.2950,1909.00,53.00,50.00,89.18,150.00,8.00,0.00,30.06,1010.70,10.00,M,OVC,M,M,M,11000.00,M,M,M,M,M,M,M,M,M,M,53.10,KELY 140353Z AUTO 15008KT 10SM OVC110 12/10 A3006 RMK AO2 SLP107 T01170100 $,M
VGT,2022-09-14 03:53,-115.1933,36.2111,667.00,82.00,59.00,45.66,60.00,9.00,0.00,29.78,1007.70,10.00,M,CLR,M,M,M,M,M,M,M,M,M,M,M,M,M,M,82.15,KVGT 140353Z AUTO 06009KT 10SM CLR 28/15 A2978 RMK AO2 SLP077 T02780150,M
LOL,2022-09-14 03:53,-118.5701,40.0684,1192.43,72.00,41.00,32.56,270.00,4.00,0.00,29.85,1007.30,3.00,M,OVC,M,M,M,3800.00,M,M,M,HZ,M,M,M,M,M,M,72.00,KLOL 140353Z AUTO 27004KT 3SM HZ OVC038 22/05 A2985 RMK AO2 SLP073 T02220050 $,M
DRA,2022-09-14 03:53,-116.0278,36.6206,1009.00,72.00,57.00,59.20,190.00,11.00,0.00,29.88,1007.80,10.00,M,BKN,BKN,M,M,7000.00,9000.00,M,M,M,M,M,M,26.00,40.00,2022-09-14 02:57,72.00,KDRA 140353Z AUTO 19011KT 10SM BKN070 BKN090 22/14 A2988 RMK AO2 PK WND 04026/0257 PRESRR SLP078 T02220139,M
EKO,2022-09-14 03:54,-115.7860,40.8242,1367.00,57.20,50.00,76.82,130.00,4.00,0.01,29.95,M,10.00,M,FEW,OVC,M,M,5000.00,7500.00,M,M,-RA,M,M,M,M,M,M,57.20,KEKO 140354Z AUTO 13004KT 10SM -RA FEW050 OVC075 14/10 A2995 RMK AO2 LTG DSNT S RAB00 TSB08E31 P0001,M
BAM,2022-09-14 03:55,-116.8743,40.5990,1382.36,62.60,50.00,63.38,120.00,9.00,0.00,29.93,M,10.00,M,CLR,M,M,M,M,M,M,M,M,M,M,M,M,M,M,62.60,KBAM 140355Z AUTO 12009KT 10SM CLR 17/10 A2993 RMK AO1,M
HTH,2022-09-14 03:55,-118.6315,38.5448,1282.89,71.60,50.00,46.43,150.00,9.00,0.00,29.89,M,10.00,M,SCT,SCT,M,M,9500.00,12000.00,M,M,M,M,M,M,M,M,M,71.60,KHTH 140355Z AUTO 15009KT 10SM SCT095 SCT120 22/10 A2989 RMK A01,M
CXP,2022-09-14 03:55,-119.7326,39.1923,1431.00,66.20,41.00,39.72,320.00,7.00,0.00,29.96,M,10.00,M,CLR,M,M,M,M,M,M,M,M,M,M,M,M,M,M,66.20,KCXP 140355Z AUTO 32007KT 10SM CLR 19/05 A2996 RMK AO2,M
RNO,2022-09-14 03:55,-119.7711,39.4839,1341.00,67.00,39.00,35.86,290.00,14.00,0.00,29.92,1008.50,2.00,23.00,OVC,M,M,M,2000.00,M,M,M,FU,M,M,M,M,M,M,66.90,KRNO 140355Z 29014G23KT 2SM FU OVC020 19/04 A2992 RMK AO2 SLP085 FU OVC020 T01940039,M
BVU,2022-09-14 03:55,-114.8611,35.9475,671.00,80.60,57.20,44.80,0.00,0.00,0.00,29.80,M,M,M,M,M,M,M,M,M,M,M,M,M,M,M,M,M,M,80.81,KBVU 140355Z AUTO 00000KT 27/14 A2980 RMK AO2 TSNO,M
RTS,2022-09-14 03:55,-119.8764,39.6682,1539.00,59.00,32.00,35.87,270.00,10.00,0.00,29.98,M,4.00,M,SCT,BKN,OVC,M,1600.00,2000.00,9500.00,M,HZ,M,M,M,M,M,M,59.00,KRTS 140355Z AUTO 27010KT 4SM HZ SCT016 BKN020 OVC095 15/00 A2998 RMK AO2,M
MEV,2022-09-14 03:55,-119.7500,38.9963,1441.42,60.80,39.20,44.76,0.00,0.00,0.00,29.94,M,10.00,M,CLR,M,M,M,M,M,M,M,M,M,M,M,M,M,M,60.80,KMEV 140355Z AUTO 00000KT 10SM CLR 16/04 A2994 RMK AO2,M
TMT,2022-09-14 03:55,-117.1971,39.4643,1749.34,M,M,M,230.00,4.00,0.00,30.01,M,10.00,M,BKN,M,M,M,9000.00,M,M,M,M,M,M,M,M,M,M,M,KTMT 140355Z AUTO 23004KT 10SM BKN090 A3001 RMK AO2,M
EKO,2022-09-14 03:56,-115.7860,40.8242,1367.00,57.00,50.00,77.38,140.00,4.00,0.01,29.95,1010.50,10.00,M,FEW,FEW,OVC,M,4500.00,6000.00,7500.00,M,-RA,M,M,M,M,M,M,57.00,KEKO 140356Z AUTO 14004KT 10SM -RA FEW045 FEW060 OVC075 14/10 A2995 RMK AO2 LTG DSNT S RAB00 TSB08E31 SLP105 P0001 T01390100,M
TPH,2022-09-14 03:56,-117.0904,38.0505,1654.00,62.00,52.00,69.46,130.00,6.00,T,30.02,1011.20,10.00,M,BKN,OVC,M,M,10000.00,12000.00,M,M,M,M,M,M,M,M,M,62.10,KTPH 140356Z AUTO 13006KT 10SM BKN100 OVC120 17/11 A3002 RMK AO2 LTG DSNT SE RAB01E13 SLP112 P0000 T01670111,M
LSV,2022-09-14 03:56,-115.0343,36.2362,570.00,75.40,75.00,98.67,40.00,11.00,0.00,29.77,1005.90,10.00,M,FEW,M,M,M,17000.00,M,M,M,M,M,M,M,M,M,M,75.40,KLSV 140356Z AUTO 04011KT 10SM FEW170 24/24 A2977 RMK AO2 SLP059 T02410239 $,M
INS,2022-09-14 03:56,-115.6733,36.5872,955.00,69.00,55.60,62.12,260.00,9.00,0.00,29.88,1008.00,10.00,M,BKN,OVC,M,M,8000.00,10000.00,M,M,M,M,M,M,M,M,M,69.10,KINS 140356Z AUTO 26009KT 10SM BKN080 OVC100 21/13 A2988 RMK AO2 SLP080 T02060131 $,M
HND,2022-09-14 03:56,-115.1344,35.9729,742.79,84.00,56.00,38.28,220.00,7.00,0.00,29.82,1008.50,10.00,M,SCT,M,M,M,9500.00,M,M,M,M,M,M,M,M,M,M,83.03,KHND 140356Z AUTO 22007KT 10SM SCT095 29/13 A2982 RMK AO2 LTG DSNT E SLP085 T02890133,M
WMC,2022-09-14 03:56,-117.8072,40.9019,1315.00,65.00,52.00,62.96,70.00,7.00,0.00,29.87,1007.90,10.00,M,CLR,M,M,M,M,M,M,M,M,M,M,M,M,M,M,64.90,KWMC 140356Z AUTO 07007KT 10SM CLR 18/11 A2987 RMK AO2 SLP079 T01830111,M
LAS,2022-09-14 03:56,-115.1634,36.0719,663.00,85.00,54.00,34.70,220.00,5.00,0.00,29.79,1006.00,10.00,M,BKN,BKN,M,M,10000.00,22000.00,M,M,M,M,M,M,M,M,M,83.37,KLAS 140356Z 22005KT 10SM BKN100 BKN220 29/12 A2979 RMK AO2 LTG DSNT SE SLP060 T02940122,M
NFL,2022-09-14 03:56,-118.7010,39.4166,1199.00,73.00,37.00,26.92,320.00,8.00,0.00,29.86,1008.60,5.00,M,SCT,BKN,BKN,BKN,4000.00,8000.00,12000.00,25000.00,FU,M,M,M,M,M,M,73.00,KNFL 140356Z 32008KT 5SM FU SCT040 BKN080 BKN120 BKN250 23/03 A2986 RMK AO2 SLP086 FU SCT040 T02280028,M
INS,2022-09-14 04:01,-115.6733,36.5872,955.00,68.00,55.40,64.04,300.00,6.00,0.00,29.88,1008.00,10.00,M,BKN,OVC,M,M,8000.00,9500.00,M,M,-RA,M,M,M,M,M,M,68.00,KINS 140401Z AUTO 30006KT 10SM -RA BKN080 OVC095 20/13 A2988 RMK AO2 RAB01 SLP080 $,M
DRA,2022-09-14 04:05,-116.0278,36.6206,1009.00,64.00,56.00,74.93,310.00,21.00,0.01,29.90,M,1.50,56.00,FEW,OVC,M,M,2500.00,6000.00,M,M,+RA,M,M,M,56.00,300.00,2022-09-14 04:02,64.00,KDRA 140405Z AUTO 31021G56KT 1 1/2SM +RA FEW025 OVC060 18/13 A2990 RMK AO2 PK WND 30056/0402 RAB0357 P0001 T01780133,M
DRA,2022-09-14 04:09,-116.0278,36.6206,1009.00,65.00,56.00,72.61,360.00,11.00,0.10,29.89,M,1.00,56.00,SCT,OVC,M,M,2700.00,6000.00,M,M,+RA,M,M,M,56.00,300.00,2022-09-14 04:02,64.90,KDRA 140409Z AUTO 36011G56KT 1SM +RA SCT027 OVC060 18/13 A2989 RMK AO2 PK WND 30056/0402 WSHFT 0352 RAB0357 P0010 T01830133,M
LOL,2022-09-14 04:10,-118.5701,40.0684,1192.43,70.00,44.00,39.26,0.00,0.00,0.00,29.85,M,3.00,M,OVC,M,M,M,2400.00,M,M,M,HZ,M,M,M,M,M,M,70.00,KLOL 140410Z AUTO 00000KT 3SM HZ OVC024 21/07 A2985 RMK AO2 T02110067 $,M
INS,2022-09-14 04:11,-115.6733,36.5872,955.00,68.00,57.20,68.35,280.00,3.00,0.00,29.89,1008.30,10.00,M,SCT,BKN,BKN,BKN,8000.00,9500.00,12000.00,15000.00,M,M,M,M,M,M,M,68.00,KINS 140411Z AUTO 28003KT 10SM SCT080 BKN095 BKN120 BKN150 20/14 A2989 RMK AO2 RAB01E11 SLP083 $,M
DRA,2022-09-14 04:13,-116.0278,36.6206,1009.00,66.00,56.00,69.88,M,6.00,0.26,29.88,M,1.25,35.00,BKN,OVC,M,M,3300.00,6000.00,M,M,+RA,M,M,M,56.00,300.00,2022-09-14 04:02,66.00,KDRA 140413Z AUTO VRB06G35KT 1 1/4SM +RA BKN033 OVC060 19/13 A2988 RMK AO2 PK WND 30056/0402 WSHFT 0356 RAB0357 P0026 T01890133,M
MEV,2022-09-14 04:15,-119.7500,38.9963,1441.42,59.00,39.20,47.72,0.00,0.00,0.00,29.95,M,10.00,M,CLR,M,M,M,M,M,M,M,M,M,M,M,M,M,M,59.00,KMEV 140415Z AUTO 00000KT 10SM CLR 15/04 A2995 RMK AO2,M
TMT,2022-09-14 04:15,-117.1971,39.4643,1749.34,M,M,M,200.00,4.00,0.00,30.01,M,10.00,M,OVC,M,M,M,9000.00,M,M,M,VCTS,M,M,M,M,M,M,M,KTMT 140415Z AUTO 20004KT 10SM VCTS OVC090 A3001 RMK AO2 LTG DSNT S,M
HTH,2022-09-14 04:15,-118.6315,38.5448,1282.89,69.80,50.00,49.37,140.00,10.00,0.00,29.89,M,10.00,M,BKN,M,M,M,9500.00,M,M,M,M,M,M,M,M,M,M,69.80,KHTH 140415Z AUTO 14010KT 10SM BKN095 21/10 A2989 RMK A01,M
BAM,2022-09-14 04:15,-116.8743,40.5990,1382.36,62.60,51.80,67.75,150.00,10.00,0.00,29.93,M,10.00,M,CLR,M,M,M,M,M,M,M,M,M,M,M,M,M,M,62.60,KBAM 140415Z AUTO 15010KT 10SM CLR 17/11 A2993 RMK AO1,M
BVU,2022-09-14 04:15,-114.8611,35.9475,671.00,77.00,60.80,57.36,0.00,0.00,0.00,29.80,M,M,M,M,M,M,M,M,M,M,M,M,M,M,M,M,M,M,77.00,KBVU 140415Z AUTO 00000KT 25/16 A2980 RMK AO2 TSNO,M
CXP,2022-09-14 04:15,-119.7326,39.1923,1431.00,66.20,41.00,39.72,0.00,0.00,0.00,29.96,M,10.00,M,CLR,M,M,M,M,M,M,M,M,M,M,M,M,M,M,66.20,KCXP 140415Z AUTO 00000KT 10SM CLR 19/05 A2996 RMK AO2,M
RTS,2022-09-14 04:15,-119.8764,39.6682,1539.00,59.00,32.00,35.87,280.00,8.00,0.00,29.98,M,4.00,13.00,OVC,M,M,M,1700.00,M,M,M,HZ,M,M,M,M,M,M,59.00,KRTS 140415Z AUTO 28008G13KT 4SM HZ OVC017 15/00 A2998 RMK AO2,M
INS,2022-09-14 04:16,-115.6733,36.5872,955.00,68.00,57.20,68.35,290.00,5.00,0.00,29.89,1008.30,10.00,M,SCT,SCT,BKN,BKN,8000.00,9500.00,12000.00,15000.00,M,M,M,M,M,M,M,68.00,KINS 140416Z AUTO 29005KT 10SM SCT080 SCT095 BKN120 BKN150 20/14 A2989 RMK AO2 RAB01E11 SLP083 $,M
DRA,2022-09-14 04:16,-116.0278,36.6206,1009.00,66.00,57.00,72.72,100.00,10.00,0.34,29.88,M,2.50,19.00,BKN,OVC,M,M,3900.00,6000.00,M,M,+RA,M,M,M,56.00,300.00,2022-09-14 04:02,66.00,KDRA 140416Z AUTO 10010G19KT 2 1/2SM +RA BKN039 OVC060 19/14 A2988 RMK AO2 PK WND 30056/0402 WSHFT 0356 RAB0357 P0034 T01890139,M
DRA,2022-09-14 04:20,-116.0278,36.6206,1009.00,66.00,58.00,75.12,120.00,11.00,0.41,29.88,M,4.00,M,SCT,BKN,OVC,M,3900.00,6000.00,9500.00,M,RA,M,M,M,56.00,300.00,2022-09-14 04:02,66.00,KDRA 140420Z AUTO 12011KT 4SM RA SCT039 BKN060 OVC095 19/14 A2988 RMK AO2 PK WND 30056/0402 WSHFT 0356 RAB0357 P0041 T01890144,M
INS,2022-09-14 04:34,-115.6733,36.5872,955.00,66.20,55.40,68.15,310.00,6.00,0.00,29.89,1008.30,10.00,M,FEW,SCT,BKN,BKN,7500.00,9500.00,11000.00,14000.00,-RA,M,M,M,M,M,M,66.20,KINS 140434Z AUTO 31006KT 10SM -RA FEW075 SCT095 BKN110 BKN140 19/13 A2989 RMK AO2 RAB01E11RAB34 SLP083 $,M
CXP,2022-09-14 04:35,-119.7326,39.1923,1431.00,64.40,39.20,39.43,20.00,3.00,0.00,29.96,M,10.00,M,CLR,M,M,M,M,M,M,M,M,M,M,M,M,M,M,64.40,KCXP 140435Z AUTO 02003KT 10SM CLR 18/04 A2996 RMK AO2,M
TMT,2022-09-14 04:35,-117.1971,39.4643,1749.34,M,M,M,0.00,0.00,0.00,30.01,M,10.00,M,BKN,OVC,M,M,9000.00,11000.00,M,M,-DZ,M,M,M,M,M,M,M,KTMT 140435Z AUTO 00000KT 10SM -DZ BKN090 OVC110 A3001 RMK AO2 LTG DSNT SE AND NW,M
HTH,2022-09-14 04:35,-118.6315,38.5448,1282.89,69.80,50.00,49.37,130.00,12.00,0.00,29.89,M,10.00,M,OVC,M,M,M,10000.00,M,M,M,M,M,M,M,M,M,M,69.80,KHTH 140435Z AUTO 13012KT 10SM OVC100 21/10 A2989 RMK A01,M
BAM,2022-09-14 04:35,-116.8743,40.5990,1382.36,60.80,50.00,67.54,130.00,6.00,0.00,29.93,M,10.00,M,CLR,M,M,M,M,M,M,M,M,M,M,M,M,M,M,60.80,KBAM 140435Z AUTO 13006KT 10SM CLR 16/10 A2993 RMK AO1,M
MEV,2022-09-14 04:35,-119.7500,38.9963,1441.42,55.40,39.20,54.34,70.00,5.00,0.00,29.95,M,10.00,M,CLR,M,M,M,M,M,M,M,M,M,M,M,M,M,M,55.40,KMEV 140435Z AUTO 07005KT 10SM CLR 13/04 A2995 RMK AO2,M
RTS,2022-09-14 04:35,-119.8764,39.6682,1539.00,57.20,32.00,38.26,300.00,12.00,0.00,29.98,M,3.00,M,OVC,M,M,M,1700.00,M,M,M,HZ,M,M,M,M,M,M,57.20,KRTS 140435Z AUTO 30012KT 3SM HZ OVC017 14/00 A2998 RMK AO2,M
BVU,2022-09-14 04:35,-114.8611,35.9475,671.00,78.80,59.00,50.69,270.00,5.00,0.00,29.80,M,M,M,M,M,M,M,M,M,M,M,M,M,M,M,M,M,M,78.80,KBVU 140435Z AUTO 27005KT 26/15 A2980 RMK AO2 TSNO,M
LOL,2022-09-14 04:36,-118.5701,40.0684,1192.43,64.00,46.00,51.93,190.00,6.00,0.00,29.85,M,3.00,M,SCT,BKN,M,M,1800.00,8000.00,M,M,HZ,M,M,M,M,M,M,64.00,KLOL 140436Z AUTO 19006KT 3SM HZ SCT018 BKN080 18/08 A2985 RMK AO2 LTG DSNT E AND SE T01780078 $,M
INS,2022-09-14 04:39,-115.6733,36.5872,955.00,68.00,55.40,64.04,0.00,0.00,0.00,29.88,1007.80,9.00,M,FEW,BKN,OVC,M,7500.00,9500.00,11000.00,M,-RA,M,M,M,M,M,M,68.00,KINS 140439Z AUTO 00000KT 9SM -RA FEW075 BKN095 OVC110 20/13 A2988 RMK AO2 RAB01E11RAB34 SLP078 $,M
LAS,2022-09-14 04:40,-115.1634,36.0719,663.00,80.00,59.00,48.58,10.00,13.00,0.00,29.80,M,10.00,M,OVC,M,M,M,8000.00,M,M,M,M,M,M,M,M,M,M,80.76,KLAS 140440Z 01013KT 10SM OVC080 27/15 A2980 RMK AO2 WSHFT 0420 T02670150,M
INS,2022-09-14 04:48,-115.6733,36.5872,955.00,66.20,57.20,72.74,270.00,7.00,0.00,29.89,1008.30,5.00,M,FEW,FEW,BKN,OVC,300.00,7500.00,9000.00,11000.00,RA,M,M,M,M,M,M,66.20,KINS 140448Z AUTO 27007KT 5SM RA FEW003 FEW075 BKN090 OVC110 19/14 A2989 RMK AO2 RAB01E11RAB34 SLP083 $,M
LSV,2022-09-14 04:49,-115.0343,36.2362,570.00,75.20,66.20,73.61,50.00,17.00,0.00,29.78,1006.10,10.00,M,BKN,OVC,M,M,8500.00,11000.00,M,M,TS,M,M,M,M,M,M,75.20,KLSV 140449Z AUTO 05017KT 10SM TS BKN085 OVC110 24/19 A2978 RMK AO2 TSB49 SLP061 $,M
ELY,2022-09-14 04:53,-114.8453,39.2950,1909.00,52.00,50.00,92.86,190.00,6.00,0.00,30.05,1011.20,10.00,M,SCT,M,M,M,11000.00,M,M,M,M,M,M,M,M,M,M,52.00,KELY 140453Z AUTO 19006KT 10SM SCT110 11/10 A3005 RMK AO2 SLP112 T01110100 $,M
P68,2022-09-14 04:53,-116.0056,39.6014,1993.00,56.00,52.00,86.71,0.00,0.00,0.00,30.02,1010.90,M,M,M,M,M,M,M,M,M,M,M,M,M,M,M,M,M,55.90,KP68 140453Z AUTO 00000KT 13/11 A3002 RMK AO1 SLP109 T01330111,M
VGT,2022-09-14 04:53,-115.1933,36.2111,667.00,82.00,57.00,42.49,340.00,10.00,0.00,29.80,1008.30,10.00,M,BKN,BKN,M,M,8500.00,12000.00,M,M,M,M,M,M,M,M,M,81.75,KVGT 140453Z AUTO 34010KT 10SM BKN085 BKN120 28/14 A2980 RMK AO2 LTG DSNT E SLP083 T02780139,M
LOL,2022-09-14 04:53,-118.5701,40.0684,1192.43,66.00,43.00,43.20,0.00,0.00,0.00,29.86,1008.60,3.00,M,OVC,M,M,M,8500.00,M,M,M,HZ,M,M,M,M,M,M,66.00,KLOL 140453Z AUTO 00000KT 3SM HZ OVC085 19/06 A2986 RMK AO2 LTG DSNT E SLP086 T01890061 $,M
DRA,2022-09-14 04:53,-116.0278,36.6206,1009.00,68.00,60.00,75.84,110.00,14.00,0.45,29.87,1007.30,10.00,20.00,OVC,M,M,M,11000.00,M,M,M,M,M,M,M,56.00,300.00,2022-09-14 04:02,68.00,KDRA 140453Z AUTO 11014G20KT 10SM OVC110 20/16 A2987 RMK AO2 PK WND 30056/0402 WSHFT 0356 RAB0357E49 SLP073 P0045 T02000156,M
CXP,2022-09-14 04:55,-119.7326,39.1923,1431.00,62.60,39.20,42.00,M,3.00,0.00,29.96,M,9.00,M,CLR,M,M,M,M,M,M,M,M,M,M,M,M,M,M,62.60,KCXP 140455Z AUTO VRB03KT 9SM CLR 17/04 A2996 RMK AO2,M
BVU,2022-09-14 04:55,-114.8611,35.9475,671.00,80.60,59.00,47.79,M,4.00,0.00,29.80,M,M,M,M,M,M,M,M,M,M,M,M,M,M,M,M,M,M,81.11,KBVU 140455Z AUTO VRB04KT 27/15 A2980 RMK AO2 TSNO,M
RTS,2022-09-14 04:55,-119.8764,39.6682,1539.00,57.20,32.00,38.26,290.00,11.00,0.00,29.98,M,3.00,M,FEW,M,M,M,1600.00,M,M,M,HZ,M,M,M,M,M,M,57.20,KRTS 140455Z AUTO 29011KT 3SM HZ FEW016 14/00 A2998 RMK AO2,M
MEV,2022-09-14 04:55,-119.7500,38.9963,1441.42,53.60,41.00,62.23,70.00,5.00,0.00,29.95,M,10.00,M,CLR,M,M,M,M,M,M,M,M,M,M,M,M,M,M,53.60,KMEV 140455Z AUTO 07005KT 10SM CLR 12/05 A2995 RMK AO2,M
BAM,2022-09-14 04:55,-116.8743,40.5990,1382.36,59.00,50.00,72.01,100.00,8.00,0.00,29.93,M,10.00,M,CLR,M,M,M,M,M,M,M,M,M,M,M,M,M,M,59.00,KBAM 140455Z AUTO 10008KT 10SM CLR 15/10 A2993 RMK AO1,M
HTH,2022-09-14 04:55,-118.6315,38.5448,1282.89,69.80,51.80,52.77,130.00,8.00,0.00,29.90,M,10.00,M,OVC,M,M,M,10000.00,M,M,M,M,M,M,M,M,M,M,69.80,KHTH 140455Z AUTO 13008KT 10SM OVC100 21/11 A2990 RMK A01,M
TMT,2022-09-14 04:55,-117.1971,39.4643,1749.34,M,M,M,0.00,0.00,0.00,30.00,M,10.00,M,BKN,OVC,M,M,8000.00,11000.00,M,M,VCTS,M,M,M,M,M,M,M,KTMT 140455Z AUTO 00000KT 10SM VCTS BKN080 OVC110 A3000 RMK AO2,M
RNO,2022-09-14 04:55,-119.7711,39.4839,1341.00,65.00,38.00,36.82,310.00,7.00,0.00,29.94,1008.90,2.50,M,OVC,M,M,M,2400.00,M,M,M,FU,M,M,M,M,M,M,64.90,KRNO 140455Z 31007KT 2 1/2SM FU OVC024 18/03 A2994 RMK AO2 SLP089 FU OVC024 T01830033,M
EKO,2022-09-14 04:56,-115.7860,40.8242,1367.00,56.00,50.00,80.52,250.00,4.00,0.01,29.95,1010.80,10.00,M,CLR,M,M,M,M,M,M,M,M,M,M,M,M,M,M,55.90,KEKO 140456Z AUTO 25004KT 10SM CLR 13/10 A2995 RMK AO2 RAE10 SLP108 P0001 T01330100,M
TPH,2022-09-14 04:56,-117.0904,38.0505,1654.00,59.00,52.00,77.55,140.00,4.00,T,30.03,1011.50,10.00,M,FEW,BKN,OVC,M,8000.00,9000.00,11000.00,M,-RA,M,M,M,M,M,M,59.00,KTPH 140456Z AUTO 14004KT 10SM -RA FEW080 BKN090 OVC110 15/11 A3003 RMK AO2 RAB11 SLP115 P0000 T01500111,M
LAS,2022-09-14 04:56,-115.1634,36.0719,663.00,80.00,59.00,48.58,10.00,11.00,0.00,29.80,1006.50,10.00,M,OVC,M,M,M,8000.00,M,M,M,M,M,M,M,M,M,M,80.76,KLAS 140456Z 01011KT 10SM OVC080 27/15 A2980 RMK AO2 WSHFT 0420 LTG DSNT NE AND E SLP065 CB DSNT NE-E T02670150,M
WMC,2022-09-14 04:56,-117.8072,40.9019,1315.00,62.00,51.00,67.19,80.00,9.00,0.00,29.88,1008.40,10.00,M,CLR,M,M,M,M,M,M,M,M,M,M,M,M,M,M,62.10,KWMC 140456Z AUTO 08009KT 10SM CLR 17/11 A2988 RMK AO2 SLP084 T01670106,M
INS,2022-09-14 04:56,-115.6733,36.5872,955.00,65.80,57.40,74.29,280.00,6.00,0.02,29.89,1008.30,9.00,M,FEW,BKN,OVC,M,7500.00,10000.00,11000.00,M,-RA,M,M,M,M,M,M,65.80,KINS 140456Z AUTO 28006KT 9SM -RA FEW075 BKN100 OVC110 19/14 A2989 RMK AO2 RAB01E11RAB34 SLP083 P0002 T01880141 $,M
LSV,2022-09-14 04:56,-115.0343,36.2362,570.00,75.70,64.40,67.99,50.00,18.00,0.00,29.78,1006.10,10.00,M,BKN,OVC,M,M,8500.00,12000.00,M,M,TS,M,M,M,M,M,M,75.70,KLSV 140456Z AUTO 05018KT 10SM TS BKN085 OVC120 24/18 A2978 RMK AO2 TSB49 SLP061 T02430180 $,M
NFL,2022-09-14 04:56,-118.7010,39.4166,1199.00,67.00,37.00,33.16,M,5.00,0.00,29.88,1009.20,5.00,M,BKN,BKN,BKN,BKN,4000.00,8000.00,12000.00,25000.00,FU,M,M,M,M,M,M,66.90,KNFL 140456Z VRB05KT 5SM FU BKN040 BKN080 BKN120 BKN250 19/03 A2988 RMK AO2 SLP092 FU BKN040 T01940028,M
INS,2022-09-14 05:00,-115.6733,36.5872,955.00,66.20,59.00,77.60,280.00,10.00,0.00,29.90,1008.70,10.00,M,OVC,M,M,M,10000.00,M,M,M,-TSRA,M,M,M,M,M,M,66.20,KINS 140500Z AUTO 28010KT 10SM -TSRA OVC100 19/15 A2990 RMK AO2 TSB00 SLP087 $,M
LSV,2022-09-14 05:04,-115.0343,36.2362,570.00,75.20,64.40,69.14,60.00,15.00,0.00,29.78,1006.10,10.00,M,OVC,M,M,M,8000.00,M,M,M,M,M,M,M,M,M,M,75.20,KLSV 140504Z AUTO 06015KT 10SM OVC080 24/18 A2978 RMK AO2 TSE04 SLP061 $,M
LSV,2022-09-14 05:08,-115.0343,36.2362,570.00,75.20,64.40,69.14,40.00,15.00,0.00,29.79,1006.50,10.00,M,OVC,M,M,M,8000.00,M,M,M,-DZ,M,M,M,M,M,M,75.20,KLSV 140508Z AUTO 04015KT 10SM -DZ OVC080 24/18 A2979 RMK AO2 DZB08 TSE04 SLP065 $,M
INS,2022-09-14 05:08,-115.6733,36.5872,955.00,66.20,59.00,77.60,280.00,9.00,0.00,29.90,1008.70,10.00,M,SCT,OVC,M,M,7000.00,10000.00,M,M,TS,M,M,M,M,M,M,66.20,KINS 140508Z AUTO 28009KT 10SM TS SCT070 OVC100 19/15 A2990 RMK AO2 RAE03DZB03E08 TSB00 SLP087 $,M
LSV,2022-09-14 05:12,-115.0343,36.2362,570.00,75.20,64.40,69.14,60.00,14.00,0.00,29.79,1006.50,10.00,M,BKN,M,M,M,8000.00,M,M,M,M,M,M,M,M,M,M,75.20,KLSV 140512Z AUTO 06014KT 10SM BKN080 24/18 A2979 RMK AO2 DZB08E12 TSE04 SLP065 $,M
INS,2022-09-14 05:13,-115.6733,36.5872,955.00,66.20,59.00,77.60,300.00,4.00,0.00,29.90,1008.70,10.00,M,BKN,OVC,M,M,7000.00,10000.00,M,M,TS,M,M,M,M,M,M,66.20,KINS 140513Z AUTO 30004KT 10SM TS BKN070 OVC100 19/15 A2990 RMK AO2 RAE03DZB03E08 TSB00 SLP087 $,M
MEV,2022-09-14 05:15,-119.7500,38.9963,1441.42,51.80,39.20,61.99,60.00,5.00,0.00,29.95,M,10.00,M,FEW,M,M,M,5000.00,M,M,M,M,M,M,M,M,M,M,51.80,KMEV 140515Z AUTO 06005KT 10SM FEW050 11/04 A2995 RMK AO2,M
BAM,2022-09-14 05:15,-116.8743,40.5990,1382.36,59.00,48.20,67.33,110.00,8.00,0.00,29.92,M,10.00,M,CLR,M,M,M,M,M,M,M,M,M,M,M,M,M,M,59.00,KBAM 140515Z AUTO 11008KT 10SM CLR 15/09 A2992 RMK AO1,M
HTH,2022-09-14 05:15,-118.6315,38.5448,1282.89,68.00,50.00,52.51,130.00,10.00,0.00,29.90,M,10.00,M,BKN,OVC,M,M,10000.00,12000.00,M,M,M,M,M,M,M,M,M,68.00,KHTH 140515Z AUTO 13010KT 10SM BKN100 OVC120 20/10 A2990 RMK A01,M
TMT,2022-09-14 05:15,-117.1971,39.4643,1749.34,56.80,54.00,90.66,280.00,4.00,0.00,30.00,M,10.00,M,BKN,BKN,M,M,9000.00,12000.00,M,M,M,M,M,M,M,M,M,56.80,KTMT 140515Z AUTO 28004KT 10SM BKN090 BKN120 14/12 A3000 RMK AO2 T01380123,M
BVU,2022-09-14 05:15,-114.8611,35.9475,671.00,80.60,59.00,47.79,210.00,7.00,0.00,29.80,M,M,M,M,M,M,M,M,M,M,M,M,M,M,M,M,M,M,81.11,KBVU 140515Z AUTO 21007KT 170V230 27/15 A2980 RMK AO2 TSNO,M
CXP,2022-09-14 05:15,-119.7326,39.1923,1431.00,60.80,41.00,48.00,0.00,0.00,0.00,29.96,M,10.00,M,CLR,M,M,M,M,M,M,M,M,M,M,M,M,M,M,60.80,KCXP 140515Z AUTO 00000KT 10SM CLR 16/05 A2996 RMK AO2,M
RTS,2022-09-14 05:15,-119.8764,39.6682,1539.00,57.20,33.80,41.13,280.00,12.00,0.00,29.98,M,3.00,M,FEW,M,M,M,300.00,M,M,M,HZ,M,M,M,M,M,M,57.20,KRTS 140515Z AUTO 28012KT 3SM HZ FEW003 14/01 A2998 RMK AO2,M
INS,2022-09-14 05:19,-115.6733,36.5872,955.00,66.20,57.20,72.74,0.00,0.00,0.00,29.90,1008.50,10.00,M,BKN,OVC,M,M,7000.00,10000.00,M,M,VCTS,M,M,M,M,M,M,66.20,KINS 140519Z AUTO 00000KT 10SM VCTS BKN070 OVC100 19/14 A2990 RMK AO2 RAE03DZB03E08 TSB00E19 SLP085 $,M
INS,2022-09-14 05:20,-115.6733,36.5872,955.00,66.20,57.20,72.74,0.00,0.00,0.00,29.90,1008.50,10.00,M,BKN,OVC,M,M,7000.00,10000.00,M,M,TS,M,M,M,M,M,M,66.20,KINS 140520Z AUTO 00000KT 10SM TS BKN070 OVC100 19/14 A2990 RMK AO2 RAE03DZB03E08 TSB00E19TSB20 SLP085 $,M
INS,2022-09-14 05:23,-115.6733,36.5872,955.00,66.20,57.20,72.74,0.00,0.00,0.00,29.90,1008.50,10.00,M,BKN,OVC,M,M,7000.00,10000.00,M,M,-TSRA,M,M,M,M,M,M,66.20,KINS 140523Z AUTO 00000KT 10SM -TSRA BKN070 OVC100 19/14 A2990 RMK AO2 RAE03DZB03E08RAB23 TSB00E19TSB20 SLP085 $,M
INS,2022-09-14 05:28,-115.6733,36.5872,955.00,68.00,59.00,72.92,120.00,7.00,0.00,29.89,1008.10,9.00,M,FEW,BKN,OVC,M,300.00,7000.00,9000.00,M,-TSRA,M,M,M,M,M,M,68.00,KINS 140528Z AUTO 12007KT 9SM -TSRA FEW003 BKN070 OVC090 20/15 A2989 RMK AO2 RAE03DZB03E08RAB23 TSB00E19TSB20 SLP081 $,M
MEV,2022-09-14 05:35,-119.7500,38.9963,1441.42,51.80,39.20,61.99,100.00,5.00,0.00,29.95,M,10.00,M,FEW,M,M,M,5000.00,M,M,M,M,M,M,M,M,M,M,51.80,KMEV 140535Z AUTO 10005KT 10SM FEW050 11/04 A2995 RMK AO2,M
TMT,2022-09-14 05:35,-117.1971,39.4643,1749.34,56.30,53.00,88.34,0.00,0.00,0.00,29.99,M,10.00,M,SCT,M,M,M,9000.00,M,M,M,M,M,M,M,M,M,M,56.30,KTMT 140535Z AUTO 00000KT 10SM SCT090 14/12 A2999 RMK AO2 T01350116,M
BAM,2022-09-14 05:35,-116.8743,40.5990,1382.36,60.80,48.20,63.15,110.00,9.00,0.00,29.92,M,10.00,M,CLR,M,M,M,M,M,M,M,M,M,M,M,M,M,M,60.80,KBAM 140535Z AUTO 11009KT 10SM CLR 16/09 A2992 RMK AO1,M
BVU,2022-09-14 05:35,-114.8611,35.9475,671.00,78.80,59.00,50.69,300.00,3.00,0.00,29.81,M,M,M,M,M,M,M,M,M,M,M,M,M,M,M,M,M,M,78.80,KBVU 140535Z AUTO 30003KT 26/15 A2981 RMK AO2 TSNO,M
RTS,2022-09-14 05:35,-119.8764,39.6682,1539.00,57.20,33.80,41.13,280.00,10.00,0.00,29.98,M,2.50,M,SCT,M,M,M,300.00,M,M,M,HZ,M,M,M,M,M,M,57.20,KRTS 140535Z AUTO 28010KT 2 1/2SM HZ SCT003 14/01 A2998 RMK AO2,M
HTH,2022-09-14 05:35,-118.6315,38.5448,1282.89,69.80,50.00,49.37,130.00,10.00,0.00,29.90,M,10.00,M,BKN,M,M,M,11000.00,M,M,M,M,M,M,M,M,M,M,69.80,KHTH 140535Z AUTO 13010KT 10SM BKN110 21/10 A2990 RMK A01,M
CXP,2022-09-14 05:35,-119.7326,39.1923,1431.00,60.80,41.00,48.00,110.00,3.00,0.00,29.97,M,10.00,M,CLR,M,M,M,M,M,M,M,M,M,M,M,M,M,M,60.80,KCXP 140535Z AUTO 11003KT 10SM CLR 16/05 A2997 RMK AO2,M
INS,2022-09-14 05:44,-115.6733,36.5872,955.00,66.20,57.20,72.74,90.00,6.00,0.00,29.88,1007.80,10.00,M,FEW,BKN,OVC,M,200.00,7000.00,10000.00,M,VCTS -RA,M,M,M,M,M,M,66.20,KINS 140544Z AUTO 09006KT 10SM VCTS -RA FEW002 BKN070 OVC100 19/14 A2988 RMK AO2 RAE03DZB03E08RAB23 TSB00E19TSB20E44 SLP078 $,M
INS,2022-09-14 05:49,-115.6733,36.5872,955.00,66.20,55.40,68.15,70.00,7.00,0.00,29.88,1007.80,10.00,M,FEW,SCT,OVC,M,200.00,7000.00,11000.00,M,VCTS -RA,M,M,M,M,M,M,66.20,KINS 140549Z AUTO 07007KT 10SM VCTS -RA FEW002 SCT070 OVC110 19/13 A2988 RMK AO2 RAE03DZB03E08RAB23 TSB00E19TSB20E44 SLP078 $,M
DRA,2022-09-14 05:53,-116.0278,36.6206,1009.00,68.00,58.00,70.10,30.00,10.00,0.00,29.89,1008.10,10.00,17.00,BKN,OVC,M,M,7000.00,9500.00,M,M,M,M,M,M,M,M,M,68.00,KDRA 140553Z AUTO 03010G17KT 10SM BKN070 OVC095 20/14 A2989 RMK AO2 SLP081 60046 T02000144 10289 20178 51013,M
ELY,2022-09-14 05:53,-114.8453,39.2950,1909.00,53.00,49.00,85.59,0.00,0.00,0.00,30.05,1011.00,10.00,M,CLR,M,M,M,M,M,M,M,M,M,M,M,M,M,M,53.10,KELY 140553Z AUTO 00000KT 10SM CLR 12/09 A3005 RMK AO2 SLP110 60003 T01170094 10172 20111 50009 $,M
P68,2022-09-14 05:53,-116.0056,39.6014,1993.00,53.00,51.00,92.89,310.00,4.00,0.00,30.02,1011.00,M,M,M,M,M,M,M,M,M,M,M,M,M,M,M,M,M,53.10,KP68 140553Z AUTO 31004KT 12/11 A3002 RMK AO1 SLP110 T01170106 10150 20117 50004,M
LOL,2022-09-14 05:53,-118.5701,40.0684,1192.43,66.00,38.00,35.44,110.00,3.00,0.00,29.87,1009.00,6.00,M,FEW,BKN,OVC,M,4900.00,7000.00,10000.00,M,HZ,M,M,M,M,M,M,66.00,KLOL 140553Z AUTO 11003KT 6SM HZ FEW049 BKN070 OVC100 19/03 A2987 RMK AO2 SLP090 T01890033 10267 20178 51014 $,M
VGT,2022-09-14 05:53,-115.1933,36.2111,667.00,80.00,57.00,45.21,50.00,8.00,T,29.82,1008.90,10.00,M,BKN,M,M,M,8000.00,M,M,M,M,M,M,M,M,M,M,80.45,KVGT 140553Z AUTO 05008KT 10SM BKN080 27/14 A2982 RMK AO2 LTG DSNT NE AND E RAB10E31 SLP089 P0000 60000 T02670139 10311 20267 53018,M
HTH,2022-09-14 05:55,-118.6315,38.5448,1282.89,68.00,51.80,56.13,110.00,10.00,0.00,29.90,M,10.00,M,SCT,M,M,M,11000.00,M,M,M,M,M,M,M,M,M,M,68.00,KHTH 140555Z AUTO 11010KT 10SM SCT110 20/11 A2990 RMK A01,M
RNO,2022-09-14 05:55,-119.7711,39.4839,1341.00,64.00,38.00,38.00,330.00,6.00,0.00,29.94,1009.00,2.00,M,OVC,M,M,M,2400.00,M,M,M,FU,M,M,M,M,M,M,64.00,KRNO 140555Z 33006KT 2SM FU OVC024 18/03 A2994 RMK AO2 SLP090 FU OVC024 T01780033 10261 20178 51016,M
TMT,2022-09-14 05:55,-117.1971,39.4643,1749.34,54.70,51.30,88.27,170.00,3.00,0.00,29.99,M,10.00,M,CLR,M,M,M,M,M,M,M,M,M,M,M,M,M,M,54.70,KTMT 140555Z AUTO 17003KT 10SM CLR 13/11 A2999 RMK AO2 LTG DSNT SE 60001 T01260107,M
INS,2022-09-14 05:55,-115.6733,36.5872,955.00,66.20,55.40,68.15,330.00,5.00,0.00,29.89,1008.10,10.00,M,FEW,SCT,OVC,M,200.00,7000.00,11000.00,M,M,M,M,M,M,M,M,66.20,KINS 140555Z AUTO 33005KT 10SM FEW002 SCT070 OVC110 19/13 A2989 RMK AO2 LTG DSNT NE-E RAE03DZB03E08RAB23E50DZB50E55 TSB00E19TSB20E44 SLP081 $,M
RTS,2022-09-14 05:55,-119.8764,39.6682,1539.00,59.00,33.80,38.56,290.00,7.00,0.00,29.98,M,1.75,17.00,OVC,M,M,M,300.00,M,M,M,HZ,M,M,M,M,M,M,59.00,KRTS 140555Z AUTO 29007G17KT 240V320 1 3/4SM HZ OVC003 15/01 A2998 RMK AO2,M
MEV,2022-09-14 05:55,-119.7500,38.9963,1441.42,51.80,35.60,53.81,100.00,7.00,0.00,29.95,M,10.00,M,FEW,M,M,M,5000.00,M,M,M,M,M,M,M,M,M,M,51.80,KMEV 140555Z AUTO 10007KT 10SM FEW050 11/02 A2995 RMK AO2,M
BAM,2022-09-14 05:55,-116.8743,40.5990,1382.36,62.60,50.00,63.38,150.00,7.00,0.00,29.92,M,10.00,M,CLR,M,M,M,M,M,M,M,M,M,M,M,M,M,M,62.60,KBAM 140555Z AUTO 15007KT 10SM CLR 17/10 A2992 RMK AO1,M
BVU,2022-09-14 05:55,-114.8611,35.9475,671.00,77.00,60.80,57.36,20.00,8.00,0.00,29.82,M,M,M,M,M,M,M,M,M,M,M,M,M,M,M,M,M,M,77.00,KBVU 140555Z AUTO 02008KT 25/16 A2982 RMK AO2 TSNO,M
CXP,2022-09-14 05:55,-119.7326,39.1923,1431.00,59.00,41.00,51.18,0.00,0.00,0.00,29.97,M,10.00,M,CLR,M,M,M,M,M,M,M,M,M,M,M,M,M,M,59.00,KCXP 140555Z AUTO 00000KT 10SM CLR 15/05 A2997 RMK AO2,M
NFL,2022-09-14 05:56,-118.7010,39.4166,1199.00,69.00,35.00,28.51,310.00,4.00,0.00,29.89,1009.50,4.00,M,BKN,BKN,OVC,M,4000.00,8000.00,12000.00,M,FU,M,M,M,M,M,M,69.10,KNFL 140556Z 31004KT 4SM FU BKN040 BKN080 OVC120 21/02 A2989 RMK AO2 SLP095 FU BKN040 T02060017 10283 20189 51020,M
LSV,2022-09-14 05:56,-115.0343,36.2362,570.00,74.50,63.00,67.62,30.00,17.00,T,29.82,1007.50,10.00,M,BKN,OVC,M,M,7500.00,9000.00,M,M,M,M,M,M,30.00,20.00,2022-09-14 05:36,74.50,KLSV 140556Z AUTO 03017KT 10SM BKN075 OVC090 24/17 A2982 RMK AO2 PK WND 02030/36 LTG DSNT NE-E AND S DZB08E12 TSE04 SLP075 P0000 60039 T02360173 10310 20232 52020 $,M
INS,2022-09-14 05:56,-115.6733,36.5872,955.00,65.70,56.00,70.62,330.00,5.00,0.04,29.89,1008.10,10.00,M,FEW,SCT,OVC,M,200.00,7000.00,11000.00,M,M,M,M,M,M,M,M,65.70,KINS 140556Z AUTO 33005KT 10SM FEW002 SCT070 OVC110 19/13 A2989 RMK AO2 LTG DSNT NE-E RAE03DZB03E08RAB23E50DZB50E55 TSB00E19TSB20E44 SLP081 P0004 60006 T01870133 10244 20184 50009 $,M
LAS,2022-09-14 05:56,-115.1634,36.0719,663.00,76.00,59.00,55.80,20.00,22.00,0.00,29.83,1007.80,10.00,29.00,BKN,BKN,M,M,7500.00,9000.00,M,M,M,M,M,M,29.00,20.00,2022-09-14 05:52,75.90,KLAS 140556Z 02022G29KT 10SM BKN075 BKN090 24/15 A2983 RMK AO2 PK WND 02029/0552 LTG DSNT NW-E SLP078 BKN090 V OVC CB DSNT N-E T02440150 10322 20244 53018,M
WMC,2022-09-14 05:56,-117.8072,40.9019,1315.00,59.00,51.00,75.02,80.00,4.00,0.00,29.89,1008.80,10.00,M,CLR,M,M,M,M,M,M,M,M,M,M,M,M,M,M,59.00,KWMC 140556Z AUTO 08004KT 10SM CLR 15/11 A2989 RMK AO2 SLP088 T01500106 10239 20150 51009,M
EKO,2022-09-14 05:56,-115.7860,40.8242,1367.00,53.00,49.00,85.59,220.00,4.00,0.00,29.96,1011.10,10.00,M,CLR,M,M,M,M,M,M,M,M,M,M,M,M,M,M,53.10,KEKO 140556Z AUTO 22004KT 10SM CLR 12/09 A2996 RMK AO2 SLP111 60002 T01170094 10200 20117 53003,M
TPH,2022-09-14 05:56,-117.0904,38.0505,1654.00,58.00,53.00,84.00,100.00,4.00,T,30.01,1010.40,10.00,M,SCT,SCT,M,M,9000.00,11000.00,M,M,M,M,M,M,M,M,M,57.90,KTPH 140556Z AUTO 10004KT 10SM SCT090 SCT110 14/12 A3001 RMK AO2 RAE02 SLP104 P0000 60000 T01440117 10228 20144 50004,M
VGT,2022-09-14 06:06,-115.1933,36.2111,667.00,80.00,57.00,45.21,60.00,9.00,0.00,29.83,M,10.00,M,BKN,OVC,M,M,8000.00,9000.00,M,M,VCTS,M,M,M,M,M,M,80.45,KVGT 140606Z AUTO 06009KT 10SM VCTS BKN080 OVC090 27/14 A2983 RMK AO2 LTG DSNT ALQDS T02670139,M
LAS,2022-09-14 06:07,-115.1634,36.0719,663.00,76.00,59.00,55.80,30.00,23.00,0.00,29.83,M,10.00,31.00,BKN,BKN,M,M,7500.00,8500.00,M,M,VCTS,M,M,M,31.00,20.00,2022-09-14 06:06,75.90,KLAS 140607Z 03023G31KT 10SM VCTS BKN075CB BKN085 24/15 A2983 RMK AO2 PK WND 02031/0606 LTG DSNT NW-E OCNL LTGIC VC NW-NE-E TSB05 TS VC NW-NE-E T02440150,M
RTS,2022-09-14 06:15,-119.8764,39.6682,1539.00,57.20,33.80,41.13,320.00,4.00,0.00,29.98,M,2.00,11.00,OVC,M,M,M,300.00,M,M,M,HZ,M,M,M,M,M,M,57.20,KRTS 140615Z AUTO 32004G11KT 2SM HZ OVC003 14/01 A2998 RMK AO2,M
BAM,2022-09-14 06:15,-116.8743,40.5990,1382.36,59.00,51.80,76.98,160.00,6.00,0.00,29.93,M,10.00,M,CLR,M,M,M,M,M,M,M,M,M,M,M,M,M,M,59.00,KBAM 140615Z AUTO 16006KT 10SM CLR 15/11 A2993 RMK AO1,M
TMT,2022-09-14 06:15,-117.1971,39.4643,1749.34,M,M,M,190.00,6.00,0.00,29.99,M,10.00,M,CLR,M,M,M,M,M,M,M,M,M,M,M,M,M,M,M,KTMT 140615Z AUTO 19006KT 10SM CLR A2999 RMK AO2,M
MEV,2022-09-14 06:15,-119.7500,38.9963,1441.42,51.80,33.80,50.08,130.00,7.00,0.00,29.95,M,10.00,M,CLR,M,M,M,M,M,M,M,M,M,M,M,M,M,M,51.80,KMEV 140615Z AUTO 13007KT 10SM CLR 11/01 A2995 RMK AO2,M
HTH,2022-09-14 06:15,-118.6315,38.5448,1282.89,68.00,51.80,56.13,130.00,9.00,0.00,29.91,M,10.00,M,SCT,M,M,M,12000.00,M,M,M,M,M,M,M,M,M,M,68.00,KHTH 140615Z AUTO 13009KT 10SM SCT120 20/11 A2991 RMK A01,M
CXP,2022-09-14 06:15,-119.7326,39.1923,1431.00,59.00,39.20,47.72,0.00,0.00,0.00,29.96,M,10.00,M,CLR,M,M,M,M,M,M,M,M,M,M,M,M,M,M,59.00,KCXP 140615Z AUTO 00000KT 10SM CLR 15/04 A2996 RMK AO2,M
BVU,2022-09-14 06:15,-114.8611,35.9475,671.00,77.00,60.80,57.36,20.00,11.00,0.00,29.82,M,M,21.00,M,M,M,M,M,M,M,M,M,M,M,M,M,M,M,77.00,KBVU 140615Z AUTO 02011G21KT 25/16 A2982 RMK AO2 TSNO,M
INS,2022-09-14 06:21,-115.6733,36.5872,955.00,66.20,59.00,77.60,10.00,6.00,0.00,29.90,1008.50,10.00,M,BKN,OVC,M,M,8000.00,12000.00,M,M,M,M,M,M,M,M,M,66.20,KINS 140621Z AUTO 01006KT 10SM BKN080 OVC120 19/15 A2990 RMK AO2 LTG DSNT NE SLP085 $,M
RTS,2022-09-14 06:35,-119.8764,39.6682,1539.00,57.20,33.80,41.13,330.00,4.00,0.00,29.98,M,2.00,M,BKN,M,M,M,300.00,M,M,M,HZ,M,M,M,M,M,M,57.20,KRTS 140635Z AUTO 33004KT 2SM HZ BKN003 14/01 A2998 RMK AO2,M
BAM,2022-09-14 06:35,-116.8743,40.5990,1382.36,55.40,51.80,87.65,160.00,5.00,0.00,29.93,M,10.00,M,CLR,M,M,M,M,M,M,M,M,M,M,M,M,M,M,55.40,KBAM 140635Z AUTO 16005KT 10SM CLR 13/11 A2993 RMK AO1,M
BVU,2022-09-14 06:35,-114.8611,35.9475,671.00,75.20,60.80,60.90,10.00,10.00,0.00,29.83,M,M,15.00,M,M,M,M,M,M,M,M,M,M,M,M,M,M,M,75.20,KBVU 140635Z AUTO 01010G15KT 24/16 A2983 RMK AO2 TSNO,M
TMT,2022-09-14 06:35,-117.1971,39.4643,1749.34,M,M,M,200.00,5.00,0.00,30.00,M,10.00,M,SCT,M,M,M,9000.00,M,M,M,M,M,M,M,M,M,M,M,KTMT 140635Z AUTO 20005KT 10SM SCT090 A3000 RMK AO2 LTG DSNT NW,M
CXP,2022-09-14 06:35,-119.7326,39.1923,1431.00,59.00,39.20,47.72,50.00,3.00,0.00,29.96,M,10.00,M,CLR,M,M,M,M,M,M,M,M,M,M,M,M,M,M,59.00,KCXP 140635Z AUTO 05003KT 10SM CLR 15/04 A2996 RMK AO2,M
MEV,2022-09-14 06:35,-119.7500,38.9963,1441.42,50.00,35.60,57.52,M,4.00,0.00,29.95,M,10.00,M,FEW,M,M,M,4800.00,M,M,M,M,M,M,M,M,M,M,50.00,KMEV 140635Z AUTO VRB04KT 10SM FEW048 10/02 A2995 RMK AO2,M
HTH,2022-09-14 06:35,-118.6315,38.5448,1282.89,68.00,51.80,56.13,130.00,8.00,0.00,29.91,M,10.00,M,SCT,M,M,M,11000.00,M,M,M,M,M,M,M,M,M,M,68.00,KHTH 140635Z AUTO 13008KT 10SM SCT110 20/11 A2991 RMK A01,M
VGT,2022-09-14 06:36,-115.1933,36.2111,667.00,75.00,62.00,64.20,30.00,15.00,0.03,29.85,M,9.00,M,OVC,M,M,M,7000.00,M,M,M,-TSRA,M,M,M,M,M,M,75.00,KVGT 140636Z AUTO 03015KT 9SM -TSRA OVC070 24/17 A2985 RMK AO2 LTG DSNT ALQDS RAB19 TSB30 P0003 T02390167,M
LAS,2022-09-14 06:40,-115.1634,36.0719,663.00,74.00,59.00,59.66,20.00,17.00,0.00,29.85,M,10.00,23.00,SCT,BKN,M,M,7500.00,8500.00,M,M,M,M,M,M,31.00,20.00,2022-09-14 06:06,73.90,KLAS 140640Z 02017G23KT 10SM SCT075 BKN085 23/15 A2985 RMK AO2 PK WND 02031/0606 LTG DSNT NW-E TSB05E36 TS MOV N CB DSNT NW-NE SHRA DSNT NW-NE T02330150,M
RNO,2022-09-14 06:44,-119.7711,39.4839,1341.00,63.00,38.00,39.36,0.00,0.00,0.00,29.94,M,2.00,M,SCT,M,M,M,2500.00,M,M,M,FU,M,M,M,M,M,M,63.00,KRNO 140644Z 00000KT 2SM FU SCT025 17/03 A2994 RMK AO2 FU SCT025 T01720033,M
VGT,2022-09-14 06:51,-115.1933,36.2111,667.00,73.40,62.60,68.94,360.00,6.00,0.03,29.85,M,10.00,M,OVC,M,M,M,7000.00,M,M,M,VCTS -RA,M,M,M,M,M,M,73.40,KVGT 140651Z AUTO 36006KT 10SM VCTS -RA OVC070 23/17 A2985 RMK AO2 LTG DSNT NW-E RAB19 TSB30E45 P0003,M
DRA,2022-09-14 06:53,-116.0278,36.6206,1009.00,67.00,56.00,67.74,40.00,13.00,0.00,29.89,1008.10,10.00,M,SCT,BKN,M,M,7000.00,8500.00,M,M,M,M,M,M,M,M,M,66.90,KDRA 140653Z AUTO 04013KT 10SM SCT070 BKN085 19/13 A2989 RMK AO2 SLP081 T01940133,M
LOL,2022-09-14 06:53,-118.5701,40.0684,1192.43,58.00,44.00,59.98,150.00,6.00,0.00,29.88,1009.60,4.00,M,OVC,M,M,M,5000.00,M,M,M,HZ,M,M,M,M,M,M,57.90,KLOL 140653Z AUTO 15006KT 4SM HZ OVC050 14/07 A2988 RMK AO2 SLP096 T01440067 $,M
VGT,2022-09-14 06:53,-115.1933,36.2111,667.00,74.00,63.00,68.76,360.00,6.00,0.03,29.85,1010.10,10.00,M,OVC,M,M,M,7000.00,M,M,M,VCTS -RA,M,M,M,M,M,M,73.90,KVGT 140653Z AUTO 36006KT 10SM VCTS -RA OVC070 23/17 A2985 RMK AO2 LTG DSNT N-E RAB19 TSB30E45 SLP101 P0003 T02330172,M
ELY,2022-09-14 06:53,-114.8453,39.2950,1909.00,52.00,50.00,92.86,170.00,4.00,0.00,30.06,1011.30,10.00,M,CLR,M,M,M,M,M,M,M,M,M,M,M,M,M,M,52.00,KELY 140653Z AUTO 17004KT 10SM CLR 11/10 A3006 RMK AO2 SLP113 T01110100 401720111 $,M
P68,2022-09-14 06:53,-116.0056,39.6014,1993.00,53.00,51.00,92.89,0.00,0.00,0.00,30.00,1010.40,M,M,M,M,M,M,M,M,M,M,M,M,M,M,M,M,M,53.10,KP68 140653Z AUTO 00000KT 12/11 A3000 RMK AO1 SLP104 T01170106,M
TMT,2022-09-14 06:55,-117.1971,39.4643,1749.34,M,M,M,180.00,3.00,0.00,30.00,M,10.00,M,BKN,M,M,M,9000.00,M,M,M,TS,M,M,M,M,M,M,M,KTMT 140655Z AUTO 18003KT 10SM TS BKN090 A3000 RMK AO2 LTG DSNT NW,M
BVU,2022-09-14 06:55,-114.8611,35.9475,671.00,75.20,60.80,60.90,30.00,9.00,0.00,29.83,M,M,M,M,M,M,M,M,M,M,M,M,M,M,M,M,M,M,75.20,KBVU 140655Z AUTO 03009KT 24/16 A2983 RMK AO2 TSNO,M
CXP,2022-09-14 06:55,-119.7326,39.1923,1431.00,57.20,37.40,47.44,0.00,0.00,0.00,29.96,M,10.00,M,CLR,M,M,M,M,M,M,M,VCTS,M,M,M,M,M,M,57.20,KCXP 140655Z AUTO 00000KT 10SM VCTS CLR 14/03 A2996 RMK AO2 LTG DSNT E,M
RNO,2022-09-14 06:55,-119.7711,39.4839,1341.00,63.00,38.00,39.36,280.00,3.00,0.00,29.94,1008.80,2.00,M,SCT,M,M,M,2500.00,M,M,M,FU,M,M,M,M,M,M,63.00,KRNO 140655Z 28003KT 2SM FU SCT025 17/03 A2994 RMK AO2 SLP088 FU SCT025 T01720033,M
RTS,2022-09-14 06:55,-119.8764,39.6682,1539.00,53.60,33.80,46.88,0.00,0.00,0.00,29.98,M,2.00,M,BKN,M,M,M,300.00,M,M,M,HZ,M,M,M,M,M,M,53.60,KRTS 140655Z AUTO 00000KT 2SM HZ BKN003 12/01 A2998 RMK AO2,M
MEV,2022-09-14 06:55,-119.7500,38.9963,1441.42,48.20,37.40,66.05,200.00,3.00,0.00,29.95,M,10.00,M,CLR,M,M,M,M,M,M,M,VCTS,M,M,M,M,M,M,47.21,KMEV 140655Z AUTO 20003KT 10SM VCTS CLR 09/03 A2995 RMK AO2 LTG DSNT E,M
BAM,2022-09-14 06:55,-116.8743,40.5990,1382.36,57.20,51.80,82.12,150.00,4.00,0.00,29.92,M,10.00,M,CLR,M,M,M,M,M,M,M,M,M,M,M,M,M,M,57.20,KBAM 140655Z AUTO 15004KT 10SM CLR 14/11 A2992 RMK AO1,M
HTH,2022-09-14 06:55,-118.6315,38.5448,1282.89,68.00,51.80,56.13,140.00,4.00,0.00,29.91,M,10.00,M,SCT,OVC,M,M,8000.00,11000.00,M,M,M,M,M,M,M,M,M,68.00,KHTH 140655Z AUTO 14004KT 10SM SCT080 OVC110 20/11 A2991 RMK A01,M
TPH,2022-09-14 06:56,-117.0904,38.0505,1654.00,58.00,54.00,86.82,250.00,5.00,0.00,30.01,1010.30,10.00,M,BKN,OVC,M,M,8500.00,11000.00,M,M,M,M,M,M,M,M,M,57.90,KTPH 140656Z AUTO 25005KT 10SM BKN085 OVC110 14/12 A3001 RMK AO2 SLP103 T01440122,M
EKO,2022-09-14 06:56,-115.7860,40.8242,1367.00,53.00,50.00,89.18,110.00,4.00,0.00,29.95,1010.70,10.00,M,CLR,M,M,M,M,M,M,M,M,M,M,M,M,M,M,53.10,KEKO 140656Z AUTO 11004KT 10SM CLR 12/10 A2995 RMK AO2 SLP107 T01170100,M
WMC,2022-09-14 06:56,-117.8072,40.9019,1315.00,56.00,51.00,83.88,0.00,0.00,0.00,29.90,1009.30,10.00,M,CLR,M,M,M,M,M,M,M,M,M,M,M,M,M,M,55.90,KWMC 140656Z AUTO 00000KT 10SM CLR 13/11 A2990 RMK AO2 LTG DSNT SE SLP093 T01330106,M
INS,2022-09-14 06:56,-115.6733,36.5872,955.00,65.50,59.50,80.94,0.00,0.00,0.00,29.90,1008.30,10.00,M,SCT,OVC,M,M,6500.00,8000.00,M,M,M,M,M,M,M,M,M,65.50,KINS 140656Z AUTO 00000KT 10SM SCT065 OVC080 19/15 A2990 RMK AO2 SLP083 T01860153 $,M
LSV,2022-09-14 06:56,-115.0343,36.2362,570.00,71.80,65.30,79.99,40.00,20.00,0.00,29.83,1007.90,10.00,26.00,BKN,M,M,M,8000.00,M,M,M,M,M,M,M,29.00,30.00,2022-09-14 05:58,71.80,KLSV 140656Z AUTO 04020G26KT 10SM BKN080 22/19 A2983 RMK AO2 PK WND 03029/0558 LTG DSNT E AND S SLP079 T02210185 $,M
NFL,2022-09-14 06:56,-118.7010,39.4166,1199.00,64.00,37.00,36.68,10.00,4.00,0.00,29.89,1009.70,3.00,M,BKN,BKN,OVC,M,3000.00,5000.00,10000.00,M,FU,M,M,M,M,M,M,64.00,KNFL 140656Z 01004KT 3SM FU BKN030 BKN050 OVC100 18/03 A2989 RMK AO2 SLP097 FU BKN030 T01780028,M
LAS,2022-09-14 06:56,-115.1634,36.0719,663.00,73.00,58.00,59.12,20.00,18.00,0.00,29.85,1008.50,10.00,25.00,SCT,BKN,BKN,M,7500.00,8500.00,15000.00,M,M,M,M,M,31.00,20.00,2022-09-14 06:06,73.00,KLAS 140656Z 02018G25KT 10SM SCT075 BKN085 BKN150 23/14 A2985 RMK AO2 PK WND 02031/0606 LTG DSNT NW-NE SLP085 TSB05E36 CB DSNT NW-NE SHRA DSNT NW-NE T02280144,M
LSV,2022-09-14 06:57,-115.0343,36.2362,570.00,71.60,66.20,83.09,40.00,24.00,0.00,29.82,1007.60,10.00,M,BKN,M,M,M,8000.00,M,M,M,M,M,M,M,M,M,M,71.60,KLSV 140657Z AUTO 04024KT 10SM BKN080 22/19 A2982 RMK AO2 WSHFT 51 LTG DSNT E AND S SLP076 $,M
NFL,2022-09-14 07:08,-118.7010,39.4166,1199.00,63.00,38.00,39.36,360.00,4.00,0.00,29.89,M,3.00,M,OVC,M,M,M,2900.00,M,M,M,HZ,M,M,M,M,M,M,63.00,KNFL 140708Z AUTO 36004KT 3SM HZ OVC029 17/03 A2989 RMK AO2 T01720033,M
BAM,2022-09-14 07:15,-116.8743,40.5990,1382.36,57.20,51.80,82.12,70.00,3.00,0.00,29.93,M,10.00,M,CLR,M,M,M,M,M,M,M,M,M,M,M,M,M,M,57.20,KBAM 140715Z AUTO 07003KT 10SM CLR 14/11 A2993 RMK AO1,M
MEV,2022-09-14 07:15,-119.7500,38.9963,1441.42,46.40,37.40,70.68,90.00,6.00,0.00,29.95,M,10.00,M,CLR,M,M,M,M,M,M,M,M,M,M,M,M,M,M,42.87,KMEV 140715Z AUTO 09006KT 10SM CLR 08/03 A2995 RMK AO2,M
RTS,2022-09-14 07:15,-119.8764,39.6682,1539.00,55.40,37.40,50.64,0.00,0.00,0.00,29.98,M,2.00,M,BKN,M,M,M,300.00,M,M,M,HZ,M,M,M,M,M,M,55.40,KRTS 140715Z AUTO 00000KT 2SM HZ BKN003 13/03 A2998 RMK AO2,M
CXP,2022-09-14 07:15,-119.7326,39.1923,1431.00,55.40,39.20,54.34,0.00,0.00,0.00,29.96,M,10.00,M,CLR,M,M,M,M,M,M,M,M,M,M,M,M,M,M,55.40,KCXP 140715Z AUTO 00000KT 10SM CLR 13/04 A2996 RMK AO2,M
BVU,2022-09-14 07:15,-114.8611,35.9475,671.00,75.20,60.80,60.90,30.00,12.00,0.00,29.83,M,M,M,M,M,M,M,M,M,M,M,M,M,M,M,M,M,M,75.20,KBVU 140715Z AUTO 03012KT 24/16 A2983 RMK AO2 TSNO,M
TMT,2022-09-14 07:15,-117.1971,39.4643,1749.34,M,M,M,0.00,0.00,0.00,30.01,M,10.00,M,OVC,M,M,M,9000.00,M,M,M,M,M,M,M,M,M,M,M,KTMT 140715Z AUTO 00000KT 10SM OVC090 A3001 RMK AO2,M
HTH,2022-09-14 07:15,-118.6315,38.5448,1282.89,66.20,51.80,59.74,70.00,10.00,0.00,29.91,M,10.00,M,BKN,OVC,M,M,8500.00,11000.00,M,M,M,M,M,M,M,M,M,66.20,KHTH 140715Z AUTO 07010KT 10SM BKN085 OVC110 19/11 A2991 RMK A01,M
VGT,2022-09-14 07:18,-115.1933,36.2111,667.00,73.00,62.00,68.66,40.00,10.00,0.01,29.84,M,10.00,M,BKN,M,M,M,6500.00,M,M,M,M,M,M,M,M,M,M,73.00,KVGT 140718Z AUTO 04010KT 10SM BKN065 23/17 A2984 RMK AO2 LTG DSNT N AND NE RAE01 P0001 T02280167,M
RTS,2022-09-14 07:35,-119.8764,39.6682,1539.00,53.60,35.60,50.36,0.00,0.00,0.00,29.97,M,2.00,M,FEW,M,M,M,300.00,M,M,M,HZ,M,M,M,M,M,M,53.60,KRTS 140735Z AUTO 00000KT 2SM HZ FEW003 12/02 A2997 RMK AO2,M
MEV,2022-09-14 07:35,-119.7500,38.9963,1441.42,46.40,33.80,61.28,120.00,7.00,0.00,29.94,M,10.00,M,FEW,M,M,M,8500.00,M,M,M,M,M,M,M,M,M,M,42.33,KMEV 140735Z AUTO 12007KT 10SM FEW085 08/01 A2994 RMK AO2,M
BAM,2022-09-14 07:35,-116.8743,40.5990,1382.36,55.40,50.00,81.99,60.00,4.00,0.00,29.93,M,10.00,M,CLR,M,M,M,M,M,M,M,M,M,M,M,M,M,M,55.40,KBAM 140735Z AUTO 06004KT 10SM CLR 13/10 A2993 RMK AO1,M
HTH,2022-09-14 07:35,-118.6315,38.5448,1282.89,66.20,51.80,59.74,90.00,7.00,0.00,29.91,M,10.00,14.00,SCT,OVC,M,M,8500.00,11000.00,M,M,M,M,M,M,M,M,M,66.20,KHTH 140735Z AUTO 09007G14KT 10SM SCT085 OVC110 19/11 A2991 RMK A01,M
TMT,2022-09-14 07:35,-117.1971,39.4643,1749.34,M,M,M,260.00,6.00,0.00,30.01,M,10.00,M,SCT,OVC,M,M,9000.00,10000.00,M,M,M,M,M,M,M,M,M,M,KTMT 140735Z AUTO 26006KT 10SM SCT090 OVC100 A3001 RMK AO2,M
BVU,2022-09-14 07:35,-114.8611,35.9475,671.00,73.40,62.60,68.94,320.00,12.00,0.00,29.84,M,M,M,M,M,M,M,M,M,M,M,M,M,M,M,M,M,M,73.40,KBVU 140735Z AUTO 32012KT 23/17 A2984 RMK AO2 TSNO,M
CXP,2022-09-14 07:35,-119.7326,39.1923,1431.00,55.40,37.40,50.64,0.00,0.00,0.00,29.96,M,10.00,M,BKN,M,M,M,9000.00,M,M,M,M,M,M,M,M,M,M,55.40,KCXP 140735Z AUTO 00000KT 10SM BKN090 13/03 A2996 RMK AO2,M
LOL,2022-09-14 07:53,-118.5701,40.0684,1192.43,59.00,40.00,49.04,90.00,3.00,0.00,29.89,1009.60,6.00,M,BKN,OVC,M,M,4000.00,9000.00,M,M,HZ,M,M,M,M,M,M,59.00,KLOL 140753Z AUTO 09003KT 6SM HZ BKN040 OVC090 15/04 A2989 RMK AO2 SLP096 T01500044 402670133 $,M
VGT,2022-09-14 07:53,-115.1933,36.2111,667.00,72.00,61.00,68.31,80.00,8.00,0.01,29.86,1010.50,10.00,M,BKN,OVC,M,M,6500.00,7500.00,M,M,M,M,M,M,M,M,M,72.00,KVGT 140753Z AUTO 08008KT 10SM BKN065 OVC075 22/16 A2986 RMK AO2 RAE01B43E53 SLP105 P0001 T02220161 403390222,M
DRA,2022-09-14 07:53,-116.0278,36.6206,1009.00,66.00,57.00,72.72,360.00,10.00,0.00,29.93,1009.30,10.00,M,BKN,OVC,M,M,6000.00,8000.00,M,M,M,M,M,M,M,M,M,66.00,KDRA 140753Z AUTO 36010KT 10SM BKN060 OVC080 19/14 A2993 RMK AO2 PRESRR SLP093 T01890139 403060178,M
P68,2022-09-14 07:53,-116.0056,39.6014,1993.00,54.00,52.00,92.92,0.00,0.00,0.00,30.01,1010.00,M,M,M,M,M,M,M,M,M,M,M,M,M,M,M,M,M,54.00,KP68 140753Z AUTO 00000KT 12/11 A3001 RMK AO1 SLP100 T01220111 401940111,M
ELY,2022-09-14 07:53,-114.8453,39.2950,1909.00,50.00,50.00,100.00,310.00,5.00,0.00,30.04,1011.00,10.00,M,CLR,M,M,M,M,M,M,M,M,M,M,M,M,M,M,50.00,KELY 140753Z AUTO 31005KT 10SM CLR 10/10 A3004 RMK AO2 SLP110 T01000100 $,M
TMT,2022-09-14 07:55,-117.1971,39.4643,1749.34,M,M,M,250.00,4.00,0.00,30.01,M,10.00,M,OVC,M,M,M,11000.00,M,M,M,M,M,M,M,M,M,M,M,KTMT 140755Z AUTO 25004KT 10SM OVC110 A3001 RMK AO2,M
BVU,2022-09-14 07:55,-114.8611,35.9475,671.00,71.60,62.60,73.27,340.00,9.00,0.00,29.85,M,M,M,M,M,M,M,M,M,M,M,M,M,M,M,M,M,M,71.60,KBVU 140755Z AUTO 34009KT 22/17 A2985 RMK AO2 TSNO,M
CXP,2022-09-14 07:55,-119.7326,39.1923,1431.00,55.40,37.40,50.64,310.00,4.00,0.00,29.95,M,10.00,M,SCT,M,M,M,9000.00,M,M,M,M,M,M,M,M,M,M,55.40,KCXP 140755Z AUTO 31004KT 10SM SCT090 13/03 A2995 RMK AO2,M
RTS,2022-09-14 07:55,-119.8764,39.6682,1539.00,53.60,35.60,50.36,0.00,0.00,0.00,29.98,M,2.00,M,BKN,M,M,M,300.00,M,M,M,HZ,M,M,M,M,M,M,53.60,KRTS 140755Z AUTO 00000KT 2SM HZ BKN003 12/02 A2998 RMK AO2,M
MEV,2022-09-14 07:55,-119.7500,38.9963,1441.42,44.60,33.80,65.61,130.00,6.00,0.00,29.94,M,10.00,M,SCT,M,M,M,9000.00,M,M,M,M,M,M,M,M,M,M,40.71,KMEV 140755Z AUTO 13006KT 10SM SCT090 07/01 A2994 RMK AO2,M
BAM,2022-09-14 07:55,-116.8743,40.5990,1382.36,55.40,48.20,76.66,60.00,6.00,0.00,29.93,M,10.00,M,CLR,M,M,M,M,M,M,M,M,M,M,M,M,M,M,55.40,KBAM 140755Z AUTO 06006KT 10SM CLR 13/09 A2993 RMK AO1,M
RNO,2022-09-14 07:55,-119.7711,39.4839,1341.00,61.00,38.00,42.24,260.00,3.00,0.00,29.94,1008.70,2.00,M,SCT,M,M,M,2300.00,M,M,M,FU,M,M,M,M,M,M,61.00,KRNO 140755Z 26003KT 2SM FU SCT023 16/03 A2994 RMK AO2 SLP087 FU SCT023 T01610033 402890161,M
HTH,2022-09-14 07:55,-118.6315,38.5448,1282.89,66.20,51.80,59.74,270.00,5.00,0.00,29.91,M,10.00,M,OVC,M,M,M,11000.00,M,M,M,M,M,M,M,M,M,M,66.20,KHTH 140755Z AUTO 27005KT 10SM OVC110 19/11 A2991 RMK A01,M
INS,2022-09-14 07:56,-115.6733,36.5872,955.00,68.20,56.30,65.71,250.00,4.00,0.00,29.92,1008.80,10.00,M,BKN,OVC,M,M,5000.00,6500.00,M,M,M,M,M,M,M,M,M,68.20,KINS 140756Z AUTO 25004KT 10SM BKN050 OVC065 20/14 A2992 RMK AO2 SLP088 T02010135 402870184 $,M
LSV,2022-09-14 07:56,-115.0343,36.2362,570.00,69.00,68.50,97.96,50.00,19.00,0.00,29.83,1008.00,10.00,22.00,BKN,M,M,M,8000.00,M,M,M,M,M,M,M,30.00,40.00,2022-09-14 07:21,69.10,KLSV 140756Z AUTO 05019G22KT 10SM BKN080 21/20 A2983 RMK AO2 PK WND 04030/21 SLP080 T02060203 403240206 $,M
NFL,2022-09-14 07:56,-118.7010,39.4166,1199.00,62.00,36.00,37.69,10.00,4.00,0.00,29.89,1009.60,2.50,M,BKN,OVC,M,M,2600.00,12000.00,M,M,HZ,M,M,M,M,M,M,62.10,KNFL 140756Z AUTO 01004KT 2 1/2SM HZ BKN026 OVC120 17/02 A2989 RMK AO2 SLP096 T01670022 402890150,M
TPH,2022-09-14 07:56,-117.0904,38.0505,1654.00,58.00,53.00,84.00,230.00,5.00,0.00,30.01,1010.10,10.00,M,OVC,M,M,M,12000.00,M,M,M,M,M,M,M,M,M,M,57.90,KTPH 140756Z AUTO 23005KT 10SM OVC120 14/12 A3001 RMK AO2 SLP101 T01440117 402330139,M
EKO,2022-09-14 07:56,-115.7860,40.8242,1367.00,51.00,49.00,92.14,0.00,0.00,0.00,29.95,1010.90,10.00,M,CLR,M,M,M,M,M,M,M,M,M,M,M,M,M,M,51.10,KEKO 140756Z AUTO 00000KT 10SM CLR 11/09 A2995 RMK AO2 SLP109 T01060094 402000106,M
LAS,2022-09-14 07:56,-115.1634,36.0719,663.00,70.00,58.00,65.45,30.00,13.00,0.00,29.88,1009.40,10.00,22.00,SCT,BKN,M,M,10000.00,15000.00,M,M,M,M,M,M,26.00,30.00,2022-09-14 07:28,70.00,KLAS 140756Z 03013G22KT 10SM SCT100 BKN150 21/14 A2988 RMK AO2 PK WND 03026/0728 SLP094 CB DSNT N-NE T02110144 403280211,M
WMC,2022-09-14 07:56,-117.8072,40.9019,1315.00,54.00,51.00,89.88,0.00,0.00,0.00,29.90,1009.10,10.00,M,CLR,M,M,M,M,M,M,M,M,M,M,M,M,M,M,54.00,KWMC 140756Z AUTO 00000KT 10SM CLR 12/11 A2990 RMK AO2 SLP091 T01220106 402390122,M
NFL,2022-09-14 08:07,-118.7010,39.4166,1199.00,61.00,36.00,39.19,50.00,5.00,0.00,29.89,M,2.50,M,FEW,OVC,M,M,2500.00,12000.00,M,M,HZ,M,M,M,M,M,M,61.00,KNFL 140807Z AUTO 05005KT 2 1/2SM HZ FEW025 OVC120 16/02 A2989 RMK AO2 T01610022,M
BVU,2022-09-14 08:15,-114.8611,35.9475,671.00,71.60,62.60,73.27,10.00,8.00,0.00,29.86,M,M,18.00,M,M,M,M,M,M,M,M,M,M,M,M,M,M,M,71.60,KBVU 140815Z AUTO 01008G18KT 22/17 A2986 RMK AO2 TSNO,M
CXP,2022-09-14 08:15,-119.7326,39.1923,1431.00,55.40,37.40,50.64,0.00,0.00,0.00,29.96,M,10.00,M,CLR,M,M,M,M,M,M,M,M,M,M,M,M,M,M,55.40,KCXP 140815Z AUTO 00000KT 10SM CLR 13/03 A2996 RMK AO2,M
RTS,2022-09-14 08:15,-119.8764,39.6682,1539.00,51.80,35.60,53.81,0.00,0.00,0.00,29.98,M,2.00,M,SCT,SCT,M,M,300.00,9500.00,M,M,HZ,M,M,M,M,M,M,51.80,KRTS 140815Z AUTO 00000KT 2SM HZ SCT003 SCT095 11/02 A2998 RMK AO2,M
MEV,2022-09-14 08:15,-119.7500,38.9963,1441.42,46.40,35.60,65.83,190.00,3.00,0.00,29.95,M,10.00,M,FEW,M,M,M,9000.00,M,M,M,M,M,M,M,M,M,M,45.15,KMEV 140815Z AUTO 19003KT 10SM FEW090 08/02 A2995 RMK AO2,M
BAM,2022-09-14 08:15,-116.8743,40.5990,1382.36,55.40,48.20,76.66,70.00,7.00,0.00,29.93,M,10.00,M,CLR,M,M,M,M,M,M,M,M,M,M,M,M,M,M,55.40,KBAM 140815Z AUTO 07007KT 10SM CLR 13/09 A2993 RMK AO1,M
HTH,2022-09-14 08:15,-118.6315,38.5448,1282.89,66.20,51.80,59.74,240.00,4.00,0.00,29.91,M,10.00,M,OVC,M,M,M,11000.00,M,M,M,M,M,M,M,M,M,M,66.20,KHTH 140815Z AUTO 24004KT 10SM OVC110 19/11 A2991 RMK A01,M
TMT,2022-09-14 08:15,-117.1971,39.4643,1749.34,53.20,51.00,91.87,240.00,4.00,0.00,30.02,M,10.00,M,BKN,M,M,M,12000.00,M,M,M,VCTS,M,M,M,M,M,M,53.20,KTMT 140815Z AUTO 24004KT 10SM VCTS BKN120 12/11 A3002 RMK AO2 T01180105,M
NFL,2022-09-14 08:16,-118.7010,39.4166,1199.00,60.00,37.00,42.09,60.00,6.00,0.00,29.89,M,3.00,M,FEW,OVC,M,M,2500.00,12000.00,M,M,HZ,M,M,M,M,M,M,60.10,KNFL 140816Z AUTO 06006KT 3SM HZ FEW025 OVC120 16/03 A2989 RMK AO2 T01560028,M
INS,2022-09-14 08:34,-115.6733,36.5872,955.00,68.00,57.20,68.35,330.00,5.00,0.00,29.92,1008.80,10.00,M,SCT,BKN,BKN,OVC,5500.00,8000.00,9500.00,14000.00,-RA,M,M,M,M,M,M,68.00,KINS 140834Z AUTO 33005KT 10SM -RA SCT055 BKN080 BKN095 OVC140 20/14 A2992 RMK AO2 RAB34 SLP088 $,M
BAM,2022-09-14 08:35,-116.8743,40.5990,1382.36,55.40,48.20,76.66,80.00,5.00,0.00,29.93,M,10.00,M,CLR,M,M,M,M,M,M,M,M,M,M,M,M,M,M,55.40,KBAM 140835Z AUTO 08005KT 10SM CLR 13/09 A2993 RMK AO1,M
TMT,2022-09-14 08:35,-117.1971,39.4643,1749.34,M,M,M,170.00,4.00,0.00,30.02,M,10.00,M,SCT,M,M,M,9000.00,M,M,M,M,M,M,M,M,M,M,M,KTMT 140835Z AUTO 17004KT 10SM SCT090 A3002 RMK AO2,M
HTH,2022-09-14 08:35,-118.6315,38.5448,1282.89,66.20,51.80,59.74,220.00,4.00,0.00,29.91,M,10.00,M,SCT,M,M,M,11000.00,M,M,M,M,M,M,M,M,M,M,66.20,KHTH 140835Z AUTO 22004KT 10SM SCT110 19/11 A2991 RMK A01,M
MEV,2022-09-14 08:35,-119.7500,38.9963,1441.42,48.20,37.40,66.05,180.00,3.00,0.00,29.95,M,10.00,M,CLR,M,M,M,M,M,M,M,M,M,M,M,M,M,M,47.21,KMEV 140835Z AUTO 18003KT 10SM CLR 09/03 A2995 RMK AO2,M
RTS,2022-09-14 08:35,-119.8764,39.6682,1539.00,53.60,33.80,46.88,M,3.00,0.00,29.98,M,2.50,M,FEW,BKN,M,M,2000.00,9000.00,M,M,HZ,M,M,M,M,M,M,53.60,KRTS 140835Z AUTO VRB03KT 2 1/2SM HZ FEW020 BKN090 12/01 A2998 RMK AO2,M
CXP,2022-09-14 08:35,-119.7326,39.1923,1431.00,57.20,35.60,44.19,310.00,4.00,0.00,29.96,M,10.00,M,SCT,M,M,M,9000.00,M,M,M,M,M,M,M,M,M,M,57.20,KCXP 140835Z AUTO 31004KT 10SM SCT090 14/02 A2996 RMK AO2,M
BVU,2022-09-14 08:35,-114.8611,35.9475,671.00,69.80,60.80,73.09,20.00,16.00,0.00,29.86,M,M,25.00,M,M,M,M,M,M,M,M,M,M,M,M,M,M,M,69.80,KBVU 140835Z AUTO 02016G25KT 21/16 A2986 RMK AO2 TSNO,M
NFL,2022-09-14 08:41,-118.7010,39.4166,1199.00,61.00,37.00,40.77,50.00,3.00,0.00,29.89,M,3.00,M,BKN,OVC,M,M,2900.00,12000.00,M,M,HZ,M,M,M,M,M,M,61.00,KNFL 140841Z AUTO 05003KT 3SM HZ BKN029 OVC120 16/03 A2989 RMK AO2 T01610028,M
INS,2022-09-14 08:52,-115.6733,36.5872,955.00,66.20,59.00,77.60,320.00,5.00,0.00,29.93,1009.20,10.00,M,BKN,OVC,M,M,5000.00,9000.00,M,M,M,M,M,M,M,M,M,66.20,KINS 140852Z AUTO 32005KT 10SM BKN050 OVC090 19/15 A2993 RMK AO2 RAB34E47DZB47E52 SLP092 $,M
DRA,2022-09-14 08:53,-116.0278,36.6206,1009.00,64.00,56.00,74.93,30.00,15.00,T,29.94,1009.50,10.00,22.00,OVC,M,M,M,6000.00,M,M,M,M,M,M,M,M,M,M,64.00,KDRA 140853Z AUTO 03015G22KT 10SM OVC060 18/13 A2994 RMK AO2 RAB05E30 SLP095 P0000 60000 T01780133 53015,M
VGT,2022-09-14 08:53,-115.1933,36.2111,667.00,71.00,60.00,68.21,80.00,9.00,0.00,29.87,1010.70,10.00,M,SCT,M,M,M,11000.00,M,M,M,M,M,M,M,M,M,M,71.10,KVGT 140853Z AUTO 08009KT 10SM SCT110 22/16 A2987 RMK AO2 SLP107 60004 T02170156 53005,M
LOL,2022-09-14 08:53,-118.5701,40.0684,1192.43,58.00,40.00,51.02,280.00,6.00,0.00,29.89,1009.50,5.00,M,OVC,M,M,M,4400.00,M,M,M,HZ,M,M,M,M,M,M,57.90,KLOL 140853Z AUTO 28006KT 5SM HZ OVC044 14/04 A2989 RMK AO2 SLP095 T01440044 50004 $,M
ELY,2022-09-14 08:53,-114.8453,39.2950,1909.00,51.00,49.00,92.14,110.00,4.00,0.00,30.04,1010.80,10.00,M,CLR,M,M,M,M,M,M,M,M,M,M,M,M,M,M,51.10,KELY 140853Z AUTO 11004KT 10SM CLR 11/09 A3004 RMK AO2 SLP108 T01060094 58002 $,M
P68,2022-09-14 08:53,-116.0056,39.6014,1993.00,56.00,51.00,83.88,190.00,5.00,0.00,30.00,1009.20,M,M,M,M,M,M,M,M,M,M,M,M,M,M,M,M,M,55.90,KP68 140853Z AUTO 19005KT 13/11 A3000 RMK AO1 SLP092 T01330106 56005,M
TMT,2022-09-14 08:55,-117.1971,39.4643,1749.34,M,M,M,0.00,0.00,0.00,30.01,M,10.00,M,BKN,M,M,M,9000.00,M,M,M,M,M,M,M,M,M,M,M,KTMT 140855Z AUTO 00000KT 10SM BKN090 A3001 RMK AO2 LTG DSNT N,M
HTH,2022-09-14 08:55,-118.6315,38.5448,1282.89,64.40,51.80,63.60,0.00,0.00,0.00,29.91,M,10.00,M,CLR,M,M,M,M,M,M,M,M,M,M,M,M,M,M,64.40,KHTH 140855Z AUTO 00000KT 10SM CLR 18/11 A2991 RMK A01,M
BAM,2022-09-14 08:55,-116.8743,40.5990,1382.36,57.20,48.20,71.83,80.00,6.00,0.00,29.93,M,10.00,M,CLR,M,M,M,M,M,M,M,M,M,M,M,M,M,M,57.20,KBAM 140855Z AUTO 08006KT 10SM CLR 14/09 A2993 RMK AO1,M
MEV,2022-09-14 08:55,-119.7500,38.9963,1441.42,46.40,35.60,65.83,160.00,4.00,0.00,29.95,M,10.00,M,CLR,M,M,M,M,M,M,M,M,M,M,M,M,M,M,44.24,KMEV 140855Z AUTO 16004KT 10SM CLR 08/02 A2995 RMK AO2,M
RNO,2022-09-14 08:55,-119.7711,39.4839,1341.00,59.00,40.00,49.04,180.00,3.00,0.00,29.94,1008.80,2.50,M,BKN,M,M,M,9000.00,M,M,M,FU,M,M,M,M,M,M,59.00,KRNO 140855Z 18003KT 2 1/2SM FU BKN090 15/04 A2994 RMK AO2 SLP088 T01500044 55001,M
RTS,2022-09-14 08:55,-119.8764,39.6682,1539.00,53.60,33.80,46.88,0.00,0.00,0.00,29.98,M,2.50,M,SCT,SCT,BKN,M,300.00,1900.00,9000.00,M,HZ,M,M,M,M,M,M,53.60,KRTS 140855Z AUTO 00000KT 2 1/2SM HZ SCT003 SCT019 BKN090 12/01 A2998 RMK AO2,M
BVU,2022-09-14 08:55,-114.8611,35.9475,671.00,69.80,60.80,73.09,30.00,19.00,0.00,29.86,M,M,25.00,M,M,M,M,M,M,M,M,M,M,M,M,M,M,M,69.80,KBVU 140855Z AUTO 03019G25KT 21/16 A2986 RMK AO2 TSNO,M
CXP,2022-09-14 08:55,-119.7326,39.1923,1431.00,57.20,35.60,44.19,M,4.00,0.00,29.96,M,10.00,M,BKN,M,M,M,9000.00,M,M,M,M,M,M,M,M,M,M,57.20,KCXP 140855Z AUTO VRB04KT 10SM BKN090 14/02 A2996 RMK AO2,M
TPH,2022-09-14 08:56,-117.0904,38.0505,1654.00,58.00,53.00,84.00,0.00,0.00,0.00,30.01,1010.00,10.00,M,BKN,M,M,M,12000.00,M,M,M,M,M,M,M,M,M,M,57.90,KTPH 140856Z AUTO 00000KT 10SM BKN120 14/12 A3001 RMK AO2 SLP100 T01440117 58000,M
LSV,2022-09-14 08:56,-115.0343,36.2362,570.00,68.40,68.40,100.00,60.00,14.00,0.00,29.86,1009.10,10.00,M,BKN,BKN,M,M,5500.00,11000.00,M,M,M,M,M,M,31.00,40.00,2022-09-14 07:58,68.40,KLSV 140856Z AUTO 06014KT 10SM BKN055 BKN110 20/20 A2986 RMK AO2 PK WND 04031/0758 SLP091 T02020202 52015 $,M
INS,2022-09-14 08:56,-115.6733,36.5872,955.00,66.70,59.70,78.20,310.00,6.00,T,29.93,1009.20,10.00,M,BKN,OVC,M,M,5000.00,9000.00,M,M,M,M,M,M,M,M,M,66.70,KINS 140856Z AUTO 31006KT 10SM BKN050 OVC090 19/15 A2993 RMK AO2 RAB34E47DZB47E52 SLP092 P0000 60000 T01930154 52013 $,M
NFL,2022-09-14 08:56,-118.7010,39.4166,1199.00,60.00,37.00,42.09,0.00,0.00,0.00,29.89,1009.70,3.00,M,OVC,M,M,M,2800.00,M,M,M,HZ,M,M,M,M,M,M,60.10,KNFL 140856Z AUTO 00000KT 3SM HZ OVC028 16/03 A2989 RMK AO2 SLP097 T01560028 51001,M
EKO,2022-09-14 08:56,-115.7860,40.8242,1367.00,49.00,47.00,92.77,0.00,0.00,0.00,29.95,1011.10,10.00,M,CLR,M,M,M,M,M,M,M,M,M,M,M,M,M,M,48.90,KEKO 140856Z AUTO 00000KT 10SM CLR 09/08 A2995 RMK AO2 SLP111 T00940083 55001,M
WMC,2022-09-14 08:56,-117.8072,40.9019,1315.00,53.00,48.00,82.76,0.00,0.00,0.00,29.90,1008.90,10.00,M,FEW,M,M,M,10000.00,M,M,M,M,M,M,M,M,M,M,53.10,KWMC 140856Z AUTO 00000KT 10SM FEW100 12/09 A2990 RMK AO2 SLP089 T01170089 51003,M
LAS,2022-09-14 08:56,-115.1634,36.0719,663.00,69.00,57.00,65.35,50.00,13.00,0.00,29.90,1010.10,10.00,21.00,SCT,BKN,OVC,M,4000.00,9000.00,15000.00,M,M,M,M,M,M,M,M,69.10,KLAS 140856Z 05013G21KT 10SM SCT040 BKN090 OVC150 21/14 A2990 RMK AO2 SLP101 T02060139 52021,M
CXP,2022-09-14 09:10,-119.7326,39.1923,1431.00,57.20,35.60,44.19,0.00,0.00,0.00,29.96,M,10.00,M,OVC,M,M,M,9000.00,M,M,M,M,M,M,M,M,M,M,57.20,KCXP 140910Z AUTO 00000KT 10SM OVC090 14/02 A2996 RMK AO2,M
INS,2022-09-14 09:14,-115.6733,36.5872,955.00,66.20,59.00,77.60,290.00,6.00,0.00,29.94,1009.70,10.00,M,FEW,SCT,OVC,M,2700.00,4500.00,5500.00,M,-RA,M,M,M,M,M,M,66.20,KINS 140914Z AUTO 29006KT 10SM -RA FEW027 SCT045 OVC055 19/15 A2994 RMK AO2 RAB14 SLP097 $,M
RTS,2022-09-14 09:15,-119.8764,39.6682,1539.00,53.60,33.80,46.88,0.00,0.00,0.00,29.98,M,2.50,M,BKN,M,M,M,300.00,M,M,M,HZ,M,M,M,M,M,M,53.60,KRTS 140915Z AUTO 00000KT 2 1/2SM HZ BKN003 12/01 A2998 RMK AO2,M
TMT,2022-09-14 09:15,-117.1971,39.4643,1749.34,M,M,M,210.00,6.00,0.00,30.01,M,10.00,M,SCT,SCT,M,M,9000.00,12000.00,M,M,M,M,M,M,M,M,M,M,KTMT 140915Z AUTO 21006KT 10SM SCT090 SCT120 A3001 RMK AO2,M
HTH,2022-09-14 09:15,-118.6315,38.5448,1282.89,64.40,51.80,63.60,0.00,0.00,0.00,29.91,M,10.00,M,CLR,M,M,M,M,M,M,M,M,M,M,M,M,M,M,64.40,KHTH 140915Z AUTO 00000KT 10SM CLR 18/11 A2991 RMK A01,M
BAM,2022-09-14 09:15,-116.8743,40.5990,1382.36,57.20,48.20,71.83,120.00,4.00,0.00,29.94,M,10.00,M,CLR,M,M,M,M,M,M,M,M,M,M,M,M,M,M,57.20,KBAM 140915Z AUTO 12004KT 10SM CLR 14/09 A2994 RMK AO1,M
MEV,2022-09-14 09:15,-119.7500,38.9963,1441.42,46.40,35.60,65.83,0.00,0.00,0.00,29.95,M,10.00,M,CLR,M,M,M,M,M,M,M,M,M,M,M,M,M,M,46.40,KMEV 140915Z AUTO 00000KT 10SM CLR 08/02 A2995 RMK AO2,M
INS,2022-09-14 09:15,-115.6733,36.5872,955.00,66.20,59.00,77.60,290.00,7.00,0.00,29.94,1009.70,9.00,M,FEW,FEW,SCT,OVC,400.00,2600.00,4500.00,5500.00,-RA,M,M,M,M,M,M,66.20,KINS 140915Z AUTO 29007KT 9SM -RA FEW004 FEW026 SCT045 OVC055 19/15 A2994 RMK AO2 RAB14 SLP097 $,M
BVU,2022-09-14 09:15,-114.8611,35.9475,671.00,69.80,60.80,73.09,30.00,14.00,0.00,29.87,M,M,24.00,M,M,M,M,M,M,M,M,M,M,M,M,M,M,M,69.80,KBVU 140915Z AUTO 03014G24KT 21/16 A2987 RMK AO2 TSNO,M
INS,2022-09-14 09:25,-115.6733,36.5872,955.00,66.20,60.80,82.74,290.00,5.00,0.00,29.95,1010.00,6.00,M,BKN,BKN,OVC,M,300.00,4400.00,5500.00,M,-RA,M,M,M,M,M,M,66.20,KINS 140925Z AUTO 29005KT 6SM -RA BKN003 BKN044 OVC055 19/16 A2995 RMK AO2 RAB14 CIG 003V055 BKN003 V SCT SLP100 $,M
TMT,2022-09-14 09:35,-117.1971,39.4643,1749.34,M,M,M,230.00,6.00,0.00,30.01,M,10.00,M,SCT,M,M,M,11000.00,M,M,M,VCTS,M,M,M,M,M,M,M,KTMT 140935Z AUTO 23006KT 10SM VCTS SCT110 A3001 RMK AO2,M
MEV,2022-09-14 09:35,-119.7500,38.9963,1441.42,44.60,33.80,65.61,0.00,0.00,0.00,29.95,M,10.00,M,FEW,M,M,M,9000.00,M,M,M,M,M,M,M,M,M,M,44.60,KMEV 140935Z AUTO 00000KT 10SM FEW090 07/01 A2995 RMK AO2,M
BAM,2022-09-14 09:35,-116.8743,40.5990,1382.36,57.20,48.20,71.83,0.00,0.00,0.00,29.95,M,10.00,M,SCT,M,M,M,10000.00,M,M,M,M,M,M,M,M,M,M,57.20,KBAM 140935Z AUTO 00000KT 10SM SCT100 14/09 A2995 RMK AO1,M
HTH,2022-09-14 09:35,-118.6315,38.5448,1282.89,62.60,51.80,67.75,0.00,0.00,0.00,29.92,M,10.00,M,FEW,M,M,M,8500.00,M,M,M,M,M,M,M,M,M,M,62.60,KHTH 140935Z AUTO 00000KT 10SM FEW085 17/11 A2992 RMK A01,M
BVU,2022-09-14 09:35,-114.8611,35.9475,671.00,69.80,59.00,68.55,30.00,13.00,0.00,29.87,M,M,21.00,M,M,M,M,M,M,M,M,M,M,M,M,M,M,M,69.80,KBVU 140935Z AUTO 03013G21KT 21/15 A2987 RMK AO2 TSNO,M
CXP,2022-09-14 09:35,-119.7326,39.1923,1431.00,55.40,35.60,47.16,0.00,0.00,0.00,29.96,M,10.00,M,OVC,M,M,M,9000.00,M,M,M,M,M,M,M,M,M,M,55.40,KCXP 140935Z AUTO 00000KT 10SM OVC090 13/02 A2996 RMK AO2,M
INS,2022-09-14 09:35,-115.6733,36.5872,955.00,64.40,59.00,82.62,310.00,10.00,0.00,29.95,1010.00,10.00,M,SCT,SCT,BKN,BKN,400.00,2400.00,3100.00,4400.00,-RA,M,M,M,M,M,M,64.40,KINS 140935Z AUTO 31010KT 10SM -RA SCT004 SCT024 BKN031 BKN044 OVC055 18/15 A2995 RMK AO2 RAB14 SLP100 $,M
RTS,2022-09-14 09:35,-119.8764,39.6682,1539.00,51.80,33.80,50.08,350.00,5.00,0.00,29.98,M,2.50,M,BKN,M,M,M,300.00,M,M,M,HZ,M,M,M,M,M,M,51.80,KRTS 140935Z AUTO 35005KT 2 1/2SM HZ BKN003 11/01 A2998 RMK AO2,M
INS,2022-09-14 09:40,-115.6733,36.5872,955.00,64.40,59.00,82.62,300.00,10.00,0.00,29.95,1010.00,10.00,M,SCT,SCT,BKN,BKN,400.00,1500.00,2800.00,4300.00,-RA,M,M,M,M,M,M,64.40,KINS 140940Z AUTO 30010KT 10SM -RA SCT004 SCT015 BKN028 BKN043 BKN050 OVC100 18/15 A2995 RMK AO2 RAB14 CIG 003V044 SLP100 $,M
LSV,2022-09-14 09:42,-115.0343,36.2362,570.00,68.00,68.00,100.00,50.00,11.00,0.00,29.88,1009.80,10.00,M,BKN,OVC,M,M,4800.00,14000.00,M,M,M,M,M,M,M,M,M,68.00,KLSV 140942Z AUTO 05011KT 10SM BKN048 OVC140 20/20 A2988 RMK AO2 SLP098 $,M
INS,2022-09-14 09:50,-115.6733,36.5872,955.00,62.60,60.80,93.83,310.00,9.00,0.00,29.95,1010.40,10.00,M,FEW,FEW,SCT,BKN,400.00,1800.00,4200.00,5500.00,-RA,M,M,M,M,M,M,62.60,KINS 140950Z AUTO 31009KT 10SM -RA FEW004 FEW018 SCT042 BKN055 BKN090 OVC120 17/16 A2995 RMK AO2 RAB14 SLP104 $,M
LOL,2022-09-14 09:53,-118.5701,40.0684,1192.43,53.00,40.00,60.73,130.00,3.00,0.00,29.90,M,5.00,M,OVC,M,M,M,4600.00,M,M,M,HZ,M,M,M,M,M,M,53.10,KLOL 140953Z AUTO 13003KT 5SM HZ OVC046 12/04 A2990 RMK AO2 SLPNO T01170044 $,M
ELY,2022-09-14 09:53,-114.8453,39.2950,1909.00,50.00,49.00,95.98,200.00,3.00,0.00,30.03,1010.20,10.00,M,FEW,M,M,M,10000.00,M,M,M,M,M,M,M,M,M,M,50.00,KELY 140953Z AUTO 20003KT 10SM FEW100 10/09 A3003 RMK AO2 SLP102 T01000094 $,M
INS,2022-09-14 09:53,-115.6733,36.5872,955.00,62.60,60.80,93.83,320.00,7.00,0.00,29.95,1010.40,10.00,M,FEW,FEW,SCT,BKN,400.00,1800.00,3800.00,5500.00,M,M,M,M,M,M,M,62.60,KINS 140953Z AUTO 32007KT 10SM FEW004 FEW018 SCT038 BKN055 BKN090 OVC120 17/16 A2995 RMK AO2 RAB14E53 SLP104 $,M
P68,2022-09-14 09:53,-116.0056,39.6014,1993.00,52.00,50.00,92.86,0.00,0.00,0.00,30.00,1009.60,M,M,M,M,M,M,M,M,M,M,M,M,M,M,M,M,M,52.00,KP68 140953Z AUTO 00000KT 11/10 A3000 RMK AO1 SLP096 T01110100,M
DRA,2022-09-14 09:53,-116.0278,36.6206,1009.00,66.00,55.00,67.64,70.00,8.00,T,29.93,1009.10,10.00,M,BKN,M,M,M,10000.00,M,M,M,M,M,M,M,M,M,M,66.00,KDRA 140953Z AUTO 07008KT 10SM BKN100 19/13 A2993 RMK AO2 RAB0855E10 SLP091 P0000 T01890128,M
VGT,2022-09-14 09:53,-115.1933,36.2111,667.00,70.00,60.00,70.81,100.00,4.00,0.00,29.89,1011.50,10.00,M,OVC,M,M,M,5000.00,M,M,M,M,M,M,M,M,M,M,70.00,KVGT 140953Z AUTO 10004KT 10SM OVC050 21/16 A2989 RMK AO2 LTG DSNT N SLP115 T02110156,M
RNO,2022-09-14 09:55,-119.7711,39.4839,1341.00,58.00,40.00,51.02,0.00,0.00,0.00,29.94,1008.90,2.00,M,SCT,BKN,M,M,3000.00,9500.00,M,M,FU,M,M,M,M,M,M,57.90,KRNO 140955Z 00000KT 2SM FU SCT030 BKN095 14/04 A2994 RMK AO2 SLP089 FU SCT030 T01440044,M
BVU,2022-09-14 09:55,-114.8611,35.9475,671.00,69.80,59.00,68.55,30.00,13.00,0.00,29.88,M,M,19.00,M,M,M,M,M,M,M,M,M,M,M,M,M,M,M,69.80,KBVU 140955Z AUTO 03013G19KT 21/15 A2988 RMK AO2 TSNO,M
CXP,2022-09-14 09:55,-119.7326,39.1923,1431.00,51.80,37.40,57.77,0.00,0.00,0.00,29.97,M,8.00,M,OVC,M,M,M,9000.00,M,M,M,M,M,M,M,M,M,M,51.80,KCXP 140955Z AUTO 00000KT 8SM OVC090 11/03 A2997 RMK AO2,M
RTS,2022-09-14 09:55,-119.8764,39.6682,1539.00,51.80,33.80,50.08,0.00,0.00,0.00,29.98,M,2.50,M,FEW,M,M,M,300.00,M,M,M,HZ,M,M,M,M,M,M,51.80,KRTS 140955Z AUTO 00000KT 2 1/2SM HZ FEW003 11/01 A2998 RMK AO2,M
MEV,2022-09-14 09:55,-119.7500,38.9963,1441.42,46.40,33.80,61.28,70.00,4.00,0.00,29.95,M,10.00,M,BKN,M,M,M,8000.00,M,M,M,M,M,M,M,M,M,M,44.24,KMEV 140955Z AUTO 07004KT 10SM BKN080 08/01 A2995 RMK AO2,M
BAM,2022-09-14 09:55,-116.8743,40.5990,1382.36,57.20,48.20,71.83,50.00,4.00,0.00,29.93,M,10.00,M,CLR,M,M,M,M,M,M,M,M,M,M,M,M,M,M,57.20,KBAM 140955Z AUTO 05004KT 10SM CLR 14/09 A2993 RMK AO1,M
HTH,2022-09-14 09:55,-118.6315,38.5448,1282.89,60.80,53.60,77.14,0.00,0.00,0.00,29.92,M,10.00,M,FEW,FEW,M,M,8000.00,9500.00,M,M,M,M,M,M,M,M,M,60.80,KHTH 140955Z AUTO 00000KT 10SM FEW080 FEW095 16/12 A2992 RMK A01,M
TMT,2022-09-14 09:55,-117.1971,39.4643,1749.34,51.00,49.30,94.22,310.00,4.00,0.00,30.02,M,10.00,M,CLR,M,M,M,M,M,M,M,M,M,M,M,M,M,M,50.90,KTMT 140955Z AUTO 31004KT 10SM CLR 11/10 A3002 RMK AO2 T01050096,M
LSV,2022-09-14 09:56,-115.0343,36.2362,570.00,67.30,67.30,100.00,60.00,10.00,0.00,29.88,1009.80,10.00,M,BKN,OVC,M,M,4800.00,14000.00,M,M,M,M,M,M,M,M,M,67.30,KLSV 140956Z AUTO 06010KT 10SM BKN048 OVC140 20/20 A2988 RMK AO2 SLP098 T01960196 $,M
EKO,2022-09-14 09:56,-115.7860,40.8242,1367.00,49.00,47.00,92.77,0.00,0.00,0.00,29.96,1011.30,10.00,M,CLR,M,M,M,M,M,M,M,M,M,M,M,M,M,M,48.90,KEKO 140956Z AUTO 00000KT 10SM CLR 09/08 A2996 RMK AO2 SLP113 T00940083,M
TPH,2022-09-14 09:56,-117.0904,38.0505,1654.00,58.00,53.00,84.00,130.00,5.00,0.00,30.01,1010.00,10.00,M,BKN,OVC,M,M,8500.00,12000.00,M,M,M,M,M,M,M,M,M,57.90,KTPH 140956Z AUTO 13005KT 10SM BKN085 OVC120 14/12 A3001 RMK AO2 SLP100 T01440117,M
NFL,2022-09-14 09:56,-118.7010,39.4166,1199.00,58.00,37.00,45.54,0.00,0.00,0.00,29.89,1009.80,3.00,M,OVC,M,M,M,2900.00,M,M,M,HZ,M,M,M,M,M,M,57.90,KNFL 140956Z AUTO 00000KT 3SM HZ OVC029 14/03 A2989 RMK AO2 SLP098 T01440028,M
LAS,2022-09-14 09:56,-115.1634,36.0719,663.00,68.00,58.00,70.10,40.00,10.00,0.00,29.91,1010.40,10.00,M,FEW,SCT,BKN,M,5000.00,10000.00,15000.00,M,M,M,M,M,M,M,M,68.00,KLAS 140956Z 04010KT 10SM FEW050 SCT100 BKN150 20/14 A2991 RMK AO2 LTG DSNT N SLP104 CB DSNT N T02000144,M
WMC,2022-09-14 09:56,-117.8072,40.9019,1315.00,49.00,46.00,89.67,240.00,4.00,0.00,29.91,1009.60,10.00,M,CLR,M,M,M,M,M,M,M,M,M,M,M,M,M,M,47.16,KWMC 140956Z AUTO 24004KT 10SM CLR 09/08 A2991 RMK AO2 SLP096 T00940078,M
INS,2022-09-14 09:56,-115.6733,36.5872,955.00,63.00,60.80,92.20,330.00,6.00,0.03,29.95,1010.40,10.00,M,FEW,FEW,FEW,BKN,400.00,1800.00,3800.00,5500.00,M,M,M,M,M,M,M,63.10,KINS 140956Z AUTO 33006KT 10SM FEW004 FEW018 FEW038 BKN055 BKN090 OVC120 17/16 A2995 RMK AO2 RAB14E53 SLP104 P0003 T01730160 $,M
BVU,2022-09-14 10:15,-114.8611,35.9475,671.00,69.80,60.80,73.09,20.00,12.00,0.00,29.88,M,M,18.00,M,M,M,M,M,M,M,M,M,M,M,M,M,M,M,69.80,KBVU 141015Z AUTO 02012G18KT 21/16 A2988 RMK AO2 TSNO,M
TMT,2022-09-14 10:15,-117.1971,39.4643,1749.34,50.40,49.00,95.27,210.00,3.00,0.00,30.01,M,10.00,M,SCT,M,M,M,11000.00,M,M,M,M,M,M,M,M,M,M,50.40,KTMT 141015Z AUTO 21003KT 10SM SCT110 10/10 A3001 RMK AO2 T01020095,M
BAM,2022-09-14 10:15,-116.8743,40.5990,1382.36,55.40,50.00,81.99,70.00,3.00,0.00,29.95,M,10.00,M,BKN,BKN,M,M,6500.00,10000.00,M,M,M,M,M,M,M,M,M,55.40,KBAM 141015Z AUTO 07003KT 10SM BKN065 BKN100 13/10 A2995 RMK AO1,M
MEV,2022-09-14 10:15,-119.7500,38.9963,1441.42,46.40,33.80,61.28,0.00,0.00,0.00,29.95,M,10.00,M,BKN,M,M,M,8000.00,M,M,M,M,M,M,M,M,M,M,46.40,KMEV 141015Z AUTO 00000KT 10SM BKN080 08/01 A2995 RMK AO2,M
RTS,2022-09-14 10:15,-119.8764,39.6682,1539.00,50.00,33.80,53.54,90.00,4.00,0.00,29.98,M,3.00,M,FEW,SCT,M,M,300.00,9000.00,M,M,HZ,M,M,M,M,M,M,50.00,KRTS 141015Z AUTO 09004KT 3SM HZ FEW003 SCT090 10/01 A2998 RMK AO2,M
HTH,2022-09-14 10:15,-118.6315,38.5448,1282.89,60.80,53.60,77.14,0.00,0.00,0.00,29.92,M,10.00,M,FEW,M,M,M,8000.00,M,M,M,M,M,M,M,M,M,M,60.80,KHTH 141015Z AUTO 00000KT 10SM FEW080 16/12 A2992 RMK A01,M
CXP,2022-09-14 10:15,-119.7326,39.1923,1431.00,51.80,37.40,57.77,0.00,0.00,0.00,29.97,M,6.00,M,SCT,M,M,M,9000.00,M,M,M,HZ,M,M,M,M,M,M,51.80,KCXP 141015Z AUTO 00000KT 6SM HZ SCT090 11/03 A2997 RMK AO2,M
LSV,2022-09-14 10:17,-115.0343,36.2362,570.00,68.00,68.00,100.00,70.00,10.00,0.00,29.88,1009.80,10.00,M,OVC,M,M,M,5000.00,M,M,M,M,M,M,M,M,M,M,68.00,KLSV 141017Z AUTO 07010KT 10SM OVC050 20/20 A2988 RMK AO2 SLP098 $,M
NFL,2022-09-14 10:25,-118.7010,39.4166,1199.00,57.00,37.00,47.04,200.00,3.00,0.00,29.90,M,3.00,M,SCT,OVC,M,M,2900.00,8500.00,M,M,HZ,M,M,M,M,M,M,57.00,KNFL 141025Z AUTO 20003KT 3SM HZ SCT029 OVC085 14/03 A2990 RMK AO2 T01390028,M
TMT,2022-09-14 10:35,-117.1971,39.4643,1749.34,M,M,M,90.00,5.00,0.00,30.02,M,10.00,M,BKN,M,M,M,11000.00,M,M,M,M,M,M,M,M,M,M,M,KTMT 141035Z AUTO 09005KT 10SM BKN110 A3002 RMK AO2,M
BVU,2022-09-14 10:35,-114.8611,35.9475,671.00,69.80,59.00,68.55,10.00,10.00,0.00,29.88,M,M,15.00,M,M,M,M,M,M,M,M,M,M,M,M,M,M,M,69.80,KBVU 141035Z AUTO 01010G15KT 21/15 A2988 RMK AO2 TSNO,M
RTS,2022-09-14 10:35,-119.8764,39.6682,1539.00,48.20,33.80,57.26,100.00,4.00,0.00,29.98,M,2.50,M,SCT,SCT,M,M,300.00,9000.00,M,M,HZ,M,M,M,M,M,M,46.34,KRTS 141035Z AUTO 10004KT 2 1/2SM HZ SCT003 SCT090 09/01 A2998 RMK AO2,M
MEV,2022-09-14 10:35,-119.7500,38.9963,1441.42,42.80,32.00,65.38,0.00,0.00,0.00,29.95,M,10.00,M,OVC,M,M,M,8000.00,M,M,M,M,M,M,M,M,M,M,42.80,KMEV 141035Z AUTO 00000KT 10SM OVC080 06/00 A2995 RMK AO2,M
CXP,2022-09-14 10:35,-119.7326,39.1923,1431.00,51.80,37.40,57.77,0.00,0.00,0.00,29.97,M,6.00,M,FEW,M,M,M,8500.00,M,M,M,HZ,M,M,M,M,M,M,51.80,KCXP 141035Z AUTO 00000KT 6SM HZ FEW085 11/03 A2997 RMK AO2,M
BAM,2022-09-14 10:35,-116.8743,40.5990,1382.36,55.40,50.00,81.99,0.00,0.00,0.00,29.94,M,10.00,M,SCT,SCT,M,M,6500.00,10000.00,M,M,M,M,M,M,M,M,M,55.40,KBAM 141035Z AUTO 00000KT 10SM SCT065 SCT100 13/10 A2994 RMK AO1,M
HTH,2022-09-14 10:35,-118.6315,38.5448,1282.89,62.60,53.60,72.38,0.00,0.00,0.00,29.92,M,10.00,M,FEW,SCT,M,M,8000.00,12000.00,M,M,M,M,M,M,M,M,M,62.60,KHTH 141035Z AUTO 00000KT 10SM FEW080 SCT120 17/12 A2992 RMK A01,M
NFL,2022-09-14 10:51,-118.7010,39.4166,1199.00,60.80,39.20,44.76,0.00,0.00,0.00,29.90,M,2.50,M,FEW,BKN,OVC,M,3100.00,8500.00,11000.00,M,HZ,M,M,M,M,M,M,60.80,KNFL 141051Z AUTO 00000KT 2 1/2SM HZ FEW031 BKN085 OVC110 16/04 A2990 RMK AO2,M
INS,2022-09-14 10:51,-115.6733,36.5872,955.00,64.40,57.20,77.45,0.00,0.00,0.00,29.94,1009.70,10.00,M,SCT,BKN,M,M,6000.00,10000.00,M,M,M,M,M,M,M,M,M,64.40,KINS 141051Z AUTO 00000KT 10SM SCT060 BKN100 18/14 A2994 RMK AO2 SLP097 $,M
P68,2022-09-14 10:53,-116.0056,39.6014,1993.00,50.00,49.00,95.98,210.00,3.00,0.00,30.01,1011.20,M,M,M,M,M,M,M,M,M,M,M,M,M,M,M,M,M,50.00,KP68 141053Z AUTO 21003KT 10/09 A3001 RMK AO1 SLP112 T01000094,M
VGT,2022-09-14 10:53,-115.1933,36.2111,667.00,69.00,60.00,73.03,180.00,5.00,0.00,29.89,1011.70,10.00,M,OVC,M,M,M,4900.00,M,M,M,M,M,M,M,M,M,M,69.10,KVGT 141053Z AUTO 18005KT 10SM OVC049 21/16 A2989 RMK AO2 SLP117 T02060156,M
DRA,2022-09-14 10:53,-116.0278,36.6206,1009.00,65.00,58.00,78.05,110.00,12.00,0.00,29.92,1008.50,10.00,M,CLR,M,M,M,M,M,M,M,M,M,M,M,M,M,M,64.90,KDRA 141053Z AUTO 11012KT 10SM CLR 18/14 A2992 RMK AO2 SLP085 T01830144,M
LOL,2022-09-14 10:53,-118.5701,40.0684,1192.43,53.00,42.00,66.13,10.00,4.00,0.00,29.90,1009.30,5.00,M,OVC,M,M,M,4600.00,M,M,M,HZ,M,M,M,M,M,M,53.10,KLOL 141053Z AUTO 01004KT 5SM HZ OVC046 12/06 A2990 RMK AO2 SLP093 T01170056 $,M
ELY,2022-09-14 10:53,-114.8453,39.2950,1909.00,50.00,49.00,95.98,160.00,5.00,0.00,30.04,1010.30,10.00,M,OVC,M,M,M,11000.00,M,M,M,M,M,M,M,M,M,M,50.00,KELY 141053Z AUTO 16005KT 10SM OVC110 10/09 A3004 RMK AO2 SLP103 T01000094 $,M
BVU,2022-09-14 10:55,-114.8611,35.9475,671.00,69.80,59.00,68.55,330.00,5.00,0.00,29.89,M,M,M,M,M,M,M,M,M,M,M,M,M,M,M,M,M,M,69.80,KBVU 141055Z AUTO 33005KT 21/15 A2989 RMK AO2 TSNO,M
RNO,2022-09-14 10:55,-119.7711,39.4839,1341.00,56.00,40.00,54.83,0.00,0.00,0.00,29.95,1009.20,2.50,M,SCT,BKN,M,M,2600.00,9000.00,M,M,FU,M,M,M,M,M,M,55.90,KRNO 141055Z 00000KT 2 1/2SM FU SCT026 BKN090 13/04 A2995 RMK AO2 SLP092 FU SCT026 T01330044,M
CXP,2022-09-14 10:55,-119.7326,39.1923,1431.00,50.00,37.40,61.76,0.00,0.00,0.00,29.97,M,7.00,M,SCT,SCT,M,M,300.00,9000.00,M,M,M,M,M,M,M,M,M,50.00,KCXP 141055Z AUTO 00000KT 7SM SCT003 SCT090 10/03 A2997 RMK AO2,M
TMT,2022-09-14 10:55,-117.1971,39.4643,1749.34,M,M,M,0.00,0.00,0.00,30.02,M,10.00,M,OVC,M,M,M,12000.00,M,M,M,M,M,M,M,M,M,M,M,KTMT 141055Z AUTO 00000KT 10SM OVC120 A3002 RMK AO2,M
HTH,2022-09-14 10:55,-118.6315,38.5448,1282.89,62.60,53.60,72.38,0.00,0.00,0.00,29.92,M,10.00,M,BKN,BKN,M,M,8000.00,11000.00,M,M,M,M,M,M,M,M,M,62.60,KHTH 141055Z AUTO 00000KT 10SM BKN080 BKN110 17/12 A2992 RMK A01,M
RTS,2022-09-14 10:55,-119.8764,39.6682,1539.00,50.00,33.80,53.54,0.00,0.00,0.00,29.99,M,2.50,M,FEW,M,M,M,300.00,M,M,M,HZ,M,M,M,M,M,M,50.00,KRTS 141055Z AUTO 00000KT 2 1/2SM HZ FEW003 10/01 A2999 RMK AO2,M
BAM,2022-09-14 10:55,-116.8743,40.5990,1382.36,55.40,50.00,81.99,130.00,5.00,0.00,29.94,M,10.00,M,CLR,M,M,M,M,M,M,M,M,M,M,M,M,M,M,55.40,KBAM 141055Z AUTO 13005KT 10SM CLR 13/10 A2994 RMK AO1,M
MEV,2022-09-14 10:55,-119.7500,38.9963,1441.42,41.00,32.00,70.08,0.00,0.00,0.00,29.95,M,10.00,M,BKN,BKN,M,M,8000.00,9000.00,M,M,M,M,M,M,M,M,M,41.00,KMEV 141055Z AUTO 00000KT 10SM BKN080 BKN090 05/M00 A2995 RMK AO2,M
INS,2022-09-14 10:56,-115.6733,36.5872,955.00,63.50,57.20,79.93,0.00,0.00,0.00,29.94,1009.90,10.00,M,SCT,SCT,BKN,M,6000.00,10000.00,15000.00,M,M,M,M,M,M,M,M,63.50,KINS 141056Z AUTO 00000KT 10SM SCT060 SCT100 BKN150 18/14 A2994 RMK AO2 SLP099 T01750140 $,M
EKO,2022-09-14 10:56,-115.7860,40.8242,1367.00,49.00,47.00,92.77,0.00,0.00,0.00,29.96,1011.30,10.00,M,FEW,M,M,M,6500.00,M,M,M,M,M,M,M,M,M,M,48.90,KEKO 141056Z AUTO 00000KT 10SM FEW065 09/08 A2996 RMK AO2 SLP113 T00940083,M
TPH,2022-09-14 10:56,-117.0904,38.0505,1654.00,56.00,53.00,90.29,0.00,0.00,0.00,30.01,1010.10,10.00,M,BKN,OVC,M,M,9000.00,12000.00,M,M,M,M,M,M,M,M,M,55.90,KTPH 141056Z AUTO 00000KT 10SM BKN090 OVC120 13/12 A3001 RMK AO2 SLP101 T01330117,M
LSV,2022-09-14 10:56,-115.0343,36.2362,570.00,67.50,67.50,100.00,70.00,11.00,0.00,29.87,1009.40,10.00,M,OVC,M,M,M,5500.00,M,M,M,M,M,M,M,M,M,M,67.50,KLSV 141056Z AUTO 07011KT 10SM OVC055 20/20 A2987 RMK AO2 SLP094 T01970197 $,M
LAS,2022-09-14 10:56,-115.1634,36.0719,663.00,68.00,57.00,67.86,10.00,3.00,0.00,29.90,1010.40,10.00,M,FEW,SCT,BKN,M,4200.00,9000.00,15000.00,M,M,M,M,M,M,M,M,68.00,KLAS 141056Z 01003KT 10SM FEW042 SCT090 BKN150 20/14 A2990 RMK AO2 SLP104 T02000139,M
NFL,2022-09-14 10:56,-118.7010,39.4166,1199.00,60.00,39.00,45.53,250.00,3.00,0.00,29.90,1009.90,2.50,M,FEW,BKN,OVC,M,3100.00,7500.00,8500.00,M,HZ,M,M,M,M,M,M,60.10,KNFL 141056Z AUTO 25003KT 2 1/2SM HZ FEW031 BKN075 OVC085 16/04 A2990 RMK AO2 SLP099 T01560039,M
WMC,2022-09-14 10:56,-117.8072,40.9019,1315.00,51.00,47.00,85.48,140.00,3.00,0.00,29.91,1009.60,10.00,M,OVC,M,M,M,6000.00,M,M,M,M,M,M,M,M,M,M,51.10,KWMC 141056Z AUTO 14003KT 10SM OVC060 11/08 A2991 RMK AO2 SLP096 T01060083,M
RTS,2022-09-14 11:15,-119.8764,39.6682,1539.00,50.00,35.60,57.52,0.00,0.00,0.00,29.98,M,2.50,M,FEW,M,M,M,9000.00,M,M,M,HZ,M,M,M,M,M,M,50.00,KRTS 141115Z AUTO 00000KT 2 1/2SM HZ FEW090 10/02 A2998 RMK AO2,M
BAM,2022-09-14 11:15,-116.8743,40.5990,1382.36,55.40,50.00,81.99,120.00,3.00,0.00,29.93,M,10.00,M,CLR,M,M,M,M,M,M,M,M,M,M,M,M,M,M,55.40,KBAM 141115Z AUTO 12003KT 10SM CLR 13/10 A2993 RMK AO1,M
HTH,2022-09-14 11:15,-118.6315,38.5448,1282.89,62.60,53.60,72.38,0.00,0.00,0.00,29.93,M,10.00,M,SCT,OVC,M,M,8000.00,11000.00,M,M,M,M,M,M,M,M,M,62.60,KHTH 141115Z AUTO 00000KT 10SM SCT080 OVC110 17/12 A2993 RMK A01,M
TMT,2022-09-14 11:15,-117.1971,39.4643,1749.34,M,M,M,0.00,0.00,0.00,30.01,M,10.00,M,OVC,M,M,M,12000.00,M,M,M,M,M,M,M,M,M,M,M,KTMT 141115Z AUTO 00000KT 10SM OVC120 A3001 RMK AO2,M
BVU,2022-09-14 11:15,-114.8611,35.9475,671.00,68.00,59.00,72.92,M,3.00,0.00,29.90,M,M,M,M,M,M,M,M,M,M,M,M,M,M,M,M,M,M,68.00,KBVU 141115Z AUTO VRB03KT 20/15 A2990 RMK AO2 TSNO,M
CXP,2022-09-14 11:15,-119.7326,39.1923,1431.00,50.00,37.40,61.76,0.00,0.00,0.00,29.97,M,8.00,M,BKN,M,M,M,300.00,M,M,M,M,M,M,M,M,M,M,50.00,KCXP 141115Z AUTO 00000KT 8SM BKN003 10/03 A2997 RMK AO2,M
MEV,2022-09-14 11:15,-119.7500,38.9963,1441.42,37.40,32.00,80.65,0.00,0.00,0.00,29.95,M,10.00,M,SCT,M,M,M,7500.00,M,M,M,M,M,M,M,M,M,M,37.40,KMEV 141115Z AUTO 00000KT 10SM SCT075 03/M00 A2995 RMK AO2,M
NFL,2022-09-14 11:24,-118.7010,39.4166,1199.00,58.00,40.00,51.02,160.00,4.00,0.00,29.90,M,3.00,M,BKN,BKN,OVC,M,7500.00,9500.00,11000.00,M,HZ,M,M,M,M,M,M,57.90,KNFL 141124Z AUTO 16004KT 3SM HZ BKN075 BKN095 OVC110 14/04 A2990 RMK AO2 T01440044,M
RTS,2022-09-14 11:35,-119.8764,39.6682,1539.00,48.20,33.80,57.26,280.00,5.00,0.00,29.99,M,2.50,M,SCT,BKN,M,M,300.00,8500.00,M,M,HZ,M,M,M,M,M,M,45.63,KRTS 141135Z AUTO 28005KT 2 1/2SM HZ SCT003 BKN085 09/01 A2999 RMK AO2,M
TMT,2022-09-14 11:35,-117.1971,39.4643,1749.34,52.00,50.00,92.86,0.00,0.00,0.00,30.01,M,10.00,M,OVC,M,M,M,12000.00,M,M,M,M,M,M,M,M,M,M,52.00,KTMT 141135Z AUTO 00000KT 10SM OVC120 11/10 A3001 RMK AO2 T01110100,M
HTH,2022-09-14 11:35,-118.6315,38.5448,1282.89,60.80,53.60,77.14,0.00,0.00,0.00,29.92,M,10.00,M,FEW,BKN,BKN,M,3700.00,8000.00,12000.00,M,M,M,M,M,M,M,M,60.80,KHTH 141135Z AUTO 00000KT 10SM FEW037 BKN080 BKN120 16/12 A2992 RMK A01,M
BAM,2022-09-14 11:35,-116.8743,40.5990,1382.36,53.60,48.20,81.87,70.00,5.00,0.00,29.93,M,10.00,M,SCT,M,M,M,10000.00,M,M,M,M,M,M,M,M,M,M,53.60,KBAM 141135Z AUTO 07005KT 10SM SCT100 12/09 A2993 RMK AO1,M
MEV,2022-09-14 11:35,-119.7500,38.9963,1441.42,39.20,32.00,75.16,90.00,3.00,0.00,29.95,M,10.00,M,FEW,M,M,M,7500.00,M,M,M,M,M,M,M,M,M,M,36.92,KMEV 141135Z AUTO 09003KT 10SM FEW075 04/00 A2995 RMK AO2,M
CXP,2022-09-14 11:35,-119.7326,39.1923,1431.00,50.00,35.60,57.52,0.00,0.00,0.00,29.97,M,8.00,M,BKN,M,M,M,300.00,M,M,M,M,M,M,M,M,M,M,50.00,KCXP 141135Z AUTO 00000KT 8SM BKN003 10/02 A2997 RMK AO2,M
BVU,2022-09-14 11:35,-114.8611,35.9475,671.00,69.80,59.00,68.55,0.00,0.00,0.00,29.90,M,M,M,M,M,M,M,M,M,M,M,M,M,M,M,M,M,M,69.80,KBVU 141135Z AUTO 00000KT 21/15 A2990 RMK AO2 TSNO,M
DRA,2022-09-14 11:53,-116.0278,36.6206,1009.00,64.00,57.00,77.97,100.00,11.00,0.00,29.91,1008.50,10.00,M,CLR,M,M,M,M,M,M,M,M,M,M,M,M,M,M,64.00,KDRA 141153Z AUTO 10011KT 10SM CLR 18/14 A2991 RMK AO2 SLP085 60000 70046 T01780139 10200 20167 56009,M
VGT,2022-09-14 11:53,-115.1933,36.2111,667.00,69.00,59.00,70.21,170.00,6.00,0.00,29.89,1011.50,10.00,M,OVC,M,M,M,4800.00,M,M,M,M,M,M,M,M,M,M,69.10,KVGT 141153Z AUTO 17006KT 10SM OVC048 21/15 A2989 RMK AO2 SLP115 60004 70004 T02060150 10267 20206 50006,M
P68,2022-09-14 11:53,-116.0056,39.6014,1993.00,52.00,49.00,89.13,200.00,4.00,0.00,30.01,1011.10,M,M,M,M,M,M,M,M,M,M,M,M,M,M,M,M,M,52.00,KP68 141153Z AUTO 20004KT 11/09 A3001 RMK AO1 SLP111 70024 T01110094 10133 20100 53004,M
ELY,2022-09-14 11:53,-114.8453,39.2950,1909.00,50.00,48.00,92.80,180.00,6.00,0.00,30.05,1010.10,10.00,M,FEW,M,M,M,12000.00,M,M,M,M,M,M,M,M,M,M,50.00,KELY 141153Z AUTO 18006KT 10SM FEW120 10/09 A3005 RMK AO2 SLP101 70039 T01000089 10117 20100 53002 $,M
LOL,2022-09-14 11:53,-118.5701,40.0684,1192.43,50.00,38.00,62.98,120.00,4.00,0.00,29.91,1009.80,10.00,M,OVC,M,M,M,4400.00,M,M,M,M,M,M,M,M,M,M,50.00,KLOL 141153Z AUTO 12004KT 10SM OVC044 10/03 A2991 RMK AO2 SLP098 7//// T01000033 10189 20100 51005 $,M
HTH,2022-09-14 11:55,-118.6315,38.5448,1282.89,60.80,53.60,77.14,0.00,0.00,0.00,29.93,M,10.00,M,FEW,FEW,OVC,M,2900.00,3600.00,8500.00,M,M,M,M,M,M,M,M,60.80,KHTH 141155Z AUTO 00000KT 10SM FEW029 FEW036 OVC085 16/12 A2993 RMK A01,M
MEV,2022-09-14 11:55,-119.7500,38.9963,1441.42,39.20,33.80,80.79,0.00,0.00,0.00,29.96,M,10.00,M,FEW,M,M,M,9000.00,M,M,M,M,M,M,M,M,M,M,39.20,KMEV 141155Z AUTO 00000KT 10SM FEW090 04/01 A2996 RMK AO2,M
TMT,2022-09-14 11:55,-117.1971,39.4643,1749.34,51.00,49.60,94.58,0.00,0.00,0.00,30.01,M,10.00,M,OVC,M,M,M,12000.00,M,M,M,M,M,M,M,M,M,M,51.10,KTMT 141155Z AUTO 00000KT 10SM OVC120 11/10 A3001 RMK AO2 70094 T01060098,M
BVU,2022-09-14 11:55,-114.8611,35.9475,671.00,68.00,59.00,72.92,0.00,0.00,0.00,29.90,M,M,M,M,M,M,M,M,M,M,M,M,M,M,M,M,M,M,68.00,KBVU 141155Z AUTO 00000KT 20/15 A2990 RMK AO2 TSNO,M
RNO,2022-09-14 11:55,-119.7711,39.4839,1341.00,55.00,40.00,56.66,0.00,0.00,0.00,29.95,1009.70,2.50,M,SCT,BKN,M,M,2300.00,9000.00,M,M,FU,M,M,M,M,M,M,55.00,KRNO 141155Z 00000KT 2 1/2SM FU SCT023 BKN090 13/04 A2995 RMK AO2 SLP097 FU SCT023 T01280044 10178 20128 53004,M
RTS,2022-09-14 11:55,-119.8764,39.6682,1539.00,46.40,32.00,57.00,0.00,0.00,0.00,29.99,M,2.50,M,BKN,BKN,M,M,300.00,8500.00,M,M,HZ,M,M,M,M,M,M,46.40,KRTS 141155Z AUTO 00000KT 2 1/2SM HZ BKN003 BKN085 08/00 A2999 RMK AO2,M
CXP,2022-09-14 11:55,-119.7326,39.1923,1431.00,48.20,37.40,66.05,0.00,0.00,0.00,29.97,M,6.00,M,BKN,M,M,M,300.00,M,M,M,HZ,M,M,M,M,M,M,48.20,KCXP 141155Z AUTO 00000KT 6SM HZ BKN003 09/03 A2997 RMK AO2,M
BAM,2022-09-14 11:55,-116.8743,40.5990,1382.36,53.60,48.20,81.87,80.00,3.00,0.00,29.95,M,10.00,M,BKN,M,M,M,10000.00,M,M,M,M,M,M,M,M,M,M,53.60,KBAM 141155Z AUTO 08003KT 10SM BKN100 12/09 A2995 RMK AO1,M
TPH,2022-09-14 11:56,-117.0904,38.0505,1654.00,54.00,52.00,92.92,0.00,0.00,0.00,30.00,1010.00,10.00,M,CLR,M,M,M,M,M,M,M,M,M,M,M,M,M,M,54.00,KTPH 141156Z AUTO 00000KT 10SM CLR 12/11 A3000 RMK AO2 SLP100 70001 T01220111 10150 20122 58001,M
INS,2022-09-14 11:56,-115.6733,36.5872,955.00,63.00,59.70,88.97,120.00,3.00,0.00,29.92,1009.50,10.00,M,BKN,M,M,M,14000.00,M,M,M,M,M,M,M,M,M,M,63.00,KINS 141156Z AUTO 12003KT 10SM BKN140 17/15 A2992 RMK AO2 SLP095 60003 70009 T01720154 10201 20172 58004 $,M
NFL,2022-09-14 11:56,-118.7010,39.4166,1199.00,60.00,40.00,47.15,220.00,3.00,0.00,29.91,1010.10,3.00,M,FEW,OVC,M,M,2500.00,8500.00,M,M,HZ,M,M,M,M,M,M,60.10,KNFL 141156Z AUTO 22003KT 3SM HZ FEW025 OVC085 16/04 A2991 RMK AO2 SLP101 T01560044 10206 20133 53003,M
EKO,2022-09-14 11:56,-115.7860,40.8242,1367.00,49.00,47.00,92.77,0.00,0.00,0.00,29.97,1011.50,10.00,M,CLR,M,M,M,M,M,M,M,M,M,M,M,M,M,M,48.90,KEKO 141156Z AUTO 00000KT 10SM CLR 09/08 A2997 RMK AO2 SLP115 70003 T00940083 10122 20089 51005,M
LSV,2022-09-14 11:56,-115.0343,36.2362,570.00,67.00,67.00,100.00,60.00,10.00,0.00,29.87,1009.50,10.00,M,CLR,M,M,M,M,M,M,M,M,M,M,M,M,M,M,66.90,KLSV 141156Z AUTO 06010KT 10SM CLR 19/19 A2987 RMK AO2 SLP095 70039 T01940194 10235 20194 50003 $,M
LAS,2022-09-14 11:56,-115.1634,36.0719,663.00,68.00,58.00,70.10,190.00,3.00,0.00,29.90,1010.30,10.00,M,SCT,BKN,BKN,M,4600.00,10000.00,15000.00,M,M,M,M,M,M,M,M,68.00,KLAS 141156Z 19003KT 10SM SCT046 BKN100 BKN150 20/14 A2990 RMK AO2 SLP103 T02000144 10244 20200 50001,M
WMC,2022-09-14 11:56,-117.8072,40.9019,1315.00,48.00,44.00,86.28,20.00,3.00,0.00,29.92,1009.90,10.00,M,OVC,M,M,M,5500.00,M,M,M,M,M,M,M,M,M,M,46.98,KWMC 141156Z AUTO 02003KT 10SM OVC055 09/07 A2992 RMK AO2 SLP099 70021 T00890067 10161 20083 51007,M
BAM,2022-09-14 12:15,-116.8743,40.5990,1382.36,53.60,48.20,81.87,60.00,3.00,0.00,29.95,M,10.00,M,OVC,M,M,M,10000.00,M,M,M,M,M,M,M,M,M,M,53.60,KBAM 141215Z AUTO 06003KT 10SM OVC100 12/09 A2995 RMK AO1,M
BVU,2022-09-14 12:15,-114.8611,35.9475,671.00,69.80,59.00,68.55,0.00,0.00,0.00,29.91,M,M,M,M,M,M,M,M,M,M,M,M,M,M,M,M,M,M,69.80,KBVU 141215Z AUTO 00000KT 21/15 A2991 RMK AO2 TSNO,M
CXP,2022-09-14 12:15,-119.7326,39.1923,1431.00,48.20,37.40,66.05,0.00,0.00,0.00,29.98,M,7.00,M,BKN,BKN,M,M,300.00,8500.00,M,M,M,M,M,M,M,M,M,48.20,KCXP 141215Z AUTO 00000KT 7SM BKN003 BKN085 09/03 A2998 RMK AO2,M
RTS,2022-09-14 12:15,-119.8764,39.6682,1539.00,46.40,32.00,57.00,0.00,0.00,0.00,29.99,M,3.00,M,BKN,M,M,M,300.00,M,M,M,HZ,M,M,M,M,M,M,46.40,KRTS 141215Z AUTO 00000KT 3SM HZ BKN003 08/M00 A2999 RMK AO2,M
MEV,2022-09-14 12:15,-119.7500,38.9963,1441.42,39.20,35.60,86.79,180.00,5.00,0.00,29.96,M,10.00,M,FEW,M,M,M,9000.00,M,M,M,M,M,M,M,M,M,M,34.95,KMEV 141215Z AUTO 18005KT 10SM FEW090 04/02 A2996 RMK AO2,M
HTH,2022-09-14 12:15,-118.6315,38.5448,1282.89,59.00,51.80,76.98,0.00,0.00,0.00,29.93,M,10.00,M,SCT,SCT,OVC,M,2400.00,3000.00,8500.00,M,M,M,M,M,M,M,M,59.00,KHTH 141215Z AUTO 00000KT 10SM SCT024 SCT030 OVC085 15/11 A2993 RMK A01,M
TMT,2022-09-14 12:15,-117.1971,39.4643,1749.34,51.00,49.60,95.28,0.00,0.00,0.00,30.01,M,10.00,M,OVC,M,M,M,12000.00,M,M,M,M,M,M,M,M,M,M,50.90,KTMT 141215Z AUTO 00000KT 10SM OVC120 11/10 A3001 RMK AO2 LTG DSNT N T01050098,M
HTH,2022-09-14 12:35,-118.6315,38.5448,1282.89,59.00,51.80,76.98,160.00,4.00,0.00,29.93,M,10.00,M,SCT,BKN,OVC,M,1900.00,2300.00,2700.00,M,M,M,M,M,M,M,M,59.00,KHTH 141235Z AUTO 16004KT 10SM SCT019 BKN023 OVC027 15/11 A2993 RMK A01,M
BAM,2022-09-14 12:35,-116.8743,40.5990,1382.36,53.60,48.20,81.87,40.00,4.00,0.00,29.95,M,10.00,M,OVC,M,M,M,10000.00,M,M,M,M,M,M,M,M,M,M,53.60,KBAM 141235Z AUTO 04004KT 10SM OVC100 12/09 A2995 RMK AO1,M
BVU,2022-09-14 12:35,-114.8611,35.9475,671.00,68.00,59.00,72.92,0.00,0.00,0.00,29.90,M,M,M,M,M,M,M,M,M,M,M,M,M,M,M,M,M,M,68.00,KBVU 141235Z AUTO 00000KT 20/15 A2990 RMK AO2 TSNO,M
CXP,2022-09-14 12:35,-119.7326,39.1923,1431.00,46.40,37.40,70.68,0.00,0.00,0.00,29.98,M,7.00,M,SCT,BKN,M,M,300.00,8500.00,M,M,M,M,M,M,M,M,M,46.40,KCXP 141235Z AUTO 00000KT 7SM SCT003 BKN085 08/03 A2998 RMK AO2,M
RTS,2022-09-14 12:35,-119.8764,39.6682,1539.00,42.80,32.00,65.38,330.00,3.00,0.00,29.99,M,3.00,M,BKN,M,M,M,300.00,M,M,M,HZ,M,M,M,M,M,M,41.03,KRTS 141235Z AUTO 33003KT 3SM HZ BKN003 06/M00 A2999 RMK AO2,M
TMT,2022-09-14 12:35,-117.1971,39.4643,1749.34,50.00,49.00,96.70,0.00,0.00,0.00,30.01,M,10.00,M,OVC,M,M,M,12000.00,M,M,M,M,M,M,M,M,M,M,50.00,KTMT 141235Z AUTO 00000KT 10SM OVC120 10/10 A3001 RMK AO2 T01000095,M
MEV,2022-09-14 12:35,-119.7500,38.9963,1441.42,37.40,35.60,93.14,200.00,4.00,0.00,29.97,M,10.00,M,CLR,M,M,M,M,M,M,M,M,M,M,M,M,M,M,33.73,KMEV 141235Z AUTO 20004KT 10SM CLR 03/02 A2997 RMK AO2,M
ELY,2022-09-14 12:53,-114.8453,39.2950,1909.00,49.00,48.00,96.69,160.00,4.00,0.00,30.05,1012.00,10.00,M,OVC,M,M,M,7500.00,M,M,M,M,M,M,M,M,M,M,47.16,KELY 141253Z AUTO 16004KT 10SM OVC075 09/09 A3005 RMK AO2 SLP120 T00940089 $,M
DRA,2022-09-14 12:53,-116.0278,36.6206,1009.00,63.00,58.00,83.42,0.00,0.00,0.00,29.92,1008.80,10.00,M,CLR,M,M,M,M,M,M,M,M,M,M,M,M,M,M,63.00,KDRA 141253Z AUTO 00000KT 10SM CLR 17/14 A2992 RMK AO2 SLP088 T01720144,M
LOL,2022-09-14 12:53,-118.5701,40.0684,1192.43,48.00,40.00,73.38,M,3.00,0.00,29.92,1010.50,10.00,M,BKN,OVC,M,M,4400.00,9500.00,M,M,M,M,M,M,M,M,M,46.98,KLOL 141253Z AUTO VRB03KT 10SM BKN044 OVC095 09/04 A2992 RMK AO2 SLP105 T00890044 $,M
VGT,2022-09-14 12:53,-115.1933,36.2111,667.00,67.00,59.00,75.74,90.00,6.00,0.00,29.90,1012.10,10.00,M,CLR,M,M,M,M,M,M,M,M,M,M,M,M,M,M,66.90,KVGT 141253Z 09006KT 10SM CLR 19/15 A2990 RMK AO2 SLP121 T01940150,M
P68,2022-09-14 12:53,-116.0056,39.6014,1993.00,52.00,50.00,92.86,220.00,4.00,0.00,30.01,1010.90,M,M,M,M,M,M,M,M,M,M,M,M,M,M,M,M,M,52.00,KP68 141253Z AUTO 22004KT 11/10 A3001 RMK AO1 SLP109 T01110100,M
TMT,2022-09-14 12:55,-117.1971,39.4643,1749.34,M,M,M,240.00,3.00,0.00,30.02,M,10.00,M,BKN,OVC,M,M,9000.00,12000.00,M,M,M,M,M,M,M,M,M,M,KTMT 141255Z AUTO 24003KT 10SM BKN090 OVC120 A3002 RMK AO2,M
RNO,2022-09-14 12:55,-119.7711,39.4839,1341.00,53.00,40.00,60.73,160.00,4.00,0.00,29.96,1010.40,2.50,M,SCT,BKN,M,M,2400.00,9500.00,M,M,FU,M,M,M,M,M,M,53.10,KRNO 141255Z 16004KT 2 1/2SM FU SCT024 BKN095 12/04 A2996 RMK AO2 SLP104 FU SCT024 T01170044,M
BVU,2022-09-14 12:55,-114.8611,35.9475,671.00,68.00,59.00,72.92,300.00,4.00,0.00,29.91,M,M,M,M,M,M,M,M,M,M,M,M,M,M,M,M,M,M,68.00,KBVU 141255Z AUTO 30004KT 20/15 A2991 RMK AO2 TSNO,M
CXP,2022-09-14 12:55,-119.7326,39.1923,1431.00,46.40,35.60,65.83,0.00,0.00,0.00,29.98,M,6.00,M,BKN,M,M,M,8500.00,M,M,M,HZ,M,M,M,M,M,M,46.40,KCXP 141255Z AUTO 00000KT 6SM HZ BKN085 08/02 A2998 RMK AO2,M
RTS,2022-09-14 12:55,-119.8764,39.6682,1539.00,46.40,33.80,61.28,0.00,0.00,0.00,29.99,M,3.00,M,BKN,M,M,M,300.00,M,M,M,HZ,M,M,M,M,M,M,46.40,KRTS 141255Z AUTO 00000KT 3SM HZ BKN003 08/01 A2999 RMK AO2,M
MEV,2022-09-14 12:55,-119.7500,38.9963,1441.42,39.20,33.80,80.79,0.00,0.00,0.00,29.97,M,10.00,M,CLR,M,M,M,M,M,M,M,M,M,M,M,M,M,M,39.20,KMEV 141255Z AUTO 00000KT 10SM CLR 04/01 A2997 RMK AO2,M
BAM,2022-09-14 12:55,-116.8743,40.5990,1382.36,55.40,48.20,76.66,60.00,5.00,0.00,29.95,M,10.00,M,BKN,OVC,M,M,10000.00,12000.00,M,M,M,M,M,M,M,M,M,55.40,KBAM 141255Z AUTO 06005KT 10SM BKN100 OVC120 13/09 A2995 RMK AO1,M
HTH,2022-09-14 12:55,-118.6315,38.5448,1282.89,59.00,51.80,76.98,0.00,0.00,0.00,29.94,M,10.00,M,BKN,BKN,OVC,M,2000.00,2600.00,8000.00,M,M,M,M,M,M,M,M,59.00,KHTH 141255Z AUTO 00000KT 10SM BKN020 BKN026 OVC080 15/11 A2994 RMK A01,M
WMC,2022-09-14 12:56,-117.8072,40.9019,1315.00,48.00,45.00,89.29,M,3.00,0.00,29.93,1010.30,10.00,M,FEW,SCT,M,M,3900.00,9000.00,M,M,M,M,M,M,M,M,M,46.98,KWMC 141256Z AUTO VRB03KT 10SM FEW039 SCT090 09/07 A2993 RMK AO2 SLP103 T00890072,M
LAS,2022-09-14 12:56,-115.1634,36.0719,663.00,68.00,57.00,67.86,100.00,4.00,0.00,29.91,1010.60,10.00,M,SCT,BKN,M,M,4800.00,11000.00,M,M,M,M,M,M,M,M,M,68.00,KLAS 141256Z 10004KT 10SM SCT048 BKN110 20/14 A2991 RMK AO2 SLP106 T02000139,M
INS,2022-09-14 12:56,-115.6733,36.5872,955.00,62.40,60.30,92.83,0.00,0.00,0.00,29.92,1009.50,10.00,M,OVC,M,M,M,13000.00,M,M,M,M,M,M,M,M,M,M,62.40,KINS 141256Z AUTO 00000KT 10SM OVC130 17/16 A2992 RMK AO2 SLP095 T01690157 $,M
LSV,2022-09-14 12:56,-115.0343,36.2362,570.00,66.00,66.00,100.00,80.00,5.00,0.00,29.89,1010.20,10.00,M,CLR,M,M,M,M,M,M,M,M,M,M,M,M,M,M,66.00,KLSV 141256Z AUTO 08005KT 10SM CLR 19/19 A2989 RMK AO2 SLP102 T01890189 $,M
EKO,2022-09-14 12:56,-115.7860,40.8242,1367.00,50.00,47.00,89.04,100.00,3.00,0.00,29.98,1011.90,10.00,M,CLR,M,M,M,M,M,M,M,M,M,M,M,M,M,M,50.00,KEKO 141256Z AUTO 10003KT 10SM CLR 10/08 A2998 RMK AO2 SLP119 T01000083,M
TPH,2022-09-14 12:56,-117.0904,38.0505,1654.00,53.00,52.00,96.03,20.00,3.00,0.00,30.02,1011.60,10.00,M,CLR,M,M,M,M,M,M,M,M,M,M,M,M,M,M,53.10,KTPH 141256Z AUTO 02003KT 10SM CLR 12/11 A3002 RMK AO2 SLP116 T01170111,M
NFL,2022-09-14 12:56,-118.7010,39.4166,1199.00,58.00,40.00,51.02,0.00,0.00,0.00,29.91,1010.40,2.50,M,SCT,OVC,M,M,2900.00,8000.00,M,M,HZ,M,M,M,M,M,M,57.90,KNFL 141256Z AUTO 00000KT 2 1/2SM HZ SCT029 OVC080 14/04 A2991 RMK AO2 SLP104 T01440044,M
NFL,2022-09-14 13:05,-118.7010,39.4166,1199.00,58.00,40.00,51.02,0.00,0.00,0.00,29.92,M,3.00,M,BKN,OVC,M,M,2900.00,8000.00,M,M,HZ,M,M,M,M,M,M,57.90,KNFL 141305Z AUTO 00000KT 3SM HZ BKN029 OVC080 14/04 A2992 RMK AO2 T01440044,M
HND,2022-09-14 13:07,-115.1344,35.9729,742.79,66.20,57.20,72.74,0.00,0.00,0.00,29.94,M,10.00,M,FEW,M,M,M,8000.00,M,M,M,M,M,M,M,M,M,M,66.20,KHND 141307Z 00000KT 10SM FEW080 19/14 A2994 RMK AA,M
BAM,2022-09-14 13:15,-116.8743,40.5990,1382.36,53.60,48.20,81.87,60.00,5.00,0.00,29.95,M,10.00,M,BKN,OVC,M,M,10000.00,12000.00,M,M,M,M,M,M,M,M,M,53.60,KBAM 141315Z AUTO 06005KT 10SM BKN100 OVC120 12/09 A2995 RMK AO1,M
TMT,2022-09-14 13:15,-117.1971,39.4643,1749.34,M,M,M,190.00,5.00,0.00,30.02,M,10.00,M,OVC,M,M,M,9000.00,M,M,M,M,M,M,M,M,M,M,M,KTMT 141315Z AUTO 19005KT 10SM OVC090 A3002 RMK AO2,M
CXP,2022-09-14 13:15,-119.7326,39.1923,1431.00,46.40,37.40,70.68,0.00,0.00,0.00,29.99,M,6.00,M,FEW,M,M,M,9000.00,M,M,M,HZ,M,M,M,M,M,M,46.40,KCXP 141315Z AUTO 00000KT 6SM HZ FEW090 08/03 A2999 RMK AO2,M
BVU,2022-09-14 13:15,-114.8611,35.9475,671.00,66.20,60.80,82.74,320.00,4.00,0.00,29.91,M,M,M,M,M,M,M,M,M,M,M,M,M,M,M,M,M,M,66.20,KBVU 141315Z AUTO 32004KT 19/16 A2991 RMK AO2 TSNO,M
RTS,2022-09-14 13:15,-119.8764,39.6682,1539.00,46.40,33.80,61.28,0.00,0.00,0.00,30.00,M,2.50,M,BKN,M,M,M,300.00,M,M,M,HZ,M,M,M,M,M,M,46.40,KRTS 141315Z AUTO 00000KT 2 1/2SM HZ BKN003 08/01 A3000 RMK AO2,M
MEV,2022-09-14 13:15,-119.7500,38.9963,1441.42,35.60,32.00,86.59,0.00,0.00,0.00,29.98,M,10.00,M,CLR,M,M,M,M,M,M,M,M,M,M,M,M,M,M,35.60,KMEV 141315Z AUTO 00000KT 10SM CLR 02/M00 A2998 RMK AO2,M
HTH,2022-09-14 13:15,-118.6315,38.5448,1282.89,60.80,51.80,72.20,0.00,0.00,0.00,29.94,M,10.00,M,FEW,SCT,OVC,M,2100.00,7000.00,8000.00,M,M,M,M,M,M,M,M,60.80,KHTH 141315Z AUTO 00000KT 10SM FEW021 SCT070 OVC080 16/11 A2994 RMK A01,M
NFL,2022-09-14 13:17,-118.7010,39.4166,1199.00,57.00,40.00,52.70,0.00,0.00,0.00,29.92,M,2.50,M,BKN,OVC,M,M,3000.00,8000.00,M,M,HZ,M,M,M,M,M,M,57.00,KNFL 141317Z AUTO 00000KT 2 1/2SM HZ BKN030 OVC080 14/04 A2992 RMK AO2 T01390044,M
RTS,2022-09-14 13:35,-119.8764,39.6682,1539.00,44.60,32.00,61.03,0.00,0.00,0.00,30.00,M,3.00,M,BKN,M,M,M,300.00,M,M,M,HZ,M,M,M,M,M,M,44.60,KRTS 141335Z AUTO 00000KT 3SM HZ BKN003 07/00 A3000 RMK AO2,M
BAM,2022-09-14 13:35,-116.8743,40.5990,1382.36,53.60,48.20,81.87,50.00,6.00,0.00,29.96,M,10.00,M,OVC,M,M,M,10000.00,M,M,M,M,M,M,M,M,M,M,53.60,KBAM 141335Z AUTO 05006KT 10SM OVC100 12/09 A2996 RMK AO1,M
CXP,2022-09-14 13:35,-119.7326,39.1923,1431.00,46.40,35.60,65.83,0.00,0.00,0.00,29.99,M,5.00,M,CLR,M,M,M,M,M,M,M,HZ,M,M,M,M,M,M,46.40,KCXP 141335Z AUTO 00000KT 5SM HZ CLR 08/02 A2999 RMK AO2,M
HTH,2022-09-14 13:35,-118.6315,38.5448,1282.89,60.80,51.80,72.20,0.00,0.00,0.00,29.95,M,10.00,M,SCT,BKN,OVC,M,7000.00,8500.00,10000.00,M,M,M,M,M,M,M,M,60.80,KHTH 141335Z AUTO 00000KT 10SM SCT070 BKN085 OVC100 16/11 A2995 RMK A01,M
TMT,2022-09-14 13:35,-117.1971,39.4643,1749.34,51.00,48.60,91.79,230.00,6.00,0.00,30.02,M,10.00,M,OVC,M,M,M,9000.00,M,M,M,M,M,M,M,M,M,M,50.90,KTMT 141335Z AUTO 23006KT 10SM OVC090 11/09 A3002 RMK AO2 T01050092,M
BVU,2022-09-14 13:35,-114.8611,35.9475,671.00,66.20,60.80,82.74,0.00,0.00,0.00,29.92,M,M,M,M,M,M,M,M,M,M,M,M,M,M,M,M,M,M,66.20,KBVU 141335Z AUTO 00000KT 19/16 A2992 RMK AO2 TSNO,M
MEV,2022-09-14 13:35,-119.7500,38.9963,1441.42,37.40,32.00,80.65,130.00,7.00,0.00,29.98,M,10.00,M,CLR,M,M,M,M,M,M,M,M,M,M,M,M,M,M,31.36,KMEV 141335Z AUTO 13007KT 10SM CLR 03/00 A2998 RMK AO2,M
NFL,2022-09-14 13:36,-118.7010,39.4166,1199.00,58.00,40.00,51.02,160.00,4.00,0.00,29.92,M,3.00,M,FEW,OVC,M,M,3000.00,7500.00,M,M,HZ,M,M,M,M,M,M,57.90,KNFL 141336Z AUTO 16004KT 3SM HZ FEW030 OVC075 14/04 A2992 RMK AO2 T01440044,M
P68,2022-09-14 13:53,-116.0056,39.6014,1993.00,50.00,48.00,92.80,0.00,0.00,0.00,30.02,1011.40,M,M,M,M,M,M,M,M,M,M,M,M,M,M,M,M,M,50.00,KP68 141353Z AUTO 00000KT 10/09 A3002 RMK AO1 SLP114 T01000089,M
DRA,2022-09-14 13:53,-116.0278,36.6206,1009.00,63.00,57.00,80.76,40.00,5.00,0.00,29.94,1009.70,10.00,M,CLR,M,M,M,M,M,M,M,M,M,M,M,M,M,M,63.00,KDRA 141353Z AUTO 04005KT 10SM CLR 17/14 A2994 RMK AO2 SLP097 T01720139,M
LOL,2022-09-14 13:53,-118.5701,40.0684,1192.43,52.00,40.00,63.24,0.00,0.00,0.00,29.93,1010.80,3.00,M,OVC,M,M,M,9500.00,M,M,M,HZ,M,M,M,M,M,M,52.00,KLOL 141353Z AUTO 00000KT 3SM HZ OVC095 11/04 A2993 RMK AO2 SLP108 T01110044 $,M
ELY,2022-09-14 13:53,-114.8453,39.2950,1909.00,47.00,46.00,96.66,180.00,3.00,0.00,30.06,1012.50,10.00,M,FEW,M,M,M,12000.00,M,M,M,M,M,M,M,M,M,M,45.72,KELY 141353Z AUTO 18003KT 10SM FEW120 08/08 A3006 RMK AO2 SLP125 T00830078 $,M
VGT,2022-09-14 13:53,-115.1933,36.2111,667.00,67.00,60.00,78.77,100.00,4.00,0.00,29.91,1012.40,10.00,M,CLR,M,M,M,M,M,M,M,M,M,M,M,M,M,M,66.90,KVGT 141353Z 10004KT 10SM CLR 19/16 A2991 RMK AO2 SLP124 T01940156,M
TMT,2022-09-14 13:55,-117.1971,39.4643,1749.34,M,M,M,190.00,6.00,0.00,30.02,M,10.00,M,BKN,OVC,M,M,9000.00,12000.00,M,M,M,M,M,M,M,M,M,M,KTMT 141355Z AUTO 19006KT 10SM BKN090 OVC120 A3002 RMK AO2,M
BAM,2022-09-14 13:55,-116.8743,40.5990,1382.36,55.40,48.20,76.66,80.00,3.00,0.00,29.97,M,10.00,M,OVC,M,M,M,11000.00,M,M,M,M,M,M,M,M,M,M,55.40,KBAM 141355Z AUTO 08003KT 10SM OVC110 13/09 A2997 RMK AO1,M
HTH,2022-09-14 13:55,-118.6315,38.5448,1282.89,59.00,51.80,76.98,0.00,0.00,0.00,29.95,M,10.00,M,FEW,SCT,BKN,M,2400.00,6500.00,9000.00,M,M,M,M,M,M,M,M,59.00,KHTH 141355Z AUTO 00000KT 10SM FEW024 SCT065 BKN090 15/11 A2995 RMK A01,M
BVU,2022-09-14 13:55,-114.8611,35.9475,671.00,66.20,60.80,82.74,300.00,3.00,0.00,29.92,M,M,M,M,M,M,M,M,M,M,M,M,M,M,M,M,M,M,66.20,KBVU 141355Z AUTO 30003KT 19/16 A2992 RMK AO2 TSNO,M
CXP,2022-09-14 13:55,-119.7326,39.1923,1431.00,44.60,37.40,75.68,0.00,0.00,0.00,30.00,M,6.00,M,CLR,M,M,M,M,M,M,M,HZ,M,M,M,M,M,M,44.60,KCXP 141355Z AUTO 00000KT 6SM HZ CLR 07/03 A3000 RMK AO2,M
RNO,2022-09-14 13:55,-119.7711,39.4839,1341.00,53.00,39.00,58.64,190.00,3.00,0.00,29.98,1011.00,2.00,M,SCT,SCT,M,M,2300.00,10000.00,M,M,FU,M,M,M,M,M,M,53.10,KRNO 141355Z 19003KT 2SM FU SCT023 SCT100 12/04 A2998 RMK AO2 SLP110 FU SCT023 T01170039,M
RTS,2022-09-14 13:55,-119.8764,39.6682,1539.00,42.80,32.00,65.38,0.00,0.00,0.00,30.01,M,1.75,M,BKN,M,M,M,300.00,M,M,M,HZ,M,M,M,M,M,M,42.80,KRTS 141355Z AUTO 00000KT 1 3/4SM HZ BKN003 06/00 A3001 RMK AO2,M
MEV,2022-09-14 13:55,-119.7500,38.9963,1441.42,35.60,32.00,86.59,0.00,0.00,0.00,29.98,M,10.00,M,CLR,M,M,M,M,M,M,M,M,M,M,M,M,M,M,35.60,KMEV 141355Z AUTO 00000KT 10SM CLR 02/M00 A2998 RMK AO2,M
WMC,2022-09-14 13:56,-117.8072,40.9019,1315.00,50.00,46.00,86.06,100.00,3.00,0.00,29.95,1011.10,10.00,M,OVC,M,M,M,9500.00,M,M,M,M,M,M,M,M,M,M,50.00,KWMC 141356Z AUTO 10003KT 10SM OVC095 10/08 A2995 RMK AO2 SLP111 T01000078,M
LAS,2022-09-14 13:56,-115.1634,36.0719,663.00,69.00,58.00,67.50,0.00,0.00,0.00,29.92,1011.00,10.00,M,SCT,BKN,M,M,4500.00,11000.00,M,M,M,M,M,M,M,M,M,69.10,KLAS 141356Z 00000KT 10SM SCT045 BKN110 21/14 A2992 RMK AO2 SLP110 T02060144,M
EKO,2022-09-14 13:56,-115.7860,40.8242,1367.00,50.00,47.00,89.04,70.00,5.00,0.00,29.99,1012.60,10.00,M,CLR,M,M,M,M,M,M,M,M,M,M,M,M,M,M,50.00,KEKO 141356Z AUTO 07005KT 10SM CLR 10/08 A2999 RMK AO2 SLP126 T01000083,M
NFL,2022-09-14 13:56,-118.7010,39.4166,1199.00,56.00,43.00,61.81,150.00,6.00,0.00,29.93,1010.80,2.50,M,FEW,SCT,OVC,M,3300.00,6000.00,7500.00,M,HZ,M,M,M,M,M,M,55.90,KNFL 141356Z AUTO 15006KT 2 1/2SM HZ FEW033 SCT060 OVC075 13/06 A2993 RMK AO2 SLP108 T01330061,M
TPH,2022-09-14 13:56,-117.0904,38.0505,1654.00,53.00,52.00,96.03,360.00,3.00,0.00,30.03,1012.50,10.00,M,CLR,M,M,M,M,M,M,M,M,M,M,M,M,M,M,53.10,KTPH 141356Z AUTO 36003KT 10SM CLR 12/11 A3003 RMK AO2 SLP125 T01170111,M
LSV,2022-09-14 13:56,-115.0343,36.2362,570.00,65.50,65.50,100.00,80.00,4.00,0.00,29.90,1011.00,10.00,M,CLR,M,M,M,M,M,M,M,M,M,M,M,M,M,M,65.50,KLSV 141356Z AUTO 08004KT 10SM CLR 19/19 A2990 RMK AO2 SLP110 T01860186 $,M
INS,2022-09-14 13:56,-115.6733,36.5872,955.00,61.70,61.30,98.59,130.00,4.00,0.00,29.94,1010.20,10.00,M,CLR,M,M,M,M,M,M,M,M,M,M,M,M,M,M,61.70,KINS 141356Z AUTO 13004KT 10SM CLR 17/16 A2994 RMK AO2 SLP102 T01650163 $,M
RTS,2022-09-14 14:15,-119.8764,39.6682,1539.00,42.80,32.00,65.38,0.00,0.00,0.00,30.01,M,1.75,M,BKN,M,M,M,300.00,M,M,M,HZ,M,M,M,M,M,M,42.80,KRTS 141415Z AUTO 00000KT 1 3/4SM HZ BKN003 06/00 A3001 RMK AO2,M
TMT,2022-09-14 14:15,-117.1971,39.4643,1749.34,M,M,M,200.00,3.00,0.00,30.03,M,10.00,M,OVC,M,M,M,11000.00,M,M,M,M,M,M,M,M,M,M,M,KTMT 141415Z AUTO 20003KT 10SM OVC110 A3003 RMK AO2,M
BAM,2022-09-14 14:15,-116.8743,40.5990,1382.36,55.40,50.00,81.99,50.00,6.00,0.00,29.97,M,10.00,M,OVC,M,M,M,11000.00,M,M,M,M,M,M,M,M,M,M,55.40,KBAM 141415Z AUTO 05006KT 10SM OVC110 13/10 A2997 RMK AO1,M
HTH,2022-09-14 14:15,-118.6315,38.5448,1282.89,57.20,51.80,82.12,0.00,0.00,0.00,29.96,M,10.00,M,FEW,FEW,BKN,M,2300.00,6500.00,9000.00,M,M,M,M,M,M,M,M,57.20,KHTH 141415Z AUTO 00000KT 10SM FEW023 FEW065 BKN090 14/11 A2996 RMK A01,M
MEV,2022-09-14 14:15,-119.7500,38.9963,1441.42,35.60,32.00,86.59,0.00,0.00,0.00,29.99,M,8.00,M,CLR,M,M,M,M,M,M,M,M,M,M,M,M,M,M,35.60,KMEV 141415Z AUTO 00000KT 8SM CLR 02/00 A2999 RMK AO2,M
CXP,2022-09-14 14:15,-119.7326,39.1923,1431.00,44.60,35.60,70.48,0.00,0.00,0.00,30.00,M,6.00,M,CLR,M,M,M,M,M,M,M,HZ,M,M,M,M,M,M,44.60,KCXP 141415Z AUTO 00000KT 6SM HZ CLR 07/02 A3000 RMK AO2,M
BVU,2022-09-14 14:15,-114.8611,35.9475,671.00,66.20,60.80,82.74,0.00,0.00,0.00,29.92,M,M,M,M,M,M,M,M,M,M,M,M,M,M,M,M,M,M,66.20,KBVU 141415Z AUTO 00000KT 19/16 A2992 RMK AO2 TSNO,M
RTS,2022-09-14 14:35,-119.8764,39.6682,1539.00,44.60,32.00,61.03,0.00,0.00,0.00,30.02,M,1.75,M,BKN,M,M,M,300.00,M,M,M,HZ,M,M,M,M,M,M,44.60,KRTS 141435Z AUTO 00000KT 1 3/4SM HZ BKN003 07/00 A3002 RMK AO2,M
TMT,2022-09-14 14:35,-117.1971,39.4643,1749.34,M,M,M,0.00,0.00,0.00,30.04,M,10.00,M,OVC,M,M,M,11000.00,M,M,M,M,M,M,M,M,M,M,M,KTMT 141435Z AUTO 00000KT 10SM OVC110 A3004 RMK AO2,M
BVU,2022-09-14 14:35,-114.8611,35.9475,671.00,68.00,60.80,77.75,0.00,0.00,0.00,29.93,M,M,M,M,M,M,M,M,M,M,M,M,M,M,M,M,M,M,68.00,KBVU 141435Z AUTO 00000KT 20/16 A2993 RMK AO2 TSNO,M
CXP,2022-09-14 14:35,-119.7326,39.1923,1431.00,50.00,35.60,57.52,0.00,0.00,0.00,30.01,M,5.00,M,CLR,M,M,M,M,M,M,M,HZ,M,M,M,M,M,M,50.00,KCXP 141435Z AUTO 00000KT 5SM HZ CLR 10/02 A3001 RMK AO2,M
MEV,2022-09-14 14:35,-119.7500,38.9963,1441.42,41.00,35.60,80.93,0.00,0.00,0.00,29.99,M,10.00,M,CLR,M,M,M,M,M,M,M,M,M,M,M,M,M,M,41.00,KMEV 141435Z AUTO 00000KT 10SM CLR 05/02 A2999 RMK AO2,M
BAM,2022-09-14 14:35,-116.8743,40.5990,1382.36,55.40,50.00,81.99,50.00,3.00,0.00,29.98,M,10.00,M,OVC,M,M,M,10000.00,M,M,M,M,M,M,M,M,M,M,55.40,KBAM 141435Z AUTO 05003KT 10SM OVC100 13/10 A2998 RMK AO1,M
HTH,2022-09-14 14:35,-118.6315,38.5448,1282.89,60.80,51.80,72.20,0.00,0.00,0.00,29.96,M,10.00,M,FEW,SCT,M,M,9000.00,11000.00,M,M,M,M,M,M,M,M,M,60.80,KHTH 141435Z AUTO 00000KT 10SM FEW090 SCT110 16/11 A2996 RMK A01,M
NFL,2022-09-14 14:36,-118.7010,39.4166,1199.00,60.00,42.00,51.35,200.00,4.00,0.00,29.94,M,2.00,M,BKN,BKN,M,M,3000.00,15000.00,M,M,FU,M,M,M,M,M,M,60.10,KNFL 141436Z 20004KT 2SM FU BKN030 BKN150 16/06 A2994 RMK AO2 FU BKN030 T01560056,M
DRA,2022-09-14 14:53,-116.0278,36.6206,1009.00,65.00,57.00,75.56,0.00,0.00,0.00,29.95,1010.50,10.00,M,CLR,M,M,M,M,M,M,M,M,M,M,M,M,M,M,64.90,KDRA 141453Z AUTO 00000KT 10SM CLR 18/14 A2995 RMK AO2 SLP105 T01830139 53012,M
P68,2022-09-14 14:53,-116.0056,39.6014,1993.00,54.00,49.00,82.82,0.00,0.00,0.00,30.03,1011.60,M,M,M,M,M,M,M,M,M,M,M,M,M,M,M,M,M,54.00,KP68 141453Z AUTO 00000KT 12/09 A3003 RMK AO1 SLP116 T01220094 53006,M
LOL,2022-09-14 14:53,-118.5701,40.0684,1192.43,52.00,43.00,71.28,0.00,0.00,0.00,29.94,1011.40,8.00,M,FEW,BKN,OVC,M,3300.00,3900.00,9000.00,M,M,M,M,M,M,M,M,52.00,KLOL 141453Z AUTO 00000KT 8SM FEW033 BKN039 OVC090 11/06 A2994 RMK AO2 SLP114 T01110061 52011,M
VGT,2022-09-14 14:53,-115.1933,36.2111,667.00,69.00,60.00,73.03,130.00,5.00,0.00,29.91,1012.70,10.00,M,CLR,M,M,M,M,M,M,M,M,M,M,M,M,M,M,69.10,KVGT 141453Z 13005KT 10SM CLR 21/16 A2991 RMK AO2 SLP127 T02060156 51009,M
ELY,2022-09-14 14:53,-114.8453,39.2950,1909.00,51.00,50.00,96.00,0.00,0.00,0.00,30.07,1012.20,10.00,M,CLR,M,M,M,M,M,M,M,M,M,M,M,M,M,M,51.10,KELY 141453Z AUTO 00000KT 10SM CLR 11/10 A3007 RMK AO2 SLP122 T01060100 53005 $,M
CXP,2022-09-14 14:55,-119.7326,39.1923,1431.00,50.00,37.40,61.76,0.00,0.00,0.00,30.01,M,6.00,M,CLR,M,M,M,M,M,M,M,HZ,M,M,M,M,M,M,50.00,KCXP 141455Z AUTO 00000KT 6SM HZ CLR 10/03 A3001 RMK AO2,M
RNO,2022-09-14 14:55,-119.7711,39.4839,1341.00,55.00,40.00,56.66,0.00,0.00,0.00,29.99,1011.50,2.00,M,SCT,SCT,M,M,2300.00,10000.00,M,M,FU,M,M,M,M,M,M,55.00,KRNO 141455Z 00000KT 2SM FU SCT023 SCT100 13/04 A2999 RMK AO2 SLP115 FU SCT023 T01280044 53010,M
RTS,2022-09-14 14:55,-119.8764,39.6682,1539.00,44.60,33.80,65.61,0.00,0.00,0.00,30.02,M,1.75,M,SCT,M,M,M,300.00,M,M,M,HZ,M,M,M,M,M,M,44.60,KRTS 141455Z AUTO 00000KT 1 3/4SM HZ SCT003 07/01 A3002 RMK AO2,M
MEV,2022-09-14 14:55,-119.7500,38.9963,1441.42,48.20,37.40,66.05,0.00,0.00,0.00,29.99,M,10.00,M,CLR,M,M,M,M,M,M,M,M,M,M,M,M,M,M,48.20,KMEV 141455Z AUTO 00000KT 10SM CLR 09/03 A2999 RMK AO2,M
BAM,2022-09-14 14:55,-116.8743,40.5990,1382.36,55.40,50.00,81.99,30.00,4.00,0.00,29.99,M,10.00,M,OVC,M,M,M,10000.00,M,M,M,M,M,M,M,M,M,M,55.40,KBAM 141455Z AUTO 03004KT 10SM OVC100 13/10 A2999 RMK AO1,M
HTH,2022-09-14 14:55,-118.6315,38.5448,1282.89,62.60,51.80,67.75,0.00,0.00,0.00,29.96,M,10.00,M,FEW,SCT,BKN,M,6500.00,9000.00,11000.00,M,M,M,M,M,M,M,M,62.60,KHTH 141455Z AUTO 00000KT 10SM FEW065 SCT090 BKN110 17/11 A2996 RMK A01,M
TMT,2022-09-14 14:55,-117.1971,39.4643,1749.34,M,M,M,210.00,3.00,0.00,30.05,M,10.00,M,OVC,M,M,M,11000.00,M,M,M,M,M,M,M,M,M,M,M,KTMT 141455Z AUTO 21003KT 10SM OVC110 A3005 RMK AO2,M
BVU,2022-09-14 14:55,-114.8611,35.9475,671.00,68.00,60.80,77.75,280.00,4.00,0.00,29.93,M,M,M,M,M,M,M,M,M,M,M,M,M,M,M,M,M,M,68.00,KBVU 141455Z AUTO 28004KT 20/16 A2993 RMK AO2 TSNO,M
LAS,2022-09-14 14:56,-115.1634,36.0719,663.00,69.00,58.00,67.50,110.00,3.00,0.00,29.93,1011.30,10.00,M,FEW,SCT,M,M,4500.00,11000.00,M,M,M,M,M,M,M,M,M,69.10,KLAS 141456Z 11003KT 10SM FEW045 SCT110 21/14 A2993 RMK AO2 SLP113 T02060144 52010,M
INS,2022-09-14 14:56,-115.6733,36.5872,955.00,64.20,60.00,85.91,80.00,4.00,0.00,29.95,1010.80,10.00,M,CLR,M,M,M,M,M,M,M,M,M,M,M,M,M,M,64.20,KINS 141456Z AUTO 08004KT 10SM CLR 18/16 A2995 RMK AO2 SLP108 T01790155 53010 $,M
TPH,2022-09-14 14:56,-117.0904,38.0505,1654.00,57.00,53.00,86.77,0.00,0.00,0.00,30.04,1012.40,10.00,M,FEW,M,M,M,11000.00,M,M,M,M,M,M,M,M,M,M,57.00,KTPH 141456Z AUTO 00000KT 10SM FEW110 14/12 A3004 RMK AO2 SLP124 T01390117 51011,M
NFL,2022-09-14 14:56,-118.7010,39.4166,1199.00,61.00,43.00,51.48,0.00,0.00,0.00,29.94,1011.20,2.00,M,BKN,BKN,M,M,3000.00,15000.00,M,M,FU,M,M,M,M,M,M,61.00,KNFL 141456Z 00000KT 2SM FU BKN030 BKN150 16/06 A2994 RMK AO2 SLP112 FU BKN030 T01610061 53012,M
LSV,2022-09-14 14:56,-115.0343,36.2362,570.00,68.40,68.40,100.00,70.00,9.00,0.00,29.90,1010.90,10.00,M,FEW,M,M,M,10000.00,M,M,M,M,M,M,M,M,M,M,68.40,KLSV 141456Z AUTO 07009KT 10SM FEW100 20/20 A2990 RMK AO2 SLP109 T02020202 52008 $,M
WMC,2022-09-14 14:56,-117.8072,40.9019,1315.00,54.00,49.00,82.82,0.00,0.00,0.00,29.96,1011.50,9.00,M,OVC,M,M,M,11000.00,M,M,M,M,M,M,M,M,M,M,54.00,KWMC 141456Z AUTO 00000KT 9SM OVC110 12/09 A2996 RMK AO2 SLP115 T01220094 51012,M
EKO,2022-09-14 14:56,-115.7860,40.8242,1367.00,54.00,48.00,80.07,100.00,4.00,0.00,30.00,1012.60,10.00,M,CLR,M,M,M,M,M,M,M,M,M,M,M,M,M,M,54.00,KEKO 141456Z AUTO 10004KT 10SM CLR 12/09 A3000 RMK AO2 SLP126 T01220089 51009,M
TMT,2022-09-14 15:15,-117.1971,39.4643,1749.34,M,M,M,200.00,4.00,0.00,30.04,M,10.00,M,OVC,M,M,M,11000.00,M,M,M,M,M,M,M,M,M,M,M,KTMT 141515Z AUTO 20004KT 10SM OVC110 A3004 RMK AO2,M
BVU,2022-09-14 15:15,-114.8611,35.9475,671.00,69.80,59.00,68.55,0.00,0.00,0.00,29.93,M,M,M,M,M,M,M,M,M,M,M,M,M,M,M,M,M,M,69.80,KBVU 141515Z AUTO 00000KT 21/15 A2993 RMK AO2 TSNO,M
CXP,2022-09-14 15:15,-119.7326,39.1923,1431.00,53.60,37.40,54.07,0.00,0.00,0.00,30.01,M,5.00,M,CLR,M,M,M,M,M,M,M,HZ,M,M,M,M,M,M,53.60,KCXP 141515Z AUTO 00000KT 5SM HZ CLR 12/03 A3001 RMK AO2,M
RTS,2022-09-14 15:15,-119.8764,39.6682,1539.00,48.20,33.80,57.26,0.00,0.00,0.00,30.02,M,2.00,M,CLR,M,M,M,M,M,M,M,HZ,M,M,M,M,M,M,48.20,KRTS 141515Z AUTO 00000KT 2SM HZ CLR 09/01 A3002 RMK AO2,M
MEV,2022-09-14 15:15,-119.7500,38.9963,1441.42,51.80,37.40,57.77,0.00,0.00,0.00,30.00,M,10.00,M,CLR,M,M,M,M,M,M,M,M,M,M,M,M,M,M,51.80,KMEV 141515Z AUTO 00000KT 10SM CLR 11/03 A3000 RMK AO2,M
BAM,2022-09-14 15:15,-116.8743,40.5990,1382.36,57.20,50.00,76.82,20.00,7.00,0.00,29.98,M,10.00,M,OVC,M,M,M,11000.00,M,M,M,M,M,M,M,M,M,M,57.20,KBAM 141515Z AUTO 02007KT 10SM OVC110 14/10 A2998 RMK AO1,M
HTH,2022-09-14 15:15,-118.6315,38.5448,1282.89,62.60,51.80,67.75,0.00,0.00,0.00,29.96,M,10.00,M,BKN,OVC,M,M,6500.00,9500.00,M,M,M,M,M,M,M,M,M,62.60,KHTH 141515Z AUTO 00000KT 10SM BKN065 OVC095 17/11 A2996 RMK A01,M
NFL,2022-09-14 15:26,-118.7010,39.4166,1199.00,63.00,40.00,42.56,270.00,3.00,0.00,29.94,M,1.50,M,BKN,BKN,M,M,3000.00,15000.00,M,M,FU,M,M,M,M,M,M,63.00,KNFL 141526Z 27003KT 1 1/2SM FU BKN030 BKN150 17/04 A2994 RMK AO2 FU BKN030 T01720044,M
BAM,2022-09-14 15:35,-116.8743,40.5990,1382.36,59.00,51.80,76.98,10.00,8.00,0.00,29.98,M,10.00,M,BKN,M,M,M,10000.00,M,M,M,M,M,M,M,M,M,M,59.00,KBAM 141535Z AUTO 01008KT 10SM BKN100 15/11 A2998 RMK AO1,M
BVU,2022-09-14 15:35,-114.8611,35.9475,671.00,69.80,60.80,73.09,0.00,0.00,0.00,29.93,M,M,M,M,M,M,M,M,M,M,M,M,M,M,M,M,M,M,69.80,KBVU 141535Z AUTO 00000KT 21/16 A2993 RMK AO2 TSNO,M
CXP,2022-09-14 15:35,-119.7326,39.1923,1431.00,55.40,37.40,50.64,0.00,0.00,0.00,30.01,M,4.00,M,CLR,M,M,M,M,M,M,M,HZ,M,M,M,M,M,M,55.40,KCXP 141535Z AUTO 00000KT 4SM HZ CLR 13/03 A3001 RMK AO2,M
RTS,2022-09-14 15:35,-119.8764,39.6682,1539.00,51.80,35.60,53.81,0.00,0.00,0.00,30.02,M,2.00,M,CLR,M,M,M,M,M,M,M,HZ,M,M,M,M,M,M,51.80,KRTS 141535Z AUTO 00000KT 2SM HZ CLR 11/02 A3002 RMK AO2,M
MEV,2022-09-14 15:35,-119.7500,38.9963,1441.42,55.40,37.40,50.64,0.00,0.00,0.00,29.99,M,10.00,M,CLR,M,M,M,M,M,M,M,M,M,M,M,M,M,M,55.40,KMEV 141535Z AUTO 00000KT 10SM CLR 13/03 A2999 RMK AO2,M
HTH,2022-09-14 15:35,-118.6315,38.5448,1282.89,64.40,53.60,67.95,300.00,5.00,0.00,29.96,M,10.00,M,BKN,BKN,M,M,6500.00,10000.00,M,M,M,M,M,M,M,M,M,64.40,KHTH 141535Z AUTO 30005KT 10SM BKN065 BKN100 18/12 A2996 RMK A01,M
TMT,2022-09-14 15:35,-117.1971,39.4643,1749.34,M,M,M,190.00,4.00,0.00,30.04,M,10.00,M,OVC,M,M,M,11000.00,M,M,M,M,M,M,M,M,M,M,M,KTMT 141535Z AUTO 19004KT 10SM OVC110 A3004 RMK AO2,M
HND,2022-09-14 15:52,-115.1344,35.9729,742.79,71.60,57.20,60.44,0.00,0.00,0.00,29.95,M,10.00,M,CLR,M,M,M,M,M,M,M,M,M,M,M,M,M,M,71.60,KHND 141552Z 00000KT 10SM CLR 22/14 A2995 RMK KP,M
P68,2022-09-14 15:53,-116.0056,39.6014,1993.00,59.00,49.00,69.12,0.00,0.00,0.00,30.03,1011.00,M,M,M,M,M,M,M,M,M,M,M,M,M,M,M,M,M,59.00,KP68 141553Z AUTO 00000KT 15/09 A3003 RMK AO1 SLP110 T01500094,M
DRA,2022-09-14 15:53,-116.0278,36.6206,1009.00,68.00,58.00,70.10,110.00,8.00,0.00,29.95,1010.30,10.00,M,CLR,M,M,M,M,M,M,M,M,M,M,M,M,M,M,68.00,KDRA 141553Z AUTO 11008KT 10SM CLR 20/14 A2995 RMK AO2 SLP103 T02000144,M
VGT,2022-09-14 15:53,-115.1933,36.2111,667.00,72.00,58.00,61.15,130.00,5.00,0.00,29.92,1012.70,10.00,M,CLR,M,M,M,M,M,M,M,M,M,M,M,M,M,M,72.00,KVGT 141553Z 13005KT 10SM CLR 22/14 A2992 RMK AO2 SLP127 T02220144,M
ELY,2022-09-14 15:53,-114.8453,39.2950,1909.00,57.00,51.00,80.60,0.00,0.00,0.00,30.08,1011.60,10.00,M,CLR,M,M,M,M,M,M,M,M,M,M,M,M,M,M,57.00,KELY 141553Z AUTO 00000KT 10SM CLR 14/11 A3008 RMK AO2 SLP116 T01390106,M
LOL,2022-09-14 15:53,-118.5701,40.0684,1192.43,55.00,42.00,61.69,180.00,3.00,0.00,29.95,1011.60,5.00,M,BKN,BKN,OVC,M,4400.00,5000.00,9000.00,M,HZ,M,M,M,M,M,M,55.00,KLOL 141553Z AUTO 18003KT 5SM HZ BKN044 BKN050 OVC090 13/06 A2995 RMK AO2 SLP116 T01280056,M
RNO,2022-09-14 15:55,-119.7711,39.4839,1341.00,59.00,38.00,45.36,0.00,0.00,0.00,29.98,1011.30,2.00,M,SCT,BKN,M,M,2200.00,23000.00,M,M,FU,M,M,M,M,M,M,59.00,KRNO 141555Z 00000KT 2SM FU SCT022 BKN230 15/03 A2998 RMK AO2 SLP113 FU SCT022 T01500033,M
CXP,2022-09-14 15:55,-119.7326,39.1923,1431.00,57.20,37.40,47.44,0.00,0.00,0.00,30.01,M,3.00,M,CLR,M,M,M,M,M,M,M,HZ,M,M,M,M,M,M,57.20,KCXP 141555Z AUTO 00000KT 3SM HZ CLR 14/03 A3001 RMK AO2,M
RTS,2022-09-14 15:55,-119.8764,39.6682,1539.00,55.40,35.60,47.16,0.00,0.00,0.00,30.02,M,2.00,M,CLR,M,M,M,M,M,M,M,HZ,M,M,M,M,M,M,55.40,KRTS 141555Z AUTO 00000KT 2SM HZ CLR 13/02 A3002 RMK AO2,M
MEV,2022-09-14 15:55,-119.7500,38.9963,1441.42,55.40,37.40,50.64,280.00,3.00,0.00,29.99,M,10.00,M,CLR,M,M,M,M,M,M,M,M,M,M,M,M,M,M,55.40,KMEV 141555Z AUTO 28003KT 10SM CLR 13/03 A2999 RMK AO2,M
BAM,2022-09-14 15:55,-116.8743,40.5990,1382.36,59.00,50.00,72.01,10.00,6.00,0.00,29.99,M,10.00,M,SCT,M,M,M,10000.00,M,M,M,M,M,M,M,M,M,M,59.00,KBAM 141555Z AUTO 01006KT 10SM SCT100 15/10 A2999 RMK AO1,M
HTH,2022-09-14 15:55,-118.6315,38.5448,1282.89,64.40,51.80,63.60,310.00,4.00,0.00,29.97,M,10.00,M,BKN,BKN,M,M,7000.00,10000.00,M,M,M,M,M,M,M,M,M,64.40,KHTH 141555Z AUTO 31004KT 10SM BKN070 BKN100 18/11 A2997 RMK A01,M
TMT,2022-09-14 15:55,-117.1971,39.4643,1749.34,M,M,M,210.00,5.00,0.00,30.03,M,10.00,M,OVC,M,M,M,12000.00,M,M,M,M,M,M,M,M,M,M,M,KTMT 141555Z AUTO 21005KT 10SM OVC120 A3003 RMK AO2,M
BVU,2022-09-14 15:55,-114.8611,35.9475,671.00,69.80,59.00,68.55,0.00,0.00,0.00,29.93,M,M,M,M,M,M,M,M,M,M,M,M,M,M,M,M,M,M,69.80,KBVU 141555Z AUTO 00000KT 21/15 A2993 RMK AO2 TSNO,M
EKO,2022-09-14 15:56,-115.7860,40.8242,1367.00,59.00,50.00,72.01,60.00,4.00,0.00,30.00,1012.40,10.00,M,CLR,M,M,M,M,M,M,M,M,M,M,M,M,M,M,59.00,KEKO 141556Z AUTO 06004KT 10SM CLR 15/10 A3000 RMK AO2 SLP124 T01500100,M
NFL,2022-09-14 15:56,-118.7010,39.4166,1199.00,65.00,37.00,35.54,320.00,3.00,0.00,29.94,1011.30,1.50,M,BKN,BKN,M,M,3000.00,15000.00,M,M,FU,M,M,M,M,M,M,64.90,KNFL 141556Z 32003KT 1 1/2SM FU BKN030 BKN150 18/03 A2994 RMK AO2 SLP113 FU BKN030 T01830028,M
WMC,2022-09-14 15:56,-117.8072,40.9019,1315.00,57.00,50.00,77.38,0.00,0.00,0.00,29.96,1011.30,9.00,M,FEW,M,M,M,12000.00,M,M,M,M,M,M,M,M,M,M,57.00,KWMC 141556Z AUTO 00000KT 9SM FEW120 14/10 A2996 RMK AO2 SLP113 T01390100,M
TPH,2022-09-14 15:56,-117.0904,38.0505,1654.00,58.00,52.00,80.67,0.00,0.00,0.00,30.04,1012.30,10.00,M,BKN,BKN,M,M,3200.00,4300.00,M,M,M,M,M,M,M,M,M,57.90,KTPH 141556Z AUTO 00000KT 10SM BKN032 BKN043 14/11 A3004 RMK AO2 SLP123 T01440111,M
INS,2022-09-14 15:56,-115.6733,36.5872,955.00,66.70,60.00,79.32,60.00,3.00,0.00,29.95,1010.50,10.00,M,FEW,M,M,M,1500.00,M,M,M,M,M,M,M,M,M,M,66.70,KINS 141556Z AUTO 06003KT 10SM FEW015 19/16 A2995 RMK AO2 SLP105 T01930156 $,M
LAS,2022-09-14 15:56,-115.1634,36.0719,663.00,73.00,58.00,59.12,50.00,5.00,0.00,29.93,1011.30,10.00,M,FEW,FEW,M,M,4500.00,11000.00,M,M,M,M,M,M,M,M,M,73.00,KLAS 141556Z 05005KT 10SM FEW045 FEW110 23/14 A2993 RMK AO2 SLP113 T02280144,M
LSV,2022-09-14 15:56,-115.0343,36.2362,570.00,71.40,71.40,100.00,70.00,10.00,0.00,29.91,1011.10,10.00,M,CLR,M,M,M,M,M,M,M,M,M,M,M,M,M,M,71.40,KLSV 141556Z AUTO 07010KT 10SM CLR 22/22 A2991 RMK AO2 SLP111 T02190219 $,M
HTH,2022-09-14 16:15,-118.6315,38.5448,1282.89,64.40,50.00,59.50,310.00,4.00,0.00,29.97,M,10.00,M,OVC,M,M,M,7500.00,M,M,M,M,M,M,M,M,M,M,64.40,KHTH 141615Z AUTO 31004KT 10SM OVC075 18/10 A2997 RMK A01,M
BVU,2022-09-14 16:15,-114.8611,35.9475,671.00,69.80,60.80,73.09,0.00,0.00,0.00,29.94,M,M,M,M,M,M,M,M,M,M,M,M,M,M,M,M,M,M,69.80,KBVU 141615Z AUTO 00000KT 21/16 A2994 RMK AO2 TSNO,M
CXP,2022-09-14 16:15,-119.7326,39.1923,1431.00,59.00,37.40,44.47,0.00,0.00,0.00,30.00,M,4.00,M,CLR,M,M,M,M,M,M,M,HZ,M,M,M,M,M,M,59.00,KCXP 141615Z AUTO 00000KT 4SM HZ CLR 15/03 A3000 RMK AO2,M
RTS,2022-09-14 16:15,-119.8764,39.6682,1539.00,59.00,35.60,41.42,0.00,0.00,0.00,30.02,M,3.00,M,CLR,M,M,M,M,M,M,M,HZ,M,M,M,M,M,M,59.00,KRTS 141615Z AUTO 00000KT 3SM HZ CLR 15/02 A3002 RMK AO2,M
MEV,2022-09-14 16:15,-119.7500,38.9963,1441.42,57.20,37.40,47.44,0.00,0.00,0.00,29.99,M,10.00,M,CLR,M,M,M,M,M,M,M,M,M,M,M,M,M,M,57.20,KMEV 141615Z AUTO 00000KT 10SM CLR 14/03 A2999 RMK AO2,M
BAM,2022-09-14 16:15,-116.8743,40.5990,1382.36,60.80,51.80,72.20,40.00,5.00,0.00,29.99,M,10.00,M,SCT,M,M,M,10000.00,M,M,M,M,M,M,M,M,M,M,60.80,KBAM 141615Z AUTO 04005KT 10SM SCT100 16/11 A2999 RMK AO1,M
TMT,2022-09-14 16:15,-117.1971,39.4643,1749.34,58.00,49.60,73.28,210.00,3.00,0.00,30.03,M,10.00,M,OVC,M,M,M,12000.00,M,M,M,M,M,M,M,M,M,M,58.10,KTMT 141615Z AUTO 21003KT 10SM OVC120 15/10 A3003 RMK AO2 T01450098,M
INS,2022-09-14 16:26,-115.6733,36.5872,955.00,66.20,60.80,82.74,110.00,4.00,0.00,29.96,1011.10,10.00,M,BKN,M,M,M,1500.00,M,M,M,M,M,M,M,M,M,M,66.20,KINS 141626Z AUTO 11004KT 10SM BKN015 19/16 A2996 RMK AO2 BKN V SCT SLP111 $,M
TMT,2022-09-14 16:35,-117.1971,39.4643,1749.34,60.00,49.00,67.44,0.00,0.00,0.00,30.05,M,10.00,M,OVC,M,M,M,12000.00,M,M,M,M,M,M,M,M,M,M,59.90,KTMT 141635Z AUTO 00000KT 10SM OVC120 16/10 A3005 RMK AO2 T01550095,M
BAM,2022-09-14 16:35,-116.8743,40.5990,1382.36,62.60,51.80,67.75,30.00,5.00,0.00,29.99,M,10.00,M,BKN,M,M,M,10000.00,M,M,M,M,M,M,M,M,M,M,62.60,KBAM 141635Z AUTO 03005KT 10SM BKN100 17/11 A2999 RMK AO1,M
HTH,2022-09-14 16:35,-118.6315,38.5448,1282.89,66.20,50.00,55.88,300.00,3.00,0.00,29.98,M,10.00,M,BKN,M,M,M,7500.00,M,M,M,M,M,M,M,M,M,M,66.20,KHTH 141635Z AUTO 30003KT 10SM BKN075 19/10 A2998 RMK A01,M
BVU,2022-09-14 16:35,-114.8611,35.9475,671.00,71.60,59.00,64.48,0.00,0.00,0.00,29.94,M,M,M,M,M,M,M,M,M,M,M,M,M,M,M,M,M,M,71.60,KBVU 141635Z AUTO 00000KT 22/15 A2994 RMK AO2 TSNO,M
CXP,2022-09-14 16:35,-119.7326,39.1923,1431.00,62.60,33.80,33.93,0.00,0.00,0.00,30.00,M,3.00,M,CLR,M,M,M,M,M,M,M,HZ,M,M,M,M,M,M,62.60,KCXP 141635Z AUTO 00000KT 3SM HZ CLR 17/01 A3000 RMK AO2,M
RTS,2022-09-14 16:35,-119.8764,39.6682,1539.00,60.80,37.40,41.71,0.00,0.00,0.00,30.02,M,3.00,M,CLR,M,M,M,M,M,M,M,HZ,M,M,M,M,M,M,60.80,KRTS 141635Z AUTO 00000KT 3SM HZ CLR 16/03 A3002 RMK AO2,M
MEV,2022-09-14 16:35,-119.7500,38.9963,1441.42,60.80,35.60,38.85,0.00,0.00,0.00,29.99,M,10.00,M,CLR,M,M,M,M,M,M,M,M,M,M,M,M,M,M,60.80,KMEV 141635Z AUTO 00000KT 10SM CLR 16/02 A2999 RMK AO2,M
INS,2022-09-14 16:43,-115.6733,36.5872,955.00,66.20,59.00,77.60,90.00,4.00,0.00,29.97,1011.40,10.00,M,SCT,M,M,M,1800.00,M,M,M,M,M,M,M,M,M,M,66.20,KINS 141643Z 09004KT 10SM SCT018 19/15 A2997 RMK SLP114 $,M
ELY,2022-09-14 16:53,-114.8453,39.2950,1909.00,60.00,50.00,69.24,0.00,0.00,0.00,30.08,1011.70,10.00,M,CLR,M,M,M,M,M,M,M,M,M,M,M,M,M,M,60.10,KELY 141653Z AUTO 00000KT 10SM CLR 16/10 A3008 RMK AO2 SLP117 T01560100,M
VGT,2022-09-14 16:53,-115.1933,36.2111,667.00,75.00,58.00,55.28,90.00,6.00,0.00,29.92,1012.80,10.00,M,CLR,M,M,M,M,M,M,M,M,M,M,M,M,M,M,75.00,KVGT 141653Z 09006KT 10SM CLR 24/14 A2992 RMK AO2 SLP128 T02390144,M
LOL,2022-09-14 16:53,-118.5701,40.0684,1192.43,63.00,41.00,44.41,0.00,0.00,0.00,29.96,1011.60,5.00,M,BKN,OVC,M,M,3800.00,4800.00,M,M,HZ,M,M,M,M,M,M,63.00,KLOL 141653Z AUTO 00000KT 5SM HZ BKN038 OVC048 17/05 A2996 RMK AO2 SLP116 T01720050,M
P68,2022-09-14 16:53,-116.0056,39.6014,1993.00,64.00,49.00,57.91,0.00,0.00,0.00,30.04,1010.80,M,M,M,M,M,M,M,M,M,M,M,M,M,M,M,M,M,64.00,KP68 141653Z AUTO 00000KT 18/09 A3004 RMK AO1 SLP108 T01780094,M
DRA,2022-09-14 16:53,-116.0278,36.6206,1009.00,73.00,57.00,57.23,40.00,3.00,0.00,29.96,1010.50,10.00,M,CLR,M,M,M,M,M,M,M,M,M,M,M,M,M,M,73.00,KDRA 141653Z AUTO 04003KT 10SM CLR 23/14 A2996 RMK AO2 SLP105 T02280139,M
RNO,2022-09-14 16:55,-119.7711,39.4839,1341.00,63.00,39.00,41.09,0.00,0.00,0.00,29.99,1011.30,2.00,M,SCT,BKN,M,M,1700.00,23000.00,M,M,FU,M,M,M,M,M,M,63.00,KRNO 141655Z 00000KT 2SM FU SCT017 BKN230 17/04 A2999 RMK AO2 SLP113 FU SCT017 T01720039,M
BVU,2022-09-14 16:55,-114.8611,35.9475,671.00,71.60,60.80,68.75,0.00,0.00,0.00,29.94,M,M,M,M,M,M,M,M,M,M,M,M,M,M,M,M,M,M,71.60,KBVU 141655Z AUTO 00000KT 22/16 A2994 RMK AO2 TSNO,M
CXP,2022-09-14 16:55,-119.7326,39.1923,1431.00,64.40,33.80,31.85,0.00,0.00,0.00,30.00,M,4.00,M,CLR,M,M,M,M,M,M,M,HZ,M,M,M,M,M,M,64.40,KCXP 141655Z AUTO 00000KT 4SM HZ CLR 18/01 A3000 RMK AO2,M
RTS,2022-09-14 16:55,-119.8764,39.6682,1539.00,62.60,35.60,36.45,130.00,3.00,0.00,30.02,M,3.00,M,CLR,M,M,M,M,M,M,M,HZ,M,M,M,M,M,M,62.60,KRTS 141655Z AUTO 13003KT 3SM HZ CLR 17/02 A3002 RMK AO2,M
MEV,2022-09-14 16:55,-119.7500,38.9963,1441.42,62.60,35.60,36.45,0.00,0.00,0.00,29.99,M,10.00,M,CLR,M,M,M,M,M,M,M,M,M,M,M,M,M,M,62.60,KMEV 141655Z AUTO 00000KT 10SM CLR 17/02 A2999 RMK AO2,M
BAM,2022-09-14 16:55,-116.8743,40.5990,1382.36,64.40,51.80,63.60,40.00,5.00,0.00,30.00,M,10.00,M,BKN,M,M,M,10000.00,M,M,M,M,M,M,M,M,M,M,64.40,KBAM 141655Z AUTO 04005KT 10SM BKN100 18/11 A3000 RMK AO1,M
HTH,2022-09-14 16:55,-118.6315,38.5448,1282.89,66.20,51.80,59.74,320.00,5.00,0.00,29.98,M,10.00,M,CLR,M,M,M,M,M,M,M,M,M,M,M,M,M,M,66.20,KHTH 141655Z AUTO 32005KT 10SM CLR 19/11 A2998 RMK A01,M
TMT,2022-09-14 16:55,-117.1971,39.4643,1749.34,M,M,M,0.00,0.00,0.00,30.05,M,10.00,M,OVC,M,M,M,12000.00,M,M,M,M,M,M,M,M,M,M,M,KTMT 141655Z AUTO 00000KT 10SM OVC120 A3005 RMK AO2 LTG DSNT N,M
TPH,2022-09-14 16:56,-117.0904,38.0505,1654.00,63.00,51.00,65.09,120.00,5.00,0.00,30.05,1012.40,10.00,M,SCT,BKN,M,M,3700.00,4900.00,M,M,M,M,M,M,M,M,M,63.00,KTPH 141656Z AUTO 12005KT 10SM SCT037 BKN049 17/11 A3005 RMK AO2 SLP124 T01720106,M
WMC,2022-09-14 16:56,-117.8072,40.9019,1315.00,67.00,38.00,34.35,0.00,0.00,0.00,29.98,1011.40,9.00,M,BKN,M,M,M,10000.00,M,M,M,M,M,M,M,M,M,M,66.90,KWMC 141656Z AUTO 00000KT 9SM BKN100 19/03 A2998 RMK AO2 SLP114 T01940033,M
LAS,2022-09-14 16:56,-115.1634,36.0719,663.00,75.00,57.00,53.52,10.00,5.00,0.00,29.94,1011.60,10.00,M,FEW,FEW,M,M,4500.00,11000.00,M,M,M,M,M,M,M,M,M,75.00,KLAS 141656Z 01005KT 10SM FEW045 FEW110 24/14 A2994 RMK AO2 SLP116 T02390139,M
EKO,2022-09-14 16:56,-115.7860,40.8242,1367.00,64.00,50.00,60.34,0.00,0.00,0.00,30.01,1012.40,10.00,M,CLR,M,M,M,M,M,M,M,M,M,M,M,M,M,M,64.00,KEKO 141656Z AUTO 00000KT 10SM CLR 18/10 A3001 RMK AO2 SLP124 T01780100,M
INS,2022-09-14 16:56,-115.6733,36.5872,955.00,67.30,59.40,75.77,0.00,0.00,0.00,29.97,1011.40,10.00,M,SCT,M,M,M,1800.00,M,M,M,M,M,M,M,M,M,M,67.30,KINS 141656Z 00000KT 10SM SCT018 20/15 A2997 RMK SLP114 T01960152 $,M
LSV,2022-09-14 16:56,-115.0343,36.2362,570.00,75.00,65.70,72.83,50.00,11.00,0.00,29.92,1011.30,10.00,M,CLR,M,M,M,M,M,M,M,M,M,M,M,M,M,M,75.00,KLSV 141656Z AUTO 05011KT 10SM CLR 24/19 A2992 RMK AO2 SLP113 T02390187 $,M
NFL,2022-09-14 16:56,-118.7010,39.4166,1199.00,68.00,37.00,31.92,320.00,5.00,0.00,29.96,1011.70,1.50,M,BKN,BKN,BKN,M,3000.00,9000.00,15000.00,M,FU,M,M,M,M,M,M,68.00,KNFL 141656Z 32005KT 1 1/2SM FU BKN030 BKN090 BKN150 20/03 A2996 RMK AO2 SLP117 FU BKN030 T02000028,M
HND,2022-09-14 16:57,-115.1344,35.9729,742.79,73.40,57.20,56.88,360.00,3.00,0.00,29.96,M,10.00,M,CLR,M,M,M,M,M,M,M,M,M,M,M,M,M,M,73.40,KHND 141657Z 36003KT 10SM CLR 23/14 A2996 RMK KP,M
RNO,2022-09-14 17:07,-119.7711,39.4839,1341.00,65.00,39.00,38.44,0.00,0.00,0.00,29.99,M,1.50,M,SCT,BKN,M,M,1500.00,23000.00,M,M,FU,M,M,M,M,M,M,64.90,KRNO 141707Z 00000KT 1 1/2SM FU SCT015 BKN230 18/04 A2999 RMK AO2 FU SCT015 T01830039,M
RNO,2022-09-14 17:10,-119.7711,39.4839,1341.00,65.00,39.00,39.43,0.00,0.00,0.00,29.99,M,1.00,M,BKN,BKN,M,M,1500.00,23000.00,M,M,FU,M,M,M,M,M,M,64.40,KRNO 141710Z 00000KT 1SM R16R/P6000FT FU BKN015 BKN230 18/04 A2999 RMK AO2 FU BKN015 T01830039,M
CXP,2022-09-14 17:15,-119.7326,39.1923,1431.00,66.20,32.00,27.83,0.00,0.00,0.00,30.00,M,5.00,M,CLR,M,M,M,M,M,M,M,HZ,M,M,M,M,M,M,66.20,KCXP 141715Z AUTO 00000KT 5SM HZ CLR 19/00 A3000 RMK AO2,M
RTS,2022-09-14 17:15,-119.8764,39.6682,1539.00,64.40,35.60,34.22,0.00,0.00,0.00,30.02,M,5.00,M,CLR,M,M,M,M,M,M,M,HZ,M,M,M,M,M,M,64.40,KRTS 141715Z AUTO 00000KT 5SM HZ CLR 18/02 A3002 RMK AO2,M
TMT,2022-09-14 17:15,-117.1971,39.4643,1749.34,M,M,M,0.00,0.00,0.00,30.05,M,10.00,M,BKN,M,M,M,12000.00,M,M,M,M,M,M,M,M,M,M,M,KTMT 141715Z AUTO 00000KT 10SM BKN120 A3005 RMK AO2,M
HTH,2022-09-14 17:15,-118.6315,38.5448,1282.89,68.00,50.00,52.51,310.00,3.00,0.00,29.98,M,10.00,M,CLR,M,M,M,M,M,M,M,M,M,M,M,M,M,M,68.00,KHTH 141715Z AUTO 31003KT 10SM CLR 20/10 A2998 RMK A01,M
BVU,2022-09-14 17:15,-114.8611,35.9475,671.00,73.40,59.00,60.67,0.00,0.00,0.00,29.94,M,M,M,M,M,M,M,M,M,M,M,M,M,M,M,M,M,M,73.40,KBVU 141715Z AUTO 00000KT 23/15 A2994 RMK AO2 TSNO,M
BAM,2022-09-14 17:15,-116.8743,40.5990,1382.36,66.20,51.80,59.74,40.00,3.00,0.00,29.99,M,10.00,M,SCT,M,M,M,10000.00,M,M,M,M,M,M,M,M,M,M,66.20,KBAM 141715Z AUTO 04003KT 10SM SCT100 19/11 A2999 RMK AO1,M
MEV,2022-09-14 17:15,-119.7500,38.9963,1441.42,64.40,33.80,31.85,0.00,0.00,0.00,29.99,M,10.00,M,CLR,M,M,M,M,M,M,M,M,M,M,M,M,M,M,64.40,KMEV 141715Z AUTO 00000KT 10SM CLR 18/01 A2999 RMK AO2,M
MEV,2022-09-14 17:35,-119.7500,38.9963,1441.42,68.00,33.80,28.11,0.00,0.00,0.00,29.99,M,10.00,M,CLR,M,M,M,M,M,M,M,M,M,M,M,M,M,M,68.00,KMEV 141735Z AUTO 00000KT 10SM CLR 20/01 A2999 RMK AO2,M
BAM,2022-09-14 17:35,-116.8743,40.5990,1382.36,68.00,51.80,56.13,0.00,0.00,0.00,29.99,M,10.00,M,BKN,M,M,M,10000.00,M,M,M,M,M,M,M,M,M,M,68.00,KBAM 141735Z AUTO 00000KT 10SM BKN100 20/11 A2999 RMK AO1,M
HTH,2022-09-14 17:35,-118.6315,38.5448,1282.89,69.80,48.20,46.16,300.00,4.00,0.00,29.97,M,10.00,M,CLR,M,M,M,M,M,M,M,M,M,M,M,M,M,M,69.80,KHTH 141735Z AUTO 30004KT 10SM CLR 21/09 A2997 RMK A01,M
TMT,2022-09-14 17:35,-117.1971,39.4643,1749.34,M,M,M,0.00,0.00,0.00,30.05,M,10.00,M,OVC,M,M,M,12000.00,M,M,M,M,M,M,M,M,M,M,M,KTMT 141735Z AUTO 00000KT 10SM OVC120 A3005 RMK AO2,M
BVU,2022-09-14 17:35,-114.8611,35.9475,671.00,73.40,59.00,60.67,0.00,0.00,0.00,29.94,M,M,M,M,M,M,M,M,M,M,M,M,M,M,M,M,M,M,73.40,KBVU 141735Z AUTO 00000KT 23/15 A2994 RMK AO2 TSNO,M
CXP,2022-09-14 17:35,-119.7326,39.1923,1431.00,69.80,32.00,24.59,0.00,0.00,0.00,30.00,M,10.00,M,CLR,M,M,M,M,M,M,M,M,M,M,M,M,M,M,69.80,KCXP 141735Z AUTO 00000KT 10SM CLR 21/M00 A3000 RMK AO2,M
RTS,2022-09-14 17:35,-119.8764,39.6682,1539.00,66.20,33.80,29.92,0.00,0.00,0.00,30.02,M,8.00,M,CLR,M,M,M,M,M,M,M,M,M,M,M,M,M,M,66.20,KRTS 141735Z AUTO 00000KT 8SM CLR 19/01 A3002 RMK AO2,M
NFL,2022-09-14 17:39,-118.7010,39.4166,1199.00,69.00,33.00,26.32,330.00,5.00,0.00,29.96,M,2.00,M,BKN,BKN,BKN,M,3000.00,8000.00,15000.00,M,FU,M,M,M,M,M,M,69.10,KNFL 141739Z 33005KT 2SM FU BKN030 BKN080 BKN150 21/01 A2996 RMK AO2 FU BKN030 T02060006,M
LOL,2022-09-14 17:53,-118.5701,40.0684,1192.43,70.00,38.00,30.88,50.00,6.00,0.00,29.96,1011.20,4.00,M,BKN,BKN,OVC,M,4000.00,4600.00,8000.00,M,HZ,M,M,M,M,M,M,70.00,KLOL 141753Z AUTO 05006KT 4SM HZ BKN040 BKN046 OVC080 21/03 A2996 RMK AO2 SLP112 T02110033 10211 20083 50004,M
P68,2022-09-14 17:53,-116.0056,39.6014,1993.00,67.00,47.00,48.56,0.00,0.00,0.00,30.04,1010.60,M,M,M,M,M,M,M,M,M,M,M,M,M,M,M,M,M,66.90,KP68 141753Z AUTO 00000KT 19/08 A3004 RMK AO1 SLP106 T01940083 10194 20100 50000,M
ELY,2022-09-14 17:53,-114.8453,39.2950,1909.00,64.00,50.00,60.34,0.00,0.00,0.00,30.08,1010.70,10.00,M,CLR,M,M,M,M,M,M,M,M,M,M,M,M,M,M,64.00,KELY 141753Z AUTO 00000KT 10SM CLR 18/10 A3008 RMK AO2 SLP107 T01780100 10178 20078 50003,M
DRA,2022-09-14 17:53,-116.0278,36.6206,1009.00,74.00,57.00,55.53,140.00,6.00,0.00,29.95,1010.30,10.00,M,CLR,M,M,M,M,M,M,M,M,M,M,M,M,M,M,73.90,KDRA 141753Z AUTO 14006KT 10SM CLR 23/14 A2995 RMK AO2 SLP103 T02330139 10239 20172 50002,M
VGT,2022-09-14 17:53,-115.1933,36.2111,667.00,77.00,57.00,50.07,100.00,7.00,0.00,29.92,1012.70,10.00,M,CLR,M,M,M,M,M,M,M,M,M,M,M,M,M,M,77.00,KVGT 141753Z 10007KT 10SM CLR 25/14 A2992 RMK AO2 SLP127 T02500139 10256 20194 50002,M
BAM,2022-09-14 17:55,-116.8743,40.5990,1382.36,68.00,51.80,56.13,0.00,0.00,0.00,29.99,M,10.00,M,BKN,M,M,M,10000.00,M,M,M,M,M,M,M,M,M,M,68.00,KBAM 141755Z AUTO 00000KT 10SM BKN100 20/11 A2999 RMK AO1,M
BVU,2022-09-14 17:55,-114.8611,35.9475,671.00,75.20,59.00,57.12,50.00,4.00,0.00,29.93,M,M,M,M,M,M,M,M,M,M,M,M,M,M,M,M,M,M,75.20,KBVU 141755Z AUTO 05004KT 24/15 A2993 RMK AO2 TSNO,M
CXP,2022-09-14 17:55,-119.7326,39.1923,1431.00,69.80,30.20,22.86,0.00,0.00,0.00,30.00,M,10.00,M,CLR,M,M,M,M,M,M,M,M,M,M,M,M,M,M,69.80,KCXP 141755Z AUTO 00000KT 10SM CLR 21/M01 A3000 RMK AO2,M
RNO,2022-09-14 17:55,-119.7711,39.4839,1341.00,68.00,39.00,34.53,20.00,3.00,0.00,29.98,1010.60,1.00,M,BKN,BKN,M,M,1500.00,23000.00,M,M,FU,M,M,M,M,M,M,68.00,KRNO 141755Z 02003KT 1SM R16R/P6000FT FU BKN015 BKN230 20/04 A2998 RMK AO2 SLP106 FU BKN015 T02000039 10206 20111 58002,M
RTS,2022-09-14 17:55,-119.8764,39.6682,1539.00,66.20,33.80,29.92,0.00,0.00,0.00,30.02,M,9.00,M,CLR,M,M,M,M,M,M,M,M,M,M,M,M,M,M,66.20,KRTS 141755Z AUTO 00000KT 9SM CLR 19/01 A3002 RMK AO2,M
MEV,2022-09-14 17:55,-119.7500,38.9963,1441.42,69.80,28.40,21.24,360.00,3.00,0.00,29.98,M,10.00,M,CLR,M,M,M,M,M,M,M,M,M,M,M,M,M,M,69.80,KMEV 141755Z AUTO 36003KT 10SM CLR 21/M02 A2998 RMK AO2,M
HTH,2022-09-14 17:55,-118.6315,38.5448,1282.89,69.80,42.80,37.61,10.00,5.00,0.00,29.97,M,8.00,M,CLR,M,M,M,M,M,M,M,M,M,M,M,M,M,M,69.80,KHTH 141755Z AUTO 01005KT 8SM CLR 21/06 A2997 RMK A01,M
TMT,2022-09-14 17:55,-117.1971,39.4643,1749.34,M,M,M,0.00,0.00,0.00,30.05,M,10.00,M,OVC,M,M,M,12000.00,M,M,M,M,M,M,M,M,M,M,M,KTMT 141755Z AUTO 00000KT 10SM OVC120 A3005 RMK AO2,M
EKO,2022-09-14 17:56,-115.7860,40.8242,1367.00,70.00,50.00,49.03,0.00,0.00,0.00,30.00,1011.80,10.00,M,FEW,M,M,M,12000.00,M,M,M,M,M,M,M,M,M,M,70.00,KEKO 141756Z AUTO 00000KT 10SM FEW120 21/10 A3000 RMK AO2 SLP118 T02110100 10211 20094 57001,M
TPH,2022-09-14 17:56,-117.0904,38.0505,1654.00,65.00,52.00,62.96,170.00,7.00,0.00,30.05,1012.10,10.00,M,FEW,M,M,M,3300.00,M,M,M,M,M,M,M,M,M,M,64.90,KTPH 141756Z AUTO 17007KT 10SM FEW033 18/11 A3005 RMK AO2 SLP121 T01830111 10183 20111 50002,M
LSV,2022-09-14 17:56,-115.0343,36.2362,570.00,78.30,60.30,53.98,40.00,10.00,0.00,29.91,1010.90,10.00,M,CLR,M,M,M,M,M,M,M,M,M,M,M,M,M,M,78.30,KLSV 141756Z AUTO 04010KT 10SM CLR 26/16 A2991 RMK AO2 SLP109 T02570157 10257 20186 50002 $,M
LAS,2022-09-14 17:56,-115.1634,36.0719,663.00,78.00,58.00,49.87,60.00,7.00,0.00,29.94,1011.60,10.00,M,FEW,FEW,M,M,7000.00,13000.00,M,M,M,M,M,M,M,M,M,78.10,KLAS 141756Z 06007KT 10SM FEW070 FEW130 26/14 A2994 RMK AO2 SLP116 T02560144 10256 20200 50002,M
NFL,2022-09-14 17:56,-118.7010,39.4166,1199.00,70.00,34.00,26.46,330.00,5.00,0.00,29.95,1011.50,2.00,M,BKN,BKN,BKN,M,3000.00,8000.00,15000.00,M,FU,M,M,M,M,M,M,70.00,KNFL 141756Z 33005KT 2SM FU BKN030 BKN080 BKN150 21/01 A2995 RMK AO2 SLP115 FU BKN030 T02110011 10211 20133 50003,M
WMC,2022-09-14 17:56,-117.8072,40.9019,1315.00,69.00,36.00,29.55,280.00,5.00,0.00,29.98,1011.50,10.00,M,BKN,OVC,M,M,9000.00,11000.00,M,M,M,M,M,M,M,M,M,69.10,KWMC 141756Z AUTO 28005KT 10SM BKN090 OVC110 21/02 A2998 RMK AO2 SLP115 T02060022 10211 20083 52005,M
HND,2022-09-14 17:58,-115.1344,35.9729,742.79,75.20,59.00,57.12,40.00,5.00,0.00,29.96,M,10.00,M,CLR,M,M,M,M,M,M,M,M,M,M,M,M,M,M,75.20,KHND 141758Z 04005KT 10SM CLR 24/15 A2996 RMK KP,M
MEV,2022-09-14 18:15,-119.7500,38.9963,1441.42,71.60,30.20,21.50,100.00,4.00,0.00,29.98,M,10.00,M,CLR,M,M,M,M,M,M,M,M,M,M,M,M,M,M,71.60,KMEV 141815Z AUTO 10004KT 10SM CLR 22/M01 A2998 RMK AO2,M
HTH,2022-09-14 18:15,-118.6315,38.5448,1282.89,71.60,42.80,35.37,330.00,7.00,0.00,29.96,M,6.00,M,CLR,M,M,M,M,M,M,M,HZ,M,M,M,M,M,M,71.60,KHTH 141815Z AUTO 33007KT 6SM HZ CLR 22/06 A2996 RMK A01,M
TMT,2022-09-14 18:15,-117.1971,39.4643,1749.34,M,M,M,0.00,0.00,0.00,30.05,M,10.00,M,BKN,M,M,M,12000.00,M,M,M,M,M,M,M,M,M,M,M,KTMT 141815Z AUTO 00000KT 10SM BKN120 A3005 RMK AO2,M
BVU,2022-09-14 18:15,-114.8611,35.9475,671.00,75.20,59.00,57.12,0.00,0.00,0.00,29.93,M,M,M,M,M,M,M,M,M,M,M,M,M,M,M,M,M,M,75.20,KBVU 141815Z AUTO 00000KT 24/15 A2993 RMK AO2 TSNO,M
CXP,2022-09-14 18:15,-119.7326,39.1923,1431.00,69.80,30.20,22.86,0.00,0.00,0.00,29.99,M,10.00,M,CLR,M,M,M,M,M,M,M,M,M,M,M,M,M,M,69.80,KCXP 141815Z AUTO 00000KT 10SM CLR 21/M01 A2999 RMK AO2,M
RTS,2022-09-14 18:15,-119.8764,39.6682,1539.00,68.00,33.80,28.11,160.00,5.00,0.00,30.01,M,10.00,11.00,CLR,M,M,M,M,M,M,M,M,M,M,M,M,M,M,68.00,KRTS 141815Z AUTO 16005G11KT 10SM CLR 20/01 A3001 RMK AO2,M
BAM,2022-09-14 18:15,-116.8743,40.5990,1382.36,69.80,51.80,52.77,360.00,5.00,0.00,29.99,M,10.00,M,SCT,M,M,M,10000.00,M,M,M,M,M,M,M,M,M,M,69.80,KBAM 141815Z AUTO 36005KT 10SM SCT100 21/11 A2999 RMK AO1,M
RNO,2022-09-14 18:18,-119.7711,39.4839,1341.00,71.00,37.00,28.71,0.00,0.00,0.00,29.97,M,2.50,M,SCT,BKN,M,M,2200.00,23000.00,M,M,FU,M,M,M,M,M,M,71.10,KRNO 141818Z 00000KT 2 1/2SM FU SCT022 BKN230 22/03 A2997 RMK AO2 FU SCT022 T02170028,M
INS,2022-09-14 18:32,-115.6733,36.5872,955.00,74.00,58.30,57.80,M,3.00,0.00,29.95,1010.40,10.00,M,CLR,M,M,M,M,M,M,M,M,M,M,M,M,M,M,74.10,KINS 141832Z VRB03KT 10SM CLR 23/15 A2995 RMK SLP104 T02340146 $,M
BAM,2022-09-14 18:35,-116.8743,40.5990,1382.36,69.80,51.80,52.77,340.00,3.00,0.00,29.99,M,10.00,M,BKN,M,M,M,10000.00,M,M,M,M,M,M,M,M,M,M,69.80,KBAM 141835Z AUTO 34003KT 10SM BKN100 21/11 A2999 RMK AO1,M
TMT,2022-09-14 18:35,-117.1971,39.4643,1749.34,M,M,M,0.00,0.00,0.00,30.04,M,10.00,M,SCT,SCT,M,M,9500.00,12000.00,M,M,M,M,M,M,M,M,M,M,KTMT 141835Z AUTO 00000KT 10SM SCT095 SCT120 A3004 RMK AO2,M
HTH,2022-09-14 18:35,-118.6315,38.5448,1282.89,73.40,41.00,31.05,M,4.00,0.00,29.96,M,5.00,M,CLR,M,M,M,M,M,M,M,HZ,M,M,M,M,M,M,73.40,KHTH 141835Z AUTO VRB04KT 5SM HZ CLR 23/05 A2996 RMK A01,M
BVU,2022-09-14 18:35,-114.8611,35.9475,671.00,75.20,59.00,57.12,70.00,5.00,0.00,29.93,M,M,M,M,M,M,M,M,M,M,M,M,M,M,M,M,M,M,75.20,KBVU 141835Z AUTO 07005KT 24/15 A2993 RMK AO2 TSNO,M
CXP,2022-09-14 18:35,-119.7326,39.1923,1431.00,71.60,28.40,19.98,10.00,4.00,0.00,29.99,M,10.00,M,CLR,M,M,M,M,M,M,M,M,M,M,M,M,M,M,71.60,KCXP 141835Z AUTO 01004KT 10SM CLR 22/M02 A2999 RMK AO2,M
RTS,2022-09-14 18:35,-119.8764,39.6682,1539.00,68.00,33.80,28.11,120.00,4.00,0.00,30.01,M,10.00,M,CLR,M,M,M,M,M,M,M,M,M,M,M,M,M,M,68.00,KRTS 141835Z AUTO 12004KT 10SM CLR 20/01 A3001 RMK AO2,M
MEV,2022-09-14 18:35,-119.7500,38.9963,1441.42,73.40,30.20,20.23,M,4.00,0.00,29.97,M,10.00,M,CLR,M,M,M,M,M,M,M,M,M,M,M,M,M,M,73.40,KMEV 141835Z AUTO VRB04KT 10SM CLR 23/M01 A2997 RMK AO2,M
RNO,2022-09-14 18:50,-119.7711,39.4839,1341.00,73.40,37.40,26.98,320.00,4.00,0.00,29.96,M,3.00,M,SCT,BKN,M,M,2500.00,23000.00,M,M,FU,M,M,M,M,M,M,73.40,KRNO 141850Z 32004KT 3SM FU SCT025 BKN230 23/03 A2996 RMK AO2 FU SCT025,M
LOL,2022-09-14 18:53,-118.5701,40.0684,1192.43,71.00,37.00,28.71,80.00,5.00,0.00,29.95,1011.20,3.00,M,M,M,M,M,M,M,M,M,-RA,M,M,M,M,M,M,71.10,KLOL 141853Z AUTO 08005KT 3SM -RA 22/03 A2995 RMK AO2 RAB49 SLP112 T02170028 PNO,M
VGT,2022-09-14 18:53,-115.1933,36.2111,667.00,80.00,58.00,46.70,90.00,9.00,0.00,29.90,1012.30,10.00,16.00,CLR,M,M,M,M,M,M,M,M,M,M,M,M,M,M,80.58,KVGT 141853Z 09009G16KT 10SM CLR 27/14 A2990 RMK AO2 SLP123 T02670144,M
DRA,2022-09-14 18:53,-116.0278,36.6206,1009.00,78.00,56.00,46.40,M,3.00,0.00,29.94,1009.70,10.00,M,CLR,M,M,M,M,M,M,M,M,M,M,M,M,M,M,78.10,KDRA 141853Z AUTO VRB03KT 10SM CLR 26/13 A2994 RMK AO2 SLP097 T02560133,M
P68,2022-09-14 18:53,-116.0056,39.6014,1993.00,68.00,50.00,52.51,310.00,4.00,0.00,30.02,1009.80,M,M,M,M,M,M,M,M,M,M,M,M,M,M,M,M,M,68.00,KP68 141853Z AUTO 31004KT 20/10 A3002 RMK AO1 SLP098 T02000100,M
ELY,2022-09-14 18:53,-114.8453,39.2950,1909.00,66.00,48.00,52.22,0.00,0.00,0.00,30.06,1010.20,10.00,M,SCT,M,M,M,11000.00,M,M,M,M,M,M,M,M,M,M,66.00,KELY 141853Z AUTO 00000KT 10SM SCT110 19/09 A3006 RMK AO2 SLP102 T01890089,M
BVU,2022-09-14 18:55,-114.8611,35.9475,671.00,77.00,59.00,53.80,50.00,5.00,0.00,29.92,M,M,M,M,M,M,M,M,M,M,M,M,M,M,M,M,M,M,77.00,KBVU 141855Z AUTO 05005KT 25/15 A2992 RMK AO2 TSNO,M
CXP,2022-09-14 18:55,-119.7326,39.1923,1431.00,73.40,28.40,18.80,310.00,6.00,0.00,29.98,M,10.00,M,CLR,M,M,M,M,M,M,M,M,M,M,M,M,M,M,73.40,KCXP 141855Z AUTO 31006KT 10SM CLR 23/M02 A2998 RMK AO2,M
RTS,2022-09-14 18:55,-119.8764,39.6682,1539.00,69.80,33.80,26.43,M,4.00,0.00,30.01,M,9.00,M,CLR,M,M,M,M,M,M,M,M,M,M,M,M,M,M,69.80,KRTS 141855Z AUTO VRB04KT 9SM CLR 21/01 A3001 RMK AO2,M
MEV,2022-09-14 18:55,-119.7500,38.9963,1441.42,73.40,28.40,18.80,0.00,0.00,0.00,29.96,M,10.00,M,CLR,M,M,M,M,M,M,M,M,M,M,M,M,M,M,73.40,KMEV 141855Z AUTO 00000KT 10SM CLR 23/M02 A2996 RMK AO2,M
BAM,2022-09-14 18:55,-116.8743,40.5990,1382.36,71.60,48.20,43.42,340.00,6.00,0.00,29.99,M,10.00,M,BKN,M,M,M,10000.00,M,M,M,M,M,M,M,M,M,M,71.60,KBAM 141855Z AUTO 34006KT 10SM BKN100 22/09 A2999 RMK AO1,M
RNO,2022-09-14 18:55,-119.7711,39.4839,1341.00,74.00,37.00,26.12,280.00,4.00,0.00,29.96,1009.60,3.00,M,SCT,BKN,M,M,2500.00,23000.00,M,M,FU,M,M,M,M,M,M,73.90,KRNO 141855Z 28004KT 3SM FU SCT025 BKN230 23/03 A2996 RMK AO2 SLP096 FU SCT025 T02330028,M
HTH,2022-09-14 18:55,-118.6315,38.5448,1282.89,73.40,39.20,28.96,310.00,5.00,0.00,29.95,M,5.00,11.00,CLR,M,M,M,M,M,M,M,HZ,M,M,M,M,M,M,73.40,KHTH 141855Z AUTO 31005G11KT 5SM HZ CLR 23/04 A2995 RMK A01,M
TMT,2022-09-14 18:55,-117.1971,39.4643,1749.34,M,M,M,230.00,4.00,0.00,30.03,M,10.00,M,SCT,SCT,BKN,M,3700.00,6000.00,9500.00,M,M,M,M,M,M,M,M,M,KTMT 141855Z AUTO 23004KT 10SM SCT037 SCT060 BKN095 A3003 RMK AO2 LTG DSNT SE,M
LAS,2022-09-14 18:56,-115.1634,36.0719,663.00,78.00,57.00,48.28,80.00,9.00,0.00,29.92,1011.20,10.00,M,FEW,FEW,M,M,8000.00,13000.00,M,M,M,M,M,M,M,M,M,78.10,KLAS 141856Z 08009KT 10SM FEW080 FEW130 26/14 A2992 RMK AO2 SLP112 T02560139,M
EKO,2022-09-14 18:56,-115.7860,40.8242,1367.00,71.00,49.00,45.33,M,M,0.00,29.98,1011.20,10.00,M,CLR,M,M,M,M,M,M,M,M,M,M,M,M,M,M,71.10,KEKO 141856Z AUTO 10SM CLR 22/09 A2998 RMK AO2 SLP112 T02170094,M
WMC,2022-09-14 18:56,-117.8072,40.9019,1315.00,71.00,32.00,23.52,0.00,0.00,0.00,29.97,1011.10,10.00,M,FEW,BKN,BKN,M,7000.00,9500.00,11000.00,M,M,M,M,M,M,M,M,71.10,KWMC 141856Z AUTO 00000KT 10SM FEW070 BKN095 BKN110 22/00 A2997 RMK AO2 SLP111 T02170000,M
TPH,2022-09-14 18:56,-117.0904,38.0505,1654.00,69.00,53.00,56.70,190.00,9.00,0.00,30.03,1011.10,10.00,M,SCT,M,M,M,3200.00,M,M,M,M,M,M,M,M,M,M,69.10,KTPH 141856Z AUTO 19009KT 10SM SCT032 21/12 A3003 RMK AO2 SLP111 T02060117,M
INS,2022-09-14 18:56,-115.6733,36.5872,955.00,74.80,57.00,53.88,40.00,5.00,0.00,29.95,1010.40,10.00,M,CLR,M,M,M,M,M,M,M,M,M,M,M,M,M,M,74.80,KINS 141856Z AUTO 04005KT 10SM CLR 24/14 A2995 RMK AO2 SLP104 T02380139 $,M
NFL,2022-09-14 18:56,-118.7010,39.4166,1199.00,75.00,30.90,19.73,30.00,5.00,0.00,29.94,1011.10,2.00,M,BKN,BKN,BKN,M,3000.00,8000.00,12000.00,M,FU,M,M,M,M,M,M,75.00,KNFL 141856Z 03005KT 2SM FU BKN030 BKN080 BKN120 24/M01 A2994 RMK AO2 SLP111 FU BKN030 T02391006,M
HTH,2022-09-14 19:15,-118.6315,38.5448,1282.89,73.40,39.20,28.96,320.00,7.00,0.00,29.95,M,5.00,12.00,CLR,M,M,M,M,M,M,M,HZ,M,M,M,M,M,M,73.40,KHTH 141915Z AUTO 32007G12KT 280V340 5SM HZ CLR 23/04 A2995 RMK A01,M
TMT,2022-09-14 19:15,-117.1971,39.4643,1749.34,M,M,M,140.00,6.00,0.00,30.03,M,10.00,M,SCT,BKN,BKN,M,3700.00,9500.00,12000.00,M,M,M,M,M,M,M,M,M,KTMT 141915Z AUTO 14006KT 10SM SCT037 BKN095 BKN120 A3003 RMK AO2,M
RNO,2022-09-14 19:15,-119.7711,39.4839,1341.00,74.00,36.00,25.11,270.00,5.00,0.00,29.96,M,4.00,M,SCT,BKN,M,M,3500.00,23000.00,M,M,FU,M,M,M,M,M,M,73.90,KRNO 141915Z 27005KT 4SM FU SCT035 BKN230 23/02 A2996 RMK AO2 FU SCT035 T02330022,M
RTS,2022-09-14 19:15,-119.8764,39.6682,1539.00,68.00,32.00,26.15,120.00,5.00,0.00,30.00,M,9.00,M,CLR,M,M,M,M,M,M,M,M,M,M,M,M,M,M,68.00,KRTS 141915Z AUTO 12005KT 9SM CLR 20/00 A3000 RMK AO2,M
MEV,2022-09-14 19:15,-119.7500,38.9963,1441.42,75.20,28.40,17.70,0.00,0.00,0.00,29.96,M,3.00,M,CLR,M,M,M,M,M,M,M,HZ,M,M,M,M,M,M,75.20,KMEV 141915Z AUTO 00000KT 3SM HZ CLR 24/M02 A2996 RMK AO2,M
BAM,2022-09-14 19:15,-116.8743,40.5990,1382.36,73.40,44.60,35.66,330.00,4.00,0.00,29.98,M,10.00,M,SCT,M,M,M,10000.00,M,M,M,M,M,M,M,M,M,M,73.40,KBAM 141915Z AUTO 33004KT 10SM SCT100 23/07 A2998 RMK AO1,M
BVU,2022-09-14 19:15,-114.8611,35.9475,671.00,78.80,59.00,50.69,60.00,6.00,0.00,29.91,M,M,M,M,M,M,M,M,M,M,M,M,M,M,M,M,M,M,78.80,KBVU 141915Z AUTO 06006KT 26/15 A2991 RMK AO2 TSNO,M
CXP,2022-09-14 19:15,-119.7326,39.1923,1431.00,73.40,26.60,17.46,0.00,0.00,0.00,29.97,M,10.00,M,CLR,M,M,M,M,M,M,M,M,M,M,M,M,M,M,73.40,KCXP 141915Z AUTO 00000KT 10SM CLR 23/M03 A2997 RMK AO2,M
INS,2022-09-14 19:18,-115.6733,36.5872,955.00,75.20,57.20,53.55,50.00,5.00,0.00,29.94,1009.90,10.00,M,CLR,M,M,M,M,M,M,M,-RA,M,M,M,M,M,M,75.20,KINS 141918Z AUTO 05005KT 10SM -RA CLR 24/14 A2994 RMK AO2 RAB18 SLP099 $,M
LOL,2022-09-14 19:25,-118.5701,40.0684,1192.43,73.00,35.00,24.97,100.00,3.00,T,29.94,M,2.50,M,BKN,OVC,M,M,3300.00,9000.00,M,M,HZ,M,M,M,M,M,M,73.00,KLOL 141925Z AUTO 10003KT 2 1/2SM HZ BKN033 OVC090 23/02 A2994 RMK AO2 RAE1858 P0000 T02280017,M
INS,2022-09-14 19:25,-115.6733,36.5872,955.00,75.20,57.20,53.55,70.00,7.00,0.00,29.94,1009.90,10.00,M,CLR,M,M,M,M,M,M,M,M,M,M,M,M,M,M,75.20,KINS 141925Z AUTO 07007KT 10SM CLR 24/14 A2994 RMK AO2 RAB18E25 SLP099 $,M
MEV,2022-09-14 19:35,-119.7500,38.9963,1441.42,75.20,28.40,17.70,M,4.00,0.00,29.95,M,4.00,M,CLR,M,M,M,M,M,M,M,HZ,M,M,M,M,M,M,75.20,KMEV 141935Z AUTO VRB04KT 4SM HZ CLR 24/M02 A2995 RMK AO2,M
HTH,2022-09-14 19:35,-118.6315,38.5448,1282.89,75.20,39.20,27.26,10.00,5.00,0.00,29.94,M,6.00,M,CLR,M,M,M,M,M,M,M,HZ,M,M,M,M,M,M,75.20,KHTH 141935Z AUTO 01005KT 6SM HZ CLR 24/04 A2994 RMK A01,M
BAM,2022-09-14 19:35,-116.8743,40.5990,1382.36,73.40,41.00,31.05,360.00,7.00,0.00,29.97,M,10.00,M,CLR,M,M,M,M,M,M,M,M,M,M,M,M,M,M,73.40,KBAM 141935Z AUTO 36007KT 320V020 10SM CLR 23/05 A2997 RMK AO1,M
RTS,2022-09-14 19:35,-119.8764,39.6682,1539.00,69.80,32.00,24.59,150.00,4.00,0.00,29.99,M,9.00,M,CLR,M,M,M,M,M,M,M,M,M,M,M,M,M,M,69.80,KRTS 141935Z AUTO 15004KT 9SM CLR 21/00 A2999 RMK AO2,M
BVU,2022-09-14 19:35,-114.8611,35.9475,671.00,78.80,60.80,54.05,90.00,5.00,0.00,29.90,M,M,M,M,M,M,M,M,M,M,M,M,M,M,M,M,M,M,78.80,KBVU 141935Z AUTO 09005KT 26/16 A2990 RMK AO2 TSNO,M
TMT,2022-09-14 19:35,-117.1971,39.4643,1749.34,M,M,M,140.00,7.00,0.00,30.03,M,10.00,M,SCT,OVC,M,M,6500.00,8500.00,M,M,VCTS,M,M,M,M,M,M,M,KTMT 141935Z AUTO 14007KT 10SM VCTS SCT065 OVC085 A3003 RMK AO2 LTG DSNT SE AND S,M
CXP,2022-09-14 19:35,-119.7326,39.1923,1431.00,77.00,26.60,15.48,170.00,7.00,0.00,29.97,M,10.00,13.00,CLR,M,M,M,M,M,M,M,M,M,M,M,M,M,M,77.00,KCXP 141935Z AUTO 17007G13KT 10SM CLR 25/M03 A2997 RMK AO2,M
LOL,2022-09-14 19:45,-118.5701,40.0684,1192.43,74.00,36.00,25.11,90.00,4.00,T,29.93,M,2.50,M,BKN,BKN,OVC,M,2900.00,3500.00,8500.00,M,HZ,M,M,M,M,M,M,73.90,KLOL 141945Z AUTO 09004KT 2 1/2SM HZ BKN029 BKN035 OVC085 23/02 A2993 RMK AO2 RAE1858 P0000 T02330022,M
HND,2022-09-14 19:51,-115.1344,35.9729,742.79,82.40,60.80,48.05,20.00,9.00,0.00,29.92,M,10.00,M,CLR,M,M,M,M,M,M,M,M,M,M,M,M,M,M,82.90,KHND 141951Z 02009KT 10SM CLR 28/16 A2992 RMK KP,M
ELY,2022-09-14 19:53,-114.8453,39.2950,1909.00,69.00,48.00,46.92,M,5.00,0.00,30.05,1009.30,10.00,M,FEW,SCT,M,M,4600.00,6500.00,M,M,M,M,M,M,M,M,M,69.10,KELY 141953Z AUTO VRB05KT 10SM FEW046 SCT065 21/09 A3005 RMK AO2 LTG DSNT SE SLP093 T02060089,M
VGT,2022-09-14 19:53,-115.1933,36.2111,667.00,82.00,58.00,43.89,M,3.00,0.00,29.88,1011.50,10.00,15.00,CLR,M,M,M,M,M,M,M,M,M,M,M,M,M,M,81.92,KVGT 141953Z VRB03G15KT 10SM CLR 28/14 A2988 RMK AO2 SLP115 T02780144,M
P68,2022-09-14 19:53,-116.0056,39.6014,1993.00,67.00,50.00,54.54,90.00,5.00,0.00,30.01,1009.70,M,M,M,M,M,M,M,M,M,M,M,M,M,M,M,M,M,66.90,KP68 141953Z AUTO 09005KT 19/10 A3001 RMK AO1 SLP097 T01940100,M
DRA,2022-09-14 19:53,-116.0278,36.6206,1009.00,79.00,54.00,42.03,M,M,0.00,29.92,1009.00,10.00,M,FEW,M,M,M,8000.00,M,M,M,M,M,M,M,M,M,M,79.00,KDRA 141953Z AUTO 10SM FEW080 26/12 A2992 RMK AO2 SLP090 T02610122,M
LOL,2022-09-14 19:53,-118.5701,40.0684,1192.43,74.00,35.00,24.23,90.00,4.00,T,29.93,1010.20,2.50,M,BKN,BKN,OVC,M,2900.00,3600.00,8500.00,M,HZ,M,M,M,M,M,M,73.90,KLOL 141953Z AUTO 09004KT 2 1/2SM HZ BKN029 BKN036 OVC085 23/02 A2993 RMK AO2 RAE1858 SLP102 P0000 T02330017,M
HTH,2022-09-14 19:55,-118.6315,38.5448,1282.89,75.20,41.00,29.23,0.00,0.00,0.00,29.93,M,6.00,M,CLR,M,M,M,M,M,M,M,HZ,M,M,M,M,M,M,75.20,KHTH 141955Z AUTO 00000KT 6SM HZ CLR 24/05 A2993 RMK A01,M
RNO,2022-09-14 19:55,-119.7711,39.4839,1341.00,77.00,35.00,21.85,300.00,5.00,0.00,29.94,1008.90,5.00,M,BKN,M,M,M,20000.00,M,M,M,FU,M,M,M,M,M,M,77.00,KRNO 141955Z 30005KT 5SM FU BKN200 25/02 A2994 RMK AO2 SLP089 FU ALQDS T02500017,M
RTS,2022-09-14 19:55,-119.8764,39.6682,1539.00,71.60,32.00,23.13,150.00,6.00,0.00,29.99,M,10.00,M,CLR,M,M,M,M,M,M,M,M,M,M,M,M,M,M,71.60,KRTS 141955Z AUTO 15006KT 10SM CLR 22/M00 A2999 RMK AO2,M
MEV,2022-09-14 19:55,-119.7500,38.9963,1441.42,75.20,30.20,19.05,330.00,7.00,0.00,29.94,M,10.00,M,CLR,M,M,M,M,M,M,M,M,M,M,M,M,M,M,75.20,KMEV 141955Z AUTO 33007KT 10SM CLR 24/M01 A2994 RMK AO2,M
BAM,2022-09-14 19:55,-116.8743,40.5990,1382.36,75.20,39.20,27.26,350.00,4.00,0.00,29.97,M,10.00,M,CLR,M,M,M,M,M,M,M,M,M,M,M,M,M,M,75.20,KBAM 141955Z AUTO 35004KT 10SM CLR 24/04 A2997 RMK AO1,M
TMT,2022-09-14 19:55,-117.1971,39.4643,1749.34,M,M,M,150.00,8.00,0.00,30.03,M,10.00,M,SCT,SCT,BKN,M,3000.00,5500.00,7000.00,M,-VCTSDZ,M,M,M,M,M,M,M,KTMT 141955Z AUTO 15008KT 10SM -VCTSDZ SCT030 SCT055 BKN070 A3003 RMK AO2 LTG DSNT N THRU SE,M
CXP,2022-09-14 19:55,-119.7326,39.1923,1431.00,77.00,28.40,16.67,170.00,7.00,0.00,29.96,M,10.00,M,CLR,M,M,M,M,M,M,M,M,M,M,M,M,M,M,77.00,KCXP 141955Z AUTO 17007KT 10SM CLR 25/M02 A2996 RMK AO2,M
BVU,2022-09-14 19:55,-114.8611,35.9475,671.00,80.60,59.00,47.79,60.00,4.00,0.00,29.90,M,M,M,M,M,M,M,M,M,M,M,M,M,M,M,M,M,M,81.11,KBVU 141955Z AUTO 06004KT 27/15 A2990 RMK AO2 TSNO,M
INS,2022-09-14 19:56,-115.6733,36.5872,955.00,76.00,56.00,49.94,80.00,7.00,T,29.93,1009.40,10.00,M,CLR,M,M,M,M,M,M,M,M,M,M,M,M,M,M,76.10,KINS 141956Z AUTO 08007KT 10SM CLR 25/13 A2993 RMK AO2 RAB18E25 SLP094 P0000 T02450134 $,M
TPH,2022-09-14 19:56,-117.0904,38.0505,1654.00,70.00,53.00,54.98,220.00,10.00,0.00,30.02,1010.50,10.00,17.00,CLR,M,M,M,M,M,M,M,M,M,M,M,M,M,M,70.00,KTPH 141956Z AUTO 22010G17KT 10SM CLR 21/12 A3002 RMK AO2 SLP105 T02110117,M
LAS,2022-09-14 19:56,-115.1634,36.0719,663.00,80.00,58.00,46.70,50.00,8.00,0.00,29.89,1010.30,10.00,M,FEW,FEW,M,M,9000.00,13000.00,M,M,M,M,M,M,M,M,M,80.58,KLAS 141956Z 05008KT 10SM FEW090 FEW130 27/14 A2989 RMK AO2 SLP103 CB DSNT E T02670144,M
WMC,2022-09-14 19:56,-117.8072,40.9019,1315.00,70.00,33.00,25.53,230.00,3.00,0.00,29.96,1011.10,9.00,M,OVC,M,M,M,10000.00,M,M,M,M,M,M,M,M,M,M,70.00,KWMC 141956Z AUTO 23003KT 9SM OVC100 21/01 A2996 RMK AO2 SLP111 T02110006,M
LSV,2022-09-14 19:56,-115.0343,36.2362,570.00,83.70,61.20,46.73,70.00,5.00,0.00,29.87,1009.50,10.00,M,FEW,FEW,M,M,17000.00,20000.00,M,M,M,M,M,M,M,M,M,84.12,KLSV 141956Z AUTO 07005KT 10SM FEW170 FEW200 29/16 A2987 RMK AO2 SLP095 T02870162 $,M
EKO,2022-09-14 19:56,-115.7860,40.8242,1367.00,71.00,50.00,47.23,230.00,5.00,0.00,29.97,1010.90,10.00,M,CLR,M,M,M,M,M,M,M,M,M,M,M,M,M,M,71.10,KEKO 141956Z AUTO 23005KT 10SM CLR 22/10 A2997 RMK AO2 SLP109 T02170100,M
NFL,2022-09-14 19:56,-118.7010,39.4166,1199.00,77.00,32.00,19.30,M,3.00,0.00,29.92,1010.50,2.00,M,BKN,BKN,BKN,M,3000.00,8000.00,12000.00,M,FU,M,M,M,M,M,M,77.00,KNFL 141956Z VRB03KT 2SM FU BKN030 BKN080 BKN120 25/00 A2992 RMK AO2 SLP105 FU BKN030 T02500000,M
MEV,2022-09-14 20:15,-119.7500,38.9963,1441.42,75.20,30.20,19.05,300.00,9.00,0.00,29.94,M,10.00,M,CLR,M,M,M,M,M,M,M,M,M,M,M,M,M,M,75.20,KMEV 142015Z AUTO 30009KT 10SM CLR 24/M01 A2994 RMK AO2,M
BAM,2022-09-14 20:15,-116.8743,40.5990,1382.36,75.20,41.00,29.23,330.00,5.00,0.00,29.96,M,10.00,M,SCT,M,M,M,10000.00,M,M,M,M,M,M,M,M,M,M,75.20,KBAM 142015Z AUTO 33005KT 10SM SCT100 24/05 A2996 RMK AO1,M
HTH,2022-09-14 20:15,-118.6315,38.5448,1282.89,75.20,41.00,29.23,290.00,6.00,0.00,29.92,M,7.00,M,FEW,M,M,M,11000.00,M,M,M,M,M,M,M,M,M,M,75.20,KHTH 142015Z AUTO 29006KT 7SM FEW110 24/05 A2992 RMK A01,M
BVU,2022-09-14 20:15,-114.8611,35.9475,671.00,80.60,59.00,47.79,90.00,4.00,0.00,29.89,M,M,M,M,M,M,M,M,M,M,M,M,M,M,M,M,M,M,81.11,KBVU 142015Z AUTO 09004KT 27/15 A2989 RMK AO2 TSNO,M
CXP,2022-09-14 20:15,-119.7326,39.1923,1431.00,75.20,28.40,17.70,M,3.00,0.00,29.96,M,10.00,M,CLR,M,M,M,M,M,M,M,M,M,M,M,M,M,M,75.20,KCXP 142015Z AUTO VRB03KT 10SM CLR 24/M02 A2996 RMK AO2 LTG DSNT E,M
RTS,2022-09-14 20:15,-119.8764,39.6682,1539.00,73.40,28.40,18.80,200.00,6.00,0.00,29.98,M,10.00,M,CLR,M,M,M,M,M,M,M,M,M,M,M,M,M,M,73.40,KRTS 142015Z AUTO 20006KT 10SM CLR 23/M02 A2998 RMK AO2,M
TMT,2022-09-14 20:15,-117.1971,39.4643,1749.34,M,M,M,150.00,9.00,0.00,30.02,M,10.00,M,SCT,SCT,BKN,M,2700.00,5500.00,11000.00,M,TS,M,M,M,M,M,M,M,KTMT 142015Z AUTO 15009KT 10SM TS SCT027 SCT055 BKN110 A3002 RMK AO2 LTG DSNT N THRU S,M
RTS,2022-09-14 20:35,-119.8764,39.6682,1539.00,71.60,28.40,19.98,M,5.00,0.00,29.98,M,10.00,13.00,CLR,M,M,M,M,M,M,M,M,M,M,M,M,M,M,71.60,KRTS 142035Z AUTO VRB05G13KT 10SM CLR 22/M02 A2998 RMK AO2,M
BVU,2022-09-14 20:35,-114.8611,35.9475,671.00,82.40,59.00,45.07,M,5.00,0.00,29.87,M,M,10.00,M,M,M,M,M,M,M,M,M,M,M,M,M,M,M,82.46,KBVU 142035Z AUTO VRB05G10KT 28/15 A2987 RMK AO2 TSNO,M
CXP,2022-09-14 20:35,-119.7326,39.1923,1431.00,77.00,28.40,16.67,0.00,0.00,0.00,29.96,M,10.00,10.00,CLR,M,M,M,M,M,M,M,M,M,M,M,M,M,M,77.00,KCXP 142035Z AUTO 00000G10KT 10SM CLR 25/M02 A2996 RMK AO2,M
MEV,2022-09-14 20:35,-119.7500,38.9963,1441.42,77.00,32.00,19.30,M,5.00,0.00,29.94,M,10.00,M,CLR,M,M,M,M,M,M,M,M,M,M,M,M,M,M,77.00,KMEV 142035Z AUTO VRB05KT 10SM CLR 25/00 A2994 RMK AO2,M
BAM,2022-09-14 20:35,-116.8743,40.5990,1382.36,77.00,39.20,25.67,300.00,6.00,0.00,29.95,M,10.00,M,SCT,M,M,M,10000.00,M,M,M,M,M,M,M,M,M,M,77.00,KBAM 142035Z AUTO 30006KT 10SM SCT100 25/04 A2995 RMK AO1,M
HTH,2022-09-14 20:35,-118.6315,38.5448,1282.89,75.20,41.00,29.23,M,3.00,0.00,29.92,M,7.00,M,CLR,M,M,M,M,M,M,M,M,M,M,M,M,M,M,75.20,KHTH 142035Z AUTO VRB03KT 7SM CLR 24/05 A2992 RMK A01,M
TMT,2022-09-14 20:35,-117.1971,39.4643,1749.34,M,M,M,140.00,7.00,0.00,30.01,M,10.00,M,SCT,M,M,M,12000.00,M,M,M,VCTS,M,M,M,M,M,M,M,KTMT 142035Z AUTO 14007KT 10SM VCTS SCT120 A3001 RMK AO2 LTG DSNT ALQS,M
DRA,2022-09-14 20:53,-116.0278,36.6206,1009.00,84.00,42.00,22.85,190.00,11.00,0.00,29.90,1008.00,10.00,23.00,BKN,M,M,M,9000.00,M,M,M,M,M,M,M,M,M,M,81.43,KDRA 142053Z AUTO 19011G23KT 10SM BKN090 29/06 A2990 RMK AO2 SLP080 T02890056 58018,M
P68,2022-09-14 20:53,-116.0056,39.6014,1993.00,66.00,48.00,52.22,60.00,7.00,0.00,30.00,1009.10,M,M,M,M,M,M,M,M,M,M,M,M,M,M,M,M,M,66.00,KP68 142053Z AUTO 06007KT 19/09 A3000 RMK AO1 SLP091 T01890089 56011,M
ELY,2022-09-14 20:53,-114.8453,39.2950,1909.00,70.00,47.00,43.66,260.00,11.00,0.00,30.02,1008.20,10.00,M,SCT,M,M,M,5500.00,M,M,M,M,M,M,M,M,M,M,70.00,KELY 142053Z AUTO 26011KT 10SM SCT055 21/08 A3002 RMK AO2 LTG DSNT SE SLP082 T02110083 58015,M
LOL,2022-09-14 20:53,-118.5701,40.0684,1192.43,76.00,35.00,22.66,0.00,0.00,0.00,29.91,1009.50,2.50,M,SCT,BKN,OVC,M,2600.00,3200.00,9500.00,M,HZ,M,M,M,M,M,M,75.90,KLOL 142053Z AUTO 00000KT 2 1/2SM HZ SCT026 BKN032 OVC095 24/02 A2991 RMK AO2 SLP095 6//// T02440017 58015,M
VGT,2022-09-14 20:53,-115.1933,36.2111,667.00,85.00,57.00,38.69,120.00,9.00,0.00,29.86,1010.50,10.00,M,CLR,M,M,M,M,M,M,M,M,M,M,M,M,M,M,83.99,KVGT 142053Z 12009KT 10SM CLR 29/14 A2986 RMK AO2 SLP105 T02940139 58021,M
TMT,2022-09-14 20:55,-117.1971,39.4643,1749.34,M,M,M,150.00,6.00,0.00,30.01,M,10.00,M,SCT,M,M,M,11000.00,M,M,M,M,M,M,M,M,M,M,M,KTMT 142055Z AUTO 15006KT 10SM SCT110 A3001 RMK AO2 LTG DSNT N THRU SE,M
BVU,2022-09-14 20:55,-114.8611,35.9475,671.00,82.40,59.00,45.07,M,6.00,0.00,29.87,M,M,11.00,M,M,M,M,M,M,M,M,M,M,M,M,M,M,M,82.46,KBVU 142055Z AUTO VRB06G11KT 28/15 A2987 RMK AO2 TSNO,M
CXP,2022-09-14 20:55,-119.7326,39.1923,1431.00,78.80,30.20,16.90,M,4.00,0.00,29.95,M,10.00,20.00,CLR,M,M,M,M,M,M,M,M,M,M,M,M,M,M,78.80,KCXP 142055Z AUTO VRB04G20KT 10SM CLR 26/M01 A2995 RMK AO2,M
RNO,2022-09-14 20:55,-119.7711,39.4839,1341.00,78.00,30.90,17.80,0.00,0.00,0.00,29.92,1008.30,10.00,M,FEW,BKN,M,M,11000.00,18000.00,M,M,M,M,M,M,M,M,M,78.10,KRNO 142055Z 00000KT 10SM FEW110 BKN180 26/M01 A2992 RMK AO2 SLP083 FU HZ ALQDS T02561006 58012,M
RTS,2022-09-14 20:55,-119.8764,39.6682,1539.00,73.40,28.40,18.80,M,4.00,0.00,29.97,M,10.00,11.00,CLR,M,M,M,M,M,M,M,M,M,M,M,M,M,M,73.40,KRTS 142055Z AUTO VRB04G11KT 10SM CLR 23/M02 A2997 RMK AO2,M
MEV,2022-09-14 20:55,-119.7500,38.9963,1441.42,77.00,32.00,19.30,M,5.00,0.00,29.93,M,10.00,11.00,CLR,M,M,M,M,M,M,M,M,M,M,M,M,M,M,77.00,KMEV 142055Z AUTO VRB05G11KT 10SM CLR 25/00 A2993 RMK AO2,M
BAM,2022-09-14 20:55,-116.8743,40.5990,1382.36,77.00,41.00,27.53,320.00,5.00,0.00,29.94,M,10.00,M,CLR,M,M,M,M,M,M,M,M,M,M,M,M,M,M,77.00,KBAM 142055Z AUTO 32005KT 10SM CLR 25/05 A2994 RMK AO1,M
HTH,2022-09-14 20:55,-118.6315,38.5448,1282.89,77.00,41.00,27.53,0.00,0.00,0.00,29.90,M,8.00,M,FEW,M,M,M,9500.00,M,M,M,M,M,M,M,M,M,M,77.00,KHTH 142055Z AUTO 00000KT 8SM FEW095 25/05 A2990 RMK A01,M
EKO,2022-09-14 20:56,-115.7860,40.8242,1367.00,72.00,49.00,43.97,200.00,4.00,0.00,29.95,1010.30,10.00,M,CLR,M,M,M,M,M,M,M,M,M,M,M,M,M,M,72.00,KEKO 142056Z AUTO 20004KT 10SM CLR 22/09 A2995 RMK AO2 SLP103 T02220094 58015,M
LAS,2022-09-14 20:56,-115.1634,36.0719,663.00,82.00,58.00,43.89,90.00,9.00,0.00,29.87,1009.40,10.00,M,FEW,FEW,M,M,9000.00,13000.00,M,M,M,M,M,M,M,M,M,81.92,KLAS 142056Z 09009KT 10SM FEW090 FEW130 28/14 A2987 RMK AO2 SLP094 CB DSNT E T02780144 58021,M
INS,2022-09-14 20:56,-115.6733,36.5872,955.00,78.40,54.00,43.03,100.00,5.00,0.00,29.90,1008.30,10.00,M,CLR,M,M,M,M,M,M,M,M,M,M,M,M,M,M,78.40,KINS 142056Z AUTO 10005KT 10SM CLR 26/12 A2990 RMK AO2 SLP083 60000 T02580123 57018 $,M
TPH,2022-09-14 20:56,-117.0904,38.0505,1654.00,69.00,51.00,52.67,190.00,11.00,0.00,30.00,1009.80,10.00,16.00,SCT,BKN,BKN,M,4400.00,6000.00,7000.00,M,M,M,M,M,M,M,M,69.10,KTPH 142056Z AUTO 19011G16KT 10SM SCT044 BKN060 BKN070 21/11 A3000 RMK AO2 SLP098 T02060106 58015,M
NFL,2022-09-14 20:56,-118.7010,39.4166,1199.00,78.00,33.00,19.45,340.00,7.00,0.00,29.90,1009.80,2.00,M,BKN,BKN,BKN,M,3000.00,12000.00,20000.00,M,FU,M,M,M,M,M,M,78.10,KNFL 142056Z 34007KT 2SM FU BKN030 BKN120 BKN200 26/01 A2990 RMK AO2 SLP098 FU BKN030 T02560006 58017,M
LSV,2022-09-14 20:56,-115.0343,36.2362,570.00,85.60,59.20,40.95,80.00,7.00,0.00,29.84,1008.50,10.00,M,CLR,M,M,M,M,M,M,M,M,M,M,M,M,M,M,85.17,KLSV 142056Z AUTO 08007KT 10SM CLR 30/15 A2984 RMK AO2 SLP085 T02980151 57021 $,M
WMC,2022-09-14 20:56,-117.8072,40.9019,1315.00,75.00,34.00,22.35,60.00,3.00,T,29.94,1010.00,7.00,M,FEW,M,M,M,11000.00,M,M,M,M,M,M,M,M,M,M,75.00,KWMC 142056Z AUTO 06003KT 7SM FEW110 24/01 A2994 RMK AO2 RAB13E22 SLP100 P0000 60000 T02390011 58013,M
HND,2022-09-14 20:56,-115.1344,35.9729,742.79,82.40,59.00,45.07,50.00,10.00,0.00,29.88,M,10.00,M,CLR,M,M,M,M,M,M,M,M,M,M,M,M,M,M,82.46,KHND 142056Z 05010KT 10SM CLR 28/15 A2988 RMK KP,M
LOL,2022-09-14 21:01,-118.5701,40.0684,1192.43,76.00,34.00,21.69,0.00,0.00,0.00,29.90,M,2.50,M,BKN,BKN,OVC,M,2600.00,3200.00,9500.00,M,HZ,M,M,M,M,M,M,75.90,KLOL 142101Z AUTO 00000KT 2 1/2SM HZ BKN026 BKN032 OVC095 24/01 A2990 RMK AO2 T02440011,M
BVU,2022-09-14 21:15,-114.8611,35.9475,671.00,84.20,59.00,42.52,110.00,5.00,0.00,29.86,M,M,11.00,M,M,M,M,M,M,M,M,M,M,M,M,M,M,M,83.92,KBVU 142115Z AUTO 11005G11KT 29/15 A2986 RMK AO2 TSNO,M
MEV,2022-09-14 21:15,-119.7500,38.9963,1441.42,77.00,32.00,19.30,280.00,13.00,0.00,29.93,M,10.00,19.00,CLR,M,M,M,M,M,M,M,M,M,M,M,M,M,M,77.00,KMEV 142115Z AUTO 28013G19KT 10SM CLR 25/00 A2993 RMK AO2,M
RTS,2022-09-14 21:15,-119.8764,39.6682,1539.00,71.60,30.20,21.50,M,3.00,0.00,29.97,M,10.00,10.00,SCT,M,M,M,9500.00,M,M,M,M,M,M,M,M,M,M,71.60,KRTS 142115Z AUTO VRB03G10KT 10SM SCT095 22/M01 A2997 RMK AO2,M
TMT,2022-09-14 21:15,-117.1971,39.4643,1749.34,M,M,M,0.00,0.00,0.00,30.00,M,10.00,M,SCT,M,M,M,12000.00,M,M,M,M,M,M,M,M,M,M,M,KTMT 142115Z AUTO 00000KT 10SM SCT120 A3000 RMK AO2 LTG DSNT ALQS,M
BAM,2022-09-14 21:15,-116.8743,40.5990,1382.36,75.20,41.00,29.23,350.00,4.00,0.00,29.94,M,10.00,M,SCT,M,M,M,10000.00,M,M,M,M,M,M,M,M,M,M,75.20,KBAM 142115Z AUTO 35004KT 10SM SCT100 24/05 A2994 RMK AO1,M
CXP,2022-09-14 21:15,-119.7326,39.1923,1431.00,77.00,30.20,17.94,M,5.00,0.00,29.95,M,10.00,M,FEW,M,M,M,9500.00,M,M,M,M,M,M,M,M,M,M,77.00,KCXP 142115Z AUTO VRB05KT 10SM FEW095 25/M01 A2995 RMK AO2,M
HTH,2022-09-14 21:15,-118.6315,38.5448,1282.89,78.80,42.80,27.81,290.00,6.00,0.00,29.89,M,8.00,M,SCT,M,M,M,11000.00,M,M,M,M,M,M,M,M,M,M,78.80,KHTH 142115Z AUTO 29006KT 8SM SCT110 26/06 A2989 RMK A01,M
LOL,2022-09-14 21:21,-118.5701,40.0684,1192.43,76.00,35.00,22.66,0.00,0.00,0.00,29.90,M,3.00,M,FEW,BKN,M,M,2500.00,3000.00,M,M,HZ,M,M,M,M,M,M,75.90,KLOL 142121Z AUTO 00000KT 3SM HZ FEW025 BKN030 24/02 A2990 RMK AO2 T02440017,M
TMT,2022-09-14 21:30,-117.1971,39.4643,1749.34,M,M,M,0.00,0.00,0.00,29.99,M,10.00,M,BKN,M,M,M,11000.00,M,M,M,VCTS,M,M,M,M,M,M,M,KTMT 142130Z AUTO 00000KT 10SM VCTS BKN110 A2999 RMK AO2 LTG DSNT ALQS,M
BAM,2022-09-14 21:35,-116.8743,40.5990,1382.36,75.20,41.00,29.23,330.00,7.00,0.00,29.93,M,10.00,M,SCT,SCT,M,M,7500.00,10000.00,M,M,M,M,M,M,M,M,M,75.20,KBAM 142135Z AUTO 33007KT 10SM SCT075 SCT100 24/05 A2993 RMK AO1,M
CXP,2022-09-14 21:35,-119.7326,39.1923,1431.00,77.00,33.80,20.74,270.00,17.00,0.00,29.94,M,10.00,24.00,CLR,M,M,M,M,M,M,M,M,M,M,M,M,M,M,77.00,KCXP 142135Z AUTO 27017G24KT 10SM CLR 25/01 A2994 RMK AO2,M
RTS,2022-09-14 21:35,-119.8764,39.6682,1539.00,75.20,28.40,17.70,210.00,14.00,0.00,29.96,M,10.00,M,BKN,M,M,M,9500.00,M,M,M,M,M,M,M,M,M,M,75.20,KRTS 142135Z AUTO 21014KT 10SM BKN095 24/M02 A2996 RMK AO2,M
MEV,2022-09-14 21:35,-119.7500,38.9963,1441.42,78.80,32.00,18.18,290.00,12.00,0.00,29.92,M,10.00,M,CLR,M,M,M,M,M,M,M,M,M,M,M,M,M,M,78.80,KMEV 142135Z AUTO 29012KT 10SM CLR 26/00 A2992 RMK AO2,M
BVU,2022-09-14 21:35,-114.8611,35.9475,671.00,84.20,59.00,42.52,160.00,7.00,0.00,29.85,M,M,M,M,M,M,M,M,M,M,M,M,M,M,M,M,M,M,83.92,KBVU 142135Z AUTO 16007KT 110V200 29/15 A2985 RMK AO2 TSNO,M
HTH,2022-09-14 21:35,-118.6315,38.5448,1282.89,77.00,42.80,29.51,M,5.00,0.00,29.88,M,9.00,M,FEW,M,M,M,11000.00,M,M,M,M,M,M,M,M,M,M,77.00,KHTH 142135Z AUTO VRB05KT 9SM FEW110 25/06 A2988 RMK A01,M
DRA,2022-09-14 21:53,-116.0278,36.6206,1009.00,85.00,40.00,20.39,190.00,15.00,0.00,29.88,1007.30,10.00,27.00,CLR,M,M,M,M,M,M,M,M,M,M,M,30.00,210.00,2022-09-14 21:31,81.98,KDRA 142153Z AUTO 19015G27KT 10SM CLR 29/04 A2988 RMK AO2 PK WND 21030/2131 SLP073 T02940044,M
ELY,2022-09-14 21:53,-114.8453,39.2950,1909.00,70.00,48.00,45.50,230.00,8.00,0.00,30.00,1007.80,10.00,17.00,CLR,M,M,M,M,M,M,M,M,M,M,M,M,M,M,70.00,KELY 142153Z AUTO 23008G17KT 10SM CLR 21/09 A3000 RMK AO2 LTG DSNT SE AND S SLP078 T02110089,M
VGT,2022-09-14 21:53,-115.1933,36.2111,667.00,87.00,56.00,34.66,90.00,9.00,0.00,29.82,1009.40,10.00,16.00,CLR,M,M,M,M,M,M,M,M,M,M,M,M,M,M,85.61,KVGT 142153Z 09009G16KT 10SM CLR 31/13 A2982 RMK AO2 SLP094 T03060133,M
P68,2022-09-14 21:53,-116.0056,39.6014,1993.00,69.00,48.00,46.92,150.00,6.00,0.00,29.98,1008.50,M,M,M,M,M,M,M,M,M,M,M,M,M,M,M,M,M,69.10,KP68 142153Z AUTO 15006KT 21/09 A2998 RMK AO1 SLP085 T02060089,M
LOL,2022-09-14 21:53,-118.5701,40.0684,1192.43,77.00,35.00,21.85,0.00,0.00,0.00,29.89,1009.10,3.00,M,BKN,M,M,M,3700.00,M,M,M,HZ,M,M,M,M,M,M,77.00,KLOL 142153Z AUTO 00000KT 3SM HZ BKN037 25/02 A2989 RMK AO2 SLP091 T02500017,M
HTH,2022-09-14 21:55,-118.6315,38.5448,1282.89,78.80,42.80,27.81,M,5.00,0.00,29.88,M,9.00,M,CLR,M,M,M,M,M,M,M,M,M,M,M,M,M,M,78.80,KHTH 142155Z AUTO VRB05KT 9SM CLR 26/06 A2988 RMK A01,M
TMT,2022-09-14 21:55,-117.1971,39.4643,1749.34,M,M,M,0.00,0.00,0.00,30.00,M,10.00,M,SCT,BKN,M,M,8000.00,11000.00,M,M,VCTS,M,M,M,M,M,M,M,KTMT 142155Z AUTO 00000KT 10SM VCTS SCT080 BKN110 A3000 RMK AO2 LTG DSNT E THRU SW,M
BAM,2022-09-14 21:55,-116.8743,40.5990,1382.36,75.20,41.00,29.23,330.00,8.00,0.00,29.93,M,10.00,M,SCT,M,M,M,9000.00,M,M,M,M,M,M,M,M,M,M,75.20,KBAM 142155Z AUTO 33008KT 10SM SCT090 24/05 A2993 RMK AO1,M
MEV,2022-09-14 21:55,-119.7500,38.9963,1441.42,78.80,32.00,18.18,280.00,12.00,0.00,29.92,M,10.00,19.00,CLR,M,M,M,M,M,M,M,M,M,M,M,M,M,M,78.80,KMEV 142155Z AUTO 28012G19KT 10SM CLR 26/00 A2992 RMK AO2,M
RTS,2022-09-14 21:55,-119.8764,39.6682,1539.00,75.20,26.60,16.43,240.00,9.00,0.00,29.96,M,10.00,17.00,FEW,M,M,M,9500.00,M,M,M,M,M,M,M,M,M,M,75.20,KRTS 142155Z AUTO 24009G17KT 220V280 10SM FEW095 24/M03 A2996 RMK AO2,M
RNO,2022-09-14 21:55,-119.7711,39.4839,1341.00,80.00,34.00,18.88,260.00,5.00,0.00,29.91,1007.80,10.00,M,FEW,BKN,M,M,11000.00,23000.00,M,M,M,M,M,M,M,M,M,78.70,KRNO 142155Z 26005KT 10SM FEW110 BKN230 27/01 A2991 RMK AO2 SLP078 FU W THRU N T02670011,M
CXP,2022-09-14 21:55,-119.7326,39.1923,1431.00,77.00,35.60,22.28,270.00,14.00,0.00,29.94,M,10.00,21.00,CLR,M,M,M,M,M,M,M,M,M,M,M,M,M,M,77.00,KCXP 142155Z AUTO 27014G21KT 10SM CLR 25/02 A2994 RMK AO2,M
BVU,2022-09-14 21:55,-114.8611,35.9475,671.00,86.00,57.20,37.62,M,4.00,0.00,29.84,M,M,10.00,M,M,M,M,M,M,M,M,M,M,M,M,M,M,M,84.97,KBVU 142155Z AUTO VRB04G10KT 30/14 A2984 RMK AO2 TSNO,M
TPH,2022-09-14 21:56,-117.0904,38.0505,1654.00,73.00,49.00,42.51,200.00,13.00,0.00,29.97,1008.50,10.00,20.00,CLR,M,M,M,M,M,M,M,M,M,M,M,M,M,M,73.00,KTPH 142156Z AUTO 20013G20KT 10SM CLR 23/09 A2997 RMK AO2 SLP085 T02280094,M
LAS,2022-09-14 21:56,-115.1634,36.0719,663.00,86.00,58.00,38.58,80.00,11.00,0.00,29.83,1008.10,10.00,M,FEW,FEW,M,M,9000.00,13000.00,M,M,M,M,M,M,M,M,M,85.16,KLAS 142156Z 08011KT 10SM FEW090 FEW130 30/14 A2983 RMK AO2 SLP081 CB DSNT E-SE T03000144,M
WMC,2022-09-14 21:56,-117.8072,40.9019,1315.00,76.00,38.00,25.31,0.00,0.00,0.00,29.92,1009.50,6.00,M,FEW,FEW,M,M,4400.00,8500.00,M,M,HZ,M,M,M,M,M,M,75.90,KWMC 142156Z AUTO 00000KT 6SM HZ FEW044 FEW085 24/03 A2992 RMK AO2 SLP095 T02440033,M
NFL,2022-09-14 21:56,-118.7010,39.4166,1199.00,79.00,36.00,21.19,0.00,0.00,0.00,29.88,1009.20,2.00,M,SCT,BKN,BKN,M,3000.00,12000.00,20000.00,M,FU,M,M,M,M,M,M,79.00,KNFL 142156Z 00000KT 2SM FU SCT030 BKN120 BKN200 26/02 A2988 RMK AO2 SLP092 SFC VIS 2 1/2SM FU SCT030 T02610022,M
LSV,2022-09-14 21:56,-115.0343,36.2362,570.00,87.60,56.50,34.86,60.00,7.00,0.00,29.81,1007.50,10.00,M,CLR,M,M,M,M,M,M,M,M,M,M,M,M,M,M,86.21,KLSV 142156Z AUTO 06007KT 10SM CLR 31/14 A2981 RMK AO2 SLP075 T03090136 $,M
EKO,2022-09-14 21:56,-115.7860,40.8242,1367.00,74.00,46.00,36.98,0.00,0.00,0.00,29.93,1009.30,10.00,M,CLR,M,M,M,M,M,M,M,M,M,M,M,M,M,M,73.90,KEKO 142156Z AUTO 00000KT 10SM CLR 23/08 A2993 RMK AO2 LTG DSNT N SLP093 T02330078,M
INS,2022-09-14 21:56,-115.6733,36.5872,955.00,80.00,54.00,40.69,80.00,6.00,0.00,29.88,1007.80,10.00,M,CLR,M,M,M,M,M,M,M,M,M,M,M,M,M,M,80.06,KINS 142156Z AUTO 08006KT 10SM CLR 27/12 A2988 RMK AO2 SLP078 T02670123 $,M
LAS,2022-09-14 22:09,-115.1634,36.0719,663.00,86.00,57.00,37.35,70.00,6.00,0.00,29.83,M,10.00,M,FEW,FEW,M,M,9000.00,13000.00,M,M,M,M,M,M,M,M,M,84.92,KLAS 142209Z 07006KT 10SM FEW090 FEW130 30/14 A2983 RMK AO2 CB DSNT E-SE T03000139,M
INS,2022-09-14 22:11,-115.6733,36.5872,955.00,80.60,53.60,39.30,90.00,7.00,0.00,29.87,1007.50,10.00,M,BKN,M,M,M,9000.00,M,M,M,M,M,M,M,M,M,M,80.29,KINS 142211Z AUTO 09007KT 10SM BKN090 27/12 A2987 RMK AO2 SLP075 $,M
BVU,2022-09-14 22:15,-114.8611,35.9475,671.00,86.00,57.20,37.62,130.00,5.00,0.00,29.83,M,M,13.00,M,M,M,M,M,M,M,M,M,M,M,M,M,M,M,84.97,KBVU 142215Z AUTO 13005G13KT 30/14 A2983 RMK AO2 TSNO,M
TMT,2022-09-14 22:15,-117.1971,39.4643,1749.34,63.00,48.70,59.32,0.00,0.00,0.00,30.00,M,10.00,M,SCT,SCT,M,M,8000.00,11000.00,M,M,VCTS,M,M,M,M,M,M,63.10,KTMT 142215Z AUTO 00000KT 10SM VCTS SCT080 SCT110 17/09 A3000 RMK AO2 LTG DSNT NE THRU S T01730093,M
HTH,2022-09-14 22:15,-118.6315,38.5448,1282.89,78.80,42.80,27.81,320.00,10.00,0.00,29.87,M,8.00,M,FEW,M,M,M,11000.00,M,M,M,M,M,M,M,M,M,M,78.80,KHTH 142215Z AUTO 32010KT 300V360 8SM FEW110 26/06 A2987 RMK A01,M
BAM,2022-09-14 22:15,-116.8743,40.5990,1382.36,75.20,42.80,31.34,340.00,8.00,0.00,29.92,M,10.00,M,CLR,M,M,M,M,M,M,M,M,M,M,M,M,M,M,75.20,KBAM 142215Z AUTO 34008KT 10SM CLR 24/06 A2992 RMK AO1,M
MEV,2022-09-14 22:15,-119.7500,38.9963,1441.42,78.80,35.60,21.00,280.00,11.00,0.00,29.91,M,10.00,17.00,CLR,M,M,M,M,M,M,M,M,M,M,M,M,M,M,78.80,KMEV 142215Z AUTO 28011G17KT 10SM CLR 26/02 A2991 RMK AO2 LTG DSNT E,M
RTS,2022-09-14 22:15,-119.8764,39.6682,1539.00,75.20,28.40,17.70,230.00,14.00,0.00,29.96,M,10.00,19.00,CLR,M,M,M,M,M,M,M,M,M,M,M,M,M,M,75.20,KRTS 142215Z AUTO 23014G19KT 10SM CLR 24/M02 A2996 RMK AO2,M
CXP,2022-09-14 22:15,-119.7326,39.1923,1431.00,77.00,33.80,20.74,250.00,10.00,0.00,29.94,M,10.00,18.00,CLR,M,M,M,M,M,M,M,M,M,M,M,M,M,M,77.00,KCXP 142215Z AUTO 25010G18KT 10SM CLR 25/01 A2994 RMK AO2 LTG DSNT E,M
INS,2022-09-14 22:16,-115.6733,36.5872,955.00,80.60,53.60,39.30,70.00,7.00,0.00,29.87,1007.50,10.00,M,SCT,M,M,M,9000.00,M,M,M,M,M,M,M,M,M,M,80.29,KINS 142216Z AUTO 07007KT 10SM SCT090 27/12 A2987 RMK AO2 SLP075 $,M
INS,2022-09-14 22:31,-115.6733,36.5872,955.00,80.60,53.60,39.30,110.00,8.00,0.00,29.87,1007.50,10.00,M,BKN,M,M,M,8500.00,M,M,M,M,M,M,M,M,M,M,80.29,KINS 142231Z AUTO 11008KT 10SM BKN085 27/12 A2987 RMK AO2 SLP075 $,M
BVU,2022-09-14 22:35,-114.8611,35.9475,671.00,86.00,57.20,37.62,M,3.00,0.00,29.83,M,M,10.00,M,M,M,M,M,M,M,M,M,M,M,M,M,M,M,84.97,KBVU 142235Z AUTO VRB03G10KT 30/14 A2983 RMK AO2 TSNO,M
TMT,2022-09-14 22:35,-117.1971,39.4643,1749.34,M,M,M,150.00,3.00,0.00,30.00,M,10.00,M,SCT,SCT,M,M,9000.00,11000.00,M,M,VCTS,M,M,M,M,M,M,M,KTMT 142235Z AUTO 15003KT 10SM VCTS SCT090 SCT110 A3000 RMK AO2 LTG DSNT E THRU SW,M
RTS,2022-09-14 22:35,-119.8764,39.6682,1539.00,75.20,26.60,16.43,230.00,11.00,0.00,29.95,M,9.00,20.00,CLR,M,M,M,M,M,M,M,M,M,M,M,M,M,M,75.20,KRTS 142235Z AUTO 23011G20KT 9SM CLR 24/M03 A2995 RMK AO2,M
CXP,2022-09-14 22:35,-119.7326,39.1923,1431.00,77.00,35.60,22.28,280.00,12.00,0.00,29.93,M,10.00,20.00,CLR,M,M,M,M,M,M,M,M,M,M,M,M,M,M,77.00,KCXP 142235Z AUTO 28012G20KT 10SM CLR 25/02 A2993 RMK AO2,M
BAM,2022-09-14 22:35,-116.8743,40.5990,1382.36,75.20,42.80,31.34,330.00,7.00,0.00,29.92,M,10.00,M,CLR,M,M,M,M,M,M,M,M,M,M,M,M,M,M,75.20,KBAM 142235Z AUTO 33007KT 10SM CLR 24/06 A2992 RMK AO1,M
MEV,2022-09-14 22:35,-119.7500,38.9963,1441.42,78.80,33.80,19.55,290.00,16.00,0.00,29.91,M,10.00,21.00,CLR,M,M,M,M,M,M,M,M,M,M,M,M,M,M,78.80,KMEV 142235Z AUTO 29016G21KT 10SM CLR 26/01 A2991 RMK AO2,M
HTH,2022-09-14 22:35,-118.6315,38.5448,1282.89,78.80,42.80,27.81,310.00,7.00,0.00,29.86,M,9.00,M,CLR,M,M,M,M,M,M,M,M,M,M,M,M,M,M,78.80,KHTH 142235Z AUTO 31007KT 270V350 9SM CLR 26/06 A2986 RMK A01,M
INS,2022-09-14 22:41,-115.6733,36.5872,955.00,80.60,53.60,39.30,70.00,9.00,0.00,29.86,1007.10,10.00,M,SCT,M,M,M,8500.00,M,M,M,M,M,M,M,M,M,M,80.29,KINS 142241Z AUTO 07009KT 10SM SCT085 27/12 A2986 RMK AO2 SLP071 $,M
CXP,2022-09-14 22:50,-119.7326,39.1923,1431.00,77.00,35.60,22.28,280.00,12.00,0.00,29.93,M,10.00,M,CLR,M,M,M,M,M,M,M,M,M,M,M,M,M,M,77.00,KCXP 142250Z AUTO 28012KT 10SM CLR 25/02 A2993 RMK AO2,M
ELY,2022-09-14 22:53,-114.8453,39.2950,1909.00,68.00,46.00,45.19,170.00,10.00,0.00,30.01,1008.20,10.00,M,FEW,SCT,M,M,5000.00,7000.00,M,M,M,M,M,M,M,M,M,68.00,KELY 142253Z AUTO 17010KT 10SM FEW050 SCT070 20/08 A3001 RMK AO2 LTG DSNT N AND W SLP082 T02000078,M
VGT,2022-09-14 22:53,-115.1933,36.2111,667.00,88.00,55.00,32.60,80.00,11.00,0.00,29.80,1008.60,10.00,20.00,CLR,M,M,M,M,M,M,M,M,M,M,M,M,M,M,86.20,KVGT 142253Z 08011G20KT 10SM CLR 31/13 A2980 RMK AO2 SLP086 T03110128,M
DRA,2022-09-14 22:53,-116.0278,36.6206,1009.00,84.00,39.00,20.27,180.00,13.00,0.00,29.87,1007.10,10.00,23.00,CLR,M,M,M,M,M,M,M,M,M,M,M,27.00,170.00,2022-09-14 22:30,81.29,KDRA 142253Z AUTO 18013G23KT 10SM CLR 29/04 A2987 RMK AO2 PK WND 17027/2230 SLP071 T02890039,M
P68,2022-09-14 22:53,-116.0056,39.6014,1993.00,67.00,49.00,52.35,150.00,9.00,0.00,29.99,1009.30,M,M,M,M,M,M,M,M,M,M,M,M,M,M,M,M,M,66.90,KP68 142253Z AUTO 15009KT 19/09 A2999 RMK AO1 SLP093 T01940094,M
LOL,2022-09-14 22:53,-118.5701,40.0684,1192.43,78.00,38.00,23.53,140.00,6.00,0.00,29.86,1008.20,3.00,M,OVC,M,M,M,3500.00,M,M,M,HZ,M,M,M,M,M,M,78.10,KLOL 142253Z AUTO 14006KT 3SM HZ OVC035 26/03 A2986 RMK AO2 SLP082 T02560033,M
BVU,2022-09-14 22:55,-114.8611,35.9475,671.00,86.00,57.20,37.62,150.00,7.00,0.00,29.82,M,M,15.00,M,M,M,M,M,M,M,M,M,M,M,M,M,M,M,84.97,KBVU 142255Z AUTO 15007G15KT 30/14 A2982 RMK AO2 TSNO,M
HTH,2022-09-14 22:55,-118.6315,38.5448,1282.89,78.80,42.80,27.81,0.00,0.00,0.00,29.86,M,10.00,10.00,CLR,M,M,M,M,M,M,M,M,M,M,M,M,M,M,78.80,KHTH 142255Z AUTO 00000G10KT 10SM CLR 26/06 A2986 RMK A01,M
BAM,2022-09-14 22:55,-116.8743,40.5990,1382.36,75.20,42.80,31.34,0.00,0.00,0.00,29.92,M,10.00,M,SCT,M,M,M,7500.00,M,M,M,M,M,M,M,M,M,M,75.20,KBAM 142255Z AUTO 00000KT 10SM SCT075 24/06 A2992 RMK AO1,M
MEV,2022-09-14 22:55,-119.7500,38.9963,1441.42,77.00,35.60,22.28,280.00,15.00,0.00,29.91,M,10.00,20.00,CLR,M,M,M,M,M,M,M,M,M,M,M,M,M,M,77.00,KMEV 142255Z AUTO 28015G20KT 10SM CLR 25/02 A2991 RMK AO2,M
TMT,2022-09-14 22:55,-117.1971,39.4643,1749.34,M,M,M,260.00,4.00,0.00,30.01,M,10.00,M,SCT,SCT,M,M,9000.00,12000.00,M,M,M,M,M,M,M,M,M,M,KTMT 142255Z AUTO 26004KT 10SM SCT090 SCT120 A3001 RMK AO2 LTG DSNT ALQS,M
RTS,2022-09-14 22:55,-119.8764,39.6682,1539.00,73.40,28.40,18.80,250.00,18.00,0.00,29.95,M,7.00,M,CLR,M,M,M,M,M,M,M,M,M,M,M,M,M,M,73.40,KRTS 142255Z AUTO 25018KT 7SM CLR 23/M02 A2995 RMK AO2,M
RNO,2022-09-14 22:55,-119.7711,39.4839,1341.00,80.00,36.00,20.44,290.00,13.00,0.00,29.89,1007.40,8.00,19.00,FEW,FEW,M,M,11000.00,23000.00,M,M,M,M,M,M,M,M,M,78.77,KRNO 142255Z 29013G19KT 8SM FEW110 FEW230 27/02 A2989 RMK AO2 SLP074 FU W THRU N T02670022,M
EKO,2022-09-14 22:56,-115.7860,40.8242,1367.00,73.00,46.00,38.11,240.00,5.00,0.00,29.93,1009.40,10.00,M,BKN,M,M,M,10000.00,M,M,M,M,M,M,M,M,M,M,73.00,KEKO 142256Z AUTO 24005KT 10SM BKN100 23/08 A2993 RMK AO2 LTG DSNT S AND NW SLP094 T02280078,M
LAS,2022-09-14 22:56,-115.1634,36.0719,663.00,87.00,57.00,36.07,70.00,11.00,0.00,29.81,1007.40,10.00,17.00,FEW,FEW,SCT,M,9000.00,13000.00,18000.00,M,M,M,M,M,M,M,M,85.89,KLAS 142256Z 07011G17KT 10SM FEW090 FEW130 SCT180 31/14 A2981 RMK AO2 SLP074 CB DSNT E-SE T03060139,M
NFL,2022-09-14 22:56,-118.7010,39.4166,1199.00,79.00,34.00,19.57,M,3.00,0.00,29.86,1008.70,2.00,M,SCT,BKN,OVC,M,3000.00,12000.00,25000.00,M,FU,M,M,M,M,M,M,79.00,KNFL 142256Z VRB03KT 2SM FU SCT030 BKN120 OVC250 26/01 A2986 RMK AO2 SLP087 SFC VIS 2 1/2 FU SCT030 T02610011,M
WMC,2022-09-14 22:56,-117.8072,40.9019,1315.00,77.00,37.00,23.55,0.00,0.00,0.00,29.90,1008.70,6.00,M,FEW,FEW,M,M,9000.00,12000.00,M,M,HZ,M,M,M,M,M,M,77.00,KWMC 142256Z AUTO 00000KT 6SM HZ FEW090 FEW120 25/03 A2990 RMK AO2 SLP087 T02500028,M
INS,2022-09-14 22:56,-115.6733,36.5872,955.00,81.00,52.20,36.85,90.00,8.00,0.00,29.86,1007.10,10.00,M,SCT,M,M,M,8500.00,M,M,M,M,M,M,M,M,M,M,80.36,KINS 142256Z AUTO 09008KT 10SM SCT085 27/11 A2986 RMK AO2 SLP071 T02720112 $,M
LSV,2022-09-14 22:56,-115.0343,36.2362,570.00,89.00,57.00,33.85,120.00,6.00,0.00,29.79,1006.70,10.00,M,CLR,M,M,M,M,M,M,M,M,M,M,M,M,M,M,87.74,KLSV 142256Z AUTO 12006KT 10SM CLR 32/14 A2979 RMK AO2 SLP067 T03170139 $,M
TPH,2022-09-14 22:56,-117.0904,38.0505,1654.00,73.00,49.00,42.51,180.00,9.00,0.00,29.96,1008.40,10.00,24.00,CLR,M,M,M,M,M,M,M,M,M,M,M,M,M,M,73.00,KTPH 142256Z AUTO 18009G24KT 10SM CLR 23/09 A2996 RMK AO2 SLP084 T02280094,M
LAS,2022-09-14 23:02,-115.1634,36.0719,663.00,87.00,56.00,34.66,60.00,10.00,0.00,29.81,M,10.00,M,FEW,FEW,SCT,M,9000.00,13000.00,18000.00,M,M,M,M,M,M,M,M,85.61,KLAS 142302Z 06010KT 10SM FEW090 FEW130 SCT180 31/13 A2981 RMK AO2 T03060133,M
EKO,2022-09-14 23:04,-115.7860,40.8242,1367.00,73.00,45.00,36.70,260.00,5.00,0.00,29.93,M,10.00,M,OVC,M,M,M,10000.00,M,M,M,VCTS,M,M,M,M,M,M,73.00,KEKO 142304Z AUTO 26005KT 10SM VCTS OVC100 23/07 A2993 RMK AO2 LTG DSNT S AND NW T02280072,M
RNO,2022-09-14 23:14,-119.7711,39.4839,1341.00,79.00,36.00,21.19,290.00,19.00,0.00,29.90,M,3.00,23.00,FEW,FEW,SCT,M,3100.00,11000.00,23000.00,M,FU,M,M,M,M,M,M,79.00,KRNO 142314Z 29019G23KT 3SM FU FEW031 FEW110 SCT230 26/02 A2990 RMK AO2 TWR VIS 4 FU FEW031 MTN TOPS OBSCD SW THRU NW T02610022,M
CXP,2022-09-14 23:15,-119.7326,39.1923,1431.00,77.00,35.60,22.28,260.00,9.00,0.00,29.93,M,10.00,19.00,CLR,M,M,M,M,M,M,M,M,M,M,M,M,M,M,77.00,KCXP 142315Z AUTO 26009G19KT 220V300 10SM CLR 25/02 A2993 RMK AO2,M
MEV,2022-09-14 23:15,-119.7500,38.9963,1441.42,77.00,35.60,22.28,280.00,18.00,0.00,29.91,M,10.00,24.00,CLR,M,M,M,M,M,M,M,M,M,M,M,M,M,M,77.00,KMEV 142315Z AUTO 28018G24KT 10SM CLR 25/02 A2991 RMK AO2,M
RTS,2022-09-14 23:15,-119.8764,39.6682,1539.00,73.40,28.40,18.80,240.00,19.00,0.00,29.96,M,5.00,M,CLR,M,M,M,M,M,M,M,HZ,M,M,M,M,M,M,73.40,KRTS 142315Z AUTO 24019KT 5SM HZ CLR 23/M02 A2996 RMK AO2,M
HTH,2022-09-14 23:15,-118.6315,38.5448,1282.89,78.80,42.80,27.81,320.00,8.00,0.00,29.86,M,9.00,M,CLR,M,M,M,M,M,M,M,M,M,M,M,M,M,M,78.80,KHTH 142315Z AUTO 32008KT 9SM CLR 26/06 A2986 RMK A01,M
TMT,2022-09-14 23:15,-117.1971,39.4643,1749.34,M,M,M,220.00,5.00,0.00,30.00,M,10.00,M,BKN,OVC,M,M,10000.00,12000.00,M,M,-VCTSRA,M,M,M,M,M,M,M,KTMT 142315Z AUTO 22005KT 10SM -VCTSRA BKN100 OVC120 A3000 RMK AO2 LTG DSNT ALQS,M
BVU,2022-09-14 23:15,-114.8611,35.9475,671.00,86.00,55.40,35.25,M,6.00,0.00,29.82,M,M,M,M,M,M,M,M,M,M,M,M,M,M,M,M,M,M,84.54,KBVU 142315Z AUTO VRB06KT 130V190 30/13 A2982 RMK AO2 TSNO,M
BAM,2022-09-14 23:15,-116.8743,40.5990,1382.36,78.80,42.80,27.81,360.00,5.00,0.00,29.92,M,10.00,M,SCT,SCT,M,M,7500.00,8500.00,M,M,M,M,M,M,M,M,M,78.80,KBAM 142315Z AUTO 36005KT 10SM SCT075 SCT085 26/06 A2992 RMK AO1,M
EKO,2022-09-14 23:24,-115.7860,40.8242,1367.00,69.00,48.00,46.92,M,4.00,0.00,29.94,M,10.00,M,FEW,OVC,M,M,8000.00,9500.00,M,M,M,M,M,M,M,M,M,69.10,KEKO 142324Z AUTO VRB04KT 10SM FEW080 OVC095 21/09 A2994 RMK AO2 LTG DSNT N AND S AND NW T02060089,M
MEV,2022-09-14 23:35,-119.7500,38.9963,1441.42,77.00,35.60,22.28,270.00,13.00,0.00,29.91,M,10.00,21.00,CLR,M,M,M,M,M,M,M,M,M,M,M,M,M,M,77.00,KMEV 142335Z AUTO 27013G21KT 10SM CLR 25/02 A2991 RMK AO2 LTG DSNT E,M
BVU,2022-09-14 23:35,-114.8611,35.9475,671.00,86.00,55.40,35.25,130.00,8.00,0.00,29.81,M,M,M,M,M,M,M,M,M,M,M,M,M,M,M,M,M,M,84.54,KBVU 142335Z AUTO 13008KT 30/13 A2981 RMK AO2 TSNO,M
TMT,2022-09-14 23:35,-117.1971,39.4643,1749.34,58.80,54.00,84.06,190.00,5.00,0.00,30.00,M,10.00,M,SCT,OVC,M,M,8000.00,9000.00,M,M,-TSDZ,M,M,M,M,M,M,58.80,KTMT 142335Z AUTO 19005KT 10SM -TSDZ SCT080 OVC090 15/12 A3000 RMK AO2 LTG DSNT ALQS T01490122,M
BAM,2022-09-14 23:35,-116.8743,40.5990,1382.36,77.00,42.80,29.51,0.00,0.00,0.00,29.92,M,10.00,M,SCT,M,M,M,11000.00,M,M,M,M,M,M,M,M,M,M,77.00,KBAM 142335Z AUTO 00000KT 10SM SCT110 25/06 A2992 RMK AO1,M
HTH,2022-09-14 23:35,-118.6315,38.5448,1282.89,77.00,42.80,29.51,340.00,11.00,0.00,29.86,M,10.00,M,CLR,M,M,M,M,M,M,M,M,M,M,M,M,M,M,77.00,KHTH 142335Z AUTO 34011KT 10SM CLR 25/06 A2986 RMK A01,M
05U,2022-09-14 23:35,-116.0051,39.6042,1811.23,60.80,50.00,67.54,180.00,23.00,0.00,30.04,M,2.00,29.00,M,M,M,M,M,M,M,M,HZ,M,M,M,M,M,M,60.80,K05U 142335Z AUTO 18023G29KT 2SM HZ 16/10 A3004 RMK A01,M
RTS,2022-09-14 23:35,-119.8764,39.6682,1539.00,73.40,26.60,17.46,280.00,15.00,0.00,29.96,M,6.00,M,CLR,M,M,M,M,M,M,M,HZ,M,M,M,M,M,M,73.40,KRTS 142335Z AUTO 28015KT 6SM HZ CLR 23/M03 A2996 RMK AO2,M
CXP,2022-09-14 23:35,-119.7326,39.1923,1431.00,75.20,35.60,23.66,260.00,10.00,0.00,29.93,M,10.00,19.00,CLR,M,M,M,M,M,M,M,M,M,M,M,M,M,M,75.20,KCXP 142335Z AUTO 26010G19KT 220V290 10SM CLR 24/02 A2993 RMK AO2 LTG DSNT E,M
DRA,2022-09-14 23:53,-116.0278,36.6206,1009.00,84.00,37.00,18.74,200.00,13.00,0.00,29.86,1006.90,10.00,23.00,CLR,M,M,M,M,M,M,M,M,M,M,M,27.00,190.00,2022-09-14 23:06,81.23,KDRA 142353Z AUTO 20013G23KT 10SM CLR 29/03 A2986 RMK AO2 PK WND 19027/2306 SLP069 T02890028 10294 20233 56010,M
LOL,2022-09-14 23:53,-118.5701,40.0684,1192.43,78.00,39.00,24.56,60.00,8.00,0.00,29.86,1008.60,3.00,M,OVC,M,M,M,3900.00,M,M,M,HZ,M,M,M,M,M,M,78.10,KLOL 142353Z AUTO 06008KT 3SM HZ OVC039 26/04 A2986 RMK AO2 SLP086 6//// T02560039 10267 20211 56013,M
ELY,2022-09-14 23:53,-114.8453,39.2950,1909.00,66.00,48.00,52.22,210.00,6.00,0.00,30.02,1008.80,10.00,M,FEW,FEW,M,M,5500.00,11000.00,M,M,M,M,M,M,M,M,M,66.00,KELY 142353Z AUTO 21006KT 10SM FEW055 FEW110 19/09 A3002 RMK AO2 LTG DSNT SW SLP088 T01890089 10217 20178 55002,M
P68,2022-09-14 23:53,-116.0056,39.6014,1993.00,59.00,49.00,69.12,220.00,5.00,0.37,M,M,M,M,M,M,M,M,M,M,M,M,M,M,M,M,M,M,M,59.00,KP68 142353Z AUTO 22005KT 15/09 RMK AO1 SLPNO P0037 60037 T01500094 10211 20139 $,M
VGT,2022-09-14 23:53,-115.1933,36.2111,667.00,88.00,55.00,32.60,90.00,11.00,0.00,29.79,1008.30,10.00,M,CLR,M,M,M,M,M,M,M,M,M,M,M,M,M,M,86.20,KVGT 142353Z 09011KT 10SM CLR 31/13 A2979 RMK AO2 SLP083 T03110128 10317 20250 56020,M
MEV,2022-09-14 23:55,-119.7500,38.9963,1441.42,75.20,37.40,25.40,280.00,16.00,0.00,29.91,M,10.00,23.00,CLR,M,M,M,M,M,M,M,M,M,M,M,M,M,M,75.20,KMEV 142355Z AUTO 28016G23KT 10SM CLR 24/03 A2991 RMK AO2,M
BAM,2022-09-14 23:55,-116.8743,40.5990,1382.36,77.00,42.80,29.51,330.00,5.00,0.00,29.91,M,10.00,M,SCT,M,M,M,11000.00,M,M,M,M,M,M,M,M,M,M,77.00,KBAM 142355Z AUTO 33005KT 10SM SCT110 25/06 A2991 RMK AO1,M
RNO,2022-09-14 23:55,-119.7711,39.4839,1341.00,76.00,38.00,25.31,280.00,19.00,0.00,29.90,1007.90,3.00,24.00,SCT,SCT,M,M,2500.00,11000.00,M,M,FU,M,M,M,M,M,M,75.90,KRNO 142355Z 28019G24KT 3SM FU SCT025 SCT110 24/03 A2990 RMK AO2 SLP079 FU SCT025 T02440033 10272 20200 55007,M
CXP,2022-09-14 23:55,-119.7326,39.1923,1431.00,75.20,35.60,23.66,270.00,7.00,0.00,29.93,M,10.00,15.00,CLR,M,M,M,M,M,M,M,M,M,M,M,M,M,M,75.20,KCXP 142355Z AUTO 27007G15KT 10SM CLR 24/02 A2993 RMK AO2,M
BVU,2022-09-14 23:55,-114.8611,35.9475,671.00,87.80,55.40,33.29,130.00,7.00,0.00,29.81,M,M,13.00,M,M,M,M,M,M,M,M,M,M,M,M,M,M,M,86.11,KBVU 142355Z AUTO 13007G13KT 31/13 A2981 RMK AO2 TSNO,M
05U,2022-09-14 23:55,-116.0051,39.6042,1811.23,57.20,50.00,76.82,190.00,6.00,0.30,30.05,M,8.00,M,M,M,M,M,M,M,M,M,M,M,M,M,M,M,M,57.20,K05U 142355Z AUTO 19006KT 8SM 14/10 A3005 RMK A01 P0030,M
HTH,2022-09-14 23:55,-118.6315,38.5448,1282.89,77.00,42.80,29.51,340.00,11.00,0.00,29.86,M,10.00,M,CLR,M,M,M,M,M,M,M,M,M,M,M,M,M,M,77.00,KHTH 142355Z AUTO 34011KT 10SM CLR 25/06 A2986 RMK A01,M
TMT,2022-09-14 23:55,-117.1971,39.4643,1749.34,M,M,M,220.00,5.00,0.00,30.00,M,10.00,M,SCT,OVC,M,M,7000.00,9000.00,M,M,-RA,M,M,M,M,M,M,M,KTMT 142355Z AUTO 22005KT 10SM -RA SCT070 OVC090 A3000 RMK AO2 LTG DSNT NE E AND SW,M
RTS,2022-09-14 23:55,-119.8764,39.6682,1539.00,71.60,24.80,17.22,250.00,16.00,0.00,29.96,M,4.00,M,CLR,M,M,M,M,M,M,M,HZ,M,M,M,M,M,M,71.60,KRTS 142355Z AUTO 25016KT 4SM HZ CLR 22/M04 A2996 RMK AO2,M
NFL,2022-09-14 23:56,-118.7010,39.4166,1199.00,80.00,32.00,17.42,350.00,4.00,0.00,29.86,1008.70,2.00,M,SCT,SCT,BKN,BKN,3000.00,5000.00,12000.00,25000.00,FU,M,M,M,M,M,M,78.63,KNFL 142356Z 35004KT 2SM FU SCT030 SCT050 BKN120 BKN250 27/00 A2986 RMK AO2 SLP087 SFC VIS 2 1/2 FU SCT030 T02670000 10272 20211 56012,M
LSV,2022-09-14 23:56,-115.0343,36.2362,570.00,88.70,59.00,36.84,100.00,9.00,0.00,29.78,1006.30,10.00,M,CLR,M,M,M,M,M,M,M,M,M,M,M,M,M,M,87.98,KLSV 142356Z AUTO 10009KT 10SM CLR 32/15 A2978 RMK AO2 SLP063 T03150150 10319 20258 57020 $,M
INS,2022-09-14 23:56,-115.6733,36.5872,955.00,81.50,50.40,33.92,100.00,12.00,0.00,29.86,1006.90,10.00,M,FEW,M,M,M,9500.00,M,M,M,M,M,M,M,M,M,M,80.46,KINS 142356Z AUTO 10012KT 10SM FEW095 28/10 A2986 RMK AO2 SLP069 60000 T02750102 10275 20216 57014 $,M
LAS,2022-09-14 23:56,-115.1634,36.0719,663.00,87.00,57.00,36.07,M,3.00,0.00,29.81,1007.10,10.00,M,FEW,FEW,SCT,M,9000.00,13000.00,18000.00,M,M,M,M,M,M,M,M,85.89,KLAS 142356Z VRB03KT 10SM FEW090 FEW130 SCT180 31/14 A2981 RMK AO2 SLP071 T03060139 10311 20244 56020,M
TPH,2022-09-14 23:56,-117.0904,38.0505,1654.00,73.00,46.00,38.11,180.00,14.00,0.00,29.96,1008.70,10.00,M,CLR,M,M,M,M,M,M,M,M,M,M,M,M,M,M,73.00,KTPH 142356Z AUTO 18014KT 10SM CLR 23/08 A2996 RMK AO2 SLP087 T02280078 10233 20183 55009,M
EKO,2022-09-14 23:56,-115.7860,40.8242,1367.00,67.00,47.00,48.56,210.00,6.00,T,29.93,1010.20,10.00,M,FEW,SCT,BKN,M,4800.00,9500.00,12000.00,M,M,M,M,M,M,M,M,66.90,KEKO 142356Z AUTO 21006KT 10SM FEW048 SCT095 BKN120 19/08 A2993 RMK AO2 LTG DSNT ALQDS RAB44E56 SLP102 P0000 60000 T01940083 10239 20194 55005,M
WMC,2022-09-14 23:56,-117.8072,40.9019,1315.00,76.00,38.00,25.31,260.00,4.00,0.00,29.90,1009.10,6.00,M,SCT,M,M,M,9000.00,M,M,M,HZ,M,M,M,M,M,M,75.90,KWMC 142356Z AUTO 26004KT 6SM HZ SCT090 24/03 A2990 RMK AO2 SLP091 60000 T02440033 10256 20206 55011,M
HND,2022-09-14 23:56,-115.1344,35.9729,742.79,89.00,44.00,20.97,230.00,8.00,0.00,29.84,1009.60,10.00,M,CLR,M,M,M,M,M,M,M,M,M,M,M,M,M,M,85.59,KHND 142356Z 23008KT 10SM CLR 32/07 A2984 RMK AO2 SLP096 T03170067 10322 20244 56013,M
