station,valid,lon,lat,elevation,tmpf,dwpf,relh,drct,sknt,p01i,alti,mslp,vsby,gust,skyc1,skyc2,skyc3,skyc4,skyl1,skyl2,skyl3,skyl4,wxcodes,ice_accretion_1hr,ice_accretion_3hr,ice_accretion_6hr,peak_wind_gust,peak_wind_drct,peak_wind_time,feel,metar,snowdepth
LSV,2022-11-09 00:01,-115.0343,36.2362,570.00,59.00,53.60,82.25,180.00,23.00,0.00,29.66,1003.50,10.00,29.00,FEW,SCT,BKN,M,5000.00,6000.00,7500.00,M,M,M,M,M,M,M,M,59.00,KLSV 090001Z AUTO 18023G29KT 10SM FEW050 SCT060 BKN075 15/12 A2966 RMK AO2 RAE01 SLP035 $,M
WMC,2022-11-09 00:12,-117.8072,40.9019,1315.00,35.00,33.00,92.32,50.00,9.00,0.02,29.48,M,7.00,14.00,BKN,OVC,M,M,700.00,1400.00,M,M,-SN,M,M,M,M,M,M,27.37,KWMC 090012Z AUTO 05009G14KT 7SM -SN BKN007 OVC014 02/01 A2948 RMK AO2 P0002 T00170006,M
RTS,2022-11-09 00:15,-119.8764,39.6682,1539.00,30.20,28.40,92.92,100.00,4.00,0.00,29.50,M,10.00,M,FEW,FEW,OVC,M,500.00,2200.00,3000.00,M,M,M,M,M,M,M,M,25.32,KRTS 090015Z AUTO 10004KT 10SM FEW005 FEW022 OVC030 M01/M02 A2950 RMK AO2,M
MEV,2022-11-09 00:15,-119.7500,38.9963,1441.42,28.40,28.40,100.00,240.00,3.00,0.00,29.52,M,6.00,M,SCT,SCT,BKN,M,600.00,1800.00,5000.00,M,BR,M,M,M,M,M,M,24.57,KMEV 090015Z AUTO 24003KT 6SM BR SCT006 SCT018 BKN050 M02/M02 A2952 RMK AO2,M
BAM,2022-11-09 00:15,-116.8743,40.5990,1382.36,42.80,35.60,75.50,100.00,10.00,0.00,29.47,M,10.00,M,BKN,OVC,M,M,5500.00,8000.00,M,M,M,M,M,M,M,M,M,36.51,KBAM 090015Z AUTO 10010KT 10SM BKN055 OVC080 06/02 A2947 RMK AO1,M
TMT,2022-11-09 00:15,-117.1971,39.4643,1749.34,35.60,34.00,93.83,190.00,23.00,0.02,29.49,M,4.00,28.00,BKN,OVC,M,M,1400.00,2200.00,M,M,RA,M,M,M,M,M,M,23.15,KTMT 090015Z AUTO 19023G28KT 4SM RA BKN014 OVC022 02/01 A2949 RMK AO2 P0002 T00200011,M
BVU,2022-11-09 00:15,-114.8611,35.9475,671.00,60.80,48.20,63.15,200.00,23.00,0.00,29.71,M,10.00,M,FEW,BKN,OVC,M,3700.00,4800.00,6000.00,M,M,M,M,M,M,M,M,60.80,KBVU 090015Z AUTO 20023KT 10SM FEW037 BKN048 OVC060 16/09 A2971 RMK AO2,M
CXP,2022-11-09 00:15,-119.7326,39.1923,1431.00,30.20,28.40,92.92,M,3.00,0.00,29.52,M,10.00,M,FEW,BKN,BKN,M,900.00,1600.00,2100.00,M,M,M,M,M,M,M,M,26.63,KCXP 090015Z AUTO VRB03KT 10SM FEW009 BKN016 BKN021 M01/M02 A2952 RMK AO2,M
05U,2022-11-09 00:15,-116.0051,39.6042,1811.23,41.00,35.60,80.93,170.00,24.00,0.00,29.49,M,3.00,33.00,BKN,BKN,BKN,M,2600.00,4300.00,6500.00,M,HZ,M,M,M,M,M,M,30.20,K05U 090015Z AUTO 17024G33KT 3SM HZ BKN026 BKN043 BKN065 05/02 A2949 RMK A01,M
RNO,2022-11-09 00:24,-119.7711,39.4839,1341.00,35.00,30.90,84.49,280.00,5.00,T,29.51,M,3.00,M,BKN,BKN,BKN,M,2500.00,4000.00,7000.00,M,-SN BR,M,M,M,M,M,M,30.08,KRNO 090024Z 28005KT 3SM -SN BR BKN025 BKN040 BKN070 02/M01 A2951 RMK AO2 VIS SW-NW 2 P0000 T00171006,M
LOL,2022-11-09 00:28,-118.5701,40.0684,1192.43,32.00,30.90,95.65,140.00,5.00,0.02,29.51,M,3.00,M,SCT,OVC,M,M,800.00,2500.00,M,M,-SN BR,M,M,M,M,M,M,26.40,KLOL 090028Z AUTO 14005KT 3SM -SN BR SCT008 OVC025 00/M01 A2951 RMK AO2 P0002 T00001006,M
05U,2022-11-09 00:30,-116.0051,39.6042,1811.23,41.00,35.60,80.93,180.00,23.00,0.00,29.49,M,4.00,36.00,OVC,M,M,M,2600.00,M,M,M,HZ,M,M,M,M,M,M,30.41,K05U 090030Z AUTO 18023G36KT 4SM HZ OVC026 05/02 A2949 RMK A01,M
INS,2022-11-09 00:33,-115.6733,36.5872,955.00,55.40,48.20,76.66,200.00,18.00,0.00,29.61,1000.20,10.00,29.00,OVC,M,M,M,7500.00,M,M,M,-DZ,M,M,M,M,M,M,55.40,KINS 090033Z AUTO 20018G29KT 10SM -DZ OVC075 13/09 A2961 RMK AO2 DZB33 SLP002 $,M
RNO,2022-11-09 00:33,-119.7711,39.4839,1341.00,34.00,30.90,88.27,240.00,3.00,T,29.51,M,0.75,M,SCT,OVC,M,M,1600.00,2500.00,M,M,-SN BR,M,M,M,M,M,M,30.97,KRNO 090033Z 24003KT 3/4SM -SN BR SCT016 OVC025 01/M01 A2951 RMK AO2 SFC VIS 1 1/2 P0000 T00111006,M
INS,2022-11-09 00:34,-115.6733,36.5872,955.00,55.40,48.20,76.66,180.00,14.00,0.00,29.61,1000.20,10.00,29.00,OVC,M,M,M,7500.00,M,M,M,-DZ,M,M,M,M,M,M,55.40,KINS 090034Z AUTO 18014G29KT 10SM -DZ OVC075 13/09 A2961 RMK AO2 WSHFT 25 DZB33 SLP002 $,M
BVU,2022-11-09 00:35,-114.8611,35.9475,671.00,60.80,50.00,67.54,190.00,13.00,0.00,29.70,M,10.00,18.00,FEW,SCT,BKN,M,3300.00,4800.00,5500.00,M,M,M,M,M,M,M,M,60.80,KBVU 090035Z AUTO 19013G18KT 10SM FEW033 SCT048 BKN055 16/10 A2970 RMK AO2,M
CXP,2022-11-09 00:35,-119.7326,39.1923,1431.00,30.20,28.40,92.92,M,3.00,0.00,29.54,M,10.00,M,SCT,SCT,SCT,M,600.00,1000.00,10000.00,M,M,M,M,M,M,M,M,26.63,KCXP 090035Z AUTO VRB03KT 10SM SCT006 SCT010 SCT100 M01/M02 A2954 RMK AO2,M
RTS,2022-11-09 00:35,-119.8764,39.6682,1539.00,30.20,28.40,92.92,70.00,4.00,0.00,29.51,M,10.00,M,BKN,OVC,M,M,2300.00,2900.00,M,M,M,M,M,M,M,M,M,25.32,KRTS 090035Z AUTO 07004KT 10SM BKN023 OVC029 M01/M02 A2951 RMK AO2,M
MEV,2022-11-09 00:35,-119.7500,38.9963,1441.42,30.20,28.40,92.92,180.00,4.00,0.00,29.54,M,10.00,M,FEW,BKN,BKN,M,500.00,1900.00,5000.00,M,M,M,M,M,M,M,M,25.32,KMEV 090035Z AUTO 18004KT 10SM FEW005 BKN019 BKN050 M01/M02 A2954 RMK AO2,M
TMT,2022-11-09 00:35,-117.1971,39.4643,1749.34,34.70,33.00,93.06,180.00,27.00,0.02,29.48,M,7.00,33.00,BKN,BKN,OVC,M,1400.00,2500.00,4700.00,M,-RA,M,M,M,M,M,M,21.02,KTMT 090035Z AUTO 18027G33KT 7SM -RA BKN014 BKN025 OVC047 02/01 A2948 RMK AO2 P0002 T00150005,M
BAM,2022-11-09 00:35,-116.8743,40.5990,1382.36,42.80,35.60,75.50,90.00,11.00,0.00,29.46,M,10.00,M,SCT,BKN,OVC,M,3600.00,4800.00,7000.00,M,M,M,M,M,M,M,M,36.11,KBAM 090035Z AUTO 09011KT 10SM SCT036 BKN048 OVC070 06/02 A2946 RMK AO1,M
LOL,2022-11-09 00:37,-118.5701,40.0684,1192.43,32.00,32.00,100.00,90.00,4.00,0.02,29.50,M,5.00,M,FEW,OVC,M,M,1100.00,3700.00,M,M,-SN BR,M,M,M,M,M,M,27.42,KLOL 090037Z AUTO 09004KT 5SM -SN BR FEW011 OVC037 00/00 A2950 RMK AO2 P0002 T00000000,M
INS,2022-11-09 00:43,-115.6733,36.5872,955.00,55.40,48.20,76.66,90.00,10.00,0.00,29.60,999.90,10.00,M,OVC,M,M,M,7500.00,M,M,M,M,M,M,M,M,M,M,55.40,KINS 090043Z AUTO 09010KT 10SM OVC075 13/09 A2960 RMK AO2 DZB33E40RAB40E43 SLP999 $,M
RNO,2022-11-09 00:44,-119.7711,39.4839,1341.00,34.00,30.90,88.27,0.00,0.00,0.01,29.52,M,0.75,M,BKN,OVC,M,M,1400.00,2500.00,M,M,-SN BR,M,M,M,M,M,M,34.00,KRNO 090044Z 00000KT 3/4SM -SN BR BKN014 OVC025 01/M01 A2952 RMK AO2 SFC VIS 1 1/2 P0001 T00111006,M
INS,2022-11-09 00:46,-115.6733,36.5872,955.00,53.60,48.20,81.87,130.00,12.00,0.00,29.60,999.90,10.00,18.00,OVC,M,M,M,7500.00,M,M,M,M,M,M,M,M,M,M,53.60,KINS 090046Z AUTO 13012G18KT 10SM OVC075 12/09 A2960 RMK AO2 WSHFT 43 DZB33E40RAB40E43 SLP999 $,M
TPH,2022-11-09 00:49,-117.0904,38.0505,1654.00,35.00,34.00,95.71,240.00,13.00,0.05,29.55,M,6.00,M,BKN,OVC,M,M,1600.00,2000.00,M,M,-RA BR,M,M,M,43.00,210.00,2022-11-09 00:34,25.54,KTPH 090049Z AUTO 24013KT 6SM -RA BR BKN016 OVC020 02/01 A2955 RMK AO2 PK WND 21043/0034 WSHFT 0029 P0005 T00170011 $,M
INS,2022-11-09 00:49,-115.6733,36.5872,955.00,53.60,50.00,87.56,130.00,13.00,0.00,29.61,1000.40,10.00,20.00,OVC,M,M,M,7500.00,M,M,M,-RA,M,M,M,M,M,M,53.60,KINS 090049Z AUTO 13013G20KT 10SM -RA OVC075 12/10 A2961 RMK AO2 DZB33E40RAB40E43RAB49 SLP004 $,M
05U,2022-11-09 00:50,-116.0051,39.6042,1811.23,41.00,33.80,75.33,180.00,31.00,0.00,29.49,M,8.00,40.00,FEW,BKN,OVC,M,300.00,2600.00,4100.00,M,M,M,M,M,M,M,M,28.91,K05U 090050Z AUTO 18031G40KT 8SM FEW003 BKN026 OVC041 05/01 A2949 RMK A01,M
CXP,2022-11-09 00:50,-119.7326,39.1923,1431.00,30.20,28.40,92.92,180.00,7.00,0.00,29.55,M,6.00,M,FEW,SCT,BKN,M,600.00,1800.00,4900.00,M,-SN BR,M,M,M,M,M,M,22.59,KCXP 090050Z AUTO 18007KT 6SM -SN BR FEW006 SCT018 BKN049 M01/M02 A2955 RMK AO2,M
ELY,2022-11-09 00:53,-114.8453,39.2950,1909.00,37.00,36.00,96.13,190.00,18.00,0.01,29.58,998.60,3.00,34.00,FEW,OVC,M,M,2300.00,3100.00,M,M,RA BR,M,M,M,39.00,160.00,2022-11-09 00:41,26.33,KELY 090053Z AUTO 19018G34KT 3SM RA BR FEW023 OVC031 03/02 A2958 RMK AO2 PK WND 16039/0041 RAB23 SLP986 P0001 T00280022,M
LOL,2022-11-09 00:53,-118.5701,40.0684,1192.43,32.00,32.00,100.00,100.00,3.00,0.02,29.49,1001.40,10.00,M,FEW,BKN,OVC,M,800.00,4500.00,9000.00,M,UP,M,M,M,M,M,M,28.69,KLOL 090053Z AUTO 10003KT 10SM UP FEW008 BKN045 OVC090 00/00 A2949 RMK AO2 UPB42SNE42 SLP014 P0002 T00000000,M
VGT,2022-11-09 00:53,-115.1933,36.2111,667.00,60.00,51.00,72.13,140.00,13.00,0.01,29.66,1005.10,10.00,M,FEW,OVC,M,M,4200.00,6000.00,M,M,-RA,M,M,M,26.00,150.00,2022-11-09 00:35,60.10,KVGT 090053Z 14013KT 10SM -RA FEW042 OVC060 16/11 A2966 RMK AO2 PK WND 15026/0035 RAE22B53 SLP051 P0001 T01560106,M
P68,2022-11-09 00:53,-116.0056,39.6014,1993.00,41.00,33.00,73.25,180.00,36.00,0.02,29.46,995.90,M,51.00,M,M,M,M,M,M,M,M,M,M,M,M,51.00,180.00,2022-11-09 00:53,28.12,KP68 090053Z AUTO 18036G51KT 05/01 A2946 RMK AO1 PK WND 18051/0053 SLP959 P0002 T00500006,M
DRA,2022-11-09 00:53,-116.0278,36.6206,1009.00,54.00,46.00,74.26,180.00,17.00,0.01,29.56,998.60,10.00,39.00,FEW,BKN,OVC,M,3700.00,6500.00,8000.00,M,-RA,M,M,M,41.00,150.00,2022-11-09 00:10,54.00,KDRA 090053Z AUTO 18017G39KT 10SM -RA FEW037 BKN065 OVC080 12/08 A2956 RMK AO2 PK WND 15041/0010 RAB24 SLP986 P0001 T01220078,M
RTS,2022-11-09 00:55,-119.8764,39.6682,1539.00,30.20,28.40,92.92,0.00,0.00,0.00,29.52,M,10.00,M,BKN,OVC,M,M,2400.00,3000.00,M,M,-UP,M,M,M,M,M,M,30.20,KRTS 090055Z AUTO 00000KT 10SM -UP BKN024 OVC030 M01/M02 A2952 RMK AO2,M
TMT,2022-11-09 00:55,-117.1971,39.4643,1749.34,34.70,33.00,93.06,180.00,18.00,0.02,29.49,M,10.00,23.00,SCT,BKN,OVC,M,1100.00,3800.00,4900.00,M,-RA,M,M,M,M,M,M,23.30,KTMT 090055Z AUTO 18018G23KT 10SM -RA SCT011 BKN038 OVC049 02/01 A2949 RMK AO2 P0002 T00150005,M
BVU,2022-11-09 00:55,-114.8611,35.9475,671.00,60.80,50.00,67.54,190.00,11.00,0.00,29.70,M,10.00,22.00,FEW,SCT,BKN,M,3600.00,5000.00,8000.00,M,M,M,M,M,M,M,M,60.80,KBVU 090055Z AUTO 19011G22KT 10SM FEW036 SCT050 BKN080 16/10 A2970 RMK AO2,M
MEV,2022-11-09 00:55,-119.7500,38.9963,1441.42,30.20,28.40,92.92,0.00,0.00,0.00,29.54,M,2.00,M,SCT,BKN,OVC,M,400.00,1800.00,3400.00,M,-SN BR,M,M,M,M,M,M,30.20,KMEV 090055Z AUTO 00000KT 2SM -SN BR SCT004 BKN018 OVC034 M01/M02 A2954 RMK AO2 VIS 1 3/4V3,M
RNO,2022-11-09 00:55,-119.7711,39.4839,1341.00,34.00,30.90,88.27,160.00,4.00,0.01,29.52,999.80,0.75,M,BKN,OVC,M,M,1400.00,2500.00,M,M,-SN BR,M,M,M,M,M,M,29.76,KRNO 090055Z 16004KT 3/4SM -SN BR BKN014 OVC025 01/M01 A2952 RMK AO2 SFC VIS 1 SLP998 P0001 T00111006 RVRNO,M
BAM,2022-11-09 00:55,-116.8743,40.5990,1382.36,41.00,35.60,80.93,90.00,6.00,0.00,29.48,M,10.00,M,SCT,OVC,M,M,2700.00,3600.00,M,M,M,M,M,M,M,M,M,36.37,KBAM 090055Z AUTO 09006KT 10SM SCT027 OVC036 05/02 A2948 RMK AO1,M
LSV,2022-11-09 00:55,-115.0343,36.2362,570.00,58.60,55.00,87.81,180.00,17.00,T,29.64,1002.80,10.00,M,FEW,M,M,M,10000.00,M,M,M,M,M,M,M,31.00,180.00,2022-11-09 00:08,58.60,KLSV 090055Z AUTO 18017KT 10SM FEW100 15/13 A2964 RMK AO2 PK WND 18031/08 RAE01 SLP028 P0000 T01480128 $,M
INS,2022-11-09 00:55,-115.6733,36.5872,955.00,53.80,49.50,85.32,130.00,11.00,0.12,29.59,999.70,10.00,20.00,OVC,M,M,M,7500.00,M,M,M,-RA,M,M,M,42.00,220.00,2022-11-09 00:03,53.80,KINS 090055Z AUTO 13011G20KT 10SM -RA OVC075 12/10 A2959 RMK AO2 PK WND 22042/03 DZB33E40RAB40E43RAB49E50DZB50E54RAB54 PRESFR SLP997 P0012 T01210097 $,M
LAS,2022-11-09 00:56,-115.1634,36.0719,663.00,60.00,50.00,69.24,170.00,6.00,T,29.67,1003.50,10.00,M,FEW,BKN,BKN,M,5000.00,7000.00,9500.00,M,M,M,M,M,26.00,220.00,2022-11-09 00:00,60.10,KLAS 090056Z 17006KT 10SM FEW050 BKN070 BKN095 16/10 A2967 RMK AO2 PK WND 22026/0000 RAE04 SLP035 P0000 T01560100,M
EKO,2022-11-09 00:56,-115.7860,40.8242,1367.00,37.00,30.00,75.56,40.00,13.00,T,29.50,999.60,10.00,M,SCT,BKN,OVC,M,4500.00,6500.00,9500.00,M,M,M,M,M,M,M,M,27.97,KEKO 090056Z AUTO 04013KT 10SM SCT045 BKN065 OVC095 03/M01 A2950 RMK AO2 RAB32E46 SLP996 P0000 T00281011,M
WMC,2022-11-09 00:56,-117.8072,40.9019,1315.00,34.00,32.00,92.29,60.00,7.00,0.03,29.47,998.80,10.00,18.00,BKN,BKN,OVC,M,500.00,1900.00,2300.00,M,-SN,M,M,M,M,M,M,27.22,KWMC 090056Z AUTO 06007G18KT 10SM -SN BKN005 BKN019 OVC023 01/00 A2947 RMK AO2 UPB44E52SNE44B52 SLP988 P0003 T00110000,M
HND,2022-11-09 00:56,-115.1344,35.9729,742.79,58.00,50.00,74.91,170.00,15.00,0.01,29.68,1005.80,10.00,22.00,FEW,BKN,BKN,M,1500.00,4800.00,7500.00,M,M,M,M,M,M,M,M,57.90,KHND 090056Z 17015G22KT 10SM FEW015 BKN048 BKN075 14/10 A2968 RMK AO2 RAE25 SLP058 P0001 T01440100,M
TPH,2022-11-09 00:56,-117.0904,38.0505,1654.00,36.00,34.00,92.35,240.00,17.00,0.06,29.55,1000.00,10.00,23.00,BKN,OVC,M,M,1600.00,2000.00,M,M,-RA,M,M,M,43.00,210.00,2022-11-09 00:34,25.32,KTPH 090056Z AUTO 24017G23KT 10SM -RA BKN016 OVC020 02/01 A2955 RMK AO2 PK WND 21043/0034 WSHFT 0029 SLP000 P0006 T00220011 $,M
NFL,2022-11-09 00:56,-118.7010,39.4166,1199.00,35.00,33.00,92.32,0.00,0.00,T,29.49,997.70,6.00,M,SCT,BKN,OVC,M,700.00,1000.00,2000.00,M,-RA BR,M,M,M,M,M,M,35.10,KNFL 090056Z 00000KT 6SM -RA BR SCT007 BKN010 OVC020 02/01 A2949 RMK AO2 SLP977 WR// P0000 T00170006,M
ELY,2022-11-09 01:04,-114.8453,39.2950,1909.00,37.00,35.00,92.76,230.00,19.00,0.02,29.59,M,8.00,27.00,FEW,OVC,M,M,1500.00,2300.00,M,M,-RA,M,M,M,27.00,230.00,2022-11-09 01:03,26.05,KELY 090104Z AUTO 23019G27KT 8SM -RA FEW015 OVC023 03/02 A2959 RMK AO2 PK WND 23027/0103 WSHFT 0050 P0002 T00280017,M
RNO,2022-11-09 01:05,-119.7711,39.4839,1341.00,33.00,30.00,88.23,170.00,5.00,0.01,29.52,M,2.50,M,BKN,OVC,M,M,2500.00,4000.00,M,M,-SN BR,M,M,M,M,M,M,27.70,KRNO 090105Z 17005KT 2 1/2SM -SN BR BKN025 OVC040 01/M01 A2952 RMK AO2 TWR VIS 3 P0001 T00061011 $,M
LOL,2022-11-09 01:06,-118.5701,40.0684,1192.43,32.00,32.00,100.00,0.00,0.00,T,29.51,M,10.00,M,BKN,BKN,OVC,M,800.00,5500.00,9000.00,M,M,M,M,M,M,M,M,32.00,KLOL 090106Z AUTO 00000KT 10SM BKN008 BKN055 OVC090 00/00 A2951 RMK AO2 UPE0056 P0000 T00000000,M
EKO,2022-11-09 01:07,-115.7860,40.8242,1367.00,37.00,30.00,75.56,10.00,13.00,0.00,29.49,M,10.00,M,BKN,BKN,OVC,M,6500.00,8000.00,9500.00,M,M,M,M,M,M,M,M,27.97,KEKO 090107Z AUTO 01013KT 10SM BKN065 BKN080 OVC095 03/M01 A2949 RMK AO2 WSHFT 0047 T00281011,M
05U,2022-11-09 01:10,-116.0051,39.6042,1811.23,39.20,33.80,80.79,180.00,24.00,0.00,29.50,M,9.00,37.00,FEW,BKN,OVC,M,1100.00,2900.00,12000.00,M,M,M,M,M,M,M,M,27.77,K05U 090110Z AUTO 18024G37KT 9SM FEW011 BKN029 OVC120 04/01 A2950 RMK A01,M
INS,2022-11-09 01:11,-115.6733,36.5872,955.00,53.60,50.00,87.56,110.00,15.00,0.00,29.58,999.40,10.00,27.00,FEW,FEW,BKN,OVC,1200.00,3700.00,7000.00,8500.00,M,M,M,M,M,M,M,53.60,KINS 090111Z AUTO 11015G27KT 10SM FEW012 FEW037 BKN070 OVC085 12/10 A2958 RMK AO2 RAE11 SLP994 $,M
RNO,2022-11-09 01:14,-119.7711,39.4839,1341.00,33.00,30.90,91.51,150.00,7.00,0.01,29.52,M,6.00,M,SCT,BKN,OVC,M,2500.00,4000.00,6500.00,M,-SN BR,M,M,M,M,M,M,26.12,KRNO 090114Z 15007KT 6SM -SN BR SCT025 BKN040 OVC065 01/M01 A2952 RMK AO2 MTNS OBSCD DSNT SW THRU NW P0001 T00061006 $,M
INS,2022-11-09 01:14,-115.6733,36.5872,955.00,53.60,50.00,87.56,140.00,17.00,0.00,29.58,999.40,10.00,23.00,FEW,BKN,OVC,M,3700.00,7000.00,8500.00,M,M,M,M,M,M,M,M,53.60,KINS 090114Z AUTO 14017G23KT 10SM FEW037 BKN070 OVC085 12/10 A2958 RMK AO2 WSHFT 03 RAE11 SLP994 $,M
WMC,2022-11-09 01:14,-117.8072,40.9019,1315.00,34.00,33.00,96.46,70.00,12.00,T,29.47,M,9.00,18.00,BKN,OVC,M,M,400.00,1800.00,M,M,-SN,M,M,M,M,M,M,24.55,KWMC 090114Z AUTO 07012G18KT 9SM -SN BKN004 OVC018 01/01 A2947 RMK AO2 P0000 T00110006,M
BAM,2022-11-09 01:15,-116.8743,40.5990,1382.36,41.00,37.40,86.89,180.00,4.00,0.00,29.49,M,10.00,M,BKN,OVC,M,M,2700.00,3200.00,M,M,M,M,M,M,M,M,M,37.93,KBAM 090115Z AUTO 18004KT 10SM BKN027 OVC032 05/03 A2949 RMK AO1,M
RTS,2022-11-09 01:15,-119.8764,39.6682,1539.00,30.20,28.40,92.92,0.00,0.00,0.00,29.52,M,2.00,M,FEW,BKN,OVC,M,400.00,2300.00,11000.00,M,-SN,M,M,M,M,M,M,30.20,KRTS 090115Z AUTO 00000KT 2SM -SN FEW004 BKN023 OVC110 M01/M02 A2952 RMK AO2,M
MEV,2022-11-09 01:15,-119.7500,38.9963,1441.42,30.20,28.40,92.92,0.00,0.00,0.00,29.55,M,0.50,M,OVC,M,M,M,300.00,M,M,M,-SN FZFG,M,M,M,M,M,M,30.20,KMEV 090115Z AUTO 00000KT 1/2SM -SN FZFG OVC003 M01/M02 A2955 RMK AO2,M
TMT,2022-11-09 01:15,-117.1971,39.4643,1749.34,34.50,33.00,93.80,190.00,13.00,0.01,29.48,M,10.00,19.00,SCT,BKN,OVC,M,2700.00,4100.00,4900.00,M,-RA,M,M,M,M,M,M,24.77,KTMT 090115Z AUTO 19013G19KT 10SM -RA SCT027 BKN041 OVC049 01/01 A2948 RMK AO2 P0001 T00140005,M
CXP,2022-11-09 01:15,-119.7326,39.1923,1431.00,30.20,28.40,92.92,200.00,6.00,0.00,29.55,M,4.00,M,SCT,SCT,OVC,M,300.00,800.00,3000.00,M,-SN BR,M,M,M,M,M,M,23.36,KCXP 090115Z AUTO 20006KT 4SM -SN BR SCT003 SCT008 OVC030 M01/M02 A2955 RMK AO2,M
BVU,2022-11-09 01:15,-114.8611,35.9475,671.00,60.80,48.20,63.15,180.00,9.00,0.00,29.69,M,10.00,M,FEW,SCT,BKN,M,5000.00,8000.00,9000.00,M,M,M,M,M,M,M,M,60.80,KBVU 090115Z AUTO 18009KT 10SM FEW050 SCT080 BKN090 16/09 A2969 RMK AO2,M
INS,2022-11-09 01:16,-115.6733,36.5872,955.00,53.60,50.00,87.56,140.00,14.00,0.00,29.57,999.00,10.00,23.00,FEW,BKN,OVC,M,3700.00,7000.00,8500.00,M,-RA,M,M,M,M,M,M,53.60,KINS 090116Z AUTO 14014G23KT 10SM -RA FEW037 BKN070 OVC085 12/10 A2957 RMK AO2 RAE11RAB16 SLP990 $,M
ELY,2022-11-09 01:18,-114.8453,39.2950,1909.00,36.00,35.00,96.49,180.00,6.00,0.03,29.59,M,10.00,M,SCT,BKN,BKN,M,2000.00,4000.00,5000.00,M,M,M,M,M,27.00,230.00,2022-11-09 01:03,30.35,KELY 090118Z AUTO 18006KT 10SM SCT020 BKN040 BKN050 02/02 A2959 RMK AO2 PK WND 23027/0103 WSHFT 0050 RAE18 P0003 T00220017,M
RTS,2022-11-09 01:35,-119.8764,39.6682,1539.00,30.20,28.40,92.92,0.00,0.00,0.00,29.52,M,10.00,M,FEW,SCT,OVC,M,2100.00,3300.00,4700.00,M,M,M,M,M,M,M,M,30.20,KRTS 090135Z AUTO 00000KT 10SM FEW021 SCT033 OVC047 M01/M02 A2952 RMK AO2,M
MEV,2022-11-09 01:35,-119.7500,38.9963,1441.42,30.20,28.40,92.92,260.00,3.00,0.00,29.56,M,3.00,M,SCT,OVC,M,M,500.00,2300.00,M,M,-SN BR,M,M,M,M,M,M,26.63,KMEV 090135Z AUTO 26003KT 3SM -SN BR SCT005 OVC023 M01/M02 A2956 RMK AO2,M
CXP,2022-11-09 01:35,-119.7326,39.1923,1431.00,30.20,28.40,92.92,200.00,6.00,0.00,29.57,M,0.50,M,OVC,M,M,M,300.00,M,M,M,-SN BR,M,M,M,M,M,M,23.36,KCXP 090135Z AUTO 20006KT 1/2SM -SN BR OVC003 M01/M02 A2957 RMK AO2,M
BVU,2022-11-09 01:35,-114.8611,35.9475,671.00,60.80,48.20,63.15,160.00,18.00,0.00,29.68,M,10.00,M,BKN,M,M,M,9000.00,M,M,M,M,M,M,M,M,M,M,60.80,KBVU 090135Z AUTO 16018KT 10SM BKN090 16/09 A2968 RMK AO2,M
05U,2022-11-09 01:35,-116.0051,39.6042,1811.23,39.20,33.80,80.79,190.00,22.00,0.00,29.50,M,9.00,30.00,SCT,BKN,BKN,M,2200.00,3200.00,4200.00,M,M,M,M,M,M,M,M,28.22,K05U 090135Z AUTO 19022G30KT 9SM SCT022 BKN032 BKN042 04/01 A2950 RMK A01,M
TMT,2022-11-09 01:35,-117.1971,39.4643,1749.34,34.30,33.00,94.55,240.00,11.00,0.01,29.51,M,7.00,M,SCT,BKN,OVC,M,1500.00,2400.00,3500.00,M,RA,M,M,M,M,M,M,25.37,KTMT 090135Z AUTO 24011KT 7SM RA SCT015 BKN024 OVC035 01/01 A2951 RMK AO2 P0001 T00130005,M
BAM,2022-11-09 01:35,-116.8743,40.5990,1382.36,41.00,37.40,86.89,160.00,6.00,0.00,29.47,M,7.00,M,SCT,BKN,OVC,M,1900.00,2500.00,3400.00,M,M,M,M,M,M,M,M,36.37,KBAM 090135Z AUTO 16006KT 7SM SCT019 BKN025 OVC034 05/03 A2947 RMK AO1,M
INS,2022-11-09 01:44,-115.6733,36.5872,955.00,53.60,50.00,87.56,150.00,14.00,0.00,29.56,998.70,10.00,23.00,FEW,OVC,M,M,4000.00,7000.00,M,M,-RA,M,M,M,M,M,M,53.60,KINS 090144Z AUTO 15014G23KT 10SM -RA FEW040 OVC070 12/10 A2956 RMK AO2 WSHFT 39 RAE11RAB16 SLP987 $,M
RNO,2022-11-09 01:47,-119.7711,39.4839,1341.00,33.00,30.90,91.51,170.00,8.00,0.01,29.51,M,9.00,M,FEW,SCT,BKN,M,2000.00,4500.00,6500.00,M,M,M,M,M,M,M,M,25.47,KRNO 090147Z 17008KT 9SM FEW020 SCT045 BKN065 01/M01 A2951 RMK AO2 SNE47 MTNS OBSCD DSNT SW THRU NW P0001 T00061006 $,M
WMC,2022-11-09 01:52,-117.8072,40.9019,1315.00,33.80,32.00,93.03,80.00,6.00,T,29.50,M,1.75,M,BKN,OVC,M,M,400.00,1200.00,M,M,-SN BR,M,M,M,M,M,M,27.70,KWMC 090152Z AUTO 08006KT 1 3/4SM -SN BR BKN004 OVC012 01/00 A2950 RMK AO2 P0000,M
P68,2022-11-09 01:53,-116.0056,39.6014,1993.00,39.00,33.00,79.17,170.00,23.00,0.00,29.46,996.50,M,34.00,M,M,M,M,M,M,M,M,M,M,M,M,47.00,180.00,2022-11-09 00:56,27.72,KP68 090153Z AUTO 17023G34KT 04/01 A2946 RMK AO1 PK WND 18047/0056 SLP965 T00390006,M
DRA,2022-11-09 01:53,-116.0278,36.6206,1009.00,50.00,45.00,82.86,240.00,26.00,0.05,29.61,1000.40,9.00,38.00,SCT,BKN,OVC,M,2600.00,3900.00,9000.00,M,-RA,M,M,M,47.00,180.00,2022-11-09 01:05,50.00,KDRA 090153Z AUTO 24026G38KT 9SM -RA SCT026 BKN039 OVC090 10/07 A2961 RMK AO2 PK WND 18047/0105 SLP004 P0005 T01000072,M
ELY,2022-11-09 01:53,-114.8453,39.2950,1909.00,40.00,34.00,79.25,170.00,18.00,0.03,29.57,998.20,10.00,33.00,BKN,OVC,M,M,5500.00,7000.00,M,M,-RA,M,M,M,39.00,180.00,2022-11-09 01:32,30.15,KELY 090153Z AUTO 17018G33KT 10SM -RA BKN055 OVC070 04/01 A2957 RMK AO2 PK WND 18039/0132 WSHFT 0050 RAE18B36 SLP982 P0003 T00440011,M
VGT,2022-11-09 01:53,-115.1933,36.2111,667.00,60.00,51.00,72.13,140.00,17.00,T,29.61,1003.50,10.00,M,OVC,M,M,M,11000.00,M,M,M,M,M,M,M,M,M,M,60.10,KVGT 090153Z 14017KT 10SM OVC110 16/11 A2961 RMK AO2 RAE17B42E51 SLP035 P0000 T01560106,M
LOL,2022-11-09 01:53,-118.5701,40.0684,1192.43,32.00,32.00,100.00,220.00,3.00,T,29.53,1002.80,10.00,M,OVC,M,M,M,900.00,M,M,M,M,M,M,M,M,M,M,28.69,KLOL 090153Z AUTO 22003KT 10SM OVC009 00/00 A2953 RMK AO2 UPE0056 CIG 007V011 SLP028 P0000 T00000000,M
TMT,2022-11-09 01:55,-117.1971,39.4643,1749.34,33.00,32.50,97.62,220.00,11.00,0.01,29.51,M,7.00,M,SCT,BKN,OVC,M,1200.00,1900.00,2600.00,M,-RA,M,M,M,M,M,M,23.86,KTMT 090155Z AUTO 22011KT 7SM -RA SCT012 BKN019 OVC026 01/00 A2951 RMK AO2 P0001 T00060003,M
BAM,2022-11-09 01:55,-116.8743,40.5990,1382.36,37.40,37.40,100.00,220.00,6.00,0.00,29.48,M,10.00,M,SCT,BKN,OVC,M,1400.00,2300.00,5000.00,M,M,M,M,M,M,M,M,32.03,KBAM 090155Z AUTO 22006KT 10SM SCT014 BKN023 OVC050 03/03 A2948 RMK AO1,M
MEV,2022-11-09 01:55,-119.7500,38.9963,1441.42,30.20,28.40,92.92,130.00,7.00,0.00,29.55,M,9.00,M,FEW,BKN,OVC,M,600.00,2300.00,7000.00,M,UP,M,M,M,M,M,M,22.59,KMEV 090155Z AUTO 13007KT 9SM UP FEW006 BKN023 OVC070 M01/M02 A2955 RMK AO2,M
05U,2022-11-09 01:55,-116.0051,39.6042,1811.23,39.20,33.80,80.79,170.00,28.00,0.00,29.48,M,9.00,39.00,FEW,BKN,BKN,M,2400.00,3100.00,3800.00,M,M,M,M,M,M,M,M,26.97,K05U 090155Z AUTO 17028G39KT 9SM FEW024 BKN031 BKN038 04/01 A2948 RMK A01,M
RTS,2022-11-09 01:55,-119.8764,39.6682,1539.00,30.20,28.40,92.92,170.00,6.00,0.00,29.52,M,10.00,M,FEW,SCT,BKN,M,1800.00,2400.00,3800.00,M,M,M,M,M,M,M,M,23.36,KRTS 090155Z AUTO 17006KT 10SM FEW018 SCT024 BKN038 M01/M02 A2952 RMK AO2,M
INS,2022-11-09 01:55,-115.6733,36.5872,955.00,53.00,51.00,92.89,130.00,11.00,0.05,29.59,999.70,10.00,23.00,FEW,FEW,OVC,M,400.00,4300.00,6500.00,M,-RA,M,M,M,33.00,120.00,2022-11-09 01:48,52.90,KINS 090155Z AUTO 13011G23KT 10SM -RA FEW004 FEW043 OVC065 12/11 A2959 RMK AO2 PK WND 12033/48 RAE11RAB16 PRESRR SLP997 P0005 T01160105 $,M
RNO,2022-11-09 01:55,-119.7711,39.4839,1341.00,34.00,30.90,88.27,0.00,0.00,0.01,29.51,999.40,10.00,M,FEW,SCT,BKN,M,2000.00,4500.00,6500.00,M,M,M,M,M,M,M,M,34.00,KRNO 090155Z 00000KT 10SM FEW020 SCT045 BKN065 01/M01 A2951 RMK AO2 SNE47 SLP994 MTNS OBSCD DSNT SW THRU NW P0001 T00111006 $,M
CXP,2022-11-09 01:55,-119.7326,39.1923,1431.00,30.20,28.40,92.92,360.00,4.00,0.01,29.55,M,3.00,M,BKN,BKN,OVC,M,300.00,1000.00,3000.00,M,-SN BR,M,M,M,M,M,M,25.32,KCXP 090155Z AUTO 36004KT 3SM -SN BR BKN003 BKN010 OVC030 M01/M02 A2955 RMK AO2 P0001,M
BVU,2022-11-09 01:55,-114.8611,35.9475,671.00,60.80,48.20,63.15,170.00,17.00,0.00,29.68,M,10.00,24.00,FEW,SCT,M,M,8000.00,9500.00,M,M,M,M,M,M,M,M,M,60.80,KBVU 090155Z AUTO 17017G24KT 10SM FEW080 SCT095 16/09 A2968 RMK AO2,M
LSV,2022-11-09 01:55,-115.0343,36.2362,570.00,61.70,48.60,62.09,160.00,25.00,0.00,29.58,1000.70,10.00,36.00,CLR,M,M,M,M,M,M,M,M,M,M,M,37.00,160.00,2022-11-09 01:30,61.70,KLSV 090155Z AUTO 16025G36KT 10SM CLR 17/09 A2958 RMK AO2 PK WND 16037/30 PRESFR SLP007 T01650092 $,M
EKO,2022-11-09 01:56,-115.7860,40.8242,1367.00,37.00,30.90,78.37,140.00,6.00,T,29.50,999.40,10.00,M,FEW,BKN,OVC,M,1700.00,3900.00,4800.00,M,-RA,M,M,M,M,M,M,31.55,KEKO 090156Z AUTO 14006KT 10SM -RA FEW017 BKN039 OVC048 03/M01 A2950 RMK AO2 WSHFT 0047 RAB55 SLP994 P0000 T00281006,M
HND,2022-11-09 01:56,-115.1344,35.9729,742.79,59.00,49.00,69.12,160.00,22.00,0.00,29.65,1004.90,10.00,30.00,SCT,M,M,M,7000.00,M,M,M,M,M,M,M,30.00,160.00,2022-11-09 01:56,59.00,KHND 090156Z 16022G30KT 10SM SCT070 15/09 A2965 RMK AO2 PK WND 16030/0156 SLP049 T01500094,M
TPH,2022-11-09 01:56,-117.0904,38.0505,1654.00,34.00,33.00,96.46,220.00,10.00,0.09,29.56,1000.60,2.50,M,OVC,M,M,M,1800.00,M,M,M,-SN BR,M,M,M,M,M,M,25.48,KTPH 090156Z AUTO 22010KT 2 1/2SM -SN BR OVC018 01/01 A2956 RMK AO2 RAE42SNB42 SLP006 P0009 T00110006 $,M
WMC,2022-11-09 01:56,-117.8072,40.9019,1315.00,33.00,32.00,95.67,80.00,7.00,0.01,29.50,999.80,1.00,M,BKN,OVC,M,M,400.00,1200.00,M,M,-SN BR,M,M,M,M,M,M,26.12,KWMC 090156Z AUTO 08007KT 1SM -SN BR BKN004 OVC012 01/00 A2950 RMK AO2 SLP998 P0001 T00060000,M
NFL,2022-11-09 01:56,-118.7010,39.4166,1199.00,35.00,33.00,92.32,M,5.00,T,29.54,999.00,6.00,M,SCT,BKN,OVC,M,500.00,1000.00,2000.00,M,-RA BR,M,M,M,M,M,M,30.08,KNFL 090156Z VRB05KT 6SM -RA BR SCT005 BKN010 OVC020 02/01 A2954 RMK AO2 SLP990 WR// P0000 T00170006,M
LAS,2022-11-09 01:56,-115.1634,36.0719,663.00,60.00,48.00,64.26,160.00,10.00,0.00,29.63,1002.40,10.00,22.00,FEW,BKN,BKN,M,5000.00,7000.00,11000.00,M,M,M,M,M,M,M,M,60.10,KLAS 090156Z 16010G22KT 10SM FEW050 BKN070 BKN110 16/09 A2963 RMK AO2 LTG DSNT NW SLP024 T01560089,M
LOL,2022-11-09 02:03,-118.5701,40.0684,1192.43,32.00,32.00,100.00,190.00,3.00,0.00,29.54,M,10.00,M,OVC,M,M,M,1100.00,M,M,M,M,M,M,M,M,M,M,28.69,KLOL 090203Z AUTO 19003KT 10SM OVC011 00/00 A2954 RMK AO2 T00000000,M
DRA,2022-11-09 02:05,-116.0278,36.6206,1009.00,49.00,44.00,83.42,230.00,19.00,T,29.61,M,10.00,35.00,BKN,BKN,OVC,M,2700.00,4200.00,5500.00,M,M,M,M,M,35.00,240.00,2022-11-09 01:57,41.79,KDRA 090205Z AUTO 23019G35KT 10SM BKN027 BKN042 OVC055 09/07 A2961 RMK AO2 PK WND 24035/0157 RAE0157 P0000 T00940067,M
WMC,2022-11-09 02:06,-117.8072,40.9019,1315.00,33.00,33.00,100.00,270.00,4.00,0.02,29.51,M,2.00,M,BKN,OVC,M,M,400.00,1100.00,M,M,-SN BR,M,M,M,M,M,M,28.70,KWMC 090206Z AUTO 27004KT 2SM -SN BR BKN004 OVC011 01/01 A2951 RMK AO2 P0002 T00060006,M
TPH,2022-11-09 02:11,-117.0904,38.0505,1654.00,34.00,33.00,96.46,230.00,10.00,0.04,29.55,M,4.00,M,OVC,M,M,M,1600.00,M,M,M,RA BR,M,M,M,M,M,M,25.48,KTPH 090211Z AUTO 23010KT 4SM RA BR OVC016 01/01 A2955 RMK AO2 RAB07SNE07 P0004 T00110006 $,M
EKO,2022-11-09 02:12,-115.7860,40.8242,1367.00,36.00,30.90,81.53,100.00,3.00,T,29.50,M,10.00,M,SCT,BKN,OVC,M,1800.00,2500.00,3400.00,M,-RA,M,M,M,M,M,M,33.26,KEKO 090212Z AUTO 10003KT 10SM -RA SCT018 BKN025 OVC034 02/M01 A2950 RMK AO2 P0000 T00221006,M
BAM,2022-11-09 02:15,-116.8743,40.5990,1382.36,37.40,35.60,93.14,230.00,6.00,0.00,29.49,M,10.00,M,SCT,BKN,OVC,M,1600.00,2700.00,3700.00,M,M,M,M,M,M,M,M,32.03,KBAM 090215Z AUTO 23006KT 10SM SCT016 BKN027 OVC037 03/02 A2949 RMK AO1,M
RTS,2022-11-09 02:15,-119.8764,39.6682,1539.00,30.20,26.60,86.28,350.00,5.00,0.00,29.52,M,10.00,M,FEW,SCT,BKN,M,2300.00,2900.00,3600.00,M,M,M,M,M,M,M,M,24.26,KRTS 090215Z AUTO 35005KT 10SM FEW023 SCT029 BKN036 M01/M03 A2952 RMK AO2,M
05U,2022-11-09 02:15,-116.0051,39.6042,1811.23,41.00,33.80,75.33,180.00,23.00,0.00,29.49,M,10.00,36.00,FEW,SCT,BKN,M,2200.00,3600.00,12000.00,M,M,M,M,M,M,M,M,30.41,K05U 090215Z AUTO 18023G36KT 10SM FEW022 SCT036 BKN120 05/01 A2949 RMK A01,M
CXP,2022-11-09 02:15,-119.7326,39.1923,1431.00,32.00,28.40,86.39,0.00,0.00,0.00,29.55,M,10.00,M,FEW,SCT,BKN,M,400.00,1200.00,12000.00,M,M,M,M,M,M,M,M,32.00,KCXP 090215Z AUTO 00000KT 10SM FEW004 SCT012 BKN120 M00/M02 A2955 RMK AO2,M
BVU,2022-11-09 02:15,-114.8611,35.9475,671.00,60.80,48.20,63.15,170.00,19.00,0.00,29.68,M,10.00,27.00,FEW,SCT,BKN,M,4300.00,6000.00,9000.00,M,M,M,M,M,M,M,M,60.80,KBVU 090215Z AUTO 17019G27KT 10SM FEW043 SCT060 BKN090 16/09 A2968 RMK AO2,M
TMT,2022-11-09 02:15,-117.1971,39.4643,1749.34,34.00,32.20,93.03,230.00,9.00,0.00,29.51,M,10.00,M,SCT,SCT,OVC,M,2000.00,2800.00,4600.00,M,M,M,M,M,M,M,M,26.00,KTMT 090215Z AUTO 23009KT 10SM SCT020 SCT028 OVC046 01/00 A2951 RMK AO2 LTG DSNT NW T00110001,M
MEV,2022-11-09 02:15,-119.7500,38.9963,1441.42,30.20,28.40,92.92,110.00,7.00,0.00,29.55,M,10.00,M,FEW,SCT,BKN,M,3000.00,6000.00,7000.00,M,M,M,M,M,M,M,M,22.59,KMEV 090215Z AUTO 11007KT 060V130 10SM FEW030 SCT060 BKN070 M01/M02 A2955 RMK AO2,M
INS,2022-11-09 02:22,-115.6733,36.5872,955.00,53.60,50.00,87.56,160.00,14.00,0.00,29.59,999.90,10.00,19.00,FEW,BKN,OVC,M,4600.00,6000.00,9000.00,M,M,M,M,M,M,M,M,53.60,KINS 090222Z AUTO 16014G19KT 10SM FEW046 BKN060 OVC090 12/10 A2959 RMK AO2 LTG DSNT SW RAE04DZB04E06RAB06E19DZB19E21RAB21E22 SLP999 $,M
WMC,2022-11-09 02:22,-117.8072,40.9019,1315.00,33.00,32.00,95.67,0.00,0.00,0.03,29.51,M,1.75,M,BKN,OVC,M,M,400.00,1100.00,M,M,-SN BR,M,M,M,M,M,M,33.10,KWMC 090222Z AUTO 00000KT 1 3/4SM -SN BR BKN004 OVC011 01/00 A2951 RMK AO2 P0003 T00060000,M
INS,2022-11-09 02:23,-115.6733,36.5872,955.00,53.60,50.00,87.56,160.00,12.00,0.00,29.58,999.60,10.00,19.00,FEW,BKN,OVC,M,4600.00,6000.00,9000.00,M,-RA,M,M,M,M,M,M,53.60,KINS 090223Z AUTO 16012G19KT 10SM -RA FEW046 BKN060 OVC090 12/10 A2958 RMK AO2 LTG DSNT SW RAE04DZB04E06RAB06E19DZB19E21RAB21E22RAB23 SLP996 $,M
WMC,2022-11-09 02:26,-117.8072,40.9019,1315.00,33.00,32.00,95.67,0.00,0.00,0.04,29.51,M,3.00,M,OVC,M,M,M,400.00,M,M,M,-SN BR,M,M,M,M,M,M,33.10,KWMC 090226Z AUTO 00000KT 3SM -SN BR OVC004 01/00 A2951 RMK AO2 P0004 T00060000,M
INS,2022-11-09 02:30,-115.6733,36.5872,955.00,53.60,50.00,87.56,260.00,19.00,0.00,29.59,999.90,10.00,24.00,FEW,SCT,SCT,BKN,300.00,3100.00,4300.00,5500.00,-RA,M,M,M,M,M,M,53.60,KINS 090230Z AUTO 26019G24KT 10SM -RA FEW003 SCT031 SCT043 BKN055 OVC070 12/10 A2959 RMK AO2 WSHFT 29 LTG DSNT SW RAE04DZB04E06RAB06E19DZB19E21RAB21E22RAB23 SLP999 $,M
05U,2022-11-09 02:30,-116.0051,39.6042,1811.23,39.20,33.80,80.79,180.00,19.00,0.00,29.50,M,6.00,28.00,SCT,BKN,BKN,M,2300.00,3100.00,6000.00,M,HZ,M,M,M,M,M,M,28.96,K05U 090230Z AUTO 18019G28KT 6SM HZ SCT023 BKN031 BKN060 04/01 A2950 RMK A01,M
CXP,2022-11-09 02:35,-119.7326,39.1923,1431.00,32.00,26.60,80.22,210.00,9.00,0.00,29.56,M,10.00,14.00,FEW,SCT,M,M,2100.00,12000.00,M,M,M,M,M,M,M,M,M,23.51,KCXP 090235Z AUTO 21009G14KT 150V230 10SM FEW021 SCT120 M00/M03 A2956 RMK AO2,M
BVU,2022-11-09 02:35,-114.8611,35.9475,671.00,60.80,48.20,63.15,170.00,20.00,0.00,29.67,M,10.00,28.00,FEW,SCT,BKN,M,4400.00,7000.00,9500.00,M,M,M,M,M,M,M,M,60.80,KBVU 090235Z AUTO 17020G28KT 10SM FEW044 SCT070 BKN095 16/09 A2967 RMK AO2,M
RTS,2022-11-09 02:35,-119.8764,39.6682,1539.00,32.00,24.80,74.44,360.00,8.00,0.00,29.51,M,10.00,17.00,BKN,OVC,M,M,2900.00,3700.00,M,M,M,M,M,M,M,M,M,24.11,KRTS 090235Z AUTO 36008G17KT 290V070 10SM BKN029 OVC037 00/M04 A2951 RMK AO2,M
MEV,2022-11-09 02:35,-119.7500,38.9963,1441.42,28.40,26.60,92.86,150.00,6.00,0.00,29.56,M,10.00,M,FEW,SCT,BKN,M,2500.00,3200.00,4500.00,M,M,M,M,M,M,M,M,21.19,KMEV 090235Z AUTO 15006KT 10SM FEW025 SCT032 BKN045 M02/M03 A2956 RMK AO2,M
BAM,2022-11-09 02:35,-116.8743,40.5990,1382.36,37.40,35.60,93.14,240.00,9.00,0.00,29.51,M,10.00,M,BKN,OVC,M,M,1700.00,2700.00,M,M,M,M,M,M,M,M,M,30.23,KBAM 090235Z AUTO 24009KT 10SM BKN017 OVC027 03/02 A2951 RMK AO1,M
TMT,2022-11-09 02:35,-117.1971,39.4643,1749.34,34.50,32.00,90.46,220.00,8.00,0.00,29.52,M,10.00,M,SCT,BKN,OVC,M,3500.00,4300.00,5500.00,M,M,M,M,M,M,M,M,27.19,KTMT 090235Z AUTO 22008KT 10SM SCT035 BKN043 OVC055 01/00 A2952 RMK AO2 LTG DSNT SE T00140000,M
TPH,2022-11-09 02:37,-117.0904,38.0505,1654.00,37.00,35.00,92.76,190.00,20.00,0.06,29.57,M,10.00,25.00,BKN,OVC,M,M,1400.00,2400.00,M,M,-RA,M,M,M,M,M,M,25.78,KTPH 090237Z AUTO 19020G25KT 10SM -RA BKN014 OVC024 03/02 A2957 RMK AO2 RAB07SNE07 P0006 T00280017 $,M
WMC,2022-11-09 02:37,-117.8072,40.9019,1315.00,34.00,32.00,92.29,0.00,0.00,0.04,29.51,M,4.00,M,OVC,M,M,M,600.00,M,M,M,-SN BR,M,M,M,M,M,M,34.00,KWMC 090237Z AUTO 00000KT 4SM -SN BR OVC006 01/00 A2951 RMK AO2 CIG 003V010 P0004 T00110000,M
INS,2022-11-09 02:40,-115.6733,36.5872,955.00,51.80,46.40,81.74,300.00,10.00,0.00,29.60,1000.30,10.00,29.00,FEW,SCT,SCT,BKN,400.00,1800.00,2600.00,3300.00,-RA,M,M,M,M,M,M,51.80,KINS 090240Z AUTO 30010G29KT 10SM -RA FEW004 SCT018 SCT026 BKN033 BKN047 OVC060 11/08 A2960 RMK AO2 RAE04DZB04E06RAB06E19DZB19E21RAB21E22RAB23 SLP003 $,M
DRA,2022-11-09 02:44,-116.0278,36.6206,1009.00,47.00,43.00,86.21,210.00,14.00,T,29.63,M,10.00,25.00,FEW,SCT,OVC,M,1500.00,2600.00,3400.00,M,-RA,M,M,M,35.00,240.00,2022-11-09 01:57,40.37,KDRA 090244Z AUTO 21014G25KT 10SM -RA FEW015 SCT026 OVC034 08/06 A2963 RMK AO2 PK WND 24035/0157 RAE0157B38 P0000 T00830061,M
DRA,2022-11-09 02:53,-116.0278,36.6206,1009.00,47.00,43.00,86.21,210.00,15.00,T,29.64,1001.80,10.00,24.00,FEW,BKN,OVC,M,1700.00,2800.00,3600.00,M,-RA,M,M,M,35.00,240.00,2022-11-09 01:57,40.10,KDRA 090253Z AUTO 21015G24KT 10SM -RA FEW017 BKN028 OVC036 08/06 A2964 RMK AO2 PK WND 24035/0157 RAE0157B38 SLP018 P0000 60006 T00830061 53013,M
P68,2022-11-09 02:53,-116.0056,39.6014,1993.00,40.00,33.00,76.44,180.00,19.00,0.01,29.47,996.80,M,28.00,M,M,M,M,M,M,M,M,M,M,M,M,53.00,180.00,2022-11-09 01:55,29.88,KP68 090253Z AUTO 18019G28KT 04/01 A2947 RMK AO1 PK WND 18053/0155 SLP968 P0001 60003 T00440006 53003,M
LOL,2022-11-09 02:53,-118.5701,40.0684,1192.43,33.00,33.00,100.00,220.00,5.00,0.00,29.54,1002.80,10.00,M,OVC,M,M,M,1400.00,M,M,M,M,M,M,M,M,M,M,27.70,KLOL 090253Z AUTO 22005KT 10SM OVC014 01/01 A2954 RMK AO2 SLP028 60002 T00060006 53013,M
VGT,2022-11-09 02:53,-115.1933,36.2111,667.00,62.00,48.00,59.86,170.00,21.00,0.01,29.60,1003.00,7.00,33.00,FEW,BKN,BKN,M,6000.00,7500.00,9000.00,M,RA,M,M,M,36.00,160.00,2022-11-09 02:28,62.10,KVGT 090253Z 17021G33KT 7SM RA FEW060 BKN075 BKN090 17/09 A2960 RMK AO2 PK WND 16036/0228 LTG DSNT W RAB50 SLP030 P0001 60002 T01670089 56026,M
ELY,2022-11-09 02:53,-114.8453,39.2950,1909.00,39.00,36.00,88.87,180.00,16.00,0.01,29.54,997.60,5.00,30.00,FEW,OVC,M,M,2000.00,2600.00,M,M,RA BR,M,M,M,30.00,190.00,2022-11-09 02:11,29.54,KELY 090253Z AUTO 18016G30KT 5SM RA BR FEW020 OVC026 04/02 A2954 RMK AO2 PK WND 19030/0211 RAE0157B15 SLP976 P0001 60005 T00390022 58017,M
EKO,2022-11-09 02:54,-115.7860,40.8242,1367.00,37.40,33.80,86.69,M,4.08,M,29.48,M,10.00,M,FEW,SCT,OVC,M,2500.00,2998.00,3900.00,M,-RA,M,M,M,M,M,M,33.64,SPECI KEKO 090254Z VRB04KT 10SM -RA FEW025 SCT030 OVC039 03/01 A2948 RMK AO2 UPB13E15B49E54 P0001 FIBI,M
TMT,2022-11-09 02:55,-117.1971,39.4643,1749.34,34.30,32.00,91.19,230.00,9.00,0.00,29.52,M,10.00,M,SCT,BKN,OVC,M,3500.00,6000.00,7500.00,M,M,M,M,M,M,M,M,26.37,KTMT 090255Z AUTO 23009KT 10SM SCT035 BKN060 OVC075 01/00 A2952 RMK AO2 60003 T00130000,M
BVU,2022-11-09 02:55,-114.8611,35.9475,671.00,62.60,48.20,59.26,180.00,23.00,0.00,29.66,M,10.00,30.00,FEW,BKN,OVC,M,5500.00,9000.00,11000.00,M,M,M,M,M,M,M,M,62.60,KBVU 090255Z AUTO 18023G30KT 10SM FEW055 BKN090 OVC110 17/09 A2966 RMK AO2,M
CXP,2022-11-09 02:55,-119.7326,39.1923,1431.00,30.20,26.60,86.28,200.00,6.00,0.00,29.56,M,10.00,M,FEW,M,M,M,11000.00,M,M,M,M,M,M,M,M,M,M,23.36,KCXP 090255Z AUTO 20006KT 10SM FEW110 M01/M03 A2956 RMK AO2 LTG DSNT SW,M
INS,2022-11-09 02:55,-115.6733,36.5872,955.00,49.60,44.60,82.83,280.00,18.00,0.04,29.60,1000.30,5.00,30.00,SCT,BKN,BKN,OVC,400.00,1800.00,2700.00,3500.00,+RA,M,M,M,30.00,280.00,2022-11-09 02:45,42.92,KINS 090255Z AUTO 28018G30KT 5SM +RA SCT004 BKN018 BKN027 OVC035 10/07 A2960 RMK AO2 PK WND 28030/45 RAE04DZB04E06RAB06E19DZB19E21RAB21E22RAB23E45DZB45E47RAB47 BKN018 V SCT SLP003 P0004 60021 T00980070 55013 $,M
RNO,2022-11-09 02:55,-119.7711,39.4839,1341.00,34.00,28.90,81.37,340.00,5.00,0.00,29.52,999.50,10.00,M,FEW,SCT,BKN,M,2500.00,6000.00,10000.00,M,M,M,M,M,M,M,M,28.77,KRNO 090255Z 34005KT 10SM FEW025 SCT060 BKN100 01/M02 A2952 RMK AO2 SLP995 60002 T00111017 51010 $,M
RTS,2022-11-09 02:55,-119.8764,39.6682,1539.00,32.00,23.00,69.04,320.00,9.00,0.00,29.53,M,10.00,M,BKN,OVC,M,M,3200.00,3700.00,M,M,M,M,M,M,M,M,M,23.51,KRTS 090255Z AUTO 32009KT 10SM BKN032 OVC037 00/M05 A2953 RMK AO2,M
05U,2022-11-09 02:55,-116.0051,39.6042,1811.23,39.20,33.80,80.79,180.00,17.00,0.00,29.50,M,9.00,23.00,SCT,BKN,OVC,M,2200.00,2700.00,6000.00,M,M,M,M,M,M,M,M,29.51,K05U 090255Z AUTO 18017G23KT 9SM SCT022 BKN027 OVC060 04/01 A2950 RMK A01,M
MEV,2022-11-09 02:55,-119.7500,38.9963,1441.42,28.40,26.60,92.86,130.00,8.00,0.00,29.55,M,10.00,M,FEW,SCT,BKN,M,2800.00,4600.00,8000.00,M,M,M,M,M,M,M,M,19.68,KMEV 090255Z AUTO 13008KT 10SM FEW028 SCT046 BKN080 M02/M03 A2955 RMK AO2 LTG DSNT SW,M
BAM,2022-11-09 02:55,-116.8743,40.5990,1382.36,37.40,35.60,93.14,200.00,7.00,0.00,29.51,M,5.00,M,OVC,M,M,M,1900.00,M,M,M,M,M,M,M,M,M,M,31.36,KBAM 090255Z AUTO 20007KT 5SM OVC019 03/02 A2951 RMK AO1,M
LSV,2022-11-09 02:55,-115.0343,36.2362,570.00,63.00,48.00,57.99,170.00,29.00,0.00,29.57,1000.20,9.00,38.00,CLR,M,M,M,M,M,M,M,M,M,M,M,43.00,170.00,2022-11-09 02:26,63.00,KLSV 090255Z AUTO 17029G38KT 9SM CLR 17/09 A2957 RMK AO2 PK WND 17043/26 SLP002 60000 T01720089 57029 $,M
NFL,2022-11-09 02:56,-118.7010,39.4166,1199.00,35.00,33.00,92.32,0.00,0.00,T,29.56,999.70,9.00,M,SCT,BKN,OVC,M,500.00,1000.00,2000.00,M,M,M,M,M,M,M,M,35.10,KNFL 090256Z 00000KT 9SM SCT005 BKN010 OVC020 02/01 A2956 RMK AO2 RAE01 SLP997 WR// P0000 60000 T00170006 53021,M
HND,2022-11-09 02:56,-115.1344,35.9729,742.79,60.00,48.00,64.26,180.00,20.00,0.00,29.64,1004.30,10.00,25.00,BKN,BKN,M,M,7000.00,12000.00,M,M,M,M,M,M,30.00,170.00,2022-11-09 02:04,60.10,KHND 090256Z 18020G25KT 10SM BKN070 BKN120 16/09 A2964 RMK AO2 PK WND 17030/0204 SLP043 60001 T01560089 56024,M
LAS,2022-11-09 02:56,-115.1634,36.0719,663.00,62.00,47.00,57.43,170.00,12.00,0.00,29.62,1001.90,10.00,25.00,FEW,BKN,BKN,M,5000.00,7000.00,11000.00,M,M,M,M,M,28.00,160.00,2022-11-09 02:41,62.10,KLAS 090256Z 17012G25KT 10SM FEW050 BKN070 BKN110 17/08 A2962 RMK AO2 PK WND 16028/0241 LTG DSNT NW SLP019 60000 T01670083 56024,M
WMC,2022-11-09 02:56,-117.8072,40.9019,1315.00,33.00,32.00,95.67,70.00,6.00,0.05,29.49,999.70,6.00,M,BKN,OVC,M,M,700.00,2500.00,M,M,-SN BR,M,M,M,M,M,M,26.86,KWMC 090256Z AUTO 07006KT 6SM -SN BR BKN007 OVC025 01/00 A2949 RMK AO2 SLP997 P0005 60009 T00060000 53003,M
EKO,2022-11-09 02:56,-115.7860,40.8242,1367.00,38.00,34.00,85.69,190.00,8.00,0.01,29.48,999.00,10.00,M,FEW,SCT,OVC,M,2500.00,3000.00,3700.00,M,-RA,M,M,M,M,M,M,31.38,KEKO 090256Z AUTO 19008KT 10SM -RA FEW025 SCT030 OVC037 03/01 A2948 RMK AO2 UPB13E15B49E54 SLP990 P0001 60001 T00330011 56007,M
TPH,2022-11-09 02:56,-117.0904,38.0505,1654.00,37.00,35.00,92.76,190.00,17.00,0.07,29.57,1000.60,10.00,24.00,BKN,BKN,OVC,M,1400.00,2600.00,7000.00,M,-RA,M,M,M,26.00,190.00,2022-11-09 02:39,26.63,KTPH 090256Z AUTO 19017G24KT 10SM -RA BKN014 BKN026 OVC070 03/02 A2957 RMK AO2 PK WND 19026/0239 RAB07SNE07 SLP006 P0007 60022 T00280017 51013 $,M
CXP,2022-11-09 03:10,-119.7326,39.1923,1431.00,30.20,26.60,86.28,210.00,7.00,0.00,29.56,M,10.00,14.00,FEW,M,M,M,11000.00,M,M,M,M,M,M,M,M,M,M,22.59,KCXP 090310Z AUTO 21007G14KT 10SM FEW110 M01/M03 A2956 RMK AO2,M
INS,2022-11-09 03:10,-115.6733,36.5872,955.00,50.00,42.80,76.18,270.00,17.00,0.00,29.63,1001.30,10.00,M,SCT,BKN,BKN,BKN,500.00,900.00,1700.00,3600.00,-RA,M,M,M,M,M,M,50.00,KINS 090310Z AUTO 27017KT 10SM -RA SCT005 BKN009 BKN017 BKN036 OVC060 10/06 A2963 RMK AO2 BKN009 V SCT PRESRR SLP013 $,M
TPH,2022-11-09 03:11,-117.0904,38.0505,1654.00,36.00,35.00,96.49,200.00,13.00,T,29.55,M,10.00,M,SCT,BKN,OVC,M,1100.00,1900.00,10000.00,M,M,M,M,M,M,M,M,26.69,KTPH 090311Z AUTO 20013KT 10SM SCT011 BKN019 OVC100 02/02 A2955 RMK AO2 RAE00 P0000 T00220017 $,M
BVU,2022-11-09 03:15,-114.8611,35.9475,671.00,62.60,48.20,59.26,170.00,25.00,0.00,29.64,M,10.00,M,BKN,OVC,M,M,8500.00,11000.00,M,M,M,M,M,M,M,M,M,62.60,KBVU 090315Z AUTO 17025KT 10SM BKN085 OVC110 17/09 A2964 RMK AO2,M
INS,2022-11-09 03:15,-115.6733,36.5872,955.00,50.00,42.80,76.18,280.00,17.00,0.00,29.64,1001.60,10.00,M,BKN,BKN,BKN,OVC,400.00,1500.00,4500.00,6000.00,-RA,M,M,M,M,M,M,50.00,KINS 090315Z AUTO 28017KT 10SM -RA BKN004 BKN015 BKN045 OVC060 10/06 A2964 RMK AO2 SLP016 $,M
RTS,2022-11-09 03:15,-119.8764,39.6682,1539.00,30.20,23.00,74.26,290.00,5.00,0.00,29.54,M,10.00,M,SCT,OVC,M,M,3500.00,4200.00,M,M,M,M,M,M,M,M,M,24.26,KRTS 090315Z AUTO 29005KT 10SM SCT035 OVC042 M01/M05 A2954 RMK AO2,M
05U,2022-11-09 03:15,-116.0051,39.6042,1811.23,39.20,33.80,80.79,200.00,14.00,0.00,29.51,M,5.00,19.00,FEW,BKN,OVC,M,1500.00,2200.00,2700.00,M,HZ,M,M,M,M,M,M,30.44,K05U 090315Z AUTO 20014G19KT 5SM HZ FEW015 BKN022 OVC027 04/01 A2951 RMK A01,M
MEV,2022-11-09 03:15,-119.7500,38.9963,1441.42,30.20,26.60,86.28,150.00,8.00,0.00,29.56,M,10.00,17.00,FEW,SCT,BKN,M,4900.00,10000.00,12000.00,M,M,M,M,M,M,M,M,21.90,KMEV 090315Z AUTO 15008G17KT 10SM FEW049 SCT100 BKN120 M01/M03 A2956 RMK AO2,M
BAM,2022-11-09 03:15,-116.8743,40.5990,1382.36,37.40,35.60,93.14,210.00,7.00,0.00,29.50,M,10.00,M,SCT,SCT,OVC,M,1900.00,3000.00,6000.00,M,M,M,M,M,M,M,M,31.36,KBAM 090315Z AUTO 21007KT 10SM SCT019 SCT030 OVC060 03/02 A2950 RMK AO1,M
TMT,2022-11-09 03:15,-117.1971,39.4643,1749.34,34.70,32.00,89.75,240.00,8.00,0.00,29.52,M,10.00,M,SCT,BKN,OVC,M,2500.00,3400.00,7500.00,M,M,M,M,M,M,M,M,27.44,KTMT 090315Z AUTO 24008KT 10SM SCT025 BKN034 OVC075 02/00 A2952 RMK AO2 T00150000,M
EKO,2022-11-09 03:16,-115.7860,40.8242,1367.00,37.00,34.00,88.78,220.00,13.00,0.04,29.49,M,5.00,26.00,FEW,OVC,M,M,1500.00,2600.00,M,M,RA BR,M,M,M,26.00,200.00,2022-11-09 03:11,27.97,KEKO 090316Z AUTO 22013G26KT 5SM RA BR FEW015 OVC026 03/01 A2949 RMK AO2 PK WND 20026/0311 P0004 T00280011,M
INS,2022-11-09 03:20,-115.6733,36.5872,955.00,50.00,42.80,76.18,270.00,24.00,0.00,29.65,1002.00,10.00,28.00,SCT,BKN,OVC,M,400.00,4300.00,6000.00,M,-RA,M,M,M,M,M,M,50.00,KINS 090320Z AUTO 27024G28KT 10SM -RA SCT004 BKN043 OVC060 10/06 A2965 RMK AO2 SLP020 $,M
TPH,2022-11-09 03:22,-117.0904,38.0505,1654.00,36.00,34.00,92.35,200.00,11.00,T,29.54,M,10.00,M,FEW,SCT,BKN,M,1200.00,1900.00,11000.00,M,M,M,M,M,M,M,M,27.52,KTPH 090322Z AUTO 20011KT 10SM FEW012 SCT019 BKN110 02/01 A2954 RMK AO2 RAE00 P0000 T00220011 $,M
DRA,2022-11-09 03:23,-116.0278,36.6206,1009.00,45.00,42.00,89.49,210.00,17.00,T,29.66,M,10.00,32.00,SCT,SCT,OVC,M,1800.00,2900.00,4100.00,M,-RA,M,M,M,41.00,230.00,2022-11-09 03:03,37.11,KDRA 090323Z AUTO 21017G32KT 10SM -RA SCT018 SCT029 OVC041 07/06 A2966 RMK AO2 PK WND 23041/0303 P0000 T00720056,M
MEV,2022-11-09 03:35,-119.7500,38.9963,1441.42,30.20,26.60,86.28,160.00,10.00,0.00,29.56,M,10.00,M,FEW,BKN,BKN,M,4800.00,6000.00,12000.00,M,M,M,M,M,M,M,M,20.71,KMEV 090335Z AUTO 16010KT 10SM FEW048 BKN060 BKN120 M01/M03 A2956 RMK AO2,M
RTS,2022-11-09 03:35,-119.8764,39.6682,1539.00,30.20,23.00,74.26,330.00,5.00,0.00,29.55,M,10.00,M,OVC,M,M,M,3900.00,M,M,M,M,M,M,M,M,M,M,24.26,KRTS 090335Z AUTO 33005KT 10SM OVC039 M01/M05 A2955 RMK AO2,M
BVU,2022-11-09 03:35,-114.8611,35.9475,671.00,62.60,48.20,59.26,180.00,21.00,0.00,29.64,M,8.00,33.00,FEW,SCT,BKN,M,2500.00,5500.00,7500.00,M,M,M,M,M,M,M,M,62.60,KBVU 090335Z AUTO 18021G33KT 8SM FEW025 SCT055 BKN075 17/09 A2964 RMK AO2,M
CXP,2022-11-09 03:35,-119.7326,39.1923,1431.00,30.20,26.60,86.28,220.00,5.00,0.00,29.57,M,10.00,M,CLR,M,M,M,M,M,M,M,M,M,M,M,M,M,M,24.26,KCXP 090335Z AUTO 22005KT 10SM CLR M01/M03 A2957 RMK AO2,M
BAM,2022-11-09 03:35,-116.8743,40.5990,1382.36,35.60,35.60,100.00,240.00,6.00,0.00,29.51,M,10.00,M,SCT,OVC,M,M,600.00,7500.00,M,M,M,M,M,M,M,M,M,29.87,KBAM 090335Z AUTO 24006KT 10SM SCT006 OVC075 02/02 A2951 RMK AO1,M
05U,2022-11-09 03:35,-116.0051,39.6042,1811.23,37.40,33.80,86.69,220.00,13.00,0.00,29.52,M,6.00,21.00,FEW,FEW,OVC,M,300.00,1500.00,2100.00,M,BR,M,M,M,M,M,M,28.49,K05U 090335Z AUTO 22013G21KT 6SM BR FEW003 FEW015 OVC021 03/01 A2952 RMK A01,M
TMT,2022-11-09 03:35,-117.1971,39.4643,1749.34,33.00,32.00,96.44,240.00,5.00,0.00,29.54,M,10.00,M,SCT,BKN,OVC,M,1800.00,3700.00,4400.00,M,-SN,M,M,M,M,M,M,27.46,KTMT 090335Z AUTO 24005KT 10SM -SN SCT018 BKN037 OVC044 01/00 A2954 RMK AO2 T00050000,M
LSV,2022-11-09 03:44,-115.0343,36.2362,570.00,62.60,50.00,63.38,180.00,26.00,0.00,29.57,1000.20,10.00,34.00,CLR,M,M,M,M,M,M,M,-RA,M,M,M,M,M,M,62.60,KLSV 090344Z AUTO 18026G34KT 10SM -RA CLR 17/10 A2957 RMK AO2 RAB44 SLP002 $,M
ELY,2022-11-09 03:44,-114.8453,39.2950,1909.00,37.00,35.00,93.14,200.00,23.00,0.09,29.55,M,2.50,36.00,BKN,OVC,M,M,1700.00,2500.00,M,M,+RA BR,M,M,M,36.00,200.00,2022-11-09 03:42,25.57,KELY 090344Z AUTO 20023G36KT 2 1/2SM +RA BR BKN017 OVC025 03/02 A2955 RMK AO2 PK WND 20036/0342 P0009 T00280017,M
LSV,2022-11-09 03:48,-115.0343,36.2362,570.00,62.60,50.00,63.38,180.00,25.00,0.00,29.57,1000.20,10.00,34.00,FEW,M,M,M,6000.00,M,M,M,M,M,M,M,M,M,M,62.60,KLSV 090348Z AUTO 18025G34KT 10SM FEW060 17/10 A2957 RMK AO2 RAB44E48 SLP002 $,M
P68,2022-11-09 03:53,-116.0056,39.6014,1993.00,37.00,33.00,85.64,220.00,7.00,0.02,29.50,997.80,M,M,M,M,M,M,M,M,M,M,M,M,M,M,28.00,190.00,2022-11-09 03:18,30.87,KP68 090353Z AUTO 22007KT 03/01 A2950 RMK AO1 PK WND 19028/0318 SLP978 P0002 T00280006,M
VGT,2022-11-09 03:53,-115.1933,36.2111,667.00,56.00,48.00,74.72,260.00,18.00,0.05,29.64,1004.60,4.00,34.00,BKN,BKN,OVC,M,4700.00,5500.00,7000.00,M,+RA,M,M,M,45.00,190.00,2022-11-09 03:41,55.90,KVGT 090353Z AUTO 26018G34KT 4SM +RA BKN047 BKN055 OVC070 13/09 A2964 RMK AO2 PK WND 19045/0341 WSHFT 0333 RAE19B44 PRESRR SLP046 P0005 T01330089,M
LOL,2022-11-09 03:53,-118.5701,40.0684,1192.43,33.00,33.00,100.00,0.00,0.00,T,29.55,1001.90,10.00,M,FEW,OVC,M,M,400.00,1200.00,M,M,M,M,M,M,M,M,M,33.10,KLOL 090353Z AUTO 00000KT 10SM FEW004 OVC012 01/01 A2955 RMK AO2 UPB28E37 SLP019 P0000 T00060006,M
ELY,2022-11-09 03:53,-114.8453,39.2950,1909.00,36.00,34.00,92.35,170.00,12.00,0.12,29.53,997.60,5.00,28.00,OVC,M,M,M,1500.00,M,M,M,RA BR,M,M,M,36.00,200.00,2022-11-09 03:42,27.09,KELY 090353Z AUTO 17012G28KT 5SM RA BR OVC015 02/01 A2953 RMK AO2 PK WND 20036/0342 SLP976 P0012 T00220011,M
DRA,2022-11-09 03:53,-116.0278,36.6206,1009.00,46.00,39.00,76.40,200.00,19.00,0.02,29.66,1002.60,10.00,29.00,OVC,M,M,M,6000.00,M,M,M,-RA,M,M,M,41.00,230.00,2022-11-09 03:03,37.95,KDRA 090353Z AUTO 20019G29KT 10SM -RA OVC060 08/04 A2966 RMK AO2 PK WND 23041/0303 SLP026 P0002 T00780039,M
EKO,2022-11-09 03:54,-115.7860,40.8242,1367.00,33.80,32.00,93.03,230.00,6.03,M,29.48,M,8.00,M,SCT,OVC,M,M,2401.00,3700.00,M,M,-RA,M,M,M,26.00,200.00,2022-11-09 03:11,27.68,SPECI KEKO 090354Z 23006KT 8SM -RA SCT024 OVC037 01/00 A2948 RMK AO2 PK WND 20026/0311 UPB48E50 P0007 FIBI,M
RTS,2022-11-09 03:55,-119.8764,39.6682,1539.00,30.20,23.00,74.26,30.00,7.00,0.00,29.55,M,10.00,M,OVC,M,M,M,3600.00,M,M,M,M,M,M,M,M,M,M,22.59,KRTS 090355Z AUTO 03007KT 10SM OVC036 M01/M05 A2955 RMK AO2,M
BVU,2022-11-09 03:55,-114.8611,35.9475,671.00,60.80,50.00,67.54,190.00,21.00,0.00,29.65,M,7.00,36.00,FEW,SCT,BKN,M,4500.00,5500.00,6500.00,M,M,M,M,M,M,M,M,60.80,KBVU 090355Z AUTO 19021G36KT 7SM FEW045 SCT055 BKN065 16/10 A2965 RMK AO2,M
RNO,2022-11-09 03:55,-119.7711,39.4839,1341.00,33.00,30.00,88.23,0.00,0.00,0.00,29.54,1000.40,10.00,M,FEW,SCT,BKN,M,3000.00,6000.00,10000.00,M,M,M,M,M,M,M,M,33.10,KRNO 090355Z 00000KT 10SM FEW030 SCT060 BKN100 01/M01 A2954 RMK AO2 SLP004 T00061011 $,M
TMT,2022-11-09 03:55,-117.1971,39.4643,1749.34,32.50,31.50,96.05,190.00,5.00,0.00,29.54,M,10.00,M,SCT,BKN,OVC,M,3100.00,3700.00,5000.00,M,M,M,M,M,M,M,M,26.99,KTMT 090355Z AUTO 19005KT 10SM SCT031 BKN037 OVC050 00/00 A2954 RMK AO2 T00031003,M
BAM,2022-11-09 03:55,-116.8743,40.5990,1382.36,37.40,35.60,93.14,240.00,9.00,0.00,29.52,M,10.00,M,SCT,OVC,M,M,600.00,6500.00,M,M,M,M,M,M,M,M,M,30.23,KBAM 090355Z AUTO 24009KT 10SM SCT006 OVC065 03/02 A2952 RMK AO1,M
CXP,2022-11-09 03:55,-119.7326,39.1923,1431.00,28.40,24.80,86.18,70.00,4.00,0.00,29.58,M,10.00,M,FEW,SCT,SCT,M,2500.00,3000.00,3600.00,M,M,M,M,M,M,M,M,23.22,KCXP 090355Z AUTO 07004KT 10SM FEW025 SCT030 SCT036 M02/M04 A2958 RMK AO2,M
INS,2022-11-09 03:55,-115.6733,36.5872,955.00,46.40,40.80,80.71,280.00,16.00,0.03,29.66,1002.50,10.00,M,SCT,SCT,OVC,M,500.00,1100.00,7000.00,M,-RA,M,M,M,36.00,260.00,2022-11-09 03:28,39.19,KINS 090355Z AUTO 28016KT 10SM -RA SCT005 SCT011 OVC070 08/05 A2966 RMK AO2 PK WND 26036/28 SLP025 P0003 T00800049 $,M
MEV,2022-11-09 03:55,-119.7500,38.9963,1441.42,30.20,26.60,86.28,160.00,13.00,0.00,29.56,M,10.00,M,FEW,OVC,M,M,4900.00,6000.00,M,M,M,M,M,M,M,M,M,19.26,KMEV 090355Z AUTO 16013KT 10SM FEW049 OVC060 M01/M03 A2956 RMK AO2,M
05U,2022-11-09 03:55,-116.0051,39.6042,1811.23,37.40,33.80,86.69,210.00,8.00,0.02,29.53,M,9.00,14.00,SCT,BKN,OVC,M,2100.00,2900.00,5500.00,M,M,M,M,M,M,M,M,30.76,K05U 090355Z AUTO 21008G14KT 9SM SCT021 BKN029 OVC055 03/01 A2953 RMK A01 P0002,M
LSV,2022-11-09 03:55,-115.0343,36.2362,570.00,62.00,49.00,62.82,180.00,28.00,T,29.58,1000.60,10.00,35.00,SCT,M,M,M,6000.00,M,M,M,M,M,M,M,41.00,170.00,2022-11-09 03:16,61.90,KLSV 090355Z AUTO 18028G35KT 10SM SCT060 17/10 A2958 RMK AO2 PK WND 17041/16 RAB44E48 SLP006 P0000 T01660095 $,M
HND,2022-11-09 03:56,-115.1344,35.9729,742.79,61.00,47.00,59.71,190.00,30.00,0.00,29.63,1003.90,10.00,35.00,FEW,SCT,BKN,M,4900.00,6000.00,8000.00,M,M,M,M,M,39.00,200.00,2022-11-09 03:24,61.00,KHND 090356Z 19030G35KT 10SM FEW049 SCT060 BKN080 16/08 A2963 RMK AO2 PK WND 20039/0324 SLP039 T01610083,M
NFL,2022-11-09 03:56,-118.7010,39.4166,1199.00,34.00,33.00,96.46,170.00,3.00,0.00,29.56,999.60,6.00,M,SCT,BKN,OVC,M,1000.00,2000.00,3000.00,M,BR,M,M,M,M,M,M,30.97,KNFL 090356Z 17003KT 6SM BR SCT010 BKN020 OVC030 01/01 A2956 RMK AO2 SLP996 WR// T00110006,M
WMC,2022-11-09 03:56,-117.8072,40.9019,1315.00,33.00,33.00,100.00,250.00,4.00,T,29.50,999.70,10.00,M,SCT,BKN,OVC,M,600.00,1800.00,2300.00,M,M,M,M,M,M,M,M,28.70,KWMC 090356Z AUTO 25004KT 10SM SCT006 BKN018 OVC023 01/01 A2950 RMK AO2 SNE17 SLP997 P0000 T00060006,M
EKO,2022-11-09 03:56,-115.7860,40.8242,1367.00,34.00,32.00,92.29,250.00,6.00,0.07,29.47,999.30,7.00,M,SCT,OVC,M,M,2400.00,3700.00,M,M,-RA,M,M,M,26.00,200.00,2022-11-09 03:11,27.94,KEKO 090356Z AUTO 25006KT 7SM -RA SCT024 OVC037 01/00 A2947 RMK AO2 PK WND 20026/0311 UPB48E50 SLP993 P0007 T00110000,M
TPH,2022-11-09 03:56,-117.0904,38.0505,1654.00,36.00,34.00,92.35,210.00,11.00,T,29.55,1000.10,10.00,M,FEW,M,M,M,1600.00,M,M,M,M,M,M,M,M,M,M,27.52,KTPH 090356Z AUTO 21011KT 10SM FEW016 02/01 A2955 RMK AO2 RAE00 SLP001 P0000 T00220011 $,M
LAS,2022-11-09 03:56,-115.1634,36.0719,663.00,61.00,45.00,55.57,230.00,20.00,T,29.64,1002.40,6.00,37.00,FEW,BKN,OVC,M,4500.00,5500.00,7500.00,M,-RA,M,M,M,37.00,230.00,2022-11-09 03:54,61.00,KLAS 090356Z 23020G37KT 6SM -RA FEW045 BKN055 OVC075 16/07 A2964 RMK AO2 PK WND 23037/0354 RAB24 PRESRR SLP024 P0000 T01610072,M
VGT,2022-11-09 04:00,-115.1933,36.2111,667.00,55.00,47.00,74.08,250.00,12.00,0.01,29.64,M,4.00,30.00,BKN,OVC,M,M,4900.00,7000.00,M,M,RA,M,M,M,M,M,M,55.00,KVGT 090400Z AUTO 25012G30KT 4SM RA BKN049 OVC070 13/08 A2964 RMK AO2 WSHFT 0340 P0001 T01280083,M
EKO,2022-11-09 04:03,-115.7860,40.8242,1367.00,34.00,33.00,96.46,220.00,6.00,T,29.48,M,5.00,M,BKN,BKN,OVC,M,2200.00,2700.00,3700.00,M,-RA BR,M,M,M,M,M,M,27.94,KEKO 090403Z AUTO 22006KT 5SM -RA BR BKN022 BKN027 OVC037 01/01 A2948 RMK AO2 P0000 T00110006,M
LSV,2022-11-09 04:03,-115.0343,36.2362,570.00,62.60,48.20,59.26,220.00,25.00,0.00,29.61,1001.50,10.00,31.00,BKN,M,M,M,6000.00,M,M,M,M,M,M,M,M,M,M,62.60,KLSV 090403Z AUTO 22025G31KT 10SM BKN060 17/09 A2961 RMK AO2 WSHFT 0351 PRESRR SLP015 $,M
LSV,2022-11-09 04:05,-115.0343,36.2362,570.00,62.60,48.20,59.26,250.00,25.00,0.00,29.62,1001.80,10.00,31.00,FEW,BKN,M,M,3600.00,6000.00,M,M,-RA,M,M,M,M,M,M,62.60,KLSV 090405Z AUTO 25025G31KT 10SM -RA FEW036 BKN060 17/09 A2962 RMK AO2 RAB05 SLP018 $,M
INS,2022-11-09 04:05,-115.6733,36.5872,955.00,46.40,41.00,81.34,280.00,17.00,0.00,29.66,1002.50,10.00,M,SCT,BKN,M,M,500.00,1100.00,M,M,-RA,M,M,M,M,M,M,38.94,KINS 090405Z AUTO 28017KT 10SM -RA SCT005 BKN011 08/05 A2966 RMK AO2 BKN V SCT SLP025 $,M
LOL,2022-11-09 04:08,-118.5701,40.0684,1192.43,33.00,33.00,100.00,220.00,3.00,0.00,29.56,M,10.00,M,BKN,OVC,M,M,400.00,1200.00,M,M,M,M,M,M,M,M,M,29.95,KLOL 090408Z AUTO 22003KT 10SM BKN004 OVC012 01/01 A2956 RMK AO2 T00060006,M
TPH,2022-11-09 04:08,-117.0904,38.0505,1654.00,35.00,34.00,95.71,200.00,8.00,0.00,29.57,M,10.00,M,BKN,M,M,M,1800.00,M,M,M,M,M,M,M,M,M,M,27.93,KTPH 090408Z AUTO 20008KT 10SM BKN018 02/01 A2957 RMK AO2 T00170011 $,M
LAS,2022-11-09 04:08,-115.1634,36.0719,663.00,53.00,46.00,76.75,260.00,18.00,0.06,29.67,M,8.00,25.00,BKN,BKN,OVC,M,3800.00,5500.00,7500.00,M,+RA,M,M,M,M,M,M,53.10,KLAS 090408Z 26018G25KT 8SM +RA BKN038 BKN055 OVC075 12/08 A2967 RMK AO2 WSHFT 0348 PRESRR P0006 T01170078,M
CXP,2022-11-09 04:10,-119.7326,39.1923,1431.00,28.40,24.80,86.18,0.00,0.00,0.00,29.58,M,10.00,M,FEW,SCT,SCT,M,3000.00,3800.00,4500.00,M,M,M,M,M,M,M,M,28.40,KCXP 090410Z AUTO 00000KT 10SM FEW030 SCT038 SCT045 M02/M04 A2958 RMK AO2,M
BVU,2022-11-09 04:15,-114.8611,35.9475,671.00,60.80,50.00,67.54,190.00,30.00,0.00,29.64,M,9.00,40.00,FEW,BKN,OVC,M,4400.00,7000.00,7500.00,M,M,M,M,M,M,M,M,60.80,KBVU 090415Z AUTO 19030G40KT 9SM FEW044 BKN070 OVC075 16/10 A2964 RMK AO2,M
INS,2022-11-09 04:15,-115.6733,36.5872,955.00,46.40,41.00,81.34,270.00,17.00,0.00,29.69,1003.60,10.00,M,BKN,BKN,M,M,500.00,1000.00,M,M,-RA,M,M,M,M,M,M,38.94,KINS 090415Z AUTO 27017KT 10SM -RA BKN005 BKN010 08/05 A2969 RMK AO2 BKN005 V SCT PRESRR SLP036 $,M
RTS,2022-11-09 04:15,-119.8764,39.6682,1539.00,30.20,21.20,68.83,M,4.00,0.00,29.55,M,10.00,13.00,OVC,M,M,M,3500.00,M,M,M,M,M,M,M,M,M,M,25.32,KRTS 090415Z AUTO VRB04G13KT 10SM OVC035 M01/M06 A2955 RMK AO2,M
05U,2022-11-09 04:15,-116.0051,39.6042,1811.23,37.40,32.00,80.65,240.00,15.00,0.00,29.53,M,9.00,21.00,SCT,BKN,OVC,M,2500.00,3600.00,5500.00,M,M,M,M,M,M,M,M,27.78,K05U 090415Z AUTO 24015G21KT 9SM SCT025 BKN036 OVC055 03/M00 A2953 RMK A01,M
MEV,2022-11-09 04:15,-119.7500,38.9963,1441.42,30.20,24.80,80.07,150.00,11.00,0.00,29.57,M,10.00,16.00,BKN,OVC,M,M,5000.00,6000.00,M,M,M,M,M,M,M,M,M,20.19,KMEV 090415Z AUTO 15011G16KT 10SM BKN050 OVC060 M01/M04 A2957 RMK AO2,M
BAM,2022-11-09 04:15,-116.8743,40.5990,1382.36,37.40,35.60,93.14,260.00,7.00,0.00,29.51,M,10.00,M,BKN,OVC,M,M,6500.00,7500.00,M,M,M,M,M,M,M,M,M,31.36,KBAM 090415Z AUTO 26007KT 10SM BKN065 OVC075 03/02 A2951 RMK AO1,M
TMT,2022-11-09 04:15,-117.1971,39.4643,1749.34,32.40,31.30,95.66,200.00,6.00,0.00,29.54,M,7.00,M,SCT,BKN,OVC,M,1800.00,3000.00,3700.00,M,-SN,M,M,M,M,M,M,26.01,KTMT 090415Z AUTO 20006KT 7SM -SN SCT018 BKN030 OVC037 00/00 A2954 RMK AO2 T00021004,M
LSV,2022-11-09 04:17,-115.0343,36.2362,570.00,57.20,46.40,67.12,240.00,19.00,0.00,29.64,1002.70,3.00,27.00,BKN,OVC,M,M,3400.00,6000.00,M,M,+RA,M,M,M,M,M,M,57.20,KLSV 090417Z AUTO 24019G27KT 3SM +RA BKN034 OVC060 14/08 A2964 RMK AO2 RAB05 PRESRR SLP027 $,M
P68,2022-11-09 04:21,-116.0056,39.6014,1993.00,35.00,30.90,84.49,250.00,16.00,0.00,29.51,M,M,24.00,M,M,M,M,M,M,M,M,M,M,M,M,M,M,M,24.46,KP68 090421Z AUTO 25016G24KT 02/M01 A2951 RMK AO1 WSHFT 0404 T00171006,M
LSV,2022-11-09 04:22,-115.0343,36.2362,570.00,55.40,46.40,71.64,250.00,19.00,0.00,29.63,1002.40,4.00,M,FEW,BKN,OVC,M,2100.00,3400.00,5500.00,M,-RA,M,M,M,M,M,M,55.40,KLSV 090422Z AUTO 25019KT 4SM -RA FEW021 BKN034 OVC055 13/08 A2963 RMK AO2 RAB05 SLP024 $,M
TPH,2022-11-09 04:23,-117.0904,38.0505,1654.00,34.00,32.00,92.29,200.00,8.00,0.00,29.57,M,10.00,M,SCT,M,M,M,1900.00,M,M,M,M,M,M,M,M,M,M,26.58,KTPH 090423Z AUTO 20008KT 10SM SCT019 01/00 A2957 RMK AO2 T00110000 $,M
LSV,2022-11-09 04:25,-115.0343,36.2362,570.00,55.40,46.40,71.64,250.00,18.00,0.00,29.63,1002.40,5.00,M,FEW,BKN,OVC,M,2300.00,3400.00,5500.00,M,HZ,M,M,M,M,M,M,55.40,KLSV 090425Z AUTO 25018KT 5SM HZ FEW023 BKN034 OVC055 13/08 A2963 RMK AO2 RAB05E25 SLP024 $,M
INS,2022-11-09 04:25,-115.6733,36.5872,955.00,46.40,41.00,81.34,270.00,13.00,0.00,29.69,1003.60,9.00,M,BKN,BKN,M,M,400.00,1000.00,M,M,RA,M,M,M,M,M,M,40.02,KINS 090425Z AUTO 27013KT 9SM RA BKN004 BKN010 08/05 A2969 RMK AO2 SLP036 $,M
ELY,2022-11-09 04:32,-114.8453,39.2950,1909.00,38.00,34.00,85.69,160.00,21.00,0.04,29.49,M,10.00,29.00,FEW,OVC,M,M,2200.00,3500.00,M,M,-RA,M,M,M,29.00,150.00,2022-11-09 04:25,26.72,KELY 090432Z AUTO 16021G29KT 10SM -RA FEW022 OVC035 03/01 A2949 RMK AO2 PK WND 15029/0425 P0004 T00330011,M
05U,2022-11-09 04:35,-116.0051,39.6042,1811.23,33.80,32.00,93.03,150.00,4.00,0.00,29.51,M,2.50,14.00,BKN,BKN,OVC,M,300.00,2400.00,3400.00,M,BR,M,M,M,M,M,M,29.52,K05U 090435Z AUTO 15004G14KT 2 1/2SM BR BKN003 BKN024 OVC034 01/M00 A2951 RMK A01,M
TMT,2022-11-09 04:35,-117.1971,39.4643,1749.34,32.50,30.00,90.38,200.00,8.00,0.00,29.56,M,2.50,M,BKN,OVC,M,M,1800.00,2800.00,M,M,-SN,M,M,M,M,M,M,24.73,KTMT 090435Z AUTO 20008KT 2 1/2SM -SN BKN018 OVC028 00/M01 A2956 RMK AO2 T00031011,M
BAM,2022-11-09 04:35,-116.8743,40.5990,1382.36,37.40,35.60,93.14,250.00,8.00,0.00,29.52,M,10.00,M,SCT,BKN,OVC,M,6500.00,7500.00,9000.00,M,M,M,M,M,M,M,M,30.76,KBAM 090435Z AUTO 25008KT 10SM SCT065 BKN075 OVC090 03/02 A2952 RMK AO1,M
MEV,2022-11-09 04:35,-119.7500,38.9963,1441.42,30.20,24.80,80.07,160.00,10.00,0.00,29.58,M,10.00,M,BKN,OVC,M,M,4700.00,5500.00,M,M,M,M,M,M,M,M,M,20.71,KMEV 090435Z AUTO 16010KT 10SM BKN047 OVC055 M01/M04 A2958 RMK AO2,M
RTS,2022-11-09 04:35,-119.8764,39.6682,1539.00,30.20,21.20,68.83,M,4.00,0.00,29.56,M,10.00,M,BKN,OVC,M,M,3800.00,4800.00,M,M,M,M,M,M,M,M,M,25.32,KRTS 090435Z AUTO VRB04KT 10SM BKN038 OVC048 M01/M06 A2956 RMK AO2,M
CXP,2022-11-09 04:35,-119.7326,39.1923,1431.00,30.20,24.80,80.07,0.00,0.00,0.00,29.59,M,10.00,M,FEW,BKN,BKN,M,2100.00,3500.00,4200.00,M,M,M,M,M,M,M,M,30.20,KCXP 090435Z AUTO 00000KT 10SM FEW021 BKN035 BKN042 M01/M04 A2959 RMK AO2,M
BVU,2022-11-09 04:35,-114.8611,35.9475,671.00,60.80,50.00,67.54,200.00,22.00,0.00,29.66,M,7.00,33.00,FEW,SCT,BKN,M,300.00,3100.00,5000.00,M,M,M,M,M,M,M,M,60.80,KBVU 090435Z AUTO 20022G33KT 7SM FEW003 SCT031 BKN050 16/10 A2966 RMK AO2,M
LSV,2022-11-09 04:36,-115.0343,36.2362,570.00,53.60,46.40,76.50,230.00,16.00,0.00,29.64,1002.80,9.00,M,FEW,SCT,M,M,2100.00,3600.00,M,M,-RA,M,M,M,M,M,M,53.60,KLSV 090436Z AUTO 23016KT 9SM -RA FEW021 SCT036 12/08 A2964 RMK AO2 RAB05E25RAB36 SLP028 $,M
LSV,2022-11-09 04:38,-115.0343,36.2362,570.00,53.60,48.20,81.87,230.00,14.00,0.00,29.64,1002.80,10.00,M,FEW,BKN,M,M,2100.00,3600.00,M,M,-RA,M,M,M,M,M,M,53.60,KLSV 090438Z AUTO 23014KT 10SM -RA FEW021 BKN036 12/09 A2964 RMK AO2 RAB05E25RAB36 SLP028 $,M
LSV,2022-11-09 04:40,-115.0343,36.2362,570.00,53.60,48.20,81.87,230.00,14.00,0.00,29.64,1002.80,10.00,M,FEW,SCT,M,M,2100.00,3600.00,M,M,-RA,M,M,M,M,M,M,53.60,KLSV 090440Z AUTO 23014KT 10SM -RA FEW021 SCT036 12/09 A2964 RMK AO2 RAB05E25RAB36 SLP028 $,M
LOL,2022-11-09 04:41,-118.5701,40.0684,1192.43,33.00,33.00,100.00,200.00,4.00,0.00,29.57,M,10.00,M,OVC,M,M,M,600.00,M,M,M,M,M,M,M,M,M,M,28.70,KLOL 090441Z AUTO 20004KT 10SM OVC006 01/01 A2957 RMK AO2 CIG 003V008 T00060006,M
WMC,2022-11-09 04:43,-117.8072,40.9019,1315.00,34.00,32.00,92.29,260.00,5.00,0.00,29.52,M,10.00,M,BKN,OVC,M,M,1300.00,3000.00,M,M,M,M,M,M,M,M,M,28.77,KWMC 090443Z AUTO 26005KT 10SM BKN013 OVC030 01/00 A2952 RMK AO2 T00110000,M
ELY,2022-11-09 04:50,-114.8453,39.2950,1909.00,35.60,33.80,93.08,200.00,18.00,0.05,29.55,M,5.00,29.00,FEW,BKN,OVC,M,1200.00,2400.00,3600.00,M,RA BR,M,M,M,30.00,160.00,2022-11-09 04:34,24.49,KELY 090450Z AUTO 20018G29KT 5SM RA BR FEW012 BKN024 OVC036 02/01 A2955 RMK AO2 PK WND 16030/0434 PRESRR P0005,M
LSV,2022-11-09 04:50,-115.0343,36.2362,570.00,53.60,48.20,81.87,230.00,12.00,0.00,29.65,1003.20,10.00,M,FEW,FEW,SCT,M,2400.00,3700.00,7000.00,M,M,M,M,M,M,M,M,53.60,KLSV 090450Z AUTO 23012KT 10SM FEW024 FEW037 SCT070 12/09 A2965 RMK AO2 RAB05E25RAB36E50 SLP032 $,M
DRA,2022-11-09 04:53,-116.0278,36.6206,1009.00,47.00,34.00,60.61,200.00,25.00,T,29.67,1003.00,10.00,39.00,OVC,M,M,M,7000.00,M,M,M,M,M,M,M,40.00,210.00,2022-11-09 04:37,37.99,KDRA 090453Z AUTO 20025G39KT 10SM OVC070 08/01 A2967 RMK AO2 PK WND 21040/0437 RAE03 SLP030 P0000 T00830011,M
LOL,2022-11-09 04:53,-118.5701,40.0684,1192.43,33.00,33.00,100.00,200.00,6.00,0.00,29.57,1002.60,10.00,M,OVC,M,M,M,600.00,M,M,M,M,M,M,M,M,M,M,26.86,KLOL 090453Z AUTO 20006KT 10SM OVC006 01/01 A2957 RMK AO2 CIG 004V008 SLP026 T00060006,M
ELY,2022-11-09 04:53,-114.8453,39.2950,1909.00,36.00,34.00,92.35,200.00,22.00,0.05,29.58,998.80,4.00,29.00,FEW,OVC,M,M,1200.00,2200.00,M,M,RA BR,M,M,M,30.00,160.00,2022-11-09 04:34,23.93,KELY 090453Z AUTO 20022G29KT 4SM RA BR FEW012 OVC022 02/01 A2958 RMK AO2 PK WND 16030/0434 PRESRR SLP988 P0005 T00220011,M
P68,2022-11-09 04:53,-116.0056,39.6014,1993.00,35.00,30.90,84.49,M,M,0.01,29.52,998.30,M,M,M,M,M,M,M,M,M,M,M,M,M,M,M,M,M,M,KP68 090453Z AUTO 02/M01 A2952 RMK AO1 WSHFT 0404 PRESRR SLP983 P0001 T00171006,M
VGT,2022-11-09 04:53,-115.1933,36.2111,667.00,55.00,41.00,59.13,230.00,18.00,0.02,29.67,1005.80,10.00,29.00,FEW,BKN,OVC,M,4900.00,8000.00,9500.00,M,-RA,M,M,M,35.00,250.00,2022-11-09 04:39,55.00,KVGT 090453Z AUTO 23018G29KT 10SM -RA FEW049 BKN080 OVC095 13/05 A2967 RMK AO2 PK WND 25035/0439 WSHFT 0340 SLP058 P0002 T01280050,M
RTS,2022-11-09 04:55,-119.8764,39.6682,1539.00,30.20,21.20,68.83,170.00,5.00,0.00,29.57,M,10.00,11.00,SCT,SCT,M,M,3700.00,4700.00,M,M,M,M,M,M,M,M,M,24.26,KRTS 090455Z AUTO 17005G11KT 10SM SCT037 SCT047 M01/M06 A2957 RMK AO2,M
RNO,2022-11-09 04:55,-119.7711,39.4839,1341.00,32.00,26.10,78.58,190.00,4.00,0.00,29.57,1001.50,10.00,M,FEW,SCT,SCT,M,3500.00,6000.00,10000.00,M,M,M,M,M,M,M,M,27.42,KRNO 090455Z 19004KT 10SM FEW035 SCT060 SCT100 00/M03 A2957 RMK AO2 SLP015 T00001033 $,M
BVU,2022-11-09 04:55,-114.8611,35.9475,671.00,55.40,50.00,81.99,240.00,17.00,0.00,29.69,M,2.50,34.00,SCT,BKN,OVC,M,400.00,2900.00,5000.00,M,-RA,M,M,M,M,M,M,55.40,KBVU 090455Z AUTO 24017G34KT 2 1/2SM -RA SCT004 BKN029 OVC050 13/10 A2969 RMK AO2,M
CXP,2022-11-09 04:55,-119.7326,39.1923,1431.00,30.20,24.80,80.07,280.00,10.00,0.00,29.59,M,10.00,M,FEW,BKN,OVC,M,2900.00,3500.00,4700.00,M,M,M,M,M,M,M,M,20.71,KCXP 090455Z AUTO 28010KT 10SM FEW029 BKN035 OVC047 M01/M04 A2959 RMK AO2,M
INS,2022-11-09 04:55,-115.6733,36.5872,955.00,45.30,39.20,79.07,270.00,12.00,0.09,29.70,1003.90,10.00,M,BKN,M,M,M,400.00,M,M,M,-RA,M,M,M,M,M,M,38.93,KINS 090455Z AUTO 27012KT 10SM -RA BKN004 07/04 A2970 RMK AO2 BKN V OVC SLP039 P0009 T00740040 $,M
LSV,2022-11-09 04:55,-115.0343,36.2362,570.00,53.60,50.40,88.87,230.00,11.00,T,29.65,1003.20,10.00,M,FEW,BKN,M,M,3800.00,7000.00,M,M,M,M,M,M,31.00,180.00,2022-11-09 03:56,53.60,KLSV 090455Z AUTO 23011KT 10SM FEW038 BKN070 12/10 A2965 RMK AO2 PK WND 18031/0356 RAB05E25RAB36E50 SLP032 P0000 T01200102 $,M
MEV,2022-11-09 04:55,-119.7500,38.9963,1441.42,30.20,26.60,86.28,120.00,12.00,0.00,29.59,M,10.00,M,BKN,OVC,M,M,4600.00,5500.00,M,M,M,M,M,M,M,M,M,19.71,KMEV 090455Z AUTO 12012KT 10SM BKN046 OVC055 M01/M03 A2959 RMK AO2,M
TMT,2022-11-09 04:55,-117.1971,39.4643,1749.34,32.00,27.90,84.63,260.00,10.00,0.00,29.57,M,10.00,M,SCT,SCT,OVC,M,1700.00,2100.00,5000.00,M,M,M,M,M,M,M,M,22.97,KTMT 090455Z AUTO 26010KT 10SM SCT017 SCT021 OVC050 00/M02 A2957 RMK AO2 T00001023,M
05U,2022-11-09 04:55,-116.0051,39.6042,1811.23,33.80,32.00,93.03,210.00,11.00,0.01,29.55,M,10.00,16.00,FEW,SCT,BKN,M,200.00,3200.00,5500.00,M,M,M,M,M,M,M,M,24.74,K05U 090455Z AUTO 21011G16KT 10SM FEW002 SCT032 BKN055 01/00 A2955 RMK A01 P0001,M
BAM,2022-11-09 04:55,-116.8743,40.5990,1382.36,37.40,33.80,86.69,240.00,10.00,0.00,29.52,M,10.00,15.00,SCT,BKN,OVC,M,6500.00,9000.00,11000.00,M,M,M,M,M,M,M,M,29.74,KBAM 090455Z AUTO 24010G15KT 10SM SCT065 BKN090 OVC110 03/01 A2952 RMK AO1,M
WMC,2022-11-09 04:56,-117.8072,40.9019,1315.00,33.00,32.00,95.67,290.00,4.00,0.00,29.51,999.80,10.00,M,SCT,OVC,M,M,1300.00,2800.00,M,M,M,M,M,M,M,M,M,28.70,KWMC 090456Z AUTO 29004KT 10SM SCT013 OVC028 01/00 A2951 RMK AO2 SLP998 T00060000,M
HND,2022-11-09 04:56,-115.1344,35.9729,742.79,53.00,44.00,71.40,220.00,17.00,0.03,29.71,1007.00,10.00,20.00,BKN,M,M,M,6000.00,M,M,M,M,M,M,M,44.00,200.00,2022-11-09 04:07,53.10,KHND 090456Z AUTO 22017G20KT 10SM BKN060 12/07 A2971 RMK AO2 PK WND 20044/0407 RAB00E41 SLP070 P0003 T01170067,M
LAS,2022-11-09 04:56,-115.1634,36.0719,663.00,53.00,42.00,66.13,250.00,8.00,0.10,29.71,1005.00,8.00,19.00,FEW,BKN,OVC,M,3600.00,6000.00,8000.00,M,M,M,M,M,30.00,260.00,2022-11-09 04:18,53.10,KLAS 090456Z 25008G19KT 8SM FEW036 BKN060 OVC080 12/06 A2971 RMK AO2 PK WND 26030/0418 WSHFT 0348 RAE40 SLP050 P0010 T01170056,M
EKO,2022-11-09 04:56,-115.7860,40.8242,1367.00,34.00,32.00,92.29,240.00,11.00,0.08,29.48,999.00,9.00,17.00,FEW,SCT,OVC,M,1000.00,1600.00,2100.00,M,-SN,M,M,M,M,M,M,24.99,KEKO 090456Z AUTO 24011G17KT 9SM -SN FEW010 SCT016 OVC021 01/00 A2948 RMK AO2 RAE10SNB10 SLP990 P0008 T00110000,M
NFL,2022-11-09 04:56,-118.7010,39.4166,1199.00,33.00,32.00,95.67,130.00,6.00,0.00,29.58,1000.30,6.00,M,SCT,BKN,OVC,M,1000.00,2000.00,3000.00,M,BR,M,M,M,M,M,M,26.86,KNFL 090456Z 13006KT 6SM BR SCT010 BKN020 OVC030 01/00 A2958 RMK AO2 SLP003 T00060000,M
TPH,2022-11-09 04:56,-117.0904,38.0505,1654.00,34.00,32.00,92.29,210.00,7.00,0.00,29.58,1001.40,10.00,M,FEW,FEW,M,M,2100.00,4600.00,M,M,M,M,M,M,M,M,M,27.22,KTPH 090456Z AUTO 21007KT 10SM FEW021 FEW046 01/00 A2958 RMK AO2 SLP014 T00110000 $,M
ELY,2022-11-09 05:07,-114.8453,39.2950,1909.00,35.00,32.00,88.33,220.00,26.00,0.03,29.59,M,2.00,57.00,OVC,M,M,M,1300.00,M,M,M,-SN BR SQ,M,M,M,57.00,220.00,2022-11-09 05:04,21.79,KELY 090507Z AUTO 22026G57KT 2SM -SN BR SQ OVC013 02/00 A2959 RMK AO2 PK WND 22057/0504 VIS 1 1/4V4 RAE0459SNB0459 P0003 T00170000,M
EKO,2022-11-09 05:08,-115.7860,40.8242,1367.00,34.00,32.00,92.29,220.00,11.00,T,29.50,M,9.00,M,FEW,FEW,OVC,M,1000.00,1500.00,3400.00,M,-SN,M,M,M,M,M,M,24.99,KEKO 090508Z AUTO 22011KT 9SM -SN FEW010 FEW015 OVC034 01/00 A2950 RMK AO2 P0000 T00110000,M
LOL,2022-11-09 05:09,-118.5701,40.0684,1192.43,33.00,33.00,100.00,210.00,3.00,0.00,29.58,M,10.00,M,OVC,M,M,M,400.00,M,M,M,M,M,M,M,M,M,M,29.95,KLOL 090509Z AUTO 21003KT 10SM OVC004 01/01 A2958 RMK AO2 T00060006,M
CXP,2022-11-09 05:10,-119.7326,39.1923,1431.00,32.00,21.20,63.99,190.00,12.00,0.00,29.59,M,10.00,20.00,FEW,SCT,BKN,M,2400.00,3100.00,3700.00,M,M,M,M,M,M,M,M,22.00,KCXP 090510Z AUTO 19012G20KT 10SM FEW024 SCT031 BKN037 00/M06 A2959 RMK AO2,M
ELY,2022-11-09 05:14,-114.8453,39.2950,1909.00,34.00,32.00,92.29,210.00,17.00,0.04,29.59,M,1.50,48.00,OVC,M,M,M,1100.00,M,M,M,-SN BR,M,M,M,57.00,220.00,2022-11-09 05:04,22.70,KELY 090514Z AUTO 21017G48KT 1 1/2SM -SN BR OVC011 01/00 A2959 RMK AO2 PK WND 22057/0504 RAE0459SNB0459 P0004 T00110000,M
TMT,2022-11-09 05:15,-117.1971,39.4643,1749.34,32.00,28.20,85.68,210.00,9.00,0.00,29.58,M,10.00,M,BKN,OVC,M,M,5000.00,7000.00,M,M,M,M,M,M,M,M,M,23.51,KTMT 090515Z AUTO 21009KT 10SM BKN050 OVC070 00/M02 A2958 RMK AO2 T00001021,M
RTS,2022-11-09 05:15,-119.8764,39.6682,1539.00,30.20,19.40,63.75,0.00,0.00,0.00,29.58,M,10.00,M,FEW,M,M,M,3600.00,M,M,M,M,M,M,M,M,M,M,30.20,KRTS 090515Z AUTO 00000KT 10SM FEW036 M01/M07 A2958 RMK AO2,M
05U,2022-11-09 05:15,-116.0051,39.6042,1811.23,35.60,30.20,80.51,170.00,13.00,0.00,29.54,M,10.00,20.00,FEW,SCT,BKN,M,2800.00,3600.00,4400.00,M,M,M,M,M,M,M,M,26.18,K05U 090515Z AUTO 17013G20KT 10SM FEW028 SCT036 BKN044 02/M01 A2954 RMK A01,M
MEV,2022-11-09 05:15,-119.7500,38.9963,1441.42,30.20,26.60,86.28,180.00,12.00,0.00,29.60,M,10.00,M,BKN,OVC,M,M,4600.00,5000.00,M,M,M,M,M,M,M,M,M,19.71,KMEV 090515Z AUTO 18012KT 10SM BKN046 OVC050 M01/M03 A2960 RMK AO2,M
BAM,2022-11-09 05:15,-116.8743,40.5990,1382.36,37.40,33.80,86.69,240.00,10.00,0.00,29.52,M,10.00,M,SCT,SCT,M,M,9000.00,12000.00,M,M,M,M,M,M,M,M,M,29.74,KBAM 090515Z AUTO 24010KT 10SM SCT090 SCT120 03/01 A2952 RMK AO1,M
BVU,2022-11-09 05:15,-114.8611,35.9475,671.00,53.60,48.20,81.87,240.00,20.00,0.00,29.70,M,5.00,27.00,FEW,BKN,OVC,M,400.00,2800.00,5500.00,M,-RA,M,M,M,M,M,M,53.60,KBVU 090515Z AUTO 24020G27KT 5SM -RA FEW004 BKN028 OVC055 12/09 A2970 RMK AO2,M
WMC,2022-11-09 05:18,-117.8072,40.9019,1315.00,33.00,32.00,95.67,0.00,0.00,0.00,29.53,M,10.00,M,FEW,BKN,OVC,M,900.00,2500.00,3600.00,M,M,M,M,M,M,M,M,33.10,KWMC 090518Z AUTO 00000KT 10SM FEW009 BKN025 OVC036 01/00 A2953 RMK AO2 T00060000,M
ELY,2022-11-09 05:25,-114.8453,39.2950,1909.00,34.00,32.00,92.29,200.00,10.00,0.05,29.57,M,2.00,22.00,OVC,M,M,M,1600.00,M,M,M,-SN BR,M,M,M,57.00,220.00,2022-11-09 05:04,25.48,KELY 090525Z AUTO 20010G22KT 2SM -SN BR OVC016 01/00 A2957 RMK AO2 PK WND 22057/0504 RAE0459SNB0459 P0005 T00110000,M
EKO,2022-11-09 05:28,-115.7860,40.8242,1367.00,34.00,32.00,92.29,210.00,9.00,T,29.51,M,5.00,M,FEW,FEW,OVC,M,500.00,900.00,2900.00,M,-SN BR,M,M,M,M,M,M,26.00,KEKO 090528Z AUTO 21009KT 5SM -SN BR FEW005 FEW009 OVC029 01/00 A2951 RMK AO2 P0000 T00110000,M
ELY,2022-11-09 05:33,-114.8453,39.2950,1909.00,34.00,30.90,88.27,220.00,16.00,0.05,29.57,M,4.00,28.00,OVC,M,M,M,2500.00,M,M,M,-SN BR,M,M,M,57.00,220.00,2022-11-09 05:04,23.03,KELY 090533Z AUTO 22016G28KT 4SM -SN BR OVC025 01/M01 A2957 RMK AO2 PK WND 22057/0504 RAE0459SNB0459 P0005 T00111006,M
TMT,2022-11-09 05:35,-117.1971,39.4643,1749.34,31.80,27.50,83.93,220.00,5.00,0.00,29.59,M,10.00,M,BKN,OVC,M,M,5000.00,7000.00,M,M,M,M,M,M,M,M,M,26.16,KTMT 090535Z AUTO 22005KT 10SM BKN050 OVC070 00/M02 A2959 RMK AO2 T10011025,M
WMC,2022-11-09 05:35,-117.8072,40.9019,1315.00,33.00,32.00,95.67,0.00,0.00,0.00,29.53,M,10.00,M,FEW,SCT,SCT,M,900.00,2500.00,3700.00,M,M,M,M,M,M,M,M,33.10,KWMC 090535Z AUTO 00000KT 10SM FEW009 SCT025 SCT037 01/00 A2953 RMK AO2 T00060000,M
05U,2022-11-09 05:35,-116.0051,39.6042,1811.23,35.60,30.20,80.51,170.00,9.00,0.00,29.51,M,10.00,15.00,FEW,SCT,BKN,M,4000.00,5500.00,11000.00,M,M,M,M,M,M,M,M,27.99,K05U 090535Z AUTO 17009G15KT 10SM FEW040 SCT055 BKN110 02/M01 A2951 RMK A01,M
MEV,2022-11-09 05:35,-119.7500,38.9963,1441.42,30.20,26.60,86.28,150.00,13.00,0.00,29.60,M,10.00,M,OVC,M,M,M,4800.00,M,M,M,M,M,M,M,M,M,M,19.26,KMEV 090535Z AUTO 15013KT 10SM OVC048 M01/M03 A2960 RMK AO2,M
BAM,2022-11-09 05:35,-116.8743,40.5990,1382.36,35.60,33.80,93.08,250.00,8.00,0.00,29.52,M,10.00,M,BKN,M,M,M,12000.00,M,M,M,M,M,M,M,M,M,M,28.55,KBAM 090535Z AUTO 25008KT 10SM BKN120 02/01 A2952 RMK AO1,M
BVU,2022-11-09 05:35,-114.8611,35.9475,671.00,51.80,46.40,81.74,230.00,17.00,0.00,29.71,M,5.00,24.00,BKN,OVC,M,M,3000.00,3800.00,M,M,-RA,M,M,M,M,M,M,51.80,KBVU 090535Z AUTO 23017G24KT 5SM -RA BKN030 OVC038 11/08 A2971 RMK AO2,M
CXP,2022-11-09 05:35,-119.7326,39.1923,1431.00,33.80,23.00,64.23,180.00,10.00,0.00,29.61,M,8.00,19.00,FEW,BKN,OVC,M,2600.00,3400.00,4100.00,M,UP,M,M,M,M,M,M,25.23,KCXP 090535Z AUTO 18010G19KT 8SM UP FEW026 BKN034 OVC041 01/M05 A2961 RMK AO2,M
RTS,2022-11-09 05:35,-119.8764,39.6682,1539.00,30.20,21.20,68.83,100.00,5.00,0.00,29.59,M,10.00,M,FEW,BKN,BKN,M,3900.00,4900.00,6000.00,M,M,M,M,M,M,M,M,24.26,KRTS 090535Z AUTO 10005KT 10SM FEW039 BKN049 BKN060 M01/M06 A2959 RMK AO2,M
EKO,2022-11-09 05:45,-115.7860,40.8242,1367.00,33.00,32.00,95.67,180.00,8.00,T,29.52,M,9.00,M,BKN,OVC,M,M,400.00,2500.00,M,M,-SN,M,M,M,M,M,M,25.47,KEKO 090545Z AUTO 18008KT 9SM -SN BKN004 OVC025 01/00 A2952 RMK AO2 P0000 T00060000,M
INS,2022-11-09 05:50,-115.6733,36.5872,955.00,46.40,35.60,65.83,260.00,21.00,0.00,29.71,1004.10,10.00,25.00,SCT,SCT,M,M,400.00,1300.00,M,M,-RA,M,M,M,M,M,M,38.06,KINS 090550Z AUTO 26021G25KT 10SM -RA SCT004 SCT013 08/02 A2971 RMK AO2 SLP041 $,M
DRA,2022-11-09 05:53,-116.0278,36.6206,1009.00,46.00,35.00,65.52,190.00,15.00,0.00,29.70,1004.00,10.00,30.00,SCT,OVC,M,M,3800.00,8000.00,M,M,M,M,M,M,38.00,200.00,2022-11-09 05:12,38.93,KDRA 090553Z AUTO 19015G30KT 10SM SCT038 OVC080 08/02 A2970 RMK AO2 PK WND 20038/0512 SLP040 60008 T00780017 10144 20072 53018,M
P68,2022-11-09 05:53,-116.0056,39.6014,1993.00,35.00,28.00,75.06,190.00,7.00,0.00,29.51,997.30,M,M,M,M,M,M,M,M,M,M,M,M,M,M,30.00,190.00,2022-11-09 05:07,28.56,KP68 090553Z AUTO 19007KT 02/M02 A2951 RMK AO1 PK WND 19030/0507 PRESRR SLP973 60006 T00171022 10056 20006 50010,M
VGT,2022-11-09 05:53,-115.1933,36.2111,667.00,53.00,39.00,58.64,240.00,11.00,T,29.71,1007.10,10.00,20.00,OVC,M,M,M,9000.00,M,M,M,M,M,M,M,31.00,240.00,2022-11-09 04:56,53.10,KVGT 090553Z AUTO 24011G20KT 10SM OVC090 12/04 A2971 RMK AO2 PK WND 24031/0456 RAE10 SLP071 P0000 60009 T01170039 10178 20117 51037,M
LOL,2022-11-09 05:53,-118.5701,40.0684,1192.43,33.00,32.00,95.67,180.00,6.00,0.00,29.59,1002.70,10.00,M,OVC,M,M,M,400.00,M,M,M,M,M,M,M,M,M,M,26.86,KLOL 090553Z AUTO 18006KT 10SM OVC004 01/00 A2959 RMK AO2 SLP027 60002 T00060000 10011 20000 53012,M
ELY,2022-11-09 05:53,-114.8453,39.2950,1909.00,34.00,30.90,88.27,190.00,18.00,0.06,29.57,998.70,3.00,26.00,OVC,M,M,M,2700.00,M,M,M,-SN BR,M,M,M,57.00,220.00,2022-11-09 05:04,22.38,KELY 090553Z AUTO 19018G26KT 3SM -SN BR OVC027 01/M01 A2957 RMK AO2 PK WND 22057/0504 RAE0459SNB0459 SLP987 P0006 60028 T00111006 10050 20006 50011,M
LSV,2022-11-09 05:55,-115.0343,36.2362,570.00,55.20,42.00,61.25,230.00,14.00,0.00,29.68,1004.10,10.00,M,BKN,M,M,M,7000.00,M,M,M,M,M,M,M,26.00,230.00,2022-11-09 05:14,55.20,KLSV 090555Z AUTO 23014KT 10SM BKN070 13/06 A2968 RMK AO2 PK WND 23026/14 SLP041 60000 T01290056 10173 20118 53034 $,M
TMT,2022-11-09 05:55,-117.1971,39.4643,1749.34,31.10,27.70,87.05,250.00,5.00,0.00,29.59,M,10.00,M,SCT,SCT,OVC,M,5000.00,7000.00,8000.00,M,M,M,M,M,M,M,M,25.33,KTMT 090555Z AUTO 25005KT 10SM SCT050 SCT070 OVC080 00/M02 A2959 RMK AO2 60003 T10051024 10025 21005,M
BAM,2022-11-09 05:55,-116.8743,40.5990,1382.36,37.40,33.80,86.69,250.00,8.00,0.00,29.55,M,10.00,M,OVC,M,M,M,11000.00,M,M,M,M,M,M,M,M,M,M,30.76,KBAM 090555Z AUTO 25008KT 10SM OVC110 03/01 A2955 RMK AO1,M
MEV,2022-11-09 05:55,-119.7500,38.9963,1441.42,30.20,24.80,80.07,150.00,13.00,0.00,29.62,M,10.00,M,FEW,OVC,M,M,3400.00,4600.00,M,M,M,M,M,M,M,M,M,19.26,KMEV 090555Z AUTO 15013KT 10SM FEW034 OVC046 M01/M04 A2962 RMK AO2,M
05U,2022-11-09 05:55,-116.0051,39.6042,1811.23,35.60,28.40,74.80,210.00,4.00,0.00,29.54,M,10.00,M,BKN,M,M,M,11000.00,M,M,M,M,M,M,M,M,M,M,31.62,K05U 090555Z AUTO 21004KT 10SM BKN110 02/M02 A2954 RMK A01,M
RTS,2022-11-09 05:55,-119.8764,39.6682,1539.00,30.20,21.20,68.83,300.00,7.00,0.00,29.60,M,10.00,M,BKN,BKN,OVC,M,3500.00,4200.00,5000.00,M,M,M,M,M,M,M,M,22.59,KRTS 090555Z AUTO 30007KT 10SM BKN035 BKN042 OVC050 M01/M06 A2960 RMK AO2,M
CXP,2022-11-09 05:55,-119.7326,39.1923,1431.00,32.00,23.00,69.04,220.00,7.00,0.00,29.62,M,10.00,M,FEW,BKN,OVC,M,2900.00,3800.00,4500.00,M,M,M,M,M,M,M,M,24.78,KCXP 090555Z AUTO 22007KT 10SM FEW029 BKN038 OVC045 00/M05 A2962 RMK AO2,M
BVU,2022-11-09 05:55,-114.8611,35.9475,671.00,51.80,42.80,71.26,230.00,18.00,0.00,29.73,M,10.00,31.00,SCT,OVC,M,M,3200.00,3900.00,M,M,-RA,M,M,M,M,M,M,51.80,KBVU 090555Z AUTO 23018G31KT 10SM -RA SCT032 OVC039 11/06 A2973 RMK AO2,M
RNO,2022-11-09 05:55,-119.7711,39.4839,1341.00,33.00,26.10,75.18,70.00,5.00,0.00,29.59,1002.00,10.00,M,SCT,BKN,BKN,M,2300.00,5000.00,9000.00,M,M,M,M,M,M,M,M,27.70,KRNO 090555Z 07005KT 10SM SCT023 BKN050 BKN090 01/M03 A2959 RMK AO2 SLP020 4/002 60002 T00061033 10017 20000 51023 $,2
INS,2022-11-09 05:55,-115.6733,36.5872,955.00,46.40,35.20,64.79,270.00,17.00,0.06,29.71,1004.10,10.00,25.00,FEW,SCT,OVC,M,400.00,3900.00,5500.00,M,-RA,M,M,M,M,M,M,38.94,KINS 090555Z AUTO 27017G25KT 10SM -RA FEW004 SCT039 OVC055 08/02 A2971 RMK AO2 SLP041 P0006 60039 T00800018 10164 20071 51036 $,M
LAS,2022-11-09 05:56,-115.1634,36.0719,663.00,52.00,40.00,63.24,220.00,13.00,0.00,29.72,1005.50,10.00,23.00,SCT,SCT,OVC,M,4900.00,6000.00,7500.00,M,M,M,M,M,M,M,M,52.00,KLAS 090556Z 22013G23KT 10SM SCT049 SCT060 OVC075 11/04 A2972 RMK AO2 LTG DSNT E SLP055 60010 T01110044 10178 20111 51033,M
WMC,2022-11-09 05:56,-117.8072,40.9019,1315.00,33.00,32.00,95.67,0.00,0.00,0.00,29.54,1000.70,10.00,M,SCT,M,M,M,2600.00,M,M,M,M,M,M,M,M,M,M,33.10,KWMC 090556Z AUTO 00000KT 10SM SCT026 01/00 A2954 RMK AO2 SLP007 60009 T00060000 10022 20006 53012,M
TPH,2022-11-09 05:56,-117.0904,38.0505,1654.00,34.00,30.00,85.11,340.00,4.00,0.00,29.62,1002.70,10.00,M,OVC,M,M,M,3300.00,M,M,M,M,M,M,M,M,M,M,29.76,KTPH 090556Z AUTO 34004KT 10SM OVC033 01/M01 A2962 RMK AO2 SLP027 60022 T00111011 10061 20006 53016 $,M
NFL,2022-11-09 05:56,-118.7010,39.4166,1199.00,32.00,30.90,95.65,160.00,3.00,0.00,29.61,1001.10,6.00,M,SCT,SCT,SCT,M,5000.00,10000.00,20000.00,M,BR,M,M,M,M,M,M,28.69,KNFL 090556Z 16003KT 6SM BR SCT050 SCT100 SCT200 00/M01 A2961 RMK AO2 SLP011 60000 T00001006 10017 20000 53014,M
EKO,2022-11-09 05:56,-115.7860,40.8242,1367.00,34.00,32.00,92.29,200.00,8.00,T,29.55,1001.50,10.00,M,BKN,OVC,M,M,400.00,4500.00,M,M,M,M,M,M,M,M,M,26.58,KEKO 090556Z AUTO 20008KT 10SM BKN004 OVC045 01/00 A2955 RMK AO2 SNE46 PRESRR SLP015 P0000 60016 T00110000 10039 20006 53021,M
HND,2022-11-09 05:56,-115.1344,35.9729,742.79,50.00,40.00,68.10,210.00,25.00,0.00,29.72,1007.40,10.00,31.00,SCT,M,M,M,6500.00,M,M,M,M,M,M,M,36.00,210.00,2022-11-09 05:40,50.00,KHND 090556Z AUTO 21025G31KT 10SM SCT065 10/04 A2972 RMK AO2 PK WND 21036/0540 LTG DSNT E SLP074 60004 T01000044 10167 20100 53027,M
INS,2022-11-09 06:00,-115.6733,36.5872,955.00,46.40,35.60,65.83,260.00,21.00,0.00,29.71,1004.30,10.00,28.00,FEW,FEW,SCT,OVC,400.00,3900.00,4900.00,6000.00,M,M,M,M,M,M,M,38.06,KINS 090600Z AUTO 26021G28KT 10SM FEW004 FEW039 SCT049 OVC060 08/02 A2971 RMK AO2 RAE00 SLP043 $,M
EKO,2022-11-09 06:01,-115.7860,40.8242,1367.00,34.00,32.00,92.29,200.00,7.00,0.00,29.55,M,10.00,M,SCT,OVC,M,M,500.00,4900.00,M,M,M,M,M,M,M,M,M,27.22,KEKO 090601Z AUTO 20007KT 10SM SCT005 OVC049 01/00 A2955 RMK AO2 T00110000,M
ELY,2022-11-09 06:02,-114.8453,39.2950,1909.00,35.00,30.00,80.51,180.00,16.00,T,29.59,M,8.00,26.00,FEW,BKN,OVC,M,2400.00,3100.00,6500.00,M,-SN,M,M,M,M,M,M,25.11,KELY 090602Z AUTO 18016G26KT 8SM -SN FEW024 BKN031 OVC065 02/M01 A2959 RMK AO2 P0000 T00171011,M
INS,2022-11-09 06:05,-115.6733,36.5872,955.00,46.40,35.60,65.83,250.00,20.00,0.00,29.70,1003.90,10.00,28.00,FEW,FEW,OVC,M,400.00,4900.00,6000.00,M,-DZ,M,M,M,M,M,M,38.26,KINS 090605Z AUTO 25020G28KT 10SM -DZ FEW004 FEW049 OVC060 08/02 A2970 RMK AO2 RAE00DZB05 SLP039 $,M
WMC,2022-11-09 06:07,-117.8072,40.9019,1315.00,34.00,32.00,92.29,170.00,7.00,0.00,29.55,M,10.00,M,BKN,M,M,M,2600.00,M,M,M,M,M,M,M,M,M,M,27.22,KWMC 090607Z AUTO 17007KT 10SM BKN026 01/00 A2955 RMK AO2 T00110000,M
INS,2022-11-09 06:11,-115.6733,36.5872,955.00,48.20,35.60,61.52,250.00,19.00,0.00,29.71,1004.30,10.00,25.00,FEW,BKN,OVC,M,5000.00,6500.00,8000.00,M,M,M,M,M,M,M,M,40.86,KINS 090611Z AUTO 25019G25KT 10SM FEW050 BKN065 OVC080 09/02 A2971 RMK AO2 RAE00DZB05E11 SLP043 $,M
ELY,2022-11-09 06:11,-114.8453,39.2950,1909.00,34.00,30.00,85.11,190.00,19.00,T,29.59,M,2.50,28.00,BKN,OVC,M,M,2300.00,6500.00,M,M,-SN BR,M,M,M,28.00,200.00,2022-11-09 06:09,22.08,KELY 090611Z AUTO 19019G28KT 2 1/2SM -SN BR BKN023 OVC065 01/M01 A2959 RMK AO2 PK WND 20028/0609 P0000 T00111011,M
LOL,2022-11-09 06:11,-118.5701,40.0684,1192.43,32.00,32.00,100.00,190.00,5.00,0.00,29.59,M,10.00,M,SCT,M,M,M,300.00,M,M,M,M,M,M,M,M,M,M,26.40,KLOL 090611Z AUTO 19005KT 10SM SCT003 00/00 A2959 RMK AO2 T00000000,M
BAM,2022-11-09 06:15,-116.8743,40.5990,1382.36,37.40,33.80,86.69,230.00,12.00,0.00,29.56,M,10.00,M,OVC,M,M,M,11000.00,M,M,M,M,M,M,M,M,M,M,28.87,KBAM 090615Z AUTO 23012KT 10SM OVC110 03/01 A2956 RMK AO1,M
TMT,2022-11-09 06:15,-117.1971,39.4643,1749.34,30.60,27.90,89.56,260.00,5.00,0.00,29.60,M,10.00,M,OVC,M,M,M,9000.00,M,M,M,M,M,M,M,M,M,M,24.73,KTMT 090615Z AUTO 26005KT 10SM OVC090 M01/M02 A2960 RMK AO2 T10081023,M
RTS,2022-11-09 06:15,-119.8764,39.6682,1539.00,28.40,24.80,86.18,310.00,7.00,0.00,29.60,M,9.00,M,FEW,OVC,M,M,2700.00,3300.00,M,M,-SN,M,M,M,M,M,M,20.39,KRTS 090615Z AUTO 31007KT 9SM -SN FEW027 OVC033 M02/M04 A2960 RMK AO2,M
05U,2022-11-09 06:15,-116.0051,39.6042,1811.23,35.60,28.40,74.80,260.00,23.00,0.00,29.55,M,5.00,30.00,FEW,BKN,OVC,M,200.00,4400.00,11000.00,M,HZ,M,M,M,M,M,M,23.15,K05U 090615Z AUTO 26023G30KT 5SM HZ FEW002 BKN044 OVC110 02/M02 A2955 RMK A01,M
MEV,2022-11-09 06:15,-119.7500,38.9963,1441.42,30.20,26.60,86.28,180.00,14.00,0.00,29.63,M,10.00,M,FEW,SCT,BKN,M,2200.00,3600.00,4700.00,M,M,M,M,M,M,M,M,18.84,KMEV 090615Z AUTO 18014KT 10SM FEW022 SCT036 BKN047 M01/M03 A2963 RMK AO2,M
P68,2022-11-09 06:15,-116.0056,39.6014,1993.00,32.00,28.00,84.98,260.00,24.00,0.00,29.53,M,M,42.00,M,M,M,M,M,M,M,M,SQ,M,M,M,42.00,260.00,2022-11-09 06:11,18.06,KP68 090615Z AUTO 26024G42KT SQ 00/M02 A2953 RMK AO1 PK WND 26042/0611 T00001022,M
CXP,2022-11-09 06:15,-119.7326,39.1923,1431.00,32.00,24.80,74.44,250.00,4.00,0.00,29.63,M,10.00,M,BKN,OVC,M,M,3900.00,4600.00,M,M,M,M,M,M,M,M,M,27.42,KCXP 090615Z AUTO 25004KT 10SM BKN039 OVC046 M00/M04 A2963 RMK AO2,M
BVU,2022-11-09 06:15,-114.8611,35.9475,671.00,51.80,42.80,71.26,230.00,13.00,0.00,29.74,M,10.00,M,SCT,BKN,OVC,M,3400.00,4700.00,7500.00,M,M,M,M,M,M,M,M,51.80,KBVU 090615Z AUTO 23013KT 10SM SCT034 BKN047 OVC075 11/06 A2974 RMK AO2,M
ELY,2022-11-09 06:16,-114.8453,39.2950,1909.00,33.00,30.00,88.23,150.00,16.00,T,29.57,M,1.25,28.00,FEW,OVC,M,M,1500.00,2100.00,M,M,-SN BR,M,M,M,28.00,200.00,2022-11-09 06:09,21.85,KELY 090616Z AUTO 15016G28KT 1 1/4SM -SN BR FEW015 OVC021 01/M01 A2957 RMK AO2 PK WND 20028/0609 P0000 T00061011,M
ELY,2022-11-09 06:28,-114.8453,39.2950,1909.00,32.00,30.90,92.97,160.00,13.00,0.01,29.58,M,0.75,24.00,VV ,M,M,M,1400.00,M,M,M,-SN BR,M,M,M,28.00,200.00,2022-11-09 06:09,21.57,KELY 090628Z AUTO 16013G24KT 3/4SM -SN BR VV014 00/M01 A2958 RMK AO2 PK WND 20028/0609 P0001 T00001006,M
CXP,2022-11-09 06:35,-119.7326,39.1923,1431.00,30.20,24.80,80.07,160.00,5.00,0.00,29.64,M,3.00,M,SCT,BKN,OVC,M,400.00,3800.00,4500.00,M,-SN HZ,M,M,M,M,M,M,24.26,KCXP 090635Z AUTO 16005KT 3SM -SN HZ SCT004 BKN038 OVC045 M01/M04 A2964 RMK AO2 LTG DSNT W,M
BAM,2022-11-09 06:35,-116.8743,40.5990,1382.36,35.60,33.80,93.08,260.00,7.00,0.00,29.56,M,10.00,M,OVC,M,M,M,11000.00,M,M,M,M,M,M,M,M,M,M,29.17,KBAM 090635Z AUTO 26007KT 10SM OVC110 02/01 A2956 RMK AO1,M
TMT,2022-11-09 06:35,-117.1971,39.4643,1749.34,30.90,27.70,87.76,240.00,7.00,0.00,29.61,M,10.00,M,OVC,M,M,M,11000.00,M,M,M,M,M,M,M,M,M,M,23.44,KTMT 090635Z AUTO 24007KT 10SM OVC110 M01/M02 A2961 RMK AO2 LTG DSNT W T10061024,M
BVU,2022-11-09 06:35,-114.8611,35.9475,671.00,51.80,42.80,71.26,250.00,16.00,0.00,29.75,M,8.00,22.00,SCT,BKN,OVC,M,3000.00,4500.00,7000.00,M,-RA,M,M,M,M,M,M,51.80,KBVU 090635Z AUTO 25016G22KT 8SM -RA SCT030 BKN045 OVC070 11/06 A2975 RMK AO2,M
RTS,2022-11-09 06:35,-119.8764,39.6682,1539.00,28.40,24.80,86.18,290.00,8.00,0.00,29.61,M,10.00,M,BKN,OVC,M,M,3200.00,4200.00,M,M,M,M,M,M,M,M,M,19.68,KRTS 090635Z AUTO 29008KT 10SM BKN032 OVC042 M02/M04 A2961 RMK AO2,M
05U,2022-11-09 06:35,-116.0051,39.6042,1811.23,32.00,28.40,86.39,260.00,17.00,0.00,29.59,M,1.50,26.00,OVC,M,M,M,200.00,M,M,M,BR,M,M,M,M,M,M,20.08,K05U 090635Z AUTO 26017G26KT 1 1/2SM BR OVC002 M00/M02 A2959 RMK A01,M
MEV,2022-11-09 06:35,-119.7500,38.9963,1441.42,33.80,21.20,59.53,190.00,8.00,0.00,29.63,M,9.00,16.00,FEW,BKN,OVC,M,1400.00,3000.00,4600.00,M,UP,M,M,M,M,M,M,26.33,KMEV 090635Z AUTO 19008G16KT 9SM UP FEW014 BKN030 OVC046 01/M06 A2963 RMK AO2 LTG DSNT W,M
ELY,2022-11-09 06:38,-114.8453,39.2950,1909.00,32.00,30.90,95.65,160.00,18.00,0.01,29.60,M,1.50,27.00,BKN,BKN,OVC,M,1400.00,1900.00,2600.00,M,-SN BR,M,M,M,28.00,200.00,2022-11-09 06:09,19.75,KELY 090638Z AUTO 16018G27KT 1 1/2SM -SN BR BKN014 BKN019 OVC026 00/M01 A2960 RMK AO2 PK WND 20028/0609 P0001 T00001006,M
ELY,2022-11-09 06:42,-114.8453,39.2950,1909.00,33.00,30.90,91.51,160.00,17.00,0.01,29.60,M,2.00,35.00,OVC,M,M,M,1600.00,M,M,M,-SN BR,M,M,M,35.00,150.00,2022-11-09 06:40,21.52,KELY 090642Z AUTO 16017G35KT 2SM -SN BR OVC016 01/M01 A2960 RMK AO2 PK WND 15035/0640 P0001 T00061006,M
ELY,2022-11-09 06:48,-114.8453,39.2950,1909.00,32.00,30.20,92.97,170.00,18.00,0.01,29.60,M,1.25,35.00,BKN,OVC,M,M,1400.00,1900.00,M,M,-SN BR,M,M,M,35.00,150.00,2022-11-09 06:40,19.75,KELY 090648Z AUTO 17018G35KT 1 1/4SM -SN BR BKN014 OVC019 00/M01 A2960 RMK AO2 PK WND 15035/0640 P0001,M
INS,2022-11-09 06:51,-115.6733,36.5872,955.00,48.20,30.20,49.53,230.00,18.00,0.00,29.73,1004.90,10.00,M,SCT,OVC,M,M,6000.00,7500.00,M,M,-RA,M,M,M,M,M,M,41.07,KINS 090651Z AUTO 23018KT 10SM -RA SCT060 OVC075 09/M01 A2973 RMK AO2 RAE00DZB05E11RAB51 SLP049 $,M
LOL,2022-11-09 06:53,-118.5701,40.0684,1192.43,30.90,30.00,96.41,180.00,7.00,0.00,29.60,1003.50,8.00,M,FEW,M,M,M,200.00,M,M,M,M,M,M,M,M,M,M,23.44,KLOL 090653Z AUTO 18007KT 8SM FEW002 M01/M01 A2960 RMK AO2 SLP035 T10061011,M
VGT,2022-11-09 06:53,-115.1933,36.2111,667.00,54.00,37.00,52.45,230.00,14.00,0.00,29.72,1007.20,10.00,24.00,OVC,M,M,M,9000.00,M,M,M,M,M,M,M,29.00,260.00,2022-11-09 06:15,54.00,KVGT 090653Z AUTO 23014G24KT 10SM OVC090 12/03 A2972 RMK AO2 PK WND 26029/0615 SLP072 T01220028,M
ELY,2022-11-09 06:53,-114.8453,39.2950,1909.00,32.00,30.90,95.65,160.00,20.00,0.02,29.58,999.90,1.00,30.00,BKN,OVC,M,M,1400.00,1900.00,M,M,-SN BR,M,M,M,35.00,150.00,2022-11-09 06:40,19.14,KELY 090653Z AUTO 16020G30KT 1SM -SN BR BKN014 OVC019 00/M01 A2958 RMK AO2 PK WND 15035/0640 SLP999 P0002 T00001006 400780000,M
P68,2022-11-09 06:53,-116.0056,39.6014,1993.00,30.00,26.10,85.21,260.00,18.00,0.02,29.59,1000.80,M,30.00,M,M,M,M,M,M,M,M,M,M,M,M,45.00,240.00,2022-11-09 06:20,17.12,KP68 090653Z AUTO 26018G30KT M01/M03 A2959 RMK AO1 PK WND 24045/0620 SLP008 P0002 T10111033,M
DRA,2022-11-09 06:53,-116.0278,36.6206,1009.00,46.00,34.00,62.71,190.00,16.00,0.00,29.70,1004.10,10.00,29.00,OVC,M,M,M,10000.00,M,M,M,M,M,M,M,33.00,210.00,2022-11-09 06:18,38.67,KDRA 090653Z AUTO 19016G29KT 10SM OVC100 08/01 A2970 RMK AO2 PK WND 21033/0618 SLP041 T00780011,M
TMT,2022-11-09 06:55,-117.1971,39.4643,1749.34,30.70,27.50,87.75,220.00,8.00,0.00,29.61,M,10.00,M,SCT,SCT,BKN,M,6500.00,9000.00,12000.00,M,M,M,M,M,M,M,M,22.51,KTMT 090655Z AUTO 22008KT 10SM SCT065 SCT090 BKN120 M01/M02 A2961 RMK AO2 T10071025,M
BVU,2022-11-09 06:55,-114.8611,35.9475,671.00,51.80,41.00,66.48,230.00,21.00,0.00,29.74,M,10.00,32.00,FEW,SCT,BKN,M,2800.00,4000.00,5500.00,M,-RA,M,M,M,M,M,M,51.80,KBVU 090655Z AUTO 23021G32KT 10SM -RA FEW028 SCT040 BKN055 11/05 A2974 RMK AO2,M
CXP,2022-11-09 06:55,-119.7326,39.1923,1431.00,30.20,24.80,80.07,0.00,0.00,0.00,29.65,M,9.00,M,FEW,SCT,BKN,M,400.00,4000.00,4700.00,M,UP,M,M,M,M,M,M,30.20,KCXP 090655Z AUTO 00000KT 9SM UP FEW004 SCT040 BKN047 M01/M04 A2965 RMK AO2,M
RNO,2022-11-09 06:55,-119.7711,39.4839,1341.00,32.00,26.10,78.58,0.00,0.00,0.00,29.61,1003.20,10.00,M,SCT,BKN,BKN,M,3500.00,7000.00,14000.00,M,M,M,M,M,M,M,M,32.00,KRNO 090655Z 00000KT 10SM SCT035 BKN070 BKN140 00/M03 A2961 RMK AO2 SLP032 T00001033 $,M
RTS,2022-11-09 06:55,-119.8764,39.6682,1539.00,30.20,23.00,74.26,280.00,7.00,0.00,29.61,M,10.00,M,BKN,BKN,OVC,M,3500.00,4100.00,5500.00,M,M,M,M,M,M,M,M,22.59,KRTS 090655Z AUTO 28007KT 10SM BKN035 BKN041 OVC055 M01/M05 A2961 RMK AO2,M
LSV,2022-11-09 06:55,-115.0343,36.2362,570.00,54.50,40.80,59.75,230.00,13.00,0.00,29.71,1005.00,10.00,M,FEW,FEW,M,M,7500.00,15000.00,M,M,M,M,M,M,M,M,M,54.50,KLSV 090655Z AUTO 23013KT 10SM FEW075 FEW150 13/05 A2971 RMK AO2 SLP050 T01250049 $,M
05U,2022-11-09 06:55,-116.0051,39.6042,1811.23,30.20,26.60,86.28,260.00,16.00,0.00,29.60,M,2.50,25.00,BKN,BKN,OVC,M,200.00,700.00,2300.00,M,BR,M,M,M,M,M,M,18.07,K05U 090655Z AUTO 26016G25KT 2 1/2SM BR BKN002 BKN007 OVC023 M01/M03 A2960 RMK A01,M
MEV,2022-11-09 06:55,-119.7500,38.9963,1441.42,30.20,24.80,80.07,190.00,11.00,0.00,29.63,M,7.00,M,FEW,SCT,BKN,M,900.00,1800.00,2600.00,M,-SN,M,M,M,M,M,M,20.19,KMEV 090655Z AUTO 19011KT 7SM -SN FEW009 SCT018 BKN026 M01/M04 A2963 RMK AO2,M
BAM,2022-11-09 06:55,-116.8743,40.5990,1382.36,35.60,33.80,93.08,250.00,12.00,0.00,29.56,M,10.00,15.00,SCT,BKN,OVC,M,6000.00,8000.00,11000.00,M,M,M,M,M,M,M,M,26.58,KBAM 090655Z AUTO 25012G15KT 10SM SCT060 BKN080 OVC110 02/01 A2956 RMK AO1,M
INS,2022-11-09 06:55,-115.6733,36.5872,955.00,47.80,31.10,52.14,230.00,16.00,T,29.73,1004.90,10.00,M,SCT,OVC,M,M,6500.00,8000.00,M,M,-RA,M,M,M,29.00,250.00,2022-11-09 06:30,41.01,KINS 090655Z AUTO 23016KT 10SM -RA SCT065 OVC080 09/M00 A2973 RMK AO2 PK WND 25029/30 RAE00DZB05E11RAB51 SLP049 P0000 T00881005 $,M
NFL,2022-11-09 06:56,-118.7010,39.4166,1199.00,32.00,30.00,92.22,M,5.00,0.00,29.63,1001.70,6.00,M,FEW,SCT,M,M,10000.00,20000.00,M,M,BR,M,M,M,M,M,M,26.40,KNFL 090656Z VRB05KT 6SM BR FEW100 SCT200 00/M01 A2963 RMK AO2 SLP017 T00001011,M
HND,2022-11-09 06:56,-115.1344,35.9729,742.79,49.00,39.00,68.51,220.00,20.00,0.01,29.75,1008.30,10.00,35.00,FEW,BKN,BKN,M,3500.00,4800.00,6500.00,M,-RA,M,M,M,35.00,220.00,2022-11-09 06:52,41.59,KHND 090656Z AUTO 22020G35KT 10SM -RA FEW035 BKN048 BKN065 09/04 A2975 RMK AO2 PK WND 22035/0652 RAB08 SLP083 P0001 T00940039 401830094,M
TPH,2022-11-09 06:56,-117.0904,38.0505,1654.00,34.00,32.00,92.29,190.00,3.00,0.00,29.64,1003.30,10.00,M,BKN,BKN,OVC,M,2100.00,2600.00,4300.00,M,M,M,M,M,M,M,M,30.97,KTPH 090656Z AUTO 19003KT 10SM BKN021 BKN026 OVC043 01/00 A2964 RMK AO2 SLP033 T00110000 $,M
EKO,2022-11-09 06:56,-115.7860,40.8242,1367.00,33.00,32.00,95.67,200.00,3.00,0.01,29.51,1000.10,8.00,M,FEW,SCT,OVC,M,2100.00,2600.00,4200.00,M,-SN,M,M,M,M,M,M,29.95,KEKO 090656Z AUTO 20003KT 8SM -SN FEW021 SCT026 OVC042 01/00 A2951 RMK AO2 SNB32 SLP001 P0001 T00060000,M
LAS,2022-11-09 06:56,-115.1634,36.0719,663.00,52.00,39.00,61.06,220.00,15.00,T,29.75,1006.30,10.00,24.00,FEW,BKN,OVC,M,5000.00,8000.00,9500.00,M,M,M,M,M,30.00,220.00,2022-11-09 06:32,52.00,KLAS 090656Z 22015G24KT 10SM FEW050 BKN080 OVC095 11/04 A2975 RMK AO2 PK WND 22030/0632 RAB34E43 SLP063 TOPS OF MTNS OBSCURED DSNT W P0000 T01110039,M
WMC,2022-11-09 06:56,-117.8072,40.9019,1315.00,35.00,32.00,88.33,M,3.00,0.00,29.57,1001.30,10.00,M,BKN,OVC,M,M,1700.00,2600.00,M,M,M,M,M,M,M,M,M,32.23,KWMC 090656Z AUTO VRB03KT 10SM BKN017 OVC026 02/00 A2957 RMK AO2 SLP013 T00170000,M
LOL,2022-11-09 06:58,-118.5701,40.0684,1192.43,30.90,30.00,96.41,190.00,8.00,0.00,29.60,M,1.75,M,SCT,M,M,M,200.00,M,M,M,BR,M,M,M,M,M,M,22.76,KLOL 090658Z AUTO 19008KT 1 3/4SM BR SCT002 M01/M01 A2960 RMK AO2 T10061011,M
LOL,2022-11-09 07:01,-118.5701,40.0684,1192.43,30.00,30.00,100.00,180.00,7.00,0.00,29.60,M,0.75,M,VV ,M,M,M,200.00,M,M,M,BR,M,M,M,M,M,M,22.34,KLOL 090701Z AUTO 18007KT 3/4SM BR VV002 M01/M01 A2960 RMK AO2 T10111011,M
ELY,2022-11-09 07:01,-114.8453,39.2950,1909.00,32.00,30.90,95.65,180.00,19.00,T,29.59,M,0.75,30.00,BKN,OVC,M,M,1200.00,1900.00,M,M,-SN BR,M,M,M,27.00,180.00,2022-11-09 07:00,19.44,KELY 090701Z AUTO 18019G30KT 3/4SM -SN BR BKN012 OVC019 00/M01 A2959 RMK AO2 PK WND 18027/0700 P0000 T00001006,M
INS,2022-11-09 07:02,-115.6733,36.5872,955.00,48.20,30.20,49.53,220.00,16.00,0.00,29.74,1005.30,10.00,22.00,OVC,M,M,M,7500.00,M,M,M,M,M,M,M,M,M,M,41.53,KINS 090702Z AUTO 22016G22KT 10SM OVC075 09/M01 A2974 RMK AO2 RAE02 SLP053 $,M
INS,2022-11-09 07:05,-115.6733,36.5872,955.00,48.20,30.20,49.53,220.00,14.00,0.00,29.74,1005.30,10.00,22.00,OVC,M,M,M,7500.00,M,M,M,-RA,M,M,M,M,M,M,42.04,KINS 090705Z AUTO 22014G22KT 10SM -RA OVC075 09/M01 A2974 RMK AO2 RAE02RAB05 SLP053 $,M
CXP,2022-11-09 07:10,-119.7326,39.1923,1431.00,28.40,24.80,86.18,0.00,0.00,0.00,29.65,M,10.00,M,SCT,BKN,OVC,M,3900.00,4800.00,5500.00,M,M,M,M,M,M,M,M,28.40,KCXP 090710Z AUTO 00000KT 10SM SCT039 BKN048 OVC055 M02/M04 A2965 RMK AO2,M
ELY,2022-11-09 07:13,-114.8453,39.2950,1909.00,30.90,30.90,100.00,160.00,16.00,0.01,29.58,M,1.50,23.00,OVC,M,M,M,1400.00,M,M,M,-SN BR,M,M,M,27.00,180.00,2022-11-09 07:00,18.98,KELY 090713Z AUTO 16016G23KT 1 1/2SM -SN BR OVC014 M01/M01 A2958 RMK AO2 PK WND 18027/0700 P0001 T10061006,M
RTS,2022-11-09 07:15,-119.8764,39.6682,1539.00,28.40,23.00,79.92,280.00,6.00,0.00,29.62,M,10.00,M,BKN,BKN,OVC,M,3600.00,4900.00,7500.00,M,M,M,M,M,M,M,M,21.19,KRTS 090715Z AUTO 28006KT 10SM BKN036 BKN049 OVC075 M02/M05 A2962 RMK AO2,M
BVU,2022-11-09 07:15,-114.8611,35.9475,671.00,50.00,39.20,66.27,230.00,18.00,0.00,29.74,M,10.00,25.00,FEW,SCT,BKN,M,4200.00,4800.00,5500.00,M,M,M,M,M,M,M,M,50.00,KBVU 090715Z AUTO 23018G25KT 10SM FEW042 SCT048 BKN055 10/04 A2974 RMK AO2,M
MEV,2022-11-09 07:15,-119.7500,38.9963,1441.42,28.40,21.20,74.08,0.00,0.00,0.00,29.65,M,10.00,10.00,FEW,SCT,BKN,M,1500.00,3300.00,4000.00,M,M,M,M,M,M,M,M,28.40,KMEV 090715Z AUTO 00000G10KT 10SM FEW015 SCT033 BKN040 M02/M06 A2965 RMK AO2,M
05U,2022-11-09 07:15,-116.0051,39.6042,1811.23,30.20,26.60,86.28,260.00,11.00,0.00,29.60,M,5.00,17.00,FEW,BKN,OVC,M,300.00,2400.00,2900.00,M,BR,M,M,M,M,M,M,20.19,K05U 090715Z AUTO 26011G17KT 5SM BR FEW003 BKN024 OVC029 M01/M03 A2960 RMK A01,M
TMT,2022-11-09 07:15,-117.1971,39.4643,1749.34,30.00,26.60,86.99,240.00,7.00,0.00,29.62,M,10.00,M,SCT,SCT,M,M,7000.00,12000.00,M,M,M,M,M,M,M,M,M,22.34,KTMT 090715Z AUTO 24007KT 10SM SCT070 SCT120 M01/M03 A2962 RMK AO2 T10111030,M
BAM,2022-11-09 07:15,-116.8743,40.5990,1382.36,35.60,33.80,93.08,240.00,10.00,0.00,29.57,M,10.00,M,SCT,OVC,M,M,6000.00,7000.00,M,M,M,M,M,M,M,M,M,27.48,KBAM 090715Z AUTO 24010KT 10SM SCT060 OVC070 02/01 A2957 RMK AO1,M
INS,2022-11-09 07:16,-115.6733,36.5872,955.00,48.20,30.20,49.53,220.00,13.00,0.00,29.74,1005.30,10.00,M,FEW,OVC,M,M,5500.00,8000.00,M,M,M,M,M,M,M,M,M,42.32,KINS 090716Z AUTO 22013KT 10SM FEW055 OVC080 09/M01 A2974 RMK AO2 RAE02RAB05E16 SLP053 $,M
ELY,2022-11-09 07:16,-114.8453,39.2950,1909.00,32.00,30.00,92.22,170.00,13.00,0.01,29.59,M,2.00,23.00,FEW,BKN,OVC,M,1300.00,1900.00,2800.00,M,-SN BR,M,M,M,27.00,180.00,2022-11-09 07:00,21.57,KELY 090716Z AUTO 17013G23KT 2SM -SN BR FEW013 BKN019 OVC028 00/M01 A2959 RMK AO2 PK WND 18027/0700 P0001 T00001011,M
LOL,2022-11-09 07:19,-118.5701,40.0684,1192.43,30.00,30.00,100.00,180.00,7.00,0.00,29.62,M,0.50,M,VV ,M,M,M,100.00,M,M,M,FZFG,0.01,M,M,M,M,M,22.34,KLOL 090719Z AUTO 18007KT 1/2SM FZFG VV001 M01/M01 A2962 RMK AO2 I1001 T10111011,M
ELY,2022-11-09 07:23,-114.8453,39.2950,1909.00,32.00,30.00,92.22,180.00,11.00,0.01,29.58,M,7.00,21.00,FEW,BKN,OVC,M,1300.00,2200.00,4000.00,M,-SN,M,M,M,27.00,180.00,2022-11-09 07:00,22.47,KELY 090723Z AUTO 18011G21KT 7SM -SN FEW013 BKN022 OVC040 00/M01 A2958 RMK AO2 PK WND 18027/0700 P0001 T00001011,M
EKO,2022-11-09 07:23,-115.7860,40.8242,1367.00,34.00,30.90,88.27,230.00,8.00,T,29.53,M,3.00,M,OVC,M,M,M,2200.00,M,M,M,-SN BR,M,M,M,M,M,M,26.58,KEKO 090723Z AUTO 23008KT 3SM -SN BR OVC022 01/M01 A2953 RMK AO2 P0000 T00111006,M
LOL,2022-11-09 07:26,-118.5701,40.0684,1192.43,30.00,30.00,100.00,170.00,5.00,0.00,29.63,M,0.50,M,VV ,M,M,M,200.00,M,M,M,FZFG,0.01,M,M,M,M,M,24.02,KLOL 090726Z AUTO 17005KT 1/2SM FZFG VV002 M01/M01 A2963 RMK AO2 I1001 T10111011,M
CXP,2022-11-09 07:30,-119.7326,39.1923,1431.00,30.20,24.80,80.07,160.00,5.00,0.00,29.65,M,4.00,11.00,FEW,BKN,OVC,M,400.00,3700.00,9500.00,M,-SN HZ,M,M,M,M,M,M,24.26,KCXP 090730Z AUTO 16005G11KT 4SM -SN HZ FEW004 BKN037 OVC095 M01/M04 A2965 RMK AO2,M
EKO,2022-11-09 07:32,-115.7860,40.8242,1367.00,33.00,30.90,91.51,230.00,8.00,T,29.53,M,2.00,M,OVC,M,M,M,2000.00,M,M,M,-SN BR,M,M,M,M,M,M,25.47,KEKO 090732Z AUTO 23008KT 2SM -SN BR OVC020 01/M01 A2953 RMK AO2 P0000 T00061006,M
TMT,2022-11-09 07:35,-117.1971,39.4643,1749.34,30.00,26.60,86.99,210.00,6.00,0.00,29.62,M,10.00,M,BKN,BKN,M,M,7000.00,8500.00,M,M,M,M,M,M,M,M,M,23.12,KTMT 090735Z AUTO 21006KT 10SM BKN070 BKN085 M01/M03 A2962 RMK AO2 T10111030,M
BVU,2022-11-09 07:35,-114.8611,35.9475,671.00,50.00,41.00,71.07,250.00,20.00,0.00,29.73,M,10.00,26.00,FEW,SCT,BKN,M,4200.00,4900.00,5500.00,M,M,M,M,M,M,M,M,50.00,KBVU 090735Z AUTO 25020G26KT 10SM FEW042 SCT049 BKN055 10/05 A2973 RMK AO2,M
RTS,2022-11-09 07:35,-119.8764,39.6682,1539.00,30.20,24.80,80.07,50.00,6.00,0.00,29.63,M,10.00,M,BKN,BKN,OVC,M,3700.00,4400.00,5000.00,M,M,M,M,M,M,M,M,23.36,KRTS 090735Z AUTO 05006KT 10SM BKN037 BKN044 OVC050 M01/M04 A2963 RMK AO2,M
05U,2022-11-09 07:35,-116.0051,39.6042,1811.23,30.20,26.60,86.28,0.00,0.00,0.00,29.63,M,10.00,10.00,BKN,BKN,OVC,M,2700.00,5000.00,8000.00,M,M,M,M,M,M,M,M,30.20,K05U 090735Z AUTO 00000G10KT 10SM BKN027 BKN050 OVC080 M01/M03 A2963 RMK A01,M
MEV,2022-11-09 07:35,-119.7500,38.9963,1441.42,28.40,21.20,74.08,0.00,0.00,0.00,29.66,M,10.00,M,FEW,SCT,OVC,M,1400.00,4300.00,5000.00,M,M,M,M,M,M,M,M,28.40,KMEV 090735Z AUTO 00000KT 10SM FEW014 SCT043 OVC050 M02/M06 A2966 RMK AO2,M
BAM,2022-11-09 07:35,-116.8743,40.5990,1382.36,35.60,33.80,93.08,230.00,12.00,0.00,29.59,M,10.00,16.00,SCT,BKN,OVC,M,6000.00,7000.00,8500.00,M,M,M,M,M,M,M,M,26.58,KBAM 090735Z AUTO 23012G16KT 10SM SCT060 BKN070 OVC085 02/01 A2959 RMK AO1,M
ELY,2022-11-09 07:39,-114.8453,39.2950,1909.00,32.00,28.90,88.17,200.00,13.00,0.01,29.58,M,9.00,21.00,FEW,BKN,OVC,M,1700.00,5000.00,7500.00,M,-SN,M,M,M,27.00,180.00,2022-11-09 07:00,21.57,KELY 090739Z AUTO 20013G21KT 9SM -SN FEW017 BKN050 OVC075 00/M02 A2958 RMK AO2 PK WND 18027/0700 P0001 T00001017,M
ELY,2022-11-09 07:53,-114.8453,39.2950,1909.00,32.00,28.90,88.17,210.00,12.00,0.01,29.59,1000.50,7.00,M,FEW,OVC,M,M,2500.00,4400.00,M,M,-SN,M,M,M,27.00,180.00,2022-11-09 07:00,22.00,KELY 090753Z AUTO 21012KT 7SM -SN FEW025 OVC044 00/M02 A2959 RMK AO2 PK WND 18027/0700 SLP005 P0001 T00001017,M
P68,2022-11-09 07:53,-116.0056,39.6014,1993.00,30.00,25.00,81.40,260.00,9.00,0.01,29.60,1001.60,M,M,M,M,M,M,M,M,M,M,M,M,M,M,28.00,270.00,2022-11-09 06:55,21.03,KP68 090753Z AUTO 26009KT M01/M04 A2960 RMK AO1 PK WND 27028/0655 SLP016 P0001 T10111039 400611028,M
LOL,2022-11-09 07:53,-118.5701,40.0684,1192.43,30.00,28.90,95.61,140.00,6.00,0.00,29.64,1004.40,1.00,M,VV ,M,M,M,200.00,M,M,M,BR,0.01,M,M,M,M,M,23.12,KLOL 090753Z AUTO 14006KT 1SM BR VV002 M01/M02 A2964 RMK AO2 SLP044 I1001 T10111017 400561106,M
DRA,2022-11-09 07:53,-116.0278,36.6206,1009.00,46.00,28.90,51.03,210.00,20.00,0.00,29.72,1004.40,10.00,30.00,FEW,M,M,M,5000.00,M,M,M,M,M,M,M,37.00,210.00,2022-11-09 07:06,37.73,KDRA 090753Z AUTO 21020G30KT 10SM FEW050 08/M02 A2972 RMK AO2 PK WND 21037/0706 SLP044 T00781017 401440072,M
VGT,2022-11-09 07:53,-115.1933,36.2111,667.00,55.00,33.00,43.31,230.00,13.00,0.00,29.74,1007.70,10.00,25.00,OVC,M,M,M,10000.00,M,M,M,M,M,M,M,32.00,220.00,2022-11-09 07:13,55.00,KVGT 090753Z AUTO 23013G25KT 10SM OVC100 13/01 A2974 RMK AO2 PK WND 22032/0713 SLP077 T01280006 402330117,M
EKO,2022-11-09 07:53,-115.7860,40.8242,1367.00,33.80,30.20,86.49,220.00,10.00,0.01,29.54,M,3.00,M,FEW,OVC,M,M,1900.00,2400.00,M,M,-SN BR,M,M,M,M,M,M,25.23,KEKO 090753Z AUTO 22010KT 3SM -SN BR FEW019 OVC024 01/M01 A2954 RMK AO2 P0001,M
BVU,2022-11-09 07:55,-114.8611,35.9475,671.00,50.00,39.20,66.27,230.00,22.00,0.00,29.74,M,10.00,31.00,FEW,FEW,BKN,M,5000.00,7000.00,11000.00,M,M,M,M,M,M,M,M,50.00,KBVU 090755Z AUTO 23022G31KT 10SM FEW050 FEW070 BKN110 10/04 A2974 RMK AO2,M
INS,2022-11-09 07:55,-115.6733,36.5872,955.00,48.70,26.60,41.94,230.00,9.00,T,29.73,1004.90,10.00,15.00,OVC,M,M,M,9500.00,M,M,M,M,M,M,M,27.00,240.00,2022-11-09 06:55,44.28,KINS 090755Z AUTO 23009G15KT 10SM OVC095 09/M03 A2973 RMK AO2 PK WND 24027/0655 RAE02RAB05E16 SLP049 P0000 T00931030 401710071 $,M
LSV,2022-11-09 07:55,-115.0343,36.2362,570.00,52.30,41.70,67.06,220.00,10.00,0.00,29.71,1005.10,10.00,M,BKN,BKN,M,M,9000.00,12000.00,M,M,M,M,M,M,M,M,M,52.30,KLSV 090755Z AUTO 22010KT 10SM BKN090 BKN120 11/05 A2971 RMK AO2 SLP051 T01130054 401910113 $,M
TMT,2022-11-09 07:55,-117.1971,39.4643,1749.34,29.30,26.20,88.03,180.00,3.00,0.00,29.64,M,10.00,M,SCT,M,M,M,7000.00,M,M,M,M,M,M,M,M,M,M,25.60,KTMT 090755Z AUTO 18003KT 10SM SCT070 M01/M03 A2964 RMK AO2 T10151032 400491111,M
BAM,2022-11-09 07:55,-116.8743,40.5990,1382.36,35.60,33.80,93.08,250.00,7.00,0.00,29.60,M,10.00,M,SCT,OVC,M,M,7500.00,11000.00,M,M,M,M,M,M,M,M,M,29.17,KBAM 090755Z AUTO 25007KT 10SM SCT075 OVC110 02/01 A2960 RMK AO1,M
MEV,2022-11-09 07:55,-119.7500,38.9963,1441.42,26.60,21.20,79.77,0.00,0.00,0.00,29.67,M,10.00,M,FEW,SCT,BKN,M,1600.00,2700.00,4300.00,M,M,M,M,M,M,M,M,26.60,KMEV 090755Z AUTO 00000KT 10SM FEW016 SCT027 BKN043 M03/M06 A2967 RMK AO2,M
05U,2022-11-09 07:55,-116.0051,39.6042,1811.23,30.20,26.60,86.28,0.00,0.00,0.00,29.63,M,10.00,M,SCT,BKN,OVC,M,5000.00,9000.00,12000.00,M,M,M,M,M,M,M,M,30.20,K05U 090755Z AUTO 00000KT 10SM SCT050 BKN090 OVC120 M01/M03 A2963 RMK A01,M
RTS,2022-11-09 07:55,-119.8764,39.6682,1539.00,32.00,21.20,63.99,M,4.00,0.00,29.64,M,10.00,11.00,FEW,OVC,M,M,2700.00,3600.00,M,M,M,M,M,M,M,M,M,27.42,KRTS 090755Z AUTO VRB04G11KT 10SM FEW027 OVC036 M00/M06 A2964 RMK AO2,M
RNO,2022-11-09 07:55,-119.7711,39.4839,1341.00,32.00,26.10,78.58,70.00,6.00,0.00,29.63,1004.00,10.00,M,FEW,BKN,BKN,M,3500.00,6000.00,7500.00,M,M,M,M,M,M,M,M,25.53,KRNO 090755Z 07006KT 10SM FEW035 BKN060 BKN075 00/M03 A2963 RMK AO2 SLP040 T00001033 400331011 $,M
CXP,2022-11-09 07:55,-119.7326,39.1923,1431.00,30.20,24.80,80.07,180.00,8.00,0.00,29.66,M,10.00,17.00,FEW,SCT,BKN,M,2400.00,3600.00,4700.00,M,M,M,M,M,M,M,M,21.90,KCXP 090755Z AUTO 18008G17KT 10SM FEW024 SCT036 BKN047 M01/M04 A2966 RMK AO2,M
WMC,2022-11-09 07:56,-117.8072,40.9019,1315.00,34.00,30.90,88.27,220.00,5.00,0.00,29.59,1002.20,10.00,M,BKN,OVC,M,M,2500.00,5000.00,M,M,M,M,M,M,M,M,M,28.77,KWMC 090756Z AUTO 22005KT 10SM BKN025 OVC050 01/M01 A2959 RMK AO2 SLP022 T00111006 400501028,M
NFL,2022-11-09 07:56,-118.7010,39.4166,1199.00,34.00,28.00,78.43,190.00,9.00,0.00,29.66,1002.60,10.00,M,CLR,M,M,M,M,M,M,M,M,M,M,M,M,M,M,26.00,KNFL 090756Z AUTO 19009KT 10SM CLR 01/M02 A2966 RMK AO2 SLP026 T00111022 400671011,M
TPH,2022-11-09 07:56,-117.0904,38.0505,1654.00,34.00,30.90,88.27,200.00,9.00,0.00,29.66,1003.40,10.00,M,BKN,OVC,M,M,1700.00,5500.00,M,M,M,M,M,M,M,M,M,26.00,KTPH 090756Z AUTO 20009KT 10SM BKN017 OVC055 01/M01 A2966 RMK AO2 SLP034 T00111006 400720006 $,M
LAS,2022-11-09 07:56,-115.1634,36.0719,663.00,52.00,36.00,54.26,230.00,15.00,0.00,29.76,1006.60,10.00,24.00,FEW,BKN,OVC,M,6000.00,9000.00,11000.00,M,M,M,M,M,28.00,210.00,2022-11-09 07:45,52.00,KLAS 090756Z 23015G24KT 10SM FEW060 BKN090 OVC110 11/02 A2976 RMK AO2 PK WND 21028/0745 SLP066 TOPS OF MTNS OBSCURED DSNT W T01110022 401940111,M
HND,2022-11-09 07:56,-115.1344,35.9729,742.79,49.00,37.00,63.34,220.00,22.00,T,29.77,1008.90,10.00,31.00,BKN,M,M,M,7000.00,M,M,M,M,M,M,M,34.00,220.00,2022-11-09 07:33,41.21,KHND 090756Z AUTO 22022G31KT 10SM BKN070 09/03 A2977 RMK AO2 PK WND 22034/0733 RAE37 SLP089 P0000 T00940028,M
EKO,2022-11-09 07:56,-115.7860,40.8242,1367.00,33.00,30.90,91.51,220.00,11.00,0.01,29.55,1001.20,3.00,M,FEW,OVC,M,M,1900.00,2600.00,M,M,-SN BR,M,M,M,M,M,M,23.86,KEKO 090756Z AUTO 22011KT 3SM -SN BR FEW019 OVC026 01/M01 A2955 RMK AO2 SLP012 P0001 T00061006 400391039,M
LOL,2022-11-09 08:00,-118.5701,40.0684,1192.43,28.90,28.90,100.00,160.00,5.00,0.00,29.64,M,0.50,M,VV ,M,M,M,200.00,M,M,M,FZFG,M,M,M,M,M,M,22.71,KLOL 090800Z AUTO 16005KT 1/2SM FZFG VV002 M02/M02 A2964 RMK AO2 T10171017,M
EKO,2022-11-09 08:04,-115.7860,40.8242,1367.00,33.00,30.90,91.51,230.00,13.00,T,29.55,M,1.75,M,OVC,M,M,M,2200.00,M,M,M,-SN BR,M,M,M,M,M,M,22.98,KEKO 090804Z AUTO 23013KT 1 3/4SM -SN BR OVC022 01/M01 A2955 RMK AO2 P0000 T00061006,M
TPH,2022-11-09 08:11,-117.0904,38.0505,1654.00,33.00,30.90,91.51,210.00,5.00,0.00,29.67,M,10.00,M,SCT,BKN,M,M,1700.00,6000.00,M,M,M,M,M,M,M,M,M,27.70,KTPH 090811Z AUTO 21005KT 10SM SCT017 BKN060 01/M01 A2967 RMK AO2 T00061006 $,M
LOL,2022-11-09 08:14,-118.5701,40.0684,1192.43,28.00,28.00,100.00,320.00,3.00,0.00,29.65,M,2.00,M,BKN,M,M,M,200.00,M,M,M,BR,T,M,M,M,M,M,24.12,KLOL 090814Z AUTO 32003KT 2SM BR BKN002 M02/M02 A2965 RMK AO2 I1000 T10221022,M
MEV,2022-11-09 08:15,-119.7500,38.9963,1441.42,26.60,23.00,86.07,0.00,0.00,0.00,29.67,M,10.00,M,FEW,SCT,BKN,M,1700.00,2500.00,3900.00,M,M,M,M,M,M,M,M,26.60,KMEV 090815Z AUTO 00000KT 10SM FEW017 SCT025 BKN039 M03/M05 A2967 RMK AO2 LTG DSNT W,M
BAM,2022-11-09 08:15,-116.8743,40.5990,1382.36,35.60,32.00,86.59,250.00,7.00,0.00,29.62,M,10.00,M,BKN,M,M,M,12000.00,M,M,M,M,M,M,M,M,M,M,29.17,KBAM 090815Z AUTO 25007KT 10SM BKN120 02/00 A2962 RMK AO1,M
TMT,2022-11-09 08:15,-117.1971,39.4643,1749.34,28.60,25.70,88.73,0.00,0.00,0.00,29.66,M,10.00,M,SCT,M,M,M,6000.00,M,M,M,M,M,M,M,M,M,M,28.60,KTMT 090815Z AUTO 00000KT 10SM SCT060 M02/M03 A2966 RMK AO2 LTG DSNT W T10191035,M
BVU,2022-11-09 08:15,-114.8611,35.9475,671.00,50.00,39.20,66.27,240.00,24.00,0.00,29.74,M,10.00,M,FEW,FEW,BKN,M,3200.00,6000.00,12000.00,M,M,M,M,M,M,M,M,50.00,KBVU 090815Z AUTO 24024KT 10SM FEW032 FEW060 BKN120 10/04 A2974 RMK AO2,M
CXP,2022-11-09 08:15,-119.7326,39.1923,1431.00,30.20,24.80,80.07,170.00,8.00,0.00,29.68,M,10.00,13.00,SCT,OVC,M,M,4700.00,5500.00,M,M,M,M,M,M,M,M,M,21.90,KCXP 090815Z AUTO 17008G13KT 10SM SCT047 OVC055 M01/M04 A2968 RMK AO2 LTG DSNT W,M
RTS,2022-11-09 08:15,-119.8764,39.6682,1539.00,30.20,23.00,74.26,M,4.00,0.00,29.66,M,10.00,M,FEW,OVC,M,M,2600.00,3500.00,M,M,M,M,M,M,M,M,M,25.32,KRTS 090815Z AUTO VRB04KT 10SM FEW026 OVC035 M01/M05 A2966 RMK AO2,M
05U,2022-11-09 08:15,-116.0051,39.6042,1811.23,30.20,24.80,80.07,0.00,0.00,0.00,29.64,M,10.00,M,SCT,BKN,OVC,M,5000.00,7500.00,9000.00,M,M,M,M,M,M,M,M,30.20,K05U 090815Z AUTO 00000KT 10SM SCT050 BKN075 OVC090 M01/M04 A2964 RMK A01,M
EKO,2022-11-09 08:17,-115.7860,40.8242,1367.00,33.00,30.90,91.51,220.00,11.00,0.01,29.56,M,3.00,M,OVC,M,M,M,2600.00,M,M,M,-SN BR,M,M,M,M,M,M,23.86,KEKO 090817Z AUTO 22011KT 3SM -SN BR OVC026 01/M01 A2956 RMK AO2 P0001 T00061006,M
LOL,2022-11-09 08:23,-118.5701,40.0684,1192.43,28.90,28.90,100.00,340.00,4.00,0.00,29.65,M,1.25,M,BKN,M,M,M,200.00,M,M,M,BR,T,M,M,M,M,M,23.80,KLOL 090823Z AUTO 34004KT 1 1/4SM BR BKN002 M02/M02 A2965 RMK AO2 I1000 T10171017,M
LOL,2022-11-09 08:28,-118.5701,40.0684,1192.43,28.90,28.90,100.00,0.00,0.00,0.00,29.65,M,4.00,M,BKN,M,M,M,200.00,M,M,M,BR,T,M,M,M,M,M,28.90,KLOL 090828Z AUTO 00000KT 4SM BR BKN002 M02/M02 A2965 RMK AO2 I1000 T10171017,M
WMC,2022-11-09 08:31,-117.8072,40.9019,1315.00,34.00,32.00,92.29,180.00,7.00,T,29.61,M,9.00,M,FEW,SCT,OVC,M,2100.00,3200.00,6000.00,M,M,M,M,M,M,M,M,27.22,KWMC 090831Z AUTO 18007KT 9SM FEW021 SCT032 OVC060 01/00 A2961 RMK AO2 SNB06E29 P0000 T00110000,M
BVU,2022-11-09 08:35,-114.8611,35.9475,671.00,50.00,39.20,66.27,240.00,23.00,0.00,29.76,M,10.00,35.00,SCT,BKN,OVC,M,3200.00,7000.00,12000.00,M,M,M,M,M,M,M,M,50.00,KBVU 090835Z AUTO 24023G35KT 10SM SCT032 BKN070 OVC120 10/04 A2976 RMK AO2,M
CXP,2022-11-09 08:35,-119.7326,39.1923,1431.00,30.20,24.80,80.07,110.00,5.00,0.00,29.69,M,10.00,M,FEW,SCT,OVC,M,4400.00,4900.00,6000.00,M,UP,M,M,M,M,M,M,24.26,KCXP 090835Z AUTO 11005KT 10SM UP FEW044 SCT049 OVC060 M01/M04 A2969 RMK AO2,M
TMT,2022-11-09 08:35,-117.1971,39.4643,1749.34,27.70,25.30,90.55,210.00,5.00,0.00,29.66,M,10.00,M,SCT,M,M,M,6000.00,M,M,M,M,M,M,M,M,M,M,21.29,KTMT 090835Z AUTO 21005KT 10SM SCT060 M02/M04 A2966 RMK AO2 LTG DSNT W T10241037,M
RTS,2022-11-09 08:35,-119.8764,39.6682,1539.00,30.20,21.20,68.83,240.00,7.00,0.00,29.66,M,10.00,M,SCT,BKN,OVC,M,3500.00,4000.00,5000.00,M,M,M,M,M,M,M,M,22.59,KRTS 090835Z AUTO 24007KT 10SM SCT035 BKN040 OVC050 M01/M06 A2966 RMK AO2,M
MEV,2022-11-09 08:35,-119.7500,38.9963,1441.42,19.40,17.60,92.57,110.00,5.00,0.00,29.67,M,10.00,M,FEW,BKN,BKN,M,3100.00,4100.00,4700.00,M,M,M,M,M,M,M,M,11.43,KMEV 090835Z AUTO 11005KT 10SM FEW031 BKN041 BKN047 M07/M08 A2967 RMK AO2,M
05U,2022-11-09 08:35,-116.0051,39.6042,1811.23,30.20,24.80,80.07,0.00,0.00,0.00,29.64,M,10.00,M,FEW,SCT,SCT,M,7500.00,8500.00,11000.00,M,M,M,M,M,M,M,M,30.20,K05U 090835Z AUTO 00000KT 10SM FEW075 SCT085 SCT110 M01/M04 A2964 RMK A01,M
BAM,2022-11-09 08:35,-116.8743,40.5990,1382.36,35.60,32.00,86.59,250.00,6.00,0.00,29.63,M,10.00,M,CLR,M,M,M,M,M,M,M,M,M,M,M,M,M,M,29.87,KBAM 090835Z AUTO 25006KT 10SM CLR 02/00 A2963 RMK AO1,M
EKO,2022-11-09 08:36,-115.7860,40.8242,1367.00,33.00,30.90,91.51,220.00,9.00,0.01,29.57,M,8.00,M,BKN,BKN,OVC,M,3700.00,4700.00,10000.00,M,-SN,M,M,M,M,M,M,24.88,KEKO 090836Z AUTO 22009KT 8SM -SN BKN037 BKN047 OVC100 01/M01 A2957 RMK AO2 P0001 T00061006,M
LOL,2022-11-09 08:37,-118.5701,40.0684,1192.43,30.00,30.00,100.00,180.00,7.00,0.00,29.66,M,10.00,M,FEW,M,M,M,200.00,M,M,M,M,T,M,M,M,M,M,22.34,KLOL 090837Z AUTO 18007KT 10SM FEW002 M01/M01 A2966 RMK AO2 I1000 T10111011,M
EKO,2022-11-09 08:47,-115.7860,40.8242,1367.00,33.00,30.90,91.51,220.00,11.00,0.01,29.57,M,1.75,M,BKN,BKN,OVC,M,2600.00,4900.00,10000.00,M,-SN BR,M,M,M,M,M,M,23.86,KEKO 090847Z AUTO 22011KT 1 3/4SM -SN BR BKN026 BKN049 OVC100 01/M01 A2957 RMK AO2 P0001 T00061006,M
CXP,2022-11-09 08:50,-119.7326,39.1923,1431.00,30.20,23.00,74.26,140.00,6.00,0.00,29.69,M,7.00,M,FEW,BKN,OVC,M,500.00,3400.00,6000.00,M,UP,M,M,M,M,M,M,23.36,KCXP 090850Z AUTO 14006KT 7SM UP FEW005 BKN034 OVC060 M01/M05 A2969 RMK AO2,M
INS,2022-11-09 08:52,-115.6733,36.5872,955.00,48.20,28.40,46.02,260.00,12.00,0.00,29.75,1005.40,10.00,M,OVC,M,M,M,12000.00,M,M,M,M,M,M,M,M,M,M,42.62,KINS 090852Z AUTO 26012KT 10SM OVC120 09/M02 A2975 RMK AO2 WSHFT 39 SLP054 $,M
ELY,2022-11-09 08:53,-114.8453,39.2950,1909.00,32.00,27.00,81.55,220.00,17.00,T,29.59,1000.50,6.00,27.00,OVC,M,M,M,3600.00,M,M,M,-SN,M,M,M,32.00,230.00,2022-11-09 08:13,20.08,KELY 090853Z AUTO 22017G27KT 6SM -SN OVC036 00/M03 A2959 RMK AO2 PK WND 23032/0813 UPB25E30SNE25B36 SLP005 P0000 60003 T00001028 51005,M
DRA,2022-11-09 08:53,-116.0278,36.6206,1009.00,45.00,30.00,55.43,200.00,23.00,0.00,29.74,1004.70,10.00,33.00,CLR,M,M,M,M,M,M,M,M,M,M,M,36.00,200.00,2022-11-09 08:09,35.79,KDRA 090853Z AUTO 20023G33KT 10SM CLR 07/M01 A2974 RMK AO2 PK WND 20036/0809 SLP047 T00721011 53012,M
P68,2022-11-09 08:53,-116.0056,39.6014,1993.00,28.90,25.00,85.14,250.00,4.00,0.00,29.61,1001.30,M,M,M,M,M,M,M,M,M,M,M,M,M,M,M,M,M,23.80,KP68 090853Z AUTO 25004KT M02/M04 A2961 RMK AO1 SLP013 60003 T10171039 51028,M
VGT,2022-11-09 08:53,-115.1933,36.2111,667.00,54.00,32.00,42.98,220.00,7.00,0.00,29.77,1008.90,10.00,M,OVC,M,M,M,10000.00,M,M,M,M,M,M,M,M,M,M,54.00,KVGT 090853Z AUTO 22007KT 10SM OVC100 12/00 A2977 RMK AO2 SLP089 T01220000 53018,M
LOL,2022-11-09 08:53,-118.5701,40.0684,1192.43,28.90,28.90,100.00,190.00,6.00,0.00,29.66,1005.90,10.00,M,SCT,M,M,M,6500.00,M,M,M,M,T,0.01,M,M,M,M,21.80,KLOL 090853Z AUTO 19006KT 10SM SCT065 M02/M02 A2966 RMK AO2 SLP059 I1000 I3001 T10171017 53024,M
EKO,2022-11-09 08:54,-115.7860,40.8242,1367.00,33.80,30.20,86.49,220.00,11.08,M,29.58,M,1.25,M,FEW,SCT,OVC,M,600.00,1699.00,2299.00,M,-SN BR,M,M,M,M,M,M,24.70,SPECI KEKO 090854Z 22011KT 1 1/4SM -SN BR FEW006 SCT017 OVC023 01/M01 A2958 RMK AO2 P0001 FIBI,M
BVU,2022-11-09 08:55,-114.8611,35.9475,671.00,50.00,39.20,66.27,240.00,19.00,0.00,29.79,M,10.00,27.00,FEW,BKN,OVC,M,3400.00,5000.00,12000.00,M,M,M,M,M,M,M,M,50.00,KBVU 090855Z AUTO 24019G27KT 10SM FEW034 BKN050 OVC120 10/04 A2979 RMK AO2,M
RNO,2022-11-09 08:55,-119.7711,39.4839,1341.00,33.00,26.10,75.18,120.00,5.00,0.00,29.67,1005.10,10.00,M,BKN,BKN,M,M,5000.00,7500.00,M,M,M,M,M,M,M,M,M,27.70,KRNO 090855Z 12005KT 10SM BKN050 BKN075 01/M03 A2967 RMK AO2 SLP051 T00061033 53022 $,M
RTS,2022-11-09 08:55,-119.8764,39.6682,1539.00,30.20,21.20,68.83,200.00,5.00,0.00,29.67,M,10.00,14.00,FEW,BKN,BKN,M,3700.00,4500.00,5000.00,M,M,M,M,M,M,M,M,24.26,KRTS 090855Z AUTO 20005G14KT 10SM FEW037 BKN045 BKN050 M01/M06 A2967 RMK AO2,M
05U,2022-11-09 08:55,-116.0051,39.6042,1811.23,30.20,24.80,80.07,0.00,0.00,0.00,29.64,M,10.00,M,FEW,FEW,FEW,M,4100.00,5000.00,11000.00,M,M,M,M,M,M,M,M,30.20,K05U 090855Z AUTO 00000KT 10SM FEW041 FEW050 FEW110 M01/M04 A2964 RMK A01,M
MEV,2022-11-09 08:55,-119.7500,38.9963,1441.42,21.20,17.60,85.74,140.00,11.00,0.00,29.68,M,10.00,M,FEW,SCT,BKN,M,4000.00,4500.00,5000.00,M,M,M,M,M,M,M,M,8.82,KMEV 090855Z AUTO 14011KT 10SM FEW040 SCT045 BKN050 M06/M08 A2968 RMK AO2,M
BAM,2022-11-09 08:55,-116.8743,40.5990,1382.36,35.60,32.00,86.59,250.00,8.00,0.00,29.63,M,10.00,M,CLR,M,M,M,M,M,M,M,M,M,M,M,M,M,M,28.55,KBAM 090855Z AUTO 25008KT 10SM CLR 02/00 A2963 RMK AO1,M
LSV,2022-11-09 08:55,-115.0343,36.2362,570.00,54.30,36.00,50.07,220.00,16.00,0.00,29.75,1006.40,10.00,M,FEW,M,M,M,9000.00,M,M,M,M,M,M,M,26.00,250.00,2022-11-09 08:11,54.30,KLSV 090855Z AUTO 22016KT 10SM FEW090 12/02 A2975 RMK AO2 PK WND 25026/11 SLP064 T01240023 52021 $,M
INS,2022-11-09 08:55,-115.6733,36.5872,955.00,47.70,28.90,47.86,260.00,13.00,0.00,29.75,1005.40,10.00,M,OVC,M,M,M,12000.00,M,M,M,M,M,M,M,M,M,M,41.68,KINS 090855Z AUTO 26013KT 10SM OVC120 09/M02 A2975 RMK AO2 SLP054 60000 T00871017 51011 $,M
TMT,2022-11-09 08:55,-117.1971,39.4643,1749.34,27.10,24.80,90.91,230.00,5.00,0.00,29.66,M,10.00,M,CLR,M,M,M,M,M,M,M,M,M,M,M,M,M,M,20.58,KTMT 090855Z AUTO 23005KT 10SM CLR M03/M04 A2966 RMK AO2 LTG DSNT W T10271040,M
HND,2022-11-09 08:56,-115.1344,35.9729,742.79,48.00,38.00,67.87,220.00,16.00,T,29.80,1010.10,10.00,26.00,FEW,BKN,OVC,M,5000.00,7500.00,8500.00,M,-RA,M,M,M,32.00,210.00,2022-11-09 08:15,41.27,KHND 090856Z AUTO 22016G26KT 10SM -RA FEW050 BKN075 OVC085 09/03 A2980 RMK AO2 PK WND 21032/0815 RAB12 SLP101 P0000 60001 T00890033 53024,M
EKO,2022-11-09 08:56,-115.7860,40.8242,1367.00,33.00,30.90,91.51,220.00,13.00,0.02,29.58,1002.30,1.25,M,FEW,SCT,OVC,M,600.00,1000.00,2300.00,M,-SN BR,M,M,M,M,M,M,22.98,KEKO 090856Z AUTO 22013KT 1 1/4SM -SN BR FEW006 SCT010 OVC023 01/M01 A2958 RMK AO2 SLP023 P0002 60004 T00061006 53019,M
NFL,2022-11-09 08:56,-118.7010,39.4166,1199.00,33.00,27.00,78.03,190.00,9.00,0.00,29.67,1003.10,10.00,M,CLR,M,M,M,M,M,M,M,M,M,M,M,M,M,M,24.88,KNFL 090856Z AUTO 19009KT 10SM CLR 01/M03 A2967 RMK AO2 SLP031 T00061028 51020,M
TPH,2022-11-09 08:56,-117.0904,38.0505,1654.00,32.00,30.00,92.22,220.00,8.00,0.00,29.68,1004.40,10.00,M,CLR,M,M,M,M,M,M,M,M,M,M,M,M,M,M,24.11,KTPH 090856Z AUTO 22008KT 10SM CLR 00/M01 A2968 RMK AO2 SLP044 T00001011 53018 $,M
LAS,2022-11-09 08:56,-115.1634,36.0719,663.00,51.00,36.00,56.10,190.00,10.00,0.00,29.78,1007.50,10.00,19.00,FEW,OVC,M,M,6000.00,9000.00,M,M,M,M,M,M,M,M,M,51.10,KLAS 090856Z 19010G19KT 10SM FEW060 OVC090 11/02 A2978 RMK AO2 SLP075 TOPS OF MTNS OBSCURED DSNT W-N 60000 T01060022 51019,M
WMC,2022-11-09 08:56,-117.8072,40.9019,1315.00,34.00,30.90,88.27,170.00,9.00,T,29.62,1003.10,10.00,M,FEW,SCT,OVC,M,4200.00,5000.00,6500.00,M,M,M,M,M,M,M,M,26.00,KWMC 090856Z AUTO 17009KT 10SM FEW042 SCT050 OVC065 01/M01 A2962 RMK AO2 SNB06E29 SLP031 P0000 60000 T00111006 51023,M
ELY,2022-11-09 09:00,-114.8453,39.2950,1909.00,32.00,28.00,84.98,220.00,18.00,T,29.61,M,2.50,33.00,OVC,M,M,M,2700.00,M,M,M,-SN BR,M,M,M,33.00,230.00,2022-11-09 08:57,19.75,KELY 090900Z AUTO 22018G33KT 2 1/2SM -SN BR OVC027 00/M02 A2961 RMK AO2 PK WND 23033/0857 PRESRR P0000 T00001022,M
EKO,2022-11-09 09:02,-115.7860,40.8242,1367.00,33.00,30.90,91.51,220.00,12.00,T,29.58,M,3.00,M,FEW,BKN,OVC,M,600.00,2100.00,3300.00,M,-SN BR,M,M,M,M,M,M,23.40,KEKO 090902Z AUTO 22012KT 3SM -SN BR FEW006 BKN021 OVC033 01/M01 A2958 RMK AO2 P0000 T00061006,M
ELY,2022-11-09 09:06,-114.8453,39.2950,1909.00,30.90,28.00,88.84,250.00,20.00,T,29.63,M,1.00,33.00,OVC,M,M,M,2300.00,M,M,M,-SN BR,M,M,M,33.00,230.00,2022-11-09 08:57,17.68,KELY 090906Z AUTO 25020G33KT 1SM -SN BR OVC023 M01/M02 A2963 RMK AO2 PK WND 23033/0857 PRESRR P0000 T10061022,M
ELY,2022-11-09 09:13,-114.8453,39.2950,1909.00,30.00,28.00,92.15,230.00,17.00,0.02,29.64,M,0.50,29.00,VV ,M,M,M,1600.00,M,M,M,SN FZFG,M,M,M,33.00,230.00,2022-11-09 08:57,17.46,KELY 090913Z AUTO 23017G29KT 1/2SM SN FZFG VV016 M01/M02 A2964 RMK AO2 PK WND 23033/0857 P0002 T10111022,M
MEV,2022-11-09 09:15,-119.7500,38.9963,1441.42,23.00,17.60,79.47,70.00,7.00,0.00,29.69,M,10.00,M,SCT,BKN,OVC,M,2000.00,3700.00,5000.00,M,M,M,M,M,M,M,M,13.81,KMEV 090915Z AUTO 07007KT 10SM SCT020 BKN037 OVC050 M05/M08 A2969 RMK AO2,M
TMT,2022-11-09 09:15,-117.1971,39.4643,1749.34,26.40,23.90,90.12,230.00,5.00,0.00,29.67,M,10.00,M,SCT,M,M,M,6000.00,M,M,M,M,M,M,M,M,M,M,19.74,KTMT 090915Z AUTO 23005KT 10SM SCT060 M03/M04 A2967 RMK AO2 T10311045,M
BVU,2022-11-09 09:15,-114.8611,35.9475,671.00,50.00,37.40,61.76,240.00,17.00,0.00,29.80,M,10.00,23.00,BKN,BKN,BKN,M,7500.00,9000.00,12000.00,M,M,M,M,M,M,M,M,50.00,KBVU 090915Z AUTO 24017G23KT 10SM BKN075 BKN090 BKN120 10/03 A2980 RMK AO2,M
EKO,2022-11-09 09:15,-115.7860,40.8242,1367.00,33.00,30.00,88.23,220.00,10.00,T,29.58,M,8.00,M,FEW,BKN,OVC,M,600.00,4200.00,5500.00,M,-SN,M,M,M,M,M,M,24.35,KEKO 090915Z AUTO 22010KT 8SM -SN FEW006 BKN042 OVC055 01/M01 A2958 RMK AO2 P0000 T00061011,M
CXP,2022-11-09 09:15,-119.7326,39.1923,1431.00,32.00,24.80,74.44,140.00,8.00,0.00,29.70,M,8.00,M,FEW,OVC,M,M,2800.00,3400.00,M,M,UP,M,M,M,M,M,M,24.11,KCXP 090915Z AUTO 14008KT 8SM UP FEW028 OVC034 M00/M04 A2970 RMK AO2,M
RTS,2022-11-09 09:15,-119.8764,39.6682,1539.00,30.20,21.20,68.83,240.00,5.00,0.00,29.68,M,10.00,M,FEW,BKN,BKN,M,3900.00,4800.00,5500.00,M,M,M,M,M,M,M,M,24.26,KRTS 090915Z AUTO 24005KT 10SM FEW039 BKN048 BKN055 M01/M06 A2968 RMK AO2,M
BAM,2022-11-09 09:15,-116.8743,40.5990,1382.36,35.60,32.00,86.59,230.00,5.00,0.00,29.64,M,10.00,M,CLR,M,M,M,M,M,M,M,M,M,M,M,M,M,M,30.67,KBAM 090915Z AUTO 23005KT 10SM CLR 02/00 A2964 RMK AO1,M
05U,2022-11-09 09:15,-116.0051,39.6042,1811.23,30.20,24.80,80.07,0.00,0.00,0.00,29.65,M,10.00,M,FEW,FEW,SCT,M,3600.00,4200.00,5000.00,M,M,M,M,M,M,M,M,30.20,K05U 090915Z AUTO 00000KT 10SM FEW036 FEW042 SCT050 M01/M04 A2965 RMK A01,M
ELY,2022-11-09 09:22,-114.8453,39.2950,1909.00,28.90,27.00,92.86,220.00,14.00,0.03,29.64,M,0.75,34.00,VV ,M,M,M,1100.00,M,M,M,-SN BR,M,M,M,34.00,210.00,2022-11-09 09:15,16.52,KELY 090922Z AUTO 22014G34KT 3/4SM -SN BR VV011 M02/M03 A2964 RMK AO2 PK WND 21034/0915 P0003 T10171028,M
ELY,2022-11-09 09:34,-114.8453,39.2950,1909.00,28.90,26.10,89.12,240.00,12.00,0.03,29.64,M,1.00,22.00,VV ,M,M,M,1100.00,M,M,M,-SN BR,M,M,M,34.00,210.00,2022-11-09 09:15,18.06,KELY 090934Z AUTO 24012G22KT 1SM -SN BR VV011 M02/M03 A2964 RMK AO2 PK WND 21034/0915 P0003 T10171033,M
TMT,2022-11-09 09:35,-117.1971,39.4643,1749.34,27.00,24.80,91.28,220.00,8.00,0.00,29.68,M,10.00,M,BKN,BKN,M,M,5500.00,7000.00,M,M,M,M,M,M,M,M,M,17.95,KTMT 090935Z AUTO 22008KT 10SM BKN055 BKN070 M03/M04 A2968 RMK AO2 T10281040,M
BVU,2022-11-09 09:35,-114.8611,35.9475,671.00,50.00,37.40,61.76,240.00,15.00,0.00,29.82,M,10.00,23.00,FEW,SCT,OVC,M,4200.00,4900.00,7500.00,M,M,M,M,M,M,M,M,50.00,KBVU 090935Z AUTO 24015G23KT 10SM FEW042 SCT049 OVC075 10/03 A2982 RMK AO2,M
CXP,2022-11-09 09:35,-119.7326,39.1923,1431.00,32.00,23.00,69.04,180.00,9.00,0.00,29.70,M,6.00,14.00,FEW,SCT,OVC,M,500.00,2800.00,3300.00,M,-SN HZ,M,M,M,M,M,M,23.51,KCXP 090935Z AUTO 18009G14KT 6SM -SN HZ FEW005 SCT028 OVC033 M00/M05 A2970 RMK AO2,M
MEV,2022-11-09 09:35,-119.7500,38.9963,1441.42,23.00,17.60,79.47,70.00,7.00,0.00,29.70,M,10.00,M,FEW,SCT,BKN,M,2100.00,3600.00,4300.00,M,M,M,M,M,M,M,M,13.81,KMEV 090935Z AUTO 07007KT 10SM FEW021 SCT036 BKN043 M05/M08 A2970 RMK AO2,M
05U,2022-11-09 09:35,-116.0051,39.6042,1811.23,30.20,26.60,86.28,0.00,0.00,0.00,29.66,M,10.00,M,FEW,SCT,SCT,M,4700.00,5500.00,12000.00,M,M,M,M,M,M,M,M,30.20,K05U 090935Z AUTO 00000KT 10SM FEW047 SCT055 SCT120 M01/M03 A2966 RMK A01,M
RTS,2022-11-09 09:35,-119.8764,39.6682,1539.00,30.20,21.20,68.83,0.00,0.00,0.00,29.68,M,10.00,12.00,SCT,BKN,BKN,M,3800.00,4800.00,5500.00,M,M,M,M,M,M,M,M,30.20,KRTS 090935Z AUTO 00000G12KT 10SM SCT038 BKN048 BKN055 M01/M06 A2968 RMK AO2,M
BAM,2022-11-09 09:35,-116.8743,40.5990,1382.36,35.60,32.00,86.59,0.00,0.00,0.00,29.65,M,10.00,M,CLR,M,M,M,M,M,M,M,M,M,M,M,M,M,M,35.60,KBAM 090935Z AUTO 00000KT 10SM CLR 02/00 A2965 RMK AO1,M
ELY,2022-11-09 09:43,-114.8453,39.2950,1909.00,28.90,27.00,92.49,210.00,5.00,0.03,29.65,M,2.00,19.00,OVC,M,M,M,1600.00,M,M,M,-SN BR,M,M,M,34.00,210.00,2022-11-09 09:15,22.71,KELY 090943Z AUTO 21005G19KT 2SM -SN BR OVC016 M02/M03 A2965 RMK AO2 PK WND 21034/0915 P0003 T10171028,M
DRA,2022-11-09 09:53,-116.0278,36.6206,1009.00,44.00,28.90,54.85,210.00,11.00,0.00,29.76,1005.60,10.00,27.00,CLR,M,M,M,M,M,M,M,M,M,M,M,39.00,200.00,2022-11-09 09:01,37.76,KDRA 090953Z AUTO 21011G27KT 10SM CLR 07/M02 A2976 RMK AO2 PK WND 20039/0901 SLP056 T00671017,M
ELY,2022-11-09 09:53,-114.8453,39.2950,1909.00,28.90,26.10,89.12,220.00,7.00,0.03,29.65,1003.60,1.50,M,OVC,M,M,M,1700.00,M,M,M,-SN BR,M,M,M,34.00,210.00,2022-11-09 09:15,21.00,KELY 090953Z AUTO 22007KT 1 1/2SM -SN BR OVC017 M02/M03 A2965 RMK AO2 PK WND 21034/0915 SLP036 P0003 T10171033,M
P68,2022-11-09 09:53,-116.0056,39.6014,1993.00,30.00,24.10,78.40,250.00,8.00,0.00,29.64,1002.50,M,M,M,M,M,M,M,M,M,M,M,M,M,M,M,M,M,21.65,KP68 090953Z AUTO 25008KT M01/M04 A2964 RMK AO1 SLP025 T10111044,M
VGT,2022-11-09 09:53,-115.1933,36.2111,667.00,53.00,30.90,42.48,230.00,13.00,0.00,29.77,1008.90,10.00,21.00,OVC,M,M,M,9000.00,M,M,M,M,M,M,M,M,M,M,53.10,KVGT 090953Z AUTO 23013G21KT 10SM OVC090 12/M01 A2977 RMK AO2 SLP089 T01171006,M
LOL,2022-11-09 09:53,-118.5701,40.0684,1192.43,28.90,27.00,92.49,170.00,3.00,0.00,29.69,1006.80,10.00,M,BKN,BKN,M,M,8500.00,11000.00,M,M,M,M,M,M,M,M,M,25.14,KLOL 090953Z AUTO 17003KT 10SM BKN085 BKN110 M02/M03 A2969 RMK AO2 SLP068 T10171028,M
RNO,2022-11-09 09:55,-119.7711,39.4839,1341.00,33.00,25.00,71.82,M,3.00,0.00,29.68,1005.70,10.00,M,SCT,BKN,BKN,M,4500.00,6000.00,7500.00,M,M,M,M,M,M,M,M,29.95,KRNO 090955Z VRB03KT 10SM SCT045 BKN060 BKN075 01/M04 A2968 RMK AO2 SLP057 T00061039 $,M
LSV,2022-11-09 09:55,-115.0343,36.2362,570.00,50.70,38.70,63.32,200.00,13.00,0.00,29.76,1007.00,10.00,19.00,FEW,M,M,M,9500.00,M,M,M,M,M,M,M,M,M,M,50.70,KLSV 090955Z AUTO 20013G19KT 10SM FEW095 10/04 A2976 RMK AO2 SLP070 T01040037 $,M
TMT,2022-11-09 09:55,-117.1971,39.4643,1749.34,28.40,25.00,86.90,220.00,6.00,0.00,29.68,M,10.00,M,SCT,BKN,OVC,M,5000.00,7000.00,9000.00,M,-SN,M,M,M,M,M,M,21.19,KTMT 090955Z AUTO 22006KT 10SM -SN SCT050 BKN070 OVC090 M02/M04 A2968 RMK AO2 T10201039,M
MEV,2022-11-09 09:55,-119.7500,38.9963,1441.42,23.00,17.60,79.47,90.00,12.00,0.00,29.70,M,10.00,M,FEW,BKN,OVC,M,3900.00,5500.00,7500.00,M,M,M,M,M,M,M,M,10.55,KMEV 090955Z AUTO 09012KT 10SM FEW039 BKN055 OVC075 M05/M08 A2970 RMK AO2,M
BAM,2022-11-09 09:55,-116.8743,40.5990,1382.36,33.80,30.20,86.49,0.00,0.00,0.00,29.65,M,10.00,M,CLR,M,M,M,M,M,M,M,M,M,M,M,M,M,M,33.80,KBAM 090955Z AUTO 00000KT 10SM CLR 01/M01 A2965 RMK AO1,M
05U,2022-11-09 09:55,-116.0051,39.6042,1811.23,30.20,24.80,80.07,0.00,0.00,0.00,29.66,M,10.00,M,FEW,FEW,M,M,5000.00,12000.00,M,M,M,M,M,M,M,M,M,30.20,K05U 090955Z AUTO 00000KT 10SM FEW050 FEW120 M01/M04 A2966 RMK A01,M
RTS,2022-11-09 09:55,-119.8764,39.6682,1539.00,30.20,19.40,63.75,M,6.00,0.00,29.69,M,10.00,M,BKN,OVC,M,M,3600.00,4200.00,M,M,M,M,M,M,M,M,M,23.36,KRTS 090955Z AUTO VRB06KT 10SM BKN036 OVC042 M01/M07 A2969 RMK AO2,M
BVU,2022-11-09 09:55,-114.8611,35.9475,671.00,50.00,39.20,66.27,230.00,13.00,0.00,29.81,M,10.00,M,SCT,BKN,OVC,M,3800.00,5500.00,7000.00,M,M,M,M,M,M,M,M,50.00,KBVU 090955Z AUTO 23013KT 10SM SCT038 BKN055 OVC070 10/04 A2981 RMK AO2,M
CXP,2022-11-09 09:55,-119.7326,39.1923,1431.00,32.00,24.80,74.44,140.00,3.00,0.00,29.71,M,4.00,M,FEW,SCT,OVC,M,500.00,3000.00,3500.00,M,-SN HZ,M,M,M,M,M,M,28.69,KCXP 090955Z AUTO 14003KT 4SM -SN HZ FEW005 SCT030 OVC035 M00/M04 A2971 RMK AO2,M
INS,2022-11-09 09:55,-115.6733,36.5872,955.00,46.80,27.70,47.13,230.00,14.00,0.00,29.75,1005.40,10.00,M,OVC,M,M,M,12000.00,M,M,M,M,M,M,M,M,M,M,40.24,KINS 090955Z AUTO 23014KT 10SM OVC120 08/M02 A2975 RMK AO2 SLP054 T00821024 $,M
EKO,2022-11-09 09:56,-115.7860,40.8242,1367.00,33.00,30.00,88.23,220.00,12.00,T,29.59,1002.50,10.00,M,SCT,BKN,BKN,M,2600.00,10000.00,12000.00,M,M,M,M,M,M,M,M,23.40,KEKO 090956Z AUTO 22012KT 10SM SCT026 BKN100 BKN120 01/M01 A2959 RMK AO2 SNE23 SLP025 P0000 T00061011,M
WMC,2022-11-09 09:56,-117.8072,40.9019,1315.00,34.00,28.00,78.43,220.00,8.00,0.00,29.63,1003.40,10.00,M,FEW,SCT,M,M,5500.00,9000.00,M,M,M,M,M,M,M,M,M,26.58,KWMC 090956Z AUTO 22008KT 10SM FEW055 SCT090 01/M02 A2963 RMK AO2 SLP034 T00111022,M
NFL,2022-11-09 09:56,-118.7010,39.4166,1199.00,32.00,27.00,81.55,260.00,6.00,0.00,29.70,1004.00,10.00,M,CLR,M,M,M,M,M,M,M,M,M,M,M,M,M,M,25.53,KNFL 090956Z AUTO 26006KT 10SM CLR 00/M03 A2970 RMK AO2 SLP040 T00001028,M
HND,2022-11-09 09:56,-115.1344,35.9729,742.79,48.00,37.00,65.51,210.00,20.00,T,29.82,1010.80,10.00,23.00,OVC,M,M,M,8000.00,M,M,M,-RA,M,M,M,26.00,210.00,2022-11-09 09:28,40.39,KHND 090956Z AUTO 21020G23KT 10SM -RA OVC080 09/03 A2982 RMK AO2 PK WND 21026/0928 RAE0859B15 SLP108 P0000 T00890028,M
LAS,2022-11-09 09:56,-115.1634,36.0719,663.00,50.00,37.00,60.79,200.00,11.00,0.00,29.79,1008.00,10.00,22.00,BKN,OVC,M,M,6000.00,9000.00,M,M,M,M,M,M,M,M,M,50.00,KLAS 090956Z 20011G22KT 10SM BKN060 OVC090 10/03 A2979 RMK AO2 SLP080 TOPS OF MTNS OBSCURED DSNT SW-NW T01000028,M
TPH,2022-11-09 09:56,-117.0904,38.0505,1654.00,30.90,28.90,92.18,200.00,4.00,0.00,29.70,1005.40,10.00,M,CLR,M,M,M,M,M,M,M,M,M,M,M,M,M,M,26.14,KTPH 090956Z AUTO 20004KT 10SM CLR M01/M02 A2970 RMK AO2 SLP054 T10061017 $,M
ELY,2022-11-09 10:00,-114.8453,39.2950,1909.00,28.90,26.10,89.12,240.00,11.00,0.01,29.66,M,1.00,18.00,VV ,M,M,M,1500.00,M,M,M,-SN BR,M,M,M,M,M,M,18.55,KELY 091000Z AUTO 24011G18KT 1SM -SN BR VV015 M02/M03 A2966 RMK AO2 P0001 T10171033,M
ELY,2022-11-09 10:10,-114.8453,39.2950,1909.00,28.90,25.00,86.18,220.00,12.00,0.01,29.66,M,1.00,20.00,VV ,M,M,M,1300.00,M,M,M,-SN BR,M,M,M,M,M,M,17.42,KELY 091010Z AUTO 22012G20KT 1SM -SN BR VV013 M02/M04 A2966 RMK AO2 P0001 T10171039,M
BAM,2022-11-09 10:15,-116.8743,40.5990,1382.36,33.80,30.20,86.49,280.00,3.00,0.00,29.65,M,10.00,M,CLR,M,M,M,M,M,M,M,M,M,M,M,M,M,M,30.75,KBAM 091015Z AUTO 28003KT 10SM CLR 01/M01 A2965 RMK AO1,M
BVU,2022-11-09 10:15,-114.8611,35.9475,671.00,50.00,39.20,66.27,240.00,14.00,0.00,29.81,M,10.00,M,FEW,SCT,BKN,M,3600.00,5000.00,6500.00,M,M,M,M,M,M,M,M,50.00,KBVU 091015Z AUTO 24014KT 10SM FEW036 SCT050 BKN065 10/04 A2981 RMK AO2,M
CXP,2022-11-09 10:15,-119.7326,39.1923,1431.00,32.00,23.00,69.04,180.00,5.00,0.00,29.72,M,4.00,M,SCT,BKN,OVC,M,1000.00,3000.00,3600.00,M,-SN HZ,M,M,M,M,M,M,26.40,KCXP 091015Z AUTO 18005KT 4SM -SN HZ SCT010 BKN030 OVC036 M00/M05 A2972 RMK AO2,M
RTS,2022-11-09 10:15,-119.8764,39.6682,1539.00,28.40,19.40,68.61,240.00,6.00,0.00,29.69,M,10.00,M,SCT,SCT,M,M,3500.00,4100.00,M,M,M,M,M,M,M,M,M,21.19,KRTS 091015Z AUTO 24006KT 10SM SCT035 SCT041 M02/M07 A2969 RMK AO2,M
05U,2022-11-09 10:15,-116.0051,39.6042,1811.23,30.20,24.80,80.07,0.00,0.00,0.00,29.67,M,10.00,M,SCT,M,M,M,12000.00,M,M,M,M,M,M,M,M,M,M,30.20,K05U 091015Z AUTO 00000KT 10SM SCT120 M01/M04 A2967 RMK A01,M
MEV,2022-11-09 10:15,-119.7500,38.9963,1441.42,23.00,17.60,79.47,90.00,8.00,0.00,29.71,M,10.00,15.00,FEW,SCT,BKN,M,3700.00,4400.00,5500.00,M,M,M,M,M,M,M,M,13.03,KMEV 091015Z AUTO 09008G15KT 10SM FEW037 SCT044 BKN055 M05/M08 A2971 RMK AO2,M
TMT,2022-11-09 10:15,-117.1971,39.4643,1749.34,27.30,23.90,86.83,220.00,6.00,0.00,29.69,M,10.00,M,SCT,SCT,OVC,M,5000.00,7000.00,9000.00,M,M,M,M,M,M,M,M,19.87,KTMT 091015Z AUTO 22006KT 10SM SCT050 SCT070 OVC090 M03/M04 A2969 RMK AO2 T10261045,M
ELY,2022-11-09 10:16,-114.8453,39.2950,1909.00,28.90,25.00,85.14,220.00,13.00,0.01,29.66,M,1.50,M,OVC,M,M,M,1500.00,M,M,M,-SN BR,M,M,M,M,M,M,17.60,KELY 091016Z AUTO 22013KT 1 1/2SM -SN BR OVC015 M02/M04 A2966 RMK AO2 P0001 T10171039,M
ELY,2022-11-09 10:28,-114.8453,39.2950,1909.00,28.90,25.00,85.14,200.00,14.00,0.01,29.65,M,2.00,22.00,OVC,M,M,M,2300.00,M,M,M,-SN BR,M,M,M,M,M,M,17.17,KELY 091028Z AUTO 20014G22KT 2SM -SN BR OVC023 M02/M04 A2965 RMK AO2 P0001 T10171039,M
TMT,2022-11-09 10:35,-117.1971,39.4643,1749.34,25.70,23.00,89.34,220.00,7.00,0.00,29.70,M,10.00,M,SCT,SCT,M,M,7000.00,10000.00,M,M,M,M,M,M,M,M,M,17.10,KTMT 091035Z AUTO 22007KT 10SM SCT070 SCT100 M03/M05 A2970 RMK AO2 T10351050,M
BVU,2022-11-09 10:35,-114.8611,35.9475,671.00,48.20,39.20,70.88,230.00,12.00,0.00,29.81,M,10.00,18.00,FEW,SCT,BKN,M,3400.00,6000.00,7500.00,M,M,M,M,M,M,M,M,42.62,KBVU 091035Z AUTO 23012G18KT 10SM FEW034 SCT060 BKN075 09/04 A2981 RMK AO2,M
CXP,2022-11-09 10:35,-119.7326,39.1923,1431.00,32.00,24.80,74.44,0.00,0.00,0.00,29.72,M,2.50,M,SCT,BKN,OVC,M,400.00,3000.00,5500.00,M,-SN HZ,M,M,M,M,M,M,32.00,KCXP 091035Z AUTO 00000KT 2 1/2SM -SN HZ SCT004 BKN030 OVC055 M00/M04 A2972 RMK AO2 VIS 1 1/4V5,M
05U,2022-11-09 10:35,-116.0051,39.6042,1811.23,30.20,24.80,80.07,0.00,0.00,0.00,29.68,M,10.00,M,SCT,SCT,M,M,6000.00,12000.00,M,M,M,M,M,M,M,M,M,30.20,K05U 091035Z AUTO 00000KT 10SM SCT060 SCT120 M01/M04 A2968 RMK A01,M
BAM,2022-11-09 10:35,-116.8743,40.5990,1382.36,33.80,30.20,86.49,250.00,5.00,0.00,29.66,M,10.00,M,SCT,M,M,M,6000.00,M,M,M,M,M,M,M,M,M,M,28.53,KBAM 091035Z AUTO 25005KT 10SM SCT060 01/M01 A2966 RMK AO1,M
MEV,2022-11-09 10:35,-119.7500,38.9963,1441.42,24.80,17.60,73.70,80.00,13.00,0.00,29.70,M,10.00,M,FEW,BKN,OVC,M,3700.00,4500.00,5500.00,M,M,M,M,M,M,M,M,12.34,KMEV 091035Z AUTO 08013KT 10SM FEW037 BKN045 OVC055 M04/M08 A2970 RMK AO2,M
RTS,2022-11-09 10:35,-119.8764,39.6682,1539.00,28.40,19.40,68.61,260.00,10.00,0.00,29.70,M,10.00,M,CLR,M,M,M,M,M,M,M,M,M,M,M,M,M,M,18.45,KRTS 091035Z AUTO 26010KT 220V280 10SM CLR M02/M07 A2970 RMK AO2,M
ELY,2022-11-09 10:36,-114.8453,39.2950,1909.00,28.00,26.10,92.46,200.00,14.00,0.01,29.65,M,5.00,M,OVC,M,M,M,3100.00,M,M,M,-SN BR,M,M,M,M,M,M,16.01,KELY 091036Z AUTO 20014KT 5SM -SN BR OVC031 M02/M03 A2965 RMK AO2 P0001 T10221033,M
ELY,2022-11-09 10:53,-114.8453,39.2950,1909.00,28.90,24.10,82.00,210.00,16.00,0.01,29.67,1003.80,10.00,25.00,OVC,M,M,M,4700.00,M,M,M,M,M,M,M,M,M,M,16.38,KELY 091053Z AUTO 21016G25KT 10SM OVC047 M02/M04 A2967 RMK AO2 SNE40 SLP038 P0001 T10171044,M
DRA,2022-11-09 10:53,-116.0278,36.6206,1009.00,44.00,28.90,54.85,200.00,16.00,0.00,29.76,1005.70,10.00,28.00,CLR,M,M,M,M,M,M,M,M,M,M,M,28.00,240.00,2022-11-09 10:44,36.19,KDRA 091053Z AUTO 20016G28KT 10SM CLR 07/M02 A2976 RMK AO2 PK WND 24028/1044 SLP057 T00671017,M
P68,2022-11-09 10:53,-116.0056,39.6014,1993.00,28.90,24.10,82.00,250.00,6.00,0.00,29.66,1003.00,M,M,M,M,M,M,M,M,M,M,M,M,M,M,M,M,M,21.80,KP68 091053Z AUTO 25006KT M02/M04 A2966 RMK AO1 SLP030 T10171044,M
LOL,2022-11-09 10:53,-118.5701,40.0684,1192.43,28.90,27.00,92.49,140.00,5.00,0.00,29.70,1007.30,10.00,M,FEW,M,M,M,12000.00,M,M,M,M,M,M,M,M,M,M,22.71,KLOL 091053Z AUTO 14005KT 10SM FEW120 M02/M03 A2970 RMK AO2 SLP073 T10171028,M
VGT,2022-11-09 10:53,-115.1933,36.2111,667.00,51.00,36.00,56.10,190.00,10.00,0.00,29.79,1010.00,10.00,M,OVC,M,M,M,12000.00,M,M,M,M,M,M,M,M,M,M,51.10,KVGT 091053Z AUTO 19010KT 10SM OVC120 11/02 A2979 RMK AO2 SLP100 T01060022,M
INS,2022-11-09 10:55,-115.6733,36.5872,955.00,44.00,33.30,66.05,300.00,5.00,0.00,29.76,1005.60,10.00,M,OVC,M,M,M,13000.00,M,M,M,M,M,M,M,M,M,M,40.53,KINS 091055Z AUTO 30005KT 10SM OVC130 07/01 A2976 RMK AO2 SLP056 T00660007 $,M
MEV,2022-11-09 10:55,-119.7500,38.9963,1441.42,26.60,21.20,79.77,120.00,13.00,0.00,29.71,M,10.00,19.00,OVC,M,M,M,4300.00,M,M,M,M,M,M,M,M,M,M,14.65,KMEV 091055Z AUTO 12013G19KT 10SM OVC043 M03/M06 A2971 RMK AO2,M
RTS,2022-11-09 10:55,-119.8764,39.6682,1539.00,28.40,19.40,68.61,270.00,10.00,0.00,29.70,M,10.00,M,CLR,M,M,M,M,M,M,M,M,M,M,M,M,M,M,18.45,KRTS 091055Z AUTO 27010KT 10SM CLR M02/M07 A2970 RMK AO2,M
05U,2022-11-09 10:55,-116.0051,39.6042,1811.23,30.20,24.80,80.07,0.00,0.00,0.00,29.69,M,10.00,M,FEW,BKN,BKN,M,4600.00,6000.00,12000.00,M,M,M,M,M,M,M,M,30.20,K05U 091055Z AUTO 00000KT 10SM FEW046 BKN060 BKN120 M01/M04 A2969 RMK A01,M
BAM,2022-11-09 10:55,-116.8743,40.5990,1382.36,33.80,32.00,93.03,240.00,11.00,0.00,29.66,M,10.00,M,CLR,M,M,M,M,M,M,M,M,M,M,M,M,M,M,24.74,KBAM 091055Z AUTO 24011KT 10SM CLR 01/00 A2966 RMK AO1,M
TMT,2022-11-09 10:55,-117.1971,39.4643,1749.34,25.70,22.10,86.01,210.00,5.00,0.00,29.70,M,10.00,M,SCT,SCT,M,M,8500.00,11000.00,M,M,M,M,M,M,M,M,M,18.91,KTMT 091055Z AUTO 21005KT 10SM SCT085 SCT110 M03/M05 A2970 RMK AO2 T10351055,M
RNO,2022-11-09 10:55,-119.7711,39.4839,1341.00,30.90,25.00,78.48,60.00,4.00,0.00,29.70,1006.10,10.00,M,BKN,BKN,M,M,6000.00,7500.00,M,M,M,M,M,M,M,M,M,26.14,KRNO 091055Z 06004KT 10SM BKN060 BKN075 M01/M04 A2970 RMK AO2 SLP061 T10061039 $,M
CXP,2022-11-09 10:55,-119.7326,39.1923,1431.00,32.00,24.80,74.44,250.00,4.00,0.00,29.73,M,5.00,M,FEW,OVC,M,M,300.00,3500.00,M,M,-SN HZ,M,M,M,M,M,M,27.42,KCXP 091055Z AUTO 25004KT 5SM -SN HZ FEW003 OVC035 M00/M04 A2973 RMK AO2,M
LSV,2022-11-09 10:55,-115.0343,36.2362,570.00,50.70,38.70,63.32,210.00,17.00,0.00,29.77,1007.40,10.00,M,CLR,M,M,M,M,M,M,M,M,M,M,M,M,M,M,50.70,KLSV 091055Z AUTO 21017KT 10SM CLR 10/04 A2977 RMK AO2 SLP074 T01040037 $,M
BVU,2022-11-09 10:55,-114.8611,35.9475,671.00,50.00,39.20,66.27,220.00,13.00,0.00,29.82,M,10.00,19.00,FEW,BKN,OVC,M,3000.00,6000.00,7500.00,M,M,M,M,M,M,M,M,50.00,KBVU 091055Z AUTO 22013G19KT 10SM FEW030 BKN060 OVC075 10/04 A2982 RMK AO2,M
HND,2022-11-09 10:56,-115.1344,35.9729,742.79,48.00,36.00,62.97,210.00,20.00,T,29.82,1010.80,10.00,25.00,OVC,M,M,M,7000.00,M,M,M,M,M,M,M,M,M,M,40.39,KHND 091056Z AUTO 21020G25KT 10SM OVC070 09/02 A2982 RMK AO2 RAE24 SLP108 P0000 T00890022,M
TPH,2022-11-09 10:56,-117.0904,38.0505,1654.00,30.90,28.00,88.84,0.00,0.00,0.00,29.72,1006.10,10.00,M,CLR,M,M,M,M,M,M,M,M,M,M,M,M,M,M,30.90,KTPH 091056Z AUTO 00000KT 10SM CLR M01/M02 A2972 RMK AO2 SLP061 T10061022 $,M
NFL,2022-11-09 10:56,-118.7010,39.4166,1199.00,32.00,26.10,78.58,210.00,6.00,0.00,29.71,1004.20,10.00,M,CLR,M,M,M,M,M,M,M,M,M,M,M,M,M,M,25.53,KNFL 091056Z AUTO 21006KT 10SM CLR 00/M03 A2971 RMK AO2 SLP042 T00001033,M
LAS,2022-11-09 10:56,-115.1634,36.0719,663.00,50.00,35.00,56.39,200.00,9.00,0.00,29.80,1008.40,10.00,23.00,BKN,OVC,M,M,9000.00,11000.00,M,M,M,M,M,M,M,M,M,50.00,KLAS 091056Z 20009G23KT 10SM BKN090 OVC110 10/02 A2980 RMK AO2 SLP084 TOPS OF MTNS OBSCURED DSNT SW-NW T01000017,M
EKO,2022-11-09 10:56,-115.7860,40.8242,1367.00,32.00,27.00,81.55,220.00,13.00,0.00,29.62,1003.40,10.00,20.00,BKN,M,M,M,5500.00,M,M,M,M,M,M,M,M,M,M,21.57,KEKO 091056Z AUTO 22013G20KT 10SM BKN055 00/M03 A2962 RMK AO2 SLP034 T00001028,M
WMC,2022-11-09 10:56,-117.8072,40.9019,1315.00,33.00,28.00,81.30,M,6.00,0.00,29.64,1004.00,10.00,M,BKN,BKN,M,M,6500.00,8000.00,M,M,M,M,M,M,M,M,M,26.86,KWMC 091056Z AUTO VRB06KT 10SM BKN065 BKN080 01/M02 A2964 RMK AO2 SLP040 T00061022,M
05U,2022-11-09 11:10,-116.0051,39.6042,1811.23,30.20,24.80,80.07,0.00,0.00,0.00,29.69,M,10.00,M,FEW,SCT,BKN,M,3500.00,5000.00,6500.00,M,M,M,M,M,M,M,M,30.20,K05U 091110Z AUTO 00000KT 10SM FEW035 SCT050 BKN065 M01/M04 A2969 RMK A01,M
TMT,2022-11-09 11:15,-117.1971,39.4643,1749.34,23.50,21.00,89.99,190.00,7.00,0.00,29.71,M,10.00,M,SCT,BKN,BKN,M,6500.00,8500.00,11000.00,M,M,M,M,M,M,M,M,14.42,KTMT 091115Z AUTO 19007KT 10SM SCT065 BKN085 BKN110 M05/M06 A2971 RMK AO2 T10471061,M
BAM,2022-11-09 11:15,-116.8743,40.5990,1382.36,33.80,30.20,86.49,240.00,9.00,0.00,29.67,M,10.00,M,CLR,M,M,M,M,M,M,M,M,M,M,M,M,M,M,25.75,KBAM 091115Z AUTO 24009KT 10SM CLR 01/M01 A2967 RMK AO1,M
MEV,2022-11-09 11:15,-119.7500,38.9963,1441.42,26.60,21.20,79.77,120.00,10.00,0.00,29.73,M,10.00,M,BKN,OVC,M,M,4100.00,4900.00,M,M,M,M,M,M,M,M,M,16.20,KMEV 091115Z AUTO 12010KT 10SM BKN041 OVC049 M03/M06 A2973 RMK AO2,M
RTS,2022-11-09 11:15,-119.8764,39.6682,1539.00,28.40,21.20,74.08,270.00,9.00,0.00,29.70,M,10.00,M,FEW,M,M,M,5000.00,M,M,M,M,M,M,M,M,M,M,19.04,KRTS 091115Z AUTO 27009KT 10SM FEW050 M02/M06 A2970 RMK AO2,M
CXP,2022-11-09 11:15,-119.7326,39.1923,1431.00,32.00,23.00,69.04,170.00,5.00,0.00,29.73,M,6.00,11.00,FEW,BKN,OVC,M,500.00,3700.00,4500.00,M,UP HZ,M,M,M,M,M,M,26.40,KCXP 091115Z AUTO 17005G11KT 6SM UP HZ FEW005 BKN037 OVC045 M00/M05 A2973 RMK AO2,M
BVU,2022-11-09 11:15,-114.8611,35.9475,671.00,50.00,35.60,57.52,240.00,19.00,0.00,29.83,M,10.00,M,BKN,OVC,M,M,5500.00,6500.00,M,M,M,M,M,M,M,M,M,50.00,KBVU 091115Z AUTO 24019KT 10SM BKN055 OVC065 10/02 A2983 RMK AO2,M
ELY,2022-11-09 11:25,-114.8453,39.2950,1909.00,28.90,23.00,78.30,200.00,11.00,T,29.68,M,2.50,19.00,BKN,OVC,M,M,2500.00,7000.00,M,M,-SN,M,M,M,M,M,M,18.55,KELY 091125Z AUTO 20011G19KT 2 1/2SM -SN BKN025 OVC070 M02/M05 A2968 RMK AO2 SNB09 P0000 T10171050,M
BAM,2022-11-09 11:35,-116.8743,40.5990,1382.36,33.80,30.20,86.49,250.00,5.00,0.00,29.67,M,10.00,M,SCT,M,M,M,5500.00,M,M,M,M,M,M,M,M,M,M,28.53,KBAM 091135Z AUTO 25005KT 10SM SCT055 01/M01 A2967 RMK AO1,M
TMT,2022-11-09 11:35,-117.1971,39.4643,1749.34,23.90,20.30,85.91,210.00,7.00,0.00,29.71,M,10.00,M,SCT,SCT,M,M,6500.00,8500.00,M,M,M,M,M,M,M,M,M,14.91,KTMT 091135Z AUTO 21007KT 10SM SCT065 SCT085 M04/M06 A2971 RMK AO2 T10451065,M
MEV,2022-11-09 11:35,-119.7500,38.9963,1441.42,24.80,21.20,85.96,110.00,4.00,0.00,29.73,M,10.00,M,FEW,SCT,OVC,M,2800.00,4000.00,4800.00,M,M,M,M,M,M,M,M,19.01,KMEV 091135Z AUTO 11004KT 10SM FEW028 SCT040 OVC048 M04/M06 A2973 RMK AO2,M
05U,2022-11-09 11:35,-116.0051,39.6042,1811.23,30.20,24.80,80.07,0.00,0.00,0.00,29.70,M,10.00,M,FEW,SCT,BKN,M,3900.00,4600.00,5000.00,M,M,M,M,M,M,M,M,30.20,K05U 091135Z AUTO 00000KT 10SM FEW039 SCT046 BKN050 M01/M04 A2970 RMK A01,M
RTS,2022-11-09 11:35,-119.8764,39.6682,1539.00,28.40,19.40,68.61,240.00,7.00,0.00,29.71,M,10.00,12.00,FEW,SCT,M,M,4800.00,5500.00,M,M,M,M,M,M,M,M,M,20.39,KRTS 091135Z AUTO 24007G12KT 10SM FEW048 SCT055 M02/M07 A2971 RMK AO2,M
CXP,2022-11-09 11:35,-119.7326,39.1923,1431.00,33.80,21.20,59.53,170.00,6.00,0.00,29.74,M,10.00,11.00,FEW,OVC,M,M,3700.00,4700.00,M,M,M,M,M,M,M,M,M,27.70,KCXP 091135Z AUTO 17006G11KT 10SM FEW037 OVC047 01/M06 A2974 RMK AO2,M
BVU,2022-11-09 11:35,-114.8611,35.9475,671.00,50.00,35.60,57.52,230.00,17.00,0.00,29.84,M,10.00,M,BKN,BKN,OVC,M,5500.00,6000.00,7500.00,M,M,M,M,M,M,M,M,50.00,KBVU 091135Z AUTO 23017KT 10SM BKN055 BKN060 OVC075 10/02 A2984 RMK AO2,M
ELY,2022-11-09 11:38,-114.8453,39.2950,1909.00,28.90,21.90,74.76,190.00,11.00,T,29.69,M,8.00,19.00,SCT,OVC,M,M,2100.00,9500.00,M,M,M,M,M,M,M,M,M,18.55,KELY 091138Z AUTO 19011G19KT 8SM SCT021 OVC095 M02/M06 A2969 RMK AO2 SNB09E38 P0000 T10171056,M
LOL,2022-11-09 11:53,-118.5701,40.0684,1192.43,28.90,27.00,92.49,130.00,4.00,0.00,29.72,1008.00,10.00,M,SCT,M,M,M,10000.00,M,M,M,M,M,M,0.01,M,M,M,23.80,KLOL 091153Z AUTO 13004KT 10SM SCT100 M02/M03 A2972 RMK AO2 SLP080 70014 I6001 T10171028 10006 21022 51017,M
VGT,2022-11-09 11:53,-115.1933,36.2111,667.00,51.00,34.00,51.81,200.00,14.00,0.00,29.81,1010.50,10.00,M,BKN,M,M,M,10000.00,M,M,M,M,M,M,M,M,M,M,51.10,KVGT 091153Z AUTO 20014KT 10SM BKN100 11/01 A2981 RMK AO2 SLP105 70011 T01060011 10128 20106 53011,M
DRA,2022-11-09 11:53,-116.0278,36.6206,1009.00,44.00,30.00,57.37,210.00,15.00,0.00,29.76,1005.60,10.00,25.00,CLR,M,M,M,M,M,M,M,M,M,M,M,29.00,190.00,2022-11-09 11:25,36.47,KDRA 091153Z AUTO 21015G25KT 10SM CLR 07/M01 A2976 RMK AO2 PK WND 19029/1125 SLP056 70017 T00671011 10083 20061 50006,M
P68,2022-11-09 11:53,-116.0056,39.6014,1993.00,28.90,24.10,82.00,0.00,0.00,0.00,29.69,1004.10,M,M,M,M,M,M,M,M,M,M,M,M,M,M,M,M,M,28.90,KP68 091153Z AUTO 00000KT M02/M04 A2969 RMK AO1 SLP041 60003 70013 T10171044 10022 21017 51022,M
ELY,2022-11-09 11:53,-114.8453,39.2950,1909.00,28.90,21.90,74.76,210.00,15.00,T,29.69,1004.20,10.00,M,FEW,BKN,OVC,M,1000.00,7500.00,9500.00,M,M,M,M,M,M,M,M,16.76,KELY 091153Z AUTO 21015KT 10SM FEW010 BKN075 OVC095 M02/M06 A2969 RMK AO2 SNB09E38 SLP042 P0000 60007 70055 T10171056 10017 21022 51027,M
BAM,2022-11-09 11:55,-116.8743,40.5990,1382.36,33.80,28.40,80.36,280.00,3.00,0.00,29.68,M,10.00,M,SCT,M,M,M,5500.00,M,M,M,M,M,M,M,M,M,M,30.75,KBAM 091155Z AUTO 28003KT 10SM SCT055 01/M02 A2968 RMK AO1,M
INS,2022-11-09 11:55,-115.6733,36.5872,955.00,46.40,26.80,46.11,230.00,9.00,0.00,29.76,1005.60,10.00,M,OVC,M,M,M,13000.00,M,M,M,M,M,M,M,M,M,M,41.42,KINS 091155Z AUTO 23009KT 10SM OVC130 08/M03 A2976 RMK AO2 SLP056 60000 70050 T00801029 10094 20065 51005 $,M
BVU,2022-11-09 11:55,-114.8611,35.9475,671.00,48.20,37.40,66.05,220.00,14.00,0.00,29.84,M,10.00,20.00,SCT,OVC,M,M,6000.00,7500.00,M,M,M,M,M,M,M,M,M,42.04,KBVU 091155Z AUTO 22014G20KT 10SM SCT060 OVC075 09/03 A2984 RMK AO2,M
CXP,2022-11-09 11:55,-119.7326,39.1923,1431.00,33.80,19.40,55.14,190.00,13.00,0.00,29.73,M,10.00,M,FEW,OVC,M,M,3500.00,4600.00,M,M,M,M,M,M,M,M,M,23.87,KCXP 091155Z AUTO 19013KT 10SM FEW035 OVC046 01/M07 A2973 RMK AO2,M
RNO,2022-11-09 11:55,-119.7711,39.4839,1341.00,28.90,24.10,82.00,80.00,3.00,0.00,29.71,1006.90,10.00,M,BKN,BKN,M,M,6000.00,7500.00,M,M,M,M,M,M,M,M,M,25.14,KRNO 091155Z COR 08003KT 10SM BKN060 BKN075 M02/M04 A2971 RMK AO2 SLP069 4/002 70021 T10171044 10011 21017 53014 $,2
LSV,2022-11-09 11:55,-115.0343,36.2362,570.00,50.50,38.00,61.82,200.00,20.00,0.00,29.78,1007.80,10.00,M,CLR,M,M,M,M,M,M,M,M,M,M,M,M,M,M,50.50,KLSV 091155Z AUTO 20020KT 10SM CLR 10/03 A2978 RMK AO2 SLP078 T01030033 10129 20102 52009 $,M
RTS,2022-11-09 11:55,-119.8764,39.6682,1539.00,30.20,19.40,63.75,250.00,12.00,0.00,29.72,M,10.00,19.00,CLR,M,M,M,M,M,M,M,M,M,M,M,M,M,M,19.71,KRTS 091155Z AUTO 25012G19KT 10SM CLR M01/M07 A2972 RMK AO2,M
05U,2022-11-09 11:55,-116.0051,39.6042,1811.23,30.20,24.80,80.07,0.00,0.00,0.00,29.72,M,9.00,M,FEW,SCT,BKN,M,200.00,2400.00,3700.00,M,M,M,M,M,M,M,M,30.20,K05U 091155Z AUTO 00000KT 9SM FEW002 SCT024 BKN037 M01/M04 A2972 RMK A01,M
MEV,2022-11-09 11:55,-119.7500,38.9963,1441.42,26.60,21.20,79.77,150.00,5.00,0.00,29.73,M,10.00,M,FEW,BKN,OVC,M,2600.00,4800.00,5500.00,M,M,M,M,M,M,M,M,19.98,KMEV 091155Z AUTO 15005KT 10SM FEW026 BKN048 OVC055 M03/M06 A2973 RMK AO2,M
TMT,2022-11-09 11:55,-117.1971,39.4643,1749.34,23.90,19.90,84.45,210.00,7.00,0.00,29.73,M,10.00,M,CLR,M,M,M,M,M,M,M,M,M,M,M,M,M,M,14.91,KTMT 091155Z AUTO 21007KT 10SM CLR M04/M07 A2973 RMK AO2 70004 T10451067 11005 21047,M
EKO,2022-11-09 11:56,-115.7860,40.8242,1367.00,30.90,25.00,78.48,220.00,8.00,0.00,29.64,1004.70,10.00,M,OVC,M,M,M,6000.00,M,M,M,M,M,M,M,M,M,M,22.76,KEKO 091156Z AUTO 22008KT 10SM OVC060 M01/M04 A2964 RMK AO2 SLP047 60004 70021 T10061039 10017 21006 53020,M
TPH,2022-11-09 11:56,-117.0904,38.0505,1654.00,28.00,27.00,95.97,200.00,4.00,0.00,29.74,1007.00,10.00,M,CLR,M,M,M,M,M,M,M,M,M,M,M,M,M,M,22.75,KTPH 091156Z AUTO 20004KT 10SM CLR M02/M03 A2974 RMK AO2 SLP070 70023 T10221028 10017 21022 51017 $,M
NFL,2022-11-09 11:56,-118.7010,39.4166,1199.00,32.00,25.00,75.07,220.00,7.00,0.00,29.73,1004.80,10.00,M,CLR,M,M,M,M,M,M,M,M,M,M,M,M,M,M,24.78,KNFL 091156Z AUTO 22007KT 10SM CLR 00/M04 A2973 RMK AO2 SLP048 70012 T00001039 10011 21006 51018,M
HND,2022-11-09 11:56,-115.1344,35.9729,742.79,46.00,37.00,70.64,210.00,18.00,T,29.83,1011.60,10.00,M,BKN,OVC,M,M,6500.00,8500.00,M,M,-RA,M,M,M,M,M,M,38.18,KHND 091156Z AUTO 21018KT 10SM -RA BKN065 OVC085 08/03 A2983 RMK AO2 RAB20 SLP116 P0000 60001 70007 T00780028 10100 20078 51010,M
WMC,2022-11-09 11:56,-117.8072,40.9019,1315.00,33.00,28.00,81.30,190.00,7.00,0.00,29.67,1005.30,10.00,M,FEW,BKN,OVC,M,3700.00,4600.00,5500.00,M,M,M,M,M,M,M,M,26.12,KWMC 091156Z AUTO 19007KT 10SM FEW037 BKN046 OVC055 01/M02 A2967 RMK AO2 SLP053 60000 70013 T00061022 10017 20000 53016,M
LAS,2022-11-09 11:56,-115.1634,36.0719,663.00,49.00,35.00,58.75,200.00,9.00,0.00,29.82,1009.10,10.00,23.00,FEW,OVC,M,M,6000.00,9500.00,M,M,M,M,M,M,M,M,M,44.53,KLAS 091156Z 20009G23KT 10SM FEW060 OVC095 09/02 A2982 RMK AO2 SLP091 TOPS OF MTNS OBSCURED DSNT W-NW 60000 70010 T00940017 10117 20094 53013,M
BAM,2022-11-09 12:15,-116.8743,40.5990,1382.36,33.80,28.40,80.36,340.00,3.00,0.00,29.69,M,10.00,M,BKN,BKN,M,M,4700.00,5500.00,M,M,M,M,M,M,M,M,M,30.75,KBAM 091215Z AUTO 34003KT 10SM BKN047 BKN055 01/M02 A2969 RMK AO1,M
BVU,2022-11-09 12:15,-114.8611,35.9475,671.00,46.40,37.40,70.68,210.00,12.00,0.00,29.84,M,10.00,M,FEW,SCT,BKN,M,4400.00,5000.00,6500.00,M,M,M,M,M,M,M,M,40.33,KBVU 091215Z AUTO 21012KT 10SM FEW044 SCT050 BKN065 08/03 A2984 RMK AO2,M
CXP,2022-11-09 12:15,-119.7326,39.1923,1431.00,33.80,19.40,55.14,200.00,18.00,0.00,29.73,M,9.00,27.00,SCT,BKN,BKN,M,3500.00,4200.00,4900.00,M,M,M,M,M,M,M,M,22.12,KCXP 091215Z AUTO 20018G27KT 9SM SCT035 BKN042 BKN049 01/M07 A2973 RMK AO2,M
RTS,2022-11-09 12:15,-119.8764,39.6682,1539.00,30.20,19.40,63.75,250.00,13.00,0.00,29.73,M,10.00,M,CLR,M,M,M,M,M,M,M,M,M,M,M,M,M,M,19.26,KRTS 091215Z AUTO 25013KT 10SM CLR M01/M07 A2973 RMK AO2,M
05U,2022-11-09 12:15,-116.0051,39.6042,1811.23,28.40,24.80,86.18,0.00,0.00,0.00,29.72,M,10.00,M,FEW,SCT,BKN,M,200.00,4600.00,7000.00,M,M,M,M,M,M,M,M,28.40,K05U 091215Z AUTO 00000KT 10SM FEW002 SCT046 BKN070 M02/M04 A2972 RMK A01,M
MEV,2022-11-09 12:15,-119.7500,38.9963,1441.42,26.60,21.20,79.77,80.00,11.00,0.00,29.74,M,10.00,M,FEW,BKN,OVC,M,2600.00,4300.00,5000.00,M,M,M,M,M,M,M,M,15.64,KMEV 091215Z AUTO 08011KT 10SM FEW026 BKN043 OVC050 M03/M06 A2974 RMK AO2,M
TMT,2022-11-09 12:15,-117.1971,39.4643,1749.34,23.40,19.40,84.42,190.00,6.00,0.00,29.73,M,10.00,M,SCT,M,M,M,9500.00,M,M,M,M,M,M,M,M,M,M,15.17,KTMT 091215Z AUTO 19006KT 10SM SCT095 M05/M07 A2973 RMK AO2 T10481070,M
MEV,2022-11-09 12:35,-119.7500,38.9963,1441.42,28.40,21.20,74.08,130.00,7.00,0.00,29.75,M,10.00,14.00,SCT,BKN,OVC,M,4400.00,5000.00,5500.00,M,M,M,M,M,M,M,M,20.39,KMEV 091235Z AUTO 13007G14KT 110V190 10SM SCT044 BKN050 OVC055 M02/M06 A2975 RMK AO2,M
TMT,2022-11-09 12:35,-117.1971,39.4643,1749.34,23.40,19.40,84.42,190.00,7.00,0.00,29.74,M,10.00,M,SCT,M,M,M,12000.00,M,M,M,M,M,M,M,M,M,M,14.30,KTMT 091235Z AUTO 19007KT 10SM SCT120 M05/M07 A2974 RMK AO2 T10481070,M
BAM,2022-11-09 12:35,-116.8743,40.5990,1382.36,33.80,28.40,80.36,260.00,4.00,0.00,29.71,M,10.00,M,BKN,OVC,M,M,3800.00,4700.00,M,M,M,M,M,M,M,M,M,29.52,KBAM 091235Z AUTO 26004KT 10SM BKN038 OVC047 01/M02 A2971 RMK AO1,M
05U,2022-11-09 12:35,-116.0051,39.6042,1811.23,28.40,24.80,86.18,0.00,0.00,0.00,29.73,M,10.00,M,FEW,SCT,M,M,7000.00,12000.00,M,M,M,M,M,M,M,M,M,28.40,K05U 091235Z AUTO 00000KT 10SM FEW070 SCT120 M02/M04 A2973 RMK A01,M
RTS,2022-11-09 12:35,-119.8764,39.6682,1539.00,30.20,19.40,63.75,240.00,16.00,0.00,29.74,M,10.00,M,FEW,M,M,M,4400.00,M,M,M,M,M,M,M,M,M,M,18.07,KRTS 091235Z AUTO 24016KT 10SM FEW044 M01/M07 A2974 RMK AO2,M
CXP,2022-11-09 12:35,-119.7326,39.1923,1431.00,33.80,19.40,55.14,250.00,4.00,0.00,29.75,M,10.00,10.00,SCT,OVC,M,M,3700.00,4700.00,M,M,M,M,M,M,M,M,M,29.52,KCXP 091235Z AUTO 25004G10KT 10SM SCT037 OVC047 01/M07 A2975 RMK AO2,M
BVU,2022-11-09 12:35,-114.8611,35.9475,671.00,46.40,37.40,70.68,220.00,9.00,0.00,29.85,M,10.00,M,SCT,BKN,OVC,M,5500.00,7500.00,9500.00,M,M,M,M,M,M,M,M,41.42,KBVU 091235Z AUTO 22009KT 10SM SCT055 BKN075 OVC095 08/03 A2985 RMK AO2,M
ELY,2022-11-09 12:53,-114.8453,39.2950,1909.00,28.90,21.00,71.96,170.00,10.00,0.00,29.71,1005.30,10.00,M,FEW,BKN,OVC,M,5500.00,8500.00,11000.00,M,M,M,M,M,M,M,M,19.08,KELY 091253Z AUTO 17010KT 10SM FEW055 BKN085 OVC110 M02/M06 A2971 RMK AO2 SLP053 T10171061,M
VGT,2022-11-09 12:53,-115.1933,36.2111,667.00,50.00,36.00,58.44,200.00,13.00,0.00,29.81,1010.60,10.00,M,SCT,BKN,M,M,9000.00,11000.00,M,M,M,M,M,M,M,M,M,50.00,KVGT 091253Z AUTO 20013KT 10SM SCT090 BKN110 10/02 A2981 RMK AO2 SLP106 T01000022,M
LOL,2022-11-09 12:53,-118.5701,40.0684,1192.43,28.00,25.00,88.33,170.00,6.00,0.00,29.74,1009.00,10.00,M,FEW,M,M,M,7500.00,M,M,M,M,M,M,M,M,M,M,20.71,KLOL 091253Z AUTO 17006KT 10SM FEW075 M02/M04 A2974 RMK AO2 SLP090 T10221039,M
P68,2022-11-09 12:53,-116.0056,39.6014,1993.00,27.00,23.00,84.66,160.00,4.00,0.00,29.71,1005.20,M,M,M,M,M,M,M,M,M,M,M,M,M,M,M,M,M,21.58,KP68 091253Z AUTO 16004KT M03/M05 A2971 RMK AO1 SLP052 T10281050,M
DRA,2022-11-09 12:53,-116.0278,36.6206,1009.00,43.00,28.00,55.14,220.00,10.00,0.00,29.78,1006.70,10.00,19.00,CLR,M,M,M,M,M,M,M,M,M,M,M,29.00,240.00,2022-11-09 11:57,36.76,KDRA 091253Z AUTO 22010G19KT 10SM CLR 06/M02 A2978 RMK AO2 PK WND 24029/1157 SLP067 T00611022,M
TMT,2022-11-09 12:55,-117.1971,39.4643,1749.34,23.90,19.90,84.45,200.00,6.00,0.00,29.75,M,10.00,M,BKN,BKN,M,M,10000.00,12000.00,M,M,M,M,M,M,M,M,M,15.77,KTMT 091255Z AUTO 20006KT 10SM BKN100 BKN120 M04/M07 A2975 RMK AO2 T10451067,M
CXP,2022-11-09 12:55,-119.7326,39.1923,1431.00,33.80,21.20,59.53,210.00,7.00,0.00,29.76,M,10.00,12.00,BKN,OVC,M,M,4800.00,5500.00,M,M,M,M,M,M,M,M,M,26.97,KCXP 091255Z AUTO 21007G12KT 140V260 10SM BKN048 OVC055 01/M06 A2976 RMK AO2,M
BVU,2022-11-09 12:55,-114.8611,35.9475,671.00,46.40,37.40,70.68,210.00,11.00,0.00,29.85,M,10.00,M,FEW,OVC,M,M,7500.00,9000.00,M,M,M,M,M,M,M,M,M,40.66,KBVU 091255Z AUTO 21011KT 10SM FEW075 OVC090 08/03 A2985 RMK AO2,M
LSV,2022-11-09 12:55,-115.0343,36.2362,570.00,50.00,37.60,62.24,200.00,14.00,0.00,29.78,1007.90,10.00,M,CLR,M,M,M,M,M,M,M,M,M,M,M,M,M,M,50.00,KLSV 091255Z AUTO 20014KT 10SM CLR 10/03 A2978 RMK AO2 SLP079 T01000031 $,M
INS,2022-11-09 12:55,-115.6733,36.5872,955.00,45.50,25.30,44.83,260.00,11.00,0.00,29.77,1006.30,10.00,21.00,SCT,SCT,M,M,14000.00,17000.00,M,M,M,M,M,M,M,M,M,39.53,KINS 091255Z AUTO 26011G21KT 10SM SCT140 SCT170 08/M04 A2977 RMK AO2 SLP063 T00751037 $,M
RTS,2022-11-09 12:55,-119.8764,39.6682,1539.00,30.20,21.20,68.83,240.00,12.00,0.00,29.74,M,10.00,M,BKN,M,M,M,4400.00,M,M,M,M,M,M,M,M,M,M,19.71,KRTS 091255Z AUTO 24012KT 10SM BKN044 M01/M06 A2974 RMK AO2,M
05U,2022-11-09 12:55,-116.0051,39.6042,1811.23,26.60,23.00,86.07,0.00,0.00,0.00,29.74,M,10.00,M,SCT,BKN,BKN,M,6500.00,7500.00,8500.00,M,M,M,M,M,M,M,M,26.60,K05U 091255Z AUTO 00000KT 10SM SCT065 BKN075 BKN085 M03/M05 A2974 RMK A01,M
MEV,2022-11-09 12:55,-119.7500,38.9963,1441.42,33.80,19.40,55.14,220.00,17.00,0.00,29.76,M,10.00,M,FEW,BKN,OVC,M,3800.00,5500.00,7000.00,M,M,M,M,M,M,M,M,22.43,KMEV 091255Z AUTO 22017KT 10SM FEW038 BKN055 OVC070 01/M07 A2976 RMK AO2,M
BAM,2022-11-09 12:55,-116.8743,40.5990,1382.36,35.60,28.40,74.80,240.00,8.00,0.00,29.72,M,10.00,M,SCT,OVC,M,M,3800.00,4900.00,M,M,M,M,M,M,M,M,M,28.55,KBAM 091255Z AUTO 24008KT 10SM SCT038 OVC049 02/M02 A2972 RMK AO1,M
RNO,2022-11-09 12:55,-119.7711,39.4839,1341.00,30.00,24.10,78.40,30.00,3.00,0.00,29.75,1008.20,10.00,M,SCT,BKN,BKN,M,6000.00,7500.00,18000.00,M,M,M,M,M,M,M,M,26.40,KRNO 091255Z 03003KT 10SM SCT060 BKN075 BKN180 M01/M04 A2975 RMK AO2 SLP082 T10111044 $,M
HND,2022-11-09 12:56,-115.1344,35.9729,742.79,47.00,36.00,65.63,210.00,18.00,T,29.85,1012.00,10.00,M,FEW,BKN,OVC,M,7000.00,9000.00,11000.00,M,M,M,M,M,M,M,M,39.36,KHND 091256Z AUTO 21018KT 10SM FEW070 BKN090 OVC110 08/02 A2985 RMK AO2 RAE07 SLP120 P0000 T00830022,M
WMC,2022-11-09 12:56,-117.8072,40.9019,1315.00,33.00,28.00,81.30,200.00,10.00,0.00,29.69,1006.00,10.00,M,OVC,M,M,M,5500.00,M,M,M,M,M,M,M,M,M,M,24.35,KWMC 091256Z AUTO 20010KT 10SM OVC055 01/M02 A2969 RMK AO2 SLP060 T00061022,M
TPH,2022-11-09 12:56,-117.0904,38.0505,1654.00,28.00,26.10,92.46,350.00,4.00,0.00,29.77,1009.00,10.00,M,CLR,M,M,M,M,M,M,M,M,M,M,M,M,M,M,22.75,KTPH 091256Z AUTO 35004KT 10SM CLR M02/M03 A2977 RMK AO2 SLP090 T10221033 $,M
NFL,2022-11-09 12:56,-118.7010,39.4166,1199.00,30.00,24.10,78.40,M,3.00,0.00,29.76,1005.60,10.00,M,CLR,M,M,M,M,M,M,M,M,M,M,M,M,M,M,26.40,KNFL 091256Z AUTO VRB03KT 10SM CLR M01/M04 A2976 RMK AO2 SLP056 T10111044,M
EKO,2022-11-09 12:56,-115.7860,40.8242,1367.00,28.00,21.90,77.57,230.00,8.00,0.00,29.67,1005.70,10.00,M,FEW,M,M,M,5500.00,M,M,M,M,M,M,M,M,M,M,19.19,KEKO 091256Z AUTO 23008KT 10SM FEW055 M02/M06 A2967 RMK AO2 SLP057 T10221056,M
LAS,2022-11-09 12:56,-115.1634,36.0719,663.00,49.00,35.00,58.75,200.00,8.00,0.00,29.82,1009.20,10.00,18.00,SCT,OVC,M,M,8000.00,9500.00,M,M,M,M,M,M,M,M,M,44.93,KLAS 091256Z 20008G18KT 10SM SCT080 OVC095 09/02 A2982 RMK AO2 SLP092 TOPS OF MTNS OBSCURED DSNT W-NW T00940017,M
CXP,2022-11-09 13:15,-119.7326,39.1923,1431.00,33.80,21.20,59.53,230.00,7.00,0.00,29.77,M,8.00,16.00,FEW,OVC,M,M,4000.00,4900.00,M,M,-SN,M,M,M,M,M,M,26.97,KCXP 091315Z AUTO 23007G16KT 8SM -SN FEW040 OVC049 01/M06 A2977 RMK AO2,M
RTS,2022-11-09 13:15,-119.8764,39.6682,1539.00,26.60,21.20,79.77,270.00,5.00,0.00,29.76,M,10.00,M,BKN,BKN,BKN,M,4400.00,8500.00,11000.00,M,M,M,M,M,M,M,M,19.98,KRTS 091315Z AUTO 27005KT 10SM BKN044 BKN085 BKN110 M03/M06 A2976 RMK AO2,M
05U,2022-11-09 13:15,-116.0051,39.6042,1811.23,26.60,23.00,86.07,0.00,0.00,0.00,29.75,M,10.00,M,FEW,FEW,FEW,M,6000.00,7500.00,8000.00,M,M,M,M,M,M,M,M,26.60,K05U 091315Z AUTO 00000KT 10SM FEW060 FEW075 FEW080 M03/M05 A2975 RMK A01,M
BVU,2022-11-09 13:15,-114.8611,35.9475,671.00,48.20,37.40,66.05,200.00,11.00,0.00,29.85,M,10.00,M,BKN,OVC,M,M,7500.00,9500.00,M,M,M,M,M,M,M,M,M,42.94,KBVU 091315Z AUTO 20011KT 10SM BKN075 OVC095 09/03 A2985 RMK AO2,M
MEV,2022-11-09 13:15,-119.7500,38.9963,1441.42,32.00,19.40,59.27,240.00,13.00,0.00,29.76,M,10.00,M,FEW,BKN,OVC,M,2900.00,3800.00,7500.00,M,M,M,M,M,M,M,M,21.57,KMEV 091315Z AUTO 24013KT 10SM FEW029 BKN038 OVC075 00/M07 A2976 RMK AO2,M
BAM,2022-11-09 13:15,-116.8743,40.5990,1382.36,35.60,28.40,74.80,240.00,9.00,0.00,29.72,M,10.00,M,BKN,OVC,M,M,4900.00,5500.00,M,M,M,M,M,M,M,M,M,27.99,KBAM 091315Z AUTO 24009KT 10SM BKN049 OVC055 02/M02 A2972 RMK AO1,M
TMT,2022-11-09 13:15,-117.1971,39.4643,1749.34,23.90,20.10,85.18,210.00,4.00,0.00,29.76,M,10.00,M,BKN,BKN,OVC,M,7500.00,8500.00,10000.00,M,M,M,M,M,M,M,M,17.96,KTMT 091315Z AUTO 21004KT 10SM BKN075 BKN085 OVC100 M04/M07 A2976 RMK AO2 T10451066,M
INS,2022-11-09 13:20,-115.6733,36.5872,955.00,42.80,26.60,52.45,240.00,12.00,0.00,29.77,1006.50,10.00,M,CLR,M,M,M,M,M,M,M,M,M,M,M,M,M,M,35.75,KINS 091320Z AUTO 24012KT 10SM CLR 06/M03 A2977 RMK AO2 WSHFT 05 SLP065 $,M
BVU,2022-11-09 13:35,-114.8611,35.9475,671.00,48.20,37.40,66.05,220.00,11.00,0.00,29.85,M,10.00,M,BKN,OVC,M,M,7000.00,9500.00,M,M,M,M,M,M,M,M,M,42.94,KBVU 091335Z AUTO 22011KT 10SM BKN070 OVC095 09/03 A2985 RMK AO2,M
BAM,2022-11-09 13:35,-116.8743,40.5990,1382.36,33.80,28.40,80.36,230.00,9.00,0.00,29.72,M,10.00,M,SCT,SCT,M,M,5500.00,7000.00,M,M,M,M,M,M,M,M,M,25.75,KBAM 091335Z AUTO 23009KT 10SM SCT055 SCT070 01/M02 A2972 RMK AO1,M
CXP,2022-11-09 13:35,-119.7326,39.1923,1431.00,35.60,19.40,51.33,220.00,7.00,0.00,29.77,M,10.00,18.00,BKN,OVC,M,M,3900.00,4800.00,M,M,M,M,M,M,M,M,M,29.17,KCXP 091335Z AUTO 22007G18KT 10SM BKN039 OVC048 02/M07 A2977 RMK AO2,M
05U,2022-11-09 13:35,-116.0051,39.6042,1811.23,24.80,23.00,92.74,0.00,0.00,0.00,29.75,M,10.00,M,CLR,M,M,M,M,M,M,M,M,M,M,M,M,M,M,24.80,K05U 091335Z AUTO 00000KT 10SM CLR M04/M05 A2975 RMK A01,M
RTS,2022-11-09 13:35,-119.8764,39.6682,1539.00,28.40,21.20,74.08,280.00,6.00,0.00,29.77,M,10.00,M,BKN,BKN,OVC,M,4400.00,7500.00,11000.00,M,M,M,M,M,M,M,M,21.19,KRTS 091335Z AUTO 28006KT 10SM BKN044 BKN075 OVC110 M02/M06 A2977 RMK AO2,M
MEV,2022-11-09 13:35,-119.7500,38.9963,1441.42,32.00,17.60,54.87,230.00,14.00,0.00,29.77,M,10.00,M,FEW,SCT,BKN,M,2600.00,3400.00,4000.00,M,M,M,M,M,M,M,M,21.16,KMEV 091335Z AUTO 23014KT 10SM FEW026 SCT034 BKN040 00/M08 A2977 RMK AO2,M
TMT,2022-11-09 13:35,-117.1971,39.4643,1749.34,22.80,19.20,85.84,230.00,7.00,0.00,29.76,M,10.00,M,SCT,BKN,M,M,7500.00,8500.00,M,M,M,M,M,M,M,M,M,13.56,KTMT 091335Z AUTO 23007KT 10SM SCT075 BKN085 M05/M07 A2976 RMK AO2 T10511071,M
LOL,2022-11-09 13:53,-118.5701,40.0684,1192.43,28.00,26.10,92.46,0.00,0.00,0.00,29.77,1010.00,10.00,M,BKN,OVC,M,M,6000.00,8000.00,M,M,M,M,M,M,M,M,M,28.00,KLOL 091353Z AUTO 00000KT 10SM BKN060 OVC080 M02/M03 A2977 RMK AO2 SLP100 T10221033,M
DRA,2022-11-09 13:53,-116.0278,36.6206,1009.00,42.00,28.00,57.08,210.00,13.00,0.00,29.79,1007.50,10.00,19.00,CLR,M,M,M,M,M,M,M,M,M,M,M,26.00,210.00,2022-11-09 13:43,34.51,KDRA 091353Z AUTO 21013G19KT 10SM CLR 06/M02 A2979 RMK AO2 PK WND 21026/1343 SLP075 T00561022,M
P68,2022-11-09 13:53,-116.0056,39.6014,1993.00,24.10,21.00,87.76,230.00,5.00,0.00,29.73,1006.30,M,M,M,M,M,M,M,M,M,M,M,M,M,M,M,M,M,17.01,KP68 091353Z AUTO 23005KT M04/M06 A2973 RMK AO1 SLP063 T10441061,M
ELY,2022-11-09 13:53,-114.8453,39.2950,1909.00,28.00,19.90,71.25,M,3.00,0.00,29.74,1005.90,10.00,M,FEW,M,M,M,6500.00,M,M,M,M,M,M,M,M,M,M,24.12,KELY 091353Z AUTO VRB03KT 10SM FEW065 M02/M07 A2974 RMK AO2 SLP059 T10221067,M
VGT,2022-11-09 13:53,-115.1933,36.2111,667.00,50.00,35.00,56.39,210.00,13.00,0.00,29.81,1010.70,10.00,M,SCT,M,M,M,10000.00,M,M,M,M,M,M,M,M,M,M,50.00,KVGT 091353Z 21013KT 10SM SCT100 10/02 A2981 RMK AO2 SLP107 T01000017,M
TMT,2022-11-09 13:55,-117.1971,39.4643,1749.34,22.60,18.70,84.73,220.00,8.00,0.00,29.77,M,10.00,M,SCT,BKN,M,M,7500.00,8500.00,M,M,M,M,M,M,M,M,M,12.53,KTMT 091355Z AUTO 22008KT 10SM SCT075 BKN085 M05/M07 A2977 RMK AO2 T10521074,M
LSV,2022-11-09 13:55,-115.0343,36.2362,570.00,50.20,37.00,60.10,210.00,16.00,0.00,29.79,1008.10,10.00,M,BKN,M,M,M,10000.00,M,M,M,M,M,M,M,M,M,M,50.20,KLSV 091355Z 21016KT 10SM BKN100 10/03 A2979 RMK AO2A SLP081 T01010027 $,M
INS,2022-11-09 13:55,-115.6733,36.5872,955.00,43.00,25.20,49.11,290.00,8.00,0.00,29.80,1007.60,10.00,M,CLR,M,M,M,M,M,M,M,M,M,M,M,M,M,M,37.66,KINS 091355Z AUTO 29008KT 10SM CLR 06/M04 A2980 RMK AO2 SLP076 T00611038 $,M
BAM,2022-11-09 13:55,-116.8743,40.5990,1382.36,33.80,28.40,80.36,230.00,8.00,0.00,29.73,M,10.00,M,SCT,SCT,BKN,M,5000.00,7000.00,9000.00,M,M,M,M,M,M,M,M,26.33,KBAM 091355Z AUTO 23008KT 10SM SCT050 SCT070 BKN090 01/M02 A2973 RMK AO1,M
MEV,2022-11-09 13:55,-119.7500,38.9963,1441.42,33.80,17.60,51.04,240.00,12.00,0.00,29.79,M,10.00,29.00,FEW,BKN,OVC,M,3200.00,4000.00,5500.00,M,M,M,M,M,M,M,M,24.29,KMEV 091355Z AUTO 24012G29KT 10SM FEW032 BKN040 OVC055 01/M08 A2979 RMK AO2,M
05U,2022-11-09 13:55,-116.0051,39.6042,1811.23,24.80,21.20,85.96,0.00,0.00,0.00,29.76,M,10.00,M,CLR,M,M,M,M,M,M,M,M,M,M,M,M,M,M,24.80,K05U 091355Z AUTO 00000KT 10SM CLR M04/M06 A2976 RMK A01,M
RTS,2022-11-09 13:55,-119.8764,39.6682,1539.00,26.60,21.20,79.77,300.00,5.00,0.00,29.79,M,10.00,M,SCT,BKN,OVC,M,4200.00,4900.00,12000.00,M,M,M,M,M,M,M,M,19.98,KRTS 091355Z AUTO 30005KT 10SM SCT042 BKN049 OVC120 M03/M06 A2979 RMK AO2,M
RNO,2022-11-09 13:55,-119.7711,39.4839,1341.00,30.90,23.00,72.18,70.00,3.00,0.00,29.78,1009.10,10.00,M,BKN,BKN,BKN,M,6000.00,11000.00,18000.00,M,M,M,M,M,M,M,M,27.43,KRNO 091355Z 07003KT 10SM BKN060 BKN110 BKN180 M01/M05 A2978 RMK AO2 SLP091 T10061050 $,M
CXP,2022-11-09 13:55,-119.7326,39.1923,1431.00,33.80,19.40,55.14,210.00,6.00,0.00,29.79,M,10.00,13.00,FEW,BKN,OVC,M,3200.00,4000.00,5000.00,M,M,M,M,M,M,M,M,27.70,KCXP 091355Z AUTO 21006G13KT 10SM FEW032 BKN040 OVC050 01/M07 A2979 RMK AO2,M
BVU,2022-11-09 13:55,-114.8611,35.9475,671.00,48.20,37.40,66.05,220.00,12.00,0.00,29.84,M,10.00,M,SCT,OVC,M,M,7000.00,11000.00,M,M,M,M,M,M,M,M,M,42.62,KBVU 091355Z AUTO 22012KT 10SM SCT070 OVC110 09/03 A2984 RMK AO2,M
HND,2022-11-09 13:56,-115.1344,35.9729,742.79,46.00,35.00,65.52,210.00,21.00,0.00,29.82,1011.20,10.00,M,SCT,BKN,BKN,M,5000.00,9000.00,11000.00,M,M,M,M,M,M,M,M,37.53,KHND 091356Z 21021KT 10SM SCT050 BKN090 BKN110 08/02 A2982 RMK AO2 SLP112 T00780017,M
EKO,2022-11-09 13:56,-115.7860,40.8242,1367.00,30.00,23.00,74.87,220.00,13.00,0.00,29.69,1006.20,10.00,19.00,OVC,M,M,M,5500.00,M,M,M,M,M,M,M,M,M,M,19.01,KEKO 091356Z AUTO 22013G19KT 10SM OVC055 M01/M05 A2969 RMK AO2 SLP062 T10111050,M
TPH,2022-11-09 13:56,-117.0904,38.0505,1654.00,26.10,25.00,95.53,0.00,0.00,0.00,29.79,1010.00,10.00,M,CLR,M,M,M,M,M,M,M,M,M,M,M,M,M,M,26.10,KTPH 091356Z AUTO 00000KT 10SM CLR M03/M04 A2979 RMK AO2 SLP100 T10331039 $,M
NFL,2022-11-09 13:56,-118.7010,39.4166,1199.00,28.90,24.10,82.00,160.00,4.00,0.00,29.79,1006.50,10.00,M,CLR,M,M,M,M,M,M,M,M,M,M,M,M,M,M,23.80,KNFL 091356Z AUTO 16004KT 10SM CLR M02/M04 A2979 RMK AO2 SLP065 T10171044,M
WMC,2022-11-09 13:56,-117.8072,40.9019,1315.00,33.00,27.00,78.03,180.00,11.00,0.00,29.71,1007.10,10.00,M,FEW,SCT,OVC,M,2900.00,3800.00,5000.00,M,M,M,M,M,M,M,M,23.86,KWMC 091356Z AUTO 18011KT 10SM FEW029 SCT038 OVC050 01/M03 A2971 RMK AO2 SLP071 T00061028,M
LAS,2022-11-09 13:56,-115.1634,36.0719,663.00,49.00,34.00,56.23,220.00,13.00,0.00,29.84,1009.80,10.00,21.00,FEW,OVC,M,M,8500.00,11000.00,M,M,M,M,M,M,M,M,M,43.22,KLAS 091356Z 22013G21KT 10SM FEW085 OVC110 09/01 A2984 RMK AO2 SLP098 T00940011,M
TMT,2022-11-09 14:15,-117.1971,39.4643,1749.34,24.40,19.00,79.59,220.00,8.00,0.00,29.78,M,10.00,M,BKN,OVC,M,M,6500.00,9500.00,M,M,M,M,M,M,M,M,M,14.75,KTMT 091415Z AUTO 22008KT 10SM BKN065 OVC095 M04/M07 A2978 RMK AO2 T10421072,M
BAM,2022-11-09 14:15,-116.8743,40.5990,1382.36,33.80,28.40,80.36,230.00,13.00,0.00,29.73,M,10.00,M,SCT,OVC,M,M,7000.00,10000.00,M,M,M,M,M,M,M,M,M,23.87,KBAM 091415Z AUTO 23013KT 10SM SCT070 OVC100 01/M02 A2973 RMK AO1,M
RTS,2022-11-09 14:15,-119.8764,39.6682,1539.00,28.40,21.20,74.08,0.00,0.00,0.00,29.81,M,10.00,M,BKN,BKN,OVC,M,4200.00,4700.00,5500.00,M,M,M,M,M,M,M,M,28.40,KRTS 091415Z AUTO 00000KT 10SM BKN042 BKN047 OVC055 M02/M06 A2981 RMK AO2,M
05U,2022-11-09 14:15,-116.0051,39.6042,1811.23,24.80,21.20,85.96,0.00,0.00,0.00,29.77,M,10.00,M,CLR,M,M,M,M,M,M,M,M,M,M,M,M,M,M,24.80,K05U 091415Z AUTO 00000KT 10SM CLR M04/M06 A2977 RMK A01,M
MEV,2022-11-09 14:15,-119.7500,38.9963,1441.42,33.80,17.60,51.04,230.00,18.00,0.00,29.80,M,10.00,23.00,FEW,SCT,BKN,M,2900.00,3500.00,4100.00,M,M,M,M,M,M,M,M,22.12,KMEV 091415Z AUTO 23018G23KT 10SM FEW029 SCT035 BKN041 01/M08 A2980 RMK AO2,M
BVU,2022-11-09 14:15,-114.8611,35.9475,671.00,48.20,37.40,66.05,210.00,9.00,0.00,29.84,M,10.00,15.00,OVC,M,M,M,11000.00,M,M,M,M,M,M,M,M,M,M,43.66,KBVU 091415Z AUTO 21009G15KT 10SM OVC110 09/03 A2984 RMK AO2,M
CXP,2022-11-09 14:15,-119.7326,39.1923,1431.00,33.80,19.40,55.14,210.00,10.00,0.00,29.80,M,10.00,22.00,FEW,SCT,OVC,M,3500.00,4100.00,5000.00,M,M,M,M,M,M,M,M,25.23,KCXP 091415Z AUTO 21010G22KT 10SM FEW035 SCT041 OVC050 01/M07 A2980 RMK AO2,M
RTS,2022-11-09 14:35,-119.8764,39.6682,1539.00,28.40,21.20,74.08,260.00,5.00,0.00,29.82,M,10.00,M,FEW,SCT,BKN,M,2800.00,3800.00,4400.00,M,-UP,M,M,M,M,M,M,22.12,KRTS 091435Z AUTO 26005KT 10SM -UP FEW028 SCT038 BKN044 M02/M06 A2982 RMK AO2,M
BVU,2022-11-09 14:35,-114.8611,35.9475,671.00,48.20,35.60,61.52,210.00,8.00,0.00,29.86,M,10.00,13.00,SCT,M,M,M,12000.00,M,M,M,M,M,M,M,M,M,M,44.07,KBVU 091435Z AUTO 21008G13KT 10SM SCT120 09/02 A2986 RMK AO2,M
CXP,2022-11-09 14:35,-119.7326,39.1923,1431.00,33.80,19.40,55.14,M,5.00,0.00,29.82,M,10.00,15.00,FEW,SCT,BKN,M,3500.00,4000.00,4800.00,M,M,M,M,M,M,M,M,28.53,KCXP 091435Z AUTO VRB05G15KT 10SM FEW035 SCT040 BKN048 01/M07 A2982 RMK AO2,M
05U,2022-11-09 14:35,-116.0051,39.6042,1811.23,24.80,21.20,85.96,0.00,0.00,0.00,29.78,M,10.00,M,CLR,M,M,M,M,M,M,M,M,M,M,M,M,M,M,24.80,K05U 091435Z AUTO 00000KT 10SM CLR M04/M06 A2978 RMK A01,M
MEV,2022-11-09 14:35,-119.7500,38.9963,1441.42,33.80,19.40,55.14,250.00,12.00,0.00,29.81,M,10.00,22.00,FEW,BKN,BKN,M,3000.00,3700.00,5500.00,M,M,M,M,M,M,M,M,24.29,KMEV 091435Z AUTO 25012G22KT 10SM FEW030 BKN037 BKN055 01/M07 A2981 RMK AO2,M
BAM,2022-11-09 14:35,-116.8743,40.5990,1382.36,33.80,28.40,80.36,220.00,13.00,0.00,29.75,M,10.00,18.00,OVC,M,M,M,10000.00,M,M,M,M,M,M,M,M,M,M,23.87,KBAM 091435Z AUTO 22013G18KT 10SM OVC100 01/M02 A2975 RMK AO1,M
TMT,2022-11-09 14:35,-117.1971,39.4643,1749.34,24.80,19.00,78.27,220.00,7.00,0.00,29.80,M,10.00,M,OVC,M,M,M,6500.00,M,M,M,M,M,M,M,M,M,M,16.00,KTMT 091435Z AUTO 22007KT 10SM OVC065 M04/M07 A2980 RMK AO2 T10401072,M
P68,2022-11-09 14:53,-116.0056,39.6014,1993.00,24.10,21.00,87.76,180.00,3.00,0.00,29.77,1007.50,M,M,M,M,M,M,M,M,M,M,M,M,M,M,M,M,M,19.66,KP68 091453Z AUTO 18003KT M04/M06 A2977 RMK AO1 SLP075 T10441061 53022,M
DRA,2022-11-09 14:53,-116.0278,36.6206,1009.00,43.00,30.00,59.83,220.00,9.00,0.00,29.83,1008.80,10.00,M,CLR,M,M,M,M,M,M,M,M,M,M,M,M,M,M,37.19,KDRA 091453Z AUTO 22009KT 10SM CLR 06/M01 A2983 RMK AO2 SLP088 T00611011 53023,M
VGT,2022-11-09 14:53,-115.1933,36.2111,667.00,50.00,30.90,47.64,250.00,8.00,0.00,29.85,1012.00,10.00,20.00,CLR,M,M,M,M,M,M,M,M,M,M,M,30.00,200.00,2022-11-09 14:32,50.00,KVGT 091453Z 25008G20KT 10SM CLR 10/M01 A2985 RMK AO2 PK WND 20030/1432 SLP120 T01001006 53014,M
ELY,2022-11-09 14:53,-114.8453,39.2950,1909.00,26.10,21.00,80.75,0.00,0.00,0.00,29.77,1007.50,10.00,M,CLR,M,M,M,M,M,M,M,M,M,M,M,M,M,M,26.10,KELY 091453Z AUTO 00000KT 10SM CLR M03/M06 A2977 RMK AO2 SLP075 T10331061 53023,M
LOL,2022-11-09 14:53,-118.5701,40.0684,1192.43,28.90,26.10,89.12,170.00,7.00,0.00,29.80,1011.00,10.00,M,BKN,OVC,M,M,6500.00,8000.00,M,M,M,M,M,M,M,M,M,21.00,KLOL 091453Z AUTO 17007KT 10SM BKN065 OVC080 M02/M03 A2980 RMK AO2 SLP110 T10171033 53025,M
05U,2022-11-09 14:55,-116.0051,39.6042,1811.23,23.00,21.20,92.69,0.00,0.00,0.00,29.79,M,10.00,M,FEW,SCT,BKN,M,4600.00,6000.00,7000.00,M,M,M,M,M,M,M,M,23.00,K05U 091455Z AUTO 00000KT 10SM FEW046 SCT060 BKN070 M05/M06 A2979 RMK A01,M
LSV,2022-11-09 14:55,-115.0343,36.2362,570.00,49.00,35.80,59.95,200.00,11.00,0.00,29.82,1009.00,10.00,M,SCT,M,M,M,12000.00,M,M,M,M,M,M,M,M,M,M,44.08,KLSV 091455Z 20011KT 10SM SCT120 10/02 A2982 RMK AO2A SLP090 T00950021 53014 $,M
INS,2022-11-09 14:55,-115.6733,36.5872,955.00,41.20,27.50,57.89,310.00,10.00,0.00,29.83,1009.10,10.00,M,CLR,M,M,M,M,M,M,M,M,M,M,M,M,M,M,34.50,KINS 091455Z AUTO 31010KT 10SM CLR 05/M02 A2983 RMK AO2 SLP091 T00511025 52020 $,M
BVU,2022-11-09 14:55,-114.8611,35.9475,671.00,48.20,33.80,57.26,210.00,11.00,0.00,29.86,M,10.00,M,CLR,M,M,M,M,M,M,M,M,M,M,M,M,M,M,42.94,KBVU 091455Z AUTO 21011KT 10SM CLR 09/01 A2986 RMK AO2,M
CXP,2022-11-09 14:55,-119.7326,39.1923,1431.00,33.80,21.20,59.53,210.00,7.00,0.00,29.84,M,10.00,M,SCT,BKN,OVC,M,2500.00,3300.00,5500.00,M,M,M,M,M,M,M,M,26.97,KCXP 091455Z AUTO 21007KT 180V250 10SM SCT025 BKN033 OVC055 01/M06 A2984 RMK AO2,M
RTS,2022-11-09 14:55,-119.8764,39.6682,1539.00,28.40,23.00,79.92,290.00,13.00,0.00,29.83,M,10.00,M,FEW,SCT,BKN,M,2700.00,3500.00,11000.00,M,-UP,M,M,M,M,M,M,16.96,KRTS 091455Z AUTO 29013KT 10SM -UP FEW027 SCT035 BKN110 M02/M05 A2983 RMK AO2,M
MEV,2022-11-09 14:55,-119.7500,38.9963,1441.42,33.80,19.40,55.14,240.00,16.00,0.00,29.83,M,10.00,22.00,FEW,FEW,M,M,3800.00,4400.00,M,M,M,M,M,M,M,M,M,22.76,KMEV 091455Z AUTO 24016G22KT 10SM FEW038 FEW044 01/M07 A2983 RMK AO2,M
BAM,2022-11-09 14:55,-116.8743,40.5990,1382.36,35.60,26.60,69.46,220.00,16.00,0.00,29.76,M,10.00,M,OVC,M,M,M,10000.00,M,M,M,M,M,M,M,M,M,M,25.11,KBAM 091455Z AUTO 22016KT 10SM OVC100 02/M03 A2976 RMK AO1,M
TMT,2022-11-09 14:55,-117.1971,39.4643,1749.34,24.80,19.40,79.62,210.00,7.00,0.00,29.81,M,10.00,M,OVC,M,M,M,6500.00,M,M,M,M,M,M,M,M,M,M,16.00,KTMT 091455Z AUTO 21007KT 10SM OVC065 M04/M07 A2981 RMK AO2 T10401070,M
RNO,2022-11-09 14:55,-119.7711,39.4839,1341.00,33.00,23.00,66.06,310.00,6.00,0.00,29.83,1010.50,10.00,M,SCT,BKN,BKN,BKN,6000.00,9000.00,11000.00,18000.00,M,M,M,M,M,M,M,26.86,KRNO 091455Z 31006KT 10SM SCT060 BKN090 BKN110 BKN180 01/M05 A2983 RMK AO2 SLP105 MTN TOPS OBSCD DSNT SW THRU NW T00061050 53034 $,M
WMC,2022-11-09 14:56,-117.8072,40.9019,1315.00,33.00,27.00,78.03,220.00,9.00,T,29.75,1008.40,9.00,19.00,OVC,M,M,M,4900.00,M,M,M,M,M,M,M,M,M,M,24.88,KWMC 091456Z AUTO 22009G19KT 9SM OVC049 01/M03 A2975 RMK AO2 SNB42E52 SLP084 P0000 60000 T00061028 53023,M
NFL,2022-11-09 14:56,-118.7010,39.4166,1199.00,30.00,25.00,81.40,0.00,0.00,0.00,29.83,1007.80,10.00,M,FEW,BKN,BKN,M,7000.00,10000.00,12000.00,M,M,M,M,M,M,M,M,30.00,KNFL 091456Z 00000KT 10SM FEW070 BKN100 BKN120 M01/M04 A2983 RMK AO2 SLP078 T10111039 53029,M
LAS,2022-11-09 14:56,-115.1634,36.0719,663.00,48.00,33.00,56.10,220.00,14.00,0.00,29.82,1009.00,10.00,24.00,FEW,SCT,M,M,5500.00,8500.00,M,M,M,M,M,M,M,M,M,41.79,KLAS 091456Z 22014G24KT 10SM FEW055 SCT085 09/01 A2982 RMK AO2 SLP090 T00890006 58001,M
HND,2022-11-09 14:56,-115.1344,35.9729,742.79,46.00,34.00,62.71,220.00,19.00,0.00,29.87,1012.80,10.00,M,CLR,M,M,M,M,M,M,M,M,M,M,M,26.00,220.00,2022-11-09 14:42,37.95,KHND 091456Z 22019KT 10SM CLR 08/01 A2987 RMK AO2 PK WND 22026/1442 SLP128 60000 T00780011 53012,M
TPH,2022-11-09 14:56,-117.0904,38.0505,1654.00,27.00,25.00,92.05,0.00,0.00,0.00,29.83,1010.90,10.00,M,CLR,M,M,M,M,M,M,M,M,M,M,M,M,M,M,27.00,KTPH 091456Z AUTO 00000KT 10SM CLR M03/M04 A2983 RMK AO2 SLP109 T10281039 53025 $,M
EKO,2022-11-09 14:56,-115.7860,40.8242,1367.00,32.00,23.00,69.04,220.00,14.00,0.00,29.73,1007.30,10.00,20.00,SCT,OVC,M,M,4800.00,7000.00,M,M,M,M,M,M,M,M,M,21.16,KEKO 091456Z AUTO 22014G20KT 10SM SCT048 OVC070 00/M05 A2973 RMK AO2 SLP073 T00001050 53024,M
CXP,2022-11-09 15:15,-119.7326,39.1923,1431.00,33.80,19.40,55.14,0.00,0.00,0.00,29.86,M,10.00,M,FEW,BKN,OVC,M,2700.00,4700.00,5500.00,M,M,M,M,M,M,M,M,33.80,KCXP 091515Z AUTO 00000KT 10SM FEW027 BKN047 OVC055 01/M07 A2986 RMK AO2,M
RTS,2022-11-09 15:15,-119.8764,39.6682,1539.00,30.20,23.00,74.26,280.00,11.00,0.00,29.84,M,10.00,16.00,FEW,BKN,BKN,M,3100.00,7000.00,11000.00,M,M,M,M,M,M,M,M,20.19,KRTS 091515Z AUTO 28011G16KT 10SM FEW031 BKN070 BKN110 M01/M05 A2984 RMK AO2,M
05U,2022-11-09 15:15,-116.0051,39.6042,1811.23,24.80,23.00,92.74,0.00,0.00,0.00,29.80,M,10.00,M,SCT,SCT,M,M,6000.00,7500.00,M,M,M,M,M,M,M,M,M,24.80,K05U 091515Z AUTO 00000KT 10SM SCT060 SCT075 M04/M05 A2980 RMK A01,M
MEV,2022-11-09 15:15,-119.7500,38.9963,1441.42,32.00,19.40,59.27,140.00,6.00,0.00,29.85,M,10.00,M,CLR,M,M,M,M,M,M,M,M,M,M,M,M,M,M,25.53,KMEV 091515Z AUTO 14006KT 10SM CLR 00/M07 A2985 RMK AO2,M
BAM,2022-11-09 15:15,-116.8743,40.5990,1382.36,35.60,26.60,69.46,220.00,15.00,0.00,29.77,M,10.00,21.00,SCT,BKN,OVC,M,3300.00,7500.00,10000.00,M,M,M,M,M,M,M,M,25.45,KBAM 091515Z AUTO 22015G21KT 10SM SCT033 BKN075 OVC100 02/M03 A2977 RMK AO1,M
TMT,2022-11-09 15:15,-117.1971,39.4643,1749.34,25.70,19.90,78.35,210.00,9.00,0.00,29.81,M,10.00,M,BKN,BKN,BKN,M,6500.00,7500.00,8500.00,M,M,M,M,M,M,M,M,15.68,KTMT 091515Z AUTO 21009KT 10SM BKN065 BKN075 BKN085 M03/M07 A2981 RMK AO2 T10351067,M
VGT,2022-11-09 15:15,-115.1933,36.2111,667.00,51.00,30.00,44.09,210.00,15.00,0.00,29.83,M,10.00,28.00,CLR,M,M,M,M,M,M,M,M,M,M,M,28.00,200.00,2022-11-09 15:09,51.10,KVGT 091515Z 21015G28KT 10SM CLR 11/M01 A2983 RMK AO2 PK WND 20028/1509 WSHFT 1455 T01061011,M
BVU,2022-11-09 15:15,-114.8611,35.9475,671.00,48.20,32.00,53.27,230.00,13.00,0.00,29.87,M,10.00,21.00,CLR,M,M,M,M,M,M,M,M,M,M,M,M,M,M,42.32,KBVU 091515Z AUTO 23013G21KT 10SM CLR 09/00 A2987 RMK AO2,M
NFL,2022-11-09 15:18,-118.7010,39.4166,1199.00,30.00,26.10,85.21,250.00,6.00,0.00,29.85,M,10.00,M,SCT,BKN,BKN,M,5000.00,9000.00,12000.00,M,M,M,M,M,M,M,M,23.12,KNFL 091518Z 25006KT 10SM SCT050 BKN090 BKN120 M01/M03 A2985 RMK AO2 IR// T10111033,M
MEV,2022-11-09 15:35,-119.7500,38.9963,1441.42,30.20,21.20,68.83,110.00,6.00,0.00,29.86,M,10.00,M,FEW,M,M,M,5500.00,M,M,M,M,M,M,M,M,M,M,23.36,KMEV 091535Z AUTO 11006KT 10SM FEW055 M01/M06 A2986 RMK AO2,M
05U,2022-11-09 15:35,-116.0051,39.6042,1811.23,26.60,23.00,86.07,0.00,0.00,0.00,29.81,M,10.00,M,FEW,FEW,M,M,6000.00,7500.00,M,M,M,M,M,M,M,M,M,26.60,K05U 091535Z AUTO 00000KT 10SM FEW060 FEW075 M03/M05 A2981 RMK A01,M
RTS,2022-11-09 15:35,-119.8764,39.6682,1539.00,30.20,23.00,74.26,270.00,12.00,0.00,29.85,M,10.00,M,BKN,BKN,M,M,7000.00,8000.00,M,M,-UP,M,M,M,M,M,M,19.71,KRTS 091535Z AUTO 27012KT 10SM -UP BKN070 BKN080 M01/M05 A2985 RMK AO2,M
CXP,2022-11-09 15:35,-119.7326,39.1923,1431.00,35.60,21.20,55.41,0.00,0.00,0.00,29.87,M,10.00,M,BKN,OVC,M,M,4800.00,5500.00,M,M,M,M,M,M,M,M,M,35.60,KCXP 091535Z AUTO 00000KT 10SM BKN048 OVC055 02/M06 A2987 RMK AO2,M
BVU,2022-11-09 15:35,-114.8611,35.9475,671.00,48.20,33.80,57.26,210.00,16.00,0.00,29.87,M,10.00,M,CLR,M,M,M,M,M,M,M,M,M,M,M,M,M,M,41.53,KBVU 091535Z AUTO 21016KT 10SM CLR 09/01 A2987 RMK AO2,M
BAM,2022-11-09 15:35,-116.8743,40.5990,1382.36,35.60,26.60,69.46,220.00,17.00,0.00,29.77,M,10.00,23.00,SCT,BKN,OVC,M,3600.00,4100.00,8000.00,M,M,M,M,M,M,M,M,24.79,KBAM 091535Z AUTO 22017G23KT 10SM SCT036 BKN041 OVC080 02/M03 A2977 RMK AO1,M
TMT,2022-11-09 15:35,-117.1971,39.4643,1749.34,27.70,19.60,71.22,220.00,7.00,0.00,29.83,M,10.00,M,BKN,BKN,M,M,6500.00,8500.00,M,M,M,M,M,M,M,M,M,19.54,KTMT 091535Z AUTO 22007KT 10SM BKN065 BKN085 M02/M07 A2983 RMK AO2 T10241069,M
WMC,2022-11-09 15:50,-117.8072,40.9019,1315.00,33.80,28.40,80.36,230.00,11.00,T,29.78,M,1.75,M,BKN,OVC,M,M,3400.00,4200.00,M,M,-SN,M,M,M,M,M,M,24.74,KWMC 091550Z AUTO 23011KT 1 3/4SM -SN BKN034 OVC042 01/M02 A2978 RMK AO2 SNB18 P0000,M
ELY,2022-11-09 15:53,-114.8453,39.2950,1909.00,28.90,23.00,78.30,0.00,0.00,0.00,29.80,1008.40,10.00,M,CLR,M,M,M,M,M,M,M,M,M,M,M,M,M,M,28.90,KELY 091553Z AUTO 00000KT 10SM CLR M02/M05 A2980 RMK AO2 SLP084 T10171050,M
P68,2022-11-09 15:53,-116.0056,39.6014,1993.00,27.00,21.90,80.83,190.00,7.00,0.00,29.79,1008.30,M,M,M,M,M,M,M,M,M,M,M,M,M,M,M,M,M,18.68,KP68 091553Z AUTO 19007KT M03/M06 A2979 RMK AO1 SLP083 T10281056,M
DRA,2022-11-09 15:53,-116.0278,36.6206,1009.00,45.00,30.90,57.50,240.00,9.00,0.00,29.87,1010.20,10.00,M,CLR,M,M,M,M,M,M,M,M,M,M,M,M,M,M,39.68,KDRA 091553Z AUTO 24009KT 10SM CLR 07/M01 A2987 RMK AO2 SLP102 T00721006,M
LOL,2022-11-09 15:53,-118.5701,40.0684,1192.43,30.90,27.00,85.26,150.00,6.00,0.00,29.84,1012.00,10.00,M,FEW,OVC,M,M,5500.00,8000.00,M,M,M,M,M,M,M,M,M,24.21,KLOL 091553Z AUTO 15006KT 10SM FEW055 OVC080 M01/M03 A2984 RMK AO2 SLP120 T10061028,M
VGT,2022-11-09 15:53,-115.1933,36.2111,667.00,53.00,27.00,36.22,240.00,14.00,0.00,29.84,1011.80,10.00,25.00,CLR,M,M,M,M,M,M,M,M,M,M,M,31.00,230.00,2022-11-09 15:39,53.10,KVGT 091553Z 24014G25KT 10SM CLR 12/M03 A2984 RMK AO2 PK WND 23031/1539 WSHFT 1455 SLP118 T01171028,M
LSV,2022-11-09 15:55,-115.0343,36.2362,570.00,52.50,34.00,49.20,200.00,21.00,0.00,29.83,1009.40,10.00,M,CLR,M,M,M,M,M,M,M,M,M,M,M,27.00,210.00,2022-11-09 15:49,52.50,KLSV 091555Z AUTO 20021KT 10SM CLR 11/01 A2983 RMK AO2 PK WND 21027/49 SLP094 T01140011 $,M
BAM,2022-11-09 15:55,-116.8743,40.5990,1382.36,35.60,26.60,69.46,240.00,13.00,0.00,29.79,M,10.00,18.00,BKN,OVC,M,M,3600.00,4400.00,M,M,M,M,M,M,M,M,M,26.18,KBAM 091555Z AUTO 24013G18KT 10SM BKN036 OVC044 02/M03 A2979 RMK AO1,M
MEV,2022-11-09 15:55,-119.7500,38.9963,1441.42,32.00,21.20,63.99,0.00,0.00,0.00,29.88,M,10.00,M,FEW,M,M,M,5000.00,M,M,M,M,M,M,M,M,M,M,32.00,KMEV 091555Z AUTO 00000KT 10SM FEW050 00/M06 A2988 RMK AO2,M
INS,2022-11-09 15:55,-115.6733,36.5872,955.00,46.20,27.10,47.03,10.00,7.00,0.00,29.87,1010.20,10.00,M,CLR,M,M,M,M,M,M,M,M,M,M,M,M,M,M,42.09,KINS 091555Z AUTO 01007KT 10SM CLR 08/M03 A2987 RMK AO2 SLP102 T00791027 $,M
TMT,2022-11-09 15:55,-117.1971,39.4643,1749.34,26.60,20.10,76.13,220.00,8.00,0.00,29.84,M,10.00,M,SCT,OVC,M,M,6500.00,8500.00,M,M,M,M,M,M,M,M,M,17.46,KTMT 091555Z AUTO 22008KT 10SM SCT065 OVC085 M03/M07 A2984 RMK AO2 T10301066,M
RNO,2022-11-09 15:55,-119.7711,39.4839,1341.00,34.00,24.10,66.72,200.00,8.00,0.00,29.87,1011.90,10.00,M,SCT,BKN,BKN,M,6000.00,9000.00,15000.00,M,M,M,M,M,M,M,M,26.58,KRNO 091555Z 20008KT 10SM SCT060 BKN090 BKN150 01/M04 A2987 RMK AO2 SLP119 CLDS TPG MTNS SW THRU NW T00111044,M
RTS,2022-11-09 15:55,-119.8764,39.6682,1539.00,28.40,23.00,79.92,260.00,11.00,0.00,29.86,M,10.00,M,FEW,M,M,M,7000.00,M,M,M,M,M,M,M,M,M,M,17.92,KRTS 091555Z AUTO 26011KT 10SM FEW070 M02/M05 A2986 RMK AO2,M
BVU,2022-11-09 15:55,-114.8611,35.9475,671.00,50.00,33.80,53.54,230.00,14.00,0.00,29.90,M,10.00,19.00,CLR,M,M,M,M,M,M,M,M,M,M,M,M,M,M,50.00,KBVU 091555Z AUTO 23014G19KT 10SM CLR 10/01 A2990 RMK AO2,M
CXP,2022-11-09 15:55,-119.7326,39.1923,1431.00,35.60,21.20,55.41,M,6.00,0.00,29.88,M,10.00,11.00,FEW,BKN,OVC,M,4300.00,4900.00,5500.00,M,M,M,M,M,M,M,M,29.87,KCXP 091555Z AUTO VRB06G11KT 10SM FEW043 BKN049 OVC055 02/M06 A2988 RMK AO2,M
05U,2022-11-09 15:55,-116.0051,39.6042,1811.23,28.40,23.00,79.92,0.00,0.00,0.00,29.81,M,10.00,M,CLR,M,M,M,M,M,M,M,M,M,M,M,M,M,M,28.40,K05U 091555Z AUTO 00000KT 10SM CLR M02/M05 A2981 RMK A01,M
HND,2022-11-09 15:56,-115.1344,35.9729,742.79,49.00,30.90,49.63,220.00,16.00,0.00,29.90,1013.60,10.00,M,FEW,M,M,M,5000.00,M,M,M,M,M,M,M,31.00,220.00,2022-11-09 15:23,42.45,KHND 091556Z 22016KT 10SM FEW050 09/M01 A2990 RMK AO2 PK WND 22031/1523 PRESRR SLP136 T00941006,M
EKO,2022-11-09 15:56,-115.7860,40.8242,1367.00,32.00,24.10,72.30,220.00,12.00,T,29.75,1008.70,10.00,M,SCT,OVC,M,M,4400.00,5500.00,M,M,M,M,M,M,M,M,M,22.00,KEKO 091556Z AUTO 22012KT 10SM SCT044 OVC055 00/M04 A2975 RMK AO2 SNB20E29 SLP087 P0000 T00001044,M
TPH,2022-11-09 15:56,-117.0904,38.0505,1654.00,30.90,28.00,88.84,350.00,3.00,0.00,29.86,1011.60,10.00,M,CLR,M,M,M,M,M,M,M,M,M,M,M,M,M,M,27.43,KTPH 091556Z AUTO 35003KT 10SM CLR M01/M02 A2986 RMK AO2 SLP116 T10061022 $,M
LAS,2022-11-09 15:56,-115.1634,36.0719,663.00,50.00,32.00,49.81,230.00,13.00,0.00,29.88,1011.20,10.00,27.00,FEW,FEW,SCT,M,5000.00,7500.00,18000.00,M,M,M,M,M,29.00,200.00,2022-11-09 15:02,50.00,KLAS 091556Z 23013G27KT 10SM FEW050 FEW075 SCT180 10/00 A2988 RMK AO2 PK WND 20029/1502 SLP112 T01000000,M
WMC,2022-11-09 15:56,-117.8072,40.9019,1315.00,33.00,28.00,81.30,230.00,7.00,T,29.79,1009.60,2.50,M,BKN,OVC,M,M,3000.00,4200.00,M,M,-SN,M,M,M,M,M,M,26.12,KWMC 091556Z AUTO 23007KT 2 1/2SM -SN BKN030 OVC042 01/M02 A2979 RMK AO2 SNB18 SLP096 P0000 T00061022,M
NFL,2022-11-09 15:56,-118.7010,39.4166,1199.00,33.00,25.00,71.82,0.00,0.00,0.00,29.87,1008.90,10.00,M,SCT,BKN,BKN,M,5000.00,9000.00,12000.00,M,M,M,M,M,M,M,M,33.10,KNFL 091556Z 00000KT 10SM SCT050 BKN090 BKN120 01/M04 A2987 RMK AO2 SLP089 IR// T00061039,M
WMC,2022-11-09 16:00,-117.8072,40.9019,1315.00,33.00,28.90,84.36,210.00,6.00,T,29.79,M,4.00,M,BKN,OVC,M,M,2800.00,4000.00,M,M,-SN BR,M,M,M,M,M,M,26.86,KWMC 091600Z AUTO 21006KT 4SM -SN BR BKN028 OVC040 01/M02 A2979 RMK AO2 P0000 T00061017,M
TMT,2022-11-09 16:15,-117.1971,39.4643,1749.34,27.50,20.30,73.98,210.00,7.00,0.00,29.85,M,10.00,M,SCT,BKN,OVC,M,5500.00,7500.00,8500.00,M,M,M,M,M,M,M,M,19.29,KTMT 091615Z AUTO 21007KT 10SM SCT055 BKN075 OVC085 M02/M06 A2985 RMK AO2 T10251065,M
BVU,2022-11-09 16:15,-114.8611,35.9475,671.00,51.80,33.80,50.08,220.00,14.00,0.00,29.91,M,10.00,M,CLR,M,M,M,M,M,M,M,M,M,M,M,M,M,M,51.80,KBVU 091615Z AUTO 22014KT 10SM CLR 11/01 A2991 RMK AO2,M
CXP,2022-11-09 16:15,-119.7326,39.1923,1431.00,35.60,21.20,55.41,250.00,10.00,0.00,29.89,M,10.00,16.00,BKN,BKN,BKN,M,4700.00,5500.00,7000.00,M,M,M,M,M,M,M,M,27.48,KCXP 091615Z AUTO 25010G16KT 180V270 10SM BKN047 BKN055 BKN070 02/M06 A2989 RMK AO2,M
RTS,2022-11-09 16:15,-119.8764,39.6682,1539.00,30.20,24.80,80.07,260.00,8.00,0.00,29.88,M,10.00,M,CLR,M,M,M,M,M,M,M,M,M,M,M,M,M,M,21.90,KRTS 091615Z AUTO 26008KT 10SM CLR M01/M04 A2988 RMK AO2,M
05U,2022-11-09 16:15,-116.0051,39.6042,1811.23,30.20,23.00,74.26,200.00,5.00,0.00,29.82,M,10.00,M,CLR,M,M,M,M,M,M,M,M,M,M,M,M,M,M,24.26,K05U 091615Z AUTO 20005KT 10SM CLR M01/M05 A2982 RMK A01,M
MEV,2022-11-09 16:15,-119.7500,38.9963,1441.42,35.60,21.20,55.41,M,3.00,0.00,29.89,M,10.00,M,FEW,M,M,M,5000.00,M,M,M,M,M,M,M,M,M,M,32.80,KMEV 091615Z AUTO VRB03KT 10SM FEW050 02/M06 A2989 RMK AO2,M
BAM,2022-11-09 16:15,-116.8743,40.5990,1382.36,35.60,26.60,69.46,230.00,15.00,0.00,29.80,M,10.00,M,SCT,BKN,OVC,M,3500.00,4100.00,4700.00,M,M,M,M,M,M,M,M,25.45,KBAM 091615Z AUTO 23015KT 10SM SCT035 BKN041 OVC047 02/M03 A2980 RMK AO1,M
WMC,2022-11-09 16:26,-117.8072,40.9019,1315.00,33.00,28.90,84.36,200.00,8.00,T,29.80,M,2.00,M,OVC,M,M,M,2200.00,M,M,M,-SN BR,M,M,M,M,M,M,25.47,KWMC 091626Z AUTO 20008KT 2SM -SN BR OVC022 01/M02 A2980 RMK AO2 P0000 T00061017,M
BAM,2022-11-09 16:35,-116.8743,40.5990,1382.36,35.60,26.60,69.46,240.00,12.00,0.00,29.81,M,10.00,M,BKN,OVC,M,M,4000.00,4600.00,M,M,M,M,M,M,M,M,M,26.58,KBAM 091635Z AUTO 24012KT 10SM BKN040 OVC046 02/M03 A2981 RMK AO1,M
TMT,2022-11-09 16:35,-117.1971,39.4643,1749.34,28.90,21.00,71.96,210.00,10.00,0.00,29.86,M,10.00,M,SCT,SCT,BKN,M,4000.00,4600.00,7500.00,M,M,M,M,M,M,M,M,19.08,KTMT 091635Z AUTO 21010KT 10SM SCT040 SCT046 BKN075 M02/M06 A2986 RMK AO2 T10171061,M
BVU,2022-11-09 16:35,-114.8611,35.9475,671.00,51.80,32.00,46.59,210.00,14.00,0.00,29.90,M,10.00,M,CLR,M,M,M,M,M,M,M,M,M,M,M,M,M,M,51.80,KBVU 091635Z AUTO 21014KT 10SM CLR 11/00 A2990 RMK AO2,M
MEV,2022-11-09 16:35,-119.7500,38.9963,1441.42,33.80,19.40,55.14,220.00,10.00,0.00,29.90,M,10.00,M,FEW,SCT,M,M,4800.00,5500.00,M,M,M,M,M,M,M,M,M,25.23,KMEV 091635Z AUTO 22010KT 10SM FEW048 SCT055 01/M07 A2990 RMK AO2,M
RTS,2022-11-09 16:35,-119.8764,39.6682,1539.00,32.00,23.00,69.04,250.00,9.00,0.00,29.89,M,10.00,M,CLR,M,M,M,M,M,M,M,M,M,M,M,M,M,M,23.51,KRTS 091635Z AUTO 25009KT 10SM CLR M00/M05 A2989 RMK AO2,M
05U,2022-11-09 16:35,-116.0051,39.6042,1811.23,32.00,19.40,59.27,0.00,0.00,0.00,29.82,M,10.00,M,CLR,M,M,M,M,M,M,M,M,M,M,M,M,M,M,32.00,K05U 091635Z AUTO 00000KT 10SM CLR 00/M07 A2982 RMK A01,M
CXP,2022-11-09 16:35,-119.7326,39.1923,1431.00,35.60,23.00,59.79,M,5.00,0.00,29.90,M,10.00,10.00,BKN,OVC,M,M,4900.00,6000.00,M,M,M,M,M,M,M,M,M,30.67,KCXP 091635Z AUTO VRB05G10KT 10SM BKN049 OVC060 02/M05 A2990 RMK AO2,M
WMC,2022-11-09 16:41,-117.8072,40.9019,1315.00,33.00,28.90,84.36,220.00,8.00,T,29.80,M,6.00,M,OVC,M,M,M,2400.00,M,M,M,-SN BR,M,M,M,M,M,M,25.47,KWMC 091641Z AUTO 22008KT 6SM -SN BR OVC024 01/M02 A2980 RMK AO2 P0000 T00061017,M
VGT,2022-11-09 16:41,-115.1933,36.2111,667.00,55.00,27.00,33.79,320.00,11.00,0.00,29.88,M,10.00,M,CLR,M,M,M,M,M,M,M,M,M,M,M,M,M,M,55.00,KVGT 091641Z 32011KT 10SM CLR 13/M03 A2988 RMK AO2 WSHFT 1621 T01281028,M
ELY,2022-11-09 16:53,-114.8453,39.2950,1909.00,30.90,24.10,75.59,80.00,3.00,0.00,29.81,1008.60,10.00,M,CLR,M,M,M,M,M,M,M,M,M,M,M,M,M,M,27.43,KELY 091653Z AUTO 08003KT 10SM CLR M01/M04 A2981 RMK AO2 SLP086 T10061044,M
LOL,2022-11-09 16:53,-118.5701,40.0684,1192.43,33.00,30.00,88.23,210.00,7.00,0.00,29.87,1013.30,10.00,M,OVC,M,M,M,6000.00,M,M,M,M,M,M,M,M,M,M,26.12,KLOL 091653Z AUTO 21007KT 10SM OVC060 01/M01 A2987 RMK AO2 SLP133 T00061011,M
P68,2022-11-09 16:53,-116.0056,39.6014,1993.00,33.00,19.90,57.93,0.00,0.00,0.00,29.81,1008.70,M,M,M,M,M,M,M,M,M,M,M,M,M,M,M,M,M,33.10,KP68 091653Z AUTO 00000KT 01/M07 A2981 RMK AO1 SLP087 T00061067,M
DRA,2022-11-09 16:53,-116.0278,36.6206,1009.00,48.00,26.10,42.17,230.00,9.00,0.00,29.90,1011.10,10.00,23.00,CLR,M,M,M,M,M,M,M,M,M,M,M,M,M,M,43.41,KDRA 091653Z AUTO 23009G23KT 10SM CLR 09/M03 A2990 RMK AO2 SLP111 T00891033,M
VGT,2022-11-09 16:53,-115.1933,36.2111,667.00,55.00,27.00,33.79,300.00,12.00,0.00,29.88,1013.20,10.00,M,CLR,M,M,M,M,M,M,M,M,M,M,M,M,M,M,55.00,KVGT 091653Z 30012KT 10SM CLR 13/M03 A2988 RMK AO2 WSHFT 1621 SLP132 T01281028,M
05U,2022-11-09 16:55,-116.0051,39.6042,1811.23,33.80,19.40,55.14,0.00,0.00,0.00,29.84,M,10.00,M,FEW,M,M,M,6000.00,M,M,M,M,M,M,M,M,M,M,33.80,K05U 091655Z AUTO 00000KT 10SM FEW060 01/M07 A2984 RMK A01,M
INS,2022-11-09 16:55,-115.6733,36.5872,955.00,49.00,26.80,41.97,300.00,7.00,0.00,29.89,1010.90,10.00,M,CLR,M,M,M,M,M,M,M,M,M,M,M,M,M,M,45.38,KINS 091655Z AUTO 30007KT 10SM CLR 09/M03 A2989 RMK AO2 SLP109 T00941029 $,M
RNO,2022-11-09 16:55,-119.7711,39.4839,1341.00,39.00,25.00,56.86,220.00,6.00,0.00,29.90,1012.60,10.00,M,SCT,SCT,BKN,M,6000.00,9500.00,15000.00,M,M,M,M,M,M,M,M,33.96,KRNO 091655Z 22006KT 10SM SCT060 SCT095 BKN150 04/M04 A2990 RMK AO2 SLP126 CLDS TPG MTNS SW THRU NW T00391039,M
BVU,2022-11-09 16:55,-114.8611,35.9475,671.00,53.60,32.00,43.61,180.00,11.00,0.00,29.92,M,10.00,M,CLR,M,M,M,M,M,M,M,M,M,M,M,M,M,M,53.60,KBVU 091655Z AUTO 18011KT 10SM CLR 12/M00 A2992 RMK AO2,M
CXP,2022-11-09 16:55,-119.7326,39.1923,1431.00,35.60,23.00,59.79,150.00,6.00,0.00,29.91,M,9.00,M,OVC,M,M,M,4700.00,M,M,M,-RA,M,M,M,M,M,M,29.87,KCXP 091655Z AUTO 15006KT 9SM -RA OVC047 02/M05 A2991 RMK AO2,M
BAM,2022-11-09 16:55,-116.8743,40.5990,1382.36,35.60,26.60,69.46,220.00,12.00,0.00,29.81,M,10.00,16.00,BKN,OVC,M,M,3800.00,4800.00,M,M,M,M,M,M,M,M,M,26.58,KBAM 091655Z AUTO 22012G16KT 10SM BKN038 OVC048 02/M03 A2981 RMK AO1,M
TMT,2022-11-09 16:55,-117.1971,39.4643,1749.34,30.40,21.40,68.85,220.00,9.00,0.00,29.87,M,10.00,M,SCT,BKN,M,M,4600.00,7000.00,M,M,M,M,M,M,M,M,M,21.52,KTMT 091655Z AUTO 22009KT 10SM SCT046 BKN070 M01/M06 A2987 RMK AO2 T10091059,M
RTS,2022-11-09 16:55,-119.8764,39.6682,1539.00,32.00,23.00,69.04,260.00,10.00,0.00,29.90,M,10.00,M,CLR,M,M,M,M,M,M,M,M,M,M,M,M,M,M,22.97,KRTS 091655Z AUTO 26010KT 10SM CLR 00/M05 A2990 RMK AO2,M
LSV,2022-11-09 16:55,-115.0343,36.2362,570.00,54.00,33.80,46.03,190.00,16.00,0.00,29.86,1010.60,10.00,M,CLR,M,M,M,M,M,M,M,M,M,M,M,M,M,M,54.10,KLSV 091655Z AUTO 19016KT 10SM CLR 12/01 A2986 RMK AO2 SLP106 T01230010 $,M
MEV,2022-11-09 16:55,-119.7500,38.9963,1441.42,32.00,23.00,69.04,110.00,5.00,0.00,29.90,M,10.00,M,FEW,SCT,BKN,M,2400.00,4100.00,5500.00,M,M,M,M,M,M,M,M,26.40,KMEV 091655Z AUTO 11005KT 10SM FEW024 SCT041 BKN055 00/M05 A2990 RMK AO2,M
LAS,2022-11-09 16:56,-115.1634,36.0719,663.00,53.00,27.00,36.22,230.00,12.00,0.00,29.90,1012.00,10.00,M,FEW,FEW,M,M,5000.00,7500.00,M,M,M,M,M,M,M,M,M,53.10,KLAS 091656Z 23012KT 10SM FEW050 FEW075 12/M03 A2990 RMK AO2 SLP120 T01171028,M
EKO,2022-11-09 16:56,-115.7860,40.8242,1367.00,32.00,26.10,78.58,240.00,9.00,T,29.78,1009.50,8.00,M,BKN,OVC,M,M,3400.00,4700.00,M,M,-SN,M,M,M,26.00,240.00,2022-11-09 16:24,23.51,KEKO 091656Z AUTO 24009KT 8SM -SN BKN034 OVC047 00/M03 A2978 RMK AO2 PK WND 24026/1624 SNB04 SLP095 P0000 T00001033,M
TPH,2022-11-09 16:56,-117.0904,38.0505,1654.00,35.00,28.90,77.88,0.00,0.00,0.00,29.89,1012.40,10.00,M,CLR,M,M,M,M,M,M,M,M,M,M,M,M,M,M,35.10,KTPH 091656Z AUTO 00000KT 10SM CLR 02/M02 A2989 RMK AO2 SLP124 T00171017,M
WMC,2022-11-09 16:56,-117.8072,40.9019,1315.00,33.00,28.90,84.36,190.00,8.00,T,29.81,1010.40,9.00,M,BKN,OVC,M,M,2600.00,3100.00,M,M,M,M,M,M,M,M,M,25.47,KWMC 091656Z AUTO 19008KT 9SM BKN026 OVC031 01/M02 A2981 RMK AO2 SNE52 SLP104 P0000 T00061017,M
NFL,2022-11-09 16:56,-118.7010,39.4166,1199.00,35.00,26.10,69.41,190.00,5.00,0.00,29.90,1009.80,10.00,M,FEW,SCT,BKN,M,3000.00,6000.00,10000.00,M,M,M,M,M,M,M,M,30.08,KNFL 091656Z 19005KT 10SM FEW030 SCT060 BKN100 02/M03 A2990 RMK AO2 SLP098 T00171033,M
HND,2022-11-09 16:56,-115.1344,35.9729,742.79,51.00,30.90,45.73,230.00,12.00,0.00,29.93,1014.90,10.00,M,CLR,M,M,M,M,M,M,M,M,M,M,M,M,M,M,51.10,KHND 091656Z 23012KT 10SM CLR 11/M01 A2993 RMK AO2 SLP149 T01061006,M
LSV,2022-11-09 17:01,-115.0343,36.2362,570.00,55.40,33.80,43.90,240.00,10.00,0.00,29.86,1010.50,10.00,M,CLR,M,M,M,M,M,M,M,M,M,M,M,M,M,M,55.40,KLSV 091701Z AUTO 24010KT 10SM CLR 13/01 A2986 RMK AO2 WSHFT 1649 SLP105 $,M
WMC,2022-11-09 17:07,-117.8072,40.9019,1315.00,33.00,30.00,88.23,200.00,9.00,0.00,29.81,M,10.00,M,SCT,OVC,M,M,2500.00,3100.00,M,M,M,M,M,M,M,M,M,24.88,KWMC 091707Z AUTO 20009KT 10SM SCT025 OVC031 01/M01 A2981 RMK AO2 T00061011,M
CXP,2022-11-09 17:15,-119.7326,39.1923,1431.00,37.40,21.20,51.61,190.00,11.00,0.00,29.92,M,10.00,17.00,OVC,M,M,M,4800.00,M,M,M,M,M,M,M,M,M,M,29.29,KCXP 091715Z AUTO 19011G17KT 10SM OVC048 03/M06 A2992 RMK AO2,M
RTS,2022-11-09 17:15,-119.8764,39.6682,1539.00,32.00,24.80,74.44,300.00,11.00,0.00,29.92,M,10.00,M,FEW,BKN,M,M,4000.00,8500.00,M,M,M,M,M,M,M,M,M,22.47,KRTS 091715Z AUTO 30011KT 10SM FEW040 BKN085 00/M04 A2992 RMK AO2,M
05U,2022-11-09 17:15,-116.0051,39.6042,1811.23,33.80,15.80,47.22,250.00,7.00,0.00,29.84,M,10.00,M,SCT,M,M,M,6000.00,M,M,M,M,M,M,M,M,M,M,26.97,K05U 091715Z AUTO 25007KT 10SM SCT060 01/M09 A2984 RMK A01,M
MEV,2022-11-09 17:15,-119.7500,38.9963,1441.42,33.80,19.40,55.14,150.00,6.00,0.00,29.92,M,10.00,15.00,FEW,FEW,SCT,M,3400.00,4300.00,5500.00,M,M,M,M,M,M,M,M,27.70,KMEV 091715Z AUTO 15006G15KT 10SM FEW034 FEW043 SCT055 01/M07 A2992 RMK AO2,M
BAM,2022-11-09 17:15,-116.8743,40.5990,1382.36,35.60,28.40,74.80,220.00,19.00,0.00,29.81,M,10.00,24.00,BKN,BKN,OVC,M,3500.00,4100.00,5500.00,M,M,M,M,M,M,M,M,24.20,KBAM 091715Z AUTO 22019G24KT 10SM BKN035 BKN041 OVC055 02/M02 A2981 RMK AO1,M
TMT,2022-11-09 17:15,-117.1971,39.4643,1749.34,31.60,19.80,61.28,220.00,13.00,0.00,29.87,M,10.00,M,SCT,OVC,M,M,4600.00,7000.00,M,M,M,M,M,M,M,M,M,21.06,KTMT 091715Z AUTO 22013KT 10SM SCT046 OVC070 00/M07 A2987 RMK AO2 T10021068,M
BVU,2022-11-09 17:15,-114.8611,35.9475,671.00,53.60,32.00,43.61,230.00,9.00,0.00,29.93,M,10.00,17.00,FEW,M,M,M,5500.00,M,M,M,M,M,M,M,M,M,M,53.60,KBVU 091715Z AUTO 23009G17KT 200V260 10SM FEW055 12/M00 A2993 RMK AO2,M
BAM,2022-11-09 17:35,-116.8743,40.5990,1382.36,35.60,28.40,74.80,240.00,11.00,0.00,29.81,M,10.00,23.00,BKN,BKN,OVC,M,2900.00,3500.00,6000.00,M,M,M,M,M,M,M,M,27.02,KBAM 091735Z AUTO 24011G23KT 10SM BKN029 BKN035 OVC060 02/M02 A2981 RMK AO1,M
TMT,2022-11-09 17:35,-117.1971,39.4643,1749.34,31.80,20.80,63.43,240.00,10.00,0.00,29.88,M,10.00,M,SCT,BKN,OVC,M,3800.00,4700.00,6000.00,M,M,M,M,M,M,M,M,22.72,KTMT 091735Z AUTO 24010KT 10SM SCT038 BKN047 OVC060 00/M06 A2988 RMK AO2 T10011062,M
BVU,2022-11-09 17:35,-114.8611,35.9475,671.00,51.80,30.20,43.32,220.00,6.00,0.00,29.94,M,10.00,13.00,CLR,M,M,M,M,M,M,M,M,M,M,M,M,M,M,51.80,KBVU 091735Z AUTO 22006G13KT 10SM CLR 11/M01 A2994 RMK AO2,M
CXP,2022-11-09 17:35,-119.7326,39.1923,1431.00,37.40,21.20,51.61,210.00,9.00,0.00,29.94,M,10.00,16.00,OVC,M,M,M,4700.00,M,M,M,M,M,M,M,M,M,M,30.23,KCXP 091735Z AUTO 21009G16KT 10SM OVC047 03/M06 A2994 RMK AO2,M
RTS,2022-11-09 17:35,-119.8764,39.6682,1539.00,33.80,24.80,69.25,300.00,15.00,0.00,29.93,M,10.00,M,FEW,BKN,M,M,4200.00,8500.00,M,M,M,M,M,M,M,M,M,23.11,KRTS 091735Z AUTO 30015KT 10SM FEW042 BKN085 01/M04 A2993 RMK AO2,M
05U,2022-11-09 17:35,-116.0051,39.6042,1811.23,33.80,17.60,51.04,260.00,8.00,0.00,29.85,M,10.00,M,BKN,M,M,M,6000.00,M,M,M,M,M,M,M,M,M,M,26.33,K05U 091735Z AUTO 26008KT 230V290 10SM BKN060 01/M08 A2985 RMK A01,M
MEV,2022-11-09 17:35,-119.7500,38.9963,1441.42,33.80,23.00,64.23,60.00,3.00,0.00,29.93,M,10.00,M,FEW,BKN,M,M,4500.00,5000.00,M,M,M,M,M,M,M,M,M,30.75,KMEV 091735Z AUTO 06003KT 10SM FEW045 BKN050 01/M05 A2993 RMK AO2,M
P68,2022-11-09 17:53,-116.0056,39.6014,1993.00,32.00,19.00,58.27,250.00,6.00,0.00,29.83,1009.40,M,M,M,M,M,M,M,M,M,M,M,M,M,M,M,M,M,25.53,KP68 091753Z AUTO 25006KT 00/M07 A2983 RMK AO1 SLP094 T00001072 10011 21050 51019,M
DRA,2022-11-09 17:53,-116.0278,36.6206,1009.00,50.00,28.00,42.33,240.00,10.00,0.00,29.93,1012.00,10.00,M,FEW,M,M,M,4800.00,M,M,M,M,M,M,M,M,M,M,50.00,KDRA 091753Z AUTO 24010KT 10SM FEW048 10/M02 A2993 RMK AO2 SLP120 T01001022 10100 20050 51031,M
LOL,2022-11-09 17:53,-118.5701,40.0684,1192.43,37.00,30.90,78.37,190.00,13.00,0.00,29.90,1013.70,10.00,M,FEW,SCT,M,M,7000.00,12000.00,M,M,M,M,M,M,M,M,M,27.97,KLOL 091753Z AUTO 19013KT 10SM FEW070 SCT120 03/M01 A2990 RMK AO2 SLP137 T00281006 10028 21028 51029,M
ELY,2022-11-09 17:53,-114.8453,39.2950,1909.00,33.00,19.90,57.93,260.00,7.00,0.00,29.83,1009.20,10.00,M,BKN,M,M,M,7000.00,M,M,M,M,M,M,M,M,M,M,26.12,KELY 091753Z AUTO 26007KT 10SM BKN070 01/M07 A2983 RMK AO2 SLP092 T00061067 10011 21044 51016 $,M
VGT,2022-11-09 17:53,-115.1933,36.2111,667.00,56.00,26.10,31.51,320.00,7.00,0.00,29.91,1014.10,10.00,17.00,CLR,M,M,M,M,M,M,M,M,M,M,M,M,M,M,55.90,KVGT 091753Z 32007G17KT 10SM CLR 13/M03 A2991 RMK AO2 SLP141 T01331033 10139 20100 53020,M
MEV,2022-11-09 17:55,-119.7500,38.9963,1441.42,35.60,23.00,59.79,0.00,0.00,0.00,29.95,M,10.00,M,BKN,BKN,M,M,5000.00,5500.00,M,M,M,M,M,M,M,M,M,35.60,KMEV 091755Z AUTO 00000KT 10SM BKN050 BKN055 02/M05 A2995 RMK AO2,M
TMT,2022-11-09 17:55,-117.1971,39.4643,1749.34,32.00,21.00,63.45,230.00,16.00,0.00,29.90,M,10.00,M,SCT,BKN,OVC,M,2500.00,3100.00,4100.00,M,M,M,M,M,M,M,M,20.42,KTMT 091755Z AUTO 23016KT 10SM SCT025 BKN031 OVC041 00/M06 A2990 RMK AO2 T00001061 10000 21057,M
INS,2022-11-09 17:55,-115.6733,36.5872,955.00,51.00,28.80,41.99,310.00,12.00,0.00,29.91,1011.20,10.00,M,CLR,M,M,M,M,M,M,M,M,M,M,M,M,M,M,51.10,KINS 091755Z AUTO 31012KT 10SM CLR 11/M02 A2991 RMK AO2 SLP112 T01061018 10106 20048 52027 $,M
LSV,2022-11-09 17:55,-115.0343,36.2362,570.00,60.60,28.20,29.03,270.00,13.00,0.00,29.89,1011.40,10.00,M,CLR,M,M,M,M,M,M,M,M,M,M,M,M,M,M,60.60,KLSV 091755Z AUTO 27013KT 10SM CLR 16/M02 A2989 RMK AO2 SLP114 T01591021 10159 20090 53024 $,M
BVU,2022-11-09 17:55,-114.8611,35.9475,671.00,55.40,30.20,37.97,260.00,17.00,0.00,29.93,M,10.00,23.00,CLR,M,M,M,M,M,M,M,M,M,M,M,M,M,M,55.40,KBVU 091755Z AUTO 26017G23KT 10SM CLR 13/M01 A2993 RMK AO2,M
CXP,2022-11-09 17:55,-119.7326,39.1923,1431.00,37.40,21.20,51.61,210.00,11.00,0.00,29.95,M,10.00,16.00,OVC,M,M,M,4700.00,M,M,M,M,M,M,M,M,M,M,29.29,KCXP 091755Z AUTO 21011G16KT 10SM OVC047 03/M06 A2995 RMK AO2,M
RTS,2022-11-09 17:55,-119.8764,39.6682,1539.00,33.80,24.80,69.25,300.00,14.00,0.00,29.94,M,10.00,19.00,FEW,FEW,M,M,4100.00,4700.00,M,M,M,M,M,M,M,M,M,23.48,KRTS 091755Z AUTO 30014G19KT 10SM FEW041 FEW047 01/M04 A2994 RMK AO2,M
RNO,2022-11-09 17:55,-119.7711,39.4839,1341.00,42.00,24.10,48.56,300.00,13.00,0.00,29.93,1013.40,10.00,20.00,SCT,BKN,BKN,M,6000.00,8500.00,15000.00,M,M,M,M,M,M,M,M,34.51,KRNO 091755Z 30013G20KT 10SM SCT060 BKN085 BKN150 06/M04 A2993 RMK AO2 SLP134 CLDS TPG MTNS SW THRU NW 4/001 T00561044 10056 21017 51030,1
05U,2022-11-09 17:55,-116.0051,39.6042,1811.23,32.00,17.60,54.87,250.00,12.00,0.00,29.86,M,10.00,M,SCT,M,M,M,6000.00,M,M,M,M,M,M,M,M,M,M,22.00,K05U 091755Z AUTO 25012KT 10SM SCT060 00/M08 A2986 RMK A01,M
BAM,2022-11-09 17:55,-116.8743,40.5990,1382.36,35.60,28.40,74.80,230.00,17.00,0.00,29.82,M,10.00,22.00,SCT,SCT,OVC,M,2800.00,4700.00,6000.00,M,M,M,M,M,M,M,M,24.79,KBAM 091755Z AUTO 23017G22KT 10SM SCT028 SCT047 OVC060 02/M02 A2982 RMK AO1,M
WMC,2022-11-09 17:56,-117.8072,40.9019,1315.00,34.00,28.90,81.37,230.00,12.00,0.01,29.83,1011.00,9.00,23.00,OVC,M,M,M,3600.00,M,M,M,-SN,M,M,M,M,M,M,24.55,KWMC 091756Z AUTO 23012G23KT 9SM -SN OVC036 01/M02 A2983 RMK AO2 SNB14 SLP110 P0001 60001 T00111017 10011 20006 51024,M
EKO,2022-11-09 17:56,-115.7860,40.8242,1367.00,33.00,24.10,69.17,230.00,15.00,T,29.79,1009.80,10.00,23.00,SCT,BKN,OVC,M,4300.00,5000.00,6000.00,M,M,M,M,M,M,M,M,22.21,KEKO 091756Z AUTO 23015G23KT 10SM SCT043 BKN050 OVC060 01/M04 A2979 RMK AO2 SNE1657 SLP098 P0000 60000 T00061044 10006 21028 51019,M
TPH,2022-11-09 17:56,-117.0904,38.0505,1654.00,37.00,28.00,69.63,0.00,0.00,0.00,29.91,1013.00,10.00,M,CLR,M,M,M,M,M,M,M,M,M,M,M,M,M,M,37.00,KTPH 091756Z AUTO 00000KT 10SM CLR 03/M02 A2991 RMK AO2 SLP130 T00281022 10028 21039 51025,M
LAS,2022-11-09 17:56,-115.1634,36.0719,663.00,54.00,28.00,36.52,220.00,10.00,0.00,29.93,1013.00,10.00,18.00,FEW,FEW,M,M,5000.00,7500.00,M,M,M,M,M,M,M,M,M,54.00,KLAS 091756Z 22010G18KT 10SM FEW050 FEW075 12/M02 A2993 RMK AO2 SLP130 T01221022 10128 20089 51036,M
NFL,2022-11-09 17:56,-118.7010,39.4166,1199.00,38.00,27.00,64.49,220.00,4.00,0.00,29.93,1010.70,10.00,M,FEW,SCT,SCT,BKN,3000.00,5000.00,10000.00,17000.00,M,M,M,M,M,M,M,34.31,KNFL 091756Z 22004KT 10SM FEW030 SCT050 SCT100 BKN170 03/M03 A2993 RMK AO2 SLP107 T00331028 10033 21028 51029,M
HND,2022-11-09 17:56,-115.1344,35.9729,742.79,53.00,30.90,42.48,220.00,13.00,0.00,29.95,1015.70,10.00,20.00,CLR,M,M,M,M,M,M,M,M,M,M,M,26.00,220.00,2022-11-09 17:17,53.10,KHND 091756Z 22013G20KT 10SM CLR 12/M01 A2995 RMK AO2 PK WND 22026/1717 SLP157 60000 T01171006 10117 20078 51025,M
MEV,2022-11-09 18:15,-119.7500,38.9963,1441.42,37.40,21.20,51.61,220.00,6.00,0.00,29.96,M,10.00,M,BKN,OVC,M,M,5000.00,5500.00,M,M,M,M,M,M,M,M,M,32.03,KMEV 091815Z AUTO 22006KT 10SM BKN050 OVC055 03/M06 A2996 RMK AO2,M
BAM,2022-11-09 18:15,-116.8743,40.5990,1382.36,35.60,28.40,74.80,240.00,18.00,0.00,29.83,M,10.00,25.00,SCT,BKN,OVC,M,3100.00,6000.00,7000.00,M,M,M,M,M,M,M,M,24.49,KBAM 091815Z AUTO 24018G25KT 10SM SCT031 BKN060 OVC070 02/M02 A2983 RMK AO1,M
TMT,2022-11-09 18:15,-117.1971,39.4643,1749.34,31.10,22.60,70.40,230.00,15.00,0.00,29.91,M,5.00,M,SCT,BKN,OVC,M,1400.00,2300.00,3000.00,M,-SN,M,M,M,M,M,M,19.61,KTMT 091815Z AUTO 23015KT 5SM -SN SCT014 BKN023 OVC030 00/M05 A2991 RMK AO2 T10051052,M
BVU,2022-11-09 18:15,-114.8611,35.9475,671.00,55.40,30.20,37.97,220.00,9.00,0.00,29.95,M,10.00,18.00,CLR,M,M,M,M,M,M,M,M,M,M,M,M,M,M,55.40,KBVU 091815Z AUTO 22009G18KT 10SM CLR 13/M01 A2995 RMK AO2,M
CXP,2022-11-09 18:15,-119.7326,39.1923,1431.00,37.40,21.20,51.61,200.00,11.00,0.00,29.96,M,10.00,M,OVC,M,M,M,4600.00,M,M,M,M,M,M,M,M,M,M,29.29,KCXP 091815Z AUTO 20011KT 10SM OVC046 03/M06 A2996 RMK AO2,M
RTS,2022-11-09 18:15,-119.8764,39.6682,1539.00,33.80,24.80,69.25,300.00,14.00,0.00,29.95,M,10.00,19.00,CLR,M,M,M,M,M,M,M,M,M,M,M,M,M,M,23.48,KRTS 091815Z AUTO 30014G19KT 10SM CLR 01/M04 A2995 RMK AO2,M
05U,2022-11-09 18:15,-116.0051,39.6042,1811.23,35.60,15.80,43.95,250.00,14.00,0.00,29.86,M,10.00,25.00,CLR,M,M,M,M,M,M,M,M,M,M,M,M,M,M,25.80,K05U 091815Z AUTO 25014G25KT 10SM CLR 02/M09 A2986 RMK A01,M
WMC,2022-11-09 18:26,-117.8072,40.9019,1315.00,34.00,28.90,81.37,240.00,16.00,T,29.85,M,2.50,22.00,BKN,OVC,M,M,2800.00,3500.00,M,M,-SN,M,M,M,M,M,M,23.03,KWMC 091826Z AUTO 24016G22KT 2 1/2SM -SN BKN028 OVC035 01/M02 A2985 RMK AO2 P0000 T00111017,M
05U,2022-11-09 18:35,-116.0051,39.6042,1811.23,35.60,17.60,47.51,250.00,13.00,0.00,29.86,M,10.00,M,FEW,FEW,M,M,4200.00,8000.00,M,M,M,M,M,M,M,M,M,26.18,K05U 091835Z AUTO 25013KT 10SM FEW042 FEW080 02/M08 A2986 RMK A01,M
MEV,2022-11-09 18:35,-119.7500,38.9963,1441.42,37.40,21.20,51.61,250.00,8.00,0.00,29.97,M,10.00,13.00,BKN,OVC,M,M,5000.00,5500.00,M,M,M,M,M,M,M,M,M,30.76,KMEV 091835Z AUTO 25008G13KT 10SM BKN050 OVC055 03/M06 A2997 RMK AO2,M
BAM,2022-11-09 18:35,-116.8743,40.5990,1382.36,37.40,28.40,69.67,240.00,18.00,0.00,29.84,M,10.00,29.00,SCT,BKN,OVC,M,6000.00,7000.00,8500.00,M,M,M,M,M,M,M,M,26.86,KBAM 091835Z AUTO 24018G29KT 10SM SCT060 BKN070 OVC085 03/M02 A2984 RMK AO1,M
TMT,2022-11-09 18:35,-117.1971,39.4643,1749.34,32.00,22.30,67.04,230.00,14.00,0.00,29.92,M,10.00,18.00,SCT,BKN,OVC,M,2400.00,3400.00,4000.00,M,M,M,M,M,M,M,M,21.16,KTMT 091835Z AUTO 23014G18KT 10SM SCT024 BKN034 OVC040 00/M05 A2992 RMK AO2 T00001054,M
RTS,2022-11-09 18:35,-119.8764,39.6682,1539.00,33.80,26.60,74.63,300.00,12.00,0.00,29.97,M,10.00,M,CLR,M,M,M,M,M,M,M,M,M,M,M,M,M,M,24.29,KRTS 091835Z AUTO 30012KT 10SM CLR 01/M03 A2997 RMK AO2,M
CXP,2022-11-09 18:35,-119.7326,39.1923,1431.00,37.40,21.20,51.61,210.00,7.00,0.00,29.98,M,10.00,15.00,OVC,M,M,M,4500.00,M,M,M,M,M,M,M,M,M,M,31.36,KCXP 091835Z AUTO 21007G15KT 160V240 10SM OVC045 03/M06 A2998 RMK AO2,M
BVU,2022-11-09 18:35,-114.8611,35.9475,671.00,55.40,30.20,37.97,220.00,5.00,0.00,29.96,M,10.00,M,FEW,M,M,M,6000.00,M,M,M,M,M,M,M,M,M,M,55.40,KBVU 091835Z AUTO 22005KT 10SM FEW060 13/M01 A2996 RMK AO2,M
EKO,2022-11-09 18:36,-115.7860,40.8242,1367.00,32.00,25.00,75.07,230.00,17.00,T,29.81,M,2.50,31.00,BKN,BKN,OVC,M,2300.00,3200.00,3900.00,M,-SN,M,M,M,31.00,210.00,2022-11-09 18:30,20.08,KEKO 091836Z AUTO 23017G31KT 2 1/2SM -SN BKN023 BKN032 OVC039 00/M04 A2981 RMK AO2 PK WND 21031/1830 VIS 1V5 SNB13 P0000 T00001039,M
EKO,2022-11-09 18:41,-115.7860,40.8242,1367.00,30.90,26.10,82.15,240.00,17.00,T,29.81,M,0.75,24.00,BKN,BKN,OVC,M,1600.00,2400.00,3800.00,M,-SN,M,M,M,31.00,210.00,2022-11-09 18:30,18.63,KEKO 091841Z AUTO 24017G24KT 3/4SM -SN BKN016 BKN024 OVC038 M01/M03 A2981 RMK AO2 PK WND 21031/1830 SNB13 P0000 T10061033,M
WMC,2022-11-09 18:45,-117.8072,40.9019,1315.00,34.00,30.00,85.11,230.00,15.00,T,29.86,M,1.50,27.00,BKN,BKN,OVC,M,2400.00,3000.00,3600.00,M,-SN BR,M,M,M,27.00,230.00,2022-11-09 18:41,23.37,KWMC 091845Z AUTO 23015G27KT 1 1/2SM -SN BR BKN024 BKN030 OVC036 01/M01 A2986 RMK AO2 PK WND 23027/1841 P0000 T00111011,M
EKO,2022-11-09 18:49,-115.7860,40.8242,1367.00,30.00,27.00,88.44,240.00,17.00,T,29.81,M,0.50,24.00,BKN,BKN,OVC,M,1100.00,2700.00,3500.00,M,SN FZFG,M,M,M,31.00,210.00,2022-11-09 18:30,17.46,KEKO 091849Z AUTO 24017G24KT 1/2SM SN FZFG BKN011 BKN027 OVC035 M01/M03 A2981 RMK AO2 PK WND 21031/1830 SNB13 P0000 T10111028,M
DRA,2022-11-09 18:53,-116.0278,36.6206,1009.00,50.00,28.00,42.33,200.00,13.00,0.00,29.96,1012.90,10.00,20.00,FEW,M,M,M,4700.00,M,M,M,M,M,M,M,M,M,M,50.00,KDRA 091853Z AUTO 20013G20KT 10SM FEW047 10/M02 A2996 RMK AO2 SLP129 T01001022,M
P68,2022-11-09 18:53,-116.0056,39.6014,1993.00,34.00,18.00,51.52,260.00,17.00,0.00,29.85,1010.40,M,25.00,M,M,M,M,M,M,M,M,M,M,M,M,31.00,230.00,2022-11-09 18:13,22.70,KP68 091853Z AUTO 26017G25KT 01/M08 A2985 RMK AO1 PK WND 23031/1813 SLP104 T00111078,M
LOL,2022-11-09 18:53,-118.5701,40.0684,1192.43,39.00,30.90,72.45,240.00,14.00,0.00,29.93,1014.80,10.00,M,OVC,M,M,M,5500.00,M,M,M,M,M,M,M,M,M,M,30.19,KLOL 091853Z AUTO 24014KT 10SM OVC055 04/M01 A2993 RMK AO2 SLP148 T00391006,M
ELY,2022-11-09 18:53,-114.8453,39.2950,1909.00,30.00,23.00,74.87,230.00,7.00,T,29.85,1010.80,8.00,M,FEW,BKN,OVC,M,4700.00,6000.00,11000.00,M,-SN,M,M,M,M,M,M,22.34,KELY 091853Z AUTO 23007KT 8SM -SN FEW047 BKN060 OVC110 M01/M05 A2985 RMK AO2 SNB34 SLP108 P0000 T10111050 $,M
VGT,2022-11-09 18:53,-115.1933,36.2111,667.00,57.00,27.00,31.43,200.00,5.00,0.00,29.93,1014.70,10.00,M,CLR,M,M,M,M,M,M,M,M,M,M,M,M,M,M,57.00,KVGT 091853Z 20005KT 10SM CLR 14/M03 A2993 RMK AO2 SLP147 T01391028,M
WMC,2022-11-09 18:54,-117.8072,40.9019,1315.00,33.80,30.20,86.49,230.00,18.00,T,29.86,M,1.00,29.00,BKN,OVC,M,M,2000.00,2900.00,M,M,-SN BR,M,M,M,29.00,230.00,2022-11-09 18:54,22.12,KWMC 091854Z AUTO 23018G29KT 1SM -SN BR BKN020 OVC029 01/M01 A2986 RMK AO2 PK WND 23029/1854 P0000,M
TMT,2022-11-09 18:55,-117.1971,39.4643,1749.34,32.00,22.80,68.46,240.00,14.00,0.00,29.92,M,10.00,M,BKN,OVC,M,M,3200.00,3700.00,M,M,M,M,M,M,M,M,M,21.16,KTMT 091855Z AUTO 24014KT 10SM BKN032 OVC037 00/M05 A2992 RMK AO2 T00001051,M
INS,2022-11-09 18:55,-115.6733,36.5872,955.00,51.80,25.70,36.01,300.00,15.00,0.00,29.94,1012.20,10.00,M,CLR,M,M,M,M,M,M,M,M,M,M,M,M,M,M,51.80,KINS 091855Z AUTO 30015KT 10SM CLR 11/M03 A2994 RMK AO2 SLP122 T01101035 $,M
05U,2022-11-09 18:55,-116.0051,39.6042,1811.23,M,M,M,250.00,15.00,0.00,29.87,M,10.00,23.00,CLR,M,M,M,M,M,M,M,M,M,M,M,M,M,M,M,K05U 091855Z AUTO 25015G23KT 10SM CLR A2987 RMK A01,M
BAM,2022-11-09 18:55,-116.8743,40.5990,1382.36,37.40,28.40,69.67,240.00,24.00,0.00,29.84,M,10.00,32.00,SCT,BKN,OVC,M,2600.00,7500.00,8500.00,M,M,M,M,M,M,M,M,25.34,KBAM 091855Z AUTO 24024G32KT 10SM SCT026 BKN075 OVC085 03/M02 A2984 RMK AO1,M
MEV,2022-11-09 18:55,-119.7500,38.9963,1441.42,39.20,21.20,48.10,270.00,9.00,0.00,29.98,M,10.00,M,BKN,BKN,M,M,5000.00,6000.00,M,M,-RA,M,M,M,M,M,M,32.47,KMEV 091855Z AUTO 27009KT 10SM -RA BKN050 BKN060 04/M06 A2998 RMK AO2,M
RTS,2022-11-09 18:55,-119.8764,39.6682,1539.00,33.80,26.60,74.63,310.00,14.00,0.00,29.98,M,10.00,M,SCT,BKN,M,M,4400.00,5000.00,M,M,M,M,M,M,M,M,M,23.48,KRTS 091855Z AUTO 31014KT 10SM SCT044 BKN050 01/M03 A2998 RMK AO2,M
LSV,2022-11-09 18:55,-115.0343,36.2362,570.00,62.20,28.80,28.11,220.00,9.00,0.00,29.91,1012.00,10.00,M,CLR,M,M,M,M,M,M,M,M,M,M,M,M,M,M,62.20,KLSV 091855Z AUTO 22009KT 10SM CLR 17/M02 A2991 RMK AO2 SLP120 T01681018 $,M
CXP,2022-11-09 18:55,-119.7326,39.1923,1431.00,39.20,23.00,51.89,200.00,10.00,0.00,29.98,M,10.00,M,BKN,OVC,M,M,4700.00,6000.00,M,M,M,M,M,M,M,M,M,32.00,KCXP 091855Z AUTO 20010KT 10SM BKN047 OVC060 04/M05 A2998 RMK AO2,M
BVU,2022-11-09 18:55,-114.8611,35.9475,671.00,55.40,28.40,35.28,240.00,4.00,0.00,29.96,M,10.00,11.00,SCT,M,M,M,6000.00,M,M,M,M,M,M,M,M,M,M,55.40,KBVU 091855Z AUTO 24004G11KT 10SM SCT060 13/M02 A2996 RMK AO2,M
RNO,2022-11-09 18:55,-119.7711,39.4839,1341.00,42.00,24.10,48.56,290.00,11.00,0.00,29.96,1014.70,10.00,M,SCT,BKN,BKN,M,5500.00,9500.00,12000.00,M,M,M,M,M,M,M,M,35.23,KRNO 091855Z 29011KT 10SM SCT055 BKN095 BKN120 06/M04 A2996 RMK AO2 SLP147 ACSL DSNT SW CLDS TPG MTNS SW THRU NW T00561044,M
LAS,2022-11-09 18:56,-115.1634,36.0719,663.00,57.00,27.00,31.43,270.00,11.00,0.00,29.94,1013.10,10.00,17.00,FEW,M,M,M,8000.00,M,M,M,M,M,M,M,M,M,M,57.00,KLAS 091856Z 27011G17KT 10SM FEW080 14/M03 A2994 RMK AO2 SLP131 T01391028,M
NFL,2022-11-09 18:56,-118.7010,39.4166,1199.00,43.00,24.10,46.91,280.00,10.00,0.00,29.95,1011.50,10.00,M,FEW,SCT,SCT,BKN,4000.00,6000.00,10000.00,16000.00,M,M,M,M,M,M,M,36.76,KNFL 091856Z 28010KT 10SM FEW040 SCT060 SCT100 BKN160 06/M04 A2995 RMK AO2 SLP115 T00611044,M
HND,2022-11-09 18:56,-115.1344,35.9729,742.79,55.00,30.90,39.63,240.00,15.00,0.00,29.96,1015.80,10.00,24.00,CLR,M,M,M,M,M,M,M,M,M,M,M,26.00,240.00,2022-11-09 18:33,55.00,KHND 091856Z 24015G24KT 10SM CLR 13/M01 A2996 RMK AO2 PK WND 24026/1833 SLP158 T01281006,M
TPH,2022-11-09 18:56,-117.0904,38.0505,1654.00,39.00,24.10,54.77,330.00,4.00,0.00,29.95,1013.90,10.00,M,CLR,M,M,M,M,M,M,M,M,M,M,M,M,M,M,35.59,KTPH 091856Z AUTO 33004KT 10SM CLR 04/M04 A2995 RMK AO2 SLP139 T00391044,M
EKO,2022-11-09 18:56,-115.7860,40.8242,1367.00,30.90,27.00,85.26,230.00,15.00,T,29.81,1011.00,1.25,M,BKN,BKN,OVC,M,1500.00,2700.00,3600.00,M,-SN BR,M,M,M,31.00,210.00,2022-11-09 18:30,19.35,KEKO 091856Z AUTO 23015KT 1 1/4SM -SN BR BKN015 BKN027 OVC036 M01/M03 A2981 RMK AO2 PK WND 21031/1830 SNB13 SLP110 P0000 T10061028,M
WMC,2022-11-09 18:56,-117.8072,40.9019,1315.00,34.00,30.00,85.11,230.00,18.00,T,29.86,1011.80,1.00,29.00,BKN,OVC,M,M,2000.00,2900.00,M,M,-SN BR,M,M,M,29.00,230.00,2022-11-09 18:54,22.38,KWMC 091856Z AUTO 23018G29KT 1SM -SN BR BKN020 OVC029 01/M01 A2986 RMK AO2 PK WND 23029/1854 SLP118 P0000 T00111011,M
EKO,2022-11-09 19:00,-115.7860,40.8242,1367.00,30.90,27.00,85.26,230.00,11.00,0.01,29.81,M,3.00,21.00,BKN,BKN,OVC,M,1500.00,2500.00,3400.00,M,-SN BR,M,M,M,M,M,M,21.08,KEKO 091900Z AUTO 23011G21KT 3SM -SN BR BKN015 BKN025 OVC034 M01/M03 A2981 RMK AO2 P0001 T10061028,M
WMC,2022-11-09 19:03,-117.8072,40.9019,1315.00,34.00,30.00,85.11,230.00,16.00,T,29.86,M,2.00,29.00,BKN,OVC,M,M,2400.00,2900.00,M,M,-SN BR,M,M,M,M,M,M,23.03,KWMC 091903Z AUTO 23016G29KT 2SM -SN BR BKN024 OVC029 01/M01 A2986 RMK AO2 P0000 T00111011,M
WMC,2022-11-09 19:11,-117.8072,40.9019,1315.00,34.00,30.00,85.11,240.00,19.00,T,29.86,M,6.00,28.00,BKN,OVC,M,M,2600.00,4000.00,M,M,-SN BR,M,M,M,28.00,230.00,2022-11-09 19:11,22.08,KWMC 091911Z AUTO 24019G28KT 6SM -SN BR BKN026 OVC040 01/M01 A2986 RMK AO2 PK WND 23028/1911 P0000 T00111011,M
TMT,2022-11-09 19:15,-117.1971,39.4643,1749.34,33.00,23.70,68.57,240.00,16.00,0.00,29.92,M,10.00,19.00,SCT,OVC,M,M,2700.00,3400.00,M,M,M,M,M,M,M,M,M,21.59,KTMT 091915Z AUTO 24016G19KT 10SM SCT027 OVC034 01/M05 A2992 RMK AO2 T00051046,M
MEV,2022-11-09 19:15,-119.7500,38.9963,1441.42,39.20,21.20,48.10,230.00,7.00,0.00,29.98,M,8.00,M,BKN,BKN,M,M,5000.00,6500.00,M,M,M,M,M,M,M,M,M,33.56,KMEV 091915Z AUTO 23007KT 8SM BKN050 BKN065 04/M06 A2998 RMK AO2,M
BAM,2022-11-09 19:15,-116.8743,40.5990,1382.36,37.40,28.40,69.67,240.00,23.00,0.00,29.85,M,10.00,30.00,BKN,BKN,OVC,M,2500.00,6500.00,7500.00,M,M,M,M,M,M,M,M,25.57,KBAM 091915Z AUTO 24023G30KT 10SM BKN025 BKN065 OVC075 03/M02 A2985 RMK AO1,M
BVU,2022-11-09 19:15,-114.8611,35.9475,671.00,55.40,28.40,35.28,150.00,7.00,0.00,29.96,M,10.00,M,BKN,M,M,M,6500.00,M,M,M,M,M,M,M,M,M,M,55.40,KBVU 091915Z AUTO 15007KT 10SM BKN065 13/M02 A2996 RMK AO2,M
CXP,2022-11-09 19:15,-119.7326,39.1923,1431.00,39.20,21.20,48.10,250.00,7.00,0.00,29.98,M,10.00,12.00,OVC,M,M,M,4700.00,M,M,M,M,M,M,M,M,M,M,33.56,KCXP 091915Z AUTO 25007G12KT 220V300 10SM OVC047 04/M06 A2998 RMK AO2,M
EKO,2022-11-09 19:15,-115.7860,40.8242,1367.00,32.00,28.90,88.17,220.00,8.00,0.01,29.82,M,2.00,M,BKN,BKN,OVC,M,2200.00,3000.00,3600.00,M,-SN BR,M,M,M,M,M,M,24.11,KEKO 091915Z AUTO 22008KT 2SM -SN BR BKN022 BKN030 OVC036 00/M02 A2982 RMK AO2 P0001 T00001017,M
RTS,2022-11-09 19:15,-119.8764,39.6682,1539.00,33.80,26.60,74.63,320.00,16.00,0.00,29.98,M,10.00,M,BKN,BKN,M,M,4600.00,5500.00,M,M,M,M,M,M,M,M,M,22.76,KRTS 091915Z AUTO 32016KT 10SM BKN046 BKN055 01/M03 A2998 RMK AO2,M
05U,2022-11-09 19:15,-116.0051,39.6042,1811.23,33.80,17.60,51.04,260.00,12.00,0.00,29.87,M,10.00,22.00,CLR,M,M,M,M,M,M,M,M,M,M,M,M,M,M,24.29,K05U 091915Z AUTO 26012G22KT 10SM CLR 01/M08 A2987 RMK A01,M
EKO,2022-11-09 19:22,-115.7860,40.8242,1367.00,32.00,27.00,81.55,240.00,15.00,0.01,29.82,M,1.75,20.00,BKN,OVC,M,M,2400.00,3300.00,M,M,-SN,M,M,M,M,M,M,20.78,KEKO 091922Z AUTO 24015G20KT 1 3/4SM -SN BKN024 OVC033 00/M03 A2982 RMK AO2 P0001 T00001028,M
WMC,2022-11-09 19:25,-117.8072,40.9019,1315.00,34.00,30.00,85.11,230.00,19.00,T,29.87,M,9.00,29.00,SCT,BKN,OVC,M,2800.00,4000.00,4800.00,M,M,M,M,M,30.00,230.00,2022-11-09 19:15,22.08,KWMC 091925Z AUTO 23019G29KT 9SM SCT028 BKN040 OVC048 01/M01 A2987 RMK AO2 PK WND 23030/1915 SNE23 P0000 T00111011,M
EKO,2022-11-09 19:29,-115.7860,40.8242,1367.00,33.00,26.10,75.18,240.00,18.00,0.01,29.82,M,3.00,25.00,BKN,OVC,M,M,2600.00,3300.00,M,M,-SN,M,M,M,M,M,M,21.20,KEKO 091929Z AUTO 24018G25KT 3SM -SN BKN026 OVC033 01/M03 A2982 RMK AO2 P0001 T00061033,M
BAM,2022-11-09 19:35,-116.8743,40.5990,1382.36,37.40,28.40,69.67,230.00,23.00,0.00,29.86,M,10.00,29.00,BKN,OVC,M,M,2300.00,3000.00,M,M,M,M,M,M,M,M,M,25.57,KBAM 091935Z AUTO 23023G29KT 10SM BKN023 OVC030 03/M02 A2986 RMK AO1,M
05U,2022-11-09 19:35,-116.0051,39.6042,1811.23,35.60,17.60,47.51,260.00,17.00,0.00,29.88,M,10.00,23.00,CLR,M,M,M,M,M,M,M,M,M,M,M,M,M,M,24.79,K05U 091935Z AUTO 26017G23KT 10SM CLR 02/M08 A2988 RMK A01,M
RTS,2022-11-09 19:35,-119.8764,39.6682,1539.00,33.80,24.80,69.25,310.00,13.00,0.00,29.99,M,10.00,M,BKN,OVC,M,M,4500.00,5000.00,M,M,M,M,M,M,M,M,M,23.87,KRTS 091935Z AUTO 31013KT 10SM BKN045 OVC050 01/M04 A2999 RMK AO2,M
CXP,2022-11-09 19:35,-119.7326,39.1923,1431.00,39.20,23.00,51.89,210.00,6.00,0.00,29.99,M,10.00,11.00,BKN,OVC,M,M,4600.00,5500.00,M,M,M,M,M,M,M,M,M,34.20,KCXP 091935Z AUTO 21006G11KT 10SM BKN046 OVC055 04/M05 A2999 RMK AO2,M
MEV,2022-11-09 19:35,-119.7500,38.9963,1441.42,37.40,21.20,51.61,240.00,7.00,0.00,29.99,M,10.00,14.00,OVC,M,M,M,5000.00,M,M,M,M,M,M,M,M,M,M,31.36,KMEV 091935Z AUTO 24007G14KT 10SM OVC050 03/M06 A2999 RMK AO2,M
BVU,2022-11-09 19:35,-114.8611,35.9475,671.00,55.40,26.60,32.76,120.00,6.00,0.00,29.96,M,10.00,14.00,OVC,M,M,M,6500.00,M,M,M,M,M,M,M,M,M,M,55.40,KBVU 091935Z AUTO 12006G14KT 10SM OVC065 13/M03 A2996 RMK AO2,M
TMT,2022-11-09 19:35,-117.1971,39.4643,1749.34,33.40,23.50,66.65,230.00,14.00,0.00,29.93,M,10.00,22.00,SCT,BKN,OVC,M,3500.00,4100.00,11000.00,M,M,M,M,M,M,M,M,22.97,KTMT 091935Z AUTO 23014G22KT 10SM SCT035 BKN041 OVC110 01/M05 A2993 RMK AO2 T00081047,M
EKO,2022-11-09 19:44,-115.7860,40.8242,1367.00,33.00,26.10,75.18,230.00,15.00,0.01,29.82,M,8.00,23.00,SCT,BKN,OVC,M,2200.00,3500.00,5500.00,M,-SN,M,M,M,M,M,M,22.21,KEKO 091944Z AUTO 23015G23KT 8SM -SN SCT022 BKN035 OVC055 01/M03 A2982 RMK AO2 P0001 T00061033,M
DRA,2022-11-09 19:53,-116.0278,36.6206,1009.00,51.00,28.90,42.16,220.00,15.00,0.00,29.96,1013.00,10.00,23.00,FEW,M,M,M,4900.00,M,M,M,M,M,M,M,M,M,M,51.10,KDRA 091953Z AUTO 22015G23KT 10SM FEW049 11/M02 A2996 RMK AO2 SLP130 T01061017,M
ELY,2022-11-09 19:53,-114.8453,39.2950,1909.00,34.00,19.00,53.77,240.00,10.00,T,29.86,1010.50,10.00,17.00,CLR,M,M,M,M,M,M,M,M,M,M,M,M,M,M,25.48,KELY 091953Z AUTO 24010G17KT 10SM CLR 01/M07 A2986 RMK AO2 SNE1855 SLP105 P0000 T00111072 $,M
LOL,2022-11-09 19:53,-118.5701,40.0684,1192.43,41.00,28.00,59.55,280.00,18.00,0.00,29.95,1015.40,10.00,M,SCT,BKN,OVC,M,4800.00,6000.00,9000.00,M,M,M,M,M,M,M,M,31.60,KLOL 091953Z AUTO 28018KT 10SM SCT048 BKN060 OVC090 05/M02 A2995 RMK AO2 SLP154 T00501022,M
VGT,2022-11-09 19:53,-115.1933,36.2111,667.00,60.00,27.00,28.13,330.00,8.00,0.00,29.93,1014.70,10.00,M,CLR,M,M,M,M,M,M,M,M,M,M,M,M,M,M,60.10,KVGT 091953Z 33008KT 10SM CLR 16/M03 A2993 RMK AO2 SLP147 T01561028,M
P68,2022-11-09 19:53,-116.0056,39.6014,1993.00,33.00,19.00,55.75,260.00,15.00,0.00,29.86,1011.00,M,29.00,M,M,M,M,M,M,M,M,M,M,M,M,30.00,240.00,2022-11-09 19:30,22.21,KP68 091953Z AUTO 26015G29KT 01/M07 A2986 RMK AO1 PK WND 24030/1930 SLP110 T00061072,M
BVU,2022-11-09 19:55,-114.8611,35.9475,671.00,57.20,26.60,30.69,140.00,7.00,0.00,29.96,M,10.00,M,BKN,OVC,M,M,6500.00,7500.00,M,M,M,M,M,M,M,M,M,57.20,KBVU 091955Z AUTO 14007KT 10SM BKN065 OVC075 14/M03 A2996 RMK AO2,M
CXP,2022-11-09 19:55,-119.7326,39.1923,1431.00,39.20,21.20,48.10,M,5.00,0.00,29.99,M,10.00,11.00,BKN,OVC,M,M,4800.00,6000.00,M,M,M,M,M,M,M,M,M,34.95,KCXP 091955Z AUTO VRB05G11KT 10SM BKN048 OVC060 04/M06 A2999 RMK AO2,M
RNO,2022-11-09 19:55,-119.7711,39.4839,1341.00,43.00,23.00,44.80,280.00,17.00,0.00,29.98,1015.10,10.00,23.00,BKN,BKN,M,M,5000.00,12000.00,M,M,M,M,M,M,26.00,280.00,2022-11-09 19:36,34.49,KRNO 091955Z 28017G23KT 10SM BKN050 BKN120 06/M05 A2998 RMK AO2 PK WND 28026/1936 SLP151 CLDS TPG MTNS DSNT SW T00611050,M
INS,2022-11-09 19:55,-115.6733,36.5872,955.00,52.50,24.30,33.10,300.00,11.00,0.00,29.95,1012.50,10.00,M,CLR,M,M,M,M,M,M,M,M,M,M,M,M,M,M,52.50,KINS 091955Z AUTO 30011KT 10SM CLR 11/M04 A2995 RMK AO2 SLP125 T01141043 $,M
RTS,2022-11-09 19:55,-119.8764,39.6682,1539.00,35.60,26.60,69.46,300.00,13.00,0.00,29.99,M,10.00,M,BKN,M,M,M,4300.00,M,M,M,M,M,M,M,M,M,M,26.18,KRTS 091955Z AUTO 30013KT 10SM BKN043 02/M03 A2999 RMK AO2,M
05U,2022-11-09 19:55,-116.0051,39.6042,1811.23,33.80,17.60,51.04,260.00,15.00,0.00,29.88,M,10.00,23.00,CLR,M,M,M,M,M,M,M,M,M,M,M,M,M,M,23.11,K05U 091955Z AUTO 26015G23KT 10SM CLR 01/M08 A2988 RMK A01,M
MEV,2022-11-09 19:55,-119.7500,38.9963,1441.42,37.40,23.00,55.68,230.00,9.00,0.00,29.99,M,10.00,M,BKN,OVC,M,M,5000.00,5500.00,M,M,M,M,M,M,M,M,M,30.23,KMEV 091955Z AUTO 23009KT 10SM BKN050 OVC055 03/M05 A2999 RMK AO2,M
BAM,2022-11-09 19:55,-116.8743,40.5990,1382.36,37.40,28.40,69.67,250.00,22.00,0.00,29.86,M,10.00,26.00,BKN,OVC,M,M,2900.00,3600.00,M,M,M,M,M,M,M,M,M,25.81,KBAM 091955Z AUTO 25022G26KT 10SM BKN029 OVC036 03/M02 A2986 RMK AO1,M
LSV,2022-11-09 19:55,-115.0343,36.2362,570.00,61.50,28.00,27.89,190.00,6.00,0.00,29.92,1012.40,10.00,M,CLR,M,M,M,M,M,M,M,M,M,M,M,M,M,M,61.50,KLSV 091955Z AUTO 19006KT 10SM CLR 16/M02 A2992 RMK AO2 SLP124 T01641022 $,M
TMT,2022-11-09 19:55,-117.1971,39.4643,1749.34,32.40,22.30,65.97,230.00,18.00,0.00,29.93,M,10.00,23.00,SCT,OVC,M,M,3800.00,11000.00,M,M,M,M,M,M,M,M,M,20.28,KTMT 091955Z AUTO 23018G23KT 10SM SCT038 OVC110 00/M05 A2993 RMK AO2 T00021054,M
LAS,2022-11-09 19:56,-115.1634,36.0719,663.00,57.00,24.10,27.86,230.00,10.00,0.00,29.95,1013.40,10.00,M,FEW,M,M,M,8000.00,M,M,M,M,M,M,M,M,M,M,57.00,KLAS 091956Z 23010KT 10SM FEW080 14/M04 A2995 RMK AO2 SLP134 T01391044,M
HND,2022-11-09 19:56,-115.1344,35.9729,742.79,56.00,28.90,35.36,240.00,17.00,0.00,29.95,1015.60,10.00,22.00,CLR,M,M,M,M,M,M,M,M,M,M,M,M,M,M,55.90,KHND 091956Z 24017G22KT 10SM CLR 13/M02 A2995 RMK AO2 SLP156 T01331017,M
NFL,2022-11-09 19:56,-118.7010,39.4166,1199.00,43.00,26.10,50.98,290.00,8.00,0.00,29.97,1012.00,10.00,M,FEW,SCT,BKN,BKN,4000.00,6500.00,9000.00,17000.00,M,M,M,M,M,M,M,37.66,KNFL 091956Z 29008KT 10SM FEW040 SCT065 BKN090 BKN170 06/M03 A2997 RMK AO2 SLP120 T00611033,M
TPH,2022-11-09 19:56,-117.0904,38.0505,1654.00,42.00,21.90,44.27,310.00,15.00,0.00,29.95,1013.70,10.00,24.00,FEW,M,M,M,4900.00,M,M,M,M,M,M,M,M,M,M,33.87,KTPH 091956Z AUTO 31015G24KT 10SM FEW049 06/M06 A2995 RMK AO2 SLP137 T00561056,M
WMC,2022-11-09 19:56,-117.8072,40.9019,1315.00,35.00,30.00,81.46,240.00,17.00,T,29.87,1012.30,10.00,27.00,BKN,OVC,M,M,2400.00,3500.00,M,M,M,M,M,M,30.00,230.00,2022-11-09 19:15,24.14,KWMC 091956Z AUTO 24017G27KT 10SM BKN024 OVC035 02/M01 A2987 RMK AO2 PK WND 23030/1915 UPB39E48SNE23 SLP123 P0000 T00171011,M
EKO,2022-11-09 19:56,-115.7860,40.8242,1367.00,32.00,26.10,78.58,230.00,13.00,0.01,29.82,1011.20,4.00,M,FEW,BKN,OVC,M,1800.00,3700.00,5500.00,M,-SN,M,M,M,M,M,M,21.57,KEKO 091956Z AUTO 23013KT 4SM -SN FEW018 BKN037 OVC055 00/M03 A2982 RMK AO2 SLP112 P0001 T00001033,M
EKO,2022-11-09 20:06,-115.7860,40.8242,1367.00,32.00,26.10,78.58,230.00,13.00,T,29.83,M,2.00,22.00,FEW,BKN,OVC,M,1800.00,3700.00,5500.00,M,-SN,M,M,M,M,M,M,21.57,KEKO 092006Z AUTO 23013G22KT 2SM -SN FEW018 BKN037 OVC055 00/M03 A2983 RMK AO2 P0000 T00001033,M
ELY,2022-11-09 20:12,-114.8453,39.2950,1909.00,28.90,21.90,74.76,240.00,11.00,T,29.87,M,1.00,28.00,SCT,SCT,BKN,M,2100.00,6000.00,8000.00,M,-SN,M,M,M,28.00,240.00,2022-11-09 20:08,18.55,KELY 092012Z AUTO 24011G28KT 1SM -SN SCT021 SCT060 BKN080 M02/M06 A2987 RMK AO2 PK WND 24028/2008 SNB10 P0000 T10171056,M
05U,2022-11-09 20:15,-116.0051,39.6042,1811.23,35.60,19.40,51.33,240.00,17.00,0.00,29.89,M,10.00,24.00,CLR,M,M,M,M,M,M,M,M,M,M,M,M,M,M,24.79,K05U 092015Z AUTO 24017G24KT 10SM CLR 02/M07 A2989 RMK A01,M
BVU,2022-11-09 20:15,-114.8611,35.9475,671.00,59.00,28.40,30.98,230.00,8.00,0.00,29.96,M,10.00,15.00,BKN,M,M,M,7000.00,M,M,M,M,M,M,M,M,M,M,59.00,KBVU 092015Z AUTO 23008G15KT 10SM BKN070 15/M02 A2996 RMK AO2,M
MEV,2022-11-09 20:15,-119.7500,38.9963,1441.42,39.20,23.00,51.89,200.00,4.00,0.00,29.99,M,10.00,M,BKN,OVC,M,M,5000.00,5500.00,M,M,M,M,M,M,M,M,M,35.83,KMEV 092015Z AUTO 20004KT 10SM BKN050 OVC055 04/M05 A2999 RMK AO2,M
CXP,2022-11-09 20:15,-119.7326,39.1923,1431.00,41.00,21.20,44.85,220.00,5.00,0.00,30.00,M,10.00,11.00,BKN,OVC,M,M,5000.00,5500.00,M,M,M,M,M,M,M,M,M,37.08,KCXP 092015Z AUTO 22005G11KT 10SM BKN050 OVC055 05/M06 A3000 RMK AO2,M
TMT,2022-11-09 20:15,-117.1971,39.4643,1749.34,32.20,23.00,68.49,220.00,15.00,0.00,29.95,M,10.00,20.00,BKN,OVC,M,M,4600.00,11000.00,M,M,M,M,M,M,M,M,M,21.04,KTMT 092015Z AUTO 22015G20KT 10SM BKN046 OVC110 00/M05 A2995 RMK AO2 T00011050,M
RTS,2022-11-09 20:15,-119.8764,39.6682,1539.00,35.60,24.80,64.46,310.00,13.00,0.00,30.00,M,10.00,18.00,SCT,M,M,M,4400.00,M,M,M,M,M,M,M,M,M,M,26.18,KRTS 092015Z AUTO 31013G18KT 10SM SCT044 02/M04 A3000 RMK AO2,M
ELY,2022-11-09 20:15,-114.8453,39.2950,1909.00,28.00,23.00,81.25,240.00,8.00,T,29.87,M,0.75,28.00,BKN,BKN,M,M,1900.00,8000.00,M,M,-SN,M,M,M,28.00,240.00,2022-11-09 20:08,19.19,KELY 092015Z AUTO 24008G28KT 3/4SM -SN BKN019 BKN080 M02/M05 A2987 RMK AO2 PK WND 24028/2008 SNB10 P0000 T10221050,M
BAM,2022-11-09 20:15,-116.8743,40.5990,1382.36,37.40,30.20,74.98,240.00,23.00,0.00,29.86,M,10.00,31.00,OVC,M,M,M,3300.00,M,M,M,M,M,M,M,M,M,M,25.57,KBAM 092015Z AUTO 24023G31KT 10SM OVC033 03/M01 A2986 RMK AO1,M
EKO,2022-11-09 20:17,-115.7860,40.8242,1367.00,32.00,26.10,78.58,230.00,12.00,T,29.83,M,1.50,M,FEW,BKN,OVC,M,2000.00,2800.00,3700.00,M,-SN,M,M,M,M,M,M,22.00,KEKO 092017Z AUTO 23012KT 1 1/2SM -SN FEW020 BKN028 OVC037 00/M03 A2983 RMK AO2 P0000 T00001033,M
WMC,2022-11-09 20:18,-117.8072,40.9019,1315.00,35.00,30.90,84.49,260.00,21.00,T,29.88,M,2.50,30.00,BKN,BKN,OVC,M,1300.00,2000.00,2500.00,M,-SN BR,M,M,M,30.00,260.00,2022-11-09 20:16,22.99,KWMC 092018Z AUTO 26021G30KT 2 1/2SM -SN BR BKN013 BKN020 OVC025 02/M01 A2988 RMK AO2 PK WND 26030/2016 VIS 1 1/2V5 SNB03 P0000 T00171006,M
ELY,2022-11-09 20:22,-114.8453,39.2950,1909.00,27.00,23.00,86.07,210.00,5.00,T,29.88,M,1.25,M,SCT,BKN,M,M,1400.00,8000.00,M,M,-SN BR,M,M,M,28.00,240.00,2022-11-09 20:08,19.98,KELY 092022Z AUTO 21005KT 1 1/4SM -SN BR SCT014 BKN080 M03/M05 A2988 RMK AO2 PK WND 24028/2008 SNB10 P0000 T10281050,M
ELY,2022-11-09 20:24,-114.8453,39.2950,1909.00,28.00,23.00,81.25,170.00,3.00,T,29.88,M,3.00,M,SCT,SCT,BKN,M,1600.00,6000.00,8000.00,M,-SN,M,M,M,28.00,240.00,2022-11-09 20:08,24.12,KELY 092024Z AUTO 17003KT 3SM -SN SCT016 SCT060 BKN080 M02/M05 A2988 RMK AO2 PK WND 24028/2008 SNB10 P0000 T10221050,M
WMC,2022-11-09 20:26,-117.8072,40.9019,1315.00,35.00,30.90,84.49,260.00,18.00,0.01,29.88,M,2.50,30.00,SCT,OVC,M,M,1300.00,2000.00,M,M,-SN BR,M,M,M,30.00,260.00,2022-11-09 20:16,23.83,KWMC 092026Z AUTO 26018G30KT 2 1/2SM -SN BR SCT013 OVC020 02/M01 A2988 RMK AO2 PK WND 26030/2016 SNB03 P0001 T00171006,M
WMC,2022-11-09 20:28,-117.8072,40.9019,1315.00,35.00,30.90,84.49,260.00,13.00,0.01,29.89,M,4.00,29.00,BKN,BKN,OVC,M,1400.00,2200.00,2900.00,M,-SN BR,M,M,M,30.00,260.00,2022-11-09 20:16,25.54,KWMC 092028Z AUTO 26013G29KT 4SM -SN BR BKN014 BKN022 OVC029 02/M01 A2989 RMK AO2 PK WND 26030/2016 SNB03 P0001 T00171006,M
EKO,2022-11-09 20:31,-115.7860,40.8242,1367.00,32.00,27.00,81.55,230.00,13.00,T,29.84,M,2.00,M,BKN,OVC,M,M,2500.00,3600.00,M,M,-SN,M,M,M,M,M,M,21.57,KEKO 092031Z AUTO 23013KT 2SM -SN BKN025 OVC036 00/M03 A2984 RMK AO2 P0000 T00001028,M
BAM,2022-11-09 20:35,-116.8743,40.5990,1382.36,37.40,30.20,74.98,240.00,21.00,0.00,29.88,M,10.00,29.00,OVC,M,M,M,3000.00,M,M,M,M,M,M,M,M,M,M,26.06,KBAM 092035Z AUTO 24021G29KT 10SM OVC030 03/M01 A2988 RMK AO1,M
MEV,2022-11-09 20:35,-119.7500,38.9963,1441.42,39.20,23.00,51.89,250.00,10.00,0.00,30.00,M,10.00,M,OVC,M,M,M,4900.00,M,M,M,M,M,M,M,M,M,M,32.00,KMEV 092035Z AUTO 25010KT 10SM OVC049 04/M05 A3000 RMK AO2,M
CXP,2022-11-09 20:35,-119.7326,39.1923,1431.00,39.20,21.20,48.10,260.00,8.00,0.00,30.00,M,10.00,13.00,BKN,OVC,M,M,4900.00,5500.00,M,M,M,M,M,M,M,M,M,32.98,KCXP 092035Z AUTO 26008G13KT 10SM BKN049 OVC055 04/M06 A3000 RMK AO2,M
BVU,2022-11-09 20:35,-114.8611,35.9475,671.00,59.00,28.40,30.98,220.00,16.00,0.00,29.96,M,10.00,M,SCT,BKN,M,M,6500.00,7500.00,M,M,M,M,M,M,M,M,M,59.00,KBVU 092035Z AUTO 22016KT 10SM SCT065 BKN075 15/M02 A2996 RMK AO2,M
TMT,2022-11-09 20:35,-117.1971,39.4643,1749.34,32.40,23.20,68.51,230.00,11.00,0.00,29.95,M,10.00,M,OVC,M,M,M,4300.00,M,M,M,M,M,M,M,M,M,M,22.97,KTMT 092035Z AUTO 23011KT 10SM OVC043 00/M05 A2995 RMK AO2 T00021049,M
05U,2022-11-09 20:35,-116.0051,39.6042,1811.23,35.60,21.20,55.41,250.00,18.00,0.00,29.90,M,10.00,27.00,FEW,M,M,M,3400.00,M,M,M,M,M,M,M,M,M,M,24.49,K05U 092035Z AUTO 25018G27KT 10SM FEW034 02/M06 A2990 RMK A01,M
RTS,2022-11-09 20:35,-119.8764,39.6682,1539.00,37.40,24.80,60.04,310.00,16.00,0.00,30.01,M,10.00,21.00,FEW,FEW,SCT,M,3100.00,4200.00,4800.00,M,M,M,M,M,M,M,M,27.46,KRTS 092035Z AUTO 31016G21KT 10SM FEW031 FEW042 SCT048 03/M04 A3001 RMK AO2,M
WMC,2022-11-09 20:37,-117.8072,40.9019,1315.00,36.00,30.90,80.51,260.00,17.00,0.01,29.89,M,9.00,26.00,SCT,SCT,OVC,M,1400.00,2400.00,9500.00,M,M,M,M,M,30.00,260.00,2022-11-09 20:16,24.79,KWMC 092037Z AUTO 26017G26KT 9SM SCT014 SCT024 OVC095 02/M01 A2989 RMK AO2 PK WND 26030/2016 SNB03E37 P0001 T00221006,M
EKO,2022-11-09 20:43,-115.7860,40.8242,1367.00,32.00,27.00,81.55,230.00,11.00,T,29.84,M,5.00,23.00,BKN,OVC,M,M,2100.00,2700.00,M,M,-SN,M,M,M,M,M,M,22.47,KEKO 092043Z AUTO 23011G23KT 5SM -SN BKN021 OVC027 00/M03 A2984 RMK AO2 P0000 T00001028,M
LOL,2022-11-09 20:53,-118.5701,40.0684,1192.43,42.00,28.90,59.22,280.00,19.00,0.00,29.96,1015.80,10.00,M,BKN,BKN,M,M,4300.00,5000.00,M,M,M,M,M,M,M,M,M,32.79,KLOL 092053Z AUTO 28019KT 10SM BKN043 BKN050 06/M02 A2996 RMK AO2 SLP158 T00561017 51020,M
P68,2022-11-09 20:53,-116.0056,39.6014,1993.00,34.00,21.90,60.83,270.00,17.00,0.00,29.89,1011.80,M,28.00,M,M,M,M,M,M,M,M,M,M,M,M,34.00,230.00,2022-11-09 20:38,22.70,KP68 092053Z AUTO 27017G28KT 01/M06 A2989 RMK AO1 PK WND 23034/2038 SLP118 T00111056 53016,M
DRA,2022-11-09 20:53,-116.0278,36.6206,1009.00,52.00,28.00,39.30,230.00,11.00,0.00,29.98,1013.40,10.00,22.00,FEW,M,M,M,5000.00,M,M,M,M,M,M,M,M,M,M,52.00,KDRA 092053Z AUTO 23011G22KT 10SM FEW050 11/M02 A2998 RMK AO2 SLP134 T01111022 51014,M
VGT,2022-11-09 20:53,-115.1933,36.2111,667.00,60.00,26.10,27.10,310.00,11.00,0.00,29.94,1015.10,10.00,17.00,CLR,M,M,M,M,M,M,M,M,M,M,M,M,M,M,60.10,KVGT 092053Z 31011G17KT 10SM CLR 16/M03 A2994 RMK AO2 SLP151 T01561033 51009,M
ELY,2022-11-09 20:53,-114.8453,39.2950,1909.00,33.00,23.00,66.06,210.00,8.00,T,29.87,1011.10,10.00,M,FEW,SCT,M,M,4600.00,6500.00,M,M,M,M,M,M,28.00,240.00,2022-11-09 20:08,25.47,KELY 092053Z AUTO 21008KT 10SM FEW046 SCT065 01/M05 A2987 RMK AO2 PK WND 24028/2008 SNB10E29 SLP111 P0000 60000 T00061050 52012,M
BVU,2022-11-09 20:55,-114.8611,35.9475,671.00,59.00,28.40,30.98,230.00,10.00,0.00,29.96,M,10.00,M,FEW,FEW,M,M,6500.00,7500.00,M,M,M,M,M,M,M,M,M,59.00,KBVU 092055Z AUTO 23010KT 10SM FEW065 FEW075 15/M02 A2996 RMK AO2,M
LSV,2022-11-09 20:55,-115.0343,36.2362,570.00,63.50,28.00,25.99,210.00,5.00,0.00,29.92,1012.30,10.00,M,FEW,M,M,M,7500.00,M,M,M,M,M,M,M,M,M,M,63.50,KLSV 092055Z AUTO 21005KT 10SM FEW075 18/M02 A2992 RMK AO2 SLP123 T01751022 51009 $,M
INS,2022-11-09 20:55,-115.6733,36.5872,955.00,53.00,22.50,30.03,290.00,12.00,0.00,29.96,1012.90,10.00,M,CLR,M,M,M,M,M,M,M,M,M,M,M,M,M,M,53.10,KINS 092055Z AUTO 29012KT 10SM CLR 12/M05 A2996 RMK AO2 SLP129 T01171053 52015 $,M
05U,2022-11-09 20:55,-116.0051,39.6042,1811.23,35.60,21.20,55.41,260.00,15.00,0.00,29.91,M,10.00,24.00,SCT,SCT,M,M,3200.00,4400.00,M,M,M,M,M,M,M,M,M,25.45,K05U 092055Z AUTO 26015G24KT 10SM SCT032 SCT044 02/M06 A2991 RMK A01,M
MEV,2022-11-09 20:55,-119.7500,38.9963,1441.42,41.00,23.00,48.39,260.00,10.00,0.00,30.00,M,10.00,M,BKN,BKN,OVC,M,5000.00,6000.00,6500.00,M,M,M,M,M,M,M,M,34.25,KMEV 092055Z AUTO 26010KT 230V290 10SM BKN050 BKN060 OVC065 05/M05 A3000 RMK AO2,M
BAM,2022-11-09 20:55,-116.8743,40.5990,1382.36,37.40,30.20,74.98,240.00,18.00,0.00,29.89,M,10.00,29.00,SCT,BKN,OVC,M,2600.00,3200.00,3800.00,M,M,M,M,M,M,M,M,26.86,KBAM 092055Z AUTO 24018G29KT 10SM SCT026 BKN032 OVC038 03/M01 A2989 RMK AO1,M
TMT,2022-11-09 20:55,-117.1971,39.4643,1749.34,32.50,21.00,62.19,240.00,16.00,0.00,29.96,M,10.00,20.00,SCT,BKN,OVC,M,3700.00,4200.00,4900.00,M,M,M,M,M,M,M,M,21.07,KTMT 092055Z AUTO 24016G20KT 10SM SCT037 BKN042 OVC049 00/M06 A2996 RMK AO2 T00031061,M
RNO,2022-11-09 20:55,-119.7711,39.4839,1341.00,46.00,23.00,39.96,260.00,14.00,0.00,30.00,1015.60,10.00,22.00,BKN,BKN,M,M,5000.00,11000.00,M,M,M,M,M,M,M,M,M,39.21,KRNO 092055Z 26014G22KT 10SM BKN050 BKN110 08/M05 A3000 RMK AO2 SLP156 CLDS TPG MTNS DSNT SW T00781050 51022,M
RTS,2022-11-09 20:55,-119.8764,39.6682,1539.00,35.60,24.80,64.46,290.00,17.00,0.00,30.02,M,10.00,M,BKN,BKN,M,M,4600.00,5500.00,M,M,M,M,M,M,M,M,M,24.79,KRTS 092055Z AUTO 29017KT 10SM BKN046 BKN055 02/M04 A3002 RMK AO2,M
CXP,2022-11-09 20:55,-119.7326,39.1923,1431.00,41.00,21.20,44.85,250.00,8.00,0.00,30.01,M,10.00,M,SCT,BKN,M,M,5000.00,6000.00,M,M,M,M,M,M,M,M,M,35.20,KCXP 092055Z AUTO 25008KT 10SM SCT050 BKN060 05/M06 A3001 RMK AO2,M
HND,2022-11-09 20:56,-115.1344,35.9729,742.79,58.00,27.00,30.43,220.00,7.00,0.00,29.97,1016.30,10.00,M,FEW,M,M,M,5000.00,M,M,M,M,M,M,M,M,M,M,57.90,KHND 092056Z 22007KT 10SM FEW050 14/M03 A2997 RMK AO2 SLP163 T01441028 53006,M
LAS,2022-11-09 20:56,-115.1634,36.0719,663.00,58.00,25.00,28.01,270.00,9.00,0.00,29.95,1013.60,10.00,17.00,FEW,FEW,M,M,8000.00,14000.00,M,M,M,M,M,M,M,M,M,57.90,KLAS 092056Z 27009G17KT 10SM FEW080 FEW140 14/M04 A2995 RMK AO2 SLP136 T01441039 51007,M
TPH,2022-11-09 20:56,-117.0904,38.0505,1654.00,41.00,21.00,44.47,290.00,15.00,0.00,29.96,1014.30,10.00,22.00,BKN,OVC,M,M,6000.00,7500.00,M,M,M,M,M,M,M,M,M,32.45,KTPH 092056Z AUTO 29015G22KT 10SM BKN060 OVC075 05/M06 A2996 RMK AO2 SLP143 T00501061 51013,M
WMC,2022-11-09 20:56,-117.8072,40.9019,1315.00,37.00,30.90,78.37,260.00,19.00,0.01,29.90,1013.20,9.00,29.00,FEW,SCT,OVC,M,2200.00,3900.00,9000.00,M,-SN,M,M,M,30.00,260.00,2022-11-09 20:16,26.05,KWMC 092056Z AUTO 26019G29KT 9SM -SN FEW022 SCT039 OVC090 03/M01 A2990 RMK AO2 PK WND 26030/2016 SNB03E37B45 SLP132 P0001 60001 T00281006 53013,M
EKO,2022-11-09 20:56,-115.7860,40.8242,1367.00,33.00,27.00,78.03,230.00,14.00,T,29.84,1011.70,7.00,M,SCT,BKN,OVC,M,2100.00,2800.00,3600.00,M,-SN,M,M,M,M,M,M,22.58,KEKO 092056Z AUTO 23014KT 7SM -SN SCT021 BKN028 OVC036 01/M03 A2984 RMK AO2 SLP117 P0000 60001 T00061028 51014,M
NFL,2022-11-09 20:56,-118.7010,39.4166,1199.00,47.00,24.10,40.44,290.00,18.00,0.00,29.98,1012.30,10.00,24.00,FEW,BKN,BKN,M,4000.00,6000.00,10000.00,M,M,M,M,M,M,M,M,39.36,KNFL 092056Z 29018G24KT 10SM FEW040 BKN060 BKN100 08/M04 A2998 RMK AO2 SLP123 T00831044 51016,M
EKO,2022-11-09 21:04,-115.7860,40.8242,1367.00,33.00,27.00,78.03,230.00,15.00,T,29.84,M,6.00,M,FEW,SCT,OVC,M,1800.00,2500.00,3200.00,M,-SN,M,M,M,M,M,M,22.21,KEKO 092104Z AUTO 23015KT 6SM -SN FEW018 SCT025 OVC032 01/M03 A2984 RMK AO2 P0000 T00061028,M
TMT,2022-11-09 21:15,-117.1971,39.4643,1749.34,33.00,21.90,63.57,240.00,14.00,0.00,29.97,M,10.00,19.00,BKN,OVC,M,M,4200.00,5000.00,M,M,M,M,M,M,M,M,M,22.32,KTMT 092115Z AUTO 24014G19KT 10SM BKN042 OVC050 01/M06 A2997 RMK AO2 T00051056,M
MEV,2022-11-09 21:15,-119.7500,38.9963,1441.42,39.20,23.00,51.89,230.00,5.00,0.00,30.01,M,10.00,12.00,SCT,BKN,M,M,5000.00,6000.00,M,M,M,M,M,M,M,M,M,34.95,KMEV 092115Z AUTO 23005G12KT 10SM SCT050 BKN060 04/M05 A3001 RMK AO2,M
05U,2022-11-09 21:15,-116.0051,39.6042,1811.23,37.40,21.20,51.61,260.00,17.00,0.00,29.92,M,10.00,22.00,FEW,SCT,SCT,M,3200.00,3800.00,4700.00,M,M,M,M,M,M,M,M,27.15,K05U 092115Z AUTO 26017G22KT 10SM FEW032 SCT038 SCT047 03/M06 A2992 RMK A01,M
RTS,2022-11-09 21:15,-119.8764,39.6682,1539.00,35.60,24.80,64.46,280.00,15.00,0.00,30.03,M,10.00,M,FEW,SCT,M,M,3900.00,4800.00,M,M,M,M,M,M,M,M,M,25.45,KRTS 092115Z AUTO 28015KT 10SM FEW039 SCT048 02/M04 A3003 RMK AO2,M
BVU,2022-11-09 21:15,-114.8611,35.9475,671.00,59.00,28.40,30.98,220.00,12.00,0.00,29.97,M,10.00,M,FEW,M,M,M,6500.00,M,M,M,M,M,M,M,M,M,M,59.00,KBVU 092115Z AUTO 22012KT 10SM FEW065 15/M02 A2997 RMK AO2,M
BAM,2022-11-09 21:15,-116.8743,40.5990,1382.36,35.60,32.00,86.59,240.00,22.00,0.00,29.89,M,4.00,28.00,BKN,OVC,M,M,2400.00,3200.00,M,M,M,M,M,M,M,M,M,23.40,KBAM 092115Z AUTO 24022G28KT 4SM BKN024 OVC032 02/00 A2989 RMK AO1,M
EKO,2022-11-09 21:15,-115.7860,40.8242,1367.00,33.00,27.00,78.03,230.00,14.00,T,29.84,M,2.50,21.00,BKN,OVC,M,M,2600.00,3200.00,M,M,-SN,M,M,M,M,M,M,22.58,KEKO 092115Z AUTO 23014G21KT 2 1/2SM -SN BKN026 OVC032 01/M03 A2984 RMK AO2 P0000 T00061028,M
CXP,2022-11-09 21:15,-119.7326,39.1923,1431.00,42.80,23.00,45.14,250.00,5.00,0.00,30.03,M,10.00,11.00,SCT,SCT,M,M,5000.00,5500.00,M,M,M,M,M,M,M,M,M,39.22,KCXP 092115Z AUTO 25005G11KT 10SM SCT050 SCT055 06/M05 A3003 RMK AO2,M
EKO,2022-11-09 21:26,-115.7860,40.8242,1367.00,32.00,28.00,84.98,220.00,16.00,T,29.84,M,1.25,26.00,BKN,BKN,OVC,M,2100.00,2700.00,3200.00,M,-SN BR,M,M,M,26.00,230.00,2022-11-09 21:19,20.42,KEKO 092126Z AUTO 22016G26KT 1 1/4SM -SN BR BKN021 BKN027 OVC032 00/M02 A2984 RMK AO2 PK WND 23026/2119 P0000 T00001022,M
CXP,2022-11-09 21:30,-119.7326,39.1923,1431.00,42.80,23.00,45.14,260.00,8.00,0.00,30.03,M,10.00,15.00,SCT,BKN,M,M,5000.00,5500.00,M,M,M,M,M,M,M,M,M,37.42,KCXP 092130Z AUTO 26008G15KT 210V290 10SM SCT050 BKN055 06/M05 A3003 RMK AO2,M
TMT,2022-11-09 21:35,-117.1971,39.4643,1749.34,33.00,22.10,64.11,240.00,13.00,0.00,29.97,M,10.00,M,BKN,OVC,M,M,4200.00,5000.00,M,M,M,M,M,M,M,M,M,22.72,KTMT 092135Z AUTO 24013KT 10SM BKN042 OVC050 01/M05 A2997 RMK AO2 T00051055,M
BVU,2022-11-09 21:35,-114.8611,35.9475,671.00,59.00,26.60,28.77,230.00,9.00,0.00,29.97,M,10.00,15.00,BKN,M,M,M,7000.00,M,M,M,M,M,M,M,M,M,M,59.00,KBVU 092135Z AUTO 23009G15KT 10SM BKN070 15/M03 A2997 RMK AO2,M
RTS,2022-11-09 21:35,-119.8764,39.6682,1539.00,35.60,23.00,59.79,280.00,15.00,0.00,30.04,M,10.00,M,BKN,M,M,M,4700.00,M,M,M,M,M,M,M,M,M,M,25.45,KRTS 092135Z AUTO 28015KT 10SM BKN047 02/M05 A3004 RMK AO2,M
05U,2022-11-09 21:35,-116.0051,39.6042,1811.23,35.60,23.00,59.79,260.00,18.00,0.00,29.93,M,10.00,24.00,FEW,BKN,BKN,M,3100.00,3900.00,4700.00,M,M,M,M,M,M,M,M,24.49,K05U 092135Z AUTO 26018G24KT 10SM FEW031 BKN039 BKN047 02/M05 A2993 RMK A01,M
MEV,2022-11-09 21:35,-119.7500,38.9963,1441.42,39.20,23.00,51.89,240.00,9.00,0.00,30.02,M,10.00,M,BKN,BKN,M,M,5000.00,6000.00,M,M,M,M,M,M,M,M,M,32.47,KMEV 092135Z AUTO 24009KT 10SM BKN050 BKN060 04/M05 A3002 RMK AO2,M
BAM,2022-11-09 21:35,-116.8743,40.5990,1382.36,35.60,32.00,86.59,240.00,19.00,0.00,29.90,M,10.00,24.00,SCT,BKN,OVC,M,2000.00,3000.00,3500.00,M,M,M,M,M,M,M,M,24.20,KBAM 092135Z AUTO 24019G24KT 10SM SCT020 BKN030 OVC035 02/00 A2990 RMK AO1,M
P68,2022-11-09 21:53,-116.0056,39.6014,1993.00,33.00,23.00,66.06,270.00,14.00,0.00,29.91,1012.60,M,27.00,M,M,M,M,M,M,M,M,M,M,M,M,29.00,240.00,2022-11-09 21:32,22.58,KP68 092153Z AUTO 27014G27KT 01/M05 A2991 RMK AO1 PK WND 24029/2132 SLP126 T00061050,M
LOL,2022-11-09 21:53,-118.5701,40.0684,1192.43,41.00,30.00,64.63,280.00,17.00,0.00,29.98,1016.70,10.00,25.00,FEW,M,M,M,12000.00,M,M,M,M,M,M,M,28.00,290.00,2022-11-09 21:14,31.87,KLOL 092153Z AUTO 28017G25KT 10SM FEW120 05/M01 A2998 RMK AO2 PK WND 29028/2114 SLP167 T00501011,M
DRA,2022-11-09 21:53,-116.0278,36.6206,1009.00,52.00,25.00,34.72,250.00,12.00,0.00,29.98,1013.60,10.00,M,CLR,M,M,M,M,M,M,M,M,M,M,M,27.00,210.00,2022-11-09 21:15,52.00,KDRA 092153Z AUTO 25012KT 10SM CLR 11/M04 A2998 RMK AO2 PK WND 21027/2115 SLP136 T01111039,M
ELY,2022-11-09 21:53,-114.8453,39.2950,1909.00,33.00,24.10,69.17,160.00,6.00,0.00,29.89,1012.30,10.00,M,FEW,BKN,BKN,M,4700.00,5500.00,7000.00,M,M,M,M,M,M,M,M,26.86,KELY 092153Z AUTO 16006KT 10SM FEW047 BKN055 BKN070 01/M04 A2989 RMK AO2 SLP123 T00061044,M
VGT,2022-11-09 21:53,-115.1933,36.2111,667.00,60.00,23.00,23.81,320.00,10.00,0.00,29.95,1015.50,10.00,15.00,CLR,M,M,M,M,M,M,M,M,M,M,M,M,M,M,60.10,KVGT 092153Z 32010G15KT 10SM CLR 16/M05 A2995 RMK AO2 SLP155 T01561050,M
TMT,2022-11-09 21:55,-117.1971,39.4643,1749.34,33.40,22.10,62.84,240.00,12.00,0.00,29.97,M,10.00,M,SCT,OVC,M,M,4100.00,5000.00,M,M,M,M,M,M,M,M,M,23.78,KTMT 092155Z AUTO 24012KT 10SM SCT041 OVC050 01/M05 A2997 RMK AO2 T00081055,M
RNO,2022-11-09 21:55,-119.7711,39.4839,1341.00,43.00,23.00,44.80,270.00,12.00,0.00,30.03,1016.80,10.00,18.00,BKN,M,M,M,5500.00,M,M,M,M,M,M,M,M,M,M,36.00,KRNO 092155Z 27012G18KT 10SM BKN055 06/M05 A3003 RMK AO2 SLP168 CLDS TPG MTNS DSNT SW T00611050,M
RTS,2022-11-09 21:55,-119.8764,39.6682,1539.00,35.60,23.00,59.79,290.00,14.00,0.00,30.04,M,10.00,M,BKN,M,M,M,4800.00,M,M,M,M,M,M,M,M,M,M,25.80,KRTS 092155Z AUTO 29014KT 10SM BKN048 02/M05 A3004 RMK AO2,M
05U,2022-11-09 21:55,-116.0051,39.6042,1811.23,33.80,23.00,64.23,270.00,13.00,0.00,29.93,M,10.00,22.00,FEW,FEW,M,M,3900.00,4600.00,M,M,M,M,M,M,M,M,M,23.87,K05U 092155Z AUTO 27013G22KT 10SM FEW039 FEW046 01/M05 A2993 RMK A01,M
MEV,2022-11-09 21:55,-119.7500,38.9963,1441.42,39.20,23.00,51.89,240.00,5.00,0.00,30.03,M,10.00,M,OVC,M,M,M,5000.00,M,M,M,M,M,M,M,M,M,M,34.95,KMEV 092155Z AUTO 24005KT 10SM OVC050 04/M05 A3003 RMK AO2,M
BAM,2022-11-09 21:55,-116.8743,40.5990,1382.36,37.40,32.00,80.65,240.00,18.00,0.00,29.90,M,10.00,24.00,SCT,BKN,OVC,M,2000.00,4700.00,6000.00,M,M,M,M,M,M,M,M,26.86,KBAM 092155Z AUTO 24018G24KT 10SM SCT020 BKN047 OVC060 03/00 A2990 RMK AO1,M
INS,2022-11-09 21:55,-115.6733,36.5872,955.00,53.20,19.20,26.01,270.00,7.00,0.00,29.98,1013.60,10.00,M,CLR,M,M,M,M,M,M,M,M,M,M,M,M,M,M,53.20,KINS 092155Z AUTO 27007KT 10SM CLR 12/M07 A2998 RMK AO2 SLP136 T01181071 $,M
LSV,2022-11-09 21:55,-115.0343,36.2362,570.00,64.00,24.30,21.99,200.00,6.00,0.00,29.93,1012.80,10.00,M,CLR,M,M,M,M,M,M,M,M,M,M,M,M,M,M,63.90,KLSV 092155Z AUTO 20006KT 10SM CLR 18/M04 A2993 RMK AO2 SLP128 T01771043 $,M
CXP,2022-11-09 21:55,-119.7326,39.1923,1431.00,42.80,23.00,45.14,M,5.00,0.00,30.04,M,10.00,M,BKN,OVC,M,M,5000.00,6000.00,M,M,M,M,M,M,M,M,M,39.22,KCXP 092155Z AUTO VRB05KT 10SM BKN050 OVC060 06/M05 A3004 RMK AO2,M
BVU,2022-11-09 21:55,-114.8611,35.9475,671.00,57.20,24.80,28.48,250.00,9.00,0.00,29.98,M,10.00,M,SCT,M,M,M,7000.00,M,M,M,M,M,M,M,M,M,M,57.20,KBVU 092155Z AUTO 25009KT 10SM SCT070 14/M04 A2998 RMK AO2,M
LAS,2022-11-09 21:56,-115.1634,36.0719,663.00,61.00,26.10,26.25,290.00,11.00,0.00,29.97,1014.10,10.00,17.00,FEW,M,M,M,9000.00,M,M,M,M,M,M,M,M,M,M,61.00,KLAS 092156Z 29011G17KT 10SM FEW090 16/M03 A2997 RMK AO2 SLP141 T01611033,M
HND,2022-11-09 21:56,-115.1344,35.9729,742.79,58.00,23.00,25.76,280.00,12.00,0.00,29.99,1016.80,10.00,M,CLR,M,M,M,M,M,M,M,M,M,M,M,M,M,M,57.90,KHND 092156Z 28012KT 10SM CLR 14/M05 A2999 RMK AO2 SLP168 T01441050,M
TPH,2022-11-09 21:56,-117.0904,38.0505,1654.00,43.00,17.10,34.84,310.00,12.00,0.00,29.97,1014.70,10.00,25.00,CLR,M,M,M,M,M,M,M,M,M,M,M,M,M,M,36.00,KTPH 092156Z AUTO 31012G25KT 10SM CLR 06/M08 A2997 RMK AO2 SLP147 T00611083,M
EKO,2022-11-09 21:56,-115.7860,40.8242,1367.00,32.00,28.00,84.98,220.00,11.00,T,29.86,1012.40,1.25,20.00,BKN,OVC,M,M,1700.00,2300.00,M,M,-SN BR,M,M,M,26.00,230.00,2022-11-09 21:19,22.47,KEKO 092156Z AUTO 22011G20KT 1 1/4SM -SN BR BKN017 OVC023 00/M02 A2986 RMK AO2 PK WND 23026/2119 SLP124 P0000 T00001022,M
WMC,2022-11-09 21:56,-117.8072,40.9019,1315.00,37.00,27.00,66.82,280.00,21.00,T,29.92,1013.90,5.00,31.00,BKN,OVC,M,M,3000.00,4100.00,M,M,-SN,M,M,M,31.00,280.00,2022-11-09 21:47,25.52,KWMC 092156Z AUTO 28021G31KT 5SM -SN BKN030 OVC041 03/M03 A2992 RMK AO2 PK WND 28031/2147 UPB02E08B42E47SNE02B47 SLP139 P0000 T00281028,M
NFL,2022-11-09 21:56,-118.7010,39.4166,1199.00,47.00,24.10,40.44,290.00,14.00,0.00,30.00,1013.10,10.00,23.00,SCT,BKN,BKN,M,4000.00,6500.00,11000.00,M,M,M,M,M,M,M,M,40.37,KNFL 092156Z 29014G23KT 10SM SCT040 BKN065 BKN110 08/M04 A3000 RMK AO2 SLP131 T00831044,M
MEV,2022-11-09 22:15,-119.7500,38.9963,1441.42,39.20,23.00,51.89,270.00,5.00,0.00,30.04,M,10.00,M,OVC,M,M,M,4800.00,M,M,M,M,M,M,M,M,M,M,34.95,KMEV 092215Z AUTO 27005KT 10SM OVC048 04/M05 A3004 RMK AO2,M
TMT,2022-11-09 22:15,-117.1971,39.4643,1749.34,33.00,22.60,65.48,230.00,15.00,0.00,29.98,M,10.00,M,SCT,OVC,M,M,4300.00,5000.00,M,M,M,M,M,M,M,M,M,21.95,KTMT 092215Z AUTO 23015KT 10SM SCT043 OVC050 01/M05 A2998 RMK AO2 T00051052,M
BVU,2022-11-09 22:15,-114.8611,35.9475,671.00,57.20,24.80,28.48,220.00,5.00,0.00,29.98,M,10.00,M,FEW,M,M,M,7500.00,M,M,M,M,M,M,M,M,M,M,57.20,KBVU 092215Z AUTO 22005KT 10SM FEW075 14/M04 A2998 RMK AO2,M
BAM,2022-11-09 22:15,-116.8743,40.5990,1382.36,35.60,32.00,86.59,240.00,21.00,0.00,29.91,M,7.00,27.00,SCT,BKN,OVC,M,2000.00,6000.00,7000.00,M,M,M,M,M,M,M,M,23.65,KBAM 092215Z AUTO 24021G27KT 7SM SCT020 BKN060 OVC070 02/00 A2991 RMK AO1,M
CXP,2022-11-09 22:15,-119.7326,39.1923,1431.00,42.80,23.00,45.14,M,6.00,0.00,30.05,M,10.00,12.00,BKN,OVC,M,M,5000.00,6000.00,M,M,M,M,M,M,M,M,M,38.54,KCXP 092215Z AUTO VRB06G12KT 10SM BKN050 OVC060 06/M05 A3005 RMK AO2,M
RTS,2022-11-09 22:15,-119.8764,39.6682,1539.00,35.60,23.00,59.79,310.00,11.00,0.00,30.06,M,10.00,M,BKN,OVC,M,M,4400.00,5000.00,M,M,M,M,M,M,M,M,M,27.02,KRTS 092215Z AUTO 31011KT 10SM BKN044 OVC050 02/M05 A3006 RMK AO2,M
05U,2022-11-09 22:15,-116.0051,39.6042,1811.23,33.80,21.20,59.53,260.00,15.00,0.00,29.94,M,10.00,21.00,FEW,BKN,M,M,3800.00,4500.00,M,M,M,M,M,M,M,M,M,23.11,K05U 092215Z AUTO 26015G21KT 10SM FEW038 BKN045 01/M06 A2994 RMK A01,M
EKO,2022-11-09 22:22,-115.7860,40.8242,1367.00,32.00,28.90,88.17,230.00,14.00,0.01,29.87,M,0.75,20.00,BKN,OVC,M,M,1400.00,2300.00,M,M,-SN BR,M,M,M,M,M,M,21.16,KEKO 092222Z AUTO 23014G20KT 3/4SM -SN BR BKN014 OVC023 00/M02 A2987 RMK AO2 P0001 T00001017,M
MEV,2022-11-09 22:35,-119.7500,38.9963,1441.42,41.00,24.80,52.17,260.00,13.00,0.00,30.05,M,10.00,M,OVC,M,M,M,4700.00,M,M,M,M,M,M,M,M,M,M,33.10,KMEV 092235Z AUTO 26013KT 10SM OVC047 05/M04 A3005 RMK AO2,M
BVU,2022-11-09 22:35,-114.8611,35.9475,671.00,57.20,24.80,28.48,0.00,0.00,0.00,29.98,M,10.00,M,CLR,M,M,M,M,M,M,M,M,M,M,M,M,M,M,57.20,KBVU 092235Z AUTO 00000KT 10SM CLR 14/M04 A2998 RMK AO2,M
CXP,2022-11-09 22:35,-119.7326,39.1923,1431.00,41.00,23.00,48.39,210.00,5.00,0.00,30.06,M,10.00,10.00,OVC,M,M,M,5500.00,M,M,M,M,M,M,M,M,M,M,37.08,KCXP 092235Z AUTO 21005G10KT 10SM OVC055 05/M05 A3006 RMK AO2,M
RTS,2022-11-09 22:35,-119.8764,39.6682,1539.00,35.60,23.00,59.79,290.00,14.00,0.00,30.06,M,10.00,M,OVC,M,M,M,4600.00,M,M,M,M,M,M,M,M,M,M,25.80,KRTS 092235Z AUTO 29014KT 10SM OVC046 02/M05 A3006 RMK AO2,M
05U,2022-11-09 22:35,-116.0051,39.6042,1811.23,33.80,19.40,55.14,260.00,15.00,0.00,29.95,M,10.00,M,SCT,BKN,BKN,M,3700.00,4500.00,5000.00,M,M,M,M,M,M,M,M,23.11,K05U 092235Z AUTO 26015KT 10SM SCT037 BKN045 BKN050 01/M07 A2995 RMK A01,M
BAM,2022-11-09 22:35,-116.8743,40.5990,1382.36,35.60,32.00,86.59,250.00,17.00,0.00,29.93,M,5.00,20.00,SCT,BKN,OVC,M,1800.00,4700.00,6000.00,M,M,M,M,M,M,M,M,24.79,KBAM 092235Z AUTO 25017G20KT 5SM SCT018 BKN047 OVC060 02/00 A2993 RMK AO1,M
TMT,2022-11-09 22:35,-117.1971,39.4643,1749.34,32.70,23.40,68.26,240.00,11.00,0.00,29.99,M,10.00,M,SCT,BKN,OVC,M,3100.00,4700.00,5000.00,M,M,M,M,M,M,M,M,23.35,KTMT 092235Z AUTO 24011KT 10SM SCT031 BKN047 OVC050 00/M05 A2999 RMK AO2 T00041048,M
05U,2022-11-09 22:50,-116.0051,39.6042,1811.23,33.80,19.40,55.14,260.00,13.00,0.00,29.95,M,10.00,21.00,FEW,FEW,BKN,M,3600.00,4500.00,5000.00,M,M,M,M,M,M,M,M,23.87,K05U 092250Z AUTO 26013G21KT 10SM FEW036 FEW045 BKN050 01/M07 A2995 RMK A01,M
DRA,2022-11-09 22:53,-116.0278,36.6206,1009.00,52.00,25.00,34.72,230.00,10.00,0.00,29.99,1014.00,10.00,M,CLR,M,M,M,M,M,M,M,M,M,M,M,M,M,M,52.00,KDRA 092253Z AUTO 23010KT 10SM CLR 11/M04 A2999 RMK AO2 SLP140 T01111039,M
ELY,2022-11-09 22:53,-114.8453,39.2950,1909.00,32.00,21.90,65.92,280.00,4.00,T,29.93,1013.70,9.00,M,SCT,BKN,OVC,M,5000.00,6000.00,7500.00,M,M,M,M,M,M,M,M,27.42,KELY 092253Z AUTO 28004KT 9SM SCT050 BKN060 OVC075 00/M06 A2993 RMK AO2 SNB2155E25 SLP137 P0000 T00001056,M
VGT,2022-11-09 22:53,-115.1933,36.2111,667.00,61.00,19.90,20.23,330.00,14.00,0.00,29.96,1015.90,10.00,21.00,CLR,M,M,M,M,M,M,M,M,M,M,M,M,M,M,61.00,KVGT 092253Z 33014G21KT 10SM CLR 16/M07 A2996 RMK AO2 SLP159 T01611067,M
P68,2022-11-09 22:53,-116.0056,39.6014,1993.00,33.00,19.90,57.93,260.00,17.00,0.00,29.93,1013.70,M,25.00,M,M,M,M,M,M,M,M,M,M,M,M,29.00,230.00,2022-11-09 22:22,21.52,KP68 092253Z AUTO 26017G25KT 01/M07 A2993 RMK AO1 PK WND 23029/2222 SLP137 T00061067,M
LOL,2022-11-09 22:53,-118.5701,40.0684,1192.43,43.00,28.00,55.14,310.00,9.00,0.00,30.02,1017.90,10.00,17.00,BKN,M,M,M,11000.00,M,M,M,M,M,M,M,M,M,M,37.19,KLOL 092253Z AUTO 31009G17KT 10SM BKN110 06/M02 A3002 RMK AO2 SLP179 T00611022,M
RTS,2022-11-09 22:55,-119.8764,39.6682,1539.00,35.60,23.00,59.79,290.00,11.00,0.00,30.07,M,10.00,17.00,BKN,OVC,M,M,4600.00,5000.00,M,M,M,M,M,M,M,M,M,27.02,KRTS 092255Z AUTO 29011G17KT 10SM BKN046 OVC050 02/M05 A3007 RMK AO2,M
CXP,2022-11-09 22:55,-119.7326,39.1923,1431.00,41.00,21.20,44.85,270.00,5.00,0.00,30.07,M,10.00,11.00,BKN,BKN,M,M,5000.00,6000.00,M,M,M,M,M,M,M,M,M,37.08,KCXP 092255Z AUTO 27005G11KT 10SM BKN050 BKN060 05/M06 A3007 RMK AO2,M
RNO,2022-11-09 22:55,-119.7711,39.4839,1341.00,45.00,21.90,39.62,290.00,12.00,0.00,30.06,1017.90,10.00,19.00,BKN,M,M,M,5500.00,M,M,M,M,M,M,M,M,M,M,38.55,KRNO 092255Z 29012G19KT 10SM BKN055 07/M06 A3006 RMK AO2 SLP179 CLDS TPG MTNS DSNT SW T00721056,M
BVU,2022-11-09 22:55,-114.8611,35.9475,671.00,59.00,26.60,28.77,210.00,5.00,0.00,29.99,M,10.00,11.00,SCT,M,M,M,8000.00,M,M,M,M,M,M,M,M,M,M,59.00,KBVU 092255Z AUTO 21005G11KT 10SM SCT080 15/M03 A2999 RMK AO2,M
MEV,2022-11-09 22:55,-119.7500,38.9963,1441.42,41.00,23.00,48.39,290.00,9.00,0.00,30.06,M,10.00,M,BKN,BKN,M,M,4900.00,5500.00,M,M,M,M,M,M,M,M,M,34.70,KMEV 092255Z AUTO 29009KT 10SM BKN049 BKN055 05/M05 A3006 RMK AO2,M
BAM,2022-11-09 22:55,-116.8743,40.5990,1382.36,33.80,32.00,93.03,250.00,13.00,0.00,29.95,M,3.00,19.00,SCT,BKN,OVC,M,1600.00,3100.00,3700.00,M,M,M,M,M,M,M,M,23.87,KBAM 092255Z AUTO 25013G19KT 3SM SCT016 BKN031 OVC037 01/00 A2995 RMK AO1,M
INS,2022-11-09 22:55,-115.6733,36.5872,955.00,52.70,19.60,26.95,280.00,6.00,0.00,29.99,1014.10,10.00,M,CLR,M,M,M,M,M,M,M,M,M,M,M,M,M,M,52.70,KINS 092255Z AUTO 28006KT 10SM CLR 12/M07 A2999 RMK AO2 SLP141 T01151069 $,M
TMT,2022-11-09 22:55,-117.1971,39.4643,1749.34,32.50,23.70,69.68,240.00,11.00,0.00,30.01,M,10.00,M,SCT,BKN,OVC,M,2600.00,4000.00,4800.00,M,M,M,M,M,M,M,M,23.10,KTMT 092255Z AUTO 24011KT 10SM SCT026 BKN040 OVC048 00/M05 A3001 RMK AO2 T00031046,M
LSV,2022-11-09 22:55,-115.0343,36.2362,570.00,63.70,19.40,18.00,300.00,16.00,0.00,29.94,1013.10,10.00,22.00,CLR,M,M,M,M,M,M,M,M,M,M,M,M,M,M,63.70,KLSV 092255Z AUTO 30016G22KT 10SM CLR 18/M07 A2994 RMK AO2 SLP131 T01761070 $,M
TPH,2022-11-09 22:56,-117.0904,38.0505,1654.00,42.00,16.00,34.39,340.00,13.00,0.00,29.99,1015.50,10.00,21.00,CLR,M,M,M,M,M,M,M,M,M,M,M,M,M,M,34.51,KTPH 092256Z AUTO 34013G21KT 10SM CLR 06/M09 A2999 RMK AO2 SLP155 T00561089,M
HND,2022-11-09 22:56,-115.1344,35.9729,742.79,58.00,23.00,25.76,240.00,7.00,0.00,30.01,1017.40,10.00,M,CLR,M,M,M,M,M,M,M,M,M,M,M,M,M,M,57.90,KHND 092256Z 24007KT 10SM CLR 14/M05 A3001 RMK AO2 SLP174 T01441050,M
NFL,2022-11-09 22:56,-118.7010,39.4166,1199.00,46.00,23.00,39.96,310.00,16.00,0.00,30.03,1013.80,10.00,23.00,SCT,SCT,SCT,M,5000.00,10000.00,20000.00,M,M,M,M,M,M,M,M,38.67,KNFL 092256Z 31016G23KT 10SM SCT050 SCT100 SCT200 08/M05 A3003 RMK AO2 SLP138 T00781050,M
EKO,2022-11-09 22:56,-115.7860,40.8242,1367.00,30.90,28.90,92.18,220.00,13.00,0.03,29.88,1013.50,0.50,M,VV ,M,M,M,1100.00,M,M,M,SN FZFG,M,M,M,M,M,M,20.16,KEKO 092256Z AUTO 22013KT 1/2SM SN FZFG VV011 M01/M02 A2988 RMK AO2 SLP135 P0003 T10061017,M
WMC,2022-11-09 22:56,-117.8072,40.9019,1315.00,40.00,26.10,57.47,270.00,14.00,T,29.98,1015.50,10.00,24.00,FEW,BKN,M,M,4200.00,12000.00,M,M,M,M,M,M,29.00,300.00,2022-11-09 21:59,31.35,KWMC 092256Z AUTO 27014G24KT 10SM FEW042 BKN120 04/M03 A2998 RMK AO2 PK WND 30029/2159 SNE10 SLP155 P0000 T00441033,M
LAS,2022-11-09 22:56,-115.1634,36.0719,663.00,58.00,24.10,26.98,180.00,3.00,0.00,29.98,1014.70,10.00,M,FEW,FEW,SCT,M,7000.00,9000.00,20000.00,M,M,M,M,M,M,M,M,57.90,KLAS 092256Z 18003KT 10SM FEW070 FEW090 SCT200 14/M04 A2998 RMK AO2 SLP147 T01441044,M
BVU,2022-11-09 23:15,-114.8611,35.9475,671.00,57.20,26.60,30.69,200.00,8.00,0.00,30.00,M,10.00,M,SCT,BKN,M,M,7500.00,9000.00,M,M,M,M,M,M,M,M,M,57.20,KBVU 092315Z AUTO 20008KT 10SM SCT075 BKN090 14/M03 A3000 RMK AO2,M
BAM,2022-11-09 23:15,-116.8743,40.5990,1382.36,35.60,32.00,86.59,290.00,12.00,0.00,29.97,M,10.00,19.00,SCT,BKN,OVC,M,1900.00,3000.00,3700.00,M,M,M,M,M,M,M,M,26.58,KBAM 092315Z AUTO 29012G19KT 240V300 10SM SCT019 BKN030 OVC037 02/00 A2997 RMK AO1,M
CXP,2022-11-09 23:15,-119.7326,39.1923,1431.00,41.00,23.00,48.39,270.00,5.00,0.00,30.08,M,10.00,M,BKN,OVC,M,M,5000.00,6000.00,M,M,M,M,M,M,M,M,M,37.08,KCXP 092315Z AUTO 27005KT 10SM BKN050 OVC060 05/M05 A3008 RMK AO2,M
TMT,2022-11-09 23:15,-117.1971,39.4643,1749.34,32.20,24.60,73.23,230.00,12.00,0.00,30.01,M,10.00,16.00,BKN,OVC,M,M,3200.00,4000.00,M,M,-SN,M,M,M,M,M,M,22.26,KTMT 092315Z AUTO 23012G16KT 10SM -SN BKN032 OVC040 00/M04 A3001 RMK AO2 T00011041,M
MEV,2022-11-09 23:15,-119.7500,38.9963,1441.42,39.20,23.00,51.89,280.00,6.00,0.00,30.07,M,10.00,M,BKN,BKN,M,M,5000.00,6000.00,M,M,M,M,M,M,M,M,M,34.20,KMEV 092315Z AUTO 28006KT 10SM BKN050 BKN060 04/M05 A3007 RMK AO2,M
RTS,2022-11-09 23:15,-119.8764,39.6682,1539.00,35.60,23.00,59.79,290.00,10.00,0.00,30.08,M,10.00,17.00,OVC,M,M,M,4400.00,M,M,M,M,M,M,M,M,M,M,27.48,KRTS 092315Z AUTO 29010G17KT 10SM OVC044 02/M05 A3008 RMK AO2,M
05U,2022-11-09 23:15,-116.0051,39.6042,1811.23,33.80,19.40,55.14,250.00,11.00,0.00,29.96,M,10.00,22.00,FEW,M,M,M,8500.00,M,M,M,M,M,M,M,M,M,M,24.74,K05U 092315Z AUTO 25011G22KT 10SM FEW085 01/M07 A2996 RMK A01,M
EKO,2022-11-09 23:24,-115.7860,40.8242,1367.00,30.90,28.90,92.18,220.00,11.00,0.03,29.89,M,0.25,M,BKN,OVC,M,M,800.00,1300.00,M,M,+SN FZFG,M,M,M,M,M,M,21.08,KEKO 092324Z AUTO 22011KT 1/4SM +SN FZFG BKN008 OVC013 M01/M02 A2989 RMK AO2 P0003 T10061017,M
CXP,2022-11-09 23:35,-119.7326,39.1923,1431.00,41.00,23.00,48.39,280.00,10.00,0.00,30.08,M,10.00,M,BKN,OVC,M,M,5000.00,6000.00,M,M,M,M,M,M,M,M,M,34.25,KCXP 092335Z AUTO 28010KT 10SM BKN050 OVC060 05/M05 A3008 RMK AO2,M
05U,2022-11-09 23:35,-116.0051,39.6042,1811.23,33.80,19.40,55.14,270.00,7.00,0.00,29.98,M,10.00,18.00,SCT,BKN,BKN,M,4800.00,7500.00,8500.00,M,M,M,M,M,M,M,M,26.97,K05U 092335Z AUTO 27007G18KT 10SM SCT048 BKN075 BKN085 01/M07 A2998 RMK A01,M
RTS,2022-11-09 23:35,-119.8764,39.6682,1539.00,35.60,23.00,59.79,290.00,9.00,0.00,30.09,M,10.00,M,BKN,OVC,M,M,4500.00,5500.00,M,M,M,M,M,M,M,M,M,27.99,KRTS 092335Z AUTO 29009KT 10SM BKN045 OVC055 02/M05 A3009 RMK AO2,M
BAM,2022-11-09 23:35,-116.8743,40.5990,1382.36,33.80,32.00,93.03,340.00,6.00,0.00,29.99,M,3.00,M,SCT,OVC,M,M,2400.00,3300.00,M,M,M,M,M,M,M,M,M,27.70,KBAM 092335Z AUTO 34006KT 3SM SCT024 OVC033 01/00 A2999 RMK AO1,M
BVU,2022-11-09 23:35,-114.8611,35.9475,671.00,59.00,26.60,28.77,220.00,11.00,0.00,29.99,M,10.00,M,SCT,SCT,M,M,7500.00,9000.00,M,M,M,M,M,M,M,M,M,59.00,KBVU 092335Z AUTO 22011KT 10SM SCT075 SCT090 15/M03 A2999 RMK AO2,M
MEV,2022-11-09 23:35,-119.7500,38.9963,1441.42,39.20,23.00,51.89,250.00,8.00,0.00,30.07,M,10.00,M,FEW,OVC,M,M,5000.00,6000.00,M,M,M,M,M,M,M,M,M,32.98,KMEV 092335Z AUTO 25008KT 10SM FEW050 OVC060 04/M05 A3007 RMK AO2,M
VGT,2022-11-09 23:53,-115.1933,36.2111,667.00,60.00,19.00,20.09,330.00,12.00,0.00,29.98,1016.50,10.00,M,CLR,M,M,M,M,M,M,M,M,M,M,M,M,M,M,60.10,KVGT 092353Z 33012KT 10SM CLR 16/M07 A2998 RMK AO2 SLP165 T01561072 10161 20133 53012,M
DRA,2022-11-09 23:53,-116.0278,36.6206,1009.00,51.00,25.00,35.89,250.00,5.00,0.00,30.00,1014.60,10.00,M,CLR,M,M,M,M,M,M,M,M,M,M,M,M,M,M,51.10,KDRA 092353Z AUTO 25005KT 10SM CLR 11/M04 A3000 RMK AO2 SLP146 T01061039 10117 20094 53009,M
P68,2022-11-09 23:53,-116.0056,39.6014,1993.00,32.00,19.90,60.55,250.00,11.00,0.00,29.96,1014.60,M,M,M,M,M,M,M,M,M,M,M,M,M,M,M,M,M,22.47,KP68 092353Z AUTO 25011KT 00/M07 A2996 RMK AO1 SLP146 T00001067 10022 20000 53020,M
ELY,2022-11-09 23:53,-114.8453,39.2950,1909.00,32.00,21.00,63.45,250.00,7.00,0.00,29.94,1014.10,10.00,M,BKN,OVC,M,M,7500.00,9500.00,M,M,M,M,M,M,M,M,M,24.78,KELY 092353Z AUTO 25007KT 10SM BKN075 OVC095 00/M06 A2994 RMK AO2 SLP141 60000 T00001061 10017 21028 51020,M
LOL,2022-11-09 23:53,-118.5701,40.0684,1192.43,42.00,27.00,54.78,310.00,8.00,0.00,30.06,1019.20,10.00,M,CLR,M,M,M,M,M,M,M,M,M,M,M,M,M,M,36.55,KLOL 092353Z AUTO 31008KT 10SM CLR 06/M03 A3006 RMK AO2 SLP192 T00561028 10061 20028 53029,M
BVU,2022-11-09 23:55,-114.8611,35.9475,671.00,57.20,26.60,30.69,210.00,10.00,0.00,29.99,M,10.00,M,CLR,M,M,M,M,M,M,M,M,M,M,M,M,M,M,57.20,KBVU 092355Z AUTO 21010KT 10SM CLR 14/M03 A2999 RMK AO2,M
RNO,2022-11-09 23:55,-119.7711,39.4839,1341.00,43.00,23.00,44.80,300.00,11.00,0.00,30.08,1019.10,10.00,M,BKN,M,M,M,6000.00,M,M,M,M,M,M,M,M,M,M,36.37,KRNO 092355Z 30011KT 10SM BKN060 06/M05 A3008 RMK AO2 SLP191 CLDS TPG MTNS DSNT SW THRU NW T00611050 10078 20050 51023,M
RTS,2022-11-09 23:55,-119.8764,39.6682,1539.00,35.60,24.80,64.46,280.00,9.00,0.00,30.10,M,10.00,M,FEW,OVC,M,M,4600.00,5000.00,M,M,M,M,M,M,M,M,M,27.99,KRTS 092355Z AUTO 28009KT 10SM FEW046 OVC050 02/M04 A3010 RMK AO2,M
05U,2022-11-09 23:55,-116.0051,39.6042,1811.23,33.80,19.40,55.14,260.00,11.00,0.00,29.98,M,10.00,M,BKN,OVC,M,M,4900.00,7000.00,M,M,M,M,M,M,M,M,M,24.74,K05U 092355Z AUTO 26011KT 230V290 10SM BKN049 OVC070 01/M07 A2998 RMK A01,M
MEV,2022-11-09 23:55,-119.7500,38.9963,1441.42,39.20,21.20,48.10,250.00,6.00,0.00,30.08,M,10.00,M,BKN,M,M,M,5500.00,M,M,M,M,M,M,M,M,M,M,34.20,KMEV 092355Z AUTO 25006KT 10SM BKN055 04/M06 A3008 RMK AO2,M
LSV,2022-11-09 23:55,-115.0343,36.2362,570.00,61.50,16.30,17.02,300.00,14.00,0.00,29.95,1013.60,10.00,M,CLR,M,M,M,M,M,M,M,M,M,M,M,M,M,M,61.50,KLSV 092355Z AUTO 30014KT 10SM CLR 16/M09 A2995 RMK AO2 SLP136 T01641087 10183 20159 52010 $,M
BAM,2022-11-09 23:55,-116.8743,40.5990,1382.36,33.80,32.00,93.03,0.00,0.00,0.00,30.00,M,10.00,M,SCT,BKN,OVC,M,2500.00,3400.00,5500.00,M,M,M,M,M,M,M,M,33.80,KBAM 092355Z AUTO 00000KT 10SM SCT025 BKN034 OVC055 01/00 A3000 RMK AO1,M
TMT,2022-11-09 23:55,-117.1971,39.4643,1749.34,31.30,27.00,83.89,260.00,9.00,0.00,30.03,M,1.50,M,BKN,BKN,OVC,M,1300.00,2200.00,2600.00,M,-SN,M,M,M,M,M,M,22.64,KTMT 092355Z AUTO 26009KT 1 1/2SM -SN BKN013 BKN022 OVC026 00/M03 A3003 RMK AO2 T10041028 10010 21010,M
INS,2022-11-09 23:55,-115.6733,36.5872,955.00,51.80,21.40,30.07,290.00,7.00,0.00,30.01,1014.60,10.00,M,CLR,M,M,M,M,M,M,M,M,M,M,M,M,M,M,51.80,KINS 092355Z AUTO 29007KT 10SM CLR 11/M06 A3001 RMK AO2 SLP146 T01101059 10120 20105 52014 $,M
CXP,2022-11-09 23:55,-119.7326,39.1923,1431.00,41.00,23.00,48.39,300.00,10.00,0.00,30.09,M,10.00,M,BKN,OVC,M,M,5000.00,6000.00,M,M,M,M,M,M,M,M,M,34.25,KCXP 092355Z AUTO 30010KT 10SM BKN050 OVC060 05/M05 A3009 RMK AO2,M
EKO,2022-11-09 23:56,-115.7860,40.8242,1367.00,28.90,26.10,89.12,270.00,17.00,0.08,29.92,1015.20,0.25,27.00,VV ,M,M,M,600.00,M,M,M,SN FZFG,M,M,M,27.00,290.00,2022-11-09 23:47,16.01,KEKO 092356Z AUTO 27017G27KT 1/4SM SN FZFG VV006 M02/M03 A2992 RMK AO2 PK WND 29027/2347 SLP152 P0008 60012 T10171033 10011 21017 53023,M
TPH,2022-11-09 23:56,-117.0904,38.0505,1654.00,40.00,19.00,42.62,340.00,14.00,0.00,30.01,1016.80,10.00,M,FEW,M,M,M,6000.00,M,M,M,M,M,M,M,M,M,M,31.35,KTPH 092356Z AUTO 34014KT 10SM FEW060 04/M07 A3001 RMK AO2 SLP168 T00441072 10067 20028 53015,M
LAS,2022-11-09 23:56,-115.1634,36.0719,663.00,58.00,26.10,29.32,240.00,5.00,0.00,29.99,1014.80,10.00,M,FEW,FEW,SCT,M,7000.00,9000.00,20000.00,M,M,M,M,M,M,M,M,57.90,KLAS 092356Z 24005KT 10SM FEW070 FEW090 SCT200 14/M03 A2999 RMK AO2 SLP148 T01441033 10161 20122 51012,M
WMC,2022-11-09 23:56,-117.8072,40.9019,1315.00,38.00,25.00,59.36,280.00,17.00,0.00,30.00,1016.50,10.00,29.00,CLR,M,M,M,M,M,M,M,M,M,M,M,32.00,270.00,2022-11-09 23:37,27.80,KWMC 092356Z AUTO 28017G29KT 10SM CLR 03/M04 A3000 RMK AO2 PK WND 27032/2337 SLP165 60001 T00331039 10044 20011 53028,M
NFL,2022-11-09 23:56,-118.7010,39.4166,1199.00,45.00,24.10,43.46,320.00,9.00,0.00,30.06,1014.80,10.00,M,SCT,SCT,SCT,M,5000.00,10000.00,20000.00,M,M,M,M,M,M,M,M,39.68,KNFL 092356Z 32009KT 10SM SCT050 SCT100 SCT200 07/M04 A3006 RMK AO2 SLP148 T00721044 10089 20033 53025,M
HND,2022-11-09 23:56,-115.1344,35.9729,742.79,57.00,25.00,28.93,210.00,4.00,0.00,30.01,1017.60,10.00,M,CLR,M,M,M,M,M,M,M,M,M,M,M,M,M,M,57.00,KHND 092356Z 21004KT 10SM CLR 14/M04 A3001 RMK AO2 SLP176 T01391039 10150 20117 51011,M
