station,valid,lon,lat,elevation,tmpf,dwpf,relh,drct,sknt,p01i,alti,mslp,vsby,gust,skyc1,skyc2,skyc3,skyc4,skyl1,skyl2,skyl3,skyl4,wxcodes,ice_accretion_1hr,ice_accretion_3hr,ice_accretion_6hr,peak_wind_gust,peak_wind_drct,peak_wind_time,feel,metar,snowdepth
INS,2023-05-21 00:06,-115.6733,36.5872,955.00,84.20,41.00,21.76,310.00,21.00,0.00,30.01,1012.10,10.00,25.00,OVC,M,M,M,13000.00,M,M,M,M,M,M,M,M,M,M,81.52,KINS 210006Z AUTO 31021G25KT 10SM OVC130 29/05 A3001 RMK AO2 WSHFT 2359 LTG DSNT NE PRESRR SLP121 $,M
05U,2023-05-21 00:10,-116.0051,39.6042,1811.23,78.80,23.00,12.55,10.00,5.00,0.00,30.18,M,10.00,11.00,CLR,M,M,M,M,M,M,M,M,M,M,M,M,M,M,78.80,K05U 210010Z AUTO 01005G11KT 10SM CLR 26/M05 A3018 RMK A01,M
BVU,2023-05-21 00:15,-114.8611,35.9475,671.00,91.40,42.80,18.56,220.00,12.00,0.00,29.93,M,10.00,M,FEW,M,M,M,11000.00,M,M,M,M,M,M,M,M,M,M,87.52,KBVU 210015Z AUTO 22012KT 10SM FEW110 33/06 A2993 RMK AO2 LTG DSNT ALQDS,M
CXP,2023-05-21 00:15,-119.7326,39.1923,1431.00,75.20,37.40,25.40,250.00,8.00,0.00,30.13,M,10.00,19.00,FEW,M,M,M,12000.00,M,M,M,M,M,M,M,M,M,M,75.20,KCXP 210015Z AUTO 25008G19KT 10SM FEW120 24/03 A3013 RMK AO2 LTG DSNT NE AND SE,M
RTS,2023-05-21 00:15,-119.8764,39.6682,1539.00,73.40,32.00,21.76,220.00,16.00,0.00,30.16,M,10.00,23.00,FEW,M,M,M,9000.00,M,M,M,M,M,M,M,M,M,M,73.40,KRTS 210015Z AUTO 22016G23KT 10SM FEW090 23/M00 A3016 RMK AO2,M
TPH,2023-05-21 00:15,-117.0904,38.0505,1654.00,M,M,M,M,M,0.00,30.18,M,M,M,M,M,M,M,M,M,M,M,M,M,M,M,M,M,M,M,KTPH 210015Z AUTO A3018 RMK AO2 LTG DSNT S-NW PRESRR PWINO $,M
MEV,2023-05-21 00:15,-119.7500,38.9963,1441.42,73.40,48.20,40.85,50.00,4.00,0.00,30.12,M,10.00,M,CLR,M,M,M,M,M,M,M,M,M,M,M,M,M,M,73.40,KMEV 210015Z AUTO 05004KT 10SM CLR 23/09 A3012 RMK AO2 LTG DSNT NE AND S AND SW,M
BAM,2023-05-21 00:15,-116.8743,40.5990,1382.36,86.00,32.00,14.40,0.00,0.00,0.00,30.08,M,10.00,M,CLR,M,M,M,M,M,M,M,M,M,M,M,M,M,M,82.64,KBAM 210015Z AUTO 00000KT 10SM CLR 30/00 A3008 RMK AO1,M
HTH,2023-05-21 00:15,-118.6315,38.5448,1282.89,80.60,37.40,21.25,120.00,9.00,0.00,30.03,M,5.00,18.00,FEW,FEW,SCT,M,400.00,1300.00,3100.00,M,HZ,M,M,M,M,M,M,79.02,KHTH 210015Z AUTO 12009G18KT 5SM HZ FEW004 FEW013 SCT031 27/03 A3003 RMK A01,M
10U,2023-05-21 00:15,-116.1876,41.9532,1637.00,78.80,26.60,14.59,360.00,8.00,0.00,30.15,M,10.00,15.00,CLR,M,M,M,M,M,M,M,M,M,M,M,M,M,M,78.80,K10U 210015Z AUTO 36008G15KT 10SM CLR 26/M03 A3015 RMK AO2,M
05U,2023-05-21 00:30,-116.0051,39.6042,1811.23,78.80,24.80,13.54,10.00,9.00,0.00,30.17,M,10.00,M,CLR,M,M,M,M,M,M,M,M,M,M,M,M,M,M,78.80,K05U 210030Z AUTO 01009KT 10SM CLR 26/M04 A3017 RMK A01,M
INS,2023-05-21 00:33,-115.6733,36.5872,955.00,77.00,44.60,31.62,310.00,22.00,0.00,30.01,1012.40,10.00,30.00,FEW,SCT,BKN,M,8000.00,10000.00,13000.00,M,-RA,M,M,M,M,M,M,77.00,KINS 210033Z AUTO 31022G30KT 10SM -RA FEW080 SCT100 BKN130 25/07 A3001 RMK AO2 LTG DSNT S RAB33 SLP124 $,M
BVU,2023-05-21 00:35,-114.8611,35.9475,671.00,93.20,42.80,17.55,250.00,13.00,0.00,29.93,M,10.00,M,FEW,M,M,M,11000.00,M,M,M,M,M,M,M,M,M,M,89.17,KBVU 210035Z AUTO 25013KT 10SM FEW110 34/06 A2993 RMK AO2 LTG DSNT E AND SE,M
CXP,2023-05-21 00:35,-119.7326,39.1923,1431.00,73.40,44.60,35.66,160.00,4.00,0.00,30.14,M,10.00,M,FEW,M,M,M,11000.00,M,M,M,M,M,M,M,M,M,M,73.40,KCXP 210035Z AUTO 16004KT 10SM FEW110 23/07 A3014 RMK AO2,M
RTS,2023-05-21 00:35,-119.8764,39.6682,1539.00,73.40,32.00,21.76,230.00,12.00,0.00,30.15,M,10.00,20.00,CLR,M,M,M,M,M,M,M,M,M,M,M,M,M,M,73.40,KRTS 210035Z AUTO 23012G20KT 10SM CLR 23/00 A3015 RMK AO2,M
MEV,2023-05-21 00:35,-119.7500,38.9963,1441.42,75.20,50.00,41.14,130.00,5.00,0.00,30.12,M,10.00,M,CLR,M,M,M,M,M,M,M,M,M,M,M,M,M,M,75.20,KMEV 210035Z AUTO 13005KT 10SM CLR 24/10 A3012 RMK AO2,M
BAM,2023-05-21 00:35,-116.8743,40.5990,1382.36,87.80,32.00,13.59,40.00,3.00,0.00,30.08,M,10.00,M,CLR,M,M,M,M,M,M,M,M,M,M,M,M,M,M,84.08,KBAM 210035Z AUTO 04003KT 10SM CLR 31/00 A3008 RMK AO1,M
HTH,2023-05-21 00:35,-118.6315,38.5448,1282.89,80.60,39.20,22.81,M,3.00,0.00,30.05,M,10.00,12.00,FEW,FEW,SCT,M,800.00,3400.00,8500.00,M,M,M,M,M,M,M,M,79.10,KHTH 210035Z AUTO VRB03G12KT 10SM FEW008 FEW034 SCT085 27/04 A3005 RMK A01,M
TMT,2023-05-21 00:35,-117.1971,39.4643,1749.34,80.80,28.40,14.71,360.00,12.00,0.00,30.14,M,10.00,17.00,SCT,M,M,M,12000.00,M,M,M,M,M,M,M,M,M,M,78.85,KTMT 210035Z AUTO 36012G17KT 10SM SCT120 27/M02 A3014 RMK AO2 T02711020,M
10U,2023-05-21 00:35,-116.1876,41.9532,1637.00,78.80,30.20,16.90,10.00,9.00,0.00,30.15,M,10.00,M,CLR,M,M,M,M,M,M,M,M,M,M,M,M,M,M,78.80,K10U 210035Z AUTO 01009KT 10SM CLR 26/M01 A3015 RMK AO2,M
INS,2023-05-21 00:43,-115.6733,36.5872,955.00,77.00,46.40,33.85,310.00,16.00,0.00,30.02,1012.80,10.00,M,FEW,SCT,BKN,M,8000.00,10000.00,13000.00,M,M,M,M,M,M,M,M,77.00,KINS 210043Z AUTO 31016KT 10SM FEW080 SCT100 BKN130 25/08 A3002 RMK AO2 RAB33E43 SLP128 $,M
LSV,2023-05-21 00:45,-115.0343,36.2362,570.00,93.20,42.80,17.55,150.00,19.00,0.00,29.88,1009.40,10.00,22.00,CLR,M,M,M,M,M,M,M,M,M,M,M,M,M,M,89.17,KLSV 210045Z AUTO 15019G22KT 10SM CLR 34/06 A2988 RMK AO2 WSHFT 43 SLP094 $,M
INS,2023-05-21 00:46,-115.6733,36.5872,955.00,77.00,46.40,33.85,350.00,13.00,0.00,30.02,1012.60,10.00,M,FEW,FEW,BKN,BKN,8000.00,10000.00,13000.00,17000.00,M,M,M,M,M,M,M,77.00,KINS 210046Z AUTO 35013KT 10SM FEW080 FEW100 BKN130 BKN170 25/08 A3002 RMK AO2 WSHFT 38 RAB33E43 SLP126 $,M
05U,2023-05-21 00:50,-116.0051,39.6042,1811.23,78.80,24.80,13.54,360.00,6.00,0.00,30.17,M,10.00,M,CLR,M,M,M,M,M,M,M,M,M,M,M,M,M,M,78.80,K05U 210050Z AUTO 36006KT 10SM CLR 26/M04 A3017 RMK A01,M
P68,2023-05-21 00:53,-116.0056,39.6014,1993.00,79.00,26.10,14.19,360.00,8.00,0.00,30.15,1014.30,M,M,M,M,M,M,M,M,M,M,M,M,M,M,M,M,M,79.00,KP68 210053Z AUTO 36008KT 26/M03 A3015 RMK AO1 SLP143 T02611033,M
DRA,2023-05-21 00:53,-116.0278,36.6206,1009.00,71.00,54.00,54.73,50.00,13.00,T,30.11,1016.10,10.00,22.00,OVC,M,M,M,9000.00,M,M,M,-RA,M,M,M,45.00,40.00,2023-05-21 00:00,71.10,KDRA 210053Z AUTO 05013G22KT 10SM -RA OVC090 22/12 A3011 RMK AO2 PK WND 04045/0000 PRESRR SLP161 P0000 T02170122,M
ELY,2023-05-21 00:53,-114.8453,39.2950,1909.00,76.00,26.10,15.73,60.00,5.00,0.00,30.17,1014.20,10.00,M,CLR,M,M,M,M,M,M,M,M,M,M,M,M,M,M,75.90,KELY 210053Z AUTO 06005KT 10SM CLR 24/M03 A3017 RMK AO2 SLP142 T02441033,M
LOL,2023-05-21 00:53,-118.5701,40.0684,1192.43,86.00,30.90,13.77,290.00,4.00,0.00,30.01,1013.20,10.00,M,CLR,M,M,M,M,M,M,M,M,M,M,M,M,M,M,82.64,KLOL 210053Z AUTO 29004KT 10SM CLR 30/M01 A3001 RMK AO2 SLP132 T03001006,M
VGT,2023-05-21 00:53,-115.1933,36.2111,667.00,92.00,44.00,19.21,190.00,8.00,0.00,29.93,1012.50,10.00,M,CLR,M,M,M,M,M,M,M,M,M,M,M,M,M,M,88.09,KVGT 210053Z 19008KT 10SM CLR 33/07 A2993 RMK AO2 LTG DSNT NE AND SE AND W SLP125 T03330067,M
BVU,2023-05-21 00:55,-114.8611,35.9475,671.00,86.00,50.00,28.90,110.00,23.00,0.00,29.98,M,10.00,28.00,BKN,M,M,M,10000.00,M,M,M,M,M,M,M,M,M,M,83.62,KBVU 210055Z AUTO 11023G28KT 10SM BKN100 30/10 A2998 RMK AO2 LTG DSNT SE AND S,M
CXP,2023-05-21 00:55,-119.7326,39.1923,1431.00,69.80,53.60,56.38,60.00,4.00,0.00,30.15,M,10.00,M,FEW,M,M,M,11000.00,M,M,M,M,M,M,M,M,M,M,69.80,KCXP 210055Z AUTO 06004KT 10SM FEW110 21/12 A3015 RMK AO2,M
RTS,2023-05-21 00:55,-119.8764,39.6682,1539.00,75.20,33.80,22.02,230.00,10.00,0.00,30.15,M,10.00,16.00,CLR,M,M,M,M,M,M,M,M,M,M,M,M,M,M,75.20,KRTS 210055Z AUTO 23010G16KT 10SM CLR 24/01 A3015 RMK AO2,M
MEV,2023-05-21 00:55,-119.7500,38.9963,1441.42,75.20,50.00,41.14,130.00,4.00,0.00,30.13,M,10.00,M,SCT,M,M,M,12000.00,M,M,M,M,M,M,M,M,M,M,75.20,KMEV 210055Z AUTO 13004KT 10SM SCT120 24/10 A3013 RMK AO2,M
BAM,2023-05-21 00:55,-116.8743,40.5990,1382.36,86.00,32.00,14.40,300.00,4.00,0.00,30.07,M,10.00,M,CLR,M,M,M,M,M,M,M,M,M,M,M,M,M,M,82.64,KBAM 210055Z AUTO 30004KT 10SM CLR 30/00 A3007 RMK AO1,M
HTH,2023-05-21 00:55,-118.6315,38.5448,1282.89,80.60,41.00,24.46,120.00,16.00,0.01,30.06,M,10.00,21.00,BKN,M,M,M,12000.00,M,M,M,M,M,M,M,M,M,M,79.20,KHTH 210055Z AUTO 12016G21KT 10SM BKN120 27/05 A3006 RMK A01 P0001,M
TMT,2023-05-21 00:55,-117.1971,39.4643,1749.34,80.80,28.20,14.59,20.00,11.00,0.00,30.13,M,10.00,15.00,SCT,M,M,M,12000.00,M,M,M,M,M,M,M,M,M,M,78.85,KTMT 210055Z AUTO 02011G15KT 10SM SCT120 27/M02 A3013 RMK AO2 T02711021,M
10U,2023-05-21 00:55,-116.1876,41.9532,1637.00,78.80,33.80,19.55,50.00,7.00,0.00,30.15,M,10.00,13.00,CLR,M,M,M,M,M,M,M,M,M,M,M,M,M,M,78.80,K10U 210055Z AUTO 05007G13KT 10SM CLR 26/01 A3015 RMK AO2,M
INS,2023-05-21 00:55,-115.6733,36.5872,955.00,75.20,49.30,40.08,340.00,13.00,T,30.02,1012.80,10.00,M,FEW,FEW,SCT,BKN,8000.00,10000.00,12000.00,17000.00,M,M,M,M,30.00,320.00,2023-05-21 00:24,75.20,KINS 210055Z AUTO 34013KT 10SM FEW080 FEW100 SCT120 BKN170 24/10 A3002 RMK AO2 PK WND 32030/24 RAB33E43 SLP128 P0000 T02400096 $,M
RNO,2023-05-21 00:55,-119.7711,39.4839,1341.00,79.00,35.00,20.45,170.00,6.00,0.00,30.12,1015.00,10.00,M,BKN,M,M,M,5000.00,M,M,M,M,M,M,M,M,M,M,79.00,KRNO 210055Z 17006KT 10SM BKN050 26/02 A3012 RMK AO2 SLP150 VIRGA T02610017 $,M
LSV,2023-05-21 00:55,-115.0343,36.2362,570.00,93.70,45.00,18.87,150.00,11.00,0.00,29.90,1010.10,10.00,22.00,CLR,M,M,M,M,M,M,M,M,M,M,M,M,M,M,89.87,KLSV 210055Z AUTO 15011G22KT 10SM CLR 34/07 A2990 RMK AO2 PRESRR SLP101 T03430073 $,M
EKO,2023-05-21 00:56,-115.7860,40.8242,1367.00,81.00,32.00,16.92,150.00,8.00,0.00,30.11,1015.30,10.00,M,CLR,M,M,M,M,M,M,M,M,M,M,M,M,M,M,79.07,KEKO 210056Z AUTO 15008KT 10SM CLR 27/00 A3011 RMK AO2 SLP153 T02720000,M
WMC,2023-05-21 00:56,-117.8072,40.9019,1315.00,89.00,32.00,13.05,20.00,6.00,0.00,30.05,1013.30,10.00,M,CLR,M,M,M,M,M,M,M,M,M,M,M,M,M,M,85.15,KWMC 210056Z AUTO 02006KT 10SM CLR 32/00 A3005 RMK AO2 SLP133 T03170000,M
NFL,2023-05-21 00:56,-118.7010,39.4166,1199.00,91.00,28.90,10.84,340.00,10.00,0.00,30.01,1013.20,10.00,15.00,CLR,M,M,M,M,M,M,M,M,M,M,M,M,M,M,86.27,KNFL 210056Z AUTO 34010G15KT 10SM CLR 33/M02 A3001 RMK AO2 SLP132 T03281017,M
HND,2023-05-21 00:56,-115.1344,35.9729,742.79,89.00,46.00,22.54,240.00,15.00,0.00,29.97,1013.90,10.00,21.00,CLR,M,M,M,M,M,M,M,M,M,M,M,26.00,210.00,2023-05-21 00:12,85.76,KHND 210056Z 24015G21KT 10SM CLR 32/08 A2997 RMK AO2 PK WND 21026/0012 LTG DSNT E AND SE SLP139 T03170078,M
TPH,2023-05-21 00:56,-117.0904,38.0505,1654.00,M,M,M,M,M,0.00,30.15,M,M,M,M,M,M,M,M,M,M,M,M,M,M,M,M,M,M,M,KTPH 210056Z AUTO A3015 RMK AO2 SLPNO PWINO $,M
LAS,2023-05-21 00:56,-115.1634,36.0719,663.00,90.00,45.00,21.10,210.00,8.00,0.00,29.94,1011.40,10.00,19.00,FEW,FEW,BKN,M,9000.00,15000.00,20000.00,M,M,M,M,M,27.00,220.00,2023-05-21 00:08,86.45,KLAS 210056Z 21008G19KT 10SM FEW090CB FEW150 BKN200 32/07 A2994 RMK AO2 PK WND 22027/0008 LTG DSNT E AND SE SLP114 CB NE-SE MOV S T03220072,M
05U,2023-05-21 01:10,-116.0051,39.6042,1811.23,78.80,32.00,18.18,360.00,8.00,0.00,30.17,M,10.00,M,CLR,M,M,M,M,M,M,M,M,M,M,M,M,M,M,78.80,K05U 210110Z AUTO 36008KT 10SM CLR 26/M00 A3017 RMK A01,M
LSV,2023-05-21 01:12,-115.0343,36.2362,570.00,91.40,44.60,19.89,110.00,13.00,0.00,29.91,1010.60,10.00,M,SCT,M,M,M,13000.00,M,M,M,M,M,M,M,M,M,M,87.68,KLSV 210112Z AUTO 11013KT 10SM SCT130 33/07 A2991 RMK AO2 WSHFT 0057 SLP106 $,M
BVU,2023-05-21 01:15,-114.8611,35.9475,671.00,78.80,57.20,47.52,130.00,15.00,0.00,29.99,M,9.00,24.00,BKN,M,M,M,10000.00,M,M,M,M,M,M,M,M,M,M,78.80,KBVU 210115Z AUTO 13015G24KT 9SM BKN100 26/14 A2999 RMK AO2 LTG DSNT ALQDS,M
CXP,2023-05-21 01:15,-119.7326,39.1923,1431.00,71.60,50.00,46.43,M,5.00,0.00,30.15,M,10.00,M,SCT,M,M,M,12000.00,M,M,M,M,M,M,M,M,M,M,71.60,KCXP 210115Z AUTO VRB05KT 10SM SCT120 22/10 A3015 RMK AO2,M
RTS,2023-05-21 01:15,-119.8764,39.6682,1539.00,73.40,33.80,23.39,250.00,15.00,0.00,30.16,M,10.00,20.00,CLR,M,M,M,M,M,M,M,M,M,M,M,M,M,M,73.40,KRTS 210115Z AUTO 25015G20KT 10SM CLR 23/01 A3016 RMK AO2,M
MEV,2023-05-21 01:15,-119.7500,38.9963,1441.42,75.20,46.40,35.94,0.00,0.00,0.00,30.13,M,10.00,M,SCT,M,M,M,12000.00,M,M,M,M,M,M,M,M,M,M,75.20,KMEV 210115Z AUTO 00000KT 10SM SCT120 24/08 A3013 RMK AO2,M
BAM,2023-05-21 01:15,-116.8743,40.5990,1382.36,86.00,32.00,14.40,0.00,0.00,0.00,30.07,M,10.00,M,CLR,M,M,M,M,M,M,M,M,M,M,M,M,M,M,82.64,KBAM 210115Z AUTO 00000KT 10SM CLR 30/00 A3007 RMK AO1,M
HTH,2023-05-21 01:15,-118.6315,38.5448,1282.89,75.20,41.00,29.23,140.00,25.00,0.00,30.09,M,9.00,31.00,FEW,SCT,OVC,M,6000.00,8500.00,11000.00,M,M,M,M,M,M,M,M,75.20,KHTH 210115Z AUTO 14025G31KT 9SM FEW060 SCT085 OVC110 24/05 A3009 RMK A01,M
TMT,2023-05-21 01:15,-117.1971,39.4643,1749.34,80.20,28.40,15.00,10.00,10.00,0.00,30.14,M,10.00,17.00,CLR,M,M,M,M,M,M,M,M,M,M,M,M,M,M,78.63,KTMT 210115Z AUTO 01010G17KT 10SM CLR 27/M02 A3014 RMK AO2 T02681020,M
10U,2023-05-21 01:15,-116.1876,41.9532,1637.00,77.00,30.20,17.94,20.00,5.00,0.00,30.15,M,10.00,M,CLR,M,M,M,M,M,M,M,M,M,M,M,M,M,M,77.00,K10U 210115Z AUTO 02005KT 10SM CLR 25/M01 A3015 RMK AO2,M
INS,2023-05-21 01:20,-115.6733,36.5872,955.00,77.00,44.60,31.62,160.00,15.00,0.00,30.05,1013.70,10.00,M,FEW,SCT,OVC,M,10000.00,13000.00,18000.00,M,M,M,M,M,M,M,M,77.00,KINS 210120Z AUTO 16015KT 10SM FEW100 SCT130 OVC180 25/07 A3005 RMK AO2 WSHFT 16 PRESRR SLP137 $,M
INS,2023-05-21 01:28,-115.6733,36.5872,955.00,78.80,42.80,27.81,200.00,15.00,0.00,30.05,1013.70,10.00,M,SCT,BKN,OVC,M,10000.00,13000.00,18000.00,M,M,M,M,M,M,M,M,78.80,KINS 210128Z AUTO 20015KT 10SM SCT100 BKN130 OVC180 26/06 A3005 RMK AO2 WSHFT 21 SLP137 $,M
05U,2023-05-21 01:30,-116.0051,39.6042,1811.23,77.00,30.20,17.94,360.00,6.00,0.00,30.17,M,10.00,M,CLR,M,M,M,M,M,M,M,M,M,M,M,M,M,M,77.00,K05U 210130Z AUTO 36006KT 10SM CLR 25/M01 A3017 RMK A01,M
BVU,2023-05-21 01:35,-114.8611,35.9475,671.00,78.80,57.20,47.52,140.00,8.00,0.00,29.99,M,10.00,14.00,SCT,M,M,M,10000.00,M,M,M,M,M,M,M,M,M,M,78.80,KBVU 210135Z AUTO 14008G14KT 10SM SCT100 26/14 A2999 RMK AO2 LTG DSNT S AND SW,M
CXP,2023-05-21 01:35,-119.7326,39.1923,1431.00,73.40,48.20,40.85,0.00,0.00,0.00,30.15,M,10.00,M,FEW,M,M,M,12000.00,M,M,M,M,M,M,M,M,M,M,73.40,KCXP 210135Z AUTO 00000KT 10SM FEW120 23/09 A3015 RMK AO2,M
RTS,2023-05-21 01:35,-119.8764,39.6682,1539.00,73.40,33.80,23.39,250.00,10.00,0.00,30.16,M,10.00,16.00,CLR,M,M,M,M,M,M,M,M,M,M,M,M,M,M,73.40,KRTS 210135Z AUTO 25010G16KT 10SM CLR 23/01 A3016 RMK AO2,M
MEV,2023-05-21 01:35,-119.7500,38.9963,1441.42,75.20,46.40,35.94,160.00,6.00,0.00,30.13,M,10.00,M,FEW,M,M,M,12000.00,M,M,M,M,M,M,M,M,M,M,75.20,KMEV 210135Z AUTO 16006KT 10SM FEW120 24/08 A3013 RMK AO2,M
BAM,2023-05-21 01:35,-116.8743,40.5990,1382.36,86.00,33.80,15.48,30.00,6.00,0.00,30.07,M,10.00,M,CLR,M,M,M,M,M,M,M,M,M,M,M,M,M,M,82.66,KBAM 210135Z AUTO 03006KT 10SM CLR 30/01 A3007 RMK AO1,M
HTH,2023-05-21 01:35,-118.6315,38.5448,1282.89,75.20,41.00,29.23,150.00,15.00,0.00,30.09,M,9.00,31.00,FEW,BKN,OVC,M,2800.00,6500.00,11000.00,M,M,M,M,M,M,M,M,75.20,KHTH 210135Z AUTO 15015G31KT 9SM FEW028 BKN065 OVC110 24/05 A3009 RMK A01,M
TMT,2023-05-21 01:35,-117.1971,39.4643,1749.34,79.70,31.10,17.02,20.00,12.00,0.00,30.14,M,10.00,15.00,CLR,M,M,M,M,M,M,M,M,M,M,M,M,M,M,79.70,KTMT 210135Z AUTO 02012G15KT 10SM CLR 27/00 A3014 RMK AO2 T02651005,M
10U,2023-05-21 01:35,-116.1876,41.9532,1637.00,77.00,35.60,22.28,40.00,5.00,0.00,30.15,M,10.00,M,CLR,M,M,M,M,M,M,M,M,M,M,M,M,M,M,77.00,K10U 210135Z AUTO 04005KT 10SM CLR 25/02 A3015 RMK AO2,M
HND,2023-05-21 01:36,-115.1344,35.9729,742.79,84.20,48.20,28.63,160.00,13.00,0.00,30.01,M,10.00,24.00,SCT,M,M,M,11000.00,M,M,M,VCTS,M,M,M,M,M,M,82.04,KHND 210136Z 16013G24KT 10SM VCTS SCT110 29/09 A3001 RMK AO2 LTG DSNT SE AND S TSB30,M
INS,2023-05-21 01:41,-115.6733,36.5872,955.00,78.80,41.00,25.95,220.00,19.00,0.00,30.05,1013.70,10.00,M,BKN,OVC,M,M,10000.00,12000.00,M,M,-RA,M,M,M,M,M,M,78.80,KINS 210141Z AUTO 22019KT 10SM -RA BKN100 OVC120 26/05 A3005 RMK AO2 RAB41 SLP137 $,M
NFL,2023-05-21 01:43,-118.7010,39.4166,1199.00,82.00,40.00,22.39,270.00,21.00,0.00,30.02,M,10.00,27.00,CLR,M,M,M,M,M,M,M,M,M,M,M,27.00,270.00,2023-05-21 01:42,79.98,KNFL 210143Z AUTO 27021G27KT 10SM CLR 28/04 A3002 RMK AO2 PK WND 27027/0142 WSHFT 0123 T02780044,M
HND,2023-05-21 01:46,-115.1344,35.9729,742.79,84.20,48.20,28.63,130.00,16.00,0.00,30.01,M,10.00,23.00,FEW,M,M,M,11000.00,M,M,M,M,M,M,M,M,M,M,82.04,KHND 210146Z 13016G23KT 10SM FEW110 29/09 A3001 RMK AO2 WSHFT 0130 LTG DSNT SE AND S TSB30E46,M
05U,2023-05-21 01:50,-116.0051,39.6042,1811.23,75.20,32.00,20.49,M,M,0.00,30.17,M,10.00,M,CLR,M,M,M,M,M,M,M,M,M,M,M,M,M,M,75.20,K05U 210150Z AUTO 10SM CLR 24/M00 A3017 RMK A01,M
P68,2023-05-21 01:53,-116.0056,39.6014,1993.00,75.00,32.00,20.63,350.00,7.00,0.00,30.15,1013.80,M,M,M,M,M,M,M,M,M,M,M,M,M,M,M,M,M,75.00,KP68 210153Z AUTO 35007KT 24/00 A3015 RMK AO1 SLP138 T02390000,M
ELY,2023-05-21 01:53,-114.8453,39.2950,1909.00,73.00,27.00,17.99,360.00,9.00,0.00,30.17,1013.70,10.00,M,CLR,M,M,M,M,M,M,M,M,M,M,M,M,M,M,73.00,KELY 210153Z AUTO 36009KT 10SM CLR 23/M03 A3017 RMK AO2 SLP137 T02281028,M
LOL,2023-05-21 01:53,-118.5701,40.0684,1192.43,84.00,34.00,16.63,310.00,6.00,0.00,30.01,1012.80,10.00,M,CLR,M,M,M,M,M,M,M,M,M,M,M,M,M,M,81.16,KLOL 210153Z AUTO 31006KT 10SM CLR 29/01 A3001 RMK AO2 SLP128 T02890011,M
DRA,2023-05-21 01:53,-116.0278,36.6206,1009.00,72.00,49.00,43.97,130.00,13.00,0.02,30.09,1015.20,10.00,M,FEW,BKN,OVC,M,5500.00,9000.00,11000.00,M,-RA,M,M,M,33.00,70.00,2023-05-21 00:55,72.00,KDRA 210153Z AUTO 13013KT 10SM -RA FEW055 BKN090 OVC110 22/09 A3009 RMK AO2 PK WND 07033/0055 SLP152 P0002 T02220094,M
VGT,2023-05-21 01:53,-115.1933,36.2111,667.00,87.00,47.00,24.85,140.00,25.00,0.00,29.96,1013.90,10.00,31.00,CLR,M,M,M,M,M,M,M,M,M,M,M,31.00,130.00,2023-05-21 01:49,84.15,KVGT 210153Z 14025G31KT 10SM CLR 31/08 A2996 RMK AO2 PK WND 13031/0149 LTG DSNT W SLP139 T03060083,M
BVU,2023-05-21 01:55,-114.8611,35.9475,671.00,78.80,57.20,47.52,150.00,8.00,0.00,30.01,M,10.00,M,SCT,M,M,M,11000.00,M,M,M,M,M,M,M,M,M,M,78.80,KBVU 210155Z AUTO 15008KT 10SM SCT110 26/14 A3001 RMK AO2 LTG DSNT S AND NW,M
CXP,2023-05-21 01:55,-119.7326,39.1923,1431.00,71.60,51.80,49.64,0.00,0.00,0.00,30.15,M,10.00,M,CLR,M,M,M,M,M,M,M,M,M,M,M,M,M,M,71.60,KCXP 210155Z AUTO 00000KT 10SM CLR 22/11 A3015 RMK AO2,M
INS,2023-05-21 01:55,-115.6733,36.5872,955.00,76.60,42.80,29.91,230.00,21.00,T,30.04,1013.30,10.00,M,FEW,SCT,BKN,OVC,4800.00,7000.00,9500.00,12000.00,-RA,M,M,M,M,M,M,76.60,KINS 210155Z AUTO 23021KT 10SM -RA FEW048 SCT070 BKN095 OVC120 25/06 A3004 RMK AO2 RAB41 SLP133 P0000 T02480060 $,M
RNO,2023-05-21 01:55,-119.7711,39.4839,1341.00,78.00,37.00,22.71,160.00,12.00,T,30.11,1014.60,10.00,M,BKN,BKN,M,M,5000.00,10000.00,M,M,M,M,M,M,M,M,M,78.10,KRNO 210155Z 16012KT 10SM BKN050 BKN100 26/03 A3011 RMK AO2 RAB23E33 SLP146 P0000 T02560028 $,M
RTS,2023-05-21 01:55,-119.8764,39.6682,1539.00,71.60,35.60,26.71,320.00,6.00,0.00,30.16,M,10.00,M,CLR,M,M,M,M,M,M,M,M,M,M,M,M,M,M,71.60,KRTS 210155Z AUTO 32006KT 10SM CLR 22/02 A3016 RMK AO2,M
MEV,2023-05-21 01:55,-119.7500,38.9963,1441.42,73.40,44.60,35.66,210.00,4.00,0.00,30.14,M,10.00,10.00,CLR,M,M,M,M,M,M,M,M,M,M,M,M,M,M,73.40,KMEV 210155Z AUTO 21004G10KT 10SM CLR 23/07 A3014 RMK AO2,M
BAM,2023-05-21 01:55,-116.8743,40.5990,1382.36,86.00,32.00,14.40,0.00,0.00,0.00,30.07,M,10.00,M,CLR,M,M,M,M,M,M,M,M,M,M,M,M,M,M,82.64,KBAM 210155Z AUTO 00000KT 10SM CLR 30/00 A3007 RMK AO1,M
HTH,2023-05-21 01:55,-118.6315,38.5448,1282.89,75.20,41.00,29.23,150.00,13.00,0.00,30.12,M,10.00,26.00,FEW,BKN,OVC,M,4600.00,6500.00,10000.00,M,M,M,M,M,M,M,M,75.20,KHTH 210155Z AUTO 15013G26KT 120V230 10SM FEW046 BKN065 OVC100 24/05 A3012 RMK A01,M
TMT,2023-05-21 01:55,-117.1971,39.4643,1749.34,78.30,29.50,16.70,360.00,10.00,0.00,30.14,M,10.00,M,CLR,M,M,M,M,M,M,M,M,M,M,M,M,M,M,78.30,KTMT 210155Z AUTO 36010KT 10SM CLR 26/M01 A3014 RMK AO2 T02571014,M
10U,2023-05-21 01:55,-116.1876,41.9532,1637.00,75.20,35.60,23.66,40.00,4.00,0.00,30.15,M,10.00,M,CLR,M,M,M,M,M,M,M,M,M,M,M,M,M,M,75.20,K10U 210155Z AUTO 04004KT 10SM CLR 24/02 A3015 RMK AO2,M
LSV,2023-05-21 01:55,-115.0343,36.2362,570.00,86.20,45.00,23.89,90.00,21.00,0.00,29.92,1010.90,10.00,M,FEW,M,M,M,14000.00,M,M,M,M,M,M,M,31.00,80.00,2023-05-21 01:16,83.27,KLSV 210155Z AUTO 09021KT 10SM FEW140 30/07 A2992 RMK AO2 PK WND 08031/16 SLP109 T03010073 $,M
EKO,2023-05-21 01:56,-115.7860,40.8242,1367.00,79.00,28.90,15.93,80.00,8.00,0.00,30.11,1014.90,10.00,M,CLR,M,M,M,M,M,M,M,M,M,M,M,M,M,M,79.00,KEKO 210156Z AUTO 08008KT 10SM CLR 26/M02 A3011 RMK AO2 SLP149 T02611017,M
WMC,2023-05-21 01:56,-117.8072,40.9019,1315.00,82.00,39.00,21.62,350.00,14.00,0.00,30.05,1013.40,10.00,M,CLR,M,M,M,M,M,M,M,M,M,M,M,28.00,350.00,2023-05-21 01:27,79.94,KWMC 210156Z AUTO 35014KT 10SM CLR 28/04 A3005 RMK AO2 PK WND 35028/0127 SLP134 T02780039,M
NFL,2023-05-21 01:56,-118.7010,39.4166,1199.00,81.00,39.00,22.33,270.00,15.00,0.00,30.03,1013.80,10.00,28.00,CLR,M,M,M,M,M,M,M,M,M,M,M,28.00,270.00,2023-05-21 01:49,79.33,KNFL 210156Z AUTO 27015G28KT 10SM CLR 27/04 A3003 RMK AO2 PK WND 27028/0149 WSHFT 0123 SLP138 T02720039,M
HND,2023-05-21 01:56,-115.1344,35.9729,742.79,83.00,48.00,29.64,140.00,12.00,0.00,30.02,1015.70,10.00,M,SCT,M,M,M,11000.00,M,M,M,M,M,M,M,M,M,M,81.11,KHND 210156Z 14012KT 10SM SCT110 28/09 A3002 RMK AO2 WSHFT 0130 LTG DSNT SE TSB30E46 SLP157 T02830089,M
TPH,2023-05-21 01:56,-117.0904,38.0505,1654.00,M,M,M,M,M,0.00,30.16,M,M,M,M,M,M,M,M,M,M,M,M,M,M,M,M,M,M,M,KTPH 210156Z AUTO A3016 RMK AO2 SLPNO PWINO $,M
LAS,2023-05-21 01:56,-115.1634,36.0719,663.00,85.00,48.00,27.79,130.00,10.00,0.00,29.98,1012.80,10.00,22.00,FEW,FEW,BKN,M,9000.00,15000.00,20000.00,M,M,M,M,M,M,M,M,82.53,KLAS 210156Z 13010G22KT 10SM FEW090TCU FEW150 BKN200 29/09 A2998 RMK AO2 SLP128 TCU W-N CB DSNT NE AND SE MOV S T02940089,M
INS,2023-05-21 01:59,-115.6733,36.5872,955.00,77.00,42.80,29.51,260.00,25.00,0.00,30.02,1012.60,10.00,30.00,SCT,OVC,M,M,5000.00,10000.00,M,M,-RA,M,M,M,M,M,M,77.00,KINS 210159Z AUTO 26025G30KT 10SM -RA SCT050 OVC100 25/06 A3002 RMK AO2 WSHFT 46 LTG DSNT SE PRESFR SLP126 $,M
INS,2023-05-21 02:08,-115.6733,36.5872,955.00,77.00,41.00,27.53,240.00,21.00,0.00,30.03,1012.80,10.00,30.00,SCT,BKN,BKN,OVC,5000.00,9500.00,16000.00,19000.00,M,M,M,M,M,M,M,77.00,KINS 210208Z AUTO 24021G30KT 10SM SCT050 BKN095 BKN160 OVC190 25/05 A3003 RMK AO2 LTG DSNT SE RAE08 SLP128 $,M
05U,2023-05-21 02:10,-116.0051,39.6042,1811.23,73.40,35.60,25.13,360.00,5.00,0.00,30.18,M,10.00,M,CLR,M,M,M,M,M,M,M,M,M,M,M,M,M,M,73.40,K05U 210210Z AUTO 36005KT 10SM CLR 23/02 A3018 RMK A01,M
BVU,2023-05-21 02:15,-114.8611,35.9475,671.00,78.80,55.40,44.52,180.00,7.00,0.00,30.02,M,10.00,M,FEW,M,M,M,11000.00,M,M,M,M,M,M,M,M,M,M,78.80,KBVU 210215Z AUTO 18007KT 10SM FEW110 26/13 A3002 RMK AO2,M
CXP,2023-05-21 02:15,-119.7326,39.1923,1431.00,73.40,51.80,46.71,0.00,0.00,0.00,30.15,M,10.00,M,CLR,M,M,M,M,M,M,M,M,M,M,M,M,M,M,73.40,KCXP 210215Z AUTO 00000KT 10SM CLR 23/11 A3015 RMK AO2,M
RTS,2023-05-21 02:15,-119.8764,39.6682,1539.00,69.80,37.40,30.49,20.00,6.00,0.00,30.16,M,10.00,M,FEW,M,M,M,10000.00,M,M,M,M,M,M,M,M,M,M,69.80,KRTS 210215Z AUTO 02006KT 10SM FEW100 21/03 A3016 RMK AO2,M
MEV,2023-05-21 02:15,-119.7500,38.9963,1441.42,71.60,42.80,35.37,160.00,5.00,0.00,30.14,M,10.00,M,CLR,M,M,M,M,M,M,M,M,M,M,M,M,M,M,71.60,KMEV 210215Z AUTO 16005KT 10SM CLR 22/06 A3014 RMK AO2,M
BAM,2023-05-21 02:15,-116.8743,40.5990,1382.36,82.40,37.40,20.04,340.00,5.00,0.00,30.07,M,10.00,M,CLR,M,M,M,M,M,M,M,M,M,M,M,M,M,M,80.14,KBAM 210215Z AUTO 34005KT 10SM CLR 28/03 A3007 RMK AO1,M
HTH,2023-05-21 02:15,-118.6315,38.5448,1282.89,73.40,42.80,33.29,170.00,11.00,0.00,30.15,M,4.00,24.00,SCT,BKN,OVC,M,4600.00,6500.00,9000.00,M,HZ,M,M,M,M,M,M,73.40,KHTH 210215Z AUTO 17011G24KT 4SM HZ SCT046 BKN065 OVC090 23/06 A3015 RMK A01,M
TMT,2023-05-21 02:15,-117.1971,39.4643,1749.34,76.30,32.00,19.75,10.00,8.00,0.00,30.15,M,10.00,M,CLR,M,M,M,M,M,M,M,M,M,M,M,M,M,M,76.30,KTMT 210215Z AUTO 01008KT 10SM CLR 25/00 A3015 RMK AO2 T02460000,M
10U,2023-05-21 02:15,-116.1876,41.9532,1637.00,71.60,39.20,30.77,50.00,5.00,0.00,30.15,M,10.00,M,CLR,M,M,M,M,M,M,M,M,M,M,M,M,M,M,71.60,K10U 210215Z AUTO 05005KT 10SM CLR 22/04 A3015 RMK AO2,M
05U,2023-05-21 02:30,-116.0051,39.6042,1811.23,68.00,37.40,32.43,M,M,0.00,30.18,M,10.00,M,CLR,M,M,M,M,M,M,M,M,M,M,M,M,M,M,68.00,K05U 210230Z AUTO 10SM CLR 20/03 A3018 RMK A01,M
HTH,2023-05-21 02:30,-118.6315,38.5448,1282.89,71.60,44.60,37.89,210.00,13.00,0.00,30.14,M,8.00,M,FEW,BKN,OVC,M,2800.00,5000.00,7500.00,M,M,M,M,M,M,M,M,71.60,KHTH 210230Z AUTO 21013KT 8SM FEW028 BKN050 OVC075 22/07 A3014 RMK A01,M
BVU,2023-05-21 02:35,-114.8611,35.9475,671.00,77.00,51.80,41.42,190.00,6.00,0.00,30.03,M,10.00,M,CLR,M,M,M,M,M,M,M,M,M,M,M,M,M,M,77.00,KBVU 210235Z AUTO 19006KT 10SM CLR 25/11 A3003 RMK AO2 LTG DSNT S AND NW,M
CXP,2023-05-21 02:35,-119.7326,39.1923,1431.00,71.60,53.60,53.03,190.00,3.00,0.00,30.16,M,10.00,M,CLR,M,M,M,M,M,M,M,M,M,M,M,M,M,M,71.60,KCXP 210235Z AUTO 19003KT 10SM CLR 22/12 A3016 RMK AO2,M
RTS,2023-05-21 02:35,-119.8764,39.6682,1539.00,73.40,33.80,23.39,50.00,5.00,0.00,30.16,M,10.00,M,BKN,M,M,M,10000.00,M,M,M,M,M,M,M,M,M,M,73.40,KRTS 210235Z AUTO 05005KT 10SM BKN100 23/01 A3016 RMK AO2,M
MEV,2023-05-21 02:35,-119.7500,38.9963,1441.42,69.80,41.00,35.09,160.00,8.00,0.00,30.14,M,10.00,M,CLR,M,M,M,M,M,M,M,M,M,M,M,M,M,M,69.80,KMEV 210235Z AUTO 16008KT 10SM CLR 21/05 A3014 RMK AO2,M
BAM,2023-05-21 02:35,-116.8743,40.5990,1382.36,80.60,35.60,19.79,340.00,6.00,0.00,30.08,M,10.00,M,CLR,M,M,M,M,M,M,M,M,M,M,M,M,M,M,78.94,KBAM 210235Z AUTO 34006KT 10SM CLR 27/02 A3008 RMK AO1,M
TMT,2023-05-21 02:35,-117.1971,39.4643,1749.34,74.50,32.50,21.40,10.00,5.00,0.00,30.16,M,10.00,M,CLR,M,M,M,M,M,M,M,M,M,M,M,M,M,M,74.50,KTMT 210235Z AUTO 01005KT 10SM CLR 24/00 A3016 RMK AO2 LTG DSNT SW T02360003,M
10U,2023-05-21 02:35,-116.1876,41.9532,1637.00,68.00,39.20,34.80,60.00,6.00,0.00,30.16,M,10.00,M,CLR,M,M,M,M,M,M,M,M,M,M,M,M,M,M,68.00,K10U 210235Z AUTO 06006KT 10SM CLR 20/04 A3016 RMK AO2,M
05U,2023-05-21 02:50,-116.0051,39.6042,1811.23,64.40,35.60,34.22,20.00,6.00,0.00,30.19,M,10.00,M,CLR,M,M,M,M,M,M,M,M,M,M,M,M,M,M,64.40,K05U 210250Z AUTO 02006KT 10SM CLR 18/02 A3019 RMK A01,M
P68,2023-05-21 02:53,-116.0056,39.6014,1993.00,62.00,36.00,37.69,320.00,5.00,0.00,30.16,1015.00,M,M,M,M,M,M,M,M,M,M,M,M,M,M,M,M,M,62.10,KP68 210253Z AUTO 32005KT 17/02 A3016 RMK AO1 SLP150 T01670022 53004,M
DRA,2023-05-21 02:53,-116.0278,36.6206,1009.00,71.00,48.00,43.83,210.00,14.00,0.02,30.02,1012.30,10.00,M,SCT,M,M,M,3200.00,M,M,M,M,M,M,M,34.00,140.00,2023-05-21 02:25,71.10,KDRA 210253Z AUTO 21014KT 10SM SCT032 22/09 A3002 RMK AO2 PK WND 14034/0225 RAE45 SLP123 P0002 60004 T02170089 58005,M
ELY,2023-05-21 02:53,-114.8453,39.2950,1909.00,64.00,32.00,30.05,100.00,4.00,0.00,30.19,1014.10,10.00,M,CLR,M,M,M,M,M,M,M,M,M,M,M,M,M,M,64.00,KELY 210253Z AUTO 10004KT 10SM CLR 18/00 A3019 RMK AO2 SLP141 T01780000 53001,M
VGT,2023-05-21 02:53,-115.1933,36.2111,667.00,84.00,50.00,30.82,280.00,8.00,0.00,30.00,1015.50,10.00,M,SCT,BKN,M,M,10000.00,12000.00,M,M,VCTS,M,M,M,28.00,130.00,2023-05-21 02:01,82.09,KVGT 210253Z 28008KT 10SM VCTS SCT100 BKN120 29/10 A3000 RMK AO2 PK WND 13028/0201 LTG DSNT SW AND W TSE41 SLP155 T02890100 53025,M
LOL,2023-05-21 02:53,-118.5701,40.0684,1192.43,77.00,36.00,22.64,360.00,6.00,0.00,30.02,1012.90,10.00,M,CLR,M,M,M,M,M,M,M,M,M,M,M,M,M,M,77.00,KLOL 210253Z AUTO 36006KT 10SM CLR 25/02 A3002 RMK AO2 SLP129 T02500022 53002,M
BVU,2023-05-21 02:55,-114.8611,35.9475,671.00,77.00,50.00,38.74,170.00,8.00,0.00,30.01,M,10.00,M,CLR,M,M,M,M,M,M,M,M,M,M,M,M,M,M,77.00,KBVU 210255Z AUTO 17008KT 10SM CLR 25/10 A3001 RMK AO2 LTG DSNT N AND S,M
CXP,2023-05-21 02:55,-119.7326,39.1923,1431.00,69.80,51.80,52.77,100.00,5.00,0.00,30.17,M,10.00,M,CLR,M,M,M,M,M,M,M,M,M,M,M,M,M,M,69.80,KCXP 210255Z AUTO 10005KT 10SM CLR 21/11 A3017 RMK AO2,M
RNO,2023-05-21 02:55,-119.7711,39.4839,1341.00,78.00,37.00,22.71,230.00,6.00,0.00,30.10,1014.10,10.00,M,SCT,SCT,M,M,5000.00,10000.00,M,M,M,M,M,M,M,M,M,78.10,KRNO 210255Z 23006KT 10SM SCT050 SCT100 26/03 A3010 RMK AO2 SLP141 60000 T02560028 50002 $,M
RTS,2023-05-21 02:55,-119.8764,39.6682,1539.00,73.40,33.80,23.39,140.00,4.00,0.00,30.16,M,10.00,M,FEW,FEW,BKN,M,6000.00,7000.00,10000.00,M,M,M,M,M,M,M,M,73.40,KRTS 210255Z AUTO 14004KT 10SM FEW060 FEW070 BKN100 23/01 A3016 RMK AO2,M
MEV,2023-05-21 02:55,-119.7500,38.9963,1441.42,68.00,42.80,40.00,120.00,6.00,0.00,30.15,M,10.00,M,CLR,M,M,M,M,M,M,M,M,M,M,M,M,M,M,68.00,KMEV 210255Z AUTO 12006KT 10SM CLR 20/06 A3015 RMK AO2,M
BAM,2023-05-21 02:55,-116.8743,40.5990,1382.36,80.60,39.20,22.81,350.00,5.00,0.00,30.08,M,10.00,M,CLR,M,M,M,M,M,M,M,M,M,M,M,M,M,M,79.10,KBAM 210255Z AUTO 35005KT 10SM CLR 27/04 A3008 RMK AO1,M
HTH,2023-05-21 02:55,-118.6315,38.5448,1282.89,71.60,44.60,37.89,240.00,11.00,0.00,30.12,M,10.00,M,FEW,SCT,OVC,M,3900.00,8000.00,11000.00,M,M,M,M,M,M,M,M,71.60,KHTH 210255Z AUTO 24011KT 10SM FEW039 SCT080 OVC110 22/07 A3012 RMK A01,M
10U,2023-05-21 02:55,-116.1876,41.9532,1637.00,64.40,37.40,36.74,70.00,6.00,0.00,30.16,M,10.00,M,CLR,M,M,M,M,M,M,M,M,M,M,M,M,M,M,64.40,K10U 210255Z AUTO 07006KT 10SM CLR 18/03 A3016 RMK AO2,M
TMT,2023-05-21 02:55,-117.1971,39.4643,1749.34,70.00,33.00,25.32,60.00,5.00,0.00,30.16,M,10.00,M,CLR,M,M,M,M,M,M,M,M,M,M,M,M,M,M,70.00,KTMT 210255Z AUTO 06005KT 10SM CLR 21/01 A3016 RMK AO2 LTG DSNT SE T02110005,M
INS,2023-05-21 02:55,-115.6733,36.5872,955.00,76.50,40.00,26.83,230.00,18.00,T,30.03,1012.80,10.00,M,FEW,M,M,M,14000.00,M,M,M,M,M,M,M,30.00,270.00,2023-05-21 01:58,76.50,KINS 210255Z AUTO 23018KT 10SM FEW140 25/04 A3003 RMK AO2 PK WND 27030/0158 RAE08 SLP128 P0000 60000 T02470044 50013 $,M
LSV,2023-05-21 02:55,-115.0343,36.2362,570.00,83.70,49.00,29.87,0.00,0.00,0.00,29.96,1012.40,10.00,M,CLR,M,M,M,M,M,M,M,M,M,M,M,26.00,90.00,2023-05-21 01:57,81.75,KLSV 210255Z AUTO 00000KT 10SM CLR 29/09 A2996 RMK AO2 PK WND 09026/0157 LTG DSNT SW SLP124 T02870094 53023 $,M
EKO,2023-05-21 02:56,-115.7860,40.8242,1367.00,71.00,32.00,23.52,120.00,4.00,0.00,30.12,1015.40,10.00,M,CLR,M,M,M,M,M,M,M,M,M,M,M,M,M,M,71.10,KEKO 210256Z AUTO 12004KT 10SM CLR 22/00 A3012 RMK AO2 SLP154 T02170000 55001,M
WMC,2023-05-21 02:56,-117.8072,40.9019,1315.00,76.00,41.00,28.56,50.00,5.00,0.00,30.06,1013.50,10.00,M,CLR,M,M,M,M,M,M,M,M,M,M,M,M,M,M,75.90,KWMC 210256Z AUTO 05005KT 10SM CLR 24/05 A3006 RMK AO2 SLP135 T02440050 53002,M
HND,2023-05-21 02:56,-115.1344,35.9729,742.79,79.00,48.00,33.66,170.00,16.00,0.00,30.03,1015.90,10.00,M,CLR,M,M,M,M,M,M,M,M,M,M,M,29.00,160.00,2023-05-21 02:15,79.00,KHND 210256Z 17016KT 10SM CLR 26/09 A3003 RMK AO2 PK WND 16029/0215 LTG DSNT W AND NW SLP159 T02610089 51019,M
TPH,2023-05-21 02:56,-117.0904,38.0505,1654.00,M,M,M,M,M,0.00,30.19,M,M,M,M,M,M,M,M,M,M,M,M,M,M,M,M,M,M,M,KTPH 210256Z AUTO A3019 RMK AO2 SLPNO 53012 PWINO $,M
LAS,2023-05-21 02:56,-115.1634,36.0719,663.00,82.00,49.00,31.56,190.00,9.00,0.00,29.99,1013.30,10.00,17.00,FEW,FEW,BKN,M,9000.00,15000.00,20000.00,M,M,M,M,M,M,M,M,80.61,KLAS 210256Z 19009G17KT 10SM FEW090 FEW150 BKN200 28/09 A2999 RMK AO2 LTG DSNT W AND NW SLP133 CB DSNT W-NW AND SE T02780094 53019,M
NFL,2023-05-21 02:56,-118.7010,39.4166,1199.00,78.00,40.00,25.44,260.00,7.00,0.00,30.04,1014.20,10.00,M,CLR,M,M,M,M,M,M,M,M,M,M,M,M,M,M,78.10,KNFL 210256Z AUTO 26007KT 10SM CLR 26/04 A3004 RMK AO2 SLP142 T02560044 53010,M
05U,2023-05-21 03:10,-116.0051,39.6042,1811.23,62.60,32.00,31.56,M,4.00,0.00,30.20,M,10.00,10.00,CLR,M,M,M,M,M,M,M,M,M,M,M,M,M,M,62.60,K05U 210310Z AUTO VRB04G10KT 10SM CLR 17/M00 A3020 RMK A01,M
BVU,2023-05-21 03:15,-114.8611,35.9475,671.00,75.20,51.80,43.97,250.00,6.00,0.00,30.02,M,10.00,M,CLR,M,M,M,M,M,M,M,M,M,M,M,M,M,M,75.20,KBVU 210315Z AUTO 25006KT 10SM CLR 24/11 A3002 RMK AO2,M
CXP,2023-05-21 03:15,-119.7326,39.1923,1431.00,69.80,50.00,49.37,180.00,3.00,0.00,30.17,M,10.00,M,CLR,M,M,M,M,M,M,M,M,M,M,M,M,M,M,69.80,KCXP 210315Z AUTO 18003KT 10SM CLR 21/10 A3017 RMK AO2,M
RTS,2023-05-21 03:15,-119.8764,39.6682,1539.00,69.80,39.20,32.72,330.00,5.00,0.00,30.17,M,10.00,11.00,FEW,M,M,M,10000.00,M,M,M,M,M,M,M,M,M,M,69.80,KRTS 210315Z AUTO 33005G11KT 10SM FEW100 21/04 A3017 RMK AO2,M
MEV,2023-05-21 03:15,-119.7500,38.9963,1441.42,64.40,46.40,51.98,70.00,7.00,0.00,30.16,M,10.00,M,CLR,M,M,M,M,M,M,M,M,M,M,M,M,M,M,64.40,KMEV 210315Z AUTO 07007KT 10SM CLR 18/08 A3016 RMK AO2,M
BAM,2023-05-21 03:15,-116.8743,40.5990,1382.36,77.00,42.80,29.51,360.00,3.00,0.00,30.08,M,10.00,M,CLR,M,M,M,M,M,M,M,M,M,M,M,M,M,M,77.00,KBAM 210315Z AUTO 36003KT 10SM CLR 25/06 A3008 RMK AO1,M
HTH,2023-05-21 03:15,-118.6315,38.5448,1282.89,71.60,42.80,35.37,260.00,16.00,0.00,30.13,M,10.00,22.00,BKN,M,M,M,11000.00,M,M,M,M,M,M,M,M,M,M,71.60,KHTH 210315Z AUTO 26016G22KT 10SM BKN110 22/06 A3013 RMK A01,M
TMT,2023-05-21 03:15,-117.1971,39.4643,1749.34,66.40,33.60,29.47,70.00,3.00,0.00,30.16,M,10.00,M,CLR,M,M,M,M,M,M,M,M,M,M,M,M,M,M,66.40,KTMT 210315Z AUTO 07003KT 10SM CLR 19/01 A3016 RMK AO2 T01910009,M
10U,2023-05-21 03:15,-116.1876,41.9532,1637.00,62.60,37.40,39.14,70.00,5.00,0.00,30.16,M,10.00,M,CLR,M,M,M,M,M,M,M,M,M,M,M,M,M,M,62.60,K10U 210315Z AUTO 07005KT 10SM CLR 17/03 A3016 RMK AO2,M
VGT,2023-05-21 03:20,-115.1933,36.2111,667.00,83.00,51.00,33.27,260.00,12.00,0.00,30.01,M,10.00,M,SCT,M,M,M,10000.00,M,M,M,M,M,M,M,M,M,M,81.45,KVGT 210320Z AUTO 26012KT 10SM SCT100 28/11 A3001 RMK AO2 T02830106,M
05U,2023-05-21 03:30,-116.0051,39.6042,1811.23,62.60,32.00,31.56,50.00,4.00,0.00,30.21,M,10.00,M,CLR,M,M,M,M,M,M,M,M,M,M,M,M,M,M,62.60,K05U 210330Z AUTO 05004KT 10SM CLR 17/00 A3021 RMK A01,M
BVU,2023-05-21 03:35,-114.8611,35.9475,671.00,75.20,50.00,41.14,210.00,3.00,0.00,30.02,M,10.00,M,CLR,M,M,M,M,M,M,M,M,M,M,M,M,M,M,75.20,KBVU 210335Z AUTO 21003KT 10SM CLR 24/10 A3002 RMK AO2 LTG DSNT SW AND W,M
CXP,2023-05-21 03:35,-119.7326,39.1923,1431.00,69.80,50.00,49.37,350.00,4.00,0.00,30.17,M,10.00,M,CLR,M,M,M,M,M,M,M,M,M,M,M,M,M,M,69.80,KCXP 210335Z AUTO 35004KT 10SM CLR 21/10 A3017 RMK AO2,M
RTS,2023-05-21 03:35,-119.8764,39.6682,1539.00,69.80,37.40,30.49,270.00,5.00,0.00,30.18,M,10.00,M,CLR,M,M,M,M,M,M,M,M,M,M,M,M,M,M,69.80,KRTS 210335Z AUTO 27005KT 10SM CLR 21/03 A3018 RMK AO2,M
MEV,2023-05-21 03:35,-119.7500,38.9963,1441.42,64.40,44.60,48.55,100.00,5.00,0.00,30.16,M,10.00,M,CLR,M,M,M,M,M,M,M,M,M,M,M,M,M,M,64.40,KMEV 210335Z AUTO 10005KT 10SM CLR 18/07 A3016 RMK AO2,M
BAM,2023-05-21 03:35,-116.8743,40.5990,1382.36,75.20,41.00,29.23,0.00,0.00,0.00,30.09,M,10.00,M,SCT,M,M,M,12000.00,M,M,M,M,M,M,M,M,M,M,75.20,KBAM 210335Z AUTO 00000KT 10SM SCT120 24/05 A3009 RMK AO1,M
HTH,2023-05-21 03:35,-118.6315,38.5448,1282.89,73.40,41.00,31.05,340.00,8.00,0.00,30.15,M,10.00,13.00,SCT,M,M,M,11000.00,M,M,M,M,M,M,M,M,M,M,73.40,KHTH 210335Z AUTO 34008G13KT 10SM SCT110 23/05 A3015 RMK A01,M
TMT,2023-05-21 03:35,-117.1971,39.4643,1749.34,62.80,30.60,29.62,70.00,5.00,0.00,30.17,M,10.00,M,CLR,M,M,M,M,M,M,M,M,M,M,M,M,M,M,62.80,KTMT 210335Z AUTO 07005KT 10SM CLR 17/M01 A3017 RMK AO2 LTG DSNT N T01711008,M
10U,2023-05-21 03:35,-116.1876,41.9532,1637.00,59.00,37.40,44.47,100.00,7.00,0.00,30.16,M,10.00,M,FEW,M,M,M,5000.00,M,M,M,M,M,M,M,M,M,M,59.00,K10U 210335Z AUTO 10007KT 10SM FEW050 15/03 A3016 RMK AO2,M
05U,2023-05-21 03:50,-116.0051,39.6042,1811.23,59.00,33.80,38.56,0.00,0.00,0.00,30.21,M,10.00,M,CLR,M,M,M,M,M,M,M,M,M,M,M,M,M,M,59.00,K05U 210350Z AUTO 00000KT 10SM CLR 15/01 A3021 RMK A01,M
DRA,2023-05-21 03:53,-116.0278,36.6206,1009.00,70.00,52.00,52.80,40.00,9.00,0.00,30.07,1014.10,10.00,M,CLR,M,M,M,M,M,M,M,M,M,M,M,M,M,M,70.00,KDRA 210353Z AUTO 04009KT 10SM CLR 21/11 A3007 RMK AO2 SLP141 T02110111,M
ELY,2023-05-21 03:53,-114.8453,39.2950,1909.00,57.00,30.90,36.86,170.00,5.00,0.00,30.22,1015.50,10.00,M,CLR,M,M,M,M,M,M,M,M,M,M,M,M,M,M,57.00,KELY 210353Z AUTO 17005KT 10SM CLR 14/M01 A3022 RMK AO2 SLP155 T01391006,M
VGT,2023-05-21 03:53,-115.1933,36.2111,667.00,79.00,53.00,40.67,270.00,10.00,0.00,30.02,1016.20,10.00,M,CLR,M,M,M,M,M,M,M,M,M,M,M,M,M,M,79.00,KVGT 210353Z AUTO 27010KT 10SM CLR 26/12 A3002 RMK AO2 SLP162 T02610117,M
P68,2023-05-21 03:53,-116.0056,39.6014,1993.00,62.00,34.00,34.81,0.00,0.00,0.00,30.19,1015.20,M,M,M,M,M,M,M,M,M,M,M,M,M,M,M,M,M,62.10,KP68 210353Z AUTO 00000KT 17/01 A3019 RMK AO1 SLP152 T01670011,M
LOL,2023-05-21 03:53,-118.5701,40.0684,1192.43,78.00,38.00,23.53,310.00,17.00,0.00,30.04,1013.10,10.00,M,CLR,M,M,M,M,M,M,M,M,M,M,M,M,M,M,78.10,KLOL 210353Z AUTO 31017KT 10SM CLR 26/03 A3004 RMK AO2 SLP131 T02560033,M
BVU,2023-05-21 03:55,-114.8611,35.9475,671.00,75.20,50.00,41.14,270.00,4.00,0.00,30.02,M,10.00,M,CLR,M,M,M,M,M,M,M,M,M,M,M,M,M,M,75.20,KBVU 210355Z AUTO 27004KT 10SM CLR 24/10 A3002 RMK AO2,M
CXP,2023-05-21 03:55,-119.7326,39.1923,1431.00,69.80,46.40,43.13,310.00,6.00,0.00,30.16,M,10.00,M,CLR,M,M,M,M,M,M,M,M,M,M,M,M,M,M,69.80,KCXP 210355Z AUTO 31006KT 10SM CLR 21/08 A3016 RMK AO2,M
RTS,2023-05-21 03:55,-119.8764,39.6682,1539.00,66.20,41.00,39.72,300.00,8.00,0.00,30.18,M,10.00,M,CLR,M,M,M,M,M,M,M,M,M,M,M,M,M,M,66.20,KRTS 210355Z AUTO 30008KT 10SM CLR 19/05 A3018 RMK AO2,M
MEV,2023-05-21 03:55,-119.7500,38.9963,1441.42,62.60,46.40,55.37,190.00,3.00,0.00,30.16,M,10.00,M,SCT,M,M,M,5500.00,M,M,M,M,M,M,M,M,M,M,62.60,KMEV 210355Z AUTO 19003KT 10SM SCT055 17/08 A3016 RMK AO2,M
BAM,2023-05-21 03:55,-116.8743,40.5990,1382.36,71.60,41.00,33.00,0.00,0.00,0.00,30.09,M,10.00,M,SCT,M,M,M,12000.00,M,M,M,M,M,M,M,M,M,M,71.60,KBAM 210355Z AUTO 00000KT 10SM SCT120 22/05 A3009 RMK AO1,M
HTH,2023-05-21 03:55,-118.6315,38.5448,1282.89,69.80,46.40,43.13,110.00,12.00,0.00,30.17,M,10.00,M,BKN,M,M,M,11000.00,M,M,M,M,M,M,M,M,M,M,69.80,KHTH 210355Z AUTO 11012KT 10SM BKN110 21/08 A3017 RMK A01,M
TMT,2023-05-21 03:55,-117.1971,39.4643,1749.34,63.00,31.60,30.63,80.00,3.00,0.00,30.18,M,10.00,M,CLR,M,M,M,M,M,M,M,M,M,M,M,M,M,M,63.00,KTMT 210355Z AUTO 08003KT 10SM CLR 17/00 A3018 RMK AO2 T01721002,M
10U,2023-05-21 03:55,-116.1876,41.9532,1637.00,59.00,37.40,44.47,110.00,9.00,0.00,30.17,M,10.00,M,FEW,SCT,BKN,M,3500.00,4600.00,5500.00,M,M,M,M,M,M,M,M,59.00,K10U 210355Z AUTO 11009KT 10SM FEW035 SCT046 BKN055 15/03 A3017 RMK AO2,M
INS,2023-05-21 03:55,-115.6733,36.5872,955.00,78.00,39.40,24.95,0.00,0.00,0.00,30.08,1014.00,10.00,M,BKN,M,M,M,10000.00,M,M,M,M,M,M,M,M,M,M,78.10,KINS 210355Z AUTO 00000KT 10SM BKN100 26/04 A3008 RMK AO2 SLP140 T02560041 $,M
LSV,2023-05-21 03:55,-115.0343,36.2362,570.00,80.40,49.50,34.00,120.00,11.00,0.00,29.99,1013.40,10.00,M,CLR,M,M,M,M,M,M,M,M,M,M,M,M,M,M,79.72,KLSV 210355Z AUTO 12011KT 10SM CLR 27/10 A2999 RMK AO2 SLP134 T02690097 $,M
RNO,2023-05-21 03:55,-119.7711,39.4839,1341.00,75.00,40.00,28.20,270.00,5.00,0.00,30.12,1014.80,10.00,M,SCT,BKN,M,M,5000.00,10000.00,M,M,M,M,M,M,M,M,M,75.00,KRNO 210355Z 27005KT 10SM SCT050 BKN100 24/04 A3012 RMK AO2 SLP148 VIRGA T02390044 $,M
EKO,2023-05-21 03:56,-115.7860,40.8242,1367.00,67.00,34.00,29.44,350.00,3.00,0.00,30.14,1015.60,10.00,M,CLR,M,M,M,M,M,M,M,M,M,M,M,M,M,M,66.90,KEKO 210356Z AUTO 35003KT 10SM CLR 19/01 A3014 RMK AO2 SLP156 T01940011,M
WMC,2023-05-21 03:56,-117.8072,40.9019,1315.00,73.00,39.00,29.12,340.00,7.00,0.00,30.08,1014.10,10.00,20.00,CLR,M,M,M,M,M,M,M,M,M,M,M,M,M,M,73.00,KWMC 210356Z AUTO 34007G20KT 10SM CLR 23/04 A3008 RMK AO2 SLP141 T02280039,M
TPH,2023-05-21 03:56,-117.0904,38.0505,1654.00,M,M,M,M,M,0.00,30.19,M,M,M,M,M,M,M,M,M,M,M,M,M,M,M,M,M,M,M,KTPH 210356Z AUTO A3019 RMK AO2 SLPNO PWINO $,M
LAS,2023-05-21 03:56,-115.1634,36.0719,663.00,81.00,50.00,33.97,300.00,9.00,0.00,30.03,1014.60,10.00,M,FEW,FEW,BKN,M,10000.00,15000.00,25000.00,M,M,M,M,M,M,M,M,80.12,KLAS 210356Z 30009KT 10SM FEW100 FEW150 BKN250 27/10 A3003 RMK AO2 SLP146 T02720100,M
NFL,2023-05-21 03:56,-118.7010,39.4166,1199.00,75.00,42.00,30.71,210.00,7.00,0.00,30.07,1014.90,10.00,M,SCT,M,M,M,11000.00,M,M,M,M,M,M,M,M,M,M,75.00,KNFL 210356Z AUTO 21007KT 10SM SCT110 24/06 A3007 RMK AO2 SLP149 T02390056,M
HND,2023-05-21 03:56,-115.1344,35.9729,742.79,79.00,49.00,34.81,290.00,8.00,0.00,30.07,1017.30,10.00,M,CLR,M,M,M,M,M,M,M,M,M,M,M,M,M,M,79.00,KHND 210356Z AUTO 29008KT 10SM CLR 26/09 A3007 RMK AO2 SLP173 T02610094,M
05U,2023-05-21 04:10,-116.0051,39.6042,1811.23,59.00,35.60,41.42,100.00,4.00,0.00,30.22,M,10.00,M,CLR,M,M,M,M,M,M,M,M,M,M,M,M,M,M,59.00,K05U 210410Z AUTO 10004KT 10SM CLR 15/02 A3022 RMK A01,M
BVU,2023-05-21 04:15,-114.8611,35.9475,671.00,75.20,50.00,41.14,280.00,4.00,0.00,30.03,M,10.00,M,CLR,M,M,M,M,M,M,M,M,M,M,M,M,M,M,75.20,KBVU 210415Z AUTO 28004KT 10SM CLR 24/10 A3003 RMK AO2,M
CXP,2023-05-21 04:15,-119.7326,39.1923,1431.00,69.80,48.20,46.16,280.00,3.00,0.00,30.16,M,10.00,M,CLR,M,M,M,M,M,M,M,M,M,M,M,M,M,M,69.80,KCXP 210415Z AUTO 28003KT 10SM CLR 21/09 A3016 RMK AO2,M
RTS,2023-05-21 04:15,-119.8764,39.6682,1539.00,68.00,44.60,42.85,300.00,11.00,0.00,30.18,M,10.00,M,CLR,M,M,M,M,M,M,M,M,M,M,M,M,M,M,68.00,KRTS 210415Z AUTO 30011KT 10SM CLR 20/07 A3018 RMK AO2,M
MEV,2023-05-21 04:15,-119.7500,38.9963,1441.42,64.40,44.60,48.55,0.00,0.00,0.00,30.16,M,10.00,M,FEW,SCT,M,M,4300.00,5000.00,M,M,M,M,M,M,M,M,M,64.40,KMEV 210415Z AUTO 00000KT 10SM FEW043 SCT050 18/07 A3016 RMK AO2,M
BAM,2023-05-21 04:15,-116.8743,40.5990,1382.36,69.80,37.40,30.49,0.00,0.00,0.00,30.11,M,10.00,M,SCT,M,M,M,12000.00,M,M,M,M,M,M,M,M,M,M,69.80,KBAM 210415Z AUTO 00000KT 10SM SCT120 21/03 A3011 RMK AO1,M
HTH,2023-05-21 04:15,-118.6315,38.5448,1282.89,69.80,46.40,43.13,140.00,12.00,0.00,30.18,M,10.00,18.00,FEW,SCT,BKN,M,1900.00,4700.00,6500.00,M,M,M,M,M,M,M,M,69.80,KHTH 210415Z AUTO 14012G18KT 10SM FEW019 SCT047 BKN065 21/08 A3018 RMK A01,M
TMT,2023-05-21 04:15,-117.1971,39.4643,1749.34,62.60,30.60,29.83,60.00,4.00,0.00,30.18,M,10.00,M,CLR,M,M,M,M,M,M,M,M,M,M,M,M,M,M,62.60,KTMT 210415Z AUTO 06004KT 10SM CLR 17/M01 A3018 RMK AO2 T01701008,M
10U,2023-05-21 04:15,-116.1876,41.9532,1637.00,60.80,35.60,38.85,110.00,7.00,0.00,30.17,M,10.00,M,SCT,BKN,BKN,M,4900.00,5500.00,6500.00,M,M,M,M,M,M,M,M,60.80,K10U 210415Z AUTO 11007KT 10SM SCT049 BKN055 BKN065 16/02 A3017 RMK AO2,M
05U,2023-05-21 04:30,-116.0051,39.6042,1811.23,59.00,33.80,38.56,0.00,0.00,0.00,30.23,M,10.00,M,CLR,M,M,M,M,M,M,M,M,M,M,M,M,M,M,59.00,K05U 210430Z AUTO 00000KT 10SM CLR 15/01 A3023 RMK A01,M
BVU,2023-05-21 04:35,-114.8611,35.9475,671.00,75.20,48.20,38.46,320.00,6.00,0.00,30.04,M,10.00,M,FEW,M,M,M,12000.00,M,M,M,M,M,M,M,M,M,M,75.20,KBVU 210435Z AUTO 32006KT 10SM FEW120 24/09 A3004 RMK AO2,M
CXP,2023-05-21 04:35,-119.7326,39.1923,1431.00,68.00,50.00,52.51,180.00,3.00,0.00,30.16,M,10.00,M,FEW,M,M,M,12000.00,M,M,M,M,M,M,M,M,M,M,68.00,KCXP 210435Z AUTO 18003KT 10SM FEW120 20/10 A3016 RMK AO2,M
RTS,2023-05-21 04:35,-119.8764,39.6682,1539.00,68.00,44.60,42.85,290.00,9.00,0.00,30.19,M,10.00,M,CLR,M,M,M,M,M,M,M,M,M,M,M,M,M,M,68.00,KRTS 210435Z AUTO 29009KT 10SM CLR 20/07 A3019 RMK AO2,M
MEV,2023-05-21 04:35,-119.7500,38.9963,1441.42,60.80,46.40,59.01,160.00,6.00,0.00,30.16,M,10.00,M,FEW,FEW,M,M,4400.00,5500.00,M,M,M,M,M,M,M,M,M,60.80,KMEV 210435Z AUTO 16006KT 10SM FEW044 FEW055 16/08 A3016 RMK AO2,M
BAM,2023-05-21 04:35,-116.8743,40.5990,1382.36,77.00,33.80,20.74,0.00,0.00,0.00,30.11,M,10.00,M,CLR,M,M,M,M,M,M,M,M,M,M,M,M,M,M,77.00,KBAM 210435Z AUTO 00000KT 10SM CLR 25/01 A3011 RMK AO1,M
HTH,2023-05-21 04:35,-118.6315,38.5448,1282.89,68.00,50.00,52.51,220.00,11.00,0.00,30.17,M,10.00,M,FEW,SCT,BKN,M,2400.00,6000.00,10000.00,M,M,M,M,M,M,M,M,68.00,KHTH 210435Z AUTO 22011KT 10SM FEW024 SCT060 BKN100 20/10 A3017 RMK A01,M
10U,2023-05-21 04:35,-116.1876,41.9532,1637.00,62.60,35.60,36.45,170.00,3.00,0.00,30.18,M,10.00,M,SCT,BKN,BKN,M,4500.00,5500.00,6500.00,M,M,M,M,M,M,M,M,62.60,K10U 210435Z AUTO 17003KT 10SM SCT045 BKN055 BKN065 17/02 A3018 RMK AO2,M
TMT,2023-05-21 04:35,-117.1971,39.4643,1749.34,59.20,33.00,36.93,300.00,4.00,0.00,30.19,M,10.00,M,CLR,M,M,M,M,M,M,M,M,M,M,M,M,M,M,59.20,KTMT 210435Z AUTO 30004KT 10SM CLR 15/01 A3019 RMK AO2 T01510005,M
05U,2023-05-21 04:50,-116.0051,39.6042,1811.23,53.60,33.80,46.88,360.00,4.00,0.00,30.23,M,10.00,M,CLR,M,M,M,M,M,M,M,M,M,M,M,M,M,M,53.60,K05U 210450Z AUTO 36004KT 10SM CLR 12/01 A3023 RMK A01,M
ELY,2023-05-21 04:53,-114.8453,39.2950,1909.00,58.00,30.90,35.69,310.00,7.00,0.00,30.24,1015.50,10.00,M,SCT,M,M,M,12000.00,M,M,M,M,M,M,M,M,M,M,57.90,KELY 210453Z AUTO 31007KT 10SM SCT120 14/M01 A3024 RMK AO2 SLP155 T01441006,M
VGT,2023-05-21 04:53,-115.1933,36.2111,667.00,80.00,52.00,37.67,30.00,3.00,0.00,30.02,1016.10,10.00,M,CLR,M,M,M,M,M,M,M,M,M,M,M,M,M,M,79.81,KVGT 210453Z AUTO 03003KT 10SM CLR 27/11 A3002 RMK AO2 SLP161 T02670111,M
LOL,2023-05-21 04:53,-118.5701,40.0684,1192.43,76.00,41.00,28.56,320.00,20.00,0.00,30.09,1014.40,8.00,27.00,CLR,M,M,M,M,M,M,M,M,M,M,M,27.00,340.00,2023-05-21 04:44,75.90,KLOL 210453Z AUTO 32020G27KT 8SM CLR 24/05 A3009 RMK AO2 PK WND 34027/0444 SLP144 T02440050,M
DRA,2023-05-21 04:53,-116.0278,36.6206,1009.00,68.00,53.00,58.88,280.00,3.00,0.00,30.10,1014.90,10.00,M,FEW,M,M,M,10000.00,M,M,M,M,M,M,M,M,M,M,68.00,KDRA 210453Z AUTO 28003KT 10SM FEW100 20/12 A3010 RMK AO2 SLP149 T02000117,M
P68,2023-05-21 04:53,-116.0056,39.6014,1993.00,53.00,35.00,50.28,180.00,6.00,0.00,30.20,1016.00,M,M,M,M,M,M,M,M,M,M,M,M,M,M,M,M,M,53.10,KP68 210453Z AUTO 18006KT 12/02 A3020 RMK AO1 SLP160 T01170017,M
BVU,2023-05-21 04:55,-114.8611,35.9475,671.00,75.20,48.20,38.46,0.00,0.00,0.00,30.04,M,10.00,M,FEW,M,M,M,12000.00,M,M,M,M,M,M,M,M,M,M,75.20,KBVU 210455Z AUTO 00000KT 10SM FEW120 24/09 A3004 RMK AO2,M
CXP,2023-05-21 04:55,-119.7326,39.1923,1431.00,66.20,48.20,52.25,220.00,3.00,0.00,30.16,M,10.00,M,BKN,M,M,M,11000.00,M,M,M,M,M,M,M,M,M,M,66.20,KCXP 210455Z AUTO 22003KT 10SM BKN110 19/09 A3016 RMK AO2,M
RTS,2023-05-21 04:55,-119.8764,39.6682,1539.00,66.20,44.60,45.60,330.00,5.00,0.00,30.20,M,10.00,M,CLR,M,M,M,M,M,M,M,M,M,M,M,M,M,M,66.20,KRTS 210455Z AUTO 33005KT 10SM CLR 19/07 A3020 RMK AO2,M
MEV,2023-05-21 04:55,-119.7500,38.9963,1441.42,60.80,48.20,63.15,110.00,9.00,0.00,30.16,M,10.00,M,FEW,FEW,M,M,4200.00,12000.00,M,M,M,M,M,M,M,M,M,60.80,KMEV 210455Z AUTO 11009KT 10SM FEW042 FEW120 16/09 A3016 RMK AO2,M
BAM,2023-05-21 04:55,-116.8743,40.5990,1382.36,69.80,33.80,26.43,190.00,3.00,0.00,30.11,M,10.00,M,SCT,M,M,M,12000.00,M,M,M,M,M,M,M,M,M,M,69.80,KBAM 210455Z AUTO 19003KT 10SM SCT120 21/01 A3011 RMK AO1,M
HTH,2023-05-21 04:55,-118.6315,38.5448,1282.89,69.80,46.40,43.13,220.00,12.00,0.00,30.15,M,10.00,M,FEW,SCT,M,M,10000.00,12000.00,M,M,M,M,M,M,M,M,M,69.80,KHTH 210455Z AUTO 22012KT 10SM FEW100 SCT120 21/08 A3015 RMK A01,M
TMT,2023-05-21 04:55,-117.1971,39.4643,1749.34,58.50,34.20,39.88,220.00,8.00,0.00,30.20,M,10.00,M,CLR,M,M,M,M,M,M,M,M,M,M,M,M,M,M,58.50,KTMT 210455Z AUTO 22008KT 10SM CLR 15/01 A3020 RMK AO2 T01470012,M
10U,2023-05-21 04:55,-116.1876,41.9532,1637.00,60.80,35.60,38.85,150.00,3.00,0.00,30.18,M,10.00,M,FEW,SCT,BKN,M,2600.00,4500.00,5500.00,M,M,M,M,M,M,M,M,60.80,K10U 210455Z AUTO 15003KT 10SM FEW026 SCT045 BKN055 16/02 A3018 RMK AO2,M
INS,2023-05-21 04:55,-115.6733,36.5872,955.00,76.60,38.00,24.92,110.00,6.00,0.00,30.08,1014.20,10.00,M,FEW,M,M,M,16000.00,M,M,M,M,M,M,M,M,M,M,76.60,KINS 210455Z AUTO 11006KT 10SM FEW160 25/03 A3008 RMK AO2 SLP142 T02480034 $,M
LSV,2023-05-21 04:55,-115.0343,36.2362,570.00,79.20,49.00,34.84,280.00,3.00,0.00,30.00,1013.70,10.00,M,CLR,M,M,M,M,M,M,M,M,M,M,M,M,M,M,79.20,KLSV 210455Z AUTO 28003KT 10SM CLR 26/10 A3000 RMK AO2 SLP137 T02620095 $,M
RNO,2023-05-21 04:55,-119.7711,39.4839,1341.00,74.00,43.00,32.98,360.00,16.00,0.00,30.14,1015.00,10.00,19.00,SCT,BKN,M,M,5000.00,10000.00,M,M,M,M,M,M,M,M,M,73.90,KRNO 210455Z 36016G19KT 10SM SCT050 BKN100 23/06 A3014 RMK AO2 SLP150 T02330061 $,M
WMC,2023-05-21 04:56,-117.8072,40.9019,1315.00,66.00,39.00,37.00,M,3.00,0.00,30.10,1014.70,10.00,M,CLR,M,M,M,M,M,M,M,M,M,M,M,M,M,M,66.00,KWMC 210456Z AUTO VRB03KT 10SM CLR 19/04 A3010 RMK AO2 SLP147 T01890039,M
NFL,2023-05-21 04:56,-118.7010,39.4166,1199.00,76.00,43.00,30.85,M,M,T,30.12,1016.60,9.00,M,SCT,SCT,BKN,M,6000.00,9000.00,12000.00,M,-RA,M,M,M,M,M,M,75.90,KNFL 210456Z AUTO 9SM -RA SCT060 SCT090 BKN120 24/06 A3012 RMK AO2 RAB55 SLP166 P0000 T02440061,M
TPH,2023-05-21 04:56,-117.0904,38.0505,1654.00,M,M,M,M,M,0.00,30.21,M,M,M,M,M,M,M,M,M,M,M,M,M,M,M,M,M,M,M,KTPH 210456Z AUTO A3021 RMK AO2 SLPNO PWINO $,M
LAS,2023-05-21 04:56,-115.1634,36.0719,663.00,78.00,50.00,37.36,290.00,4.00,0.00,30.03,1014.70,10.00,M,FEW,BKN,M,M,15000.00,25000.00,M,M,M,M,M,M,M,M,M,78.10,KLAS 210456Z 29004KT 10SM FEW150 BKN250 26/10 A3003 RMK AO2 SLP147 T02560100,M
EKO,2023-05-21 04:56,-115.7860,40.8242,1367.00,65.00,35.00,32.97,60.00,4.00,0.00,30.14,1015.80,10.00,M,CLR,M,M,M,M,M,M,M,M,M,M,M,M,M,M,64.90,KEKO 210456Z AUTO 06004KT 10SM CLR 18/02 A3014 RMK AO2 SLP158 T01830017,M
HND,2023-05-21 04:56,-115.1344,35.9729,742.79,78.00,49.00,35.86,0.00,0.00,0.00,30.07,1017.30,10.00,M,CLR,M,M,M,M,M,M,M,M,M,M,M,M,M,M,78.10,KHND 210456Z AUTO 00000KT 10SM CLR 26/09 A3007 RMK AO2 SLP173 T02560094,M
05U,2023-05-21 05:10,-116.0051,39.6042,1811.23,53.60,32.00,43.61,10.00,4.00,0.00,30.23,M,10.00,M,CLR,M,M,M,M,M,M,M,M,M,M,M,M,M,M,53.60,K05U 210510Z AUTO 01004KT 10SM CLR 12/00 A3023 RMK A01,M
BVU,2023-05-21 05:15,-114.8611,35.9475,671.00,75.20,48.20,38.46,360.00,4.00,0.00,30.03,M,10.00,M,CLR,M,M,M,M,M,M,M,M,M,M,M,M,M,M,75.20,KBVU 210515Z AUTO 36004KT 10SM CLR 24/09 A3003 RMK AO2,M
CXP,2023-05-21 05:15,-119.7326,39.1923,1431.00,66.20,48.20,52.25,0.00,0.00,0.00,30.17,M,10.00,M,SCT,M,M,M,11000.00,M,M,M,M,M,M,M,M,M,M,66.20,KCXP 210515Z AUTO 00000KT 10SM SCT110 19/09 A3017 RMK AO2,M
RTS,2023-05-21 05:15,-119.8764,39.6682,1539.00,68.00,42.80,40.00,290.00,13.00,0.00,30.20,M,10.00,M,CLR,M,M,M,M,M,M,M,M,M,M,M,M,M,M,68.00,KRTS 210515Z AUTO 29013KT 10SM CLR 20/06 A3020 RMK AO2,M
MEV,2023-05-21 05:15,-119.7500,38.9963,1441.42,59.00,46.40,62.92,140.00,8.00,0.00,30.16,M,10.00,M,FEW,FEW,SCT,M,3300.00,4000.00,12000.00,M,M,M,M,M,M,M,M,59.00,KMEV 210515Z AUTO 14008KT 10SM FEW033 FEW040 SCT120 15/08 A3016 RMK AO2,M
BAM,2023-05-21 05:15,-116.8743,40.5990,1382.36,69.80,35.60,28.39,0.00,0.00,0.00,30.11,M,10.00,M,SCT,M,M,M,12000.00,M,M,M,M,M,M,M,M,M,M,69.80,KBAM 210515Z AUTO 00000KT 10SM SCT120 21/02 A3011 RMK AO1,M
HTH,2023-05-21 05:15,-118.6315,38.5448,1282.89,71.60,41.00,33.00,M,5.00,0.00,30.15,M,10.00,M,FEW,FEW,M,M,10000.00,12000.00,M,M,M,M,M,M,M,M,M,71.60,KHTH 210515Z AUTO VRB05KT 10SM FEW100 FEW120 22/05 A3015 RMK A01,M
10U,2023-05-21 05:15,-116.1876,41.9532,1637.00,55.40,37.40,50.64,0.00,0.00,0.00,30.18,M,10.00,M,FEW,SCT,BKN,M,2700.00,4600.00,5500.00,M,M,M,M,M,M,M,M,55.40,K10U 210515Z AUTO 00000KT 10SM FEW027 SCT046 BKN055 13/03 A3018 RMK AO2,M
TMT,2023-05-21 05:15,-117.1971,39.4643,1749.34,61.50,35.00,37.15,190.00,6.00,0.00,30.20,M,10.00,M,CLR,M,M,M,M,M,M,M,M,M,M,M,M,M,M,61.50,KTMT 210515Z AUTO 19006KT 10SM CLR 16/02 A3020 RMK AO2 T01640017,M
05U,2023-05-21 05:30,-116.0051,39.6042,1811.23,51.80,33.80,50.08,10.00,3.00,0.00,30.23,M,10.00,M,CLR,M,M,M,M,M,M,M,M,M,M,M,M,M,M,51.80,K05U 210530Z AUTO 01003KT 10SM CLR 11/01 A3023 RMK A01,M
BVU,2023-05-21 05:35,-114.8611,35.9475,671.00,75.20,50.00,41.14,60.00,4.00,0.00,30.03,M,10.00,M,CLR,M,M,M,M,M,M,M,M,M,M,M,M,M,M,75.20,KBVU 210535Z AUTO 06004KT 10SM CLR 24/10 A3003 RMK AO2,M
CXP,2023-05-21 05:35,-119.7326,39.1923,1431.00,M,M,M,M,M,0.00,M,M,10.00,M,CLR,M,M,M,M,M,M,M,M,M,M,M,M,M,M,M,KCXP 210535Z AUTO 10SM CLR RMK AO2 PNO PWINO TSNO,M
RTS,2023-05-21 05:35,-119.8764,39.6682,1539.00,64.40,44.60,48.55,270.00,7.00,0.00,30.21,M,10.00,M,CLR,M,M,M,M,M,M,M,M,M,M,M,M,M,M,64.40,KRTS 210535Z AUTO 27007KT 10SM CLR 18/07 A3021 RMK AO2,M
MEV,2023-05-21 05:35,-119.7500,38.9963,1441.42,59.00,46.40,62.92,110.00,8.00,0.00,30.16,M,10.00,M,SCT,M,M,M,3700.00,M,M,M,M,M,M,M,M,M,M,59.00,KMEV 210535Z AUTO 11008KT 10SM SCT037 15/08 A3016 RMK AO2,M
BAM,2023-05-21 05:35,-116.8743,40.5990,1382.36,69.80,37.40,30.49,0.00,0.00,0.00,30.12,M,10.00,M,CLR,M,M,M,M,M,M,M,M,M,M,M,M,M,M,69.80,KBAM 210535Z AUTO 00000KT 10SM CLR 21/03 A3012 RMK AO1,M
HTH,2023-05-21 05:35,-118.6315,38.5448,1282.89,68.00,48.20,49.10,100.00,7.00,0.00,30.15,M,10.00,12.00,FEW,M,M,M,9000.00,M,M,M,M,M,M,M,M,M,M,68.00,KHTH 210535Z AUTO 10007G12KT 10SM FEW090 20/09 A3015 RMK A01,M
10U,2023-05-21 05:35,-116.1876,41.9532,1637.00,62.60,33.80,33.93,130.00,6.00,0.00,30.18,M,10.00,M,FEW,SCT,BKN,M,3600.00,4300.00,5500.00,M,M,M,M,M,M,M,M,62.60,K10U 210535Z AUTO 13006KT 10SM FEW036 SCT043 BKN055 17/01 A3018 RMK AO2,M
TMT,2023-05-21 05:35,-117.1971,39.4643,1749.34,63.50,37.00,37.18,220.00,12.00,0.00,30.21,M,10.00,17.00,SCT,M,M,M,12000.00,M,M,M,M,M,M,M,M,M,M,63.50,KTMT 210535Z AUTO 22012G17KT 10SM SCT120 18/03 A3021 RMK AO2 T01750027,M
05U,2023-05-21 05:50,-116.0051,39.6042,1811.23,50.00,32.00,49.81,0.00,0.00,0.00,30.23,M,10.00,M,CLR,M,M,M,M,M,M,M,M,M,M,M,M,M,M,50.00,K05U 210550Z AUTO 00000KT 10SM CLR 10/M00 A3023 RMK A01,M
ELY,2023-05-21 05:53,-114.8453,39.2950,1909.00,54.00,32.00,42.98,190.00,8.00,0.00,30.25,1015.60,10.00,M,CLR,M,M,M,M,M,M,M,M,M,M,M,M,M,M,54.00,KELY 210553Z AUTO 19008KT 10SM CLR 12/00 A3025 RMK AO2 SLP156 T01220000 10256 20111 51018,M
LOL,2023-05-21 05:53,-118.5701,40.0684,1192.43,73.00,41.00,31.47,320.00,10.00,0.00,30.10,1015.10,10.00,M,CLR,M,M,M,M,M,M,M,M,M,M,M,27.00,320.00,2023-05-21 05:10,73.00,KLOL 210553Z AUTO 32010KT 10SM CLR 23/05 A3010 RMK AO2 PK WND 32027/0510 SLP151 T02280050 10300 20228 53024,M
P68,2023-05-21 05:53,-116.0056,39.6014,1993.00,49.00,33.00,54.24,0.00,0.00,0.00,30.20,1016.10,M,M,M,M,M,M,M,M,M,M,M,M,M,M,M,M,M,48.90,KP68 210553Z AUTO 00000KT 09/01 A3020 RMK AO1 SLP161 T00940006 10261 20094 51011,M
DRA,2023-05-21 05:53,-116.0278,36.6206,1009.00,67.00,53.00,61.16,350.00,5.00,0.00,30.11,1015.30,10.00,M,CLR,M,M,M,M,M,M,M,M,M,M,M,M,M,M,66.90,KDRA 210553Z AUTO 35005KT 10SM CLR 19/12 A3011 RMK AO2 SLP153 60004 T01940117 10233 20194 51029,M
VGT,2023-05-21 05:53,-115.1933,36.2111,667.00,80.00,51.00,36.44,150.00,3.00,0.00,30.02,1015.90,10.00,M,CLR,M,M,M,M,M,M,M,M,M,M,M,M,M,M,79.72,KVGT 210553Z AUTO 15003KT 10SM CLR 27/11 A3002 RMK AO2 SLP159 T02670106 10333 20261 50005,M
BVU,2023-05-21 05:55,-114.8611,35.9475,671.00,75.20,50.00,41.14,60.00,5.00,0.00,30.03,M,10.00,M,CLR,M,M,M,M,M,M,M,M,M,M,M,M,M,M,75.20,KBVU 210555Z AUTO 06005KT 10SM CLR 24/10 A3003 RMK AO2,M
CXP,2023-05-21 05:55,-119.7326,39.1923,1431.00,68.00,42.80,40.00,280.00,3.00,0.00,30.20,M,10.00,M,CLR,M,M,M,M,M,M,M,M,M,M,M,M,M,M,68.00,KCXP 210555Z AUTO 28003KT 10SM CLR 20/06 A3020 RMK AO2,M
RNO,2023-05-21 05:55,-119.7711,39.4839,1341.00,72.00,46.00,39.42,340.00,7.00,0.00,30.15,1015.30,10.00,M,SCT,BKN,M,M,5000.00,10000.00,M,M,M,M,M,M,M,M,M,72.00,KRNO 210555Z 34007KT 10SM SCT050 BKN100 22/08 A3015 RMK AO2 SLP153 60000 T02220078 10267 20222 51015 $,M
RTS,2023-05-21 05:55,-119.8764,39.6682,1539.00,62.60,44.60,51.72,320.00,4.00,0.00,30.21,M,10.00,M,CLR,M,M,M,M,M,M,M,M,M,M,M,M,M,M,62.60,KRTS 210555Z AUTO 32004KT 10SM CLR 17/07 A3021 RMK AO2,M
MEV,2023-05-21 05:55,-119.7500,38.9963,1441.42,59.00,42.80,54.86,110.00,5.00,0.00,30.17,M,10.00,M,BKN,M,M,M,3600.00,M,M,M,M,M,M,M,M,M,M,59.00,KMEV 210555Z AUTO 11005KT 10SM BKN036 15/06 A3017 RMK AO2,M
BAM,2023-05-21 05:55,-116.8743,40.5990,1382.36,62.60,33.80,33.93,50.00,3.00,0.00,30.12,M,10.00,M,CLR,M,M,M,M,M,M,M,M,M,M,M,M,M,M,62.60,KBAM 210555Z AUTO 05003KT 10SM CLR 17/01 A3012 RMK AO1,M
HTH,2023-05-21 05:55,-118.6315,38.5448,1282.89,66.20,46.40,48.83,M,M,0.00,30.16,M,10.00,M,CLR,M,M,M,M,M,M,M,M,M,M,M,M,M,M,66.20,KHTH 210555Z AUTO 10/45833310KT 10SM CLR 19/08 A3016 RMK A01,M
TMT,2023-05-21 05:55,-117.1971,39.4643,1749.34,65.80,39.20,37.55,220.00,19.00,0.00,30.22,M,10.00,23.00,BKN,M,M,M,12000.00,M,M,M,M,M,M,M,M,M,M,65.80,KTMT 210555Z AUTO 22019G23KT 10SM BKN120 19/04 A3022 RMK AO2 T01880040 10277 20142,M
10U,2023-05-21 05:55,-116.1876,41.9532,1637.00,60.80,35.60,38.85,130.00,8.00,0.00,30.19,M,10.00,M,FEW,SCT,BKN,M,4300.00,5000.00,6000.00,M,M,M,M,M,M,M,M,60.80,K10U 210555Z AUTO 13008KT 10SM FEW043 SCT050 BKN060 16/02 A3019 RMK AO2,M
INS,2023-05-21 05:55,-115.6733,36.5872,955.00,74.00,38.80,27.84,0.00,0.00,0.00,30.09,1014.50,10.00,M,OVC,M,M,M,14000.00,M,M,M,M,M,M,M,M,M,M,74.10,KINS 210555Z AUTO 00000KT 10SM OVC140 23/04 A3009 RMK AO2 SLP145 60000 T02340038 10293 20233 51020 $,M
LSV,2023-05-21 05:55,-115.0343,36.2362,570.00,77.00,50.20,39.03,20.00,7.00,0.00,29.98,1013.00,10.00,M,CLR,M,M,M,M,M,M,M,M,M,M,M,M,M,M,77.00,KLSV 210555Z AUTO 02007KT 10SM CLR 25/10 A2998 RMK AO2 SLP130 T02500101 10343 20250 50007 $,M
EKO,2023-05-21 05:56,-115.7860,40.8242,1367.00,61.00,36.00,39.19,0.00,0.00,0.00,30.16,1016.10,10.00,M,CLR,M,M,M,M,M,M,M,M,M,M,M,M,M,M,61.00,KEKO 210556Z AUTO 00000KT 10SM CLR 16/02 A3016 RMK AO2 SLP161 T01610022 10283 20161 51012,M
NFL,2023-05-21 05:56,-118.7010,39.4166,1199.00,75.00,43.00,31.79,270.00,10.00,T,30.14,1017.00,10.00,M,FEW,SCT,BKN,M,6000.00,9000.00,11000.00,M,M,M,M,M,M,M,M,75.00,KNFL 210556Z AUTO 27010KT 10SM FEW060 SCT090 BKN110 24/06 A3014 RMK AO2 RAE33 SLP170 P0000 60000 T02390061 10333 20222 51028,M
TPH,2023-05-21 05:56,-117.0904,38.0505,1654.00,M,M,M,M,M,0.00,30.24,M,M,M,M,M,M,M,M,M,M,M,M,M,M,M,M,M,M,M,KTPH 210556Z AUTO A3024 RMK AO2 SLPNO 53015 PWINO $,M
HND,2023-05-21 05:56,-115.1344,35.9729,742.79,75.00,49.00,39.75,190.00,4.00,0.00,30.07,1017.20,10.00,M,CLR,M,M,M,M,M,M,M,M,M,M,M,M,M,M,75.00,KHND 210556Z AUTO 19004KT 10SM CLR 24/09 A3007 RMK AO2 SLP172 T02390094 10317 20239 50013,M
LAS,2023-05-21 05:56,-115.1634,36.0719,663.00,79.00,49.00,34.81,270.00,4.00,0.00,30.03,1014.40,10.00,M,FEW,BKN,M,M,15000.00,25000.00,M,M,M,M,M,M,M,M,M,79.00,KLAS 210556Z 27004KT 10SM FEW150 BKN250 26/09 A3003 RMK AO2 SLP144 T02610094 10328 20256 50012,M
WMC,2023-05-21 05:56,-117.8072,40.9019,1315.00,71.00,38.00,29.74,310.00,11.00,0.00,30.12,1015.00,10.00,M,CLR,M,M,M,M,M,M,M,M,M,M,M,M,M,M,71.10,KWMC 210556Z AUTO 31011KT 10SM CLR 22/03 A3012 RMK AO2 SLP150 T02170033 10317 20167 53018,M
05U,2023-05-21 06:10,-116.0051,39.6042,1811.23,48.20,32.00,53.27,10.00,4.00,0.00,30.23,M,10.00,M,CLR,M,M,M,M,M,M,M,M,M,M,M,M,M,M,46.34,K05U 210610Z AUTO 01004KT 10SM CLR 09/00 A3023 RMK A01,M
HTH,2023-05-21 06:10,-118.6315,38.5448,1282.89,68.00,48.20,49.10,150.00,12.00,0.00,30.16,M,10.00,M,CLR,M,M,M,M,M,M,M,M,M,M,M,M,M,M,68.00,KHTH 210610Z AUTO 15012KT 10SM CLR 20/09 A3016 RMK A01,M
BVU,2023-05-21 06:15,-114.8611,35.9475,671.00,75.20,50.00,41.14,M,4.00,0.00,30.03,M,10.00,M,CLR,M,M,M,M,M,M,M,M,M,M,M,M,M,M,75.20,KBVU 210615Z AUTO VRB04KT 10SM CLR 24/10 A3003 RMK AO2,M
CXP,2023-05-21 06:15,-119.7326,39.1923,1431.00,66.20,41.00,39.72,0.00,0.00,0.00,30.21,M,10.00,M,CLR,M,M,M,M,M,M,M,M,M,M,M,M,M,M,66.20,KCXP 210615Z AUTO 00000KT 10SM CLR 19/05 A3021 RMK AO2,M
RTS,2023-05-21 06:15,-119.8764,39.6682,1539.00,59.00,44.60,58.77,310.00,8.00,0.00,30.21,M,10.00,M,CLR,M,M,M,M,M,M,M,M,M,M,M,M,M,M,59.00,KRTS 210615Z AUTO 31008KT 10SM CLR 15/07 A3021 RMK AO2,M
MEV,2023-05-21 06:15,-119.7500,38.9963,1441.42,60.80,42.80,51.45,330.00,4.00,0.00,30.18,M,10.00,M,SCT,BKN,M,M,3500.00,4200.00,M,M,M,M,M,M,M,M,M,60.80,KMEV 210615Z AUTO 33004KT 10SM SCT035 BKN042 16/06 A3018 RMK AO2,M
BAM,2023-05-21 06:15,-116.8743,40.5990,1382.36,64.40,33.80,31.85,60.00,3.00,0.00,30.12,M,10.00,M,CLR,M,M,M,M,M,M,M,M,M,M,M,M,M,M,64.40,KBAM 210615Z AUTO 06003KT 10SM CLR 18/01 A3012 RMK AO1,M
TMT,2023-05-21 06:15,-117.1971,39.4643,1749.34,64.80,39.70,39.65,220.00,16.00,0.00,30.22,M,10.00,21.00,SCT,M,M,M,12000.00,M,M,M,M,M,M,M,M,M,M,64.80,KTMT 210615Z AUTO 22016G21KT 10SM SCT120 18/04 A3022 RMK AO2 T01820043,M
10U,2023-05-21 06:15,-116.1876,41.9532,1637.00,57.20,35.60,44.19,140.00,7.00,0.00,30.19,M,10.00,M,FEW,SCT,BKN,M,2700.00,4200.00,4800.00,M,M,M,M,M,M,M,M,57.20,K10U 210615Z AUTO 14007KT 10SM FEW027 SCT042 BKN048 14/02 A3019 RMK AO2,M
05U,2023-05-21 06:30,-116.0051,39.6042,1811.23,50.00,32.00,49.81,10.00,6.00,0.00,30.23,M,10.00,M,CLR,M,M,M,M,M,M,M,M,M,M,M,M,M,M,50.00,K05U 210630Z AUTO 01006KT 10SM CLR 10/M00 A3023 RMK A01,M
BVU,2023-05-21 06:35,-114.8611,35.9475,671.00,75.20,46.40,35.94,0.00,0.00,0.00,30.03,M,10.00,M,CLR,M,M,M,M,M,M,M,M,M,M,M,M,M,M,75.20,KBVU 210635Z AUTO 00000KT 10SM CLR 24/08 A3003 RMK AO2,M
CXP,2023-05-21 06:35,-119.7326,39.1923,1431.00,64.40,44.60,48.55,310.00,4.00,0.00,30.21,M,10.00,M,CLR,M,M,M,M,M,M,M,M,M,M,M,M,M,M,64.40,KCXP 210635Z AUTO 31004KT 10SM CLR 18/07 A3021 RMK AO2,M
RTS,2023-05-21 06:35,-119.8764,39.6682,1539.00,60.80,44.60,55.12,280.00,6.00,0.00,30.22,M,10.00,M,CLR,M,M,M,M,M,M,M,M,M,M,M,M,M,M,60.80,KRTS 210635Z AUTO 28006KT 10SM CLR 16/07 A3022 RMK AO2,M
MEV,2023-05-21 06:35,-119.7500,38.9963,1441.42,57.20,42.80,58.52,340.00,7.00,0.00,30.20,M,10.00,M,SCT,SCT,M,M,3800.00,4500.00,M,M,M,M,M,M,M,M,M,57.20,KMEV 210635Z AUTO 34007KT 10SM SCT038 SCT045 14/06 A3020 RMK AO2,M
BAM,2023-05-21 06:35,-116.8743,40.5990,1382.36,62.60,33.80,33.93,50.00,8.00,0.00,30.12,M,10.00,M,CLR,M,M,M,M,M,M,M,M,M,M,M,M,M,M,62.60,KBAM 210635Z AUTO 05008KT 10SM CLR 17/01 A3012 RMK AO1,M
HTH,2023-05-21 06:35,-118.6315,38.5448,1282.89,66.20,46.40,48.83,110.00,10.00,0.00,30.16,M,10.00,M,SCT,M,M,M,11000.00,M,M,M,M,M,M,M,M,M,M,66.20,KHTH 210635Z AUTO 11010KT 10SM SCT110 19/08 A3016 RMK A01,M
TMT,2023-05-21 06:35,-117.1971,39.4643,1749.34,64.20,39.60,40.33,220.00,13.00,0.00,30.22,M,10.00,M,SCT,M,M,M,12000.00,M,M,M,M,M,M,M,M,M,M,64.20,KTMT 210635Z AUTO 22013KT 10SM SCT120 18/04 A3022 RMK AO2 T01790042,M
10U,2023-05-21 06:35,-116.1876,41.9532,1637.00,57.20,35.60,44.19,140.00,6.00,0.00,30.19,M,10.00,M,FEW,SCT,SCT,M,4400.00,5000.00,5500.00,M,M,M,M,M,M,M,M,57.20,K10U 210635Z AUTO 14006KT 10SM FEW044 SCT050 SCT055 14/02 A3019 RMK AO2,M
05U,2023-05-21 06:50,-116.0051,39.6042,1811.23,46.40,30.20,53.00,M,3.00,0.00,30.23,M,10.00,M,CLR,M,M,M,M,M,M,M,M,M,M,M,M,M,M,45.15,K05U 210650Z AUTO VRB03KT 10SM CLR 08/M01 A3023 RMK A01,M
P68,2023-05-21 06:53,-116.0056,39.6014,1993.00,48.00,32.00,53.67,220.00,4.00,0.00,30.21,1016.20,M,M,M,M,M,M,M,M,M,M,M,M,M,M,M,M,M,46.10,KP68 210653Z AUTO 22004KT 09/00 A3021 RMK AO1 SLP162 T00890000,M
DRA,2023-05-21 06:53,-116.0278,36.6206,1009.00,68.00,53.00,58.88,50.00,6.00,0.00,30.11,1015.10,10.00,M,CLR,M,M,M,M,M,M,M,M,M,M,M,M,M,M,68.00,KDRA 210653Z AUTO 05006KT 10SM CLR 20/12 A3011 RMK AO2 SLP151 T02000117,M
ELY,2023-05-21 06:53,-114.8453,39.2950,1909.00,49.00,33.00,54.24,190.00,9.00,0.00,30.26,1016.50,10.00,M,SCT,M,M,M,11000.00,M,M,M,M,M,M,M,M,M,M,44.53,KELY 210653Z AUTO 19009KT 10SM SCT110 09/01 A3026 RMK AO2 SLP165 T00940006,M
VGT,2023-05-21 06:53,-115.1933,36.2111,667.00,80.00,51.00,36.44,0.00,0.00,0.00,30.02,1015.90,10.00,M,CLR,M,M,M,M,M,M,M,M,M,M,M,M,M,M,79.72,KVGT 210653Z AUTO 00000KT 10SM CLR 27/11 A3002 RMK AO2 SLP159 T02670106,M
LOL,2023-05-21 06:53,-118.5701,40.0684,1192.43,71.00,42.00,35.02,70.00,12.00,0.00,30.12,1015.50,10.00,M,SCT,M,M,M,12000.00,M,M,M,M,M,M,M,M,M,M,71.10,KLOL 210653Z AUTO 07012KT 10SM SCT120 22/06 A3012 RMK AO2 SLP155 T02170056,M
BVU,2023-05-21 06:55,-114.8611,35.9475,671.00,73.40,50.00,43.69,0.00,0.00,0.00,30.02,M,10.00,M,CLR,M,M,M,M,M,M,M,M,M,M,M,M,M,M,73.40,KBVU 210655Z AUTO 00000KT 10SM CLR 23/10 A3002 RMK AO2,M
CXP,2023-05-21 06:55,-119.7326,39.1923,1431.00,64.40,41.00,42.28,0.00,0.00,0.00,30.21,M,10.00,M,CLR,M,M,M,M,M,M,M,M,M,M,M,M,M,M,64.40,KCXP 210655Z AUTO 00000KT 10SM CLR 18/05 A3021 RMK AO2,M
RNO,2023-05-21 06:55,-119.7711,39.4839,1341.00,71.00,46.00,40.65,260.00,4.00,0.00,30.18,1016.10,10.00,M,BKN,M,M,M,12000.00,M,M,M,M,M,M,M,M,M,M,71.10,KRNO 210655Z 26004KT 10SM BKN120 22/08 A3018 RMK AO2 SLP161 T02170078 $,M
RTS,2023-05-21 06:55,-119.8764,39.6682,1539.00,62.60,44.60,51.72,300.00,4.00,0.00,30.22,M,10.00,M,CLR,M,M,M,M,M,M,M,M,M,M,M,M,M,M,62.60,KRTS 210655Z AUTO 30004KT 10SM CLR 17/07 A3022 RMK AO2,M
MEV,2023-05-21 06:55,-119.7500,38.9963,1441.42,59.00,42.80,54.86,320.00,5.00,0.00,30.20,M,10.00,M,FEW,BKN,BKN,M,4100.00,5000.00,8500.00,M,M,M,M,M,M,M,M,59.00,KMEV 210655Z AUTO 32005KT 10SM FEW041 BKN050 BKN085 15/06 A3020 RMK AO2,M
BAM,2023-05-21 06:55,-116.8743,40.5990,1382.36,62.60,41.00,45.04,20.00,5.00,0.00,30.12,M,10.00,M,CLR,M,M,M,M,M,M,M,M,M,M,M,M,M,M,62.60,KBAM 210655Z AUTO 02005KT 10SM CLR 17/05 A3012 RMK AO1,M
HTH,2023-05-21 06:55,-118.6315,38.5448,1282.89,66.20,46.40,48.83,110.00,8.00,0.00,30.16,M,10.00,M,OVC,M,M,M,11000.00,M,M,M,M,M,M,M,M,M,M,66.20,KHTH 210655Z AUTO 11008KT 10SM OVC110 19/08 A3016 RMK A01,M
TMT,2023-05-21 06:55,-117.1971,39.4643,1749.34,62.40,39.70,43.13,230.00,10.00,0.00,30.22,M,10.00,M,CLR,M,M,M,M,M,M,M,M,M,M,M,M,M,M,62.40,KTMT 210655Z AUTO 23010KT 10SM CLR 17/04 A3022 RMK AO2 T01690043,M
10U,2023-05-21 06:55,-116.1876,41.9532,1637.00,59.00,35.60,41.42,150.00,4.00,0.00,30.19,M,10.00,M,FEW,SCT,BKN,M,4200.00,5000.00,12000.00,M,M,M,M,M,M,M,M,59.00,K10U 210655Z AUTO 15004KT 10SM FEW042 SCT050 BKN120 15/02 A3019 RMK AO2,M
INS,2023-05-21 06:55,-115.6733,36.5872,955.00,74.30,42.40,31.80,330.00,3.00,0.00,30.10,1014.50,10.00,M,OVC,M,M,M,13000.00,M,M,M,M,M,M,M,M,M,M,74.30,KINS 210655Z AUTO 33003KT 10SM OVC130 24/06 A3010 RMK AO2 SLP145 T02350058 $,M
LSV,2023-05-21 06:55,-115.0343,36.2362,570.00,74.50,49.80,41.80,0.00,0.00,0.00,29.99,1013.30,10.00,M,CLR,M,M,M,M,M,M,M,M,M,M,M,M,M,M,74.50,KLSV 210655Z AUTO 00000KT 10SM CLR 24/10 A2999 RMK AO2 SLP133 T02360099 $,M
EKO,2023-05-21 06:56,-115.7860,40.8242,1367.00,57.00,37.00,47.04,0.00,0.00,0.00,30.17,1016.70,10.00,M,CLR,M,M,M,M,M,M,M,M,M,M,M,M,M,M,57.00,KEKO 210656Z AUTO 00000KT 10SM CLR 14/03 A3017 RMK AO2 SLP167 T01390028,M
TPH,2023-05-21 06:56,-117.0904,38.0505,1654.00,M,M,M,M,M,0.00,30.24,M,M,M,M,M,M,M,M,M,M,M,M,M,M,M,M,M,M,M,KTPH 210656Z AUTO A3024 RMK AO2 SLPNO PWINO $,M
NFL,2023-05-21 06:56,-118.7010,39.4166,1199.00,75.00,42.00,30.71,310.00,8.00,0.00,30.12,1016.70,10.00,M,FEW,M,M,M,11000.00,M,M,M,M,M,M,M,M,M,M,75.00,KNFL 210656Z AUTO 31008KT 10SM FEW110 24/06 A3012 RMK AO2 SLP167 T02390056,M
HND,2023-05-21 06:56,-115.1344,35.9729,742.79,73.00,47.00,39.43,180.00,6.00,0.00,30.06,1017.00,10.00,M,CLR,M,M,M,M,M,M,M,M,M,M,M,M,M,M,73.00,KHND 210656Z AUTO 18006KT 10SM CLR 23/08 A3006 RMK AO2 SLP170 T02280083 403390217,M
WMC,2023-05-21 06:56,-117.8072,40.9019,1315.00,65.00,38.00,36.82,230.00,3.00,0.00,30.13,1015.40,10.00,M,CLR,M,M,M,M,M,M,M,M,M,M,M,M,M,M,64.90,KWMC 210656Z AUTO 23003KT 10SM CLR 18/03 A3013 RMK AO2 SLP154 T01830033,M
LAS,2023-05-21 06:56,-115.1634,36.0719,663.00,78.00,49.00,35.86,230.00,3.00,0.00,30.03,1014.50,10.00,M,FEW,BKN,M,M,15000.00,25000.00,M,M,M,M,M,M,M,M,M,78.10,KLAS 210656Z 23003KT 10SM FEW150 BKN250 26/09 A3003 RMK AO2 SLP145 T02560094,M
05U,2023-05-21 07:10,-116.0051,39.6042,1811.23,46.40,32.00,57.00,10.00,6.00,0.00,30.23,M,10.00,M,CLR,M,M,M,M,M,M,M,M,M,M,M,M,M,M,42.87,K05U 210710Z AUTO 01006KT 10SM CLR 08/00 A3023 RMK A01,M
BVU,2023-05-21 07:15,-114.8611,35.9475,671.00,71.60,51.80,49.64,360.00,3.00,0.00,30.03,M,10.00,M,CLR,M,M,M,M,M,M,M,M,M,M,M,M,M,M,71.60,KBVU 210715Z AUTO 36003KT 10SM CLR 22/11 A3003 RMK AO2,M
CXP,2023-05-21 07:15,-119.7326,39.1923,1431.00,60.80,44.60,55.12,0.00,0.00,0.00,30.21,M,10.00,M,CLR,M,M,M,M,M,M,M,M,M,M,M,M,M,M,60.80,KCXP 210715Z AUTO 00000KT 10SM CLR 16/07 A3021 RMK AO2,M
RTS,2023-05-21 07:15,-119.8764,39.6682,1539.00,60.80,44.60,55.12,0.00,0.00,0.00,30.23,M,10.00,M,SCT,M,M,M,12000.00,M,M,M,M,M,M,M,M,M,M,60.80,KRTS 210715Z AUTO 00000KT 10SM SCT120 16/07 A3023 RMK AO2,M
MEV,2023-05-21 07:15,-119.7500,38.9963,1441.42,57.20,42.80,58.52,310.00,5.00,0.00,30.20,M,10.00,M,FEW,SCT,M,M,4500.00,5000.00,M,M,M,M,M,M,M,M,M,57.20,KMEV 210715Z AUTO 31005KT 10SM FEW045 SCT050 14/06 A3020 RMK AO2,M
BAM,2023-05-21 07:15,-116.8743,40.5990,1382.36,66.20,39.20,37.03,340.00,7.00,0.00,30.13,M,10.00,M,CLR,M,M,M,M,M,M,M,M,M,M,M,M,M,M,66.20,KBAM 210715Z AUTO 34007KT 10SM CLR 19/04 A3013 RMK AO1,M
HTH,2023-05-21 07:15,-118.6315,38.5448,1282.89,64.40,46.40,51.98,130.00,7.00,0.00,30.16,M,10.00,M,FEW,M,M,M,11000.00,M,M,M,M,M,M,M,M,M,M,64.40,KHTH 210715Z AUTO 13007KT 10SM FEW110 18/08 A3016 RMK A01,M
TMT,2023-05-21 07:15,-117.1971,39.4643,1749.34,59.00,40.50,50.20,230.00,12.00,0.00,30.22,M,10.00,M,CLR,M,M,M,M,M,M,M,M,M,M,M,M,M,M,59.00,KTMT 210715Z AUTO 23012KT 10SM CLR 15/05 A3022 RMK AO2 LTG DSNT N T01500047,M
10U,2023-05-21 07:15,-116.1876,41.9532,1637.00,57.20,35.60,44.19,160.00,7.00,0.00,30.20,M,10.00,M,FEW,SCT,BKN,M,4000.00,5000.00,12000.00,M,M,M,M,M,M,M,M,57.20,K10U 210715Z AUTO 16007KT 10SM FEW040 SCT050 BKN120 14/02 A3020 RMK AO2,M
05U,2023-05-21 07:30,-116.0051,39.6042,1811.23,46.40,32.00,57.00,0.00,0.00,0.00,30.23,M,10.00,M,CLR,M,M,M,M,M,M,M,M,M,M,M,M,M,M,46.40,K05U 210730Z AUTO 00000KT 10SM CLR 08/M00 A3023 RMK A01,M
BVU,2023-05-21 07:35,-114.8611,35.9475,671.00,71.60,48.20,43.42,360.00,4.00,0.00,30.03,M,10.00,M,CLR,M,M,M,M,M,M,M,M,M,M,M,M,M,M,71.60,KBVU 210735Z AUTO 36004KT 10SM CLR 22/09 A3003 RMK AO2,M
CXP,2023-05-21 07:35,-119.7326,39.1923,1431.00,59.00,44.60,58.77,0.00,0.00,0.00,30.21,M,10.00,M,CLR,M,M,M,M,M,M,M,M,M,M,M,M,M,M,59.00,KCXP 210735Z AUTO 00000KT 10SM CLR 15/07 A3021 RMK AO2,M
RTS,2023-05-21 07:35,-119.8764,39.6682,1539.00,60.80,44.60,55.12,260.00,3.00,0.00,30.23,M,10.00,M,BKN,M,M,M,12000.00,M,M,M,M,M,M,M,M,M,M,60.80,KRTS 210735Z AUTO 26003KT 10SM BKN120 16/07 A3023 RMK AO2,M
MEV,2023-05-21 07:35,-119.7500,38.9963,1441.42,53.60,42.80,66.70,100.00,4.00,0.00,30.20,M,10.00,M,FEW,SCT,BKN,M,3800.00,4300.00,5500.00,M,M,M,M,M,M,M,M,53.60,KMEV 210735Z AUTO 10004KT 10SM FEW038 SCT043 BKN055 12/06 A3020 RMK AO2,M
BAM,2023-05-21 07:35,-116.8743,40.5990,1382.36,66.20,37.40,34.51,30.00,5.00,0.00,30.13,M,10.00,M,CLR,M,M,M,M,M,M,M,M,M,M,M,M,M,M,66.20,KBAM 210735Z AUTO 03005KT 10SM CLR 19/03 A3013 RMK AO1,M
HTH,2023-05-21 07:35,-118.6315,38.5448,1282.89,64.40,46.40,51.98,170.00,4.00,0.00,30.16,M,10.00,M,CLR,M,M,M,M,M,M,M,M,M,M,M,M,M,M,64.40,KHTH 210735Z AUTO 17004KT 10SM CLR 18/08 A3016 RMK A01,M
TMT,2023-05-21 07:35,-117.1971,39.4643,1749.34,59.00,40.50,50.20,230.00,6.00,0.00,30.23,M,10.00,M,SCT,M,M,M,12000.00,M,M,M,M,M,M,M,M,M,M,59.00,KTMT 210735Z AUTO 23006KT 10SM SCT120 15/05 A3023 RMK AO2 T01500047,M
10U,2023-05-21 07:35,-116.1876,41.9532,1637.00,57.20,35.60,44.19,M,3.00,0.00,30.20,M,10.00,M,FEW,SCT,BKN,M,4000.00,5500.00,12000.00,M,M,M,M,M,M,M,M,57.20,K10U 210735Z AUTO VRB03KT 10SM FEW040 SCT055 BKN120 14/02 A3020 RMK AO2,M
05U,2023-05-21 07:50,-116.0051,39.6042,1811.23,48.20,30.20,49.53,0.00,0.00,0.00,30.23,M,10.00,M,CLR,M,M,M,M,M,M,M,M,M,M,M,M,M,M,48.20,K05U 210750Z AUTO 00000KT 10SM CLR 09/M01 A3023 RMK A01,M
P68,2023-05-21 07:53,-116.0056,39.6014,1993.00,51.00,30.90,45.73,200.00,3.00,0.00,30.20,1015.40,M,M,M,M,M,M,M,M,M,M,M,M,M,M,M,M,M,51.10,KP68 210753Z AUTO 20003KT 11/M01 A3020 RMK AO1 SLP154 T01061006 402670044,M
DRA,2023-05-21 07:53,-116.0278,36.6206,1009.00,65.00,54.00,67.76,30.00,6.00,0.00,30.09,1014.40,10.00,M,CLR,M,M,M,M,M,M,M,M,M,M,M,M,M,M,64.90,KDRA 210753Z AUTO 03006KT 10SM CLR 18/12 A3009 RMK AO2 SLP144 T01830122 403390172,M
VGT,2023-05-21 07:53,-115.1933,36.2111,667.00,78.00,52.00,40.23,340.00,3.00,0.00,30.02,1015.80,10.00,M,CLR,M,M,M,M,M,M,M,M,M,M,M,M,M,M,78.10,KVGT 210753Z AUTO 34003KT 10SM CLR 26/11 A3002 RMK AO2 SLP158 T02560111 403390239,M
ELY,2023-05-21 07:53,-114.8453,39.2950,1909.00,51.00,35.00,54.13,170.00,5.00,0.00,30.26,1016.00,10.00,M,CLR,M,M,M,M,M,M,M,M,M,M,M,M,M,M,51.10,KELY 210753Z AUTO 17005KT 10SM CLR 11/02 A3026 RMK AO2 SLP160 T01060017 402560033,M
LOL,2023-05-21 07:53,-118.5701,40.0684,1192.43,67.00,42.00,40.45,70.00,4.00,0.00,30.13,1015.80,10.00,M,OVC,M,M,M,11000.00,M,M,M,M,M,M,M,M,M,M,66.90,KLOL 210753Z AUTO 07004KT 10SM OVC110 19/06 A3013 RMK AO2 SLP158 T01940056 403280078,M
BVU,2023-05-21 07:55,-114.8611,35.9475,671.00,73.40,48.20,40.85,0.00,0.00,0.00,30.03,M,10.00,M,CLR,M,M,M,M,M,M,M,M,M,M,M,M,M,M,73.40,KBVU 210755Z AUTO 00000KT 10SM CLR 23/09 A3003 RMK AO2,M
CXP,2023-05-21 07:55,-119.7326,39.1923,1431.00,57.20,46.40,67.12,0.00,0.00,0.00,30.21,M,10.00,M,CLR,M,M,M,M,M,M,M,M,M,M,M,M,M,M,57.20,KCXP 210755Z AUTO 00000KT 10SM CLR 14/08 A3021 RMK AO2,M
RNO,2023-05-21 07:55,-119.7711,39.4839,1341.00,69.00,46.00,43.52,270.00,5.00,0.00,30.17,1015.80,10.00,M,SCT,M,M,M,12000.00,M,M,M,M,M,M,M,M,M,M,69.10,KRNO 210755Z 27005KT 10SM SCT120 21/08 A3017 RMK AO2 SLP158 T02060078 403220156 $,M
RTS,2023-05-21 07:55,-119.8764,39.6682,1539.00,57.20,46.40,67.12,320.00,7.00,0.00,30.22,M,10.00,M,BKN,M,M,M,12000.00,M,M,M,M,M,M,M,M,M,M,57.20,KRTS 210755Z AUTO 32007KT 10SM BKN120 14/08 A3022 RMK AO2,M
MEV,2023-05-21 07:55,-119.7500,38.9963,1441.42,53.60,44.60,71.45,110.00,9.00,0.00,30.20,M,10.00,M,SCT,BKN,BKN,M,4300.00,5000.00,5500.00,M,M,M,M,M,M,M,M,53.60,KMEV 210755Z AUTO 11009KT 10SM SCT043 BKN050 BKN055 12/07 A3020 RMK AO2,M
BAM,2023-05-21 07:55,-116.8743,40.5990,1382.36,62.60,41.00,45.04,340.00,4.00,0.00,30.13,M,10.00,M,CLR,M,M,M,M,M,M,M,M,M,M,M,M,M,M,62.60,KBAM 210755Z AUTO 34004KT 10SM CLR 17/05 A3013 RMK AO1,M
HTH,2023-05-21 07:55,-118.6315,38.5448,1282.89,60.80,50.00,67.54,0.00,0.00,0.00,30.16,M,10.00,M,CLR,M,M,M,M,M,M,M,M,M,M,M,M,M,M,60.80,KHTH 210755Z AUTO 00000KT 10SM CLR 16/10 A3016 RMK A01,M
TMT,2023-05-21 07:55,-117.1971,39.4643,1749.34,54.70,39.40,56.17,170.00,3.00,0.00,30.24,M,10.00,M,BKN,M,M,M,12000.00,M,M,M,M,M,M,M,M,M,M,54.70,KTMT 210755Z AUTO 17003KT 10SM BKN120 13/04 A3024 RMK AO2 LTG DSNT N T01260041 402810007,M
10U,2023-05-21 07:55,-116.1876,41.9532,1637.00,53.60,35.60,50.36,160.00,3.00,0.00,30.20,M,10.00,M,FEW,SCT,BKN,M,4600.00,5500.00,6500.00,M,M,M,M,M,M,M,M,53.60,K10U 210755Z AUTO 16003KT 10SM FEW046 SCT055 BKN065 12/02 A3020 RMK AO2,M
LSV,2023-05-21 07:55,-115.0343,36.2362,570.00,74.30,49.60,41.77,300.00,4.00,0.00,29.99,1013.30,10.00,M,CLR,M,M,M,M,M,M,M,M,M,M,M,M,M,M,74.30,KLSV 210755Z AUTO 30004KT 10SM CLR 24/10 A2999 RMK AO2 SLP133 T02350098 403560232 $,M
TPH,2023-05-21 07:56,-117.0904,38.0505,1654.00,M,M,M,M,M,0.00,30.23,M,M,M,M,M,M,M,M,M,M,M,M,M,M,M,M,M,M,M,KTPH 210756Z AUTO A3023 RMK AO2 SLPNO PWINO $,M
LAS,2023-05-21 07:56,-115.1634,36.0719,663.00,77.00,50.00,38.74,130.00,3.00,0.00,30.03,1014.50,10.00,M,FEW,BKN,M,M,15000.00,19000.00,M,M,M,M,M,M,M,M,M,77.00,KLAS 210756Z 13003KT 10SM FEW150 BKN190 25/10 A3003 RMK AO2 SLP145 T02500100 403390233,M
EKO,2023-05-21 07:56,-115.7860,40.8242,1367.00,57.00,38.00,48.73,90.00,3.00,0.00,30.16,1016.40,10.00,M,CLR,M,M,M,M,M,M,M,M,M,M,M,M,M,M,57.00,KEKO 210756Z AUTO 09003KT 10SM CLR 14/03 A3016 RMK AO2 SLP164 T01390033 402830072,M
WMC,2023-05-21 07:56,-117.8072,40.9019,1315.00,64.00,40.00,41.09,260.00,3.00,0.00,30.13,1015.20,10.00,M,CLR,M,M,M,M,M,M,M,M,M,M,M,M,M,M,64.00,KWMC 210756Z AUTO 26003KT 10SM CLR 18/04 A3013 RMK AO2 SLP152 T01780044 403220072,M
NFL,2023-05-21 07:56,-118.7010,39.4166,1199.00,73.00,44.00,35.46,320.00,4.00,0.00,30.11,1016.20,10.00,M,SCT,M,M,M,12000.00,M,M,M,M,M,M,M,M,M,M,73.00,KNFL 210756Z AUTO 32004KT 10SM SCT120 23/07 A3011 RMK AO2 SLP162 T02280067 403390122,M
HND,2023-05-21 07:56,-115.1344,35.9729,742.79,74.00,47.00,38.26,230.00,4.00,0.00,30.06,1016.90,10.00,M,CLR,M,M,M,M,M,M,M,M,M,M,M,M,M,M,73.90,KHND 210756Z AUTO 23004KT 10SM CLR 23/08 A3006 RMK AO2 SLP169 T02330083,M
05U,2023-05-21 08:10,-116.0051,39.6042,1811.23,51.80,32.00,46.59,10.00,5.00,0.00,30.23,M,10.00,M,CLR,M,M,M,M,M,M,M,M,M,M,M,M,M,M,51.80,K05U 210810Z AUTO 01005KT 10SM CLR 11/M00 A3023 RMK A01,M
BVU,2023-05-21 08:15,-114.8611,35.9475,671.00,71.60,48.20,43.42,340.00,5.00,0.00,30.02,M,10.00,M,CLR,M,M,M,M,M,M,M,M,M,M,M,M,M,M,71.60,KBVU 210815Z AUTO 34005KT 10SM CLR 22/09 A3002 RMK AO2,M
CXP,2023-05-21 08:15,-119.7326,39.1923,1431.00,57.20,46.40,67.12,0.00,0.00,0.00,30.21,M,10.00,M,CLR,M,M,M,M,M,M,M,M,M,M,M,M,M,M,57.20,KCXP 210815Z AUTO 00000KT 10SM CLR 14/08 A3021 RMK AO2,M
RTS,2023-05-21 08:15,-119.8764,39.6682,1539.00,57.20,44.60,62.69,330.00,7.00,0.00,30.22,M,10.00,M,BKN,M,M,M,12000.00,M,M,M,M,M,M,M,M,M,M,57.20,KRTS 210815Z AUTO 33007KT 10SM BKN120 14/07 A3022 RMK AO2,M
MEV,2023-05-21 08:15,-119.7500,38.9963,1441.42,51.80,44.60,76.34,120.00,6.00,0.00,30.20,M,10.00,M,FEW,SCT,M,M,4300.00,5000.00,M,M,M,M,M,M,M,M,M,51.80,KMEV 210815Z AUTO 12006KT 10SM FEW043 SCT050 11/07 A3020 RMK AO2,M
BAM,2023-05-21 08:15,-116.8743,40.5990,1382.36,62.60,44.60,51.72,350.00,6.00,0.00,30.13,M,10.00,M,CLR,M,M,M,M,M,M,M,M,M,M,M,M,M,M,62.60,KBAM 210815Z AUTO 35006KT 10SM CLR 17/07 A3013 RMK AO1,M
HTH,2023-05-21 08:15,-118.6315,38.5448,1282.89,59.00,50.00,72.01,100.00,6.00,0.00,30.16,M,10.00,M,CLR,M,M,M,M,M,M,M,M,M,M,M,M,M,M,59.00,KHTH 210815Z AUTO 10006KT 10SM CLR 15/10 A3016 RMK A01,M
TMT,2023-05-21 08:15,-117.1971,39.4643,1749.34,55.20,39.70,55.81,190.00,4.00,0.00,30.23,M,10.00,M,SCT,M,M,M,12000.00,M,M,M,M,M,M,M,M,M,M,55.20,KTMT 210815Z AUTO 19004KT 10SM SCT120 13/04 A3023 RMK AO2 T01290043,M
10U,2023-05-21 08:15,-116.1876,41.9532,1637.00,53.60,35.60,50.36,60.00,5.00,0.00,30.20,M,10.00,M,SCT,SCT,BKN,M,2800.00,3700.00,4800.00,M,M,M,M,M,M,M,M,53.60,K10U 210815Z AUTO 06005KT 10SM SCT028 SCT037 BKN048 12/02 A3020 RMK AO2,M
05U,2023-05-21 08:30,-116.0051,39.6042,1811.23,55.40,33.80,43.90,40.00,7.00,0.00,30.23,M,10.00,M,CLR,M,M,M,M,M,M,M,M,M,M,M,M,M,M,55.40,K05U 210830Z AUTO 04007KT 010V110 10SM CLR 13/01 A3023 RMK A01,M
BVU,2023-05-21 08:35,-114.8611,35.9475,671.00,71.60,48.20,43.42,190.00,4.00,0.00,30.02,M,10.00,M,CLR,M,M,M,M,M,M,M,M,M,M,M,M,M,M,71.60,KBVU 210835Z AUTO 19004KT 10SM CLR 22/09 A3002 RMK AO2,M
CXP,2023-05-21 08:35,-119.7326,39.1923,1431.00,57.20,44.60,62.69,0.00,0.00,0.00,30.20,M,10.00,M,FEW,M,M,M,12000.00,M,M,M,M,M,M,M,M,M,M,57.20,KCXP 210835Z AUTO 00000KT 10SM FEW120 14/07 A3020 RMK AO2,M
RTS,2023-05-21 08:35,-119.8764,39.6682,1539.00,57.20,44.60,62.69,290.00,3.00,0.00,30.22,M,10.00,M,FEW,M,M,M,12000.00,M,M,M,M,M,M,M,M,M,M,57.20,KRTS 210835Z AUTO 29003KT 10SM FEW120 14/07 A3022 RMK AO2,M
MEV,2023-05-21 08:35,-119.7500,38.9963,1441.42,50.00,42.80,76.18,170.00,4.00,0.00,30.20,M,10.00,M,SCT,SCT,M,M,4000.00,4600.00,M,M,M,M,M,M,M,M,M,50.00,KMEV 210835Z AUTO 17004KT 10SM SCT040 SCT046 10/06 A3020 RMK AO2,M
BAM,2023-05-21 08:35,-116.8743,40.5990,1382.36,62.60,39.20,42.00,20.00,4.00,0.00,30.13,M,10.00,M,CLR,M,M,M,M,M,M,M,M,M,M,M,M,M,M,62.60,KBAM 210835Z AUTO 02004KT 10SM CLR 17/04 A3013 RMK AO1,M
HTH,2023-05-21 08:35,-118.6315,38.5448,1282.89,60.80,48.20,63.15,180.00,8.00,0.00,30.16,M,10.00,M,CLR,M,M,M,M,M,M,M,M,M,M,M,M,M,M,60.80,KHTH 210835Z AUTO 18008KT 10SM CLR 16/09 A3016 RMK A01,M
TMT,2023-05-21 08:35,-117.1971,39.4643,1749.34,53.40,39.40,58.91,200.00,5.00,0.00,30.24,M,10.00,M,CLR,M,M,M,M,M,M,M,M,M,M,M,M,M,M,53.40,KTMT 210835Z AUTO 20005KT 10SM CLR 12/04 A3024 RMK AO2 T01190041,M
10U,2023-05-21 08:35,-116.1876,41.9532,1637.00,51.80,37.40,57.77,0.00,0.00,0.00,30.20,M,10.00,M,FEW,SCT,BKN,M,2800.00,3900.00,5000.00,M,M,M,M,M,M,M,M,51.80,K10U 210835Z AUTO 00000KT 10SM FEW028 SCT039 BKN050 11/03 A3020 RMK AO2,M
05U,2023-05-21 08:50,-116.0051,39.6042,1811.23,55.40,35.60,47.16,10.00,8.00,0.00,30.23,M,10.00,M,CLR,M,M,M,M,M,M,M,M,M,M,M,M,M,M,55.40,K05U 210850Z AUTO 01008KT 010V100 10SM CLR 13/02 A3023 RMK A01,M
DRA,2023-05-21 08:53,-116.0278,36.6206,1009.00,65.00,50.00,58.47,20.00,7.00,0.00,30.09,1014.30,10.00,M,CLR,M,M,M,M,M,M,M,M,M,M,M,M,M,M,64.90,KDRA 210853Z AUTO 02007KT 10SM CLR 18/10 A3009 RMK AO2 SLP143 T01830100 56007,M
P68,2023-05-21 08:53,-116.0056,39.6014,1993.00,57.00,35.00,43.63,120.00,9.00,0.00,30.21,1015.20,M,M,M,M,M,M,M,M,M,M,M,M,M,M,M,M,M,57.00,KP68 210853Z AUTO 12009KT 14/02 A3021 RMK AO1 SLP152 T01390017 53001,M
ELY,2023-05-21 08:53,-114.8453,39.2950,1909.00,52.00,38.00,58.48,200.00,9.00,0.00,30.25,1015.50,10.00,M,CLR,M,M,M,M,M,M,M,M,M,M,M,M,M,M,52.00,KELY 210853Z AUTO 20009KT 10SM CLR 11/03 A3025 RMK AO2 SLP155 T01110033 50001,M
VGT,2023-05-21 08:53,-115.1933,36.2111,667.00,77.00,51.00,40.36,0.00,0.00,0.00,30.02,1015.60,10.00,M,CLR,M,M,M,M,M,M,M,M,M,M,M,M,M,M,77.00,KVGT 210853Z AUTO 00000KT 10SM CLR 25/11 A3002 RMK AO2 SLP156 T02500106 58001,M
LOL,2023-05-21 08:53,-118.5701,40.0684,1192.43,63.00,42.00,46.34,220.00,3.00,0.00,30.12,1015.90,10.00,M,CLR,M,M,M,M,M,M,M,M,M,M,M,M,M,M,63.00,KLOL 210853Z AUTO 22003KT 10SM CLR 17/06 A3012 RMK AO2 SLP159 T01720056 50004,M
BVU,2023-05-21 08:55,-114.8611,35.9475,671.00,69.80,51.80,52.77,0.00,0.00,0.00,30.02,M,10.00,M,CLR,M,M,M,M,M,M,M,M,M,M,M,M,M,M,69.80,KBVU 210855Z AUTO 00000KT 10SM CLR 21/11 A3002 RMK AO2,M
CXP,2023-05-21 08:55,-119.7326,39.1923,1431.00,57.20,44.60,62.69,0.00,0.00,0.00,30.20,M,10.00,M,FEW,M,M,M,12000.00,M,M,M,M,M,M,M,M,M,M,57.20,KCXP 210855Z AUTO 00000KT 10SM FEW120 14/07 A3020 RMK AO2,M
RNO,2023-05-21 08:55,-119.7711,39.4839,1341.00,66.00,46.00,48.43,260.00,4.00,0.00,30.17,1015.60,10.00,M,FEW,M,M,M,12000.00,M,M,M,M,M,M,M,M,M,M,66.00,KRNO 210855Z 26004KT 10SM FEW120 19/08 A3017 RMK AO2 SLP156 T01890078 50005 $,M
RTS,2023-05-21 08:55,-119.8764,39.6682,1539.00,57.20,44.60,62.69,310.00,7.00,0.00,30.21,M,10.00,M,CLR,M,M,M,M,M,M,M,M,M,M,M,M,M,M,57.20,KRTS 210855Z AUTO 31007KT 10SM CLR 14/07 A3021 RMK AO2,M
MEV,2023-05-21 08:55,-119.7500,38.9963,1441.42,51.80,42.80,71.26,130.00,6.00,0.00,30.19,M,10.00,M,SCT,SCT,SCT,M,3700.00,4500.00,5000.00,M,M,M,M,M,M,M,M,51.80,KMEV 210855Z AUTO 13006KT 10SM SCT037 SCT045 SCT050 11/06 A3019 RMK AO2,M
BAM,2023-05-21 08:55,-116.8743,40.5990,1382.36,59.00,37.40,44.47,330.00,8.00,0.00,30.14,M,10.00,M,CLR,M,M,M,M,M,M,M,M,M,M,M,M,M,M,59.00,KBAM 210855Z AUTO 33008KT 10SM CLR 15/03 A3014 RMK AO1,M
HTH,2023-05-21 08:55,-118.6315,38.5448,1282.89,60.80,50.00,67.54,160.00,5.00,0.00,30.16,M,10.00,M,CLR,M,M,M,M,M,M,M,M,M,M,M,M,M,M,60.80,KHTH 210855Z AUTO 16005KT 10SM CLR 16/10 A3016 RMK A01,M
TMT,2023-05-21 08:55,-117.1971,39.4643,1749.34,52.00,39.70,62.75,210.00,5.00,0.00,30.24,M,10.00,M,CLR,M,M,M,M,M,M,M,M,M,M,M,M,M,M,52.00,KTMT 210855Z AUTO 21005KT 10SM CLR 11/04 A3024 RMK AO2 T01110043,M
10U,2023-05-21 08:55,-116.1876,41.9532,1637.00,50.00,37.40,61.76,110.00,5.00,0.00,30.19,M,10.00,M,FEW,SCT,BKN,M,3100.00,4200.00,4900.00,M,M,M,M,M,M,M,M,50.00,K10U 210855Z AUTO 11005KT 10SM FEW031 SCT042 BKN049 10/03 A3019 RMK AO2,M
LSV,2023-05-21 08:55,-115.0343,36.2362,570.00,73.40,49.00,41.94,20.00,4.00,0.00,29.99,1013.20,10.00,M,SCT,M,M,M,16000.00,M,M,M,M,M,M,M,M,M,M,73.40,KLSV 210855Z AUTO 02004KT 10SM SCT160 23/09 A2999 RMK AO2 SLP132 T02300094 51001 $,M
NFL,2023-05-21 08:56,-118.7010,39.4166,1199.00,69.00,45.00,41.90,20.00,5.00,0.00,30.11,1016.30,10.00,M,CLR,M,M,M,M,M,M,M,M,M,M,M,M,M,M,69.10,KNFL 210856Z AUTO 02005KT 10SM CLR 21/07 A3011 RMK AO2 SLP163 T02060072 55007,M
TPH,2023-05-21 08:56,-117.0904,38.0505,1654.00,M,M,M,M,M,0.00,30.22,M,M,M,M,M,M,M,M,M,M,M,M,M,M,M,M,M,M,M,KTPH 210856Z AUTO A3022 RMK AO2 SLPNO 58006 PWINO $,M
EKO,2023-05-21 08:56,-115.7860,40.8242,1367.00,54.00,40.00,58.76,0.00,0.00,0.00,30.17,1016.80,10.00,M,CLR,M,M,M,M,M,M,M,M,M,M,M,M,M,M,54.00,KEKO 210856Z AUTO 00000KT 10SM CLR 12/04 A3017 RMK AO2 SLP168 T01220044 51004,M
HND,2023-05-21 08:56,-115.1344,35.9729,742.79,72.00,47.00,40.79,170.00,3.00,0.00,30.06,1016.80,10.00,M,FEW,M,M,M,11000.00,M,M,M,M,M,M,M,M,M,M,72.00,KHND 210856Z AUTO 17003KT 10SM FEW110 22/08 A3006 RMK AO2 SLP168 T02220083 56003,M
LAS,2023-05-21 08:56,-115.1634,36.0719,663.00,75.00,49.00,39.75,M,3.00,0.00,30.03,1014.40,10.00,M,SCT,BKN,M,M,15000.00,19000.00,M,M,M,M,M,M,M,M,M,75.00,KLAS 210856Z VRB03KT 10SM SCT150 BKN190 24/09 A3003 RMK AO2 SLP144 T02390094 58000,M
WMC,2023-05-21 08:56,-117.8072,40.9019,1315.00,60.00,40.00,47.15,260.00,3.00,0.00,30.12,1015.10,10.00,M,CLR,M,M,M,M,M,M,M,M,M,M,M,M,M,M,60.10,KWMC 210856Z AUTO 26003KT 10SM CLR 16/04 A3012 RMK AO2 SLP151 T01560044 58001,M
05U,2023-05-21 09:10,-116.0051,39.6042,1811.23,57.20,35.60,44.19,20.00,11.00,0.00,30.23,M,10.00,M,CLR,M,M,M,M,M,M,M,M,M,M,M,M,M,M,57.20,K05U 210910Z AUTO 02011KT 10SM CLR 14/02 A3023 RMK A01,M
BVU,2023-05-21 09:15,-114.8611,35.9475,671.00,69.80,50.00,49.37,340.00,5.00,0.00,30.02,M,10.00,M,CLR,M,M,M,M,M,M,M,M,M,M,M,M,M,M,69.80,KBVU 210915Z AUTO 34005KT 10SM CLR 21/10 A3002 RMK AO2,M
CXP,2023-05-21 09:15,-119.7326,39.1923,1431.00,55.40,44.60,66.91,160.00,3.00,0.00,30.21,M,10.00,M,CLR,M,M,M,M,M,M,M,M,M,M,M,M,M,M,55.40,KCXP 210915Z AUTO 16003KT 10SM CLR 13/07 A3021 RMK AO2,M
RTS,2023-05-21 09:15,-119.8764,39.6682,1539.00,57.20,44.60,62.69,340.00,5.00,0.00,30.21,M,10.00,M,CLR,M,M,M,M,M,M,M,M,M,M,M,M,M,M,57.20,KRTS 210915Z AUTO 34005KT 10SM CLR 14/07 A3021 RMK AO2,M
MEV,2023-05-21 09:15,-119.7500,38.9963,1441.42,50.00,42.80,76.18,110.00,5.00,0.00,30.19,M,10.00,M,FEW,SCT,BKN,M,3500.00,4200.00,4900.00,M,M,M,M,M,M,M,M,50.00,KMEV 210915Z AUTO 11005KT 10SM FEW035 SCT042 BKN049 10/06 A3019 RMK AO2,M
BAM,2023-05-21 09:15,-116.8743,40.5990,1382.36,60.80,37.40,41.71,10.00,5.00,0.00,30.14,M,10.00,M,CLR,M,M,M,M,M,M,M,M,M,M,M,M,M,M,60.80,KBAM 210915Z AUTO 01005KT 10SM CLR 16/03 A3014 RMK AO1,M
HTH,2023-05-21 09:15,-118.6315,38.5448,1282.89,60.80,48.20,63.15,160.00,5.00,0.00,30.16,M,10.00,M,CLR,M,M,M,M,M,M,M,M,M,M,M,M,M,M,60.80,KHTH 210915Z AUTO 16005KT 10SM CLR 16/09 A3016 RMK A01,M
TMT,2023-05-21 09:15,-117.1971,39.4643,1749.34,51.00,38.70,62.39,210.00,5.00,0.00,30.24,M,10.00,M,CLR,M,M,M,M,M,M,M,M,M,M,M,M,M,M,51.10,KTMT 210915Z AUTO 21005KT 10SM CLR 11/04 A3024 RMK AO2 T01060037,M
10U,2023-05-21 09:15,-116.1876,41.9532,1637.00,48.20,37.40,66.05,140.00,7.00,0.00,30.19,M,10.00,M,FEW,SCT,BKN,M,2800.00,3500.00,4700.00,M,M,M,M,M,M,M,M,44.53,K10U 210915Z AUTO 14007KT 10SM FEW028 SCT035 BKN047 09/03 A3019 RMK AO2,M
05U,2023-05-21 09:30,-116.0051,39.6042,1811.23,53.60,32.00,43.61,10.00,7.00,0.00,30.24,M,10.00,M,CLR,M,M,M,M,M,M,M,M,M,M,M,M,M,M,53.60,K05U 210930Z AUTO 01007KT 10SM CLR 12/M00 A3024 RMK A01,M
BVU,2023-05-21 09:35,-114.8611,35.9475,671.00,69.80,51.80,52.77,0.00,0.00,0.00,30.03,M,10.00,M,CLR,M,M,M,M,M,M,M,M,M,M,M,M,M,M,69.80,KBVU 210935Z AUTO 00000KT 10SM CLR 21/11 A3003 RMK AO2,M
CXP,2023-05-21 09:35,-119.7326,39.1923,1431.00,53.60,46.40,76.50,320.00,4.00,0.00,30.20,M,10.00,M,CLR,M,M,M,M,M,M,M,M,M,M,M,M,M,M,53.60,KCXP 210935Z AUTO 32004KT 10SM CLR 12/08 A3020 RMK AO2,M
RTS,2023-05-21 09:35,-119.8764,39.6682,1539.00,55.40,44.60,66.91,340.00,3.00,0.00,30.21,M,10.00,M,CLR,M,M,M,M,M,M,M,M,M,M,M,M,M,M,55.40,KRTS 210935Z AUTO 34003KT 10SM CLR 13/07 A3021 RMK AO2,M
MEV,2023-05-21 09:35,-119.7500,38.9963,1441.42,50.00,42.80,76.18,0.00,0.00,0.00,30.20,M,10.00,M,SCT,SCT,M,M,3900.00,4500.00,M,M,M,M,M,M,M,M,M,50.00,KMEV 210935Z AUTO 00000KT 10SM SCT039 SCT045 10/06 A3020 RMK AO2,M
BAM,2023-05-21 09:35,-116.8743,40.5990,1382.36,60.80,41.00,48.00,350.00,4.00,0.00,30.15,M,10.00,M,CLR,M,M,M,M,M,M,M,M,M,M,M,M,M,M,60.80,KBAM 210935Z AUTO 35004KT 10SM CLR 16/05 A3015 RMK AO1,M
HTH,2023-05-21 09:35,-118.6315,38.5448,1282.89,57.20,48.20,71.83,130.00,6.00,0.00,30.15,M,10.00,M,CLR,M,M,M,M,M,M,M,M,M,M,M,M,M,M,57.20,KHTH 210935Z AUTO 13006KT 10SM CLR 14/09 A3015 RMK A01,M
TMT,2023-05-21 09:35,-117.1971,39.4643,1749.34,51.60,38.70,61.24,210.00,5.00,0.00,30.24,M,10.00,M,CLR,M,M,M,M,M,M,M,M,M,M,M,M,M,M,51.60,KTMT 210935Z AUTO 21005KT 10SM CLR 11/04 A3024 RMK AO2 T01090037,M
10U,2023-05-21 09:35,-116.1876,41.9532,1637.00,51.80,37.40,57.77,0.00,0.00,0.00,30.19,M,10.00,M,SCT,BKN,BKN,M,3800.00,4600.00,5500.00,M,M,M,M,M,M,M,M,51.80,K10U 210935Z AUTO 00000KT 10SM SCT038 BKN046 BKN055 11/03 A3019 RMK AO2,M
05U,2023-05-21 09:50,-116.0051,39.6042,1811.23,51.80,30.20,43.32,10.00,6.00,0.00,30.24,M,10.00,M,CLR,M,M,M,M,M,M,M,M,M,M,M,M,M,M,51.80,K05U 210950Z AUTO 01006KT 10SM CLR 11/M01 A3024 RMK A01,M
HTH,2023-05-21 09:50,-118.6315,38.5448,1282.89,57.20,48.20,71.83,140.00,4.00,0.00,30.15,M,10.00,M,CLR,M,M,M,M,M,M,M,M,M,M,M,M,M,M,57.20,KHTH 210950Z AUTO 14004KT 10SM CLR 14/09 A3015 RMK A01,M
P68,2023-05-21 09:53,-116.0056,39.6014,1993.00,52.00,30.90,44.24,180.00,7.00,0.00,30.21,1015.50,M,M,M,M,M,M,M,M,M,M,M,M,M,M,M,M,M,52.00,KP68 210953Z AUTO 18007KT 11/M01 A3021 RMK AO1 SLP155 T01111006,M
ELY,2023-05-21 09:53,-114.8453,39.2950,1909.00,46.00,37.00,70.64,170.00,5.00,0.00,30.25,1016.00,10.00,M,CLR,M,M,M,M,M,M,M,M,M,M,M,M,M,M,43.02,KELY 210953Z AUTO 17005KT 10SM CLR 08/03 A3025 RMK AO2 SLP160 T00780028,M
VGT,2023-05-21 09:53,-115.1933,36.2111,667.00,76.00,48.00,37.29,360.00,4.00,0.00,30.02,1015.50,10.00,M,CLR,M,M,M,M,M,M,M,M,M,M,M,M,M,M,75.90,KVGT 210953Z AUTO 36004KT 10SM CLR 24/09 A3002 RMK AO2 SLP155 T02440089,M
LOL,2023-05-21 09:53,-118.5701,40.0684,1192.43,65.00,43.00,44.88,310.00,7.00,0.00,30.11,1015.20,10.00,M,CLR,M,M,M,M,M,M,M,M,M,M,M,M,M,M,64.90,KLOL 210953Z AUTO 31007KT 10SM CLR 18/06 A3011 RMK AO2 SLP152 T01830061,M
DRA,2023-05-21 09:53,-116.0278,36.6206,1009.00,62.00,53.00,72.33,70.00,3.00,0.00,30.08,1014.10,10.00,M,CLR,M,M,M,M,M,M,M,M,M,M,M,M,M,M,62.10,KDRA 210953Z AUTO 07003KT 10SM CLR 17/12 A3008 RMK AO2 SLP141 T01670117,M
BVU,2023-05-21 09:55,-114.8611,35.9475,671.00,69.80,51.80,52.77,0.00,0.00,0.00,30.02,M,10.00,M,CLR,M,M,M,M,M,M,M,M,M,M,M,M,M,M,69.80,KBVU 210955Z AUTO 00000KT 10SM CLR 21/11 A3002 RMK AO2,M
CXP,2023-05-21 09:55,-119.7326,39.1923,1431.00,55.40,44.60,66.91,330.00,4.00,0.00,30.20,M,10.00,M,CLR,M,M,M,M,M,M,M,M,M,M,M,M,M,M,55.40,KCXP 210955Z AUTO 33004KT 10SM CLR 13/07 A3020 RMK AO2,M
RNO,2023-05-21 09:55,-119.7711,39.4839,1341.00,64.00,46.00,51.93,270.00,6.00,0.00,30.16,1015.70,10.00,M,FEW,M,M,M,12000.00,M,M,M,M,M,M,M,M,M,M,64.00,KRNO 210955Z 27006KT 10SM FEW120 18/08 A3016 RMK AO2 SLP157 T01780078 $,M
RTS,2023-05-21 09:55,-119.8764,39.6682,1539.00,53.60,44.60,71.45,0.00,0.00,0.00,30.20,M,10.00,M,CLR,M,M,M,M,M,M,M,M,M,M,M,M,M,M,53.60,KRTS 210955Z AUTO 00000KT 10SM CLR 12/07 A3020 RMK AO2,M
MEV,2023-05-21 09:55,-119.7500,38.9963,1441.42,48.20,42.80,81.47,0.00,0.00,0.00,30.19,M,10.00,M,SCT,BKN,BKN,M,3500.00,4200.00,4900.00,M,M,M,M,M,M,M,M,48.20,KMEV 210955Z AUTO 00000KT 10SM SCT035 BKN042 BKN049 09/06 A3019 RMK AO2,M
BAM,2023-05-21 09:55,-116.8743,40.5990,1382.36,55.40,39.20,54.34,0.00,0.00,0.00,30.15,M,10.00,M,CLR,M,M,M,M,M,M,M,M,M,M,M,M,M,M,55.40,KBAM 210955Z AUTO 00000KT 10SM CLR 13/04 A3015 RMK AO1,M
TMT,2023-05-21 09:55,-117.1971,39.4643,1749.34,50.20,38.30,63.50,20.00,3.00,0.00,30.24,M,10.00,M,CLR,M,M,M,M,M,M,M,M,M,M,M,M,M,M,50.20,KTMT 210955Z AUTO 02003KT 10SM CLR 10/04 A3024 RMK AO2 T01010035,M
10U,2023-05-21 09:55,-116.1876,41.9532,1637.00,50.00,37.40,61.76,0.00,0.00,0.00,30.19,M,10.00,M,FEW,BKN,BKN,M,3500.00,4500.00,5500.00,M,M,M,M,M,M,M,M,50.00,K10U 210955Z AUTO 00000KT 10SM FEW035 BKN045 BKN055 10/03 A3019 RMK AO2,M
LSV,2023-05-21 09:55,-115.0343,36.2362,570.00,70.70,49.00,45.95,20.00,7.00,0.00,29.98,1012.80,10.00,M,CLR,M,M,M,M,M,M,M,M,M,M,M,M,M,M,70.70,KLSV 210955Z AUTO 02007KT 10SM CLR 22/09 A2998 RMK AO2 SLP128 T02150094 $,M
EKO,2023-05-21 09:56,-115.7860,40.8242,1367.00,51.00,37.00,58.36,80.00,3.00,0.00,30.17,1016.80,10.00,M,CLR,M,M,M,M,M,M,M,M,M,M,M,M,M,M,51.10,KEKO 210956Z AUTO 08003KT 10SM CLR 11/03 A3017 RMK AO2 SLP168 T01060028,M
NFL,2023-05-21 09:56,-118.7010,39.4166,1199.00,67.00,46.00,46.94,0.00,0.00,0.00,30.10,1016.00,10.00,M,CLR,M,M,M,M,M,M,M,M,M,M,M,M,M,M,66.90,KNFL 210956Z AUTO 00000KT 10SM CLR 19/08 A3010 RMK AO2 SLP160 T01940078,M
HND,2023-05-21 09:56,-115.1344,35.9729,742.79,72.00,46.00,39.42,190.00,6.00,0.00,30.06,1016.70,10.00,M,CLR,M,M,M,M,M,M,M,M,M,M,M,M,M,M,72.00,KHND 210956Z AUTO 19006KT 10SM CLR 22/08 A3006 RMK AO2 SLP167 T02220078,M
TPH,2023-05-21 09:56,-117.0904,38.0505,1654.00,M,M,M,M,M,0.00,30.21,M,M,M,M,M,M,M,M,M,M,M,M,M,M,M,M,M,M,M,KTPH 210956Z AUTO A3021 RMK AO2 SLPNO PWINO $,M
WMC,2023-05-21 09:56,-117.8072,40.9019,1315.00,59.00,40.00,49.04,290.00,10.00,0.00,30.12,1014.80,10.00,M,CLR,M,M,M,M,M,M,M,M,M,M,M,M,M,M,59.00,KWMC 210956Z AUTO 29010KT 10SM CLR 15/04 A3012 RMK AO2 SLP148 T01500044,M
LAS,2023-05-21 09:56,-115.1634,36.0719,663.00,75.00,47.00,36.87,200.00,4.00,0.00,30.02,1014.20,10.00,M,SCT,M,M,M,15000.00,M,M,M,M,M,M,M,M,M,M,75.00,KLAS 210956Z 20004KT 10SM SCT150 24/08 A3002 RMK AO2 SLP142 T02390083,M
05U,2023-05-21 10:10,-116.0051,39.6042,1811.23,50.00,32.00,49.81,360.00,7.00,0.00,30.24,M,10.00,M,CLR,M,M,M,M,M,M,M,M,M,M,M,M,M,M,50.00,K05U 211010Z AUTO 36007KT 10SM CLR 10/M00 A3024 RMK A01,M
BVU,2023-05-21 10:15,-114.8611,35.9475,671.00,69.80,53.60,56.38,0.00,0.00,0.00,30.02,M,10.00,M,CLR,M,M,M,M,M,M,M,M,M,M,M,M,M,M,69.80,KBVU 211015Z AUTO 00000KT 10SM CLR 21/12 A3002 RMK AO2,M
CXP,2023-05-21 10:15,-119.7326,39.1923,1431.00,57.20,44.60,62.69,0.00,0.00,0.00,30.19,M,10.00,M,CLR,M,M,M,M,M,M,M,M,M,M,M,M,M,M,57.20,KCXP 211015Z AUTO 00000KT 10SM CLR 14/07 A3019 RMK AO2,M
RTS,2023-05-21 10:15,-119.8764,39.6682,1539.00,53.60,44.60,71.45,0.00,0.00,0.00,30.20,M,10.00,M,CLR,M,M,M,M,M,M,M,M,M,M,M,M,M,M,53.60,KRTS 211015Z AUTO 00000KT 10SM CLR 12/07 A3020 RMK AO2,M
MEV,2023-05-21 10:15,-119.7500,38.9963,1441.42,48.20,42.80,81.47,120.00,5.00,0.00,30.18,M,10.00,M,FEW,SCT,BKN,M,2600.00,3200.00,4600.00,M,M,M,M,M,M,M,M,45.63,KMEV 211015Z AUTO 12005KT 10SM FEW026 SCT032 BKN046 09/06 A3018 RMK AO2,M
BAM,2023-05-21 10:15,-116.8743,40.5990,1382.36,51.80,35.60,53.81,180.00,5.00,0.00,30.15,M,10.00,M,CLR,M,M,M,M,M,M,M,M,M,M,M,M,M,M,51.80,KBAM 211015Z AUTO 18005KT 10SM CLR 11/02 A3015 RMK AO1,M
HTH,2023-05-21 10:15,-118.6315,38.5448,1282.89,57.20,48.20,71.83,210.00,3.00,0.00,30.14,M,10.00,M,CLR,M,M,M,M,M,M,M,M,M,M,M,M,M,M,57.20,KHTH 211015Z AUTO 21003KT 10SM CLR 14/09 A3014 RMK A01,M
TMT,2023-05-21 10:15,-117.1971,39.4643,1749.34,48.00,39.00,70.85,30.00,5.00,0.00,30.23,M,10.00,M,CLR,M,M,M,M,M,M,M,M,M,M,M,M,M,M,45.40,KTMT 211015Z AUTO 03005KT 10SM CLR 09/04 A3023 RMK AO2 T00890039,M
10U,2023-05-21 10:15,-116.1876,41.9532,1637.00,50.00,37.40,61.76,360.00,4.00,0.00,30.19,M,10.00,M,FEW,FEW,BKN,M,3700.00,4200.00,4800.00,M,M,M,M,M,M,M,M,50.00,K10U 211015Z AUTO 36004KT 10SM FEW037 FEW042 BKN048 10/03 A3019 RMK AO2,M
05U,2023-05-21 10:30,-116.0051,39.6042,1811.23,50.00,32.00,49.81,10.00,4.00,0.00,30.24,M,10.00,M,CLR,M,M,M,M,M,M,M,M,M,M,M,M,M,M,50.00,K05U 211030Z AUTO 01004KT 10SM CLR 10/M00 A3024 RMK A01,M
BVU,2023-05-21 10:35,-114.8611,35.9475,671.00,69.80,53.60,56.38,0.00,0.00,0.00,30.02,M,10.00,M,CLR,M,M,M,M,M,M,M,M,M,M,M,M,M,M,69.80,KBVU 211035Z AUTO 00000KT 10SM CLR 21/12 A3002 RMK AO2,M
CXP,2023-05-21 10:35,-119.7326,39.1923,1431.00,55.40,44.60,66.91,0.00,0.00,0.00,30.19,M,10.00,M,CLR,M,M,M,M,M,M,M,M,M,M,M,M,M,M,55.40,KCXP 211035Z AUTO 00000KT 10SM CLR 13/07 A3019 RMK AO2,M
RTS,2023-05-21 10:35,-119.8764,39.6682,1539.00,50.00,44.60,81.61,340.00,4.00,0.00,30.19,M,10.00,M,CLR,M,M,M,M,M,M,M,M,M,M,M,M,M,M,50.00,KRTS 211035Z AUTO 34004KT 10SM CLR 10/07 A3019 RMK AO2,M
MEV,2023-05-21 10:35,-119.7500,38.9963,1441.42,48.20,42.80,81.47,110.00,5.00,0.00,30.18,M,10.00,M,FEW,BKN,BKN,M,2900.00,3700.00,4600.00,M,M,M,M,M,M,M,M,45.63,KMEV 211035Z AUTO 11005KT 10SM FEW029 BKN037 BKN046 09/06 A3018 RMK AO2,M
BAM,2023-05-21 10:35,-116.8743,40.5990,1382.36,51.80,35.60,53.81,150.00,6.00,0.00,30.15,M,10.00,M,CLR,M,M,M,M,M,M,M,M,M,M,M,M,M,M,51.80,KBAM 211035Z AUTO 15006KT 10SM CLR 11/02 A3015 RMK AO1,M
HTH,2023-05-21 10:35,-118.6315,38.5448,1282.89,59.00,48.20,67.33,200.00,4.00,0.00,30.14,M,10.00,M,CLR,M,M,M,M,M,M,M,M,M,M,M,M,M,M,59.00,KHTH 211035Z AUTO 20004KT 10SM CLR 15/09 A3014 RMK A01,M
TMT,2023-05-21 10:35,-117.1971,39.4643,1749.34,47.70,39.40,72.78,260.00,7.00,0.00,30.22,M,10.00,M,CLR,M,M,M,M,M,M,M,M,M,M,M,M,M,M,43.92,KTMT 211035Z AUTO 26007KT 10SM CLR 09/04 A3022 RMK AO2 T00870041,M
10U,2023-05-21 10:35,-116.1876,41.9532,1637.00,50.00,37.40,61.76,360.00,5.00,0.00,30.19,M,10.00,M,FEW,SCT,BKN,M,3600.00,5000.00,6000.00,M,M,M,M,M,M,M,M,50.00,K10U 211035Z AUTO 36005KT 10SM FEW036 SCT050 BKN060 10/03 A3019 RMK AO2,M
05U,2023-05-21 10:50,-116.0051,39.6042,1811.23,48.20,32.00,53.27,10.00,6.00,0.00,30.24,M,10.00,M,CLR,M,M,M,M,M,M,M,M,M,M,M,M,M,M,45.04,K05U 211050Z AUTO 01006KT 10SM CLR 09/00 A3024 RMK A01,M
P68,2023-05-21 10:53,-116.0056,39.6014,1993.00,49.00,32.00,51.89,180.00,7.00,0.00,30.21,1015.80,M,M,M,M,M,M,M,M,M,M,M,M,M,M,M,M,M,45.38,KP68 211053Z AUTO 18007KT 09/00 A3021 RMK AO1 SLP158 T00940000,M
ELY,2023-05-21 10:53,-114.8453,39.2950,1909.00,44.00,37.00,75.93,160.00,5.00,0.00,30.25,1016.20,10.00,M,CLR,M,M,M,M,M,M,M,M,M,M,M,M,M,M,40.77,KELY 211053Z AUTO 16005KT 10SM CLR 07/03 A3025 RMK AO2 SLP162 T00670028,M
LOL,2023-05-21 10:53,-118.5701,40.0684,1192.43,62.00,43.00,49.52,50.00,6.00,0.00,30.10,1015.30,10.00,M,CLR,M,M,M,M,M,M,M,M,M,M,M,M,M,M,62.10,KLOL 211053Z AUTO 05006KT 10SM CLR 17/06 A3010 RMK AO2 SLP153 T01670061,M
DRA,2023-05-21 10:53,-116.0278,36.6206,1009.00,60.00,53.00,77.65,120.00,3.00,0.00,30.08,1014.20,10.00,M,CLR,M,M,M,M,M,M,M,M,M,M,M,M,M,M,60.10,KDRA 211053Z AUTO 12003KT 10SM CLR 16/12 A3008 RMK AO2 SLP142 T01560117,M
VGT,2023-05-21 10:53,-115.1933,36.2111,667.00,74.00,47.00,38.26,350.00,3.00,0.00,30.01,1015.50,10.00,M,CLR,M,M,M,M,M,M,M,M,M,M,M,M,M,M,73.90,KVGT 211053Z AUTO 35003KT 10SM CLR 23/08 A3001 RMK AO2 SLP155 T02330083 $,M
BVU,2023-05-21 10:55,-114.8611,35.9475,671.00,68.00,53.60,59.97,0.00,0.00,0.00,30.02,M,10.00,M,CLR,M,M,M,M,M,M,M,M,M,M,M,M,M,M,68.00,KBVU 211055Z AUTO 00000KT 10SM CLR 20/12 A3002 RMK AO2,M
CXP,2023-05-21 10:55,-119.7326,39.1923,1431.00,53.60,44.60,71.45,270.00,3.00,0.00,30.19,M,10.00,M,CLR,M,M,M,M,M,M,M,M,M,M,M,M,M,M,53.60,KCXP 211055Z AUTO 27003KT 10SM CLR 12/07 A3019 RMK AO2,M
RTS,2023-05-21 10:55,-119.8764,39.6682,1539.00,53.60,42.80,66.70,340.00,5.00,0.00,30.19,M,10.00,M,CLR,M,M,M,M,M,M,M,M,M,M,M,M,M,M,53.60,KRTS 211055Z AUTO 34005KT 10SM CLR 12/06 A3019 RMK AO2,M
MEV,2023-05-21 10:55,-119.7500,38.9963,1441.42,46.40,41.00,81.34,130.00,7.00,0.00,30.18,M,10.00,M,FEW,SCT,BKN,M,2900.00,3300.00,4600.00,M,M,M,M,M,M,M,M,42.33,KMEV 211055Z AUTO 13007KT 10SM FEW029 SCT033 BKN046 08/05 A3018 RMK AO2,M
BAM,2023-05-21 10:55,-116.8743,40.5990,1382.36,50.00,35.60,57.52,140.00,7.00,0.00,30.14,M,10.00,M,CLR,M,M,M,M,M,M,M,M,M,M,M,M,M,M,50.00,KBAM 211055Z AUTO 14007KT 10SM CLR 10/02 A3014 RMK AO1,M
HTH,2023-05-21 10:55,-118.6315,38.5448,1282.89,60.80,48.20,63.15,240.00,4.00,0.00,30.14,M,10.00,M,CLR,M,M,M,M,M,M,M,M,M,M,M,M,M,M,60.80,KHTH 211055Z AUTO 24004KT 10SM CLR 16/09 A3014 RMK A01,M
TMT,2023-05-21 10:55,-117.1971,39.4643,1749.34,45.70,38.50,75.78,270.00,4.00,0.00,30.22,M,10.00,M,CLR,M,M,M,M,M,M,M,M,M,M,M,M,M,M,43.42,KTMT 211055Z AUTO 27004KT 10SM CLR 08/04 A3022 RMK AO2 T00760036,M
10U,2023-05-21 10:55,-116.1876,41.9532,1637.00,44.60,37.40,75.68,60.00,4.00,0.00,30.19,M,10.00,M,FEW,SCT,BKN,M,3800.00,5000.00,5500.00,M,M,M,M,M,M,M,M,42.13,K10U 211055Z AUTO 06004KT 10SM FEW038 SCT050 BKN055 07/03 A3019 RMK AO2,M
LSV,2023-05-21 10:55,-115.0343,36.2362,570.00,71.00,52.50,51.81,20.00,6.00,0.00,29.98,1012.80,10.00,M,OVC,M,M,M,13000.00,M,M,M,M,M,M,M,M,M,M,71.10,KLSV 211055Z AUTO 02006KT 10SM OVC130 22/11 A2998 RMK AO2 SLP128 T02170114 $,M
RNO,2023-05-21 10:55,-119.7711,39.4839,1341.00,62.00,46.00,55.51,270.00,6.00,0.00,30.15,1015.90,10.00,M,FEW,M,M,M,12000.00,M,M,M,M,M,M,M,M,M,M,62.10,KRNO 211055Z 27006KT 10SM FEW120 17/08 A3015 RMK AO2 SLP159 T01670078 $,M
WMC,2023-05-21 10:56,-117.8072,40.9019,1315.00,54.00,39.00,56.74,0.00,0.00,0.00,30.13,1015.80,10.00,M,CLR,M,M,M,M,M,M,M,M,M,M,M,M,M,M,54.00,KWMC 211056Z AUTO 00000KT 10SM CLR 12/04 A3013 RMK AO2 SLP158 T01220039,M
NFL,2023-05-21 10:56,-118.7010,39.4166,1199.00,64.00,46.00,51.93,150.00,5.00,0.00,30.09,1015.80,10.00,M,CLR,M,M,M,M,M,M,M,M,M,M,M,M,M,M,64.00,KNFL 211056Z AUTO 15005KT 10SM CLR 18/08 A3009 RMK AO2 SLP158 T01780078,M
HND,2023-05-21 10:56,-115.1344,35.9729,742.79,71.00,46.00,40.65,210.00,6.00,0.00,30.05,1016.50,10.00,M,CLR,M,M,M,M,M,M,M,M,M,M,M,M,M,M,71.10,KHND 211056Z AUTO 21006KT 10SM CLR 22/08 A3005 RMK AO2 SLP165 T02170078,M
TPH,2023-05-21 10:56,-117.0904,38.0505,1654.00,M,M,M,M,M,0.00,30.21,M,M,M,M,M,M,M,M,M,M,M,M,M,M,M,M,M,M,M,KTPH 211056Z AUTO A3021 RMK AO2 SLPNO PWINO $,M
LAS,2023-05-21 10:56,-115.1634,36.0719,663.00,75.00,50.00,41.41,280.00,5.00,0.00,30.02,1014.00,10.00,M,FEW,M,M,M,15000.00,M,M,M,M,M,M,M,M,M,M,75.00,KLAS 211056Z 28005KT 10SM FEW150 24/10 A3002 RMK AO2 SLP140 T02390100,M
EKO,2023-05-21 10:56,-115.7860,40.8242,1367.00,49.00,38.00,65.62,0.00,0.00,0.00,30.17,1017.00,10.00,M,CLR,M,M,M,M,M,M,M,M,M,M,M,M,M,M,48.90,KEKO 211056Z AUTO 00000KT 10SM CLR 09/03 A3017 RMK AO2 SLP170 T00940033,M
05U,2023-05-21 11:10,-116.0051,39.6042,1811.23,50.00,32.00,49.81,10.00,6.00,0.00,30.24,M,10.00,M,CLR,M,M,M,M,M,M,M,M,M,M,M,M,M,M,50.00,K05U 211110Z AUTO 01006KT 10SM CLR 10/00 A3024 RMK A01,M
BVU,2023-05-21 11:15,-114.8611,35.9475,671.00,69.80,51.80,52.77,0.00,0.00,0.00,30.02,M,10.00,M,CLR,M,M,M,M,M,M,M,M,M,M,M,M,M,M,69.80,KBVU 211115Z AUTO 00000KT 10SM CLR 21/11 A3002 RMK AO2,M
CXP,2023-05-21 11:15,-119.7326,39.1923,1431.00,55.40,42.80,62.46,320.00,4.00,0.00,30.19,M,10.00,M,CLR,M,M,M,M,M,M,M,M,M,M,M,M,M,M,55.40,KCXP 211115Z AUTO 32004KT 10SM CLR 13/06 A3019 RMK AO2,M
RTS,2023-05-21 11:15,-119.8764,39.6682,1539.00,51.80,42.80,71.26,300.00,5.00,0.00,30.19,M,10.00,M,CLR,M,M,M,M,M,M,M,M,M,M,M,M,M,M,51.80,KRTS 211115Z AUTO 30005KT 10SM CLR 11/06 A3019 RMK AO2,M
MEV,2023-05-21 11:15,-119.7500,38.9963,1441.42,46.40,42.80,87.19,100.00,6.00,0.00,30.18,M,10.00,M,FEW,SCT,SCT,M,3300.00,4700.00,5500.00,M,M,M,M,M,M,M,M,42.87,KMEV 211115Z AUTO 10006KT 10SM FEW033 SCT047 SCT055 08/06 A3018 RMK AO2,M
BAM,2023-05-21 11:15,-116.8743,40.5990,1382.36,51.80,35.60,53.81,140.00,6.00,0.00,30.13,M,10.00,M,CLR,M,M,M,M,M,M,M,M,M,M,M,M,M,M,51.80,KBAM 211115Z AUTO 14006KT 10SM CLR 11/02 A3013 RMK AO1,M
HTH,2023-05-21 11:15,-118.6315,38.5448,1282.89,59.00,50.00,72.01,0.00,0.00,0.00,30.14,M,10.00,M,CLR,M,M,M,M,M,M,M,M,M,M,M,M,M,M,59.00,KHTH 211115Z AUTO 00000KT 10SM CLR 15/10 A3014 RMK A01,M
TMT,2023-05-21 11:15,-117.1971,39.4643,1749.34,46.00,37.60,72.60,150.00,4.00,0.00,30.23,M,10.00,M,CLR,M,M,M,M,M,M,M,M,M,M,M,M,M,M,43.65,KTMT 211115Z AUTO 15004KT 10SM CLR 08/03 A3023 RMK AO2 T00770031,M
10U,2023-05-21 11:15,-116.1876,41.9532,1637.00,44.60,37.40,75.68,0.00,0.00,0.00,30.19,M,10.00,M,FEW,SCT,BKN,M,2700.00,4800.00,5500.00,M,M,M,M,M,M,M,M,44.60,K10U 211115Z AUTO 00000KT 10SM FEW027 SCT048 BKN055 07/03 A3019 RMK AO2,M
05U,2023-05-21 11:30,-116.0051,39.6042,1811.23,44.60,33.80,65.61,10.00,7.00,0.00,30.24,M,10.00,M,CLR,M,M,M,M,M,M,M,M,M,M,M,M,M,M,40.14,K05U 211130Z AUTO 01007KT 10SM CLR 07/01 A3024 RMK A01,M
BVU,2023-05-21 11:35,-114.8611,35.9475,671.00,68.00,51.80,56.13,0.00,0.00,0.00,30.02,M,10.00,M,CLR,M,M,M,M,M,M,M,M,M,M,M,M,M,M,68.00,KBVU 211135Z AUTO 00000KT 10SM CLR 20/11 A3002 RMK AO2,M
CXP,2023-05-21 11:35,-119.7326,39.1923,1431.00,55.40,44.60,66.91,270.00,3.00,0.00,30.19,M,10.00,M,CLR,M,M,M,M,M,M,M,M,M,M,M,M,M,M,55.40,KCXP 211135Z AUTO 27003KT 10SM CLR 13/07 A3019 RMK AO2,M
RTS,2023-05-21 11:35,-119.8764,39.6682,1539.00,50.00,42.80,76.18,350.00,5.00,0.00,30.19,M,10.00,M,CLR,M,M,M,M,M,M,M,M,M,M,M,M,M,M,50.00,KRTS 211135Z AUTO 35005KT 10SM CLR 10/06 A3019 RMK AO2,M
MEV,2023-05-21 11:35,-119.7500,38.9963,1441.42,46.40,41.00,81.34,0.00,0.00,0.00,30.18,M,10.00,M,FEW,SCT,BKN,M,3300.00,3900.00,4800.00,M,M,M,M,M,M,M,M,46.40,KMEV 211135Z AUTO 00000KT 10SM FEW033 SCT039 BKN048 08/05 A3018 RMK AO2,M
BAM,2023-05-21 11:35,-116.8743,40.5990,1382.36,50.00,35.60,57.52,180.00,3.00,0.00,30.14,M,10.00,M,CLR,M,M,M,M,M,M,M,M,M,M,M,M,M,M,50.00,KBAM 211135Z AUTO 18003KT 10SM CLR 10/02 A3014 RMK AO1,M
HTH,2023-05-21 11:35,-118.6315,38.5448,1282.89,59.00,48.20,67.33,140.00,4.00,0.00,30.13,M,10.00,M,CLR,M,M,M,M,M,M,M,M,M,M,M,M,M,M,59.00,KHTH 211135Z AUTO 14004KT 10SM CLR 15/09 A3013 RMK A01,M
TMT,2023-05-21 11:35,-117.1971,39.4643,1749.34,44.80,36.70,73.06,140.00,4.00,0.00,30.22,M,10.00,M,CLR,M,M,M,M,M,M,M,M,M,M,M,M,M,M,42.37,KTMT 211135Z AUTO 14004KT 10SM CLR 07/03 A3022 RMK AO2 T00710026,M
10U,2023-05-21 11:35,-116.1876,41.9532,1637.00,46.40,39.20,75.84,330.00,3.00,0.00,30.19,M,10.00,M,FEW,SCT,BKN,M,2800.00,3600.00,5500.00,M,M,M,M,M,M,M,M,45.15,K10U 211135Z AUTO 33003KT 10SM FEW028 SCT036 BKN055 08/04 A3019 RMK AO2,M
05U,2023-05-21 11:50,-116.0051,39.6042,1811.23,44.60,35.60,70.48,10.00,7.00,0.00,30.23,M,10.00,M,CLR,M,M,M,M,M,M,M,M,M,M,M,M,M,M,40.14,K05U 211150Z AUTO 01007KT 10SM CLR 07/02 A3023 RMK A01,M
P68,2023-05-21 11:53,-116.0056,39.6014,1993.00,47.00,36.00,65.63,210.00,7.00,0.00,30.21,1016.10,M,M,M,M,M,M,M,M,M,M,M,M,M,M,M,M,M,42.94,KP68 211153Z AUTO 21007KT 08/02 A3021 RMK AO1 SLP161 T00830022 10144 20067 50001,M
DRA,2023-05-21 11:53,-116.0278,36.6206,1009.00,60.00,52.00,74.57,30.00,5.00,0.00,30.07,1014.90,10.00,M,CLR,M,M,M,M,M,M,M,M,M,M,M,M,M,M,60.10,KDRA 211153Z AUTO 03005KT 10SM CLR 16/11 A3007 RMK AO2 SLP149 70011 T01560111 10217 20150 56004,M
ELY,2023-05-21 11:53,-114.8453,39.2950,1909.00,42.00,36.00,78.80,180.00,5.00,0.00,30.25,1016.50,10.00,M,CLR,M,M,M,M,M,M,M,M,M,M,M,M,M,M,38.39,KELY 211153Z AUTO 18005KT 10SM CLR 06/02 A3025 RMK AO2 SLP165 T00560022 10122 20056 55000,M
VGT,2023-05-21 11:53,-115.1933,36.2111,667.00,73.00,50.00,44.29,0.00,0.00,0.00,30.02,1015.70,10.00,M,CLR,M,M,M,M,M,M,M,M,M,M,M,M,M,M,73.00,KVGT 211153Z AUTO 00000KT 10SM CLR 23/10 A3002 RMK AO2 SLP157 T02280100 10267 20228 55001 $,M
LOL,2023-05-21 11:53,-118.5701,40.0684,1192.43,60.00,42.00,51.35,80.00,3.00,0.00,30.09,1015.30,9.00,M,CLR,M,M,M,M,M,M,M,M,M,M,M,M,M,M,60.10,KLOL 211153Z AUTO 08003KT 9SM CLR 16/06 A3009 RMK AO2 SLP153 T01560056 10228 20150 56008,M
BVU,2023-05-21 11:55,-114.8611,35.9475,671.00,68.00,51.80,56.13,0.00,0.00,0.00,30.01,M,10.00,M,CLR,M,M,M,M,M,M,M,M,M,M,M,M,M,M,68.00,KBVU 211155Z AUTO 00000KT 10SM CLR 20/11 A3001 RMK AO2,M
CXP,2023-05-21 11:55,-119.7326,39.1923,1431.00,53.60,42.80,66.70,290.00,3.00,0.00,30.19,M,10.00,M,CLR,M,M,M,M,M,M,M,M,M,M,M,M,M,M,53.60,KCXP 211155Z AUTO 29003KT 10SM CLR 12/06 A3019 RMK AO2,M
RNO,2023-05-21 11:55,-119.7711,39.4839,1341.00,61.00,45.00,55.57,260.00,6.00,0.00,30.14,1015.80,10.00,M,FEW,FEW,M,M,10000.00,20000.00,M,M,M,M,M,M,M,M,M,61.00,KRNO 211155Z 26006KT 10SM FEW100 FEW200 16/07 A3014 RMK AO2 SLP158 T01610072 10222 20161 58009 $,M
RTS,2023-05-21 11:55,-119.8764,39.6682,1539.00,48.20,42.80,81.47,320.00,7.00,0.00,30.18,M,10.00,M,CLR,M,M,M,M,M,M,M,M,M,M,M,M,M,M,44.53,KRTS 211155Z AUTO 32007KT 10SM CLR 09/06 A3018 RMK AO2,M
MEV,2023-05-21 11:55,-119.7500,38.9963,1441.42,46.40,41.00,81.34,0.00,0.00,0.00,30.18,M,10.00,M,FEW,FEW,BKN,M,3300.00,3900.00,4700.00,M,M,M,M,M,M,M,M,46.40,KMEV 211155Z AUTO 00000KT 10SM FEW033 FEW039 BKN047 08/05 A3018 RMK AO2,M
BAM,2023-05-21 11:55,-116.8743,40.5990,1382.36,50.00,35.60,57.52,180.00,4.00,0.00,30.14,M,10.00,M,CLR,M,M,M,M,M,M,M,M,M,M,M,M,M,M,50.00,KBAM 211155Z AUTO 18004KT 10SM CLR 10/02 A3014 RMK AO1,M
HTH,2023-05-21 11:55,-118.6315,38.5448,1282.89,60.80,46.40,59.01,190.00,3.00,0.00,30.13,M,10.00,M,CLR,M,M,M,M,M,M,M,M,M,M,M,M,M,M,60.80,KHTH 211155Z AUTO 19003KT 10SM CLR 16/08 A3013 RMK A01,M
10U,2023-05-21 11:55,-116.1876,41.9532,1637.00,46.40,39.20,75.84,140.00,4.00,0.00,30.18,M,10.00,M,FEW,FEW,SCT,M,2800.00,3500.00,5500.00,M,M,M,M,M,M,M,M,44.24,K10U 211155Z AUTO 14004KT 10SM FEW028 FEW035 SCT055 08/04 A3018 RMK AO2,M
LSV,2023-05-21 11:55,-115.0343,36.2362,570.00,70.50,49.80,47.85,350.00,4.00,0.00,29.99,1013.40,10.00,M,CLR,M,M,M,M,M,M,M,M,M,M,M,M,M,M,70.50,KLSV 211155Z AUTO 35004KT 10SM CLR 21/10 A2999 RMK AO2 SLP134 T02140099 10249 20214 55000 $,M
TMT,2023-05-21 11:55,-117.1971,39.4643,1749.34,43.50,36.00,74.98,0.00,0.00,0.00,30.22,M,10.00,M,CLR,M,M,M,M,M,M,M,M,M,M,M,M,M,M,43.50,KTMT 211155Z AUTO 00000KT 10SM CLR 06/02 A3022 RMK AO2 T00640023 10187 20061,M
NFL,2023-05-21 11:56,-118.7010,39.4166,1199.00,65.00,48.00,54.26,250.00,5.00,0.00,30.09,1015.60,10.00,M,CLR,M,M,M,M,M,M,M,M,M,M,M,M,M,M,64.90,KNFL 211156Z AUTO 25005KT 10SM CLR 18/09 A3009 RMK AO2 SLP156 T01830089 10250 20178 56007,M
HND,2023-05-21 11:56,-115.1344,35.9729,742.79,68.00,46.00,45.19,150.00,4.00,0.00,30.05,1016.90,10.00,M,CLR,M,M,M,M,M,M,M,M,M,M,M,M,M,M,68.00,KHND 211156Z AUTO 15004KT 10SM CLR 20/08 A3005 RMK AO2 SLP169 T02000078 10239 20200 55001,M
TPH,2023-05-21 11:56,-117.0904,38.0505,1654.00,M,M,M,M,M,0.00,30.21,M,M,M,M,M,M,M,M,M,M,M,M,M,M,M,M,M,M,M,KTPH 211156Z AUTO A3021 RMK AO2 SLPNO 56003 PWINO $,M
LAS,2023-05-21 11:56,-115.1634,36.0719,663.00,73.00,52.00,47.69,0.00,0.00,0.00,30.02,1014.20,10.00,M,FEW,M,M,M,15000.00,M,M,M,M,M,M,M,M,M,M,73.00,KLAS 211156Z 00000KT 10SM FEW150 23/11 A3002 RMK AO2 SLP142 T02280111 10272 20228 55001,M
WMC,2023-05-21 11:56,-117.8072,40.9019,1315.00,54.00,40.00,58.76,80.00,4.00,0.00,30.13,1015.70,10.00,M,CLR,M,M,M,M,M,M,M,M,M,M,M,M,M,M,54.00,KWMC 211156Z AUTO 08004KT 10SM CLR 12/04 A3013 RMK AO2 SLP157 T01220044 10217 20117 50003,M
EKO,2023-05-21 11:56,-115.7860,40.8242,1367.00,47.00,38.00,70.73,0.00,0.00,0.00,30.17,1017.30,10.00,M,CLR,M,M,M,M,M,M,M,M,M,M,M,M,M,M,46.90,KEKO 211156Z AUTO 00000KT 10SM CLR 08/03 A3017 RMK AO2 SLP173 T00830033 10156 20072 53000,M
INS,2023-05-21 11:57,-115.6733,36.5872,955.00,M,M,M,M,M,0.00,M,M,M,M,M,M,M,M,M,M,M,M,M,M,M,M,M,M,M,M,KINS 211157Z AUTO M M M M M M RMK AO2 SLPNO 7//// 10237 20233 RVRNO $,M
05U,2023-05-21 12:10,-116.0051,39.6042,1811.23,44.60,35.60,70.48,360.00,4.00,0.00,30.23,M,10.00,M,CLR,M,M,M,M,M,M,M,M,M,M,M,M,M,M,42.13,K05U 211210Z AUTO 36004KT 10SM CLR 07/02 A3023 RMK A01,M
BVU,2023-05-21 12:15,-114.8611,35.9475,671.00,68.00,48.20,49.10,0.00,0.00,0.00,30.02,M,10.00,M,CLR,M,M,M,M,M,M,M,M,M,M,M,M,M,M,68.00,KBVU 211215Z AUTO 00000KT 10SM CLR 20/09 A3002 RMK AO2,M
CXP,2023-05-21 12:15,-119.7326,39.1923,1431.00,53.60,42.80,66.70,300.00,3.00,0.00,30.18,M,10.00,M,CLR,M,M,M,M,M,M,M,M,M,M,M,M,M,M,53.60,KCXP 211215Z AUTO 30003KT 10SM CLR 12/06 A3018 RMK AO2,M
RTS,2023-05-21 12:15,-119.8764,39.6682,1539.00,50.00,42.80,76.18,20.00,5.00,0.00,30.17,M,10.00,M,CLR,M,M,M,M,M,M,M,M,M,M,M,M,M,M,50.00,KRTS 211215Z AUTO 02005KT 10SM CLR 10/06 A3017 RMK AO2,M
MEV,2023-05-21 12:15,-119.7500,38.9963,1441.42,44.60,41.00,87.09,110.00,5.00,0.00,30.17,M,10.00,M,FEW,FEW,M,M,4500.00,5000.00,M,M,M,M,M,M,M,M,M,41.36,KMEV 211215Z AUTO 11005KT 10SM FEW045 FEW050 07/05 A3017 RMK AO2,M
BAM,2023-05-21 12:15,-116.8743,40.5990,1382.36,51.80,35.60,53.81,170.00,3.00,0.00,30.13,M,10.00,M,CLR,M,M,M,M,M,M,M,M,M,M,M,M,M,M,51.80,KBAM 211215Z AUTO 17003KT 10SM CLR 11/02 A3013 RMK AO1,M
HTH,2023-05-21 12:15,-118.6315,38.5448,1282.89,57.20,46.40,67.12,130.00,7.00,0.00,30.13,M,10.00,M,CLR,M,M,M,M,M,M,M,M,M,M,M,M,M,M,57.20,KHTH 211215Z AUTO 13007KT 10SM CLR 14/08 A3013 RMK A01,M
10U,2023-05-21 12:15,-116.1876,41.9532,1637.00,44.60,39.20,81.20,0.00,0.00,0.00,30.18,M,10.00,M,FEW,M,M,M,6000.00,M,M,M,M,M,M,M,M,M,M,44.60,K10U 211215Z AUTO 00000KT 10SM FEW060 07/04 A3018 RMK AO2,M
TMT,2023-05-21 12:15,-117.1971,39.4643,1749.34,43.20,36.00,75.84,0.00,0.00,0.00,30.22,M,10.00,M,CLR,M,M,M,M,M,M,M,M,M,M,M,M,M,M,43.20,KTMT 211215Z AUTO 00000KT 10SM CLR 06/02 A3022 RMK AO2 T00620023,M
05U,2023-05-21 12:30,-116.0051,39.6042,1811.23,44.60,35.60,70.48,360.00,7.00,0.00,30.23,M,10.00,M,CLR,M,M,M,M,M,M,M,M,M,M,M,M,M,M,40.14,K05U 211230Z AUTO 36007KT 10SM CLR 07/02 A3023 RMK A01,M
BVU,2023-05-21 12:35,-114.8611,35.9475,671.00,68.00,48.20,49.10,0.00,0.00,0.00,30.02,M,10.00,M,CLR,M,M,M,M,M,M,M,M,M,M,M,M,M,M,68.00,KBVU 211235Z AUTO 00000KT 10SM CLR 20/09 A3002 RMK AO2,M
CXP,2023-05-21 12:35,-119.7326,39.1923,1431.00,53.60,42.80,66.70,260.00,3.00,0.00,30.18,M,10.00,M,CLR,M,M,M,M,M,M,M,M,M,M,M,M,M,M,53.60,KCXP 211235Z AUTO 26003KT 10SM CLR 12/06 A3018 RMK AO2,M
RTS,2023-05-21 12:35,-119.8764,39.6682,1539.00,53.60,42.80,66.70,300.00,4.00,0.00,30.17,M,10.00,M,CLR,M,M,M,M,M,M,M,M,M,M,M,M,M,M,53.60,KRTS 211235Z AUTO 30004KT 10SM CLR 12/06 A3017 RMK AO2,M
MEV,2023-05-21 12:35,-119.7500,38.9963,1441.42,46.40,42.80,87.19,110.00,3.00,0.00,30.17,M,10.00,M,CLR,M,M,M,M,M,M,M,M,M,M,M,M,M,M,45.15,KMEV 211235Z AUTO 11003KT 10SM CLR 08/06 A3017 RMK AO2,M
BAM,2023-05-21 12:35,-116.8743,40.5990,1382.36,46.40,33.80,61.28,0.00,0.00,0.00,30.13,M,10.00,M,CLR,M,M,M,M,M,M,M,M,M,M,M,M,M,M,46.40,KBAM 211235Z AUTO 00000KT 10SM CLR 08/01 A3013 RMK AO1,M
HTH,2023-05-21 12:35,-118.6315,38.5448,1282.89,57.20,46.40,67.12,0.00,0.00,0.00,30.13,M,10.00,M,CLR,M,M,M,M,M,M,M,M,M,M,M,M,M,M,57.20,KHTH 211235Z AUTO 00000KT 10SM CLR 14/08 A3013 RMK A01,M
TMT,2023-05-21 12:35,-117.1971,39.4643,1749.34,42.40,36.70,80.08,270.00,4.00,0.00,30.22,M,10.00,M,CLR,M,M,M,M,M,M,M,M,M,M,M,M,M,M,39.56,KTMT 211235Z AUTO 27004KT 10SM CLR 06/03 A3022 RMK AO2 T00580026,M
10U,2023-05-21 12:35,-116.1876,41.9532,1637.00,44.60,41.00,87.09,0.00,0.00,0.00,30.18,M,10.00,M,CLR,M,M,M,M,M,M,M,M,M,M,M,M,M,M,44.60,K10U 211235Z AUTO 00000KT 10SM CLR 07/05 A3018 RMK AO2,M
05U,2023-05-21 12:50,-116.0051,39.6042,1811.23,46.40,33.80,61.28,360.00,6.00,0.00,30.23,M,10.00,M,CLR,M,M,M,M,M,M,M,M,M,M,M,M,M,M,42.87,K05U 211250Z AUTO 36006KT 10SM CLR 08/01 A3023 RMK A01,M
P68,2023-05-21 12:53,-116.0056,39.6014,1993.00,47.00,34.00,60.61,190.00,8.00,0.00,30.21,1016.10,M,M,M,M,M,M,M,M,M,M,M,M,M,M,M,M,M,42.47,KP68 211253Z AUTO 19008KT 08/01 A3021 RMK AO1 SLP161 T00830011,M
DRA,2023-05-21 12:53,-116.0278,36.6206,1009.00,58.00,54.00,86.82,0.00,0.00,0.00,30.07,1015.00,10.00,M,CLR,M,M,M,M,M,M,M,M,M,M,M,M,M,M,57.90,KDRA 211253Z AUTO 00000KT 10SM CLR 14/12 A3007 RMK AO2 SLP150 T01440122,M
ELY,2023-05-21 12:53,-114.8453,39.2950,1909.00,43.00,37.00,79.19,170.00,8.00,0.00,30.25,1016.40,10.00,M,CLR,M,M,M,M,M,M,M,M,M,M,M,M,M,M,37.66,KELY 211253Z AUTO 17008KT 10SM CLR 06/03 A3025 RMK AO2 SLP164 T00610028,M
VGT,2023-05-21 12:53,-115.1933,36.2111,667.00,73.00,48.00,41.10,0.00,0.00,0.00,30.02,1015.70,10.00,M,CLR,M,M,M,M,M,M,M,M,M,M,M,M,M,M,73.00,KVGT 211253Z 00000KT 10SM CLR 23/09 A3002 RMK AO2 SLP157 T02280089 $,M
LOL,2023-05-21 12:53,-118.5701,40.0684,1192.43,56.00,41.00,57.23,240.00,3.00,0.00,30.09,1015.20,8.00,M,CLR,M,M,M,M,M,M,M,M,M,M,M,M,M,M,55.90,KLOL 211253Z AUTO 24003KT 8SM CLR 13/05 A3009 RMK AO2 SLP152 T01330050,M
BVU,2023-05-21 12:55,-114.8611,35.9475,671.00,68.00,50.00,52.51,0.00,0.00,0.00,30.02,M,10.00,M,CLR,M,M,M,M,M,M,M,M,M,M,M,M,M,M,68.00,KBVU 211255Z AUTO 00000KT 10SM CLR 20/10 A3002 RMK AO2,M
CXP,2023-05-21 12:55,-119.7326,39.1923,1431.00,55.40,42.80,62.46,270.00,3.00,0.00,30.18,M,10.00,M,CLR,M,M,M,M,M,M,M,M,M,M,M,M,M,M,55.40,KCXP 211255Z AUTO 27003KT 10SM CLR 13/06 A3018 RMK AO2,M
RNO,2023-05-21 12:55,-119.7711,39.4839,1341.00,59.00,45.00,59.67,290.00,3.00,0.00,30.14,1015.80,10.00,M,FEW,SCT,M,M,10000.00,22000.00,M,M,M,M,M,M,M,M,M,59.00,KRNO 211255Z 29003KT 10SM FEW100 SCT220 15/07 A3014 RMK AO2 SLP158 ACSL DSNT N T01500072 $,M
RTS,2023-05-21 12:55,-119.8764,39.6682,1539.00,50.00,42.80,76.18,0.00,0.00,0.00,30.17,M,10.00,M,CLR,M,M,M,M,M,M,M,M,M,M,M,M,M,M,50.00,KRTS 211255Z AUTO 00000KT 10SM CLR 10/06 A3017 RMK AO2,M
MEV,2023-05-21 12:55,-119.7500,38.9963,1441.42,46.40,41.00,81.34,0.00,0.00,0.00,30.17,M,10.00,M,CLR,M,M,M,M,M,M,M,M,M,M,M,M,M,M,46.40,KMEV 211255Z AUTO 00000KT 10SM CLR 08/05 A3017 RMK AO2,M
BAM,2023-05-21 12:55,-116.8743,40.5990,1382.36,48.20,33.80,57.26,0.00,0.00,0.00,30.14,M,10.00,M,CLR,M,M,M,M,M,M,M,M,M,M,M,M,M,M,48.20,KBAM 211255Z AUTO 00000KT 10SM CLR 09/01 A3014 RMK AO1,M
HTH,2023-05-21 12:55,-118.6315,38.5448,1282.89,57.20,44.60,62.69,170.00,5.00,0.00,30.13,M,10.00,M,CLR,M,M,M,M,M,M,M,M,M,M,M,M,M,M,57.20,KHTH 211255Z AUTO 17005KT 10SM CLR 14/07 A3013 RMK A01,M
TMT,2023-05-21 12:55,-117.1971,39.4643,1749.34,44.80,37.80,76.29,0.00,0.00,0.00,30.22,M,10.00,M,CLR,M,M,M,M,M,M,M,M,M,M,M,M,M,M,44.80,KTMT 211255Z AUTO 00000KT 10SM CLR 07/03 A3022 RMK AO2 T00710032,M
10U,2023-05-21 12:55,-116.1876,41.9532,1637.00,48.20,39.20,70.88,0.00,0.00,0.00,30.18,M,10.00,M,CLR,M,M,M,M,M,M,M,M,M,M,M,M,M,M,48.20,K10U 211255Z AUTO 00000KT 10SM CLR 09/04 A3018 RMK AO2,M
LSV,2023-05-21 12:55,-115.0343,36.2362,570.00,69.80,49.80,49.00,10.00,6.00,0.00,29.99,1013.30,10.00,M,CLR,M,M,M,M,M,M,M,M,M,M,M,M,M,M,69.80,KLSV 211255Z AUTO 01006KT 10SM CLR 21/10 A2999 RMK AO2 SLP133 T02100099 $,M
INS,2023-05-21 12:55,-115.6733,36.5872,955.00,60.00,41.70,50.92,0.00,0.00,0.00,30.07,1014.70,10.00,M,CLR,M,M,M,M,M,M,M,M,M,M,M,M,M,M,59.90,KINS 211255Z AUTO 00000KT 10SM CLR 16/05 A3007 RMK AO2 SLP147 T01550054 $,M
EKO,2023-05-21 12:56,-115.7860,40.8242,1367.00,48.00,39.00,70.85,0.00,0.00,0.00,30.18,1017.60,10.00,M,CLR,M,M,M,M,M,M,M,M,M,M,M,M,M,M,48.00,KEKO 211256Z AUTO 00000KT 10SM CLR 09/04 A3018 RMK AO2 SLP176 T00890039,M
TPH,2023-05-21 12:56,-117.0904,38.0505,1654.00,M,M,M,M,M,0.00,30.20,M,M,M,M,M,M,M,M,M,M,M,M,M,M,M,M,M,M,M,KTPH 211256Z AUTO A3020 RMK AO2 SLPNO PWINO $,M
NFL,2023-05-21 12:56,-118.7010,39.4166,1199.00,63.00,47.00,55.64,0.00,0.00,0.00,30.09,1015.60,10.00,M,CLR,M,M,M,M,M,M,M,M,M,M,M,M,M,M,63.00,KNFL 211256Z AUTO 00000KT 10SM CLR 17/08 A3009 RMK AO2 SLP156 T01720083,M
WMC,2023-05-21 12:56,-117.8072,40.9019,1315.00,49.00,40.00,70.95,160.00,6.00,0.00,30.11,1015.50,10.00,M,CLR,M,M,M,M,M,M,M,M,M,M,M,M,M,M,45.88,KWMC 211256Z AUTO 16006KT 10SM CLR 09/04 A3011 RMK AO2 SLP155 T00940044,M
HND,2023-05-21 12:56,-115.1344,35.9729,742.79,67.00,47.00,48.56,160.00,4.00,0.00,30.06,1017.10,10.00,M,CLR,M,M,M,M,M,M,M,M,M,M,M,M,M,M,66.90,KHND 211256Z AUTO 16004KT 10SM CLR 19/08 A3006 RMK AO2 SLP171 T01940083,M
LAS,2023-05-21 12:56,-115.1634,36.0719,663.00,74.00,49.00,41.24,0.00,0.00,0.00,30.03,1014.40,10.00,M,FEW,SCT,M,M,15000.00,25000.00,M,M,M,M,M,M,M,M,M,73.90,KLAS 211256Z 00000KT 10SM FEW150 SCT250 23/09 A3003 RMK AO2 SLP144 T02330094,M
05U,2023-05-21 13:10,-116.0051,39.6042,1811.23,48.20,33.80,57.26,360.00,7.00,0.00,30.24,M,10.00,M,CLR,M,M,M,M,M,M,M,M,M,M,M,M,M,M,44.53,K05U 211310Z AUTO 36007KT 10SM CLR 09/01 A3024 RMK A01,M
BVU,2023-05-21 13:15,-114.8611,35.9475,671.00,68.00,51.80,56.13,0.00,0.00,0.00,30.02,M,10.00,M,CLR,M,M,M,M,M,M,M,M,M,M,M,M,M,M,68.00,KBVU 211315Z AUTO 00000KT 10SM CLR 20/11 A3002 RMK AO2,M
CXP,2023-05-21 13:15,-119.7326,39.1923,1431.00,53.60,41.00,62.23,0.00,0.00,0.00,30.18,M,10.00,M,CLR,M,M,M,M,M,M,M,M,M,M,M,M,M,M,53.60,KCXP 211315Z AUTO 00000KT 10SM CLR 12/05 A3018 RMK AO2,M
RTS,2023-05-21 13:15,-119.8764,39.6682,1539.00,51.80,42.80,71.26,0.00,0.00,0.00,30.18,M,10.00,M,CLR,M,M,M,M,M,M,M,M,M,M,M,M,M,M,51.80,KRTS 211315Z AUTO 00000KT 10SM CLR 11/06 A3018 RMK AO2,M
MEV,2023-05-21 13:15,-119.7500,38.9963,1441.42,44.60,41.00,87.09,0.00,0.00,0.00,30.17,M,10.00,M,CLR,M,M,M,M,M,M,M,M,M,M,M,M,M,M,44.60,KMEV 211315Z AUTO 00000KT 10SM CLR 07/05 A3017 RMK AO2,M
BAM,2023-05-21 13:15,-116.8743,40.5990,1382.36,46.40,33.80,61.28,0.00,0.00,0.00,30.15,M,10.00,M,CLR,M,M,M,M,M,M,M,M,M,M,M,M,M,M,46.40,KBAM 211315Z AUTO 00000KT 10SM CLR 08/01 A3015 RMK AO1,M
HTH,2023-05-21 13:15,-118.6315,38.5448,1282.89,59.00,46.40,62.92,180.00,7.00,0.00,30.13,M,10.00,M,CLR,M,M,M,M,M,M,M,M,M,M,M,M,M,M,59.00,KHTH 211315Z AUTO 18007KT 10SM CLR 15/08 A3013 RMK A01,M
TMT,2023-05-21 13:15,-117.1971,39.4643,1749.34,45.50,38.30,75.76,230.00,7.00,0.00,30.22,M,10.00,M,CLR,M,M,M,M,M,M,M,M,M,M,M,M,M,M,41.23,KTMT 211315Z AUTO 23007KT 10SM CLR 08/04 A3022 RMK AO2 T00750035,M
10U,2023-05-21 13:15,-116.1876,41.9532,1637.00,50.00,37.40,61.76,0.00,0.00,0.00,30.18,M,10.00,M,CLR,M,M,M,M,M,M,M,M,M,M,M,M,M,M,50.00,K10U 211315Z AUTO 00000KT 10SM CLR 10/03 A3018 RMK AO2,M
05U,2023-05-21 13:30,-116.0051,39.6042,1811.23,50.00,35.60,57.52,0.00,0.00,0.00,30.25,M,10.00,M,CLR,M,M,M,M,M,M,M,M,M,M,M,M,M,M,50.00,K05U 211330Z AUTO 00000KT 10SM CLR 10/02 A3025 RMK A01,M
BVU,2023-05-21 13:35,-114.8611,35.9475,671.00,68.00,53.60,59.97,40.00,4.00,0.00,30.02,M,10.00,M,CLR,M,M,M,M,M,M,M,M,M,M,M,M,M,M,68.00,KBVU 211335Z AUTO 04004KT 10SM CLR 20/12 A3002 RMK AO2,M
CXP,2023-05-21 13:35,-119.7326,39.1923,1431.00,51.80,42.80,71.26,0.00,0.00,0.00,30.18,M,10.00,M,CLR,M,M,M,M,M,M,M,M,M,M,M,M,M,M,51.80,KCXP 211335Z AUTO 00000KT 10SM CLR 11/06 A3018 RMK AO2,M
RTS,2023-05-21 13:35,-119.8764,39.6682,1539.00,53.60,44.60,71.45,0.00,0.00,0.00,30.18,M,10.00,M,CLR,M,M,M,M,M,M,M,M,M,M,M,M,M,M,53.60,KRTS 211335Z AUTO 00000KT 10SM CLR 12/07 A3018 RMK AO2,M
MEV,2023-05-21 13:35,-119.7500,38.9963,1441.42,48.20,42.80,81.47,0.00,0.00,0.00,30.17,M,10.00,M,CLR,M,M,M,M,M,M,M,M,M,M,M,M,M,M,48.20,KMEV 211335Z AUTO 00000KT 10SM CLR 09/06 A3017 RMK AO2,M
BAM,2023-05-21 13:35,-116.8743,40.5990,1382.36,51.80,35.60,53.81,0.00,0.00,0.00,30.15,M,10.00,M,CLR,M,M,M,M,M,M,M,M,M,M,M,M,M,M,51.80,KBAM 211335Z AUTO 00000KT 10SM CLR 11/02 A3015 RMK AO1,M
HTH,2023-05-21 13:35,-118.6315,38.5448,1282.89,60.80,46.40,59.01,150.00,3.00,0.00,30.14,M,10.00,M,CLR,M,M,M,M,M,M,M,M,M,M,M,M,M,M,60.80,KHTH 211335Z AUTO 15003KT 10SM CLR 16/08 A3014 RMK A01,M
TMT,2023-05-21 13:35,-117.1971,39.4643,1749.34,49.80,38.70,65.47,200.00,5.00,0.00,30.22,M,10.00,M,CLR,M,M,M,M,M,M,M,M,M,M,M,M,M,M,47.53,KTMT 211335Z AUTO 20005KT 10SM CLR 10/04 A3022 RMK AO2 T00990037,M
10U,2023-05-21 13:35,-116.1876,41.9532,1637.00,51.80,39.20,61.99,0.00,0.00,0.00,30.18,M,10.00,M,CLR,M,M,M,M,M,M,M,M,M,M,M,M,M,M,51.80,K10U 211335Z AUTO 00000KT 10SM CLR 11/04 A3018 RMK AO2,M
05U,2023-05-21 13:50,-116.0051,39.6042,1811.23,53.60,37.40,54.07,0.00,0.00,0.00,30.25,M,10.00,M,CLR,M,M,M,M,M,M,M,M,M,M,M,M,M,M,53.60,K05U 211350Z AUTO 00000KT 10SM CLR 12/03 A3025 RMK A01,M
P68,2023-05-21 13:53,-116.0056,39.6014,1993.00,52.00,37.00,56.45,220.00,3.00,0.00,30.22,1016.20,M,M,M,M,M,M,M,M,M,M,M,M,M,M,M,M,M,52.00,KP68 211353Z AUTO 22003KT 11/03 A3022 RMK AO1 SLP162 T01110028,M
VGT,2023-05-21 13:53,-115.1933,36.2111,667.00,74.00,46.00,36.98,330.00,4.00,0.00,30.02,1016.10,10.00,M,CLR,M,M,M,M,M,M,M,M,M,M,M,M,M,M,73.90,KVGT 211353Z 33004KT 10SM CLR 23/08 A3002 RMK AO2 SLP161 T02330078 $,M
DRA,2023-05-21 13:53,-116.0278,36.6206,1009.00,64.00,53.00,67.66,0.00,0.00,0.00,30.07,1014.80,10.00,M,CLR,M,M,M,M,M,M,M,M,M,M,M,M,M,M,64.00,KDRA 211353Z AUTO 00000KT 10SM CLR 18/12 A3007 RMK AO2 SLP148 T01780117,M
LOL,2023-05-21 13:53,-118.5701,40.0684,1192.43,61.00,44.00,53.69,0.00,0.00,0.00,30.09,1015.30,8.00,M,CLR,M,M,M,M,M,M,M,M,M,M,M,M,M,M,61.00,KLOL 211353Z AUTO 00000KT 8SM CLR 16/07 A3009 RMK AO2 SLP153 T01610067,M
ELY,2023-05-21 13:53,-114.8453,39.2950,1909.00,49.00,40.00,70.95,180.00,7.00,0.00,30.25,1016.30,10.00,M,CLR,M,M,M,M,M,M,M,M,M,M,M,M,M,M,45.38,KELY 211353Z AUTO 18007KT 10SM CLR 09/04 A3025 RMK AO2 SLP163 T00940044,M
BVU,2023-05-21 13:55,-114.8611,35.9475,671.00,71.60,51.80,49.64,0.00,0.00,0.00,30.02,M,10.00,M,CLR,M,M,M,M,M,M,M,M,M,M,M,M,M,M,71.60,KBVU 211355Z AUTO 00000KT 10SM CLR 22/11 A3002 RMK AO2,M
CXP,2023-05-21 13:55,-119.7326,39.1923,1431.00,55.40,44.60,66.91,0.00,0.00,0.00,30.19,M,10.00,M,CLR,M,M,M,M,M,M,M,M,M,M,M,M,M,M,55.40,KCXP 211355Z AUTO 00000KT 10SM CLR 13/07 A3019 RMK AO2,M
RTS,2023-05-21 13:55,-119.8764,39.6682,1539.00,53.60,46.40,76.50,20.00,3.00,0.00,30.19,M,10.00,M,CLR,M,M,M,M,M,M,M,M,M,M,M,M,M,M,53.60,KRTS 211355Z AUTO 02003KT 10SM CLR 12/08 A3019 RMK AO2,M
MEV,2023-05-21 13:55,-119.7500,38.9963,1441.42,51.80,42.80,71.26,190.00,4.00,0.00,30.18,M,10.00,M,CLR,M,M,M,M,M,M,M,M,M,M,M,M,M,M,51.80,KMEV 211355Z AUTO 19004KT 10SM CLR 11/06 A3018 RMK AO2,M
BAM,2023-05-21 13:55,-116.8743,40.5990,1382.36,53.60,37.40,54.07,0.00,0.00,0.00,30.16,M,10.00,M,CLR,M,M,M,M,M,M,M,M,M,M,M,M,M,M,53.60,KBAM 211355Z AUTO 00000KT 10SM CLR 12/03 A3016 RMK AO1,M
HTH,2023-05-21 13:55,-118.6315,38.5448,1282.89,62.60,44.60,51.72,0.00,0.00,0.00,30.14,M,10.00,M,CLR,M,M,M,M,M,M,M,M,M,M,M,M,M,M,62.60,KHTH 211355Z AUTO 00000KT 10SM CLR 17/07 A3014 RMK A01,M
TMT,2023-05-21 13:55,-117.1971,39.4643,1749.34,50.00,39.00,65.75,160.00,3.00,0.00,30.23,M,10.00,M,CLR,M,M,M,M,M,M,M,M,M,M,M,M,M,M,50.00,KTMT 211355Z AUTO 16003KT 10SM CLR 10/04 A3023 RMK AO2 T01000039,M
10U,2023-05-21 13:55,-116.1876,41.9532,1637.00,53.60,41.00,62.23,80.00,3.00,0.00,30.18,M,10.00,M,CLR,M,M,M,M,M,M,M,M,M,M,M,M,M,M,53.60,K10U 211355Z AUTO 08003KT 10SM CLR 12/05 A3018 RMK AO2,M
INS,2023-05-21 13:55,-115.6733,36.5872,955.00,66.20,43.00,42.90,0.00,0.00,0.00,30.08,1014.70,10.00,M,CLR,M,M,M,M,M,M,M,M,M,M,M,M,M,M,66.20,KINS 211355Z AUTO 00000KT 10SM CLR 19/06 A3008 RMK AO2 SLP147 T01900061 $,M
LSV,2023-05-21 13:55,-115.0343,36.2362,570.00,73.40,51.30,45.85,60.00,4.00,0.00,29.99,1013.40,10.00,M,CLR,M,M,M,M,M,M,M,M,M,M,M,M,M,M,73.40,KLSV 211355Z AUTO 06004KT 10SM CLR 23/11 A2999 RMK AO2 SLP134 T02300107 $,M
RNO,2023-05-21 13:55,-119.7711,39.4839,1341.00,60.00,44.00,55.44,270.00,3.00,0.00,30.15,1016.10,10.00,M,FEW,SCT,M,M,12000.00,25000.00,M,M,M,M,M,M,M,M,M,60.10,KRNO 211355Z 27003KT 10SM FEW120 SCT250 16/07 A3015 RMK AO2 SLP161 T01560067 $,M
EKO,2023-05-21 13:56,-115.7860,40.8242,1367.00,54.00,39.00,56.74,60.00,5.00,0.00,30.18,1017.30,10.00,M,CLR,M,M,M,M,M,M,M,M,M,M,M,M,M,M,54.00,KEKO 211356Z AUTO 06005KT 10SM CLR 12/04 A3018 RMK AO2 SLP173 T01220039,M
WMC,2023-05-21 13:56,-117.8072,40.9019,1315.00,57.00,41.00,54.99,0.00,0.00,0.00,30.12,1015.70,10.00,M,CLR,M,M,M,M,M,M,M,M,M,M,M,M,M,M,57.00,KWMC 211356Z AUTO 00000KT 10SM CLR 14/05 A3012 RMK AO2 SLP157 T01390050,M
NFL,2023-05-21 13:56,-118.7010,39.4166,1199.00,63.00,50.00,62.49,0.00,0.00,0.00,30.10,1016.00,10.00,M,CLR,M,M,M,M,M,M,M,M,M,M,M,M,M,M,63.00,KNFL 211356Z AUTO 00000KT 10SM CLR 17/10 A3010 RMK AO2 SLP160 T01720100,M
TPH,2023-05-21 13:56,-117.0904,38.0505,1654.00,M,M,M,M,M,0.00,30.21,M,M,M,M,M,M,M,M,M,M,M,M,M,M,M,M,M,M,M,KTPH 211356Z AUTO A3021 RMK AO2 SLPNO PWINO $,M
HND,2023-05-21 13:56,-115.1344,35.9729,742.79,71.00,47.00,42.05,190.00,5.00,0.00,30.06,1017.30,10.00,M,CLR,M,M,M,M,M,M,M,M,M,M,M,M,M,M,71.10,KHND 211356Z 19005KT 10SM CLR 22/08 A3006 RMK AO2 SLP173 T02170083,M
LAS,2023-05-21 13:56,-115.1634,36.0719,663.00,74.00,49.00,41.24,210.00,4.00,0.00,30.03,1014.70,10.00,M,FEW,FEW,M,M,15000.00,25000.00,M,M,M,M,M,M,M,M,M,73.90,KLAS 211356Z 21004KT 10SM FEW150 FEW250 23/09 A3003 RMK AO2 SLP147 T02330094,M
05U,2023-05-21 14:10,-116.0051,39.6042,1811.23,57.20,37.40,47.44,M,4.00,0.00,30.24,M,10.00,M,CLR,M,M,M,M,M,M,M,M,M,M,M,M,M,M,57.20,K05U 211410Z AUTO VRB04KT 10SM CLR 14/03 A3024 RMK A01,M
BVU,2023-05-21 14:15,-114.8611,35.9475,671.00,71.60,51.80,49.64,180.00,3.00,0.00,30.02,M,10.00,M,CLR,M,M,M,M,M,M,M,M,M,M,M,M,M,M,71.60,KBVU 211415Z AUTO 18003KT 10SM CLR 22/11 A3002 RMK AO2,M
CXP,2023-05-21 14:15,-119.7326,39.1923,1431.00,59.00,44.60,58.77,0.00,0.00,0.00,30.18,M,10.00,M,CLR,M,M,M,M,M,M,M,M,M,M,M,M,M,M,59.00,KCXP 211415Z AUTO 00000KT 10SM CLR 15/07 A3018 RMK AO2,M
RTS,2023-05-21 14:15,-119.8764,39.6682,1539.00,55.40,46.40,71.64,350.00,4.00,0.00,30.19,M,10.00,M,CLR,M,M,M,M,M,M,M,M,M,M,M,M,M,M,55.40,KRTS 211415Z AUTO 35004KT 10SM CLR 13/08 A3019 RMK AO2,M
MEV,2023-05-21 14:15,-119.7500,38.9963,1441.42,50.00,44.60,81.61,0.00,0.00,0.00,30.18,M,10.00,M,CLR,M,M,M,M,M,M,M,M,M,M,M,M,M,M,50.00,KMEV 211415Z AUTO 00000KT 10SM CLR 10/07 A3018 RMK AO2,M
BAM,2023-05-21 14:15,-116.8743,40.5990,1382.36,55.40,37.40,50.64,0.00,0.00,0.00,30.16,M,10.00,M,CLR,M,M,M,M,M,M,M,M,M,M,M,M,M,M,55.40,KBAM 211415Z AUTO 00000KT 10SM CLR 13/03 A3016 RMK AO1,M
HTH,2023-05-21 14:15,-118.6315,38.5448,1282.89,64.40,46.40,51.98,150.00,5.00,0.00,30.14,M,10.00,M,CLR,M,M,M,M,M,M,M,M,M,M,M,M,M,M,64.40,KHTH 211415Z AUTO 15005KT 10SM CLR 18/08 A3014 RMK A01,M
10U,2023-05-21 14:15,-116.1876,41.9532,1637.00,53.60,41.00,62.23,0.00,0.00,0.00,30.18,M,10.00,M,CLR,M,M,M,M,M,M,M,M,M,M,M,M,M,M,53.60,K10U 211415Z AUTO 00000KT 10SM CLR 12/05 A3018 RMK AO2,M
TMT,2023-05-21 14:15,-117.1971,39.4643,1749.34,51.00,40.00,65.86,150.00,3.00,0.00,30.22,M,10.00,M,CLR,M,M,M,M,M,M,M,M,M,M,M,M,M,M,50.90,KTMT 211415Z AUTO 15003KT 10SM CLR 11/04 A3022 RMK AO2 T01050044,M
05U,2023-05-21 14:30,-116.0051,39.6042,1811.23,59.00,37.40,44.47,M,5.00,0.00,30.24,M,10.00,M,CLR,M,M,M,M,M,M,M,M,M,M,M,M,M,M,59.00,K05U 211430Z AUTO VRB05KT 10SM CLR 15/03 A3024 RMK A01,M
BVU,2023-05-21 14:35,-114.8611,35.9475,671.00,71.60,51.80,49.64,0.00,0.00,0.00,30.03,M,10.00,M,CLR,M,M,M,M,M,M,M,M,M,M,M,M,M,M,71.60,KBVU 211435Z AUTO 00000KT 10SM CLR 22/11 A3003 RMK AO2,M
CXP,2023-05-21 14:35,-119.7326,39.1923,1431.00,59.00,41.00,51.18,0.00,0.00,0.00,30.19,M,10.00,M,CLR,M,M,M,M,M,M,M,M,M,M,M,M,M,M,59.00,KCXP 211435Z AUTO 00000KT 10SM CLR 15/05 A3019 RMK AO2,M
RTS,2023-05-21 14:35,-119.8764,39.6682,1539.00,59.00,44.60,58.77,350.00,3.00,0.00,30.18,M,10.00,M,CLR,M,M,M,M,M,M,M,M,M,M,M,M,M,M,59.00,KRTS 211435Z AUTO 35003KT 10SM CLR 15/07 A3018 RMK AO2,M
MEV,2023-05-21 14:35,-119.7500,38.9963,1441.42,57.20,44.60,62.69,0.00,0.00,0.00,30.17,M,10.00,M,CLR,M,M,M,M,M,M,M,M,M,M,M,M,M,M,57.20,KMEV 211435Z AUTO 00000KT 10SM CLR 14/07 A3017 RMK AO2,M
BAM,2023-05-21 14:35,-116.8743,40.5990,1382.36,59.00,39.20,47.72,0.00,0.00,0.00,30.16,M,10.00,M,CLR,M,M,M,M,M,M,M,M,M,M,M,M,M,M,59.00,KBAM 211435Z AUTO 00000KT 10SM CLR 15/04 A3016 RMK AO1,M
HTH,2023-05-21 14:35,-118.6315,38.5448,1282.89,68.00,44.60,42.85,0.00,0.00,0.00,30.14,M,10.00,M,CLR,M,M,M,M,M,M,M,M,M,M,M,M,M,M,68.00,KHTH 211435Z AUTO 00000KT 10SM CLR 20/07 A3014 RMK A01,M
10U,2023-05-21 14:35,-116.1876,41.9532,1637.00,57.20,41.00,54.60,0.00,0.00,0.00,30.18,M,10.00,M,CLR,M,M,M,M,M,M,M,M,M,M,M,M,M,M,57.20,K10U 211435Z AUTO 00000KT 10SM CLR 14/05 A3018 RMK AO2,M
TMT,2023-05-21 14:35,-117.1971,39.4643,1749.34,53.00,39.70,60.70,0.00,0.00,0.00,30.22,M,10.00,M,CLR,M,M,M,M,M,M,M,M,M,M,M,M,M,M,52.90,KTMT 211435Z AUTO 00000KT 10SM CLR 12/04 A3022 RMK AO2 T01160043,M
05U,2023-05-21 14:50,-116.0051,39.6042,1811.23,62.60,37.40,39.14,M,3.00,0.00,30.24,M,10.00,M,CLR,M,M,M,M,M,M,M,M,M,M,M,M,M,M,62.60,K05U 211450Z AUTO VRB03KT 10SM CLR 17/03 A3024 RMK A01,M
DRA,2023-05-21 14:53,-116.0278,36.6206,1009.00,73.00,48.00,41.10,40.00,7.00,0.00,30.07,1014.20,10.00,M,CLR,M,M,M,M,M,M,M,M,M,M,M,M,M,M,73.00,KDRA 211453Z AUTO 04007KT 10SM CLR 23/09 A3007 RMK AO2 SLP142 T02280089 56002,M
ELY,2023-05-21 14:53,-114.8453,39.2950,1909.00,57.00,41.00,54.99,180.00,8.00,0.00,30.24,1016.00,10.00,M,CLR,M,M,M,M,M,M,M,M,M,M,M,M,M,M,57.00,KELY 211453Z AUTO 18008KT 10SM CLR 14/05 A3024 RMK AO2 SLP160 T01390050 58003,M
VGT,2023-05-21 14:53,-115.1933,36.2111,667.00,79.00,48.00,33.66,0.00,0.00,0.00,30.03,1016.10,10.00,M,CLR,M,M,M,M,M,M,M,M,M,M,M,M,M,M,79.00,KVGT 211453Z 00000KT 10SM CLR 26/09 A3003 RMK AO2 SLP161 T02610089 53003 $,M
P68,2023-05-21 14:53,-116.0056,39.6014,1993.00,60.00,38.00,43.61,250.00,3.00,0.00,30.21,1016.60,M,M,M,M,M,M,M,M,M,M,M,M,M,M,M,M,M,60.10,KP68 211453Z AUTO 25003KT 16/03 A3021 RMK AO1 SLP166 T01560033 50000,M
LOL,2023-05-21 14:53,-118.5701,40.0684,1192.43,67.00,44.00,43.67,190.00,4.00,0.00,30.10,1015.70,8.00,M,CLR,M,M,M,M,M,M,M,M,M,M,M,M,M,M,66.90,KLOL 211453Z AUTO 19004KT 8SM CLR 19/07 A3010 RMK AO2 SLP157 T01940067 53002,M
BVU,2023-05-21 14:55,-114.8611,35.9475,671.00,73.40,51.80,46.71,0.00,0.00,0.00,30.03,M,10.00,M,CLR,M,M,M,M,M,M,M,M,M,M,M,M,M,M,73.40,KBVU 211455Z AUTO 00000KT 10SM CLR 23/11 A3003 RMK AO2,M
CXP,2023-05-21 14:55,-119.7326,39.1923,1431.00,60.80,41.00,48.00,310.00,4.00,0.00,30.19,M,10.00,M,CLR,M,M,M,M,M,M,M,M,M,M,M,M,M,M,60.80,KCXP 211455Z AUTO 31004KT 10SM CLR 16/05 A3019 RMK AO2,M
RNO,2023-05-21 14:55,-119.7711,39.4839,1341.00,64.00,45.00,49.99,150.00,3.00,0.00,30.15,1015.90,10.00,M,FEW,FEW,SCT,SCT,12000.00,15000.00,20000.00,25000.00,M,M,M,M,M,M,M,64.00,KRNO 211455Z 15003KT 10SM FEW120 FEW150 SCT200 SCT250 18/07 A3015 RMK AO2 SLP159 T01780072 53003,M
RTS,2023-05-21 14:55,-119.8764,39.6682,1539.00,60.80,44.60,55.12,0.00,0.00,0.00,30.18,M,10.00,M,CLR,M,M,M,M,M,M,M,M,M,M,M,M,M,M,60.80,KRTS 211455Z AUTO 00000KT 10SM CLR 16/07 A3018 RMK AO2,M
MEV,2023-05-21 14:55,-119.7500,38.9963,1441.42,59.00,44.60,58.77,100.00,3.00,0.00,30.17,M,10.00,M,CLR,M,M,M,M,M,M,M,M,M,M,M,M,M,M,59.00,KMEV 211455Z AUTO 10003KT 10SM CLR 15/07 A3017 RMK AO2,M
BAM,2023-05-21 14:55,-116.8743,40.5990,1382.36,62.60,39.20,42.00,0.00,0.00,0.00,30.16,M,10.00,M,CLR,M,M,M,M,M,M,M,M,M,M,M,M,M,M,62.60,KBAM 211455Z AUTO 00000KT 10SM CLR 17/04 A3016 RMK AO1,M
HTH,2023-05-21 14:55,-118.6315,38.5448,1282.89,68.00,44.60,42.85,240.00,4.00,0.00,30.13,M,10.00,M,CLR,M,M,M,M,M,M,M,M,M,M,M,M,M,M,68.00,KHTH 211455Z AUTO 24004KT 10SM CLR 20/07 A3013 RMK A01,M
10U,2023-05-21 14:55,-116.1876,41.9532,1637.00,62.60,42.80,48.28,140.00,4.00,0.00,30.18,M,10.00,M,CLR,M,M,M,M,M,M,M,M,M,M,M,M,M,M,62.60,K10U 211455Z AUTO 14004KT 10SM CLR 17/06 A3018 RMK AO2,M
LSV,2023-05-21 14:55,-115.0343,36.2362,570.00,79.00,47.50,33.03,40.00,6.00,0.00,29.99,1013.40,10.00,M,CLR,M,M,M,M,M,M,M,M,M,M,M,M,M,M,79.00,KLSV 211455Z AUTO 04006KT 10SM CLR 26/09 A2999 RMK AO2 SLP134 T02610086 53002 $,M
INS,2023-05-21 14:55,-115.6733,36.5872,955.00,70.20,42.00,35.83,0.00,0.00,0.00,30.07,1014.20,10.00,M,CLR,M,M,M,M,M,M,M,M,M,M,M,M,M,M,70.20,KINS 211455Z AUTO 00000KT 10SM CLR 21/06 A3007 RMK AO2 SLP142 T02120055 $,M
TMT,2023-05-21 14:55,-117.1971,39.4643,1749.34,56.00,41.00,57.23,210.00,3.00,0.00,30.22,M,10.00,M,CLR,M,M,M,M,M,M,M,M,M,M,M,M,M,M,55.90,KTMT 211455Z AUTO 21003KT 10SM CLR 13/05 A3022 RMK AO2 T01330050,M
WMC,2023-05-21 14:56,-117.8072,40.9019,1315.00,65.00,43.00,44.88,110.00,3.00,0.00,30.12,1015.40,10.00,M,CLR,M,M,M,M,M,M,M,M,M,M,M,M,M,M,64.90,KWMC 211456Z AUTO 11003KT 10SM CLR 18/06 A3012 RMK AO2 SLP154 T01830061 56004,M
NFL,2023-05-21 14:56,-118.7010,39.4166,1199.00,70.00,46.00,42.20,240.00,3.00,0.00,30.10,1016.10,10.00,M,CLR,M,M,M,M,M,M,M,M,M,M,M,M,M,M,70.00,KNFL 211456Z AUTO 24003KT 10SM CLR 21/08 A3010 RMK AO2 SLP161 T02110078 53005,M
HND,2023-05-21 14:56,-115.1344,35.9729,742.79,77.00,48.00,35.95,0.00,0.00,0.00,30.07,1017.30,10.00,M,CLR,M,M,M,M,M,M,M,M,M,M,M,M,M,M,77.00,KHND 211456Z 00000KT 10SM CLR 25/09 A3007 RMK AO2 SLP173 T02500089 51003,M
TPH,2023-05-21 14:56,-117.0904,38.0505,1654.00,M,M,M,M,M,0.00,30.21,M,M,M,M,M,M,M,M,M,M,M,M,M,M,M,M,M,M,M,KTPH 211456Z AUTO A3021 RMK AO2 SLPNO 55000 PWINO $,M
LAS,2023-05-21 14:56,-115.1634,36.0719,663.00,78.00,48.00,34.67,290.00,3.00,0.00,30.03,1014.80,10.00,M,FEW,M,M,M,25000.00,M,M,M,M,M,M,M,M,M,M,78.10,KLAS 211456Z 29003KT 10SM FEW250 26/09 A3003 RMK AO2 SLP148 T02560089 51003,M
EKO,2023-05-21 14:56,-115.7860,40.8242,1367.00,60.00,40.00,47.15,90.00,5.00,0.00,30.18,1017.40,10.00,M,CLR,M,M,M,M,M,M,M,M,M,M,M,M,M,M,60.10,KEKO 211456Z AUTO 09005KT 10SM CLR 16/04 A3018 RMK AO2 SLP174 T01560044 50002,M
05U,2023-05-21 15:10,-116.0051,39.6042,1811.23,64.40,37.40,36.74,0.00,0.00,0.00,30.24,M,10.00,M,CLR,M,M,M,M,M,M,M,M,M,M,M,M,M,M,64.40,K05U 211510Z AUTO 00000KT 10SM CLR 18/03 A3024 RMK A01,M
NFL,2023-05-21 15:11,-118.7010,39.4166,1199.00,70.00,45.00,40.63,200.00,4.00,0.00,30.10,M,10.00,M,SCT,SCT,M,M,18000.00,22000.00,M,M,M,M,M,M,M,M,M,70.00,KNFL 211511Z 20004KT 10SM SCT180 SCT220 21/07 A3010 RMK AO2 T02110072,M
BVU,2023-05-21 15:15,-114.8611,35.9475,671.00,75.20,51.80,43.97,0.00,0.00,0.00,30.02,M,10.00,M,CLR,M,M,M,M,M,M,M,M,M,M,M,M,M,M,75.20,KBVU 211515Z AUTO 00000KT 10SM CLR 24/11 A3002 RMK AO2,M
CXP,2023-05-21 15:15,-119.7326,39.1923,1431.00,62.60,41.00,45.04,0.00,0.00,0.00,30.18,M,10.00,M,CLR,M,M,M,M,M,M,M,M,M,M,M,M,M,M,62.60,KCXP 211515Z AUTO 00000KT 10SM CLR 17/05 A3018 RMK AO2,M
RTS,2023-05-21 15:15,-119.8764,39.6682,1539.00,62.60,44.60,51.72,0.00,0.00,0.00,30.19,M,10.00,M,CLR,M,M,M,M,M,M,M,M,M,M,M,M,M,M,62.60,KRTS 211515Z AUTO 00000KT 10SM CLR 17/07 A3019 RMK AO2,M
MEV,2023-05-21 15:15,-119.7500,38.9963,1441.42,60.80,44.60,55.12,0.00,0.00,0.00,30.17,M,10.00,M,CLR,M,M,M,M,M,M,M,M,M,M,M,M,M,M,60.80,KMEV 211515Z AUTO 00000KT 10SM CLR 16/07 A3017 RMK AO2,M
BAM,2023-05-21 15:15,-116.8743,40.5990,1382.36,64.40,39.20,39.43,0.00,0.00,0.00,30.16,M,10.00,M,CLR,M,M,M,M,M,M,M,M,M,M,M,M,M,M,64.40,KBAM 211515Z AUTO 00000KT 10SM CLR 18/04 A3016 RMK AO1,M
HTH,2023-05-21 15:15,-118.6315,38.5448,1282.89,69.80,44.60,40.29,0.00,0.00,0.00,30.13,M,10.00,M,CLR,M,M,M,M,M,M,M,M,M,M,M,M,M,M,69.80,KHTH 211515Z AUTO 00000KT 10SM CLR 21/07 A3013 RMK A01,M
TMT,2023-05-21 15:15,-117.1971,39.4643,1749.34,60.00,42.40,52.31,230.00,3.00,0.00,30.22,M,10.00,M,CLR,M,M,M,M,M,M,M,M,M,M,M,M,M,M,59.90,KTMT 211515Z AUTO 23003KT 10SM CLR 16/06 A3022 RMK AO2 T01550058,M
10U,2023-05-21 15:15,-116.1876,41.9532,1637.00,62.60,42.80,48.28,130.00,5.00,0.00,30.17,M,10.00,M,CLR,M,M,M,M,M,M,M,M,M,M,M,M,M,M,62.60,K10U 211515Z AUTO 13005KT 10SM CLR 17/06 A3017 RMK AO2,M
05U,2023-05-21 15:30,-116.0051,39.6042,1811.23,66.20,37.40,34.51,0.00,0.00,0.00,30.23,M,10.00,M,CLR,M,M,M,M,M,M,M,M,M,M,M,M,M,M,66.20,K05U 211530Z AUTO 00000KT 10SM CLR 19/03 A3023 RMK A01,M
BVU,2023-05-21 15:35,-114.8611,35.9475,671.00,77.00,50.00,38.74,0.00,0.00,0.00,30.02,M,10.00,M,CLR,M,M,M,M,M,M,M,M,M,M,M,M,M,M,77.00,KBVU 211535Z AUTO 00000KT 10SM CLR 25/10 A3002 RMK AO2,M
CXP,2023-05-21 15:35,-119.7326,39.1923,1431.00,62.60,41.00,45.04,0.00,0.00,0.00,30.18,M,10.00,M,CLR,M,M,M,M,M,M,M,M,M,M,M,M,M,M,62.60,KCXP 211535Z AUTO 00000KT 10SM CLR 17/05 A3018 RMK AO2,M
RTS,2023-05-21 15:35,-119.8764,39.6682,1539.00,64.40,46.40,51.98,0.00,0.00,0.00,30.19,M,10.00,M,CLR,M,M,M,M,M,M,M,M,M,M,M,M,M,M,64.40,KRTS 211535Z AUTO 00000KT 10SM CLR 18/08 A3019 RMK AO2,M
MEV,2023-05-21 15:35,-119.7500,38.9963,1441.42,60.80,44.60,55.12,160.00,4.00,0.00,30.17,M,10.00,M,CLR,M,M,M,M,M,M,M,M,M,M,M,M,M,M,60.80,KMEV 211535Z AUTO 16004KT 10SM CLR 16/07 A3017 RMK AO2,M
BAM,2023-05-21 15:35,-116.8743,40.5990,1382.36,68.00,39.20,34.80,0.00,0.00,0.00,30.15,M,10.00,M,CLR,M,M,M,M,M,M,M,M,M,M,M,M,M,M,68.00,KBAM 211535Z AUTO 00000KT 10SM CLR 20/04 A3015 RMK AO1,M
HTH,2023-05-21 15:35,-118.6315,38.5448,1282.89,69.80,44.60,40.29,30.00,4.00,0.00,30.13,M,10.00,M,CLR,M,M,M,M,M,M,M,M,M,M,M,M,M,M,69.80,KHTH 211535Z AUTO 03004KT 10SM CLR 21/07 A3013 RMK A01,M
TMT,2023-05-21 15:35,-117.1971,39.4643,1749.34,61.00,42.30,50.11,240.00,3.00,0.00,30.22,M,10.00,M,CLR,M,M,M,M,M,M,M,M,M,M,M,M,M,M,61.00,KTMT 211535Z AUTO 24003KT 10SM CLR 16/06 A3022 RMK AO2 T01610057,M
10U,2023-05-21 15:35,-116.1876,41.9532,1637.00,64.40,41.00,42.28,130.00,7.00,0.00,30.17,M,10.00,M,CLR,M,M,M,M,M,M,M,M,M,M,M,M,M,M,64.40,K10U 211535Z AUTO 13007KT 10SM CLR 18/05 A3017 RMK AO2,M
05U,2023-05-21 15:50,-116.0051,39.6042,1811.23,68.00,37.40,32.43,0.00,0.00,0.00,30.23,M,10.00,M,CLR,M,M,M,M,M,M,M,M,M,M,M,M,M,M,68.00,K05U 211550Z AUTO 00000KT 10SM CLR 20/03 A3023 RMK A01,M
DRA,2023-05-21 15:53,-116.0278,36.6206,1009.00,75.00,48.00,38.43,M,3.00,0.00,30.06,1013.80,10.00,M,CLR,M,M,M,M,M,M,M,M,M,M,M,M,M,M,75.00,KDRA 211553Z AUTO VRB03KT 10SM CLR 24/09 A3006 RMK AO2 SLP138 T02390089,M
ELY,2023-05-21 15:53,-114.8453,39.2950,1909.00,63.00,41.00,44.41,180.00,6.00,0.00,30.23,1015.80,10.00,M,CLR,M,M,M,M,M,M,M,M,M,M,M,M,M,M,63.00,KELY 211553Z AUTO 18006KT 10SM CLR 17/05 A3023 RMK AO2 SLP158 T01720050,M
P68,2023-05-21 15:53,-116.0056,39.6014,1993.00,66.00,38.00,35.44,M,3.00,0.00,30.20,1015.60,M,M,M,M,M,M,M,M,M,M,M,M,M,M,M,M,M,66.00,KP68 211553Z AUTO VRB03KT 19/03 A3020 RMK AO1 SLP156 T01890033,M
VGT,2023-05-21 15:53,-115.1933,36.2111,667.00,82.00,47.00,29.28,100.00,3.00,0.00,30.02,1015.90,10.00,M,CLR,M,M,M,M,M,M,M,M,M,M,M,M,M,M,80.43,KVGT 211553Z 10003KT 10SM CLR 28/08 A3002 RMK AO2 SLP159 T02780083 $,M
LOL,2023-05-21 15:53,-118.5701,40.0684,1192.43,73.00,42.00,32.84,320.00,4.00,0.00,30.09,1014.90,9.00,M,CLR,M,M,M,M,M,M,M,M,M,M,M,M,M,M,73.00,KLOL 211553Z AUTO 32004KT 9SM CLR 23/06 A3009 RMK AO2 SLP149 T02280056,M
BVU,2023-05-21 15:55,-114.8611,35.9475,671.00,80.60,50.00,34.41,0.00,0.00,0.00,30.02,M,10.00,M,CLR,M,M,M,M,M,M,M,M,M,M,M,M,M,M,79.88,KBVU 211555Z AUTO 00000KT 10SM CLR 27/10 A3002 RMK AO2,M
CXP,2023-05-21 15:55,-119.7326,39.1923,1431.00,64.40,42.80,45.32,0.00,0.00,0.00,30.17,M,10.00,M,CLR,M,M,M,M,M,M,M,M,M,M,M,M,M,M,64.40,KCXP 211555Z AUTO 00000KT 10SM CLR 18/06 A3017 RMK AO2,M
RNO,2023-05-21 15:55,-119.7711,39.4839,1341.00,68.00,45.00,43.51,0.00,0.00,0.00,30.15,1015.80,10.00,M,FEW,FEW,SCT,SCT,12000.00,16000.00,20000.00,25000.00,M,M,M,M,M,M,M,68.00,KRNO 211555Z 00000KT 10SM FEW120 FEW160 SCT200 SCT250 20/07 A3015 RMK AO2 SLP158 T02000072,M
RTS,2023-05-21 15:55,-119.8764,39.6682,1539.00,64.40,46.40,51.98,0.00,0.00,0.00,30.19,M,10.00,M,CLR,M,M,M,M,M,M,M,M,M,M,M,M,M,M,64.40,KRTS 211555Z AUTO 00000KT 10SM CLR 18/08 A3019 RMK AO2,M
MEV,2023-05-21 15:55,-119.7500,38.9963,1441.42,62.60,44.60,51.72,170.00,4.00,0.00,30.16,M,10.00,M,CLR,M,M,M,M,M,M,M,M,M,M,M,M,M,M,62.60,KMEV 211555Z AUTO 17004KT 10SM CLR 17/07 A3016 RMK AO2,M
BAM,2023-05-21 15:55,-116.8743,40.5990,1382.36,69.80,37.40,30.49,0.00,0.00,0.00,30.15,M,10.00,M,CLR,M,M,M,M,M,M,M,M,M,M,M,M,M,M,69.80,KBAM 211555Z AUTO 00000KT 10SM CLR 21/03 A3015 RMK AO1,M
HTH,2023-05-21 15:55,-118.6315,38.5448,1282.89,71.60,44.60,37.89,50.00,3.00,0.00,30.13,M,10.00,M,CLR,M,M,M,M,M,M,M,M,M,M,M,M,M,M,71.60,KHTH 211555Z AUTO 05003KT 10SM CLR 22/07 A3013 RMK A01,M
TMT,2023-05-21 15:55,-117.1971,39.4643,1749.34,62.80,42.80,47.94,0.00,0.00,0.00,30.21,M,10.00,M,CLR,M,M,M,M,M,M,M,M,M,M,M,M,M,M,62.80,KTMT 211555Z AUTO 00000KT 10SM CLR 17/06 A3021 RMK AO2 T01710060,M
10U,2023-05-21 15:55,-116.1876,41.9532,1637.00,66.20,42.80,42.57,200.00,5.00,0.00,30.17,M,10.00,M,CLR,M,M,M,M,M,M,M,M,M,M,M,M,M,M,66.20,K10U 211555Z AUTO 20005KT 10SM CLR 19/06 A3017 RMK AO2,M
LSV,2023-05-21 15:55,-115.0343,36.2362,570.00,83.00,47.30,28.87,30.00,11.00,0.00,29.98,1013.10,10.00,M,CLR,M,M,M,M,M,M,M,M,M,M,M,M,M,M,81.05,KLSV 211555Z AUTO 03011KT 10SM CLR 28/09 A2998 RMK AO2 SLP131 T02830085 $,M
INS,2023-05-21 15:55,-115.6733,36.5872,955.00,74.00,42.40,32.02,50.00,3.00,0.00,30.06,1013.70,10.00,M,CLR,M,M,M,M,M,M,M,M,M,M,M,M,M,M,74.10,KINS 211555Z AUTO 05003KT 10SM CLR 23/06 A3006 RMK AO2 SLP137 T02340058 $,M
HND,2023-05-21 15:56,-115.1344,35.9729,742.79,80.00,48.00,32.46,M,3.00,0.00,30.06,1016.90,10.00,M,CLR,M,M,M,M,M,M,M,M,M,M,M,M,M,M,79.42,KHND 211556Z VRB03KT 10SM CLR 27/09 A3006 RMK AO2 SLP169 T02670089,M
TPH,2023-05-21 15:56,-117.0904,38.0505,1654.00,M,M,M,M,M,0.00,30.20,M,M,M,M,M,M,M,M,M,M,M,M,M,M,M,M,M,M,M,KTPH 211556Z AUTO A3020 RMK AO2 SLPNO PWINO $,M
LAS,2023-05-21 15:56,-115.1634,36.0719,663.00,80.00,48.00,32.46,0.00,0.00,0.00,30.03,1014.50,10.00,M,FEW,FEW,M,M,8000.00,25000.00,M,M,M,M,M,M,M,M,M,79.42,KLAS 211556Z 00000KT 10SM FEW080 FEW250 27/09 A3003 RMK AO2 SLP145 T02670089,M
EKO,2023-05-21 15:56,-115.7860,40.8242,1367.00,66.00,40.00,38.32,80.00,6.00,0.00,30.17,1016.90,10.00,M,CLR,M,M,M,M,M,M,M,M,M,M,M,M,M,M,66.00,KEKO 211556Z AUTO 08006KT 10SM CLR 19/04 A3017 RMK AO2 SLP169 T01890044,M
WMC,2023-05-21 15:56,-117.8072,40.9019,1315.00,72.00,40.00,31.20,0.00,0.00,0.00,30.11,1015.00,10.00,M,CLR,M,M,M,M,M,M,M,M,M,M,M,M,M,M,72.00,KWMC 211556Z AUTO 00000KT 10SM CLR 22/04 A3011 RMK AO2 SLP150 T02220044,M
NFL,2023-05-21 15:56,-118.7010,39.4166,1199.00,73.00,47.00,39.43,M,3.00,0.00,30.10,1015.80,10.00,M,SCT,SCT,M,M,18000.00,22000.00,M,M,M,M,M,M,M,M,M,73.00,KNFL 211556Z VRB03KT 10SM SCT180 SCT220 23/08 A3010 RMK AO2 SLP158 T02280083,M
05U,2023-05-21 16:10,-116.0051,39.6042,1811.23,69.80,37.40,30.49,0.00,0.00,0.00,30.22,M,10.00,M,CLR,M,M,M,M,M,M,M,M,M,M,M,M,M,M,69.80,K05U 211610Z AUTO 00000KT 10SM CLR 21/03 A3022 RMK A01,M
BVU,2023-05-21 16:15,-114.8611,35.9475,671.00,82.40,46.40,28.36,M,5.00,0.00,30.02,M,10.00,M,CLR,M,M,M,M,M,M,M,M,M,M,M,M,M,M,80.64,KBVU 211615Z AUTO VRB05KT 10SM CLR 28/08 A3002 RMK AO2,M
CXP,2023-05-21 16:15,-119.7326,39.1923,1431.00,66.20,42.80,42.57,0.00,0.00,0.00,30.17,M,10.00,M,CLR,M,M,M,M,M,M,M,M,M,M,M,M,M,M,66.20,KCXP 211615Z AUTO 00000KT 10SM CLR 19/06 A3017 RMK AO2,M
RTS,2023-05-21 16:15,-119.8764,39.6682,1539.00,66.20,46.40,48.83,0.00,0.00,0.00,30.19,M,10.00,M,CLR,M,M,M,M,M,M,M,M,M,M,M,M,M,M,66.20,KRTS 211615Z AUTO 00000KT 10SM CLR 19/08 A3019 RMK AO2,M
MEV,2023-05-21 16:15,-119.7500,38.9963,1441.42,66.20,44.60,45.60,0.00,0.00,0.00,30.16,M,10.00,M,CLR,M,M,M,M,M,M,M,M,M,M,M,M,M,M,66.20,KMEV 211615Z AUTO 00000KT 10SM CLR 19/07 A3016 RMK AO2,M
BAM,2023-05-21 16:15,-116.8743,40.5990,1382.36,69.80,39.20,32.72,0.00,0.00,0.00,30.15,M,10.00,M,CLR,M,M,M,M,M,M,M,M,M,M,M,M,M,M,69.80,KBAM 211615Z AUTO 00000KT 10SM CLR 21/04 A3015 RMK AO1,M
HTH,2023-05-21 16:15,-118.6315,38.5448,1282.89,71.60,42.80,35.37,310.00,3.00,0.00,30.13,M,10.00,M,CLR,M,M,M,M,M,M,M,M,M,M,M,M,M,M,71.60,KHTH 211615Z AUTO 31003KT 10SM CLR 22/06 A3013 RMK A01,M
TMT,2023-05-21 16:15,-117.1971,39.4643,1749.34,65.30,42.40,43.25,0.00,0.00,0.00,30.21,M,10.00,M,CLR,M,M,M,M,M,M,M,M,M,M,M,M,M,M,65.30,KTMT 211615Z AUTO 00000KT 10SM CLR 19/06 A3021 RMK AO2 T01850058,M
10U,2023-05-21 16:15,-116.1876,41.9532,1637.00,68.00,42.80,40.00,M,4.00,0.00,30.17,M,10.00,M,CLR,M,M,M,M,M,M,M,M,M,M,M,M,M,M,68.00,K10U 211615Z AUTO VRB04KT 10SM CLR 20/06 A3017 RMK AO2,M
05U,2023-05-21 16:30,-116.0051,39.6042,1811.23,71.60,37.40,28.68,0.00,0.00,0.00,30.22,M,10.00,M,CLR,M,M,M,M,M,M,M,M,M,M,M,M,M,M,71.60,K05U 211630Z AUTO 00000KT 10SM CLR 22/03 A3022 RMK A01,M
BVU,2023-05-21 16:35,-114.8611,35.9475,671.00,82.40,46.40,28.36,70.00,8.00,0.00,30.01,M,10.00,M,CLR,M,M,M,M,M,M,M,M,M,M,M,M,M,M,80.64,KBVU 211635Z AUTO 07008KT 10SM CLR 28/08 A3001 RMK AO2,M
CXP,2023-05-21 16:35,-119.7326,39.1923,1431.00,68.00,42.80,40.00,0.00,0.00,0.00,30.17,M,10.00,M,CLR,M,M,M,M,M,M,M,M,M,M,M,M,M,M,68.00,KCXP 211635Z AUTO 00000KT 10SM CLR 20/06 A3017 RMK AO2,M
RTS,2023-05-21 16:35,-119.8764,39.6682,1539.00,68.00,46.40,45.88,290.00,4.00,0.00,30.18,M,10.00,M,CLR,M,M,M,M,M,M,M,M,M,M,M,M,M,M,68.00,KRTS 211635Z AUTO 29004KT 10SM CLR 20/08 A3018 RMK AO2,M
MEV,2023-05-21 16:35,-119.7500,38.9963,1441.42,68.00,44.60,42.85,240.00,3.00,0.00,30.15,M,10.00,M,CLR,M,M,M,M,M,M,M,M,M,M,M,M,M,M,68.00,KMEV 211635Z AUTO 24003KT 10SM CLR 20/07 A3015 RMK AO2,M
BAM,2023-05-21 16:35,-116.8743,40.5990,1382.36,71.60,41.00,33.00,40.00,3.00,0.00,30.14,M,10.00,M,CLR,M,M,M,M,M,M,M,M,M,M,M,M,M,M,71.60,KBAM 211635Z AUTO 04003KT 10SM CLR 22/05 A3014 RMK AO1,M
HTH,2023-05-21 16:35,-118.6315,38.5448,1282.89,73.40,42.80,33.29,0.00,0.00,0.00,30.13,M,10.00,M,CLR,M,M,M,M,M,M,M,M,M,M,M,M,M,M,73.40,KHTH 211635Z AUTO 00000KT 10SM CLR 23/06 A3013 RMK A01,M
TMT,2023-05-21 16:35,-117.1971,39.4643,1749.34,67.30,42.40,40.35,0.00,0.00,0.00,30.20,M,10.00,M,CLR,M,M,M,M,M,M,M,M,M,M,M,M,M,M,67.30,KTMT 211635Z AUTO 00000KT 10SM CLR 20/06 A3020 RMK AO2 T01960058,M
10U,2023-05-21 16:35,-116.1876,41.9532,1637.00,69.80,41.00,35.09,210.00,5.00,0.00,30.17,M,10.00,M,CLR,M,M,M,M,M,M,M,M,M,M,M,M,M,M,69.80,K10U 211635Z AUTO 21005KT 10SM CLR 21/05 A3017 RMK AO2,M
05U,2023-05-21 16:50,-116.0051,39.6042,1811.23,73.40,35.60,25.13,0.00,0.00,0.00,30.22,M,10.00,M,CLR,M,M,M,M,M,M,M,M,M,M,M,M,M,M,73.40,K05U 211650Z AUTO 00000KT 10SM CLR 23/02 A3022 RMK A01,M
P68,2023-05-21 16:53,-116.0056,39.6014,1993.00,71.00,36.00,27.60,M,3.00,0.00,30.19,1015.50,M,M,M,M,M,M,M,M,M,M,M,M,M,M,M,M,M,71.10,KP68 211653Z AUTO VRB03KT 22/02 A3019 RMK AO1 SLP155 T02170022,M
ELY,2023-05-21 16:53,-114.8453,39.2950,1909.00,70.00,39.00,32.24,0.00,0.00,0.00,30.22,1014.30,10.00,M,CLR,M,M,M,M,M,M,M,M,M,M,M,M,M,M,70.00,KELY 211653Z AUTO 00000KT 10SM CLR 21/04 A3022 RMK AO2 SLP143 T02110039,M
DRA,2023-05-21 16:53,-116.0278,36.6206,1009.00,79.00,47.00,32.29,0.00,0.00,0.00,30.05,1013.50,10.00,M,CLR,M,M,M,M,M,M,M,M,M,M,M,M,M,M,79.00,KDRA 211653Z AUTO 00000KT 10SM CLR 26/08 A3005 RMK AO2 SLP135 T02610083,M
VGT,2023-05-21 16:53,-115.1933,36.2111,667.00,84.00,47.00,27.44,120.00,4.00,0.00,30.01,1015.60,10.00,M,CLR,M,M,M,M,M,M,M,M,M,M,M,M,M,M,81.77,KVGT 211653Z 12004KT 10SM CLR 29/08 A3001 RMK AO2 SLP156 T02890083 $,M
LOL,2023-05-21 16:53,-118.5701,40.0684,1192.43,76.00,46.00,34.58,50.00,5.00,0.00,30.08,1014.60,9.00,M,CLR,M,M,M,M,M,M,M,M,M,M,M,M,M,M,75.90,KLOL 211653Z AUTO 05005KT 9SM CLR 24/08 A3008 RMK AO2 SLP146 T02440078,M
BVU,2023-05-21 16:55,-114.8611,35.9475,671.00,84.20,46.40,26.76,70.00,7.00,0.00,30.01,M,10.00,M,CLR,M,M,M,M,M,M,M,M,M,M,M,M,M,M,81.87,KBVU 211655Z AUTO 07007KT 10SM CLR 29/08 A3001 RMK AO2,M
CXP,2023-05-21 16:55,-119.7326,39.1923,1431.00,69.80,41.00,35.09,310.00,3.00,0.00,30.16,M,10.00,M,CLR,M,M,M,M,M,M,M,M,M,M,M,M,M,M,69.80,KCXP 211655Z AUTO 31003KT 10SM CLR 21/05 A3016 RMK AO2,M
RTS,2023-05-21 16:55,-119.8764,39.6682,1539.00,69.80,44.60,40.29,0.00,0.00,0.00,30.18,M,10.00,M,CLR,M,M,M,M,M,M,M,M,M,M,M,M,M,M,69.80,KRTS 211655Z AUTO 00000KT 10SM CLR 21/07 A3018 RMK AO2,M
MEV,2023-05-21 16:55,-119.7500,38.9963,1441.42,68.00,44.60,42.85,240.00,5.00,0.00,30.15,M,10.00,M,CLR,M,M,M,M,M,M,M,M,M,M,M,M,M,M,68.00,KMEV 211655Z AUTO 24005KT 10SM CLR 20/07 A3015 RMK AO2,M
BAM,2023-05-21 16:55,-116.8743,40.5990,1382.36,73.40,39.20,28.96,340.00,4.00,0.00,30.13,M,10.00,M,CLR,M,M,M,M,M,M,M,M,M,M,M,M,M,M,73.40,KBAM 211655Z AUTO 34004KT 10SM CLR 23/04 A3013 RMK AO1,M
HTH,2023-05-21 16:55,-118.6315,38.5448,1282.89,73.40,42.80,33.29,M,3.00,0.00,30.12,M,10.00,M,CLR,M,M,M,M,M,M,M,M,M,M,M,M,M,M,73.40,KHTH 211655Z AUTO VRB03KT 10SM CLR 23/06 A3012 RMK A01,M
TMT,2023-05-21 16:55,-117.1971,39.4643,1749.34,69.00,41.20,36.22,0.00,0.00,0.00,30.19,M,10.00,M,CLR,M,M,M,M,M,M,M,M,M,M,M,M,M,M,69.10,KTMT 211655Z AUTO 00000KT 10SM CLR 21/05 A3019 RMK AO2 LTG DSNT N T02060051,M
10U,2023-05-21 16:55,-116.1876,41.9532,1637.00,71.60,41.00,33.00,0.00,0.00,0.00,30.17,M,10.00,M,CLR,M,M,M,M,M,M,M,M,M,M,M,M,M,M,71.60,K10U 211655Z AUTO 00000KT 10SM CLR 22/05 A3017 RMK AO2,M
INS,2023-05-21 16:55,-115.6733,36.5872,955.00,79.20,41.40,26.01,0.00,0.00,0.00,30.05,1013.20,10.00,M,CLR,M,M,M,M,M,M,M,M,M,M,M,M,M,M,79.20,KINS 211655Z AUTO 00000KT 10SM CLR 26/05 A3005 RMK AO2 SLP132 T02620052 $,M
LSV,2023-05-21 16:55,-115.0343,36.2362,570.00,85.80,46.00,24.94,0.00,0.00,0.00,29.98,1013.00,10.00,M,CLR,M,M,M,M,M,M,M,M,M,M,M,M,M,M,83.02,KLSV 211655Z AUTO 00000KT 10SM CLR 30/08 A2998 RMK AO2 SLP130 T02990077 $,M
RNO,2023-05-21 16:55,-119.7711,39.4839,1341.00,69.00,45.00,41.90,0.00,0.00,0.00,30.14,1015.40,10.00,M,FEW,FEW,SCT,SCT,9000.00,12000.00,16000.00,20000.00,M,M,M,M,M,M,M,69.10,KRNO 211655Z 00000KT 10SM FEW090 FEW120 SCT160 SCT200 BKN250 21/07 A3014 RMK AO2 SLP154 T02060072,M
EKO,2023-05-21 16:56,-115.7860,40.8242,1367.00,72.00,41.00,32.56,0.00,0.00,0.00,30.15,1016.00,10.00,M,CLR,M,M,M,M,M,M,M,M,M,M,M,M,M,M,72.00,KEKO 211656Z AUTO 00000KT 10SM CLR 22/05 A3015 RMK AO2 SLP160 T02220050,M
WMC,2023-05-21 16:56,-117.8072,40.9019,1315.00,77.00,41.00,27.53,40.00,4.00,0.00,30.11,1014.90,10.00,M,CLR,M,M,M,M,M,M,M,M,M,M,M,M,M,M,77.00,KWMC 211656Z AUTO 04004KT 10SM CLR 25/05 A3011 RMK AO2 SLP149 T02500050,M
NFL,2023-05-21 16:56,-118.7010,39.4166,1199.00,77.00,46.00,33.34,270.00,5.00,0.00,30.09,1015.60,10.00,M,SCT,SCT,M,M,18000.00,22000.00,M,M,M,M,M,M,M,M,M,77.00,KNFL 211656Z 27005KT 10SM SCT180 SCT220 25/08 A3009 RMK AO2 SLP156 T02500078,M
TPH,2023-05-21 16:56,-117.0904,38.0505,1654.00,M,M,M,M,M,0.00,30.19,M,M,M,M,M,M,M,M,M,M,M,M,M,M,M,M,M,M,M,KTPH 211656Z AUTO A3019 RMK AO2 SLPNO PWINO $,M
HND,2023-05-21 16:56,-115.1344,35.9729,742.79,82.00,47.00,29.28,0.00,0.00,0.00,30.05,1016.60,10.00,M,CLR,M,M,M,M,M,M,M,M,M,M,M,M,M,M,80.43,KHND 211656Z 00000KT 10SM CLR 28/08 A3005 RMK AO2 SLP166 T02780083,M
LAS,2023-05-21 16:56,-115.1634,36.0719,663.00,83.00,47.00,28.43,60.00,6.00,0.00,30.02,1014.20,10.00,M,FEW,FEW,M,M,8000.00,25000.00,M,M,M,M,M,M,M,M,M,81.01,KLAS 211656Z 06006KT 10SM FEW080 FEW250 28/08 A3002 RMK AO2 SLP142 T02830083,M
05U,2023-05-21 17:10,-116.0051,39.6042,1811.23,73.40,35.60,25.13,0.00,0.00,0.00,30.21,M,10.00,M,CLR,M,M,M,M,M,M,M,M,M,M,M,M,M,M,73.40,K05U 211710Z AUTO 00000KT 10SM CLR 23/02 A3021 RMK A01,M
BVU,2023-05-21 17:15,-114.8611,35.9475,671.00,84.20,44.60,24.99,30.00,8.00,0.00,30.01,M,10.00,M,CLR,M,M,M,M,M,M,M,M,M,M,M,M,M,M,81.73,KBVU 211715Z AUTO 03008KT 020V080 10SM CLR 29/07 A3001 RMK AO2,M
CXP,2023-05-21 17:15,-119.7326,39.1923,1431.00,73.40,42.80,33.29,M,4.00,0.00,30.15,M,10.00,M,CLR,M,M,M,M,M,M,M,M,M,M,M,M,M,M,73.40,KCXP 211715Z AUTO VRB04KT 10SM CLR 23/06 A3015 RMK AO2,M
RTS,2023-05-21 17:15,-119.8764,39.6682,1539.00,71.60,44.60,37.89,340.00,4.00,0.00,30.18,M,10.00,M,CLR,M,M,M,M,M,M,M,M,M,M,M,M,M,M,71.60,KRTS 211715Z AUTO 34004KT 10SM CLR 22/07 A3018 RMK AO2,M
MEV,2023-05-21 17:15,-119.7500,38.9963,1441.42,69.80,44.60,40.29,0.00,0.00,0.00,30.14,M,10.00,M,CLR,M,M,M,M,M,M,M,M,M,M,M,M,M,M,69.80,KMEV 211715Z AUTO 00000KT 10SM CLR 21/07 A3014 RMK AO2,M
BAM,2023-05-21 17:15,-116.8743,40.5990,1382.36,73.40,39.20,28.96,330.00,4.00,0.00,30.13,M,10.00,M,CLR,M,M,M,M,M,M,M,M,M,M,M,M,M,M,73.40,KBAM 211715Z AUTO 33004KT 10SM CLR 23/04 A3013 RMK AO1,M
HTH,2023-05-21 17:15,-118.6315,38.5448,1282.89,75.20,42.80,31.34,0.00,0.00,0.00,30.11,M,10.00,M,CLR,M,M,M,M,M,M,M,M,M,M,M,M,M,M,75.20,KHTH 211715Z AUTO 00000KT 10SM CLR 24/06 A3011 RMK A01,M
10U,2023-05-21 17:15,-116.1876,41.9532,1637.00,73.40,41.00,31.05,M,3.00,0.00,30.16,M,10.00,M,CLR,M,M,M,M,M,M,M,M,M,M,M,M,M,M,73.40,K10U 211715Z AUTO VRB03KT 10SM CLR 23/05 A3016 RMK AO2,M
TMT,2023-05-21 17:15,-117.1971,39.4643,1749.34,69.80,40.00,33.88,340.00,4.00,0.00,30.19,M,10.00,M,CLR,M,M,M,M,M,M,M,M,M,M,M,M,M,M,69.80,KTMT 211715Z AUTO 34004KT 10SM CLR 21/05 A3019 RMK AO2 T02100045,M
05U,2023-05-21 17:30,-116.0051,39.6042,1811.23,75.20,35.60,23.66,M,4.00,0.00,30.21,M,10.00,M,CLR,M,M,M,M,M,M,M,M,M,M,M,M,M,M,75.20,K05U 211730Z AUTO VRB04KT 10SM CLR 24/02 A3021 RMK A01,M
BVU,2023-05-21 17:35,-114.8611,35.9475,671.00,84.20,44.60,24.99,40.00,7.00,0.00,30.00,M,10.00,M,CLR,M,M,M,M,M,M,M,M,M,M,M,M,M,M,81.73,KBVU 211735Z AUTO 04007KT 10SM CLR 29/07 A3000 RMK AO2,M
CXP,2023-05-21 17:35,-119.7326,39.1923,1431.00,73.40,41.00,31.05,M,3.00,0.00,30.15,M,10.00,M,CLR,M,M,M,M,M,M,M,M,M,M,M,M,M,M,73.40,KCXP 211735Z AUTO VRB03KT 10SM CLR 23/05 A3015 RMK AO2,M
RTS,2023-05-21 17:35,-119.8764,39.6682,1539.00,71.60,44.60,37.89,0.00,0.00,0.00,30.17,M,10.00,M,CLR,M,M,M,M,M,M,M,M,M,M,M,M,M,M,71.60,KRTS 211735Z AUTO 00000KT 10SM CLR 22/07 A3017 RMK AO2,M
MEV,2023-05-21 17:35,-119.7500,38.9963,1441.42,71.60,44.60,37.89,0.00,0.00,0.00,30.14,M,10.00,M,CLR,M,M,M,M,M,M,M,M,M,M,M,M,M,M,71.60,KMEV 211735Z AUTO 00000KT 10SM CLR 22/07 A3014 RMK AO2,M
BAM,2023-05-21 17:35,-116.8743,40.5990,1382.36,75.20,41.00,29.23,310.00,3.00,0.00,30.13,M,10.00,M,CLR,M,M,M,M,M,M,M,M,M,M,M,M,M,M,75.20,KBAM 211735Z AUTO 31003KT 10SM CLR 24/05 A3013 RMK AO1,M
HTH,2023-05-21 17:35,-118.6315,38.5448,1282.89,77.00,41.00,27.53,M,4.00,0.00,30.11,M,10.00,M,CLR,M,M,M,M,M,M,M,M,M,M,M,M,M,M,77.00,KHTH 211735Z AUTO VRB04KT 10SM CLR 25/05 A3011 RMK A01,M
10U,2023-05-21 17:35,-116.1876,41.9532,1637.00,75.20,39.20,27.26,M,4.00,0.00,30.16,M,10.00,M,CLR,M,M,M,M,M,M,M,M,M,M,M,M,M,M,75.20,K10U 211735Z AUTO VRB04KT 10SM CLR 24/04 A3016 RMK AO2,M
TMT,2023-05-21 17:35,-117.1971,39.4643,1749.34,71.00,40.00,32.16,290.00,5.00,0.00,30.18,M,10.00,M,CLR,M,M,M,M,M,M,M,M,M,M,M,M,M,M,71.10,KTMT 211735Z AUTO 29005KT 10SM CLR 22/04 A3018 RMK AO2 T02170044,M
05U,2023-05-21 17:50,-116.0051,39.6042,1811.23,77.00,35.60,22.28,M,4.00,0.00,30.20,M,10.00,M,CLR,M,M,M,M,M,M,M,M,M,M,M,M,M,M,77.00,K05U 211750Z AUTO VRB04KT 10SM CLR 25/02 A3020 RMK A01,M
P68,2023-05-21 17:53,-116.0056,39.6014,1993.00,74.00,34.00,23.19,M,4.00,0.00,30.17,1015.00,M,M,M,M,M,M,M,M,M,M,M,M,M,M,M,M,M,73.90,KP68 211753Z AUTO VRB04KT 23/01 A3017 RMK AO1 SLP150 T02330011 10233 20067 58011,M
VGT,2023-05-21 17:53,-115.1933,36.2111,667.00,86.00,46.00,24.88,M,5.00,0.00,30.00,1015.10,10.00,M,CLR,M,M,M,M,M,M,M,M,M,M,M,M,M,M,83.19,KVGT 211753Z VRB05KT 10SM CLR 30/08 A3000 RMK AO2 SLP151 T03000078 10306 20222 57008 $,M
LOL,2023-05-21 17:53,-118.5701,40.0684,1192.43,80.00,45.00,28.99,50.00,6.00,0.00,30.07,1014.00,10.00,M,CLR,M,M,M,M,M,M,M,M,M,M,M,M,M,M,79.18,KLOL 211753Z AUTO 05006KT 10SM CLR 27/07 A3007 RMK AO2 SLP140 T02670072 10267 20133 58009,M
DRA,2023-05-21 17:53,-116.0278,36.6206,1009.00,82.00,47.00,29.28,0.00,0.00,0.00,30.05,1013.10,10.00,M,CLR,M,M,M,M,M,M,M,M,M,M,M,M,M,M,80.43,KDRA 211753Z AUTO 00000KT 10SM CLR 28/08 A3005 RMK AO2 SLP131 T02780083 10278 20139 56007,M
ELY,2023-05-21 17:53,-114.8453,39.2950,1909.00,72.00,38.00,28.85,0.00,0.00,0.00,30.20,1014.00,10.00,M,CLR,M,M,M,M,M,M,M,M,M,M,M,M,M,M,72.00,KELY 211753Z AUTO 00000KT 10SM CLR 22/03 A3020 RMK AO2 SLP140 T02220033 10228 20044 58012,M
BVU,2023-05-21 17:55,-114.8611,35.9475,671.00,86.00,42.80,22.02,M,4.00,0.00,30.00,M,10.00,11.00,CLR,M,M,M,M,M,M,M,M,M,M,M,M,M,M,82.95,KBVU 211755Z AUTO VRB04G11KT 10SM CLR 30/06 A3000 RMK AO2,M
CXP,2023-05-21 17:55,-119.7326,39.1923,1431.00,75.20,42.80,31.34,0.00,0.00,0.00,30.14,M,10.00,M,CLR,M,M,M,M,M,M,M,M,M,M,M,M,M,M,75.20,KCXP 211755Z AUTO 00000KT 10SM CLR 24/06 A3014 RMK AO2,M
RTS,2023-05-21 17:55,-119.8764,39.6682,1539.00,73.40,44.60,35.66,0.00,0.00,0.00,30.17,M,10.00,M,CLR,M,M,M,M,M,M,M,M,M,M,M,M,M,M,73.40,KRTS 211755Z AUTO 00000KT 10SM CLR 23/07 A3017 RMK AO2,M
MEV,2023-05-21 17:55,-119.7500,38.9963,1441.42,75.20,42.80,31.34,0.00,0.00,0.00,30.13,M,10.00,M,CLR,M,M,M,M,M,M,M,M,M,M,M,M,M,M,75.20,KMEV 211755Z AUTO 00000KT 10SM CLR 24/06 A3013 RMK AO2,M
BAM,2023-05-21 17:55,-116.8743,40.5990,1382.36,77.00,39.20,25.67,10.00,3.00,0.00,30.12,M,10.00,M,CLR,M,M,M,M,M,M,M,M,M,M,M,M,M,M,77.00,KBAM 211755Z AUTO 01003KT 10SM CLR 25/04 A3012 RMK AO1,M
HTH,2023-05-21 17:55,-118.6315,38.5448,1282.89,77.00,42.80,29.51,M,5.00,0.00,30.11,M,10.00,M,CLR,M,M,M,M,M,M,M,M,M,M,M,M,M,M,77.00,KHTH 211755Z AUTO VRB05KT 10SM CLR 25/06 A3011 RMK A01,M
TMT,2023-05-21 17:55,-117.1971,39.4643,1749.34,73.00,39.60,29.81,0.00,0.00,0.00,30.18,M,10.00,M,CLR,M,M,M,M,M,M,M,M,M,M,M,M,M,M,73.00,KTMT 211755Z AUTO 00000KT 10SM CLR 23/04 A3018 RMK AO2 T02280042 10230 20055,M
10U,2023-05-21 17:55,-116.1876,41.9532,1637.00,77.00,37.40,23.93,230.00,6.00,0.00,30.15,M,10.00,M,CLR,M,M,M,M,M,M,M,M,M,M,M,M,M,M,77.00,K10U 211755Z AUTO 23006KT 10SM CLR 25/03 A3015 RMK AO2,M
LSV,2023-05-21 17:55,-115.0343,36.2362,570.00,91.20,46.00,21.02,0.00,0.00,0.00,29.97,1012.50,10.00,M,CLR,M,M,M,M,M,M,M,M,M,M,M,M,M,M,87.63,KLSV 211755Z AUTO 00000KT 10SM CLR 33/08 A2997 RMK AO2 SLP125 T03290077 10329 20208 57008 $,M
RNO,2023-05-21 17:55,-119.7711,39.4839,1341.00,76.00,45.00,33.30,M,4.00,0.00,30.12,1014.60,10.00,M,FEW,SCT,SCT,BKN,9000.00,12000.00,16000.00,20000.00,M,M,M,M,M,M,M,75.90,KRNO 211755Z VRB04KT 10SM FEW090 SCT120 SCT160 BKN200 BKN250 24/07 A3012 RMK AO2 SLP146 ACC N THRU E AND S T02440072 10250 20144 58008,M
INS,2023-05-21 17:55,-115.6733,36.5872,955.00,83.00,39.00,21.00,150.00,4.00,0.00,30.04,1012.70,10.00,M,CLR,M,M,M,M,M,M,M,M,M,M,M,M,M,M,80.53,KINS 211755Z AUTO 15004KT 10SM CLR 28/04 A3004 RMK AO2 SLP127 T02830039 10283 20155 57011 $,M
WMC,2023-05-21 17:56,-117.8072,40.9019,1315.00,80.00,43.00,26.85,M,6.00,0.00,30.10,1014.00,10.00,M,CLR,M,M,M,M,M,M,M,M,M,M,M,M,M,M,79.04,KWMC 211756Z AUTO VRB06KT 10SM CLR 27/06 A3010 RMK AO2 SLP140 T02670061 10267 20094 58006,M
NFL,2023-05-21 17:56,-118.7010,39.4166,1199.00,80.00,43.00,26.85,M,3.00,0.00,30.07,1015.20,10.00,M,FEW,SCT,SCT,M,10000.00,18000.00,22000.00,M,M,M,M,M,M,M,M,79.04,KNFL 211756Z VRB03KT 10SM FEW100 SCT180 SCT220 27/06 A3007 RMK AO2 SLP152 T02670061 10267 20161 58009,M
TPH,2023-05-21 17:56,-117.0904,38.0505,1654.00,M,M,M,M,M,0.00,30.18,M,M,M,M,M,M,M,M,M,M,M,M,M,M,M,M,M,M,M,KTPH 211756Z AUTO A3018 RMK AO2 SLPNO 57009 PWINO $,M
LAS,2023-05-21 17:56,-115.1634,36.0719,663.00,86.00,45.00,23.95,90.00,5.00,0.00,30.01,1013.80,10.00,M,FEW,FEW,M,M,8000.00,25000.00,M,M,M,M,M,M,M,M,M,83.10,KLAS 211756Z 09005KT 10SM FEW080 FEW250 30/07 A3001 RMK AO2 SLP138 T03000072 10300 20228 58008,M
EKO,2023-05-21 17:56,-115.7860,40.8242,1367.00,76.00,42.00,29.80,M,4.00,0.00,30.14,1015.60,10.00,M,CLR,M,M,M,M,M,M,M,M,M,M,M,M,M,M,75.90,KEKO 211756Z AUTO VRB04KT 10SM CLR 24/06 A3014 RMK AO2 SLP156 T02440056 10244 20067 57011,M
HND,2023-05-21 17:56,-115.1344,35.9729,742.79,85.00,47.00,26.66,M,5.00,0.00,30.04,1016.20,10.00,M,CLR,M,M,M,M,M,M,M,M,M,M,M,M,M,M,82.42,KHND 211756Z VRB05KT 10SM CLR 29/08 A3004 RMK AO2 SLP162 T02940083 10294 20194 58009,M
05U,2023-05-21 18:10,-116.0051,39.6042,1811.23,77.00,33.80,20.74,M,4.00,0.00,30.20,M,10.00,M,CLR,M,M,M,M,M,M,M,M,M,M,M,M,M,M,77.00,K05U 211810Z AUTO VRB04KT 10SM CLR 25/01 A3020 RMK A01,M
BVU,2023-05-21 18:15,-114.8611,35.9475,671.00,86.00,42.80,22.02,M,5.00,0.00,30.00,M,10.00,M,CLR,M,M,M,M,M,M,M,M,M,M,M,M,M,M,82.95,KBVU 211815Z AUTO VRB05KT 10SM CLR 30/06 A3000 RMK AO2,M
CXP,2023-05-21 18:15,-119.7326,39.1923,1431.00,78.80,41.00,25.95,0.00,0.00,0.00,30.14,M,10.00,M,CLR,M,M,M,M,M,M,M,M,M,M,M,M,M,M,78.80,KCXP 211815Z AUTO 00000KT 10SM CLR 26/05 A3014 RMK AO2,M
RTS,2023-05-21 18:15,-119.8764,39.6682,1539.00,75.20,42.80,31.34,80.00,4.00,0.00,30.16,M,10.00,M,CLR,M,M,M,M,M,M,M,M,M,M,M,M,M,M,75.20,KRTS 211815Z AUTO 08004KT 10SM CLR 24/06 A3016 RMK AO2,M
MEV,2023-05-21 18:15,-119.7500,38.9963,1441.42,75.20,44.60,33.57,120.00,5.00,0.00,30.12,M,10.00,M,CLR,M,M,M,M,M,M,M,M,M,M,M,M,M,M,75.20,KMEV 211815Z AUTO 12005KT 10SM CLR 24/07 A3012 RMK AO2,M
BAM,2023-05-21 18:15,-116.8743,40.5990,1382.36,78.80,39.20,24.19,0.00,0.00,0.00,30.11,M,10.00,M,CLR,M,M,M,M,M,M,M,M,M,M,M,M,M,M,78.80,KBAM 211815Z AUTO 00000KT 10SM CLR 26/04 A3011 RMK AO1,M
HTH,2023-05-21 18:15,-118.6315,38.5448,1282.89,78.80,41.00,25.95,340.00,8.00,0.00,30.10,M,10.00,M,CLR,M,M,M,M,M,M,M,M,M,M,M,M,M,M,78.80,KHTH 211815Z AUTO 34008KT 10SM CLR 26/05 A3010 RMK A01,M
10U,2023-05-21 18:15,-116.1876,41.9532,1637.00,75.20,33.80,22.02,0.00,0.00,0.00,30.15,M,10.00,M,CLR,M,M,M,M,M,M,M,M,M,M,M,M,M,M,75.20,K10U 211815Z AUTO 00000KT 10SM CLR 24/01 A3015 RMK AO2,M
TMT,2023-05-21 18:15,-117.1971,39.4643,1749.34,74.00,38.00,27.09,350.00,7.00,0.00,30.17,M,10.00,M,CLR,M,M,M,M,M,M,M,M,M,M,M,M,M,M,74.10,KTMT 211815Z AUTO 35007KT 10SM CLR 23/03 A3017 RMK AO2 T02340034,M
05U,2023-05-21 18:30,-116.0051,39.6042,1811.23,77.00,33.80,20.74,10.00,6.00,0.00,30.19,M,10.00,M,CLR,M,M,M,M,M,M,M,M,M,M,M,M,M,M,77.00,K05U 211830Z AUTO 01006KT 10SM CLR 25/01 A3019 RMK A01,M
BVU,2023-05-21 18:35,-114.8611,35.9475,671.00,86.00,41.00,20.54,M,5.00,0.00,29.99,M,10.00,11.00,CLR,M,M,M,M,M,M,M,M,M,M,M,M,M,M,82.86,KBVU 211835Z AUTO VRB05G11KT 10SM CLR 30/05 A2999 RMK AO2,M
CXP,2023-05-21 18:35,-119.7326,39.1923,1431.00,78.80,39.20,24.19,M,4.00,0.00,30.13,M,10.00,M,CLR,M,M,M,M,M,M,M,M,M,M,M,M,M,M,78.80,KCXP 211835Z AUTO VRB04KT 10SM CLR 26/04 A3013 RMK AO2,M
RTS,2023-05-21 18:35,-119.8764,39.6682,1539.00,75.20,42.80,31.34,0.00,0.00,0.00,30.15,M,10.00,M,CLR,M,M,M,M,M,M,M,M,M,M,M,M,M,M,75.20,KRTS 211835Z AUTO 00000KT 10SM CLR 24/06 A3015 RMK AO2,M
MEV,2023-05-21 18:35,-119.7500,38.9963,1441.42,77.00,42.80,29.51,0.00,0.00,0.00,30.12,M,10.00,M,CLR,M,M,M,M,M,M,M,M,M,M,M,M,M,M,77.00,KMEV 211835Z AUTO 00000KT 10SM CLR 25/06 A3012 RMK AO2,M
BAM,2023-05-21 18:35,-116.8743,40.5990,1382.36,80.60,37.40,21.25,0.00,0.00,0.00,30.11,M,10.00,M,CLR,M,M,M,M,M,M,M,M,M,M,M,M,M,M,79.02,KBAM 211835Z AUTO 00000KT 10SM CLR 27/03 A3011 RMK AO1,M
HTH,2023-05-21 18:35,-118.6315,38.5448,1282.89,78.80,41.00,25.95,M,6.00,0.00,30.09,M,10.00,M,CLR,M,M,M,M,M,M,M,M,M,M,M,M,M,M,78.80,KHTH 211835Z AUTO VRB06KT 10SM CLR 26/05 A3009 RMK A01,M
TMT,2023-05-21 18:35,-117.1971,39.4643,1749.34,76.80,34.50,21.47,310.00,7.00,0.00,30.16,M,10.00,M,CLR,M,M,M,M,M,M,M,M,M,M,M,M,M,M,76.80,KTMT 211835Z AUTO 31007KT 10SM CLR 25/01 A3016 RMK AO2 T02490014,M
10U,2023-05-21 18:35,-116.1876,41.9532,1637.00,77.00,35.60,22.28,220.00,8.00,0.00,30.14,M,10.00,M,CLR,M,M,M,M,M,M,M,M,M,M,M,M,M,M,77.00,K10U 211835Z AUTO 22008KT 10SM CLR 25/02 A3014 RMK AO2,M
05U,2023-05-21 18:50,-116.0051,39.6042,1811.23,78.80,35.60,21.00,10.00,8.00,0.00,30.19,M,10.00,M,CLR,M,M,M,M,M,M,M,M,M,M,M,M,M,M,78.80,K05U 211850Z AUTO 01008KT 10SM CLR 26/02 A3019 RMK A01,M
DRA,2023-05-21 18:53,-116.0278,36.6206,1009.00,84.00,46.00,26.52,M,3.00,0.00,30.03,1012.50,10.00,M,CLR,M,M,M,M,M,M,M,M,M,M,M,M,M,M,81.69,KDRA 211853Z AUTO VRB03KT 10SM CLR 29/08 A3003 RMK AO2 SLP125 T02890078,M
VGT,2023-05-21 18:53,-115.1933,36.2111,667.00,89.00,45.00,21.70,180.00,6.00,0.00,29.98,1014.20,10.00,M,CLR,M,M,M,M,M,M,M,M,M,M,M,M,M,M,85.66,KVGT 211853Z 18006KT 10SM CLR 32/07 A2998 RMK AO2 SLP142 T03170072 $,M
LOL,2023-05-21 18:53,-118.5701,40.0684,1192.43,84.00,39.00,20.27,30.00,7.00,0.00,30.05,1013.20,10.00,M,CLR,M,M,M,M,M,M,M,M,M,M,M,M,M,M,81.29,KLOL 211853Z AUTO 03007KT 10SM CLR 29/04 A3005 RMK AO2 SLP132 T02890039,M
P68,2023-05-21 18:53,-116.0056,39.6014,1993.00,77.00,35.00,21.85,360.00,6.00,0.00,30.16,1014.10,M,14.00,M,M,M,M,M,M,M,M,M,M,M,M,M,M,M,77.00,KP68 211853Z AUTO 36006G14KT 25/02 A3016 RMK AO1 SLP141 T02500017,M
ELY,2023-05-21 18:53,-114.8453,39.2950,1909.00,75.00,35.00,23.35,0.00,0.00,0.00,30.18,1013.60,10.00,M,FEW,M,M,M,9000.00,M,M,M,M,M,M,M,M,M,M,75.00,KELY 211853Z AUTO 00000KT 10SM FEW090 24/02 A3018 RMK AO2 SLP136 T02390017,M
BVU,2023-05-21 18:55,-114.8611,35.9475,671.00,87.80,41.00,19.40,50.00,6.00,0.00,29.98,M,10.00,M,CLR,M,M,M,M,M,M,M,M,M,M,M,M,M,M,84.30,KBVU 211855Z AUTO 05006KT 10SM CLR 31/05 A2998 RMK AO2,M
CXP,2023-05-21 18:55,-119.7326,39.1923,1431.00,80.60,39.20,22.81,0.00,0.00,0.00,30.12,M,10.00,M,CLR,M,M,M,M,M,M,M,M,M,M,M,M,M,M,79.10,KCXP 211855Z AUTO 00000KT 10SM CLR 27/04 A3012 RMK AO2,M
RNO,2023-05-21 18:55,-119.7711,39.4839,1341.00,80.00,45.00,28.99,130.00,6.00,0.00,30.10,1013.40,10.00,M,FEW,FEW,SCT,SCT,9000.00,12000.00,16000.00,20000.00,M,M,M,M,M,M,M,79.18,KRNO 211855Z 13006KT 10SM FEW090 FEW120 SCT160 SCT200 BKN250 27/07 A3010 RMK AO2 SLP134 TCU DSNT SE THRU S AND SW T02670072,M
RTS,2023-05-21 18:55,-119.8764,39.6682,1539.00,75.20,42.80,31.34,M,4.00,0.00,30.15,M,10.00,11.00,CLR,M,M,M,M,M,M,M,M,M,M,M,M,M,M,75.20,KRTS 211855Z AUTO VRB04G11KT 10SM CLR 24/06 A3015 RMK AO2,M
MEV,2023-05-21 18:55,-119.7500,38.9963,1441.42,78.80,44.60,29.79,M,5.00,0.00,30.11,M,10.00,M,CLR,M,M,M,M,M,M,M,M,M,M,M,M,M,M,78.80,KMEV 211855Z AUTO VRB05KT 10SM CLR 26/07 A3011 RMK AO2,M
BAM,2023-05-21 18:55,-116.8743,40.5990,1382.36,80.60,37.40,21.25,310.00,3.00,0.00,30.09,M,10.00,M,CLR,M,M,M,M,M,M,M,M,M,M,M,M,M,M,79.02,KBAM 211855Z AUTO 31003KT 10SM CLR 27/03 A3009 RMK AO1,M
HTH,2023-05-21 18:55,-118.6315,38.5448,1282.89,80.60,41.00,24.46,30.00,7.00,0.00,30.08,M,10.00,M,CLR,M,M,M,M,M,M,M,M,M,M,M,M,M,M,79.20,KHTH 211855Z AUTO 03007KT 340V090 10SM CLR 27/05 A3008 RMK A01,M
TMT,2023-05-21 18:55,-117.1971,39.4643,1749.34,77.50,31.30,18.45,340.00,3.00,0.00,30.15,M,10.00,M,CLR,M,M,M,M,M,M,M,M,M,M,M,M,M,M,77.50,KTMT 211855Z AUTO 34003KT 10SM CLR 25/00 A3015 RMK AO2 T02531004,M
10U,2023-05-21 18:55,-116.1876,41.9532,1637.00,77.00,33.80,20.74,120.00,5.00,0.00,30.14,M,10.00,M,CLR,M,M,M,M,M,M,M,M,M,M,M,M,M,M,77.00,K10U 211855Z AUTO 12005KT 10SM CLR 25/01 A3014 RMK AO2,M
INS,2023-05-21 18:55,-115.6733,36.5872,955.00,85.30,38.30,18.91,70.00,9.00,0.00,30.02,M,10.00,M,CLR,M,M,M,M,M,M,M,M,M,M,M,M,M,M,82.22,KINS 211855Z AUTO 07009KT 10SM CLR 30/04 A3002 RMK AO2 SLPNO T02960035 $,M
LSV,2023-05-21 18:55,-115.0343,36.2362,570.00,94.30,45.70,18.95,120.00,3.00,0.00,29.94,1011.50,10.00,M,CLR,M,M,M,M,M,M,M,M,M,M,M,M,M,M,90.52,KLSV 211855Z AUTO 12003KT 10SM CLR 35/08 A2994 RMK AO2 SLP115 T03460076 $,M
EKO,2023-05-21 18:56,-115.7860,40.8242,1367.00,79.00,32.00,18.06,350.00,3.00,0.00,30.12,1015.00,10.00,M,CLR,M,M,M,M,M,M,M,M,M,M,M,M,M,M,79.00,KEKO 211856Z AUTO 35003KT 10SM CLR 26/00 A3012 RMK AO2 SLP150 T02610000,M
WMC,2023-05-21 18:56,-117.8072,40.9019,1315.00,83.00,41.00,22.70,M,M,0.00,30.08,1013.60,10.00,M,CLR,M,M,M,M,M,M,M,M,M,M,M,M,M,M,80.62,KWMC 211856Z AUTO 10SM CLR 28/05 A3008 RMK AO2 SLP136 T02830050,M
HND,2023-05-21 18:56,-115.1344,35.9729,742.79,89.00,46.00,22.54,40.00,7.00,0.00,30.02,1015.40,10.00,M,CLR,M,M,M,M,M,M,M,M,M,M,M,M,M,M,85.76,KHND 211856Z 04007KT 10SM CLR 32/08 A3002 RMK AO2 SLP154 T03170078,M
TPH,2023-05-21 18:56,-117.0904,38.0505,1654.00,M,M,M,M,M,0.00,30.15,M,M,M,M,M,M,M,M,M,M,M,M,M,M,M,M,M,M,M,KTPH 211856Z AUTO A3015 RMK AO2 SLPNO PWINO $,M
LAS,2023-05-21 18:56,-115.1634,36.0719,663.00,88.00,45.00,22.47,80.00,5.00,0.00,29.99,1013.10,10.00,M,FEW,FEW,M,M,8000.00,25000.00,M,M,M,M,M,M,M,M,M,84.72,KLAS 211856Z 08005KT 10SM FEW080 FEW250 31/07 A2999 RMK AO2 SLP131 TCU S AND W T03110072,M
NFL,2023-05-21 18:56,-118.7010,39.4166,1199.00,84.00,42.00,22.85,M,5.00,0.00,30.06,1014.70,10.00,M,FEW,SCT,SCT,M,10000.00,18000.00,22000.00,M,M,M,M,M,M,M,M,81.43,KNFL 211856Z VRB05KT 10SM FEW100 SCT180 SCT220 29/06 A3006 RMK AO2 SLP147 CB DSNT SE TCU DSNT NW AND SE T02890056,M
05U,2023-05-21 19:10,-116.0051,39.6042,1811.23,78.80,35.60,21.00,10.00,5.00,0.00,30.18,M,10.00,M,CLR,M,M,M,M,M,M,M,M,M,M,M,M,M,M,78.80,K05U 211910Z AUTO 01005KT 10SM CLR 26/02 A3018 RMK A01,M
BVU,2023-05-21 19:15,-114.8611,35.9475,671.00,87.80,41.00,19.40,10.00,7.00,0.00,29.97,M,10.00,M,CLR,M,M,M,M,M,M,M,M,M,M,M,M,M,M,84.30,KBVU 211915Z AUTO 01007KT 10SM CLR 31/05 A2997 RMK AO2,M
CXP,2023-05-21 19:15,-119.7326,39.1923,1431.00,80.60,39.20,22.81,M,5.00,0.00,30.11,M,10.00,M,CLR,M,M,M,M,M,M,M,M,M,M,M,M,M,M,79.10,KCXP 211915Z AUTO VRB05KT 10SM CLR 27/04 A3011 RMK AO2,M
RTS,2023-05-21 19:15,-119.8764,39.6682,1539.00,77.00,42.80,29.51,M,3.00,0.00,30.14,M,10.00,M,CLR,M,M,M,M,M,M,M,M,M,M,M,M,M,M,77.00,KRTS 211915Z AUTO VRB03KT 10SM CLR 25/06 A3014 RMK AO2,M
MEV,2023-05-21 19:15,-119.7500,38.9963,1441.42,80.60,39.20,22.81,250.00,7.00,0.00,30.10,M,10.00,M,CLR,M,M,M,M,M,M,M,M,M,M,M,M,M,M,79.10,KMEV 211915Z AUTO 25007KT 10SM CLR 27/04 A3010 RMK AO2,M
BAM,2023-05-21 19:15,-116.8743,40.5990,1382.36,82.40,39.20,21.51,20.00,5.00,0.00,30.09,M,10.00,M,CLR,M,M,M,M,M,M,M,M,M,M,M,M,M,M,80.21,KBAM 211915Z AUTO 02005KT 10SM CLR 28/04 A3009 RMK AO1,M
HTH,2023-05-21 19:15,-118.6315,38.5448,1282.89,80.60,39.20,22.81,330.00,7.00,0.00,30.07,M,10.00,M,CLR,M,M,M,M,M,M,M,M,M,M,M,M,M,M,79.10,KHTH 211915Z AUTO 33007KT 10SM CLR 27/04 A3007 RMK A01,M
TMT,2023-05-21 19:15,-117.1971,39.4643,1749.34,78.40,32.20,18.57,350.00,5.00,0.00,30.15,M,10.00,M,CLR,M,M,M,M,M,M,M,M,M,M,M,M,M,M,78.40,KTMT 211915Z AUTO 35005KT 10SM CLR 26/00 A3015 RMK AO2 T02580001,M
10U,2023-05-21 19:15,-116.1876,41.9532,1637.00,77.00,33.80,20.74,M,4.00,0.00,30.13,M,10.00,M,CLR,M,M,M,M,M,M,M,M,M,M,M,M,M,M,77.00,K10U 211915Z AUTO VRB04KT 10SM CLR 25/01 A3013 RMK AO2,M
CXP,2023-05-21 19:30,-119.7326,39.1923,1431.00,82.40,41.00,23.07,340.00,7.00,0.00,30.11,M,10.00,M,CLR,M,M,M,M,M,M,M,M,M,M,M,M,M,M,80.29,KCXP 211930Z AUTO 34007KT 10SM CLR 28/05 A3011 RMK AO2,M
05U,2023-05-21 19:30,-116.0051,39.6042,1811.23,78.80,32.00,18.18,M,5.00,0.00,30.17,M,10.00,11.00,CLR,M,M,M,M,M,M,M,M,M,M,M,M,M,M,78.80,K05U 211930Z AUTO VRB05G11KT 10SM CLR 26/00 A3017 RMK A01,M
BVU,2023-05-21 19:35,-114.8611,35.9475,671.00,89.60,39.20,17.09,0.00,0.00,0.00,29.97,M,10.00,M,CLR,M,M,M,M,M,M,M,M,M,M,M,M,M,M,85.73,KBVU 211935Z AUTO 00000KT 10SM CLR 32/04 A2997 RMK AO2,M
RTS,2023-05-21 19:35,-119.8764,39.6682,1539.00,77.00,42.80,29.51,0.00,0.00,0.00,30.13,M,10.00,M,CLR,M,M,M,M,M,M,M,M,M,M,M,M,M,M,77.00,KRTS 211935Z AUTO 00000KT 10SM CLR 25/06 A3013 RMK AO2,M
MEV,2023-05-21 19:35,-119.7500,38.9963,1441.42,80.60,41.00,24.46,M,5.00,0.00,30.10,M,10.00,M,CLR,M,M,M,M,M,M,M,M,M,M,M,M,M,M,79.20,KMEV 211935Z AUTO VRB05KT 10SM CLR 27/05 A3010 RMK AO2,M
BAM,2023-05-21 19:35,-116.8743,40.5990,1382.36,82.40,37.40,20.04,40.00,5.00,0.00,30.08,M,10.00,M,CLR,M,M,M,M,M,M,M,M,M,M,M,M,M,M,80.14,KBAM 211935Z AUTO 04005KT 10SM CLR 28/03 A3008 RMK AO1,M
HTH,2023-05-21 19:35,-118.6315,38.5448,1282.89,80.60,37.40,21.25,340.00,6.00,0.00,30.06,M,10.00,13.00,CLR,M,M,M,M,M,M,M,M,M,M,M,M,M,M,79.02,KHTH 211935Z AUTO 34006G13KT 10SM CLR 27/03 A3006 RMK A01,M
TMT,2023-05-21 19:35,-117.1971,39.4643,1749.34,78.60,32.20,18.45,320.00,5.00,0.00,30.14,M,10.00,M,CLR,M,M,M,M,M,M,M,M,M,M,M,M,M,M,78.60,KTMT 211935Z AUTO 32005KT 10SM CLR 26/00 A3014 RMK AO2 LTG DSNT SW T02590001,M
10U,2023-05-21 19:35,-116.1876,41.9532,1637.00,77.00,33.80,20.74,M,4.00,0.00,30.13,M,10.00,M,CLR,M,M,M,M,M,M,M,M,M,M,M,M,M,M,77.00,K10U 211935Z AUTO VRB04KT 10SM CLR 25/01 A3013 RMK AO2,M
05U,2023-05-21 19:50,-116.0051,39.6042,1811.23,78.80,26.60,14.59,20.00,6.00,0.00,30.17,M,10.00,14.00,CLR,M,M,M,M,M,M,M,M,M,M,M,M,M,M,78.80,K05U 211950Z AUTO 02006G14KT 10SM CLR 26/M03 A3017 RMK A01,M
P68,2023-05-21 19:53,-116.0056,39.6014,1993.00,79.00,26.10,14.19,M,M,0.00,30.14,1013.10,M,M,M,M,M,M,M,M,M,M,M,M,M,M,M,M,M,79.00,KP68 211953Z AUTO 26/M03 A3014 RMK AO1 SLP131 T02611033,M
DRA,2023-05-21 19:53,-116.0278,36.6206,1009.00,87.00,45.00,23.12,M,4.00,0.00,30.01,1011.80,10.00,M,CLR,M,M,M,M,M,M,M,M,M,M,M,M,M,M,83.98,KDRA 211953Z AUTO VRB04KT 10SM CLR 31/07 A3001 RMK AO2 SLP118 T03060072,M
ELY,2023-05-21 19:53,-114.8453,39.2950,1909.00,76.00,32.00,20.01,M,M,0.00,30.16,1012.40,10.00,M,CLR,M,M,M,M,M,M,M,M,M,M,M,M,M,M,75.90,KELY 211953Z AUTO 10SM CLR 24/00 A3016 RMK AO2 SLP124 T02440000,M
VGT,2023-05-21 19:53,-115.1933,36.2111,667.00,91.00,45.00,20.45,200.00,7.00,0.00,29.95,1013.20,10.00,M,CLR,M,M,M,M,M,M,M,M,M,M,M,M,M,M,87.35,KVGT 211953Z 20007KT 10SM CLR 33/07 A2995 RMK AO2 LTG DSNT W SLP132 T03280072 $,M
LOL,2023-05-21 19:53,-118.5701,40.0684,1192.43,86.00,40.00,19.68,80.00,8.00,0.00,30.02,1012.40,10.00,M,CLR,M,M,M,M,M,M,M,M,M,M,M,M,M,M,82.81,KLOL 211953Z AUTO 08008KT 050V130 10SM CLR 30/04 A3002 RMK AO2 SLP124 T03000044,M
BVU,2023-05-21 19:55,-114.8611,35.9475,671.00,89.60,39.20,17.09,0.00,0.00,0.00,29.95,M,10.00,M,CLR,M,M,M,M,M,M,M,M,M,M,M,M,M,M,85.73,KBVU 211955Z AUTO 00000KT 10SM CLR 32/04 A2995 RMK AO2 LTG DSNT E,M
CXP,2023-05-21 19:55,-119.7326,39.1923,1431.00,82.40,39.20,21.51,330.00,7.00,0.00,30.10,M,10.00,M,CLR,M,M,M,M,M,M,M,M,M,M,M,M,M,M,80.21,KCXP 211955Z AUTO 33007KT 300V010 10SM CLR 28/04 A3010 RMK AO2,M
RTS,2023-05-21 19:55,-119.8764,39.6682,1539.00,78.80,42.80,27.81,220.00,8.00,0.00,30.13,M,10.00,M,CLR,M,M,M,M,M,M,M,M,M,M,M,M,M,M,78.80,KRTS 211955Z AUTO 22008KT 200V280 10SM CLR 26/06 A3013 RMK AO2,M
MEV,2023-05-21 19:55,-119.7500,38.9963,1441.42,80.60,42.80,26.22,310.00,9.00,0.00,30.09,M,10.00,M,CLR,M,M,M,M,M,M,M,M,M,M,M,M,M,M,79.30,KMEV 211955Z AUTO 31009KT 240V350 10SM CLR 27/06 A3009 RMK AO2,M
BAM,2023-05-21 19:55,-116.8743,40.5990,1382.36,84.20,33.80,16.39,360.00,3.00,0.00,30.07,M,10.00,M,CLR,M,M,M,M,M,M,M,M,M,M,M,M,M,M,81.30,KBAM 211955Z AUTO 36003KT 10SM CLR 29/01 A3007 RMK AO1,M
HTH,2023-05-21 19:55,-118.6315,38.5448,1282.89,82.40,37.40,20.04,M,3.00,0.00,30.05,M,10.00,M,CLR,M,M,M,M,M,M,M,M,M,M,M,M,M,M,80.14,KHTH 211955Z AUTO VRB03KT 10SM CLR 28/03 A3005 RMK A01,M
TMT,2023-05-21 19:55,-117.1971,39.4643,1749.34,79.30,33.30,18.85,330.00,6.00,0.00,30.13,M,10.00,M,CLR,M,M,M,M,M,M,M,M,M,M,M,M,M,M,79.30,KTMT 211955Z AUTO 33006KT 10SM CLR 26/01 A3013 RMK AO2 LTG DSNT N SE AND S T02630007,M
10U,2023-05-21 19:55,-116.1876,41.9532,1637.00,78.80,32.00,18.18,0.00,0.00,0.00,30.12,M,10.00,M,CLR,M,M,M,M,M,M,M,M,M,M,M,M,M,M,78.80,K10U 211955Z AUTO 00000KT 10SM CLR 26/00 A3012 RMK AO2,M
INS,2023-05-21 19:55,-115.6733,36.5872,955.00,86.20,37.80,18.02,70.00,4.00,0.00,29.99,M,10.00,M,CLR,M,M,M,M,M,M,M,M,M,M,M,M,M,M,82.90,KINS 211955Z AUTO 07004KT 10SM CLR 30/03 A2999 RMK AO2 SLPNO T03010032 $,M
LSV,2023-05-21 19:55,-115.0343,36.2362,570.00,94.50,42.80,16.86,140.00,6.00,0.00,29.92,1010.80,10.00,M,CLR,M,M,M,M,M,M,M,M,M,M,M,M,M,M,90.39,KLSV 211955Z AUTO 14006KT 10SM CLR 35/06 A2992 RMK AO2 SLP108 T03470060 $,M
RNO,2023-05-21 19:55,-119.7711,39.4839,1341.00,83.00,42.00,23.68,130.00,4.00,0.00,30.07,1012.50,10.00,M,SCT,SCT,SCT,SCT,9000.00,15000.00,20000.00,25000.00,M,M,M,M,M,M,M,80.68,KRNO 211955Z 13004KT 10SM SCT090CB SCT150 SCT200 SCT250 28/06 A3007 RMK AO2 SLP125 VIRGA CB SW MOV N CB DSNT E THRU S TCU DSNT ALQDS T02830056,M
EKO,2023-05-21 19:56,-115.7860,40.8242,1367.00,80.00,30.90,16.67,290.00,3.00,0.00,30.10,1014.10,10.00,M,CLR,M,M,M,M,M,M,M,M,M,M,M,M,M,M,78.59,KEKO 211956Z AUTO 29003KT 10SM CLR 27/M01 A3010 RMK AO2 SLP141 T02671006,M
WMC,2023-05-21 19:56,-117.8072,40.9019,1315.00,84.00,39.00,20.27,310.00,3.00,0.00,30.05,1012.80,10.00,M,CLR,M,M,M,M,M,M,M,M,M,M,M,M,M,M,81.29,KWMC 211956Z AUTO 31003KT 10SM CLR 29/04 A3005 RMK AO2 SLP128 T02890039,M
NFL,2023-05-21 19:56,-118.7010,39.4166,1199.00,86.00,39.00,19.01,0.00,0.00,0.00,30.03,1013.80,10.00,M,SCT,SCT,SCT,M,6000.00,12000.00,18000.00,M,M,M,M,M,M,M,M,82.78,KNFL 211956Z 00000KT 10SM SCT060 SCT120 SCT180 30/04 A3003 RMK AO2 SLP138 CB DSNT SE-S-W T03000039,M
HND,2023-05-21 19:56,-115.1344,35.9729,742.79,91.00,45.00,20.45,30.00,8.00,0.00,29.99,1014.20,10.00,M,CLR,M,M,M,M,M,M,M,M,M,M,M,M,M,M,87.35,KHND 211956Z 03008KT 360V070 10SM CLR 33/07 A2999 RMK AO2 SLP142 T03280072,M
TPH,2023-05-21 19:56,-117.0904,38.0505,1654.00,M,M,M,M,M,0.00,30.13,M,M,M,M,M,M,M,M,M,M,M,M,M,M,M,M,M,M,M,KTPH 211956Z AUTO A3013 RMK AO2 LTG DSNT N SLPNO PWINO $,M
LAS,2023-05-21 19:56,-115.1634,36.0719,663.00,89.00,43.00,20.11,M,3.00,0.00,29.96,1012.00,10.00,M,FEW,FEW,M,M,8000.00,25000.00,M,M,M,M,M,M,M,M,M,85.51,KLAS 211956Z VRB03KT 10SM FEW080 FEW250 32/06 A2996 RMK AO2 SLP120 CB DSNT N AND S AND W T03170061,M
RNO,2023-05-21 20:03,-119.7711,39.4839,1341.00,82.00,42.00,24.38,0.00,0.00,0.00,30.07,M,10.00,M,SCT,SCT,SCT,SCT,9000.00,15000.00,20000.00,25000.00,TS,M,M,M,M,M,M,80.09,KRNO 212003Z 00000KT 10SM TS SCT090CB SCT150 SCT200 SCT250 28/06 A3007 RMK AO2 TSB02 OCNL LTGIC SW TS SW THRU W MOV N VIRGA CB DSNT E THRU S TCU DSNT ALQDS T02780056,M
05U,2023-05-21 20:10,-116.0051,39.6042,1811.23,80.60,28.40,14.81,M,3.00,0.00,30.16,M,10.00,M,CLR,M,M,M,M,M,M,M,M,M,M,M,M,M,M,78.72,K05U 212010Z AUTO VRB03KT 10SM CLR 27/M02 A3016 RMK A01,M
BVU,2023-05-21 20:15,-114.8611,35.9475,671.00,91.40,39.20,16.15,M,5.00,0.00,29.94,M,10.00,M,CLR,M,M,M,M,M,M,M,M,M,M,M,M,M,M,87.30,KBVU 212015Z AUTO VRB05KT 10SM CLR 33/04 A2994 RMK AO2,M
CXP,2023-05-21 20:15,-119.7326,39.1923,1431.00,82.40,39.20,21.51,310.00,10.00,0.00,30.09,M,10.00,M,SCT,M,M,M,9000.00,M,M,M,M,M,M,M,M,M,M,80.21,KCXP 212015Z AUTO 31010KT 10SM SCT090 28/04 A3009 RMK AO2,M
RTS,2023-05-21 20:15,-119.8764,39.6682,1539.00,77.00,41.00,27.53,M,4.00,0.00,30.12,M,10.00,M,CLR,M,M,M,M,M,M,M,M,M,M,M,M,M,M,77.00,KRTS 212015Z AUTO VRB04KT 10SM CLR 25/05 A3012 RMK AO2,M
MEV,2023-05-21 20:15,-119.7500,38.9963,1441.42,80.60,41.00,24.46,280.00,12.00,0.00,30.09,M,10.00,M,CLR,M,M,M,M,M,M,M,M,M,M,M,M,M,M,79.20,KMEV 212015Z AUTO 28012KT 10SM CLR 27/05 A3009 RMK AO2,M
BAM,2023-05-21 20:15,-116.8743,40.5990,1382.36,84.20,33.80,16.39,320.00,5.00,0.00,30.07,M,10.00,M,CLR,M,M,M,M,M,M,M,M,M,M,M,M,M,M,81.30,KBAM 212015Z AUTO 32005KT 10SM CLR 29/01 A3007 RMK AO1,M
HTH,2023-05-21 20:15,-118.6315,38.5448,1282.89,80.60,37.40,21.25,M,5.00,0.00,30.05,M,10.00,M,CLR,M,M,M,M,M,M,M,M,M,M,M,M,M,M,79.02,KHTH 212015Z AUTO VRB05KT 10SM CLR 27/03 A3005 RMK A01,M
10U,2023-05-21 20:15,-116.1876,41.9532,1637.00,77.00,33.80,20.74,M,5.00,0.00,30.11,M,10.00,M,CLR,M,M,M,M,M,M,M,M,M,M,M,M,M,M,77.00,K10U 212015Z AUTO VRB05KT 10SM CLR 25/01 A3011 RMK AO2,M
TMT,2023-05-21 20:15,-117.1971,39.4643,1749.34,78.00,33.00,19.29,0.00,0.00,0.00,30.13,M,10.00,M,CLR,M,M,M,M,M,M,M,M,M,M,M,M,M,M,78.10,KTMT 212015Z AUTO 00000KT 10SM CLR 26/01 A3013 RMK AO2 T02560005,M
05U,2023-05-21 20:30,-116.0051,39.6042,1811.23,80.60,26.60,13.75,10.00,7.00,0.00,30.15,M,10.00,M,CLR,M,M,M,M,M,M,M,M,M,M,M,M,M,M,78.68,K05U 212030Z AUTO 01007KT 10SM CLR 27/M03 A3015 RMK A01,M
BVU,2023-05-21 20:35,-114.8611,35.9475,671.00,89.60,39.20,17.09,0.00,0.00,0.00,29.93,M,10.00,M,CLR,M,M,M,M,M,M,M,M,M,M,M,M,M,M,85.73,KBVU 212035Z AUTO 00000KT 10SM CLR 32/04 A2993 RMK AO2,M
CXP,2023-05-21 20:35,-119.7326,39.1923,1431.00,82.40,37.40,20.04,310.00,13.00,0.00,30.08,M,10.00,18.00,BKN,M,M,M,9000.00,M,M,M,M,M,M,M,M,M,M,80.14,KCXP 212035Z AUTO 31013G18KT 10SM BKN090 28/03 A3008 RMK AO2,M
RTS,2023-05-21 20:35,-119.8764,39.6682,1539.00,77.00,41.00,27.53,40.00,4.00,0.00,30.11,M,10.00,M,CLR,M,M,M,M,M,M,M,M,M,M,M,M,M,M,77.00,KRTS 212035Z AUTO 04004KT 10SM CLR 25/05 A3011 RMK AO2,M
MEV,2023-05-21 20:35,-119.7500,38.9963,1441.42,82.40,41.00,23.07,270.00,15.00,0.00,30.07,M,10.00,M,CLR,M,M,M,M,M,M,M,M,M,M,M,M,M,M,80.29,KMEV 212035Z AUTO 27015KT 10SM CLR 28/05 A3007 RMK AO2 LTG DSNT E AND SE,M
BAM,2023-05-21 20:35,-116.8743,40.5990,1382.36,84.20,32.00,15.25,0.00,0.00,0.00,30.06,M,10.00,M,CLR,M,M,M,M,M,M,M,M,M,M,M,M,M,M,81.28,KBAM 212035Z AUTO 00000KT 10SM CLR 29/00 A3006 RMK AO1,M
HTH,2023-05-21 20:35,-118.6315,38.5448,1282.89,80.60,35.60,19.79,M,3.00,0.00,30.04,M,10.00,M,CLR,M,M,M,M,M,M,M,M,M,M,M,M,M,M,78.94,KHTH 212035Z AUTO VRB03KT 10SM CLR 27/02 A3004 RMK A01,M
10U,2023-05-21 20:35,-116.1876,41.9532,1637.00,78.80,32.00,18.18,0.00,0.00,0.00,30.10,M,10.00,M,CLR,M,M,M,M,M,M,M,M,M,M,M,M,M,M,78.80,K10U 212035Z AUTO 00000KT 10SM CLR 26/00 A3010 RMK AO2,M
TMT,2023-05-21 20:35,-117.1971,39.4643,1749.34,76.60,33.00,20.28,0.00,0.00,0.00,30.12,M,10.00,M,CLR,M,M,M,M,M,M,M,VCTS,M,M,M,M,M,M,76.60,KTMT 212035Z AUTO 00000KT 10SM VCTS CLR 25/01 A3012 RMK AO2 LTG DSNT S T02480005,M
RNO,2023-05-21 20:46,-119.7711,39.4839,1341.00,82.00,44.00,26.33,230.00,7.00,0.00,30.05,M,10.00,M,SCT,BKN,BKN,BKN,9000.00,15000.00,20000.00,25000.00,M,M,M,M,M,M,M,80.22,KRNO 212046Z 23007KT 10SM SCT090CB BKN150 BKN200 BKN250 28/07 A3005 RMK AO2 LTG DSNT E TSB02E46 TS MOVD N VIRGA CB S MOV NE CB DSNT ALQDS T02780067,M
05U,2023-05-21 20:50,-116.0051,39.6042,1811.23,80.60,26.60,13.75,M,5.00,0.00,30.14,M,10.00,M,CLR,M,M,M,M,M,M,M,M,M,M,M,M,M,M,78.68,K05U 212050Z AUTO VRB05KT 10SM CLR 27/M03 A3014 RMK A01,M
P68,2023-05-21 20:53,-116.0056,39.6014,1993.00,78.00,25.00,13.97,90.00,5.00,0.00,30.11,1011.40,M,M,M,M,M,M,M,M,M,M,M,M,M,M,M,M,M,78.10,KP68 212053Z AUTO 09005KT 26/M04 A3011 RMK AO1 SLP114 T02561039 58019,M
DRA,2023-05-21 20:53,-116.0278,36.6206,1009.00,88.00,43.00,20.82,150.00,4.00,0.00,29.98,1010.70,10.00,M,CLR,M,M,M,M,M,M,M,M,M,M,M,M,M,M,84.58,KDRA 212053Z AUTO 15004KT 10SM CLR 31/06 A2998 RMK AO2 SLP107 T03110061 58021,M
ELY,2023-05-21 20:53,-114.8453,39.2950,1909.00,74.00,30.90,20.47,270.00,7.00,0.00,30.14,1011.80,10.00,M,CLR,M,M,M,M,M,M,M,M,M,M,M,M,M,M,73.90,KELY 212053Z AUTO 27007KT 10SM CLR 23/M01 A3014 RMK AO2 LTG DSNT NW SLP118 T02331006 58018,M
VGT,2023-05-21 20:53,-115.1933,36.2111,667.00,91.00,44.00,19.76,M,5.00,0.00,29.92,1012.20,10.00,M,CLR,M,M,M,M,M,M,M,M,M,M,M,M,M,M,87.27,KVGT 212053Z VRB05KT 10SM CLR 33/07 A2992 RMK AO2 LTG DSNT N SLP122 T03280067 58026 $,M
LOL,2023-05-21 20:53,-118.5701,40.0684,1192.43,86.00,40.00,19.68,M,M,0.00,29.99,1011.40,10.00,M,CLR,M,M,M,M,M,M,M,M,M,M,M,M,M,M,82.81,KLOL 212053Z AUTO 10SM CLR 30/04 A2999 RMK AO2 SLP114 T03000044 58025,M
BVU,2023-05-21 20:55,-114.8611,35.9475,671.00,89.60,39.20,17.09,0.00,0.00,0.00,29.92,M,10.00,M,CLR,M,M,M,M,M,M,M,M,M,M,M,M,M,M,85.73,KBVU 212055Z AUTO 00000KT 10SM CLR 32/04 A2992 RMK AO2,M
CXP,2023-05-21 20:55,-119.7326,39.1923,1431.00,82.40,42.80,24.72,290.00,13.00,0.00,30.08,M,10.00,M,FEW,M,M,M,9000.00,M,M,M,M,M,M,M,M,M,M,80.39,KCXP 212055Z AUTO 29013KT 10SM FEW090 28/06 A3008 RMK AO2 LTG DSNT E AND SE,M
RNO,2023-05-21 20:55,-119.7711,39.4839,1341.00,81.00,43.00,26.08,M,4.00,0.00,30.04,1011.90,10.00,M,FEW,BKN,BKN,BKN,9000.00,11000.00,15000.00,20000.00,M,M,M,M,M,M,M,79.54,KRNO 212055Z VRB04KT 10SM FEW090 BKN110CB BKN150 BKN200 BKN250 27/06 A3004 RMK AO2 LTG DSNT E AND NW TSB02E46 SLP119 VIRGA CB S AND SW AND NW MOV N CB DSNT ALQDS T02720061 58023,M
RTS,2023-05-21 20:55,-119.8764,39.6682,1539.00,75.20,46.40,35.94,310.00,9.00,0.00,30.10,M,10.00,M,FEW,SCT,M,M,1300.00,9000.00,M,M,M,M,M,M,M,M,M,75.20,KRTS 212055Z AUTO 31009KT 10SM FEW013 SCT090 24/08 A3010 RMK AO2,M
MEV,2023-05-21 20:55,-119.7500,38.9963,1441.42,80.60,41.00,24.46,260.00,14.00,0.00,30.07,M,10.00,M,CLR,M,M,M,M,M,M,M,M,M,M,M,M,M,M,79.20,KMEV 212055Z AUTO 26014KT 10SM CLR 27/05 A3007 RMK AO2 LTG DSNT E AND SE,M
BAM,2023-05-21 20:55,-116.8743,40.5990,1382.36,86.00,32.00,14.40,50.00,6.00,0.00,30.04,M,10.00,M,CLR,M,M,M,M,M,M,M,M,M,M,M,M,M,M,82.64,KBAM 212055Z AUTO 05006KT 10SM CLR 30/00 A3004 RMK AO1,M
HTH,2023-05-21 20:55,-118.6315,38.5448,1282.89,80.60,35.60,19.79,290.00,7.00,0.00,30.03,M,10.00,M,CLR,M,M,M,M,M,M,M,M,M,M,M,M,M,M,78.94,KHTH 212055Z AUTO 29007KT 10SM CLR 27/02 A3003 RMK A01,M
TMT,2023-05-21 20:55,-117.1971,39.4643,1749.34,77.40,32.40,19.35,30.00,5.00,0.00,30.11,M,10.00,M,CLR,M,M,M,M,M,M,M,M,M,M,M,M,M,M,77.40,KTMT 212055Z AUTO 03005KT 10SM CLR 25/00 A3011 RMK AO2 LTG DSNT E AND S T02520002,M
10U,2023-05-21 20:55,-116.1876,41.9532,1637.00,78.80,33.80,19.55,260.00,5.00,0.00,30.09,M,10.00,M,CLR,M,M,M,M,M,M,M,M,M,M,M,M,M,M,78.80,K10U 212055Z AUTO 26005KT 10SM CLR 26/01 A3009 RMK AO2,M
INS,2023-05-21 20:55,-115.6733,36.5872,955.00,87.80,39.00,17.95,50.00,7.00,0.00,29.96,M,10.00,M,CLR,M,M,M,M,M,M,M,M,M,M,M,M,M,M,84.21,KINS 212055Z AUTO 05007KT 10SM CLR 31/04 A2996 RMK AO2 SLPNO T03100039 57023 $,M
LSV,2023-05-21 20:55,-115.0343,36.2362,570.00,98.00,44.20,15.93,0.00,0.00,0.00,29.88,1009.30,10.00,M,CLR,M,M,M,M,M,M,M,M,M,M,M,M,M,M,94.01,KLSV 212055Z AUTO 00000KT 10SM CLR 37/07 A2988 RMK AO2 SLP093 T03670068 57029 $,M
EKO,2023-05-21 20:56,-115.7860,40.8242,1367.00,82.00,30.90,15.66,100.00,6.00,0.00,30.08,1013.30,10.00,M,CLR,M,M,M,M,M,M,M,M,M,M,M,M,M,M,79.70,KEKO 212056Z AUTO 10006KT 10SM CLR 28/M01 A3008 RMK AO2 SLP133 T02781006 58020,M
NFL,2023-05-21 20:56,-118.7010,39.4166,1199.00,88.00,39.00,17.83,30.00,8.00,0.00,30.00,1012.80,10.00,M,SCT,SCT,SCT,M,6000.00,10000.00,20000.00,M,M,M,M,M,M,M,M,84.38,KNFL 212056Z 03008KT 10SM SCT060 SCT100 SCT200 31/04 A3000 RMK AO2 SLP128 CB DSNT ALQDS T03110039 58023,M
TPH,2023-05-21 20:56,-117.0904,38.0505,1654.00,M,M,M,M,M,0.00,30.09,M,M,M,M,M,M,M,M,M,M,M,M,M,M,M,M,M,M,M,KTPH 212056Z AUTO A3009 RMK AO2 LTG DSNT N SLPNO 58026 PWINO $,M
WMC,2023-05-21 20:56,-117.8072,40.9019,1315.00,86.00,38.00,18.20,0.00,0.00,0.00,30.02,1011.60,10.00,M,CLR,M,M,M,M,M,M,M,M,M,M,M,M,M,M,82.74,KWMC 212056Z AUTO 00000KT 10SM CLR 30/03 A3002 RMK AO2 LTG DSNT SE SLP116 T03000033 58024,M
LAS,2023-05-21 20:56,-115.1634,36.0719,663.00,91.00,40.00,16.80,M,5.00,0.00,29.93,1011.00,10.00,M,FEW,FEW,M,M,8000.00,25000.00,M,M,M,M,M,M,M,M,M,86.98,KLAS 212056Z VRB05KT 10SM FEW080 FEW250 33/04 A2993 RMK AO2 LTG DSNT N AND W SLP110 CB DSNT W T03280044 58026,M
HND,2023-05-21 20:56,-115.1344,35.9729,742.79,92.00,44.00,19.21,40.00,9.00,0.00,29.96,1013.20,10.00,16.00,CLR,M,M,M,M,M,M,M,M,M,M,M,M,M,M,88.09,KHND 212056Z 04009G16KT 10SM CLR 33/07 A2996 RMK AO2 LTG DSNT W SLP132 T03330067 58026,M
05U,2023-05-21 21:10,-116.0051,39.6042,1811.23,82.40,28.40,13.96,M,4.00,0.00,30.13,M,10.00,M,CLR,M,M,M,M,M,M,M,M,M,M,M,M,M,M,79.94,K05U 212110Z AUTO VRB04KT 10SM CLR 28/M02 A3013 RMK A01,M
CXP,2023-05-21 21:15,-119.7326,39.1923,1431.00,82.40,35.60,18.67,250.00,8.00,0.00,30.07,M,10.00,16.00,CLR,M,M,M,M,M,M,M,M,M,M,M,M,M,M,80.08,KCXP 212115Z AUTO 25008G16KT 220V280 10SM CLR 28/02 A3007 RMK AO2 LTG DSNT SE AND S,M
ELY,2023-05-21 21:15,-114.8453,39.2950,1909.00,75.00,39.00,27.23,300.00,14.00,0.00,30.13,M,10.00,M,FEW,M,M,M,11000.00,M,M,M,M,M,M,M,M,M,M,75.00,KELY 212115Z AUTO 30014KT 10SM FEW110 24/04 A3013 RMK AO2 WSHFT 2055 LTG DSNT NW T02390039,M
RTS,2023-05-21 21:15,-119.8764,39.6682,1539.00,66.20,50.00,55.88,270.00,19.00,0.00,30.11,M,9.00,M,FEW,SCT,BKN,M,800.00,9000.00,11000.00,M,-RA,M,M,M,M,M,M,66.20,KRTS 212115Z AUTO 27019KT 9SM -RA FEW008 SCT090 BKN110 19/10 A3011 RMK AO2,M
MEV,2023-05-21 21:15,-119.7500,38.9963,1441.42,82.40,41.00,23.07,260.00,12.00,0.00,30.06,M,10.00,18.00,CLR,M,M,M,M,M,M,M,VCTS,M,M,M,M,M,M,80.29,KMEV 212115Z AUTO 26012G18KT 10SM VCTS CLR 28/05 A3006 RMK AO2 LTG DSNT E AND SE,M
BAM,2023-05-21 21:15,-116.8743,40.5990,1382.36,86.00,30.20,13.38,30.00,6.00,0.00,30.04,M,10.00,M,CLR,M,M,M,M,M,M,M,M,M,M,M,M,M,M,82.64,KBAM 212115Z AUTO 03006KT 10SM CLR 30/M01 A3004 RMK AO1,M
HTH,2023-05-21 21:15,-118.6315,38.5448,1282.89,80.60,37.40,21.25,280.00,5.00,0.00,30.03,M,10.00,M,CLR,M,M,M,M,M,M,M,M,M,M,M,M,M,M,79.02,KHTH 212115Z AUTO 28005KT 10SM CLR 27/03 A3003 RMK A01,M
10U,2023-05-21 21:15,-116.1876,41.9532,1637.00,78.80,32.00,18.18,M,4.00,0.00,30.08,M,10.00,M,FEW,M,M,M,11000.00,M,M,M,M,M,M,M,M,M,M,78.80,K10U 212115Z AUTO VRB04KT 10SM FEW110 26/M00 A3008 RMK AO2,M
BVU,2023-05-21 21:15,-114.8611,35.9475,671.00,91.40,39.20,16.15,210.00,6.00,0.00,29.91,M,10.00,17.00,CLR,M,M,M,M,M,M,M,M,M,M,M,M,M,M,87.30,KBVU 212115Z AUTO 21006G17KT 10SM CLR 33/04 A2991 RMK AO2,M
TMT,2023-05-21 21:15,-117.1971,39.4643,1749.34,81.00,38.00,21.39,70.00,13.00,0.00,30.11,M,10.00,19.00,SCT,M,M,M,11000.00,M,M,M,M,M,M,M,M,M,M,79.28,KTMT 212115Z AUTO 07013G19KT 10SM SCT110 27/03 A3011 RMK AO2 LTG DSNT E AND W T02720033,M
05U,2023-05-21 21:30,-116.0051,39.6042,1811.23,82.40,28.40,13.96,0.00,0.00,0.00,30.12,M,10.00,M,CLR,M,M,M,M,M,M,M,M,M,M,M,M,M,M,79.94,K05U 212130Z AUTO 00000KT 10SM CLR 28/M02 A3012 RMK A01,M
CXP,2023-05-21 21:35,-119.7326,39.1923,1431.00,84.20,35.60,17.61,250.00,9.00,0.00,30.07,M,10.00,16.00,CLR,M,M,M,M,M,M,M,M,M,M,M,M,M,M,81.34,KCXP 212135Z AUTO 25009G16KT 210V280 10SM CLR 29/02 A3007 RMK AO2 LTG DSNT E-S,M
RTS,2023-05-21 21:35,-119.8764,39.6682,1539.00,66.20,46.40,48.83,300.00,6.00,0.00,30.11,M,7.00,M,FEW,FEW,FEW,M,3200.00,4800.00,6500.00,M,-RA,M,M,M,M,M,M,66.20,KRTS 212135Z AUTO 30006KT 7SM -RA FEW032 FEW048 FEW065 19/08 A3011 RMK AO2,M
MEV,2023-05-21 21:35,-119.7500,38.9963,1441.42,82.40,42.80,24.72,270.00,13.00,0.00,30.07,M,10.00,19.00,CLR,M,M,M,M,M,M,M,M,M,M,M,M,M,M,80.39,KMEV 212135Z AUTO 27013G19KT 10SM CLR 28/06 A3007 RMK AO2 LTG DSNT ALQDS,M
BAM,2023-05-21 21:35,-116.8743,40.5990,1382.36,87.80,32.00,13.59,10.00,5.00,0.00,30.03,M,10.00,M,CLR,M,M,M,M,M,M,M,M,M,M,M,M,M,M,84.08,KBAM 212135Z AUTO 01005KT 10SM CLR 31/00 A3003 RMK AO1,M
HTH,2023-05-21 21:35,-118.6315,38.5448,1282.89,80.60,37.40,21.25,220.00,6.00,0.00,30.03,M,10.00,11.00,CLR,M,M,M,M,M,M,M,M,M,M,M,M,M,M,79.02,KHTH 212135Z AUTO 22006G11KT 10SM CLR 27/03 A3003 RMK A01,M
10U,2023-05-21 21:35,-116.1876,41.9532,1637.00,80.60,33.80,18.42,280.00,8.00,0.00,30.07,M,10.00,M,CLR,M,M,M,M,M,M,M,M,M,M,M,M,M,M,78.88,K10U 212135Z AUTO 28008KT 10SM CLR 27/01 A3007 RMK AO2,M
TMT,2023-05-21 21:35,-117.1971,39.4643,1749.34,76.00,35.80,23.30,90.00,13.00,0.00,30.11,M,10.00,23.00,CLR,M,M,M,M,M,M,M,M,M,M,M,M,M,M,75.90,KTMT 212135Z AUTO 09013G23KT 10SM CLR 24/02 A3011 RMK AO2 T02440021,M
LOL,2023-05-21 21:50,-118.5701,40.0684,1192.43,87.80,39.20,18.09,90.00,6.00,0.00,29.96,M,10.00,M,CLR,M,M,M,M,M,M,M,VCTS,M,M,M,M,M,M,84.22,KLOL 212150Z AUTO 09006KT 10SM VCTS CLR 31/04 A2996 RMK AO2,M
05U,2023-05-21 21:50,-116.0051,39.6042,1811.23,82.40,32.00,16.17,120.00,14.00,0.00,30.11,M,10.00,M,CLR,M,M,M,M,M,M,M,M,M,M,M,M,M,M,80.00,K05U 212150Z AUTO 12014KT 10SM CLR 28/00 A3011 RMK A01,M
P68,2023-05-21 21:53,-116.0056,39.6014,1993.00,81.00,32.00,16.92,M,M,0.00,30.08,1010.90,M,M,M,M,M,M,M,M,M,M,M,M,M,M,M,M,M,79.07,KP68 212153Z AUTO 27/00 A3008 RMK AO1 SLP109 T02720000,M
DRA,2023-05-21 21:53,-116.0278,36.6206,1009.00,89.00,43.00,20.11,0.00,0.00,0.00,29.95,1009.80,10.00,M,CLR,M,M,M,M,M,M,M,M,M,M,M,M,M,M,85.51,KDRA 212153Z AUTO 00000KT 10SM CLR 32/06 A2995 RMK AO2 SLP098 T03170061,M
ELY,2023-05-21 21:53,-114.8453,39.2950,1909.00,77.00,37.00,23.55,300.00,14.00,0.00,30.13,1011.60,10.00,M,CLR,M,M,M,M,M,M,M,M,M,M,M,M,M,M,77.00,KELY 212153Z AUTO 30014KT 10SM CLR 25/03 A3013 RMK AO2 WSHFT 2055 LTG DSNT NW SLP116 T02500028,M
VGT,2023-05-21 21:53,-115.1933,36.2111,667.00,95.00,42.00,16.16,60.00,9.00,0.00,29.89,1011.20,10.00,19.00,CLR,M,M,M,M,M,M,M,M,M,M,M,M,M,M,90.79,KVGT 212153Z 06009G19KT 10SM CLR 35/06 A2989 RMK AO2 SLP112 T03500056 $,M
LOL,2023-05-21 21:53,-118.5701,40.0684,1192.43,87.00,40.00,19.01,M,4.00,0.00,29.96,1010.20,10.00,M,CLR,M,M,M,M,M,M,M,VCTS,M,M,M,M,M,M,83.68,KLOL 212153Z AUTO VRB04KT 10SM VCTS CLR 31/04 A2996 RMK AO2 SLP102 T03060044,M
CXP,2023-05-21 21:55,-119.7326,39.1923,1431.00,82.40,35.60,18.67,270.00,11.00,0.00,30.07,M,10.00,M,CLR,M,M,M,M,M,M,M,VCTS,M,M,M,M,M,M,80.08,KCXP 212155Z AUTO 27011KT 10SM VCTS CLR 28/02 A3007 RMK AO2 LTG DSNT E AND S,M
RTS,2023-05-21 21:55,-119.8764,39.6682,1539.00,69.80,50.00,49.37,0.00,0.00,0.14,30.10,M,9.00,M,FEW,M,M,M,6500.00,M,M,M,-RA,M,M,M,M,M,M,69.80,KRTS 212155Z AUTO 00000KT 9SM -RA FEW065 21/10 A3010 RMK AO2 P0014,M
MEV,2023-05-21 21:55,-119.7500,38.9963,1441.42,77.00,42.80,29.51,250.00,11.00,0.00,30.07,M,10.00,M,CLR,M,M,M,M,M,M,M,M,M,M,M,M,M,M,77.00,KMEV 212155Z AUTO 25011KT 10SM CLR 25/06 A3007 RMK AO2 LTG DSNT NE AND S,M
BAM,2023-05-21 21:55,-116.8743,40.5990,1382.36,87.80,32.00,13.59,10.00,6.00,0.00,30.02,M,10.00,M,CLR,M,M,M,M,M,M,M,M,M,M,M,M,M,M,84.08,KBAM 212155Z AUTO 01006KT 10SM CLR 31/00 A3002 RMK AO1,M
HTH,2023-05-21 21:55,-118.6315,38.5448,1282.89,80.60,37.40,21.25,240.00,14.00,0.00,30.04,M,10.00,M,CLR,M,M,M,M,M,M,M,M,M,M,M,M,M,M,79.02,KHTH 212155Z AUTO 24014KT 10SM CLR 27/03 A3004 RMK A01,M
TMT,2023-05-21 21:55,-117.1971,39.4643,1749.34,75.60,32.70,20.79,100.00,16.00,0.00,30.11,M,10.00,24.00,BKN,M,M,M,11000.00,M,M,M,M,M,M,M,M,M,M,75.60,KTMT 212155Z AUTO 10016G24KT 080V140 10SM BKN110 24/00 A3011 RMK AO2 LTG DSNT SW AND W T02420004,M
10U,2023-05-21 21:55,-116.1876,41.9532,1637.00,77.00,30.20,17.94,0.00,0.00,0.00,30.06,M,10.00,M,CLR,M,M,M,M,M,M,M,M,M,M,M,M,M,M,77.00,K10U 212155Z AUTO 00000KT 10SM CLR 25/M01 A3006 RMK AO2,M
INS,2023-05-21 21:55,-115.6733,36.5872,955.00,89.80,36.00,14.97,130.00,8.00,0.00,29.94,M,10.00,M,CLR,M,M,M,M,M,M,M,M,M,M,M,M,M,M,85.80,KINS 212155Z AUTO 13008KT 10SM CLR 32/02 A2994 RMK AO2 SLPNO T03210022 $,M
LSV,2023-05-21 21:55,-115.0343,36.2362,570.00,97.50,42.00,14.97,240.00,4.00,0.00,29.85,1008.40,10.00,M,CLR,M,M,M,M,M,M,M,M,M,M,M,M,M,M,93.17,KLSV 212155Z AUTO 24004KT 10SM CLR 36/06 A2985 RMK AO2 SLP084 T03640056 $,M
RNO,2023-05-21 21:55,-119.7711,39.4839,1341.00,83.00,45.00,26.46,340.00,12.00,0.00,30.03,1011.20,10.00,M,FEW,SCT,BKN,BKN,9000.00,11000.00,15000.00,20000.00,M,M,M,M,M,M,M,80.86,KRNO 212155Z 34012KT 10SM FEW090 SCT110CB BKN150 BKN200 BKN250 28/07 A3003 RMK AO2 LTG DSNT N AND SE SLP112 VIRGA CB NE THRU E AND SW AND NW MOV N CB DSNT ALQDS T02830072,M
EKO,2023-05-21 21:56,-115.7860,40.8242,1367.00,82.00,32.00,16.38,M,4.00,0.00,30.04,1012.30,10.00,M,CLR,M,M,M,M,M,M,M,M,M,M,M,M,M,M,79.73,KEKO 212156Z AUTO VRB04KT 10SM CLR 28/00 A3004 RMK AO2 SLP123 T02780000,M
NFL,2023-05-21 21:56,-118.7010,39.4166,1199.00,88.00,39.00,17.83,M,4.00,0.00,29.97,1012.10,10.00,M,SCT,SCT,SCT,M,6000.00,10000.00,20000.00,M,M,M,M,M,M,M,M,84.38,KNFL 212156Z VRB04KT 10SM SCT060 SCT100 SCT200 31/04 A2997 RMK AO2 SLP121 CB DSNT ALQDS T03110039,M
TPH,2023-05-21 21:56,-117.0904,38.0505,1654.00,M,M,M,M,M,0.00,30.07,M,M,M,M,M,M,M,M,M,M,M,M,M,M,M,M,M,M,M,KTPH 212156Z AUTO A3007 RMK AO2 SLPNO PWINO $,M
HND,2023-05-21 21:56,-115.1344,35.9729,742.79,91.00,42.00,18.30,M,6.00,0.00,29.93,1012.50,10.00,M,CLR,M,M,M,M,M,M,M,M,M,M,M,M,M,M,87.11,KHND 212156Z VRB06KT 10SM CLR 33/06 A2993 RMK AO2 SLP125 T03280056,M
WMC,2023-05-21 21:56,-117.8072,40.9019,1315.00,89.00,38.00,16.50,M,M,0.00,29.99,1010.50,10.00,M,CLR,M,M,M,M,M,M,M,M,M,M,M,M,M,M,85.26,KWMC 212156Z AUTO 10SM CLR 32/03 A2999 RMK AO2 LTG DSNT SE SLP105 T03170033,M
LAS,2023-05-21 21:56,-115.1634,36.0719,663.00,92.00,40.00,16.34,100.00,6.00,0.00,29.90,1010.10,10.00,M,FEW,FEW,M,M,9000.00,25000.00,M,M,M,M,M,M,M,M,M,87.78,KLAS 212156Z 10006KT 10SM FEW090 FEW250 33/04 A2990 RMK AO2 SLP101 TCU DSNT ALQDS T03330044,M
LOL,2023-05-21 22:05,-118.5701,40.0684,1192.43,86.00,40.00,19.68,10.00,16.00,0.00,29.96,M,10.00,22.00,SCT,M,M,M,11000.00,M,M,M,M,M,M,M,M,M,M,82.81,KLOL 212205Z AUTO 01016G22KT 10SM SCT110 30/04 A2996 RMK AO2 T03000044,M
05U,2023-05-21 22:10,-116.0051,39.6042,1811.23,80.60,35.60,19.79,80.00,10.00,0.00,30.11,M,10.00,16.00,CLR,M,M,M,M,M,M,M,M,M,M,M,M,M,M,78.94,K05U 212210Z AUTO 08010G16KT 020V140 10SM CLR 27/02 A3011 RMK A01,M
ELY,2023-05-21 22:12,-114.8453,39.2950,1909.00,77.00,35.00,21.85,270.00,11.00,0.00,30.12,M,10.00,20.00,CLR,M,M,M,M,M,M,M,VCTS,M,M,M,M,M,M,77.00,KELY 212212Z AUTO 27011G20KT 10SM VCTS CLR 25/02 A3012 RMK AO2 LTG DSNT NE T02500017,M
BVU,2023-05-21 22:15,-114.8611,35.9475,671.00,93.20,37.40,14.23,0.00,0.00,0.00,29.88,M,10.00,M,CLR,M,M,M,M,M,M,M,M,M,M,M,M,M,M,88.83,KBVU 212215Z AUTO 00000KT 10SM CLR 34/03 A2988 RMK AO2,M
CXP,2023-05-21 22:15,-119.7326,39.1923,1431.00,80.60,37.40,21.25,270.00,10.00,0.00,30.07,M,10.00,19.00,CLR,M,M,M,M,M,M,M,M,M,M,M,M,M,M,79.02,KCXP 212215Z AUTO 27010G19KT 10SM CLR 27/03 A3007 RMK AO2 LTG DSNT ALQDS,M
RTS,2023-05-21 22:15,-119.8764,39.6682,1539.00,69.80,51.80,52.77,140.00,8.00,0.00,30.09,M,9.00,M,FEW,FEW,M,M,7500.00,8500.00,M,M,-DZ,M,M,M,M,M,M,69.80,KRTS 212215Z AUTO 14008KT 9SM -DZ FEW075 FEW085 21/11 A3009 RMK AO2,M
MEV,2023-05-21 22:15,-119.7500,38.9963,1441.42,75.20,42.80,31.34,190.00,11.00,0.00,30.08,M,10.00,18.00,CLR,M,M,M,M,M,M,M,VCTS,M,M,M,M,M,M,75.20,KMEV 212215Z AUTO 19011G18KT 10SM VCTS CLR 24/06 A3008 RMK AO2 LTG DSNT SE AND S,M
BAM,2023-05-21 22:15,-116.8743,40.5990,1382.36,86.00,32.00,14.40,360.00,5.00,0.00,30.01,M,10.00,M,CLR,M,M,M,M,M,M,M,M,M,M,M,M,M,M,82.64,KBAM 212215Z AUTO 36005KT 10SM CLR 30/00 A3001 RMK AO1,M
HTH,2023-05-21 22:15,-118.6315,38.5448,1282.89,80.60,35.60,19.79,260.00,16.00,0.00,30.03,M,10.00,24.00,CLR,M,M,M,M,M,M,M,M,M,M,M,M,M,M,78.94,KHTH 212215Z AUTO 26016G24KT 10SM CLR 27/02 A3003 RMK A01,M
10U,2023-05-21 22:15,-116.1876,41.9532,1637.00,80.60,33.80,18.42,M,3.00,0.00,30.05,M,10.00,M,CLR,M,M,M,M,M,M,M,M,M,M,M,M,M,M,78.88,K10U 212215Z AUTO VRB03KT 10SM CLR 27/01 A3005 RMK AO2,M
TMT,2023-05-21 22:15,-117.1971,39.4643,1749.34,74.30,33.00,22.07,90.00,10.00,0.00,30.12,M,10.00,21.00,OVC,M,M,M,10000.00,M,M,M,M,M,M,M,M,M,M,74.30,KTMT 212215Z AUTO 09010G21KT 10SM OVC100 24/01 A3012 RMK AO2 LTG DSNT SW T02350006,M
RNO,2023-05-21 22:24,-119.7711,39.4839,1341.00,78.00,43.00,28.68,330.00,22.00,T,30.03,M,10.00,27.00,BKN,BKN,BKN,M,4000.00,6000.00,17000.00,M,-TSRA,M,M,M,27.00,340.00,2023-05-21 22:23,78.10,KRNO 212224Z 33022G27KT 10SM -TSRA BKN040CB BKN060 BKN170 26/06 A3003 RMK AO2 PK WND 34027/2223 LTG DSNT NE AND SE RAB24 TSB24 OCNL LTGIC N MOV NE CB ALQDS P0000 T02560061,M
LOL,2023-05-21 22:25,-118.5701,40.0684,1192.43,83.00,43.00,24.51,40.00,9.00,T,29.95,M,10.00,M,OVC,M,M,M,10000.00,M,M,M,-TSRA,M,M,M,M,M,M,80.73,KLOL 212225Z AUTO 04009KT 10SM -TSRA OVC100 28/06 A2995 RMK AO2 RAB22 TSB19 P0000 T02830061,M
05U,2023-05-21 22:30,-116.0051,39.6042,1811.23,80.60,33.80,18.42,100.00,8.00,0.00,30.10,M,10.00,M,CLR,M,M,M,M,M,M,M,M,M,M,M,M,M,M,78.88,K05U 212230Z AUTO 10008KT 010V130 10SM CLR 27/01 A3010 RMK A01,M
RNO,2023-05-21 22:31,-119.7711,39.4839,1341.00,73.00,51.00,46.13,360.00,19.00,T,30.02,M,7.00,27.00,BKN,BKN,BKN,M,4000.00,6000.00,17000.00,M,-TSRA,M,M,M,27.00,340.00,2023-05-21 22:23,73.00,KRNO 212231Z COR 36019G27KT 7SM -TSRA BKN040CB BKN060 BKN170 23/11 A3002 RMK AO2 PK WND 34027/2223 LTG DSNT NE AND SE RAB24 TSB24 TS N MOV NE OCNL LTGIC N MOV NE CB ALQDS P0000 T02280106,M
BVU,2023-05-21 22:35,-114.8611,35.9475,671.00,93.20,37.40,14.23,150.00,4.00,0.00,29.87,M,10.00,M,CLR,M,M,M,M,M,M,M,M,M,M,M,M,M,M,88.83,KBVU 212235Z AUTO 15004KT 10SM CLR 34/03 A2987 RMK AO2 LTG DSNT NE,M
CXP,2023-05-21 22:35,-119.7326,39.1923,1431.00,78.80,39.20,24.19,200.00,6.00,0.00,30.07,M,10.00,12.00,CLR,M,M,M,M,M,M,M,M,M,M,M,M,M,M,78.80,KCXP 212235Z AUTO 20006G12KT 10SM CLR 26/04 A3007 RMK AO2 LTG DSNT ALQDS,M
RTS,2023-05-21 22:35,-119.8764,39.6682,1539.00,69.80,55.40,60.21,80.00,3.00,0.00,30.08,M,9.00,M,FEW,M,M,M,9000.00,M,M,M,M,M,M,M,M,M,M,69.80,KRTS 212235Z AUTO 08003KT 9SM FEW090 21/13 A3008 RMK AO2,M
MEV,2023-05-21 22:35,-119.7500,38.9963,1441.42,69.80,46.40,43.13,160.00,11.00,0.00,30.09,M,10.00,M,FEW,M,M,M,11000.00,M,M,M,M,M,M,M,M,M,M,69.80,KMEV 212235Z AUTO 16011KT 10SM FEW110 21/08 A3009 RMK AO2 LTG DSNT NE-S,M
BAM,2023-05-21 22:35,-116.8743,40.5990,1382.36,86.00,32.00,14.40,20.00,4.00,0.00,30.00,M,10.00,M,CLR,M,M,M,M,M,M,M,M,M,M,M,M,M,M,82.64,KBAM 212235Z AUTO 02004KT 10SM CLR 30/00 A3000 RMK AO1,M
HTH,2023-05-21 22:35,-118.6315,38.5448,1282.89,80.60,32.00,17.14,260.00,16.00,0.00,30.02,M,10.00,24.00,CLR,M,M,M,M,M,M,M,M,M,M,M,M,M,M,78.82,KHTH 212235Z AUTO 26016G24KT 10SM CLR 27/00 A3002 RMK A01,M
10U,2023-05-21 22:35,-116.1876,41.9532,1637.00,80.60,32.00,17.14,0.00,0.00,0.00,30.05,M,10.00,10.00,FEW,M,M,M,11000.00,M,M,M,M,M,M,M,M,M,M,78.82,K10U 212235Z AUTO 00000G10KT 10SM FEW110 27/M00 A3005 RMK AO2,M
TMT,2023-05-21 22:35,-117.1971,39.4643,1749.34,74.00,32.20,21.57,280.00,7.00,0.00,30.11,M,10.00,16.00,SCT,SCT,BKN,M,4700.00,7000.00,11000.00,M,M,M,M,M,M,M,M,73.90,KTMT 212235Z AUTO 28007G16KT 10SM SCT047 SCT070 BKN110 23/00 A3011 RMK AO2 LTG DSNT E AND SW T02330001,M
TPH,2023-05-21 22:39,-117.0904,38.0505,1654.00,M,M,M,M,M,0.00,30.06,M,M,M,M,M,M,M,M,M,M,M,TS,M,M,M,M,M,M,M,KTPH 212239Z AUTO TS A3006 RMK AO2 LTG DSNT NW TSB33 PWINO $,M
ELY,2023-05-21 22:40,-114.8453,39.2950,1909.00,77.00,35.00,21.85,300.00,10.00,0.00,30.11,M,10.00,M,CLR,M,M,M,M,M,M,M,M,M,M,M,M,M,M,77.00,KELY 212240Z AUTO 30010KT 10SM CLR 25/02 A3011 RMK AO2 T02500017,M
RNO,2023-05-21 22:48,-119.7711,39.4839,1341.00,72.00,50.00,45.81,40.00,10.00,0.05,30.03,M,10.00,M,BKN,BKN,BKN,M,4000.00,6000.00,17000.00,M,-TSRA,M,M,M,27.00,340.00,2023-05-21 22:23,72.00,KRNO 212248Z 04010KT 10SM -TSRA BKN040CB BKN060 BKN170 22/10 A3003 RMK AO2 PK WND 34027/2223 WSHFT 2228 LTG DSNT NE-S RAB24 TSB24 OCNL LTGIC OHD TS OHD CB ALQDS P0005 T02220100,M
WMC,2023-05-21 22:49,-117.8072,40.9019,1315.00,88.00,36.00,15.85,200.00,7.00,0.00,29.97,M,10.00,M,FEW,M,M,M,11000.00,M,M,M,VCTS,M,M,M,M,M,M,84.29,KWMC 212249Z AUTO 20007KT 10SM VCTS FEW110 31/02 A2997 RMK AO2 LTG DSNT SW T03110022,M
05U,2023-05-21 22:50,-116.0051,39.6042,1811.23,82.40,32.00,16.17,M,5.00,0.00,30.09,M,10.00,M,CLR,M,M,M,M,M,M,M,M,M,M,M,M,M,M,80.00,K05U 212250Z AUTO VRB05KT 10SM CLR 28/M00 A3009 RMK A01,M
P68,2023-05-21 22:53,-116.0056,39.6014,1993.00,78.00,28.90,16.41,150.00,4.00,0.00,30.06,1010.80,M,M,M,M,M,M,M,M,M,M,M,M,M,M,M,M,M,78.10,KP68 212253Z AUTO 15004KT 26/M02 A3006 RMK AO1 SLP108 T02561017,M
DRA,2023-05-21 22:53,-116.0278,36.6206,1009.00,90.00,41.00,18.10,M,4.00,0.00,29.93,1009.00,10.00,M,CLR,M,M,M,M,M,M,M,M,M,M,M,M,M,M,86.16,KDRA 212253Z AUTO VRB04KT 10SM CLR 32/05 A2993 RMK AO2 SLP090 T03220050,M
LOL,2023-05-21 22:53,-118.5701,40.0684,1192.43,81.00,41.00,24.14,10.00,14.00,T,29.96,1010.80,10.00,M,BKN,M,M,M,10000.00,M,M,M,M,M,M,M,M,M,M,79.43,KLOL 212253Z AUTO 01014KT 10SM BKN100 27/05 A2996 RMK AO2 WSHFT 2236 LTG DSNT NE AND SW RAB22E44 TSB19E53 SLP108 P0000 T02720050,M
ELY,2023-05-21 22:53,-114.8453,39.2950,1909.00,75.00,33.00,21.56,290.00,8.00,0.00,30.11,1011.60,10.00,M,FEW,M,M,M,10000.00,M,M,M,M,M,M,M,M,M,M,75.00,KELY 212253Z AUTO 29008KT 10SM FEW100 24/01 A3011 RMK AO2 SLP116 T02390006,M
VGT,2023-05-21 22:53,-115.1933,36.2111,667.00,94.00,41.00,16.02,110.00,7.00,0.00,29.86,1010.30,10.00,M,CLR,M,M,M,M,M,M,M,M,M,M,M,M,M,M,89.68,KVGT 212253Z 11007KT 10SM CLR 34/05 A2986 RMK AO2 SLP103 T03440050 $,M
BVU,2023-05-21 22:55,-114.8611,35.9475,671.00,93.20,37.40,14.23,M,3.00,0.00,29.86,M,10.00,M,CLR,M,M,M,M,M,M,M,M,M,M,M,M,M,M,88.83,KBVU 212255Z AUTO VRB03KT 10SM CLR 34/03 A2986 RMK AO2,M
CXP,2023-05-21 22:55,-119.7326,39.1923,1431.00,78.80,41.00,25.95,190.00,14.00,0.00,30.08,M,10.00,M,SCT,M,M,M,11000.00,M,M,M,M,M,M,M,M,M,M,78.80,KCXP 212255Z AUTO 19014KT 10SM SCT110 26/05 A3008 RMK AO2 LTG DSNT N AND S,M
RTS,2023-05-21 22:55,-119.8764,39.6682,1539.00,69.80,50.00,49.37,0.00,0.00,0.03,30.08,M,10.00,M,CLR,M,M,M,M,M,M,M,M,M,M,M,M,M,M,69.80,KRTS 212255Z AUTO 00000KT 10SM CLR 21/10 A3008 RMK AO2 P0003,M
MEV,2023-05-21 22:55,-119.7500,38.9963,1441.42,68.00,44.60,42.85,170.00,10.00,0.00,30.08,M,10.00,18.00,FEW,FEW,M,M,9500.00,12000.00,M,M,M,M,M,M,M,M,M,68.00,KMEV 212255Z AUTO 17010G18KT 10SM FEW095 FEW120 20/07 A3008 RMK AO2 LTG DSNT N AND S AND SW,M
BAM,2023-05-21 22:55,-116.8743,40.5990,1382.36,84.20,32.00,15.25,130.00,5.00,0.00,30.00,M,10.00,M,SCT,M,M,M,12000.00,M,M,M,M,M,M,M,M,M,M,81.28,KBAM 212255Z AUTO 13005KT 10SM SCT120 29/00 A3000 RMK AO1,M
HTH,2023-05-21 22:55,-118.6315,38.5448,1282.89,80.60,33.80,18.42,260.00,16.00,0.00,30.02,M,10.00,22.00,CLR,M,M,M,M,M,M,M,M,M,M,M,M,M,M,78.88,KHTH 212255Z AUTO 26016G22KT 10SM CLR 27/01 A3002 RMK A01,M
10U,2023-05-21 22:55,-116.1876,41.9532,1637.00,77.00,35.60,22.28,290.00,9.00,0.00,30.05,M,10.00,18.00,BKN,M,M,M,11000.00,M,M,M,M,M,M,M,M,M,M,77.00,K10U 212255Z AUTO 29009G18KT 10SM BKN110 25/02 A3005 RMK AO2,M
INS,2023-05-21 22:55,-115.6733,36.5872,955.00,89.00,33.60,13.91,80.00,9.00,0.00,29.91,M,10.00,M,CLR,M,M,M,M,M,M,M,M,M,M,M,M,M,M,85.17,KINS 212255Z AUTO 08009KT 10SM CLR 32/01 A2991 RMK AO2 SLPNO T03170009 $,M
RNO,2023-05-21 22:55,-119.7711,39.4839,1341.00,72.00,51.00,47.72,40.00,13.00,0.05,30.02,1012.10,10.00,22.00,BKN,BKN,BKN,M,4000.00,6000.00,17000.00,M,-TSRA,M,M,M,27.00,340.00,2023-05-21 22:23,72.00,KRNO 212255Z 04013G22KT 10SM -TSRA BKN040CB BKN060 BKN170 22/11 A3002 RMK AO2 PK WND 34027/2223 WSHFT 2228 LTG DSNT NE-S RAB24 TSB24 SLP121 OCNL LTGIC OHD TS OHD CB ALQDS P0005 T02220106,M
LSV,2023-05-21 22:55,-115.0343,36.2362,570.00,97.30,40.00,13.94,160.00,8.00,0.00,29.82,1007.40,10.00,M,CLR,M,M,M,M,M,M,M,M,M,M,M,M,M,M,92.78,KLSV 212255Z AUTO 16008KT 10SM CLR 36/05 A2982 RMK AO2 SLP074 T03630045 $,M
TMT,2023-05-21 22:55,-117.1971,39.4643,1749.34,74.00,37.00,26.02,310.00,7.00,0.00,30.10,M,10.00,M,CLR,M,M,M,M,M,M,M,M,M,M,M,M,M,M,73.90,KTMT 212255Z AUTO 31007KT 10SM CLR 23/03 A3010 RMK AO2 LTG DSNT SE AND W T02330027,M
EKO,2023-05-21 22:56,-115.7860,40.8242,1367.00,84.00,32.00,15.35,M,3.00,0.00,30.01,1011.30,10.00,M,CLR,M,M,M,M,M,M,M,M,M,M,M,M,M,M,81.13,KEKO 212256Z AUTO VRB03KT 10SM CLR 29/00 A3001 RMK AO2 SLP113 T02890000,M
WMC,2023-05-21 22:56,-117.8072,40.9019,1315.00,88.00,36.00,15.85,290.00,6.00,0.00,29.97,1010.20,10.00,M,CLR,M,M,M,M,M,M,M,VCTS,M,M,M,M,M,M,84.29,KWMC 212256Z AUTO 29006KT 10SM VCTS CLR 31/02 A2997 RMK AO2 LTG DSNT SW SLP102 T03110022,M
NFL,2023-05-21 22:56,-118.7010,39.4166,1199.00,87.00,34.00,15.06,260.00,5.00,0.00,29.95,1011.50,10.00,M,CLR,M,M,M,M,M,M,M,M,M,M,M,M,M,M,83.53,KNFL 212256Z AUTO 26005KT 10SM CLR 31/01 A2995 RMK AO2 SLP115 T03060011,M
HND,2023-05-21 22:56,-115.1344,35.9729,742.79,94.00,41.00,16.02,260.00,7.00,0.00,29.91,1011.40,10.00,M,CLR,M,M,M,M,M,M,M,M,M,M,M,M,M,M,89.68,KHND 212256Z 26007KT 10SM CLR 34/05 A2991 RMK AO2 SLP114 T03440050,M
TPH,2023-05-21 22:56,-117.0904,38.0505,1654.00,M,M,M,M,M,0.00,30.07,M,M,M,M,M,M,M,M,M,M,M,TS,M,M,M,M,M,M,M,KTPH 212256Z AUTO TS A3007 RMK AO2 TSB33 SLPNO PWINO $,M
LAS,2023-05-21 22:56,-115.1634,36.0719,663.00,93.00,38.00,14.60,240.00,4.00,0.00,29.87,1009.00,10.00,M,FEW,FEW,M,M,9000.00,25000.00,M,M,M,M,M,M,M,M,M,88.67,KLAS 212256Z 24004KT 10SM FEW090 FEW250 34/03 A2987 RMK AO2 SLP090 CB DSNT NE-E T03390033,M
05U,2023-05-21 23:10,-116.0051,39.6042,1811.23,82.40,32.00,16.17,M,8.00,0.00,30.09,M,10.00,13.00,CLR,M,M,M,M,M,M,M,M,M,M,M,M,M,M,80.00,K05U 212310Z AUTO VRB08G13KT 10SM CLR 28/M00 A3009 RMK A01,M
BVU,2023-05-21 23:15,-114.8611,35.9475,671.00,93.20,35.60,13.25,170.00,7.00,0.00,29.86,M,10.00,14.00,CLR,M,M,M,M,M,M,M,M,M,M,M,M,M,M,88.76,KBVU 212315Z AUTO 17007G14KT 10SM CLR 34/02 A2986 RMK AO2,M
CXP,2023-05-21 23:15,-119.7326,39.1923,1431.00,75.20,41.00,29.23,170.00,14.00,0.00,30.08,M,10.00,24.00,BKN,M,M,M,11000.00,M,M,M,VCTS,M,M,M,M,M,M,75.20,KCXP 212315Z AUTO 17014G24KT 10SM VCTS BKN110 24/05 A3008 RMK AO2 LTG DSNT N AND NE AND S,M
RTS,2023-05-21 23:15,-119.8764,39.6682,1539.00,73.40,50.00,43.69,0.00,0.00,0.00,30.08,M,10.00,M,CLR,M,M,M,M,M,M,M,M,M,M,M,M,M,M,73.40,KRTS 212315Z AUTO 00000KT 10SM CLR 23/10 A3008 RMK AO2,M
MEV,2023-05-21 23:15,-119.7500,38.9963,1441.42,68.00,46.40,45.88,180.00,17.00,0.00,30.10,M,10.00,M,SCT,SCT,M,M,10000.00,12000.00,M,M,M,M,M,M,M,M,M,68.00,KMEV 212315Z AUTO 18017KT 10SM SCT100 SCT120 20/08 A3010 RMK AO2 LTG DSNT N AND S,M
BAM,2023-05-21 23:15,-116.8743,40.5990,1382.36,84.20,32.00,15.25,140.00,4.00,0.00,30.00,M,10.00,M,BKN,M,M,M,12000.00,M,M,M,M,M,M,M,M,M,M,81.28,KBAM 212315Z AUTO 14004KT 10SM BKN120 29/00 A3000 RMK AO1,M
HTH,2023-05-21 23:15,-118.6315,38.5448,1282.89,80.60,33.80,18.42,250.00,15.00,0.00,30.02,M,10.00,22.00,FEW,M,M,M,10000.00,M,M,M,M,M,M,M,M,M,M,78.88,KHTH 212315Z AUTO 25015G22KT 10SM FEW100 27/01 A3002 RMK A01,M
TMT,2023-05-21 23:15,-117.1971,39.4643,1749.34,73.20,37.80,27.60,300.00,13.00,0.00,30.10,M,10.00,16.00,CLR,M,M,M,M,M,M,M,M,M,M,M,M,M,M,73.20,KTMT 212315Z AUTO 30013G16KT 10SM CLR 23/03 A3010 RMK AO2 T02290032,M
10U,2023-05-21 23:15,-116.1876,41.9532,1637.00,71.60,44.60,37.89,M,5.00,0.00,30.06,M,10.00,11.00,OVC,M,M,M,10000.00,M,M,M,-RA,M,M,M,M,M,M,71.60,K10U 212315Z AUTO VRB05G11KT 10SM -RA OVC100 22/07 A3006 RMK AO2,M
WMC,2023-05-21 23:15,-117.8072,40.9019,1315.00,78.00,40.00,25.44,190.00,23.00,0.00,29.98,M,5.00,37.00,BKN,M,M,M,11000.00,M,M,M,HZ,M,M,M,37.00,170.00,2023-05-21 23:10,78.10,KWMC 212315Z AUTO 19023G37KT 5SM HZ BKN110 26/04 A2998 RMK AO2 PK WND 17037/2310 T02560044,M
WMC,2023-05-21 23:22,-117.8072,40.9019,1315.00,76.00,42.00,29.80,170.00,17.00,0.00,29.98,M,9.00,36.00,SCT,M,M,M,11000.00,M,M,M,VCTS,M,M,M,37.00,170.00,2023-05-21 23:10,75.90,KWMC 212322Z AUTO 17017G36KT 9SM VCTS SCT110 24/06 A2998 RMK AO2 PK WND 17037/2310 T02440056,M
LSV,2023-05-21 23:24,-115.0343,36.2362,570.00,96.80,37.40,12.73,140.00,10.00,0.00,29.81,1007.00,10.00,M,CLR,M,M,M,M,M,M,M,M,M,M,M,M,M,M,92.04,KLSV 212324Z AUTO 14010KT 10SM CLR 36/03 A2981 RMK AO2 WSHFT 22 SLP070 $,M
05U,2023-05-21 23:30,-116.0051,39.6042,1811.23,80.60,33.80,18.42,10.00,14.00,0.00,30.08,M,10.00,M,CLR,M,M,M,M,M,M,M,M,M,M,M,M,M,M,78.88,K05U 212330Z AUTO 01014KT 10SM CLR 27/01 A3008 RMK A01,M
LOL,2023-05-21 23:31,-118.5701,40.0684,1192.43,75.00,47.00,36.87,0.00,0.00,0.00,29.95,M,10.00,M,FEW,M,M,M,11000.00,M,M,M,VCTS,M,M,M,M,M,M,75.00,KLOL 212331Z AUTO 00000KT 10SM VCTS FEW110 24/08 A2995 RMK AO2 LTG DSNT E AND SW T02390083,M
BVU,2023-05-21 23:35,-114.8611,35.9475,671.00,93.20,35.60,13.25,120.00,3.00,0.00,29.85,M,10.00,M,CLR,M,M,M,M,M,M,M,M,M,M,M,M,M,M,88.76,KBVU 212335Z AUTO 12003KT 10SM CLR 34/02 A2985 RMK AO2,M
CXP,2023-05-21 23:35,-119.7326,39.1923,1431.00,73.40,44.60,35.66,220.00,12.00,0.00,30.09,M,10.00,21.00,FEW,M,M,M,12000.00,M,M,M,VCTS,M,M,M,M,M,M,73.40,KCXP 212335Z AUTO 22012G21KT 10SM VCTS FEW120 23/07 A3009 RMK AO2 LTG DSNT E AND S,M
RTS,2023-05-21 23:35,-119.8764,39.6682,1539.00,75.20,48.20,38.46,80.00,4.00,0.00,30.07,M,10.00,M,CLR,M,M,M,M,M,M,M,M,M,M,M,M,M,M,75.20,KRTS 212335Z AUTO 08004KT 10SM CLR 24/09 A3007 RMK AO2,M
MEV,2023-05-21 23:35,-119.7500,38.9963,1441.42,68.00,44.60,42.85,190.00,13.00,0.00,30.10,M,10.00,19.00,FEW,M,M,M,10000.00,M,M,M,M,M,M,M,M,M,M,68.00,KMEV 212335Z AUTO 19013G19KT 10SM FEW100 20/07 A3010 RMK AO2 LTG DSNT E-SW,M
BAM,2023-05-21 23:35,-116.8743,40.5990,1382.36,84.20,33.80,16.39,270.00,5.00,0.00,29.99,M,10.00,M,SCT,M,M,M,12000.00,M,M,M,M,M,M,M,M,M,M,81.30,KBAM 212335Z AUTO 27005KT 10SM SCT120 29/01 A2999 RMK AO1,M
HTH,2023-05-21 23:35,-118.6315,38.5448,1282.89,80.60,33.80,18.42,260.00,16.00,0.00,30.02,M,10.00,M,CLR,M,M,M,M,M,M,M,M,M,M,M,M,M,M,78.88,KHTH 212335Z AUTO 26016KT 10SM CLR 27/01 A3002 RMK A01,M
TMT,2023-05-21 23:35,-117.1971,39.4643,1749.34,72.00,40.50,31.93,270.00,16.00,0.00,30.11,M,10.00,21.00,SCT,M,M,M,12000.00,M,M,M,M,M,M,M,M,M,M,72.00,KTMT 212335Z AUTO 27016G21KT 10SM SCT120 22/05 A3011 RMK AO2 T02220047,M
10U,2023-05-21 23:35,-116.1876,41.9532,1637.00,71.60,46.40,40.57,0.00,0.00,0.00,30.06,M,9.00,M,BKN,M,M,M,9000.00,M,M,M,M,M,M,M,M,M,M,71.60,K10U 212335Z AUTO 00000KT 9SM BKN090 22/08 A3006 RMK AO2,M
TPH,2023-05-21 23:42,-117.0904,38.0505,1654.00,M,M,M,M,M,0.00,30.11,M,M,M,M,M,M,M,M,M,M,M,M,M,M,M,M,M,M,M,KTPH 212342Z AUTO A3011 RMK AO2 LTG DSNT S TSE02B06E36 PWINO $,M
NFL,2023-05-21 23:45,-118.7010,39.4166,1199.00,78.00,44.00,29.91,220.00,17.00,0.00,29.98,M,8.00,29.00,CLR,M,M,M,M,M,M,M,M,M,M,M,29.00,220.00,2023-05-21 23:41,78.10,KNFL 212345Z AUTO 22017G29KT 8SM CLR 26/07 A2998 RMK AO2 PK WND 22029/2341 WSHFT 2325 T02560067,M
05U,2023-05-21 23:50,-116.0051,39.6042,1811.23,80.60,32.00,17.14,20.00,9.00,0.00,30.08,M,10.00,M,CLR,M,M,M,M,M,M,M,M,M,M,M,M,M,M,78.82,K05U 212350Z AUTO 02009KT 010V160 10SM CLR 27/00 A3008 RMK A01,M
P68,2023-05-21 23:53,-116.0056,39.6014,1993.00,79.00,30.00,16.66,160.00,10.00,0.00,30.05,1010.60,M,M,M,M,M,M,M,M,M,M,M,M,M,M,M,M,M,79.00,KP68 212353Z AUTO 16010KT 26/M01 A3005 RMK AO1 SLP106 T02611011 10278 20233 56015,M
DRA,2023-05-21 23:53,-116.0278,36.6206,1009.00,89.00,41.00,18.62,M,M,0.00,29.91,1008.30,10.00,M,BKN,M,M,M,11000.00,M,M,M,M,M,M,M,M,M,M,85.39,KDRA 212353Z AUTO 10SM BKN110 32/05 A2991 RMK AO2 SLP083 T03170050 10333 20278 56022,M
ELY,2023-05-21 23:53,-114.8453,39.2950,1909.00,73.00,34.00,23.90,220.00,17.00,0.00,30.11,1012.20,10.00,23.00,SCT,M,M,M,12000.00,M,M,M,M,M,M,M,29.00,220.00,2023-05-21 23:27,73.00,KELY 212353Z AUTO 22017G23KT 10SM SCT120 23/01 A3011 RMK AO2 PK WND 22029/2327 SLP122 T02280011 10256 20222 55007,M
VGT,2023-05-21 23:53,-115.1933,36.2111,667.00,94.00,39.00,14.82,210.00,7.00,0.00,29.84,1009.70,10.00,M,CLR,M,M,M,M,M,M,M,M,M,M,M,M,M,M,89.54,KVGT 212353Z 21007KT 10SM CLR 34/04 A2984 RMK AO2 SLP097 T03440039 10350 20300 56023 $,M
LOL,2023-05-21 23:53,-118.5701,40.0684,1192.43,77.00,41.00,27.53,240.00,14.00,0.00,29.96,1011.20,10.00,21.00,CLR,M,M,M,M,M,M,M,VCTS,M,M,M,M,M,M,77.00,KLOL 212353Z AUTO 24014G21KT 10SM VCTS CLR 25/05 A2996 RMK AO2 LTG DSNT E AND SW AND NW SLP112 60000 T02500050 10311 20239 53002,M
BVU,2023-05-21 23:55,-114.8611,35.9475,671.00,93.20,35.60,13.25,110.00,6.00,0.00,29.85,M,10.00,M,CLR,M,M,M,M,M,M,M,M,M,M,M,M,M,M,88.76,KBVU 212355Z AUTO 11006KT 10SM CLR 34/02 A2985 RMK AO2,M
CXP,2023-05-21 23:55,-119.7326,39.1923,1431.00,71.60,42.80,35.37,220.00,12.00,0.00,30.09,M,10.00,19.00,CLR,M,M,M,M,M,M,M,VCTS,M,M,M,M,M,M,71.60,KCXP 212355Z AUTO 22012G19KT 10SM VCTS CLR 22/06 A3009 RMK AO2 LTG DSNT NE-S,M
RNO,2023-05-21 23:55,-119.7711,39.4839,1341.00,75.00,45.00,34.31,170.00,11.00,T,30.03,1012.30,10.00,M,BKN,BKN,BKN,M,4000.00,6000.00,17000.00,M,TS,M,M,M,M,M,M,75.00,KRNO 212355Z 17011KT 10SM TS BKN040CB BKN060 BKN170 24/07 A3003 RMK AO2 RAE42 SLP123 OCNL LTGIC NE THRU SE TS NE THRU SE CB ALQDS P0000 60005 T02390072 10294 20217 55003,M
RTS,2023-05-21 23:55,-119.8764,39.6682,1539.00,75.20,48.20,38.46,140.00,11.00,0.00,30.07,M,10.00,M,FEW,M,M,M,8500.00,M,M,M,M,M,M,M,M,M,M,75.20,KRTS 212355Z AUTO 14011KT 10SM FEW085 24/09 A3007 RMK AO2,M
MEV,2023-05-21 23:55,-119.7500,38.9963,1441.42,66.20,44.60,45.60,180.00,9.00,0.00,30.10,M,10.00,15.00,CLR,M,M,M,M,M,M,M,VCTS,M,M,M,M,M,M,66.20,KMEV 212355Z AUTO 18009G15KT 10SM VCTS CLR 19/07 A3010 RMK AO2 LTG DSNT NE,M
BAM,2023-05-21 23:55,-116.8743,40.5990,1382.36,82.40,33.80,17.38,300.00,9.00,0.00,29.99,M,10.00,M,CLR,M,M,M,M,M,M,M,M,M,M,M,M,M,M,80.03,KBAM 212355Z AUTO 30009KT 10SM CLR 28/01 A2999 RMK AO1,M
HTH,2023-05-21 23:55,-118.6315,38.5448,1282.89,82.40,37.40,20.04,260.00,22.00,0.00,30.01,M,10.00,28.00,FEW,M,M,M,10000.00,M,M,M,M,M,M,M,M,M,M,80.14,KHTH 212355Z AUTO 26022G28KT 10SM FEW100 28/03 A3001 RMK A01,M
TMT,2023-05-21 23:55,-117.1971,39.4643,1749.34,70.70,38.50,30.87,270.00,10.00,0.00,30.11,M,10.00,15.00,BKN,M,M,M,12000.00,M,M,M,M,M,M,M,M,M,M,70.70,KTMT 212355Z AUTO 27010G15KT 10SM BKN120 22/04 A3011 RMK AO2 LTG DSNT W T02150036 10275 20215,M
10U,2023-05-21 23:55,-116.1876,41.9532,1637.00,73.40,42.80,33.29,360.00,4.00,0.00,30.05,M,10.00,M,FEW,M,M,M,9000.00,M,M,M,M,M,M,M,M,M,M,73.40,K10U 212355Z AUTO 36004KT 10SM FEW090 23/06 A3005 RMK AO2,M
INS,2023-05-21 23:55,-115.6733,36.5872,955.00,90.00,32.50,12.94,180.00,9.00,0.00,29.90,M,10.00,M,CLR,M,M,M,M,M,M,M,M,M,M,M,M,M,M,85.90,KINS 212355Z AUTO 18009KT 10SM CLR 32/00 A2990 RMK AO2 LTG DSNT W SLPNO T03220003 10327 20283 57021 $,M
LSV,2023-05-21 23:55,-115.0343,36.2362,570.00,95.20,36.50,12.91,170.00,8.00,0.00,29.80,1006.80,10.00,M,CLR,M,M,M,M,M,M,M,M,M,M,M,M,M,M,90.57,KLSV 212355Z AUTO 17008KT 10SM CLR 35/03 A2980 RMK AO2 SLP068 T03510025 10371 20330 57023 $,M
EKO,2023-05-21 23:56,-115.7860,40.8242,1367.00,84.00,30.90,14.68,M,M,0.00,29.99,1010.80,10.00,M,CLR,M,M,M,M,M,M,M,M,M,M,M,M,M,M,81.12,KEKO 212356Z AUTO 10SM CLR 29/M01 A2999 RMK AO2 SLP108 T02891006 10294 20239 56024,M
TPH,2023-05-21 23:56,-117.0904,38.0505,1654.00,M,M,M,M,M,0.00,30.12,M,M,M,M,M,M,M,M,M,M,M,M,M,M,M,M,M,M,M,KTPH 212356Z AUTO A3012 RMK AO2 LTG DSNT S TSE02B06E36 SLPNO 53009 PWINO $,M
WMC,2023-05-21 23:56,-117.8072,40.9019,1315.00,77.00,40.00,26.38,200.00,15.00,0.00,29.99,1011.70,10.00,22.00,FEW,M,M,M,12000.00,M,M,M,M,M,M,M,37.00,170.00,2023-05-21 23:10,77.00,KWMC 212356Z AUTO 20015G22KT 10SM FEW120 25/04 A2999 RMK AO2 PK WND 17037/2310 LTG DSNT N AND NE AND SW SLP117 T02500044 10317 20239 55007,M
HND,2023-05-21 23:56,-115.1344,35.9729,742.79,93.00,40.00,15.79,310.00,5.00,0.00,29.89,1010.90,10.00,M,CLR,M,M,M,M,M,M,M,M,M,M,M,M,M,M,88.78,KHND 212356Z 31005KT 10SM CLR 34/04 A2989 RMK AO2 SLP109 T03390044 10344 20294 56021,M
NFL,2023-05-21 23:56,-118.7010,39.4166,1199.00,76.00,42.00,29.80,230.00,23.00,0.00,29.98,1012.30,9.00,31.00,CLR,M,M,M,M,M,M,M,M,M,M,M,31.00,230.00,2023-05-21 23:56,75.90,KNFL 212356Z AUTO 23023G31KT 9SM CLR 24/06 A2998 RMK AO2 PK WND 23031/2356 WSHFT 2325 SLP123 T02440056 10322 20244 55006,M
LAS,2023-05-21 23:56,-115.1634,36.0719,663.00,94.00,38.00,14.20,20.00,6.00,0.00,29.85,1008.30,10.00,M,FEW,FEW,M,M,10000.00,25000.00,M,M,M,M,M,M,M,M,M,89.48,KLAS 212356Z 02006KT 10SM FEW100 FEW250 34/03 A2985 RMK AO2 SLP083 CB DSNT E TCU DSNT W AND N T03440033 10350 20294 56024,M
