station,valid,lon,lat,elevation,tmpf,dwpf,relh,drct,sknt,p01i,alti,mslp,vsby,gust,skyc1,skyc2,skyc3,skyc4,skyl1,skyl2,skyl3,skyl4,wxcodes,ice_accretion_1hr,ice_accretion_3hr,ice_accretion_6hr,peak_wind_gust,peak_wind_drct,peak_wind_time,feel,metar,snowdepth
BVU,2024-08-10 00:15,-114.8611,35.9475,671.00,102.20,51.80,18.72,M,6.00,0.00,29.81,M,10.00,M,CLR,M,M,M,M,M,M,M,M,M,M,M,M,M,M,99.80,KBVU 100015Z AUTO VRB06KT 10SM CLR 39/11 A2981 RMK AO2,M
CXP,2024-08-10 00:15,-119.7326,39.1923,1431.00,91.40,35.60,14.02,290.00,14.00,0.00,30.07,M,10.00,M,CLR,M,M,M,M,M,M,M,M,M,M,M,M,M,M,87.17,KCXP 100015Z AUTO 29014KT 10SM CLR 33/02 A3007 RMK AO2,M
05U,2024-08-10 00:15,-116.0051,39.6042,1811.23,M,M,M,150.00,10.00,0.00,30.15,M,10.00,M,FEW,M,M,M,12000.00,M,M,M,M,M,M,M,M,M,M,M,K05U 100015Z AUTO 15010KT 10SM FEW120 A3015 RMK A01,M
MEV,2024-08-10 00:15,-119.7500,38.9963,1441.42,91.40,35.60,14.02,290.00,15.00,0.00,30.05,M,10.00,25.00,CLR,M,M,M,M,M,M,M,M,M,M,M,M,M,M,87.17,KMEV 100015Z AUTO 29015G25KT 10SM CLR 33/02 A3005 RMK AO2,M
BAM,2024-08-10 00:15,-116.8743,40.5990,1382.36,96.80,32.00,10.27,290.00,3.00,0.00,29.99,M,10.00,M,CLR,M,M,M,M,M,M,M,M,M,M,M,M,M,M,91.19,KBAM 100015Z AUTO 29003KT 10SM CLR 36/00 A2999 RMK AO1,M
HTH,2024-08-10 00:15,-118.6315,38.5448,1282.89,96.80,35.60,11.86,310.00,8.00,0.00,29.96,M,10.00,14.00,CLR,M,M,M,M,M,M,M,M,M,M,M,M,M,M,91.72,KHTH 100015Z AUTO 31008G14KT 10SM CLR 36/02 A2996 RMK A01,M
10U,2024-08-10 00:15,-116.1876,41.9532,1637.00,91.40,24.80,9.04,280.00,12.00,0.00,30.06,M,10.00,19.00,CLR,M,M,M,M,M,M,M,M,M,M,M,M,M,M,86.21,K10U 100015Z AUTO 28012G19KT 10SM CLR 33/M04 A3006 RMK AO2,M
TMT,2024-08-10 00:15,-117.1971,39.4643,1749.34,91.00,32.70,12.64,280.00,12.00,0.00,30.11,M,10.00,16.00,CLR,M,M,M,M,M,M,M,M,M,M,M,M,M,M,86.69,KTMT 100015Z AUTO 28012G16KT 10SM CLR 33/00 A3011 RMK AO2 T03270004,M
CXP,2024-08-10 00:30,-119.7326,39.1923,1431.00,91.40,35.60,14.02,280.00,10.00,0.00,30.07,M,10.00,17.00,CLR,M,M,M,M,M,M,M,M,M,M,M,M,M,M,87.17,KCXP 100030Z AUTO 28010G17KT 10SM CLR 33/02 A3007 RMK AO2,M
P68,2024-08-10 00:33,-116.0056,39.6014,1993.00,82.00,41.00,23.37,260.00,10.00,0.00,30.15,M,M,31.00,M,M,M,M,M,M,M,M,M,M,M,M,31.00,240.00,2024-08-10 00:29,80.04,KP68 100033Z AUTO 26010G31KT 28/05 A3015 RMK AO1 PK WND 24031/0029 WSHFT 0016 T02780050,M
BVU,2024-08-10 00:35,-114.8611,35.9475,671.00,100.40,51.80,19.76,0.00,0.00,0.00,29.81,M,10.00,12.00,CLR,M,M,M,M,M,M,M,M,M,M,M,M,M,M,97.90,KBVU 100035Z AUTO 00000G12KT 10SM CLR 38/11 A2981 RMK AO2,M
05U,2024-08-10 00:35,-116.0051,39.6042,1811.23,M,M,M,260.00,6.00,0.00,30.17,M,10.00,28.00,FEW,FEW,SCT,M,2900.00,3500.00,12000.00,M,M,M,M,M,M,M,M,M,K05U 100035Z AUTO 26006G28KT 10SM FEW029 FEW035 SCT120 A3017 RMK A01,M
MEV,2024-08-10 00:35,-119.7500,38.9963,1441.42,91.40,35.60,14.02,260.00,13.00,0.00,30.05,M,10.00,19.00,CLR,M,M,M,M,M,M,M,M,M,M,M,M,M,M,87.17,KMEV 100035Z AUTO 26013G19KT 10SM CLR 33/02 A3005 RMK AO2,M
BAM,2024-08-10 00:35,-116.8743,40.5990,1382.36,96.80,32.00,10.27,330.00,8.00,0.00,29.99,M,10.00,16.00,CLR,M,M,M,M,M,M,M,M,M,M,M,M,M,M,91.19,KBAM 100035Z AUTO 33008G16KT 10SM CLR 36/00 A2999 RMK AO1,M
HTH,2024-08-10 00:35,-118.6315,38.5448,1282.89,96.80,35.60,11.86,320.00,5.00,0.00,29.96,M,10.00,12.00,CLR,M,M,M,M,M,M,M,M,M,M,M,M,M,M,91.72,KHTH 100035Z AUTO 32005G12KT 10SM CLR 36/02 A2996 RMK A01,M
10U,2024-08-10 00:35,-116.1876,41.9532,1637.00,91.40,24.80,9.04,M,5.00,0.00,30.05,M,10.00,12.00,CLR,M,M,M,M,M,M,M,M,M,M,M,M,M,M,86.21,K10U 100035Z AUTO VRB05G12KT 10SM CLR 33/M04 A3005 RMK AO2,M
TMT,2024-08-10 00:35,-117.1971,39.4643,1749.34,91.00,33.00,12.79,290.00,16.00,0.00,30.11,M,10.00,20.00,CLR,M,M,M,M,M,M,M,M,M,M,M,M,M,M,86.73,KTMT 100035Z AUTO 29016G20KT 10SM CLR 33/01 A3011 RMK AO2 T03270005,M
05U,2024-08-10 00:50,-116.0051,39.6042,1811.23,M,M,M,0.00,0.00,0.00,30.14,M,9.00,11.00,CLR,M,M,M,M,M,M,M,M,M,M,M,M,M,M,M,K05U 100050Z AUTO 00000G11KT 9SM CLR A3014 RMK A01,M
P68,2024-08-10 00:53,-116.0056,39.6014,1993.00,83.00,38.00,20.13,110.00,6.00,0.00,30.11,1010.70,M,M,M,M,M,M,M,M,M,M,M,M,M,M,31.00,240.00,2024-08-10 00:29,80.56,KP68 100053Z AUTO 11006KT 28/03 A3011 RMK AO1 PK WND 24031/0029 WSHFT 0016 SLP107 T02830033,M
DRA,2024-08-10 00:53,-116.0278,36.6206,1009.00,103.00,47.00,15.28,240.00,12.00,0.00,29.87,1005.40,10.00,16.00,CLR,M,M,M,M,M,M,M,M,M,M,M,M,M,M,99.35,KDRA 100053Z AUTO 24012G16KT 10SM CLR 39/08 A2987 RMK AO2 SLP054 T03940083,M
ELY,2024-08-10 00:53,-114.8453,39.2950,1909.00,79.00,41.00,25.78,260.00,4.00,0.00,30.17,1011.00,10.00,M,CLR,M,M,M,M,M,M,M,M,M,M,M,M,M,M,79.00,KELY 100053Z AUTO 26004KT 10SM CLR 26/05 A3017 RMK AO2 SLP110 T02610050,M
VGT,2024-08-10 00:53,-115.1933,36.2111,667.00,103.00,57.00,22.09,130.00,7.00,0.00,29.80,1007.40,10.00,M,CLR,M,M,M,M,M,M,M,M,M,M,M,M,M,M,102.59,KVGT 100053Z 13007KT 10SM CLR 39/14 A2980 RMK AO2 LTG DSNT SW SLP074 T03940139,M
LOL,2024-08-10 00:53,-118.5701,40.0684,1192.43,98.00,35.00,11.16,260.00,9.00,0.00,29.93,1008.70,10.00,18.00,CLR,M,M,M,M,M,M,M,M,M,M,M,M,M,M,92.63,KLOL 100053Z AUTO 26009G18KT 10SM CLR 37/02 A2993 RMK AO2 SLP087 T03670017,M
BVU,2024-08-10 00:55,-114.8611,35.9475,671.00,100.40,50.00,18.48,130.00,5.00,0.00,29.80,M,10.00,M,CLR,M,M,M,M,M,M,M,M,M,M,M,M,M,M,97.42,KBVU 100055Z AUTO 13005KT 10SM CLR 38/10 A2980 RMK AO2,M
CXP,2024-08-10 00:55,-119.7326,39.1923,1431.00,89.60,35.60,14.83,270.00,8.00,0.00,30.07,M,10.00,19.00,CLR,M,M,M,M,M,M,M,M,M,M,M,M,M,M,85.62,KCXP 100055Z AUTO 27008G19KT 10SM CLR 32/02 A3007 RMK AO2,M
INS,2024-08-10 00:55,-115.6733,36.5872,955.00,101.50,50.00,17.88,110.00,13.00,0.00,29.85,1004.40,10.00,M,CLR,M,M,M,M,M,M,M,M,M,M,M,M,M,M,98.56,KINS 100055Z AUTO 11013KT 10SM CLR 39/10 A2985 RMK AO2 SLP044 T03860100,M
RNO,2024-08-10 00:55,-119.7711,39.4839,1341.00,94.00,36.00,13.13,270.00,14.00,0.00,30.01,1009.70,10.00,30.00,CLR,M,M,M,M,M,M,M,M,M,M,M,31.00,310.00,2024-08-09 23:56,89.49,KRNO 100055Z 27014G30KT 10SM CLR 34/02 A3001 RMK AO2 PK WND 31031/2356 SLP097 FU S THRU W T03440022,M
LSV,2024-08-10 00:55,-115.0343,36.2362,570.00,104.00,53.40,18.81,110.00,7.00,0.00,29.74,1003.90,10.00,M,CLR,M,M,M,M,M,M,M,M,M,M,M,M,M,M,102.24,KLSV 100055Z AUTO 11007KT 10SM CLR 40/12 A2974 RMK AO2 SLP039 T03990119 $,M
MEV,2024-08-10 00:55,-119.7500,38.9963,1441.42,91.40,33.80,13.05,250.00,18.00,0.00,30.04,M,10.00,M,CLR,M,M,M,M,M,M,M,M,M,M,M,M,M,M,87.13,KMEV 100055Z AUTO 25018KT 10SM CLR 33/01 A3004 RMK AO2,M
BAM,2024-08-10 00:55,-116.8743,40.5990,1382.36,96.80,33.80,11.04,270.00,10.00,0.00,29.99,M,10.00,18.00,CLR,M,M,M,M,M,M,M,M,M,M,M,M,M,M,91.44,KBAM 100055Z AUTO 27010G18KT 10SM CLR 36/01 A2999 RMK AO1,M
HTH,2024-08-10 00:55,-118.6315,38.5448,1282.89,98.60,33.80,10.45,350.00,7.00,0.00,29.96,M,10.00,M,CLR,M,M,M,M,M,M,M,M,M,M,M,M,M,M,92.94,KHTH 100055Z AUTO 35007KT 10SM CLR 37/01 A2996 RMK A01,M
10U,2024-08-10 00:55,-116.1876,41.9532,1637.00,89.60,24.80,9.56,300.00,11.00,0.00,30.05,M,10.00,17.00,CLR,M,M,M,M,M,M,M,M,M,M,M,M,M,M,84.88,K10U 100055Z AUTO 30011G17KT 10SM CLR 32/M04 A3005 RMK AO2,M
TMT,2024-08-10 00:55,-117.1971,39.4643,1749.34,90.50,32.70,12.84,290.00,9.00,0.00,30.10,M,10.00,18.00,CLR,M,M,M,M,M,M,M,M,M,M,M,M,M,M,86.31,KTMT 100055Z AUTO 29009G18KT 10SM CLR 33/00 A3010 RMK AO2 T03250004,M
EKO,2024-08-10 00:56,-115.7860,40.8242,1367.00,94.00,33.00,11.65,290.00,9.00,0.00,30.01,1009.90,10.00,M,CLR,M,M,M,M,M,M,M,M,M,M,M,M,M,M,89.06,KEKO 100056Z AUTO 29009KT 10SM CLR 34/01 A3001 RMK AO2 SLP099 T03440006,M
WMC,2024-08-10 00:56,-117.8072,40.9019,1315.00,97.00,31.00,9.80,290.00,13.00,0.00,29.96,1009.20,10.00,M,CLR,M,M,M,M,M,M,M,M,M,M,M,M,M,M,91.22,KWMC 100056Z AUTO 29013KT 10SM CLR 36/M01 A2996 RMK AO2 SLP092 T03611006,M
HND,2024-08-10 00:56,-115.1344,35.9729,742.79,102.00,56.00,21.96,130.00,7.00,0.00,29.85,1008.70,10.00,M,CLR,M,M,M,M,M,M,M,M,M,M,M,M,M,M,101.05,KHND 100056Z 13007KT 10SM CLR 39/13 A2985 RMK AO2 LTG DSNT SW SLP087 T03890133,M
TPH,2024-08-10 00:56,-117.0904,38.0505,1654.00,93.00,35.00,13.02,240.00,12.00,0.00,30.05,1008.20,10.00,18.00,CLR,M,M,M,M,M,M,M,M,M,M,M,M,M,M,88.56,KTPH 100056Z AUTO 24012G18KT 10SM CLR 34/02 A3005 RMK AO2 SLP082 T03390017,M
LAS,2024-08-10 00:56,-115.1634,36.0719,663.00,104.00,56.00,20.68,90.00,10.00,0.00,29.81,1006.30,10.00,M,FEW,FEW,SCT,M,10000.00,16000.00,22000.00,M,M,M,M,M,M,M,M,103.26,KLAS 100056Z 09010KT 10SM FEW100 FEW160 SCT220 40/13 A2981 RMK AO2 LTG DSNT SW SLP063 VIRGA SW CB DSNT NE-SE AND SW T04000133,M
NFL,2024-08-10 00:57,-118.7010,39.4166,1199.00,100.00,31.00,8.95,270.00,15.00,0.00,29.93,1010.80,10.00,20.00,FEW,M,M,M,9000.00,M,M,M,M,M,M,M,M,M,M,93.74,KNFL 100057Z 27015G20KT 10SM FEW090 38/M01 A2993 RMK AO2 SLP108 T03781006,M
05U,2024-08-10 01:10,-116.0051,39.6042,1811.23,M,M,M,0.00,0.00,0.00,30.13,M,10.00,10.00,CLR,M,M,M,M,M,M,M,M,M,M,M,M,M,M,M,K05U 100110Z AUTO 00000G10KT 10SM CLR A3013 RMK A01,M
BVU,2024-08-10 01:15,-114.8611,35.9475,671.00,100.40,51.80,19.76,130.00,10.00,0.00,29.80,M,10.00,M,CLR,M,M,M,M,M,M,M,M,M,M,M,M,M,M,97.90,KBVU 100115Z AUTO 13010KT 10SM CLR 38/11 A2980 RMK AO2,M
CXP,2024-08-10 01:15,-119.7326,39.1923,1431.00,89.60,35.60,14.83,290.00,15.00,0.00,30.07,M,10.00,M,CLR,M,M,M,M,M,M,M,M,M,M,M,M,M,M,85.62,KCXP 100115Z AUTO 29015KT 10SM CLR 32/02 A3007 RMK AO2,M
MEV,2024-08-10 01:15,-119.7500,38.9963,1441.42,89.60,33.80,13.80,250.00,14.00,0.00,30.05,M,10.00,20.00,CLR,M,M,M,M,M,M,M,M,M,M,M,M,M,M,85.59,KMEV 100115Z AUTO 25014G20KT 10SM CLR 32/01 A3005 RMK AO2,M
BAM,2024-08-10 01:15,-116.8743,40.5990,1382.36,96.80,32.00,10.27,310.00,9.00,0.00,29.98,M,10.00,M,CLR,M,M,M,M,M,M,M,M,M,M,M,M,M,M,91.19,KBAM 100115Z AUTO 31009KT 10SM CLR 36/00 A2998 RMK AO1,M
HTH,2024-08-10 01:15,-118.6315,38.5448,1282.89,98.60,33.80,10.45,290.00,7.00,0.00,29.96,M,10.00,M,CLR,M,M,M,M,M,M,M,M,M,M,M,M,M,M,92.94,KHTH 100115Z AUTO 29007KT 10SM CLR 37/01 A2996 RMK A01,M
10U,2024-08-10 01:15,-116.1876,41.9532,1637.00,87.80,28.40,11.74,340.00,12.00,0.00,30.05,M,10.00,M,CLR,M,M,M,M,M,M,M,M,M,M,M,M,M,M,83.84,K10U 100115Z AUTO 34012KT 10SM CLR 31/M02 A3005 RMK AO2,M
TMT,2024-08-10 01:15,-117.1971,39.4643,1749.34,89.60,32.70,13.21,270.00,12.00,0.00,30.10,M,10.00,M,CLR,M,M,M,M,M,M,M,M,M,M,M,M,M,M,85.58,KTMT 100115Z AUTO 27012KT 10SM CLR 32/00 A3010 RMK AO2 T03200004,M
05U,2024-08-10 01:30,-116.0051,39.6042,1811.23,M,M,M,0.00,0.00,0.00,30.13,M,10.00,M,CLR,M,M,M,M,M,M,M,M,M,M,M,M,M,M,M,K05U 100130Z AUTO 00000KT 10SM CLR A3013 RMK A01,M
BVU,2024-08-10 01:35,-114.8611,35.9475,671.00,100.40,51.80,19.76,120.00,10.00,0.00,29.80,M,10.00,M,CLR,M,M,M,M,M,M,M,M,M,M,M,M,M,M,97.90,KBVU 100135Z AUTO 12010KT 10SM CLR 38/11 A2980 RMK AO2,M
CXP,2024-08-10 01:35,-119.7326,39.1923,1431.00,87.80,33.80,14.61,280.00,13.00,0.00,30.07,M,10.00,21.00,CLR,M,M,M,M,M,M,M,M,M,M,M,M,M,M,84.10,KCXP 100135Z AUTO 28013G21KT 10SM CLR 31/01 A3007 RMK AO2,M
MEV,2024-08-10 01:35,-119.7500,38.9963,1441.42,89.60,33.80,13.80,270.00,13.00,0.00,30.05,M,10.00,20.00,CLR,M,M,M,M,M,M,M,M,M,M,M,M,M,M,85.59,KMEV 100135Z AUTO 27013G20KT 10SM CLR 32/01 A3005 RMK AO2,M
HTH,2024-08-10 01:35,-118.6315,38.5448,1282.89,96.80,33.80,11.04,0.00,0.00,0.00,29.97,M,10.00,M,CLR,M,M,M,M,M,M,M,M,M,M,M,M,M,M,91.44,KHTH 100135Z AUTO 00000KT 10SM CLR 36/01 A2997 RMK A01,M
10U,2024-08-10 01:35,-116.1876,41.9532,1637.00,86.00,30.20,13.38,320.00,12.00,0.00,30.05,M,10.00,M,CLR,M,M,M,M,M,M,M,M,M,M,M,M,M,M,82.64,K10U 100135Z AUTO 32012KT 10SM CLR 30/M01 A3005 RMK AO2,M
BAM,2024-08-10 01:35,-116.8743,40.5990,1382.36,95.00,32.00,10.85,320.00,10.00,0.00,29.98,M,10.00,14.00,CLR,M,M,M,M,M,M,M,M,M,M,M,M,M,M,89.71,KBAM 100135Z AUTO 32010G14KT 10SM CLR 35/00 A2998 RMK AO1,M
TMT,2024-08-10 01:35,-117.1971,39.4643,1749.34,88.50,32.50,13.57,310.00,15.00,0.00,30.11,M,10.00,19.00,CLR,M,M,M,M,M,M,M,M,M,M,M,M,M,M,84.66,KTMT 100135Z AUTO 31015G19KT 10SM CLR 31/00 A3011 RMK AO2 T03140003,M
HND,2024-08-10 01:49,-115.1344,35.9729,742.79,100.40,57.20,24.06,210.00,14.00,0.00,29.86,M,10.00,M,CLR,M,M,M,M,M,M,M,M,M,M,M,M,M,M,99.77,KHND 100149Z 21014KT 10SM CLR 38/14 A2986 RMK AO2 WSHFT 0129,M
05U,2024-08-10 01:50,-116.0051,39.6042,1811.23,M,M,M,130.00,7.00,0.00,30.13,M,10.00,M,CLR,M,M,M,M,M,M,M,M,M,M,M,M,M,M,M,K05U 100150Z AUTO 13007KT 10SM CLR A3013 RMK A01,M
P68,2024-08-10 01:53,-116.0056,39.6014,1993.00,84.00,40.00,21.07,140.00,9.00,0.00,30.11,1010.20,M,M,M,M,M,M,M,M,M,M,M,M,M,M,M,M,M,81.33,KP68 100153Z AUTO 14009KT 29/04 A3011 RMK AO1 SLP102 T02890044,M
DRA,2024-08-10 01:53,-116.0278,36.6206,1009.00,101.00,47.00,16.22,230.00,12.00,0.00,29.88,1005.70,10.00,M,CLR,M,M,M,M,M,M,M,M,M,M,M,M,M,M,97.35,KDRA 100153Z AUTO 23012KT 10SM CLR 38/08 A2988 RMK AO2 SLP057 T03830083,M
ELY,2024-08-10 01:53,-114.8453,39.2950,1909.00,74.00,50.00,42.82,320.00,4.00,0.00,30.18,1012.00,10.00,M,CLR,M,M,M,M,M,M,M,M,M,M,M,M,M,M,74.00,KELY 100153Z AUTO 32004KT 10SM CLR 23/10 A3018 RMK AO2 SLP120 T02330100,M
VGT,2024-08-10 01:53,-115.1933,36.2111,667.00,103.00,56.00,21.31,120.00,10.00,0.00,29.80,1007.60,10.00,M,CLR,M,M,M,M,M,M,M,M,M,M,M,M,M,M,102.16,KVGT 100153Z 12010KT 10SM CLR 39/13 A2980 RMK AO2 SLP076 T03940133,M
LOL,2024-08-10 01:53,-118.5701,40.0684,1192.43,95.00,36.00,12.73,300.00,13.00,0.00,29.93,1009.00,10.00,M,CLR,M,M,M,M,M,M,M,M,M,M,M,M,M,M,90.32,KLOL 100153Z AUTO 30013KT 10SM CLR 35/02 A2993 RMK AO2 SLP090 T03500022,M
BVU,2024-08-10 01:55,-114.8611,35.9475,671.00,100.40,50.00,18.48,140.00,10.00,0.00,29.81,M,10.00,M,CLR,M,M,M,M,M,M,M,M,M,M,M,M,M,M,97.42,KBVU 100155Z AUTO 14010KT 10SM CLR 38/10 A2981 RMK AO2,M
CXP,2024-08-10 01:55,-119.7326,39.1923,1431.00,87.80,33.80,14.61,290.00,14.00,0.00,30.07,M,10.00,M,CLR,M,M,M,M,M,M,M,M,M,M,M,M,M,M,84.10,KCXP 100155Z AUTO 29014KT 10SM CLR 31/01 A3007 RMK AO2,M
INS,2024-08-10 01:55,-115.6733,36.5872,955.00,100.00,53.00,20.90,110.00,13.00,0.00,29.86,1004.80,10.00,M,CLR,M,M,M,M,M,M,M,M,M,M,M,M,M,M,97.82,KINS 100155Z AUTO 11013KT 10SM CLR 38/12 A2986 RMK AO2 SLP048 T03770116,M
RNO,2024-08-10 01:55,-119.7711,39.4839,1341.00,91.00,36.00,14.42,270.00,19.00,0.00,30.02,1010.20,10.00,25.00,CLR,M,M,M,M,M,M,M,M,M,M,M,27.00,280.00,2024-08-10 01:19,86.83,KRNO 100155Z 27019G25KT 10SM CLR 33/02 A3002 RMK AO2 PK WND 28027/0119 SLP102 T03280022,M
MEV,2024-08-10 01:55,-119.7500,38.9963,1441.42,87.80,33.80,14.61,270.00,11.00,0.00,30.05,M,10.00,18.00,CLR,M,M,M,M,M,M,M,M,M,M,M,M,M,M,84.10,KMEV 100155Z AUTO 27011G18KT 10SM CLR 31/01 A3005 RMK AO2,M
BAM,2024-08-10 01:55,-116.8743,40.5990,1382.36,93.20,35.60,13.25,330.00,8.00,0.00,29.99,M,10.00,M,CLR,M,M,M,M,M,M,M,M,M,M,M,M,M,M,88.76,KBAM 100155Z AUTO 33008KT 10SM CLR 34/02 A2999 RMK AO1,M
HTH,2024-08-10 01:55,-118.6315,38.5448,1282.89,95.00,37.40,13.46,190.00,8.00,0.00,29.97,M,10.00,M,CLR,M,M,M,M,M,M,M,M,M,M,M,M,M,M,90.46,KHTH 100155Z AUTO 19008KT 10SM CLR 35/03 A2997 RMK A01,M
10U,2024-08-10 01:55,-116.1876,41.9532,1637.00,84.20,32.00,15.25,350.00,7.00,0.00,30.05,M,10.00,M,CLR,M,M,M,M,M,M,M,M,M,M,M,M,M,M,81.28,K10U 100155Z AUTO 35007KT 10SM CLR 29/M00 A3005 RMK AO2,M
TMT,2024-08-10 01:55,-117.1971,39.4643,1749.34,87.00,32.50,14.23,300.00,13.00,0.00,30.11,M,10.00,21.00,CLR,M,M,M,M,M,M,M,M,M,M,M,M,M,M,83.44,KTMT 100155Z AUTO 30013G21KT 10SM CLR 31/00 A3011 RMK AO2 T03060003,M
LSV,2024-08-10 01:55,-115.0343,36.2362,570.00,103.00,49.60,16.84,120.00,9.00,0.00,29.75,1004.20,10.00,M,FEW,M,M,M,22000.00,M,M,M,M,M,M,M,M,M,M,100.00,KLSV 100155Z AUTO 12009KT 10SM FEW220 39/10 A2975 RMK AO2 SLP042 T03940098 $,M
EKO,2024-08-10 01:56,-115.7860,40.8242,1367.00,92.00,30.00,10.99,300.00,10.00,0.00,30.01,1009.80,10.00,M,CLR,M,M,M,M,M,M,M,M,M,M,M,M,M,M,87.15,KEKO 100156Z AUTO 30010KT 10SM CLR 33/M01 A3001 RMK AO2 SLP098 T03331011,M
WMC,2024-08-10 01:56,-117.8072,40.9019,1315.00,94.00,30.00,10.32,290.00,7.00,0.00,29.96,1009.10,10.00,M,CLR,M,M,M,M,M,M,M,M,M,M,M,M,M,M,88.68,KWMC 100156Z AUTO 29007KT 10SM CLR 34/M01 A2996 RMK AO2 SLP091 T03441011,M
HND,2024-08-10 01:56,-115.1344,35.9729,742.79,101.00,58.00,24.32,220.00,12.00,0.00,29.86,1009.10,10.00,M,CLR,M,M,M,M,M,M,M,M,M,M,M,M,M,M,100.79,KHND 100156Z 22012KT 10SM CLR 38/14 A2986 RMK AO2 WSHFT 0129 SLP091 T03830144,M
TPH,2024-08-10 01:56,-117.0904,38.0505,1654.00,92.00,34.00,12.91,250.00,13.00,0.00,30.06,1008.40,10.00,M,CLR,M,M,M,M,M,M,M,M,M,M,M,M,M,M,87.64,KTPH 100156Z AUTO 25013KT 10SM CLR 33/01 A3006 RMK AO2 SLP084 T03330011,M
LAS,2024-08-10 01:56,-115.1634,36.0719,663.00,104.00,55.00,19.95,110.00,8.00,0.00,29.82,1006.40,10.00,M,FEW,FEW,SCT,M,10000.00,16000.00,22000.00,M,M,M,M,M,M,M,M,102.85,KLAS 100156Z 11008KT 10SM FEW100 FEW160 SCT220 40/13 A2982 RMK AO2 SLP064 T04000128,M
NFL,2024-08-10 01:57,-118.7010,39.4166,1199.00,96.00,33.00,10.96,270.00,12.00,0.00,29.94,1011.10,10.00,20.00,FEW,M,M,M,9000.00,M,M,M,M,M,M,M,M,M,M,90.66,KNFL 100157Z 27012G20KT 10SM FEW090 36/01 A2994 RMK AO2 SLP111 T03560006,M
LAS,2024-08-10 02:06,-115.1634,36.0719,663.00,104.00,55.00,19.95,190.00,6.00,0.00,29.82,M,10.00,20.00,FEW,FEW,SCT,M,10000.00,16000.00,22000.00,M,M,M,M,M,M,M,M,102.85,KLAS 100206Z 19006G20KT 10SM FEW100 FEW160 SCT220 40/13 A2982 RMK AO2 T04000128,M
05U,2024-08-10 02:10,-116.0051,39.6042,1811.23,M,M,M,0.00,0.00,0.00,30.13,M,10.00,M,CLR,M,M,M,M,M,M,M,M,M,M,M,M,M,M,M,K05U 100210Z AUTO 00000KT 10SM CLR A3013 RMK A01,M
BVU,2024-08-10 02:15,-114.8611,35.9475,671.00,100.40,50.00,18.48,170.00,11.00,0.00,29.82,M,10.00,M,CLR,M,M,M,M,M,M,M,M,M,M,M,M,M,M,97.42,KBVU 100215Z AUTO 17011KT 10SM CLR 38/10 A2982 RMK AO2,M
CXP,2024-08-10 02:15,-119.7326,39.1923,1431.00,86.00,33.80,15.48,300.00,15.00,0.00,30.07,M,10.00,22.00,CLR,M,M,M,M,M,M,M,M,M,M,M,M,M,M,82.66,KCXP 100215Z AUTO 30015G22KT 10SM CLR 30/01 A3007 RMK AO2,M
MEV,2024-08-10 02:15,-119.7500,38.9963,1441.42,86.00,35.60,16.63,260.00,12.00,0.00,30.06,M,10.00,M,CLR,M,M,M,M,M,M,M,M,M,M,M,M,M,M,82.69,KMEV 100215Z AUTO 26012KT 10SM CLR 30/02 A3006 RMK AO2,M
BAM,2024-08-10 02:15,-116.8743,40.5990,1382.36,91.40,35.60,14.02,340.00,8.00,0.00,29.99,M,10.00,M,CLR,M,M,M,M,M,M,M,M,M,M,M,M,M,M,87.17,KBAM 100215Z AUTO 34008KT 10SM CLR 33/02 A2999 RMK AO1,M
HTH,2024-08-10 02:15,-118.6315,38.5448,1282.89,95.00,37.40,13.46,180.00,8.00,0.00,29.97,M,10.00,M,FEW,FEW,M,M,6500.00,11000.00,M,M,M,M,M,M,M,M,M,90.46,KHTH 100215Z AUTO 18008KT 10SM FEW065 FEW110 35/03 A2997 RMK A01,M
10U,2024-08-10 02:15,-116.1876,41.9532,1637.00,82.40,33.80,17.38,330.00,6.00,0.00,30.06,M,10.00,M,CLR,M,M,M,M,M,M,M,M,M,M,M,M,M,M,80.03,K10U 100215Z AUTO 33006KT 10SM CLR 28/01 A3006 RMK AO2,M
TMT,2024-08-10 02:15,-117.1971,39.4643,1749.34,85.50,32.50,14.93,320.00,12.00,0.00,30.11,M,10.00,16.00,CLR,M,M,M,M,M,M,M,M,M,M,M,M,M,M,82.26,KTMT 100215Z AUTO 32012G16KT 10SM CLR 30/00 A3011 RMK AO2 T02970003,M
TPH,2024-08-10 02:17,-117.0904,38.0505,1654.00,91.00,34.00,13.32,280.00,9.00,0.00,30.07,M,10.00,33.00,FEW,M,M,M,11000.00,M,M,M,M,M,M,M,33.00,320.00,2024-08-10 02:09,86.79,KTPH 100217Z AUTO 28009G33KT 250V320 10SM FEW110 33/01 A3007 RMK AO2 PK WND 32033/0209 WSHFT 0157 T03280011,M
BVU,2024-08-10 02:35,-114.8611,35.9475,671.00,98.60,50.00,19.52,160.00,10.00,0.00,29.82,M,10.00,M,CLR,M,M,M,M,M,M,M,M,M,M,M,M,M,M,95.56,KBVU 100235Z AUTO 16010KT 10SM CLR 37/10 A2982 RMK AO2,M
CXP,2024-08-10 02:35,-119.7326,39.1923,1431.00,86.00,32.00,14.40,280.00,10.00,0.00,30.08,M,10.00,18.00,CLR,M,M,M,M,M,M,M,M,M,M,M,M,M,M,82.64,KCXP 100235Z AUTO 28010G18KT 240V300 10SM CLR 30/00 A3008 RMK AO2,M
05U,2024-08-10 02:35,-116.0051,39.6042,1811.23,M,M,M,0.00,0.00,0.00,30.14,M,10.00,10.00,CLR,M,M,M,M,M,M,M,M,M,M,M,M,M,M,M,K05U 100235Z AUTO 00000G10KT 10SM CLR A3014 RMK A01,M
MEV,2024-08-10 02:35,-119.7500,38.9963,1441.42,84.20,33.80,16.39,270.00,12.00,0.00,30.06,M,10.00,M,CLR,M,M,M,M,M,M,M,M,M,M,M,M,M,M,81.30,KMEV 100235Z AUTO 27012KT 10SM CLR 29/01 A3006 RMK AO2,M
BAM,2024-08-10 02:35,-116.8743,40.5990,1382.36,89.60,37.40,15.92,330.00,9.00,0.00,29.99,M,10.00,M,CLR,M,M,M,M,M,M,M,M,M,M,M,M,M,M,85.67,KBAM 100235Z AUTO 33009KT 10SM CLR 32/03 A2999 RMK AO1,M
HTH,2024-08-10 02:35,-118.6315,38.5448,1282.89,95.00,33.80,11.67,0.00,0.00,0.00,29.97,M,10.00,M,FEW,FEW,M,M,6000.00,11000.00,M,M,M,M,M,M,M,M,M,89.97,KHTH 100235Z AUTO 00000KT 10SM FEW060 FEW110 35/01 A2997 RMK A01,M
TMT,2024-08-10 02:35,-117.1971,39.4643,1749.34,83.00,32.70,16.31,320.00,7.00,0.00,30.12,M,10.00,M,CLR,M,M,M,M,M,M,M,M,M,M,M,M,M,M,80.42,KTMT 100235Z AUTO 32007KT 10SM CLR 28/00 A3012 RMK AO2 T02830004,M
10U,2024-08-10 02:35,-116.1876,41.9532,1637.00,78.80,33.80,19.55,350.00,5.00,0.00,30.06,M,10.00,M,CLR,M,M,M,M,M,M,M,M,M,M,M,M,M,M,78.80,K10U 100235Z AUTO 35005KT 10SM CLR 26/01 A3006 RMK AO2,M
MEV,2024-08-10 02:50,-119.7500,38.9963,1441.42,84.20,33.80,16.39,280.00,8.00,0.00,30.06,M,10.00,19.00,CLR,M,M,M,M,M,M,M,M,M,M,M,M,M,M,81.30,KMEV 100250Z AUTO 28008G19KT 10SM CLR 29/01 A3006 RMK AO2,M
P68,2024-08-10 02:53,-116.0056,39.6014,1993.00,78.00,42.00,27.69,190.00,3.00,0.00,30.12,1010.40,M,M,M,M,M,M,M,M,M,M,M,M,M,M,M,M,M,78.00,KP68 100253Z AUTO 19003KT 26/06 A3012 RMK AO1 SLP104 T02560056 53002,M
DRA,2024-08-10 02:53,-116.0278,36.6206,1009.00,98.00,48.00,18.45,200.00,10.00,0.00,29.88,1005.70,10.00,M,CLR,M,M,M,M,M,M,M,M,M,M,M,M,M,M,94.53,KDRA 100253Z AUTO 20010KT 10SM CLR 37/09 A2988 RMK AO2 SLP057 T03670089 53001,M
ELY,2024-08-10 02:53,-114.8453,39.2950,1909.00,74.00,47.00,38.27,140.00,6.00,0.00,30.17,1010.30,10.00,M,CLR,M,M,M,M,M,M,M,M,M,M,M,M,M,M,74.00,KELY 100253Z AUTO 14006KT 10SM CLR 23/08 A3017 RMK AO2 SLP103 T02330083 57005,M
VGT,2024-08-10 02:53,-115.1933,36.2111,667.00,101.00,55.00,21.82,100.00,10.00,0.00,29.81,1007.80,10.00,M,CLR,M,M,M,M,M,M,M,M,M,M,M,M,M,M,99.57,KVGT 100253Z 10010KT 10SM CLR 38/13 A2981 RMK AO2 SLP078 T03830128 55000,M
LOL,2024-08-10 02:53,-118.5701,40.0684,1192.43,90.00,33.00,13.20,280.00,12.00,0.00,29.94,1009.20,10.00,M,CLR,M,M,M,M,M,M,M,M,M,M,M,M,M,M,85.92,KLOL 100253Z AUTO 28012KT 10SM CLR 32/01 A2994 RMK AO2 SLP092 T03220006 55000,M
05U,2024-08-10 02:55,-116.0051,39.6042,1811.23,M,M,M,0.00,0.00,0.00,30.15,M,10.00,M,CLR,M,M,M,M,M,M,M,M,M,M,M,M,M,M,M,K05U 100255Z AUTO 00000KT 10SM CLR A3015 RMK A01,M
BVU,2024-08-10 02:55,-114.8611,35.9475,671.00,98.60,50.00,19.52,160.00,8.00,0.00,29.82,M,10.00,M,CLR,M,M,M,M,M,M,M,M,M,M,M,M,M,M,95.56,KBVU 100255Z AUTO 16008KT 10SM CLR 37/10 A2982 RMK AO2,M
CXP,2024-08-10 02:55,-119.7326,39.1923,1431.00,84.20,32.00,15.25,300.00,11.00,0.00,30.08,M,10.00,17.00,CLR,M,M,M,M,M,M,M,M,M,M,M,M,M,M,81.28,KCXP 100255Z AUTO 30011G17KT 10SM CLR 29/00 A3008 RMK AO2,M
INS,2024-08-10 02:55,-115.6733,36.5872,955.00,97.00,49.30,19.97,120.00,10.00,0.00,29.87,1005.20,10.00,M,CLR,M,M,M,M,M,M,M,M,M,M,M,M,M,M,93.77,KINS 100255Z AUTO 12010KT 10SM CLR 36/10 A2987 RMK AO2 SLP052 T03620096 53005,M
RNO,2024-08-10 02:55,-119.7711,39.4839,1341.00,87.00,37.00,17.02,270.00,14.00,0.00,30.04,1010.70,10.00,22.00,CLR,M,M,M,M,M,M,M,M,M,M,M,35.00,270.00,2024-08-10 02:31,83.51,KRNO 100255Z 27014G22KT 10SM CLR 31/03 A3004 RMK AO2 PK WND 27035/0231 SLP107 FU ALF DSNT S THRU NW T03060028 53007,M
BAM,2024-08-10 02:55,-116.8743,40.5990,1382.36,87.80,35.60,15.70,320.00,7.00,0.00,30.00,M,10.00,M,CLR,M,M,M,M,M,M,M,M,M,M,M,M,M,M,84.12,KBAM 100255Z AUTO 32007KT 10SM CLR 31/02 A3000 RMK AO1,M
HTH,2024-08-10 02:55,-118.6315,38.5448,1282.89,93.20,32.00,11.48,330.00,12.00,0.00,29.98,M,10.00,M,CLR,M,M,M,M,M,M,M,M,M,M,M,M,M,M,88.31,KHTH 100255Z AUTO 33012KT 10SM CLR 34/M00 A2998 RMK A01,M
10U,2024-08-10 02:55,-116.1876,41.9532,1637.00,75.20,37.40,25.40,20.00,4.00,0.00,30.07,M,10.00,M,CLR,M,M,M,M,M,M,M,M,M,M,M,M,M,M,75.20,K10U 100255Z AUTO 02004KT 10SM CLR 24/03 A3007 RMK AO2,M
TMT,2024-08-10 02:55,-117.1971,39.4643,1749.34,79.50,32.50,18.13,310.00,8.00,0.00,30.13,M,10.00,M,CLR,M,M,M,M,M,M,M,M,M,M,M,M,M,M,79.50,KTMT 100255Z AUTO 31008KT 10SM CLR 26/00 A3013 RMK AO2 T02640003,M
LSV,2024-08-10 02:55,-115.0343,36.2362,570.00,100.80,49.50,17.93,110.00,7.00,0.00,29.76,1004.60,10.00,M,CLR,M,M,M,M,M,M,M,M,M,M,M,M,M,M,97.71,KLSV 100255Z AUTO 11007KT 10SM CLR 38/10 A2976 RMK AO2 SLP046 T03820097 53002 $,M
EKO,2024-08-10 02:56,-115.7860,40.8242,1367.00,85.00,30.00,13.71,320.00,7.00,0.00,30.03,1010.30,10.00,M,CLR,M,M,M,M,M,M,M,M,M,M,M,M,M,M,81.86,KEKO 100256Z AUTO 32007KT 10SM CLR 29/M01 A3003 RMK AO2 SLP103 T02941011 53004,M
WMC,2024-08-10 02:56,-117.8072,40.9019,1315.00,85.00,31.00,14.28,260.00,4.00,0.00,29.97,1009.40,10.00,M,CLR,M,M,M,M,M,M,M,M,M,M,M,M,M,M,81.87,KWMC 100256Z AUTO 26004KT 10SM CLR 29/M01 A2997 RMK AO2 SLP094 T02941006 55001,M
HND,2024-08-10 02:56,-115.1344,35.9729,742.79,98.00,57.00,25.69,200.00,11.00,0.00,29.87,1009.50,10.00,M,CLR,M,M,M,M,M,M,M,M,M,M,M,M,M,M,97.02,KHND 100256Z 20011KT 10SM CLR 37/14 A2987 RMK AO2 SLP095 T03670139 53005,M
TPH,2024-08-10 02:56,-117.0904,38.0505,1654.00,88.00,35.00,15.23,280.00,7.00,0.00,30.08,1008.70,10.00,M,CLR,M,M,M,M,M,M,M,M,M,M,M,33.00,320.00,2024-08-10 02:09,84.28,KTPH 100256Z AUTO 28007KT 10SM CLR 31/02 A3008 RMK AO2 PK WND 32033/0209 WSHFT 0157 SLP087 T03110017 53006,M
LAS,2024-08-10 02:56,-115.1634,36.0719,663.00,102.00,55.00,21.17,180.00,9.00,0.00,29.83,1006.80,10.00,M,FEW,FEW,SCT,M,10000.00,16000.00,22000.00,M,M,M,M,M,M,M,M,100.66,KLAS 100256Z 18009KT 10SM FEW100 FEW160 SCT220 39/13 A2983 RMK AO2 SLP068 CB DSNT N-NE T03890128 53001,M
NFL,2024-08-10 02:57,-118.7010,39.4166,1199.00,90.00,34.00,13.74,290.00,8.00,0.00,29.96,1011.70,10.00,M,FEW,M,M,M,9000.00,M,M,M,M,M,M,M,M,M,M,85.93,KNFL 100257Z 29008KT 10SM FEW090 32/01 A2996 RMK AO2 SLP117 T03220011 53005,M
05U,2024-08-10 03:10,-116.0051,39.6042,1811.23,M,M,M,0.00,0.00,0.00,30.15,M,10.00,M,CLR,M,M,M,M,M,M,M,M,M,M,M,M,M,M,M,K05U 100310Z AUTO 00000KT 10SM CLR A3015 RMK A01,M
BVU,2024-08-10 03:15,-114.8611,35.9475,671.00,98.60,51.80,20.87,150.00,7.00,0.00,29.83,M,10.00,M,CLR,M,M,M,M,M,M,M,M,M,M,M,M,M,M,96.00,KBVU 100315Z AUTO 15007KT 10SM CLR 37/11 A2983 RMK AO2,M
CXP,2024-08-10 03:15,-119.7326,39.1923,1431.00,82.40,33.80,17.38,300.00,11.00,0.00,30.08,M,10.00,17.00,CLR,M,M,M,M,M,M,M,M,M,M,M,M,M,M,80.03,KCXP 100315Z AUTO 30011G17KT 10SM CLR 28/01 A3008 RMK AO2,M
RTS,2024-08-10 03:15,-119.8764,39.6682,1539.00,78.80,33.80,19.55,270.00,10.00,0.00,30.12,M,10.00,M,CLR,M,M,M,M,M,M,M,M,M,M,M,M,M,M,78.80,KRTS 100315Z AUTO 27010KT 10SM CLR 26/01 A3012 RMK AO2,M
MEV,2024-08-10 03:15,-119.7500,38.9963,1441.42,82.40,37.40,20.04,300.00,12.00,0.00,30.07,M,10.00,M,CLR,M,M,M,M,M,M,M,M,M,M,M,M,M,M,80.14,KMEV 100315Z AUTO 30012KT 10SM CLR 28/03 A3007 RMK AO2,M
BAM,2024-08-10 03:15,-116.8743,40.5990,1382.36,86.00,35.60,16.63,330.00,7.00,0.00,30.00,M,10.00,M,CLR,M,M,M,M,M,M,M,M,M,M,M,M,M,M,82.69,KBAM 100315Z AUTO 33007KT 10SM CLR 30/02 A3000 RMK AO1,M
HTH,2024-08-10 03:15,-118.6315,38.5448,1282.89,91.40,32.00,12.14,340.00,10.00,0.00,29.98,M,10.00,M,CLR,M,M,M,M,M,M,M,M,M,M,M,M,M,M,86.91,KHTH 100315Z AUTO 34010KT 10SM CLR 33/00 A2998 RMK A01,M
10U,2024-08-10 03:15,-116.1876,41.9532,1637.00,73.40,35.60,25.13,40.00,7.00,0.00,30.07,M,10.00,M,CLR,M,M,M,M,M,M,M,M,M,M,M,M,M,M,73.40,K10U 100315Z AUTO 04007KT 10SM CLR 23/02 A3007 RMK AO2,M
TMT,2024-08-10 03:15,-117.1971,39.4643,1749.34,76.00,32.00,19.95,310.00,8.00,0.00,30.14,M,10.00,M,CLR,M,M,M,M,M,M,M,M,M,M,M,M,M,M,76.00,KTMT 100315Z AUTO 31008KT 10SM CLR 24/00 A3014 RMK AO2 T02440000,M
05U,2024-08-10 03:30,-116.0051,39.6042,1811.23,M,M,M,0.00,0.00,0.00,30.16,M,10.00,M,CLR,M,M,M,M,M,M,M,M,M,M,M,M,M,M,M,K05U 100330Z AUTO 00000KT 10SM CLR A3016 RMK A01,M
BVU,2024-08-10 03:35,-114.8611,35.9475,671.00,96.80,50.00,20.62,140.00,7.00,0.00,29.83,M,10.00,M,CLR,M,M,M,M,M,M,M,M,M,M,M,M,M,M,93.71,KBVU 100335Z AUTO 14007KT 10SM CLR 36/10 A2983 RMK AO2,M
CXP,2024-08-10 03:35,-119.7326,39.1923,1431.00,82.40,35.60,18.67,M,6.00,0.00,30.10,M,10.00,M,CLR,M,M,M,M,M,M,M,M,M,M,M,M,M,M,80.08,KCXP 100335Z AUTO VRB06KT 10SM CLR 28/02 A3010 RMK AO2,M
RTS,2024-08-10 03:35,-119.8764,39.6682,1539.00,77.00,35.60,22.28,270.00,10.00,0.00,30.13,M,10.00,M,CLR,M,M,M,M,M,M,M,M,M,M,M,M,M,M,77.00,KRTS 100335Z AUTO 27010KT 10SM CLR 25/02 A3013 RMK AO2,M
MEV,2024-08-10 03:35,-119.7500,38.9963,1441.42,78.80,39.20,24.19,10.00,6.00,0.00,30.08,M,10.00,M,CLR,M,M,M,M,M,M,M,M,M,M,M,M,M,M,78.80,KMEV 100335Z AUTO 01006KT 10SM CLR 26/04 A3008 RMK AO2,M
BAM,2024-08-10 03:35,-116.8743,40.5990,1382.36,82.40,35.60,18.67,320.00,5.00,0.00,30.01,M,10.00,M,CLR,M,M,M,M,M,M,M,M,M,M,M,M,M,M,80.08,KBAM 100335Z AUTO 32005KT 10SM CLR 28/02 A3001 RMK AO1,M
HTH,2024-08-10 03:35,-118.6315,38.5448,1282.89,89.60,32.00,12.84,10.00,12.00,0.00,29.99,M,10.00,M,CLR,M,M,M,M,M,M,M,M,M,M,M,M,M,M,85.54,KHTH 100335Z AUTO 01012KT 10SM CLR 32/00 A2999 RMK A01,M
10U,2024-08-10 03:35,-116.1876,41.9532,1637.00,69.80,35.60,28.39,130.00,5.00,0.00,30.08,M,10.00,M,CLR,M,M,M,M,M,M,M,M,M,M,M,M,M,M,69.80,K10U 100335Z AUTO 13005KT 10SM CLR 21/02 A3008 RMK AO2,M
TMT,2024-08-10 03:35,-117.1971,39.4643,1749.34,73.40,32.00,21.76,330.00,7.00,0.00,30.15,M,10.00,M,CLR,M,M,M,M,M,M,M,M,M,M,M,M,M,M,73.40,KTMT 100335Z AUTO 33007KT 10SM CLR 23/00 A3015 RMK AO2 T02300000,M
05U,2024-08-10 03:50,-116.0051,39.6042,1811.23,M,M,M,0.00,0.00,0.00,30.17,M,10.00,M,CLR,M,M,M,M,M,M,M,M,M,M,M,M,M,M,M,K05U 100350Z AUTO 00000KT 10SM CLR A3017 RMK A01,M
P68,2024-08-10 03:53,-116.0056,39.6014,1993.00,68.00,39.00,34.53,0.00,0.00,0.00,30.15,1011.90,M,M,M,M,M,M,M,M,M,M,M,M,M,M,M,M,M,68.00,KP68 100353Z AUTO 00000KT 20/04 A3015 RMK AO1 SLP119 T02000039,M
DRA,2024-08-10 03:53,-116.0278,36.6206,1009.00,95.00,50.00,21.79,190.00,9.00,0.00,29.91,1006.50,10.00,M,CLR,M,M,M,M,M,M,M,M,M,M,M,M,M,M,91.89,KDRA 100353Z AUTO 19009KT 10SM CLR 35/10 A2991 RMK AO2 SLP065 T03500100,M
ELY,2024-08-10 03:53,-114.8453,39.2950,1909.00,72.00,46.00,39.42,0.00,0.00,0.00,30.19,1010.70,10.00,M,CLR,M,M,M,M,M,M,M,M,M,M,M,M,M,M,72.00,KELY 100353Z AUTO 00000KT 10SM CLR 22/08 A3019 RMK AO2 SLP107 T02220078,M
VGT,2024-08-10 03:53,-115.1933,36.2111,667.00,100.00,55.00,22.49,180.00,5.00,0.00,29.84,1008.70,10.00,M,CLR,M,M,M,M,M,M,M,M,M,M,M,M,M,M,98.48,KVGT 100353Z AUTO 18005KT 10SM CLR 38/13 A2984 RMK AO2 SLP087 T03780128,M
LOL,2024-08-10 03:53,-118.5701,40.0684,1192.43,83.00,34.00,17.18,270.00,9.00,0.00,29.97,1009.90,10.00,M,CLR,M,M,M,M,M,M,M,M,M,M,M,M,M,M,80.45,KLOL 100353Z AUTO 27009KT 10SM CLR 28/01 A2997 RMK AO2 SLP099 T02830011,M
BVU,2024-08-10 03:55,-114.8611,35.9475,671.00,96.80,51.80,22.04,110.00,6.00,0.00,29.84,M,10.00,M,CLR,M,M,M,M,M,M,M,M,M,M,M,M,M,M,94.12,KBVU 100355Z AUTO 11006KT 10SM CLR 36/11 A2984 RMK AO2,M
CXP,2024-08-10 03:55,-119.7326,39.1923,1431.00,80.60,37.40,21.25,260.00,7.00,0.00,30.10,M,10.00,M,CLR,M,M,M,M,M,M,M,M,M,M,M,M,M,M,79.02,KCXP 100355Z AUTO 26007KT 10SM CLR 27/03 A3010 RMK AO2,M
INS,2024-08-10 03:55,-115.6733,36.5872,955.00,95.00,52.70,24.08,110.00,9.00,0.00,29.90,1006.20,10.00,M,SCT,M,M,M,11000.00,M,M,M,M,M,M,M,M,M,M,92.48,KINS 100355Z AUTO 11009KT 10SM SCT110 35/12 A2990 RMK AO2 SLP062 T03510115,M
RNO,2024-08-10 03:55,-119.7711,39.4839,1341.00,84.00,39.00,20.27,280.00,12.00,0.00,30.06,1011.70,10.00,21.00,CLR,M,M,M,M,M,M,M,M,M,M,M,29.00,270.00,2024-08-10 03:36,81.29,KRNO 100355Z 28012G21KT 10SM CLR 29/04 A3006 RMK AO2 PK WND 27029/0336 SLP117 T02890039,M
RTS,2024-08-10 03:55,-119.8764,39.6682,1539.00,77.00,37.40,23.93,270.00,9.00,0.00,30.14,M,10.00,14.00,CLR,M,M,M,M,M,M,M,M,M,M,M,M,M,M,77.00,KRTS 100355Z AUTO 27009G14KT 10SM CLR 25/03 A3014 RMK AO2,M
MEV,2024-08-10 03:55,-119.7500,38.9963,1441.42,78.80,39.20,24.19,0.00,0.00,0.00,30.09,M,10.00,M,CLR,M,M,M,M,M,M,M,M,M,M,M,M,M,M,78.80,KMEV 100355Z AUTO 00000KT 10SM CLR 26/04 A3009 RMK AO2,M
BAM,2024-08-10 03:55,-116.8743,40.5990,1382.36,78.80,35.60,21.00,300.00,6.00,0.00,30.02,M,10.00,M,CLR,M,M,M,M,M,M,M,M,M,M,M,M,M,M,78.80,KBAM 100355Z AUTO 30006KT 10SM CLR 26/02 A3002 RMK AO1,M
HTH,2024-08-10 03:55,-118.6315,38.5448,1282.89,87.80,42.80,20.79,10.00,12.00,0.00,30.00,M,10.00,M,CLR,M,M,M,M,M,M,M,M,M,M,M,M,M,M,84.40,KHTH 100355Z AUTO 01012KT 10SM CLR 31/06 A3000 RMK A01,M
TMT,2024-08-10 03:55,-117.1971,39.4643,1749.34,70.70,31.60,23.46,320.00,6.00,0.00,30.15,M,10.00,M,CLR,M,M,M,M,M,M,M,M,M,M,M,M,M,M,70.70,KTMT 100355Z AUTO 32006KT 10SM CLR 22/00 A3015 RMK AO2 T02151002,M
10U,2024-08-10 03:55,-116.1876,41.9532,1637.00,71.60,33.80,24.86,130.00,7.00,0.00,30.08,M,10.00,M,CLR,M,M,M,M,M,M,M,M,M,M,M,M,M,M,71.60,K10U 100355Z AUTO 13007KT 10SM CLR 22/01 A3008 RMK AO2,M
LSV,2024-08-10 03:55,-115.0343,36.2362,570.00,99.00,51.00,20.01,120.00,3.00,0.00,29.79,1005.60,10.00,M,CLR,M,M,M,M,M,M,M,M,M,M,M,M,M,M,96.21,KLSV 100355Z AUTO 12003KT 10SM CLR 37/11 A2979 RMK AO2 SLP056 T03720105 $,M
EKO,2024-08-10 03:56,-115.7860,40.8242,1367.00,78.00,32.00,18.67,0.00,0.00,0.00,30.05,1011.20,10.00,M,CLR,M,M,M,M,M,M,M,M,M,M,M,M,M,M,78.00,KEKO 100356Z AUTO 00000KT 10SM CLR 26/00 A3005 RMK AO2 SLP112 T02560000,M
WMC,2024-08-10 03:56,-117.8072,40.9019,1315.00,76.00,29.00,17.66,230.00,7.00,0.00,29.99,1009.90,10.00,M,CLR,M,M,M,M,M,M,M,M,M,M,M,M,M,M,76.00,KWMC 100356Z AUTO 23007KT 10SM CLR 24/M02 A2999 RMK AO2 SLP099 T02441017,M
HND,2024-08-10 03:56,-115.1344,35.9729,742.79,97.00,56.00,25.55,200.00,7.00,0.00,29.89,1010.20,10.00,M,CLR,M,M,M,M,M,M,M,M,M,M,M,M,M,M,95.56,KHND 100356Z AUTO 20007KT 10SM CLR 36/13 A2989 RMK AO2 SLP102 T03610133,M
TPH,2024-08-10 03:56,-117.0904,38.0505,1654.00,83.00,34.00,17.18,260.00,3.00,0.00,30.09,1009.40,10.00,M,CLR,M,M,M,M,M,M,M,M,M,M,M,M,M,M,80.45,KTPH 100356Z AUTO 26003KT 10SM CLR 28/01 A3009 RMK AO2 SLP094 T02830011,M
LAS,2024-08-10 03:56,-115.1634,36.0719,663.00,101.00,54.00,21.04,180.00,7.00,0.00,29.85,1007.50,10.00,M,FEW,SCT,SCT,M,10000.00,16000.00,22000.00,M,M,M,M,M,M,M,M,99.22,KLAS 100356Z 18007KT 10SM FEW100 SCT160 SCT220 38/12 A2985 RMK AO2 SLP075 T03830122,M
NFL,2024-08-10 03:57,-118.7010,39.4166,1199.00,87.00,35.00,15.72,280.00,8.00,0.00,29.98,1012.50,10.00,M,FEW,M,M,M,9000.00,M,M,M,M,M,M,M,M,M,M,83.47,KNFL 100357Z 28008KT 10SM FEW090 31/02 A2998 RMK AO2 SLP125 T03060017,M
05U,2024-08-10 04:10,-116.0051,39.6042,1811.23,M,M,M,0.00,0.00,0.00,30.18,M,10.00,M,CLR,M,M,M,M,M,M,M,M,M,M,M,M,M,M,M,K05U 100410Z AUTO 00000KT 10SM CLR A3018 RMK A01,M
BVU,2024-08-10 04:15,-114.8611,35.9475,671.00,95.00,53.60,24.89,120.00,6.00,0.00,29.85,M,10.00,M,CLR,M,M,M,M,M,M,M,M,M,M,M,M,M,M,92.71,KBVU 100415Z AUTO 12006KT 10SM CLR 35/12 A2985 RMK AO2,M
CXP,2024-08-10 04:15,-119.7326,39.1923,1431.00,80.60,35.60,19.79,270.00,10.00,0.00,30.10,M,10.00,M,CLR,M,M,M,M,M,M,M,M,M,M,M,M,M,M,78.94,KCXP 100415Z AUTO 27010KT 10SM CLR 27/02 A3010 RMK AO2,M
RTS,2024-08-10 04:15,-119.8764,39.6682,1539.00,73.40,37.40,26.98,260.00,7.00,0.00,30.15,M,10.00,M,CLR,M,M,M,M,M,M,M,M,M,M,M,M,M,M,73.40,KRTS 100415Z AUTO 26007KT 10SM CLR 23/03 A3015 RMK AO2,M
MEV,2024-08-10 04:15,-119.7500,38.9963,1441.42,78.80,37.40,22.54,320.00,8.00,0.00,30.09,M,10.00,M,CLR,M,M,M,M,M,M,M,M,M,M,M,M,M,M,78.80,KMEV 100415Z AUTO 32008KT 10SM CLR 26/03 A3009 RMK AO2,M
BAM,2024-08-10 04:15,-116.8743,40.5990,1382.36,75.20,33.80,22.02,150.00,3.00,0.00,30.03,M,10.00,M,CLR,M,M,M,M,M,M,M,M,M,M,M,M,M,M,75.20,KBAM 100415Z AUTO 15003KT 10SM CLR 24/01 A3003 RMK AO1,M
HTH,2024-08-10 04:15,-118.6315,38.5448,1282.89,87.80,35.60,15.70,330.00,5.00,0.00,30.02,M,10.00,11.00,CLR,M,M,M,M,M,M,M,M,M,M,M,M,M,M,84.12,KHTH 100415Z AUTO 33005G11KT 10SM CLR 31/02 A3002 RMK A01,M
TMT,2024-08-10 04:15,-117.1971,39.4643,1749.34,68.40,31.50,25.28,310.00,3.00,0.00,30.16,M,10.00,M,CLR,M,M,M,M,M,M,M,M,M,M,M,M,M,M,68.40,KTMT 100415Z AUTO 31003KT 10SM CLR 20/00 A3016 RMK AO2 T02021003,M
10U,2024-08-10 04:15,-116.1876,41.9532,1637.00,73.40,33.80,23.39,M,4.00,0.00,30.09,M,10.00,M,CLR,M,M,M,M,M,M,M,M,M,M,M,M,M,M,73.40,K10U 100415Z AUTO VRB04KT 10SM CLR 23/01 A3009 RMK AO2,M
BVU,2024-08-10 04:35,-114.8611,35.9475,671.00,95.00,53.60,24.89,100.00,7.00,0.00,29.85,M,10.00,M,CLR,M,M,M,M,M,M,M,M,M,M,M,M,M,M,92.71,KBVU 100435Z AUTO 10007KT 10SM CLR 35/12 A2985 RMK AO2,M
CXP,2024-08-10 04:35,-119.7326,39.1923,1431.00,80.60,37.40,21.25,270.00,11.00,0.00,30.11,M,10.00,18.00,CLR,M,M,M,M,M,M,M,M,M,M,M,M,M,M,79.02,KCXP 100435Z AUTO 27011G18KT 10SM CLR 27/03 A3011 RMK AO2,M
RTS,2024-08-10 04:35,-119.8764,39.6682,1539.00,75.20,35.60,23.66,240.00,7.00,0.00,30.16,M,10.00,M,CLR,M,M,M,M,M,M,M,M,M,M,M,M,M,M,75.20,KRTS 100435Z AUTO 24007KT 10SM CLR 24/02 A3016 RMK AO2,M
05U,2024-08-10 04:35,-116.0051,39.6042,1811.23,M,M,M,0.00,0.00,0.00,30.18,M,10.00,M,CLR,M,M,M,M,M,M,M,M,M,M,M,M,M,M,M,K05U 100435Z AUTO 00000KT 10SM CLR A3018 RMK A01,M
MEV,2024-08-10 04:35,-119.7500,38.9963,1441.42,77.00,37.40,23.93,310.00,7.00,0.00,30.10,M,10.00,M,CLR,M,M,M,M,M,M,M,M,M,M,M,M,M,M,77.00,KMEV 100435Z AUTO 31007KT 10SM CLR 25/03 A3010 RMK AO2,M
BAM,2024-08-10 04:35,-116.8743,40.5990,1382.36,73.40,33.80,23.39,150.00,5.00,0.00,30.04,M,10.00,M,CLR,M,M,M,M,M,M,M,M,M,M,M,M,M,M,73.40,KBAM 100435Z AUTO 15005KT 10SM CLR 23/01 A3004 RMK AO1,M
HTH,2024-08-10 04:35,-118.6315,38.5448,1282.89,87.80,37.40,16.86,290.00,7.00,0.00,30.03,M,10.00,M,CLR,M,M,M,M,M,M,M,M,M,M,M,M,M,M,84.16,KHTH 100435Z AUTO 29007KT 10SM CLR 31/03 A3003 RMK A01,M
10U,2024-08-10 04:35,-116.1876,41.9532,1637.00,69.80,33.80,26.43,0.00,0.00,0.00,30.09,M,10.00,M,CLR,M,M,M,M,M,M,M,M,M,M,M,M,M,M,69.80,K10U 100435Z AUTO 00000KT 10SM CLR 21/01 A3009 RMK AO2,M
TMT,2024-08-10 04:35,-117.1971,39.4643,1749.34,63.50,32.70,31.46,150.00,3.00,0.00,30.16,M,10.00,M,CLR,M,M,M,M,M,M,M,M,M,M,M,M,M,M,63.50,KTMT 100435Z AUTO 15003KT 10SM CLR 18/00 A3016 RMK AO2 T01750004,M
P68,2024-08-10 04:53,-116.0056,39.6014,1993.00,64.00,38.00,38.15,170.00,5.00,0.00,30.16,1012.00,M,M,M,M,M,M,M,M,M,M,M,M,M,M,M,M,M,64.00,KP68 100453Z AUTO 17005KT 18/03 A3016 RMK AO1 SLP120 T01780033,M
DRA,2024-08-10 04:53,-116.0278,36.6206,1009.00,93.00,49.00,22.34,70.00,6.00,0.00,29.92,1007.10,10.00,M,CLR,M,M,M,M,M,M,M,M,M,M,M,M,M,M,89.73,KDRA 100453Z AUTO 07006KT 10SM CLR 34/09 A2992 RMK AO2 SLP071 T03390094,M
ELY,2024-08-10 04:53,-114.8453,39.2950,1909.00,67.00,46.00,46.78,220.00,3.00,0.00,30.20,1011.30,10.00,M,CLR,M,M,M,M,M,M,M,M,M,M,M,M,M,M,67.00,KELY 100453Z AUTO 22003KT 10SM CLR 19/08 A3020 RMK AO2 SLP113 T01940078,M
VGT,2024-08-10 04:53,-115.1933,36.2111,667.00,98.00,55.00,23.89,100.00,7.00,0.00,29.85,1009.20,10.00,M,CLR,M,M,M,M,M,M,M,M,M,M,M,M,M,M,96.31,KVGT 100453Z AUTO 10007KT 10SM CLR 37/13 A2985 RMK AO2 SLP092 T03670128,M
LOL,2024-08-10 04:53,-118.5701,40.0684,1192.43,84.00,36.00,18.01,310.00,9.00,0.00,29.99,1010.30,10.00,M,CLR,M,M,M,M,M,M,M,M,M,M,M,M,M,M,81.20,KLOL 100453Z AUTO 31009KT 10SM CLR 29/02 A2999 RMK AO2 SLP103 T02890022,M
BVU,2024-08-10 04:55,-114.8611,35.9475,671.00,93.20,57.20,29.99,0.00,0.00,0.00,29.86,M,10.00,M,CLR,M,M,M,M,M,M,M,M,M,M,M,M,M,M,91.91,KBVU 100455Z AUTO 00000KT 10SM CLR 34/14 A2986 RMK AO2,M
CXP,2024-08-10 04:55,-119.7326,39.1923,1431.00,78.80,39.20,24.19,250.00,6.00,0.00,30.11,M,10.00,M,CLR,M,M,M,M,M,M,M,M,M,M,M,M,M,M,78.80,KCXP 100455Z AUTO 25006KT 10SM CLR 26/04 A3011 RMK AO2,M
INS,2024-08-10 04:55,-115.6733,36.5872,955.00,94.50,49.60,21.80,120.00,14.00,0.00,29.91,1006.40,10.00,M,CLR,M,M,M,M,M,M,M,M,M,M,M,M,M,M,91.31,KINS 100455Z AUTO 12014KT 10SM CLR 35/10 A2991 RMK AO2 SLP064 T03470098,M
RNO,2024-08-10 04:55,-119.7711,39.4839,1341.00,82.00,39.00,21.62,290.00,11.00,0.00,30.08,1012.20,10.00,M,CLR,M,M,M,M,M,M,M,M,M,M,M,M,M,M,79.94,KRNO 100455Z 29011KT 10SM CLR 28/04 A3008 RMK AO2 SLP122 T02780039,M
RTS,2024-08-10 04:55,-119.8764,39.6682,1539.00,73.40,35.60,25.13,260.00,8.00,0.00,30.15,M,10.00,M,CLR,M,M,M,M,M,M,M,M,M,M,M,M,M,M,73.40,KRTS 100455Z AUTO 26008KT 10SM CLR 23/02 A3015 RMK AO2,M
05U,2024-08-10 04:55,-116.0051,39.6042,1811.23,M,M,M,0.00,0.00,0.00,30.18,M,10.00,M,CLR,M,M,M,M,M,M,M,M,M,M,M,M,M,M,M,K05U 100455Z AUTO 00000KT 10SM CLR A3018 RMK A01,M
MEV,2024-08-10 04:55,-119.7500,38.9963,1441.42,71.60,39.20,30.77,M,6.00,0.00,30.10,M,10.00,M,CLR,M,M,M,M,M,M,M,M,M,M,M,M,M,M,71.60,KMEV 100455Z AUTO VRB06KT 10SM CLR 22/04 A3010 RMK AO2,M
BAM,2024-08-10 04:55,-116.8743,40.5990,1382.36,69.80,32.00,24.59,150.00,5.00,0.00,30.04,M,10.00,M,CLR,M,M,M,M,M,M,M,M,M,M,M,M,M,M,69.80,KBAM 100455Z AUTO 15005KT 10SM CLR 21/00 A3004 RMK AO1,M
HTH,2024-08-10 04:55,-118.6315,38.5448,1282.89,86.00,35.60,16.63,340.00,6.00,0.00,30.03,M,10.00,M,CLR,M,M,M,M,M,M,M,M,M,M,M,M,M,M,82.69,KHTH 100455Z AUTO 34006KT 10SM CLR 30/02 A3003 RMK A01,M
10U,2024-08-10 04:55,-116.1876,41.9532,1637.00,69.80,33.80,26.43,M,3.00,0.00,30.09,M,10.00,M,CLR,M,M,M,M,M,M,M,M,M,M,M,M,M,M,69.80,K10U 100455Z AUTO VRB03KT 10SM CLR 21/01 A3009 RMK AO2,M
TMT,2024-08-10 04:55,-117.1971,39.4643,1749.34,61.30,32.00,33.05,0.00,0.00,0.00,30.16,M,10.00,M,CLR,M,M,M,M,M,M,M,M,M,M,M,M,M,M,61.30,KTMT 100455Z AUTO 00000KT 10SM CLR 16/00 A3016 RMK AO2 T01631001,M
LSV,2024-08-10 04:55,-115.0343,36.2362,570.00,97.00,51.80,21.91,110.00,4.00,0.00,29.80,1005.90,10.00,M,CLR,M,M,M,M,M,M,M,M,M,M,M,M,M,M,94.33,KLSV 100455Z AUTO 11004KT 10SM CLR 36/11 A2980 RMK AO2 SLP059 T03610110 $,M
EKO,2024-08-10 04:56,-115.7860,40.8242,1367.00,71.00,31.00,22.67,240.00,3.00,0.00,30.06,1011.70,10.00,M,CLR,M,M,M,M,M,M,M,M,M,M,M,M,M,M,71.00,KEKO 100456Z AUTO 24003KT 10SM CLR 22/M01 A3006 RMK AO2 SLP117 T02171006,M
WMC,2024-08-10 04:56,-117.8072,40.9019,1315.00,72.00,30.00,21.04,170.00,4.00,0.00,30.00,1010.00,10.00,M,CLR,M,M,M,M,M,M,M,M,M,M,M,M,M,M,72.00,KWMC 100456Z AUTO 17004KT 10SM CLR 22/M01 A3000 RMK AO2 SLP100 T02221011,M
HND,2024-08-10 04:56,-115.1344,35.9729,742.79,96.00,58.00,28.31,160.00,8.00,0.00,29.90,1010.50,10.00,M,CLR,M,M,M,M,M,M,M,M,M,M,M,M,M,M,95.20,KHND 100456Z AUTO 16008KT 10SM CLR 36/14 A2990 RMK AO2 SLP105 T03560144,M
TPH,2024-08-10 04:56,-117.0904,38.0505,1654.00,86.00,35.00,16.23,310.00,6.00,0.00,30.11,1009.50,10.00,M,CLR,M,M,M,M,M,M,M,M,M,M,M,M,M,M,82.68,KTPH 100456Z AUTO 31006KT 10SM CLR 30/02 A3011 RMK AO2 SLP095 T03000017,M
LAS,2024-08-10 04:56,-115.1634,36.0719,663.00,99.00,55.00,23.18,150.00,5.00,0.00,29.87,1008.10,10.00,M,FEW,SCT,SCT,M,10000.00,16000.00,22000.00,M,M,M,M,M,M,M,M,97.39,KLAS 100456Z 15005KT 10SM FEW100 SCT160 SCT220 37/13 A2987 RMK AO2 SLP081 T03720128,M
NFL,2024-08-10 04:57,-118.7010,39.4166,1199.00,84.00,37.00,18.74,290.00,6.00,0.00,30.01,1013.30,10.00,M,FEW,M,M,M,9000.00,M,M,M,M,M,M,M,M,M,M,81.23,KNFL 100457Z 29006KT 10SM FEW090 29/03 A3001 RMK AO2 SLP133 T02890028,M
05U,2024-08-10 05:10,-116.0051,39.6042,1811.23,M,M,M,0.00,0.00,0.00,30.18,M,10.00,M,CLR,M,M,M,M,M,M,M,M,M,M,M,M,M,M,M,K05U 100510Z AUTO 00000KT 10SM CLR A3018 RMK A01,M
BVU,2024-08-10 05:15,-114.8611,35.9475,671.00,91.40,57.20,31.72,90.00,3.00,0.00,29.86,M,10.00,M,CLR,M,M,M,M,M,M,M,M,M,M,M,M,M,M,90.06,KBVU 100515Z AUTO 09003KT 10SM CLR 33/14 A2986 RMK AO2,M
CXP,2024-08-10 05:15,-119.7326,39.1923,1431.00,77.00,39.20,25.67,M,4.00,0.00,30.12,M,10.00,M,CLR,M,M,M,M,M,M,M,M,M,M,M,M,M,M,77.00,KCXP 100515Z AUTO VRB04KT 10SM CLR 25/04 A3012 RMK AO2,M
RTS,2024-08-10 05:15,-119.8764,39.6682,1539.00,75.20,35.60,23.66,270.00,10.00,0.00,30.15,M,10.00,M,CLR,M,M,M,M,M,M,M,M,M,M,M,M,M,M,75.20,KRTS 100515Z AUTO 27010KT 10SM CLR 24/02 A3015 RMK AO2,M
MEV,2024-08-10 05:15,-119.7500,38.9963,1441.42,68.00,39.20,34.80,0.00,0.00,0.00,30.11,M,10.00,M,CLR,M,M,M,M,M,M,M,M,M,M,M,M,M,M,68.00,KMEV 100515Z AUTO 00000KT 10SM CLR 20/04 A3011 RMK AO2,M
BAM,2024-08-10 05:15,-116.8743,40.5990,1382.36,68.00,32.00,26.15,150.00,5.00,0.00,30.04,M,10.00,M,CLR,M,M,M,M,M,M,M,M,M,M,M,M,M,M,68.00,KBAM 100515Z AUTO 15005KT 10SM CLR 20/00 A3004 RMK AO1,M
HTH,2024-08-10 05:15,-118.6315,38.5448,1282.89,84.20,41.00,21.76,300.00,4.00,0.00,30.04,M,10.00,M,CLR,M,M,M,M,M,M,M,M,M,M,M,M,M,M,81.52,KHTH 100515Z AUTO 30004KT 10SM CLR 29/05 A3004 RMK A01,M
10U,2024-08-10 05:15,-116.1876,41.9532,1637.00,69.80,33.80,26.43,0.00,0.00,0.00,30.09,M,10.00,M,CLR,M,M,M,M,M,M,M,M,M,M,M,M,M,M,69.80,K10U 100515Z AUTO 00000KT 10SM CLR 21/01 A3009 RMK AO2,M
TMT,2024-08-10 05:15,-117.1971,39.4643,1749.34,57.40,27.30,31.37,220.00,6.00,0.00,30.16,M,10.00,M,CLR,M,M,M,M,M,M,M,M,M,M,M,M,M,M,57.40,KTMT 100515Z AUTO 22006KT 10SM CLR 14/M03 A3016 RMK AO2 T01411026,M
05U,2024-08-10 05:30,-116.0051,39.6042,1811.23,M,M,M,170.00,6.00,0.00,30.19,M,10.00,M,CLR,M,M,M,M,M,M,M,M,M,M,M,M,M,M,M,K05U 100530Z AUTO 17006KT 10SM CLR A3019 RMK A01,M
BVU,2024-08-10 05:35,-114.8611,35.9475,671.00,93.20,55.40,28.10,110.00,6.00,0.00,29.86,M,10.00,M,CLR,M,M,M,M,M,M,M,M,M,M,M,M,M,M,91.35,KBVU 100535Z AUTO 11006KT 10SM CLR 34/13 A2986 RMK AO2,M
CXP,2024-08-10 05:35,-119.7326,39.1923,1431.00,78.80,37.40,22.54,260.00,11.00,0.00,30.12,M,10.00,M,CLR,M,M,M,M,M,M,M,M,M,M,M,M,M,M,78.80,KCXP 100535Z AUTO 26011KT 10SM CLR 26/03 A3012 RMK AO2,M
RTS,2024-08-10 05:35,-119.8764,39.6682,1539.00,71.60,35.60,26.71,350.00,8.00,0.00,30.15,M,10.00,14.00,CLR,M,M,M,M,M,M,M,M,M,M,M,M,M,M,71.60,KRTS 100535Z AUTO 35008G14KT 10SM CLR 22/02 A3015 RMK AO2,M
MEV,2024-08-10 05:35,-119.7500,38.9963,1441.42,64.40,39.20,39.43,70.00,5.00,0.00,30.11,M,10.00,M,CLR,M,M,M,M,M,M,M,M,M,M,M,M,M,M,64.40,KMEV 100535Z AUTO 07005KT 10SM CLR 18/04 A3011 RMK AO2,M
BAM,2024-08-10 05:35,-116.8743,40.5990,1382.36,68.00,32.00,26.15,130.00,5.00,0.00,30.04,M,10.00,M,CLR,M,M,M,M,M,M,M,M,M,M,M,M,M,M,68.00,KBAM 100535Z AUTO 13005KT 10SM CLR 20/00 A3004 RMK AO1,M
HTH,2024-08-10 05:35,-118.6315,38.5448,1282.89,82.40,44.60,26.49,250.00,4.00,0.00,30.04,M,10.00,M,CLR,M,M,M,M,M,M,M,M,M,M,M,M,M,M,80.50,KHTH 100535Z AUTO 25004KT 10SM CLR 28/07 A3004 RMK A01,M
10U,2024-08-10 05:35,-116.1876,41.9532,1637.00,66.20,33.80,29.92,0.00,0.00,0.00,30.09,M,10.00,M,CLR,M,M,M,M,M,M,M,M,M,M,M,M,M,M,66.20,K10U 100535Z AUTO 00000KT 10SM CLR 19/01 A3009 RMK AO2,M
TMT,2024-08-10 05:35,-117.1971,39.4643,1749.34,60.80,30.00,31.02,220.00,4.00,0.00,30.16,M,10.00,M,CLR,M,M,M,M,M,M,M,M,M,M,M,M,M,M,60.80,KTMT 100535Z AUTO 22004KT 10SM CLR 16/M01 A3016 RMK AO2 T01601012,M
05U,2024-08-10 05:50,-116.0051,39.6042,1811.23,M,M,M,180.00,6.00,0.00,30.19,M,10.00,M,CLR,M,M,M,M,M,M,M,M,M,M,M,M,M,M,M,K05U 100550Z AUTO 18006KT 10SM CLR A3019 RMK A01,M
P68,2024-08-10 05:53,-116.0056,39.6014,1993.00,64.00,38.00,38.15,180.00,7.00,0.00,30.17,1012.00,M,M,M,M,M,M,M,M,M,M,M,M,M,M,M,M,M,64.00,KP68 100553Z AUTO 18007KT 18/03 A3017 RMK AO1 SLP120 T01780033 10294 20167 51014,M
DRA,2024-08-10 05:53,-116.0278,36.6206,1009.00,92.00,51.00,24.82,80.00,3.00,0.00,29.94,1007.50,10.00,M,CLR,M,M,M,M,M,M,M,M,M,M,M,M,M,M,89.11,KDRA 100553Z AUTO 08003KT 10SM CLR 33/11 A2994 RMK AO2 SLP075 T03330106 10400 20328 51016,M
ELY,2024-08-10 05:53,-114.8453,39.2950,1909.00,63.00,46.00,53.78,200.00,6.00,0.00,30.21,1011.90,9.00,M,CLR,M,M,M,M,M,M,M,M,M,M,M,M,M,M,63.00,KELY 100553Z AUTO 20006KT 9SM CLR 17/08 A3021 RMK AO2 SLP119 T01720078 10267 20167 51013,M
VGT,2024-08-10 05:53,-115.1933,36.2111,667.00,96.00,56.00,26.34,80.00,4.00,0.00,29.86,1009.50,10.00,M,CLR,M,M,M,M,M,M,M,M,M,M,M,M,M,M,94.48,KVGT 100553Z AUTO 08004KT 10SM CLR 36/13 A2986 RMK AO2 SLP095 T03560133 10400 20356 51015,M
LOL,2024-08-10 05:53,-118.5701,40.0684,1192.43,82.00,37.00,19.99,280.00,14.00,0.00,30.00,1010.70,10.00,M,CLR,M,M,M,M,M,M,M,M,M,M,M,M,M,M,79.86,KLOL 100553Z AUTO 28014KT 10SM CLR 28/03 A3000 RMK AO2 SLP107 T02780028 10372 20272 51018,M
BVU,2024-08-10 05:55,-114.8611,35.9475,671.00,93.20,57.20,29.99,0.00,0.00,0.00,29.86,M,10.00,M,CLR,M,M,M,M,M,M,M,M,M,M,M,M,M,M,91.91,KBVU 100555Z AUTO 00000KT 10SM CLR 34/14 A2986 RMK AO2,M
CXP,2024-08-10 05:55,-119.7326,39.1923,1431.00,78.80,37.40,22.54,300.00,4.00,0.00,30.12,M,10.00,M,CLR,M,M,M,M,M,M,M,M,M,M,M,M,M,M,78.80,KCXP 100555Z AUTO 30004KT 10SM CLR 26/03 A3012 RMK AO2,M
INS,2024-08-10 05:55,-115.6733,36.5872,955.00,93.20,50.00,23.04,130.00,8.00,0.00,29.92,1006.80,10.00,M,CLR,M,M,M,M,M,M,M,M,M,M,M,M,M,M,90.10,KINS 100555Z AUTO 13008KT 10SM CLR 34/10 A2992 RMK AO2 SLP068 T03400099 10393 20339 51014,M
RNO,2024-08-10 05:55,-119.7711,39.4839,1341.00,80.00,40.00,23.99,290.00,14.00,0.00,30.08,1011.90,10.00,M,CLR,M,M,M,M,M,M,M,M,M,M,M,41.00,280.00,2024-08-10 05:20,78.83,KRNO 100555Z 29014KT 10SM CLR 27/04 A3008 RMK AO2 PK WND 28041/0520 SLP119 T02670044 10361 20267 50013,M
RTS,2024-08-10 05:55,-119.8764,39.6682,1539.00,68.00,35.60,30.20,280.00,8.00,0.00,30.16,M,10.00,M,CLR,M,M,M,M,M,M,M,M,M,M,M,M,M,M,68.00,KRTS 100555Z AUTO 28008KT 10SM CLR 20/02 A3016 RMK AO2,M
MEV,2024-08-10 05:55,-119.7500,38.9963,1441.42,62.60,41.00,45.04,80.00,7.00,0.00,30.11,M,10.00,M,CLR,M,M,M,M,M,M,M,M,M,M,M,M,M,M,62.60,KMEV 100555Z AUTO 08007KT 10SM CLR 17/05 A3011 RMK AO2,M
HTH,2024-08-10 05:55,-118.6315,38.5448,1282.89,82.40,42.80,24.72,210.00,4.00,0.00,30.05,M,10.00,M,CLR,M,M,M,M,M,M,M,M,M,M,M,M,M,M,80.39,KHTH 100555Z AUTO 21004KT 10SM CLR 28/06 A3005 RMK A01,M
10U,2024-08-10 05:55,-116.1876,41.9532,1637.00,66.20,33.80,29.92,120.00,6.00,0.00,30.09,M,10.00,M,CLR,M,M,M,M,M,M,M,M,M,M,M,M,M,M,66.20,K10U 100555Z AUTO 12006KT 10SM CLR 19/01 A3009 RMK AO2,M
LSV,2024-08-10 05:55,-115.0343,36.2362,570.00,95.00,53.80,25.07,20.00,4.00,0.00,29.80,1005.90,10.00,M,CLR,M,M,M,M,M,M,M,M,M,M,M,M,M,M,92.76,KLSV 100555Z AUTO 02004KT 10SM CLR 35/12 A2980 RMK AO2 SLP059 T03510121 10401 20351 51013 $,M
BAM,2024-08-10 05:55,-116.8743,40.5990,1382.36,68.00,32.00,26.15,140.00,6.00,0.00,30.04,M,10.00,M,CLR,M,M,M,M,M,M,M,M,M,M,M,M,M,M,68.00,KBAM 100555Z AUTO 14006KT 10SM CLR 20/00 A3004 RMK AO1,M
TMT,2024-08-10 05:55,-117.1971,39.4643,1749.34,60.60,33.60,36.13,220.00,6.00,0.00,30.16,M,10.00,M,CLR,M,M,M,M,M,M,M,M,M,M,M,M,M,M,60.60,KTMT 100555Z AUTO 22006KT 10SM CLR 16/01 A3016 RMK AO2 T01590009 10332 20140,M
EKO,2024-08-10 05:56,-115.7860,40.8242,1367.00,68.00,31.00,25.12,0.00,0.00,0.00,30.07,1011.70,10.00,M,CLR,M,M,M,M,M,M,M,M,M,M,M,M,M,M,68.00,KEKO 100556Z AUTO 00000KT 10SM CLR 20/M01 A3007 RMK AO2 SLP117 T02001006 10350 20194 51013,M
WMC,2024-08-10 05:56,-117.8072,40.9019,1315.00,69.00,33.00,26.31,210.00,4.00,0.00,30.01,1010.40,10.00,M,CLR,M,M,M,M,M,M,M,M,M,M,M,M,M,M,69.00,KWMC 100556Z AUTO 21004KT 10SM CLR 21/01 A3001 RMK AO2 SLP104 T02060006 10367 20189 51011,M
HND,2024-08-10 05:56,-115.1344,35.9729,742.79,95.00,57.00,28.16,180.00,9.00,0.00,29.91,1010.60,10.00,M,CLR,M,M,M,M,M,M,M,M,M,M,M,M,M,M,93.75,KHND 100556Z AUTO 18009KT 10SM CLR 35/14 A2991 RMK AO2 SLP106 T03500139 10394 20350 51012,M
TPH,2024-08-10 05:56,-117.0904,38.0505,1654.00,81.00,39.00,22.33,0.00,0.00,0.00,30.12,1010.00,10.00,M,CLR,M,M,M,M,M,M,M,M,M,M,M,M,M,M,79.33,KTPH 100556Z AUTO 00000KT 10SM CLR 27/04 A3012 RMK AO2 SLP100 T02720039 10356 20267 51013,M
LAS,2024-08-10 05:56,-115.1634,36.0719,663.00,98.00,56.00,24.78,0.00,0.00,0.00,29.87,1008.10,10.00,M,FEW,SCT,SCT,M,10000.00,16000.00,22000.00,M,M,M,M,M,M,M,M,96.65,KLAS 100556Z 00000KT 10SM FEW100 SCT160 SCT220 37/13 A2987 RMK AO2 SLP081 T03670133 10406 20367 51013,M
NFL,2024-08-10 05:57,-118.7010,39.4166,1199.00,83.00,37.00,19.35,300.00,12.00,0.00,30.02,1013.50,10.00,M,CLR,M,M,M,M,M,M,M,M,M,M,M,M,M,M,80.53,KNFL 100557Z 30012KT 10SM CLR 38/03 A3002 RMK SLP135 T02830028 10389 20267 51019,M
BVU,2024-08-10 06:15,-114.8611,35.9475,671.00,91.40,57.20,31.72,100.00,4.00,0.00,29.87,M,10.00,M,CLR,M,M,M,M,M,M,M,M,M,M,M,M,M,M,90.06,KBVU 100615Z AUTO 10004KT 10SM CLR 33/14 A2987 RMK AO2,M
CXP,2024-08-10 06:15,-119.7326,39.1923,1431.00,75.20,37.40,25.40,0.00,0.00,0.00,30.13,M,10.00,M,CLR,M,M,M,M,M,M,M,M,M,M,M,M,M,M,75.20,KCXP 100615Z AUTO 00000KT 10SM CLR 24/03 A3013 RMK AO2,M
RTS,2024-08-10 06:15,-119.8764,39.6682,1539.00,66.20,35.60,32.14,290.00,9.00,0.00,30.16,M,10.00,M,CLR,M,M,M,M,M,M,M,M,M,M,M,M,M,M,66.20,KRTS 100615Z AUTO 29009KT 10SM CLR 19/02 A3016 RMK AO2,M
05U,2024-08-10 06:15,-116.0051,39.6042,1811.23,M,M,M,0.00,0.00,0.00,30.19,M,10.00,M,CLR,M,M,M,M,M,M,M,M,M,M,M,M,M,M,M,K05U 100615Z AUTO 00000KT 10SM CLR A3019 RMK A01,M
MEV,2024-08-10 06:15,-119.7500,38.9963,1441.42,64.40,41.00,42.28,80.00,9.00,0.00,30.11,M,10.00,M,CLR,M,M,M,M,M,M,M,M,M,M,M,M,M,M,64.40,KMEV 100615Z AUTO 08009KT 10SM CLR 18/05 A3011 RMK AO2,M
BAM,2024-08-10 06:15,-116.8743,40.5990,1382.36,68.00,32.00,26.15,240.00,5.00,0.00,30.04,M,10.00,M,CLR,M,M,M,M,M,M,M,M,M,M,M,M,M,M,68.00,KBAM 100615Z AUTO 24005KT 10SM CLR 20/00 A3004 RMK AO1,M
HTH,2024-08-10 06:15,-118.6315,38.5448,1282.89,M,M,M,M,M,0.00,30.05,M,M,M,M,M,M,M,M,M,M,M,M,M,M,M,M,M,M,M,KHTH 100615Z AUTO A3005 RMK A01,M
10U,2024-08-10 06:15,-116.1876,41.9532,1637.00,69.80,33.80,26.43,130.00,6.00,0.00,30.09,M,10.00,M,CLR,M,M,M,M,M,M,M,M,M,M,M,M,M,M,69.80,K10U 100615Z AUTO 13006KT 10SM CLR 21/01 A3009 RMK AO2,M
TMT,2024-08-10 06:15,-117.1971,39.4643,1749.34,59.50,33.60,37.57,240.00,4.00,0.00,30.17,M,10.00,M,CLR,M,M,M,M,M,M,M,M,M,M,M,M,M,M,59.50,KTMT 100615Z AUTO 24004KT 10SM CLR 15/01 A3017 RMK AO2 T01530009,M
BVU,2024-08-10 06:35,-114.8611,35.9475,671.00,91.40,55.40,29.72,0.00,0.00,0.00,29.87,M,10.00,M,CLR,M,M,M,M,M,M,M,M,M,M,M,M,M,M,89.53,KBVU 100635Z AUTO 00000KT 10SM CLR 33/13 A2987 RMK AO2,M
CXP,2024-08-10 06:35,-119.7326,39.1923,1431.00,71.60,37.40,28.68,90.00,4.00,0.00,30.13,M,10.00,M,CLR,M,M,M,M,M,M,M,M,M,M,M,M,M,M,71.60,KCXP 100635Z AUTO 09004KT 10SM CLR 22/03 A3013 RMK AO2,M
RTS,2024-08-10 06:35,-119.8764,39.6682,1539.00,69.80,37.40,30.49,260.00,9.00,0.00,30.16,M,10.00,M,CLR,M,M,M,M,M,M,M,M,M,M,M,M,M,M,69.80,KRTS 100635Z AUTO 26009KT 10SM CLR 21/03 A3016 RMK AO2,M
05U,2024-08-10 06:35,-116.0051,39.6042,1811.23,M,M,M,0.00,0.00,0.00,30.19,M,10.00,M,CLR,M,M,M,M,M,M,M,M,M,M,M,M,M,M,M,K05U 100635Z AUTO 00000KT 10SM CLR A3019 RMK A01,M
MEV,2024-08-10 06:35,-119.7500,38.9963,1441.42,62.60,41.00,45.04,100.00,7.00,0.00,30.11,M,10.00,M,CLR,M,M,M,M,M,M,M,M,M,M,M,M,M,M,62.60,KMEV 100635Z AUTO 10007KT 10SM CLR 17/05 A3011 RMK AO2,M
BAM,2024-08-10 06:35,-116.8743,40.5990,1382.36,66.20,32.00,27.83,210.00,4.00,0.00,30.04,M,10.00,M,CLR,M,M,M,M,M,M,M,M,M,M,M,M,M,M,66.20,KBAM 100635Z AUTO 21004KT 10SM CLR 19/00 A3004 RMK AO1,M
HTH,2024-08-10 06:35,-118.6315,38.5448,1282.89,80.60,42.80,26.22,290.00,5.00,0.00,30.06,M,10.00,M,M,M,M,M,M,M,M,M,M,M,M,M,M,M,M,79.30,KHTH 100635Z AUTO 29005KT 10SM 27/06 A3006 RMK A01,M
10U,2024-08-10 06:35,-116.1876,41.9532,1637.00,69.80,33.80,26.43,100.00,8.00,0.00,30.09,M,10.00,M,CLR,M,M,M,M,M,M,M,M,M,M,M,M,M,M,69.80,K10U 100635Z AUTO 10008KT 10SM CLR 21/01 A3009 RMK AO2,M
TMT,2024-08-10 06:35,-117.1971,39.4643,1749.34,58.50,34.50,40.36,220.00,7.00,0.00,30.17,M,10.00,M,CLR,M,M,M,M,M,M,M,M,M,M,M,M,M,M,58.50,KTMT 100635Z AUTO 22007KT 10SM CLR 15/01 A3017 RMK AO2 T01470014,M
05U,2024-08-10 06:50,-116.0051,39.6042,1811.23,M,M,M,0.00,0.00,0.00,30.19,M,10.00,M,CLR,M,M,M,M,M,M,M,M,M,M,M,M,M,M,M,K05U 100650Z AUTO 00000KT 10SM CLR A3019 RMK A01,M
P68,2024-08-10 06:53,-116.0056,39.6014,1993.00,61.00,38.00,42.40,160.00,7.00,0.00,30.17,1012.20,M,M,M,M,M,M,M,M,M,M,M,M,M,M,M,M,M,61.00,KP68 100653Z AUTO 16007KT 16/03 A3017 RMK AO1 SLP122 T01610033,M
DRA,2024-08-10 06:53,-116.0278,36.6206,1009.00,87.00,49.00,26.97,20.00,4.00,0.00,29.95,1007.90,10.00,M,CLR,M,M,M,M,M,M,M,M,M,M,M,M,M,M,84.30,KDRA 100653Z AUTO 02004KT 10SM CLR 31/09 A2995 RMK AO2 SLP079 T03060094,M
ELY,2024-08-10 06:53,-114.8453,39.2950,1909.00,60.00,44.00,55.42,0.00,0.00,0.00,30.22,1012.10,9.00,M,CLR,M,M,M,M,M,M,M,M,M,M,M,M,M,M,60.00,KELY 100653Z AUTO 00000KT 9SM CLR 16/07 A3022 RMK AO2 SLP121 T01560067,M
VGT,2024-08-10 06:53,-115.1933,36.2111,667.00,95.00,56.00,27.16,70.00,5.00,0.00,29.87,1009.80,10.00,M,CLR,M,M,M,M,M,M,M,M,M,M,M,M,M,M,93.41,KVGT 100653Z AUTO 07005KT 10SM CLR 35/13 A2987 RMK AO2 SLP098 T03500133,M
LOL,2024-08-10 06:53,-118.5701,40.0684,1192.43,81.00,37.00,20.65,320.00,7.00,0.00,30.02,1011.30,10.00,M,CLR,M,M,M,M,M,M,M,M,M,M,M,M,M,M,79.24,KLOL 100653Z AUTO 32007KT 10SM CLR 27/03 A3002 RMK AO2 SLP113 T02720028,M
BVU,2024-08-10 06:55,-114.8611,35.9475,671.00,87.80,59.00,37.90,0.00,0.00,0.00,29.87,M,10.00,M,CLR,M,M,M,M,M,M,M,M,M,M,M,M,M,M,87.12,KBVU 100655Z AUTO 00000KT 10SM CLR 31/15 A2987 RMK AO2,M
CXP,2024-08-10 06:55,-119.7326,39.1923,1431.00,71.60,39.20,30.77,0.00,0.00,0.00,30.13,M,10.00,M,CLR,M,M,M,M,M,M,M,M,M,M,M,M,M,M,71.60,KCXP 100655Z AUTO 00000KT 10SM CLR 22/04 A3013 RMK AO2,M
INS,2024-08-10 06:55,-115.6733,36.5872,955.00,91.00,49.00,23.77,150.00,5.00,0.00,29.93,1007.10,10.00,M,CLR,M,M,M,M,M,M,M,M,M,M,M,M,M,M,87.83,KINS 100655Z AUTO 15005KT 10SM CLR 33/10 A2993 RMK AO2 SLP071 T03270095,M
RNO,2024-08-10 06:55,-119.7711,39.4839,1341.00,78.00,40.00,25.62,90.00,5.00,0.00,30.10,1012.30,10.00,M,CLR,M,M,M,M,M,M,M,M,M,M,M,M,M,M,78.00,KRNO 100655Z 09005KT 10SM CLR 26/04 A3010 RMK AO2 SLP123 T02560044,M
RTS,2024-08-10 06:55,-119.8764,39.6682,1539.00,69.80,37.40,30.49,230.00,6.00,0.00,30.16,M,10.00,M,CLR,M,M,M,M,M,M,M,M,M,M,M,M,M,M,69.80,KRTS 100655Z AUTO 23006KT 10SM CLR 21/03 A3016 RMK AO2,M
MEV,2024-08-10 06:55,-119.7500,38.9963,1441.42,62.60,39.20,42.00,60.00,7.00,0.00,30.12,M,10.00,M,CLR,M,M,M,M,M,M,M,M,M,M,M,M,M,M,62.60,KMEV 100655Z AUTO 06007KT 10SM CLR 17/04 A3012 RMK AO2,M
BAM,2024-08-10 06:55,-116.8743,40.5990,1382.36,68.00,32.00,26.15,200.00,4.00,0.00,30.04,M,10.00,M,CLR,M,M,M,M,M,M,M,M,M,M,M,M,M,M,68.00,KBAM 100655Z AUTO 20004KT 10SM CLR 20/00 A3004 RMK AO1,M
HTH,2024-08-10 06:55,-118.6315,38.5448,1282.89,78.80,44.60,29.79,220.00,6.00,0.00,30.06,M,10.00,M,CLR,M,M,M,M,M,M,M,M,M,M,M,M,M,M,78.80,KHTH 100655Z AUTO 22006KT 10SM CLR 26/07 A3006 RMK A01,M
10U,2024-08-10 06:55,-116.1876,41.9532,1637.00,68.00,33.80,28.11,130.00,6.00,0.00,30.09,M,10.00,M,CLR,M,M,M,M,M,M,M,M,M,M,M,M,M,M,68.00,K10U 100655Z AUTO 13006KT 10SM CLR 20/01 A3009 RMK AO2,M
TMT,2024-08-10 06:55,-117.1971,39.4643,1749.34,54.70,32.50,42.74,80.00,6.00,0.00,30.18,M,10.00,M,CLR,M,M,M,M,M,M,M,M,M,M,M,M,M,M,54.70,KTMT 100655Z AUTO 08006KT 10SM CLR 13/00 A3018 RMK AO2 T01260003,M
LSV,2024-08-10 06:55,-115.0343,36.2362,570.00,96.60,52.70,22.93,0.00,0.00,0.00,29.81,1006.20,10.00,M,SCT,M,M,M,21000.00,M,M,M,M,M,M,M,M,M,M,94.14,KLSV 100655Z AUTO 00000KT 10SM SCT210 36/12 A2981 RMK AO2 SLP062 T03590115 $,M
EKO,2024-08-10 06:56,-115.7860,40.8242,1367.00,68.00,33.00,27.23,40.00,6.00,0.00,30.09,1012.20,10.00,M,CLR,M,M,M,M,M,M,M,M,M,M,M,M,M,M,68.00,KEKO 100656Z AUTO 04006KT 10SM CLR 20/01 A3009 RMK AO2 SLP122 T02000006,M
WMC,2024-08-10 06:56,-117.8072,40.9019,1315.00,81.00,35.00,19.08,260.00,11.00,0.00,30.01,1009.60,10.00,M,CLR,M,M,M,M,M,M,M,M,M,M,M,M,M,M,79.16,KWMC 100656Z AUTO 26011KT 10SM CLR 27/02 A3001 RMK AO2 SLP096 T02720017,M
HND,2024-08-10 06:56,-115.1344,35.9729,742.79,92.00,56.00,29.81,180.00,6.00,0.00,29.91,1011.00,10.00,M,CLR,M,M,M,M,M,M,M,M,M,M,M,M,M,M,90.30,KHND 100656Z AUTO 18006KT 10SM CLR 33/13 A2991 RMK AO2 SLP110 T03330133 404000272,M
TPH,2024-08-10 06:56,-117.0904,38.0505,1654.00,81.00,40.00,23.22,290.00,4.00,0.00,30.13,1010.00,10.00,M,CLR,M,M,M,M,M,M,M,M,M,M,M,M,M,M,79.38,KTPH 100656Z AUTO 29004KT 10SM CLR 27/04 A3013 RMK AO2 SLP100 T02720044,M
LAS,2024-08-10 06:56,-115.1634,36.0719,663.00,97.00,55.00,24.63,0.00,0.00,0.00,29.88,1008.50,10.00,M,FEW,SCT,M,M,10000.00,15000.00,M,M,M,M,M,M,M,M,M,95.23,KLAS 100656Z 00000KT 10SM FEW100 SCT150 36/13 A2988 RMK AO2 SLP085 T03610128,M
NFL,2024-08-10 06:57,-118.7010,39.4166,1199.00,72.00,36.00,26.77,0.00,0.00,0.00,30.04,1014.20,10.00,M,CLR,M,M,M,M,M,M,M,M,M,M,M,M,M,M,72.00,KNFL 100657Z AUTO 00000KT 10SM CLR 22/02 A3004 RMK AO2 SLP142 T02220022,M
05U,2024-08-10 07:10,-116.0051,39.6042,1811.23,M,M,M,0.00,0.00,0.00,30.19,M,10.00,M,CLR,M,M,M,M,M,M,M,M,M,M,M,M,M,M,M,K05U 100710Z AUTO 00000KT 10SM CLR A3019 RMK A01,M
BVU,2024-08-10 07:15,-114.8611,35.9475,671.00,89.60,57.20,33.56,0.00,0.00,0.00,29.87,M,10.00,M,CLR,M,M,M,M,M,M,M,M,M,M,M,M,M,M,88.28,KBVU 100715Z AUTO 00000KT 10SM CLR 32/14 A2987 RMK AO2,M
CXP,2024-08-10 07:15,-119.7326,39.1923,1431.00,69.80,39.20,32.72,0.00,0.00,0.00,30.13,M,10.00,M,CLR,M,M,M,M,M,M,M,M,M,M,M,M,M,M,69.80,KCXP 100715Z AUTO 00000KT 10SM CLR 21/04 A3013 RMK AO2,M
RTS,2024-08-10 07:15,-119.8764,39.6682,1539.00,68.00,37.40,32.43,0.00,0.00,0.00,30.17,M,10.00,M,CLR,M,M,M,M,M,M,M,M,M,M,M,M,M,M,68.00,KRTS 100715Z AUTO 00000KT 10SM CLR 20/03 A3017 RMK AO2,M
MEV,2024-08-10 07:15,-119.7500,38.9963,1441.42,66.20,37.40,34.51,70.00,6.00,0.00,30.12,M,10.00,M,CLR,M,M,M,M,M,M,M,M,M,M,M,M,M,M,66.20,KMEV 100715Z AUTO 07006KT 10SM CLR 19/03 A3012 RMK AO2,M
HTH,2024-08-10 07:15,-118.6315,38.5448,1282.89,77.00,42.80,29.51,230.00,5.00,0.00,30.06,M,10.00,M,CLR,M,M,M,M,M,M,M,M,M,M,M,M,M,M,77.00,KHTH 100715Z AUTO 23005KT 10SM CLR 25/06 A3006 RMK A01,M
10U,2024-08-10 07:15,-116.1876,41.9532,1637.00,68.00,33.80,28.11,140.00,6.00,0.00,30.08,M,10.00,M,CLR,M,M,M,M,M,M,M,M,M,M,M,M,M,M,68.00,K10U 100715Z AUTO 14006KT 10SM CLR 20/01 A3008 RMK AO2,M
BAM,2024-08-10 07:15,-116.8743,40.5990,1382.36,68.00,32.00,26.15,170.00,5.00,0.00,30.05,M,10.00,M,CLR,M,M,M,M,M,M,M,M,M,M,M,M,M,M,68.00,KBAM 100715Z AUTO 17005KT 10SM CLR 20/00 A3005 RMK AO1,M
TMT,2024-08-10 07:15,-117.1971,39.4643,1749.34,57.00,32.00,38.54,0.00,0.00,0.00,30.18,M,10.00,M,CLR,M,M,M,M,M,M,M,M,M,M,M,M,M,M,57.00,KTMT 100715Z AUTO 00000KT 10SM CLR 14/00 A3018 RMK AO2 T01381001,M
BVU,2024-08-10 07:35,-114.8611,35.9475,671.00,86.00,59.00,40.14,60.00,4.00,0.00,29.88,M,10.00,M,CLR,M,M,M,M,M,M,M,M,M,M,M,M,M,M,85.47,KBVU 100735Z AUTO 06004KT 10SM CLR 30/15 A2988 RMK AO2,M
CXP,2024-08-10 07:35,-119.7326,39.1923,1431.00,69.80,39.20,32.72,0.00,0.00,0.00,30.14,M,10.00,M,CLR,M,M,M,M,M,M,M,M,M,M,M,M,M,M,69.80,KCXP 100735Z AUTO 00000KT 10SM CLR 21/04 A3014 RMK AO2,M
RTS,2024-08-10 07:35,-119.8764,39.6682,1539.00,68.00,37.40,32.43,0.00,0.00,0.00,30.17,M,10.00,M,CLR,M,M,M,M,M,M,M,M,M,M,M,M,M,M,68.00,KRTS 100735Z AUTO 00000KT 10SM CLR 20/03 A3017 RMK AO2,M
05U,2024-08-10 07:35,-116.0051,39.6042,1811.23,M,M,M,0.00,0.00,0.00,30.20,M,10.00,M,CLR,M,M,M,M,M,M,M,M,M,M,M,M,M,M,M,K05U 100735Z AUTO 00000KT 10SM CLR A3020 RMK A01,M
MEV,2024-08-10 07:35,-119.7500,38.9963,1441.42,64.40,39.20,39.43,100.00,4.00,0.00,30.13,M,10.00,M,CLR,M,M,M,M,M,M,M,M,M,M,M,M,M,M,64.40,KMEV 100735Z AUTO 10004KT 10SM CLR 18/04 A3013 RMK AO2,M
BAM,2024-08-10 07:35,-116.8743,40.5990,1382.36,62.60,30.20,29.35,190.00,5.00,0.00,30.05,M,10.00,M,CLR,M,M,M,M,M,M,M,M,M,M,M,M,M,M,62.60,KBAM 100735Z AUTO 19005KT 10SM CLR 17/M01 A3005 RMK AO1,M
HTH,2024-08-10 07:35,-118.6315,38.5448,1282.89,77.00,42.80,29.51,260.00,5.00,0.00,30.07,M,10.00,M,CLR,M,M,M,M,M,M,M,M,M,M,M,M,M,M,77.00,KHTH 100735Z AUTO 26005KT 10SM CLR 25/06 A3007 RMK A01,M
10U,2024-08-10 07:35,-116.1876,41.9532,1637.00,69.80,33.80,26.43,130.00,8.00,0.00,30.08,M,10.00,13.00,CLR,M,M,M,M,M,M,M,M,M,M,M,M,M,M,69.80,K10U 100735Z AUTO 13008G13KT 10SM CLR 21/01 A3008 RMK AO2,M
TMT,2024-08-10 07:35,-117.1971,39.4643,1749.34,57.60,32.00,37.72,0.00,0.00,0.00,30.18,M,10.00,M,CLR,M,M,M,M,M,M,M,M,M,M,M,M,M,M,57.60,KTMT 100735Z AUTO 00000KT 10SM CLR 14/00 A3018 RMK AO2 T01420000,M
P68,2024-08-10 07:53,-116.0056,39.6014,1993.00,61.00,39.00,44.10,130.00,7.00,0.00,30.17,1012.10,M,M,M,M,M,M,M,M,M,M,M,M,M,M,M,M,M,61.00,KP68 100753Z AUTO 13007KT 16/04 A3017 RMK AO1 SLP121 T01610039 403440150,M
DRA,2024-08-10 07:53,-116.0278,36.6206,1009.00,85.00,49.00,28.75,0.00,0.00,0.00,29.95,1008.20,10.00,M,CLR,M,M,M,M,M,M,M,M,M,M,M,M,M,M,82.71,KDRA 100753Z AUTO 00000KT 10SM CLR 29/09 A2995 RMK AO2 SLP082 T02940094 404060256,M
ELY,2024-08-10 07:53,-114.8453,39.2950,1909.00,56.00,42.00,59.26,150.00,4.00,0.00,30.22,1012.70,9.00,M,CLR,M,M,M,M,M,M,M,M,M,M,M,M,M,M,56.00,KELY 100753Z AUTO 15004KT 9SM CLR 13/06 A3022 RMK AO2 SLP127 T01330056 403280133,M
VGT,2024-08-10 07:53,-115.1933,36.2111,667.00,93.00,56.00,28.90,90.00,7.00,0.00,29.87,1009.90,10.00,M,CLR,M,M,M,M,M,M,M,M,M,M,M,M,M,M,91.32,KVGT 100753Z AUTO 09007KT 10SM CLR 34/13 A2987 RMK AO2 SLP099 T03390133 404000294,M
LOL,2024-08-10 07:53,-118.5701,40.0684,1192.43,70.00,37.00,29.81,110.00,4.00,0.00,30.04,1012.30,10.00,M,CLR,M,M,M,M,M,M,M,M,M,M,M,M,M,M,70.00,KLOL 100753Z AUTO 11004KT 10SM CLR 21/03 A3004 RMK AO2 SLP123 T02110028 403720150,M
BVU,2024-08-10 07:55,-114.8611,35.9475,671.00,86.00,59.00,40.14,70.00,4.00,0.00,29.88,M,10.00,M,CLR,M,M,M,M,M,M,M,M,M,M,M,M,M,M,85.47,KBVU 100755Z AUTO 07004KT 10SM CLR 30/15 A2988 RMK AO2,M
CXP,2024-08-10 07:55,-119.7326,39.1923,1431.00,69.80,37.40,30.49,0.00,0.00,0.00,30.14,M,10.00,M,CLR,M,M,M,M,M,M,M,M,M,M,M,M,M,M,69.80,KCXP 100755Z AUTO 00000KT 10SM CLR 21/03 A3014 RMK AO2,M
INS,2024-08-10 07:55,-115.6733,36.5872,955.00,88.30,49.00,25.88,0.00,0.00,0.00,29.94,1007.50,10.00,M,CLR,M,M,M,M,M,M,M,M,M,M,M,M,M,M,85.40,KINS 100755Z AUTO 00000KT 10SM CLR 31/10 A2994 RMK AO2 SLP075 T03130095 403930283,M
RNO,2024-08-10 07:55,-119.7711,39.4839,1341.00,76.00,39.00,26.34,60.00,3.00,0.00,30.11,1012.70,10.00,M,CLR,M,M,M,M,M,M,M,M,M,M,M,M,M,M,76.00,KRNO 100755Z 06003KT 10SM CLR 24/04 A3011 RMK AO2 SLP127 T02440039 403720189,M
RTS,2024-08-10 07:55,-119.8764,39.6682,1539.00,69.80,37.40,30.49,50.00,3.00,0.00,30.17,M,10.00,M,CLR,M,M,M,M,M,M,M,M,M,M,M,M,M,M,69.80,KRTS 100755Z AUTO 05003KT 10SM CLR 21/03 A3017 RMK AO2,M
05U,2024-08-10 07:55,-116.0051,39.6042,1811.23,M,M,M,0.00,0.00,0.00,30.19,M,10.00,M,CLR,M,M,M,M,M,M,M,M,M,M,M,M,M,M,M,K05U 100755Z AUTO 00000KT 10SM CLR A3019 RMK A01,M
MEV,2024-08-10 07:55,-119.7500,38.9963,1441.42,62.60,39.20,42.00,60.00,4.00,0.00,30.13,M,10.00,M,CLR,M,M,M,M,M,M,M,M,M,M,M,M,M,M,62.60,KMEV 100755Z AUTO 06004KT 10SM CLR 17/04 A3013 RMK AO2,M
BAM,2024-08-10 07:55,-116.8743,40.5990,1382.36,60.80,30.20,31.28,210.00,5.00,0.00,30.05,M,10.00,M,CLR,M,M,M,M,M,M,M,M,M,M,M,M,M,M,60.80,KBAM 100755Z AUTO 21005KT 10SM CLR 16/M01 A3005 RMK AO1,M
HTH,2024-08-10 07:55,-118.6315,38.5448,1282.89,77.00,37.40,23.93,310.00,7.00,0.00,30.07,M,10.00,M,CLR,M,M,M,M,M,M,M,M,M,M,M,M,M,M,77.00,KHTH 100755Z AUTO 31007KT 10SM CLR 25/03 A3007 RMK A01,M
10U,2024-08-10 07:55,-116.1876,41.9532,1637.00,68.00,33.80,28.11,110.00,9.00,0.00,30.08,M,10.00,M,CLR,M,M,M,M,M,M,M,M,M,M,M,M,M,M,68.00,K10U 100755Z AUTO 11009KT 10SM CLR 20/01 A3008 RMK AO2,M
LSV,2024-08-10 07:55,-115.0343,36.2362,570.00,92.70,56.70,29.92,60.00,6.00,0.00,29.82,1006.50,10.00,M,FEW,M,M,M,20000.00,M,M,M,M,M,M,M,M,M,M,91.23,KLSV 100755Z AUTO 06006KT 10SM FEW200 34/14 A2982 RMK AO2 SLP065 T03370137 404010269 $,M
TMT,2024-08-10 07:55,-117.1971,39.4643,1749.34,57.60,32.00,37.72,10.00,3.00,0.00,30.18,M,10.00,M,CLR,M,M,M,M,M,M,M,M,M,M,M,M,M,M,57.60,KTMT 100755Z AUTO 01003KT 10SM CLR 14/00 A3018 RMK AO2 T01421001 403410097,M
EKO,2024-08-10 07:56,-115.7860,40.8242,1367.00,66.00,31.00,26.92,60.00,3.00,0.00,30.09,1012.00,10.00,M,CLR,M,M,M,M,M,M,M,M,M,M,M,M,M,M,66.00,KEKO 100756Z AUTO 06003KT 10SM CLR 19/M01 A3009 RMK AO2 SLP120 T01891006 403560122,M
WMC,2024-08-10 07:56,-117.8072,40.9019,1315.00,75.00,35.00,23.26,0.00,0.00,0.00,30.02,1010.40,10.00,M,CLR,M,M,M,M,M,M,M,M,M,M,M,M,M,M,75.00,KWMC 100756Z AUTO 00000KT 10SM CLR 24/02 A3002 RMK AO2 SLP104 T02390017 403780128,M
HND,2024-08-10 07:56,-115.1344,35.9729,742.79,92.00,56.00,29.81,180.00,6.00,0.00,29.92,1011.00,10.00,M,CLR,M,M,M,M,M,M,M,M,M,M,M,M,M,M,90.30,KHND 100756Z AUTO 18006KT 10SM CLR 33/13 A2992 RMK AO2 SLP110 T03330133,M
TPH,2024-08-10 07:56,-117.0904,38.0505,1654.00,81.00,40.00,23.22,200.00,5.00,0.00,30.13,1010.10,10.00,M,CLR,M,M,M,M,M,M,M,M,M,M,M,M,M,M,79.38,KTPH 100756Z AUTO 20005KT 10SM CLR 27/04 A3013 RMK AO2 SLP101 T02720044 403610194,M
LAS,2024-08-10 07:56,-115.1634,36.0719,663.00,95.00,56.00,27.16,150.00,4.00,0.00,29.89,1008.50,10.00,M,SCT,M,M,M,15000.00,M,M,M,M,M,M,M,M,M,M,93.41,KLAS 100756Z 15004KT 10SM SCT150 35/13 A2989 RMK AO2 SLP085 T03500133 404110300,M
NFL,2024-08-10 07:57,-118.7010,39.4166,1199.00,79.00,38.00,22.93,300.00,7.00,0.00,30.05,1014.40,10.00,M,CLR,M,M,M,M,M,M,M,M,M,M,M,M,M,M,79.00,KNFL 100757Z AUTO 30007KT 10SM CLR 26/03 A3005 RMK AO2 SLP144 T02610033 403890178,M
BVU,2024-08-10 08:15,-114.8611,35.9475,671.00,87.80,59.00,37.90,70.00,4.00,0.00,29.88,M,10.00,M,CLR,M,M,M,M,M,M,M,M,M,M,M,M,M,M,87.12,KBVU 100815Z AUTO 07004KT 10SM CLR 31/15 A2988 RMK AO2,M
CXP,2024-08-10 08:15,-119.7326,39.1923,1431.00,66.20,37.40,34.51,0.00,0.00,0.00,30.14,M,10.00,M,CLR,M,M,M,M,M,M,M,M,M,M,M,M,M,M,66.20,KCXP 100815Z AUTO 00000KT 10SM CLR 19/03 A3014 RMK AO2,M
RTS,2024-08-10 08:15,-119.8764,39.6682,1539.00,64.40,35.60,34.22,0.00,0.00,0.00,30.17,M,10.00,M,CLR,M,M,M,M,M,M,M,M,M,M,M,M,M,M,64.40,KRTS 100815Z AUTO 00000KT 10SM CLR 18/02 A3017 RMK AO2,M
05U,2024-08-10 08:15,-116.0051,39.6042,1811.23,M,M,M,220.00,5.00,0.00,30.20,M,10.00,M,CLR,M,M,M,M,M,M,M,M,M,M,M,M,M,M,M,K05U 100815Z AUTO 22005KT 10SM CLR A3020 RMK A01,M
MEV,2024-08-10 08:15,-119.7500,38.9963,1441.42,60.80,39.20,44.76,70.00,6.00,0.00,30.12,M,10.00,M,CLR,M,M,M,M,M,M,M,M,M,M,M,M,M,M,60.80,KMEV 100815Z AUTO 07006KT 10SM CLR 16/04 A3012 RMK AO2,M
BAM,2024-08-10 08:15,-116.8743,40.5990,1382.36,60.80,30.20,31.28,230.00,6.00,0.00,30.05,M,10.00,M,CLR,M,M,M,M,M,M,M,M,M,M,M,M,M,M,60.80,KBAM 100815Z AUTO 23006KT 10SM CLR 16/M01 A3005 RMK AO1,M
HTH,2024-08-10 08:15,-118.6315,38.5448,1282.89,78.80,33.80,19.55,310.00,10.00,0.00,30.07,M,10.00,M,CLR,M,M,M,M,M,M,M,M,M,M,M,M,M,M,78.80,KHTH 100815Z AUTO 31010KT 10SM CLR 26/01 A3007 RMK A01,M
10U,2024-08-10 08:15,-116.1876,41.9532,1637.00,66.20,33.80,29.92,110.00,8.00,0.00,30.09,M,10.00,M,CLR,M,M,M,M,M,M,M,M,M,M,M,M,M,M,66.20,K10U 100815Z AUTO 11008KT 10SM CLR 19/01 A3009 RMK AO2,M
TMT,2024-08-10 08:15,-117.1971,39.4643,1749.34,55.40,32.00,40.84,330.00,4.00,0.00,30.18,M,10.00,M,CLR,M,M,M,M,M,M,M,M,M,M,M,M,M,M,55.40,KTMT 100815Z AUTO 33004KT 10SM CLR 13/00 A3018 RMK AO2 T01301001,M
05U,2024-08-10 08:30,-116.0051,39.6042,1811.23,M,M,M,0.00,0.00,0.00,30.19,M,10.00,M,CLR,M,M,M,M,M,M,M,M,M,M,M,M,M,M,M,K05U 100830Z AUTO 00000KT 10SM CLR A3019 RMK A01,M
BVU,2024-08-10 08:35,-114.8611,35.9475,671.00,87.80,57.20,35.53,80.00,5.00,0.00,29.88,M,10.00,M,CLR,M,M,M,M,M,M,M,M,M,M,M,M,M,M,86.58,KBVU 100835Z AUTO 08005KT 10SM CLR 31/14 A2988 RMK AO2,M
CXP,2024-08-10 08:35,-119.7326,39.1923,1431.00,64.40,37.40,36.74,0.00,0.00,0.00,30.14,M,10.00,M,CLR,M,M,M,M,M,M,M,M,M,M,M,M,M,M,64.40,KCXP 100835Z AUTO 00000KT 10SM CLR 18/03 A3014 RMK AO2,M
RTS,2024-08-10 08:35,-119.8764,39.6682,1539.00,66.20,37.40,34.51,0.00,0.00,0.00,30.16,M,10.00,M,CLR,M,M,M,M,M,M,M,M,M,M,M,M,M,M,66.20,KRTS 100835Z AUTO 00000KT 10SM CLR 19/03 A3016 RMK AO2,M
MEV,2024-08-10 08:35,-119.7500,38.9963,1441.42,59.00,39.20,47.72,90.00,8.00,0.00,30.12,M,10.00,M,CLR,M,M,M,M,M,M,M,M,M,M,M,M,M,M,59.00,KMEV 100835Z AUTO 09008KT 10SM CLR 15/04 A3012 RMK AO2,M
BAM,2024-08-10 08:35,-116.8743,40.5990,1382.36,60.80,30.20,31.28,210.00,5.00,0.00,30.05,M,10.00,M,CLR,M,M,M,M,M,M,M,M,M,M,M,M,M,M,60.80,KBAM 100835Z AUTO 21005KT 10SM CLR 16/M01 A3005 RMK AO1,M
HTH,2024-08-10 08:35,-118.6315,38.5448,1282.89,78.80,33.80,19.55,310.00,7.00,0.00,30.07,M,10.00,M,CLR,M,M,M,M,M,M,M,M,M,M,M,M,M,M,78.80,KHTH 100835Z AUTO 31007KT 10SM CLR 26/01 A3007 RMK A01,M
10U,2024-08-10 08:35,-116.1876,41.9532,1637.00,62.60,35.60,36.45,80.00,8.00,0.00,30.09,M,10.00,M,CLR,M,M,M,M,M,M,M,M,M,M,M,M,M,M,62.60,K10U 100835Z AUTO 08008KT 10SM CLR 17/02 A3009 RMK AO2,M
TMT,2024-08-10 08:35,-117.1971,39.4643,1749.34,55.60,31.00,38.94,300.00,3.00,0.00,30.19,M,10.00,M,CLR,M,M,M,M,M,M,M,M,M,M,M,M,M,M,55.60,KTMT 100835Z AUTO 30003KT 10SM CLR 13/00 A3019 RMK AO2 T01311005,M
05U,2024-08-10 08:50,-116.0051,39.6042,1811.23,M,M,M,0.00,0.00,0.00,30.19,M,10.00,M,CLR,M,M,M,M,M,M,M,M,M,M,M,M,M,M,M,K05U 100850Z AUTO 00000KT 10SM CLR A3019 RMK A01,M
P68,2024-08-10 08:53,-116.0056,39.6014,1993.00,64.00,38.00,38.15,210.00,6.00,0.00,30.17,1011.80,M,M,M,M,M,M,M,M,M,M,M,M,M,M,M,M,M,64.00,KP68 100853Z AUTO 21006KT 18/03 A3017 RMK AO1 SLP118 T01780033 50000,M
DRA,2024-08-10 08:53,-116.0278,36.6206,1009.00,86.00,50.00,28.90,90.00,6.00,0.00,29.96,1008.30,10.00,M,CLR,M,M,M,M,M,M,M,M,M,M,M,M,M,M,83.62,KDRA 100853Z AUTO 09006KT 10SM CLR 30/10 A2996 RMK AO2 SLP083 T03000100 51007,M
ELY,2024-08-10 08:53,-114.8453,39.2950,1909.00,55.00,41.00,59.13,150.00,7.00,0.00,30.23,1012.90,9.00,M,CLR,M,M,M,M,M,M,M,M,M,M,M,M,M,M,55.00,KELY 100853Z AUTO 15007KT 9SM CLR 13/05 A3023 RMK AO2 SLP129 T01280050 51003,M
VGT,2024-08-10 08:53,-115.1933,36.2111,667.00,93.00,57.00,29.96,50.00,5.00,0.00,29.88,1010.20,10.00,M,CLR,M,M,M,M,M,M,M,M,M,M,M,M,M,M,91.64,KVGT 100853Z AUTO 05005KT 10SM CLR 34/14 A2988 RMK AO2 SLP102 T03390139 51007,M
LOL,2024-08-10 08:53,-118.5701,40.0684,1192.43,68.00,38.00,33.20,0.00,0.00,0.00,30.04,1012.40,10.00,M,CLR,M,M,M,M,M,M,M,M,M,M,M,M,M,M,68.00,KLOL 100853Z AUTO 00000KT 10SM CLR 20/03 A3004 RMK AO2 SLP124 T02000033 51011,M
BVU,2024-08-10 08:55,-114.8611,35.9475,671.00,89.60,57.20,33.56,80.00,6.00,0.00,29.88,M,10.00,M,CLR,M,M,M,M,M,M,M,M,M,M,M,M,M,M,88.28,KBVU 100855Z AUTO 08006KT 10SM CLR 32/14 A2988 RMK AO2,M
CXP,2024-08-10 08:55,-119.7326,39.1923,1431.00,62.60,35.60,36.45,0.00,0.00,0.00,30.14,M,10.00,M,CLR,M,M,M,M,M,M,M,M,M,M,M,M,M,M,62.60,KCXP 100855Z AUTO 00000KT 10SM CLR 17/02 A3014 RMK AO2,M
INS,2024-08-10 08:55,-115.6733,36.5872,955.00,88.00,50.00,27.12,170.00,3.00,0.00,29.95,1007.80,10.00,M,CLR,M,M,M,M,M,M,M,M,M,M,M,M,M,M,85.28,KINS 100855Z AUTO 17003KT 10SM CLR 31/10 A2995 RMK AO2 SLP078 T03120100 52010,M
RNO,2024-08-10 08:55,-119.7711,39.4839,1341.00,70.00,38.00,31.00,160.00,4.00,0.00,30.11,1012.90,10.00,M,CLR,M,M,M,M,M,M,M,M,M,M,M,M,M,M,70.00,KRNO 100855Z 16004KT 10SM CLR 21/03 A3011 RMK AO2 SLP129 T02110033 51008,M
RTS,2024-08-10 08:55,-119.8764,39.6682,1539.00,66.20,35.60,32.14,0.00,0.00,0.00,30.16,M,10.00,M,CLR,M,M,M,M,M,M,M,M,M,M,M,M,M,M,66.20,KRTS 100855Z AUTO 00000KT 10SM CLR 19/02 A3016 RMK AO2,M
MEV,2024-08-10 08:55,-119.7500,38.9963,1441.42,55.40,39.20,54.34,0.00,0.00,0.00,30.13,M,10.00,M,CLR,M,M,M,M,M,M,M,M,M,M,M,M,M,M,55.40,KMEV 100855Z AUTO 00000KT 10SM CLR 13/04 A3013 RMK AO2,M
BAM,2024-08-10 08:55,-116.8743,40.5990,1382.36,60.80,30.20,31.28,120.00,5.00,0.00,30.05,M,10.00,M,CLR,M,M,M,M,M,M,M,M,M,M,M,M,M,M,60.80,KBAM 100855Z AUTO 12005KT 10SM CLR 16/M01 A3005 RMK AO1,M
HTH,2024-08-10 08:55,-118.6315,38.5448,1282.89,77.00,33.80,20.74,M,4.00,0.00,30.07,M,10.00,M,CLR,M,M,M,M,M,M,M,M,M,M,M,M,M,M,77.00,KHTH 100855Z AUTO VRB04KT 10SM CLR 25/01 A3007 RMK A01,M
10U,2024-08-10 08:55,-116.1876,41.9532,1637.00,60.80,35.60,38.85,60.00,6.00,0.00,30.09,M,10.00,M,CLR,M,M,M,M,M,M,M,M,M,M,M,M,M,M,60.80,K10U 100855Z AUTO 06006KT 10SM CLR 16/02 A3009 RMK AO2,M
LSV,2024-08-10 08:55,-115.0343,36.2362,570.00,92.50,57.40,30.87,40.00,4.00,0.00,29.82,1006.50,10.00,M,CLR,M,M,M,M,M,M,M,M,M,M,M,M,M,M,91.25,KLSV 100855Z AUTO 04004KT 10SM CLR 34/14 A2982 RMK AO2 SLP065 T03360141 52007 $,M
TMT,2024-08-10 08:55,-117.1971,39.4643,1749.34,50.00,29.00,44.10,270.00,3.00,0.00,30.19,M,10.00,M,CLR,M,M,M,M,M,M,M,M,M,M,M,M,M,M,50.00,KTMT 100855Z AUTO 27003KT 10SM CLR 10/M02 A3019 RMK AO2 T01001016,M
EKO,2024-08-10 08:56,-115.7860,40.8242,1367.00,66.00,33.00,29.18,30.00,4.00,0.00,30.09,1012.00,10.00,M,CLR,M,M,M,M,M,M,M,M,M,M,M,M,M,M,66.00,KEKO 100856Z AUTO 03004KT 10SM CLR 19/01 A3009 RMK AO2 SLP120 T01890006 51005,M
WMC,2024-08-10 08:56,-117.8072,40.9019,1315.00,72.00,37.00,27.85,140.00,5.00,0.00,30.03,1010.90,10.00,M,CLR,M,M,M,M,M,M,M,M,M,M,M,M,M,M,72.00,KWMC 100856Z AUTO 14005KT 10SM CLR 22/03 A3003 RMK AO2 SLP109 T02220028 53008,M
HND,2024-08-10 08:56,-115.1344,35.9729,742.79,90.00,56.00,31.74,200.00,6.00,0.00,29.93,1011.30,10.00,M,CLR,M,M,M,M,M,M,M,M,M,M,M,M,M,M,88.32,KHND 100856Z AUTO 20006KT 10SM CLR 32/13 A2993 RMK AO2 SLP113 T03220133 51006,M
TPH,2024-08-10 08:56,-117.0904,38.0505,1654.00,79.00,33.00,18.80,330.00,7.00,0.00,30.13,1009.60,10.00,M,FEW,M,M,M,12000.00,M,M,M,M,M,M,M,M,M,M,79.00,KTPH 100856Z AUTO 33007KT 10SM FEW120 26/01 A3013 RMK AO2 SLP096 T02610006 50003,M
LAS,2024-08-10 08:56,-115.1634,36.0719,663.00,95.00,56.00,27.16,150.00,4.00,0.00,29.89,1008.70,10.00,M,CLR,M,M,M,M,M,M,M,M,M,M,M,M,M,M,93.41,KLAS 100856Z 15004KT 10SM CLR 35/13 A2989 RMK AO2 SLP087 T03500133 51006,M
NFL,2024-08-10 08:57,-118.7010,39.4166,1199.00,70.00,37.00,29.81,0.00,0.00,0.00,30.06,1014.70,10.00,M,CLR,M,M,M,M,M,M,M,M,M,M,M,M,M,M,70.00,KNFL 100857Z AUTO 00000KT 10SM CLR 21/03 A3006 RMK AO2 SLP147 T02110028 51012,M
05U,2024-08-10 09:10,-116.0051,39.6042,1811.23,M,M,M,0.00,0.00,0.00,30.19,M,10.00,M,CLR,M,M,M,M,M,M,M,M,M,M,M,M,M,M,M,K05U 100910Z AUTO 00000KT 10SM CLR A3019 RMK A01,M
BVU,2024-08-10 09:15,-114.8611,35.9475,671.00,87.80,55.40,33.29,80.00,5.00,0.00,29.88,M,10.00,M,CLR,M,M,M,M,M,M,M,M,M,M,M,M,M,M,86.11,KBVU 100915Z AUTO 08005KT 10SM CLR 31/13 A2988 RMK AO2,M
CXP,2024-08-10 09:15,-119.7326,39.1923,1431.00,62.60,39.20,42.00,0.00,0.00,0.00,30.14,M,10.00,M,CLR,M,M,M,M,M,M,M,M,M,M,M,M,M,M,62.60,KCXP 100915Z AUTO 00000KT 10SM CLR 17/04 A3014 RMK AO2,M
RTS,2024-08-10 09:15,-119.8764,39.6682,1539.00,62.60,37.40,39.14,360.00,4.00,0.00,30.17,M,10.00,M,CLR,M,M,M,M,M,M,M,M,M,M,M,M,M,M,62.60,KRTS 100915Z AUTO 36004KT 10SM CLR 17/03 A3017 RMK AO2,M
MEV,2024-08-10 09:15,-119.7500,38.9963,1441.42,55.40,37.40,50.64,120.00,4.00,0.00,30.13,M,10.00,M,CLR,M,M,M,M,M,M,M,M,M,M,M,M,M,M,55.40,KMEV 100915Z AUTO 12004KT 10SM CLR 13/03 A3013 RMK AO2,M
BAM,2024-08-10 09:15,-116.8743,40.5990,1382.36,62.60,30.20,29.35,170.00,5.00,0.00,30.06,M,10.00,M,CLR,M,M,M,M,M,M,M,M,M,M,M,M,M,M,62.60,KBAM 100915Z AUTO 17005KT 10SM CLR 17/M01 A3006 RMK AO1,M
HTH,2024-08-10 09:15,-118.6315,38.5448,1282.89,75.20,37.40,25.40,0.00,0.00,0.00,30.08,M,10.00,M,CLR,M,M,M,M,M,M,M,M,M,M,M,M,M,M,75.20,KHTH 100915Z AUTO 00000KT 10SM CLR 24/03 A3008 RMK A01,M
10U,2024-08-10 09:15,-116.1876,41.9532,1637.00,60.80,33.80,36.16,110.00,6.00,0.00,30.09,M,10.00,M,CLR,M,M,M,M,M,M,M,M,M,M,M,M,M,M,60.80,K10U 100915Z AUTO 11006KT 10SM CLR 16/01 A3009 RMK AO2,M
TMT,2024-08-10 09:15,-117.1971,39.4643,1749.34,54.00,33.00,44.74,210.00,3.00,0.00,30.19,M,10.00,M,CLR,M,M,M,M,M,M,M,M,M,M,M,M,M,M,54.00,KTMT 100915Z AUTO 21003KT 10SM CLR 12/01 A3019 RMK AO2 T01230006,M
05U,2024-08-10 09:30,-116.0051,39.6042,1811.23,M,M,M,0.00,0.00,0.00,30.19,M,10.00,M,CLR,M,M,M,M,M,M,M,M,M,M,M,M,M,M,M,K05U 100930Z AUTO 00000KT 10SM CLR A3019 RMK A01,M
BVU,2024-08-10 09:35,-114.8611,35.9475,671.00,87.80,57.20,35.53,70.00,4.00,0.00,29.88,M,10.00,M,CLR,M,M,M,M,M,M,M,M,M,M,M,M,M,M,86.58,KBVU 100935Z AUTO 07004KT 10SM CLR 31/14 A2988 RMK AO2,M
CXP,2024-08-10 09:35,-119.7326,39.1923,1431.00,60.80,39.20,44.76,270.00,4.00,0.00,30.14,M,10.00,M,CLR,M,M,M,M,M,M,M,M,M,M,M,M,M,M,60.80,KCXP 100935Z AUTO 27004KT 10SM CLR 16/04 A3014 RMK AO2,M
RTS,2024-08-10 09:35,-119.8764,39.6682,1539.00,62.60,35.60,36.45,350.00,4.00,0.00,30.16,M,10.00,M,CLR,M,M,M,M,M,M,M,M,M,M,M,M,M,M,62.60,KRTS 100935Z AUTO 35004KT 10SM CLR 17/02 A3016 RMK AO2,M
MEV,2024-08-10 09:35,-119.7500,38.9963,1441.42,55.40,35.60,47.16,0.00,0.00,0.00,30.13,M,10.00,M,CLR,M,M,M,M,M,M,M,M,M,M,M,M,M,M,55.40,KMEV 100935Z AUTO 00000KT 10SM CLR 13/02 A3013 RMK AO2,M
HTH,2024-08-10 09:35,-118.6315,38.5448,1282.89,75.20,41.00,29.23,360.00,4.00,0.00,30.08,M,10.00,M,CLR,M,M,M,M,M,M,M,M,M,M,M,M,M,M,75.20,KHTH 100935Z AUTO 36004KT 10SM CLR 24/05 A3008 RMK A01,M
10U,2024-08-10 09:35,-116.1876,41.9532,1637.00,64.40,33.80,31.85,150.00,6.00,0.00,30.09,M,10.00,M,CLR,M,M,M,M,M,M,M,M,M,M,M,M,M,M,64.40,K10U 100935Z AUTO 15006KT 10SM CLR 18/01 A3009 RMK AO2,M
BAM,2024-08-10 09:35,-116.8743,40.5990,1382.36,62.60,30.20,29.35,0.00,0.00,0.00,30.06,M,10.00,M,CLR,M,M,M,M,M,M,M,M,M,M,M,M,M,M,62.60,KBAM 100935Z AUTO 00000KT 10SM CLR 17/M01 A3006 RMK AO1,M
TMT,2024-08-10 09:35,-117.1971,39.4643,1749.34,50.00,31.50,48.81,180.00,4.00,0.00,30.19,M,10.00,M,CLR,M,M,M,M,M,M,M,M,M,M,M,M,M,M,50.00,KTMT 100935Z AUTO 18004KT 10SM CLR 10/00 A3019 RMK AO2 T00991003,M
05U,2024-08-10 09:50,-116.0051,39.6042,1811.23,M,M,M,0.00,0.00,0.00,30.19,M,10.00,M,CLR,M,M,M,M,M,M,M,M,M,M,M,M,M,M,M,K05U 100950Z AUTO 00000KT 10SM CLR A3019 RMK A01,M
P68,2024-08-10 09:53,-116.0056,39.6014,1993.00,58.00,36.00,43.62,170.00,7.00,0.00,30.16,1012.60,M,M,M,M,M,M,M,M,M,M,M,M,M,M,M,M,M,58.00,KP68 100953Z AUTO 17007KT 14/02 A3016 RMK AO1 SLP126 T01440022,M
DRA,2024-08-10 09:53,-116.0278,36.6206,1009.00,84.00,52.00,33.19,360.00,3.00,0.00,29.96,1008.40,10.00,M,CLR,M,M,M,M,M,M,M,M,M,M,M,M,M,M,82.36,KDRA 100953Z AUTO 36003KT 10SM CLR 29/11 A2996 RMK AO2 SLP084 T02890111,M
ELY,2024-08-10 09:53,-114.8453,39.2950,1909.00,56.00,43.00,61.59,170.00,8.00,0.00,30.22,1013.20,9.00,M,CLR,M,M,M,M,M,M,M,M,M,M,M,M,M,M,56.00,KELY 100953Z AUTO 17008KT 9SM CLR 13/06 A3022 RMK AO2 SLP132 T01330061,M
VGT,2024-08-10 09:53,-115.1933,36.2111,667.00,92.00,59.00,33.21,30.00,4.00,0.00,29.88,1010.10,10.00,M,CLR,M,M,M,M,M,M,M,M,M,M,M,M,M,M,91.30,KVGT 100953Z AUTO 03004KT 10SM CLR 33/15 A2988 RMK AO2 SLP101 T03330150,M
LOL,2024-08-10 09:53,-118.5701,40.0684,1192.43,64.00,38.00,38.15,40.00,5.00,0.00,30.05,1012.80,10.00,M,CLR,M,M,M,M,M,M,M,M,M,M,M,M,M,M,64.00,KLOL 100953Z AUTO 04005KT 10SM CLR 18/03 A3005 RMK AO2 SLP128 T01780033,M
BVU,2024-08-10 09:55,-114.8611,35.9475,671.00,86.00,57.20,37.62,60.00,4.00,0.00,29.88,M,10.00,M,CLR,M,M,M,M,M,M,M,M,M,M,M,M,M,M,84.97,KBVU 100955Z AUTO 06004KT 10SM CLR 30/14 A2988 RMK AO2,M
CXP,2024-08-10 09:55,-119.7326,39.1923,1431.00,60.80,37.40,41.71,0.00,0.00,0.00,30.14,M,10.00,M,CLR,M,M,M,M,M,M,M,M,M,M,M,M,M,M,60.80,KCXP 100955Z AUTO 00000KT 10SM CLR 16/03 A3014 RMK AO2,M
INS,2024-08-10 09:55,-115.6733,36.5872,955.00,84.70,50.70,30.93,0.00,0.00,0.00,29.96,1008.30,10.00,M,CLR,M,M,M,M,M,M,M,M,M,M,M,M,M,M,82.70,KINS 100955Z AUTO 00000KT 10SM CLR 29/10 A2996 RMK AO2 SLP083 T02930104,M
RNO,2024-08-10 09:55,-119.7711,39.4839,1341.00,67.00,39.00,35.74,0.00,0.00,0.00,30.11,1013.10,10.00,M,CLR,M,M,M,M,M,M,M,M,M,M,M,M,M,M,67.00,KRNO 100955Z 00000KT 10SM CLR 19/04 A3011 RMK AO2 SLP131 T01940039,M
RTS,2024-08-10 09:55,-119.8764,39.6682,1539.00,60.80,35.60,38.85,350.00,5.00,0.00,30.16,M,10.00,M,CLR,M,M,M,M,M,M,M,M,M,M,M,M,M,M,60.80,KRTS 100955Z AUTO 35005KT 10SM CLR 16/02 A3016 RMK AO2,M
MEV,2024-08-10 09:55,-119.7500,38.9963,1441.42,57.20,35.60,44.19,0.00,0.00,0.00,30.13,M,10.00,M,CLR,M,M,M,M,M,M,M,M,M,M,M,M,M,M,57.20,KMEV 100955Z AUTO 00000KT 10SM CLR 14/02 A3013 RMK AO2,M
BAM,2024-08-10 09:55,-116.8743,40.5990,1382.36,60.80,30.20,31.28,0.00,0.00,0.00,30.06,M,10.00,M,CLR,M,M,M,M,M,M,M,M,M,M,M,M,M,M,60.80,KBAM 100955Z AUTO 00000KT 10SM CLR 16/M01 A3006 RMK AO1,M
HTH,2024-08-10 09:55,-118.6315,38.5448,1282.89,73.40,44.60,35.66,0.00,0.00,0.00,30.08,M,10.00,M,CLR,M,M,M,M,M,M,M,M,M,M,M,M,M,M,73.40,KHTH 100955Z AUTO 00000KT 10SM CLR 23/07 A3008 RMK A01,M
10U,2024-08-10 09:55,-116.1876,41.9532,1637.00,60.80,32.00,33.64,170.00,8.00,0.00,30.09,M,10.00,M,CLR,M,M,M,M,M,M,M,M,M,M,M,M,M,M,60.80,K10U 100955Z AUTO 17008KT 10SM CLR 16/00 A3009 RMK AO2,M
LSV,2024-08-10 09:55,-115.0343,36.2362,570.00,89.80,58.50,34.95,50.00,7.00,0.00,29.83,1006.90,10.00,M,CLR,M,M,M,M,M,M,M,M,M,M,M,M,M,M,88.89,KLSV 100955Z AUTO 05007KT 10SM CLR 32/15 A2983 RMK AO2 SLP069 T03210147 $,M
TMT,2024-08-10 09:55,-117.1971,39.4643,1749.34,51.00,30.40,44.98,0.00,0.00,0.00,30.19,M,10.00,M,CLR,M,M,M,M,M,M,M,M,M,M,M,M,M,M,51.00,KTMT 100955Z AUTO 00000KT 10SM CLR 11/M01 A3019 RMK AO2 T01061009,M
EKO,2024-08-10 09:56,-115.7860,40.8242,1367.00,58.00,32.00,37.18,0.00,0.00,0.00,30.09,1012.90,10.00,M,CLR,M,M,M,M,M,M,M,M,M,M,M,M,M,M,58.00,KEKO 100956Z AUTO 00000KT 10SM CLR 14/00 A3009 RMK AO2 SLP129 T01440000,M
WMC,2024-08-10 09:56,-117.8072,40.9019,1315.00,74.00,37.00,26.03,220.00,6.00,0.00,30.04,1011.10,10.00,M,CLR,M,M,M,M,M,M,M,M,M,M,M,M,M,M,74.00,KWMC 100956Z AUTO 22006KT 10SM CLR 23/03 A3004 RMK AO2 SLP111 T02330028,M
HND,2024-08-10 09:56,-115.1344,35.9729,742.79,90.00,57.00,32.91,200.00,8.00,0.00,29.93,1011.20,10.00,M,CLR,M,M,M,M,M,M,M,M,M,M,M,M,M,M,88.61,KHND 100956Z AUTO 20008KT 10SM CLR 32/14 A2993 RMK AO2 SLP112 T03220139,M
TPH,2024-08-10 09:56,-117.0904,38.0505,1654.00,76.00,42.00,29.59,30.00,7.00,0.00,30.14,1010.20,10.00,M,CLR,M,M,M,M,M,M,M,M,M,M,M,M,M,M,76.00,KTPH 100956Z AUTO 03007KT 10SM CLR 24/06 A3014 RMK AO2 SLP102 T02440056,M
LAS,2024-08-10 09:56,-115.1634,36.0719,663.00,93.00,56.00,28.90,230.00,5.00,0.00,29.89,1008.70,10.00,M,CLR,M,M,M,M,M,M,M,M,M,M,M,M,M,M,91.32,KLAS 100956Z 23005KT 10SM CLR 34/13 A2989 RMK AO2 SLP087 T03390133,M
NFL,2024-08-10 09:57,-118.7010,39.4166,1199.00,70.00,39.00,32.24,360.00,3.00,0.00,30.06,1014.70,10.00,M,CLR,M,M,M,M,M,M,M,M,M,M,M,M,M,M,70.00,KNFL 100957Z AUTO 36003KT 10SM CLR 21/04 A3006 RMK AO2 SLP147 T02110039,M
05U,2024-08-10 10:10,-116.0051,39.6042,1811.23,M,M,M,0.00,0.00,0.00,30.19,M,10.00,M,CLR,M,M,M,M,M,M,M,M,M,M,M,M,M,M,M,K05U 101010Z AUTO 00000KT 10SM CLR A3019 RMK A01,M
BVU,2024-08-10 10:15,-114.8611,35.9475,671.00,86.00,59.00,40.14,80.00,3.00,0.00,29.88,M,10.00,M,CLR,M,M,M,M,M,M,M,M,M,M,M,M,M,M,85.47,KBVU 101015Z AUTO 08003KT 10SM CLR 30/15 A2988 RMK AO2,M
CXP,2024-08-10 10:15,-119.7326,39.1923,1431.00,60.80,37.40,41.71,330.00,3.00,0.00,30.15,M,10.00,M,CLR,M,M,M,M,M,M,M,M,M,M,M,M,M,M,60.80,KCXP 101015Z AUTO 33003KT 10SM CLR 16/03 A3015 RMK AO2,M
RTS,2024-08-10 10:15,-119.8764,39.6682,1539.00,57.20,35.60,44.19,350.00,7.00,0.00,30.16,M,10.00,M,CLR,M,M,M,M,M,M,M,M,M,M,M,M,M,M,57.20,KRTS 101015Z AUTO 35007KT 10SM CLR 14/02 A3016 RMK AO2,M
MEV,2024-08-10 10:15,-119.7500,38.9963,1441.42,55.40,35.60,47.16,0.00,0.00,0.00,30.13,M,10.00,M,CLR,M,M,M,M,M,M,M,M,M,M,M,M,M,M,55.40,KMEV 101015Z AUTO 00000KT 10SM CLR 13/02 A3013 RMK AO2,M
BAM,2024-08-10 10:15,-116.8743,40.5990,1382.36,60.80,30.20,31.28,0.00,0.00,0.00,30.06,M,10.00,M,CLR,M,M,M,M,M,M,M,M,M,M,M,M,M,M,60.80,KBAM 101015Z AUTO 00000KT 10SM CLR 16/M01 A3006 RMK AO1,M
HTH,2024-08-10 10:15,-118.6315,38.5448,1282.89,71.60,42.80,35.37,80.00,4.00,0.00,30.09,M,10.00,M,CLR,M,M,M,M,M,M,M,M,M,M,M,M,M,M,71.60,KHTH 101015Z AUTO 08004KT 10SM CLR 22/06 A3009 RMK A01,M
10U,2024-08-10 10:15,-116.1876,41.9532,1637.00,59.00,32.00,35.87,150.00,8.00,0.00,30.09,M,10.00,M,CLR,M,M,M,M,M,M,M,M,M,M,M,M,M,M,59.00,K10U 101015Z AUTO 15008KT 10SM CLR 15/00 A3009 RMK AO2,M
TMT,2024-08-10 10:15,-117.1971,39.4643,1749.34,50.00,31.60,49.01,0.00,0.00,0.00,30.19,M,10.00,M,CLR,M,M,M,M,M,M,M,M,M,M,M,M,M,M,50.00,KTMT 101015Z AUTO 00000KT 10SM CLR 10/00 A3019 RMK AO2 T00991002,M
CXP,2024-08-10 10:30,-119.7326,39.1923,1431.00,60.80,37.40,41.71,0.00,0.00,0.00,30.15,M,10.00,M,CLR,M,M,M,M,M,M,M,M,M,M,M,M,M,M,60.80,KCXP 101030Z AUTO 00000KT 10SM CLR 16/03 A3015 RMK AO2,M
05U,2024-08-10 10:30,-116.0051,39.6042,1811.23,M,M,M,0.00,0.00,0.00,30.19,M,10.00,M,CLR,M,M,M,M,M,M,M,M,M,M,M,M,M,M,M,K05U 101030Z AUTO 00000KT 10SM CLR A3019 RMK A01,M
BVU,2024-08-10 10:35,-114.8611,35.9475,671.00,86.00,57.20,37.62,70.00,5.00,0.00,29.88,M,10.00,M,CLR,M,M,M,M,M,M,M,M,M,M,M,M,M,M,84.97,KBVU 101035Z AUTO 07005KT 10SM CLR 30/14 A2988 RMK AO2,M
RTS,2024-08-10 10:35,-119.8764,39.6682,1539.00,57.20,35.60,44.19,340.00,8.00,0.00,30.16,M,10.00,M,CLR,M,M,M,M,M,M,M,M,M,M,M,M,M,M,57.20,KRTS 101035Z AUTO 34008KT 10SM CLR 14/02 A3016 RMK AO2,M
MEV,2024-08-10 10:35,-119.7500,38.9963,1441.42,55.40,35.60,47.16,0.00,0.00,0.00,30.14,M,10.00,M,CLR,M,M,M,M,M,M,M,M,M,M,M,M,M,M,55.40,KMEV 101035Z AUTO 00000KT 10SM CLR 13/02 A3014 RMK AO2,M
BAM,2024-08-10 10:35,-116.8743,40.5990,1382.36,59.00,30.20,33.35,100.00,3.00,0.00,30.06,M,10.00,M,CLR,M,M,M,M,M,M,M,M,M,M,M,M,M,M,59.00,KBAM 101035Z AUTO 10003KT 10SM CLR 15/M01 A3006 RMK AO1,M
HTH,2024-08-10 10:35,-118.6315,38.5448,1282.89,73.40,44.60,35.66,0.00,0.00,0.00,30.09,M,10.00,M,CLR,M,M,M,M,M,M,M,M,M,M,M,M,M,M,73.40,KHTH 101035Z AUTO 00000KT 10SM CLR 23/07 A3009 RMK A01,M
TMT,2024-08-10 10:35,-117.1971,39.4643,1749.34,52.00,30.60,43.70,0.00,0.00,0.00,30.19,M,10.00,M,CLR,M,M,M,M,M,M,M,M,M,M,M,M,M,M,52.00,KTMT 101035Z AUTO 00000KT 10SM CLR 11/M01 A3019 RMK AO2 T01111008,M
10U,2024-08-10 10:35,-116.1876,41.9532,1637.00,62.60,33.80,33.93,150.00,9.00,0.00,30.08,M,10.00,M,CLR,M,M,M,M,M,M,M,M,M,M,M,M,M,M,62.60,K10U 101035Z AUTO 15009KT 10SM CLR 17/01 A3008 RMK AO2,M
RTS,2024-08-10 10:50,-119.8764,39.6682,1539.00,55.40,35.60,47.16,350.00,8.00,0.00,30.17,M,10.00,M,CLR,M,M,M,M,M,M,M,M,M,M,M,M,M,M,55.40,KRTS 101050Z AUTO 35008KT 10SM CLR 13/02 A3017 RMK AO2,M
05U,2024-08-10 10:50,-116.0051,39.6042,1811.23,M,M,M,0.00,0.00,0.00,30.19,M,10.00,10.00,CLR,M,M,M,M,M,M,M,M,M,M,M,M,M,M,M,K05U 101050Z AUTO 00000G10KT 10SM CLR A3019 RMK A01,M
MEV,2024-08-10 10:50,-119.7500,38.9963,1441.42,55.40,35.60,47.16,0.00,0.00,0.00,30.14,M,10.00,M,CLR,M,M,M,M,M,M,M,M,M,M,M,M,M,M,55.40,KMEV 101050Z AUTO 00000KT 10SM CLR 13/02 A3014 RMK AO2,M
P68,2024-08-10 10:53,-116.0056,39.6014,1993.00,60.00,37.00,42.24,200.00,9.00,0.00,30.16,1012.20,M,M,M,M,M,M,M,M,M,M,M,M,M,M,M,M,M,60.00,KP68 101053Z AUTO 20009KT 16/03 A3016 RMK AO1 SLP122 T01560028,M
DRA,2024-08-10 10:53,-116.0278,36.6206,1009.00,81.00,51.00,35.25,70.00,3.00,0.00,29.97,1008.60,10.00,M,CLR,M,M,M,M,M,M,M,M,M,M,M,M,M,M,80.22,KDRA 101053Z AUTO 07003KT 10SM CLR 27/11 A2997 RMK AO2 SLP086 T02720106,M
ELY,2024-08-10 10:53,-114.8453,39.2950,1909.00,58.00,43.00,57.30,120.00,4.00,0.00,30.22,1014.30,10.00,M,CLR,M,M,M,M,M,M,M,M,M,M,M,M,M,M,58.00,KELY 101053Z AUTO 12004KT 10SM CLR 14/06 A3022 RMK AO2 SLP143 T01440061,M
VGT,2024-08-10 10:53,-115.1933,36.2111,667.00,91.00,59.00,34.27,10.00,3.00,0.00,29.89,1010.30,10.00,M,CLR,M,M,M,M,M,M,M,M,M,M,M,M,M,M,90.27,KVGT 101053Z AUTO 01003KT 10SM CLR 33/15 A2989 RMK AO2 SLP103 T03280150,M
LOL,2024-08-10 10:53,-118.5701,40.0684,1192.43,62.00,36.00,37.83,0.00,0.00,0.00,30.05,1012.90,10.00,M,CLR,M,M,M,M,M,M,M,M,M,M,M,M,M,M,62.00,KLOL 101053Z AUTO 00000KT 10SM CLR 17/02 A3005 RMK AO2 SLP129 T01670022,M
BVU,2024-08-10 10:55,-114.8611,35.9475,671.00,86.00,57.20,37.62,50.00,5.00,0.00,29.88,M,10.00,M,CLR,M,M,M,M,M,M,M,M,M,M,M,M,M,M,84.97,KBVU 101055Z AUTO 05005KT 10SM CLR 30/14 A2988 RMK AO2,M
CXP,2024-08-10 10:55,-119.7326,39.1923,1431.00,57.20,37.40,47.44,0.00,0.00,0.00,30.15,M,10.00,M,CLR,M,M,M,M,M,M,M,M,M,M,M,M,M,M,57.20,KCXP 101055Z AUTO 00000KT 10SM CLR 14/03 A3015 RMK AO2,M
INS,2024-08-10 10:55,-115.6733,36.5872,955.00,84.60,51.40,31.84,90.00,3.00,0.00,29.96,1008.20,10.00,M,CLR,M,M,M,M,M,M,M,M,M,M,M,M,M,M,82.72,KINS 101055Z AUTO 09003KT 10SM CLR 29/11 A2996 RMK AO2 SLP082 T02920108,M
RNO,2024-08-10 10:55,-119.7711,39.4839,1341.00,66.00,38.00,35.58,170.00,5.00,0.00,30.12,1013.50,10.00,M,CLR,M,M,M,M,M,M,M,M,M,M,M,M,M,M,66.00,KRNO 101055Z 17005KT 10SM CLR 19/03 A3012 RMK AO2 SLP135 T01890033,M
LSV,2024-08-10 10:55,-115.0343,36.2362,570.00,88.70,59.00,36.84,70.00,8.00,0.00,29.83,1006.80,10.00,M,CLR,M,M,M,M,M,M,M,M,M,M,M,M,M,M,87.98,KLSV 101055Z AUTO 07008KT 10SM CLR 32/15 A2983 RMK AO2 SLP068 T03150150 $,M
BAM,2024-08-10 10:55,-116.8743,40.5990,1382.36,59.00,32.00,35.87,0.00,0.00,0.00,30.07,M,10.00,M,CLR,M,M,M,M,M,M,M,M,M,M,M,M,M,M,59.00,KBAM 101055Z AUTO 00000KT 10SM CLR 15/00 A3007 RMK AO1,M
HTH,2024-08-10 10:55,-118.6315,38.5448,1282.89,71.60,44.60,37.89,0.00,0.00,0.00,30.09,M,10.00,M,CLR,M,M,M,M,M,M,M,M,M,M,M,M,M,M,71.60,KHTH 101055Z AUTO 00000KT 10SM CLR 22/07 A3009 RMK A01,M
10U,2024-08-10 10:55,-116.1876,41.9532,1637.00,66.20,33.80,29.92,140.00,8.00,0.00,30.08,M,10.00,M,CLR,M,M,M,M,M,M,M,M,M,M,M,M,M,M,66.20,K10U 101055Z AUTO 14008KT 10SM CLR 19/01 A3008 RMK AO2,M
TMT,2024-08-10 10:55,-117.1971,39.4643,1749.34,47.30,29.00,48.78,100.00,3.00,0.00,30.19,M,10.00,M,CLR,M,M,M,M,M,M,M,M,M,M,M,M,M,M,46.18,KTMT 101055Z AUTO 10003KT 10SM CLR 09/M02 A3019 RMK AO2 T00851016,M
EKO,2024-08-10 10:56,-115.7860,40.8242,1367.00,55.00,31.00,39.80,240.00,3.00,0.00,30.10,1013.20,10.00,M,CLR,M,M,M,M,M,M,M,M,M,M,M,M,M,M,55.00,KEKO 101056Z AUTO 24003KT 10SM CLR 13/M01 A3010 RMK AO2 SLP132 T01281006,M
WMC,2024-08-10 10:56,-117.8072,40.9019,1315.00,68.00,37.00,31.92,140.00,3.00,0.00,30.05,1011.60,10.00,M,CLR,M,M,M,M,M,M,M,M,M,M,M,M,M,M,68.00,KWMC 101056Z AUTO 14003KT 10SM CLR 20/03 A3005 RMK AO2 SLP116 T02000028,M
HND,2024-08-10 10:56,-115.1344,35.9729,742.79,88.00,57.00,35.05,200.00,6.00,0.00,29.93,1011.40,10.00,M,CLR,M,M,M,M,M,M,M,M,M,M,M,M,M,M,86.71,KHND 101056Z AUTO 20006KT 10SM CLR 31/14 A2993 RMK AO2 SLP114 T03110139,M
TPH,2024-08-10 10:56,-117.0904,38.0505,1654.00,71.00,38.00,29.96,330.00,3.00,0.00,30.14,1010.90,10.00,M,CLR,M,M,M,M,M,M,M,M,M,M,M,M,M,M,71.00,KTPH 101056Z AUTO 33003KT 10SM CLR 22/03 A3014 RMK AO2 SLP109 T02170033,M
LAS,2024-08-10 10:56,-115.1634,36.0719,663.00,92.00,57.00,30.91,260.00,5.00,0.00,29.90,1008.90,10.00,M,CLR,M,M,M,M,M,M,M,M,M,M,M,M,M,M,90.60,KLAS 101056Z 26005KT 10SM CLR 33/14 A2990 RMK AO2 SLP089 T03330139,M
05U,2024-08-10 11:10,-116.0051,39.6042,1811.23,M,M,M,190.00,9.00,0.00,30.19,M,10.00,M,CLR,M,M,M,M,M,M,M,M,M,M,M,M,M,M,M,K05U 101110Z AUTO 19009KT 10SM CLR A3019 RMK A01,M
BVU,2024-08-10 11:15,-114.8611,35.9475,671.00,86.00,57.20,37.62,80.00,5.00,0.00,29.88,M,10.00,M,CLR,M,M,M,M,M,M,M,M,M,M,M,M,M,M,84.97,KBVU 101115Z AUTO 08005KT 10SM CLR 30/14 A2988 RMK AO2,M
CXP,2024-08-10 11:15,-119.7326,39.1923,1431.00,59.00,39.20,47.72,0.00,0.00,0.00,30.16,M,10.00,M,CLR,M,M,M,M,M,M,M,M,M,M,M,M,M,M,59.00,KCXP 101115Z AUTO 00000KT 10SM CLR 15/04 A3016 RMK AO2,M
RTS,2024-08-10 11:15,-119.8764,39.6682,1539.00,57.20,35.60,44.19,350.00,8.00,0.00,30.17,M,10.00,M,CLR,M,M,M,M,M,M,M,M,M,M,M,M,M,M,57.20,KRTS 101115Z AUTO 35008KT 10SM CLR 14/02 A3017 RMK AO2,M
MEV,2024-08-10 11:15,-119.7500,38.9963,1441.42,55.40,35.60,47.16,0.00,0.00,0.00,30.14,M,10.00,M,CLR,M,M,M,M,M,M,M,M,M,M,M,M,M,M,55.40,KMEV 101115Z AUTO 00000KT 10SM CLR 13/02 A3014 RMK AO2,M
BAM,2024-08-10 11:15,-116.8743,40.5990,1382.36,62.60,32.00,31.56,0.00,0.00,0.00,30.07,M,10.00,M,CLR,M,M,M,M,M,M,M,M,M,M,M,M,M,M,62.60,KBAM 101115Z AUTO 00000KT 10SM CLR 17/00 A3007 RMK AO1,M
HTH,2024-08-10 11:15,-118.6315,38.5448,1282.89,71.60,46.40,40.57,0.00,0.00,0.00,30.10,M,10.00,M,CLR,M,M,M,M,M,M,M,M,M,M,M,M,M,M,71.60,KHTH 101115Z AUTO 00000KT 10SM CLR 22/08 A3010 RMK A01,M
10U,2024-08-10 11:15,-116.1876,41.9532,1637.00,64.40,33.80,31.85,160.00,6.00,0.00,30.09,M,10.00,M,CLR,M,M,M,M,M,M,M,M,M,M,M,M,M,M,64.40,K10U 101115Z AUTO 16006KT 10SM CLR 18/01 A3009 RMK AO2,M
TMT,2024-08-10 11:15,-117.1971,39.4643,1749.34,47.30,31.60,54.22,340.00,5.00,0.00,30.19,M,10.00,M,CLR,M,M,M,M,M,M,M,M,M,M,M,M,M,M,44.57,KTMT 101115Z AUTO 34005KT 10SM CLR 09/00 A3019 RMK AO2 T00851002,M
05U,2024-08-10 11:30,-116.0051,39.6042,1811.23,M,M,M,0.00,0.00,0.00,30.19,M,10.00,M,CLR,M,M,M,M,M,M,M,M,M,M,M,M,M,M,M,K05U 101130Z AUTO 00000KT 10SM CLR A3019 RMK A01,M
BVU,2024-08-10 11:35,-114.8611,35.9475,671.00,84.20,57.20,39.86,50.00,5.00,0.00,29.89,M,10.00,M,CLR,M,M,M,M,M,M,M,M,M,M,M,M,M,M,83.47,KBVU 101135Z AUTO 05005KT 10SM CLR 29/14 A2989 RMK AO2,M
CXP,2024-08-10 11:35,-119.7326,39.1923,1431.00,57.20,37.40,47.44,0.00,0.00,0.00,30.16,M,10.00,M,CLR,M,M,M,M,M,M,M,M,M,M,M,M,M,M,57.20,KCXP 101135Z AUTO 00000KT 10SM CLR 14/03 A3016 RMK AO2,M
RTS,2024-08-10 11:35,-119.8764,39.6682,1539.00,57.20,35.60,44.19,360.00,9.00,0.00,30.17,M,10.00,M,CLR,M,M,M,M,M,M,M,M,M,M,M,M,M,M,57.20,KRTS 101135Z AUTO 36009KT 10SM CLR 14/02 A3017 RMK AO2,M
MEV,2024-08-10 11:35,-119.7500,38.9963,1441.42,53.60,37.40,54.07,0.00,0.00,0.00,30.14,M,10.00,M,CLR,M,M,M,M,M,M,M,M,M,M,M,M,M,M,53.60,KMEV 101135Z AUTO 00000KT 10SM CLR 12/03 A3014 RMK AO2,M
HTH,2024-08-10 11:35,-118.6315,38.5448,1282.89,71.60,46.40,40.57,0.00,0.00,0.00,30.10,M,10.00,M,CLR,M,M,M,M,M,M,M,M,M,M,M,M,M,M,71.60,KHTH 101135Z AUTO 00000KT 10SM CLR 22/08 A3010 RMK A01,M
10U,2024-08-10 11:35,-116.1876,41.9532,1637.00,59.00,32.00,35.87,180.00,8.00,0.00,30.10,M,10.00,M,CLR,M,M,M,M,M,M,M,M,M,M,M,M,M,M,59.00,K10U 101135Z AUTO 18008KT 10SM CLR 15/M00 A3010 RMK AO2,M
BAM,2024-08-10 11:35,-116.8743,40.5990,1382.36,59.00,32.00,35.87,130.00,4.00,0.00,30.07,M,10.00,M,CLR,M,M,M,M,M,M,M,M,M,M,M,M,M,M,59.00,KBAM 101135Z AUTO 13004KT 10SM CLR 15/00 A3007 RMK AO1,M
TMT,2024-08-10 11:35,-117.1971,39.4643,1749.34,49.60,30.70,47.96,0.00,0.00,0.00,30.19,M,10.00,M,CLR,M,M,M,M,M,M,M,M,M,M,M,M,M,M,49.60,KTMT 101135Z AUTO 00000KT 10SM CLR 10/M01 A3019 RMK AO2 T00981007,M
05U,2024-08-10 11:50,-116.0051,39.6042,1811.23,M,M,M,200.00,7.00,0.00,30.19,M,10.00,M,CLR,M,M,M,M,M,M,M,M,M,M,M,M,M,M,M,K05U 101150Z AUTO 20007KT 10SM CLR A3019 RMK A01,M
P68,2024-08-10 11:53,-116.0056,39.6014,1993.00,58.00,39.00,49.08,200.00,9.00,0.00,30.17,1012.90,M,M,M,M,M,M,M,M,M,M,M,M,M,M,M,M,M,58.00,KP68 101153Z AUTO 20009KT 14/04 A3017 RMK AO1 SLP129 70001 T01440039 10189 20133 53001,M
DRA,2024-08-10 11:53,-116.0278,36.6206,1009.00,81.00,51.00,35.25,M,4.00,0.00,29.97,1008.90,10.00,M,CLR,M,M,M,M,M,M,M,M,M,M,M,M,M,M,80.22,KDRA 101153Z AUTO VRB04KT 10SM CLR 27/11 A2997 RMK AO2 SLP089 T02720106 10333 20261 53004,M
ELY,2024-08-10 11:53,-114.8453,39.2950,1909.00,57.00,41.00,54.99,160.00,9.00,0.00,30.22,1013.20,10.00,M,CLR,M,M,M,M,M,M,M,M,M,M,M,M,M,M,57.00,KELY 101153Z AUTO 16009KT 10SM CLR 14/05 A3022 RMK AO2 SLP132 T01390050 10172 20111 55001,M
VGT,2024-08-10 11:53,-115.1933,36.2111,667.00,89.00,59.00,36.49,310.00,3.00,0.00,29.89,1010.60,10.00,M,CLR,M,M,M,M,M,M,M,M,M,M,M,M,M,M,88.27,KVGT 101153Z AUTO 31003KT 10SM CLR 32/15 A2989 RMK AO2 SLP106 T03170150 10361 20317 53004,M
LOL,2024-08-10 11:53,-118.5701,40.0684,1192.43,57.00,35.00,43.46,130.00,3.00,0.00,30.05,1013.30,10.00,M,CLR,M,M,M,M,M,M,M,M,M,M,M,M,M,M,57.00,KLOL 101153Z AUTO 13003KT 10SM CLR 14/02 A3005 RMK AO2 SLP133 T01390017 10283 20128 51004,M
BVU,2024-08-10 11:55,-114.8611,35.9475,671.00,84.20,57.20,39.86,50.00,5.00,0.00,29.89,M,10.00,M,CLR,M,M,M,M,M,M,M,M,M,M,M,M,M,M,83.47,KBVU 101155Z AUTO 05005KT 10SM CLR 29/14 A2989 RMK AO2,M
CXP,2024-08-10 11:55,-119.7326,39.1923,1431.00,57.20,37.40,47.44,0.00,0.00,0.00,30.15,M,10.00,M,CLR,M,M,M,M,M,M,M,M,M,M,M,M,M,M,57.20,KCXP 101155Z AUTO 00000KT 10SM CLR 14/03 A3015 RMK AO2,M
INS,2024-08-10 11:55,-115.6733,36.5872,955.00,81.70,50.00,33.20,90.00,4.00,0.00,29.96,1008.20,10.00,M,CLR,M,M,M,M,M,M,M,M,M,M,M,M,M,M,80.54,KINS 101155Z AUTO 09004KT 10SM CLR 28/10 A2996 RMK AO2 SLP082 T02760099 10340 20276 51004,M
RNO,2024-08-10 11:55,-119.7711,39.4839,1341.00,66.00,40.00,38.47,0.00,0.00,0.00,30.12,1013.60,10.00,M,CLR,M,M,M,M,M,M,M,M,M,M,M,M,M,M,66.00,KRNO 101155Z 00000KT 10SM CLR 19/04 A3012 RMK AO2 SLP136 T01890044 10267 20178 53004,M
RTS,2024-08-10 11:55,-119.8764,39.6682,1539.00,57.20,35.60,44.19,350.00,6.00,0.00,30.17,M,10.00,M,CLR,M,M,M,M,M,M,M,M,M,M,M,M,M,M,57.20,KRTS 101155Z AUTO 35006KT 10SM CLR 14/02 A3017 RMK AO2,M
MEV,2024-08-10 11:55,-119.7500,38.9963,1441.42,50.00,35.60,57.52,0.00,0.00,0.00,30.14,M,10.00,M,CLR,M,M,M,M,M,M,M,M,M,M,M,M,M,M,50.00,KMEV 101155Z AUTO 00000KT 10SM CLR 10/02 A3014 RMK AO2,M
BAM,2024-08-10 11:55,-116.8743,40.5990,1382.36,59.00,32.00,35.87,150.00,3.00,0.00,30.08,M,10.00,M,CLR,M,M,M,M,M,M,M,M,M,M,M,M,M,M,59.00,KBAM 101155Z AUTO 15003KT 10SM CLR 15/00 A3008 RMK AO1,M
HTH,2024-08-10 11:55,-118.6315,38.5448,1282.89,68.00,46.40,45.88,0.00,0.00,0.00,30.10,M,10.00,M,CLR,M,M,M,M,M,M,M,M,M,M,M,M,M,M,68.00,KHTH 101155Z AUTO 00000KT 10SM CLR 20/08 A3010 RMK A01,M
10U,2024-08-10 11:55,-116.1876,41.9532,1637.00,57.20,30.20,35.57,180.00,6.00,0.00,30.10,M,10.00,M,CLR,M,M,M,M,M,M,M,M,M,M,M,M,M,M,57.20,K10U 101155Z AUTO 18006KT 10SM CLR 14/M01 A3010 RMK AO2,M
TMT,2024-08-10 11:55,-117.1971,39.4643,1749.34,48.60,29.50,47.42,0.00,0.00,0.00,30.20,M,10.00,M,SCT,M,M,M,12000.00,M,M,M,M,M,M,M,M,M,M,48.60,KTMT 101155Z AUTO 00000KT 10SM SCT120 09/M01 A3020 RMK AO2 T00921014 10157 20083,M
LSV,2024-08-10 11:55,-115.0343,36.2362,570.00,87.60,58.00,36.80,60.00,5.00,0.00,29.84,1007.20,10.00,M,CLR,M,M,M,M,M,M,M,M,M,M,M,M,M,M,86.62,KLSV 101155Z AUTO 06005KT 10SM CLR 31/15 A2984 RMK AO2 SLP072 T03090145 10361 20309 51005 $,M
EKO,2024-08-10 11:56,-115.7860,40.8242,1367.00,56.00,30.00,36.85,100.00,6.00,0.00,30.10,1013.20,10.00,M,CLR,M,M,M,M,M,M,M,M,M,M,M,M,M,M,56.00,KEKO 101156Z AUTO 10006KT 10SM CLR 13/M01 A3010 RMK AO2 SLP132 T01331011 10206 20111 51005,M
WMC,2024-08-10 11:56,-117.8072,40.9019,1315.00,68.00,38.00,33.20,10.00,5.00,0.00,30.06,1011.80,10.00,M,CLR,M,M,M,M,M,M,M,M,M,M,M,M,M,M,68.00,KWMC 101156Z AUTO 01005KT 10SM CLR 20/03 A3006 RMK AO2 SLP118 T02000033 10278 20200 51007,M
HND,2024-08-10 11:56,-115.1344,35.9729,742.79,86.00,57.00,37.35,190.00,3.00,0.00,29.94,1011.90,10.00,M,CLR,M,M,M,M,M,M,M,M,M,M,M,M,M,M,84.92,KHND 101156Z AUTO 19003KT 10SM CLR 30/14 A2994 RMK AO2 SLP119 T03000139 10350 20300 53005,M
TPH,2024-08-10 11:56,-117.0904,38.0505,1654.00,72.00,34.00,24.72,M,4.00,0.00,30.15,1011.20,10.00,M,CLR,M,M,M,M,M,M,M,M,M,M,M,M,M,M,72.00,KTPH 101156Z AUTO VRB04KT 10SM CLR 22/01 A3015 RMK AO2 SLP112 T02220011 10283 20200 53005,M
LAS,2024-08-10 11:56,-115.1634,36.0719,663.00,90.00,58.00,34.11,300.00,3.00,0.00,29.91,1009.40,10.00,M,FEW,M,M,M,15000.00,M,M,M,M,M,M,M,M,M,M,88.92,KLAS 101156Z 30003KT 10SM FEW150 32/14 A2991 RMK AO2 SLP094 T03220144 10367 20322 53005,M
05U,2024-08-10 12:10,-116.0051,39.6042,1811.23,M,M,M,0.00,0.00,0.00,30.20,M,10.00,M,CLR,M,M,M,M,M,M,M,M,M,M,M,M,M,M,M,K05U 101210Z AUTO 00000KT 10SM CLR A3020 RMK A01,M
BVU,2024-08-10 12:15,-114.8611,35.9475,671.00,86.00,57.20,37.62,60.00,5.00,0.00,29.89,M,10.00,M,CLR,M,M,M,M,M,M,M,M,M,M,M,M,M,M,84.97,KBVU 101215Z AUTO 06005KT 10SM CLR 30/14 A2989 RMK AO2,M
CXP,2024-08-10 12:15,-119.7326,39.1923,1431.00,57.20,37.40,47.44,0.00,0.00,0.00,30.16,M,10.00,M,CLR,M,M,M,M,M,M,M,M,M,M,M,M,M,M,57.20,KCXP 101215Z AUTO 00000KT 10SM CLR 14/03 A3016 RMK AO2,M
RTS,2024-08-10 12:15,-119.8764,39.6682,1539.00,55.40,35.60,47.16,360.00,5.00,0.00,30.17,M,10.00,M,CLR,M,M,M,M,M,M,M,M,M,M,M,M,M,M,55.40,KRTS 101215Z AUTO 36005KT 10SM CLR 13/02 A3017 RMK AO2,M
MEV,2024-08-10 12:15,-119.7500,38.9963,1441.42,46.40,33.80,61.28,0.00,0.00,0.00,30.15,M,10.00,M,CLR,M,M,M,M,M,M,M,M,M,M,M,M,M,M,46.40,KMEV 101215Z AUTO 00000KT 10SM CLR 08/01 A3015 RMK AO2,M
BAM,2024-08-10 12:15,-116.8743,40.5990,1382.36,59.00,32.00,35.87,50.00,3.00,0.00,30.08,M,10.00,M,CLR,M,M,M,M,M,M,M,M,M,M,M,M,M,M,59.00,KBAM 101215Z AUTO 05003KT 10SM CLR 15/00 A3008 RMK AO1,M
HTH,2024-08-10 12:15,-118.6315,38.5448,1282.89,68.00,46.40,45.88,190.00,3.00,0.00,30.10,M,10.00,M,CLR,M,M,M,M,M,M,M,M,M,M,M,M,M,M,68.00,KHTH 101215Z AUTO 19003KT 10SM CLR 20/08 A3010 RMK A01,M
10U,2024-08-10 12:15,-116.1876,41.9532,1637.00,55.40,30.20,37.97,150.00,6.00,0.00,30.10,M,10.00,M,CLR,M,M,M,M,M,M,M,M,M,M,M,M,M,M,55.40,K10U 101215Z AUTO 15006KT 10SM CLR 13/M01 A3010 RMK AO2,M
TMT,2024-08-10 12:15,-117.1971,39.4643,1749.34,44.00,28.00,53.07,130.00,3.00,0.00,30.21,M,10.00,M,BKN,M,M,M,12000.00,M,M,M,M,M,M,M,M,M,M,42.41,KTMT 101215Z AUTO 13003KT 10SM BKN120 07/M02 A3021 RMK AO2 T00661022,M
05U,2024-08-10 12:30,-116.0051,39.6042,1811.23,M,M,M,0.00,0.00,0.00,30.20,M,10.00,M,CLR,M,M,M,M,M,M,M,M,M,M,M,M,M,M,M,K05U 101230Z AUTO 00000KT 10SM CLR A3020 RMK A01,M
BVU,2024-08-10 12:35,-114.8611,35.9475,671.00,84.20,59.00,42.52,30.00,5.00,0.00,29.90,M,10.00,M,CLR,M,M,M,M,M,M,M,M,M,M,M,M,M,M,83.92,KBVU 101235Z AUTO 03005KT 10SM CLR 29/15 A2990 RMK AO2,M
CXP,2024-08-10 12:35,-119.7326,39.1923,1431.00,57.20,37.40,47.44,0.00,0.00,0.00,30.16,M,10.00,M,CLR,M,M,M,M,M,M,M,M,M,M,M,M,M,M,57.20,KCXP 101235Z AUTO 00000KT 10SM CLR 14/03 A3016 RMK AO2,M
RTS,2024-08-10 12:35,-119.8764,39.6682,1539.00,55.40,35.60,47.16,350.00,4.00,0.00,30.18,M,10.00,M,CLR,M,M,M,M,M,M,M,M,M,M,M,M,M,M,55.40,KRTS 101235Z AUTO 35004KT 10SM CLR 13/02 A3018 RMK AO2,M
MEV,2024-08-10 12:35,-119.7500,38.9963,1441.42,50.00,37.40,61.76,0.00,0.00,0.00,30.14,M,10.00,M,CLR,M,M,M,M,M,M,M,M,M,M,M,M,M,M,50.00,KMEV 101235Z AUTO 00000KT 10SM CLR 10/03 A3014 RMK AO2,M
BAM,2024-08-10 12:35,-116.8743,40.5990,1382.36,59.00,32.00,35.87,0.00,0.00,0.00,30.08,M,10.00,M,CLR,M,M,M,M,M,M,M,M,M,M,M,M,M,M,59.00,KBAM 101235Z AUTO 00000KT 10SM CLR 15/00 A3008 RMK AO1,M
HTH,2024-08-10 12:35,-118.6315,38.5448,1282.89,68.00,42.80,40.00,200.00,5.00,0.00,30.11,M,10.00,M,CLR,M,M,M,M,M,M,M,M,M,M,M,M,M,M,68.00,KHTH 101235Z AUTO 20005KT 10SM CLR 20/06 A3011 RMK A01,M
10U,2024-08-10 12:35,-116.1876,41.9532,1637.00,55.40,32.00,40.84,120.00,6.00,0.00,30.11,M,10.00,M,CLR,M,M,M,M,M,M,M,M,M,M,M,M,M,M,55.40,K10U 101235Z AUTO 12006KT 10SM CLR 13/M00 A3011 RMK AO2,M
TMT,2024-08-10 12:35,-117.1971,39.4643,1749.34,46.00,28.60,50.40,0.00,0.00,0.00,30.22,M,10.00,M,SCT,M,M,M,12000.00,M,M,M,M,M,M,M,M,M,M,46.00,KTMT 101235Z AUTO 00000KT 10SM SCT120 08/M02 A3022 RMK AO2 T00781019,M
05U,2024-08-10 12:50,-116.0051,39.6042,1811.23,M,M,M,0.00,0.00,0.00,30.22,M,10.00,M,CLR,M,M,M,M,M,M,M,M,M,M,M,M,M,M,M,K05U 101250Z AUTO 00000KT 10SM CLR A3022 RMK A01,M
P68,2024-08-10 12:53,-116.0056,39.6014,1993.00,57.00,38.00,48.93,190.00,6.00,0.00,30.19,1014.00,M,M,M,M,M,M,M,M,M,M,M,M,M,M,M,M,M,57.00,KP68 101253Z AUTO 19006KT 14/03 A3019 RMK AO1 SLP140 T01390033,M
DRA,2024-08-10 12:53,-116.0278,36.6206,1009.00,78.00,51.00,38.90,110.00,4.00,0.00,29.99,1009.60,10.00,M,CLR,M,M,M,M,M,M,M,M,M,M,M,M,M,M,78.00,KDRA 101253Z AUTO 11004KT 10SM CLR 26/11 A2999 RMK AO2 SLP096 T02560106,M
ELY,2024-08-10 12:53,-114.8453,39.2950,1909.00,56.00,42.00,59.26,130.00,3.00,0.00,30.23,1014.00,10.00,M,CLR,M,M,M,M,M,M,M,M,M,M,M,M,M,M,56.00,KELY 101253Z AUTO 13003KT 10SM CLR 13/06 A3023 RMK AO2 SLP140 T01330056,M
VGT,2024-08-10 12:53,-115.1933,36.2111,667.00,89.00,58.00,35.20,0.00,0.00,0.00,29.91,1011.10,10.00,M,CLR,M,M,M,M,M,M,M,M,M,M,M,M,M,M,87.94,KVGT 101253Z 00000KT 10SM CLR 32/14 A2991 RMK AO2 SLP111 T03170144,M
LOL,2024-08-10 12:53,-118.5701,40.0684,1192.43,58.00,37.00,45.38,0.00,0.00,0.00,30.07,1013.90,10.00,M,CLR,M,M,M,M,M,M,M,M,M,M,M,M,M,M,58.00,KLOL 101253Z AUTO 00000KT 10SM CLR 14/03 A3007 RMK AO2 SLP139 T01440028,M
BVU,2024-08-10 12:55,-114.8611,35.9475,671.00,87.80,57.20,35.53,60.00,5.00,0.00,29.90,M,10.00,M,CLR,M,M,M,M,M,M,M,M,M,M,M,M,M,M,86.58,KBVU 101255Z AUTO 06005KT 10SM CLR 31/14 A2990 RMK AO2,M
CXP,2024-08-10 12:55,-119.7326,39.1923,1431.00,55.40,41.00,58.27,0.00,0.00,0.00,30.17,M,10.00,M,CLR,M,M,M,M,M,M,M,M,M,M,M,M,M,M,55.40,KCXP 101255Z AUTO 00000KT 10SM CLR 13/05 A3017 RMK AO2,M
INS,2024-08-10 12:55,-115.6733,36.5872,955.00,81.00,50.00,33.97,260.00,3.00,0.00,29.98,1009.00,10.00,M,CLR,M,M,M,M,M,M,M,M,M,M,M,M,M,M,80.12,KINS 101255Z AUTO 26003KT 10SM CLR 27/10 A2998 RMK AO2 SLP090 T02720100,M
RNO,2024-08-10 12:55,-119.7711,39.4839,1341.00,64.00,40.00,41.25,0.00,0.00,0.00,30.14,1014.40,10.00,M,FEW,M,M,M,18000.00,M,M,M,M,M,M,M,M,M,M,64.00,KRNO 101255Z 00000KT 10SM FEW180 18/04 A3014 RMK AO2 SLP144 T01780044,M
RTS,2024-08-10 12:55,-119.8764,39.6682,1539.00,59.00,37.40,44.47,20.00,3.00,0.00,30.18,M,10.00,M,CLR,M,M,M,M,M,M,M,M,M,M,M,M,M,M,59.00,KRTS 101255Z AUTO 02003KT 10SM CLR 15/03 A3018 RMK AO2,M
MEV,2024-08-10 12:55,-119.7500,38.9963,1441.42,48.20,33.80,57.26,0.00,0.00,0.00,30.15,M,10.00,M,CLR,M,M,M,M,M,M,M,M,M,M,M,M,M,M,48.20,KMEV 101255Z AUTO 00000KT 10SM CLR 09/01 A3015 RMK AO2,M
BAM,2024-08-10 12:55,-116.8743,40.5990,1382.36,55.40,33.80,43.90,80.00,6.00,0.00,30.09,M,10.00,M,CLR,M,M,M,M,M,M,M,M,M,M,M,M,M,M,55.40,KBAM 101255Z AUTO 08006KT 10SM CLR 13/01 A3009 RMK AO1,M
HTH,2024-08-10 12:55,-118.6315,38.5448,1282.89,68.00,41.00,37.32,220.00,6.00,0.00,30.11,M,10.00,M,CLR,M,M,M,M,M,M,M,M,M,M,M,M,M,M,68.00,KHTH 101255Z AUTO 22006KT 10SM CLR 20/05 A3011 RMK A01,M
10U,2024-08-10 12:55,-116.1876,41.9532,1637.00,55.40,32.00,40.84,140.00,5.00,0.00,30.12,M,10.00,M,CLR,M,M,M,M,M,M,M,M,M,M,M,M,M,M,55.40,K10U 101255Z AUTO 14005KT 10SM CLR 13/00 A3012 RMK AO2,M
TMT,2024-08-10 12:55,-117.1971,39.4643,1749.34,48.70,29.30,46.86,0.00,0.00,0.00,30.22,M,10.00,M,CLR,M,M,M,M,M,M,M,M,M,M,M,M,M,M,48.70,KTMT 101255Z AUTO 00000KT 10SM CLR 09/M01 A3022 RMK AO2 T00931015,M
LSV,2024-08-10 12:55,-115.0343,36.2362,570.00,87.30,57.70,36.75,30.00,6.00,0.00,29.86,1007.90,10.00,M,CLR,M,M,M,M,M,M,M,M,M,M,M,M,M,M,86.26,KLSV 101255Z AUTO 03006KT 10SM CLR 31/14 A2986 RMK AO2 SLP079 T03070143 $,M
EKO,2024-08-10 12:56,-115.7860,40.8242,1367.00,55.00,31.00,39.80,70.00,3.00,0.00,30.13,1014.30,10.00,M,CLR,M,M,M,M,M,M,M,M,M,M,M,M,M,M,55.00,KEKO 101256Z AUTO 07003KT 10SM CLR 13/M01 A3013 RMK AO2 SLP143 T01281006,M
WMC,2024-08-10 12:56,-117.8072,40.9019,1315.00,63.00,38.00,39.51,130.00,5.00,0.00,30.07,1012.50,10.00,M,CLR,M,M,M,M,M,M,M,M,M,M,M,M,M,M,63.00,KWMC 101256Z AUTO 13005KT 10SM CLR 17/03 A3007 RMK AO2 SLP125 T01720033,M
HND,2024-08-10 12:56,-115.1344,35.9729,742.79,84.00,57.00,39.83,190.00,5.00,0.00,29.96,1012.50,10.00,M,CLR,M,M,M,M,M,M,M,M,M,M,M,M,M,M,83.26,KHND 101256Z 19005KT 10SM CLR 29/14 A2996 RMK AO2 SLP125 T02890139,M
TPH,2024-08-10 12:56,-117.0904,38.0505,1654.00,73.00,34.00,23.90,80.00,3.00,0.00,30.17,1012.00,10.00,M,CLR,M,M,M,M,M,M,M,M,M,M,M,M,M,M,73.00,KTPH 101256Z AUTO 08003KT 10SM CLR 23/01 A3017 RMK AO2 SLP120 T02280011,M
LAS,2024-08-10 12:56,-115.1634,36.0719,663.00,90.00,58.00,34.11,260.00,3.00,0.00,29.92,1009.90,10.00,M,FEW,FEW,M,M,12000.00,20000.00,M,M,M,M,M,M,M,M,M,88.92,KLAS 101256Z 26003KT 10SM FEW120 FEW200 32/14 A2992 RMK AO2 SLP099 T03220144,M
05U,2024-08-10 13:10,-116.0051,39.6042,1811.23,M,M,M,0.00,0.00,0.00,30.22,M,10.00,M,CLR,M,M,M,M,M,M,M,M,M,M,M,M,M,M,M,K05U 101310Z AUTO 00000KT 10SM CLR A3022 RMK A01,M
BVU,2024-08-10 13:15,-114.8611,35.9475,671.00,82.40,60.80,48.05,40.00,4.00,0.00,29.91,M,10.00,M,CLR,M,M,M,M,M,M,M,M,M,M,M,M,M,M,82.90,KBVU 101315Z AUTO 04004KT 10SM CLR 28/16 A2991 RMK AO2,M
CXP,2024-08-10 13:15,-119.7326,39.1923,1431.00,55.40,39.20,54.34,0.00,0.00,0.00,30.17,M,10.00,M,CLR,M,M,M,M,M,M,M,M,M,M,M,M,M,M,55.40,KCXP 101315Z AUTO 00000KT 10SM CLR 13/04 A3017 RMK AO2,M
RTS,2024-08-10 13:15,-119.8764,39.6682,1539.00,62.60,37.40,39.14,340.00,3.00,0.00,30.18,M,10.00,M,CLR,M,M,M,M,M,M,M,M,M,M,M,M,M,M,62.60,KRTS 101315Z AUTO 34003KT 10SM CLR 17/03 A3018 RMK AO2,M
MEV,2024-08-10 13:15,-119.7500,38.9963,1441.42,46.40,35.60,65.83,120.00,4.00,0.00,30.16,M,10.00,M,CLR,M,M,M,M,M,M,M,M,M,M,M,M,M,M,44.24,KMEV 101315Z AUTO 12004KT 10SM CLR 08/02 A3016 RMK AO2,M
HTH,2024-08-10 13:15,-118.6315,38.5448,1282.89,68.00,42.80,40.00,220.00,4.00,0.00,30.12,M,10.00,M,CLR,M,M,M,M,M,M,M,M,M,M,M,M,M,M,68.00,KHTH 101315Z AUTO 22004KT 10SM CLR 20/06 A3012 RMK A01,M
10U,2024-08-10 13:15,-116.1876,41.9532,1637.00,53.60,33.80,46.88,160.00,5.00,0.00,30.12,M,10.00,M,CLR,M,M,M,M,M,M,M,M,M,M,M,M,M,M,53.60,K10U 101315Z AUTO 16005KT 10SM CLR 12/01 A3012 RMK AO2,M
BAM,2024-08-10 13:15,-116.8743,40.5990,1382.36,57.20,33.80,41.13,80.00,4.00,0.00,30.10,M,10.00,M,CLR,M,M,M,M,M,M,M,M,M,M,M,M,M,M,57.20,KBAM 101315Z AUTO 08004KT 10SM CLR 14/01 A3010 RMK AO1,M
TMT,2024-08-10 13:15,-117.1971,39.4643,1749.34,47.70,30.00,50.05,0.00,0.00,0.00,30.22,M,10.00,M,CLR,M,M,M,M,M,M,M,M,M,M,M,M,M,M,47.70,KTMT 101315Z AUTO 00000KT 10SM CLR 09/M01 A3022 RMK AO2 T00871011,M
05U,2024-08-10 13:30,-116.0051,39.6042,1811.23,M,M,M,0.00,0.00,0.00,30.22,M,10.00,M,CLR,M,M,M,M,M,M,M,M,M,M,M,M,M,M,M,K05U 101330Z AUTO 00000KT 10SM CLR A3022 RMK A01,M
BVU,2024-08-10 13:35,-114.8611,35.9475,671.00,84.20,59.00,42.52,50.00,5.00,0.00,29.91,M,10.00,M,CLR,M,M,M,M,M,M,M,M,M,M,M,M,M,M,83.92,KBVU 101335Z AUTO 05005KT 10SM CLR 29/15 A2991 RMK AO2,M
CXP,2024-08-10 13:35,-119.7326,39.1923,1431.00,55.40,39.20,54.34,0.00,0.00,0.00,30.17,M,10.00,M,CLR,M,M,M,M,M,M,M,M,M,M,M,M,M,M,55.40,KCXP 101335Z AUTO 00000KT 10SM CLR 13/04 A3017 RMK AO2,M
RTS,2024-08-10 13:35,-119.8764,39.6682,1539.00,55.40,35.60,47.16,0.00,0.00,0.00,30.19,M,10.00,M,CLR,M,M,M,M,M,M,M,M,M,M,M,M,M,M,55.40,KRTS 101335Z AUTO 00000KT 10SM CLR 13/02 A3019 RMK AO2,M
MEV,2024-08-10 13:35,-119.7500,38.9963,1441.42,50.00,37.40,61.76,M,4.00,0.00,30.16,M,10.00,M,CLR,M,M,M,M,M,M,M,M,M,M,M,M,M,M,50.00,KMEV 101335Z AUTO VRB04KT 10SM CLR 10/03 A3016 RMK AO2,M
BAM,2024-08-10 13:35,-116.8743,40.5990,1382.36,59.00,33.80,38.56,100.00,4.00,0.00,30.11,M,10.00,M,CLR,M,M,M,M,M,M,M,M,M,M,M,M,M,M,59.00,KBAM 101335Z AUTO 10004KT 10SM CLR 15/01 A3011 RMK AO1,M
HTH,2024-08-10 13:35,-118.6315,38.5448,1282.89,68.00,42.80,40.00,220.00,5.00,0.00,30.12,M,10.00,M,CLR,M,M,M,M,M,M,M,M,M,M,M,M,M,M,68.00,KHTH 101335Z AUTO 22005KT 10SM CLR 20/06 A3012 RMK A01,M
10U,2024-08-10 13:35,-116.1876,41.9532,1637.00,55.40,33.80,43.90,160.00,4.00,0.00,30.13,M,10.00,M,CLR,M,M,M,M,M,M,M,M,M,M,M,M,M,M,55.40,K10U 101335Z AUTO 16004KT 10SM CLR 13/01 A3013 RMK AO2,M
TMT,2024-08-10 13:35,-117.1971,39.4643,1749.34,48.00,31.30,52.17,0.00,0.00,0.00,30.22,M,10.00,M,CLR,M,M,M,M,M,M,M,M,M,M,M,M,M,M,48.00,KTMT 101335Z AUTO 00000KT 10SM CLR 09/00 A3022 RMK AO2 T00881004,M
05U,2024-08-10 13:50,-116.0051,39.6042,1811.23,M,M,M,0.00,0.00,0.00,30.22,M,10.00,M,CLR,M,M,M,M,M,M,M,M,M,M,M,M,M,M,M,K05U 101350Z AUTO 00000KT 10SM CLR A3022 RMK A01,M
P68,2024-08-10 13:53,-116.0056,39.6014,1993.00,60.00,39.00,45.69,210.00,5.00,0.00,30.20,1013.90,M,M,M,M,M,M,M,M,M,M,M,M,M,M,M,M,M,60.00,KP68 101353Z AUTO 21005KT 16/04 A3020 RMK AO1 SLP139 T01560039,M
DRA,2024-08-10 13:53,-116.0278,36.6206,1009.00,83.00,53.00,35.56,100.00,4.00,0.00,30.00,1009.80,10.00,M,CLR,M,M,M,M,M,M,M,M,M,M,M,M,M,M,81.78,KDRA 101353Z AUTO 10004KT 10SM CLR 28/12 A3000 RMK AO2 SLP098 T02830117,M
ELY,2024-08-10 13:53,-114.8453,39.2950,1909.00,62.00,43.00,49.69,160.00,8.00,0.00,30.24,1014.10,10.00,M,CLR,M,M,M,M,M,M,M,M,M,M,M,M,M,M,62.00,KELY 101353Z AUTO 16008KT 10SM CLR 17/06 A3024 RMK AO2 SLP141 T01670061,M
VGT,2024-08-10 13:53,-115.1933,36.2111,667.00,90.00,59.00,35.36,0.00,0.00,0.00,29.92,1011.40,10.00,M,CLR,M,M,M,M,M,M,M,M,M,M,M,M,M,M,89.26,KVGT 101353Z 00000KT 10SM CLR 32/15 A2992 RMK AO2 SLP114 T03220150,M
LOL,2024-08-10 13:53,-118.5701,40.0684,1192.43,61.00,39.00,44.10,70.00,4.00,0.00,30.08,1014.10,10.00,M,CLR,M,M,M,M,M,M,M,M,M,M,M,M,M,M,61.00,KLOL 101353Z AUTO 07004KT 10SM CLR 16/04 A3008 RMK AO2 SLP141 T01610039,M
BVU,2024-08-10 13:55,-114.8611,35.9475,671.00,87.80,57.20,35.53,90.00,5.00,0.00,29.92,M,10.00,M,CLR,M,M,M,M,M,M,M,M,M,M,M,M,M,M,86.58,KBVU 101355Z AUTO 09005KT 10SM CLR 31/14 A2992 RMK AO2,M
CXP,2024-08-10 13:55,-119.7326,39.1923,1431.00,59.00,41.00,51.18,0.00,0.00,0.00,30.17,M,10.00,M,CLR,M,M,M,M,M,M,M,M,M,M,M,M,M,M,59.00,KCXP 101355Z AUTO 00000KT 10SM CLR 15/05 A3017 RMK AO2,M
INS,2024-08-10 13:55,-115.6733,36.5872,955.00,79.30,49.30,34.99,280.00,4.00,0.00,29.99,1009.40,10.00,M,CLR,M,M,M,M,M,M,M,M,M,M,M,M,M,M,79.30,KINS 101355Z AUTO 28004KT 10SM CLR 26/10 A2999 RMK AO2 SLP094 T02630096,M
RNO,2024-08-10 13:55,-119.7711,39.4839,1341.00,63.00,40.00,42.72,190.00,3.00,0.00,30.14,1014.90,10.00,M,FEW,M,M,M,18000.00,M,M,M,M,M,M,M,M,M,M,63.00,KRNO 101355Z 19003KT 10SM FEW180 17/04 A3014 RMK AO2 SLP149 T01720044,M
LSV,2024-08-10 13:55,-115.0343,36.2362,570.00,90.00,57.00,32.91,40.00,5.00,0.00,29.87,1008.20,10.00,M,CLR,M,M,M,M,M,M,M,M,M,M,M,M,M,M,88.61,KLSV 101355Z AUTO 04005KT 10SM CLR 32/14 A2987 RMK AO2 SLP082 T03220139 $,M
RTS,2024-08-10 13:55,-119.8764,39.6682,1539.00,59.00,35.60,41.42,0.00,0.00,0.00,30.18,M,10.00,M,CLR,M,M,M,M,M,M,M,M,M,M,M,M,M,M,59.00,KRTS 101355Z AUTO 00000KT 10SM CLR 15/02 A3018 RMK AO2,M
MEV,2024-08-10 13:55,-119.7500,38.9963,1441.42,51.80,37.40,57.77,0.00,0.00,0.00,30.16,M,10.00,M,CLR,M,M,M,M,M,M,M,M,M,M,M,M,M,M,51.80,KMEV 101355Z AUTO 00000KT 10SM CLR 11/03 A3016 RMK AO2,M
BAM,2024-08-10 13:55,-116.8743,40.5990,1382.36,60.80,33.80,36.16,90.00,3.00,0.00,30.10,M,10.00,M,CLR,M,M,M,M,M,M,M,M,M,M,M,M,M,M,60.80,KBAM 101355Z AUTO 09003KT 10SM CLR 16/01 A3010 RMK AO1,M
HTH,2024-08-10 13:55,-118.6315,38.5448,1282.89,69.80,42.80,37.61,240.00,4.00,0.00,30.12,M,10.00,12.00,CLR,M,M,M,M,M,M,M,M,M,M,M,M,M,M,69.80,KHTH 101355Z AUTO 24004G12KT 10SM CLR 21/06 A3012 RMK A01,M
10U,2024-08-10 13:55,-116.1876,41.9532,1637.00,60.80,33.80,36.16,150.00,5.00,0.00,30.13,M,10.00,M,CLR,M,M,M,M,M,M,M,M,M,M,M,M,M,M,60.80,K10U 101355Z AUTO 15005KT 10SM CLR 16/01 A3013 RMK AO2,M
TMT,2024-08-10 13:55,-117.1971,39.4643,1749.34,52.00,32.00,46.25,0.00,0.00,0.00,30.23,M,10.00,M,SCT,M,M,M,12000.00,M,M,M,M,M,M,M,M,M,M,52.00,KTMT 101355Z AUTO 00000KT 10SM SCT120 11/00 A3023 RMK AO2 T01120001,M
EKO,2024-08-10 13:56,-115.7860,40.8242,1367.00,58.00,33.00,38.70,100.00,4.00,0.00,30.14,1014.60,10.00,M,CLR,M,M,M,M,M,M,M,M,M,M,M,M,M,M,58.00,KEKO 101356Z AUTO 10004KT 10SM CLR 14/01 A3014 RMK AO2 SLP146 T01440006,M
WMC,2024-08-10 13:56,-117.8072,40.9019,1315.00,66.00,37.00,34.21,170.00,7.00,0.00,30.08,1012.80,10.00,M,CLR,M,M,M,M,M,M,M,M,M,M,M,M,M,M,66.00,KWMC 101356Z AUTO 17007KT 10SM CLR 19/03 A3008 RMK AO2 SLP128 T01890028,M
HND,2024-08-10 13:56,-115.1344,35.9729,742.79,87.00,58.00,37.51,180.00,3.00,0.00,29.97,1013.00,10.00,M,CLR,M,M,M,M,M,M,M,M,M,M,M,M,M,M,86.07,KHND 101356Z 18003KT 10SM CLR 31/14 A2997 RMK AO2 SLP130 T03060144,M
TPH,2024-08-10 13:56,-117.0904,38.0505,1654.00,72.00,35.00,25.73,40.00,5.00,0.00,30.19,1012.70,10.00,M,CLR,M,M,M,M,M,M,M,M,M,M,M,M,M,M,72.00,KTPH 101356Z AUTO 04005KT 10SM CLR 22/02 A3019 RMK AO2 SLP127 T02220017,M
LAS,2024-08-10 13:56,-115.1634,36.0719,663.00,91.00,58.00,33.06,0.00,0.00,0.00,29.94,1010.40,10.00,M,FEW,FEW,M,M,12000.00,20000.00,M,M,M,M,M,M,M,M,M,89.92,KLAS 101356Z 00000KT 10SM FEW120 FEW200 33/14 A2994 RMK AO2 SLP104 T03280144,M
NFL,2024-08-10 13:57,-118.7010,39.4166,1199.00,66.00,39.00,37.00,180.00,4.00,0.00,30.09,1015.50,10.00,M,CLR,M,M,M,M,M,M,M,M,M,M,M,M,M,M,66.00,KNFL 101357Z AUTO 18004KT 10SM CLR 19/04 A3009 RMK AO2 SLP155 T01890039,M
05U,2024-08-10 14:10,-116.0051,39.6042,1811.23,M,M,M,0.00,0.00,0.00,30.23,M,10.00,M,CLR,M,M,M,M,M,M,M,M,M,M,M,M,M,M,M,K05U 101410Z AUTO 00000KT 10SM CLR A3023 RMK A01,M
BVU,2024-08-10 14:15,-114.8611,35.9475,671.00,89.60,57.20,33.56,90.00,5.00,0.00,29.93,M,10.00,M,CLR,M,M,M,M,M,M,M,M,M,M,M,M,M,M,88.28,KBVU 101415Z AUTO 09005KT 10SM CLR 32/14 A2993 RMK AO2,M
10U,2024-08-10 14:15,-116.1876,41.9532,1637.00,66.20,33.80,29.92,150.00,5.00,0.00,30.13,M,10.00,M,CLR,M,M,M,M,M,M,M,M,M,M,M,M,M,M,66.20,K10U 101415Z AUTO 15005KT 10SM CLR 19/01 A3013 RMK AO2,M
CXP,2024-08-10 14:15,-119.7326,39.1923,1431.00,60.80,41.00,48.00,0.00,0.00,0.00,30.18,M,10.00,M,CLR,M,M,M,M,M,M,M,M,M,M,M,M,M,M,60.80,KCXP 101415Z AUTO 00000KT 10SM CLR 16/05 A3018 RMK AO2,M
RTS,2024-08-10 14:15,-119.8764,39.6682,1539.00,60.80,39.20,44.76,0.00,0.00,0.00,30.19,M,10.00,M,CLR,M,M,M,M,M,M,M,M,M,M,M,M,M,M,60.80,KRTS 101415Z AUTO 00000KT 10SM CLR 16/04 A3019 RMK AO2,M
MEV,2024-08-10 14:15,-119.7500,38.9963,1441.42,55.40,37.40,50.64,0.00,0.00,0.00,30.16,M,10.00,M,CLR,M,M,M,M,M,M,M,M,M,M,M,M,M,M,55.40,KMEV 101415Z AUTO 00000KT 10SM CLR 13/03 A3016 RMK AO2,M
BAM,2024-08-10 14:15,-116.8743,40.5990,1382.36,64.40,35.60,34.22,130.00,4.00,0.00,30.11,M,10.00,M,CLR,M,M,M,M,M,M,M,M,M,M,M,M,M,M,64.40,KBAM 101415Z AUTO 13004KT 10SM CLR 18/02 A3011 RMK AO1,M
HTH,2024-08-10 14:15,-118.6315,38.5448,1282.89,71.60,44.60,37.89,210.00,5.00,0.00,30.12,M,10.00,M,CLR,M,M,M,M,M,M,M,M,M,M,M,M,M,M,71.60,KHTH 101415Z AUTO 21005KT 10SM CLR 22/07 A3012 RMK A01,M
TMT,2024-08-10 14:15,-117.1971,39.4643,1749.34,57.00,33.00,40.12,0.00,0.00,0.00,30.22,M,10.00,M,CLR,M,M,M,M,M,M,M,M,M,M,M,M,M,M,57.00,KTMT 101415Z AUTO 00000KT 10SM CLR 14/01 A3022 RMK AO2 T01390005,M
05U,2024-08-10 14:30,-116.0051,39.6042,1811.23,M,M,M,0.00,0.00,0.00,30.23,M,10.00,M,FEW,M,M,M,12000.00,M,M,M,M,M,M,M,M,M,M,M,K05U 101430Z AUTO 00000KT 10SM FEW120 A3023 RMK A01,M
BVU,2024-08-10 14:35,-114.8611,35.9475,671.00,91.40,57.20,31.72,100.00,3.00,0.00,29.93,M,10.00,M,CLR,M,M,M,M,M,M,M,M,M,M,M,M,M,M,90.06,KBVU 101435Z AUTO 10003KT 10SM CLR 33/14 A2993 RMK AO2,M
CXP,2024-08-10 14:35,-119.7326,39.1923,1431.00,62.60,39.20,42.00,0.00,0.00,0.00,30.18,M,10.00,M,CLR,M,M,M,M,M,M,M,M,M,M,M,M,M,M,62.60,KCXP 101435Z AUTO 00000KT 10SM CLR 17/04 A3018 RMK AO2,M
RTS,2024-08-10 14:35,-119.8764,39.6682,1539.00,64.40,37.40,36.74,320.00,3.00,0.00,30.19,M,10.00,M,CLR,M,M,M,M,M,M,M,M,M,M,M,M,M,M,64.40,KRTS 101435Z AUTO 32003KT 10SM CLR 18/03 A3019 RMK AO2,M
MEV,2024-08-10 14:35,-119.7500,38.9963,1441.42,59.00,37.40,44.47,0.00,0.00,0.00,30.16,M,10.00,M,CLR,M,M,M,M,M,M,M,M,M,M,M,M,M,M,59.00,KMEV 101435Z AUTO 00000KT 10SM CLR 15/03 A3016 RMK AO2,M
BAM,2024-08-10 14:35,-116.8743,40.5990,1382.36,68.00,33.80,28.11,140.00,3.00,0.00,30.11,M,10.00,M,CLR,M,M,M,M,M,M,M,M,M,M,M,M,M,M,68.00,KBAM 101435Z AUTO 14003KT 10SM CLR 20/01 A3011 RMK AO1,M
HTH,2024-08-10 14:35,-118.6315,38.5448,1282.89,M,M,M,0.00,0.00,0.00,30.13,M,10.00,M,CLR,M,M,M,M,M,M,M,M,M,M,M,M,M,M,M,KHTH 101435Z AUTO 00000KT 10SM CLR A3013 RMK A01,M
10U,2024-08-10 14:35,-116.1876,41.9532,1637.00,69.80,32.00,24.59,0.00,0.00,0.00,30.13,M,10.00,M,CLR,M,M,M,M,M,M,M,M,M,M,M,M,M,M,69.80,K10U 101435Z AUTO 00000KT 10SM CLR 21/00 A3013 RMK AO2,M
TMT,2024-08-10 14:35,-117.1971,39.4643,1749.34,59.00,33.40,37.94,0.00,0.00,0.00,30.23,M,10.00,M,CLR,M,M,M,M,M,M,M,M,M,M,M,M,M,M,59.00,KTMT 101435Z AUTO 00000KT 10SM CLR 15/01 A3023 RMK AO2 T01510008,M
05U,2024-08-10 14:50,-116.0051,39.6042,1811.23,M,M,M,0.00,0.00,0.00,30.24,M,10.00,M,FEW,M,M,M,12000.00,M,M,M,M,M,M,M,M,M,M,M,K05U 101450Z AUTO 00000KT 10SM FEW120 A3024 RMK A01,M
P68,2024-08-10 14:53,-116.0056,39.6014,1993.00,65.00,39.00,38.31,230.00,5.00,0.00,30.21,1014.20,M,M,M,M,M,M,M,M,M,M,M,M,M,M,M,M,M,65.00,KP68 101453Z AUTO 23005KT 18/04 A3021 RMK AO1 SLP142 T01830039 51010,M
DRA,2024-08-10 14:53,-116.0278,36.6206,1009.00,87.00,53.00,31.28,300.00,4.00,0.00,30.01,1010.10,10.00,M,CLR,M,M,M,M,M,M,M,M,M,M,M,M,M,M,84.91,KDRA 101453Z AUTO 30004KT 10SM CLR 31/12 A3001 RMK AO2 SLP101 T03060117 51012,M
ELY,2024-08-10 14:53,-114.8453,39.2950,1909.00,69.00,44.00,40.47,140.00,3.00,0.00,30.24,1013.30,10.00,M,CLR,M,M,M,M,M,M,M,M,M,M,M,M,M,M,69.00,KELY 101453Z AUTO 14003KT 10SM CLR 21/07 A3024 RMK AO2 SLP133 T02060067 51005,M
VGT,2024-08-10 14:53,-115.1933,36.2111,667.00,93.00,59.00,32.19,70.00,3.00,0.00,29.94,1012.10,10.00,M,CLR,M,M,M,M,M,M,M,M,M,M,M,M,M,M,92.35,KVGT 101453Z 07003KT 10SM CLR 34/15 A2994 RMK AO2 SLP121 T03390150 53015,M
LOL,2024-08-10 14:53,-118.5701,40.0684,1192.43,70.00,40.00,33.52,0.00,0.00,0.00,30.09,1014.20,10.00,M,CLR,M,M,M,M,M,M,M,M,M,M,M,M,M,M,70.00,KLOL 101453Z AUTO 00000KT 10SM CLR 21/04 A3009 RMK AO2 SLP142 T02110044 51010,M
BVU,2024-08-10 14:55,-114.8611,35.9475,671.00,91.40,55.40,29.72,0.00,0.00,0.00,29.93,M,10.00,M,CLR,M,M,M,M,M,M,M,M,M,M,M,M,M,M,89.53,KBVU 101455Z AUTO 00000KT 10SM CLR 33/13 A2993 RMK AO2,M
CXP,2024-08-10 14:55,-119.7326,39.1923,1431.00,66.20,39.20,37.03,0.00,0.00,0.00,30.18,M,10.00,M,CLR,M,M,M,M,M,M,M,M,M,M,M,M,M,M,66.20,KCXP 101455Z AUTO 00000KT 10SM CLR 19/04 A3018 RMK AO2,M
INS,2024-08-10 14:55,-115.6733,36.5872,955.00,86.00,51.00,30.00,0.00,0.00,0.00,30.00,1009.60,10.00,M,CLR,M,M,M,M,M,M,M,M,M,M,M,M,M,M,83.75,KINS 101455Z AUTO 00000KT 10SM CLR 30/11 A3000 RMK AO2 SLP096 T03000105 52010,M
RNO,2024-08-10 14:55,-119.7711,39.4839,1341.00,68.00,39.00,34.53,170.00,3.00,0.00,30.15,1014.80,10.00,M,FEW,M,M,M,15000.00,M,M,M,M,M,M,M,M,M,M,68.00,KRNO 101455Z 17003KT 10SM FEW150 20/04 A3015 RMK AO2 SLP148 T02000039 51007,M
RTS,2024-08-10 14:55,-119.8764,39.6682,1539.00,66.20,37.40,34.51,0.00,0.00,0.00,30.19,M,10.00,M,CLR,M,M,M,M,M,M,M,M,M,M,M,M,M,M,66.20,KRTS 101455Z AUTO 00000KT 10SM CLR 19/03 A3019 RMK AO2,M
MEV,2024-08-10 14:55,-119.7500,38.9963,1441.42,60.80,37.40,41.71,0.00,0.00,0.00,30.17,M,10.00,M,CLR,M,M,M,M,M,M,M,M,M,M,M,M,M,M,60.80,KMEV 101455Z AUTO 00000KT 10SM CLR 16/03 A3017 RMK AO2,M
BAM,2024-08-10 14:55,-116.8743,40.5990,1382.36,71.60,35.60,26.71,0.00,0.00,0.00,30.11,M,10.00,M,CLR,M,M,M,M,M,M,M,M,M,M,M,M,M,M,71.60,KBAM 101455Z AUTO 00000KT 10SM CLR 22/02 A3011 RMK AO1,M
HTH,2024-08-10 14:55,-118.6315,38.5448,1282.89,75.20,42.80,31.34,0.00,0.00,0.00,30.13,M,10.00,M,CLR,M,M,M,M,M,M,M,M,M,M,M,M,M,M,75.20,KHTH 101455Z AUTO 00000KT 10SM CLR 24/06 A3013 RMK A01,M
10U,2024-08-10 14:55,-116.1876,41.9532,1637.00,73.40,33.80,23.39,0.00,0.00,0.00,30.13,M,10.00,M,CLR,M,M,M,M,M,M,M,M,M,M,M,M,M,M,73.40,K10U 101455Z AUTO 00000KT 10SM CLR 23/01 A3013 RMK AO2,M
LSV,2024-08-10 14:55,-115.0343,36.2362,570.00,93.60,56.50,28.88,0.00,0.00,0.00,29.89,1008.90,10.00,M,CLR,M,M,M,M,M,M,M,M,M,M,M,M,M,M,92.10,KLSV 101455Z AUTO 00000KT 10SM CLR 34/14 A2989 RMK AO2 SLP089 T03420136 52016 $,M
TMT,2024-08-10 14:55,-117.1971,39.4643,1749.34,62.20,34.00,34.69,0.00,0.00,0.00,30.23,M,10.00,M,CLR,M,M,M,M,M,M,M,M,M,M,M,M,M,M,62.20,KTMT 101455Z AUTO 00000KT 10SM CLR 17/01 A3023 RMK AO2 T01680011,M
EKO,2024-08-10 14:56,-115.7860,40.8242,1367.00,65.00,32.00,29.02,90.00,3.00,0.00,30.14,1014.70,10.00,M,CLR,M,M,M,M,M,M,M,M,M,M,M,M,M,M,65.00,KEKO 101456Z AUTO 09003KT 10SM CLR 18/00 A3014 RMK AO2 SLP147 T01830000 51012,M
WMC,2024-08-10 14:56,-117.8072,40.9019,1315.00,78.00,37.00,22.79,190.00,8.00,0.00,30.08,1012.90,10.00,M,CLR,M,M,M,M,M,M,M,M,M,M,M,M,M,M,78.00,KWMC 101456Z AUTO 19008KT 10SM CLR 26/03 A3008 RMK AO2 SLP129 T02560028 51008,M
HND,2024-08-10 14:56,-115.1344,35.9729,742.79,92.00,58.00,32.04,0.00,0.00,0.00,29.98,1013.20,10.00,M,CLR,M,M,M,M,M,M,M,M,M,M,M,M,M,M,90.94,KHND 101456Z 00000KT 10SM CLR 33/14 A2998 RMK AO2 SLP132 T03330144 51013,M
TPH,2024-08-10 14:56,-117.0904,38.0505,1654.00,75.00,36.00,24.20,0.00,0.00,0.00,30.20,1013.00,10.00,M,CLR,M,M,M,M,M,M,M,M,M,M,M,M,M,M,75.00,KTPH 101456Z AUTO 00000KT 10SM CLR 24/02 A3020 RMK AO2 SLP130 T02390022 51013,M
LAS,2024-08-10 14:56,-115.1634,36.0719,663.00,93.00,58.00,31.06,0.00,0.00,0.00,29.95,1010.80,10.00,M,FEW,FEW,M,M,12000.00,20000.00,M,M,M,M,M,M,M,M,M,91.98,KLAS 101456Z 00000KT 10SM FEW120 FEW200 34/14 A2995 RMK AO2 SLP108 T03390144 51015,M
05U,2024-08-10 15:10,-116.0051,39.6042,1811.23,M,M,M,0.00,0.00,0.00,30.23,M,10.00,M,CLR,M,M,M,M,M,M,M,M,M,M,M,M,M,M,M,K05U 101510Z AUTO 00000KT 10SM CLR A3023 RMK A01,M
BVU,2024-08-10 15:15,-114.8611,35.9475,671.00,93.20,55.40,28.10,0.00,0.00,0.00,29.94,M,10.00,M,CLR,M,M,M,M,M,M,M,M,M,M,M,M,M,M,91.35,KBVU 101515Z AUTO 00000KT 10SM CLR 34/13 A2994 RMK AO2,M
CXP,2024-08-10 15:15,-119.7326,39.1923,1431.00,68.00,39.20,34.80,0.00,0.00,0.00,30.18,M,10.00,M,CLR,M,M,M,M,M,M,M,M,M,M,M,M,M,M,68.00,KCXP 101515Z AUTO 00000KT 10SM CLR 20/04 A3018 RMK AO2,M
RTS,2024-08-10 15:15,-119.8764,39.6682,1539.00,68.00,39.20,34.80,0.00,0.00,0.00,30.19,M,10.00,M,CLR,M,M,M,M,M,M,M,M,M,M,M,M,M,M,68.00,KRTS 101515Z AUTO 00000KT 10SM CLR 20/04 A3019 RMK AO2,M
MEV,2024-08-10 15:15,-119.7500,38.9963,1441.42,66.20,37.40,34.51,0.00,0.00,0.00,30.17,M,10.00,M,CLR,M,M,M,M,M,M,M,M,M,M,M,M,M,M,66.20,KMEV 101515Z AUTO 00000KT 10SM CLR 19/03 A3017 RMK AO2,M
BAM,2024-08-10 15:15,-116.8743,40.5990,1382.36,73.40,35.60,25.13,0.00,0.00,0.00,30.11,M,10.00,M,CLR,M,M,M,M,M,M,M,M,M,M,M,M,M,M,73.40,KBAM 101515Z AUTO 00000KT 10SM CLR 23/02 A3011 RMK AO1,M
HTH,2024-08-10 15:15,-118.6315,38.5448,1282.89,77.00,42.80,29.51,0.00,0.00,0.00,30.13,M,10.00,M,CLR,M,M,M,M,M,M,M,M,M,M,M,M,M,M,77.00,KHTH 101515Z AUTO 00000KT 10SM CLR 25/06 A3013 RMK A01,M
10U,2024-08-10 15:15,-116.1876,41.9532,1637.00,77.00,33.80,20.74,210.00,7.00,0.00,30.13,M,10.00,M,CLR,M,M,M,M,M,M,M,M,M,M,M,M,M,M,77.00,K10U 101515Z AUTO 21007KT 10SM CLR 25/01 A3013 RMK AO2,M
TMT,2024-08-10 15:15,-117.1971,39.4643,1749.34,65.70,35.00,31.93,0.00,0.00,0.00,30.22,M,10.00,M,CLR,M,M,M,M,M,M,M,M,M,M,M,M,M,M,65.70,KTMT 101515Z AUTO 00000KT 10SM CLR 19/02 A3022 RMK AO2 T01870017,M
05U,2024-08-10 15:30,-116.0051,39.6042,1811.23,M,M,M,0.00,0.00,0.00,30.23,M,10.00,M,CLR,M,M,M,M,M,M,M,M,M,M,M,M,M,M,M,K05U 101530Z AUTO 00000KT 10SM CLR A3023 RMK A01,M
BVU,2024-08-10 15:35,-114.8611,35.9475,671.00,93.20,55.40,28.10,M,4.00,0.00,29.94,M,10.00,M,CLR,M,M,M,M,M,M,M,M,M,M,M,M,M,M,91.35,KBVU 101535Z AUTO VRB04KT 10SM CLR 34/13 A2994 RMK AO2,M
CXP,2024-08-10 15:35,-119.7326,39.1923,1431.00,69.80,37.40,30.49,0.00,0.00,0.00,30.18,M,10.00,M,CLR,M,M,M,M,M,M,M,M,M,M,M,M,M,M,69.80,KCXP 101535Z AUTO 00000KT 10SM CLR 21/03 A3018 RMK AO2,M
RTS,2024-08-10 15:35,-119.8764,39.6682,1539.00,68.00,42.80,40.00,140.00,4.00,0.00,30.19,M,10.00,M,CLR,M,M,M,M,M,M,M,M,M,M,M,M,M,M,68.00,KRTS 101535Z AUTO 14004KT 10SM CLR 20/06 A3019 RMK AO2,M
MEV,2024-08-10 15:35,-119.7500,38.9963,1441.42,69.80,37.40,30.49,180.00,3.00,0.00,30.17,M,10.00,M,CLR,M,M,M,M,M,M,M,M,M,M,M,M,M,M,69.80,KMEV 101535Z AUTO 18003KT 10SM CLR 21/03 A3017 RMK AO2,M
BAM,2024-08-10 15:35,-116.8743,40.5990,1382.36,78.80,39.20,24.19,240.00,5.00,0.00,30.11,M,10.00,M,CLR,M,M,M,M,M,M,M,M,M,M,M,M,M,M,78.80,KBAM 101535Z AUTO 24005KT 10SM CLR 26/04 A3011 RMK AO1,M
HTH,2024-08-10 15:35,-118.6315,38.5448,1282.89,78.80,41.00,25.95,340.00,4.00,0.00,30.13,M,10.00,M,CLR,M,M,M,M,M,M,M,M,M,M,M,M,M,M,78.80,KHTH 101535Z AUTO 34004KT 10SM CLR 26/05 A3013 RMK A01,M
10U,2024-08-10 15:35,-116.1876,41.9532,1637.00,78.80,32.00,18.18,230.00,7.00,0.00,30.13,M,10.00,M,CLR,M,M,M,M,M,M,M,M,M,M,M,M,M,M,78.80,K10U 101535Z AUTO 23007KT 10SM CLR 26/00 A3013 RMK AO2,M
TMT,2024-08-10 15:35,-117.1971,39.4643,1749.34,69.00,37.60,31.58,0.00,0.00,0.00,30.22,M,10.00,M,CLR,M,M,M,M,M,M,M,M,M,M,M,M,M,M,69.00,KTMT 101535Z AUTO 00000KT 10SM CLR 21/03 A3022 RMK AO2 T02060031,M
05U,2024-08-10 15:50,-116.0051,39.6042,1811.23,M,M,M,0.00,0.00,0.00,30.23,M,10.00,M,CLR,M,M,M,M,M,M,M,M,M,M,M,M,M,M,M,K05U 101550Z AUTO 00000KT 10SM CLR A3023 RMK A01,M
P68,2024-08-10 15:53,-116.0056,39.6014,1993.00,77.00,35.00,21.76,210.00,4.00,0.00,30.20,1013.70,M,M,M,M,M,M,M,M,M,M,M,M,M,M,M,M,M,77.00,KP68 101553Z AUTO 21004KT 25/02 A3020 RMK AO1 SLP137 T02500017,M
DRA,2024-08-10 15:53,-116.0278,36.6206,1009.00,91.00,54.00,28.60,M,3.00,0.00,30.02,1010.40,10.00,M,CLR,M,M,M,M,M,M,M,M,M,M,M,M,M,M,88.78,KDRA 101553Z AUTO VRB03KT 10SM CLR 33/12 A3002 RMK AO2 SLP104 T03280122,M
ELY,2024-08-10 15:53,-114.8453,39.2950,1909.00,77.00,46.00,33.34,170.00,6.00,0.00,30.24,1012.60,10.00,M,CLR,M,M,M,M,M,M,M,M,M,M,M,M,M,M,77.00,KELY 101553Z AUTO 17006KT 10SM CLR 25/08 A3024 RMK AO2 SLP126 T02500078,M
VGT,2024-08-10 15:53,-115.1933,36.2111,667.00,95.00,59.00,30.26,130.00,4.00,0.00,29.94,1012.00,10.00,M,CLR,M,M,M,M,M,M,M,M,M,M,M,M,M,M,94.51,KVGT 101553Z 13004KT 10SM CLR 35/15 A2994 RMK AO2 SLP120 T03500150,M
LOL,2024-08-10 15:53,-118.5701,40.0684,1192.43,79.00,44.00,28.93,140.00,4.00,0.00,30.09,1014.10,10.00,M,CLR,M,M,M,M,M,M,M,M,M,M,M,M,M,M,79.00,KLOL 101553Z AUTO 14004KT 10SM CLR 26/07 A3009 RMK AO2 SLP141 T02610067,M
BVU,2024-08-10 15:55,-114.8611,35.9475,671.00,95.00,55.40,26.58,110.00,4.00,0.00,29.94,M,10.00,M,CLR,M,M,M,M,M,M,M,M,M,M,M,M,M,M,93.22,KBVU 101555Z AUTO 11004KT 10SM CLR 35/13 A2994 RMK AO2,M
CXP,2024-08-10 15:55,-119.7326,39.1923,1431.00,71.60,37.40,28.68,0.00,0.00,0.00,30.18,M,10.00,M,CLR,M,M,M,M,M,M,M,M,M,M,M,M,M,M,71.60,KCXP 101555Z AUTO 00000KT 10SM CLR 22/03 A3018 RMK AO2,M
INS,2024-08-10 15:55,-115.6733,36.5872,955.00,90.30,51.80,26.96,20.00,3.00,0.00,30.00,1009.50,10.00,M,CLR,M,M,M,M,M,M,M,M,M,M,M,M,M,M,87.65,KINS 101555Z AUTO 02003KT 10SM CLR 32/11 A3000 RMK AO2 SLP095 T03240110,M
RNO,2024-08-10 15:55,-119.7711,39.4839,1341.00,73.00,39.00,29.12,0.00,0.00,0.00,30.15,1014.80,10.00,M,FEW,M,M,M,15000.00,M,M,M,M,M,M,M,M,M,M,73.00,KRNO 101555Z 00000KT 10SM FEW150 23/04 A3015 RMK AO2 SLP148 T02280039,M
LSV,2024-08-10 15:55,-115.0343,36.2362,570.00,97.00,55.40,25.00,100.00,6.00,0.00,29.89,1008.80,10.00,M,CLR,M,M,M,M,M,M,M,M,M,M,M,M,M,M,95.36,KLSV 101555Z AUTO 10006KT 10SM CLR 36/13 A2989 RMK AO2 SLP088 T03620130 $,M
RTS,2024-08-10 15:55,-119.8764,39.6682,1539.00,73.40,39.20,28.96,0.00,0.00,0.00,30.19,M,10.00,M,CLR,M,M,M,M,M,M,M,M,M,M,M,M,M,M,73.40,KRTS 101555Z AUTO 00000KT 10SM CLR 23/04 A3019 RMK AO2,M
MEV,2024-08-10 15:55,-119.7500,38.9963,1441.42,71.60,35.60,26.71,0.00,0.00,0.00,30.16,M,3.00,M,CLR,M,M,M,M,M,M,M,UP HZ,M,M,M,M,M,M,71.60,KMEV 101555Z AUTO 00000KT 3SM UP HZ CLR 22/02 A3016 RMK AO2,M
BAM,2024-08-10 15:55,-116.8743,40.5990,1382.36,82.40,37.40,20.04,250.00,9.00,0.00,30.10,M,10.00,M,CLR,M,M,M,M,M,M,M,M,M,M,M,M,M,M,80.14,KBAM 101555Z AUTO 25009KT 10SM CLR 28/03 A3010 RMK AO1,M
HTH,2024-08-10 15:55,-118.6315,38.5448,1282.89,78.80,41.00,25.95,M,4.00,0.00,30.13,M,10.00,M,CLR,M,M,M,M,M,M,M,M,M,M,M,M,M,M,78.80,KHTH 101555Z AUTO VRB04KT 10SM CLR 26/05 A3013 RMK A01,M
10U,2024-08-10 15:55,-116.1876,41.9532,1637.00,80.60,33.80,18.42,220.00,11.00,0.00,30.13,M,10.00,M,CLR,M,M,M,M,M,M,M,M,M,M,M,M,M,M,78.88,K10U 101555Z AUTO 22011KT 10SM CLR 27/01 A3013 RMK AO2,M
TMT,2024-08-10 15:55,-117.1971,39.4643,1749.34,75.00,38.30,26.49,200.00,5.00,0.00,30.22,M,10.00,M,CLR,M,M,M,M,M,M,M,M,M,M,M,M,M,M,75.00,KTMT 101555Z AUTO 20005KT 10SM CLR 24/04 A3022 RMK AO2 T02380035,M
EKO,2024-08-10 15:56,-115.7860,40.8242,1367.00,73.00,33.00,22.96,0.00,0.00,0.00,30.14,1014.30,10.00,M,CLR,M,M,M,M,M,M,M,M,M,M,M,M,M,M,73.00,KEKO 101556Z AUTO 00000KT 10SM CLR 23/01 A3014 RMK AO2 SLP143 T02280006,M
WMC,2024-08-10 15:56,-117.8072,40.9019,1315.00,84.00,38.00,19.49,250.00,11.00,0.00,30.09,1013.20,10.00,16.00,CLR,M,M,M,M,M,M,M,M,M,M,M,M,M,M,81.26,KWMC 101556Z AUTO 25011G16KT 10SM CLR 29/03 A3009 RMK AO2 SLP132 T02890033,M
HND,2024-08-10 15:56,-115.1344,35.9729,742.79,95.00,59.00,30.26,50.00,3.00,0.00,29.99,1013.30,10.00,M,CLR,M,M,M,M,M,M,M,M,M,M,M,M,M,M,94.51,KHND 101556Z 05003KT 10SM CLR 35/15 A2999 RMK AO2 SLP133 T03500150,M
TPH,2024-08-10 15:56,-117.0904,38.0505,1654.00,81.00,36.00,19.85,150.00,4.00,0.00,30.20,1013.00,10.00,M,CLR,M,M,M,M,M,M,M,M,M,M,M,M,M,M,79.20,KTPH 101556Z AUTO 15004KT 10SM CLR 27/02 A3020 RMK AO2 SLP130 T02720022,M
LAS,2024-08-10 15:56,-115.1634,36.0719,663.00,97.00,58.00,27.46,100.00,4.00,0.00,29.95,1010.90,10.00,M,FEW,FEW,M,M,12000.00,20000.00,M,M,M,M,M,M,M,M,M,96.30,KLAS 101556Z 10004KT 10SM FEW120 FEW200 36/14 A2995 RMK AO2 SLP109 T03610144,M
05U,2024-08-10 16:10,-116.0051,39.6042,1811.23,M,M,M,0.00,0.00,0.00,30.23,M,10.00,M,CLR,M,M,M,M,M,M,M,M,M,M,M,M,M,M,M,K05U 101610Z AUTO 00000KT 10SM CLR A3023 RMK A01,M
BVU,2024-08-10 16:15,-114.8611,35.9475,671.00,96.80,55.40,25.15,150.00,4.00,0.00,29.94,M,10.00,M,CLR,M,M,M,M,M,M,M,M,M,M,M,M,M,M,95.14,KBVU 101615Z AUTO 15004KT 10SM CLR 36/13 A2994 RMK AO2,M
CXP,2024-08-10 16:15,-119.7326,39.1923,1431.00,75.20,35.60,23.66,0.00,0.00,0.00,30.17,M,10.00,M,CLR,M,M,M,M,M,M,M,M,M,M,M,M,M,M,75.20,KCXP 101615Z AUTO 00000KT 10SM CLR 24/02 A3017 RMK AO2,M
RTS,2024-08-10 16:15,-119.8764,39.6682,1539.00,75.20,37.40,25.40,0.00,0.00,0.00,30.19,M,10.00,M,CLR,M,M,M,M,M,M,M,M,M,M,M,M,M,M,75.20,KRTS 101615Z AUTO 00000KT 10SM CLR 24/03 A3019 RMK AO2,M
MEV,2024-08-10 16:15,-119.7500,38.9963,1441.42,75.20,35.60,23.66,0.00,0.00,0.00,30.16,M,10.00,M,CLR,M,M,M,M,M,M,M,M,M,M,M,M,M,M,75.20,KMEV 101615Z AUTO 00000KT 10SM CLR 24/02 A3016 RMK AO2,M
BAM,2024-08-10 16:15,-116.8743,40.5990,1382.36,84.20,37.40,18.91,250.00,10.00,0.00,30.10,M,10.00,M,CLR,M,M,M,M,M,M,M,M,M,M,M,M,M,M,81.38,KBAM 101615Z AUTO 25010KT 10SM CLR 29/03 A3010 RMK AO1,M
HTH,2024-08-10 16:15,-118.6315,38.5448,1282.89,80.60,39.20,22.81,310.00,5.00,0.00,30.13,M,10.00,M,CLR,M,M,M,M,M,M,M,M,M,M,M,M,M,M,79.10,KHTH 101615Z AUTO 31005KT 10SM CLR 27/04 A3013 RMK A01,M
10U,2024-08-10 16:15,-116.1876,41.9532,1637.00,80.60,33.80,18.42,260.00,11.00,0.00,30.13,M,10.00,16.00,CLR,M,M,M,M,M,M,M,M,M,M,M,M,M,M,78.88,K10U 101615Z AUTO 26011G16KT 10SM CLR 27/01 A3013 RMK AO2,M
TMT,2024-08-10 16:15,-117.1971,39.4643,1749.34,76.30,39.00,26.07,240.00,4.00,0.00,30.21,M,10.00,M,CLR,M,M,M,M,M,M,M,M,M,M,M,M,M,M,76.30,KTMT 101615Z AUTO 24004KT 10SM CLR 25/04 A3021 RMK AO2 T02460039,M
05U,2024-08-10 16:30,-116.0051,39.6042,1811.23,M,M,M,0.00,0.00,0.00,30.23,M,10.00,M,CLR,M,M,M,M,M,M,M,M,M,M,M,M,M,M,M,K05U 101630Z AUTO 00000KT 10SM CLR A3023 RMK A01,M
BVU,2024-08-10 16:35,-114.8611,35.9475,671.00,98.60,55.40,23.81,M,4.00,0.00,29.93,M,10.00,M,CLR,M,M,M,M,M,M,M,M,M,M,M,M,M,M,97.09,KBVU 101635Z AUTO VRB04KT 10SM CLR 37/13 A2993 RMK AO2,M
CXP,2024-08-10 16:35,-119.7326,39.1923,1431.00,77.00,35.60,22.28,0.00,0.00,0.00,30.17,M,10.00,M,CLR,M,M,M,M,M,M,M,M,M,M,M,M,M,M,77.00,KCXP 101635Z AUTO 00000KT 10SM CLR 25/02 A3017 RMK AO2,M
RTS,2024-08-10 16:35,-119.8764,39.6682,1539.00,77.00,35.60,22.28,0.00,0.00,0.00,30.19,M,10.00,M,CLR,M,M,M,M,M,M,M,M,M,M,M,M,M,M,77.00,KRTS 101635Z AUTO 00000KT 10SM CLR 25/02 A3019 RMK AO2,M
MEV,2024-08-10 16:35,-119.7500,38.9963,1441.42,75.20,39.20,27.26,190.00,4.00,0.00,30.16,M,10.00,M,CLR,M,M,M,M,M,M,M,M,M,M,M,M,M,M,75.20,KMEV 101635Z AUTO 19004KT 10SM CLR 24/04 A3016 RMK AO2,M
BAM,2024-08-10 16:35,-116.8743,40.5990,1382.36,86.00,37.40,17.85,270.00,9.00,0.00,30.11,M,10.00,14.00,CLR,M,M,M,M,M,M,M,M,M,M,M,M,M,M,82.73,KBAM 101635Z AUTO 27009G14KT 10SM CLR 30/03 A3011 RMK AO1,M
HTH,2024-08-10 16:35,-118.6315,38.5448,1282.89,80.60,37.40,21.25,320.00,6.00,0.00,30.13,M,10.00,M,CLR,M,M,M,M,M,M,M,M,M,M,M,M,M,M,79.02,KHTH 101635Z AUTO 32006KT 10SM CLR 27/03 A3013 RMK A01,M
10U,2024-08-10 16:35,-116.1876,41.9532,1637.00,80.60,33.80,18.42,270.00,8.00,0.00,30.13,M,10.00,15.00,CLR,M,M,M,M,M,M,M,M,M,M,M,M,M,M,78.88,K10U 101635Z AUTO 27008G15KT 240V310 10SM CLR 27/01 A3013 RMK AO2,M
TMT,2024-08-10 16:35,-117.1971,39.4643,1749.34,79.70,38.30,22.68,220.00,6.00,0.00,30.21,M,10.00,M,CLR,M,M,M,M,M,M,M,M,M,M,M,M,M,M,79.70,KTMT 101635Z AUTO 22006KT 10SM CLR 27/04 A3021 RMK AO2 T02650035,M
05U,2024-08-10 16:50,-116.0051,39.6042,1811.23,M,M,M,0.00,0.00,0.00,30.22,M,10.00,M,CLR,M,M,M,M,M,M,M,M,M,M,M,M,M,M,M,K05U 101650Z AUTO 00000KT 10SM CLR A3022 RMK A01,M
P68,2024-08-10 16:53,-116.0056,39.6014,1993.00,83.00,35.00,17.88,0.00,0.00,0.00,30.19,1013.20,M,M,M,M,M,M,M,M,M,M,M,M,M,M,M,M,M,80.47,KP68 101653Z AUTO 00000KT 28/02 A3019 RMK AO1 SLP132 T02830017,M
DRA,2024-08-10 16:53,-116.0278,36.6206,1009.00,95.00,53.00,24.35,M,5.00,0.00,30.03,1010.60,10.00,M,CLR,M,M,M,M,M,M,M,M,M,M,M,M,M,M,92.55,KDRA 101653Z AUTO VRB05KT 10SM CLR 35/12 A3003 RMK AO2 SLP106 T03500117,M
ELY,2024-08-10 16:53,-114.8453,39.2950,1909.00,82.00,47.00,29.39,M,4.00,0.00,30.24,1012.50,10.00,M,CLR,M,M,M,M,M,M,M,M,M,M,M,M,M,M,80.44,KELY 101653Z AUTO VRB04KT 10SM CLR 28/08 A3024 RMK AO2 SLP125 T02780083,M
VGT,2024-08-10 16:53,-115.1933,36.2111,667.00,99.00,58.00,25.83,M,4.00,0.00,29.94,1012.20,10.00,M,CLR,M,M,M,M,M,M,M,M,M,M,M,M,M,M,98.53,KVGT 101653Z VRB04KT 10SM CLR 37/14 A2994 RMK AO2 SLP122 T03720144,M
LOL,2024-08-10 16:53,-118.5701,40.0684,1192.43,86.00,40.00,19.76,M,5.00,0.00,30.08,1013.60,10.00,M,CLR,M,M,M,M,M,M,M,M,M,M,M,M,M,M,82.82,KLOL 101653Z AUTO VRB05KT 10SM CLR 30/04 A3008 RMK AO2 SLP136 T03000044,M
BVU,2024-08-10 16:55,-114.8611,35.9475,671.00,98.60,55.40,23.81,120.00,12.00,0.00,29.93,M,10.00,M,CLR,M,M,M,M,M,M,M,M,M,M,M,M,M,M,97.09,KBVU 101655Z AUTO 12012KT 10SM CLR 37/13 A2993 RMK AO2,M
CXP,2024-08-10 16:55,-119.7326,39.1923,1431.00,78.80,35.60,21.00,0.00,0.00,0.00,30.17,M,10.00,M,CLR,M,M,M,M,M,M,M,M,M,M,M,M,M,M,78.80,KCXP 101655Z AUTO 00000KT 10SM CLR 26/02 A3017 RMK AO2,M
INS,2024-08-10 16:55,-115.6733,36.5872,955.00,94.60,52.00,23.76,270.00,5.00,0.00,30.00,1009.40,10.00,M,CLR,M,M,M,M,M,M,M,M,M,M,M,M,M,M,91.90,KINS 101655Z AUTO 27005KT 10SM CLR 35/11 A3000 RMK AO2 SLP094 T03480112,M
RNO,2024-08-10 16:55,-119.7711,39.4839,1341.00,80.00,40.00,23.99,0.00,0.00,0.00,30.14,1014.30,10.00,M,FEW,M,M,M,15000.00,M,M,M,M,M,M,M,M,M,M,78.83,KRNO 101655Z 00000KT 10SM FEW150 27/04 A3014 RMK AO2 SLP143 T02670044,M
RTS,2024-08-10 16:55,-119.8764,39.6682,1539.00,78.80,33.80,19.55,0.00,0.00,0.00,30.19,M,10.00,M,CLR,M,M,M,M,M,M,M,M,M,M,M,M,M,M,78.80,KRTS 101655Z AUTO 00000KT 10SM CLR 26/01 A3019 RMK AO2,M
MEV,2024-08-10 16:55,-119.7500,38.9963,1441.42,78.80,39.20,24.19,0.00,0.00,0.00,30.15,M,10.00,M,CLR,M,M,M,M,M,M,M,M,M,M,M,M,M,M,78.80,KMEV 101655Z AUTO 00000KT 10SM CLR 26/04 A3015 RMK AO2,M
BAM,2024-08-10 16:55,-116.8743,40.5990,1382.36,87.80,37.40,16.86,260.00,11.00,0.00,30.11,M,10.00,14.00,CLR,M,M,M,M,M,M,M,M,M,M,M,M,M,M,84.16,KBAM 101655Z AUTO 26011G14KT 10SM CLR 31/03 A3011 RMK AO1,M
HTH,2024-08-10 16:55,-118.6315,38.5448,1282.89,82.40,37.40,20.04,330.00,5.00,0.00,30.12,M,10.00,M,CLR,M,M,M,M,M,M,M,M,M,M,M,M,M,M,80.14,KHTH 101655Z AUTO 33005KT 10SM CLR 28/03 A3012 RMK A01,M
10U,2024-08-10 16:55,-116.1876,41.9532,1637.00,82.40,33.80,17.38,230.00,10.00,0.00,30.13,M,10.00,M,CLR,M,M,M,M,M,M,M,M,M,M,M,M,M,M,80.03,K10U 101655Z AUTO 23010KT 10SM CLR 28/01 A3013 RMK AO2,M
TMT,2024-08-10 16:55,-117.1971,39.4643,1749.34,81.30,35.20,19.04,0.00,0.00,0.00,30.21,M,10.00,M,CLR,M,M,M,M,M,M,M,M,M,M,M,M,M,M,79.36,KTMT 101655Z AUTO 00000KT 10SM CLR 27/02 A3021 RMK AO2 T02740018,M
LSV,2024-08-10 16:55,-115.0343,36.2362,570.00,99.00,54.70,22.93,130.00,5.00,0.00,29.89,1008.80,10.00,M,CLR,M,M,M,M,M,M,M,M,M,M,M,M,M,M,97.29,KLSV 101655Z AUTO 13005KT 10SM CLR 37/13 A2989 RMK AO2 SLP088 T03730126 $,M
EKO,2024-08-10 16:56,-115.7860,40.8242,1367.00,81.00,39.00,22.33,220.00,4.00,0.00,30.13,1013.90,10.00,M,CLR,M,M,M,M,M,M,M,M,M,M,M,M,M,M,79.33,KEKO 101656Z AUTO 22004KT 10SM CLR 27/04 A3013 RMK AO2 SLP139 T02720039,M
WMC,2024-08-10 16:56,-117.8072,40.9019,1315.00,88.00,37.00,16.49,240.00,10.00,0.00,30.09,1013.20,10.00,20.00,CLR,M,M,M,M,M,M,M,M,M,M,M,M,M,M,84.32,KWMC 101656Z AUTO 24010G20KT 10SM CLR 31/03 A3009 RMK AO2 SLP132 T03110028,M
HND,2024-08-10 16:56,-115.1344,35.9729,742.79,97.00,60.00,29.49,M,3.00,0.00,29.99,1013.30,10.00,M,CLR,M,M,M,M,M,M,M,M,M,M,M,M,M,M,97.17,KHND 101656Z VRB03KT 10SM CLR 36/16 A2999 RMK AO2 SLP133 T03610156,M
TPH,2024-08-10 16:56,-117.0904,38.0505,1654.00,86.00,41.00,20.54,190.00,7.00,0.00,30.20,1012.30,10.00,M,CLR,M,M,M,M,M,M,M,M,M,M,M,M,M,M,82.86,KTPH 101656Z AUTO 19007KT 10SM CLR 30/05 A3020 RMK AO2 SLP123 T03000050,M
LAS,2024-08-10 16:56,-115.1634,36.0719,663.00,100.00,58.00,25.06,M,4.00,0.00,29.96,1011.00,10.00,M,FEW,FEW,M,M,12000.00,20000.00,M,M,M,M,M,M,M,M,M,99.66,KLAS 101656Z VRB04KT 10SM FEW120 FEW200 38/14 A2996 RMK AO2 SLP110 T03780144,M
05U,2024-08-10 17:10,-116.0051,39.6042,1811.23,M,M,M,0.00,0.00,0.00,30.21,M,10.00,M,CLR,M,M,M,M,M,M,M,M,M,M,M,M,M,M,M,K05U 101710Z AUTO 00000KT 10SM CLR A3021 RMK A01,M
BVU,2024-08-10 17:15,-114.8611,35.9475,671.00,100.40,55.40,22.54,160.00,5.00,0.00,29.93,M,10.00,11.00,CLR,M,M,M,M,M,M,M,M,M,M,M,M,M,M,99.06,KBVU 101715Z AUTO 16005G11KT 10SM CLR 38/13 A2993 RMK AO2,M
CXP,2024-08-10 17:15,-119.7326,39.1923,1431.00,80.60,33.80,18.42,0.00,0.00,0.00,30.16,M,10.00,M,CLR,M,M,M,M,M,M,M,M,M,M,M,M,M,M,78.88,KCXP 101715Z AUTO 00000KT 10SM CLR 27/01 A3016 RMK AO2,M
RTS,2024-08-10 17:15,-119.8764,39.6682,1539.00,80.60,32.00,17.14,110.00,3.00,0.00,30.18,M,10.00,M,CLR,M,M,M,M,M,M,M,M,M,M,M,M,M,M,78.82,KRTS 101715Z AUTO 11003KT 10SM CLR 27/00 A3018 RMK AO2,M
MEV,2024-08-10 17:15,-119.7500,38.9963,1441.42,80.60,41.00,24.46,220.00,4.00,0.00,30.15,M,10.00,M,CLR,M,M,M,M,M,M,M,M,M,M,M,M,M,M,79.20,KMEV 101715Z AUTO 22004KT 10SM CLR 27/05 A3015 RMK AO2,M
BAM,2024-08-10 17:15,-116.8743,40.5990,1382.36,89.60,37.40,15.92,230.00,10.00,0.00,30.11,M,10.00,17.00,CLR,M,M,M,M,M,M,M,M,M,M,M,M,M,M,85.67,KBAM 101715Z AUTO 23010G17KT 10SM CLR 32/03 A3011 RMK AO1,M
HTH,2024-08-10 17:15,-118.6315,38.5448,1282.89,84.20,39.20,20.29,M,5.00,0.00,30.12,M,10.00,M,CLR,M,M,M,M,M,M,M,M,M,M,M,M,M,M,81.44,KHTH 101715Z AUTO VRB05KT 10SM CLR 29/04 A3012 RMK A01,M
10U,2024-08-10 17:15,-116.1876,41.9532,1637.00,84.20,35.60,17.61,260.00,9.00,0.00,30.13,M,10.00,14.00,CLR,M,M,M,M,M,M,M,M,M,M,M,M,M,M,81.34,K10U 101715Z AUTO 26009G14KT 10SM CLR 29/02 A3013 RMK AO2,M
TMT,2024-08-10 17:15,-117.1971,39.4643,1749.34,82.60,34.00,17.40,230.00,4.00,0.00,30.21,M,10.00,M,CLR,M,M,M,M,M,M,M,M,M,M,M,M,M,M,80.17,KTMT 101715Z AUTO 23004KT 10SM CLR 28/01 A3021 RMK AO2 T02810011,M
05U,2024-08-10 17:30,-116.0051,39.6042,1811.23,M,M,M,0.00,0.00,0.00,30.21,M,10.00,M,CLR,M,M,M,M,M,M,M,M,M,M,M,M,M,M,M,K05U 101730Z AUTO 00000KT 10SM CLR A3021 RMK A01,M
BVU,2024-08-10 17:35,-114.8611,35.9475,671.00,100.40,55.40,22.54,140.00,11.00,0.00,29.93,M,10.00,16.00,CLR,M,M,M,M,M,M,M,M,M,M,M,M,M,M,99.06,KBVU 101735Z AUTO 14011G16KT 10SM CLR 38/13 A2993 RMK AO2,M
CXP,2024-08-10 17:35,-119.7326,39.1923,1431.00,82.40,33.80,17.38,0.00,0.00,0.00,30.16,M,10.00,M,CLR,M,M,M,M,M,M,M,M,M,M,M,M,M,M,80.03,KCXP 101735Z AUTO 00000KT 10SM CLR 28/01 A3016 RMK AO2,M
RTS,2024-08-10 17:35,-119.8764,39.6682,1539.00,80.60,32.00,17.14,320.00,4.00,0.00,30.18,M,10.00,M,CLR,M,M,M,M,M,M,M,M,M,M,M,M,M,M,78.82,KRTS 101735Z AUTO 32004KT 10SM CLR 27/M00 A3018 RMK AO2,M
MEV,2024-08-10 17:35,-119.7500,38.9963,1441.42,84.20,26.60,12.23,M,4.00,0.00,30.14,M,10.00,M,CLR,M,M,M,M,M,M,M,M,M,M,M,M,M,M,81.13,KMEV 101735Z AUTO VRB04KT 10SM CLR 29/M03 A3014 RMK AO2,M
BAM,2024-08-10 17:35,-116.8743,40.5990,1382.36,89.60,33.80,13.80,270.00,12.00,0.00,30.11,M,10.00,M,CLR,M,M,M,M,M,M,M,M,M,M,M,M,M,M,85.59,KBAM 101735Z AUTO 27012KT 10SM CLR 32/01 A3011 RMK AO1,M
HTH,2024-08-10 17:35,-118.6315,38.5448,1282.89,84.20,39.20,20.29,350.00,7.00,0.00,30.12,M,10.00,M,CLR,M,M,M,M,M,M,M,M,M,M,M,M,M,M,81.44,KHTH 101735Z AUTO 35007KT 10SM CLR 29/04 A3012 RMK A01,M
10U,2024-08-10 17:35,-116.1876,41.9532,1637.00,84.20,35.60,17.61,250.00,9.00,0.00,30.13,M,10.00,M,CLR,M,M,M,M,M,M,M,M,M,M,M,M,M,M,81.34,K10U 101735Z AUTO 25009KT 210V280 10SM CLR 29/02 A3013 RMK AO2,M
TMT,2024-08-10 17:35,-117.1971,39.4643,1749.34,85.30,32.00,14.72,260.00,11.00,0.00,30.21,M,10.00,M,CLR,M,M,M,M,M,M,M,M,M,M,M,M,M,M,82.10,KTMT 101735Z AUTO 26011KT 10SM CLR 30/00 A3021 RMK AO2 T02961001,M
05U,2024-08-10 17:50,-116.0051,39.6042,1811.23,M,M,M,M,4.00,0.00,30.21,M,10.00,M,CLR,M,M,M,M,M,M,M,M,M,M,M,M,M,M,M,K05U 101750Z AUTO VRB04KT 10SM CLR A3021 RMK A01,M
P68,2024-08-10 17:53,-116.0056,39.6014,1993.00,87.00,33.00,14.52,230.00,6.00,0.00,30.18,1012.50,M,M,M,M,M,M,M,M,M,M,M,M,M,M,M,M,M,83.44,KP68 101753Z AUTO 23006KT 31/01 A3018 RMK AO1 SLP125 T03060006 10311 20133 57008,M
DRA,2024-08-10 17:53,-116.0278,36.6206,1009.00,97.00,52.00,22.07,M,3.00,0.00,30.01,1010.10,10.00,M,CLR,M,M,M,M,M,M,M,M,M,M,M,M,M,M,94.38,KDRA 101753Z AUTO VRB03KT 10SM CLR 36/11 A3001 RMK AO2 SLP101 T03610111 10367 20256 50001,M
ELY,2024-08-10 17:53,-114.8453,39.2950,1909.00,84.00,47.00,27.55,M,6.00,0.00,30.22,1012.30,10.00,M,CLR,M,M,M,M,M,M,M,M,M,M,M,M,M,M,81.78,KELY 101753Z AUTO VRB06KT 10SM CLR 29/08 A3022 RMK AO2 SLP123 T02890083 10294 20133 58004,M
VGT,2024-08-10 17:53,-115.1933,36.2111,667.00,101.00,58.00,24.32,110.00,7.00,0.00,29.94,1011.90,10.00,M,CLR,M,M,M,M,M,M,M,M,M,M,M,M,M,M,100.79,KVGT 101753Z 11007KT 10SM CLR 38/14 A2994 RMK AO2 SLP119 T03830144 10383 20311 58001,M
LOL,2024-08-10 17:53,-118.5701,40.0684,1192.43,89.00,40.00,17.96,210.00,7.00,0.00,30.07,1013.20,10.00,M,CLR,M,M,M,M,M,M,M,M,M,M,M,M,M,M,85.26,KLOL 101753Z AUTO 21007KT 10SM CLR 32/04 A3007 RMK AO2 SLP132 T03170044 10317 20133 58004,M
BVU,2024-08-10 17:55,-114.8611,35.9475,671.00,102.20,55.40,21.36,150.00,13.00,0.00,29.93,M,10.00,M,CLR,M,M,M,M,M,M,M,M,M,M,M,M,M,M,101.04,KBVU 101755Z AUTO 15013KT 10SM CLR 39/13 A2993 RMK AO2,M
CXP,2024-08-10 17:55,-119.7326,39.1923,1431.00,84.20,32.00,15.25,0.00,0.00,0.00,30.16,M,10.00,M,CLR,M,M,M,M,M,M,M,M,M,M,M,M,M,M,81.28,KCXP 101755Z AUTO 00000KT 10SM CLR 29/00 A3016 RMK AO2,M
INS,2024-08-10 17:55,-115.6733,36.5872,955.00,97.00,50.70,21.03,0.00,0.00,0.00,29.99,1009.10,10.00,M,CLR,M,M,M,M,M,M,M,M,M,M,M,M,M,M,94.07,KINS 101755Z AUTO 00000KT 10SM CLR 36/10 A2999 RMK AO2 SLP091 T03620104 10364 20261 58001,M
RNO,2024-08-10 17:55,-119.7711,39.4839,1341.00,86.00,37.00,17.57,0.00,0.00,0.00,30.13,1013.50,10.00,M,FEW,M,M,M,15000.00,M,M,M,M,M,M,M,M,M,M,82.72,KRNO 101755Z 00000KT 10SM FEW150 30/03 A3013 RMK AO2 SLP135 T03000028 10300 20167 58006,M
LSV,2024-08-10 17:55,-115.0343,36.2362,570.00,100.80,53.60,20.86,180.00,4.00,0.00,29.88,1008.50,10.00,M,FEW,M,M,M,19000.00,M,M,M,M,M,M,M,M,M,M,98.87,KLSV 101755Z AUTO 18004KT 10SM FEW190 38/12 A2988 RMK AO2 SLP085 T03820120 10384 20305 55002 $,M
RTS,2024-08-10 17:55,-119.8764,39.6682,1539.00,84.20,32.00,15.25,0.00,0.00,0.00,30.17,M,10.00,M,CLR,M,M,M,M,M,M,M,M,M,M,M,M,M,M,81.28,KRTS 101755Z AUTO 00000KT 10SM CLR 29/M00 A3017 RMK AO2,M
MEV,2024-08-10 17:55,-119.7500,38.9963,1441.42,84.20,28.40,13.18,0.00,0.00,0.00,30.14,M,10.00,M,CLR,M,M,M,M,M,M,M,M,M,M,M,M,M,M,81.25,KMEV 101755Z AUTO 00000KT 10SM CLR 29/M02 A3014 RMK AO2,M
BAM,2024-08-10 17:55,-116.8743,40.5990,1382.36,89.60,35.60,14.83,250.00,10.00,0.00,30.10,M,10.00,17.00,CLR,M,M,M,M,M,M,M,M,M,M,M,M,M,M,85.62,KBAM 101755Z AUTO 25010G17KT 10SM CLR 32/02 A3010 RMK AO1,M
HTH,2024-08-10 17:55,-118.6315,38.5448,1282.89,86.00,35.60,16.63,330.00,5.00,0.00,30.11,M,10.00,13.00,CLR,M,M,M,M,M,M,M,M,M,M,M,M,M,M,82.69,KHTH 101755Z AUTO 33005G13KT 10SM CLR 30/02 A3011 RMK A01,M
10U,2024-08-10 17:55,-116.1876,41.9532,1637.00,86.00,35.60,16.63,270.00,9.00,0.00,30.13,M,10.00,18.00,CLR,M,M,M,M,M,M,M,M,M,M,M,M,M,M,82.69,K10U 101755Z AUTO 27009G18KT 240V300 10SM CLR 30/02 A3013 RMK AO2,M
TMT,2024-08-10 17:55,-117.1971,39.4643,1749.34,86.00,30.00,13.28,250.00,4.00,0.00,30.20,M,10.00,M,CLR,M,M,M,M,M,M,M,M,M,M,M,M,M,M,82.64,KTMT 101755Z AUTO 25004KT 10SM CLR 30/M01 A3020 RMK AO2 T02991012 10300 20065,M
EKO,2024-08-10 17:56,-115.7860,40.8242,1367.00,87.00,37.00,17.02,230.00,11.00,0.00,30.12,1013.20,10.00,M,CLR,M,M,M,M,M,M,M,M,M,M,M,M,M,M,83.51,KEKO 101756Z AUTO 23011KT 10SM CLR 31/03 A3012 RMK AO2 SLP132 T03060028 10306 20100 58009,M
WMC,2024-08-10 17:56,-117.8072,40.9019,1315.00,90.00,36.00,14.88,250.00,12.00,0.00,30.09,1013.20,10.00,20.00,CLR,M,M,M,M,M,M,M,M,M,M,M,M,M,M,85.97,KWMC 101756Z AUTO 25012G20KT 10SM CLR 32/02 A3009 RMK AO2 SLP132 T03220022 10322 20150 50001,M
HND,2024-08-10 17:56,-115.1344,35.9729,742.79,100.00,60.00,26.92,M,3.00,0.00,29.98,1012.80,10.00,M,CLR,M,M,M,M,M,M,M,M,M,M,M,M,M,M,100.60,KHND 101756Z VRB03KT 10SM CLR 38/16 A2998 RMK AO2 SLP128 T03780156 10378 20289 58002,M
TPH,2024-08-10 17:56,-117.0904,38.0505,1654.00,88.00,43.00,20.82,170.00,5.00,0.00,30.19,1012.20,10.00,M,CLR,M,M,M,M,M,M,M,M,M,M,M,M,M,M,84.58,KTPH 101756Z AUTO 17005KT 10SM CLR 31/06 A3019 RMK AO2 SLP122 T03110061 10317 20194 58002,M
LAS,2024-08-10 17:56,-115.1634,36.0719,663.00,103.00,57.00,22.09,M,4.00,0.00,29.95,1010.70,10.00,M,FEW,FEW,M,M,12000.00,20000.00,M,M,M,M,M,M,M,M,M,102.59,KLAS 101756Z VRB04KT 10SM FEW120 FEW200 39/14 A2995 RMK AO2 SLP107 CB DSNT NW ACC DSNT E T03940139 10394 20317 58000,M
NFL,2024-08-10 17:57,-118.7010,39.4166,1199.00,88.00,37.00,16.49,200.00,3.00,0.00,30.09,1015.70,10.00,M,CLR,M,M,M,M,M,M,M,M,M,M,M,M,M,M,84.32,KNFL 101757Z AUTO 20003KT 10SM CLR 31/03 A3009 RMK AO2 SLP157 T03110028 10311 20144 58003,M
05U,2024-08-10 18:10,-116.0051,39.6042,1811.23,M,M,M,0.00,0.00,0.00,30.21,M,10.00,M,CLR,M,M,M,M,M,M,M,M,M,M,M,M,M,M,M,K05U 101810Z AUTO 00000KT 10SM CLR A3021 RMK A01,M
BVU,2024-08-10 18:15,-114.8611,35.9475,671.00,102.20,55.40,21.36,140.00,11.00,0.00,29.92,M,10.00,17.00,CLR,M,M,M,M,M,M,M,M,M,M,M,M,M,M,101.04,KBVU 101815Z AUTO 14011G17KT 10SM CLR 39/13 A2992 RMK AO2,M
CXP,2024-08-10 18:15,-119.7326,39.1923,1431.00,86.00,32.00,14.40,M,3.00,0.00,30.15,M,10.00,M,CLR,M,M,M,M,M,M,M,M,M,M,M,M,M,M,82.64,KCXP 101815Z AUTO VRB03KT 10SM CLR 30/00 A3015 RMK AO2,M
RTS,2024-08-10 18:15,-119.8764,39.6682,1539.00,84.20,30.20,14.18,M,6.00,0.00,30.17,M,10.00,13.00,CLR,M,M,M,M,M,M,M,M,M,M,M,M,M,M,81.26,KRTS 101815Z AUTO VRB06G13KT 10SM CLR 29/M01 A3017 RMK AO2,M
MEV,2024-08-10 18:15,-119.7500,38.9963,1441.42,84.20,32.00,15.25,0.00,0.00,0.00,30.13,M,10.00,M,CLR,M,M,M,M,M,M,M,M,M,M,M,M,M,M,81.28,KMEV 101815Z AUTO 00000KT 10SM CLR 29/M00 A3013 RMK AO2,M
BAM,2024-08-10 18:15,-116.8743,40.5990,1382.36,91.40,32.00,12.14,230.00,15.00,0.00,30.10,M,10.00,19.00,CLR,M,M,M,M,M,M,M,M,M,M,M,M,M,M,86.91,KBAM 101815Z AUTO 23015G19KT 10SM CLR 33/00 A3010 RMK AO1,M
HTH,2024-08-10 18:15,-118.6315,38.5448,1282.89,86.00,33.80,15.48,350.00,8.00,0.00,30.11,M,10.00,M,CLR,M,M,M,M,M,M,M,M,M,M,M,M,M,M,82.66,KHTH 101815Z AUTO 35008KT 330V040 10SM CLR 30/01 A3011 RMK A01,M
10U,2024-08-10 18:15,-116.1876,41.9532,1637.00,86.00,33.80,15.48,260.00,10.00,0.00,30.13,M,10.00,18.00,CLR,M,M,M,M,M,M,M,M,M,M,M,M,M,M,82.66,K10U 101815Z AUTO 26010G18KT 10SM CLR 30/01 A3013 RMK AO2,M
TMT,2024-08-10 18:15,-117.1971,39.4643,1749.34,87.30,29.00,12.23,290.00,9.00,0.00,30.19,M,10.00,M,CLR,M,M,M,M,M,M,M,M,M,M,M,M,M,M,83.53,KTMT 101815Z AUTO 29009KT 10SM CLR 31/M02 A3019 RMK AO2 T03071016,M
05U,2024-08-10 18:30,-116.0051,39.6042,1811.23,M,M,M,270.00,13.00,0.00,30.20,M,10.00,M,CLR,M,M,M,M,M,M,M,M,M,M,M,M,M,M,M,K05U 101830Z AUTO 27013KT 10SM CLR A3020 RMK A01,M
10U,2024-08-10 18:30,-116.1876,41.9532,1637.00,86.00,33.80,15.48,300.00,10.00,0.00,30.13,M,10.00,18.00,CLR,M,M,M,M,M,M,M,M,M,M,M,M,M,M,82.66,K10U 101830Z AUTO 30010G18KT 270V330 10SM CLR 30/01 A3013 RMK AO2,M
BVU,2024-08-10 18:35,-114.8611,35.9475,671.00,102.20,55.40,21.36,150.00,8.00,0.00,29.92,M,10.00,20.00,CLR,M,M,M,M,M,M,M,M,M,M,M,M,M,M,101.04,KBVU 101835Z AUTO 15008G20KT 110V230 10SM CLR 39/13 A2992 RMK AO2,M
CXP,2024-08-10 18:35,-119.7326,39.1923,1431.00,86.00,32.00,14.40,0.00,0.00,0.00,30.14,M,10.00,M,CLR,M,M,M,M,M,M,M,M,M,M,M,M,M,M,82.64,KCXP 101835Z AUTO 00000KT 10SM CLR 30/M00 A3014 RMK AO2,M
RTS,2024-08-10 18:35,-119.8764,39.6682,1539.00,84.20,30.20,14.18,340.00,7.00,0.00,30.16,M,10.00,M,CLR,M,M,M,M,M,M,M,M,M,M,M,M,M,M,81.26,KRTS 101835Z AUTO 34007KT 310V010 10SM CLR 29/M01 A3016 RMK AO2,M
MEV,2024-08-10 18:35,-119.7500,38.9963,1441.42,86.00,24.80,10.72,70.00,4.00,0.00,30.13,M,10.00,M,CLR,M,M,M,M,M,M,M,M,M,M,M,M,M,M,82.26,KMEV 101835Z AUTO 07004KT 10SM CLR 30/M04 A3013 RMK AO2,M
BAM,2024-08-10 18:35,-116.8743,40.5990,1382.36,91.40,32.00,12.14,260.00,14.00,0.00,30.09,M,10.00,18.00,CLR,M,M,M,M,M,M,M,M,M,M,M,M,M,M,86.91,KBAM 101835Z AUTO 26014G18KT 10SM CLR 33/00 A3009 RMK AO1,M
HTH,2024-08-10 18:35,-118.6315,38.5448,1282.89,87.80,33.80,14.61,350.00,6.00,0.00,30.10,M,10.00,12.00,CLR,M,M,M,M,M,M,M,M,M,M,M,M,M,M,84.10,KHTH 101835Z AUTO 35006G12KT 10SM CLR 31/01 A3010 RMK A01,M
TMT,2024-08-10 18:35,-117.1971,39.4643,1749.34,88.00,29.30,12.11,240.00,14.00,0.00,30.19,M,10.00,17.00,CLR,M,M,M,M,M,M,M,M,M,M,M,M,M,M,84.07,KTMT 101835Z AUTO 24014G17KT 10SM CLR 31/M01 A3019 RMK AO2 T03111015,M
05U,2024-08-10 18:50,-116.0051,39.6042,1811.23,M,M,M,250.00,12.00,0.00,30.20,M,10.00,M,CLR,M,M,M,M,M,M,M,M,M,M,M,M,M,M,M,K05U 101850Z AUTO 25012KT 10SM CLR A3020 RMK A01,M
P68,2024-08-10 18:53,-116.0056,39.6014,1993.00,90.00,33.00,13.20,250.00,9.00,0.00,30.17,1012.10,M,19.00,M,M,M,M,M,M,M,M,M,M,M,M,M,M,M,85.92,KP68 101853Z AUTO 25009G19KT 32/01 A3017 RMK AO1 SLP121 T03220006,M
DRA,2024-08-10 18:53,-116.0278,36.6206,1009.00,102.00,53.00,19.68,230.00,14.00,0.00,29.99,1009.50,10.00,25.00,CLR,M,M,M,M,M,M,M,M,M,M,M,M,M,M,99.96,KDRA 101853Z AUTO 23014G25KT 10SM CLR 39/12 A2999 RMK AO2 SLP095 T03890117,M
ELY,2024-08-10 18:53,-114.8453,39.2950,1909.00,88.00,44.00,21.63,230.00,9.00,0.00,30.20,1011.50,10.00,25.00,CLR,M,M,M,M,M,M,M,M,M,M,M,M,M,M,84.65,KELY 101853Z AUTO 23009G25KT 10SM CLR 31/07 A3020 RMK AO2 SLP115 T03110067,M
VGT,2024-08-10 18:53,-115.1933,36.2111,667.00,104.00,57.00,21.45,200.00,8.00,0.00,29.92,1011.20,10.00,M,CLR,M,M,M,M,M,M,M,M,M,M,M,M,M,M,103.70,KVGT 101853Z 20008KT 10SM CLR 40/14 A2992 RMK AO2 LTG DSNT N SLP112 T04000139,M
LOL,2024-08-10 18:53,-118.5701,40.0684,1192.43,91.00,35.00,13.86,M,6.00,0.00,30.06,1012.60,10.00,M,CLR,M,M,M,M,M,M,M,M,M,M,M,M,M,M,86.81,KLOL 101853Z AUTO VRB06KT 10SM CLR 33/02 A3006 RMK AO2 SLP126 T03280017,M
BVU,2024-08-10 18:55,-114.8611,35.9475,671.00,104.00,55.40,20.24,140.00,11.00,0.00,29.91,M,10.00,18.00,CLR,M,M,M,M,M,M,M,M,M,M,M,M,M,M,103.01,KBVU 101855Z AUTO 14011G18KT 10SM CLR 40/13 A2991 RMK AO2,M
CXP,2024-08-10 18:55,-119.7326,39.1923,1431.00,89.60,28.40,11.09,200.00,8.00,0.00,30.14,M,10.00,M,CLR,M,M,M,M,M,M,M,M,M,M,M,M,M,M,85.17,KCXP 101855Z AUTO 20008KT 150V250 10SM CLR 32/M02 A3014 RMK AO2,M
INS,2024-08-10 18:55,-115.6733,36.5872,955.00,100.00,48.70,17.82,310.00,4.00,0.00,29.98,1008.70,10.00,M,CLR,M,M,M,M,M,M,M,M,M,M,M,M,M,M,96.70,KINS 101855Z AUTO 31004KT 10SM CLR 38/09 A2998 RMK AO2 SLP087 T03770093,M
RNO,2024-08-10 18:55,-119.7711,39.4839,1341.00,86.00,33.00,14.99,0.00,0.00,0.00,30.11,1013.20,10.00,M,SCT,M,M,M,21000.00,M,M,M,M,M,M,M,M,M,M,82.65,KRNO 101855Z 00000KT 10SM SCT210 30/01 A3011 RMK AO2 SLP132 T03000006,M
RTS,2024-08-10 18:55,-119.8764,39.6682,1539.00,84.20,30.20,14.18,0.00,0.00,0.00,30.16,M,10.00,M,CLR,M,M,M,M,M,M,M,M,M,M,M,M,M,M,81.26,KRTS 101855Z AUTO 00000KT 10SM CLR 29/M01 A3016 RMK AO2,M
MEV,2024-08-10 18:55,-119.7500,38.9963,1441.42,87.80,26.60,10.91,60.00,3.00,0.00,30.12,M,9.00,M,CLR,M,M,M,M,M,M,M,M,M,M,M,M,M,M,83.69,KMEV 101855Z AUTO 06003KT 9SM CLR 31/M03 A3012 RMK AO2,M
HTH,2024-08-10 18:55,-118.6315,38.5448,1282.89,89.60,32.00,12.84,320.00,5.00,0.00,30.09,M,10.00,11.00,CLR,M,M,M,M,M,M,M,M,M,M,M,M,M,M,85.54,KHTH 101855Z AUTO 32005G11KT 10SM CLR 32/00 A3009 RMK A01,M
10U,2024-08-10 18:55,-116.1876,41.9532,1637.00,87.80,32.00,13.59,240.00,13.00,0.00,30.12,M,10.00,M,CLR,M,M,M,M,M,M,M,M,M,M,M,M,M,M,84.08,K10U 101855Z AUTO 24013KT 10SM CLR 31/00 A3012 RMK AO2,M
BAM,2024-08-10 18:55,-116.8743,40.5990,1382.36,93.20,33.80,12.34,250.00,13.00,0.00,30.09,M,10.00,23.00,CLR,M,M,M,M,M,M,M,M,M,M,M,M,M,M,88.55,KBAM 101855Z AUTO 25013G23KT 210V280 10SM CLR 34/01 A3009 RMK AO1,M
TMT,2024-08-10 18:55,-117.1971,39.4643,1749.34,88.70,31.60,13.00,240.00,15.00,0.00,30.19,M,10.00,22.00,CLR,M,M,M,M,M,M,M,M,M,M,M,M,M,M,84.82,KTMT 101855Z AUTO 24015G22KT 10SM CLR 32/00 A3019 RMK AO2 T03151002,M
LSV,2024-08-10 18:55,-115.0343,36.2362,570.00,103.00,54.00,19.81,160.00,3.00,0.00,29.86,1007.70,10.00,M,CLR,M,M,M,M,M,M,M,M,M,M,M,M,M,M,101.38,KLSV 101855Z AUTO 16003KT 10SM CLR 40/12 A2986 RMK AO2 SLP077 T03950123 $,M
EKO,2024-08-10 18:56,-115.7860,40.8242,1367.00,91.00,30.00,11.33,270.00,17.00,0.00,30.10,1012.40,10.00,25.00,CLR,M,M,M,M,M,M,M,M,M,M,M,M,M,M,86.38,KEKO 101856Z AUTO 27017G25KT 10SM CLR 33/M01 A3010 RMK AO2 SLP124 T03281011,M
WMC,2024-08-10 18:56,-117.8072,40.9019,1315.00,92.00,35.00,13.43,260.00,14.00,0.00,30.07,1011.90,10.00,23.00,CLR,M,M,M,M,M,M,M,M,M,M,M,M,M,M,87.68,KWMC 101856Z AUTO 26014G23KT 10SM CLR 33/02 A3007 RMK AO2 SLP119 T03330017,M
HND,2024-08-10 18:56,-115.1344,35.9729,742.79,104.00,58.00,22.23,230.00,7.00,0.00,29.96,1012.20,10.00,M,CLR,M,M,M,M,M,M,M,M,M,M,M,M,M,M,104.17,KHND 101856Z 23007KT 10SM CLR 40/14 A2996 RMK AO2 SLP122 T04000144,M
TPH,2024-08-10 18:56,-117.0904,38.0505,1654.00,91.00,42.00,18.23,290.00,6.00,0.00,30.17,1011.40,10.00,18.00,CLR,M,M,M,M,M,M,M,M,M,M,M,M,M,M,87.11,KTPH 101856Z AUTO 29006G18KT 10SM CLR 33/06 A3017 RMK AO2 SLP114 T03280056,M
LAS,2024-08-10 18:56,-115.1634,36.0719,663.00,105.00,56.00,20.08,M,4.00,0.00,29.93,1010.00,10.00,M,FEW,FEW,M,M,12000.00,20000.00,M,M,M,M,M,M,M,M,M,104.36,KLAS 101856Z VRB04KT 10SM FEW120 FEW200 41/13 A2993 RMK AO2 SLP100 CB DSNT SE AND NW-N ACC DSNT E T04060133,M
LSV,2024-08-10 19:05,-115.0343,36.2362,570.00,104.00,53.60,18.95,130.00,8.00,0.00,29.86,1007.80,10.00,M,FEW,M,M,M,12000.00,M,M,M,M,M,M,M,M,M,M,102.31,KLSV 101905Z 13008KT 10SM FEW120 40/12 A2986 RMK LTG W 24 SLP078 $,M
LSV,2024-08-10 19:08,-115.0343,36.2362,570.00,104.00,53.60,18.95,110.00,7.00,0.00,29.86,1007.80,10.00,M,FEW,M,M,M,12000.00,M,M,M,M,M,M,M,M,M,M,102.31,KLSV 101908Z 11007KT 10SM FEW120 40/12 A2986 RMK A02A LTG W 24 SLP078 $,M
05U,2024-08-10 19:10,-116.0051,39.6042,1811.23,M,M,M,0.00,0.00,0.00,30.19,M,10.00,18.00,CLR,M,M,M,M,M,M,M,M,M,M,M,M,M,M,M,K05U 101910Z AUTO 00000G18KT 10SM CLR A3019 RMK A01,M
BVU,2024-08-10 19:15,-114.8611,35.9475,671.00,104.00,53.60,18.95,130.00,13.00,0.00,29.90,M,10.00,19.00,CLR,M,M,M,M,M,M,M,M,M,M,M,M,M,M,102.31,KBVU 101915Z AUTO 13013G19KT 10SM CLR 40/12 A2990 RMK AO2,M
CXP,2024-08-10 19:15,-119.7326,39.1923,1431.00,87.80,30.20,12.64,270.00,7.00,0.00,30.14,M,9.00,M,CLR,M,M,M,M,M,M,M,M,M,M,M,M,M,M,84.01,KCXP 101915Z AUTO 27007KT 9SM CLR 31/M01 A3014 RMK AO2,M
HTH,2024-08-10 19:15,-118.6315,38.5448,1282.89,89.60,32.00,12.84,330.00,7.00,0.00,30.09,M,10.00,M,CLR,M,M,M,M,M,M,M,M,M,M,M,M,M,M,85.54,KHTH 101915Z AUTO 33007KT 10SM CLR 32/M00 A3009 RMK A01,M
10U,2024-08-10 19:15,-116.1876,41.9532,1637.00,87.80,33.80,14.61,280.00,8.00,0.00,30.11,M,10.00,17.00,CLR,M,M,M,M,M,M,M,M,M,M,M,M,M,M,84.10,K10U 101915Z AUTO 28008G17KT 250V310 10SM CLR 31/01 A3011 RMK AO2,M
BAM,2024-08-10 19:15,-116.8743,40.5990,1382.36,91.40,33.80,13.05,250.00,7.00,0.00,30.08,M,10.00,M,CLR,M,M,M,M,M,M,M,M,M,M,M,M,M,M,87.13,KBAM 101915Z AUTO 25007KT 10SM CLR 33/01 A3008 RMK AO1,M
TMT,2024-08-10 19:15,-117.1971,39.4643,1749.34,89.00,32.00,13.09,290.00,15.00,0.00,30.18,M,10.00,19.00,CLR,M,M,M,M,M,M,M,M,M,M,M,M,M,M,85.07,KTMT 101915Z AUTO 29015G19KT 10SM CLR 32/00 A3018 RMK AO2 T03161001,M
05U,2024-08-10 19:30,-116.0051,39.6042,1811.23,M,M,M,260.00,12.00,0.00,30.18,M,10.00,M,CLR,M,M,M,M,M,M,M,M,M,M,M,M,M,M,M,K05U 101930Z AUTO 26012KT 10SM CLR A3018 RMK A01,M
BVU,2024-08-10 19:35,-114.8611,35.9475,671.00,104.00,53.60,18.95,M,5.00,0.00,29.90,M,10.00,17.00,CLR,M,M,M,M,M,M,M,M,M,M,M,M,M,M,102.31,KBVU 101935Z AUTO VRB05G17KT 10SM CLR 40/12 A2990 RMK AO2,M
CXP,2024-08-10 19:35,-119.7326,39.1923,1431.00,89.60,30.20,11.94,290.00,11.00,0.00,30.13,M,10.00,16.00,CLR,M,M,M,M,M,M,M,M,M,M,M,M,M,M,85.34,KCXP 101935Z AUTO 29011G16KT 10SM CLR 32/M01 A3013 RMK AO2,M
BAM,2024-08-10 19:35,-116.8743,40.5990,1382.36,95.00,32.00,10.85,240.00,9.00,0.00,30.08,M,10.00,19.00,CLR,M,M,M,M,M,M,M,M,M,M,M,M,M,M,89.71,KBAM 101935Z AUTO 24009G19KT 10SM CLR 35/00 A3008 RMK AO1,M
HTH,2024-08-10 19:35,-118.6315,38.5448,1282.89,91.40,32.00,12.14,340.00,7.00,0.00,30.08,M,10.00,12.00,CLR,M,M,M,M,M,M,M,M,M,M,M,M,M,M,86.91,KHTH 101935Z AUTO 34007G12KT 10SM CLR 33/00 A3008 RMK A01,M
10U,2024-08-10 19:35,-116.1876,41.9532,1637.00,89.60,32.00,12.84,290.00,8.00,0.00,30.10,M,10.00,18.00,CLR,M,M,M,M,M,M,M,M,M,M,M,M,M,M,85.54,K10U 101935Z AUTO 29008G18KT 220V320 10SM CLR 32/M00 A3010 RMK AO2,M
TMT,2024-08-10 19:35,-117.1971,39.4643,1749.34,89.40,32.00,12.92,270.00,14.00,0.00,30.18,M,10.00,22.00,CLR,M,M,M,M,M,M,M,M,M,M,M,M,M,M,85.39,KTMT 101935Z AUTO 27014G22KT 10SM CLR 32/00 A3018 RMK AO2 T03190001,M
05U,2024-08-10 19:50,-116.0051,39.6042,1811.23,M,M,M,270.00,12.00,0.00,30.17,M,10.00,18.00,CLR,M,M,M,M,M,M,M,M,M,M,M,M,M,M,M,K05U 101950Z AUTO 27012G18KT 10SM CLR A3017 RMK A01,M
P68,2024-08-10 19:53,-116.0056,39.6014,1993.00,93.00,31.00,11.09,260.00,11.00,0.00,30.14,1011.00,M,19.00,M,M,M,M,M,M,M,M,M,M,M,M,M,M,M,88.03,KP68 101953Z AUTO 26011G19KT 220V280 34/M01 A3014 RMK AO1 SLP110 T03391006,M
DRA,2024-08-10 19:53,-116.0278,36.6206,1009.00,104.00,51.00,17.22,220.00,11.00,0.00,29.98,1008.80,10.00,24.00,CLR,M,M,M,M,M,M,M,M,M,M,M,M,M,M,101.44,KDRA 101953Z AUTO 22011G24KT 10SM CLR 40/11 A2998 RMK AO2 SLP088 T04000106,M
ELY,2024-08-10 19:53,-114.8453,39.2950,1909.00,89.00,44.00,20.96,200.00,14.00,0.00,30.19,1011.30,10.00,22.00,CLR,M,M,M,M,M,M,M,M,M,M,M,31.00,220.00,2024-08-10 19:20,85.50,KELY 101953Z AUTO 20014G22KT 10SM CLR 32/07 A3019 RMK AO2 PK WND 22031/1920 SLP113 T03170067,M
VGT,2024-08-10 19:53,-115.1933,36.2111,667.00,105.00,57.00,20.82,200.00,8.00,0.00,29.90,1010.50,10.00,19.00,CLR,M,M,M,M,M,M,M,M,M,M,M,M,M,M,104.82,KVGT 101953Z 20008G19KT 150V220 10SM CLR 41/14 A2990 RMK AO2 LTG DSNT N SLP105 T04060139,M
LOL,2024-08-10 19:53,-118.5701,40.0684,1192.43,95.00,31.00,10.42,240.00,16.00,0.00,30.04,1012.20,10.00,22.00,CLR,M,M,M,M,M,M,M,M,M,M,M,M,M,M,89.58,KLOL 101953Z AUTO 24016G22KT 10SM CLR 35/M01 A3004 RMK AO2 SLP122 T03501006,M
BVU,2024-08-10 19:55,-114.8611,35.9475,671.00,104.00,53.60,18.95,180.00,7.00,0.00,29.89,M,10.00,19.00,CLR,M,M,M,M,M,M,M,M,M,M,M,M,M,M,102.31,KBVU 101955Z AUTO 18007G19KT 130V230 10SM CLR 40/12 A2989 RMK AO2,M
CXP,2024-08-10 19:55,-119.7326,39.1923,1431.00,91.40,30.20,11.28,270.00,10.00,0.00,30.13,M,10.00,M,CLR,M,M,M,M,M,M,M,M,M,M,M,M,M,M,86.71,KCXP 101955Z AUTO 27010KT 10SM CLR 33/M01 A3013 RMK AO2,M
INS,2024-08-10 19:55,-115.6733,36.5872,955.00,103.00,48.00,15.87,220.00,7.00,0.00,29.96,1008.00,10.00,M,CLR,M,M,M,M,M,M,M,M,M,M,M,M,M,M,99.59,KINS 101955Z AUTO 22007KT 10SM CLR 39/09 A2996 RMK AO2 SLP080 T03940089,M
RNO,2024-08-10 19:55,-119.7711,39.4839,1341.00,90.00,33.00,13.20,120.00,7.00,0.00,30.09,1012.40,10.00,M,SCT,M,M,M,21000.00,M,M,M,M,M,M,M,M,M,M,85.92,KRNO 101955Z 12007KT 10SM SCT210 32/01 A3009 RMK AO2 SLP124 T03220006,M
RTS,2024-08-10 19:55,-119.8764,39.6682,1539.00,87.80,30.20,12.64,360.00,6.00,0.00,30.15,M,10.00,M,CLR,M,M,M,M,M,M,M,M,M,M,M,M,M,M,84.01,KRTS 101955Z AUTO 36006KT 10SM CLR 31/M01 A3015 RMK AO2,M
MEV,2024-08-10 19:55,-119.7500,38.9963,1441.42,93.20,28.40,9.91,M,6.00,0.00,30.11,M,8.00,13.00,CLR,M,M,M,M,M,M,M,M,M,M,M,M,M,M,87.89,KMEV 101955Z AUTO VRB06G13KT 8SM CLR 34/M02 A3011 RMK AO2,M
BAM,2024-08-10 19:55,-116.8743,40.5990,1382.36,95.00,32.00,10.85,240.00,16.00,0.00,30.08,M,10.00,22.00,CLR,M,M,M,M,M,M,M,M,M,M,M,M,M,M,89.71,KBAM 101955Z AUTO 24016G22KT 10SM CLR 35/00 A3008 RMK AO1,M
HTH,2024-08-10 19:55,-118.6315,38.5448,1282.89,91.40,30.20,11.28,350.00,7.00,0.00,30.07,M,10.00,13.00,CLR,M,M,M,M,M,M,M,M,M,M,M,M,M,M,86.71,KHTH 101955Z AUTO 35007G13KT 10SM CLR 33/M01 A3007 RMK A01,M
10U,2024-08-10 19:55,-116.1876,41.9532,1637.00,89.60,32.00,12.84,260.00,11.00,0.00,30.10,M,10.00,24.00,CLR,M,M,M,M,M,M,M,M,M,M,M,M,M,M,85.54,K10U 101955Z AUTO 26011G24KT 10SM CLR 32/M00 A3010 RMK AO2,M
LSV,2024-08-10 19:55,-115.0343,36.2362,570.00,105.80,52.00,16.94,130.00,5.00,0.00,29.84,1007.10,10.00,M,CLR,M,M,M,M,M,M,M,M,M,M,M,M,M,M,103.64,KLSV 101955Z AUTO 13005KT 10SM CLR 41/11 A2984 RMK AO2 SLP071 T04100111 $,M
TMT,2024-08-10 19:55,-117.1971,39.4643,1749.34,90.70,32.00,12.41,250.00,16.00,0.00,30.18,M,10.00,21.00,CLR,M,M,M,M,M,M,M,M,M,M,M,M,M,M,86.38,KTMT 101955Z AUTO 25016G21KT 10SM CLR 33/00 A3018 RMK AO2 T03260001,M
EKO,2024-08-10 19:56,-115.7860,40.8242,1367.00,92.00,30.00,10.99,290.00,9.00,0.00,30.09,1012.20,10.00,M,CLR,M,M,M,M,M,M,M,M,M,M,M,29.00,250.00,2024-08-10 19:25,87.15,KEKO 101956Z AUTO 29009KT 10SM CLR 33/M01 A3009 RMK AO2 PK WND 25029/1925 SLP122 T03331011,M
WMC,2024-08-10 19:56,-117.8072,40.9019,1315.00,95.00,34.00,11.76,310.00,10.00,0.00,30.06,1011.60,10.00,M,CLR,M,M,M,M,M,M,M,M,M,M,M,27.00,280.00,2024-08-10 19:39,90.00,KWMC 101956Z AUTO 31010KT 10SM CLR 35/01 A3006 RMK AO2 PK WND 28027/1939 SLP116 T03500011,M
HND,2024-08-10 19:56,-115.1344,35.9729,742.79,105.00,58.00,21.58,160.00,5.00,0.00,29.94,1011.50,10.00,14.00,CLR,M,M,M,M,M,M,M,M,M,M,M,M,M,M,105.30,KHND 101956Z 16005G14KT 10SM CLR 41/14 A2994 RMK AO2 SLP115 T04060144,M
TPH,2024-08-10 19:56,-117.0904,38.0505,1654.00,93.00,42.00,17.13,220.00,8.00,0.00,30.15,1010.40,10.00,15.00,FEW,M,M,M,11000.00,M,M,M,M,M,M,M,M,M,M,88.92,KTPH 101956Z AUTO 22008G15KT 10SM FEW110 34/06 A3015 RMK AO2 SLP104 T03390056,M
LAS,2024-08-10 19:56,-115.1634,36.0719,663.00,108.00,56.00,18.38,50.00,8.00,0.00,29.91,1009.00,10.00,M,FEW,FEW,M,M,12000.00,23000.00,M,M,M,M,M,M,M,M,M,107.62,KLAS 101956Z 05008KT 10SM FEW120 FEW230 42/13 A2991 RMK AO2 SLP090 CB DSNT NE AND N ACC DSNT E T04220133,M
NFL,2024-08-10 19:57,-118.7010,39.4166,1199.00,93.00,34.00,12.51,320.00,7.00,0.00,30.06,1014.60,10.00,M,CLR,M,M,M,M,M,M,M,M,M,M,M,M,M,M,88.42,KNFL 101957Z AUTO 32007KT 10SM CLR 34/01 A3006 RMK AO2 SLP146 T03390011,M
05U,2024-08-10 20:10,-116.0051,39.6042,1811.23,M,M,M,0.00,0.00,0.00,30.16,M,10.00,15.00,CLR,M,M,M,M,M,M,M,M,M,M,M,M,M,M,M,K05U 102010Z AUTO 00000G15KT 10SM CLR A3016 RMK A01,M
BVU,2024-08-10 20:15,-114.8611,35.9475,671.00,105.80,53.60,17.97,140.00,8.00,0.00,29.88,M,10.00,18.00,CLR,M,M,M,M,M,M,M,M,M,M,M,M,M,M,104.23,KBVU 102015Z AUTO 14008G18KT 10SM CLR 41/12 A2988 RMK AO2,M
CXP,2024-08-10 20:15,-119.7326,39.1923,1431.00,91.40,32.00,12.14,260.00,9.00,0.00,30.13,M,10.00,M,CLR,M,M,M,M,M,M,M,M,M,M,M,M,M,M,86.91,KCXP 102015Z AUTO 26009KT 10SM CLR 33/M00 A3013 RMK AO2,M
RTS,2024-08-10 20:15,-119.8764,39.6682,1539.00,89.60,28.40,11.09,300.00,12.00,0.00,30.14,M,10.00,17.00,CLR,M,M,M,M,M,M,M,M,M,M,M,M,M,M,85.17,KRTS 102015Z AUTO 30012G17KT 10SM CLR 32/M02 A3014 RMK AO2,M
MEV,2024-08-10 20:15,-119.7500,38.9963,1441.42,91.40,28.40,10.48,0.00,0.00,0.00,30.11,M,10.00,11.00,CLR,M,M,M,M,M,M,M,M,M,M,M,M,M,M,86.53,KMEV 102015Z AUTO 00000G11KT 10SM CLR 33/M02 A3011 RMK AO2,M
BAM,2024-08-10 20:15,-116.8743,40.5990,1382.36,95.00,30.20,10.09,240.00,10.00,0.00,30.07,M,10.00,M,CLR,M,M,M,M,M,M,M,M,M,M,M,M,M,M,89.48,KBAM 102015Z AUTO 24010KT 10SM CLR 35/M01 A3007 RMK AO1,M
HTH,2024-08-10 20:15,-118.6315,38.5448,1282.89,93.20,30.20,10.67,320.00,9.00,0.00,30.06,M,10.00,M,CLR,M,M,M,M,M,M,M,M,M,M,M,M,M,M,88.09,KHTH 102015Z AUTO 32009KT 10SM CLR 34/M01 A3006 RMK A01,M
10U,2024-08-10 20:15,-116.1876,41.9532,1637.00,89.60,28.40,11.09,250.00,14.00,0.00,30.10,M,10.00,19.00,CLR,M,M,M,M,M,M,M,M,M,M,M,M,M,M,85.17,K10U 102015Z AUTO 25014G19KT 10SM CLR 32/M02 A3010 RMK AO2,M
TMT,2024-08-10 20:15,-117.1971,39.4643,1749.34,90.30,32.00,12.56,260.00,15.00,0.00,30.18,M,10.00,24.00,CLR,M,M,M,M,M,M,M,M,M,M,M,M,M,M,86.07,KTMT 102015Z AUTO 26015G24KT 10SM CLR 32/00 A3018 RMK AO2 T03240000,M
INS,2024-08-10 20:26,-115.6733,36.5872,955.00,104.00,50.00,16.59,160.00,12.00,0.00,29.93,1006.90,10.00,22.00,CLR,M,M,M,M,M,M,M,M,M,M,M,M,M,M,101.14,KINS 102026Z AUTO 16012G22KT 10SM CLR 40/10 A2993 RMK AO2 WSHFT 26 SLP069,M
05U,2024-08-10 20:30,-116.0051,39.6042,1811.23,M,M,M,260.00,10.00,0.00,30.15,M,10.00,21.00,CLR,M,M,M,M,M,M,M,M,M,M,M,M,M,M,M,K05U 102030Z AUTO 26010G21KT 10SM CLR A3015 RMK A01,M
BVU,2024-08-10 20:35,-114.8611,35.9475,671.00,105.80,53.60,17.97,160.00,15.00,0.00,29.87,M,10.00,31.00,CLR,M,M,M,M,M,M,M,M,M,M,M,M,M,M,104.23,KBVU 102035Z AUTO 16015G31KT 100V200 10SM CLR 41/12 A2987 RMK AO2,M
CXP,2024-08-10 20:35,-119.7326,39.1923,1431.00,87.80,32.00,13.59,280.00,11.00,0.00,30.13,M,10.00,21.00,CLR,M,M,M,M,M,M,M,M,M,M,M,M,M,M,84.08,KCXP 102035Z AUTO 28011G21KT 10SM CLR 31/M00 A3013 RMK AO2,M
RTS,2024-08-10 20:35,-119.8764,39.6682,1539.00,87.80,28.40,11.74,0.00,0.00,0.00,30.14,M,10.00,10.00,CLR,M,M,M,M,M,M,M,M,M,M,M,M,M,M,83.84,KRTS 102035Z AUTO 00000G10KT 10SM CLR 31/M02 A3014 RMK AO2,M
MEV,2024-08-10 20:35,-119.7500,38.9963,1441.42,91.40,30.20,11.28,290.00,10.00,0.00,30.10,M,10.00,M,CLR,M,M,M,M,M,M,M,M,M,M,M,M,M,M,86.71,KMEV 102035Z AUTO 29010KT 250V320 10SM CLR 33/M01 A3010 RMK AO2,M
BAM,2024-08-10 20:35,-116.8743,40.5990,1382.36,95.00,30.20,10.09,250.00,12.00,0.00,30.07,M,10.00,21.00,CLR,M,M,M,M,M,M,M,M,M,M,M,M,M,M,89.48,KBAM 102035Z AUTO 25012G21KT 10SM CLR 35/M01 A3007 RMK AO1,M
HTH,2024-08-10 20:35,-118.6315,38.5448,1282.89,93.20,28.40,9.91,330.00,11.00,0.00,30.05,M,10.00,M,CLR,M,M,M,M,M,M,M,M,M,M,M,M,M,M,87.89,KHTH 102035Z AUTO 33011KT 10SM CLR 34/M02 A3005 RMK A01,M
10U,2024-08-10 20:35,-116.1876,41.9532,1637.00,89.60,26.60,10.30,230.00,7.00,0.00,30.09,M,10.00,18.00,CLR,M,M,M,M,M,M,M,M,M,M,M,M,M,M,85.02,K10U 102035Z AUTO 23007G18KT 190V260 10SM CLR 32/M03 A3009 RMK AO2,M
TMT,2024-08-10 20:35,-117.1971,39.4643,1749.34,90.30,32.00,12.56,250.00,15.00,0.00,30.17,M,10.00,20.00,CLR,M,M,M,M,M,M,M,M,M,M,M,M,M,M,86.07,KTMT 102035Z AUTO 25015G20KT 10SM CLR 32/00 A3017 RMK AO2 T03240000,M
INS,2024-08-10 20:47,-115.6733,36.5872,955.00,104.00,50.00,16.59,140.00,13.00,0.00,29.93,1006.90,10.00,18.00,CLR,M,M,M,M,M,M,M,M,M,M,M,M,M,M,101.14,KINS 102047Z AUTO 14013G18KT 10SM CLR 40/10 A2993 RMK AO2 WSHFT 42 SLP069,M
05U,2024-08-10 20:50,-116.0051,39.6042,1811.23,M,M,M,250.00,14.00,0.00,30.14,M,10.00,M,CLR,M,M,M,M,M,M,M,M,M,M,M,M,M,M,M,K05U 102050Z AUTO 25014KT 10SM CLR A3014 RMK A01,M
INS,2024-08-10 20:51,-115.6733,36.5872,955.00,104.00,50.00,16.59,110.00,14.00,0.00,29.93,1006.90,10.00,18.00,CLR,M,M,M,M,M,M,M,M,M,M,M,M,M,M,101.14,KINS 102051Z AUTO 11014G18KT 10SM CLR 40/10 A2993 RMK AO2 WSHFT 50 SLP069,M
P68,2024-08-10 20:53,-116.0056,39.6014,1993.00,94.00,26.00,8.76,260.00,12.00,0.00,30.11,1009.70,M,24.00,M,M,M,M,M,M,M,M,M,M,M,M,26.00,250.00,2024-08-10 20:34,88.27,KP68 102053Z AUTO 26012G24KT 34/M03 A3011 RMK AO1 PK WND 25026/2034 SLP097 T03441033 58019,M
DRA,2024-08-10 20:53,-116.0278,36.6206,1009.00,105.00,51.00,16.72,220.00,16.00,0.00,29.95,1008.00,10.00,25.00,CLR,M,M,M,M,M,M,M,M,M,M,M,27.00,210.00,2024-08-10 20:26,102.47,KDRA 102053Z AUTO 22016G25KT 10SM CLR 41/11 A2995 RMK AO2 PK WND 21027/2026 SLP080 T04060106 58019,M
ELY,2024-08-10 20:53,-114.8453,39.2950,1909.00,88.00,37.00,16.49,230.00,10.00,0.00,30.17,1010.90,10.00,26.00,SCT,M,M,M,12000.00,M,M,M,M,M,M,M,30.00,200.00,2024-08-10 20:25,84.32,KELY 102053Z AUTO 23010G26KT 10SM SCT120 31/03 A3017 RMK AO2 PK WND 20030/2025 SLP109 T03110028 56015,M
VGT,2024-08-10 20:53,-115.1933,36.2111,667.00,107.00,57.00,19.63,60.00,4.00,0.00,29.87,1009.50,10.00,M,CLR,M,M,M,M,M,M,M,M,M,M,M,M,M,M,107.02,KVGT 102053Z 06004KT 10SM CLR 42/14 A2987 RMK AO2 LTG DSNT W AND NW SLP095 T04170139 58022,M
LOL,2024-08-10 20:53,-118.5701,40.0684,1192.43,95.00,30.00,10.01,250.00,12.00,0.00,30.03,1012.00,10.00,17.00,CLR,M,M,M,M,M,M,M,M,M,M,M,M,M,M,89.45,KLOL 102053Z AUTO 25012G17KT 10SM CLR 35/M01 A3003 RMK AO2 SLP120 T03501011 56014,M
BVU,2024-08-10 20:55,-114.8611,35.9475,671.00,105.80,53.60,17.97,160.00,10.00,0.00,29.87,M,10.00,20.00,CLR,M,M,M,M,M,M,M,M,M,M,M,M,M,M,104.23,KBVU 102055Z AUTO 16010G20KT 10SM CLR 41/12 A2987 RMK AO2,M
CXP,2024-08-10 20:55,-119.7326,39.1923,1431.00,87.80,32.00,13.59,280.00,10.00,0.00,30.12,M,10.00,16.00,CLR,M,M,M,M,M,M,M,M,M,M,M,M,M,M,84.08,KCXP 102055Z AUTO 28010G16KT 10SM CLR 31/M00 A3012 RMK AO2,M
INS,2024-08-10 20:55,-115.6733,36.5872,955.00,104.00,48.70,15.81,90.00,12.00,0.00,29.93,1006.90,10.00,18.00,CLR,M,M,M,M,M,M,M,M,M,M,M,M,M,M,100.78,KINS 102055Z AUTO 09012G18KT 10SM CLR 40/09 A2993 RMK AO2 SLP069 T03990093 57018,M
RNO,2024-08-10 20:55,-119.7711,39.4839,1341.00,95.00,31.00,10.42,M,6.00,0.00,30.07,1011.60,10.00,M,SCT,BKN,M,M,16000.00,21000.00,M,M,M,M,M,M,M,M,M,89.58,KRNO 102055Z VRB06KT 10SM SCT160 BKN210 35/M01 A3007 RMK AO2 SLP116 ACSL E THRU S THRU W T03501006 58016,M
RTS,2024-08-10 20:55,-119.8764,39.6682,1539.00,89.60,24.80,9.56,230.00,10.00,0.00,30.13,M,10.00,M,CLR,M,M,M,M,M,M,M,M,M,M,M,M,M,M,84.88,KRTS 102055Z AUTO 23010KT 10SM CLR 32/M04 A3013 RMK AO2,M
MEV,2024-08-10 20:55,-119.7500,38.9963,1441.42,91.40,28.40,10.48,300.00,12.00,0.00,30.10,M,10.00,M,CLR,M,M,M,M,M,M,M,M,M,M,M,M,M,M,86.53,KMEV 102055Z AUTO 30012KT 10SM CLR 33/M02 A3010 RMK AO2,M
BAM,2024-08-10 20:55,-116.8743,40.5990,1382.36,95.00,28.40,9.38,220.00,15.00,0.00,30.06,M,10.00,22.00,CLR,M,M,M,M,M,M,M,M,M,M,M,M,M,M,89.27,KBAM 102055Z AUTO 22015G22KT 10SM CLR 35/M02 A3006 RMK AO1,M
HTH,2024-08-10 20:55,-118.6315,38.5448,1282.89,95.00,28.40,9.38,320.00,15.00,0.00,30.04,M,10.00,M,CLR,M,M,M,M,M,M,M,M,M,M,M,M,M,M,89.27,KHTH 102055Z AUTO 32015KT 10SM CLR 35/M02 A3004 RMK A01,M
10U,2024-08-10 20:55,-116.1876,41.9532,1637.00,91.40,28.40,10.48,280.00,13.00,0.00,30.09,M,10.00,25.00,CLR,M,M,M,M,M,M,M,M,M,M,M,M,M,M,86.53,K10U 102055Z AUTO 28013G25KT 250V310 10SM CLR 33/M02 A3009 RMK AO2,M
TMT,2024-08-10 20:55,-117.1971,39.4643,1749.34,90.00,31.60,12.48,260.00,13.00,0.00,30.16,M,10.00,21.00,CLR,M,M,M,M,M,M,M,M,M,M,M,M,M,M,85.80,KTMT 102055Z AUTO 26013G21KT 10SM CLR 32/00 A3016 RMK AO2 T03221002,M
LSV,2024-08-10 20:55,-115.0343,36.2362,570.00,107.80,50.00,14.83,120.00,6.00,0.00,29.81,1006.00,10.00,M,CLR,M,M,M,M,M,M,M,M,M,M,M,M,M,M,105.00,KLSV 102055Z AUTO 12006KT 10SM CLR 42/10 A2981 RMK AO2 SLP060 T04210101 57025 $,M
EKO,2024-08-10 20:56,-115.7860,40.8242,1367.00,93.00,31.00,11.09,250.00,16.00,0.00,30.07,1011.40,10.00,29.00,CLR,M,M,M,M,M,M,M,M,M,M,M,30.00,270.00,2024-08-10 20:42,88.03,KEKO 102056Z AUTO 25016G29KT 10SM CLR 34/M01 A3007 RMK AO2 PK WND 27030/2042 SLP114 T03391006 58013,M
WMC,2024-08-10 20:56,-117.8072,40.9019,1315.00,95.00,32.00,10.85,250.00,10.00,0.00,30.04,1011.20,10.00,22.00,CLR,M,M,M,M,M,M,M,M,M,M,M,M,M,M,89.71,KWMC 102056Z AUTO 25010G22KT 10SM CLR 35/00 A3004 RMK AO2 SLP112 T03500000 56014,M
HND,2024-08-10 20:56,-115.1344,35.9729,742.79,103.00,59.00,23.74,200.00,13.00,0.00,29.92,1010.80,10.00,M,BKN,M,M,M,10000.00,M,M,M,M,M,M,M,M,M,M,103.53,KHND 102056Z 20013KT 10SM BKN100 39/15 A2992 RMK AO2 LTG DSNT NW SLP108 T03940150 58019,M
TPH,2024-08-10 20:56,-117.0904,38.0505,1654.00,97.00,35.00,11.51,280.00,12.00,0.00,30.12,1009.30,10.00,21.00,CLR,M,M,M,M,M,M,M,M,M,M,M,M,M,M,91.79,KTPH 102056Z AUTO 28012G21KT 10SM CLR 36/02 A3012 RMK AO2 SLP093 T03610017 58019,M
LAS,2024-08-10 20:56,-115.1634,36.0719,663.00,108.00,55.00,17.73,M,5.00,0.00,29.88,1008.20,10.00,M,FEW,FEW,M,M,12000.00,23000.00,M,M,M,M,M,M,M,M,M,107.16,KLAS 102056Z VRB05KT 10SM FEW120 FEW230 42/13 A2988 RMK AO2 LTG DSNT NW SLP082 CB DSNT ALQDS T04220128 58022,M
INS,2024-08-10 21:01,-115.6733,36.5872,955.00,104.00,50.00,16.59,70.00,11.00,0.00,29.93,1006.90,10.00,19.00,FEW,M,M,M,13000.00,M,M,M,M,M,M,M,M,M,M,101.14,KINS 102101Z AUTO 07011G19KT 10SM FEW130 40/10 A2993 RMK AO2 WSHFT 2051 SLP069,M
INS,2024-08-10 21:03,-115.6733,36.5872,955.00,102.20,50.00,17.51,110.00,13.00,0.00,29.93,1007.00,10.00,19.00,FEW,M,M,M,14000.00,M,M,M,M,M,M,M,M,M,M,99.28,KINS 102103Z AUTO 11013G19KT 10SM FEW140 39/10 A2993 RMK AO2 WSHFT 01 SLP070,M
CXP,2024-08-10 21:10,-119.7326,39.1923,1431.00,87.80,32.00,13.59,290.00,10.00,0.00,30.12,M,10.00,M,CLR,M,M,M,M,M,M,M,M,M,M,M,M,M,M,84.08,KCXP 102110Z AUTO 29010KT 10SM CLR 31/M00 A3012 RMK AO2,M
05U,2024-08-10 21:10,-116.0051,39.6042,1811.23,M,M,M,260.00,15.00,0.00,30.14,M,10.00,26.00,CLR,M,M,M,M,M,M,M,M,M,M,M,M,M,M,M,K05U 102110Z AUTO 26015G26KT 10SM CLR A3014 RMK A01,M
BVU,2024-08-10 21:15,-114.8611,35.9475,671.00,105.80,53.60,17.97,150.00,11.00,0.00,29.86,M,10.00,20.00,CLR,M,M,M,M,M,M,M,M,M,M,M,M,M,M,104.23,KBVU 102115Z AUTO 15011G20KT 120V180 10SM CLR 41/12 A2986 RMK AO2,M
RTS,2024-08-10 21:15,-119.8764,39.6682,1539.00,89.60,23.00,8.87,M,6.00,0.00,30.12,M,10.00,16.00,CLR,M,M,M,M,M,M,M,M,M,M,M,M,M,M,84.75,KRTS 102115Z AUTO VRB06G16KT 10SM CLR 32/M05 A3012 RMK AO2,M
MEV,2024-08-10 21:15,-119.7500,38.9963,1441.42,93.20,30.20,10.67,300.00,8.00,0.00,30.09,M,10.00,16.00,CLR,M,M,M,M,M,M,M,M,M,M,M,M,M,M,88.09,KMEV 102115Z AUTO 30008G16KT 250V310 10SM CLR 34/M01 A3009 RMK AO2,M
BAM,2024-08-10 21:15,-116.8743,40.5990,1382.36,96.80,30.20,9.55,250.00,14.00,0.00,30.05,M,10.00,24.00,CLR,M,M,M,M,M,M,M,M,M,M,M,M,M,M,90.96,KBAM 102115Z AUTO 25014G24KT 10SM CLR 36/M01 A3005 RMK AO1,M
HTH,2024-08-10 21:15,-118.6315,38.5448,1282.89,95.00,26.60,8.71,350.00,13.00,0.00,30.03,M,10.00,M,CLR,M,M,M,M,M,M,M,M,M,M,M,M,M,M,89.08,KHTH 102115Z AUTO 35013KT 10SM CLR 35/M03 A3003 RMK A01,M
10U,2024-08-10 21:15,-116.1876,41.9532,1637.00,91.40,30.20,11.28,280.00,11.00,0.00,30.08,M,10.00,23.00,CLR,M,M,M,M,M,M,M,M,M,M,M,M,M,M,86.71,K10U 102115Z AUTO 28011G23KT 10SM CLR 33/M01 A3008 RMK AO2,M
TMT,2024-08-10 21:15,-117.1971,39.4643,1749.34,90.70,30.70,11.77,270.00,11.00,0.00,30.16,M,10.00,21.00,CLR,M,M,M,M,M,M,M,M,M,M,M,M,M,M,86.23,KTMT 102115Z AUTO 27011G21KT 10SM CLR 33/M01 A3016 RMK AO2 T03261007,M
05U,2024-08-10 21:30,-116.0051,39.6042,1811.23,M,M,M,270.00,16.00,0.00,30.14,M,10.00,26.00,CLR,M,M,M,M,M,M,M,M,M,M,M,M,M,M,M,K05U 102130Z AUTO 27016G26KT 10SM CLR A3014 RMK A01,M
BVU,2024-08-10 21:35,-114.8611,35.9475,671.00,105.80,53.60,17.97,M,6.00,0.00,29.85,M,10.00,17.00,CLR,M,M,M,M,M,M,M,M,M,M,M,M,M,M,104.23,KBVU 102135Z AUTO VRB06G17KT 10SM CLR 41/12 A2985 RMK AO2 LTG DSNT NE AND NW,M
CXP,2024-08-10 21:35,-119.7326,39.1923,1431.00,89.60,32.00,12.84,290.00,11.00,0.00,30.12,M,10.00,16.00,CLR,M,M,M,M,M,M,M,M,M,M,M,M,M,M,85.54,KCXP 102135Z AUTO 29011G16KT 10SM CLR 32/M00 A3012 RMK AO2,M
RTS,2024-08-10 21:35,-119.8764,39.6682,1539.00,91.40,21.20,7.77,220.00,9.00,0.00,30.12,M,10.00,19.00,CLR,M,M,M,M,M,M,M,M,M,M,M,M,M,M,85.96,KRTS 102135Z AUTO 22009G19KT 10SM CLR 33/M06 A3012 RMK AO2,M
MEV,2024-08-10 21:35,-119.7500,38.9963,1441.42,93.20,30.20,10.67,290.00,11.00,0.00,30.09,M,10.00,19.00,CLR,M,M,M,M,M,M,M,M,M,M,M,M,M,M,88.09,KMEV 102135Z AUTO 29011G19KT 10SM CLR 34/M01 A3009 RMK AO2,M
BAM,2024-08-10 21:35,-116.8743,40.5990,1382.36,95.00,30.20,10.09,230.00,11.00,0.00,30.05,M,10.00,16.00,CLR,M,M,M,M,M,M,M,M,M,M,M,M,M,M,89.48,KBAM 102135Z AUTO 23011G16KT 10SM CLR 35/M01 A3005 RMK AO1,M
HTH,2024-08-10 21:35,-118.6315,38.5448,1282.89,98.60,26.60,7.80,320.00,13.00,0.00,30.02,M,10.00,M,CLR,M,M,M,M,M,M,M,M,M,M,M,M,M,M,92.07,KHTH 102135Z AUTO 32013KT 10SM CLR 37/M03 A3002 RMK A01,M
10U,2024-08-10 21:35,-116.1876,41.9532,1637.00,91.40,26.60,9.74,230.00,9.00,0.00,30.07,M,10.00,16.00,CLR,M,M,M,M,M,M,M,M,M,M,M,M,M,M,86.36,K10U 102135Z AUTO 23009G16KT 210V270 10SM CLR 33/M03 A3007 RMK AO2,M
TMT,2024-08-10 21:35,-117.1971,39.4643,1749.34,88.00,29.00,11.96,270.00,10.00,0.00,30.16,M,10.00,22.00,CLR,M,M,M,M,M,M,M,M,M,M,M,M,M,M,84.04,KTMT 102135Z AUTO 27010G22KT 10SM CLR 31/M02 A3016 RMK AO2 T03121017,M
INS,2024-08-10 21:44,-115.6733,36.5872,955.00,102.20,50.00,17.51,160.00,11.00,0.00,29.92,1006.80,10.00,M,SCT,M,M,M,21000.00,M,M,M,M,M,M,M,M,M,M,99.28,KINS 102144Z AUTO 16011KT 10SM SCT210 39/10 A2992 RMK AO2 WSHFT 39 LTG DSNT SE SLP068,M
ELY,2024-08-10 21:45,-114.8453,39.2950,1909.00,88.00,40.00,18.54,220.00,12.00,T,30.18,M,10.00,25.00,SCT,M,M,M,11000.00,M,M,M,M,M,M,M,33.00,290.00,2024-08-10 21:28,84.42,KELY 102145Z AUTO 22012G25KT 10SM SCT110 31/04 A3018 RMK AO2 PK WND 29033/2128 WSHFT 2125 LTG DSNT NW RAB24E35 P0000 T03110044,M
05U,2024-08-10 21:50,-116.0051,39.6042,1811.23,M,M,M,240.00,16.00,0.00,30.14,M,10.00,21.00,CLR,M,M,M,M,M,M,M,M,M,M,M,M,M,M,M,K05U 102150Z AUTO 24016G21KT 10SM CLR A3014 RMK A01,M
P68,2024-08-10 21:53,-116.0056,39.6014,1993.00,94.00,24.00,8.06,260.00,14.00,0.00,30.11,1010.00,M,26.00,M,M,M,M,M,M,M,M,M,M,M,M,33.00,260.00,2024-08-10 21:23,88.10,KP68 102153Z AUTO 26014G26KT 34/M04 A3011 RMK AO1 PK WND 26033/2123 SLP100 T03441044,M
DRA,2024-08-10 21:53,-116.0278,36.6206,1009.00,106.00,51.00,16.23,250.00,14.00,0.00,29.93,1007.30,10.00,23.00,CLR,M,M,M,M,M,M,M,M,M,M,M,M,M,M,103.51,KDRA 102153Z AUTO 25014G23KT 10SM CLR 41/11 A2993 RMK AO2 SLP073 T04110106,M
ELY,2024-08-10 21:53,-114.8453,39.2950,1909.00,88.00,41.00,19.28,170.00,12.00,T,30.16,1010.60,10.00,21.00,FEW,M,M,M,11000.00,M,M,M,M,M,M,M,33.00,290.00,2024-08-10 21:28,84.46,KELY 102153Z AUTO 17012G21KT 10SM FEW110 31/05 A3016 RMK AO2 PK WND 29033/2128 WSHFT 2125 LTG DSNT NW RAB24E35 SLP106 P0000 T03110050,M
VGT,2024-08-10 21:53,-115.1933,36.2111,667.00,107.00,56.00,18.93,150.00,6.00,0.00,29.84,1008.70,10.00,15.00,CLR,M,M,M,M,M,M,M,M,M,M,M,M,M,M,106.54,KVGT 102153Z 15006G15KT 10SM CLR 42/13 A2984 RMK AO2 LTG DSNT W SLP087 T04170133,M
LOL,2024-08-10 21:53,-118.5701,40.0684,1192.43,98.00,31.00,9.51,210.00,13.00,0.00,30.00,1011.20,10.00,19.00,CLR,M,M,M,M,M,M,M,M,M,M,M,M,M,M,92.06,KLOL 102153Z AUTO 21013G19KT 10SM CLR 37/M01 A3000 RMK AO2 SLP112 T03671006,M
BVU,2024-08-10 21:55,-114.8611,35.9475,671.00,105.80,53.60,17.97,140.00,10.00,0.00,29.84,M,10.00,16.00,CLR,M,M,M,M,M,M,M,M,M,M,M,M,M,M,104.23,KBVU 102155Z AUTO 14010G16KT 10SM CLR 41/12 A2984 RMK AO2,M
CXP,2024-08-10 21:55,-119.7326,39.1923,1431.00,89.60,30.20,11.94,280.00,9.00,0.00,30.11,M,10.00,14.00,CLR,M,M,M,M,M,M,M,M,M,M,M,M,M,M,85.34,KCXP 102155Z AUTO 28009G14KT 10SM CLR 32/M01 A3011 RMK AO2,M
INS,2024-08-10 21:55,-115.6733,36.5872,955.00,101.00,48.00,16.85,190.00,15.00,0.00,29.91,1006.40,10.00,18.00,BKN,BKN,M,M,19000.00,21000.00,M,M,M,M,M,M,M,M,M,97.57,KINS 102155Z AUTO 19015G18KT 10SM BKN190 BKN210 38/09 A2991 RMK AO2 SLP064 T03830089,M
RNO,2024-08-10 21:55,-119.7711,39.4839,1341.00,96.00,26.00,8.24,230.00,8.00,0.00,30.05,1011.20,10.00,18.00,SCT,SCT,M,M,16000.00,21000.00,M,M,M,M,M,M,26.00,290.00,2024-08-10 21:41,89.85,KRNO 102155Z 23008G18KT 10SM SCT160 SCT210 36/M03 A3005 RMK AO2 PK WND 29026/2141 SLP112 ACSL E THRU S THRU W T03561033,M
RTS,2024-08-10 21:55,-119.8764,39.6682,1539.00,91.40,19.40,7.19,260.00,10.00,0.00,30.12,M,10.00,17.00,CLR,M,M,M,M,M,M,M,M,M,M,M,M,M,M,85.86,KRTS 102155Z AUTO 26010G17KT 10SM CLR 33/M07 A3012 RMK AO2,M
MEV,2024-08-10 21:55,-119.7500,38.9963,1441.42,93.20,30.20,10.67,260.00,14.00,0.00,30.09,M,10.00,21.00,CLR,M,M,M,M,M,M,M,M,M,M,M,M,M,M,88.09,KMEV 102155Z AUTO 26014G21KT 10SM CLR 34/M01 A3009 RMK AO2,M
BAM,2024-08-10 21:55,-116.8743,40.5990,1382.36,95.00,28.40,9.38,270.00,9.00,0.00,30.04,M,10.00,17.00,CLR,M,M,M,M,M,M,M,M,M,M,M,M,M,M,89.27,KBAM 102155Z AUTO 27009G17KT 10SM CLR 35/M02 A3004 RMK AO1,M
HTH,2024-08-10 21:55,-118.6315,38.5448,1282.89,96.80,24.80,7.65,330.00,11.00,0.00,30.02,M,10.00,18.00,CLR,M,M,M,M,M,M,M,M,M,M,M,M,M,M,90.40,KHTH 102155Z AUTO 33011G18KT 10SM CLR 36/M04 A3002 RMK A01,M
10U,2024-08-10 21:55,-116.1876,41.9532,1637.00,93.20,23.00,7.92,230.00,13.00,0.00,30.07,M,10.00,22.00,CLR,M,M,M,M,M,M,M,M,M,M,M,M,M,M,87.42,K10U 102155Z AUTO 23013G22KT 10SM CLR 34/M05 A3007 RMK AO2,M
TMT,2024-08-10 21:55,-117.1971,39.4643,1749.34,87.80,30.00,12.54,250.00,13.00,0.00,30.16,M,10.00,M,CLR,M,M,M,M,M,M,M,M,M,M,M,M,M,M,83.99,KTMT 102155Z AUTO 25013KT 10SM CLR 31/M01 A3016 RMK AO2 T03101012,M
LSV,2024-08-10 21:55,-115.0343,36.2362,570.00,108.00,48.60,14.00,200.00,4.00,0.00,29.77,1004.70,10.00,M,CLR,M,M,M,M,M,M,M,M,M,M,M,M,M,M,104.74,KLSV 102155Z AUTO 20004KT 10SM CLR 42/09 A2977 RMK AO2 SLP047 T04230092 $,M
EKO,2024-08-10 21:56,-115.7860,40.8242,1367.00,94.00,30.00,10.32,230.00,17.00,0.00,30.05,1011.10,10.00,35.00,CLR,M,M,M,M,M,M,M,M,M,M,M,35.00,250.00,2024-08-10 21:49,88.68,KEKO 102156Z AUTO 23017G35KT 10SM CLR 34/M01 A3005 RMK AO2 PK WND 25035/2149 SLP111 T03441011,M
WMC,2024-08-10 21:56,-117.8072,40.9019,1315.00,96.00,31.00,10.11,290.00,15.00,0.00,30.03,1010.50,10.00,22.00,CLR,M,M,M,M,M,M,M,M,M,M,M,27.00,280.00,2024-08-10 21:21,90.40,KWMC 102156Z AUTO 29015G22KT 10SM CLR 36/M01 A3003 RMK AO2 PK WND 28027/2121 SLP105 T03561006,M
HND,2024-08-10 21:56,-115.1344,35.9729,742.79,106.00,57.00,20.21,200.00,12.00,0.00,29.89,1009.90,10.00,M,CLR,M,M,M,M,M,M,M,M,M,M,M,M,M,M,105.92,KHND 102156Z 20012KT 10SM CLR 41/14 A2989 RMK AO2 LTG DSNT NW SLP099 T04110139,M
TPH,2024-08-10 21:56,-117.0904,38.0505,1654.00,96.00,38.00,13.36,220.00,9.00,0.00,30.10,1008.80,10.00,15.00,CLR,M,M,M,M,M,M,M,M,M,M,M,M,M,M,91.41,KTPH 102156Z AUTO 22009G15KT 10SM CLR 36/03 A3010 RMK AO2 SLP088 T03560033,M
LAS,2024-08-10 21:56,-115.1634,36.0719,663.00,107.00,54.00,17.60,190.00,8.00,0.00,29.86,1007.50,10.00,M,FEW,FEW,M,M,11000.00,23000.00,M,M,M,M,M,M,M,M,M,105.66,KLAS 102156Z 19008KT 10SM FEW110 FEW230 42/12 A2986 RMK AO2 LTG DSNT W AND NW SLP075 CB DSNT N AND NE SH DSNT W T04170122,M
NFL,2024-08-10 21:57,-118.7010,39.4166,1199.00,96.00,29.00,9.32,M,5.00,0.00,30.01,1013.20,10.00,M,CLR,M,M,M,M,M,M,M,M,M,M,M,M,M,M,90.16,KNFL 102157Z AUTO VRB05KT 10SM CLR 36/M02 A3001 RMK AO2 SLP132 T03561017,M
ELY,2024-08-10 22:03,-114.8453,39.2950,1909.00,90.00,40.00,17.41,180.00,10.00,0.00,30.16,M,10.00,M,CLR,M,M,M,M,M,M,M,M,M,M,M,M,M,M,86.11,KELY 102203Z AUTO 18010KT 10SM CLR 32/04 A3016 RMK AO2 WSHFT 2143 T03220044,M
INS,2024-08-10 22:10,-115.6733,36.5872,955.00,98.60,50.00,19.52,220.00,13.00,0.00,29.92,1006.90,10.00,M,BKN,OVC,M,M,18000.00,20000.00,M,M,M,M,M,M,M,M,M,95.56,KINS 102210Z AUTO 22013KT 10SM BKN180 OVC200 37/10 A2992 RMK AO2 WSHFT 2159 LTG DSNT E AND W-NW SLP069,M
05U,2024-08-10 22:10,-116.0051,39.6042,1811.23,M,M,M,240.00,12.00,0.00,30.13,M,10.00,25.00,CLR,M,M,M,M,M,M,M,M,M,M,M,M,M,M,M,K05U 102210Z AUTO 24012G25KT 10SM CLR A3013 RMK A01,M
BVU,2024-08-10 22:15,-114.8611,35.9475,671.00,105.80,51.80,16.82,140.00,9.00,0.00,29.83,M,10.00,19.00,CLR,M,M,M,M,M,M,M,M,M,M,M,M,M,M,103.57,KBVU 102215Z AUTO 14009G19KT 110V170 10SM CLR 41/11 A2983 RMK AO2,M
CXP,2024-08-10 22:15,-119.7326,39.1923,1431.00,89.60,30.20,11.94,280.00,9.00,0.00,30.11,M,10.00,M,CLR,M,M,M,M,M,M,M,M,M,M,M,M,M,M,85.34,KCXP 102215Z AUTO 28009KT 10SM CLR 32/M01 A3011 RMK AO2,M
RTS,2024-08-10 22:15,-119.8764,39.6682,1539.00,91.40,15.80,6.16,250.00,7.00,0.00,30.12,M,10.00,19.00,CLR,M,M,M,M,M,M,M,M,M,M,M,M,M,M,85.68,KRTS 102215Z AUTO 25007G19KT 220V300 10SM CLR 33/M09 A3012 RMK AO2,M
MEV,2024-08-10 22:15,-119.7500,38.9963,1441.42,95.00,28.40,9.38,280.00,15.00,0.00,30.08,M,10.00,23.00,CLR,M,M,M,M,M,M,M,M,M,M,M,M,M,M,89.27,KMEV 102215Z AUTO 28015G23KT 10SM CLR 35/M02 A3008 RMK AO2,M
HTH,2024-08-10 22:15,-118.6315,38.5448,1282.89,96.80,24.80,7.65,330.00,10.00,0.00,30.01,M,10.00,M,CLR,M,M,M,M,M,M,M,M,M,M,M,M,M,M,90.40,KHTH 102215Z AUTO 33010KT 10SM CLR 36/M04 A3001 RMK A01,M
10U,2024-08-10 22:15,-116.1876,41.9532,1637.00,86.00,32.00,14.40,310.00,10.00,0.00,30.07,M,10.00,15.00,CLR,M,M,M,M,M,M,M,M,M,M,M,M,M,M,82.64,K10U 102215Z AUTO 31010G15KT 280V340 10SM CLR 30/M00 A3007 RMK AO2,M
BAM,2024-08-10 22:15,-116.8743,40.5990,1382.36,95.00,30.20,10.09,250.00,13.00,0.00,30.04,M,10.00,20.00,CLR,M,M,M,M,M,M,M,M,M,M,M,M,M,M,89.48,KBAM 102215Z AUTO 25013G20KT 10SM CLR 35/M01 A3004 RMK AO1,M
TMT,2024-08-10 22:15,-117.1971,39.4643,1749.34,90.30,28.40,10.85,270.00,14.00,0.00,30.15,M,10.00,18.00,CLR,M,M,M,M,M,M,M,M,M,M,M,M,M,M,85.70,KTMT 102215Z AUTO 27014G18KT 10SM CLR 32/M02 A3015 RMK AO2 T03241020,M
05U,2024-08-10 22:30,-116.0051,39.6042,1811.23,M,M,M,270.00,15.00,0.00,30.13,M,10.00,24.00,CLR,M,M,M,M,M,M,M,M,M,M,M,M,M,M,M,K05U 102230Z AUTO 27015G24KT 10SM CLR A3013 RMK A01,M
BVU,2024-08-10 22:35,-114.8611,35.9475,671.00,105.80,51.80,16.82,280.00,6.00,0.00,29.82,M,10.00,14.00,CLR,M,M,M,M,M,M,M,M,M,M,M,M,M,M,103.57,KBVU 102235Z AUTO 28006G14KT 10SM CLR 41/11 A2982 RMK AO2,M
CXP,2024-08-10 22:35,-119.7326,39.1923,1431.00,89.60,30.20,11.94,280.00,9.00,0.00,30.10,M,8.00,14.00,CLR,M,M,M,M,M,M,M,M,M,M,M,M,M,M,85.34,KCXP 102235Z AUTO 28009G14KT 8SM CLR 32/M01 A3010 RMK AO2,M
RTS,2024-08-10 22:35,-119.8764,39.6682,1539.00,93.20,17.60,6.30,240.00,12.00,0.00,30.11,M,10.00,18.00,CLR,M,M,M,M,M,M,M,M,M,M,M,M,M,M,87.08,KRTS 102235Z AUTO 24012G18KT 210V290 10SM CLR 34/M08 A3011 RMK AO2,M
MEV,2024-08-10 22:35,-119.7500,38.9963,1441.42,93.20,28.40,9.91,280.00,14.00,0.00,30.08,M,10.00,20.00,CLR,M,M,M,M,M,M,M,M,M,M,M,M,M,M,87.89,KMEV 102235Z AUTO 28014G20KT 10SM CLR 34/M02 A3008 RMK AO2,M
BAM,2024-08-10 22:35,-116.8743,40.5990,1382.36,96.80,30.20,9.55,230.00,15.00,0.00,30.03,M,10.00,21.00,CLR,M,M,M,M,M,M,M,M,M,M,M,M,M,M,90.96,KBAM 102235Z AUTO 23015G21KT 10SM CLR 36/M01 A3003 RMK AO1,M
HTH,2024-08-10 22:35,-118.6315,38.5448,1282.89,98.60,23.00,6.71,330.00,13.00,0.00,30.00,M,10.00,M,CLR,M,M,M,M,M,M,M,M,M,M,M,M,M,M,91.75,KHTH 102235Z AUTO 33013KT 10SM CLR 37/M05 A3000 RMK A01,M
10U,2024-08-10 22:35,-116.1876,41.9532,1637.00,89.60,33.80,13.80,330.00,13.00,0.00,30.06,M,10.00,25.00,CLR,M,M,M,M,M,M,M,M,M,M,M,M,M,M,85.59,K10U 102235Z AUTO 33013G25KT 10SM CLR 32/01 A3006 RMK AO2,M
TMT,2024-08-10 22:35,-117.1971,39.4643,1749.34,91.60,26.80,9.76,260.00,10.00,0.00,30.15,M,10.00,21.00,CLR,M,M,M,M,M,M,M,M,M,M,M,M,M,M,86.53,KTMT 102235Z AUTO 26010G21KT 10SM CLR 33/M03 A3015 RMK AO2 T03311029,M
05U,2024-08-10 22:50,-116.0051,39.6042,1811.23,M,M,M,250.00,8.00,0.00,30.12,M,10.00,18.00,CLR,M,M,M,M,M,M,M,M,M,M,M,M,M,M,M,K05U 102250Z AUTO 25008G18KT 10SM CLR A3012 RMK A01,M
P68,2024-08-10 22:53,-116.0056,39.6014,1993.00,93.00,25.00,8.67,M,4.00,0.00,30.09,1009.20,M,23.00,M,M,M,M,M,M,M,M,M,M,M,M,31.00,250.00,2024-08-10 22:27,87.43,KP68 102253Z AUTO VRB04G23KT 34/M04 A3009 RMK AO1 PK WND 25031/2227 SLP092 T03391039,M
DRA,2024-08-10 22:53,-116.0278,36.6206,1009.00,105.00,51.00,16.72,180.00,9.00,0.00,29.92,1006.80,10.00,M,CLR,M,M,M,M,M,M,M,M,M,M,M,26.00,240.00,2024-08-10 22:28,102.47,KDRA 102253Z AUTO 18009KT 10SM CLR 41/11 A2992 RMK AO2 PK WND 24026/2228 SLP068 T04060106,M
ELY,2024-08-10 22:53,-114.8453,39.2950,1909.00,90.00,40.00,17.41,150.00,5.00,0.00,30.13,1008.90,10.00,M,FEW,M,M,M,12000.00,M,M,M,M,M,M,M,M,M,M,86.11,KELY 102253Z AUTO 15005KT 10SM FEW120 32/04 A3013 RMK AO2 WSHFT 2143 SLP089 T03220044,M
VGT,2024-08-10 22:53,-115.1933,36.2111,667.00,108.00,56.00,18.38,210.00,11.00,0.00,29.82,1007.80,10.00,M,FEW,M,M,M,11000.00,M,M,M,M,M,M,M,M,M,M,107.62,KVGT 102253Z 21011KT 10SM FEW110 42/13 A2982 RMK AO2 SLP078 T04220133,M
LOL,2024-08-10 22:53,-118.5701,40.0684,1192.43,98.00,28.00,8.41,290.00,13.00,0.00,29.99,1010.70,10.00,21.00,CLR,M,M,M,M,M,M,M,M,M,M,M,M,M,M,91.71,KLOL 102253Z AUTO 29013G21KT 10SM CLR 37/M02 A2999 RMK AO2 SLP107 T03671022,M
BVU,2024-08-10 22:55,-114.8611,35.9475,671.00,107.60,50.00,14.92,230.00,9.00,0.00,29.81,M,10.00,17.00,CLR,M,M,M,M,M,M,M,M,M,M,M,M,M,M,104.80,KBVU 102255Z AUTO 23009G17KT 10SM CLR 42/10 A2981 RMK AO2,M
CXP,2024-08-10 22:55,-119.7326,39.1923,1431.00,89.60,30.20,11.94,250.00,8.00,0.00,30.10,M,10.00,17.00,CLR,M,M,M,M,M,M,M,M,M,M,M,M,M,M,85.34,KCXP 102255Z AUTO 25008G17KT 10SM CLR 32/M01 A3010 RMK AO2,M
INS,2024-08-10 22:55,-115.6733,36.5872,955.00,95.00,52.70,24.08,300.00,11.00,0.00,29.91,1006.70,10.00,M,BKN,BKN,M,M,16000.00,19000.00,M,M,M,M,M,M,M,M,M,92.48,KINS 102255Z AUTO 30011KT 10SM BKN160 BKN190 35/12 A2991 RMK AO2 LTG DSNT N SLP067 T03510115,M
RNO,2024-08-10 22:55,-119.7711,39.4839,1341.00,95.00,21.00,6.89,280.00,18.00,0.00,30.04,1010.70,10.00,24.00,SCT,M,M,M,10000.00,M,M,M,M,M,M,M,27.00,280.00,2024-08-10 21:59,88.61,KRNO 102255Z 28018G24KT 10SM SCT100 35/M06 A3004 RMK AO2 PK WND 28027/2159 SLP107 T03501061,M
RTS,2024-08-10 22:55,-119.8764,39.6682,1539.00,91.40,17.60,6.66,280.00,11.00,0.00,30.11,M,10.00,17.00,CLR,M,M,M,M,M,M,M,M,M,M,M,M,M,M,85.76,KRTS 102255Z AUTO 28011G17KT 10SM CLR 33/M08 A3011 RMK AO2,M
MEV,2024-08-10 22:55,-119.7500,38.9963,1441.42,91.40,28.40,10.48,270.00,12.00,0.00,30.07,M,10.00,22.00,CLR,M,M,M,M,M,M,M,M,M,M,M,M,M,M,86.53,KMEV 102255Z AUTO 27012G22KT 10SM CLR 33/M02 A3007 RMK AO2,M
BAM,2024-08-10 22:55,-116.8743,40.5990,1382.36,96.80,32.00,10.27,230.00,11.00,0.00,30.03,M,10.00,18.00,CLR,M,M,M,M,M,M,M,M,M,M,M,M,M,M,91.19,KBAM 102255Z AUTO 23011G18KT 10SM CLR 36/00 A3003 RMK AO1,M
HTH,2024-08-10 22:55,-118.6315,38.5448,1282.89,98.60,23.00,6.71,350.00,13.00,0.00,30.00,M,10.00,18.00,CLR,M,M,M,M,M,M,M,M,M,M,M,M,M,M,91.75,KHTH 102255Z AUTO 35013G18KT 10SM CLR 37/M05 A3000 RMK A01,M
10U,2024-08-10 22:55,-116.1876,41.9532,1637.00,87.80,32.00,13.59,290.00,16.00,0.00,30.06,M,10.00,23.00,CLR,M,M,M,M,M,M,M,M,M,M,M,M,M,M,84.08,K10U 102255Z AUTO 29016G23KT 10SM CLR 31/M00 A3006 RMK AO2,M
LSV,2024-08-10 22:55,-115.0343,36.2362,570.00,109.40,49.50,13.90,220.00,11.00,0.00,29.75,1004.00,10.00,M,CLR,M,M,M,M,M,M,M,M,M,M,M,M,M,M,106.40,KLSV 102255Z AUTO 22011KT 10SM CLR 43/10 A2975 RMK AO2 SLP040 T04300097 $,M
TMT,2024-08-10 22:55,-117.1971,39.4643,1749.34,90.70,26.00,9.71,280.00,15.00,0.00,30.15,M,10.00,24.00,CLR,M,M,M,M,M,M,M,M,M,M,M,M,M,M,85.79,KTMT 102255Z AUTO 28015G24KT 10SM CLR 33/M03 A3015 RMK AO2 T03261033,M
EKO,2024-08-10 22:56,-115.7860,40.8242,1367.00,94.00,24.00,8.06,250.00,17.00,0.00,30.03,1010.60,10.00,30.00,CLR,M,M,M,M,M,M,M,M,M,M,M,36.00,240.00,2024-08-10 22:12,88.10,KEKO 102256Z AUTO 25017G30KT 10SM CLR 34/M04 A3003 RMK AO2 PK WND 24036/2212 SLP106 T03441044,M
WMC,2024-08-10 22:56,-117.8072,40.9019,1315.00,96.00,30.00,9.71,280.00,14.00,0.00,30.01,1010.20,10.00,23.00,FEW,M,M,M,11000.00,M,M,M,M,M,M,M,M,M,M,90.27,KWMC 102256Z AUTO 28014G23KT 10SM FEW110 36/M01 A3001 RMK AO2 SLP102 T03561011,M
HND,2024-08-10 22:56,-115.1344,35.9729,742.79,106.00,56.00,19.49,240.00,11.00,0.00,29.87,1009.20,10.00,M,CLR,M,M,M,M,M,M,M,M,M,M,M,M,M,M,105.46,KHND 102256Z 24011KT 10SM CLR 41/13 A2987 RMK AO2 SLP092 T04110133,M
TPH,2024-08-10 22:56,-117.0904,38.0505,1654.00,95.00,35.00,12.24,180.00,4.00,0.00,30.08,1008.70,10.00,M,CLR,M,M,M,M,M,M,M,M,M,M,M,M,M,M,90.15,KTPH 102256Z AUTO 18004KT 10SM CLR 35/02 A3008 RMK AO2 SLP087 T03500017,M
LAS,2024-08-10 22:56,-115.1634,36.0719,663.00,108.00,54.00,17.09,M,3.00,0.00,29.84,1006.80,10.00,M,FEW,FEW,M,M,11000.00,23000.00,M,M,M,M,M,M,M,M,M,106.72,KLAS 102256Z VRB03KT 10SM FEW110 FEW230 42/12 A2984 RMK AO2 SLP068 CB DSNT W NW AND NE T04220122,M
LSV,2024-08-10 22:58,-115.0343,36.2362,570.00,109.40,50.00,14.16,190.00,13.00,0.00,29.75,1004.00,10.00,19.00,CLR,M,M,M,M,M,M,M,M,M,M,M,M,M,M,106.58,KLSV 102258Z AUTO 19013G19KT 10SM CLR 43/10 A2975 RMK AO2 WSHFT 55 SLP040 $,M
HND,2024-08-10 23:07,-115.1344,35.9729,742.79,105.80,57.20,20.48,260.00,11.00,0.00,29.87,M,10.00,M,CLR,M,M,M,M,M,M,M,M,M,M,M,M,M,M,105.80,KHND 102307Z 26011KT 10SM CLR 41/14 A2987 RMK AO2 WSHFT 2247,M
VGT,2024-08-10 23:10,-115.1933,36.2111,667.00,107.00,55.00,18.25,220.00,9.00,0.00,29.82,M,10.00,M,CLR,M,M,M,M,M,M,M,M,M,M,M,M,M,M,106.09,KVGT 102310Z 22009KT 10SM CLR 42/13 A2982 RMK AO2 WSHFT 2250 T04170128,M
05U,2024-08-10 23:10,-116.0051,39.6042,1811.23,M,M,M,290.00,13.00,0.00,30.12,M,10.00,21.00,CLR,M,M,M,M,M,M,M,M,M,M,M,M,M,M,M,K05U 102310Z AUTO 29013G21KT 10SM CLR A3012 RMK A01,M
BVU,2024-08-10 23:15,-114.8611,35.9475,671.00,107.60,51.80,15.95,140.00,8.00,0.00,29.81,M,10.00,M,CLR,M,M,M,M,M,M,M,M,M,M,M,M,M,M,105.43,KBVU 102315Z AUTO 14008KT 10SM CLR 42/11 A2981 RMK AO2,M
CXP,2024-08-10 23:15,-119.7326,39.1923,1431.00,89.60,30.20,11.94,270.00,9.00,0.00,30.09,M,10.00,18.00,CLR,M,M,M,M,M,M,M,M,M,M,M,M,M,M,85.34,KCXP 102315Z AUTO 27009G18KT 10SM CLR 32/M01 A3009 RMK AO2,M
RTS,2024-08-10 23:15,-119.8764,39.6682,1539.00,91.40,17.60,6.66,250.00,13.00,0.00,30.11,M,10.00,22.00,CLR,M,M,M,M,M,M,M,M,M,M,M,M,M,M,85.76,KRTS 102315Z AUTO 25013G22KT 10SM CLR 33/M08 A3011 RMK AO2,M
MEV,2024-08-10 23:15,-119.7500,38.9963,1441.42,91.40,28.40,10.48,290.00,12.00,0.00,30.07,M,10.00,19.00,CLR,M,M,M,M,M,M,M,M,M,M,M,M,M,M,86.53,KMEV 102315Z AUTO 29012G19KT 10SM CLR 33/M02 A3007 RMK AO2,M
BAM,2024-08-10 23:15,-116.8743,40.5990,1382.36,96.80,30.20,9.55,270.00,13.00,0.00,30.03,M,10.00,M,CLR,M,M,M,M,M,M,M,M,M,M,M,M,M,M,90.96,KBAM 102315Z AUTO 27013KT 10SM CLR 36/M01 A3003 RMK AO1,M
HTH,2024-08-10 23:15,-118.6315,38.5448,1282.89,98.60,23.00,6.71,340.00,9.00,0.00,29.99,M,10.00,M,CLR,M,M,M,M,M,M,M,M,M,M,M,M,M,M,91.75,KHTH 102315Z AUTO 34009KT 10SM CLR 37/M05 A2999 RMK A01,M
10U,2024-08-10 23:15,-116.1876,41.9532,1637.00,89.60,32.00,12.84,300.00,11.00,0.00,30.06,M,10.00,20.00,CLR,M,M,M,M,M,M,M,M,M,M,M,M,M,M,85.54,K10U 102315Z AUTO 30011G20KT 10SM CLR 32/M00 A3006 RMK AO2,M
TMT,2024-08-10 23:15,-117.1971,39.4643,1749.34,91.00,26.00,9.62,280.00,9.00,0.00,30.14,M,10.00,20.00,CLR,M,M,M,M,M,M,M,M,M,M,M,M,M,M,86.01,KTMT 102315Z AUTO 28009G20KT 10SM CLR 33/M03 A3014 RMK AO2 T03271033,M
05U,2024-08-10 23:30,-116.0051,39.6042,1811.23,M,M,M,260.00,14.00,0.00,30.12,M,10.00,25.00,CLR,M,M,M,M,M,M,M,M,M,M,M,M,M,M,M,K05U 102330Z AUTO 26014G25KT 10SM CLR A3012 RMK A01,M
BVU,2024-08-10 23:35,-114.8611,35.9475,671.00,107.60,51.80,15.95,190.00,7.00,0.00,29.80,M,10.00,29.00,SCT,M,M,M,11000.00,M,M,M,M,M,M,M,M,M,M,105.43,KBVU 102335Z AUTO 19007G29KT 160V220 10SM SCT110 42/11 A2980 RMK AO2,M
CXP,2024-08-10 23:35,-119.7326,39.1923,1431.00,87.80,30.20,12.64,270.00,13.00,0.00,30.09,M,10.00,21.00,CLR,M,M,M,M,M,M,M,M,M,M,M,M,M,M,84.01,KCXP 102335Z AUTO 27013G21KT 10SM CLR 31/M01 A3009 RMK AO2,M
RTS,2024-08-10 23:35,-119.8764,39.6682,1539.00,91.40,17.60,6.66,260.00,15.00,0.00,30.11,M,10.00,22.00,CLR,M,M,M,M,M,M,M,M,M,M,M,M,M,M,85.76,KRTS 102335Z AUTO 26015G22KT 10SM CLR 33/M08 A3011 RMK AO2,M
MEV,2024-08-10 23:35,-119.7500,38.9963,1441.42,89.60,28.40,11.09,280.00,18.00,0.00,30.07,M,10.00,24.00,CLR,M,M,M,M,M,M,M,M,M,M,M,M,M,M,85.17,KMEV 102335Z AUTO 28018G24KT 10SM CLR 32/M02 A3007 RMK AO2,M
BAM,2024-08-10 23:35,-116.8743,40.5990,1382.36,95.00,30.20,10.09,240.00,5.00,0.00,30.02,M,10.00,16.00,CLR,M,M,M,M,M,M,M,M,M,M,M,M,M,M,89.48,KBAM 102335Z AUTO 24005G16KT 10SM CLR 35/M01 A3002 RMK AO1,M
HTH,2024-08-10 23:35,-118.6315,38.5448,1282.89,98.60,21.20,6.22,10.00,7.00,0.00,29.98,M,10.00,15.00,CLR,M,M,M,M,M,M,M,M,M,M,M,M,M,M,91.61,KHTH 102335Z AUTO 01007G15KT 10SM CLR 37/M06 A2998 RMK A01,M
10U,2024-08-10 23:35,-116.1876,41.9532,1637.00,89.60,32.00,12.84,310.00,10.00,0.00,30.06,M,10.00,18.00,CLR,M,M,M,M,M,M,M,M,M,M,M,M,M,M,85.54,K10U 102335Z AUTO 31010G18KT 10SM CLR 32/M00 A3006 RMK AO2,M
TMT,2024-08-10 23:35,-117.1971,39.4643,1749.34,91.40,25.00,9.11,310.00,10.00,0.00,30.13,M,10.00,16.00,CLR,M,M,M,M,M,M,M,M,M,M,M,M,M,M,86.23,KTMT 102335Z AUTO 31010G16KT 10SM CLR 33/M04 A3013 RMK AO2 T03301039,M
05U,2024-08-10 23:50,-116.0051,39.6042,1811.23,M,M,M,320.00,13.00,0.00,30.12,M,10.00,18.00,CLR,M,M,M,M,M,M,M,M,M,M,M,M,M,M,M,K05U 102350Z AUTO 32013G18KT 10SM CLR A3012 RMK A01,M
P68,2024-08-10 23:53,-116.0056,39.6014,1993.00,94.00,23.00,7.73,290.00,10.00,0.00,30.09,1009.40,M,20.00,M,M,M,M,M,M,M,M,M,M,M,M,29.00,250.00,2024-08-10 23:25,88.02,KP68 102353Z AUTO 29010G20KT 260V340 34/M05 A3009 RMK AO1 PK WND 25029/2325 SLP094 T03441050 10361 20300 55006,M
DRA,2024-08-10 23:53,-116.0278,36.6206,1009.00,104.00,48.00,15.40,240.00,11.00,0.00,29.90,1006.20,10.00,18.00,CLR,M,M,M,M,M,M,M,M,M,M,M,M,M,M,100.60,KDRA 102353Z AUTO 24011G18KT 10SM CLR 40/09 A2990 RMK AO2 SLP062 T04000089 10411 20361 56018,M
ELY,2024-08-10 23:53,-114.8453,39.2950,1909.00,91.00,35.00,13.86,250.00,15.00,0.00,30.11,1008.50,10.00,28.00,CLR,M,M,M,M,M,M,M,M,M,M,M,28.00,260.00,2024-08-10 23:44,86.81,KELY 102353Z AUTO 25015G28KT 10SM CLR 33/02 A3011 RMK AO2 PK WND 26028/2344 SLP085 60000 T03280017 10339 20294 58016,M
VGT,2024-08-10 23:53,-115.1933,36.2111,667.00,105.00,55.00,19.36,260.00,14.00,0.00,29.81,1007.70,10.00,M,CLR,M,M,M,M,M,M,M,M,M,M,M,M,M,M,103.94,KVGT 102353Z 26014KT 10SM CLR 41/13 A2981 RMK AO2 WSHFT 2250 LTG DSNT S SLP077 T04060128 10428 20383 56018,M
LOL,2024-08-10 23:53,-118.5701,40.0684,1192.43,98.00,31.00,9.51,320.00,13.00,0.00,29.97,1010.40,10.00,18.00,CLR,M,M,M,M,M,M,M,M,M,M,M,M,M,M,92.06,KLOL 102353Z AUTO 32013G18KT 10SM CLR 37/M01 A2997 RMK AO2 SLP104 T03671006 10367 20311 56018,M
BVU,2024-08-10 23:55,-114.8611,35.9475,671.00,107.60,51.80,15.95,150.00,9.00,0.00,29.80,M,10.00,18.00,SCT,M,M,M,11000.00,M,M,M,M,M,M,M,M,M,M,105.43,KBVU 102355Z AUTO 15009G18KT 10SM SCT110 42/11 A2980 RMK AO2,M
CXP,2024-08-10 23:55,-119.7326,39.1923,1431.00,87.80,28.40,11.74,270.00,12.00,0.00,30.09,M,10.00,M,CLR,M,M,M,M,M,M,M,M,M,M,M,M,M,M,83.84,KCXP 102355Z AUTO 27012KT 10SM CLR 31/M02 A3009 RMK AO2,M
INS,2024-08-10 23:55,-115.6733,36.5872,955.00,102.40,46.00,14.98,0.00,0.00,0.00,29.88,1005.50,10.00,M,CLR,M,M,M,M,M,M,M,M,M,M,M,M,M,M,98.54,KINS 102355Z AUTO 00000KT 10SM CLR 39/08 A2988 RMK AO2 SLP055 T03910077 10404 20351 57017,M
RNO,2024-08-10 23:55,-119.7711,39.4839,1341.00,95.00,26.00,8.49,280.00,15.00,0.00,30.04,1010.80,10.00,33.00,SCT,M,M,M,10000.00,M,M,M,M,M,M,M,33.00,270.00,2024-08-10 23:55,89.02,KRNO 102355Z 28015G33KT 10SM SCT100 35/M03 A3004 RMK AO2 PK WND 27033/2355 SLP108 ACSL OHD THRU S T03501033 10372 20300 55009,M
RTS,2024-08-10 23:55,-119.8764,39.6682,1539.00,91.40,17.60,6.66,280.00,18.00,0.00,30.11,M,10.00,23.00,CLR,M,M,M,M,M,M,M,M,M,M,M,M,M,M,85.76,KRTS 102355Z AUTO 28018G23KT 10SM CLR 33/M08 A3011 RMK AO2,M
MEV,2024-08-10 23:55,-119.7500,38.9963,1441.42,89.60,30.20,11.94,280.00,16.00,0.00,30.07,M,10.00,22.00,CLR,M,M,M,M,M,M,M,M,M,M,M,M,M,M,85.34,KMEV 102355Z AUTO 28016G22KT 10SM CLR 32/M01 A3007 RMK AO2,M
BAM,2024-08-10 23:55,-116.8743,40.5990,1382.36,96.80,30.20,9.55,330.00,9.00,0.00,30.02,M,10.00,16.00,CLR,M,M,M,M,M,M,M,M,M,M,M,M,M,M,90.96,KBAM 102355Z AUTO 33009G16KT 10SM CLR 36/M01 A3002 RMK AO1,M
HTH,2024-08-10 23:55,-118.6315,38.5448,1282.89,98.60,21.20,6.22,10.00,10.00,0.00,29.98,M,10.00,17.00,CLR,M,M,M,M,M,M,M,M,M,M,M,M,M,M,91.61,KHTH 102355Z AUTO 01010G17KT 10SM CLR 37/M06 A2998 RMK A01,M
10U,2024-08-10 23:55,-116.1876,41.9532,1637.00,87.80,32.00,13.59,320.00,8.00,0.00,30.06,M,10.00,15.00,CLR,M,M,M,M,M,M,M,M,M,M,M,M,M,M,84.08,K10U 102355Z AUTO 32008G15KT 10SM CLR 31/M00 A3006 RMK AO2,M
LSV,2024-08-10 23:55,-115.0343,36.2362,570.00,107.00,49.50,14.91,260.00,11.00,0.00,29.74,1003.70,10.00,M,CLR,M,M,M,M,M,M,M,M,M,M,M,M,M,M,104.03,KLSV 102355Z AUTO 26011KT 10SM CLR 42/10 A2974 RMK AO2 SLP037 T04170097 10434 20382 56020 $,M
TMT,2024-08-10 23:55,-117.1971,39.4643,1749.34,91.60,26.00,9.44,280.00,20.00,0.00,30.13,M,10.00,23.00,CLR,M,M,M,M,M,M,M,M,M,M,M,M,M,M,86.46,KTMT 102355Z AUTO 28020G23KT 10SM CLR 33/M03 A3013 RMK AO2 T03311033 10336 20297,M
EKO,2024-08-10 23:56,-115.7860,40.8242,1367.00,94.00,23.00,7.73,260.00,24.00,0.00,30.03,1010.70,10.00,29.00,CLR,M,M,M,M,M,M,M,M,M,M,M,34.00,260.00,2024-08-10 23:04,88.02,KEKO 102356Z AUTO 26024G29KT 10SM CLR 34/M05 A3003 RMK AO2 PK WND 26034/2304 SLP107 T03441050 10356 20311 55012,M
WMC,2024-08-10 23:56,-117.8072,40.9019,1315.00,96.00,28.00,8.94,290.00,14.00,0.00,30.00,1010.10,10.00,23.00,CLR,M,M,M,M,M,M,M,M,M,M,M,26.00,290.00,2024-08-10 23:11,90.05,KWMC 102356Z AUTO 29014G23KT 10SM CLR 36/M02 A3000 RMK AO2 PK WND 29026/2311 SLP101 T03561022 10361 20317 56012,M
HND,2024-08-10 23:56,-115.1344,35.9729,742.79,107.00,57.00,19.63,250.00,8.00,0.00,29.86,1008.70,10.00,14.00,CLR,M,M,M,M,M,M,M,M,M,M,M,M,M,M,107.02,KHND 102356Z 25008G14KT 10SM CLR 42/14 A2986 RMK AO2 WSHFT 2247 LTG DSNT S SLP087 T04170139 10422 20378 56020,M
TPH,2024-08-10 23:56,-117.0904,38.0505,1654.00,97.00,35.00,11.51,260.00,13.00,0.00,30.06,1007.70,10.00,19.00,CLR,M,M,M,M,M,M,M,M,M,M,M,M,M,M,91.79,KTPH 102356Z AUTO 26013G19KT 10SM CLR 36/02 A3006 RMK AO2 SLP077 T03610017 10367 20306 56018,M
LAS,2024-08-10 23:56,-115.1634,36.0719,663.00,108.00,55.00,17.73,300.00,13.00,0.00,29.83,1006.50,10.00,M,FEW,SCT,M,M,11000.00,23000.00,M,M,M,M,M,M,M,M,M,107.16,KLAS 102356Z 30013KT 10SM FEW110 SCT230 42/13 A2983 RMK AO2 WSHFT 2339 LTG DSNT S SLP065 CB DSNT E AND DSNT S T04220128 10433 20389 56018,M
LSV,2024-08-10 23:56,-115.0343,36.2362,570.00,107.60,50.00,14.92,260.00,10.00,0.00,29.74,1003.70,10.00,M,CLR,M,M,M,M,M,M,M,M,M,M,M,M,M,M,104.80,KLSV 102356Z AUTO 26010KT 10SM CLR 42/10 A2974 RMK AO2 WSHFT 52 SLP037 $,M
NFL,2024-08-10 23:57,-118.7010,39.4166,1199.00,99.00,24.00,6.92,280.00,12.00,0.00,29.97,1012.00,10.00,M,CLR,M,M,M,M,M,M,M,M,M,M,M,M,M,M,92.16,KNFL 102357Z AUTO 28012KT 10SM CLR 37/M04 A2997 RMK AO2 SLP120 T03721044 10378 20306 56019,M
