station,valid,lon,lat,elevation,tmpf,dwpf,relh,drct,sknt,p01i,alti,mslp,vsby,gust,skyc1,skyc2,skyc3,skyc4,skyl1,skyl2,skyl3,skyl4,wxcodes,ice_accretion_1hr,ice_accretion_3hr,ice_accretion_6hr,peak_wind_gust,peak_wind_drct,peak_wind_time,feel,metar,snowdepth
HTH,2021-01-23 00:15,-118.6315,38.5448,1282.89,46.40,17.60,31.28,40.00,15.00,0.00,29.67,M,9.00,22.00,FEW,M,M,M,12000.00,M,M,M,M,M,M,M,M,M,M,39.45,KHTH 230015Z AUTO 04015G22KT 9SM FEW120 08/M08 A2967 RMK A01,M
BAM,2021-01-23 00:15,-116.8743,40.5990,1382.36,44.60,32.00,61.03,130.00,14.00,0.00,29.63,M,10.00,19.00,SCT,SCT,SCT,M,8000.00,9000.00,12000.00,M,M,M,M,M,M,M,M,37.40,KBAM 230015Z AUTO 13014G19KT 10SM SCT080 SCT090 SCT120 07/00 A2963 RMK AO1,M
MEV,2021-01-23 00:15,-119.7500,38.9963,1441.42,41.00,14.00,32.88,280.00,8.00,0.00,29.71,M,10.00,16.00,CLR,M,M,M,M,M,M,M,M,M,M,M,M,M,M,35.20,KMEV 230015Z AUTO 28008G16KT 10SM CLR 05/M10 A2971 RMK AO2,M
05U,2021-01-23 00:15,-116.0051,39.6042,1811.23,42.80,24.80,48.67,160.00,14.00,0.00,29.66,M,10.00,M,M,M,M,M,M,M,M,M,M,M,M,M,M,M,M,35.08,K05U 230015Z AUTO 16014KT 10SM 06/M04 A2966 RMK A01,M
BVU,2021-01-23 00:15,-114.8611,35.9475,671.00,57.20,41.00,54.60,160.00,17.00,0.00,29.76,M,10.00,23.00,OVC,M,M,M,6500.00,M,M,M,M,M,M,M,M,M,M,57.20,KBVU 230015Z AUTO 16017G23KT 10SM OVC065 14/05 A2976 RMK AO2,M
RTS,2021-01-23 00:15,-119.8764,39.6682,1539.00,37.40,17.60,44.25,320.00,15.00,0.00,29.73,M,10.00,20.00,SCT,SCT,M,M,5000.00,6000.00,M,M,M,M,M,M,M,M,M,27.78,KRTS 230015Z AUTO 32015G20KT 10SM SCT050 SCT060 03/M08 A2973 RMK AO2,M
CXP,2021-01-23 00:15,-119.7326,39.1923,1431.00,41.00,14.00,32.88,270.00,11.00,0.00,29.72,M,10.00,M,CLR,M,M,M,M,M,M,M,M,M,M,M,M,M,M,33.84,KCXP 230015Z AUTO 27011KT 10SM CLR 05/M10 A2972 RMK AO2,M
BAM,2021-01-23 00:35,-116.8743,40.5990,1382.36,42.80,32.00,65.38,120.00,14.00,0.00,29.63,M,10.00,17.00,SCT,M,M,M,12000.00,M,M,M,M,M,M,M,M,M,M,35.08,KBAM 230035Z AUTO 12014G17KT 10SM SCT120 06/00 A2963 RMK AO1,M
RTS,2021-01-23 00:35,-119.8764,39.6682,1539.00,35.60,17.60,47.51,310.00,15.00,0.00,29.74,M,10.00,21.00,FEW,SCT,BKN,M,4200.00,4900.00,6000.00,M,M,M,M,M,M,M,M,25.45,KRTS 230035Z AUTO 31015G21KT 10SM FEW042 SCT049 BKN060 02/M08 A2974 RMK AO2,M
CXP,2021-01-23 00:35,-119.7326,39.1923,1431.00,41.00,14.00,32.88,270.00,9.00,0.00,29.72,M,10.00,16.00,CLR,M,M,M,M,M,M,M,M,M,M,M,M,M,M,34.70,KCXP 230035Z AUTO 27009G16KT 10SM CLR 05/M10 A2972 RMK AO2,M
05U,2021-01-23 00:35,-116.0051,39.6042,1811.23,39.20,24.80,55.95,160.00,14.00,0.00,29.66,M,10.00,M,M,M,M,M,M,M,M,M,M,M,M,M,M,M,M,30.44,K05U 230035Z AUTO 16014KT 10SM 04/M04 A2966 RMK A01,M
BVU,2021-01-23 00:35,-114.8611,35.9475,671.00,57.20,41.00,54.60,160.00,17.00,0.00,29.75,M,10.00,22.00,OVC,M,M,M,6500.00,M,M,M,M,M,M,M,M,M,M,57.20,KBVU 230035Z AUTO 16017G22KT 10SM OVC065 14/05 A2975 RMK AO2,M
MEV,2021-01-23 00:35,-119.7500,38.9963,1441.42,39.20,14.00,35.26,280.00,9.00,0.00,29.71,M,10.00,M,CLR,M,M,M,M,M,M,M,M,M,M,M,M,M,M,32.47,KMEV 230035Z AUTO 28009KT 10SM CLR 04/M10 A2971 RMK AO2,M
HTH,2021-01-23 00:35,-118.6315,38.5448,1282.89,44.60,17.60,33.49,20.00,18.00,0.00,29.66,M,10.00,M,FEW,M,M,M,8000.00,M,M,M,M,M,M,M,M,M,M,36.34,KHTH 230035Z AUTO 02018KT 340V050 10SM FEW080 07/M08 A2966 RMK A01,M
P68,2021-01-23 00:53,-116.0056,39.6014,1993.00,38.00,25.00,59.36,150.00,12.00,0.00,29.63,1002.20,M,M,M,M,M,M,M,M,M,M,M,M,M,M,26.00,160.00,2021-01-22 23:55,29.51,KP68 230053Z AUTO 15012KT 03/M04 A2963 RMK AO1 PK WND 16026/2355 SLP022 T00331039,M
DRA,2021-01-23 00:53,-116.0278,36.6206,1009.00,54.00,26.10,33.77,180.00,19.00,0.00,29.68,1003.50,10.00,25.00,FEW,OVC,M,M,7000.00,8500.00,M,M,M,M,M,M,30.00,200.00,2021-01-22 23:54,54.00,KDRA 230053Z AUTO 18019G25KT 10SM FEW070 OVC085 12/M03 A2968 RMK AO2 PK WND 20030/2354 SLP035 T01221033,M
VGT,2021-01-23 00:53,-115.1933,36.2111,667.00,60.00,37.00,42.09,170.00,9.00,0.00,29.68,1006.40,10.00,19.00,BKN,M,M,M,11000.00,M,M,M,M,M,M,M,M,M,M,60.10,KVGT 230053Z 17009G19KT 10SM BKN110 16/03 A2968 RMK AO2 LTG DSNT SE SLP064 T01560028,M
ELY,2021-01-23 00:53,-114.8453,39.2950,1909.00,37.00,26.10,64.38,170.00,18.00,0.00,29.69,1003.50,10.00,M,FEW,OVC,M,M,4600.00,5500.00,M,M,M,M,M,M,M,M,M,26.33,KELY 230053Z AUTO 17018KT 10SM FEW046 OVC055 03/M03 A2969 RMK AO2 SLP035 T00281033,M
LOL,2021-01-23 00:53,-118.5701,40.0684,1192.43,41.00,27.00,57.15,30.00,4.00,0.00,29.71,1007.20,10.00,M,OVC,M,M,M,4700.00,M,M,M,M,M,M,M,M,M,M,37.93,KLOL 230053Z AUTO 03004KT 10SM OVC047 05/M03 A2971 RMK AO2 SLP072 T00501028,M
LAS,2021-01-23 00:54,-115.1634,36.0719,663.00,57.20,39.20,50.91,180.00,6.00,0.00,29.73,M,10.00,14.00,FEW,BKN,BKN,M,6000.00,7500.00,18000.00,M,VCTS,M,M,M,M,M,M,57.20,KLAS 230054Z 18006G14KT 10SM VCTS FEW060 BKN075 BKN180 14/04 A2973 RMK AO2 VCSH CB NE-SE-SW,M
CXP,2021-01-23 00:55,-119.7326,39.1923,1431.00,41.00,14.00,32.88,280.00,6.00,0.00,29.73,M,10.00,13.00,CLR,M,M,M,M,M,M,M,M,M,M,M,M,M,M,36.37,KCXP 230055Z AUTO 28006G13KT 10SM CLR 05/M10 A2973 RMK AO2,M
RNO,2021-01-23 00:55,-119.7711,39.4839,1341.00,41.00,16.00,35.88,280.00,11.00,0.00,29.72,1006.30,10.00,M,FEW,BKN,BKN,M,5500.00,7500.00,14000.00,M,M,M,M,M,M,M,M,33.84,KRNO 230055Z 28011KT 10SM FEW055 BKN075 BKN140 05/M09 A2972 RMK AO2 SLP063 SH VC N THRU NE CLDS TPG MTN DSNT SW T00501089,M
BVU,2021-01-23 00:55,-114.8611,35.9475,671.00,57.20,42.80,58.52,150.00,15.00,0.00,29.75,M,10.00,21.00,BKN,M,M,M,6500.00,M,M,M,M,M,M,M,M,M,M,57.20,KBVU 230055Z AUTO 15015G21KT 10SM BKN065 14/06 A2975 RMK AO2,M
RTS,2021-01-23 00:55,-119.8764,39.6682,1539.00,33.80,17.60,51.04,300.00,15.00,0.00,29.74,M,10.00,M,SCT,BKN,BKN,M,4500.00,5500.00,6500.00,M,M,M,M,M,M,M,M,23.11,KRTS 230055Z AUTO 30015KT 10SM SCT045 BKN055 BKN065 01/M08 A2974 RMK AO2,M
05U,2021-01-23 00:55,-116.0051,39.6042,1811.23,37.40,24.80,60.04,150.00,10.00,0.00,29.65,M,10.00,M,M,M,M,M,M,M,M,M,M,M,M,M,M,M,M,29.74,K05U 230055Z AUTO 15010KT 10SM 03/M04 A2965 RMK A01,M
MEV,2021-01-23 00:55,-119.7500,38.9963,1441.42,39.20,15.80,38.15,310.00,6.00,0.00,29.72,M,10.00,M,CLR,M,M,M,M,M,M,M,M,M,M,M,M,M,M,34.20,KMEV 230055Z AUTO 31006KT 10SM CLR 04/M09 A2972 RMK AO2,M
BAM,2021-01-23 00:55,-116.8743,40.5990,1382.36,42.80,32.00,65.38,110.00,10.00,0.00,29.63,M,10.00,M,OVC,M,M,M,11000.00,M,M,M,M,M,M,M,M,M,M,36.51,KBAM 230055Z AUTO 11010KT 10SM OVC110 06/00 A2963 RMK AO1,M
HTH,2021-01-23 00:55,-118.6315,38.5448,1282.89,44.60,17.60,33.49,30.00,11.00,0.00,29.68,M,10.00,19.00,SCT,M,M,M,7500.00,M,M,M,M,M,M,M,M,M,M,38.39,KHTH 230055Z AUTO 03011G19KT 10SM SCT075 07/M08 A2968 RMK A01,M
EKO,2021-01-23 00:56,-115.7860,40.8242,1367.00,40.00,28.90,64.49,150.00,6.00,0.00,29.65,1004.60,10.00,M,OVC,M,M,M,4300.00,M,M,M,M,M,M,M,M,M,M,35.04,KEKO 230056Z AUTO 15006KT 10SM OVC043 04/M02 A2965 RMK AO2 LTG DSNT NW SLP046 T00441017,M
NFL,2021-01-23 00:56,-118.7010,39.4166,1199.00,37.00,30.90,78.37,60.00,5.00,0.00,29.71,1004.30,10.00,M,SCT,SCT,BKN,BKN,5000.00,7000.00,10000.00,16000.00,M,M,M,M,M,M,M,32.33,KNFL 230056Z 06005KT 10SM SCT050 SCT070 BKN100 BKN160 03/M01 A2971 RMK AO2 SLP043 SH DSNT NE-SE T00281006,M
HND,2021-01-23 00:56,-115.1344,35.9729,742.79,55.00,42.00,61.69,200.00,11.00,0.01,29.75,1008.70,10.00,M,OVC,M,M,M,6000.00,M,M,M,-RA,M,M,M,M,M,M,55.00,KHND 230056Z 20011KT 10SM -RA OVC060 13/06 A2975 RMK AO2 LTG DSNT NE RAB19 SLP087 P0001 T01280056,M
WMC,2021-01-23 00:56,-117.8072,40.9019,1315.00,35.00,27.00,72.04,270.00,18.00,0.00,29.67,1005.30,10.00,26.00,FEW,M,M,M,2900.00,M,M,M,M,M,M,M,30.00,270.00,2021-01-23 00:29,23.83,KWMC 230056Z AUTO 27018G26KT 10SM FEW029 02/M03 A2967 RMK AO2 PK WND 27030/0029 SLP053 T00171028,M
LAS,2021-01-23 00:56,-115.1634,36.0719,663.00,58.00,40.00,51.02,190.00,6.00,0.00,29.73,1005.80,10.00,14.00,FEW,BKN,BKN,M,6000.00,7500.00,18000.00,M,VCTS,M,M,M,M,M,M,57.90,KLAS 230056Z 19006G14KT 10SM VCTS FEW060 BKN075CB BKN180 14/04 A2973 RMK AO2 SLP058 VCSH CB NE-SE-SW T01440044,M
TPH,2021-01-23 00:56,-117.0904,38.0505,1654.00,44.00,17.10,33.40,200.00,15.00,0.00,29.64,1003.50,10.00,M,BKN,OVC,M,M,7000.00,9000.00,M,M,M,M,M,M,M,M,M,36.47,KTPH 230056Z AUTO 20015KT 10SM BKN070 OVC090 07/M08 A2964 RMK AO2 SLP035 T00671083,M
LAS,2021-01-23 01:09,-115.1634,36.0719,663.00,60.00,30.90,32.99,230.00,10.00,0.00,29.73,M,10.00,17.00,FEW,BKN,BKN,M,6000.00,7500.00,18000.00,M,M,M,M,M,M,M,M,60.10,KLAS 230109Z 23010G17KT 10SM FEW060 BKN075CB BKN180 16/M01 A2973 RMK AO2 VCSH CB NE-SE-SW T01561006,M
HTH,2021-01-23 01:15,-118.6315,38.5448,1282.89,42.80,19.40,38.75,40.00,8.00,0.00,29.68,M,10.00,M,FEW,M,M,M,7500.00,M,M,M,M,M,M,M,M,M,M,37.42,KHTH 230115Z AUTO 04008KT 10SM FEW075 06/M07 A2968 RMK A01,M
MEV,2021-01-23 01:15,-119.7500,38.9963,1441.42,37.40,15.80,40.93,250.00,3.00,0.00,29.72,M,10.00,M,CLR,M,M,M,M,M,M,M,M,M,M,M,M,M,M,34.86,KMEV 230115Z AUTO 25003KT 10SM CLR 03/M09 A2972 RMK AO2,M
RTS,2021-01-23 01:15,-119.8764,39.6682,1539.00,33.80,17.60,51.04,300.00,15.00,0.00,29.74,M,10.00,M,FEW,FEW,M,M,4500.00,5500.00,M,M,M,M,M,M,M,M,M,23.11,KRTS 230115Z AUTO 30015KT 10SM FEW045 FEW055 01/M08 A2974 RMK AO2,M
05U,2021-01-23 01:15,-116.0051,39.6042,1811.23,37.40,23.00,55.68,160.00,14.00,0.00,29.65,M,10.00,20.00,M,M,M,M,M,M,M,M,M,M,M,M,M,M,M,28.12,K05U 230115Z AUTO 16014G20KT 10SM 03/M05 A2965 RMK A01,M
BVU,2021-01-23 01:15,-114.8611,35.9475,671.00,55.40,42.80,62.46,160.00,16.00,0.00,29.75,M,10.00,22.00,SCT,M,M,M,7000.00,M,M,M,M,M,M,M,M,M,M,55.40,KBVU 230115Z AUTO 16016G22KT 10SM SCT070 13/06 A2975 RMK AO2,M
CXP,2021-01-23 01:15,-119.7326,39.1923,1431.00,39.20,15.80,38.15,280.00,9.00,0.00,29.73,M,10.00,15.00,CLR,M,M,M,M,M,M,M,M,M,M,M,M,M,M,32.47,KCXP 230115Z AUTO 28009G15KT 10SM CLR 04/M09 A2973 RMK AO2,M
BAM,2021-01-23 01:15,-116.8743,40.5990,1382.36,42.80,32.00,65.38,80.00,8.00,0.00,29.63,M,10.00,M,OVC,M,M,M,11000.00,M,M,M,M,M,M,M,M,M,M,37.42,KBAM 230115Z AUTO 08008KT 10SM OVC110 06/00 A2963 RMK AO1,M
EKO,2021-01-23 01:19,-115.7860,40.8242,1367.00,35.00,30.90,84.49,180.00,9.00,T,29.67,M,4.00,16.00,BKN,OVC,M,M,1500.00,4000.00,M,M,-SN BR,M,M,M,M,M,M,27.37,KEKO 230119Z AUTO 18009G16KT 4SM -SN BR BKN015 OVC040 02/M01 A2967 RMK AO2 RAB00E17SNB17 P0000 T00171006,M
EKO,2021-01-23 01:22,-115.7860,40.8242,1367.00,34.00,30.90,88.27,190.00,7.00,T,29.66,M,2.00,16.00,FEW,BKN,OVC,M,800.00,1500.00,3800.00,M,-SN BR,M,M,M,M,M,M,27.22,KEKO 230122Z AUTO 19007G16KT 2SM -SN BR FEW008 BKN015 OVC038 01/M01 A2966 RMK AO2 RAB00E17SNB17 P0000 T00111006,M
EKO,2021-01-23 01:29,-115.7860,40.8242,1367.00,33.00,30.90,91.51,240.00,5.00,0.03,29.66,M,1.25,M,SCT,BKN,OVC,M,800.00,1500.00,3800.00,M,-SN BR,M,M,M,M,M,M,27.70,KEKO 230129Z AUTO 24005KT 1 1/4SM -SN BR SCT008 BKN015 OVC038 01/M01 A2966 RMK AO2 RAB00E17SNB17 P0003 T00061006,M
BVU,2021-01-23 01:35,-114.8611,35.9475,671.00,55.40,41.00,58.27,160.00,17.00,0.00,29.75,M,10.00,M,FEW,SCT,BKN,M,3100.00,4500.00,8000.00,M,M,M,M,M,M,M,M,55.40,KBVU 230135Z AUTO 16017KT 10SM FEW031 SCT045 BKN080 13/05 A2975 RMK AO2,M
CXP,2021-01-23 01:35,-119.7326,39.1923,1431.00,39.20,15.80,38.15,280.00,7.00,0.00,29.73,M,10.00,12.00,CLR,M,M,M,M,M,M,M,M,M,M,M,M,M,M,33.56,KCXP 230135Z AUTO 28007G12KT 10SM CLR 04/M09 A2973 RMK AO2,M
MEV,2021-01-23 01:35,-119.7500,38.9963,1441.42,35.60,15.80,43.95,250.00,9.00,0.00,29.72,M,10.00,M,CLR,M,M,M,M,M,M,M,M,M,M,M,M,M,M,27.99,KMEV 230135Z AUTO 25009KT 10SM CLR 02/M09 A2972 RMK AO2,M
BAM,2021-01-23 01:35,-116.8743,40.5990,1382.36,42.80,32.00,65.38,60.00,7.00,0.00,29.63,M,10.00,M,SCT,OVC,M,M,8500.00,10000.00,M,M,M,M,M,M,M,M,M,37.94,KBAM 230135Z AUTO 06007KT 10SM SCT085 OVC100 06/00 A2963 RMK AO1,M
HTH,2021-01-23 01:35,-118.6315,38.5448,1282.89,42.80,17.60,35.87,270.00,6.00,0.00,29.69,M,10.00,M,FEW,M,M,M,12000.00,M,M,M,M,M,M,M,M,M,M,38.54,KHTH 230135Z AUTO 27006KT 10SM FEW120 06/M08 A2969 RMK A01,M
05U,2021-01-23 01:35,-116.0051,39.6042,1811.23,39.20,23.00,51.89,160.00,15.00,0.00,29.65,M,10.00,M,M,M,M,M,M,M,M,M,M,M,M,M,M,M,M,30.11,K05U 230135Z AUTO 16015KT 10SM 04/M05 A2965 RMK A01,M
RTS,2021-01-23 01:35,-119.8764,39.6682,1539.00,32.00,17.60,54.87,300.00,12.00,0.00,29.74,M,10.00,M,CLR,M,M,M,M,M,M,M,M,M,M,M,M,M,M,22.00,KRTS 230135Z AUTO 30012KT 10SM CLR 00/M08 A2974 RMK AO2,M
EKO,2021-01-23 01:36,-115.7860,40.8242,1367.00,33.00,32.00,95.67,180.00,3.00,0.05,29.66,M,1.50,M,FEW,BKN,OVC,M,300.00,900.00,1600.00,M,-SN BR,M,M,M,M,M,M,29.95,KEKO 230136Z AUTO 18003KT 1 1/2SM -SN BR FEW003 BKN009 OVC016 01/00 A2966 RMK AO2 RAB00E17SNB17 P0005 T00060000,M
TPH,2021-01-23 01:39,-117.0904,38.0505,1654.00,35.00,30.90,84.49,280.00,15.00,T,29.67,M,2.50,23.00,BKN,BKN,OVC,M,2300.00,3700.00,5000.00,M,-SN BR,M,M,M,M,M,M,24.80,KTPH 230139Z AUTO 28015G23KT 2 1/2SM -SN BR BKN023 BKN037 OVC050 02/M01 A2967 RMK AO2 WSHFT 0125 RAB16E29SNB33 P0000 T00171006,M
TPH,2021-01-23 01:45,-117.0904,38.0505,1654.00,34.00,32.00,92.29,280.00,13.00,T,29.67,M,1.75,M,BKN,BKN,OVC,M,1400.00,3500.00,4300.00,M,-SN BR,M,M,M,M,M,M,24.13,KTPH 230145Z AUTO 28013KT 1 3/4SM -SN BR BKN014 BKN035 OVC043 01/00 A2967 RMK AO2 WSHFT 0125 RAB16E29SNB33 P0000 T00110000,M
LOL,2021-01-23 01:53,-118.5701,40.0684,1192.43,39.00,28.00,64.37,350.00,7.00,0.00,29.71,1007.40,10.00,M,OVC,M,M,M,10000.00,M,M,M,M,M,M,M,M,M,M,33.31,KLOL 230153Z AUTO 35007KT 10SM OVC100 04/M02 A2971 RMK AO2 SLP074 T00391022,M
P68,2021-01-23 01:53,-116.0056,39.6014,1993.00,37.00,24.10,59.24,180.00,12.00,0.00,29.62,1002.30,M,M,M,M,M,M,M,M,M,M,M,M,M,M,M,M,M,28.37,KP68 230153Z AUTO 18012KT 03/M04 A2962 RMK AO1 SLP023 T00281044,M
ELY,2021-01-23 01:53,-114.8453,39.2950,1909.00,35.00,26.10,69.41,170.00,13.00,T,29.67,1003.70,9.00,M,SCT,SCT,BKN,M,3100.00,5000.00,7000.00,M,-SN,M,M,M,M,M,M,25.54,KELY 230153Z AUTO 17013KT 9SM -SN SCT031 SCT050 BKN070 02/M03 A2967 RMK AO2 SNB47 SLP037 P0000 T00171033,M
DRA,2021-01-23 01:53,-116.0278,36.6206,1009.00,51.00,32.00,47.81,190.00,17.00,0.00,29.67,1003.30,10.00,28.00,SCT,BKN,BKN,M,5500.00,7000.00,9500.00,M,M,M,M,M,33.00,180.00,2021-01-23 01:32,51.10,KDRA 230153Z AUTO 19017G28KT 10SM SCT055 BKN070 BKN095 11/00 A2967 RMK AO2 PK WND 18033/0132 SLP033 T01060000,M
VGT,2021-01-23 01:53,-115.1933,36.2111,667.00,60.00,30.90,32.99,200.00,13.00,0.00,29.66,1005.70,10.00,M,BKN,M,M,M,11000.00,M,M,M,M,M,M,M,M,M,M,60.10,KVGT 230153Z 20013KT 10SM BKN110 16/M01 A2966 RMK AO2 LTG DSNT W SLP057 T01561006,M
EKO,2021-01-23 01:54,-115.7860,40.8242,1367.00,33.80,30.20,86.49,210.00,5.05,M,29.65,M,1.75,M,BKN,OVC,M,M,200.00,898.00,M,M,-SN BR,M,M,M,M,M,M,28.48,SPECI KEKO 230154Z 21005KT 1 3/4SM -SN BR BKN002 OVC009 01/M01 A2965 RMK AO2 RAB00E17SNB17 P0007 FIBI,M
05U,2021-01-23 01:55,-116.0051,39.6042,1811.23,37.40,23.00,55.68,180.00,10.00,0.00,29.65,M,10.00,M,M,M,M,M,M,M,M,M,M,M,M,M,M,M,M,29.74,K05U 230155Z AUTO 18010KT 10SM 03/M05 A2965 RMK A01,M
CXP,2021-01-23 01:55,-119.7326,39.1923,1431.00,39.20,15.80,38.15,270.00,5.00,0.00,29.73,M,10.00,M,CLR,M,M,M,M,M,M,M,M,M,M,M,M,M,M,34.95,KCXP 230155Z AUTO 27005KT 10SM CLR 04/M09 A2973 RMK AO2,M
RTS,2021-01-23 01:55,-119.8764,39.6682,1539.00,32.00,17.60,54.87,310.00,13.00,0.00,29.74,M,10.00,M,CLR,M,M,M,M,M,M,M,M,M,M,M,M,M,M,21.57,KRTS 230155Z AUTO 31013KT 10SM CLR M00/M08 A2974 RMK AO2,M
MEV,2021-01-23 01:55,-119.7500,38.9963,1441.42,37.40,15.80,40.93,270.00,10.00,0.00,29.73,M,10.00,M,CLR,M,M,M,M,M,M,M,M,M,M,M,M,M,M,29.74,KMEV 230155Z AUTO 27010KT 10SM CLR 03/M09 A2973 RMK AO2,M
BAM,2021-01-23 01:55,-116.8743,40.5990,1382.36,41.00,32.00,70.08,90.00,6.00,0.00,29.64,M,10.00,M,BKN,OVC,M,M,6000.00,8500.00,M,M,M,M,M,M,M,M,M,36.37,KBAM 230155Z AUTO 09006KT 10SM BKN060 OVC085 05/00 A2964 RMK AO1,M
RNO,2021-01-23 01:55,-119.7711,39.4839,1341.00,37.00,21.00,51.99,340.00,13.00,0.00,29.73,1006.90,10.00,M,SCT,SCT,BKN,M,5500.00,7500.00,14000.00,M,M,M,M,M,M,M,M,27.97,KRNO 230155Z 34013KT 10SM SCT055 SCT075 BKN140 03/M06 A2973 RMK AO2 SLP069 CLDS TPG MTNS DSNT SW AND NW T00281061,M
HTH,2021-01-23 01:55,-118.6315,38.5448,1282.89,42.80,17.60,35.87,0.00,0.00,0.00,29.70,M,10.00,M,SCT,SCT,M,M,9000.00,12000.00,M,M,M,M,M,M,M,M,M,42.80,KHTH 230155Z AUTO 00000KT 10SM SCT090 SCT120 06/M08 A2970 RMK A01,M
BVU,2021-01-23 01:55,-114.8611,35.9475,671.00,57.20,41.00,54.60,160.00,15.00,0.00,29.74,M,10.00,22.00,FEW,BKN,OVC,M,3100.00,7500.00,9500.00,M,M,M,M,M,M,M,M,57.20,KBVU 230155Z AUTO 16015G22KT 10SM FEW031 BKN075 OVC095 14/05 A2974 RMK AO2 LTG DSNT N AND NE,M
LAS,2021-01-23 01:56,-115.1634,36.0719,663.00,59.00,32.00,35.87,190.00,9.00,0.00,29.71,1005.10,10.00,M,BKN,BKN,M,M,9000.00,11000.00,M,M,M,M,M,M,M,M,M,59.00,KLAS 230156Z 19009KT 10SM BKN090 BKN110 15/00 A2971 RMK AO2 LTG DSNT W AND NW SLP051 T01500000,M
NFL,2021-01-23 01:56,-118.7010,39.4166,1199.00,34.00,28.00,78.43,330.00,4.00,0.00,29.72,1004.60,10.00,M,SCT,SCT,BKN,BKN,5000.00,7000.00,10000.00,16000.00,M,M,M,M,M,M,M,29.76,KNFL 230156Z 33004KT 10SM SCT050 SCT070 BKN100 BKN160 01/M02 A2972 RMK AO2 SLP046 SH VC W SH DSNT NE-SE T00111022,M
TPH,2021-01-23 01:56,-117.0904,38.0505,1654.00,34.00,32.00,92.29,280.00,16.00,T,29.67,1005.60,1.00,20.00,BKN,OVC,M,M,1200.00,3800.00,M,M,-SN BR,M,M,M,M,M,M,23.03,KTPH 230156Z AUTO 28016G20KT 1SM -SN BR BKN012 OVC038 01/00 A2967 RMK AO2 WSHFT 0125 RAB16E29SNB33 SLP056 P0000 T00110000,M
EKO,2021-01-23 01:56,-115.7860,40.8242,1367.00,33.00,30.90,91.51,210.00,5.00,0.07,29.65,1005.50,1.75,M,BKN,OVC,M,M,200.00,900.00,M,M,-SN BR,M,M,M,M,M,M,27.70,KEKO 230156Z AUTO 21005KT 1 3/4SM -SN BR BKN002 OVC009 01/M01 A2965 RMK AO2 RAB00E17SNB17 SLP055 P0007 T00061006,M
HND,2021-01-23 01:56,-115.1344,35.9729,742.79,55.00,39.00,54.70,180.00,12.00,T,29.73,1008.10,10.00,M,BKN,OVC,M,M,6000.00,10000.00,M,M,-RA,M,M,M,M,M,M,55.00,KHND 230156Z 18012KT 10SM -RA BKN060 OVC100 13/04 A2973 RMK AO2 RAE22B40 SLP081 P0000 T01280039,M
WMC,2021-01-23 01:56,-117.8072,40.9019,1315.00,35.00,28.00,75.06,280.00,16.00,0.00,29.69,1006.10,10.00,24.00,SCT,OVC,M,M,6500.00,9000.00,M,M,M,M,M,M,27.00,270.00,2021-01-23 00:59,24.46,KWMC 230156Z AUTO 28016G24KT 10SM SCT065 OVC090 02/M02 A2969 RMK AO2 PK WND 27027/0059 SLP061 T00171022,M
TPH,2021-01-23 02:07,-117.0904,38.0505,1654.00,33.00,32.00,95.67,280.00,14.00,T,29.68,M,0.75,M,VV ,M,M,M,900.00,M,M,M,-SN BR,M,M,M,M,M,M,22.58,KTPH 230207Z AUTO 28014KT 3/4SM -SN BR VV009 01/00 A2968 RMK AO2 LTG DSNT NW P0000 T00060000,M
HTH,2021-01-23 02:15,-118.6315,38.5448,1282.89,42.80,14.00,30.68,M,4.00,0.00,29.70,M,10.00,M,FEW,SCT,BKN,M,7500.00,9500.00,12000.00,M,M,M,M,M,M,M,M,40.03,KHTH 230215Z AUTO VRB04KT 10SM FEW075 SCT095 BKN120 06/M10 A2970 RMK A01,M
05U,2021-01-23 02:15,-116.0051,39.6042,1811.23,35.60,21.20,55.41,180.00,10.00,0.00,29.65,M,10.00,M,M,M,M,M,M,M,M,M,M,M,M,M,M,M,M,27.48,K05U 230215Z AUTO 18010KT 10SM 02/M06 A2965 RMK A01,M
RTS,2021-01-23 02:15,-119.8764,39.6682,1539.00,30.20,17.60,59.01,300.00,8.00,0.00,29.74,M,10.00,M,CLR,M,M,M,M,M,M,M,M,M,M,M,M,M,M,21.90,KRTS 230215Z AUTO 30008KT 10SM CLR M01/M08 A2974 RMK AO2,M
CXP,2021-01-23 02:15,-119.7326,39.1923,1431.00,37.40,15.80,40.93,280.00,4.00,0.00,29.73,M,10.00,M,CLR,M,M,M,M,M,M,M,M,M,M,M,M,M,M,33.73,KCXP 230215Z AUTO 28004KT 10SM CLR 03/M09 A2973 RMK AO2,M
BAM,2021-01-23 02:15,-116.8743,40.5990,1382.36,41.00,32.00,70.08,180.00,9.00,0.00,29.67,M,10.00,20.00,SCT,BKN,OVC,M,2900.00,3400.00,6000.00,M,M,M,M,M,M,M,M,34.70,KBAM 230215Z AUTO 18009G20KT 10SM SCT029 BKN034 OVC060 05/00 A2967 RMK AO1,M
BVU,2021-01-23 02:15,-114.8611,35.9475,671.00,55.40,39.20,54.34,160.00,13.00,0.00,29.74,M,10.00,M,FEW,BKN,OVC,M,6500.00,7500.00,9000.00,M,M,M,M,M,M,M,M,55.40,KBVU 230215Z AUTO 16013KT 10SM FEW065 BKN075 OVC090 13/04 A2974 RMK AO2,M
MEV,2021-01-23 02:15,-119.7500,38.9963,1441.42,35.60,15.80,43.95,280.00,5.00,0.00,29.73,M,10.00,11.00,CLR,M,M,M,M,M,M,M,M,M,M,M,M,M,M,30.67,KMEV 230215Z AUTO 28005G11KT 10SM CLR 02/M09 A2973 RMK AO2,M
LAS,2021-01-23 02:17,-115.1634,36.0719,663.00,58.00,36.00,43.78,190.00,14.00,0.00,29.70,M,10.00,24.00,BKN,BKN,M,M,9000.00,11000.00,M,M,TS,M,M,M,M,M,M,57.90,KLAS 230217Z 19014G24KT 10SM TS BKN090 BKN110 14/02 A2970 RMK AO2 TSB11 T01440022,M
HND,2021-01-23 02:17,-115.1344,35.9729,742.79,53.60,39.20,58.02,240.00,13.00,0.01,29.74,M,10.00,21.00,OVC,M,M,M,5500.00,M,M,M,-TSRA,M,M,M,M,M,M,53.60,KHND 230217Z 24013G21KT 10SM -TSRA OVC055 12/04 A2974 RMK AO2 TSB11 P0001,M
LAS,2021-01-23 02:21,-115.1634,36.0719,663.00,56.00,38.00,50.71,190.00,13.00,T,29.70,M,10.00,25.00,BKN,BKN,M,M,9000.00,11000.00,M,M,-TSRA,M,M,M,M,M,M,55.90,KLAS 230221Z 19013G25KT 10SM -TSRA BKN090CB BKN110 13/03 A2970 RMK AO2 RAB20 TSB11 OCNL LTGICCCCG OHD-S-W TS OHD-S-W MOV NE P0000 T01330033,M
HND,2021-01-23 02:32,-115.1344,35.9729,742.79,51.80,39.20,61.99,230.00,10.00,0.01,29.74,M,10.00,22.00,OVC,M,M,M,5000.00,M,M,M,-RA,M,M,M,M,M,M,51.80,KHND 230232Z 23010G22KT 10SM -RA OVC050 11/04 A2974 RMK AO2 LTG DSNT W TSB11E26 P0001,M
WMC,2021-01-23 02:32,-117.8072,40.9019,1315.00,35.00,28.00,75.06,270.00,15.00,T,29.70,M,10.00,22.00,BKN,BKN,OVC,M,2600.00,3100.00,5500.00,M,-SN,M,M,M,M,M,M,24.80,KWMC 230232Z AUTO 27015G22KT 10SM -SN BKN026 BKN031 OVC055 02/M02 A2970 RMK AO2 SNB32 P0000 T00171022,M
RTS,2021-01-23 02:35,-119.8764,39.6682,1539.00,28.40,15.80,58.75,310.00,8.00,0.00,29.75,M,10.00,M,SCT,M,M,M,4900.00,M,M,M,M,M,M,M,M,M,M,19.68,KRTS 230235Z AUTO 31008KT 10SM SCT049 M02/M09 A2975 RMK AO2,M
05U,2021-01-23 02:35,-116.0051,39.6042,1811.23,35.60,23.00,59.79,190.00,8.00,0.00,29.65,M,10.00,M,M,M,M,M,M,M,M,M,M,M,M,M,M,M,M,28.55,K05U 230235Z AUTO 19008KT 10SM 02/M05 A2965 RMK A01,M
MEV,2021-01-23 02:35,-119.7500,38.9963,1441.42,33.80,15.80,47.22,270.00,6.00,0.00,29.73,M,10.00,M,CLR,M,M,M,M,M,M,M,M,M,M,M,M,M,M,27.70,KMEV 230235Z AUTO 27006KT 10SM CLR 01/M09 A2973 RMK AO2,M
BAM,2021-01-23 02:35,-116.8743,40.5990,1382.36,39.20,32.00,75.16,190.00,7.00,0.00,29.67,M,10.00,M,SCT,BKN,OVC,M,1600.00,2200.00,3400.00,M,M,M,M,M,M,M,M,33.56,KBAM 230235Z AUTO 19007KT 10SM SCT016 BKN022 OVC034 04/00 A2967 RMK AO1,M
HTH,2021-01-23 02:35,-118.6315,38.5448,1282.89,41.00,15.80,35.57,360.00,11.00,0.00,29.70,M,10.00,16.00,SCT,BKN,M,M,7500.00,10000.00,M,M,M,M,M,M,M,M,M,33.84,KHTH 230235Z AUTO 36011G16KT 10SM SCT075 BKN100 05/M09 A2970 RMK A01,M
EKO,2021-01-23 02:35,-115.7860,40.8242,1367.00,33.00,30.90,91.51,220.00,8.00,0.03,29.66,M,2.00,M,BKN,OVC,M,M,300.00,1100.00,M,M,-SN BR,M,M,M,M,M,M,25.47,KEKO 230235Z AUTO 22008KT 2SM -SN BR BKN003 OVC011 01/M01 A2966 RMK AO2 P0003 T00061006,M
CXP,2021-01-23 02:35,-119.7326,39.1923,1431.00,37.40,17.60,44.25,300.00,6.00,0.00,29.73,M,10.00,M,CLR,M,M,M,M,M,M,M,M,M,M,M,M,M,M,32.03,KCXP 230235Z AUTO 30006KT 10SM CLR 03/M08 A2973 RMK AO2,M
BVU,2021-01-23 02:35,-114.8611,35.9475,671.00,55.40,39.20,54.34,170.00,12.00,0.00,29.73,M,10.00,M,SCT,BKN,M,M,8000.00,9000.00,M,M,M,M,M,M,M,M,M,55.40,KBVU 230235Z AUTO 17012KT 10SM SCT080 BKN090 13/04 A2973 RMK AO2,M
EKO,2021-01-23 02:37,-115.7860,40.8242,1367.00,33.00,30.90,91.51,230.00,7.00,0.04,29.66,M,1.75,M,SCT,OVC,M,M,300.00,1100.00,M,M,-SN BR,M,M,M,M,M,M,26.12,KEKO 230237Z AUTO 23007KT 1 3/4SM -SN BR SCT003 OVC011 01/M01 A2966 RMK AO2 P0004 T00061006,M
TPH,2021-01-23 02:37,-117.0904,38.0505,1654.00,32.00,32.00,100.00,260.00,11.00,0.01,29.68,M,1.00,M,VV ,M,M,M,1000.00,M,M,M,-SN BR,M,M,M,M,M,M,22.47,KTPH 230237Z AUTO 26011KT 1SM -SN BR VV010 00/00 A2968 RMK AO2 P0001 T00000000,M
EKO,2021-01-23 02:47,-115.7860,40.8242,1367.00,33.00,30.90,91.51,220.00,5.00,0.05,29.66,M,2.00,M,SCT,BKN,OVC,M,300.00,900.00,1900.00,M,-SN BR,M,M,M,M,M,M,27.70,KEKO 230247Z AUTO 22005KT 2SM -SN BR SCT003 BKN009 OVC019 01/M01 A2966 RMK AO2 P0005 T00061006,M
LAS,2021-01-23 02:48,-115.1634,36.0719,663.00,52.00,41.00,66.00,200.00,6.00,T,29.69,M,10.00,M,FEW,SCT,BKN,M,4200.00,5500.00,7000.00,M,M,M,M,M,M,M,M,52.00,KLAS 230248Z 20006KT 10SM FEW042 SCT055 BKN070 11/05 A2969 RMK AO2 LTG DSNT NE AND W RAB20E45 TSB11E26B27E48 PRESFR TS DSIPTD P0000 T01110050,M
TPH,2021-01-23 02:50,-117.0904,38.0505,1654.00,33.80,32.00,93.03,330.00,14.00,0.01,29.69,M,0.75,25.00,VV ,M,M,M,900.00,M,M,M,-SN BR,M,M,M,M,M,M,23.48,KTPH 230250Z AUTO 33014G25KT 3/4SM -SN BR VV009 01/00 A2969 RMK AO2 P0001,M
P68,2021-01-23 02:53,-116.0056,39.6014,1993.00,36.00,24.10,61.62,210.00,9.00,0.00,29.63,1002.60,M,M,M,M,M,M,M,M,M,M,M,M,M,M,M,M,M,28.49,KP68 230253Z AUTO 21009KT 02/M04 A2963 RMK AO1 SLP026 T00221044 55000,M
LOL,2021-01-23 02:53,-118.5701,40.0684,1192.43,37.00,28.00,69.63,30.00,6.00,0.00,29.73,1008.10,10.00,M,CLR,M,M,M,M,M,M,M,M,M,M,M,M,M,M,31.55,KLOL 230253Z AUTO 03006KT 10SM CLR 03/M02 A2973 RMK AO2 SLP081 T00281022 53001,M
ELY,2021-01-23 02:53,-114.8453,39.2950,1909.00,35.00,25.00,66.31,160.00,15.00,T,29.66,1003.70,10.00,20.00,BKN,OVC,M,M,6000.00,7500.00,M,M,M,M,M,M,M,M,M,24.80,KELY 230253Z AUTO 16015G20KT 10SM BKN060 OVC075 02/M04 A2966 RMK AO2 SNE0156B17E32 SLP037 P0000 60000 T00171039 58007,M
VGT,2021-01-23 02:53,-115.1933,36.2111,667.00,56.00,34.00,43.46,180.00,14.00,0.00,29.66,1005.60,10.00,M,FEW,FEW,SCT,M,7000.00,9500.00,11000.00,M,M,M,M,M,27.00,210.00,2021-01-23 02:43,55.90,KVGT 230253Z 18014KT 10SM FEW070 FEW095 SCT110 13/01 A2966 RMK AO2 PK WND 21027/0243 SLP056 T01330011 56012,M
DRA,2021-01-23 02:53,-116.0278,36.6206,1009.00,49.00,26.10,40.77,210.00,17.00,0.00,29.67,1003.30,10.00,27.00,FEW,M,M,M,7000.00,M,M,M,M,M,M,M,28.00,220.00,2021-01-23 02:42,42.22,KDRA 230253Z AUTO 21017G27KT 10SM FEW070 09/M03 A2967 RMK AO2 PK WND 22028/0242 SLP033 T00941033 56010,M
RTS,2021-01-23 02:55,-119.8764,39.6682,1539.00,28.40,19.40,68.61,320.00,8.00,0.00,29.76,M,10.00,M,SCT,M,M,M,5000.00,M,M,M,M,M,M,M,M,M,M,19.68,KRTS 230255Z AUTO 32008KT 10SM SCT050 M02/M07 A2976 RMK AO2,M
BVU,2021-01-23 02:55,-114.8611,35.9475,671.00,53.60,39.20,58.02,190.00,10.00,0.00,29.73,M,10.00,16.00,FEW,FEW,M,M,7000.00,9000.00,M,M,M,M,M,M,M,M,M,53.60,KBVU 230255Z AUTO 19010G16KT 10SM FEW070 FEW090 12/04 A2973 RMK AO2 LTG DSNT SE AND W,M
RNO,2021-01-23 02:55,-119.7711,39.4839,1341.00,37.00,19.90,49.61,340.00,10.00,0.00,29.75,1007.60,10.00,M,FEW,BKN,M,M,5500.00,14000.00,M,M,M,M,M,M,M,M,M,29.24,KRNO 230255Z 34010KT 10SM FEW055 BKN140 03/M07 A2975 RMK AO2 SLP076 T00281067 53013,M
HTH,2021-01-23 02:55,-118.6315,38.5448,1282.89,41.00,12.20,30.38,340.00,7.00,0.00,29.71,M,10.00,12.00,BKN,OVC,M,M,7500.00,10000.00,M,M,M,M,M,M,M,M,M,35.75,KHTH 230255Z AUTO 34007G12KT 10SM BKN075 OVC100 05/M11 A2971 RMK A01,M
BAM,2021-01-23 02:55,-116.8743,40.5990,1382.36,37.40,33.80,86.69,210.00,8.00,0.00,29.68,M,10.00,M,BKN,OVC,M,M,1400.00,2200.00,M,M,M,M,M,M,M,M,M,30.76,KBAM 230255Z AUTO 21008KT 10SM BKN014 OVC022 03/01 A2968 RMK AO1,M
MEV,2021-01-23 02:55,-119.7500,38.9963,1441.42,32.00,15.80,50.75,210.00,9.00,0.00,29.73,M,10.00,M,CLR,M,M,M,M,M,M,M,M,M,M,M,M,M,M,23.51,KMEV 230255Z AUTO 21009KT 10SM CLR M00/M09 A2973 RMK AO2,M
05U,2021-01-23 02:55,-116.0051,39.6042,1811.23,35.60,23.00,59.79,210.00,8.00,0.00,29.66,M,10.00,M,M,M,M,M,M,M,M,M,M,M,M,M,M,M,M,28.55,K05U 230255Z AUTO 21008KT 10SM 02/M05 A2966 RMK A01,M
CXP,2021-01-23 02:55,-119.7326,39.1923,1431.00,37.40,17.60,44.25,M,5.00,0.00,29.74,M,10.00,12.00,FEW,M,M,M,6500.00,M,M,M,M,M,M,M,M,M,M,32.81,KCXP 230255Z AUTO VRB05G12KT 10SM FEW065 03/M08 A2974 RMK AO2,M
WMC,2021-01-23 02:56,-117.8072,40.9019,1315.00,34.00,28.90,81.37,280.00,11.00,0.01,29.70,1006.50,2.50,M,FEW,OVC,M,M,1100.00,2400.00,M,M,-SN,M,M,M,M,M,M,24.99,KWMC 230256Z AUTO 28011KT 2 1/2SM -SN FEW011 OVC024 01/M02 A2970 RMK AO2 SNB32 SLP065 P0001 60001 T00111017 51014,M
LAS,2021-01-23 02:56,-115.1634,36.0719,663.00,52.00,40.00,63.24,200.00,9.00,0.01,29.70,1005.00,10.00,M,FEW,SCT,BKN,M,4200.00,5500.00,7000.00,M,M,M,M,M,M,M,M,52.00,KLAS 230256Z 20009KT 10SM FEW042 SCT055 BKN070 11/04 A2970 RMK AO2 RAB20E45 TSB11E26B27E48 SLP050 TS DSIPTD P0001 60001 T01110044 58010,M
EKO,2021-01-23 02:56,-115.7860,40.8242,1367.00,33.00,30.90,91.51,210.00,5.00,0.05,29.66,1005.70,2.00,M,SCT,OVC,M,M,300.00,900.00,M,M,-SN BR,M,M,M,M,M,M,27.70,KEKO 230256Z AUTO 21005KT 2SM -SN BR SCT003 OVC009 01/M01 A2966 RMK AO2 SLP057 P0005 60012 T00061006 51007,M
NFL,2021-01-23 02:56,-118.7010,39.4166,1199.00,30.90,27.00,85.26,360.00,5.00,0.00,29.73,1004.70,10.00,M,SCT,SCT,BKN,BKN,5000.00,7000.00,10000.00,18000.00,M,M,M,M,M,M,M,25.09,KNFL 230256Z 36005KT 10SM SCT050 SCT070 BKN100 BKN180 M01/M03 A2973 RMK AO2 SLP047 T10061028 51009,M
TPH,2021-01-23 02:56,-117.0904,38.0505,1654.00,32.00,32.00,100.00,340.00,13.00,0.02,29.69,1006.80,0.50,21.00,VV ,M,M,M,800.00,M,M,M,SN FG,M,M,M,M,M,M,21.57,KTPH 230256Z AUTO 34013G21KT 1/2SM SN FG VV008 00/00 A2969 RMK AO2 WSHFT 0241 SLP068 P0002 60002 T00000000 53013,M
HND,2021-01-23 02:56,-115.1344,35.9729,742.79,50.00,40.00,68.10,240.00,11.00,0.01,29.73,1008.30,10.00,M,SCT,SCT,M,M,5000.00,6500.00,M,M,-RA,M,M,M,M,M,M,50.00,KHND 230256Z 24011KT 10SM -RA SCT050 SCT065 10/04 A2973 RMK AO2 TSB11E26 SLP083 P0001 60002 T01000044 56009,M
TPH,2021-01-23 03:03,-117.0904,38.0505,1654.00,30.90,30.90,100.00,330.00,12.00,0.01,29.70,M,0.25,M,VV ,M,M,M,700.00,M,M,M,+SN FZFG,M,M,M,M,M,M,20.60,KTPH 230303Z AUTO 33012KT 1/4SM +SN FZFG VV007 M01/M01 A2970 RMK AO2 WSHFT 0243 P0001 T10061006,M
EKO,2021-01-23 03:04,-115.7860,40.8242,1367.00,33.00,30.90,91.51,210.00,7.00,T,29.66,M,1.75,M,OVC,M,M,M,300.00,M,M,M,-SN BR,M,M,M,M,M,M,26.12,KEKO 230304Z AUTO 21007KT 1 3/4SM -SN BR OVC003 01/M01 A2966 RMK AO2 P0000 T00061006,M
HND,2021-01-23 03:07,-115.1344,35.9729,742.79,50.00,41.00,71.07,220.00,20.00,0.02,29.74,M,10.00,30.00,BKN,BKN,M,M,4800.00,6500.00,M,M,TSRA,M,M,M,30.00,220.00,2021-01-23 03:07,50.00,KHND 230307Z 22020G30KT 10SM TSRA BKN048 BKN065 10/05 A2974 RMK AO2 PK WND 22030/0307 TSB01 P0002,M
TPH,2021-01-23 03:11,-117.0904,38.0505,1654.00,30.90,30.90,100.00,340.00,8.00,0.02,29.70,M,0.25,M,VV ,M,M,M,500.00,M,M,M,+SN FZFG,M,M,M,M,M,M,22.76,KTPH 230311Z AUTO 34008KT 1/4SM +SN FZFG VV005 M01/M01 A2970 RMK AO2 WSHFT 0243 P0002 T10061006,M
HTH,2021-01-23 03:15,-118.6315,38.5448,1282.89,41.00,15.80,35.57,290.00,10.00,0.00,29.72,M,10.00,M,OVC,M,M,M,7000.00,M,M,M,M,M,M,M,M,M,M,34.25,KHTH 230315Z AUTO 29010KT 10SM OVC070 05/M09 A2972 RMK A01,M
CXP,2021-01-23 03:15,-119.7326,39.1923,1431.00,37.40,17.60,44.25,300.00,10.00,0.00,29.75,M,10.00,M,BKN,BKN,M,M,6500.00,7500.00,M,M,M,M,M,M,M,M,M,29.74,KCXP 230315Z AUTO 30010KT 10SM BKN065 BKN075 03/M08 A2975 RMK AO2,M
RTS,2021-01-23 03:15,-119.8764,39.6682,1539.00,28.40,19.40,68.61,330.00,8.00,0.00,29.77,M,10.00,M,SCT,SCT,M,M,5500.00,7000.00,M,M,M,M,M,M,M,M,M,19.68,KRTS 230315Z AUTO 33008KT 10SM SCT055 SCT070 M02/M07 A2977 RMK AO2,M
BVU,2021-01-23 03:15,-114.8611,35.9475,671.00,53.60,39.20,58.02,200.00,9.00,0.00,29.72,M,10.00,18.00,FEW,FEW,M,M,6500.00,12000.00,M,M,M,M,M,M,M,M,M,53.60,KBVU 230315Z AUTO 20009G18KT 10SM FEW065 FEW120 12/04 A2972 RMK AO2,M
05U,2021-01-23 03:15,-116.0051,39.6042,1811.23,35.60,24.80,64.46,240.00,7.00,0.00,29.66,M,10.00,M,M,M,M,M,M,M,M,M,M,M,M,M,M,M,M,29.17,K05U 230315Z AUTO 24007KT 10SM 02/M04 A2966 RMK A01,M
MEV,2021-01-23 03:15,-119.7500,38.9963,1441.42,30.20,14.00,50.47,150.00,8.00,0.00,29.74,M,10.00,M,FEW,M,M,M,6000.00,M,M,M,M,M,M,M,M,M,M,21.90,KMEV 230315Z AUTO 15008KT 10SM FEW060 M01/M10 A2974 RMK AO2,M
BAM,2021-01-23 03:15,-116.8743,40.5990,1382.36,37.40,35.60,93.14,210.00,6.00,0.00,29.68,M,10.00,M,BKN,OVC,M,M,1200.00,2400.00,M,M,M,M,M,M,M,M,M,32.03,KBAM 230315Z AUTO 21006KT 10SM BKN012 OVC024 03/02 A2968 RMK AO1,M
TPH,2021-01-23 03:21,-117.0904,38.0505,1654.00,30.90,30.90,100.00,350.00,8.00,0.06,29.71,M,0.25,M,VV ,M,M,M,400.00,M,M,M,+SN FZFG,M,M,M,M,M,M,22.76,KTPH 230321Z AUTO 35008KT 1/4SM +SN FZFG VV004 M01/M01 A2971 RMK AO2 WSHFT 0243 P0006 T10061006,M
EKO,2021-01-23 03:22,-115.7860,40.8242,1367.00,33.00,32.00,95.67,210.00,7.00,0.03,29.66,M,3.00,M,OVC,M,M,M,300.00,M,M,M,-SN BR,M,M,M,M,M,M,26.12,KEKO 230322Z AUTO 21007KT 3SM -SN BR OVC003 01/00 A2966 RMK AO2 P0003 T00060000,M
HND,2021-01-23 03:22,-115.1344,35.9729,742.79,48.20,41.00,76.01,190.00,17.00,0.06,29.73,M,10.00,20.00,FEW,BKN,OVC,M,1600.00,5000.00,11000.00,M,-RA,M,M,M,30.00,220.00,2021-01-23 03:07,41.30,KHND 230322Z 19017G20KT 10SM -RA FEW016 BKN050 OVC110 09/05 A2973 RMK AO2 PK WND 22030/0307 WSHFT 0302 TSB01E16 P0006,M
VGT,2021-01-23 03:31,-115.1933,36.2111,667.00,55.00,35.00,46.91,190.00,12.00,0.00,29.66,M,10.00,M,FEW,M,M,M,7000.00,M,M,M,VCTS,M,M,M,M,M,M,55.00,KVGT 230331Z 19012KT 10SM VCTS FEW070 13/02 A2966 RMK AO2 LTG DSNT NE AND E T01280017,M
LAS,2021-01-23 03:31,-115.1634,36.0719,663.00,52.00,39.00,61.06,180.00,11.00,T,29.70,M,10.00,23.00,FEW,SCT,BKN,M,4200.00,5500.00,7000.00,M,VCTS,M,M,M,27.00,190.00,2021-01-23 03:19,52.00,KLAS 230331Z 18011G23KT 10SM VCTS FEW042 SCT055 BKN070 11/04 A2970 RMK AO2 PK WND 19027/0319 LTG DSNT NE RAB06E17 TSE25 P0000 T01110039,M
EKO,2021-01-23 03:32,-115.7860,40.8242,1367.00,33.00,30.90,91.51,230.00,6.00,0.03,29.65,M,2.50,M,BKN,OVC,M,M,500.00,1200.00,M,M,-SN BR,M,M,M,M,M,M,26.86,KEKO 230332Z AUTO 23006KT 2 1/2SM -SN BR BKN005 OVC012 01/M01 A2965 RMK AO2 P0003 T00061006,M
BAM,2021-01-23 03:35,-116.8743,40.5990,1382.36,35.60,35.60,100.00,210.00,5.00,0.00,29.68,M,7.00,M,OVC,M,M,M,1000.00,M,M,M,M,M,M,M,M,M,M,30.67,KBAM 230335Z AUTO 21005KT 7SM OVC010 02/02 A2968 RMK AO1,M
RTS,2021-01-23 03:35,-119.8764,39.6682,1539.00,26.60,17.60,68.40,270.00,6.00,0.00,29.76,M,10.00,M,BKN,M,M,M,5500.00,M,M,M,M,M,M,M,M,M,M,19.03,KRTS 230335Z AUTO 27006KT 10SM BKN055 M03/M08 A2976 RMK AO2,M
CXP,2021-01-23 03:35,-119.7326,39.1923,1431.00,37.40,15.80,40.93,290.00,9.00,0.00,29.75,M,10.00,M,FEW,OVC,M,M,4800.00,6500.00,M,M,M,M,M,M,M,M,M,30.23,KCXP 230335Z AUTO 29009KT 10SM FEW048 OVC065 03/M09 A2975 RMK AO2,M
BVU,2021-01-23 03:35,-114.8611,35.9475,671.00,55.40,39.20,54.34,240.00,20.00,0.00,29.74,M,10.00,M,FEW,FEW,BKN,M,4100.00,5500.00,6500.00,M,M,M,M,M,M,M,M,55.40,KBVU 230335Z AUTO 24020KT 10SM FEW041 FEW055 BKN065 13/04 A2974 RMK AO2 LTG DSNT N AND S,M
MEV,2021-01-23 03:35,-119.7500,38.9963,1441.42,28.40,14.00,54.31,120.00,7.00,0.00,29.75,M,10.00,M,FEW,SCT,M,M,5500.00,7000.00,M,M,M,M,M,M,M,M,M,20.39,KMEV 230335Z AUTO 12007KT 10SM FEW055 SCT070 M02/M10 A2975 RMK AO2,M
HTH,2021-01-23 03:35,-118.6315,38.5448,1282.89,39.20,23.00,51.89,350.00,15.00,0.00,29.72,M,10.00,21.00,FEW,OVC,M,M,5500.00,7000.00,M,M,M,M,M,M,M,M,M,30.11,KHTH 230335Z AUTO 35015G21KT 10SM FEW055 OVC070 04/M05 A2972 RMK A01,M
05U,2021-01-23 03:35,-116.0051,39.6042,1811.23,35.60,24.80,64.46,230.00,4.00,0.00,29.65,M,10.00,M,M,M,M,M,M,M,M,M,M,M,M,M,M,M,M,31.62,K05U 230335Z AUTO 23004KT 10SM 02/M04 A2965 RMK A01,M
EKO,2021-01-23 03:41,-115.7860,40.8242,1367.00,33.00,30.90,91.51,210.00,6.00,0.04,29.65,M,1.25,M,SCT,OVC,M,M,200.00,500.00,M,M,-SN BR,M,M,M,M,M,M,26.86,KEKO 230341Z AUTO 21006KT 1 1/4SM -SN BR SCT002 OVC005 01/M01 A2965 RMK AO2 P0004 T00061006,M
WMC,2021-01-23 03:45,-117.8072,40.9019,1315.00,33.00,30.00,88.23,280.00,11.00,0.02,29.70,M,6.00,M,OVC,M,M,M,1900.00,M,M,M,-SN BR,M,M,M,M,M,M,23.86,KWMC 230345Z AUTO 28011KT 6SM -SN BR OVC019 01/M01 A2970 RMK AO2 SNB09 P0002 T00061011 $,M
LAS,2021-01-23 03:46,-115.1634,36.0719,663.00,51.00,39.00,63.12,190.00,11.00,T,29.70,M,10.00,19.00,FEW,SCT,BKN,M,4200.00,5500.00,7000.00,M,M,M,M,M,27.00,190.00,2021-01-23 03:19,51.10,KLAS 230346Z 19011G19KT 10SM FEW042 SCT055 BKN070 11/04 A2970 RMK AO2 PK WND 19027/0319 LTG DSNT NE RAB06E17 TSE25 P0000 T01060039,M
VGT,2021-01-23 03:50,-115.1933,36.2111,667.00,55.40,35.60,47.16,200.00,7.00,0.00,29.66,M,10.00,M,CLR,M,M,M,M,M,M,M,M,M,M,M,M,M,M,55.40,KVGT 230350Z AUTO 20007KT 10SM CLR 13/02 A2966 RMK AO2 LTG DSNT E,M
LOL,2021-01-23 03:53,-118.5701,40.0684,1192.43,35.00,28.90,77.88,30.00,5.00,0.00,29.73,1008.40,10.00,M,CLR,M,M,M,M,M,M,M,M,M,M,M,M,M,M,30.08,KLOL 230353Z AUTO 03005KT 10SM CLR 02/M02 A2973 RMK AO2 SLP084 T00171017,M
VGT,2021-01-23 03:53,-115.1933,36.2111,667.00,55.00,35.00,46.91,200.00,7.00,0.00,29.66,1005.70,10.00,M,CLR,M,M,M,M,M,M,M,M,M,M,M,M,M,M,55.00,KVGT 230353Z AUTO 20007KT 10SM CLR 13/02 A2966 RMK AO2 LTG DSNT E SLP057 T01280017,M
ELY,2021-01-23 03:53,-114.8453,39.2950,1909.00,32.00,24.10,72.30,190.00,9.00,0.00,29.66,1003.60,10.00,M,OVC,M,M,M,6000.00,M,M,M,M,M,M,M,M,M,M,23.51,KELY 230353Z AUTO 19009KT 10SM OVC060 00/M04 A2966 RMK AO2 SLP036 T00001044,M
P68,2021-01-23 03:53,-116.0056,39.6014,1993.00,34.00,26.10,72.52,120.00,4.00,0.00,29.64,1003.00,M,M,M,M,M,M,M,M,M,M,M,M,M,M,M,M,M,29.76,KP68 230353Z AUTO 12004KT 01/M03 A2964 RMK AO1 SLP030 T00111033,M
DRA,2021-01-23 03:53,-116.0278,36.6206,1009.00,49.00,28.90,45.75,210.00,21.00,0.00,29.67,1003.20,10.00,31.00,FEW,SCT,M,M,10000.00,12000.00,M,M,M,M,M,M,34.00,210.00,2021-01-23 03:42,41.39,KDRA 230353Z AUTO 21021G31KT 10SM FEW100 SCT120 09/M02 A2967 RMK AO2 PK WND 21034/0342 SLP032 T00941017,M
EKO,2021-01-23 03:54,-115.7860,40.8242,1367.00,33.80,32.00,93.03,200.00,6.00,0.05,29.65,M,2.00,M,OVC,M,M,M,400.00,M,M,M,-SN BR,M,M,M,M,M,M,27.70,KEKO 230354Z AUTO 20006KT 2SM -SN BR OVC004 01/00 A2965 RMK AO2 P0005,M
CXP,2021-01-23 03:55,-119.7326,39.1923,1431.00,37.40,15.80,40.93,350.00,9.00,0.00,29.76,M,10.00,14.00,SCT,OVC,M,M,5500.00,7000.00,M,M,M,M,M,M,M,M,M,30.23,KCXP 230355Z AUTO 35009G14KT 10SM SCT055 OVC070 03/M09 A2976 RMK AO2,M
RNO,2021-01-23 03:55,-119.7711,39.4839,1341.00,37.00,18.00,45.73,280.00,12.00,0.00,29.75,1007.40,10.00,M,BKN,M,M,M,5500.00,M,M,M,M,M,M,M,M,M,M,28.37,KRNO 230355Z 28012KT 10SM BKN055 03/M08 A2975 RMK AO2 SLP074 T00281078,M
05U,2021-01-23 03:55,-116.0051,39.6042,1811.23,33.80,24.80,69.25,120.00,3.00,0.00,29.66,M,10.00,M,M,M,M,M,M,M,M,M,M,M,M,M,M,M,M,30.75,K05U 230355Z AUTO 12003KT 10SM 01/M04 A2966 RMK A01,M
MEV,2021-01-23 03:55,-119.7500,38.9963,1441.42,30.20,14.00,50.47,90.00,9.00,0.00,29.75,M,10.00,M,SCT,BKN,M,M,6000.00,7000.00,M,M,M,M,M,M,M,M,M,21.28,KMEV 230355Z AUTO 09009KT 10SM SCT060 BKN070 M01/M10 A2975 RMK AO2,M
HTH,2021-01-23 03:55,-118.6315,38.5448,1282.89,39.20,23.00,51.89,350.00,14.00,0.00,29.73,M,10.00,M,FEW,BKN,OVC,M,4400.00,5500.00,7000.00,M,M,M,M,M,M,M,M,30.44,KHTH 230355Z AUTO 35014KT 10SM FEW044 BKN055 OVC070 04/M05 A2973 RMK A01,M
BAM,2021-01-23 03:55,-116.8743,40.5990,1382.36,35.60,35.60,100.00,0.00,0.00,0.00,29.68,M,7.00,M,OVC,M,M,M,1000.00,M,M,M,M,M,M,M,M,M,M,35.60,KBAM 230355Z AUTO 00000KT 7SM OVC010 02/02 A2968 RMK AO1,M
RTS,2021-01-23 03:55,-119.8764,39.6682,1539.00,30.20,19.40,63.75,250.00,9.00,0.00,29.76,M,10.00,M,OVC,M,M,M,5500.00,M,M,M,M,M,M,M,M,M,M,21.28,KRTS 230355Z AUTO 25009KT 10SM OVC055 M01/M07 A2976 RMK AO2,M
BVU,2021-01-23 03:55,-114.8611,35.9475,671.00,48.20,42.80,81.47,240.00,15.00,0.00,29.74,M,4.00,27.00,FEW,BKN,OVC,M,900.00,4200.00,6500.00,M,-TSRA,M,M,M,M,M,M,41.78,KBVU 230355Z AUTO 24015G27KT 4SM -TSRA FEW009 BKN042 OVC065 09/06 A2974 RMK AO2 LTG DSNT N AND NE,M
LAS,2021-01-23 03:56,-115.1634,36.0719,663.00,53.00,38.00,56.17,200.00,10.00,T,29.70,1004.90,10.00,21.00,FEW,SCT,SCT,M,4200.00,5500.00,7000.00,M,M,M,M,M,27.00,190.00,2021-01-23 03:19,53.10,KLAS 230356Z 20010G21KT 10SM FEW042 SCT055 SCT070 12/03 A2970 RMK AO2 PK WND 19027/0319 LTG DSNT NE AND E RAB06E17 TSE25 SLP049 P0000 T01170033,M
EKO,2021-01-23 03:56,-115.7860,40.8242,1367.00,33.00,32.00,95.67,210.00,4.00,0.05,29.65,1005.10,2.50,M,OVC,M,M,M,400.00,M,M,M,-SN BR,M,M,M,M,M,M,28.70,KEKO 230356Z AUTO 21004KT 2 1/2SM -SN BR OVC004 01/00 A2965 RMK AO2 SLP051 P0005 T00060000,M
WMC,2021-01-23 03:56,-117.8072,40.9019,1315.00,33.00,30.00,88.23,280.00,11.00,0.04,29.70,1006.60,2.50,M,OVC,M,M,M,1700.00,M,M,M,-SN BR,M,M,M,M,M,M,23.86,KWMC 230356Z AUTO 28011KT 2 1/2SM -SN BR OVC017 01/M01 A2970 RMK AO2 SNB09 SLP066 P0004 T00061011 $,M
HND,2021-01-23 03:56,-115.1344,35.9729,742.79,49.00,39.00,68.51,200.00,18.00,0.06,29.73,1008.10,10.00,M,CLR,M,M,M,M,M,M,M,M,M,M,M,30.00,220.00,2021-01-23 03:07,42.00,KHND 230356Z 20018KT 10SM CLR 09/04 A2973 RMK AO2 PK WND 22030/0307 WSHFT 0302 LTG DSNT NE TSB01E16RAE29 SLP081 P0006 T00940039,M
NFL,2021-01-23 03:56,-118.7010,39.4166,1199.00,28.90,26.10,89.12,310.00,5.00,0.00,29.74,1005.10,10.00,M,SCT,SCT,BKN,M,6000.00,10000.00,18000.00,M,M,M,M,M,M,M,M,22.71,KNFL 230356Z 31005KT 10SM SCT060 SCT100 BKN180 M02/M03 A2974 RMK AO2 SLP051 T10171033,M
TPH,2021-01-23 03:56,-117.0904,38.0505,1654.00,30.00,30.00,100.00,350.00,11.00,0.14,29.71,1006.80,0.25,M,VV ,M,M,M,300.00,M,M,M,+SN FZFG,M,M,M,M,M,M,19.94,KTPH 230356Z AUTO 35011KT 1/4SM +SN FZFG VV003 M01/M01 A2971 RMK AO2 WSHFT 0243 SLP068 P0014 T10111011,M
WMC,2021-01-23 04:04,-117.8072,40.9019,1315.00,33.00,30.00,88.23,280.00,10.00,0.01,29.70,M,1.50,M,FEW,SCT,OVC,M,600.00,1000.00,1700.00,M,-SN BR,M,M,M,M,M,M,24.35,KWMC 230404Z AUTO 28010KT 1 1/2SM -SN BR FEW006 SCT010 OVC017 01/M01 A2970 RMK AO2 P0001 T00061011 $,M
EKO,2021-01-23 04:09,-115.7860,40.8242,1367.00,33.00,30.90,91.51,260.00,3.00,0.01,29.65,M,1.50,M,BKN,OVC,M,M,300.00,700.00,M,M,-SN BR,M,M,M,M,M,M,29.95,KEKO 230409Z AUTO 26003KT 1 1/2SM -SN BR BKN003 OVC007 01/M01 A2965 RMK AO2 P0001 T00061006,M
TPH,2021-01-23 04:11,-117.0904,38.0505,1654.00,30.00,30.00,100.00,10.00,11.00,0.02,29.70,M,0.75,M,VV ,M,M,M,500.00,M,M,M,-SN BR,M,M,M,M,M,M,19.94,KTPH 230411Z AUTO 01011KT 3/4SM -SN BR VV005 M01/M01 A2970 RMK AO2 P0002 T10111011,M
WMC,2021-01-23 04:14,-117.8072,40.9019,1315.00,33.00,30.00,88.23,280.00,8.00,0.03,29.70,M,1.25,M,BKN,BKN,OVC,M,500.00,900.00,1500.00,M,-SN BR,M,M,M,M,M,M,25.47,KWMC 230414Z AUTO 28008KT 1 1/4SM -SN BR BKN005 BKN009 OVC015 01/M01 A2970 RMK AO2 P0003 T00061011 $,M
RTS,2021-01-23 04:15,-119.8764,39.6682,1539.00,28.40,19.40,68.61,300.00,7.00,0.00,29.77,M,10.00,M,FEW,OVC,M,M,5000.00,5500.00,M,M,M,M,M,M,M,M,M,20.39,KRTS 230415Z AUTO 30007KT 10SM FEW050 OVC055 M02/M07 A2977 RMK AO2,M
BVU,2021-01-23 04:15,-114.8611,35.9475,671.00,50.00,39.20,66.27,210.00,26.00,0.00,29.74,M,9.00,32.00,FEW,SCT,OVC,M,2900.00,3600.00,4200.00,M,TS,M,M,M,M,M,M,50.00,KBVU 230415Z AUTO 21026G32KT 9SM TS FEW029 SCT036 OVC042 10/04 A2974 RMK AO2 LTG DSNT N AND NE,M
CXP,2021-01-23 04:15,-119.7326,39.1923,1431.00,35.60,17.60,47.51,350.00,7.00,0.00,29.77,M,10.00,M,FEW,OVC,M,M,5500.00,6500.00,M,M,M,M,M,M,M,M,M,29.17,KCXP 230415Z AUTO 35007KT 10SM FEW055 OVC065 02/M08 A2977 RMK AO2,M
MEV,2021-01-23 04:15,-119.7500,38.9963,1441.42,30.20,15.80,54.59,90.00,7.00,0.00,29.75,M,10.00,M,FEW,OVC,M,M,6000.00,7000.00,M,M,M,M,M,M,M,M,M,22.59,KMEV 230415Z AUTO 09007KT 10SM FEW060 OVC070 M01/M09 A2975 RMK AO2,M
HTH,2021-01-23 04:15,-118.6315,38.5448,1282.89,39.20,23.00,51.89,360.00,16.00,0.00,29.73,M,10.00,M,SCT,BKN,OVC,M,4800.00,5500.00,7500.00,M,M,M,M,M,M,M,M,29.80,KHTH 230415Z AUTO 36016KT 10SM SCT048 BKN055 OVC075 04/M05 A2973 RMK A01,M
BAM,2021-01-23 04:15,-116.8743,40.5990,1382.36,33.80,33.80,100.00,0.00,0.00,0.00,29.68,M,5.00,M,OVC,M,M,M,700.00,M,M,M,M,M,M,M,M,M,M,33.80,KBAM 230415Z AUTO 00000KT 5SM OVC007 01/01 A2968 RMK AO1,M
05U,2021-01-23 04:15,-116.0051,39.6042,1811.23,33.80,24.80,69.25,210.00,3.00,0.00,29.66,M,10.00,M,M,M,M,M,M,M,M,M,M,M,M,M,M,M,M,30.75,K05U 230415Z AUTO 21003KT 10SM 01/M04 A2966 RMK A01,M
EKO,2021-01-23 04:20,-115.7860,40.8242,1367.00,33.00,32.00,95.67,0.00,0.00,0.03,29.65,M,2.50,M,BKN,OVC,M,M,100.00,700.00,M,M,-SN BR,M,M,M,M,M,M,33.10,KEKO 230420Z AUTO 00000KT 2 1/2SM -SN BR BKN001 OVC007 01/00 A2965 RMK AO2 P0003 T00060000,M
TPH,2021-01-23 04:25,-117.0904,38.0505,1654.00,30.00,30.00,100.00,360.00,9.00,0.04,29.70,M,0.75,M,VV ,M,M,M,700.00,M,M,M,-SN BR,M,M,M,M,M,M,21.03,KTPH 230425Z AUTO 36009KT 3/4SM -SN BR VV007 M01/M01 A2970 RMK AO2 P0004 T10111011,M
EKO,2021-01-23 04:28,-115.7860,40.8242,1367.00,33.00,32.00,95.67,0.00,0.00,0.03,29.65,M,8.00,M,BKN,OVC,M,M,100.00,700.00,M,M,-SN,M,M,M,M,M,M,33.10,KEKO 230428Z AUTO 00000KT 8SM -SN BKN001 OVC007 01/00 A2965 RMK AO2 P0003 T00060000,M
05U,2021-01-23 04:35,-116.0051,39.6042,1811.23,35.60,24.80,64.46,180.00,3.00,0.00,29.66,M,10.00,M,M,M,M,M,M,M,M,M,M,M,M,M,M,M,M,32.80,K05U 230435Z AUTO 18003KT 10SM 02/M04 A2966 RMK A01,M
CXP,2021-01-23 04:35,-119.7326,39.1923,1431.00,35.60,17.60,47.51,330.00,4.00,0.00,29.77,M,10.00,M,BKN,OVC,M,M,6000.00,7000.00,M,M,M,M,M,M,M,M,M,31.62,KCXP 230435Z AUTO 33004KT 10SM BKN060 OVC070 02/M08 A2977 RMK AO2,M
RTS,2021-01-23 04:35,-119.8764,39.6682,1539.00,28.40,19.40,68.61,300.00,5.00,0.00,29.78,M,10.00,M,FEW,OVC,M,M,4700.00,5500.00,M,M,M,M,M,M,M,M,M,22.12,KRTS 230435Z AUTO 30005KT 10SM FEW047 OVC055 M02/M07 A2978 RMK AO2,M
MEV,2021-01-23 04:35,-119.7500,38.9963,1441.42,30.20,15.80,54.59,100.00,6.00,0.00,29.75,M,10.00,M,SCT,OVC,M,M,6000.00,7500.00,M,M,M,M,M,M,M,M,M,23.36,KMEV 230435Z AUTO 10006KT 10SM SCT060 OVC075 M01/M09 A2975 RMK AO2,M
HTH,2021-01-23 04:35,-118.6315,38.5448,1282.89,37.40,23.00,55.68,360.00,13.00,0.00,29.74,M,10.00,M,SCT,BKN,OVC,M,4100.00,4700.00,5500.00,M,M,M,M,M,M,M,M,28.49,KHTH 230435Z AUTO 36013KT 10SM SCT041 BKN047 OVC055 03/M05 A2974 RMK A01,M
BAM,2021-01-23 04:35,-116.8743,40.5990,1382.36,33.80,33.80,100.00,0.00,0.00,0.00,29.68,M,5.00,M,SCT,OVC,M,M,900.00,1700.00,M,M,M,M,M,M,M,M,M,33.80,KBAM 230435Z AUTO 00000KT 5SM SCT009 OVC017 01/01 A2968 RMK AO1,M
BVU,2021-01-23 04:35,-114.8611,35.9475,671.00,50.00,39.20,66.27,190.00,20.00,0.00,29.74,M,10.00,26.00,FEW,SCT,OVC,M,3100.00,3900.00,7000.00,M,VCTS,M,M,M,M,M,M,50.00,KBVU 230435Z AUTO 19020G26KT 10SM VCTS FEW031 SCT039 OVC070 10/04 A2974 RMK AO2 LTG DSNT N AND NE AND S,M
EKO,2021-01-23 04:37,-115.7860,40.8242,1367.00,33.00,32.00,95.67,0.00,0.00,0.03,29.65,M,10.00,M,OVC,M,M,M,200.00,M,M,M,M,M,M,M,M,M,M,33.10,KEKO 230437Z AUTO 00000KT 10SM OVC002 01/00 A2965 RMK AO2 SNE30 P0003 T00060000,M
TPH,2021-01-23 04:39,-117.0904,38.0505,1654.00,30.00,30.00,100.00,340.00,7.00,0.05,29.71,M,1.00,M,VV ,M,M,M,900.00,M,M,M,-SN BR,M,M,M,M,M,M,22.34,KTPH 230439Z AUTO 34007KT 1SM -SN BR VV009 M01/M01 A2971 RMK AO2 P0005 T10111011,M
TPH,2021-01-23 04:46,-117.0904,38.0505,1654.00,30.00,30.00,100.00,340.00,11.00,0.05,29.71,M,1.25,M,OVC,M,M,M,1100.00,M,M,M,-SN BR,M,M,M,M,M,M,19.94,KTPH 230446Z AUTO 34011KT 1 1/4SM -SN BR OVC011 M01/M01 A2971 RMK AO2 P0005 T10111011,M
EKO,2021-01-23 04:47,-115.7860,40.8242,1367.00,33.00,30.90,91.51,0.00,0.00,0.03,29.65,M,1.75,M,OVC,M,M,M,200.00,M,M,M,BR,M,M,M,M,M,M,33.10,KEKO 230447Z AUTO 00000KT 1 3/4SM BR OVC002 01/M01 A2965 RMK AO2 SNE30 P0003 T00061006,M
VGT,2021-01-23 04:53,-115.1933,36.2111,667.00,54.00,30.00,39.63,270.00,18.00,0.00,29.67,1006.10,10.00,27.00,SCT,SCT,M,M,7000.00,8500.00,M,M,M,M,M,M,27.00,260.00,2021-01-23 04:49,54.00,KVGT 230453Z AUTO 27018G27KT 10SM SCT070 SCT085 12/M01 A2967 RMK AO2 PK WND 26027/0449 LTG DSNT E AND SE SLP061 T01221011,M
DRA,2021-01-23 04:53,-116.0278,36.6206,1009.00,47.00,26.10,43.95,180.00,11.00,0.00,29.68,1003.30,10.00,22.00,OVC,M,M,M,10000.00,M,M,M,M,M,M,M,35.00,220.00,2021-01-23 03:59,41.30,KDRA 230453Z AUTO 18011G22KT 10SM OVC100 08/M03 A2968 RMK AO2 PK WND 22035/0359 SLP033 T00831033,M
P68,2021-01-23 04:53,-116.0056,39.6014,1993.00,34.00,27.00,75.26,200.00,8.00,0.00,29.64,1002.00,M,M,M,M,M,M,M,M,M,M,M,M,M,M,M,M,M,26.58,KP68 230453Z AUTO 20008KT 01/M03 A2964 RMK AO1 SLP020 T00111028,M
ELY,2021-01-23 04:53,-114.8453,39.2950,1909.00,30.90,23.00,72.18,200.00,8.00,0.00,29.66,1002.80,10.00,M,BKN,M,M,M,7000.00,M,M,M,M,M,M,M,M,M,M,22.76,KELY 230453Z AUTO 20008KT 10SM BKN070 M01/M05 A2966 RMK AO2 SLP028 T10061050,M
LOL,2021-01-23 04:53,-118.5701,40.0684,1192.43,34.00,28.90,81.37,50.00,7.00,0.00,29.74,1008.30,10.00,M,CLR,M,M,M,M,M,M,M,M,M,M,M,M,M,M,27.22,KLOL 230453Z AUTO 05007KT 10SM CLR 01/M02 A2974 RMK AO2 SLP083 T00111017,M
HTH,2021-01-23 04:55,-118.6315,38.5448,1282.89,37.40,24.80,60.04,340.00,13.00,0.00,29.75,M,10.00,M,FEW,SCT,BKN,M,3600.00,4200.00,5500.00,M,M,M,M,M,M,M,M,28.49,KHTH 230455Z AUTO 34013KT 10SM FEW036 SCT042 BKN055 03/M04 A2975 RMK A01,M
BVU,2021-01-23 04:55,-114.8611,35.9475,671.00,48.20,39.20,70.88,190.00,16.00,0.00,29.74,M,10.00,22.00,BKN,OVC,M,M,7000.00,9000.00,M,M,TS,M,M,M,M,M,M,41.53,KBVU 230455Z AUTO 19016G22KT 10SM TS BKN070 OVC090 09/04 A2974 RMK AO2 LTG DSNT NE-S,M
CXP,2021-01-23 04:55,-119.7326,39.1923,1431.00,33.80,17.60,51.04,260.00,3.00,0.00,29.77,M,10.00,M,BKN,OVC,M,M,6000.00,7500.00,M,M,M,M,M,M,M,M,M,30.75,KCXP 230455Z AUTO 26003KT 10SM BKN060 OVC075 01/M08 A2977 RMK AO2,M
RTS,2021-01-23 04:55,-119.8764,39.6682,1539.00,28.40,19.40,68.61,310.00,8.00,0.00,29.77,M,10.00,M,FEW,OVC,M,M,4800.00,5500.00,M,M,M,M,M,M,M,M,M,19.68,KRTS 230455Z AUTO 31008KT 10SM FEW048 OVC055 M02/M07 A2977 RMK AO2,M
BAM,2021-01-23 04:55,-116.8743,40.5990,1382.36,33.80,33.80,100.00,0.00,0.00,0.00,29.68,M,7.00,M,BKN,BKN,OVC,M,700.00,1100.00,1700.00,M,M,M,M,M,M,M,M,33.80,KBAM 230455Z AUTO 00000KT 7SM BKN007 BKN011 OVC017 01/01 A2968 RMK AO1,M
05U,2021-01-23 04:55,-116.0051,39.6042,1811.23,33.80,26.60,74.63,210.00,4.00,0.00,29.66,M,10.00,10.00,M,M,M,M,M,M,M,M,M,M,M,M,M,M,M,29.52,K05U 230455Z AUTO 21004G10KT 10SM 01/M03 A2966 RMK A01,M
MEV,2021-01-23 04:55,-119.7500,38.9963,1441.42,30.20,15.80,54.59,360.00,5.00,0.00,29.76,M,10.00,M,BKN,OVC,M,M,6000.00,8000.00,M,M,M,M,M,M,M,M,M,24.26,KMEV 230455Z AUTO 36005KT 10SM BKN060 OVC080 M01/M09 A2976 RMK AO2,M
RNO,2021-01-23 04:55,-119.7711,39.4839,1341.00,35.00,19.90,53.49,270.00,7.00,0.00,29.76,1007.90,10.00,M,SCT,M,M,M,5500.00,M,M,M,M,M,M,M,M,M,M,28.56,KRNO 230455Z 27007KT 10SM SCT055 02/M07 A2976 RMK AO2 SLP079 T00171067,M
WMC,2021-01-23 04:56,-117.8072,40.9019,1315.00,33.00,30.00,88.23,300.00,7.00,0.14,29.71,1006.40,2.50,M,OVC,M,M,M,500.00,M,M,M,-SN BR,M,M,M,M,M,M,26.12,KWMC 230456Z AUTO 30007KT 2 1/2SM -SN BR OVC005 01/M01 A2971 RMK AO2 SLP064 P0014 T00061011 $,M
EKO,2021-01-23 04:56,-115.7860,40.8242,1367.00,32.00,30.90,95.65,310.00,4.00,0.03,29.65,1004.90,0.75,M,OVC,M,M,M,200.00,M,M,M,BR,T,M,M,M,M,M,27.42,KEKO 230456Z AUTO 31004KT 3/4SM BR OVC002 00/M01 A2965 RMK AO2 SNE30 SLP049 P0003 I1000 T00001006,M
NFL,2021-01-23 04:56,-118.7010,39.4166,1199.00,27.00,23.00,84.66,250.00,6.00,0.00,29.74,1005.20,10.00,M,SCT,SCT,BKN,M,6000.00,10000.00,18000.00,M,M,M,M,M,M,M,M,19.51,KNFL 230456Z 25006KT 10SM SCT060 SCT100 BKN180 M03/M05 A2974 RMK AO2 SLP052 T10281050,M
TPH,2021-01-23 04:56,-117.0904,38.0505,1654.00,30.00,28.90,95.61,10.00,14.00,0.05,29.71,1006.40,1.50,M,OVC,M,M,M,2100.00,M,M,M,-SN BR,M,M,M,M,M,M,18.58,KTPH 230456Z AUTO 01014KT 1 1/2SM -SN BR OVC021 M01/M02 A2971 RMK AO2 SLP064 P0005 T10111017,M
LAS,2021-01-23 04:56,-115.1634,36.0719,663.00,53.00,28.90,39.16,210.00,10.00,0.00,29.71,1005.20,10.00,22.00,FEW,SCT,M,M,9000.00,11000.00,M,M,M,M,M,M,M,M,M,53.10,KLAS 230456Z 21010G22KT 10SM FEW090 SCT110 12/M02 A2971 RMK AO2 LTG DSNT E SLP052 T01171017,M
HND,2021-01-23 04:56,-115.1344,35.9729,742.79,50.00,30.90,47.64,210.00,21.00,0.00,29.73,1007.90,10.00,M,SCT,M,M,M,9000.00,M,M,M,M,M,M,M,27.00,230.00,2021-01-23 04:45,50.00,KHND 230456Z AUTO 21021KT 10SM SCT090 10/M01 A2973 RMK AO2 PK WND 23027/0445 LTG DSNT E AND SE SLP079 T01001006,M
TPH,2021-01-23 05:00,-117.0904,38.0505,1654.00,30.00,28.90,95.61,10.00,12.00,T,29.70,M,3.00,M,OVC,M,M,M,3000.00,M,M,M,-SN BR,M,M,M,M,M,M,19.46,KTPH 230500Z AUTO 01012KT 3SM -SN BR OVC030 M01/M02 A2970 RMK AO2 P0000 T10111017,M
05U,2021-01-23 05:15,-116.0051,39.6042,1811.23,33.80,26.60,74.63,0.00,0.00,0.00,29.66,M,10.00,M,M,M,M,M,M,M,M,M,M,M,M,M,M,M,M,33.80,K05U 230515Z AUTO 00000KT 10SM 01/M03 A2966 RMK A01,M
MEV,2021-01-23 05:15,-119.7500,38.9963,1441.42,30.20,15.80,54.59,0.00,0.00,0.00,29.77,M,10.00,M,OVC,M,M,M,5500.00,M,M,M,M,M,M,M,M,M,M,30.20,KMEV 230515Z AUTO 00000KT 10SM OVC055 M01/M09 A2977 RMK AO2,M
BAM,2021-01-23 05:15,-116.8743,40.5990,1382.36,33.80,33.80,100.00,0.00,0.00,0.00,29.68,M,7.00,M,OVC,M,M,M,700.00,M,M,M,M,M,M,M,M,M,M,33.80,KBAM 230515Z AUTO 00000KT 7SM OVC007 01/01 A2968 RMK AO1,M
CXP,2021-01-23 05:15,-119.7326,39.1923,1431.00,33.80,17.60,51.04,300.00,4.00,0.00,29.77,M,10.00,M,OVC,M,M,M,6500.00,M,M,M,M,M,M,M,M,M,M,29.52,KCXP 230515Z AUTO 30004KT 10SM OVC065 01/M08 A2977 RMK AO2,M
BVU,2021-01-23 05:15,-114.8611,35.9475,671.00,48.20,39.20,70.88,220.00,8.00,0.00,29.73,M,10.00,15.00,FEW,SCT,BKN,M,5500.00,7500.00,9500.00,M,M,M,M,M,M,M,M,44.07,KBVU 230515Z AUTO 22008G15KT 10SM FEW055 SCT075 BKN095 09/04 A2973 RMK AO2 LTG DSNT NE-SE,M
HTH,2021-01-23 05:15,-118.6315,38.5448,1282.89,35.60,24.80,64.46,350.00,11.00,0.00,29.76,M,10.00,16.00,FEW,SCT,BKN,M,3000.00,6000.00,9000.00,M,M,M,M,M,M,M,M,27.02,KHTH 230515Z AUTO 35011G16KT 10SM FEW030 SCT060 BKN090 02/M04 A2976 RMK A01,M
RTS,2021-01-23 05:15,-119.8764,39.6682,1539.00,30.20,19.40,63.75,310.00,6.00,0.00,29.77,M,10.00,M,OVC,M,M,M,5500.00,M,M,M,M,M,M,M,M,M,M,23.36,KRTS 230515Z AUTO 31006KT 10SM OVC055 M01/M07 A2977 RMK AO2,M
05U,2021-01-23 05:35,-116.0051,39.6042,1811.23,33.80,26.60,74.63,200.00,3.00,0.00,29.66,M,10.00,M,M,M,M,M,M,M,M,M,M,M,M,M,M,M,M,30.75,K05U 230535Z AUTO 20003KT 10SM 01/M03 A2966 RMK A01,M
MEV,2021-01-23 05:35,-119.7500,38.9963,1441.42,30.20,15.80,54.59,0.00,0.00,0.00,29.77,M,4.00,M,FEW,SCT,BKN,M,700.00,2100.00,2900.00,M,-SN HZ,M,M,M,M,M,M,30.20,KMEV 230535Z AUTO 00000KT 4SM -SN HZ FEW007 SCT021 BKN029 M01/M09 A2977 RMK AO2,M
BAM,2021-01-23 05:35,-116.8743,40.5990,1382.36,33.80,33.80,100.00,0.00,0.00,0.00,29.69,M,4.00,M,OVC,M,M,M,300.00,M,M,M,M,M,M,M,M,M,M,33.80,KBAM 230535Z AUTO 00000KT 4SM OVC003 01/01 A2969 RMK AO1,M
HTH,2021-01-23 05:35,-118.6315,38.5448,1282.89,35.60,26.60,69.46,340.00,10.00,0.00,29.77,M,10.00,17.00,SCT,SCT,SCT,M,4600.00,5000.00,6500.00,M,M,M,M,M,M,M,M,27.48,KHTH 230535Z AUTO 34010G17KT 10SM SCT046 SCT050 SCT065 02/M03 A2977 RMK A01,M
BVU,2021-01-23 05:35,-114.8611,35.9475,671.00,46.40,39.20,75.84,210.00,5.00,0.00,29.74,M,10.00,M,FEW,FEW,FEW,M,5500.00,7000.00,9500.00,M,M,M,M,M,M,M,M,43.50,KBVU 230535Z AUTO 21005KT 10SM FEW055 FEW070 FEW095 08/04 A2974 RMK AO2 LTG DSNT NE-S,M
RTS,2021-01-23 05:35,-119.8764,39.6682,1539.00,30.20,19.40,63.75,310.00,8.00,0.00,29.78,M,10.00,M,OVC,M,M,M,5500.00,M,M,M,M,M,M,M,M,M,M,21.90,KRTS 230535Z AUTO 31008KT 10SM OVC055 M01/M07 A2978 RMK AO2,M
CXP,2021-01-23 05:35,-119.7326,39.1923,1431.00,33.80,17.60,51.04,300.00,4.00,0.00,29.77,M,10.00,M,OVC,M,M,M,6500.00,M,M,M,M,M,M,M,M,M,M,29.52,KCXP 230535Z AUTO 30004KT 10SM OVC065 01/M08 A2977 RMK AO2,M
EKO,2021-01-23 05:36,-115.7860,40.8242,1367.00,30.90,30.00,96.41,340.00,4.00,0.00,29.65,M,2.00,M,BKN,OVC,M,M,500.00,7000.00,M,M,BR,M,M,M,M,M,M,26.14,KEKO 230536Z AUTO 34004KT 2SM BR BKN005 OVC070 M01/M01 A2965 RMK AO2 T10061011,M
EKO,2021-01-23 05:45,-115.7860,40.8242,1367.00,32.00,30.00,92.22,0.00,0.00,0.00,29.65,M,3.00,M,OVC,M,M,M,300.00,M,M,M,BR,M,M,M,M,M,M,32.00,KEKO 230545Z AUTO 00000KT 3SM BR OVC003 00/M01 A2965 RMK AO2 T00001011,M
P68,2021-01-23 05:53,-116.0056,39.6014,1993.00,33.00,28.00,81.30,180.00,12.00,0.00,29.64,1001.80,M,16.00,M,M,M,M,M,M,M,M,M,M,M,M,M,M,M,23.40,KP68 230553Z AUTO 18012G16KT 01/M02 A2964 RMK AO1 SLP018 T00061022 10056 20006 51002,M
VGT,2021-01-23 05:53,-115.1933,36.2111,667.00,54.00,28.00,36.52,260.00,22.00,0.00,29.67,1005.70,10.00,30.00,CLR,M,M,M,M,M,M,M,M,M,M,M,30.00,260.00,2021-01-23 05:53,54.00,KVGT 230553Z AUTO 26022G30KT 10SM CLR 12/M02 A2967 RMK AO2 PK WND 26030/0553 SLP057 T01221022 10161 20111 50001,M
ELY,2021-01-23 05:53,-114.8453,39.2950,1909.00,30.90,24.10,75.59,210.00,10.00,0.00,29.64,1001.20,10.00,M,OVC,M,M,M,6000.00,M,M,M,M,M,M,M,M,M,M,21.59,KELY 230553Z AUTO 21010KT 10SM OVC060 M01/M04 A2964 RMK AO2 SLP012 60000 T10061044 10033 21011 58008,M
LOL,2021-01-23 05:53,-118.5701,40.0684,1192.43,34.00,28.90,81.37,20.00,7.00,0.00,29.74,1007.80,10.00,M,CLR,M,M,M,M,M,M,M,M,M,M,M,M,M,M,27.22,KLOL 230553Z AUTO 02007KT 10SM CLR 01/M02 A2974 RMK AO2 SLP078 T00111017 10056 20006 50005,M
DRA,2021-01-23 05:53,-116.0278,36.6206,1009.00,44.00,30.00,57.37,200.00,18.00,0.00,29.68,1003.20,10.00,30.00,CLR,M,M,M,M,M,M,M,M,M,M,M,32.00,170.00,2021-01-23 05:11,35.68,KDRA 230553Z AUTO 20018G30KT 10SM CLR 07/M01 A2968 RMK AO2 PK WND 17032/0511 SLP032 T00671011 10122 20067 53003,M
BVU,2021-01-23 05:55,-114.8611,35.9475,671.00,48.20,33.80,57.26,220.00,15.00,0.00,29.75,M,10.00,21.00,CLR,M,M,M,M,M,M,M,M,M,M,M,M,M,M,41.78,KBVU 230555Z AUTO 22015G21KT 10SM CLR 09/01 A2975 RMK AO2 LTG DSNT NE-SE,M
RTS,2021-01-23 05:55,-119.8764,39.6682,1539.00,28.40,19.40,68.61,310.00,9.00,0.00,29.78,M,10.00,M,FEW,BKN,M,M,4600.00,5500.00,M,M,M,M,M,M,M,M,M,19.04,KRTS 230555Z AUTO 31009KT 10SM FEW046 BKN055 M02/M07 A2978 RMK AO2,M
RNO,2021-01-23 05:55,-119.7711,39.4839,1341.00,33.00,19.00,55.75,70.00,3.00,0.00,29.77,1007.30,10.00,M,SCT,M,M,M,6000.00,M,M,M,M,M,M,M,M,M,M,29.95,KRNO 230555Z 07003KT 10SM SCT060 01/M07 A2977 RMK AO2 SLP073 T00061072 10067 20000 53007,M
BAM,2021-01-23 05:55,-116.8743,40.5990,1382.36,33.80,33.80,100.00,0.00,0.00,0.00,29.68,M,7.00,M,OVC,M,M,M,300.00,M,M,M,M,M,M,M,M,M,M,33.80,KBAM 230555Z AUTO 00000KT 7SM OVC003 01/01 A2968 RMK AO1,M
05U,2021-01-23 05:55,-116.0051,39.6042,1811.23,33.80,28.40,80.36,200.00,6.00,0.00,29.66,M,10.00,12.00,M,M,M,M,M,M,M,M,M,M,M,M,M,M,M,27.70,K05U 230555Z AUTO 20006G12KT 10SM 01/M02 A2966 RMK A01,M
MEV,2021-01-23 05:55,-119.7500,38.9963,1441.42,30.20,15.80,54.59,0.00,0.00,0.00,29.77,M,10.00,M,FEW,SCT,OVC,M,500.00,2700.00,6000.00,M,M,M,M,M,M,M,M,30.20,KMEV 230555Z AUTO 00000KT 10SM FEW005 SCT027 OVC060 M01/M09 A2977 RMK AO2,M
HTH,2021-01-23 05:55,-118.6315,38.5448,1282.89,33.80,28.40,80.36,20.00,6.00,0.00,29.78,M,10.00,12.00,SCT,SCT,BKN,M,4500.00,5000.00,7000.00,M,M,M,M,M,M,M,M,27.70,KHTH 230555Z AUTO 02006G12KT 10SM SCT045 SCT050 BKN070 01/M02 A2978 RMK A01,M
CXP,2021-01-23 05:55,-119.7326,39.1923,1431.00,32.00,17.60,54.87,0.00,0.00,0.00,29.78,M,10.00,M,FEW,OVC,M,M,5500.00,6500.00,M,M,M,M,M,M,M,M,M,32.00,KCXP 230555Z AUTO 00000KT 10SM FEW055 OVC065 00/M08 A2978 RMK AO2,M
EKO,2021-01-23 05:56,-115.7860,40.8242,1367.00,32.00,30.90,95.65,0.00,0.00,0.00,29.65,1004.40,9.00,M,OVC,M,M,M,300.00,M,M,M,M,T,M,T,M,M,M,32.00,KEKO 230556Z AUTO 00000KT 9SM OVC003 00/M01 A2965 RMK AO2 CIG 001V008 SLP044 60020 I1000 I6000 T00001006 10067 21006 56003,M
WMC,2021-01-23 05:56,-117.8072,40.9019,1315.00,33.00,30.00,88.23,330.00,11.00,0.04,29.71,1006.20,9.00,M,OVC,M,M,M,900.00,M,M,M,-SN,M,M,M,M,M,M,23.86,KWMC 230556Z AUTO 33011KT 9SM -SN OVC009 01/M01 A2971 RMK AO2 CIG 005V012 SLP062 P0004 60023 T00061011 10078 20006 $,M
HND,2021-01-23 05:56,-115.1344,35.9729,742.79,48.00,30.90,51.34,210.00,21.00,0.00,29.74,1008.10,10.00,29.00,FEW,M,M,M,9500.00,M,M,M,M,M,M,M,29.00,210.00,2021-01-23 05:48,40.19,KHND 230556Z AUTO 21021G29KT 10SM FEW095 09/M01 A2974 RMK AO2 PK WND 21029/0548 SLP081 60008 T00891006 10139 20089 53002,M
NFL,2021-01-23 05:56,-118.7010,39.4166,1199.00,30.00,25.00,81.40,260.00,3.00,0.00,29.76,1005.70,10.00,M,SCT,SCT,BKN,M,7000.00,10000.00,18000.00,M,M,M,M,M,M,M,M,26.40,KNFL 230556Z 26003KT 10SM SCT070 SCT100 BKN180 M01/M04 A2976 RMK AO2 SLP057 T10111039 10067 21039 53009,M
TPH,2021-01-23 05:56,-117.0904,38.0505,1654.00,27.00,24.10,88.65,320.00,8.00,T,29.69,1005.50,10.00,M,OVC,M,M,M,9500.00,M,M,M,M,M,M,M,M,M,M,17.95,KTPH 230556Z AUTO 32008KT 10SM OVC095 M03/M04 A2969 RMK AO2 SNE07 SLP055 P0000 60021 T10281044 10083 21033 58001,M
LAS,2021-01-23 05:56,-115.1634,36.0719,663.00,51.00,28.90,42.16,200.00,13.00,0.00,29.72,1005.80,10.00,22.00,FEW,SCT,M,M,9000.00,11000.00,M,M,M,M,M,M,M,M,M,51.10,KLAS 230556Z 20013G22KT 10SM FEW090 SCT110 11/M02 A2972 RMK AO2 SLP058 60001 T01061017 10156 20106 53008,M
EKO,2021-01-23 06:05,-115.7860,40.8242,1367.00,32.00,30.90,95.65,0.00,0.00,0.00,29.65,M,1.75,M,OVC,M,M,M,300.00,M,M,M,BR,M,M,M,M,M,M,32.00,KEKO 230605Z AUTO 00000KT 1 3/4SM BR OVC003 00/M01 A2965 RMK AO2 CIG 001V007 T00001006,M
BVU,2021-01-23 06:15,-114.8611,35.9475,671.00,48.20,32.00,53.27,220.00,12.00,0.00,29.76,M,10.00,21.00,CLR,M,M,M,M,M,M,M,M,M,M,M,M,M,M,42.62,KBVU 230615Z AUTO 22012G21KT 10SM CLR 09/00 A2976 RMK AO2 LTG DSNT NE AND SE,M
RTS,2021-01-23 06:15,-119.8764,39.6682,1539.00,28.40,17.60,63.51,310.00,6.00,0.00,29.78,M,10.00,M,FEW,M,M,M,4300.00,M,M,M,M,M,M,M,M,M,M,21.19,KRTS 230615Z AUTO 31006KT 10SM FEW043 M02/M08 A2978 RMK AO2,M
MEV,2021-01-23 06:15,-119.7500,38.9963,1441.42,26.60,15.80,63.27,40.00,4.00,0.00,29.77,M,10.00,M,FEW,OVC,M,M,4600.00,6500.00,M,M,M,M,M,M,M,M,M,21.11,KMEV 230615Z AUTO 04004KT 10SM FEW046 OVC065 M03/M09 A2977 RMK AO2,M
05U,2021-01-23 06:15,-116.0051,39.6042,1811.23,32.00,28.40,86.39,240.00,6.00,0.00,29.66,M,0.75,M,M,M,M,M,M,M,M,M,BR,M,M,M,M,M,M,25.53,K05U 230615Z AUTO 24006KT 3/4SM BR M00/M02 A2966 RMK A01,M
CXP,2021-01-23 06:15,-119.7326,39.1923,1431.00,30.20,17.60,59.01,50.00,3.00,0.00,29.78,M,10.00,M,BKN,OVC,M,M,5500.00,7000.00,M,M,M,M,M,M,M,M,M,26.63,KCXP 230615Z AUTO 05003KT 10SM BKN055 OVC070 M01/M08 A2978 RMK AO2,M
BAM,2021-01-23 06:15,-116.8743,40.5990,1382.36,33.80,33.80,100.00,0.00,0.00,0.00,29.68,M,7.00,M,OVC,M,M,M,500.00,M,M,M,M,M,M,M,M,M,M,33.80,KBAM 230615Z AUTO 00000KT 7SM OVC005 01/01 A2968 RMK AO1,M
HTH,2021-01-23 06:15,-118.6315,38.5448,1282.89,33.80,28.40,80.36,240.00,3.00,0.00,29.78,M,10.00,10.00,SCT,BKN,OVC,M,3800.00,4300.00,7000.00,M,M,M,M,M,M,M,M,30.75,KHTH 230615Z AUTO 24003G10KT 10SM SCT038 BKN043 OVC070 01/M02 A2978 RMK A01,M
EKO,2021-01-23 06:21,-115.7860,40.8242,1367.00,32.00,30.90,95.65,0.00,0.00,0.00,29.65,M,3.00,M,OVC,M,M,M,300.00,M,M,M,BR,M,M,M,M,M,M,32.00,KEKO 230621Z AUTO 00000KT 3SM BR OVC003 00/M01 A2965 RMK AO2 CIG 001V007 T00001006,M
WMC,2021-01-23 06:29,-117.8072,40.9019,1315.00,33.00,30.00,88.23,310.00,10.00,0.02,29.71,M,3.00,M,OVC,M,M,M,1100.00,M,M,M,-SN BR,M,M,M,M,M,M,24.35,KWMC 230629Z AUTO 31010KT 3SM -SN BR OVC011 01/M01 A2971 RMK AO2 P0002 T00061011 $,M
EKO,2021-01-23 06:34,-115.7860,40.8242,1367.00,32.00,30.90,95.65,120.00,4.00,0.00,29.65,M,1.50,M,OVC,M,M,M,400.00,M,M,M,BR,M,M,M,M,M,M,27.42,KEKO 230634Z AUTO 12004KT 1 1/2SM BR OVC004 00/M01 A2965 RMK AO2 T00001006,M
BAM,2021-01-23 06:35,-116.8743,40.5990,1382.36,33.80,33.80,100.00,0.00,0.00,0.00,29.68,M,7.00,M,OVC,M,M,M,300.00,M,M,M,M,M,M,M,M,M,M,33.80,KBAM 230635Z AUTO 00000KT 7SM OVC003 01/01 A2968 RMK AO1,M
CXP,2021-01-23 06:35,-119.7326,39.1923,1431.00,26.60,15.80,63.27,10.00,4.00,0.00,29.79,M,10.00,M,BKN,BKN,M,M,5000.00,6000.00,M,M,M,M,M,M,M,M,M,21.11,KCXP 230635Z AUTO 01004KT 10SM BKN050 BKN060 M03/M09 A2979 RMK AO2,M
MEV,2021-01-23 06:35,-119.7500,38.9963,1441.42,26.60,15.80,63.27,210.00,4.00,0.00,29.78,M,10.00,M,FEW,BKN,OVC,M,5500.00,6500.00,7500.00,M,M,M,M,M,M,M,M,21.11,KMEV 230635Z AUTO 21004KT 10SM FEW055 BKN065 OVC075 M03/M09 A2978 RMK AO2,M
05U,2021-01-23 06:35,-116.0051,39.6042,1811.23,32.00,28.40,86.39,210.00,4.00,0.00,29.65,M,1.00,M,M,M,M,M,M,M,M,M,BR,M,M,M,M,M,M,27.42,K05U 230635Z AUTO 21004KT 1SM BR M00/M02 A2965 RMK A01,M
RTS,2021-01-23 06:35,-119.8764,39.6682,1539.00,26.60,17.60,68.40,330.00,5.00,0.00,29.78,M,10.00,M,FEW,BKN,M,M,4400.00,5500.00,M,M,M,M,M,M,M,M,M,19.98,KRTS 230635Z AUTO 33005KT 10SM FEW044 BKN055 M03/M08 A2978 RMK AO2,M
HTH,2021-01-23 06:35,-118.6315,38.5448,1282.89,33.80,26.60,74.63,200.00,5.00,0.00,29.78,M,10.00,M,BKN,BKN,OVC,M,3800.00,4300.00,6500.00,M,M,M,M,M,M,M,M,28.53,KHTH 230635Z AUTO 20005KT 10SM BKN038 BKN043 OVC065 01/M03 A2978 RMK A01,M
BVU,2021-01-23 06:35,-114.8611,35.9475,671.00,50.00,30.20,46.31,200.00,13.00,0.00,29.77,M,10.00,21.00,FEW,SCT,M,M,6000.00,7000.00,M,M,M,M,M,M,M,M,M,50.00,KBVU 230635Z AUTO 20013G21KT 10SM FEW060 SCT070 10/M01 A2977 RMK AO2,M
WMC,2021-01-23 06:37,-117.8072,40.9019,1315.00,33.00,30.00,88.23,300.00,9.00,0.02,29.71,M,2.50,M,OVC,M,M,M,1400.00,M,M,M,-SN BR,M,M,M,M,M,M,24.88,KWMC 230637Z AUTO 30009KT 2 1/2SM -SN BR OVC014 01/M01 A2971 RMK AO2 P0002 T00061011 $,M
EKO,2021-01-23 06:43,-115.7860,40.8242,1367.00,32.00,30.90,95.65,110.00,3.00,0.00,29.65,M,0.50,M,BKN,OVC,M,M,400.00,800.00,M,M,FG,M,M,M,M,M,M,28.69,KEKO 230643Z AUTO 11003KT 1/2SM FG BKN004 OVC008 00/M01 A2965 RMK AO2 T00001006,M
WMC,2021-01-23 06:44,-117.8072,40.9019,1315.00,33.00,30.00,88.23,300.00,9.00,0.03,29.71,M,3.00,M,BKN,BKN,OVC,M,1400.00,2600.00,3500.00,M,-SN BR,M,M,M,M,M,M,24.88,KWMC 230644Z AUTO 30009KT 3SM -SN BR BKN014 BKN026 OVC035 01/M01 A2971 RMK AO2 P0003 T00061011 $,M
ELY,2021-01-23 06:53,-114.8453,39.2950,1909.00,30.90,25.00,78.48,200.00,7.00,T,29.64,1001.80,5.00,M,BKN,OVC,M,M,2800.00,3900.00,M,M,-SN,M,M,M,M,M,M,23.44,KELY 230653Z AUTO 20007KT 5SM -SN BKN028 OVC039 M01/M04 A2964 RMK AO2 SNB17 SLP018 P0000 T10061039,M
P68,2021-01-23 06:53,-116.0056,39.6014,1993.00,30.00,28.90,95.61,220.00,7.00,0.05,29.62,1001.30,M,M,M,M,M,M,M,M,M,M,M,M,M,M,M,M,M,22.34,KP68 230653Z AUTO 22007KT M01/M02 A2962 RMK AO1 SLP013 P0005 T10111017,M
LOL,2021-01-23 06:53,-118.5701,40.0684,1192.43,32.00,28.90,88.17,0.00,0.00,0.00,29.75,1007.90,10.00,M,OVC,M,M,M,6000.00,M,M,M,M,M,M,M,M,M,M,32.00,KLOL 230653Z AUTO 00000KT 10SM OVC060 00/M02 A2975 RMK AO2 SLP079 T00001017,M
VGT,2021-01-23 06:53,-115.1933,36.2111,667.00,52.00,30.00,42.65,240.00,15.00,T,29.68,1006.10,10.00,M,FEW,FEW,SCT,M,4500.00,6500.00,9000.00,M,M,M,M,M,30.00,240.00,2021-01-23 05:55,52.00,KVGT 230653Z AUTO 24015KT 10SM FEW045 FEW065 SCT090 11/M01 A2968 RMK AO2 PK WND 24030/0555 RAB18E27 SLP061 P0000 T01111011,M
DRA,2021-01-23 06:53,-116.0278,36.6206,1009.00,43.00,26.10,50.98,220.00,19.00,0.00,29.68,1003.20,10.00,31.00,FEW,M,M,M,5000.00,M,M,M,M,M,M,M,31.00,200.00,2021-01-23 06:48,33.98,KDRA 230653Z AUTO 22019G31KT 10SM FEW050 06/M03 A2968 RMK AO2 PK WND 20031/0648 SLP032 T00611033,M
MEV,2021-01-23 06:55,-119.7500,38.9963,1441.42,26.60,15.80,63.27,130.00,6.00,0.00,29.78,M,9.00,M,FEW,SCT,BKN,M,700.00,1700.00,3700.00,M,M,M,M,M,M,M,M,19.03,KMEV 230655Z AUTO 13006KT 9SM FEW007 SCT017 BKN037 M03/M09 A2978 RMK AO2,M
CXP,2021-01-23 06:55,-119.7326,39.1923,1431.00,26.60,15.80,63.27,0.00,0.00,0.00,29.79,M,10.00,M,FEW,FEW,SCT,M,5000.00,5500.00,6500.00,M,M,M,M,M,M,M,M,26.60,KCXP 230655Z AUTO 00000KT 10SM FEW050 FEW055 SCT065 M03/M09 A2979 RMK AO2,M
HTH,2021-01-23 06:55,-118.6315,38.5448,1282.89,33.80,26.60,74.63,180.00,4.00,0.00,29.78,M,10.00,M,FEW,SCT,OVC,M,3300.00,4100.00,6500.00,M,M,M,M,M,M,M,M,29.52,KHTH 230655Z AUTO 18004KT 10SM FEW033 SCT041 OVC065 01/M03 A2978 RMK A01,M
BAM,2021-01-23 06:55,-116.8743,40.5990,1382.36,33.80,33.80,100.00,250.00,3.00,0.00,29.68,M,7.00,M,BKN,OVC,M,M,300.00,700.00,M,M,M,M,M,M,M,M,M,30.75,KBAM 230655Z AUTO 25003KT 7SM BKN003 OVC007 01/01 A2968 RMK AO1,M
05U,2021-01-23 06:55,-116.0051,39.6042,1811.23,30.20,28.40,92.92,230.00,7.00,0.00,29.65,M,4.00,M,M,M,M,M,M,M,M,M,BR,M,M,M,M,M,M,22.59,K05U 230655Z AUTO 23007KT 4SM BR M01/M02 A2965 RMK A01,M
RTS,2021-01-23 06:55,-119.8764,39.6682,1539.00,28.40,19.40,68.61,310.00,10.00,0.00,29.79,M,10.00,M,SCT,SCT,M,M,5000.00,5500.00,M,M,M,M,M,M,M,M,M,18.45,KRTS 230655Z AUTO 31010KT 10SM SCT050 SCT055 M02/M07 A2979 RMK AO2,M
BVU,2021-01-23 06:55,-114.8611,35.9475,671.00,48.20,32.00,53.27,190.00,16.00,0.00,29.77,M,10.00,M,BKN,BKN,M,M,6500.00,7500.00,M,M,M,M,M,M,M,M,M,41.53,KBVU 230655Z AUTO 19016KT 10SM BKN065 BKN075 09/M00 A2977 RMK AO2,M
RNO,2021-01-23 06:55,-119.7711,39.4839,1341.00,32.00,21.00,63.45,40.00,10.00,0.00,29.78,1008.00,10.00,M,SCT,M,M,M,5500.00,M,M,M,M,M,M,M,M,M,M,22.97,KRNO 230655Z 04010KT 10SM SCT055 00/M06 A2978 RMK AO2 SLP080 T00001061,M
NFL,2021-01-23 06:56,-118.7010,39.4166,1199.00,27.00,21.90,80.83,220.00,4.00,0.00,29.77,1005.90,10.00,M,SCT,BKN,BKN,M,7000.00,10000.00,18000.00,M,M,M,M,M,M,M,M,21.58,KNFL 230656Z 22004KT 10SM SCT070 BKN100 BKN180 M03/M06 A2977 RMK AO2 SLP059 T10281056,M
LAS,2021-01-23 06:56,-115.1634,36.0719,663.00,49.00,30.90,49.63,230.00,5.00,0.00,29.73,1006.00,10.00,M,FEW,SCT,M,M,9000.00,11000.00,M,M,M,M,M,M,M,M,M,46.47,KLAS 230656Z 23005KT 10SM FEW090 SCT110 09/M01 A2973 RMK AO2 SLP060 T00941006,M
EKO,2021-01-23 06:56,-115.7860,40.8242,1367.00,32.00,30.90,95.65,0.00,0.00,0.00,29.65,1004.10,0.75,M,BKN,BKN,OVC,M,400.00,800.00,1200.00,M,BR,M,M,M,M,M,M,32.00,KEKO 230656Z AUTO 00000KT 3/4SM BR BKN004 BKN008 OVC012 00/M01 A2965 RMK AO2 SLP041 T00001006,M
TPH,2021-01-23 06:56,-117.0904,38.0505,1654.00,26.10,24.10,92.01,300.00,12.00,0.00,29.69,1005.10,10.00,M,CLR,M,M,M,M,M,M,M,M,M,M,M,M,M,M,14.49,KTPH 230656Z AUTO 30012KT 10SM CLR M03/M04 A2969 RMK AO2 SLP051 T10331044,M
HND,2021-01-23 06:56,-115.1344,35.9729,742.79,47.00,32.00,55.94,200.00,21.00,0.00,29.75,1008.50,10.00,27.00,CLR,M,M,M,M,M,M,M,M,M,M,M,27.00,210.00,2021-01-23 06:52,38.73,KHND 230656Z AUTO 20021G27KT 10SM CLR 08/00 A2975 RMK AO2 PK WND 21027/0652 SLP085 T00830000,M
WMC,2021-01-23 06:56,-117.8072,40.9019,1315.00,33.00,30.00,88.23,310.00,8.00,0.03,29.71,1005.90,8.00,M,SCT,BKN,OVC,M,1600.00,2900.00,3600.00,M,-SN,M,M,M,M,M,M,25.47,KWMC 230656Z AUTO 31008KT 8SM -SN SCT016 BKN029 OVC036 01/M01 A2971 RMK AO2 SLP059 P0003 T00061011 $,M
EKO,2021-01-23 07:04,-115.7860,40.8242,1367.00,32.00,30.90,95.65,100.00,3.00,0.00,29.65,M,1.00,M,SCT,OVC,M,M,400.00,1200.00,M,M,BR,M,M,M,M,M,M,28.69,KEKO 230704Z AUTO 10003KT 1SM BR SCT004 OVC012 00/M01 A2965 RMK AO2 T00001006,M
ELY,2021-01-23 07:06,-114.8453,39.2950,1909.00,30.00,25.00,81.40,210.00,11.00,T,29.64,M,1.75,M,FEW,BKN,OVC,M,1200.00,2000.00,3000.00,M,-SN,M,M,M,M,M,M,19.94,KELY 230706Z AUTO 21011KT 1 3/4SM -SN FEW012 BKN020 OVC030 M01/M04 A2964 RMK AO2 P0000 T10111039,M
EKO,2021-01-23 07:08,-115.7860,40.8242,1367.00,32.00,30.90,95.65,110.00,3.00,0.00,29.65,M,2.00,M,BKN,OVC,M,M,800.00,1200.00,M,M,BR,M,M,M,M,M,M,28.69,KEKO 230708Z AUTO 11003KT 2SM BR BKN008 OVC012 00/M01 A2965 RMK AO2 T00001006,M
BAM,2021-01-23 07:15,-116.8743,40.5990,1382.36,33.80,33.80,100.00,0.00,0.00,0.00,29.68,M,5.00,M,OVC,M,M,M,300.00,M,M,M,M,M,M,M,M,M,M,33.80,KBAM 230715Z AUTO 00000KT 5SM OVC003 01/01 A2968 RMK AO1,M
RTS,2021-01-23 07:15,-119.8764,39.6682,1539.00,28.40,19.40,68.61,330.00,7.00,0.00,29.79,M,10.00,M,FEW,FEW,BKN,M,3200.00,4400.00,5000.00,M,M,M,M,M,M,M,M,20.39,KRTS 230715Z AUTO 33007KT 10SM FEW032 FEW044 BKN050 M02/M07 A2979 RMK AO2,M
BVU,2021-01-23 07:15,-114.8611,35.9475,671.00,48.20,32.00,53.27,210.00,14.00,0.00,29.77,M,10.00,21.00,FEW,BKN,BKN,M,5500.00,7500.00,9000.00,M,M,M,M,M,M,M,M,42.04,KBVU 230715Z AUTO 21014G21KT 10SM FEW055 BKN075 BKN090 09/M00 A2977 RMK AO2,M
HTH,2021-01-23 07:15,-118.6315,38.5448,1282.89,30.20,26.60,86.28,140.00,4.00,0.00,29.77,M,10.00,M,BKN,BKN,OVC,M,3700.00,4300.00,7000.00,M,M,M,M,M,M,M,M,25.32,KHTH 230715Z AUTO 14004KT 10SM BKN037 BKN043 OVC070 M01/M03 A2977 RMK A01,M
05U,2021-01-23 07:15,-116.0051,39.6042,1811.23,30.20,28.40,92.92,210.00,9.00,0.00,29.65,M,9.00,M,M,M,M,M,M,M,M,M,M,M,M,M,M,M,M,21.28,K05U 230715Z AUTO 21009KT 9SM M01/M02 A2965 RMK A01,M
CXP,2021-01-23 07:15,-119.7326,39.1923,1431.00,24.80,15.80,68.18,340.00,4.00,0.00,29.79,M,10.00,M,CLR,M,M,M,M,M,M,M,M,M,M,M,M,M,M,19.01,KCXP 230715Z AUTO 34004KT 10SM CLR M04/M09 A2979 RMK AO2,M
MEV,2021-01-23 07:15,-119.7500,38.9963,1441.42,26.60,17.60,68.40,140.00,5.00,0.00,29.78,M,10.00,M,FEW,SCT,OVC,M,500.00,1700.00,4500.00,M,M,M,M,M,M,M,M,19.98,KMEV 230715Z AUTO 14005KT 10SM FEW005 SCT017 OVC045 M03/M08 A2978 RMK AO2,M
EKO,2021-01-23 07:16,-115.7860,40.8242,1367.00,33.00,30.90,91.51,0.00,0.00,0.00,29.64,M,3.00,M,FEW,OVC,M,M,300.00,1000.00,M,M,BR,M,M,M,M,M,M,33.10,KEKO 230716Z AUTO 00000KT 3SM BR FEW003 OVC010 01/M01 A2964 RMK AO2 T00061006,M
ELY,2021-01-23 07:21,-114.8453,39.2950,1909.00,28.90,26.10,89.12,210.00,8.00,0.01,29.64,M,1.00,M,VV ,M,M,M,1100.00,M,M,M,-SN BR,M,M,M,M,M,M,20.29,KELY 230721Z AUTO 21008KT 1SM -SN BR VV011 M02/M03 A2964 RMK AO2 P0001 T10171033,M
ELY,2021-01-23 07:28,-114.8453,39.2950,1909.00,30.00,26.10,85.21,M,M,0.01,29.64,M,2.00,M,OVC,M,M,M,1100.00,M,M,M,-SN BR,M,M,M,M,M,M,M,KELY 230728Z AUTO 2SM -SN BR OVC011 M01/M03 A2964 RMK AO2 P0001 T10111033,M
EKO,2021-01-23 07:29,-115.7860,40.8242,1367.00,33.00,30.90,91.51,0.00,0.00,0.00,29.64,M,5.00,M,BKN,OVC,M,M,800.00,1600.00,M,M,BR,M,M,M,M,M,M,33.10,KEKO 230729Z AUTO 00000KT 5SM BR BKN008 OVC016 01/M01 A2964 RMK AO2 T00061006,M
RTS,2021-01-23 07:35,-119.8764,39.6682,1539.00,24.80,17.60,73.70,330.00,3.00,0.00,29.79,M,10.00,M,FEW,FEW,M,M,4400.00,5000.00,M,M,M,M,M,M,M,M,M,20.46,KRTS 230735Z AUTO 33003KT 10SM FEW044 FEW050 M04/M08 A2979 RMK AO2,M
BVU,2021-01-23 07:35,-114.8611,35.9475,671.00,46.40,32.00,57.00,230.00,12.00,0.00,29.77,M,10.00,18.00,FEW,M,M,M,9000.00,M,M,M,M,M,M,M,M,M,M,40.33,KBVU 230735Z AUTO 23012G18KT 10SM FEW090 08/00 A2977 RMK AO2 LTG DSNT E,M
CXP,2021-01-23 07:35,-119.7326,39.1923,1431.00,26.60,15.80,63.27,360.00,4.00,0.00,29.79,M,10.00,M,FEW,M,M,M,6000.00,M,M,M,M,M,M,M,M,M,M,21.11,KCXP 230735Z AUTO 36004KT 10SM FEW060 M03/M09 A2979 RMK AO2,M
05U,2021-01-23 07:35,-116.0051,39.6042,1811.23,30.20,26.60,86.28,220.00,7.00,0.00,29.65,M,10.00,M,M,M,M,M,M,M,M,M,M,M,M,M,M,M,M,22.59,K05U 230735Z AUTO 22007KT 10SM M01/M03 A2965 RMK A01,M
MEV,2021-01-23 07:35,-119.7500,38.9963,1441.42,24.80,17.60,73.70,50.00,3.00,0.00,29.78,M,10.00,M,OVC,M,M,M,4500.00,M,M,M,M,M,M,M,M,M,M,20.46,KMEV 230735Z AUTO 05003KT 10SM OVC045 M04/M08 A2978 RMK AO2,M
BAM,2021-01-23 07:35,-116.8743,40.5990,1382.36,33.80,33.80,100.00,330.00,4.00,0.00,29.68,M,1.75,M,OVC,M,M,M,300.00,M,M,M,M,M,M,M,M,M,M,29.52,KBAM 230735Z AUTO 33004KT 1 3/4SM OVC003 01/01 A2968 RMK AO1,M
HTH,2021-01-23 07:35,-118.6315,38.5448,1282.89,33.80,26.60,74.63,200.00,6.00,0.00,29.77,M,10.00,M,BKN,OVC,M,M,3600.00,4200.00,M,M,M,M,M,M,M,M,M,27.70,KHTH 230735Z AUTO 20006KT 10SM BKN036 OVC042 01/M03 A2977 RMK A01,M
ELY,2021-01-23 07:36,-114.8453,39.2950,1909.00,28.90,25.00,85.14,M,M,0.02,29.63,M,4.00,M,BKN,BKN,BKN,M,1200.00,4300.00,12000.00,M,-SN BR,M,M,M,M,M,M,M,KELY 230736Z AUTO 4SM -SN BR BKN012 BKN043 BKN120 M02/M04 A2963 RMK AO2 P0002 T10171039,M
ELY,2021-01-23 07:48,-114.8453,39.2950,1909.00,30.20,24.80,80.07,200.00,10.00,0.02,29.63,M,9.00,M,SCT,OVC,M,M,1200.00,10000.00,M,M,M,M,M,M,M,M,M,20.71,KELY 230748Z AUTO 20010KT 9SM SCT012 OVC100 M01/M04 A2963 RMK AO2 SNE43 P0002,M
05U,2021-01-23 07:50,-116.0051,39.6042,1811.23,30.20,26.60,86.28,230.00,6.00,0.00,29.64,M,10.00,M,M,M,M,M,M,M,M,M,M,M,M,M,M,M,M,23.36,K05U 230750Z AUTO 23006KT 10SM M01/M03 A2964 RMK A01,M
DRA,2021-01-23 07:53,-116.0278,36.6206,1009.00,43.00,26.10,50.98,250.00,10.00,0.00,29.71,1004.10,10.00,21.00,BKN,BKN,M,M,7000.00,8000.00,M,M,M,M,M,M,30.00,200.00,2021-01-23 06:56,36.76,KDRA 230753Z AUTO 25010G21KT 10SM BKN070 BKN080 06/M03 A2971 RMK AO2 PK WND 20030/0656 SLP041 T00611033 401390039,M
P68,2021-01-23 07:53,-116.0056,39.6014,1993.00,30.00,27.00,88.44,230.00,5.00,0.00,29.62,1001.30,M,M,M,M,M,M,M,M,M,M,M,M,M,M,M,M,M,24.02,KP68 230753Z AUTO 23005KT M01/M03 A2962 RMK AO1 SLP013 T10111028 400671028,M
ELY,2021-01-23 07:53,-114.8453,39.2950,1909.00,28.90,25.00,85.14,220.00,9.00,0.02,29.63,1001.90,10.00,M,FEW,BKN,OVC,M,1200.00,9500.00,11000.00,M,M,M,M,M,M,M,M,19.66,KELY 230753Z AUTO 22009KT 10SM FEW012 BKN095 OVC110 M02/M04 A2963 RMK AO2 SNE43 SLP019 P0002 T10171039 400671017,M
VGT,2021-01-23 07:53,-115.1933,36.2111,667.00,50.00,30.90,47.64,220.00,7.00,0.00,29.69,1006.50,10.00,M,FEW,SCT,SCT,M,6000.00,8000.00,9000.00,M,M,M,M,M,M,M,M,50.00,KVGT 230753Z AUTO 22007KT 10SM FEW060 SCT080 SCT090 10/M01 A2969 RMK AO2 SLP065 T01001006 401830072,M
LOL,2021-01-23 07:53,-118.5701,40.0684,1192.43,30.90,28.00,88.84,220.00,3.00,0.00,29.75,1007.60,10.00,M,BKN,OVC,M,M,4700.00,6000.00,M,M,M,M,M,M,M,M,M,27.43,KLOL 230753Z AUTO 22003KT 10SM BKN047 OVC060 M01/M02 A2975 RMK AO2 SLP076 T10061022 400941050,M
EKO,2021-01-23 07:54,-115.7860,40.8242,1367.00,33.80,30.20,86.49,0.00,0.00,M,29.63,M,8.00,M,SCT,BKN,OVC,M,400.00,1699.00,2201.00,M,M,M,M,M,M,M,M,33.80,SPECI KEKO 230754Z 00000KT 8SM SCT004 BKN017 OVC022 01/M01 A2963 RMK AO2 FIBI,M
CXP,2021-01-23 07:55,-119.7326,39.1923,1431.00,26.60,15.80,63.27,0.00,0.00,0.00,29.79,M,10.00,M,FEW,FEW,M,M,6000.00,7000.00,M,M,M,M,M,M,M,M,M,26.60,KCXP 230755Z AUTO 00000KT 10SM FEW060 FEW070 M03/M09 A2979 RMK AO2,M
BVU,2021-01-23 07:55,-114.8611,35.9475,671.00,46.40,32.00,57.00,210.00,14.00,0.00,29.77,M,10.00,M,CLR,M,M,M,M,M,M,M,M,M,M,M,M,M,M,39.72,KBVU 230755Z AUTO 21014KT 10SM CLR 08/00 A2977 RMK AO2,M
RNO,2021-01-23 07:55,-119.7711,39.4839,1341.00,33.00,21.00,60.71,340.00,12.00,0.00,29.78,1008.00,10.00,M,BKN,M,M,M,6500.00,M,M,M,M,M,M,M,M,M,M,23.40,KRNO 230755Z 34012KT 10SM BKN065 01/M06 A2978 RMK AO2 SLP080 T00061061 400941006,M
HTH,2021-01-23 07:55,-118.6315,38.5448,1282.89,30.20,23.00,74.26,250.00,5.00,0.00,29.77,M,10.00,M,SCT,SCT,M,M,3600.00,4400.00,M,M,M,M,M,M,M,M,M,24.26,KHTH 230755Z AUTO 25005KT 10SM SCT036 SCT044 M01/M05 A2977 RMK A01,M
MEV,2021-01-23 07:55,-119.7500,38.9963,1441.42,24.80,14.00,63.03,0.00,0.00,0.00,29.78,M,10.00,M,FEW,BKN,OVC,M,3100.00,4700.00,6000.00,M,M,M,M,M,M,M,M,24.80,KMEV 230755Z AUTO 00000KT 10SM FEW031 BKN047 OVC060 M04/M10 A2978 RMK AO2,M
BAM,2021-01-23 07:55,-116.8743,40.5990,1382.36,33.80,33.80,100.00,310.00,3.00,0.00,29.68,M,1.00,M,OVC,M,M,M,300.00,M,M,M,M,M,M,M,M,M,M,30.75,KBAM 230755Z AUTO 31003KT 1SM OVC003 01/01 A2968 RMK AO1,M
RTS,2021-01-23 07:55,-119.8764,39.6682,1539.00,26.60,19.40,73.89,260.00,6.00,0.00,29.78,M,10.00,M,CLR,M,M,M,M,M,M,M,M,M,M,M,M,M,M,19.03,KRTS 230755Z AUTO 26006KT 10SM CLR M03/M07 A2978 RMK AO2,M
EKO,2021-01-23 07:56,-115.7860,40.8242,1367.00,33.00,30.90,91.51,0.00,0.00,0.00,29.63,1003.00,9.00,M,FEW,BKN,OVC,M,400.00,1700.00,2200.00,M,M,M,M,M,M,M,M,33.10,KEKO 230756Z AUTO 00000KT 9SM FEW004 BKN017 OVC022 01/M01 A2963 RMK AO2 SLP030 T00061006 400891039,M
NFL,2021-01-23 07:56,-118.7010,39.4166,1199.00,21.90,19.00,88.40,180.00,5.00,0.00,29.75,1005.50,10.00,M,CLR,M,M,M,M,M,M,M,M,M,M,M,M,M,M,14.40,KNFL 230756Z AUTO 18005KT 10SM CLR M06/M07 A2975 RMK AO2 SLP055 T10561072 401001072,M
LAS,2021-01-23 07:56,-115.1634,36.0719,663.00,49.00,28.90,45.75,220.00,14.00,0.00,29.74,1006.40,10.00,24.00,FEW,SCT,M,M,6000.00,9000.00,M,M,M,M,M,M,M,M,M,42.95,KLAS 230756Z 22014G24KT 10SM FEW060 SCT090 09/M02 A2974 RMK AO2 SLP064 T00941017 401670083,M
WMC,2021-01-23 07:56,-117.8072,40.9019,1315.00,33.00,30.00,88.23,310.00,10.00,0.01,29.70,1005.40,4.00,M,BKN,OVC,M,M,1800.00,2400.00,M,M,-SN BR,M,M,M,M,M,M,24.35,KWMC 230756Z AUTO 31010KT 4SM -SN BR BKN018 OVC024 01/M01 A2970 RMK AO2 SLP054 P0001 T00061011 401111011 $,M
TPH,2021-01-23 07:56,-117.0904,38.0505,1654.00,30.00,26.10,85.21,320.00,17.00,0.00,29.69,1004.80,10.00,M,CLR,M,M,M,M,M,M,M,M,M,M,M,M,M,M,17.46,KTPH 230756Z AUTO 32017KT 10SM CLR M01/M03 A2969 RMK AO2 SLP048 T10111033 400941044,M
HND,2021-01-23 07:56,-115.1344,35.9729,742.79,46.00,32.00,57.87,210.00,18.00,0.00,29.75,1008.80,10.00,31.00,CLR,M,M,M,M,M,M,M,M,M,M,M,31.00,210.00,2021-01-23 07:52,38.18,KHND 230756Z AUTO 21018G31KT 10SM CLR 08/00 A2975 RMK AO2 PK WND 21031/0752 SLP088 T00780000 401610078,M
MEV,2021-01-23 08:15,-119.7500,38.9963,1441.42,26.60,15.80,63.27,90.00,3.00,0.00,29.77,M,10.00,M,BKN,OVC,M,M,5500.00,7000.00,M,M,M,M,M,M,M,M,M,22.52,KMEV 230815Z AUTO 09003KT 10SM BKN055 OVC070 M03/M09 A2977 RMK AO2,M
HTH,2021-01-23 08:15,-118.6315,38.5448,1282.89,30.20,21.20,68.83,240.00,4.00,0.00,29.76,M,10.00,M,FEW,M,M,M,6000.00,M,M,M,M,M,M,M,M,M,M,25.32,KHTH 230815Z AUTO 24004KT 10SM FEW060 M01/M06 A2976 RMK A01,M
BAM,2021-01-23 08:15,-116.8743,40.5990,1382.36,33.80,33.80,100.00,300.00,6.00,0.00,29.67,M,1.75,M,OVC,M,M,M,300.00,M,M,M,M,M,M,M,M,M,M,27.70,KBAM 230815Z AUTO 30006KT 1 3/4SM OVC003 01/01 A2967 RMK AO1,M
05U,2021-01-23 08:15,-116.0051,39.6042,1811.23,30.20,26.60,86.28,240.00,7.00,0.00,29.64,M,10.00,M,M,M,M,M,M,M,M,M,M,M,M,M,M,M,M,22.59,K05U 230815Z AUTO 24007KT 10SM M01/M03 A2964 RMK A01,M
RTS,2021-01-23 08:15,-119.8764,39.6682,1539.00,26.60,19.40,73.89,290.00,9.00,0.00,29.78,M,10.00,M,CLR,M,M,M,M,M,M,M,M,M,M,M,M,M,M,16.80,KRTS 230815Z AUTO 29009KT 10SM CLR M03/M07 A2978 RMK AO2,M
CXP,2021-01-23 08:15,-119.7326,39.1923,1431.00,26.60,15.80,63.27,0.00,0.00,0.00,29.79,M,10.00,M,BKN,M,M,M,7000.00,M,M,M,M,M,M,M,M,M,M,26.60,KCXP 230815Z AUTO 00000KT 10SM BKN070 M03/M09 A2979 RMK AO2,M
BVU,2021-01-23 08:15,-114.8611,35.9475,671.00,46.40,32.00,57.00,220.00,14.00,0.00,29.77,M,10.00,21.00,CLR,M,M,M,M,M,M,M,M,M,M,M,M,M,M,39.72,KBVU 230815Z AUTO 22014G21KT 10SM CLR 08/00 A2977 RMK AO2,M
LOL,2021-01-23 08:26,-118.5701,40.0684,1192.43,30.90,28.00,88.84,0.00,0.00,T,29.74,M,2.50,M,OVC,M,M,M,3100.00,M,M,M,-SN BR,M,M,M,M,M,M,30.90,KLOL 230826Z AUTO 00000KT 2 1/2SM -SN BR OVC031 M01/M02 A2974 RMK AO2 SNB00 P0000 T10061022,M
WMC,2021-01-23 08:26,-117.8072,40.9019,1315.00,33.00,28.90,84.36,330.00,9.00,0.01,29.70,M,4.00,M,BKN,OVC,M,M,1400.00,2400.00,M,M,-SN BR,M,M,M,M,M,M,24.88,KWMC 230826Z AUTO 33009KT 4SM -SN BR BKN014 OVC024 01/M02 A2970 RMK AO2 P0001 T00061017 $,M
EKO,2021-01-23 08:30,-115.7860,40.8242,1367.00,32.00,30.90,95.65,120.00,4.00,0.00,29.63,M,9.00,M,SCT,BKN,BKN,M,500.00,900.00,2200.00,M,M,M,M,M,M,M,M,27.42,KEKO 230830Z AUTO 12004KT 9SM SCT005 BKN009 BKN022 00/M01 A2963 RMK AO2 T00001006,M
RTS,2021-01-23 08:35,-119.8764,39.6682,1539.00,26.60,19.40,73.89,310.00,5.00,0.00,29.79,M,10.00,M,CLR,M,M,M,M,M,M,M,M,M,M,M,M,M,M,19.98,KRTS 230835Z AUTO 31005KT 10SM CLR M03/M07 A2979 RMK AO2,M
05U,2021-01-23 08:35,-116.0051,39.6042,1811.23,30.20,26.60,86.28,230.00,10.00,0.00,29.65,M,10.00,M,M,M,M,M,M,M,M,M,M,M,M,M,M,M,M,20.71,K05U 230835Z AUTO 23010KT 10SM M01/M03 A2965 RMK A01,M
MEV,2021-01-23 08:35,-119.7500,38.9963,1441.42,23.00,15.80,73.51,90.00,6.00,0.00,29.78,M,10.00,M,SCT,OVC,M,M,5500.00,6500.00,M,M,M,M,M,M,M,M,M,14.69,KMEV 230835Z AUTO 09006KT 10SM SCT055 OVC065 M05/M09 A2978 RMK AO2,M
BAM,2021-01-23 08:35,-116.8743,40.5990,1382.36,33.80,33.80,100.00,300.00,5.00,0.00,29.67,M,3.00,M,BKN,OVC,M,M,300.00,900.00,M,M,M,M,M,M,M,M,M,28.53,KBAM 230835Z AUTO 30005KT 3SM BKN003 OVC009 01/01 A2967 RMK AO1,M
HTH,2021-01-23 08:35,-118.6315,38.5448,1282.89,28.40,21.20,74.08,230.00,6.00,0.00,29.77,M,10.00,M,BKN,M,M,M,6000.00,M,M,M,M,M,M,M,M,M,M,21.19,KHTH 230835Z AUTO 23006KT 10SM BKN060 M02/M06 A2977 RMK A01,M
BVU,2021-01-23 08:35,-114.8611,35.9475,671.00,48.20,30.20,49.53,230.00,19.00,0.00,29.79,M,10.00,25.00,CLR,M,M,M,M,M,M,M,M,M,M,M,M,M,M,40.86,KBVU 230835Z AUTO 23019G25KT 10SM CLR 09/M01 A2979 RMK AO2,M
CXP,2021-01-23 08:35,-119.7326,39.1923,1431.00,26.60,15.80,63.27,0.00,0.00,0.00,29.79,M,10.00,M,OVC,M,M,M,7000.00,M,M,M,M,M,M,M,M,M,M,26.60,KCXP 230835Z AUTO 00000KT 10SM OVC070 M03/M09 A2979 RMK AO2,M
LOL,2021-01-23 08:35,-118.5701,40.0684,1192.43,32.00,28.90,88.17,0.00,0.00,T,29.74,M,2.00,M,OVC,M,M,M,2700.00,M,M,M,-SN BR,M,M,M,M,M,M,32.00,KLOL 230835Z AUTO 00000KT 2SM -SN BR OVC027 00/M02 A2974 RMK AO2 SNB00 P0000 T00001017,M
EKO,2021-01-23 08:40,-115.7860,40.8242,1367.00,33.00,30.90,91.51,120.00,3.00,0.00,29.63,M,6.00,M,BKN,OVC,M,M,300.00,900.00,M,M,BR,M,M,M,M,M,M,29.95,KEKO 230840Z AUTO 12003KT 6SM BR BKN003 OVC009 01/M01 A2963 RMK AO2 CIG 002V007 T00061006,M
WMC,2021-01-23 08:52,-117.8072,40.9019,1315.00,32.00,28.40,86.39,340.00,10.00,0.01,29.71,M,9.00,M,SCT,OVC,M,M,1400.00,1900.00,M,M,M,M,M,M,M,M,M,22.97,KWMC 230852Z AUTO 34010KT 9SM SCT014 OVC019 00/M02 A2971 RMK AO2 SNE47 P0001 $,M
ELY,2021-01-23 08:53,-114.8453,39.2950,1909.00,28.90,23.00,78.30,220.00,9.00,0.00,29.62,1001.40,10.00,M,BKN,OVC,M,M,5000.00,6500.00,M,M,M,M,M,M,M,M,M,19.66,KELY 230853Z AUTO 22009KT 10SM BKN050 OVC065 M02/M05 A2962 RMK AO2 SLP014 60002 T10171050 58006,M
VGT,2021-01-23 08:53,-115.1933,36.2111,667.00,50.00,25.00,37.39,240.00,18.00,0.00,29.71,1007.10,10.00,24.00,CLR,M,M,M,M,M,M,M,M,M,M,M,27.00,240.00,2021-01-23 08:34,50.00,KVGT 230853Z AUTO 24018G24KT 10SM CLR 10/M04 A2971 RMK AO2 PK WND 24027/0834 SLP071 60000 T01001039 53014,M
LOL,2021-01-23 08:53,-118.5701,40.0684,1192.43,30.90,28.90,92.18,0.00,0.00,T,29.75,1007.60,1.75,M,BKN,OVC,M,M,2500.00,3600.00,M,M,-SN BR,M,M,M,M,M,M,30.90,KLOL 230853Z AUTO 00000KT 1 3/4SM -SN BR BKN025 OVC036 M01/M02 A2975 RMK AO2 SNB00 SLP076 P0000 60000 T10061017 50001,M
P68,2021-01-23 08:53,-116.0056,39.6014,1993.00,30.00,26.10,85.21,250.00,10.00,0.00,29.63,1001.80,M,M,M,M,M,M,M,M,M,M,M,M,M,M,M,M,M,20.46,KP68 230853Z AUTO 25010KT M01/M03 A2963 RMK AO1 SLP018 60005 T10111033 55002,M
DRA,2021-01-23 08:53,-116.0278,36.6206,1009.00,42.00,25.00,50.42,M,5.00,0.00,29.73,1005.10,10.00,M,CLR,M,M,M,M,M,M,M,M,M,M,M,M,M,M,38.39,KDRA 230853Z AUTO VRB05KT 10SM CLR 06/M04 A2973 RMK AO2 SLP051 T00561039 53016,M
BVU,2021-01-23 08:55,-114.8611,35.9475,671.00,46.40,30.20,53.00,230.00,15.00,0.00,29.80,M,10.00,20.00,CLR,M,M,M,M,M,M,M,M,M,M,M,M,M,M,39.45,KBVU 230855Z AUTO 23015G20KT 10SM CLR 08/M01 A2980 RMK AO2,M
RNO,2021-01-23 08:55,-119.7711,39.4839,1341.00,30.00,19.90,65.66,0.00,0.00,0.00,29.79,1008.40,10.00,M,SCT,M,M,M,6500.00,M,M,M,M,M,M,M,M,M,M,30.00,KRNO 230855Z 00000KT 10SM SCT065 M01/M07 A2979 RMK AO2 SLP084 T10111067 51004,M
RTS,2021-01-23 08:55,-119.8764,39.6682,1539.00,26.60,19.40,73.89,290.00,9.00,0.00,29.79,M,10.00,M,FEW,M,M,M,6000.00,M,M,M,M,M,M,M,M,M,M,16.80,KRTS 230855Z AUTO 29009KT 10SM FEW060 M03/M07 A2979 RMK AO2,M
CXP,2021-01-23 08:55,-119.7326,39.1923,1431.00,24.80,15.80,68.18,0.00,0.00,0.00,29.79,M,10.00,M,OVC,M,M,M,7000.00,M,M,M,M,M,M,M,M,M,M,24.80,KCXP 230855Z AUTO 00000KT 10SM OVC070 M04/M09 A2979 RMK AO2,M
05U,2021-01-23 08:55,-116.0051,39.6042,1811.23,30.20,26.60,86.28,260.00,7.00,0.00,29.66,M,10.00,M,M,M,M,M,M,M,M,M,M,M,M,M,M,M,M,22.59,K05U 230855Z AUTO 26007KT 10SM M01/M03 A2966 RMK A01,M
MEV,2021-01-23 08:55,-119.7500,38.9963,1441.42,23.00,14.00,67.96,70.00,4.00,0.00,29.78,M,10.00,M,OVC,M,M,M,6500.00,M,M,M,M,M,M,M,M,M,M,16.91,KMEV 230855Z AUTO 07004KT 10SM OVC065 M05/M10 A2978 RMK AO2,M
BAM,2021-01-23 08:55,-116.8743,40.5990,1382.36,33.80,33.80,100.00,310.00,7.00,0.00,29.67,M,4.00,M,OVC,M,M,M,300.00,M,M,M,M,M,M,M,M,M,M,26.97,KBAM 230855Z AUTO 31007KT 4SM OVC003 01/01 A2967 RMK AO1,M
HTH,2021-01-23 08:55,-118.6315,38.5448,1282.89,30.20,21.20,68.83,240.00,5.00,0.00,29.77,M,10.00,M,OVC,M,M,M,6000.00,M,M,M,M,M,M,M,M,M,M,24.26,KHTH 230855Z AUTO 24005KT 10SM OVC060 M01/M06 A2977 RMK A01,M
LAS,2021-01-23 08:56,-115.1634,36.0719,663.00,48.00,27.00,43.77,220.00,14.00,0.00,29.73,1006.10,10.00,20.00,FEW,SCT,M,M,6000.00,9000.00,M,M,M,M,M,M,26.00,230.00,2021-01-23 08:22,41.79,KLAS 230856Z 22014G20KT 10SM FEW060 SCT090 09/M03 A2973 RMK AO2 PK WND 23026/0822 PRESFR SLP061 T00891028 50003,M
EKO,2021-01-23 08:56,-115.7860,40.8242,1367.00,33.00,30.90,91.51,0.00,0.00,0.00,29.64,1003.10,5.00,M,OVC,M,M,M,200.00,M,M,M,BR,M,M,M,M,M,M,33.10,KEKO 230856Z AUTO 00000KT 5SM BR OVC002 01/M01 A2964 RMK AO2 SLP031 T00061006 55004,M
WMC,2021-01-23 08:56,-117.8072,40.9019,1315.00,32.00,28.90,88.17,340.00,10.00,0.01,29.71,1005.60,10.00,M,BKN,OVC,M,M,1700.00,2200.00,M,M,M,M,M,M,M,M,M,22.97,KWMC 230856Z AUTO 34010KT 10SM BKN017 OVC022 00/M02 A2971 RMK AO2 SNE47 SLP056 P0001 60005 T00001017 55000 $,M
NFL,2021-01-23 08:56,-118.7010,39.4166,1199.00,21.90,19.00,88.40,170.00,7.00,0.00,29.75,1005.50,10.00,M,CLR,M,M,M,M,M,M,M,M,M,M,M,M,M,M,12.47,KNFL 230856Z AUTO 17007KT 10SM CLR M06/M07 A2975 RMK AO2 SLP055 T10561072 58002,M
TPH,2021-01-23 08:56,-117.0904,38.0505,1654.00,27.00,24.10,88.65,320.00,12.00,0.00,29.70,1004.90,10.00,M,CLR,M,M,M,M,M,M,M,M,M,M,M,M,M,M,15.64,KTPH 230856Z AUTO 32012KT 10SM CLR M03/M04 A2970 RMK AO2 SLP049 T10281044 53003,M
HND,2021-01-23 08:56,-115.1344,35.9729,742.79,44.00,28.90,54.85,220.00,11.00,0.00,29.80,1010.40,10.00,M,CLR,M,M,M,M,M,M,M,M,M,M,M,29.00,210.00,2021-01-23 08:01,37.76,KHND 230856Z AUTO 22011KT 10SM CLR 07/M02 A2980 RMK AO2 PK WND 21029/0801 SLP104 T00671017 53019,M
LOL,2021-01-23 09:00,-118.5701,40.0684,1192.43,30.90,28.90,92.18,0.00,0.00,T,29.75,M,2.00,M,BKN,BKN,OVC,M,2300.00,2800.00,3800.00,M,-SN BR,M,M,M,M,M,M,30.90,KLOL 230900Z AUTO 00000KT 2SM -SN BR BKN023 BKN028 OVC038 M01/M02 A2975 RMK AO2 P0000 T10061017,M
WMC,2021-01-23 09:07,-117.8072,40.9019,1315.00,32.00,28.00,84.98,340.00,12.00,0.00,29.72,M,10.00,M,SCT,BKN,OVC,M,800.00,2000.00,2700.00,M,M,M,M,M,M,M,M,22.00,KWMC 230907Z AUTO 34012KT 10SM SCT008 BKN020 OVC027 00/M02 A2972 RMK AO2 T00001022 $,M
HTH,2021-01-23 09:15,-118.6315,38.5448,1282.89,30.20,21.20,68.83,230.00,3.00,0.00,29.78,M,10.00,M,OVC,M,M,M,6000.00,M,M,M,M,M,M,M,M,M,M,26.63,KHTH 230915Z AUTO 23003KT 10SM OVC060 M01/M06 A2978 RMK A01,M
BVU,2021-01-23 09:15,-114.8611,35.9475,671.00,44.60,30.20,56.74,230.00,16.00,0.00,29.79,M,10.00,M,CLR,M,M,M,M,M,M,M,M,M,M,M,M,M,M,36.84,KBVU 230915Z AUTO 23016KT 10SM CLR 07/M01 A2979 RMK AO2,M
05U,2021-01-23 09:15,-116.0051,39.6042,1811.23,30.20,24.80,80.07,240.00,10.00,0.00,29.65,M,9.00,M,M,M,M,M,M,M,M,M,M,M,M,M,M,M,M,20.71,K05U 230915Z AUTO 24010KT 9SM M01/M04 A2965 RMK A01,M
MEV,2021-01-23 09:15,-119.7500,38.9963,1441.42,24.80,15.80,68.18,0.00,0.00,0.00,29.79,M,10.00,M,OVC,M,M,M,6000.00,M,M,M,M,M,M,M,M,M,M,24.80,KMEV 230915Z AUTO 00000KT 10SM OVC060 M04/M09 A2979 RMK AO2,M
BAM,2021-01-23 09:15,-116.8743,40.5990,1382.36,33.80,33.80,100.00,310.00,9.00,0.00,29.67,M,1.75,M,OVC,M,M,M,300.00,M,M,M,M,M,M,M,M,M,M,25.75,KBAM 230915Z AUTO 31009KT 1 3/4SM OVC003 01/01 A2967 RMK AO1,M
CXP,2021-01-23 09:15,-119.7326,39.1923,1431.00,24.80,15.80,68.18,90.00,3.00,0.00,29.79,M,10.00,M,OVC,M,M,M,7000.00,M,M,M,M,M,M,M,M,M,M,20.46,KCXP 230915Z AUTO 09003KT 10SM OVC070 M04/M09 A2979 RMK AO2,M
RTS,2021-01-23 09:15,-119.8764,39.6682,1539.00,28.40,19.40,68.61,290.00,9.00,0.00,29.79,M,10.00,M,SCT,M,M,M,6000.00,M,M,M,M,M,M,M,M,M,M,19.04,KRTS 230915Z AUTO 29009KT 10SM SCT060 M02/M07 A2979 RMK AO2,M
WMC,2021-01-23 09:16,-117.8072,40.9019,1315.00,32.00,28.00,84.98,340.00,11.00,0.00,29.72,M,10.00,M,BKN,BKN,OVC,M,800.00,2200.00,2700.00,M,M,M,M,M,M,M,M,22.47,KWMC 230916Z AUTO 34011KT 10SM BKN008 BKN022 OVC027 00/M02 A2972 RMK AO2 T00001022 $,M
LOL,2021-01-23 09:27,-118.5701,40.0684,1192.43,30.00,28.90,95.61,0.00,0.00,T,29.75,M,1.00,M,BKN,BKN,OVC,M,1500.00,2000.00,4000.00,M,-SN BR,M,M,M,M,M,M,30.00,KLOL 230927Z AUTO 00000KT 1SM -SN BR BKN015 BKN020 OVC040 M01/M02 A2975 RMK AO2 P0000 T10111017,M
LOL,2021-01-23 09:31,-118.5701,40.0684,1192.43,30.00,28.00,92.15,0.00,0.00,0.01,29.75,M,0.75,M,BKN,OVC,M,M,1300.00,2000.00,M,M,-SN BR,M,M,M,M,M,M,30.00,KLOL 230931Z AUTO 00000KT 3/4SM -SN BR BKN013 OVC020 M01/M02 A2975 RMK AO2 P0001 T10111022,M
BAM,2021-01-23 09:35,-116.8743,40.5990,1382.36,33.80,33.80,100.00,300.00,8.00,0.00,29.69,M,2.00,M,OVC,M,M,M,300.00,M,M,M,M,M,M,M,M,M,M,26.33,KBAM 230935Z AUTO 30008KT 2SM OVC003 01/01 A2969 RMK AO1,M
CXP,2021-01-23 09:35,-119.7326,39.1923,1431.00,23.00,15.80,73.51,120.00,4.00,0.00,29.79,M,10.00,M,FEW,BKN,M,M,5000.00,7000.00,M,M,M,M,M,M,M,M,M,16.91,KCXP 230935Z AUTO 12004KT 10SM FEW050 BKN070 M05/M09 A2979 RMK AO2,M
BVU,2021-01-23 09:35,-114.8611,35.9475,671.00,44.60,30.20,56.74,210.00,19.00,0.00,29.76,M,10.00,M,CLR,M,M,M,M,M,M,M,M,M,M,M,M,M,M,36.10,KBVU 230935Z AUTO 21019KT 10SM CLR 07/M01 A2976 RMK AO2,M
HTH,2021-01-23 09:35,-118.6315,38.5448,1282.89,28.40,23.00,79.92,200.00,5.00,0.00,29.78,M,10.00,M,OVC,M,M,M,6000.00,M,M,M,M,M,M,M,M,M,M,22.12,KHTH 230935Z AUTO 20005KT 10SM OVC060 M02/M05 A2978 RMK A01,M
MEV,2021-01-23 09:35,-119.7500,38.9963,1441.42,26.60,15.80,63.27,0.00,0.00,0.00,29.79,M,10.00,M,SCT,OVC,M,M,4900.00,6000.00,M,M,M,M,M,M,M,M,M,26.60,KMEV 230935Z AUTO 00000KT 10SM SCT049 OVC060 M03/M09 A2979 RMK AO2,M
05U,2021-01-23 09:35,-116.0051,39.6042,1811.23,28.40,24.80,86.18,240.00,11.00,0.00,29.66,M,10.00,M,M,M,M,M,M,M,M,M,M,M,M,M,M,M,M,17.92,K05U 230935Z AUTO 24011KT 10SM M02/M04 A2966 RMK A01,M
RTS,2021-01-23 09:35,-119.8764,39.6682,1539.00,30.20,21.20,68.83,300.00,10.00,0.00,29.79,M,10.00,M,BKN,OVC,M,M,5500.00,6500.00,M,M,M,M,M,M,M,M,M,20.71,KRTS 230935Z AUTO 30010KT 10SM BKN055 OVC065 M01/M06 A2979 RMK AO2,M
LOL,2021-01-23 09:44,-118.5701,40.0684,1192.43,30.00,28.00,92.15,0.00,0.00,0.02,29.75,M,1.00,M,VV ,M,M,M,1100.00,M,M,M,-SN BR,M,M,M,M,M,M,30.00,KLOL 230944Z AUTO 00000KT 1SM -SN BR VV011 M01/M02 A2975 RMK AO2 P0002 T10111022,M
LOL,2021-01-23 09:53,-118.5701,40.0684,1192.43,30.90,28.90,92.18,0.00,0.00,0.02,29.75,1008.00,1.25,M,FEW,OVC,M,M,400.00,1300.00,M,M,-SN BR,M,M,M,M,M,M,30.90,KLOL 230953Z AUTO 00000KT 1 1/4SM -SN BR FEW004 OVC013 M01/M02 A2975 RMK AO2 SLP080 P0002 T10061017,M
DRA,2021-01-23 09:53,-116.0278,36.6206,1009.00,40.00,25.00,54.90,240.00,7.00,0.00,29.75,1005.90,10.00,M,FEW,M,M,M,5000.00,M,M,M,M,M,M,M,M,M,M,34.41,KDRA 230953Z AUTO 24007KT 10SM FEW050 04/M04 A2975 RMK AO2 SLP059 T00441039,M
VGT,2021-01-23 09:53,-115.1933,36.2111,667.00,49.00,25.00,38.95,220.00,14.00,0.00,29.71,1007.20,10.00,23.00,CLR,M,M,M,M,M,M,M,M,M,M,M,30.00,260.00,2021-01-23 08:56,42.95,KVGT 230953Z AUTO 22014G23KT 10SM CLR 09/M04 A2971 RMK AO2 PK WND 26030/0856 SLP072 T00941039,M
P68,2021-01-23 09:53,-116.0056,39.6014,1993.00,28.90,25.00,85.14,M,3.00,0.00,29.64,1002.20,M,M,M,M,M,M,M,M,M,M,M,M,M,M,M,M,M,25.14,KP68 230953Z AUTO VRB03KT M02/M04 A2964 RMK AO1 SLP022 T10171039,M
ELY,2021-01-23 09:53,-114.8453,39.2950,1909.00,28.90,24.10,82.00,190.00,6.00,T,29.64,1002.50,7.00,M,BKN,OVC,M,M,3500.00,4600.00,M,M,-SN,M,M,M,M,M,M,21.80,KELY 230953Z AUTO 19006KT 7SM -SN BKN035 OVC046 M02/M04 A2964 RMK AO2 SNB47 SLP025 P0000 T10171044,M
RNO,2021-01-23 09:55,-119.7711,39.4839,1341.00,30.90,21.00,66.34,360.00,6.00,0.00,29.80,1008.60,10.00,M,FEW,BKN,M,M,4600.00,7000.00,M,M,M,M,M,M,M,M,M,24.21,KRNO 230955Z 36006KT 10SM FEW046 BKN070 M01/M06 A2980 RMK AO2 SLP086 T10061061,M
MEV,2021-01-23 09:55,-119.7500,38.9963,1441.42,24.80,17.60,73.70,0.00,0.00,0.00,29.79,M,10.00,M,OVC,M,M,M,6000.00,M,M,M,M,M,M,M,M,M,M,24.80,KMEV 230955Z AUTO 00000KT 10SM OVC060 M04/M08 A2979 RMK AO2,M
RTS,2021-01-23 09:55,-119.8764,39.6682,1539.00,30.20,21.20,68.83,290.00,7.00,0.00,29.79,M,10.00,M,OVC,M,M,M,5500.00,M,M,M,M,M,M,M,M,M,M,22.59,KRTS 230955Z AUTO 29007KT 10SM OVC055 M01/M06 A2979 RMK AO2,M
05U,2021-01-23 09:55,-116.0051,39.6042,1811.23,28.40,24.80,86.18,0.00,0.00,0.00,29.67,M,10.00,M,M,M,M,M,M,M,M,M,M,M,M,M,M,M,M,28.40,K05U 230955Z AUTO 00000KT 10SM M02/M04 A2967 RMK A01,M
BAM,2021-01-23 09:55,-116.8743,40.5990,1382.36,33.80,33.80,100.00,290.00,7.00,0.00,29.69,M,2.50,M,OVC,M,M,M,400.00,M,M,M,M,M,M,M,M,M,M,26.97,KBAM 230955Z AUTO 29007KT 2 1/2SM OVC004 01/01 A2969 RMK AO1,M
HTH,2021-01-23 09:55,-118.6315,38.5448,1282.89,28.40,21.20,74.08,240.00,3.00,0.00,29.79,M,10.00,M,OVC,M,M,M,6000.00,M,M,M,M,M,M,M,M,M,M,24.57,KHTH 230955Z AUTO 24003KT 10SM OVC060 M02/M06 A2979 RMK A01,M
BVU,2021-01-23 09:55,-114.8611,35.9475,671.00,44.60,28.40,52.72,M,3.00,0.00,29.79,M,10.00,16.00,FEW,SCT,M,M,2000.00,2600.00,M,M,M,M,M,M,M,M,M,43.09,KBVU 230955Z AUTO VRB03G16KT 10SM FEW020 SCT026 07/M02 A2979 RMK AO2,M
CXP,2021-01-23 09:55,-119.7326,39.1923,1431.00,24.80,15.80,68.18,0.00,0.00,0.00,29.80,M,10.00,M,FEW,M,M,M,5000.00,M,M,M,M,M,M,M,M,M,M,24.80,KCXP 230955Z AUTO 00000KT 10SM FEW050 M04/M09 A2980 RMK AO2,M
EKO,2021-01-23 09:56,-115.7860,40.8242,1367.00,33.00,32.00,95.67,0.00,0.00,0.00,29.65,1003.60,8.00,M,OVC,M,M,M,300.00,M,M,M,M,M,M,M,M,M,M,33.10,KEKO 230956Z AUTO 00000KT 8SM OVC003 01/00 A2965 RMK AO2 SLP036 T00060000,M
HND,2021-01-23 09:56,-115.1344,35.9729,742.79,43.00,28.90,57.21,200.00,22.00,0.00,29.76,1009.10,10.00,M,CLR,M,M,M,M,M,M,M,M,M,M,M,M,M,M,33.31,KHND 230956Z AUTO 20022KT 10SM CLR 06/M02 A2976 RMK AO2 PRESFR SLP091 T00611017,M
LAS,2021-01-23 09:56,-115.1634,36.0719,663.00,47.00,27.00,45.62,210.00,6.00,0.00,29.76,1007.20,10.00,M,FEW,FEW,M,M,6000.00,9000.00,M,M,M,M,M,M,28.00,230.00,2021-01-23 09:15,43.48,KLAS 230956Z 21006KT 10SM FEW060 FEW090 08/M03 A2976 RMK AO2 PK WND 23028/0915 SLP072 T00831028,M
TPH,2021-01-23 09:56,-117.0904,38.0505,1654.00,23.00,21.90,95.47,300.00,9.00,0.00,29.73,1006.60,10.00,M,CLR,M,M,M,M,M,M,M,M,M,M,M,M,M,M,12.32,KTPH 230956Z AUTO 30009KT 10SM CLR M05/M06 A2973 RMK AO2 SLP066 T10501056,M
NFL,2021-01-23 09:56,-118.7010,39.4166,1199.00,23.00,18.00,80.85,170.00,5.00,0.00,29.76,1005.80,10.00,M,BKN,M,M,M,8000.00,M,M,M,M,M,M,M,M,M,M,15.71,KNFL 230956Z AUTO 17005KT 10SM BKN080 M05/M08 A2976 RMK AO2 SLP058 T10501078,M
WMC,2021-01-23 09:56,-117.8072,40.9019,1315.00,30.90,27.00,85.26,340.00,13.00,0.00,29.73,1006.20,10.00,M,BKN,OVC,M,M,800.00,2200.00,M,M,M,M,M,M,M,M,M,20.16,KWMC 230956Z AUTO 34013KT 10SM BKN008 OVC022 M01/M03 A2973 RMK AO2 SLP062 T10061028 $,M
LOL,2021-01-23 10:08,-118.5701,40.0684,1192.43,30.00,28.90,95.61,190.00,3.00,T,29.75,M,2.00,M,SCT,OVC,M,M,300.00,1600.00,M,M,-SN BR,M,M,M,M,M,M,26.40,KLOL 231008Z AUTO 19003KT 2SM -SN BR SCT003 OVC016 M01/M02 A2975 RMK AO2 P0000 T10111017,M
WMC,2021-01-23 10:08,-117.8072,40.9019,1315.00,30.90,27.00,85.26,330.00,12.00,0.00,29.73,M,10.00,M,SCT,OVC,M,M,800.00,2200.00,M,M,M,M,M,M,M,M,M,20.60,KWMC 231008Z AUTO 33012KT 10SM SCT008 OVC022 M01/M03 A2973 RMK AO2 T10061028 $,M
ELY,2021-01-23 10:13,-114.8453,39.2950,1909.00,28.00,24.10,85.08,170.00,8.00,T,29.64,M,2.00,M,SCT,OVC,M,M,2800.00,3300.00,M,M,-SN BR,M,M,M,M,M,M,19.19,KELY 231013Z AUTO 17008KT 2SM -SN BR SCT028 OVC033 M02/M04 A2964 RMK AO2 P0000 T10221044,M
RTS,2021-01-23 10:15,-119.8764,39.6682,1539.00,30.20,21.20,68.83,290.00,5.00,0.00,29.80,M,10.00,M,FEW,BKN,OVC,M,2100.00,2500.00,5000.00,M,M,M,M,M,M,M,M,24.26,KRTS 231015Z AUTO 29005KT 10SM FEW021 BKN025 OVC050 M01/M06 A2980 RMK AO2,M
CXP,2021-01-23 10:15,-119.7326,39.1923,1431.00,24.80,15.80,68.18,0.00,0.00,0.00,29.80,M,10.00,M,CLR,M,M,M,M,M,M,M,M,M,M,M,M,M,M,24.80,KCXP 231015Z AUTO 00000KT 10SM CLR M04/M09 A2980 RMK AO2,M
BVU,2021-01-23 10:15,-114.8611,35.9475,671.00,44.60,28.40,52.72,230.00,7.00,0.00,29.80,M,10.00,M,SCT,BKN,BKN,M,2100.00,2700.00,3400.00,M,M,M,M,M,M,M,M,40.14,KBVU 231015Z AUTO 23007KT 10SM SCT021 BKN027 BKN034 07/M02 A2980 RMK AO2,M
05U,2021-01-23 10:15,-116.0051,39.6042,1811.23,28.40,24.80,86.18,0.00,0.00,0.00,29.67,M,10.00,M,M,M,M,M,M,M,M,M,M,M,M,M,M,M,M,28.40,K05U 231015Z AUTO 00000KT 10SM M02/M04 A2967 RMK A01,M
MEV,2021-01-23 10:15,-119.7500,38.9963,1441.42,24.80,17.60,73.70,200.00,5.00,0.00,29.80,M,10.00,M,BKN,OVC,M,M,6000.00,7000.00,M,M,M,M,M,M,M,M,M,17.84,KMEV 231015Z AUTO 20005KT 10SM BKN060 OVC070 M04/M08 A2980 RMK AO2,M
BAM,2021-01-23 10:15,-116.8743,40.5990,1382.36,33.80,33.80,100.00,290.00,5.00,0.00,29.69,M,4.00,M,OVC,M,M,M,400.00,M,M,M,M,M,M,M,M,M,M,28.53,KBAM 231015Z AUTO 29005KT 4SM OVC004 01/01 A2969 RMK AO1,M
HTH,2021-01-23 10:15,-118.6315,38.5448,1282.89,26.60,21.20,79.77,0.00,0.00,0.00,29.79,M,10.00,M,FEW,OVC,M,M,4900.00,6000.00,M,M,M,M,M,M,M,M,M,26.60,KHTH 231015Z AUTO 00000KT 10SM FEW049 OVC060 M03/M06 A2979 RMK A01,M
LOL,2021-01-23 10:18,-118.5701,40.0684,1192.43,30.00,28.90,95.61,180.00,4.00,0.01,29.75,M,1.75,M,BKN,BKN,OVC,M,300.00,1200.00,1900.00,M,-SN BR,M,M,M,M,M,M,25.08,KLOL 231018Z AUTO 18004KT 1 3/4SM -SN BR BKN003 BKN012 OVC019 M01/M02 A2975 RMK AO2 P0001 T10111017,M
ELY,2021-01-23 10:19,-114.8453,39.2950,1909.00,28.00,25.00,88.33,190.00,7.00,T,29.64,M,1.75,M,OVC,M,M,M,2800.00,M,M,M,-SN BR,M,M,M,M,M,M,19.90,KELY 231019Z AUTO 19007KT 1 3/4SM -SN BR OVC028 M02/M04 A2964 RMK AO2 P0000 T10221039,M
LOL,2021-01-23 10:33,-118.5701,40.0684,1192.43,30.90,30.00,96.41,160.00,4.00,0.01,29.75,M,2.00,M,SCT,BKN,OVC,M,300.00,1200.00,2200.00,M,-SN BR,M,M,M,M,M,M,26.14,KLOL 231033Z AUTO 16004KT 2SM -SN BR SCT003 BKN012 OVC022 M01/M01 A2975 RMK AO2 P0001 T10061011,M
ELY,2021-01-23 10:33,-114.8453,39.2950,1909.00,28.00,25.00,88.33,230.00,5.00,T,29.64,M,1.25,M,SCT,OVC,M,M,1700.00,2600.00,M,M,-SN BR,M,M,M,M,M,M,21.64,KELY 231033Z AUTO 23005KT 1 1/4SM -SN BR SCT017 OVC026 M02/M04 A2964 RMK AO2 P0000 T10221039,M
EKO,2021-01-23 10:34,-115.7860,40.8242,1367.00,33.00,32.00,95.67,0.00,0.00,0.00,29.65,M,6.00,M,FEW,OVC,M,M,200.00,900.00,M,M,BR,M,M,M,M,M,M,33.10,KEKO 231034Z AUTO 00000KT 6SM BR FEW002 OVC009 01/00 A2965 RMK AO2 T00060000,M
CXP,2021-01-23 10:35,-119.7326,39.1923,1431.00,24.80,15.80,68.18,0.00,0.00,0.00,29.81,M,10.00,M,FEW,M,M,M,11000.00,M,M,M,M,M,M,M,M,M,M,24.80,KCXP 231035Z AUTO 00000KT 10SM FEW110 M04/M09 A2981 RMK AO2,M
RTS,2021-01-23 10:35,-119.8764,39.6682,1539.00,30.20,21.20,68.83,290.00,8.00,0.00,29.80,M,10.00,M,SCT,SCT,OVC,M,2300.00,2900.00,3700.00,M,M,M,M,M,M,M,M,21.90,KRTS 231035Z AUTO 29008KT 10SM SCT023 SCT029 OVC037 M01/M06 A2980 RMK AO2,M
MEV,2021-01-23 10:35,-119.7500,38.9963,1441.42,24.80,17.60,73.70,210.00,3.00,0.00,29.80,M,10.00,M,OVC,M,M,M,6500.00,M,M,M,M,M,M,M,M,M,M,20.46,KMEV 231035Z AUTO 21003KT 10SM OVC065 M04/M08 A2980 RMK AO2,M
BAM,2021-01-23 10:35,-116.8743,40.5990,1382.36,33.80,33.80,100.00,310.00,7.00,0.00,29.69,M,3.00,M,OVC,M,M,M,400.00,M,M,M,M,M,M,M,M,M,M,26.97,KBAM 231035Z AUTO 31007KT 3SM OVC004 01/01 A2969 RMK AO1,M
BVU,2021-01-23 10:35,-114.8611,35.9475,671.00,42.80,28.40,56.48,60.00,3.00,0.00,29.81,M,10.00,M,FEW,SCT,SCT,M,1900.00,2700.00,3300.00,M,M,M,M,M,M,M,M,41.03,KBVU 231035Z AUTO 06003KT 10SM FEW019 SCT027 SCT033 06/M02 A2981 RMK AO2,M
HTH,2021-01-23 10:35,-118.6315,38.5448,1282.89,26.60,21.20,79.77,240.00,4.00,0.00,29.79,M,10.00,M,BKN,OVC,M,M,5000.00,6000.00,M,M,M,M,M,M,M,M,M,21.11,KHTH 231035Z AUTO 24004KT 10SM BKN050 OVC060 M03/M06 A2979 RMK A01,M
05U,2021-01-23 10:35,-116.0051,39.6042,1811.23,28.40,24.80,86.18,M,4.00,0.00,29.67,M,5.00,M,M,M,M,M,M,M,M,M,HZ,M,M,M,M,M,M,23.22,K05U 231035Z AUTO VRB04KT 5SM HZ M02/M04 A2967 RMK A01,M
ELY,2021-01-23 10:43,-114.8453,39.2950,1909.00,28.00,25.00,88.33,220.00,7.00,0.01,29.64,M,2.00,M,SCT,OVC,M,M,1700.00,2400.00,M,M,-SN BR,M,M,M,M,M,M,19.90,KELY 231043Z AUTO 22007KT 2SM -SN BR SCT017 OVC024 M02/M04 A2964 RMK AO2 P0001 T10221039,M
LOL,2021-01-23 10:46,-118.5701,40.0684,1192.43,30.90,30.90,100.00,0.00,0.00,0.01,29.75,M,1.50,M,SCT,BKN,OVC,M,200.00,1000.00,1800.00,M,-SN BR,M,M,M,M,M,M,30.90,KLOL 231046Z AUTO 00000KT 1 1/2SM -SN BR SCT002 BKN010 OVC018 M01/M01 A2975 RMK AO2 P0001 T10061006,M
ELY,2021-01-23 10:51,-114.8453,39.2950,1909.00,28.40,24.80,86.18,210.00,9.00,0.01,29.64,M,6.00,M,FEW,OVC,M,M,1800.00,2400.00,M,M,-SN BR,M,M,M,M,M,M,19.04,KELY 231051Z AUTO 21009KT 6SM -SN BR FEW018 OVC024 M02/M04 A2964 RMK AO2 P0001,M
ELY,2021-01-23 10:53,-114.8453,39.2950,1909.00,28.00,25.00,88.33,210.00,8.00,0.01,29.64,1003.00,7.00,M,SCT,OVC,M,M,1800.00,2400.00,M,M,-SN,M,M,M,M,M,M,19.19,KELY 231053Z AUTO 21008KT 7SM -SN SCT018 OVC024 M02/M04 A2964 RMK AO2 SLP030 P0001 T10221039,M
LOL,2021-01-23 10:53,-118.5701,40.0684,1192.43,30.90,30.00,96.41,0.00,0.00,0.01,29.75,1008.30,2.00,M,BKN,BKN,OVC,M,400.00,800.00,1800.00,M,-SN BR,M,M,M,M,M,M,30.90,KLOL 231053Z AUTO 00000KT 2SM -SN BR BKN004 BKN008 OVC018 M01/M01 A2975 RMK AO2 SLP083 P0001 T10061011,M
P68,2021-01-23 10:53,-116.0056,39.6014,1993.00,28.00,24.10,85.08,250.00,12.00,0.01,29.65,1002.90,M,18.00,M,M,M,M,M,M,M,M,M,M,M,M,M,M,M,16.91,KP68 231053Z AUTO 25012G18KT M02/M04 A2965 RMK AO1 SLP029 P0001 T10221044,M
DRA,2021-01-23 10:53,-116.0278,36.6206,1009.00,37.00,25.00,61.50,0.00,0.00,0.00,29.76,1006.20,10.00,M,CLR,M,M,M,M,M,M,M,M,M,M,M,M,M,M,37.00,KDRA 231053Z AUTO 00000KT 10SM CLR 03/M04 A2976 RMK AO2 SLP062 T00281039,M
VGT,2021-01-23 10:53,-115.1933,36.2111,667.00,48.00,24.10,38.80,270.00,8.00,0.00,29.73,1007.80,10.00,M,CLR,M,M,M,M,M,M,M,M,M,M,M,M,M,M,43.82,KVGT 231053Z AUTO 27008KT 230V290 10SM CLR 09/M04 A2973 RMK AO2 SLP078 T00891044,M
EKO,2021-01-23 10:54,-115.7860,40.8242,1367.00,33.80,30.20,86.49,0.00,0.00,M,29.65,M,4.00,M,OVC,M,M,M,1000.00,M,M,M,-SN BR,M,M,M,M,M,M,33.80,SPECI KEKO 231054Z 00000KT 4SM -SN BR OVC010 01/M01 A2965 RMK AO2 SNB47 CIG 007V013 P0000 FIBI,M
RTS,2021-01-23 10:55,-119.8764,39.6682,1539.00,30.20,21.20,68.83,310.00,8.00,0.00,29.80,M,10.00,M,SCT,BKN,OVC,M,2000.00,2600.00,3600.00,M,M,M,M,M,M,M,M,21.90,KRTS 231055Z AUTO 31008KT 10SM SCT020 BKN026 OVC036 M01/M06 A2980 RMK AO2,M
CXP,2021-01-23 10:55,-119.7326,39.1923,1431.00,24.80,17.60,73.70,0.00,0.00,0.00,29.81,M,10.00,M,SCT,SCT,SCT,M,6500.00,7500.00,11000.00,M,M,M,M,M,M,M,M,24.80,KCXP 231055Z AUTO 00000KT 10SM SCT065 SCT075 SCT110 M04/M08 A2981 RMK AO2,M
BVU,2021-01-23 10:55,-114.8611,35.9475,671.00,44.60,26.60,48.96,190.00,7.00,0.00,29.81,M,10.00,M,FEW,FEW,SCT,M,1800.00,2900.00,5000.00,M,M,M,M,M,M,M,M,40.14,KBVU 231055Z AUTO 19007KT 10SM FEW018 FEW029 SCT050 07/M03 A2981 RMK AO2,M
HTH,2021-01-23 10:55,-118.6315,38.5448,1282.89,28.40,21.20,74.08,210.00,3.00,0.00,29.80,M,10.00,M,SCT,BKN,OVC,M,5000.00,6000.00,7000.00,M,M,M,M,M,M,M,M,24.57,KHTH 231055Z AUTO 21003KT 10SM SCT050 BKN060 OVC070 M02/M06 A2980 RMK A01,M
05U,2021-01-23 10:55,-116.0051,39.6042,1811.23,28.40,24.80,86.18,240.00,11.00,0.00,29.67,M,2.00,M,M,M,M,M,M,M,M,M,HZ,M,M,M,M,M,M,17.92,K05U 231055Z AUTO 24011KT 2SM HZ M02/M04 A2967 RMK A01,M
MEV,2021-01-23 10:55,-119.7500,38.9963,1441.42,23.00,15.80,73.51,90.00,6.00,0.00,29.80,M,10.00,M,BKN,M,M,M,6500.00,M,M,M,M,M,M,M,M,M,M,14.69,KMEV 231055Z AUTO 09006KT 10SM BKN065 M05/M09 A2980 RMK AO2,M
BAM,2021-01-23 10:55,-116.8743,40.5990,1382.36,33.80,33.80,100.00,320.00,9.00,0.00,29.69,M,3.00,M,OVC,M,M,M,400.00,M,M,M,M,M,M,M,M,M,M,25.75,KBAM 231055Z AUTO 32009KT 3SM OVC004 01/01 A2969 RMK AO1,M
RNO,2021-01-23 10:55,-119.7711,39.4839,1341.00,28.90,19.90,68.67,0.00,0.00,0.00,29.80,1009.10,10.00,M,FEW,BKN,M,M,4000.00,6000.00,M,M,M,M,M,M,M,M,M,28.90,KRNO 231055Z 00000KT 10SM FEW040 BKN060 M02/M07 A2980 RMK AO2 SLP091 T10171067,M
HND,2021-01-23 10:56,-115.1344,35.9729,742.79,43.00,28.00,55.14,M,4.00,0.00,29.81,1011.00,10.00,M,CLR,M,M,M,M,M,M,M,M,M,M,M,M,M,M,40.27,KHND 231056Z AUTO VRB04KT 10SM CLR 06/M02 A2981 RMK AO2 SLP110 T00611022,M
LAS,2021-01-23 10:56,-115.1634,36.0719,663.00,46.00,26.10,45.47,200.00,7.00,0.00,29.77,1007.40,10.00,M,FEW,FEW,M,M,9000.00,15000.00,M,M,M,M,M,M,M,M,M,41.84,KLAS 231056Z 20007KT 10SM FEW090 FEW150 08/M03 A2977 RMK AO2 SLP074 T00781033,M
EKO,2021-01-23 10:56,-115.7860,40.8242,1367.00,33.00,30.90,91.51,0.00,0.00,T,29.65,1003.50,4.00,M,OVC,M,M,M,1000.00,M,M,M,-SN BR,M,M,M,M,M,M,33.10,KEKO 231056Z AUTO 00000KT 4SM -SN BR OVC010 01/M01 A2965 RMK AO2 SNB47 CIG 007V013 SLP035 P0000 T00061006,M
WMC,2021-01-23 10:56,-117.8072,40.9019,1315.00,30.90,27.00,85.26,350.00,11.00,0.00,29.74,1006.60,10.00,20.00,FEW,OVC,M,M,1200.00,2600.00,M,M,M,M,M,M,M,M,M,21.08,KWMC 231056Z AUTO 35011G20KT 10SM FEW012 OVC026 M01/M03 A2974 RMK AO2 SLP066 T10061028 $,M
NFL,2021-01-23 10:56,-118.7010,39.4166,1199.00,27.00,19.90,74.25,170.00,4.00,0.00,29.77,1006.10,10.00,M,BKN,OVC,M,M,6500.00,8500.00,M,M,M,M,M,M,M,M,M,21.58,KNFL 231056Z AUTO 17004KT 10SM BKN065 OVC085 M03/M07 A2977 RMK AO2 SLP061 T10281067,M
TPH,2021-01-23 10:56,-117.0904,38.0505,1654.00,24.10,21.90,91.17,310.00,12.00,0.00,29.74,1006.90,10.00,M,CLR,M,M,M,M,M,M,M,M,M,M,M,M,M,M,11.95,KTPH 231056Z AUTO 31012KT 10SM CLR M04/M06 A2974 RMK AO2 SLP069 T10441056,M
EKO,2021-01-23 11:06,-115.7860,40.8242,1367.00,33.00,30.90,91.51,0.00,0.00,T,29.65,M,5.00,M,BKN,OVC,M,M,900.00,1600.00,M,M,BR,M,M,M,M,M,M,33.10,KEKO 231106Z AUTO 00000KT 5SM BR BKN009 OVC016 01/M01 A2965 RMK AO2 SNE1058 CIG 008V013 P0000 T00061006,M
LOL,2021-01-23 11:10,-118.5701,40.0684,1192.43,30.90,30.00,96.41,0.00,0.00,0.01,29.75,M,1.25,M,BKN,OVC,M,M,400.00,3700.00,M,M,-SN BR,M,M,M,M,M,M,30.90,KLOL 231110Z AUTO 00000KT 1 1/4SM -SN BR BKN004 OVC037 M01/M01 A2975 RMK AO2 CIG 003V007 P0001 T10061011,M
BVU,2021-01-23 11:15,-114.8611,35.9475,671.00,44.60,28.40,52.72,220.00,12.00,0.00,29.80,M,10.00,M,CLR,M,M,M,M,M,M,M,M,M,M,M,M,M,M,38.04,KBVU 231115Z AUTO 22012KT 10SM CLR 07/M02 A2980 RMK AO2,M
MEV,2021-01-23 11:15,-119.7500,38.9963,1441.42,21.20,14.00,73.32,120.00,6.00,0.00,29.80,M,10.00,M,FEW,FEW,M,M,6500.00,12000.00,M,M,M,M,M,M,M,M,M,12.52,KMEV 231115Z AUTO 12006KT 10SM FEW065 FEW120 M06/M10 A2980 RMK AO2,M
RTS,2021-01-23 11:15,-119.8764,39.6682,1539.00,30.20,21.20,68.83,310.00,10.00,0.00,29.81,M,10.00,M,FEW,SCT,OVC,M,2200.00,3000.00,3500.00,M,M,M,M,M,M,M,M,20.71,KRTS 231115Z AUTO 31010KT 10SM FEW022 SCT030 OVC035 M01/M06 A2981 RMK AO2,M
05U,2021-01-23 11:15,-116.0051,39.6042,1811.23,28.40,23.00,79.92,230.00,7.00,0.00,29.67,M,2.00,15.00,M,M,M,M,M,M,M,M,HZ,M,M,M,M,M,M,20.39,K05U 231115Z AUTO 23007G15KT 2SM HZ M02/M05 A2967 RMK A01,M
HTH,2021-01-23 11:15,-118.6315,38.5448,1282.89,26.60,21.20,79.77,190.00,4.00,0.00,29.79,M,10.00,M,OVC,M,M,M,6000.00,M,M,M,M,M,M,M,M,M,M,21.11,KHTH 231115Z AUTO 19004KT 10SM OVC060 M03/M06 A2979 RMK A01,M
CXP,2021-01-23 11:15,-119.7326,39.1923,1431.00,26.60,17.60,68.40,0.00,0.00,0.00,29.81,M,10.00,M,SCT,BKN,BKN,M,6000.00,7500.00,8500.00,M,M,M,M,M,M,M,M,26.60,KCXP 231115Z AUTO 00000KT 10SM SCT060 BKN075 BKN085 M03/M08 A2981 RMK AO2,M
BAM,2021-01-23 11:15,-116.8743,40.5990,1382.36,32.00,32.00,100.00,330.00,9.00,0.00,29.69,M,1.25,M,OVC,M,M,M,400.00,M,M,M,M,M,M,M,M,M,M,23.51,KBAM 231115Z AUTO 33009KT 1 1/4SM OVC004 00/00 A2969 RMK AO1,M
LOL,2021-01-23 11:19,-118.5701,40.0684,1192.43,30.90,30.00,96.41,0.00,0.00,0.01,29.76,M,2.50,M,FEW,BKN,OVC,M,400.00,700.00,3700.00,M,-SN BR,M,M,M,M,M,M,30.90,KLOL 231119Z AUTO 00000KT 2 1/2SM -SN BR FEW004 BKN007 OVC037 M01/M01 A2976 RMK AO2 CIG 005V010 P0001 T10061011,M
EKO,2021-01-23 11:24,-115.7860,40.8242,1367.00,33.00,30.90,91.51,0.00,0.00,T,29.66,M,7.00,M,BKN,OVC,M,M,1300.00,2000.00,M,M,M,M,M,M,M,M,M,33.10,KEKO 231124Z AUTO 00000KT 7SM BKN013 OVC020 01/M01 A2966 RMK AO2 SNE1058 P0000 T00061006,M
LOL,2021-01-23 11:30,-118.5701,40.0684,1192.43,30.90,30.90,100.00,0.00,0.00,0.01,29.75,M,3.00,M,SCT,BKN,OVC,M,400.00,1700.00,3700.00,M,-SN BR,M,M,M,M,M,M,30.90,KLOL 231130Z AUTO 00000KT 3SM -SN BR SCT004 BKN017 OVC037 M01/M01 A2975 RMK AO2 P0001 T10061006,M
CXP,2021-01-23 11:35,-119.7326,39.1923,1431.00,26.60,17.60,68.40,0.00,0.00,0.00,29.81,M,10.00,M,OVC,M,M,M,6000.00,M,M,M,M,M,M,M,M,M,M,26.60,KCXP 231135Z AUTO 00000KT 10SM OVC060 M03/M08 A2981 RMK AO2,M
HTH,2021-01-23 11:35,-118.6315,38.5448,1282.89,24.80,19.40,79.62,160.00,5.00,0.00,29.79,M,9.00,M,SCT,M,M,M,6000.00,M,M,M,M,M,M,M,M,M,M,17.84,KHTH 231135Z AUTO 16005KT 9SM SCT060 M04/M07 A2979 RMK A01,M
05U,2021-01-23 11:35,-116.0051,39.6042,1811.23,28.40,23.00,79.92,260.00,5.00,0.00,29.68,M,4.00,13.00,M,M,M,M,M,M,M,M,HZ,M,M,M,M,M,M,22.12,K05U 231135Z AUTO 26005G13KT 4SM HZ M02/M05 A2968 RMK A01,M
MEV,2021-01-23 11:35,-119.7500,38.9963,1441.42,21.20,14.00,73.32,80.00,4.00,0.00,29.79,M,10.00,M,FEW,BKN,BKN,M,8000.00,10000.00,12000.00,M,M,M,M,M,M,M,M,14.81,KMEV 231135Z AUTO 08004KT 10SM FEW080 BKN100 BKN120 M06/M10 A2979 RMK AO2,M
BVU,2021-01-23 11:35,-114.8611,35.9475,671.00,42.80,28.40,56.48,230.00,4.00,0.00,29.82,M,10.00,M,CLR,M,M,M,M,M,M,M,M,M,M,M,M,M,M,40.03,KBVU 231135Z AUTO 23004KT 10SM CLR 06/M02 A2982 RMK AO2,M
RTS,2021-01-23 11:35,-119.8764,39.6682,1539.00,30.20,21.20,68.83,300.00,10.00,0.00,29.81,M,10.00,M,FEW,SCT,OVC,M,1900.00,2600.00,3500.00,M,M,M,M,M,M,M,M,20.71,KRTS 231135Z AUTO 30010KT 10SM FEW019 SCT026 OVC035 M01/M06 A2981 RMK AO2,M
BAM,2021-01-23 11:35,-116.8743,40.5990,1382.36,32.00,32.00,100.00,320.00,7.00,0.00,29.70,M,0.50,M,OVC,M,M,M,400.00,M,M,M,M,M,M,M,M,M,M,24.78,KBAM 231135Z AUTO 32007KT 1/2SM OVC004 00/00 A2970 RMK AO1,M
LOL,2021-01-23 11:38,-118.5701,40.0684,1192.43,30.90,30.90,100.00,0.00,0.00,0.01,29.76,M,3.00,M,FEW,SCT,OVC,M,400.00,2500.00,3700.00,M,-SN BR,M,M,M,M,M,M,30.90,KLOL 231138Z AUTO 00000KT 3SM -SN BR FEW004 SCT025 OVC037 M01/M01 A2976 RMK AO2 P0001 T10061006,M
EKO,2021-01-23 11:40,-115.7860,40.8242,1367.00,32.00,30.00,92.22,0.00,0.00,T,29.66,M,4.00,M,SCT,BKN,OVC,M,500.00,1300.00,2000.00,M,BR,0.01,M,M,M,M,M,32.00,KEKO 231140Z AUTO 00000KT 4SM BR SCT005 BKN013 OVC020 00/M01 A2966 RMK AO2 SNE1058 P0000 I1001 T00001011,M
RNO,2021-01-23 11:48,-119.7711,39.4839,1341.00,30.90,25.00,78.48,350.00,8.00,T,29.81,M,2.50,M,OVC,M,M,M,3000.00,M,M,M,-SN,M,M,M,M,M,M,22.76,KRNO 231148Z 35008KT 2 1/2SM -SN OVC030 M01/M04 A2981 RMK AO2 VIS 1 1/4V5 SNB43 P0000 T10061039,M
RNO,2021-01-23 11:52,-119.7711,39.4839,1341.00,30.20,26.60,86.28,350.00,6.00,T,29.81,M,1.75,M,OVC,M,M,M,2600.00,M,M,M,-SN,M,M,M,M,M,M,23.36,KRNO 231152Z 35006KT 1 3/4SM -SN OVC026 M01/M03 A2981 RMK AO2 TWR VIS 2 1/2 SNB43 P0000,M
VGT,2021-01-23 11:53,-115.1933,36.2111,667.00,47.00,25.00,41.99,200.00,5.00,0.00,29.74,1008.30,10.00,M,CLR,M,M,M,M,M,M,M,M,M,M,M,M,M,M,44.09,KVGT 231153Z AUTO 20005KT 10SM CLR 08/M04 A2974 RMK AO2 SLP083 60000 T00831039 10122 20083 53009,M
P68,2021-01-23 11:53,-116.0056,39.6014,1993.00,28.00,23.00,81.25,260.00,6.00,0.00,29.66,1003.10,M,M,M,M,M,M,M,M,M,M,M,M,M,M,M,M,M,20.71,KP68 231153Z AUTO 26006KT M02/M05 A2966 RMK AO1 SLP031 60006 70006 T10221050 10006 21022 51008,M
ELY,2021-01-23 11:53,-114.8453,39.2950,1909.00,27.00,23.00,84.66,190.00,4.00,T,29.64,1002.90,10.00,M,SCT,SCT,BKN,M,2200.00,3700.00,4800.00,M,M,M,M,M,M,M,M,21.58,KELY 231153Z AUTO 19004KT 10SM SCT022 SCT037 BKN048 M03/M05 A2964 RMK AO2 SNE11 SLP029 P0000 60003 70003 T10281050 10000 21033 50001,M
LOL,2021-01-23 11:53,-118.5701,40.0684,1192.43,32.00,30.90,95.65,170.00,3.00,0.01,29.76,1008.60,2.50,M,FEW,OVC,M,M,2500.00,3700.00,M,M,-SN BR,M,M,M,M,M,M,28.69,KLOL 231153Z AUTO 17003KT 2 1/2SM -SN BR FEW025 OVC037 00/M01 A2976 RMK AO2 SLP086 P0001 60004 70004 T00001006 10011 21011 53004,M
DRA,2021-01-23 11:53,-116.0278,36.6206,1009.00,38.00,25.00,59.36,340.00,3.00,0.00,29.77,1006.60,10.00,M,CLR,M,M,M,M,M,M,M,M,M,M,M,M,M,M,35.43,KDRA 231153Z AUTO 34003KT 10SM CLR 03/M04 A2977 RMK AO2 SLP066 T00331039 10067 20028 51011,M
EKO,2021-01-23 11:54,-115.7860,40.8242,1367.00,32.00,28.40,86.39,10.00,4.08,M,29.66,M,10.00,M,FEW,SCT,OVC,M,400.00,898.00,1499.00,M,M,M,M,M,M,M,M,27.33,SPECI KEKO 231154Z 01004KT 10SM FEW004 SCT009 OVC015 00/M02 A2966 RMK AO2 SNE1058 P0000 I1001 FIBI,M
MEV,2021-01-23 11:55,-119.7500,38.9963,1441.42,23.00,15.80,73.51,0.00,0.00,0.00,29.80,M,10.00,M,SCT,BKN,OVC,M,6000.00,8000.00,11000.00,M,M,M,M,M,M,M,M,23.00,KMEV 231155Z AUTO 00000KT 10SM SCT060 BKN080 OVC110 M05/M09 A2980 RMK AO2,M
CXP,2021-01-23 11:55,-119.7326,39.1923,1431.00,26.60,17.60,68.40,0.00,0.00,0.00,29.81,M,10.00,M,SCT,BKN,OVC,M,3700.00,4500.00,6000.00,M,M,M,M,M,M,M,M,26.60,KCXP 231155Z AUTO 00000KT 10SM SCT037 BKN045 OVC060 M03/M08 A2981 RMK AO2,M
RNO,2021-01-23 11:55,-119.7711,39.4839,1341.00,30.90,27.00,85.26,360.00,5.00,T,29.81,1009.20,1.50,M,OVC,M,M,M,2400.00,M,M,M,-SN BR,M,M,M,M,M,M,25.09,KRNO 231155Z 36005KT 1 1/2SM -SN BR OVC024 M01/M03 A2981 RMK AO2 TWR VIS 2 1/2 SNB43 SLP092 P0000 60000 T10061028 10006 21022 51007,M
BVU,2021-01-23 11:55,-114.8611,35.9475,671.00,42.80,28.40,56.48,240.00,6.00,0.00,29.81,M,10.00,M,CLR,M,M,M,M,M,M,M,M,M,M,M,M,M,M,38.54,KBVU 231155Z AUTO 24006KT 10SM CLR 06/M02 A2981 RMK AO2,M
HTH,2021-01-23 11:55,-118.6315,38.5448,1282.89,24.80,17.60,73.70,160.00,5.00,0.00,29.79,M,10.00,M,CLR,M,M,M,M,M,M,M,M,M,M,M,M,M,M,17.84,KHTH 231155Z AUTO 16005KT 10SM CLR M04/M08 A2979 RMK A01,M
RTS,2021-01-23 11:55,-119.8764,39.6682,1539.00,30.20,23.00,74.26,300.00,9.00,0.00,29.80,M,6.00,M,FEW,SCT,OVC,M,1400.00,2200.00,2700.00,M,-SN,M,M,M,M,M,M,21.28,KRTS 231155Z AUTO 30009KT 6SM -SN FEW014 SCT022 OVC027 M01/M05 A2980 RMK AO2,M
05U,2021-01-23 11:55,-116.0051,39.6042,1811.23,28.40,23.00,79.92,M,4.00,0.00,29.68,M,6.00,M,M,M,M,M,M,M,M,M,HZ,M,M,M,M,M,M,23.22,K05U 231155Z AUTO VRB04KT 6SM HZ M02/M05 A2968 RMK A01,M
BAM,2021-01-23 11:55,-116.8743,40.5990,1382.36,32.00,32.00,100.00,320.00,5.00,0.00,29.71,M,1.00,M,OVC,M,M,M,400.00,M,M,M,M,M,M,M,M,M,M,26.40,KBAM 231155Z AUTO 32005KT 1SM OVC004 00/00 A2971 RMK AO1,M
HND,2021-01-23 11:56,-115.1344,35.9729,742.79,44.00,27.00,50.73,200.00,8.00,0.00,29.81,1011.10,10.00,M,CLR,M,M,M,M,M,M,M,M,M,M,M,M,M,M,39.02,KHND 231156Z AUTO 20008KT 10SM CLR 07/M03 A2981 RMK AO2 SLP111 70008 T00671028 10089 20056 53005,M
TPH,2021-01-23 11:56,-117.0904,38.0505,1654.00,24.10,21.00,87.76,340.00,8.00,0.00,29.74,1006.80,10.00,M,CLR,M,M,M,M,M,M,M,M,M,M,M,M,M,M,14.38,KTPH 231156Z AUTO 34008KT 10SM CLR M04/M06 A2974 RMK AO2 SLP068 70021 T10441061 11011 21050 50012,M
LAS,2021-01-23 11:56,-115.1634,36.0719,663.00,46.00,26.10,45.47,210.00,7.00,0.00,29.78,1007.80,10.00,M,SCT,M,M,M,15000.00,M,M,M,M,M,M,M,M,M,M,41.84,KLAS 231156Z 21007KT 10SM SCT150 08/M03 A2978 RMK AO2 SLP078 70001 T00781033 10106 20078 51015,M
EKO,2021-01-23 11:56,-115.7860,40.8242,1367.00,32.00,28.00,84.98,360.00,5.00,T,29.66,1004.50,10.00,M,FEW,SCT,OVC,M,400.00,900.00,1500.00,M,M,0.01,M,0.01,M,M,M,26.40,KEKO 231156Z AUTO 36005KT 10SM FEW004 SCT009 OVC015 00/M02 A2966 RMK AO2 SNE1058 SLP045 P0000 60000 70020 I1001 I6001 T00001022 10006 21006 53003,M
WMC,2021-01-23 11:56,-117.8072,40.9019,1315.00,32.00,28.00,84.98,350.00,14.00,0.00,29.74,1006.60,10.00,19.00,OVC,M,M,M,2200.00,M,M,M,M,M,M,M,M,M,M,21.16,KWMC 231156Z AUTO 35014G19KT 10SM OVC022 00/M02 A2974 RMK AO2 SLP066 60005 70028 T00001022 10006 21006 51008 $,M
NFL,2021-01-23 11:56,-118.7010,39.4166,1199.00,28.00,21.90,77.57,0.00,0.00,T,29.78,1006.40,2.50,M,OVC,M,M,M,3300.00,M,M,M,-SN,M,M,M,M,M,M,28.00,KNFL 231156Z AUTO 00000KT 2 1/2SM -SN OVC033 M02/M06 A2978 RMK AO2 SNB47 SLP064 P0000 60000 T10221056 11006 21061 52009,M
NFL,2021-01-23 12:02,-118.7010,39.4166,1199.00,28.00,21.90,77.57,0.00,0.00,T,29.78,M,1.75,M,OVC,M,M,M,2600.00,M,M,M,-SN,M,M,M,M,M,M,28.00,KNFL 231202Z AUTO 00000KT 1 3/4SM -SN OVC026 M02/M06 A2978 RMK AO2 P0000 T10221056,M
NFL,2021-01-23 12:14,-118.7010,39.4166,1199.00,27.00,24.10,88.65,0.00,0.00,0.02,29.79,M,0.50,M,VV ,M,M,M,1400.00,M,M,M,SN FZFG,M,M,M,M,M,M,27.00,KNFL 231214Z AUTO 00000KT 1/2SM SN FZFG VV014 M03/M04 A2979 RMK AO2 P0002 T10281044,M
BAM,2021-01-23 12:15,-116.8743,40.5990,1382.36,33.80,33.80,100.00,320.00,5.00,0.00,29.71,M,3.00,M,OVC,M,M,M,400.00,M,M,M,M,M,M,M,M,M,M,28.53,KBAM 231215Z AUTO 32005KT 3SM OVC004 01/01 A2971 RMK AO1,M
MEV,2021-01-23 12:15,-119.7500,38.9963,1441.42,23.00,15.80,73.51,130.00,3.00,0.00,29.79,M,10.00,M,FEW,BKN,OVC,M,4400.00,6500.00,7500.00,M,M,M,M,M,M,M,M,18.40,KMEV 231215Z AUTO 13003KT 10SM FEW044 BKN065 OVC075 M05/M09 A2979 RMK AO2,M
05U,2021-01-23 12:15,-116.0051,39.6042,1811.23,28.40,23.00,79.92,270.00,3.00,0.00,29.69,M,5.00,M,M,M,M,M,M,M,M,M,HZ,M,M,M,M,M,M,24.57,K05U 231215Z AUTO 27003KT 5SM HZ M02/M05 A2969 RMK A01,M
RTS,2021-01-23 12:15,-119.8764,39.6682,1539.00,30.20,23.00,74.26,310.00,10.00,0.00,29.81,M,9.00,M,OVC,M,M,M,2700.00,M,M,M,-SN,M,M,M,M,M,M,20.71,KRTS 231215Z AUTO 31010KT 9SM -SN OVC027 M01/M05 A2981 RMK AO2,M
BVU,2021-01-23 12:15,-114.8611,35.9475,671.00,41.00,28.40,60.54,190.00,4.00,0.00,29.81,M,10.00,M,CLR,M,M,M,M,M,M,M,M,M,M,M,M,M,M,37.93,KBVU 231215Z AUTO 19004KT 10SM CLR 05/M02 A2981 RMK AO2,M
HTH,2021-01-23 12:15,-118.6315,38.5448,1282.89,24.80,15.80,68.18,160.00,7.00,0.00,29.79,M,10.00,M,CLR,M,M,M,M,M,M,M,M,M,M,M,M,M,M,16.00,KHTH 231215Z AUTO 16007KT 10SM CLR M04/M09 A2979 RMK A01,M
CXP,2021-01-23 12:15,-119.7326,39.1923,1431.00,26.60,17.60,68.40,0.00,0.00,0.00,29.81,M,10.00,M,BKN,OVC,M,M,3800.00,4400.00,M,M,M,M,M,M,M,M,M,26.60,KCXP 231215Z AUTO 00000KT 10SM BKN038 OVC044 M03/M08 A2981 RMK AO2,M
LOL,2021-01-23 12:15,-118.5701,40.0684,1192.43,30.90,30.00,96.41,0.00,0.00,T,29.76,M,4.00,M,BKN,OVC,M,M,3600.00,4300.00,M,M,-SN BR,M,M,M,M,M,M,30.90,KLOL 231215Z AUTO 00000KT 4SM -SN BR BKN036 OVC043 M01/M01 A2976 RMK AO2 P0000 T10061011,M
WMC,2021-01-23 12:23,-117.8072,40.9019,1315.00,32.00,28.00,84.98,M,M,0.00,29.74,M,10.00,M,SCT,SCT,OVC,M,2200.00,3000.00,3600.00,M,M,M,M,M,26.00,330.00,2021-01-23 12:20,M,KWMC 231223Z AUTO 10SM SCT022 SCT030 OVC036 00/M02 A2974 RMK AO2 PK WND 33026/1220 T00001022 $,M
NFL,2021-01-23 12:29,-118.7010,39.4166,1199.00,27.00,25.00,92.05,0.00,0.00,0.04,29.79,M,0.50,M,VV ,M,M,M,800.00,M,M,M,SN FZFG,M,M,M,M,M,M,27.00,KNFL 231229Z AUTO 00000KT 1/2SM SN FZFG VV008 M03/M04 A2979 RMK AO2 P0004 T10281039,M
WMC,2021-01-23 12:30,-117.8072,40.9019,1315.00,32.00,28.00,84.98,350.00,14.00,0.00,29.74,M,10.00,M,FEW,SCT,OVC,M,900.00,2200.00,3400.00,M,M,M,M,M,26.00,330.00,2021-01-23 12:20,21.16,KWMC 231230Z AUTO 35014KT 10SM FEW009 SCT022 OVC034 00/M02 A2974 RMK AO2 PK WND 33026/1220 T00001022 $,M
ELY,2021-01-23 12:31,-114.8453,39.2950,1909.00,26.10,21.90,83.89,240.00,7.00,0.00,29.65,M,10.00,M,BKN,OVC,M,M,2200.00,4900.00,M,M,M,M,M,M,M,M,M,17.59,KELY 231231Z AUTO 24007KT 10SM BKN022 OVC049 M03/M06 A2965 RMK AO2 T10331056,M
05U,2021-01-23 12:35,-116.0051,39.6042,1811.23,28.40,23.00,79.92,0.00,0.00,0.00,29.70,M,3.00,M,M,M,M,M,M,M,M,M,HZ,M,M,M,M,M,M,28.40,K05U 231235Z AUTO 00000KT 3SM HZ M02/M05 A2970 RMK A01,M
HTH,2021-01-23 12:35,-118.6315,38.5448,1282.89,24.80,15.80,68.18,230.00,3.00,0.00,29.79,M,10.00,M,M,M,M,M,M,M,M,M,M,M,M,M,M,M,M,20.46,KHTH 231235Z AUTO 23003KT 10SM M04/M09 A2979 RMK A01,M
BAM,2021-01-23 12:35,-116.8743,40.5990,1382.36,32.00,32.00,100.00,320.00,6.00,0.00,29.71,M,2.50,M,OVC,M,M,M,400.00,M,M,M,M,M,M,M,M,M,M,25.53,KBAM 231235Z AUTO 32006KT 2 1/2SM OVC004 00/00 A2971 RMK AO1 VIS 1 1/2V5,M
MEV,2021-01-23 12:35,-119.7500,38.9963,1441.42,24.80,17.60,73.70,330.00,5.00,0.00,29.80,M,10.00,M,FEW,BKN,OVC,M,4400.00,5000.00,7000.00,M,M,M,M,M,M,M,M,17.84,KMEV 231235Z AUTO 33005KT 10SM FEW044 BKN050 OVC070 M04/M08 A2980 RMK AO2,M
RTS,2021-01-23 12:35,-119.8764,39.6682,1539.00,28.40,23.00,79.92,300.00,8.00,0.00,29.81,M,10.00,M,OVC,M,M,M,2600.00,M,M,M,-SN,M,M,M,M,M,M,19.68,KRTS 231235Z AUTO 30008KT 10SM -SN OVC026 M02/M05 A2981 RMK AO2,M
CXP,2021-01-23 12:35,-119.7326,39.1923,1431.00,26.60,17.60,68.40,0.00,0.00,0.00,29.82,M,10.00,M,OVC,M,M,M,3800.00,M,M,M,M,M,M,M,M,M,M,26.60,KCXP 231235Z AUTO 00000KT 10SM OVC038 M03/M08 A2982 RMK AO2,M
BVU,2021-01-23 12:35,-114.8611,35.9475,671.00,41.00,28.40,60.54,260.00,8.00,0.00,29.81,M,10.00,M,CLR,M,M,M,M,M,M,M,M,M,M,M,M,M,M,35.20,KBVU 231235Z AUTO 26008KT 10SM CLR 05/M02 A2981 RMK AO2,M
LOL,2021-01-23 12:37,-118.5701,40.0684,1192.43,30.90,30.00,96.41,0.00,0.00,T,29.77,M,7.00,M,FEW,BKN,OVC,M,200.00,3400.00,4400.00,M,M,M,M,M,M,M,M,30.90,KLOL 231237Z AUTO 00000KT 7SM FEW002 BKN034 OVC044 M01/M01 A2977 RMK AO2 SNE21 P0000 T10061011,M
VGT,2021-01-23 12:53,-115.1933,36.2111,667.00,45.00,25.00,45.12,M,3.00,0.00,29.77,1009.30,10.00,M,CLR,M,M,M,M,M,M,M,M,M,M,M,M,M,M,43.55,KVGT 231253Z AUTO VRB03KT 10SM CLR 07/M04 A2977 RMK AO2 SLP093 T00721039,M
ELY,2021-01-23 12:53,-114.8453,39.2950,1909.00,28.00,23.00,81.25,200.00,8.00,0.00,29.66,1003.50,10.00,M,OVC,M,M,M,2100.00,M,M,M,M,M,M,M,M,M,M,19.19,KELY 231253Z AUTO 20008KT 10SM OVC021 M02/M05 A2966 RMK AO2 SLP035 T10221050,M
DRA,2021-01-23 12:53,-116.0278,36.6206,1009.00,35.00,25.00,66.31,340.00,6.00,0.00,29.78,1007.20,10.00,M,CLR,M,M,M,M,M,M,M,M,M,M,M,M,M,M,29.26,KDRA 231253Z AUTO 34006KT 10SM CLR 02/M04 A2978 RMK AO2 SLP072 T00171039,M
LOL,2021-01-23 12:53,-118.5701,40.0684,1192.43,30.90,30.00,96.41,0.00,0.00,T,29.77,1009.20,5.00,M,BKN,OVC,M,M,2400.00,3300.00,M,M,-SN BR,M,M,M,M,M,M,30.90,KLOL 231253Z AUTO 00000KT 5SM -SN BR BKN024 OVC033 M01/M01 A2977 RMK AO2 SNE21B44 SLP092 P0000 T10061011,M
P68,2021-01-23 12:53,-116.0056,39.6014,1993.00,27.00,24.10,88.65,240.00,6.00,0.00,29.67,1004.10,M,M,M,M,M,M,M,M,M,M,M,M,M,M,M,M,M,19.51,KP68 231253Z AUTO 24006KT M03/M04 A2967 RMK AO1 SLP041 T10281044,M
05U,2021-01-23 12:55,-116.0051,39.6042,1811.23,28.40,23.00,79.92,0.00,0.00,0.00,29.70,M,4.00,M,M,M,M,M,M,M,M,M,HZ,M,M,M,M,M,M,28.40,K05U 231255Z AUTO 00000KT 4SM HZ M02/M05 A2970 RMK A01,M
BVU,2021-01-23 12:55,-114.8611,35.9475,671.00,41.00,28.40,60.54,130.00,6.00,0.00,29.83,M,10.00,M,CLR,M,M,M,M,M,M,M,M,M,M,M,M,M,M,36.37,KBVU 231255Z AUTO 13006KT 10SM CLR 05/M02 A2983 RMK AO2,M
CXP,2021-01-23 12:55,-119.7326,39.1923,1431.00,28.40,19.40,68.61,90.00,3.00,0.00,29.82,M,10.00,M,OVC,M,M,M,3600.00,M,M,M,M,M,M,M,M,M,M,24.57,KCXP 231255Z AUTO 09003KT 10SM OVC036 M02/M07 A2982 RMK AO2,M
RTS,2021-01-23 12:55,-119.8764,39.6682,1539.00,30.20,23.00,74.26,300.00,6.00,0.00,29.81,M,10.00,M,BKN,OVC,M,M,2200.00,2600.00,M,M,-SN,M,M,M,M,M,M,23.36,KRTS 231255Z AUTO 30006KT 10SM -SN BKN022 OVC026 M01/M05 A2981 RMK AO2,M
MEV,2021-01-23 12:55,-119.7500,38.9963,1441.42,28.40,17.60,63.51,20.00,6.00,0.00,29.80,M,10.00,M,FEW,FEW,OVC,M,3200.00,3900.00,4800.00,M,M,M,M,M,M,M,M,21.19,KMEV 231255Z AUTO 02006KT 10SM FEW032 FEW039 OVC048 M02/M08 A2980 RMK AO2,M
BAM,2021-01-23 12:55,-116.8743,40.5990,1382.36,32.00,32.00,100.00,330.00,4.00,0.00,29.72,M,1.25,M,OVC,M,M,M,400.00,M,M,M,M,M,M,M,M,M,M,27.42,KBAM 231255Z AUTO 33004KT 1 1/4SM OVC004 00/00 A2972 RMK AO1,M
HTH,2021-01-23 12:55,-118.6315,38.5448,1282.89,23.00,15.80,73.51,0.00,0.00,0.00,29.80,M,10.00,M,FEW,FEW,M,M,8000.00,12000.00,M,M,M,M,M,M,M,M,M,23.00,KHTH 231255Z AUTO 00000KT 10SM FEW080 FEW120 M05/M09 A2980 RMK A01,M
RNO,2021-01-23 12:55,-119.7711,39.4839,1341.00,30.00,28.00,92.15,360.00,4.00,0.02,29.81,1009.70,2.50,M,BKN,OVC,M,M,2700.00,3800.00,M,M,-SN BR,M,M,M,M,M,M,25.08,KRNO 231255Z 36004KT 2 1/2SM -SN BR BKN027 OVC038 M01/M02 A2981 RMK AO2 TWR VIS 3 SLP097 P0002 T10111022,M
TPH,2021-01-23 12:56,-117.0904,38.0505,1654.00,26.10,21.90,83.89,50.00,11.00,0.00,29.75,1007.30,10.00,M,CLR,M,M,M,M,M,M,M,M,M,M,M,M,M,M,15.01,KTPH 231256Z AUTO 05011KT 10SM CLR M03/M06 A2975 RMK AO2 SLP073 T10331056,M
NFL,2021-01-23 12:56,-118.7010,39.4166,1199.00,30.00,28.00,92.15,250.00,3.00,0.09,29.79,1006.60,0.50,M,VV ,M,M,M,600.00,M,M,M,SN FZFG,M,M,M,M,M,M,26.40,KNFL 231256Z AUTO 25003KT 1/2SM SN FZFG VV006 M01/M02 A2979 RMK AO2 SLP066 P0009 T10111022,M
EKO,2021-01-23 12:56,-115.7860,40.8242,1367.00,32.00,27.00,81.55,350.00,3.00,T,29.67,1005.20,10.00,M,FEW,OVC,M,M,1500.00,2100.00,M,M,M,M,M,M,M,M,M,28.69,KEKO 231256Z AUTO 35003KT 10SM FEW015 OVC021 00/M03 A2967 RMK AO2 SNB10E36 SLP052 P0000 T00001028,M
HND,2021-01-23 12:56,-115.1344,35.9729,742.79,42.00,28.90,59.22,190.00,13.00,0.00,29.82,1011.40,10.00,M,CLR,M,M,M,M,M,M,M,M,M,M,M,M,M,M,34.51,KHND 231256Z AUTO 19013KT 10SM CLR 06/M02 A2982 RMK AO2 SLP114 T00561017,M
LAS,2021-01-23 12:56,-115.1634,36.0719,663.00,45.00,27.00,49.02,200.00,8.00,0.00,29.80,1008.60,10.00,M,BKN,M,M,M,15000.00,M,M,M,M,M,M,M,M,M,M,40.13,KLAS 231256Z 20008KT 10SM BKN150 07/M03 A2980 RMK AO2 SLP086 T00721028,M
WMC,2021-01-23 12:56,-117.8072,40.9019,1315.00,32.00,28.00,84.98,360.00,16.00,0.00,29.75,1008.00,10.00,M,SCT,OVC,M,M,800.00,3400.00,M,M,M,M,M,M,26.00,330.00,2021-01-23 12:20,20.42,KWMC 231256Z AUTO 36016KT 10SM SCT008 OVC034 00/M02 A2975 RMK AO2 PK WND 33026/1220 SLP080 T00001022 $,M
RNO,2021-01-23 13:01,-119.7711,39.4839,1341.00,30.00,28.00,92.15,350.00,5.00,T,29.82,M,3.00,M,SCT,OVC,M,M,2700.00,3800.00,M,M,-SN BR,M,M,M,M,M,M,24.02,KRNO 231301Z 35005KT 3SM -SN BR SCT027 OVC038 M01/M02 A2982 RMK AO2 P0000 T10111022,M
WMC,2021-01-23 13:09,-117.8072,40.9019,1315.00,32.00,28.00,84.98,360.00,17.00,0.00,29.75,M,10.00,22.00,FEW,BKN,OVC,M,700.00,2900.00,3600.00,M,M,M,M,M,M,M,M,20.08,KWMC 231309Z AUTO 36017G22KT 10SM FEW007 BKN029 OVC036 00/M02 A2975 RMK AO2 T00001022 $,M
RNO,2021-01-23 13:14,-119.7711,39.4839,1341.00,30.90,28.00,88.84,360.00,6.00,T,29.82,M,6.00,M,SCT,OVC,M,M,2700.00,3400.00,M,M,-SN BR,M,M,M,M,M,M,24.21,KRNO 231314Z 36006KT 6SM -SN BR SCT027 OVC034 M01/M02 A2982 RMK AO2 P0000 T10061022,M
BAM,2021-01-23 13:15,-116.8743,40.5990,1382.36,32.00,32.00,100.00,320.00,3.00,0.00,29.73,M,0.75,M,BKN,OVC,M,M,400.00,900.00,M,M,M,M,M,M,M,M,M,28.69,KBAM 231315Z AUTO 32003KT 3/4SM BKN004 OVC009 00/00 A2973 RMK AO1,M
CXP,2021-01-23 13:15,-119.7326,39.1923,1431.00,28.40,19.40,68.61,0.00,0.00,0.00,29.83,M,7.00,M,BKN,OVC,M,M,3100.00,3900.00,M,M,-UP,M,M,M,M,M,M,28.40,KCXP 231315Z AUTO 00000KT 7SM -UP BKN031 OVC039 M02/M07 A2983 RMK AO2,M
MEV,2021-01-23 13:15,-119.7500,38.9963,1441.42,28.40,19.40,68.61,0.00,0.00,0.00,29.80,M,10.00,M,FEW,SCT,BKN,M,2300.00,3400.00,4200.00,M,M,M,M,M,M,M,M,28.40,KMEV 231315Z AUTO 00000KT 10SM FEW023 SCT034 BKN042 M02/M07 A2980 RMK AO2,M
BVU,2021-01-23 13:15,-114.8611,35.9475,671.00,41.00,28.40,60.54,210.00,6.00,0.00,29.83,M,10.00,M,CLR,M,M,M,M,M,M,M,M,M,M,M,M,M,M,36.37,KBVU 231315Z AUTO 21006KT 10SM CLR 05/M02 A2983 RMK AO2,M
RTS,2021-01-23 13:15,-119.8764,39.6682,1539.00,28.40,23.00,79.92,300.00,11.00,0.00,29.82,M,3.00,M,FEW,OVC,M,M,600.00,2100.00,M,M,-SN,M,M,M,M,M,M,17.92,KRTS 231315Z AUTO 30011KT 3SM -SN FEW006 OVC021 M02/M05 A2982 RMK AO2,M
05U,2021-01-23 13:15,-116.0051,39.6042,1811.23,26.60,23.00,86.07,230.00,5.00,0.00,29.71,M,6.00,M,M,M,M,M,M,M,M,M,HZ,M,M,M,M,M,M,19.98,K05U 231315Z AUTO 23005KT 6SM HZ M03/M05 A2971 RMK A01,M
HTH,2021-01-23 13:15,-118.6315,38.5448,1282.89,24.80,15.80,68.18,0.00,0.00,0.00,29.81,M,10.00,M,BKN,BKN,M,M,7500.00,12000.00,M,M,M,M,M,M,M,M,M,24.80,KHTH 231315Z AUTO 00000KT 10SM BKN075 BKN120 M04/M09 A2981 RMK A01,M
RNO,2021-01-23 13:20,-119.7711,39.4839,1341.00,30.00,28.00,92.15,350.00,7.00,T,29.82,M,2.50,M,BKN,OVC,M,M,2700.00,3400.00,M,M,-SN BR,M,M,M,M,M,M,22.34,KRNO 231320Z 35007KT 2 1/2SM -SN BR BKN027 OVC034 M01/M02 A2982 RMK AO2 TWR VIS 3 P0000 T10111022,M
NFL,2021-01-23 13:22,-118.7010,39.4166,1199.00,32.00,30.00,92.22,260.00,8.00,0.02,29.79,M,0.75,M,BKN,OVC,M,M,400.00,700.00,M,M,-SN BR,M,M,M,M,M,M,24.11,KNFL 231322Z AUTO 26008KT 3/4SM -SN BR BKN004 OVC007 00/M01 A2979 RMK AO2 P0002 T00001011,M
ELY,2021-01-23 13:26,-114.8453,39.2950,1909.00,26.10,21.00,80.75,160.00,6.00,0.00,29.67,M,10.00,M,SCT,BKN,OVC,M,2300.00,3500.00,4400.00,M,M,M,M,M,M,M,M,18.42,KELY 231326Z AUTO 16006KT 10SM SCT023 BKN035 OVC044 M03/M06 A2967 RMK AO2 T10331061,M
NFL,2021-01-23 13:34,-118.7010,39.4166,1199.00,32.00,30.00,92.22,260.00,10.00,0.03,29.80,M,0.75,M,SCT,OVC,M,M,400.00,1000.00,M,M,-SN BR,M,M,M,M,M,M,22.97,KNFL 231334Z AUTO 26010KT 3/4SM -SN BR SCT004 OVC010 00/M01 A2980 RMK AO2 P0003 T00001011,M
CXP,2021-01-23 13:35,-119.7326,39.1923,1431.00,26.60,23.00,86.07,0.00,0.00,0.00,29.83,M,2.50,M,FEW,FEW,BKN,M,300.00,600.00,3000.00,M,-SN,M,M,M,M,M,M,26.60,KCXP 231335Z AUTO 00000KT 2 1/2SM -SN FEW003 FEW006 BKN030 M03/M05 A2983 RMK AO2,M
BVU,2021-01-23 13:35,-114.8611,35.9475,671.00,41.00,28.40,60.54,140.00,4.00,0.00,29.84,M,10.00,M,CLR,M,M,M,M,M,M,M,M,M,M,M,M,M,M,37.93,KBVU 231335Z AUTO 14004KT 10SM CLR 05/M02 A2984 RMK AO2,M
HTH,2021-01-23 13:35,-118.6315,38.5448,1282.89,24.80,17.60,73.70,0.00,0.00,0.00,29.81,M,10.00,M,OVC,M,M,M,7500.00,M,M,M,M,M,M,M,M,M,M,24.80,KHTH 231335Z AUTO 00000KT 10SM OVC075 M04/M08 A2981 RMK A01,M
05U,2021-01-23 13:35,-116.0051,39.6042,1811.23,26.60,23.00,86.07,0.00,0.00,0.00,29.71,M,10.00,M,M,M,M,M,M,M,M,M,M,M,M,M,M,M,M,26.60,K05U 231335Z AUTO 00000KT 10SM M03/M05 A2971 RMK A01,M
BAM,2021-01-23 13:35,-116.8743,40.5990,1382.36,32.00,32.00,100.00,320.00,4.00,0.00,29.74,M,1.00,M,BKN,OVC,M,M,400.00,900.00,M,M,M,M,M,M,M,M,M,27.42,KBAM 231335Z AUTO 32004KT 1SM BKN004 OVC009 00/00 A2974 RMK AO1,M
MEV,2021-01-23 13:35,-119.7500,38.9963,1441.42,28.40,19.40,68.61,330.00,4.00,0.00,29.82,M,10.00,M,FEW,BKN,OVC,M,4000.00,4700.00,5000.00,M,M,M,M,M,M,M,M,23.22,KMEV 231335Z AUTO 33004KT 10SM FEW040 BKN047 OVC050 M02/M07 A2982 RMK AO2,M
RTS,2021-01-23 13:35,-119.8764,39.6682,1539.00,28.40,24.80,86.18,290.00,9.00,0.00,29.82,M,6.00,M,OVC,M,M,M,1900.00,M,M,M,-SN,M,M,M,M,M,M,19.04,KRTS 231335Z AUTO 29009KT 6SM -SN OVC019 M02/M04 A2982 RMK AO2,M
RNO,2021-01-23 13:40,-119.7711,39.4839,1341.00,30.00,28.00,92.15,310.00,5.00,T,29.83,M,1.25,M,BKN,OVC,M,M,2700.00,3400.00,M,M,-SN BR,M,M,M,M,M,M,24.02,KRNO 231340Z 31005KT 1 1/4SM -SN BR BKN027 OVC034 M01/M02 A2983 RMK AO2 TWR VIS 2 P0000 T10111022,M
NFL,2021-01-23 13:43,-118.7010,39.4166,1199.00,32.00,30.00,92.22,260.00,9.00,0.04,29.80,M,1.00,M,SCT,OVC,M,M,400.00,1200.00,M,M,-SN BR,M,M,M,M,M,M,23.51,KNFL 231343Z AUTO 26009KT 1SM -SN BR SCT004 OVC012 00/M01 A2980 RMK AO2 P0004 T00001011,M
WMC,2021-01-23 13:44,-117.8072,40.9019,1315.00,32.00,28.00,84.98,360.00,15.00,0.00,29.76,M,10.00,M,SCT,BKN,OVC,M,2900.00,4400.00,5500.00,M,M,M,M,M,M,M,M,20.78,KWMC 231344Z AUTO 36015KT 10SM SCT029 BKN044 OVC055 00/M02 A2976 RMK AO2 T00001022 $,M
VGT,2021-01-23 13:53,-115.1933,36.2111,667.00,41.00,24.10,50.67,320.00,5.00,0.00,29.78,1010.00,10.00,M,CLR,M,M,M,M,M,M,M,M,M,M,M,M,M,M,37.08,KVGT 231353Z 32005KT 10SM CLR 05/M04 A2978 RMK AO2 SLP100 T00501044,M
P68,2021-01-23 13:53,-116.0056,39.6014,1993.00,28.00,24.10,85.08,220.00,4.00,0.00,29.69,1004.80,M,M,M,M,M,M,M,M,M,M,M,M,M,M,M,M,M,22.75,KP68 231353Z AUTO 22004KT M02/M04 A2969 RMK AO1 SLP048 T10221044,M
LOL,2021-01-23 13:53,-118.5701,40.0684,1192.43,32.00,30.90,95.65,0.00,0.00,T,29.79,1009.70,10.00,M,OVC,M,M,M,2900.00,M,M,M,M,M,M,M,M,M,M,32.00,KLOL 231353Z AUTO 00000KT 10SM OVC029 00/M01 A2979 RMK AO2 SNE1256 SLP097 P0000 T00001006,M
DRA,2021-01-23 13:53,-116.0278,36.6206,1009.00,34.00,25.00,69.28,330.00,7.00,0.00,29.80,1008.20,10.00,M,CLR,M,M,M,M,M,M,M,M,M,M,M,M,M,M,27.22,KDRA 231353Z AUTO 33007KT 10SM CLR 01/M04 A2980 RMK AO2 SLP082 T00111039,M
ELY,2021-01-23 13:53,-114.8453,39.2950,1909.00,26.10,21.00,80.75,160.00,8.00,0.00,29.68,1004.80,10.00,M,FEW,BKN,OVC,M,3800.00,4900.00,6000.00,M,M,M,M,M,M,M,M,16.85,KELY 231353Z AUTO 16008KT 10SM FEW038 BKN049 OVC060 M03/M06 A2968 RMK AO2 SLP048 T10331061,M
HTH,2021-01-23 13:55,-118.6315,38.5448,1282.89,24.80,17.60,73.70,250.00,3.00,0.00,29.82,M,10.00,M,OVC,M,M,M,7000.00,M,M,M,M,M,M,M,M,M,M,20.46,KHTH 231355Z AUTO 25003KT 10SM OVC070 M04/M08 A2982 RMK A01,M
05U,2021-01-23 13:55,-116.0051,39.6042,1811.23,28.40,23.00,79.92,0.00,0.00,0.00,29.72,M,10.00,M,M,M,M,M,M,M,M,M,M,M,M,M,M,M,M,28.40,K05U 231355Z AUTO 00000KT 10SM M02/M05 A2972 RMK A01,M
CXP,2021-01-23 13:55,-119.7326,39.1923,1431.00,28.40,24.80,86.18,0.00,0.00,0.00,29.84,M,2.50,M,BKN,BKN,M,M,300.00,800.00,M,M,-SN,M,M,M,M,M,M,28.40,KCXP 231355Z AUTO 00000KT 2 1/2SM -SN BKN003 BKN008 M02/M04 A2984 RMK AO2,M
RNO,2021-01-23 13:55,-119.7711,39.4839,1341.00,30.00,28.00,92.15,220.00,4.00,0.01,29.83,1010.60,1.00,M,SCT,BKN,OVC,M,500.00,1800.00,2900.00,M,-SN BR,M,M,M,M,M,M,25.08,KRNO 231355Z 22004KT 1SM R16R/P6000FT -SN BR SCT005 BKN018 OVC029 M01/M02 A2983 RMK AO2 TWR VIS 1 1/4 SLP106 P0001 T10111022,M
BVU,2021-01-23 13:55,-114.8611,35.9475,671.00,42.80,28.40,56.48,110.00,3.00,0.00,29.84,M,10.00,M,CLR,M,M,M,M,M,M,M,M,M,M,M,M,M,M,41.03,KBVU 231355Z AUTO 11003KT 10SM CLR 06/M02 A2984 RMK AO2,M
MEV,2021-01-23 13:55,-119.7500,38.9963,1441.42,28.40,19.40,68.61,320.00,4.00,0.00,29.82,M,10.00,M,SCT,BKN,OVC,M,2600.00,3300.00,4600.00,M,M,M,M,M,M,M,M,23.22,KMEV 231355Z AUTO 32004KT 10SM SCT026 BKN033 OVC046 M02/M07 A2982 RMK AO2,M
RTS,2021-01-23 13:55,-119.8764,39.6682,1539.00,28.40,24.80,86.18,290.00,7.00,0.00,29.83,M,10.00,M,OVC,M,M,M,1600.00,M,M,M,M,M,M,M,M,M,M,20.39,KRTS 231355Z AUTO 29007KT 10SM OVC016 M02/M04 A2983 RMK AO2,M
BAM,2021-01-23 13:55,-116.8743,40.5990,1382.36,32.00,32.00,100.00,320.00,3.00,0.00,29.75,M,4.00,M,SCT,OVC,M,M,400.00,1500.00,M,M,M,M,M,M,M,M,M,28.69,KBAM 231355Z AUTO 32003KT 4SM SCT004 OVC015 00/00 A2975 RMK AO1,M
EKO,2021-01-23 13:56,-115.7860,40.8242,1367.00,32.00,25.00,75.07,360.00,9.00,0.00,29.70,1006.80,10.00,M,BKN,OVC,M,M,2000.00,2600.00,M,M,M,M,M,M,M,M,M,23.51,KEKO 231356Z AUTO 36009KT 10SM BKN020 OVC026 00/M04 A2970 RMK AO2 SLP068 T00001039,M
NFL,2021-01-23 13:56,-118.7010,39.4166,1199.00,32.00,30.00,92.22,240.00,7.00,0.04,29.80,1006.90,2.50,M,BKN,BKN,OVC,M,400.00,1000.00,1400.00,M,-SN BR,M,M,M,M,M,M,24.78,KNFL 231356Z AUTO 24007KT 2 1/2SM -SN BR BKN004 BKN010 OVC014 00/M01 A2980 RMK AO2 SLP069 P0004 T00001011,M
LAS,2021-01-23 13:56,-115.1634,36.0719,663.00,44.00,28.00,52.86,200.00,10.00,0.00,29.82,1009.20,10.00,M,BKN,M,M,M,15000.00,M,M,M,M,M,M,M,M,M,M,38.14,KLAS 231356Z 20010KT 10SM BKN150 07/M02 A2982 RMK AO2 SLP092 T00671022,M
TPH,2021-01-23 13:56,-117.0904,38.0505,1654.00,28.90,19.90,68.67,330.00,16.00,0.00,29.75,1008.30,10.00,24.00,CLR,M,M,M,M,M,M,M,M,M,M,M,M,M,M,16.38,KTPH 231356Z AUTO 33016G24KT 10SM CLR M02/M07 A2975 RMK AO2 WSHFT 1336 SLP083 T10171067,M
WMC,2021-01-23 13:56,-117.8072,40.9019,1315.00,32.00,28.00,84.98,360.00,16.00,0.00,29.76,1008.60,10.00,M,FEW,BKN,OVC,M,2900.00,5500.00,7000.00,M,M,M,M,M,M,M,M,20.42,KWMC 231356Z AUTO 36016KT 10SM FEW029 BKN055 OVC070 00/M02 A2976 RMK AO2 SLP086 T00001022 $,M
HND,2021-01-23 13:56,-115.1344,35.9729,742.79,41.00,28.90,61.79,180.00,11.00,0.00,29.84,1012.30,10.00,M,CLR,M,M,M,M,M,M,M,M,M,M,M,M,M,M,33.84,KHND 231356Z 18011KT 10SM CLR 05/M02 A2984 RMK AO2 SLP123 T00501017,M
LOL,2021-01-23 14:08,-118.5701,40.0684,1192.43,34.00,30.00,85.11,20.00,5.00,0.00,29.79,M,10.00,M,OVC,M,M,M,3100.00,M,M,M,M,M,M,M,M,M,M,28.77,KLOL 231408Z AUTO 02005KT 10SM OVC031 01/M01 A2979 RMK AO2 T00111011,M
NFL,2021-01-23 14:12,-118.7010,39.4166,1199.00,30.90,30.00,96.41,240.00,6.00,0.01,29.80,M,2.50,M,OVC,M,M,M,500.00,M,M,M,-SN BR,M,M,M,M,M,M,24.21,KNFL 231412Z AUTO 24006KT 2 1/2SM -SN BR OVC005 M01/M01 A2980 RMK AO2 CIG 003V009 P0001 T10061011,M
RNO,2021-01-23 14:13,-119.7711,39.4839,1341.00,30.00,28.00,92.15,210.00,3.00,T,29.84,M,3.00,M,FEW,OVC,M,M,600.00,2500.00,M,M,-SN BR,M,M,M,M,M,M,26.40,KRNO 231413Z 21003KT 3SM -SN BR FEW006 OVC025 M01/M02 A2984 RMK AO2 P0000 T10111022,M
MEV,2021-01-23 14:15,-119.7500,38.9963,1441.42,28.40,24.80,86.18,310.00,3.00,0.00,29.83,M,0.75,M,OVC,M,M,M,300.00,M,M,M,-SN BR,M,M,M,M,M,M,24.57,KMEV 231415Z AUTO 31003KT 3/4SM -SN BR OVC003 M02/M04 A2983 RMK AO2,M
CXP,2021-01-23 14:15,-119.7326,39.1923,1431.00,28.40,24.80,86.18,0.00,0.00,0.00,29.84,M,2.50,M,BKN,BKN,OVC,M,300.00,2400.00,3100.00,M,-SN,M,M,M,M,M,M,28.40,KCXP 231415Z AUTO 00000KT 2 1/2SM -SN BKN003 BKN024 OVC031 M02/M04 A2984 RMK AO2,M
05U,2021-01-23 14:15,-116.0051,39.6042,1811.23,28.40,23.00,79.92,0.00,0.00,0.00,29.73,M,3.00,M,M,M,M,M,M,M,M,M,HZ,M,M,M,M,M,M,28.40,K05U 231415Z AUTO 00000KT 3SM HZ M02/M05 A2973 RMK A01,M
HTH,2021-01-23 14:15,-118.6315,38.5448,1282.89,24.80,17.60,73.70,330.00,4.00,0.00,29.83,M,10.00,M,FEW,SCT,OVC,M,2800.00,4400.00,7000.00,M,M,M,M,M,M,M,M,19.01,KHTH 231415Z AUTO 33004KT 10SM FEW028 SCT044 OVC070 M04/M08 A2983 RMK A01,M
BAM,2021-01-23 14:15,-116.8743,40.5990,1382.36,32.00,32.00,100.00,310.00,4.00,0.00,29.76,M,5.00,M,SCT,BKN,OVC,M,600.00,1600.00,2700.00,M,M,M,M,M,M,M,M,27.42,KBAM 231415Z AUTO 31004KT 5SM SCT006 BKN016 OVC027 00/00 A2976 RMK AO1,M
RTS,2021-01-23 14:15,-119.8764,39.6682,1539.00,28.40,24.80,86.18,260.00,6.00,0.00,29.84,M,10.00,M,OVC,M,M,M,1600.00,M,M,M,M,M,M,M,M,M,M,21.19,KRTS 231415Z AUTO 26006KT 10SM OVC016 M02/M04 A2984 RMK AO2,M
BVU,2021-01-23 14:15,-114.8611,35.9475,671.00,42.80,28.40,56.48,170.00,6.00,0.00,29.84,M,10.00,M,CLR,M,M,M,M,M,M,M,M,M,M,M,M,M,M,38.54,KBVU 231415Z AUTO 17006KT 10SM CLR 06/M02 A2984 RMK AO2,M
EKO,2021-01-23 14:16,-115.7860,40.8242,1367.00,32.00,25.00,75.07,10.00,5.00,0.00,29.71,M,10.00,M,FEW,OVC,M,M,2000.00,3000.00,M,M,M,M,M,M,M,M,M,26.40,KEKO 231416Z AUTO 01005KT 10SM FEW020 OVC030 00/M04 A2971 RMK AO2 T00001039,M
NFL,2021-01-23 14:23,-118.7010,39.4166,1199.00,32.00,30.00,92.22,250.00,8.00,0.01,29.81,M,1.25,M,OVC,M,M,M,500.00,M,M,M,-SN BR,M,M,M,M,M,M,24.11,KNFL 231423Z AUTO 25008KT 1 1/4SM -SN BR OVC005 00/M01 A2981 RMK AO2 P0001 T00001011,M
LOL,2021-01-23 14:25,-118.5701,40.0684,1192.43,34.00,30.00,85.11,350.00,9.00,0.00,29.79,M,10.00,M,OVC,M,M,M,2900.00,M,M,M,M,M,M,M,M,M,M,26.00,KLOL 231425Z AUTO 35009KT 10SM OVC029 01/M01 A2979 RMK AO2 T00111011,M
LOL,2021-01-23 14:32,-118.5701,40.0684,1192.43,35.00,30.00,81.46,360.00,10.00,0.00,29.80,M,10.00,M,OVC,M,M,M,3100.00,M,M,M,M,M,M,M,M,M,M,26.86,KLOL 231432Z AUTO 36010KT 10SM OVC031 02/M01 A2980 RMK AO2 T00171011,M
RNO,2021-01-23 14:32,-119.7711,39.4839,1341.00,28.90,28.00,96.38,170.00,4.00,0.01,29.84,M,9.00,M,FEW,OVC,M,M,600.00,2400.00,M,M,-SN,M,M,M,M,M,M,23.80,KRNO 231432Z 17004KT 9SM -SN FEW006 OVC024 M02/M02 A2984 RMK AO2 UPB31E32SNE31B32 P0001 T10171022,M
MEV,2021-01-23 14:35,-119.7500,38.9963,1441.42,26.60,24.80,92.80,190.00,4.00,0.00,29.84,M,1.00,M,OVC,M,M,M,300.00,M,M,M,-SN BR,M,M,M,M,M,M,21.11,KMEV 231435Z AUTO 19004KT 1SM -SN BR OVC003 M03/M04 A2984 RMK AO2,M
CXP,2021-01-23 14:35,-119.7326,39.1923,1431.00,28.40,24.80,86.18,0.00,0.00,0.00,29.85,M,4.00,M,SCT,OVC,M,M,500.00,3000.00,M,M,-SN,M,M,M,M,M,M,28.40,KCXP 231435Z AUTO 00000KT 4SM -SN SCT005 OVC030 M02/M04 A2985 RMK AO2,M
HTH,2021-01-23 14:35,-118.6315,38.5448,1282.89,24.80,17.60,73.70,0.00,0.00,0.00,29.84,M,10.00,M,FEW,SCT,BKN,M,2600.00,4400.00,5500.00,M,M,M,M,M,M,M,M,24.80,KHTH 231435Z AUTO 00000KT 10SM FEW026 SCT044 BKN055 M04/M08 A2984 RMK A01,M
RTS,2021-01-23 14:35,-119.8764,39.6682,1539.00,30.20,24.80,80.07,0.00,0.00,0.00,29.84,M,10.00,11.00,OVC,M,M,M,1600.00,M,M,M,M,M,M,M,M,M,M,30.20,KRTS 231435Z AUTO 00000G11KT 10SM OVC016 M01/M04 A2984 RMK AO2,M
05U,2021-01-23 14:35,-116.0051,39.6042,1811.23,26.60,23.00,86.07,190.00,4.00,0.00,29.73,M,5.00,M,M,M,M,M,M,M,M,M,BR,M,M,M,M,M,M,21.11,K05U 231435Z AUTO 19004KT 5SM BR M03/M05 A2973 RMK A01,M
BAM,2021-01-23 14:35,-116.8743,40.5990,1382.36,32.00,32.00,100.00,310.00,4.00,0.00,29.76,M,10.00,M,OVC,M,M,M,2700.00,M,M,M,M,M,M,M,M,M,M,27.42,KBAM 231435Z AUTO 31004KT 10SM OVC027 00/00 A2976 RMK AO1,M
BVU,2021-01-23 14:35,-114.8611,35.9475,671.00,42.80,28.40,56.48,0.00,0.00,0.00,29.85,M,10.00,M,CLR,M,M,M,M,M,M,M,M,M,M,M,M,M,M,42.80,KBVU 231435Z AUTO 00000KT 10SM CLR 06/M02 A2985 RMK AO2,M
EKO,2021-01-23 14:39,-115.7860,40.8242,1367.00,32.00,25.00,75.07,10.00,3.00,0.00,29.71,M,10.00,M,OVC,M,M,M,2800.00,M,M,M,M,M,M,M,M,M,M,28.69,KEKO 231439Z AUTO 01003KT 10SM OVC028 00/M04 A2971 RMK AO2 T00001039,M
WMC,2021-01-23 14:51,-117.8072,40.9019,1315.00,32.00,28.40,86.39,360.00,12.00,T,29.79,M,8.00,M,SCT,BKN,OVC,M,1300.00,2100.00,4600.00,M,-SN,M,M,M,M,M,M,22.00,KWMC 231451Z AUTO 36012KT 8SM -SN SCT013 BKN021 OVC046 00/M02 A2979 RMK AO2 SNB48 P0000 $,M
DRA,2021-01-23 14:53,-116.0278,36.6206,1009.00,34.00,25.00,69.28,20.00,3.00,0.00,29.82,1009.00,10.00,M,CLR,M,M,M,M,M,M,M,M,M,M,M,M,M,M,30.97,KDRA 231453Z AUTO 02003KT 10SM CLR 01/M04 A2982 RMK AO2 SLP090 T00111039 53017,M
ELY,2021-01-23 14:53,-114.8453,39.2950,1909.00,25.00,21.00,84.53,240.00,6.00,0.00,29.69,1005.60,10.00,M,BKN,OVC,M,M,2100.00,6000.00,M,M,M,M,M,M,M,M,M,17.10,KELY 231453Z AUTO 24006KT 10SM BKN021 OVC060 M04/M06 A2969 RMK AO2 SLP056 T10391061 51015,M
VGT,2021-01-23 14:53,-115.1933,36.2111,667.00,42.00,26.10,52.78,360.00,3.00,0.00,29.80,1010.80,10.00,M,CLR,M,M,M,M,M,M,M,M,M,M,M,M,M,M,40.23,KVGT 231453Z 36003KT 10SM CLR 06/M03 A2980 RMK AO2 SLP108 T00561033 51019,M
P68,2021-01-23 14:53,-116.0056,39.6014,1993.00,27.00,23.00,84.66,230.00,5.00,0.00,29.72,1005.80,M,M,M,M,M,M,M,M,M,M,M,M,M,M,M,M,M,20.46,KP68 231453Z AUTO 23005KT M03/M05 A2972 RMK AO1 SLP058 T10281050 53016,M
LOL,2021-01-23 14:53,-118.5701,40.0684,1192.43,34.00,30.00,85.11,350.00,7.00,0.00,29.80,1010.20,10.00,M,OVC,M,M,M,3800.00,M,M,M,M,M,M,M,M,M,M,27.22,KLOL 231453Z AUTO 35007KT 10SM OVC038 01/M01 A2980 RMK AO2 SLP102 60000 T00111011 52014,M
MEV,2021-01-23 14:55,-119.7500,38.9963,1441.42,26.60,24.80,92.80,220.00,4.00,0.00,29.84,M,0.50,M,OVC,M,M,M,200.00,M,M,M,-SN BR,M,M,M,M,M,M,21.11,KMEV 231455Z AUTO 22004KT 1/2SM -SN BR OVC002 M03/M04 A2984 RMK AO2,M
CXP,2021-01-23 14:55,-119.7326,39.1923,1431.00,28.40,24.80,86.18,0.00,0.00,0.00,29.85,M,3.00,M,SCT,BKN,OVC,M,500.00,1500.00,6000.00,M,-SN,M,M,M,M,M,M,28.40,KCXP 231455Z AUTO 00000KT 3SM -SN SCT005 BKN015 OVC060 M02/M04 A2985 RMK AO2,M
05U,2021-01-23 14:55,-116.0051,39.6042,1811.23,28.40,23.00,79.92,0.00,0.00,0.00,29.74,M,2.00,M,M,M,M,M,M,M,M,M,HZ,M,M,M,M,M,M,28.40,K05U 231455Z AUTO 00000KT 2SM HZ M02/M05 A2974 RMK A01,M
RNO,2021-01-23 14:55,-119.7711,39.4839,1341.00,28.90,28.00,96.38,170.00,4.00,0.01,29.84,1011.20,10.00,M,FEW,BKN,M,M,600.00,2400.00,M,M,M,M,M,M,M,M,M,23.80,KRNO 231455Z 17004KT 10SM FEW006 BKN024 M02/M02 A2984 RMK AO2 UPB31E32SNE31B32E47 SLP112 P0001 60004 T10171022 53010,M
RTS,2021-01-23 14:55,-119.8764,39.6682,1539.00,30.20,24.80,80.07,180.00,11.00,0.00,29.84,M,10.00,M,OVC,M,M,M,1600.00,M,M,M,M,M,M,M,M,M,M,20.19,KRTS 231455Z AUTO 18011KT 10SM OVC016 M01/M04 A2984 RMK AO2,M
BVU,2021-01-23 14:55,-114.8611,35.9475,671.00,41.00,30.20,65.16,0.00,0.00,0.00,29.85,M,10.00,M,CLR,M,M,M,M,M,M,M,M,M,M,M,M,M,M,41.00,KBVU 231455Z AUTO 00000KT 10SM CLR 05/M01 A2985 RMK AO2,M
BAM,2021-01-23 14:55,-116.8743,40.5990,1382.36,32.00,32.00,100.00,310.00,4.00,0.00,29.77,M,10.00,M,OVC,M,M,M,2400.00,M,M,M,M,M,M,M,M,M,M,27.42,KBAM 231455Z AUTO 31004KT 10SM OVC024 00/00 A2977 RMK AO1,M
HTH,2021-01-23 14:55,-118.6315,38.5448,1282.89,28.40,21.20,74.08,230.00,4.00,0.00,29.84,M,10.00,M,BKN,OVC,M,M,6000.00,7000.00,M,M,M,M,M,M,M,M,M,23.22,KHTH 231455Z AUTO 23004KT 10SM BKN060 OVC070 M02/M06 A2984 RMK A01,M
TPH,2021-01-23 14:56,-117.0904,38.0505,1654.00,24.10,17.10,74.27,130.00,3.00,0.00,29.77,1009.80,10.00,M,CLR,M,M,M,M,M,M,M,M,M,M,M,M,M,M,19.66,KTPH 231456Z AUTO 13003KT 10SM CLR M04/M08 A2977 RMK AO2 SLP098 T10441083 53010,M
EKO,2021-01-23 14:56,-115.7860,40.8242,1367.00,30.90,26.10,82.15,0.00,0.00,0.00,29.72,1007.60,10.00,M,OVC,M,M,M,2700.00,M,M,M,M,M,M,M,M,M,M,30.90,KEKO 231456Z AUTO 00000KT 10SM OVC027 M01/M03 A2972 RMK AO2 SLP076 60000 T10061033 53016,M
LAS,2021-01-23 14:56,-115.1634,36.0719,663.00,44.00,28.90,54.85,200.00,10.00,0.00,29.83,1010.00,10.00,M,BKN,M,M,M,15000.00,M,M,M,M,M,M,M,M,M,M,38.14,KLAS 231456Z 20010KT 10SM BKN150 07/M02 A2983 RMK AO2 SLP100 T00671017 51017,M
WMC,2021-01-23 14:56,-117.8072,40.9019,1315.00,32.00,28.00,84.98,360.00,11.00,T,29.79,1009.70,6.00,M,SCT,BKN,OVC,M,1300.00,2100.00,4500.00,M,-SN BR,M,M,M,M,M,M,22.47,KWMC 231456Z AUTO 36011KT 6SM -SN BR SCT013 BKN021 OVC045 00/M02 A2979 RMK AO2 SNB48 SLP097 P0000 60000 T00001022 51013 $,M
NFL,2021-01-23 14:56,-118.7010,39.4166,1199.00,32.00,30.00,92.22,270.00,10.00,0.03,29.81,1007.30,1.00,M,BKN,OVC,M,M,700.00,1300.00,M,M,-SN BR,M,M,M,M,M,M,22.97,KNFL 231456Z AUTO 27010KT 1SM -SN BR BKN007 OVC013 00/M01 A2981 RMK AO2 SLP073 P0003 60016 T00001011 53009,M
HND,2021-01-23 14:56,-115.1344,35.9729,742.79,41.00,28.90,61.79,220.00,12.00,0.00,29.85,1012.90,10.00,M,CLR,M,M,M,M,M,M,M,M,M,M,M,M,M,M,33.46,KHND 231456Z 22012KT 10SM CLR 05/M02 A2985 RMK AO2 SLP129 T00501017 53013,M
WMC,2021-01-23 15:04,-117.8072,40.9019,1315.00,32.00,28.00,84.98,360.00,11.00,0.01,29.79,M,5.00,M,BKN,OVC,M,M,1400.00,2100.00,M,M,-SN BR,M,M,M,M,M,M,22.47,KWMC 231504Z AUTO 36011KT 5SM -SN BR BKN014 OVC021 00/M02 A2979 RMK AO2 P0001 T00001022 $,M
NFL,2021-01-23 15:07,-118.7010,39.4166,1199.00,32.00,30.90,95.65,270.00,10.00,0.01,29.82,M,1.00,M,FEW,OVC,M,M,500.00,1300.00,M,M,-SN BR,M,M,M,M,M,M,22.97,KNFL 231507Z AUTO 27010KT 1SM -SN BR FEW005 OVC013 00/M01 A2982 RMK AO2 P0001 T00001006,M
05U,2021-01-23 15:15,-116.0051,39.6042,1811.23,28.40,23.00,79.92,0.00,0.00,0.00,29.75,M,1.50,M,M,M,M,M,M,M,M,M,BR,M,M,M,M,M,M,28.40,K05U 231515Z AUTO 00000KT 1 1/2SM BR M02/M05 A2975 RMK A01,M
RTS,2021-01-23 15:15,-119.8764,39.6682,1539.00,32.00,23.00,69.04,240.00,8.00,0.00,29.84,M,10.00,13.00,OVC,M,M,M,1700.00,M,M,M,M,M,M,M,M,M,M,24.11,KRTS 231515Z AUTO 24008G13KT 10SM OVC017 M00/M05 A2984 RMK AO2,M
WMC,2021-01-23 15:15,-117.8072,40.9019,1315.00,32.00,28.00,84.98,360.00,12.00,0.01,29.80,M,7.00,M,BKN,OVC,M,M,1600.00,2100.00,M,M,-SN,M,M,M,M,M,M,22.00,KWMC 231515Z AUTO 36012KT 7SM -SN BKN016 OVC021 00/M02 A2980 RMK AO2 P0001 T00001022 $,M
CXP,2021-01-23 15:15,-119.7326,39.1923,1431.00,28.40,26.60,92.86,0.00,0.00,0.00,29.85,M,4.00,M,SCT,BKN,BKN,M,1700.00,2200.00,2600.00,M,-SN,M,M,M,M,M,M,28.40,KCXP 231515Z AUTO 00000KT 4SM -SN SCT017 BKN022 BKN026 M02/M03 A2985 RMK AO2,M
BAM,2021-01-23 15:15,-116.8743,40.5990,1382.36,32.00,32.00,100.00,320.00,3.00,0.00,29.77,M,10.00,M,OVC,M,M,M,2400.00,M,M,M,M,M,M,M,M,M,M,28.69,KBAM 231515Z AUTO 32003KT 10SM OVC024 00/00 A2977 RMK AO1,M
MEV,2021-01-23 15:15,-119.7500,38.9963,1441.42,26.60,24.80,92.80,200.00,4.00,0.00,29.85,M,0.25,M,OVC,M,M,M,200.00,M,M,M,SN FZFG,M,M,M,M,M,M,21.11,KMEV 231515Z AUTO 20004KT 1/4SM SN FZFG OVC002 M03/M04 A2985 RMK AO2,M
BVU,2021-01-23 15:15,-114.8611,35.9475,671.00,41.00,28.40,60.54,0.00,0.00,0.00,29.86,M,10.00,M,CLR,M,M,M,M,M,M,M,M,M,M,M,M,M,M,41.00,KBVU 231515Z AUTO 00000KT 10SM CLR 05/M02 A2986 RMK AO2,M
HTH,2021-01-23 15:15,-118.6315,38.5448,1282.89,28.40,21.20,74.08,0.00,0.00,0.00,29.85,M,10.00,M,BKN,BKN,OVC,M,3400.00,4200.00,6000.00,M,M,M,M,M,M,M,M,28.40,KHTH 231515Z AUTO 00000KT 10SM BKN034 BKN042 OVC060 M02/M06 A2985 RMK A01,M
RTS,2021-01-23 15:35,-119.8764,39.6682,1539.00,30.20,24.80,80.07,350.00,10.00,0.00,29.85,M,10.00,M,BKN,OVC,M,M,2000.00,3300.00,M,M,M,M,M,M,M,M,M,20.71,KRTS 231535Z AUTO 35010KT 10SM BKN020 OVC033 M01/M04 A2985 RMK AO2,M
BAM,2021-01-23 15:35,-116.8743,40.5990,1382.36,32.00,32.00,100.00,320.00,4.00,0.00,29.79,M,10.00,M,OVC,M,M,M,2200.00,M,M,M,M,M,M,M,M,M,M,27.42,KBAM 231535Z AUTO 32004KT 10SM OVC022 00/00 A2979 RMK AO1,M
HTH,2021-01-23 15:35,-118.6315,38.5448,1282.89,30.20,23.00,74.26,250.00,3.00,0.00,29.86,M,5.00,M,SCT,BKN,BKN,M,3100.00,3600.00,4200.00,M,HZ,M,M,M,M,M,M,26.63,KHTH 231535Z AUTO 25003KT 5SM HZ SCT031 BKN036 BKN042 M01/M05 A2986 RMK A01,M
CXP,2021-01-23 15:35,-119.7326,39.1923,1431.00,28.40,26.60,92.86,0.00,0.00,0.00,29.86,M,10.00,M,FEW,SCT,OVC,M,500.00,1100.00,2400.00,M,M,M,M,M,M,M,M,28.40,KCXP 231535Z AUTO 00000KT 10SM FEW005 SCT011 OVC024 M02/M03 A2986 RMK AO2,M
05U,2021-01-23 15:35,-116.0051,39.6042,1811.23,28.40,24.80,86.18,0.00,0.00,0.00,29.76,M,2.00,M,M,M,M,M,M,M,M,M,BR,M,M,M,M,M,M,28.40,K05U 231535Z AUTO 00000KT 2SM BR M02/M04 A2976 RMK A01,M
MEV,2021-01-23 15:35,-119.7500,38.9963,1441.42,26.60,24.80,92.80,0.00,0.00,0.00,29.85,M,0.25,M,OVC,M,M,M,200.00,M,M,M,SN FZFG,M,M,M,M,M,M,26.60,KMEV 231535Z AUTO 00000KT 1/4SM SN FZFG OVC002 M03/M04 A2985 RMK AO2,M
EKO,2021-01-23 15:37,-115.7860,40.8242,1367.00,30.00,26.10,85.21,180.00,3.00,0.00,29.73,M,10.00,M,SCT,OVC,M,M,2500.00,4500.00,M,M,M,M,M,M,M,M,M,26.40,KEKO 231537Z AUTO 18003KT 10SM SCT025 OVC045 M01/M03 A2973 RMK AO2 T10111033,M
NFL,2021-01-23 15:42,-118.7010,39.4166,1199.00,32.00,30.90,95.65,270.00,7.00,0.01,29.83,M,0.75,M,FEW,SCT,OVC,M,400.00,800.00,1400.00,M,-SN BR,M,M,M,M,M,M,24.78,KNFL 231542Z AUTO 27007KT 3/4SM -SN BR FEW004 SCT008 OVC014 00/M01 A2983 RMK AO2 P0001 T00001006,M
NFL,2021-01-23 15:51,-118.7010,39.4166,1199.00,33.80,30.20,86.49,270.00,7.00,0.01,29.83,M,0.75,M,FEW,BKN,OVC,M,400.00,1600.00,2900.00,M,-SN BR,M,M,M,M,M,M,26.97,KNFL 231551Z AUTO 27007KT 3/4SM -SN BR FEW004 BKN016 OVC029 01/M01 A2983 RMK AO2 P0001,M
LOL,2021-01-23 15:53,-118.5701,40.0684,1192.43,33.00,30.90,91.51,0.00,0.00,0.00,29.82,1011.30,10.00,M,OVC,M,M,M,4000.00,M,M,M,M,M,M,M,M,M,M,33.10,KLOL 231553Z AUTO 00000KT 10SM OVC040 01/M01 A2982 RMK AO2 SLP113 T00061006,M
ELY,2021-01-23 15:53,-114.8453,39.2950,1909.00,28.90,24.10,82.00,220.00,5.00,0.00,29.72,1006.20,10.00,M,BKN,OVC,M,M,2800.00,5500.00,M,M,M,M,M,M,M,M,M,22.71,KELY 231553Z AUTO 22005KT 10SM BKN028 OVC055 M02/M04 A2972 RMK AO2 SLP062 T10171044,M
P68,2021-01-23 15:53,-116.0056,39.6014,1993.00,28.00,24.10,85.08,210.00,5.00,0.01,29.74,1006.80,M,M,M,M,M,M,M,M,M,M,M,M,M,M,M,M,M,21.64,KP68 231553Z AUTO 21005KT M02/M04 A2974 RMK AO1 SLP068 P0001 T10221044,M
DRA,2021-01-23 15:53,-116.0278,36.6206,1009.00,38.00,26.10,62.14,50.00,5.00,0.00,29.84,1009.20,10.00,M,CLR,M,M,M,M,M,M,M,M,M,M,M,M,M,M,33.40,KDRA 231553Z AUTO 05005KT 10SM CLR 03/M03 A2984 RMK AO2 SLP092 T00331033,M
VGT,2021-01-23 15:53,-115.1933,36.2111,667.00,43.00,26.10,50.98,270.00,3.00,0.00,29.81,1011.30,10.00,M,CLR,M,M,M,M,M,M,M,M,M,M,M,M,M,M,41.26,KVGT 231553Z 27003KT 10SM CLR 06/M03 A2981 RMK AO2 SLP113 T00611033,M
CXP,2021-01-23 15:55,-119.7326,39.1923,1431.00,28.40,26.60,92.86,0.00,0.00,0.00,29.86,M,10.00,M,FEW,OVC,M,M,500.00,1300.00,M,M,M,M,M,M,M,M,M,28.40,KCXP 231555Z AUTO 00000KT 10SM FEW005 OVC013 M02/M03 A2986 RMK AO2,M
BAM,2021-01-23 15:55,-116.8743,40.5990,1382.36,32.00,32.00,100.00,320.00,4.00,0.00,29.80,M,10.00,M,SCT,OVC,M,M,1900.00,2800.00,M,M,M,M,M,M,M,M,M,27.42,KBAM 231555Z AUTO 32004KT 10SM SCT019 OVC028 00/00 A2980 RMK AO1,M
05U,2021-01-23 15:55,-116.0051,39.6042,1811.23,28.40,24.80,86.18,220.00,3.00,0.00,29.77,M,1.75,M,M,M,M,M,M,M,M,M,BR,M,M,M,M,M,M,24.57,K05U 231555Z AUTO 22003KT 1 3/4SM BR M02/M04 A2977 RMK A01,M
MEV,2021-01-23 15:55,-119.7500,38.9963,1441.42,26.60,24.80,92.80,0.00,0.00,0.03,29.86,M,0.25,M,OVC,M,M,M,300.00,M,M,M,SN FZFG,M,M,M,M,M,M,26.60,KMEV 231555Z AUTO 00000KT 1/4SM SN FZFG OVC003 M03/M04 A2986 RMK AO2 P0003,M
RNO,2021-01-23 15:55,-119.7711,39.4839,1341.00,30.00,28.90,95.61,0.00,0.00,0.00,29.86,1011.60,10.00,M,FEW,BKN,OVC,M,600.00,2400.00,3500.00,M,M,M,M,M,M,M,M,30.00,KRNO 231555Z 00000KT 10SM FEW006 BKN024 OVC035 M01/M02 A2986 RMK AO2 SLP116 T10111017,M
RTS,2021-01-23 15:55,-119.8764,39.6682,1539.00,30.20,24.80,80.07,350.00,11.00,0.00,29.86,M,10.00,M,BKN,OVC,M,M,2100.00,3100.00,M,M,M,M,M,M,M,M,M,20.19,KRTS 231555Z AUTO 35011KT 10SM BKN021 OVC031 M01/M04 A2986 RMK AO2,M
BVU,2021-01-23 15:55,-114.8611,35.9475,671.00,39.20,30.20,69.88,0.00,0.00,0.00,29.87,M,10.00,M,CLR,M,M,M,M,M,M,M,M,M,M,M,M,M,M,39.20,KBVU 231555Z AUTO 00000KT 10SM CLR 04/M01 A2987 RMK AO2,M
HTH,2021-01-23 15:55,-118.6315,38.5448,1282.89,30.20,24.80,80.07,0.00,0.00,0.00,29.85,M,1.75,M,SCT,SCT,M,M,3100.00,4000.00,M,M,HZ,M,M,M,M,M,M,30.20,KHTH 231555Z AUTO 00000KT 1 3/4SM HZ SCT031 SCT040 M01/M04 A2985 RMK A01,M
WMC,2021-01-23 15:56,-117.8072,40.9019,1315.00,32.00,28.00,84.98,360.00,9.00,0.01,29.81,1010.50,10.00,M,FEW,OVC,M,M,2200.00,2700.00,M,M,M,M,M,M,M,M,M,23.51,KWMC 231556Z AUTO 36009KT 10SM FEW022 OVC027 00/M02 A2981 RMK AO2 SNE45 SLP105 P0001 T00001022 $,M
NFL,2021-01-23 15:56,-118.7010,39.4166,1199.00,33.00,30.90,91.51,260.00,7.00,0.01,29.83,1007.80,1.00,M,FEW,BKN,OVC,M,400.00,1600.00,2900.00,M,-SN BR,M,M,M,M,M,M,26.12,KNFL 231556Z AUTO 26007KT 1SM -SN BR FEW004 BKN016 OVC029 01/M01 A2983 RMK AO2 SLP078 P0001 T00061006,M
LAS,2021-01-23 15:56,-115.1634,36.0719,663.00,44.00,28.90,54.85,200.00,8.00,0.00,29.85,1010.40,10.00,M,BKN,M,M,M,15000.00,M,M,M,M,M,M,M,M,M,M,39.02,KLAS 231556Z 20008KT 10SM BKN150 07/M02 A2985 RMK AO2 SLP104 T00671017,M
HND,2021-01-23 15:56,-115.1344,35.9729,742.79,40.00,28.90,64.49,190.00,11.00,0.00,29.87,1013.50,10.00,M,CLR,M,M,M,M,M,M,M,M,M,M,M,M,M,M,32.45,KHND 231556Z 19011KT 10SM CLR 04/M02 A2987 RMK AO2 SLP135 T00441017,M
EKO,2021-01-23 15:56,-115.7860,40.8242,1367.00,32.00,24.10,72.30,360.00,3.00,0.00,29.74,1008.30,10.00,M,OVC,M,M,M,4400.00,M,M,M,M,M,M,M,M,M,M,28.69,KEKO 231556Z AUTO 36003KT 10SM OVC044 00/M04 A2974 RMK AO2 SLP083 T00001044,M
TPH,2021-01-23 15:56,-117.0904,38.0505,1654.00,14.00,12.90,95.28,M,3.00,0.00,29.80,1012.20,10.00,M,CLR,M,M,M,M,M,M,M,M,M,M,M,M,M,M,8.11,KTPH 231556Z AUTO VRB03KT 10SM CLR M10/M11 A2980 RMK AO2 SLP122 T11001106,M
NFL,2021-01-23 16:08,-118.7010,39.4166,1199.00,33.00,30.90,91.51,260.00,8.00,T,29.83,M,3.00,M,FEW,SCT,OVC,M,400.00,1300.00,2900.00,M,-SN BR,M,M,M,M,M,M,25.47,KNFL 231608Z AUTO 26008KT 3SM -SN BR FEW004 SCT013 OVC029 01/M01 A2983 RMK AO2 P0000 T00061006,M
BVU,2021-01-23 16:15,-114.8611,35.9475,671.00,42.80,33.80,70.28,0.00,0.00,0.00,29.87,M,10.00,M,CLR,M,M,M,M,M,M,M,M,M,M,M,M,M,M,42.80,KBVU 231615Z AUTO 00000KT 10SM CLR 06/01 A2987 RMK AO2,M
HTH,2021-01-23 16:15,-118.6315,38.5448,1282.89,28.40,26.60,92.86,0.00,0.00,0.00,29.86,M,1.50,M,SCT,SCT,M,M,600.00,2200.00,M,M,BR,M,M,M,M,M,M,28.40,KHTH 231615Z AUTO 00000KT 1 1/2SM BR SCT006 SCT022 M02/M03 A2986 RMK A01,M
BAM,2021-01-23 16:15,-116.8743,40.5990,1382.36,32.00,32.00,100.00,320.00,4.00,0.00,29.80,M,10.00,M,BKN,OVC,M,M,2100.00,2900.00,M,M,M,M,M,M,M,M,M,27.42,KBAM 231615Z AUTO 32004KT 10SM BKN021 OVC029 00/00 A2980 RMK AO1,M
05U,2021-01-23 16:15,-116.0051,39.6042,1811.23,28.40,24.80,86.18,0.00,0.00,0.00,29.77,M,3.00,M,M,M,M,M,M,M,M,M,HZ,M,M,M,M,M,M,28.40,K05U 231615Z AUTO 00000KT 3SM HZ M02/M04 A2977 RMK A01,M
RTS,2021-01-23 16:15,-119.8764,39.6682,1539.00,30.20,24.80,80.07,350.00,10.00,0.00,29.87,M,10.00,M,FEW,OVC,M,M,2200.00,2800.00,M,M,M,M,M,M,M,M,M,20.71,KRTS 231615Z AUTO 35010KT 10SM FEW022 OVC028 M01/M04 A2987 RMK AO2,M
CXP,2021-01-23 16:15,-119.7326,39.1923,1431.00,28.40,26.60,92.86,0.00,0.00,0.00,29.87,M,8.00,M,OVC,M,M,M,1700.00,M,M,M,-UP,M,M,M,M,M,M,28.40,KCXP 231615Z AUTO 00000KT 8SM -UP OVC017 M02/M03 A2987 RMK AO2,M
EKO,2021-01-23 16:15,-115.7860,40.8242,1367.00,30.90,25.00,78.48,310.00,3.00,0.00,29.75,M,10.00,M,BKN,BKN,OVC,M,2800.00,4200.00,4900.00,M,M,M,M,M,M,M,M,27.43,KEKO 231615Z AUTO 31003KT 10SM BKN028 BKN042 OVC049 M01/M04 A2975 RMK AO2 T10061039,M
MEV,2021-01-23 16:15,-119.7500,38.9963,1441.42,26.60,24.80,92.80,0.00,0.00,0.00,29.87,M,1.00,M,BKN,OVC,M,M,300.00,2700.00,M,M,-SN BR,M,M,M,M,M,M,26.60,KMEV 231615Z AUTO 00000KT 1SM -SN BR BKN003 OVC027 M03/M04 A2987 RMK AO2,M
NFL,2021-01-23 16:17,-118.7010,39.4166,1199.00,33.00,30.90,91.51,260.00,7.00,T,29.84,M,6.00,M,BKN,OVC,M,M,1300.00,2900.00,M,M,-SN BR,M,M,M,M,M,M,26.12,KNFL 231617Z AUTO 26007KT 6SM -SN BR BKN013 OVC029 01/M01 A2984 RMK AO2 P0000 T00061006,M
WMC,2021-01-23 16:20,-117.8072,40.9019,1315.00,32.00,27.00,81.55,350.00,9.00,0.00,29.82,M,10.00,M,SCT,OVC,M,M,2800.00,6000.00,M,M,M,M,M,M,M,M,M,23.51,KWMC 231620Z AUTO 35009KT 10SM SCT028 OVC060 00/M03 A2982 RMK AO2 T00001028 $,M
EKO,2021-01-23 16:25,-115.7860,40.8242,1367.00,30.90,26.10,82.15,250.00,4.00,0.00,29.76,M,10.00,M,OVC,M,M,M,3000.00,M,M,M,M,M,M,M,M,M,M,26.14,KEKO 231625Z AUTO 25004KT 10SM OVC030 M01/M03 A2976 RMK AO2 T10061033,M
05U,2021-01-23 16:35,-116.0051,39.6042,1811.23,30.20,24.80,80.07,240.00,4.00,0.00,29.78,M,5.00,M,M,M,M,M,M,M,M,M,HZ,M,M,M,M,M,M,25.32,K05U 231635Z AUTO 24004KT 5SM HZ M01/M04 A2978 RMK A01,M
BAM,2021-01-23 16:35,-116.8743,40.5990,1382.36,33.80,33.80,100.00,320.00,5.00,0.00,29.81,M,10.00,M,BKN,OVC,M,M,2300.00,3400.00,M,M,M,M,M,M,M,M,M,28.53,KBAM 231635Z AUTO 32005KT 10SM BKN023 OVC034 01/01 A2981 RMK AO1,M
MEV,2021-01-23 16:35,-119.7500,38.9963,1441.42,26.60,24.80,92.80,0.00,0.00,0.00,29.88,M,1.25,M,OVC,M,M,M,2400.00,M,M,M,-SN BR,M,M,M,M,M,M,26.60,KMEV 231635Z AUTO 00000KT 1 1/4SM -SN BR OVC024 M03/M04 A2988 RMK AO2,M
BVU,2021-01-23 16:35,-114.8611,35.9475,671.00,44.60,32.00,61.03,0.00,0.00,0.00,29.87,M,10.00,M,CLR,M,M,M,M,M,M,M,M,M,M,M,M,M,M,44.60,KBVU 231635Z AUTO 00000KT 10SM CLR 07/M00 A2987 RMK AO2,M
CXP,2021-01-23 16:35,-119.7326,39.1923,1431.00,30.20,26.60,86.28,M,4.00,0.00,29.88,M,9.00,M,OVC,M,M,M,1700.00,M,M,M,M,M,M,M,M,M,M,25.32,KCXP 231635Z AUTO VRB04KT 9SM OVC017 M01/M03 A2988 RMK AO2,M
RTS,2021-01-23 16:35,-119.8764,39.6682,1539.00,30.20,24.80,80.07,360.00,11.00,0.00,29.88,M,10.00,M,OVC,M,M,M,2800.00,M,M,M,-UP,M,M,M,M,M,M,20.19,KRTS 231635Z AUTO 36011KT 10SM -UP OVC028 M01/M04 A2988 RMK AO2,M
HTH,2021-01-23 16:35,-118.6315,38.5448,1282.89,30.20,26.60,86.28,0.00,0.00,0.00,29.87,M,1.75,M,SCT,M,M,M,600.00,M,M,M,BR,M,M,M,M,M,M,30.20,KHTH 231635Z AUTO 00000KT 1 3/4SM BR SCT006 M01/M03 A2987 RMK A01,M
NFL,2021-01-23 16:41,-118.7010,39.4166,1199.00,32.00,32.00,100.00,240.00,3.00,T,29.85,M,2.50,M,BKN,OVC,M,M,1400.00,2800.00,M,M,-SN BR,M,M,M,M,M,M,28.69,KNFL 231641Z AUTO 24003KT 2 1/2SM -SN BR BKN014 OVC028 00/00 A2985 RMK AO2 P0000 T00000000,M
ELY,2021-01-23 16:49,-114.8453,39.2950,1909.00,30.20,21.20,68.83,170.00,7.00,0.00,29.75,M,10.00,M,SCT,BKN,OVC,M,2600.00,3100.00,4300.00,M,M,M,M,M,M,M,M,22.59,KELY 231649Z AUTO 17007KT 10SM SCT026 BKN031 OVC043 M01/M06 A2975 RMK AO2,M
VGT,2021-01-23 16:53,-115.1933,36.2111,667.00,47.00,26.10,43.95,350.00,5.00,0.00,29.83,1011.60,10.00,M,CLR,M,M,M,M,M,M,M,M,M,M,M,M,M,M,44.09,KVGT 231653Z 35005KT 10SM CLR 08/M03 A2983 RMK AO2 SLP116 T00831033,M
ELY,2021-01-23 16:53,-114.8453,39.2950,1909.00,30.00,21.90,71.48,180.00,7.00,0.00,29.76,1007.50,10.00,M,SCT,BKN,OVC,M,2600.00,3100.00,4300.00,M,M,M,M,M,M,M,M,22.34,KELY 231653Z AUTO 18007KT 10SM SCT026 BKN031 OVC043 M01/M06 A2976 RMK AO2 SLP075 T10111056,M
LOL,2021-01-23 16:53,-118.5701,40.0684,1192.43,37.00,30.90,78.37,60.00,3.00,0.00,29.85,1011.70,10.00,M,SCT,BKN,OVC,M,3400.00,6000.00,7000.00,M,M,M,M,M,M,M,M,34.40,KLOL 231653Z AUTO 06003KT 10SM SCT034 BKN060 OVC070 03/M01 A2985 RMK AO2 SLP117 T00281006,M
DRA,2021-01-23 16:53,-116.0278,36.6206,1009.00,42.00,26.10,52.78,0.00,0.00,0.00,29.86,1009.70,10.00,M,CLR,M,M,M,M,M,M,M,M,M,M,M,M,M,M,42.10,KDRA 231653Z AUTO 00000KT 10SM CLR 06/M03 A2986 RMK AO2 SLP097 T00561033,M
P68,2021-01-23 16:53,-116.0056,39.6014,1993.00,28.00,24.10,85.08,250.00,3.00,0.00,29.77,1008.00,M,M,M,M,M,M,M,M,M,M,M,M,M,M,M,M,M,24.12,KP68 231653Z AUTO 25003KT M02/M04 A2977 RMK AO1 SLP080 T10221044,M
EKO,2021-01-23 16:54,-115.7860,40.8242,1367.00,30.20,28.40,92.92,210.00,5.05,M,29.78,M,2.00,M,OVC,M,M,M,3198.00,M,M,M,-SN BR,M,M,M,M,M,M,24.21,SPECI KEKO 231654Z 21005KT 2SM -SN BR OVC032 M01/M02 A2978 RMK AO2 SNB47 P0000 FIBI,M
BAM,2021-01-23 16:55,-116.8743,40.5990,1382.36,33.80,33.80,100.00,320.00,4.00,0.00,29.82,M,10.00,M,SCT,BKN,OVC,M,2500.00,3400.00,4300.00,M,M,M,M,M,M,M,M,29.52,KBAM 231655Z AUTO 32004KT 10SM SCT025 BKN034 OVC043 01/01 A2982 RMK AO1,M
05U,2021-01-23 16:55,-116.0051,39.6042,1811.23,28.40,23.00,79.92,0.00,0.00,0.02,29.79,M,5.00,M,M,M,M,M,M,M,M,M,HZ,M,M,M,M,M,M,28.40,K05U 231655Z AUTO 00000KT 5SM HZ M02/M05 A2979 RMK A01 P0002,M
RTS,2021-01-23 16:55,-119.8764,39.6682,1539.00,30.20,24.80,80.07,350.00,11.00,0.00,29.88,M,10.00,M,SCT,SCT,OVC,M,2800.00,3400.00,5000.00,M,-UP,M,M,M,M,M,M,20.19,KRTS 231655Z AUTO 35011KT 10SM -UP SCT028 SCT034 OVC050 M01/M04 A2988 RMK AO2,M
BVU,2021-01-23 16:55,-114.8611,35.9475,671.00,46.40,28.40,49.24,0.00,0.00,0.00,29.88,M,10.00,M,CLR,M,M,M,M,M,M,M,M,M,M,M,M,M,M,46.40,KBVU 231655Z AUTO 00000KT 10SM CLR 08/M02 A2988 RMK AO2,M
CXP,2021-01-23 16:55,-119.7326,39.1923,1431.00,30.20,26.60,86.28,0.00,0.00,0.00,29.89,M,9.00,M,OVC,M,M,M,1800.00,M,M,M,-UP,M,M,M,M,M,M,30.20,KCXP 231655Z AUTO 00000KT 9SM -UP OVC018 M01/M03 A2989 RMK AO2,M
RNO,2021-01-23 16:55,-119.7711,39.4839,1341.00,33.00,27.00,78.03,350.00,5.00,0.00,29.88,1012.40,10.00,M,FEW,BKN,OVC,M,1500.00,2500.00,3500.00,M,M,M,M,M,M,M,M,27.70,KRNO 231655Z 35005KT 10SM FEW015 BKN025 OVC035 01/M03 A2988 RMK AO2 SLP124 SH VC SE THRU W T00061028,M
HTH,2021-01-23 16:55,-118.6315,38.5448,1282.89,30.20,28.40,92.92,0.00,0.00,0.00,29.88,M,1.75,M,SCT,M,M,M,500.00,M,M,M,BR,M,M,M,M,M,M,30.20,KHTH 231655Z AUTO 00000KT 1 3/4SM BR SCT005 M01/M02 A2988 RMK A01,M
MEV,2021-01-23 16:55,-119.7500,38.9963,1441.42,26.60,24.80,92.80,140.00,3.00,0.01,29.88,M,1.50,M,OVC,M,M,M,2200.00,M,M,M,-SN BR,M,M,M,M,M,M,22.52,KMEV 231655Z AUTO 14003KT 1 1/2SM -SN BR OVC022 M03/M04 A2988 RMK AO2 P0001 VIS 3/4V2 1/2,M
LAS,2021-01-23 16:56,-115.1634,36.0719,663.00,46.00,28.00,49.18,200.00,5.00,0.00,29.87,1011.10,10.00,M,BKN,BKN,M,M,14000.00,22000.00,M,M,M,M,M,M,M,M,M,43.02,KLAS 231656Z 20005KT 10SM BKN140 BKN220 08/M02 A2987 RMK AO2 SLP111 T00781022,M
WMC,2021-01-23 16:56,-117.8072,40.9019,1315.00,30.90,27.00,85.26,340.00,10.00,0.00,29.84,1011.50,10.00,M,OVC,M,M,M,6000.00,M,M,M,M,M,M,M,M,M,M,21.59,KWMC 231656Z AUTO 34010KT 10SM OVC060 M01/M03 A2984 RMK AO2 SLP115 T10061028 $,M
NFL,2021-01-23 16:56,-118.7010,39.4166,1199.00,32.00,30.90,95.65,240.00,7.00,T,29.85,1008.50,2.50,M,SCT,OVC,M,M,1200.00,2300.00,M,M,-SN BR,M,M,M,M,M,M,24.78,KNFL 231656Z AUTO 24007KT 2 1/2SM -SN BR SCT012 OVC023 00/M01 A2985 RMK AO2 SLP085 P0000 T00001006,M
HND,2021-01-23 16:56,-115.1344,35.9729,742.79,43.00,30.00,59.83,190.00,11.00,0.00,29.88,1013.70,10.00,M,CLR,M,M,M,M,M,M,M,M,M,M,M,M,M,M,36.37,KHND 231656Z 19011KT 10SM CLR 06/M01 A2988 RMK AO2 SLP137 T00611011,M
EKO,2021-01-23 16:56,-115.7860,40.8242,1367.00,30.90,28.00,88.84,210.00,4.00,T,29.78,1009.70,1.75,M,FEW,OVC,M,M,2800.00,3200.00,M,M,-SN BR,M,M,M,M,M,M,26.14,KEKO 231656Z AUTO 21004KT 1 3/4SM -SN BR FEW028 OVC032 M01/M02 A2978 RMK AO2 SNB47 SLP097 P0000 T10061022,M
TPH,2021-01-23 16:56,-117.0904,38.0505,1654.00,19.00,15.10,84.49,120.00,6.00,0.00,29.83,1012.40,10.00,M,CLR,M,M,M,M,M,M,M,M,M,M,M,M,M,M,9.87,KTPH 231656Z AUTO 12006KT 10SM CLR M07/M09 A2983 RMK AO2 SLP124 T10721094,M
ELY,2021-01-23 17:14,-114.8453,39.2950,1909.00,30.20,21.20,68.83,160.00,10.00,0.00,29.76,M,10.00,M,BKN,BKN,OVC,M,2700.00,3400.00,4300.00,M,M,M,M,M,M,M,M,20.71,KELY 231714Z AUTO 16010KT 10SM BKN027 BKN034 OVC043 M01/M06 A2976,M
RTS,2021-01-23 17:15,-119.8764,39.6682,1539.00,32.00,24.80,74.44,340.00,10.00,0.00,29.88,M,10.00,M,OVC,M,M,M,5000.00,M,M,M,M,M,M,M,M,M,M,22.97,KRTS 231715Z AUTO 34010KT 10SM OVC050 M00/M04 A2988 RMK AO2,M
HTH,2021-01-23 17:15,-118.6315,38.5448,1282.89,30.20,28.40,92.92,0.00,0.00,0.00,29.88,M,1.00,M,CLR,M,M,M,M,M,M,M,BR,M,M,M,M,M,M,30.20,KHTH 231715Z AUTO 00000KT 1SM BR CLR M01/M02 A2988 RMK A01,M
MEV,2021-01-23 17:15,-119.7500,38.9963,1441.42,26.60,24.80,92.80,0.00,0.00,0.00,29.89,M,2.00,M,OVC,M,M,M,2100.00,M,M,M,-SN BR,M,M,M,M,M,M,26.60,KMEV 231715Z AUTO 00000KT 2SM -SN BR OVC021 M03/M04 A2989 RMK AO2 VIS 1 1/2V3,M
CXP,2021-01-23 17:15,-119.7326,39.1923,1431.00,30.20,26.60,86.28,0.00,0.00,0.00,29.89,M,7.00,M,OVC,M,M,M,1900.00,M,M,M,-UP,M,M,M,M,M,M,30.20,KCXP 231715Z AUTO 00000KT 7SM -UP OVC019 M01/M03 A2989 RMK AO2,M
BAM,2021-01-23 17:15,-116.8743,40.5990,1382.36,33.80,33.80,100.00,320.00,3.00,0.00,29.83,M,10.00,M,BKN,OVC,M,M,2300.00,4000.00,M,M,M,M,M,M,M,M,M,30.75,KBAM 231715Z AUTO 32003KT 10SM BKN023 OVC040 01/01 A2983 RMK AO1,M
05U,2021-01-23 17:15,-116.0051,39.6042,1811.23,30.20,23.00,74.26,0.00,0.00,0.00,29.80,M,10.00,M,M,M,M,M,M,M,M,M,M,M,M,M,M,M,M,30.20,K05U 231715Z AUTO 00000KT 10SM M01/M05 A2980 RMK A01,M
BVU,2021-01-23 17:15,-114.8611,35.9475,671.00,48.20,28.40,46.02,0.00,0.00,0.00,29.89,M,10.00,M,CLR,M,M,M,M,M,M,M,M,M,M,M,M,M,M,48.20,KBVU 231715Z AUTO 00000KT 10SM CLR 09/M02 A2989 RMK AO2,M
EKO,2021-01-23 17:19,-115.7860,40.8242,1367.00,30.90,28.00,88.84,220.00,4.00,T,29.79,M,1.75,M,BKN,OVC,M,M,2700.00,3800.00,M,M,-SN BR,M,M,M,M,M,M,26.14,KEKO 231719Z AUTO 22004KT 1 3/4SM -SN BR BKN027 OVC038 M01/M02 A2979 RMK AO2 P0000 T10061022,M
EKO,2021-01-23 17:24,-115.7860,40.8242,1367.00,30.90,28.00,88.84,200.00,4.00,T,29.79,M,3.00,M,SCT,OVC,M,M,2700.00,3800.00,M,M,-SN BR,M,M,M,M,M,M,26.14,KEKO 231724Z AUTO 20004KT 3SM -SN BR SCT027 OVC038 M01/M02 A2979 RMK AO2 P0000 T10061022,M
CXP,2021-01-23 17:35,-119.7326,39.1923,1431.00,30.20,26.60,86.28,170.00,5.00,0.00,29.89,M,9.00,M,BKN,OVC,M,M,1800.00,2400.00,M,M,M,M,M,M,M,M,M,24.26,KCXP 231735Z AUTO 17005KT 9SM BKN018 OVC024 M01/M03 A2989 RMK AO2,M
05U,2021-01-23 17:35,-116.0051,39.6042,1811.23,32.00,23.00,69.04,0.00,0.00,0.00,29.81,M,10.00,M,M,M,M,M,M,M,M,M,M,M,M,M,M,M,M,32.00,K05U 231735Z AUTO 00000KT 10SM M00/M05 A2981 RMK A01,M
HTH,2021-01-23 17:35,-118.6315,38.5448,1282.89,30.20,30.20,100.00,0.00,0.00,0.00,29.89,M,3.00,M,FEW,FEW,M,M,2900.00,3900.00,M,M,BR,M,M,M,M,M,M,30.20,KHTH 231735Z AUTO 00000KT 3SM BR FEW029 FEW039 M01/M01 A2989 RMK A01,M
BAM,2021-01-23 17:35,-116.8743,40.5990,1382.36,33.80,33.80,100.00,320.00,4.00,0.00,29.84,M,10.00,M,BKN,BKN,OVC,M,2100.00,2700.00,4000.00,M,M,M,M,M,M,M,M,29.52,KBAM 231735Z AUTO 32004KT 10SM BKN021 BKN027 OVC040 01/01 A2984 RMK AO1,M
BVU,2021-01-23 17:35,-114.8611,35.9475,671.00,48.20,28.40,46.02,200.00,7.00,0.00,29.90,M,10.00,M,CLR,M,M,M,M,M,M,M,M,M,M,M,M,M,M,44.53,KBVU 231735Z AUTO 20007KT 10SM CLR 09/M02 A2990 RMK AO2,M
RTS,2021-01-23 17:35,-119.8764,39.6682,1539.00,32.00,23.00,69.04,340.00,12.00,0.00,29.89,M,10.00,M,OVC,M,M,M,4900.00,M,M,M,M,M,M,M,M,M,M,22.00,KRTS 231735Z AUTO 34012KT 10SM OVC049 00/M05 A2989 RMK AO2,M
MEV,2021-01-23 17:35,-119.7500,38.9963,1441.42,26.60,24.80,92.80,0.00,0.00,0.00,29.90,M,1.75,M,OVC,M,M,M,2100.00,M,M,M,-SN BR,M,M,M,M,M,M,26.60,KMEV 231735Z AUTO 00000KT 1 3/4SM -SN BR OVC021 M03/M04 A2990 RMK AO2 VIS 1 1/4V2 1/2,M
WMC,2021-01-23 17:39,-117.8072,40.9019,1315.00,33.00,27.00,78.03,340.00,10.00,0.00,29.86,M,10.00,M,BKN,BKN,M,M,2100.00,7000.00,M,M,M,M,M,M,M,M,M,24.35,KWMC 231739Z AUTO 34010KT 10SM BKN021 BKN070 01/M03 A2986 RMK AO2 T00061028 $,M
ELY,2021-01-23 17:49,-114.8453,39.2950,1909.00,30.20,21.20,68.83,180.00,9.00,0.00,29.78,M,10.00,M,SCT,BKN,OVC,M,2900.00,4000.00,4700.00,M,M,M,M,M,M,M,M,21.28,KELY 231749Z AUTO 18009KT 10SM SCT029 BKN040 OVC047 M01/M06 A2978 RMK AO2,M
VGT,2021-01-23 17:53,-115.1933,36.2111,667.00,50.00,26.10,39.14,350.00,3.00,0.00,29.84,1011.80,10.00,M,CLR,M,M,M,M,M,M,M,M,M,M,M,M,M,M,50.00,KVGT 231753Z 35003KT 10SM CLR 10/M03 A2984 RMK AO2 SLP118 T01001033 10100 20050 51012,M
P68,2021-01-23 17:53,-116.0056,39.6014,1993.00,30.00,24.10,78.40,240.00,8.00,0.00,29.80,1008.80,M,M,M,M,M,M,M,M,M,M,M,M,M,M,M,M,M,21.65,KP68 231753Z AUTO 24008KT M01/M04 A2980 RMK AO1 SLP088 60001 T10111044 11006 21028 53024,M
ELY,2021-01-23 17:53,-114.8453,39.2950,1909.00,30.90,21.90,68.91,M,4.00,0.00,29.78,1008.30,10.00,M,FEW,BKN,OVC,M,2900.00,4500.00,6000.00,M,M,M,M,M,M,M,M,26.14,KELY 231753Z AUTO VRB04KT 10SM FEW029 BKN045 OVC060 M01/M06 A2978 RMK AO2 SLP083 T10061056 11006 21044 52007,M
DRA,2021-01-23 17:53,-116.0278,36.6206,1009.00,43.00,26.10,50.98,250.00,3.00,0.00,29.87,1010.30,10.00,M,CLR,M,M,M,M,M,M,M,M,M,M,M,M,M,M,41.26,KDRA 231753Z AUTO 25003KT 10SM CLR 06/M03 A2987 RMK AO2 SLP103 T00611033 10067 20000 51013,M
LOL,2021-01-23 17:53,-118.5701,40.0684,1192.43,36.00,32.00,85.23,0.00,0.00,0.00,29.88,1012.90,10.00,M,BKN,BKN,OVC,M,3000.00,3600.00,7000.00,M,M,M,M,M,M,M,M,36.00,KLOL 231753Z AUTO 00000KT 10SM BKN030 BKN036 OVC070 02/00 A2988 RMK AO2 SLP129 60000 T00220000 10028 21006 53022,M
RTS,2021-01-23 17:55,-119.8764,39.6682,1539.00,32.00,24.80,74.44,20.00,11.00,0.00,29.90,M,10.00,M,OVC,M,M,M,4800.00,M,M,M,M,M,M,M,M,M,M,22.47,KRTS 231755Z AUTO 02011KT 10SM OVC048 M00/M04 A2990 RMK AO2,M
BVU,2021-01-23 17:55,-114.8611,35.9475,671.00,48.20,28.40,46.02,190.00,6.00,0.00,29.89,M,10.00,M,CLR,M,M,M,M,M,M,M,M,M,M,M,M,M,M,45.04,KBVU 231755Z AUTO 19006KT 10SM CLR 09/M02 A2989 RMK AO2,M
CXP,2021-01-23 17:55,-119.7326,39.1923,1431.00,32.00,24.80,74.44,M,3.00,0.00,29.90,M,10.00,10.00,BKN,OVC,M,M,1800.00,2500.00,M,M,M,M,M,M,M,M,M,28.69,KCXP 231755Z AUTO VRB03G10KT 10SM BKN018 OVC025 00/M04 A2990 RMK AO2,M
05U,2021-01-23 17:55,-116.0051,39.6042,1811.23,32.00,23.00,69.04,260.00,8.00,0.02,29.82,M,10.00,M,M,M,M,M,M,M,M,M,M,M,M,M,M,M,M,24.11,K05U 231755Z AUTO 26008KT 10SM M00/M05 A2982 RMK A01 P0002,M
RNO,2021-01-23 17:55,-119.7711,39.4839,1341.00,34.00,27.00,75.26,330.00,8.00,0.00,29.89,1012.90,10.00,M,FEW,BKN,OVC,M,2500.00,4000.00,5500.00,M,M,M,M,M,M,M,M,26.58,KRNO 231755Z 33008KT 10SM FEW025 BKN040 OVC055 01/M03 A2989 RMK AO2 SLP129 4/001 60004 T00111028 10011 21017 51015,1
HTH,2021-01-23 17:55,-118.6315,38.5448,1282.89,30.20,30.20,100.00,0.00,0.00,0.00,29.90,M,1.75,M,FEW,SCT,SCT,M,400.00,1600.00,2800.00,M,BR,M,M,M,M,M,M,30.20,KHTH 231755Z AUTO 00000KT 1 3/4SM BR FEW004 SCT016 SCT028 M01/M01 A2990 RMK A01,M
BAM,2021-01-23 17:55,-116.8743,40.5990,1382.36,33.80,33.80,100.00,310.00,5.00,0.00,29.85,M,10.00,M,BKN,OVC,M,M,1900.00,2700.00,M,M,M,M,M,M,M,M,M,28.53,KBAM 231755Z AUTO 31005KT 10SM BKN019 OVC027 01/01 A2985 RMK AO1,M
MEV,2021-01-23 17:55,-119.7500,38.9963,1441.42,28.40,24.80,86.18,120.00,5.00,0.00,29.90,M,3.00,M,OVC,M,M,M,2100.00,M,M,M,-SN BR,M,M,M,M,M,M,22.12,KMEV 231755Z AUTO 12005KT 3SM -SN BR OVC021 M02/M04 A2990 RMK AO2,M
NFL,2021-01-23 17:56,-118.7010,39.4166,1199.00,33.00,32.00,95.67,280.00,3.00,0.01,29.87,1009.20,2.50,M,SCT,OVC,M,M,1000.00,2000.00,M,M,-SN BR,M,M,M,M,M,M,29.95,KNFL 231756Z 28003KT 2 1/2SM -SN BR SCT010 OVC020 01/00 A2987 RMK AO2 SLP092 IR// 4/031 933003 P0001 60018 T00060000 10006 21011 53014,31
HND,2021-01-23 17:56,-115.1344,35.9729,742.79,48.00,28.90,47.32,190.00,11.00,0.00,29.89,1014.10,10.00,M,CLR,M,M,M,M,M,M,M,M,M,M,M,M,M,M,42.69,KHND 231756Z 19011KT 10SM CLR 09/M02 A2989 RMK AO2 SLP141 T00891017 10089 20039 53013,M
TPH,2021-01-23 17:56,-117.0904,38.0505,1654.00,21.90,18.00,84.68,0.00,0.00,0.00,29.85,1013.20,10.00,M,CLR,M,M,M,M,M,M,M,M,M,M,M,M,M,M,21.90,KTPH 231756Z AUTO 00000KT 10SM CLR M06/M08 A2985 RMK AO2 SLP132 T10561078 11017 21100 51021,M
LAS,2021-01-23 17:56,-115.1634,36.0719,663.00,48.00,28.00,45.61,170.00,4.00,0.00,29.87,1011.40,10.00,M,BKN,BKN,M,M,14000.00,22000.00,M,M,M,M,M,M,M,M,M,46.10,KLAS 231756Z 17004KT 10SM BKN140 BKN220 09/M02 A2987 RMK AO2 SLP114 T00891022 10094 20061 51013,M
WMC,2021-01-23 17:56,-117.8072,40.9019,1315.00,33.00,27.00,78.03,350.00,11.00,0.00,29.87,1012.40,10.00,M,SCT,M,M,M,2100.00,M,M,M,M,M,M,M,M,M,M,23.86,KWMC 231756Z AUTO 35011KT 10SM SCT021 01/M03 A2987 RMK AO2 SLP124 60001 T00061028 10011 21006 53022 $,M
EKO,2021-01-23 17:56,-115.7860,40.8242,1367.00,32.00,28.90,88.17,0.00,0.00,0.01,29.80,1010.70,10.00,M,FEW,BKN,OVC,M,3500.00,4200.00,6500.00,M,M,M,M,M,M,M,M,32.00,KEKO 231756Z AUTO 00000KT 10SM FEW035 BKN042 OVC065 00/M02 A2980 RMK AO2 SNE44 SLP107 P0001 60001 T00001017 10000 21011 53025,M
05U,2021-01-23 18:15,-116.0051,39.6042,1811.23,32.00,23.00,69.04,260.00,7.00,0.00,29.83,M,9.00,M,M,M,M,M,M,M,M,M,M,M,M,M,M,M,M,24.78,K05U 231815Z AUTO 26007KT 9SM 00/M05 A2983 RMK A01,M
MEV,2021-01-23 18:15,-119.7500,38.9963,1441.42,28.40,26.60,92.86,120.00,4.00,0.00,29.91,M,7.00,M,OVC,M,M,M,2100.00,M,M,M,-SN,M,M,M,M,M,M,23.22,KMEV 231815Z AUTO 12004KT 7SM -SN OVC021 M02/M03 A2991 RMK AO2,M
RTS,2021-01-23 18:15,-119.8764,39.6682,1539.00,32.00,24.80,74.44,350.00,10.00,0.00,29.90,M,10.00,16.00,BKN,OVC,M,M,4600.00,5500.00,M,M,M,M,M,M,M,M,M,22.97,KRTS 231815Z AUTO 35010G16KT 10SM BKN046 OVC055 00/M04 A2990 RMK AO2,M
CXP,2021-01-23 18:15,-119.7326,39.1923,1431.00,32.00,26.60,80.22,320.00,4.00,0.00,29.91,M,10.00,M,OVC,M,M,M,1900.00,M,M,M,M,M,M,M,M,M,M,27.42,KCXP 231815Z AUTO 32004KT 10SM OVC019 M00/M03 A2991 RMK AO2,M
BVU,2021-01-23 18:15,-114.8611,35.9475,671.00,50.00,28.40,43.03,180.00,5.00,0.00,29.90,M,10.00,M,CLR,M,M,M,M,M,M,M,M,M,M,M,M,M,M,50.00,KBVU 231815Z AUTO 18005KT 10SM CLR 10/M02 A2990 RMK AO2,M
HTH,2021-01-23 18:15,-118.6315,38.5448,1282.89,30.20,30.20,100.00,0.00,0.00,0.00,29.90,M,0.75,M,BKN,BKN,BKN,M,400.00,1600.00,2600.00,M,BR,M,M,M,M,M,M,30.20,KHTH 231815Z AUTO 00000KT 3/4SM BR BKN004 BKN016 BKN026 M01/M01 A2990 RMK A01,M
BAM,2021-01-23 18:15,-116.8743,40.5990,1382.36,33.80,33.80,100.00,310.00,3.00,0.00,29.86,M,10.00,M,SCT,BKN,OVC,M,1700.00,2900.00,4400.00,M,M,M,M,M,M,M,M,30.75,KBAM 231815Z AUTO 31003KT 10SM SCT017 BKN029 OVC044 01/01 A2986 RMK AO1,M
WMC,2021-01-23 18:24,-117.8072,40.9019,1315.00,34.00,28.00,78.43,350.00,11.00,0.00,29.87,M,10.00,M,BKN,M,M,M,2800.00,M,M,M,M,M,M,M,M,M,M,24.99,KWMC 231824Z AUTO 35011KT 10SM BKN028 01/M02 A2987 RMK AO2 T00111022 $,M
WMC,2021-01-23 18:31,-117.8072,40.9019,1315.00,36.00,28.00,72.43,350.00,11.00,0.00,29.87,M,10.00,M,SCT,M,M,M,2700.00,M,M,M,M,M,M,M,M,M,M,27.52,KWMC 231831Z AUTO 35011KT 10SM SCT027 02/M02 A2987 RMK AO2 T00221022 $,M
MEV,2021-01-23 18:35,-119.7500,38.9963,1441.42,30.20,26.60,86.28,130.00,4.00,0.00,29.90,M,9.00,M,OVC,M,M,M,2100.00,M,M,M,-SN,M,M,M,M,M,M,25.32,KMEV 231835Z AUTO 13004KT 9SM -SN OVC021 M01/M03 A2990 RMK AO2,M
HTH,2021-01-23 18:35,-118.6315,38.5448,1282.89,30.20,30.20,100.00,0.00,0.00,0.00,29.90,M,1.00,M,BKN,M,M,M,400.00,M,M,M,BR,M,M,M,M,M,M,30.20,KHTH 231835Z AUTO 00000KT 1SM BR BKN004 M01/M01 A2990 RMK A01,M
CXP,2021-01-23 18:35,-119.7326,39.1923,1431.00,32.00,26.60,80.22,M,3.00,0.00,29.91,M,10.00,M,SCT,BKN,OVC,M,2000.00,4800.00,5500.00,M,M,M,M,M,M,M,M,28.69,KCXP 231835Z AUTO VRB03KT 10SM SCT020 BKN048 OVC055 M00/M03 A2991 RMK AO2,M
RTS,2021-01-23 18:35,-119.8764,39.6682,1539.00,33.80,24.80,69.25,350.00,12.00,0.00,29.90,M,10.00,M,OVC,M,M,M,5500.00,M,M,M,M,M,M,M,M,M,M,24.29,KRTS 231835Z AUTO 35012KT 10SM OVC055 01/M04 A2990 RMK AO2,M
05U,2021-01-23 18:35,-116.0051,39.6042,1811.23,32.00,23.00,69.04,240.00,7.00,0.00,29.83,M,9.00,M,M,M,M,M,M,M,M,M,M,M,M,M,M,M,M,24.78,K05U 231835Z AUTO 24007KT 9SM 00/M05 A2983 RMK A01,M
BAM,2021-01-23 18:35,-116.8743,40.5990,1382.36,33.80,33.80,100.00,320.00,3.00,0.00,29.87,M,7.00,M,SCT,OVC,M,M,1900.00,2800.00,M,M,M,M,M,M,M,M,M,30.75,KBAM 231835Z AUTO 32003KT 7SM SCT019 OVC028 01/01 A2987 RMK AO1,M
BVU,2021-01-23 18:35,-114.8611,35.9475,671.00,50.00,28.40,43.03,M,5.00,0.00,29.89,M,10.00,M,CLR,M,M,M,M,M,M,M,M,M,M,M,M,M,M,50.00,KBVU 231835Z AUTO VRB05KT 10SM CLR 10/M02 A2989 RMK AO2,M
EKO,2021-01-23 18:36,-115.7860,40.8242,1367.00,32.00,28.00,84.98,220.00,5.00,0.00,29.82,M,8.00,M,BKN,OVC,M,M,2400.00,3300.00,M,M,M,M,M,M,M,M,M,26.40,KEKO 231836Z AUTO 22005KT 8SM BKN024 OVC033 00/M02 A2982 RMK AO2 T00001022,M
ELY,2021-01-23 18:48,-114.8453,39.2950,1909.00,32.00,24.80,74.44,150.00,5.00,T,29.78,M,2.00,M,BKN,BKN,OVC,M,2400.00,4100.00,4700.00,M,-SN,M,M,M,M,M,M,26.40,KELY 231848Z AUTO 15005KT 2SM -SN BKN024 BKN041 OVC047 00/M04 A2978 RMK AO2 SNB14 P0000,M
LOL,2021-01-23 18:53,-118.5701,40.0684,1192.43,39.00,32.00,75.75,M,4.00,0.00,29.89,1013.20,10.00,M,FEW,OVC,M,M,5500.00,7000.00,M,M,M,M,M,M,M,M,M,35.59,KLOL 231853Z AUTO VRB04KT 10SM FEW055 OVC070 04/00 A2989 RMK AO2 SLP132 T00390000,M
P68,2021-01-23 18:53,-116.0056,39.6014,1993.00,30.90,24.10,75.59,240.00,7.00,0.00,29.80,1009.00,M,M,M,M,M,M,M,M,M,M,M,M,M,M,M,M,M,23.44,KP68 231853Z AUTO 24007KT M01/M04 A2980 RMK AO1 SLP090 T10061044,M
ELY,2021-01-23 18:53,-114.8453,39.2950,1909.00,32.00,24.10,72.30,140.00,5.00,T,29.78,1008.20,3.00,M,BKN,OVC,M,M,2500.00,3800.00,M,M,-SN,M,M,M,M,M,M,26.40,KELY 231853Z AUTO 14005KT 3SM -SN BKN025 OVC038 00/M04 A2978 RMK AO2 SNB14 SLP082 P0000 T00001044,M
DRA,2021-01-23 18:53,-116.0278,36.6206,1009.00,46.00,25.00,43.44,0.00,0.00,0.00,29.85,1009.60,10.00,M,FEW,M,M,M,8000.00,M,M,M,M,M,M,M,M,M,M,46.00,KDRA 231853Z AUTO 00000KT 10SM FEW080 08/M04 A2985 RMK AO2 SLP096 T00781039,M
VGT,2021-01-23 18:53,-115.1933,36.2111,667.00,50.00,26.10,39.14,0.00,0.00,0.00,29.84,1011.90,10.00,M,CLR,M,M,M,M,M,M,M,M,M,M,M,M,M,M,50.00,KVGT 231853Z 00000KT 10SM CLR 10/M03 A2984 RMK AO2 SLP119 T01001033,M
EKO,2021-01-23 18:54,-115.7860,40.8242,1367.00,32.00,28.40,86.39,220.00,5.05,M,29.81,M,2.00,M,SCT,BKN,OVC,M,1000.00,2299.00,4301.00,M,-SN BR,M,M,M,M,M,M,26.35,SPECI KEKO 231854Z 22005KT 2SM -SN BR SCT010 BKN023 OVC043 00/M02 A2981 RMK AO2 SNB43 P0000 FIBI,M
BAM,2021-01-23 18:55,-116.8743,40.5990,1382.36,33.80,33.80,100.00,320.00,5.00,0.00,29.87,M,7.00,M,OVC,M,M,M,2800.00,M,M,M,M,M,M,M,M,M,M,28.53,KBAM 231855Z AUTO 32005KT 7SM OVC028 01/01 A2987 RMK AO1,M
RNO,2021-01-23 18:55,-119.7711,39.4839,1341.00,35.00,28.00,75.06,110.00,5.00,0.00,29.91,1013.30,10.00,M,FEW,BKN,OVC,M,3000.00,4500.00,6000.00,M,M,M,M,M,M,M,M,30.08,KRNO 231855Z 11005KT 10SM FEW030 BKN045 OVC060 02/M02 A2991 RMK AO2 SLP133 SH VC SE THRU SW T00171022,M
BVU,2021-01-23 18:55,-114.8611,35.9475,671.00,50.00,28.40,43.03,210.00,6.00,0.00,29.89,M,10.00,M,CLR,M,M,M,M,M,M,M,M,M,M,M,M,M,M,50.00,KBVU 231855Z AUTO 21006KT 10SM CLR 10/M02 A2989 RMK AO2,M
CXP,2021-01-23 18:55,-119.7326,39.1923,1431.00,32.00,26.60,80.22,M,4.00,0.00,29.91,M,10.00,M,FEW,SCT,BKN,M,2800.00,3300.00,4600.00,M,M,M,M,M,M,M,M,27.42,KCXP 231855Z AUTO VRB04KT 10SM FEW028 SCT033 BKN046 M00/M03 A2991 RMK AO2,M
RTS,2021-01-23 18:55,-119.8764,39.6682,1539.00,33.80,24.80,69.25,360.00,10.00,0.00,29.91,M,10.00,M,SCT,OVC,M,M,5000.00,6000.00,M,M,M,M,M,M,M,M,M,25.23,KRTS 231855Z AUTO 36010KT 10SM SCT050 OVC060 01/M04 A2991 RMK AO2,M
05U,2021-01-23 18:55,-116.0051,39.6042,1811.23,33.80,23.00,64.23,250.00,7.00,0.00,29.83,M,10.00,M,M,M,M,M,M,M,M,M,M,M,M,M,M,M,M,26.97,K05U 231855Z AUTO 25007KT 10SM 01/M05 A2983 RMK A01,M
HTH,2021-01-23 18:55,-118.6315,38.5448,1282.89,30.20,30.20,100.00,0.00,0.00,0.00,29.90,M,1.25,M,BKN,M,M,M,400.00,M,M,M,BR,M,M,M,M,M,M,30.20,KHTH 231855Z AUTO 00000KT 1 1/4SM BR BKN004 M01/M01 A2990 RMK A01,M
MEV,2021-01-23 18:55,-119.7500,38.9963,1441.42,30.20,26.60,86.28,0.00,0.00,0.00,29.90,M,7.00,M,BKN,BKN,OVC,M,2100.00,2700.00,6000.00,M,-SN,M,M,M,M,M,M,30.20,KMEV 231855Z AUTO 00000KT 7SM -SN BKN021 BKN027 OVC060 M01/M03 A2990 RMK AO2,M
NFL,2021-01-23 18:56,-118.7010,39.4166,1199.00,35.00,32.00,88.33,290.00,5.00,T,29.89,1009.60,2.50,M,SCT,OVC,M,M,1000.00,1500.00,M,M,-SN BR,M,M,M,M,M,M,30.08,KNFL 231856Z 29005KT 2 1/2SM -SN BR SCT010 OVC015 02/00 A2989 RMK AO2 SLP096 IR// P0000 T00170000,M
WMC,2021-01-23 18:56,-117.8072,40.9019,1315.00,37.00,28.00,69.63,360.00,9.00,0.00,29.87,1012.30,10.00,M,CLR,M,M,M,M,M,M,M,M,M,M,M,M,M,M,29.73,KWMC 231856Z AUTO 36009KT 10SM CLR 03/M02 A2987 RMK AO2 SLP123 T00281022 $,M
EKO,2021-01-23 18:56,-115.7860,40.8242,1367.00,32.00,28.90,88.17,220.00,5.00,T,29.81,1011.00,1.75,M,FEW,BKN,OVC,M,1000.00,2300.00,4300.00,M,-SN BR,M,M,M,M,M,M,26.40,KEKO 231856Z AUTO 22005KT 1 3/4SM -SN BR FEW010 BKN023 OVC043 00/M02 A2981 RMK AO2 SNB43 SLP110 P0000 T00001017,M
HND,2021-01-23 18:56,-115.1344,35.9729,742.79,49.00,30.00,47.85,200.00,13.00,0.00,29.88,1013.70,10.00,M,CLR,M,M,M,M,M,M,M,M,M,M,M,M,M,M,43.22,KHND 231856Z 20013KT 10SM CLR 09/M01 A2988 RMK AO2 SLP137 T00941011,M
LAS,2021-01-23 18:56,-115.1634,36.0719,663.00,50.00,27.00,40.62,170.00,4.00,0.00,29.87,1011.10,10.00,M,SCT,BKN,M,M,14000.00,22000.00,M,M,M,M,M,M,M,M,M,50.00,KLAS 231856Z 17004KT 10SM SCT140 BKN220 10/M03 A2987 RMK AO2 SLP111 T01001028,M
TPH,2021-01-23 18:56,-117.0904,38.0505,1654.00,26.10,19.90,77.06,0.00,0.00,0.00,29.85,1012.90,10.00,M,CLR,M,M,M,M,M,M,M,M,M,M,M,M,M,M,26.10,KTPH 231856Z AUTO 00000KT 10SM CLR M03/M07 A2985 RMK AO2 SLP129 T10331067,M
EKO,2021-01-23 19:02,-115.7860,40.8242,1367.00,32.00,28.00,84.98,220.00,5.00,T,29.81,M,2.00,M,FEW,BKN,OVC,M,1000.00,4600.00,5500.00,M,-SN BR,M,M,M,M,M,M,26.40,KEKO 231902Z AUTO 22005KT 2SM -SN BR FEW010 BKN046 OVC055 00/M02 A2981 RMK AO2 P0000 T00001022,M
ELY,2021-01-23 19:06,-114.8453,39.2950,1909.00,30.90,23.00,72.18,140.00,4.00,T,29.78,M,8.00,M,FEW,OVC,M,M,2500.00,3600.00,M,M,M,M,M,M,M,M,M,26.14,KELY 231906Z AUTO 14004KT 8SM FEW025 OVC036 M01/M05 A2978 RMK AO2 SNE04 P0000 T10061050,M
EKO,2021-01-23 19:11,-115.7860,40.8242,1367.00,32.00,28.90,88.17,230.00,5.00,T,29.82,M,5.00,M,FEW,OVC,M,M,1000.00,5000.00,M,M,-SN BR,M,M,M,M,M,M,26.40,KEKO 231911Z AUTO 23005KT 5SM -SN BR FEW010 OVC050 00/M02 A2982 RMK AO2 P0000 T00001017,M
HTH,2021-01-23 19:15,-118.6315,38.5448,1282.89,32.00,32.00,100.00,360.00,3.00,0.00,29.90,M,1.00,M,OVC,M,M,M,500.00,M,M,M,BR,M,M,M,M,M,M,28.69,KHTH 231915Z AUTO 36003KT 1SM BR OVC005 M00/M00 A2990 RMK A01,M
CXP,2021-01-23 19:15,-119.7326,39.1923,1431.00,32.00,26.60,80.22,210.00,5.00,0.00,29.91,M,10.00,M,FEW,OVC,M,M,2800.00,4400.00,M,M,M,M,M,M,M,M,M,26.40,KCXP 231915Z AUTO 21005KT 10SM FEW028 OVC044 00/M03 A2991 RMK AO2,M
BVU,2021-01-23 19:15,-114.8611,35.9475,671.00,50.00,26.60,39.95,210.00,6.00,0.00,29.88,M,10.00,12.00,CLR,M,M,M,M,M,M,M,M,M,M,M,M,M,M,50.00,KBVU 231915Z AUTO 21006G12KT 10SM CLR 10/M03 A2988 RMK AO2,M
RTS,2021-01-23 19:15,-119.8764,39.6682,1539.00,33.80,24.80,69.25,10.00,11.00,0.00,29.90,M,10.00,M,FEW,OVC,M,M,5000.00,6000.00,M,M,M,M,M,M,M,M,M,24.74,KRTS 231915Z AUTO 01011KT 10SM FEW050 OVC060 01/M04 A2990 RMK AO2,M
MEV,2021-01-23 19:15,-119.7500,38.9963,1441.42,30.20,26.60,86.28,0.00,0.00,0.00,29.90,M,2.50,M,SCT,BKN,OVC,M,900.00,2300.00,6000.00,M,-SN BR,M,M,M,M,M,M,30.20,KMEV 231915Z AUTO 00000KT 2 1/2SM -SN BR SCT009 BKN023 OVC060 M01/M03 A2990 RMK AO2 VIS 1 3/4V5,M
BAM,2021-01-23 19:15,-116.8743,40.5990,1382.36,33.80,33.80,100.00,320.00,5.00,0.00,29.87,M,5.00,M,SCT,SCT,OVC,M,1500.00,2800.00,4100.00,M,M,M,M,M,M,M,M,28.53,KBAM 231915Z AUTO 32005KT 5SM SCT015 SCT028 OVC041 01/01 A2987 RMK AO1,M
05U,2021-01-23 19:15,-116.0051,39.6042,1811.23,32.00,23.00,69.04,250.00,5.00,0.00,29.82,M,9.00,M,M,M,M,M,M,M,M,M,M,M,M,M,M,M,M,26.40,K05U 231915Z AUTO 25005KT 9SM 00/M05 A2982 RMK A01,M
NFL,2021-01-23 19:20,-118.7010,39.4166,1199.00,35.00,32.00,88.33,300.00,4.00,T,29.89,M,5.00,M,SCT,OVC,M,M,1000.00,2500.00,M,M,-SN BR,M,M,M,M,M,M,31.04,KNFL 231920Z 30004KT 5SM -SN BR SCT010 OVC025 02/00 A2989 RMK AO2 IR// P0000 T00170000,M
HTH,2021-01-23 19:35,-118.6315,38.5448,1282.89,32.00,32.00,100.00,0.00,0.00,0.00,29.90,M,2.00,M,OVC,M,M,M,400.00,M,M,M,BR,M,M,M,M,M,M,32.00,KHTH 231935Z AUTO 00000KT 2SM BR OVC004 M00/M00 A2990 RMK A01,M
CXP,2021-01-23 19:35,-119.7326,39.1923,1431.00,33.80,28.40,80.36,190.00,4.00,0.00,29.90,M,10.00,M,BKN,BKN,OVC,M,4100.00,4800.00,5500.00,M,M,M,M,M,M,M,M,29.52,KCXP 231935Z AUTO 19004KT 10SM BKN041 BKN048 OVC055 01/M02 A2990 RMK AO2,M
RTS,2021-01-23 19:35,-119.8764,39.6682,1539.00,35.60,23.00,59.79,20.00,8.00,0.00,29.90,M,10.00,15.00,OVC,M,M,M,6000.00,M,M,M,M,M,M,M,M,M,M,28.55,KRTS 231935Z AUTO 02008G15KT 10SM OVC060 02/M05 A2990 RMK AO2,M
05U,2021-01-23 19:35,-116.0051,39.6042,1811.23,33.80,24.80,69.25,10.00,7.00,0.00,29.82,M,5.00,M,M,M,M,M,M,M,M,M,HZ,M,M,M,M,M,M,26.97,K05U 231935Z AUTO 01007KT 5SM HZ 01/M04 A2982 RMK A01,M
BAM,2021-01-23 19:35,-116.8743,40.5990,1382.36,33.80,33.80,100.00,330.00,7.00,0.00,29.87,M,3.00,M,BKN,BKN,OVC,M,1700.00,2700.00,4100.00,M,M,M,M,M,M,M,M,26.97,KBAM 231935Z AUTO 33007KT 3SM BKN017 BKN027 OVC041 01/01 A2987 RMK AO1,M
BVU,2021-01-23 19:35,-114.8611,35.9475,671.00,51.80,26.60,37.38,240.00,5.00,0.00,29.87,M,10.00,10.00,CLR,M,M,M,M,M,M,M,M,M,M,M,M,M,M,51.80,KBVU 231935Z AUTO 24005G10KT 10SM CLR 11/M03 A2987 RMK AO2,M
MEV,2021-01-23 19:35,-119.7500,38.9963,1441.42,30.20,26.60,86.28,0.00,0.00,0.00,29.90,M,3.00,M,FEW,FEW,OVC,M,900.00,2000.00,4400.00,M,-SN BR,M,M,M,M,M,M,30.20,KMEV 231935Z AUTO 00000KT 3SM -SN BR FEW009 FEW020 OVC044 M01/M03 A2990 RMK AO2,M
VGT,2021-01-23 19:53,-115.1933,36.2111,667.00,52.00,26.10,36.34,M,3.00,0.00,29.81,1010.90,10.00,M,CLR,M,M,M,M,M,M,M,M,M,M,M,M,M,M,52.00,KVGT 231953Z VRB03KT 10SM CLR 11/M03 A2981 RMK AO2 SLP109 T01111033,M
LOL,2021-01-23 19:53,-118.5701,40.0684,1192.43,39.00,32.00,75.75,70.00,7.00,0.00,29.88,1013.20,10.00,M,BKN,OVC,M,M,5000.00,6500.00,M,M,M,M,M,M,M,M,M,33.31,KLOL 231953Z AUTO 07007KT 10SM BKN050 OVC065 04/00 A2988 RMK AO2 SLP132 T00390000,M
P68,2021-01-23 19:53,-116.0056,39.6014,1993.00,30.90,26.10,82.15,30.00,7.00,0.00,29.80,1009.10,M,M,M,M,M,M,M,M,M,M,M,M,M,M,M,M,M,23.44,KP68 231953Z AUTO 03007KT M01/M03 A2980 RMK AO1 SLP091 T10061033,M
DRA,2021-01-23 19:53,-116.0278,36.6206,1009.00,46.00,25.00,43.44,M,6.00,0.00,29.83,1008.70,10.00,M,FEW,M,M,M,6500.00,M,M,M,M,M,M,M,M,M,M,42.39,KDRA 231953Z AUTO VRB06KT 10SM FEW065 08/M04 A2983 RMK AO2 SLP087 T00781039,M
ELY,2021-01-23 19:53,-114.8453,39.2950,1909.00,33.00,21.90,63.06,0.00,0.00,T,29.77,1008.10,10.00,M,BKN,OVC,M,M,3300.00,4500.00,M,M,M,M,M,M,M,M,M,33.10,KELY 231953Z AUTO 00000KT 10SM BKN033 OVC045 01/M06 A2977 RMK AO2 SNE04B19E28 SLP081 P0000 T00061056,M
RNO,2021-01-23 19:55,-119.7711,39.4839,1341.00,36.00,27.00,69.51,0.00,0.00,0.00,29.90,1012.80,10.00,M,FEW,BKN,BKN,M,3000.00,4500.00,6500.00,M,M,M,M,M,M,M,M,36.00,KRNO 231955Z 00000KT 10SM FEW030 BKN045 BKN065 02/M03 A2990 RMK AO2 SLP128 SH VC SE THRU W T00221028,M
CXP,2021-01-23 19:55,-119.7326,39.1923,1431.00,33.80,28.40,80.36,200.00,3.00,0.00,29.90,M,10.00,M,SCT,BKN,OVC,M,3900.00,4800.00,7500.00,M,M,M,M,M,M,M,M,30.75,KCXP 231955Z AUTO 20003KT 10SM SCT039 BKN048 OVC075 01/M02 A2990 RMK AO2,M
BVU,2021-01-23 19:55,-114.8611,35.9475,671.00,51.80,26.60,37.38,250.00,4.00,0.00,29.86,M,10.00,M,CLR,M,M,M,M,M,M,M,M,M,M,M,M,M,M,51.80,KBVU 231955Z AUTO 25004KT 10SM CLR 11/M03 A2986 RMK AO2,M
RTS,2021-01-23 19:55,-119.8764,39.6682,1539.00,35.60,23.00,59.79,10.00,9.00,0.00,29.89,M,10.00,M,OVC,M,M,M,6000.00,M,M,M,M,M,M,M,M,M,M,27.99,KRTS 231955Z AUTO 01009KT 10SM OVC060 02/M05 A2989 RMK AO2,M
05U,2021-01-23 19:55,-116.0051,39.6042,1811.23,32.00,24.80,74.44,30.00,5.00,0.00,29.82,M,2.00,M,M,M,M,M,M,M,M,M,HZ,M,M,M,M,M,M,26.40,K05U 231955Z AUTO 03005KT 2SM HZ 00/M04 A2982 RMK A01,M
BAM,2021-01-23 19:55,-116.8743,40.5990,1382.36,33.80,33.80,100.00,330.00,8.00,0.00,29.87,M,1.75,16.00,SCT,OVC,M,M,1500.00,2500.00,M,M,M,M,M,M,M,M,M,26.33,KBAM 231955Z AUTO 33008G16KT 1 3/4SM SCT015 OVC025 01/01 A2987 RMK AO1 VIS 1V4,M
HTH,2021-01-23 19:55,-118.6315,38.5448,1282.89,32.00,32.00,100.00,0.00,0.00,0.00,29.90,M,3.00,M,OVC,M,M,M,500.00,M,M,M,BR,M,M,M,M,M,M,32.00,KHTH 231955Z AUTO 00000KT 3SM BR OVC005 M00/M00 A2990 RMK A01,M
MEV,2021-01-23 19:55,-119.7500,38.9963,1441.42,32.00,26.60,80.22,0.00,0.00,0.00,29.89,M,2.50,M,BKN,M,M,M,4400.00,M,M,M,-SN HZ,M,M,M,M,M,M,32.00,KMEV 231955Z AUTO 00000KT 2 1/2SM -SN HZ BKN044 M00/M03 A2989 RMK AO2 VIS 1 1/2V5,M
NFL,2021-01-23 19:56,-118.7010,39.4166,1199.00,35.00,32.00,88.33,330.00,3.00,T,29.89,1009.50,4.00,M,SCT,OVC,M,M,1000.00,2000.00,M,M,-SN BR,M,M,M,M,M,M,32.23,KNFL 231956Z 33003KT 4SM -SN BR SCT010 OVC020 02/00 A2989 RMK AO2 SLP095 IR// P0000 T00170000,M
HND,2021-01-23 19:56,-115.1344,35.9729,742.79,49.00,28.00,44.10,220.00,6.00,0.00,29.86,1012.90,10.00,M,CLR,M,M,M,M,M,M,M,M,M,M,M,M,M,M,45.88,KHND 231956Z 22006KT 10SM CLR 09/M02 A2986 RMK AO2 SLP129 T00941022,M
EKO,2021-01-23 19:56,-115.7860,40.8242,1367.00,32.00,28.90,88.17,220.00,6.00,T,29.81,1010.80,10.00,M,OVC,M,M,M,5500.00,M,M,M,M,M,M,M,M,M,M,25.53,KEKO 231956Z AUTO 22006KT 10SM OVC055 00/M02 A2981 RMK AO2 SNE12 SLP108 P0000 T00001017,M
WMC,2021-01-23 19:56,-117.8072,40.9019,1315.00,38.00,28.00,67.20,60.00,6.00,0.00,29.87,1012.00,10.00,M,CLR,M,M,M,M,M,M,M,M,M,M,M,M,M,M,32.64,KWMC 231956Z AUTO 06006KT 10SM CLR 03/M02 A2987 RMK AO2 SLP120 T00331022 $,M
TPH,2021-01-23 19:56,-117.0904,38.0505,1654.00,27.00,21.90,80.83,0.00,0.00,0.00,29.84,1012.00,10.00,M,BKN,M,M,M,3300.00,M,M,M,M,M,M,M,M,M,M,27.00,KTPH 231956Z AUTO 00000KT 10SM BKN033 M03/M06 A2984 RMK AO2 SLP120 T10281056,M
LAS,2021-01-23 19:56,-115.1634,36.0719,663.00,50.00,27.00,40.62,170.00,5.00,0.00,29.84,1010.20,10.00,M,FEW,SCT,BKN,M,10000.00,14000.00,22000.00,M,M,M,M,M,M,M,M,50.00,KLAS 231956Z 17005KT 10SM FEW100 SCT140 BKN220 10/M03 A2984 RMK AO2 SLP102 T01001028,M
BAM,2021-01-23 20:15,-116.8743,40.5990,1382.36,33.80,33.80,100.00,330.00,5.00,0.00,29.88,M,4.00,M,SCT,OVC,M,M,1600.00,2300.00,M,M,M,M,M,M,M,M,M,28.53,KBAM 232015Z AUTO 33005KT 4SM SCT016 OVC023 01/01 A2988 RMK AO1,M
MEV,2021-01-23 20:15,-119.7500,38.9963,1441.42,32.00,26.60,80.22,0.00,0.00,0.00,29.89,M,3.00,M,BKN,BKN,M,M,4200.00,4800.00,M,M,-SN HZ,M,M,M,M,M,M,32.00,KMEV 232015Z AUTO 00000KT 3SM -SN HZ BKN042 BKN048 M00/M03 A2989 RMK AO2,M
RTS,2021-01-23 20:15,-119.8764,39.6682,1539.00,37.40,23.00,55.68,350.00,8.00,0.00,29.89,M,10.00,M,OVC,M,M,M,6500.00,M,M,M,M,M,M,M,M,M,M,30.76,KRTS 232015Z AUTO 35008KT 10SM OVC065 03/M05 A2989 RMK AO2,M
05U,2021-01-23 20:15,-116.0051,39.6042,1811.23,32.00,24.80,74.44,40.00,5.00,0.00,29.82,M,1.75,M,M,M,M,M,M,M,M,M,HZ,M,M,M,M,M,M,26.40,K05U 232015Z AUTO 04005KT 1 3/4SM HZ M00/M04 A2982 RMK A01,M
HTH,2021-01-23 20:15,-118.6315,38.5448,1282.89,32.00,32.00,100.00,330.00,3.00,0.00,29.90,M,1.75,M,OVC,M,M,M,500.00,M,M,M,BR,M,M,M,M,M,M,28.69,KHTH 232015Z AUTO 33003KT 1 3/4SM BR OVC005 M00/M00 A2990 RMK A01,M
BVU,2021-01-23 20:15,-114.8611,35.9475,671.00,53.60,26.60,34.98,M,4.00,0.00,29.85,M,10.00,M,CLR,M,M,M,M,M,M,M,M,M,M,M,M,M,M,53.60,KBVU 232015Z AUTO VRB04KT 10SM CLR 12/M03 A2985 RMK AO2,M
CXP,2021-01-23 20:15,-119.7326,39.1923,1431.00,35.60,28.40,74.80,0.00,0.00,0.00,29.90,M,10.00,M,FEW,SCT,BKN,M,2600.00,3500.00,4600.00,M,M,M,M,M,M,M,M,35.60,KCXP 232015Z AUTO 00000KT 10SM FEW026 SCT035 BKN046 02/M02 A2990 RMK AO2,M
RTS,2021-01-23 20:35,-119.8764,39.6682,1539.00,37.40,23.00,55.68,340.00,8.00,0.00,29.89,M,10.00,M,FEW,OVC,M,M,3200.00,6500.00,M,M,M,M,M,M,M,M,M,30.76,KRTS 232035Z AUTO 34008KT 10SM FEW032 OVC065 03/M05 A2989 RMK AO2,M
BAM,2021-01-23 20:35,-116.8743,40.5990,1382.36,33.80,33.80,100.00,330.00,6.00,0.00,29.88,M,4.00,M,SCT,OVC,M,M,500.00,2300.00,M,M,M,M,M,M,M,M,M,27.70,KBAM 232035Z AUTO 33006KT 4SM SCT005 OVC023 01/01 A2988 RMK AO1,M
BVU,2021-01-23 20:35,-114.8611,35.9475,671.00,53.60,24.80,32.46,210.00,8.00,0.00,29.84,M,10.00,M,CLR,M,M,M,M,M,M,M,M,M,M,M,M,M,M,53.60,KBVU 232035Z AUTO 21008KT 10SM CLR 12/M04 A2984 RMK AO2,M
CXP,2021-01-23 20:35,-119.7326,39.1923,1431.00,35.60,28.40,74.80,0.00,0.00,0.00,29.89,M,10.00,M,FEW,FEW,OVC,M,2600.00,3400.00,4400.00,M,M,M,M,M,M,M,M,35.60,KCXP 232035Z AUTO 00000KT 10SM FEW026 FEW034 OVC044 02/M02 A2989 RMK AO2,M
05U,2021-01-23 20:35,-116.0051,39.6042,1811.23,32.00,26.60,80.22,0.00,0.00,0.00,29.82,M,1.50,M,M,M,M,M,M,M,M,M,HZ,M,M,M,M,M,M,32.00,K05U 232035Z AUTO 00000KT 1 1/2SM HZ M00/M03 A2982 RMK A01,M
MEV,2021-01-23 20:35,-119.7500,38.9963,1441.42,32.00,26.60,80.22,0.00,0.00,0.00,29.89,M,4.00,M,OVC,M,M,M,4100.00,M,M,M,UP BR,M,M,M,M,M,M,32.00,KMEV 232035Z AUTO 00000KT 4SM UP BR OVC041 M00/M03 A2989 RMK AO2,M
HTH,2021-01-23 20:35,-118.6315,38.5448,1282.89,32.00,32.00,100.00,0.00,0.00,0.00,29.89,M,4.00,M,BKN,OVC,M,M,500.00,2800.00,M,M,BR,M,M,M,M,M,M,32.00,KHTH 232035Z AUTO 00000KT 4SM BR BKN005 OVC028 M00/M00 A2989 RMK A01,M
EKO,2021-01-23 20:41,-115.7860,40.8242,1367.00,33.00,28.90,84.36,220.00,7.00,0.00,29.81,M,10.00,M,BKN,BKN,OVC,M,2400.00,5000.00,7000.00,M,M,M,M,M,M,M,M,26.12,KEKO 232041Z AUTO 22007KT 10SM BKN024 BKN050 OVC070 01/M02 A2981 RMK AO2 T00061017,M
P68,2021-01-23 20:53,-116.0056,39.6014,1993.00,30.90,27.00,85.26,60.00,4.00,0.02,29.80,1009.00,M,M,M,M,M,M,M,M,M,M,M,M,M,M,M,M,M,26.14,KP68 232053Z AUTO 06004KT M01/M03 A2980 RMK AO1 SLP090 P0002 60002 T10061028 58001,M
VGT,2021-01-23 20:53,-115.1933,36.2111,667.00,54.00,25.00,32.26,90.00,5.00,0.00,29.80,1010.40,10.00,M,CLR,M,M,M,M,M,M,M,M,M,M,M,M,M,M,54.00,KVGT 232053Z 09005KT 10SM CLR 12/M04 A2980 RMK AO2 SLP104 T01221039 58013,M
ELY,2021-01-23 20:53,-114.8453,39.2950,1909.00,34.00,21.00,58.56,270.00,7.00,0.00,29.77,1007.80,10.00,M,FEW,BKN,OVC,M,3700.00,5000.00,6000.00,M,M,M,M,M,M,M,M,27.22,KELY 232053Z AUTO 27007KT 10SM FEW037 BKN050 OVC060 01/M06 A2977 RMK AO2 SLP078 60000 T00111061 57003,M
DRA,2021-01-23 20:53,-116.0278,36.6206,1009.00,48.00,24.10,38.80,150.00,5.00,0.00,29.81,1008.10,10.00,M,CLR,M,M,M,M,M,M,M,M,M,M,M,M,M,M,45.40,KDRA 232053Z AUTO 15005KT 10SM CLR 09/M04 A2981 RMK AO2 SLP081 T00891044 58017,M
LOL,2021-01-23 20:53,-118.5701,40.0684,1192.43,40.00,30.90,69.96,50.00,15.00,0.00,29.88,1013.00,10.00,19.00,OVC,M,M,M,7000.00,M,M,M,M,M,M,M,M,M,M,31.02,KLOL 232053Z AUTO 05015G19KT 10SM OVC070 04/M01 A2988 RMK AO2 SLP130 T00441006 51002,M
MEV,2021-01-23 20:55,-119.7500,38.9963,1441.42,32.00,28.40,86.39,0.00,0.00,0.00,29.89,M,6.00,M,SCT,OVC,M,M,2800.00,4000.00,M,M,UP BR,M,M,M,M,M,M,32.00,KMEV 232055Z AUTO 00000KT 6SM UP BR SCT028 OVC040 M00/M02 A2989 RMK AO2,M
CXP,2021-01-23 20:55,-119.7326,39.1923,1431.00,37.40,24.80,60.04,20.00,5.00,0.00,29.89,M,10.00,M,BKN,OVC,M,M,3600.00,4200.00,M,M,-UP,M,M,M,M,M,M,32.81,KCXP 232055Z AUTO 02005KT 10SM -UP BKN036 OVC042 03/M04 A2989 RMK AO2,M
BVU,2021-01-23 20:55,-114.8611,35.9475,671.00,53.60,23.00,30.11,210.00,5.00,0.00,29.84,M,10.00,M,CLR,M,M,M,M,M,M,M,M,M,M,M,M,M,M,53.60,KBVU 232055Z AUTO 21005KT 10SM CLR 12/M05 A2984 RMK AO2,M
BAM,2021-01-23 20:55,-116.8743,40.5990,1382.36,33.80,33.80,100.00,320.00,6.00,0.00,29.88,M,2.00,M,SCT,BKN,OVC,M,300.00,1400.00,2500.00,M,M,M,M,M,M,M,M,27.70,KBAM 232055Z AUTO 32006KT 2SM SCT003 BKN014 OVC025 01/01 A2988 RMK AO1,M
HTH,2021-01-23 20:55,-118.6315,38.5448,1282.89,32.00,32.00,100.00,320.00,3.00,0.00,29.90,M,2.50,M,FEW,OVC,M,M,500.00,2800.00,M,M,BR,M,M,M,M,M,M,28.69,KHTH 232055Z AUTO 32003KT 2 1/2SM BR FEW005 OVC028 M00/M00 A2990 RMK A01,M
RTS,2021-01-23 20:55,-119.8764,39.6682,1539.00,37.40,23.00,55.68,350.00,7.00,0.00,29.89,M,10.00,14.00,FEW,SCT,BKN,M,3000.00,3400.00,5500.00,M,M,M,M,M,M,M,M,31.36,KRTS 232055Z AUTO 35007G14KT 330V030 10SM FEW030 SCT034 BKN055 03/M05 A2989 RMK AO2,M
RNO,2021-01-23 20:55,-119.7711,39.4839,1341.00,37.00,28.00,69.63,40.00,3.00,0.00,29.89,1012.80,10.00,M,FEW,BKN,BKN,M,3000.00,4500.00,6000.00,M,M,M,M,M,M,M,M,34.40,KRNO 232055Z 04003KT 10SM FEW030 BKN045 BKN060 03/M02 A2989 RMK AO2 SLP128 SH VC SE THRU SW T00281022 58000,M
05U,2021-01-23 20:55,-116.0051,39.6042,1811.23,32.00,26.60,80.22,0.00,0.00,0.01,29.83,M,1.75,M,M,M,M,M,M,M,M,M,HZ,M,M,M,M,M,M,32.00,K05U 232055Z AUTO 00000KT 1 3/4SM HZ M00/M03 A2983 RMK A01 P0001,M
WMC,2021-01-23 20:56,-117.8072,40.9019,1315.00,40.00,27.00,59.65,30.00,3.00,0.00,29.87,1012.10,10.00,M,FEW,FEW,M,M,2700.00,3600.00,M,M,M,M,M,M,M,M,M,37.72,KWMC 232056Z AUTO 03003KT 10SM FEW027 FEW036 04/M03 A2987 RMK AO2 SLP121 T00441028 51002 $,M
TPH,2021-01-23 20:56,-117.0904,38.0505,1654.00,30.90,25.00,78.48,90.00,3.00,0.00,29.83,1011.60,10.00,M,OVC,M,M,M,3300.00,M,M,M,M,M,M,M,M,M,M,27.43,KTPH 232056Z AUTO 09003KT 10SM OVC033 M01/M04 A2983 RMK AO2 SLP116 T10061039 58005,M
NFL,2021-01-23 20:56,-118.7010,39.4166,1199.00,36.00,32.00,85.23,330.00,6.00,T,29.88,1009.40,8.00,M,SCT,BKN,OVC,M,1000.00,2000.00,3500.00,M,M,M,M,M,M,M,M,30.35,KNFL 232056Z 33006KT 8SM SCT010 BKN020 OVC035 02/00 A2988 RMK AO2 SNE53 SLP094 IR// P0000 60000 T00220000 50002,M
EKO,2021-01-23 20:56,-115.7860,40.8242,1367.00,33.00,28.90,84.36,220.00,7.00,0.00,29.82,1010.80,10.00,M,OVC,M,M,M,2400.00,M,M,M,M,M,M,M,M,M,M,26.12,KEKO 232056Z AUTO 22007KT 10SM OVC024 01/M02 A2982 RMK AO2 SLP108 60000 T00061017 51003,M
HND,2021-01-23 20:56,-115.1344,35.9729,742.79,51.00,24.10,34.57,0.00,0.00,0.00,29.85,1012.50,10.00,M,CLR,M,M,M,M,M,M,M,M,M,M,M,M,M,M,51.10,KHND 232056Z 00000KT 10SM CLR 11/M04 A2985 RMK AO2 SLP125 T01061044 56015,M
LAS,2021-01-23 20:56,-115.1634,36.0719,663.00,51.00,27.00,38.99,140.00,4.00,0.00,29.83,1010.00,10.00,M,FEW,SCT,BKN,M,10000.00,14000.00,22000.00,M,M,M,M,M,M,M,M,51.10,KLAS 232056Z 14004KT 10SM FEW100 SCT140 BKN220 11/M03 A2983 RMK AO2 SLP100 T01061028 56013,M
HTH,2021-01-23 21:15,-118.6315,38.5448,1282.89,32.00,32.00,100.00,320.00,5.00,0.00,29.89,M,3.00,M,FEW,OVC,M,M,400.00,2600.00,M,M,BR,M,M,M,M,M,M,26.40,KHTH 232115Z AUTO 32005KT 3SM BR FEW004 OVC026 M00/M00 A2989 RMK A01,M
BAM,2021-01-23 21:15,-116.8743,40.5990,1382.36,33.80,33.80,100.00,320.00,6.00,0.00,29.88,M,7.00,M,SCT,SCT,OVC,M,300.00,1300.00,2700.00,M,M,M,M,M,M,M,M,27.70,KBAM 232115Z AUTO 32006KT 7SM SCT003 SCT013 OVC027 01/01 A2988 RMK AO1,M
MEV,2021-01-23 21:15,-119.7500,38.9963,1441.42,32.00,28.40,86.39,0.00,0.00,0.00,29.89,M,2.50,M,OVC,M,M,M,3700.00,M,M,M,UP BR,M,M,M,M,M,M,32.00,KMEV 232115Z AUTO 00000KT 2 1/2SM UP BR OVC037 M00/M02 A2989 RMK AO2 VIS 1 3/4V5,M
05U,2021-01-23 21:15,-116.0051,39.6042,1811.23,32.00,26.60,80.22,0.00,0.00,0.00,29.83,M,1.25,M,M,M,M,M,M,M,M,M,HZ,M,M,M,M,M,M,32.00,K05U 232115Z AUTO 00000KT 1 1/4SM HZ M00/M03 A2983 RMK A01,M
BVU,2021-01-23 21:15,-114.8611,35.9475,671.00,53.60,23.00,30.11,250.00,7.00,0.00,29.84,M,10.00,12.00,CLR,M,M,M,M,M,M,M,M,M,M,M,M,M,M,53.60,KBVU 232115Z AUTO 25007G12KT 10SM CLR 12/M05 A2984 RMK AO2,M
CXP,2021-01-23 21:15,-119.7326,39.1923,1431.00,37.40,26.60,64.70,M,4.00,0.00,29.90,M,9.00,M,OVC,M,M,M,3700.00,M,M,M,-UP,M,M,M,M,M,M,33.73,KCXP 232115Z AUTO VRB04KT 9SM -UP OVC037 03/M03 A2990 RMK AO2,M
RTS,2021-01-23 21:15,-119.8764,39.6682,1539.00,37.40,23.00,55.68,350.00,9.00,0.00,29.89,M,10.00,15.00,BKN,BKN,OVC,M,3300.00,3900.00,6500.00,M,M,M,M,M,M,M,M,30.23,KRTS 232115Z AUTO 35009G15KT 10SM BKN033 BKN039 OVC065 03/M05 A2989 RMK AO2,M
BVU,2021-01-23 21:35,-114.8611,35.9475,671.00,53.60,23.00,30.11,M,5.00,0.00,29.83,M,10.00,M,CLR,M,M,M,M,M,M,M,M,M,M,M,M,M,M,53.60,KBVU 232135Z AUTO VRB05KT 10SM CLR 12/M05 A2983 RMK AO2,M
HTH,2021-01-23 21:35,-118.6315,38.5448,1282.89,32.00,32.00,100.00,310.00,4.00,0.00,29.89,M,4.00,M,FEW,OVC,M,M,300.00,2500.00,M,M,BR,M,M,M,M,M,M,27.42,KHTH 232135Z AUTO 31004KT 4SM BR FEW003 OVC025 00/00 A2989 RMK A01,M
BAM,2021-01-23 21:35,-116.8743,40.5990,1382.36,33.80,33.80,100.00,0.00,0.00,0.00,29.88,M,10.00,M,SCT,BKN,OVC,M,500.00,2700.00,3400.00,M,M,M,M,M,M,M,M,33.80,KBAM 232135Z AUTO 00000KT 10SM SCT005 BKN027 OVC034 01/01 A2988 RMK AO1,M
05U,2021-01-23 21:35,-116.0051,39.6042,1811.23,32.00,26.60,80.22,0.00,0.00,0.00,29.83,M,2.50,M,M,M,M,M,M,M,M,M,HZ,M,M,M,M,M,M,32.00,K05U 232135Z AUTO 00000KT 2 1/2SM HZ M00/M03 A2983 RMK A01,M
MEV,2021-01-23 21:35,-119.7500,38.9963,1441.42,32.00,28.40,86.39,0.00,0.00,0.00,29.90,M,6.00,M,OVC,M,M,M,3600.00,M,M,M,-SN BR,M,M,M,M,M,M,32.00,KMEV 232135Z AUTO 00000KT 6SM -SN BR OVC036 M00/M02 A2990 RMK AO2,M
RTS,2021-01-23 21:35,-119.8764,39.6682,1539.00,37.40,23.00,55.68,350.00,14.00,0.00,29.89,M,10.00,M,OVC,M,M,M,3500.00,M,M,M,M,M,M,M,M,M,M,28.12,KRTS 232135Z AUTO 35014KT 10SM OVC035 03/M05 A2989 RMK AO2,M
CXP,2021-01-23 21:35,-119.7326,39.1923,1431.00,35.60,28.40,74.80,M,4.00,0.00,29.90,M,10.00,M,BKN,OVC,M,M,3800.00,4500.00,M,M,M,M,M,M,M,M,M,31.62,KCXP 232135Z AUTO VRB04KT 10SM BKN038 OVC045 02/M02 A2990 RMK AO2,M
P68,2021-01-23 21:53,-116.0056,39.6014,1993.00,28.90,26.10,89.12,80.00,4.00,0.01,29.81,1009.70,M,M,M,M,M,M,M,M,M,M,M,M,M,M,M,M,M,23.80,KP68 232153Z AUTO 08004KT M02/M03 A2981 RMK AO1 SLP097 P0001 T10171033,M
VGT,2021-01-23 21:53,-115.1933,36.2111,667.00,54.00,26.10,33.77,90.00,5.00,0.00,29.79,1010.20,10.00,M,FEW,M,M,M,6000.00,M,M,M,M,M,M,M,M,M,M,54.00,KVGT 232153Z 09005KT 10SM FEW060 12/M03 A2979 RMK AO2 SLP102 T01221033,M
DRA,2021-01-23 21:53,-116.0278,36.6206,1009.00,47.00,23.00,38.62,M,4.00,0.00,29.81,1008.20,10.00,M,OVC,M,M,M,6500.00,M,M,M,M,M,M,M,M,M,M,44.82,KDRA 232153Z AUTO VRB04KT 10SM OVC065 08/M05 A2981 RMK AO2 SLP082 T00831050,M
ELY,2021-01-23 21:53,-114.8453,39.2950,1909.00,35.00,19.90,53.49,290.00,8.00,0.00,29.78,1007.90,10.00,M,OVC,M,M,M,5500.00,M,M,M,M,M,M,M,M,M,M,27.93,KELY 232153Z AUTO 29008KT 10SM OVC055 02/M07 A2978 RMK AO2 SLP079 T00171067,M
LOL,2021-01-23 21:53,-118.5701,40.0684,1192.43,40.00,30.90,69.96,40.00,11.00,0.00,29.89,1013.30,10.00,M,OVC,M,M,M,6500.00,M,M,M,M,M,M,M,M,M,M,32.45,KLOL 232153Z AUTO 04011KT 10SM OVC065 04/M01 A2989 RMK AO2 SLP133 T00441006,M
BVU,2021-01-23 21:55,-114.8611,35.9475,671.00,53.60,23.00,30.11,M,5.00,0.00,29.83,M,10.00,M,CLR,M,M,M,M,M,M,M,M,M,M,M,M,M,M,53.60,KBVU 232155Z AUTO VRB05KT 10SM CLR 12/M05 A2983 RMK AO2,M
MEV,2021-01-23 21:55,-119.7500,38.9963,1441.42,32.00,28.40,86.39,0.00,0.00,0.00,29.90,M,9.00,M,OVC,M,M,M,3700.00,M,M,M,M,M,M,M,M,M,M,32.00,KMEV 232155Z AUTO 00000KT 9SM OVC037 00/M02 A2990 RMK AO2,M
BAM,2021-01-23 21:55,-116.8743,40.5990,1382.36,33.80,33.80,100.00,330.00,4.00,0.00,29.88,M,10.00,M,SCT,OVC,M,M,500.00,3600.00,M,M,M,M,M,M,M,M,M,29.52,KBAM 232155Z AUTO 33004KT 10SM SCT005 OVC036 01/01 A2988 RMK AO1,M
HTH,2021-01-23 21:55,-118.6315,38.5448,1282.89,32.00,32.00,100.00,330.00,4.00,0.00,29.90,M,4.00,M,OVC,M,M,M,2300.00,M,M,M,BR,M,M,M,M,M,M,27.42,KHTH 232155Z AUTO 33004KT 4SM BR OVC023 M00/00 A2990 RMK A01,M
RTS,2021-01-23 21:55,-119.8764,39.6682,1539.00,37.40,23.00,55.68,360.00,11.00,0.00,29.90,M,10.00,M,SCT,OVC,M,M,3500.00,6000.00,M,M,M,M,M,M,M,M,M,29.29,KRTS 232155Z AUTO 36011KT 10SM SCT035 OVC060 03/M05 A2990 RMK AO2,M
05U,2021-01-23 21:55,-116.0051,39.6042,1811.23,32.00,26.60,80.22,0.00,0.00,0.01,29.83,M,2.00,M,M,M,M,M,M,M,M,M,HZ,M,M,M,M,M,M,32.00,K05U 232155Z AUTO 00000KT 2SM HZ M00/M03 A2983 RMK A01 P0001,M
RNO,2021-01-23 21:55,-119.7711,39.4839,1341.00,38.00,28.00,67.20,150.00,5.00,0.00,29.89,1012.60,10.00,M,FEW,BKN,OVC,M,3000.00,4500.00,6000.00,M,M,M,M,M,M,M,M,33.40,KRNO 232155Z 15005KT 10SM FEW030 BKN045 OVC060 03/M02 A2989 RMK AO2 SLP126 SH DSNT SE T00331022,M
CXP,2021-01-23 21:55,-119.7326,39.1923,1431.00,37.40,28.40,69.67,230.00,3.00,0.00,29.90,M,10.00,M,BKN,OVC,M,M,3800.00,4400.00,M,M,M,M,M,M,M,M,M,34.86,KCXP 232155Z AUTO 23003KT 10SM BKN038 OVC044 03/M02 A2990 RMK AO2,M
LAS,2021-01-23 21:56,-115.1634,36.0719,663.00,52.00,25.00,34.72,M,3.00,0.00,29.82,1009.60,10.00,M,FEW,SCT,BKN,M,10000.00,14000.00,22000.00,M,M,M,M,M,M,M,M,52.00,KLAS 232156Z VRB03KT 10SM FEW100 SCT140 BKN220 11/M04 A2982 RMK AO2 SLP096 T01111039,M
EKO,2021-01-23 21:56,-115.7860,40.8242,1367.00,34.00,30.00,85.11,180.00,6.00,0.00,29.82,1010.90,10.00,M,BKN,OVC,M,M,2600.00,8000.00,M,M,M,M,M,M,M,M,M,27.94,KEKO 232156Z AUTO 18006KT 10SM BKN026 OVC080 01/M01 A2982 RMK AO2 SLP109 T00111011,M
HND,2021-01-23 21:56,-115.1344,35.9729,742.79,52.00,25.00,34.72,200.00,4.00,0.00,29.84,1012.10,10.00,M,CLR,M,M,M,M,M,M,M,M,M,M,M,M,M,M,52.00,KHND 232156Z 20004KT 10SM CLR 11/M04 A2984 RMK AO2 SLP121 T01111039,M
WMC,2021-01-23 21:56,-117.8072,40.9019,1315.00,40.00,26.10,57.47,90.00,4.00,0.00,29.87,1012.10,10.00,M,FEW,M,M,M,3900.00,M,M,M,M,M,M,M,M,M,M,36.65,KWMC 232156Z AUTO 09004KT 10SM FEW039 04/M03 A2987 RMK AO2 SLP121 T00441033 $,M
TPH,2021-01-23 21:56,-117.0904,38.0505,1654.00,30.90,24.10,75.59,130.00,4.00,0.00,29.83,1011.90,10.00,M,FEW,M,M,M,3300.00,M,M,M,M,M,M,M,M,M,M,26.14,KTPH 232156Z AUTO 13004KT 10SM FEW033 M01/M04 A2983 RMK AO2 SLP119 T10061044,M
NFL,2021-01-23 21:56,-118.7010,39.4166,1199.00,37.00,30.90,78.37,10.00,9.00,0.00,29.89,1009.60,9.00,M,SCT,BKN,BKN,M,1000.00,2500.00,4000.00,M,M,M,M,M,M,M,M,29.73,KNFL 232156Z 01009KT 9SM SCT010 BKN025 BKN040 03/M01 A2989 RMK AO2 SLP096 SH VC SW IR// T00281006,M
BVU,2021-01-23 22:15,-114.8611,35.9475,671.00,53.60,23.00,30.11,0.00,0.00,0.00,29.83,M,10.00,M,CLR,M,M,M,M,M,M,M,M,M,M,M,M,M,M,53.60,KBVU 232215Z AUTO 00000KT 10SM CLR 12/M05 A2983 RMK AO2,M
RTS,2021-01-23 22:15,-119.8764,39.6682,1539.00,37.40,23.00,55.68,10.00,7.00,0.00,29.90,M,10.00,14.00,BKN,OVC,M,M,3500.00,6000.00,M,M,M,M,M,M,M,M,M,31.36,KRTS 232215Z AUTO 01007G14KT 10SM BKN035 OVC060 03/M05 A2990 RMK AO2,M
CXP,2021-01-23 22:15,-119.7326,39.1923,1431.00,37.40,28.40,69.67,130.00,5.00,0.00,29.90,M,10.00,M,BKN,OVC,M,M,3500.00,4100.00,M,M,-UP,M,M,M,M,M,M,32.81,KCXP 232215Z AUTO 13005KT 10SM -UP BKN035 OVC041 03/M02 A2990 RMK AO2,M
HTH,2021-01-23 22:15,-118.6315,38.5448,1282.89,32.00,32.00,100.00,290.00,4.00,0.00,29.90,M,8.00,M,BKN,OVC,M,M,2200.00,2900.00,M,M,M,M,M,M,M,M,M,27.42,KHTH 232215Z AUTO 29004KT 8SM BKN022 OVC029 00/M00 A2990 RMK A01,M
05U,2021-01-23 22:15,-116.0051,39.6042,1811.23,30.20,26.60,86.28,0.00,0.00,0.00,29.84,M,1.75,M,M,M,M,M,M,M,M,M,HZ,M,M,M,M,M,M,30.20,K05U 232215Z AUTO 00000KT 1 3/4SM HZ M01/M03 A2984 RMK A01,M
MEV,2021-01-23 22:15,-119.7500,38.9963,1441.42,32.00,28.40,86.39,0.00,0.00,0.00,29.90,M,3.00,M,OVC,M,M,M,3600.00,M,M,M,-SN BR,M,M,M,M,M,M,32.00,KMEV 232215Z AUTO 00000KT 3SM -SN BR OVC036 M00/M02 A2990 RMK AO2,M
BAM,2021-01-23 22:15,-116.8743,40.5990,1382.36,33.80,33.80,100.00,330.00,3.00,0.00,29.89,M,10.00,M,SCT,BKN,OVC,M,2900.00,3700.00,12000.00,M,M,M,M,M,M,M,M,30.75,KBAM 232215Z AUTO 33003KT 10SM SCT029 BKN037 OVC120 01/01 A2989 RMK AO1,M
EKO,2021-01-23 22:34,-115.7860,40.8242,1367.00,35.00,28.90,77.88,180.00,5.00,0.00,29.83,M,10.00,M,OVC,M,M,M,3000.00,M,M,M,M,M,M,M,M,M,M,30.08,KEKO 232234Z AUTO 18005KT 10SM OVC030 02/M02 A2983 RMK AO2 T00171017,M
HTH,2021-01-23 22:35,-118.6315,38.5448,1282.89,32.00,32.00,100.00,290.00,3.00,0.00,29.91,M,10.00,M,FEW,SCT,BKN,M,500.00,2400.00,3000.00,M,M,M,M,M,M,M,M,28.69,KHTH 232235Z AUTO 29003KT 10SM FEW005 SCT024 BKN030 00/00 A2991 RMK A01,M
RTS,2021-01-23 22:35,-119.8764,39.6682,1539.00,37.40,23.00,55.68,350.00,12.00,0.00,29.90,M,10.00,M,BKN,OVC,M,M,3300.00,4000.00,M,M,M,M,M,M,M,M,M,28.87,KRTS 232235Z AUTO 35012KT 10SM BKN033 OVC040 03/M05 A2990 RMK AO2,M
MEV,2021-01-23 22:35,-119.7500,38.9963,1441.42,32.00,28.40,86.39,110.00,3.00,0.00,29.90,M,2.50,M,BKN,OVC,M,M,3400.00,4400.00,M,M,-SN BR,M,M,M,M,M,M,28.69,KMEV 232235Z AUTO 11003KT 2 1/2SM -SN BR BKN034 OVC044 M00/M02 A2990 RMK AO2,M
05U,2021-01-23 22:35,-116.0051,39.6042,1811.23,30.20,26.60,86.28,0.00,0.00,0.00,29.84,M,1.75,M,M,M,M,M,M,M,M,M,HZ,M,M,M,M,M,M,30.20,K05U 232235Z AUTO 00000KT 1 3/4SM HZ M01/M03 A2984 RMK A01,M
CXP,2021-01-23 22:35,-119.7326,39.1923,1431.00,37.40,28.40,69.67,0.00,0.00,0.00,29.90,M,10.00,M,OVC,M,M,M,3400.00,M,M,M,M,M,M,M,M,M,M,37.40,KCXP 232235Z AUTO 00000KT 10SM OVC034 03/M02 A2990 RMK AO2,M
BVU,2021-01-23 22:35,-114.8611,35.9475,671.00,53.60,23.00,30.11,170.00,4.00,0.00,29.84,M,10.00,M,BKN,M,M,M,9000.00,M,M,M,M,M,M,M,M,M,M,53.60,KBVU 232235Z AUTO 17004KT 10SM BKN090 12/M05 A2984 RMK AO2,M
BAM,2021-01-23 22:35,-116.8743,40.5990,1382.36,33.80,32.00,93.03,330.00,4.00,0.00,29.89,M,10.00,M,SCT,BKN,OVC,M,2900.00,9000.00,11000.00,M,M,M,M,M,M,M,M,29.52,KBAM 232235Z AUTO 33004KT 10SM SCT029 BKN090 OVC110 01/00 A2989 RMK AO1,M
ELY,2021-01-23 22:53,-114.8453,39.2950,1909.00,34.00,19.90,55.88,260.00,6.00,0.00,29.79,1008.70,10.00,M,OVC,M,M,M,5500.00,M,M,M,M,M,M,M,M,M,M,27.94,KELY 232253Z AUTO 26006KT 10SM OVC055 01/M07 A2979 RMK AO2 SLP087 T00111067,M
LOL,2021-01-23 22:53,-118.5701,40.0684,1192.43,40.00,30.90,69.96,50.00,6.00,0.00,29.90,1013.50,10.00,M,FEW,OVC,M,M,6000.00,7000.00,M,M,M,M,M,M,M,M,M,35.04,KLOL 232253Z AUTO 05006KT 10SM FEW060 OVC070 04/M01 A2990 RMK AO2 SLP135 T00441006,M
VGT,2021-01-23 22:53,-115.1933,36.2111,667.00,54.00,25.00,32.26,100.00,4.00,0.00,29.79,1010.40,10.00,M,CLR,M,M,M,M,M,M,M,M,M,M,M,M,M,M,54.00,KVGT 232253Z AUTO 10004KT 10SM CLR 12/M04 A2979 RMK AO2 SLP104 T01221039,M
DRA,2021-01-23 22:53,-116.0278,36.6206,1009.00,48.00,23.00,37.06,150.00,4.00,0.00,29.81,1008.40,10.00,M,OVC,M,M,M,6500.00,M,M,M,M,M,M,M,M,M,M,46.10,KDRA 232253Z AUTO 15004KT 10SM OVC065 09/M05 A2981 RMK AO2 SLP084 T00891050,M
P68,2021-01-23 22:53,-116.0056,39.6014,1993.00,30.00,26.10,85.21,50.00,3.00,0.01,29.82,1010.30,M,M,M,M,M,M,M,M,M,M,M,M,M,M,M,M,M,26.40,KP68 232253Z AUTO 05003KT M01/M03 A2982 RMK AO1 SLP103 P0001 T10111033,M
RNO,2021-01-23 22:55,-119.7711,39.4839,1341.00,39.00,27.00,61.78,40.00,4.00,0.00,29.91,1013.30,10.00,M,FEW,BKN,OVC,M,3000.00,4500.00,6000.00,M,M,M,M,M,M,M,M,35.59,KRNO 232255Z 04004KT 10SM FEW030 BKN045 OVC060 04/M03 A2991 RMK AO2 SLP133 SH VC SE THRU W T00391028,M
BVU,2021-01-23 22:55,-114.8611,35.9475,671.00,53.60,23.00,30.11,0.00,0.00,0.00,29.84,M,10.00,M,FEW,OVC,M,M,7000.00,9000.00,M,M,M,M,M,M,M,M,M,53.60,KBVU 232255Z AUTO 00000KT 10SM FEW070 OVC090 12/M05 A2984 RMK AO2,M
RTS,2021-01-23 22:55,-119.8764,39.6682,1539.00,37.40,23.00,55.68,360.00,11.00,0.00,29.91,M,10.00,M,BKN,OVC,M,M,3400.00,4000.00,M,M,M,M,M,M,M,M,M,29.29,KRTS 232255Z AUTO 36011KT 10SM BKN034 OVC040 03/M05 A2991 RMK AO2,M
BAM,2021-01-23 22:55,-116.8743,40.5990,1382.36,33.80,32.00,93.03,0.00,0.00,0.00,29.89,M,10.00,M,BKN,OVC,M,M,9000.00,11000.00,M,M,M,M,M,M,M,M,M,33.80,KBAM 232255Z AUTO 00000KT 10SM BKN090 OVC110 01/00 A2989 RMK AO1,M
05U,2021-01-23 22:55,-116.0051,39.6042,1811.23,30.20,26.60,86.28,0.00,0.00,0.00,29.85,M,1.00,M,M,M,M,M,M,M,M,M,BR,M,M,M,M,M,M,30.20,K05U 232255Z AUTO 00000KT 1SM BR M01/M03 A2985 RMK A01,M
MEV,2021-01-23 22:55,-119.7500,38.9963,1441.42,32.00,28.40,86.39,150.00,4.00,0.00,29.91,M,4.00,M,BKN,M,M,M,4300.00,M,M,M,-SN BR,M,M,M,M,M,M,27.42,KMEV 232255Z AUTO 15004KT 4SM -SN BR BKN043 00/M02 A2991 RMK AO2,M
HTH,2021-01-23 22:55,-118.6315,38.5448,1282.89,33.80,32.00,93.03,300.00,5.00,0.00,29.91,M,9.00,M,OVC,M,M,M,2600.00,M,M,M,M,M,M,M,M,M,M,28.53,KHTH 232255Z AUTO 30005KT 9SM OVC026 01/M00 A2991 RMK A01,M
CXP,2021-01-23 22:55,-119.7326,39.1923,1431.00,37.40,30.20,74.98,0.00,0.00,0.00,29.91,M,10.00,M,BKN,OVC,M,M,3000.00,3500.00,M,M,M,M,M,M,M,M,M,37.40,KCXP 232255Z AUTO 00000KT 10SM BKN030 OVC035 03/M01 A2991 RMK AO2,M
EKO,2021-01-23 22:56,-115.7860,40.8242,1367.00,35.00,28.90,77.88,180.00,3.00,0.00,29.84,1011.40,10.00,M,FEW,BKN,M,M,2300.00,3000.00,M,M,M,M,M,M,M,M,M,32.23,KEKO 232256Z AUTO 18003KT 10SM FEW023 BKN030 02/M02 A2984 RMK AO2 SLP114 T00171017,M
WMC,2021-01-23 22:56,-117.8072,40.9019,1315.00,42.00,24.10,48.56,10.00,10.00,0.00,29.88,1012.20,10.00,M,FEW,M,M,M,4000.00,M,M,M,M,M,M,M,M,M,M,35.63,KWMC 232256Z AUTO 01010KT 10SM FEW040 06/M04 A2988 RMK AO2 SLP122 T00561044 $,M
LAS,2021-01-23 22:56,-115.1634,36.0719,663.00,53.00,25.00,33.34,50.00,5.00,0.00,29.82,1009.60,10.00,M,FEW,BKN,BKN,M,10000.00,14000.00,22000.00,M,M,M,M,M,M,M,M,53.10,KLAS 232256Z 05005KT 10SM FEW100 BKN140 BKN220 12/M04 A2982 RMK AO2 SLP096 T01171039,M
NFL,2021-01-23 22:56,-118.7010,39.4166,1199.00,36.00,32.00,85.23,40.00,6.00,0.00,29.90,1010.00,10.00,M,SCT,BKN,BKN,M,1000.00,2200.00,4000.00,M,M,M,M,M,M,M,M,30.35,KNFL 232256Z 04006KT 10SM SCT010 BKN022 BKN040 02/00 A2990 RMK AO2 SLP100 IR// SH VC ALQDS T00220000,M
HND,2021-01-23 22:56,-115.1344,35.9729,742.79,52.00,25.00,34.72,0.00,0.00,0.00,29.84,1012.20,10.00,M,FEW,M,M,M,10000.00,M,M,M,M,M,M,M,M,M,M,52.00,KHND 232256Z 00000KT 10SM FEW100 11/M04 A2984 RMK AO2 SLP122 T01111039,M
TPH,2021-01-23 22:56,-117.0904,38.0505,1654.00,30.90,24.10,75.59,0.00,0.00,0.00,29.83,1011.90,10.00,M,CLR,M,M,M,M,M,M,M,M,M,M,M,M,M,M,30.90,KTPH 232256Z AUTO 00000KT 10SM CLR M01/M04 A2983 RMK AO2 SLP119 T10061044,M
BVU,2021-01-23 23:15,-114.8611,35.9475,671.00,53.60,26.60,34.98,120.00,6.00,0.00,29.84,M,10.00,M,FEW,OVC,M,M,7000.00,8000.00,M,M,M,M,M,M,M,M,M,53.60,KBVU 232315Z AUTO 12006KT 10SM FEW070 OVC080 12/M03 A2984 RMK AO2,M
CXP,2021-01-23 23:15,-119.7326,39.1923,1431.00,35.60,30.20,80.51,M,3.00,0.00,29.92,M,10.00,M,BKN,OVC,M,M,2900.00,3700.00,M,M,-UP,M,M,M,M,M,M,32.80,KCXP 232315Z AUTO VRB03KT 10SM -UP BKN029 OVC037 02/M01 A2992 RMK AO2,M
RTS,2021-01-23 23:15,-119.8764,39.6682,1539.00,37.40,23.00,55.68,10.00,9.00,0.00,29.90,M,10.00,M,BKN,BKN,OVC,M,3700.00,4800.00,6500.00,M,M,M,M,M,M,M,M,30.23,KRTS 232315Z AUTO 01009KT 10SM BKN037 BKN048 OVC065 03/M05 A2990 RMK AO2,M
HTH,2021-01-23 23:15,-118.6315,38.5448,1282.89,33.80,32.00,93.03,330.00,6.00,0.00,29.91,M,10.00,M,OVC,M,M,M,2700.00,M,M,M,M,M,M,M,M,M,M,27.70,KHTH 232315Z AUTO 33006KT 10SM OVC027 01/M00 A2991 RMK A01,M
BAM,2021-01-23 23:15,-116.8743,40.5990,1382.36,33.80,32.00,93.03,0.00,0.00,0.00,29.89,M,10.00,M,BKN,M,M,M,10000.00,M,M,M,M,M,M,M,M,M,M,33.80,KBAM 232315Z AUTO 00000KT 10SM BKN100 01/00 A2989 RMK AO1,M
MEV,2021-01-23 23:15,-119.7500,38.9963,1441.42,32.00,28.40,86.39,0.00,0.00,0.00,29.91,M,4.00,M,OVC,M,M,M,4100.00,M,M,M,-SN BR,M,M,M,M,M,M,32.00,KMEV 232315Z AUTO 00000KT 4SM -SN BR OVC041 00/M02 A2991 RMK AO2,M
05U,2021-01-23 23:15,-116.0051,39.6042,1811.23,30.20,26.60,86.28,0.00,0.00,0.00,29.85,M,2.50,M,M,M,M,M,M,M,M,M,BR,M,M,M,M,M,M,30.20,K05U 232315Z AUTO 00000KT 2 1/2SM BR M01/M03 A2985 RMK A01,M
EKO,2021-01-23 23:16,-115.7860,40.8242,1367.00,33.00,28.90,84.36,210.00,8.00,0.00,29.84,M,10.00,M,BKN,BKN,M,M,2000.00,2800.00,M,M,M,M,M,M,M,M,M,25.47,KEKO 232316Z AUTO 21008KT 10SM BKN020 BKN028 01/M02 A2984 RMK AO2 T00061017,M
BAM,2021-01-23 23:35,-116.8743,40.5990,1382.36,33.80,32.00,93.03,290.00,4.00,0.00,29.91,M,10.00,M,SCT,M,M,M,10000.00,M,M,M,M,M,M,M,M,M,M,29.52,KBAM 232335Z AUTO 29004KT 10SM SCT100 01/00 A2991 RMK AO1,M
05U,2021-01-23 23:35,-116.0051,39.6042,1811.23,30.20,26.60,86.28,0.00,0.00,0.00,29.85,M,1.50,M,M,M,M,M,M,M,M,M,BR,M,M,M,M,M,M,30.20,K05U 232335Z AUTO 00000KT 1 1/2SM BR M01/M03 A2985 RMK A01,M
HTH,2021-01-23 23:35,-118.6315,38.5448,1282.89,33.80,32.00,93.03,320.00,7.00,0.00,29.91,M,10.00,M,FEW,BKN,OVC,M,1100.00,2700.00,3700.00,M,M,M,M,M,M,M,M,26.97,KHTH 232335Z AUTO 32007KT 10SM FEW011 BKN027 OVC037 01/M00 A2991 RMK A01,M
MEV,2021-01-23 23:35,-119.7500,38.9963,1441.42,32.00,28.40,86.39,0.00,0.00,0.00,29.91,M,9.00,M,BKN,OVC,M,M,4100.00,4800.00,M,M,-SN,M,M,M,M,M,M,32.00,KMEV 232335Z AUTO 00000KT 9SM -SN BKN041 OVC048 00/M02 A2991 RMK AO2,M
RTS,2021-01-23 23:35,-119.8764,39.6682,1539.00,37.40,23.00,55.68,10.00,9.00,0.00,29.90,M,10.00,M,FEW,FEW,OVC,M,3800.00,4400.00,6500.00,M,M,M,M,M,M,M,M,30.23,KRTS 232335Z AUTO 01009KT 10SM FEW038 FEW044 OVC065 03/M05 A2990 RMK AO2,M
CXP,2021-01-23 23:35,-119.7326,39.1923,1431.00,35.60,30.20,80.51,0.00,0.00,0.00,29.92,M,10.00,M,SCT,OVC,M,M,3300.00,4000.00,M,M,M,M,M,M,M,M,M,35.60,KCXP 232335Z AUTO 00000KT 10SM SCT033 OVC040 02/M01 A2992 RMK AO2,M
BVU,2021-01-23 23:35,-114.8611,35.9475,671.00,51.80,26.60,37.38,0.00,0.00,0.00,29.84,M,10.00,M,BKN,OVC,M,M,7000.00,8500.00,M,M,M,M,M,M,M,M,M,51.80,KBVU 232335Z AUTO 00000KT 10SM BKN070 OVC085 11/M03 A2984 RMK AO2,M
EKO,2021-01-23 23:48,-115.7860,40.8242,1367.00,33.00,28.90,84.36,210.00,8.00,0.00,29.85,M,10.00,M,FEW,SCT,M,M,3000.00,3600.00,M,M,M,M,M,M,M,M,M,25.47,KEKO 232348Z AUTO 21008KT 10SM FEW030 SCT036 01/M02 A2985 RMK AO2 T00061017,M
05U,2021-01-23 23:50,-116.0051,39.6042,1811.23,30.20,26.60,86.28,0.00,0.00,0.00,29.86,M,1.25,M,M,M,M,M,M,M,M,M,BR,M,M,M,M,M,M,30.20,K05U 232350Z AUTO 00000KT 1 1/4SM BR M01/M03 A2986 RMK A01,M
ELY,2021-01-23 23:53,-114.8453,39.2950,1909.00,33.00,21.00,60.71,310.00,7.00,0.00,29.80,1009.50,10.00,M,OVC,M,M,M,6000.00,M,M,M,M,M,M,M,M,M,M,26.12,KELY 232353Z AUTO 31007KT 10SM OVC060 01/M06 A2980 RMK AO2 SLP095 60000 T00061061 10022 21006 53008,M
VGT,2021-01-23 23:53,-115.1933,36.2111,667.00,54.00,21.90,28.33,100.00,6.00,0.00,29.79,1010.40,10.00,M,BKN,M,M,M,9000.00,M,M,M,M,M,M,M,M,M,M,54.00,KVGT 232353Z 10006KT 10SM BKN090 12/M06 A2979 RMK AO2 SLP104 T01221056 10128 20100 55001,M
P68,2021-01-23 23:53,-116.0056,39.6014,1993.00,30.00,27.00,88.44,0.00,0.00,0.02,29.83,1010.50,M,M,M,M,M,M,M,M,M,M,M,M,M,M,M,M,M,30.00,KP68 232353Z AUTO 00000KT M01/M03 A2983 RMK AO1 SLP105 P0002 60006 T10111028 10000 21017 52009,M
DRA,2021-01-23 23:53,-116.0278,36.6206,1009.00,48.00,24.10,38.80,260.00,3.00,0.00,29.82,1008.60,10.00,M,OVC,M,M,M,7500.00,M,M,M,M,M,M,M,M,M,M,46.98,KDRA 232353Z AUTO 26003KT 10SM OVC075 09/M04 A2982 RMK AO2 SLP086 T00891044 10094 20061 53002,M
LOL,2021-01-23 23:53,-118.5701,40.0684,1192.43,40.00,30.90,69.96,60.00,5.00,0.00,29.90,1013.80,10.00,M,SCT,BKN,M,M,3100.00,3500.00,M,M,M,M,M,M,M,M,M,35.78,KLOL 232353Z AUTO 06005KT 10SM SCT031 BKN035 04/M01 A2990 RMK AO2 SLP138 T00441006 10056 20022 52006,M
RNO,2021-01-23 23:55,-119.7711,39.4839,1341.00,38.00,28.00,67.20,200.00,4.00,0.00,29.91,1013.10,10.00,M,FEW,BKN,BKN,M,3200.00,4500.00,6000.00,M,M,M,M,M,M,M,M,34.31,KRNO 232355Z 20004KT 10SM FEW032 BKN045 BKN060 03/M02 A2991 RMK AO2 SLP131 SH VC SW T00331022 10039 20011 53004,M
CXP,2021-01-23 23:55,-119.7326,39.1923,1431.00,35.60,30.20,80.51,220.00,4.00,0.00,29.92,M,10.00,M,FEW,BKN,OVC,M,3500.00,4100.00,4800.00,M,M,M,M,M,M,M,M,31.62,KCXP 232355Z AUTO 22004KT 10SM FEW035 BKN041 OVC048 02/M01 A2992 RMK AO2,M
BAM,2021-01-23 23:55,-116.8743,40.5990,1382.36,33.80,32.00,93.03,0.00,0.00,0.00,29.91,M,10.00,M,SCT,M,M,M,10000.00,M,M,M,M,M,M,M,M,M,M,33.80,KBAM 232355Z AUTO 00000KT 10SM SCT100 01/00 A2991 RMK AO1,M
BVU,2021-01-23 23:55,-114.8611,35.9475,671.00,51.80,26.60,37.38,0.00,0.00,0.00,29.84,M,10.00,M,BKN,OVC,M,M,6000.00,7000.00,M,M,M,M,M,M,M,M,M,51.80,KBVU 232355Z AUTO 00000KT 10SM BKN060 OVC070 11/M03 A2984 RMK AO2,M
MEV,2021-01-23 23:55,-119.7500,38.9963,1441.42,32.00,28.40,86.39,120.00,3.00,0.00,29.91,M,10.00,M,BKN,OVC,M,M,3800.00,4400.00,M,M,M,M,M,M,M,M,M,28.69,KMEV 232355Z AUTO 12003KT 10SM BKN038 OVC044 00/M02 A2991 RMK AO2,M
HTH,2021-01-23 23:55,-118.6315,38.5448,1282.89,33.80,32.00,93.03,330.00,7.00,0.00,29.92,M,9.00,M,FEW,BKN,OVC,M,1100.00,2300.00,3400.00,M,M,M,M,M,M,M,M,26.97,KHTH 232355Z AUTO 33007KT 9SM FEW011 BKN023 OVC034 01/M00 A2992 RMK A01,M
RTS,2021-01-23 23:55,-119.8764,39.6682,1539.00,37.40,23.00,55.68,40.00,9.00,0.00,29.91,M,10.00,M,FEW,SCT,OVC,M,3200.00,4000.00,6500.00,M,M,M,M,M,M,M,M,30.23,KRTS 232355Z AUTO 04009KT 10SM FEW032 SCT040 OVC065 03/M05 A2991 RMK AO2,M
EKO,2021-01-23 23:56,-115.7860,40.8242,1367.00,33.00,28.90,84.36,210.00,8.00,0.00,29.85,1011.90,10.00,M,FEW,M,M,M,3000.00,M,M,M,M,M,M,M,M,M,M,25.47,KEKO 232356Z AUTO 21008KT 10SM FEW030 01/M02 A2985 RMK AO2 SLP119 60000 T00061017 10017 20000 53009,M
NFL,2021-01-23 23:56,-118.7010,39.4166,1199.00,35.00,30.90,84.49,30.00,3.00,0.00,29.91,1010.20,10.00,M,SCT,BKN,OVC,M,1000.00,2200.00,4000.00,M,M,M,M,M,M,M,M,32.23,KNFL 232356Z 03003KT 10SM SCT010 BKN022 OVC040 02/M01 A2991 RMK AO2 SLP102 IR// 60000 T00171006 10028 20011 51009,M
HND,2021-01-23 23:56,-115.1344,35.9729,742.79,49.00,32.00,51.89,160.00,16.00,0.00,29.85,1012.60,10.00,M,BKN,BKN,OVC,M,5500.00,7000.00,8000.00,M,M,M,M,M,M,M,M,42.45,KHND 232356Z 16016KT 10SM BKN055 BKN070 OVC080 09/00 A2985 RMK AO2 SLP126 T00940000 10117 20089 55000,M
WMC,2021-01-23 23:56,-117.8072,40.9019,1315.00,41.00,21.90,46.19,340.00,9.00,0.00,29.89,1012.40,10.00,M,CLR,M,M,M,M,M,M,M,M,M,M,M,M,M,M,34.70,KWMC 232356Z AUTO 34009KT 10SM CLR 05/M06 A2989 RMK AO2 SLP124 T00501056 10061 20006 53005 $,M
TPH,2021-01-23 23:56,-117.0904,38.0505,1654.00,30.00,23.00,74.87,0.00,0.00,0.00,29.84,1012.30,10.00,M,CLR,M,M,M,M,M,M,M,M,M,M,M,M,M,M,30.00,KTPH 232356Z AUTO 00000KT 10SM CLR M01/M05 A2984 RMK AO2 SLP123 T10111050 10006 21056 53003,M
LAS,2021-01-23 23:56,-115.1634,36.0719,663.00,52.00,25.00,34.72,60.00,8.00,0.00,29.83,1009.80,10.00,M,SCT,BKN,BKN,M,6500.00,8500.00,14000.00,M,M,M,M,M,M,M,M,52.00,KLAS 232356Z 06008KT 10SM SCT065 BKN085 BKN140 11/M04 A2983 RMK AO2 SLP098 VIRGA SE T01111039 10122 20089 55002,M
