station,valid,lon,lat,elevation,tmpf,dwpf,relh,drct,sknt,p01i,alti,mslp,vsby,gust,skyc1,skyc2,skyc3,skyc4,skyl1,skyl2,skyl3,skyl4,wxcodes,ice_accretion_1hr,ice_accretion_3hr,ice_accretion_6hr,peak_wind_gust,peak_wind_drct,peak_wind_time,feel,metar,snowdepth
P68,2022-02-23 00:03,-116.0056,39.6014,1993.00,25.00,17.10,71.53,20.00,10.00,0.00,29.66,M,M,M,M,M,M,M,M,M,M,M,M,M,M,M,M,M,M,14.19,KP68 230003Z AUTO 02010KT M04/M08 A2966 RMK AO1 WSHFT 2346 T10391083,M
WMC,2022-02-23 00:05,-117.8072,40.9019,1315.00,28.90,23.00,78.30,10.00,6.00,T,29.75,M,2.50,M,FEW,BKN,BKN,M,1600.00,2800.00,3900.00,M,-SN,M,M,M,M,M,M,21.80,KWMC 230005Z AUTO 01006KT 2 1/2SM -SN FEW016 BKN028 BKN039 M02/M05 A2975 RMK AO2 VIS 1V5 SNB2358 P0000 T10171050 TSNO,M
ELY,2022-02-23 00:11,-114.8453,39.2950,1909.00,21.00,18.00,87.97,300.00,15.00,T,29.63,M,0.50,24.00,BKN,OVC,M,M,1500.00,2100.00,M,M,SN FZFG,M,M,M,M,M,M,6.52,KELY 230011Z AUTO 30015G24KT 1/2SM SN FZFG BKN015 OVC021 M06/M08 A2963 RMK AO2 WSHFT 2351 P0000 T10611078,M
RTS,2022-02-23 00:15,-119.8764,39.6682,1539.00,M,M,M,M,M,0.00,M,M,M,M,M,M,M,M,M,M,M,M,M,M,M,M,M,M,M,M,KRTS 230015Z AUTO RMK AO2 PNO PWINO,M
BAM,2022-02-23 00:15,-116.8743,40.5990,1382.36,32.00,19.40,59.27,320.00,6.00,0.00,29.73,M,10.00,M,SCT,M,M,M,4200.00,M,M,M,M,M,M,M,M,M,M,25.53,KBAM 230015Z AUTO 32006KT 10SM SCT042 00/M07 A2973 RMK AO1,M
HTH,2022-02-23 00:15,-118.6315,38.5448,1282.89,26.60,24.80,92.80,320.00,11.00,0.00,29.77,M,0.75,M,VV ,M,M,M,500.00,M,M,M,BR,M,M,M,M,M,M,15.64,KHTH 230015Z AUTO 32011KT 3/4SM BR VV005 M03/M04 A2977 RMK A01,M
05U,2022-02-23 00:15,-116.0051,39.6042,1811.23,24.80,17.60,73.70,10.00,7.00,0.00,29.69,M,2.50,M,FEW,FEW,SCT,M,1500.00,2600.00,3200.00,M,HZ,M,M,M,M,M,M,16.00,K05U 230015Z AUTO 01007KT 2 1/2SM HZ FEW015 FEW026 SCT032 M04/M08 A2969 RMK A01,M
TMT,2022-02-23 00:15,-117.1971,39.4643,1749.34,25.70,14.90,63.15,360.00,7.00,0.00,29.70,M,10.00,M,SCT,SCT,M,M,6000.00,7000.00,M,M,M,M,M,M,M,M,M,17.10,KTMT 230015Z AUTO 36007KT 10SM SCT060 SCT070 M03/M09 A2970 RMK AO2 T10351095,M
BVU,2022-02-23 00:15,-114.8611,35.9475,671.00,57.20,17.60,20.99,230.00,23.00,0.00,29.67,M,10.00,30.00,BKN,OVC,M,M,8000.00,9000.00,M,M,M,M,M,M,M,M,M,57.20,KBVU 230015Z AUTO 23023G30KT 10SM BKN080 OVC090 14/M08 A2967 RMK AO2,M
MEV,2022-02-23 00:15,-119.7500,38.9963,1441.42,24.80,19.40,79.62,350.00,13.00,0.00,29.75,M,10.00,M,CLR,M,M,M,M,M,M,M,UP,M,M,M,M,M,M,12.34,KMEV 230015Z AUTO 35013KT 10SM UP CLR M04/M07 A2975 RMK AO2,M
CXP,2022-02-23 00:15,-119.7326,39.1923,1431.00,26.60,19.40,73.89,0.00,0.00,0.00,29.76,M,1.75,M,VV ,M,M,M,700.00,M,M,M,-SN,M,M,M,M,M,M,26.60,KCXP 230015Z AUTO 00000KT 1 3/4SM -SN VV007 M03/M07 A2976 RMK AO2,M
WMC,2022-02-23 00:18,-117.8072,40.9019,1315.00,28.90,21.90,74.76,340.00,7.00,0.02,29.75,M,6.00,M,SCT,BKN,OVC,M,1400.00,2300.00,3000.00,M,-SN,M,M,M,M,M,M,21.00,KWMC 230018Z AUTO 34007KT 6SM -SN SCT014 BKN023 OVC030 M02/M06 A2975 RMK AO2 SNB2358 P0002 T10171056 TSNO,M
ELY,2022-02-23 00:18,-114.8453,39.2950,1909.00,21.00,18.00,87.97,300.00,14.00,T,29.63,M,1.00,22.00,VV ,M,M,M,1300.00,M,M,M,-SN BR,M,M,M,M,M,M,6.98,KELY 230018Z AUTO 30014G22KT 1SM -SN BR VV013 M06/M08 A2963 RMK AO2 WSHFT 2351 P0000 T10611078,M
ELY,2022-02-23 00:26,-114.8453,39.2950,1909.00,21.00,17.10,84.62,310.00,12.00,T,29.64,M,2.00,20.00,OVC,M,M,M,1600.00,M,M,M,-SN BR,M,M,M,M,M,M,8.00,KELY 230026Z AUTO 31012G20KT 2SM -SN BR OVC016 M06/M08 A2964 RMK AO2 WSHFT 2351 P0000 T10611083,M
WMC,2022-02-23 00:29,-117.8072,40.9019,1315.00,28.00,23.00,81.25,330.00,9.00,0.02,29.75,M,1.75,M,SCT,OVC,M,M,1600.00,2300.00,M,M,-SN,M,M,M,M,M,M,18.54,KWMC 230029Z AUTO 33009KT 1 3/4SM -SN SCT016 OVC023 M02/M05 A2975 RMK AO2 SNB2358 P0002 T10221050 TSNO,M
05U,2022-02-23 00:35,-116.0051,39.6042,1811.23,24.80,17.60,73.70,20.00,9.00,0.00,29.68,M,4.00,M,BKN,M,M,M,2900.00,M,M,M,HZ,M,M,M,M,M,M,14.56,K05U 230035Z AUTO 02009KT 4SM HZ BKN029 M04/M08 A2968 RMK A01,M
BVU,2022-02-23 00:35,-114.8611,35.9475,671.00,55.40,21.20,26.13,210.00,19.00,0.00,29.67,M,10.00,25.00,FEW,BKN,OVC,M,4900.00,8000.00,9000.00,M,M,M,M,M,M,M,M,55.40,KBVU 230035Z AUTO 21019G25KT 10SM FEW049 BKN080 OVC090 13/M06 A2967 RMK AO2,M
CXP,2022-02-23 00:35,-119.7326,39.1923,1431.00,24.80,19.40,79.62,0.00,0.00,0.00,29.76,M,3.00,M,CLR,M,M,M,M,M,M,M,-SN,M,M,M,M,M,M,24.80,KCXP 230035Z AUTO 00000KT 3SM -SN CLR M04/M07 A2976 RMK AO2,M
WMC,2022-02-23 00:35,-117.8072,40.9019,1315.00,27.00,23.00,84.66,320.00,9.00,0.02,29.76,M,0.75,M,FEW,BKN,OVC,M,1400.00,2100.00,2600.00,M,-SN BR,M,M,M,M,M,M,17.30,KWMC 230035Z AUTO 32009KT 3/4SM -SN BR FEW014 BKN021 OVC026 M03/M05 A2976 RMK AO2 SNB2358 P0002 T10281050 TSNO,M
RTS,2022-02-23 00:35,-119.8764,39.6682,1539.00,M,M,M,M,M,0.00,M,M,M,M,M,M,M,M,M,M,M,M,M,M,M,M,M,M,M,M,KRTS 230035Z AUTO RMK AO2 PNO PWINO,M
MEV,2022-02-23 00:35,-119.7500,38.9963,1441.42,24.80,19.40,79.62,340.00,8.00,0.00,29.75,M,6.00,M,FEW,SCT,BKN,M,2400.00,3000.00,3500.00,M,-SN BR,M,M,M,M,M,M,15.24,KMEV 230035Z AUTO 34008KT 6SM -SN BR FEW024 SCT030 BKN035 M04/M07 A2975 RMK AO2,M
BAM,2022-02-23 00:35,-116.8743,40.5990,1382.36,32.00,19.40,59.27,300.00,8.00,0.00,29.73,M,10.00,M,SCT,M,M,M,11000.00,M,M,M,M,M,M,M,M,M,M,24.11,KBAM 230035Z AUTO 30008KT 10SM SCT110 00/M07 A2973 RMK AO1,M
HTH,2022-02-23 00:35,-118.6315,38.5448,1282.89,26.60,24.80,92.80,310.00,8.00,0.00,29.77,M,0.50,M,OVC,M,M,M,300.00,M,M,M,FZFG,M,M,M,M,M,M,17.46,KHTH 230035Z AUTO 31008KT 1/2SM FZFG OVC003 M03/M04 A2977 RMK A01,M
TMT,2022-02-23 00:35,-117.1971,39.4643,1749.34,25.70,14.20,61.24,10.00,7.00,0.00,29.69,M,10.00,M,CLR,M,M,M,M,M,M,M,M,M,M,M,M,M,M,17.10,KTMT 230035Z AUTO 01007KT 10SM CLR M03/M10 A2969 RMK AO2 T10351099,M
ELY,2022-02-23 00:35,-114.8453,39.2950,1909.00,21.90,17.10,81.46,20.00,8.00,T,29.64,M,1.00,M,VV ,M,M,M,1500.00,M,M,M,-SN,M,M,M,M,M,M,11.67,KELY 230035Z AUTO 02008KT 340V070 1SM -SN VV015 M06/M08 A2964 RMK AO2 WSHFT 2351 P0000 T10561083,M
ELY,2022-02-23 00:38,-114.8453,39.2950,1909.00,21.90,19.00,88.40,40.00,10.00,T,29.64,M,0.25,18.00,VV ,M,M,M,1200.00,M,M,M,SN FZFG,M,M,M,M,M,M,10.30,KELY 230038Z AUTO 04010G18KT 1/4SM SN FZFG VV012 M06/M07 A2964 RMK AO2 WSHFT 2351 P0000 T10561072,M
WMC,2022-02-23 00:49,-117.8072,40.9019,1315.00,27.00,21.90,80.83,300.00,6.00,0.02,29.75,M,1.25,M,OVC,M,M,M,2400.00,M,M,M,-SN,M,M,M,M,M,M,19.51,KWMC 230049Z AUTO 30006KT 1 1/4SM -SN OVC024 M03/M06 A2975 RMK AO2 SNB2358 P0002 T10281056 TSNO,M
CXP,2022-02-23 00:50,-119.7326,39.1923,1431.00,24.80,21.20,85.96,0.00,0.00,0.00,29.76,M,9.00,M,FEW,BKN,M,M,5500.00,7000.00,M,M,M,M,M,M,M,M,M,24.80,KCXP 230050Z AUTO 00000KT 9SM FEW055 BKN070 M04/M06 A2976 RMK AO2,M
05U,2022-02-23 00:50,-116.0051,39.6042,1811.23,23.00,17.60,79.47,40.00,7.00,0.00,29.69,M,7.00,M,FEW,FEW,BKN,M,1900.00,2300.00,2900.00,M,M,M,M,M,M,M,M,13.81,K05U 230050Z AUTO 04007KT 7SM FEW019 FEW023 BKN029 M05/M08 A2969 RMK A01,M
WMC,2022-02-23 00:51,-117.8072,40.9019,1315.00,26.60,21.20,79.77,300.00,7.00,0.02,29.76,M,2.00,M,FEW,BKN,OVC,M,1900.00,2600.00,4800.00,M,-SN,M,M,M,M,M,M,18.20,KWMC 230051Z AUTO 30007KT 2SM -SN FEW019 BKN026 OVC048 M03/M06 A2976 RMK AO2 SNB2358 P0002 TSNO,M
DRA,2022-02-23 00:53,-116.0278,36.6206,1009.00,46.00,12.00,24.86,220.00,25.00,0.00,29.62,1002.60,10.00,41.00,BKN,M,M,M,8500.00,M,M,M,M,M,M,M,42.00,230.00,2022-02-23 00:26,36.77,KDRA 230053Z AUTO 22025G41KT 10SM BKN085 08/M11 A2962 RMK AO2 PK WND 23042/0026 SLP026 T00781111,M
ELY,2022-02-23 00:53,-114.8453,39.2950,1909.00,21.00,19.00,91.83,40.00,8.00,0.03,29.65,1008.10,0.25,M,VV ,M,M,M,800.00,M,M,M,+SN FZFG,M,M,M,M,M,M,10.56,KELY 230053Z AUTO 04008KT 1/4SM +SN FZFG VV008 M06/M07 A2965 RMK AO2 WSHFT 2351 SLP081 P0003 T10611072,M
P68,2022-02-23 00:53,-116.0056,39.6014,1993.00,23.00,18.00,80.85,30.00,7.00,0.01,29.66,1006.70,M,M,M,M,M,M,M,M,M,M,M,M,M,M,M,M,M,13.81,KP68 230053Z AUTO 03007KT M05/M08 A2966 RMK AO1 WSHFT 2346 SLP067 P0001 T10501078,M
LOL,2022-02-23 00:53,-118.5701,40.0684,1192.43,33.00,18.00,53.40,10.00,5.00,0.00,29.76,1010.00,10.00,M,CLR,M,M,M,M,M,M,M,M,M,M,M,M,M,M,27.70,KLOL 230053Z AUTO 01005KT 10SM CLR 01/M08 A2976 RMK AO2 SLP100 T00061078,M
VGT,2022-02-23 00:53,-115.1933,36.2111,667.00,55.00,19.90,25.09,M,M,0.00,29.64,1005.20,10.00,M,BKN,M,M,M,9000.00,M,M,M,M,M,M,M,M,M,M,55.00,KVGT 230053Z 10SM BKN090 13/M07 A2964 RMK AO2 SLP052 T01281067 $,M
WMC,2022-02-23 00:54,-117.8072,40.9019,1315.00,26.60,23.00,86.07,310.00,8.00,0.02,29.76,M,5.00,M,FEW,BKN,OVC,M,2400.00,3100.00,7500.00,M,-SN BR,M,M,M,M,M,M,17.46,KWMC 230054Z AUTO 31008KT 5SM -SN BR FEW024 BKN031 OVC075 M03/M05 A2976 RMK AO2 SNB2358 P0002 TSNO,M
BVU,2022-02-23 00:55,-114.8611,35.9475,671.00,55.40,21.20,26.13,220.00,19.00,0.00,29.67,M,10.00,M,BKN,OVC,M,M,8000.00,9000.00,M,M,M,M,M,M,M,M,M,55.40,KBVU 230055Z AUTO 22019KT 10SM BKN080 OVC090 13/M06 A2967 RMK AO2,M
RNO,2022-02-23 00:55,-119.7711,39.4839,1341.00,30.00,10.00,42.62,10.00,9.00,0.00,29.76,1008.90,10.00,M,FEW,BKN,BKN,M,4500.00,10000.00,20000.00,M,M,M,M,M,M,M,M,21.03,KRNO 230055Z 01009KT 10SM FEW045 BKN100 BKN200 M01/M12 A2976 RMK AO2 SLP089 SH VC S THRU W MTN TOPS OBSCD SW THRU W T10111122 $,M
RTS,2022-02-23 00:55,-119.8764,39.6682,1539.00,M,M,M,M,M,0.00,M,M,M,M,M,M,M,M,M,M,M,M,M,M,M,M,M,M,M,M,KRTS 230055Z AUTO RMK AO2 PNO PWINO,M
MEV,2022-02-23 00:55,-119.7500,38.9963,1441.42,23.00,21.20,92.69,300.00,4.00,0.00,29.75,M,1.25,M,SCT,SCT,BKN,M,300.00,700.00,2600.00,M,-SN BR,M,M,M,M,M,M,16.91,KMEV 230055Z AUTO 30004KT 1 1/4SM -SN BR SCT003 SCT007 BKN026 M05/M06 A2975 RMK AO2,M
TMT,2022-02-23 00:55,-117.1971,39.4643,1749.34,24.10,13.30,62.93,350.00,7.00,0.00,29.70,M,10.00,M,SCT,M,M,M,3900.00,M,M,M,M,M,M,M,M,M,M,15.15,KTMT 230055Z AUTO 35007KT 10SM SCT039 M04/M10 A2970 RMK AO2 T10441104,M
BAM,2022-02-23 00:55,-116.8743,40.5990,1382.36,32.00,19.40,59.27,300.00,5.00,0.00,29.74,M,10.00,M,SCT,M,M,M,11000.00,M,M,M,M,M,M,M,M,M,M,26.40,KBAM 230055Z AUTO 30005KT 10SM SCT110 00/M07 A2974 RMK AO1,M
HTH,2022-02-23 00:55,-118.6315,38.5448,1282.89,24.80,23.00,92.74,290.00,9.00,0.01,29.77,M,1.75,M,SCT,M,M,M,300.00,M,M,M,BR,M,M,M,M,M,M,14.56,KHTH 230055Z AUTO 29009KT 1 3/4SM BR SCT003 M04/M05 A2977 RMK A01 P0001,M
LAS,2022-02-23 00:56,-115.1634,36.0719,663.00,52.00,27.00,37.72,200.00,16.00,0.00,29.64,1003.50,10.00,39.00,BKN,BKN,M,M,6500.00,8500.00,M,M,M,M,M,M,41.00,230.00,2022-02-23 00:28,52.00,KLAS 230056Z 20016G39KT 10SM BKN065 BKN085 11/M03 A2964 RMK AO2 PK WND 23041/0028 SLP035 VCSH ALQDS T01111028,M
HND,2022-02-23 00:56,-115.1344,35.9729,742.79,50.00,28.00,42.33,230.00,19.00,T,29.68,1006.70,10.00,22.00,FEW,SCT,SCT,M,4500.00,7500.00,9500.00,M,M,M,M,M,37.00,230.00,2022-02-23 00:38,50.00,KHND 230056Z 23019G22KT 10SM FEW045 SCT075 SCT095 10/M02 A2968 RMK AO2 PK WND 23037/0038 RAB45E55 SLP067 P0000 T01001022,M
EKO,2022-02-23 00:56,-115.7860,40.8242,1367.00,26.10,15.10,62.65,280.00,3.00,0.00,29.69,1008.20,10.00,M,BKN,M,M,M,11000.00,M,M,M,M,M,M,M,M,M,M,21.94,KEKO 230056Z AUTO 28003KT 10SM BKN110 M03/M09 A2969 RMK AO2 SLP082 T10331094,M
WMC,2022-02-23 00:56,-117.8072,40.9019,1315.00,27.00,23.00,84.66,310.00,7.00,0.02,29.76,1009.60,7.00,M,FEW,BKN,OVC,M,2400.00,3100.00,7500.00,M,-SN,M,M,M,M,M,M,18.68,KWMC 230056Z AUTO 31007KT 7SM -SN FEW024 BKN031 OVC075 M03/M05 A2976 RMK AO2 SNB2358 SLP096 P0002 T10281050 TSNO,M
NFL,2022-02-23 00:56,-118.7010,39.4166,1199.00,30.00,24.10,78.40,M,5.00,0.00,29.75,1005.50,10.00,M,SCT,BKN,BKN,M,3000.00,7000.00,25000.00,M,M,M,M,M,M,M,M,24.02,KNFL 230056Z VRB05KT 10SM SCT030 BKN070 BKN250 M01/M04 A2975 RMK AO2 SLP055 SH VC S T10111044,M
TPH,2022-02-23 00:56,-117.0904,38.0505,1654.00,30.90,7.00,35.90,360.00,12.00,0.00,29.65,1006.70,10.00,M,OVC,M,M,M,6000.00,M,M,M,M,M,M,M,M,M,M,20.60,KTPH 230056Z AUTO 36012KT 10SM OVC060 M01/M14 A2965 RMK AO2 SLP067 T10061139,M
WMC,2022-02-23 01:03,-117.8072,40.9019,1315.00,27.00,23.00,84.66,320.00,8.00,T,29.76,M,3.00,M,BKN,BKN,OVC,M,2900.00,4800.00,7500.00,M,-SN BR,M,M,M,M,M,M,17.95,KWMC 230103Z AUTO 32008KT 3SM -SN BR BKN029 BKN048 OVC075 M03/M05 A2976 RMK AO2 P0000 T10281050 TSNO,M
WMC,2022-02-23 01:08,-117.8072,40.9019,1315.00,27.00,23.00,84.66,320.00,9.00,T,29.76,M,2.00,M,FEW,BKN,OVC,M,1900.00,3100.00,5500.00,M,-SN BR,M,M,M,M,M,M,17.30,KWMC 230108Z AUTO 32009KT 2SM -SN BR FEW019 BKN031 OVC055 M03/M05 A2976 RMK AO2 P0000 T10281050 TSNO,M
WMC,2022-02-23 01:10,-117.8072,40.9019,1315.00,26.60,23.00,86.07,320.00,8.00,0.00,29.76,M,0.75,M,FEW,BKN,OVC,M,1900.00,2500.00,5500.00,M,-SN BR,M,M,M,M,M,M,17.46,KWMC 230110Z AUTO 32008KT 3/4SM -SN BR FEW019 BKN025 OVC055 M03/M05 A2976,M
CXP,2022-02-23 01:15,-119.7326,39.1923,1431.00,24.80,19.40,79.62,0.00,0.00,0.00,29.76,M,10.00,M,FEW,SCT,BKN,M,3300.00,4000.00,4800.00,M,M,M,M,M,M,M,M,24.80,KCXP 230115Z AUTO 00000KT 10SM FEW033 SCT040 BKN048 M04/M07 A2976 RMK AO2,M
BVU,2022-02-23 01:15,-114.8611,35.9475,671.00,53.60,30.20,40.54,220.00,17.00,0.00,29.68,M,8.00,29.00,FEW,SCT,BKN,M,3400.00,5000.00,6000.00,M,M,M,M,M,M,M,M,53.60,KBVU 230115Z AUTO 22017G29KT 8SM FEW034 SCT050 BKN060 12/M01 A2968 RMK AO2,M
HTH,2022-02-23 01:15,-118.6315,38.5448,1282.89,26.60,21.20,79.77,240.00,6.00,0.00,29.77,M,9.00,M,FEW,BKN,M,M,3500.00,4800.00,M,M,M,M,M,M,M,M,M,19.03,KHTH 230115Z AUTO 24006KT 9SM FEW035 BKN048 M03/M06 A2977 RMK A01,M
TMT,2022-02-23 01:15,-117.1971,39.4643,1749.34,23.40,13.10,64.23,350.00,6.00,0.00,29.70,M,10.00,M,CLR,M,M,M,M,M,M,M,M,M,M,M,M,M,M,15.17,KTMT 230115Z AUTO 35006KT 10SM CLR M05/M10 A2970 RMK AO2 T10481105,M
BAM,2022-02-23 01:15,-116.8743,40.5990,1382.36,30.20,23.00,74.26,340.00,10.00,0.00,29.75,M,10.00,M,CLR,M,M,M,M,M,M,M,M,M,M,M,M,M,M,20.71,KBAM 230115Z AUTO 34010KT 10SM CLR M01/M05 A2975 RMK AO1,M
MEV,2022-02-23 01:15,-119.7500,38.9963,1441.42,23.00,21.20,92.69,0.00,0.00,0.00,29.75,M,1.00,M,BKN,BKN,BKN,M,300.00,700.00,1000.00,M,-SN BR,M,M,M,M,M,M,23.00,KMEV 230115Z AUTO 00000KT 1SM -SN BR BKN003 BKN007 BKN010 M05/M06 A2975 RMK AO2,M
05U,2022-02-23 01:15,-116.0051,39.6042,1811.23,21.20,17.60,85.74,70.00,3.00,0.00,29.69,M,10.00,M,FEW,M,M,M,3300.00,M,M,M,M,M,M,M,M,M,M,16.34,K05U 230115Z AUTO 07003KT 10SM FEW033 M06/M08 A2969 RMK A01,M
RTS,2022-02-23 01:15,-119.8764,39.6682,1539.00,M,M,M,M,M,0.00,M,M,M,M,M,M,M,M,M,M,M,M,M,M,M,M,M,M,M,M,KRTS 230115Z AUTO RMK AO2 PNO PWINO,M
WMC,2022-02-23 01:19,-117.8072,40.9019,1315.00,26.10,23.00,87.87,320.00,4.00,0.01,29.76,M,0.25,M,BKN,BKN,OVC,M,1200.00,2000.00,5500.00,M,SN FZFG,M,M,M,M,M,M,20.53,KWMC 230119Z AUTO 32004KT 1/4SM SN FZFG BKN012 BKN020 OVC055 M03/M05 A2976 RMK AO2 P0001 T10331050 TSNO,M
ELY,2022-02-23 01:27,-114.8453,39.2950,1909.00,19.90,18.00,92.19,40.00,11.00,0.04,29.65,M,0.75,M,VV ,M,M,M,900.00,M,M,M,-SN BR,M,M,M,M,M,M,7.18,KELY 230127Z AUTO 04011KT 3/4SM -SN BR VV009 M07/M08 A2965 RMK AO2 P0004 T10671078,M
WMC,2022-02-23 01:31,-117.8072,40.9019,1315.00,26.10,23.00,87.87,280.00,3.00,0.02,29.76,M,0.50,M,BKN,OVC,M,M,1200.00,1800.00,M,M,SN FZFG,M,M,M,M,M,M,21.94,KWMC 230131Z AUTO 28003KT 1/2SM SN FZFG BKN012 OVC018 M03/M05 A2976 RMK AO2 P0002 T10331050 TSNO,M
ELY,2022-02-23 01:32,-114.8453,39.2950,1909.00,19.90,18.00,92.19,40.00,11.00,0.04,29.65,M,1.00,M,VV ,M,M,M,1000.00,M,M,M,-SN BR,M,M,M,M,M,M,7.18,KELY 230132Z AUTO 04011KT 1SM -SN BR VV010 M07/M08 A2965 RMK AO2 P0004 T10671078,M
BVU,2022-02-23 01:35,-114.8611,35.9475,671.00,50.00,33.80,53.54,240.00,19.00,0.00,29.70,M,7.00,33.00,FEW,SCT,BKN,M,2900.00,3800.00,5000.00,M,-RA,M,M,M,M,M,M,50.00,KBVU 230135Z AUTO 24019G33KT 7SM -RA FEW029 SCT038 BKN050 10/01 A2970 RMK AO2,M
CXP,2022-02-23 01:35,-119.7326,39.1923,1431.00,24.80,19.40,79.62,0.00,0.00,0.00,29.77,M,10.00,M,FEW,SCT,OVC,M,3400.00,4200.00,5500.00,M,M,M,M,M,M,M,M,24.80,KCXP 230135Z AUTO 00000KT 10SM FEW034 SCT042 OVC055 M04/M07 A2977 RMK AO2,M
RTS,2022-02-23 01:35,-119.8764,39.6682,1539.00,M,M,M,M,M,0.00,M,M,M,M,M,M,M,M,M,M,M,M,M,M,M,M,M,M,M,M,KRTS 230135Z AUTO RMK AO2 PNO PWINO,M
05U,2022-02-23 01:35,-116.0051,39.6042,1811.23,21.20,17.60,85.74,0.00,0.00,0.00,29.69,M,10.00,M,M,M,M,M,M,M,M,M,M,M,M,M,M,M,M,21.20,K05U 230135Z AUTO 00000KT 10SM M06/M08 A2969 RMK A01,M
MEV,2022-02-23 01:35,-119.7500,38.9963,1441.42,23.00,21.20,92.69,230.00,6.00,0.00,29.76,M,0.75,M,OVC,M,M,M,400.00,M,M,M,-SN BR,M,M,M,M,M,M,14.69,KMEV 230135Z AUTO 23006KT 3/4SM -SN BR OVC004 M05/M06 A2976 RMK AO2,M
TMT,2022-02-23 01:35,-117.1971,39.4643,1749.34,21.60,13.30,69.91,340.00,4.00,0.00,29.70,M,10.00,M,CLR,M,M,M,M,M,M,M,M,M,M,M,M,M,M,15.28,KTMT 230135Z AUTO 34004KT 10SM CLR M06/M10 A2970 RMK AO2 T10581104,M
BAM,2022-02-23 01:35,-116.8743,40.5990,1382.36,28.40,23.00,79.92,360.00,9.00,0.00,29.75,M,10.00,M,CLR,M,M,M,M,M,M,M,M,M,M,M,M,M,M,19.04,KBAM 230135Z AUTO 36009KT 10SM CLR M02/M05 A2975 RMK AO1,M
HTH,2022-02-23 01:35,-118.6315,38.5448,1282.89,26.60,19.40,73.89,M,3.00,0.00,29.77,M,9.00,M,SCT,OVC,M,M,3100.00,4800.00,M,M,M,M,M,M,M,M,M,22.52,KHTH 230135Z AUTO VRB03KT 9SM SCT031 OVC048 M03/M07 A2977 RMK A01,M
ELY,2022-02-23 01:45,-114.8453,39.2950,1909.00,19.90,18.00,92.19,30.00,9.00,0.05,29.65,M,1.50,M,OVC,M,M,M,1500.00,M,M,M,-SN BR,M,M,M,M,M,M,8.47,KELY 230145Z AUTO 03009KT 1 1/2SM -SN BR OVC015 M07/M08 A2965 RMK AO2 P0005 T10671078,M
WMC,2022-02-23 01:45,-117.8072,40.9019,1315.00,26.10,23.00,87.87,300.00,5.00,0.03,29.76,M,1.00,M,VV ,M,M,M,1900.00,M,M,M,-SN BR,M,M,M,M,M,M,19.39,KWMC 230145Z AUTO 30005KT 1SM -SN BR VV019 M03/M05 A2976 RMK AO2 P0003 T10331050 TSNO,M
WMC,2022-02-23 01:49,-117.8072,40.9019,1315.00,26.10,23.00,87.87,280.00,5.00,0.03,29.76,M,2.00,M,OVC,M,M,M,2700.00,M,M,M,-SN BR,M,M,M,M,M,M,19.39,KWMC 230149Z AUTO 28005KT 2SM -SN BR OVC027 M03/M05 A2976 RMK AO2 P0003 T10331050 TSNO,M
VGT,2022-02-23 01:53,-115.1933,36.2111,667.00,52.00,21.00,29.35,M,M,0.00,29.66,1006.00,10.00,M,FEW,BKN,BKN,M,7500.00,9000.00,11000.00,M,M,M,M,M,M,M,M,52.00,KVGT 230153Z 10SM FEW075 BKN090 BKN110 11/M06 A2966 RMK AO2 SLP060 T01111061 $,M
DRA,2022-02-23 01:53,-116.0278,36.6206,1009.00,44.00,10.90,25.45,210.00,23.00,0.00,29.63,1002.70,10.00,36.00,CLR,M,M,M,M,M,M,M,M,M,M,M,37.00,210.00,2022-02-23 00:54,34.58,KDRA 230153Z AUTO 21023G36KT 10SM CLR 07/M12 A2963 RMK AO2 PK WND 21037/0054 SLP027 T00671117,M
LOL,2022-02-23 01:53,-118.5701,40.0684,1192.43,28.90,19.00,66.08,330.00,8.00,0.00,29.77,1011.00,10.00,M,FEW,M,M,M,4300.00,M,M,M,M,M,M,M,M,M,M,20.29,KLOL 230153Z AUTO 33008KT 10SM FEW043 M02/M07 A2977 RMK AO2 SLP110 T10171072,M
ELY,2022-02-23 01:53,-114.8453,39.2950,1909.00,19.90,18.00,92.19,30.00,11.00,0.05,29.65,1008.30,1.75,M,OVC,M,M,M,1700.00,M,M,M,-SN BR,M,M,M,M,M,M,7.18,KELY 230153Z AUTO 03011KT 1 3/4SM -SN BR OVC017 M07/M08 A2965 RMK AO2 SLP083 P0005 T10671078,M
P68,2022-02-23 01:53,-116.0056,39.6014,1993.00,21.90,17.10,81.46,0.00,0.00,0.00,29.67,1007.30,M,M,M,M,M,M,M,M,M,M,M,M,M,M,M,M,M,21.90,KP68 230153Z AUTO 00000KT M06/M08 A2967 RMK AO1 SLP073 T10561083,M
BVU,2022-02-23 01:55,-114.8611,35.9475,671.00,50.00,33.80,53.54,230.00,13.00,0.00,29.69,M,10.00,M,FEW,BKN,OVC,M,2400.00,4800.00,9500.00,M,M,M,M,M,M,M,M,50.00,KBVU 230155Z AUTO 23013KT 10SM FEW024 BKN048 OVC095 10/01 A2969 RMK AO2,M
CXP,2022-02-23 01:55,-119.7326,39.1923,1431.00,24.80,19.40,79.62,280.00,4.00,0.00,29.77,M,10.00,M,BKN,BKN,OVC,M,4000.00,4600.00,5000.00,M,M,M,M,M,M,M,M,19.01,KCXP 230155Z AUTO 28004KT 10SM BKN040 BKN046 OVC050 M04/M07 A2977 RMK AO2,M
RNO,2022-02-23 01:55,-119.7711,39.4839,1341.00,28.90,12.90,50.70,360.00,8.00,0.00,29.77,1009.70,10.00,M,FEW,BKN,M,M,4500.00,10000.00,M,M,M,M,M,M,M,M,M,20.29,KRNO 230155Z 36008KT 10SM FEW045 BKN100 M02/M11 A2977 RMK AO2 SLP097 MTN TOPS OBSCD DSNT SW T10171106 $,M
RTS,2022-02-23 01:55,-119.8764,39.6682,1539.00,M,M,M,M,M,0.00,M,M,M,M,M,M,M,M,M,M,M,M,M,M,M,M,M,M,M,M,KRTS 230155Z AUTO RMK AO2 PNO PWINO,M
05U,2022-02-23 01:55,-116.0051,39.6042,1811.23,21.20,17.60,85.74,0.00,0.00,0.00,29.69,M,10.00,M,FEW,BKN,OVC,M,4000.00,7500.00,8500.00,M,M,M,M,M,M,M,M,21.20,K05U 230155Z AUTO 00000KT 10SM FEW040 BKN075 OVC085 M06/M08 A2969 RMK A01,M
MEV,2022-02-23 01:55,-119.7500,38.9963,1441.42,23.00,21.20,92.69,230.00,5.00,0.00,29.76,M,2.00,M,SCT,BKN,OVC,M,400.00,2600.00,3600.00,M,UP BR,M,M,M,M,M,M,15.71,KMEV 230155Z AUTO 23005KT 2SM UP BR SCT004 BKN026 OVC036 M05/M06 A2976 RMK AO2,M
TMT,2022-02-23 01:55,-117.1971,39.4643,1749.34,19.20,12.70,75.40,320.00,3.00,0.00,29.70,M,10.00,M,CLR,M,M,M,M,M,M,M,M,M,M,M,M,M,M,14.06,KTMT 230155Z AUTO 32003KT 10SM CLR M07/M11 A2970 RMK AO2 T10711107,M
BAM,2022-02-23 01:55,-116.8743,40.5990,1382.36,28.40,23.00,79.92,360.00,9.00,0.00,29.75,M,10.00,M,CLR,M,M,M,M,M,M,M,M,M,M,M,M,M,M,19.04,KBAM 230155Z AUTO 36009KT 10SM CLR M02/M05 A2975 RMK AO1,M
HTH,2022-02-23 01:55,-118.6315,38.5448,1282.89,26.60,19.40,73.89,220.00,5.00,0.00,29.77,M,10.00,M,FEW,OVC,M,M,3000.00,4900.00,M,M,M,M,M,M,M,M,M,19.98,KHTH 230155Z AUTO 22005KT 10SM FEW030 OVC049 M03/M07 A2977 RMK A01,M
TPH,2022-02-23 01:56,-117.0904,38.0505,1654.00,28.90,4.00,33.80,330.00,8.00,0.00,29.66,1007.30,10.00,M,OVC,M,M,M,9000.00,M,M,M,M,M,M,M,M,M,M,20.29,KTPH 230156Z AUTO 33008KT 10SM OVC090 M02/M16 A2966 RMK AO2 SLP073 T10171156,M
WMC,2022-02-23 01:56,-117.8072,40.9019,1315.00,25.00,23.00,91.97,270.00,6.00,0.03,29.77,1010.30,6.00,M,OVC,M,M,M,3900.00,M,M,M,-SN BR,M,M,M,M,M,M,17.10,KWMC 230156Z AUTO 27006KT 6SM -SN BR OVC039 M04/M05 A2977 RMK AO2 SLP103 P0003 T10391050 TSNO,M
NFL,2022-02-23 01:56,-118.7010,39.4166,1199.00,28.90,24.10,82.00,M,5.00,0.00,29.76,1005.80,10.00,M,SCT,BKN,BKN,M,3000.00,7000.00,25000.00,M,M,M,M,M,M,M,M,22.71,KNFL 230156Z VRB05KT 10SM SCT030 BKN070 BKN250 M02/M04 A2976 RMK AO2 SLP058 SH DSNT S-SW T10171044,M
LAS,2022-02-23 01:56,-115.1634,36.0719,663.00,50.00,28.00,42.33,210.00,11.00,0.00,29.68,1004.80,10.00,17.00,BKN,BKN,M,M,6500.00,8500.00,M,M,M,M,M,M,40.00,230.00,2022-02-23 01:02,50.00,KLAS 230156Z 21011G17KT 10SM BKN065 BKN085 10/M02 A2968 RMK AO2 PK WND 23040/0102 SLP048 VCSH ALQDS T01001022,M
EKO,2022-02-23 01:56,-115.7860,40.8242,1367.00,23.00,12.90,64.75,220.00,3.00,0.00,29.70,1009.10,10.00,M,OVC,M,M,M,11000.00,M,M,M,M,M,M,M,M,M,M,18.40,KEKO 230156Z AUTO 22003KT 10SM OVC110 M05/M11 A2970 RMK AO2 SLP091 T10501106,M
HND,2022-02-23 01:56,-115.1344,35.9729,742.79,47.00,33.00,58.47,220.00,25.00,T,29.71,1008.20,10.00,36.00,FEW,BKN,OVC,M,3200.00,6500.00,9000.00,M,-RA,M,M,M,36.00,220.00,2022-02-23 01:49,37.99,KHND 230156Z 22025G36KT 10SM -RA FEW032 BKN065 OVC090 08/01 A2971 RMK AO2 PK WND 22036/0149 RAB14E30B51 PRESRR SLP082 P0000 T00830006,M
LSV,2022-02-23 01:58,-115.0343,36.2362,570.00,52.00,25.20,35.01,190.00,11.00,0.00,29.69,1005.60,10.00,19.00,SCT,BKN,M,M,6500.00,11000.00,M,M,M,M,M,M,M,M,M,52.00,KLSV 230158Z 19011G19KT 10SM SCT065 BKN110 11/M04 A2969 RMK AO2A SLP056 WND DATA ESTMD ALSTG/SLP ESTMD T01111038 $,M
ELY,2022-02-23 02:01,-114.8453,39.2950,1909.00,19.90,18.00,92.19,30.00,9.00,T,29.65,M,2.00,M,OVC,M,M,M,1700.00,M,M,M,-SN BR,M,M,M,M,M,M,8.47,KELY 230201Z AUTO 03009KT 2SM -SN BR OVC017 M07/M08 A2965 RMK AO2 P0000 T10671078,M
CXP,2022-02-23 02:05,-119.7326,39.1923,1431.00,24.80,19.40,79.62,290.00,3.00,0.00,29.77,M,10.00,M,SCT,BKN,OVC,M,3900.00,4500.00,5000.00,M,M,M,M,M,M,M,M,20.46,KCXP 230205Z AUTO 29003KT 10SM SCT039 BKN045 OVC050 M04/M07 A2977 RMK AO2,M
05U,2022-02-23 02:15,-116.0051,39.6042,1811.23,21.20,17.60,85.74,0.00,0.00,0.00,29.70,M,5.00,M,FEW,SCT,BKN,M,300.00,2100.00,3400.00,M,BR,M,M,M,M,M,M,21.20,K05U 230215Z AUTO 00000KT 5SM BR FEW003 SCT021 BKN034 M06/M08 A2970 RMK A01,M
RTS,2022-02-23 02:15,-119.8764,39.6682,1539.00,M,M,M,M,M,0.00,M,M,M,M,M,M,M,M,M,M,M,M,M,M,M,M,M,M,M,M,KRTS 230215Z AUTO RMK AO2 PNO PWINO,M
BVU,2022-02-23 02:15,-114.8611,35.9475,671.00,50.00,32.00,49.81,260.00,16.00,0.00,29.69,M,10.00,M,FEW,BKN,BKN,M,5500.00,7500.00,9500.00,M,M,M,M,M,M,M,M,50.00,KBVU 230215Z AUTO 26016KT 10SM FEW055 BKN075 BKN095 10/00 A2969 RMK AO2,M
TMT,2022-02-23 02:15,-117.1971,39.4643,1749.34,19.90,13.10,74.48,360.00,3.00,0.00,29.71,M,10.00,M,CLR,M,M,M,M,M,M,M,M,M,M,M,M,M,M,14.86,KTMT 230215Z AUTO 36003KT 10SM CLR M07/M10 A2971 RMK AO2 T10671105,M
HTH,2022-02-23 02:15,-118.6315,38.5448,1282.89,26.60,19.40,73.89,210.00,6.00,0.00,29.78,M,10.00,M,SCT,OVC,M,M,3000.00,5000.00,M,M,M,M,M,M,M,M,M,19.03,KHTH 230215Z AUTO 21006KT 10SM SCT030 OVC050 M03/M07 A2978 RMK A01,M
BAM,2022-02-23 02:15,-116.8743,40.5990,1382.36,26.60,21.20,79.77,350.00,9.00,0.00,29.76,M,10.00,M,CLR,M,M,M,M,M,M,M,M,M,M,M,M,M,M,16.80,KBAM 230215Z AUTO 35009KT 10SM CLR M03/M06 A2976 RMK AO1,M
MEV,2022-02-23 02:15,-119.7500,38.9963,1441.42,23.00,21.20,92.69,230.00,4.00,0.00,29.77,M,2.00,M,SCT,BKN,OVC,M,400.00,2500.00,3400.00,M,-SN BR,M,M,M,M,M,M,16.91,KMEV 230215Z AUTO 23004KT 2SM -SN BR SCT004 BKN025 OVC034 M05/M06 A2977 RMK AO2 VIS 1V2 1/2,M
WMC,2022-02-23 02:17,-117.8072,40.9019,1315.00,26.10,23.00,87.87,340.00,5.00,T,29.78,M,6.00,M,SCT,BKN,OVC,M,1400.00,2000.00,5500.00,M,-SN BR,M,M,M,M,M,M,19.39,KWMC 230217Z AUTO 34005KT 6SM -SN BR SCT014 BKN020 OVC055 M03/M05 A2978 RMK AO2 P0000 T10331050 TSNO,M
INS,2022-02-23 02:21,-115.6733,36.5872,955.00,46.00,11.30,24.10,240.00,27.00,0.00,29.63,1003.10,10.00,38.00,CLR,M,M,M,M,M,M,M,M,M,M,M,42.00,230.00,2022-02-23 01:47,36.43,KINS 230221Z 24027G38KT 10SM CLR 08/M11 A2963 RMK PK WND 23042/0147 SLP031 T00781115 51008 $,M
WMC,2022-02-23 02:26,-117.8072,40.9019,1315.00,26.10,21.90,83.89,20.00,10.00,T,29.78,M,8.00,M,FEW,BKN,OVC,M,1000.00,1400.00,2600.00,M,-SN,M,M,M,M,M,M,15.57,KWMC 230226Z AUTO 02010KT 8SM -SN FEW010 BKN014 OVC026 M03/M06 A2978 RMK AO2 P0000 T10331056 TSNO,M
ELY,2022-02-23 02:28,-114.8453,39.2950,1909.00,19.90,18.00,92.19,20.00,11.00,T,29.65,M,1.75,M,OVC,M,M,M,2200.00,M,M,M,-SN BR,M,M,M,M,M,M,7.18,KELY 230228Z AUTO 02011KT 1 3/4SM -SN BR OVC022 M07/M08 A2965 RMK AO2 P0000 T10671078,M
WMC,2022-02-23 02:29,-117.8072,40.9019,1315.00,25.00,21.00,84.53,20.00,12.00,T,29.78,M,7.00,15.00,FEW,BKN,OVC,M,900.00,2000.00,2600.00,M,-SN,M,M,M,M,M,M,13.09,KWMC 230229Z AUTO 02012G15KT 7SM -SN FEW009 BKN020 OVC026 M04/M06 A2978 RMK AO2 P0000 T10391061 TSNO,M
MEV,2022-02-23 02:35,-119.7500,38.9963,1441.42,23.00,21.20,92.69,250.00,6.00,0.00,29.77,M,1.00,M,BKN,OVC,M,M,300.00,2500.00,M,M,-SN BR,M,M,M,M,M,M,14.69,KMEV 230235Z AUTO 25006KT 1SM -SN BR BKN003 OVC025 M05/M06 A2977 RMK AO2,M
05U,2022-02-23 02:35,-116.0051,39.6042,1811.23,21.20,17.60,85.74,0.00,0.00,0.00,29.70,M,10.00,M,FEW,SCT,OVC,M,300.00,3500.00,4200.00,M,M,M,M,M,M,M,M,21.20,K05U 230235Z AUTO 00000KT 10SM FEW003 SCT035 OVC042 M06/M08 A2970 RMK A01,M
RTS,2022-02-23 02:35,-119.8764,39.6682,1539.00,M,M,M,M,M,0.00,M,M,M,M,M,M,M,M,M,M,M,M,M,M,M,M,M,M,M,M,KRTS 230235Z AUTO RMK AO2 PNO PWINO,M
TMT,2022-02-23 02:35,-117.1971,39.4643,1749.34,17.40,11.70,77.94,360.00,3.00,0.00,29.71,M,10.00,M,CLR,M,M,M,M,M,M,M,M,M,M,M,M,M,M,12.00,KTMT 230235Z AUTO 36003KT 10SM CLR M08/M11 A2971 RMK AO2 T10811113,M
BVU,2022-02-23 02:35,-114.8611,35.9475,671.00,48.20,32.00,53.27,250.00,14.00,0.00,29.70,M,10.00,25.00,FEW,SCT,BKN,M,5500.00,6500.00,8000.00,M,M,M,M,M,M,M,M,42.04,KBVU 230235Z AUTO 25014G25KT 10SM FEW055 SCT065 BKN080 09/M00 A2970 RMK AO2,M
HTH,2022-02-23 02:35,-118.6315,38.5448,1282.89,26.60,17.60,68.40,230.00,6.00,0.00,29.78,M,10.00,M,BKN,BKN,OVC,M,3100.00,4600.00,5500.00,M,M,M,M,M,M,M,M,19.03,KHTH 230235Z AUTO 23006KT 10SM BKN031 BKN046 OVC055 M03/M08 A2978 RMK A01,M
BAM,2022-02-23 02:35,-116.8743,40.5990,1382.36,26.60,21.20,79.77,340.00,10.00,0.00,29.76,M,10.00,M,CLR,M,M,M,M,M,M,M,M,M,M,M,M,M,M,16.20,KBAM 230235Z AUTO 34010KT 10SM CLR M03/M06 A2976 RMK AO1,M
ELY,2022-02-23 02:36,-114.8453,39.2950,1909.00,19.90,18.00,92.19,20.00,12.00,T,29.66,M,2.00,M,OVC,M,M,M,3000.00,M,M,M,-SN BR,M,M,M,M,M,M,6.60,KELY 230236Z AUTO 02012KT 2SM -SN BR OVC030 M07/M08 A2966 RMK AO2 P0000 T10671078,M
WMC,2022-02-23 02:38,-117.8072,40.9019,1315.00,24.10,21.00,87.76,30.00,16.00,T,29.79,M,1.75,23.00,FEW,BKN,OVC,M,900.00,2300.00,2800.00,M,-SN BR,M,M,M,M,M,M,10.12,KWMC 230238Z AUTO 03016G23KT 1 3/4SM -SN BR FEW009 BKN023 OVC028 M04/M06 A2979 RMK AO2 P0000 T10441061 TSNO,M
WMC,2022-02-23 02:45,-117.8072,40.9019,1315.00,24.10,21.00,87.76,40.00,14.00,T,29.79,M,0.75,23.00,SCT,OVC,M,M,900.00,2500.00,M,M,-SN BR,M,M,M,M,M,M,10.98,KWMC 230245Z AUTO 04014G23KT 3/4SM -SN BR SCT009 OVC025 M04/M06 A2979 RMK AO2 P0000 T10441061 TSNO,M
P68,2022-02-23 02:53,-116.0056,39.6014,1993.00,19.90,17.10,88.68,250.00,3.00,0.00,29.68,1007.70,M,M,M,M,M,M,M,M,M,M,M,M,M,M,M,M,M,14.86,KP68 230253Z AUTO 25003KT M07/M08 A2968 RMK AO1 SLP077 60001 T10671083,M
LOL,2022-02-23 02:53,-118.5701,40.0684,1192.43,27.00,19.90,74.25,330.00,9.00,0.00,29.79,1011.90,10.00,M,FEW,BKN,M,M,4900.00,6000.00,M,M,M,M,M,M,M,M,M,17.30,KLOL 230253Z AUTO 33009KT 10SM FEW049 BKN060 M03/M07 A2979 RMK AO2 SLP119 T10281067 53009,M
VGT,2022-02-23 02:53,-115.1933,36.2111,667.00,46.00,30.90,55.36,M,M,T,29.70,1007.50,10.00,M,SCT,BKN,M,M,2500.00,7000.00,M,M,-RA,M,M,M,M,M,M,M,KVGT 230253Z 10SM -RA SCT025 BKN070 08/M01 A2970 RMK AO2 RAB51 SLP075 P0000 60000 T00781006 53021,M
DRA,2022-02-23 02:53,-116.0278,36.6206,1009.00,44.00,14.00,29.19,220.00,17.00,0.00,29.64,1003.30,10.00,32.00,OVC,M,M,M,8500.00,M,M,M,M,M,M,M,35.00,210.00,2022-02-23 02:10,35.93,KDRA 230253Z AUTO 22017G32KT 10SM OVC085 07/M10 A2964 RMK AO2 PK WND 21035/0210 SLP033 T00671100 53009,M
ELY,2022-02-23 02:53,-114.8453,39.2950,1909.00,19.90,18.00,92.19,20.00,12.00,T,29.66,1008.10,4.00,19.00,OVC,M,M,M,4200.00,M,M,M,-SN BR,M,M,M,M,M,M,6.60,KELY 230253Z AUTO 02012G19KT 4SM -SN BR OVC042 M07/M08 A2966 RMK AO2 SLP081 P0000 60008 T10671078 53002,M
BVU,2022-02-23 02:55,-114.8611,35.9475,671.00,48.20,32.00,53.27,250.00,19.00,0.00,29.71,M,10.00,24.00,FEW,SCT,BKN,M,5500.00,6500.00,7500.00,M,M,M,M,M,M,M,M,40.86,KBVU 230255Z AUTO 25019G24KT 10SM FEW055 SCT065 BKN075 09/M00 A2971 RMK AO2,M
RTS,2022-02-23 02:55,-119.8764,39.6682,1539.00,M,M,M,M,M,0.00,M,M,M,M,M,M,M,M,M,M,M,M,M,M,M,M,M,M,M,M,KRTS 230255Z AUTO RMK AO2 PNO PWINO,M
MEV,2022-02-23 02:55,-119.7500,38.9963,1441.42,23.00,21.20,92.69,250.00,4.00,0.00,29.78,M,2.00,M,SCT,BKN,OVC,M,300.00,800.00,2400.00,M,-SN BR,M,M,M,M,M,M,16.91,KMEV 230255Z AUTO 25004KT 2SM -SN BR SCT003 BKN008 OVC024 M05/M06 A2978 RMK AO2 VIS 1 1/2V2 1/2,M
TMT,2022-02-23 02:55,-117.1971,39.4643,1749.34,10.90,6.80,83.17,0.00,0.00,0.00,29.71,M,10.00,M,CLR,M,M,M,M,M,M,M,M,M,M,M,M,M,M,10.90,KTMT 230255Z AUTO 00000KT 10SM CLR M12/M14 A2971 RMK AO2 T11171140,M
BAM,2022-02-23 02:55,-116.8743,40.5990,1382.36,26.60,21.20,79.77,320.00,8.00,0.00,29.77,M,10.00,M,SCT,M,M,M,5500.00,M,M,M,M,M,M,M,M,M,M,17.46,KBAM 230255Z AUTO 32008KT 10SM SCT055 M03/M06 A2977 RMK AO1,M
HTH,2022-02-23 02:55,-118.6315,38.5448,1282.89,24.80,19.40,79.62,200.00,6.00,0.00,29.79,M,10.00,M,FEW,FEW,OVC,M,3100.00,3900.00,5000.00,M,M,M,M,M,M,M,M,16.86,KHTH 230255Z AUTO 20006KT 10SM FEW031 FEW039 OVC050 M04/M07 A2979 RMK A01,M
05U,2022-02-23 02:55,-116.0051,39.6042,1811.23,19.40,17.60,92.57,0.00,0.00,0.00,29.70,M,10.00,M,FEW,SCT,BKN,M,3100.00,4400.00,6500.00,M,M,M,M,M,M,M,M,19.40,K05U 230255Z AUTO 00000KT 10SM FEW031 SCT044 BKN065 M07/M08 A2970 RMK A01,M
RNO,2022-02-23 02:55,-119.7711,39.4839,1341.00,27.00,14.00,57.53,20.00,5.00,0.00,29.79,1010.70,10.00,M,FEW,BKN,BKN,M,4500.00,8500.00,12000.00,M,M,M,M,M,M,M,M,20.46,KRNO 230255Z 02005KT 10SM FEW045 BKN085 BKN120 M03/M10 A2979 RMK AO2 SLP107 T10281100 53012 $,M
EKO,2022-02-23 02:56,-115.7860,40.8242,1367.00,19.00,10.90,70.22,0.00,0.00,0.00,29.72,1010.00,10.00,M,FEW,M,M,M,12000.00,M,M,M,M,M,M,M,M,M,M,19.00,KEKO 230256Z AUTO 00000KT 10SM FEW120 M07/M12 A2972 RMK AO2 SLP100 T10721117 53007,M
INS,2022-02-23 02:56,-115.6733,36.5872,955.00,45.50,12.60,26.02,250.00,22.00,0.00,29.63,1003.10,10.00,26.00,CLR,M,M,M,M,M,M,M,M,M,M,M,39.00,250.00,2022-02-23 02:23,36.66,KINS 230256Z AUTO 25022G26KT 10SM CLR 08/M11 A2963 RMK AO2 PK WND 25039/23 SLP031 T00751108 50008 $,M
WMC,2022-02-23 02:56,-117.8072,40.9019,1315.00,23.00,19.90,87.70,40.00,13.00,0.01,29.79,1011.50,0.75,22.00,SCT,BKN,OVC,M,700.00,2700.00,3100.00,M,-SN BR,M,M,M,M,M,M,10.04,KWMC 230256Z AUTO 04013G22KT 3/4SM -SN BR SCT007 BKN027 OVC031 M05/M07 A2979 RMK AO2 SLP115 P0001 60006 T10501067 53013 TSNO,M
NFL,2022-02-23 02:56,-118.7010,39.4166,1199.00,27.00,24.10,88.65,M,5.00,0.00,29.78,1006.20,10.00,M,SCT,BKN,BKN,M,3000.00,7000.00,25000.00,M,M,M,M,M,M,M,M,20.46,KNFL 230256Z VRB05KT 10SM SCT030 BKN070 BKN250 M03/M04 A2978 RMK AO2 SLP062 T10281044 53008,M
LAS,2022-02-23 02:56,-115.1634,36.0719,663.00,47.00,30.00,51.58,240.00,16.00,T,29.73,1006.60,10.00,26.00,SCT,BKN,BKN,M,4300.00,5000.00,6500.00,M,M,M,M,M,37.00,200.00,2022-02-23 02:04,39.84,KLAS 230256Z 24016G26KT 10SM SCT043 BKN050 BKN065 08/M01 A2973 RMK AO2 PK WND 20037/0204 RAB08E19 SLP066 VCSH ALQDS P0000 60000 T00831011 53023,M
HND,2022-02-23 02:56,-115.1344,35.9729,742.79,44.00,35.00,70.43,230.00,20.00,0.01,29.73,1009.10,9.00,27.00,SCT,BKN,OVC,M,2800.00,4200.00,11000.00,M,-RA,M,M,M,33.00,200.00,2022-02-23 02:37,35.21,KHND 230256Z 23020G27KT 9SM -RA SCT028 BKN042 OVC110 07/02 A2973 RMK AO2 PK WND 20033/0237 RAE21B37 SLP091 P0001 60001 T00670017 53021,M
TPH,2022-02-23 02:56,-117.0904,38.0505,1654.00,27.00,4.00,36.55,320.00,15.00,0.00,29.67,1007.90,10.00,M,OVC,M,M,M,9000.00,M,M,M,M,M,M,M,M,M,M,14.30,KTPH 230256Z AUTO 32015KT 10SM OVC090 M03/M16 A2967 RMK AO2 SLP079 T10281156 53005,M
LSV,2022-02-23 02:57,-115.0343,36.2362,570.00,M,M,M,M,M,0.00,M,M,M,M,M,M,M,M,M,M,M,M,M,M,M,M,35.00,230.00,2022-02-23 02:53,M,KLSV 230257Z AUTO M M M M M M RMK AO2 PK WND 23035/53 SLPNO RVRNO $,M
LSV,2022-02-23 02:58,-115.0343,36.2362,570.00,49.60,29.80,46.24,220.00,18.00,0.00,29.73,1007.10,10.00,26.00,FEW,SCT,BKN,M,6500.00,10000.00,12000.00,M,M,M,M,M,35.00,220.00,2022-02-23 02:53,42.92,KLSV 230258Z 22018G26KT 10SM FEW065 SCT100 BKN120 10/M01 A2973 RMK AO2A PK WND 22035/53 SLP071 WND DATA ESTMD ALSTG/SLP ESTMD T00981012 53024 $,M
WMC,2022-02-23 03:00,-117.8072,40.9019,1315.00,23.00,19.90,87.70,40.00,15.00,T,29.79,M,1.75,22.00,SCT,BKN,OVC,M,600.00,2400.00,3300.00,M,-SN BR,M,M,M,M,M,M,9.11,KWMC 230300Z AUTO 04015G22KT 1 3/4SM -SN BR SCT006 BKN024 OVC033 M05/M07 A2979 RMK AO2 P0000 T10501067 TSNO,M
WMC,2022-02-23 03:02,-117.8072,40.9019,1315.00,23.00,19.00,84.39,40.00,15.00,T,29.80,M,3.00,22.00,FEW,BKN,OVC,M,600.00,2400.00,3300.00,M,-SN BR,M,M,M,M,M,M,9.11,KWMC 230302Z AUTO 04015G22KT 3SM -SN BR FEW006 BKN024 OVC033 M05/M07 A2980 RMK AO2 P0000 T10501072 TSNO,M
WMC,2022-02-23 03:09,-117.8072,40.9019,1315.00,23.00,19.00,84.39,40.00,14.00,T,29.80,M,5.00,M,FEW,OVC,M,M,600.00,3300.00,M,M,-SN BR,M,M,M,M,M,M,9.56,KWMC 230309Z AUTO 04014KT 5SM -SN BR FEW006 OVC033 M05/M07 A2980 RMK AO2 P0000 T10501072 TSNO,M
MEV,2022-02-23 03:15,-119.7500,38.9963,1441.42,23.00,21.20,92.69,220.00,4.00,0.00,29.78,M,4.00,M,SCT,BKN,OVC,M,300.00,800.00,4000.00,M,-SN BR,M,M,M,M,M,M,16.91,KMEV 230315Z AUTO 22004KT 4SM -SN BR SCT003 BKN008 OVC040 M05/M06 A2978 RMK AO2,M
RTS,2022-02-23 03:15,-119.8764,39.6682,1539.00,M,M,M,M,M,0.00,M,M,M,M,M,M,M,M,M,M,M,M,M,M,M,M,M,M,M,M,KRTS 230315Z AUTO RMK AO2 PNO PWINO,M
HTH,2022-02-23 03:15,-118.6315,38.5448,1282.89,26.60,19.40,73.89,210.00,4.00,0.00,29.79,M,10.00,M,SCT,OVC,M,M,3800.00,5000.00,M,M,M,M,M,M,M,M,M,21.11,KHTH 230315Z AUTO 21004KT 10SM SCT038 OVC050 M03/M07 A2979 RMK A01,M
BAM,2022-02-23 03:15,-116.8743,40.5990,1382.36,26.60,23.00,86.07,320.00,8.00,0.00,29.78,M,10.00,M,SCT,M,M,M,5500.00,M,M,M,M,M,M,M,M,M,M,17.46,KBAM 230315Z AUTO 32008KT 10SM SCT055 M03/M05 A2978 RMK AO1,M
TMT,2022-02-23 03:15,-117.1971,39.4643,1749.34,8.20,5.00,86.47,140.00,4.00,0.00,29.72,M,10.00,M,CLR,M,M,M,M,M,M,M,M,M,M,M,M,M,M,-0.37,KTMT 230315Z AUTO 14004KT 10SM CLR M13/M15 A2972 RMK AO2 T11321150,M
BVU,2022-02-23 03:15,-114.8611,35.9475,671.00,46.40,33.80,61.28,260.00,17.00,0.00,29.72,M,10.00,28.00,FEW,BKN,OVC,M,6500.00,7500.00,9000.00,M,M,M,M,M,M,M,M,38.94,KBVU 230315Z AUTO 26017G28KT 10SM FEW065 BKN075 OVC090 08/01 A2972 RMK AO2,M
05U,2022-02-23 03:15,-116.0051,39.6042,1811.23,19.40,17.60,92.57,0.00,0.00,0.00,29.70,M,10.00,M,BKN,OVC,M,M,7500.00,9000.00,M,M,M,M,M,M,M,M,M,19.40,K05U 230315Z AUTO 00000KT 10SM BKN075 OVC090 M07/M08 A2970 RMK A01,M
LSV,2022-02-23 03:20,-115.0343,36.2362,570.00,48.20,30.20,49.53,200.00,11.00,0.00,29.75,M,10.00,24.00,SCT,BKN,M,M,5000.00,6500.00,M,M,-SHRA,M,M,M,M,M,M,42.94,KLSV 230320Z 20011G24KT 10SM -SHRA SCT050 BKN065 09/M01 A2975 RMK A02A RAB20,M
ELY,2022-02-23 03:24,-114.8453,39.2950,1909.00,19.90,19.00,96.23,10.00,9.00,0.01,29.66,M,2.50,M,OVC,M,M,M,3200.00,M,M,M,-SN BR,M,M,M,M,M,M,8.47,KELY 230324Z AUTO 01009KT 2 1/2SM -SN BR OVC032 M07/M07 A2966 RMK AO2 P0001 T10671072,M
LSV,2022-02-23 03:33,-115.0343,36.2362,570.00,46.40,30.20,53.00,170.00,5.00,0.00,29.73,M,10.00,M,BKN,BKN,M,M,6000.00,8500.00,M,M,M,M,M,M,M,M,M,43.50,KLSV 230333Z 17005KT 10SM BKN060 BKN085 08/M01 A2973 RMK AO2A RAE33 WND DATA ESTMD ALSTG ESTMD,M
RTS,2022-02-23 03:35,-119.8764,39.6682,1539.00,M,M,M,M,M,0.00,M,M,M,M,M,M,M,M,M,M,M,M,M,M,M,M,M,M,M,M,KRTS 230335Z AUTO RMK AO2 PNO PWINO,M
BVU,2022-02-23 03:35,-114.8611,35.9475,671.00,46.40,32.00,57.00,240.00,13.00,0.00,29.72,M,10.00,20.00,FEW,BKN,OVC,M,6500.00,8000.00,9500.00,M,M,M,M,M,M,M,M,40.02,KBVU 230335Z AUTO 24013G20KT 10SM FEW065 BKN080 OVC095 08/00 A2972 RMK AO2,M
TMT,2022-02-23 03:35,-117.1971,39.4643,1749.34,10.40,7.20,86.60,0.00,0.00,0.00,29.73,M,10.00,M,CLR,M,M,M,M,M,M,M,M,M,M,M,M,M,M,10.40,KTMT 230335Z AUTO 00000KT 10SM CLR M12/M14 A2973 RMK AO2 T11201138,M
BAM,2022-02-23 03:35,-116.8743,40.5990,1382.36,24.80,21.20,85.96,320.00,11.00,0.00,29.78,M,10.00,M,CLR,M,M,M,M,M,M,M,M,M,M,M,M,M,M,13.37,KBAM 230335Z AUTO 32011KT 10SM CLR M04/M06 A2978 RMK AO1,M
HTH,2022-02-23 03:35,-118.6315,38.5448,1282.89,26.60,17.60,68.40,220.00,4.00,0.00,29.79,M,10.00,M,FEW,OVC,M,M,3800.00,6000.00,M,M,M,M,M,M,M,M,M,21.11,KHTH 230335Z AUTO 22004KT 10SM FEW038 OVC060 M03/M08 A2979 RMK A01,M
MEV,2022-02-23 03:35,-119.7500,38.9963,1441.42,21.20,19.40,92.63,220.00,4.00,0.00,29.79,M,9.00,M,SCT,BKN,OVC,M,400.00,3900.00,8000.00,M,UP,M,M,M,M,M,M,14.81,KMEV 230335Z AUTO 22004KT 9SM UP SCT004 BKN039 OVC080 M06/M07 A2979 RMK AO2,M
05U,2022-02-23 03:35,-116.0051,39.6042,1811.23,17.60,15.80,92.50,0.00,0.00,0.00,29.70,M,10.00,M,SCT,OVC,M,M,8000.00,9500.00,M,M,M,M,M,M,M,M,M,17.60,K05U 230335Z AUTO 00000KT 10SM SCT080 OVC095 M08/M09 A2970 RMK A01,M
ELY,2022-02-23 03:42,-114.8453,39.2950,1909.00,19.90,18.00,92.19,20.00,11.00,0.01,29.66,M,3.00,M,OVC,M,M,M,2800.00,M,M,M,-SN BR,M,M,M,M,M,M,7.18,KELY 230342Z AUTO 02011KT 3SM -SN BR OVC028 M07/M08 A2966 RMK AO2 P0001 T10671078,M
INS,2022-02-23 03:43,-115.6733,36.5872,955.00,44.60,12.20,26.45,220.00,9.00,0.00,29.67,1004.20,10.00,21.00,CLR,M,M,M,M,M,M,M,M,M,M,M,M,M,M,39.18,KINS 230343Z AUTO 22009G21KT 10SM CLR 07/M11 A2967 RMK AO2 SLP042 $,M
ELY,2022-02-23 03:53,-114.8453,39.2950,1909.00,19.90,18.00,92.19,10.00,10.00,0.01,29.66,1007.70,6.00,M,OVC,M,M,M,2800.00,M,M,M,BR,M,M,M,M,M,M,7.79,KELY 230353Z AUTO 01010KT 6SM BR OVC028 M07/M08 A2966 RMK AO2 SNE51 SLP077 P0001 T10671078,M
DRA,2022-02-23 03:53,-116.0278,36.6206,1009.00,42.00,18.00,37.49,240.00,16.00,0.00,29.67,1003.50,10.00,25.00,FEW,M,M,M,6500.00,M,M,M,M,M,M,M,34.00,200.00,2022-02-23 03:00,33.58,KDRA 230353Z AUTO 24016G25KT 10SM FEW065 06/M08 A2967 RMK AO2 PK WND 20034/0300 SLP035 T00561078,M
P68,2022-02-23 03:53,-116.0056,39.6014,1993.00,19.00,15.10,84.49,0.00,0.00,0.00,29.68,1007.40,M,M,M,M,M,M,M,M,M,M,M,M,M,M,M,M,M,19.00,KP68 230353Z AUTO 00000KT M07/M09 A2968 RMK AO1 SLP074 T10721094,M
LOL,2022-02-23 03:53,-118.5701,40.0684,1192.43,27.00,21.00,77.80,40.00,9.00,T,29.80,1012.50,10.00,M,FEW,SCT,BKN,M,3400.00,4600.00,6000.00,M,M,M,M,M,M,M,M,17.30,KLOL 230353Z AUTO 04009KT 10SM FEW034 SCT046 BKN060 M03/M06 A2980 RMK AO2 UPB42E51SNB32E42 SLP125 P0000 T10281061,M
VGT,2022-02-23 03:53,-115.1933,36.2111,667.00,46.00,30.90,55.36,M,M,T,29.70,1007.40,10.00,M,OVC,M,M,M,4000.00,M,M,M,-RA,M,M,M,M,M,M,M,KVGT 230353Z 10SM -RA OVC040 08/M01 A2970 RMK AO2 RAE08B31 SLP074 P0000 T00781006,M
TMT,2022-02-23 03:55,-117.1971,39.4643,1749.34,5.40,2.50,87.51,0.00,0.00,0.00,29.73,M,10.00,M,CLR,M,M,M,M,M,M,M,M,M,M,M,M,M,M,5.40,KTMT 230355Z AUTO 00000KT 10SM CLR M15/M16 A2973 RMK AO2 T11481164,M
BVU,2022-02-23 03:55,-114.8611,35.9475,671.00,46.40,30.20,53.00,230.00,15.00,0.00,29.72,M,10.00,24.00,FEW,FEW,M,M,7500.00,8500.00,M,M,M,M,M,M,M,M,M,39.45,KBVU 230355Z AUTO 23015G24KT 10SM FEW075 FEW085 08/M01 A2972 RMK AO2,M
RNO,2022-02-23 03:55,-119.7711,39.4839,1341.00,26.10,12.90,56.89,340.00,4.00,0.00,29.81,1011.10,10.00,M,FEW,BKN,M,M,4500.00,11000.00,M,M,M,M,M,M,M,M,M,20.53,KRNO 230355Z 34004KT 10SM FEW045 BKN110 M03/M11 A2981 RMK AO2 SLP111 T10331106 $,M
RTS,2022-02-23 03:55,-119.8764,39.6682,1539.00,M,M,M,M,M,0.00,M,M,M,M,M,M,M,M,M,M,M,M,M,M,M,M,M,M,M,M,KRTS 230355Z AUTO RMK AO2 PNO PWINO,M
05U,2022-02-23 03:55,-116.0051,39.6042,1811.23,17.60,15.80,92.50,0.00,0.00,0.00,29.70,M,10.00,M,SCT,OVC,M,M,8000.00,9000.00,M,M,M,M,M,M,M,M,M,17.60,K05U 230355Z AUTO 00000KT 10SM SCT080 OVC090 M08/M09 A2970 RMK A01,M
MEV,2022-02-23 03:55,-119.7500,38.9963,1441.42,19.40,17.60,92.57,140.00,4.00,0.00,29.79,M,10.00,M,SCT,BKN,OVC,M,3900.00,6000.00,7500.00,M,M,M,M,M,M,M,M,12.71,KMEV 230355Z AUTO 14004KT 10SM SCT039 BKN060 OVC075 M07/M08 A2979 RMK AO2,M
BAM,2022-02-23 03:55,-116.8743,40.5990,1382.36,23.00,19.40,85.85,330.00,11.00,0.00,29.78,M,10.00,M,CLR,M,M,M,M,M,M,M,M,M,M,M,M,M,M,11.09,KBAM 230355Z AUTO 33011KT 10SM CLR M05/M07 A2978 RMK AO1,M
HTH,2022-02-23 03:55,-118.6315,38.5448,1282.89,24.80,17.60,73.70,160.00,3.00,0.00,29.79,M,10.00,M,SCT,OVC,M,M,3400.00,6000.00,M,M,M,M,M,M,M,M,M,20.46,KHTH 230355Z AUTO 16003KT 10SM SCT034 OVC060 M04/M08 A2979 RMK A01,M
EKO,2022-02-23 03:56,-115.7860,40.8242,1367.00,18.00,10.90,73.30,60.00,3.00,0.00,29.73,1010.40,10.00,M,CLR,M,M,M,M,M,M,M,M,M,M,M,M,M,M,12.68,KEKO 230356Z AUTO 06003KT 10SM CLR M08/M12 A2973 RMK AO2 SLP104 T10781117,M
HND,2022-02-23 03:56,-115.1344,35.9729,742.79,44.00,33.00,65.02,220.00,10.00,T,29.73,1008.80,10.00,M,CLR,M,M,M,M,M,M,M,M,M,M,M,M,M,M,38.14,KHND 230356Z 22010KT 10SM CLR 07/01 A2973 RMK AO2 RAE13 SLP088 P0000 T00670006,M
INS,2022-02-23 03:56,-115.6733,36.5872,955.00,44.60,13.50,28.01,210.00,12.00,0.00,29.67,1004.20,10.00,18.00,FEW,M,M,M,12000.00,M,M,M,M,M,M,M,29.00,220.00,2022-02-23 03:12,38.04,KINS 230356Z AUTO 21012G18KT 10SM FEW120 07/M10 A2967 RMK AO2 PK WND 22029/12 SLP042 T00701103 $,M
LAS,2022-02-23 03:56,-115.1634,36.0719,663.00,45.00,33.00,62.83,250.00,12.00,T,29.72,1006.30,10.00,20.00,FEW,FEW,BKN,M,4300.00,5000.00,11000.00,M,M,M,M,M,30.00,230.00,2022-02-23 02:57,38.55,KLAS 230356Z 25012G20KT 10SM FEW043 FEW050 BKN110 07/01 A2972 RMK AO2 PK WND 23030/0257 RAB0258E14 SLP063 VCSH ALQDS P0000 T00720006,M
TPH,2022-02-23 03:56,-117.0904,38.0505,1654.00,26.10,10.00,50.02,320.00,11.00,0.00,29.68,1007.50,10.00,M,FEW,OVC,M,M,6500.00,9000.00,M,M,M,M,M,M,M,M,M,15.01,KTPH 230356Z AUTO 32011KT 10SM FEW065 OVC090 M03/M12 A2968 RMK AO2 SLP075 T10331122,M
NFL,2022-02-23 03:56,-118.7010,39.4166,1199.00,28.90,21.00,71.96,M,5.00,0.00,29.79,1006.50,10.00,M,SCT,BKN,BKN,M,3000.00,7000.00,25000.00,M,M,M,M,M,M,M,M,22.71,KNFL 230356Z VRB05KT 10SM SCT030 BKN070 BKN250 M02/M06 A2979 RMK AO2 SLP065 T10171061,M
WMC,2022-02-23 03:56,-117.8072,40.9019,1315.00,21.90,16.00,77.67,50.00,11.00,T,29.80,1011.70,10.00,19.00,OVC,M,M,M,3700.00,M,M,M,M,M,M,M,M,M,M,9.70,KWMC 230356Z AUTO 05011G19KT 10SM OVC037 M06/M09 A2980 RMK AO2 SNE34 SLP117 P0000 T10561089 TSNO,M
LSV,2022-02-23 03:58,-115.0343,36.2362,570.00,45.70,32.00,58.53,190.00,8.00,0.00,29.75,1007.50,10.00,20.00,FEW,SCT,M,M,7500.00,9500.00,M,M,M,M,M,M,M,M,M,40.99,KLSV 230358Z 19008G20KT 10SM FEW075 SCT095 08/00 A2975 RMK AO2A SLP075 WND DATA ESTMD ALSTG/SLP ESTMD T00760000 $,M
ELY,2022-02-23 04:05,-114.8453,39.2950,1909.00,19.90,18.00,92.19,360.00,9.00,0.00,29.66,M,9.00,M,OVC,M,M,M,3400.00,M,M,M,M,M,M,M,M,M,M,8.47,KELY 230405Z AUTO 36009KT 9SM OVC034 M07/M08 A2966 RMK AO2 T10671078,M
MEV,2022-02-23 04:15,-119.7500,38.9963,1441.42,17.60,17.60,100.00,130.00,5.00,0.00,29.79,M,10.00,M,SCT,BKN,OVC,M,3900.00,5500.00,6500.00,M,M,M,M,M,M,M,M,9.29,KMEV 230415Z AUTO 13005KT 10SM SCT039 BKN055 OVC065 M08/M08 A2979 RMK AO2,M
BVU,2022-02-23 04:15,-114.8611,35.9475,671.00,46.40,28.40,49.24,230.00,18.00,0.00,29.72,M,10.00,23.00,CLR,M,M,M,M,M,M,M,M,M,M,M,M,M,M,38.70,KBVU 230415Z AUTO 23018G23KT 10SM CLR 08/M02 A2972 RMK AO2,M
RTS,2022-02-23 04:15,-119.8764,39.6682,1539.00,M,M,M,M,M,0.00,M,M,M,M,M,M,M,M,M,M,M,M,M,M,M,M,M,M,M,M,KRTS 230415Z AUTO RMK AO2 PNO PWINO,M
05U,2022-02-23 04:15,-116.0051,39.6042,1811.23,15.80,14.00,92.44,0.00,0.00,0.00,29.70,M,10.00,M,SCT,OVC,M,M,8000.00,9500.00,M,M,M,M,M,M,M,M,M,15.80,K05U 230415Z AUTO 00000KT 10SM SCT080 OVC095 M09/M10 A2970 RMK A01,M
BAM,2022-02-23 04:15,-116.8743,40.5990,1382.36,23.00,17.60,79.47,330.00,10.00,0.00,29.79,M,10.00,M,CLR,M,M,M,M,M,M,M,M,M,M,M,M,M,M,11.68,KBAM 230415Z AUTO 33010KT 10SM CLR M05/M08 A2979 RMK AO1,M
HTH,2022-02-23 04:15,-118.6315,38.5448,1282.89,26.60,17.60,68.40,150.00,4.00,0.00,29.79,M,10.00,M,BKN,OVC,M,M,2700.00,3400.00,M,M,M,M,M,M,M,M,M,21.11,KHTH 230415Z AUTO 15004KT 10SM BKN027 OVC034 M03/M08 A2979 RMK A01,M
TMT,2022-02-23 04:15,-117.1971,39.4643,1749.34,5.70,2.80,87.52,270.00,3.00,0.00,29.73,M,10.00,M,CLR,M,M,M,M,M,M,M,M,M,M,M,M,M,M,-1.38,KTMT 230415Z AUTO 27003KT 10SM CLR M15/M16 A2973 RMK AO2 T11461162,M
RTS,2022-02-23 04:35,-119.8764,39.6682,1539.00,M,M,M,M,M,0.00,M,M,M,M,M,M,M,M,M,M,M,M,M,M,M,M,M,M,M,M,KRTS 230435Z AUTO RMK AO2 PNO PWINO,M
TMT,2022-02-23 04:35,-117.1971,39.4643,1749.34,6.40,2.50,83.61,150.00,4.00,0.00,29.73,M,10.00,M,CLR,M,M,M,M,M,M,M,M,M,M,M,M,M,M,-2.47,KTMT 230435Z AUTO 15004KT 10SM CLR M14/M16 A2973 RMK AO2 T11421164,M
05U,2022-02-23 04:35,-116.0051,39.6042,1811.23,15.80,12.20,85.40,0.00,0.00,0.00,29.71,M,10.00,M,BKN,OVC,M,M,7500.00,9500.00,M,M,M,M,M,M,M,M,M,15.80,K05U 230435Z AUTO 00000KT 10SM BKN075 OVC095 M09/M11 A2971 RMK A01,M
MEV,2022-02-23 04:35,-119.7500,38.9963,1441.42,17.60,15.80,92.50,140.00,4.00,0.00,29.80,M,10.00,M,OVC,M,M,M,6000.00,M,M,M,M,M,M,M,M,M,M,10.60,KMEV 230435Z AUTO 14004KT 10SM OVC060 M08/M09 A2980 RMK AO2,M
BVU,2022-02-23 04:35,-114.8611,35.9475,671.00,46.40,28.40,49.24,250.00,18.00,0.00,29.74,M,10.00,M,FEW,M,M,M,11000.00,M,M,M,M,M,M,M,M,M,M,38.70,KBVU 230435Z AUTO 25018KT 10SM FEW110 08/M02 A2974 RMK AO2,M
BAM,2022-02-23 04:35,-116.8743,40.5990,1382.36,23.00,17.60,79.47,340.00,9.00,0.00,29.80,M,10.00,M,SCT,SCT,M,M,2100.00,6500.00,M,M,M,M,M,M,M,M,M,12.32,KBAM 230435Z AUTO 34009KT 10SM SCT021 SCT065 M05/M08 A2980 RMK AO1,M
HTH,2022-02-23 04:35,-118.6315,38.5448,1282.89,23.00,17.60,79.47,0.00,0.00,0.00,29.80,M,10.00,M,BKN,OVC,M,M,2700.00,3600.00,M,M,M,M,M,M,M,M,M,23.00,KHTH 230435Z AUTO 00000KT 10SM BKN027 OVC036 M05/M08 A2980 RMK A01,M
VGT,2022-02-23 04:53,-115.1933,36.2111,667.00,44.00,32.00,62.21,M,M,T,29.72,1008.10,10.00,M,CLR,M,M,M,M,M,M,M,M,M,M,M,M,M,M,M,KVGT 230453Z AUTO 10SM CLR 07/00 A2972 RMK AO2 RAE03 SLP081 P0000 T00670000,M
LOL,2022-02-23 04:53,-118.5701,40.0684,1192.43,24.10,21.00,87.76,30.00,9.00,0.00,29.82,1012.70,10.00,M,CLR,M,M,M,M,M,M,M,M,M,M,M,M,M,M,13.69,KLOL 230453Z AUTO 03009KT 10SM CLR M04/M06 A2982 RMK AO2 SLP127 T10441061,M
DRA,2022-02-23 04:53,-116.0278,36.6206,1009.00,39.00,21.00,48.06,220.00,9.00,0.00,29.69,1004.20,10.00,M,BKN,M,M,M,7000.00,M,M,M,M,M,M,M,27.00,230.00,2022-02-23 04:02,32.22,KDRA 230453Z AUTO 22009KT 10SM BKN070 04/M06 A2969 RMK AO2 PK WND 23027/0402 SLP042 T00391061,M
ELY,2022-02-23 04:53,-114.8453,39.2950,1909.00,19.00,18.00,95.80,20.00,9.00,0.00,29.66,1007.40,9.00,M,OVC,M,M,M,6000.00,M,M,M,M,M,M,M,M,M,M,7.35,KELY 230453Z AUTO 02009KT 9SM OVC060 M07/M08 A2966 RMK AO2 SLP074 T10721078,M
P68,2022-02-23 04:53,-116.0056,39.6014,1993.00,16.00,12.00,83.91,0.00,0.00,0.00,29.69,1008.40,M,M,M,M,M,M,M,M,M,M,M,M,M,M,M,M,M,16.00,KP68 230453Z AUTO 00000KT M09/M11 A2969 RMK AO1 SLP084 T10891111,M
HTH,2022-02-23 04:55,-118.6315,38.5448,1282.89,23.00,17.60,79.47,160.00,5.00,0.00,29.80,M,10.00,M,SCT,OVC,M,M,2500.00,3200.00,M,M,M,M,M,M,M,M,M,15.71,KHTH 230455Z AUTO 16005KT 10SM SCT025 OVC032 M05/M08 A2980 RMK A01,M
RTS,2022-02-23 04:55,-119.8764,39.6682,1539.00,M,M,M,M,M,0.00,M,M,M,M,M,M,M,M,M,M,M,M,M,M,M,M,M,M,M,M,KRTS 230455Z AUTO RMK AO2 PNO PWINO,M
BVU,2022-02-23 04:55,-114.8611,35.9475,671.00,46.40,26.60,45.73,240.00,19.00,0.00,29.74,M,10.00,27.00,SCT,M,M,M,11000.00,M,M,M,M,M,M,M,M,M,M,38.48,KBVU 230455Z AUTO 24019G27KT 10SM SCT110 08/M03 A2974 RMK AO2,M
RNO,2022-02-23 04:55,-119.7711,39.4839,1341.00,25.00,14.00,62.50,350.00,4.00,0.00,29.82,1011.30,10.00,M,BKN,BKN,M,M,4700.00,13000.00,M,M,M,M,M,M,M,M,M,19.25,KRNO 230455Z 35004KT 10SM BKN047 BKN130 M04/M10 A2982 RMK AO2 SLP113 T10391100 $,M
MEV,2022-02-23 04:55,-119.7500,38.9963,1441.42,19.40,17.60,92.57,120.00,5.00,0.00,29.80,M,10.00,M,SCT,BKN,OVC,M,3700.00,4200.00,7500.00,M,M,M,M,M,M,M,M,11.43,KMEV 230455Z AUTO 12005KT 10SM SCT037 BKN042 OVC075 M07/M08 A2980 RMK AO2,M
TMT,2022-02-23 04:55,-117.1971,39.4643,1749.34,4.00,1.40,88.25,210.00,7.00,0.00,29.74,M,10.00,M,CLR,M,M,M,M,M,M,M,M,M,M,M,M,M,M,-9.23,KTMT 230455Z AUTO 21007KT 10SM CLR M15/M17 A2974 RMK AO2 T11551170,M
05U,2022-02-23 04:55,-116.0051,39.6042,1811.23,14.00,12.20,92.38,0.00,0.00,0.00,29.71,M,10.00,M,BKN,BKN,OVC,M,2800.00,7500.00,9500.00,M,M,M,M,M,M,M,M,14.00,K05U 230455Z AUTO 00000KT 10SM BKN028 BKN075 OVC095 M10/M11 A2971 RMK A01,M
BAM,2022-02-23 04:55,-116.8743,40.5990,1382.36,23.00,17.60,79.47,330.00,10.00,0.00,29.80,M,10.00,15.00,SCT,SCT,M,M,1900.00,6500.00,M,M,M,M,M,M,M,M,M,11.68,KBAM 230455Z AUTO 33010G15KT 10SM SCT019 SCT065 M05/M08 A2980 RMK AO1,M
NFL,2022-02-23 04:56,-118.7010,39.4166,1199.00,28.00,19.90,71.25,340.00,7.00,0.00,29.80,1007.00,10.00,M,SCT,BKN,BKN,M,3000.00,7000.00,25000.00,M,M,M,M,M,M,M,M,19.90,KNFL 230456Z 34007KT 10SM SCT030 BKN070 BKN250 M02/M07 A2980 RMK AO2 SLP070 T10221067,M
HND,2022-02-23 04:56,-115.1344,35.9729,742.79,43.00,30.90,62.06,220.00,13.00,0.00,29.75,1009.20,10.00,M,BKN,M,M,M,10000.00,M,M,M,M,M,M,M,27.00,220.00,2022-02-23 04:26,35.66,KHND 230456Z AUTO 22013KT 10SM BKN100 06/M01 A2975 RMK AO2 PK WND 22027/0426 SLP092 T00611006,M
TPH,2022-02-23 04:56,-117.0904,38.0505,1654.00,26.10,9.00,47.83,330.00,3.00,0.00,29.69,1006.90,10.00,M,OVC,M,M,M,8500.00,M,M,M,M,M,M,M,M,M,M,21.94,KTPH 230456Z AUTO 33003KT 10SM OVC085 M03/M13 A2969 RMK AO2 SLP069 T10331128,M
LAS,2022-02-23 04:56,-115.1634,36.0719,663.00,43.00,32.00,64.88,220.00,7.00,0.00,29.74,1007.00,10.00,18.00,FEW,FEW,BKN,M,4300.00,5000.00,11000.00,M,M,M,M,M,M,M,M,38.19,KLAS 230456Z 22007G18KT 10SM FEW043 FEW050 BKN110 06/00 A2974 RMK AO2 SLP070 T00610000,M
INS,2022-02-23 04:56,-115.6733,36.5872,955.00,43.00,16.50,33.95,270.00,12.00,0.00,29.68,1004.40,10.00,M,SCT,BKN,M,M,6500.00,10000.00,M,M,M,M,M,M,M,M,M,36.00,KINS 230456Z AUTO 27012KT 10SM SCT065 BKN100 06/M09 A2968 RMK AO2 SLP044 T00611086 $,M
EKO,2022-02-23 04:56,-115.7860,40.8242,1367.00,12.90,8.10,80.74,0.00,0.00,0.00,29.73,1011.20,10.00,M,FEW,M,M,M,12000.00,M,M,M,M,M,M,M,M,M,M,12.90,KEKO 230456Z AUTO 00000KT 10SM FEW120 M11/M13 A2973 RMK AO2 SLP112 T11061133,M
WMC,2022-02-23 04:56,-117.8072,40.9019,1315.00,21.00,12.90,70.45,40.00,11.00,0.00,29.82,1012.50,10.00,19.00,BKN,BKN,M,M,5000.00,12000.00,M,M,M,M,M,M,M,M,M,8.57,KWMC 230456Z AUTO 04011G19KT 10SM BKN050 BKN120 M06/M11 A2982 RMK AO2 SLP125 T10611106 TSNO,M
LSV,2022-02-23 04:58,-115.0343,36.2362,570.00,46.00,32.20,58.34,180.00,6.00,0.00,29.75,1007.60,10.00,M,SCT,BKN,M,M,8000.00,12000.00,M,M,M,M,M,M,27.00,200.00,2022-02-23 04:40,42.39,KLSV 230458Z 18006KT 10SM SCT080 BKN120 08/00 A2975 RMK A02A PK WND 20027/40 SLP076 WND DATA ESTMD ALSTG/SLP ESTMD T00780001 $,M
INS,2022-02-23 05:01,-115.6733,36.5872,955.00,42.80,15.80,33.18,250.00,16.00,0.00,29.69,1004.70,10.00,M,BKN,BKN,BKN,M,6500.00,8000.00,10000.00,M,M,M,M,M,M,M,M,34.50,KINS 230501Z AUTO 25016KT 10SM BKN065 BKN080 BKN100 06/M09 A2969 RMK AO2 SLP047 $,M
05U,2022-02-23 05:15,-116.0051,39.6042,1811.23,15.80,14.00,92.44,0.00,0.00,0.00,29.72,M,10.00,M,BKN,OVC,M,M,3000.00,3400.00,M,M,M,M,M,M,M,M,M,15.80,K05U 230515Z AUTO 00000KT 10SM BKN030 OVC034 M09/M10 A2972 RMK A01,M
HTH,2022-02-23 05:15,-118.6315,38.5448,1282.89,24.80,17.60,73.70,170.00,4.00,0.00,29.80,M,10.00,M,BKN,OVC,M,M,2800.00,3500.00,M,M,M,M,M,M,M,M,M,19.01,KHTH 230515Z AUTO 17004KT 10SM BKN028 OVC035 M04/M08 A2980 RMK A01,M
BAM,2022-02-23 05:15,-116.8743,40.5990,1382.36,21.20,15.80,79.31,320.00,10.00,0.00,29.81,M,10.00,M,CLR,M,M,M,M,M,M,M,M,M,M,M,M,M,M,9.42,KBAM 230515Z AUTO 32010KT 10SM CLR M06/M09 A2981 RMK AO1,M
TMT,2022-02-23 05:15,-117.1971,39.4643,1749.34,6.80,4.00,87.59,220.00,5.00,0.00,29.74,M,10.00,M,CLR,M,M,M,M,M,M,M,M,M,M,M,M,M,M,-3.53,KTMT 230515Z AUTO 22005KT 10SM CLR M14/M16 A2974 RMK AO2 T11401156,M
RTS,2022-02-23 05:15,-119.8764,39.6682,1539.00,M,M,M,M,M,0.00,M,M,M,M,M,M,M,M,M,M,M,M,M,M,M,M,M,M,M,M,KRTS 230515Z AUTO RMK AO2 PNO PWINO,M
BVU,2022-02-23 05:15,-114.8611,35.9475,671.00,46.40,26.60,45.73,220.00,22.00,0.00,29.73,M,10.00,M,SCT,M,M,M,11000.00,M,M,M,M,M,M,M,M,M,M,37.86,KBVU 230515Z AUTO 22022KT 10SM SCT110 08/M03 A2973 RMK AO2,M
MEV,2022-02-23 05:15,-119.7500,38.9963,1441.42,17.60,15.80,92.50,100.00,5.00,0.00,29.81,M,10.00,M,FEW,FEW,OVC,M,3800.00,4500.00,7500.00,M,M,M,M,M,M,M,M,9.29,KMEV 230515Z AUTO 10005KT 10SM FEW038 FEW045 OVC075 M08/M09 A2981 RMK AO2,M
HTH,2022-02-23 05:35,-118.6315,38.5448,1282.89,23.00,15.80,73.51,210.00,6.00,0.00,29.80,M,10.00,M,FEW,SCT,OVC,M,2000.00,2700.00,4800.00,M,M,M,M,M,M,M,M,14.69,KHTH 230535Z AUTO 21006KT 10SM FEW020 SCT027 OVC048 M05/M09 A2980 RMK A01,M
BVU,2022-02-23 05:35,-114.8611,35.9475,671.00,46.40,26.60,45.73,220.00,17.00,0.00,29.74,M,10.00,M,OVC,M,M,M,11000.00,M,M,M,M,M,M,M,M,M,M,38.94,KBVU 230535Z AUTO 22017KT 10SM OVC110 08/M03 A2974 RMK AO2,M
RTS,2022-02-23 05:35,-119.8764,39.6682,1539.00,M,M,M,M,M,0.00,M,M,M,M,M,M,M,M,M,M,M,M,M,M,M,M,M,M,M,M,KRTS 230535Z AUTO RMK AO2 PNO PWINO,M
05U,2022-02-23 05:35,-116.0051,39.6042,1811.23,15.80,12.20,85.40,0.00,0.00,0.00,29.72,M,10.00,M,BKN,OVC,M,M,3400.00,8000.00,M,M,M,M,M,M,M,M,M,15.80,K05U 230535Z AUTO 00000KT 10SM BKN034 OVC080 M09/M11 A2972 RMK A01,M
MEV,2022-02-23 05:35,-119.7500,38.9963,1441.42,17.60,17.60,100.00,100.00,4.00,0.00,29.81,M,10.00,M,OVC,M,M,M,7000.00,M,M,M,M,M,M,M,M,M,M,10.60,KMEV 230535Z AUTO 10004KT 10SM OVC070 M08/M08 A2981 RMK AO2,M
TMT,2022-02-23 05:35,-117.1971,39.4643,1749.34,7.70,5.00,88.44,230.00,4.00,0.00,29.75,M,10.00,M,CLR,M,M,M,M,M,M,M,M,M,M,M,M,M,M,-0.96,KTMT 230535Z AUTO 23004KT 10SM CLR M13/M15 A2975 RMK AO2 T11351150,M
BAM,2022-02-23 05:35,-116.8743,40.5990,1382.36,21.20,14.00,73.32,330.00,12.00,0.00,29.81,M,10.00,M,SCT,BKN,M,M,4400.00,5000.00,M,M,M,M,M,M,M,M,M,8.26,KBAM 230535Z AUTO 33012KT 10SM SCT044 BKN050 M06/M10 A2981 RMK AO1,M
INS,2022-02-23 05:38,-115.6733,36.5872,955.00,41.00,19.40,41.54,210.00,13.00,0.00,29.70,1004.80,10.00,M,FEW,BKN,OVC,M,6500.00,10000.00,11000.00,M,M,M,M,M,M,M,M,33.10,KINS 230538Z AUTO 21013KT 10SM FEW065 BKN100 OVC110 05/M07 A2970 RMK AO2 SLP048 $,M
RNO,2022-02-23 05:42,-119.7711,39.4839,1341.00,26.10,14.00,59.71,360.00,7.00,T,29.83,M,10.00,M,BKN,OVC,M,M,3800.00,7000.00,M,M,-SN,M,M,M,M,M,M,17.59,KRNO 230542Z 36007KT 10SM -SN BKN038 OVC070 M03/M10 A2983 RMK AO2 SNB42 P0000 T10331100 $,M
INS,2022-02-23 05:48,-115.6733,36.5872,955.00,41.00,21.20,44.85,230.00,15.00,0.00,29.70,1004.80,10.00,M,FEW,BKN,OVC,M,6500.00,9500.00,11000.00,M,M,M,M,M,M,M,M,32.45,KINS 230548Z AUTO 23015KT 10SM FEW065 BKN095 OVC110 05/M06 A2970 RMK AO2 SLP048 $,M
DRA,2022-02-23 05:53,-116.0278,36.6206,1009.00,38.00,24.10,57.18,30.00,5.00,0.00,29.70,1004.80,10.00,M,OVC,M,M,M,6500.00,M,M,M,M,M,M,M,M,M,M,33.40,KDRA 230553Z AUTO 03005KT 10SM OVC065 03/M04 A2970 RMK AO2 SLP048 T00331044 10089 20033 51018,M
ELY,2022-02-23 05:53,-114.8453,39.2950,1909.00,19.00,18.00,95.80,10.00,6.00,0.00,29.66,1006.90,7.00,M,OVC,M,M,M,4400.00,M,M,M,M,M,M,M,M,M,M,9.87,KELY 230553Z AUTO 01006KT 7SM OVC044 M07/M08 A2966 RMK AO2 SLP069 60009 T10721078 11044 21072 50001,M
P68,2022-02-23 05:53,-116.0056,39.6014,1993.00,15.10,10.90,83.11,100.00,5.00,0.00,29.70,1008.60,M,M,M,M,M,M,M,M,M,M,M,M,M,M,M,M,M,6.32,KP68 230553Z AUTO 10005KT M09/M12 A2970 RMK AO1 SLP086 60001 T10941117 11033 21094 53005,M
VGT,2022-02-23 05:53,-115.1933,36.2111,667.00,45.00,28.90,53.00,M,M,0.00,29.72,1008.00,10.00,M,SCT,M,M,M,11000.00,M,M,M,M,M,M,M,M,M,M,M,KVGT 230553Z AUTO 10SM SCT110 07/M02 A2972 RMK AO2 SLP080 60000 T00721017 10144 20067 50006,M
LOL,2022-02-23 05:53,-118.5701,40.0684,1192.43,25.00,19.00,77.62,30.00,11.00,0.00,29.83,1012.50,10.00,M,CLR,M,M,M,M,M,M,M,M,M,M,M,M,M,M,13.62,KLOL 230553Z AUTO 03011KT 10SM CLR M04/M07 A2983 RMK AO2 SLP125 60000 T10391072 10011 21044 51013,M
TMT,2022-02-23 05:55,-117.1971,39.4643,1749.34,6.00,2.80,85.94,240.00,3.00,0.00,29.75,M,10.00,M,SCT,M,M,M,3200.00,M,M,M,M,M,M,M,M,M,M,-0.92,KTMT 230555Z AUTO 24003KT 10SM SCT032 M14/M16 A2975 RMK AO2 T11441162 11033 21161,M
BAM,2022-02-23 05:55,-116.8743,40.5990,1382.36,21.20,14.00,73.32,330.00,11.00,0.00,29.81,M,10.00,15.00,SCT,OVC,M,M,3900.00,4700.00,M,M,M,M,M,M,M,M,M,8.82,KBAM 230555Z AUTO 33011G15KT 10SM SCT039 OVC047 M06/M10 A2981 RMK AO1,M
HTH,2022-02-23 05:55,-118.6315,38.5448,1282.89,21.20,15.80,79.31,0.00,0.00,0.00,29.81,M,10.00,M,FEW,SCT,OVC,M,2400.00,3700.00,4900.00,M,M,M,M,M,M,M,M,21.20,KHTH 230555Z AUTO 00000KT 10SM FEW024 SCT037 OVC049 M06/M09 A2981 RMK A01,M
BVU,2022-02-23 05:55,-114.8611,35.9475,671.00,46.40,26.60,45.73,230.00,15.00,0.00,29.75,M,10.00,21.00,BKN,OVC,M,M,7500.00,11000.00,M,M,M,M,M,M,M,M,M,39.45,KBVU 230555Z AUTO 23015G21KT 10SM BKN075 OVC110 08/M03 A2975 RMK AO2,M
RNO,2022-02-23 05:55,-119.7711,39.4839,1341.00,25.00,17.10,71.53,50.00,8.00,T,29.83,1011.70,6.00,M,SCT,OVC,M,M,2800.00,3800.00,M,M,-SN,M,M,M,M,M,M,15.49,KRNO 230555Z 05008KT 6SM -SN SCT028 OVC038 M04/M08 A2983 RMK AO2 SNB42 SLP117 4/001 P0000 60000 T10391083 10000 21039 52013 $,1
RTS,2022-02-23 05:55,-119.8764,39.6682,1539.00,M,M,M,M,M,0.00,M,M,M,M,M,M,M,M,M,M,M,M,M,M,M,M,M,M,M,M,KRTS 230555Z AUTO RMK AO2 PNO PWINO,M
05U,2022-02-23 05:55,-116.0051,39.6042,1811.23,14.00,12.20,92.38,0.00,0.00,0.00,29.72,M,10.00,M,FEW,SCT,OVC,M,3400.00,7000.00,7500.00,M,M,M,M,M,M,M,M,14.00,K05U 230555Z AUTO 00000KT 10SM FEW034 SCT070 OVC075 M10/M11 A2972 RMK A01,M
MEV,2022-02-23 05:55,-119.7500,38.9963,1441.42,15.80,14.00,92.44,130.00,6.00,0.00,29.81,M,10.00,M,BKN,OVC,M,M,6500.00,7500.00,M,M,M,M,M,M,M,M,M,6.02,KMEV 230555Z AUTO 13006KT 10SM BKN065 OVC075 M09/M10 A2981 RMK AO2,M
HND,2022-02-23 05:56,-115.1344,35.9729,742.79,43.00,28.00,55.14,230.00,22.00,0.00,29.73,1008.40,10.00,31.00,CLR,M,M,M,M,M,M,M,M,M,M,M,31.00,240.00,2022-02-23 05:53,33.31,KHND 230556Z AUTO 23022G31KT 10SM CLR 06/M02 A2973 RMK AO2 PK WND 24031/0553 SLP084 60001 T00611022 10128 20056 58002,M
LAS,2022-02-23 05:56,-115.1634,36.0719,663.00,44.00,28.00,52.86,230.00,13.00,0.00,29.73,1006.40,10.00,26.00,FEW,FEW,BKN,M,4300.00,6000.00,11000.00,M,M,M,M,M,26.00,240.00,2022-02-23 05:48,37.07,KLAS 230556Z 23013G26KT 10SM FEW043 FEW060 BKN110 07/M02 A2973 RMK AO2 PK WND 24026/0548 SLP064 60000 T00671022 10133 20061 58001,M
EKO,2022-02-23 05:56,-115.7860,40.8242,1367.00,14.00,9.00,80.10,80.00,3.00,0.00,29.73,1011.00,10.00,M,CLR,M,M,M,M,M,M,M,M,M,M,M,M,M,M,8.11,KEKO 230556Z AUTO 08003KT 10SM CLR M10/M13 A2973 RMK AO2 SLP110 T11001128 11022 21106 51006,M
TPH,2022-02-23 05:56,-117.0904,38.0505,1654.00,26.10,7.00,43.70,M,M,0.00,29.69,1006.60,10.00,M,OVC,M,M,M,10000.00,M,M,M,M,M,M,M,M,M,M,M,KTPH 230556Z AUTO 10SM OVC100 M03/M14 A2969 RMK AO2 SLP066 T10331139 11006 21044 51004,M
NFL,2022-02-23 05:56,-118.7010,39.4166,1199.00,26.10,19.90,77.06,340.00,9.00,0.00,29.82,1007.40,10.00,M,SCT,BKN,BKN,M,3000.00,7000.00,25000.00,M,M,M,M,M,M,M,M,16.18,KNFL 230556Z 34009KT 10SM SCT030 BKN070 BKN250 M03/M07 A2982 RMK AO2 SLP074 T10331067 11006 21033 53012,M
WMC,2022-02-23 05:56,-117.8072,40.9019,1315.00,18.00,10.90,73.30,50.00,13.00,0.00,29.84,1013.40,10.00,M,CLR,M,M,M,M,M,M,M,M,M,M,M,M,M,M,3.63,KWMC 230556Z AUTO 05013KT 10SM CLR M08/M12 A2984 RMK AO2 SLP134 60006 T10781117 10000 21078 53015 TSNO,M
RNO,2022-02-23 05:57,-119.7711,39.4839,1341.00,24.10,18.00,77.21,50.00,8.00,T,29.84,M,3.00,M,BKN,OVC,M,M,2800.00,3800.00,M,M,-SN,M,M,M,M,M,M,14.38,KRNO 230557Z 05008KT 3SM -SN BKN028 OVC038 M04/M08 A2984 RMK AO2 P0000 T10441078 $,M
LSV,2022-02-23 05:58,-115.0343,36.2362,570.00,45.30,30.20,55.25,200.00,20.00,0.00,29.74,1007.00,10.00,M,FEW,M,M,M,12000.00,M,M,M,M,M,M,M,23.00,200.00,2022-02-23 05:53,36.80,KLSV 230558Z 20020KT 10SM FEW120 07/M01 A2974 RMK A02A PK WND 20023/53 SLP070 WND DATA ESTMD ALSTG/SLP ESTMD 60000 T00741010 $,M
INS,2022-02-23 05:58,-115.6733,36.5872,955.00,41.00,20.70,43.90,230.00,14.00,0.00,29.70,1004.80,10.00,M,FEW,OVC,M,M,6500.00,9000.00,M,M,M,M,M,M,M,M,M,32.76,KINS 230558Z AUTO 23014KT 10SM FEW065 OVC090 05/M06 A2970 RMK AO2 SLP048 T00501063 10110 20049 $,M
RNO,2022-02-23 06:03,-119.7711,39.4839,1341.00,24.10,19.00,80.59,30.00,7.00,T,29.84,M,1.50,M,OVC,M,M,M,2300.00,M,M,M,-SN,M,M,M,M,M,M,15.15,KRNO 230603Z 03007KT 1 1/2SM -SN OVC023 M04/M07 A2984 RMK AO2 P0000 T10441072 $,M
INS,2022-02-23 06:13,-115.6733,36.5872,955.00,41.00,21.20,44.85,230.00,13.00,0.00,29.70,1004.60,10.00,M,FEW,BKN,BKN,OVC,6500.00,8000.00,10000.00,12000.00,M,M,M,M,M,M,M,33.10,KINS 230613Z AUTO 23013KT 10SM FEW065 BKN080 BKN100 OVC120 05/M06 A2970 RMK AO2 SLP046 $,M
BVU,2022-02-23 06:15,-114.8611,35.9475,671.00,46.40,26.60,45.73,230.00,16.00,0.00,29.74,M,10.00,M,BKN,OVC,M,M,6500.00,7500.00,M,M,M,M,M,M,M,M,M,39.19,KBVU 230615Z AUTO 23016KT 10SM BKN065 OVC075 08/M03 A2974 RMK AO2,M
BAM,2022-02-23 06:15,-116.8743,40.5990,1382.36,21.20,14.00,73.32,340.00,10.00,0.00,29.82,M,10.00,M,OVC,M,M,M,4300.00,M,M,M,M,M,M,M,M,M,M,9.42,KBAM 230615Z AUTO 34010KT 10SM OVC043 M06/M10 A2982 RMK AO1,M
HTH,2022-02-23 06:15,-118.6315,38.5448,1282.89,21.20,15.80,79.31,0.00,0.00,0.00,29.81,M,10.00,M,FEW,SCT,OVC,M,2000.00,3400.00,5000.00,M,M,M,M,M,M,M,M,21.20,KHTH 230615Z AUTO 00000KT 10SM FEW020 SCT034 OVC050 M06/M09 A2981 RMK A01,M
RTS,2022-02-23 06:15,-119.8764,39.6682,1539.00,M,M,M,M,M,0.00,M,M,M,M,M,M,M,M,M,M,M,M,M,M,M,M,M,M,M,M,KRTS 230615Z AUTO RMK AO2 PNO PWINO,M
MEV,2022-02-23 06:15,-119.7500,38.9963,1441.42,14.00,12.20,92.38,140.00,4.00,0.00,29.81,M,10.00,M,FEW,SCT,OVC,M,2100.00,6500.00,7500.00,M,M,M,M,M,M,M,M,6.40,KMEV 230615Z AUTO 14004KT 10SM FEW021 SCT065 OVC075 M10/M11 A2981 RMK AO2,M
TMT,2022-02-23 06:15,-117.1971,39.4643,1749.34,6.80,3.70,86.78,180.00,3.00,0.00,29.76,M,10.00,M,OVC,M,M,M,3000.00,M,M,M,M,M,M,M,M,M,M,-0.12,KTMT 230615Z AUTO 18003KT 10SM OVC030 M14/M16 A2976 RMK AO2 T11401157,M
05U,2022-02-23 06:15,-116.0051,39.6042,1811.23,15.80,12.20,85.40,0.00,0.00,0.00,29.72,M,10.00,M,FEW,SCT,OVC,M,1600.00,8000.00,10000.00,M,M,M,M,M,M,M,M,15.80,K05U 230615Z AUTO 00000KT 10SM FEW016 SCT080 OVC100 M09/M11 A2972 RMK A01,M
RNO,2022-02-23 06:27,-119.7711,39.4839,1341.00,24.10,19.90,83.75,350.00,6.00,T,29.84,M,2.50,M,OVC,M,M,M,2700.00,M,M,M,-SN BR,M,M,M,M,M,M,16.02,KRNO 230627Z 35006KT 2 1/2SM -SN BR OVC027 M04/M07 A2984 RMK AO2 P0000 T10441067 $,M
WMC,2022-02-23 06:29,-117.8072,40.9019,1315.00,17.10,10.00,73.20,40.00,6.00,0.00,29.85,M,10.00,M,BKN,BKN,BKN,M,1800.00,4300.00,11000.00,M,M,M,M,M,M,M,M,7.59,KWMC 230629Z AUTO 04006KT 10SM BKN018 BKN043 BKN110 M08/M12 A2985 RMK AO2 T10831122 TSNO,M
BAM,2022-02-23 06:35,-116.8743,40.5990,1382.36,19.40,14.00,79.16,330.00,10.00,0.00,29.83,M,10.00,M,OVC,M,M,M,4300.00,M,M,M,M,M,M,M,M,M,M,7.17,KBAM 230635Z AUTO 33010KT 10SM OVC043 M07/M10 A2983 RMK AO1,M
BVU,2022-02-23 06:35,-114.8611,35.9475,671.00,44.60,28.40,52.72,230.00,14.00,0.00,29.74,M,10.00,20.00,FEW,SCT,BKN,M,5000.00,6500.00,8000.00,M,M,M,M,M,M,M,M,37.40,KBVU 230635Z AUTO 23014G20KT 10SM FEW050 SCT065 BKN080 07/M02 A2974 RMK AO2,M
RTS,2022-02-23 06:35,-119.8764,39.6682,1539.00,M,M,M,M,M,0.00,M,M,M,M,M,M,M,M,M,M,M,M,M,M,M,M,M,M,M,M,KRTS 230635Z AUTO RMK AO2 PNO PWINO,M
05U,2022-02-23 06:35,-116.0051,39.6042,1811.23,14.00,12.20,92.38,0.00,0.00,0.00,29.72,M,10.00,M,FEW,OVC,M,M,2300.00,9000.00,M,M,M,M,M,M,M,M,M,14.00,K05U 230635Z AUTO 00000KT 10SM FEW023 OVC090 M10/M11 A2972 RMK A01,M
MEV,2022-02-23 06:35,-119.7500,38.9963,1441.42,12.20,10.40,92.32,0.00,0.00,0.00,29.82,M,10.00,M,BKN,OVC,M,M,6500.00,7500.00,M,M,M,M,M,M,M,M,M,12.20,KMEV 230635Z AUTO 00000KT 10SM BKN065 OVC075 M11/M12 A2982 RMK AO2,M
TMT,2022-02-23 06:35,-117.1971,39.4643,1749.34,5.70,2.30,85.52,0.00,0.00,0.00,29.76,M,10.00,M,BKN,M,M,M,3300.00,M,M,M,M,M,M,M,M,M,M,5.70,KTMT 230635Z AUTO 00000KT 10SM BKN033 M15/M16 A2976 RMK AO2 T11461165,M
HTH,2022-02-23 06:35,-118.6315,38.5448,1282.89,21.20,15.80,79.31,270.00,6.00,0.00,29.81,M,10.00,M,SCT,OVC,M,M,3400.00,5000.00,M,M,M,M,M,M,M,M,M,12.52,KHTH 230635Z AUTO 27006KT 10SM SCT034 OVC050 M06/M09 A2981 RMK A01,M
RNO,2022-02-23 06:50,-119.7711,39.4839,1341.00,23.00,19.40,85.85,340.00,4.00,T,29.84,M,1.00,M,OVC,M,M,M,1800.00,M,M,M,-SN BR,M,M,M,M,M,M,16.91,KRNO 230650Z 34004KT 1SM R16R/4500VP6000FT -SN BR OVC018 M05/M07 A2984 RMK AO2 P0000 $,M
05U,2022-02-23 06:50,-116.0051,39.6042,1811.23,14.00,10.40,85.28,0.00,0.00,0.00,29.72,M,10.00,M,FEW,OVC,M,M,7500.00,9000.00,M,M,M,M,M,M,M,M,M,14.00,K05U 230650Z AUTO 00000KT 10SM FEW075 OVC090 M10/M12 A2972 RMK A01,M
P68,2022-02-23 06:53,-116.0056,39.6014,1993.00,15.10,10.90,83.11,90.00,4.00,0.00,29.70,1008.40,M,M,M,M,M,M,M,M,M,M,M,M,M,M,M,M,M,7.69,KP68 230653Z AUTO 09004KT M09/M12 A2970 RMK AO1 SLP084 T10941117,M
VGT,2022-02-23 06:53,-115.1933,36.2111,667.00,44.00,25.00,46.70,M,M,0.00,29.70,1007.40,10.00,M,CLR,M,M,M,M,M,M,M,M,M,M,M,M,M,M,M,KVGT 230653Z AUTO 10SM CLR 07/M04 A2970 RMK AO2 SLP074 T00671039,M
DRA,2022-02-23 06:53,-116.0278,36.6206,1009.00,35.00,27.00,72.04,30.00,15.00,0.00,29.71,1005.10,10.00,M,BKN,OVC,M,M,3300.00,4200.00,M,M,M,M,M,M,M,M,M,24.80,KDRA 230653Z AUTO 03015KT 10SM BKN033 OVC042 02/M03 A2971 RMK AO2 SLP051 T00171028,M
LOL,2022-02-23 06:53,-118.5701,40.0684,1192.43,24.10,17.10,74.27,30.00,16.00,0.00,29.84,1012.70,10.00,M,CLR,M,M,M,M,M,M,M,M,M,M,M,M,M,M,10.12,KLOL 230653Z AUTO 03016KT 10SM CLR M04/M08 A2984 RMK AO2 SLP127 T10441083,M
ELY,2022-02-23 06:53,-114.8453,39.2950,1909.00,19.00,17.10,92.15,20.00,6.00,T,29.66,1007.00,7.00,M,OVC,M,M,M,4600.00,M,M,M,M,M,M,M,M,M,M,9.87,KELY 230653Z AUTO 02006KT 7SM OVC046 M07/M08 A2966 RMK AO2 SNB0554E29 SLP070 P0000 T10721083,M
MEV,2022-02-23 06:55,-119.7500,38.9963,1441.42,15.80,14.00,92.44,0.00,0.00,0.00,29.82,M,10.00,M,FEW,SCT,BKN,M,2000.00,3600.00,4200.00,M,M,M,M,M,M,M,M,15.80,KMEV 230655Z AUTO 00000KT 10SM FEW020 SCT036 BKN042 M09/M10 A2982 RMK AO2,M
TMT,2022-02-23 06:55,-117.1971,39.4643,1749.34,3.40,-0.20,84.57,0.00,0.00,0.00,29.76,M,10.00,M,SCT,M,M,M,3500.00,M,M,M,M,M,M,M,M,M,M,3.40,KTMT 230655Z AUTO 00000KT 10SM SCT035 M16/M18 A2976 RMK AO2 T11591179,M
BAM,2022-02-23 06:55,-116.8743,40.5990,1382.36,19.40,14.00,79.16,340.00,9.00,0.00,29.83,M,10.00,14.00,SCT,OVC,M,M,3800.00,4600.00,M,M,M,M,M,M,M,M,M,7.85,KBAM 230655Z AUTO 34009G14KT 10SM SCT038 OVC046 M07/M10 A2983 RMK AO1,M
HTH,2022-02-23 06:55,-118.6315,38.5448,1282.89,23.00,17.60,79.47,0.00,0.00,0.00,29.81,M,10.00,M,FEW,OVC,M,M,3600.00,5000.00,M,M,M,M,M,M,M,M,M,23.00,KHTH 230655Z AUTO 00000KT 10SM FEW036 OVC050 M05/M08 A2981 RMK A01,M
RNO,2022-02-23 06:55,-119.7711,39.4839,1341.00,23.00,19.90,87.70,330.00,6.00,T,29.84,1012.40,0.50,M,OVC,M,M,M,1600.00,M,M,M,-SN BR,M,M,M,M,M,M,14.69,KRNO 230655Z 33006KT 1/2SM R16R/3500VP6000FT -SN BR OVC016 M05/M07 A2984 RMK AO2 SFC VIS 1 SLP124 P0000 T10501067 $,M
RTS,2022-02-23 06:55,-119.8764,39.6682,1539.00,M,M,M,M,M,0.00,M,M,M,M,M,M,M,M,M,M,M,M,M,M,M,M,M,M,M,M,KRTS 230655Z AUTO RMK AO2 PNO PWINO,M
BVU,2022-02-23 06:55,-114.8611,35.9475,671.00,44.60,26.60,48.96,220.00,11.00,0.00,29.74,M,10.00,17.00,FEW,OVC,M,M,7500.00,11000.00,M,M,M,M,M,M,M,M,M,38.39,KBVU 230655Z AUTO 22011G17KT 10SM FEW075 OVC110 07/M03 A2974 RMK AO2,M
WMC,2022-02-23 06:56,-117.8072,40.9019,1315.00,16.00,10.00,76.77,360.00,6.00,0.00,29.86,1013.90,10.00,M,OVC,M,M,M,2400.00,M,M,M,M,M,M,M,M,M,M,6.26,KWMC 230656Z AUTO 36006KT 10SM OVC024 M09/M12 A2986 RMK AO2 SLP139 T10891122 TSNO,M
LAS,2022-02-23 06:56,-115.1634,36.0719,663.00,45.00,24.10,43.46,220.00,12.00,0.00,29.72,1006.10,10.00,19.00,SCT,M,M,M,10000.00,M,M,M,M,M,M,M,M,M,M,38.55,KLAS 230656Z 22012G19KT 10SM SCT100 07/M04 A2972 RMK AO2 SLP061 T00721044,M
NFL,2022-02-23 06:56,-118.7010,39.4166,1199.00,26.10,19.90,77.06,350.00,10.00,0.00,29.82,1007.50,10.00,M,SCT,BKN,BKN,M,5000.00,7000.00,25000.00,M,M,M,M,M,M,M,M,15.57,KNFL 230656Z 35010KT 10SM SCT050 BKN070 BKN250 M03/M07 A2982 RMK AO2 SLP075 T10331067,M
HND,2022-02-23 06:56,-115.1344,35.9729,742.79,42.00,24.10,48.56,210.00,18.00,0.00,29.72,1008.30,10.00,26.00,CLR,M,M,M,M,M,M,M,M,M,M,M,26.00,220.00,2022-02-23 06:49,33.04,KHND 230656Z AUTO 21018G26KT 10SM CLR 06/M04 A2972 RMK AO2 PK WND 22026/0649 SLP083 T00561044 401440056,M
EKO,2022-02-23 06:56,-115.7860,40.8242,1367.00,10.90,7.00,83.93,0.00,0.00,0.00,29.74,1011.60,10.00,M,FEW,M,M,M,12000.00,M,M,M,M,M,M,M,M,M,M,10.90,KEKO 230656Z AUTO 00000KT 10SM FEW120 M12/M14 A2974 RMK AO2 SLP116 T11171139,M
TPH,2022-02-23 06:56,-117.0904,38.0505,1654.00,21.90,10.00,59.63,290.00,7.00,0.00,29.69,1006.90,10.00,M,OVC,M,M,M,10000.00,M,M,M,M,M,M,M,M,M,M,12.47,KTPH 230656Z AUTO 29007KT 10SM OVC100 M06/M12 A2969 RMK AO2 SLP069 T10561122,M
RNO,2022-02-23 06:57,-119.7711,39.4839,1341.00,23.00,19.90,87.70,330.00,6.00,0.01,29.84,M,0.50,M,BKN,OVC,M,M,1000.00,2800.00,M,M,SN FZFG,M,M,M,M,M,M,14.69,KRNO 230657Z 33006KT 1/2SM R16R/3500V5000FT SN FZFG BKN010 OVC028 M05/M07 A2984 RMK AO2 P0001 T10501067 $,M
LSV,2022-02-23 06:58,-115.0343,36.2362,570.00,43.70,26.20,49.84,230.00,14.00,0.00,29.72,1006.10,10.00,M,CLR,M,M,M,M,M,M,M,M,M,M,M,26.00,220.00,2022-02-23 06:06,36.24,KLSV 230658Z 23014KT 10SM CLR 07/M03 A2972 RMK AO2A PK WND 22026/06 SLP061 T00651032 $,M
INS,2022-02-23 06:58,-115.6733,36.5872,955.00,37.20,27.30,67.12,280.00,16.00,0.00,29.70,1004.80,10.00,M,FEW,SCT,BKN,BKN,4000.00,4900.00,6000.00,7500.00,M,M,M,M,M,M,M,27.20,KINS 230658Z AUTO 28016KT 10SM FEW040 SCT049 BKN060 BKN075 OVC120 03/M03 A2970 RMK AO2 SLP048 T00291026 $,M
RTS,2022-02-23 07:15,-119.8764,39.6682,1539.00,M,M,M,M,M,0.00,M,M,M,M,M,M,M,M,M,M,M,M,M,M,M,M,M,M,M,M,KRTS 230715Z AUTO RMK AO2 PNO PWINO,M
HTH,2022-02-23 07:15,-118.6315,38.5448,1282.89,24.80,17.60,73.70,300.00,4.00,0.00,29.81,M,10.00,M,OVC,M,M,M,5500.00,M,M,M,M,M,M,M,M,M,M,19.01,KHTH 230715Z AUTO 30004KT 10SM OVC055 M04/M08 A2981 RMK A01,M
BAM,2022-02-23 07:15,-116.8743,40.5990,1382.36,19.40,12.20,73.13,360.00,7.00,0.00,29.84,M,10.00,M,SCT,BKN,M,M,3600.00,5000.00,M,M,M,M,M,M,M,M,M,9.42,KBAM 230715Z AUTO 36007KT 10SM SCT036 BKN050 M07/M11 A2984 RMK AO1,M
TMT,2022-02-23 07:15,-117.1971,39.4643,1749.34,2.80,-0.60,85.33,230.00,6.00,0.00,29.76,M,10.00,M,CLR,M,M,M,M,M,M,M,M,M,M,M,M,M,M,-9.64,KTMT 230715Z AUTO 23006KT 10SM CLR M16/M18 A2976 RMK AO2 T11621181,M
MEV,2022-02-23 07:15,-119.7500,38.9963,1441.42,12.20,12.20,100.00,0.00,0.00,0.00,29.82,M,10.00,M,FEW,SCT,BKN,M,300.00,2000.00,3900.00,M,M,M,M,M,M,M,M,12.20,KMEV 230715Z AUTO 00000KT 10SM FEW003 SCT020 BKN039 M11/M11 A2982 RMK AO2,M
05U,2022-02-23 07:15,-116.0051,39.6042,1811.23,14.00,12.20,92.38,0.00,0.00,0.00,29.72,M,10.00,M,FEW,BKN,OVC,M,1800.00,8000.00,11000.00,M,M,M,M,M,M,M,M,14.00,K05U 230715Z AUTO 00000KT 10SM FEW018 BKN080 OVC110 M10/M11 A2972 RMK A01,M
BVU,2022-02-23 07:15,-114.8611,35.9475,671.00,44.60,24.80,45.44,210.00,13.00,0.00,29.74,M,10.00,20.00,BKN,M,M,M,11000.00,M,M,M,M,M,M,M,M,M,M,37.71,KBVU 230715Z AUTO 21013G20KT 10SM BKN110 07/M04 A2974 RMK AO2,M
INS,2022-02-23 07:23,-115.6733,36.5872,955.00,35.60,28.40,74.80,330.00,10.00,0.00,29.72,1005.50,10.00,M,FEW,SCT,M,M,6000.00,7500.00,M,M,M,M,M,M,M,M,M,27.48,KINS 230723Z AUTO 33010KT 10SM FEW060 SCT075 02/M02 A2972 RMK AO2 SLP055 $,M
RNO,2022-02-23 07:27,-119.7711,39.4839,1341.00,21.90,19.00,88.40,330.00,6.00,0.04,29.85,M,0.50,M,VV ,M,M,M,600.00,M,M,M,SN FZFG,M,M,M,M,M,M,13.37,KRNO 230727Z 33006KT 1/2SM R16R/2400V5000FT SN FZFG VV006 M06/M07 A2985 RMK AO2 P0004 T10561072 $,M
BVU,2022-02-23 07:35,-114.8611,35.9475,671.00,42.80,23.00,45.14,220.00,10.00,0.00,29.74,M,10.00,21.00,CLR,M,M,M,M,M,M,M,M,M,M,M,M,M,M,36.51,KBVU 230735Z AUTO 22010G21KT 10SM CLR 06/M05 A2974 RMK AO2,M
HTH,2022-02-23 07:35,-118.6315,38.5448,1282.89,26.60,19.40,73.89,350.00,8.00,0.00,29.82,M,10.00,M,OVC,M,M,M,5000.00,M,M,M,M,M,M,M,M,M,M,17.46,KHTH 230735Z AUTO 35008KT 10SM OVC050 M03/M07 A2982 RMK A01,M
BAM,2022-02-23 07:35,-116.8743,40.5990,1382.36,19.40,12.20,73.13,340.00,3.00,0.00,29.84,M,10.00,M,SCT,SCT,SCT,M,3000.00,4300.00,5000.00,M,M,M,M,M,M,M,M,14.28,KBAM 230735Z AUTO 34003KT 10SM SCT030 SCT043 SCT050 M07/M11 A2984 RMK AO1,M
MEV,2022-02-23 07:35,-119.7500,38.9963,1441.42,10.40,8.60,92.25,0.00,0.00,0.00,29.82,M,10.00,M,FEW,BKN,OVC,M,1900.00,3700.00,8500.00,M,M,M,M,M,M,M,M,10.40,KMEV 230735Z AUTO 00000KT 10SM FEW019 BKN037 OVC085 M12/M13 A2982 RMK AO2,M
05U,2022-02-23 07:35,-116.0051,39.6042,1811.23,12.20,8.60,85.17,0.00,0.00,0.00,29.72,M,10.00,M,FEW,OVC,M,M,8000.00,11000.00,M,M,M,M,M,M,M,M,M,12.20,K05U 230735Z AUTO 00000KT 10SM FEW080 OVC110 M11/M13 A2972 RMK A01,M
TMT,2022-02-23 07:35,-117.1971,39.4643,1749.34,4.00,0.50,84.62,220.00,5.00,0.00,29.76,M,10.00,M,BKN,BKN,M,M,2200.00,2800.00,M,M,M,M,M,M,M,M,M,-6.74,KTMT 230735Z AUTO 22005KT 10SM BKN022 BKN028 M15/M17 A2976 RMK AO2 T11551175,M
RTS,2022-02-23 07:35,-119.8764,39.6682,1539.00,M,M,M,M,M,0.00,M,M,M,M,M,M,M,M,M,M,M,M,M,M,M,M,M,M,M,M,KRTS 230735Z AUTO RMK AO2 PNO PWINO,M
INS,2022-02-23 07:38,-115.6733,36.5872,955.00,33.80,28.40,80.36,10.00,10.00,0.00,29.71,1005.20,10.00,M,FEW,SCT,SCT,M,6500.00,9000.00,11000.00,M,-UP,M,M,M,M,M,M,25.23,KINS 230738Z AUTO 01010KT 10SM -UP FEW065 SCT090 SCT110 01/M02 A2971 RMK AO2 UPB38 SLP052 $,M
INS,2022-02-23 07:42,-115.6733,36.5872,955.00,33.80,28.40,80.36,320.00,14.00,0.00,29.71,1005.20,10.00,M,FEW,BKN,M,M,6500.00,10000.00,M,M,-UP,M,M,M,M,M,M,23.48,KINS 230742Z AUTO 32014KT 10SM -UP FEW065 BKN100 01/M02 A2971 RMK AO2 WSHFT 37 UPB38 SLP052 $,M
ELY,2022-02-23 07:53,-114.8453,39.2950,1909.00,19.00,17.10,92.15,340.00,5.00,0.00,29.66,1006.60,8.00,M,OVC,M,M,M,5000.00,M,M,M,M,M,M,M,M,M,M,10.96,KELY 230753Z AUTO 34005KT 8SM OVC050 M07/M08 A2966 RMK AO2 SLP066 T10721083 410221122,M
P68,2022-02-23 07:53,-116.0056,39.6014,1993.00,12.90,9.00,84.07,250.00,3.00,0.00,29.69,1008.30,M,M,M,M,M,M,M,M,M,M,M,M,M,M,M,M,M,6.85,KP68 230753Z AUTO 25003KT M11/M13 A2969 RMK AO1 SLP083 T11061128 410281122,M
VGT,2022-02-23 07:53,-115.1933,36.2111,667.00,45.00,21.00,38.14,M,M,0.00,29.72,1007.80,10.00,M,CLR,M,M,M,M,M,M,M,M,M,M,M,M,M,M,M,KVGT 230753Z AUTO 10SM CLR 07/M06 A2972 RMK AO2 SLP078 T00721061 401500061,M
LOL,2022-02-23 07:53,-118.5701,40.0684,1192.43,21.90,17.10,81.46,40.00,12.00,0.00,29.85,1013.20,10.00,M,OVC,M,M,M,6500.00,M,M,M,M,M,M,M,M,M,M,9.15,KLOL 230753Z AUTO 04012KT 10SM OVC065 M06/M08 A2985 RMK AO2 SLP132 T10561083 400441094,M
DRA,2022-02-23 07:53,-116.0278,36.6206,1009.00,33.00,27.00,78.03,40.00,16.00,T,29.72,1005.30,9.00,M,SCT,OVC,M,M,2700.00,3600.00,M,M,-SN,M,M,M,30.00,40.00,2022-02-23 07:14,21.85,KDRA 230753Z AUTO 04016KT 9SM -SN SCT027 OVC036 01/M03 A2972 RMK AO2 PK WND 04030/0714 SNB22 SLP053 P0000 T00061028 401171033,M
BVU,2022-02-23 07:55,-114.8611,35.9475,671.00,42.80,23.00,45.14,250.00,8.00,0.00,29.74,M,10.00,M,SCT,SCT,BKN,M,7000.00,8000.00,9500.00,M,M,M,M,M,M,M,M,37.42,KBVU 230755Z AUTO 25008KT 10SM SCT070 SCT080 BKN095 06/M05 A2974 RMK AO2,M
HTH,2022-02-23 07:55,-118.6315,38.5448,1282.89,26.60,17.60,68.40,350.00,11.00,0.00,29.82,M,10.00,M,OVC,M,M,M,5500.00,M,M,M,M,M,M,M,M,M,M,15.64,KHTH 230755Z AUTO 35011KT 10SM OVC055 M03/M08 A2982 RMK A01,M
BAM,2022-02-23 07:55,-116.8743,40.5990,1382.36,19.40,14.00,79.16,340.00,6.00,0.00,29.84,M,10.00,M,BKN,OVC,M,M,3000.00,4300.00,M,M,M,M,M,M,M,M,M,10.36,KBAM 230755Z AUTO 34006KT 10SM BKN030 OVC043 M07/M10 A2984 RMK AO1,M
TMT,2022-02-23 07:55,-117.1971,39.4643,1749.34,6.40,2.70,84.39,220.00,3.00,0.00,29.76,M,10.00,M,OVC,M,M,M,2400.00,M,M,M,M,M,M,M,M,M,M,-0.58,KTMT 230755Z AUTO 22003KT 10SM OVC024 M14/M16 A2976 RMK AO2 T11421163 410141165,M
MEV,2022-02-23 07:55,-119.7500,38.9963,1441.42,14.00,12.20,92.38,0.00,0.00,0.00,29.82,M,10.00,M,OVC,M,M,M,3600.00,M,M,M,M,M,M,M,M,M,M,14.00,KMEV 230755Z AUTO 00000KT 10SM OVC036 M10/M11 A2982 RMK AO2,M
05U,2022-02-23 07:55,-116.0051,39.6042,1811.23,10.40,8.60,92.25,0.00,0.00,0.00,29.72,M,10.00,M,BKN,BKN,OVC,M,1900.00,8500.00,11000.00,M,M,M,M,M,M,M,M,10.40,K05U 230755Z AUTO 00000KT 10SM BKN019 BKN085 OVC110 M12/M13 A2972 RMK A01,M
RTS,2022-02-23 07:55,-119.8764,39.6682,1539.00,M,M,M,M,M,0.00,M,M,M,M,M,M,M,M,M,M,M,M,M,M,M,M,M,M,M,M,KRTS 230755Z AUTO RMK AO2 PNO PWINO,M
RNO,2022-02-23 07:55,-119.7711,39.4839,1341.00,21.90,18.00,84.68,330.00,6.00,0.07,29.85,1012.80,0.50,M,VV ,M,M,M,800.00,M,M,M,-SN FZFG,M,M,M,M,M,M,13.37,KRNO 230755Z 33006KT 1/2SM R16R/P6000FT -SN FZFG VV008 M06/M08 A2985 RMK AO2 TWR VIS 1 SLP128 SNINCR 1/2 P0007 T10561078 400111056 $,M
NFL,2022-02-23 07:56,-118.7010,39.4166,1199.00,25.00,19.90,80.66,360.00,11.00,0.00,29.83,1007.80,10.00,M,BKN,M,M,M,3300.00,M,M,M,M,M,M,M,M,M,M,13.62,KNFL 230756Z AUTO 36011KT 10SM BKN033 M04/M07 A2983 RMK AO2 SLP078 T10391067 400171044,M
EKO,2022-02-23 07:56,-115.7860,40.8242,1367.00,10.00,5.00,79.76,0.00,0.00,0.00,29.75,1011.80,10.00,M,CLR,M,M,M,M,M,M,M,M,M,M,M,M,M,M,10.00,KEKO 230756Z AUTO 00000KT 10SM CLR M12/M15 A2975 RMK AO2 SLP118 T11221150 410171128,M
WMC,2022-02-23 07:56,-117.8072,40.9019,1315.00,18.00,10.00,70.41,30.00,11.00,0.00,29.86,1013.90,10.00,M,BKN,BKN,OVC,M,2800.00,3600.00,5500.00,M,M,M,M,M,M,M,M,4.77,KWMC 230756Z AUTO 03011KT 10SM BKN028 BKN036 OVC055 M08/M12 A2986 RMK AO2 SLP139 T10781122 400001100 TSNO,M
HND,2022-02-23 07:56,-115.1344,35.9729,742.79,41.00,21.90,46.19,210.00,12.00,0.00,29.74,1008.90,10.00,M,CLR,M,M,M,M,M,M,M,M,M,M,M,M,M,M,33.46,KHND 230756Z AUTO 21012KT 10SM CLR 05/M06 A2974 RMK AO2 SLP089 T00501056,M
TPH,2022-02-23 07:56,-117.0904,38.0505,1654.00,21.90,10.00,59.63,310.00,13.00,0.00,29.69,1007.00,10.00,M,OVC,M,M,M,11000.00,M,M,M,M,M,M,M,M,M,M,8.63,KTPH 230756Z AUTO 31013KT 10SM OVC110 M06/M12 A2969 RMK AO2 SLP070 T10561122 400171106,M
LAS,2022-02-23 07:56,-115.1634,36.0719,663.00,44.00,19.90,37.67,210.00,12.00,0.00,29.73,1006.20,10.00,21.00,FEW,M,M,M,9000.00,M,M,M,M,M,M,M,26.00,220.00,2022-02-23 07:12,37.40,KLAS 230756Z 21012G21KT 10SM FEW090 07/M07 A2973 RMK AO2 PK WND 22026/0712 SLP062 FEW V SCT T00671067 401440061,M
INS,2022-02-23 07:58,-115.6733,36.5872,955.00,33.60,28.00,79.69,330.00,15.00,T,29.71,1005.20,10.00,M,FEW,SCT,BKN,OVC,4000.00,5500.00,7000.00,10000.00,-UP,M,M,M,M,M,M,22.85,KINS 230758Z AUTO 33015KT 10SM -UP FEW040 SCT055 BKN070 OVC100 01/M02 A2971 RMK AO2 UPB38 SLP052 P0000 T00091022 401251025 $,M
LSV,2022-02-23 07:58,-115.0343,36.2362,570.00,43.20,26.80,52.08,180.00,4.00,0.00,29.72,1006.10,10.00,M,SCT,M,M,M,10000.00,M,M,M,M,M,M,M,M,M,M,40.50,KLSV 230758Z 18004KT 10SM SCT100 06/M03 A2972 RMK AO2A SLP061 T00621029 401500039 $,M
RNO,2022-02-23 08:02,-119.7711,39.4839,1341.00,21.90,18.00,84.68,330.00,7.00,T,29.85,M,1.00,M,BKN,OVC,M,M,800.00,2600.00,M,M,-SN BR,M,M,M,M,M,M,12.47,KRNO 230802Z 33007KT 1SM R16R/P6000FT -SN BR BKN008 OVC026 M06/M08 A2985 RMK AO2 P0000 T10561078 $,M
INS,2022-02-23 08:03,-115.6733,36.5872,955.00,33.80,28.40,80.36,330.00,14.00,0.00,29.71,1005.20,10.00,M,FEW,SCT,BKN,M,5500.00,7000.00,10000.00,M,-UP,M,M,M,M,M,M,23.48,KINS 230803Z AUTO 33014KT 10SM -UP FEW055 SCT070 BKN100 01/M02 A2971 RMK AO2 SLP052 $,M
BVU,2022-02-23 08:15,-114.8611,35.9475,671.00,42.80,21.20,41.84,240.00,5.00,0.00,29.74,M,10.00,11.00,SCT,OVC,M,M,6500.00,7500.00,M,M,M,M,M,M,M,M,M,39.22,KBVU 230815Z AUTO 24005G11KT 10SM SCT065 OVC075 06/M06 A2974 RMK AO2,M
HTH,2022-02-23 08:15,-118.6315,38.5448,1282.89,26.60,17.60,68.40,350.00,11.00,0.00,29.82,M,10.00,M,OVC,M,M,M,5500.00,M,M,M,M,M,M,M,M,M,M,15.64,KHTH 230815Z AUTO 35011KT 10SM OVC055 M03/M08 A2982 RMK A01,M
BAM,2022-02-23 08:15,-116.8743,40.5990,1382.36,21.20,14.00,73.32,330.00,12.00,0.00,29.84,M,10.00,M,OVC,M,M,M,3000.00,M,M,M,M,M,M,M,M,M,M,8.26,KBAM 230815Z AUTO 33012KT 10SM OVC030 M06/M10 A2984 RMK AO1,M
TMT,2022-02-23 08:15,-117.1971,39.4643,1749.34,8.40,4.60,84.14,230.00,3.00,0.00,29.76,M,10.00,M,OVC,M,M,M,2800.00,M,M,M,M,M,M,M,M,M,M,1.71,KTMT 230815Z AUTO 23003KT 10SM OVC028 M13/M15 A2976 RMK AO2 T11311152,M
MEV,2022-02-23 08:15,-119.7500,38.9963,1441.42,14.00,12.20,92.38,0.00,0.00,0.00,29.83,M,10.00,M,SCT,BKN,OVC,M,2700.00,3400.00,4500.00,M,M,M,M,M,M,M,M,14.00,KMEV 230815Z AUTO 00000KT 10SM SCT027 BKN034 OVC045 M10/M11 A2983 RMK AO2,M
05U,2022-02-23 08:15,-116.0051,39.6042,1811.23,12.20,10.40,92.32,0.00,0.00,0.00,29.72,M,10.00,M,BKN,OVC,M,M,2000.00,9000.00,M,M,M,M,M,M,M,M,M,12.20,K05U 230815Z AUTO 00000KT 10SM BKN020 OVC090 M11/M12 A2972 RMK A01,M
RTS,2022-02-23 08:15,-119.8764,39.6682,1539.00,M,M,M,M,M,0.00,M,M,M,M,M,M,M,M,M,M,M,M,M,M,M,M,M,M,M,M,KRTS 230815Z AUTO RMK AO2 PNO PWINO,M
ELY,2022-02-23 08:23,-114.8453,39.2950,1909.00,19.00,16.00,87.87,20.00,6.00,T,29.66,M,2.50,M,OVC,M,M,M,3200.00,M,M,M,-SN BR,M,M,M,M,M,M,9.87,KELY 230823Z AUTO 02006KT 2 1/2SM -SN BR OVC032 M07/M09 A2966 RMK AO2 SNB00 P0000 T10721089,M
RNO,2022-02-23 08:24,-119.7711,39.4839,1341.00,21.20,19.40,92.63,320.00,9.00,0.00,29.86,M,0.50,M,BKN,OVC,M,M,800.00,2600.00,M,M,SN FZFG,M,M,M,M,M,M,10.08,KRNO 230824Z 32009KT 1/2SM R16R/3500V6000FT SN FZFG BKN008 OVC026 M06/M07 A2986,M
INS,2022-02-23 08:31,-115.6733,36.5872,955.00,33.80,26.60,74.63,350.00,14.00,0.00,29.71,1005.20,10.00,M,FEW,FEW,M,M,2200.00,10000.00,M,M,M,M,M,M,M,M,M,23.48,KINS 230831Z AUTO 35014KT 10SM FEW022 FEW100 01/M03 A2971 RMK AO2 UPE05RAB05E31 SLP052 $,M
05U,2022-02-23 08:35,-116.0051,39.6042,1811.23,10.40,6.80,85.05,180.00,5.00,0.00,29.72,M,10.00,M,FEW,BKN,OVC,M,3000.00,8500.00,11000.00,M,M,M,M,M,M,M,M,0.74,K05U 230835Z AUTO 18005KT 10SM FEW030 BKN085 OVC110 M12/M14 A2972 RMK A01,M
RTS,2022-02-23 08:35,-119.8764,39.6682,1539.00,M,M,M,M,M,0.00,M,M,M,M,M,M,M,M,M,M,M,M,M,M,M,M,M,M,M,M,KRTS 230835Z AUTO RMK AO2 PNO PWINO,M
TMT,2022-02-23 08:35,-117.1971,39.4643,1749.34,9.10,5.50,84.96,240.00,4.00,0.00,29.76,M,10.00,M,SCT,OVC,M,M,1800.00,2800.00,M,M,M,M,M,M,M,M,M,0.68,KTMT 230835Z AUTO 24004KT 10SM SCT018 OVC028 M13/M15 A2976 RMK AO2 T11271147,M
BAM,2022-02-23 08:35,-116.8743,40.5990,1382.36,21.20,14.00,73.32,350.00,8.00,0.00,29.84,M,10.00,M,OVC,M,M,M,3200.00,M,M,M,M,M,M,M,M,M,M,10.81,KBAM 230835Z AUTO 35008KT 10SM OVC032 M06/M10 A2984 RMK AO1,M
MEV,2022-02-23 08:35,-119.7500,38.9963,1441.42,10.40,8.60,92.25,90.00,3.00,0.00,29.83,M,10.00,M,FEW,SCT,OVC,M,1800.00,2600.00,4200.00,M,M,M,M,M,M,M,M,4.00,KMEV 230835Z AUTO 09003KT 10SM FEW018 SCT026 OVC042 M12/M13 A2983 RMK AO2,M
BVU,2022-02-23 08:35,-114.8611,35.9475,671.00,42.80,19.40,38.75,M,4.00,0.00,29.74,M,10.00,M,FEW,BKN,OVC,M,7500.00,9000.00,11000.00,M,M,M,M,M,M,M,M,40.03,KBVU 230835Z AUTO VRB04KT 10SM FEW075 BKN090 OVC110 06/M07 A2974 RMK AO2,M
HTH,2022-02-23 08:35,-118.6315,38.5448,1282.89,26.60,17.60,68.40,350.00,12.00,0.00,29.82,M,10.00,M,OVC,M,M,M,5500.00,M,M,M,M,M,M,M,M,M,M,15.13,KHTH 230835Z AUTO 35012KT 10SM OVC055 M03/M08 A2982 RMK A01,M
INS,2022-02-23 08:41,-115.6733,36.5872,955.00,32.00,26.60,80.22,340.00,11.00,0.00,29.72,1005.50,10.00,M,SCT,BKN,M,M,2500.00,3700.00,M,M,M,M,M,M,M,M,M,22.47,KINS 230841Z AUTO 34011KT 10SM SCT025 BKN037 00/M03 A2972 RMK AO2 UPE05RAB05E31 SLP055 $,M
NFL,2022-02-23 08:42,-118.7010,39.4166,1199.00,25.00,19.90,80.66,360.00,9.00,0.00,29.84,M,10.00,M,BKN,OVC,M,M,2900.00,3400.00,M,M,M,M,M,M,M,M,M,14.81,KNFL 230842Z AUTO 36009KT 10SM BKN029 OVC034 M04/M07 A2984 RMK AO2 T10391067,M
INS,2022-02-23 08:46,-115.6733,36.5872,955.00,32.00,26.60,80.22,360.00,10.00,0.00,29.72,1005.50,10.00,M,FEW,SCT,BKN,M,500.00,2500.00,3400.00,M,M,M,M,M,M,M,M,22.97,KINS 230846Z AUTO 36010KT 10SM FEW005 SCT025 BKN034 00/M03 A2972 RMK AO2 UPE05RAB05E31 SLP055 $,M
RNO,2022-02-23 08:48,-119.7711,39.4839,1341.00,21.00,18.00,87.97,340.00,7.00,0.06,29.86,M,0.25,M,VV ,M,M,M,400.00,M,M,M,+SN FZFG,M,M,M,M,M,M,11.37,KRNO 230848Z 34007KT 1/4SM R16R/2200V3000FT +SN FZFG VV004 M06/M08 A2986 RMK AO2 TWR VIS 1/2 P0006 T10611078 $,M
INS,2022-02-23 08:49,-115.6733,36.5872,955.00,32.00,26.60,80.22,360.00,9.00,0.00,29.72,1005.50,10.00,M,FEW,BKN,BKN,M,500.00,2600.00,3300.00,M,-RA,M,M,M,M,M,M,23.51,KINS 230849Z AUTO 36009KT 10SM -RA FEW005 BKN026 BKN033 00/M03 A2972 RMK AO2 UPE05RAB05E31RAB49 CIG 026V037 SLP055 $,M
DRA,2022-02-23 08:53,-116.0278,36.6206,1009.00,33.00,26.10,75.18,20.00,15.00,T,29.71,1005.00,10.00,M,OVC,M,M,M,3400.00,M,M,M,M,M,M,M,M,M,M,22.21,KDRA 230853Z AUTO 02015KT 10SM OVC034 01/M03 A2971 RMK AO2 SNE27 SLP050 P0000 60000 T00061033 50001,M
P68,2022-02-23 08:53,-116.0056,39.6014,1993.00,12.90,9.00,84.07,180.00,4.00,0.00,29.70,1008.60,M,M,M,M,M,M,M,M,M,M,M,M,M,M,M,M,M,5.12,KP68 230853Z AUTO 18004KT M11/M13 A2970 RMK AO1 SLP086 T11061128 53002,M
ELY,2022-02-23 08:53,-114.8453,39.2950,1909.00,18.00,16.00,91.72,10.00,6.00,0.01,29.65,1007.10,2.50,M,OVC,M,M,M,3500.00,M,M,M,-SN BR,M,M,M,M,M,M,8.67,KELY 230853Z AUTO 01006KT 2 1/2SM -SN BR OVC035 M08/M09 A2965 RMK AO2 SNB00 SLP071 P0001 60001 T10781089 58001,M
VGT,2022-02-23 08:53,-115.1933,36.2111,667.00,45.00,19.00,35.02,M,M,0.00,29.72,1007.90,10.00,M,CLR,M,M,M,M,M,M,M,M,M,M,M,M,M,M,M,KVGT 230853Z AUTO 10SM CLR 07/M07 A2972 RMK AO2 SLP079 T00721072 55000,M
LOL,2022-02-23 08:53,-118.5701,40.0684,1192.43,21.90,14.00,71.18,30.00,13.00,0.00,29.87,1013.80,10.00,M,OVC,M,M,M,6500.00,M,M,M,M,M,M,M,M,M,M,8.63,KLOL 230853Z AUTO 03013KT 10SM OVC065 M06/M10 A2987 RMK AO2 SLP138 T10561100 53012,M
TMT,2022-02-23 08:55,-117.1971,39.4643,1749.34,8.80,5.00,84.17,230.00,4.00,0.00,29.76,M,10.00,M,BKN,OVC,M,M,1800.00,2800.00,M,M,M,M,M,M,M,M,M,0.33,KTMT 230855Z AUTO 23004KT 10SM BKN018 OVC028 M13/M15 A2976 RMK AO2 T11291150,M
RNO,2022-02-23 08:55,-119.7711,39.4839,1341.00,21.90,18.00,84.68,310.00,4.00,0.06,29.86,1012.90,0.25,M,VV ,M,M,M,700.00,M,M,M,SN FZFG,M,M,M,M,M,M,15.63,KRNO 230855Z 31004KT 1/4SM R16R/2400VP6000FT SN FZFG VV007 M06/M08 A2986 RMK AO2 TWR VIS 1/2 SLP129 SNINCR 2/4 P0006 60013 T10561078 53005 $,M
RTS,2022-02-23 08:55,-119.8764,39.6682,1539.00,M,M,M,M,M,0.00,M,M,M,M,M,M,M,M,M,M,M,M,M,M,M,M,M,M,M,M,KRTS 230855Z AUTO RMK AO2 PNO PWINO,M
05U,2022-02-23 08:55,-116.0051,39.6042,1811.23,12.20,8.60,85.17,180.00,3.00,0.00,29.72,M,10.00,M,FEW,SCT,OVC,M,1900.00,3200.00,11000.00,M,M,M,M,M,M,M,M,6.05,K05U 230855Z AUTO 18003KT 10SM FEW019 SCT032 OVC110 M11/M13 A2972 RMK A01,M
MEV,2022-02-23 08:55,-119.7500,38.9963,1441.42,14.00,12.20,92.38,0.00,0.00,0.00,29.83,M,10.00,M,SCT,BKN,OVC,M,2700.00,3200.00,4100.00,M,M,M,M,M,M,M,M,14.00,KMEV 230855Z AUTO 00000KT 10SM SCT027 BKN032 OVC041 M10/M11 A2983 RMK AO2,M
BAM,2022-02-23 08:55,-116.8743,40.5990,1382.36,19.40,14.00,79.16,10.00,4.00,0.00,29.84,M,10.00,M,OVC,M,M,M,3400.00,M,M,M,M,M,M,M,M,M,M,12.71,KBAM 230855Z AUTO 01004KT 10SM OVC034 M07/M10 A2984 RMK AO1,M
HTH,2022-02-23 08:55,-118.6315,38.5448,1282.89,24.80,17.60,73.70,350.00,12.00,0.00,29.82,M,10.00,M,FEW,OVC,M,M,3900.00,6000.00,M,M,M,M,M,M,M,M,M,12.84,KHTH 230855Z AUTO 35012KT 10SM FEW039 OVC060 M04/M08 A2982 RMK A01,M
BVU,2022-02-23 08:55,-114.8611,35.9475,671.00,42.80,17.60,35.87,220.00,11.00,0.00,29.75,M,10.00,M,FEW,OVC,M,M,6500.00,9500.00,M,M,M,M,M,M,M,M,M,36.11,KBVU 230855Z AUTO 22011KT 10SM FEW065 OVC095 06/M08 A2975 RMK AO2,M
EKO,2022-02-23 08:56,-115.7860,40.8242,1367.00,10.00,5.00,79.76,0.00,0.00,0.00,29.76,1012.20,10.00,M,CLR,M,M,M,M,M,M,M,M,T,T,M,M,M,M,10.00,KEKO 230856Z AUTO 00000KT 10SM CLR M12/M15 A2976 RMK AO2 SLP122 I1000 I3000 T11221150 53008,M
TPH,2022-02-23 08:56,-117.0904,38.0505,1654.00,21.00,10.90,64.48,310.00,14.00,0.00,29.70,1007.50,10.00,M,OVC,M,M,M,10000.00,M,M,M,M,M,M,M,M,M,M,6.98,KTPH 230856Z AUTO 31014KT 10SM OVC100 M06/M12 A2970 RMK AO2 SLP075 T10611117 53004,M
NFL,2022-02-23 08:56,-118.7010,39.4166,1199.00,25.00,19.00,77.62,10.00,12.00,0.00,29.84,1008.20,10.00,M,OVC,M,M,M,2900.00,M,M,M,M,M,M,M,M,M,M,13.09,KNFL 230856Z AUTO 01012KT 10SM OVC029 M04/M07 A2984 RMK AO2 SLP082 T10391072 53008,M
LAS,2022-02-23 08:56,-115.1634,36.0719,663.00,42.00,21.90,44.27,220.00,12.00,0.00,29.73,1006.50,10.00,M,BKN,M,M,M,11000.00,M,M,M,M,M,M,M,M,M,M,34.86,KLAS 230856Z 22012KT 10SM BKN110 06/M06 A2973 RMK AO2 SLP065 T00561056 53002,M
HND,2022-02-23 08:56,-115.1344,35.9729,742.79,41.00,21.00,44.47,220.00,10.00,0.00,29.75,1009.10,10.00,16.00,CLR,M,M,M,M,M,M,M,M,M,M,M,M,M,M,34.25,KHND 230856Z AUTO 22010G16KT 10SM CLR 05/M06 A2975 RMK AO2 SLP091 T00501061 53008,M
WMC,2022-02-23 08:56,-117.8072,40.9019,1315.00,17.10,10.00,73.20,40.00,8.00,T,29.87,1014.30,6.00,M,BKN,OVC,M,M,1800.00,6000.00,M,M,-SN,M,M,M,M,M,M,5.76,KWMC 230856Z AUTO 04008KT 6SM -SN BKN018 OVC060 M08/M12 A2987 RMK AO2 SNB04 SLP143 P0000 60000 T10831122 51008 TSNO,M
LSV,2022-02-23 08:58,-115.0343,36.2362,570.00,44.00,19.90,37.96,200.00,14.00,0.00,29.71,1005.70,10.00,M,BKN,M,M,M,12000.00,M,M,M,M,M,M,M,M,M,M,36.50,KLSV 230858Z 20014KT 10SM BKN120 07/M07 A2971 RMK AO2A SLP057 T00661067 50001 $,M
INS,2022-02-23 08:58,-115.6733,36.5872,955.00,32.00,28.20,85.68,20.00,11.00,T,29.72,1005.50,10.00,M,SCT,BKN,OVC,M,600.00,2800.00,3700.00,M,-RA,M,M,M,M,M,M,22.47,KINS 230858Z AUTO 02011KT 10SM -RA SCT006 BKN028 OVC037 00/M02 A2972 RMK AO2 UPE05RAB05E31RAB49 SLP055 P0000 60000 T00001021 52007 $,M
RNO,2022-02-23 08:58,-119.7711,39.4839,1341.00,21.90,17.10,81.46,330.00,4.00,0.01,29.86,M,0.50,M,VV ,M,M,M,1100.00,M,M,M,SN,M,M,M,M,M,M,15.63,KRNO 230858Z 33004KT 1/2SM R16R/3000VP6000FT SN VV011 M06/M08 A2986 RMK AO2 P0001 T10561083 $,M
RNO,2022-02-23 09:03,-119.7711,39.4839,1341.00,21.90,16.00,77.67,360.00,6.00,0.02,29.86,M,2.00,M,OVC,M,M,M,1800.00,M,M,M,-SN,M,M,M,M,M,M,13.37,KRNO 230903Z 36006KT 2SM -SN OVC018 M06/M09 A2986 RMK AO2 P0002 T10561089 $,M
NFL,2022-02-23 09:04,-118.7010,39.4166,1199.00,25.00,18.00,74.36,10.00,10.00,0.00,29.84,M,10.00,M,OVC,M,M,M,3100.00,M,M,M,M,M,M,M,M,M,M,14.19,KNFL 230904Z AUTO 01010KT 10SM OVC031 M04/M08 A2984 RMK AO2 T10391078,M
INS,2022-02-23 09:04,-115.6733,36.5872,955.00,32.00,28.40,86.39,10.00,13.00,0.00,29.72,1005.50,10.00,M,FEW,SCT,BKN,OVC,600.00,1800.00,2800.00,3700.00,M,M,M,M,M,M,M,21.57,KINS 230904Z AUTO 01013KT 10SM FEW006 SCT018 BKN028 OVC037 M00/M02 A2972 RMK AO2 RAE04 SLP055 $,M
ELY,2022-02-23 09:08,-114.8453,39.2950,1909.00,18.00,16.00,91.72,10.00,7.00,T,29.65,M,4.00,M,OVC,M,M,M,3800.00,M,M,M,-SN BR,M,M,M,M,M,M,7.71,KELY 230908Z AUTO 01007KT 4SM -SN BR OVC038 M08/M09 A2965 RMK AO2 P0000 T10781089,M
INS,2022-02-23 09:14,-115.6733,36.5872,955.00,32.00,28.40,86.39,10.00,10.00,0.00,29.72,1005.50,10.00,M,FEW,SCT,BKN,M,600.00,2800.00,3400.00,M,M,M,M,M,M,M,M,22.97,KINS 230914Z AUTO 01010KT 10SM FEW006 SCT028 BKN034 M00/M02 A2972 RMK AO2 RAE04 SLP055 $,M
TMT,2022-02-23 09:15,-117.1971,39.4643,1749.34,9.90,6.30,85.01,220.00,4.00,0.00,29.76,M,10.00,M,SCT,OVC,M,M,1800.00,3000.00,M,M,M,M,M,M,M,M,M,1.61,KTMT 230915Z AUTO 22004KT 10SM SCT018 OVC030 M12/M14 A2976 RMK AO2 T11231143,M
HTH,2022-02-23 09:15,-118.6315,38.5448,1282.89,26.60,17.60,68.40,350.00,12.00,0.00,29.83,M,10.00,M,SCT,OVC,M,M,3900.00,6000.00,M,M,M,M,M,M,M,M,M,15.13,KHTH 230915Z AUTO 35012KT 10SM SCT039 OVC060 M03/M08 A2983 RMK A01,M
BAM,2022-02-23 09:15,-116.8743,40.5990,1382.36,21.20,14.00,73.32,340.00,9.00,0.00,29.84,M,10.00,14.00,OVC,M,M,M,3400.00,M,M,M,M,M,M,M,M,M,M,10.08,KBAM 230915Z AUTO 34009G14KT 10SM OVC034 M06/M10 A2984 RMK AO1,M
MEV,2022-02-23 09:15,-119.7500,38.9963,1441.42,12.20,10.40,92.32,0.00,0.00,0.00,29.84,M,10.00,M,FEW,SCT,BKN,M,2300.00,3000.00,3700.00,M,M,M,M,M,M,M,M,12.20,KMEV 230915Z AUTO 00000KT 10SM FEW023 SCT030 BKN037 M11/M12 A2984 RMK AO2,M
05U,2022-02-23 09:15,-116.0051,39.6042,1811.23,12.20,10.40,92.32,0.00,0.00,0.00,29.73,M,10.00,M,BKN,OVC,M,M,1800.00,3200.00,M,M,M,M,M,M,M,M,M,12.20,K05U 230915Z AUTO 00000KT 10SM BKN018 OVC032 M11/M12 A2973 RMK A01,M
RTS,2022-02-23 09:15,-119.8764,39.6682,1539.00,M,M,M,M,M,0.00,M,M,M,M,M,M,M,M,M,M,M,M,M,M,M,M,M,M,M,M,KRTS 230915Z AUTO RMK AO2 PNO PWINO,M
BVU,2022-02-23 09:15,-114.8611,35.9475,671.00,42.80,17.60,35.87,230.00,9.00,0.00,29.75,M,10.00,15.00,SCT,SCT,OVC,M,6500.00,7500.00,10000.00,M,M,M,M,M,M,M,M,36.94,KBVU 230915Z AUTO 23009G15KT 10SM SCT065 SCT075 OVC100 06/M08 A2975 RMK AO2,M
INS,2022-02-23 09:24,-115.6733,36.5872,955.00,32.00,28.40,86.39,20.00,9.00,0.00,29.72,1005.50,10.00,M,FEW,SCT,BKN,M,2600.00,3300.00,4200.00,M,M,M,M,M,M,M,M,23.51,KINS 230924Z AUTO 02009KT 10SM FEW026 SCT033 BKN042 M00/M02 A2972 RMK AO2 RAE04 SLP055 $,M
WMC,2022-02-23 09:28,-117.8072,40.9019,1315.00,16.00,10.00,76.77,40.00,8.00,T,29.87,M,10.00,M,SCT,M,M,M,1500.00,M,M,M,M,M,M,M,M,M,M,4.40,KWMC 230928Z AUTO 04008KT 10SM SCT015 M09/M12 A2987 RMK AO2 SNE07 P0000 T10891122 TSNO,M
INS,2022-02-23 09:29,-115.6733,36.5872,955.00,32.00,28.40,86.39,20.00,7.00,0.00,29.72,1005.50,10.00,M,BKN,BKN,M,M,3600.00,4500.00,M,M,M,M,M,M,M,M,M,24.78,KINS 230929Z AUTO 02007KT 10SM BKN036 BKN045 M00/M02 A2972 RMK AO2 RAE04 SLP055 $,M
BVU,2022-02-23 09:35,-114.8611,35.9475,671.00,42.80,19.40,38.75,240.00,14.00,0.00,29.75,M,10.00,M,FEW,FEW,SCT,M,6000.00,7500.00,11000.00,M,M,M,M,M,M,M,M,35.08,KBVU 230935Z AUTO 24014KT 10SM FEW060 FEW075 SCT110 06/M07 A2975 RMK AO2,M
TMT,2022-02-23 09:35,-117.1971,39.4643,1749.34,9.90,6.00,84.24,0.00,0.00,0.00,29.76,M,10.00,M,SCT,OVC,M,M,1900.00,3000.00,M,M,-SN,M,M,M,M,M,M,9.90,KTMT 230935Z AUTO 00000KT 10SM -SN SCT019 OVC030 M12/M14 A2976 RMK AO2 T11231144,M
HTH,2022-02-23 09:35,-118.6315,38.5448,1282.89,24.80,19.40,79.62,340.00,12.00,0.00,29.83,M,2.50,17.00,FEW,SCT,BKN,M,300.00,2500.00,3700.00,M,HZ,M,M,M,M,M,M,12.84,KHTH 230935Z AUTO 34012G17KT 2 1/2SM HZ FEW003 SCT025 BKN037 M04/M07 A2983 RMK A01,M
05U,2022-02-23 09:35,-116.0051,39.6042,1811.23,14.00,10.40,85.28,0.00,0.00,0.00,29.72,M,10.00,M,OVC,M,M,M,1700.00,M,M,M,M,M,M,M,M,M,M,14.00,K05U 230935Z AUTO 00000KT 10SM OVC017 M10/M12 A2972 RMK A01,M
MEV,2022-02-23 09:35,-119.7500,38.9963,1441.42,12.20,10.40,92.32,0.00,0.00,0.00,29.84,M,10.00,M,OVC,M,M,M,3700.00,M,M,M,M,M,M,M,M,M,M,12.20,KMEV 230935Z AUTO 00000KT 10SM OVC037 M11/M12 A2984 RMK AO2,M
BAM,2022-02-23 09:35,-116.8743,40.5990,1382.36,21.20,14.00,73.32,340.00,9.00,0.00,29.84,M,10.00,M,OVC,M,M,M,3400.00,M,M,M,M,M,M,M,M,M,M,10.08,KBAM 230935Z AUTO 34009KT 10SM OVC034 M06/M10 A2984 RMK AO1,M
RTS,2022-02-23 09:35,-119.8764,39.6682,1539.00,M,M,M,M,M,0.00,M,M,M,M,M,M,M,M,M,M,M,M,M,M,M,M,M,M,M,M,KRTS 230935Z AUTO RMK AO2 PNO PWINO,M
INS,2022-02-23 09:39,-115.6733,36.5872,955.00,32.00,28.40,86.39,10.00,7.00,0.00,29.72,1005.50,10.00,M,BKN,BKN,M,M,3600.00,4400.00,M,M,M,M,M,M,M,M,M,24.78,KINS 230939Z AUTO 01007KT 10SM BKN036 BKN044 00/M02 A2972 RMK AO2 RAE04 SLP055 $,M
INS,2022-02-23 09:44,-115.6733,36.5872,955.00,32.00,28.40,86.39,10.00,7.00,0.00,29.71,1005.20,10.00,M,SCT,OVC,M,M,3300.00,4300.00,M,M,M,M,M,M,M,M,M,24.78,KINS 230944Z AUTO 01007KT 10SM SCT033 OVC043 00/M02 A2971 RMK AO2 RAE04 SLP052 $,M
LOL,2022-02-23 09:53,-118.5701,40.0684,1192.43,21.00,14.00,73.94,10.00,11.00,0.00,29.88,1014.00,10.00,M,BKN,M,M,M,7000.00,M,M,M,M,M,M,M,M,M,M,8.57,KLOL 230953Z AUTO 01011KT 10SM BKN070 M06/M10 A2988 RMK AO2 SLP140 T10611100,M
ELY,2022-02-23 09:53,-114.8453,39.2950,1909.00,18.00,15.10,88.20,360.00,7.00,T,29.64,1006.30,8.00,M,OVC,M,M,M,5000.00,M,M,M,M,M,M,M,M,M,M,7.71,KELY 230953Z AUTO 36007KT 8SM OVC050 M08/M09 A2964 RMK AO2 SNE12 SLP063 P0000 T10781094,M
DRA,2022-02-23 09:53,-116.0278,36.6206,1009.00,30.90,27.00,85.26,340.00,6.00,0.01,29.72,1005.30,3.00,M,FEW,OVC,M,M,2400.00,3300.00,M,M,-SN BR,M,M,M,M,M,M,24.21,KDRA 230953Z AUTO 34006KT 3SM -SN BR FEW024 OVC033 M01/M03 A2972 RMK AO2 SNB0855 SLP053 P0001 T10061028,M
VGT,2022-02-23 09:53,-115.1933,36.2111,667.00,40.00,30.00,67.45,M,M,0.00,29.72,1008.20,10.00,M,CLR,M,M,M,M,M,M,M,M,M,M,M,M,M,M,M,KVGT 230953Z AUTO 10SM CLR 04/M01 A2972 RMK AO2 SLP082 T00441011,M
P68,2022-02-23 09:53,-116.0056,39.6014,1993.00,12.90,9.00,84.07,250.00,3.00,0.00,29.70,1008.40,M,M,M,M,M,M,M,M,M,M,M,M,M,M,M,M,M,6.85,KP68 230953Z AUTO 25003KT M11/M13 A2970 RMK AO1 SLP084 T11061128,M
INS,2022-02-23 09:54,-115.6733,36.5872,955.00,32.00,26.60,80.22,360.00,9.00,0.00,29.71,1005.20,10.00,M,BKN,OVC,M,M,3000.00,4100.00,M,M,M,M,M,M,M,M,M,23.51,KINS 230954Z AUTO 36009KT 10SM BKN030 OVC041 00/M03 A2971 RMK AO2 RAE04 SLP052 $,M
BVU,2022-02-23 09:55,-114.8611,35.9475,671.00,41.00,19.40,41.54,240.00,17.00,0.00,29.75,M,10.00,23.00,CLR,M,M,M,M,M,M,M,M,M,M,M,M,M,M,31.87,KBVU 230955Z AUTO 24017G23KT 10SM CLR 05/M07 A2975 RMK AO2,M
RNO,2022-02-23 09:55,-119.7711,39.4839,1341.00,21.00,17.10,84.62,360.00,6.00,0.02,29.87,1013.30,2.00,M,OVC,M,M,M,2700.00,M,M,M,-SN BR,M,M,M,M,M,M,12.28,KRNO 230955Z 36006KT 2SM -SN BR OVC027 M06/M08 A2987 RMK AO2 SLP133 P0002 T10611083 $,M
RTS,2022-02-23 09:55,-119.8764,39.6682,1539.00,M,M,M,M,M,0.00,M,M,M,M,M,M,M,M,M,M,M,M,M,M,M,M,M,M,M,M,KRTS 230955Z AUTO RMK AO2 PNO PWINO,M
05U,2022-02-23 09:55,-116.0051,39.6042,1811.23,12.20,10.40,92.32,0.00,0.00,0.00,29.72,M,10.00,M,BKN,OVC,M,M,1700.00,2900.00,M,M,M,M,M,M,M,M,M,12.20,K05U 230955Z AUTO 00000KT 10SM BKN017 OVC029 M11/M12 A2972 RMK A01,M
MEV,2022-02-23 09:55,-119.7500,38.9963,1441.42,12.20,10.40,92.32,0.00,0.00,0.00,29.84,M,10.00,M,SCT,OVC,M,M,3700.00,4900.00,M,M,M,M,M,M,M,M,M,12.20,KMEV 230955Z AUTO 00000KT 10SM SCT037 OVC049 M11/M12 A2984 RMK AO2,M
TMT,2022-02-23 09:55,-117.1971,39.4643,1749.34,10.20,6.80,85.81,160.00,3.00,0.00,29.76,M,10.00,M,SCT,OVC,M,M,1900.00,2800.00,M,M,-SN,M,M,M,M,M,M,3.77,KTMT 230955Z AUTO 16003KT 10SM -SN SCT019 OVC028 M12/M14 A2976 RMK AO2 T11211140,M
BAM,2022-02-23 09:55,-116.8743,40.5990,1382.36,19.40,12.20,73.13,340.00,9.00,0.00,29.84,M,10.00,M,BKN,OVC,M,M,3100.00,3900.00,M,M,M,M,M,M,M,M,M,7.85,KBAM 230955Z AUTO 34009KT 10SM BKN031 OVC039 M07/M11 A2984 RMK AO1,M
HTH,2022-02-23 09:55,-118.6315,38.5448,1282.89,24.80,21.20,85.96,350.00,13.00,0.00,29.83,M,8.00,M,FEW,SCT,BKN,M,400.00,1700.00,4000.00,M,M,M,M,M,M,M,M,12.34,KHTH 230955Z AUTO 35013KT 8SM FEW004 SCT017 BKN040 M04/M06 A2983 RMK A01,M
NFL,2022-02-23 09:56,-118.7010,39.4166,1199.00,24.10,17.10,74.27,360.00,8.00,T,29.86,1008.60,8.00,M,FEW,BKN,OVC,M,2000.00,3800.00,6500.00,M,-SN,M,M,M,M,M,M,14.38,KNFL 230956Z AUTO 36008KT 8SM -SN FEW020 BKN038 OVC065 M04/M08 A2986 RMK AO2 SNB49 SLP086 P0000 T10441083,M
EKO,2022-02-23 09:56,-115.7860,40.8242,1367.00,10.90,6.00,80.57,280.00,3.00,0.00,29.76,1012.00,10.00,M,SCT,BKN,M,M,3100.00,7000.00,M,M,M,M,M,M,M,M,M,4.57,KEKO 230956Z AUTO 28003KT 10SM SCT031 BKN070 M12/M14 A2976 RMK AO2 SLP120 T11171144,M
LAS,2022-02-23 09:56,-115.1634,36.0719,663.00,41.00,21.90,46.19,230.00,12.00,0.00,29.73,1006.50,10.00,M,SCT,M,M,M,11000.00,M,M,M,M,M,M,M,M,M,M,33.46,KLAS 230956Z 23012KT 10SM SCT110 05/M06 A2973 RMK AO2 SLP065 T00501056,M
TPH,2022-02-23 09:56,-117.0904,38.0505,1654.00,19.90,10.00,64.91,300.00,16.00,0.00,29.70,1007.90,10.00,M,BKN,M,M,M,10000.00,M,M,M,M,M,M,M,M,M,M,4.65,KTPH 230956Z AUTO 30016KT 10SM BKN100 M07/M12 A2970 RMK AO2 SLP079 T10671122,M
HND,2022-02-23 09:56,-115.1344,35.9729,742.79,39.00,21.90,49.93,200.00,8.00,0.00,29.76,1009.30,10.00,M,FEW,OVC,M,M,4900.00,10000.00,M,M,M,M,M,M,M,M,M,32.74,KHND 230956Z AUTO 20008KT 10SM FEW049 OVC100 04/M06 A2976 RMK AO2 SLP093 T00391056,M
WMC,2022-02-23 09:56,-117.8072,40.9019,1315.00,12.90,8.10,80.74,330.00,3.00,T,29.88,1014.80,10.00,M,CLR,M,M,M,M,M,M,M,M,M,M,M,M,M,M,6.85,KWMC 230956Z AUTO 33003KT 10SM CLR M11/M13 A2988 RMK AO2 SNE07 SLP148 P0000 T11061133 TSNO,M
LSV,2022-02-23 09:57,-115.0343,36.2362,570.00,42.80,21.20,41.84,260.00,13.00,0.00,29.71,1005.70,10.00,M,CLR,M,M,M,M,M,M,M,M,M,M,M,M,M,M,35.40,KLSV 230957Z AUTO 26013KT 10SM CLR 06/M06 A2971 RMK AO2 WSHFT 43 SLP057 $,M
RNO,2022-02-23 09:57,-119.7711,39.4839,1341.00,21.00,18.00,87.97,350.00,6.00,T,29.87,M,1.25,M,FEW,OVC,M,M,2100.00,2700.00,M,M,-SN BR,M,M,M,M,M,M,12.28,KRNO 230957Z 35006KT 1 1/4SM -SN BR FEW021 OVC027 M06/M08 A2987 RMK AO2 P0000 T10611078 $,M
LSV,2022-02-23 09:58,-115.0343,36.2362,570.00,42.00,21.00,42.95,260.00,13.00,0.00,29.72,1006.10,10.00,M,CLR,M,M,M,M,M,M,M,M,M,M,M,M,M,M,34.25,KLSV 230958Z AUTO 26013KT 10SM CLR 06/M06 A2972 RMK AO2 SLP061 T00551061 $,M
DRA,2022-02-23 09:58,-116.0278,36.6206,1009.00,30.90,27.00,85.26,340.00,10.00,0.01,29.72,M,1.75,M,SCT,OVC,M,M,1800.00,3300.00,M,M,-SN BR,M,M,M,M,M,M,21.59,KDRA 230958Z AUTO 34010KT 1 3/4SM -SN BR SCT018 OVC033 M01/M03 A2972 RMK AO2 P0001 T10061028,M
INS,2022-02-23 09:58,-115.6733,36.5872,955.00,32.40,26.20,77.64,10.00,9.00,T,29.71,1005.20,10.00,M,BKN,OVC,M,M,3000.00,4100.00,M,M,M,M,M,M,M,M,M,24.01,KINS 230958Z AUTO 01009KT 10SM BKN030 OVC041 00/M03 A2971 RMK AO2 RAE04 SLP052 P0000 T00021032 $,M
RTS,2022-02-23 10:05,-119.8764,39.6682,1539.00,M,M,M,M,M,0.00,M,M,M,M,M,M,M,M,M,M,M,M,M,M,M,M,M,M,M,M,KRTS 231005Z AUTO RMK AO2 PNO PWINO,M
DRA,2022-02-23 10:05,-116.0278,36.6206,1009.00,30.90,27.00,85.26,350.00,7.00,0.01,29.71,M,1.50,M,BKN,OVC,M,M,1600.00,3300.00,M,M,-SN BR,M,M,M,M,M,M,23.44,KDRA 231005Z AUTO 35007KT 1 1/2SM -SN BR BKN016 OVC033 M01/M03 A2971 RMK AO2 P0001 T10061028,M
NFL,2022-02-23 10:08,-118.7010,39.4166,1199.00,24.10,17.10,74.27,350.00,10.00,T,29.86,M,10.00,M,BKN,OVC,M,M,2200.00,3800.00,M,M,M,M,M,M,M,M,M,13.06,KNFL 231008Z AUTO 35010KT 10SM BKN022 OVC038 M04/M08 A2986 RMK AO2 SNE0958 P0000 T10441083,M
INS,2022-02-23 10:08,-115.6733,36.5872,955.00,32.00,26.60,80.22,10.00,8.00,0.00,29.71,1005.20,10.00,M,SCT,BKN,M,M,3000.00,4200.00,M,M,M,M,M,M,M,M,M,24.11,KINS 231008Z AUTO 01008KT 10SM SCT030 BKN042 00/M03 A2971 RMK AO2 SLP052 $,M
RNO,2022-02-23 10:13,-119.7711,39.4839,1341.00,21.00,18.00,87.97,360.00,3.00,T,29.87,M,0.75,M,BKN,OVC,M,M,1300.00,2700.00,M,M,-SN BR,M,M,M,M,M,M,16.11,KRNO 231013Z 36003KT 3/4SM R16R/5500VP6000FT -SN BR BKN013 OVC027 M06/M08 A2987 RMK AO2 TWR VIS 1 P0000 T10611078 $,M
INS,2022-02-23 10:13,-115.6733,36.5872,955.00,32.00,26.60,80.22,360.00,9.00,0.00,29.71,1005.20,10.00,M,SCT,M,M,M,3000.00,M,M,M,M,M,M,M,M,M,M,23.51,KINS 231013Z AUTO 36009KT 10SM SCT030 00/M03 A2971 RMK AO2 SLP052 $,M
MEV,2022-02-23 10:15,-119.7500,38.9963,1441.42,12.20,8.60,85.17,70.00,4.00,0.00,29.85,M,10.00,M,FEW,BKN,OVC,M,1400.00,4900.00,5500.00,M,M,M,M,M,M,M,M,4.30,KMEV 231015Z AUTO 07004KT 10SM FEW014 BKN049 OVC055 M11/M13 A2985 RMK AO2,M
BVU,2022-02-23 10:15,-114.8611,35.9475,671.00,41.00,19.40,41.54,230.00,10.00,0.00,29.75,M,10.00,16.00,CLR,M,M,M,M,M,M,M,M,M,M,M,M,M,M,34.25,KBVU 231015Z AUTO 23010G16KT 10SM CLR 05/M07 A2975 RMK AO2,M
05U,2022-02-23 10:15,-116.0051,39.6042,1811.23,14.00,10.40,85.28,0.00,0.00,0.00,29.72,M,10.00,M,OVC,M,M,M,1600.00,M,M,M,M,M,M,M,M,M,M,14.00,K05U 231015Z AUTO 00000KT 10SM OVC016 M10/M12 A2972 RMK A01,M
HTH,2022-02-23 10:15,-118.6315,38.5448,1282.89,24.80,21.20,85.96,360.00,12.00,0.00,29.83,M,2.50,18.00,FEW,SCT,OVC,M,300.00,1400.00,4200.00,M,BR,M,M,M,M,M,M,12.84,KHTH 231015Z AUTO 36012G18KT 2 1/2SM BR FEW003 SCT014 OVC042 M04/M06 A2983 RMK A01 VIS 1 1/4V5,M
BAM,2022-02-23 10:15,-116.8743,40.5990,1382.36,19.40,14.00,79.16,340.00,7.00,0.00,29.84,M,10.00,M,OVC,M,M,M,2700.00,M,M,M,M,M,M,M,M,M,M,9.42,KBAM 231015Z AUTO 34007KT 10SM OVC027 M07/M10 A2984 RMK AO1,M
RNO,2022-02-23 10:20,-119.7711,39.4839,1341.00,21.90,18.00,84.68,0.00,0.00,0.01,29.87,M,1.00,M,BKN,OVC,M,M,1500.00,2800.00,M,M,-SN BR,M,M,M,M,M,M,21.90,KRNO 231020Z 00000KT 1SM R16R/5500VP6000FT -SN BR BKN015 OVC028 M06/M08 A2987 RMK AO2 P0001 T10561078 $,M
HTH,2022-02-23 10:35,-118.6315,38.5448,1282.89,24.80,21.20,85.96,350.00,15.00,0.00,29.83,M,5.00,M,FEW,SCT,BKN,M,300.00,2300.00,2900.00,M,BR,M,M,M,M,M,M,11.45,KHTH 231035Z AUTO 35015KT 5SM BR FEW003 SCT023 BKN029 M04/M06 A2983 RMK A01,M
BVU,2022-02-23 10:35,-114.8611,35.9475,671.00,41.00,19.40,41.54,230.00,10.00,0.00,29.75,M,10.00,18.00,CLR,M,M,M,M,M,M,M,M,M,M,M,M,M,M,34.25,KBVU 231035Z AUTO 23010G18KT 10SM CLR 05/M07 A2975 RMK AO2,M
RTS,2022-02-23 10:35,-119.8764,39.6682,1539.00,M,M,M,M,M,0.00,M,M,M,M,M,M,M,M,M,M,M,M,M,M,M,M,M,M,M,M,KRTS 231035Z AUTO RMK AO2 PNO PWINO,M
05U,2022-02-23 10:35,-116.0051,39.6042,1811.23,15.80,12.20,85.40,0.00,0.00,0.00,29.72,M,10.00,M,OVC,M,M,M,1400.00,M,M,M,M,M,M,M,M,M,M,15.80,K05U 231035Z AUTO 00000KT 10SM OVC014 M09/M11 A2972 RMK A01,M
MEV,2022-02-23 10:35,-119.7500,38.9963,1441.42,10.40,8.60,92.25,0.00,0.00,0.00,29.85,M,10.00,M,FEW,SCT,BKN,M,1700.00,5500.00,8500.00,M,M,M,M,M,M,M,M,10.40,KMEV 231035Z AUTO 00000KT 10SM FEW017 SCT055 BKN085 M12/M13 A2985 RMK AO2,M
BAM,2022-02-23 10:35,-116.8743,40.5990,1382.36,19.40,14.00,79.16,320.00,10.00,0.00,29.84,M,10.00,M,OVC,M,M,M,2500.00,M,M,M,M,M,M,M,M,M,M,7.17,KBAM 231035Z AUTO 32010KT 10SM OVC025 M07/M10 A2984 RMK AO1,M
TMT,2022-02-23 10:35,-117.1971,39.4643,1749.34,12.00,8.60,85.92,0.00,0.00,0.00,29.77,M,10.00,M,SCT,OVC,M,M,2000.00,2600.00,M,M,-SN,M,M,M,M,M,M,12.00,KTMT 231035Z AUTO 00000KT 10SM -SN SCT020 OVC026 M11/M13 A2977 RMK AO2 T11111130,M
RNO,2022-02-23 10:37,-119.7711,39.4839,1341.00,21.90,17.10,81.46,0.00,0.00,0.01,29.87,M,1.00,M,SCT,BKN,OVC,M,1500.00,3900.00,7000.00,M,-SN,M,M,M,M,M,M,21.90,KRNO 231037Z 00000KT 1SM R16R/P6000FT -SN SCT015 BKN039 OVC070 M06/M08 A2987 RMK AO2 SFC VIS 2 P0001 T10561083 $,M
RNO,2022-02-23 10:46,-119.7711,39.4839,1341.00,21.90,17.10,81.46,350.00,4.00,0.01,29.88,M,2.00,M,BKN,OVC,M,M,3900.00,7000.00,M,M,-SN,M,M,M,M,M,M,15.63,KRNO 231046Z 35004KT 2SM -SN BKN039 OVC070 M06/M08 A2988 RMK AO2 P0001 T10561083 $,M
INS,2022-02-23 10:48,-115.6733,36.5872,955.00,32.00,24.80,74.44,330.00,11.00,0.00,29.70,1004.80,10.00,M,SCT,BKN,M,M,6500.00,8000.00,M,M,M,M,M,M,M,M,M,22.47,KINS 231048Z AUTO 33011KT 10SM SCT065 BKN080 00/M04 A2970 RMK AO2 SLP048 $,M
ELY,2022-02-23 10:51,-114.8453,39.2950,1909.00,17.60,15.80,92.50,10.00,6.00,T,29.63,M,2.00,M,OVC,M,M,M,3400.00,M,M,M,-SN BR,M,M,M,M,M,M,8.19,KELY 231051Z AUTO 01006KT 2SM -SN BR OVC034 M08/M09 A2963 RMK AO2 SNB10 P0000,M
NFL,2022-02-23 10:51,-118.7010,39.4166,1199.00,24.80,15.80,68.18,360.00,8.00,T,29.87,M,10.00,M,SCT,OVC,M,M,2700.00,3400.00,M,M,M,M,M,M,M,M,M,15.24,KNFL 231051Z AUTO 36008KT 10SM SCT027 OVC034 M04/M09 A2987 RMK AO2 SNE0958 P0000,M
DRA,2022-02-23 10:53,-116.0278,36.6206,1009.00,30.00,28.00,92.15,320.00,7.00,0.03,29.71,1005.30,1.50,M,OVC,M,M,M,1600.00,M,M,M,-SN BR,M,M,M,M,M,M,22.34,KDRA 231053Z AUTO 32007KT 1 1/2SM -SN BR OVC016 M01/M02 A2971 RMK AO2 SLP053 P0003 T10111022,M
LOL,2022-02-23 10:53,-118.5701,40.0684,1192.43,18.00,12.00,76.97,60.00,7.00,0.00,29.89,1014.70,10.00,M,CLR,M,M,M,M,M,M,M,M,M,M,M,M,M,M,7.71,KLOL 231053Z AUTO 06007KT 10SM CLR M08/M11 A2989 RMK AO2 SLP147 T10781111,M
ELY,2022-02-23 10:53,-114.8453,39.2950,1909.00,18.00,16.00,91.72,10.00,7.00,T,29.63,1005.80,2.00,M,OVC,M,M,M,3200.00,M,M,M,-SN BR,M,M,M,M,M,M,7.71,KELY 231053Z AUTO 01007KT 2SM -SN BR OVC032 M08/M09 A2963 RMK AO2 SNB10 SLP058 P0000 T10781089,M
P68,2022-02-23 10:53,-116.0056,39.6014,1993.00,18.00,12.90,80.09,350.00,6.00,0.00,29.70,1007.80,M,M,M,M,M,M,M,M,M,M,M,M,M,M,M,M,M,8.67,KP68 231053Z AUTO 35006KT M08/M11 A2970 RMK AO1 SLP078 T10781106,M
VGT,2022-02-23 10:53,-115.1933,36.2111,667.00,39.00,28.00,64.37,M,M,0.00,29.72,1008.20,10.00,M,CLR,M,M,M,M,M,M,M,M,M,M,M,M,M,M,M,KVGT 231053Z AUTO 10SM CLR 04/M02 A2972 RMK AO2 SLP082 T00391022,M
RNO,2022-02-23 10:55,-119.7711,39.4839,1341.00,21.00,16.00,80.69,360.00,6.00,0.01,29.88,1013.60,2.00,M,FEW,BKN,OVC,M,1700.00,3700.00,7000.00,M,HZ,M,M,M,M,M,M,12.28,KRNO 231055Z 36006KT 2SM HZ FEW017 BKN037 OVC070 M06/M09 A2988 RMK AO2 SNE52 SLP136 P0001 T10611089 $,M
RTS,2022-02-23 10:55,-119.8764,39.6682,1539.00,M,M,M,M,M,0.00,M,M,M,M,M,M,M,M,M,M,M,M,M,M,M,M,M,M,M,M,KRTS 231055Z AUTO RMK AO2 PNO PWINO,M
TMT,2022-02-23 10:55,-117.1971,39.4643,1749.34,12.90,10.00,87.92,0.00,0.00,0.00,29.77,M,7.00,M,BKN,OVC,M,M,1400.00,2600.00,M,M,-SN,M,M,M,M,M,M,12.90,KTMT 231055Z AUTO 00000KT 7SM -SN BKN014 OVC026 M11/M12 A2977 RMK AO2 T11061122,M
HTH,2022-02-23 10:55,-118.6315,38.5448,1282.89,24.80,23.00,92.74,350.00,14.00,0.00,29.83,M,0.75,M,OVC,M,M,M,300.00,M,M,M,BR,M,M,M,M,M,M,11.88,KHTH 231055Z AUTO 35014KT 3/4SM BR OVC003 M04/M05 A2983 RMK A01,M
BVU,2022-02-23 10:55,-114.8611,35.9475,671.00,39.20,19.40,44.55,220.00,8.00,0.00,29.76,M,10.00,M,BKN,BKN,M,M,6000.00,7500.00,M,M,M,M,M,M,M,M,M,32.98,KBVU 231055Z AUTO 22008KT 10SM BKN060 BKN075 04/M07 A2976 RMK AO2,M
BAM,2022-02-23 10:55,-116.8743,40.5990,1382.36,19.40,14.00,79.16,330.00,10.00,0.00,29.84,M,10.00,M,BKN,OVC,M,M,2700.00,3100.00,M,M,M,M,M,M,M,M,M,7.17,KBAM 231055Z AUTO 33010KT 10SM BKN027 OVC031 M07/M10 A2984 RMK AO1,M
MEV,2022-02-23 10:55,-119.7500,38.9963,1441.42,12.20,10.40,92.32,0.00,0.00,0.00,29.85,M,10.00,M,BKN,M,M,M,6000.00,M,M,M,M,M,M,M,M,M,M,12.20,KMEV 231055Z AUTO 00000KT 10SM BKN060 M11/M12 A2985 RMK AO2,M
05U,2022-02-23 10:55,-116.0051,39.6042,1811.23,17.60,14.00,85.51,360.00,5.00,0.00,29.72,M,10.00,M,OVC,M,M,M,1600.00,M,M,M,M,M,M,M,M,M,M,9.29,K05U 231055Z AUTO 36005KT 10SM OVC016 M08/M10 A2972 RMK A01,M
TPH,2022-02-23 10:56,-117.0904,38.0505,1654.00,18.00,10.00,70.41,320.00,14.00,0.00,29.70,1008.20,10.00,M,CLR,M,M,M,M,M,M,M,M,M,M,M,M,M,M,3.12,KTPH 231056Z AUTO 32014KT 10SM CLR M08/M12 A2970 RMK AO2 SLP082 T10781122,M
NFL,2022-02-23 10:56,-118.7010,39.4166,1199.00,24.10,16.00,70.81,360.00,8.00,T,29.87,1008.90,10.00,M,OVC,M,M,M,3600.00,M,M,M,M,M,M,M,M,M,M,14.38,KNFL 231056Z AUTO 36008KT 10SM OVC036 M04/M09 A2987 RMK AO2 SNE0958 SLP089 P0000 T10441089,M
LAS,2022-02-23 10:56,-115.1634,36.0719,663.00,40.00,23.00,50.50,220.00,10.00,0.00,29.73,1006.40,10.00,18.00,BKN,M,M,M,6500.00,M,M,M,M,M,M,M,M,M,M,32.87,KLAS 231056Z 22010G18KT 10SM BKN065 04/M05 A2973 RMK AO2 SLP064 T00441050,M
WMC,2022-02-23 10:56,-117.8072,40.9019,1315.00,16.00,9.00,73.41,350.00,7.00,T,29.89,1014.70,9.00,M,FEW,OVC,M,M,4100.00,5500.00,M,M,-SN,M,M,M,M,M,M,5.28,KWMC 231056Z AUTO 35007KT 9SM -SN FEW041 OVC055 M09/M13 A2989 RMK AO2 SNB30 SLP147 P0000 T10891128 TSNO,M
RNO,2022-02-23 10:56,-119.7711,39.4839,1341.00,21.00,16.00,80.69,360.00,6.00,0.00,29.88,M,9.00,M,FEW,BKN,OVC,M,1700.00,3700.00,7000.00,M,M,M,M,M,M,M,M,12.28,KRNO 231056Z 36006KT 9SM FEW017 BKN037 OVC070 M06/M09 A2988 RMK AO2 T10611089 $,M
HND,2022-02-23 10:56,-115.1344,35.9729,742.79,38.00,23.00,54.60,210.00,10.00,0.00,29.75,1009.10,10.00,M,BKN,M,M,M,4900.00,M,M,M,M,M,M,M,M,M,M,30.37,KHND 231056Z AUTO 21010KT 10SM BKN049 03/M05 A2975 RMK AO2 SLP091 T00331050,M
EKO,2022-02-23 10:56,-115.7860,40.8242,1367.00,12.00,6.00,76.73,0.00,0.00,0.00,29.76,1011.90,10.00,M,BKN,M,M,M,3100.00,M,M,M,M,M,M,M,M,M,M,12.00,KEKO 231056Z AUTO 00000KT 10SM BKN031 M11/M14 A2976 RMK AO2 SLP119 T11111144,M
INS,2022-02-23 10:58,-115.6733,36.5872,955.00,32.70,24.10,70.29,330.00,11.00,0.00,29.70,1004.80,10.00,M,FEW,BKN,BKN,M,2200.00,6000.00,8000.00,M,M,M,M,M,M,M,M,23.35,KINS 231058Z AUTO 33011KT 10SM FEW022 BKN060 BKN080 00/M04 A2970 RMK AO2 SLP048 T00041044 $,M
LSV,2022-02-23 10:58,-115.0343,36.2362,570.00,38.80,30.20,70.98,270.00,4.00,0.00,29.73,1006.40,10.00,M,CLR,M,M,M,M,M,M,M,M,M,M,M,M,M,M,35.36,KLSV 231058Z AUTO 27004KT 10SM CLR 04/M01 A2973 RMK AO2 SLP064 T00381010 $,M
DRA,2022-02-23 11:06,-116.0278,36.6206,1009.00,30.00,28.00,92.15,290.00,6.00,T,29.71,M,1.25,M,OVC,M,M,M,1400.00,M,M,M,-SN BR,M,M,M,M,M,M,23.12,KDRA 231106Z AUTO 29006KT 1 1/4SM -SN BR OVC014 M01/M02 A2971 RMK AO2 P0000 T10111022,M
INS,2022-02-23 11:08,-115.6733,36.5872,955.00,33.80,24.80,69.25,310.00,7.00,0.00,29.71,1005.20,10.00,M,SCT,BKN,OVC,M,2100.00,3000.00,6000.00,M,M,M,M,M,M,M,M,26.97,KINS 231108Z AUTO 31007KT 10SM SCT021 BKN030 OVC060 01/M04 A2971 RMK AO2 SLP052 $,M
RNO,2022-02-23 11:12,-119.7711,39.4839,1341.00,21.00,16.00,80.69,10.00,5.00,T,29.88,M,7.00,M,FEW,SCT,OVC,M,1700.00,2300.00,3700.00,M,-SN,M,M,M,M,M,M,13.33,KRNO 231112Z 01005KT 7SM -SN FEW017 SCT023 OVC037 M06/M09 A2988 RMK AO2 SNB06 P0000 T10611089 $,M
INS,2022-02-23 11:13,-115.6733,36.5872,955.00,33.80,24.80,69.25,290.00,6.00,0.00,29.71,1005.20,10.00,M,BKN,BKN,OVC,M,2100.00,3000.00,6000.00,M,M,M,M,M,M,M,M,27.70,KINS 231113Z AUTO 29006KT 10SM BKN021 BKN030 OVC060 01/M04 A2971 RMK AO2 CIG 021V060 BKN021 V SCT SLP052 $,M
ELY,2022-02-23 11:15,-114.8453,39.2950,1909.00,18.00,16.00,91.72,10.00,8.00,T,29.63,M,4.00,M,OVC,M,M,M,4000.00,M,M,M,-SN BR,M,M,M,M,M,M,6.87,KELY 231115Z AUTO 01008KT 4SM -SN BR OVC040 M08/M09 A2963 RMK AO2 P0000 T10781089,M
BVU,2022-02-23 11:15,-114.8611,35.9475,671.00,39.20,19.40,44.55,240.00,6.00,0.00,29.75,M,10.00,M,BKN,BKN,M,M,5500.00,6500.00,M,M,M,M,M,M,M,M,M,34.20,KBVU 231115Z AUTO 24006KT 10SM BKN055 BKN065 04/M07 A2975 RMK AO2,M
RTS,2022-02-23 11:15,-119.8764,39.6682,1539.00,M,M,M,M,M,0.00,M,M,M,M,M,M,M,M,M,M,M,M,M,M,M,M,M,M,M,M,KRTS 231115Z AUTO RMK AO2 PNO PWINO,M
05U,2022-02-23 11:15,-116.0051,39.6042,1811.23,15.80,14.00,92.44,350.00,5.00,0.00,29.72,M,10.00,M,OVC,M,M,M,1400.00,M,M,M,M,M,M,M,M,M,M,7.16,K05U 231115Z AUTO 35005KT 10SM OVC014 M09/M10 A2972 RMK A01,M
MEV,2022-02-23 11:15,-119.7500,38.9963,1441.42,10.40,8.60,92.25,140.00,5.00,0.00,29.85,M,10.00,M,SCT,SCT,OVC,M,3700.00,4800.00,5500.00,M,M,M,M,M,M,M,M,0.74,KMEV 231115Z AUTO 14005KT 10SM SCT037 SCT048 OVC055 M12/M13 A2985 RMK AO2,M
TMT,2022-02-23 11:15,-117.1971,39.4643,1749.34,13.60,10.80,88.35,0.00,0.00,0.00,29.77,M,3.00,M,BKN,OVC,M,M,1400.00,2600.00,M,M,-SN,M,M,M,M,M,M,13.60,KTMT 231115Z AUTO 00000KT 3SM -SN BKN014 OVC026 M10/M12 A2977 RMK AO2 T11021118,M
BAM,2022-02-23 11:15,-116.8743,40.5990,1382.36,19.40,14.00,79.16,340.00,10.00,0.00,29.84,M,10.00,M,OVC,M,M,M,3200.00,M,M,M,M,M,M,M,M,M,M,7.17,KBAM 231115Z AUTO 34010KT 10SM OVC032 M07/M10 A2984 RMK AO1,M
HTH,2022-02-23 11:15,-118.6315,38.5448,1282.89,23.00,23.00,100.00,350.00,16.00,0.00,29.84,M,0.75,M,OVC,M,M,M,200.00,M,M,M,BR,M,M,M,M,M,M,8.69,KHTH 231115Z AUTO 35016KT 3/4SM BR OVC002 M05/M05 A2984 RMK A01,M
RNO,2022-02-23 11:19,-119.7711,39.4839,1341.00,21.90,17.10,81.46,10.00,5.00,T,29.88,M,2.00,M,FEW,BKN,OVC,M,1700.00,2300.00,3700.00,M,-SN,M,M,M,M,M,M,14.40,KRNO 231119Z 01005KT 2SM -SN FEW017 BKN023 OVC037 M06/M08 A2988 RMK AO2 SNB06 P0000 T10561083 $,M
INS,2022-02-23 11:22,-115.6733,36.5872,955.00,33.80,24.80,69.25,240.00,8.00,0.00,29.71,1005.20,10.00,M,BKN,BKN,OVC,M,2100.00,2800.00,3800.00,M,-UP,M,M,M,M,M,M,26.33,KINS 231122Z AUTO 24008KT 10SM -UP BKN021 BKN028 OVC038 01/M04 A2971 RMK AO2 UPB22 SLP052 $,M
INS,2022-02-23 11:26,-115.6733,36.5872,955.00,33.80,26.60,74.63,240.00,8.00,0.00,29.71,1005.20,10.00,M,BKN,BKN,OVC,M,2000.00,2800.00,3300.00,M,-SN,M,M,M,M,M,M,26.33,KINS 231126Z AUTO 24008KT 10SM -SN BKN020 BKN028 OVC033 01/M03 A2971 RMK AO2 UPB22E26SNB26 SLP052 $,M
DRA,2022-02-23 11:30,-116.0278,36.6206,1009.00,28.90,28.00,96.38,270.00,6.00,0.01,29.71,M,1.50,M,OVC,M,M,M,1600.00,M,M,M,-SN BR,M,M,M,M,M,M,21.80,KDRA 231130Z AUTO 27006KT 1 1/2SM -SN BR OVC016 M02/M02 A2971 RMK AO2 P0001 T10171022,M
05U,2022-02-23 11:30,-116.0051,39.6042,1811.23,15.80,12.20,85.40,350.00,6.00,0.00,29.73,M,10.00,M,OVC,M,M,M,1300.00,M,M,M,M,M,M,M,M,M,M,6.02,K05U 231130Z AUTO 35006KT 10SM OVC013 M09/M11 A2973 RMK A01,M
INS,2022-02-23 11:31,-115.6733,36.5872,955.00,32.00,26.60,80.22,250.00,6.00,0.00,29.71,1005.20,8.00,M,SCT,OVC,M,M,2000.00,3000.00,M,M,-SN,M,M,M,M,M,M,25.53,KINS 231131Z AUTO 25006KT 8SM -SN SCT020 OVC030 00/M03 A2971 RMK AO2 UPB22E26SNB26 SLP052 $,M
HTH,2022-02-23 11:35,-118.6315,38.5448,1282.89,23.00,23.00,100.00,350.00,12.00,0.00,29.84,M,0.50,M,OVC,M,M,M,200.00,M,M,M,FZFG,M,M,M,M,M,M,10.55,KHTH 231135Z AUTO 35012KT 1/2SM FZFG OVC002 M05/M05 A2984 RMK A01,M
BVU,2022-02-23 11:35,-114.8611,35.9475,671.00,39.20,19.40,44.55,240.00,13.00,0.00,29.75,M,10.00,M,SCT,SCT,M,M,5500.00,6500.00,M,M,M,M,M,M,M,M,M,30.79,KBVU 231135Z AUTO 24013KT 10SM SCT055 SCT065 04/M07 A2975 RMK AO2,M
RTS,2022-02-23 11:35,-119.8764,39.6682,1539.00,M,M,M,M,M,0.00,M,M,M,M,M,M,M,M,M,M,M,M,M,M,M,M,M,M,M,M,KRTS 231135Z AUTO RMK AO2 PNO PWINO,M
TMT,2022-02-23 11:35,-117.1971,39.4643,1749.34,14.00,11.30,88.77,0.00,0.00,0.00,29.77,M,10.00,M,SCT,OVC,M,M,2200.00,2800.00,M,M,M,M,M,M,M,M,M,14.00,KTMT 231135Z AUTO 00000KT 10SM SCT022 OVC028 M10/M11 A2977 RMK AO2 T11001115,M
BAM,2022-02-23 11:35,-116.8743,40.5990,1382.36,19.40,14.00,79.16,340.00,8.00,0.00,29.85,M,10.00,M,OVC,M,M,M,3100.00,M,M,M,M,M,M,M,M,M,M,8.59,KBAM 231135Z AUTO 34008KT 10SM OVC031 M07/M10 A2985 RMK AO1,M
MEV,2022-02-23 11:35,-119.7500,38.9963,1441.42,12.20,10.40,92.32,160.00,3.00,0.00,29.85,M,10.00,M,BKN,BKN,OVC,M,3500.00,4400.00,5500.00,M,M,M,M,M,M,M,M,6.05,KMEV 231135Z AUTO 16003KT 10SM BKN035 BKN044 OVC055 M11/M12 A2985 RMK AO2,M
DRA,2022-02-23 11:36,-116.0278,36.6206,1009.00,28.90,28.00,96.38,270.00,5.00,0.01,29.71,M,2.50,M,OVC,M,M,M,2300.00,M,M,M,-SN BR,M,M,M,M,M,M,22.71,KDRA 231136Z AUTO 27005KT 2 1/2SM -SN BR OVC023 M02/M02 A2971 RMK AO2 P0001 T10171022,M
INS,2022-02-23 11:36,-115.6733,36.5872,955.00,32.00,26.60,80.22,240.00,7.00,0.00,29.71,1005.20,6.00,M,SCT,OVC,M,M,2000.00,2800.00,M,M,-SN,M,M,M,M,M,M,24.78,KINS 231136Z AUTO 24007KT 6SM -SN SCT020 OVC028 00/M03 A2971 RMK AO2 UPB22E26SNB26 SLP052 $,M
ELY,2022-02-23 11:38,-114.8453,39.2950,1909.00,18.00,16.00,91.72,10.00,7.00,0.01,29.64,M,2.50,M,OVC,M,M,M,3200.00,M,M,M,-SN BR,M,M,M,M,M,M,7.71,KELY 231138Z AUTO 01007KT 2 1/2SM -SN BR OVC032 M08/M09 A2964 RMK AO2 P0001 T10781089,M
DRA,2022-02-23 11:40,-116.0278,36.6206,1009.00,28.90,28.00,96.38,270.00,6.00,0.01,29.72,M,4.00,M,OVC,M,M,M,2700.00,M,M,M,-SN BR,M,M,M,M,M,M,21.80,KDRA 231140Z AUTO 27006KT 4SM -SN BR OVC027 M02/M02 A2972 RMK AO2 P0001 T10171022,M
INS,2022-02-23 11:45,-115.6733,36.5872,955.00,32.00,26.60,80.22,270.00,6.00,0.00,29.71,1005.20,6.00,M,FEW,FEW,SCT,OVC,1100.00,1900.00,2900.00,3500.00,-SN,M,M,M,M,M,M,25.53,KINS 231145Z AUTO 27006KT 6SM -SN FEW011 FEW019 SCT029 OVC035 00/M03 A2971 RMK AO2 UPB22E26SNB26 SLP052 $,M
DRA,2022-02-23 11:47,-116.0278,36.6206,1009.00,28.90,28.00,96.38,260.00,6.00,0.01,29.72,M,7.00,M,OVC,M,M,M,3400.00,M,M,M,-SN,M,M,M,M,M,M,21.80,KDRA 231147Z AUTO 26006KT 7SM -SN OVC034 M02/M02 A2972 RMK AO2 P0001 T10171022,M
05U,2022-02-23 11:50,-116.0051,39.6042,1811.23,15.80,12.20,85.40,350.00,5.00,0.00,29.73,M,9.00,M,OVC,M,M,M,1300.00,M,M,M,M,M,M,M,M,M,M,7.16,K05U 231150Z AUTO 35005KT 9SM OVC013 M09/M11 A2973 RMK A01,M
VGT,2022-02-23 11:53,-115.1933,36.2111,667.00,41.00,19.00,40.83,M,M,0.00,29.72,1008.00,10.00,M,FEW,M,M,M,7000.00,M,M,M,M,M,M,M,M,M,M,M,KVGT 231153Z AUTO 10SM FEW070 05/M07 A2972 RMK AO2 SLP080 T00501072 10078 20033 50000,M
LOL,2022-02-23 11:53,-118.5701,40.0684,1192.43,17.10,10.90,76.20,60.00,6.00,0.00,29.91,1015.60,10.00,M,CLR,M,M,M,M,M,M,M,M,M,M,M,M,M,M,7.59,KLOL 231153Z AUTO 06006KT 10SM CLR M08/M12 A2991 RMK AO2 SLP156 T10831117 11039 21083 53011,M
DRA,2022-02-23 11:53,-116.0278,36.6206,1009.00,28.90,28.00,96.38,260.00,5.00,0.01,29.72,1005.90,9.00,M,OVC,M,M,M,4000.00,M,M,M,M,M,M,M,M,M,M,22.71,KDRA 231153Z AUTO 26005KT 9SM OVC040 M02/M02 A2972 RMK AO2 SNE49 SLP059 P0001 60005 70005 T10171022 10033 21017 53004,M
ELY,2022-02-23 11:53,-114.8453,39.2950,1909.00,18.00,16.00,91.72,10.00,8.00,0.01,29.64,1006.20,2.50,M,OVC,M,M,M,2800.00,M,M,M,-SN BR,M,M,M,M,M,M,6.87,KELY 231153Z AUTO 01008KT 2 1/2SM -SN BR OVC028 M08/M09 A2964 RMK AO2 SLP062 P0001 60002 70015 T10781089 11072 21083 55001,M
P68,2022-02-23 11:53,-116.0056,39.6014,1993.00,16.00,12.00,83.91,360.00,5.00,0.00,29.71,1008.60,M,M,M,M,M,M,M,M,M,M,M,M,M,M,M,M,M,7.39,KP68 231153Z AUTO 36005KT M09/M11 A2971 RMK AO1 SLP086 70004 T10891111 11078 21117 53002,M
RNO,2022-02-23 11:55,-119.7711,39.4839,1341.00,21.90,14.00,71.18,340.00,8.00,T,29.89,1014.00,2.00,M,BKN,OVC,M,M,2500.00,3400.00,M,M,-SN,M,M,M,M,M,M,11.67,KRNO 231155Z 34008KT 2SM -SN BKN025 OVC034 M06/M10 A2989 RMK AO2 TWR VIS 3 SNB06 SLP140 4/004 P0000 60016 70016 T10561100 11044 21061 53010 $,4
BAM,2022-02-23 11:55,-116.8743,40.5990,1382.36,19.40,12.20,73.13,340.00,9.00,0.00,29.86,M,10.00,M,OVC,M,M,M,3300.00,M,M,M,M,M,M,M,M,M,M,7.85,KBAM 231155Z AUTO 34009KT 10SM OVC033 M07/M11 A2986 RMK AO1,M
HTH,2022-02-23 11:55,-118.6315,38.5448,1282.89,23.00,19.40,85.85,340.00,12.00,0.00,29.85,M,5.00,M,FEW,BKN,OVC,M,300.00,2900.00,4000.00,M,BR,M,M,M,M,M,M,10.55,KHTH 231155Z AUTO 34012KT 5SM BR FEW003 BKN029 OVC040 M05/M07 A2985 RMK A01,M
BVU,2022-02-23 11:55,-114.8611,35.9475,671.00,39.20,19.40,44.55,240.00,18.00,0.00,29.74,M,10.00,27.00,FEW,M,M,M,11000.00,M,M,M,M,M,M,M,M,M,M,29.23,KBVU 231155Z AUTO 24018G27KT 10SM FEW110 04/M07 A2974 RMK AO2,M
INS,2022-02-23 11:55,-115.6733,36.5872,955.00,32.00,28.40,86.39,260.00,13.00,0.00,29.72,1005.50,5.00,M,SCT,BKN,OVC,M,1200.00,2900.00,3500.00,M,-SN,M,M,M,M,M,M,21.57,KINS 231155Z AUTO 26013KT 5SM -SN SCT012 BKN029 OVC035 00/M02 A2972 RMK AO2 UPB22E26SNB26 CIG 029V035 BKN V SCT SLP055 $,M
RTS,2022-02-23 11:55,-119.8764,39.6682,1539.00,M,M,M,M,M,0.00,M,M,M,M,M,M,M,M,M,M,M,M,M,M,M,M,M,M,M,M,KRTS 231155Z AUTO RMK AO2 PNO PWINO,M
MEV,2022-02-23 11:55,-119.7500,38.9963,1441.42,14.00,12.20,92.38,0.00,0.00,0.00,29.86,M,10.00,M,BKN,BKN,OVC,M,3600.00,4400.00,6500.00,M,M,M,M,M,M,M,M,14.00,KMEV 231155Z AUTO 00000KT 10SM BKN036 BKN044 OVC065 M10/M11 A2986 RMK AO2,M
TMT,2022-02-23 11:55,-117.1971,39.4643,1749.34,14.90,11.80,87.26,0.00,0.00,0.00,29.78,M,10.00,M,OVC,M,M,M,2200.00,M,M,M,M,M,M,M,M,M,M,14.90,KTMT 231155Z AUTO 00000KT 10SM OVC022 M09/M11 A2978 RMK AO2 T10951112 11095 21165,M
WMC,2022-02-23 11:56,-117.8072,40.9019,1315.00,17.10,9.00,69.99,360.00,8.00,T,29.89,1014.70,10.00,M,OVC,M,M,M,6500.00,M,M,M,M,M,M,M,M,M,M,5.76,KWMC 231156Z AUTO 36008KT 10SM OVC065 M08/M13 A2989 RMK AO2 SNE1058 SLP147 P0000 60000 70013 T10831128 11078 21106 51006 TSNO,M
HND,2022-02-23 11:56,-115.1344,35.9729,742.79,37.00,21.90,54.01,230.00,10.00,0.00,29.74,1009.10,10.00,M,CLR,M,M,M,M,M,M,M,M,M,M,M,M,M,M,29.24,KHND 231156Z AUTO 23010KT 10SM CLR 03/M06 A2974 RMK AO2 SLP091 70001 T00281056 10061 20028 58003,M
NFL,2022-02-23 11:56,-118.7010,39.4166,1199.00,21.90,14.00,71.18,360.00,12.00,0.00,29.88,1009.40,10.00,M,OVC,M,M,M,7000.00,M,M,M,M,M,M,M,M,M,M,9.15,KNFL 231156Z AUTO 36012KT 10SM OVC070 M06/M10 A2988 RMK AO2 SLP094 60000 T10561100 11028 21056 53008,M
TPH,2022-02-23 11:56,-117.0904,38.0505,1654.00,19.00,9.00,64.50,320.00,11.00,0.00,29.71,1008.40,10.00,M,CLR,M,M,M,M,M,M,M,M,M,M,M,M,M,M,6.04,KTPH 231156Z AUTO 32011KT 10SM CLR M07/M13 A2971 RMK AO2 SLP084 T10721128 11033 21078 53003,M
LAS,2022-02-23 11:56,-115.1634,36.0719,663.00,39.00,21.00,48.06,250.00,7.00,0.00,29.73,1006.50,10.00,M,FEW,FEW,M,M,5000.00,10000.00,M,M,M,M,M,M,M,M,M,33.31,KLAS 231156Z 25007KT 10SM FEW050 FEW100 04/M06 A2973 RMK AO2 SLP065 T00391061 10072 20039 56001,M
EKO,2022-02-23 11:56,-115.7860,40.8242,1367.00,15.10,9.00,76.34,0.00,0.00,0.00,29.77,1011.70,10.00,M,OVC,M,M,M,3100.00,M,M,M,M,M,M,T,M,M,M,15.10,KEKO 231156Z AUTO 00000KT 10SM OVC031 M09/M13 A2977 RMK AO2 SLP117 70010 I6000 T10941128 11094 21128 53002,M
LSV,2022-02-23 11:58,-115.0343,36.2362,570.00,38.80,30.20,70.98,0.00,0.00,0.00,29.73,1006.50,10.00,M,FEW,M,M,M,7000.00,M,M,M,M,M,M,M,M,M,M,38.80,KLSV 231158Z AUTO 00000KT 10SM FEW070 04/M01 A2973 RMK AO2 SLP065 T00381010 10070 20035 50005 $,M
INS,2022-02-23 11:58,-115.6733,36.5872,955.00,31.80,28.00,85.67,270.00,10.00,T,29.72,1005.50,5.00,M,SCT,BKN,BKN,OVC,1200.00,2900.00,3300.00,4000.00,-SN,M,M,M,M,M,M,22.72,KINS 231158Z AUTO 27010KT 5SM -SN SCT012 BKN029 BKN033 OVC040 M00/M02 A2972 RMK AO2 UPB22E26SNB26 CIG 029V035 BKN029 V SCT SLP055 P0000 60000 T10011022 10049 21003 55000 $,M
ELY,2022-02-23 11:59,-114.8453,39.2950,1909.00,18.00,16.00,91.72,10.00,8.00,T,29.64,M,3.00,M,OVC,M,M,M,3000.00,M,M,M,-SN BR,M,M,M,M,M,M,6.87,KELY 231159Z AUTO 01008KT 3SM -SN BR OVC030 M08/M09 A2964 RMK AO2 P0000 T10781089,M
RNO,2022-02-23 12:02,-119.7711,39.4839,1341.00,21.90,14.00,71.18,340.00,8.00,T,29.89,M,3.00,M,BKN,OVC,M,M,2500.00,3200.00,M,M,-SN,M,M,M,M,M,M,11.67,KRNO 231202Z 34008KT 3SM -SN BKN025 OVC032 M06/M10 A2989 RMK AO2 P0000 T10561100 $,M
INS,2022-02-23 12:03,-115.6733,36.5872,955.00,32.00,28.40,86.39,300.00,7.00,0.00,29.72,1005.50,6.00,M,SCT,BKN,BKN,OVC,900.00,1300.00,2800.00,4300.00,-SN,M,M,M,M,M,M,24.78,KINS 231203Z AUTO 30007KT 6SM -SN SCT009 BKN013 BKN028 OVC043 00/M02 A2972 RMK AO2 CIG 010V029 SLP055 $,M
05U,2022-02-23 12:10,-116.0051,39.6042,1811.23,15.80,12.20,85.40,360.00,4.00,0.00,29.74,M,6.00,M,OVC,M,M,M,1400.00,M,M,M,BR,M,M,M,M,M,M,8.50,K05U 231210Z AUTO 36004KT 6SM BR OVC014 M09/M11 A2974 RMK A01,M
INS,2022-02-23 12:13,-115.6733,36.5872,955.00,32.00,28.40,86.39,270.00,12.00,0.00,29.73,1006.10,3.00,M,BKN,OVC,M,M,1000.00,1300.00,M,M,-SN,M,M,M,M,M,M,22.00,KINS 231213Z AUTO 27012KT 3SM -SN BKN010 OVC013 M00/M02 A2973 RMK AO2 VIS 2 RWY08 SLP061 $,M
RNO,2022-02-23 12:13,-119.7711,39.4839,1341.00,21.90,14.00,71.18,340.00,5.00,T,29.90,M,3.00,M,BKN,OVC,M,M,2700.00,3300.00,M,M,HZ,M,M,M,M,M,M,14.40,KRNO 231213Z 34005KT 3SM HZ BKN027 OVC033 M06/M10 A2990 RMK AO2 SNE09 P0000 T10561100 $,M
BVU,2022-02-23 12:15,-114.8611,35.9475,671.00,39.20,19.40,44.55,240.00,15.00,0.00,29.76,M,10.00,22.00,CLR,M,M,M,M,M,M,M,M,M,M,M,M,M,M,30.11,KBVU 231215Z AUTO 24015G22KT 10SM CLR 04/M07 A2976 RMK AO2,M
TMT,2022-02-23 12:15,-117.1971,39.4643,1749.34,14.90,12.20,88.81,0.00,0.00,0.00,29.78,M,10.00,M,OVC,M,M,M,2400.00,M,M,M,-SN,M,M,M,M,M,M,14.90,KTMT 231215Z AUTO 00000KT 10SM -SN OVC024 M09/M11 A2978 RMK AO2 T10951110,M
HTH,2022-02-23 12:15,-118.6315,38.5448,1282.89,23.00,19.40,85.85,340.00,17.00,0.00,29.86,M,8.00,22.00,FEW,BKN,OVC,M,3000.00,3900.00,5500.00,M,M,M,M,M,M,M,M,8.28,KHTH 231215Z AUTO 34017G22KT 8SM FEW030 BKN039 OVC055 M05/M07 A2986 RMK A01,M
BAM,2022-02-23 12:15,-116.8743,40.5990,1382.36,19.40,12.20,73.13,330.00,10.00,0.00,29.87,M,10.00,M,OVC,M,M,M,3500.00,M,M,M,M,M,M,M,M,M,M,7.17,KBAM 231215Z AUTO 33010KT 10SM OVC035 M07/M11 A2987 RMK AO1,M
MEV,2022-02-23 12:15,-119.7500,38.9963,1441.42,15.80,14.00,92.44,0.00,0.00,0.00,29.86,M,10.00,M,BKN,OVC,M,M,3800.00,4300.00,M,M,M,M,M,M,M,M,M,15.80,KMEV 231215Z AUTO 00000KT 10SM BKN038 OVC043 M09/M10 A2986 RMK AO2,M
RTS,2022-02-23 12:15,-119.8764,39.6682,1539.00,M,M,M,M,M,0.00,M,M,M,M,M,M,M,M,M,M,M,M,M,M,M,M,M,M,M,M,KRTS 231215Z AUTO RMK AO2 PNO PWINO,M
INS,2022-02-23 12:18,-115.6733,36.5872,955.00,32.00,28.40,86.39,260.00,11.00,0.00,29.73,1006.10,2.25,M,FEW,BKN,OVC,M,500.00,1000.00,1300.00,M,-SN,M,M,M,M,M,M,22.47,KINS 231218Z AUTO 26011KT 2 1/4SM -SN FEW005 BKN010 OVC013 M00/M02 A2973 RMK AO2 VIS 2 1/4V5 VIS 1 3/8 RWY08 SLP061 $,M
INS,2022-02-23 12:23,-115.6733,36.5872,955.00,30.20,28.40,92.92,260.00,11.00,0.00,29.73,1006.10,1.38,M,FEW,BKN,OVC,M,500.00,1000.00,1400.00,M,-SN,M,M,M,M,M,M,20.19,KINS 231223Z AUTO 26011KT 1 3/8SM -SN FEW005 BKN010 OVC014 M01/M02 A2973 RMK AO2 VIS 1 3/8V2 3/4 SLP061 $,M
DRA,2022-02-23 12:23,-116.0278,36.6206,1009.00,30.00,28.00,92.15,210.00,6.00,T,29.74,M,2.50,M,OVC,M,M,M,2800.00,M,M,M,-SN BR,M,M,M,M,M,M,23.12,KDRA 231223Z AUTO 21006KT 2 1/2SM -SN BR OVC028 M01/M02 A2974 RMK AO2 SNB05 P0000 T10111022,M
RNO,2022-02-23 12:24,-119.7711,39.4839,1341.00,21.90,14.00,71.18,340.00,5.00,T,29.90,M,3.00,M,BKN,OVC,M,M,2700.00,3500.00,M,M,-SN,M,M,M,M,M,M,14.40,KRNO 231224Z 34005KT 3SM -SN BKN027 OVC035 M06/M10 A2990 RMK AO2 SNE09B24 P0000 T10561100 $,M
ELY,2022-02-23 12:31,-114.8453,39.2950,1909.00,18.00,16.00,91.72,10.00,9.00,T,29.64,M,2.50,M,OVC,M,M,M,2800.00,M,M,M,-SN BR,M,M,M,M,M,M,6.11,KELY 231231Z AUTO 01009KT 2 1/2SM -SN BR OVC028 M08/M09 A2964 RMK AO2 P0000 T10781089,M
DRA,2022-02-23 12:32,-116.0278,36.6206,1009.00,30.00,28.00,92.15,220.00,7.00,T,29.74,M,1.50,M,OVC,M,M,M,2000.00,M,M,M,-SN BR,M,M,M,M,M,M,22.34,KDRA 231232Z AUTO 22007KT 1 1/2SM -SN BR OVC020 M01/M02 A2974 RMK AO2 SNB05 P0000 T10111022,M
INS,2022-02-23 12:33,-115.6733,36.5872,955.00,30.20,28.40,92.92,250.00,13.00,0.00,29.73,1006.10,1.50,M,FEW,BKN,OVC,M,400.00,1000.00,1600.00,M,-SN,M,M,M,M,M,M,19.26,KINS 231233Z AUTO 25013KT 1 1/2SM -SN FEW004 BKN010 OVC016 M01/M02 A2973 RMK AO2 SLP061 $,M
05U,2022-02-23 12:35,-116.0051,39.6042,1811.23,15.80,12.20,85.40,350.00,4.00,0.00,29.75,M,7.00,M,BKN,OVC,M,M,1400.00,2000.00,M,M,M,M,M,M,M,M,M,8.50,K05U 231235Z AUTO 35004KT 7SM BKN014 OVC020 M09/M11 A2975 RMK A01,M
BAM,2022-02-23 12:35,-116.8743,40.5990,1382.36,17.60,12.20,79.00,330.00,10.00,0.00,29.87,M,10.00,M,OVC,M,M,M,3500.00,M,M,M,M,M,M,M,M,M,M,4.91,KBAM 231235Z AUTO 33010KT 10SM OVC035 M08/M11 A2987 RMK AO1,M
BVU,2022-02-23 12:35,-114.8611,35.9475,671.00,37.40,19.40,47.80,240.00,13.00,0.00,29.76,M,10.00,18.00,CLR,M,M,M,M,M,M,M,M,M,M,M,M,M,M,28.49,KBVU 231235Z AUTO 24013G18KT 10SM CLR 03/M07 A2976 RMK AO2,M
TMT,2022-02-23 12:35,-117.1971,39.4643,1749.34,14.90,12.00,88.03,0.00,0.00,0.00,29.79,M,7.00,M,OVC,M,M,M,2400.00,M,M,M,-SN,M,M,M,M,M,M,14.90,KTMT 231235Z AUTO 00000KT 7SM -SN OVC024 M09/M11 A2979 RMK AO2 T10951111,M
MEV,2022-02-23 12:35,-119.7500,38.9963,1441.42,17.60,14.00,85.51,0.00,0.00,0.00,29.87,M,10.00,M,BKN,OVC,M,M,3000.00,3800.00,M,M,M,M,M,M,M,M,M,17.60,KMEV 231235Z AUTO 00000KT 10SM BKN030 OVC038 M08/M10 A2987 RMK AO2,M
HTH,2022-02-23 12:35,-118.6315,38.5448,1282.89,23.00,19.40,85.85,340.00,18.00,0.00,29.86,M,9.00,M,FEW,BKN,OVC,M,3800.00,4900.00,5500.00,M,M,M,M,M,M,M,M,7.90,KHTH 231235Z AUTO 34018KT 9SM FEW038 BKN049 OVC055 M05/M07 A2986 RMK A01,M
RTS,2022-02-23 12:35,-119.8764,39.6682,1539.00,M,M,M,M,M,0.00,M,M,M,M,M,M,M,M,M,M,M,M,M,M,M,M,M,M,M,M,KRTS 231235Z AUTO RMK AO2 PNO PWINO,M
DRA,2022-02-23 12:38,-116.0278,36.6206,1009.00,30.00,28.00,92.15,230.00,6.00,0.01,29.74,M,1.25,M,FEW,OVC,M,M,400.00,1800.00,M,M,-SN BR,M,M,M,M,M,M,23.12,KDRA 231238Z AUTO 23006KT 1 1/4SM -SN BR FEW004 OVC018 M01/M02 A2974 RMK AO2 SNB05 P0001 T10111022,M
INS,2022-02-23 12:38,-115.6733,36.5872,955.00,30.20,30.20,100.00,250.00,12.00,0.00,29.73,1006.10,1.50,M,SCT,SCT,OVC,M,300.00,1000.00,1600.00,M,-SN,M,M,M,M,M,M,19.71,KINS 231238Z AUTO 25012KT 1 1/2SM -SN SCT003 SCT010 OVC016 M01/M01 A2973 RMK AO2 CIG 010V016 SLP061 $,M
RNO,2022-02-23 12:40,-119.7711,39.4839,1341.00,21.90,14.00,71.18,340.00,6.00,T,29.91,M,9.00,M,BKN,OVC,M,M,2700.00,3500.00,M,M,M,M,M,M,M,M,M,13.37,KRNO 231240Z 34006KT 9SM BKN027 OVC035 M06/M10 A2991 RMK AO2 SNE09B24E40 P0000 T10561100 $,M
ELY,2022-02-23 12:44,-114.8453,39.2950,1909.00,18.00,16.00,91.72,10.00,9.00,T,29.64,M,2.00,M,OVC,M,M,M,3000.00,M,M,M,-SN BR,M,M,M,M,M,M,6.11,KELY 231244Z AUTO 01009KT 2SM -SN BR OVC030 M08/M09 A2964 RMK AO2 P0000 T10781089,M
INS,2022-02-23 12:48,-115.6733,36.5872,955.00,30.20,30.20,100.00,250.00,10.00,0.00,29.73,1006.30,1.50,M,SCT,OVC,M,M,300.00,1600.00,M,M,-SN,M,M,M,M,M,M,20.71,KINS 231248Z AUTO 25010KT 1 1/2SM -SN SCT003 OVC016 M01/M01 A2973 RMK AO2 SLP063 $,M
DRA,2022-02-23 12:48,-116.0278,36.6206,1009.00,30.00,28.90,95.61,230.00,6.00,0.01,29.74,M,1.25,M,FEW,OVC,M,M,400.00,1400.00,M,M,-SN BR,M,M,M,M,M,M,23.12,KDRA 231248Z AUTO 23006KT 1 1/4SM -SN BR FEW004 OVC014 M01/M02 A2974 RMK AO2 SNB05 P0001 T10111017,M
ELY,2022-02-23 12:53,-114.8453,39.2950,1909.00,18.00,16.00,91.72,360.00,9.00,T,29.64,1007.00,2.50,M,OVC,M,M,M,3000.00,M,M,M,-SN BR,M,M,M,M,M,M,6.11,KELY 231253Z AUTO 36009KT 2 1/2SM -SN BR OVC030 M08/M09 A2964 RMK AO2 SLP070 P0000 T10781089,M
P68,2022-02-23 12:53,-116.0056,39.6014,1993.00,16.00,10.90,79.92,340.00,5.00,0.00,29.73,1009.60,M,M,M,M,M,M,M,M,M,M,M,M,M,M,M,M,M,7.39,KP68 231253Z AUTO 34005KT M09/M12 A2973 RMK AO1 SLP096 T10891117,M
LOL,2022-02-23 12:53,-118.5701,40.0684,1192.43,19.00,12.00,73.73,10.00,3.00,0.00,29.93,1016.10,10.00,M,BKN,M,M,M,5500.00,M,M,M,M,M,M,M,M,M,M,13.83,KLOL 231253Z AUTO 01003KT 10SM BKN055 M07/M11 A2993 RMK AO2 SLP161 T10721111,M
VGT,2022-02-23 12:53,-115.1933,36.2111,667.00,36.00,25.00,63.98,M,M,0.00,29.74,1009.00,10.00,M,SCT,M,M,M,4200.00,M,M,M,M,M,M,M,M,M,M,M,KVGT 231253Z AUTO 10SM SCT042 02/M04 A2974 RMK AO2 SLP090 T00221039,M
INS,2022-02-23 12:53,-115.6733,36.5872,955.00,30.20,30.20,100.00,260.00,11.00,0.00,29.74,1006.70,1.62,M,BKN,OVC,M,M,300.00,2000.00,M,M,-SN,M,M,M,M,M,M,20.19,KINS 231253Z AUTO 26011KT 1 5/8SM -SN BKN003 OVC020 M01/M01 A2974 RMK AO2 CIG 003V018 BKN V SCT SLP067 $,M
DRA,2022-02-23 12:53,-116.0278,36.6206,1009.00,30.00,28.90,95.61,230.00,7.00,0.02,29.74,1006.80,1.25,M,FEW,OVC,M,M,400.00,1200.00,M,M,-SN BR,M,M,M,M,M,M,22.34,KDRA 231253Z AUTO 23007KT 1 1/4SM -SN BR FEW004 OVC012 M01/M02 A2974 RMK AO2 SNB05 SLP068 P0002 T10111017,M
BVU,2022-02-23 12:55,-114.8611,35.9475,671.00,37.40,19.40,47.80,220.00,13.00,0.00,29.76,M,10.00,M,CLR,M,M,M,M,M,M,M,M,M,M,M,M,M,M,28.49,KBVU 231255Z AUTO 22013KT 10SM CLR 03/M07 A2976 RMK AO2,M
TMT,2022-02-23 12:55,-117.1971,39.4643,1749.34,14.90,12.00,88.03,0.00,0.00,0.00,29.80,M,10.00,M,SCT,OVC,M,M,1200.00,2800.00,M,M,-SN,M,M,M,M,M,M,14.90,KTMT 231255Z AUTO 00000KT 10SM -SN SCT012 OVC028 M09/M11 A2980 RMK AO2 T10951111,M
HTH,2022-02-23 12:55,-118.6315,38.5448,1282.89,23.00,17.60,79.47,340.00,17.00,0.00,29.87,M,10.00,M,OVC,M,M,M,5000.00,M,M,M,M,M,M,M,M,M,M,8.28,KHTH 231255Z AUTO 34017KT 10SM OVC050 M05/M08 A2987 RMK A01,M
BAM,2022-02-23 12:55,-116.8743,40.5990,1382.36,17.60,12.20,79.00,320.00,8.00,0.00,29.88,M,10.00,M,OVC,M,M,M,3500.00,M,M,M,M,M,M,M,M,M,M,6.37,KBAM 231255Z AUTO 32008KT 10SM OVC035 M08/M11 A2988 RMK AO1,M
MEV,2022-02-23 12:55,-119.7500,38.9963,1441.42,17.60,15.80,92.50,0.00,0.00,0.00,29.88,M,10.00,M,OVC,M,M,M,2900.00,M,M,M,M,M,M,M,M,M,M,17.60,KMEV 231255Z AUTO 00000KT 10SM OVC029 M08/M09 A2988 RMK AO2,M
05U,2022-02-23 12:55,-116.0051,39.6042,1811.23,15.80,12.20,85.40,350.00,4.00,0.00,29.76,M,9.00,M,OVC,M,M,M,1800.00,M,M,M,M,M,M,M,M,M,M,8.50,K05U 231255Z AUTO 35004KT 9SM OVC018 M09/M11 A2976 RMK A01,M
RTS,2022-02-23 12:55,-119.8764,39.6682,1539.00,M,M,M,M,M,0.00,M,M,M,M,M,M,M,M,M,M,M,M,M,M,M,M,M,M,M,M,KRTS 231255Z AUTO RMK AO2 PNO PWINO,M
RNO,2022-02-23 12:55,-119.7711,39.4839,1341.00,21.90,14.00,71.18,350.00,5.00,T,29.91,1015.00,10.00,M,BKN,OVC,M,M,2700.00,3500.00,M,M,M,M,M,M,M,M,M,14.40,KRNO 231255Z 35005KT 10SM BKN027 OVC035 M06/M10 A2991 RMK AO2 SNE09B24E40 SLP150 P0000 T10561100 $,M
EKO,2022-02-23 12:56,-115.7860,40.8242,1367.00,17.10,6.00,61.39,330.00,5.00,0.00,29.79,1012.30,10.00,M,OVC,M,M,M,3100.00,M,M,M,M,M,M,M,M,M,M,8.70,KEKO 231256Z AUTO 33005KT 10SM OVC031 M08/M14 A2979 RMK AO2 SLP123 T10831144,M
WMC,2022-02-23 12:56,-117.8072,40.9019,1315.00,12.90,9.00,84.07,310.00,7.00,0.00,29.91,1016.10,10.00,M,FEW,M,M,M,3600.00,M,M,M,M,M,M,M,M,M,M,1.50,KWMC 231256Z AUTO 31007KT 10SM FEW036 M11/M13 A2991 RMK AO2 SLP161 T11061128 TSNO,M
NFL,2022-02-23 12:56,-118.7010,39.4166,1199.00,21.90,12.90,67.82,360.00,13.00,0.00,29.91,1010.20,10.00,M,OVC,M,M,M,7500.00,M,M,M,M,M,M,M,M,M,M,8.63,KNFL 231256Z AUTO 36013KT 10SM OVC075 M06/M11 A2991 RMK AO2 SLP102 T10561106,M
HND,2022-02-23 12:56,-115.1344,35.9729,742.79,36.00,21.90,56.18,210.00,13.00,0.00,29.76,1010.00,10.00,M,FEW,M,M,M,6000.00,M,M,M,M,M,M,M,M,M,M,26.69,KHND 231256Z AUTO 21013KT 10SM FEW060 02/M06 A2976 RMK AO2 SLP100 T00221056 FZRANO,M
TPH,2022-02-23 12:56,-117.0904,38.0505,1654.00,17.10,8.10,67.22,320.00,13.00,0.00,29.73,1009.20,10.00,M,BKN,M,M,M,11000.00,M,M,M,M,M,M,M,M,M,M,2.48,KTPH 231256Z AUTO 32013KT 10SM BKN110 M08/M13 A2973 RMK AO2 SLP092 T10831133,M
LAS,2022-02-23 12:56,-115.1634,36.0719,663.00,39.00,21.90,49.93,210.00,6.00,0.00,29.75,1007.20,10.00,M,SCT,SCT,M,M,6000.00,16000.00,M,M,M,M,M,M,M,M,M,33.96,KLAS 231256Z 21006KT 10SM SCT060 SCT160 04/M06 A2975 RMK AO2 SLP072 T00391056,M
LSV,2022-02-23 12:58,-115.0343,36.2362,570.00,38.80,22.60,51.83,210.00,11.00,0.00,29.74,1006.90,10.00,M,CLR,M,M,M,M,M,M,M,M,M,M,M,M,M,M,31.06,KLSV 231258Z AUTO 21011KT 10SM CLR 04/M05 A2974 RMK AO2 SLP069 T00381052 $,M
INS,2022-02-23 12:58,-115.6733,36.5872,955.00,30.90,29.70,95.24,260.00,12.00,T,29.74,1006.70,2.75,M,SCT,BKN,OVC,M,300.00,1000.00,1800.00,M,-SN,M,M,M,M,M,M,20.60,KINS 231258Z AUTO 26012KT 2 3/4SM -SN SCT003 BKN010 OVC018 M01/M01 A2974 RMK AO2 VIS 1 1/2V2 3/4 CIG 003V018 SLP067 P0000 T10061013 $,M
DRA,2022-02-23 13:01,-116.0278,36.6206,1009.00,28.90,28.00,96.38,220.00,7.00,T,29.75,M,1.50,M,FEW,SCT,OVC,M,300.00,700.00,1600.00,M,-SN BR,M,M,M,M,M,M,21.00,KDRA 231301Z AUTO 22007KT 1 1/2SM -SN BR FEW003 SCT007 OVC016 M02/M02 A2975 RMK AO2 P0000 T10171022,M
INS,2022-02-23 13:03,-115.6733,36.5872,955.00,30.20,28.40,92.92,260.00,13.00,0.00,29.74,1006.70,3.00,M,BKN,BKN,OVC,M,300.00,1000.00,1800.00,M,-SN,M,M,M,M,M,M,19.26,KINS 231303Z AUTO 26013KT 3SM -SN BKN003 BKN010 OVC018 M01/M02 A2974 RMK AO2 VIS 1 3/4 RWY08 CIG 003V010 BKN003 V SCT SLP067 $,M
ELY,2022-02-23 13:06,-114.8453,39.2950,1909.00,18.00,16.00,91.72,330.00,7.00,0.01,29.65,M,2.00,M,FEW,OVC,M,M,700.00,2800.00,M,M,-SN BR,M,M,M,M,M,M,7.71,KELY 231306Z AUTO 33007KT 2SM -SN BR FEW007 OVC028 M08/M09 A2965 RMK AO2 P0001 T10781089,M
INS,2022-02-23 13:08,-115.6733,36.5872,955.00,30.20,28.40,92.92,260.00,13.00,0.00,29.74,1006.70,2.00,M,BKN,OVC,M,M,300.00,1900.00,M,M,-SN,M,M,M,M,M,M,19.26,KINS 231308Z AUTO 26013KT 2SM -SN BKN003 OVC019 M01/M02 A2974 RMK AO2 VIS 2V3 VIS 1 3/8 RWY08 SLP067 $,M
05U,2022-02-23 13:10,-116.0051,39.6042,1811.23,15.80,12.20,85.40,340.00,5.00,0.00,29.76,M,10.00,M,BKN,OVC,M,M,1500.00,2000.00,M,M,M,M,M,M,M,M,M,7.16,K05U 231310Z AUTO 34005KT 10SM BKN015 OVC020 M09/M11 A2976 RMK A01,M
INS,2022-02-23 13:13,-115.6733,36.5872,955.00,30.20,30.20,100.00,260.00,16.00,0.00,29.74,1006.70,1.38,M,SCT,OVC,M,M,300.00,1900.00,M,M,-SN,M,M,M,M,M,M,18.07,KINS 231313Z AUTO 26016KT 1 3/8SM -SN SCT003 OVC019 M01/M01 A2974 RMK AO2 VIS 1 3/8V3 CIG 003V019 SLP067 $,M
HTH,2022-02-23 13:15,-118.6315,38.5448,1282.89,23.00,17.60,79.47,340.00,16.00,0.00,29.88,M,10.00,M,BKN,OVC,M,M,5500.00,7000.00,M,M,M,M,M,M,M,M,M,8.69,KHTH 231315Z AUTO 34016KT 10SM BKN055 OVC070 M05/M08 A2988 RMK A01,M
BAM,2022-02-23 13:15,-116.8743,40.5990,1382.36,17.60,12.20,79.00,330.00,8.00,0.00,29.88,M,10.00,M,OVC,M,M,M,3500.00,M,M,M,M,M,M,M,M,M,M,6.37,KBAM 231315Z AUTO 33008KT 10SM OVC035 M08/M11 A2988 RMK AO1,M
TMT,2022-02-23 13:15,-117.1971,39.4643,1749.34,14.90,12.00,88.03,240.00,3.00,0.00,29.81,M,10.00,M,BKN,OVC,M,M,1200.00,2800.00,M,M,M,M,M,M,M,M,M,9.14,KTMT 231315Z AUTO 24003KT 10SM BKN012 OVC028 M09/M11 A2981 RMK AO2 T10951111,M
MEV,2022-02-23 13:15,-119.7500,38.9963,1441.42,17.60,15.80,92.50,0.00,0.00,0.00,29.88,M,10.00,M,FEW,OVC,M,M,800.00,3100.00,M,M,M,M,M,M,M,M,M,17.60,KMEV 231315Z AUTO 00000KT 10SM FEW008 OVC031 M08/M09 A2988 RMK AO2,M
RTS,2022-02-23 13:15,-119.8764,39.6682,1539.00,M,M,M,M,M,0.00,M,M,M,M,M,M,M,M,M,M,M,M,M,M,M,M,M,M,M,M,KRTS 231315Z AUTO RMK AO2 PNO PWINO,M
BVU,2022-02-23 13:15,-114.8611,35.9475,671.00,37.40,19.40,47.80,230.00,13.00,0.00,29.76,M,10.00,18.00,CLR,M,M,M,M,M,M,M,M,M,M,M,M,M,M,28.49,KBVU 231315Z AUTO 23013G18KT 10SM CLR 03/M07 A2976 RMK AO2,M
INS,2022-02-23 13:18,-115.6733,36.5872,955.00,30.20,30.20,100.00,260.00,14.00,0.00,29.74,1006.70,1.25,M,BKN,BKN,OVC,M,300.00,1400.00,1900.00,M,-SN,M,M,M,M,M,M,18.84,KINS 231318Z AUTO 26014KT 1 1/4SM -SN BKN003 BKN014 OVC019 M01/M01 A2974 RMK AO2 VIS 1 1/4V1 3/4 CIG 003V019 BKN003 V SCT SLP067 $,M
DRA,2022-02-23 13:21,-116.0278,36.6206,1009.00,28.90,28.00,96.38,210.00,8.00,0.01,29.75,M,2.00,M,FEW,OVC,M,M,300.00,2200.00,M,M,-SN BR,M,M,M,M,M,M,20.29,KDRA 231321Z AUTO 21008KT 2SM -SN BR FEW003 OVC022 M02/M02 A2975 RMK AO2 P0001 T10171022,M
INS,2022-02-23 13:28,-115.6733,36.5872,955.00,30.20,30.20,100.00,260.00,14.00,0.00,29.74,M,1.75,M,SCT,OVC,M,M,300.00,2300.00,M,M,-SN,M,M,M,M,M,M,18.84,KINS 231328Z AUTO 26014KT 1 3/4SM -SN SCT003 OVC023 M01/M01 A2974 RMK AO2 VIS 1 1/4V1 3/4 CIG 003V023 SLPNO $,M
DRA,2022-02-23 13:29,-116.0278,36.6206,1009.00,28.90,28.00,96.38,220.00,5.00,0.01,29.75,M,3.00,M,SCT,OVC,M,M,300.00,2600.00,M,M,-SN BR,M,M,M,M,M,M,22.71,KDRA 231329Z AUTO 22005KT 3SM -SN BR SCT003 OVC026 M02/M02 A2975 RMK AO2 P0001 T10171022,M
05U,2022-02-23 13:30,-116.0051,39.6042,1811.23,15.80,12.20,85.40,350.00,5.00,0.00,29.76,M,7.00,M,OVC,M,M,M,1500.00,M,M,M,M,M,M,M,M,M,M,7.16,K05U 231330Z AUTO 35005KT 7SM OVC015 M09/M11 A2976 RMK A01,M
RNO,2022-02-23 13:33,-119.7711,39.4839,1341.00,21.90,14.00,71.18,0.00,0.00,T,29.93,M,9.00,M,BKN,OVC,M,M,2500.00,3300.00,M,M,-SN,M,M,M,M,M,M,21.90,KRNO 231333Z 00000KT 9SM -SN BKN025 OVC033 M06/M10 A2993 RMK AO2 SNB29 P0000 T10561100 $,M
INS,2022-02-23 13:33,-115.6733,36.5872,955.00,30.20,30.20,100.00,260.00,14.00,0.00,29.75,M,2.25,M,FEW,OVC,M,M,300.00,2500.00,M,M,-SN,M,M,M,M,M,M,18.84,KINS 231333Z AUTO 26014KT 2 1/4SM -SN FEW003 OVC025 M01/M01 A2975 RMK AO2 VIS 1 3/8V2 1/4 CIG 003V025 SLPNO $,M
TMT,2022-02-23 13:35,-117.1971,39.4643,1749.34,15.40,12.00,86.13,0.00,0.00,0.00,29.81,M,10.00,M,OVC,M,M,M,1200.00,M,M,M,-SN,M,M,M,M,M,M,15.40,KTMT 231335Z AUTO 00000KT 10SM -SN OVC012 M09/M11 A2981 RMK AO2 T10921111,M
BVU,2022-02-23 13:35,-114.8611,35.9475,671.00,37.40,19.40,47.80,220.00,11.00,0.00,29.76,M,10.00,17.00,CLR,M,M,M,M,M,M,M,M,M,M,M,M,M,M,29.29,KBVU 231335Z AUTO 22011G17KT 10SM CLR 03/M07 A2976 RMK AO2,M
RTS,2022-02-23 13:35,-119.8764,39.6682,1539.00,M,M,M,M,M,0.00,M,M,M,M,M,M,M,M,M,M,M,M,M,M,M,M,M,M,M,M,KRTS 231335Z AUTO RMK AO2 PNO PWINO,M
MEV,2022-02-23 13:35,-119.7500,38.9963,1441.42,19.40,17.60,92.57,360.00,6.00,0.00,29.89,M,9.00,M,OVC,M,M,M,3200.00,M,M,M,-SN,M,M,M,M,M,M,10.36,KMEV 231335Z AUTO 36006KT 9SM -SN OVC032 M07/M08 A2989 RMK AO2,M
BAM,2022-02-23 13:35,-116.8743,40.5990,1382.36,17.60,12.20,79.00,330.00,8.00,0.00,29.89,M,10.00,M,OVC,M,M,M,3700.00,M,M,M,M,M,M,M,M,M,M,6.37,KBAM 231335Z AUTO 33008KT 10SM OVC037 M08/M11 A2989 RMK AO1,M
HTH,2022-02-23 13:35,-118.6315,38.5448,1282.89,23.00,15.80,73.51,350.00,15.00,0.00,29.89,M,10.00,21.00,SCT,BKN,OVC,M,4400.00,6000.00,7000.00,M,M,M,M,M,M,M,M,9.11,KHTH 231335Z AUTO 35015G21KT 10SM SCT044 BKN060 OVC070 M05/M09 A2989 RMK A01,M
DRA,2022-02-23 13:37,-116.0278,36.6206,1009.00,28.90,28.00,96.38,210.00,5.00,0.01,29.75,M,5.00,M,SCT,OVC,M,M,400.00,3500.00,M,M,-SN BR,M,M,M,M,M,M,22.71,KDRA 231337Z AUTO 21005KT 5SM -SN BR SCT004 OVC035 M02/M02 A2975 RMK AO2 P0001 T10171022,M
INS,2022-02-23 13:38,-115.6733,36.5872,955.00,30.20,30.20,100.00,260.00,14.00,0.00,29.75,M,2.75,M,FEW,M,M,M,300.00,M,M,M,-SN,M,M,M,M,M,M,18.84,KINS 231338Z AUTO 26014KT 2 3/4SM -SN FEW003 M01/M01 A2975 RMK AO2 VIS 1 7/8V2 3/4 SLPNO $,M
INS,2022-02-23 13:43,-115.6733,36.5872,955.00,30.20,30.20,100.00,260.00,14.00,0.00,29.75,M,3.00,M,FEW,M,M,M,300.00,M,M,M,-SN,M,M,M,M,M,M,18.84,KINS 231343Z AUTO 26014KT 3SM -SN FEW003 M01/M01 A2975 RMK AO2 SLPNO $,M
ELY,2022-02-23 13:45,-114.8453,39.2950,1909.00,17.60,15.80,92.50,340.00,8.00,0.00,29.64,M,2.50,M,FEW,BKN,OVC,M,600.00,1400.00,2200.00,M,-SN BR,M,M,M,M,M,M,6.37,KELY 231345Z AUTO 34008KT 2 1/2SM -SN BR FEW006 BKN014 OVC022 M08/M09 A2964,M
RNO,2022-02-23 13:48,-119.7711,39.4839,1341.00,21.90,14.00,71.18,350.00,4.00,T,29.93,M,9.00,M,BKN,OVC,M,M,2500.00,3300.00,M,M,M,M,M,M,M,M,M,15.63,KRNO 231348Z 35004KT 9SM BKN025 OVC033 M06/M10 A2993 RMK AO2 SNB29E43 P0000 T10561100 $,M
INS,2022-02-23 13:48,-115.6733,36.5872,955.00,30.20,28.40,92.92,260.00,15.00,0.00,29.75,M,4.00,M,OVC,M,M,M,3700.00,M,M,M,-SN,M,M,M,M,M,M,18.45,KINS 231348Z AUTO 26015KT 4SM -SN OVC037 M01/M02 A2975 RMK AO2 SLPNO $,M
WMC,2022-02-23 13:52,-117.8072,40.9019,1315.00,14.00,8.60,78.68,340.00,8.00,0.00,29.93,M,8.00,M,BKN,BKN,OVC,M,2900.00,4100.00,6000.00,M,M,M,M,M,M,M,M,1.94,KWMC 231352Z AUTO 34008KT 8SM BKN029 BKN041 OVC060 M10/M13 A2993 RMK AO2 TSNO,M
RNO,2022-02-23 13:52,-119.7711,39.4839,1341.00,21.20,14.00,73.32,10.00,5.00,T,29.93,M,10.00,M,FEW,BKN,OVC,M,2500.00,3300.00,5000.00,M,-SN,M,M,M,M,M,M,13.57,KRNO 231352Z 01005KT 10SM -SN FEW025 BKN033 OVC050 M06/M10 A2993 RMK AO2 SNB29E43B50 P0000 $,M
ELY,2022-02-23 13:53,-114.8453,39.2950,1909.00,18.00,16.00,91.72,350.00,9.00,0.01,29.65,1007.50,2.50,M,BKN,OVC,M,M,1300.00,3400.00,M,M,-SN BR,M,M,M,M,M,M,6.11,KELY 231353Z AUTO 35009KT 2 1/2SM -SN BR BKN013 OVC034 M08/M09 A2965 RMK AO2 SLP075 P0001 T10781089,M
INS,2022-02-23 13:53,-115.6733,36.5872,955.00,30.20,28.40,92.92,260.00,14.00,0.00,29.75,M,5.00,M,OVC,M,M,M,3700.00,M,M,M,-SN,M,M,M,M,M,M,18.84,KINS 231353Z AUTO 26014KT 5SM -SN OVC037 M01/M02 A2975 RMK AO2 SLPNO $,M
DRA,2022-02-23 13:53,-116.0278,36.6206,1009.00,28.90,28.00,96.38,220.00,4.00,0.01,29.75,1007.10,10.00,M,FEW,BKN,OVC,M,500.00,6500.00,8500.00,M,M,M,M,M,M,M,M,23.80,KDRA 231353Z AUTO 22004KT 10SM FEW005 BKN065 OVC085 M02/M02 A2975 RMK AO2 SNE44 SLP071 P0001 T10171022,M
VGT,2022-02-23 13:53,-115.1933,36.2111,667.00,39.00,27.00,61.78,M,M,0.00,29.74,1009.20,10.00,M,BKN,BKN,M,M,5500.00,9000.00,M,M,M,M,M,M,M,M,M,M,KVGT 231353Z 10SM BKN055 BKN090 04/M03 A2974 RMK AO2 SLP092 T00391028,M
P68,2022-02-23 13:53,-116.0056,39.6014,1993.00,16.00,12.00,83.91,340.00,4.00,0.00,29.75,1010.40,M,M,M,M,M,M,M,M,M,M,M,M,M,M,M,M,M,8.74,KP68 231353Z AUTO 34004KT M09/M11 A2975 RMK AO1 SLP104 T10891111,M
LOL,2022-02-23 13:53,-118.5701,40.0684,1192.43,19.00,12.00,73.73,60.00,6.00,0.00,29.94,1017.10,10.00,M,SCT,OVC,M,M,5000.00,8000.00,M,M,M,M,M,M,M,M,M,9.87,KLOL 231353Z AUTO 06006KT 10SM SCT050 OVC080 M07/M11 A2994 RMK AO2 SLP171 T10721111,M
RNO,2022-02-23 13:55,-119.7711,39.4839,1341.00,21.90,14.00,71.18,20.00,4.00,T,29.93,1015.70,9.00,M,FEW,BKN,OVC,M,2500.00,3300.00,5000.00,M,M,M,M,M,M,M,M,15.63,KRNO 231355Z 02004KT 9SM FEW025 BKN033 OVC050 M06/M10 A2993 RMK AO2 SNB29E43B50E55 SLP157 P0000 T10561100 $,M
BVU,2022-02-23 13:55,-114.8611,35.9475,671.00,37.40,19.40,47.80,190.00,9.00,0.00,29.77,M,10.00,15.00,CLR,M,M,M,M,M,M,M,M,M,M,M,M,M,M,30.23,KBVU 231355Z AUTO 19009G15KT 10SM CLR 03/M07 A2977 RMK AO2,M
RTS,2022-02-23 13:55,-119.8764,39.6682,1539.00,M,M,M,M,M,0.00,M,M,M,M,M,M,M,M,M,M,M,M,M,M,M,M,M,M,M,M,KRTS 231355Z AUTO RMK AO2 PNO PWINO,M
HTH,2022-02-23 13:55,-118.6315,38.5448,1282.89,21.20,15.80,79.31,350.00,19.00,0.00,29.90,M,M,M,M,M,M,M,M,M,M,M,M,M,M,M,M,M,M,5.15,KHTH 231355Z AUTO 35019KT M06/M09 A2990 RMK A01,M
BAM,2022-02-23 13:55,-116.8743,40.5990,1382.36,19.40,12.20,73.13,330.00,6.00,0.00,29.89,M,10.00,M,OVC,M,M,M,3700.00,M,M,M,M,M,M,M,M,M,M,10.36,KBAM 231355Z AUTO 33006KT 10SM OVC037 M07/M11 A2989 RMK AO1,M
TMT,2022-02-23 13:55,-117.1971,39.4643,1749.34,15.40,12.00,86.13,50.00,4.00,0.00,29.82,M,5.00,M,OVC,M,M,M,1200.00,M,M,M,-SN,M,M,M,M,M,M,8.04,KTMT 231355Z AUTO 05004KT 5SM -SN OVC012 M09/M11 A2982 RMK AO2 T10921111,M
MEV,2022-02-23 13:55,-119.7500,38.9963,1441.42,19.40,17.60,92.57,10.00,11.00,0.00,29.89,M,1.50,17.00,SCT,BKN,OVC,M,400.00,2300.00,3300.00,M,-SN BR,M,M,M,M,M,M,6.54,KMEV 231355Z AUTO 01011G17KT 1 1/2SM -SN BR SCT004 BKN023 OVC033 M07/M08 A2989 RMK AO2 VIS 1/2V4,M
05U,2022-02-23 13:55,-116.0051,39.6042,1811.23,15.80,12.20,85.40,350.00,4.00,0.00,29.77,M,7.00,M,BKN,OVC,M,M,1200.00,2200.00,M,M,M,M,M,M,M,M,M,8.50,K05U 231355Z AUTO 35004KT 7SM BKN012 OVC022 M09/M11 A2977 RMK A01,M
TPH,2022-02-23 13:56,-117.0904,38.0505,1654.00,17.10,9.00,69.99,310.00,12.00,0.00,29.74,1009.80,10.00,M,BKN,M,M,M,11000.00,M,M,M,M,M,M,M,M,M,M,3.04,KTPH 231356Z AUTO 31012KT 10SM BKN110 M08/M13 A2974 RMK AO2 SLP098 T10831128,M
LAS,2022-02-23 13:56,-115.1634,36.0719,663.00,39.00,21.90,49.93,220.00,10.00,0.00,29.75,1007.60,10.00,18.00,FEW,SCT,M,M,6500.00,16000.00,M,M,M,M,M,M,M,M,M,31.75,KLAS 231356Z 22010G18KT 10SM FEW065 SCT160 04/M06 A2975 RMK AO2 SLP076 T00391056,M
HND,2022-02-23 13:56,-115.1344,35.9729,742.79,37.00,21.00,51.99,210.00,17.00,0.00,29.76,1010.10,10.00,M,BKN,BKN,M,M,6000.00,8500.00,M,M,M,M,M,M,M,M,M,26.63,KHND 231356Z 21017KT 10SM BKN060 BKN085 03/M06 A2976 RMK AO2 SLP101 T00281061,M
NFL,2022-02-23 13:56,-118.7010,39.4166,1199.00,21.00,12.90,70.45,350.00,9.00,0.00,29.93,1010.90,10.00,M,OVC,M,M,M,7500.00,M,M,M,M,M,M,M,M,M,M,9.84,KNFL 231356Z AUTO 35009KT 10SM OVC075 M06/M11 A2993 RMK AO2 SLP109 T10611106,M
WMC,2022-02-23 13:56,-117.8072,40.9019,1315.00,14.00,9.00,80.10,340.00,7.00,0.00,29.93,1017.00,9.00,M,BKN,BKN,OVC,M,2900.00,4100.00,5500.00,M,M,M,M,M,M,M,M,2.84,KWMC 231356Z AUTO 34007KT 9SM BKN029 BKN041 OVC055 M10/M13 A2993 RMK AO2 SLP170 T11001128 TSNO,M
EKO,2022-02-23 13:56,-115.7860,40.8242,1367.00,17.10,5.00,58.38,20.00,6.00,T,29.80,1013.30,7.00,M,BKN,OVC,M,M,3200.00,4400.00,M,M,-SN,M,M,M,M,M,M,7.59,KEKO 231356Z AUTO 02006KT 7SM -SN BKN032 OVC044 M08/M15 A2980 RMK AO2 SNB55 SLP133 P0000 T10831150,M
RNO,2022-02-23 13:57,-119.7711,39.4839,1341.00,21.90,14.00,71.18,10.00,4.00,0.00,29.93,M,9.00,M,FEW,BKN,OVC,M,2500.00,3300.00,5000.00,M,M,M,M,M,M,M,M,15.63,KRNO 231357Z 01004KT 9SM FEW025 BKN033 OVC050 M06/M10 A2993 RMK AO2 T10561100 $,M
LSV,2022-02-23 13:58,-115.0343,36.2362,570.00,37.60,22.50,54.10,200.00,5.00,0.00,29.76,M,10.00,M,FEW,SCT,M,M,4100.00,5000.00,M,M,M,M,M,M,M,M,M,33.05,KLSV 231358Z AUTO 20005KT 10SM FEW041 SCT050 03/M05 A2976 RMK AO2 SLPNO T00311053 $,M
INS,2022-02-23 13:58,-115.6733,36.5872,955.00,30.90,28.60,91.06,260.00,13.00,T,29.75,M,6.00,M,OVC,M,M,M,4200.00,M,M,M,-SN,M,M,M,M,M,M,20.16,KINS 231358Z AUTO 26013KT 6SM -SN OVC042 M01/M02 A2975 RMK AO2 SLPNO P0000 T10061019 $,M
ELY,2022-02-23 14:00,-114.8453,39.2950,1909.00,18.00,16.00,91.72,360.00,10.00,T,29.65,M,3.00,M,SCT,OVC,M,M,1300.00,3600.00,M,M,-SN BR,M,M,M,M,M,M,5.41,KELY 231400Z AUTO 36010KT 3SM -SN BR SCT013 OVC036 M08/M09 A2965 RMK AO2 P0000 T10781089,M
LSV,2022-02-23 14:04,-115.0343,36.2362,570.00,37.40,23.00,55.68,230.00,8.00,0.00,29.76,M,10.00,M,BKN,BKN,M,M,4200.00,5000.00,M,M,M,M,M,M,M,M,M,30.76,KLSV 231404Z AUTO 23008KT 10SM BKN042 BKN050 03/M05 A2976 RMK AO2 SLPNO $,M
INS,2022-02-23 14:05,-115.6733,36.5872,955.00,30.20,28.40,92.92,260.00,14.00,0.00,29.75,M,9.00,M,OVC,M,M,M,4700.00,M,M,M,-UP,M,M,M,M,M,M,18.84,KINS 231405Z AUTO 26014KT 9SM -UP OVC047 M01/M02 A2975 RMK AO2 SNE05UPB05 SLPNO $,M
LSV,2022-02-23 14:05,-115.0343,36.2362,570.00,37.40,23.00,55.68,240.00,9.00,0.00,29.76,M,10.00,M,SCT,BKN,M,M,4100.00,5000.00,M,M,M,M,M,M,M,M,M,30.23,KLSV 231405Z AUTO 24009KT 10SM SCT041 BKN050 03/M05 A2976 RMK AO2 SLPNO $,M
LSV,2022-02-23 14:09,-115.0343,36.2362,570.00,39.20,26.60,60.29,260.00,7.00,0.00,29.76,M,10.00,M,BKN,BKN,M,M,4400.00,5000.00,M,M,M,M,M,M,M,M,M,33.56,KLSV 231409Z AUTO 26007KT 10SM BKN044 BKN050 04/M03 A2976 RMK AO2 SLPNO $,M
INS,2022-02-23 14:10,-115.6733,36.5872,955.00,30.20,28.40,92.92,260.00,12.00,0.00,29.75,M,10.00,M,FEW,SCT,M,M,3400.00,4600.00,M,M,-UP,M,M,M,M,M,M,19.71,KINS 231410Z AUTO 26012KT 10SM -UP FEW034 SCT046 M01/M02 A2975 RMK AO2 SNE05UPB05 SLPNO $,M
05U,2022-02-23 14:10,-116.0051,39.6042,1811.23,15.80,12.20,85.40,360.00,3.00,0.00,29.77,M,9.00,M,BKN,OVC,M,M,1400.00,2000.00,M,M,M,M,M,M,M,M,M,10.17,K05U 231410Z AUTO 36003KT 9SM BKN014 OVC020 M09/M11 A2977 RMK A01,M
MEV,2022-02-23 14:15,-119.7500,38.9963,1441.42,19.40,17.60,92.57,10.00,10.00,0.00,29.90,M,2.00,M,FEW,SCT,BKN,M,400.00,900.00,1300.00,M,-SN BR,M,M,M,M,M,M,7.17,KMEV 231415Z AUTO 01010KT 2SM -SN BR FEW004 SCT009 BKN013 M07/M08 A2990 RMK AO2 VIS 1 1/2V3,M
TMT,2022-02-23 14:15,-117.1971,39.4643,1749.34,14.90,11.70,86.87,20.00,4.00,0.00,29.82,M,2.00,M,SCT,BKN,OVC,M,300.00,1200.00,1900.00,M,-SN,M,M,M,M,M,M,7.45,KTMT 231415Z AUTO 02004KT 2SM -SN SCT003 BKN012 OVC019 M09/M11 A2982 RMK AO2 T10951113,M
HTH,2022-02-23 14:15,-118.6315,38.5448,1282.89,21.20,14.00,73.32,350.00,18.00,0.00,29.91,M,10.00,M,M,M,M,M,M,M,M,M,M,M,M,M,M,M,M,5.53,KHTH 231415Z AUTO 35018KT 10SM M06/M10 A2991 RMK A01,M
WMC,2022-02-23 14:15,-117.8072,40.9019,1315.00,12.90,8.10,80.74,350.00,8.00,0.00,29.94,M,9.00,M,SCT,OVC,M,M,2300.00,6000.00,M,M,M,M,M,M,M,M,M,0.59,KWMC 231415Z AUTO 35008KT 9SM SCT023 OVC060 M11/M13 A2994 RMK AO2 T11061133 TSNO,M
BAM,2022-02-23 14:15,-116.8743,40.5990,1382.36,19.40,12.20,73.13,320.00,5.00,0.00,29.91,M,10.00,M,BKN,OVC,M,M,3500.00,4000.00,M,M,M,M,M,M,M,M,M,11.43,KBAM 231415Z AUTO 32005KT 10SM BKN035 OVC040 M07/M11 A2991 RMK AO1,M
RTS,2022-02-23 14:15,-119.8764,39.6682,1539.00,M,M,M,M,M,0.00,M,M,M,M,M,M,M,M,M,M,M,M,M,M,M,M,M,M,M,M,KRTS 231415Z AUTO RMK AO2 PNO PWINO,M
BVU,2022-02-23 14:15,-114.8611,35.9475,671.00,37.40,17.60,44.25,220.00,11.00,0.00,29.79,M,10.00,M,CLR,M,M,M,M,M,M,M,M,M,M,M,M,M,M,29.29,KBVU 231415Z AUTO 22011KT 10SM CLR 03/M08 A2979 RMK AO2,M
INS,2022-02-23 14:15,-115.6733,36.5872,955.00,30.20,26.60,86.28,250.00,12.00,0.00,29.75,M,10.00,M,BKN,M,M,M,4200.00,M,M,M,-UP,M,M,M,M,M,M,19.71,KINS 231415Z AUTO 25012KT 10SM -UP BKN042 M01/M03 A2975 RMK AO2 SNE05UPB05 SLPNO $,M
INS,2022-02-23 14:16,-115.6733,36.5872,955.00,30.20,26.60,86.28,250.00,11.00,0.00,29.75,M,10.00,M,BKN,BKN,M,M,4000.00,4700.00,M,M,M,M,M,M,M,M,M,20.19,KINS 231416Z AUTO 25011KT 10SM BKN040 BKN047 M01/M03 A2975 RMK AO2 SNE05UPB05E16 SLPNO $,M
LSV,2022-02-23 14:17,-115.0343,36.2362,570.00,39.20,28.40,64.93,250.00,8.00,0.00,29.77,M,10.00,M,SCT,OVC,M,M,4000.00,5000.00,M,M,M,M,M,M,M,M,M,32.98,KLSV 231417Z AUTO 25008KT 10SM SCT040 OVC050 04/M02 A2977 RMK AO2 SLPNO $,M
EKO,2022-02-23 14:24,-115.7860,40.8242,1367.00,16.00,9.00,73.41,50.00,5.00,T,29.82,M,3.00,M,BKN,OVC,M,M,2400.00,4400.00,M,M,-SN,M,M,M,M,M,M,7.39,KEKO 231424Z AUTO 05005KT 3SM -SN BKN024 OVC044 M09/M13 A2982 RMK AO2 P0000 T10891128,M
WMC,2022-02-23 14:26,-117.8072,40.9019,1315.00,12.90,8.10,80.74,340.00,5.00,0.00,29.94,M,8.00,M,BKN,OVC,M,M,2300.00,6000.00,M,M,M,M,M,M,M,M,M,3.71,KWMC 231426Z AUTO 34005KT 8SM BKN023 OVC060 M11/M13 A2994 RMK AO2 T11061133 TSNO,M
EKO,2022-02-23 14:29,-115.7860,40.8242,1367.00,16.00,9.00,73.41,30.00,5.00,T,29.82,M,1.75,M,BKN,BKN,OVC,M,2400.00,3800.00,4600.00,M,-SN,M,M,M,M,M,M,7.39,KEKO 231429Z AUTO 03005KT 1 3/4SM -SN BKN024 BKN038 OVC046 M09/M13 A2982 RMK AO2 P0000 T10891128,M
BVU,2022-02-23 14:35,-114.8611,35.9475,671.00,37.40,19.40,47.80,180.00,6.00,0.00,29.79,M,10.00,M,BKN,BKN,M,M,7000.00,8500.00,M,M,M,M,M,M,M,M,M,32.03,KBVU 231435Z AUTO 18006KT 10SM BKN070 BKN085 03/M07 A2979 RMK AO2,M
HTH,2022-02-23 14:35,-118.6315,38.5448,1282.89,21.20,14.00,73.32,360.00,19.00,0.00,29.92,M,9.00,M,SCT,BKN,OVC,M,4600.00,5000.00,8500.00,M,M,M,M,M,M,M,M,5.15,KHTH 231435Z AUTO 36019KT 9SM SCT046 BKN050 OVC085 M06/M10 A2992 RMK A01,M
BAM,2022-02-23 14:35,-116.8743,40.5990,1382.36,19.40,12.20,73.13,320.00,4.00,0.00,29.91,M,10.00,M,BKN,OVC,M,M,3500.00,4100.00,M,M,M,M,M,M,M,M,M,12.71,KBAM 231435Z AUTO 32004KT 10SM BKN035 OVC041 M07/M11 A2991 RMK AO1,M
TMT,2022-02-23 14:35,-117.1971,39.4643,1749.34,14.40,11.30,87.23,0.00,0.00,0.00,29.83,M,1.75,M,SCT,BKN,OVC,M,300.00,1600.00,2400.00,M,-SN,M,M,M,M,M,M,14.40,KTMT 231435Z AUTO 00000KT 1 3/4SM -SN SCT003 BKN016 OVC024 M10/M11 A2983 RMK AO2 VIS 1V4 T10981115,M
MEV,2022-02-23 14:35,-119.7500,38.9963,1441.42,19.40,15.80,85.63,350.00,12.00,0.00,29.91,M,7.00,M,FEW,SCT,BKN,M,400.00,1900.00,3200.00,M,-SN,M,M,M,M,M,M,5.97,KMEV 231435Z AUTO 35012KT 7SM -SN FEW004 SCT019 BKN032 M07/M09 A2991 RMK AO2,M
05U,2022-02-23 14:35,-116.0051,39.6042,1811.23,15.80,10.40,78.84,320.00,6.00,0.00,29.78,M,10.00,M,BKN,BKN,OVC,M,1700.00,2100.00,2600.00,M,M,M,M,M,M,M,M,6.02,K05U 231435Z AUTO 32006KT 10SM BKN017 BKN021 OVC026 M09/M12 A2978 RMK A01,M
RTS,2022-02-23 14:35,-119.8764,39.6682,1539.00,M,M,M,M,M,0.00,M,M,M,M,M,M,M,M,M,M,M,M,M,M,M,M,M,M,M,M,KRTS 231435Z AUTO RMK AO2 PNO PWINO,M
05U,2022-02-23 14:50,-116.0051,39.6042,1811.23,15.80,10.40,78.84,340.00,8.00,0.00,29.78,M,9.00,M,FEW,BKN,OVC,M,1900.00,2500.00,2900.00,M,M,M,M,M,M,M,M,4.16,K05U 231450Z AUTO 34008KT 9SM FEW019 BKN025 OVC029 M09/M12 A2978 RMK A01,M
P68,2022-02-23 14:53,-116.0056,39.6014,1993.00,17.10,9.00,69.99,340.00,10.00,0.00,29.76,1011.10,M,M,M,M,M,M,M,M,M,M,M,M,M,M,M,M,M,4.28,KP68 231453Z AUTO 34010KT M08/M13 A2976 RMK AO1 SLP111 T10831128 51015,M
LOL,2022-02-23 14:53,-118.5701,40.0684,1192.43,19.90,10.90,67.57,10.00,8.00,0.00,29.97,1017.90,10.00,M,FEW,FEW,OVC,M,4500.00,5500.00,8000.00,M,M,M,M,M,M,M,M,9.21,KLOL 231453Z AUTO 01008KT 10SM FEW045 FEW055 OVC080 M07/M12 A2997 RMK AO2 SLP179 T10671117 53019,M
VGT,2022-02-23 14:53,-115.1933,36.2111,667.00,38.00,27.00,64.49,M,M,0.00,29.78,1010.70,10.00,M,CLR,M,M,M,M,M,M,M,M,M,M,M,M,M,M,M,KVGT 231453Z 10SM CLR 03/M03 A2978 RMK AO2 SLP107 T00331028 53019,M
ELY,2022-02-23 14:53,-114.8453,39.2950,1909.00,17.10,15.10,91.68,10.00,8.00,0.01,29.67,1008.30,3.00,M,SCT,OVC,M,M,1200.00,2400.00,M,M,-SN BR,M,M,M,M,M,M,5.76,KELY 231453Z AUTO 01008KT 3SM -SN BR SCT012 OVC024 M08/M09 A2967 RMK AO2 SLP083 P0001 60002 T10831094 53009,M
DRA,2022-02-23 14:53,-116.0278,36.6206,1009.00,28.90,27.00,92.49,240.00,7.00,0.00,29.77,1007.70,10.00,M,OVC,M,M,M,5000.00,M,M,M,M,M,M,M,M,M,M,21.00,KDRA 231453Z AUTO 24007KT 10SM OVC050 M02/M03 A2977 RMK AO2 SLP077 60003 T10171028 51015,M
BAM,2022-02-23 14:55,-116.8743,40.5990,1382.36,19.40,12.20,73.13,320.00,6.00,0.00,29.92,M,7.00,M,SCT,OVC,M,M,3300.00,4100.00,M,M,M,M,M,M,M,M,M,10.36,KBAM 231455Z AUTO 32006KT 7SM SCT033 OVC041 M07/M11 A2992 RMK AO1,M
BVU,2022-02-23 14:55,-114.8611,35.9475,671.00,37.40,17.60,44.25,220.00,8.00,0.00,29.80,M,10.00,M,SCT,BKN,OVC,M,6000.00,7000.00,7500.00,M,M,M,M,M,M,M,M,30.76,KBVU 231455Z AUTO 22008KT 10SM SCT060 BKN070 OVC075 03/M08 A2980 RMK AO2,M
RNO,2022-02-23 14:55,-119.7711,39.4839,1341.00,21.00,12.90,70.45,350.00,8.00,0.00,29.96,1016.90,10.00,M,BKN,OVC,M,M,3000.00,5500.00,M,M,M,M,M,M,M,M,M,10.56,KRNO 231455Z 35008KT 10SM BKN030 OVC055 M06/M11 A2996 RMK AO2 SLP169 MTN TOPS OBSCD DSNT SW THRU NW 60000 T10611106 52019 $,M
RTS,2022-02-23 14:55,-119.8764,39.6682,1539.00,M,M,M,M,M,0.00,M,M,M,M,M,M,M,M,M,M,M,M,M,M,M,M,M,M,M,M,KRTS 231455Z AUTO RMK AO2 PNO PWINO,M
MEV,2022-02-23 14:55,-119.7500,38.9963,1441.42,19.40,15.80,85.63,350.00,15.00,0.00,29.92,M,4.00,M,FEW,SCT,BKN,M,300.00,3300.00,3900.00,M,-SN BR,M,M,M,M,M,M,4.45,KMEV 231455Z AUTO 35015KT 4SM -SN BR FEW003 SCT033 BKN039 M07/M09 A2992 RMK AO2,M
TMT,2022-02-23 14:55,-117.1971,39.4643,1749.34,14.50,10.90,85.32,0.00,0.00,0.00,29.84,M,10.00,M,BKN,OVC,M,M,1400.00,2400.00,M,M,M,M,M,M,M,M,M,14.50,KTMT 231455Z AUTO 00000KT 10SM BKN014 OVC024 M10/M12 A2984 RMK AO2 T10971117,M
HTH,2022-02-23 14:55,-118.6315,38.5448,1282.89,21.20,14.00,73.32,360.00,16.00,0.00,29.93,M,10.00,M,FEW,BKN,OVC,M,4600.00,5500.00,8000.00,M,M,M,M,M,M,M,M,6.34,KHTH 231455Z AUTO 36016KT 10SM FEW046 BKN055 OVC080 M06/M10 A2993 RMK A01,M
HND,2022-02-23 14:56,-115.1344,35.9729,742.79,36.00,21.00,54.08,220.00,11.00,0.00,29.79,1011.40,10.00,M,BKN,M,M,M,6000.00,M,M,M,M,M,M,M,M,M,M,27.52,KHND 231456Z 22011KT 10SM BKN060 02/M06 A2979 RMK AO2 SLP114 T00221061 53015,M
TPH,2022-02-23 14:56,-117.0904,38.0505,1654.00,18.00,8.10,64.66,300.00,12.00,0.00,29.76,1010.50,10.00,23.00,SCT,M,M,M,11000.00,M,M,M,M,M,M,M,M,M,M,4.18,KTPH 231456Z AUTO 30012G23KT 10SM SCT110 M08/M13 A2976 RMK AO2 SLP105 T10781133 53014,M
EKO,2022-02-23 14:56,-115.7860,40.8242,1367.00,16.00,10.00,76.77,20.00,5.00,T,29.83,1014.70,1.50,M,OVC,M,M,M,2200.00,M,M,M,-SN,M,M,M,M,M,M,7.39,KEKO 231456Z AUTO 02005KT 1 1/2SM -SN OVC022 M09/M12 A2983 RMK AO2 SLP147 P0000 60000 T10891122 53016,M
WMC,2022-02-23 14:56,-117.8072,40.9019,1315.00,12.90,8.10,80.74,310.00,8.00,0.00,29.95,1018.00,10.00,M,OVC,M,M,M,3300.00,M,M,M,M,M,M,M,M,M,M,0.59,KWMC 231456Z AUTO 31008KT 10SM OVC033 M11/M13 A2995 RMK AO2 SLP180 T11061133 52006 TSNO,M
NFL,2022-02-23 14:56,-118.7010,39.4166,1199.00,21.00,12.00,67.71,20.00,6.00,0.00,29.96,1011.70,10.00,M,BKN,M,M,M,7000.00,M,M,M,M,M,M,M,M,M,M,12.28,KNFL 231456Z 02006KT 10SM BKN070 M06/M11 A2996 RMK AO2 SLP117 T10611111 53023,M
LAS,2022-02-23 14:56,-115.1634,36.0719,663.00,39.00,21.90,49.93,210.00,5.00,0.00,29.78,1008.80,10.00,M,BKN,BKN,M,M,6500.00,16000.00,M,M,M,M,M,M,M,M,M,34.71,KLAS 231456Z 21005KT 10SM BKN065 BKN160 04/M06 A2978 RMK AO2 SLP088 T00391056 53017 $,M
INS,2022-02-23 14:58,-115.6733,36.5872,955.00,30.70,26.20,83.16,270.00,13.00,T,29.76,M,10.00,M,BKN,BKN,M,M,8000.00,9500.00,M,M,M,M,M,M,M,M,M,19.90,KINS 231458Z AUTO 27013KT 10SM BKN080 BKN095 M01/M03 A2976 RMK AO2 SNE05UPB05E16 SLPNO P0000 60000 T10071032 52014 $,M
LSV,2022-02-23 14:58,-115.0343,36.2362,570.00,38.80,28.00,64.88,230.00,9.00,0.00,29.78,M,10.00,M,SCT,M,M,M,6000.00,M,M,M,M,M,M,M,M,M,M,31.97,KLSV 231458Z 23009KT 10SM SCT060 04/M02 A2978 RMK AO2A SLPNO T00381022 52017 $,M
ELY,2022-02-23 15:06,-114.8453,39.2950,1909.00,17.10,15.10,91.68,10.00,11.00,T,29.68,M,3.00,M,BKN,OVC,M,M,1000.00,2300.00,M,M,-SN BR,M,M,M,M,M,M,3.64,KELY 231506Z AUTO 01011KT 3SM -SN BR BKN010 OVC023 M08/M09 A2968 RMK AO2 P0000 T10831094,M
ELY,2022-02-23 15:11,-114.8453,39.2950,1909.00,18.00,15.10,88.20,10.00,12.00,T,29.68,M,2.00,M,BKN,OVC,M,M,800.00,2300.00,M,M,-SN BR,M,M,M,M,M,M,4.18,KELY 231511Z AUTO 01012KT 2SM -SN BR BKN008 OVC023 M08/M09 A2968 RMK AO2 P0000 T10781094,M
TMT,2022-02-23 15:15,-117.1971,39.4643,1749.34,14.50,10.40,83.44,300.00,5.00,0.00,29.85,M,7.00,M,SCT,BKN,OVC,M,1400.00,1900.00,3700.00,M,-SN,M,M,M,M,M,M,5.61,KTMT 231515Z AUTO 30005KT 7SM -SN SCT014 BKN019 OVC037 M10/M12 A2985 RMK AO2 T10971120,M
BVU,2022-02-23 15:15,-114.8611,35.9475,671.00,39.20,19.40,44.55,200.00,5.00,0.00,29.81,M,10.00,M,BKN,OVC,M,M,5500.00,7000.00,M,M,M,M,M,M,M,M,M,34.95,KBVU 231515Z AUTO 20005KT 10SM BKN055 OVC070 04/M07 A2981 RMK AO2,M
RTS,2022-02-23 15:15,-119.8764,39.6682,1539.00,M,M,M,M,M,0.00,M,M,M,M,M,M,M,M,M,M,M,M,M,M,M,M,M,M,M,M,KRTS 231515Z AUTO RMK AO2 PNO PWINO,M
05U,2022-02-23 15:15,-116.0051,39.6042,1811.23,17.60,10.40,72.93,330.00,7.00,0.00,29.80,M,9.00,M,OVC,M,M,M,2500.00,M,M,M,M,M,M,M,M,M,M,7.23,K05U 231515Z AUTO 33007KT 9SM OVC025 M08/M12 A2980 RMK A01,M
MEV,2022-02-23 15:15,-119.7500,38.9963,1441.42,19.40,15.80,85.63,350.00,6.00,0.00,29.93,M,9.00,M,BKN,OVC,M,M,3500.00,4000.00,M,M,UP,M,M,M,M,M,M,10.36,KMEV 231515Z AUTO 35006KT 9SM UP BKN035 OVC040 M07/M09 A2993 RMK AO2,M
BAM,2022-02-23 15:15,-116.8743,40.5990,1382.36,19.40,12.20,73.13,320.00,5.00,0.00,29.93,M,10.00,M,SCT,BKN,OVC,M,2500.00,3300.00,4100.00,M,M,M,M,M,M,M,M,11.43,KBAM 231515Z AUTO 32005KT 10SM SCT025 BKN033 OVC041 M07/M11 A2993 RMK AO1,M
HTH,2022-02-23 15:15,-118.6315,38.5448,1282.89,21.20,14.00,73.32,350.00,16.00,0.00,29.94,M,10.00,M,M,M,M,M,M,M,M,M,M,M,M,M,M,M,M,6.34,KHTH 231515Z AUTO 35016KT 10SM M06/M10 A2994 RMK A01,M
ELY,2022-02-23 15:15,-114.8453,39.2950,1909.00,18.00,15.10,88.20,20.00,11.00,T,29.68,M,1.25,M,SCT,OVC,M,M,800.00,2300.00,M,M,-SN BR,M,M,M,M,M,M,4.77,KELY 231515Z AUTO 02011KT 1 1/4SM -SN BR SCT008 OVC023 M08/M09 A2968 RMK AO2 P0000 T10781094,M
EKO,2022-02-23 15:29,-115.7860,40.8242,1367.00,16.00,10.00,76.77,0.00,0.00,T,29.85,M,2.00,M,BKN,OVC,M,M,3000.00,4500.00,M,M,-SN,M,M,M,M,M,M,16.00,KEKO 231529Z AUTO 00000KT 2SM -SN BKN030 OVC045 M09/M12 A2985 RMK AO2 P0000 T10891122,M
05U,2022-02-23 15:30,-116.0051,39.6042,1811.23,17.60,8.60,67.28,350.00,7.00,0.00,29.80,M,9.00,M,OVC,M,M,M,2700.00,M,M,M,M,M,M,M,M,M,M,7.23,K05U 231530Z AUTO 35007KT 9SM OVC027 M08/M13 A2980 RMK A01,M
TMT,2022-02-23 15:35,-117.1971,39.4643,1749.34,14.50,10.40,83.44,290.00,3.00,0.00,29.86,M,5.00,M,SCT,BKN,OVC,M,1400.00,1900.00,3000.00,M,-SN,M,M,M,M,M,M,8.68,KTMT 231535Z AUTO 29003KT 5SM -SN SCT014 BKN019 OVC030 M10/M12 A2986 RMK AO2 T10971120,M
HTH,2022-02-23 15:35,-118.6315,38.5448,1282.89,21.20,14.00,73.32,350.00,16.00,0.00,29.96,M,10.00,M,SCT,OVC,M,M,5500.00,7500.00,M,M,M,M,M,M,M,M,M,6.34,KHTH 231535Z AUTO 35016KT 10SM SCT055 OVC075 M06/M10 A2996 RMK A01,M
BAM,2022-02-23 15:35,-116.8743,40.5990,1382.36,19.40,14.00,79.16,310.00,5.00,0.00,29.93,M,10.00,M,SCT,OVC,M,M,2500.00,3300.00,M,M,M,M,M,M,M,M,M,11.43,KBAM 231535Z AUTO 31005KT 10SM SCT025 OVC033 M07/M10 A2993 RMK AO1,M
MEV,2022-02-23 15:35,-119.7500,38.9963,1441.42,21.20,17.60,85.74,20.00,6.00,0.00,29.95,M,7.00,M,BKN,OVC,M,M,3400.00,6000.00,M,M,UP,M,M,M,M,M,M,12.52,KMEV 231535Z AUTO 02006KT 7SM UP BKN034 OVC060 M06/M08 A2995 RMK AO2,M
RTS,2022-02-23 15:35,-119.8764,39.6682,1539.00,M,M,M,M,M,0.00,M,M,M,M,M,M,M,M,M,M,M,M,M,M,M,M,M,M,M,M,KRTS 231535Z AUTO RMK AO2 PNO PWINO,M
BVU,2022-02-23 15:35,-114.8611,35.9475,671.00,39.20,19.40,44.55,210.00,8.00,0.00,29.81,M,10.00,M,BKN,BKN,OVC,M,5500.00,6500.00,7500.00,M,M,M,M,M,M,M,M,32.98,KBVU 231535Z AUTO 21008KT 10SM BKN055 BKN065 OVC075 04/M07 A2981 RMK AO2,M
DRA,2022-02-23 15:43,-116.0278,36.6206,1009.00,30.00,27.00,88.44,250.00,4.00,0.00,29.80,M,10.00,M,FEW,OVC,M,M,900.00,6000.00,M,M,M,M,M,M,M,M,M,25.08,KDRA 231543Z AUTO 25004KT 10SM FEW009 OVC060 M01/M03 A2980 RMK AO2 T10111028,M
INS,2022-02-23 15:49,-115.6733,36.5872,955.00,32.00,24.80,74.44,290.00,10.00,0.00,29.80,1008.70,10.00,M,OVC,M,M,M,4100.00,M,M,M,M,M,M,M,M,M,M,22.97,KINS 231549Z AUTO 29010KT 10SM OVC041 00/M04 A2980 RMK AO2 SLP087 $,M
VGT,2022-02-23 15:53,-115.1933,36.2111,667.00,40.00,26.10,57.47,M,M,0.00,29.80,1011.40,10.00,M,OVC,M,M,M,6000.00,M,M,M,M,M,M,M,M,M,M,M,KVGT 231553Z 10SM OVC060 04/M03 A2980 RMK AO2 SLP114 T00441033,M
EKO,2022-02-23 15:53,-115.7860,40.8242,1367.00,17.60,10.40,72.93,320.00,3.00,0.01,29.86,M,1.50,M,OVC,M,M,M,3200.00,M,M,M,-SN,M,M,M,M,M,M,12.23,KEKO 231553Z AUTO 32003KT 1 1/2SM -SN OVC032 M08/M12 A2986 RMK AO2 P0001,M
P68,2022-02-23 15:53,-116.0056,39.6014,1993.00,18.00,9.00,67.33,320.00,11.00,0.00,29.80,1012.20,M,M,M,M,M,M,M,M,M,M,M,M,M,M,M,M,M,4.77,KP68 231553Z AUTO 32011KT M08/M13 A2980 RMK AO1 SLP122 T10781128,M
DRA,2022-02-23 15:53,-116.0278,36.6206,1009.00,30.00,28.00,92.15,250.00,4.00,0.00,29.80,1009.00,10.00,M,FEW,OVC,M,M,700.00,6000.00,M,M,M,M,M,M,M,M,M,25.08,KDRA 231553Z AUTO 25004KT 10SM FEW007 OVC060 M01/M02 A2980 RMK AO2 SLP090 T10111022,M
ELY,2022-02-23 15:53,-114.8453,39.2950,1909.00,17.10,14.00,87.38,20.00,13.00,0.01,29.70,1009.40,1.75,M,OVC,M,M,M,1800.00,M,M,M,-SN BR,M,M,M,M,M,M,2.48,KELY 231553Z AUTO 02013KT 1 3/4SM -SN BR OVC018 M08/M10 A2970 RMK AO2 SLP094 P0001 T10831100,M
LOL,2022-02-23 15:53,-118.5701,40.0684,1192.43,19.00,12.90,76.72,90.00,6.00,0.00,30.01,1019.40,10.00,M,FEW,BKN,M,M,3500.00,6500.00,M,M,M,M,M,M,M,M,M,9.87,KLOL 231553Z AUTO 09006KT 10SM FEW035 BKN065 M07/M11 A3001 RMK AO2 SLP194 T10721106,M
BVU,2022-02-23 15:55,-114.8611,35.9475,671.00,41.00,19.40,41.54,220.00,9.00,0.00,29.82,M,10.00,M,FEW,SCT,OVC,M,5500.00,6500.00,7500.00,M,M,M,M,M,M,M,M,34.70,KBVU 231555Z AUTO 22009KT 10SM FEW055 SCT065 OVC075 05/M07 A2982 RMK AO2,M
HTH,2022-02-23 15:55,-118.6315,38.5448,1282.89,21.20,14.00,73.32,340.00,10.00,0.00,29.97,M,10.00,17.00,FEW,OVC,M,M,5500.00,8000.00,M,M,M,M,M,M,M,M,M,9.42,KHTH 231555Z AUTO 34010G17KT 10SM FEW055 OVC080 M06/M10 A2997 RMK A01,M
RNO,2022-02-23 15:55,-119.7711,39.4839,1341.00,21.90,12.90,67.82,340.00,9.00,0.00,29.99,1018.20,10.00,M,FEW,BKN,BKN,M,3000.00,5500.00,9000.00,M,M,M,M,M,M,M,M,10.96,KRNO 231555Z 34009KT 10SM FEW030 BKN055 BKN090 M06/M11 A2999 RMK AO2 SLP182 MTN TOPS OBSCD SW THRU NW SH DSNT NE T10561106 $,M
RTS,2022-02-23 15:55,-119.8764,39.6682,1539.00,M,M,M,M,M,0.00,M,M,M,M,M,M,M,M,M,M,M,M,M,M,M,M,M,M,M,M,KRTS 231555Z AUTO RMK AO2 PNO PWINO,M
05U,2022-02-23 15:55,-116.0051,39.6042,1811.23,17.60,8.60,67.28,330.00,10.00,0.00,29.82,M,10.00,M,OVC,M,M,M,2900.00,M,M,M,M,M,M,M,M,M,M,4.91,K05U 231555Z AUTO 33010KT 10SM OVC029 M08/M13 A2982 RMK A01,M
MEV,2022-02-23 15:55,-119.7500,38.9963,1441.42,21.20,17.60,85.74,30.00,9.00,0.00,29.96,M,3.00,M,FEW,SCT,OVC,M,2900.00,3400.00,6000.00,M,-SN BR,M,M,M,M,M,M,10.08,KMEV 231555Z AUTO 03009KT 3SM -SN BR FEW029 SCT034 OVC060 M06/M08 A2996 RMK AO2,M
BAM,2022-02-23 15:55,-116.8743,40.5990,1382.36,19.40,12.20,73.13,320.00,4.00,0.00,29.95,M,10.00,M,OVC,M,M,M,3500.00,M,M,M,M,M,M,M,M,M,M,12.71,KBAM 231555Z AUTO 32004KT 10SM OVC035 M07/M11 A2995 RMK AO1,M
TMT,2022-02-23 15:55,-117.1971,39.4643,1749.34,14.40,9.30,79.78,310.00,3.00,0.00,29.87,M,10.00,M,SCT,BKN,OVC,M,1800.00,3000.00,4400.00,M,M,M,M,M,M,M,M,8.57,KTMT 231555Z AUTO 31003KT 10SM SCT018 BKN030 OVC044 M10/M13 A2987 RMK AO2 T10981126,M
LAS,2022-02-23 15:56,-115.1634,36.0719,663.00,40.00,21.90,48.21,230.00,8.00,0.00,29.81,1009.80,10.00,M,FEW,BKN,OVC,M,5000.00,7000.00,16000.00,M,M,M,M,M,M,M,M,33.84,KLAS 231556Z 23008KT 10SM FEW050 BKN070 OVC160 04/M06 A2981 RMK AO2 SLP098 VIRGA DSNT SE AND W T00441056 $,M
NFL,2022-02-23 15:56,-118.7010,39.4166,1199.00,21.90,12.90,67.82,360.00,12.00,0.00,29.99,1012.80,10.00,M,FEW,BKN,BKN,M,4000.00,6000.00,12000.00,M,M,M,M,M,M,M,M,9.15,KNFL 231556Z 36012KT 10SM FEW040 BKN060 BKN120 M06/M11 A2999 RMK AO2 SLP128 T10561106,M
WMC,2022-02-23 15:56,-117.8072,40.9019,1315.00,15.10,8.10,73.31,320.00,9.00,0.00,29.99,1019.30,10.00,M,BKN,BKN,OVC,M,4200.00,4900.00,9000.00,M,M,M,M,M,M,M,M,2.50,KWMC 231556Z AUTO 32009KT 10SM BKN042 BKN049 OVC090 M09/M13 A2999 RMK AO2 SLP193 T10941133 TSNO,M
HND,2022-02-23 15:56,-115.1344,35.9729,742.79,38.00,21.90,52.13,210.00,13.00,0.00,29.81,1012.10,10.00,M,SCT,BKN,BKN,M,4800.00,6000.00,7000.00,M,M,M,M,M,M,M,M,29.13,KHND 231556Z 21013KT 10SM SCT048 BKN060 BKN070 03/M06 A2981 RMK AO2 SLP121 T00331056,M
EKO,2022-02-23 15:56,-115.7860,40.8242,1367.00,17.10,9.00,69.99,330.00,4.00,0.01,29.86,1015.90,1.50,M,BKN,OVC,M,M,3000.00,3700.00,M,M,-SN,M,M,M,M,M,M,10.02,KEKO 231556Z AUTO 33004KT 1 1/2SM -SN BKN030 OVC037 M08/M13 A2986 RMK AO2 SLP159 P0001 T10831128,M
TPH,2022-02-23 15:56,-117.0904,38.0505,1654.00,19.90,8.10,59.60,310.00,14.00,0.00,29.79,1011.70,10.00,23.00,FEW,M,M,M,11000.00,M,M,M,M,M,M,M,M,M,M,5.57,KTPH 231556Z AUTO 31014G23KT 10SM FEW110 M07/M13 A2979 RMK AO2 SLP117 T10671133,M
INS,2022-02-23 15:58,-115.6733,36.5872,955.00,32.40,24.60,72.65,280.00,11.00,0.00,29.80,1008.70,10.00,M,OVC,M,M,M,4100.00,M,M,M,M,M,M,M,M,M,M,22.97,KINS 231558Z AUTO 28011KT 10SM OVC041 00/M04 A2980 RMK AO2 SLP087 T00021041 $,M
LSV,2022-02-23 15:58,-115.0343,36.2362,570.00,40.00,28.80,64.22,0.00,0.00,0.00,29.81,M,10.00,M,BKN,M,M,M,7000.00,M,M,M,M,M,M,M,M,M,M,39.90,KLSV 231558Z AUTO 00000KT 10SM BKN070 04/M02 A2981 RMK AO2 SLPNO T00441018 $,M
EKO,2022-02-23 16:02,-115.7860,40.8242,1367.00,16.00,8.10,70.50,360.00,5.00,T,29.86,M,2.00,M,BKN,OVC,M,M,2500.00,3500.00,M,M,-SN,M,M,M,M,M,M,7.39,KEKO 231602Z AUTO 36005KT 2SM -SN BKN025 OVC035 M09/M13 A2986 RMK AO2 P0000 T10891133,M
ELY,2022-02-23 16:02,-114.8453,39.2950,1909.00,17.10,14.00,87.38,20.00,10.00,T,29.71,M,2.50,M,FEW,BKN,OVC,M,700.00,2000.00,6000.00,M,-SN BR,M,M,M,M,M,M,4.28,KELY 231602Z AUTO 02010KT 2 1/2SM -SN BR FEW007 BKN020 OVC060 M08/M10 A2971 RMK AO2 P0000 T10831100,M
INS,2022-02-23 16:08,-115.6733,36.5872,955.00,32.00,24.80,74.44,280.00,9.00,0.00,29.81,1009.30,10.00,17.00,OVC,M,M,M,3900.00,M,M,M,M,M,M,M,M,M,M,23.51,KINS 231608Z AUTO 28009G17KT 10SM OVC039 00/M04 A2981 RMK AO2 SLP093 $,M
ELY,2022-02-23 16:12,-114.8453,39.2950,1909.00,18.00,15.10,88.20,20.00,13.00,T,29.71,M,4.00,M,FEW,BKN,OVC,M,700.00,2200.00,3800.00,M,-SN BR,M,M,M,M,M,M,3.63,KELY 231612Z AUTO 02013KT 4SM -SN BR FEW007 BKN022 OVC038 M08/M09 A2971 RMK AO2 P0000 T10781094,M
BVU,2022-02-23 16:15,-114.8611,35.9475,671.00,41.00,19.40,41.54,220.00,11.00,0.00,29.83,M,10.00,M,FEW,SCT,BKN,M,4300.00,5000.00,8000.00,M,M,M,M,M,M,M,M,33.84,KBVU 231615Z AUTO 22011KT 10SM FEW043 SCT050 BKN080 05/M07 A2983 RMK AO2,M
HTH,2022-02-23 16:15,-118.6315,38.5448,1282.89,21.20,14.00,73.32,340.00,11.00,0.00,29.99,M,10.00,17.00,FEW,SCT,BKN,M,4800.00,5500.00,8000.00,M,M,M,M,M,M,M,M,8.82,KHTH 231615Z AUTO 34011G17KT 10SM FEW048 SCT055 BKN080 M06/M10 A2999 RMK A01,M
TMT,2022-02-23 16:15,-117.1971,39.4643,1749.34,14.90,9.70,79.47,0.00,0.00,0.00,29.88,M,10.00,M,SCT,SCT,OVC,M,2800.00,3500.00,4200.00,M,M,M,M,M,M,M,M,14.90,KTMT 231615Z AUTO 00000KT 10SM SCT028 SCT035 OVC042 M09/M12 A2988 RMK AO2 T10951124,M
BAM,2022-02-23 16:15,-116.8743,40.5990,1382.36,21.20,12.20,67.73,300.00,7.00,0.00,29.95,M,10.00,M,OVC,M,M,M,3800.00,M,M,M,M,M,M,M,M,M,M,11.61,KBAM 231615Z AUTO 30007KT 10SM OVC038 M06/M11 A2995 RMK AO1,M
MEV,2022-02-23 16:15,-119.7500,38.9963,1441.42,21.20,15.80,79.31,10.00,10.00,0.00,29.97,M,6.00,M,OVC,M,M,M,6000.00,M,M,M,-SN HZ,M,M,M,M,M,M,9.42,KMEV 231615Z AUTO 01010KT 6SM -SN HZ OVC060 M06/M09 A2997 RMK AO2,M
05U,2022-02-23 16:15,-116.0051,39.6042,1811.23,17.60,8.60,67.28,340.00,9.00,0.00,29.83,M,9.00,M,OVC,M,M,M,3300.00,M,M,M,M,M,M,M,M,M,M,5.61,K05U 231615Z AUTO 34009KT 9SM OVC033 M08/M13 A2983 RMK A01,M
RTS,2022-02-23 16:15,-119.8764,39.6682,1539.00,M,M,M,M,M,0.00,M,M,M,M,M,M,M,M,M,M,M,M,M,M,M,M,M,M,M,M,KRTS 231615Z AUTO RMK AO2 PNO PWINO,M
ELY,2022-02-23 16:23,-114.8453,39.2950,1909.00,17.60,15.80,92.50,10.00,15.00,0.00,29.71,M,2.00,21.00,SCT,BKN,OVC,M,800.00,3100.00,3800.00,M,-SN BR,M,M,M,M,M,M,2.11,KELY 231623Z AUTO 01015G21KT 2SM -SN BR SCT008 BKN031 OVC038 M08/M09 A2971,M
EKO,2022-02-23 16:26,-115.7860,40.8242,1367.00,17.10,8.10,67.22,350.00,5.00,T,29.87,M,1.75,M,OVC,M,M,M,1700.00,M,M,M,-SN,M,M,M,M,M,M,8.70,KEKO 231626Z AUTO 35005KT 1 3/4SM -SN OVC017 M08/M13 A2987 RMK AO2 P0000 T10831133,M
INS,2022-02-23 16:28,-115.6733,36.5872,955.00,33.80,26.60,74.63,270.00,12.00,0.00,29.81,1009.10,10.00,M,SCT,SCT,OVC,M,3700.00,4500.00,6000.00,M,M,M,M,M,M,M,M,24.29,KINS 231628Z AUTO 27012KT 10SM SCT037 SCT045 OVC060 01/M03 A2981 RMK AO2 SLP091 $,M
ELY,2022-02-23 16:30,-114.8453,39.2950,1909.00,17.10,14.00,87.38,360.00,18.00,T,29.71,M,1.75,23.00,SCT,BKN,OVC,M,900.00,2600.00,3800.00,M,-SN BR,M,M,M,M,M,M,0.13,KELY 231630Z AUTO 36018G23KT 1 3/4SM -SN BR SCT009 BKN026 OVC038 M08/M10 A2971 RMK AO2 P0000 T10831100,M
05U,2022-02-23 16:30,-116.0051,39.6042,1811.23,17.60,8.60,67.28,340.00,8.00,0.00,29.83,M,10.00,M,OVC,M,M,M,3200.00,M,M,M,M,M,M,M,M,M,M,6.37,K05U 231630Z AUTO 34008KT 10SM OVC032 M08/M13 A2983 RMK A01,M
EKO,2022-02-23 16:33,-115.7860,40.8242,1367.00,17.10,8.10,67.22,330.00,3.00,T,29.87,M,2.00,M,OVC,M,M,M,1900.00,M,M,M,-SN,M,M,M,M,M,M,11.66,KEKO 231633Z AUTO 33003KT 2SM -SN OVC019 M08/M13 A2987 RMK AO2 P0000 T10831133,M
BAM,2022-02-23 16:35,-116.8743,40.5990,1382.36,21.20,12.20,67.73,60.00,4.00,0.00,29.96,M,10.00,M,OVC,M,M,M,4000.00,M,M,M,M,M,M,M,M,M,M,14.81,KBAM 231635Z AUTO 06004KT 10SM OVC040 M06/M11 A2996 RMK AO1,M
HTH,2022-02-23 16:35,-118.6315,38.5448,1282.89,21.20,14.00,73.32,350.00,14.00,0.00,29.99,M,10.00,20.00,FEW,SCT,BKN,M,2500.00,4500.00,7500.00,M,M,M,M,M,M,M,M,7.24,KHTH 231635Z AUTO 35014G20KT 10SM FEW025 SCT045 BKN075 M06/M10 A2999 RMK A01,M
BVU,2022-02-23 16:35,-114.8611,35.9475,671.00,41.00,19.40,41.54,240.00,12.00,0.00,29.83,M,10.00,M,SCT,BKN,BKN,M,3800.00,4500.00,5000.00,M,M,M,M,M,M,M,M,33.46,KBVU 231635Z AUTO 24012KT 10SM SCT038 BKN045 BKN050 05/M07 A2983 RMK AO2,M
TMT,2022-02-23 16:35,-117.1971,39.4643,1749.34,16.00,9.00,73.41,340.00,8.00,0.00,29.89,M,10.00,M,SCT,BKN,OVC,M,1500.00,2500.00,4200.00,M,M,M,M,M,M,M,M,4.40,KTMT 231635Z AUTO 34008KT 10SM SCT015 BKN025 OVC042 M09/M13 A2989 RMK AO2 T10891128,M
WMC,2022-02-23 16:35,-117.8072,40.9019,1315.00,16.00,10.00,76.77,330.00,10.00,T,30.00,M,4.00,M,BKN,BKN,OVC,M,2700.00,3600.00,4400.00,M,-SN,M,M,M,M,M,M,2.90,KWMC 231635Z AUTO 33010KT 4SM -SN BKN027 BKN036 OVC044 M09/M12 A3000 RMK AO2 SNB23 P0000 T10891122 TSNO,M
RTS,2022-02-23 16:35,-119.8764,39.6682,1539.00,M,M,M,M,M,0.00,M,M,M,M,M,M,M,M,M,M,M,M,M,M,M,M,M,M,M,M,KRTS 231635Z AUTO RMK AO2 PNO PWINO,M
MEV,2022-02-23 16:35,-119.7500,38.9963,1441.42,21.20,15.80,79.31,350.00,10.00,0.00,29.98,M,4.00,M,OVC,M,M,M,5500.00,M,M,M,-SN HZ,M,M,M,M,M,M,9.42,KMEV 231635Z AUTO 35010KT 4SM -SN HZ OVC055 M06/M09 A2998 RMK AO2,M
LSV,2022-02-23 16:36,-115.0343,36.2362,570.00,42.80,26.60,52.45,300.00,15.00,0.00,29.82,M,10.00,20.00,OVC,M,M,M,5000.00,M,M,M,-RA,M,M,M,M,M,M,34.78,KLSV 231636Z 30015G20KT 10SM -RA OVC050 06/M03 A2982 RMK AO2A RAB36 SLPNO $,M
EKO,2022-02-23 16:42,-115.7860,40.8242,1367.00,17.10,8.10,67.22,330.00,4.00,T,29.88,M,1.75,M,BKN,OVC,M,M,1900.00,3000.00,M,M,-SN,M,M,M,M,M,M,10.02,KEKO 231642Z AUTO 33004KT 1 3/4SM -SN BKN019 OVC030 M08/M13 A2988 RMK AO2 P0000 T10831133,M
LSV,2022-02-23 16:45,-115.0343,36.2362,570.00,42.80,26.60,52.45,290.00,13.00,0.00,29.82,M,10.00,M,BKN,M,M,M,5500.00,M,M,M,M,M,M,M,M,M,M,35.40,KLSV 231645Z 29013KT 10SM BKN055 06/M03 A2982 RMK AO2A RAB36E45 SLPNO $,M
ELY,2022-02-23 16:49,-114.8453,39.2950,1909.00,17.60,14.00,85.51,20.00,16.00,T,29.72,M,0.75,22.00,FEW,OVC,M,M,1000.00,1800.00,M,M,-SN BR,M,M,M,M,M,M,1.65,KELY 231649Z AUTO 02016G22KT 3/4SM -SN BR FEW010 OVC018 M08/M10 A2972 RMK AO2 P0000,M
05U,2022-02-23 16:50,-116.0051,39.6042,1811.23,17.60,8.60,67.28,340.00,9.00,0.00,29.83,M,10.00,M,OVC,M,M,M,3200.00,M,M,M,M,M,M,M,M,M,M,5.61,K05U 231650Z AUTO 34009KT 10SM OVC032 M08/M13 A2983 RMK A01,M
WMC,2022-02-23 16:53,-117.8072,40.9019,1315.00,17.60,8.60,67.28,330.00,11.00,T,30.00,M,9.00,M,BKN,BKN,OVC,M,3300.00,4500.00,5000.00,M,M,M,M,M,M,M,M,4.27,KWMC 231653Z AUTO 33011KT 9SM BKN033 BKN045 OVC050 M08/M13 A3000 RMK AO2 SNB23E40 P0000 TSNO,M
DRA,2022-02-23 16:53,-116.0278,36.6206,1009.00,32.00,27.00,81.55,0.00,0.00,0.00,29.82,1009.60,10.00,M,BKN,M,M,M,6500.00,M,M,M,M,M,M,M,M,M,M,32.00,KDRA 231653Z AUTO 00000KT 10SM BKN065 00/M03 A2982 RMK AO2 SLP096 T00001028,M
VGT,2022-02-23 16:53,-115.1933,36.2111,667.00,41.00,25.00,52.61,M,M,0.00,29.82,1012.10,10.00,M,OVC,M,M,M,4300.00,M,M,M,M,M,M,M,M,M,M,M,KVGT 231653Z 10SM OVC043 05/M04 A2982 RMK AO2 SLP121 T00501039,M
P68,2022-02-23 16:53,-116.0056,39.6014,1993.00,18.00,9.00,67.33,350.00,10.00,0.00,29.81,1013.40,M,M,M,M,M,M,M,M,M,M,M,M,M,M,M,M,M,5.41,KP68 231653Z AUTO 35010KT M08/M13 A2981 RMK AO1 SLP134 T10781128,M
ELY,2022-02-23 16:53,-114.8453,39.2950,1909.00,18.00,14.00,84.05,10.00,17.00,0.01,29.72,1010.10,0.75,23.00,VV ,M,M,M,1600.00,M,M,M,-SN BR,M,M,M,M,M,M,1.73,KELY 231653Z AUTO 01017G23KT 3/4SM -SN BR VV016 M08/M10 A2972 RMK AO2 SLP101 P0001 T10781100,M
LOL,2022-02-23 16:53,-118.5701,40.0684,1192.43,23.00,12.90,64.75,330.00,13.00,0.00,30.03,1019.90,10.00,M,BKN,BKN,M,M,5000.00,7000.00,M,M,M,M,M,M,M,M,M,10.04,KLOL 231653Z AUTO 33013KT 10SM BKN050 BKN070 M05/M11 A3003 RMK AO2 SLP199 T10501106,M
EKO,2022-02-23 16:54,-115.7860,40.8242,1367.00,17.60,8.60,67.28,340.00,7.00,M,29.88,M,2.00,M,BKN,OVC,M,M,2299.00,3398.00,M,M,-SN,M,M,M,M,M,M,7.23,SPECI KEKO 231654Z 34007KT 2SM -SN BKN023 OVC034 M08/M13 A2988 RMK AO2 P0001 FIBI,M
BVU,2022-02-23 16:55,-114.8611,35.9475,671.00,42.80,21.20,41.84,230.00,12.00,0.00,29.83,M,10.00,M,FEW,FEW,SCT,M,3800.00,4400.00,5500.00,M,M,M,M,M,M,M,M,35.75,KBVU 231655Z AUTO 23012KT 10SM FEW038 FEW044 SCT055 06/M06 A2983 RMK AO2,M
HTH,2022-02-23 16:55,-118.6315,38.5448,1282.89,21.20,14.00,73.32,360.00,16.00,0.00,29.99,M,9.00,24.00,FEW,SCT,SCT,M,3100.00,4100.00,5500.00,M,M,M,M,M,M,M,M,6.34,KHTH 231655Z AUTO 36016G24KT 9SM FEW031 SCT041 SCT055 M06/M10 A2999 RMK A01,M
BAM,2022-02-23 16:55,-116.8743,40.5990,1382.36,21.20,10.40,62.53,0.00,0.00,0.00,29.97,M,10.00,M,OVC,M,M,M,4000.00,M,M,M,M,M,M,M,M,M,M,21.20,KBAM 231655Z AUTO 00000KT 10SM OVC040 M06/M12 A2997 RMK AO1,M
TMT,2022-02-23 16:55,-117.1971,39.4643,1749.34,15.60,10.00,78.12,340.00,6.00,0.00,29.89,M,1.50,M,BKN,OVC,M,M,1500.00,2100.00,M,M,-SN,M,M,M,M,M,M,5.78,KTMT 231655Z AUTO 34006KT 1 1/2SM -SN BKN015 OVC021 M09/M12 A2989 RMK AO2 T10911122,M
MEV,2022-02-23 16:55,-119.7500,38.9963,1441.42,21.20,15.80,79.31,340.00,8.00,0.00,29.99,M,4.00,M,BKN,OVC,M,M,5000.00,5500.00,M,M,-SN HZ,M,M,M,M,M,M,10.81,KMEV 231655Z AUTO 34008KT 4SM -SN HZ BKN050 OVC055 M06/M09 A2999 RMK AO2,M
RTS,2022-02-23 16:55,-119.8764,39.6682,1539.00,M,M,M,M,M,0.00,M,M,M,M,M,M,M,M,M,M,M,M,M,M,M,M,M,M,M,M,KRTS 231655Z AUTO RMK AO2 PNO PWINO,M
RNO,2022-02-23 16:55,-119.7711,39.4839,1341.00,23.00,12.90,64.75,340.00,8.00,0.00,30.02,1019.10,10.00,M,BKN,BKN,M,M,5000.00,9500.00,M,M,M,M,M,M,M,M,M,13.03,KRNO 231655Z 34008KT 10SM BKN050 BKN095 M05/M11 A3002 RMK AO2 SLP191 MTN TOPS OBSCD SW THRU NW T10501106 $,M
HND,2022-02-23 16:56,-115.1344,35.9729,742.79,40.00,26.10,57.47,230.00,11.00,0.00,29.83,1012.50,10.00,M,FEW,M,M,M,5000.00,M,M,M,M,M,M,M,M,M,M,32.45,KHND 231656Z 23011KT 10SM FEW050 04/M03 A2983 RMK AO2 SLP125 T00441033,M
LAS,2022-02-23 16:56,-115.1634,36.0719,663.00,41.00,24.10,50.67,190.00,5.00,0.00,29.83,1010.40,10.00,M,FEW,BKN,BKN,M,5000.00,6500.00,18000.00,M,M,M,M,M,M,M,M,37.08,KLAS 231656Z 19005KT 10SM FEW050 BKN065 BKN180 05/M04 A2983 RMK AO2 SLP104 VIRGA DSNT W-NW T00501044 $,M
TPH,2022-02-23 16:56,-117.0904,38.0505,1654.00,24.10,7.00,47.50,330.00,15.00,0.00,29.81,1011.70,10.00,23.00,CLR,M,M,M,M,M,M,M,M,M,M,M,M,M,M,10.54,KTPH 231656Z AUTO 33015G23KT 10SM CLR M04/M14 A2981 RMK AO2 SLP117 T10441139,M
WMC,2022-02-23 16:56,-117.8072,40.9019,1315.00,17.10,9.00,69.99,330.00,11.00,T,30.00,1019.80,10.00,M,BKN,BKN,OVC,M,3700.00,4500.00,5000.00,M,M,M,M,M,M,M,M,3.64,KWMC 231656Z AUTO 33011KT 10SM BKN037 BKN045 OVC050 M08/M13 A3000 RMK AO2 SNB23E40 SLP198 P0000 T10831128 TSNO,M
NFL,2022-02-23 16:56,-118.7010,39.4166,1199.00,24.10,14.00,64.89,10.00,11.00,0.00,30.01,1013.30,10.00,M,SCT,BKN,BKN,M,4500.00,8500.00,12000.00,M,M,M,M,M,M,M,M,12.48,KNFL 231656Z 01011KT 10SM SCT045 BKN085 BKN120 M04/M10 A3001 RMK AO2 SLP133 T10441100,M
EKO,2022-02-23 16:56,-115.7860,40.8242,1367.00,18.00,9.00,67.33,360.00,6.00,0.01,29.88,1017.10,2.00,M,BKN,OVC,M,M,2500.00,3400.00,M,M,-SN,M,M,M,M,M,M,8.67,KEKO 231656Z AUTO 36006KT 2SM -SN BKN025 OVC034 M08/M13 A2988 RMK AO2 SLP171 P0001 T10781128,M
LSV,2022-02-23 16:58,-115.0343,36.2362,570.00,42.30,25.90,51.94,290.00,13.00,T,29.82,M,10.00,M,BKN,M,M,M,5500.00,M,M,M,M,M,M,M,M,M,M,34.76,KLSV 231658Z AUTO 29013KT 10SM BKN055 06/M03 A2982 RMK AO2 RAB36E45 SLPNO P0000 T00571034 $,M
INS,2022-02-23 16:58,-115.6733,36.5872,955.00,36.00,27.10,69.80,260.00,9.00,0.00,29.82,1009.40,10.00,M,OVC,M,M,M,5000.00,M,M,M,M,M,M,M,M,M,M,28.49,KINS 231658Z AUTO 26009KT 10SM OVC050 02/M03 A2982 RMK AO2 SLP094 T00221027 $,M
ELY,2022-02-23 17:07,-114.8453,39.2950,1909.00,18.00,14.00,84.05,10.00,16.00,T,29.72,M,1.00,22.00,BKN,OVC,M,M,1700.00,2500.00,M,M,-SN BR,M,M,M,M,M,M,2.17,KELY 231707Z AUTO 01016G22KT 1SM -SN BR BKN017 OVC025 M08/M10 A2972 RMK AO2 P0000 T10781100,M
05U,2022-02-23 17:10,-116.0051,39.6042,1811.23,17.60,8.60,67.28,10.00,9.00,0.00,29.84,M,10.00,M,OVC,M,M,M,3000.00,M,M,M,M,M,M,M,M,M,M,5.61,K05U 231710Z AUTO 01009KT 10SM OVC030 M08/M13 A2984 RMK A01,M
MEV,2022-02-23 17:15,-119.7500,38.9963,1441.42,21.20,15.80,79.31,340.00,7.00,0.00,30.00,M,3.00,M,SCT,BKN,M,M,3500.00,5000.00,M,M,-SN HZ,M,M,M,M,M,M,11.61,KMEV 231715Z AUTO 34007KT 3SM -SN HZ SCT035 BKN050 M06/M09 A3000 RMK AO2,M
RTS,2022-02-23 17:15,-119.8764,39.6682,1539.00,M,M,M,M,M,0.00,M,M,M,M,M,M,M,M,M,M,M,M,M,M,M,M,M,M,M,M,KRTS 231715Z AUTO RMK AO2 PNO PWINO,M
BVU,2022-02-23 17:15,-114.8611,35.9475,671.00,42.80,21.20,41.84,250.00,11.00,0.00,29.84,M,10.00,M,CLR,M,M,M,M,M,M,M,M,M,M,M,M,M,M,36.11,KBVU 231715Z AUTO 25011KT 220V280 10SM CLR 06/M06 A2984 RMK AO2,M
TMT,2022-02-23 17:15,-117.1971,39.4643,1749.34,15.60,9.30,75.71,340.00,6.00,0.00,29.89,M,3.00,M,SCT,BKN,OVC,M,1300.00,2100.00,2900.00,M,-SN,M,M,M,M,M,M,5.78,KTMT 231715Z AUTO 34006KT 3SM -SN SCT013 BKN021 OVC029 M09/M13 A2989 RMK AO2 T10911126,M
BAM,2022-02-23 17:15,-116.8743,40.5990,1382.36,21.20,8.60,57.69,330.00,10.00,0.00,29.97,M,10.00,M,BKN,OVC,M,M,3500.00,4400.00,M,M,M,M,M,M,M,M,M,9.42,KBAM 231715Z AUTO 33010KT 10SM BKN035 OVC044 M06/M13 A2997 RMK AO1,M
HTH,2022-02-23 17:15,-118.6315,38.5448,1282.89,23.00,14.00,67.96,360.00,16.00,0.00,30.01,M,9.00,22.00,BKN,BKN,OVC,M,3300.00,4100.00,8000.00,M,M,M,M,M,M,M,M,8.69,KHTH 231715Z AUTO 36016G22KT 9SM BKN033 BKN041 OVC080 M05/M10 A3001 RMK A01,M
ELY,2022-02-23 17:18,-114.8453,39.2950,1909.00,18.00,14.00,84.05,20.00,15.00,T,29.73,M,1.75,M,BKN,BKN,OVC,M,2100.00,3000.00,3600.00,M,-SN BR,M,M,M,M,M,M,2.63,KELY 231718Z AUTO 02015KT 1 3/4SM -SN BR BKN021 BKN030 OVC036 M08/M10 A2973 RMK AO2 P0000 T10781100,M
EKO,2022-02-23 17:23,-115.7860,40.8242,1367.00,18.00,8.10,64.66,10.00,8.00,T,29.88,M,3.00,M,BKN,OVC,M,M,3100.00,4000.00,M,M,-SN,M,M,M,M,M,M,6.87,KEKO 231723Z AUTO 01008KT 3SM -SN BKN031 OVC040 M08/M13 A2988 RMK AO2 P0000 T10781133,M
05U,2022-02-23 17:30,-116.0051,39.6042,1811.23,17.60,8.60,67.28,350.00,11.00,0.00,29.84,M,10.00,M,OVC,M,M,M,3200.00,M,M,M,M,M,M,M,M,M,M,4.27,K05U 231730Z AUTO 35011KT 10SM OVC032 M08/M13 A2984 RMK A01,M
RTS,2022-02-23 17:35,-119.8764,39.6682,1539.00,M,M,M,M,M,0.00,M,M,M,M,M,M,M,M,M,M,M,M,M,M,M,M,M,M,M,M,KRTS 231735Z AUTO RMK AO2 PNO PWINO,M
MEV,2022-02-23 17:35,-119.7500,38.9963,1441.42,21.20,17.60,85.74,320.00,9.00,0.00,30.00,M,10.00,M,FEW,BKN,OVC,M,2500.00,3400.00,5500.00,M,UP,M,M,M,M,M,M,10.08,KMEV 231735Z AUTO 32009KT 10SM UP FEW025 BKN034 OVC055 M06/M08 A3000 RMK AO2,M
BAM,2022-02-23 17:35,-116.8743,40.5990,1382.36,23.00,10.40,57.96,350.00,16.00,0.00,29.98,M,10.00,21.00,SCT,OVC,M,M,3400.00,4400.00,M,M,M,M,M,M,M,M,M,8.69,KBAM 231735Z AUTO 35016G21KT 10SM SCT034 OVC044 M05/M12 A2998 RMK AO1,M
HTH,2022-02-23 17:35,-118.6315,38.5448,1282.89,23.00,14.00,67.96,350.00,15.00,0.00,30.01,M,10.00,21.00,BKN,OVC,M,M,3400.00,4000.00,M,M,M,M,M,M,M,M,M,9.11,KHTH 231735Z AUTO 35015G21KT 10SM BKN034 OVC040 M05/M10 A3001 RMK A01,M
BVU,2022-02-23 17:35,-114.8611,35.9475,671.00,44.60,23.00,42.14,220.00,14.00,0.00,29.84,M,10.00,19.00,FEW,M,M,M,12000.00,M,M,M,M,M,M,M,M,M,M,37.40,KBVU 231735Z AUTO 22014G19KT 10SM FEW120 07/M05 A2984 RMK AO2,M
TMT,2022-02-23 17:35,-117.1971,39.4643,1749.34,18.10,10.20,70.74,310.00,6.00,0.00,29.90,M,4.00,M,BKN,OVC,M,M,1500.00,2100.00,M,M,-SN,M,M,M,M,M,M,8.79,KTMT 231735Z AUTO 31006KT 4SM -SN BKN015 OVC021 M08/M12 A2990 RMK AO2 T10771121,M
ELY,2022-02-23 17:44,-114.8453,39.2950,1909.00,19.00,14.00,80.52,10.00,16.00,T,29.73,M,2.50,21.00,BKN,OVC,M,M,2800.00,3800.00,M,M,-SN,M,M,M,M,M,M,3.47,KELY 231744Z AUTO 01016G21KT 2 1/2SM -SN BKN028 OVC038 M07/M10 A2973 RMK AO2 P0000 T10721100,M
EKO,2022-02-23 17:48,-115.7860,40.8242,1367.00,19.00,9.00,64.50,360.00,6.00,T,29.89,M,4.00,M,BKN,BKN,OVC,M,2700.00,3300.00,4300.00,M,HZ,M,M,M,M,M,M,9.87,KEKO 231748Z AUTO 36006KT 4SM HZ BKN027 BKN033 OVC043 M07/M13 A2989 RMK AO2 SNE48 P0000 T10721128,M
DRA,2022-02-23 17:53,-116.0278,36.6206,1009.00,35.00,27.00,72.04,250.00,5.00,0.00,29.83,1009.90,10.00,M,CLR,M,M,M,M,M,M,M,M,M,M,M,M,M,M,30.08,KDRA 231753Z AUTO 25005KT 10SM CLR 02/M03 A2983 RMK AO2 SLP099 60003 T00171028 10017 21017 51019,M
LOL,2022-02-23 17:53,-118.5701,40.0684,1192.43,26.10,16.00,65.16,350.00,15.00,0.00,30.04,1020.20,10.00,M,OVC,M,M,M,4600.00,M,M,M,M,M,M,M,M,M,M,13.13,KLOL 231753Z AUTO 35015KT 10SM OVC046 M03/M09 A3004 RMK AO2 SLP202 T10331089 11033 21083 51023,M
P68,2022-02-23 17:53,-116.0056,39.6014,1993.00,19.00,7.00,58.94,360.00,12.00,0.00,29.83,1013.80,M,M,M,M,M,M,M,M,M,M,M,M,M,M,M,M,M,5.46,KP68 231753Z AUTO 36012KT M07/M14 A2983 RMK AO1 SLP138 T10721139 11067 21089 51018,M
ELY,2022-02-23 17:53,-114.8453,39.2950,1909.00,19.00,14.00,80.52,10.00,16.00,T,29.74,1010.80,2.50,M,BKN,OVC,M,M,2800.00,3800.00,M,M,-SN,M,M,M,M,M,M,3.47,KELY 231753Z AUTO 01016KT 2 1/2SM -SN BKN028 OVC038 M07/M10 A2974 RMK AO2 SLP108 P0000 60004 T10721100 11072 21083 53011,M
VGT,2022-02-23 17:53,-115.1933,36.2111,667.00,M,M,M,M,M,0.00,29.82,M,M,M,M,M,M,M,M,M,M,M,M,M,M,M,M,M,M,M,KVGT 231753Z A2982 RMK AO2 SLPNO $,M
RTS,2022-02-23 17:55,-119.8764,39.6682,1539.00,M,M,M,M,M,0.00,M,M,M,M,M,M,M,M,M,M,M,M,M,M,M,M,M,M,M,M,KRTS 231755Z AUTO RMK AO2 PNO PWINO,M
BVU,2022-02-23 17:55,-114.8611,35.9475,671.00,42.80,24.80,48.67,210.00,11.00,0.00,29.84,M,10.00,M,SCT,SCT,M,M,5500.00,12000.00,M,M,M,M,M,M,M,M,M,36.11,KBVU 231755Z AUTO 21011KT 10SM SCT055 SCT120 06/M04 A2984 RMK AO2,M
05U,2022-02-23 17:55,-116.0051,39.6042,1811.23,19.40,6.80,57.41,360.00,11.00,0.00,29.85,M,10.00,M,OVC,M,M,M,3400.00,M,M,M,M,M,M,M,M,M,M,6.54,K05U 231755Z AUTO 36011KT 10SM OVC034 M07/M14 A2985 RMK A01,M
MEV,2022-02-23 17:55,-119.7500,38.9963,1441.42,23.00,15.80,73.51,340.00,7.00,0.00,30.01,M,10.00,M,FEW,BKN,BKN,M,2800.00,3300.00,3900.00,M,UP,M,M,M,M,M,M,13.81,KMEV 231755Z AUTO 34007KT 10SM UP FEW028 BKN033 BKN039 M05/M09 A3001 RMK AO2,M
TMT,2022-02-23 17:55,-117.1971,39.4643,1749.34,18.30,7.50,62.12,320.00,6.00,0.00,29.90,M,10.00,M,SCT,BKN,OVC,M,1200.00,2600.00,5000.00,M,M,M,M,M,M,M,M,9.03,KTMT 231755Z AUTO 32006KT 10SM SCT012 BKN026 OVC050 M08/M14 A2990 RMK AO2 T10761136 11076 21098,M
BAM,2022-02-23 17:55,-116.8743,40.5990,1382.36,23.00,10.40,57.96,320.00,9.00,0.00,29.99,M,10.00,12.00,OVC,M,M,M,3400.00,M,M,M,M,M,M,M,M,M,M,12.32,KBAM 231755Z AUTO 32009G12KT 10SM OVC034 M05/M12 A2999 RMK AO1,M
RNO,2022-02-23 17:55,-119.7711,39.4839,1341.00,24.10,12.00,59.42,10.00,9.00,0.00,30.02,1019.10,10.00,M,SCT,SCT,M,M,3000.00,5500.00,M,M,M,M,M,M,M,M,M,13.69,KRNO 231755Z 01009KT 10SM SCT030 SCT055 M04/M11 A3002 RMK AO2 SLP191 MTN TOPS OBSCD SW THRU W 4/003 933003 60000 T10441111 11033 21061 51020 $,3
HTH,2022-02-23 17:55,-118.6315,38.5448,1282.89,23.00,14.00,67.96,350.00,19.00,0.00,30.02,M,10.00,M,BKN,OVC,M,M,3500.00,4100.00,M,M,M,M,M,M,M,M,M,7.54,KHTH 231755Z AUTO 35019KT 10SM BKN035 OVC041 M05/M10 A3002 RMK A01,M
LAS,2022-02-23 17:56,-115.1634,36.0719,663.00,43.00,23.00,44.80,60.00,4.00,0.00,29.83,1010.40,10.00,M,FEW,BKN,BKN,M,5000.00,6500.00,18000.00,M,M,M,M,M,M,M,M,40.27,KLAS 231756Z 06004KT 10SM FEW050 BKN065 BKN180 06/M05 A2983 RMK AO2 SLP104 VIRGA DSNT W-NW T00611050 10061 20039 51016 $,M
WMC,2022-02-23 17:56,-117.8072,40.9019,1315.00,19.00,9.00,64.50,340.00,12.00,0.00,30.02,1020.40,10.00,M,BKN,M,M,M,6500.00,M,M,M,M,M,M,M,M,M,M,5.46,KWMC 231756Z AUTO 34012KT 10SM BKN065 M07/M13 A3002 RMK AO2 SLP204 60000 T10721128 11072 21111 53009 TSNO,M
NFL,2022-02-23 17:56,-118.7010,39.4166,1199.00,25.00,12.90,59.55,360.00,6.00,0.00,30.03,1013.90,10.00,M,FEW,BKN,BKN,M,3000.00,5000.00,12000.00,M,M,M,M,M,M,M,M,17.10,KNFL 231756Z 36006KT 10SM FEW030 BKN050 BKN120 M04/M11 A3003 RMK AO2 SLP139 T10391106 11039 21067 51022,M
HND,2022-02-23 17:56,-115.1344,35.9729,742.79,42.00,26.10,52.78,200.00,7.00,0.00,29.84,1012.80,10.00,M,FEW,BKN,M,M,4900.00,6000.00,M,M,M,M,M,M,M,M,M,37.09,KHND 231756Z 20007KT 10SM FEW049 BKN060 06/M03 A2984 RMK AO2 SLP128 T00561033 10056 20022 51015,M
EKO,2022-02-23 17:56,-115.7860,40.8242,1367.00,19.90,10.00,64.91,20.00,7.00,T,29.89,1017.20,4.00,M,BKN,BKN,OVC,M,2500.00,3000.00,3700.00,M,-SN,M,M,M,M,M,M,10.03,KEKO 231756Z AUTO 02007KT 4SM -SN BKN025 BKN030 OVC037 M07/M12 A2989 RMK AO2 SNE48B52 SLP172 P0000 60002 T10671122 11067 21094 53009,M
TPH,2022-02-23 17:56,-117.0904,38.0505,1654.00,27.00,9.00,46.08,330.00,21.00,0.00,29.82,1011.60,10.00,31.00,CLR,M,M,M,M,M,M,M,M,M,M,M,31.00,340.00,2022-02-23 17:52,12.18,KTPH 231756Z AUTO 33021G31KT 10SM CLR M03/M13 A2982 RMK AO2 PK WND 34031/1752 SLP116 T10281128 11028 21083 51016,M
INS,2022-02-23 17:58,-115.6733,36.5872,955.00,36.50,25.50,64.05,260.00,9.00,0.00,29.83,1009.80,10.00,M,FEW,OVC,M,M,2800.00,5500.00,M,M,M,M,M,M,M,M,M,29.11,KINS 231758Z AUTO 26009KT 10SM FEW028 OVC055 03/M04 A2983 RMK AO2 SLP098 60000 T00251036 10029 21009 52022 $,M
LSV,2022-02-23 17:58,-115.0343,36.2362,570.00,43.50,24.60,46.99,270.00,17.00,0.00,29.82,M,10.00,21.00,FEW,FEW,M,M,4800.00,6000.00,M,M,M,M,M,M,M,M,M,35.14,KLSV 231758Z AUTO 27017G21KT 10SM FEW048 FEW060 06/M04 A2982 RMK AO2 SLPNO 60000 T00641041 10064 20030 51014 $,M
LSV,2022-02-23 17:59,-115.0343,36.2362,570.00,44.60,24.80,45.44,240.00,15.00,0.00,29.83,M,10.00,21.00,FEW,FEW,M,M,4800.00,6000.00,M,M,M,M,M,M,M,M,M,37.11,KLSV 231759Z AUTO 24015G21KT 10SM FEW048 FEW060 07/M04 A2983 RMK AO2 WSHFT 56 SLPNO $,M
EKO,2022-02-23 18:07,-115.7860,40.8242,1367.00,19.90,10.00,64.91,20.00,7.00,T,29.89,M,1.75,M,OVC,M,M,M,2300.00,M,M,M,-SN,M,M,M,M,M,M,10.03,KEKO 231807Z AUTO 02007KT 1 3/4SM -SN OVC023 M07/M12 A2989 RMK AO2 P0000 T10671122,M
05U,2022-02-23 18:10,-116.0051,39.6042,1811.23,21.20,6.80,53.18,340.00,9.00,0.00,29.86,M,9.00,M,OVC,M,M,M,3400.00,M,M,M,M,M,M,M,M,M,M,10.08,K05U 231810Z AUTO 34009KT 9SM OVC034 M06/M14 A2986 RMK A01,M
BVU,2022-02-23 18:15,-114.8611,35.9475,671.00,44.60,24.80,45.44,210.00,11.00,0.00,29.84,M,10.00,M,FEW,FEW,M,M,5000.00,5500.00,M,M,M,M,M,M,M,M,M,38.39,KBVU 231815Z AUTO 21011KT 10SM FEW050 FEW055 07/M04 A2984 RMK AO2,M
TMT,2022-02-23 18:15,-117.1971,39.4643,1749.34,17.20,7.50,65.14,320.00,5.00,0.00,29.91,M,10.00,M,SCT,OVC,M,M,2600.00,5000.00,M,M,M,M,M,M,M,M,M,8.82,KTMT 231815Z AUTO 32005KT 10SM SCT026 OVC050 M08/M14 A2991 RMK AO2 T10821136,M
MEV,2022-02-23 18:15,-119.7500,38.9963,1441.42,23.00,15.80,73.51,330.00,7.00,0.00,30.01,M,9.00,M,FEW,SCT,BKN,M,1600.00,2600.00,5500.00,M,-SN,M,M,M,M,M,M,13.81,KMEV 231815Z AUTO 33007KT 9SM -SN FEW016 SCT026 BKN055 M05/M09 A3001 RMK AO2,M
RTS,2022-02-23 18:15,-119.8764,39.6682,1539.00,M,M,M,M,M,0.00,M,M,M,M,M,M,M,M,M,M,M,M,M,M,M,M,M,M,M,M,KRTS 231815Z AUTO RMK AO2 PNO PWINO,M
HTH,2022-02-23 18:15,-118.6315,38.5448,1282.89,23.00,15.80,73.51,350.00,17.00,0.00,30.02,M,10.00,M,BKN,OVC,M,M,3500.00,4100.00,M,M,M,M,M,M,M,M,M,8.28,KHTH 231815Z AUTO 35017KT 10SM BKN035 OVC041 M05/M09 A3002 RMK A01,M
BAM,2022-02-23 18:15,-116.8743,40.5990,1382.36,23.00,14.00,67.96,330.00,9.00,0.00,29.99,M,10.00,M,OVC,M,M,M,3400.00,M,M,M,M,M,M,M,M,M,M,12.32,KBAM 231815Z AUTO 33009KT 10SM OVC034 M05/M10 A2999 RMK AO1,M
EKO,2022-02-23 18:18,-115.7860,40.8242,1367.00,19.90,10.00,64.91,20.00,5.00,T,29.90,M,2.50,M,OVC,M,M,M,2100.00,M,M,M,-SN,M,M,M,M,M,M,12.03,KEKO 231818Z AUTO 02005KT 2 1/2SM -SN OVC021 M07/M12 A2990 RMK AO2 P0000 T10671122,M
ELY,2022-02-23 18:23,-114.8453,39.2950,1909.00,19.00,14.00,80.52,30.00,18.00,T,29.75,M,3.00,22.00,BKN,OVC,M,M,2200.00,3100.00,M,M,-SN,M,M,M,M,M,M,2.64,KELY 231823Z AUTO 03018G22KT 3SM -SN BKN022 OVC031 M07/M10 A2975 RMK AO2 P0000 T10721100,M
ELY,2022-02-23 18:32,-114.8453,39.2950,1909.00,19.00,14.00,80.52,20.00,17.00,T,29.75,M,2.50,M,FEW,BKN,OVC,M,1100.00,2200.00,2700.00,M,-SN,M,M,M,M,M,M,3.04,KELY 231832Z AUTO 02017KT 2 1/2SM -SN FEW011 BKN022 OVC027 M07/M10 A2975 RMK AO2 P0000 T10721100,M
INS,2022-02-23 18:33,-115.6733,36.5872,955.00,39.20,24.80,55.95,250.00,7.00,0.00,29.84,1010.10,10.00,M,FEW,SCT,M,M,3700.00,6000.00,M,M,M,M,M,M,M,M,M,33.56,KINS 231833Z AUTO 25007KT 10SM FEW037 SCT060 04/M04 A2984 RMK AO2 SLP101 $,M
TMT,2022-02-23 18:35,-117.1971,39.4643,1749.34,19.00,7.20,59.47,320.00,9.00,0.00,29.92,M,10.00,M,SCT,SCT,BKN,M,2300.00,2800.00,5000.00,M,M,M,M,M,M,M,M,7.35,KTMT 231835Z AUTO 32009KT 10SM SCT023 SCT028 BKN050 M07/M14 A2992 RMK AO2 T10721138,M
BVU,2022-02-23 18:35,-114.8611,35.9475,671.00,44.60,24.80,45.44,200.00,11.00,0.00,29.84,M,10.00,M,SCT,BKN,BKN,M,4300.00,4900.00,5500.00,M,M,M,M,M,M,M,M,38.39,KBVU 231835Z AUTO 20011KT 10SM SCT043 BKN049 BKN055 07/M04 A2984 RMK AO2,M
EKO,2022-02-23 18:35,-115.7860,40.8242,1367.00,19.90,8.10,59.60,40.00,4.00,T,29.90,M,6.00,M,BKN,OVC,M,M,1900.00,3500.00,M,M,-SN,M,M,M,M,M,M,13.29,KEKO 231835Z AUTO 04004KT 6SM -SN BKN019 OVC035 M07/M13 A2990 RMK AO2 P0000 T10671133,M
RTS,2022-02-23 18:35,-119.8764,39.6682,1539.00,M,M,M,M,M,0.00,M,M,M,M,M,M,M,M,M,M,M,M,M,M,M,M,M,M,M,M,KRTS 231835Z AUTO RMK AO2 PNO PWINO,M
05U,2022-02-23 18:35,-116.0051,39.6042,1811.23,21.20,6.80,53.18,360.00,9.00,0.00,29.87,M,10.00,M,OVC,M,M,M,3100.00,M,M,M,M,M,M,M,M,M,M,10.08,K05U 231835Z AUTO 36009KT 10SM OVC031 M06/M14 A2987 RMK A01,M
MEV,2022-02-23 18:35,-119.7500,38.9963,1441.42,23.00,15.80,73.51,340.00,6.00,0.00,30.01,M,10.00,M,FEW,SCT,BKN,M,2600.00,3400.00,4200.00,M,M,M,M,M,M,M,M,14.69,KMEV 231835Z AUTO 34006KT 10SM FEW026 SCT034 BKN042 M05/M09 A3001 RMK AO2,M
BAM,2022-02-23 18:35,-116.8743,40.5990,1382.36,23.00,14.00,67.96,310.00,9.00,0.00,29.99,M,10.00,M,SCT,OVC,M,M,2500.00,3400.00,M,M,M,M,M,M,M,M,M,12.32,KBAM 231835Z AUTO 31009KT 10SM SCT025 OVC034 M05/M10 A2999 RMK AO1,M
HTH,2022-02-23 18:35,-118.6315,38.5448,1282.89,24.80,15.80,68.18,360.00,17.00,0.00,30.03,M,10.00,22.00,BKN,OVC,M,M,3000.00,3700.00,M,M,M,M,M,M,M,M,M,10.64,KHTH 231835Z AUTO 36017G22KT 10SM BKN030 OVC037 M04/M09 A3003 RMK A01,M
ELY,2022-02-23 18:45,-114.8453,39.2950,1909.00,19.90,15.10,81.30,20.00,15.00,T,29.76,M,1.75,23.00,FEW,BKN,OVC,M,1200.00,2200.00,2800.00,M,-SN,M,M,M,M,M,M,5.09,KELY 231845Z AUTO 02015G23KT 1 3/4SM -SN FEW012 BKN022 OVC028 M07/M09 A2976 RMK AO2 P0000 T10671094,M
NFL,2022-02-23 18:47,-118.7010,39.4166,1199.00,25.00,14.00,62.50,350.00,10.00,T,30.04,M,2.00,M,SCT,BKN,BKN,M,2000.00,2700.00,8000.00,M,-SN,M,M,M,M,M,M,14.19,KNFL 231847Z 35010KT 2SM -SN SCT020 BKN027 BKN080 M04/M10 A3004 RMK AO2 SNB31 VIS SW-NW-N 8 P0000 T10391100,M
05U,2022-02-23 18:50,-116.0051,39.6042,1811.23,19.40,6.80,57.41,360.00,7.00,0.00,29.87,M,10.00,M,OVC,M,M,M,3200.00,M,M,M,M,M,M,M,M,M,M,9.42,K05U 231850Z AUTO 36007KT 10SM OVC032 M07/M14 A2987 RMK A01,M
ELY,2022-02-23 18:53,-114.8453,39.2950,1909.00,19.00,14.00,80.52,10.00,16.00,0.01,29.76,1011.50,2.50,M,FEW,BKN,OVC,M,1200.00,2500.00,3700.00,M,-SN,M,M,M,M,M,M,3.47,KELY 231853Z AUTO 01016KT 2 1/2SM -SN FEW012 BKN025 OVC037 M07/M10 A2976 RMK AO2 SLP115 P0001 T10721100,M
P68,2022-02-23 18:53,-116.0056,39.6014,1993.00,19.90,8.10,59.60,350.00,8.00,0.00,29.85,1014.40,M,M,M,M,M,M,M,M,M,M,M,M,M,M,M,M,M,9.21,KP68 231853Z AUTO 35008KT M07/M13 A2985 RMK AO1 SLP144 T10671133,M
DRA,2022-02-23 18:53,-116.0278,36.6206,1009.00,39.00,23.00,52.30,320.00,7.00,0.00,29.84,1010.20,10.00,M,CLR,M,M,M,M,M,M,M,M,M,M,M,M,M,M,33.31,KDRA 231853Z AUTO 32007KT 10SM CLR 04/M05 A2984 RMK AO2 SLP102 T00391050,M
LOL,2022-02-23 18:53,-118.5701,40.0684,1192.43,25.00,12.00,57.23,340.00,14.00,0.00,30.05,1020.80,10.00,M,OVC,M,M,M,3800.00,M,M,M,M,M,M,M,M,M,M,12.14,KLOL 231853Z AUTO 34014KT 10SM OVC038 M04/M11 A3005 RMK AO2 SLP208 T10391111,M
BVU,2022-02-23 18:55,-114.8611,35.9475,671.00,42.80,23.00,45.14,310.00,3.00,0.00,29.84,M,10.00,M,SCT,BKN,BKN,M,4500.00,6000.00,6500.00,M,M,M,M,M,M,M,M,41.03,KBVU 231855Z AUTO 31003KT 10SM SCT045 BKN060 BKN065 06/M05 A2984 RMK AO2,M
RNO,2022-02-23 18:55,-119.7711,39.4839,1341.00,25.00,12.90,59.55,20.00,7.00,0.00,30.04,1019.80,10.00,M,SCT,M,M,M,5000.00,M,M,M,M,M,M,M,M,M,M,16.25,KRNO 231855Z 02007KT 10SM SCT050 M04/M11 A3004 RMK AO2 SLP198 MTN TOPS OBSCD DSNT SW T10391106 $,M
RTS,2022-02-23 18:55,-119.8764,39.6682,1539.00,M,M,M,M,M,0.00,M,M,M,M,M,M,M,M,M,M,M,M,M,M,M,M,M,M,M,M,KRTS 231855Z AUTO RMK AO2 PNO PWINO,M
MEV,2022-02-23 18:55,-119.7500,38.9963,1441.42,24.80,15.80,68.18,330.00,7.00,0.00,30.01,M,10.00,M,FEW,SCT,BKN,M,2500.00,3000.00,3600.00,M,M,M,M,M,M,M,M,16.00,KMEV 231855Z AUTO 33007KT 10SM FEW025 SCT030 BKN036 M04/M09 A3001 RMK AO2,M
BAM,2022-02-23 18:55,-116.8743,40.5990,1382.36,23.00,12.20,62.78,310.00,10.00,0.00,30.00,M,10.00,14.00,BKN,OVC,M,M,3100.00,3700.00,M,M,M,M,M,M,M,M,M,11.68,KBAM 231855Z AUTO 31010G14KT 300V360 10SM BKN031 OVC037 M05/M11 A3000 RMK AO1,M
HTH,2022-02-23 18:55,-118.6315,38.5448,1282.89,24.80,14.00,63.03,360.00,17.00,0.00,30.03,M,10.00,23.00,BKN,OVC,M,M,2800.00,3300.00,M,M,M,M,M,M,M,M,M,10.64,KHTH 231855Z AUTO 36017G23KT 10SM BKN028 OVC033 M04/M10 A3003 RMK A01,M
TMT,2022-02-23 18:55,-117.1971,39.4643,1749.34,20.70,8.60,58.92,320.00,10.00,0.00,29.92,M,10.00,M,BKN,M,M,M,2800.00,M,M,M,M,M,M,M,M,M,M,8.80,KTMT 231855Z AUTO 32010KT 10SM BKN028 M06/M13 A2992 RMK AO2 T10631130,M
LAS,2022-02-23 18:56,-115.1634,36.0719,663.00,46.00,21.00,36.72,280.00,6.00,0.00,29.83,1010.20,10.00,M,FEW,BKN,BKN,M,4700.00,7500.00,18000.00,M,M,M,M,M,M,M,M,42.39,KLAS 231856Z 28006KT 10SM FEW047 BKN075 BKN180 08/M06 A2983 RMK AO2 SLP102 SHSN DSNT N AND W T00781061 $,M
EKO,2022-02-23 18:56,-115.7860,40.8242,1367.00,21.90,8.10,54.75,20.00,3.00,T,29.90,1017.60,10.00,M,BKN,OVC,M,M,2500.00,3500.00,M,M,M,M,M,M,M,M,M,17.14,KEKO 231856Z AUTO 02003KT 10SM BKN025 OVC035 M06/M13 A2990 RMK AO2 SNE38 SLP176 P0000 T10561133,M
WMC,2022-02-23 18:56,-117.8072,40.9019,1315.00,21.90,10.00,59.63,360.00,13.00,0.00,30.03,1020.70,10.00,M,FEW,BKN,BKN,M,5500.00,7500.00,11000.00,M,M,M,M,M,M,M,M,8.63,KWMC 231856Z AUTO 36013KT 10SM FEW055 BKN075 BKN110 M06/M12 A3003 RMK AO2 SLP207 T10561122 TSNO,M
NFL,2022-02-23 18:56,-118.7010,39.4166,1199.00,25.00,14.00,62.50,360.00,9.00,T,30.04,1014.20,2.00,M,SCT,BKN,BKN,M,2700.00,3400.00,8000.00,M,-SN,M,M,M,M,M,M,14.81,KNFL 231856Z 36009KT 2SM -SN SCT027 BKN034 BKN080 M04/M10 A3004 RMK AO2 SNB31 SLP142 VIS SW-NW-N 8 P0000 T10391100,M
HND,2022-02-23 18:56,-115.1344,35.9729,742.79,46.00,23.00,39.96,M,6.00,0.00,29.84,1012.80,10.00,M,FEW,SCT,BKN,M,3800.00,4600.00,6500.00,M,M,M,M,M,M,M,M,42.39,KHND 231856Z VRB06KT 10SM FEW038 SCT046 BKN065 08/M05 A2984 RMK AO2 SLP128 T00781050,M
TPH,2022-02-23 18:56,-117.0904,38.0505,1654.00,28.00,7.00,40.41,330.00,24.00,0.00,29.83,1012.70,10.00,32.00,CLR,M,M,M,M,M,M,M,M,M,M,M,33.00,320.00,2022-02-23 18:20,12.66,KTPH 231856Z AUTO 33024G32KT 10SM CLR M02/M14 A2983 RMK AO2 PK WND 32033/1820 SLP127 T10221139,M
INS,2022-02-23 18:58,-115.6733,36.5872,955.00,40.00,19.20,42.98,290.00,11.00,0.00,29.84,1010.30,10.00,M,CLR,M,M,M,M,M,M,M,M,M,M,M,M,M,M,32.45,KINS 231858Z AUTO 29011KT 10SM CLR 04/M07 A2984 RMK AO2 SLP103 T00441071 $,M
LSV,2022-02-23 18:58,-115.0343,36.2362,570.00,48.00,23.00,37.06,290.00,14.00,0.00,29.82,1009.80,10.00,18.00,BKN,M,M,M,7500.00,M,M,M,M,M,M,M,M,M,M,41.79,KLSV 231858Z AUTO 29014G18KT 10SM BKN075 09/M05 A2982 RMK AO2 SLP098 T00891050 $,M
ELY,2022-02-23 19:00,-114.8453,39.2950,1909.00,19.00,14.00,80.52,20.00,16.00,T,29.76,M,4.00,M,FEW,BKN,OVC,M,1100.00,2700.00,3700.00,M,-SN,M,M,M,M,M,M,3.47,KELY 231900Z AUTO 02016KT 4SM -SN FEW011 BKN027 OVC037 M07/M10 A2976 RMK AO2 P0000 T10721100,M
NFL,2022-02-23 19:03,-118.7010,39.4166,1199.00,26.10,14.00,59.71,360.00,9.00,T,30.04,M,9.00,M,SCT,BKN,BKN,M,2700.00,3700.00,8000.00,M,M,M,M,M,M,M,M,16.18,KNFL 231903Z 36009KT 9SM SCT027 BKN037 BKN080 M03/M10 A3004 RMK AO2 SNE00 P0000 T10331100,M
EKO,2022-02-23 19:14,-115.7860,40.8242,1367.00,21.00,8.10,56.88,300.00,7.00,0.00,29.90,M,10.00,M,FEW,BKN,OVC,M,2200.00,3000.00,5500.00,M,M,M,M,M,M,M,M,11.37,KEKO 231914Z AUTO 30007KT 10SM FEW022 BKN030 OVC055 M06/M13 A2990 RMK AO2 T10611133,M
05U,2022-02-23 19:15,-116.0051,39.6042,1811.23,21.20,6.80,53.18,350.00,9.00,0.00,29.87,M,10.00,M,OVC,M,M,M,3200.00,M,M,M,M,M,M,M,M,M,M,10.08,K05U 231915Z AUTO 35009KT 10SM OVC032 M06/M14 A2987 RMK A01,M
RTS,2022-02-23 19:15,-119.8764,39.6682,1539.00,M,M,M,M,M,0.00,M,M,M,M,M,M,M,M,M,M,M,M,M,M,M,M,M,M,M,M,KRTS 231915Z AUTO RMK AO2 PNO PWINO,M
BVU,2022-02-23 19:15,-114.8611,35.9475,671.00,42.80,24.80,48.67,M,6.00,0.00,29.84,M,10.00,M,BKN,BKN,BKN,M,4500.00,5500.00,6500.00,M,M,M,M,M,M,M,M,38.54,KBVU 231915Z AUTO VRB06KT 10SM BKN045 BKN055 BKN065 06/M04 A2984 RMK AO2,M
HTH,2022-02-23 19:15,-118.6315,38.5448,1282.89,24.80,15.80,68.18,350.00,17.00,0.00,30.03,M,8.00,25.00,BKN,OVC,M,M,2800.00,3200.00,M,M,M,M,M,M,M,M,M,10.64,KHTH 231915Z AUTO 35017G25KT 8SM BKN028 OVC032 M04/M09 A3003 RMK A01,M
BAM,2022-02-23 19:15,-116.8743,40.5990,1382.36,23.00,12.20,62.78,310.00,9.00,0.00,30.00,M,10.00,M,SCT,OVC,M,M,2900.00,3500.00,M,M,M,M,M,M,M,M,M,12.32,KBAM 231915Z AUTO 31009KT 10SM SCT029 OVC035 M05/M11 A3000 RMK AO1,M
MEV,2022-02-23 19:15,-119.7500,38.9963,1441.42,24.80,15.80,68.18,10.00,9.00,0.00,30.02,M,10.00,M,SCT,BKN,OVC,M,2600.00,3300.00,4900.00,M,M,M,M,M,M,M,M,14.56,KMEV 231915Z AUTO 01009KT 10SM SCT026 BKN033 OVC049 M04/M09 A3002 RMK AO2,M
TMT,2022-02-23 19:15,-117.1971,39.4643,1749.34,19.20,7.00,58.43,320.00,8.00,0.00,29.93,M,10.00,M,BKN,OVC,M,M,2800.00,3400.00,M,M,M,M,M,M,M,M,M,8.35,KTMT 231915Z AUTO 32008KT 10SM BKN028 OVC034 M07/M14 A2993 RMK AO2 T10711139,M
LSV,2022-02-23 19:18,-115.0343,36.2362,570.00,48.20,24.80,39.66,330.00,11.00,0.00,29.81,1009.40,10.00,21.00,FEW,OVC,M,M,5500.00,7000.00,M,M,-RA,M,M,M,M,M,M,42.94,KLSV 231918Z 33011G21KT 10SM -RA FEW055 OVC070 09/M04 A2981 RMK AO2A RAB18 SLP094 $,M
EKO,2022-02-23 19:24,-115.7860,40.8242,1367.00,23.00,9.00,54.44,330.00,7.00,0.00,29.90,M,10.00,M,BKN,BKN,OVC,M,2800.00,3800.00,5500.00,M,M,M,M,M,M,M,M,13.81,KEKO 231924Z AUTO 33007KT 10SM BKN028 BKN038 OVC055 M05/M13 A2990 RMK AO2 T10501128,M
LSV,2022-02-23 19:29,-115.0343,36.2362,570.00,44.60,30.20,56.74,20.00,10.00,0.00,29.82,1010.00,9.00,M,FEW,SCT,M,M,5500.00,7000.00,M,M,-GS,M,M,M,M,M,M,38.77,KLSV 231929Z 02010KT 9SM -GS FEW055 SCT070 07/M01 A2982 RMK RAB18 SLP100 $,M
05U,2022-02-23 19:30,-116.0051,39.6042,1811.23,21.20,6.80,53.18,360.00,5.00,0.00,29.87,M,9.00,12.00,OVC,M,M,M,3100.00,M,M,M,M,M,M,M,M,M,M,13.57,K05U 231930Z AUTO 36005G12KT 9SM OVC031 M06/M14 A2987 RMK A01,M
LSV,2022-02-23 19:31,-115.0343,36.2362,570.00,44.60,30.20,56.74,40.00,8.00,0.00,29.82,1010.00,10.00,M,FEW,FEW,SCT,M,1700.00,5500.00,7000.00,M,-RA,M,M,M,M,M,M,39.63,KLSV 231931Z 04008KT 10SM -RA FEW017 FEW055 SCT070 07/M01 A2982 RMK RAB18 SLP100 $,M
LSV,2022-02-23 19:32,-115.0343,36.2362,570.00,44.60,30.20,56.74,50.00,7.00,0.00,29.82,1010.00,10.00,M,FEW,SCT,BKN,M,1700.00,5000.00,7000.00,M,-GS,M,M,M,M,M,M,40.14,KLSV 231932Z 05007KT 10SM -GS FEW017 SCT050 BKN070 07/M01 A2982 RMK RAB18 SLP100 $,M
RTS,2022-02-23 19:35,-119.8764,39.6682,1539.00,M,M,M,M,M,0.00,M,M,M,M,M,M,M,M,M,M,M,M,M,M,M,M,M,M,M,M,KRTS 231935Z AUTO RMK AO2 PNO PWINO,M
BVU,2022-02-23 19:35,-114.8611,35.9475,671.00,44.60,21.20,39.06,M,4.00,0.00,29.84,M,10.00,M,FEW,SCT,BKN,M,4400.00,4900.00,6000.00,M,M,M,M,M,M,M,M,42.13,KBVU 231935Z AUTO VRB04KT 10SM FEW044 SCT049 BKN060 07/M06 A2984 RMK AO2,M
MEV,2022-02-23 19:35,-119.7500,38.9963,1441.42,26.60,15.80,63.27,340.00,11.00,0.00,30.02,M,10.00,M,FEW,FEW,OVC,M,2600.00,3100.00,5000.00,M,M,M,M,M,M,M,M,15.64,KMEV 231935Z AUTO 34011KT 10SM FEW026 FEW031 OVC050 M03/M09 A3002 RMK AO2,M
BAM,2022-02-23 19:35,-116.8743,40.5990,1382.36,24.80,14.00,63.03,310.00,10.00,0.00,30.00,M,10.00,M,BKN,OVC,M,M,2900.00,3700.00,M,M,M,M,M,M,M,M,M,13.94,KBAM 231935Z AUTO 31010KT 10SM BKN029 OVC037 M04/M10 A3000 RMK AO1,M
HTH,2022-02-23 19:35,-118.6315,38.5448,1282.89,24.80,15.80,68.18,350.00,17.00,0.00,30.03,M,10.00,23.00,FEW,BKN,BKN,M,2100.00,3000.00,3700.00,M,M,M,M,M,M,M,M,10.64,KHTH 231935Z AUTO 35017G23KT 10SM FEW021 BKN030 BKN037 M04/M09 A3003 RMK A01,M
TMT,2022-02-23 19:35,-117.1971,39.4643,1749.34,19.40,6.80,57.41,300.00,3.00,0.00,29.92,M,10.00,M,OVC,M,M,M,2800.00,M,M,M,M,M,M,M,M,M,M,14.28,KTMT 231935Z AUTO 30003KT 10SM OVC028 M07/M14 A2992 RMK AO2 T10701140,M
LSV,2022-02-23 19:46,-115.0343,36.2362,570.00,42.80,30.20,60.79,20.00,12.00,0.00,29.82,1010.00,10.00,19.00,SCT,SCT,M,M,1900.00,5500.00,M,M,-RA,M,M,M,M,M,M,35.75,KLSV 231946Z 02012G19KT 10SM -RA SCT019 SCT055 06/M01 A2982 RMK AO2A WSHFT 43 RAB18 SLP100 $,M
ELY,2022-02-23 19:48,-114.8453,39.2950,1909.00,19.40,12.20,73.13,20.00,17.00,T,29.76,M,10.00,M,FEW,BKN,OVC,M,2700.00,3300.00,4100.00,M,M,M,M,M,M,M,M,3.57,KELY 231948Z AUTO 02017KT 10SM FEW027 BKN033 OVC041 M07/M11 A2976 RMK AO2 SNE06 P0000,M
05U,2022-02-23 19:50,-116.0051,39.6042,1811.23,21.20,6.80,53.18,350.00,8.00,0.00,29.87,M,4.00,M,BKN,OVC,M,M,2700.00,3200.00,M,M,HZ,M,M,M,M,M,M,10.81,K05U 231950Z AUTO 35008KT 320V020 4SM HZ BKN027 OVC032 M06/M14 A2987 RMK A01,M
ELY,2022-02-23 19:53,-114.8453,39.2950,1909.00,19.90,12.90,73.83,360.00,16.00,T,29.76,1011.30,10.00,M,FEW,BKN,OVC,M,1600.00,3300.00,4100.00,M,M,M,M,M,M,M,M,4.65,KELY 231953Z AUTO 36016KT 10SM FEW016 BKN033 OVC041 M07/M11 A2976 RMK AO2 SNE06 SLP113 P0000 T10671106,M
LOL,2022-02-23 19:53,-118.5701,40.0684,1192.43,26.10,12.00,54.68,10.00,11.00,0.00,30.05,1020.90,10.00,M,OVC,M,M,M,3500.00,M,M,M,M,M,M,M,M,M,M,15.01,KLOL 231953Z AUTO 01011KT 10SM OVC035 M03/M11 A3005 RMK AO2 SLP209 T10331111,M
P68,2022-02-23 19:53,-116.0056,39.6014,1993.00,19.90,8.10,59.60,340.00,11.00,0.00,29.85,1014.60,M,M,M,M,M,M,M,M,M,M,M,M,M,M,M,M,M,7.18,KP68 231953Z AUTO 34011KT M07/M13 A2985 RMK AO1 SLP146 T10671133,M
DRA,2022-02-23 19:53,-116.0278,36.6206,1009.00,39.00,23.00,52.30,M,5.00,0.00,29.83,1010.00,10.00,16.00,FEW,M,M,M,4400.00,M,M,M,M,M,M,M,M,M,M,34.71,KDRA 231953Z AUTO VRB05G16KT 10SM FEW044 04/M05 A2983 RMK AO2 SLP100 T00391050,M
VGT,2022-02-23 19:53,-115.1933,36.2111,667.00,50.00,19.00,29.02,M,M,0.00,29.81,1011.20,10.00,M,FEW,M,M,M,8500.00,M,M,M,M,M,M,M,M,M,M,50.00,KVGT 231953Z 10SM FEW085 10/M07 A2981 RMK AO2 SLP112 T01001072 $,M
RNO,2022-02-23 19:55,-119.7711,39.4839,1341.00,26.10,12.90,56.89,60.00,6.00,0.00,30.04,1020.00,10.00,M,SCT,M,M,M,3500.00,M,M,M,M,M,M,M,M,M,M,18.42,KRNO 231955Z 06006KT 10SM SCT035 M03/M11 A3004 RMK AO2 SLP200 MTN TOPS OBSCD DSNT SW T10331106,M
RTS,2022-02-23 19:55,-119.8764,39.6682,1539.00,M,M,M,M,M,0.00,M,M,M,M,M,M,M,M,M,M,M,M,M,M,M,M,M,M,M,M,KRTS 231955Z AUTO RMK AO2 PNO PWINO,M
MEV,2022-02-23 19:55,-119.7500,38.9963,1441.42,26.60,15.80,63.27,340.00,12.00,0.00,30.02,M,10.00,M,FEW,FEW,BKN,M,2500.00,3300.00,5000.00,M,UP,M,M,M,M,M,M,15.13,KMEV 231955Z AUTO 34012KT 10SM UP FEW025 FEW033 BKN050 M03/M09 A3002 RMK AO2,M
TMT,2022-02-23 19:55,-117.1971,39.4643,1749.34,20.30,7.30,56.52,330.00,4.00,0.00,29.92,M,10.00,M,SCT,OVC,M,M,2400.00,3000.00,M,M,M,M,M,M,M,M,M,13.76,KTMT 231955Z AUTO 33004KT 10SM SCT024 OVC030 M06/M14 A2992 RMK AO2 T10651137,M
BAM,2022-02-23 19:55,-116.8743,40.5990,1382.36,24.80,14.00,63.03,320.00,7.00,0.00,30.00,M,10.00,M,OVC,M,M,M,3200.00,M,M,M,M,M,M,M,M,M,M,16.00,KBAM 231955Z AUTO 32007KT 10SM OVC032 M04/M10 A3000 RMK AO1,M
HTH,2022-02-23 19:55,-118.6315,38.5448,1282.89,26.60,15.80,63.27,360.00,14.00,0.00,30.03,M,10.00,M,FEW,SCT,BKN,M,2200.00,3000.00,3700.00,M,M,M,M,M,M,M,M,14.20,KHTH 231955Z AUTO 36014KT 10SM FEW022 SCT030 BKN037 M03/M09 A3003 RMK A01,M
BVU,2022-02-23 19:55,-114.8611,35.9475,671.00,44.60,21.20,39.06,320.00,7.00,0.00,29.83,M,10.00,M,FEW,FEW,BKN,M,3900.00,5000.00,6000.00,M,M,M,M,M,M,M,M,40.14,KBVU 231955Z AUTO 32007KT 10SM FEW039 FEW050 BKN060 07/M06 A2983 RMK AO2,M
EKO,2022-02-23 19:56,-115.7860,40.8242,1367.00,23.00,7.00,49.74,M,4.00,0.00,29.90,1017.40,10.00,M,BKN,BKN,M,M,3200.00,4500.00,M,M,M,M,M,M,M,M,M,16.91,KEKO 231956Z AUTO VRB04KT 10SM BKN032 BKN045 M05/M14 A2990 RMK AO2 SLP174 T10501139,M
LAS,2022-02-23 19:56,-115.1634,36.0719,663.00,45.00,23.00,41.50,260.00,10.00,0.00,29.82,1010.00,10.00,17.00,BKN,BKN,M,M,6000.00,18000.00,M,M,M,M,M,M,M,M,M,39.27,KLAS 231956Z 26010G17KT 10SM BKN060 BKN180 07/M05 A2982 RMK AO2 SLP100 VCSH NE T00721050 $,M
NFL,2022-02-23 19:56,-118.7010,39.4166,1199.00,27.00,15.10,60.37,20.00,9.00,T,30.04,1014.20,10.00,M,FEW,BKN,BKN,M,3500.00,5000.00,10000.00,M,M,M,M,M,M,M,M,17.30,KNFL 231956Z 02009KT 10SM FEW035 BKN050 BKN100 M03/M09 A3004 RMK AO2 SNE00B07E38 SLP142 P0000 T10281094,M
TPH,2022-02-23 19:56,-117.0904,38.0505,1654.00,30.00,5.00,33.99,320.00,24.00,0.00,29.83,1012.20,10.00,32.00,CLR,M,M,M,M,M,M,M,M,M,M,M,34.00,340.00,2022-02-23 18:57,15.36,KTPH 231956Z AUTO 32024G32KT 10SM CLR M01/M15 A2983 RMK AO2 PK WND 34034/1857 SLP122 T10111150,M
HND,2022-02-23 19:56,-115.1344,35.9729,742.79,44.00,25.00,46.70,290.00,7.00,T,29.83,1012.60,10.00,M,FEW,BKN,BKN,M,3300.00,4700.00,7500.00,M,-RA,M,M,M,M,M,M,39.53,KHND 231956Z 29007KT 10SM -RA FEW033 BKN047 BKN075 07/M04 A2983 RMK AO2 RAB47 SLP126 P0000 T00671039,M
WMC,2022-02-23 19:56,-117.8072,40.9019,1315.00,23.00,10.00,56.93,350.00,14.00,0.00,30.02,1020.10,10.00,M,SCT,M,M,M,9500.00,M,M,M,M,M,M,M,M,M,M,9.56,KWMC 231956Z AUTO 35014KT 10SM SCT095 M05/M12 A3002 RMK AO2 SLP201 T10501122 TSNO,M
INS,2022-02-23 19:58,-115.6733,36.5872,955.00,39.60,17.80,40.95,270.00,8.00,0.00,29.83,1010.20,10.00,M,FEW,M,M,M,5000.00,M,M,M,M,M,M,M,M,M,M,33.48,KINS 231958Z AUTO 27008KT 10SM FEW050 04/M08 A2983 RMK AO2 SLP102 T00421079 $,M
LSV,2022-02-23 19:58,-115.0343,36.2362,570.00,41.40,30.90,66.00,20.00,15.00,0.04,29.82,1010.00,10.00,19.00,SCT,SCT,M,M,1800.00,6000.00,M,M,-RA,M,M,M,M,M,M,32.97,KLSV 231958Z 02015G19KT 10SM -RA SCT018 SCT060 05/M01 A2982 RMK AO2A RAB18 SLP100 P0004 T00521006 $,M
NFL,2022-02-23 20:09,-118.7010,39.4166,1199.00,26.10,15.10,62.65,20.00,11.00,0.00,30.04,M,9.00,M,FEW,SCT,BKN,M,800.00,3000.00,4500.00,M,M,M,M,M,M,M,M,15.01,KNFL 232009Z 02011KT 9SM FEW008 SCT030 BKN045 M03/M09 A3004 RMK AO2 VIS LWR E-S 3 T10331094,M
LSV,2022-02-23 20:10,-115.0343,36.2362,570.00,41.00,32.00,70.08,40.00,13.00,0.00,29.82,1010.20,10.00,M,FEW,BKN,M,M,1800.00,7000.00,M,M,M,M,M,M,M,M,M,33.10,KLSV 232010Z 04013KT 10SM FEW018 BKN070 05/00 A2982 RMK AO2A RAE10 SLP102 $,M
INS,2022-02-23 20:13,-115.6733,36.5872,955.00,41.00,19.40,41.54,280.00,7.00,0.00,29.82,1009.70,10.00,M,BKN,M,M,M,4900.00,M,M,M,M,M,M,M,M,M,M,35.75,KINS 232013Z AUTO 28007KT 10SM BKN049 05/M07 A2982 RMK AO2 SLP097 $,M
TMT,2022-02-23 20:15,-117.1971,39.4643,1749.34,20.50,6.80,54.78,330.00,5.00,0.00,29.92,M,10.00,M,BKN,BKN,M,M,3000.00,4700.00,M,M,M,M,M,M,M,M,M,12.74,KTMT 232015Z AUTO 33005KT 10SM BKN030 BKN047 M06/M14 A2992 RMK AO2 T10641140,M
BVU,2022-02-23 20:15,-114.8611,35.9475,671.00,46.40,23.00,39.36,210.00,8.00,0.00,29.83,M,10.00,M,FEW,FEW,BKN,M,4900.00,6000.00,7000.00,M,M,M,M,M,M,M,M,41.85,KBVU 232015Z AUTO 21008KT 180V240 10SM FEW049 FEW060 BKN070 08/M05 A2983 RMK AO2,M
RTS,2022-02-23 20:15,-119.8764,39.6682,1539.00,M,M,M,M,M,0.00,M,M,M,M,M,M,M,M,M,M,M,M,M,M,M,M,M,M,M,M,KRTS 232015Z AUTO RMK AO2 PNO PWINO,M
05U,2022-02-23 20:15,-116.0051,39.6042,1811.23,21.20,8.60,57.69,10.00,9.00,0.00,29.87,M,4.00,M,SCT,BKN,BKN,M,2600.00,3300.00,3800.00,M,HZ,M,M,M,M,M,M,10.08,K05U 232015Z AUTO 01009KT 4SM HZ SCT026 BKN033 BKN038 M06/M13 A2987 RMK A01,M
MEV,2022-02-23 20:15,-119.7500,38.9963,1441.42,26.60,15.80,63.27,330.00,9.00,0.00,30.01,M,10.00,15.00,FEW,FEW,BKN,M,2500.00,3100.00,5000.00,M,M,M,M,M,M,M,M,16.80,KMEV 232015Z AUTO 33009G15KT 10SM FEW025 FEW031 BKN050 M03/M09 A3001 RMK AO2,M
BAM,2022-02-23 20:15,-116.8743,40.5990,1382.36,24.80,15.80,68.18,320.00,11.00,0.00,30.00,M,7.00,17.00,OVC,M,M,M,3000.00,M,M,M,M,M,M,M,M,M,M,13.37,KBAM 232015Z AUTO 32011G17KT 7SM OVC030 M04/M09 A3000 RMK AO1,M
HTH,2022-02-23 20:15,-118.6315,38.5448,1282.89,24.80,15.80,68.18,350.00,11.00,0.00,30.03,M,5.00,17.00,FEW,SCT,BKN,M,2300.00,3100.00,3700.00,M,HZ,M,M,M,M,M,M,13.37,KHTH 232015Z AUTO 35011G17KT 5SM HZ FEW023 SCT031 BKN037 M04/M09 A3003 RMK A01,M
MEV,2022-02-23 20:35,-119.7500,38.9963,1441.42,26.60,14.00,58.49,340.00,10.00,0.00,30.01,M,10.00,M,FEW,SCT,SCT,M,3100.00,5000.00,5500.00,M,M,M,M,M,M,M,M,16.20,KMEV 232035Z AUTO 34010KT 10SM FEW031 SCT050 SCT055 M03/M10 A3001 RMK AO2,M
TMT,2022-02-23 20:35,-117.1971,39.4643,1749.34,20.30,6.60,54.75,330.00,8.00,0.00,29.92,M,10.00,M,SCT,BKN,OVC,M,2700.00,3200.00,4500.00,M,M,M,M,M,M,M,M,9.70,KTMT 232035Z AUTO 33008KT 10SM SCT027 BKN032 OVC045 M06/M14 A2992 RMK AO2 T10651141,M
BAM,2022-02-23 20:35,-116.8743,40.5990,1382.36,24.80,15.80,68.18,320.00,9.00,0.00,30.00,M,3.00,M,OVC,M,M,M,2600.00,M,M,M,M,M,M,M,M,M,M,14.56,KBAM 232035Z AUTO 32009KT 3SM OVC026 M04/M09 A3000 RMK AO1,M
HTH,2022-02-23 20:35,-118.6315,38.5448,1282.89,24.80,15.80,68.18,360.00,16.00,0.00,30.03,M,10.00,M,FEW,BKN,BKN,M,2400.00,3300.00,4200.00,M,M,M,M,M,M,M,M,11.03,KHTH 232035Z AUTO 36016KT 10SM FEW024 BKN033 BKN042 M04/M09 A3003 RMK A01,M
BVU,2022-02-23 20:35,-114.8611,35.9475,671.00,44.60,24.80,45.44,200.00,10.00,0.00,29.82,M,10.00,M,FEW,BKN,BKN,M,5500.00,7000.00,8500.00,M,M,M,M,M,M,M,M,38.77,KBVU 232035Z AUTO 20010KT 10SM FEW055 BKN070 BKN085 07/M04 A2982 RMK AO2,M
RTS,2022-02-23 20:35,-119.8764,39.6682,1539.00,M,M,M,M,M,0.00,M,M,M,M,M,M,M,M,M,M,M,M,M,M,M,M,M,M,M,M,KRTS 232035Z AUTO RMK AO2 PNO PWINO,M
05U,2022-02-23 20:35,-116.0051,39.6042,1811.23,23.00,8.60,53.47,360.00,10.00,0.00,29.87,M,6.00,M,FEW,BKN,M,M,2400.00,4100.00,M,M,HZ,M,M,M,M,M,M,11.68,K05U 232035Z AUTO 36010KT 6SM HZ FEW024 BKN041 M05/M13 A2987 RMK A01,M
05U,2022-02-23 20:50,-116.0051,39.6042,1811.23,23.00,6.80,49.29,340.00,8.00,0.00,29.87,M,8.00,M,FEW,OVC,M,M,2900.00,4100.00,M,M,M,M,M,M,M,M,M,13.03,K05U 232050Z AUTO 34008KT 8SM FEW029 OVC041 M05/M14 A2987 RMK A01,M
VGT,2022-02-23 20:53,-115.1933,36.2111,667.00,51.00,16.00,24.48,320.00,12.00,0.00,29.80,1010.90,10.00,24.00,BKN,M,M,M,9500.00,M,M,M,M,M,M,M,M,M,M,51.10,KVGT 232053Z 32012G24KT 10SM BKN095 11/M09 A2980 RMK AO2 SLP109 T01061089,M
P68,2022-02-23 20:53,-116.0056,39.6014,1993.00,23.00,8.10,52.27,350.00,11.00,0.00,29.84,1014.10,M,M,M,M,M,M,M,M,M,M,M,M,M,M,M,M,M,11.09,KP68 232053Z AUTO 35011KT M05/M13 A2984 RMK AO1 SLP141 T10501133 50004,M
ELY,2022-02-23 20:53,-114.8453,39.2950,1909.00,21.00,12.90,70.45,20.00,13.00,0.00,29.77,1011.40,9.00,M,BKN,OVC,M,M,3500.00,4300.00,M,M,M,M,M,M,M,M,M,7.48,KELY 232053Z AUTO 02013KT 9SM BKN035 OVC043 M06/M11 A2977 RMK AO2 SLP114 60001 T10611106 51002,M
DRA,2022-02-23 20:53,-116.0278,36.6206,1009.00,39.00,19.00,44.14,230.00,6.00,0.00,29.82,1009.70,10.00,M,FEW,SCT,BKN,M,4700.00,5500.00,7500.00,M,M,M,M,M,M,M,M,33.96,KDRA 232053Z AUTO 23006KT 10SM FEW047 SCT055 BKN075 04/M07 A2982 RMK AO2 SLP097 T00391072 58004,M
LOL,2022-02-23 20:53,-118.5701,40.0684,1192.43,27.00,12.00,52.68,10.00,6.00,0.00,30.05,1020.60,10.00,M,OVC,M,M,M,3800.00,M,M,M,M,M,M,M,M,M,M,19.51,KLOL 232053Z AUTO 01006KT 10SM OVC038 M03/M11 A3005 RMK AO2 SLP206 T10281111 50002,M
BAM,2022-02-23 20:55,-116.8743,40.5990,1382.36,24.80,14.00,63.03,330.00,10.00,0.00,30.00,M,10.00,14.00,OVC,M,M,M,2500.00,M,M,M,M,M,M,M,M,M,M,13.94,KBAM 232055Z AUTO 33010G14KT 10SM OVC025 M04/M10 A3000 RMK AO1,M
RTS,2022-02-23 20:55,-119.8764,39.6682,1539.00,M,M,M,M,M,0.00,M,M,M,M,M,M,M,M,M,M,M,M,M,M,M,M,M,M,M,M,KRTS 232055Z AUTO RMK AO2 PNO PWINO,M
RNO,2022-02-23 20:55,-119.7711,39.4839,1341.00,28.00,15.10,57.93,60.00,4.00,0.00,30.04,1019.60,10.00,M,SCT,M,M,M,5500.00,M,M,M,M,M,M,M,M,M,M,22.75,KRNO 232055Z 06004KT 10SM SCT055 M02/M09 A3004 RMK AO2 SLP196 T10221094 50004,M
BVU,2022-02-23 20:55,-114.8611,35.9475,671.00,46.40,24.80,42.44,200.00,11.00,0.00,29.82,M,10.00,M,FEW,SCT,SCT,M,6000.00,7500.00,8500.00,M,M,M,M,M,M,M,M,40.66,KBVU 232055Z AUTO 20011KT 10SM FEW060 SCT075 SCT085 08/M04 A2982 RMK AO2,M
TMT,2022-02-23 20:55,-117.1971,39.4643,1749.34,21.70,8.80,56.99,360.00,9.00,0.00,29.92,M,10.00,M,BKN,OVC,M,M,3200.00,4000.00,M,M,M,M,M,M,M,M,M,10.71,KTMT 232055Z AUTO 36009KT 10SM BKN032 OVC040 M06/M13 A2992 RMK AO2 T10571129,M
HTH,2022-02-23 20:55,-118.6315,38.5448,1282.89,26.60,14.00,58.49,360.00,15.00,0.00,30.03,M,10.00,M,BKN,OVC,M,M,3200.00,3800.00,M,M,M,M,M,M,M,M,M,13.78,KHTH 232055Z AUTO 36015KT 10SM BKN032 OVC038 M03/M10 A3003 RMK A01,M
MEV,2022-02-23 20:55,-119.7500,38.9963,1441.42,28.40,14.00,54.31,320.00,9.00,0.00,30.01,M,10.00,16.00,FEW,FEW,SCT,M,1400.00,3500.00,6000.00,M,M,M,M,M,M,M,M,19.04,KMEV 232055Z AUTO 32009G16KT 10SM FEW014 FEW035 SCT060 M02/M10 A3001 RMK AO2,M
EKO,2022-02-23 20:56,-115.7860,40.8242,1367.00,25.00,7.00,45.75,290.00,8.00,0.00,29.89,1016.90,10.00,M,BKN,M,M,M,3400.00,M,M,M,M,M,M,M,M,M,M,15.49,KEKO 232056Z AUTO 29008KT 10SM BKN034 M04/M14 A2989 RMK AO2 SLP169 60000 T10391139 58001,M
NFL,2022-02-23 20:56,-118.7010,39.4166,1199.00,28.00,14.00,55.21,10.00,12.00,0.00,30.04,1014.10,10.00,M,FEW,BKN,BKN,M,800.00,3800.00,5000.00,M,M,M,M,M,M,M,M,16.91,KNFL 232056Z 01012KT 10SM FEW008 BKN038 BKN050 M02/M10 A3004 RMK AO2 SLP141 VIS LWR SE 3 60000 T10221100 50002,M
HND,2022-02-23 20:56,-115.1344,35.9729,742.79,47.00,21.00,35.49,270.00,8.00,T,29.83,1012.20,10.00,M,FEW,SCT,M,M,4900.00,8000.00,M,M,M,M,M,M,M,M,M,42.47,KHND 232056Z 27008KT 10SM FEW049 SCT080 08/M06 A2983 RMK AO2 RAE1958 SLP122 P0000 60000 T00831061 58005,M
LAS,2022-02-23 20:56,-115.1634,36.0719,663.00,46.00,19.90,35.04,230.00,4.00,0.00,29.81,1009.60,10.00,M,FEW,BKN,BKN,M,5500.00,7000.00,18000.00,M,M,M,M,M,M,M,M,43.77,KLAS 232056Z 23004KT 10SM FEW055 BKN070 BKN180 08/M07 A2981 RMK AO2 SLP096 VIRGA DSNT ALQDS T00781067 58008 $,M
WMC,2022-02-23 20:56,-117.8072,40.9019,1315.00,25.00,10.90,54.50,360.00,13.00,0.00,30.02,1020.10,10.00,M,CLR,M,M,M,M,M,M,M,M,M,M,M,M,M,M,12.60,KWMC 232056Z AUTO 36013KT 10SM CLR M04/M12 A3002 RMK AO2 SLP201 T10391117 51001 TSNO,M
TPH,2022-02-23 20:56,-117.0904,38.0505,1654.00,28.90,4.00,33.80,320.00,27.00,0.00,29.83,1012.50,10.00,37.00,CLR,M,M,M,M,M,M,M,M,M,M,M,37.00,320.00,2022-02-23 20:52,13.12,KTPH 232056Z AUTO 32027G37KT 10SM CLR M02/M16 A2983 RMK AO2 PK WND 32037/2052 SLP125 T10171156 51003,M
LSV,2022-02-23 20:58,-115.0343,36.2362,570.00,46.00,30.20,54.01,60.00,8.00,T,29.81,1009.60,10.00,M,FEW,SCT,M,M,8000.00,11000.00,M,M,M,M,M,M,M,M,M,41.24,KLSV 232058Z 06008KT 10SM FEW080 SCT110 08/M01 A2981 RMK AO2A RAE10 SLP096 P0000 60004 T00771010 55005 $,M
INS,2022-02-23 20:58,-115.6733,36.5872,955.00,42.00,17.10,36.07,300.00,11.00,0.00,29.81,1009.30,10.00,22.00,BKN,OVC,M,M,5500.00,7000.00,M,M,M,M,M,M,M,M,M,35.23,KINS 232058Z AUTO 30011G22KT 10SM BKN055 OVC070 06/M08 A2981 RMK AO2 SLP093 T00561083 58007 $,M
05U,2022-02-23 21:10,-116.0051,39.6042,1811.23,23.00,6.80,49.29,20.00,10.00,0.00,29.87,M,9.00,M,SCT,OVC,M,M,3300.00,4000.00,M,M,M,M,M,M,M,M,M,11.68,K05U 232110Z AUTO 02010KT 9SM SCT033 OVC040 M05/M14 A2987 RMK A01,M
BVU,2022-02-23 21:15,-114.8611,35.9475,671.00,46.40,23.00,39.36,220.00,10.00,0.00,29.82,M,10.00,M,FEW,BKN,M,M,7500.00,8500.00,M,M,M,M,M,M,M,M,M,41.03,KBVU 232115Z AUTO 22010KT 10SM FEW075 BKN085 08/M05 A2982 RMK AO2,M
RTS,2022-02-23 21:15,-119.8764,39.6682,1539.00,M,M,M,M,M,0.00,M,M,M,M,M,M,M,M,M,M,M,M,M,M,M,M,M,M,M,M,KRTS 232115Z AUTO RMK AO2 PNO PWINO,M
HTH,2022-02-23 21:15,-118.6315,38.5448,1282.89,26.60,14.00,58.49,350.00,13.00,0.00,30.03,M,7.00,20.00,BKN,BKN,OVC,M,3300.00,3900.00,5500.00,M,M,M,M,M,M,M,M,14.65,KHTH 232115Z AUTO 35013G20KT 7SM BKN033 BKN039 OVC055 M03/M10 A3003 RMK A01,M
BAM,2022-02-23 21:15,-116.8743,40.5990,1382.36,26.60,17.60,68.40,340.00,8.00,0.00,30.00,M,10.00,M,BKN,OVC,M,M,2500.00,3000.00,M,M,M,M,M,M,M,M,M,17.46,KBAM 232115Z AUTO 34008KT 10SM BKN025 OVC030 M03/M08 A3000 RMK AO1,M
TMT,2022-02-23 21:15,-117.1971,39.4643,1749.34,20.70,7.20,55.31,340.00,8.00,0.00,29.93,M,10.00,M,SCT,OVC,M,M,2700.00,3500.00,M,M,M,M,M,M,M,M,M,10.19,KTMT 232115Z AUTO 34008KT 10SM SCT027 OVC035 M06/M14 A2993 RMK AO2 T10631138,M
MEV,2022-02-23 21:15,-119.7500,38.9963,1441.42,28.40,12.20,50.17,340.00,8.00,0.00,30.01,M,10.00,15.00,FEW,M,M,M,5500.00,M,M,M,M,M,M,M,M,M,M,19.68,KMEV 232115Z AUTO 34008G15KT 10SM FEW055 M02/M11 A3001 RMK AO2,M
05U,2022-02-23 21:30,-116.0051,39.6042,1811.23,23.00,10.40,57.96,30.00,11.00,0.00,29.88,M,9.00,M,FEW,BKN,OVC,M,3000.00,3700.00,4300.00,M,M,M,M,M,M,M,M,11.09,K05U 232130Z AUTO 03011KT 9SM FEW030 BKN037 OVC043 M05/M12 A2988 RMK A01,M
INS,2022-02-23 21:31,-115.6733,36.5872,955.00,41.00,21.20,44.85,330.00,19.00,0.00,29.82,1009.90,10.00,22.00,BKN,OVC,M,M,5500.00,7000.00,M,M,-RA,M,M,M,M,M,M,31.34,KINS 232131Z AUTO 33019G22KT 10SM -RA BKN055 OVC070 05/M06 A2982 RMK AO2 RAB31 SLP099 $,M
BVU,2022-02-23 21:35,-114.8611,35.9475,671.00,46.40,23.00,39.36,200.00,8.00,0.00,29.82,M,10.00,M,FEW,FEW,SCT,M,5000.00,6500.00,8500.00,M,M,M,M,M,M,M,M,41.85,KBVU 232135Z AUTO 20008KT 10SM FEW050 FEW065 SCT085 08/M05 A2982 RMK AO2,M
RTS,2022-02-23 21:35,-119.8764,39.6682,1539.00,M,M,M,M,M,0.00,M,M,M,M,M,M,M,M,M,M,M,M,M,M,M,M,M,M,M,M,KRTS 232135Z AUTO RMK AO2 PNO PWINO,M
TMT,2022-02-23 21:35,-117.1971,39.4643,1749.34,21.40,6.00,51.08,340.00,6.00,0.00,29.93,M,10.00,M,BKN,BKN,BKN,M,3500.00,4100.00,5000.00,M,M,M,M,M,M,M,M,12.76,KTMT 232135Z AUTO 34006KT 10SM BKN035 BKN041 BKN050 M06/M14 A2993 RMK AO2 T10591144,M
BAM,2022-02-23 21:35,-116.8743,40.5990,1382.36,26.60,15.80,63.27,320.00,10.00,0.00,30.01,M,10.00,M,SCT,BKN,OVC,M,1900.00,2300.00,2900.00,M,M,M,M,M,M,M,M,16.20,KBAM 232135Z AUTO 32010KT 10SM SCT019 BKN023 OVC029 M03/M09 A3001 RMK AO1,M
HTH,2022-02-23 21:35,-118.6315,38.5448,1282.89,26.60,14.00,58.49,340.00,15.00,0.00,30.03,M,10.00,M,BKN,OVC,M,M,3000.00,3600.00,M,M,M,M,M,M,M,M,M,13.78,KHTH 232135Z AUTO 34015KT 10SM BKN030 OVC036 M03/M10 A3003 RMK A01,M
INS,2022-02-23 21:35,-115.6733,36.5872,955.00,39.20,21.20,48.10,330.00,15.00,0.00,29.83,1010.20,8.00,M,FEW,FEW,BKN,OVC,400.00,2800.00,5500.00,7000.00,-RA,M,M,M,M,M,M,30.11,KINS 232135Z AUTO 33015KT 8SM -RA FEW004 FEW028 BKN055 OVC070 04/M06 A2983 RMK AO2 RAB31 SLP102 $,M
MEV,2022-02-23 21:35,-119.7500,38.9963,1441.42,28.40,12.20,50.17,350.00,9.00,0.00,30.01,M,10.00,15.00,FEW,FEW,M,M,4300.00,5500.00,M,M,M,M,M,M,M,M,M,19.04,KMEV 232135Z AUTO 35009G15KT 320V020 10SM FEW043 FEW055 M02/M11 A3001 RMK AO2,M
VGT,2022-02-23 21:40,-115.1933,36.2111,667.00,48.00,21.00,34.05,250.00,13.00,0.00,29.81,M,10.00,M,BKN,OVC,M,M,8000.00,9500.00,M,M,M,M,M,M,M,M,M,42.07,KVGT 232140Z AUTO 25013KT 10SM BKN080 OVC095 09/M06 A2981 RMK AO2 WSHFT 2120 T00891061,M
INS,2022-02-23 21:45,-115.6733,36.5872,955.00,39.20,19.40,44.55,0.00,0.00,0.00,29.83,1010.20,9.00,M,FEW,FEW,BKN,BKN,400.00,1500.00,4000.00,5000.00,-RA,M,M,M,M,M,M,39.20,KINS 232145Z AUTO 00000KT 9SM -RA FEW004 FEW015 BKN040 BKN050 OVC070 04/M07 A2983 RMK AO2 RAB31 SLP102 $,M
05U,2022-02-23 21:50,-116.0051,39.6042,1811.23,21.20,10.40,62.53,10.00,10.00,0.00,29.89,M,1.75,15.00,SCT,SCT,BKN,M,2200.00,2800.00,4200.00,M,HZ,M,M,M,M,M,M,9.42,K05U 232150Z AUTO 01010G15KT 1 3/4SM HZ SCT022 SCT028 BKN042 M06/M12 A2989 RMK A01,M
ELY,2022-02-23 21:53,-114.8453,39.2950,1909.00,21.00,12.00,67.71,360.00,14.00,0.00,29.79,1012.30,10.00,M,BKN,OVC,M,M,3000.00,3800.00,M,M,M,M,M,M,M,M,M,6.98,KELY 232153Z AUTO 36014KT 10SM BKN030 OVC038 M06/M11 A2979 RMK AO2 SLP123 T10611111,M
LOL,2022-02-23 21:53,-118.5701,40.0684,1192.43,28.90,12.90,50.70,M,6.00,0.00,30.05,1020.70,10.00,M,OVC,M,M,M,3800.00,M,M,M,M,M,M,M,M,M,M,21.80,KLOL 232153Z AUTO VRB06KT 10SM OVC038 M02/M11 A3005 RMK AO2 SLP207 T10171106,M
DRA,2022-02-23 21:53,-116.0278,36.6206,1009.00,41.00,14.00,32.88,M,M,0.00,29.83,1009.80,10.00,M,FEW,FEW,M,M,6000.00,8500.00,M,M,M,M,M,M,M,M,M,M,KDRA 232153Z AUTO 10SM FEW060 FEW085 05/M10 A2983 RMK AO2 SLP098 T00501100,M
P68,2022-02-23 21:53,-116.0056,39.6014,1993.00,21.00,10.90,64.48,10.00,11.00,0.00,29.86,1015.10,M,M,M,M,M,M,M,M,M,M,M,M,M,M,M,M,M,8.57,KP68 232153Z AUTO 01011KT M06/M12 A2986 RMK AO1 SLP151 T10611117,M
VGT,2022-02-23 21:53,-115.1933,36.2111,667.00,48.00,19.90,32.50,290.00,11.00,0.00,29.82,1011.70,10.00,22.00,OVC,M,M,M,8500.00,M,M,M,M,M,M,M,M,M,M,42.69,KVGT 232153Z AUTO 29011G22KT 10SM OVC085 09/M07 A2982 RMK AO2 WSHFT 2120 SLP117 T00891067,M
BAM,2022-02-23 21:55,-116.8743,40.5990,1382.36,26.60,15.80,63.27,340.00,9.00,0.00,30.01,M,7.00,M,BKN,BKN,OVC,M,1900.00,2800.00,5500.00,M,M,M,M,M,M,M,M,16.80,KBAM 232155Z AUTO 34009KT 7SM BKN019 BKN028 OVC055 M03/M09 A3001 RMK AO1,M
BVU,2022-02-23 21:55,-114.8611,35.9475,671.00,44.60,21.20,39.06,140.00,7.00,0.00,29.83,M,10.00,M,FEW,FEW,BKN,M,3600.00,4600.00,5000.00,M,M,M,M,M,M,M,M,40.14,KBVU 232155Z AUTO 14007KT 10SM FEW036 FEW046 BKN050 07/M06 A2983 RMK AO2,M
RNO,2022-02-23 21:55,-119.7711,39.4839,1341.00,28.90,15.10,55.83,20.00,8.00,0.00,30.04,1019.70,10.00,M,SCT,M,M,M,5000.00,M,M,M,M,M,M,M,M,M,M,20.29,KRNO 232155Z 02008KT 10SM SCT050 M02/M09 A3004 RMK AO2 SLP197 T10171094,M
RTS,2022-02-23 21:55,-119.8764,39.6682,1539.00,M,M,M,M,M,0.00,M,M,M,M,M,M,M,M,M,M,M,M,M,M,M,M,M,M,M,M,KRTS 232155Z AUTO RMK AO2 PNO PWINO,M
MEV,2022-02-23 21:55,-119.7500,38.9963,1441.42,28.40,10.40,46.32,350.00,7.00,0.00,30.02,M,10.00,15.00,FEW,SCT,M,M,4400.00,5000.00,M,M,M,M,M,M,M,M,M,20.39,KMEV 232155Z AUTO 35007G15KT 10SM FEW044 SCT050 M02/M12 A3002 RMK AO2,M
TMT,2022-02-23 21:55,-117.1971,39.4643,1749.34,20.50,5.00,50.47,290.00,4.00,0.00,29.93,M,10.00,M,SCT,SCT,SCT,M,2800.00,3500.00,5000.00,M,M,M,M,M,M,M,M,13.99,KTMT 232155Z AUTO 29004KT 10SM SCT028 SCT035 SCT050 M06/M15 A2993 RMK AO2 T10641150,M
HTH,2022-02-23 21:55,-118.6315,38.5448,1282.89,26.60,15.80,63.27,340.00,14.00,0.00,30.04,M,10.00,19.00,BKN,OVC,M,M,2800.00,3200.00,M,M,M,M,M,M,M,M,M,14.20,KHTH 232155Z AUTO 34014G19KT 10SM BKN028 OVC032 M03/M09 A3004 RMK A01,M
LAS,2022-02-23 21:56,-115.1634,36.0719,663.00,47.00,21.00,35.49,260.00,14.00,0.00,29.83,1010.20,10.00,M,FEW,BKN,BKN,M,5500.00,7000.00,10000.00,M,M,M,M,M,M,M,M,40.37,KLAS 232156Z 26014KT 10SM FEW055 BKN070 BKN100 08/M06 A2983 RMK AO2 SLP102 VCSH SE-SW T00831061 $,M
TPH,2022-02-23 21:56,-117.0904,38.0505,1654.00,28.90,5.00,35.55,320.00,25.00,0.00,29.84,1012.90,10.00,37.00,CLR,M,M,M,M,M,M,M,M,M,M,M,40.00,320.00,2022-02-23 21:31,13.62,KTPH 232156Z AUTO 32025G37KT 10SM CLR M02/M15 A2984 RMK AO2 PK WND 32040/2131 SLP129 T10171150,M
WMC,2022-02-23 21:56,-117.8072,40.9019,1315.00,28.00,10.90,48.15,350.00,7.00,0.00,30.03,1020.20,10.00,M,CLR,M,M,M,M,M,M,M,M,M,M,M,M,M,M,19.90,KWMC 232156Z AUTO 35007KT 10SM CLR M02/M12 A3003 RMK AO2 SLP202 T10221117 TSNO,M
EKO,2022-02-23 21:56,-115.7860,40.8242,1367.00,25.00,10.00,52.36,250.00,10.00,0.00,29.90,1017.40,10.00,M,BKN,OVC,M,M,3400.00,4200.00,M,M,M,M,M,M,M,M,M,14.19,KEKO 232156Z AUTO 25010KT 10SM BKN034 OVC042 M04/M12 A2990 RMK AO2 SLP174 T10391122,M
NFL,2022-02-23 21:56,-118.7010,39.4166,1199.00,28.90,12.90,50.70,10.00,11.00,0.00,30.05,1014.30,10.00,M,FEW,SCT,BKN,BKN,1000.00,3500.00,5000.00,13000.00,M,M,M,M,M,M,M,18.55,KNFL 232156Z 01011KT 10SM FEW010 SCT035 BKN050 BKN130 M02/M11 A3005 RMK AO2 SLP143 T10171106 $,M
HND,2022-02-23 21:56,-115.1344,35.9729,742.79,41.00,24.10,50.67,200.00,9.00,T,29.85,1013.30,9.00,17.00,FEW,BKN,OVC,M,1200.00,3300.00,6500.00,M,-RA,M,M,M,34.00,270.00,2022-02-23 21:40,34.70,KHND 232156Z 20009G17KT 9SM -RA FEW012 BKN033 OVC065 05/M04 A2985 RMK AO2 PK WND 27034/2140 WSHFT 2135 RAB38 SLP133 P0000 T00501044,M
INS,2022-02-23 21:58,-115.6733,36.5872,955.00,39.60,17.80,40.95,360.00,6.00,T,29.83,1010.20,10.00,M,FEW,FEW,SCT,BKN,500.00,1500.00,3400.00,4300.00,-RA,M,M,M,M,M,M,34.68,KINS 232158Z AUTO 36006KT 10SM -RA FEW005 FEW015 SCT034 BKN043 OVC055 04/M08 A2983 RMK AO2 RAB31 SLP102 P0000 T00421079 $,M
LSV,2022-02-23 21:58,-115.0343,36.2362,570.00,45.00,27.70,50.26,70.00,8.00,0.00,29.82,1010.00,10.00,M,FEW,M,M,M,9000.00,M,M,M,M,M,M,M,M,M,M,40.25,KLSV 232158Z 07008KT 10SM FEW090 07/M02 A2982 RMK AO2A SLP100 T00731024 $,M
ELY,2022-02-23 22:05,-114.8453,39.2950,1909.00,21.00,12.00,67.71,20.00,12.00,0.00,29.79,M,9.00,M,BKN,OVC,M,M,2800.00,3800.00,M,M,M,M,M,M,M,M,M,8.00,KELY 232205Z AUTO 02012KT 9SM BKN028 OVC038 M06/M11 A2979 RMK AO2 T10611111,M
INS,2022-02-23 22:13,-115.6733,36.5872,955.00,41.00,17.60,38.45,360.00,7.00,0.00,29.83,1010.00,10.00,M,FEW,FEW,SCT,OVC,700.00,3200.00,6000.00,7500.00,M,M,M,M,M,M,M,35.75,KINS 232213Z AUTO 36007KT 10SM FEW007 FEW032 SCT060 OVC075 05/M08 A2983 RMK AO2 RAE13 SLP100 $,M
05U,2022-02-23 22:15,-116.0051,39.6042,1811.23,23.00,8.60,53.47,20.00,9.00,0.00,29.89,M,5.00,M,FEW,BKN,M,M,3100.00,4400.00,M,M,HZ,M,M,M,M,M,M,12.32,K05U 232215Z AUTO 02009KT 5SM HZ FEW031 BKN044 M05/M13 A2989 RMK A01,M
MEV,2022-02-23 22:15,-119.7500,38.9963,1441.42,28.40,8.60,42.73,340.00,6.00,0.00,30.02,M,10.00,14.00,FEW,SCT,M,M,4400.00,5000.00,M,M,M,M,M,M,M,M,M,21.19,KMEV 232215Z AUTO 34006G14KT 10SM FEW044 SCT050 M02/M13 A3002 RMK AO2,M
BAM,2022-02-23 22:15,-116.8743,40.5990,1382.36,26.60,14.00,58.49,330.00,10.00,0.00,30.01,M,10.00,M,BKN,BKN,OVC,M,1900.00,2800.00,4500.00,M,M,M,M,M,M,M,M,16.20,KBAM 232215Z AUTO 33010KT 10SM BKN019 BKN028 OVC045 M03/M10 A3001 RMK AO1,M
TMT,2022-02-23 22:15,-117.1971,39.4643,1749.34,22.10,4.60,46.30,330.00,6.00,0.00,29.95,M,10.00,M,SCT,BKN,OVC,M,3000.00,4000.00,5000.00,M,M,M,M,M,M,M,M,13.61,KTMT 232215Z AUTO 33006KT 10SM SCT030 BKN040 OVC050 M05/M15 A2995 RMK AO2 T10551152,M
HTH,2022-02-23 22:15,-118.6315,38.5448,1282.89,26.60,14.00,58.49,330.00,15.00,0.00,30.04,M,10.00,M,OVC,M,M,M,3000.00,M,M,M,M,M,M,M,M,M,M,13.78,KHTH 232215Z AUTO 33015KT 10SM OVC030 M03/M10 A3004 RMK A01,M
ELY,2022-02-23 22:15,-114.8453,39.2950,1909.00,21.00,10.90,64.48,20.00,12.00,0.00,29.79,M,9.00,M,FEW,OVC,M,M,2500.00,3200.00,M,M,M,M,M,M,M,M,M,8.00,KELY 232215Z AUTO 02012KT 9SM FEW025 OVC032 M06/M12 A2979 RMK AO2 T10611117,M
RTS,2022-02-23 22:15,-119.8764,39.6682,1539.00,M,M,M,M,M,0.00,M,M,M,M,M,M,M,M,M,M,M,M,M,M,M,M,M,M,M,M,KRTS 232215Z AUTO RMK AO2 PNO PWINO,M
BVU,2022-02-23 22:15,-114.8611,35.9475,671.00,42.80,26.60,52.45,70.00,10.00,0.00,29.83,M,10.00,M,OVC,M,M,M,5500.00,M,M,M,M,M,M,M,M,M,M,36.51,KBVU 232215Z AUTO 07010KT 10SM OVC055 06/M03 A2983 RMK AO2,M
INS,2022-02-23 22:28,-115.6733,36.5872,955.00,41.00,14.00,32.88,340.00,9.00,0.00,29.83,1010.20,10.00,M,FEW,BKN,OVC,M,800.00,7500.00,11000.00,M,M,M,M,M,M,M,M,34.70,KINS 232228Z AUTO 34009KT 10SM FEW008 BKN075 OVC110 05/M10 A2983 RMK AO2 RAE13 SLP102 $,M
05U,2022-02-23 22:30,-116.0051,39.6042,1811.23,21.20,10.40,62.53,30.00,6.00,0.00,29.89,M,2.50,11.00,FEW,FEW,SCT,M,2200.00,2700.00,4300.00,M,HZ,M,M,M,M,M,M,12.52,K05U 232230Z AUTO 03006G11KT 2 1/2SM HZ FEW022 FEW027 SCT043 M06/M12 A2989 RMK A01,M
BAM,2022-02-23 22:35,-116.8743,40.5990,1382.36,28.40,14.00,54.31,300.00,5.00,0.00,30.02,M,10.00,M,SCT,SCT,OVC,M,1900.00,2800.00,4300.00,M,M,M,M,M,M,M,M,22.12,KBAM 232235Z AUTO 30005KT 10SM SCT019 SCT028 OVC043 M02/M10 A3002 RMK AO1,M
BVU,2022-02-23 22:35,-114.8611,35.9475,671.00,42.80,28.40,56.48,40.00,9.00,0.00,29.85,M,9.00,14.00,FEW,BKN,OVC,M,2900.00,5000.00,6000.00,M,M,M,M,M,M,M,M,36.94,KBVU 232235Z AUTO 04009G14KT 9SM FEW029 BKN050 OVC060 06/M02 A2985 RMK AO2,M
MEV,2022-02-23 22:35,-119.7500,38.9963,1441.42,28.40,8.60,42.73,340.00,8.00,0.00,30.03,M,10.00,13.00,SCT,SCT,M,M,4600.00,5500.00,M,M,M,M,M,M,M,M,M,19.68,KMEV 232235Z AUTO 34008G13KT 10SM SCT046 SCT055 M02/M13 A3003 RMK AO2,M
TMT,2022-02-23 22:35,-117.1971,39.4643,1749.34,21.00,3.00,45.06,250.00,3.00,0.00,29.95,M,10.00,M,BKN,OVC,M,M,4400.00,5000.00,M,M,M,M,M,M,M,M,M,16.11,KTMT 232235Z AUTO 25003KT 10SM BKN044 OVC050 M06/M16 A2995 RMK AO2 T10611161,M
HTH,2022-02-23 22:35,-118.6315,38.5448,1282.89,28.40,15.80,58.75,350.00,14.00,0.00,30.04,M,10.00,M,SCT,BKN,BKN,M,3100.00,4200.00,5000.00,M,M,M,M,M,M,M,M,16.52,KHTH 232235Z AUTO 35014KT 10SM SCT031 BKN042 BKN050 M02/M09 A3004 RMK A01,M
RTS,2022-02-23 22:35,-119.8764,39.6682,1539.00,M,M,M,M,M,0.00,M,M,M,M,M,M,M,M,M,M,M,M,M,M,M,M,M,M,M,M,KRTS 232235Z AUTO RMK AO2 PNO PWINO,M
INS,2022-02-23 22:43,-115.6733,36.5872,955.00,42.80,10.40,26.16,350.00,14.00,0.00,29.83,1010.00,10.00,M,SCT,OVC,M,M,7500.00,12000.00,M,M,M,M,M,M,M,M,M,35.08,KINS 232243Z AUTO 35014KT 10SM SCT075 OVC120 06/M12 A2983 RMK AO2 RAE13 SLP100 $,M
P68,2022-02-23 22:53,-116.0056,39.6014,1993.00,21.00,10.00,61.95,20.00,15.00,0.00,29.88,1014.90,M,18.00,M,M,M,M,M,M,M,M,M,M,M,M,M,M,M,6.52,KP68 232253Z AUTO 02015G18KT M06/M12 A2988 RMK AO1 SLP149 T10611122,M
LOL,2022-02-23 22:53,-118.5701,40.0684,1192.43,28.90,12.90,50.70,10.00,8.00,0.00,30.07,1021.30,10.00,17.00,OVC,M,M,M,4100.00,M,M,M,M,M,M,M,M,M,M,20.29,KLOL 232253Z AUTO 01008G17KT 10SM OVC041 M02/M11 A3007 RMK AO2 SLP213 T10171106,M
VGT,2022-02-23 22:53,-115.1933,36.2111,667.00,50.00,16.00,25.50,300.00,19.00,0.00,29.83,1012.30,10.00,24.00,FEW,M,M,M,9000.00,M,M,M,M,M,M,M,M,M,M,50.00,KVGT 232253Z AUTO 30019G24KT 10SM FEW090 10/M09 A2983 RMK AO2 SLP123 T01001089,M
DRA,2022-02-23 22:53,-116.0278,36.6206,1009.00,44.00,10.90,25.45,350.00,8.00,0.00,29.84,1010.20,10.00,M,SCT,M,M,M,11000.00,M,M,M,M,M,M,M,M,M,M,39.02,KDRA 232253Z AUTO 35008KT 10SM SCT110 07/M12 A2984 RMK AO2 SLP102 T00671117,M
ELY,2022-02-23 22:53,-114.8453,39.2950,1909.00,19.90,10.90,67.57,20.00,12.00,0.00,29.81,1013.30,10.00,M,OVC,M,M,M,3500.00,M,M,M,M,M,M,M,M,M,M,6.60,KELY 232253Z AUTO 02012KT 10SM OVC035 M07/M12 A2981 RMK AO2 SLP133 T10671117,M
RNO,2022-02-23 22:55,-119.7711,39.4839,1341.00,30.00,14.00,50.88,70.00,4.00,0.00,30.06,1019.90,10.00,M,SCT,M,M,M,5000.00,M,M,M,M,M,M,M,M,M,M,25.08,KRNO 232255Z 07004KT 10SM SCT050 M01/M10 A3006 RMK AO2 SLP199 T10111100,M
RTS,2022-02-23 22:55,-119.8764,39.6682,1539.00,M,M,M,M,M,0.00,M,M,M,M,M,M,M,M,M,M,M,M,M,M,M,M,M,M,M,M,KRTS 232255Z AUTO RMK AO2 PNO PWINO,M
TMT,2022-02-23 22:55,-117.1971,39.4643,1749.34,20.50,6.80,54.78,340.00,10.00,0.00,29.96,M,10.00,M,BKN,OVC,M,M,3400.00,4100.00,M,M,M,M,M,M,M,M,M,8.55,KTMT 232255Z AUTO 34010KT 10SM BKN034 OVC041 M06/M14 A2996 RMK AO2 T10641140,M
05U,2022-02-23 22:55,-116.0051,39.6042,1811.23,23.00,10.40,57.96,20.00,13.00,0.00,29.91,M,5.00,M,FEW,SCT,BKN,M,2600.00,3200.00,4400.00,M,HZ,M,M,M,M,M,M,10.04,K05U 232255Z AUTO 02013KT 5SM HZ FEW026 SCT032 BKN044 M05/M12 A2991 RMK A01,M
BAM,2022-02-23 22:55,-116.8743,40.5990,1382.36,28.40,15.80,58.75,340.00,8.00,0.00,30.02,M,10.00,M,SCT,SCT,BKN,M,2900.00,3700.00,4500.00,M,M,M,M,M,M,M,M,19.68,KBAM 232255Z AUTO 34008KT 10SM SCT029 SCT037 BKN045 M02/M09 A3002 RMK AO1,M
MEV,2022-02-23 22:55,-119.7500,38.9963,1441.42,28.40,10.40,46.32,360.00,8.00,0.00,30.03,M,10.00,15.00,SCT,BKN,M,M,4400.00,5000.00,M,M,M,M,M,M,M,M,M,19.68,KMEV 232255Z AUTO 36008G15KT 10SM SCT044 BKN050 M02/M12 A3003 RMK AO2,M
HTH,2022-02-23 22:55,-118.6315,38.5448,1282.89,26.60,14.00,58.49,340.00,13.00,0.00,30.05,M,10.00,18.00,SCT,BKN,OVC,M,3700.00,4300.00,5000.00,M,M,M,M,M,M,M,M,14.65,KHTH 232255Z AUTO 34013G18KT 10SM SCT037 BKN043 OVC050 M03/M10 A3005 RMK A01,M
BVU,2022-02-23 22:55,-114.8611,35.9475,671.00,42.80,30.20,60.79,350.00,12.00,0.00,29.87,M,10.00,17.00,SCT,BKN,OVC,M,2800.00,4600.00,5000.00,M,-RA,M,M,M,M,M,M,35.75,KBVU 232255Z AUTO 35012G17KT 300V040 10SM -RA SCT028 BKN046 OVC050 06/M01 A2987 RMK AO2,M
TPH,2022-02-23 22:56,-117.0904,38.0505,1654.00,28.00,6.00,38.79,330.00,24.00,0.00,29.86,1014.10,10.00,37.00,CLR,M,M,M,M,M,M,M,M,M,M,M,39.00,320.00,2022-02-23 22:40,12.66,KTPH 232256Z AUTO 33024G37KT 10SM CLR M02/M14 A2986 RMK AO2 PK WND 32039/2240 SLP141 T10221144,M
EKO,2022-02-23 22:56,-115.7860,40.8242,1367.00,25.00,8.10,48.08,310.00,8.00,0.00,29.93,1018.00,10.00,M,BKN,BKN,M,M,4000.00,4900.00,M,M,M,M,M,M,M,M,M,15.49,KEKO 232256Z AUTO 31008KT 10SM BKN040 BKN049 M04/M13 A2993 RMK AO2 SLP180 T10391133,M
WMC,2022-02-23 22:56,-117.8072,40.9019,1315.00,27.00,12.00,52.68,10.00,7.00,0.00,30.04,1020.40,10.00,M,CLR,M,M,M,M,M,M,M,M,M,M,M,M,M,M,18.68,KWMC 232256Z AUTO 01007KT 10SM CLR M03/M11 A3004 RMK AO2 SLP204 T10281111 TSNO,M
NFL,2022-02-23 22:56,-118.7010,39.4166,1199.00,30.00,12.00,46.59,350.00,9.00,0.00,30.06,1014.80,10.00,M,SCT,BKN,BKN,M,3000.00,5000.00,12000.00,M,M,M,M,M,M,M,M,21.03,KNFL 232256Z 35009KT 10SM SCT030 BKN050 BKN120 M01/M11 A3006 RMK AO2 SLP148 T10111111,M
HND,2022-02-23 22:56,-115.1344,35.9729,742.79,46.00,19.00,33.72,280.00,14.00,T,29.86,1013.40,10.00,M,FEW,M,M,M,9000.00,M,M,M,M,M,M,M,M,M,M,39.21,KHND 232256Z 28014KT 10SM FEW090 08/M07 A2986 RMK AO2 RAE08 SLP134 P0000 T00781072,M
LAS,2022-02-23 22:56,-115.1634,36.0719,663.00,47.00,19.00,32.59,230.00,12.00,0.00,29.84,1010.60,10.00,18.00,FEW,SCT,SCT,BKN,5500.00,7000.00,10000.00,15000.00,M,M,M,M,M,M,M,40.97,KLAS 232256Z 23012G18KT 10SM FEW055 SCT070 SCT100 BKN150 08/M07 A2984 RMK AO2 SLP106 VCSH NE-SE AND W-NW T00831072,M
LSV,2022-02-23 22:58,-115.0343,36.2362,570.00,44.80,28.20,51.90,30.00,13.00,0.00,29.84,1010.90,10.00,M,BKN,BKN,M,M,7000.00,8000.00,M,M,M,M,M,M,M,M,M,37.97,KLSV 232258Z 03013KT 10SM BKN070 BKN080 07/M02 A2984 RMK AO2A SLP109 T00711021 $,M
INS,2022-02-23 22:58,-115.6733,36.5872,955.00,42.40,9.90,25.98,350.00,12.00,T,29.84,1010.30,10.00,M,FEW,OVC,M,M,7000.00,12000.00,M,M,M,M,M,M,M,M,M,35.24,KINS 232258Z AUTO 35012KT 10SM FEW070 OVC120 06/M12 A2984 RMK AO2 RAE13 SLP103 P0000 T00581123 $,M
05U,2022-02-23 23:10,-116.0051,39.6042,1811.23,21.20,10.40,62.53,30.00,10.00,0.00,29.92,M,4.00,M,FEW,SCT,M,M,3200.00,4300.00,M,M,HZ,M,M,M,M,M,M,9.42,K05U 232310Z AUTO 03010KT 4SM HZ FEW032 SCT043 M06/M12 A2992 RMK A01,M
MEV,2022-02-23 23:15,-119.7500,38.9963,1441.42,28.40,8.60,42.73,20.00,6.00,0.00,30.04,M,10.00,14.00,FEW,M,M,M,4400.00,M,M,M,M,M,M,M,M,M,M,21.19,KMEV 232315Z AUTO 02006G14KT 10SM FEW044 M02/M13 A3004 RMK AO2,M
TMT,2022-02-23 23:15,-117.1971,39.4643,1749.34,20.50,6.60,54.29,330.00,8.00,0.00,29.97,M,10.00,M,OVC,M,M,M,3200.00,M,M,M,M,M,M,M,M,M,M,9.95,KTMT 232315Z AUTO 33008KT 10SM OVC032 M06/M14 A2997 RMK AO2 T10641141,M
HTH,2022-02-23 23:15,-118.6315,38.5448,1282.89,28.40,14.00,54.31,350.00,16.00,0.00,30.06,M,10.00,M,BKN,BKN,BKN,M,3500.00,4300.00,5500.00,M,M,M,M,M,M,M,M,15.73,KHTH 232315Z AUTO 35016KT 10SM BKN035 BKN043 BKN055 M02/M10 A3006 RMK A01,M
BAM,2022-02-23 23:15,-116.8743,40.5990,1382.36,28.40,14.00,54.31,320.00,11.00,0.00,30.03,M,10.00,16.00,BKN,BKN,BKN,M,3400.00,4200.00,5500.00,M,M,M,M,M,M,M,M,17.92,KBAM 232315Z AUTO 32011G16KT 10SM BKN034 BKN042 BKN055 M02/M10 A3003 RMK AO1,M
BVU,2022-02-23 23:15,-114.8611,35.9475,671.00,41.00,26.60,56.22,M,4.00,0.00,29.86,M,10.00,12.00,FEW,FEW,SCT,M,2000.00,3800.00,4600.00,M,-RA,M,M,M,M,M,M,37.93,KBVU 232315Z AUTO VRB04G12KT 10SM -RA FEW020 FEW038 SCT046 05/M03 A2986 RMK AO2,M
RTS,2022-02-23 23:15,-119.8764,39.6682,1539.00,M,M,M,M,M,0.00,M,M,M,M,M,M,M,M,M,M,M,M,M,M,M,M,M,M,M,M,KRTS 232315Z AUTO RMK AO2 PNO PWINO,M
05U,2022-02-23 23:30,-116.0051,39.6042,1811.23,21.20,10.40,62.53,20.00,7.00,0.00,29.92,M,2.00,14.00,FEW,M,M,M,4400.00,M,M,M,HZ,M,M,M,M,M,M,11.61,K05U 232330Z AUTO 02007G14KT 2SM HZ FEW044 M06/M12 A2992 RMK A01,M
LSV,2022-02-23 23:31,-115.0343,36.2362,570.00,46.40,24.80,42.44,50.00,12.00,0.00,29.86,1011.40,10.00,M,BKN,M,M,M,6500.00,M,M,M,-RA,M,M,M,M,M,M,40.33,KLSV 232331Z 05012KT 10SM -RA BKN065 08/M04 A2986 RMK AO2A RAB31 SLP114 $,M
LSV,2022-02-23 23:32,-115.0343,36.2362,570.00,46.40,24.80,42.44,60.00,12.00,0.00,29.86,1011.40,10.00,M,FEW,OVC,M,M,3600.00,6500.00,M,M,-GS,M,M,M,M,M,M,40.33,KLSV 232332Z 06012KT 10SM -GS FEW036 OVC065 08/M04 A2986 RMK RAB31 SLP114 $,M
BVU,2022-02-23 23:35,-114.8611,35.9475,671.00,42.80,28.40,56.48,60.00,7.00,0.00,29.86,M,10.00,M,CLR,M,M,M,M,M,M,M,M,M,M,M,M,M,M,37.94,KBVU 232335Z AUTO 06007KT 10SM CLR 06/M02 A2986 RMK AO2,M
MEV,2022-02-23 23:35,-119.7500,38.9963,1441.42,28.40,8.60,42.73,350.00,9.00,0.00,30.04,M,10.00,M,FEW,FEW,M,M,4300.00,4900.00,M,M,M,M,M,M,M,M,M,19.04,KMEV 232335Z AUTO 35009KT 10SM FEW043 FEW049 M02/M13 A3004 RMK AO2,M
TMT,2022-02-23 23:35,-117.1971,39.4643,1749.34,21.00,6.80,53.63,350.00,8.00,0.00,29.98,M,10.00,M,BKN,OVC,M,M,3400.00,4800.00,M,M,M,M,M,M,M,M,M,10.56,KTMT 232335Z AUTO 35008KT 10SM BKN034 OVC048 M06/M14 A2998 RMK AO2 T10611140,M
BAM,2022-02-23 23:35,-116.8743,40.5990,1382.36,28.40,12.20,50.17,340.00,9.00,0.00,30.03,M,10.00,M,SCT,M,M,M,3200.00,M,M,M,M,M,M,M,M,M,M,19.04,KBAM 232335Z AUTO 34009KT 10SM SCT032 M02/M11 A3003 RMK AO1,M
HTH,2022-02-23 23:35,-118.6315,38.5448,1282.89,26.60,15.80,63.27,350.00,16.00,0.00,30.07,M,10.00,M,FEW,SCT,BKN,M,2900.00,3500.00,4400.00,M,M,M,M,M,M,M,M,13.38,KHTH 232335Z AUTO 35016KT 10SM FEW029 SCT035 BKN044 M03/M09 A3007 RMK A01,M
RTS,2022-02-23 23:35,-119.8764,39.6682,1539.00,M,M,M,M,M,0.00,M,M,M,M,M,M,M,M,M,M,M,M,M,M,M,M,M,M,M,M,KRTS 232335Z AUTO RMK AO2 PNO PWINO,M
INS,2022-02-23 23:43,-115.6733,36.5872,955.00,42.80,6.80,22.25,330.00,12.00,0.00,29.85,1010.70,10.00,M,BKN,BKN,M,M,8500.00,12000.00,M,M,M,M,M,M,M,M,M,35.75,KINS 232343Z AUTO 33012KT 10SM BKN085 BKN120 06/M14 A2985 RMK AO2 SLP107 $,M
05U,2022-02-23 23:50,-116.0051,39.6042,1811.23,21.20,8.60,57.69,340.00,11.00,0.00,29.93,M,10.00,M,FEW,FEW,SCT,M,2100.00,2700.00,3100.00,M,M,M,M,M,M,M,M,8.82,K05U 232350Z AUTO 34011KT 10SM FEW021 FEW027 SCT031 M06/M13 A2993 RMK A01,M
VGT,2022-02-23 23:53,-115.1933,36.2111,667.00,48.00,16.00,27.48,300.00,14.00,0.00,29.84,1012.80,10.00,M,BKN,M,M,M,10000.00,M,M,M,M,M,M,M,26.00,290.00,2022-02-23 23:17,41.79,KVGT 232353Z AUTO 30014KT 10SM BKN100 09/M09 A2984 RMK AO2 PK WND 29026/2317 SLP128 T00891089 51014,M
DRA,2022-02-23 23:53,-116.0278,36.6206,1009.00,42.00,10.00,26.40,80.00,6.00,0.00,29.85,1010.80,10.00,M,SCT,BKN,BKN,M,7500.00,8500.00,11000.00,M,M,M,M,M,M,M,M,37.69,KDRA 232353Z AUTO 08006KT 10SM SCT075 BKN085 BKN110 06/M12 A2985 RMK AO2 SLP108 T00561122 10072 20017 53010,M
ELY,2022-02-23 23:53,-114.8453,39.2950,1909.00,19.00,12.00,73.73,10.00,13.00,0.00,29.83,1014.20,10.00,M,BKN,M,M,M,3100.00,M,M,M,M,M,M,M,M,M,M,4.91,KELY 232353Z AUTO 01013KT 10SM BKN031 M07/M11 A2983 RMK AO2 SLP142 60001 T10721111 11056 21072 52019,M
P68,2022-02-23 23:53,-116.0056,39.6014,1993.00,21.00,8.10,56.88,350.00,12.00,0.00,29.91,1016.20,M,18.00,M,M,M,M,M,M,M,M,M,M,M,M,M,M,M,8.00,KP68 232353Z AUTO 35012G18KT M06/M13 A2991 RMK AO1 SLP162 T10611133 11044 21072 53019,M
LOL,2022-02-23 23:53,-118.5701,40.0684,1192.43,30.90,12.90,46.74,360.00,5.00,0.00,30.08,1021.70,10.00,M,BKN,M,M,M,4000.00,M,M,M,M,M,M,M,M,M,M,25.09,KLOL 232353Z AUTO 36005KT 10SM BKN040 M01/M11 A3008 RMK AO2 SLP217 T10061106 11006 21044 53008,M
HTH,2022-02-23 23:55,-118.6315,38.5448,1282.89,26.60,15.80,63.27,360.00,12.00,0.00,30.07,M,10.00,19.00,FEW,SCT,BKN,M,2800.00,3900.00,4500.00,M,M,M,M,M,M,M,M,15.13,KHTH 232355Z AUTO 36012G19KT 10SM FEW028 SCT039 BKN045 M03/M09 A3007 RMK A01,M
RNO,2022-02-23 23:55,-119.7711,39.4839,1341.00,30.90,14.00,49.05,130.00,6.00,0.00,30.06,1020.10,10.00,M,SCT,M,M,M,5000.00,M,M,M,M,M,M,M,M,M,M,24.21,KRNO 232355Z 13006KT 10SM SCT050 M01/M10 A3006 RMK AO2 SLP201 4/001 T10061100 11006 21044 53008,1
BVU,2022-02-23 23:55,-114.8611,35.9475,671.00,42.80,30.20,60.79,70.00,7.00,0.00,29.87,M,10.00,M,BKN,M,M,M,6000.00,M,M,M,M,M,M,M,M,M,M,37.94,KBVU 232355Z AUTO 07007KT 10SM BKN060 06/M01 A2987 RMK AO2,M
MEV,2022-02-23 23:55,-119.7500,38.9963,1441.42,30.20,8.60,39.70,20.00,7.00,0.00,30.04,M,10.00,13.00,FEW,SCT,BKN,M,3600.00,4200.00,4900.00,M,M,M,M,M,M,M,M,22.59,KMEV 232355Z AUTO 02007G13KT 10SM FEW036 SCT042 BKN049 M01/M13 A3004 RMK AO2,M
TMT,2022-02-23 23:55,-117.1971,39.4643,1749.34,20.30,6.30,54.01,340.00,8.00,0.00,29.98,M,10.00,M,BKN,BKN,M,M,3300.00,4600.00,M,M,M,M,M,M,M,M,M,9.70,KTMT 232355Z AUTO 34008KT 10SM BKN033 BKN046 M06/M14 A2998 RMK AO2 T10651143 11053 21082,M
BAM,2022-02-23 23:55,-116.8743,40.5990,1382.36,28.40,12.20,50.17,350.00,9.00,0.00,30.04,M,10.00,15.00,CLR,M,M,M,M,M,M,M,M,M,M,M,M,M,M,19.04,KBAM 232355Z AUTO 35009G15KT 10SM CLR M02/M11 A3004 RMK AO1,M
RTS,2022-02-23 23:55,-119.8764,39.6682,1539.00,M,M,M,M,M,0.00,M,M,M,M,M,M,M,M,M,M,M,M,M,M,M,M,M,M,M,M,KRTS 232355Z AUTO RMK AO2 PNO PWINO,M
TPH,2022-02-23 23:56,-117.0904,38.0505,1654.00,27.00,8.10,44.26,320.00,26.00,0.00,29.89,1015.20,10.00,38.00,CLR,M,M,M,M,M,M,M,M,M,M,M,41.00,320.00,2022-02-23 23:23,10.78,KTPH 232356Z AUTO 32026G38KT 10SM CLR M03/M13 A2989 RMK AO2 PK WND 32041/2323 SLP152 T10281133 11006 21033 53019,M
HND,2022-02-23 23:56,-115.1344,35.9729,742.79,45.00,19.00,35.02,280.00,15.00,0.00,29.87,1014.10,10.00,19.00,BKN,M,M,M,7000.00,M,M,M,M,M,M,M,M,M,M,37.63,KHND 232356Z 28015G19KT 10SM BKN070 07/M07 A2987 RMK AO2 SLP141 60000 T00721072 10089 20044 53009,M
NFL,2022-02-23 23:56,-118.7010,39.4166,1199.00,30.00,12.00,46.59,20.00,12.00,0.00,30.07,1015.20,10.00,M,SCT,BKN,BKN,M,3000.00,5000.00,12000.00,M,M,M,M,M,M,M,M,19.46,KNFL 232356Z 02012KT 10SM SCT030 BKN050 BKN120 M01/M11 A3007 RMK AO2 SLP152 60000 T10111111 11006 21044 53011,M
WMC,2022-02-23 23:56,-117.8072,40.9019,1315.00,28.00,12.90,52.61,10.00,4.00,0.00,30.04,1020.40,10.00,M,CLR,M,M,M,M,M,M,M,M,M,M,M,M,M,M,22.75,KWMC 232356Z AUTO 01004KT 10SM CLR M02/M11 A3004 RMK AO2 SLP204 T10221106 11022 21072 53006 TSNO,M
EKO,2022-02-23 23:56,-115.7860,40.8242,1367.00,25.00,9.00,50.07,290.00,8.00,0.00,29.94,1018.40,10.00,M,SCT,SCT,M,M,3900.00,5000.00,M,M,M,M,M,M,M,M,M,15.49,KEKO 232356Z AUTO 29008KT 10SM SCT039 SCT050 M04/M13 A2994 RMK AO2 SLP184 60000 T10391128 11033 21061 53016,M
LAS,2022-02-23 23:56,-115.1634,36.0719,663.00,47.00,16.00,28.64,300.00,12.00,0.00,29.86,1011.40,10.00,M,FEW,SCT,BKN,BKN,5500.00,7000.00,9000.00,15000.00,M,M,M,M,M,M,M,40.97,KLAS 232356Z 30012KT 10SM FEW055 SCT070 BKN090 BKN150 08/M09 A2986 RMK AO2 SLP114 VCSH ALQDS T00831089 10089 20061 53016,M
LSV,2022-02-23 23:57,-115.0343,36.2362,570.00,42.80,30.20,60.79,110.00,8.00,0.00,29.85,1011.20,10.00,M,BKN,M,M,M,7000.00,M,M,M,M,M,M,M,M,M,M,37.42,KLSV 232357Z AUTO 11008KT 10SM BKN070 06/M01 A2985 RMK AO2 RAB31E57 SLP112 $,M
LSV,2022-02-23 23:58,-115.0343,36.2362,570.00,42.40,30.00,61.23,110.00,8.00,0.01,29.86,1011.60,10.00,M,BKN,M,M,M,7000.00,M,M,M,M,M,M,M,M,M,M,36.92,KLSV 232358Z 11008KT 10SM BKN070 06/M01 A2986 RMK AO2A RAB31E57 SLP116 P0001 60005 T00581011 10092 20052 52015 $,M
INS,2022-02-23 23:58,-115.6733,36.5872,955.00,42.30,7.20,23.10,320.00,8.00,0.00,29.86,1011.00,10.00,M,BKN,OVC,M,M,9000.00,13000.00,M,M,M,M,M,M,M,M,M,36.80,KINS 232358Z AUTO 32008KT 10SM BKN090 OVC130 06/M14 A2986 RMK AO2 SLP110 60000 T00571138 10061 20026 52015 $,M
