station,valid,lon,lat,elevation,tmpf,dwpf,relh,drct,sknt,p01i,alti,mslp,vsby,gust,skyc1,skyc2,skyc3,skyc4,skyl1,skyl2,skyl3,skyl4,wxcodes,ice_accretion_1hr,ice_accretion_3hr,ice_accretion_6hr,peak_wind_gust,peak_wind_drct,peak_wind_time,feel,metar,snowdepth
05U,2024-09-05 00:10,-116.0051,39.6042,1811.23,82.40,21.20,10.34,20.00,11.00,0.00,30.36,M,10.00,M,CLR,M,M,M,M,M,M,M,M,M,M,M,M,M,M,79.55,K05U 050010Z AUTO 02011KT 10SM CLR 28/M06 A3036 RMK A01,M
BVU,2024-09-05 00:15,-114.8611,35.9475,671.00,104.00,37.40,10.25,M,4.00,0.00,29.92,M,10.00,M,CLR,M,M,M,M,M,M,M,M,M,M,M,M,M,M,98.19,KBVU 050015Z AUTO VRB04KT 10SM CLR 40/03 A2992 RMK AO2,M
CXP,2024-09-05 00:15,-119.7326,39.1923,1431.00,87.80,23.00,9.39,80.00,12.00,0.00,30.25,M,10.00,M,CLR,M,M,M,M,M,M,M,M,M,M,M,M,M,M,83.43,KCXP 050015Z AUTO 08012KT 10SM CLR 31/M05 A3025 RMK AO2,M
RTS,2024-09-05 00:15,-119.8764,39.6682,1539.00,86.00,19.40,8.53,120.00,6.00,0.00,30.28,M,10.00,M,CLR,M,M,M,M,M,M,M,M,M,M,M,M,M,M,81.94,KRTS 050015Z AUTO 12006KT 10SM CLR 30/M07 A3028 RMK AO2,M
MEV,2024-09-05 00:15,-119.7500,38.9963,1441.42,89.60,23.00,8.87,320.00,7.00,0.00,30.22,M,10.00,M,CLR,M,M,M,M,M,M,M,M,M,M,M,M,M,M,84.75,KMEV 050015Z AUTO 32007KT 10SM CLR 32/M05 A3022 RMK AO2,M
BAM,2024-09-05 00:15,-116.8743,40.5990,1382.36,86.00,26.60,11.55,330.00,7.00,0.00,30.28,M,10.00,M,CLR,M,M,M,M,M,M,M,M,M,M,M,M,M,M,82.39,KBAM 050015Z AUTO 33007KT 10SM CLR 30/M03 A3028 RMK AO1,M
HTH,2024-09-05 00:15,-118.6315,38.5448,1282.89,91.40,19.40,7.19,330.00,14.00,0.00,30.18,M,10.00,M,CLR,M,M,M,M,M,M,M,M,M,M,M,M,M,M,85.86,KHTH 050015Z AUTO 33014KT 10SM CLR 33/M07 A3018 RMK A01,M
TMT,2024-09-05 00:15,-117.1971,39.4643,1749.34,82.80,26.00,12.49,20.00,4.00,0.00,30.34,M,10.00,M,CLR,M,M,M,M,M,M,M,M,M,M,M,M,M,M,80.14,KTMT 050015Z AUTO 02004KT 10SM CLR 28/M03 A3034 RMK AO2 T02821033,M
10U,2024-09-05 00:15,-116.1876,41.9532,1637.00,78.80,32.00,18.18,10.00,6.00,0.00,30.35,M,10.00,M,CLR,M,M,M,M,M,M,M,M,M,M,M,M,M,M,78.80,K10U 050015Z AUTO 01006KT 10SM CLR 26/00 A3035 RMK AO2,M
RTS,2024-09-05 00:25,-119.8764,39.6682,1539.00,86.00,19.40,8.53,0.00,0.00,0.00,30.28,M,10.00,M,CLR,M,M,M,M,M,M,M,M,M,M,M,M,M,M,81.94,KRTS 050025Z AUTO 00000KT 10SM CLR 30/M07 A3028 RMK AO2,M
05U,2024-09-05 00:30,-116.0051,39.6042,1811.23,80.60,21.20,10.97,20.00,11.00,0.00,30.36,M,10.00,M,CLR,M,M,M,M,M,M,M,M,M,M,M,M,M,M,78.68,K05U 050030Z AUTO 02011KT 10SM CLR 27/M06 A3036 RMK A01,M
BVU,2024-09-05 00:35,-114.8611,35.9475,671.00,104.00,37.40,10.25,50.00,7.00,0.00,29.92,M,10.00,M,CLR,M,M,M,M,M,M,M,M,M,M,M,M,M,M,98.19,KBVU 050035Z AUTO 05007KT 10SM CLR 40/03 A2992 RMK AO2,M
CXP,2024-09-05 00:35,-119.7326,39.1923,1431.00,87.80,23.00,9.39,80.00,9.00,0.00,30.25,M,10.00,M,CLR,M,M,M,M,M,M,M,M,M,M,M,M,M,M,83.43,KCXP 050035Z AUTO 08009KT 10SM CLR 31/M05 A3025 RMK AO2,M
MEV,2024-09-05 00:35,-119.7500,38.9963,1441.42,87.80,23.00,9.39,350.00,6.00,0.00,30.22,M,10.00,M,CLR,M,M,M,M,M,M,M,M,M,M,M,M,M,M,83.43,KMEV 050035Z AUTO 35006KT 10SM CLR 31/M05 A3022 RMK AO2,M
BAM,2024-09-05 00:35,-116.8743,40.5990,1382.36,86.00,26.60,11.55,320.00,6.00,0.00,30.28,M,10.00,M,CLR,M,M,M,M,M,M,M,M,M,M,M,M,M,M,82.39,KBAM 050035Z AUTO 32006KT 10SM CLR 30/M03 A3028 RMK AO1,M
HTH,2024-09-05 00:35,-118.6315,38.5448,1282.89,91.40,19.40,7.19,320.00,13.00,0.00,30.18,M,10.00,M,CLR,M,M,M,M,M,M,M,M,M,M,M,M,M,M,85.86,KHTH 050035Z AUTO 32013KT 10SM CLR 33/M07 A3018 RMK A01,M
TMT,2024-09-05 00:35,-117.1971,39.4643,1749.34,82.80,26.20,12.59,350.00,7.00,0.00,30.34,M,10.00,M,CLR,M,M,M,M,M,M,M,M,M,M,M,M,M,M,80.15,KTMT 050035Z AUTO 35007KT 10SM CLR 28/M03 A3034 RMK AO2 T02821032,M
10U,2024-09-05 00:35,-116.1876,41.9532,1637.00,78.80,32.00,18.18,360.00,6.00,0.00,30.35,M,10.00,12.00,CLR,M,M,M,M,M,M,M,M,M,M,M,M,M,M,78.80,K10U 050035Z AUTO 36006G12KT 10SM CLR 26/M00 A3035 RMK AO2,M
05U,2024-09-05 00:50,-116.0051,39.6042,1811.23,80.60,23.00,11.83,20.00,10.00,0.00,30.36,M,10.00,15.00,CLR,M,M,M,M,M,M,M,M,M,M,M,M,M,M,78.80,K05U 050050Z AUTO 02010G15KT 10SM CLR 27/M05 A3036 RMK A01,M
P68,2024-09-05 00:53,-116.0056,39.6014,1993.00,81.00,23.00,11.68,30.00,15.00,0.00,30.34,1021.00,M,M,M,M,M,M,M,M,M,M,M,M,M,M,M,M,M,78.75,KP68 050053Z AUTO 03015KT 27/M05 A3034 RMK AO1 SLP210 T02721050,M
DRA,2024-09-05 00:53,-116.0278,36.6206,1009.00,98.00,36.00,11.62,210.00,5.00,0.00,30.05,1012.10,10.00,M,CLR,M,M,M,M,M,M,M,M,M,M,M,M,M,M,92.79,KDRA 050053Z AUTO 21005KT 10SM CLR 37/02 A3005 RMK AO2 SLP121 T03670022,M
ELY,2024-09-05 00:53,-114.8453,39.2950,1909.00,82.00,22.00,10.84,320.00,11.00,0.00,30.35,1019.10,10.00,M,CLR,M,M,M,M,M,M,M,M,M,M,M,M,M,M,79.34,KELY 050053Z AUTO 32011KT 10SM CLR 28/M06 A3035 RMK AO2 SLP191 T02781056,M
VGT,2024-09-05 00:53,-115.1933,36.2111,667.00,107.00,41.00,10.79,310.00,5.00,0.00,29.92,1011.80,10.00,M,CLR,M,M,M,M,M,M,M,M,M,M,M,M,M,M,101.62,KVGT 050053Z 31005KT 10SM CLR 42/05 A2992 RMK AO2 SLP118 T04170050,M
LOL,2024-09-05 00:53,-118.5701,40.0684,1192.43,89.00,26.00,10.24,30.00,8.00,0.00,30.19,1019.60,10.00,M,CLR,M,M,M,M,M,M,M,M,M,M,M,M,M,M,84.52,KLOL 050053Z AUTO 03008KT 10SM CLR 32/M03 A3019 RMK AO2 SLP196 T03171033,M
BVU,2024-09-05 00:55,-114.8611,35.9475,671.00,104.00,37.40,10.25,40.00,4.00,0.00,29.92,M,10.00,M,CLR,M,M,M,M,M,M,M,M,M,M,M,M,M,M,98.19,KBVU 050055Z AUTO 04004KT 10SM CLR 40/03 A2992 RMK AO2,M
INS,2024-09-05 00:55,-115.6733,36.5872,955.00,100.00,31.00,8.95,270.00,7.00,0.00,30.02,1010.70,10.00,M,CLR,M,M,M,M,M,M,M,M,M,M,M,M,M,M,93.74,KINS 050055Z AUTO 27007KT 10SM CLR 38/M00 A3002 RMK AO2 SLP107 T03781005,M
RNO,2024-09-05 00:55,-119.7711,39.4839,1341.00,89.00,24.00,9.42,60.00,8.00,0.00,30.22,1017.80,10.00,M,CLR,M,M,M,M,M,M,M,M,M,M,M,M,M,M,84.38,KRNO 050055Z 06008KT 10SM CLR 32/M04 A3022 RMK AO2 SLP178 T03171044,M
BAM,2024-09-05 00:55,-116.8743,40.5990,1382.36,86.00,26.60,11.55,320.00,4.00,0.00,30.28,M,10.00,M,CLR,M,M,M,M,M,M,M,M,M,M,M,M,M,M,82.39,KBAM 050055Z AUTO 32004KT 10SM CLR 30/M03 A3028 RMK AO1,M
CXP,2024-09-05 00:55,-119.7326,39.1923,1431.00,87.80,23.00,9.39,70.00,9.00,0.00,30.25,M,10.00,14.00,CLR,M,M,M,M,M,M,M,M,M,M,M,M,M,M,83.43,KCXP 050055Z AUTO 07009G14KT 10SM CLR 31/M05 A3025 RMK AO2,M
MEV,2024-09-05 00:55,-119.7500,38.9963,1441.42,87.80,23.00,9.39,340.00,9.00,0.00,30.22,M,10.00,M,CLR,M,M,M,M,M,M,M,M,M,M,M,M,M,M,83.43,KMEV 050055Z AUTO 34009KT 10SM CLR 31/M05 A3022 RMK AO2,M
HTH,2024-09-05 00:55,-118.6315,38.5448,1282.89,89.60,19.40,7.61,320.00,13.00,0.00,30.18,M,10.00,19.00,CLR,M,M,M,M,M,M,M,M,M,M,M,M,M,M,84.54,KHTH 050055Z AUTO 32013G19KT 10SM CLR 32/M07 A3018 RMK A01,M
TMT,2024-09-05 00:55,-117.1971,39.4643,1749.34,81.50,27.00,13.57,30.00,11.00,0.00,30.34,M,10.00,15.00,CLR,M,M,M,M,M,M,M,M,M,M,M,M,M,M,79.30,KTMT 050055Z AUTO 03011G15KT 10SM CLR 28/M03 A3034 RMK AO2 T02751028,M
10U,2024-09-05 00:55,-116.1876,41.9532,1637.00,77.00,32.00,19.30,340.00,7.00,0.00,30.35,M,10.00,M,CLR,M,M,M,M,M,M,M,M,M,M,M,M,M,M,77.00,K10U 050055Z AUTO 34007KT 10SM CLR 25/00 A3035 RMK AO2,M
LSV,2024-09-05 00:55,-115.0343,36.2362,570.00,106.00,29.00,6.90,90.00,3.00,0.00,29.87,1008.40,10.00,M,CLR,M,M,M,M,M,M,M,M,M,M,M,M,M,M,98.57,KLSV 050055Z AUTO 09003KT 10SM CLR 41/M02 A2987 RMK AO2 SLP084 T04111016 $,M
EKO,2024-09-05 00:56,-115.7860,40.8242,1367.00,85.00,29.00,13.16,10.00,3.00,0.00,30.29,1021.50,10.00,M,CLR,M,M,M,M,M,M,M,M,M,M,M,M,M,M,81.86,KEKO 050056Z AUTO 01003KT 10SM CLR 29/M02 A3029 RMK AO2 SLP215 T02941017,M
WMC,2024-09-05 00:56,-117.8072,40.9019,1315.00,87.00,27.00,11.37,20.00,7.00,0.00,30.25,1021.00,10.00,M,CLR,M,M,M,M,M,M,M,M,M,M,M,M,M,M,83.14,KWMC 050056Z AUTO 02007KT 10SM CLR 31/M03 A3025 RMK AO2 SLP210 T03061028,M
HND,2024-09-05 00:56,-115.1344,35.9729,742.79,104.00,43.00,12.74,0.00,0.00,0.00,29.98,1013.00,10.00,M,CLR,M,M,M,M,M,M,M,M,M,M,M,M,M,M,99.47,KHND 050056Z 00000KT 10SM CLR 40/06 A2998 RMK AO2 SLP130 T04000061,M
TPH,2024-09-05 00:56,-117.0904,38.0505,1654.00,89.00,28.00,11.12,280.00,3.00,0.00,30.25,1016.60,10.00,M,CLR,M,M,M,M,M,M,M,M,M,M,M,M,M,M,84.69,KTPH 050056Z AUTO 28003KT 10SM CLR 32/M02 A3025 RMK AO2 SLP166 T03171022,M
LAS,2024-09-05 00:56,-115.1634,36.0719,663.00,105.00,39.00,10.59,350.00,4.00,0.00,29.94,1010.50,10.00,M,FEW,M,M,M,12000.00,M,M,M,M,M,M,M,M,M,M,99.39,KLAS 050056Z 35004KT 10SM FEW120 41/04 A2994 RMK AO2 SLP105 T04060039,M
NFL,2024-09-05 00:57,-118.7010,39.4166,1199.00,91.00,28.00,10.44,10.00,9.00,0.00,30.18,1018.40,10.00,M,CLR,M,M,M,M,M,M,M,M,M,M,M,M,M,M,86.19,KNFL 050057Z 01009KT 10SM CLR 33/M02 A3018 RMK AO2 SLP184 T03281022,M
ELY,2024-09-05 01:00,-114.8453,39.2950,1909.00,82.00,21.00,10.39,360.00,11.00,0.00,30.35,M,10.00,16.00,CLR,M,M,M,M,M,M,M,M,M,M,M,M,M,M,79.28,KELY 050100Z AUTO 36011G16KT 10SM CLR 28/M06 A3035 RMK AO2 WSHFT 0040 T02781061,M
05U,2024-09-05 01:10,-116.0051,39.6042,1811.23,78.80,23.00,12.55,20.00,10.00,0.00,30.36,M,10.00,M,CLR,M,M,M,M,M,M,M,M,M,M,M,M,M,M,78.80,K05U 050110Z AUTO 02010KT 10SM CLR 26/M05 A3036 RMK A01,M
BVU,2024-09-05 01:15,-114.8611,35.9475,671.00,104.00,37.40,10.25,30.00,6.00,0.00,29.92,M,9.00,13.00,CLR,M,M,M,M,M,M,M,M,M,M,M,M,M,M,98.19,KBVU 050115Z AUTO 03006G13KT 9SM CLR 40/03 A2992 RMK AO2,M
CXP,2024-09-05 01:15,-119.7326,39.1923,1431.00,86.00,23.00,9.94,70.00,9.00,0.00,30.25,M,10.00,M,CLR,M,M,M,M,M,M,M,M,M,M,M,M,M,M,82.14,KCXP 050115Z AUTO 07009KT 10SM CLR 30/M05 A3025 RMK AO2,M
RTS,2024-09-05 01:15,-119.8764,39.6682,1539.00,84.20,19.40,9.04,30.00,9.00,0.00,30.28,M,10.00,M,CLR,M,M,M,M,M,M,M,M,M,M,M,M,M,M,80.68,KRTS 050115Z AUTO 03009KT 10SM CLR 29/M07 A3028 RMK AO2,M
MEV,2024-09-05 01:15,-119.7500,38.9963,1441.42,87.80,23.00,9.39,340.00,9.00,0.00,30.22,M,10.00,M,CLR,M,M,M,M,M,M,M,M,M,M,M,M,M,M,83.43,KMEV 050115Z AUTO 34009KT 10SM CLR 31/M05 A3022 RMK AO2,M
BAM,2024-09-05 01:15,-116.8743,40.5990,1382.36,84.20,28.40,13.18,330.00,5.00,0.00,30.28,M,10.00,M,CLR,M,M,M,M,M,M,M,M,M,M,M,M,M,M,81.25,KBAM 050115Z AUTO 33005KT 10SM CLR 29/M02 A3028 RMK AO1,M
HTH,2024-09-05 01:15,-118.6315,38.5448,1282.89,89.60,19.40,7.61,320.00,13.00,0.00,30.18,M,10.00,M,CLR,M,M,M,M,M,M,M,M,M,M,M,M,M,M,84.54,KHTH 050115Z AUTO 32013KT 10SM CLR 32/M07 A3018 RMK A01,M
TMT,2024-09-05 01:15,-117.1971,39.4643,1749.34,80.20,26.60,13.93,30.00,9.00,0.00,30.34,M,10.00,M,CLR,M,M,M,M,M,M,M,M,M,M,M,M,M,M,78.57,KTMT 050115Z AUTO 03009KT 10SM CLR 27/M03 A3034 RMK AO2 T02681030,M
10U,2024-09-05 01:15,-116.1876,41.9532,1637.00,77.00,37.40,23.93,50.00,8.00,0.00,30.35,M,10.00,M,CLR,M,M,M,M,M,M,M,M,M,M,M,M,M,M,77.00,K10U 050115Z AUTO 05008KT 10SM CLR 25/03 A3035 RMK AO2,M
05U,2024-09-05 01:30,-116.0051,39.6042,1811.23,77.00,23.00,13.32,30.00,6.00,0.00,30.37,M,10.00,13.00,CLR,M,M,M,M,M,M,M,M,M,M,M,M,M,M,77.00,K05U 050130Z AUTO 03006G13KT 10SM CLR 25/M05 A3037 RMK A01,M
HTH,2024-09-05 01:30,-118.6315,38.5448,1282.89,89.60,21.20,8.22,320.00,11.00,0.00,30.19,M,10.00,M,CLR,M,M,M,M,M,M,M,M,M,M,M,M,M,M,84.64,KHTH 050130Z AUTO 32011KT 10SM CLR 32/M06 A3019 RMK A01,M
BVU,2024-09-05 01:35,-114.8611,35.9475,671.00,102.20,37.40,10.81,50.00,5.00,0.00,29.92,M,10.00,M,CLR,M,M,M,M,M,M,M,M,M,M,M,M,M,M,96.63,KBVU 050135Z AUTO 05005KT 10SM CLR 39/03 A2992 RMK AO2,M
CXP,2024-09-05 01:35,-119.7326,39.1923,1431.00,86.00,23.00,9.94,60.00,10.00,0.00,30.25,M,10.00,M,CLR,M,M,M,M,M,M,M,M,M,M,M,M,M,M,82.14,KCXP 050135Z AUTO 06010KT 10SM CLR 30/M05 A3025 RMK AO2,M
RTS,2024-09-05 01:35,-119.8764,39.6682,1539.00,84.20,19.40,9.04,50.00,10.00,0.00,30.28,M,10.00,M,CLR,M,M,M,M,M,M,M,M,M,M,M,M,M,M,80.68,KRTS 050135Z AUTO 05010KT 10SM CLR 29/M07 A3028 RMK AO2,M
MEV,2024-09-05 01:35,-119.7500,38.9963,1441.42,86.00,23.00,9.94,340.00,9.00,0.00,30.22,M,10.00,M,CLR,M,M,M,M,M,M,M,M,M,M,M,M,M,M,82.14,KMEV 050135Z AUTO 34009KT 10SM CLR 30/M05 A3022 RMK AO2,M
BAM,2024-09-05 01:35,-116.8743,40.5990,1382.36,82.40,30.20,15.03,330.00,4.00,0.00,30.28,M,10.00,M,CLR,M,M,M,M,M,M,M,M,M,M,M,M,M,M,79.97,KBAM 050135Z AUTO 33004KT 10SM CLR 28/M01 A3028 RMK AO1,M
TMT,2024-09-05 01:35,-117.1971,39.4643,1749.34,78.80,28.00,15.45,20.00,8.00,0.00,30.34,M,10.00,M,CLR,M,M,M,M,M,M,M,M,M,M,M,M,M,M,78.80,KTMT 050135Z AUTO 02008KT 10SM CLR 26/M02 A3034 RMK AO2 T02601023,M
10U,2024-09-05 01:35,-116.1876,41.9532,1637.00,73.40,37.40,26.98,50.00,8.00,0.00,30.36,M,10.00,M,CLR,M,M,M,M,M,M,M,M,M,M,M,M,M,M,73.40,K10U 050135Z AUTO 05008KT 10SM CLR 23/03 A3036 RMK AO2,M
05U,2024-09-05 01:50,-116.0051,39.6042,1811.23,75.20,23.00,14.15,0.00,0.00,0.00,30.37,M,10.00,11.00,CLR,M,M,M,M,M,M,M,M,M,M,M,M,M,M,75.20,K05U 050150Z AUTO 00000G11KT 10SM CLR 24/M05 A3037 RMK A01,M
P68,2024-09-05 01:53,-116.0056,39.6014,1993.00,74.00,25.00,16.01,30.00,9.00,0.00,30.34,1021.90,M,M,M,M,M,M,M,M,M,M,M,M,M,M,M,M,M,74.00,KP68 050153Z AUTO 03009KT 23/M04 A3034 RMK AO1 SLP219 T02331039,M
DRA,2024-09-05 01:53,-116.0278,36.6206,1009.00,96.00,33.00,10.96,300.00,4.00,0.00,30.05,1012.00,10.00,M,CLR,M,M,M,M,M,M,M,M,M,M,M,M,M,M,90.66,KDRA 050153Z AUTO 30004KT 10SM CLR 36/01 A3005 RMK AO2 SLP120 T03560006,M
ELY,2024-09-05 01:53,-114.8453,39.2950,1909.00,75.00,18.00,11.51,350.00,8.00,0.00,30.35,1020.80,10.00,M,CLR,M,M,M,M,M,M,M,M,M,M,M,M,M,M,75.00,KELY 050153Z AUTO 35008KT 10SM CLR 24/M08 A3035 RMK AO2 WSHFT 0040 SLP208 T02391078,M
VGT,2024-09-05 01:53,-115.1933,36.2111,667.00,105.00,41.00,11.45,310.00,5.00,0.00,29.93,1011.80,10.00,M,CLR,M,M,M,M,M,M,M,M,M,M,M,M,M,M,99.85,KVGT 050153Z 31005KT 10SM CLR 41/05 A2993 RMK AO2 SLP118 T04060050,M
LOL,2024-09-05 01:53,-118.5701,40.0684,1192.43,85.00,28.00,12.63,30.00,7.00,0.00,30.19,1019.70,10.00,M,CLR,M,M,M,M,M,M,M,M,M,M,M,M,M,M,81.80,KLOL 050153Z AUTO 03007KT 10SM CLR 29/M02 A3019 RMK AO2 SLP197 T02941022,M
BVU,2024-09-05 01:55,-114.8611,35.9475,671.00,100.40,37.40,11.41,40.00,7.00,0.00,29.92,M,10.00,M,CLR,M,M,M,M,M,M,M,M,M,M,M,M,M,M,95.08,KBVU 050155Z AUTO 04007KT 10SM CLR 38/03 A2992 RMK AO2,M
INS,2024-09-05 01:55,-115.6733,36.5872,955.00,97.00,29.00,9.04,270.00,6.00,0.00,30.03,1011.00,10.00,M,CLR,M,M,M,M,M,M,M,M,M,M,M,M,M,M,90.98,KINS 050155Z AUTO 27006KT 10SM CLR 36/M02 A3003 RMK AO2 SLP110 T03621017,M
RNO,2024-09-05 01:55,-119.7711,39.4839,1341.00,87.00,26.00,10.91,80.00,6.00,0.00,30.22,1018.00,10.00,M,CLR,M,M,M,M,M,M,M,M,M,M,M,M,M,M,83.06,KRNO 050155Z 08006KT 10SM CLR 31/M03 A3022 RMK AO2 SLP180 T03061033,M
LSV,2024-09-05 01:55,-115.0343,36.2362,570.00,105.00,32.00,8.02,0.00,0.00,0.00,29.87,1008.30,10.00,M,CLR,M,M,M,M,M,M,M,M,M,M,M,M,M,M,98.13,KLSV 050155Z AUTO 00000KT 10SM CLR 41/M00 A2987 RMK AO2 SLP083 T04061001 $,M
BAM,2024-09-05 01:55,-116.8743,40.5990,1382.36,80.60,30.20,15.94,320.00,4.00,0.00,30.28,M,10.00,M,CLR,M,M,M,M,M,M,M,M,M,M,M,M,M,M,78.77,KBAM 050155Z AUTO 32004KT 10SM CLR 27/M01 A3028 RMK AO1,M
CXP,2024-09-05 01:55,-119.7326,39.1923,1431.00,84.20,23.00,10.53,60.00,10.00,0.00,30.25,M,10.00,15.00,CLR,M,M,M,M,M,M,M,M,M,M,M,M,M,M,80.88,KCXP 050155Z AUTO 06010G15KT 10SM CLR 29/M05 A3025 RMK AO2,M
RTS,2024-09-05 01:55,-119.8764,39.6682,1539.00,82.40,19.40,9.58,50.00,9.00,0.00,30.28,M,10.00,M,CLR,M,M,M,M,M,M,M,M,M,M,M,M,M,M,79.45,KRTS 050155Z AUTO 05009KT 10SM CLR 28/M07 A3028 RMK AO2,M
MEV,2024-09-05 01:55,-119.7500,38.9963,1441.42,84.20,21.20,9.76,30.00,7.00,0.00,30.22,M,10.00,M,CLR,M,M,M,M,M,M,M,M,M,M,M,M,M,M,80.77,KMEV 050155Z AUTO 03007KT 10SM CLR 29/M06 A3022 RMK AO2,M
HTH,2024-09-05 01:55,-118.6315,38.5448,1282.89,86.00,21.20,9.21,310.00,11.00,0.00,30.19,M,10.00,M,CLR,M,M,M,M,M,M,M,M,M,M,M,M,M,M,82.04,KHTH 050155Z AUTO 31011KT 10SM CLR 30/M06 A3019 RMK A01,M
TMT,2024-09-05 01:55,-117.1971,39.4643,1749.34,76.50,27.70,16.47,10.00,7.00,0.00,30.34,M,10.00,M,CLR,M,M,M,M,M,M,M,M,M,M,M,M,M,M,76.50,KTMT 050155Z AUTO 01007KT 10SM CLR 25/M02 A3034 RMK AO2 T02471024,M
10U,2024-09-05 01:55,-116.1876,41.9532,1637.00,71.60,37.40,28.68,50.00,8.00,0.00,30.36,M,10.00,M,CLR,M,M,M,M,M,M,M,M,M,M,M,M,M,M,71.60,K10U 050155Z AUTO 05008KT 10SM CLR 22/03 A3036 RMK AO2,M
EKO,2024-09-05 01:56,-115.7860,40.8242,1367.00,81.00,27.00,13.80,10.00,3.00,0.00,30.30,1021.70,10.00,M,CLR,M,M,M,M,M,M,M,M,M,M,M,M,M,M,78.96,KEKO 050156Z AUTO 01003KT 10SM CLR 27/M03 A3030 RMK AO2 SLP217 T02721028,M
WMC,2024-09-05 01:56,-117.8072,40.9019,1315.00,82.00,28.00,13.92,30.00,4.00,0.00,30.25,1021.30,10.00,M,CLR,M,M,M,M,M,M,M,M,M,M,M,M,M,M,79.66,KWMC 050156Z AUTO 03004KT 10SM CLR 28/M02 A3025 RMK AO2 SLP213 T02781022,M
HND,2024-09-05 01:56,-115.1344,35.9729,742.79,102.00,43.00,13.52,0.00,0.00,0.00,29.98,1013.10,10.00,M,CLR,M,M,M,M,M,M,M,M,M,M,M,M,M,M,97.60,KHND 050156Z 00000KT 10SM CLR 39/06 A2998 RMK AO2 SLP131 T03890061,M
TPH,2024-09-05 01:56,-117.0904,38.0505,1654.00,86.00,27.00,11.74,290.00,6.00,0.00,30.25,1016.80,10.00,M,CLR,M,M,M,M,M,M,M,M,M,M,M,M,M,M,82.42,KTPH 050156Z AUTO 29006KT 10SM CLR 30/M03 A3025 RMK AO2 SLP168 T03001028,M
LAS,2024-09-05 01:56,-115.1634,36.0719,663.00,103.00,41.00,12.15,130.00,4.00,0.00,29.94,1010.70,10.00,M,FEW,M,M,M,12000.00,M,M,M,M,M,M,M,M,M,M,98.09,KLAS 050156Z 13004KT 10SM FEW120 39/05 A2994 RMK AO2 SLP107 T03940050,M
NFL,2024-09-05 01:57,-118.7010,39.4166,1199.00,86.00,33.00,14.99,20.00,5.00,0.00,30.18,1018.20,9.00,M,CLR,M,M,M,M,M,M,M,M,M,M,M,M,M,M,82.65,KNFL 050157Z 02005KT 9SM CLR 30/01 A3018 RMK AO2 SLP182 T03000006,M
05U,2024-09-05 02:10,-116.0051,39.6042,1811.23,71.60,23.00,15.97,0.00,0.00,0.00,30.37,M,9.00,M,CLR,M,M,M,M,M,M,M,M,M,M,M,M,M,M,71.60,K05U 050210Z AUTO 00000KT 9SM CLR 22/M05 A3037 RMK A01,M
BVU,2024-09-05 02:15,-114.8611,35.9475,671.00,98.60,39.20,12.94,40.00,6.00,0.00,29.92,M,10.00,M,CLR,M,M,M,M,M,M,M,M,M,M,M,M,M,M,93.89,KBVU 050215Z AUTO 04006KT 10SM CLR 37/04 A2992 RMK AO2,M
CXP,2024-09-05 02:15,-119.7326,39.1923,1431.00,82.40,23.00,11.16,50.00,11.00,0.00,30.25,M,10.00,M,CLR,M,M,M,M,M,M,M,M,M,M,M,M,M,M,79.67,KCXP 050215Z AUTO 05011KT 10SM CLR 28/M05 A3025 RMK AO2,M
RTS,2024-09-05 02:15,-119.8764,39.6682,1539.00,80.60,21.20,10.97,70.00,5.00,0.00,30.28,M,10.00,M,CLR,M,M,M,M,M,M,M,M,M,M,M,M,M,M,78.68,KRTS 050215Z AUTO 07005KT 10SM CLR 27/M06 A3028 RMK AO2,M
MEV,2024-09-05 02:15,-119.7500,38.9963,1441.42,80.60,24.80,12.76,350.00,6.00,0.00,30.23,M,10.00,M,CLR,M,M,M,M,M,M,M,M,M,M,M,M,M,M,78.94,KMEV 050215Z AUTO 35006KT 10SM CLR 27/M04 A3023 RMK AO2,M
BAM,2024-09-05 02:15,-116.8743,40.5990,1382.36,78.80,32.00,18.18,330.00,5.00,0.00,30.28,M,10.00,M,CLR,M,M,M,M,M,M,M,M,M,M,M,M,M,M,78.80,KBAM 050215Z AUTO 33005KT 10SM CLR 26/00 A3028 RMK AO1,M
HTH,2024-09-05 02:15,-118.6315,38.5448,1282.89,84.20,21.20,9.76,320.00,11.00,0.00,30.19,M,10.00,M,CLR,M,M,M,M,M,M,M,M,M,M,M,M,M,M,80.77,KHTH 050215Z AUTO 32011KT 10SM CLR 29/M06 A3019 RMK A01,M
TMT,2024-09-05 02:15,-117.1971,39.4643,1749.34,73.00,27.30,18.21,20.00,6.00,0.00,30.34,M,10.00,M,CLR,M,M,M,M,M,M,M,M,M,M,M,M,M,M,73.00,KTMT 050215Z AUTO 02006KT 10SM CLR 23/M03 A3034 RMK AO2 T02271026,M
10U,2024-09-05 02:15,-116.1876,41.9532,1637.00,69.80,35.60,28.39,50.00,7.00,0.00,30.36,M,10.00,M,CLR,M,M,M,M,M,M,M,M,M,M,M,M,M,M,69.80,K10U 050215Z AUTO 05007KT 10SM CLR 21/02 A3036 RMK AO2,M
05U,2024-09-05 02:30,-116.0051,39.6042,1811.23,66.20,24.80,20.72,0.00,0.00,0.00,30.38,M,10.00,M,CLR,M,M,M,M,M,M,M,M,M,M,M,M,M,M,66.20,K05U 050230Z AUTO 00000KT 10SM CLR 19/M04 A3038 RMK A01,M
BVU,2024-09-05 02:35,-114.8611,35.9475,671.00,98.60,39.20,12.94,40.00,6.00,0.00,29.92,M,10.00,M,CLR,M,M,M,M,M,M,M,M,M,M,M,M,M,M,93.89,KBVU 050235Z AUTO 04006KT 10SM CLR 37/04 A2992 RMK AO2,M
CXP,2024-09-05 02:35,-119.7326,39.1923,1431.00,82.40,23.00,11.16,50.00,10.00,0.00,30.25,M,10.00,M,CLR,M,M,M,M,M,M,M,M,M,M,M,M,M,M,79.67,KCXP 050235Z AUTO 05010KT 10SM CLR 28/M05 A3025 RMK AO2,M
RTS,2024-09-05 02:35,-119.8764,39.6682,1539.00,78.80,21.20,11.64,60.00,8.00,0.00,30.28,M,10.00,M,CLR,M,M,M,M,M,M,M,M,M,M,M,M,M,M,78.80,KRTS 050235Z AUTO 06008KT 10SM CLR 26/M06 A3028 RMK AO2,M
MEV,2024-09-05 02:35,-119.7500,38.9963,1441.42,71.60,33.80,24.86,0.00,0.00,0.00,30.24,M,10.00,M,CLR,M,M,M,M,M,M,M,M,M,M,M,M,M,M,71.60,KMEV 050235Z AUTO 00000KT 10SM CLR 22/01 A3024 RMK AO2,M
BAM,2024-09-05 02:35,-116.8743,40.5990,1382.36,75.20,32.00,20.49,330.00,4.00,0.00,30.28,M,10.00,M,CLR,M,M,M,M,M,M,M,M,M,M,M,M,M,M,75.20,KBAM 050235Z AUTO 33004KT 10SM CLR 24/00 A3028 RMK AO1,M
HTH,2024-09-05 02:35,-118.6315,38.5448,1282.89,84.20,21.20,9.76,320.00,11.00,0.00,30.20,M,10.00,M,CLR,M,M,M,M,M,M,M,M,M,M,M,M,M,M,80.77,KHTH 050235Z AUTO 32011KT 10SM CLR 29/M06 A3020 RMK A01,M
TMT,2024-09-05 02:35,-117.1971,39.4643,1749.34,69.00,27.00,20.61,20.00,6.00,0.00,30.35,M,10.00,M,CLR,M,M,M,M,M,M,M,M,M,M,M,M,M,M,69.00,KTMT 050235Z AUTO 02006KT 10SM CLR 21/M03 A3035 RMK AO2 T02051027,M
10U,2024-09-05 02:35,-116.1876,41.9532,1637.00,68.00,35.60,30.20,40.00,6.00,0.00,30.37,M,10.00,11.00,CLR,M,M,M,M,M,M,M,M,M,M,M,M,M,M,68.00,K10U 050235Z AUTO 04006G11KT 10SM CLR 20/02 A3037 RMK AO2,M
05U,2024-09-05 02:50,-116.0051,39.6042,1811.23,60.80,28.40,29.06,0.00,0.00,0.00,30.39,M,10.00,M,CLR,M,M,M,M,M,M,M,M,M,M,M,M,M,M,60.80,K05U 050250Z AUTO 00000KT 10SM CLR 16/M02 A3039 RMK A01,M
P68,2024-09-05 02:53,-116.0056,39.6014,1993.00,61.00,29.00,29.57,350.00,7.00,0.00,30.36,1022.40,M,M,M,M,M,M,M,M,M,M,M,M,M,M,M,M,M,61.00,KP68 050253Z AUTO 35007KT 16/M02 A3036 RMK AO1 SLP224 T01611017 53010,M
DRA,2024-09-05 02:53,-116.0278,36.6206,1009.00,90.00,31.00,12.18,10.00,3.00,0.00,30.05,1012.30,10.00,M,CLR,M,M,M,M,M,M,M,M,M,M,M,M,M,M,85.73,KDRA 050253Z AUTO 01003KT 10SM CLR 32/M01 A3005 RMK AO2 SLP123 T03221006 53002,M
ELY,2024-09-05 02:53,-114.8453,39.2950,1909.00,65.00,16.00,14.86,300.00,4.00,0.00,30.38,1021.10,10.00,M,CLR,M,M,M,M,M,M,M,M,M,M,M,M,M,M,65.00,KELY 050253Z AUTO 30004KT 10SM CLR 18/M09 A3038 RMK AO2 SLP211 T01831089 53012,M
VGT,2024-09-05 02:53,-115.1933,36.2111,667.00,103.00,41.00,12.15,0.00,0.00,0.00,29.94,1012.10,10.00,M,CLR,M,M,M,M,M,M,M,M,M,M,M,M,M,M,98.09,KVGT 050253Z 00000KT 10SM CLR 39/05 A2994 RMK AO2 SLP121 T03940050 53002,M
LOL,2024-09-05 02:53,-118.5701,40.0684,1192.43,77.00,28.00,16.40,30.00,9.00,0.00,30.21,1019.90,10.00,M,CLR,M,M,M,M,M,M,M,M,M,M,M,M,M,M,77.00,KLOL 050253Z AUTO 03009KT 10SM CLR 25/M02 A3021 RMK AO2 SLP199 T02501022 53003,M
BVU,2024-09-05 02:55,-114.8611,35.9475,671.00,96.80,41.00,14.66,40.00,7.00,0.00,29.93,M,10.00,M,CLR,M,M,M,M,M,M,M,M,M,M,M,M,M,M,92.39,KBVU 050255Z AUTO 04007KT 10SM CLR 36/05 A2993 RMK AO2,M
INS,2024-09-05 02:55,-115.6733,36.5872,955.00,91.20,29.30,10.95,230.00,7.00,0.00,30.03,1011.00,10.00,M,CLR,M,M,M,M,M,M,M,M,M,M,M,M,M,M,86.46,KINS 050255Z AUTO 23007KT 10SM CLR 33/M01 A3003 RMK AO2 SLP110 T03291015 53004,M
RNO,2024-09-05 02:55,-119.7711,39.4839,1341.00,82.00,26.00,12.81,100.00,4.00,0.00,30.23,1018.80,10.00,M,CLR,M,M,M,M,M,M,M,M,M,M,M,M,M,M,79.61,KRNO 050255Z 10004KT 10SM CLR 28/M03 A3023 RMK AO2 SLP188 T02781033 53004,M
CXP,2024-09-05 02:55,-119.7326,39.1923,1431.00,82.40,23.00,11.16,50.00,9.00,0.00,30.26,M,10.00,M,CLR,M,M,M,M,M,M,M,M,M,M,M,M,M,M,79.67,KCXP 050255Z AUTO 05009KT 10SM CLR 28/M05 A3026 RMK AO2,M
RTS,2024-09-05 02:55,-119.8764,39.6682,1539.00,77.00,21.20,12.35,50.00,8.00,0.00,30.29,M,10.00,M,CLR,M,M,M,M,M,M,M,M,M,M,M,M,M,M,77.00,KRTS 050255Z AUTO 05008KT 10SM CLR 25/M06 A3029 RMK AO2,M
MEV,2024-09-05 02:55,-119.7500,38.9963,1441.42,71.60,26.60,18.55,330.00,4.00,0.00,30.25,M,10.00,M,CLR,M,M,M,M,M,M,M,M,M,M,M,M,M,M,71.60,KMEV 050255Z AUTO 33004KT 10SM CLR 22/M03 A3025 RMK AO2,M
BAM,2024-09-05 02:55,-116.8743,40.5990,1382.36,73.40,32.00,21.76,330.00,4.00,0.00,30.29,M,10.00,M,CLR,M,M,M,M,M,M,M,M,M,M,M,M,M,M,73.40,KBAM 050255Z AUTO 33004KT 10SM CLR 23/00 A3029 RMK AO1,M
HTH,2024-09-05 02:55,-118.6315,38.5448,1282.89,84.20,21.20,9.76,320.00,12.00,0.00,30.20,M,10.00,M,CLR,M,M,M,M,M,M,M,M,M,M,M,M,M,M,80.77,KHTH 050255Z AUTO 32012KT 10SM CLR 29/M06 A3020 RMK A01,M
TMT,2024-09-05 02:55,-117.1971,39.4643,1749.34,65.70,25.50,21.71,30.00,5.00,0.00,30.35,M,10.00,M,CLR,M,M,M,M,M,M,M,M,M,M,M,M,M,M,65.70,KTMT 050255Z AUTO 03005KT 10SM CLR 19/M04 A3035 RMK AO2 T01871036,M
10U,2024-09-05 02:55,-116.1876,41.9532,1637.00,68.00,35.60,30.20,60.00,5.00,0.00,30.38,M,10.00,M,CLR,M,M,M,M,M,M,M,M,M,M,M,M,M,M,68.00,K10U 050255Z AUTO 06005KT 10SM CLR 20/02 A3038 RMK AO2,M
LSV,2024-09-05 02:55,-115.0343,36.2362,570.00,98.00,29.50,8.95,90.00,4.00,0.00,29.88,1008.70,10.00,M,CLR,M,M,M,M,M,M,M,M,M,M,M,M,M,M,91.87,KLSV 050255Z AUTO 09004KT 10SM CLR 37/M01 A2988 RMK AO2 SLP087 T03671014 53002 $,M
EKO,2024-09-05 02:56,-115.7860,40.8242,1367.00,75.00,30.00,19.02,80.00,5.00,0.00,30.32,1022.70,10.00,M,CLR,M,M,M,M,M,M,M,M,M,M,M,M,M,M,75.00,KEKO 050256Z AUTO 08005KT 10SM CLR 24/M01 A3032 RMK AO2 SLP227 T02391011 53009,M
WMC,2024-09-05 02:56,-117.8072,40.9019,1315.00,73.00,31.00,21.18,50.00,4.00,0.00,30.26,1021.70,10.00,M,CLR,M,M,M,M,M,M,M,M,M,M,M,M,M,M,73.00,KWMC 050256Z AUTO 05004KT 10SM CLR 23/M01 A3026 RMK AO2 SLP217 T02281006 53002,M
HND,2024-09-05 02:56,-115.1344,35.9729,742.79,98.00,45.00,16.47,100.00,3.00,0.00,29.99,1013.50,10.00,M,CLR,M,M,M,M,M,M,M,M,M,M,M,M,M,M,94.02,KHND 050256Z 10003KT 10SM CLR 37/07 A2999 RMK AO2 SLP135 T03670072 53003,M
TPH,2024-09-05 02:56,-117.0904,38.0505,1654.00,78.00,24.00,13.44,290.00,7.00,0.00,30.27,1017.50,10.00,M,CLR,M,M,M,M,M,M,M,M,M,M,M,M,M,M,78.00,KTPH 050256Z AUTO 29007KT 10SM CLR 26/M04 A3027 RMK AO2 SLP175 T02561044 53004,M
LAS,2024-09-05 02:56,-115.1634,36.0719,663.00,101.00,41.00,12.90,100.00,4.00,0.00,29.95,1011.00,10.00,M,CLR,M,M,M,M,M,M,M,M,M,M,M,M,M,M,96.34,KLAS 050256Z 10004KT 10SM CLR 38/05 A2995 RMK AO2 SLP110 T03830050 53002,M
NFL,2024-09-05 02:57,-118.7010,39.4166,1199.00,77.00,34.00,20.91,10.00,6.00,0.00,30.19,1018.50,9.00,M,CLR,M,M,M,M,M,M,M,M,M,M,M,M,M,M,77.00,KNFL 050257Z 01006KT 9SM CLR 25/01 A3019 RMK AO2 SLP185 T02500011 53001,M
05U,2024-09-05 03:10,-116.0051,39.6042,1811.23,62.60,24.80,23.50,0.00,0.00,0.00,30.40,M,10.00,M,CLR,M,M,M,M,M,M,M,M,M,M,M,M,M,M,62.60,K05U 050310Z AUTO 00000KT 10SM CLR 17/M04 A3040 RMK A01,M
BVU,2024-09-05 03:15,-114.8611,35.9475,671.00,95.00,41.00,15.49,30.00,7.00,0.00,29.93,M,10.00,M,CLR,M,M,M,M,M,M,M,M,M,M,M,M,M,M,90.70,KBVU 050315Z AUTO 03007KT 10SM CLR 35/05 A2993 RMK AO2,M
CXP,2024-09-05 03:15,-119.7326,39.1923,1431.00,82.40,23.00,11.16,50.00,7.00,0.00,30.27,M,10.00,M,CLR,M,M,M,M,M,M,M,M,M,M,M,M,M,M,79.67,KCXP 050315Z AUTO 05007KT 10SM CLR 28/M05 A3027 RMK AO2,M
RTS,2024-09-05 03:15,-119.8764,39.6682,1539.00,75.20,21.20,13.11,60.00,7.00,0.00,30.30,M,10.00,M,CLR,M,M,M,M,M,M,M,M,M,M,M,M,M,M,75.20,KRTS 050315Z AUTO 06007KT 10SM CLR 24/M06 A3030 RMK AO2,M
MEV,2024-09-05 03:15,-119.7500,38.9963,1441.42,73.40,24.80,16.20,310.00,5.00,0.00,30.25,M,10.00,M,CLR,M,M,M,M,M,M,M,M,M,M,M,M,M,M,73.40,KMEV 050315Z AUTO 31005KT 10SM CLR 23/M04 A3025 RMK AO2,M
BAM,2024-09-05 03:15,-116.8743,40.5990,1382.36,71.60,32.00,23.13,350.00,3.00,0.00,30.30,M,10.00,M,CLR,M,M,M,M,M,M,M,M,M,M,M,M,M,M,71.60,KBAM 050315Z AUTO 35003KT 10SM CLR 22/00 A3030 RMK AO1,M
HTH,2024-09-05 03:15,-118.6315,38.5448,1282.89,84.20,23.00,10.53,320.00,11.00,0.00,30.21,M,10.00,M,CLR,M,M,M,M,M,M,M,M,M,M,M,M,M,M,80.88,KHTH 050315Z AUTO 32011KT 10SM CLR 29/M05 A3021 RMK A01,M
TMT,2024-09-05 03:15,-117.1971,39.4643,1749.34,61.30,25.30,25.12,0.00,0.00,0.00,30.37,M,10.00,M,CLR,M,M,M,M,M,M,M,M,M,M,M,M,M,M,61.30,KTMT 050315Z AUTO 00000KT 10SM CLR 16/M04 A3037 RMK AO2 T01631037,M
10U,2024-09-05 03:15,-116.1876,41.9532,1637.00,64.40,35.60,34.22,150.00,4.00,0.00,30.39,M,10.00,M,CLR,M,M,M,M,M,M,M,M,M,M,M,M,M,M,64.40,K10U 050315Z AUTO 15004KT 10SM CLR 18/02 A3039 RMK AO2,M
05U,2024-09-05 03:30,-116.0051,39.6042,1811.23,59.00,26.60,28.77,0.00,0.00,0.00,30.40,M,10.00,M,CLR,M,M,M,M,M,M,M,M,M,M,M,M,M,M,59.00,K05U 050330Z AUTO 00000KT 10SM CLR 15/M03 A3040 RMK A01,M
BVU,2024-09-05 03:35,-114.8611,35.9475,671.00,95.00,41.00,15.49,30.00,7.00,0.00,29.94,M,10.00,M,CLR,M,M,M,M,M,M,M,M,M,M,M,M,M,M,90.70,KBVU 050335Z AUTO 03007KT 10SM CLR 35/05 A2994 RMK AO2,M
CXP,2024-09-05 03:35,-119.7326,39.1923,1431.00,80.60,23.00,11.83,40.00,9.00,0.00,30.28,M,10.00,M,CLR,M,M,M,M,M,M,M,M,M,M,M,M,M,M,78.80,KCXP 050335Z AUTO 04009KT 10SM CLR 27/M05 A3028 RMK AO2,M
RTS,2024-09-05 03:35,-119.8764,39.6682,1539.00,71.60,21.20,14.80,0.00,0.00,0.00,30.31,M,10.00,M,CLR,M,M,M,M,M,M,M,M,M,M,M,M,M,M,71.60,KRTS 050335Z AUTO 00000KT 10SM CLR 22/M06 A3031 RMK AO2,M
MEV,2024-09-05 03:35,-119.7500,38.9963,1441.42,73.40,24.80,16.20,0.00,0.00,0.00,30.26,M,10.00,M,CLR,M,M,M,M,M,M,M,M,M,M,M,M,M,M,73.40,KMEV 050335Z AUTO 00000KT 10SM CLR 23/M04 A3026 RMK AO2,M
BAM,2024-09-05 03:35,-116.8743,40.5990,1382.36,62.60,26.60,25.32,0.00,0.00,0.00,30.31,M,10.00,M,CLR,M,M,M,M,M,M,M,M,M,M,M,M,M,M,62.60,KBAM 050335Z AUTO 00000KT 10SM CLR 17/M03 A3031 RMK AO1,M
HTH,2024-09-05 03:35,-118.6315,38.5448,1282.89,82.40,26.60,12.97,330.00,11.00,0.00,30.22,M,10.00,M,CLR,M,M,M,M,M,M,M,M,M,M,M,M,M,M,79.92,KHTH 050335Z AUTO 33011KT 10SM CLR 28/M03 A3022 RMK A01,M
TMT,2024-09-05 03:35,-117.1971,39.4643,1749.34,62.20,24.00,23.05,60.00,3.00,0.00,30.37,M,10.00,M,CLR,M,M,M,M,M,M,M,M,M,M,M,M,M,M,62.20,KTMT 050335Z AUTO 06003KT 10SM CLR 17/M04 A3037 RMK AO2 T01681044,M
10U,2024-09-05 03:35,-116.1876,41.9532,1637.00,66.20,33.80,29.92,140.00,6.00,0.00,30.39,M,10.00,M,CLR,M,M,M,M,M,M,M,M,M,M,M,M,M,M,66.20,K10U 050335Z AUTO 14006KT 10SM CLR 19/01 A3039 RMK AO2,M
05U,2024-09-05 03:50,-116.0051,39.6042,1811.23,57.20,28.40,33.05,0.00,0.00,0.00,30.41,M,10.00,M,CLR,M,M,M,M,M,M,M,M,M,M,M,M,M,M,57.20,K05U 050350Z AUTO 00000KT 10SM CLR 14/M02 A3041 RMK A01,M
P68,2024-09-05 03:53,-116.0056,39.6014,1993.00,57.00,29.00,34.12,60.00,3.00,0.00,30.39,1022.80,M,M,M,M,M,M,M,M,M,M,M,M,M,M,M,M,M,57.00,KP68 050353Z AUTO 06003KT 14/M02 A3039 RMK AO1 SLP228 T01391017,M
DRA,2024-09-05 03:53,-116.0278,36.6206,1009.00,84.00,31.00,14.74,60.00,4.00,0.00,30.07,1013.00,10.00,M,CLR,M,M,M,M,M,M,M,M,M,M,M,M,M,M,81.12,KDRA 050353Z AUTO 06004KT 10SM CLR 29/M01 A3007 RMK AO2 SLP130 T02891006,M
ELY,2024-09-05 03:53,-114.8453,39.2950,1909.00,65.00,23.00,20.04,340.00,4.00,0.00,30.40,1020.70,9.00,M,CLR,M,M,M,M,M,M,M,M,M,M,M,M,M,M,65.00,KELY 050353Z AUTO 34004KT 9SM CLR 18/M05 A3040 RMK AO2 SLP207 T01831050,M
VGT,2024-09-05 03:53,-115.1933,36.2111,667.00,99.00,42.00,14.24,340.00,3.00,0.00,29.96,1012.70,10.00,M,CLR,M,M,M,M,M,M,M,M,M,M,M,M,M,M,94.59,KVGT 050353Z AUTO 34003KT 10SM CLR 37/06 A2996 RMK AO2 SLP127 T03720056,M
LOL,2024-09-05 03:53,-118.5701,40.0684,1192.43,74.00,25.00,16.01,40.00,8.00,0.00,30.23,1020.20,10.00,M,CLR,M,M,M,M,M,M,M,M,M,M,M,M,M,M,74.00,KLOL 050353Z AUTO 04008KT 10SM CLR 23/M04 A3023 RMK AO2 SLP202 T02331039,M
BVU,2024-09-05 03:55,-114.8611,35.9475,671.00,93.20,41.00,16.37,30.00,7.00,0.00,29.94,M,10.00,M,CLR,M,M,M,M,M,M,M,M,M,M,M,M,M,M,89.03,KBVU 050355Z AUTO 03007KT 10SM CLR 34/05 A2994 RMK AO2,M
INS,2024-09-05 03:55,-115.6733,36.5872,955.00,91.40,27.00,9.90,220.00,7.00,0.00,30.05,1011.50,10.00,M,CLR,M,M,M,M,M,M,M,M,M,M,M,M,M,M,86.40,KINS 050355Z AUTO 22007KT 10SM CLR 33/M03 A3005 RMK AO2 SLP115 T03301027,M
RNO,2024-09-05 03:55,-119.7711,39.4839,1341.00,79.00,28.00,15.35,0.00,0.00,0.00,30.25,1019.50,10.00,M,CLR,M,M,M,M,M,M,M,M,M,M,M,M,M,M,79.00,KRNO 050355Z 00000KT 10SM CLR 26/M02 A3025 RMK AO2 SLP195 T02611022,M
LSV,2024-09-05 03:55,-115.0343,36.2362,570.00,96.60,31.00,9.92,330.00,5.00,0.00,29.91,1009.50,10.00,M,CLR,M,M,M,M,M,M,M,M,M,M,M,M,M,M,90.89,KLSV 050355Z AUTO 33005KT 10SM CLR 36/M00 A2991 RMK AO2 SLP095 T03591005 $,M
CXP,2024-09-05 03:55,-119.7326,39.1923,1431.00,77.00,26.60,15.48,0.00,0.00,0.00,30.29,M,10.00,M,CLR,M,M,M,M,M,M,M,M,M,M,M,M,M,M,77.00,KCXP 050355Z AUTO 00000KT 10SM CLR 25/M03 A3029 RMK AO2,M
RTS,2024-09-05 03:55,-119.8764,39.6682,1539.00,69.80,21.20,15.73,0.00,0.00,0.00,30.31,M,10.00,M,CLR,M,M,M,M,M,M,M,M,M,M,M,M,M,M,69.80,KRTS 050355Z AUTO 00000KT 10SM CLR 21/M06 A3031 RMK AO2,M
MEV,2024-09-05 03:55,-119.7500,38.9963,1441.42,68.00,26.60,20.98,20.00,4.00,0.00,30.27,M,10.00,M,CLR,M,M,M,M,M,M,M,M,M,M,M,M,M,M,68.00,KMEV 050355Z AUTO 02004KT 10SM CLR 20/M03 A3027 RMK AO2,M
BAM,2024-09-05 03:55,-116.8743,40.5990,1382.36,60.80,24.80,25.04,140.00,4.00,0.00,30.31,M,10.00,M,CLR,M,M,M,M,M,M,M,M,M,M,M,M,M,M,60.80,KBAM 050355Z AUTO 14004KT 10SM CLR 16/M04 A3031 RMK AO1,M
HTH,2024-09-05 03:55,-118.6315,38.5448,1282.89,M,M,M,M,M,0.00,M,M,10.00,M,CLR,M,M,M,M,M,M,M,M,M,M,M,M,M,M,M,KHTH 050355Z AUTO 10SM CLR RMK A01,M
TMT,2024-09-05 03:55,-117.1971,39.4643,1749.34,63.00,24.00,22.41,80.00,3.00,0.00,30.38,M,10.00,M,CLR,M,M,M,M,M,M,M,M,M,M,M,M,M,M,63.00,KTMT 050355Z AUTO 08003KT 10SM CLR 17/M04 A3038 RMK AO2 T01731045,M
10U,2024-09-05 03:55,-116.1876,41.9532,1637.00,64.40,33.80,31.85,150.00,5.00,0.00,30.40,M,10.00,M,CLR,M,M,M,M,M,M,M,M,M,M,M,M,M,M,64.40,K10U 050355Z AUTO 15005KT 10SM CLR 18/01 A3040 RMK AO2,M
EKO,2024-09-05 03:56,-115.7860,40.8242,1367.00,71.00,31.00,22.67,80.00,6.00,0.00,30.35,1023.50,10.00,18.00,CLR,M,M,M,M,M,M,M,M,M,M,M,M,M,M,71.00,KEKO 050356Z AUTO 08006G18KT 10SM CLR 22/M01 A3035 RMK AO2 SLP235 T02171006,M
WMC,2024-09-05 03:56,-117.8072,40.9019,1315.00,63.00,28.00,26.45,0.00,0.00,0.00,30.28,1022.20,6.00,M,CLR,M,M,M,M,M,M,M,HZ,M,M,M,M,M,M,63.00,KWMC 050356Z AUTO 00000KT 6SM HZ CLR 17/M02 A3028 RMK AO2 SLP222 T01721022,M
HND,2024-09-05 03:56,-115.1344,35.9729,742.79,95.00,43.00,16.73,160.00,3.00,0.00,30.01,1014.30,10.00,M,CLR,M,M,M,M,M,M,M,M,M,M,M,M,M,M,90.88,KHND 050356Z AUTO 16003KT 10SM CLR 35/06 A3001 RMK AO2 SLP143 T03500061,M
TPH,2024-09-05 03:56,-117.0904,38.0505,1654.00,75.00,24.00,14.85,300.00,7.00,0.00,30.28,1017.40,10.00,M,CLR,M,M,M,M,M,M,M,M,M,M,M,M,M,M,75.00,KTPH 050356Z AUTO 30007KT 10SM CLR 24/M04 A3028 RMK AO2 SLP174 T02391044,M
LAS,2024-09-05 03:56,-115.1634,36.0719,663.00,100.00,39.00,12.30,280.00,8.00,0.00,29.98,1011.80,10.00,M,CLR,M,M,M,M,M,M,M,M,M,M,M,M,M,M,95.05,KLAS 050356Z 28008KT 10SM CLR 38/04 A2998 RMK AO2 SLP118 T03780039,M
NFL,2024-09-05 03:57,-118.7010,39.4166,1199.00,74.00,31.00,20.48,360.00,7.00,0.00,30.21,1019.10,10.00,M,CLR,M,M,M,M,M,M,M,M,M,M,M,M,M,M,74.00,KNFL 050357Z 36007KT 10SM CLR 23/M01 A3021 RMK AO2 SLP191 T02331006,M
05U,2024-09-05 04:10,-116.0051,39.6042,1811.23,59.00,26.60,28.77,0.00,0.00,0.00,30.41,M,10.00,M,CLR,M,M,M,M,M,M,M,M,M,M,M,M,M,M,59.00,K05U 050410Z AUTO 00000KT 10SM CLR 15/M03 A3041 RMK A01,M
HTH,2024-09-05 04:10,-118.6315,38.5448,1282.89,78.80,35.60,21.00,330.00,9.00,0.00,30.23,M,M,M,M,M,M,M,M,M,M,M,M,M,M,M,M,M,M,78.80,KHTH 050410Z AUTO 33009KT 26/02 A3023 RMK A01,M
BVU,2024-09-05 04:15,-114.8611,35.9475,671.00,93.20,42.80,17.55,30.00,7.00,0.00,29.95,M,10.00,M,CLR,M,M,M,M,M,M,M,M,M,M,M,M,M,M,89.17,KBVU 050415Z AUTO 03007KT 10SM CLR 34/06 A2995 RMK AO2,M
CXP,2024-09-05 04:15,-119.7326,39.1923,1431.00,73.40,26.60,17.46,200.00,3.00,0.00,30.30,M,10.00,M,CLR,M,M,M,M,M,M,M,M,M,M,M,M,M,M,73.40,KCXP 050415Z AUTO 20003KT 10SM CLR 23/M03 A3030 RMK AO2,M
RTS,2024-09-05 04:15,-119.8764,39.6682,1539.00,69.80,24.80,18.30,0.00,0.00,0.00,30.32,M,10.00,M,CLR,M,M,M,M,M,M,M,M,M,M,M,M,M,M,69.80,KRTS 050415Z AUTO 00000KT 10SM CLR 21/M04 A3032 RMK AO2,M
MEV,2024-09-05 04:15,-119.7500,38.9963,1441.42,68.00,26.60,20.98,30.00,4.00,0.00,30.28,M,10.00,M,CLR,M,M,M,M,M,M,M,M,M,M,M,M,M,M,68.00,KMEV 050415Z AUTO 03004KT 10SM CLR 20/M03 A3028 RMK AO2,M
BAM,2024-09-05 04:15,-116.8743,40.5990,1382.36,60.80,24.80,25.04,150.00,3.00,0.00,30.32,M,10.00,M,CLR,M,M,M,M,M,M,M,M,M,M,M,M,M,M,60.80,KBAM 050415Z AUTO 15003KT 10SM CLR 16/M04 A3032 RMK AO1,M
TMT,2024-09-05 04:15,-117.1971,39.4643,1749.34,61.30,24.30,24.09,0.00,0.00,0.00,30.39,M,10.00,M,CLR,M,M,M,M,M,M,M,M,M,M,M,M,M,M,61.30,KTMT 050415Z AUTO 00000KT 10SM CLR 16/M04 A3039 RMK AO2 T01631043,M
10U,2024-09-05 04:15,-116.1876,41.9532,1637.00,59.00,33.80,38.56,0.00,0.00,0.00,30.40,M,10.00,M,CLR,M,M,M,M,M,M,M,M,M,M,M,M,M,M,59.00,K10U 050415Z AUTO 00000KT 10SM CLR 15/01 A3040 RMK AO2,M
05U,2024-09-05 04:30,-116.0051,39.6042,1811.23,51.80,23.00,32.17,0.00,0.00,0.00,30.42,M,10.00,M,CLR,M,M,M,M,M,M,M,M,M,M,M,M,M,M,51.80,K05U 050430Z AUTO 00000KT 10SM CLR 11/M05 A3042 RMK A01,M
BVU,2024-09-05 04:35,-114.8611,35.9475,671.00,91.40,44.60,19.89,30.00,7.00,0.00,29.95,M,10.00,M,CLR,M,M,M,M,M,M,M,M,M,M,M,M,M,M,87.68,KBVU 050435Z AUTO 03007KT 10SM CLR 33/07 A2995 RMK AO2,M
CXP,2024-09-05 04:35,-119.7326,39.1923,1431.00,71.60,26.60,18.55,0.00,0.00,0.00,30.30,M,10.00,M,CLR,M,M,M,M,M,M,M,M,M,M,M,M,M,M,71.60,KCXP 050435Z AUTO 00000KT 10SM CLR 22/M03 A3030 RMK AO2,M
RTS,2024-09-05 04:35,-119.8764,39.6682,1539.00,69.80,23.00,16.98,0.00,0.00,0.00,30.32,M,10.00,M,CLR,M,M,M,M,M,M,M,M,M,M,M,M,M,M,69.80,KRTS 050435Z AUTO 00000KT 10SM CLR 21/M05 A3032 RMK AO2,M
MEV,2024-09-05 04:35,-119.7500,38.9963,1441.42,59.00,32.00,35.87,0.00,0.00,0.00,30.28,M,10.00,M,SCT,M,M,M,4800.00,M,M,M,M,M,M,M,M,M,M,59.00,KMEV 050435Z AUTO 00000KT 10SM SCT048 15/00 A3028 RMK AO2,M
BAM,2024-09-05 04:35,-116.8743,40.5990,1382.36,60.80,24.80,25.04,140.00,5.00,0.00,30.32,M,10.00,M,CLR,M,M,M,M,M,M,M,M,M,M,M,M,M,M,60.80,KBAM 050435Z AUTO 14005KT 10SM CLR 16/M04 A3032 RMK AO1,M
HTH,2024-09-05 04:35,-118.6315,38.5448,1282.89,77.00,33.80,20.74,330.00,8.00,0.00,30.24,M,10.00,M,CLR,M,M,M,M,M,M,M,M,M,M,M,M,M,M,77.00,KHTH 050435Z AUTO 33008KT 10SM CLR 25/01 A3024 RMK A01,M
TMT,2024-09-05 04:35,-117.1971,39.4643,1749.34,57.00,23.70,27.40,0.00,0.00,0.00,30.39,M,10.00,M,CLR,M,M,M,M,M,M,M,M,M,M,M,M,M,M,57.00,KTMT 050435Z AUTO 00000KT 10SM CLR 14/M05 A3039 RMK AO2 T01381046,M
10U,2024-09-05 04:35,-116.1876,41.9532,1637.00,62.60,33.80,33.93,130.00,5.00,0.00,30.41,M,10.00,M,CLR,M,M,M,M,M,M,M,M,M,M,M,M,M,M,62.60,K10U 050435Z AUTO 13005KT 10SM CLR 17/01 A3041 RMK AO2,M
05U,2024-09-05 04:50,-116.0051,39.6042,1811.23,53.60,21.20,27.91,0.00,0.00,0.00,30.43,M,10.00,M,CLR,M,M,M,M,M,M,M,M,M,M,M,M,M,M,53.60,K05U 050450Z AUTO 00000KT 10SM CLR 12/M06 A3043 RMK A01,M
P68,2024-09-05 04:53,-116.0056,39.6014,1993.00,53.00,24.00,32.10,180.00,4.00,0.00,30.40,1023.10,M,M,M,M,M,M,M,M,M,M,M,M,M,M,M,M,M,53.00,KP68 050453Z AUTO 18004KT 12/M04 A3040 RMK AO1 SLP231 T01171044,M
DRA,2024-09-05 04:53,-116.0278,36.6206,1009.00,82.00,31.00,15.73,70.00,5.00,0.00,30.09,1013.30,10.00,M,CLR,M,M,M,M,M,M,M,M,M,M,M,M,M,M,79.71,KDRA 050453Z AUTO 07005KT 10SM CLR 28/M01 A3009 RMK AO2 SLP133 T02781006,M
ELY,2024-09-05 04:53,-114.8453,39.2950,1909.00,62.00,28.00,27.40,20.00,10.00,0.00,30.42,1020.90,9.00,M,CLR,M,M,M,M,M,M,M,M,M,M,M,M,M,M,62.00,KELY 050453Z AUTO 02010KT 9SM CLR 17/M02 A3042 RMK AO2 SLP209 T01671022,M
VGT,2024-09-05 04:53,-115.1933,36.2111,667.00,96.00,40.00,14.45,360.00,5.00,0.00,29.98,1013.50,10.00,M,CLR,M,M,M,M,M,M,M,M,M,M,M,M,M,M,91.55,KVGT 050453Z AUTO 36005KT 10SM CLR 36/04 A2998 RMK AO2 SLP135 T03560044,M
LOL,2024-09-05 04:53,-118.5701,40.0684,1192.43,70.00,26.00,19.11,40.00,7.00,0.00,30.24,1020.30,10.00,M,CLR,M,M,M,M,M,M,M,M,M,M,M,M,M,M,70.00,KLOL 050453Z AUTO 04007KT 10SM CLR 21/M03 A3024 RMK AO2 SLP203 T02111033,M
BVU,2024-09-05 04:55,-114.8611,35.9475,671.00,91.40,39.20,16.15,280.00,3.00,0.00,29.96,M,10.00,M,CLR,M,M,M,M,M,M,M,M,M,M,M,M,M,M,87.30,KBVU 050455Z AUTO 28003KT 10SM CLR 33/04 A2996 RMK AO2,M
RNO,2024-09-05 04:55,-119.7711,39.4839,1341.00,75.00,30.00,19.02,0.00,0.00,0.00,30.27,1020.00,10.00,M,CLR,M,M,M,M,M,M,M,M,M,M,M,M,M,M,75.00,KRNO 050455Z 00000KT 10SM CLR 24/M01 A3027 RMK AO2 SLP200 T02391011,M
CXP,2024-09-05 04:55,-119.7326,39.1923,1431.00,69.80,26.60,19.72,0.00,0.00,0.00,30.30,M,10.00,M,CLR,M,M,M,M,M,M,M,M,M,M,M,M,M,M,69.80,KCXP 050455Z AUTO 00000KT 10SM CLR 21/M03 A3030 RMK AO2,M
RTS,2024-09-05 04:55,-119.8764,39.6682,1539.00,68.00,23.00,18.06,0.00,0.00,0.00,30.33,M,10.00,M,CLR,M,M,M,M,M,M,M,M,M,M,M,M,M,M,68.00,KRTS 050455Z AUTO 00000KT 10SM CLR 20/M05 A3033 RMK AO2,M
MEV,2024-09-05 04:55,-119.7500,38.9963,1441.42,59.00,33.80,38.56,80.00,4.00,0.00,30.29,M,10.00,M,FEW,SCT,M,M,4800.00,5500.00,M,M,M,M,M,M,M,M,M,59.00,KMEV 050455Z AUTO 08004KT 10SM FEW048 SCT055 15/01 A3029 RMK AO2,M
BAM,2024-09-05 04:55,-116.8743,40.5990,1382.36,60.80,26.60,26.98,140.00,5.00,0.00,30.32,M,10.00,M,CLR,M,M,M,M,M,M,M,M,M,M,M,M,M,M,60.80,KBAM 050455Z AUTO 14005KT 10SM CLR 16/M03 A3032 RMK AO1,M
HTH,2024-09-05 04:55,-118.6315,38.5448,1282.89,75.20,33.80,22.02,340.00,5.00,0.00,30.25,M,10.00,M,CLR,M,M,M,M,M,M,M,M,M,M,M,M,M,M,75.20,KHTH 050455Z AUTO 34005KT 10SM CLR 24/01 A3025 RMK A01,M
TMT,2024-09-05 04:55,-117.1971,39.4643,1749.34,53.20,26.20,34.92,330.00,4.00,0.00,30.40,M,10.00,M,CLR,M,M,M,M,M,M,M,M,M,M,M,M,M,M,53.20,KTMT 050455Z AUTO 33004KT 10SM CLR 12/M03 A3040 RMK AO2 T01181032,M
10U,2024-09-05 04:55,-116.1876,41.9532,1637.00,60.80,33.80,36.16,40.00,7.00,0.00,30.41,M,10.00,M,CLR,M,M,M,M,M,M,M,M,M,M,M,M,M,M,60.80,K10U 050455Z AUTO 04007KT 10SM CLR 16/01 A3041 RMK AO2,M
INS,2024-09-05 04:55,-115.6733,36.5872,955.00,86.40,29.70,12.95,240.00,7.00,0.00,30.07,1012.20,10.00,M,CLR,M,M,M,M,M,M,M,M,M,M,M,M,M,M,82.94,KINS 050455Z AUTO 24007KT 10SM CLR 30/M01 A3007 RMK AO2 SLP122 T03021013,M
LSV,2024-09-05 04:55,-115.0343,36.2362,570.00,96.00,30.70,9.99,150.00,3.00,0.00,29.92,1009.90,10.00,M,CLR,M,M,M,M,M,M,M,M,M,M,M,M,M,M,90.36,KLSV 050455Z AUTO 15003KT 10SM CLR 36/M01 A2992 RMK AO2 SLP099 T03561007 $,M
EKO,2024-09-05 04:56,-115.7860,40.8242,1367.00,72.00,35.00,25.73,40.00,11.00,0.00,30.36,1023.30,8.00,M,CLR,M,M,M,M,M,M,M,M,M,M,M,M,M,M,72.00,KEKO 050456Z AUTO 04011KT 8SM CLR 22/02 A3036 RMK AO2 SLP233 T02220017,M
WMC,2024-09-05 04:56,-117.8072,40.9019,1315.00,59.00,26.00,28.07,0.00,0.00,0.00,30.29,1022.10,9.00,M,CLR,M,M,M,M,M,M,M,M,M,M,M,M,M,M,59.00,KWMC 050456Z AUTO 00000KT 9SM CLR 15/M03 A3029 RMK AO2 SLP221 T01501033,M
HND,2024-09-05 04:56,-115.1344,35.9729,742.79,92.00,40.00,16.35,220.00,5.00,0.00,30.03,1014.80,10.00,M,CLR,M,M,M,M,M,M,M,M,M,M,M,M,M,M,87.88,KHND 050456Z AUTO 22005KT 10SM CLR 33/04 A3003 RMK AO2 SLP148 T03330044,M
TPH,2024-09-05 04:56,-117.0904,38.0505,1654.00,75.00,24.00,14.85,360.00,11.00,0.00,30.30,1017.40,10.00,M,CLR,M,M,M,M,M,M,M,M,M,M,M,M,M,M,75.00,KTPH 050456Z AUTO 36011KT 10SM CLR 24/M04 A3030 RMK AO2 SLP174 T02391044,M
LAS,2024-09-05 04:56,-115.1634,36.0719,663.00,96.00,42.00,15.61,290.00,5.00,0.00,29.99,1012.30,10.00,M,CLR,M,M,M,M,M,M,M,M,M,M,M,M,M,M,91.73,KLAS 050456Z 29005KT 10SM CLR 36/06 A2999 RMK AO2 SLP123 T03560056,M
NFL,2024-09-05 04:57,-118.7010,39.4166,1199.00,68.00,28.00,22.23,80.00,3.00,0.00,30.22,1019.50,10.00,M,CLR,M,M,M,M,M,M,M,M,M,M,M,M,M,M,68.00,KNFL 050457Z 08003KT 10SM CLR 20/M02 A3022 RMK AO2 SLP195 T02001022,M
05U,2024-09-05 05:10,-116.0051,39.6042,1811.23,55.40,23.00,28.20,0.00,0.00,0.00,30.43,M,10.00,M,CLR,M,M,M,M,M,M,M,M,M,M,M,M,M,M,55.40,K05U 050510Z AUTO 00000KT 10SM CLR 13/M05 A3043 RMK A01,M
BVU,2024-09-05 05:15,-114.8611,35.9475,671.00,93.20,35.60,13.25,0.00,0.00,0.00,29.97,M,10.00,M,CLR,M,M,M,M,M,M,M,M,M,M,M,M,M,M,88.76,KBVU 050515Z AUTO 00000KT 10SM CLR 34/02 A2997 RMK AO2,M
CXP,2024-09-05 05:15,-119.7326,39.1923,1431.00,68.00,26.60,20.98,70.00,3.00,0.00,30.31,M,10.00,M,CLR,M,M,M,M,M,M,M,M,M,M,M,M,M,M,68.00,KCXP 050515Z AUTO 07003KT 10SM CLR 20/M03 A3031 RMK AO2,M
RTS,2024-09-05 05:15,-119.8764,39.6682,1539.00,68.00,21.20,16.74,360.00,7.00,0.00,30.34,M,10.00,M,CLR,M,M,M,M,M,M,M,M,M,M,M,M,M,M,68.00,KRTS 050515Z AUTO 36007KT 10SM CLR 20/M06 A3034 RMK AO2,M
MEV,2024-09-05 05:15,-119.7500,38.9963,1441.42,57.20,32.00,38.26,90.00,3.00,0.00,30.29,M,10.00,M,FEW,SCT,M,M,4500.00,5500.00,M,M,M,M,M,M,M,M,M,57.20,KMEV 050515Z AUTO 09003KT 10SM FEW045 SCT055 14/M00 A3029 RMK AO2,M
BAM,2024-09-05 05:15,-116.8743,40.5990,1382.36,57.20,26.60,30.69,0.00,0.00,0.00,30.34,M,10.00,M,CLR,M,M,M,M,M,M,M,M,M,M,M,M,M,M,57.20,KBAM 050515Z AUTO 00000KT 10SM CLR 14/M03 A3034 RMK AO1,M
HTH,2024-09-05 05:15,-118.6315,38.5448,1282.89,75.20,32.00,20.49,350.00,5.00,0.00,30.25,M,10.00,M,CLR,M,M,M,M,M,M,M,M,M,M,M,M,M,M,75.20,KHTH 050515Z AUTO 35005KT 10SM CLR 24/M00 A3025 RMK A01,M
TMT,2024-09-05 05:15,-117.1971,39.4643,1749.34,53.40,25.30,33.39,350.00,4.00,0.00,30.40,M,10.00,M,CLR,M,M,M,M,M,M,M,M,M,M,M,M,M,M,53.40,KTMT 050515Z AUTO 35004KT 10SM CLR 12/M04 A3040 RMK AO2 T01191037,M
10U,2024-09-05 05:15,-116.1876,41.9532,1637.00,59.00,33.80,38.56,110.00,12.00,0.00,30.41,M,10.00,M,CLR,M,M,M,M,M,M,M,M,M,M,M,M,M,M,59.00,K10U 050515Z AUTO 11012KT 10SM CLR 15/01 A3041 RMK AO2,M
05U,2024-09-05 05:30,-116.0051,39.6042,1811.23,50.00,19.40,29.52,0.00,0.00,0.00,30.44,M,10.00,M,CLR,M,M,M,M,M,M,M,M,M,M,M,M,M,M,50.00,K05U 050530Z AUTO 00000KT 10SM CLR 10/M07 A3044 RMK A01,M
BVU,2024-09-05 05:35,-114.8611,35.9475,671.00,93.20,35.60,13.25,320.00,5.00,0.00,29.97,M,10.00,10.00,CLR,M,M,M,M,M,M,M,M,M,M,M,M,M,M,88.76,KBVU 050535Z AUTO 32005G10KT 10SM CLR 34/02 A2997 RMK AO2,M
CXP,2024-09-05 05:35,-119.7326,39.1923,1431.00,68.00,28.40,22.59,0.00,0.00,0.00,30.31,M,10.00,M,CLR,M,M,M,M,M,M,M,M,M,M,M,M,M,M,68.00,KCXP 050535Z AUTO 00000KT 10SM CLR 20/M02 A3031 RMK AO2,M
RTS,2024-09-05 05:35,-119.8764,39.6682,1539.00,64.40,21.20,18.96,0.00,0.00,0.00,30.34,M,10.00,M,CLR,M,M,M,M,M,M,M,M,M,M,M,M,M,M,64.40,KRTS 050535Z AUTO 00000KT 10SM CLR 18/M06 A3034 RMK AO2,M
MEV,2024-09-05 05:35,-119.7500,38.9963,1441.42,55.40,30.20,37.97,0.00,0.00,0.00,30.30,M,10.00,M,FEW,FEW,M,M,4500.00,5500.00,M,M,M,M,M,M,M,M,M,55.40,KMEV 050535Z AUTO 00000KT 10SM FEW045 FEW055 13/M01 A3030 RMK AO2,M
BAM,2024-09-05 05:35,-116.8743,40.5990,1382.36,59.00,26.60,28.77,0.00,0.00,0.00,30.34,M,10.00,M,CLR,M,M,M,M,M,M,M,M,M,M,M,M,M,M,59.00,KBAM 050535Z AUTO 00000KT 10SM CLR 15/M03 A3034 RMK AO1,M
HTH,2024-09-05 05:35,-118.6315,38.5448,1282.89,75.20,28.40,17.70,330.00,8.00,0.00,30.25,M,10.00,M,CLR,M,M,M,M,M,M,M,M,M,M,M,M,M,M,75.20,KHTH 050535Z AUTO 33008KT 10SM CLR 24/M02 A3025 RMK A01,M
TMT,2024-09-05 05:35,-117.1971,39.4643,1749.34,45.00,20.00,36.55,0.00,0.00,0.00,30.41,M,10.00,M,CLR,M,M,M,M,M,M,M,M,M,M,M,M,M,M,45.00,KTMT 050535Z AUTO 00000KT 10SM CLR 07/M07 A3041 RMK AO2 T00721067,M
10U,2024-09-05 05:35,-116.1876,41.9532,1637.00,62.60,33.80,33.93,130.00,10.00,0.00,30.41,M,10.00,M,CLR,M,M,M,M,M,M,M,M,M,M,M,M,M,M,62.60,K10U 050535Z AUTO 13010KT 10SM CLR 17/01 A3041 RMK AO2,M
05U,2024-09-05 05:50,-116.0051,39.6042,1811.23,51.80,21.20,29.82,0.00,0.00,0.00,30.44,M,10.00,M,CLR,M,M,M,M,M,M,M,M,M,M,M,M,M,M,51.80,K05U 050550Z AUTO 00000KT 10SM CLR 11/M06 A3044 RMK A01,M
P68,2024-09-05 05:53,-116.0056,39.6014,1993.00,49.00,22.00,34.22,180.00,5.00,0.00,30.42,1023.50,M,M,M,M,M,M,M,M,M,M,M,M,M,M,M,M,M,46.58,KP68 050553Z AUTO 18005KT 09/M06 A3042 RMK AO1 SLP235 T00941056 10283 20094 51015,M
DRA,2024-09-05 05:53,-116.0278,36.6206,1009.00,80.00,32.00,17.48,110.00,3.00,0.00,30.10,1013.60,10.00,M,CLR,M,M,M,M,M,M,M,M,M,M,M,M,M,M,78.52,KDRA 050553Z AUTO 11003KT 10SM CLR 27/00 A3010 RMK AO2 SLP136 T02670000 10378 20267 51013,M
ELY,2024-09-05 05:53,-114.8453,39.2950,1909.00,61.00,28.00,28.38,0.00,0.00,0.00,30.44,1021.20,9.00,M,CLR,M,M,M,M,M,M,M,M,M,M,M,M,M,M,61.00,KELY 050553Z AUTO 00000KT 9SM CLR 16/M02 A3044 RMK AO2 SLP212 T01611022 10294 20161 51019,M
VGT,2024-09-05 05:53,-115.1933,36.2111,667.00,97.00,38.00,12.96,320.00,8.00,0.00,29.98,1013.60,10.00,M,CLR,M,M,M,M,M,M,M,M,M,M,M,M,M,M,92.32,KVGT 050553Z AUTO 32008KT 10SM CLR 36/03 A2998 RMK AO2 SLP136 T03610033 10417 20350 51015,M
LOL,2024-09-05 05:53,-118.5701,40.0684,1192.43,61.00,31.00,32.08,170.00,5.00,0.00,30.25,1021.00,10.00,M,CLR,M,M,M,M,M,M,M,M,M,M,M,M,M,M,61.00,KLOL 050553Z AUTO 17005KT 10SM CLR 16/M01 A3025 RMK AO2 SLP210 T01611006 10328 20156 51014,M
BVU,2024-09-05 05:55,-114.8611,35.9475,671.00,93.20,37.40,14.23,360.00,9.00,0.00,29.97,M,10.00,M,CLR,M,M,M,M,M,M,M,M,M,M,M,M,M,M,88.83,KBVU 050555Z AUTO 36009KT 10SM CLR 34/03 A2997 RMK AO2,M
INS,2024-09-05 05:55,-115.6733,36.5872,955.00,85.30,30.70,13.97,210.00,7.00,0.00,30.08,1012.50,10.00,M,CLR,M,M,M,M,M,M,M,M,M,M,M,M,M,M,82.09,KINS 050555Z AUTO 21007KT 10SM CLR 30/M01 A3008 RMK AO2 SLP125 T02961007 10384 20295 52014,M
RNO,2024-09-05 05:55,-119.7711,39.4839,1341.00,71.00,31.00,22.67,270.00,4.00,0.00,30.29,1020.30,10.00,M,CLR,M,M,M,M,M,M,M,M,M,M,M,M,M,M,71.00,KRNO 050555Z 27004KT 10SM CLR 22/M01 A3029 RMK AO2 SLP203 T02171006 10328 20217 51017,M
BAM,2024-09-05 05:55,-116.8743,40.5990,1382.36,55.40,26.60,32.76,0.00,0.00,0.00,30.34,M,10.00,M,CLR,M,M,M,M,M,M,M,M,M,M,M,M,M,M,55.40,KBAM 050555Z AUTO 00000KT 10SM CLR 13/M03 A3034 RMK AO1,M
CXP,2024-09-05 05:55,-119.7326,39.1923,1431.00,66.20,26.60,22.33,0.00,0.00,0.00,30.32,M,10.00,M,CLR,M,M,M,M,M,M,M,M,M,M,M,M,M,M,66.20,KCXP 050555Z AUTO 00000KT 10SM CLR 19/M03 A3032 RMK AO2,M
RTS,2024-09-05 05:55,-119.8764,39.6682,1539.00,62.60,21.20,20.20,0.00,0.00,0.00,30.34,M,10.00,M,CLR,M,M,M,M,M,M,M,M,M,M,M,M,M,M,62.60,KRTS 050555Z AUTO 00000KT 10SM CLR 17/M06 A3034 RMK AO2,M
MEV,2024-09-05 05:55,-119.7500,38.9963,1441.42,51.80,35.60,53.81,150.00,5.00,0.00,30.30,M,10.00,M,FEW,FEW,M,M,5000.00,6000.00,M,M,M,M,M,M,M,M,M,51.80,KMEV 050555Z AUTO 15005KT 10SM FEW050 FEW060 11/02 A3030 RMK AO2,M
HTH,2024-09-05 05:55,-118.6315,38.5448,1282.89,75.20,32.00,20.49,320.00,4.00,0.00,30.26,M,10.00,M,CLR,M,M,M,M,M,M,M,M,M,M,M,M,M,M,75.20,KHTH 050555Z AUTO 32004KT 10SM CLR 24/00 A3026 RMK A01,M
TMT,2024-09-05 05:55,-117.1971,39.4643,1749.34,44.40,18.70,35.38,0.00,0.00,0.00,30.41,M,10.00,M,CLR,M,M,M,M,M,M,M,M,M,M,M,M,M,M,44.40,KTMT 050555Z AUTO 00000KT 10SM CLR 07/M07 A3041 RMK AO2 T00691074 10285 20061,M
10U,2024-09-05 05:55,-116.1876,41.9532,1637.00,64.40,33.80,31.85,M,4.00,0.00,30.42,M,10.00,13.00,CLR,M,M,M,M,M,M,M,M,M,M,M,M,M,M,64.40,K10U 050555Z AUTO VRB04G13KT 10SM CLR 18/01 A3042 RMK AO2,M
LSV,2024-09-05 05:55,-115.0343,36.2362,570.00,94.50,32.00,11.02,0.00,0.00,0.00,29.92,1009.80,10.00,M,CLR,M,M,M,M,M,M,M,M,M,M,M,M,M,M,89.32,KLSV 050555Z AUTO 00000KT 10SM CLR 35/M00 A2992 RMK AO2 SLP098 T03471001 10416 20339 51014 $,M
EKO,2024-09-05 05:56,-115.7860,40.8242,1367.00,70.00,34.00,26.46,50.00,9.00,0.00,30.38,1023.10,8.00,M,CLR,M,M,M,M,M,M,M,M,M,M,M,M,M,M,70.00,KEKO 050556Z AUTO 05009KT 8SM CLR 21/01 A3038 RMK AO2 SLP231 T02110011 10300 20206 51017,M
WMC,2024-09-05 05:56,-117.8072,40.9019,1315.00,53.00,28.00,37.88,0.00,0.00,0.00,30.30,1022.40,10.00,M,CLR,M,M,M,M,M,M,M,M,M,M,M,M,M,M,53.00,KWMC 050556Z AUTO 00000KT 10SM CLR 12/M02 A3030 RMK AO2 SLP224 T01171022 10311 20111 51013,M
HND,2024-09-05 05:56,-115.1344,35.9729,742.79,89.00,42.00,19.41,160.00,6.00,0.00,30.03,1015.20,10.00,M,CLR,M,M,M,M,M,M,M,M,M,M,M,M,M,M,85.36,KHND 050556Z AUTO 16006KT 10SM CLR 32/06 A3003 RMK AO2 SLP152 T03170056 10406 20317 51015,M
TPH,2024-09-05 05:56,-117.0904,38.0505,1654.00,73.00,23.00,15.23,360.00,15.00,0.00,30.32,1018.10,10.00,M,CLR,M,M,M,M,M,M,M,M,M,M,M,M,M,M,73.00,KTPH 050556Z AUTO 36015KT 10SM CLR 23/M05 A3032 RMK AO2 SLP181 T02281050 10328 20217 53015,M
LAS,2024-09-05 05:56,-115.1634,36.0719,663.00,94.00,43.00,17.25,310.00,3.00,0.00,30.00,1012.50,10.00,M,CLR,M,M,M,M,M,M,M,M,M,M,M,M,M,M,89.94,KLAS 050556Z 31003KT 10SM CLR 34/06 A3000 RMK AO2 SLP125 T03440061 10411 20344 51015,M
NFL,2024-09-05 05:57,-118.7010,39.4166,1199.00,66.00,28.00,23.82,10.00,5.00,0.00,30.24,1020.00,10.00,M,CLR,M,M,M,M,M,M,M,M,M,M,M,M,M,M,66.00,KNFL 050557Z 01005KT 10SM CLR 19/M02 A3024 RMK AO2 SLP200 T01891022 10339 20189 51015,M
05U,2024-09-05 06:10,-116.0051,39.6042,1811.23,48.20,19.40,31.57,0.00,0.00,0.00,30.44,M,10.00,M,CLR,M,M,M,M,M,M,M,M,M,M,M,M,M,M,48.20,K05U 050610Z AUTO 00000KT 10SM CLR 09/M07 A3044 RMK A01,M
BVU,2024-09-05 06:15,-114.8611,35.9475,671.00,93.20,35.60,13.25,330.00,3.00,0.00,29.97,M,10.00,10.00,CLR,M,M,M,M,M,M,M,M,M,M,M,M,M,M,88.76,KBVU 050615Z AUTO 33003G10KT 10SM CLR 34/02 A2997 RMK AO2,M
CXP,2024-09-05 06:15,-119.7326,39.1923,1431.00,64.40,24.80,22.06,0.00,0.00,0.00,30.32,M,10.00,M,CLR,M,M,M,M,M,M,M,M,M,M,M,M,M,M,64.40,KCXP 050615Z AUTO 00000KT 10SM CLR 18/M04 A3032 RMK AO2,M
RTS,2024-09-05 06:15,-119.8764,39.6682,1539.00,64.40,23.00,20.46,310.00,3.00,0.00,30.34,M,10.00,M,CLR,M,M,M,M,M,M,M,M,M,M,M,M,M,M,64.40,KRTS 050615Z AUTO 31003KT 10SM CLR 18/M05 A3034 RMK AO2,M
MEV,2024-09-05 06:15,-119.7500,38.9963,1441.42,53.60,28.40,37.67,160.00,4.00,0.00,30.31,M,10.00,M,FEW,SCT,SCT,M,4100.00,4900.00,5500.00,M,M,M,M,M,M,M,M,53.60,KMEV 050615Z AUTO 16004KT 10SM FEW041 SCT049 SCT055 12/M02 A3031 RMK AO2,M
BAM,2024-09-05 06:15,-116.8743,40.5990,1382.36,59.00,28.40,30.98,80.00,7.00,0.00,30.35,M,10.00,M,CLR,M,M,M,M,M,M,M,M,M,M,M,M,M,M,59.00,KBAM 050615Z AUTO 08007KT 10SM CLR 15/M02 A3035 RMK AO1,M
HTH,2024-09-05 06:15,-118.6315,38.5448,1282.89,73.40,33.80,23.39,0.00,0.00,0.00,30.26,M,10.00,M,CLR,M,M,M,M,M,M,M,M,M,M,M,M,M,M,73.40,KHTH 050615Z AUTO 00000KT 10SM CLR 23/01 A3026 RMK A01,M
TMT,2024-09-05 06:15,-117.1971,39.4643,1749.34,46.40,19.80,34.37,230.00,4.00,0.00,30.41,M,10.00,M,CLR,M,M,M,M,M,M,M,M,M,M,M,M,M,M,44.24,KTMT 050615Z AUTO 23004KT 10SM CLR 08/M07 A3041 RMK AO2 T00801068,M
10U,2024-09-05 06:15,-116.1876,41.9532,1637.00,62.60,33.80,33.93,M,3.00,0.00,30.42,M,10.00,M,CLR,M,M,M,M,M,M,M,M,M,M,M,M,M,M,62.60,K10U 050615Z AUTO VRB03KT 10SM CLR 17/01 A3042 RMK AO2,M
05U,2024-09-05 06:30,-116.0051,39.6042,1811.23,50.00,19.40,29.52,0.00,0.00,0.00,30.44,M,10.00,M,CLR,M,M,M,M,M,M,M,M,M,M,M,M,M,M,50.00,K05U 050630Z AUTO 00000KT 10SM CLR 10/M07 A3044 RMK A01,M
BVU,2024-09-05 06:35,-114.8611,35.9475,671.00,91.40,35.60,14.02,M,4.00,0.00,29.97,M,10.00,M,CLR,M,M,M,M,M,M,M,M,M,M,M,M,M,M,87.17,KBVU 050635Z AUTO VRB04KT 10SM CLR 33/02 A2997 RMK AO2,M
CXP,2024-09-05 06:35,-119.7326,39.1923,1431.00,62.60,24.80,23.50,0.00,0.00,0.00,30.33,M,10.00,M,CLR,M,M,M,M,M,M,M,M,M,M,M,M,M,M,62.60,KCXP 050635Z AUTO 00000KT 10SM CLR 17/M04 A3033 RMK AO2,M
RTS,2024-09-05 06:35,-119.8764,39.6682,1539.00,60.80,23.00,23.23,0.00,0.00,0.00,30.35,M,10.00,M,CLR,M,M,M,M,M,M,M,M,M,M,M,M,M,M,60.80,KRTS 050635Z AUTO 00000KT 10SM CLR 16/M05 A3035 RMK AO2,M
MEV,2024-09-05 06:35,-119.7500,38.9963,1441.42,53.60,30.20,40.54,130.00,5.00,0.00,30.31,M,10.00,M,FEW,SCT,BKN,M,4400.00,5000.00,5500.00,M,M,M,M,M,M,M,M,53.60,KMEV 050635Z AUTO 13005KT 10SM FEW044 SCT050 BKN055 12/M01 A3031 RMK AO2,M
BAM,2024-09-05 06:35,-116.8743,40.5990,1382.36,64.40,30.20,27.55,80.00,9.00,0.00,30.35,M,10.00,M,CLR,M,M,M,M,M,M,M,M,M,M,M,M,M,M,64.40,KBAM 050635Z AUTO 08009KT 10SM CLR 18/M01 A3035 RMK AO1,M
HTH,2024-09-05 06:35,-118.6315,38.5448,1282.89,75.20,35.60,23.66,0.00,0.00,0.00,30.26,M,10.00,M,CLR,M,M,M,M,M,M,M,M,M,M,M,M,M,M,75.20,KHTH 050635Z AUTO 00000KT 10SM CLR 24/02 A3026 RMK A01,M
TMT,2024-09-05 06:35,-117.1971,39.4643,1749.34,46.60,23.70,40.22,230.00,5.00,0.00,30.41,M,10.00,M,CLR,M,M,M,M,M,M,M,M,M,M,M,M,M,M,43.73,KTMT 050635Z AUTO 23005KT 10SM CLR 08/M05 A3041 RMK AO2 T00811046,M
10U,2024-09-05 06:35,-116.1876,41.9532,1637.00,53.60,32.00,43.61,0.00,0.00,0.00,30.43,M,10.00,M,CLR,M,M,M,M,M,M,M,M,M,M,M,M,M,M,53.60,K10U 050635Z AUTO 00000KT 10SM CLR 12/00 A3043 RMK AO2,M
05U,2024-09-05 06:50,-116.0051,39.6042,1811.23,51.80,19.40,27.62,0.00,0.00,0.00,30.44,M,10.00,M,CLR,M,M,M,M,M,M,M,M,M,M,M,M,M,M,51.80,K05U 050650Z AUTO 00000KT 10SM CLR 11/M07 A3044 RMK A01,M
DRA,2024-09-05 06:53,-116.0278,36.6206,1009.00,79.00,32.00,18.06,0.00,0.00,0.00,30.10,1013.60,10.00,M,CLR,M,M,M,M,M,M,M,M,M,M,M,M,M,M,79.00,KDRA 050653Z AUTO 00000KT 10SM CLR 26/00 A3010 RMK AO2 SLP136 T02610000,M
ELY,2024-09-05 06:53,-114.8453,39.2950,1909.00,58.00,29.00,32.91,40.00,6.00,0.00,30.45,1021.60,8.00,M,CLR,M,M,M,M,M,M,M,M,M,M,M,M,M,M,58.00,KELY 050653Z AUTO 04006KT 8SM CLR 14/M02 A3045 RMK AO2 SLP216 T01441017,M
VGT,2024-09-05 06:53,-115.1933,36.2111,667.00,95.00,38.00,13.78,300.00,11.00,0.00,29.98,1013.40,10.00,M,CLR,M,M,M,M,M,M,M,M,M,M,M,M,M,M,90.49,KVGT 050653Z AUTO 30011KT 10SM CLR 35/03 A2998 RMK AO2 SLP134 T03500033,M
LOL,2024-09-05 06:53,-118.5701,40.0684,1192.43,52.00,M,M,0.00,0.00,0.00,30.26,1021.70,10.00,M,CLR,M,M,M,M,M,M,M,M,M,M,M,M,M,M,M,KLOL 050653Z AUTO 00000KT 10SM CLR 11/ A3026 RMK AO2 SLP217 T0111 $,M
BVU,2024-09-05 06:55,-114.8611,35.9475,671.00,91.40,35.60,14.02,230.00,3.00,0.00,29.97,M,10.00,M,CLR,M,M,M,M,M,M,M,M,M,M,M,M,M,M,87.17,KBVU 050655Z AUTO 23003KT 10SM CLR 33/02 A2997 RMK AO2,M
RNO,2024-09-05 06:55,-119.7711,39.4839,1341.00,68.00,33.00,27.23,180.00,4.00,0.00,30.30,1020.50,10.00,M,CLR,M,M,M,M,M,M,M,M,M,M,M,M,M,M,68.00,KRNO 050655Z 18004KT 10SM CLR 20/01 A3030 RMK AO2 SLP205 T02000006,M
CXP,2024-09-05 06:55,-119.7326,39.1923,1431.00,62.60,24.80,23.50,0.00,0.00,0.00,30.33,M,10.00,M,CLR,M,M,M,M,M,M,M,M,M,M,M,M,M,M,62.60,KCXP 050655Z AUTO 00000KT 10SM CLR 17/M04 A3033 RMK AO2,M
RTS,2024-09-05 06:55,-119.8764,39.6682,1539.00,62.60,24.80,23.50,0.00,0.00,0.00,30.35,M,10.00,M,CLR,M,M,M,M,M,M,M,M,M,M,M,M,M,M,62.60,KRTS 050655Z AUTO 00000KT 10SM CLR 17/M04 A3035 RMK AO2,M
MEV,2024-09-05 06:55,-119.7500,38.9963,1441.42,53.60,28.40,37.67,110.00,3.00,0.00,30.31,M,10.00,M,SCT,SCT,M,M,4800.00,5500.00,M,M,M,M,M,M,M,M,M,53.60,KMEV 050655Z AUTO 11003KT 10SM SCT048 SCT055 12/M02 A3031 RMK AO2,M
BAM,2024-09-05 06:55,-116.8743,40.5990,1382.36,62.60,30.20,29.35,80.00,8.00,0.00,30.35,M,10.00,M,CLR,M,M,M,M,M,M,M,M,M,M,M,M,M,M,62.60,KBAM 050655Z AUTO 08008KT 10SM CLR 17/M01 A3035 RMK AO1,M
HTH,2024-09-05 06:55,-118.6315,38.5448,1282.89,71.60,33.80,24.86,0.00,0.00,0.00,30.26,M,10.00,M,CLR,M,M,M,M,M,M,M,M,M,M,M,M,M,M,71.60,KHTH 050655Z AUTO 00000KT 10SM CLR 22/01 A3026 RMK A01,M
TMT,2024-09-05 06:55,-117.1971,39.4643,1749.34,45.50,27.70,49.51,220.00,4.00,0.00,30.41,M,10.00,M,CLR,M,M,M,M,M,M,M,M,M,M,M,M,M,M,43.18,KTMT 050655Z AUTO 22004KT 10SM CLR 08/M02 A3041 RMK AO2 T00751024,M
10U,2024-09-05 06:55,-116.1876,41.9532,1637.00,51.80,32.00,46.59,350.00,3.00,0.00,30.43,M,10.00,M,CLR,M,M,M,M,M,M,M,M,M,M,M,M,M,M,51.80,K10U 050655Z AUTO 35003KT 10SM CLR 11/00 A3043 RMK AO2,M
INS,2024-09-05 06:55,-115.6733,36.5872,955.00,81.70,31.00,15.88,250.00,4.00,0.00,30.09,1012.90,10.00,M,CLR,M,M,M,M,M,M,M,M,M,M,M,M,M,M,79.50,KINS 050655Z AUTO 25004KT 10SM CLR 28/M00 A3009 RMK AO2 SLP129 T02761005,M
LSV,2024-09-05 06:55,-115.0343,36.2362,570.00,88.00,31.00,12.97,190.00,3.00,0.00,29.93,1010.30,10.00,M,CLR,M,M,M,M,M,M,M,M,M,M,M,M,M,M,84.23,KLSV 050655Z AUTO 19003KT 10SM CLR 31/M01 A2993 RMK AO2 SLP103 T03111006 $,M
EKO,2024-09-05 06:56,-115.7860,40.8242,1367.00,66.00,34.00,30.37,70.00,7.00,0.00,30.38,1023.50,8.00,M,CLR,M,M,M,M,M,M,M,M,M,M,M,M,M,M,66.00,KEKO 050656Z AUTO 07007KT 8SM CLR 19/01 A3038 RMK AO2 SLP235 T01890011,M
WMC,2024-09-05 06:56,-117.8072,40.9019,1315.00,51.00,28.00,40.78,140.00,7.00,0.00,30.31,1022.70,10.00,M,CLR,M,M,M,M,M,M,M,M,M,M,M,M,M,M,51.00,KWMC 050656Z AUTO 14007KT 10SM CLR 11/M02 A3031 RMK AO2 SLP227 T01061022,M
HND,2024-09-05 06:56,-115.1344,35.9729,742.79,87.00,45.00,23.20,160.00,7.00,0.00,30.04,1015.40,10.00,M,CLR,M,M,M,M,M,M,M,M,M,M,M,M,M,M,83.90,KHND 050656Z AUTO 16007KT 10SM CLR 31/07 A3004 RMK AO2 SLP154 T03060072 404110267,M
TPH,2024-09-05 06:56,-117.0904,38.0505,1654.00,69.00,22.00,16.73,350.00,12.00,0.00,30.33,1018.70,10.00,M,CLR,M,M,M,M,M,M,M,M,M,M,M,M,M,M,69.00,KTPH 050656Z AUTO 35012KT 10SM CLR 21/M06 A3033 RMK AO2 SLP187 T02061056,M
LAS,2024-09-05 06:56,-115.1634,36.0719,663.00,94.00,39.00,14.78,270.00,7.00,0.00,30.00,1012.60,10.00,M,CLR,M,M,M,M,M,M,M,M,M,M,M,M,M,M,89.64,KLAS 050656Z 27007KT 10SM CLR 34/04 A3000 RMK AO2 SLP126 T03440039,M
NFL,2024-09-05 06:57,-118.7010,39.4166,1199.00,63.00,30.00,28.70,270.00,3.00,0.00,30.25,1020.40,10.00,M,CLR,M,M,M,M,M,M,M,M,M,M,M,M,M,M,63.00,KNFL 050657Z AUTO 27003KT 10SM CLR 17/M01 A3025 RMK AO2 SLP204 T01721011,M
MEV,2024-09-05 07:05,-119.7500,38.9963,1441.42,53.60,28.40,37.67,110.00,5.00,0.00,30.31,M,10.00,M,SCT,SCT,SCT,M,4600.00,5500.00,7500.00,M,M,M,M,M,M,M,M,53.60,KMEV 050705Z AUTO 11005KT 10SM SCT046 SCT055 SCT075 12/M02 A3031 RMK AO2,M
05U,2024-09-05 07:10,-116.0051,39.6042,1811.23,50.00,19.40,29.52,0.00,0.00,0.00,30.44,M,10.00,M,CLR,M,M,M,M,M,M,M,M,M,M,M,M,M,M,50.00,K05U 050710Z AUTO 00000KT 10SM CLR 10/M07 A3044 RMK A01,M
BVU,2024-09-05 07:15,-114.8611,35.9475,671.00,89.60,37.40,15.92,0.00,0.00,0.00,29.97,M,10.00,M,CLR,M,M,M,M,M,M,M,M,M,M,M,M,M,M,85.67,KBVU 050715Z AUTO 00000KT 10SM CLR 32/03 A2997 RMK AO2,M
CXP,2024-09-05 07:15,-119.7326,39.1923,1431.00,60.80,26.60,26.98,0.00,0.00,0.00,30.33,M,10.00,M,CLR,M,M,M,M,M,M,M,M,M,M,M,M,M,M,60.80,KCXP 050715Z AUTO 00000KT 10SM CLR 16/M03 A3033 RMK AO2,M
RTS,2024-09-05 07:15,-119.8764,39.6682,1539.00,62.60,23.00,21.79,0.00,0.00,0.00,30.35,M,10.00,M,CLR,M,M,M,M,M,M,M,M,M,M,M,M,M,M,62.60,KRTS 050715Z AUTO 00000KT 10SM CLR 17/M05 A3035 RMK AO2,M
BAM,2024-09-05 07:15,-116.8743,40.5990,1382.36,69.80,32.00,24.59,80.00,9.00,0.00,30.35,M,10.00,M,CLR,M,M,M,M,M,M,M,M,M,M,M,M,M,M,69.80,KBAM 050715Z AUTO 08009KT 10SM CLR 21/00 A3035 RMK AO1,M
HTH,2024-09-05 07:15,-118.6315,38.5448,1282.89,71.60,32.00,23.13,0.00,0.00,0.00,30.27,M,10.00,M,CLR,M,M,M,M,M,M,M,M,M,M,M,M,M,M,71.60,KHTH 050715Z AUTO 00000KT 10SM CLR 22/M00 A3027 RMK A01,M
TMT,2024-09-05 07:15,-117.1971,39.4643,1749.34,45.30,28.40,51.34,220.00,5.00,0.00,30.41,M,10.00,M,CLR,M,M,M,M,M,M,M,M,M,M,M,M,M,M,42.19,KTMT 050715Z AUTO 22005KT 10SM CLR 07/M02 A3041 RMK AO2 T00741020,M
10U,2024-09-05 07:15,-116.1876,41.9532,1637.00,51.80,32.00,46.59,0.00,0.00,0.00,30.43,M,10.00,M,CLR,M,M,M,M,M,M,M,M,M,M,M,M,M,M,51.80,K10U 050715Z AUTO 00000KT 10SM CLR 11/00 A3043 RMK AO2,M
05U,2024-09-05 07:30,-116.0051,39.6042,1811.23,48.20,21.20,34.09,0.00,0.00,0.00,30.45,M,10.00,M,CLR,M,M,M,M,M,M,M,M,M,M,M,M,M,M,48.20,K05U 050730Z AUTO 00000KT 10SM CLR 09/M06 A3045 RMK A01,M
BVU,2024-09-05 07:35,-114.8611,35.9475,671.00,84.20,42.80,23.33,300.00,3.00,0.00,29.97,M,10.00,M,CLR,M,M,M,M,M,M,M,M,M,M,M,M,M,M,81.61,KBVU 050735Z AUTO 30003KT 10SM CLR 29/06 A2997 RMK AO2,M
CXP,2024-09-05 07:35,-119.7326,39.1923,1431.00,60.80,28.40,29.06,90.00,4.00,0.00,30.33,M,10.00,M,CLR,M,M,M,M,M,M,M,M,M,M,M,M,M,M,60.80,KCXP 050735Z AUTO 09004KT 10SM CLR 16/M02 A3033 RMK AO2,M
RTS,2024-09-05 07:35,-119.8764,39.6682,1539.00,59.00,21.20,22.95,0.00,0.00,0.00,30.35,M,10.00,M,CLR,M,M,M,M,M,M,M,M,M,M,M,M,M,M,59.00,KRTS 050735Z AUTO 00000KT 10SM CLR 15/M06 A3035 RMK AO2,M
HTH,2024-09-05 07:35,-118.6315,38.5448,1282.89,68.00,28.40,22.59,0.00,0.00,0.00,30.27,M,10.00,M,CLR,M,M,M,M,M,M,M,M,M,M,M,M,M,M,68.00,KHTH 050735Z AUTO 00000KT 10SM CLR 20/M02 A3027 RMK A01,M
TMT,2024-09-05 07:35,-117.1971,39.4643,1749.34,44.00,27.50,51.99,230.00,3.00,0.00,30.42,M,10.00,M,CLR,M,M,M,M,M,M,M,M,M,M,M,M,M,M,42.41,KTMT 050735Z AUTO 23003KT 10SM CLR 07/M02 A3042 RMK AO2 T00671025,M
10U,2024-09-05 07:35,-116.1876,41.9532,1637.00,50.00,32.00,49.81,60.00,4.00,0.00,30.43,M,10.00,M,CLR,M,M,M,M,M,M,M,M,M,M,M,M,M,M,50.00,K10U 050735Z AUTO 06004KT 10SM CLR 10/00 A3043 RMK AO2,M
BAM,2024-09-05 07:35,-116.8743,40.5990,1382.36,69.80,33.80,26.43,70.00,7.00,0.00,30.35,M,10.00,M,CLR,M,M,M,M,M,M,M,M,M,M,M,M,M,M,69.80,KBAM 050735Z AUTO 07007KT 10SM CLR 21/01 A3035 RMK AO1,M
HTH,2024-09-05 07:50,-118.6315,38.5448,1282.89,69.80,30.20,22.86,0.00,0.00,0.00,30.27,M,10.00,M,CLR,M,M,M,M,M,M,M,M,M,M,M,M,M,M,69.80,KHTH 050750Z AUTO 00000KT 10SM CLR 21/M01 A3027 RMK A01,M
05U,2024-09-05 07:50,-116.0051,39.6042,1811.23,48.20,21.20,34.09,0.00,0.00,0.00,30.44,M,10.00,M,CLR,M,M,M,M,M,M,M,M,M,M,M,M,M,M,48.20,K05U 050750Z AUTO 00000KT 10SM CLR 09/M06 A3044 RMK A01,M
P68,2024-09-05 07:53,-116.0056,39.6014,1993.00,48.00,25.00,40.29,180.00,4.00,0.00,30.42,1023.20,M,M,M,M,M,M,M,M,M,M,M,M,M,M,M,M,M,46.10,KP68 050753Z AUTO 18004KT 09/M04 A3042 RMK AO1 SLP232 T00891039 402940039,M
DRA,2024-09-05 07:53,-116.0278,36.6206,1009.00,76.00,32.00,19.95,110.00,4.00,0.00,30.10,1013.80,10.00,M,CLR,M,M,M,M,M,M,M,M,M,M,M,M,M,M,76.00,KDRA 050753Z AUTO 11004KT 10SM CLR 24/00 A3010 RMK AO2 SLP138 T02440000 403890211,M
ELY,2024-09-05 07:53,-114.8453,39.2950,1909.00,51.00,28.00,40.78,0.00,0.00,0.00,30.46,1022.30,9.00,M,CLR,M,M,M,M,M,M,M,M,M,M,M,M,M,M,51.00,KELY 050753Z AUTO 00000KT 9SM CLR 11/M02 A3046 RMK AO2 SLP223 T01061022 403000033,M
VGT,2024-09-05 07:53,-115.1933,36.2111,667.00,92.00,38.00,15.12,320.00,10.00,0.00,29.98,1013.50,10.00,M,CLR,M,M,M,M,M,M,M,M,M,M,M,M,M,M,87.78,KVGT 050753Z AUTO 32010KT 10SM CLR 33/03 A2998 RMK AO2 SLP135 T03330033 404220272,M
LOL,2024-09-05 07:53,-118.5701,40.0684,1192.43,55.00,M,M,0.00,0.00,0.00,30.26,1021.40,10.00,M,CLR,M,M,M,M,M,M,M,M,M,M,M,M,M,M,M,KLOL 050753Z AUTO 00000KT 10SM CLR 13/ A3026 RMK AO2 SLP214 T0128 403330050 $,M
BVU,2024-09-05 07:55,-114.8611,35.9475,671.00,89.60,37.40,15.92,320.00,4.00,0.00,29.98,M,10.00,M,CLR,M,M,M,M,M,M,M,M,M,M,M,M,M,M,85.67,KBVU 050755Z AUTO 32004KT 10SM CLR 32/03 A2998 RMK AO2,M
RNO,2024-09-05 07:55,-119.7711,39.4839,1341.00,67.00,29.00,23.97,280.00,4.00,0.00,30.31,1020.60,10.00,M,CLR,M,M,M,M,M,M,M,M,M,M,M,M,M,M,67.00,KRNO 050755Z 28004KT 10SM CLR 19/M02 A3031 RMK AO2 SLP206 T01941017 403280128,M
LSV,2024-09-05 07:55,-115.0343,36.2362,570.00,91.20,33.40,12.92,330.00,5.00,0.00,29.94,1010.50,10.00,M,CLR,M,M,M,M,M,M,M,M,M,M,M,M,M,M,86.93,KLSV 050755Z AUTO 33005KT 10SM CLR 33/01 A2994 RMK AO2 SLP105 T03290008 404190250 $,M
CXP,2024-09-05 07:55,-119.7326,39.1923,1431.00,60.80,32.00,33.64,0.00,0.00,0.00,30.34,M,10.00,M,CLR,M,M,M,M,M,M,M,M,M,M,M,M,M,M,60.80,KCXP 050755Z AUTO 00000KT 10SM CLR 16/M00 A3034 RMK AO2,M
INS,2024-09-05 07:55,-115.6733,36.5872,955.00,80.20,30.00,16.01,0.00,0.00,0.00,30.10,1013.20,10.00,M,CLR,M,M,M,M,M,M,M,M,M,M,M,M,M,M,78.67,KINS 050755Z AUTO 00000KT 10SM CLR 27/M01 A3010 RMK AO2 SLP132 T02681011 403910208,M
RTS,2024-09-05 07:55,-119.8764,39.6682,1539.00,57.20,21.20,24.49,0.00,0.00,0.00,30.35,M,10.00,M,CLR,M,M,M,M,M,M,M,M,M,M,M,M,M,M,57.20,KRTS 050755Z AUTO 00000KT 10SM CLR 14/M06 A3035 RMK AO2,M
TMT,2024-09-05 07:55,-117.1971,39.4643,1749.34,41.00,24.60,51.74,210.00,3.00,0.00,30.42,M,10.00,M,CLR,M,M,M,M,M,M,M,M,M,M,M,M,M,M,38.98,KTMT 050755Z AUTO 21003KT 10SM CLR 05/M04 A3042 RMK AO2 T00491041 402931017,M
10U,2024-09-05 07:55,-116.1876,41.9532,1637.00,50.00,32.00,49.81,110.00,7.00,0.00,30.42,M,10.00,M,CLR,M,M,M,M,M,M,M,M,M,M,M,M,M,M,50.00,K10U 050755Z AUTO 11007KT 10SM CLR 10/M00 A3042 RMK AO2,M
EKO,2024-09-05 07:56,-115.7860,40.8242,1367.00,66.00,33.00,29.18,80.00,6.00,0.00,30.38,1023.30,8.00,M,CLR,M,M,M,M,M,M,M,M,M,M,M,M,M,M,66.00,KEKO 050756Z AUTO 08006KT 8SM CLR 19/01 A3038 RMK AO2 SLP233 T01890006 403000050,M
WMC,2024-09-05 07:56,-117.8072,40.9019,1315.00,66.00,32.00,28.03,40.00,11.00,0.00,30.32,1021.60,10.00,M,CLR,M,M,M,M,M,M,M,M,M,M,M,M,M,M,66.00,KWMC 050756Z AUTO 04011KT 10SM CLR 19/00 A3032 RMK AO2 SLP216 T01890000 403170039,M
HND,2024-09-05 07:56,-115.1344,35.9729,742.79,84.00,43.00,23.66,160.00,8.00,0.00,30.04,1015.30,10.00,M,CLR,M,M,M,M,M,M,M,M,M,M,M,M,M,M,81.48,KHND 050756Z AUTO 16008KT 10SM CLR 29/06 A3004 RMK AO2 SLP153 T02890061,M
TPH,2024-09-05 07:56,-117.0904,38.0505,1654.00,70.00,22.00,16.17,340.00,11.00,0.00,30.33,1018.60,10.00,M,CLR,M,M,M,M,M,M,M,M,M,M,M,M,M,M,70.00,KTPH 050756Z AUTO 34011KT 10SM CLR 21/M06 A3033 RMK AO2 SLP186 T02111056 403280144,M
LAS,2024-09-05 07:56,-115.1634,36.0719,663.00,91.00,38.00,15.60,M,3.00,0.00,30.00,1012.50,10.00,M,CLR,M,M,M,M,M,M,M,M,M,M,M,M,M,M,86.90,KLAS 050756Z VRB03KT 10SM CLR 33/03 A3000 RMK AO2 SLP125 T03280033 404170289,M
NFL,2024-09-05 07:57,-118.7010,39.4166,1199.00,63.00,30.00,28.70,180.00,5.00,0.00,30.25,1020.50,9.00,M,CLR,M,M,M,M,M,M,M,M,M,M,M,M,M,M,63.00,KNFL 050757Z AUTO 18005KT 9SM CLR 17/M01 A3025 RMK AO2 SLP205 T01721011 403390094,M
05U,2024-09-05 08:10,-116.0051,39.6042,1811.23,48.20,23.00,36.78,0.00,0.00,0.00,30.45,M,10.00,M,CLR,M,M,M,M,M,M,M,M,M,M,M,M,M,M,48.20,K05U 050810Z AUTO 00000KT 10SM CLR 09/M05 A3045 RMK A01,M
BVU,2024-09-05 08:15,-114.8611,35.9475,671.00,89.60,37.40,15.92,0.00,0.00,0.00,29.98,M,10.00,M,CLR,M,M,M,M,M,M,M,M,M,M,M,M,M,M,85.67,KBVU 050815Z AUTO 00000KT 10SM CLR 32/03 A2998 RMK AO2,M
CXP,2024-09-05 08:15,-119.7326,39.1923,1431.00,59.00,30.20,33.35,0.00,0.00,0.00,30.34,M,10.00,M,CLR,M,M,M,M,M,M,M,M,M,M,M,M,M,M,59.00,KCXP 050815Z AUTO 00000KT 10SM CLR 15/M01 A3034 RMK AO2,M
RTS,2024-09-05 08:15,-119.8764,39.6682,1539.00,55.40,21.20,26.13,0.00,0.00,0.00,30.35,M,10.00,M,CLR,M,M,M,M,M,M,M,M,M,M,M,M,M,M,55.40,KRTS 050815Z AUTO 00000KT 10SM CLR 13/M06 A3035 RMK AO2,M
BAM,2024-09-05 08:15,-116.8743,40.5990,1382.36,66.20,33.80,29.92,70.00,6.00,0.00,30.35,M,10.00,M,CLR,M,M,M,M,M,M,M,M,M,M,M,M,M,M,66.20,KBAM 050815Z AUTO 07006KT 10SM CLR 19/01 A3035 RMK AO1,M
HTH,2024-09-05 08:15,-118.6315,38.5448,1282.89,71.60,33.80,24.86,0.00,0.00,0.00,30.27,M,10.00,M,CLR,M,M,M,M,M,M,M,M,M,M,M,M,M,M,71.60,KHTH 050815Z AUTO 00000KT 10SM CLR 22/01 A3027 RMK A01,M
TMT,2024-09-05 08:15,-117.1971,39.4643,1749.34,41.00,26.00,54.84,220.00,5.00,0.00,30.41,M,10.00,M,CLR,M,M,M,M,M,M,M,M,M,M,M,M,M,M,37.08,KTMT 050815Z AUTO 22005KT 10SM CLR 05/M03 A3041 RMK AO2 T00511034,M
10U,2024-09-05 08:15,-116.1876,41.9532,1637.00,51.80,32.00,46.59,M,4.00,0.00,30.43,M,10.00,M,CLR,M,M,M,M,M,M,M,M,M,M,M,M,M,M,51.80,K10U 050815Z AUTO VRB04KT 10SM CLR 11/M00 A3043 RMK AO2,M
05U,2024-09-05 08:30,-116.0051,39.6042,1811.23,46.40,21.20,36.48,0.00,0.00,0.00,30.45,M,10.00,M,CLR,M,M,M,M,M,M,M,M,M,M,M,M,M,M,46.40,K05U 050830Z AUTO 00000KT 10SM CLR 08/M06 A3045 RMK A01,M
BVU,2024-09-05 08:35,-114.8611,35.9475,671.00,89.60,42.80,19.64,30.00,11.00,0.00,29.99,M,10.00,M,CLR,M,M,M,M,M,M,M,M,M,M,M,M,M,M,85.93,KBVU 050835Z AUTO 03011KT 10SM CLR 32/06 A2999 RMK AO2,M
CXP,2024-09-05 08:35,-119.7326,39.1923,1431.00,59.00,30.20,33.35,0.00,0.00,0.00,30.34,M,10.00,M,CLR,M,M,M,M,M,M,M,M,M,M,M,M,M,M,59.00,KCXP 050835Z AUTO 00000KT 10SM CLR 15/M01 A3034 RMK AO2,M
RTS,2024-09-05 08:35,-119.8764,39.6682,1539.00,55.40,21.20,26.13,330.00,5.00,0.00,30.35,M,10.00,M,CLR,M,M,M,M,M,M,M,M,M,M,M,M,M,M,55.40,KRTS 050835Z AUTO 33005KT 10SM CLR 13/M06 A3035 RMK AO2,M
BAM,2024-09-05 08:35,-116.8743,40.5990,1382.36,64.40,33.80,31.85,90.00,7.00,0.00,30.35,M,10.00,M,CLR,M,M,M,M,M,M,M,M,M,M,M,M,M,M,64.40,KBAM 050835Z AUTO 09007KT 10SM CLR 18/01 A3035 RMK AO1,M
HTH,2024-09-05 08:35,-118.6315,38.5448,1282.89,69.80,30.20,22.86,200.00,4.00,0.00,30.27,M,10.00,M,CLR,M,M,M,M,M,M,M,M,M,M,M,M,M,M,69.80,KHTH 050835Z AUTO 20004KT 10SM CLR 21/M01 A3027 RMK A01,M
TMT,2024-09-05 08:35,-117.1971,39.4643,1749.34,42.80,26.20,51.59,220.00,4.00,0.00,30.41,M,10.00,M,CLR,M,M,M,M,M,M,M,M,M,M,M,M,M,M,40.03,KTMT 050835Z AUTO 22004KT 10SM CLR 06/M03 A3041 RMK AO2 T00601032,M
10U,2024-09-05 08:35,-116.1876,41.9532,1637.00,50.00,30.20,46.31,290.00,5.00,0.00,30.43,M,10.00,M,CLR,M,M,M,M,M,M,M,M,M,M,M,M,M,M,50.00,K10U 050835Z AUTO 29005KT 10SM CLR 10/M01 A3043 RMK AO2,M
05U,2024-09-05 08:50,-116.0051,39.6042,1811.23,44.60,23.00,42.14,0.00,0.00,0.00,30.45,M,10.00,M,CLR,M,M,M,M,M,M,M,M,M,M,M,M,M,M,44.60,K05U 050850Z AUTO 00000KT 10SM CLR 07/M05 A3045 RMK A01,M
P68,2024-09-05 08:53,-116.0056,39.6014,1993.00,47.00,24.00,40.12,190.00,4.00,0.00,30.42,1023.40,M,M,M,M,M,M,M,M,M,M,M,M,M,M,M,M,M,44.94,KP68 050853Z AUTO 19004KT 08/M04 A3042 RMK AO1 SLP234 T00831044 53002,M
DRA,2024-09-05 08:53,-116.0278,36.6206,1009.00,76.00,33.00,20.77,80.00,6.00,0.00,30.11,1013.80,10.00,M,CLR,M,M,M,M,M,M,M,M,M,M,M,M,M,M,76.00,KDRA 050853Z AUTO 08006KT 10SM CLR 24/01 A3011 RMK AO2 SLP138 T02440006 53003,M
ELY,2024-09-05 08:53,-114.8453,39.2950,1909.00,52.00,29.00,40.95,90.00,5.00,0.00,30.46,1021.90,9.00,M,CLR,M,M,M,M,M,M,M,M,M,M,M,M,M,M,52.00,KELY 050853Z AUTO 09005KT 9SM CLR 11/M02 A3046 RMK AO2 SLP219 T01111017 51006,M
VGT,2024-09-05 08:53,-115.1933,36.2111,667.00,93.00,37.00,14.09,40.00,6.00,0.00,30.01,1014.40,10.00,M,CLR,M,M,M,M,M,M,M,M,M,M,M,29.00,30.00,2024-09-05 08:28,88.63,KVGT 050853Z AUTO 04006KT 10SM CLR 34/03 A3001 RMK AO2 PK WND 03029/0828 SLP144 T03390028 53008,M
LOL,2024-09-05 08:53,-118.5701,40.0684,1192.43,54.00,M,M,M,3.00,0.00,30.27,1021.50,10.00,M,CLR,M,M,M,M,M,M,M,M,M,M,M,M,M,M,M,KLOL 050853Z AUTO VRB03KT 10SM CLR 12/ A3027 RMK AO2 SLP215 T0122 51004 $,M
BVU,2024-09-05 08:55,-114.8611,35.9475,671.00,87.80,44.60,22.27,20.00,7.00,0.00,29.99,M,10.00,M,CLR,M,M,M,M,M,M,M,M,M,M,M,M,M,M,84.53,KBVU 050855Z AUTO 02007KT 10SM CLR 31/07 A2999 RMK AO2,M
INS,2024-09-05 08:55,-115.6733,36.5872,955.00,77.70,30.70,17.89,220.00,4.00,0.00,30.10,1013.30,10.00,M,CLR,M,M,M,M,M,M,M,M,M,M,M,M,M,M,77.70,KINS 050855Z AUTO 22004KT 10SM CLR 25/M01 A3010 RMK AO2 SLP133 T02541007 51005,M
RNO,2024-09-05 08:55,-119.7711,39.4839,1341.00,65.00,29.00,25.69,270.00,3.00,0.00,30.31,1020.80,10.00,M,CLR,M,M,M,M,M,M,M,M,M,M,M,M,M,M,65.00,KRNO 050855Z 27003KT 10SM CLR 18/M02 A3031 RMK AO2 SLP208 T01831017 51007,M
LSV,2024-09-05 08:55,-115.0343,36.2362,570.00,90.70,33.00,12.92,60.00,15.00,0.00,29.95,1010.80,10.00,M,CLR,M,M,M,M,M,M,M,M,M,M,M,M,M,M,86.50,KLSV 050855Z AUTO 06015KT 10SM CLR 33/01 A2995 RMK AO2 SLP108 T03260006 52008 $,M
CXP,2024-09-05 08:55,-119.7326,39.1923,1431.00,57.20,30.20,35.57,0.00,0.00,0.00,30.34,M,10.00,M,CLR,M,M,M,M,M,M,M,M,M,M,M,M,M,M,57.20,KCXP 050855Z AUTO 00000KT 10SM CLR 14/M01 A3034 RMK AO2,M
RTS,2024-09-05 08:55,-119.8764,39.6682,1539.00,53.60,21.20,27.91,330.00,5.00,0.00,30.35,M,10.00,M,CLR,M,M,M,M,M,M,M,M,M,M,M,M,M,M,53.60,KRTS 050855Z AUTO 33005KT 10SM CLR 12/M06 A3035 RMK AO2,M
BAM,2024-09-05 08:55,-116.8743,40.5990,1382.36,62.60,33.80,33.93,90.00,6.00,0.00,30.35,M,10.00,M,CLR,M,M,M,M,M,M,M,M,M,M,M,M,M,M,62.60,KBAM 050855Z AUTO 09006KT 10SM CLR 17/01 A3035 RMK AO1,M
HTH,2024-09-05 08:55,-118.6315,38.5448,1282.89,68.00,28.40,22.59,200.00,3.00,0.00,30.28,M,10.00,M,CLR,M,M,M,M,M,M,M,M,M,M,M,M,M,M,68.00,KHTH 050855Z AUTO 20003KT 10SM CLR 20/M02 A3028 RMK A01,M
TMT,2024-09-05 08:55,-117.1971,39.4643,1749.34,37.80,21.60,51.67,0.00,0.00,0.00,30.41,M,10.00,M,CLR,M,M,M,M,M,M,M,M,M,M,M,M,M,M,37.80,KTMT 050855Z AUTO 00000KT 10SM CLR 03/M06 A3041 RMK AO2 T00321058,M
10U,2024-09-05 08:55,-116.1876,41.9532,1637.00,48.20,30.20,49.53,350.00,5.00,0.00,30.43,M,10.00,M,CLR,M,M,M,M,M,M,M,M,M,M,M,M,M,M,45.63,K10U 050855Z AUTO 35005KT 10SM CLR 09/M01 A3043 RMK AO2,M
EKO,2024-09-05 08:56,-115.7860,40.8242,1367.00,58.00,33.00,38.70,0.00,0.00,0.00,30.39,1024.00,8.00,M,CLR,M,M,M,M,M,M,M,M,M,M,M,M,M,M,58.00,KEKO 050856Z AUTO 00000KT 8SM CLR 14/01 A3039 RMK AO2 SLP240 T01440006 53004,M
WMC,2024-09-05 08:56,-117.8072,40.9019,1315.00,63.00,33.00,32.40,110.00,4.00,0.00,30.32,1021.90,10.00,M,CLR,M,M,M,M,M,M,M,M,M,M,M,M,M,M,63.00,KWMC 050856Z AUTO 11004KT 10SM CLR 17/01 A3032 RMK AO2 SLP219 T01720006 51005,M
HND,2024-09-05 08:56,-115.1344,35.9729,742.79,84.00,39.00,20.27,220.00,3.00,0.00,30.06,1015.90,10.00,M,CLR,M,M,M,M,M,M,M,M,M,M,M,M,M,M,81.29,KHND 050856Z AUTO 22003KT 10SM CLR 29/04 A3006 RMK AO2 SLP159 T02890039 53007,M
TPH,2024-09-05 08:56,-117.0904,38.0505,1654.00,65.00,22.00,19.21,360.00,8.00,0.00,30.34,1019.00,10.00,M,CLR,M,M,M,M,M,M,M,M,M,M,M,M,M,M,65.00,KTPH 050856Z AUTO 36008KT 10SM CLR 18/M06 A3034 RMK AO2 SLP190 T01831056 51005,M
LAS,2024-09-05 08:56,-115.1634,36.0719,663.00,88.00,38.00,17.15,0.00,0.00,0.00,30.03,1013.50,10.00,M,CLR,M,M,M,M,M,M,M,M,M,M,M,M,M,M,84.35,KLAS 050856Z 00000KT 10SM CLR 31/03 A3003 RMK AO2 SLP135 T03110033 53008,M
NFL,2024-09-05 08:57,-118.7010,39.4166,1199.00,59.00,32.00,35.87,210.00,3.00,0.00,30.26,1020.60,9.00,M,CLR,M,M,M,M,M,M,M,M,M,M,M,M,M,M,59.00,KNFL 050857Z AUTO 21003KT 9SM CLR 15/00 A3026 RMK AO2 SLP206 T01500000 51006,M
05U,2024-09-05 09:10,-116.0051,39.6042,1811.23,46.40,21.20,36.48,0.00,0.00,0.00,30.45,M,10.00,M,CLR,M,M,M,M,M,M,M,M,M,M,M,M,M,M,46.40,K05U 050910Z AUTO 00000KT 10SM CLR 08/M06 A3045 RMK A01,M
BVU,2024-09-05 09:15,-114.8611,35.9475,671.00,89.60,37.40,15.92,360.00,7.00,0.00,30.00,M,10.00,M,CLR,M,M,M,M,M,M,M,M,M,M,M,M,M,M,85.67,KBVU 050915Z AUTO 36007KT 10SM CLR 32/03 A3000 RMK AO2,M
CXP,2024-09-05 09:15,-119.7326,39.1923,1431.00,57.20,28.40,33.05,0.00,0.00,0.00,30.34,M,10.00,M,CLR,M,M,M,M,M,M,M,M,M,M,M,M,M,M,57.20,KCXP 050915Z AUTO 00000KT 10SM CLR 14/M02 A3034 RMK AO2,M
RTS,2024-09-05 09:15,-119.8764,39.6682,1539.00,59.00,23.00,24.76,340.00,3.00,0.00,30.35,M,10.00,M,CLR,M,M,M,M,M,M,M,M,M,M,M,M,M,M,59.00,KRTS 050915Z AUTO 34003KT 10SM CLR 15/M05 A3035 RMK AO2,M
BAM,2024-09-05 09:15,-116.8743,40.5990,1382.36,62.60,33.80,33.93,80.00,6.00,0.00,30.35,M,10.00,M,CLR,M,M,M,M,M,M,M,M,M,M,M,M,M,M,62.60,KBAM 050915Z AUTO 08006KT 10SM CLR 17/01 A3035 RMK AO1,M
HTH,2024-09-05 09:15,-118.6315,38.5448,1282.89,68.00,28.40,22.59,220.00,3.00,0.00,30.28,M,10.00,M,CLR,M,M,M,M,M,M,M,M,M,M,M,M,M,M,68.00,KHTH 050915Z AUTO 22003KT 10SM CLR 20/M02 A3028 RMK A01,M
TMT,2024-09-05 09:15,-117.1971,39.4643,1749.34,41.00,23.40,49.20,0.00,0.00,0.00,30.41,M,10.00,M,CLR,M,M,M,M,M,M,M,M,M,M,M,M,M,M,41.00,KTMT 050915Z AUTO 00000KT 10SM CLR 05/M05 A3041 RMK AO2 T00491048,M
10U,2024-09-05 09:15,-116.1876,41.9532,1637.00,50.00,32.00,49.81,0.00,0.00,0.00,30.43,M,10.00,M,CLR,M,M,M,M,M,M,M,M,M,M,M,M,M,M,50.00,K10U 050915Z AUTO 00000KT 10SM CLR 10/M00 A3043 RMK AO2,M
05U,2024-09-05 09:30,-116.0051,39.6042,1811.23,44.60,21.20,39.06,0.00,0.00,0.00,30.45,M,10.00,M,CLR,M,M,M,M,M,M,M,M,M,M,M,M,M,M,44.60,K05U 050930Z AUTO 00000KT 10SM CLR 07/M06 A3045 RMK A01,M
BVU,2024-09-05 09:35,-114.8611,35.9475,671.00,91.40,35.60,14.02,10.00,12.00,0.00,30.00,M,10.00,M,CLR,M,M,M,M,M,M,M,M,M,M,M,M,M,M,87.17,KBVU 050935Z AUTO 01012KT 10SM CLR 33/02 A3000 RMK AO2,M
CXP,2024-09-05 09:35,-119.7326,39.1923,1431.00,55.40,30.20,37.97,0.00,0.00,0.00,30.34,M,10.00,M,CLR,M,M,M,M,M,M,M,M,M,M,M,M,M,M,55.40,KCXP 050935Z AUTO 00000KT 10SM CLR 13/M01 A3034 RMK AO2,M
RTS,2024-09-05 09:35,-119.8764,39.6682,1539.00,55.40,24.80,30.40,350.00,5.00,0.00,30.35,M,10.00,M,CLR,M,M,M,M,M,M,M,M,M,M,M,M,M,M,55.40,KRTS 050935Z AUTO 35005KT 10SM CLR 13/M04 A3035 RMK AO2,M
BAM,2024-09-05 09:35,-116.8743,40.5990,1382.36,62.60,33.80,33.93,80.00,7.00,0.00,30.36,M,10.00,M,CLR,M,M,M,M,M,M,M,M,M,M,M,M,M,M,62.60,KBAM 050935Z AUTO 08007KT 10SM CLR 17/01 A3036 RMK AO1,M
HTH,2024-09-05 09:35,-118.6315,38.5448,1282.89,66.20,28.40,24.04,0.00,0.00,0.00,30.28,M,10.00,M,CLR,M,M,M,M,M,M,M,M,M,M,M,M,M,M,66.20,KHTH 050935Z AUTO 00000KT 10SM CLR 19/M02 A3028 RMK A01,M
TMT,2024-09-05 09:35,-117.1971,39.4643,1749.34,35.00,19.60,53.02,220.00,4.00,0.00,30.42,M,10.00,M,CLR,M,M,M,M,M,M,M,M,M,M,M,M,M,M,30.92,KTMT 050935Z AUTO 22004KT 10SM CLR 02/M07 A3042 RMK AO2 T00161069,M
10U,2024-09-05 09:35,-116.1876,41.9532,1637.00,46.40,30.20,53.00,30.00,4.00,0.00,30.43,M,10.00,M,CLR,M,M,M,M,M,M,M,M,M,M,M,M,M,M,44.24,K10U 050935Z AUTO 03004KT 10SM CLR 08/M01 A3043 RMK AO2,M
05U,2024-09-05 09:50,-116.0051,39.6042,1811.23,42.80,21.20,41.84,0.00,0.00,0.00,30.45,M,10.00,M,CLR,M,M,M,M,M,M,M,M,M,M,M,M,M,M,42.80,K05U 050950Z AUTO 00000KT 10SM CLR 06/M06 A3045 RMK A01,M
P68,2024-09-05 09:53,-116.0056,39.6014,1993.00,43.00,23.00,44.80,200.00,4.00,0.00,30.43,1023.70,M,M,M,M,M,M,M,M,M,M,M,M,M,M,M,M,M,40.27,KP68 050953Z AUTO 20004KT 06/M05 A3043 RMK AO1 SLP237 T00611050,M
DRA,2024-09-05 09:53,-116.0278,36.6206,1009.00,81.00,31.00,16.25,M,4.00,0.00,30.12,1014.00,10.00,M,CLR,M,M,M,M,M,M,M,M,M,M,M,M,M,M,79.04,KDRA 050953Z AUTO VRB04KT 10SM CLR 27/M01 A3012 RMK AO2 SLP140 T02721006,M
ELY,2024-09-05 09:53,-114.8453,39.2950,1909.00,44.00,25.00,46.88,190.00,8.00,0.00,30.47,1023.20,9.00,M,CLR,M,M,M,M,M,M,M,M,M,M,M,M,M,M,38.90,KELY 050953Z AUTO 19008KT 9SM CLR 07/M04 A3047 RMK AO2 SLP232 T00671039,M
VGT,2024-09-05 09:53,-115.1933,36.2111,667.00,90.00,38.00,16.10,0.00,0.00,0.00,30.02,1014.80,10.00,M,CLR,M,M,M,M,M,M,M,M,M,M,M,M,M,M,86.03,KVGT 050953Z AUTO 00000KT 10SM CLR 32/03 A3002 RMK AO2 SLP148 T03220033,M
LOL,2024-09-05 09:53,-118.5701,40.0684,1192.43,47.00,M,M,0.00,0.00,0.00,30.27,1022.20,10.00,M,CLR,M,M,M,M,M,M,M,M,M,M,M,M,M,M,M,KLOL 050953Z AUTO 00000KT 10SM CLR 08/ A3027 RMK AO2 SLP222 T0083 $,M
BVU,2024-09-05 09:55,-114.8611,35.9475,671.00,91.40,33.80,13.05,360.00,11.00,0.00,30.00,M,10.00,M,CLR,M,M,M,M,M,M,M,M,M,M,M,M,M,M,87.13,KBVU 050955Z AUTO 36011KT 10SM CLR 33/01 A3000 RMK AO2,M
RNO,2024-09-05 09:55,-119.7711,39.4839,1341.00,64.00,30.00,27.71,280.00,3.00,0.00,30.32,1020.90,10.00,M,CLR,M,M,M,M,M,M,M,M,M,M,M,M,M,M,64.00,KRNO 050955Z 28003KT 10SM CLR 18/M01 A3032 RMK AO2 SLP209 T01781011,M
CXP,2024-09-05 09:55,-119.7326,39.1923,1431.00,55.40,28.40,35.28,0.00,0.00,0.00,30.35,M,10.00,M,CLR,M,M,M,M,M,M,M,M,M,M,M,M,M,M,55.40,KCXP 050955Z AUTO 00000KT 10SM CLR 13/M02 A3035 RMK AO2,M
RTS,2024-09-05 09:55,-119.8764,39.6682,1539.00,51.80,21.20,29.82,360.00,5.00,0.00,30.35,M,10.00,M,CLR,M,M,M,M,M,M,M,M,M,M,M,M,M,M,51.80,KRTS 050955Z AUTO 36005KT 10SM CLR 11/M06 A3035 RMK AO2,M
BAM,2024-09-05 09:55,-116.8743,40.5990,1382.36,60.80,33.80,36.16,360.00,4.00,0.00,30.36,M,10.00,M,CLR,M,M,M,M,M,M,M,M,M,M,M,M,M,M,60.80,KBAM 050955Z AUTO 36004KT 10SM CLR 16/01 A3036 RMK AO1,M
HTH,2024-09-05 09:55,-118.6315,38.5448,1282.89,66.20,30.20,25.88,260.00,3.00,0.00,30.28,M,10.00,M,CLR,M,M,M,M,M,M,M,M,M,M,M,M,M,M,66.20,KHTH 050955Z AUTO 26003KT 10SM CLR 19/M01 A3028 RMK A01,M
TMT,2024-09-05 09:55,-117.1971,39.4643,1749.34,37.20,21.60,52.91,230.00,4.00,0.00,30.42,M,10.00,M,CLR,M,M,M,M,M,M,M,M,M,M,M,M,M,M,33.49,KTMT 050955Z AUTO 23004KT 10SM CLR 03/M06 A3042 RMK AO2 T00291058,M
10U,2024-09-05 09:55,-116.1876,41.9532,1637.00,42.80,30.20,60.79,70.00,3.00,0.00,30.42,M,10.00,M,CLR,M,M,M,M,M,M,M,M,M,M,M,M,M,M,41.03,K10U 050955Z AUTO 07003KT 10SM CLR 06/M01 A3042 RMK AO2,M
INS,2024-09-05 09:55,-115.6733,36.5872,955.00,75.60,30.40,18.95,230.00,6.00,0.00,30.11,1013.70,10.00,M,CLR,M,M,M,M,M,M,M,M,M,M,M,M,M,M,75.60,KINS 050955Z AUTO 23006KT 10SM CLR 24/M01 A3011 RMK AO2 SLP137 T02421009,M
LSV,2024-09-05 09:55,-115.0343,36.2362,570.00,93.40,26.00,8.92,40.00,17.00,0.00,29.96,1011.10,10.00,M,CLR,M,M,M,M,M,M,M,M,M,M,M,M,M,M,87.82,KLSV 050955Z AUTO 04017KT 10SM CLR 34/M03 A2996 RMK AO2 SLP111 T03411033 $,M
EKO,2024-09-05 09:56,-115.7860,40.8242,1367.00,50.00,33.00,51.85,M,3.00,0.00,30.39,1024.70,8.00,M,CLR,M,M,M,M,M,M,M,M,M,M,M,M,M,M,50.00,KEKO 050956Z AUTO VRB03KT 8SM CLR 10/01 A3039 RMK AO2 SLP247 T01000006,M
WMC,2024-09-05 09:56,-117.8072,40.9019,1315.00,54.00,28.00,36.52,120.00,7.00,0.00,30.32,1022.60,10.00,M,CLR,M,M,M,M,M,M,M,M,M,M,M,M,M,M,54.00,KWMC 050956Z AUTO 12007KT 10SM CLR 12/M02 A3032 RMK AO2 SLP226 T01221022,M
HND,2024-09-05 09:56,-115.1344,35.9729,742.79,83.00,40.00,21.76,0.00,0.00,0.00,30.07,1016.50,10.00,M,CLR,M,M,M,M,M,M,M,M,M,M,M,M,M,M,80.64,KHND 050956Z AUTO 00000KT 10SM CLR 28/04 A3007 RMK AO2 SLP165 T02830044,M
TPH,2024-09-05 09:56,-117.0904,38.0505,1654.00,64.00,21.00,19.07,350.00,13.00,0.00,30.34,1019.20,10.00,M,CLR,M,M,M,M,M,M,M,M,M,M,M,M,M,M,64.00,KTPH 050956Z AUTO 35013KT 10SM CLR 18/M06 A3034 RMK AO2 SLP192 T01781061,M
LAS,2024-09-05 09:56,-115.1634,36.0719,663.00,91.00,36.00,14.42,70.00,9.00,0.00,30.04,1013.80,10.00,M,CLR,M,M,M,M,M,M,M,M,M,M,M,M,M,M,86.83,KLAS 050956Z 07009KT 10SM CLR 33/02 A3004 RMK AO2 SLP138 T03280022,M
NFL,2024-09-05 09:57,-118.7010,39.4166,1199.00,53.00,33.00,46.41,170.00,4.00,0.00,30.26,1020.80,9.00,M,CLR,M,M,M,M,M,M,M,M,M,M,M,M,M,M,53.00,KNFL 050957Z AUTO 17004KT 9SM CLR 12/01 A3026 RMK AO2 SLP208 T01170006,M
05U,2024-09-05 10:10,-116.0051,39.6042,1811.23,41.00,21.20,44.85,0.00,0.00,0.00,30.45,M,10.00,M,CLR,M,M,M,M,M,M,M,M,M,M,M,M,M,M,41.00,K05U 051010Z AUTO 00000KT 10SM CLR 05/M06 A3045 RMK A01,M
BVU,2024-09-05 10:15,-114.8611,35.9475,671.00,89.60,33.80,13.80,20.00,11.00,0.00,30.00,M,10.00,M,CLR,M,M,M,M,M,M,M,M,M,M,M,M,M,M,85.59,KBVU 051015Z AUTO 02011KT 10SM CLR 32/01 A3000 RMK AO2,M
CXP,2024-09-05 10:15,-119.7326,39.1923,1431.00,55.40,30.20,37.97,0.00,0.00,0.00,30.34,M,10.00,M,CLR,M,M,M,M,M,M,M,M,M,M,M,M,M,M,55.40,KCXP 051015Z AUTO 00000KT 10SM CLR 13/M01 A3034 RMK AO2,M
RTS,2024-09-05 10:15,-119.8764,39.6682,1539.00,55.40,23.00,28.20,350.00,3.00,0.00,30.35,M,10.00,M,CLR,M,M,M,M,M,M,M,M,M,M,M,M,M,M,55.40,KRTS 051015Z AUTO 35003KT 10SM CLR 13/M05 A3035 RMK AO2,M
BAM,2024-09-05 10:15,-116.8743,40.5990,1382.36,59.00,35.60,41.42,360.00,4.00,0.00,30.36,M,10.00,M,CLR,M,M,M,M,M,M,M,M,M,M,M,M,M,M,59.00,KBAM 051015Z AUTO 36004KT 10SM CLR 15/02 A3036 RMK AO1,M
HTH,2024-09-05 10:15,-118.6315,38.5448,1282.89,66.20,30.20,25.88,260.00,5.00,0.00,30.28,M,10.00,M,CLR,M,M,M,M,M,M,M,M,M,M,M,M,M,M,66.20,KHTH 051015Z AUTO 26005KT 10SM CLR 19/M01 A3028 RMK A01,M
TMT,2024-09-05 10:15,-117.1971,39.4643,1749.34,35.00,19.80,53.47,230.00,4.00,0.00,30.42,M,10.00,M,CLR,M,M,M,M,M,M,M,M,M,M,M,M,M,M,30.92,KTMT 051015Z AUTO 23004KT 10SM CLR 02/M07 A3042 RMK AO2 T00161068,M
10U,2024-09-05 10:15,-116.1876,41.9532,1637.00,46.40,33.80,61.28,0.00,0.00,0.00,30.42,M,10.00,M,CLR,M,M,M,M,M,M,M,M,M,M,M,M,M,M,46.40,K10U 051015Z AUTO 00000KT 10SM CLR 08/01 A3042 RMK AO2,M
05U,2024-09-05 10:30,-116.0051,39.6042,1811.23,41.00,21.20,44.85,0.00,0.00,0.00,30.45,M,10.00,M,CLR,M,M,M,M,M,M,M,M,M,M,M,M,M,M,41.00,K05U 051030Z AUTO 00000KT 10SM CLR 05/M06 A3045 RMK A01,M
BVU,2024-09-05 10:35,-114.8611,35.9475,671.00,89.60,32.00,12.84,20.00,9.00,0.00,30.01,M,10.00,17.00,CLR,M,M,M,M,M,M,M,M,M,M,M,M,M,M,85.54,KBVU 051035Z AUTO 02009G17KT 10SM CLR 32/00 A3001 RMK AO2,M
CXP,2024-09-05 10:35,-119.7326,39.1923,1431.00,53.60,30.20,40.54,0.00,0.00,0.00,30.34,M,10.00,M,CLR,M,M,M,M,M,M,M,M,M,M,M,M,M,M,53.60,KCXP 051035Z AUTO 00000KT 10SM CLR 12/M01 A3034 RMK AO2,M
RTS,2024-09-05 10:35,-119.8764,39.6682,1539.00,51.80,21.20,29.82,0.00,0.00,0.00,30.35,M,10.00,M,CLR,M,M,M,M,M,M,M,M,M,M,M,M,M,M,51.80,KRTS 051035Z AUTO 00000KT 10SM CLR 11/M06 A3035 RMK AO2,M
BAM,2024-09-05 10:35,-116.8743,40.5990,1382.36,57.20,35.60,44.19,350.00,6.00,0.00,30.36,M,10.00,M,CLR,M,M,M,M,M,M,M,M,M,M,M,M,M,M,57.20,KBAM 051035Z AUTO 35006KT 10SM CLR 14/02 A3036 RMK AO1,M
HTH,2024-09-05 10:35,-118.6315,38.5448,1282.89,64.40,26.60,23.77,250.00,6.00,0.00,30.28,M,10.00,M,CLR,M,M,M,M,M,M,M,M,M,M,M,M,M,M,64.40,KHTH 051035Z AUTO 25006KT 10SM CLR 18/M03 A3028 RMK A01,M
TMT,2024-09-05 10:35,-117.1971,39.4643,1749.34,36.30,21.70,55.05,220.00,6.00,0.00,30.43,M,10.00,M,CLR,M,M,M,M,M,M,M,M,M,M,M,M,M,M,30.71,KTMT 051035Z AUTO 22006KT 10SM CLR 02/M06 A3043 RMK AO2 T00241057,M
10U,2024-09-05 10:35,-116.1876,41.9532,1637.00,46.40,32.00,57.00,0.00,0.00,0.00,30.42,M,10.00,M,CLR,M,M,M,M,M,M,M,M,M,M,M,M,M,M,46.40,K10U 051035Z AUTO 00000KT 10SM CLR 08/00 A3042 RMK AO2,M
05U,2024-09-05 10:50,-116.0051,39.6042,1811.23,42.80,23.00,45.14,0.00,0.00,0.00,30.46,M,10.00,M,CLR,M,M,M,M,M,M,M,M,M,M,M,M,M,M,42.80,K05U 051050Z AUTO 00000KT 10SM CLR 06/M05 A3046 RMK A01,M
P68,2024-09-05 10:53,-116.0056,39.6014,1993.00,44.00,23.00,43.11,190.00,5.00,0.00,30.43,1023.70,M,M,M,M,M,M,M,M,M,M,M,M,M,M,M,M,M,40.65,KP68 051053Z AUTO 19005KT 07/M05 A3043 RMK AO1 SLP237 T00671050,M
DRA,2024-09-05 10:53,-116.0278,36.6206,1009.00,82.00,28.00,13.92,40.00,13.00,0.00,30.13,1014.50,10.00,M,CLR,M,M,M,M,M,M,M,M,M,M,M,M,M,M,79.66,KDRA 051053Z AUTO 04013KT 10SM CLR 28/M02 A3013 RMK AO2 SLP145 T02781022,M
ELY,2024-09-05 10:53,-114.8453,39.2950,1909.00,43.00,23.00,44.80,170.00,11.00,0.00,30.48,1023.30,9.00,M,CLR,M,M,M,M,M,M,M,M,M,M,M,M,M,M,36.37,KELY 051053Z AUTO 17011KT 9SM CLR 06/M05 A3048 RMK AO2 SLP233 T00611050,M
VGT,2024-09-05 10:53,-115.1933,36.2111,667.00,87.00,39.00,18.41,230.00,8.00,0.00,30.04,1015.50,10.00,M,CLR,M,M,M,M,M,M,M,M,M,M,M,M,M,M,83.57,KVGT 051053Z AUTO 23008KT 10SM CLR 31/04 A3004 RMK AO2 SLP155 T03060039,M
LOL,2024-09-05 10:53,-118.5701,40.0684,1192.43,46.00,M,M,220.00,3.00,0.00,30.28,1022.30,10.00,M,CLR,M,M,M,M,M,M,M,M,M,M,M,M,M,M,M,KLOL 051053Z AUTO 22003KT 10SM CLR 08/ A3028 RMK AO2 SLP223 T0078 $,M
BVU,2024-09-05 10:55,-114.8611,35.9475,671.00,89.60,32.00,12.84,0.00,0.00,0.00,30.01,M,10.00,M,CLR,M,M,M,M,M,M,M,M,M,M,M,M,M,M,85.54,KBVU 051055Z AUTO 00000KT 10SM CLR 32/00 A3001 RMK AO2,M
INS,2024-09-05 10:55,-115.6733,36.5872,955.00,74.70,31.00,20.01,250.00,5.00,0.00,30.13,1014.40,10.00,M,CLR,M,M,M,M,M,M,M,M,M,M,M,M,M,M,74.70,KINS 051055Z AUTO 25005KT 10SM CLR 24/M01 A3013 RMK AO2 SLP144 T02371006,M
RNO,2024-09-05 10:55,-119.7711,39.4839,1341.00,62.00,31.00,30.96,270.00,3.00,0.00,30.31,1020.80,10.00,M,CLR,M,M,M,M,M,M,M,M,M,M,M,M,M,M,62.00,KRNO 051055Z 27003KT 10SM CLR 17/M01 A3031 RMK AO2 SLP208 T01671006,M
LSV,2024-09-05 10:55,-115.0343,36.2362,570.00,91.60,27.30,9.96,200.00,3.00,0.00,29.99,1012.20,10.00,M,CLR,M,M,M,M,M,M,M,M,M,M,M,M,M,M,86.57,KLSV 051055Z AUTO 20003KT 10SM CLR 33/M03 A2999 RMK AO2 SLP122 T03311026 $,M
CXP,2024-09-05 10:55,-119.7326,39.1923,1431.00,53.60,32.00,43.61,0.00,0.00,0.00,30.34,M,10.00,M,CLR,M,M,M,M,M,M,M,M,M,M,M,M,M,M,53.60,KCXP 051055Z AUTO 00000KT 10SM CLR 12/M00 A3034 RMK AO2,M
RTS,2024-09-05 10:55,-119.8764,39.6682,1539.00,48.20,21.20,34.09,0.00,0.00,0.00,30.35,M,10.00,M,CLR,M,M,M,M,M,M,M,M,M,M,M,M,M,M,48.20,KRTS 051055Z AUTO 00000KT 10SM CLR 09/M06 A3035 RMK AO2,M
BAM,2024-09-05 10:55,-116.8743,40.5990,1382.36,59.00,35.60,41.42,360.00,6.00,0.00,30.36,M,10.00,M,CLR,M,M,M,M,M,M,M,M,M,M,M,M,M,M,59.00,KBAM 051055Z AUTO 36006KT 10SM CLR 15/02 A3036 RMK AO1,M
HTH,2024-09-05 10:55,-118.6315,38.5448,1282.89,62.60,28.40,27.27,0.00,0.00,0.00,30.28,M,10.00,M,CLR,M,M,M,M,M,M,M,M,M,M,M,M,M,M,62.60,KHTH 051055Z AUTO 00000KT 10SM CLR 17/M02 A3028 RMK A01,M
TMT,2024-09-05 10:55,-117.1971,39.4643,1749.34,37.60,24.80,59.57,240.00,4.00,0.00,30.43,M,10.00,M,CLR,M,M,M,M,M,M,M,M,M,M,M,M,M,M,33.96,KTMT 051055Z AUTO 24004KT 10SM CLR 03/M04 A3043 RMK AO2 T00311040,M
10U,2024-09-05 10:55,-116.1876,41.9532,1637.00,46.40,33.80,61.28,360.00,7.00,0.00,30.42,M,10.00,M,CLR,M,M,M,M,M,M,M,M,M,M,M,M,M,M,42.33,K10U 051055Z AUTO 36007KT 10SM CLR 08/01 A3042 RMK AO2,M
EKO,2024-09-05 10:56,-115.7860,40.8242,1367.00,49.00,32.00,51.70,210.00,5.00,0.00,30.39,1024.80,8.00,M,CLR,M,M,M,M,M,M,M,M,M,M,M,M,M,M,46.58,KEKO 051056Z AUTO 21005KT 8SM CLR 09/00 A3039 RMK AO2 SLP248 T00940000,M
WMC,2024-09-05 10:56,-117.8072,40.9019,1315.00,52.00,28.00,39.30,130.00,7.00,0.00,30.32,1022.60,10.00,M,CLR,M,M,M,M,M,M,M,M,M,M,M,M,M,M,52.00,KWMC 051056Z AUTO 13007KT 10SM CLR 11/M02 A3032 RMK AO2 SLP226 T01111022,M
HND,2024-09-05 10:56,-115.1344,35.9729,742.79,81.00,42.00,25.09,0.00,0.00,0.00,30.09,1017.00,10.00,M,CLR,M,M,M,M,M,M,M,M,M,M,M,M,M,M,79.48,KHND 051056Z AUTO 00000KT 10SM CLR 27/06 A3009 RMK AO2 SLP170 T02720056,M
TPH,2024-09-05 10:56,-117.0904,38.0505,1654.00,62.00,21.00,20.46,330.00,9.00,0.00,30.35,1019.60,10.00,M,CLR,M,M,M,M,M,M,M,M,M,M,M,M,M,M,62.00,KTPH 051056Z AUTO 33009KT 10SM CLR 17/M06 A3035 RMK AO2 SLP196 T01671061,M
LAS,2024-09-05 10:56,-115.1634,36.0719,663.00,89.00,34.00,14.18,70.00,8.00,0.00,30.06,1014.50,10.00,M,CLR,M,M,M,M,M,M,M,M,M,M,M,M,M,M,85.09,KLAS 051056Z 07008KT 10SM CLR 32/01 A3006 RMK AO2 SLP145 T03170011,M
NFL,2024-09-05 10:57,-118.7010,39.4166,1199.00,52.00,33.00,48.15,170.00,3.00,0.00,30.26,1020.90,9.00,M,CLR,M,M,M,M,M,M,M,M,M,M,M,M,M,M,52.00,KNFL 051057Z AUTO 17003KT 9SM CLR 11/01 A3026 RMK AO2 SLP209 T01110006,M
05U,2024-09-05 11:10,-116.0051,39.6042,1811.23,42.80,21.20,41.84,0.00,0.00,0.00,30.46,M,10.00,M,CLR,M,M,M,M,M,M,M,M,M,M,M,M,M,M,42.80,K05U 051110Z AUTO 00000KT 10SM CLR 06/M06 A3046 RMK A01,M
BVU,2024-09-05 11:15,-114.8611,35.9475,671.00,87.80,32.00,13.59,310.00,5.00,0.00,30.02,M,10.00,M,CLR,M,M,M,M,M,M,M,M,M,M,M,M,M,M,84.08,KBVU 051115Z AUTO 31005KT 10SM CLR 31/M00 A3002 RMK AO2,M
CXP,2024-09-05 11:15,-119.7326,39.1923,1431.00,53.60,30.20,40.54,0.00,0.00,0.00,30.35,M,10.00,M,CLR,M,M,M,M,M,M,M,M,M,M,M,M,M,M,53.60,KCXP 051115Z AUTO 00000KT 10SM CLR 12/M01 A3035 RMK AO2,M
RTS,2024-09-05 11:15,-119.8764,39.6682,1539.00,50.00,24.80,37.08,0.00,0.00,0.00,30.35,M,10.00,M,CLR,M,M,M,M,M,M,M,M,M,M,M,M,M,M,50.00,KRTS 051115Z AUTO 00000KT 10SM CLR 10/M04 A3035 RMK AO2,M
BAM,2024-09-05 11:15,-116.8743,40.5990,1382.36,55.40,33.80,43.90,350.00,7.00,0.00,30.36,M,10.00,M,CLR,M,M,M,M,M,M,M,M,M,M,M,M,M,M,55.40,KBAM 051115Z AUTO 35007KT 10SM CLR 13/01 A3036 RMK AO1,M
HTH,2024-09-05 11:15,-118.6315,38.5448,1282.89,66.20,28.40,24.04,0.00,0.00,0.00,30.29,M,10.00,M,CLR,M,M,M,M,M,M,M,M,M,M,M,M,M,M,66.20,KHTH 051115Z AUTO 00000KT 10SM CLR 19/M02 A3029 RMK A01,M
TMT,2024-09-05 11:15,-117.1971,39.4643,1749.34,37.60,25.00,60.07,240.00,3.00,0.00,30.43,M,10.00,M,CLR,M,M,M,M,M,M,M,M,M,M,M,M,M,M,35.09,KTMT 051115Z AUTO 24003KT 10SM CLR 03/M04 A3043 RMK AO2 T00311038,M
10U,2024-09-05 11:15,-116.1876,41.9532,1637.00,46.40,33.80,61.28,360.00,5.00,0.00,30.42,M,10.00,M,CLR,M,M,M,M,M,M,M,M,M,M,M,M,M,M,43.50,K10U 051115Z AUTO 36005KT 10SM CLR 08/01 A3042 RMK AO2,M
05U,2024-09-05 11:30,-116.0051,39.6042,1811.23,42.80,23.00,45.14,0.00,0.00,0.00,30.46,M,10.00,M,CLR,M,M,M,M,M,M,M,M,M,M,M,M,M,M,42.80,K05U 051130Z AUTO 00000KT 10SM CLR 06/M05 A3046 RMK A01,M
HTH,2024-09-05 11:30,-118.6315,38.5448,1282.89,62.60,28.40,27.27,0.00,0.00,0.00,30.29,M,10.00,M,CLR,M,M,M,M,M,M,M,M,M,M,M,M,M,M,62.60,KHTH 051130Z AUTO 00000KT 10SM CLR 17/M02 A3029 RMK A01,M
BVU,2024-09-05 11:35,-114.8611,35.9475,671.00,87.80,30.20,12.64,320.00,4.00,0.00,30.03,M,10.00,M,CLR,M,M,M,M,M,M,M,M,M,M,M,M,M,M,84.01,KBVU 051135Z AUTO 32004KT 10SM CLR 31/M01 A3003 RMK AO2,M
CXP,2024-09-05 11:35,-119.7326,39.1923,1431.00,55.40,30.20,37.97,0.00,0.00,0.00,30.35,M,10.00,M,CLR,M,M,M,M,M,M,M,M,M,M,M,M,M,M,55.40,KCXP 051135Z AUTO 00000KT 10SM CLR 13/M01 A3035 RMK AO2,M
RTS,2024-09-05 11:35,-119.8764,39.6682,1539.00,51.80,23.00,32.17,360.00,4.00,0.00,30.35,M,10.00,M,CLR,M,M,M,M,M,M,M,M,M,M,M,M,M,M,51.80,KRTS 051135Z AUTO 36004KT 10SM CLR 11/M05 A3035 RMK AO2,M
BAM,2024-09-05 11:35,-116.8743,40.5990,1382.36,55.40,32.00,40.84,340.00,5.00,0.00,30.36,M,10.00,M,CLR,M,M,M,M,M,M,M,M,M,M,M,M,M,M,55.40,KBAM 051135Z AUTO 34005KT 10SM CLR 13/00 A3036 RMK AO1,M
TMT,2024-09-05 11:35,-117.1971,39.4643,1749.34,34.50,21.60,58.88,0.00,0.00,0.00,30.43,M,10.00,M,CLR,M,M,M,M,M,M,M,M,M,M,M,M,M,M,34.50,KTMT 051135Z AUTO 00000KT 10SM CLR 01/M06 A3043 RMK AO2 T00141058,M
10U,2024-09-05 11:35,-116.1876,41.9532,1637.00,46.40,33.80,61.28,10.00,6.00,0.00,30.42,M,10.00,M,CLR,M,M,M,M,M,M,M,M,M,M,M,M,M,M,42.87,K10U 051135Z AUTO 01006KT 10SM CLR 08/01 A3042 RMK AO2,M
05U,2024-09-05 11:50,-116.0051,39.6042,1811.23,42.80,23.00,45.14,0.00,0.00,0.00,30.46,M,10.00,M,CLR,M,M,M,M,M,M,M,M,M,M,M,M,M,M,42.80,K05U 051150Z AUTO 00000KT 10SM CLR 06/M05 A3046 RMK A01,M
P68,2024-09-05 11:53,-116.0056,39.6014,1993.00,42.00,24.00,48.55,180.00,4.00,0.00,30.44,1024.00,M,M,M,M,M,M,M,M,M,M,M,M,M,M,M,M,M,39.10,KP68 051153Z AUTO 18004KT 06/M04 A3044 RMK AO1 SLP240 T00561044 10111 20044 51004,M
DRA,2024-09-05 11:53,-116.0278,36.6206,1009.00,80.00,28.00,14.85,50.00,12.00,0.00,30.15,1015.10,10.00,M,CLR,M,M,M,M,M,M,M,M,M,M,M,M,M,M,78.40,KDRA 051153Z AUTO 05012KT 10SM CLR 27/M02 A3015 RMK AO2 SLP151 T02671022 10278 20233 53013,M
ELY,2024-09-05 11:53,-114.8453,39.2950,1909.00,41.00,24.00,50.46,180.00,8.00,0.00,30.48,1024.00,9.00,M,CLR,M,M,M,M,M,M,M,M,M,M,M,M,M,M,35.20,KELY 051153Z AUTO 18008KT 9SM CLR 05/M04 A3048 RMK AO2 SLP240 T00501044 10161 20050 51005,M
VGT,2024-09-05 11:53,-115.1933,36.2111,667.00,85.00,40.00,20.40,290.00,4.00,0.00,30.06,1016.30,10.00,M,CLR,M,M,M,M,M,M,M,M,M,M,M,M,M,M,82.06,KVGT 051153Z AUTO 29004KT 10SM CLR 29/04 A3006 RMK AO2 SLP163 T02940044 10367 20294 53016,M
LOL,2024-09-05 11:53,-118.5701,40.0684,1192.43,47.00,M,M,170.00,4.00,0.00,30.28,1022.30,10.00,M,CLR,M,M,M,M,M,M,M,M,M,M,M,M,M,M,M,KLOL 051153Z AUTO 17004KT 10SM CLR 08/ A3028 RMK AO2 SLP223 T0083 10161 20078 53004 $,M
BVU,2024-09-05 11:55,-114.8611,35.9475,671.00,86.00,32.00,14.40,0.00,0.00,0.00,30.04,M,10.00,M,CLR,M,M,M,M,M,M,M,M,M,M,M,M,M,M,82.64,KBVU 051155Z AUTO 00000KT 10SM CLR 30/00 A3004 RMK AO2,M
RNO,2024-09-05 11:55,-119.7711,39.4839,1341.00,60.00,31.00,33.24,270.00,3.00,0.00,30.32,1021.40,10.00,M,CLR,M,M,M,M,M,M,M,M,M,M,M,M,M,M,60.00,KRNO 051155Z 27003KT 10SM CLR 16/M01 A3032 RMK AO2 SLP214 T01561006 10217 20150 53003,M
CXP,2024-09-05 11:55,-119.7326,39.1923,1431.00,51.80,33.80,50.08,0.00,0.00,0.00,30.35,M,10.00,M,CLR,M,M,M,M,M,M,M,M,M,M,M,M,M,M,51.80,KCXP 051155Z AUTO 00000KT 10SM CLR 11/01 A3035 RMK AO2,M
INS,2024-09-05 11:55,-115.6733,36.5872,955.00,70.70,30.00,21.99,0.00,0.00,0.00,30.15,1015.20,10.00,M,CLR,M,M,M,M,M,M,M,M,M,M,M,M,M,M,70.70,KINS 051155Z AUTO 00000KT 10SM CLR 22/M01 A3015 RMK AO2 SLP152 T02151011 10297 20215 52016,M
LSV,2024-09-05 11:55,-115.0343,36.2362,570.00,92.30,25.30,8.97,20.00,8.00,0.00,30.01,1012.80,10.00,15.00,CLR,M,M,M,M,M,M,M,M,M,M,M,M,M,M,86.93,KLSV 051155Z AUTO 02008G15KT 10SM CLR 34/M04 A3001 RMK AO2 SLP128 T03351037 10345 20304 52020 $,M
RTS,2024-09-05 11:55,-119.8764,39.6682,1539.00,51.80,23.00,32.17,0.00,0.00,0.00,30.36,M,10.00,M,CLR,M,M,M,M,M,M,M,M,M,M,M,M,M,M,51.80,KRTS 051155Z AUTO 00000KT 10SM CLR 11/M05 A3036 RMK AO2,M
BAM,2024-09-05 11:55,-116.8743,40.5990,1382.36,53.60,32.00,43.61,10.00,3.00,0.00,30.36,M,10.00,M,CLR,M,M,M,M,M,M,M,M,M,M,M,M,M,M,53.60,KBAM 051155Z AUTO 01003KT 10SM CLR 12/00 A3036 RMK AO1,M
HTH,2024-09-05 11:55,-118.6315,38.5448,1282.89,62.60,28.40,27.27,0.00,0.00,0.00,30.30,M,10.00,M,CLR,M,M,M,M,M,M,M,M,M,M,M,M,M,M,62.60,KHTH 051155Z AUTO 00000KT 10SM CLR 17/M02 A3030 RMK A01,M
TMT,2024-09-05 11:55,-117.1971,39.4643,1749.34,35.40,20.50,54.22,0.00,0.00,0.00,30.43,M,10.00,M,CLR,M,M,M,M,M,M,M,M,M,M,M,M,M,M,35.40,KTMT 051155Z AUTO 00000KT 10SM CLR 02/M06 A3043 RMK AO2 T00191064 10088 20010,M
10U,2024-09-05 11:55,-116.1876,41.9532,1637.00,48.20,33.80,57.26,20.00,5.00,0.00,30.42,M,10.00,M,CLR,M,M,M,M,M,M,M,M,M,M,M,M,M,M,45.63,K10U 051155Z AUTO 02005KT 10SM CLR 09/01 A3042 RMK AO2,M
EKO,2024-09-05 11:56,-115.7860,40.8242,1367.00,50.00,31.00,47.83,0.00,0.00,0.00,30.40,1024.90,8.00,M,CLR,M,M,M,M,M,M,M,M,M,M,M,M,M,M,50.00,KEKO 051156Z AUTO 00000KT 8SM CLR 10/M01 A3040 RMK AO2 SLP249 T01001006 10211 20078 53005,M
WMC,2024-09-05 11:56,-117.8072,40.9019,1315.00,53.00,27.00,36.36,M,4.00,0.00,30.32,1022.50,10.00,M,CLR,M,M,M,M,M,M,M,M,M,M,M,M,M,M,53.00,KWMC 051156Z AUTO VRB04KT 10SM CLR 12/M03 A3032 RMK AO2 SLP225 T01171028 10189 20089 53001,M
HND,2024-09-05 11:56,-115.1344,35.9729,742.79,85.00,35.00,16.76,70.00,8.00,0.00,30.10,1017.40,10.00,M,CLR,M,M,M,M,M,M,M,M,M,M,M,M,M,M,81.91,KHND 051156Z AUTO 07008KT 10SM CLR 29/02 A3010 RMK AO2 SLP174 T02940017 10317 20267 51015,M
TPH,2024-09-05 11:56,-117.0904,38.0505,1654.00,62.00,21.00,20.46,360.00,11.00,0.00,30.36,1019.80,10.00,M,CLR,M,M,M,M,M,M,M,M,M,M,M,M,M,M,62.00,KTPH 051156Z AUTO 36011KT 10SM CLR 17/M06 A3036 RMK AO2 SLP198 T01671061 10228 20161 53006,M
LAS,2024-09-05 11:56,-115.1634,36.0719,663.00,87.00,36.00,16.36,100.00,4.00,0.00,30.07,1015.10,10.00,M,CLR,M,M,M,M,M,M,M,M,M,M,M,M,M,M,83.48,KLAS 051156Z 10004KT 10SM CLR 31/02 A3007 RMK AO2 SLP151 T03060022 10350 20306 53016,M
NFL,2024-09-05 11:57,-118.7010,39.4166,1199.00,54.00,32.00,42.98,0.00,0.00,0.00,30.27,1021.20,9.00,M,CLR,M,M,M,M,M,M,M,M,M,M,M,M,M,M,54.00,KNFL 051157Z AUTO 00000KT 9SM CLR 12/00 A3027 RMK AO2 SLP212 T01220000 10194 20111 53005,M
05U,2024-09-05 12:10,-116.0051,39.6042,1811.23,41.00,24.80,52.17,0.00,0.00,0.00,30.46,M,10.00,M,CLR,M,M,M,M,M,M,M,M,M,M,M,M,M,M,41.00,K05U 051210Z AUTO 00000KT 10SM CLR 05/M04 A3046 RMK A01,M
BVU,2024-09-05 12:15,-114.8611,35.9475,671.00,86.00,28.40,12.44,340.00,9.00,0.00,30.05,M,10.00,M,CLR,M,M,M,M,M,M,M,M,M,M,M,M,M,M,82.54,KBVU 051215Z AUTO 34009KT 10SM CLR 30/M02 A3005 RMK AO2,M
CXP,2024-09-05 12:15,-119.7326,39.1923,1431.00,51.80,32.00,46.59,0.00,0.00,0.00,30.36,M,10.00,M,CLR,M,M,M,M,M,M,M,M,M,M,M,M,M,M,51.80,KCXP 051215Z AUTO 00000KT 10SM CLR 11/00 A3036 RMK AO2,M
RTS,2024-09-05 12:15,-119.8764,39.6682,1539.00,50.00,21.20,31.87,0.00,0.00,0.00,30.36,M,10.00,M,CLR,M,M,M,M,M,M,M,M,M,M,M,M,M,M,50.00,KRTS 051215Z AUTO 00000KT 10SM CLR 10/M06 A3036 RMK AO2,M
BAM,2024-09-05 12:15,-116.8743,40.5990,1382.36,51.80,32.00,46.59,10.00,3.00,0.00,30.36,M,10.00,M,CLR,M,M,M,M,M,M,M,M,M,M,M,M,M,M,51.80,KBAM 051215Z AUTO 01003KT 10SM CLR 11/00 A3036 RMK AO1,M
HTH,2024-09-05 12:15,-118.6315,38.5448,1282.89,60.80,30.20,31.28,0.00,0.00,0.00,30.30,M,10.00,M,CLR,M,M,M,M,M,M,M,M,M,M,M,M,M,M,60.80,KHTH 051215Z AUTO 00000KT 10SM CLR 16/M01 A3030 RMK A01,M
TMT,2024-09-05 12:15,-117.1971,39.4643,1749.34,35.20,19.60,52.60,0.00,0.00,0.00,30.43,M,10.00,M,CLR,M,M,M,M,M,M,M,M,M,M,M,M,M,M,35.20,KTMT 051215Z AUTO 00000KT 10SM CLR 02/M07 A3043 RMK AO2 T00181069,M
10U,2024-09-05 12:15,-116.1876,41.9532,1637.00,46.40,32.00,57.00,350.00,3.00,0.00,30.42,M,10.00,M,CLR,M,M,M,M,M,M,M,M,M,M,M,M,M,M,45.15,K10U 051215Z AUTO 35003KT 10SM CLR 08/00 A3042 RMK AO2,M
05U,2024-09-05 12:30,-116.0051,39.6042,1811.23,41.00,24.80,52.17,0.00,0.00,0.00,30.46,M,10.00,M,CLR,M,M,M,M,M,M,M,M,M,M,M,M,M,M,41.00,K05U 051230Z AUTO 00000KT 10SM CLR 05/M04 A3046 RMK A01,M
BVU,2024-09-05 12:35,-114.8611,35.9475,671.00,86.00,28.40,12.44,350.00,8.00,0.00,30.05,M,10.00,14.00,CLR,M,M,M,M,M,M,M,M,M,M,M,M,M,M,82.54,KBVU 051235Z AUTO 35008G14KT 10SM CLR 30/M02 A3005 RMK AO2,M
CXP,2024-09-05 12:35,-119.7326,39.1923,1431.00,51.80,33.80,50.08,0.00,0.00,0.00,30.36,M,10.00,M,CLR,M,M,M,M,M,M,M,M,M,M,M,M,M,M,51.80,KCXP 051235Z AUTO 00000KT 10SM CLR 11/01 A3036 RMK AO2,M
RTS,2024-09-05 12:35,-119.8764,39.6682,1539.00,51.80,21.20,29.82,350.00,5.00,0.00,30.36,M,10.00,M,CLR,M,M,M,M,M,M,M,M,M,M,M,M,M,M,51.80,KRTS 051235Z AUTO 35005KT 10SM CLR 11/M06 A3036 RMK AO2,M
BAM,2024-09-05 12:35,-116.8743,40.5990,1382.36,55.40,33.80,43.90,10.00,5.00,0.00,30.36,M,10.00,M,CLR,M,M,M,M,M,M,M,M,M,M,M,M,M,M,55.40,KBAM 051235Z AUTO 01005KT 10SM CLR 13/01 A3036 RMK AO1,M
HTH,2024-09-05 12:35,-118.6315,38.5448,1282.89,62.60,30.20,29.35,220.00,4.00,0.00,30.30,M,10.00,M,CLR,M,M,M,M,M,M,M,M,M,M,M,M,M,M,62.60,KHTH 051235Z AUTO 22004KT 10SM CLR 17/M01 A3030 RMK A01,M
TMT,2024-09-05 12:35,-117.1971,39.4643,1749.34,34.70,23.70,63.81,240.00,4.00,0.00,30.43,M,10.00,M,CLR,M,M,M,M,M,M,M,M,M,M,M,M,M,M,30.57,KTMT 051235Z AUTO 24004KT 10SM CLR 02/M05 A3043 RMK AO2 T00151046,M
10U,2024-09-05 12:35,-116.1876,41.9532,1637.00,48.20,33.80,57.26,60.00,5.00,0.00,30.42,M,10.00,M,CLR,M,M,M,M,M,M,M,M,M,M,M,M,M,M,45.63,K10U 051235Z AUTO 06005KT 10SM CLR 09/01 A3042 RMK AO2,M
05U,2024-09-05 12:50,-116.0051,39.6042,1811.23,39.20,23.00,51.89,0.00,0.00,0.00,30.46,M,10.00,M,CLR,M,M,M,M,M,M,M,M,M,M,M,M,M,M,39.20,K05U 051250Z AUTO 00000KT 10SM CLR 04/M05 A3046 RMK A01,M
P68,2024-09-05 12:53,-116.0056,39.6014,1993.00,42.00,24.00,48.55,200.00,5.00,0.00,30.44,1024.30,M,M,M,M,M,M,M,M,M,M,M,M,M,M,M,M,M,38.27,KP68 051253Z AUTO 20005KT 06/M04 A3044 RMK AO1 SLP243 T00561044,M
DRA,2024-09-05 12:53,-116.0278,36.6206,1009.00,78.00,29.00,16.53,40.00,12.00,0.00,30.17,1016.00,10.00,M,CLR,M,M,M,M,M,M,M,M,M,M,M,M,M,M,78.00,KDRA 051253Z AUTO 04012KT 10SM CLR 26/M02 A3017 RMK AO2 SLP160 T02561017,M
ELY,2024-09-05 12:53,-114.8453,39.2950,1909.00,40.00,24.00,52.45,180.00,10.00,0.00,30.48,1024.20,9.00,M,CLR,M,M,M,M,M,M,M,M,M,M,M,M,M,M,33.00,KELY 051253Z AUTO 18010KT 9SM CLR 04/M04 A3048 RMK AO2 SLP242 T00441044,M
VGT,2024-09-05 12:53,-115.1933,36.2111,667.00,85.00,38.00,18.87,360.00,5.00,0.00,30.08,1017.00,10.00,M,CLR,M,M,M,M,M,M,M,M,M,M,M,M,M,M,81.99,KVGT 051253Z AUTO 36005KT 10SM CLR 29/03 A3008 RMK AO2 SLP170 T02940033,M
LOL,2024-09-05 12:53,-118.5701,40.0684,1192.43,46.00,M,M,0.00,0.00,0.00,30.29,1022.60,10.00,M,CLR,M,M,M,M,M,M,M,M,M,M,M,M,M,M,M,KLOL 051253Z AUTO 00000KT 10SM CLR 08/ A3029 RMK AO2 SLP226 T0078 $,M
BVU,2024-09-05 12:55,-114.8611,35.9475,671.00,86.00,28.40,12.44,350.00,10.00,0.00,30.06,M,10.00,M,CLR,M,M,M,M,M,M,M,M,M,M,M,M,M,M,82.54,KBVU 051255Z AUTO 35010KT 10SM CLR 30/M02 A3006 RMK AO2,M
RNO,2024-09-05 12:55,-119.7711,39.4839,1341.00,56.00,36.00,46.88,0.00,0.00,0.00,30.33,1021.90,10.00,M,CLR,M,M,M,M,M,M,M,M,M,M,M,M,M,M,56.00,KRNO 051255Z 00000KT 10SM CLR 13/02 A3033 RMK AO2 SLP219 T01330022,M
CXP,2024-09-05 12:55,-119.7326,39.1923,1431.00,51.80,32.00,46.59,0.00,0.00,0.00,30.36,M,10.00,M,CLR,M,M,M,M,M,M,M,M,M,M,M,M,M,M,51.80,KCXP 051255Z AUTO 00000KT 10SM CLR 11/00 A3036 RMK AO2,M
RTS,2024-09-05 12:55,-119.8764,39.6682,1539.00,48.20,21.20,34.09,0.00,0.00,0.00,30.36,M,10.00,M,CLR,M,M,M,M,M,M,M,M,M,M,M,M,M,M,48.20,KRTS 051255Z AUTO 00000KT 10SM CLR 09/M06 A3036 RMK AO2,M
BAM,2024-09-05 12:55,-116.8743,40.5990,1382.36,53.60,33.80,46.88,20.00,4.00,0.00,30.36,M,10.00,M,CLR,M,M,M,M,M,M,M,M,M,M,M,M,M,M,53.60,KBAM 051255Z AUTO 02004KT 10SM CLR 12/01 A3036 RMK AO1,M
HTH,2024-09-05 12:55,-118.6315,38.5448,1282.89,60.80,30.20,31.28,220.00,4.00,0.00,30.31,M,10.00,M,CLR,M,M,M,M,M,M,M,M,M,M,M,M,M,M,60.80,KHTH 051255Z AUTO 22004KT 10SM CLR 16/M01 A3031 RMK A01,M
TMT,2024-09-05 12:55,-117.1971,39.4643,1749.34,33.40,21.60,61.53,160.00,3.00,0.00,30.44,M,10.00,M,CLR,M,M,M,M,M,M,M,M,M,M,M,M,M,M,30.29,KTMT 051255Z AUTO 16003KT 10SM CLR 01/M06 A3044 RMK AO2 T00081058,M
10U,2024-09-05 12:55,-116.1876,41.9532,1637.00,53.60,32.00,43.61,90.00,11.00,0.00,30.42,M,10.00,M,CLR,M,M,M,M,M,M,M,M,M,M,M,M,M,M,53.60,K10U 051255Z AUTO 09011KT 10SM CLR 12/00 A3042 RMK AO2,M
INS,2024-09-05 12:55,-115.6733,36.5872,955.00,70.50,30.00,22.14,0.00,0.00,0.00,30.17,1016.10,10.00,M,CLR,M,M,M,M,M,M,M,M,M,M,M,M,M,M,70.50,KINS 051255Z AUTO 00000KT 10SM CLR 21/M01 A3017 RMK AO2 SLP161 T02141012,M
LSV,2024-09-05 12:55,-115.0343,36.2362,570.00,88.50,27.30,10.98,70.00,7.00,0.00,30.03,1013.60,10.00,M,CLR,M,M,M,M,M,M,M,M,M,M,M,M,M,M,84.26,KLSV 051255Z AUTO 07007KT 10SM CLR 31/M03 A3003 RMK AO2 SLP136 T03141026 $,M
EKO,2024-09-05 12:56,-115.7860,40.8242,1367.00,48.00,30.00,49.49,0.00,0.00,0.00,30.41,1025.40,8.00,M,CLR,M,M,M,M,M,M,M,M,M,M,M,M,M,M,48.00,KEKO 051256Z AUTO 00000KT 8SM CLR 09/M01 A3041 RMK AO2 SLP254 T00891011,M
WMC,2024-09-05 12:56,-117.8072,40.9019,1315.00,44.00,27.00,50.93,130.00,6.00,0.00,30.33,1023.50,10.00,M,CLR,M,M,M,M,M,M,M,M,M,M,M,M,M,M,39.98,KWMC 051256Z AUTO 13006KT 10SM CLR 07/M03 A3033 RMK AO2 SLP235 T00671028,M
HND,2024-09-05 12:56,-115.1344,35.9729,742.79,84.00,34.00,16.63,80.00,6.00,0.00,30.12,1018.10,10.00,M,CLR,M,M,M,M,M,M,M,M,M,M,M,M,M,M,81.16,KHND 051256Z 08006KT 10SM CLR 29/01 A3012 RMK AO2 SLP181 T02890011,M
TPH,2024-09-05 12:56,-117.0904,38.0505,1654.00,60.00,21.00,21.96,340.00,11.00,0.00,30.37,1020.40,10.00,M,CLR,M,M,M,M,M,M,M,M,M,M,M,M,M,M,60.00,KTPH 051256Z AUTO 34011KT 10SM CLR 16/M06 A3037 RMK AO2 SLP204 T01561061,M
LAS,2024-09-05 12:56,-115.1634,36.0719,663.00,86.00,35.00,16.23,360.00,3.00,0.00,30.09,1015.80,10.00,M,CLR,M,M,M,M,M,M,M,M,M,M,M,M,M,M,82.68,KLAS 051256Z 36003KT 10SM CLR 30/02 A3009 RMK AO2 SLP158 T03000017,M
NFL,2024-09-05 12:57,-118.7010,39.4166,1199.00,50.00,31.00,47.83,170.00,3.00,0.00,30.28,1021.40,9.00,M,CLR,M,M,M,M,M,M,M,M,M,M,M,M,M,M,50.00,KNFL 051257Z AUTO 17003KT 9SM CLR 10/M01 A3028 RMK AO2 SLP214 T01001006,M
05U,2024-09-05 13:10,-116.0051,39.6042,1811.23,41.00,23.00,48.39,0.00,0.00,0.00,30.47,M,10.00,M,CLR,M,M,M,M,M,M,M,M,M,M,M,M,M,M,41.00,K05U 051310Z AUTO 00000KT 10SM CLR 05/M05 A3047 RMK A01,M
BVU,2024-09-05 13:15,-114.8611,35.9475,671.00,87.80,28.40,11.74,340.00,15.00,0.00,30.06,M,10.00,21.00,CLR,M,M,M,M,M,M,M,M,M,M,M,M,M,M,83.84,KBVU 051315Z AUTO 34015G21KT 10SM CLR 31/M02 A3006 RMK AO2,M
CXP,2024-09-05 13:15,-119.7326,39.1923,1431.00,50.00,32.00,49.81,0.00,0.00,0.00,30.37,M,10.00,M,CLR,M,M,M,M,M,M,M,M,M,M,M,M,M,M,50.00,KCXP 051315Z AUTO 00000KT 10SM CLR 10/00 A3037 RMK AO2,M
RTS,2024-09-05 13:15,-119.8764,39.6682,1539.00,53.60,23.00,30.11,0.00,0.00,0.00,30.36,M,10.00,M,CLR,M,M,M,M,M,M,M,M,M,M,M,M,M,M,53.60,KRTS 051315Z AUTO 00000KT 10SM CLR 12/M05 A3036 RMK AO2,M
BAM,2024-09-05 13:15,-116.8743,40.5990,1382.36,53.60,33.80,46.88,0.00,0.00,0.00,30.37,M,10.00,M,CLR,M,M,M,M,M,M,M,M,M,M,M,M,M,M,53.60,KBAM 051315Z AUTO 00000KT 10SM CLR 12/01 A3037 RMK AO1,M
HTH,2024-09-05 13:15,-118.6315,38.5448,1282.89,59.00,32.00,35.87,180.00,3.00,0.00,30.31,M,10.00,M,CLR,M,M,M,M,M,M,M,M,M,M,M,M,M,M,59.00,KHTH 051315Z AUTO 18003KT 10SM CLR 15/00 A3031 RMK A01,M
TMT,2024-09-05 13:15,-117.1971,39.4643,1749.34,30.00,18.70,62.38,130.00,4.00,0.00,30.44,M,10.00,M,CLR,M,M,M,M,M,M,M,M,M,M,M,M,M,M,25.08,KTMT 051315Z AUTO 13004KT 10SM CLR M01/M07 A3044 RMK AO2 T10111074,M
10U,2024-09-05 13:15,-116.1876,41.9532,1637.00,53.60,33.80,46.88,90.00,9.00,0.00,30.42,M,10.00,M,CLR,M,M,M,M,M,M,M,M,M,M,M,M,M,M,53.60,K10U 051315Z AUTO 09009KT 10SM CLR 12/01 A3042 RMK AO2,M
05U,2024-09-05 13:30,-116.0051,39.6042,1811.23,41.00,24.80,52.17,0.00,0.00,0.00,30.47,M,10.00,M,CLR,M,M,M,M,M,M,M,M,M,M,M,M,M,M,41.00,K05U 051330Z AUTO 00000KT 10SM CLR 05/M04 A3047 RMK A01,M
BVU,2024-09-05 13:35,-114.8611,35.9475,671.00,87.80,28.40,11.74,350.00,14.00,0.00,30.07,M,10.00,21.00,CLR,M,M,M,M,M,M,M,M,M,M,M,M,M,M,83.84,KBVU 051335Z AUTO 35014G21KT 10SM CLR 31/M02 A3007 RMK AO2,M
CXP,2024-09-05 13:35,-119.7326,39.1923,1431.00,51.80,32.00,46.59,0.00,0.00,0.00,30.37,M,10.00,M,CLR,M,M,M,M,M,M,M,M,M,M,M,M,M,M,51.80,KCXP 051335Z AUTO 00000KT 10SM CLR 11/00 A3037 RMK AO2,M
RTS,2024-09-05 13:35,-119.8764,39.6682,1539.00,46.40,19.40,33.79,0.00,0.00,0.00,30.37,M,10.00,M,CLR,M,M,M,M,M,M,M,M,M,M,M,M,M,M,46.40,KRTS 051335Z AUTO 00000KT 10SM CLR 08/M07 A3037 RMK AO2,M
BAM,2024-09-05 13:35,-116.8743,40.5990,1382.36,50.00,33.80,53.54,340.00,3.00,0.00,30.38,M,10.00,M,CLR,M,M,M,M,M,M,M,M,M,M,M,M,M,M,50.00,KBAM 051335Z AUTO 34003KT 10SM CLR 10/01 A3038 RMK AO1,M
HTH,2024-09-05 13:35,-118.6315,38.5448,1282.89,60.80,32.00,33.64,0.00,0.00,0.00,30.32,M,10.00,M,CLR,M,M,M,M,M,M,M,M,M,M,M,M,M,M,60.80,KHTH 051335Z AUTO 00000KT 10SM CLR 16/M00 A3032 RMK A01,M
TMT,2024-09-05 13:35,-117.1971,39.4643,1749.34,32.00,19.20,58.77,0.00,0.00,0.00,30.45,M,10.00,M,CLR,M,M,M,M,M,M,M,M,M,M,M,M,M,M,32.00,KTMT 051335Z AUTO 00000KT 10SM CLR 00/M07 A3045 RMK AO2 T00011071,M
10U,2024-09-05 13:35,-116.1876,41.9532,1637.00,53.60,33.80,46.88,M,4.00,0.00,30.43,M,10.00,M,CLR,M,M,M,M,M,M,M,M,M,M,M,M,M,M,53.60,K10U 051335Z AUTO VRB04KT 10SM CLR 12/01 A3043 RMK AO2,M
NFL,2024-09-05 13:45,-118.7010,39.4166,1199.00,53.00,33.00,46.41,0.00,0.00,0.00,30.30,M,7.00,M,CLR,M,M,M,M,M,M,M,M,M,M,M,M,M,M,53.00,KNFL 051345Z 00000KT 7SM CLR 12/01 A3030 RMK AO2 HZ ALQDS T01170006,M
05U,2024-09-05 13:50,-116.0051,39.6042,1811.23,41.00,24.80,52.17,0.00,0.00,0.00,30.47,M,8.00,M,CLR,M,M,M,M,M,M,M,M,M,M,M,M,M,M,41.00,K05U 051350Z AUTO 00000KT 8SM CLR 05/M04 A3047 RMK A01,M
P68,2024-09-05 13:53,-116.0056,39.6014,1993.00,43.00,26.00,50.77,210.00,6.00,0.00,30.45,1025.40,M,M,M,M,M,M,M,M,M,M,M,M,M,M,M,M,M,38.78,KP68 051353Z AUTO 21006KT 06/M03 A3045 RMK AO1 SLP254 T00611033,M
DRA,2024-09-05 13:53,-116.0278,36.6206,1009.00,78.00,30.00,17.22,40.00,14.00,0.00,30.19,1016.70,10.00,M,CLR,M,M,M,M,M,M,M,M,M,M,M,M,M,M,78.00,KDRA 051353Z AUTO 04014KT 10SM CLR 26/M01 A3019 RMK AO2 SLP167 T02561011,M
ELY,2024-09-05 13:53,-114.8453,39.2950,1909.00,39.00,24.00,54.54,170.00,9.00,0.00,30.50,1025.90,7.00,M,CLR,M,M,M,M,M,M,M,M,M,M,M,M,M,M,32.22,KELY 051353Z AUTO 17009KT 7SM CLR 04/M04 A3050 RMK AO2 SLP259 T00391044,M
VGT,2024-09-05 13:53,-115.1933,36.2111,667.00,84.00,35.00,17.31,350.00,7.00,0.00,30.10,1017.80,10.00,M,CLR,M,M,M,M,M,M,M,M,M,M,M,M,M,M,81.18,KVGT 051353Z 35007KT 10SM CLR 29/02 A3010 RMK AO2 SLP178 T02890017,M
LOL,2024-09-05 13:53,-118.5701,40.0684,1192.43,46.00,27.00,47.20,230.00,3.00,0.00,30.31,1023.60,9.00,M,CLR,M,M,M,M,M,M,M,M,M,M,M,M,M,M,44.69,KLOL 051353Z AUTO 23003KT 9SM CLR 08/M03 A3031 RMK AO2 SLP236 T00781028,M
BVU,2024-09-05 13:55,-114.8611,35.9475,671.00,87.80,28.40,11.74,360.00,12.00,0.00,30.08,M,10.00,19.00,CLR,M,M,M,M,M,M,M,M,M,M,M,M,M,M,83.84,KBVU 051355Z AUTO 36012G19KT 10SM CLR 31/M02 A3008 RMK AO2,M
RNO,2024-09-05 13:55,-119.7711,39.4839,1341.00,57.00,35.00,43.46,0.00,0.00,0.00,30.34,1022.60,10.00,M,CLR,M,M,M,M,M,M,M,M,M,M,M,M,M,M,57.00,KRNO 051355Z 00000KT 10SM CLR 14/02 A3034 RMK AO2 SLP226 HZ ALQDS T01390017,M
CXP,2024-09-05 13:55,-119.7326,39.1923,1431.00,50.00,33.80,53.54,0.00,0.00,0.00,30.38,M,10.00,M,CLR,M,M,M,M,M,M,M,M,M,M,M,M,M,M,50.00,KCXP 051355Z AUTO 00000KT 10SM CLR 10/01 A3038 RMK AO2,M
INS,2024-09-05 13:55,-115.6733,36.5872,955.00,71.20,29.30,21.01,0.00,0.00,0.00,30.19,1016.80,10.00,M,CLR,M,M,M,M,M,M,M,M,M,M,M,M,M,M,71.20,KINS 051355Z AUTO 00000KT 10SM CLR 22/M01 A3019 RMK AO2 SLP168 T02181015,M
LSV,2024-09-05 13:55,-115.0343,36.2362,570.00,87.00,28.20,11.95,0.00,0.00,0.00,30.06,1014.70,10.00,M,CLR,M,M,M,M,M,M,M,M,M,M,M,M,M,M,83.24,KLSV 051355Z AUTO 00000KT 10SM CLR 31/M02 A3006 RMK AO2 SLP147 T03061021 $,M
RTS,2024-09-05 13:55,-119.8764,39.6682,1539.00,48.20,21.20,34.09,0.00,0.00,0.00,30.38,M,10.00,M,CLR,M,M,M,M,M,M,M,M,M,M,M,M,M,M,48.20,KRTS 051355Z AUTO 00000KT 10SM CLR 09/M06 A3038 RMK AO2,M
BAM,2024-09-05 13:55,-116.8743,40.5990,1382.36,51.80,33.80,50.08,10.00,6.00,0.00,30.38,M,10.00,M,CLR,M,M,M,M,M,M,M,M,M,M,M,M,M,M,51.80,KBAM 051355Z AUTO 01006KT 10SM CLR 11/01 A3038 RMK AO1,M
HTH,2024-09-05 13:55,-118.6315,38.5448,1282.89,62.60,32.00,31.56,240.00,3.00,0.00,30.33,M,10.00,M,CLR,M,M,M,M,M,M,M,M,M,M,M,M,M,M,62.60,KHTH 051355Z AUTO 24003KT 10SM CLR 17/M00 A3033 RMK A01,M
TMT,2024-09-05 13:55,-117.1971,39.4643,1749.34,35.40,21.60,56.81,0.00,0.00,0.00,30.46,M,10.00,M,CLR,M,M,M,M,M,M,M,M,M,M,M,M,M,M,35.40,KTMT 051355Z AUTO 00000KT 10SM CLR 02/M06 A3046 RMK AO2 T00191058,M
10U,2024-09-05 13:55,-116.1876,41.9532,1637.00,46.40,30.20,53.00,0.00,0.00,0.00,30.43,M,10.00,M,CLR,M,M,M,M,M,M,M,M,M,M,M,M,M,M,46.40,K10U 051355Z AUTO 00000KT 10SM CLR 08/M01 A3043 RMK AO2,M
EKO,2024-09-05 13:56,-115.7860,40.8242,1367.00,47.00,30.00,51.39,0.00,0.00,0.00,30.42,1026.30,7.00,M,CLR,M,M,M,M,M,M,M,M,M,M,M,M,M,M,47.00,KEKO 051356Z AUTO 00000KT 7SM CLR 08/M01 A3042 RMK AO2 SLP263 T00831011,M
WMC,2024-09-05 13:56,-117.8072,40.9019,1315.00,45.00,27.00,49.02,130.00,7.00,0.00,30.34,1024.10,10.00,M,CLR,M,M,M,M,M,M,M,M,M,M,M,M,M,M,40.63,KWMC 051356Z AUTO 13007KT 10SM CLR 07/M03 A3034 RMK AO2 SLP241 T00721028,M
HND,2024-09-05 13:56,-115.1344,35.9729,742.79,83.00,35.00,17.88,40.00,3.00,0.00,30.15,1019.10,10.00,M,CLR,M,M,M,M,M,M,M,M,M,M,M,M,M,M,80.47,KHND 051356Z 04003KT 10SM CLR 28/02 A3015 RMK AO2 SLP191 T02830017,M
TPH,2024-09-05 13:56,-117.0904,38.0505,1654.00,60.00,22.00,22.91,340.00,8.00,0.00,30.39,1021.40,10.00,M,CLR,M,M,M,M,M,M,M,M,M,M,M,M,M,M,60.00,KTPH 051356Z AUTO 34008KT 10SM CLR 16/M06 A3039 RMK AO2 SLP214 T01561056,M
LAS,2024-09-05 13:56,-115.1634,36.0719,663.00,84.00,39.00,20.27,230.00,3.00,0.00,30.12,1016.80,10.00,M,CLR,M,M,M,M,M,M,M,M,M,M,M,M,M,M,81.29,KLAS 051356Z 23003KT 10SM CLR 29/04 A3012 RMK AO2 SLP168 T02890039,M
NFL,2024-09-05 13:57,-118.7010,39.4166,1199.00,53.00,32.00,44.58,150.00,4.00,0.00,30.30,1022.10,8.00,M,CLR,M,M,M,M,M,M,M,M,M,M,M,M,M,M,53.00,KNFL 051357Z 15004KT 8SM CLR 12/00 A3030 RMK AO2 SLP221 HZ ALQDS T01170000,M
05U,2024-09-05 14:10,-116.0051,39.6042,1811.23,46.40,24.80,42.44,0.00,0.00,0.00,30.48,M,9.00,M,CLR,M,M,M,M,M,M,M,M,M,M,M,M,M,M,46.40,K05U 051410Z AUTO 00000KT 9SM CLR 08/M04 A3048 RMK A01,M
BVU,2024-09-05 14:15,-114.8611,35.9475,671.00,87.80,28.40,11.74,360.00,13.00,0.00,30.08,M,10.00,M,CLR,M,M,M,M,M,M,M,M,M,M,M,M,M,M,83.84,KBVU 051415Z AUTO 36013KT 10SM CLR 31/M02 A3008 RMK AO2,M
CXP,2024-09-05 14:15,-119.7326,39.1923,1431.00,51.80,33.80,50.08,0.00,0.00,0.00,30.38,M,10.00,M,CLR,M,M,M,M,M,M,M,M,M,M,M,M,M,M,51.80,KCXP 051415Z AUTO 00000KT 10SM CLR 11/01 A3038 RMK AO2,M
RTS,2024-09-05 14:15,-119.8764,39.6682,1539.00,48.20,23.00,36.78,0.00,0.00,0.00,30.38,M,10.00,M,CLR,M,M,M,M,M,M,M,M,M,M,M,M,M,M,48.20,KRTS 051415Z AUTO 00000KT 10SM CLR 09/M05 A3038 RMK AO2,M
BAM,2024-09-05 14:15,-116.8743,40.5990,1382.36,55.40,32.00,40.84,350.00,5.00,0.00,30.38,M,10.00,M,CLR,M,M,M,M,M,M,M,M,M,M,M,M,M,M,55.40,KBAM 051415Z AUTO 35005KT 10SM CLR 13/00 A3038 RMK AO1,M
HTH,2024-09-05 14:15,-118.6315,38.5448,1282.89,62.60,32.00,31.56,220.00,5.00,0.00,30.34,M,10.00,M,CLR,M,M,M,M,M,M,M,M,M,M,M,M,M,M,62.60,KHTH 051415Z AUTO 22005KT 10SM CLR 17/00 A3034 RMK A01,M
TMT,2024-09-05 14:15,-117.1971,39.4643,1749.34,39.70,24.00,53.07,0.00,0.00,0.00,30.46,M,10.00,M,CLR,M,M,M,M,M,M,M,M,M,M,M,M,M,M,39.70,KTMT 051415Z AUTO 00000KT 10SM CLR 04/M04 A3046 RMK AO2 T00431045,M
10U,2024-09-05 14:15,-116.1876,41.9532,1637.00,50.00,32.00,49.81,0.00,0.00,0.00,30.43,M,10.00,M,CLR,M,M,M,M,M,M,M,M,M,M,M,M,M,M,50.00,K10U 051415Z AUTO 00000KT 10SM CLR 10/00 A3043 RMK AO2,M
05U,2024-09-05 14:30,-116.0051,39.6042,1811.23,50.00,26.60,39.95,0.00,0.00,0.00,30.48,M,9.00,M,CLR,M,M,M,M,M,M,M,M,M,M,M,M,M,M,50.00,K05U 051430Z AUTO 00000KT 9SM CLR 10/M03 A3048 RMK A01,M
BVU,2024-09-05 14:35,-114.8611,35.9475,671.00,89.60,28.40,11.09,350.00,12.00,0.00,30.09,M,10.00,M,CLR,M,M,M,M,M,M,M,M,M,M,M,M,M,M,85.17,KBVU 051435Z AUTO 35012KT 10SM CLR 32/M02 A3009 RMK AO2,M
CXP,2024-09-05 14:35,-119.7326,39.1923,1431.00,53.60,33.80,46.88,0.00,0.00,0.00,30.39,M,10.00,M,CLR,M,M,M,M,M,M,M,M,M,M,M,M,M,M,53.60,KCXP 051435Z AUTO 00000KT 10SM CLR 12/01 A3039 RMK AO2,M
RTS,2024-09-05 14:35,-119.8764,39.6682,1539.00,51.80,23.00,32.17,0.00,0.00,0.00,30.38,M,10.00,M,CLR,M,M,M,M,M,M,M,M,M,M,M,M,M,M,51.80,KRTS 051435Z AUTO 00000KT 10SM CLR 11/M05 A3038 RMK AO2,M
BAM,2024-09-05 14:35,-116.8743,40.5990,1382.36,59.00,33.80,38.56,10.00,4.00,0.00,30.38,M,10.00,M,CLR,M,M,M,M,M,M,M,M,M,M,M,M,M,M,59.00,KBAM 051435Z AUTO 01004KT 10SM CLR 15/01 A3038 RMK AO1,M
HTH,2024-09-05 14:35,-118.6315,38.5448,1282.89,66.20,33.80,29.92,230.00,5.00,0.00,30.34,M,10.00,M,CLR,M,M,M,M,M,M,M,M,M,M,M,M,M,M,66.20,KHTH 051435Z AUTO 23005KT 10SM CLR 19/01 A3034 RMK A01,M
TMT,2024-09-05 14:35,-117.1971,39.4643,1749.34,42.60,24.80,49.05,0.00,0.00,0.00,30.46,M,10.00,M,CLR,M,M,M,M,M,M,M,M,M,M,M,M,M,M,42.60,KTMT 051435Z AUTO 00000KT 10SM CLR 06/M04 A3046 RMK AO2 T00591040,M
10U,2024-09-05 14:35,-116.1876,41.9532,1637.00,55.40,33.80,43.90,M,5.00,0.00,30.43,M,10.00,10.00,CLR,M,M,M,M,M,M,M,M,M,M,M,M,M,M,55.40,K10U 051435Z AUTO VRB05G10KT 10SM CLR 13/01 A3043 RMK AO2,M
05U,2024-09-05 14:50,-116.0051,39.6042,1811.23,55.40,26.60,32.76,0.00,0.00,0.00,30.48,M,10.00,M,CLR,M,M,M,M,M,M,M,M,M,M,M,M,M,M,55.40,K05U 051450Z AUTO 00000KT 10SM CLR 13/M03 A3048 RMK A01,M
P68,2024-09-05 14:53,-116.0056,39.6014,1993.00,55.00,27.00,33.79,220.00,3.00,0.00,30.46,1025.80,M,M,M,M,M,M,M,M,M,M,M,M,M,M,M,M,M,55.00,KP68 051453Z AUTO 22003KT 13/M03 A3046 RMK AO1 SLP258 T01281028 53005,M
DRA,2024-09-05 14:53,-116.0278,36.6206,1009.00,82.00,30.00,15.10,40.00,12.00,0.00,30.20,1017.20,10.00,M,CLR,M,M,M,M,M,M,M,M,M,M,M,M,M,M,79.69,KDRA 051453Z AUTO 04012KT 10SM CLR 28/M01 A3020 RMK AO2 SLP172 T02781011 51014,M
ELY,2024-09-05 14:53,-114.8453,39.2950,1909.00,52.00,28.00,39.30,170.00,3.00,0.00,30.50,1025.70,8.00,M,CLR,M,M,M,M,M,M,M,M,M,M,M,M,M,M,52.00,KELY 051453Z AUTO 17003KT 8SM CLR 11/M02 A3050 RMK AO2 SLP257 T01111022 53007,M
VGT,2024-09-05 14:53,-115.1933,36.2111,667.00,88.00,35.00,15.23,340.00,11.00,0.00,30.11,1018.20,10.00,M,CLR,M,M,M,M,M,M,M,M,M,M,M,M,M,M,84.28,KVGT 051453Z 34011KT 10SM CLR 31/02 A3011 RMK AO2 SLP182 T03110017 51017,M
LOL,2024-09-05 14:53,-118.5701,40.0684,1192.43,56.00,33.00,41.60,210.00,3.00,0.00,30.32,1023.80,10.00,M,CLR,M,M,M,M,M,M,M,M,M,M,M,M,M,M,56.00,KLOL 051453Z AUTO 21003KT 10SM CLR 13/01 A3032 RMK AO2 SLP238 T01330006 53011,M
BVU,2024-09-05 14:55,-114.8611,35.9475,671.00,89.60,28.40,11.09,350.00,13.00,0.00,30.09,M,10.00,M,CLR,M,M,M,M,M,M,M,M,M,M,M,M,M,M,85.17,KBVU 051455Z AUTO 35013KT 10SM CLR 32/M02 A3009 RMK AO2,M
RNO,2024-09-05 14:55,-119.7711,39.4839,1341.00,61.00,32.00,33.40,0.00,0.00,0.00,30.36,1023.00,10.00,M,CLR,M,M,M,M,M,M,M,M,M,M,M,M,M,M,61.00,KRNO 051455Z 00000KT 10SM CLR 16/00 A3036 RMK AO2 SLP230 HZ ALQDS T01610000 53010,M
CXP,2024-09-05 14:55,-119.7326,39.1923,1431.00,57.20,33.80,41.13,0.00,0.00,0.00,30.39,M,10.00,M,CLR,M,M,M,M,M,M,M,M,M,M,M,M,M,M,57.20,KCXP 051455Z AUTO 00000KT 10SM CLR 14/01 A3039 RMK AO2,M
INS,2024-09-05 14:55,-115.6733,36.5872,955.00,77.40,32.00,19.04,0.00,0.00,0.00,30.20,1017.10,10.00,M,CLR,M,M,M,M,M,M,M,M,M,M,M,M,M,M,77.40,KINS 051455Z AUTO 00000KT 10SM CLR 25/M00 A3020 RMK AO2 SLP171 T02521001 52015,M
RTS,2024-09-05 14:55,-119.8764,39.6682,1539.00,55.40,24.80,30.40,0.00,0.00,0.00,30.39,M,10.00,M,CLR,M,M,M,M,M,M,M,M,M,M,M,M,M,M,55.40,KRTS 051455Z AUTO 00000KT 10SM CLR 13/M04 A3039 RMK AO2,M
BAM,2024-09-05 14:55,-116.8743,40.5990,1382.36,62.60,33.80,33.93,10.00,5.00,0.00,30.39,M,10.00,M,CLR,M,M,M,M,M,M,M,M,M,M,M,M,M,M,62.60,KBAM 051455Z AUTO 01005KT 10SM CLR 17/01 A3039 RMK AO1,M
HTH,2024-09-05 14:55,-118.6315,38.5448,1282.89,68.00,33.80,28.11,260.00,4.00,0.00,30.34,M,10.00,M,CLR,M,M,M,M,M,M,M,M,M,M,M,M,M,M,68.00,KHTH 051455Z AUTO 26004KT 10SM CLR 20/01 A3034 RMK A01,M
TMT,2024-09-05 14:55,-117.1971,39.4643,1749.34,46.80,25.50,43.03,0.00,0.00,0.00,30.46,M,10.00,M,CLR,M,M,M,M,M,M,M,M,M,M,M,M,M,M,46.80,KTMT 051455Z AUTO 00000KT 10SM CLR 08/M04 A3046 RMK AO2 T00821036,M
10U,2024-09-05 14:55,-116.1876,41.9532,1637.00,60.80,33.80,36.16,M,7.00,0.00,30.43,M,10.00,M,CLR,M,M,M,M,M,M,M,M,M,M,M,M,M,M,60.80,K10U 051455Z AUTO VRB07KT 10SM CLR 16/01 A3043 RMK AO2,M
LSV,2024-09-05 14:55,-115.0343,36.2362,570.00,88.00,29.00,11.96,250.00,4.00,0.00,30.07,1015.20,10.00,M,CLR,M,M,M,M,M,M,M,M,M,M,M,M,M,M,84.04,KLSV 051455Z AUTO 25004KT 10SM CLR 31/M02 A3007 RMK AO2 SLP152 T03111017 52018 $,M
EKO,2024-09-05 14:56,-115.7860,40.8242,1367.00,53.00,32.00,44.58,0.00,0.00,0.00,30.43,1026.50,8.00,M,CLR,M,M,M,M,M,M,M,M,M,M,M,M,M,M,53.00,KEKO 051456Z AUTO 00000KT 8SM CLR 12/00 A3043 RMK AO2 SLP265 T01170000 51007,M
WMC,2024-09-05 14:56,-117.8072,40.9019,1315.00,64.00,33.00,31.28,90.00,8.00,0.00,30.35,1023.70,10.00,M,CLR,M,M,M,M,M,M,M,M,M,M,M,M,M,M,64.00,KWMC 051456Z AUTO 09008KT 10SM CLR 18/01 A3035 RMK AO2 SLP237 T01780006 51008,M
HND,2024-09-05 14:56,-115.1344,35.9729,742.79,85.00,38.00,18.87,0.00,0.00,0.00,30.16,1019.60,10.00,M,CLR,M,M,M,M,M,M,M,M,M,M,M,M,M,M,81.99,KHND 051456Z 00000KT 10SM CLR 29/03 A3016 RMK AO2 SLP196 T02940033 51019,M
TPH,2024-09-05 14:56,-117.0904,38.0505,1654.00,67.00,23.00,18.69,360.00,12.00,0.00,30.39,1021.70,10.00,M,CLR,M,M,M,M,M,M,M,M,M,M,M,M,M,M,67.00,KTPH 051456Z AUTO 36012KT 10SM CLR 19/M05 A3039 RMK AO2 SLP217 T01941050 51011,M
LAS,2024-09-05 14:56,-115.1634,36.0719,663.00,86.00,37.00,17.57,220.00,3.00,0.00,30.13,1017.30,10.00,M,CLR,M,M,M,M,M,M,M,M,M,M,M,M,M,M,82.72,KLAS 051456Z 22003KT 10SM CLR 30/03 A3013 RMK AO2 SLP173 T03000028 51019,M
NFL,2024-09-05 14:57,-118.7010,39.4166,1199.00,63.00,29.00,27.56,190.00,3.00,0.00,30.32,1022.50,7.00,M,CLR,M,M,M,M,M,M,M,M,M,M,M,M,M,M,63.00,KNFL 051457Z 19003KT 7SM CLR 17/M02 A3032 RMK AO2 SLP225 HZ ALQDS T01721017 53013,M
05U,2024-09-05 15:10,-116.0051,39.6042,1811.23,59.00,28.40,30.98,0.00,0.00,0.00,30.48,M,9.00,M,CLR,M,M,M,M,M,M,M,M,M,M,M,M,M,M,59.00,K05U 051510Z AUTO 00000KT 9SM CLR 15/M02 A3048 RMK A01,M
HTH,2024-09-05 15:10,-118.6315,38.5448,1282.89,68.00,32.00,26.15,290.00,3.00,0.00,30.34,M,10.00,M,CLR,M,M,M,M,M,M,M,M,M,M,M,M,M,M,68.00,KHTH 051510Z AUTO 29003KT 10SM CLR 20/00 A3034 RMK A01,M
BVU,2024-09-05 15:15,-114.8611,35.9475,671.00,89.60,30.20,11.94,350.00,15.00,0.00,30.09,M,10.00,M,CLR,M,M,M,M,M,M,M,M,M,M,M,M,M,M,85.34,KBVU 051515Z AUTO 35015KT 10SM CLR 32/M01 A3009 RMK AO2,M
CXP,2024-09-05 15:15,-119.7326,39.1923,1431.00,60.80,32.00,33.64,0.00,0.00,0.00,30.39,M,10.00,M,CLR,M,M,M,M,M,M,M,M,M,M,M,M,M,M,60.80,KCXP 051515Z AUTO 00000KT 10SM CLR 16/M00 A3039 RMK AO2,M
RTS,2024-09-05 15:15,-119.8764,39.6682,1539.00,59.00,24.80,26.70,0.00,0.00,0.00,30.39,M,10.00,M,CLR,M,M,M,M,M,M,M,M,M,M,M,M,M,M,59.00,KRTS 051515Z AUTO 00000KT 10SM CLR 15/M04 A3039 RMK AO2,M
MEV,2024-09-05 15:15,-119.7500,38.9963,1441.42,57.20,28.40,33.05,0.00,0.00,0.00,30.38,M,8.00,M,CLR,M,M,M,M,M,M,M,M,M,M,M,M,M,M,57.20,KMEV 051515Z AUTO 00000KT 8SM CLR 14/M02 A3038 RMK AO2,M
BAM,2024-09-05 15:15,-116.8743,40.5990,1382.36,62.60,35.60,36.45,350.00,4.00,0.00,30.39,M,10.00,M,CLR,M,M,M,M,M,M,M,M,M,M,M,M,M,M,62.60,KBAM 051515Z AUTO 35004KT 10SM CLR 17/02 A3039 RMK AO1,M
TMT,2024-09-05 15:15,-117.1971,39.4643,1749.34,50.00,25.70,38.49,0.00,0.00,0.00,30.46,M,10.00,M,CLR,M,M,M,M,M,M,M,M,M,M,M,M,M,M,50.00,KTMT 051515Z AUTO 00000KT 10SM CLR 10/M03 A3046 RMK AO2 T01011035,M
10U,2024-09-05 15:15,-116.1876,41.9532,1637.00,66.20,35.60,32.14,120.00,12.00,0.00,30.43,M,10.00,M,CLR,M,M,M,M,M,M,M,M,M,M,M,M,M,M,66.20,K10U 051515Z AUTO 12012KT 10SM CLR 19/02 A3043 RMK AO2,M
05U,2024-09-05 15:30,-116.0051,39.6042,1811.23,60.80,30.20,31.28,0.00,0.00,0.00,30.48,M,9.00,M,CLR,M,M,M,M,M,M,M,M,M,M,M,M,M,M,60.80,K05U 051530Z AUTO 00000KT 9SM CLR 16/M01 A3048 RMK A01,M
BVU,2024-09-05 15:35,-114.8611,35.9475,671.00,91.40,30.20,11.28,350.00,12.00,0.00,30.10,M,10.00,M,CLR,M,M,M,M,M,M,M,M,M,M,M,M,M,M,86.71,KBVU 051535Z AUTO 35012KT 10SM CLR 33/M01 A3010 RMK AO2,M
CXP,2024-09-05 15:35,-119.7326,39.1923,1431.00,62.60,33.80,33.93,0.00,0.00,0.00,30.39,M,10.00,M,CLR,M,M,M,M,M,M,M,M,M,M,M,M,M,M,62.60,KCXP 051535Z AUTO 00000KT 10SM CLR 17/01 A3039 RMK AO2,M
RTS,2024-09-05 15:35,-119.8764,39.6682,1539.00,62.60,24.80,23.50,0.00,0.00,0.00,30.39,M,10.00,M,CLR,M,M,M,M,M,M,M,M,M,M,M,M,M,M,62.60,KRTS 051535Z AUTO 00000KT 10SM CLR 17/M04 A3039 RMK AO2,M
MEV,2024-09-05 15:35,-119.7500,38.9963,1441.42,59.00,30.20,33.35,0.00,0.00,0.00,30.37,M,10.00,M,CLR,M,M,M,M,M,M,M,M,M,M,M,M,M,M,59.00,KMEV 051535Z AUTO 00000KT 10SM CLR 15/M01 A3037 RMK AO2,M
BAM,2024-09-05 15:35,-116.8743,40.5990,1382.36,64.40,37.40,36.74,360.00,4.00,0.00,30.39,M,10.00,M,CLR,M,M,M,M,M,M,M,M,M,M,M,M,M,M,64.40,KBAM 051535Z AUTO 36004KT 10SM CLR 18/03 A3039 RMK AO1,M
HTH,2024-09-05 15:35,-118.6315,38.5448,1282.89,68.00,32.00,26.15,0.00,0.00,0.00,30.35,M,10.00,M,M,M,M,M,M,M,M,M,M,M,M,M,M,M,M,68.00,KHTH 051535Z AUTO 00000KT 10SM 20/00 A3035 RMK A01,M
TMT,2024-09-05 15:35,-117.1971,39.4643,1749.34,53.60,26.40,34.69,0.00,0.00,0.00,30.45,M,10.00,M,CLR,M,M,M,M,M,M,M,M,M,M,M,M,M,M,53.60,KTMT 051535Z AUTO 00000KT 10SM CLR 12/M03 A3045 RMK AO2 T01201031,M
10U,2024-09-05 15:35,-116.1876,41.9532,1637.00,68.00,33.80,28.11,120.00,12.00,0.00,30.43,M,10.00,18.00,CLR,M,M,M,M,M,M,M,M,M,M,M,M,M,M,68.00,K10U 051535Z AUTO 12012G18KT 10SM CLR 20/01 A3043 RMK AO2,M
05U,2024-09-05 15:50,-116.0051,39.6042,1811.23,64.40,30.20,27.55,0.00,0.00,0.00,30.48,M,9.00,M,CLR,M,M,M,M,M,M,M,M,M,M,M,M,M,M,64.40,K05U 051550Z AUTO 00000KT 9SM CLR 18/M01 A3048 RMK A01,M
P68,2024-09-05 15:53,-116.0056,39.6014,1993.00,64.00,33.00,31.28,100.00,3.00,0.00,30.45,1025.10,M,M,M,M,M,M,M,M,M,M,M,M,M,M,M,M,M,64.00,KP68 051553Z AUTO 10003KT 18/01 A3045 RMK AO1 SLP251 T01780006,M
DRA,2024-09-05 15:53,-116.0278,36.6206,1009.00,86.00,30.00,13.28,30.00,16.00,0.00,30.20,1017.40,10.00,M,CLR,M,M,M,M,M,M,M,M,M,M,M,M,M,M,82.64,KDRA 051553Z AUTO 03016KT 10SM CLR 30/M01 A3020 RMK AO2 SLP174 T03001011,M
ELY,2024-09-05 15:53,-114.8453,39.2950,1909.00,61.00,31.00,32.08,M,3.00,0.00,30.51,1024.70,8.00,M,CLR,M,M,M,M,M,M,M,M,M,M,M,M,M,M,61.00,KELY 051553Z AUTO VRB03KT 8SM CLR 16/M01 A3051 RMK AO2 SLP247 T01611006,M
VGT,2024-09-05 15:53,-115.1933,36.2111,667.00,92.00,34.00,12.91,330.00,10.00,0.00,30.12,1018.30,10.00,M,CLR,M,M,M,M,M,M,M,M,M,M,M,M,M,M,87.64,KVGT 051553Z 33010KT 10SM CLR 33/01 A3012 RMK AO2 SLP183 T03330011,M
LOL,2024-09-05 15:53,-118.5701,40.0684,1192.43,69.00,34.00,27.38,0.00,0.00,0.00,30.32,1023.30,10.00,M,CLR,M,M,M,M,M,M,M,M,M,M,M,M,M,M,69.00,KLOL 051553Z AUTO 00000KT 10SM CLR 21/01 A3032 RMK AO2 SLP233 T02060011,M
BVU,2024-09-05 15:55,-114.8611,35.9475,671.00,91.40,30.20,11.28,360.00,14.00,0.00,30.10,M,10.00,M,CLR,M,M,M,M,M,M,M,M,M,M,M,M,M,M,86.71,KBVU 051555Z AUTO 36014KT 10SM CLR 33/M01 A3010 RMK AO2,M
RNO,2024-09-05 15:55,-119.7711,39.4839,1341.00,66.00,34.00,30.37,0.00,0.00,0.00,30.36,1022.80,10.00,M,CLR,M,M,M,M,M,M,M,M,M,M,M,M,M,M,66.00,KRNO 051555Z 00000KT 10SM CLR 19/01 A3036 RMK AO2 SLP228 T01890011,M
CXP,2024-09-05 15:55,-119.7326,39.1923,1431.00,66.20,30.20,25.88,0.00,0.00,0.00,30.39,M,10.00,M,CLR,M,M,M,M,M,M,M,M,M,M,M,M,M,M,66.20,KCXP 051555Z AUTO 00000KT 10SM CLR 19/M01 A3039 RMK AO2,M
INS,2024-09-05 15:55,-115.6733,36.5872,955.00,86.00,27.30,11.89,0.00,0.00,0.00,30.20,1016.80,10.00,M,CLR,M,M,M,M,M,M,M,M,M,M,M,M,M,M,82.45,KINS 051555Z AUTO 00000KT 10SM CLR 30/M03 A3020 RMK AO2 SLP168 T02991026,M
LSV,2024-09-05 15:55,-115.0343,36.2362,570.00,94.00,26.40,8.91,30.00,15.00,0.00,30.07,1015.10,10.00,19.00,CLR,M,M,M,M,M,M,M,M,M,M,M,M,M,M,88.31,KLSV 051555Z AUTO 03015G19KT 10SM CLR 34/M03 A3007 RMK AO2 SLP151 T03441031 $,M
RTS,2024-09-05 15:55,-119.8764,39.6682,1539.00,66.20,24.80,20.72,0.00,0.00,0.00,30.39,M,10.00,M,CLR,M,M,M,M,M,M,M,M,M,M,M,M,M,M,66.20,KRTS 051555Z AUTO 00000KT 10SM CLR 19/M04 A3039 RMK AO2,M
MEV,2024-09-05 15:55,-119.7500,38.9963,1441.42,62.60,30.20,29.35,0.00,0.00,0.00,30.37,M,10.00,M,CLR,M,M,M,M,M,M,M,M,M,M,M,M,M,M,62.60,KMEV 051555Z AUTO 00000KT 10SM CLR 17/M01 A3037 RMK AO2,M
BAM,2024-09-05 15:55,-116.8743,40.5990,1382.36,66.20,37.40,34.51,360.00,4.00,0.00,30.39,M,10.00,M,CLR,M,M,M,M,M,M,M,M,M,M,M,M,M,M,66.20,KBAM 051555Z AUTO 36004KT 10SM CLR 19/03 A3039 RMK AO1,M
HTH,2024-09-05 15:55,-118.6315,38.5448,1282.89,69.80,32.00,24.59,0.00,0.00,0.00,30.35,M,10.00,M,CLR,M,M,M,M,M,M,M,M,M,M,M,M,M,M,69.80,KHTH 051555Z AUTO 00000KT 10SM CLR 21/00 A3035 RMK A01,M
TMT,2024-09-05 15:55,-117.1971,39.4643,1749.34,57.60,27.00,30.76,0.00,0.00,0.00,30.45,M,10.00,M,CLR,M,M,M,M,M,M,M,M,M,M,M,M,M,M,57.60,KTMT 051555Z AUTO 00000KT 10SM CLR 14/M03 A3045 RMK AO2 T01421028,M
10U,2024-09-05 15:55,-116.1876,41.9532,1637.00,69.80,35.60,28.39,110.00,14.00,0.00,30.43,M,10.00,20.00,CLR,M,M,M,M,M,M,M,M,M,M,M,M,M,M,69.80,K10U 051555Z AUTO 11014G20KT 10SM CLR 21/02 A3043 RMK AO2,M
EKO,2024-09-05 15:56,-115.7860,40.8242,1367.00,63.00,34.00,33.72,0.00,0.00,0.00,30.43,1026.00,8.00,M,CLR,M,M,M,M,M,M,M,M,M,M,M,M,M,M,63.00,KEKO 051556Z AUTO 00000KT 8SM CLR 17/01 A3043 RMK AO2 SLP260 T01720011,M
WMC,2024-09-05 15:56,-117.8072,40.9019,1315.00,68.00,34.00,28.34,60.00,11.00,0.00,30.36,1024.30,10.00,M,CLR,M,M,M,M,M,M,M,M,M,M,M,M,M,M,68.00,KWMC 051556Z AUTO 06011KT 10SM CLR 20/01 A3036 RMK AO2 SLP243 T02000011,M
HND,2024-09-05 15:56,-115.1344,35.9729,742.79,88.00,38.00,17.15,40.00,4.00,0.00,30.17,1019.80,10.00,M,CLR,M,M,M,M,M,M,M,M,M,M,M,M,M,M,84.35,KHND 051556Z 04004KT 10SM CLR 31/03 A3017 RMK AO2 SLP198 T03110033,M
TPH,2024-09-05 15:56,-117.0904,38.0505,1654.00,74.00,23.00,14.73,350.00,8.00,0.00,30.39,1021.30,10.00,M,CLR,M,M,M,M,M,M,M,M,M,M,M,M,M,M,74.00,KTPH 051556Z AUTO 35008KT 10SM CLR 23/M05 A3039 RMK AO2 SLP213 T02331050,M
LAS,2024-09-05 15:56,-115.1634,36.0719,663.00,90.00,37.00,15.48,40.00,4.00,0.00,30.14,1017.50,10.00,M,CLR,M,M,M,M,M,M,M,M,M,M,M,M,M,M,86.00,KLAS 051556Z 04004KT 10SM CLR 32/03 A3014 RMK AO2 SLP175 T03220028,M
NFL,2024-09-05 15:57,-118.7010,39.4166,1199.00,70.00,29.00,21.62,290.00,3.00,0.00,30.32,1022.60,7.00,M,CLR,M,M,M,M,M,M,M,M,M,M,M,M,M,M,70.00,KNFL 051557Z 29003KT 7SM CLR 21/M02 A3032 RMK AO2 SLP226 HZ ALQDS T02111017,M
05U,2024-09-05 16:10,-116.0051,39.6042,1811.23,64.40,32.00,29.63,0.00,0.00,0.00,30.48,M,9.00,M,CLR,M,M,M,M,M,M,M,M,M,M,M,M,M,M,64.40,K05U 051610Z AUTO 00000KT 9SM CLR 18/00 A3048 RMK A01,M
BVU,2024-09-05 16:15,-114.8611,35.9475,671.00,93.20,30.20,10.67,340.00,12.00,0.00,30.10,M,10.00,M,CLR,M,M,M,M,M,M,M,M,M,M,M,M,M,M,88.09,KBVU 051615Z AUTO 34012KT 10SM CLR 34/M01 A3010 RMK AO2,M
CXP,2024-09-05 16:15,-119.7326,39.1923,1431.00,68.00,28.40,22.59,0.00,0.00,0.00,30.38,M,10.00,M,CLR,M,M,M,M,M,M,M,M,M,M,M,M,M,M,68.00,KCXP 051615Z AUTO 00000KT 10SM CLR 20/M02 A3038 RMK AO2,M
RTS,2024-09-05 16:15,-119.8764,39.6682,1539.00,69.80,24.80,18.30,0.00,0.00,0.00,30.39,M,10.00,M,CLR,M,M,M,M,M,M,M,M,M,M,M,M,M,M,69.80,KRTS 051615Z AUTO 00000KT 10SM CLR 21/M04 A3039 RMK AO2,M
MEV,2024-09-05 16:15,-119.7500,38.9963,1441.42,66.20,28.40,24.04,0.00,0.00,0.00,30.37,M,10.00,M,CLR,M,M,M,M,M,M,M,M,M,M,M,M,M,M,66.20,KMEV 051615Z AUTO 00000KT 10SM CLR 19/M02 A3037 RMK AO2,M
BAM,2024-09-05 16:15,-116.8743,40.5990,1382.36,69.80,37.40,30.49,360.00,4.00,0.00,30.39,M,10.00,M,CLR,M,M,M,M,M,M,M,M,M,M,M,M,M,M,69.80,KBAM 051615Z AUTO 36004KT 10SM CLR 21/03 A3039 RMK AO1,M
HTH,2024-09-05 16:15,-118.6315,38.5448,1282.89,71.60,32.00,23.13,M,4.00,0.00,30.35,M,10.00,M,CLR,M,M,M,M,M,M,M,M,M,M,M,M,M,M,71.60,KHTH 051615Z AUTO VRB04KT 10SM CLR 22/M00 A3035 RMK A01,M
TMT,2024-09-05 16:15,-117.1971,39.4643,1749.34,60.40,28.80,29.96,0.00,0.00,0.00,30.45,M,10.00,M,CLR,M,M,M,M,M,M,M,M,M,M,M,M,M,M,60.40,KTMT 051615Z AUTO 00000KT 10SM CLR 16/M02 A3045 RMK AO2 T01581018,M
10U,2024-09-05 16:15,-116.1876,41.9532,1637.00,71.60,33.80,24.86,100.00,14.00,0.00,30.43,M,10.00,20.00,CLR,M,M,M,M,M,M,M,M,M,M,M,M,M,M,71.60,K10U 051615Z AUTO 10014G20KT 10SM CLR 22/01 A3043 RMK AO2,M
05U,2024-09-05 16:30,-116.0051,39.6042,1811.23,66.20,30.20,25.88,0.00,0.00,0.00,30.48,M,10.00,M,CLR,M,M,M,M,M,M,M,M,M,M,M,M,M,M,66.20,K05U 051630Z AUTO 00000KT 10SM CLR 19/M01 A3048 RMK A01,M
BVU,2024-09-05 16:35,-114.8611,35.9475,671.00,93.20,30.20,10.67,340.00,10.00,0.00,30.10,M,10.00,16.00,CLR,M,M,M,M,M,M,M,M,M,M,M,M,M,M,88.09,KBVU 051635Z AUTO 34010G16KT 10SM CLR 34/M01 A3010 RMK AO2,M
CXP,2024-09-05 16:35,-119.7326,39.1923,1431.00,69.80,28.40,21.24,0.00,0.00,0.00,30.38,M,9.00,M,CLR,M,M,M,M,M,M,M,M,M,M,M,M,M,M,69.80,KCXP 051635Z AUTO 00000KT 9SM CLR 21/M02 A3038 RMK AO2,M
RTS,2024-09-05 16:35,-119.8764,39.6682,1539.00,71.60,28.40,19.98,0.00,0.00,0.00,30.38,M,10.00,M,CLR,M,M,M,M,M,M,M,M,M,M,M,M,M,M,71.60,KRTS 051635Z AUTO 00000KT 10SM CLR 22/M02 A3038 RMK AO2,M
MEV,2024-09-05 16:35,-119.7500,38.9963,1441.42,68.00,32.00,26.15,180.00,3.00,0.00,30.37,M,10.00,M,CLR,M,M,M,M,M,M,M,M,M,M,M,M,M,M,68.00,KMEV 051635Z AUTO 18003KT 10SM CLR 20/M00 A3037 RMK AO2,M
HTH,2024-09-05 16:35,-118.6315,38.5448,1282.89,73.40,30.20,20.23,20.00,5.00,0.00,30.35,M,10.00,M,CLR,M,M,M,M,M,M,M,M,M,M,M,M,M,M,73.40,KHTH 051635Z AUTO 02005KT 10SM CLR 23/M01 A3035 RMK A01,M
BAM,2024-09-05 16:35,-116.8743,40.5990,1382.36,73.40,35.60,25.13,60.00,7.00,0.00,30.39,M,10.00,M,CLR,M,M,M,M,M,M,M,M,M,M,M,M,M,M,73.40,KBAM 051635Z AUTO 06007KT 10SM CLR 23/02 A3039 RMK AO1,M
TMT,2024-09-05 16:35,-117.1971,39.4643,1749.34,63.70,29.00,26.89,0.00,0.00,0.00,30.45,M,10.00,M,CLR,M,M,M,M,M,M,M,M,M,M,M,M,M,M,63.70,KTMT 051635Z AUTO 00000KT 10SM CLR 18/M02 A3045 RMK AO2 T01761016,M
10U,2024-09-05 16:35,-116.1876,41.9532,1637.00,73.40,33.80,23.39,110.00,15.00,0.00,30.43,M,10.00,20.00,CLR,M,M,M,M,M,M,M,M,M,M,M,M,M,M,73.40,K10U 051635Z AUTO 11015G20KT 10SM CLR 23/01 A3043 RMK AO2,M
05U,2024-09-05 16:50,-116.0051,39.6042,1811.23,68.00,32.00,26.15,0.00,0.00,0.00,30.48,M,9.00,M,CLR,M,M,M,M,M,M,M,M,M,M,M,M,M,M,68.00,K05U 051650Z AUTO 00000KT 9SM CLR 20/M00 A3048 RMK A01,M
P68,2024-09-05 16:53,-116.0056,39.6014,1993.00,70.00,33.00,25.42,0.00,0.00,0.00,30.45,1024.80,M,M,M,M,M,M,M,M,M,M,M,M,M,M,M,M,M,70.00,KP68 051653Z AUTO 00000KT 21/01 A3045 RMK AO1 SLP248 T02110006,M
DRA,2024-09-05 16:53,-116.0278,36.6206,1009.00,89.00,35.00,14.76,20.00,12.00,0.00,30.20,1017.40,10.00,M,CLR,M,M,M,M,M,M,M,M,M,M,M,M,M,M,85.10,KDRA 051653Z AUTO 02012KT 10SM CLR 32/02 A3020 RMK AO2 SLP174 T03170017,M
ELY,2024-09-05 16:53,-114.8453,39.2950,1909.00,68.00,34.00,28.34,20.00,8.00,0.00,30.50,1024.00,6.00,M,CLR,M,M,M,M,M,M,M,HZ,M,M,M,M,M,M,68.00,KELY 051653Z AUTO 02008KT 6SM HZ CLR 20/01 A3050 RMK AO2 SLP240 T02000011,M
VGT,2024-09-05 16:53,-115.1933,36.2111,667.00,96.00,35.00,11.87,360.00,4.00,0.00,30.12,1018.60,10.00,M,CLR,M,M,M,M,M,M,M,M,M,M,M,M,M,M,90.97,KVGT 051653Z 36004KT 10SM CLR 36/02 A3012 RMK AO2 SLP186 T03560017,M
LOL,2024-09-05 16:53,-118.5701,40.0684,1192.43,75.00,39.00,27.23,70.00,7.00,0.00,30.32,1023.10,10.00,M,CLR,M,M,M,M,M,M,M,M,M,M,M,M,M,M,75.00,KLOL 051653Z AUTO 07007KT 10SM CLR 24/04 A3032 RMK AO2 SLP231 T02390039,M
BVU,2024-09-05 16:55,-114.8611,35.9475,671.00,95.00,30.20,10.09,350.00,11.00,0.00,30.11,M,10.00,M,CLR,M,M,M,M,M,M,M,M,M,M,M,M,M,M,89.48,KBVU 051655Z AUTO 35011KT 10SM CLR 35/M01 A3011 RMK AO2,M
RNO,2024-09-05 16:55,-119.7711,39.4839,1341.00,71.00,32.00,23.60,0.00,0.00,0.00,30.34,1022.40,10.00,M,CLR,M,M,M,M,M,M,M,M,M,M,M,M,M,M,71.00,KRNO 051655Z 00000KT 10SM CLR 22/00 A3034 RMK AO2 SLP224 T02170000,M
CXP,2024-09-05 16:55,-119.7326,39.1923,1431.00,69.80,30.20,22.86,0.00,0.00,0.00,30.38,M,10.00,M,CLR,M,M,M,M,M,M,M,M,M,M,M,M,M,M,69.80,KCXP 051655Z AUTO 00000KT 10SM CLR 21/M01 A3038 RMK AO2,M
RTS,2024-09-05 16:55,-119.8764,39.6682,1539.00,75.20,24.80,15.25,150.00,4.00,0.00,30.38,M,10.00,M,CLR,M,M,M,M,M,M,M,M,M,M,M,M,M,M,75.20,KRTS 051655Z AUTO 15004KT 10SM CLR 24/M04 A3038 RMK AO2,M
MEV,2024-09-05 16:55,-119.7500,38.9963,1441.42,69.80,32.00,24.59,140.00,3.00,0.00,30.37,M,10.00,M,CLR,M,M,M,M,M,M,M,M,M,M,M,M,M,M,69.80,KMEV 051655Z AUTO 14003KT 10SM CLR 21/M00 A3037 RMK AO2,M
BAM,2024-09-05 16:55,-116.8743,40.5990,1382.36,77.00,35.60,22.28,50.00,7.00,0.00,30.39,M,10.00,M,CLR,M,M,M,M,M,M,M,M,M,M,M,M,M,M,77.00,KBAM 051655Z AUTO 05007KT 10SM CLR 25/02 A3039 RMK AO1,M
HTH,2024-09-05 16:55,-118.6315,38.5448,1282.89,75.20,28.40,17.70,330.00,5.00,0.00,30.35,M,10.00,M,CLR,M,M,M,M,M,M,M,M,M,M,M,M,M,M,75.20,KHTH 051655Z AUTO 33005KT 10SM CLR 24/M02 A3035 RMK A01,M
TMT,2024-09-05 16:55,-117.1971,39.4643,1749.34,67.00,30.00,24.97,0.00,0.00,0.00,30.45,M,10.00,M,CLR,M,M,M,M,M,M,M,M,M,M,M,M,M,M,67.00,KTMT 051655Z AUTO 00000KT 10SM CLR 20/M01 A3045 RMK AO2 T01951012,M
10U,2024-09-05 16:55,-116.1876,41.9532,1637.00,75.20,33.80,22.02,110.00,14.00,0.00,30.43,M,10.00,M,CLR,M,M,M,M,M,M,M,M,M,M,M,M,M,M,75.20,K10U 051655Z AUTO 11014KT 10SM CLR 24/01 A3043 RMK AO2,M
INS,2024-09-05 16:55,-115.6733,36.5872,955.00,89.40,25.70,9.99,40.00,3.00,0.00,30.20,1016.80,10.00,M,CLR,M,M,M,M,M,M,M,M,M,M,M,M,M,M,84.80,KINS 051655Z AUTO 04003KT 10SM CLR 32/M03 A3020 RMK AO2 SLP168 T03191035,M
LSV,2024-09-05 16:55,-115.0343,36.2362,570.00,96.60,25.70,7.99,30.00,14.00,0.00,30.07,1015.00,10.00,M,CLR,M,M,M,M,M,M,M,M,M,M,M,M,M,M,90.31,KLSV 051655Z AUTO 03014KT 10SM CLR 36/M03 A3007 RMK AO2 SLP150 T03591035 $,M
EKO,2024-09-05 16:56,-115.7860,40.8242,1367.00,70.00,36.00,28.65,60.00,3.00,0.00,30.43,1025.20,8.00,M,CLR,M,M,M,M,M,M,M,M,M,M,M,M,M,M,70.00,KEKO 051656Z AUTO 06003KT 8SM CLR 21/02 A3043 RMK AO2 SLP252 T02110022,M
WMC,2024-09-05 16:56,-117.8072,40.9019,1315.00,74.00,35.00,24.05,50.00,11.00,0.00,30.35,1024.20,10.00,M,CLR,M,M,M,M,M,M,M,M,M,M,M,M,M,M,74.00,KWMC 051656Z AUTO 05011KT 10SM CLR 23/02 A3035 RMK AO2 SLP242 T02330017,M
HND,2024-09-05 16:56,-115.1344,35.9729,742.79,92.00,36.00,13.98,10.00,9.00,0.00,30.17,1019.90,10.00,M,CLR,M,M,M,M,M,M,M,M,M,M,M,M,M,M,87.71,KHND 051656Z 01009KT 10SM CLR 33/02 A3017 RMK AO2 SLP199 T03330022,M
TPH,2024-09-05 16:56,-117.0904,38.0505,1654.00,80.00,23.00,12.07,0.00,0.00,0.00,30.39,1020.70,10.00,M,CLR,M,M,M,M,M,M,M,M,M,M,M,M,M,M,78.19,KTPH 051656Z AUTO 00000KT 10SM CLR 27/M05 A3039 RMK AO2 SLP207 T02671050,M
LAS,2024-09-05 16:56,-115.1634,36.0719,663.00,93.00,34.00,12.51,70.00,6.00,0.00,30.14,1017.50,10.00,M,CLR,M,M,M,M,M,M,M,M,M,M,M,M,M,M,88.42,KLAS 051656Z 07006KT 10SM CLR 34/01 A3014 RMK AO2 SLP175 T03390011,M
NFL,2024-09-05 16:57,-118.7010,39.4166,1199.00,75.00,31.00,19.81,300.00,3.00,0.00,30.32,1022.60,7.00,M,CLR,M,M,M,M,M,M,M,M,M,M,M,M,M,M,75.00,KNFL 051657Z 30003KT 7SM CLR 24/M01 A3032 RMK AO2 SLP226 T02391006,M
05U,2024-09-05 17:10,-116.0051,39.6042,1811.23,69.80,32.00,24.59,0.00,0.00,0.00,30.48,M,9.00,M,CLR,M,M,M,M,M,M,M,M,M,M,M,M,M,M,69.80,K05U 051710Z AUTO 00000KT 9SM CLR 21/M00 A3048 RMK A01,M
BVU,2024-09-05 17:15,-114.8611,35.9475,671.00,95.00,30.20,10.09,360.00,13.00,0.00,30.11,M,10.00,M,CLR,M,M,M,M,M,M,M,M,M,M,M,M,M,M,89.48,KBVU 051715Z AUTO 36013KT 10SM CLR 35/M01 A3011 RMK AO2,M
CXP,2024-09-05 17:15,-119.7326,39.1923,1431.00,73.40,30.20,20.23,0.00,0.00,0.00,30.38,M,10.00,M,CLR,M,M,M,M,M,M,M,M,M,M,M,M,M,M,73.40,KCXP 051715Z AUTO 00000KT 10SM CLR 23/M01 A3038 RMK AO2,M
RTS,2024-09-05 17:15,-119.8764,39.6682,1539.00,77.00,24.80,14.37,M,4.00,0.00,30.38,M,10.00,M,CLR,M,M,M,M,M,M,M,M,M,M,M,M,M,M,77.00,KRTS 051715Z AUTO VRB04KT 10SM CLR 25/M04 A3038 RMK AO2,M
MEV,2024-09-05 17:15,-119.7500,38.9963,1441.42,71.60,35.60,26.71,0.00,0.00,0.00,30.37,M,10.00,M,CLR,M,M,M,M,M,M,M,M,M,M,M,M,M,M,71.60,KMEV 051715Z AUTO 00000KT 10SM CLR 22/02 A3037 RMK AO2,M
BAM,2024-09-05 17:15,-116.8743,40.5990,1382.36,78.80,35.60,21.00,40.00,5.00,0.00,30.39,M,10.00,M,CLR,M,M,M,M,M,M,M,M,M,M,M,M,M,M,78.80,KBAM 051715Z AUTO 04005KT 10SM CLR 26/02 A3039 RMK AO1,M
HTH,2024-09-05 17:15,-118.6315,38.5448,1282.89,75.20,28.40,17.70,350.00,4.00,0.00,30.34,M,10.00,M,CLR,M,M,M,M,M,M,M,M,M,M,M,M,M,M,75.20,KHTH 051715Z AUTO 35004KT 10SM CLR 24/M02 A3034 RMK A01,M
TMT,2024-09-05 17:15,-117.1971,39.4643,1749.34,69.00,30.00,23.30,0.00,0.00,0.00,30.45,M,10.00,M,CLR,M,M,M,M,M,M,M,M,M,M,M,M,M,M,69.00,KTMT 051715Z AUTO 00000KT 10SM CLR 21/M01 A3045 RMK AO2 T02061011,M
10U,2024-09-05 17:15,-116.1876,41.9532,1637.00,77.00,32.00,19.30,130.00,14.00,0.00,30.43,M,10.00,M,CLR,M,M,M,M,M,M,M,M,M,M,M,M,M,M,77.00,K10U 051715Z AUTO 13014KT 10SM CLR 25/00 A3043 RMK AO2,M
05U,2024-09-05 17:30,-116.0051,39.6042,1811.23,73.40,32.00,21.76,0.00,0.00,0.00,30.48,M,9.00,M,CLR,M,M,M,M,M,M,M,M,M,M,M,M,M,M,73.40,K05U 051730Z AUTO 00000KT 9SM CLR 23/M00 A3048 RMK A01,M
BVU,2024-09-05 17:35,-114.8611,35.9475,671.00,96.80,30.20,9.55,10.00,10.00,0.00,30.10,M,10.00,16.00,CLR,M,M,M,M,M,M,M,M,M,M,M,M,M,M,90.96,KBVU 051735Z AUTO 01010G16KT 10SM CLR 36/M01 A3010 RMK AO2,M
CXP,2024-09-05 17:35,-119.7326,39.1923,1431.00,75.20,30.20,19.05,0.00,0.00,0.00,30.37,M,10.00,M,CLR,M,M,M,M,M,M,M,M,M,M,M,M,M,M,75.20,KCXP 051735Z AUTO 00000KT 10SM CLR 24/M01 A3037 RMK AO2,M
RTS,2024-09-05 17:35,-119.8764,39.6682,1539.00,78.80,23.00,12.55,140.00,6.00,0.00,30.38,M,10.00,M,CLR,M,M,M,M,M,M,M,M,M,M,M,M,M,M,78.80,KRTS 051735Z AUTO 14006KT 10SM CLR 26/M05 A3038 RMK AO2,M
MEV,2024-09-05 17:35,-119.7500,38.9963,1441.42,73.40,32.00,21.76,0.00,0.00,0.00,30.36,M,10.00,M,CLR,M,M,M,M,M,M,M,M,M,M,M,M,M,M,73.40,KMEV 051735Z AUTO 00000KT 10SM CLR 23/00 A3036 RMK AO2,M
BAM,2024-09-05 17:35,-116.8743,40.5990,1382.36,78.80,35.60,21.00,50.00,3.00,0.00,30.38,M,10.00,M,CLR,M,M,M,M,M,M,M,M,M,M,M,M,M,M,78.80,KBAM 051735Z AUTO 05003KT 10SM CLR 26/02 A3038 RMK AO1,M
HTH,2024-09-05 17:35,-118.6315,38.5448,1282.89,77.00,26.60,15.48,360.00,4.00,0.00,30.34,M,10.00,M,CLR,M,M,M,M,M,M,M,M,M,M,M,M,M,M,77.00,KHTH 051735Z AUTO 36004KT 10SM CLR 25/M03 A3034 RMK A01,M
TMT,2024-09-05 17:35,-117.1971,39.4643,1749.34,71.00,29.00,20.90,0.00,0.00,0.00,30.44,M,10.00,M,CLR,M,M,M,M,M,M,M,M,M,M,M,M,M,M,71.00,KTMT 051735Z AUTO 00000KT 10SM CLR 22/M02 A3044 RMK AO2 T02171016,M
10U,2024-09-05 17:35,-116.1876,41.9532,1637.00,78.80,30.20,16.90,120.00,13.00,0.00,30.43,M,10.00,20.00,CLR,M,M,M,M,M,M,M,M,M,M,M,M,M,M,78.80,K10U 051735Z AUTO 12013G20KT 10SM CLR 26/M01 A3043 RMK AO2,M
05U,2024-09-05 17:50,-116.0051,39.6042,1811.23,75.20,33.80,22.02,0.00,0.00,0.00,30.47,M,10.00,M,CLR,M,M,M,M,M,M,M,M,M,M,M,M,M,M,75.20,K05U 051750Z AUTO 00000KT 10SM CLR 24/01 A3047 RMK A01,M
P68,2024-09-05 17:53,-116.0056,39.6014,1993.00,76.00,34.00,21.62,M,M,0.00,30.44,1024.20,M,M,M,M,M,M,M,M,M,M,M,M,M,M,M,M,M,76.00,KP68 051753Z AUTO 24/01 A3044 RMK AO1 SLP242 T02440011 10244 20044 58004,M
DRA,2024-09-05 17:53,-116.0278,36.6206,1009.00,94.00,32.00,11.19,110.00,8.00,0.00,30.19,1016.90,10.00,16.00,CLR,M,M,M,M,M,M,M,M,M,M,M,M,M,M,88.93,KDRA 051753Z AUTO 11008G16KT 10SM CLR 34/00 A3019 RMK AO2 SLP169 T03440000 10344 20250 58001,M
ELY,2024-09-05 17:53,-114.8453,39.2950,1909.00,72.00,32.00,22.82,M,5.00,0.00,30.49,1023.30,8.00,M,CLR,M,M,M,M,M,M,M,M,M,M,M,M,M,M,72.00,KELY 051753Z AUTO VRB05KT 8SM CLR 22/00 A3049 RMK AO2 SLP233 T02220000 10222 20039 58003,M
VGT,2024-09-05 17:53,-115.1933,36.2111,667.00,99.00,35.00,10.83,0.00,0.00,0.00,30.12,1018.20,10.00,M,CLR,M,M,M,M,M,M,M,M,M,M,M,M,M,M,93.47,KVGT 051753Z 00000KT 10SM CLR 37/02 A3012 RMK AO2 SLP182 T03720017 10372 20289 50001,M
LOL,2024-09-05 17:53,-118.5701,40.0684,1192.43,82.00,39.00,21.62,50.00,5.00,0.00,30.32,1023.10,10.00,M,CLR,M,M,M,M,M,M,M,M,M,M,M,M,M,M,79.94,KLOL 051753Z AUTO 05005KT 10SM CLR 28/04 A3032 RMK AO2 SLP231 T02780039 10278 20072 58001,M
BVU,2024-09-05 17:55,-114.8611,35.9475,671.00,96.80,30.20,9.55,30.00,10.00,0.00,30.10,M,10.00,M,CLR,M,M,M,M,M,M,M,M,M,M,M,M,M,M,90.96,KBVU 051755Z AUTO 03010KT 10SM CLR 36/M01 A3010 RMK AO2,M
RNO,2024-09-05 17:55,-119.7711,39.4839,1341.00,78.00,30.00,17.22,0.00,0.00,0.00,30.33,1021.70,10.00,M,CLR,M,M,M,M,M,M,M,M,M,M,M,M,M,M,78.00,KRNO 051755Z 00000KT 10SM CLR 26/M01 A3033 RMK AO2 SLP217 T02561011 10256 20133 58007,M
CXP,2024-09-05 17:55,-119.7326,39.1923,1431.00,77.00,28.40,16.67,0.00,0.00,0.00,30.37,M,10.00,M,CLR,M,M,M,M,M,M,M,M,M,M,M,M,M,M,77.00,KCXP 051755Z AUTO 00000KT 10SM CLR 25/M02 A3037 RMK AO2,M
LSV,2024-09-05 17:55,-115.0343,36.2362,570.00,98.60,24.00,7.00,40.00,11.00,0.00,30.07,1015.00,10.00,M,CLR,M,M,M,M,M,M,M,M,M,M,M,M,M,M,91.83,KLSV 051755Z AUTO 04011KT 10SM CLR 37/M04 A3007 RMK AO2 SLP150 T03701045 10370 20302 58002 $,M
RTS,2024-09-05 17:55,-119.8764,39.6682,1539.00,80.60,23.00,11.83,110.00,6.00,0.00,30.38,M,10.00,M,CLR,M,M,M,M,M,M,M,M,M,M,M,M,M,M,78.80,KRTS 051755Z AUTO 11006KT 10SM CLR 27/M05 A3038 RMK AO2,M
MEV,2024-09-05 17:55,-119.7500,38.9963,1441.42,77.00,32.00,19.30,0.00,0.00,0.00,30.35,M,10.00,M,CLR,M,M,M,M,M,M,M,M,M,M,M,M,M,M,77.00,KMEV 051755Z AUTO 00000KT 10SM CLR 25/M00 A3035 RMK AO2,M
BAM,2024-09-05 17:55,-116.8743,40.5990,1382.36,82.40,35.60,18.67,30.00,6.00,0.00,30.38,M,10.00,M,CLR,M,M,M,M,M,M,M,M,M,M,M,M,M,M,80.08,KBAM 051755Z AUTO 03006KT 10SM CLR 28/02 A3038 RMK AO1,M
HTH,2024-09-05 17:55,-118.6315,38.5448,1282.89,78.80,26.60,14.59,0.00,0.00,0.00,30.34,M,10.00,M,CLR,M,M,M,M,M,M,M,M,M,M,M,M,M,M,78.80,KHTH 051755Z AUTO 00000KT 10SM CLR 26/M03 A3034 RMK A01,M
TMT,2024-09-05 17:55,-117.1971,39.4643,1749.34,73.20,30.00,20.20,0.00,0.00,0.00,30.44,M,10.00,M,CLR,M,M,M,M,M,M,M,M,M,M,M,M,M,M,73.20,KTMT 051755Z AUTO 00000KT 10SM CLR 23/M01 A3044 RMK AO2 T02291012 10229 21012,M
10U,2024-09-05 17:55,-116.1876,41.9532,1637.00,78.80,30.20,16.90,120.00,12.00,0.00,30.43,M,10.00,M,CLR,M,M,M,M,M,M,M,M,M,M,M,M,M,M,78.80,K10U 051755Z AUTO 12012KT 10SM CLR 26/M01 A3043 RMK AO2,M
INS,2024-09-05 17:55,-115.6733,36.5872,955.00,91.40,24.60,8.96,0.00,0.00,0.00,30.19,1016.40,10.00,M,CLR,M,M,M,M,M,M,M,M,M,M,M,M,M,M,86.20,KINS 051755Z AUTO 00000KT 10SM CLR 33/M04 A3019 RMK AO2 SLP164 T03301041 10333 20208 58003,M
EKO,2024-09-05 17:56,-115.7860,40.8242,1367.00,76.00,36.00,23.40,M,5.00,0.00,30.42,1024.50,9.00,M,CLR,M,M,M,M,M,M,M,M,M,M,M,M,M,M,76.00,KEKO 051756Z AUTO VRB05KT 9SM CLR 24/02 A3042 RMK AO2 SLP245 T02440022 10244 20067 58005,M
WMC,2024-09-05 17:56,-117.8072,40.9019,1315.00,81.00,34.00,18.33,M,5.00,0.00,30.34,1023.80,10.00,M,CLR,M,M,M,M,M,M,M,M,M,M,M,M,M,M,79.13,KWMC 051756Z AUTO VRB05KT 10SM CLR 27/01 A3034 RMK AO2 SLP238 T02720011 10272 20067 58002,M
HND,2024-09-05 17:56,-115.1344,35.9729,742.79,95.00,35.00,12.24,50.00,9.00,0.00,30.16,1019.50,10.00,M,CLR,M,M,M,M,M,M,M,M,M,M,M,M,M,M,90.15,KHND 051756Z 05009KT 10SM CLR 35/02 A3016 RMK AO2 SLP195 T03500017 10350 20283 58001,M
TPH,2024-09-05 17:56,-117.0904,38.0505,1654.00,83.00,23.00,10.95,180.00,4.00,0.00,30.39,1020.80,10.00,M,CLR,M,M,M,M,M,M,M,M,M,M,M,M,M,M,80.07,KTPH 051756Z AUTO 18004KT 10SM CLR 28/M05 A3039 RMK AO2 SLP208 T02831050 10289 20144 52000,M
LAS,2024-09-05 17:56,-115.1634,36.0719,663.00,96.00,33.00,10.96,40.00,8.00,0.00,30.13,1017.00,8.00,M,CLR,M,M,M,M,M,M,M,M,M,M,M,M,M,M,90.66,KLAS 051756Z 04008KT 8SM CLR 36/01 A3013 RMK AO2 SLP170 T03560006 10356 20283 58002,M
NFL,2024-09-05 17:57,-118.7010,39.4166,1199.00,79.00,32.00,18.06,M,3.00,0.00,30.31,1022.40,8.00,M,CLR,M,M,M,M,M,M,M,M,M,M,M,M,M,M,79.00,KNFL 051757Z VRB03KT 8SM CLR 26/00 A3031 RMK AO2 SLP224 HZ ALQDS T02610000 10267 20100 58001,M
05U,2024-09-05 18:10,-116.0051,39.6042,1811.23,75.20,32.00,20.49,0.00,0.00,0.00,30.47,M,9.00,M,CLR,M,M,M,M,M,M,M,M,M,M,M,M,M,M,75.20,K05U 051810Z AUTO 00000KT 9SM CLR 24/M00 A3047 RMK A01,M
BVU,2024-09-05 18:15,-114.8611,35.9475,671.00,98.60,30.20,9.04,30.00,7.00,0.00,30.09,M,10.00,16.00,CLR,M,M,M,M,M,M,M,M,M,M,M,M,M,M,92.46,KBVU 051815Z AUTO 03007G16KT 10SM CLR 37/M01 A3009 RMK AO2,M
CXP,2024-09-05 18:15,-119.7326,39.1923,1431.00,78.80,28.40,15.71,0.00,0.00,0.00,30.36,M,10.00,M,CLR,M,M,M,M,M,M,M,M,M,M,M,M,M,M,78.80,KCXP 051815Z AUTO 00000KT 10SM CLR 26/M02 A3036 RMK AO2,M
RTS,2024-09-05 18:15,-119.8764,39.6682,1539.00,80.60,23.00,11.83,130.00,6.00,0.00,30.37,M,10.00,M,CLR,M,M,M,M,M,M,M,M,M,M,M,M,M,M,78.80,KRTS 051815Z AUTO 13006KT 10SM CLR 27/M05 A3037 RMK AO2,M
MEV,2024-09-05 18:15,-119.7500,38.9963,1441.42,78.80,33.80,19.55,0.00,0.00,0.00,30.35,M,8.00,M,CLR,M,M,M,M,M,M,M,M,M,M,M,M,M,M,78.80,KMEV 051815Z AUTO 00000KT 8SM CLR 26/01 A3035 RMK AO2,M
BAM,2024-09-05 18:15,-116.8743,40.5990,1382.36,82.40,35.60,18.67,60.00,4.00,0.00,30.37,M,10.00,M,CLR,M,M,M,M,M,M,M,M,M,M,M,M,M,M,80.08,KBAM 051815Z AUTO 06004KT 10SM CLR 28/02 A3037 RMK AO1,M
HTH,2024-09-05 18:15,-118.6315,38.5448,1282.89,80.60,24.80,12.76,320.00,5.00,0.00,30.33,M,10.00,M,CLR,M,M,M,M,M,M,M,M,M,M,M,M,M,M,78.94,KHTH 051815Z AUTO 32005KT 10SM CLR 27/M04 A3033 RMK A01,M
TMT,2024-09-05 18:15,-117.1971,39.4643,1749.34,75.60,30.00,18.64,0.00,0.00,0.00,30.43,M,10.00,M,CLR,M,M,M,M,M,M,M,M,M,M,M,M,M,M,75.60,KTMT 051815Z AUTO 00000KT 10SM CLR 24/M01 A3043 RMK AO2 T02421012,M
10U,2024-09-05 18:15,-116.1876,41.9532,1637.00,80.60,30.20,15.94,120.00,10.00,0.00,30.43,M,10.00,17.00,CLR,M,M,M,M,M,M,M,M,M,M,M,M,M,M,78.77,K10U 051815Z AUTO 12010G17KT 10SM CLR 27/M01 A3043 RMK AO2,M
05U,2024-09-05 18:30,-116.0051,39.6042,1811.23,77.00,30.20,17.94,0.00,0.00,0.00,30.46,M,10.00,M,CLR,M,M,M,M,M,M,M,M,M,M,M,M,M,M,77.00,K05U 051830Z AUTO 00000KT 10SM CLR 25/M01 A3046 RMK A01,M
BVU,2024-09-05 18:35,-114.8611,35.9475,671.00,98.60,30.20,9.04,50.00,11.00,0.00,30.09,M,10.00,M,CLR,M,M,M,M,M,M,M,M,M,M,M,M,M,M,92.46,KBVU 051835Z AUTO 05011KT 10SM CLR 37/M01 A3009 RMK AO2,M
CXP,2024-09-05 18:35,-119.7326,39.1923,1431.00,82.40,26.60,12.97,M,4.00,0.00,30.35,M,10.00,M,CLR,M,M,M,M,M,M,M,M,M,M,M,M,M,M,79.92,KCXP 051835Z AUTO VRB04KT 10SM CLR 28/M03 A3035 RMK AO2,M
RTS,2024-09-05 18:35,-119.8764,39.6682,1539.00,82.40,23.00,11.16,120.00,7.00,0.00,30.37,M,10.00,M,CLR,M,M,M,M,M,M,M,M,M,M,M,M,M,M,79.67,KRTS 051835Z AUTO 12007KT 10SM CLR 28/M05 A3037 RMK AO2,M
MEV,2024-09-05 18:35,-119.7500,38.9963,1441.42,80.60,33.80,18.42,0.00,0.00,0.00,30.34,M,9.00,M,CLR,M,M,M,M,M,M,M,M,M,M,M,M,M,M,78.88,KMEV 051835Z AUTO 00000KT 9SM CLR 27/01 A3034 RMK AO2,M
BAM,2024-09-05 18:35,-116.8743,40.5990,1382.36,82.40,35.60,18.67,30.00,5.00,0.00,30.36,M,10.00,M,CLR,M,M,M,M,M,M,M,M,M,M,M,M,M,M,80.08,KBAM 051835Z AUTO 03005KT 10SM CLR 28/02 A3036 RMK AO1,M
HTH,2024-09-05 18:35,-118.6315,38.5448,1282.89,82.40,24.80,12.03,360.00,7.00,0.00,30.32,M,10.00,M,CLR,M,M,M,M,M,M,M,M,M,M,M,M,M,M,79.79,KHTH 051835Z AUTO 36007KT 10SM CLR 28/M04 A3032 RMK A01,M
TMT,2024-09-05 18:35,-117.1971,39.4643,1749.34,77.40,28.80,16.72,0.00,0.00,0.00,30.43,M,10.00,M,CLR,M,M,M,M,M,M,M,M,M,M,M,M,M,M,77.40,KTMT 051835Z AUTO 00000KT 10SM CLR 25/M02 A3043 RMK AO2 T02521018,M
10U,2024-09-05 18:35,-116.1876,41.9532,1637.00,80.60,30.20,15.94,90.00,9.00,0.00,30.42,M,10.00,17.00,CLR,M,M,M,M,M,M,M,M,M,M,M,M,M,M,78.77,K10U 051835Z AUTO 09009G17KT 10SM CLR 27/M01 A3042 RMK AO2,M
05U,2024-09-05 18:50,-116.0051,39.6042,1811.23,78.80,30.20,16.90,0.00,0.00,0.00,30.46,M,10.00,M,CLR,M,M,M,M,M,M,M,M,M,M,M,M,M,M,78.80,K05U 051850Z AUTO 00000KT 10SM CLR 26/M01 A3046 RMK A01,M
HTH,2024-09-05 18:50,-118.6315,38.5448,1282.89,82.40,23.00,11.16,M,5.00,0.00,30.32,M,10.00,M,CLR,M,M,M,M,M,M,M,M,M,M,M,M,M,M,79.67,KHTH 051850Z AUTO VRB05KT 10SM CLR 28/M05 A3032 RMK A01,M
P68,2024-09-05 18:53,-116.0056,39.6014,1993.00,80.00,31.00,16.79,M,M,0.00,30.43,1022.90,M,M,M,M,M,M,M,M,M,M,M,M,M,M,M,M,M,78.49,KP68 051853Z AUTO 27/M01 A3043 RMK AO1 SLP229 T02671006,M
DRA,2024-09-05 18:53,-116.0278,36.6206,1009.00,M,M,M,100.00,9.00,0.00,30.17,M,10.00,14.00,CLR,M,M,M,M,M,M,M,M,M,M,M,M,M,M,M,KDRA 051853Z AUTO 10009G14KT 10SM CLR A3017 RMK AO2 SLPNO $,M
ELY,2024-09-05 18:53,-114.8453,39.2950,1909.00,76.00,31.00,19.16,10.00,7.00,0.00,30.48,1022.70,9.00,M,CLR,M,M,M,M,M,M,M,M,M,M,M,M,M,M,76.00,KELY 051853Z AUTO 01007KT 9SM CLR 24/M01 A3048 RMK AO2 SLP227 T02441006,M
VGT,2024-09-05 18:53,-115.1933,36.2111,667.00,99.00,34.00,10.41,170.00,3.00,0.00,30.10,1017.50,10.00,M,CLR,M,M,M,M,M,M,M,M,M,M,M,M,M,M,93.31,KVGT 051853Z 17003KT 10SM CLR 37/01 A3010 RMK AO2 SLP175 T03720011,M
LOL,2024-09-05 18:53,-118.5701,40.0684,1192.43,84.00,34.00,16.63,M,3.00,0.00,30.30,1023.10,10.00,M,CLR,M,M,M,M,M,M,M,M,M,M,M,M,M,M,81.16,KLOL 051853Z AUTO VRB03KT 10SM CLR 29/01 A3030 RMK AO2 SLP231 T02890011,M
BVU,2024-09-05 18:55,-114.8611,35.9475,671.00,98.60,30.20,9.04,40.00,11.00,0.00,30.08,M,10.00,M,CLR,M,M,M,M,M,M,M,M,M,M,M,M,M,M,92.46,KBVU 051855Z AUTO 04011KT 10SM CLR 37/M01 A3008 RMK AO2,M
RNO,2024-09-05 18:55,-119.7711,39.4839,1341.00,86.00,29.00,12.75,80.00,5.00,0.00,30.31,1020.80,10.00,M,CLR,M,M,M,M,M,M,M,M,M,M,M,M,M,M,82.59,KRNO 051855Z 08005KT 10SM CLR 30/M02 A3031 RMK AO2 SLP208 T03001017,M
LSV,2024-09-05 18:55,-115.0343,36.2362,570.00,101.00,22.00,5.98,60.00,16.00,0.00,30.04,1014.10,10.00,M,CLR,M,M,M,M,M,M,M,M,M,M,M,M,M,M,93.67,KLSV 051855Z AUTO 06016KT 10SM CLR 38/M06 A3004 RMK AO2 SLP141 T03831056 $,M
CXP,2024-09-05 18:55,-119.7326,39.1923,1431.00,84.20,24.80,11.35,0.00,0.00,0.00,30.35,M,10.00,M,CLR,M,M,M,M,M,M,M,M,M,M,M,M,M,M,81.00,KCXP 051855Z AUTO 00000KT 10SM CLR 29/M04 A3035 RMK AO2,M
INS,2024-09-05 18:55,-115.6733,36.5872,955.00,93.70,23.50,7.97,0.00,0.00,0.00,30.17,1015.70,10.00,M,CLR,M,M,M,M,M,M,M,M,M,M,M,M,M,M,87.83,KINS 051855Z AUTO 00000KT 10SM CLR 34/M05 A3017 RMK AO2 SLP157 T03431047,M
RTS,2024-09-05 18:55,-119.8764,39.6682,1539.00,84.20,23.00,10.53,110.00,7.00,0.00,30.36,M,10.00,M,CLR,M,M,M,M,M,M,M,M,M,M,M,M,M,M,80.88,KRTS 051855Z AUTO 11007KT 10SM CLR 29/M05 A3036 RMK AO2,M
MEV,2024-09-05 18:55,-119.7500,38.9963,1441.42,82.40,30.20,15.03,0.00,0.00,0.00,30.33,M,9.00,M,CLR,M,M,M,M,M,M,M,M,M,M,M,M,M,M,79.97,KMEV 051855Z AUTO 00000KT 9SM CLR 28/M01 A3033 RMK AO2,M
BAM,2024-09-05 18:55,-116.8743,40.5990,1382.36,86.00,33.80,15.48,40.00,4.00,0.00,30.36,M,10.00,M,CLR,M,M,M,M,M,M,M,M,M,M,M,M,M,M,82.66,KBAM 051855Z AUTO 04004KT 10SM CLR 30/01 A3036 RMK AO1,M
TMT,2024-09-05 18:55,-117.1971,39.4643,1749.34,80.00,30.20,16.25,0.00,0.00,0.00,30.42,M,10.00,M,CLR,M,M,M,M,M,M,M,M,M,M,M,M,M,M,78.46,KTMT 051855Z AUTO 00000KT 10SM CLR 27/M01 A3042 RMK AO2 T02671010,M
10U,2024-09-05 18:55,-116.1876,41.9532,1637.00,80.60,28.40,14.81,M,6.00,0.00,30.42,M,10.00,M,CLR,M,M,M,M,M,M,M,M,M,M,M,M,M,M,78.72,K10U 051855Z AUTO VRB06KT 10SM CLR 27/M02 A3042 RMK AO2,M
EKO,2024-09-05 18:56,-115.7860,40.8242,1367.00,81.00,32.00,16.92,M,3.00,0.00,30.40,1023.70,10.00,M,CLR,M,M,M,M,M,M,M,M,M,M,M,M,M,M,79.07,KEKO 051856Z AUTO VRB03KT 10SM CLR 27/00 A3040 RMK AO2 SLP237 T02720000,M
WMC,2024-09-05 18:56,-117.8072,40.9019,1315.00,87.00,33.00,14.52,30.00,4.00,0.00,30.33,1022.80,10.00,M,CLR,M,M,M,M,M,M,M,M,M,M,M,M,M,M,83.44,KWMC 051856Z AUTO 03004KT 10SM CLR 31/01 A3033 RMK AO2 SLP228 T03060006,M
HND,2024-09-05 18:56,-115.1344,35.9729,742.79,97.00,35.00,11.51,360.00,11.00,0.00,30.14,1018.90,10.00,M,CLR,M,M,M,M,M,M,M,M,M,M,M,M,M,M,91.79,KHND 051856Z 36011KT 10SM CLR 36/02 A3014 RMK AO2 SLP189 T03610017,M
TPH,2024-09-05 18:56,-117.0904,38.0505,1654.00,86.00,24.00,10.37,80.00,3.00,0.00,30.38,1020.10,10.00,M,CLR,M,M,M,M,M,M,M,M,M,M,M,M,M,M,82.21,KTPH 051856Z AUTO 08003KT 10SM CLR 30/M04 A3038 RMK AO2 SLP201 T03001044,M
LAS,2024-09-05 18:56,-115.1634,36.0719,663.00,98.00,33.00,10.31,80.00,6.00,0.00,30.11,1016.40,8.00,M,CLR,M,M,M,M,M,M,M,M,M,M,M,M,M,M,92.32,KLAS 051856Z 08006KT 8SM CLR 37/01 A3011 RMK AO2 SLP164 T03670006,M
NFL,2024-09-05 18:57,-118.7010,39.4166,1199.00,84.00,32.00,15.35,240.00,4.00,0.00,30.30,1021.90,7.00,M,CLR,M,M,M,M,M,M,M,M,M,M,M,M,M,M,81.13,KNFL 051857Z 24004KT 7SM CLR 29/00 A3030 RMK AO2 SLP219 T02890000,M
05U,2024-09-05 19:10,-116.0051,39.6042,1811.23,80.60,30.20,15.94,0.00,0.00,0.00,30.45,M,8.00,12.00,CLR,M,M,M,M,M,M,M,M,M,M,M,M,M,M,78.77,K05U 051910Z AUTO 00000G12KT 8SM CLR 27/M01 A3045 RMK A01,M
BVU,2024-09-05 19:15,-114.8611,35.9475,671.00,100.40,30.20,8.56,50.00,12.00,0.00,30.07,M,10.00,M,CLR,M,M,M,M,M,M,M,M,M,M,M,M,M,M,93.98,KBVU 051915Z AUTO 05012KT 10SM CLR 38/M01 A3007 RMK AO2,M
CXP,2024-09-05 19:15,-119.7326,39.1923,1431.00,84.20,26.60,12.23,90.00,7.00,0.00,30.34,M,10.00,M,CLR,M,M,M,M,M,M,M,M,M,M,M,M,M,M,81.13,KCXP 051915Z AUTO 09007KT 10SM CLR 29/M03 A3034 RMK AO2,M
RTS,2024-09-05 19:15,-119.8764,39.6682,1539.00,84.20,23.00,10.53,130.00,10.00,0.00,30.36,M,10.00,M,CLR,M,M,M,M,M,M,M,M,M,M,M,M,M,M,80.88,KRTS 051915Z AUTO 13010KT 10SM CLR 29/M05 A3036 RMK AO2,M
MEV,2024-09-05 19:15,-119.7500,38.9963,1441.42,82.40,28.40,13.96,0.00,0.00,0.00,30.32,M,8.00,M,CLR,M,M,M,M,M,M,M,M,M,M,M,M,M,M,79.94,KMEV 051915Z AUTO 00000KT 8SM CLR 28/M02 A3032 RMK AO2,M
BAM,2024-09-05 19:15,-116.8743,40.5990,1382.36,86.00,33.80,15.48,20.00,4.00,0.00,30.36,M,10.00,M,CLR,M,M,M,M,M,M,M,M,M,M,M,M,M,M,82.66,KBAM 051915Z AUTO 02004KT 10SM CLR 30/01 A3036 RMK AO1,M
HTH,2024-09-05 19:15,-118.6315,38.5448,1282.89,84.20,23.00,10.53,10.00,5.00,0.00,30.31,M,10.00,M,CLR,M,M,M,M,M,M,M,M,M,M,M,M,M,M,80.88,KHTH 051915Z AUTO 01005KT 10SM CLR 29/M05 A3031 RMK A01,M
TMT,2024-09-05 19:15,-117.1971,39.4643,1749.34,82.80,30.40,14.96,50.00,3.00,0.00,30.41,M,10.00,M,CLR,M,M,M,M,M,M,M,M,M,M,M,M,M,M,80.25,KTMT 051915Z AUTO 05003KT 10SM CLR 28/M01 A3041 RMK AO2 T02821009,M
10U,2024-09-05 19:15,-116.1876,41.9532,1637.00,82.40,28.40,13.96,140.00,7.00,0.00,30.41,M,10.00,15.00,CLR,M,M,M,M,M,M,M,M,M,M,M,M,M,M,79.94,K10U 051915Z AUTO 14007G15KT 090V170 10SM CLR 28/M02 A3041 RMK AO2,M
05U,2024-09-05 19:30,-116.0051,39.6042,1811.23,80.60,28.40,14.81,0.00,0.00,0.00,30.45,M,10.00,10.00,CLR,M,M,M,M,M,M,M,M,M,M,M,M,M,M,78.72,K05U 051930Z AUTO 00000G10KT 10SM CLR 27/M02 A3045 RMK A01,M
CXP,2024-09-05 19:35,-119.7326,39.1923,1431.00,86.00,24.80,10.72,M,6.00,0.00,30.33,M,10.00,M,CLR,M,M,M,M,M,M,M,M,M,M,M,M,M,M,82.26,KCXP 051935Z AUTO VRB06KT 10SM CLR 30/M04 A3033 RMK AO2,M
RTS,2024-09-05 19:35,-119.8764,39.6682,1539.00,86.00,21.20,9.21,120.00,11.00,0.00,30.35,M,10.00,M,CLR,M,M,M,M,M,M,M,M,M,M,M,M,M,M,82.04,KRTS 051935Z AUTO 12011KT 10SM CLR 30/M06 A3035 RMK AO2,M
MEV,2024-09-05 19:35,-119.7500,38.9963,1441.42,86.00,28.40,12.44,300.00,5.00,0.00,30.31,M,9.00,M,CLR,M,M,M,M,M,M,M,M,M,M,M,M,M,M,82.54,KMEV 051935Z AUTO 30005KT 9SM CLR 30/M02 A3031 RMK AO2,M
BAM,2024-09-05 19:35,-116.8743,40.5990,1382.36,86.00,33.80,15.48,360.00,3.00,0.00,30.35,M,10.00,M,CLR,M,M,M,M,M,M,M,M,M,M,M,M,M,M,82.66,KBAM 051935Z AUTO 36003KT 10SM CLR 30/01 A3035 RMK AO1,M
HTH,2024-09-05 19:35,-118.6315,38.5448,1282.89,84.20,23.00,10.53,M,3.00,0.00,30.30,M,10.00,10.00,CLR,M,M,M,M,M,M,M,M,M,M,M,M,M,M,80.88,KHTH 051935Z AUTO VRB03G10KT 10SM CLR 29/M05 A3030 RMK A01,M
TMT,2024-09-05 19:35,-117.1971,39.4643,1749.34,83.00,29.70,14.44,350.00,3.00,0.00,30.41,M,10.00,M,CLR,M,M,M,M,M,M,M,M,M,M,M,M,M,M,80.38,KTMT 051935Z AUTO 35003KT 10SM CLR 28/M01 A3041 RMK AO2 T02831013,M
10U,2024-09-05 19:35,-116.1876,41.9532,1637.00,82.40,28.40,13.96,70.00,7.00,0.00,30.41,M,10.00,13.00,CLR,M,M,M,M,M,M,M,M,M,M,M,M,M,M,79.94,K10U 051935Z AUTO 07007G13KT 050V110 10SM CLR 28/M02 A3041 RMK AO2,M
BVU,2024-09-05 19:35,-114.8611,35.9475,671.00,100.40,30.20,8.56,50.00,13.00,0.00,30.07,M,10.00,M,CLR,M,M,M,M,M,M,M,M,M,M,M,M,M,M,93.98,KBVU 051935Z AUTO 05013KT 10SM CLR 38/M01 A3007 RMK AO2,M
05U,2024-09-05 19:50,-116.0051,39.6042,1811.23,82.40,28.40,13.96,0.00,0.00,0.00,30.44,M,10.00,M,CLR,M,M,M,M,M,M,M,M,M,M,M,M,M,M,79.94,K05U 051950Z AUTO 00000KT 10SM CLR 28/M02 A3044 RMK A01,M
P68,2024-09-05 19:53,-116.0056,39.6014,1993.00,82.00,28.00,13.92,M,5.00,0.00,30.41,1022.60,M,M,M,M,M,M,M,M,M,M,M,M,M,M,M,M,M,79.66,KP68 051953Z AUTO VRB05KT 28/M02 A3041 RMK AO1 SLP226 T02781022,M
DRA,2024-09-05 19:53,-116.0278,36.6206,1009.00,100.00,65.00,32.11,130.00,12.00,0.00,30.15,1015.30,10.00,17.00,CLR,M,M,M,M,M,M,M,M,M,M,M,M,M,M,103.60,KDRA 051953Z AUTO 13012G17KT 10SM CLR 38/18 A3015 RMK AO2 SLP153 T03780183,M
ELY,2024-09-05 19:53,-114.8453,39.2950,1909.00,79.00,28.00,15.35,330.00,7.00,0.00,30.45,1022.30,10.00,M,CLR,M,M,M,M,M,M,M,M,M,M,M,M,M,M,79.00,KELY 051953Z AUTO 33007KT 10SM CLR 26/M02 A3045 RMK AO2 SLP223 T02611022,M
VGT,2024-09-05 19:53,-115.1933,36.2111,667.00,101.00,34.00,9.80,180.00,5.00,0.00,30.07,1016.60,10.00,M,CLR,M,M,M,M,M,M,M,M,M,M,M,M,M,M,95.01,KVGT 051953Z 18005KT 10SM CLR 38/01 A3007 RMK AO2 SLP166 T03830011,M
LOL,2024-09-05 19:53,-118.5701,40.0684,1192.43,87.00,32.00,13.94,M,3.00,0.00,30.28,1022.00,10.00,M,CLR,M,M,M,M,M,M,M,M,M,M,M,M,M,M,83.43,KLOL 051953Z AUTO VRB03KT 10SM CLR 31/00 A3028 RMK AO2 SLP220 T03060000,M
RNO,2024-09-05 19:55,-119.7711,39.4839,1341.00,88.00,28.00,11.48,M,4.00,0.00,30.29,1019.70,10.00,M,CLR,M,M,M,M,M,M,M,M,M,M,M,M,M,M,83.95,KRNO 051955Z VRB04KT 10SM CLR 31/M02 A3029 RMK AO2 SLP197 T03111022,M
LSV,2024-09-05 19:55,-115.0343,36.2362,570.00,102.70,23.00,5.93,60.00,13.00,0.00,30.02,1013.30,10.00,M,FEW,M,M,M,20000.00,M,M,M,M,M,M,M,M,M,M,95.17,KLSV 051955Z AUTO 06013KT 10SM FEW200 39/M05 A3002 RMK AO2 SLP133 T03931049 $,M
CXP,2024-09-05 19:55,-119.7326,39.1923,1431.00,87.80,24.80,10.12,M,6.00,0.00,30.33,M,10.00,M,CLR,M,M,M,M,M,M,M,M,M,M,M,M,M,M,83.56,KCXP 051955Z AUTO VRB06KT 10SM CLR 31/M04 A3033 RMK AO2,M
RTS,2024-09-05 19:55,-119.8764,39.6682,1539.00,86.00,21.20,9.21,130.00,9.00,0.00,30.35,M,10.00,M,CLR,M,M,M,M,M,M,M,M,M,M,M,M,M,M,82.04,KRTS 051955Z AUTO 13009KT 10SM CLR 30/M06 A3035 RMK AO2,M
MEV,2024-09-05 19:55,-119.7500,38.9963,1441.42,87.80,26.60,10.91,310.00,7.00,0.00,30.30,M,6.00,M,CLR,M,M,M,M,M,M,M,HZ,M,M,M,M,M,M,83.69,KMEV 051955Z AUTO 31007KT 270V330 6SM HZ CLR 31/M03 A3030 RMK AO2,M
BAM,2024-09-05 19:55,-116.8743,40.5990,1382.36,86.00,32.00,14.40,330.00,4.00,0.00,30.35,M,10.00,M,CLR,M,M,M,M,M,M,M,M,M,M,M,M,M,M,82.64,KBAM 051955Z AUTO 33004KT 10SM CLR 30/00 A3035 RMK AO1,M
HTH,2024-09-05 19:55,-118.6315,38.5448,1282.89,86.00,23.00,9.94,350.00,5.00,0.00,30.29,M,10.00,M,CLR,M,M,M,M,M,M,M,M,M,M,M,M,M,M,82.14,KHTH 051955Z AUTO 35005KT 10SM CLR 30/M05 A3029 RMK A01,M
TMT,2024-09-05 19:55,-117.1971,39.4643,1749.34,84.20,29.00,13.50,290.00,3.00,0.00,30.40,M,10.00,M,CLR,M,M,M,M,M,M,M,M,M,M,M,M,M,M,81.25,KTMT 051955Z AUTO 29003KT 10SM CLR 29/M02 A3040 RMK AO2 T02901017,M
10U,2024-09-05 19:55,-116.1876,41.9532,1637.00,82.40,26.60,12.97,M,3.00,0.00,30.40,M,10.00,10.00,CLR,M,M,M,M,M,M,M,M,M,M,M,M,M,M,79.92,K10U 051955Z AUTO VRB03G10KT 10SM CLR 28/M03 A3040 RMK AO2,M
INS,2024-09-05 19:55,-115.6733,36.5872,955.00,96.60,22.50,6.99,0.00,0.00,0.00,30.14,1014.70,10.00,M,CLR,M,M,M,M,M,M,M,M,M,M,M,M,M,M,90.04,KINS 051955Z AUTO 00000KT 10SM CLR 36/M05 A3014 RMK AO2 SLP147 T03591053,M
EKO,2024-09-05 19:56,-115.7860,40.8242,1367.00,85.00,31.00,14.28,10.00,5.00,0.00,30.38,1022.70,10.00,M,CLR,M,M,M,M,M,M,M,M,M,M,M,M,M,M,81.87,KEKO 051956Z AUTO 01005KT 10SM CLR 29/M01 A3038 RMK AO2 SLP227 T02941006,M
WMC,2024-09-05 19:56,-117.8072,40.9019,1315.00,88.00,30.00,12.46,M,4.00,0.00,30.31,1021.30,10.00,M,CLR,M,M,M,M,M,M,M,M,M,M,M,M,M,M,84.13,KWMC 051956Z AUTO VRB04KT 10SM CLR 31/M01 A3031 RMK AO2 SLP213 T03111011,M
HND,2024-09-05 19:56,-115.1344,35.9729,742.79,99.00,35.00,10.83,M,3.00,0.00,30.12,1018.10,10.00,M,CLR,M,M,M,M,M,M,M,M,M,M,M,M,M,M,93.47,KHND 051956Z VRB03KT 10SM CLR 37/02 A3012 RMK AO2 SLP181 T03720017,M
TPH,2024-09-05 19:56,-117.0904,38.0505,1654.00,88.00,24.00,9.73,160.00,6.00,0.00,30.36,1019.30,10.00,M,CLR,M,M,M,M,M,M,M,M,M,M,M,M,M,M,83.65,KTPH 051956Z AUTO 16006KT 10SM CLR 31/M04 A3036 RMK AO2 SLP193 T03111044,M
LAS,2024-09-05 19:56,-115.1634,36.0719,663.00,101.00,32.00,9.04,50.00,10.00,0.00,30.09,1015.50,7.00,15.00,CLR,M,M,M,M,M,M,M,M,M,M,M,M,M,M,94.72,KLAS 051956Z 05010G15KT 7SM CLR 38/00 A3009 RMK AO2 SLP155 T03830000,M
NFL,2024-09-05 19:57,-118.7010,39.4166,1199.00,88.00,30.00,12.46,0.00,0.00,0.00,30.28,1021.30,8.00,M,CLR,M,M,M,M,M,M,M,M,M,M,M,M,M,M,84.13,KNFL 051957Z 00000KT 8SM CLR 31/M01 A3028 RMK AO2 SLP213 HZ ALQDS T03111011,M
LAS,2024-09-05 20:07,-115.1634,36.0719,663.00,100.00,32.00,9.32,30.00,7.00,0.00,30.08,M,7.00,M,CLR,M,M,M,M,M,M,M,M,M,M,M,M,M,M,93.87,KLAS 052007Z 03007KT 7SM CLR 38/00 A3008 RMK AO2 T03780000,M
05U,2024-09-05 20:10,-116.0051,39.6042,1811.23,82.40,26.60,12.97,0.00,0.00,0.00,30.43,M,10.00,M,CLR,M,M,M,M,M,M,M,M,M,M,M,M,M,M,79.92,K05U 052010Z AUTO 00000KT 10SM CLR 28/M03 A3043 RMK A01,M
BVU,2024-09-05 20:15,-114.8611,35.9475,671.00,100.40,30.20,8.56,40.00,11.00,0.00,30.05,M,10.00,M,CLR,M,M,M,M,M,M,M,M,M,M,M,M,M,M,93.98,KBVU 052015Z AUTO 04011KT 10SM CLR 38/M01 A3005 RMK AO2,M
CXP,2024-09-05 20:15,-119.7326,39.1923,1431.00,87.80,24.80,10.12,50.00,5.00,0.00,30.32,M,9.00,M,CLR,M,M,M,M,M,M,M,M,M,M,M,M,M,M,83.56,KCXP 052015Z AUTO 05005KT 9SM CLR 31/M04 A3032 RMK AO2,M
RTS,2024-09-05 20:15,-119.8764,39.6682,1539.00,87.80,21.20,8.70,150.00,11.00,0.00,30.34,M,10.00,M,CLR,M,M,M,M,M,M,M,M,M,M,M,M,M,M,83.33,KRTS 052015Z AUTO 15011KT 10SM CLR 31/M06 A3034 RMK AO2,M
MEV,2024-09-05 20:15,-119.7500,38.9963,1441.42,87.80,26.60,10.91,330.00,7.00,0.00,30.30,M,9.00,M,CLR,M,M,M,M,M,M,M,M,M,M,M,M,M,M,83.69,KMEV 052015Z AUTO 33007KT 310V010 9SM CLR 31/M03 A3030 RMK AO2,M
BAM,2024-09-05 20:15,-116.8743,40.5990,1382.36,87.80,32.00,13.59,330.00,4.00,0.00,30.34,M,10.00,M,CLR,M,M,M,M,M,M,M,M,M,M,M,M,M,M,84.08,KBAM 052015Z AUTO 33004KT 10SM CLR 31/00 A3034 RMK AO1,M
HTH,2024-09-05 20:15,-118.6315,38.5448,1282.89,87.80,23.00,9.39,M,4.00,0.00,30.28,M,10.00,M,CLR,M,M,M,M,M,M,M,M,M,M,M,M,M,M,83.43,KHTH 052015Z AUTO VRB04KT 10SM CLR 31/M05 A3028 RMK A01,M
TMT,2024-09-05 20:15,-117.1971,39.4643,1749.34,84.40,29.00,13.42,40.00,4.00,0.00,30.40,M,10.00,M,CLR,M,M,M,M,M,M,M,M,M,M,M,M,M,M,81.40,KTMT 052015Z AUTO 04004KT 10SM CLR 29/M02 A3040 RMK AO2 T02911017,M
10U,2024-09-05 20:15,-116.1876,41.9532,1637.00,84.20,26.60,12.23,M,4.00,0.00,30.40,M,10.00,13.00,CLR,M,M,M,M,M,M,M,M,M,M,M,M,M,M,81.13,K10U 052015Z AUTO VRB04G13KT 10SM CLR 29/M03 A3040 RMK AO2,M
05U,2024-09-05 20:30,-116.0051,39.6042,1811.23,82.40,26.60,12.97,0.00,0.00,0.00,30.43,M,10.00,M,CLR,M,M,M,M,M,M,M,M,M,M,M,M,M,M,79.92,K05U 052030Z AUTO 00000KT 10SM CLR 28/M03 A3043 RMK A01,M
BVU,2024-09-05 20:35,-114.8611,35.9475,671.00,102.20,28.40,7.53,50.00,9.00,0.00,30.05,M,10.00,15.00,CLR,M,M,M,M,M,M,M,M,M,M,M,M,M,M,95.28,KBVU 052035Z AUTO 05009G15KT 10SM CLR 39/M02 A3005 RMK AO2,M
CXP,2024-09-05 20:35,-119.7326,39.1923,1431.00,89.60,24.80,9.56,70.00,8.00,0.00,30.31,M,10.00,M,CLR,M,M,M,M,M,M,M,M,M,M,M,M,M,M,84.88,KCXP 052035Z AUTO 07008KT 10SM CLR 32/M04 A3031 RMK AO2,M
RTS,2024-09-05 20:35,-119.8764,39.6682,1539.00,87.80,21.20,8.70,160.00,8.00,0.00,30.33,M,10.00,M,CLR,M,M,M,M,M,M,M,M,M,M,M,M,M,M,83.33,KRTS 052035Z AUTO 16008KT 10SM CLR 31/M06 A3033 RMK AO2,M
MEV,2024-09-05 20:35,-119.7500,38.9963,1441.42,87.80,26.60,10.91,M,5.00,0.00,30.29,M,6.00,11.00,CLR,M,M,M,M,M,M,M,HZ,M,M,M,M,M,M,83.69,KMEV 052035Z AUTO VRB05G11KT 6SM HZ CLR 31/M03 A3029 RMK AO2,M
BAM,2024-09-05 20:35,-116.8743,40.5990,1382.36,87.80,32.00,13.59,330.00,6.00,0.00,30.33,M,10.00,M,CLR,M,M,M,M,M,M,M,M,M,M,M,M,M,M,84.08,KBAM 052035Z AUTO 33006KT 10SM CLR 31/00 A3033 RMK AO1,M
HTH,2024-09-05 20:35,-118.6315,38.5448,1282.89,87.80,21.20,8.70,330.00,7.00,0.00,30.27,M,10.00,M,CLR,M,M,M,M,M,M,M,M,M,M,M,M,M,M,83.33,KHTH 052035Z AUTO 33007KT 300V010 10SM CLR 31/M06 A3027 RMK A01,M
TMT,2024-09-05 20:35,-117.1971,39.4643,1749.34,86.50,30.20,13.17,360.00,4.00,0.00,30.39,M,10.00,M,CLR,M,M,M,M,M,M,M,M,M,M,M,M,M,M,83.03,KTMT 052035Z AUTO 36004KT 10SM CLR 30/M01 A3039 RMK AO2 T03031010,M
10U,2024-09-05 20:35,-116.1876,41.9532,1637.00,84.20,26.60,12.23,M,5.00,0.00,30.39,M,9.00,14.00,CLR,M,M,M,M,M,M,M,M,M,M,M,M,M,M,81.13,K10U 052035Z AUTO VRB05G14KT 9SM CLR 29/M03 A3039 RMK AO2,M
05U,2024-09-05 20:50,-116.0051,39.6042,1811.23,84.20,24.80,11.35,0.00,0.00,0.00,30.42,M,10.00,10.00,CLR,M,M,M,M,M,M,M,M,M,M,M,M,M,M,81.00,K05U 052050Z AUTO 00000G10KT 10SM CLR 29/M04 A3042 RMK A01,M
P68,2024-09-05 20:53,-116.0056,39.6014,1993.00,85.00,25.00,11.16,20.00,6.00,0.00,30.39,1021.70,M,M,M,M,M,M,M,M,M,M,M,M,M,M,M,M,M,81.57,KP68 052053Z AUTO 02006KT 29/M04 A3039 RMK AO1 SLP217 T02941039 58015,M
DRA,2024-09-05 20:53,-116.0278,36.6206,1009.00,99.00,64.00,31.96,M,6.00,0.00,30.13,1014.50,10.00,15.00,CLR,M,M,M,M,M,M,M,M,M,M,M,M,M,M,101.72,KDRA 052053Z AUTO VRB06G15KT 10SM CLR 37/18 A3013 RMK AO2 SLP145 T03720178 58020,M
ELY,2024-09-05 20:53,-114.8453,39.2950,1909.00,81.00,24.00,12.18,M,3.00,0.00,30.43,1021.20,10.00,M,CLR,M,M,M,M,M,M,M,M,M,M,M,M,M,M,78.82,KELY 052053Z AUTO VRB03KT 10SM CLR 27/M04 A3043 RMK AO2 SLP212 T02721044 56017,M
VGT,2024-09-05 20:53,-115.1933,36.2111,667.00,103.00,34.00,9.23,130.00,6.00,0.00,30.05,1015.90,10.00,M,CLR,M,M,M,M,M,M,M,M,M,M,M,M,M,M,96.72,KVGT 052053Z 13006KT 10SM CLR 39/01 A3005 RMK AO2 SLP159 T03940011 56021,M
LOL,2024-09-05 20:53,-118.5701,40.0684,1192.43,89.00,29.00,11.59,0.00,0.00,0.00,30.26,1021.20,10.00,M,CLR,M,M,M,M,M,M,M,M,M,M,M,M,M,M,84.78,KLOL 052053Z AUTO 00000KT 10SM CLR 32/M02 A3026 RMK AO2 SLP212 T03171017 58017,M
BVU,2024-09-05 20:55,-114.8611,35.9475,671.00,100.40,28.40,7.95,40.00,10.00,0.00,30.04,M,10.00,17.00,CLR,M,M,M,M,M,M,M,M,M,M,M,M,M,M,93.77,KBVU 052055Z AUTO 04010G17KT 10SM CLR 38/M02 A3004 RMK AO2,M
RNO,2024-09-05 20:55,-119.7711,39.4839,1341.00,92.00,26.00,9.32,0.00,0.00,0.00,30.26,1018.70,10.00,M,CLR,M,M,M,M,M,M,M,M,M,M,M,M,M,M,86.76,KRNO 052055Z 00000KT 10SM CLR 33/M03 A3026 RMK AO2 SLP187 T03331033 58021,M
CXP,2024-09-05 20:55,-119.7326,39.1923,1431.00,89.60,24.80,9.56,60.00,10.00,0.00,30.30,M,8.00,M,CLR,M,M,M,M,M,M,M,M,M,M,M,M,M,M,84.88,KCXP 052055Z AUTO 06010KT 8SM CLR 32/M04 A3030 RMK AO2,M
RTS,2024-09-05 20:55,-119.8764,39.6682,1539.00,87.80,23.00,9.39,130.00,5.00,0.00,30.33,M,10.00,13.00,CLR,M,M,M,M,M,M,M,M,M,M,M,M,M,M,83.43,KRTS 052055Z AUTO 13005G13KT 10SM CLR 31/M05 A3033 RMK AO2,M
MEV,2024-09-05 20:55,-119.7500,38.9963,1441.42,89.60,26.60,10.30,290.00,6.00,0.00,30.28,M,8.00,M,CLR,M,M,M,M,M,M,M,M,M,M,M,M,M,M,85.02,KMEV 052055Z AUTO 29006KT 8SM CLR 32/M03 A3028 RMK AO2,M
BAM,2024-09-05 20:55,-116.8743,40.5990,1382.36,89.60,32.00,12.84,350.00,3.00,0.00,30.33,M,10.00,M,CLR,M,M,M,M,M,M,M,M,M,M,M,M,M,M,85.54,KBAM 052055Z AUTO 35003KT 10SM CLR 32/00 A3033 RMK AO1,M
HTH,2024-09-05 20:55,-118.6315,38.5448,1282.89,89.60,21.20,8.22,310.00,7.00,0.00,30.26,M,10.00,M,CLR,M,M,M,M,M,M,M,M,M,M,M,M,M,M,84.64,KHTH 052055Z AUTO 31007KT 10SM CLR 32/M06 A3026 RMK A01,M
TMT,2024-09-05 20:55,-117.1971,39.4643,1749.34,87.40,30.40,12.90,30.00,7.00,0.00,30.38,M,10.00,M,CLR,M,M,M,M,M,M,M,M,M,M,M,M,M,M,83.73,KTMT 052055Z AUTO 03007KT 10SM CLR 31/M01 A3038 RMK AO2 T03081009,M
10U,2024-09-05 20:55,-116.1876,41.9532,1637.00,86.00,26.60,11.55,240.00,14.00,0.00,30.37,M,10.00,22.00,CLR,M,M,M,M,M,M,M,M,M,M,M,M,M,M,82.39,K10U 052055Z AUTO 24014G22KT 190V260 10SM CLR 30/M03 A3037 RMK AO2,M
INS,2024-09-05 20:55,-115.6733,36.5872,955.00,99.70,21.00,5.97,0.00,0.00,0.00,30.12,1013.90,10.00,M,CLR,M,M,M,M,M,M,M,M,M,M,M,M,M,M,92.51,KINS 052055Z AUTO 00000KT 10SM CLR 38/M06 A3012 RMK AO2 SLP139 T03761061 57021,M
LSV,2024-09-05 20:55,-115.0343,36.2362,570.00,104.50,20.00,4.95,70.00,12.00,0.00,30.00,1012.60,10.00,M,FEW,FEW,M,M,18000.00,20000.00,M,M,M,M,M,M,M,M,M,96.41,KLSV 052055Z AUTO 07012KT 10SM FEW180 FEW200 40/M07 A3000 RMK AO2 SLP126 T04031066 57021 $,M
EKO,2024-09-05 20:56,-115.7860,40.8242,1367.00,87.00,30.00,12.86,320.00,4.00,0.00,30.36,1022.40,10.00,M,CLR,M,M,M,M,M,M,M,M,M,M,M,M,M,M,83.40,KEKO 052056Z AUTO 32004KT 10SM CLR 31/M01 A3036 RMK AO2 SLP224 T03061011 58017,M
WMC,2024-09-05 20:56,-117.8072,40.9019,1315.00,90.00,28.00,10.78,70.00,3.00,0.00,30.29,1020.60,10.00,M,CLR,M,M,M,M,M,M,M,M,M,M,M,M,M,M,85.43,KWMC 052056Z AUTO 07003KT 10SM CLR 32/M02 A3029 RMK AO2 SLP206 T03221022 58016,M
HND,2024-09-05 20:56,-115.1344,35.9729,742.79,101.00,35.00,10.20,M,6.00,0.00,30.10,1017.50,10.00,14.00,CLR,M,M,M,M,M,M,M,M,M,M,M,M,M,M,95.17,KHND 052056Z VRB06G14KT 10SM CLR 38/02 A3010 RMK AO2 SLP175 T03830017 58019,M
TPH,2024-09-05 20:56,-117.0904,38.0505,1654.00,89.00,27.00,10.67,M,3.00,0.00,30.34,1019.10,10.00,M,CLR,M,M,M,M,M,M,M,M,M,M,M,M,M,M,84.60,KTPH 052056Z AUTO VRB03KT 10SM CLR 32/M03 A3034 RMK AO2 SLP191 T03171028 56016,M
LAS,2024-09-05 20:56,-115.1634,36.0719,663.00,102.00,31.00,8.43,M,6.00,0.00,30.07,1015.00,7.00,M,CLR,M,M,M,M,M,M,M,M,M,M,M,M,M,M,95.43,KLAS 052056Z VRB06KT 7SM CLR 39/M01 A3007 RMK AO2 SLP150 T03891006 58019,M
NFL,2024-09-05 20:57,-118.7010,39.4166,1199.00,90.00,32.00,12.68,350.00,6.00,0.00,30.25,1020.60,8.00,M,CLR,M,M,M,M,M,M,M,M,M,M,M,M,M,M,85.84,KNFL 052057Z 35006KT 8SM CLR 32/00 A3025 RMK AO2 SLP206 T03220000 58018,M
05U,2024-09-05 21:10,-116.0051,39.6042,1811.23,84.20,26.60,12.23,10.00,9.00,0.00,30.42,M,10.00,M,CLR,M,M,M,M,M,M,M,M,M,M,M,M,M,M,81.13,K05U 052110Z AUTO 01009KT 10SM CLR 29/M03 A3042 RMK A01,M
BVU,2024-09-05 21:15,-114.8611,35.9475,671.00,102.20,28.40,7.53,40.00,6.00,0.00,30.03,M,10.00,13.00,CLR,M,M,M,M,M,M,M,M,M,M,M,M,M,M,95.28,KBVU 052115Z AUTO 04006G13KT 10SM CLR 39/M02 A3003 RMK AO2,M
CXP,2024-09-05 21:15,-119.7326,39.1923,1431.00,91.40,26.60,9.74,70.00,12.00,0.00,30.29,M,9.00,M,CLR,M,M,M,M,M,M,M,M,M,M,M,M,M,M,86.36,KCXP 052115Z AUTO 07012KT 9SM CLR 33/M03 A3029 RMK AO2,M
RTS,2024-09-05 21:15,-119.8764,39.6682,1539.00,89.60,23.00,8.87,100.00,7.00,0.00,30.32,M,10.00,13.00,CLR,M,M,M,M,M,M,M,M,M,M,M,M,M,M,84.75,KRTS 052115Z AUTO 10007G13KT 10SM CLR 32/M05 A3032 RMK AO2,M
MEV,2024-09-05 21:15,-119.7500,38.9963,1441.42,91.40,26.60,9.74,M,5.00,0.00,30.27,M,10.00,11.00,CLR,M,M,M,M,M,M,M,M,M,M,M,M,M,M,86.36,KMEV 052115Z AUTO VRB05G11KT 10SM CLR 33/M03 A3027 RMK AO2,M
BAM,2024-09-05 21:15,-116.8743,40.5990,1382.36,87.80,30.20,12.64,0.00,0.00,0.00,30.32,M,10.00,M,CLR,M,M,M,M,M,M,M,M,M,M,M,M,M,M,84.01,KBAM 052115Z AUTO 00000KT 10SM CLR 31/M01 A3032 RMK AO1,M
HTH,2024-09-05 21:15,-118.6315,38.5448,1282.89,89.60,21.20,8.22,320.00,7.00,0.00,30.25,M,10.00,M,CLR,M,M,M,M,M,M,M,M,M,M,M,M,M,M,84.64,KHTH 052115Z AUTO 32007KT 10SM CLR 32/M06 A3025 RMK A01,M
TMT,2024-09-05 21:15,-117.1971,39.4643,1749.34,87.00,29.30,12.50,110.00,5.00,0.00,30.37,M,10.00,M,CLR,M,M,M,M,M,M,M,M,M,M,M,M,M,M,83.34,KTMT 052115Z AUTO 11005KT 10SM CLR 31/M01 A3037 RMK AO2 T03061015,M
10U,2024-09-05 21:15,-116.1876,41.9532,1637.00,86.00,24.80,10.72,M,4.00,0.00,30.38,M,10.00,M,CLR,M,M,M,M,M,M,M,M,M,M,M,M,M,M,82.26,K10U 052115Z AUTO VRB04KT 10SM CLR 30/M04 A3038 RMK AO2,M
05U,2024-09-05 21:30,-116.0051,39.6042,1811.23,84.20,26.60,12.23,0.00,0.00,0.00,30.41,M,10.00,10.00,CLR,M,M,M,M,M,M,M,M,M,M,M,M,M,M,81.13,K05U 052130Z AUTO 00000G10KT 10SM CLR 29/M03 A3041 RMK A01,M
BVU,2024-09-05 21:35,-114.8611,35.9475,671.00,102.20,28.40,7.53,50.00,9.00,0.00,30.02,M,10.00,M,CLR,M,M,M,M,M,M,M,M,M,M,M,M,M,M,95.28,KBVU 052135Z AUTO 05009KT 10SM CLR 39/M02 A3002 RMK AO2,M
CXP,2024-09-05 21:35,-119.7326,39.1923,1431.00,91.40,26.60,9.74,80.00,7.00,0.00,30.28,M,10.00,17.00,CLR,M,M,M,M,M,M,M,M,M,M,M,M,M,M,86.36,KCXP 052135Z AUTO 08007G17KT 10SM CLR 33/M03 A3028 RMK AO2,M
RTS,2024-09-05 21:35,-119.8764,39.6682,1539.00,87.80,23.00,9.39,90.00,7.00,0.00,30.31,M,10.00,13.00,CLR,M,M,M,M,M,M,M,M,M,M,M,M,M,M,83.43,KRTS 052135Z AUTO 09007G13KT 10SM CLR 31/M05 A3031 RMK AO2,M
MEV,2024-09-05 21:35,-119.7500,38.9963,1441.42,91.40,28.40,10.48,310.00,10.00,0.00,30.26,M,8.00,M,CLR,M,M,M,M,M,M,M,M,M,M,M,M,M,M,86.53,KMEV 052135Z AUTO 31010KT 8SM CLR 33/M02 A3026 RMK AO2,M
BAM,2024-09-05 21:35,-116.8743,40.5990,1382.36,89.60,32.00,12.84,10.00,3.00,0.00,30.32,M,10.00,M,CLR,M,M,M,M,M,M,M,M,M,M,M,M,M,M,85.54,KBAM 052135Z AUTO 01003KT 10SM CLR 32/00 A3032 RMK AO1,M
HTH,2024-09-05 21:35,-118.6315,38.5448,1282.89,91.40,21.20,7.77,340.00,6.00,0.00,30.24,M,10.00,M,CLR,M,M,M,M,M,M,M,M,M,M,M,M,M,M,85.96,KHTH 052135Z AUTO 34006KT 10SM CLR 33/M06 A3024 RMK A01,M
TMT,2024-09-05 21:35,-117.1971,39.4643,1749.34,87.00,28.60,12.15,0.00,0.00,0.00,30.36,M,10.00,M,CLR,M,M,M,M,M,M,M,M,M,M,M,M,M,M,83.27,KTMT 052135Z AUTO 00000KT 10SM CLR 31/M02 A3036 RMK AO2 T03061019,M
10U,2024-09-05 21:35,-116.1876,41.9532,1637.00,87.80,24.80,10.12,270.00,7.00,0.00,30.37,M,10.00,M,CLR,M,M,M,M,M,M,M,M,M,M,M,M,M,M,83.56,K10U 052135Z AUTO 27007KT 240V340 10SM CLR 31/M04 A3037 RMK AO2,M
05U,2024-09-05 21:50,-116.0051,39.6042,1811.23,86.00,26.60,11.55,20.00,8.00,0.00,30.40,M,10.00,M,CLR,M,M,M,M,M,M,M,M,M,M,M,M,M,M,82.39,K05U 052150Z AUTO 02008KT 350V050 10SM CLR 30/M03 A3040 RMK A01,M
P68,2024-09-05 21:53,-116.0056,39.6014,1993.00,86.00,26.00,11.27,40.00,8.00,0.00,30.37,1021.10,M,M,M,M,M,M,M,M,M,M,M,M,M,M,M,M,M,82.35,KP68 052153Z AUTO 04008KT 30/M03 A3037 RMK AO1 SLP211 T03001033,M
DRA,2024-09-05 21:53,-116.0278,36.6206,1009.00,101.00,66.00,32.26,190.00,6.00,0.00,30.10,1013.20,10.00,M,CLR,M,M,M,M,M,M,M,M,M,M,M,M,M,M,105.56,KDRA 052153Z AUTO 19006KT 10SM CLR 38/19 A3010 RMK AO2 SLP132 T03830189,M
ELY,2024-09-05 21:53,-114.8453,39.2950,1909.00,84.00,25.00,11.52,40.00,12.00,0.00,30.41,1020.90,10.00,M,CLR,M,M,M,M,M,M,M,M,M,M,M,M,M,M,80.88,KELY 052153Z AUTO 04012KT 10SM CLR 29/M04 A3041 RMK AO2 SLP209 T02891039,M
VGT,2024-09-05 21:53,-115.1933,36.2111,667.00,104.00,34.00,8.96,100.00,3.00,0.00,30.02,1014.90,10.00,M,CLR,M,M,M,M,M,M,M,M,M,M,M,M,M,M,97.58,KVGT 052153Z 10003KT 10SM CLR 40/01 A3002 RMK AO2 SLP149 T04000011,M
LOL,2024-09-05 21:53,-118.5701,40.0684,1192.43,91.00,28.00,10.44,M,3.00,0.00,30.23,1020.60,10.00,M,CLR,M,M,M,M,M,M,M,M,M,M,M,M,M,M,86.19,KLOL 052153Z AUTO VRB03KT 10SM CLR 33/M02 A3023 RMK AO2 SLP206 T03281022,M
BVU,2024-09-05 21:55,-114.8611,35.9475,671.00,104.00,28.40,7.14,40.00,8.00,0.00,30.01,M,10.00,M,CLR,M,M,M,M,M,M,M,M,M,M,M,M,M,M,96.81,KBVU 052155Z AUTO 04008KT 10SM CLR 40/M02 A3001 RMK AO2,M
RNO,2024-09-05 21:55,-119.7711,39.4839,1341.00,93.00,26.00,9.04,M,3.00,0.00,30.24,1017.80,10.00,M,FEW,M,M,M,10000.00,M,M,M,M,M,M,M,M,M,M,87.51,KRNO 052155Z VRB03KT 10SM FEW100 34/M03 A3024 RMK AO2 SLP178 T03391033,M
LSV,2024-09-05 21:55,-115.0343,36.2362,570.00,105.40,20.70,4.97,70.00,12.00,0.00,29.97,1011.50,10.00,M,CLR,M,M,M,M,M,M,M,M,M,M,M,M,M,M,97.21,KLSV 052155Z AUTO 07012KT 10SM CLR 41/M06 A2997 RMK AO2 SLP115 T04081063 $,M
CXP,2024-09-05 21:55,-119.7326,39.1923,1431.00,91.40,26.60,9.74,90.00,11.00,0.00,30.27,M,10.00,17.00,CLR,M,M,M,M,M,M,M,M,M,M,M,M,M,M,86.36,KCXP 052155Z AUTO 09011G17KT 10SM CLR 33/M03 A3027 RMK AO2,M
RTS,2024-09-05 21:55,-119.8764,39.6682,1539.00,89.60,23.00,8.87,110.00,12.00,0.00,30.30,M,10.00,M,CLR,M,M,M,M,M,M,M,M,M,M,M,M,M,M,84.75,KRTS 052155Z AUTO 11012KT 10SM CLR 32/M05 A3030 RMK AO2,M
MEV,2024-09-05 21:55,-119.7500,38.9963,1441.42,91.40,28.40,10.48,M,6.00,0.00,30.25,M,9.00,M,CLR,M,M,M,M,M,M,M,M,M,M,M,M,M,M,86.53,KMEV 052155Z AUTO VRB06KT 240V300 9SM CLR 33/M02 A3025 RMK AO2,M
BAM,2024-09-05 21:55,-116.8743,40.5990,1382.36,91.40,32.00,12.14,10.00,8.00,0.00,30.31,M,10.00,M,CLR,M,M,M,M,M,M,M,M,M,M,M,M,M,M,86.91,KBAM 052155Z AUTO 01008KT 10SM CLR 33/00 A3031 RMK AO1,M
HTH,2024-09-05 21:55,-118.6315,38.5448,1282.89,91.40,21.20,7.77,330.00,9.00,0.00,30.23,M,10.00,M,CLR,M,M,M,M,M,M,M,M,M,M,M,M,M,M,85.96,KHTH 052155Z AUTO 33009KT 10SM CLR 33/M06 A3023 RMK A01,M
TMT,2024-09-05 21:55,-117.1971,39.4643,1749.34,87.30,28.00,11.74,350.00,3.00,0.00,30.35,M,10.00,M,CLR,M,M,M,M,M,M,M,M,M,M,M,M,M,M,83.44,KTMT 052155Z AUTO 35003KT 10SM CLR 31/M02 A3035 RMK AO2 T03071023,M
10U,2024-09-05 21:55,-116.1876,41.9532,1637.00,86.00,24.80,10.72,0.00,0.00,0.00,30.36,M,10.00,M,CLR,M,M,M,M,M,M,M,M,M,M,M,M,M,M,82.26,K10U 052155Z AUTO 00000KT 10SM CLR 30/M04 A3036 RMK AO2,M
INS,2024-09-05 21:55,-115.6733,36.5872,955.00,101.00,22.00,5.98,290.00,5.00,0.00,30.09,1013.00,10.00,M,CLR,M,M,M,M,M,M,M,M,M,M,M,M,M,M,93.67,KINS 052155Z AUTO 29005KT 10SM CLR 38/M05 A3009 RMK AO2 SLP130 T03841055,M
EKO,2024-09-05 21:56,-115.7860,40.8242,1367.00,87.00,26.00,10.91,260.00,5.00,0.00,30.33,1022.10,10.00,M,CLR,M,M,M,M,M,M,M,M,M,M,M,M,M,M,83.06,KEKO 052156Z AUTO 26005KT 10SM CLR 31/M03 A3033 RMK AO2 SLP221 T03061033,M
WMC,2024-09-05 21:56,-117.8072,40.9019,1315.00,94.00,27.00,9.13,330.00,7.00,0.00,30.27,1020.20,10.00,M,CLR,M,M,M,M,M,M,M,M,M,M,M,M,M,M,88.36,KWMC 052156Z AUTO 33007KT 300V010 10SM CLR 34/M03 A3027 RMK AO2 SLP202 T03441028,M
HND,2024-09-05 21:56,-115.1344,35.9729,742.79,103.00,35.00,9.60,80.00,10.00,0.00,30.07,1016.30,10.00,15.00,CLR,M,M,M,M,M,M,M,M,M,M,M,M,M,M,96.89,KHND 052156Z 08010G15KT 10SM CLR 39/02 A3007 RMK AO2 SLP163 T03940017,M
TPH,2024-09-05 21:56,-117.0904,38.0505,1654.00,91.00,28.00,10.44,130.00,7.00,0.00,30.31,1017.90,10.00,M,CLR,M,M,M,M,M,M,M,M,M,M,M,M,M,M,86.19,KTPH 052156Z AUTO 13007KT 10SM CLR 33/M02 A3031 RMK AO2 SLP179 T03281022,M
LAS,2024-09-05 21:56,-115.1634,36.0719,663.00,104.00,32.00,8.27,20.00,10.00,0.00,30.03,1013.60,7.00,M,CLR,M,M,M,M,M,M,M,M,M,M,M,M,M,M,97.28,KLAS 052156Z 02010KT 7SM CLR 40/00 A3003 RMK AO2 SLP136 T04000000,M
NFL,2024-09-05 21:57,-118.7010,39.4166,1199.00,93.00,30.00,10.65,20.00,6.00,0.00,30.23,1019.70,8.00,M,CLR,M,M,M,M,M,M,M,M,M,M,M,M,M,M,87.91,KNFL 052157Z 02006KT 8SM CLR 34/M01 A3023 RMK AO2 SLP197 T03391011,M
05U,2024-09-05 22:10,-116.0051,39.6042,1811.23,86.00,24.80,10.72,40.00,9.00,0.00,30.39,M,10.00,M,CLR,M,M,M,M,M,M,M,M,M,M,M,M,M,M,82.26,K05U 052210Z AUTO 04009KT 350V050 10SM CLR 30/M04 A3039 RMK A01,M
BVU,2024-09-05 22:15,-114.8611,35.9475,671.00,104.00,26.60,6.63,10.00,10.00,0.00,30.00,M,10.00,M,CLR,M,M,M,M,M,M,M,M,M,M,M,M,M,M,96.60,KBVU 052215Z AUTO 01010KT 10SM CLR 40/M03 A3000 RMK AO2,M
CXP,2024-09-05 22:15,-119.7326,39.1923,1431.00,91.40,26.60,9.74,100.00,8.00,0.00,30.26,M,10.00,15.00,CLR,M,M,M,M,M,M,M,M,M,M,M,M,M,M,86.36,KCXP 052215Z AUTO 10008G15KT 10SM CLR 33/M03 A3026 RMK AO2,M
RTS,2024-09-05 22:15,-119.8764,39.6682,1539.00,89.60,23.00,8.87,100.00,10.00,0.00,30.29,M,10.00,M,CLR,M,M,M,M,M,M,M,M,M,M,M,M,M,M,84.75,KRTS 052215Z AUTO 10010KT 10SM CLR 32/M05 A3029 RMK AO2,M
MEV,2024-09-05 22:15,-119.7500,38.9963,1441.42,91.40,28.40,10.48,290.00,7.00,0.00,30.24,M,10.00,M,CLR,M,M,M,M,M,M,M,M,M,M,M,M,M,M,86.53,KMEV 052215Z AUTO 29007KT 260V320 10SM CLR 33/M02 A3024 RMK AO2,M
BAM,2024-09-05 22:15,-116.8743,40.5990,1382.36,91.40,32.00,12.14,350.00,8.00,0.00,30.30,M,10.00,M,CLR,M,M,M,M,M,M,M,M,M,M,M,M,M,M,86.91,KBAM 052215Z AUTO 35008KT 10SM CLR 33/00 A3030 RMK AO1,M
HTH,2024-09-05 22:15,-118.6315,38.5448,1282.89,91.40,21.20,7.77,310.00,9.00,0.00,30.22,M,10.00,M,CLR,M,M,M,M,M,M,M,M,M,M,M,M,M,M,85.96,KHTH 052215Z AUTO 31009KT 10SM CLR 33/M06 A3022 RMK A01,M
TMT,2024-09-05 22:15,-117.1971,39.4643,1749.34,87.30,27.30,11.40,340.00,5.00,0.00,30.35,M,10.00,M,CLR,M,M,M,M,M,M,M,M,M,M,M,M,M,M,83.38,KTMT 052215Z AUTO 34005KT 10SM CLR 31/M03 A3035 RMK AO2 T03071026,M
10U,2024-09-05 22:15,-116.1876,41.9532,1637.00,87.80,24.80,10.12,M,5.00,0.00,30.35,M,10.00,M,CLR,M,M,M,M,M,M,M,M,M,M,M,M,M,M,83.56,K10U 052215Z AUTO VRB05KT 10SM CLR 31/M04 A3035 RMK AO2,M
05U,2024-09-05 22:30,-116.0051,39.6042,1811.23,86.00,26.60,11.55,30.00,8.00,0.00,30.39,M,10.00,14.00,CLR,M,M,M,M,M,M,M,M,M,M,M,M,M,M,82.39,K05U 052230Z AUTO 03008G14KT 10SM CLR 30/M03 A3039 RMK A01,M
BVU,2024-09-05 22:35,-114.8611,35.9475,671.00,104.00,28.40,7.14,20.00,13.00,0.00,29.99,M,10.00,M,CLR,M,M,M,M,M,M,M,M,M,M,M,M,M,M,96.81,KBVU 052235Z AUTO 02013KT 10SM CLR 40/M02 A2999 RMK AO2,M
CXP,2024-09-05 22:35,-119.7326,39.1923,1431.00,91.40,26.60,9.74,30.00,7.00,0.00,30.26,M,10.00,16.00,CLR,M,M,M,M,M,M,M,M,M,M,M,M,M,M,86.36,KCXP 052235Z AUTO 03007G16KT 010V070 10SM CLR 33/M03 A3026 RMK AO2,M
RTS,2024-09-05 22:35,-119.8764,39.6682,1539.00,89.60,21.20,8.22,100.00,6.00,0.00,30.29,M,10.00,13.00,CLR,M,M,M,M,M,M,M,M,M,M,M,M,M,M,84.64,KRTS 052235Z AUTO 10006G13KT 10SM CLR 32/M06 A3029 RMK AO2,M
MEV,2024-09-05 22:35,-119.7500,38.9963,1441.42,93.20,28.40,9.91,M,6.00,0.00,30.24,M,10.00,M,CLR,M,M,M,M,M,M,M,M,M,M,M,M,M,M,87.89,KMEV 052235Z AUTO VRB06KT 10SM CLR 34/M02 A3024 RMK AO2,M
BAM,2024-09-05 22:35,-116.8743,40.5990,1382.36,89.60,32.00,12.84,340.00,5.00,0.00,30.29,M,10.00,M,CLR,M,M,M,M,M,M,M,M,M,M,M,M,M,M,85.54,KBAM 052235Z AUTO 34005KT 10SM CLR 32/00 A3029 RMK AO1,M
HTH,2024-09-05 22:35,-118.6315,38.5448,1282.89,93.20,23.00,7.92,330.00,9.00,0.00,30.21,M,10.00,M,CLR,M,M,M,M,M,M,M,M,M,M,M,M,M,M,87.42,KHTH 052235Z AUTO 33009KT 10SM CLR 34/M05 A3021 RMK A01,M
TMT,2024-09-05 22:35,-117.1971,39.4643,1749.34,88.00,27.00,11.02,310.00,6.00,0.00,30.34,M,10.00,M,CLR,M,M,M,M,M,M,M,M,M,M,M,M,M,M,83.87,KTMT 052235Z AUTO 31006KT 10SM CLR 31/M03 A3034 RMK AO2 T03121027,M
10U,2024-09-05 22:35,-116.1876,41.9532,1637.00,86.00,24.80,10.72,M,5.00,0.00,30.35,M,10.00,13.00,CLR,M,M,M,M,M,M,M,M,M,M,M,M,M,M,82.26,K10U 052235Z AUTO VRB05G13KT 10SM CLR 30/M04 A3035 RMK AO2,M
05U,2024-09-05 22:50,-116.0051,39.6042,1811.23,86.00,24.80,10.72,20.00,9.00,0.00,30.38,M,10.00,M,CLR,M,M,M,M,M,M,M,M,M,M,M,M,M,M,82.26,K05U 052250Z AUTO 02009KT 10SM CLR 30/M04 A3038 RMK A01,M
P68,2024-09-05 22:53,-116.0056,39.6014,1993.00,87.00,25.00,10.47,40.00,7.00,0.00,30.35,1020.30,M,16.00,M,M,M,M,M,M,M,M,M,M,M,M,M,M,M,82.99,KP68 052253Z AUTO 04007G16KT 31/M04 A3035 RMK AO1 SLP203 T03061039,M
DRA,2024-09-05 22:53,-116.0278,36.6206,1009.00,101.00,64.00,30.09,280.00,7.00,0.00,30.08,1012.70,10.00,M,CLR,M,M,M,M,M,M,M,M,M,M,M,M,M,M,104.11,KDRA 052253Z AUTO 28007KT 10SM CLR 38/18 A3008 RMK AO2 SLP127 T03830178,M
ELY,2024-09-05 22:53,-114.8453,39.2950,1909.00,86.00,21.00,9.13,20.00,8.00,0.00,30.39,1020.20,10.00,M,CLR,M,M,M,M,M,M,M,M,M,M,M,M,M,M,82.02,KELY 052253Z AUTO 02008KT 10SM CLR 30/M06 A3039 RMK AO2 SLP202 T03001061,M
VGT,2024-09-05 22:53,-115.1933,36.2111,667.00,107.00,34.00,8.20,90.00,6.00,0.00,30.00,1014.10,10.00,M,CLR,M,M,M,M,M,M,M,M,M,M,M,M,M,M,100.18,KVGT 052253Z 09006KT 10SM CLR 42/01 A3000 RMK AO2 SLP141 T04170011,M
LOL,2024-09-05 22:53,-118.5701,40.0684,1192.43,94.00,28.00,9.51,90.00,4.00,0.00,30.21,1019.70,10.00,M,CLR,M,M,M,M,M,M,M,M,M,M,M,M,M,M,88.46,KLOL 052253Z AUTO 09004KT 10SM CLR 34/M02 A3021 RMK AO2 SLP197 T03441022,M
BVU,2024-09-05 22:55,-114.8611,35.9475,671.00,104.00,28.40,7.14,40.00,9.00,0.00,29.98,M,10.00,15.00,CLR,M,M,M,M,M,M,M,M,M,M,M,M,M,M,96.81,KBVU 052255Z AUTO 04009G15KT 10SM CLR 40/M02 A2998 RMK AO2,M
RNO,2024-09-05 22:55,-119.7711,39.4839,1341.00,94.00,27.00,9.13,100.00,8.00,0.00,30.21,1017.10,10.00,M,FEW,M,M,M,10000.00,M,M,M,M,M,M,M,M,M,M,88.36,KRNO 052255Z 10008KT 10SM FEW100 34/M03 A3021 RMK AO2 SLP171 T03441028,M
CXP,2024-09-05 22:55,-119.7326,39.1923,1431.00,91.40,26.60,9.74,120.00,5.00,0.00,30.25,M,10.00,M,CLR,M,M,M,M,M,M,M,M,M,M,M,M,M,M,86.36,KCXP 052255Z AUTO 12005KT 10SM CLR 33/M03 A3025 RMK AO2,M
RTS,2024-09-05 22:55,-119.8764,39.6682,1539.00,89.60,21.20,8.22,0.00,0.00,0.00,30.28,M,10.00,11.00,CLR,M,M,M,M,M,M,M,M,M,M,M,M,M,M,84.64,KRTS 052255Z AUTO 00000G11KT 10SM CLR 32/M06 A3028 RMK AO2,M
MEV,2024-09-05 22:55,-119.7500,38.9963,1441.42,93.20,28.40,9.91,280.00,3.00,0.00,30.23,M,10.00,10.00,CLR,M,M,M,M,M,M,M,M,M,M,M,M,M,M,87.89,KMEV 052255Z AUTO 28003G10KT 10SM CLR 34/M02 A3023 RMK AO2,M
BAM,2024-09-05 22:55,-116.8743,40.5990,1382.36,91.40,32.00,12.14,340.00,6.00,0.00,30.29,M,10.00,M,CLR,M,M,M,M,M,M,M,M,M,M,M,M,M,M,86.91,KBAM 052255Z AUTO 34006KT 10SM CLR 33/00 A3029 RMK AO1,M
HTH,2024-09-05 22:55,-118.6315,38.5448,1282.89,93.20,23.00,7.92,330.00,11.00,0.00,30.21,M,10.00,M,CLR,M,M,M,M,M,M,M,M,M,M,M,M,M,M,87.42,KHTH 052255Z AUTO 33011KT 10SM CLR 34/M05 A3021 RMK A01,M
TMT,2024-09-05 22:55,-117.1971,39.4643,1749.34,89.00,28.20,11.21,360.00,4.00,0.00,30.34,M,10.00,M,CLR,M,M,M,M,M,M,M,M,M,M,M,M,M,M,84.71,KTMT 052255Z AUTO 36004KT 10SM CLR 32/M02 A3034 RMK AO2 T03161021,M
10U,2024-09-05 22:55,-116.1876,41.9532,1637.00,86.00,24.80,10.72,M,6.00,0.00,30.34,M,10.00,M,CLR,M,M,M,M,M,M,M,M,M,M,M,M,M,M,82.26,K10U 052255Z AUTO VRB06KT 10SM CLR 30/M04 A3034 RMK AO2,M
INS,2024-09-05 22:55,-115.6733,36.5872,955.00,101.00,22.00,5.98,40.00,4.00,0.00,30.07,1012.30,10.00,M,CLR,M,M,M,M,M,M,M,M,M,M,M,M,M,M,93.67,KINS 052255Z AUTO 04004KT 10SM CLR 38/M06 A3007 RMK AO2 SLP123 T03831056,M
LSV,2024-09-05 22:55,-115.0343,36.2362,570.00,106.30,16.00,3.95,60.00,12.00,0.00,29.94,1010.50,10.00,M,CLR,M,M,M,M,M,M,M,M,M,M,M,M,M,M,97.60,KLSV 052255Z AUTO 06012KT 10SM CLR 41/M09 A2994 RMK AO2 SLP105 T04131088 $,M
EKO,2024-09-05 22:56,-115.7860,40.8242,1367.00,89.00,23.00,9.04,0.00,0.00,0.00,30.32,1021.50,10.00,M,CLR,M,M,M,M,M,M,M,M,M,M,M,M,M,M,84.31,KEKO 052256Z AUTO 00000KT 10SM CLR 32/M05 A3032 RMK AO2 SLP215 T03171050,M
WMC,2024-09-05 22:56,-117.8072,40.9019,1315.00,93.00,27.00,9.42,M,M,0.00,30.25,1019.70,10.00,M,CLR,M,M,M,M,M,M,M,M,M,M,M,M,M,M,87.60,KWMC 052256Z AUTO 10SM CLR 34/M03 A3025 RMK AO2 SLP197 T03391028,M
HND,2024-09-05 22:56,-115.1344,35.9729,742.79,103.00,34.00,9.23,40.00,8.00,0.00,30.05,1015.60,10.00,15.00,CLR,M,M,M,M,M,M,M,M,M,M,M,M,M,M,96.72,KHND 052256Z 04008G15KT 10SM CLR 39/01 A3005 RMK AO2 SLP156 T03940011,M
TPH,2024-09-05 22:56,-117.0904,38.0505,1654.00,91.00,24.00,8.85,0.00,0.00,0.00,30.30,1017.60,10.00,M,CLR,M,M,M,M,M,M,M,M,M,M,M,M,M,M,85.86,KTPH 052256Z AUTO 00000KT 10SM CLR 33/M04 A3030 RMK AO2 SLP176 T03281044,M
LAS,2024-09-05 22:56,-115.1634,36.0719,663.00,104.00,32.00,8.27,M,6.00,0.00,30.01,1013.00,10.00,M,CLR,M,M,M,M,M,M,M,M,M,M,M,M,M,M,97.28,KLAS 052256Z VRB06KT 10SM CLR 40/00 A3001 RMK AO2 SLP130 T04000000,M
NFL,2024-09-05 22:57,-118.7010,39.4166,1199.00,94.00,29.00,9.91,M,M,0.00,30.20,1019.00,9.00,M,CLR,M,M,M,M,M,M,M,M,M,M,M,M,M,M,88.57,KNFL 052257Z 9SM CLR 34/M02 A3020 RMK AO2 SLP190 T03441017,M
05U,2024-09-05 23:10,-116.0051,39.6042,1811.23,86.00,24.80,10.72,10.00,8.00,0.00,30.38,M,10.00,M,CLR,M,M,M,M,M,M,M,M,M,M,M,M,M,M,82.26,K05U 052310Z AUTO 01008KT 10SM CLR 30/M04 A3038 RMK A01,M
BVU,2024-09-05 23:15,-114.8611,35.9475,671.00,104.00,26.60,6.63,40.00,11.00,0.00,29.98,M,10.00,M,CLR,M,M,M,M,M,M,M,M,M,M,M,M,M,M,96.60,KBVU 052315Z AUTO 04011KT 10SM CLR 40/M03 A2998 RMK AO2,M
CXP,2024-09-05 23:15,-119.7326,39.1923,1431.00,91.40,26.60,9.74,90.00,8.00,0.00,30.24,M,10.00,M,CLR,M,M,M,M,M,M,M,M,M,M,M,M,M,M,86.36,KCXP 052315Z AUTO 09008KT 10SM CLR 33/M03 A3024 RMK AO2,M
RTS,2024-09-05 23:15,-119.8764,39.6682,1539.00,89.60,23.00,8.87,110.00,7.00,0.00,30.28,M,10.00,15.00,CLR,M,M,M,M,M,M,M,M,M,M,M,M,M,M,84.75,KRTS 052315Z AUTO 11007G15KT 070V130 10SM CLR 32/M05 A3028 RMK AO2,M
MEV,2024-09-05 23:15,-119.7500,38.9963,1441.42,93.20,28.40,9.91,310.00,6.00,0.00,30.23,M,10.00,M,CLR,M,M,M,M,M,M,M,M,M,M,M,M,M,M,87.89,KMEV 052315Z AUTO 31006KT 10SM CLR 34/M02 A3023 RMK AO2,M
BAM,2024-09-05 23:15,-116.8743,40.5990,1382.36,89.60,32.00,12.84,280.00,5.00,0.00,30.28,M,10.00,M,CLR,M,M,M,M,M,M,M,M,M,M,M,M,M,M,85.54,KBAM 052315Z AUTO 28005KT 10SM CLR 32/00 A3028 RMK AO1,M
HTH,2024-09-05 23:15,-118.6315,38.5448,1282.89,93.20,23.00,7.92,350.00,9.00,0.00,30.20,M,10.00,M,CLR,M,M,M,M,M,M,M,M,M,M,M,M,M,M,87.42,KHTH 052315Z AUTO 35009KT 10SM CLR 34/M05 A3020 RMK A01,M
TMT,2024-09-05 23:15,-117.1971,39.4643,1749.34,87.40,27.30,11.37,0.00,0.00,0.00,30.34,M,10.00,M,CLR,M,M,M,M,M,M,M,M,M,M,M,M,M,M,83.45,KTMT 052315Z AUTO 00000KT 10SM CLR 31/M03 A3034 RMK AO2 T03081026,M
10U,2024-09-05 23:15,-116.1876,41.9532,1637.00,86.00,24.80,10.72,0.00,0.00,0.00,30.34,M,10.00,M,CLR,M,M,M,M,M,M,M,M,M,M,M,M,M,M,82.26,K10U 052315Z AUTO 00000KT 10SM CLR 30/M04 A3034 RMK AO2,M
05U,2024-09-05 23:30,-116.0051,39.6042,1811.23,86.00,23.00,9.94,40.00,5.00,0.00,30.38,M,10.00,12.00,CLR,M,M,M,M,M,M,M,M,M,M,M,M,M,M,82.14,K05U 052330Z AUTO 04005G12KT 10SM CLR 30/M05 A3038 RMK A01,M
BVU,2024-09-05 23:35,-114.8611,35.9475,671.00,104.00,26.60,6.63,40.00,9.00,0.00,29.97,M,10.00,15.00,CLR,M,M,M,M,M,M,M,M,M,M,M,M,M,M,96.60,KBVU 052335Z AUTO 04009G15KT 10SM CLR 40/M03 A2997 RMK AO2,M
CXP,2024-09-05 23:35,-119.7326,39.1923,1431.00,91.40,26.60,9.74,90.00,6.00,0.00,30.24,M,10.00,12.00,CLR,M,M,M,M,M,M,M,M,M,M,M,M,M,M,86.36,KCXP 052335Z AUTO 09006G12KT 10SM CLR 33/M03 A3024 RMK AO2,M
RTS,2024-09-05 23:35,-119.8764,39.6682,1539.00,89.60,23.00,8.87,120.00,6.00,0.00,30.27,M,10.00,M,CLR,M,M,M,M,M,M,M,M,M,M,M,M,M,M,84.75,KRTS 052335Z AUTO 12006KT 10SM CLR 32/M05 A3027 RMK AO2,M
MEV,2024-09-05 23:35,-119.7500,38.9963,1441.42,93.20,28.40,9.91,330.00,7.00,0.00,30.22,M,10.00,M,CLR,M,M,M,M,M,M,M,M,M,M,M,M,M,M,87.89,KMEV 052335Z AUTO 33007KT 10SM CLR 34/M02 A3022 RMK AO2,M
BAM,2024-09-05 23:35,-116.8743,40.5990,1382.36,91.40,32.00,12.14,340.00,3.00,0.00,30.28,M,10.00,M,CLR,M,M,M,M,M,M,M,M,M,M,M,M,M,M,86.91,KBAM 052335Z AUTO 34003KT 10SM CLR 33/00 A3028 RMK AO1,M
HTH,2024-09-05 23:35,-118.6315,38.5448,1282.89,93.20,23.00,7.92,330.00,8.00,0.00,30.20,M,10.00,M,CLR,M,M,M,M,M,M,M,M,M,M,M,M,M,M,87.42,KHTH 052335Z AUTO 33008KT 10SM CLR 34/M05 A3020 RMK A01,M
TMT,2024-09-05 23:35,-117.1971,39.4643,1749.34,87.30,27.50,11.50,0.00,0.00,0.00,30.33,M,10.00,M,CLR,M,M,M,M,M,M,M,M,M,M,M,M,M,M,83.40,KTMT 052335Z AUTO 00000KT 10SM CLR 31/M02 A3033 RMK AO2 T03071025,M
10U,2024-09-05 23:35,-116.1876,41.9532,1637.00,87.80,24.80,10.12,0.00,0.00,0.00,30.34,M,10.00,M,CLR,M,M,M,M,M,M,M,M,M,M,M,M,M,M,83.56,K10U 052335Z AUTO 00000KT 10SM CLR 31/M04 A3034 RMK AO2,M
05U,2024-09-05 23:50,-116.0051,39.6042,1811.23,86.00,23.00,9.94,10.00,7.00,0.00,30.37,M,10.00,M,CLR,M,M,M,M,M,M,M,M,M,M,M,M,M,M,82.14,K05U 052350Z AUTO 01007KT 10SM CLR 30/M05 A3037 RMK A01,M
P68,2024-09-05 23:53,-116.0056,39.6014,1993.00,87.00,23.00,9.63,20.00,8.00,0.00,30.34,1020.30,M,M,M,M,M,M,M,M,M,M,M,M,M,M,M,M,M,82.86,KP68 052353Z AUTO 02008KT 31/M05 A3034 RMK AO1 SLP203 T03061050 10311 20244 56014,M
DRA,2024-09-05 23:53,-116.0278,36.6206,1009.00,103.00,67.00,31.45,360.00,8.00,0.00,30.07,1012.30,10.00,M,CLR,M,M,M,M,M,M,M,M,M,M,M,M,M,M,108.83,KDRA 052353Z AUTO 36008KT 10SM CLR 39/19 A3007 RMK AO2 SLP123 T03940194 10394 20339 56017,M
ELY,2024-09-05 23:53,-114.8453,39.2950,1909.00,84.00,20.00,9.33,20.00,10.00,0.00,30.38,1020.40,10.00,M,CLR,M,M,M,M,M,M,M,M,M,M,M,M,M,M,80.57,KELY 052353Z AUTO 02010KT 10SM CLR 29/M07 A3038 RMK AO2 SLP204 T02891067 10300 20222 56014,M
VGT,2024-09-05 23:53,-115.1933,36.2111,667.00,106.00,33.00,8.11,M,4.00,0.00,29.98,1013.70,10.00,M,CLR,M,M,M,M,M,M,M,M,M,M,M,M,M,M,99.15,KVGT 052353Z VRB04KT 10SM CLR 41/01 A2998 RMK AO2 SLP137 T04110006 10417 20361 56022,M
LOL,2024-09-05 23:53,-118.5701,40.0684,1192.43,93.00,30.00,10.65,110.00,5.00,0.00,30.19,1019.20,10.00,M,CLR,M,M,M,M,M,M,M,M,M,M,M,M,M,M,87.91,KLOL 052353Z AUTO 11005KT 10SM CLR 34/M01 A3019 RMK AO2 SLP192 T03391011 10344 20272 56020,M
BVU,2024-09-05 23:55,-114.8611,35.9475,671.00,104.00,26.60,6.63,60.00,7.00,0.00,29.97,M,10.00,13.00,CLR,M,M,M,M,M,M,M,M,M,M,M,M,M,M,96.60,KBVU 052355Z AUTO 06007G13KT 10SM CLR 40/M03 A2997 RMK AO2,M
RNO,2024-09-05 23:55,-119.7711,39.4839,1341.00,95.00,27.00,8.85,70.00,8.00,0.00,30.20,1016.70,10.00,M,FEW,M,M,M,10000.00,M,M,M,M,M,M,M,M,M,M,89.12,KRNO 052355Z 07008KT 10SM FEW100 35/M03 A3020 RMK AO2 SLP167 T03501028 10350 20256 56018,M
BAM,2024-09-05 23:55,-116.8743,40.5990,1382.36,89.60,32.00,12.84,340.00,8.00,0.00,30.28,M,10.00,M,CLR,M,M,M,M,M,M,M,M,M,M,M,M,M,M,85.54,KBAM 052355Z AUTO 34008KT 10SM CLR 32/00 A3028 RMK AO1,M
CXP,2024-09-05 23:55,-119.7326,39.1923,1431.00,91.40,26.60,9.74,70.00,12.00,0.00,30.24,M,10.00,M,CLR,M,M,M,M,M,M,M,M,M,M,M,M,M,M,86.36,KCXP 052355Z AUTO 07012KT 10SM CLR 33/M03 A3024 RMK AO2,M
RTS,2024-09-05 23:55,-119.8764,39.6682,1539.00,89.60,23.00,8.87,90.00,5.00,0.00,30.27,M,10.00,M,CLR,M,M,M,M,M,M,M,M,M,M,M,M,M,M,84.75,KRTS 052355Z AUTO 09005KT 10SM CLR 32/M05 A3027 RMK AO2,M
MEV,2024-09-05 23:55,-119.7500,38.9963,1441.42,93.20,30.20,10.67,300.00,8.00,0.00,30.22,M,10.00,M,CLR,M,M,M,M,M,M,M,M,M,M,M,M,M,M,88.09,KMEV 052355Z AUTO 30008KT 10SM CLR 34/M01 A3022 RMK AO2,M
HTH,2024-09-05 23:55,-118.6315,38.5448,1282.89,93.20,23.00,7.92,330.00,9.00,0.00,30.19,M,10.00,M,CLR,M,M,M,M,M,M,M,M,M,M,M,M,M,M,87.42,KHTH 052355Z AUTO 33009KT 10SM CLR 34/M05 A3019 RMK A01,M
TMT,2024-09-05 23:55,-117.1971,39.4643,1749.34,88.30,28.60,11.65,360.00,10.00,0.00,30.33,M,10.00,M,CLR,M,M,M,M,M,M,M,M,M,M,M,M,M,M,84.22,KTMT 052355Z AUTO 36010KT 10SM CLR 31/M02 A3033 RMK AO2 T03131019 10317 20233,M
10U,2024-09-05 23:55,-116.1876,41.9532,1637.00,86.00,23.00,9.94,330.00,6.00,0.00,30.33,M,10.00,M,CLR,M,M,M,M,M,M,M,M,M,M,M,M,M,M,82.14,K10U 052355Z AUTO 33006KT 10SM CLR 30/M05 A3033 RMK AO2,M
INS,2024-09-05 23:55,-115.6733,36.5872,955.00,102.40,18.70,4.99,0.00,0.00,0.00,30.06,1012.10,10.00,M,CLR,M,M,M,M,M,M,M,M,M,M,M,M,M,M,94.59,KINS 052355Z AUTO 00000KT 10SM CLR 39/M07 A3006 RMK AO2 SLP121 T03911074 10393 20330 57019,M
LSV,2024-09-05 23:55,-115.0343,36.2362,570.00,105.60,15.60,3.97,100.00,4.00,0.00,29.93,1010.20,10.00,M,CLR,M,M,M,M,M,M,M,M,M,M,M,M,M,M,97.01,KLSV 052355Z AUTO 10004KT 10SM CLR 41/M09 A2993 RMK AO2 SLP102 T04091091 10415 20370 57023 $,M
EKO,2024-09-05 23:56,-115.7860,40.8242,1367.00,88.00,20.00,8.21,0.00,0.00,0.00,30.31,1021.20,10.00,M,CLR,M,M,M,M,M,M,M,M,M,M,M,M,M,M,83.41,KEKO 052356Z AUTO 00000KT 10SM CLR 31/M07 A3031 RMK AO2 SLP212 T03111067 10322 20244 56015,M
WMC,2024-09-05 23:56,-117.8072,40.9019,1315.00,92.00,27.00,9.71,M,4.00,0.00,30.24,1019.30,10.00,M,CLR,M,M,M,M,M,M,M,M,M,M,M,M,M,M,86.85,KWMC 052356Z AUTO VRB04KT 10SM CLR 33/M03 A3024 RMK AO2 SLP193 T03331028 10344 20272 56015,M
HND,2024-09-05 23:56,-115.1344,35.9729,742.79,104.00,34.00,8.96,10.00,8.00,0.00,30.03,1014.90,10.00,M,CLR,M,M,M,M,M,M,M,M,M,M,M,M,M,M,97.58,KHND 052356Z 01008KT 10SM CLR 40/01 A3003 RMK AO2 SLP149 T04000011 10400 20350 56021,M
TPH,2024-09-05 23:56,-117.0904,38.0505,1654.00,91.00,22.00,8.14,120.00,5.00,0.00,30.29,1017.30,10.00,M,CLR,M,M,M,M,M,M,M,M,M,M,M,M,M,M,85.72,KTPH 052356Z AUTO 12005KT 10SM CLR 33/M06 A3029 RMK AO2 SLP173 T03281056 10333 20278 56015,M
LAS,2024-09-05 23:56,-115.1634,36.0719,663.00,105.00,31.00,7.71,90.00,7.00,0.00,30.00,1012.50,10.00,M,CLR,M,M,M,M,M,M,M,M,M,M,M,M,M,M,97.99,KLAS 052356Z 09007KT 10SM CLR 41/M01 A3000 RMK AO2 SLP125 T04061006 10406 20356 56022,M
NFL,2024-09-05 23:57,-118.7010,39.4166,1199.00,95.00,30.00,10.01,320.00,6.00,0.00,30.19,1018.60,9.00,M,CLR,M,M,M,M,M,M,M,M,M,M,M,M,M,M,89.45,KNFL 052357Z 32006KT 9SM CLR 35/M01 A3019 RMK AO2 SLP186 T03501011 10350 20261 56020,M
