station,valid,lon,lat,elevation,tmpf,dwpf,relh,drct,sknt,p01i,alti,mslp,vsby,gust,skyc1,skyc2,skyc3,skyc4,skyl1,skyl2,skyl3,skyl4,wxcodes,ice_accretion_1hr,ice_accretion_3hr,ice_accretion_6hr,peak_wind_gust,peak_wind_drct,peak_wind_time,feel,metar,snowdepth
ELY,2023-09-13 00:10,-114.8453,39.2950,1909.00,72.00,42.00,33.84,90.00,5.00,0.00,30.11,M,10.00,M,FEW,M,M,M,11000.00,M,M,M,M,M,M,M,M,M,M,72.00,KELY 130010Z AUTO 09005KT 10SM FEW110 22/06 A3011 RMK AO2 T02220056,M
05U,2023-09-13 00:10,-116.0051,39.6042,1811.23,77.00,37.40,23.93,0.00,0.00,0.00,30.10,M,10.00,M,OVC,M,M,M,11000.00,M,M,M,M,M,M,M,M,M,M,77.00,K05U 130010Z AUTO 00000KT 10SM OVC110 25/03 A3010 RMK A01,M
BVU,2023-09-13 00:15,-114.8611,35.9475,671.00,86.00,55.40,35.25,230.00,13.00,0.00,29.86,M,10.00,M,CLR,M,M,M,M,M,M,M,M,M,M,M,M,M,M,84.54,KBVU 130015Z AUTO 23013KT 10SM CLR 30/13 A2986 RMK AO2,M
CXP,2023-09-13 00:15,-119.7326,39.1923,1431.00,82.40,37.40,20.04,250.00,10.00,0.00,30.02,M,10.00,16.00,CLR,M,M,M,M,M,M,M,M,M,M,M,M,M,M,80.14,KCXP 130015Z AUTO 25010G16KT 10SM CLR 28/03 A3002 RMK AO2,M
RTS,2023-09-13 00:15,-119.8764,39.6682,1539.00,80.60,37.40,21.25,300.00,13.00,0.00,30.05,M,10.00,19.00,SCT,M,M,M,12000.00,M,M,M,M,M,M,M,M,M,M,79.02,KRTS 130015Z AUTO 30013G19KT 10SM SCT120 27/03 A3005 RMK AO2,M
MEV,2023-09-13 00:15,-119.7500,38.9963,1441.42,80.60,42.80,26.22,280.00,13.00,0.00,30.02,M,10.00,19.00,CLR,M,M,M,M,M,M,M,M,M,M,M,M,M,M,79.30,KMEV 130015Z AUTO 28013G19KT 10SM CLR 27/06 A3002 RMK AO2,M
HTH,2023-09-13 00:15,-118.6315,38.5448,1282.89,84.20,39.20,20.29,310.00,7.00,0.00,29.97,M,10.00,M,CLR,M,M,M,M,M,M,M,M,M,M,M,M,M,M,81.44,KHTH 130015Z AUTO 31007KT 10SM CLR 29/04 A2997 RMK A01,M
10U,2023-09-13 00:15,-116.1876,41.9532,1637.00,77.00,33.80,20.74,M,3.00,0.00,30.05,M,10.00,M,CLR,M,M,M,M,M,M,M,M,M,M,M,M,M,M,77.00,K10U 130015Z AUTO VRB03KT 10SM CLR 25/01 A3005 RMK AO2,M
BAM,2023-09-13 00:15,-116.8743,40.5990,1382.36,80.60,42.80,26.22,40.00,3.00,0.00,30.02,M,10.00,M,CLR,M,M,M,M,M,M,M,M,M,M,M,M,M,M,79.30,KBAM 130015Z AUTO 04003KT 10SM CLR 27/06 A3002 RMK AO1,M
TMT,2023-09-13 00:15,-117.1971,39.4643,1749.34,75.00,39.00,27.23,330.00,8.00,0.00,30.09,M,M,M,SCT,M,M,M,11000.00,M,M,M,M,M,M,M,M,M,M,75.00,KTMT 130015Z AUTO 33008KT SCT110 24/04 A3009 RMK AO2 T02390038 PWINO,M
05U,2023-09-13 00:30,-116.0051,39.6042,1811.23,77.00,37.40,23.93,M,3.00,0.00,30.11,M,10.00,12.00,SCT,OVC,M,M,10000.00,12000.00,M,M,M,M,M,M,M,M,M,77.00,K05U 130030Z AUTO VRB03G12KT 10SM SCT100 OVC120 25/03 A3011 RMK A01,M
BVU,2023-09-13 00:35,-114.8611,35.9475,671.00,86.00,53.60,33.01,230.00,11.00,0.00,29.86,M,10.00,M,CLR,M,M,M,M,M,M,M,M,M,M,M,M,M,M,84.18,KBVU 130035Z AUTO 23011KT 10SM CLR 30/12 A2986 RMK AO2 LTG DSNT N AND SW,M
CXP,2023-09-13 00:35,-119.7326,39.1923,1431.00,82.40,39.20,21.51,270.00,8.00,0.00,30.02,M,10.00,15.00,CLR,M,M,M,M,M,M,M,M,M,M,M,M,M,M,80.21,KCXP 130035Z AUTO 27008G15KT 10SM CLR 28/04 A3002 RMK AO2,M
RTS,2023-09-13 00:35,-119.8764,39.6682,1539.00,78.80,37.40,22.54,290.00,13.00,0.00,30.05,M,10.00,M,FEW,M,M,M,12000.00,M,M,M,M,M,M,M,M,M,M,78.80,KRTS 130035Z AUTO 29013KT 10SM FEW120 26/03 A3005 RMK AO2,M
MEV,2023-09-13 00:35,-119.7500,38.9963,1441.42,80.60,42.80,26.22,280.00,9.00,0.00,30.02,M,10.00,15.00,CLR,M,M,M,M,M,M,M,M,M,M,M,M,M,M,79.30,KMEV 130035Z AUTO 28009G15KT 10SM CLR 27/06 A3002 RMK AO2,M
HTH,2023-09-13 00:35,-118.6315,38.5448,1282.89,82.40,42.80,24.72,310.00,7.00,0.00,29.97,M,10.00,M,CLR,M,M,M,M,M,M,M,M,M,M,M,M,M,M,80.39,KHTH 130035Z AUTO 31007KT 10SM CLR 28/06 A2997 RMK A01,M
BAM,2023-09-13 00:35,-116.8743,40.5990,1382.36,80.60,42.80,26.22,0.00,0.00,0.00,30.02,M,10.00,M,CLR,M,M,M,M,M,M,M,M,M,M,M,M,M,M,79.30,KBAM 130035Z AUTO 00000KT 10SM CLR 27/06 A3002 RMK AO1,M
TMT,2023-09-13 00:35,-117.1971,39.4643,1749.34,74.30,39.00,27.87,330.00,6.00,0.00,30.09,M,M,M,CLR,M,M,M,M,M,M,M,M,M,M,M,M,M,M,74.30,KTMT 130035Z AUTO 33006KT CLR 24/04 A3009 RMK AO2 LTG DSNT SE AND S T02350039 PWINO,M
10U,2023-09-13 00:35,-116.1876,41.9532,1637.00,77.00,35.60,22.28,250.00,6.00,0.00,30.04,M,10.00,M,CLR,M,M,M,M,M,M,M,M,M,M,M,M,M,M,77.00,K10U 130035Z AUTO 25006KT 10SM CLR 25/02 A3004 RMK AO2,M
VGT,2023-09-13 00:38,-115.1933,36.2111,667.00,92.00,54.00,27.72,180.00,13.00,0.00,29.84,M,10.00,M,FEW,M,M,M,9500.00,M,M,M,M,M,M,M,M,M,M,89.76,KVGT 130038Z 18013KT 10SM FEW095 33/12 A2984 RMK AO2 WSHFT 0018 T03330122,M
05U,2023-09-13 00:50,-116.0051,39.6042,1811.23,75.20,37.40,25.40,0.00,0.00,0.00,30.11,M,10.00,M,BKN,OVC,M,M,10000.00,12000.00,M,M,M,M,M,M,M,M,M,75.20,K05U 130050Z AUTO 00000KT 10SM BKN100 OVC120 24/03 A3011 RMK A01,M
P68,2023-09-13 00:53,-116.0056,39.6014,1993.00,75.00,38.00,26.18,340.00,3.00,0.00,30.08,1011.90,M,M,M,M,M,M,M,M,M,M,M,M,M,M,M,M,M,75.00,KP68 130053Z AUTO 34003KT 24/03 A3008 RMK AO1 SLP119 T02390033,M
DRA,2023-09-13 00:53,-116.0278,36.6206,1009.00,89.00,46.00,22.61,210.00,10.00,0.00,29.91,1007.80,10.00,M,CLR,M,M,M,M,M,M,M,M,M,M,M,M,M,M,85.67,KDRA 130053Z AUTO 21010KT 10SM CLR 32/08 A2991 RMK AO2 SLP078 T03170078,M
ELY,2023-09-13 00:53,-114.8453,39.2950,1909.00,71.00,43.00,36.38,230.00,5.00,0.00,30.11,1011.90,10.00,M,CLR,M,M,M,M,M,M,M,M,M,M,M,M,M,M,71.00,KELY 130053Z AUTO 23005KT 10SM CLR 22/06 A3011 RMK AO2 LTG DSNT E SLP119 T02170061,M
VGT,2023-09-13 00:53,-115.1933,36.2111,667.00,91.00,53.00,27.57,190.00,14.00,0.00,29.84,1009.40,10.00,M,FEW,M,M,M,9000.00,M,M,M,M,M,M,M,M,M,M,88.55,KVGT 130053Z 19014KT 10SM FEW090 33/12 A2984 RMK AO2 WSHFT 0018 SLP094 T03280117,M
LOL,2023-09-13 00:53,-118.5701,40.0684,1192.43,84.00,34.00,16.63,0.00,0.00,0.00,29.95,1011.00,10.00,M,CLR,M,M,M,M,M,M,M,M,M,M,M,M,M,M,81.16,KLOL 130053Z AUTO 00000KT 10SM CLR 29/01 A2995 RMK AO2 SLP110 T02890011,M
BVU,2023-09-13 00:55,-114.8611,35.9475,671.00,86.00,53.60,33.01,250.00,11.00,0.00,29.86,M,10.00,M,CLR,M,M,M,M,M,M,M,VCTS,M,M,M,M,M,M,84.18,KBVU 130055Z AUTO 25011KT 10SM VCTS CLR 30/12 A2986 RMK AO2 LTG DSNT S AND SW,M
CXP,2023-09-13 00:55,-119.7326,39.1923,1431.00,80.60,39.20,22.81,280.00,9.00,0.00,30.02,M,10.00,14.00,CLR,M,M,M,M,M,M,M,M,M,M,M,M,M,M,79.10,KCXP 130055Z AUTO 28009G14KT 10SM CLR 27/04 A3002 RMK AO2,M
RNO,2023-09-13 00:55,-119.7711,39.4839,1341.00,83.00,41.00,22.62,320.00,16.00,0.00,29.99,1010.40,10.00,21.00,BKN,M,M,M,11000.00,M,M,M,M,M,M,M,M,M,M,80.69,KRNO 130055Z 32016G21KT 10SM BKN110 28/05 A2999 RMK AO2 SLP104 VIRGA CB DSNT SE T02830050,M
RTS,2023-09-13 00:55,-119.8764,39.6682,1539.00,78.80,35.60,21.00,290.00,14.00,0.00,30.06,M,10.00,M,CLR,M,M,M,M,M,M,M,M,M,M,M,M,M,M,78.80,KRTS 130055Z AUTO 29014KT 10SM CLR 26/02 A3006 RMK AO2,M
MEV,2023-09-13 00:55,-119.7500,38.9963,1441.42,78.80,42.80,27.81,270.00,10.00,0.00,30.02,M,10.00,16.00,FEW,M,M,M,10000.00,M,M,M,M,M,M,M,M,M,M,78.80,KMEV 130055Z AUTO 27010G16KT 10SM FEW100 26/06 A3002 RMK AO2,M
BAM,2023-09-13 00:55,-116.8743,40.5990,1382.36,80.60,42.80,26.22,0.00,0.00,0.00,30.02,M,10.00,M,CLR,M,M,M,M,M,M,M,M,M,M,M,M,M,M,79.30,KBAM 130055Z AUTO 00000KT 10SM CLR 27/06 A3002 RMK AO1,M
HTH,2023-09-13 00:55,-118.6315,38.5448,1282.89,78.80,48.20,34.13,300.00,6.00,0.00,29.97,M,10.00,M,CLR,M,M,M,M,M,M,M,M,M,M,M,M,M,M,78.80,KHTH 130055Z AUTO 30006KT 10SM CLR 26/09 A2997 RMK A01,M
TMT,2023-09-13 00:55,-117.1971,39.4643,1749.34,74.00,39.40,28.60,330.00,7.00,0.00,30.09,M,M,M,CLR,M,M,M,M,M,M,M,M,M,M,M,M,M,M,74.00,KTMT 130055Z AUTO 33007KT CLR 23/04 A3009 RMK AO2 T02330041 PWINO,M
LSV,2023-09-13 00:55,-115.0343,36.2362,570.00,91.40,53.60,27.83,140.00,13.00,0.00,29.80,1006.60,10.00,M,FEW,M,M,M,17000.00,M,M,M,M,M,M,M,M,M,M,89.08,KLSV 130055Z AUTO 14013KT 10SM FEW170 33/12 A2980 RMK AO2 SLP066 T03300120 $,M
INS,2023-09-13 00:55,-115.6733,36.5872,955.00,87.00,50.00,28.00,110.00,11.00,0.00,29.90,1007.80,10.00,M,CLR,M,M,M,M,M,M,M,M,M,M,M,M,M,M,84.43,KINS 130055Z AUTO 11011KT 10SM CLR 31/10 A2990 RMK AO2 LTG DSNT N SLP078 T03050099 $,M
EKO,2023-09-13 00:56,-115.7860,40.8242,1367.00,78.00,38.00,23.70,340.00,3.00,0.00,30.04,1012.60,10.00,M,OVC,M,M,M,11000.00,M,M,M,M,M,M,M,M,M,M,78.00,KEKO 130056Z AUTO 34003KT 10SM OVC110 26/03 A3004 RMK AO2 SLP126 T02560033,M
WMC,2023-09-13 00:56,-117.8072,40.9019,1315.00,84.00,27.00,12.52,0.00,0.00,0.00,29.98,1011.40,10.00,M,CLR,M,M,M,M,M,M,M,M,M,M,M,M,M,M,81.03,KWMC 130056Z AUTO 00000KT 10SM CLR 29/M03 A2998 RMK AO2 SLP114 T02891028,M
NFL,2023-09-13 00:56,-118.7010,39.4166,1199.00,85.00,36.00,17.44,330.00,5.00,0.00,29.95,1011.60,10.00,M,FEW,M,M,M,7000.00,M,M,M,M,M,M,M,M,M,M,81.93,KNFL 130056Z 33005KT 10SM FEW070 29/02 A2995 RMK AO2 SLP116 T02940022,M
HND,2023-09-13 00:56,-115.1344,35.9729,742.79,88.00,55.00,32.60,190.00,8.00,T,29.89,1010.60,10.00,M,CLR,M,M,M,M,M,M,M,M,M,M,M,M,M,M,86.20,KHND 130056Z AUTO 19008KT 10SM CLR 31/13 A2989 RMK AO2 LTG DSNT S RAB2358E08 SLP106 P0000 T03110128,M
LAS,2023-09-13 00:56,-115.1634,36.0719,663.00,89.00,52.00,28.30,M,6.00,0.00,29.85,1008.20,10.00,M,FEW,FEW,SCT,M,10000.00,17000.00,22000.00,M,M,M,M,M,M,M,M,86.49,KLAS 130056Z VRB06KT 10SM FEW100 FEW170 SCT220 32/11 A2985 RMK AO2 SLP082 CB DSNT S-SW AND NW-NE T03170111 $,M
10U,2023-09-13 01:00,-116.1876,41.9532,1637.00,77.00,33.80,20.74,M,6.00,0.00,30.04,M,10.00,M,FEW,M,M,M,12000.00,M,M,M,M,M,M,M,M,M,M,77.00,K10U 130100Z AUTO VRB06KT 10SM FEW120 25/01 A3004 RMK AO2,M
05U,2023-09-13 01:10,-116.0051,39.6042,1811.23,75.20,37.40,25.40,160.00,6.00,0.00,30.10,M,10.00,M,BKN,M,M,M,10000.00,M,M,M,M,M,M,M,M,M,M,75.20,K05U 130110Z AUTO 16006KT 10SM BKN100 24/03 A3010 RMK A01,M
BVU,2023-09-13 01:15,-114.8611,35.9475,671.00,86.00,53.60,33.01,240.00,10.00,0.00,29.86,M,10.00,M,CLR,M,M,M,M,M,M,M,M,M,M,M,M,M,M,84.18,KBVU 130115Z AUTO 24010KT 10SM CLR 30/12 A2986 RMK AO2 LTG DSNT S AND SW,M
CXP,2023-09-13 01:15,-119.7326,39.1923,1431.00,78.80,39.20,24.19,300.00,8.00,0.00,30.03,M,10.00,14.00,CLR,M,M,M,M,M,M,M,M,M,M,M,M,M,M,78.80,KCXP 130115Z AUTO 30008G14KT 10SM CLR 26/04 A3003 RMK AO2,M
RTS,2023-09-13 01:15,-119.8764,39.6682,1539.00,77.00,35.60,22.28,290.00,13.00,0.00,30.06,M,10.00,19.00,CLR,M,M,M,M,M,M,M,M,M,M,M,M,M,M,77.00,KRTS 130115Z AUTO 29013G19KT 10SM CLR 25/02 A3006 RMK AO2,M
MEV,2023-09-13 01:15,-119.7500,38.9963,1441.42,77.00,42.80,29.51,280.00,12.00,0.00,30.02,M,10.00,M,SCT,M,M,M,11000.00,M,M,M,M,M,M,M,M,M,M,77.00,KMEV 130115Z AUTO 28012KT 10SM SCT110 25/06 A3002 RMK AO2,M
BAM,2023-09-13 01:15,-116.8743,40.5990,1382.36,78.80,44.60,29.79,0.00,0.00,0.00,30.02,M,10.00,M,CLR,M,M,M,M,M,M,M,M,M,M,M,M,M,M,78.80,KBAM 130115Z AUTO 00000KT 10SM CLR 26/07 A3002 RMK AO1,M
HTH,2023-09-13 01:15,-118.6315,38.5448,1282.89,77.00,48.20,36.22,280.00,5.00,0.00,29.98,M,10.00,M,CLR,M,M,M,M,M,M,M,M,M,M,M,M,M,M,77.00,KHTH 130115Z AUTO 28005KT 10SM CLR 25/09 A2998 RMK A01,M
TMT,2023-09-13 01:15,-117.1971,39.4643,1749.34,72.70,40.00,30.59,350.00,7.00,0.00,30.10,M,M,M,CLR,M,M,M,M,M,M,M,M,M,M,M,M,M,M,72.70,KTMT 130115Z AUTO 35007KT CLR 23/04 A3010 RMK AO2 T02260044 PWINO,M
10U,2023-09-13 01:20,-116.1876,41.9532,1637.00,75.20,35.60,23.66,220.00,7.00,0.00,30.04,M,10.00,M,BKN,M,M,M,12000.00,M,M,M,M,M,M,M,M,M,M,75.20,K10U 130120Z AUTO 22007KT 10SM BKN120 24/02 A3004 RMK AO2,M
05U,2023-09-13 01:30,-116.0051,39.6042,1811.23,71.60,41.00,33.00,180.00,6.00,0.00,30.11,M,10.00,M,FEW,M,M,M,10000.00,M,M,M,M,M,M,M,M,M,M,71.60,K05U 130130Z AUTO 18006KT 10SM FEW100 22/05 A3011 RMK A01,M
BVU,2023-09-13 01:35,-114.8611,35.9475,671.00,86.00,51.80,30.90,220.00,8.00,0.00,29.86,M,10.00,14.00,CLR,M,M,M,M,M,M,M,M,M,M,M,M,M,M,83.87,KBVU 130135Z AUTO 22008G14KT 10SM CLR 30/11 A2986 RMK AO2 LTG DSNT S,M
CXP,2023-09-13 01:35,-119.7326,39.1923,1431.00,78.80,41.00,25.95,290.00,5.00,0.00,30.03,M,10.00,12.00,CLR,M,M,M,M,M,M,M,M,M,M,M,M,M,M,78.80,KCXP 130135Z AUTO 29005G12KT 10SM CLR 26/05 A3003 RMK AO2,M
RTS,2023-09-13 01:35,-119.8764,39.6682,1539.00,77.00,37.40,23.93,290.00,12.00,0.00,30.06,M,10.00,18.00,CLR,M,M,M,M,M,M,M,M,M,M,M,M,M,M,77.00,KRTS 130135Z AUTO 29012G18KT 10SM CLR 25/03 A3006 RMK AO2,M
MEV,2023-09-13 01:35,-119.7500,38.9963,1441.42,75.20,42.80,31.34,270.00,10.00,0.00,30.02,M,10.00,15.00,FEW,M,M,M,11000.00,M,M,M,M,M,M,M,M,M,M,75.20,KMEV 130135Z AUTO 27010G15KT 10SM FEW110 24/06 A3002 RMK AO2,M
BAM,2023-09-13 01:35,-116.8743,40.5990,1382.36,78.80,46.40,31.90,170.00,3.00,0.00,30.02,M,10.00,M,CLR,M,M,M,M,M,M,M,M,M,M,M,M,M,M,78.80,KBAM 130135Z AUTO 17003KT 10SM CLR 26/08 A3002 RMK AO1,M
HTH,2023-09-13 01:35,-118.6315,38.5448,1282.89,77.00,46.40,33.85,280.00,6.00,0.00,29.98,M,10.00,M,CLR,M,M,M,M,M,M,M,M,M,M,M,M,M,M,77.00,KHTH 130135Z AUTO 28006KT 10SM CLR 25/08 A2998 RMK A01,M
10U,2023-09-13 01:35,-116.1876,41.9532,1637.00,71.60,39.20,30.77,210.00,7.00,0.00,30.05,M,10.00,M,SCT,M,M,M,11000.00,M,M,M,M,M,M,M,M,M,M,71.60,K10U 130135Z AUTO 21007KT 10SM SCT110 22/04 A3005 RMK AO2,M
TMT,2023-09-13 01:35,-117.1971,39.4643,1749.34,70.00,39.60,33.00,340.00,6.00,0.00,30.10,M,M,M,CLR,M,M,M,M,M,M,M,M,M,M,M,M,M,M,70.00,KTMT 130135Z AUTO 34006KT CLR 21/04 A3010 RMK AO2 T02120042 PWINO,M
05U,2023-09-13 01:50,-116.0051,39.6042,1811.23,68.00,39.20,34.80,170.00,6.00,0.00,30.11,M,10.00,M,CLR,M,M,M,M,M,M,M,M,M,M,M,M,M,M,68.00,K05U 130150Z AUTO 17006KT 10SM CLR 20/04 A3011 RMK A01,M
P68,2023-09-13 01:53,-116.0056,39.6014,1993.00,68.00,40.00,35.90,10.00,7.00,0.00,30.09,1012.60,M,M,M,M,M,M,M,M,M,M,M,M,M,M,M,M,M,68.00,KP68 130153Z AUTO 01007KT 20/04 A3009 RMK AO1 SLP126 T02000044,M
DRA,2023-09-13 01:53,-116.0278,36.6206,1009.00,86.00,51.00,30.00,110.00,8.00,0.00,29.91,1008.00,10.00,15.00,FEW,M,M,M,12000.00,M,M,M,M,M,M,M,M,M,M,83.75,KDRA 130153Z AUTO 11008G15KT 10SM FEW120 30/11 A2991 RMK AO2 SLP080 T03000106,M
ELY,2023-09-13 01:53,-114.8453,39.2950,1909.00,62.00,43.00,49.69,230.00,7.00,0.00,30.11,1013.50,10.00,M,CLR,M,M,M,M,M,M,M,M,M,M,M,M,M,M,62.00,KELY 130153Z AUTO 23007KT 10SM CLR 17/06 A3011 RMK AO2 SLP135 T01670061,M
VGT,2023-09-13 01:53,-115.1933,36.2111,667.00,90.00,55.00,30.61,170.00,3.00,0.00,29.85,1009.60,10.00,M,CLR,M,M,M,M,M,M,M,M,M,M,M,M,M,M,88.06,KVGT 130153Z 17003KT 10SM CLR 32/13 A2985 RMK AO2 SLP096 T03220128,M
LOL,2023-09-13 01:53,-118.5701,40.0684,1192.43,79.00,42.00,26.79,120.00,4.00,0.00,29.95,1011.30,10.00,M,CLR,M,M,M,M,M,M,M,M,M,M,M,M,M,M,79.00,KLOL 130153Z AUTO 12004KT 10SM CLR 26/06 A2995 RMK AO2 SLP113 T02610056,M
BVU,2023-09-13 01:55,-114.8611,35.9475,671.00,84.20,50.00,30.62,220.00,10.00,0.00,29.86,M,10.00,M,CLR,M,M,M,M,M,M,M,M,M,M,M,M,M,M,82.24,KBVU 130155Z AUTO 22010KT 10SM CLR 29/10 A2986 RMK AO2 LTG DSNT S,M
CXP,2023-09-13 01:55,-119.7326,39.1923,1431.00,77.00,41.00,27.53,210.00,5.00,0.00,30.03,M,10.00,M,FEW,M,M,M,11000.00,M,M,M,M,M,M,M,M,M,M,77.00,KCXP 130155Z AUTO 21005KT 10SM FEW110 25/05 A3003 RMK AO2,M
INS,2023-09-13 01:55,-115.6733,36.5872,955.00,85.30,49.50,29.01,100.00,8.00,0.00,29.90,1007.80,10.00,M,CLR,M,M,M,M,M,M,M,M,M,M,M,M,M,M,83.00,KINS 130155Z AUTO 10008KT 10SM CLR 30/10 A2990 RMK AO2 SLP078 T02960097 $,M
RNO,2023-09-13 01:55,-119.7711,39.4839,1341.00,80.00,42.00,25.93,280.00,10.00,0.00,30.00,1011.10,10.00,M,FEW,M,M,M,10000.00,M,M,M,M,M,M,M,M,M,M,78.92,KRNO 130155Z 28010KT 10SM FEW100 27/06 A3000 RMK AO2 SLP111 T02670056,M
RTS,2023-09-13 01:55,-119.8764,39.6682,1539.00,75.20,37.40,25.40,280.00,11.00,0.00,30.07,M,10.00,M,CLR,M,M,M,M,M,M,M,M,M,M,M,M,M,M,75.20,KRTS 130155Z AUTO 28011KT 10SM CLR 24/03 A3007 RMK AO2,M
MEV,2023-09-13 01:55,-119.7500,38.9963,1441.42,73.40,41.00,31.05,280.00,10.00,0.00,30.03,M,10.00,M,CLR,M,M,M,M,M,M,M,M,M,M,M,M,M,M,73.40,KMEV 130155Z AUTO 28010KT 10SM CLR 23/05 A3003 RMK AO2,M
BAM,2023-09-13 01:55,-116.8743,40.5990,1382.36,75.20,50.00,41.14,190.00,4.00,0.00,30.02,M,10.00,M,CLR,M,M,M,M,M,M,M,M,M,M,M,M,M,M,75.20,KBAM 130155Z AUTO 19004KT 10SM CLR 24/10 A3002 RMK AO1,M
HTH,2023-09-13 01:55,-118.6315,38.5448,1282.89,75.20,48.20,38.46,260.00,7.00,0.00,29.98,M,10.00,M,CLR,M,M,M,M,M,M,M,M,M,M,M,M,M,M,75.20,KHTH 130155Z AUTO 26007KT 10SM CLR 24/09 A2998 RMK A01,M
TMT,2023-09-13 01:55,-117.1971,39.4643,1749.34,67.50,40.00,36.52,340.00,6.00,0.00,30.10,M,M,M,CLR,M,M,M,M,M,M,M,M,M,M,M,M,M,M,67.50,KTMT 130155Z AUTO 34006KT CLR 20/04 A3010 RMK AO2 LTG DSNT S T01970044 PWINO,M
10U,2023-09-13 01:55,-116.1876,41.9532,1637.00,69.80,39.20,32.72,0.00,0.00,0.00,30.05,M,10.00,M,BKN,M,M,M,11000.00,M,M,M,M,M,M,M,M,M,M,69.80,K10U 130155Z AUTO 00000KT 10SM BKN110 21/04 A3005 RMK AO2,M
LSV,2023-09-13 01:55,-115.0343,36.2362,570.00,89.40,52.00,27.94,110.00,8.00,0.00,29.81,1007.00,10.00,M,CLR,M,M,M,M,M,M,M,M,M,M,M,M,M,M,86.85,KLSV 130155Z AUTO 11008KT 10SM CLR 32/11 A2981 RMK AO2 SLP070 T03190111 $,M
EKO,2023-09-13 01:56,-115.7860,40.8242,1367.00,76.00,39.00,26.34,0.00,0.00,0.00,30.04,1012.70,10.00,M,BKN,M,M,M,11000.00,M,M,M,M,M,M,M,M,M,M,76.00,KEKO 130156Z AUTO 00000KT 10SM BKN110 24/04 A3004 RMK AO2 SLP127 T02440039,M
WMC,2023-09-13 01:56,-117.8072,40.9019,1315.00,77.00,30.00,17.80,310.00,4.00,0.00,29.98,1011.90,10.00,M,CLR,M,M,M,M,M,M,M,M,M,M,M,M,M,M,77.00,KWMC 130156Z AUTO 31004KT 10SM CLR 25/M01 A2998 RMK AO2 SLP119 T02501011,M
HND,2023-09-13 01:56,-115.1344,35.9729,742.79,87.00,51.00,29.06,170.00,10.00,0.00,29.89,1010.80,10.00,M,CLR,M,M,M,M,M,M,M,M,M,M,M,M,M,M,84.58,KHND 130156Z AUTO 17010KT 10SM CLR 31/11 A2989 RMK AO2 SLP108 T03060106,M
LAS,2023-09-13 01:56,-115.1634,36.0719,663.00,89.00,54.00,30.45,160.00,4.00,0.00,29.85,1008.10,10.00,M,FEW,FEW,SCT,M,10000.00,17000.00,22000.00,M,M,M,M,M,M,M,M,86.89,KLAS 130156Z 16004KT 10SM FEW100 FEW170 SCT220 32/12 A2985 RMK AO2 SLP081 CB DSNT S-SW AND NW-NE T03170122 $,M
NFL,2023-09-13 01:56,-118.7010,39.4166,1199.00,81.00,39.00,22.33,20.00,7.00,0.00,29.95,1011.50,10.00,M,FEW,FEW,M,M,7000.00,12000.00,M,M,M,M,M,M,M,M,M,79.33,KNFL 130156Z 02007KT 10SM FEW070 FEW120 27/04 A2995 RMK AO2 SLP115 T02720039,M
05U,2023-09-13 02:10,-116.0051,39.6042,1811.23,64.40,41.00,42.28,180.00,5.00,0.00,30.12,M,10.00,M,SCT,M,M,M,9500.00,M,M,M,M,M,M,M,M,M,M,64.40,K05U 130210Z AUTO 18005KT 10SM SCT095 18/05 A3012 RMK A01,M
TMT,2023-09-13 02:15,-117.1971,39.4643,1749.34,65.50,39.60,38.54,360.00,5.00,0.00,30.10,M,M,M,CLR,M,M,M,M,M,M,M,M,M,M,M,M,M,M,65.50,KTMT 130215Z AUTO 36005KT CLR 19/04 A3010 RMK AO2 LTG DSNT S T01860042 PWINO,M
BVU,2023-09-13 02:15,-114.8611,35.9475,671.00,82.40,50.00,32.46,210.00,6.00,0.00,29.86,M,10.00,11.00,CLR,M,M,M,M,M,M,M,M,M,M,M,M,M,M,80.99,KBVU 130215Z AUTO 21006G11KT 10SM CLR 28/10 A2986 RMK AO2,M
CXP,2023-09-13 02:15,-119.7326,39.1923,1431.00,75.20,41.00,29.23,220.00,4.00,0.00,30.04,M,10.00,M,FEW,M,M,M,11000.00,M,M,M,M,M,M,M,M,M,M,75.20,KCXP 130215Z AUTO 22004KT 10SM FEW110 24/05 A3004 RMK AO2,M
RTS,2023-09-13 02:15,-119.8764,39.6682,1539.00,73.40,37.40,26.98,290.00,10.00,0.00,30.07,M,10.00,16.00,CLR,M,M,M,M,M,M,M,M,M,M,M,M,M,M,73.40,KRTS 130215Z AUTO 29010G16KT 10SM CLR 23/03 A3007 RMK AO2,M
MEV,2023-09-13 02:15,-119.7500,38.9963,1441.42,73.40,41.00,31.05,280.00,10.00,0.00,30.03,M,10.00,M,CLR,M,M,M,M,M,M,M,M,M,M,M,M,M,M,73.40,KMEV 130215Z AUTO 28010KT 10SM CLR 23/05 A3003 RMK AO2,M
BAM,2023-09-13 02:15,-116.8743,40.5990,1382.36,73.40,50.00,43.69,200.00,4.00,0.00,30.02,M,10.00,M,CLR,M,M,M,M,M,M,M,M,M,M,M,M,M,M,73.40,KBAM 130215Z AUTO 20004KT 10SM CLR 23/10 A3002 RMK AO1,M
HTH,2023-09-13 02:15,-118.6315,38.5448,1282.89,75.20,48.20,38.46,260.00,7.00,0.00,29.98,M,10.00,M,BKN,M,M,M,11000.00,M,M,M,M,M,M,M,M,M,M,75.20,KHTH 130215Z AUTO 26007KT 10SM BKN110 24/09 A2998 RMK A01,M
10U,2023-09-13 02:15,-116.1876,41.9532,1637.00,68.00,39.20,34.80,210.00,7.00,0.00,30.05,M,10.00,M,FEW,M,M,M,11000.00,M,M,M,M,M,M,M,M,M,M,68.00,K10U 130215Z AUTO 21007KT 10SM FEW110 20/04 A3005 RMK AO2,M
05U,2023-09-13 02:30,-116.0051,39.6042,1811.23,60.80,41.00,48.00,130.00,4.00,0.00,30.12,M,10.00,M,FEW,M,M,M,9500.00,M,M,M,M,M,M,M,M,M,M,60.80,K05U 130230Z AUTO 13004KT 10SM FEW095 16/05 A3012 RMK A01,M
BVU,2023-09-13 02:35,-114.8611,35.9475,671.00,82.40,51.80,34.69,240.00,4.00,0.00,29.87,M,10.00,M,CLR,M,M,M,M,M,M,M,M,M,M,M,M,M,M,81.20,KBVU 130235Z AUTO 24004KT 10SM CLR 28/11 A2987 RMK AO2,M
CXP,2023-09-13 02:35,-119.7326,39.1923,1431.00,75.20,39.20,27.26,260.00,5.00,0.00,30.04,M,10.00,M,CLR,M,M,M,M,M,M,M,M,M,M,M,M,M,M,75.20,KCXP 130235Z AUTO 26005KT 10SM CLR 24/04 A3004 RMK AO2,M
RTS,2023-09-13 02:35,-119.8764,39.6682,1539.00,71.60,37.40,28.68,300.00,9.00,0.00,30.08,M,10.00,M,CLR,M,M,M,M,M,M,M,M,M,M,M,M,M,M,71.60,KRTS 130235Z AUTO 30009KT 10SM CLR 22/03 A3008 RMK AO2,M
MEV,2023-09-13 02:35,-119.7500,38.9963,1441.42,71.60,42.80,35.37,280.00,9.00,0.00,30.03,M,10.00,M,CLR,M,M,M,M,M,M,M,M,M,M,M,M,M,M,71.60,KMEV 130235Z AUTO 28009KT 10SM CLR 22/06 A3003 RMK AO2,M
BAM,2023-09-13 02:35,-116.8743,40.5990,1382.36,69.80,51.80,52.77,180.00,5.00,0.00,30.03,M,10.00,M,CLR,M,M,M,M,M,M,M,M,M,M,M,M,M,M,69.80,KBAM 130235Z AUTO 18005KT 10SM CLR 21/11 A3003 RMK AO1,M
HTH,2023-09-13 02:35,-118.6315,38.5448,1282.89,75.20,48.20,38.46,250.00,6.00,0.00,29.98,M,10.00,M,BKN,M,M,M,11000.00,M,M,M,M,M,M,M,M,M,M,75.20,KHTH 130235Z AUTO 25006KT 10SM BKN110 24/09 A2998 RMK A01,M
TMT,2023-09-13 02:35,-117.1971,39.4643,1749.34,63.30,40.30,42.77,0.00,0.00,0.00,30.11,M,M,M,CLR,M,M,M,M,M,M,M,M,M,M,M,M,M,M,63.30,KTMT 130235Z AUTO 00000KT CLR 17/05 A3011 RMK AO2 T01740046 PWINO,M
10U,2023-09-13 02:40,-116.1876,41.9532,1637.00,66.20,41.00,39.72,0.00,0.00,0.00,30.06,M,10.00,M,FEW,M,M,M,10000.00,M,M,M,M,M,M,M,M,M,M,66.20,K10U 130240Z AUTO 00000KT 10SM FEW100 19/05 A3006 RMK AO2,M
05U,2023-09-13 02:50,-116.0051,39.6042,1811.23,59.00,41.00,51.18,270.00,3.00,0.00,30.14,M,10.00,M,CLR,M,M,M,M,M,M,M,M,M,M,M,M,M,M,59.00,K05U 130250Z AUTO 27003KT 10SM CLR 15/05 A3014 RMK A01,M
P68,2023-09-13 02:53,-116.0056,39.6014,1993.00,61.00,41.00,47.66,120.00,3.00,0.00,30.11,1014.20,M,M,M,M,M,M,M,M,M,M,M,M,M,M,M,M,M,61.00,KP68 130253Z AUTO 12003KT 16/05 A3011 RMK AO1 SLP142 T01610050 53009,M
DRA,2023-09-13 02:53,-116.0278,36.6206,1009.00,82.00,53.00,36.74,0.00,0.00,0.00,29.92,1008.50,10.00,M,CLR,M,M,M,M,M,M,M,M,M,M,M,M,M,M,81.10,KDRA 130253Z AUTO 00000KT 10SM CLR 28/12 A2992 RMK AO2 SLP085 T02780117 53005,M
ELY,2023-09-13 02:53,-114.8453,39.2950,1909.00,59.00,45.00,59.67,0.00,0.00,0.00,30.14,1014.00,10.00,M,SCT,M,M,M,8500.00,M,M,M,M,M,M,M,M,M,M,59.00,KELY 130253Z AUTO 00000KT 10SM SCT085 15/07 A3014 RMK AO2 SLP140 T01500072 53008,M
VGT,2023-09-13 02:53,-115.1933,36.2111,667.00,88.00,53.00,30.30,90.00,6.00,0.00,29.86,1010.10,10.00,M,CLR,M,M,M,M,M,M,M,M,M,M,M,M,M,M,85.78,KVGT 130253Z 09006KT 10SM CLR 31/12 A2986 RMK AO2 SLP101 T03110117 53007,M
LOL,2023-09-13 02:53,-118.5701,40.0684,1192.43,73.00,43.00,34.00,0.00,0.00,0.00,29.96,1011.60,10.00,M,CLR,M,M,M,M,M,M,M,M,M,M,M,M,M,M,73.00,KLOL 130253Z AUTO 00000KT 10SM CLR 23/06 A2996 RMK AO2 SLP116 T02280061 53001,M
BVU,2023-09-13 02:55,-114.8611,35.9475,671.00,80.60,51.80,36.79,0.00,0.00,0.00,29.87,M,10.00,M,CLR,M,M,M,M,M,M,M,M,M,M,M,M,M,M,80.08,KBVU 130255Z AUTO 00000KT 10SM CLR 27/11 A2987 RMK AO2,M
CXP,2023-09-13 02:55,-119.7326,39.1923,1431.00,73.40,41.00,31.05,70.00,4.00,0.00,30.05,M,10.00,M,CLR,M,M,M,M,M,M,M,M,M,M,M,M,M,M,73.40,KCXP 130255Z AUTO 07004KT 10SM CLR 23/05 A3005 RMK AO2,M
INS,2023-09-13 02:55,-115.6733,36.5872,955.00,82.00,49.30,32.03,60.00,5.00,0.00,29.91,1008.20,10.00,M,CLR,M,M,M,M,M,M,M,M,M,M,M,M,M,M,80.65,KINS 130255Z AUTO 06005KT 10SM CLR 28/10 A2991 RMK AO2 SLP082 T02780096 53005 $,M
RNO,2023-09-13 02:55,-119.7711,39.4839,1341.00,77.00,41.00,27.53,300.00,11.00,0.00,30.02,1011.70,10.00,M,FEW,M,M,M,10000.00,M,M,M,M,M,M,M,M,M,M,77.00,KRNO 130255Z 30011KT 10SM FEW100 25/05 A3002 RMK AO2 SLP117 T02500050 53010,M
RTS,2023-09-13 02:55,-119.8764,39.6682,1539.00,69.80,37.40,30.49,300.00,9.00,0.00,30.08,M,10.00,M,CLR,M,M,M,M,M,M,M,M,M,M,M,M,M,M,69.80,KRTS 130255Z AUTO 30009KT 10SM CLR 21/03 A3008 RMK AO2,M
MEV,2023-09-13 02:55,-119.7500,38.9963,1441.42,71.60,41.00,33.00,10.00,6.00,0.00,30.04,M,10.00,M,CLR,M,M,M,M,M,M,M,M,M,M,M,M,M,M,71.60,KMEV 130255Z AUTO 01006KT 10SM CLR 22/05 A3004 RMK AO2,M
BAM,2023-09-13 02:55,-116.8743,40.5990,1382.36,68.00,50.00,52.51,170.00,5.00,0.00,30.03,M,10.00,M,CLR,M,M,M,M,M,M,M,M,M,M,M,M,M,M,68.00,KBAM 130255Z AUTO 17005KT 10SM CLR 20/10 A3003 RMK AO1,M
HTH,2023-09-13 02:55,-118.6315,38.5448,1282.89,73.40,50.00,43.69,250.00,7.00,0.00,29.99,M,10.00,M,BKN,M,M,M,11000.00,M,M,M,M,M,M,M,M,M,M,73.40,KHTH 130255Z AUTO 25007KT 10SM BKN110 23/10 A2999 RMK A01,M
TMT,2023-09-13 02:55,-117.1971,39.4643,1749.34,58.60,42.00,53.96,140.00,4.00,0.00,30.12,M,M,M,CLR,M,M,M,M,M,M,M,M,M,M,M,M,M,M,58.60,KTMT 130255Z AUTO 14004KT CLR 15/06 A3012 RMK AO2 T01480055 PWINO,M
LSV,2023-09-13 02:55,-115.0343,36.2362,570.00,87.30,49.00,26.72,100.00,3.00,0.00,29.82,1007.30,10.00,M,CLR,M,M,M,M,M,M,M,M,M,M,M,M,M,M,84.55,KLSV 130255Z AUTO 10003KT 10SM CLR 31/10 A2982 RMK AO2 SLP073 T03070095 53006 $,M
EKO,2023-09-13 02:56,-115.7860,40.8242,1367.00,68.00,44.00,41.88,70.00,6.00,0.00,30.05,1013.50,10.00,M,CLR,M,M,M,M,M,M,M,M,M,M,M,M,M,M,68.00,KEKO 130256Z AUTO 07006KT 10SM CLR 20/07 A3005 RMK AO2 SLP135 T02000067 53005,M
WMC,2023-09-13 02:56,-117.8072,40.9019,1315.00,68.00,31.00,25.12,0.00,0.00,0.00,30.00,1012.50,10.00,M,CLR,M,M,M,M,M,M,M,M,M,M,M,M,M,M,68.00,KWMC 130256Z AUTO 00000KT 10SM CLR 20/M01 A3000 RMK AO2 SLP125 T02001006 53003,M
NFL,2023-09-13 02:56,-118.7010,39.4166,1199.00,71.00,40.00,32.40,30.00,8.00,0.00,29.96,1011.80,10.00,M,FEW,M,M,M,12000.00,M,M,M,M,M,M,M,M,M,M,71.00,KNFL 130256Z 03008KT 10SM FEW120 22/04 A2996 RMK AO2 SLP118 T02170044 53001,M
HND,2023-09-13 02:56,-115.1344,35.9729,742.79,83.00,55.00,38.26,200.00,12.00,0.00,29.91,1011.60,10.00,M,CLR,M,M,M,M,M,M,M,M,M,M,M,M,M,M,82.11,KHND 130256Z AUTO 20012KT 10SM CLR 28/13 A2991 RMK AO2 SLP116 60000 T02830128 53003,M
LAS,2023-09-13 02:56,-115.1634,36.0719,663.00,87.00,54.00,32.45,150.00,4.00,0.00,29.87,1008.70,10.00,M,FEW,FEW,SCT,M,10000.00,17000.00,22000.00,M,M,M,M,M,M,M,M,85.10,KLAS 130256Z 15004KT 10SM FEW100 FEW170 SCT220 31/12 A2987 RMK AO2 SLP087 CB DSNT S-SW AND NW-NE T03060122 53007 $,M
10U,2023-09-13 03:00,-116.1876,41.9532,1637.00,64.40,44.60,48.55,130.00,6.00,0.00,30.07,M,10.00,M,SCT,M,M,M,10000.00,M,M,M,M,M,M,M,M,M,M,64.40,K10U 130300Z AUTO 13006KT 10SM SCT100 18/07 A3007 RMK AO2,M
05U,2023-09-13 03:10,-116.0051,39.6042,1811.23,59.00,39.20,47.72,310.00,4.00,0.00,30.15,M,10.00,M,CLR,M,M,M,M,M,M,M,M,M,M,M,M,M,M,59.00,K05U 130310Z AUTO 31004KT 10SM CLR 15/04 A3015 RMK A01,M
CXP,2023-09-13 03:10,-119.7326,39.1923,1431.00,71.60,41.00,33.00,0.00,0.00,0.00,30.06,M,10.00,M,CLR,M,M,M,M,M,M,M,M,M,M,M,M,M,M,71.60,KCXP 130310Z AUTO 00000KT 10SM CLR 22/05 A3006 RMK AO2,M
RTS,2023-09-13 03:15,-119.8764,39.6682,1539.00,69.80,37.40,30.49,290.00,8.00,0.00,30.09,M,10.00,M,CLR,M,M,M,M,M,M,M,M,M,M,M,M,M,M,69.80,KRTS 130315Z AUTO 29008KT 10SM CLR 21/03 A3009 RMK AO2,M
MEV,2023-09-13 03:15,-119.7500,38.9963,1441.42,69.80,41.00,35.09,0.00,0.00,0.00,30.05,M,10.00,M,CLR,M,M,M,M,M,M,M,M,M,M,M,M,M,M,69.80,KMEV 130315Z AUTO 00000KT 10SM CLR 21/05 A3005 RMK AO2,M
HTH,2023-09-13 03:15,-118.6315,38.5448,1282.89,73.40,46.40,38.18,250.00,7.00,0.00,30.00,M,10.00,M,SCT,M,M,M,11000.00,M,M,M,M,M,M,M,M,M,M,73.40,KHTH 130315Z AUTO 25007KT 10SM SCT110 23/08 A3000 RMK A01,M
10U,2023-09-13 03:15,-116.1876,41.9532,1637.00,62.60,44.60,51.72,130.00,5.00,0.00,30.07,M,10.00,M,BKN,M,M,M,10000.00,M,M,M,M,M,M,M,M,M,M,62.60,K10U 130315Z AUTO 13005KT 10SM BKN100 17/07 A3007 RMK AO2,M
BVU,2023-09-13 03:15,-114.8611,35.9475,671.00,80.60,51.80,36.79,290.00,5.00,0.00,29.88,M,10.00,M,CLR,M,M,M,M,M,M,M,M,M,M,M,M,M,M,80.08,KBVU 130315Z AUTO 29005KT 10SM CLR 27/11 A2988 RMK AO2,M
BAM,2023-09-13 03:15,-116.8743,40.5990,1382.36,64.40,51.80,63.60,210.00,3.00,0.00,30.04,M,10.00,M,CLR,M,M,M,M,M,M,M,M,M,M,M,M,M,M,64.40,KBAM 130315Z AUTO 21003KT 10SM CLR 18/11 A3004 RMK AO1,M
TMT,2023-09-13 03:15,-117.1971,39.4643,1749.34,54.50,42.40,63.56,140.00,4.00,0.00,30.12,M,M,M,CLR,M,M,M,M,M,M,M,M,M,M,M,M,M,M,54.50,KTMT 130315Z AUTO 14004KT CLR 13/06 A3012 RMK AO2 T01250058 PWINO,M
05U,2023-09-13 03:30,-116.0051,39.6042,1811.23,55.40,39.20,54.34,350.00,5.00,0.00,30.15,M,10.00,M,CLR,M,M,M,M,M,M,M,M,M,M,M,M,M,M,55.40,K05U 130330Z AUTO 35005KT 10SM CLR 13/04 A3015 RMK A01,M
BAM,2023-09-13 03:35,-116.8743,40.5990,1382.36,64.40,50.00,59.50,180.00,5.00,0.00,30.04,M,10.00,M,CLR,M,M,M,M,M,M,M,M,M,M,M,M,M,M,64.40,KBAM 130335Z AUTO 18005KT 10SM CLR 18/10 A3004 RMK AO1,M
BVU,2023-09-13 03:35,-114.8611,35.9475,671.00,78.80,53.60,41.69,320.00,4.00,0.00,29.88,M,10.00,M,CLR,M,M,M,M,M,M,M,M,M,M,M,M,M,M,78.80,KBVU 130335Z AUTO 32004KT 10SM CLR 26/12 A2988 RMK AO2,M
CXP,2023-09-13 03:35,-119.7326,39.1923,1431.00,71.60,41.00,33.00,100.00,3.00,0.00,30.07,M,10.00,M,CLR,M,M,M,M,M,M,M,M,M,M,M,M,M,M,71.60,KCXP 130335Z AUTO 10003KT 10SM CLR 22/05 A3007 RMK AO2,M
RTS,2023-09-13 03:35,-119.8764,39.6682,1539.00,68.00,37.40,32.43,300.00,9.00,0.00,30.10,M,10.00,M,CLR,M,M,M,M,M,M,M,M,M,M,M,M,M,M,68.00,KRTS 130335Z AUTO 30009KT 10SM CLR 20/03 A3010 RMK AO2,M
MEV,2023-09-13 03:35,-119.7500,38.9963,1441.42,64.40,41.00,42.28,120.00,6.00,0.00,30.06,M,10.00,M,CLR,M,M,M,M,M,M,M,M,M,M,M,M,M,M,64.40,KMEV 130335Z AUTO 12006KT 10SM CLR 18/05 A3006 RMK AO2,M
HTH,2023-09-13 03:35,-118.6315,38.5448,1282.89,73.40,46.40,38.18,270.00,6.00,0.00,30.01,M,10.00,M,FEW,M,M,M,11000.00,M,M,M,M,M,M,M,M,M,M,73.40,KHTH 130335Z AUTO 27006KT 10SM FEW110 23/08 A3001 RMK A01,M
TMT,2023-09-13 03:35,-117.1971,39.4643,1749.34,55.00,43.00,63.86,0.00,0.00,0.00,30.13,M,M,M,SCT,M,M,M,9000.00,M,M,M,M,M,M,M,M,M,M,55.00,KTMT 130335Z AUTO 00000KT SCT090 13/06 A3013 RMK AO2 LTG DSNT S T01270062 PWINO,M
10U,2023-09-13 03:35,-116.1876,41.9532,1637.00,62.60,44.60,51.72,120.00,6.00,0.00,30.08,M,10.00,M,BKN,M,M,M,10000.00,M,M,M,M,M,M,M,M,M,M,62.60,K10U 130335Z AUTO 12006KT 10SM BKN100 17/07 A3008 RMK AO2,M
05U,2023-09-13 03:50,-116.0051,39.6042,1811.23,55.40,39.20,54.34,330.00,4.00,0.00,30.16,M,10.00,M,CLR,M,M,M,M,M,M,M,M,M,M,M,M,M,M,55.40,K05U 130350Z AUTO 33004KT 10SM CLR 13/04 A3016 RMK A01,M
P68,2023-09-13 03:53,-116.0056,39.6014,1993.00,57.00,40.00,52.90,180.00,5.00,0.00,30.14,1015.00,M,M,M,M,M,M,M,M,M,M,M,M,M,M,M,M,M,57.00,KP68 130353Z AUTO 18005KT 14/04 A3014 RMK AO1 SLP150 T01390044,M
DRA,2023-09-13 03:53,-116.0278,36.6206,1009.00,81.00,52.00,36.58,120.00,8.00,0.00,29.94,1009.10,10.00,M,CLR,M,M,M,M,M,M,M,M,M,M,M,M,M,M,80.34,KDRA 130353Z AUTO 12008KT 10SM CLR 27/11 A2994 RMK AO2 SLP091 T02720111,M
ELY,2023-09-13 03:53,-114.8453,39.2950,1909.00,54.00,45.00,71.50,160.00,7.00,0.00,30.17,1014.00,10.00,M,FEW,M,M,M,12000.00,M,M,M,M,M,M,M,M,M,M,54.00,KELY 130353Z AUTO 16007KT 10SM FEW120 12/07 A3017 RMK AO2 SLP140 T01220072,M
VGT,2023-09-13 03:53,-115.1933,36.2111,667.00,86.00,54.00,33.50,110.00,6.00,0.00,29.88,1010.80,10.00,M,CLR,M,M,M,M,M,M,M,M,M,M,M,M,M,M,84.26,KVGT 130353Z 11006KT 10SM CLR 30/12 A2988 RMK AO2 SLP108 T03000122,M
LOL,2023-09-13 03:53,-118.5701,40.0684,1192.43,70.00,34.00,26.46,310.00,7.00,0.00,29.98,1012.00,10.00,M,CLR,M,M,M,M,M,M,M,M,M,M,M,M,M,M,70.00,KLOL 130353Z AUTO 31007KT 10SM CLR 21/01 A2998 RMK AO2 SLP120 T02110011,M
MEV,2023-09-13 03:55,-119.7500,38.9963,1441.42,62.60,42.80,48.28,190.00,4.00,0.00,30.07,M,10.00,M,CLR,M,M,M,M,M,M,M,M,M,M,M,M,M,M,62.60,KMEV 130355Z AUTO 19004KT 10SM CLR 17/06 A3007 RMK AO2,M
BAM,2023-09-13 03:55,-116.8743,40.5990,1382.36,64.40,50.00,59.50,160.00,5.00,0.00,30.04,M,10.00,M,CLR,M,M,M,M,M,M,M,M,M,M,M,M,M,M,64.40,KBAM 130355Z AUTO 16005KT 10SM CLR 18/10 A3004 RMK AO1,M
HTH,2023-09-13 03:55,-118.6315,38.5448,1282.89,69.80,50.00,49.37,110.00,5.00,0.00,30.02,M,10.00,M,CLR,M,M,M,M,M,M,M,M,M,M,M,M,M,M,69.80,KHTH 130355Z AUTO 11005KT 10SM CLR 21/10 A3002 RMK A01,M
BVU,2023-09-13 03:55,-114.8611,35.9475,671.00,80.60,51.80,36.79,280.00,5.00,0.00,29.89,M,10.00,M,CLR,M,M,M,M,M,M,M,M,M,M,M,M,M,M,80.08,KBVU 130355Z AUTO 28005KT 10SM CLR 27/11 A2989 RMK AO2,M
CXP,2023-09-13 03:55,-119.7326,39.1923,1431.00,71.60,41.00,33.00,0.00,0.00,0.00,30.08,M,10.00,M,CLR,M,M,M,M,M,M,M,M,M,M,M,M,M,M,71.60,KCXP 130355Z AUTO 00000KT 10SM CLR 22/05 A3008 RMK AO2,M
INS,2023-09-13 03:55,-115.6733,36.5872,955.00,79.70,52.50,38.88,110.00,10.00,0.00,29.94,1009.40,10.00,M,CLR,M,M,M,M,M,M,M,M,M,M,M,M,M,M,79.70,KINS 130355Z AUTO 11010KT 10SM CLR 27/11 A2994 RMK AO2 SLP094 T02650114 $,M
RNO,2023-09-13 03:55,-119.7711,39.4839,1341.00,75.00,41.00,29.43,300.00,13.00,0.00,30.05,1012.60,10.00,20.00,CLR,M,M,M,M,M,M,M,M,M,M,M,M,M,M,75.00,KRNO 130355Z 30013G20KT 10SM CLR 24/05 A3005 RMK AO2 SLP126 T02390050,M
RTS,2023-09-13 03:55,-119.8764,39.6682,1539.00,68.00,35.60,30.20,300.00,7.00,0.00,30.11,M,10.00,M,CLR,M,M,M,M,M,M,M,M,M,M,M,M,M,M,68.00,KRTS 130355Z AUTO 30007KT 10SM CLR 20/02 A3011 RMK AO2,M
TMT,2023-09-13 03:55,-117.1971,39.4643,1749.34,56.00,42.60,60.65,0.00,0.00,0.00,30.13,M,M,M,SCT,M,M,M,9000.00,M,M,M,M,M,M,M,M,M,M,56.00,KTMT 130355Z AUTO 00000KT SCT090 13/06 A3013 RMK AO2 T01340059 PWINO,M
10U,2023-09-13 03:55,-116.1876,41.9532,1637.00,64.40,44.60,48.55,130.00,7.00,0.00,30.08,M,10.00,M,OVC,M,M,M,10000.00,M,M,M,M,M,M,M,M,M,M,64.40,K10U 130355Z AUTO 13007KT 10SM OVC100 18/07 A3008 RMK AO2,M
LSV,2023-09-13 03:55,-115.0343,36.2362,570.00,85.00,50.00,29.85,0.00,0.00,0.00,29.84,1008.10,10.00,M,CLR,M,M,M,M,M,M,M,M,M,M,M,M,M,M,82.83,KLSV 130355Z AUTO 00000KT 10SM CLR 29/10 A2984 RMK AO2 SLP081 T02940100 $,M
EKO,2023-09-13 03:56,-115.7860,40.8242,1367.00,63.00,45.00,51.78,0.00,0.00,0.00,30.07,1014.00,10.00,M,CLR,M,M,M,M,M,M,M,M,M,M,M,M,M,M,63.00,KEKO 130356Z AUTO 00000KT 10SM CLR 17/07 A3007 RMK AO2 SLP140 T01720072,M
WMC,2023-09-13 03:56,-117.8072,40.9019,1315.00,63.00,34.00,33.72,150.00,3.00,0.00,30.01,1012.50,10.00,M,CLR,M,M,M,M,M,M,M,M,M,M,M,M,M,M,63.00,KWMC 130356Z AUTO 15003KT 10SM CLR 17/01 A3001 RMK AO2 SLP125 T01720011,M
NFL,2023-09-13 03:56,-118.7010,39.4166,1199.00,72.00,40.00,31.32,90.00,5.00,0.00,29.98,1012.30,10.00,M,FEW,M,M,M,12000.00,M,M,M,M,M,M,M,M,M,M,72.00,KNFL 130356Z 09005KT 10SM FEW120 22/04 A2998 RMK AO2 SLP123 T02220044,M
HND,2023-09-13 03:56,-115.1344,35.9729,742.79,81.00,56.00,42.34,180.00,6.00,0.00,29.93,1012.40,10.00,M,CLR,M,M,M,M,M,M,M,M,M,M,M,M,M,M,80.88,KHND 130356Z AUTO 18006KT 10SM CLR 27/13 A2993 RMK AO2 SLP124 T02720133,M
LAS,2023-09-13 03:56,-115.1634,36.0719,663.00,84.00,55.00,37.05,170.00,4.00,0.00,29.89,1009.50,10.00,M,FEW,FEW,SCT,M,10000.00,17000.00,22000.00,M,M,M,M,M,M,M,M,82.85,KLAS 130356Z 17004KT 10SM FEW100 FEW170 SCT220 29/13 A2989 RMK AO2 SLP095 T02890128 $,M
05U,2023-09-13 04:10,-116.0051,39.6042,1811.23,53.60,39.20,58.02,340.00,5.00,0.00,30.17,M,10.00,M,CLR,M,M,M,M,M,M,M,M,M,M,M,M,M,M,53.60,K05U 130410Z AUTO 34005KT 10SM CLR 12/04 A3017 RMK A01,M
BVU,2023-09-13 04:15,-114.8611,35.9475,671.00,78.80,51.80,39.02,320.00,6.00,0.00,29.89,M,10.00,M,CLR,M,M,M,M,M,M,M,M,M,M,M,M,M,M,78.80,KBVU 130415Z AUTO 32006KT 10SM CLR 26/11 A2989 RMK AO2 LTG DSNT E AND NW,M
CXP,2023-09-13 04:15,-119.7326,39.1923,1431.00,69.80,42.80,37.61,350.00,4.00,0.00,30.09,M,10.00,M,CLR,M,M,M,M,M,M,M,M,M,M,M,M,M,M,69.80,KCXP 130415Z AUTO 35004KT 10SM CLR 21/06 A3009 RMK AO2,M
RTS,2023-09-13 04:15,-119.8764,39.6682,1539.00,66.20,35.60,32.14,300.00,8.00,0.00,30.11,M,10.00,M,CLR,M,M,M,M,M,M,M,M,M,M,M,M,M,M,66.20,KRTS 130415Z AUTO 30008KT 10SM CLR 19/02 A3011 RMK AO2,M
MEV,2023-09-13 04:15,-119.7500,38.9963,1441.42,60.80,41.00,48.00,120.00,4.00,0.00,30.08,M,10.00,M,CLR,M,M,M,M,M,M,M,M,M,M,M,M,M,M,60.80,KMEV 130415Z AUTO 12004KT 10SM CLR 16/05 A3008 RMK AO2,M
BAM,2023-09-13 04:15,-116.8743,40.5990,1382.36,64.40,48.20,55.63,140.00,6.00,0.00,30.05,M,10.00,M,CLR,M,M,M,M,M,M,M,M,M,M,M,M,M,M,64.40,KBAM 130415Z AUTO 14006KT 10SM CLR 18/09 A3005 RMK AO1,M
HTH,2023-09-13 04:15,-118.6315,38.5448,1282.89,71.60,50.00,46.43,200.00,4.00,0.00,30.02,M,10.00,M,FEW,M,M,M,11000.00,M,M,M,M,M,M,M,M,M,M,71.60,KHTH 130415Z AUTO 20004KT 10SM FEW110 22/10 A3002 RMK A01,M
TMT,2023-09-13 04:15,-117.1971,39.4643,1749.34,53.00,43.00,68.71,0.00,0.00,0.00,30.14,M,M,M,CLR,M,M,M,M,M,M,M,VCTS,M,M,M,M,M,M,53.00,KTMT 130415Z AUTO 00000KT VCTS CLR 12/06 A3014 RMK AO2 LTG DSNT S T01160061,M
10U,2023-09-13 04:15,-116.1876,41.9532,1637.00,64.40,44.60,48.55,110.00,5.00,0.00,30.08,M,10.00,M,BKN,M,M,M,10000.00,M,M,M,M,M,M,M,M,M,M,64.40,K10U 130415Z AUTO 11005KT 10SM BKN100 18/07 A3008 RMK AO2,M
05U,2023-09-13 04:30,-116.0051,39.6042,1811.23,53.60,39.20,58.02,0.00,0.00,0.00,30.16,M,10.00,M,CLR,M,M,M,M,M,M,M,M,M,M,M,M,M,M,53.60,K05U 130430Z AUTO 00000KT 10SM CLR 12/04 A3016 RMK A01,M
BAM,2023-09-13 04:35,-116.8743,40.5990,1382.36,60.80,50.00,67.54,140.00,7.00,0.00,30.05,M,10.00,M,CLR,M,M,M,M,M,M,M,M,M,M,M,M,M,M,60.80,KBAM 130435Z AUTO 14007KT 10SM CLR 16/10 A3005 RMK AO1,M
BVU,2023-09-13 04:35,-114.8611,35.9475,671.00,78.80,51.80,39.02,320.00,5.00,0.00,29.89,M,10.00,M,CLR,M,M,M,M,M,M,M,M,M,M,M,M,M,M,78.80,KBVU 130435Z AUTO 32005KT 10SM CLR 26/11 A2989 RMK AO2 LTG DSNT N AND NW,M
CXP,2023-09-13 04:35,-119.7326,39.1923,1431.00,68.00,42.80,40.00,0.00,0.00,0.00,30.09,M,10.00,M,CLR,M,M,M,M,M,M,M,M,M,M,M,M,M,M,68.00,KCXP 130435Z AUTO 00000KT 10SM CLR 20/06 A3009 RMK AO2,M
RTS,2023-09-13 04:35,-119.8764,39.6682,1539.00,64.40,35.60,34.22,290.00,3.00,0.00,30.11,M,10.00,M,CLR,M,M,M,M,M,M,M,M,M,M,M,M,M,M,64.40,KRTS 130435Z AUTO 29003KT 10SM CLR 18/02 A3011 RMK AO2,M
MEV,2023-09-13 04:35,-119.7500,38.9963,1441.42,62.60,42.80,48.28,0.00,0.00,0.00,30.08,M,10.00,M,FEW,M,M,M,4300.00,M,M,M,M,M,M,M,M,M,M,62.60,KMEV 130435Z AUTO 00000KT 10SM FEW043 17/06 A3008 RMK AO2,M
HTH,2023-09-13 04:35,-118.6315,38.5448,1282.89,68.00,51.80,56.13,140.00,4.00,0.00,30.02,M,10.00,M,SCT,M,M,M,11000.00,M,M,M,M,M,M,M,M,M,M,68.00,KHTH 130435Z AUTO 14004KT 10SM SCT110 20/11 A3002 RMK A01,M
TMT,2023-09-13 04:35,-117.1971,39.4643,1749.34,54.30,41.40,61.60,260.00,3.00,0.00,30.14,M,M,M,CLR,M,M,M,M,M,M,M,M,M,M,M,M,M,M,54.30,KTMT 130435Z AUTO 26003KT CLR 12/05 A3014 RMK AO2 LTG DSNT S T01240052 PWINO,M
10U,2023-09-13 04:40,-116.1876,41.9532,1637.00,62.60,44.60,51.72,120.00,7.00,0.00,30.08,M,10.00,M,CLR,M,M,M,M,M,M,M,M,M,M,M,M,M,M,62.60,K10U 130440Z AUTO 12007KT 10SM CLR 17/07 A3008 RMK AO2,M
05U,2023-09-13 04:50,-116.0051,39.6042,1811.23,51.80,39.20,61.99,340.00,4.00,0.00,30.16,M,10.00,M,BKN,M,M,M,10000.00,M,M,M,M,M,M,M,M,M,M,51.80,K05U 130450Z AUTO 34004KT 10SM BKN100 11/04 A3016 RMK A01,M
P68,2023-09-13 04:53,-116.0056,39.6014,1993.00,54.00,40.00,58.99,160.00,3.00,0.00,30.14,1015.10,M,M,M,M,M,M,M,M,M,M,M,M,M,M,M,M,M,54.00,KP68 130453Z AUTO 16003KT 12/04 A3014 RMK AO1 SLP151 T01220044,M
DRA,2023-09-13 04:53,-116.0278,36.6206,1009.00,79.00,53.00,40.52,130.00,10.00,0.00,29.94,1009.10,10.00,M,CLR,M,M,M,M,M,M,M,M,M,M,M,M,M,M,79.00,KDRA 130453Z AUTO 13010KT 10SM CLR 26/12 A2994 RMK AO2 SLP091 T02610117,M
ELY,2023-09-13 04:53,-114.8453,39.2950,1909.00,55.00,45.00,68.93,200.00,9.00,0.00,30.17,1013.40,10.00,M,CLR,M,M,M,M,M,M,M,M,M,M,M,M,M,M,55.00,KELY 130453Z AUTO 20009KT 10SM CLR 13/07 A3017 RMK AO2 SLP134 T01280072,M
VGT,2023-09-13 04:53,-115.1933,36.2111,667.00,86.00,55.00,34.74,60.00,4.00,0.00,29.88,1010.80,10.00,M,CLR,M,M,M,M,M,M,M,M,M,M,M,M,M,M,84.46,KVGT 130453Z AUTO 06004KT 10SM CLR 30/13 A2988 RMK AO2 SLP108 T03000128,M
LOL,2023-09-13 04:53,-118.5701,40.0684,1192.43,66.00,38.00,35.58,100.00,6.00,0.00,29.99,1012.00,10.00,M,CLR,M,M,M,M,M,M,M,M,M,M,M,M,M,M,66.00,KLOL 130453Z AUTO 10006KT 10SM CLR 19/03 A2999 RMK AO2 SLP120 T01890033,M
BVU,2023-09-13 04:55,-114.8611,35.9475,671.00,78.80,51.80,39.02,340.00,7.00,0.00,29.89,M,10.00,M,CLR,M,M,M,M,M,M,M,M,M,M,M,M,M,M,78.80,KBVU 130455Z AUTO 34007KT 10SM CLR 26/11 A2989 RMK AO2,M
CXP,2023-09-13 04:55,-119.7326,39.1923,1431.00,68.00,41.00,37.32,0.00,0.00,0.00,30.09,M,10.00,M,CLR,M,M,M,M,M,M,M,M,M,M,M,M,M,M,68.00,KCXP 130455Z AUTO 00000KT 10SM CLR 20/05 A3009 RMK AO2,M
INS,2023-09-13 04:55,-115.6733,36.5872,955.00,76.50,56.00,49.10,190.00,3.00,0.00,29.94,1009.40,10.00,M,CLR,M,M,M,M,M,M,M,M,M,M,M,M,M,M,76.50,KINS 130455Z AUTO 19003KT 10SM CLR 25/13 A2994 RMK AO2 SLP094 T02470133 $,M
RNO,2023-09-13 04:55,-119.7711,39.4839,1341.00,73.00,41.00,31.47,310.00,5.00,0.00,30.06,1012.80,10.00,M,FEW,M,M,M,20000.00,M,M,M,M,M,M,M,M,M,M,73.00,KRNO 130455Z 31005KT 10SM FEW200 23/05 A3006 RMK AO2 SLP128 T02280050,M
RTS,2023-09-13 04:55,-119.8764,39.6682,1539.00,64.40,35.60,34.22,340.00,3.00,0.00,30.11,M,10.00,M,CLR,M,M,M,M,M,M,M,M,M,M,M,M,M,M,64.40,KRTS 130455Z AUTO 34003KT 10SM CLR 18/02 A3011 RMK AO2,M
MEV,2023-09-13 04:55,-119.7500,38.9963,1441.42,59.00,41.00,51.18,160.00,5.00,0.00,30.08,M,10.00,M,CLR,M,M,M,M,M,M,M,M,M,M,M,M,M,M,59.00,KMEV 130455Z AUTO 16005KT 10SM CLR 15/05 A3008 RMK AO2 LTG DSNT SE,M
BAM,2023-09-13 04:55,-116.8743,40.5990,1382.36,60.80,50.00,67.54,140.00,6.00,0.00,30.04,M,10.00,M,CLR,M,M,M,M,M,M,M,M,M,M,M,M,M,M,60.80,KBAM 130455Z AUTO 14006KT 10SM CLR 16/10 A3004 RMK AO1,M
HTH,2023-09-13 04:55,-118.6315,38.5448,1282.89,68.00,51.80,56.13,200.00,4.00,0.00,30.02,M,10.00,M,SCT,M,M,M,11000.00,M,M,M,M,M,M,M,M,M,M,68.00,KHTH 130455Z AUTO 20004KT 10SM SCT110 20/11 A3002 RMK A01,M
TMT,2023-09-13 04:55,-117.1971,39.4643,1749.34,53.00,41.50,64.85,260.00,3.00,0.00,30.14,M,M,M,CLR,M,M,M,M,M,M,M,M,M,M,M,M,M,M,53.00,KTMT 130455Z AUTO 26003KT CLR 12/05 A3014 RMK AO2 LTG DSNT S AND SW T01160053 PWINO,M
LSV,2023-09-13 04:55,-115.0343,36.2362,570.00,82.80,51.40,33.75,40.00,4.00,0.00,29.84,1008.10,10.00,M,CLR,M,M,M,M,M,M,M,M,M,M,M,M,M,M,81.42,KLSV 130455Z AUTO 04004KT 10SM CLR 28/11 A2984 RMK AO2 SLP081 T02820108 $,M
EKO,2023-09-13 04:56,-115.7860,40.8242,1367.00,60.00,44.00,55.42,70.00,3.00,0.00,30.07,1013.90,10.00,M,CLR,M,M,M,M,M,M,M,M,M,M,M,M,M,M,60.00,KEKO 130456Z AUTO 07003KT 10SM CLR 16/07 A3007 RMK AO2 SLP139 T01560067,M
WMC,2023-09-13 04:56,-117.8072,40.9019,1315.00,56.00,37.00,48.77,150.00,5.00,0.00,30.01,1012.70,10.00,M,CLR,M,M,M,M,M,M,M,M,M,M,M,M,M,M,56.00,KWMC 130456Z AUTO 15005KT 10SM CLR 13/03 A3001 RMK AO2 SLP127 T01330028,M
NFL,2023-09-13 04:56,-118.7010,39.4166,1199.00,65.00,42.00,43.04,260.00,7.00,0.00,29.99,1012.60,10.00,M,FEW,M,M,M,12000.00,M,M,M,M,M,M,M,M,M,M,65.00,KNFL 130456Z 26007KT 10SM FEW120 18/06 A2999 RMK AO2 SLP126 T01830056,M
HND,2023-09-13 04:56,-115.1344,35.9729,742.79,80.00,55.00,42.19,160.00,3.00,0.00,29.93,1012.40,10.00,M,CLR,M,M,M,M,M,M,M,M,M,M,M,M,M,M,80.11,KHND 130456Z AUTO 16003KT 10SM CLR 27/13 A2993 RMK AO2 SLP124 T02670128,M
LAS,2023-09-13 04:56,-115.1634,36.0719,663.00,82.00,56.00,40.98,180.00,5.00,0.00,29.89,1009.50,10.00,M,FEW,M,M,M,22000.00,M,M,M,M,M,M,M,M,M,M,81.57,KLAS 130456Z 18005KT 10SM FEW220 28/13 A2989 RMK AO2 SLP095 T02780133 $,M
10U,2023-09-13 05:00,-116.1876,41.9532,1637.00,60.80,44.60,55.12,110.00,5.00,0.00,30.08,M,10.00,10.00,FEW,M,M,M,11000.00,M,M,M,M,M,M,M,M,M,M,60.80,K10U 130500Z AUTO 11005G10KT 10SM FEW110 16/07 A3008 RMK AO2,M
05U,2023-09-13 05:10,-116.0051,39.6042,1811.23,51.80,39.20,61.99,330.00,3.00,0.00,30.17,M,10.00,M,BKN,M,M,M,10000.00,M,M,M,M,M,M,M,M,M,M,51.80,K05U 130510Z AUTO 33003KT 10SM BKN100 11/04 A3017 RMK A01,M
BVU,2023-09-13 05:15,-114.8611,35.9475,671.00,78.80,51.80,39.02,280.00,3.00,0.00,29.89,M,10.00,M,CLR,M,M,M,M,M,M,M,M,M,M,M,M,M,M,78.80,KBVU 130515Z AUTO 28003KT 10SM CLR 26/11 A2989 RMK AO2,M
CXP,2023-09-13 05:15,-119.7326,39.1923,1431.00,66.20,42.80,42.57,0.00,0.00,0.00,30.10,M,10.00,M,CLR,M,M,M,M,M,M,M,M,M,M,M,M,M,M,66.20,KCXP 130515Z AUTO 00000KT 10SM CLR 19/06 A3010 RMK AO2,M
RTS,2023-09-13 05:15,-119.8764,39.6682,1539.00,64.40,35.60,34.22,290.00,7.00,0.00,30.11,M,10.00,M,CLR,M,M,M,M,M,M,M,M,M,M,M,M,M,M,64.40,KRTS 130515Z AUTO 29007KT 10SM CLR 18/02 A3011 RMK AO2,M
MEV,2023-09-13 05:15,-119.7500,38.9963,1441.42,60.80,41.00,48.00,0.00,0.00,0.00,30.08,M,10.00,M,CLR,M,M,M,M,M,M,M,M,M,M,M,M,M,M,60.80,KMEV 130515Z AUTO 00000KT 10SM CLR 16/05 A3008 RMK AO2,M
HTH,2023-09-13 05:15,-118.6315,38.5448,1282.89,68.00,53.60,59.97,230.00,4.00,0.00,30.02,M,10.00,M,BKN,M,M,M,12000.00,M,M,M,M,M,M,M,M,M,M,68.00,KHTH 130515Z AUTO 23004KT 10SM BKN120 20/12 A3002 RMK A01,M
BAM,2023-09-13 05:15,-116.8743,40.5990,1382.36,60.80,48.20,63.15,150.00,6.00,0.00,30.05,M,10.00,M,CLR,M,M,M,M,M,M,M,M,M,M,M,M,M,M,60.80,KBAM 130515Z AUTO 15006KT 10SM CLR 16/09 A3005 RMK AO1,M
TMT,2023-09-13 05:15,-117.1971,39.4643,1749.34,48.20,41.40,77.20,0.00,0.00,0.00,30.14,M,M,M,CLR,M,M,M,M,M,M,M,M,M,M,M,M,M,M,48.20,KTMT 130515Z AUTO 00000KT CLR 09/05 A3014 RMK AO2 T00900052 PWINO,M
10U,2023-09-13 05:20,-116.1876,41.9532,1637.00,59.00,44.60,58.77,100.00,6.00,0.00,30.08,M,10.00,M,BKN,M,M,M,10000.00,M,M,M,M,M,M,M,M,M,M,59.00,K10U 130520Z AUTO 10006KT 10SM BKN100 15/07 A3008 RMK AO2,M
05U,2023-09-13 05:30,-116.0051,39.6042,1811.23,51.80,39.20,61.99,330.00,5.00,0.00,30.16,M,10.00,M,FEW,M,M,M,11000.00,M,M,M,M,M,M,M,M,M,M,51.80,K05U 130530Z AUTO 33005KT 10SM FEW110 11/04 A3016 RMK A01,M
BVU,2023-09-13 05:35,-114.8611,35.9475,671.00,78.80,51.80,39.02,270.00,3.00,0.00,29.89,M,10.00,M,CLR,M,M,M,M,M,M,M,M,M,M,M,M,M,M,78.80,KBVU 130535Z AUTO 27003KT 10SM CLR 26/11 A2989 RMK AO2,M
CXP,2023-09-13 05:35,-119.7326,39.1923,1431.00,64.40,42.80,45.32,0.00,0.00,0.00,30.10,M,10.00,M,CLR,M,M,M,M,M,M,M,M,M,M,M,M,M,M,64.40,KCXP 130535Z AUTO 00000KT 10SM CLR 18/06 A3010 RMK AO2,M
RTS,2023-09-13 05:35,-119.8764,39.6682,1539.00,64.40,35.60,34.22,320.00,9.00,0.00,30.12,M,10.00,M,CLR,M,M,M,M,M,M,M,M,M,M,M,M,M,M,64.40,KRTS 130535Z AUTO 32009KT 10SM CLR 18/02 A3012 RMK AO2,M
MEV,2023-09-13 05:35,-119.7500,38.9963,1441.42,55.40,39.20,54.34,100.00,4.00,0.00,30.09,M,10.00,M,CLR,M,M,M,M,M,M,M,M,M,M,M,M,M,M,55.40,KMEV 130535Z AUTO 10004KT 10SM CLR 13/04 A3009 RMK AO2,M
HTH,2023-09-13 05:35,-118.6315,38.5448,1282.89,66.20,53.60,63.82,180.00,5.00,0.00,30.03,M,10.00,M,FEW,M,M,M,12000.00,M,M,M,M,M,M,M,M,M,M,66.20,KHTH 130535Z AUTO 18005KT 10SM FEW120 19/12 A3003 RMK A01,M
10U,2023-09-13 05:35,-116.1876,41.9532,1637.00,60.80,44.60,55.12,80.00,6.00,0.00,30.08,M,10.00,M,BKN,M,M,M,10000.00,M,M,M,M,M,M,M,M,M,M,60.80,K10U 130535Z AUTO 08006KT 10SM BKN100 16/07 A3008 RMK AO2,M
BAM,2023-09-13 05:35,-116.8743,40.5990,1382.36,60.80,48.20,63.15,150.00,6.00,0.00,30.05,M,10.00,M,CLR,M,M,M,M,M,M,M,M,M,M,M,M,M,M,60.80,KBAM 130535Z AUTO 15006KT 10SM CLR 16/09 A3005 RMK AO1,M
TMT,2023-09-13 05:35,-117.1971,39.4643,1749.34,47.00,40.60,78.30,180.00,5.00,0.00,30.14,M,M,M,CLR,M,M,M,M,M,M,M,M,M,M,M,M,M,M,44.21,KTMT 130535Z AUTO 18005KT CLR 08/05 A3014 RMK AO2 T00830048 PWINO,M
05U,2023-09-13 05:50,-116.0051,39.6042,1811.23,51.80,39.20,61.99,0.00,0.00,0.00,30.17,M,10.00,M,CLR,M,M,M,M,M,M,M,M,M,M,M,M,M,M,51.80,K05U 130550Z AUTO 00000KT 10SM CLR 11/04 A3017 RMK A01,M
P68,2023-09-13 05:53,-116.0056,39.6014,1993.00,52.00,40.00,63.48,0.00,0.00,0.00,30.14,1014.80,M,M,M,M,M,M,M,M,M,M,M,M,M,M,M,M,M,52.00,KP68 130553Z AUTO 00000KT 11/04 A3014 RMK AO1 SLP148 T01110044 10256 20106 51008,M
DRA,2023-09-13 05:53,-116.0278,36.6206,1009.00,74.00,53.00,47.84,320.00,6.00,0.00,29.96,1009.70,10.00,M,CLR,M,M,M,M,M,M,M,M,M,M,M,M,M,M,74.00,KDRA 130553Z AUTO 32006KT 10SM CLR 23/12 A2996 RMK AO2 SLP097 T02330117 10322 20233 51011,M
ELY,2023-09-13 05:53,-114.8453,39.2950,1909.00,52.00,45.00,76.94,170.00,3.00,0.00,30.17,1013.40,10.00,M,CLR,M,M,M,M,M,M,M,M,M,M,M,M,M,M,52.00,KELY 130553Z AUTO 17003KT 10SM CLR 11/07 A3017 RMK AO2 SLP134 T01110072 10228 20106 50008,M
VGT,2023-09-13 05:53,-115.1933,36.2111,667.00,83.00,55.00,38.26,100.00,6.00,0.00,29.90,1011.30,10.00,M,CLR,M,M,M,M,M,M,M,M,M,M,M,M,M,M,82.11,KVGT 130553Z AUTO 10006KT 10SM CLR 28/13 A2990 RMK AO2 SLP113 T02830128 10350 20283 51012,M
LOL,2023-09-13 05:53,-118.5701,40.0684,1192.43,60.00,42.00,51.33,300.00,4.00,0.00,29.99,1012.50,10.00,M,CLR,M,M,M,M,M,M,M,M,M,M,M,M,M,M,60.00,KLOL 130553Z AUTO 30004KT 10SM CLR 16/06 A2999 RMK AO2 SLP125 T01560056 10294 20156 51011,M
RTS,2023-09-13 05:55,-119.8764,39.6682,1539.00,64.40,33.80,31.85,290.00,6.00,0.00,30.12,M,10.00,M,CLR,M,M,M,M,M,M,M,M,M,M,M,M,M,M,64.40,KRTS 130555Z AUTO 29006KT 10SM CLR 18/01 A3012 RMK AO2,M
MEV,2023-09-13 05:55,-119.7500,38.9963,1441.42,55.40,39.20,54.34,130.00,4.00,0.00,30.09,M,10.00,M,FEW,M,M,M,4600.00,M,M,M,M,M,M,M,M,M,M,55.40,KMEV 130555Z AUTO 13004KT 10SM FEW046 13/04 A3009 RMK AO2,M
HTH,2023-09-13 05:55,-118.6315,38.5448,1282.89,66.20,53.60,63.82,170.00,3.00,0.00,30.03,M,10.00,M,SCT,M,M,M,12000.00,M,M,M,M,M,M,M,M,M,M,66.20,KHTH 130555Z AUTO 17003KT 10SM SCT120 19/12 A3003 RMK A01,M
BVU,2023-09-13 05:55,-114.8611,35.9475,671.00,77.00,55.40,47.25,0.00,0.00,0.00,29.89,M,10.00,M,CLR,M,M,M,M,M,M,M,M,M,M,M,M,M,M,77.00,KBVU 130555Z AUTO 00000KT 10SM CLR 25/13 A2989 RMK AO2,M
CXP,2023-09-13 05:55,-119.7326,39.1923,1431.00,62.60,42.80,48.28,0.00,0.00,0.00,30.10,M,10.00,M,CLR,M,M,M,M,M,M,M,M,M,M,M,M,M,M,62.60,KCXP 130555Z AUTO 00000KT 10SM CLR 17/06 A3010 RMK AO2,M
INS,2023-09-13 05:55,-115.6733,36.5872,955.00,77.00,53.80,44.57,0.00,0.00,0.00,29.96,1009.70,10.00,M,CLR,M,M,M,M,M,M,M,M,M,M,M,M,M,M,77.00,KINS 130555Z AUTO 00000KT 10SM CLR 25/12 A2996 RMK AO2 SLP097 T02490121 10311 20243 52013 $,M
RNO,2023-09-13 05:55,-119.7711,39.4839,1341.00,70.00,42.00,36.22,50.00,4.00,0.00,30.07,1013.00,10.00,M,FEW,M,M,M,20000.00,M,M,M,M,M,M,M,M,M,M,70.00,KRNO 130555Z 05004KT 10SM FEW200 21/06 A3007 RMK AO2 SLP130 T02110056 10294 20211 51015,M
BAM,2023-09-13 05:55,-116.8743,40.5990,1382.36,59.00,48.20,67.33,190.00,6.00,0.00,30.05,M,10.00,M,CLR,M,M,M,M,M,M,M,M,M,M,M,M,M,M,59.00,KBAM 130555Z AUTO 19006KT 10SM CLR 15/09 A3005 RMK AO1,M
TMT,2023-09-13 05:55,-117.1971,39.4643,1749.34,47.50,41.00,78.04,230.00,3.00,0.00,30.14,M,M,M,CLR,M,M,M,M,M,M,M,M,M,M,M,M,M,M,46.41,KTMT 130555Z AUTO 23003KT CLR 09/05 A3014 RMK AO2 LTG DSNT SE T00860050 10240 20077 PWINO,M
10U,2023-09-13 05:55,-116.1876,41.9532,1637.00,60.80,42.80,51.45,120.00,5.00,0.00,30.09,M,10.00,M,FEW,M,M,M,10000.00,M,M,M,M,M,M,M,M,M,M,60.80,K10U 130555Z AUTO 12005KT 10SM FEW100 16/06 A3009 RMK AO2,M
LSV,2023-09-13 05:55,-115.0343,36.2362,570.00,80.60,M,M,70.00,5.00,0.00,29.85,1008.40,10.00,M,M,M,M,M,M,M,M,M,M,M,M,M,M,M,M,M,KLSV 130555Z AUTO 07005KT 10SM M 27/ A2985 RMK AO2 SLP084 10351 20273 52011 RVRNO FZRANO $,M
LAS,2023-09-13 05:56,-115.1634,36.0719,663.00,81.00,54.00,39.37,190.00,5.00,0.00,29.90,1009.80,10.00,M,FEW,M,M,M,22000.00,M,M,M,M,M,M,M,M,M,M,80.59,KLAS 130556Z 19005KT 10SM FEW220 27/12 A2990 RMK AO2 SLP098 T02720122 10322 20272 51009 $,M
EKO,2023-09-13 05:56,-115.7860,40.8242,1367.00,60.00,44.00,55.42,80.00,3.00,0.00,30.08,1013.70,10.00,M,CLR,M,M,M,M,M,M,M,M,M,M,M,M,M,M,60.00,KEKO 130556Z AUTO 08003KT 10SM CLR 16/07 A3008 RMK AO2 SLP137 T01560067 10261 20144 51008,M
WMC,2023-09-13 05:56,-117.8072,40.9019,1315.00,55.00,37.00,50.58,M,5.00,0.00,30.02,1012.50,10.00,M,CLR,M,M,M,M,M,M,M,M,M,M,M,M,M,M,55.00,KWMC 130556Z AUTO VRB05KT 10SM CLR 13/03 A3002 RMK AO2 SLP125 T01280028 10300 20128 51006,M
HND,2023-09-13 05:56,-115.1344,35.9729,742.79,77.00,57.00,50.07,190.00,7.00,0.00,29.93,1012.50,10.00,M,CLR,M,M,M,M,M,M,M,M,M,M,M,M,M,M,77.00,KHND 130556Z AUTO 19007KT 10SM CLR 25/14 A2993 RMK AO2 SLP125 60000 T02500139 10311 20250 51009,M
NFL,2023-09-13 05:56,-118.7010,39.4166,1199.00,70.00,38.00,31.00,290.00,8.00,0.00,30.00,1012.80,10.00,M,FEW,M,M,M,12000.00,M,M,M,M,M,M,M,M,M,M,70.00,KNFL 130556Z 29008KT 10SM FEW120 21/03 A3000 RMK AO2 SLP128 T02110033 10306 20183 51010,M
05U,2023-09-13 06:10,-116.0051,39.6042,1811.23,51.80,39.20,61.99,0.00,0.00,0.00,30.17,M,10.00,M,CLR,M,M,M,M,M,M,M,M,M,M,M,M,M,M,51.80,K05U 130610Z AUTO 00000KT 10SM CLR 11/04 A3017 RMK A01,M
BVU,2023-09-13 06:15,-114.8611,35.9475,671.00,77.00,53.60,44.25,0.00,0.00,0.00,29.90,M,10.00,M,CLR,M,M,M,M,M,M,M,M,M,M,M,M,M,M,77.00,KBVU 130615Z AUTO 00000KT 10SM CLR 25/12 A2990 RMK AO2,M
CXP,2023-09-13 06:15,-119.7326,39.1923,1431.00,60.80,44.60,55.12,190.00,3.00,0.00,30.10,M,10.00,M,CLR,M,M,M,M,M,M,M,M,M,M,M,M,M,M,60.80,KCXP 130615Z AUTO 19003KT 10SM CLR 16/07 A3010 RMK AO2,M
RTS,2023-09-13 06:15,-119.8764,39.6682,1539.00,60.80,35.60,38.85,M,4.00,0.00,30.13,M,10.00,M,CLR,M,M,M,M,M,M,M,M,M,M,M,M,M,M,60.80,KRTS 130615Z AUTO VRB04KT 10SM CLR 16/02 A3013 RMK AO2,M
MEV,2023-09-13 06:15,-119.7500,38.9963,1441.42,53.60,39.20,58.02,90.00,5.00,0.00,30.09,M,10.00,M,FEW,FEW,FEW,M,3600.00,4600.00,5500.00,M,M,M,M,M,M,M,M,53.60,KMEV 130615Z AUTO 09005KT 10SM FEW036 FEW046 FEW055 12/04 A3009 RMK AO2,M
TMT,2023-09-13 06:15,-117.1971,39.4643,1749.34,47.70,41.00,77.45,230.00,4.00,0.00,30.15,M,M,M,CLR,M,M,M,M,M,M,M,M,M,M,M,M,M,M,45.75,KTMT 130615Z AUTO 23004KT CLR 09/05 A3015 RMK AO2 LTG DSNT SW T00870049 PWINO,M
BAM,2023-09-13 06:15,-116.8743,40.5990,1382.36,59.00,50.00,72.01,190.00,6.00,0.00,30.05,M,10.00,M,CLR,M,M,M,M,M,M,M,M,M,M,M,M,M,M,59.00,KBAM 130615Z AUTO 19006KT 10SM CLR 15/10 A3005 RMK AO1,M
HTH,2023-09-13 06:15,-118.6315,38.5448,1282.89,66.20,51.80,59.74,190.00,4.00,0.00,30.03,M,10.00,M,FEW,M,M,M,11000.00,M,M,M,M,M,M,M,M,M,M,66.20,KHTH 130615Z AUTO 19004KT 10SM FEW110 19/11 A3003 RMK A01,M
10U,2023-09-13 06:20,-116.1876,41.9532,1637.00,57.20,42.80,58.52,100.00,6.00,0.00,30.09,M,10.00,M,CLR,M,M,M,M,M,M,M,M,M,M,M,M,M,M,57.20,K10U 130620Z AUTO 10006KT 10SM CLR 14/06 A3009 RMK AO2,M
05U,2023-09-13 06:30,-116.0051,39.6042,1811.23,50.00,39.20,66.27,360.00,6.00,0.00,30.16,M,10.00,M,CLR,M,M,M,M,M,M,M,M,M,M,M,M,M,M,50.00,K05U 130630Z AUTO 36006KT 10SM CLR 10/04 A3016 RMK A01,M
BVU,2023-09-13 06:35,-114.8611,35.9475,671.00,75.20,53.60,46.98,350.00,5.00,0.00,29.90,M,10.00,M,CLR,M,M,M,M,M,M,M,M,M,M,M,M,M,M,75.20,KBVU 130635Z AUTO 35005KT 10SM CLR 24/12 A2990 RMK AO2,M
CXP,2023-09-13 06:35,-119.7326,39.1923,1431.00,60.80,42.80,51.45,0.00,0.00,0.00,30.10,M,10.00,M,CLR,M,M,M,M,M,M,M,M,M,M,M,M,M,M,60.80,KCXP 130635Z AUTO 00000KT 10SM CLR 16/06 A3010 RMK AO2,M
RTS,2023-09-13 06:35,-119.8764,39.6682,1539.00,59.00,33.80,38.56,0.00,0.00,0.00,30.13,M,10.00,M,CLR,M,M,M,M,M,M,M,M,M,M,M,M,M,M,59.00,KRTS 130635Z AUTO 00000KT 10SM CLR 15/01 A3013 RMK AO2,M
MEV,2023-09-13 06:35,-119.7500,38.9963,1441.42,55.40,41.00,58.27,100.00,6.00,0.00,30.09,M,10.00,M,CLR,M,M,M,M,M,M,M,M,M,M,M,M,M,M,55.40,KMEV 130635Z AUTO 10006KT 10SM CLR 13/05 A3009 RMK AO2,M
HTH,2023-09-13 06:35,-118.6315,38.5448,1282.89,66.20,50.00,55.88,230.00,6.00,0.00,30.03,M,10.00,M,SCT,M,M,M,12000.00,M,M,M,M,M,M,M,M,M,M,66.20,KHTH 130635Z AUTO 23006KT 10SM SCT120 19/10 A3003 RMK A01,M
BAM,2023-09-13 06:35,-116.8743,40.5990,1382.36,59.00,50.00,72.01,170.00,7.00,0.00,30.05,M,10.00,M,CLR,M,M,M,M,M,M,M,M,M,M,M,M,M,M,59.00,KBAM 130635Z AUTO 17007KT 10SM CLR 15/10 A3005 RMK AO1,M
TMT,2023-09-13 06:35,-117.1971,39.4643,1749.34,48.40,43.00,81.49,220.00,4.00,0.00,30.15,M,M,M,SCT,M,M,M,9000.00,M,M,M,M,M,M,M,M,M,M,46.57,KTMT 130635Z AUTO 22004KT SCT090 09/06 A3015 RMK AO2 T00910062 PWINO,M
10U,2023-09-13 06:40,-116.1876,41.9532,1637.00,53.60,42.80,66.70,70.00,5.00,0.00,30.09,M,10.00,M,CLR,M,M,M,M,M,M,M,M,M,M,M,M,M,M,53.60,K10U 130640Z AUTO 07005KT 10SM CLR 12/06 A3009 RMK AO2,M
05U,2023-09-13 06:50,-116.0051,39.6042,1811.23,50.00,39.20,66.27,340.00,4.00,0.00,30.16,M,10.00,M,CLR,M,M,M,M,M,M,M,M,M,M,M,M,M,M,50.00,K05U 130650Z AUTO 34004KT 10SM CLR 10/04 A3016 RMK A01,M
LOL,2023-09-13 06:53,-118.5701,40.0684,1192.43,61.00,36.00,39.19,300.00,5.00,0.00,29.99,1012.20,10.00,M,CLR,M,M,M,M,M,M,M,M,M,M,M,M,M,M,61.00,KLOL 130653Z AUTO 30005KT 10SM CLR 16/02 A2999 RMK AO2 SLP122 T01610022,M
P68,2023-09-13 06:53,-116.0056,39.6014,1993.00,50.00,39.00,65.75,180.00,5.00,0.00,30.14,1014.00,M,M,M,M,M,M,M,M,M,M,M,M,M,M,M,M,M,50.00,KP68 130653Z AUTO 18005KT 10/04 A3014 RMK AO1 SLP140 T01000039,M
DRA,2023-09-13 06:53,-116.0278,36.6206,1009.00,74.00,53.00,47.84,0.00,0.00,0.00,29.97,1010.00,10.00,M,CLR,M,M,M,M,M,M,M,M,M,M,M,M,M,M,74.00,KDRA 130653Z AUTO 00000KT 10SM CLR 23/12 A2997 RMK AO2 SLP100 T02330117,M
ELY,2023-09-13 06:53,-114.8453,39.2950,1909.00,48.00,44.00,85.95,170.00,8.00,0.00,30.18,1013.50,10.00,M,CLR,M,M,M,M,M,M,M,M,M,M,M,M,M,M,43.82,KELY 130653Z AUTO 17008KT 10SM CLR 09/07 A3018 RMK AO2 SLP135 T00890067,M
VGT,2023-09-13 06:53,-115.1933,36.2111,667.00,83.00,55.00,38.26,0.00,0.00,0.00,29.90,1011.40,10.00,M,CLR,M,M,M,M,M,M,M,M,M,M,M,M,M,M,82.11,KVGT 130653Z AUTO 00000KT 10SM CLR 28/13 A2990 RMK AO2 SLP114 T02830128,M
RTS,2023-09-13 06:55,-119.8764,39.6682,1539.00,60.80,33.80,36.16,290.00,3.00,0.00,30.13,M,10.00,M,CLR,M,M,M,M,M,M,M,M,M,M,M,M,M,M,60.80,KRTS 130655Z AUTO 29003KT 10SM CLR 16/01 A3013 RMK AO2,M
MEV,2023-09-13 06:55,-119.7500,38.9963,1441.42,55.40,41.00,58.27,100.00,6.00,0.00,30.09,M,10.00,M,CLR,M,M,M,M,M,M,M,M,M,M,M,M,M,M,55.40,KMEV 130655Z AUTO 10006KT 10SM CLR 13/05 A3009 RMK AO2,M
HTH,2023-09-13 06:55,-118.6315,38.5448,1282.89,66.20,51.80,59.74,220.00,4.00,0.00,30.03,M,10.00,M,SCT,M,M,M,12000.00,M,M,M,M,M,M,M,M,M,M,66.20,KHTH 130655Z AUTO 22004KT 10SM SCT120 19/11 A3003 RMK A01,M
BVU,2023-09-13 06:55,-114.8611,35.9475,671.00,75.20,53.60,46.98,0.00,0.00,0.00,29.90,M,10.00,M,CLR,M,M,M,M,M,M,M,M,M,M,M,M,M,M,75.20,KBVU 130655Z AUTO 00000KT 10SM CLR 24/12 A2990 RMK AO2,M
CXP,2023-09-13 06:55,-119.7326,39.1923,1431.00,59.00,44.60,58.77,0.00,0.00,0.00,30.10,M,10.00,M,CLR,M,M,M,M,M,M,M,M,M,M,M,M,M,M,59.00,KCXP 130655Z AUTO 00000KT 10SM CLR 15/07 A3010 RMK AO2,M
RNO,2023-09-13 06:55,-119.7711,39.4839,1341.00,68.00,40.00,35.90,260.00,4.00,0.00,30.08,1013.30,10.00,M,CLR,M,M,M,M,M,M,M,M,M,M,M,M,M,M,68.00,KRNO 130655Z 26004KT 10SM CLR 20/04 A3008 RMK AO2 SLP133 T02000044,M
BAM,2023-09-13 06:55,-116.8743,40.5990,1382.36,59.00,50.00,72.01,190.00,6.00,0.00,30.04,M,10.00,M,CLR,M,M,M,M,M,M,M,M,M,M,M,M,M,M,59.00,KBAM 130655Z AUTO 19006KT 10SM CLR 15/10 A3004 RMK AO1,M
TMT,2023-09-13 06:55,-117.1971,39.4643,1749.34,49.00,43.30,80.60,0.00,0.00,0.00,30.15,M,M,M,BKN,M,M,M,9000.00,M,M,M,M,M,M,M,M,M,M,49.00,KTMT 130655Z AUTO 00000KT BKN090 09/06 A3015 RMK AO2 T00940063 PWINO,M
NFL,2023-09-13 06:56,-118.7010,39.4166,1199.00,61.00,41.00,47.66,190.00,5.00,0.00,30.00,1013.00,10.00,M,CLR,M,M,M,M,M,M,M,M,M,M,M,M,M,M,61.00,KNFL 130656Z AUTO 19005KT 10SM CLR 16/05 A3000 RMK AO2 SLP130 T01610050,M
HND,2023-09-13 06:56,-115.1344,35.9729,742.79,76.00,56.00,49.92,190.00,5.00,0.00,29.94,1012.70,10.00,M,CLR,M,M,M,M,M,M,M,M,M,M,M,M,M,M,76.00,KHND 130656Z AUTO 19005KT 10SM CLR 24/13 A2994 RMK AO2 SLP127 T02440133 403440244,M
LAS,2023-09-13 06:56,-115.1634,36.0719,663.00,81.00,55.00,40.83,0.00,0.00,0.00,29.90,1009.90,10.00,M,FEW,M,M,M,15000.00,M,M,M,M,M,M,M,M,M,M,80.73,KLAS 130656Z 00000KT 10SM FEW150 27/13 A2990 RMK AO2 SLP099 T02720128 $,M
EKO,2023-09-13 06:56,-115.7860,40.8242,1367.00,57.00,44.00,61.72,50.00,3.00,0.00,30.08,1013.80,10.00,M,CLR,M,M,M,M,M,M,M,M,M,M,M,M,M,M,57.00,KEKO 130656Z AUTO 05003KT 10SM CLR 14/07 A3008 RMK AO2 SLP138 T01390067 $,M
WMC,2023-09-13 06:56,-117.8072,40.9019,1315.00,53.00,33.00,46.41,190.00,5.00,0.00,30.02,1012.60,10.00,M,CLR,M,M,M,M,M,M,M,M,M,M,M,M,M,M,53.00,KWMC 130656Z AUTO 19005KT 10SM CLR 12/01 A3002 RMK AO2 SLP126 T01170006,M
10U,2023-09-13 07:00,-116.1876,41.9532,1637.00,53.60,44.60,71.45,60.00,3.00,0.00,30.09,M,10.00,M,CLR,M,M,M,M,M,M,M,M,M,M,M,M,M,M,53.60,K10U 130700Z AUTO 06003KT 10SM CLR 12/07 A3009 RMK AO2,M
05U,2023-09-13 07:10,-116.0051,39.6042,1811.23,51.80,39.20,61.99,350.00,4.00,0.00,30.16,M,10.00,M,CLR,M,M,M,M,M,M,M,M,M,M,M,M,M,M,51.80,K05U 130710Z AUTO 35004KT 10SM CLR 11/04 A3016 RMK A01,M
BVU,2023-09-13 07:15,-114.8611,35.9475,671.00,73.40,55.40,53.29,0.00,0.00,0.00,29.89,M,10.00,M,CLR,M,M,M,M,M,M,M,M,M,M,M,M,M,M,73.40,KBVU 130715Z AUTO 00000KT 10SM CLR 23/13 A2989 RMK AO2,M
CXP,2023-09-13 07:15,-119.7326,39.1923,1431.00,59.00,44.60,58.77,0.00,0.00,0.00,30.10,M,10.00,M,CLR,M,M,M,M,M,M,M,M,M,M,M,M,M,M,59.00,KCXP 130715Z AUTO 00000KT 10SM CLR 15/07 A3010 RMK AO2,M
RTS,2023-09-13 07:15,-119.8764,39.6682,1539.00,60.80,33.80,36.16,330.00,5.00,0.00,30.13,M,10.00,M,CLR,M,M,M,M,M,M,M,M,M,M,M,M,M,M,60.80,KRTS 130715Z AUTO 33005KT 10SM CLR 16/01 A3013 RMK AO2,M
MEV,2023-09-13 07:15,-119.7500,38.9963,1441.42,55.40,39.20,54.34,110.00,7.00,0.00,30.09,M,10.00,M,CLR,M,M,M,M,M,M,M,M,M,M,M,M,M,M,55.40,KMEV 130715Z AUTO 11007KT 10SM CLR 13/04 A3009 RMK AO2,M
HTH,2023-09-13 07:15,-118.6315,38.5448,1282.89,66.20,50.00,55.88,230.00,4.00,0.00,30.03,M,10.00,M,FEW,M,M,M,12000.00,M,M,M,M,M,M,M,M,M,M,66.20,KHTH 130715Z AUTO 23004KT 10SM FEW120 19/10 A3003 RMK A01,M
BAM,2023-09-13 07:15,-116.8743,40.5990,1382.36,55.40,48.20,76.66,170.00,5.00,0.00,30.05,M,10.00,M,CLR,M,M,M,M,M,M,M,M,M,M,M,M,M,M,55.40,KBAM 130715Z AUTO 17005KT 10SM CLR 13/09 A3005 RMK AO1,M
TMT,2023-09-13 07:15,-117.1971,39.4643,1749.34,47.70,43.00,83.66,0.00,0.00,0.00,30.15,M,M,M,SCT,M,M,M,10000.00,M,M,M,M,M,M,M,M,M,M,47.70,KTMT 130715Z AUTO 00000KT SCT100 09/06 A3015 RMK AO2 T00870061 PWINO,M
10U,2023-09-13 07:20,-116.1876,41.9532,1637.00,57.20,42.80,58.52,100.00,4.00,0.00,30.09,M,10.00,M,CLR,M,M,M,M,M,M,M,M,M,M,M,M,M,M,57.20,K10U 130720Z AUTO 10004KT 10SM CLR 14/06 A3009 RMK AO2,M
05U,2023-09-13 07:30,-116.0051,39.6042,1811.23,50.00,39.20,66.27,340.00,3.00,0.00,30.16,M,10.00,M,BKN,M,M,M,10000.00,M,M,M,M,M,M,M,M,M,M,50.00,K05U 130730Z AUTO 34003KT 10SM BKN100 10/04 A3016 RMK A01,M
BAM,2023-09-13 07:35,-116.8743,40.5990,1382.36,55.40,48.20,76.66,170.00,7.00,0.00,30.05,M,10.00,M,CLR,M,M,M,M,M,M,M,M,M,M,M,M,M,M,55.40,KBAM 130735Z AUTO 17007KT 10SM CLR 13/09 A3005 RMK AO1,M
HTH,2023-09-13 07:35,-118.6315,38.5448,1282.89,64.40,51.80,63.60,230.00,7.00,0.00,30.04,M,10.00,M,CLR,M,M,M,M,M,M,M,M,M,M,M,M,M,M,64.40,KHTH 130735Z AUTO 23007KT 10SM CLR 18/11 A3004 RMK A01,M
10U,2023-09-13 07:35,-116.1876,41.9532,1637.00,53.60,42.80,66.70,0.00,0.00,0.00,30.09,M,10.00,M,CLR,M,M,M,M,M,M,M,M,M,M,M,M,M,M,53.60,K10U 130735Z AUTO 00000KT 10SM CLR 12/06 A3009 RMK AO2,M
TMT,2023-09-13 07:35,-117.1971,39.4643,1749.34,48.20,42.80,81.47,0.00,0.00,0.00,30.15,M,M,M,CLR,M,M,M,M,M,M,M,M,M,M,M,M,M,M,48.20,KTMT 130735Z AUTO 00000KT CLR 09/06 A3015 RMK AO2 T00900060 PWINO,M
BVU,2023-09-13 07:35,-114.8611,35.9475,671.00,73.40,55.40,53.29,0.00,0.00,0.00,29.89,M,10.00,M,CLR,M,M,M,M,M,M,M,M,M,M,M,M,M,M,73.40,KBVU 130735Z AUTO 00000KT 10SM CLR 23/13 A2989 RMK AO2,M
CXP,2023-09-13 07:35,-119.7326,39.1923,1431.00,60.80,42.80,51.45,210.00,5.00,0.00,30.10,M,10.00,M,CLR,M,M,M,M,M,M,M,M,M,M,M,M,M,M,60.80,KCXP 130735Z AUTO 21005KT 10SM CLR 16/06 A3010 RMK AO2,M
RTS,2023-09-13 07:35,-119.8764,39.6682,1539.00,57.20,33.80,41.13,340.00,4.00,0.00,30.13,M,10.00,M,CLR,M,M,M,M,M,M,M,M,M,M,M,M,M,M,57.20,KRTS 130735Z AUTO 34004KT 10SM CLR 14/01 A3013 RMK AO2,M
MEV,2023-09-13 07:35,-119.7500,38.9963,1441.42,53.60,39.20,58.02,0.00,0.00,0.00,30.09,M,10.00,M,CLR,M,M,M,M,M,M,M,M,M,M,M,M,M,M,53.60,KMEV 130735Z AUTO 00000KT 10SM CLR 12/04 A3009 RMK AO2,M
LSV,2023-09-13 07:39,-115.0343,36.2362,570.00,80.60,55.40,41.97,70.00,8.00,0.00,29.85,M,10.00,M,CLR,M,M,M,M,M,M,M,M,M,M,M,M,M,M,80.53,KLSV 130739Z 07008KT 10SM CLR 27/13 A2985 RMK SLPNO $,M
LSV,2023-09-13 07:45,-115.0343,36.2362,570.00,80.60,55.40,41.97,70.00,9.00,0.00,29.85,M,10.00,M,CLR,M,M,M,M,M,M,M,M,M,M,M,M,M,M,80.53,KLSV 130745Z 07009KT 10SM CLR 27/13 A2985 RMK SLPNO $,M
05U,2023-09-13 07:50,-116.0051,39.6042,1811.23,51.80,39.20,61.99,340.00,5.00,0.00,30.16,M,10.00,M,BKN,M,M,M,11000.00,M,M,M,M,M,M,M,M,M,M,51.80,K05U 130750Z AUTO 34005KT 10SM BKN110 11/04 A3016 RMK A01,M
P68,2023-09-13 07:53,-116.0056,39.6014,1993.00,52.00,40.00,63.48,190.00,6.00,0.00,30.13,1013.40,M,M,M,M,M,M,M,M,M,M,M,M,M,M,M,M,M,52.00,KP68 130753Z AUTO 19006KT 11/04 A3013 RMK AO1 SLP134 T01110044 402560072,M
DRA,2023-09-13 07:53,-116.0278,36.6206,1009.00,70.00,54.00,56.82,50.00,6.00,0.00,29.96,1009.70,10.00,M,CLR,M,M,M,M,M,M,M,M,M,M,M,M,M,M,70.00,KDRA 130753Z AUTO 05006KT 10SM CLR 21/12 A2996 RMK AO2 SLP097 T02110122 403280194,M
ELY,2023-09-13 07:53,-114.8453,39.2950,1909.00,47.00,44.00,89.24,160.00,8.00,0.00,30.18,1014.30,10.00,M,CLR,M,M,M,M,M,M,M,M,M,M,M,M,M,M,42.59,KELY 130753Z AUTO 16008KT 10SM CLR 08/07 A3018 RMK AO2 SLP143 T00830067 402390061,M
VGT,2023-09-13 07:53,-115.1933,36.2111,667.00,83.00,56.00,39.68,230.00,3.00,0.00,29.89,1011.10,10.00,M,CLR,M,M,M,M,M,M,M,M,M,M,M,M,M,M,82.29,KVGT 130753Z AUTO 23003KT 10SM CLR 28/13 A2989 RMK AO2 SLP111 T02830133 403500272,M
LOL,2023-09-13 07:53,-118.5701,40.0684,1192.43,54.00,38.00,54.56,140.00,4.00,0.00,30.00,1012.70,10.00,M,CLR,M,M,M,M,M,M,M,M,M,M,M,M,M,M,54.00,KLOL 130753Z AUTO 14004KT 10SM CLR 12/03 A3000 RMK AO2 SLP127 T01220033 403000089,M
MEV,2023-09-13 07:55,-119.7500,38.9963,1441.42,53.60,39.20,58.02,0.00,0.00,0.00,30.09,M,10.00,M,SCT,M,M,M,10000.00,M,M,M,M,M,M,M,M,M,M,53.60,KMEV 130755Z AUTO 00000KT 10SM SCT100 12/04 A3009 RMK AO2,M
BAM,2023-09-13 07:55,-116.8743,40.5990,1382.36,55.40,48.20,76.66,190.00,5.00,0.00,30.05,M,10.00,M,CLR,M,M,M,M,M,M,M,M,M,M,M,M,M,M,55.40,KBAM 130755Z AUTO 19005KT 10SM CLR 13/09 A3005 RMK AO1,M
HTH,2023-09-13 07:55,-118.6315,38.5448,1282.89,64.40,51.80,63.60,240.00,3.00,0.00,30.04,M,10.00,M,CLR,M,M,M,M,M,M,M,M,M,M,M,M,M,M,64.40,KHTH 130755Z AUTO 24003KT 10SM CLR 18/11 A3004 RMK A01,M
BVU,2023-09-13 07:55,-114.8611,35.9475,671.00,73.40,55.40,53.29,0.00,0.00,0.00,29.89,M,10.00,M,CLR,M,M,M,M,M,M,M,M,M,M,M,M,M,M,73.40,KBVU 130755Z AUTO 00000KT 10SM CLR 23/13 A2989 RMK AO2,M
CXP,2023-09-13 07:55,-119.7326,39.1923,1431.00,59.00,42.80,54.86,0.00,0.00,0.00,30.11,M,10.00,M,FEW,M,M,M,10000.00,M,M,M,M,M,M,M,M,M,M,59.00,KCXP 130755Z AUTO 00000KT 10SM FEW100 15/06 A3011 RMK AO2,M
RNO,2023-09-13 07:55,-119.7711,39.4839,1341.00,66.00,42.00,41.57,0.00,0.00,0.00,30.09,1013.40,10.00,M,CLR,M,M,M,M,M,M,M,M,M,M,M,M,M,M,66.00,KRNO 130755Z 00000KT 10SM CLR 19/06 A3009 RMK AO2 SLP134 T01890056 403060128,M
RTS,2023-09-13 07:55,-119.8764,39.6682,1539.00,55.40,33.80,43.90,330.00,6.00,0.00,30.13,M,10.00,M,CLR,M,M,M,M,M,M,M,M,M,M,M,M,M,M,55.40,KRTS 130755Z AUTO 33006KT 10SM CLR 13/01 A3013 RMK AO2,M
TMT,2023-09-13 07:55,-117.1971,39.4643,1749.34,50.00,42.30,74.73,260.00,3.00,0.00,30.15,M,M,M,CLR,M,M,M,M,M,M,M,M,M,M,M,M,M,M,50.00,KTMT 130755Z AUTO 26003KT CLR 10/06 A3015 RMK AO2 T00990057 402520064 PWINO,M
10U,2023-09-13 07:55,-116.1876,41.9532,1637.00,53.60,42.80,66.70,120.00,4.00,0.00,30.09,M,10.00,M,CLR,M,M,M,M,M,M,M,M,M,M,M,M,M,M,53.60,K10U 130755Z AUTO 12004KT 10SM CLR 12/06 A3009 RMK AO2,M
INS,2023-09-13 07:55,-115.6733,36.5872,955.00,71.60,54.50,54.81,320.00,3.00,0.00,29.96,1009.90,10.00,M,CLR,M,M,M,M,M,M,M,M,M,M,M,M,M,M,71.60,KINS 130755Z AUTO 32003KT 10SM CLR 22/13 A2996 RMK AO2 SLP099 T02200125 403130205 $,M
LSV,2023-09-13 07:55,-115.0343,36.2362,570.00,80.40,55.20,41.94,50.00,8.00,0.00,29.85,1008.20,10.00,M,CLR,M,M,M,M,M,M,M,M,M,M,M,M,M,M,80.38,KLSV 130755Z AUTO 05008KT 10SM CLR 27/13 A2985 RMK AO2 SLP082 T02690129 403700254 $,M
LAS,2023-09-13 07:56,-115.1634,36.0719,663.00,81.00,54.00,39.37,0.00,0.00,0.00,29.90,1009.70,10.00,M,CLR,M,M,M,M,M,M,M,M,M,M,M,M,M,M,80.59,KLAS 130756Z 00000KT 10SM CLR 27/12 A2990 RMK AO2 SLP097 T02720122 403440267 $,M
EKO,2023-09-13 07:56,-115.7860,40.8242,1367.00,54.00,44.00,68.82,0.00,0.00,0.00,30.08,1013.90,10.00,M,CLR,M,M,M,M,M,M,M,M,M,M,M,M,M,M,54.00,KEKO 130756Z AUTO 00000KT 10SM CLR 12/07 A3008 RMK AO2 SLP139 T01220067 402830094 $,M
WMC,2023-09-13 07:56,-117.8072,40.9019,1315.00,54.00,35.00,48.46,190.00,8.00,0.00,30.03,1012.50,10.00,M,CLR,M,M,M,M,M,M,M,M,M,M,M,M,M,M,54.00,KWMC 130756Z AUTO 19008KT 10SM CLR 12/02 A3003 RMK AO2 SLP125 T01220017 403110078,M
NFL,2023-09-13 07:56,-118.7010,39.4166,1199.00,61.00,40.00,45.85,120.00,4.00,0.00,30.01,1013.30,10.00,M,CLR,M,M,M,M,M,M,M,M,M,M,M,M,M,M,61.00,KNFL 130756Z AUTO 12004KT 10SM CLR 16/04 A3001 RMK AO2 SLP133 T01610044 403110133,M
HND,2023-09-13 07:56,-115.1344,35.9729,742.79,75.00,56.00,51.62,200.00,4.00,0.00,29.94,1012.50,10.00,M,CLR,M,M,M,M,M,M,M,M,M,M,M,M,M,M,75.00,KHND 130756Z AUTO 20004KT 10SM CLR 24/13 A2994 RMK AO2 SLP125 T02390133,M
05U,2023-09-13 08:10,-116.0051,39.6042,1811.23,53.60,37.40,54.07,10.00,6.00,0.00,30.16,M,10.00,M,BKN,BKN,M,M,10000.00,12000.00,M,M,M,M,M,M,M,M,M,53.60,K05U 130810Z AUTO 01006KT 10SM BKN100 BKN120 12/03 A3016 RMK A01,M
BVU,2023-09-13 08:15,-114.8611,35.9475,671.00,73.40,55.40,53.29,0.00,0.00,0.00,29.89,M,10.00,M,CLR,M,M,M,M,M,M,M,M,M,M,M,M,M,M,73.40,KBVU 130815Z AUTO 00000KT 10SM CLR 23/13 A2989 RMK AO2,M
CXP,2023-09-13 08:15,-119.7326,39.1923,1431.00,57.20,42.80,58.52,90.00,6.00,0.00,30.11,M,10.00,M,BKN,M,M,M,10000.00,M,M,M,M,M,M,M,M,M,M,57.20,KCXP 130815Z AUTO 09006KT 10SM BKN100 14/06 A3011 RMK AO2,M
RTS,2023-09-13 08:15,-119.8764,39.6682,1539.00,55.40,33.80,43.90,340.00,5.00,0.00,30.13,M,10.00,M,CLR,M,M,M,M,M,M,M,M,M,M,M,M,M,M,55.40,KRTS 130815Z AUTO 34005KT 10SM CLR 13/01 A3013 RMK AO2,M
MEV,2023-09-13 08:15,-119.7500,38.9963,1441.42,55.40,41.00,58.27,10.00,6.00,0.00,30.10,M,10.00,M,BKN,M,M,M,10000.00,M,M,M,M,M,M,M,M,M,M,55.40,KMEV 130815Z AUTO 01006KT 10SM BKN100 13/05 A3010 RMK AO2,M
BAM,2023-09-13 08:15,-116.8743,40.5990,1382.36,53.60,48.20,81.87,60.00,5.00,0.00,30.05,M,10.00,M,CLR,M,M,M,M,M,M,M,M,M,M,M,M,M,M,53.60,KBAM 130815Z AUTO 06005KT 10SM CLR 12/09 A3005 RMK AO1,M
HTH,2023-09-13 08:15,-118.6315,38.5448,1282.89,66.20,48.20,52.25,250.00,5.00,0.00,30.04,M,10.00,M,CLR,M,M,M,M,M,M,M,M,M,M,M,M,M,M,66.20,KHTH 130815Z AUTO 25005KT 10SM CLR 19/09 A3004 RMK A01,M
10U,2023-09-13 08:15,-116.1876,41.9532,1637.00,53.60,42.80,66.70,130.00,6.00,0.00,30.09,M,10.00,M,CLR,M,M,M,M,M,M,M,M,M,M,M,M,M,M,53.60,K10U 130815Z AUTO 13006KT 10SM CLR 12/06 A3009 RMK AO2,M
TMT,2023-09-13 08:15,-117.1971,39.4643,1749.34,47.50,42.30,82.05,250.00,5.00,0.00,30.15,M,M,M,CLR,M,M,M,M,M,M,M,M,M,M,M,M,M,M,44.80,KTMT 130815Z AUTO 25005KT CLR 09/06 A3015 RMK AO2 T00860057 PWINO,M
05U,2023-09-13 08:30,-116.0051,39.6042,1811.23,53.60,37.40,54.07,350.00,6.00,0.00,30.16,M,10.00,M,SCT,M,M,M,10000.00,M,M,M,M,M,M,M,M,M,M,53.60,K05U 130830Z AUTO 35006KT 10SM SCT100 12/03 A3016 RMK A01,M
BVU,2023-09-13 08:35,-114.8611,35.9475,671.00,73.40,55.40,53.29,0.00,0.00,0.00,29.89,M,10.00,M,CLR,M,M,M,M,M,M,M,M,M,M,M,M,M,M,73.40,KBVU 130835Z AUTO 00000KT 10SM CLR 23/13 A2989 RMK AO2,M
CXP,2023-09-13 08:35,-119.7326,39.1923,1431.00,59.00,42.80,54.86,130.00,4.00,0.00,30.10,M,10.00,M,BKN,M,M,M,10000.00,M,M,M,M,M,M,M,M,M,M,59.00,KCXP 130835Z AUTO 13004KT 10SM BKN100 15/06 A3010 RMK AO2,M
RTS,2023-09-13 08:35,-119.8764,39.6682,1539.00,55.40,35.60,47.16,330.00,5.00,0.00,30.13,M,10.00,M,CLR,M,M,M,M,M,M,M,M,M,M,M,M,M,M,55.40,KRTS 130835Z AUTO 33005KT 10SM CLR 13/02 A3013 RMK AO2,M
MEV,2023-09-13 08:35,-119.7500,38.9963,1441.42,53.60,41.00,62.23,0.00,0.00,0.00,30.10,M,10.00,M,OVC,M,M,M,10000.00,M,M,M,M,M,M,M,M,M,M,53.60,KMEV 130835Z AUTO 00000KT 10SM OVC100 12/05 A3010 RMK AO2,M
BAM,2023-09-13 08:35,-116.8743,40.5990,1382.36,53.60,46.40,76.50,40.00,3.00,0.00,30.05,M,10.00,M,CLR,M,M,M,M,M,M,M,M,M,M,M,M,M,M,53.60,KBAM 130835Z AUTO 04003KT 10SM CLR 12/08 A3005 RMK AO1,M
HTH,2023-09-13 08:35,-118.6315,38.5448,1282.89,64.40,50.00,59.50,210.00,4.00,0.00,30.04,M,10.00,M,CLR,M,M,M,M,M,M,M,M,M,M,M,M,M,M,64.40,KHTH 130835Z AUTO 21004KT 10SM CLR 18/10 A3004 RMK A01,M
TMT,2023-09-13 08:35,-117.1971,39.4643,1749.34,42.80,40.00,89.75,0.00,0.00,0.00,30.15,M,M,M,M,M,M,M,M,M,M,M,M,M,M,M,M,M,M,42.80,KTMT 130835Z AUTO 00000KT 06/05 A3015 RMK AO2 T00600045 PWINO,M
10U,2023-09-13 08:40,-116.1876,41.9532,1637.00,53.60,42.80,66.70,140.00,7.00,0.00,30.09,M,10.00,M,CLR,M,M,M,M,M,M,M,M,M,M,M,M,M,M,53.60,K10U 130840Z AUTO 14007KT 10SM CLR 12/06 A3009 RMK AO2,M
05U,2023-09-13 08:50,-116.0051,39.6042,1811.23,53.60,39.20,58.02,350.00,7.00,0.00,30.16,M,10.00,M,SCT,M,M,M,11000.00,M,M,M,M,M,M,M,M,M,M,53.60,K05U 130850Z AUTO 35007KT 10SM SCT110 12/04 A3016 RMK A01,M
P68,2023-09-13 08:53,-116.0056,39.6014,1993.00,52.00,39.00,61.06,200.00,8.00,0.00,30.13,1013.20,M,M,M,M,M,M,M,M,M,M,M,M,M,M,M,M,M,52.00,KP68 130853Z AUTO 20008KT 11/04 A3013 RMK AO1 SLP132 T01110039 56003,M
DRA,2023-09-13 08:53,-116.0278,36.6206,1009.00,68.00,54.00,60.86,0.00,0.00,0.00,29.96,1009.90,10.00,M,CLR,M,M,M,M,M,M,M,M,M,M,M,M,M,M,68.00,KDRA 130853Z AUTO 00000KT 10SM CLR 20/12 A2996 RMK AO2 SLP099 T02000122 51003,M
ELY,2023-09-13 08:53,-114.8453,39.2950,1909.00,45.00,42.00,89.15,160.00,4.00,0.00,30.17,1014.30,10.00,M,CLR,M,M,M,M,M,M,M,M,M,M,M,M,M,M,42.60,KELY 130853Z AUTO 16004KT 10SM CLR 07/06 A3017 RMK AO2 SLP143 T00720056 51001,M
VGT,2023-09-13 08:53,-115.1933,36.2111,667.00,81.00,56.00,42.34,230.00,5.00,0.00,29.89,1011.10,10.00,M,CLR,M,M,M,M,M,M,M,M,M,M,M,M,M,M,80.88,KVGT 130853Z AUTO 23005KT 10SM CLR 27/13 A2989 RMK AO2 SLP111 T02720133 57001,M
LOL,2023-09-13 08:53,-118.5701,40.0684,1192.43,57.00,37.00,47.04,40.00,6.00,0.00,30.01,1012.70,10.00,M,CLR,M,M,M,M,M,M,M,M,M,M,M,M,M,M,57.00,KLOL 130853Z AUTO 04006KT 10SM CLR 14/03 A3001 RMK AO2 SLP127 T01390028 53004,M
BVU,2023-09-13 08:55,-114.8611,35.9475,671.00,71.60,55.40,56.63,0.00,0.00,0.00,29.89,M,10.00,M,CLR,M,M,M,M,M,M,M,M,M,M,M,M,M,M,71.60,KBVU 130855Z AUTO 00000KT 10SM CLR 22/13 A2989 RMK AO2,M
CXP,2023-09-13 08:55,-119.7326,39.1923,1431.00,57.20,42.80,58.52,0.00,0.00,0.00,30.11,M,10.00,M,BKN,M,M,M,10000.00,M,M,M,M,M,M,M,M,M,M,57.20,KCXP 130855Z AUTO 00000KT 10SM BKN100 14/06 A3011 RMK AO2,M
RNO,2023-09-13 08:55,-119.7711,39.4839,1341.00,62.00,42.00,47.82,0.00,0.00,0.00,30.08,1013.40,10.00,M,FEW,M,M,M,10000.00,M,M,M,M,M,M,M,M,M,M,62.00,KRNO 130855Z 00000KT 10SM FEW100 17/06 A3008 RMK AO2 SLP134 T01670056 50003,M
RTS,2023-09-13 08:55,-119.8764,39.6682,1539.00,55.40,35.60,47.16,320.00,7.00,0.00,30.13,M,10.00,M,CLR,M,M,M,M,M,M,M,M,M,M,M,M,M,M,55.40,KRTS 130855Z AUTO 32007KT 10SM CLR 13/02 A3013 RMK AO2,M
MEV,2023-09-13 08:55,-119.7500,38.9963,1441.42,53.60,41.00,62.23,0.00,0.00,0.00,30.10,M,10.00,M,OVC,M,M,M,10000.00,M,M,M,M,M,M,M,M,M,M,53.60,KMEV 130855Z AUTO 00000KT 10SM OVC100 12/05 A3010 RMK AO2,M
BAM,2023-09-13 08:55,-116.8743,40.5990,1382.36,53.60,46.40,76.50,0.00,0.00,0.00,30.05,M,10.00,M,CLR,M,M,M,M,M,M,M,M,M,M,M,M,M,M,53.60,KBAM 130855Z AUTO 00000KT 10SM CLR 12/08 A3005 RMK AO1,M
HTH,2023-09-13 08:55,-118.6315,38.5448,1282.89,64.40,50.00,59.50,200.00,5.00,0.00,30.04,M,10.00,M,CLR,M,M,M,M,M,M,M,M,M,M,M,M,M,M,64.40,KHTH 130855Z AUTO 20005KT 10SM CLR 18/10 A3004 RMK A01,M
LSV,2023-09-13 08:55,-115.0343,36.2362,570.00,79.70,54.50,41.83,30.00,5.00,0.00,29.85,1008.20,10.00,M,CLR,M,M,M,M,M,M,M,M,M,M,M,M,M,M,79.70,KLSV 130855Z AUTO 03005KT 10SM CLR 27/13 A2985 RMK AO2 SLP082 T02650125 58001 $,M
TMT,2023-09-13 08:55,-117.1971,39.4643,1749.34,43.70,40.50,88.40,0.00,0.00,0.00,30.15,M,M,M,M,M,M,M,M,M,M,M,M,M,M,M,M,M,M,43.70,KTMT 130855Z AUTO 00000KT 07/05 A3015 RMK AO2 T00650047 PWINO,M
INS,2023-09-13 08:55,-115.6733,36.5872,955.00,69.00,52.70,56.07,0.00,0.00,0.00,29.96,1009.90,10.00,M,CLR,M,M,M,M,M,M,M,M,M,M,M,M,M,M,69.00,KINS 130855Z AUTO 00000KT 10SM CLR 21/12 A2996 RMK AO2 SLP099 T02060115 50000 $,M
EKO,2023-09-13 08:56,-115.7860,40.8242,1367.00,52.00,43.00,71.28,0.00,0.00,0.00,30.09,1014.20,10.00,M,CLR,M,M,M,M,M,M,M,M,M,M,M,M,M,M,52.00,KEKO 130856Z AUTO 00000KT 10SM CLR 11/06 A3009 RMK AO2 SLP142 T01110061 52003 $,M
WMC,2023-09-13 08:56,-117.8072,40.9019,1315.00,51.00,35.00,54.12,220.00,3.00,0.00,30.04,1013.10,10.00,M,CLR,M,M,M,M,M,M,M,M,M,M,M,M,M,M,51.00,KWMC 130856Z AUTO 22003KT 10SM CLR 11/02 A3004 RMK AO2 SLP131 T01060017 53007,M
HND,2023-09-13 08:56,-115.1344,35.9729,742.79,74.00,55.00,51.47,220.00,5.00,0.00,29.94,1012.70,10.00,M,CLR,M,M,M,M,M,M,M,M,M,M,M,M,M,M,74.00,KHND 130856Z AUTO 22005KT 10SM CLR 23/13 A2994 RMK AO2 SLP127 T02330128 51002,M
LAS,2023-09-13 08:56,-115.1634,36.0719,663.00,81.00,54.00,39.37,360.00,4.00,0.00,29.90,1009.70,10.00,M,CLR,M,M,M,M,M,M,M,M,M,M,M,M,M,M,80.59,KLAS 130856Z 36004KT 10SM CLR 27/12 A2990 RMK AO2 SLP097 T02720122 50000 $,M
NFL,2023-09-13 08:56,-118.7010,39.4166,1199.00,63.00,42.00,46.16,180.00,5.00,0.00,30.01,1013.40,10.00,M,CLR,M,M,M,M,M,M,M,M,M,M,M,M,M,M,63.00,KNFL 130856Z AUTO 18005KT 10SM CLR 17/06 A3001 RMK AO2 SLP134 T01720056 51005,M
10U,2023-09-13 09:00,-116.1876,41.9532,1637.00,51.80,42.80,71.26,40.00,4.00,0.00,30.11,M,10.00,M,CLR,M,M,M,M,M,M,M,M,M,M,M,M,M,M,51.80,K10U 130900Z AUTO 04004KT 10SM CLR 11/06 A3011 RMK AO2,M
05U,2023-09-13 09:10,-116.0051,39.6042,1811.23,51.80,39.20,61.99,340.00,7.00,0.00,30.16,M,10.00,M,SCT,BKN,M,M,9500.00,11000.00,M,M,M,M,M,M,M,M,M,51.80,K05U 130910Z AUTO 34007KT 10SM SCT095 BKN110 11/04 A3016 RMK A01,M
BVU,2023-09-13 09:15,-114.8611,35.9475,671.00,73.40,53.60,49.90,0.00,0.00,0.00,29.89,M,10.00,M,CLR,M,M,M,M,M,M,M,M,M,M,M,M,M,M,73.40,KBVU 130915Z AUTO 00000KT 10SM CLR 23/12 A2989 RMK AO2,M
CXP,2023-09-13 09:15,-119.7326,39.1923,1431.00,59.00,42.80,54.86,0.00,0.00,0.00,30.10,M,10.00,M,BKN,M,M,M,10000.00,M,M,M,M,M,M,M,M,M,M,59.00,KCXP 130915Z AUTO 00000KT 10SM BKN100 15/06 A3010 RMK AO2,M
HTH,2023-09-13 09:15,-118.6315,38.5448,1282.89,64.40,50.00,59.50,0.00,0.00,0.00,30.04,M,10.00,M,SCT,M,M,M,11000.00,M,M,M,M,M,M,M,M,M,M,64.40,KHTH 130915Z AUTO 00000KT 10SM SCT110 18/10 A3004 RMK A01,M
BAM,2023-09-13 09:15,-116.8743,40.5990,1382.36,53.60,46.40,76.50,0.00,0.00,0.00,30.05,M,10.00,M,CLR,M,M,M,M,M,M,M,M,M,M,M,M,M,M,53.60,KBAM 130915Z AUTO 00000KT 10SM CLR 12/08 A3005 RMK AO1,M
TMT,2023-09-13 09:15,-117.1971,39.4643,1749.34,42.00,39.20,89.71,140.00,3.00,0.00,30.14,M,M,M,M,M,M,M,M,M,M,M,M,M,M,M,M,M,M,40.12,KTMT 130915Z AUTO 14003KT 06/04 A3014 RMK AO2 T00550040 PWINO,M
RTS,2023-09-13 09:15,-119.8764,39.6682,1539.00,55.40,35.60,47.16,310.00,7.00,0.00,30.13,M,10.00,M,CLR,M,M,M,M,M,M,M,M,M,M,M,M,M,M,55.40,KRTS 130915Z AUTO 31007KT 10SM CLR 13/02 A3013 RMK AO2,M
MEV,2023-09-13 09:15,-119.7500,38.9963,1441.42,53.60,41.00,62.23,0.00,0.00,0.00,30.09,M,10.00,M,OVC,M,M,M,10000.00,M,M,M,M,M,M,M,M,M,M,53.60,KMEV 130915Z AUTO 00000KT 10SM OVC100 12/05 A3009 RMK AO2,M
10U,2023-09-13 09:20,-116.1876,41.9532,1637.00,51.80,42.80,71.26,350.00,6.00,0.00,30.11,M,10.00,M,CLR,M,M,M,M,M,M,M,M,M,M,M,M,M,M,51.80,K10U 130920Z AUTO 35006KT 10SM CLR 11/06 A3011 RMK AO2,M
05U,2023-09-13 09:30,-116.0051,39.6042,1811.23,53.60,39.20,58.02,350.00,8.00,0.00,30.15,M,10.00,M,SCT,SCT,M,M,9000.00,11000.00,M,M,M,M,M,M,M,M,M,53.60,K05U 130930Z AUTO 35008KT 10SM SCT090 SCT110 12/04 A3015 RMK A01,M
BVU,2023-09-13 09:35,-114.8611,35.9475,671.00,71.60,55.40,56.63,0.00,0.00,0.00,29.89,M,10.00,M,CLR,M,M,M,M,M,M,M,M,M,M,M,M,M,M,71.60,KBVU 130935Z AUTO 00000KT 10SM CLR 22/13 A2989 RMK AO2,M
CXP,2023-09-13 09:35,-119.7326,39.1923,1431.00,59.00,42.80,54.86,0.00,0.00,0.00,30.10,M,10.00,M,OVC,M,M,M,10000.00,M,M,M,M,M,M,M,M,M,M,59.00,KCXP 130935Z AUTO 00000KT 10SM OVC100 15/06 A3010 RMK AO2,M
RTS,2023-09-13 09:35,-119.8764,39.6682,1539.00,57.20,35.60,44.19,280.00,7.00,0.00,30.12,M,10.00,M,CLR,M,M,M,M,M,M,M,M,M,M,M,M,M,M,57.20,KRTS 130935Z AUTO 28007KT 10SM CLR 14/02 A3012 RMK AO2,M
MEV,2023-09-13 09:35,-119.7500,38.9963,1441.42,51.80,41.00,66.48,140.00,3.00,0.00,30.10,M,10.00,M,OVC,M,M,M,10000.00,M,M,M,M,M,M,M,M,M,M,51.80,KMEV 130935Z AUTO 14003KT 10SM OVC100 11/05 A3010 RMK AO2,M
HTH,2023-09-13 09:35,-118.6315,38.5448,1282.89,64.40,50.00,59.50,250.00,4.00,0.00,30.04,M,10.00,M,OVC,M,M,M,11000.00,M,M,M,M,M,M,M,M,M,M,64.40,KHTH 130935Z AUTO 25004KT 10SM OVC110 18/10 A3004 RMK A01,M
BAM,2023-09-13 09:35,-116.8743,40.5990,1382.36,53.60,44.60,71.45,80.00,3.00,0.00,30.05,M,10.00,M,CLR,M,M,M,M,M,M,M,M,M,M,M,M,M,M,53.60,KBAM 130935Z AUTO 08003KT 10SM CLR 12/07 A3005 RMK AO1,M
TMT,2023-09-13 09:35,-117.1971,39.4643,1749.34,42.80,39.40,87.67,110.00,3.00,0.00,30.14,M,M,M,M,M,M,M,M,M,M,M,M,M,M,M,M,M,M,41.03,KTMT 130935Z AUTO 11003KT 06/04 A3014 RMK AO2 T00600041 PWINO,M
10U,2023-09-13 09:35,-116.1876,41.9532,1637.00,48.20,42.80,81.47,30.00,4.00,0.00,30.11,M,10.00,M,CLR,M,M,M,M,M,M,M,M,M,M,M,M,M,M,46.34,K10U 130935Z AUTO 03004KT 10SM CLR 09/06 A3011 RMK AO2,M
05U,2023-09-13 09:50,-116.0051,39.6042,1811.23,53.60,39.20,58.02,350.00,7.00,0.00,30.15,M,10.00,M,BKN,M,M,M,10000.00,M,M,M,M,M,M,M,M,M,M,53.60,K05U 130950Z AUTO 35007KT 10SM BKN100 12/04 A3015 RMK A01,M
P68,2023-09-13 09:53,-116.0056,39.6014,1993.00,52.00,40.00,63.48,200.00,7.00,0.00,30.13,1012.80,M,M,M,M,M,M,M,M,M,M,M,M,M,M,M,M,M,52.00,KP68 130953Z AUTO 20007KT 11/04 A3013 RMK AO1 SLP128 T01110044,M
DRA,2023-09-13 09:53,-116.0278,36.6206,1009.00,70.00,53.00,54.78,60.00,3.00,0.00,29.96,1009.80,10.00,M,CLR,M,M,M,M,M,M,M,M,M,M,M,M,M,M,70.00,KDRA 130953Z AUTO 06003KT 10SM CLR 21/12 A2996 RMK AO2 SLP098 T02110117,M
ELY,2023-09-13 09:53,-114.8453,39.2950,1909.00,44.00,41.00,89.11,170.00,6.00,0.00,30.17,1014.30,10.00,M,CLR,M,M,M,M,M,M,M,M,M,M,M,M,M,M,39.98,KELY 130953Z AUTO 17006KT 10SM CLR 07/05 A3017 RMK AO2 SLP143 T00670050,M
VGT,2023-09-13 09:53,-115.1933,36.2111,667.00,80.00,56.00,43.75,210.00,5.00,0.00,29.89,1011.00,10.00,M,CLR,M,M,M,M,M,M,M,M,M,M,M,M,M,M,80.24,KVGT 130953Z AUTO 21005KT 10SM CLR 27/13 A2989 RMK AO2 SLP110 T02670133,M
LOL,2023-09-13 09:53,-118.5701,40.0684,1192.43,57.00,36.00,45.22,310.00,6.00,0.00,30.01,1012.50,10.00,M,CLR,M,M,M,M,M,M,M,M,M,M,M,M,M,M,57.00,KLOL 130953Z AUTO 31006KT 10SM CLR 14/02 A3001 RMK AO2 SLP125 T01390022,M
RTS,2023-09-13 09:55,-119.8764,39.6682,1539.00,55.40,35.60,47.16,0.00,0.00,0.00,30.12,M,10.00,M,CLR,M,M,M,M,M,M,M,M,M,M,M,M,M,M,55.40,KRTS 130955Z AUTO 00000KT 10SM CLR 13/02 A3012 RMK AO2,M
MEV,2023-09-13 09:55,-119.7500,38.9963,1441.42,51.80,41.00,66.48,0.00,0.00,0.00,30.10,M,10.00,M,BKN,M,M,M,10000.00,M,M,M,M,M,M,M,M,M,M,51.80,KMEV 130955Z AUTO 00000KT 10SM BKN100 11/05 A3010 RMK AO2,M
BAM,2023-09-13 09:55,-116.8743,40.5990,1382.36,53.60,46.40,76.50,310.00,3.00,0.00,30.06,M,10.00,M,CLR,M,M,M,M,M,M,M,M,M,M,M,M,M,M,53.60,KBAM 130955Z AUTO 31003KT 10SM CLR 12/08 A3006 RMK AO1,M
HTH,2023-09-13 09:55,-118.6315,38.5448,1282.89,64.40,50.00,59.50,250.00,5.00,0.00,30.04,M,10.00,M,BKN,M,M,M,11000.00,M,M,M,M,M,M,M,M,M,M,64.40,KHTH 130955Z AUTO 25005KT 10SM BKN110 18/10 A3004 RMK A01,M
BVU,2023-09-13 09:55,-114.8611,35.9475,671.00,73.40,55.40,53.29,0.00,0.00,0.00,29.89,M,10.00,M,CLR,M,M,M,M,M,M,M,M,M,M,M,M,M,M,73.40,KBVU 130955Z AUTO 00000KT 10SM CLR 23/13 A2989 RMK AO2,M
CXP,2023-09-13 09:55,-119.7326,39.1923,1431.00,59.00,42.80,54.86,M,4.00,0.00,30.10,M,10.00,M,OVC,M,M,M,10000.00,M,M,M,M,M,M,M,M,M,M,59.00,KCXP 130955Z AUTO VRB04KT 10SM OVC100 15/06 A3010 RMK AO2,M
INS,2023-09-13 09:55,-115.6733,36.5872,955.00,69.30,53.40,56.94,230.00,3.00,0.00,29.96,1009.90,10.00,M,CLR,M,M,M,M,M,M,M,M,M,M,M,M,M,M,69.30,KINS 130955Z AUTO 23003KT 10SM CLR 21/12 A2996 RMK AO2 SLP099 T02070119 $,M
RNO,2023-09-13 09:55,-119.7711,39.4839,1341.00,63.00,40.00,42.72,260.00,3.00,0.00,30.09,1013.40,10.00,M,BKN,M,M,M,11000.00,M,M,M,M,M,M,M,M,M,M,63.00,KRNO 130955Z 26003KT 10SM BKN110 17/04 A3009 RMK AO2 SLP134 T01720044,M
TMT,2023-09-13 09:55,-117.1971,39.4643,1749.34,44.00,40.00,85.71,0.00,0.00,0.00,30.14,M,M,M,M,M,M,M,M,M,M,M,M,M,M,M,M,M,M,44.00,KTMT 130955Z AUTO 00000KT 07/04 A3014 RMK AO2 T00660044 PWINO,M
LSV,2023-09-13 09:55,-115.0343,36.2362,570.00,78.30,54.50,43.80,30.00,3.00,0.00,29.85,1008.20,10.00,M,CLR,M,M,M,M,M,M,M,M,M,M,M,M,M,M,78.30,KLSV 130955Z AUTO 03003KT 10SM CLR 26/13 A2985 RMK AO2 SLP082 T02570125 $,M
HND,2023-09-13 09:56,-115.1344,35.9729,742.79,72.00,55.00,55.06,170.00,8.00,0.00,29.94,1012.50,10.00,M,CLR,M,M,M,M,M,M,M,M,M,M,M,M,M,M,72.00,KHND 130956Z AUTO 17008KT 10SM CLR 22/13 A2994 RMK AO2 SLP125 T02220128,M
LAS,2023-09-13 09:56,-115.1634,36.0719,663.00,80.00,54.00,40.67,20.00,3.00,0.00,29.90,1009.60,10.00,M,CLR,M,M,M,M,M,M,M,M,M,M,M,M,M,M,79.98,KLAS 130956Z 02003KT 10SM CLR 27/12 A2990 RMK AO2 SLP096 T02670122 $,M
EKO,2023-09-13 09:56,-115.7860,40.8242,1367.00,49.00,42.00,76.67,0.00,0.00,0.00,30.09,1014.30,10.00,M,CLR,M,M,M,M,M,M,M,M,M,M,M,M,M,M,49.00,KEKO 130956Z AUTO 00000KT 10SM CLR 09/06 A3009 RMK AO2 SLP143 T00940056 $,M
WMC,2023-09-13 09:56,-117.8072,40.9019,1315.00,53.00,33.00,46.41,270.00,6.00,0.00,30.04,1012.90,10.00,M,CLR,M,M,M,M,M,M,M,M,M,M,M,M,M,M,53.00,KWMC 130956Z AUTO 27006KT 10SM CLR 12/01 A3004 RMK AO2 SLP129 T01170006,M
NFL,2023-09-13 09:56,-118.7010,39.4166,1199.00,58.00,41.00,53.05,0.00,0.00,0.00,30.01,1013.40,10.00,M,CLR,M,M,M,M,M,M,M,M,M,M,M,M,M,M,58.00,KNFL 130956Z AUTO 00000KT 10SM CLR 14/05 A3001 RMK AO2 SLP134 T01440050,M
10U,2023-09-13 10:00,-116.1876,41.9532,1637.00,48.20,42.80,81.47,140.00,4.00,0.00,30.11,M,10.00,M,CLR,M,M,M,M,M,M,M,M,M,M,M,M,M,M,46.34,K10U 131000Z AUTO 14004KT 10SM CLR 09/06 A3011 RMK AO2,M
05U,2023-09-13 10:10,-116.0051,39.6042,1811.23,50.00,39.20,66.27,360.00,6.00,0.00,30.15,M,10.00,M,SCT,M,M,M,10000.00,M,M,M,M,M,M,M,M,M,M,50.00,K05U 131010Z AUTO 36006KT 10SM SCT100 10/04 A3015 RMK A01,M
BVU,2023-09-13 10:15,-114.8611,35.9475,671.00,73.40,55.40,53.29,340.00,4.00,0.00,29.89,M,10.00,M,CLR,M,M,M,M,M,M,M,M,M,M,M,M,M,M,73.40,KBVU 131015Z AUTO 34004KT 10SM CLR 23/13 A2989 RMK AO2,M
CXP,2023-09-13 10:15,-119.7326,39.1923,1431.00,59.00,44.60,58.77,0.00,0.00,0.00,30.10,M,10.00,M,BKN,M,M,M,11000.00,M,M,M,M,M,M,M,M,M,M,59.00,KCXP 131015Z AUTO 00000KT 10SM BKN110 15/07 A3010 RMK AO2,M
RTS,2023-09-13 10:15,-119.8764,39.6682,1539.00,55.40,35.60,47.16,320.00,4.00,0.00,30.12,M,10.00,M,BKN,M,M,M,10000.00,M,M,M,M,M,M,M,M,M,M,55.40,KRTS 131015Z AUTO 32004KT 10SM BKN100 13/02 A3012 RMK AO2,M
MEV,2023-09-13 10:15,-119.7500,38.9963,1441.42,50.00,41.00,71.07,0.00,0.00,0.00,30.10,M,10.00,M,BKN,M,M,M,10000.00,M,M,M,M,M,M,M,M,M,M,50.00,KMEV 131015Z AUTO 00000KT 10SM BKN100 10/05 A3010 RMK AO2,M
HTH,2023-09-13 10:15,-118.6315,38.5448,1282.89,64.40,48.20,55.63,270.00,4.00,0.00,30.04,M,10.00,M,FEW,M,M,M,12000.00,M,M,M,M,M,M,M,M,M,M,64.40,KHTH 131015Z AUTO 27004KT 10SM FEW120 18/09 A3004 RMK A01,M
BAM,2023-09-13 10:15,-116.8743,40.5990,1382.36,55.40,44.60,66.91,0.00,0.00,0.00,30.07,M,10.00,M,CLR,M,M,M,M,M,M,M,M,M,M,M,M,M,M,55.40,KBAM 131015Z AUTO 00000KT 10SM CLR 13/07 A3007 RMK AO1,M
TMT,2023-09-13 10:15,-117.1971,39.4643,1749.34,44.00,39.60,84.39,0.00,0.00,0.00,30.14,M,M,M,M,M,M,M,M,M,M,M,M,M,M,M,M,M,M,44.00,KTMT 131015Z AUTO 00000KT 07/04 A3014 RMK AO2 T00660042 PWINO,M
10U,2023-09-13 10:20,-116.1876,41.9532,1637.00,48.20,42.80,81.47,140.00,7.00,0.00,30.10,M,10.00,M,CLR,M,M,M,M,M,M,M,M,M,M,M,M,M,M,44.53,K10U 131020Z AUTO 14007KT 10SM CLR 09/06 A3010 RMK AO2,M
05U,2023-09-13 10:30,-116.0051,39.6042,1811.23,50.00,37.40,61.76,340.00,6.00,0.00,30.16,M,10.00,M,FEW,M,M,M,11000.00,M,M,M,M,M,M,M,M,M,M,50.00,K05U 131030Z AUTO 34006KT 10SM FEW110 10/03 A3016 RMK A01,M
BVU,2023-09-13 10:35,-114.8611,35.9475,671.00,71.60,55.40,56.63,330.00,4.00,0.00,29.89,M,10.00,M,CLR,M,M,M,M,M,M,M,M,M,M,M,M,M,M,71.60,KBVU 131035Z AUTO 33004KT 10SM CLR 22/13 A2989 RMK AO2,M
CXP,2023-09-13 10:35,-119.7326,39.1923,1431.00,59.00,42.80,54.86,0.00,0.00,0.00,30.10,M,10.00,M,BKN,M,M,M,10000.00,M,M,M,M,M,M,M,M,M,M,59.00,KCXP 131035Z AUTO 00000KT 10SM BKN100 15/06 A3010 RMK AO2,M
RTS,2023-09-13 10:35,-119.8764,39.6682,1539.00,53.60,35.60,50.36,350.00,5.00,0.00,30.12,M,10.00,M,SCT,M,M,M,10000.00,M,M,M,M,M,M,M,M,M,M,53.60,KRTS 131035Z AUTO 35005KT 10SM SCT100 12/02 A3012 RMK AO2,M
MEV,2023-09-13 10:35,-119.7500,38.9963,1441.42,51.80,42.80,71.26,200.00,3.00,0.00,30.10,M,10.00,M,OVC,M,M,M,10000.00,M,M,M,M,M,M,M,M,M,M,51.80,KMEV 131035Z AUTO 20003KT 10SM OVC100 11/06 A3010 RMK AO2,M
BAM,2023-09-13 10:35,-116.8743,40.5990,1382.36,51.80,44.60,76.34,50.00,5.00,0.00,30.07,M,10.00,M,CLR,M,M,M,M,M,M,M,M,M,M,M,M,M,M,51.80,KBAM 131035Z AUTO 05005KT 10SM CLR 11/07 A3007 RMK AO1,M
HTH,2023-09-13 10:35,-118.6315,38.5448,1282.89,62.60,50.00,63.38,0.00,0.00,0.00,30.05,M,10.00,M,CLR,M,M,M,M,M,M,M,M,M,M,M,M,M,M,62.60,KHTH 131035Z AUTO 00000KT 10SM CLR 17/10 A3005 RMK A01,M
TMT,2023-09-13 10:35,-117.1971,39.4643,1749.34,44.60,40.60,85.75,160.00,6.00,0.00,30.14,M,M,M,M,M,M,M,M,M,M,M,M,M,M,M,M,M,M,40.71,KTMT 131035Z AUTO 16006KT 07/05 A3014 RMK AO2 T00700048 PWINO,M
10U,2023-09-13 10:35,-116.1876,41.9532,1637.00,46.40,42.80,87.19,0.00,0.00,0.00,30.11,M,10.00,M,CLR,M,M,M,M,M,M,M,M,M,M,M,M,M,M,46.40,K10U 131035Z AUTO 00000KT 10SM CLR 08/06 A3011 RMK AO2,M
05U,2023-09-13 10:50,-116.0051,39.6042,1811.23,48.20,37.40,66.05,340.00,7.00,0.00,30.16,M,10.00,M,CLR,M,M,M,M,M,M,M,M,M,M,M,M,M,M,44.53,K05U 131050Z AUTO 34007KT 10SM CLR 09/03 A3016 RMK A01,M
DRA,2023-09-13 10:53,-116.0278,36.6206,1009.00,67.00,54.00,62.99,360.00,4.00,0.00,29.96,1009.80,10.00,M,CLR,M,M,M,M,M,M,M,M,M,M,M,M,M,M,67.00,KDRA 131053Z AUTO 36004KT 10SM CLR 19/12 A2996 RMK AO2 SLP098 T01940122,M
ELY,2023-09-13 10:53,-114.8453,39.2950,1909.00,44.00,42.00,92.61,200.00,6.00,0.00,30.17,1014.20,10.00,M,CLR,M,M,M,M,M,M,M,M,M,M,M,M,M,M,39.98,KELY 131053Z AUTO 20006KT 10SM CLR 07/06 A3017 RMK AO2 SLP142 T00670056,M
VGT,2023-09-13 10:53,-115.1933,36.2111,667.00,78.00,56.00,46.72,290.00,3.00,0.00,29.89,1011.00,10.00,M,CLR,M,M,M,M,M,M,M,M,M,M,M,M,M,M,78.00,KVGT 131053Z AUTO 29003KT 10SM CLR 26/13 A2989 RMK AO2 SLP110 T02560133,M
LOL,2023-09-13 10:53,-118.5701,40.0684,1192.43,51.00,39.00,63.36,80.00,6.00,0.00,30.01,1013.20,10.00,M,CLR,M,M,M,M,M,M,M,M,M,M,M,M,M,M,51.00,KLOL 131053Z AUTO 08006KT 10SM CLR 11/04 A3001 RMK AO2 SLP132 T01060039,M
BVU,2023-09-13 10:55,-114.8611,35.9475,671.00,73.40,53.60,49.90,280.00,5.00,0.00,29.89,M,10.00,M,CLR,M,M,M,M,M,M,M,M,M,M,M,M,M,M,73.40,KBVU 131055Z AUTO 28005KT 10SM CLR 23/12 A2989 RMK AO2,M
CXP,2023-09-13 10:55,-119.7326,39.1923,1431.00,55.40,44.60,66.91,0.00,0.00,0.00,30.11,M,10.00,M,BKN,M,M,M,10000.00,M,M,M,M,M,M,M,M,M,M,55.40,KCXP 131055Z AUTO 00000KT 10SM BKN100 13/07 A3011 RMK AO2,M
INS,2023-09-13 10:55,-115.6733,36.5872,955.00,66.60,52.00,59.35,240.00,5.00,0.00,29.95,1009.70,10.00,M,CLR,M,M,M,M,M,M,M,M,M,M,M,M,M,M,66.60,KINS 131055Z AUTO 24005KT 10SM CLR 19/11 A2995 RMK AO2 SLP097 T01920112 $,M
RNO,2023-09-13 10:55,-119.7711,39.4839,1341.00,60.00,42.00,51.33,200.00,3.00,0.00,30.08,1013.40,10.00,M,BKN,M,M,M,11000.00,M,M,M,M,M,M,M,M,M,M,60.00,KRNO 131055Z 20003KT 10SM BKN110 16/06 A3008 RMK AO2 SLP134 T01560056,M
RTS,2023-09-13 10:55,-119.8764,39.6682,1539.00,53.60,35.60,50.36,310.00,3.00,0.00,30.12,M,10.00,M,SCT,M,M,M,11000.00,M,M,M,M,M,M,M,M,M,M,53.60,KRTS 131055Z AUTO 31003KT 10SM SCT110 12/02 A3012 RMK AO2,M
MEV,2023-09-13 10:55,-119.7500,38.9963,1441.42,48.20,41.00,76.01,170.00,4.00,0.00,30.10,M,10.00,M,BKN,M,M,M,10000.00,M,M,M,M,M,M,M,M,M,M,46.34,KMEV 131055Z AUTO 17004KT 10SM BKN100 09/05 A3010 RMK AO2,M
BAM,2023-09-13 10:55,-116.8743,40.5990,1382.36,51.80,44.60,76.34,0.00,0.00,0.00,30.07,M,10.00,M,CLR,M,M,M,M,M,M,M,M,M,M,M,M,M,M,51.80,KBAM 131055Z AUTO 00000KT 10SM CLR 11/07 A3007 RMK AO1,M
HTH,2023-09-13 10:55,-118.6315,38.5448,1282.89,62.60,50.00,63.38,0.00,0.00,0.00,30.05,M,10.00,M,BKN,M,M,M,11000.00,M,M,M,M,M,M,M,M,M,M,62.60,KHTH 131055Z AUTO 00000KT 10SM BKN110 17/10 A3005 RMK A01,M
LSV,2023-09-13 10:55,-115.0343,36.2362,570.00,75.70,55.20,48.98,60.00,4.00,0.00,29.85,1008.30,10.00,M,CLR,M,M,M,M,M,M,M,M,M,M,M,M,M,M,75.70,KLSV 131055Z AUTO 06004KT 10SM CLR 24/13 A2985 RMK AO2 SLP083 T02430129 $,M
TMT,2023-09-13 10:55,-117.1971,39.4643,1749.34,46.00,41.40,83.87,210.00,5.00,0.00,30.14,M,M,M,BKN,BKN,M,M,9000.00,12000.00,M,M,M,M,M,M,M,M,M,43.02,KTMT 131055Z AUTO 21005KT BKN090 BKN120 08/05 A3014 RMK AO2 T00770052 PWINO,M
EKO,2023-09-13 10:56,-115.7860,40.8242,1367.00,48.00,42.00,79.60,0.00,0.00,0.00,30.09,1015.00,10.00,M,CLR,M,M,M,M,M,M,M,M,M,M,M,M,M,M,48.00,KEKO 131056Z AUTO 00000KT 10SM CLR 09/06 A3009 RMK AO2 SLP150 T00890056 $,M
WMC,2023-09-13 10:56,-117.8072,40.9019,1315.00,54.00,35.00,48.46,0.00,0.00,0.00,30.04,1013.00,10.00,M,CLR,M,M,M,M,M,M,M,M,M,M,M,M,M,M,54.00,KWMC 131056Z AUTO 00000KT 10SM CLR 12/02 A3004 RMK AO2 SLP130 T01220017,M
LAS,2023-09-13 10:56,-115.1634,36.0719,663.00,76.00,56.00,49.92,190.00,5.00,0.00,29.89,1009.60,10.00,M,CLR,M,M,M,M,M,M,M,M,M,M,M,M,M,M,76.00,KLAS 131056Z 19005KT 10SM CLR 24/13 A2989 RMK AO2 SLP096 T02440133 $,M
NFL,2023-09-13 10:56,-118.7010,39.4166,1199.00,58.00,42.00,55.14,230.00,8.00,0.00,30.01,1013.40,10.00,M,BKN,M,M,M,12000.00,M,M,M,M,M,M,M,M,M,M,58.00,KNFL 131056Z AUTO 23008KT 10SM BKN120 14/06 A3001 RMK AO2 SLP134 T01440056,M
HND,2023-09-13 10:56,-115.1344,35.9729,742.79,72.00,54.00,53.09,160.00,7.00,0.00,29.93,1012.40,10.00,M,CLR,M,M,M,M,M,M,M,M,M,M,M,M,M,M,72.00,KHND 131056Z AUTO 16007KT 10SM CLR 22/12 A2993 RMK AO2 SLP124 T02220122,M
10U,2023-09-13 11:00,-116.1876,41.9532,1637.00,48.20,42.80,81.47,150.00,6.00,0.00,30.11,M,10.00,M,CLR,M,M,M,M,M,M,M,M,M,M,M,M,M,M,45.04,K10U 131100Z AUTO 15006KT 10SM CLR 09/06 A3011 RMK AO2,M
05U,2023-09-13 11:10,-116.0051,39.6042,1811.23,46.40,39.20,75.84,30.00,4.00,0.00,30.15,M,10.00,M,CLR,M,M,M,M,M,M,M,M,M,M,M,M,M,M,44.24,K05U 131110Z AUTO 03004KT 10SM CLR 08/04 A3015 RMK A01,M
BVU,2023-09-13 11:15,-114.8611,35.9475,671.00,73.40,55.40,53.29,0.00,0.00,0.00,29.89,M,10.00,M,CLR,M,M,M,M,M,M,M,M,M,M,M,M,M,M,73.40,KBVU 131115Z AUTO 00000KT 10SM CLR 23/13 A2989 RMK AO2,M
CXP,2023-09-13 11:15,-119.7326,39.1923,1431.00,57.20,42.80,58.52,0.00,0.00,0.00,30.10,M,10.00,M,BKN,M,M,M,11000.00,M,M,M,M,M,M,M,M,M,M,57.20,KCXP 131115Z AUTO 00000KT 10SM BKN110 14/06 A3010 RMK AO2,M
RTS,2023-09-13 11:15,-119.8764,39.6682,1539.00,53.60,35.60,50.36,320.00,4.00,0.00,30.12,M,10.00,M,BKN,BKN,M,M,10000.00,12000.00,M,M,M,M,M,M,M,M,M,53.60,KRTS 131115Z AUTO 32004KT 10SM BKN100 BKN120 12/02 A3012 RMK AO2,M
MEV,2023-09-13 11:15,-119.7500,38.9963,1441.42,50.00,41.00,71.07,100.00,5.00,0.00,30.10,M,10.00,M,BKN,M,M,M,10000.00,M,M,M,M,M,M,M,M,M,M,50.00,KMEV 131115Z AUTO 10005KT 10SM BKN100 10/05 A3010 RMK AO2,M
HTH,2023-09-13 11:15,-118.6315,38.5448,1282.89,62.60,51.80,67.75,0.00,0.00,0.00,30.05,M,10.00,M,OVC,M,M,M,11000.00,M,M,M,M,M,M,M,M,M,M,62.60,KHTH 131115Z AUTO 00000KT 10SM OVC110 17/11 A3005 RMK A01,M
BAM,2023-09-13 11:15,-116.8743,40.5990,1382.36,50.00,44.60,81.61,150.00,5.00,0.00,30.07,M,10.00,M,CLR,M,M,M,M,M,M,M,M,M,M,M,M,M,M,50.00,KBAM 131115Z AUTO 15005KT 10SM CLR 10/07 A3007 RMK AO1,M
TMT,2023-09-13 11:15,-117.1971,39.4643,1749.34,43.70,40.60,88.75,0.00,0.00,0.00,30.14,M,M,M,BKN,OVC,M,M,9500.00,11000.00,M,M,M,M,M,M,M,M,M,43.70,KTMT 131115Z AUTO 00000KT BKN095 OVC110 07/05 A3014 RMK AO2 T00650048 PWINO,M
10U,2023-09-13 11:20,-116.1876,41.9532,1637.00,48.20,42.80,81.47,300.00,5.00,0.00,30.12,M,10.00,14.00,CLR,M,M,M,M,M,M,M,M,M,M,M,M,M,M,45.63,K10U 131120Z AUTO 30005G14KT 10SM CLR 09/06 A3012 RMK AO2,M
05U,2023-09-13 11:30,-116.0051,39.6042,1811.23,46.40,39.20,75.84,340.00,5.00,0.00,30.16,M,10.00,M,CLR,M,M,M,M,M,M,M,M,M,M,M,M,M,M,43.50,K05U 131130Z AUTO 34005KT 10SM CLR 08/04 A3016 RMK A01,M
BVU,2023-09-13 11:35,-114.8611,35.9475,671.00,71.60,55.40,56.63,0.00,0.00,0.00,29.89,M,10.00,M,CLR,M,M,M,M,M,M,M,M,M,M,M,M,M,M,71.60,KBVU 131135Z AUTO 00000KT 10SM CLR 22/13 A2989 RMK AO2,M
CXP,2023-09-13 11:35,-119.7326,39.1923,1431.00,55.40,42.80,62.46,0.00,0.00,0.00,30.11,M,10.00,M,BKN,M,M,M,11000.00,M,M,M,M,M,M,M,M,M,M,55.40,KCXP 131135Z AUTO 00000KT 10SM BKN110 13/06 A3011 RMK AO2,M
MEV,2023-09-13 11:35,-119.7500,38.9963,1441.42,50.00,41.00,71.07,110.00,5.00,0.00,30.10,M,10.00,M,BKN,M,M,M,11000.00,M,M,M,M,M,M,M,M,M,M,50.00,KMEV 131135Z AUTO 11005KT 10SM BKN110 10/05 A3010 RMK AO2,M
HTH,2023-09-13 11:35,-118.6315,38.5448,1282.89,60.80,51.80,72.20,0.00,0.00,0.00,30.05,M,10.00,M,OVC,M,M,M,11000.00,M,M,M,M,M,M,M,M,M,M,60.80,KHTH 131135Z AUTO 00000KT 10SM OVC110 16/11 A3005 RMK A01,M
BAM,2023-09-13 11:35,-116.8743,40.5990,1382.36,48.20,44.60,87.28,170.00,4.00,0.00,30.06,M,10.00,M,CLR,M,M,M,M,M,M,M,M,M,M,M,M,M,M,46.34,KBAM 131135Z AUTO 17004KT 10SM CLR 09/07 A3006 RMK AO1,M
RTS,2023-09-13 11:35,-119.8764,39.6682,1539.00,53.60,35.60,50.36,310.00,8.00,0.00,30.13,M,10.00,M,BKN,BKN,M,M,10000.00,12000.00,M,M,M,M,M,M,M,M,M,53.60,KRTS 131135Z AUTO 31008KT 10SM BKN100 BKN120 12/02 A3013 RMK AO2,M
TMT,2023-09-13 11:35,-117.1971,39.4643,1749.34,45.00,41.00,85.77,0.00,0.00,0.00,30.14,M,M,M,BKN,OVC,M,M,9500.00,11000.00,M,M,M,M,M,M,M,M,M,45.00,KTMT 131135Z AUTO 00000KT BKN095 OVC110 07/05 A3014 RMK AO2 T00720050 PWINO,M
05U,2023-09-13 11:50,-116.0051,39.6042,1811.23,48.20,37.40,66.05,360.00,7.00,0.00,30.16,M,10.00,M,CLR,M,M,M,M,M,M,M,M,M,M,M,M,M,M,44.53,K05U 131150Z AUTO 36007KT 10SM CLR 09/03 A3016 RMK A01,M
VGT,2023-09-13 11:53,-115.1933,36.2111,667.00,78.00,56.00,46.72,0.00,0.00,0.00,29.89,1011.20,10.00,M,CLR,M,M,M,M,M,M,M,M,M,M,M,M,M,M,78.00,KVGT 131153Z AUTO 00000KT 10SM CLR 26/13 A2989 RMK AO2 SLP112 T02560133 10283 20250 55000,M
LOL,2023-09-13 11:53,-118.5701,40.0684,1192.43,55.00,38.00,52.60,0.00,0.00,0.00,30.02,1013.00,10.00,M,CLR,M,M,M,M,M,M,M,M,M,M,M,M,M,M,55.00,KLOL 131153Z AUTO 00000KT 10SM CLR 13/03 A3002 RMK AO2 SLP130 T01280033 10172 20100 53003,M
P68,2023-09-13 11:53,-116.0056,39.6014,1993.00,47.00,38.00,70.74,200.00,8.00,0.00,30.13,1013.70,M,M,M,M,M,M,M,M,M,M,M,M,M,M,M,M,M,42.59,KP68 131153Z AUTO 20008KT 08/03 A3013 RMK AO1 SLP137 T00830033 10133 20078,M
DRA,2023-09-13 11:53,-116.0278,36.6206,1009.00,66.00,54.00,65.21,0.00,0.00,0.00,29.96,1009.90,10.00,M,CLR,M,M,M,M,M,M,M,M,M,M,M,M,M,M,66.00,KDRA 131153Z AUTO 00000KT 10SM CLR 19/12 A2996 RMK AO2 SLP099 T01890122 10233 20189 55001,M
ELY,2023-09-13 11:53,-114.8453,39.2950,1909.00,44.00,42.00,92.61,180.00,6.00,0.00,30.17,1014.40,10.00,M,CLR,M,M,M,M,M,M,M,M,M,M,M,M,M,M,39.98,KELY 131153Z AUTO 18006KT 10SM CLR 07/06 A3017 RMK AO2 SLP144 T00670056 10111 20061 56001,M
RNO,2023-09-13 11:55,-119.7711,39.4839,1341.00,60.00,42.00,51.33,0.00,0.00,0.00,30.09,1013.80,10.00,M,SCT,M,M,M,11000.00,M,M,M,M,M,M,M,M,M,M,60.00,KRNO 131155Z 00000KT 10SM SCT110 16/06 A3009 RMK AO2 SLP138 T01560056 10217 20150 53002,M
RTS,2023-09-13 11:55,-119.8764,39.6682,1539.00,53.60,35.60,50.36,320.00,7.00,0.00,30.13,M,10.00,M,SCT,M,M,M,10000.00,M,M,M,M,M,M,M,M,M,M,53.60,KRTS 131155Z AUTO 32007KT 10SM SCT100 12/02 A3013 RMK AO2,M
MEV,2023-09-13 11:55,-119.7500,38.9963,1441.42,50.00,42.80,76.18,0.00,0.00,0.00,30.10,M,10.00,M,BKN,M,M,M,11000.00,M,M,M,M,M,M,M,M,M,M,50.00,KMEV 131155Z AUTO 00000KT 10SM BKN110 10/06 A3010 RMK AO2,M
HTH,2023-09-13 11:55,-118.6315,38.5448,1282.89,59.00,51.80,76.98,0.00,0.00,0.00,30.05,M,10.00,M,SCT,M,M,M,11000.00,M,M,M,M,M,M,M,M,M,M,59.00,KHTH 131155Z AUTO 00000KT 10SM SCT110 15/11 A3005 RMK A01,M
BVU,2023-09-13 11:55,-114.8611,35.9475,671.00,69.80,57.20,64.26,0.00,0.00,0.00,29.89,M,10.00,M,CLR,M,M,M,M,M,M,M,M,M,M,M,M,M,M,69.80,KBVU 131155Z AUTO 00000KT 10SM CLR 21/14 A2989 RMK AO2,M
CXP,2023-09-13 11:55,-119.7326,39.1923,1431.00,55.40,42.80,62.46,0.00,0.00,0.00,30.11,M,10.00,M,BKN,M,M,M,11000.00,M,M,M,M,M,M,M,M,M,M,55.40,KCXP 131155Z AUTO 00000KT 10SM BKN110 13/06 A3011 RMK AO2,M
BAM,2023-09-13 11:55,-116.8743,40.5990,1382.36,50.00,44.60,81.61,260.00,3.00,0.00,30.07,M,10.00,M,CLR,M,M,M,M,M,M,M,M,M,M,M,M,M,M,50.00,KBAM 131155Z AUTO 26003KT 10SM CLR 10/07 A3007 RMK AO1,M
TMT,2023-09-13 11:55,-117.1971,39.4643,1749.34,44.40,41.00,87.76,0.00,0.00,0.00,30.14,M,M,M,BKN,M,M,M,9500.00,M,M,M,M,M,M,M,M,M,M,44.40,KTMT 131155Z AUTO 00000KT BKN095 07/05 A3014 RMK AO2 T00690050 10100 20055 PWINO,M
INS,2023-09-13 11:55,-115.6733,36.5872,955.00,66.70,54.00,63.65,0.00,0.00,0.00,29.95,1009.70,10.00,M,CLR,M,M,M,M,M,M,M,M,M,M,M,M,M,M,66.70,KINS 131155Z AUTO 00000KT 10SM CLR 19/12 A2995 RMK AO2 SLP097 70003 T01930123 10247 20186 55001 $,M
10U,2023-09-13 11:55,-116.1876,41.9532,1637.00,46.40,41.00,81.34,120.00,4.00,0.00,30.11,M,10.00,M,CLR,M,M,M,M,M,M,M,M,M,M,M,M,M,M,44.24,K10U 131155Z AUTO 12004KT 10SM CLR 08/05 A3011 RMK AO2,M
LSV,2023-09-13 11:55,-115.0343,36.2362,570.00,75.60,55.60,49.86,40.00,5.00,0.00,29.85,1008.30,10.00,M,CLR,M,M,M,M,M,M,M,M,M,M,M,M,M,M,75.60,KLSV 131155Z AUTO 04005KT 10SM CLR 24/13 A2985 RMK AO2 SLP083 T02420131 10275 20241 $,M
WMC,2023-09-13 11:56,-117.8072,40.9019,1315.00,48.00,36.00,62.97,0.00,0.00,0.00,30.05,1013.50,10.00,M,SCT,M,M,M,11000.00,M,M,M,M,M,M,M,M,M,M,48.00,KWMC 131156Z AUTO 00000KT 10SM SCT110 09/02 A3005 RMK AO2 SLP135 T00890022 10150 20083 53002,M
NFL,2023-09-13 11:56,-118.7010,39.4166,1199.00,59.00,42.00,53.20,250.00,4.00,0.00,30.01,1013.40,10.00,M,BKN,M,M,M,12000.00,M,M,M,M,M,M,M,M,M,M,59.00,KNFL 131156Z AUTO 25004KT 10SM BKN120 15/06 A3001 RMK AO2 SLP134 T01500056 10217 20139 54000,M
HND,2023-09-13 11:56,-115.1344,35.9729,742.79,72.00,55.00,55.06,190.00,6.00,0.00,29.93,1012.60,10.00,M,CLR,M,M,M,M,M,M,M,M,M,M,M,M,M,M,72.00,KHND 131156Z AUTO 19006KT 10SM CLR 22/13 A2993 RMK AO2 SLP126 T02220128 10250 20222 55002,M
EKO,2023-09-13 11:56,-115.7860,40.8242,1367.00,47.00,41.00,79.52,0.00,0.00,0.00,30.10,1015.30,10.00,M,CLR,M,M,M,M,M,M,M,M,M,M,M,M,M,M,47.00,KEKO 131156Z AUTO 00000KT 10SM CLR 08/05 A3010 RMK AO2 SLP153 T00830050 10156 20078 53003 $,M
LAS,2023-09-13 11:56,-115.1634,36.0719,663.00,76.00,56.00,49.92,200.00,3.00,0.00,29.89,1009.70,10.00,M,CLR,M,M,M,M,M,M,M,M,M,M,M,M,M,M,76.00,KLAS 131156Z 20003KT 10SM CLR 24/13 A2989 RMK AO2 SLP097 T02440133 10278 20244 55001 $,M
LAS,2023-09-13 11:57,-115.1634,36.0719,663.00,76.00,56.00,49.92,190.00,3.00,0.00,29.90,M,10.00,M,BKN,M,M,M,14000.00,M,M,M,M,M,M,M,M,M,M,76.00,KLAS 131157Z 19003KT 10SM BKN140 24/13 A2990 RMK AO2 T02440133 $,M
05U,2023-09-13 12:10,-116.0051,39.6042,1811.23,48.20,37.40,66.05,360.00,5.00,0.00,30.16,M,10.00,M,BKN,M,M,M,9000.00,M,M,M,M,M,M,M,M,M,M,45.63,K05U 131210Z AUTO 36005KT 10SM BKN090 09/03 A3016 RMK A01,M
BVU,2023-09-13 12:15,-114.8611,35.9475,671.00,69.80,57.20,64.26,0.00,0.00,0.00,29.89,M,10.00,M,CLR,M,M,M,M,M,M,M,M,M,M,M,M,M,M,69.80,KBVU 131215Z AUTO 00000KT 10SM CLR 21/14 A2989 RMK AO2,M
CXP,2023-09-13 12:15,-119.7326,39.1923,1431.00,57.20,42.80,58.52,240.00,3.00,0.00,30.11,M,10.00,M,BKN,M,M,M,11000.00,M,M,M,M,M,M,M,M,M,M,57.20,KCXP 131215Z AUTO 24003KT 10SM BKN110 14/06 A3011 RMK AO2,M
RTS,2023-09-13 12:15,-119.8764,39.6682,1539.00,53.60,35.60,50.36,300.00,4.00,0.00,30.13,M,10.00,M,SCT,M,M,M,10000.00,M,M,M,M,M,M,M,M,M,M,53.60,KRTS 131215Z AUTO 30004KT 10SM SCT100 12/02 A3013 RMK AO2,M
MEV,2023-09-13 12:15,-119.7500,38.9963,1441.42,51.80,42.80,71.26,0.00,0.00,0.00,30.10,M,10.00,M,BKN,M,M,M,11000.00,M,M,M,M,M,M,M,M,M,M,51.80,KMEV 131215Z AUTO 00000KT 10SM BKN110 11/06 A3010 RMK AO2,M
HTH,2023-09-13 12:15,-118.6315,38.5448,1282.89,59.00,50.00,72.01,210.00,5.00,0.00,30.05,M,10.00,M,CLR,M,M,M,M,M,M,M,M,M,M,M,M,M,M,59.00,KHTH 131215Z AUTO 21005KT 10SM CLR 15/10 A3005 RMK A01,M
BAM,2023-09-13 12:15,-116.8743,40.5990,1382.36,48.20,44.60,87.28,0.00,0.00,0.00,30.07,M,10.00,M,CLR,M,M,M,M,M,M,M,M,M,M,M,M,M,M,48.20,KBAM 131215Z AUTO 00000KT 10SM CLR 09/07 A3007 RMK AO1,M
TMT,2023-09-13 12:15,-117.1971,39.4643,1749.34,45.00,41.00,85.77,190.00,5.00,0.00,30.15,M,M,M,M,M,M,M,M,M,M,M,M,M,M,M,M,M,M,41.83,KTMT 131215Z AUTO 19005KT 07/05 A3015 RMK AO2 T00720051 PWINO,M
10U,2023-09-13 12:20,-116.1876,41.9532,1637.00,44.60,41.00,87.09,130.00,5.00,0.00,30.12,M,10.00,M,CLR,M,M,M,M,M,M,M,M,M,M,M,M,M,M,41.36,K10U 131220Z AUTO 13005KT 10SM CLR 07/05 A3012 RMK AO2,M
05U,2023-09-13 12:30,-116.0051,39.6042,1811.23,48.20,37.40,66.05,10.00,5.00,0.00,30.16,M,10.00,M,OVC,M,M,M,9000.00,M,M,M,M,M,M,M,M,M,M,45.63,K05U 131230Z AUTO 01005KT 10SM OVC090 09/03 A3016 RMK A01,M
BVU,2023-09-13 12:35,-114.8611,35.9475,671.00,71.60,57.20,60.44,0.00,0.00,0.00,29.90,M,10.00,M,CLR,M,M,M,M,M,M,M,M,M,M,M,M,M,M,71.60,KBVU 131235Z AUTO 00000KT 10SM CLR 22/14 A2990 RMK AO2,M
CXP,2023-09-13 12:35,-119.7326,39.1923,1431.00,57.20,42.80,58.52,0.00,0.00,0.00,30.11,M,10.00,M,BKN,M,M,M,11000.00,M,M,M,M,M,M,M,M,M,M,57.20,KCXP 131235Z AUTO 00000KT 10SM BKN110 14/06 A3011 RMK AO2,M
BAM,2023-09-13 12:35,-116.8743,40.5990,1382.36,48.20,44.60,87.28,40.00,6.00,0.00,30.07,M,10.00,M,CLR,M,M,M,M,M,M,M,M,M,M,M,M,M,M,45.04,KBAM 131235Z AUTO 04006KT 10SM CLR 09/07 A3007 RMK AO1,M
TMT,2023-09-13 12:35,-117.1971,39.4643,1749.34,42.80,40.00,89.75,200.00,4.00,0.00,30.15,M,M,M,M,M,M,M,M,M,M,M,M,M,M,M,M,M,M,40.03,KTMT 131235Z AUTO 20004KT 06/05 A3015 RMK AO2 T00600045 PWINO,M
RTS,2023-09-13 12:35,-119.8764,39.6682,1539.00,53.60,35.60,50.36,330.00,5.00,0.00,30.13,M,10.00,M,BKN,M,M,M,10000.00,M,M,M,M,M,M,M,M,M,M,53.60,KRTS 131235Z AUTO 33005KT 10SM BKN100 12/02 A3013 RMK AO2,M
MEV,2023-09-13 12:35,-119.7500,38.9963,1441.42,50.00,41.00,71.07,0.00,0.00,0.00,30.10,M,10.00,M,BKN,M,M,M,11000.00,M,M,M,M,M,M,M,M,M,M,50.00,KMEV 131235Z AUTO 00000KT 10SM BKN110 10/05 A3010 RMK AO2,M
HTH,2023-09-13 12:35,-118.6315,38.5448,1282.89,59.00,50.00,72.01,200.00,6.00,0.00,30.06,M,10.00,M,CLR,M,M,M,M,M,M,M,M,M,M,M,M,M,M,59.00,KHTH 131235Z AUTO 20006KT 10SM CLR 15/10 A3006 RMK A01,M
10U,2023-09-13 12:40,-116.1876,41.9532,1637.00,48.20,41.00,76.01,0.00,0.00,0.00,30.12,M,10.00,M,CLR,M,M,M,M,M,M,M,M,M,M,M,M,M,M,48.20,K10U 131240Z AUTO 00000KT 10SM CLR 09/05 A3012 RMK AO2,M
05U,2023-09-13 12:50,-116.0051,39.6042,1811.23,48.20,39.20,70.88,360.00,6.00,0.00,30.17,M,10.00,M,BKN,M,M,M,9000.00,M,M,M,M,M,M,M,M,M,M,45.04,K05U 131250Z AUTO 36006KT 10SM BKN090 09/04 A3017 RMK A01,M
P68,2023-09-13 12:53,-116.0056,39.6014,1993.00,49.00,39.00,68.25,200.00,7.00,0.00,30.14,1013.60,M,M,M,M,M,M,M,M,M,M,M,M,M,M,M,M,M,45.50,KP68 131253Z AUTO 20007KT 09/04 A3014 RMK AO1 SLP136 T00940039,M
DRA,2023-09-13 12:53,-116.0278,36.6206,1009.00,66.00,53.00,62.87,0.00,0.00,0.00,29.97,1010.20,10.00,M,CLR,M,M,M,M,M,M,M,M,M,M,M,M,M,M,66.00,KDRA 131253Z AUTO 00000KT 10SM CLR 19/12 A2997 RMK AO2 SLP102 T01890117,M
ELY,2023-09-13 12:53,-114.8453,39.2950,1909.00,43.00,41.00,92.58,170.00,8.00,0.00,30.17,1014.50,10.00,M,CLR,M,M,M,M,M,M,M,M,M,M,M,M,M,M,37.66,KELY 131253Z AUTO 17008KT 10SM CLR 06/05 A3017 RMK AO2 SLP145 T00610050,M
VGT,2023-09-13 12:53,-115.1933,36.2111,667.00,77.00,57.00,50.07,270.00,5.00,0.00,29.90,1011.60,10.00,M,CLR,M,M,M,M,M,M,M,M,M,M,M,M,M,M,77.00,KVGT 131253Z 27005KT 10SM CLR 25/14 A2990 RMK AO2 SLP116 T02500139,M
LOL,2023-09-13 12:53,-118.5701,40.0684,1192.43,47.00,36.00,65.38,0.00,0.00,0.00,30.03,1013.70,10.00,M,CLR,M,M,M,M,M,M,M,M,M,M,M,M,M,M,47.00,KLOL 131253Z AUTO 00000KT 10SM CLR 08/02 A3003 RMK AO2 SLP137 T00830022,M
BVU,2023-09-13 12:55,-114.8611,35.9475,671.00,69.80,57.20,64.26,0.00,0.00,0.00,29.90,M,10.00,M,CLR,M,M,M,M,M,M,M,M,M,M,M,M,M,M,69.80,KBVU 131255Z AUTO 00000KT 10SM CLR 21/14 A2990 RMK AO2,M
CXP,2023-09-13 12:55,-119.7326,39.1923,1431.00,55.40,42.80,62.46,0.00,0.00,0.00,30.12,M,10.00,M,SCT,M,M,M,11000.00,M,M,M,M,M,M,M,M,M,M,55.40,KCXP 131255Z AUTO 00000KT 10SM SCT110 13/06 A3012 RMK AO2,M
INS,2023-09-13 12:55,-115.6733,36.5872,955.00,66.70,52.30,59.80,0.00,0.00,0.00,29.97,1010.40,10.00,M,CLR,M,M,M,M,M,M,M,M,M,M,M,M,M,M,66.70,KINS 131255Z AUTO 00000KT 10SM CLR 19/11 A2997 RMK AO2 SLP104 T01930113 $,M
RNO,2023-09-13 12:55,-119.7711,39.4839,1341.00,58.00,42.00,55.14,160.00,3.00,0.00,30.10,1014.00,10.00,M,SCT,M,M,M,11000.00,M,M,M,M,M,M,M,M,M,M,58.00,KRNO 131255Z 16003KT 10SM SCT110 14/06 A3010 RMK AO2 SLP140 T01440056,M
RTS,2023-09-13 12:55,-119.8764,39.6682,1539.00,51.80,35.60,53.81,310.00,6.00,0.00,30.13,M,10.00,M,BKN,M,M,M,10000.00,M,M,M,M,M,M,M,M,M,M,51.80,KRTS 131255Z AUTO 31006KT 10SM BKN100 11/02 A3013 RMK AO2,M
MEV,2023-09-13 12:55,-119.7500,38.9963,1441.42,48.20,41.00,76.01,0.00,0.00,0.00,30.11,M,10.00,M,SCT,M,M,M,11000.00,M,M,M,M,M,M,M,M,M,M,48.20,KMEV 131255Z AUTO 00000KT 10SM SCT110 09/05 A3011 RMK AO2,M
HTH,2023-09-13 12:55,-118.6315,38.5448,1282.89,59.00,50.00,72.01,210.00,3.00,0.00,30.05,M,10.00,M,CLR,M,M,M,M,M,M,M,M,M,M,M,M,M,M,59.00,KHTH 131255Z AUTO 21003KT 10SM CLR 15/10 A3005 RMK A01,M
BAM,2023-09-13 12:55,-116.8743,40.5990,1382.36,51.80,44.60,76.34,10.00,3.00,0.00,30.08,M,10.00,M,CLR,M,M,M,M,M,M,M,M,M,M,M,M,M,M,51.80,KBAM 131255Z AUTO 01003KT 10SM CLR 11/07 A3008 RMK AO1,M
TMT,2023-09-13 12:55,-117.1971,39.4643,1749.34,44.00,40.60,87.73,250.00,5.00,0.00,30.15,M,M,M,BKN,M,M,M,9000.00,M,M,M,M,M,M,M,M,M,M,40.65,KTMT 131255Z AUTO 25005KT BKN090 07/05 A3015 RMK AO2 T00670048 PWINO,M
10U,2023-09-13 12:55,-116.1876,41.9532,1637.00,50.00,41.00,71.07,0.00,0.00,0.00,30.12,M,10.00,M,CLR,M,M,M,M,M,M,M,M,M,M,M,M,M,M,50.00,K10U 131255Z AUTO 00000KT 10SM CLR 10/05 A3012 RMK AO2,M
LSV,2023-09-13 12:55,-115.0343,36.2362,570.00,75.20,M,M,40.00,4.00,0.00,29.87,1009.10,M,M,M,M,M,M,M,M,M,M,M,M,M,M,M,M,M,M,KLSV 131255Z AUTO 04004KT M M M 24/ A2987 RMK AO2 SLP091 RVRNO $,M
EKO,2023-09-13 12:56,-115.7860,40.8242,1367.00,43.00,39.00,85.66,0.00,0.00,0.00,30.11,1016.00,10.00,M,CLR,M,M,M,M,M,M,M,M,M,M,M,M,M,M,43.00,KEKO 131256Z AUTO 00000KT 10SM CLR 06/04 A3011 RMK AO2 SLP160 T00610039 $,M
WMC,2023-09-13 12:56,-117.8072,40.9019,1315.00,46.00,36.00,67.90,0.00,0.00,0.00,30.07,1014.40,10.00,M,FEW,M,M,M,11000.00,M,M,M,M,M,M,M,M,M,M,46.00,KWMC 131256Z AUTO 00000KT 10SM FEW110 08/02 A3007 RMK AO2 SLP144 T00780022,M
NFL,2023-09-13 12:56,-118.7010,39.4166,1199.00,58.00,42.00,55.14,0.00,0.00,0.00,30.02,1013.60,10.00,M,FEW,M,M,M,12000.00,M,M,M,M,M,M,M,M,M,M,58.00,KNFL 131256Z AUTO 00000KT 10SM FEW120 14/06 A3002 RMK AO2 SLP136 T01440056,M
HND,2023-09-13 12:56,-115.1344,35.9729,742.79,71.00,55.00,56.96,180.00,5.00,0.00,29.94,1013.00,10.00,M,CLR,M,M,M,M,M,M,M,M,M,M,M,M,M,M,71.00,KHND 131256Z AUTO 18005KT 10SM CLR 22/13 A2994 RMK AO2 SLP130 T02170128,M
LAS,2023-09-13 12:56,-115.1634,36.0719,663.00,77.00,56.00,48.29,220.00,3.00,0.00,29.91,1010.30,10.00,M,SCT,M,M,M,14000.00,M,M,M,M,M,M,M,M,M,M,77.00,KLAS 131256Z 22003KT 10SM SCT140 25/13 A2991 RMK AO2 SLP103 T02500133 $,M
05U,2023-09-13 13:10,-116.0051,39.6042,1811.23,48.20,39.20,70.88,350.00,6.00,0.00,30.17,M,10.00,M,FEW,M,M,M,9000.00,M,M,M,M,M,M,M,M,M,M,45.04,K05U 131310Z AUTO 35006KT 10SM FEW090 09/04 A3017 RMK A01,M
BVU,2023-09-13 13:15,-114.8611,35.9475,671.00,69.80,57.20,64.26,0.00,0.00,0.00,29.90,M,10.00,M,CLR,M,M,M,M,M,M,M,M,M,M,M,M,M,M,69.80,KBVU 131315Z AUTO 00000KT 10SM CLR 21/14 A2990 RMK AO2,M
CXP,2023-09-13 13:15,-119.7326,39.1923,1431.00,55.40,42.80,62.46,0.00,0.00,0.00,30.12,M,10.00,M,FEW,M,M,M,10000.00,M,M,M,M,M,M,M,M,M,M,55.40,KCXP 131315Z AUTO 00000KT 10SM FEW100 13/06 A3012 RMK AO2,M
RTS,2023-09-13 13:15,-119.8764,39.6682,1539.00,53.60,37.40,54.07,330.00,5.00,0.00,30.13,M,10.00,M,SCT,M,M,M,10000.00,M,M,M,M,M,M,M,M,M,M,53.60,KRTS 131315Z AUTO 33005KT 10SM SCT100 12/03 A3013 RMK AO2,M
MEV,2023-09-13 13:15,-119.7500,38.9963,1441.42,46.40,41.00,81.34,0.00,0.00,0.00,30.10,M,10.00,M,SCT,M,M,M,10000.00,M,M,M,M,M,M,M,M,M,M,46.40,KMEV 131315Z AUTO 00000KT 10SM SCT100 08/05 A3010 RMK AO2,M
BAM,2023-09-13 13:15,-116.8743,40.5990,1382.36,51.80,44.60,76.34,350.00,4.00,0.00,30.08,M,10.00,M,CLR,M,M,M,M,M,M,M,M,M,M,M,M,M,M,51.80,KBAM 131315Z AUTO 35004KT 10SM CLR 11/07 A3008 RMK AO1,M
HTH,2023-09-13 13:15,-118.6315,38.5448,1282.89,59.00,50.00,72.01,0.00,0.00,0.00,30.06,M,10.00,M,CLR,M,M,M,M,M,M,M,M,M,M,M,M,M,M,59.00,KHTH 131315Z AUTO 00000KT 10SM CLR 15/10 A3006 RMK A01,M
10U,2023-09-13 13:15,-116.1876,41.9532,1637.00,50.00,41.00,71.07,110.00,7.00,0.00,30.12,M,10.00,M,CLR,M,M,M,M,M,M,M,M,M,M,M,M,M,M,50.00,K10U 131315Z AUTO 11007KT 10SM CLR 10/05 A3012 RMK AO2,M
TMT,2023-09-13 13:15,-117.1971,39.4643,1749.34,43.00,40.30,90.10,260.00,3.00,0.00,30.15,M,M,M,M,M,M,M,M,M,M,M,M,M,M,M,M,M,M,41.26,KTMT 131315Z AUTO 26003KT 06/05 A3015 RMK AO2 T00610046 PWINO,M
05U,2023-09-13 13:30,-116.0051,39.6042,1811.23,46.40,39.20,75.84,360.00,8.00,0.00,30.17,M,10.00,M,BKN,M,M,M,9000.00,M,M,M,M,M,M,M,M,M,M,41.85,K05U 131330Z AUTO 36008KT 10SM BKN090 08/04 A3017 RMK A01,M
BVU,2023-09-13 13:35,-114.8611,35.9475,671.00,69.80,57.20,64.26,0.00,0.00,0.00,29.91,M,10.00,M,CLR,M,M,M,M,M,M,M,M,M,M,M,M,M,M,69.80,KBVU 131335Z AUTO 00000KT 10SM CLR 21/14 A2991 RMK AO2,M
CXP,2023-09-13 13:35,-119.7326,39.1923,1431.00,55.40,42.80,62.46,0.00,0.00,0.00,30.12,M,10.00,M,FEW,M,M,M,10000.00,M,M,M,M,M,M,M,M,M,M,55.40,KCXP 131335Z AUTO 00000KT 10SM FEW100 13/06 A3012 RMK AO2,M
RTS,2023-09-13 13:35,-119.8764,39.6682,1539.00,51.80,35.60,53.81,340.00,4.00,0.00,30.14,M,10.00,M,SCT,M,M,M,10000.00,M,M,M,M,M,M,M,M,M,M,51.80,KRTS 131335Z AUTO 34004KT 10SM SCT100 11/02 A3014 RMK AO2,M
MEV,2023-09-13 13:35,-119.7500,38.9963,1441.42,44.60,41.00,87.09,120.00,3.00,0.00,30.11,M,10.00,M,SCT,M,M,M,10000.00,M,M,M,M,M,M,M,M,M,M,43.09,KMEV 131335Z AUTO 12003KT 10SM SCT100 07/05 A3011 RMK AO2,M
HTH,2023-09-13 13:35,-118.6315,38.5448,1282.89,59.00,50.00,72.01,180.00,3.00,0.00,30.06,M,10.00,M,FEW,M,M,M,11000.00,M,M,M,M,M,M,M,M,M,M,59.00,KHTH 131335Z AUTO 18003KT 10SM FEW110 15/10 A3006 RMK A01,M
BAM,2023-09-13 13:35,-116.8743,40.5990,1382.36,51.80,42.80,71.26,0.00,0.00,0.00,30.09,M,10.00,M,CLR,M,M,M,M,M,M,M,M,M,M,M,M,M,M,51.80,KBAM 131335Z AUTO 00000KT 10SM CLR 11/06 A3009 RMK AO1,M
TMT,2023-09-13 13:35,-117.1971,39.4643,1749.34,42.00,39.20,89.71,280.00,4.00,0.00,30.15,M,M,M,M,M,M,M,M,M,M,M,M,M,M,M,M,M,M,39.10,KTMT 131335Z AUTO 28004KT 06/04 A3015 RMK AO2 T00550040 PWINO,M
10U,2023-09-13 13:40,-116.1876,41.9532,1637.00,50.00,41.00,71.07,360.00,4.00,0.00,30.14,M,10.00,M,CLR,M,M,M,M,M,M,M,M,M,M,M,M,M,M,50.00,K10U 131340Z AUTO 36004KT 10SM CLR 10/05 A3014 RMK AO2,M
05U,2023-09-13 13:50,-116.0051,39.6042,1811.23,48.20,39.20,70.88,340.00,5.00,0.00,30.17,M,10.00,M,BKN,M,M,M,9000.00,M,M,M,M,M,M,M,M,M,M,45.63,K05U 131350Z AUTO 34005KT 10SM BKN090 09/04 A3017 RMK A01,M
HTH,2023-09-13 13:50,-118.6315,38.5448,1282.89,59.00,48.20,67.33,200.00,4.00,0.00,30.06,M,10.00,M,SCT,M,M,M,11000.00,M,M,M,M,M,M,M,M,M,M,59.00,KHTH 131350Z AUTO 20004KT 10SM SCT110 15/09 A3006 RMK A01,M
P68,2023-09-13 13:53,-116.0056,39.6014,1993.00,47.00,39.00,73.57,170.00,5.00,0.00,30.15,1015.10,M,M,M,M,M,M,M,M,M,M,M,M,M,M,M,M,M,44.21,KP68 131353Z AUTO 17005KT 08/04 A3015 RMK AO1 SLP151 T00830039,M
DRA,2023-09-13 13:53,-116.0278,36.6206,1009.00,66.00,52.00,60.60,60.00,3.00,0.00,29.98,1010.70,10.00,M,CLR,M,M,M,M,M,M,M,M,M,M,M,M,M,M,66.00,KDRA 131353Z AUTO 06003KT 10SM CLR 19/11 A2998 RMK AO2 SLP107 T01890111,M
ELY,2023-09-13 13:53,-114.8453,39.2950,1909.00,43.00,41.00,92.58,170.00,10.00,0.00,30.18,1015.90,10.00,M,CLR,M,M,M,M,M,M,M,M,M,M,M,M,M,M,36.76,KELY 131353Z AUTO 17010KT 10SM CLR 06/05 A3018 RMK AO2 SLP159 T00610050,M
VGT,2023-09-13 13:53,-115.1933,36.2111,667.00,76.00,57.00,51.76,320.00,3.00,0.00,29.91,1012.10,10.00,M,CLR,M,M,M,M,M,M,M,M,M,M,M,M,M,M,76.00,KVGT 131353Z 32003KT 10SM CLR 24/14 A2991 RMK AO2 SLP121 T02440139,M
LOL,2023-09-13 13:53,-118.5701,40.0684,1192.43,48.00,36.00,62.97,200.00,3.00,0.00,30.03,1014.40,10.00,M,CLR,M,M,M,M,M,M,M,M,M,M,M,M,M,M,46.98,KLOL 131353Z AUTO 20003KT 10SM CLR 09/02 A3003 RMK AO2 SLP144 T00890022,M
BVU,2023-09-13 13:55,-114.8611,35.9475,671.00,71.60,57.20,60.44,0.00,0.00,0.00,29.91,M,10.00,M,CLR,M,M,M,M,M,M,M,M,M,M,M,M,M,M,71.60,KBVU 131355Z AUTO 00000KT 10SM CLR 22/14 A2991 RMK AO2,M
CXP,2023-09-13 13:55,-119.7326,39.1923,1431.00,53.60,42.80,66.70,0.00,0.00,0.00,30.12,M,10.00,M,FEW,M,M,M,10000.00,M,M,M,M,M,M,M,M,M,M,53.60,KCXP 131355Z AUTO 00000KT 10SM FEW100 12/06 A3012 RMK AO2,M
INS,2023-09-13 13:55,-115.6733,36.5872,955.00,63.70,51.60,64.70,0.00,0.00,0.00,29.98,1010.90,10.00,M,CLR,M,M,M,M,M,M,M,M,M,M,M,M,M,M,63.70,KINS 131355Z AUTO 00000KT 10SM CLR 18/11 A2998 RMK AO2 SLP109 T01760109 $,M
RNO,2023-09-13 13:55,-119.7711,39.4839,1341.00,59.00,41.00,51.18,280.00,3.00,0.00,30.10,1014.50,10.00,M,SCT,M,M,M,11000.00,M,M,M,M,M,M,M,M,M,M,59.00,KRNO 131355Z 28003KT 10SM SCT110 15/05 A3010 RMK AO2 SLP145 T01500050,M
RTS,2023-09-13 13:55,-119.8764,39.6682,1539.00,51.80,37.40,57.77,340.00,5.00,0.00,30.14,M,10.00,M,FEW,M,M,M,10000.00,M,M,M,M,M,M,M,M,M,M,51.80,KRTS 131355Z AUTO 34005KT 10SM FEW100 11/03 A3014 RMK AO2,M
MEV,2023-09-13 13:55,-119.7500,38.9963,1441.42,44.60,39.20,81.20,130.00,3.00,0.00,30.11,M,10.00,M,FEW,M,M,M,10000.00,M,M,M,M,M,M,M,M,M,M,43.09,KMEV 131355Z AUTO 13003KT 10SM FEW100 07/04 A3011 RMK AO2,M
BAM,2023-09-13 13:55,-116.8743,40.5990,1382.36,48.20,44.60,87.28,0.00,0.00,0.00,30.09,M,10.00,M,CLR,M,M,M,M,M,M,M,M,M,M,M,M,M,M,48.20,KBAM 131355Z AUTO 00000KT 10SM CLR 09/07 A3009 RMK AO1,M
TMT,2023-09-13 13:55,-117.1971,39.4643,1749.34,40.30,38.70,93.96,230.00,3.00,0.00,30.16,M,M,M,M,M,M,M,M,M,M,M,M,M,M,M,M,M,M,38.18,KTMT 131355Z AUTO 23003KT 05/04 A3016 RMK AO2 T00460037 PWINO,M
LSV,2023-09-13 13:55,-115.0343,36.2362,570.00,75.20,50.00,41.14,40.00,2.00,0.00,29.78,M,10.00,M,SCT,M,M,M,12000.00,M,M,M,M,M,M,M,M,M,M,75.20,KLSV 131355Z 04002KT 10SM SCT120 24/10 A2978 RMK SLPNO ALSTG ESTMD $,M
EKO,2023-09-13 13:56,-115.7860,40.8242,1367.00,45.00,40.00,82.51,140.00,3.00,0.00,30.12,1016.10,10.00,M,CLR,M,M,M,M,M,M,M,M,M,M,M,M,M,M,43.55,KEKO 131356Z AUTO 14003KT 10SM CLR 07/04 A3012 RMK AO2 SLP161 T00720044 $,M
WMC,2023-09-13 13:56,-117.8072,40.9019,1315.00,47.00,37.00,68.02,130.00,3.00,0.00,30.08,1015.30,10.00,M,BKN,M,M,M,12000.00,M,M,M,M,M,M,M,M,M,M,45.84,KWMC 131356Z AUTO 13003KT 10SM BKN120 08/03 A3008 RMK AO2 SLP153 T00830028,M
NFL,2023-09-13 13:56,-118.7010,39.4166,1199.00,55.00,43.00,63.86,170.00,4.00,0.00,30.03,1014.00,10.00,M,SCT,M,M,M,12000.00,M,M,M,M,M,M,M,M,M,M,55.00,KNFL 131356Z 17004KT 10SM SCT120 13/06 A3003 RMK AO2 SLP140 T01280061,M
HND,2023-09-13 13:56,-115.1344,35.9729,742.79,73.00,56.00,55.20,200.00,5.00,0.00,29.95,1013.30,10.00,M,CLR,M,M,M,M,M,M,M,M,M,M,M,M,M,M,73.00,KHND 131356Z 20005KT 10SM CLR 23/13 A2995 RMK AO2 SLP133 T02280133,M
LAS,2023-09-13 13:56,-115.1634,36.0719,663.00,77.00,56.00,48.29,290.00,3.00,0.00,29.92,1010.80,10.00,M,SCT,M,M,M,14000.00,M,M,M,M,M,M,M,M,M,M,77.00,KLAS 131356Z 29003KT 10SM SCT140 25/13 A2992 RMK AO2 SLP108 ACC DSNT NE-SE T02500133 $,M
10U,2023-09-13 14:00,-116.1876,41.9532,1637.00,50.00,42.80,76.18,280.00,6.00,0.00,30.15,M,10.00,M,CLR,M,M,M,M,M,M,M,M,M,M,M,M,M,M,50.00,K10U 131400Z AUTO 28006KT 10SM CLR 10/06 A3015 RMK AO2,M
05U,2023-09-13 14:10,-116.0051,39.6042,1811.23,51.80,39.20,61.99,350.00,4.00,0.00,30.18,M,10.00,M,FEW,M,M,M,9000.00,M,M,M,M,M,M,M,M,M,M,51.80,K05U 131410Z AUTO 35004KT 10SM FEW090 11/04 A3018 RMK A01,M
BVU,2023-09-13 14:15,-114.8611,35.9475,671.00,73.40,55.40,53.29,0.00,0.00,0.00,29.92,M,10.00,M,CLR,M,M,M,M,M,M,M,M,M,M,M,M,M,M,73.40,KBVU 131415Z AUTO 00000KT 10SM CLR 23/13 A2992 RMK AO2,M
CXP,2023-09-13 14:15,-119.7326,39.1923,1431.00,53.60,42.80,66.70,0.00,0.00,0.00,30.13,M,10.00,M,SCT,M,M,M,10000.00,M,M,M,M,M,M,M,M,M,M,53.60,KCXP 131415Z AUTO 00000KT 10SM SCT100 12/06 A3013 RMK AO2,M
RTS,2023-09-13 14:15,-119.8764,39.6682,1539.00,51.80,37.40,57.77,0.00,0.00,0.00,30.15,M,10.00,M,BKN,M,M,M,10000.00,M,M,M,M,M,M,M,M,M,M,51.80,KRTS 131415Z AUTO 00000KT 10SM BKN100 11/03 A3015 RMK AO2,M
MEV,2023-09-13 14:15,-119.7500,38.9963,1441.42,48.20,39.20,70.88,70.00,4.00,0.00,30.12,M,10.00,M,FEW,M,M,M,10000.00,M,M,M,M,M,M,M,M,M,M,46.34,KMEV 131415Z AUTO 07004KT 10SM FEW100 09/04 A3012 RMK AO2,M
BAM,2023-09-13 14:15,-116.8743,40.5990,1382.36,50.00,46.40,87.37,0.00,0.00,0.00,30.09,M,10.00,M,CLR,M,M,M,M,M,M,M,M,M,M,M,M,M,M,50.00,KBAM 131415Z AUTO 00000KT 10SM CLR 10/08 A3009 RMK AO1,M
HTH,2023-09-13 14:15,-118.6315,38.5448,1282.89,60.80,50.00,67.54,230.00,5.00,0.00,30.07,M,10.00,M,SCT,M,M,M,11000.00,M,M,M,M,M,M,M,M,M,M,60.80,KHTH 131415Z AUTO 23005KT 10SM SCT110 16/10 A3007 RMK A01,M
10U,2023-09-13 14:15,-116.1876,41.9532,1637.00,53.60,42.80,66.70,0.00,0.00,0.00,30.15,M,10.00,M,FEW,M,M,M,12000.00,M,M,M,M,M,M,M,M,M,M,53.60,K10U 131415Z AUTO 00000KT 10SM FEW120 12/06 A3015 RMK AO2,M
TMT,2023-09-13 14:15,-117.1971,39.4643,1749.34,44.60,40.50,85.42,0.00,0.00,0.00,30.16,M,M,M,M,M,M,M,M,M,M,M,M,M,M,M,M,M,M,44.60,KTMT 131415Z AUTO 00000KT 07/05 A3016 RMK AO2 T00700047 PWINO,M
05U,2023-09-13 14:30,-116.0051,39.6042,1811.23,53.60,41.00,62.23,10.00,4.00,0.00,30.18,M,10.00,M,BKN,M,M,M,9000.00,M,M,M,M,M,M,M,M,M,M,53.60,K05U 131430Z AUTO 01004KT 10SM BKN090 12/05 A3018 RMK A01,M
BVU,2023-09-13 14:35,-114.8611,35.9475,671.00,75.20,55.40,50.17,0.00,0.00,0.00,29.92,M,10.00,M,CLR,M,M,M,M,M,M,M,M,M,M,M,M,M,M,75.20,KBVU 131435Z AUTO 00000KT 10SM CLR 24/13 A2992 RMK AO2,M
CXP,2023-09-13 14:35,-119.7326,39.1923,1431.00,55.40,44.60,66.91,0.00,0.00,0.00,30.13,M,10.00,M,FEW,M,M,M,10000.00,M,M,M,M,M,M,M,M,M,M,55.40,KCXP 131435Z AUTO 00000KT 10SM FEW100 13/07 A3013 RMK AO2,M
RTS,2023-09-13 14:35,-119.8764,39.6682,1539.00,55.40,39.20,54.34,300.00,5.00,0.00,30.15,M,10.00,M,BKN,M,M,M,10000.00,M,M,M,M,M,M,M,M,M,M,55.40,KRTS 131435Z AUTO 30005KT 10SM BKN100 13/04 A3015 RMK AO2,M
MEV,2023-09-13 14:35,-119.7500,38.9963,1441.42,50.00,41.00,71.07,0.00,0.00,0.00,30.12,M,10.00,M,CLR,M,M,M,M,M,M,M,M,M,M,M,M,M,M,50.00,KMEV 131435Z AUTO 00000KT 10SM CLR 10/05 A3012 RMK AO2,M
BAM,2023-09-13 14:35,-116.8743,40.5990,1382.36,53.60,42.80,66.70,10.00,3.00,0.00,30.10,M,10.00,M,CLR,M,M,M,M,M,M,M,M,M,M,M,M,M,M,53.60,KBAM 131435Z AUTO 01003KT 10SM CLR 12/06 A3010 RMK AO1,M
HTH,2023-09-13 14:35,-118.6315,38.5448,1282.89,62.60,48.20,59.26,0.00,0.00,0.00,30.08,M,10.00,M,FEW,M,M,M,11000.00,M,M,M,M,M,M,M,M,M,M,62.60,KHTH 131435Z AUTO 00000KT 10SM FEW110 17/09 A3008 RMK A01,M
TMT,2023-09-13 14:35,-117.1971,39.4643,1749.34,47.50,42.00,81.11,0.00,0.00,0.00,30.16,M,M,M,CLR,M,M,M,M,M,M,M,M,M,M,M,M,M,M,47.50,KTMT 131435Z AUTO 00000KT CLR 09/06 A3016 RMK AO2 T00860055 PWINO,M
10U,2023-09-13 14:35,-116.1876,41.9532,1637.00,55.40,42.80,62.46,0.00,0.00,0.00,30.16,M,10.00,M,BKN,M,M,M,11000.00,M,M,M,M,M,M,M,M,M,M,55.40,K10U 131435Z AUTO 00000KT 10SM BKN110 13/06 A3016 RMK AO2,M
05U,2023-09-13 14:50,-116.0051,39.6042,1811.23,53.60,41.00,62.23,0.00,0.00,0.00,30.18,M,10.00,M,BKN,M,M,M,9500.00,M,M,M,M,M,M,M,M,M,M,53.60,K05U 131450Z AUTO 00000KT 10SM BKN095 12/05 A3018 RMK A01,M
P68,2023-09-13 14:53,-116.0056,39.6014,1993.00,53.00,41.00,63.61,0.00,0.00,0.00,30.16,1015.50,M,M,M,M,M,M,M,M,M,M,M,M,M,M,M,M,M,53.00,KP68 131453Z AUTO 00000KT 12/05 A3016 RMK AO1 SLP155 T01170050 51006,M
DRA,2023-09-13 14:53,-116.0278,36.6206,1009.00,73.00,53.00,49.48,0.00,0.00,0.00,29.99,1011.00,10.00,M,CLR,M,M,M,M,M,M,M,M,M,M,M,M,M,M,73.00,KDRA 131453Z AUTO 00000KT 10SM CLR 23/12 A2999 RMK AO2 SLP110 T02280117 53009,M
ELY,2023-09-13 14:53,-114.8453,39.2950,1909.00,51.00,46.00,82.93,180.00,9.00,0.00,30.19,1015.50,10.00,M,CLR,M,M,M,M,M,M,M,M,M,M,M,M,M,M,51.00,KELY 131453Z AUTO 18009KT 10SM CLR 11/08 A3019 RMK AO2 SLP155 T01060078 53004,M
VGT,2023-09-13 14:53,-115.1933,36.2111,667.00,79.00,56.00,45.20,0.00,0.00,0.00,29.93,1012.50,10.00,M,CLR,M,M,M,M,M,M,M,M,M,M,M,M,M,M,79.00,KVGT 131453Z 00000KT 10SM CLR 26/13 A2993 RMK AO2 SLP125 T02610133 53011,M
LOL,2023-09-13 14:53,-118.5701,40.0684,1192.43,57.00,40.00,52.90,130.00,4.00,0.00,30.06,1015.00,10.00,M,CLR,M,M,M,M,M,M,M,M,M,M,M,M,M,M,57.00,KLOL 131453Z AUTO 13004KT 10SM CLR 14/04 A3006 RMK AO2 SLP150 T01390044 53013,M
BVU,2023-09-13 14:55,-114.8611,35.9475,671.00,75.20,55.40,50.17,0.00,0.00,0.00,29.93,M,10.00,M,CLR,M,M,M,M,M,M,M,M,M,M,M,M,M,M,75.20,KBVU 131455Z AUTO 00000KT 10SM CLR 24/13 A2993 RMK AO2,M
CXP,2023-09-13 14:55,-119.7326,39.1923,1431.00,57.20,44.60,62.69,0.00,0.00,0.00,30.14,M,10.00,M,CLR,M,M,M,M,M,M,M,M,M,M,M,M,M,M,57.20,KCXP 131455Z AUTO 00000KT 10SM CLR 14/07 A3014 RMK AO2,M
INS,2023-09-13 14:55,-115.6733,36.5872,955.00,69.00,52.00,54.64,290.00,3.00,0.00,29.99,1011.30,10.00,M,CLR,M,M,M,M,M,M,M,M,M,M,M,M,M,M,69.00,KINS 131455Z AUTO 29003KT 10SM CLR 21/11 A2999 RMK AO2 SLP113 T02050111 52010 $,M
RNO,2023-09-13 14:55,-119.7711,39.4839,1341.00,61.00,41.00,47.66,250.00,5.00,0.00,30.12,1015.20,10.00,M,SCT,M,M,M,11000.00,M,M,M,M,M,M,M,M,M,M,61.00,KRNO 131455Z 25005KT 10SM SCT110 16/05 A3012 RMK AO2 SLP152 T01610050 53009,M
LSV,2023-09-13 14:55,-115.0343,36.2362,570.00,79.00,58.00,48.59,320.00,4.00,0.00,29.89,1009.90,10.00,M,CLR,M,M,M,M,M,M,M,M,M,M,M,M,M,M,79.00,KLSV 131455Z AUTO 32004KT 10SM CLR 26/15 A2989 RMK AO2 PRESRR SLP099 T02610145 52012 $,M
RTS,2023-09-13 14:55,-119.8764,39.6682,1539.00,59.00,39.20,47.72,290.00,6.00,0.00,30.16,M,10.00,M,BKN,M,M,M,10000.00,M,M,M,M,M,M,M,M,M,M,59.00,KRTS 131455Z AUTO 29006KT 10SM BKN100 15/04 A3016 RMK AO2,M
MEV,2023-09-13 14:55,-119.7500,38.9963,1441.42,55.40,42.80,62.46,0.00,0.00,0.00,30.13,M,10.00,M,CLR,M,M,M,M,M,M,M,M,M,M,M,M,M,M,55.40,KMEV 131455Z AUTO 00000KT 10SM CLR 13/06 A3013 RMK AO2,M
HTH,2023-09-13 14:55,-118.6315,38.5448,1282.89,62.60,50.00,63.38,0.00,0.00,0.00,30.08,M,10.00,M,SCT,M,M,M,11000.00,M,M,M,M,M,M,M,M,M,M,62.60,KHTH 131455Z AUTO 00000KT 10SM SCT110 17/10 A3008 RMK A01,M
BAM,2023-09-13 14:55,-116.8743,40.5990,1382.36,53.60,44.60,71.45,350.00,4.00,0.00,30.11,M,10.00,M,CLR,M,M,M,M,M,M,M,M,M,M,M,M,M,M,53.60,KBAM 131455Z AUTO 35004KT 10SM CLR 12/07 A3011 RMK AO1,M
TMT,2023-09-13 14:55,-117.1971,39.4643,1749.34,49.50,41.50,73.82,0.00,0.00,0.00,30.17,M,M,M,CLR,M,M,M,M,M,M,M,M,M,M,M,M,M,M,49.50,KTMT 131455Z AUTO 00000KT CLR 10/05 A3017 RMK AO2 T00970053 PWINO,M
EKO,2023-09-13 14:56,-115.7860,40.8242,1367.00,52.00,43.00,71.28,90.00,4.00,0.00,30.13,1016.80,10.00,M,CLR,M,M,M,M,M,M,M,M,M,M,M,M,M,M,52.00,KEKO 131456Z AUTO 09004KT 10SM CLR 11/06 A3013 RMK AO2 SLP168 T01110061 52009 $,M
WMC,2023-09-13 14:56,-117.8072,40.9019,1315.00,59.00,37.00,43.78,0.00,0.00,0.00,30.09,1015.50,10.00,M,FEW,M,M,M,12000.00,M,M,M,M,M,M,M,M,M,M,59.00,KWMC 131456Z AUTO 00000KT 10SM FEW120 15/03 A3009 RMK AO2 SLP155 T01500028 51014,M
NFL,2023-09-13 14:56,-118.7010,39.4166,1199.00,61.00,45.00,55.57,190.00,4.00,0.00,30.05,1014.60,9.00,M,SCT,M,M,M,10000.00,M,M,M,M,M,M,M,M,M,M,61.00,KNFL 131456Z 19004KT 9SM SCT100 16/07 A3005 RMK AO2 SLP146 T01610072 53012,M
HND,2023-09-13 14:56,-115.1344,35.9729,742.79,75.00,57.00,53.52,180.00,3.00,0.00,29.97,1014.00,10.00,M,CLR,M,M,M,M,M,M,M,M,M,M,M,M,M,M,75.00,KHND 131456Z 18003KT 10SM CLR 24/14 A2997 RMK AO2 SLP140 T02390139 53012,M
LAS,2023-09-13 14:56,-115.1634,36.0719,663.00,80.00,56.00,43.75,M,3.00,0.00,29.94,1011.20,10.00,M,SCT,M,M,M,14000.00,M,M,M,M,M,M,M,M,M,M,80.24,KLAS 131456Z VRB03KT 10SM SCT140 27/13 A2994 RMK AO2 SLP112 CB DSNT NE ACC DSNT SE-S T02670133 52014 $,M
10U,2023-09-13 15:00,-116.1876,41.9532,1637.00,57.20,42.80,58.52,0.00,0.00,0.00,30.16,M,10.00,M,BKN,M,M,M,12000.00,M,M,M,M,M,M,M,M,M,M,57.20,K10U 131500Z AUTO 00000KT 10SM BKN120 14/06 A3016 RMK AO2,M
05U,2023-09-13 15:10,-116.0051,39.6042,1811.23,59.00,41.00,51.18,0.00,0.00,0.00,30.18,M,10.00,M,SCT,M,M,M,9500.00,M,M,M,M,M,M,M,M,M,M,59.00,K05U 131510Z AUTO 00000KT 10SM SCT095 15/05 A3018 RMK A01,M
BVU,2023-09-13 15:15,-114.8611,35.9475,671.00,75.20,55.40,50.17,0.00,0.00,0.00,29.93,M,10.00,M,CLR,M,M,M,M,M,M,M,M,M,M,M,M,M,M,75.20,KBVU 131515Z AUTO 00000KT 10SM CLR 24/13 A2993 RMK AO2,M
CXP,2023-09-13 15:15,-119.7326,39.1923,1431.00,59.00,44.60,58.77,0.00,0.00,0.00,30.14,M,10.00,M,CLR,M,M,M,M,M,M,M,M,M,M,M,M,M,M,59.00,KCXP 131515Z AUTO 00000KT 10SM CLR 15/07 A3014 RMK AO2,M
RTS,2023-09-13 15:15,-119.8764,39.6682,1539.00,60.80,39.20,44.76,290.00,4.00,0.00,30.16,M,10.00,M,BKN,M,M,M,10000.00,M,M,M,M,M,M,M,M,M,M,60.80,KRTS 131515Z AUTO 29004KT 10SM BKN100 16/04 A3016 RMK AO2,M
MEV,2023-09-13 15:15,-119.7500,38.9963,1441.42,57.20,42.80,58.52,0.00,0.00,0.00,30.13,M,10.00,M,FEW,M,M,M,10000.00,M,M,M,M,M,M,M,M,M,M,57.20,KMEV 131515Z AUTO 00000KT 10SM FEW100 14/06 A3013 RMK AO2,M
HTH,2023-09-13 15:15,-118.6315,38.5448,1282.89,64.40,50.00,59.50,0.00,0.00,0.00,30.09,M,10.00,M,FEW,M,M,M,12000.00,M,M,M,M,M,M,M,M,M,M,64.40,KHTH 131515Z AUTO 00000KT 10SM FEW120 18/10 A3009 RMK A01,M
BAM,2023-09-13 15:15,-116.8743,40.5990,1382.36,55.40,48.20,76.66,10.00,3.00,0.00,30.11,M,10.00,M,CLR,M,M,M,M,M,M,M,M,M,M,M,M,M,M,55.40,KBAM 131515Z AUTO 01003KT 10SM CLR 13/09 A3011 RMK AO1,M
TMT,2023-09-13 15:15,-117.1971,39.4643,1749.34,52.00,42.60,70.20,0.00,0.00,0.00,30.16,M,M,M,CLR,M,M,M,M,M,M,M,M,M,M,M,M,M,M,52.00,KTMT 131515Z AUTO 00000KT CLR 11/06 A3016 RMK AO2 T01110059 PWINO,M
10U,2023-09-13 15:20,-116.1876,41.9532,1637.00,59.00,42.80,54.86,220.00,4.00,0.00,30.16,M,10.00,M,BKN,M,M,M,12000.00,M,M,M,M,M,M,M,M,M,M,59.00,K10U 131520Z AUTO 22004KT 10SM BKN120 15/06 A3016 RMK AO2,M
05U,2023-09-13 15:30,-116.0051,39.6042,1811.23,62.60,41.00,45.04,0.00,0.00,0.00,30.18,M,10.00,M,SCT,M,M,M,9500.00,M,M,M,M,M,M,M,M,M,M,62.60,K05U 131530Z AUTO 00000KT 10SM SCT095 17/05 A3018 RMK A01,M
BVU,2023-09-13 15:35,-114.8611,35.9475,671.00,77.00,55.40,47.25,220.00,3.00,0.00,29.93,M,10.00,M,CLR,M,M,M,M,M,M,M,M,M,M,M,M,M,M,77.00,KBVU 131535Z AUTO 22003KT 10SM CLR 25/13 A2993 RMK AO2,M
CXP,2023-09-13 15:35,-119.7326,39.1923,1431.00,62.60,44.60,51.72,0.00,0.00,0.00,30.14,M,10.00,M,CLR,M,M,M,M,M,M,M,M,M,M,M,M,M,M,62.60,KCXP 131535Z AUTO 00000KT 10SM CLR 17/07 A3014 RMK AO2,M
RTS,2023-09-13 15:35,-119.8764,39.6682,1539.00,62.60,39.20,42.00,300.00,5.00,0.00,30.16,M,10.00,M,SCT,M,M,M,10000.00,M,M,M,M,M,M,M,M,M,M,62.60,KRTS 131535Z AUTO 30005KT 10SM SCT100 17/04 A3016 RMK AO2,M
MEV,2023-09-13 15:35,-119.7500,38.9963,1441.42,59.00,44.60,58.77,0.00,0.00,0.00,30.13,M,10.00,M,FEW,M,M,M,10000.00,M,M,M,M,M,M,M,M,M,M,59.00,KMEV 131535Z AUTO 00000KT 10SM FEW100 15/07 A3013 RMK AO2,M
HTH,2023-09-13 15:35,-118.6315,38.5448,1282.89,64.40,50.00,59.50,0.00,0.00,0.00,30.09,M,10.00,M,CLR,M,M,M,M,M,M,M,M,M,M,M,M,M,M,64.40,KHTH 131535Z AUTO 00000KT 10SM CLR 18/10 A3009 RMK A01,M
10U,2023-09-13 15:35,-116.1876,41.9532,1637.00,59.00,42.80,54.86,280.00,4.00,0.00,30.16,M,10.00,M,FEW,M,M,M,12000.00,M,M,M,M,M,M,M,M,M,M,59.00,K10U 131535Z AUTO 28004KT 10SM FEW120 15/06 A3016 RMK AO2,M
BAM,2023-09-13 15:35,-116.8743,40.5990,1382.36,60.80,48.20,63.15,0.00,0.00,0.00,30.12,M,10.00,M,CLR,M,M,M,M,M,M,M,M,M,M,M,M,M,M,60.80,KBAM 131535Z AUTO 00000KT 10SM CLR 16/09 A3012 RMK AO1,M
TMT,2023-09-13 15:35,-117.1971,39.4643,1749.34,54.00,44.00,68.82,0.00,0.00,0.00,30.16,M,M,M,CLR,M,M,M,M,M,M,M,M,M,M,M,M,M,M,54.00,KTMT 131535Z AUTO 00000KT CLR 12/07 A3016 RMK AO2 T01220066 PWINO,M
05U,2023-09-13 15:50,-116.0051,39.6042,1811.23,66.20,41.00,39.72,0.00,0.00,0.00,30.18,M,10.00,M,CLR,M,M,M,M,M,M,M,M,M,M,M,M,M,M,66.20,K05U 131550Z AUTO 00000KT 10SM CLR 19/05 A3018 RMK A01,M
P68,2023-09-13 15:53,-116.0056,39.6014,1993.00,64.00,41.00,42.88,0.00,0.00,0.00,30.15,1014.40,M,M,M,M,M,M,M,M,M,M,M,M,M,M,M,M,M,64.00,KP68 131553Z AUTO 00000KT 18/05 A3015 RMK AO1 SLP144 T01780050,M
DRA,2023-09-13 15:53,-116.0278,36.6206,1009.00,77.00,53.00,43.29,0.00,0.00,0.00,29.99,1010.90,10.00,M,CLR,M,M,M,M,M,M,M,M,M,M,M,M,M,M,77.00,KDRA 131553Z AUTO 00000KT 10SM CLR 25/12 A2999 RMK AO2 SLP109 T02500117,M
ELY,2023-09-13 15:53,-114.8453,39.2950,1909.00,60.00,48.00,64.49,200.00,6.00,0.00,30.18,1014.80,10.00,M,CLR,M,M,M,M,M,M,M,M,M,M,M,M,M,M,60.00,KELY 131553Z AUTO 20006KT 10SM CLR 16/09 A3018 RMK AO2 SLP148 T01560089,M
VGT,2023-09-13 15:53,-115.1933,36.2111,667.00,82.00,56.00,40.98,130.00,3.00,0.00,29.93,1012.50,10.00,M,CLR,M,M,M,M,M,M,M,M,M,M,M,M,M,M,81.57,KVGT 131553Z 13003KT 10SM CLR 28/13 A2993 RMK AO2 SLP125 T02780133,M
LOL,2023-09-13 15:53,-118.5701,40.0684,1192.43,67.00,39.00,35.74,60.00,9.00,0.00,30.06,1014.50,10.00,M,FEW,M,M,M,12000.00,M,M,M,M,M,M,M,M,M,M,67.00,KLOL 131553Z AUTO 06009KT 10SM FEW120 19/04 A3006 RMK AO2 SLP145 T01940039,M
RNO,2023-09-13 15:55,-119.7711,39.4839,1341.00,65.00,42.00,43.04,170.00,3.00,0.00,30.12,1015.20,10.00,M,SCT,M,M,M,11000.00,M,M,M,M,M,M,M,M,M,M,65.00,KRNO 131555Z 17003KT 10SM SCT110 18/06 A3012 RMK AO2 SLP152 T01830056,M
RTS,2023-09-13 15:55,-119.8764,39.6682,1539.00,62.60,39.20,42.00,0.00,0.00,0.00,30.16,M,10.00,M,SCT,M,M,M,10000.00,M,M,M,M,M,M,M,M,M,M,62.60,KRTS 131555Z AUTO 00000KT 10SM SCT100 17/04 A3016 RMK AO2,M
MEV,2023-09-13 15:55,-119.7500,38.9963,1441.42,60.80,44.60,55.12,0.00,0.00,0.00,30.12,M,10.00,M,CLR,M,M,M,M,M,M,M,M,M,M,M,M,M,M,60.80,KMEV 131555Z AUTO 00000KT 10SM CLR 16/07 A3012 RMK AO2,M
HTH,2023-09-13 15:55,-118.6315,38.5448,1282.89,68.00,46.40,45.88,310.00,5.00,0.00,30.09,M,10.00,M,M,M,M,M,M,M,M,M,M,M,M,M,M,M,M,68.00,KHTH 131555Z AUTO 31005KT 10SM 20/08 A3009 RMK A01,M
BVU,2023-09-13 15:55,-114.8611,35.9475,671.00,77.00,55.40,47.25,0.00,0.00,0.00,29.93,M,10.00,M,CLR,M,M,M,M,M,M,M,M,M,M,M,M,M,M,77.00,KBVU 131555Z AUTO 00000KT 10SM CLR 25/13 A2993 RMK AO2,M
CXP,2023-09-13 15:55,-119.7326,39.1923,1431.00,64.40,44.60,48.55,0.00,0.00,0.00,30.13,M,10.00,M,CLR,M,M,M,M,M,M,M,M,M,M,M,M,M,M,64.40,KCXP 131555Z AUTO 00000KT 10SM CLR 18/07 A3013 RMK AO2,M
BAM,2023-09-13 15:55,-116.8743,40.5990,1382.36,62.60,48.20,59.26,110.00,3.00,0.00,30.12,M,10.00,M,CLR,M,M,M,M,M,M,M,M,M,M,M,M,M,M,62.60,KBAM 131555Z AUTO 11003KT 10SM CLR 17/09 A3012 RMK AO1,M
TMT,2023-09-13 15:55,-117.1971,39.4643,1749.34,58.50,44.60,59.83,230.00,3.00,0.00,30.16,M,M,M,SCT,M,M,M,9500.00,M,M,M,M,M,M,M,M,M,M,58.50,KTMT 131555Z AUTO 23003KT SCT095 15/07 A3016 RMK AO2 T01470070 PWINO,M
10U,2023-09-13 15:55,-116.1876,41.9532,1637.00,62.60,42.80,48.28,0.00,0.00,0.00,30.16,M,10.00,M,SCT,M,M,M,12000.00,M,M,M,M,M,M,M,M,M,M,62.60,K10U 131555Z AUTO 00000KT 10SM SCT120 17/06 A3016 RMK AO2,M
INS,2023-09-13 15:55,-115.6733,36.5872,955.00,74.70,52.50,45.88,0.00,0.00,0.00,29.99,1011.10,10.00,M,CLR,M,M,M,M,M,M,M,M,M,M,M,M,M,M,74.70,KINS 131555Z AUTO 00000KT 10SM CLR 24/11 A2999 RMK AO2 SLP111 T02370114 $,M
LSV,2023-09-13 15:55,-115.0343,36.2362,570.00,85.00,55.80,36.93,50.00,7.00,0.00,29.89,1009.80,10.00,M,CLR,M,M,M,M,M,M,M,M,M,M,M,M,M,M,83.80,KLSV 131555Z AUTO 05007KT 10SM CLR 29/13 A2989 RMK AO2 SLP098 T02940132 $,M
EKO,2023-09-13 15:56,-115.7860,40.8242,1367.00,59.00,46.00,61.98,M,4.00,0.00,30.13,1016.50,10.00,M,CLR,M,M,M,M,M,M,M,M,M,M,M,M,M,M,59.00,KEKO 131556Z AUTO VRB04KT 10SM CLR 15/08 A3013 RMK AO2 SLP165 T01500078,M
WMC,2023-09-13 15:56,-117.8072,40.9019,1315.00,65.00,38.00,36.84,310.00,3.00,0.00,30.10,1015.60,10.00,M,SCT,M,M,M,12000.00,M,M,M,M,M,M,M,M,M,M,65.00,KWMC 131556Z AUTO 31003KT 10SM SCT120 18/03 A3010 RMK AO2 SLP156 T01830033,M
NFL,2023-09-13 15:56,-118.7010,39.4166,1199.00,71.00,42.00,35.01,310.00,7.00,0.00,30.06,1014.60,10.00,M,SCT,M,M,M,10000.00,M,M,M,M,M,M,M,M,M,M,71.00,KNFL 131556Z 31007KT 10SM SCT100 22/06 A3006 RMK AO2 SLP146 T02170056,M
HND,2023-09-13 15:56,-115.1344,35.9729,742.79,80.00,57.00,45.36,M,3.00,0.00,29.97,1013.90,10.00,M,CLR,M,M,M,M,M,M,M,M,M,M,M,M,M,M,80.38,KHND 131556Z VRB03KT 10SM CLR 27/14 A2997 RMK AO2 SLP139 T02670139,M
LAS,2023-09-13 15:56,-115.1634,36.0719,663.00,82.00,55.00,39.52,60.00,5.00,0.00,29.94,1011.40,10.00,M,FEW,FEW,M,M,10000.00,14000.00,M,M,M,M,M,M,M,M,M,81.40,KLAS 131556Z 06005KT 10SM FEW100 FEW140 28/13 A2994 RMK AO2 SLP114 CB DSNT NE T02780128 $,M
05U,2023-09-13 16:10,-116.0051,39.6042,1811.23,68.00,39.20,34.80,0.00,0.00,0.00,30.18,M,10.00,M,CLR,M,M,M,M,M,M,M,M,M,M,M,M,M,M,68.00,K05U 131610Z AUTO 00000KT 10SM CLR 20/04 A3018 RMK A01,M
BVU,2023-09-13 16:15,-114.8611,35.9475,671.00,78.80,55.40,44.52,0.00,0.00,0.00,29.93,M,10.00,M,CLR,M,M,M,M,M,M,M,M,M,M,M,M,M,M,78.80,KBVU 131615Z AUTO 00000KT 10SM CLR 26/13 A2993 RMK AO2,M
CXP,2023-09-13 16:15,-119.7326,39.1923,1431.00,64.40,44.60,48.55,0.00,0.00,0.00,30.14,M,10.00,M,CLR,M,M,M,M,M,M,M,M,M,M,M,M,M,M,64.40,KCXP 131615Z AUTO 00000KT 10SM CLR 18/07 A3014 RMK AO2,M
RTS,2023-09-13 16:15,-119.8764,39.6682,1539.00,64.40,39.20,39.43,0.00,0.00,0.00,30.16,M,10.00,M,FEW,M,M,M,10000.00,M,M,M,M,M,M,M,M,M,M,64.40,KRTS 131615Z AUTO 00000KT 10SM FEW100 18/04 A3016 RMK AO2,M
MEV,2023-09-13 16:15,-119.7500,38.9963,1441.42,64.40,44.60,48.55,0.00,0.00,0.00,30.12,M,10.00,M,CLR,M,M,M,M,M,M,M,M,M,M,M,M,M,M,64.40,KMEV 131615Z AUTO 00000KT 10SM CLR 18/07 A3012 RMK AO2,M
HTH,2023-09-13 16:15,-118.6315,38.5448,1282.89,69.80,44.60,40.29,320.00,5.00,0.00,30.09,M,10.00,M,M,M,M,M,M,M,M,M,M,M,M,M,M,M,M,69.80,KHTH 131615Z AUTO 32005KT 10SM 21/07 A3009 RMK A01,M
TMT,2023-09-13 16:15,-117.1971,39.4643,1749.34,61.00,46.00,57.72,230.00,3.00,0.00,30.16,M,M,M,CLR,M,M,M,M,M,M,M,M,M,M,M,M,M,M,61.00,KTMT 131615Z AUTO 23003KT CLR 16/08 A3016 RMK AO2 T01610077 PWINO,M
BAM,2023-09-13 16:15,-116.8743,40.5990,1382.36,64.40,44.60,48.55,0.00,0.00,0.00,30.12,M,10.00,M,BKN,M,M,M,12000.00,M,M,M,M,M,M,M,M,M,M,64.40,KBAM 131615Z AUTO 00000KT 10SM BKN120 18/07 A3012 RMK AO1,M
10U,2023-09-13 16:15,-116.1876,41.9532,1637.00,64.40,42.80,45.32,M,3.00,0.00,30.16,M,10.00,M,FEW,M,M,M,12000.00,M,M,M,M,M,M,M,M,M,M,64.40,K10U 131615Z AUTO VRB03KT 10SM FEW120 18/06 A3016 RMK AO2,M
05U,2023-09-13 16:30,-116.0051,39.6042,1811.23,69.80,41.00,35.09,0.00,0.00,0.00,30.18,M,10.00,M,CLR,M,M,M,M,M,M,M,M,M,M,M,M,M,M,69.80,K05U 131630Z AUTO 00000KT 10SM CLR 21/05 A3018 RMK A01,M
RTS,2023-09-13 16:35,-119.8764,39.6682,1539.00,64.40,39.20,39.43,0.00,0.00,0.00,30.16,M,10.00,M,FEW,M,M,M,10000.00,M,M,M,M,M,M,M,M,M,M,64.40,KRTS 131635Z AUTO 00000KT 10SM FEW100 18/04 A3016 RMK AO2,M
MEV,2023-09-13 16:35,-119.7500,38.9963,1441.42,64.40,44.60,48.55,0.00,0.00,0.00,30.13,M,10.00,M,CLR,M,M,M,M,M,M,M,M,M,M,M,M,M,M,64.40,KMEV 131635Z AUTO 00000KT 10SM CLR 18/07 A3013 RMK AO2,M
HTH,2023-09-13 16:35,-118.6315,38.5448,1282.89,69.80,42.80,37.61,M,3.00,0.00,30.09,M,10.00,M,FEW,M,M,M,11000.00,M,M,M,M,M,M,M,M,M,M,69.80,KHTH 131635Z AUTO VRB03KT 10SM FEW110 21/06 A3009 RMK A01,M
10U,2023-09-13 16:35,-116.1876,41.9532,1637.00,66.20,41.00,39.72,360.00,5.00,0.00,30.16,M,10.00,M,CLR,M,M,M,M,M,M,M,M,M,M,M,M,M,M,66.20,K10U 131635Z AUTO 36005KT 10SM CLR 19/05 A3016 RMK AO2,M
BAM,2023-09-13 16:35,-116.8743,40.5990,1382.36,66.20,46.40,48.83,360.00,3.00,0.00,30.12,M,10.00,M,BKN,M,M,M,12000.00,M,M,M,M,M,M,M,M,M,M,66.20,KBAM 131635Z AUTO 36003KT 10SM BKN120 19/08 A3012 RMK AO1,M
BVU,2023-09-13 16:35,-114.8611,35.9475,671.00,80.60,55.40,41.97,0.00,0.00,0.00,29.94,M,10.00,M,CLR,M,M,M,M,M,M,M,M,M,M,M,M,M,M,80.53,KBVU 131635Z AUTO 00000KT 10SM CLR 27/13 A2994 RMK AO2,M
CXP,2023-09-13 16:35,-119.7326,39.1923,1431.00,66.20,42.80,42.57,0.00,0.00,0.00,30.14,M,10.00,M,BKN,M,M,M,10000.00,M,M,M,M,M,M,M,M,M,M,66.20,KCXP 131635Z AUTO 00000KT 10SM BKN100 19/06 A3014 RMK AO2,M
05U,2023-09-13 16:50,-116.0051,39.6042,1811.23,69.80,41.00,35.09,M,3.00,0.00,30.19,M,10.00,M,CLR,M,M,M,M,M,M,M,M,M,M,M,M,M,M,69.80,K05U 131650Z AUTO VRB03KT 10SM CLR 21/05 A3019 RMK A01,M
DRA,2023-09-13 16:53,-116.0278,36.6206,1009.00,81.00,53.00,37.95,60.00,4.00,0.00,29.99,1010.90,10.00,M,CLR,M,M,M,M,M,M,M,M,M,M,M,M,M,M,80.46,KDRA 131653Z AUTO 06004KT 10SM CLR 27/12 A2999 RMK AO2 SLP109 T02720117,M
ELY,2023-09-13 16:53,-114.8453,39.2950,1909.00,67.00,48.00,50.44,140.00,4.00,0.00,30.18,1013.70,10.00,M,CLR,M,M,M,M,M,M,M,M,M,M,M,M,M,M,67.00,KELY 131653Z AUTO 14004KT 10SM CLR 19/09 A3018 RMK AO2 SLP137 T01940089,M
VGT,2023-09-13 16:53,-115.1933,36.2111,667.00,85.00,55.00,35.87,90.00,6.00,0.00,29.93,1012.60,10.00,M,CLR,M,M,M,M,M,M,M,M,M,M,M,M,M,M,83.64,KVGT 131653Z 09006KT 10SM CLR 29/13 A2993 RMK AO2 LTG DSNT N SLP126 T02940128,M
LOL,2023-09-13 16:53,-118.5701,40.0684,1192.43,73.00,38.00,28.00,30.00,10.00,0.00,30.06,1014.70,10.00,M,CLR,M,M,M,M,M,M,M,M,M,M,M,M,M,M,73.00,KLOL 131653Z AUTO 03010KT 10SM CLR 23/03 A3006 RMK AO2 SLP147 T02280033,M
CXP,2023-09-13 16:55,-119.7326,39.1923,1431.00,69.80,44.60,40.29,100.00,5.00,0.00,30.14,M,10.00,M,SCT,M,M,M,10000.00,M,M,M,M,M,M,M,M,M,M,69.80,KCXP 131655Z AUTO 10005KT 10SM SCT100 21/07 A3014 RMK AO2,M
RNO,2023-09-13 16:55,-119.7711,39.4839,1341.00,70.00,42.00,36.22,0.00,0.00,0.00,30.12,1014.80,10.00,M,SCT,M,M,M,11000.00,M,M,M,M,M,M,M,M,M,M,70.00,KRNO 131655Z 00000KT 10SM SCT110 21/06 A3012 RMK AO2 SLP148 T02110056,M
RTS,2023-09-13 16:55,-119.8764,39.6682,1539.00,68.00,39.20,34.80,0.00,0.00,0.00,30.16,M,10.00,M,CLR,M,M,M,M,M,M,M,M,M,M,M,M,M,M,68.00,KRTS 131655Z AUTO 00000KT 10SM CLR 20/04 A3016 RMK AO2,M
MEV,2023-09-13 16:55,-119.7500,38.9963,1441.42,68.00,42.80,40.00,0.00,0.00,0.00,30.13,M,10.00,M,FEW,M,M,M,9500.00,M,M,M,M,M,M,M,M,M,M,68.00,KMEV 131655Z AUTO 00000KT 10SM FEW095 20/06 A3013 RMK AO2,M
BAM,2023-09-13 16:55,-116.8743,40.5990,1382.36,66.20,44.60,45.60,0.00,0.00,0.00,30.12,M,10.00,M,SCT,M,M,M,12000.00,M,M,M,M,M,M,M,M,M,M,66.20,KBAM 131655Z AUTO 00000KT 10SM SCT120 19/07 A3012 RMK AO1,M
HTH,2023-09-13 16:55,-118.6315,38.5448,1282.89,71.60,42.80,35.37,350.00,6.00,0.00,30.09,M,10.00,M,SCT,M,M,M,10000.00,M,M,M,M,M,M,M,M,M,M,71.60,KHTH 131655Z AUTO 35006KT 10SM SCT100 22/06 A3009 RMK A01,M
BVU,2023-09-13 16:55,-114.8611,35.9475,671.00,82.40,55.40,39.58,0.00,0.00,0.00,29.94,M,10.00,M,CLR,M,M,M,M,M,M,M,M,M,M,M,M,M,M,81.75,KBVU 131655Z AUTO 00000KT 10SM CLR 28/13 A2994 RMK AO2,M
LSV,2023-09-13 16:55,-115.0343,36.2362,570.00,86.50,53.00,31.78,30.00,12.00,0.00,29.89,M,10.00,M,CLR,M,M,M,M,M,M,M,M,M,M,M,M,M,M,84.49,KLSV 131655Z AUTO 03012KT 10SM CLR 30/12 A2989 RMK AO2 SLPNO T03030117 $,M
TMT,2023-09-13 16:55,-117.1971,39.4643,1749.34,65.70,44.00,45.35,0.00,0.00,0.00,30.16,M,M,M,CLR,M,M,M,M,M,M,M,M,M,M,M,M,M,M,65.70,KTMT 131655Z AUTO 00000KT CLR 19/07 A3016 RMK AO2 T01870066 PWINO,M
10U,2023-09-13 16:55,-116.1876,41.9532,1637.00,66.20,42.80,42.57,10.00,6.00,0.00,30.17,M,10.00,M,CLR,M,M,M,M,M,M,M,M,M,M,M,M,M,M,66.20,K10U 131655Z AUTO 01006KT 10SM CLR 19/06 A3017 RMK AO2,M
INS,2023-09-13 16:55,-115.6733,36.5872,955.00,78.00,51.80,40.07,0.00,0.00,0.00,29.99,M,10.00,M,CLR,M,M,M,M,M,M,M,M,M,M,M,M,M,M,78.00,KINS 131655Z AUTO 00000KT 10SM CLR 26/11 A2999 RMK AO2 LTG DSNT E SLPNO T02560110 $,M
EKO,2023-09-13 16:56,-115.7860,40.8242,1367.00,67.00,45.00,45.04,0.00,0.00,0.00,30.13,1015.90,10.00,M,CLR,M,M,M,M,M,M,M,M,M,M,M,M,M,M,67.00,KEKO 131656Z AUTO 00000KT 10SM CLR 19/07 A3013 RMK AO2 SLP159 T01940072,M
WMC,2023-09-13 16:56,-117.8072,40.9019,1315.00,69.00,39.00,33.36,320.00,4.00,0.00,30.10,1016.00,10.00,M,SCT,M,M,M,12000.00,M,M,M,M,M,M,M,M,M,M,69.00,KWMC 131656Z AUTO 32004KT 10SM SCT120 21/04 A3010 RMK AO2 SLP160 T02060039,M
NFL,2023-09-13 16:56,-118.7010,39.4166,1199.00,76.00,39.00,26.34,350.00,9.00,0.00,30.06,1014.80,10.00,M,FEW,M,M,M,12000.00,M,M,M,M,M,M,M,M,M,M,76.00,KNFL 131656Z 35009KT 10SM FEW120 24/04 A3006 RMK AO2 SLP148 T02440039,M
HND,2023-09-13 16:56,-115.1344,35.9729,742.79,83.00,55.00,38.26,40.00,3.00,0.00,29.98,1014.00,10.00,M,CLR,M,M,M,M,M,M,M,M,M,M,M,M,M,M,82.11,KHND 131656Z 04003KT 10SM CLR 28/13 A2998 RMK AO2 SLP140 T02830128,M
LAS,2023-09-13 16:56,-115.1634,36.0719,663.00,85.00,54.00,34.59,30.00,3.00,0.00,29.94,1011.40,10.00,M,FEW,FEW,M,M,10000.00,14000.00,M,M,M,M,M,M,M,M,M,83.45,KLAS 131656Z 03003KT 10SM FEW100 FEW140 29/12 A2994 RMK AO2 SLP114 CB DSNT N ACC DSNT SE T02940122 $,M
05U,2023-09-13 17:10,-116.0051,39.6042,1811.23,71.60,41.00,33.00,0.00,0.00,0.00,30.18,M,10.00,M,CLR,M,M,M,M,M,M,M,M,M,M,M,M,M,M,71.60,K05U 131710Z AUTO 00000KT 10SM CLR 22/05 A3018 RMK A01,M
BVU,2023-09-13 17:15,-114.8611,35.9475,671.00,84.20,53.60,34.97,0.00,0.00,0.00,29.94,M,10.00,M,CLR,M,M,M,M,M,M,M,M,M,M,M,M,M,M,82.76,KBVU 131715Z AUTO 00000KT 10SM CLR 29/12 A2994 RMK AO2,M
CXP,2023-09-13 17:15,-119.7326,39.1923,1431.00,71.60,41.00,33.00,320.00,9.00,0.00,30.13,M,10.00,M,FEW,M,M,M,10000.00,M,M,M,M,M,M,M,M,M,M,71.60,KCXP 131715Z AUTO 32009KT 10SM FEW100 22/05 A3013 RMK AO2,M
RTS,2023-09-13 17:15,-119.8764,39.6682,1539.00,68.00,39.20,34.80,0.00,0.00,0.00,30.16,M,10.00,M,FEW,M,M,M,9500.00,M,M,M,M,M,M,M,M,M,M,68.00,KRTS 131715Z AUTO 00000KT 10SM FEW095 20/04 A3016 RMK AO2,M
MEV,2023-09-13 17:15,-119.7500,38.9963,1441.42,69.80,42.80,37.61,330.00,3.00,0.00,30.13,M,10.00,M,CLR,M,M,M,M,M,M,M,M,M,M,M,M,M,M,69.80,KMEV 131715Z AUTO 33003KT 10SM CLR 21/06 A3013 RMK AO2,M
HTH,2023-09-13 17:15,-118.6315,38.5448,1282.89,73.40,41.00,31.05,320.00,8.00,0.00,30.09,M,10.00,M,FEW,M,M,M,10000.00,M,M,M,M,M,M,M,M,M,M,73.40,KHTH 131715Z AUTO 32008KT 10SM FEW100 23/05 A3009 RMK A01,M
BAM,2023-09-13 17:15,-116.8743,40.5990,1382.36,68.00,44.60,42.85,0.00,0.00,0.00,30.12,M,10.00,M,CLR,M,M,M,M,M,M,M,M,M,M,M,M,M,M,68.00,KBAM 131715Z AUTO 00000KT 10SM CLR 20/07 A3012 RMK AO1,M
TMT,2023-09-13 17:15,-117.1971,39.4643,1749.34,67.30,44.00,42.91,0.00,0.00,0.00,30.16,M,M,M,CLR,M,M,M,M,M,M,M,M,M,M,M,M,M,M,67.30,KTMT 131715Z AUTO 00000KT CLR 20/07 A3016 RMK AO2 T01960066 PWINO,M
10U,2023-09-13 17:20,-116.1876,41.9532,1637.00,68.00,41.00,37.32,10.00,7.00,0.00,30.17,M,10.00,12.00,CLR,M,M,M,M,M,M,M,M,M,M,M,M,M,M,68.00,K10U 131720Z AUTO 01007G12KT 340V040 10SM CLR 20/05 A3017 RMK AO2,M
05U,2023-09-13 17:30,-116.0051,39.6042,1811.23,73.40,42.80,33.29,0.00,0.00,0.00,30.18,M,10.00,M,CLR,M,M,M,M,M,M,M,M,M,M,M,M,M,M,73.40,K05U 131730Z AUTO 00000KT 10SM CLR 23/06 A3018 RMK A01,M
TMT,2023-09-13 17:35,-117.1971,39.4643,1749.34,69.00,41.70,37.05,0.00,0.00,0.00,30.16,M,M,M,CLR,M,M,M,M,M,M,M,M,M,M,M,M,M,M,69.00,KTMT 131735Z AUTO 00000KT CLR 21/05 A3016 RMK AO2 T02050054 PWINO,M
BVU,2023-09-13 17:35,-114.8611,35.9475,671.00,86.00,53.60,33.01,M,4.00,0.00,29.93,M,10.00,M,CLR,M,M,M,M,M,M,M,M,M,M,M,M,M,M,84.18,KBVU 131735Z AUTO VRB04KT 10SM CLR 30/12 A2993 RMK AO2,M
CXP,2023-09-13 17:35,-119.7326,39.1923,1431.00,73.40,41.00,31.05,10.00,5.00,0.00,30.13,M,10.00,M,CLR,M,M,M,M,M,M,M,M,M,M,M,M,M,M,73.40,KCXP 131735Z AUTO 01005KT 10SM CLR 23/05 A3013 RMK AO2,M
RTS,2023-09-13 17:35,-119.8764,39.6682,1539.00,69.80,39.20,32.72,M,5.00,0.00,30.16,M,10.00,M,FEW,M,M,M,9500.00,M,M,M,M,M,M,M,M,M,M,69.80,KRTS 131735Z AUTO VRB05KT 10SM FEW095 21/04 A3016 RMK AO2,M
MEV,2023-09-13 17:35,-119.7500,38.9963,1441.42,69.80,44.60,40.29,310.00,4.00,0.00,30.12,M,10.00,M,CLR,M,M,M,M,M,M,M,M,M,M,M,M,M,M,69.80,KMEV 131735Z AUTO 31004KT 10SM CLR 21/07 A3012 RMK AO2,M
BAM,2023-09-13 17:35,-116.8743,40.5990,1382.36,69.80,46.40,43.13,330.00,3.00,0.00,30.12,M,10.00,M,CLR,M,M,M,M,M,M,M,M,M,M,M,M,M,M,69.80,KBAM 131735Z AUTO 33003KT 10SM CLR 21/08 A3012 RMK AO1,M
HTH,2023-09-13 17:35,-118.6315,38.5448,1282.89,73.40,41.00,31.05,330.00,7.00,0.00,30.09,M,10.00,12.00,CLR,M,M,M,M,M,M,M,M,M,M,M,M,M,M,73.40,KHTH 131735Z AUTO 33007G12KT 10SM CLR 23/05 A3009 RMK A01,M
10U,2023-09-13 17:40,-116.1876,41.9532,1637.00,69.80,41.00,35.09,10.00,8.00,0.00,30.17,M,10.00,M,CLR,M,M,M,M,M,M,M,M,M,M,M,M,M,M,69.80,K10U 131740Z AUTO 01008KT 350V050 10SM CLR 21/05 A3017 RMK AO2,M
05U,2023-09-13 17:50,-116.0051,39.6042,1811.23,75.20,39.20,27.26,0.00,0.00,0.00,30.18,M,10.00,M,CLR,M,M,M,M,M,M,M,M,M,M,M,M,M,M,75.20,K05U 131750Z AUTO 00000KT 10SM CLR 24/04 A3018 RMK A01,M
DRA,2023-09-13 17:53,-116.0278,36.6206,1009.00,85.00,52.00,32.14,290.00,4.00,0.00,29.99,1010.60,10.00,M,CLR,M,M,M,M,M,M,M,M,M,M,M,M,M,M,83.11,KDRA 131753Z AUTO 29004KT 10SM CLR 29/11 A2999 RMK AO2 SLP106 T02940111 10294 20178 58002,M
ELY,2023-09-13 17:53,-114.8453,39.2950,1909.00,71.00,44.00,37.80,0.00,0.00,0.00,30.16,1012.90,10.00,M,CLR,M,M,M,M,M,M,M,M,M,M,M,M,M,M,71.00,KELY 131753Z AUTO 00000KT 10SM CLR 22/07 A3016 RMK AO2 SLP129 T02170067 10217 20056 58006,M
VGT,2023-09-13 17:53,-115.1933,36.2111,667.00,89.00,55.00,31.59,60.00,6.00,0.00,29.93,1012.40,10.00,M,CLR,M,M,M,M,M,M,M,M,M,M,M,M,M,M,87.12,KVGT 131753Z 06006KT 10SM CLR 32/13 A2993 RMK AO2 SLP124 T03170128 10317 20244 58000,M
LOL,2023-09-13 17:53,-118.5701,40.0684,1192.43,77.00,38.00,24.50,40.00,11.00,0.00,30.06,1014.70,10.00,18.00,CLR,M,M,M,M,M,M,M,M,M,M,M,M,M,M,77.00,KLOL 131753Z AUTO 04011G18KT 10SM CLR 25/03 A3006 RMK AO2 SLP147 T02500033 10250 20078 51002,M
BVU,2023-09-13 17:55,-114.8611,35.9475,671.00,86.00,51.80,30.90,150.00,5.00,0.00,29.93,M,10.00,M,CLR,M,M,M,M,M,M,M,M,M,M,M,M,M,M,83.87,KBVU 131755Z AUTO 15005KT 10SM CLR 30/11 A2993 RMK AO2,M
CXP,2023-09-13 17:55,-119.7326,39.1923,1431.00,73.40,39.20,28.96,M,5.00,0.00,30.13,M,10.00,M,CLR,M,M,M,M,M,M,M,M,M,M,M,M,M,M,73.40,KCXP 131755Z AUTO VRB05KT 10SM CLR 23/04 A3013 RMK AO2,M
INS,2023-09-13 17:55,-115.6733,36.5872,955.00,81.00,51.40,35.78,0.00,0.00,0.00,29.98,M,10.00,M,CLR,M,M,M,M,M,M,M,M,M,M,M,M,M,M,80.27,KINS 131755Z AUTO 00000KT 10SM CLR 27/11 A2998 RMK AO2 SLPNO T02720108 10272 20174 58002 $,M
RNO,2023-09-13 17:55,-119.7711,39.4839,1341.00,72.00,42.00,33.84,M,4.00,0.00,30.11,1014.70,10.00,M,SCT,M,M,M,11000.00,M,M,M,M,M,M,M,M,M,M,72.00,KRNO 131755Z VRB04KT 10SM SCT110 22/06 A3011 RMK AO2 SLP147 T02220056 10222 20139 58002,M
LSV,2023-09-13 17:55,-115.0343,36.2362,570.00,90.00,52.50,27.93,360.00,7.00,0.00,29.89,M,10.00,M,CLR,M,M,M,M,M,M,M,M,M,M,M,M,M,M,87.50,KLSV 131755Z AUTO 36007KT 10SM CLR 32/11 A2989 RMK AO2 SLPNO T03230114 10323 20234 55001 $,M
RTS,2023-09-13 17:55,-119.8764,39.6682,1539.00,69.80,39.20,32.72,150.00,5.00,0.00,30.16,M,10.00,M,CLR,M,M,M,M,M,M,M,M,M,M,M,M,M,M,69.80,KRTS 131755Z AUTO 15005KT 10SM CLR 21/04 A3016 RMK AO2,M
MEV,2023-09-13 17:55,-119.7500,38.9963,1441.42,69.80,42.80,37.61,0.00,0.00,0.00,30.12,M,10.00,M,CLR,M,M,M,M,M,M,M,M,M,M,M,M,M,M,69.80,KMEV 131755Z AUTO 00000KT 10SM CLR 21/06 A3012 RMK AO2,M
HTH,2023-09-13 17:55,-118.6315,38.5448,1282.89,75.20,39.20,27.26,310.00,10.00,0.00,30.09,M,10.00,M,CLR,M,M,M,M,M,M,M,M,M,M,M,M,M,M,75.20,KHTH 131755Z AUTO 31010KT 10SM CLR 24/04 A3009 RMK A01,M
BAM,2023-09-13 17:55,-116.8743,40.5990,1382.36,69.80,46.40,43.13,10.00,3.00,0.00,30.12,M,10.00,M,CLR,M,M,M,M,M,M,M,M,M,M,M,M,M,M,69.80,KBAM 131755Z AUTO 01003KT 10SM CLR 21/08 A3012 RMK AO1,M
TMT,2023-09-13 17:55,-117.1971,39.4643,1749.34,70.30,38.70,31.54,0.00,0.00,0.00,30.16,M,M,M,CLR,M,M,M,M,M,M,M,M,M,M,M,M,M,M,70.30,KTMT 131755Z AUTO 00000KT CLR 21/04 A3016 RMK AO2 T02130037 10215 20042 PWINO,M
10U,2023-09-13 17:55,-116.1876,41.9532,1637.00,69.80,39.20,32.72,360.00,11.00,0.00,30.16,M,10.00,M,CLR,M,M,M,M,M,M,M,M,M,M,M,M,M,M,69.80,K10U 131755Z AUTO 36011KT 10SM CLR 21/04 A3016 RMK AO2,M
EKO,2023-09-13 17:56,-115.7860,40.8242,1367.00,71.00,45.00,39.27,M,3.00,0.00,30.12,1015.10,10.00,M,CLR,M,M,M,M,M,M,M,M,M,M,M,M,M,M,71.00,KEKO 131756Z AUTO VRB03KT 10SM CLR 22/07 A3012 RMK AO2 SLP151 T02170072 10222 20061 58005,M
NFL,2023-09-13 17:56,-118.7010,39.4166,1199.00,78.00,38.00,23.70,M,5.00,0.00,30.06,1014.80,10.00,M,SCT,M,M,M,12000.00,M,M,M,M,M,M,M,M,M,M,78.00,KNFL 131756Z VRB05KT 10SM SCT120 26/03 A3006 RMK AO2 SLP148 T02560033 10261 20117 50002,M
HND,2023-09-13 17:56,-115.1344,35.9729,742.79,86.00,55.00,34.74,0.00,0.00,0.00,29.97,1013.80,10.00,M,CLR,M,M,M,M,M,M,M,M,M,M,M,M,M,M,84.46,KHND 131756Z 00000KT 10SM CLR 30/13 A2997 RMK AO2 SLP138 T03000128 10306 20217 58001,M
LAS,2023-09-13 17:56,-115.1634,36.0719,663.00,86.00,53.00,32.29,M,3.00,0.00,29.94,1011.20,10.00,M,FEW,FEW,M,M,10000.00,14000.00,M,M,M,M,M,M,M,M,M,84.07,KLAS 131756Z VRB03KT 10SM FEW100 FEW140 30/12 A2994 RMK AO2 SLP112 CB DSNT N ACC DSNT SE T03000117 10306 20244 50000 $,M
05U,2023-09-13 18:10,-116.0051,39.6042,1811.23,77.00,37.40,23.93,0.00,0.00,0.00,30.17,M,10.00,M,CLR,M,M,M,M,M,M,M,M,M,M,M,M,M,M,77.00,K05U 131810Z AUTO 00000KT 10SM CLR 25/03 A3017 RMK A01,M
BAM,2023-09-13 18:15,-116.8743,40.5990,1382.36,69.80,46.40,43.13,350.00,3.00,0.00,30.11,M,10.00,M,CLR,M,M,M,M,M,M,M,M,M,M,M,M,M,M,69.80,KBAM 131815Z AUTO 35003KT 10SM CLR 21/08 A3011 RMK AO1,M
10U,2023-09-13 18:15,-116.1876,41.9532,1637.00,71.60,39.20,30.77,340.00,12.00,0.00,30.16,M,10.00,17.00,CLR,M,M,M,M,M,M,M,M,M,M,M,M,M,M,71.60,K10U 131815Z AUTO 34012G17KT 10SM CLR 22/04 A3016 RMK AO2,M
TMT,2023-09-13 18:15,-117.1971,39.4643,1749.34,72.70,39.20,29.65,320.00,3.00,0.00,30.15,M,M,M,CLR,M,M,M,M,M,M,M,M,M,M,M,M,M,M,72.70,KTMT 131815Z AUTO 32003KT CLR 23/04 A3015 RMK AO2 T02260040 PWINO,M
BVU,2023-09-13 18:15,-114.8611,35.9475,671.00,86.00,53.60,33.01,0.00,0.00,0.00,29.93,M,10.00,M,CLR,M,M,M,M,M,M,M,M,M,M,M,M,M,M,84.18,KBVU 131815Z AUTO 00000KT 10SM CLR 30/12 A2993 RMK AO2 LTG DSNT NE AND E,M
CXP,2023-09-13 18:15,-119.7326,39.1923,1431.00,75.20,41.00,29.23,330.00,5.00,0.00,30.12,M,10.00,M,CLR,M,M,M,M,M,M,M,M,M,M,M,M,M,M,75.20,KCXP 131815Z AUTO 33005KT 10SM CLR 24/05 A3012 RMK AO2,M
RTS,2023-09-13 18:15,-119.8764,39.6682,1539.00,69.80,39.20,32.72,0.00,0.00,0.00,30.15,M,10.00,M,CLR,M,M,M,M,M,M,M,M,M,M,M,M,M,M,69.80,KRTS 131815Z AUTO 00000KT 10SM CLR 21/04 A3015 RMK AO2,M
MEV,2023-09-13 18:15,-119.7500,38.9963,1441.42,73.40,42.80,33.29,250.00,4.00,0.00,30.11,M,10.00,M,CLR,M,M,M,M,M,M,M,M,M,M,M,M,M,M,73.40,KMEV 131815Z AUTO 25004KT 10SM CLR 23/06 A3011 RMK AO2,M
HTH,2023-09-13 18:15,-118.6315,38.5448,1282.89,75.20,39.20,27.26,320.00,10.00,0.00,30.09,M,10.00,M,CLR,M,M,M,M,M,M,M,M,M,M,M,M,M,M,75.20,KHTH 131815Z AUTO 32010KT 10SM CLR 24/04 A3009 RMK A01,M
05U,2023-09-13 18:30,-116.0051,39.6042,1811.23,77.00,33.80,20.74,0.00,0.00,0.00,30.16,M,10.00,M,CLR,M,M,M,M,M,M,M,M,M,M,M,M,M,M,77.00,K05U 131830Z AUTO 00000KT 10SM CLR 25/01 A3016 RMK A01,M
BVU,2023-09-13 18:35,-114.8611,35.9475,671.00,87.80,53.60,31.17,M,3.00,0.00,29.92,M,10.00,M,CLR,M,M,M,M,M,M,M,M,M,M,M,M,M,M,85.72,KBVU 131835Z AUTO VRB03KT 10SM CLR 31/12 A2992 RMK AO2 LTG DSNT NE AND E,M
CXP,2023-09-13 18:35,-119.7326,39.1923,1431.00,77.00,39.20,25.67,240.00,6.00,0.00,30.12,M,10.00,M,CLR,M,M,M,M,M,M,M,M,M,M,M,M,M,M,77.00,KCXP 131835Z AUTO 24006KT 10SM CLR 25/04 A3012 RMK AO2,M
RTS,2023-09-13 18:35,-119.8764,39.6682,1539.00,71.60,39.20,30.77,M,4.00,0.00,30.15,M,10.00,M,CLR,M,M,M,M,M,M,M,M,M,M,M,M,M,M,71.60,KRTS 131835Z AUTO VRB04KT 10SM CLR 22/04 A3015 RMK AO2,M
MEV,2023-09-13 18:35,-119.7500,38.9963,1441.42,73.40,42.80,33.29,M,4.00,0.00,30.11,M,10.00,M,CLR,M,M,M,M,M,M,M,M,M,M,M,M,M,M,73.40,KMEV 131835Z AUTO VRB04KT 10SM CLR 23/06 A3011 RMK AO2,M
BAM,2023-09-13 18:35,-116.8743,40.5990,1382.36,71.60,46.40,40.57,0.00,0.00,0.00,30.11,M,10.00,M,CLR,M,M,M,M,M,M,M,M,M,M,M,M,M,M,71.60,KBAM 131835Z AUTO 00000KT 10SM CLR 22/08 A3011 RMK AO1,M
HTH,2023-09-13 18:35,-118.6315,38.5448,1282.89,75.20,37.40,25.40,310.00,10.00,0.00,30.08,M,10.00,M,FEW,M,M,M,11000.00,M,M,M,M,M,M,M,M,M,M,75.20,KHTH 131835Z AUTO 31010KT 10SM FEW110 24/03 A3008 RMK A01,M
TMT,2023-09-13 18:35,-117.1971,39.4643,1749.34,74.50,38.30,26.94,50.00,3.00,0.00,30.14,M,M,M,CLR,M,M,M,M,M,M,M,M,M,M,M,M,M,M,74.50,KTMT 131835Z AUTO 05003KT CLR 24/04 A3014 RMK AO2 LTG DSNT E AND S T02360035 PWINO,M
10U,2023-09-13 18:40,-116.1876,41.9532,1637.00,71.60,39.20,30.77,340.00,10.00,0.00,30.16,M,10.00,M,CLR,M,M,M,M,M,M,M,M,M,M,M,M,M,M,71.60,K10U 131840Z AUTO 34010KT 10SM CLR 22/04 A3016 RMK AO2,M
05U,2023-09-13 18:50,-116.0051,39.6042,1811.23,77.00,30.20,17.94,0.00,0.00,0.00,30.16,M,10.00,M,CLR,M,M,M,M,M,M,M,M,M,M,M,M,M,M,77.00,K05U 131850Z AUTO 00000KT 10SM CLR 25/M01 A3016 RMK A01,M
DRA,2023-09-13 18:53,-116.0278,36.6206,1009.00,88.00,44.00,21.63,230.00,8.00,0.00,29.97,1009.90,10.00,M,CLR,M,M,M,M,M,M,M,M,M,M,M,M,M,M,84.65,KDRA 131853Z AUTO 23008KT 10SM CLR 31/07 A2997 RMK AO2 SLP099 T03110067,M
ELY,2023-09-13 18:53,-114.8453,39.2950,1909.00,73.00,41.00,31.47,330.00,12.00,0.00,30.15,1012.60,10.00,16.00,SCT,BKN,M,M,9000.00,11000.00,M,M,M,M,M,M,M,M,M,73.00,KELY 131853Z AUTO 33012G16KT 10SM SCT090 BKN110 23/05 A3015 RMK AO2 SLP126 T02280050,M
VGT,2023-09-13 18:53,-115.1933,36.2111,667.00,90.00,54.00,29.51,120.00,9.00,0.00,29.91,1011.80,10.00,M,CLR,M,M,M,M,M,M,M,M,M,M,M,M,M,M,87.82,KVGT 131853Z 12009KT 10SM CLR 32/12 A2991 RMK AO2 LTG DSNT W SLP118 T03220122,M
LOL,2023-09-13 18:53,-118.5701,40.0684,1192.43,80.00,39.00,23.08,50.00,13.00,0.00,30.05,1013.90,10.00,M,CLR,M,M,M,M,M,M,M,M,M,M,M,M,M,M,78.78,KLOL 131853Z AUTO 05013KT 10SM CLR 27/04 A3005 RMK AO2 SLP139 T02670039,M
BVU,2023-09-13 18:55,-114.8611,35.9475,671.00,87.80,51.80,29.18,250.00,7.00,0.00,29.91,M,10.00,M,CLR,M,M,M,M,M,M,M,M,M,M,M,M,M,M,85.39,KBVU 131855Z AUTO 25007KT 220V290 10SM CLR 31/11 A2991 RMK AO2 LTG DSNT NE AND NW,M
CXP,2023-09-13 18:55,-119.7326,39.1923,1431.00,77.00,39.20,25.67,290.00,6.00,0.00,30.11,M,10.00,M,CLR,M,M,M,M,M,M,M,M,M,M,M,M,M,M,77.00,KCXP 131855Z AUTO 29006KT 10SM CLR 25/04 A3011 RMK AO2,M
INS,2023-09-13 18:55,-115.6733,36.5872,955.00,84.40,49.50,29.86,80.00,4.00,0.00,29.96,M,10.00,M,CLR,M,M,M,M,M,M,M,M,M,M,M,M,M,M,82.32,KINS 131855Z AUTO 08004KT 10SM CLR 29/10 A2996 RMK AO2 SLPNO T02910097 $,M
RNO,2023-09-13 18:55,-119.7711,39.4839,1341.00,77.00,42.00,28.62,M,3.00,0.00,30.10,1013.80,10.00,M,SCT,M,M,M,11000.00,M,M,M,M,M,M,M,M,M,M,77.00,KRNO 131855Z VRB03KT 10SM SCT110 25/06 A3010 RMK AO2 SLP138 T02500056,M
RTS,2023-09-13 18:55,-119.8764,39.6682,1539.00,73.40,37.40,26.98,M,5.00,0.00,30.14,M,10.00,11.00,CLR,M,M,M,M,M,M,M,M,M,M,M,M,M,M,73.40,KRTS 131855Z AUTO VRB05G11KT 10SM CLR 23/03 A3014 RMK AO2,M
MEV,2023-09-13 18:55,-119.7500,38.9963,1441.42,75.20,42.80,31.34,320.00,4.00,0.00,30.10,M,10.00,M,CLR,M,M,M,M,M,M,M,M,M,M,M,M,M,M,75.20,KMEV 131855Z AUTO 32004KT 10SM CLR 24/06 A3010 RMK AO2,M
BAM,2023-09-13 18:55,-116.8743,40.5990,1382.36,73.40,46.40,38.18,350.00,4.00,0.00,30.10,M,10.00,M,CLR,M,M,M,M,M,M,M,M,M,M,M,M,M,M,73.40,KBAM 131855Z AUTO 35004KT 10SM CLR 23/08 A3010 RMK AO1,M
HTH,2023-09-13 18:55,-118.6315,38.5448,1282.89,77.00,39.20,25.67,320.00,10.00,0.00,30.07,M,10.00,M,FEW,M,M,M,11000.00,M,M,M,M,M,M,M,M,M,M,77.00,KHTH 131855Z AUTO 32010KT 10SM FEW110 25/04 A3007 RMK A01,M
TMT,2023-09-13 18:55,-117.1971,39.4643,1749.34,74.70,37.40,25.83,20.00,4.00,0.00,30.13,M,M,M,CLR,M,M,M,M,M,M,M,M,M,M,M,M,M,M,74.70,KTMT 131855Z AUTO 02004KT CLR 24/03 A3013 RMK AO2 LTG DSNT SE T02370030 PWINO,M
LSV,2023-09-13 18:55,-115.0343,36.2362,570.00,93.20,53.20,25.93,10.00,6.00,0.00,29.87,M,10.00,M,CLR,M,M,M,M,M,M,M,M,M,M,M,M,M,M,90.77,KLSV 131855Z AUTO 01006KT 10SM CLR 34/12 A2987 RMK AO2 SLPNO T03400118 $,M
EKO,2023-09-13 18:56,-115.7860,40.8242,1367.00,77.00,41.00,27.53,M,4.00,0.00,30.09,1014.20,10.00,M,CLR,M,M,M,M,M,M,M,M,M,M,M,M,M,M,77.00,KEKO 131856Z AUTO VRB04KT 10SM CLR 25/05 A3009 RMK AO2 SLP142 T02500050,M
WMC,2023-09-13 18:56,-117.8072,40.9019,1315.00,77.00,39.00,25.47,20.00,12.00,0.00,30.09,1015.40,10.00,21.00,SCT,M,M,M,11000.00,M,M,M,M,M,M,M,M,M,M,77.00,KWMC 131856Z AUTO 02012G21KT 10SM SCT110 25/04 A3009 RMK AO2 SLP154 T02500039,M
NFL,2023-09-13 18:56,-118.7010,39.4166,1199.00,80.00,39.00,23.08,340.00,10.00,0.00,30.05,1014.40,10.00,M,FEW,SCT,M,M,7000.00,10000.00,M,M,M,M,M,M,M,M,M,78.78,KNFL 131856Z 34010KT 10SM FEW070 SCT100 27/04 A3005 RMK AO2 SLP144 T02670039,M
HND,2023-09-13 18:56,-115.1344,35.9729,742.79,90.00,55.00,30.61,M,3.00,0.00,29.95,1013.00,10.00,M,CLR,M,M,M,M,M,M,M,M,M,M,M,M,M,M,88.06,KHND 131856Z VRB03KT 10SM CLR 32/13 A2995 RMK AO2 LTG DSNT NW SLP130 T03220128,M
LAS,2023-09-13 18:56,-115.1634,36.0719,663.00,88.00,53.00,30.30,0.00,0.00,0.00,29.92,1010.60,10.00,M,FEW,FEW,M,M,10000.00,14000.00,M,M,M,M,M,M,M,M,M,85.78,KLAS 131856Z 00000KT 10SM FEW100 FEW140 31/12 A2992 RMK AO2 LTG DSNT W AND NW SLP106 CB DSNT NW TCU DSNT N T03110117 $,M
10U,2023-09-13 19:00,-116.1876,41.9532,1637.00,71.60,39.20,30.77,360.00,10.00,0.00,30.16,M,10.00,M,CLR,M,M,M,M,M,M,M,M,M,M,M,M,M,M,71.60,K10U 131900Z AUTO 36010KT 10SM CLR 22/04 A3016 RMK AO2,M
05U,2023-09-13 19:10,-116.0051,39.6042,1811.23,77.00,30.20,17.94,200.00,7.00,0.00,30.15,M,10.00,M,CLR,M,M,M,M,M,M,M,M,M,M,M,M,M,M,77.00,K05U 131910Z AUTO 20007KT 10SM CLR 25/M01 A3015 RMK A01,M
BVU,2023-09-13 19:15,-114.8611,35.9475,671.00,89.60,53.60,29.45,M,4.00,0.00,29.90,M,10.00,M,CLR,M,M,M,M,M,M,M,M,M,M,M,M,M,M,87.36,KBVU 131915Z AUTO VRB04KT 10SM CLR 32/12 A2990 RMK AO2 LTG DSNT NE AND E,M
CXP,2023-09-13 19:15,-119.7326,39.1923,1431.00,78.80,39.20,24.19,330.00,6.00,0.00,30.11,M,10.00,11.00,CLR,M,M,M,M,M,M,M,M,M,M,M,M,M,M,78.80,KCXP 131915Z AUTO 33006G11KT 10SM CLR 26/04 A3011 RMK AO2,M
RTS,2023-09-13 19:15,-119.8764,39.6682,1539.00,75.20,35.60,23.66,30.00,8.00,0.00,30.14,M,10.00,M,CLR,M,M,M,M,M,M,M,M,M,M,M,M,M,M,75.20,KRTS 131915Z AUTO 03008KT 10SM CLR 24/02 A3014 RMK AO2,M
MEV,2023-09-13 19:15,-119.7500,38.9963,1441.42,77.00,41.00,27.53,270.00,5.00,0.00,30.09,M,6.00,M,CLR,M,M,M,M,M,M,M,HZ,M,M,M,M,M,M,77.00,KMEV 131915Z AUTO 27005KT 6SM HZ CLR 25/05 A3009 RMK AO2,M
HTH,2023-09-13 19:15,-118.6315,38.5448,1282.89,78.80,39.20,24.19,300.00,7.00,0.00,30.07,M,10.00,13.00,FEW,M,M,M,11000.00,M,M,M,M,M,M,M,M,M,M,78.80,KHTH 131915Z AUTO 30007G13KT 10SM FEW110 26/04 A3007 RMK A01,M
BAM,2023-09-13 19:15,-116.8743,40.5990,1382.36,73.40,44.60,35.66,320.00,5.00,0.00,30.09,M,10.00,M,CLR,M,M,M,M,M,M,M,M,M,M,M,M,M,M,73.40,KBAM 131915Z AUTO 32005KT 10SM CLR 23/07 A3009 RMK AO1,M
TMT,2023-09-13 19:15,-117.1971,39.4643,1749.34,75.70,36.30,23.92,0.00,0.00,0.00,30.13,M,M,M,CLR,M,M,M,M,M,M,M,M,M,M,M,M,M,M,75.70,KTMT 131915Z AUTO 00000KT CLR 24/02 A3013 RMK AO2 T02430024 PWINO,M
10U,2023-09-13 19:20,-116.1876,41.9532,1637.00,73.40,39.20,28.96,350.00,8.00,0.00,30.15,M,10.00,M,CLR,M,M,M,M,M,M,M,M,M,M,M,M,M,M,73.40,K10U 131920Z AUTO 35008KT 10SM CLR 23/04 A3015 RMK AO2,M
ELY,2023-09-13 19:28,-114.8453,39.2950,1909.00,74.00,35.00,24.05,M,3.00,T,30.14,M,10.00,M,FEW,SCT,SCT,M,4800.00,7000.00,8500.00,M,VCTS,M,M,M,M,M,M,74.00,KELY 131928Z AUTO VRB03KT 10SM VCTS FEW048 SCT070 SCT085 23/02 A3014 RMK AO2 LTG DSNT SW RAB01E10 P0000 T02330017,M
05U,2023-09-13 19:30,-116.0051,39.6042,1811.23,77.00,30.20,17.94,200.00,8.00,0.00,30.14,M,10.00,M,CLR,M,M,M,M,M,M,M,M,M,M,M,M,M,M,77.00,K05U 131930Z AUTO 20008KT 10SM CLR 25/M01 A3014 RMK A01,M
BAM,2023-09-13 19:35,-116.8743,40.5990,1382.36,77.00,48.20,36.22,320.00,7.00,0.00,30.09,M,10.00,M,CLR,M,M,M,M,M,M,M,M,M,M,M,M,M,M,77.00,KBAM 131935Z AUTO 32007KT 10SM CLR 25/09 A3009 RMK AO1,M
TMT,2023-09-13 19:35,-117.1971,39.4643,1749.34,76.30,36.00,23.17,270.00,4.00,0.00,30.12,M,M,M,CLR,M,M,M,M,M,M,M,M,M,M,M,M,M,M,76.30,KTMT 131935Z AUTO 27004KT CLR 25/02 A3012 RMK AO2 LTG DSNT S T02460022 PWINO,M
BVU,2023-09-13 19:35,-114.8611,35.9475,671.00,89.60,51.80,27.56,0.00,0.00,0.00,29.89,M,10.00,M,CLR,M,M,M,M,M,M,M,M,M,M,M,M,M,M,87.00,KBVU 131935Z AUTO 00000KT 10SM CLR 32/11 A2989 RMK AO2,M
CXP,2023-09-13 19:35,-119.7326,39.1923,1431.00,78.80,37.40,22.54,280.00,6.00,0.00,30.10,M,10.00,M,CLR,M,M,M,M,M,M,M,M,M,M,M,M,M,M,78.80,KCXP 131935Z AUTO 28006KT 10SM CLR 26/03 A3010 RMK AO2,M
RTS,2023-09-13 19:35,-119.8764,39.6682,1539.00,75.20,35.60,23.66,70.00,7.00,0.00,30.14,M,10.00,M,CLR,M,M,M,M,M,M,M,M,M,M,M,M,M,M,75.20,KRTS 131935Z AUTO 07007KT 10SM CLR 24/02 A3014 RMK AO2,M
MEV,2023-09-13 19:35,-119.7500,38.9963,1441.42,77.00,41.00,27.53,M,5.00,0.00,30.09,M,8.00,M,CLR,M,M,M,M,M,M,M,M,M,M,M,M,M,M,77.00,KMEV 131935Z AUTO VRB05KT 8SM CLR 25/05 A3009 RMK AO2,M
HTH,2023-09-13 19:35,-118.6315,38.5448,1282.89,78.80,39.20,24.19,310.00,6.00,0.00,30.06,M,10.00,12.00,CLR,M,M,M,M,M,M,M,M,M,M,M,M,M,M,78.80,KHTH 131935Z AUTO 31006G12KT 10SM CLR 26/04 A3006 RMK A01,M
10U,2023-09-13 19:35,-116.1876,41.9532,1637.00,73.40,39.20,28.96,340.00,10.00,0.00,30.15,M,10.00,M,CLR,M,M,M,M,M,M,M,M,M,M,M,M,M,M,73.40,K10U 131935Z AUTO 34010KT 10SM CLR 23/04 A3015 RMK AO2,M
05U,2023-09-13 19:50,-116.0051,39.6042,1811.23,78.80,32.00,18.18,M,4.00,0.00,30.14,M,10.00,M,CLR,M,M,M,M,M,M,M,M,M,M,M,M,M,M,78.80,K05U 131950Z AUTO VRB04KT 10SM CLR 26/00 A3014 RMK A01,M
DRA,2023-09-13 19:53,-116.0278,36.6206,1009.00,88.00,45.00,22.47,M,4.00,0.00,29.95,1009.50,10.00,M,CLR,M,M,M,M,M,M,M,M,M,M,M,M,M,M,84.72,KDRA 131953Z AUTO VRB04KT 10SM CLR 31/07 A2995 RMK AO2 SLP095 T03110072,M
ELY,2023-09-13 19:53,-114.8453,39.2950,1909.00,71.00,38.00,29.96,260.00,14.00,T,30.15,1013.10,10.00,21.00,FEW,BKN,M,M,9000.00,10000.00,M,M,VCTS,M,M,M,M,M,M,71.00,KELY 131953Z AUTO 26014G21KT 10SM VCTS FEW090 BKN100 22/03 A3015 RMK AO2 LTG DSNT SE AND SW RAB01E10 SLP131 P0000 T02170033,M
VGT,2023-09-13 19:53,-115.1933,36.2111,667.00,88.00,54.00,31.43,0.00,0.00,0.00,29.89,1011.20,10.00,M,CLR,M,M,M,M,M,M,M,M,M,M,M,M,M,M,85.98,KVGT 131953Z 00000KT 10SM CLR 31/12 A2989 RMK AO2 LTG DSNT W AND NW SLP112 T03110122,M
LOL,2023-09-13 19:53,-118.5701,40.0684,1192.43,82.00,39.00,21.62,60.00,16.00,0.00,30.03,1013.60,10.00,M,CLR,M,M,M,M,M,M,M,M,M,M,M,M,M,M,79.94,KLOL 131953Z AUTO 06016KT 10SM CLR 28/04 A3003 RMK AO2 SLP136 T02780039,M
BVU,2023-09-13 19:55,-114.8611,35.9475,671.00,89.60,51.80,27.56,0.00,0.00,0.00,29.88,M,10.00,10.00,CLR,M,M,M,M,M,M,M,M,M,M,M,M,M,M,87.00,KBVU 131955Z AUTO 00000G10KT 10SM CLR 32/11 A2988 RMK AO2 LTG DSNT N-E,M
CXP,2023-09-13 19:55,-119.7326,39.1923,1431.00,78.80,39.20,24.19,320.00,6.00,0.00,30.09,M,10.00,11.00,CLR,M,M,M,M,M,M,M,M,M,M,M,M,M,M,78.80,KCXP 131955Z AUTO 32006G11KT 10SM CLR 26/04 A3009 RMK AO2,M
INS,2023-09-13 19:55,-115.6733,36.5872,955.00,87.00,50.00,28.00,120.00,3.00,0.00,29.94,M,10.00,M,M,M,M,M,M,M,M,M,M,M,M,M,M,M,M,84.43,KINS 131955Z AUTO 12003KT 10SM M 31/10 A2994 RMK AO2 SLPNO T03050099 $,M
RNO,2023-09-13 19:55,-119.7711,39.4839,1341.00,80.00,39.00,23.08,M,3.00,0.00,30.08,1013.10,10.00,M,SCT,M,M,M,11000.00,M,M,M,M,M,M,M,M,M,M,78.78,KRNO 131955Z VRB03KT 10SM SCT110 27/04 A3008 RMK AO2 SLP131 T02670039,M
LSV,2023-09-13 19:55,-115.0343,36.2362,570.00,91.80,53.00,26.89,0.00,0.00,0.00,29.85,M,10.00,M,CLR,M,M,M,M,M,M,M,M,M,M,M,M,M,M,89.33,KLSV 131955Z AUTO 00000KT 10SM CLR 33/12 A2985 RMK AO2 SLPNO T03320116 $,M
RTS,2023-09-13 19:55,-119.8764,39.6682,1539.00,75.20,37.40,25.40,50.00,7.00,0.00,30.13,M,10.00,M,CLR,M,M,M,M,M,M,M,M,M,M,M,M,M,M,75.20,KRTS 131955Z AUTO 05007KT 10SM CLR 24/03 A3013 RMK AO2,M
MEV,2023-09-13 19:55,-119.7500,38.9963,1441.42,77.00,41.00,27.53,M,4.00,0.00,30.08,M,8.00,M,CLR,M,M,M,M,M,M,M,M,M,M,M,M,M,M,77.00,KMEV 131955Z AUTO VRB04KT 8SM CLR 25/05 A3008 RMK AO2,M
BAM,2023-09-13 19:55,-116.8743,40.5990,1382.36,77.00,48.20,36.22,330.00,8.00,0.00,30.08,M,10.00,M,CLR,M,M,M,M,M,M,M,M,M,M,M,M,M,M,77.00,KBAM 131955Z AUTO 33008KT 10SM CLR 25/09 A3008 RMK AO1,M
HTH,2023-09-13 19:55,-118.6315,38.5448,1282.89,78.80,39.20,24.19,M,4.00,0.00,30.05,M,10.00,13.00,CLR,M,M,M,M,M,M,M,M,M,M,M,M,M,M,78.80,KHTH 131955Z AUTO VRB04G13KT 10SM CLR 26/04 A3005 RMK A01,M
TMT,2023-09-13 19:55,-117.1971,39.4643,1749.34,78.30,36.30,21.95,340.00,5.00,0.00,30.11,M,M,M,CLR,M,M,M,M,M,M,M,VCTS,M,M,M,M,M,M,78.30,KTMT 131955Z AUTO 34005KT VCTS CLR 26/02 A3011 RMK AO2 LTG DSNT S T02570024,M
10U,2023-09-13 19:55,-116.1876,41.9532,1637.00,75.20,39.20,27.26,340.00,7.00,0.00,30.15,M,10.00,M,CLR,M,M,M,M,M,M,M,M,M,M,M,M,M,M,75.20,K10U 131955Z AUTO 34007KT 10SM CLR 24/04 A3015 RMK AO2 LTG DSNT SE,M
EKO,2023-09-13 19:56,-115.7860,40.8242,1367.00,79.00,40.00,24.79,310.00,7.00,0.00,30.07,1013.20,10.00,M,SCT,M,M,M,9000.00,M,M,M,M,M,M,M,M,M,M,79.00,KEKO 131956Z AUTO 31007KT 260V330 10SM SCT090 26/04 A3007 RMK AO2 SLP132 T02610044,M
WMC,2023-09-13 19:56,-117.8072,40.9019,1315.00,81.00,39.00,22.33,40.00,12.00,0.00,30.08,1014.40,10.00,17.00,CLR,M,M,M,M,M,M,M,M,M,M,M,M,M,M,79.33,KWMC 131956Z AUTO 04012G17KT 10SM CLR 27/04 A3008 RMK AO2 SLP144 T02720039,M
NFL,2023-09-13 19:56,-118.7010,39.4166,1199.00,83.00,37.00,19.35,10.00,8.00,0.00,30.03,1013.90,10.00,19.00,FEW,SCT,M,M,7000.00,10000.00,M,M,M,M,M,M,M,M,M,80.53,KNFL 131956Z 01008G19KT 330V050 10SM FEW070 SCT100 28/03 A3003 RMK AO2 SLP139 CB DSNT E-SE T02830028,M
HND,2023-09-13 19:56,-115.1344,35.9729,742.79,90.00,55.00,30.61,M,6.00,0.00,29.92,1012.00,10.00,M,CLR,M,M,M,M,M,M,M,M,M,M,M,M,M,M,88.06,KHND 131956Z VRB06KT 10SM CLR 32/13 A2992 RMK AO2 LTG DSNT N AND NW SLP120 T03220128,M
LAS,2023-09-13 19:56,-115.1634,36.0719,663.00,91.00,53.00,27.57,20.00,5.00,0.00,29.90,1009.60,10.00,M,FEW,FEW,SCT,M,10000.00,14000.00,25000.00,M,M,M,M,M,M,M,M,88.55,KLAS 131956Z 02005KT 10SM FEW100 FEW140 SCT250 33/12 A2990 RMK AO2 LTG DSNT N AND W SLP096 CB DSNT N AND W-NW T03280117 $,M
05U,2023-09-13 20:10,-116.0051,39.6042,1811.23,78.80,32.00,18.18,M,5.00,0.00,30.13,M,10.00,M,CLR,M,M,M,M,M,M,M,M,M,M,M,M,M,M,78.80,K05U 132010Z AUTO VRB05KT 10SM CLR 26/M00 A3013 RMK A01,M
ELY,2023-09-13 20:10,-114.8453,39.2950,1909.00,69.00,37.00,30.84,250.00,13.00,0.00,30.14,M,10.00,M,FEW,BKN,OVC,M,5000.00,8500.00,11000.00,M,M,M,M,M,26.00,260.00,2023-09-13 19:59,69.00,KELY 132010Z AUTO 25013KT 10SM FEW050 BKN085 OVC110 21/03 A3014 RMK AO2 PK WND 26026/1959 T02060028,M
MEV,2023-09-13 20:15,-119.7500,38.9963,1441.42,78.80,41.00,25.95,M,4.00,0.00,30.07,M,10.00,M,CLR,M,M,M,M,M,M,M,M,M,M,M,M,M,M,78.80,KMEV 132015Z AUTO VRB04KT 10SM CLR 26/05 A3007 RMK AO2,M
BAM,2023-09-13 20:15,-116.8743,40.5990,1382.36,78.80,46.40,31.90,310.00,8.00,0.00,30.08,M,10.00,M,CLR,M,M,M,M,M,M,M,M,M,M,M,M,M,M,78.80,KBAM 132015Z AUTO 31008KT 10SM CLR 26/08 A3008 RMK AO1,M
HTH,2023-09-13 20:15,-118.6315,38.5448,1282.89,78.80,39.20,24.19,310.00,6.00,0.00,30.04,M,10.00,M,CLR,M,M,M,M,M,M,M,M,M,M,M,M,M,M,78.80,KHTH 132015Z AUTO 31006KT 10SM CLR 26/04 A3004 RMK A01,M
BVU,2023-09-13 20:15,-114.8611,35.9475,671.00,89.60,51.80,27.56,0.00,0.00,0.00,29.87,M,10.00,M,CLR,M,M,M,M,M,M,M,M,M,M,M,M,M,M,87.00,KBVU 132015Z AUTO 00000KT 10SM CLR 32/11 A2987 RMK AO2 LTG DSNT E AND W,M
CXP,2023-09-13 20:15,-119.7326,39.1923,1431.00,80.60,39.20,22.81,290.00,7.00,0.00,30.09,M,10.00,12.00,CLR,M,M,M,M,M,M,M,M,M,M,M,M,M,M,79.10,KCXP 132015Z AUTO 29007G12KT 270V350 10SM CLR 27/04 A3009 RMK AO2,M
RTS,2023-09-13 20:15,-119.8764,39.6682,1539.00,77.00,35.60,22.28,M,6.00,0.00,30.12,M,10.00,M,CLR,M,M,M,M,M,M,M,M,M,M,M,M,M,M,77.00,KRTS 132015Z AUTO VRB06KT 10SM CLR 25/02 A3012 RMK AO2,M
TMT,2023-09-13 20:15,-117.1971,39.4643,1749.34,77.70,36.30,22.39,330.00,9.00,0.00,30.10,M,M,M,SCT,M,M,M,11000.00,M,M,M,M,M,M,M,M,M,M,77.70,KTMT 132015Z AUTO 33009KT SCT110 25/02 A3010 RMK AO2 LTG DSNT SE AND S T02540024 PWINO,M
10U,2023-09-13 20:20,-116.1876,41.9532,1637.00,73.40,39.20,28.96,10.00,7.00,0.00,30.14,M,10.00,13.00,CLR,M,M,M,M,M,M,M,M,M,M,M,M,M,M,73.40,K10U 132020Z AUTO 01007G13KT 330V060 10SM CLR 23/04 A3014 RMK AO2,M
05U,2023-09-13 20:30,-116.0051,39.6042,1811.23,80.60,32.00,17.14,150.00,7.00,0.00,30.12,M,10.00,12.00,CLR,M,M,M,M,M,M,M,M,M,M,M,M,M,M,78.82,K05U 132030Z AUTO 15007G12KT 100V170 10SM CLR 27/00 A3012 RMK A01,M
TMT,2023-09-13 20:35,-117.1971,39.4643,1749.34,78.30,34.70,20.60,300.00,6.00,0.00,30.10,M,M,M,SCT,BKN,OVC,M,4100.00,8500.00,11000.00,M,M,M,M,M,M,M,M,78.30,KTMT 132035Z AUTO 30006KT SCT041 BKN085 OVC110 26/02 A3010 RMK AO2 LTG DSNT S T02570015 PWINO,M
BVU,2023-09-13 20:35,-114.8611,35.9475,671.00,91.40,51.80,26.05,0.00,0.00,0.00,29.86,M,10.00,M,CLR,M,M,M,M,M,M,M,VCTS,M,M,M,M,M,M,88.69,KBVU 132035Z AUTO 00000KT 10SM VCTS CLR 33/11 A2986 RMK AO2 LTG DSNT NE AND W,M
CXP,2023-09-13 20:35,-119.7326,39.1923,1431.00,80.60,39.20,22.81,330.00,8.00,0.00,30.08,M,10.00,15.00,SCT,M,M,M,10000.00,M,M,M,M,M,M,M,M,M,M,79.10,KCXP 132035Z AUTO 33008G15KT 10SM SCT100 27/04 A3008 RMK AO2,M
RTS,2023-09-13 20:35,-119.8764,39.6682,1539.00,77.00,35.60,22.28,M,5.00,0.00,30.12,M,10.00,10.00,CLR,M,M,M,M,M,M,M,M,M,M,M,M,M,M,77.00,KRTS 132035Z AUTO VRB05G10KT 10SM CLR 25/02 A3012 RMK AO2,M
MEV,2023-09-13 20:35,-119.7500,38.9963,1441.42,78.80,39.20,24.19,290.00,7.00,0.00,30.06,M,10.00,M,CLR,M,M,M,M,M,M,M,M,M,M,M,M,M,M,78.80,KMEV 132035Z AUTO 29007KT 10SM CLR 26/04 A3006 RMK AO2,M
BAM,2023-09-13 20:35,-116.8743,40.5990,1382.36,78.80,44.60,29.79,330.00,10.00,0.00,30.07,M,10.00,M,CLR,M,M,M,M,M,M,M,M,M,M,M,M,M,M,78.80,KBAM 132035Z AUTO 33010KT 10SM CLR 26/07 A3007 RMK AO1,M
HTH,2023-09-13 20:35,-118.6315,38.5448,1282.89,80.60,39.20,22.81,M,6.00,0.00,30.03,M,10.00,M,CLR,M,M,M,M,M,M,M,M,M,M,M,M,M,M,79.10,KHTH 132035Z AUTO VRB06KT 10SM CLR 27/04 A3003 RMK A01,M
10U,2023-09-13 20:40,-116.1876,41.9532,1637.00,73.40,39.20,28.96,0.00,0.00,0.00,30.13,M,10.00,11.00,CLR,M,M,M,M,M,M,M,M,M,M,M,M,M,M,73.40,K10U 132040Z AUTO 00000G11KT 10SM CLR 23/04 A3013 RMK AO2,M
05U,2023-09-13 20:50,-116.0051,39.6042,1811.23,77.00,33.80,20.74,130.00,9.00,0.00,30.12,M,9.00,19.00,FEW,FEW,M,M,10000.00,12000.00,M,M,M,M,M,M,M,M,M,77.00,K05U 132050Z AUTO 13009G19KT 9SM FEW100 FEW120 25/01 A3012 RMK A01,M
DRA,2023-09-13 20:53,-116.0278,36.6206,1009.00,90.00,45.00,21.10,240.00,9.00,0.00,29.92,1008.60,10.00,16.00,CLR,M,M,M,M,M,M,M,M,M,M,M,M,M,M,86.45,KDRA 132053Z AUTO 24009G16KT 10SM CLR 32/07 A2992 RMK AO2 SLP086 T03220072 58019,M
ELY,2023-09-13 20:53,-114.8453,39.2950,1909.00,73.00,34.00,23.90,200.00,7.00,0.00,30.12,1012.30,10.00,M,CLR,M,M,M,M,M,M,M,M,M,M,M,26.00,260.00,2023-09-13 19:59,73.00,KELY 132053Z AUTO 20007KT 10SM CLR 23/01 A3012 RMK AO2 PK WND 26026/1959 LTG DSNT S SLP123 60000 T02280011 58012,M
VGT,2023-09-13 20:53,-115.1933,36.2111,667.00,91.00,54.00,28.60,310.00,4.00,0.00,29.87,1010.40,10.00,M,CLR,M,M,M,M,M,M,M,M,M,M,M,M,M,M,88.78,KVGT 132053Z 31004KT 10SM CLR 33/12 A2987 RMK AO2 LTG DSNT N AND SW SLP104 T03280122 58019,M
LOL,2023-09-13 20:53,-118.5701,40.0684,1192.43,84.00,38.00,19.49,50.00,14.00,0.00,30.01,1012.60,10.00,M,CLR,M,M,M,M,M,M,M,M,M,M,M,M,M,M,81.26,KLOL 132053Z AUTO 05014KT 10SM CLR 29/03 A3001 RMK AO2 SLP126 T02890033 58017,M
BVU,2023-09-13 20:55,-114.8611,35.9475,671.00,93.20,51.80,24.63,290.00,9.00,0.00,29.85,M,10.00,M,CLR,M,M,M,M,M,M,M,M,M,M,M,M,M,M,90.45,KBVU 132055Z AUTO 29009KT 10SM CLR 34/11 A2985 RMK AO2 LTG DSNT W,M
CXP,2023-09-13 20:55,-119.7326,39.1923,1431.00,80.60,37.40,21.25,0.00,0.00,0.00,30.07,M,10.00,10.00,SCT,M,M,M,10000.00,M,M,M,M,M,M,M,M,M,M,79.02,KCXP 132055Z AUTO 00000G10KT 10SM SCT100 27/03 A3007 RMK AO2,M
INS,2023-09-13 20:55,-115.6733,36.5872,955.00,89.00,46.20,22.79,190.00,9.00,0.00,29.91,M,10.00,17.00,CLR,M,M,M,M,M,M,M,M,M,M,M,M,M,M,85.69,KINS 132055Z AUTO 19009G17KT 10SM CLR 32/08 A2991 RMK AO2 LTG DSNT E SLPNO T03160079 57023 $,M
RNO,2023-09-13 20:55,-119.7711,39.4839,1341.00,82.00,38.00,20.79,140.00,3.00,0.00,30.06,1012.70,10.00,M,SCT,M,M,M,11000.00,M,M,M,M,M,M,M,M,M,M,79.90,KRNO 132055Z 14003KT 10SM SCT110 28/03 A3006 RMK AO2 SLP127 T02780033 58016,M
RTS,2023-09-13 20:55,-119.8764,39.6682,1539.00,77.00,35.60,22.28,70.00,9.00,0.00,30.11,M,10.00,M,CLR,M,M,M,M,M,M,M,M,M,M,M,M,M,M,77.00,KRTS 132055Z AUTO 07009KT 10SM CLR 25/02 A3011 RMK AO2,M
MEV,2023-09-13 20:55,-119.7500,38.9963,1441.42,80.60,39.20,22.81,50.00,6.00,0.00,30.06,M,9.00,M,CLR,M,M,M,M,M,M,M,M,M,M,M,M,M,M,79.10,KMEV 132055Z AUTO 05006KT 9SM CLR 27/04 A3006 RMK AO2,M
HTH,2023-09-13 20:55,-118.6315,38.5448,1282.89,80.60,39.20,22.81,320.00,9.00,0.00,30.03,M,10.00,M,CLR,M,M,M,M,M,M,M,M,M,M,M,M,M,M,79.10,KHTH 132055Z AUTO 32009KT 10SM CLR 27/04 A3003 RMK A01,M
BAM,2023-09-13 20:55,-116.8743,40.5990,1382.36,80.60,44.60,28.08,330.00,11.00,0.00,30.06,M,10.00,14.00,CLR,M,M,M,M,M,M,M,M,M,M,M,M,M,M,79.42,KBAM 132055Z AUTO 33011G14KT 10SM CLR 27/07 A3006 RMK AO1,M
TMT,2023-09-13 20:55,-117.1971,39.4643,1749.34,76.00,35.80,23.22,40.00,4.00,0.00,30.10,M,M,M,SCT,SCT,OVC,M,3800.00,6000.00,11000.00,M,M,M,M,M,M,M,M,76.00,KTMT 132055Z AUTO 04004KT SCT038 SCT060 OVC110 24/02 A3010 RMK AO2 LTG DSNT SE AND S T02440021 PWINO,M
10U,2023-09-13 20:55,-116.1876,41.9532,1637.00,73.40,39.20,28.96,30.00,10.00,0.00,30.12,M,10.00,M,CLR,M,M,M,M,M,M,M,M,M,M,M,M,M,M,73.40,K10U 132055Z AUTO 03010KT 10SM CLR 23/04 A3012 RMK AO2 LTG DSNT SE,M
LSV,2023-09-13 20:55,-115.0343,36.2362,570.00,93.20,53.20,25.93,170.00,5.00,0.00,29.82,M,10.00,M,CLR,M,M,M,M,M,M,M,M,M,M,M,M,M,M,90.77,KLSV 132055Z AUTO 17005KT 10SM CLR 34/12 A2982 RMK AO2 LTG DSNT SW SLPNO T03400118 57021 $,M
EKO,2023-09-13 20:56,-115.7860,40.8242,1367.00,83.00,34.00,17.18,M,5.00,0.00,30.05,1012.30,10.00,M,CLR,M,M,M,M,M,M,M,M,M,M,M,M,M,M,80.45,KEKO 132056Z AUTO VRB05KT 10SM CLR 28/01 A3005 RMK AO2 SLP123 T02830011 56020,M
WMC,2023-09-13 20:56,-117.8072,40.9019,1315.00,81.00,38.00,21.48,M,6.00,0.00,30.06,1014.20,10.00,M,FEW,M,M,M,12000.00,M,M,M,M,M,M,M,M,M,M,79.28,KWMC 132056Z AUTO VRB06KT 10SM FEW120 27/03 A3006 RMK AO2 SLP142 T02720033 58013,M
NFL,2023-09-13 20:56,-118.7010,39.4166,1199.00,86.00,37.00,17.57,10.00,10.00,0.00,30.01,1013.30,10.00,M,FEW,SCT,M,M,7000.00,10000.00,M,M,M,M,M,M,M,M,M,82.72,KNFL 132056Z 01010KT 10SM FEW070 SCT100 30/03 A3001 RMK AO2 SLP133 CB DSNT E-SE T03000028 58015,M
HND,2023-09-13 20:56,-115.1344,35.9729,742.79,90.00,55.00,30.61,M,5.00,0.00,29.90,1011.20,10.00,M,CLR,M,M,M,M,M,M,M,M,M,M,M,M,M,M,88.06,KHND 132056Z VRB05KT 10SM CLR 32/13 A2990 RMK AO2 LTG DSNT W SLP112 T03220128 58023,M
LAS,2023-09-13 20:56,-115.1634,36.0719,663.00,89.00,53.00,29.36,0.00,0.00,0.00,29.87,1008.70,10.00,M,SCT,BKN,M,M,10000.00,25000.00,M,M,M,M,M,M,M,M,M,86.68,KLAS 132056Z 00000KT 10SM SCT100 BKN250 32/12 A2987 RMK AO2 LTG DSNT SW SLP087 CB DSNT N AND SW-W T03170117 58022 $,M
05U,2023-09-13 21:10,-116.0051,39.6042,1811.23,78.80,32.00,18.18,170.00,11.00,0.00,30.12,M,10.00,M,FEW,M,M,M,12000.00,M,M,M,M,M,M,M,M,M,M,78.80,K05U 132110Z AUTO 17011KT 10SM FEW120 26/00 A3012 RMK A01,M
BVU,2023-09-13 21:15,-114.8611,35.9475,671.00,91.40,51.80,26.05,0.00,0.00,0.00,29.84,M,10.00,M,CLR,M,M,M,M,M,M,M,M,M,M,M,M,M,M,88.69,KBVU 132115Z AUTO 00000KT 10SM CLR 33/11 A2984 RMK AO2 LTG DSNT N AND W,M
CXP,2023-09-13 21:15,-119.7326,39.1923,1431.00,82.40,39.20,21.51,330.00,8.00,0.00,30.07,M,10.00,M,CLR,M,M,M,M,M,M,M,M,M,M,M,M,M,M,80.21,KCXP 132115Z AUTO 33008KT 10SM CLR 28/04 A3007 RMK AO2,M
RTS,2023-09-13 21:15,-119.8764,39.6682,1539.00,77.00,33.80,20.74,M,5.00,0.00,30.11,M,10.00,11.00,FEW,M,M,M,8500.00,M,M,M,M,M,M,M,M,M,M,77.00,KRTS 132115Z AUTO VRB05G11KT 10SM FEW085 25/01 A3011 RMK AO2,M
MEV,2023-09-13 21:15,-119.7500,38.9963,1441.42,80.60,39.20,22.81,0.00,0.00,0.00,30.05,M,9.00,M,CLR,M,M,M,M,M,M,M,M,M,M,M,M,M,M,79.10,KMEV 132115Z AUTO 00000KT 9SM CLR 27/04 A3005 RMK AO2,M
HTH,2023-09-13 21:15,-118.6315,38.5448,1282.89,82.40,39.20,21.51,320.00,9.00,0.00,30.02,M,10.00,M,CLR,M,M,M,M,M,M,M,M,M,M,M,M,M,M,80.21,KHTH 132115Z AUTO 32009KT 10SM CLR 28/04 A3002 RMK A01,M
BAM,2023-09-13 21:15,-116.8743,40.5990,1382.36,80.60,42.80,26.22,340.00,10.00,0.00,30.06,M,10.00,M,CLR,M,M,M,M,M,M,M,M,M,M,M,M,M,M,79.30,KBAM 132115Z AUTO 34010KT 10SM CLR 27/06 A3006 RMK AO1,M
TMT,2023-09-13 21:15,-117.1971,39.4643,1749.34,74.50,37.00,25.60,60.00,7.00,0.00,30.10,M,M,M,OVC,M,M,M,10000.00,M,M,M,M,M,M,M,M,M,M,74.50,KTMT 132115Z AUTO 06007KT OVC100 24/03 A3010 RMK AO2 LTG DSNT E THRU S T02360027 PWINO,M
10U,2023-09-13 21:20,-116.1876,41.9532,1637.00,75.20,39.20,27.26,330.00,8.00,0.00,30.12,M,10.00,M,FEW,M,M,M,8500.00,M,M,M,M,M,M,M,M,M,M,75.20,K10U 132120Z AUTO 33008KT 10SM FEW085 24/04 A3012 RMK AO2,M
05U,2023-09-13 21:30,-116.0051,39.6042,1811.23,80.60,32.00,17.14,160.00,8.00,0.00,30.10,M,10.00,M,CLR,M,M,M,M,M,M,M,M,M,M,M,M,M,M,78.82,K05U 132130Z AUTO 16008KT 10SM CLR 27/00 A3010 RMK A01,M
BVU,2023-09-13 21:35,-114.8611,35.9475,671.00,91.40,51.80,26.05,70.00,4.00,0.00,29.83,M,10.00,M,CLR,M,M,M,M,M,M,M,M,M,M,M,M,M,M,88.69,KBVU 132135Z AUTO 07004KT 10SM CLR 33/11 A2983 RMK AO2 LTG DSNT NE,M
CXP,2023-09-13 21:35,-119.7326,39.1923,1431.00,82.40,39.20,21.51,320.00,9.00,0.00,30.06,M,10.00,M,CLR,M,M,M,M,M,M,M,M,M,M,M,M,M,M,80.21,KCXP 132135Z AUTO 32009KT 10SM CLR 28/04 A3006 RMK AO2,M
RTS,2023-09-13 21:35,-119.8764,39.6682,1539.00,78.80,33.80,19.55,70.00,8.00,0.00,30.10,M,10.00,M,CLR,M,M,M,M,M,M,M,M,M,M,M,M,M,M,78.80,KRTS 132135Z AUTO 07008KT 10SM CLR 26/01 A3010 RMK AO2,M
MEV,2023-09-13 21:35,-119.7500,38.9963,1441.42,80.60,37.40,21.25,300.00,7.00,0.00,30.05,M,10.00,M,CLR,M,M,M,M,M,M,M,M,M,M,M,M,M,M,79.02,KMEV 132135Z AUTO 30007KT 10SM CLR 27/03 A3005 RMK AO2,M
HTH,2023-09-13 21:35,-118.6315,38.5448,1282.89,82.40,37.40,20.04,320.00,11.00,0.00,30.01,M,10.00,M,CLR,M,M,M,M,M,M,M,M,M,M,M,M,M,M,80.14,KHTH 132135Z AUTO 32011KT 10SM CLR 28/03 A3001 RMK A01,M
BAM,2023-09-13 21:35,-116.8743,40.5990,1382.36,80.60,42.80,26.22,320.00,10.00,0.00,30.05,M,10.00,14.00,CLR,M,M,M,M,M,M,M,M,M,M,M,M,M,M,79.30,KBAM 132135Z AUTO 32010G14KT 10SM CLR 27/06 A3005 RMK AO1,M
TMT,2023-09-13 21:35,-117.1971,39.4643,1749.34,73.80,36.00,25.19,0.00,0.00,0.00,30.10,M,M,M,OVC,M,M,M,10000.00,M,M,M,M,M,M,M,M,M,M,73.80,KTMT 132135Z AUTO 00000KT OVC100 23/02 A3010 RMK AO2 T02320023 PWINO,M
10U,2023-09-13 21:35,-116.1876,41.9532,1637.00,75.20,39.20,27.26,360.00,7.00,0.00,30.11,M,10.00,18.00,SCT,M,M,M,9500.00,M,M,M,M,M,M,M,M,M,M,75.20,K10U 132135Z AUTO 36007G18KT 10SM SCT095 24/04 A3011 RMK AO2,M
05U,2023-09-13 21:50,-116.0051,39.6042,1811.23,80.60,32.00,17.14,160.00,6.00,0.00,30.10,M,10.00,12.00,CLR,M,M,M,M,M,M,M,M,M,M,M,M,M,M,78.82,K05U 132150Z AUTO 16006G12KT 10SM CLR 27/M00 A3010 RMK A01,M
DRA,2023-09-13 21:53,-116.0278,36.6206,1009.00,90.00,46.00,21.91,M,M,0.00,29.90,1007.80,10.00,M,FEW,M,M,M,9500.00,M,M,M,M,M,M,M,M,M,M,86.55,KDRA 132153Z AUTO 10SM FEW095 32/08 A2990 RMK AO2 SLP078 T03220078,M
ELY,2023-09-13 21:53,-114.8453,39.2950,1909.00,75.00,41.00,29.43,160.00,13.00,0.00,30.10,1011.10,10.00,M,FEW,M,M,M,12000.00,M,M,M,M,M,M,M,M,M,M,75.00,KELY 132153Z AUTO 16013KT 10SM FEW120 24/05 A3010 RMK AO2 SLP111 T02390050,M
VGT,2023-09-13 21:53,-115.1933,36.2111,667.00,92.00,54.00,27.72,200.00,8.00,0.00,29.84,1009.50,10.00,M,CLR,M,M,M,M,M,M,M,M,M,M,M,M,M,M,89.76,KVGT 132153Z 20008KT 10SM CLR 33/12 A2984 RMK AO2 LTG DSNT N SLP095 T03330122,M
LOL,2023-09-13 21:53,-118.5701,40.0684,1192.43,85.00,37.00,18.14,60.00,11.00,0.00,29.99,1012.00,10.00,17.00,CLR,M,M,M,M,M,M,M,M,M,M,M,M,M,M,81.96,KLOL 132153Z AUTO 06011G17KT 10SM CLR 29/03 A2999 RMK AO2 SLP120 T02940028,M
P68,2023-09-13 21:53,-116.0056,39.6014,1993.00,79.00,31.00,17.35,350.00,11.00,0.00,30.07,1010.40,M,15.00,M,M,M,M,M,M,M,M,M,M,M,M,M,M,M,79.00,KP68 132153Z AUTO 35011G15KT 26/M01 A3007 RMK AO1 SLP104 T02611006,M
BVU,2023-09-13 21:55,-114.8611,35.9475,671.00,91.40,51.80,26.05,M,5.00,0.00,29.83,M,10.00,M,CLR,M,M,M,M,M,M,M,M,M,M,M,M,M,M,88.69,KBVU 132155Z AUTO VRB05KT 10SM CLR 33/11 A2983 RMK AO2,M
CXP,2023-09-13 21:55,-119.7326,39.1923,1431.00,82.40,37.40,20.04,290.00,9.00,0.00,30.05,M,10.00,M,CLR,M,M,M,M,M,M,M,M,M,M,M,M,M,M,80.14,KCXP 132155Z AUTO 29009KT 10SM CLR 28/03 A3005 RMK AO2,M
INS,2023-09-13 21:55,-115.6733,36.5872,955.00,89.00,44.00,20.96,200.00,6.00,0.00,29.89,1007.50,10.00,M,CLR,M,M,M,M,M,M,M,M,M,M,M,M,M,M,85.50,KINS 132155Z AUTO 20006KT 10SM CLR 32/07 A2989 RMK AO2 SLP075 T03160066 $,M
RNO,2023-09-13 21:55,-119.7711,39.4839,1341.00,84.00,36.00,18.01,M,4.00,0.00,30.04,1011.70,10.00,M,SCT,M,M,M,11000.00,M,M,M,M,M,M,M,M,M,M,81.20,KRNO 132155Z VRB04KT 10SM SCT110 29/02 A3004 RMK AO2 SLP117 T02890022,M
RTS,2023-09-13 21:55,-119.8764,39.6682,1539.00,78.80,33.80,19.55,110.00,7.00,0.00,30.09,M,10.00,M,CLR,M,M,M,M,M,M,M,M,M,M,M,M,M,M,78.80,KRTS 132155Z AUTO 11007KT 10SM CLR 26/01 A3009 RMK AO2,M
MEV,2023-09-13 21:55,-119.7500,38.9963,1441.42,82.40,37.40,20.04,320.00,7.00,0.00,30.04,M,9.00,M,CLR,M,M,M,M,M,M,M,M,M,M,M,M,M,M,80.14,KMEV 132155Z AUTO 32007KT 9SM CLR 28/03 A3004 RMK AO2,M
BAM,2023-09-13 21:55,-116.8743,40.5990,1382.36,80.60,42.80,26.22,340.00,11.00,0.00,30.05,M,10.00,14.00,CLR,M,M,M,M,M,M,M,M,M,M,M,M,M,M,79.30,KBAM 132155Z AUTO 34011G14KT 10SM CLR 27/06 A3005 RMK AO1,M
HTH,2023-09-13 21:55,-118.6315,38.5448,1282.89,82.40,35.60,18.67,320.00,11.00,0.00,30.00,M,10.00,M,CLR,M,M,M,M,M,M,M,M,M,M,M,M,M,M,80.08,KHTH 132155Z AUTO 32011KT 10SM CLR 28/02 A3000 RMK A01,M
TMT,2023-09-13 21:55,-117.1971,39.4643,1749.34,68.00,43.00,40.31,170.00,7.00,0.01,30.12,M,M,M,OVC,M,M,M,9000.00,M,M,M,M,M,M,M,M,M,M,68.00,KTMT 132155Z AUTO 17007KT OVC090 20/06 A3012 RMK AO2 P0001 T01990061 PWINO,M
LSV,2023-09-13 21:55,-115.0343,36.2362,570.00,96.40,52.50,22.90,100.00,5.00,0.00,29.79,1006.20,10.00,M,CLR,M,M,M,M,M,M,M,M,M,M,M,M,M,M,93.88,KLSV 132155Z AUTO 10005KT 10SM CLR 36/11 A2979 RMK AO2 SLP062 T03580114 $,M
EKO,2023-09-13 21:56,-115.7860,40.8242,1367.00,81.00,37.00,20.65,0.00,0.00,0.00,30.03,1012.40,10.00,M,BKN,M,M,M,10000.00,M,M,M,M,M,M,M,M,M,M,79.24,KEKO 132156Z AUTO 00000KT 10SM BKN100 27/03 A3003 RMK AO2 SLP124 T02720028,M
WMC,2023-09-13 21:56,-117.8072,40.9019,1315.00,84.00,39.00,20.27,360.00,7.00,0.00,30.04,1012.90,10.00,M,CLR,M,M,M,M,M,M,M,M,M,M,M,M,M,M,81.29,KWMC 132156Z AUTO 36007KT 10SM CLR 29/04 A3004 RMK AO2 SLP129 T02890039,M
HND,2023-09-13 21:56,-115.1344,35.9729,742.79,89.00,55.00,31.59,280.00,13.00,0.00,29.88,1010.50,10.00,M,CLR,M,M,M,M,M,M,M,M,M,M,M,M,M,M,87.12,KHND 132156Z 28013KT 10SM CLR 32/13 A2988 RMK AO2 SLP105 T03170128,M
LAS,2023-09-13 21:56,-115.1634,36.0719,663.00,90.00,53.00,28.45,340.00,5.00,0.00,29.85,1008.10,10.00,M,SCT,SCT,BKN,M,10000.00,18000.00,22000.00,M,M,M,M,M,M,M,M,87.60,KLAS 132156Z 34005KT 10SM SCT100 SCT180 BKN220 32/12 A2985 RMK AO2 SLP081 CB DSNT ALQDS T03220117,M
NFL,2023-09-13 21:56,-118.7010,39.4166,1199.00,87.00,35.00,15.72,330.00,7.00,0.00,30.00,1012.90,10.00,M,FEW,SCT,M,M,7000.00,10000.00,M,M,M,M,M,M,M,M,M,83.47,KNFL 132156Z 33007KT 10SM FEW070 SCT100 31/02 A3000 RMK AO2 SLP129 ACC E-SE T03060017,M
10U,2023-09-13 22:00,-116.1876,41.9532,1637.00,75.20,39.20,27.26,10.00,7.00,0.00,30.11,M,10.00,13.00,SCT,BKN,M,M,8000.00,10000.00,M,M,M,M,M,M,M,M,M,75.20,K10U 132200Z AUTO 01007G13KT 340V040 10SM SCT080 BKN100 24/04 A3011 RMK AO2 LTG DSNT SE,M
05U,2023-09-13 22:10,-116.0051,39.6042,1811.23,78.80,32.00,18.18,140.00,6.00,0.00,30.10,M,10.00,11.00,CLR,M,M,M,M,M,M,M,M,M,M,M,M,M,M,78.80,K05U 132210Z AUTO 14006G11KT 10SM CLR 26/M00 A3010 RMK A01,M
BVU,2023-09-13 22:15,-114.8611,35.9475,671.00,91.40,51.80,26.05,310.00,4.00,0.00,29.82,M,10.00,M,FEW,M,M,M,10000.00,M,M,M,M,M,M,M,M,M,M,88.69,KBVU 132215Z AUTO 31004KT 10SM FEW100 33/11 A2982 RMK AO2,M
CXP,2023-09-13 22:15,-119.7326,39.1923,1431.00,80.60,37.40,21.25,300.00,10.00,0.00,30.05,M,10.00,19.00,CLR,M,M,M,M,M,M,M,M,M,M,M,M,M,M,79.02,KCXP 132215Z AUTO 30010G19KT 10SM CLR 27/03 A3005 RMK AO2,M
RTS,2023-09-13 22:15,-119.8764,39.6682,1539.00,78.80,33.80,19.55,M,4.00,0.00,30.09,M,10.00,11.00,CLR,M,M,M,M,M,M,M,M,M,M,M,M,M,M,78.80,KRTS 132215Z AUTO VRB04G11KT 10SM CLR 26/01 A3009 RMK AO2,M
MEV,2023-09-13 22:15,-119.7500,38.9963,1441.42,82.40,37.40,20.04,270.00,6.00,0.00,30.03,M,10.00,M,CLR,M,M,M,M,M,M,M,M,M,M,M,M,M,M,80.14,KMEV 132215Z AUTO 27006KT 10SM CLR 28/03 A3003 RMK AO2,M
BAM,2023-09-13 22:15,-116.8743,40.5990,1382.36,80.60,42.80,26.22,320.00,12.00,0.00,30.04,M,10.00,M,CLR,M,M,M,M,M,M,M,M,M,M,M,M,M,M,79.30,KBAM 132215Z AUTO 32012KT 10SM CLR 27/06 A3004 RMK AO1,M
HTH,2023-09-13 22:15,-118.6315,38.5448,1282.89,84.20,35.60,17.61,310.00,12.00,0.00,29.99,M,10.00,M,CLR,M,M,M,M,M,M,M,M,M,M,M,M,M,M,81.34,KHTH 132215Z AUTO 31012KT 10SM CLR 29/02 A2999 RMK A01,M
TMT,2023-09-13 22:15,-117.1971,39.4643,1749.34,69.00,41.00,36.06,60.00,8.00,0.01,30.12,M,M,23.00,SCT,BKN,OVC,M,1600.00,4900.00,9000.00,M,M,M,M,M,M,M,M,69.00,KTMT 132215Z AUTO 06008G23KT SCT016 BKN049 OVC090 21/05 A3012 RMK AO2 P0001 T02060050 PWINO,M
10U,2023-09-13 22:20,-116.1876,41.9532,1637.00,77.00,37.40,23.93,360.00,10.00,0.00,30.10,M,10.00,M,SCT,M,M,M,8000.00,M,M,M,M,M,M,M,M,M,M,77.00,K10U 132220Z AUTO 36010KT 10SM SCT080 25/03 A3010 RMK AO2,M
05U,2023-09-13 22:30,-116.0051,39.6042,1811.23,77.00,32.00,19.30,140.00,10.00,0.00,30.10,M,10.00,18.00,BKN,M,M,M,11000.00,M,M,M,M,M,M,M,M,M,M,77.00,K05U 132230Z AUTO 14010G18KT 10SM BKN110 25/00 A3010 RMK A01,M
BVU,2023-09-13 22:35,-114.8611,35.9475,671.00,91.40,50.00,24.37,0.00,0.00,0.00,29.82,M,10.00,M,FEW,M,M,M,10000.00,M,M,M,M,M,M,M,M,M,M,88.36,KBVU 132235Z AUTO 00000KT 10SM FEW100 33/10 A2982 RMK AO2 LTG DSNT NE AND SW,M
CXP,2023-09-13 22:35,-119.7326,39.1923,1431.00,82.40,37.40,20.04,M,M,0.00,M,M,10.00,M,FEW,M,M,M,9500.00,M,M,M,M,M,M,M,M,M,M,80.14,KCXP 132235Z AUTO 10SM FEW095 28/03 RMK AO2,M
RTS,2023-09-13 22:35,-119.8764,39.6682,1539.00,78.80,33.80,19.55,60.00,9.00,0.00,30.09,M,10.00,M,CLR,M,M,M,M,M,M,M,M,M,M,M,M,M,M,78.80,KRTS 132235Z AUTO 06009KT 10SM CLR 26/01 A3009 RMK AO2,M
MEV,2023-09-13 22:35,-119.7500,38.9963,1441.42,82.40,37.40,20.04,300.00,7.00,0.00,30.03,M,10.00,M,CLR,M,M,M,M,M,M,M,M,M,M,M,M,M,M,80.14,KMEV 132235Z AUTO 30007KT 270V330 10SM CLR 28/03 A3003 RMK AO2,M
BAM,2023-09-13 22:35,-116.8743,40.5990,1382.36,80.60,41.00,24.46,350.00,11.00,0.00,30.04,M,10.00,M,CLR,M,M,M,M,M,M,M,M,M,M,M,M,M,M,79.20,KBAM 132235Z AUTO 35011KT 10SM CLR 27/05 A3004 RMK AO1,M
HTH,2023-09-13 22:35,-118.6315,38.5448,1282.89,84.20,35.60,17.61,340.00,10.00,0.00,29.99,M,10.00,16.00,CLR,M,M,M,M,M,M,M,M,M,M,M,M,M,M,81.34,KHTH 132235Z AUTO 34010G16KT 10SM CLR 29/02 A2999 RMK A01,M
TMT,2023-09-13 22:35,-117.1971,39.4643,1749.34,69.80,45.00,40.91,70.00,12.00,0.01,30.11,M,M,16.00,SCT,SCT,SCT,M,2800.00,4100.00,4900.00,M,M,M,M,M,M,M,M,69.80,KTMT 132235Z AUTO 07012G16KT SCT028 SCT041 SCT049 21/07 A3011 RMK AO2 P0001 T02100073 PWINO,M
10U,2023-09-13 22:35,-116.1876,41.9532,1637.00,75.20,37.40,25.40,330.00,7.00,0.00,30.10,M,10.00,15.00,FEW,M,M,M,8000.00,M,M,M,M,M,M,M,M,M,M,75.20,K10U 132235Z AUTO 33007G15KT 10SM FEW080 24/03 A3010 RMK AO2,M
CXP,2023-09-13 22:50,-119.7326,39.1923,1431.00,82.40,37.40,20.04,50.00,8.00,0.00,30.04,M,10.00,M,BKN,BKN,M,M,9500.00,12000.00,M,M,M,M,M,M,M,M,M,80.14,KCXP 132250Z AUTO 05008KT 10SM BKN095 BKN120 28/03 A3004 RMK AO2,M
05U,2023-09-13 22:50,-116.0051,39.6042,1811.23,77.00,32.00,19.30,160.00,8.00,0.00,30.10,M,10.00,M,SCT,M,M,M,11000.00,M,M,M,M,M,M,M,M,M,M,77.00,K05U 132250Z AUTO 16008KT 10SM SCT110 25/00 A3010 RMK A01,M
P68,2023-09-13 22:53,-116.0056,39.6014,1993.00,76.00,32.00,19.95,360.00,9.00,0.00,30.07,1011.20,M,M,M,M,M,M,M,M,M,M,M,M,M,M,M,M,M,76.00,KP68 132253Z AUTO 36009KT 24/00 A3007 RMK AO1 SLP112 T02440000,M
DRA,2023-09-13 22:53,-116.0278,36.6206,1009.00,91.00,46.00,21.24,240.00,9.00,0.00,29.88,1007.20,10.00,21.00,BKN,M,M,M,9500.00,M,M,M,M,M,M,M,M,M,M,87.45,KDRA 132253Z AUTO 24009G21KT 200V260 10SM BKN095 33/08 A2988 RMK AO2 SLP072 T03280078,M
ELY,2023-09-13 22:53,-114.8453,39.2950,1909.00,73.00,39.00,29.12,160.00,9.00,0.00,30.09,1011.20,10.00,17.00,CLR,M,M,M,M,M,M,M,M,M,M,M,M,M,M,73.00,KELY 132253Z AUTO 16009G17KT 10SM CLR 23/04 A3009 RMK AO2 SLP112 T02280039,M
VGT,2023-09-13 22:53,-115.1933,36.2111,667.00,92.00,53.00,26.72,170.00,3.00,0.00,29.82,1008.80,10.00,M,CLR,M,M,M,M,M,M,M,M,M,M,M,M,M,M,89.53,KVGT 132253Z 17003KT 10SM CLR 33/12 A2982 RMK AO2 SLP088 T03330117,M
LOL,2023-09-13 22:53,-118.5701,40.0684,1192.43,85.00,36.00,17.44,50.00,8.00,0.00,29.99,1012.20,10.00,15.00,CLR,M,M,M,M,M,M,M,M,M,M,M,M,M,M,81.93,KLOL 132253Z AUTO 05008G15KT 10SM CLR 29/02 A2999 RMK AO2 SLP122 T02940022,M
BVU,2023-09-13 22:55,-114.8611,35.9475,671.00,91.40,50.00,24.37,0.00,0.00,0.00,29.82,M,10.00,M,CLR,M,M,M,M,M,M,M,M,M,M,M,M,M,M,88.36,KBVU 132255Z AUTO 00000KT 10SM CLR 33/10 A2982 RMK AO2,M
RNO,2023-09-13 22:55,-119.7711,39.4839,1341.00,83.00,36.00,18.60,340.00,4.00,0.00,30.03,1011.60,10.00,M,FEW,M,M,M,11000.00,M,M,M,M,M,M,M,M,M,M,80.50,KRNO 132255Z 34004KT 10SM FEW110 28/02 A3003 RMK AO2 SLP116 T02830022,M
MEV,2023-09-13 22:55,-119.7500,38.9963,1441.42,80.60,37.40,21.25,260.00,9.00,0.00,30.03,M,10.00,14.00,FEW,SCT,M,M,9500.00,11000.00,M,M,M,M,M,M,M,M,M,79.02,KMEV 132255Z AUTO 26009G14KT 10SM FEW095 SCT110 27/03 A3003 RMK AO2,M
BAM,2023-09-13 22:55,-116.8743,40.5990,1382.36,80.60,42.80,26.22,330.00,10.00,0.00,30.04,M,10.00,15.00,CLR,M,M,M,M,M,M,M,M,M,M,M,M,M,M,79.30,KBAM 132255Z AUTO 33010G15KT 290V350 10SM CLR 27/06 A3004 RMK AO1,M
HTH,2023-09-13 22:55,-118.6315,38.5448,1282.89,84.20,37.40,18.91,320.00,13.00,0.00,29.99,M,10.00,M,CLR,M,M,M,M,M,M,M,M,M,M,M,M,M,M,81.38,KHTH 132255Z AUTO 32013KT 10SM CLR 29/03 A2999 RMK A01,M
10U,2023-09-13 22:55,-116.1876,41.9532,1637.00,75.20,37.40,25.40,310.00,8.00,0.00,30.10,M,10.00,22.00,SCT,M,M,M,9000.00,M,M,M,M,M,M,M,M,M,M,75.20,K10U 132255Z AUTO 31008G22KT 10SM SCT090 24/03 A3010 RMK AO2,M
RTS,2023-09-13 22:55,-119.8764,39.6682,1539.00,78.80,33.80,19.55,80.00,7.00,0.00,30.08,M,10.00,M,CLR,M,M,M,M,M,M,M,M,M,M,M,M,M,M,78.80,KRTS 132255Z AUTO 08007KT 10SM CLR 26/01 A3008 RMK AO2,M
TMT,2023-09-13 22:55,-117.1971,39.4643,1749.34,72.00,43.00,35.16,90.00,10.00,0.01,30.11,M,M,M,BKN,M,M,M,11000.00,M,M,M,M,M,M,M,M,M,M,72.00,KTMT 132255Z AUTO 09010KT BKN110 22/06 A3011 RMK AO2 P0001 T02230062 PWINO,M
INS,2023-09-13 22:55,-115.6733,36.5872,955.00,89.80,43.30,19.90,60.00,7.00,0.00,29.88,1007.10,10.00,M,FEW,OVC,M,M,10000.00,16000.00,M,M,VCTS,M,M,M,M,M,M,86.14,KINS 132255Z AUTO 06007KT 10SM VCTS FEW100 OVC160 32/06 A2988 RMK AO2 SLP071 T03210063 $,M
LSV,2023-09-13 22:55,-115.0343,36.2362,570.00,97.00,51.80,21.91,210.00,7.00,0.00,29.77,1005.60,10.00,M,CLR,M,M,M,M,M,M,M,M,M,M,M,M,M,M,94.33,KLSV 132255Z AUTO 21007KT 10SM CLR 36/11 A2977 RMK AO2 SLP056 T03610110 $,M
EKO,2023-09-13 22:56,-115.7860,40.8242,1367.00,82.00,35.00,18.47,340.00,9.00,0.00,30.03,1012.20,10.00,M,BKN,M,M,M,11000.00,M,M,M,M,M,M,M,M,M,M,79.80,KEKO 132256Z AUTO 34009KT 10SM BKN110 28/02 A3003 RMK AO2 SLP122 T02780017,M
WMC,2023-09-13 22:56,-117.8072,40.9019,1315.00,84.00,37.00,18.74,320.00,7.00,0.00,30.03,1012.60,10.00,M,CLR,M,M,M,M,M,M,M,M,M,M,M,M,M,M,81.23,KWMC 132256Z AUTO 32007KT 10SM CLR 29/03 A3003 RMK AO2 SLP126 T02890028,M
NFL,2023-09-13 22:56,-118.7010,39.4166,1199.00,86.00,35.00,16.23,40.00,10.00,0.00,29.98,1012.40,10.00,M,FEW,SCT,M,M,7000.00,10000.00,M,M,M,M,M,M,M,M,M,82.68,KNFL 132256Z 04010KT 10SM FEW070 SCT100 30/02 A2998 RMK AO2 SLP124 ACC SE-S AND W-NW T03000017,M
HND,2023-09-13 22:56,-115.1344,35.9729,742.79,89.00,54.00,30.45,310.00,8.00,0.00,29.87,1010.20,10.00,M,CLR,M,M,M,M,M,M,M,M,M,M,M,M,M,M,86.89,KHND 132256Z 31008KT 10SM CLR 32/12 A2987 RMK AO2 SLP102 T03170122,M
LAS,2023-09-13 22:56,-115.1634,36.0719,663.00,90.00,53.00,28.45,230.00,3.00,0.00,29.83,1007.60,10.00,M,SCT,SCT,BKN,M,10000.00,18000.00,22000.00,M,M,M,M,M,M,M,M,87.60,KLAS 132256Z 23003KT 10SM SCT100 SCT180 BKN220 32/12 A2983 RMK AO2 SLP076 CB DSNT S AND NW-NE-E T03220117,M
05U,2023-09-13 23:10,-116.0051,39.6042,1811.23,75.20,33.80,22.02,160.00,9.00,0.00,30.10,M,10.00,M,SCT,M,M,M,11000.00,M,M,M,M,M,M,M,M,M,M,75.20,K05U 132310Z AUTO 16009KT 10SM SCT110 24/01 A3010 RMK A01,M
HTH,2023-09-13 23:10,-118.6315,38.5448,1282.89,82.40,37.40,20.04,310.00,15.00,0.00,29.99,M,10.00,M,CLR,M,M,M,M,M,M,M,M,M,M,M,M,M,M,80.14,KHTH 132310Z AUTO 31015KT 10SM CLR 28/03 A2999 RMK A01,M
HND,2023-09-13 23:12,-115.1344,35.9729,742.79,89.60,55.40,31.45,310.00,6.00,0.00,29.87,M,10.00,M,CLR,M,M,M,M,M,M,M,VCTS,M,M,M,M,M,M,87.78,KHND 132312Z 31006KT 10SM VCTS CLR 32/13 A2987 RMK AO2 LTG DSNT S TSB06,M
TMT,2023-09-13 23:15,-117.1971,39.4643,1749.34,69.30,43.50,39.30,110.00,8.00,0.00,30.11,M,M,M,BKN,M,M,M,11000.00,M,M,M,M,M,M,M,M,M,M,69.30,KTMT 132315Z AUTO 11008KT BKN110 21/06 A3011 RMK AO2 T02070064 PWINO,M
BVU,2023-09-13 23:15,-114.8611,35.9475,671.00,91.40,48.20,22.78,0.00,0.00,0.00,29.81,M,10.00,M,CLR,M,M,M,M,M,M,M,M,M,M,M,M,M,M,88.09,KBVU 132315Z AUTO 00000KT 10SM CLR 33/09 A2981 RMK AO2,M
CXP,2023-09-13 23:15,-119.7326,39.1923,1431.00,82.40,37.40,20.04,50.00,8.00,0.00,30.04,M,10.00,15.00,SCT,SCT,M,M,10000.00,12000.00,M,M,M,M,M,M,M,M,M,80.14,KCXP 132315Z AUTO 05008G15KT 10SM SCT100 SCT120 28/03 A3004 RMK AO2,M
RTS,2023-09-13 23:15,-119.8764,39.6682,1539.00,77.00,33.80,20.74,90.00,8.00,0.00,30.08,M,10.00,M,CLR,M,M,M,M,M,M,M,M,M,M,M,M,M,M,77.00,KRTS 132315Z AUTO 09008KT 060V120 10SM CLR 25/01 A3008 RMK AO2,M
MEV,2023-09-13 23:15,-119.7500,38.9963,1441.42,80.60,37.40,21.25,300.00,9.00,0.00,30.03,M,10.00,M,FEW,M,M,M,11000.00,M,M,M,M,M,M,M,M,M,M,79.02,KMEV 132315Z AUTO 30009KT 10SM FEW110 27/03 A3003 RMK AO2,M
BAM,2023-09-13 23:15,-116.8743,40.5990,1382.36,80.60,42.80,26.22,330.00,10.00,0.00,30.04,M,10.00,M,CLR,M,M,M,M,M,M,M,M,M,M,M,M,M,M,79.30,KBAM 132315Z AUTO 33010KT 10SM CLR 27/06 A3004 RMK AO1,M
10U,2023-09-13 23:15,-116.1876,41.9532,1637.00,75.20,35.60,23.66,320.00,10.00,0.00,30.10,M,10.00,16.00,BKN,M,M,M,8500.00,M,M,M,M,M,M,M,M,M,M,75.20,K10U 132315Z AUTO 32010G16KT 10SM BKN085 24/02 A3010 RMK AO2,M
05U,2023-09-13 23:30,-116.0051,39.6042,1811.23,75.20,33.80,22.02,M,3.00,0.00,30.11,M,10.00,M,BKN,M,M,M,10000.00,M,M,M,M,M,M,M,M,M,M,75.20,K05U 132330Z AUTO VRB03KT 10SM BKN100 24/01 A3011 RMK A01,M
BVU,2023-09-13 23:35,-114.8611,35.9475,671.00,91.40,51.80,26.05,40.00,4.00,0.00,29.81,M,10.00,M,CLR,M,M,M,M,M,M,M,M,M,M,M,M,M,M,88.69,KBVU 132335Z AUTO 04004KT 10SM CLR 33/11 A2981 RMK AO2,M
CXP,2023-09-13 23:35,-119.7326,39.1923,1431.00,82.40,35.60,18.67,0.00,0.00,0.00,30.04,M,10.00,M,FEW,M,M,M,10000.00,M,M,M,M,M,M,M,M,M,M,80.08,KCXP 132335Z AUTO 00000KT 10SM FEW100 28/02 A3004 RMK AO2,M
RTS,2023-09-13 23:35,-119.8764,39.6682,1539.00,78.80,33.80,19.55,40.00,7.00,0.00,30.08,M,10.00,14.00,CLR,M,M,M,M,M,M,M,M,M,M,M,M,M,M,78.80,KRTS 132335Z AUTO 04007G14KT 10SM CLR 26/01 A3008 RMK AO2,M
MEV,2023-09-13 23:35,-119.7500,38.9963,1441.42,82.40,35.60,18.67,300.00,7.00,0.00,30.03,M,10.00,M,CLR,M,M,M,M,M,M,M,M,M,M,M,M,M,M,80.08,KMEV 132335Z AUTO 30007KT 10SM CLR 28/02 A3003 RMK AO2,M
HTH,2023-09-13 23:35,-118.6315,38.5448,1282.89,84.20,37.40,18.91,320.00,14.00,0.00,29.99,M,10.00,M,SCT,M,M,M,12000.00,M,M,M,M,M,M,M,M,M,M,81.38,KHTH 132335Z AUTO 32014KT 10SM SCT120 29/03 A2999 RMK A01,M
BAM,2023-09-13 23:35,-116.8743,40.5990,1382.36,80.60,42.80,26.22,320.00,13.00,0.00,30.04,M,10.00,17.00,CLR,M,M,M,M,M,M,M,M,M,M,M,M,M,M,79.30,KBAM 132335Z AUTO 32013G17KT 10SM CLR 27/06 A3004 RMK AO1,M
TMT,2023-09-13 23:35,-117.1971,39.4643,1749.34,70.70,41.40,34.56,130.00,4.00,0.00,30.12,M,M,M,SCT,M,M,M,11000.00,M,M,M,M,M,M,M,M,M,M,70.70,KTMT 132335Z AUTO 13004KT SCT110 22/05 A3012 RMK AO2 LTG DSNT E T02150052 PWINO,M
10U,2023-09-13 23:40,-116.1876,41.9532,1637.00,73.40,35.60,25.13,330.00,7.00,0.00,30.10,M,10.00,14.00,CLR,M,M,M,M,M,M,M,M,M,M,M,M,M,M,73.40,K10U 132340Z AUTO 33007G14KT 10SM CLR 23/02 A3010 RMK AO2,M
05U,2023-09-13 23:50,-116.0051,39.6042,1811.23,69.80,39.20,32.72,10.00,11.00,0.00,30.11,M,10.00,24.00,BKN,M,M,M,10000.00,M,M,M,M,M,M,M,M,M,M,69.80,K05U 132350Z AUTO 01011G24KT 10SM BKN100 21/04 A3011 RMK A01,M
P68,2023-09-13 23:53,-116.0056,39.6014,1993.00,70.00,38.00,31.00,210.00,11.00,0.00,30.09,1012.70,M,22.00,M,M,M,M,M,M,M,M,M,M,M,M,M,M,M,70.00,KP68 132353Z AUTO 21011G22KT 21/03 A3009 RMK AO1 SLP127 T02110033 10272 20206 55002,M
DRA,2023-09-13 23:53,-116.0278,36.6206,1009.00,90.00,46.00,21.91,250.00,7.00,0.00,29.88,1007.10,10.00,M,FEW,M,M,M,10000.00,M,M,M,M,M,M,M,M,M,M,86.55,KDRA 132353Z AUTO 25007KT 10SM FEW100 32/08 A2988 RMK AO2 SLP071 T03220078 10333 20289 56015,M
ELY,2023-09-13 23:53,-114.8453,39.2950,1909.00,71.00,39.00,31.16,150.00,6.00,0.00,30.10,1011.80,10.00,M,BKN,M,M,M,9000.00,M,M,M,M,M,M,M,M,M,M,71.00,KELY 132353Z AUTO 15006KT 10SM BKN090 22/04 A3010 RMK AO2 SLP118 60000 T02170039 10244 20200 55006,M
VGT,2023-09-13 23:53,-115.1933,36.2111,667.00,93.00,49.00,22.34,160.00,4.00,0.00,29.81,1008.40,10.00,M,CLR,M,M,M,M,M,M,M,M,M,M,M,M,M,M,89.73,KVGT 132353Z 16004KT 10SM CLR 34/09 A2981 RMK AO2 LTG DSNT SW AND W SLP084 T03390094 10339 20311 56018,M
LOL,2023-09-13 23:53,-118.5701,40.0684,1192.43,83.00,37.00,19.35,60.00,11.00,0.00,29.98,1011.70,10.00,M,FEW,M,M,M,11000.00,M,M,M,M,M,M,M,M,M,M,80.53,KLOL 132353Z AUTO 06011KT 10SM FEW110 28/03 A2998 RMK AO2 SLP117 T02830028 10294 20244 56009,M
HND,2023-09-13 23:53,-115.1344,35.9729,742.79,89.60,53.60,29.45,M,4.00,0.00,29.87,M,10.00,M,CLR,M,M,M,M,M,M,M,M,M,M,M,M,M,M,87.36,KHND 132353Z VRB04KT 10SM CLR 32/12 A2987 RMK AO2 LTG DSNT SW AND NW TSB06E47,M
BVU,2023-09-13 23:55,-114.8611,35.9475,671.00,91.40,50.00,24.37,360.00,4.00,0.00,29.81,M,10.00,M,CLR,M,M,M,M,M,M,M,M,M,M,M,M,M,M,88.36,KBVU 132355Z AUTO 36004KT 10SM CLR 33/10 A2981 RMK AO2,M
CXP,2023-09-13 23:55,-119.7326,39.1923,1431.00,82.40,35.60,18.67,0.00,0.00,0.00,30.04,M,10.00,M,SCT,M,M,M,10000.00,M,M,M,M,M,M,M,M,M,M,80.08,KCXP 132355Z AUTO 00000KT 10SM SCT100 28/02 A3004 RMK AO2,M
INS,2023-09-13 23:55,-115.6733,36.5872,955.00,89.00,44.00,20.96,60.00,5.00,0.00,29.86,1006.50,10.00,M,FEW,SCT,M,M,10000.00,14000.00,M,M,M,M,M,M,M,M,M,85.50,KINS 132355Z AUTO 06005KT 10SM FEW100 SCT140 32/07 A2986 RMK AO2 SLP065 T03170067 10326 20273 57013 $,M
RNO,2023-09-13 23:55,-119.7711,39.4839,1341.00,84.00,36.00,18.01,360.00,8.00,0.00,30.02,1011.20,10.00,M,FEW,FEW,M,M,11000.00,25000.00,M,M,M,M,M,M,M,M,M,81.20,KRNO 132355Z 36008KT 10SM FEW110 FEW250 29/02 A3002 RMK AO2 SLP112 T02890022 10294 20228 56013,M
LSV,2023-09-13 23:55,-115.0343,36.2362,570.00,93.70,50.40,23.03,180.00,5.00,0.00,29.77,1005.70,10.00,M,CLR,M,M,M,M,M,M,M,M,M,M,M,M,M,M,90.67,KLSV 132355Z AUTO 18005KT 10SM CLR 34/10 A2977 RMK AO2 LTG DSNT SW SLP057 T03430102 10365 20324 57017 $,M
RTS,2023-09-13 23:55,-119.8764,39.6682,1539.00,78.80,33.80,19.55,50.00,10.00,0.00,30.08,M,10.00,16.00,CLR,M,M,M,M,M,M,M,M,M,M,M,M,M,M,78.80,KRTS 132355Z AUTO 05010G16KT 10SM CLR 26/01 A3008 RMK AO2,M
MEV,2023-09-13 23:55,-119.7500,38.9963,1441.42,80.60,37.40,21.25,310.00,7.00,0.00,30.03,M,10.00,13.00,CLR,M,M,M,M,M,M,M,M,M,M,M,M,M,M,79.02,KMEV 132355Z AUTO 31007G13KT 10SM CLR 27/03 A3003 RMK AO2,M
HTH,2023-09-13 23:55,-118.6315,38.5448,1282.89,80.60,37.40,21.25,330.00,13.00,0.00,29.99,M,10.00,19.00,FEW,M,M,M,11000.00,M,M,M,M,M,M,M,M,M,M,79.02,KHTH 132355Z AUTO 33013G19KT 10SM FEW110 27/03 A2999 RMK A01,M
BAM,2023-09-13 23:55,-116.8743,40.5990,1382.36,80.60,42.80,26.22,340.00,11.00,0.00,30.04,M,10.00,15.00,CLR,M,M,M,M,M,M,M,M,M,M,M,M,M,M,79.30,KBAM 132355Z AUTO 34011G15KT 10SM CLR 27/06 A3004 RMK AO1,M
TMT,2023-09-13 23:55,-117.1971,39.4643,1749.34,71.60,40.30,32.12,170.00,5.00,0.00,30.11,M,M,M,BKN,M,M,M,12000.00,M,M,M,M,M,M,M,M,M,M,71.60,KTMT 132355Z AUTO 17005KT BKN120 22/05 A3011 RMK AO2 60002 T02200046 10259 20190 PWINO,M
EKO,2023-09-13 23:56,-115.7860,40.8242,1367.00,79.00,37.00,22.05,340.00,14.00,0.00,30.04,1012.90,10.00,M,FEW,M,M,M,11000.00,M,M,M,M,M,M,M,M,M,M,79.00,KEKO 132356Z AUTO 34014KT 10SM FEW110 26/03 A3004 RMK AO2 SLP129 T02610028 10289 20217 55003,M
WMC,2023-09-13 23:56,-117.8072,40.9019,1315.00,83.00,36.00,18.60,340.00,5.00,0.00,30.02,1012.80,10.00,M,CLR,M,M,M,M,M,M,M,M,M,M,M,M,M,M,80.50,KWMC 132356Z AUTO 34005KT 10SM CLR 28/02 A3002 RMK AO2 SLP128 T02830022 10294 20233 56012,M
NFL,2023-09-13 23:56,-118.7010,39.4166,1199.00,86.00,36.00,16.89,40.00,9.00,0.00,29.97,1012.10,10.00,M,FEW,SCT,M,M,7000.00,10000.00,M,M,M,M,M,M,M,M,M,82.70,KNFL 132356Z 04009KT 10SM FEW070 SCT100 30/02 A2997 RMK AO2 SLP121 ACC W-NW T03000022 10306 20250 56012,M
HND,2023-09-13 23:56,-115.1344,35.9729,742.79,90.00,54.00,29.51,220.00,7.00,0.00,29.86,1010.00,10.00,M,CLR,M,M,M,M,M,M,M,M,M,M,M,M,M,M,87.82,KHND 132356Z 22007KT 10SM CLR 32/12 A2986 RMK AO2 LTG DSNT SW AND NW TSB06E47 SLP100 T03220122 10333 20294 56005,M
LAS,2023-09-13 23:56,-115.1634,36.0719,663.00,91.00,52.00,26.57,0.00,0.00,0.00,29.82,1007.20,10.00,M,SCT,SCT,BKN,M,10000.00,18000.00,22000.00,M,M,M,M,M,M,M,M,88.35,KLAS 132356Z 00000KT 10SM SCT100 SCT180 BKN220 33/11 A2982 RMK AO2 LTG DSNT SW AND W SLP072 ACSL NW-N CB DSNT ALQDS T03280111 10339 20300 56015,M
