station,valid,lon,lat,elevation,tmpf,dwpf,relh,drct,sknt,p01i,alti,mslp,vsby,gust,skyc1,skyc2,skyc3,skyc4,skyl1,skyl2,skyl3,skyl4,wxcodes,ice_accretion_1hr,ice_accretion_3hr,ice_accretion_6hr,peak_wind_gust,peak_wind_drct,peak_wind_time,feel,metar,snowdepth
LOL,2025-01-07 00:02,-118.5701,40.0684,1192.43,42.00,39.00,89.01,30.00,9.00,T,30.20,M,10.00,M,SCT,BKN,OVC,M,2100.00,3600.00,7500.00,M,M,M,M,M,M,M,M,35.95,KLOL 070002Z AUTO 03009KT 10SM SCT021 BKN036 OVC075 06/04 A3020 RMK AO2 RAE2357 P0000 T00560039,M
05U,2025-01-07 00:10,-116.0051,39.6042,1811.23,M,M,M,0.00,0.00,0.00,30.15,M,0.75,M,OVC,M,M,M,300.00,M,M,M,BR,M,M,M,M,M,M,M,K05U 070010Z AUTO 00000KT 3/4SM BR OVC003 A3015 RMK A01,M
TMT,2025-01-07 00:10,-117.1971,39.4643,1749.34,37.00,32.70,84.27,360.00,8.00,0.00,30.17,M,10.00,M,SCT,BKN,OVC,M,2000.00,4200.00,5500.00,M,M,M,M,M,M,M,M,30.27,KTMT 070010Z AUTO 36008KT 10SM SCT020 BKN042 OVC055 03/00 A3017 RMK AO2 T00270004,M
BVU,2025-01-07 00:15,-114.8611,35.9475,671.00,59.00,19.40,21.26,30.00,10.00,0.00,29.99,M,10.00,M,CLR,M,M,M,M,M,M,M,M,M,M,M,M,M,M,59.00,KBVU 070015Z AUTO 03010KT 10SM CLR 15/M07 A2999 RMK AO2,M
CXP,2025-01-07 00:15,-119.7326,39.1923,1431.00,48.20,32.00,53.27,320.00,9.00,0.00,30.18,M,10.00,14.00,CLR,M,M,M,M,M,M,M,M,M,M,M,M,M,M,43.66,KCXP 070015Z AUTO 32009G14KT 10SM CLR 09/M00 A3018 RMK AO2,M
BAM,2025-01-07 00:15,-116.8743,40.5990,1382.36,39.20,37.40,93.19,330.00,9.00,0.00,30.21,M,10.00,M,SCT,BKN,OVC,M,1400.00,2800.00,4700.00,M,M,M,M,M,M,M,M,32.47,KBAM 070015Z AUTO 33009KT 10SM SCT014 BKN028 OVC047 04/03 A3021 RMK AO1,M
HTH,2025-01-07 00:15,-118.6315,38.5448,1282.89,48.20,33.80,57.26,320.00,10.00,0.00,30.17,M,10.00,M,SCT,BKN,OVC,M,4300.00,5000.00,6500.00,M,M,M,M,M,M,M,M,43.28,KHTH 070015Z AUTO 32010KT 10SM SCT043 BKN050 OVC065 09/01 A3017 RMK A01,M
05U,2025-01-07 00:30,-116.0051,39.6042,1811.23,M,M,M,0.00,0.00,0.00,30.16,M,1.25,M,OVC,M,M,M,300.00,M,M,M,BR,M,M,M,M,M,M,M,K05U 070030Z AUTO 00000KT 1 1/4SM BR OVC003 A3016 RMK A01,M
TMT,2025-01-07 00:30,-117.1971,39.4643,1749.34,36.50,32.50,85.26,50.00,4.00,0.00,30.18,M,10.00,M,BKN,OVC,M,M,2000.00,5000.00,M,M,M,M,M,M,M,M,M,32.68,KTMT 070030Z AUTO 05004KT 10SM BKN020 OVC050 03/00 A3018 RMK AO2 T00250003,M
LOL,2025-01-07 00:32,-118.5701,40.0684,1192.43,42.00,38.00,85.60,20.00,11.00,T,30.20,M,10.00,16.00,BKN,BKN,OVC,M,2900.00,3600.00,7500.00,M,M,M,M,M,M,M,M,35.10,KLOL 070032Z AUTO 02011G16KT 10SM BKN029 BKN036 OVC075 06/03 A3020 RMK AO2 RAE2357 P0000 T00560033,M
ELY,2025-01-07 00:34,-114.8453,39.2950,1909.00,34.00,29.00,81.71,30.00,11.00,T,30.11,M,1.75,M,FEW,SCT,OVC,M,3600.00,4800.00,6000.00,M,-SN,M,M,M,M,M,M,24.99,KELY 070034Z AUTO 03011KT 1 3/4SM -SN FEW036 SCT048 OVC060 01/M02 A3011 RMK AO2 VIS 3/4V5 SNB08 P0000 T00111017,M
BVU,2025-01-07 00:35,-114.8611,35.9475,671.00,57.20,19.40,22.68,30.00,7.00,0.00,29.99,M,10.00,M,CLR,M,M,M,M,M,M,M,M,M,M,M,M,M,M,57.20,KBVU 070035Z AUTO 03007KT 10SM CLR 14/M07 A2999 RMK AO2,M
BAM,2025-01-07 00:35,-116.8743,40.5990,1382.36,39.20,37.40,93.19,340.00,5.00,0.00,30.21,M,10.00,M,BKN,BKN,OVC,M,2400.00,3500.00,4700.00,M,M,M,M,M,M,M,M,34.95,KBAM 070035Z AUTO 34005KT 10SM BKN024 BKN035 OVC047 04/03 A3021 RMK AO1,M
CXP,2025-01-07 00:35,-119.7326,39.1923,1431.00,46.40,32.00,57.00,280.00,6.00,0.00,30.18,M,10.00,M,FEW,M,M,M,5500.00,M,M,M,M,M,M,M,M,M,M,42.87,KCXP 070035Z AUTO 28006KT 10SM FEW055 08/00 A3018 RMK AO2,M
HTH,2025-01-07 00:35,-118.6315,38.5448,1282.89,48.20,33.80,57.26,320.00,8.00,0.00,30.17,M,10.00,M,OVC,M,M,M,4100.00,M,M,M,M,M,M,M,M,M,M,44.07,KHTH 070035Z AUTO 32008KT 10SM OVC041 09/01 A3017 RMK A01,M
LOL,2025-01-07 00:39,-118.5701,40.0684,1192.43,42.00,38.00,85.60,20.00,11.00,T,30.21,M,10.00,M,BKN,OVC,M,M,3300.00,4000.00,M,M,M,M,M,M,M,M,M,35.10,KLOL 070039Z AUTO 02011KT 10SM BKN033 OVC040 06/03 A3021 RMK AO2 RAE2357 P0000 T00560033,M
WMC,2025-01-07 00:46,-117.8072,40.9019,1315.00,39.00,35.00,85.42,10.00,7.00,T,30.24,M,10.00,M,FEW,BKN,OVC,M,1900.00,2400.00,4700.00,M,M,M,M,M,M,M,M,33.31,KWMC 070046Z AUTO 01007KT 10SM FEW019 BKN024 OVC047 04/02 A3024 RMK AO2 RAE09 P0000 T00390017,M
ELY,2025-01-07 00:48,-114.8453,39.2950,1909.00,33.80,30.20,86.49,20.00,10.00,T,30.12,M,3.00,M,FEW,FEW,OVC,M,3700.00,4800.00,6000.00,M,-SN BR,M,M,M,M,M,M,25.23,KELY 070048Z AUTO 02010KT 3SM -SN BR FEW037 FEW048 OVC060 01/M01 A3012 RMK AO2 SNB08 P0000,M
ELY,2025-01-07 00:49,-114.8453,39.2950,1909.00,33.00,30.00,88.58,20.00,9.00,T,30.12,1020.60,4.00,M,FEW,FEW,OVC,M,3700.00,4800.00,6000.00,M,-SN BR,M,M,M,M,M,M,24.76,KELY 070049Z AUTO 02009KT 4SM -SN BR FEW037 FEW048 OVC060 01/M01 A3012 RMK AO2 SNB08 SLP206 P0000 T00061011,M
05U,2025-01-07 00:50,-116.0051,39.6042,1811.23,M,M,M,0.00,0.00,0.00,30.16,M,0.75,M,OVC,M,M,M,300.00,M,M,M,BR,M,M,M,M,M,M,M,K05U 070050Z AUTO 00000KT 3/4SM BR OVC003 A3016 RMK A01,M
TMT,2025-01-07 00:50,-117.1971,39.4643,1749.34,36.00,32.70,87.67,20.00,3.00,0.00,30.18,M,10.00,M,BKN,BKN,OVC,M,1600.00,4200.00,6000.00,M,M,M,M,M,M,M,M,33.26,KTMT 070050Z AUTO 02003KT 10SM BKN016 BKN042 OVC060 02/00 A3018 RMK AO2 T00230004,M
P68,2025-01-07 00:53,-116.0056,39.6014,1993.00,33.00,33.00,100.00,350.00,4.00,0.06,30.13,1020.70,M,M,M,M,M,M,M,M,M,M,M,M,M,M,M,M,M,28.59,KP68 070053Z AUTO 35004KT 01/01 A3013 RMK AO1 SLP207 P0006 T00060006,M
DRA,2025-01-07 00:53,-116.0278,36.6206,1009.00,56.00,27.00,32.59,60.00,7.00,0.00,30.01,1014.90,10.00,M,CLR,M,M,M,M,M,M,M,M,M,M,M,M,M,M,56.00,KDRA 070053Z AUTO 06007KT 10SM CLR 13/M03 A3001 RMK AO2 SLP149 T01331028,M
VGT,2025-01-07 00:53,-115.1933,36.2111,667.00,57.00,25.00,28.93,110.00,5.00,0.00,30.00,1017.80,10.00,M,CLR,M,M,M,M,M,M,M,M,M,M,M,M,M,M,57.00,KVGT 070053Z 11005KT 10SM CLR 14/M04 A3000 RMK AO2 SLP178 T01391039,M
LOL,2025-01-07 00:53,-118.5701,40.0684,1192.43,42.00,37.00,82.30,30.00,12.00,T,30.21,1023.90,10.00,M,SCT,SCT,OVC,M,3200.00,4000.00,4900.00,M,-RA,M,M,M,M,M,M,34.73,KLOL 070053Z AUTO 03012KT 10SM -RA SCT032 SCT040 OVC049 06/03 A3021 RMK AO2 RAE2357B46 SLP239 P0000 T00560028,M
BVU,2025-01-07 00:55,-114.8611,35.9475,671.00,55.40,19.40,24.21,20.00,7.00,0.00,29.99,M,10.00,M,CLR,M,M,M,M,M,M,M,M,M,M,M,M,M,M,55.40,KBVU 070055Z AUTO 02007KT 10SM CLR 13/M07 A2999 RMK AO2,M
RNO,2025-01-07 00:55,-119.7711,39.4839,1341.00,46.00,34.00,62.71,340.00,9.00,0.00,30.19,1022.40,10.00,M,BKN,M,M,M,6500.00,M,M,M,M,M,M,M,M,M,M,40.92,KRNO 070055Z 34009KT 10SM BKN065 08/01 A3019 RMK AO2 SLP224 T00780011,M
BAM,2025-01-07 00:55,-116.8743,40.5990,1382.36,39.20,35.60,86.79,350.00,5.00,0.00,30.22,M,10.00,M,OVC,M,M,M,2300.00,M,M,M,M,M,M,M,M,M,M,34.95,KBAM 070055Z AUTO 35005KT 10SM OVC023 04/02 A3022 RMK AO1,M
CXP,2025-01-07 00:55,-119.7326,39.1923,1431.00,46.40,32.00,57.00,M,4.00,0.00,30.19,M,10.00,M,SCT,BKN,BKN,M,6000.00,7000.00,8500.00,M,M,M,M,M,M,M,M,44.24,KCXP 070055Z AUTO VRB04KT 10SM SCT060 BKN070 BKN085 08/M00 A3019 RMK AO2,M
HTH,2025-01-07 00:55,-118.6315,38.5448,1282.89,46.40,33.80,61.28,310.00,8.00,0.00,30.18,M,10.00,M,OVC,M,M,M,4300.00,M,M,M,M,M,M,M,M,M,M,41.85,KHTH 070055Z AUTO 31008KT 10SM OVC043 08/01 A3018 RMK A01,M
INS,2025-01-07 00:55,-115.6733,36.5872,955.00,55.20,21.70,26.89,170.00,4.00,0.00,30.00,1015.10,10.00,M,CLR,M,M,M,M,M,M,M,M,M,M,M,M,M,M,55.20,KINS 070055Z AUTO 17004KT 10SM CLR 13/M06 A3000 RMK AO2 SLP151 T01291057,M
LSV,2025-01-07 00:55,-115.0343,36.2362,570.00,58.00,19.40,22.04,80.00,5.00,0.00,29.97,1014.80,10.00,M,CLR,M,M,M,M,M,M,M,M,M,M,M,M,M,M,58.00,KLSV 070055Z AUTO 08005KT 10SM CLR 15/M07 A2997 RMK AO2 SLP148 T01451070 $,M
EKO,2025-01-07 00:56,-115.7860,40.8242,1367.00,35.00,32.00,88.68,50.00,6.00,0.01,30.19,1023.70,10.00,M,FEW,SCT,OVC,M,800.00,1900.00,4500.00,M,M,M,M,M,M,M,M,29.14,KEKO 070056Z AUTO 05006KT 10SM FEW008 SCT019 OVC045 02/00 A3019 RMK AO2 UPE29 SLP237 P0001 T00170000,M
WMC,2025-01-07 00:56,-117.8072,40.9019,1315.00,39.00,34.00,82.08,360.00,8.00,T,30.24,1024.60,10.00,M,FEW,BKN,OVC,M,1900.00,3500.00,4800.00,M,M,M,M,M,M,M,M,32.74,KWMC 070056Z AUTO 36008KT 10SM FEW019 BKN035 OVC048 04/01 A3024 RMK AO2 RAE09 SLP246 P0000 T00390011,M
HND,2025-01-07 00:56,-115.1344,35.9729,742.79,56.00,23.00,27.59,50.00,3.00,0.00,30.03,1018.60,10.00,M,CLR,M,M,M,M,M,M,M,M,M,M,M,M,M,M,56.00,KHND 070056Z 05003KT 10SM CLR 13/M05 A3003 RMK AO2 SLP186 T01331050 $,M
TPH,2025-01-07 00:56,-117.0904,38.0505,1654.00,42.00,30.00,62.18,310.00,16.00,0.00,30.10,1020.10,10.00,M,FEW,M,M,M,7000.00,M,M,M,M,M,M,M,M,M,M,33.45,KTPH 070056Z AUTO 31016KT 10SM FEW070 06/M01 A3010 RMK AO2 SLP201 T00561011,M
LAS,2025-01-07 00:56,-115.1634,36.0719,663.00,58.00,23.00,25.67,130.00,3.00,0.00,30.01,1016.00,10.00,M,FEW,FEW,M,M,15000.00,25000.00,M,M,M,M,M,M,M,M,M,58.00,KLAS 070056Z 13003KT 10SM FEW150 FEW250 14/M05 A3001 RMK AO2 SLP160 T01441050,M
NFL,2025-01-07 00:57,-118.7010,39.4166,1199.00,44.00,39.00,82.44,10.00,8.00,0.01,30.19,1018.60,10.00,M,BKN,BKN,M,M,3500.00,5000.00,M,M,RA,M,M,M,M,M,M,38.90,KNFL 070057Z 01008KT 10SM RA BKN035 BKN050 07/04 A3019 RMK AO2 RAB42 SLP186 P0001 T00670039 $,M
05U,2025-01-07 01:10,-116.0051,39.6042,1811.23,M,M,M,0.00,0.00,0.00,30.16,M,1.75,M,OVC,M,M,M,300.00,M,M,M,BR,M,M,M,M,M,M,M,K05U 070110Z AUTO 00000KT 1 3/4SM BR OVC003 A3016 RMK A01,M
TMT,2025-01-07 01:10,-117.1971,39.4643,1749.34,35.20,33.00,91.59,0.00,0.00,0.00,30.18,M,10.00,M,SCT,BKN,OVC,M,1600.00,4600.00,5000.00,M,M,M,M,M,M,M,M,35.20,KTMT 070110Z AUTO 00000KT 10SM SCT016 BKN046 OVC050 02/01 A3018 RMK AO2 T00180005,M
BVU,2025-01-07 01:15,-114.8611,35.9475,671.00,55.40,19.40,24.21,10.00,8.00,0.00,29.99,M,10.00,M,CLR,M,M,M,M,M,M,M,M,M,M,M,M,M,M,55.40,KBVU 070115Z AUTO 01008KT 10SM CLR 13/M07 A2999 RMK AO2,M
BAM,2025-01-07 01:15,-116.8743,40.5990,1382.36,37.40,35.60,93.14,330.00,5.00,0.00,30.23,M,10.00,M,BKN,BKN,OVC,M,2200.00,2900.00,3400.00,M,M,M,M,M,M,M,M,32.81,KBAM 070115Z AUTO 33005KT 10SM BKN022 BKN029 OVC034 03/02 A3023 RMK AO1,M
CXP,2025-01-07 01:15,-119.7326,39.1923,1431.00,44.60,32.00,61.03,340.00,4.00,0.00,30.20,M,10.00,M,BKN,BKN,OVC,M,5500.00,7500.00,9500.00,M,M,M,M,M,M,M,M,42.13,KCXP 070115Z AUTO 34004KT 10SM BKN055 BKN075 OVC095 07/M00 A3020 RMK AO2,M
RTS,2025-01-07 01:15,-119.8764,39.6682,1539.00,41.00,35.60,80.93,350.00,16.00,0.00,30.23,M,7.00,M,SCT,BKN,OVC,M,2100.00,4100.00,5500.00,M,-RA,M,M,M,M,M,M,32.15,KRTS 070115Z AUTO 35016KT 7SM -RA SCT021 BKN041 OVC055 05/02 A3023 RMK AO2,M
HTH,2025-01-07 01:15,-118.6315,38.5448,1282.89,46.40,33.80,61.28,300.00,8.00,0.00,30.18,M,10.00,M,BKN,BKN,OVC,M,4400.00,4900.00,7000.00,M,M,M,M,M,M,M,M,41.85,KHTH 070115Z AUTO 30008KT 10SM BKN044 BKN049 OVC070 08/01 A3018 RMK A01,M
RTS,2025-01-07 01:25,-119.8764,39.6682,1539.00,37.40,35.60,93.14,340.00,15.00,0.00,30.23,M,2.00,20.00,FEW,BKN,OVC,M,500.00,2000.00,4600.00,M,RA,M,M,M,M,M,M,27.78,KRTS 070125Z AUTO 34015G20KT 2SM RA FEW005 BKN020 OVC046 03/02 A3023 RMK AO2,M
05U,2025-01-07 01:30,-116.0051,39.6042,1811.23,M,M,M,0.00,0.00,0.00,30.17,M,1.75,M,OVC,M,M,M,300.00,M,M,M,BR,M,M,M,M,M,M,M,K05U 070130Z AUTO 00000KT 1 3/4SM BR OVC003 A3017 RMK A01,M
TMT,2025-01-07 01:30,-117.1971,39.4643,1749.34,34.70,33.00,93.43,0.00,0.00,0.00,30.18,M,10.00,M,BKN,BKN,OVC,M,2200.00,4300.00,5000.00,M,M,M,M,M,M,M,M,34.70,KTMT 070130Z AUTO 00000KT 10SM BKN022 BKN043 OVC050 02/01 A3018 RMK AO2 T00150005,M
RNO,2025-01-07 01:32,-119.7711,39.4839,1341.00,43.00,38.00,82.37,30.00,7.00,0.01,30.22,M,5.00,M,OVC,M,M,M,2300.00,M,M,M,RA,M,M,M,M,M,M,38.19,KRNO 070132Z 03007KT 5SM RA OVC023 06/03 A3022 RMK AO2 RAB02 P0001 T00610033,M
RNO,2025-01-07 01:33,-119.7711,39.4839,1341.00,43.00,38.00,82.37,30.00,8.00,0.01,30.22,M,5.00,M,OVC,M,M,M,2300.00,M,M,M,RA,M,M,M,M,M,M,37.66,KRNO 070133Z 03008KT 5SM RA OVC023 06/03 A3022 RMK AO2 RAB02 P0001 T00610033,M
BVU,2025-01-07 01:35,-114.8611,35.9475,671.00,53.60,19.40,25.85,10.00,7.00,0.00,30.00,M,10.00,M,CLR,M,M,M,M,M,M,M,M,M,M,M,M,M,M,53.60,KBVU 070135Z AUTO 01007KT 10SM CLR 12/M07 A3000 RMK AO2,M
CXP,2025-01-07 01:35,-119.7326,39.1923,1431.00,46.40,32.00,57.00,50.00,5.00,0.00,30.20,M,10.00,M,BKN,OVC,M,M,6000.00,7000.00,M,M,M,M,M,M,M,M,M,43.50,KCXP 070135Z AUTO 05005KT 10SM BKN060 OVC070 08/M00 A3020 RMK AO2,M
BAM,2025-01-07 01:35,-116.8743,40.5990,1382.36,37.40,33.80,86.69,100.00,3.00,0.00,30.24,M,7.00,M,SCT,BKN,OVC,M,1200.00,2000.00,2500.00,M,M,M,M,M,M,M,M,34.86,KBAM 070135Z AUTO 10003KT 7SM SCT012 BKN020 OVC025 03/01 A3024 RMK AO1,M
HTH,2025-01-07 01:35,-118.6315,38.5448,1282.89,46.40,33.80,61.28,310.00,9.00,0.00,30.18,M,10.00,M,BKN,BKN,OVC,M,4400.00,4900.00,10000.00,M,M,M,M,M,M,M,M,41.42,KHTH 070135Z AUTO 31009KT 10SM BKN044 BKN049 OVC100 08/01 A3018 RMK A01,M
WMC,2025-01-07 01:42,-117.8072,40.9019,1315.00,38.00,34.00,85.35,350.00,7.00,0.00,30.26,M,10.00,M,BKN,BKN,M,M,2800.00,11000.00,M,M,M,M,M,M,M,M,M,32.09,KWMC 070142Z AUTO 35007KT 10SM BKN028 BKN110 03/01 A3026 RMK AO2 T00330011,M
05U,2025-01-07 01:50,-116.0051,39.6042,1811.23,M,M,M,0.00,0.00,0.00,30.17,M,1.25,M,OVC,M,M,M,300.00,M,M,M,BR,M,M,M,M,M,M,M,K05U 070150Z AUTO 00000KT 1 1/4SM BR OVC003 A3017 RMK A01,M
TMT,2025-01-07 01:50,-117.1971,39.4643,1749.34,33.30,32.00,94.91,40.00,6.00,0.00,30.19,M,5.00,M,BKN,OVC,M,M,1100.00,1900.00,M,M,-SN,M,M,M,M,M,M,27.10,KTMT 070150Z AUTO 04006KT 5SM -SN BKN011 OVC019 01/00 A3019 RMK AO2 T00070000,M
P68,2025-01-07 01:53,-116.0056,39.6014,1993.00,33.00,33.00,100.00,340.00,4.00,0.03,30.15,1021.10,M,M,M,M,M,M,M,M,M,M,M,M,M,M,M,M,M,28.59,KP68 070153Z AUTO 34004KT 01/01 A3015 RMK AO1 SLP211 P0003 T00060006,M
DRA,2025-01-07 01:53,-116.0278,36.6206,1009.00,52.00,26.00,36.19,30.00,6.00,0.00,30.02,1015.70,10.00,M,OVC,M,M,M,7500.00,M,M,M,M,M,M,M,M,M,M,52.00,KDRA 070153Z AUTO 03006KT 10SM OVC075 11/M03 A3002 RMK AO2 SLP157 T01111033,M
ELY,2025-01-07 01:53,-114.8453,39.2950,1909.00,32.00,30.00,92.22,10.00,12.00,T,30.13,1020.60,8.00,M,BKN,OVC,M,M,3800.00,7000.00,M,M,M,M,M,M,M,M,M,22.00,KELY 070153Z AUTO 01012KT 8SM BKN038 OVC070 00/M01 A3013 RMK AO2 SNE16B39E53 SLP206 P0000 T00001011,M
VGT,2025-01-07 01:53,-115.1933,36.2111,667.00,55.00,25.00,31.11,0.00,0.00,0.00,30.01,1018.30,10.00,M,CLR,M,M,M,M,M,M,M,M,M,M,M,M,M,M,55.00,KVGT 070153Z 00000KT 10SM CLR 13/M04 A3001 RMK AO2 SLP183 T01281039,M
LOL,2025-01-07 01:53,-118.5701,40.0684,1192.43,41.00,35.00,79.02,30.00,9.00,T,30.23,1024.80,10.00,16.00,BKN,OVC,M,M,5500.00,10000.00,M,M,M,M,M,M,M,M,M,34.70,KLOL 070153Z AUTO 03009G16KT 10SM BKN055 OVC100 05/02 A3023 RMK AO2 RAE31 SLP248 P0000 T00500017,M
CXP,2025-01-07 01:55,-119.7326,39.1923,1431.00,46.40,32.00,57.00,M,4.00,0.00,30.21,M,10.00,10.00,BKN,OVC,M,M,6000.00,7000.00,M,M,M,M,M,M,M,M,M,44.24,KCXP 070155Z AUTO VRB04G10KT 10SM BKN060 OVC070 08/M00 A3021 RMK AO2,M
BAM,2025-01-07 01:55,-116.8743,40.5990,1382.36,37.40,33.80,86.69,0.00,0.00,0.00,30.25,M,7.00,M,SCT,BKN,OVC,M,1100.00,2400.00,2900.00,M,M,M,M,M,M,M,M,37.40,KBAM 070155Z AUTO 00000KT 7SM SCT011 BKN024 OVC029 03/01 A3025 RMK AO1,M
HTH,2025-01-07 01:55,-118.6315,38.5448,1282.89,44.60,33.80,65.61,320.00,9.00,0.00,30.19,M,10.00,M,BKN,BKN,OVC,M,3600.00,4400.00,7500.00,M,M,M,M,M,M,M,M,39.18,KHTH 070155Z AUTO 32009KT 10SM BKN036 BKN044 OVC075 07/01 A3019 RMK A01,M
BVU,2025-01-07 01:55,-114.8611,35.9475,671.00,53.60,19.40,25.85,40.00,7.00,0.00,30.00,M,10.00,M,CLR,M,M,M,M,M,M,M,M,M,M,M,M,M,M,53.60,KBVU 070155Z AUTO 04007KT 10SM CLR 12/M07 A3000 RMK AO2,M
RNO,2025-01-07 01:55,-119.7711,39.4839,1341.00,43.00,39.00,85.66,10.00,8.00,0.04,30.23,1023.70,8.00,M,OVC,M,M,M,2500.00,M,M,M,-RA,M,M,M,M,M,M,37.66,KRNO 070155Z 01008KT 8SM -RA OVC025 06/04 A3023 RMK AO2 RAB02 SLP237 P0004 T00610039,M
INS,2025-01-07 01:55,-115.6733,36.5872,955.00,48.20,19.80,32.12,360.00,4.00,0.00,30.02,1016.20,10.00,M,BKN,M,M,M,8000.00,M,M,M,M,M,M,M,M,M,M,46.34,KINS 070155Z AUTO 36004KT 10SM BKN080 09/M07 A3002 RMK AO2 SLP162 T00901068,M
LSV,2025-01-07 01:55,-115.0343,36.2362,570.00,54.50,19.40,25.01,350.00,3.00,0.00,29.98,1015.20,10.00,M,CLR,M,M,M,M,M,M,M,M,M,M,M,M,M,M,54.50,KLSV 070155Z AUTO 35003KT 10SM CLR 13/M07 A2998 RMK AO2 SLP152 T01251070 $,M
EKO,2025-01-07 01:56,-115.7860,40.8242,1367.00,35.00,32.00,88.68,50.00,7.00,T,30.21,1024.40,10.00,M,OVC,M,M,M,6000.00,M,M,M,M,M,M,M,M,M,M,28.44,KEKO 070156Z AUTO 05007KT 10SM OVC060 02/00 A3021 RMK AO2 UPB0058E10SNB10E12 SLP244 P0000 T00170000,M
WMC,2025-01-07 01:56,-117.8072,40.9019,1315.00,38.00,34.00,85.35,350.00,9.00,0.00,30.27,1025.70,10.00,M,OVC,M,M,M,2800.00,M,M,M,M,M,M,M,M,M,M,30.97,KWMC 070156Z AUTO 35009KT 10SM OVC028 03/01 A3027 RMK AO2 SLP257 T00330011,M
HND,2025-01-07 01:56,-115.1344,35.9729,742.79,52.00,21.00,29.35,0.00,0.00,0.00,30.04,1019.50,10.00,M,CLR,M,M,M,M,M,M,M,M,M,M,M,M,M,M,52.00,KHND 070156Z 00000KT 10SM CLR 11/M06 A3004 RMK AO2 SLP195 T01111061 $,M
TPH,2025-01-07 01:56,-117.0904,38.0505,1654.00,40.00,31.00,69.97,310.00,19.00,0.00,30.11,1021.20,10.00,32.00,FEW,M,M,M,7000.00,M,M,M,M,M,M,M,32.00,300.00,2025-01-07 01:38,30.02,KTPH 070156Z AUTO 31019G32KT 10SM FEW070 04/M01 A3011 RMK AO2 PK WND 30032/0138 SLP212 T00441006,M
LAS,2025-01-07 01:56,-115.1634,36.0719,663.00,55.00,22.00,27.43,220.00,3.00,0.00,30.02,1016.50,10.00,M,FEW,M,M,M,15000.00,M,M,M,M,M,M,M,M,M,M,55.00,KLAS 070156Z 22003KT 10SM FEW150 13/M06 A3002 RMK AO2 SLP165 T01281056,M
NFL,2025-01-07 01:57,-118.7010,39.4166,1199.00,43.00,40.00,89.06,360.00,8.00,0.02,30.21,1019.20,6.00,M,BKN,OVC,M,M,3000.00,4000.00,M,M,-RA BR,M,M,M,M,M,M,37.66,KNFL 070157Z 36008KT 6SM -RA BR BKN030 OVC040 06/04 A3021 RMK AO2 RAE26B55 SLP192 P0002 T00610044 $,M
ELY,2025-01-07 02:10,-114.8453,39.2950,1909.00,32.00,30.00,92.22,360.00,10.00,0.00,30.12,M,5.00,M,SCT,OVC,M,M,300.00,3200.00,M,M,BR,M,M,M,M,M,M,22.97,KELY 070210Z AUTO 36010KT 5SM BR SCT003 OVC032 00/M01 A3012 RMK AO2 T00001011,M
05U,2025-01-07 02:10,-116.0051,39.6042,1811.23,M,M,M,0.00,0.00,0.00,30.18,M,2.00,M,OVC,M,M,M,400.00,M,M,M,BR,M,M,M,M,M,M,M,K05U 070210Z AUTO 00000KT 2SM BR OVC004 A3018 RMK A01,M
TMT,2025-01-07 02:10,-117.1971,39.4643,1749.34,32.00,32.00,100.00,10.00,7.00,0.00,30.19,M,3.00,M,BKN,OVC,M,M,1300.00,2000.00,M,M,-SN,M,M,M,M,M,M,24.78,KTMT 070210Z AUTO 01007KT 3SM -SN BKN013 OVC020 00/00 A3019 RMK AO2 T00010000,M
BVU,2025-01-07 02:15,-114.8611,35.9475,671.00,51.80,19.40,27.62,0.00,0.00,0.00,30.01,M,10.00,M,CLR,M,M,M,M,M,M,M,M,M,M,M,M,M,M,51.80,KBVU 070215Z AUTO 00000KT 10SM CLR 11/M07 A3001 RMK AO2,M
CXP,2025-01-07 02:15,-119.7326,39.1923,1431.00,42.80,35.60,75.50,340.00,11.00,0.00,30.23,M,9.00,16.00,BKN,BKN,OVC,M,3400.00,4200.00,6000.00,M,-RA,M,M,M,M,M,M,36.11,KCXP 070215Z AUTO 34011G16KT 9SM -RA BKN034 BKN042 OVC060 06/02 A3023 RMK AO2,M
RTS,2025-01-07 02:15,-119.8764,39.6682,1539.00,39.20,35.60,86.79,350.00,11.00,0.00,30.25,M,10.00,M,BKN,BKN,OVC,M,4400.00,5000.00,6500.00,M,M,M,M,M,M,M,M,31.57,KRTS 070215Z AUTO 35011KT 10SM BKN044 BKN050 OVC065 04/02 A3025 RMK AO2,M
BAM,2025-01-07 02:15,-116.8743,40.5990,1382.36,37.40,33.80,86.69,10.00,6.00,0.00,30.26,M,10.00,M,SCT,BKN,OVC,M,2400.00,2800.00,3600.00,M,M,M,M,M,M,M,M,32.03,KBAM 070215Z AUTO 01006KT 10SM SCT024 BKN028 OVC036 03/01 A3026 RMK AO1,M
HTH,2025-01-07 02:15,-118.6315,38.5448,1282.89,44.60,35.60,70.48,310.00,9.00,0.00,30.19,M,10.00,M,OVC,M,M,M,3600.00,M,M,M,M,M,M,M,M,M,M,39.18,KHTH 070215Z AUTO 31009KT 10SM OVC036 07/02 A3019 RMK A01,M
WMC,2025-01-07 02:24,-117.8072,40.9019,1315.00,39.00,33.00,78.86,360.00,11.00,0.00,30.28,M,10.00,M,FEW,OVC,M,M,2700.00,3300.00,M,M,M,M,M,M,M,M,M,31.31,KWMC 070224Z AUTO 36011KT 10SM FEW027 OVC033 04/01 A3028 RMK AO2 T00390006,M
RTS,2025-01-07 02:25,-119.8764,39.6682,1539.00,39.20,35.60,86.79,360.00,10.00,0.00,30.25,M,10.00,17.00,SCT,BKN,OVC,M,3600.00,4400.00,5000.00,M,M,M,M,M,M,M,M,32.00,KRTS 070225Z AUTO 36010G17KT 10SM SCT036 BKN044 OVC050 04/02 A3025 RMK AO2,M
05U,2025-01-07 02:30,-116.0051,39.6042,1811.23,M,M,M,350.00,8.00,0.00,30.18,M,1.25,M,OVC,M,M,M,300.00,M,M,M,BR,M,M,M,M,M,M,M,K05U 070230Z AUTO 35008KT 1 1/4SM BR OVC003 A3018 RMK A01,M
TMT,2025-01-07 02:30,-117.1971,39.4643,1749.34,32.00,32.00,100.00,10.00,7.00,0.00,30.20,M,5.00,M,SCT,BKN,OVC,M,1100.00,2000.00,2600.00,M,-SN,M,M,M,M,M,M,24.78,KTMT 070230Z AUTO 01007KT 5SM -SN SCT011 BKN020 OVC026 00/00 A3020 RMK AO2 T00010000,M
RNO,2025-01-07 02:31,-119.7711,39.4839,1341.00,42.00,38.00,85.60,330.00,7.00,T,30.24,M,10.00,M,OVC,M,M,M,5500.00,M,M,M,M,M,M,M,M,M,M,36.97,KRNO 070231Z 33007KT 10SM OVC055 06/03 A3024 RMK AO2 RAE22 P0000 T00560033,M
BVU,2025-01-07 02:35,-114.8611,35.9475,671.00,50.00,19.40,29.52,10.00,5.00,0.00,30.00,M,10.00,M,CLR,M,M,M,M,M,M,M,M,M,M,M,M,M,M,50.00,KBVU 070235Z AUTO 01005KT 10SM CLR 10/M07 A3000 RMK AO2,M
CXP,2025-01-07 02:35,-119.7326,39.1923,1431.00,41.00,35.60,80.93,330.00,7.00,0.00,30.24,M,10.00,14.00,BKN,OVC,M,M,3500.00,4300.00,M,M,-RA,M,M,M,M,M,M,35.75,KCXP 070235Z AUTO 33007G14KT 10SM -RA BKN035 OVC043 05/02 A3024 RMK AO2,M
BAM,2025-01-07 02:35,-116.8743,40.5990,1382.36,39.20,33.80,80.79,340.00,9.00,0.00,30.27,M,10.00,M,OVC,M,M,M,2400.00,M,M,M,M,M,M,M,M,M,M,32.47,KBAM 070235Z AUTO 34009KT 10SM OVC024 04/01 A3027 RMK AO1,M
HTH,2025-01-07 02:35,-118.6315,38.5448,1282.89,44.60,33.80,65.61,320.00,10.00,0.00,30.19,M,10.00,M,OVC,M,M,M,3900.00,M,M,M,M,M,M,M,M,M,M,38.77,KHTH 070235Z AUTO 32010KT 10SM OVC039 07/01 A3019 RMK A01,M
ELY,2025-01-07 02:36,-114.8453,39.2950,1909.00,32.00,30.00,92.22,10.00,12.00,T,30.13,M,5.00,M,BKN,OVC,M,M,500.00,3800.00,M,M,-SN BR,M,M,M,M,M,M,22.00,KELY 070236Z AUTO 01012KT 5SM -SN BR BKN005 OVC038 00/M01 A3013 RMK AO2 SNB29 P0000 T00001011,M
05U,2025-01-07 02:50,-116.0051,39.6042,1811.23,M,M,M,350.00,8.00,0.00,30.18,M,1.50,M,OVC,M,M,M,400.00,M,M,M,BR,M,M,M,M,M,M,M,K05U 070250Z AUTO 35008KT 1 1/2SM BR OVC004 A3018 RMK A01,M
TMT,2025-01-07 02:50,-117.1971,39.4643,1749.34,32.40,32.00,98.40,10.00,6.00,0.00,30.21,M,10.00,M,SCT,BKN,OVC,M,1000.00,2600.00,4000.00,M,-SN,M,M,M,M,M,M,26.01,KTMT 070250Z AUTO 01006KT 10SM -SN SCT010 BKN026 OVC040 00/00 A3021 RMK AO2 T00020000,M
P68,2025-01-07 02:53,-116.0056,39.6014,1993.00,32.00,32.00,100.00,350.00,12.00,0.03,30.15,1021.20,M,M,M,M,M,M,M,M,M,M,M,M,M,M,M,M,M,22.00,KP68 070253Z AUTO 35012KT 00/00 A3015 RMK AO1 SLP212 P0003 60012 T00000000 53006,M
DRA,2025-01-07 02:53,-116.0278,36.6206,1009.00,52.00,26.00,36.19,50.00,8.00,0.00,30.03,1016.10,10.00,M,OVC,M,M,M,8000.00,M,M,M,M,M,M,M,M,M,M,52.00,KDRA 070253Z AUTO 05008KT 10SM OVC080 11/M03 A3003 RMK AO2 SLP161 T01111033 53007,M
ELY,2025-01-07 02:53,-114.8453,39.2950,1909.00,32.00,30.00,92.22,10.00,12.00,T,30.13,1021.00,8.00,M,BKN,OVC,M,M,500.00,1400.00,M,M,M,M,M,M,M,M,M,22.00,KELY 070253Z AUTO 01012KT 8SM BKN005 OVC014 00/M01 A3013 RMK AO2 SNB29E38 SLP210 P0000 60000 T00001011 51006,M
VGT,2025-01-07 02:53,-115.1933,36.2111,667.00,51.00,24.00,34.55,310.00,5.00,0.00,30.02,1018.70,10.00,M,CLR,M,M,M,M,M,M,M,M,M,M,M,M,M,M,51.00,KVGT 070253Z 31005KT 10SM CLR 11/M04 A3002 RMK AO2 SLP187 T01061044 53005,M
LOL,2025-01-07 02:53,-118.5701,40.0684,1192.43,39.00,33.00,78.86,50.00,8.00,0.00,30.26,1025.80,10.00,M,FEW,SCT,M,M,8000.00,10000.00,M,M,M,M,M,M,M,M,M,32.74,KLOL 070253Z AUTO 05008KT 10SM FEW080 SCT100 04/01 A3026 RMK AO2 SLP258 60000 T00390006 53018,M
BVU,2025-01-07 02:55,-114.8611,35.9475,671.00,51.80,19.40,27.62,320.00,4.00,0.00,30.01,M,10.00,M,CLR,M,M,M,M,M,M,M,M,M,M,M,M,M,M,51.80,KBVU 070255Z AUTO 32004KT 10SM CLR 11/M07 A3001 RMK AO2,M
RNO,2025-01-07 02:55,-119.7711,39.4839,1341.00,42.00,37.00,82.30,340.00,6.00,T,30.25,1024.50,10.00,M,BKN,M,M,M,5500.00,M,M,M,M,M,M,M,M,M,M,37.57,KRNO 070255Z 34006KT 10SM BKN055 06/03 A3025 RMK AO2 RAE22 SLP245 P0000 60004 T00560028 53022,M
CXP,2025-01-07 02:55,-119.7326,39.1923,1431.00,41.00,35.60,80.93,320.00,7.00,0.00,30.25,M,9.00,M,BKN,OVC,M,M,2800.00,3600.00,M,M,-RA,M,M,M,M,M,M,35.75,KCXP 070255Z AUTO 32007KT 9SM -RA BKN028 OVC036 05/02 A3025 RMK AO2,M
RTS,2025-01-07 02:55,-119.8764,39.6682,1539.00,39.20,35.60,86.79,350.00,6.00,0.00,30.27,M,10.00,M,BKN,BKN,OVC,M,2200.00,2900.00,4600.00,M,M,M,M,M,M,M,M,34.20,KRTS 070255Z AUTO 35006KT 10SM BKN022 BKN029 OVC046 04/02 A3027 RMK AO2,M
BAM,2025-01-07 02:55,-116.8743,40.5990,1382.36,39.20,33.80,80.79,20.00,8.00,0.00,30.27,M,10.00,M,BKN,OVC,M,M,2400.00,2800.00,M,M,M,M,M,M,M,M,M,32.98,KBAM 070255Z AUTO 02008KT 10SM BKN024 OVC028 04/01 A3027 RMK AO1,M
HTH,2025-01-07 02:55,-118.6315,38.5448,1282.89,44.60,33.80,65.61,330.00,9.00,0.00,30.20,M,10.00,M,BKN,OVC,M,M,3200.00,4100.00,M,M,M,M,M,M,M,M,M,39.18,KHTH 070255Z AUTO 33009KT 10SM BKN032 OVC041 07/01 A3020 RMK A01,M
INS,2025-01-07 02:55,-115.6733,36.5872,955.00,47.70,19.20,31.90,0.00,0.00,0.00,30.04,1017.10,10.00,M,OVC,M,M,M,8500.00,M,M,M,M,M,M,M,M,M,M,47.70,KINS 070255Z AUTO 00000KT 10SM OVC085 09/M07 A3004 RMK AO2 SLP171 T00871071 53009,M
LSV,2025-01-07 02:55,-115.0343,36.2362,570.00,50.00,17.20,26.86,60.00,3.00,0.00,29.98,1015.50,10.00,M,CLR,M,M,M,M,M,M,M,M,M,M,M,M,M,M,50.00,KLSV 070255Z AUTO 06003KT 10SM CLR 10/M08 A2998 RMK AO2 SLP155 T00991082 53004 $,M
EKO,2025-01-07 02:56,-115.7860,40.8242,1367.00,35.00,31.00,85.17,40.00,6.00,0.00,30.23,1025.20,10.00,M,OVC,M,M,M,3000.00,M,M,M,M,M,M,M,M,M,M,29.14,KEKO 070256Z AUTO 04006KT 10SM OVC030 02/M01 A3023 RMK AO2 SLP252 60001 T00171006 53016,M
WMC,2025-01-07 02:56,-117.8072,40.9019,1315.00,36.00,31.00,81.86,340.00,11.00,0.00,30.28,1026.50,10.00,M,FEW,FEW,M,M,3400.00,6500.00,M,M,M,M,M,M,M,M,M,27.52,KWMC 070256Z AUTO 34011KT 10SM FEW034 FEW065 02/M01 A3028 RMK AO2 SLP265 60000 T00221006 51021,M
HND,2025-01-07 02:56,-115.1344,35.9729,742.79,48.00,21.00,34.05,180.00,5.00,0.00,30.04,1019.70,10.00,M,CLR,M,M,M,M,M,M,M,M,M,M,M,M,M,M,45.40,KHND 070256Z 18005KT 10SM CLR 09/M06 A3004 RMK AO2 SLP197 T00891061 51006 $,M
TPH,2025-01-07 02:56,-117.0904,38.0505,1654.00,40.00,31.00,69.97,320.00,20.00,0.00,30.12,1021.40,10.00,27.00,BKN,OVC,M,M,7000.00,11000.00,M,M,M,M,M,M,30.00,310.00,2025-01-07 02:37,29.76,KTPH 070256Z AUTO 32020G27KT 10SM BKN070 OVC110 04/M01 A3012 RMK AO2 PK WND 31030/0237 SLP214 T00441006 53009,M
LAS,2025-01-07 02:56,-115.1634,36.0719,663.00,55.00,23.00,28.61,230.00,3.00,0.00,30.03,1016.50,10.00,M,FEW,M,M,M,15000.00,M,M,M,M,M,M,M,M,M,M,55.00,KLAS 070256Z 23003KT 10SM FEW150 13/M05 A3003 RMK AO2 SLP165 T01281050 53004 $,M
NFL,2025-01-07 02:57,-118.7010,39.4166,1199.00,42.00,38.00,85.60,10.00,13.00,0.02,20.23,919.90,10.00,M,BKN,BKN,BKN,M,3000.00,4000.00,6000.00,M,M,M,M,M,M,M,M,34.38,KNFL 070257Z 01013KT 10SM BKN030 BKN040 BKN060 06/03 A2023 RMK RAE30 SLP199 P0002 60005 T00560033 53019,M
05U,2025-01-07 03:10,-116.0051,39.6042,1811.23,M,M,M,360.00,10.00,0.00,30.19,M,1.75,M,OVC,M,M,M,500.00,M,M,M,BR,M,M,M,M,M,M,M,K05U 070310Z AUTO 36010KT 1 3/4SM BR OVC005 A3019 RMK A01,M
TMT,2025-01-07 03:10,-117.1971,39.4643,1749.34,32.00,32.00,100.00,10.00,4.00,0.00,30.21,M,7.00,M,BKN,BKN,OVC,M,700.00,1200.00,3900.00,M,-SN,M,M,M,M,M,M,27.42,KTMT 070310Z AUTO 01004KT 7SM -SN BKN007 BKN012 OVC039 00/00 A3021 RMK AO2 T00010000,M
BVU,2025-01-07 03:15,-114.8611,35.9475,671.00,53.60,19.40,25.85,300.00,5.00,0.00,30.01,M,10.00,M,CLR,M,M,M,M,M,M,M,M,M,M,M,M,M,M,53.60,KBVU 070315Z AUTO 30005KT 10SM CLR 12/M07 A3001 RMK AO2,M
CXP,2025-01-07 03:15,-119.7326,39.1923,1431.00,41.00,35.60,80.93,80.00,8.00,0.00,30.26,M,10.00,M,BKN,OVC,M,M,2800.00,3400.00,M,M,M,M,M,M,M,M,M,35.20,KCXP 070315Z AUTO 08008KT 10SM BKN028 OVC034 05/02 A3026 RMK AO2,M
RTS,2025-01-07 03:15,-119.8764,39.6682,1539.00,37.40,35.60,93.14,360.00,14.00,0.00,30.28,M,10.00,M,SCT,BKN,OVC,M,2200.00,2900.00,8000.00,M,M,M,M,M,M,M,M,28.12,KRTS 070315Z AUTO 36014KT 10SM SCT022 BKN029 OVC080 03/02 A3028 RMK AO2,M
BAM,2025-01-07 03:15,-116.8743,40.5990,1382.36,37.40,32.00,80.65,330.00,13.00,0.00,30.27,M,10.00,M,BKN,BKN,OVC,M,2400.00,4500.00,7500.00,M,M,M,M,M,M,M,M,28.49,KBAM 070315Z AUTO 33013KT 10SM BKN024 BKN045 OVC075 03/00 A3027 RMK AO1,M
HTH,2025-01-07 03:15,-118.6315,38.5448,1282.89,42.80,37.40,81.07,360.00,19.00,0.00,30.21,M,7.00,25.00,FEW,BKN,OVC,M,2600.00,3200.00,4200.00,M,M,M,M,M,M,M,M,33.72,KHTH 070315Z AUTO 36019G25KT 7SM FEW026 BKN032 OVC042 06/03 A3021 RMK A01,M
05U,2025-01-07 03:30,-116.0051,39.6042,1811.23,M,M,M,360.00,10.00,0.00,30.19,M,1.50,M,OVC,M,M,M,500.00,M,M,M,BR,M,M,M,M,M,M,M,K05U 070330Z AUTO 36010KT 1 1/2SM BR OVC005 A3019 RMK A01,M
TMT,2025-01-07 03:30,-117.1971,39.4643,1749.34,32.00,32.00,100.00,360.00,5.00,0.00,30.21,M,10.00,M,BKN,OVC,M,M,700.00,1200.00,M,M,-SN,M,M,M,M,M,M,26.40,KTMT 070330Z AUTO 36005KT 10SM -SN BKN007 OVC012 00/00 A3021 RMK AO2 T00010000,M
ELY,2025-01-07 03:34,-114.8453,39.2950,1909.00,31.00,29.00,92.19,10.00,15.00,0.00,30.14,M,6.00,M,OVC,M,M,M,400.00,M,M,M,BR,M,M,M,M,M,M,19.48,KELY 070334Z AUTO 01015KT 6SM BR OVC004 M01/M02 A3014 RMK AO2 T10061017,M
BVU,2025-01-07 03:35,-114.8611,35.9475,671.00,51.80,19.40,27.62,330.00,5.00,0.00,30.01,M,10.00,M,CLR,M,M,M,M,M,M,M,M,M,M,M,M,M,M,51.80,KBVU 070335Z AUTO 33005KT 10SM CLR 11/M07 A3001 RMK AO2,M
BAM,2025-01-07 03:35,-116.8743,40.5990,1382.36,37.40,32.00,80.65,320.00,12.00,0.00,30.28,M,10.00,15.00,SCT,SCT,OVC,M,2800.00,4900.00,7500.00,M,M,M,M,M,M,M,M,28.87,KBAM 070335Z AUTO 32012G15KT 10SM SCT028 SCT049 OVC075 03/00 A3028 RMK AO1,M
CXP,2025-01-07 03:35,-119.7326,39.1923,1431.00,41.00,35.60,80.93,60.00,11.00,0.00,30.26,M,3.00,17.00,FEW,SCT,BKN,M,1300.00,2200.00,2600.00,M,-RA BR,M,M,M,M,M,M,33.84,KCXP 070335Z AUTO 06011G17KT 3SM -RA BR FEW013 SCT022 BKN026 05/02 A3026 RMK AO2,M
RTS,2025-01-07 03:35,-119.8764,39.6682,1539.00,37.40,33.80,86.69,10.00,9.00,0.00,30.29,M,8.00,M,FEW,BKN,OVC,M,1800.00,2500.00,3100.00,M,+UP,M,M,M,M,M,M,30.23,KRTS 070335Z AUTO 01009KT 8SM +UP FEW018 BKN025 OVC031 03/01 A3029 RMK AO2,M
HTH,2025-01-07 03:35,-118.6315,38.5448,1282.89,41.00,37.40,86.89,340.00,12.00,0.00,30.23,M,4.00,M,OVC,M,M,M,2800.00,M,M,M,BR,M,M,M,M,M,M,33.46,KHTH 070335Z AUTO 34012KT 4SM BR OVC028 05/03 A3023 RMK A01,M
05U,2025-01-07 03:50,-116.0051,39.6042,1811.23,M,M,M,360.00,12.00,0.00,30.20,M,2.50,M,OVC,M,M,M,500.00,M,M,M,BR,M,M,M,M,M,M,M,K05U 070350Z AUTO 36012KT 2 1/2SM BR OVC005 A3020 RMK A01,M
TMT,2025-01-07 03:50,-117.1971,39.4643,1749.34,32.00,32.00,100.00,360.00,13.00,0.00,30.22,M,10.00,16.00,SCT,BKN,OVC,M,900.00,3300.00,4000.00,M,-SN,M,M,M,M,M,M,21.57,KTMT 070350Z AUTO 36013G16KT 10SM -SN SCT009 BKN033 OVC040 00/00 A3022 RMK AO2 T00001001,M
P68,2025-01-07 03:53,-116.0056,39.6014,1993.00,32.00,M,M,360.00,15.00,0.01,30.17,1021.80,M,24.00,M,M,M,M,M,M,M,M,M,M,M,M,M,M,M,M,KP68 070353Z AUTO 36015G24KT 00/ A3017 RMK AO1 SLP218 P0001 T0000 $,M
DRA,2025-01-07 03:53,-116.0278,36.6206,1009.00,52.00,27.00,37.72,30.00,11.00,0.00,30.02,1015.50,10.00,M,OVC,M,M,M,10000.00,M,M,M,M,M,M,M,M,M,M,52.00,KDRA 070353Z AUTO 03011KT 10SM OVC100 11/M03 A3002 RMK AO2 SLP155 T01111028,M
ELY,2025-01-07 03:53,-114.8453,39.2950,1909.00,31.00,29.00,92.19,20.00,15.00,T,30.14,1021.10,4.00,M,OVC,M,M,M,400.00,M,M,M,-SN BR,M,M,M,M,M,M,19.48,KELY 070353Z AUTO 02015KT 4SM -SN BR OVC004 M01/M02 A3014 RMK AO2 SNB48 SLP211 P0000 T10061017,M
VGT,2025-01-07 03:53,-115.1933,36.2111,667.00,50.00,26.00,38.97,290.00,6.00,0.00,30.01,1018.20,10.00,M,CLR,M,M,M,M,M,M,M,M,M,M,M,M,M,M,50.00,KVGT 070353Z 29006KT 10SM CLR 10/M03 A3001 RMK AO2 SLP182 T01001033,M
LOL,2025-01-07 03:53,-118.5701,40.0684,1192.43,39.00,30.00,69.85,20.00,17.00,0.00,30.27,1026.40,10.00,25.00,FEW,M,M,M,10000.00,M,M,M,M,M,M,M,28.00,10.00,2025-01-07 03:37,29.25,KLOL 070353Z AUTO 02017G25KT 10SM FEW100 04/M01 A3027 RMK AO2 PK WND 01028/0337 SLP264 T00391011,M
BVU,2025-01-07 03:55,-114.8611,35.9475,671.00,50.00,19.40,29.52,240.00,6.00,0.00,30.01,M,10.00,M,CLR,M,M,M,M,M,M,M,M,M,M,M,M,M,M,50.00,KBVU 070355Z AUTO 24006KT 10SM CLR 10/M07 A3001 RMK AO2,M
RNO,2025-01-07 03:55,-119.7711,39.4839,1341.00,41.00,36.00,82.22,50.00,8.00,0.01,30.28,1025.50,10.00,M,BKN,M,M,M,3500.00,M,M,M,M,M,M,M,M,M,M,35.20,KRNO 070355Z 05008KT 10SM BKN035 05/02 A3028 RMK AO2 RAB18E47 SLP255 P0001 T00500022,M
LSV,2025-01-07 03:55,-115.0343,36.2362,570.00,47.50,17.00,29.24,50.00,5.00,0.00,29.98,1015.30,10.00,M,CLR,M,M,M,M,M,M,M,M,M,M,M,M,M,M,44.80,KLSV 070355Z AUTO 05005KT 10SM CLR 09/M08 A2998 RMK AO2 SLP153 T00861084 $,M
CXP,2025-01-07 03:55,-119.7326,39.1923,1431.00,39.20,35.60,86.79,60.00,14.00,0.01,30.27,M,8.00,20.00,FEW,BKN,OVC,M,1400.00,3000.00,3600.00,M,-RA,M,M,M,M,M,M,30.44,KCXP 070355Z AUTO 06014G20KT 8SM -RA FEW014 BKN030 OVC036 04/02 A3027 RMK AO2 P0001,M
RTS,2025-01-07 03:55,-119.8764,39.6682,1539.00,37.40,33.80,86.69,360.00,11.00,0.00,30.29,M,10.00,M,BKN,BKN,M,M,2000.00,2600.00,M,M,M,M,M,M,M,M,M,29.29,KRTS 070355Z AUTO 36011KT 10SM BKN020 BKN026 03/01 A3029 RMK AO2,M
BAM,2025-01-07 03:55,-116.8743,40.5990,1382.36,37.40,30.20,74.98,30.00,6.00,0.00,30.29,M,10.00,M,SCT,SCT,OVC,M,3000.00,6000.00,8500.00,M,M,M,M,M,M,M,M,32.03,KBAM 070355Z AUTO 03006KT 10SM SCT030 SCT060 OVC085 03/M01 A3029 RMK AO1,M
HTH,2025-01-07 03:55,-118.6315,38.5448,1282.89,41.00,39.20,93.24,320.00,13.00,0.01,30.23,M,10.00,M,FEW,SCT,OVC,M,1500.00,2100.00,2700.00,M,M,M,M,M,M,M,M,33.10,KHTH 070355Z AUTO 32013KT 10SM FEW015 SCT021 OVC027 05/04 A3023 RMK A01 P0001,M
INS,2025-01-07 03:55,-115.6733,36.5872,955.00,49.30,21.40,32.99,0.00,0.00,0.00,30.03,1016.30,10.00,M,SCT,M,M,M,9000.00,M,M,M,M,M,M,M,M,M,M,49.30,KINS 070355Z AUTO 00000KT 10SM SCT090 10/M06 A3003 RMK AO2 SLP163 T00961059,M
EKO,2025-01-07 03:56,-115.7860,40.8242,1367.00,34.00,29.00,81.71,50.00,6.00,0.00,30.25,1026.00,10.00,M,OVC,M,M,M,3400.00,M,M,M,M,M,M,M,M,M,M,27.94,KEKO 070356Z AUTO 05006KT 10SM OVC034 01/M02 A3025 RMK AO2 SLP260 T00111017,M
WMC,2025-01-07 03:56,-117.8072,40.9019,1315.00,35.00,30.00,81.78,360.00,7.00,0.00,30.31,1027.30,10.00,M,CLR,M,M,M,M,M,M,M,M,M,M,M,M,M,M,28.44,KWMC 070356Z AUTO 36007KT 10SM CLR 02/M01 A3031 RMK AO2 SLP273 T00171011,M
HND,2025-01-07 03:56,-115.1344,35.9729,742.79,47.00,22.00,36.89,160.00,5.00,0.00,30.04,1019.40,10.00,M,CLR,M,M,M,M,M,M,M,M,M,M,M,M,M,M,44.21,KHND 070356Z 16005KT 10SM CLR 08/M06 A3004 RMK AO2 SLP194 T00831056 $,M
TPH,2025-01-07 03:56,-117.0904,38.0505,1654.00,40.00,31.00,69.97,310.00,20.00,T,30.12,1020.90,10.00,29.00,OVC,M,M,M,7000.00,M,M,M,M,M,M,M,29.00,300.00,2025-01-07 03:21,29.76,KTPH 070356Z AUTO 31020G29KT 10SM OVC070 04/M01 A3012 RMK AO2 PK WND 30029/0321 RAB19E30 SLP209 P0000 T00441006,M
LAS,2025-01-07 03:56,-115.1634,36.0719,663.00,52.00,23.00,31.93,210.00,5.00,0.00,30.02,1016.40,10.00,M,M,M,M,M,M,M,M,M,M,M,M,M,M,M,M,52.00,KLAS 070356Z AUTO 21005KT 10SM 11/M05 A3002 RMK AO2 SLP164 T01111050 $,M
NFL,2025-01-07 03:57,-118.7010,39.4166,1199.00,41.00,35.00,79.02,10.00,17.00,0.00,30.25,1020.60,10.00,M,BKN,BKN,M,M,3500.00,6000.00,M,M,M,M,M,M,31.00,350.00,2025-01-07 03:15,31.87,KNFL 070357Z 01017KT 10SM BKN035 BKN060 05/02 A3025 RMK AO2 PK WND 35031/0315 SLP206 T00500017 $,M
LAS,2025-01-07 04:02,-115.1634,36.0719,663.00,52.00,23.00,31.93,220.00,5.00,0.00,30.02,M,10.00,M,SCT,M,M,M,15000.00,M,M,M,M,M,M,M,M,M,M,52.00,KLAS 070402Z 22005KT 10SM SCT150 11/M05 A3002 RMK AO2 T01111050 $,M
ELY,2025-01-07 04:04,-114.8453,39.2950,1909.00,31.00,29.00,92.19,20.00,14.00,T,30.14,M,1.75,M,OVC,M,M,M,400.00,M,M,M,-SN BR,M,M,M,M,M,M,19.87,KELY 070404Z AUTO 02014KT 1 3/4SM -SN BR OVC004 M01/M02 A3014 RMK AO2 P0000 T10061017,M
05U,2025-01-07 04:10,-116.0051,39.6042,1811.23,M,M,M,360.00,11.00,0.00,30.20,M,2.00,M,OVC,M,M,M,500.00,M,M,M,BR,M,M,M,M,M,M,M,K05U 070410Z AUTO 36011KT 2SM BR OVC005 A3020 RMK A01,M
TMT,2025-01-07 04:10,-117.1971,39.4643,1749.34,32.00,32.00,100.00,360.00,11.00,0.00,30.22,M,10.00,M,SCT,BKN,OVC,M,3800.00,4400.00,9500.00,M,M,M,M,M,M,M,M,22.47,KTMT 070410Z AUTO 36011KT 10SM SCT038 BKN044 OVC095 00/00 A3022 RMK AO2 T00001001,M
BVU,2025-01-07 04:15,-114.8611,35.9475,671.00,48.20,17.60,29.23,310.00,4.00,0.00,30.01,M,10.00,M,CLR,M,M,M,M,M,M,M,M,M,M,M,M,M,M,46.34,KBVU 070415Z AUTO 31004KT 10SM CLR 09/M08 A3001 RMK AO2,M
CXP,2025-01-07 04:15,-119.7326,39.1923,1431.00,39.20,33.80,80.79,30.00,10.00,0.00,30.27,M,10.00,16.00,FEW,BKN,OVC,M,400.00,2900.00,8000.00,M,-RA,M,M,M,M,M,M,32.00,KCXP 070415Z AUTO 03010G16KT 10SM -RA FEW004 BKN029 OVC080 04/01 A3027 RMK AO2,M
RTS,2025-01-07 04:15,-119.8764,39.6682,1539.00,35.60,33.80,93.08,350.00,10.00,0.00,30.29,M,10.00,M,BKN,BKN,M,M,1900.00,2600.00,M,M,-DZ,M,M,M,M,M,M,27.48,KRTS 070415Z AUTO 35010KT 10SM -DZ BKN019 BKN026 02/01 A3029 RMK AO2,M
BAM,2025-01-07 04:15,-116.8743,40.5990,1382.36,35.60,32.00,86.59,90.00,6.00,0.00,30.29,M,10.00,M,SCT,SCT,OVC,M,4800.00,5000.00,8500.00,M,M,M,M,M,M,M,M,29.87,KBAM 070415Z AUTO 09006KT 10SM SCT048 SCT050 OVC085 02/00 A3029 RMK AO1,M
HTH,2025-01-07 04:15,-118.6315,38.5448,1282.89,41.00,39.20,93.24,330.00,12.00,0.00,30.24,M,10.00,17.00,FEW,BKN,OVC,M,1600.00,2100.00,5000.00,M,M,M,M,M,M,M,M,33.46,KHTH 070415Z AUTO 33012G17KT 10SM FEW016 BKN021 OVC050 05/04 A3024 RMK A01,M
ELY,2025-01-07 04:22,-114.8453,39.2950,1909.00,31.00,29.00,92.19,10.00,11.00,0.01,30.15,M,2.50,M,OVC,M,M,M,400.00,M,M,M,-SN BR,M,M,M,M,M,M,21.20,KELY 070422Z AUTO 01011KT 2 1/2SM -SN BR OVC004 M01/M02 A3015 RMK AO2 P0001 T10061017,M
ELY,2025-01-07 04:29,-114.8453,39.2950,1909.00,31.00,29.00,92.19,10.00,13.00,0.01,30.15,M,3.00,M,OVC,M,M,M,400.00,M,M,M,-SN BR,M,M,M,M,M,M,20.29,KELY 070429Z AUTO 01013KT 3SM -SN BR OVC004 M01/M02 A3015 RMK AO2 P0001 T10061017,M
RNO,2025-01-07 04:29,-119.7711,39.4839,1341.00,40.00,35.00,82.15,20.00,11.00,T,30.30,M,8.00,M,OVC,M,M,M,2500.00,M,M,M,-RA,M,M,M,M,M,M,32.58,KRNO 070429Z 02011KT 8SM -RA OVC025 04/02 A3030 RMK AO2 RAB16 P0000 T00440017,M
05U,2025-01-07 04:30,-116.0051,39.6042,1811.23,M,M,M,360.00,12.00,0.00,30.21,M,1.50,M,OVC,M,M,M,500.00,M,M,M,BR,M,M,M,M,M,M,M,K05U 070430Z AUTO 36012KT 1 1/2SM BR OVC005 A3021 RMK A01,M
TMT,2025-01-07 04:30,-117.1971,39.4643,1749.34,32.00,32.00,100.00,360.00,13.00,0.00,30.23,M,7.00,M,SCT,BKN,OVC,M,700.00,4800.00,6000.00,M,M,M,M,M,M,M,M,21.57,KTMT 070430Z AUTO 36013KT 7SM SCT007 BKN048 OVC060 00/00 A3023 RMK AO2 T00000000,M
BVU,2025-01-07 04:35,-114.8611,35.9475,671.00,50.00,19.40,29.52,320.00,5.00,0.00,30.01,M,10.00,M,CLR,M,M,M,M,M,M,M,M,M,M,M,M,M,M,50.00,KBVU 070435Z AUTO 32005KT 10SM CLR 10/M07 A3001 RMK AO2,M
BAM,2025-01-07 04:35,-116.8743,40.5990,1382.36,35.60,30.20,80.51,90.00,6.00,0.00,30.31,M,10.00,M,BKN,BKN,BKN,M,4100.00,5000.00,8500.00,M,M,M,M,M,M,M,M,29.87,KBAM 070435Z AUTO 09006KT 10SM BKN041 BKN050 BKN085 02/M01 A3031 RMK AO1,M
CXP,2025-01-07 04:35,-119.7326,39.1923,1431.00,39.20,33.80,80.79,40.00,6.00,0.00,30.29,M,10.00,M,SCT,BKN,BKN,M,2900.00,3800.00,4600.00,M,M,M,M,M,M,M,M,34.20,KCXP 070435Z AUTO 04006KT 10SM SCT029 BKN038 BKN046 04/01 A3029 RMK AO2,M
RTS,2025-01-07 04:35,-119.8764,39.6682,1539.00,37.40,33.80,86.69,10.00,13.00,0.00,30.31,M,10.00,21.00,FEW,SCT,BKN,M,1900.00,4700.00,7500.00,M,-DZ,M,M,M,M,M,M,28.49,KRTS 070435Z AUTO 01013G21KT 10SM -DZ FEW019 SCT047 BKN075 03/01 A3031 RMK AO2,M
HTH,2025-01-07 04:35,-118.6315,38.5448,1282.89,41.00,37.40,86.89,330.00,17.00,0.00,30.25,M,10.00,24.00,SCT,OVC,M,M,1900.00,2500.00,M,M,M,M,M,M,M,M,M,31.87,KHTH 070435Z AUTO 33017G24KT 10SM SCT019 OVC025 05/03 A3025 RMK A01,M
ELY,2025-01-07 04:38,-114.8453,39.2950,1909.00,31.00,29.00,92.19,10.00,13.00,0.01,30.15,M,5.00,21.00,OVC,M,M,M,500.00,M,M,M,BR,M,M,M,M,M,M,20.29,KELY 070438Z AUTO 01013G21KT 5SM BR OVC005 M01/M02 A3015 RMK AO2 SNE38 P0001 T10061017,M
05U,2025-01-07 04:50,-116.0051,39.6042,1811.23,M,M,M,350.00,11.00,0.00,30.22,M,1.75,M,OVC,M,M,M,600.00,M,M,M,BR,M,M,M,M,M,M,M,K05U 070450Z AUTO 35011KT 1 3/4SM BR OVC006 A3022 RMK A01,M
CXP,2025-01-07 04:50,-119.7326,39.1923,1431.00,39.20,33.80,80.79,60.00,8.00,0.00,30.30,M,8.00,M,FEW,BKN,OVC,M,1800.00,3100.00,8500.00,M,-RA,M,M,M,M,M,M,32.98,KCXP 070450Z AUTO 06008KT 8SM -RA FEW018 BKN031 OVC085 04/01 A3030 RMK AO2,M
TMT,2025-01-07 04:50,-117.1971,39.4643,1749.34,32.00,32.00,100.00,360.00,13.00,0.00,30.24,M,10.00,16.00,BKN,BKN,OVC,M,700.00,3200.00,5000.00,M,M,M,M,M,M,M,M,21.57,KTMT 070450Z AUTO 36013G16KT 10SM BKN007 BKN032 OVC050 00/00 A3024 RMK AO2 T00001001,M
P68,2025-01-07 04:53,-116.0056,39.6014,1993.00,31.00,M,M,350.00,15.00,0.01,30.20,1022.70,M,23.00,M,M,M,M,M,M,M,M,M,M,M,M,M,M,M,M,KP68 070453Z AUTO 35015G23KT M01/ A3020 RMK AO1 SLP227 P0001 T1006 $,M
DRA,2025-01-07 04:53,-116.0278,36.6206,1009.00,50.00,27.00,40.62,40.00,10.00,0.00,30.03,1015.20,10.00,M,CLR,M,M,M,M,M,M,M,M,M,M,M,M,M,M,50.00,KDRA 070453Z AUTO 04010KT 10SM CLR 10/M03 A3003 RMK AO2 SLP152 T01001028,M
ELY,2025-01-07 04:53,-114.8453,39.2950,1909.00,31.00,28.00,88.48,10.00,13.00,0.01,30.16,1021.40,10.00,M,OVC,M,M,M,500.00,M,M,M,M,M,M,M,M,M,M,20.29,KELY 070453Z AUTO 01013KT 10SM OVC005 M01/M02 A3016 RMK AO2 SNE38 SLP214 P0001 T10061022,M
VGT,2025-01-07 04:53,-115.1933,36.2111,667.00,49.00,26.00,40.45,290.00,4.00,0.00,30.01,1018.10,10.00,M,CLR,M,M,M,M,M,M,M,M,M,M,M,M,M,M,47.27,KVGT 070453Z AUTO 29004KT 10SM CLR 09/M03 A3001 RMK AO2 SLP181 T00941033,M
LOL,2025-01-07 04:53,-118.5701,40.0684,1192.43,37.00,30.00,75.56,30.00,15.00,0.00,30.31,1027.60,10.00,21.00,CLR,M,M,M,M,M,M,M,M,M,M,M,29.00,20.00,2025-01-07 04:23,27.26,KLOL 070453Z AUTO 03015G21KT 10SM CLR 03/M01 A3031 RMK AO2 PK WND 02029/0423 SLP276 T00281011,M
BVU,2025-01-07 04:55,-114.8611,35.9475,671.00,48.20,19.40,31.57,0.00,0.00,0.00,30.00,M,10.00,M,CLR,M,M,M,M,M,M,M,M,M,M,M,M,M,M,48.20,KBVU 070455Z AUTO 00000KT 10SM CLR 09/M07 A3000 RMK AO2,M
RNO,2025-01-07 04:55,-119.7711,39.4839,1341.00,39.00,34.00,82.08,30.00,11.00,0.02,30.31,1026.30,10.00,19.00,OVC,M,M,M,2900.00,M,M,M,-RA,M,M,M,M,M,M,31.31,KRNO 070455Z 03011G19KT 10SM -RA OVC029 04/01 A3031 RMK AO2 RAB16 SLP263 P0002 T00390011,M
RTS,2025-01-07 04:55,-119.8764,39.6682,1539.00,35.60,33.80,93.08,320.00,5.00,0.00,30.32,M,10.00,12.00,FEW,BKN,OVC,M,2900.00,3800.00,7500.00,M,M,M,M,M,M,M,M,30.67,KRTS 070455Z AUTO 32005G12KT 10SM FEW029 BKN038 OVC075 02/01 A3032 RMK AO2,M
BAM,2025-01-07 04:55,-116.8743,40.5990,1382.36,37.40,30.20,74.98,80.00,8.00,0.00,30.31,M,10.00,14.00,BKN,BKN,OVC,M,3900.00,5500.00,7500.00,M,M,M,M,M,M,M,M,30.76,KBAM 070455Z AUTO 08008G14KT 10SM BKN039 BKN055 OVC075 03/M01 A3031 RMK AO1,M
HTH,2025-01-07 04:55,-118.6315,38.5448,1282.89,41.00,37.40,86.89,340.00,19.00,0.00,30.25,M,10.00,24.00,FEW,BKN,OVC,M,1900.00,2600.00,3000.00,M,M,M,M,M,M,M,M,31.34,KHTH 070455Z AUTO 34019G24KT 10SM FEW019 BKN026 OVC030 05/03 A3025 RMK A01,M
INS,2025-01-07 04:55,-115.6733,36.5872,955.00,42.00,19.00,39.29,290.00,5.00,0.00,30.02,1016.00,10.00,M,CLR,M,M,M,M,M,M,M,M,M,M,M,M,M,M,38.27,KINS 070455Z AUTO 29005KT 10SM CLR 06/M07 A3002 RMK AO2 SLP160 T00561073,M
LSV,2025-01-07 04:55,-115.0343,36.2362,570.00,44.80,17.40,32.95,60.00,6.00,0.00,29.98,1015.20,10.00,M,CLR,M,M,M,M,M,M,M,M,M,M,M,M,M,M,40.95,KLSV 070455Z AUTO 06006KT 10SM CLR 07/M08 A2998 RMK AO2 SLP152 T00711081 $,M
EKO,2025-01-07 04:56,-115.7860,40.8242,1367.00,34.00,26.00,72.22,30.00,11.00,0.00,30.26,1026.50,10.00,M,SCT,M,M,M,3400.00,M,M,M,M,M,M,M,M,M,M,24.99,KEKO 070456Z AUTO 03011KT 10SM SCT034 01/M03 A3026 RMK AO2 SLP265 T00111033,M
WMC,2025-01-07 04:56,-117.8072,40.9019,1315.00,36.00,28.00,72.43,20.00,9.00,0.00,30.34,1028.10,10.00,18.00,CLR,M,M,M,M,M,M,M,M,M,M,M,M,M,M,28.49,KWMC 070456Z AUTO 02009G18KT 10SM CLR 02/M02 A3034 RMK AO2 SLP281 T00221022,M
HND,2025-01-07 04:56,-115.1344,35.9729,742.79,45.00,22.00,39.79,190.00,4.00,0.00,30.03,1019.00,10.00,M,CLR,M,M,M,M,M,M,M,M,M,M,M,M,M,M,42.60,KHND 070456Z AUTO 19004KT 10SM CLR 07/M06 A3003 RMK AO2 SLP190 T00721056 $,M
TPH,2025-01-07 04:56,-117.0904,38.0505,1654.00,40.00,31.00,69.97,360.00,14.00,T,30.14,1020.90,10.00,M,OVC,M,M,M,4600.00,M,M,M,-RA,M,M,M,29.00,310.00,2025-01-07 03:58,31.47,KTPH 070456Z AUTO 36014KT 10SM -RA OVC046 04/M01 A3014 RMK AO2 PK WND 31029/0358 RAB45 SLP209 P0000 T00441006,M
LAS,2025-01-07 04:56,-115.1634,36.0719,663.00,50.00,23.00,34.39,0.00,0.00,0.00,30.02,1016.40,10.00,M,SCT,M,M,M,15000.00,M,M,M,M,M,M,M,M,M,M,50.00,KLAS 070456Z 00000KT 10SM SCT150 10/M05 A3002 RMK AO2 SLP164 T01001050 $,M
NFL,2025-01-07 04:57,-118.7010,39.4166,1199.00,39.00,32.00,75.75,10.00,16.00,0.00,30.27,1021.10,10.00,25.00,SCT,SCT,M,M,3500.00,6000.00,M,M,M,M,M,M,27.00,360.00,2025-01-07 04:14,29.54,KNFL 070457Z 01016G25KT 10SM SCT035 SCT060 04/00 A3027 RMK AO2 PK WND 36027/0414 SLP211 T00390000 $,M
RTS,2025-01-07 05:05,-119.8764,39.6682,1539.00,35.60,32.00,86.59,340.00,5.00,0.00,30.33,M,10.00,11.00,FEW,SCT,BKN,M,2700.00,3600.00,5000.00,M,M,M,M,M,M,M,M,30.67,KRTS 070505Z AUTO 34005G11KT 10SM FEW027 SCT036 BKN050 02/00 A3033 RMK AO2,M
05U,2025-01-07 05:10,-116.0051,39.6042,1811.23,M,M,M,350.00,11.00,0.00,30.23,M,2.00,M,BKN,OVC,M,M,700.00,2400.00,M,M,BR,M,M,M,M,M,M,M,K05U 070510Z AUTO 35011KT 2SM BR BKN007 OVC024 A3023 RMK A01,M
TMT,2025-01-07 05:10,-117.1971,39.4643,1749.34,32.00,31.50,98.00,360.00,14.00,0.00,30.25,M,10.00,18.00,SCT,OVC,M,M,700.00,6000.00,M,M,M,M,M,M,M,M,M,21.16,KTMT 070510Z AUTO 36014G18KT 10SM SCT007 OVC060 00/00 A3025 RMK AO2 T00001003,M
BVU,2025-01-07 05:15,-114.8611,35.9475,671.00,46.40,21.20,36.48,0.00,0.00,0.00,30.00,M,10.00,M,CLR,M,M,M,M,M,M,M,M,M,M,M,M,M,M,46.40,KBVU 070515Z AUTO 00000KT 10SM CLR 08/M06 A3000 RMK AO2,M
CXP,2025-01-07 05:15,-119.7326,39.1923,1431.00,41.00,32.00,70.08,50.00,8.00,0.00,30.32,M,10.00,14.00,FEW,SCT,BKN,M,2900.00,3600.00,6000.00,M,M,M,M,M,M,M,M,35.20,KCXP 070515Z AUTO 05008G14KT 10SM FEW029 SCT036 BKN060 05/M00 A3032 RMK AO2,M
BAM,2025-01-07 05:15,-116.8743,40.5990,1382.36,35.60,30.20,80.51,10.00,3.00,0.00,30.32,M,10.00,M,SCT,SCT,OVC,M,3900.00,6500.00,7500.00,M,M,M,M,M,M,M,M,32.80,KBAM 070515Z AUTO 01003KT 10SM SCT039 SCT065 OVC075 02/M01 A3032 RMK AO1,M
HTH,2025-01-07 05:15,-118.6315,38.5448,1282.89,41.00,35.60,80.93,340.00,23.00,0.00,30.26,M,10.00,29.00,BKN,OVC,M,M,2300.00,2800.00,M,M,M,M,M,M,M,M,M,30.41,KHTH 070515Z AUTO 34023G29KT 10SM BKN023 OVC028 05/02 A3026 RMK A01,M
RNO,2025-01-07 05:25,-119.7711,39.4839,1341.00,40.00,34.00,78.94,20.00,9.00,T,30.33,M,10.00,18.00,SCT,BKN,M,M,3600.00,6000.00,M,M,M,M,M,M,M,M,M,33.46,KRNO 070525Z 02009G18KT 10SM SCT036 BKN060 04/01 A3033 RMK AO2 RAE11 P0000 T00440011,M
05U,2025-01-07 05:30,-116.0051,39.6042,1811.23,M,M,M,350.00,9.00,0.00,30.24,M,2.50,M,FEW,FEW,OVC,M,300.00,700.00,2100.00,M,BR,M,M,M,M,M,M,M,K05U 070530Z AUTO 35009KT 2 1/2SM BR FEW003 FEW007 OVC021 A3024 RMK A01,M
TMT,2025-01-07 05:30,-117.1971,39.4643,1749.34,32.00,31.00,96.04,360.00,14.00,0.00,30.25,M,10.00,18.00,SCT,SCT,OVC,M,700.00,3300.00,5000.00,M,M,M,M,M,M,M,M,21.16,KTMT 070530Z AUTO 36014G18KT 10SM SCT007 SCT033 OVC050 00/00 A3025 RMK AO2 T00001005,M
BVU,2025-01-07 05:35,-114.8611,35.9475,671.00,53.60,19.40,25.85,10.00,5.00,0.00,30.00,M,10.00,M,CLR,M,M,M,M,M,M,M,M,M,M,M,M,M,M,53.60,KBVU 070535Z AUTO 01005KT 10SM CLR 12/M07 A3000 RMK AO2,M
CXP,2025-01-07 05:35,-119.7326,39.1923,1431.00,39.20,32.00,75.16,70.00,5.00,0.00,30.33,M,10.00,11.00,BKN,OVC,M,M,3500.00,4600.00,M,M,M,M,M,M,M,M,M,34.95,KCXP 070535Z AUTO 07005G11KT 10SM BKN035 OVC046 04/00 A3033 RMK AO2,M
BAM,2025-01-07 05:35,-116.8743,40.5990,1382.36,37.40,28.40,69.67,340.00,7.00,0.00,30.33,M,10.00,15.00,SCT,M,M,M,7500.00,M,M,M,M,M,M,M,M,M,M,31.36,KBAM 070535Z AUTO 34007G15KT 300V020 10SM SCT075 03/M02 A3033 RMK AO1,M
HTH,2025-01-07 05:35,-118.6315,38.5448,1282.89,39.20,33.80,80.79,340.00,21.00,0.00,30.26,M,10.00,27.00,SCT,BKN,OVC,M,2700.00,6000.00,10000.00,M,M,M,M,M,M,M,M,28.46,KHTH 070535Z AUTO 34021G27KT 10SM SCT027 BKN060 OVC100 04/01 A3026 RMK A01,M
05U,2025-01-07 05:50,-116.0051,39.6042,1811.23,M,M,M,350.00,9.00,0.00,30.24,M,2.00,M,FEW,OVC,M,M,1100.00,2200.00,M,M,BR,M,M,M,M,M,M,M,K05U 070550Z AUTO 35009KT 2SM BR FEW011 OVC022 A3024 RMK A01,M
TMT,2025-01-07 05:50,-117.1971,39.4643,1749.34,31.60,30.70,96.42,360.00,15.00,0.00,30.25,M,10.00,M,SCT,OVC,M,M,5000.00,10000.00,M,M,M,M,M,M,M,M,M,20.26,KTMT 070550Z AUTO 36015KT 10SM SCT050 OVC100 00/M01 A3025 RMK AO2 T10021007,M
P68,2025-01-07 05:53,-116.0056,39.6014,1993.00,30.00,M,M,350.00,11.00,0.01,30.22,1023.40,M,19.00,M,M,M,M,M,M,M,M,M,M,M,M,M,M,M,M,KP68 070553Z AUTO 35011G19KT M01/ A3022 RMK AO1 SLP234 P0001 60015 T1011 10006 21011 53018 $,M
DRA,2025-01-07 05:53,-116.0278,36.6206,1009.00,50.00,27.00,40.62,20.00,12.00,0.00,30.04,1015.00,10.00,M,BKN,M,M,M,10000.00,M,M,M,M,M,M,M,M,M,M,50.00,KDRA 070553Z AUTO 02012KT 10SM BKN100 10/M03 A3004 RMK AO2 SLP150 T01001028 10150 20094 53002,M
ELY,2025-01-07 05:53,-114.8453,39.2950,1909.00,30.00,27.00,88.44,20.00,14.00,0.00,30.18,1021.80,10.00,23.00,OVC,M,M,M,700.00,M,M,M,M,M,M,M,M,M,M,18.58,KELY 070553Z AUTO 02014G23KT 10SM OVC007 M01/M03 A3018 RMK AO2 SLP218 60001 T10111028 10028 21011 53014,M
VGT,2025-01-07 05:53,-115.1933,36.2111,667.00,46.00,24.00,41.67,0.00,0.00,0.00,30.02,1018.50,10.00,M,CLR,M,M,M,M,M,M,M,M,M,M,M,M,M,M,46.00,KVGT 070553Z AUTO 00000KT 10SM CLR 08/M04 A3002 RMK AO2 SLP185 T00781044 10156 20072 53001,M
LOL,2025-01-07 05:53,-118.5701,40.0684,1192.43,39.00,29.00,67.06,20.00,17.00,0.00,30.32,1027.70,10.00,27.00,CLR,M,M,M,M,M,M,M,M,M,M,M,33.00,30.00,2025-01-07 05:08,29.25,KLOL 070553Z AUTO 02017G27KT 10SM CLR 04/M02 A3032 RMK AO2 PK WND 03033/0508 SLP277 60000 T00391017 10056 20028 51019,M
BVU,2025-01-07 05:55,-114.8611,35.9475,671.00,48.20,21.20,34.09,30.00,5.00,0.00,30.01,M,10.00,M,CLR,M,M,M,M,M,M,M,M,M,M,M,M,M,M,45.63,KBVU 070555Z AUTO 03005KT 10SM CLR 09/M06 A3001 RMK AO2,M
RNO,2025-01-07 05:55,-119.7711,39.4839,1341.00,40.00,30.00,67.18,50.00,11.00,T,30.35,1027.20,10.00,19.00,BKN,M,M,M,6500.00,M,M,M,M,M,M,M,M,M,M,32.58,KRNO 070555Z 05011G19KT 10SM BKN065 04/M01 A3035 RMK AO2 RAE11 SLP272 P0000 60007 T00441011 10089 20039 53028,M
CXP,2025-01-07 05:55,-119.7326,39.1923,1431.00,39.20,32.00,75.16,0.00,0.00,0.00,30.34,M,10.00,M,BKN,OVC,M,M,3600.00,4200.00,M,M,M,M,M,M,M,M,M,39.20,KCXP 070555Z AUTO 00000KT 10SM BKN036 OVC042 04/M00 A3034 RMK AO2,M
BAM,2025-01-07 05:55,-116.8743,40.5990,1382.36,37.40,28.40,69.67,360.00,6.00,0.00,30.34,M,10.00,M,CLR,M,M,M,M,M,M,M,M,M,M,M,M,M,M,32.03,KBAM 070555Z AUTO 36006KT 10SM CLR 03/M02 A3034 RMK AO1,M
HTH,2025-01-07 05:55,-118.6315,38.5448,1282.89,39.20,33.80,80.79,330.00,20.00,0.00,30.28,M,10.00,28.00,SCT,SCT,OVC,M,4600.00,5500.00,8000.00,M,M,M,M,M,M,M,M,28.70,KHTH 070555Z AUTO 33020G28KT 10SM SCT046 SCT055 OVC080 04/01 A3028 RMK A01,M
INS,2025-01-07 05:55,-115.6733,36.5872,955.00,46.00,21.00,36.72,0.00,0.00,0.00,30.05,1016.40,10.00,M,OVC,M,M,M,10000.00,M,M,M,M,M,M,M,M,M,M,46.00,KINS 070555Z AUTO 00000KT 10SM OVC100 08/M06 A3005 RMK AO2 SLP164 T00771061 10150 20044 53003,M
LSV,2025-01-07 05:55,-115.0343,36.2362,570.00,47.50,19.80,32.97,60.00,3.00,0.00,29.99,1015.30,10.00,M,CLR,M,M,M,M,M,M,M,M,M,M,M,M,M,M,46.41,KLSV 070555Z AUTO 06003KT 10SM CLR 09/M07 A2999 RMK AO2 SLP153 T00861068 10164 20071 53003 $,M
EKO,2025-01-07 05:56,-115.7860,40.8242,1367.00,32.00,26.00,78.25,40.00,6.00,0.00,30.29,1027.50,10.00,M,CLR,M,M,M,M,M,M,M,M,M,M,M,M,M,M,25.53,KEKO 070556Z AUTO 04006KT 10SM CLR 00/M03 A3029 RMK AO2 SLP275 60001 T00001033 10022 20000 53018,M
WMC,2025-01-07 05:56,-117.8072,40.9019,1315.00,34.00,27.00,75.26,350.00,9.00,0.00,30.35,1028.80,10.00,M,CLR,M,M,M,M,M,M,M,M,M,M,M,M,M,M,26.00,KWMC 070556Z AUTO 35009KT 10SM CLR 01/M03 A3035 RMK AO2 SLP288 60000 T00111028 10044 20006 51021,M
HND,2025-01-07 05:56,-115.1344,35.9729,742.79,44.00,21.00,39.62,200.00,7.00,0.00,30.04,1019.10,10.00,M,CLR,M,M,M,M,M,M,M,M,M,M,M,M,M,M,39.41,KHND 070556Z AUTO 20007KT 10SM CLR 07/M06 A3004 RMK AO2 SLP191 T00671061 10150 20061 55000 $,M
TPH,2025-01-07 05:56,-117.0904,38.0505,1654.00,38.00,31.00,75.65,340.00,14.00,T,30.15,1020.90,10.00,M,OVC,M,M,M,8000.00,M,M,M,-RA,M,M,M,M,M,M,28.90,KTPH 070556Z AUTO 34014KT 10SM -RA OVC080 03/M01 A3015 RMK AO2 RAE05B52 SLP209 P0000 60000 T00331006 10078 20033 53007,M
LAS,2025-01-07 05:56,-115.1634,36.0719,663.00,49.00,23.00,35.69,220.00,4.00,0.00,30.03,1016.80,10.00,M,FEW,M,M,M,15000.00,M,M,M,M,M,M,M,M,M,M,47.27,KLAS 070556Z 22004KT 10SM FEW150 09/M05 A3003 RMK AO2 SLP168 T00941050 10156 20094 $,M
05U,2025-01-07 06:10,-116.0051,39.6042,1811.23,M,M,M,350.00,14.00,0.00,30.25,M,1.25,M,BKN,BKN,OVC,M,300.00,1100.00,2200.00,M,BR,M,M,M,M,M,M,M,K05U 070610Z AUTO 35014KT 1 1/4SM BR BKN003 BKN011 OVC022 A3025 RMK A01,M
TMT,2025-01-07 06:10,-117.1971,39.4643,1749.34,31.00,30.00,96.02,360.00,15.00,0.00,30.27,M,10.00,20.00,SCT,SCT,OVC,M,3200.00,5500.00,11000.00,M,M,M,M,M,M,M,M,19.48,KTMT 070610Z AUTO 36015G20KT 10SM SCT032 SCT055 OVC110 00/M01 A3027 RMK AO2 T10051012,M
BVU,2025-01-07 06:15,-114.8611,35.9475,671.00,48.20,21.20,34.09,20.00,5.00,0.00,30.01,M,10.00,M,CLR,M,M,M,M,M,M,M,M,M,M,M,M,M,M,45.63,KBVU 070615Z AUTO 02005KT 10SM CLR 09/M06 A3001 RMK AO2,M
CXP,2025-01-07 06:15,-119.7326,39.1923,1431.00,39.20,33.80,80.79,0.00,0.00,0.00,30.35,M,10.00,M,SCT,BKN,OVC,M,2800.00,3400.00,3900.00,M,M,M,M,M,M,M,M,39.20,KCXP 070615Z AUTO 00000KT 10SM SCT028 BKN034 OVC039 04/01 A3035 RMK AO2,M
BAM,2025-01-07 06:15,-116.8743,40.5990,1382.36,35.60,28.40,74.80,360.00,8.00,0.00,30.34,M,10.00,M,CLR,M,M,M,M,M,M,M,M,M,M,M,M,M,M,28.55,KBAM 070615Z AUTO 36008KT 10SM CLR 02/M02 A3034 RMK AO1,M
HTH,2025-01-07 06:15,-118.6315,38.5448,1282.89,39.20,33.80,80.79,330.00,19.00,0.00,30.29,M,10.00,25.00,BKN,OVC,M,M,4700.00,5500.00,M,M,M,M,M,M,M,M,M,28.96,KHTH 070615Z AUTO 33019G25KT 10SM BKN047 OVC055 04/01 A3029 RMK A01,M
TMT,2025-01-07 06:30,-117.1971,39.4643,1749.34,31.00,29.00,92.19,360.00,14.00,0.00,30.28,M,10.00,20.00,SCT,SCT,BKN,M,3400.00,4800.00,5500.00,M,M,M,M,M,M,M,M,19.87,KTMT 070630Z AUTO 36014G20KT 10SM SCT034 SCT048 BKN055 M01/M02 A3028 RMK AO2 T10061016,M
BVU,2025-01-07 06:35,-114.8611,35.9475,671.00,48.20,23.00,36.78,20.00,6.00,0.00,30.02,M,10.00,M,CLR,M,M,M,M,M,M,M,M,M,M,M,M,M,M,45.04,KBVU 070635Z AUTO 02006KT 10SM CLR 09/M05 A3002 RMK AO2,M
CXP,2025-01-07 06:35,-119.7326,39.1923,1431.00,39.20,30.20,69.88,0.00,0.00,0.00,30.36,M,10.00,M,FEW,BKN,OVC,M,2600.00,3500.00,6500.00,M,M,M,M,M,M,M,M,39.20,KCXP 070635Z AUTO 00000KT 10SM FEW026 BKN035 OVC065 04/M01 A3036 RMK AO2,M
BAM,2025-01-07 06:35,-116.8743,40.5990,1382.36,35.60,28.40,74.80,330.00,8.00,0.00,30.35,M,10.00,M,CLR,M,M,M,M,M,M,M,M,M,M,M,M,M,M,28.55,KBAM 070635Z AUTO 33008KT 300V010 10SM CLR 02/M02 A3035 RMK AO1,M
05U,2025-01-07 06:50,-116.0051,39.6042,1811.23,M,M,M,350.00,11.00,0.00,30.26,M,3.00,M,SCT,SCT,OVC,M,400.00,1500.00,2200.00,M,BR,M,M,M,M,M,M,M,K05U 070650Z AUTO 35011KT 3SM BR SCT004 SCT015 OVC022 A3026 RMK A01,M
TMT,2025-01-07 06:50,-117.1971,39.4643,1749.34,30.70,27.50,87.75,10.00,13.00,0.00,30.28,M,10.00,M,SCT,SCT,SCT,M,4300.00,5500.00,11000.00,M,M,M,M,M,M,M,M,19.90,KTMT 070650Z AUTO 01013KT 10SM SCT043 SCT055 SCT110 M01/M02 A3028 RMK AO2 T10071025,M
P68,2025-01-07 06:53,-116.0056,39.6014,1993.00,29.00,M,M,350.00,15.00,0.01,30.23,1024.30,M,22.00,M,M,M,M,M,M,M,M,M,M,M,M,M,M,M,M,KP68 070653Z AUTO 35015G22KT M02/ A3023 RMK AO1 SLP243 P0001 T1017 $,M
DRA,2025-01-07 06:53,-116.0278,36.6206,1009.00,50.00,28.00,42.33,40.00,13.00,0.00,30.04,1015.30,10.00,M,OVC,M,M,M,9000.00,M,M,M,M,M,M,M,M,M,M,50.00,KDRA 070653Z AUTO 04013KT 10SM OVC090 10/M02 A3004 RMK AO2 SLP153 T01001022,M
ELY,2025-01-07 06:53,-114.8453,39.2950,1909.00,29.00,27.00,92.12,20.00,14.00,0.00,30.19,1022.00,10.00,M,BKN,OVC,M,M,700.00,9000.00,M,M,M,M,M,M,M,M,M,17.30,KELY 070653Z AUTO 02014KT 10SM BKN007 OVC090 M02/M03 A3019 RMK AO2 SLP220 T10171028,M
VGT,2025-01-07 06:53,-115.1933,36.2111,667.00,46.00,25.00,43.44,300.00,7.00,0.00,30.03,1018.40,10.00,M,CLR,M,M,M,M,M,M,M,M,M,M,M,M,M,M,41.84,KVGT 070653Z AUTO 30007KT 10SM CLR 08/M04 A3003 RMK AO2 SLP184 T00781039,M
LOL,2025-01-07 06:53,-118.5701,40.0684,1192.43,38.00,28.00,66.94,30.00,16.00,0.00,30.34,1028.30,10.00,M,CLR,M,M,M,M,M,M,M,M,M,M,M,27.00,20.00,2025-01-07 06:20,28.24,KLOL 070653Z AUTO 03016KT 10SM CLR 03/M02 A3034 RMK AO2 PK WND 02027/0620 SLP283 T00331022,M
BVU,2025-01-07 06:55,-114.8611,35.9475,671.00,50.00,23.00,34.39,0.00,0.00,0.00,30.02,M,10.00,M,CLR,M,M,M,M,M,M,M,M,M,M,M,M,M,M,50.00,KBVU 070655Z AUTO 00000KT 10SM CLR 10/M05 A3002 RMK AO2,M
RNO,2025-01-07 06:55,-119.7711,39.4839,1341.00,39.00,30.00,69.85,360.00,12.00,0.00,30.36,1027.20,10.00,20.00,BKN,M,M,M,6500.00,M,M,M,M,M,M,M,M,M,M,30.91,KRNO 070655Z 36012G20KT 10SM BKN065 04/M01 A3036 RMK AO2 SLP272 T00391011,M
CXP,2025-01-07 06:55,-119.7326,39.1923,1431.00,37.40,32.00,80.65,360.00,3.00,0.00,30.36,M,10.00,M,BKN,BKN,OVC,M,4000.00,4500.00,7000.00,M,M,M,M,M,M,M,M,34.86,KCXP 070655Z AUTO 36003KT 10SM BKN040 BKN045 OVC070 03/M00 A3036 RMK AO2,M
RTS,2025-01-07 06:55,-119.8764,39.6682,1539.00,35.60,30.20,80.51,20.00,12.00,0.00,30.36,M,10.00,M,FEW,BKN,M,M,4200.00,5000.00,M,M,M,M,M,M,M,M,M,26.58,KRTS 070655Z AUTO 02012KT 10SM FEW042 BKN050 02/M01 A3036 RMK AO2,M
BAM,2025-01-07 06:55,-116.8743,40.5990,1382.36,33.80,28.40,80.36,320.00,4.00,0.00,30.36,M,10.00,M,CLR,M,M,M,M,M,M,M,M,M,M,M,M,M,M,29.52,KBAM 070655Z AUTO 32004KT 10SM CLR 01/M02 A3036 RMK AO1,M
HTH,2025-01-07 06:55,-118.6315,38.5448,1282.89,39.20,33.80,80.79,340.00,19.00,0.00,30.30,M,10.00,25.00,SCT,BKN,OVC,M,2900.00,5000.00,7500.00,M,M,M,M,M,M,M,M,28.96,KHTH 070655Z AUTO 34019G25KT 10SM SCT029 BKN050 OVC075 04/01 A3030 RMK A01,M
INS,2025-01-07 06:55,-115.6733,36.5872,955.00,46.40,22.00,37.73,230.00,3.00,0.00,30.05,1016.00,10.00,M,OVC,M,M,M,8000.00,M,M,M,M,M,M,M,M,M,M,45.15,KINS 070655Z AUTO 23003KT 10SM OVC080 08/M05 A3005 RMK AO2 SLP160 T00801055,M
LSV,2025-01-07 06:55,-115.0343,36.2362,570.00,48.40,19.00,30.81,80.00,7.00,0.00,30.00,1015.50,10.00,M,CLR,M,M,M,M,M,M,M,M,M,M,M,M,M,M,44.77,KLSV 070655Z AUTO 08007KT 10SM CLR 09/M07 A3000 RMK AO2 SLP155 T00911072 $,M
EKO,2025-01-07 06:56,-115.7860,40.8242,1367.00,30.00,25.00,81.40,90.00,4.00,0.00,30.30,1028.00,10.00,M,CLR,M,M,M,M,M,M,M,M,M,M,M,M,M,M,25.08,KEKO 070656Z AUTO 09004KT 10SM CLR M01/M04 A3030 RMK AO2 SLP280 T10111039,M
WMC,2025-01-07 06:56,-117.8072,40.9019,1315.00,35.00,26.00,69.39,10.00,9.00,0.00,30.38,1029.30,10.00,M,CLR,M,M,M,M,M,M,M,M,M,M,M,M,M,M,27.24,KWMC 070656Z AUTO 01009KT 10SM CLR 02/M03 A3038 RMK AO2 SLP293 T00171033,M
HND,2025-01-07 06:56,-115.1344,35.9729,742.79,42.00,22.00,44.63,170.00,5.00,0.00,30.05,1019.50,10.00,M,CLR,M,M,M,M,M,M,M,M,M,M,M,M,M,M,38.27,KHND 070656Z AUTO 17005KT 10SM CLR 06/M06 A3005 RMK AO2 SLP195 T00561056 401610022 $,M
TPH,2025-01-07 06:56,-117.0904,38.0505,1654.00,38.00,29.00,69.74,340.00,12.00,T,30.15,1019.80,10.00,M,BKN,OVC,M,M,10000.00,12000.00,M,M,M,M,M,M,M,M,M,29.64,KTPH 070656Z AUTO 34012KT 10SM BKN100 OVC120 03/M02 A3015 RMK AO2 RAE00 SLP198 P0000 T00331017,M
LAS,2025-01-07 06:56,-115.1634,36.0719,663.00,47.00,23.00,38.48,300.00,3.00,0.00,30.04,1016.90,10.00,M,FEW,M,M,M,15000.00,M,M,M,M,M,M,M,M,M,M,45.84,KLAS 070656Z 30003KT 10SM FEW150 08/M05 A3004 RMK AO2 SLP169 T00831050 $,M
NFL,2025-01-07 06:57,-118.7010,39.4166,1199.00,36.00,30.00,78.60,360.00,12.00,0.00,30.33,1023.00,10.00,M,FEW,SCT,M,M,4000.00,5000.00,M,M,M,M,M,M,M,M,M,27.09,KNFL 070657Z 36012KT 10SM FEW040 SCT050 02/M01 A3033 RMK AO2 SLP230 T00221011 $,M
RTS,2025-01-07 07:05,-119.8764,39.6682,1539.00,35.60,30.20,80.51,30.00,10.00,0.00,30.37,M,10.00,M,FEW,BKN,BKN,M,4500.00,5000.00,6000.00,M,M,M,M,M,M,M,M,27.48,KRTS 070705Z AUTO 03010KT 10SM FEW045 BKN050 BKN060 02/M01 A3037 RMK AO2,M
05U,2025-01-07 07:10,-116.0051,39.6042,1811.23,M,M,M,360.00,9.00,0.00,30.27,M,7.00,M,BKN,OVC,M,M,2200.00,3400.00,M,M,M,M,M,M,M,M,M,M,K05U 070710Z AUTO 36009KT 7SM BKN022 OVC034 A3027 RMK A01,M
TMT,2025-01-07 07:10,-117.1971,39.4643,1749.34,30.00,27.30,89.54,10.00,9.00,0.00,30.29,M,10.00,M,CLR,M,M,M,M,M,M,M,M,M,M,M,M,M,M,21.03,KTMT 070710Z AUTO 01009KT 10SM CLR M01/M03 A3029 RMK AO2 T10111026,M
BVU,2025-01-07 07:15,-114.8611,35.9475,671.00,46.40,23.00,39.36,0.00,0.00,0.00,30.02,M,10.00,M,CLR,M,M,M,M,M,M,M,M,M,M,M,M,M,M,46.40,KBVU 070715Z AUTO 00000KT 10SM CLR 08/M05 A3002 RMK AO2,M
CXP,2025-01-07 07:15,-119.7326,39.1923,1431.00,37.40,30.20,74.98,0.00,0.00,0.00,30.36,M,10.00,M,BKN,BKN,BKN,M,3900.00,4600.00,8000.00,M,M,M,M,M,M,M,M,37.40,KCXP 070715Z AUTO 00000KT 10SM BKN039 BKN046 BKN080 03/M01 A3036 RMK AO2,M
BAM,2025-01-07 07:15,-116.8743,40.5990,1382.36,33.80,28.40,80.36,360.00,3.00,0.00,30.36,M,10.00,M,CLR,M,M,M,M,M,M,M,M,M,M,M,M,M,M,30.75,KBAM 070715Z AUTO 36003KT 10SM CLR 01/M02 A3036 RMK AO1,M
HTH,2025-01-07 07:15,-118.6315,38.5448,1282.89,39.20,33.80,80.79,350.00,18.00,0.00,30.32,M,10.00,23.00,FEW,BKN,OVC,M,3200.00,4900.00,7000.00,M,M,M,M,M,M,M,M,29.23,KHTH 070715Z AUTO 35018G23KT 10SM FEW032 BKN049 OVC070 04/01 A3032 RMK A01,M
ELY,2025-01-07 07:18,-114.8453,39.2950,1909.00,29.00,26.00,88.38,20.00,15.00,0.00,30.19,M,10.00,M,SCT,OVC,M,M,700.00,9500.00,M,M,M,M,M,M,M,M,M,16.89,KELY 070718Z AUTO 02015KT 10SM SCT007 OVC095 M02/M03 A3019 RMK AO2 T10171033,M
05U,2025-01-07 07:30,-116.0051,39.6042,1811.23,M,M,M,360.00,10.00,0.00,30.27,M,10.00,M,FEW,OVC,M,M,2200.00,3400.00,M,M,M,M,M,M,M,M,M,M,K05U 070730Z AUTO 36010KT 10SM FEW022 OVC034 A3027 RMK A01,M
TMT,2025-01-07 07:30,-117.1971,39.4643,1749.34,29.70,27.30,90.64,10.00,10.00,0.00,30.30,M,10.00,M,CLR,M,M,M,M,M,M,M,M,M,M,M,M,M,M,20.08,KTMT 070730Z AUTO 01010KT 10SM CLR M01/M03 A3030 RMK AO2 T10131026,M
BVU,2025-01-07 07:35,-114.8611,35.9475,671.00,48.20,21.20,34.09,270.00,4.00,0.00,30.02,M,10.00,M,CLR,M,M,M,M,M,M,M,M,M,M,M,M,M,M,46.34,KBVU 070735Z AUTO 27004KT 10SM CLR 09/M06 A3002 RMK AO2,M
CXP,2025-01-07 07:35,-119.7326,39.1923,1431.00,35.60,30.20,80.51,0.00,0.00,0.00,30.36,M,10.00,M,FEW,FEW,M,M,4100.00,4700.00,M,M,M,M,M,M,M,M,M,35.60,KCXP 070735Z AUTO 00000KT 10SM FEW041 FEW047 02/M01 A3036 RMK AO2,M
RTS,2025-01-07 07:35,-119.8764,39.6682,1539.00,33.80,28.40,80.36,20.00,8.00,0.00,30.37,M,10.00,M,SCT,M,M,M,4700.00,M,M,M,M,M,M,M,M,M,M,26.33,KRTS 070735Z AUTO 02008KT 10SM SCT047 01/M02 A3037 RMK AO2,M
BAM,2025-01-07 07:35,-116.8743,40.5990,1382.36,35.60,28.40,74.80,340.00,5.00,0.00,30.36,M,10.00,M,CLR,M,M,M,M,M,M,M,M,M,M,M,M,M,M,30.67,KBAM 070735Z AUTO 34005KT 10SM CLR 02/M02 A3036 RMK AO1,M
HTH,2025-01-07 07:35,-118.6315,38.5448,1282.89,39.20,32.00,75.16,340.00,15.00,0.00,30.32,M,10.00,23.00,FEW,BKN,OVC,M,3100.00,3900.00,6000.00,M,M,M,M,M,M,M,M,30.11,KHTH 070735Z AUTO 34015G23KT 10SM FEW031 BKN039 OVC060 04/M00 A3032 RMK A01,M
RTS,2025-01-07 07:45,-119.8764,39.6682,1539.00,33.80,28.40,80.36,50.00,7.00,0.00,30.37,M,10.00,M,FEW,M,M,M,4600.00,M,M,M,M,M,M,M,M,M,M,26.97,KRTS 070745Z AUTO 05007KT 10SM FEW046 01/M02 A3037 RMK AO2,M
05U,2025-01-07 07:50,-116.0051,39.6042,1811.23,M,M,M,20.00,9.00,0.00,30.27,M,10.00,M,OVC,M,M,M,3400.00,M,M,M,M,M,M,M,M,M,M,M,K05U 070750Z AUTO 02009KT 10SM OVC034 A3027 RMK A01,M
TMT,2025-01-07 07:50,-117.1971,39.4643,1749.34,28.80,26.20,89.85,30.00,7.00,0.00,30.30,M,10.00,M,CLR,M,M,M,M,M,M,M,M,M,M,M,M,M,M,20.88,KTMT 070750Z AUTO 03007KT 10SM CLR M02/M03 A3030 RMK AO2 T10181032,M
P68,2025-01-07 07:53,-116.0056,39.6014,1993.00,28.00,25.00,88.33,10.00,13.00,0.00,30.25,1024.70,M,M,M,M,M,M,M,M,M,M,M,M,M,M,M,M,M,16.44,KP68 070753Z AUTO 01013KT M02/M04 A3025 RMK AO1 SLP247 T10221039 400331028 $,M
DRA,2025-01-07 07:53,-116.0278,36.6206,1009.00,50.00,28.00,42.33,30.00,9.00,0.00,30.04,1015.10,10.00,M,OVC,M,M,M,10000.00,M,M,M,M,M,M,M,M,M,M,50.00,KDRA 070753Z AUTO 03009KT 10SM OVC100 10/M02 A3004 RMK AO2 SLP151 T01001022 401611011,M
ELY,2025-01-07 07:53,-114.8453,39.2950,1909.00,28.00,25.00,88.33,20.00,13.00,0.00,30.19,1022.60,10.00,M,SCT,OVC,M,M,700.00,10000.00,M,M,M,M,M,M,M,M,M,16.44,KELY 070753Z AUTO 02013KT 10SM SCT007 OVC100 M02/M04 A3019 RMK AO2 SLP226 T10221039 400501033,M
VGT,2025-01-07 07:53,-115.1933,36.2111,667.00,47.00,27.00,45.45,250.00,4.00,0.00,30.03,1018.30,10.00,M,FEW,BKN,M,M,10000.00,12000.00,M,M,M,M,M,M,M,M,M,44.94,KVGT 070753Z AUTO 25004KT 10SM FEW100 BKN120 08/M03 A3003 RMK AO2 SLP183 T00831028 401670033,M
LOL,2025-01-07 07:53,-118.5701,40.0684,1192.43,36.00,28.00,72.43,30.00,10.00,0.00,30.35,1028.60,10.00,19.00,CLR,M,M,M,M,M,M,M,M,M,M,M,M,M,M,27.98,KLOL 070753Z AUTO 03010G19KT 10SM CLR 02/M02 A3035 RMK AO2 SLP286 T00221022 400831006,M
BVU,2025-01-07 07:55,-114.8611,35.9475,671.00,48.20,21.20,34.09,0.00,0.00,0.00,30.02,M,10.00,M,CLR,M,M,M,M,M,M,M,M,M,M,M,M,M,M,48.20,KBVU 070755Z AUTO 00000KT 10SM CLR 09/M06 A3002 RMK AO2,M
RNO,2025-01-07 07:55,-119.7711,39.4839,1341.00,37.00,30.00,75.56,340.00,10.00,0.00,30.35,1027.30,10.00,M,SCT,M,M,M,5500.00,M,M,M,M,M,M,M,M,M,M,29.24,KRNO 070755Z 34010KT 10SM SCT055 03/M01 A3035 RMK AO2 SLP273 T00281011 401001011,M
CXP,2025-01-07 07:55,-119.7326,39.1923,1431.00,33.80,30.20,86.49,0.00,0.00,0.00,30.36,M,10.00,M,FEW,BKN,M,M,4000.00,5000.00,M,M,M,M,M,M,M,M,M,33.80,KCXP 070755Z AUTO 00000KT 10SM FEW040 BKN050 01/M01 A3036 RMK AO2,M
BAM,2025-01-07 07:55,-116.8743,40.5990,1382.36,33.80,30.20,86.49,340.00,6.00,0.00,30.36,M,10.00,M,SCT,M,M,M,4000.00,M,M,M,M,M,M,M,M,M,M,27.70,KBAM 070755Z AUTO 34006KT 10SM SCT040 01/M01 A3036 RMK AO1,M
HTH,2025-01-07 07:55,-118.6315,38.5448,1282.89,39.20,32.00,75.16,340.00,18.00,0.00,30.32,M,10.00,24.00,SCT,OVC,M,M,3900.00,4500.00,M,M,M,M,M,M,M,M,M,29.23,KHTH 070755Z AUTO 34018G24KT 10SM SCT039 OVC045 04/M00 A3032 RMK A01,M
INS,2025-01-07 07:55,-115.6733,36.5872,955.00,46.00,21.70,37.83,0.00,0.00,0.00,30.05,1015.80,10.00,M,OVC,M,M,M,8000.00,M,M,M,M,M,M,M,M,M,M,46.00,KINS 070755Z AUTO 00000KT 10SM OVC080 08/M06 A3005 RMK AO2 SLP158 T00771057 401741031,M
LSV,2025-01-07 07:55,-115.0343,36.2362,570.00,54.00,23.00,29.67,30.00,9.00,0.00,30.00,1015.30,10.00,M,CLR,M,M,M,M,M,M,M,M,M,M,M,M,M,M,54.00,KLSV 070755Z AUTO 03009KT 10SM CLR 12/M05 A3000 RMK AO2 SLP153 T01221049 401690011 $,M
EKO,2025-01-07 07:56,-115.7860,40.8242,1367.00,31.00,24.00,74.97,40.00,9.00,0.00,30.31,1028.10,10.00,M,CLR,M,M,M,M,M,M,M,M,M,M,M,M,M,M,22.27,KEKO 070756Z AUTO 04009KT 10SM CLR M01/M04 A3031 RMK AO2 SLP281 T10061044 400281011,M
WMC,2025-01-07 07:56,-117.8072,40.9019,1315.00,33.00,26.00,75.17,10.00,8.00,0.00,30.38,1029.60,10.00,M,CLR,M,M,M,M,M,M,M,M,M,M,M,M,M,M,25.34,KWMC 070756Z AUTO 01008KT 10SM CLR 01/M03 A3038 RMK AO2 SLP296 T00061033 400610006,M
HND,2025-01-07 07:56,-115.1344,35.9729,742.79,40.00,23.00,50.30,160.00,7.00,0.00,30.05,1019.30,10.00,M,CLR,M,M,M,M,M,M,M,M,M,M,M,M,M,M,34.53,KHND 070756Z AUTO 16007KT 10SM CLR 04/M05 A3005 RMK AO2 SLP193 T00441050 $,M
TPH,2025-01-07 07:56,-117.0904,38.0505,1654.00,37.00,28.00,69.63,340.00,14.00,0.00,30.16,1020.20,10.00,M,FEW,BKN,M,M,4400.00,11000.00,M,M,M,M,M,M,M,M,M,27.61,KTPH 070756Z AUTO 34014KT 10SM FEW044 BKN110 03/M02 A3016 RMK AO2 SLP202 T00281022 400941072,M
LAS,2025-01-07 07:56,-115.1634,36.0719,663.00,48.00,24.00,38.64,280.00,5.00,0.00,30.04,1016.90,10.00,M,BKN,M,M,M,12000.00,M,M,M,M,M,M,M,M,M,M,45.40,KLAS 070756Z 28005KT 10SM BKN120 09/M04 A3004 RMK AO2 SLP169 T00891044 401610056 $,M
NFL,2025-01-07 07:57,-118.7010,39.4166,1199.00,36.00,29.00,75.46,10.00,12.00,0.00,30.34,1023.10,M,M,CLR,M,M,M,M,M,M,M,M,M,M,M,M,M,M,27.09,KNFL 070757Z AUTO 01012KT CLR 02/M02 A3034 RMK AO2 SLP231 T00221017 401061039 $,M
05U,2025-01-07 08:10,-116.0051,39.6042,1811.23,M,M,M,350.00,11.00,0.00,30.27,M,10.00,M,FEW,BKN,OVC,M,2900.00,3600.00,5500.00,M,M,M,M,M,M,M,M,M,K05U 070810Z AUTO 35011KT 10SM FEW029 BKN036 OVC055 A3027 RMK A01,M
TMT,2025-01-07 08:10,-117.1971,39.4643,1749.34,28.80,25.50,87.28,20.00,7.00,0.00,30.30,M,10.00,M,SCT,M,M,M,3800.00,M,M,M,M,M,M,M,M,M,M,20.88,KTMT 070810Z AUTO 02007KT 10SM SCT038 M02/M04 A3030 RMK AO2 T10181036,M
BVU,2025-01-07 08:15,-114.8611,35.9475,671.00,48.20,21.20,34.09,M,3.00,0.00,30.01,M,10.00,M,CLR,M,M,M,M,M,M,M,M,M,M,M,M,M,M,47.21,KBVU 070815Z AUTO VRB03KT 10SM CLR 09/M06 A3001 RMK AO2,M
CXP,2025-01-07 08:15,-119.7326,39.1923,1431.00,35.60,28.40,74.80,20.00,5.00,0.00,30.36,M,10.00,M,FEW,OVC,M,M,4400.00,5000.00,M,M,M,M,M,M,M,M,M,30.67,KCXP 070815Z AUTO 02005KT 10SM FEW044 OVC050 02/M02 A3036 RMK AO2,M
RTS,2025-01-07 08:15,-119.8764,39.6682,1539.00,33.80,28.40,80.36,70.00,6.00,0.00,30.37,M,10.00,M,OVC,M,M,M,4100.00,M,M,M,M,M,M,M,M,M,M,27.70,KRTS 070815Z AUTO 07006KT 10SM OVC041 01/M02 A3037 RMK AO2,M
MEV,2025-01-07 08:15,-119.7500,38.9963,1441.42,35.60,28.40,74.80,20.00,8.00,0.00,30.33,M,10.00,M,CLR,M,M,M,M,M,M,M,M,M,M,M,M,M,M,28.55,KMEV 070815Z AUTO 02008KT 10SM CLR 02/M02 A3033 RMK AO2,M
BAM,2025-01-07 08:15,-116.8743,40.5990,1382.36,33.80,30.20,86.49,330.00,6.00,0.00,30.36,M,10.00,M,SCT,M,M,M,3800.00,M,M,M,M,M,M,M,M,M,M,27.70,KBAM 070815Z AUTO 33006KT 10SM SCT038 01/M01 A3036 RMK AO1,M
HTH,2025-01-07 08:15,-118.6315,38.5448,1282.89,37.40,30.20,74.98,340.00,14.00,0.00,30.33,M,10.00,23.00,SCT,BKN,OVC,M,3600.00,4500.00,5000.00,M,M,M,M,M,M,M,M,28.12,KHTH 070815Z AUTO 34014G23KT 10SM SCT036 BKN045 OVC050 03/M01 A3033 RMK A01,M
RTS,2025-01-07 08:25,-119.8764,39.6682,1539.00,33.80,28.40,80.36,60.00,5.00,0.00,30.37,M,10.00,M,FEW,BKN,OVC,M,3000.00,3500.00,4100.00,M,M,M,M,M,M,M,M,28.53,KRTS 070825Z AUTO 06005KT 10SM FEW030 BKN035 OVC041 01/M02 A3037 RMK AO2,M
05U,2025-01-07 08:30,-116.0051,39.6042,1811.23,M,M,M,350.00,11.00,0.00,30.27,M,10.00,M,FEW,BKN,OVC,M,3700.00,4500.00,5500.00,M,M,M,M,M,M,M,M,M,K05U 070830Z AUTO 35011KT 10SM FEW037 BKN045 OVC055 A3027 RMK A01,M
TMT,2025-01-07 08:30,-117.1971,39.4643,1749.34,28.40,25.50,88.72,20.00,6.00,0.00,30.31,M,10.00,M,BKN,M,M,M,3600.00,M,M,M,M,M,M,M,M,M,M,21.19,KTMT 070830Z AUTO 02006KT 10SM BKN036 M02/M04 A3031 RMK AO2 T10201036,M
BVU,2025-01-07 08:35,-114.8611,35.9475,671.00,42.80,17.60,35.87,210.00,3.00,0.00,30.01,M,10.00,M,CLR,M,M,M,M,M,M,M,M,M,M,M,M,M,M,41.03,KBVU 070835Z AUTO 21003KT 10SM CLR 06/M08 A3001 RMK AO2,M
CXP,2025-01-07 08:35,-119.7326,39.1923,1431.00,37.40,26.60,64.70,30.00,6.00,0.00,30.37,M,10.00,M,BKN,OVC,M,M,4900.00,5500.00,M,M,M,M,M,M,M,M,M,32.03,KCXP 070835Z AUTO 03006KT 10SM BKN049 OVC055 03/M03 A3037 RMK AO2,M
MEV,2025-01-07 08:35,-119.7500,38.9963,1441.42,35.60,28.40,74.80,30.00,8.00,0.00,30.34,M,10.00,M,FEW,FEW,M,M,4000.00,8000.00,M,M,M,M,M,M,M,M,M,28.55,KMEV 070835Z AUTO 03008KT 10SM FEW040 FEW080 02/M02 A3034 RMK AO2,M
BAM,2025-01-07 08:35,-116.8743,40.5990,1382.36,32.00,28.40,86.39,0.00,0.00,0.00,30.37,M,10.00,M,BKN,M,M,M,3800.00,M,M,M,M,M,M,M,M,M,M,32.00,KBAM 070835Z AUTO 00000KT 10SM BKN038 00/M02 A3037 RMK AO1,M
HTH,2025-01-07 08:35,-118.6315,38.5448,1282.89,37.40,30.20,74.98,330.00,16.00,0.00,30.33,M,10.00,M,BKN,BKN,OVC,M,3500.00,4200.00,5000.00,M,M,M,M,M,M,M,M,27.46,KHTH 070835Z AUTO 33016KT 10SM BKN035 BKN042 OVC050 03/M01 A3033 RMK A01,M
05U,2025-01-07 08:50,-116.0051,39.6042,1811.23,M,M,M,340.00,9.00,0.00,30.28,M,10.00,14.00,BKN,OVC,M,M,3900.00,4500.00,M,M,M,M,M,M,M,M,M,M,K05U 070850Z AUTO 34009G14KT 10SM BKN039 OVC045 A3028 RMK A01,M
TMT,2025-01-07 08:50,-117.1971,39.4643,1749.34,28.00,25.50,90.19,40.00,7.00,0.00,30.32,M,10.00,M,OVC,M,M,M,3600.00,M,M,M,M,M,M,M,M,M,M,19.90,KTMT 070850Z AUTO 04007KT 10SM OVC036 M02/M04 A3032 RMK AO2 T10221036,M
P68,2025-01-07 08:53,-116.0056,39.6014,1993.00,27.00,25.00,92.05,350.00,11.00,0.00,30.25,1025.00,M,M,M,M,M,M,M,M,M,M,M,M,M,M,M,M,M,16.15,KP68 070853Z AUTO 35011KT M03/M04 A3025 RMK AO1 SLP250 60001 T10281039 51010 $,M
DRA,2025-01-07 08:53,-116.0278,36.6206,1009.00,49.00,30.00,47.68,20.00,17.00,0.00,30.04,1015.20,10.00,23.00,FEW,OVC,M,M,7000.00,9500.00,M,M,M,M,M,M,M,M,M,42.35,KDRA 070853Z AUTO 02017G23KT 10SM FEW070 OVC095 09/M01 A3004 RMK AO2 SLP152 T00941011 51002,M
ELY,2025-01-07 08:53,-114.8453,39.2950,1909.00,28.00,25.00,88.33,360.00,14.00,0.00,30.21,1022.70,10.00,26.00,FEW,BKN,M,M,600.00,10000.00,M,M,M,M,M,M,27.00,10.00,2025-01-07 08:25,16.01,KELY 070853Z AUTO 36014G26KT 10SM FEW006 BKN100 M02/M04 A3021 RMK AO2 PK WND 01027/0825 SLP227 T10221039 53009,M
VGT,2025-01-07 08:53,-115.1933,36.2111,667.00,46.00,25.00,43.44,300.00,3.00,0.00,30.03,1018.40,10.00,M,FEW,SCT,M,M,9000.00,12000.00,M,M,M,M,M,M,M,M,M,44.69,KVGT 070853Z AUTO 30003KT 10SM FEW090 SCT120 08/M04 A3003 RMK AO2 SLP184 T00781039 51003,M
LOL,2025-01-07 08:53,-118.5701,40.0684,1192.43,34.00,28.00,78.43,50.00,5.00,0.00,30.36,1029.10,10.00,M,CLR,M,M,M,M,M,M,M,M,M,M,M,M,M,M,28.77,KLOL 070853Z AUTO 05005KT 10SM CLR 01/M02 A3036 RMK AO2 SLP291 T00111022 51012,M
BVU,2025-01-07 08:55,-114.8611,35.9475,671.00,44.60,19.40,36.18,0.00,0.00,0.00,30.01,M,10.00,M,CLR,M,M,M,M,M,M,M,M,M,M,M,M,M,M,44.60,KBVU 070855Z AUTO 00000KT 10SM CLR 07/M07 A3001 RMK AO2,M
RNO,2025-01-07 08:55,-119.7711,39.4839,1341.00,37.00,28.00,69.63,250.00,4.00,0.00,30.36,1027.60,10.00,M,SCT,M,M,M,5500.00,M,M,M,M,M,M,M,M,M,M,33.26,KRNO 070855Z 25004KT 10SM SCT055 03/M02 A3036 RMK AO2 SLP276 T00281022 51005,M
CXP,2025-01-07 08:55,-119.7326,39.1923,1431.00,35.60,26.60,69.46,350.00,6.00,0.00,30.37,M,10.00,M,BKN,OVC,M,M,4500.00,5500.00,M,M,M,M,M,M,M,M,M,29.87,KCXP 070855Z AUTO 35006KT 10SM BKN045 OVC055 02/M03 A3037 RMK AO2,M
MEV,2025-01-07 08:55,-119.7500,38.9963,1441.42,33.80,28.40,80.36,20.00,9.00,0.00,30.35,M,10.00,M,FEW,FEW,FEW,M,4100.00,4800.00,8000.00,M,M,M,M,M,M,M,M,25.75,KMEV 070855Z AUTO 02009KT 10SM FEW041 FEW048 FEW080 01/M02 A3035 RMK AO2,M
BAM,2025-01-07 08:55,-116.8743,40.5990,1382.36,33.80,28.40,80.36,0.00,0.00,0.00,30.37,M,10.00,M,SCT,M,M,M,3600.00,M,M,M,M,M,M,M,M,M,M,33.80,KBAM 070855Z AUTO 00000KT 10SM SCT036 01/M02 A3037 RMK AO1,M
HTH,2025-01-07 08:55,-118.6315,38.5448,1282.89,37.40,30.20,74.98,340.00,15.00,0.00,30.34,M,10.00,20.00,FEW,SCT,BKN,M,3400.00,4000.00,4700.00,M,M,M,M,M,M,M,M,27.78,KHTH 070855Z AUTO 34015G20KT 10SM FEW034 SCT040 BKN047 03/M01 A3034 RMK A01,M
INS,2025-01-07 08:55,-115.6733,36.5872,955.00,46.20,22.60,38.99,180.00,3.00,0.00,30.05,1015.80,10.00,M,BKN,OVC,M,M,6000.00,8000.00,M,M,M,M,M,M,M,M,M,44.92,KINS 070855Z AUTO 18003KT 10SM BKN060 OVC080 08/M05 A3005 RMK AO2 SLP158 T00791052 50002,M
LSV,2025-01-07 08:55,-115.0343,36.2362,570.00,54.30,23.50,29.97,290.00,6.00,0.00,30.00,1015.20,10.00,M,BKN,BKN,M,M,12000.00,16000.00,M,M,M,M,M,M,M,M,M,54.30,KLSV 070855Z AUTO 29006KT 10SM BKN120 BKN160 12/M05 A3000 RMK AO2 SLP152 T01241047 50003 $,M
EKO,2025-01-07 08:56,-115.7860,40.8242,1367.00,30.00,23.00,74.87,50.00,6.00,0.00,30.31,1028.20,10.00,M,CLR,M,M,M,M,M,M,M,M,M,M,M,M,M,M,23.12,KEKO 070856Z AUTO 05006KT 10SM CLR M01/M05 A3031 RMK AO2 SLP282 T10111050 51007,M
WMC,2025-01-07 08:56,-117.8072,40.9019,1315.00,33.00,26.00,75.17,360.00,9.00,0.00,30.38,1029.40,10.00,M,CLR,M,M,M,M,M,M,M,M,M,M,M,M,M,M,24.76,KWMC 070856Z AUTO 36009KT 10SM CLR 01/M03 A3038 RMK AO2 SLP294 T00061033 50006,M
HND,2025-01-07 08:56,-115.1344,35.9729,742.79,43.00,22.00,42.95,M,4.00,0.00,30.05,1019.10,10.00,M,CLR,M,M,M,M,M,M,M,M,M,M,M,M,M,M,40.27,KHND 070856Z AUTO VRB04KT 10SM CLR 06/M06 A3005 RMK AO2 SLP191 T00611056 51003 $,M
TPH,2025-01-07 08:56,-117.0904,38.0505,1654.00,35.00,27.00,72.32,350.00,17.00,0.00,30.18,1021.10,10.00,M,OVC,M,M,M,11000.00,M,M,M,M,M,M,M,28.00,360.00,2025-01-07 08:01,24.01,KTPH 070856Z AUTO 35017KT 10SM OVC110 02/M03 A3018 RMK AO2 PK WND 36028/0801 SLP211 60000 T00171028 53009,M
LAS,2025-01-07 08:56,-115.1634,36.0719,663.00,47.00,24.00,40.12,0.00,0.00,0.00,30.04,1016.80,10.00,M,FEW,BKN,M,M,12000.00,18000.00,M,M,M,M,M,M,M,M,M,47.00,KLAS 070856Z 00000KT 10SM FEW120 BKN180 08/M04 A3004 RMK AO2 SLP168 T00831044 50003 $,M
NFL,2025-01-07 08:57,-118.7010,39.4166,1199.00,35.00,28.00,75.36,350.00,9.00,0.00,30.35,1023.40,M,M,CLR,M,M,M,M,M,M,M,M,M,M,M,M,M,M,27.24,KNFL 070857Z AUTO 35009KT CLR 02/M02 A3035 RMK AO2 SLP234 T00171022 51011 $,M
MEV,2025-01-07 09:05,-119.7500,38.9963,1441.42,33.80,28.40,80.36,30.00,9.00,0.00,30.35,M,10.00,M,FEW,FEW,M,M,4000.00,4800.00,M,M,M,M,M,M,M,M,M,25.75,KMEV 070905Z AUTO 03009KT 10SM FEW040 FEW048 01/M02 A3035 RMK AO2,M
05U,2025-01-07 09:10,-116.0051,39.6042,1811.23,M,M,M,340.00,11.00,0.00,30.29,M,10.00,M,FEW,OVC,M,M,2800.00,3900.00,M,M,M,M,M,M,M,M,M,M,K05U 070910Z AUTO 34011KT 10SM FEW028 OVC039 A3029 RMK A01,M
TMT,2025-01-07 09:10,-117.1971,39.4643,1749.34,28.00,24.80,87.60,360.00,8.00,0.00,30.32,M,10.00,M,BKN,OVC,M,M,3600.00,4200.00,M,M,M,M,M,M,M,M,M,19.19,KTMT 070910Z AUTO 36008KT 10SM BKN036 OVC042 M02/M04 A3032 RMK AO2 T10221040,M
BVU,2025-01-07 09:15,-114.8611,35.9475,671.00,44.60,19.40,36.18,0.00,0.00,0.00,30.02,M,10.00,M,CLR,M,M,M,M,M,M,M,M,M,M,M,M,M,M,44.60,KBVU 070915Z AUTO 00000KT 10SM CLR 07/M07 A3002 RMK AO2,M
CXP,2025-01-07 09:15,-119.7326,39.1923,1431.00,35.60,26.60,69.46,350.00,7.00,0.00,30.36,M,10.00,M,FEW,SCT,M,M,4300.00,5500.00,M,M,M,M,M,M,M,M,M,29.17,KCXP 070915Z AUTO 35007KT 10SM FEW043 SCT055 02/M03 A3036 RMK AO2,M
BAM,2025-01-07 09:15,-116.8743,40.5990,1382.36,32.00,28.40,86.39,0.00,0.00,0.00,30.38,M,10.00,M,SCT,BKN,M,M,3100.00,3600.00,M,M,M,M,M,M,M,M,M,32.00,KBAM 070915Z AUTO 00000KT 10SM SCT031 BKN036 00/M02 A3038 RMK AO1,M
HTH,2025-01-07 09:15,-118.6315,38.5448,1282.89,37.40,30.20,74.98,340.00,13.00,0.00,30.34,M,10.00,19.00,SCT,OVC,M,M,5000.00,6000.00,M,M,M,M,M,M,M,M,M,28.49,KHTH 070915Z AUTO 34013G19KT 10SM SCT050 OVC060 03/M01 A3034 RMK A01,M
05U,2025-01-07 09:30,-116.0051,39.6042,1811.23,M,M,M,340.00,11.00,0.00,30.30,M,10.00,16.00,BKN,OVC,M,M,3700.00,5000.00,M,M,M,M,M,M,M,M,M,M,K05U 070930Z AUTO 34011G16KT 10SM BKN037 OVC050 A3030 RMK A01,M
TMT,2025-01-07 09:30,-117.1971,39.4643,1749.34,27.70,24.80,88.69,360.00,7.00,0.00,30.33,M,10.00,M,SCT,OVC,M,M,2900.00,3600.00,M,M,M,M,M,M,M,M,M,19.54,KTMT 070930Z AUTO 36007KT 10SM SCT029 OVC036 M02/M04 A3033 RMK AO2 T10241040,M
BVU,2025-01-07 09:35,-114.8611,35.9475,671.00,48.20,21.20,34.09,0.00,0.00,0.00,30.02,M,10.00,M,SCT,M,M,M,12000.00,M,M,M,M,M,M,M,M,M,M,48.20,KBVU 070935Z AUTO 00000KT 10SM SCT120 09/M06 A3002 RMK AO2,M
CXP,2025-01-07 09:35,-119.7326,39.1923,1431.00,35.60,26.60,69.46,340.00,9.00,0.00,30.37,M,10.00,M,FEW,M,M,M,4200.00,M,M,M,M,M,M,M,M,M,M,27.99,KCXP 070935Z AUTO 34009KT 10SM FEW042 02/M03 A3037 RMK AO2,M
BAM,2025-01-07 09:35,-116.8743,40.5990,1382.36,33.80,30.20,86.49,320.00,5.00,0.00,30.38,M,10.00,M,OVC,M,M,M,3400.00,M,M,M,M,M,M,M,M,M,M,28.53,KBAM 070935Z AUTO 32005KT 10SM OVC034 01/M01 A3038 RMK AO1,M
HTH,2025-01-07 09:35,-118.6315,38.5448,1282.89,37.40,30.20,74.98,330.00,14.00,0.00,30.34,M,10.00,M,SCT,OVC,M,M,3100.00,5500.00,M,M,M,M,M,M,M,M,M,28.12,KHTH 070935Z AUTO 33014KT 10SM SCT031 OVC055 03/M01 A3034 RMK A01,M
05U,2025-01-07 09:50,-116.0051,39.6042,1811.23,M,M,M,340.00,8.00,0.00,30.30,M,10.00,M,BKN,BKN,OVC,M,3700.00,4900.00,6500.00,M,M,M,M,M,M,M,M,M,K05U 070950Z AUTO 34008KT 10SM BKN037 BKN049 OVC065 A3030 RMK A01,M
TMT,2025-01-07 09:50,-117.1971,39.4643,1749.34,28.40,24.60,85.46,20.00,8.00,0.00,30.32,M,10.00,M,OVC,M,M,M,3400.00,M,M,M,M,M,M,M,M,M,M,19.68,KTMT 070950Z AUTO 02008KT 10SM OVC034 M02/M04 A3032 RMK AO2 T10201041,M
P68,2025-01-07 09:53,-116.0056,39.6014,1993.00,26.00,23.00,88.23,350.00,10.00,0.00,30.27,1025.60,M,M,M,M,M,M,M,M,M,M,M,M,M,M,M,M,M,15.44,KP68 070953Z AUTO 35010KT M03/M05 A3027 RMK AO1 SLP256 T10331050 $,M
DRA,2025-01-07 09:53,-116.0278,36.6206,1009.00,48.00,32.00,53.67,20.00,20.00,0.00,30.05,1015.40,10.00,28.00,OVC,M,M,M,6500.00,M,M,M,M,M,M,M,28.00,10.00,2025-01-07 09:53,40.39,KDRA 070953Z AUTO 02020G28KT 10SM OVC065 09/00 A3005 RMK AO2 PK WND 01028/0953 SLP154 T00890000,M
ELY,2025-01-07 09:53,-114.8453,39.2950,1909.00,27.00,23.00,84.66,360.00,20.00,0.00,30.22,1023.10,10.00,28.00,FEW,M,M,M,2400.00,M,M,M,M,M,M,M,28.00,10.00,2025-01-07 09:51,12.50,KELY 070953Z AUTO 36020G28KT 10SM FEW024 M03/M05 A3022 RMK AO2 PK WND 01028/0951 SLP231 T10281050,M
VGT,2025-01-07 09:53,-115.1933,36.2111,667.00,47.00,26.00,43.61,300.00,4.00,0.00,30.03,1018.40,10.00,M,BKN,M,M,M,9500.00,M,M,M,M,M,M,M,M,M,M,44.94,KVGT 070953Z AUTO 30004KT 10SM BKN095 08/M03 A3003 RMK AO2 SLP184 T00831033,M
LOL,2025-01-07 09:53,-118.5701,40.0684,1192.43,34.00,28.00,78.43,50.00,9.00,0.00,30.36,1029.20,10.00,M,CLR,M,M,M,M,M,M,M,M,M,M,M,M,M,M,26.00,KLOL 070953Z AUTO 05009KT 10SM CLR 01/M02 A3036 RMK AO2 SLP292 T00111022,M
BVU,2025-01-07 09:55,-114.8611,35.9475,671.00,51.80,23.00,32.17,20.00,8.00,0.00,30.01,M,10.00,M,SCT,OVC,M,M,10000.00,12000.00,M,M,M,M,M,M,M,M,M,51.80,KBVU 070955Z AUTO 02008KT 10SM SCT100 OVC120 11/M05 A3001 RMK AO2,M
RNO,2025-01-07 09:55,-119.7711,39.4839,1341.00,36.00,26.00,66.69,80.00,5.00,0.00,30.37,1028.00,10.00,M,FEW,FEW,M,M,3300.00,5500.00,M,M,M,M,M,M,M,M,M,31.15,KRNO 070955Z 08005KT 10SM FEW033 FEW055 02/M03 A3037 RMK AO2 SLP280 T00221033,M
CXP,2025-01-07 09:55,-119.7326,39.1923,1431.00,35.60,26.60,69.46,30.00,6.00,0.00,30.38,M,10.00,M,BKN,BKN,M,M,4400.00,5000.00,M,M,M,M,M,M,M,M,M,29.87,KCXP 070955Z AUTO 03006KT 10SM BKN044 BKN050 02/M03 A3038 RMK AO2,M
RTS,2025-01-07 09:55,-119.8764,39.6682,1539.00,33.80,26.60,74.63,50.00,7.00,0.00,30.37,M,10.00,M,CLR,M,M,M,M,M,M,M,M,M,M,M,M,M,M,26.97,KRTS 070955Z AUTO 05007KT 10SM CLR 01/M03 A3037 RMK AO2,M
BAM,2025-01-07 09:55,-116.8743,40.5990,1382.36,32.00,30.20,92.97,20.00,3.00,0.00,30.38,M,10.00,M,OVC,M,M,M,3600.00,M,M,M,M,M,M,M,M,M,M,28.69,KBAM 070955Z AUTO 02003KT 10SM OVC036 00/M01 A3038 RMK AO1,M
HTH,2025-01-07 09:55,-118.6315,38.5448,1282.89,37.40,30.20,74.98,340.00,12.00,0.00,30.34,M,10.00,18.00,BKN,BKN,OVC,M,3200.00,5500.00,6500.00,M,M,M,M,M,M,M,M,28.87,KHTH 070955Z AUTO 34012G18KT 10SM BKN032 BKN055 OVC065 03/M01 A3034 RMK A01,M
INS,2025-01-07 09:55,-115.6733,36.5872,955.00,49.00,24.60,38.17,30.00,3.00,0.00,30.06,1015.80,10.00,M,BKN,OVC,M,M,5500.00,8000.00,M,M,M,M,M,M,M,M,M,48.12,KINS 070955Z AUTO 03003KT 10SM BKN055 OVC080 10/M04 A3006 RMK AO2 SLP158 T00951041,M
LSV,2025-01-07 09:55,-115.0343,36.2362,570.00,56.00,23.40,28.06,330.00,6.00,0.00,30.00,1015.20,10.00,M,FEW,M,M,M,10000.00,M,M,M,M,M,M,M,M,M,M,56.00,KLSV 070955Z AUTO 33006KT 10SM FEW100 13/M05 A3000 RMK AO2 SLP152 T01341048 $,M
EKO,2025-01-07 09:56,-115.7860,40.8242,1367.00,30.00,23.00,74.87,40.00,5.00,0.00,30.32,1028.50,10.00,M,CLR,M,M,M,M,M,M,M,M,M,M,M,M,M,M,24.02,KEKO 070956Z AUTO 04005KT 10SM CLR M01/M05 A3032 RMK AO2 SLP285 T10111050,M
WMC,2025-01-07 09:56,-117.8072,40.9019,1315.00,33.00,26.00,75.17,20.00,10.00,0.00,30.38,1029.80,10.00,M,CLR,M,M,M,M,M,M,M,M,M,M,M,M,M,M,24.22,KWMC 070956Z AUTO 02010KT 10SM CLR 01/M03 A3038 RMK AO2 SLP298 T00061033,M
HND,2025-01-07 09:56,-115.1344,35.9729,742.79,48.00,24.00,38.64,40.00,7.00,0.00,30.05,1018.90,10.00,M,BKN,OVC,M,M,9500.00,11000.00,M,M,M,M,M,M,M,M,M,44.28,KHND 070956Z AUTO 04007KT 10SM BKN095 OVC110 09/M04 A3005 RMK AO2 SLP189 T00891044 $,M
TPH,2025-01-07 09:56,-117.0904,38.0505,1654.00,36.00,23.00,58.85,360.00,22.00,0.00,30.20,1021.60,10.00,31.00,OVC,M,M,M,10000.00,M,M,M,M,M,M,M,32.00,360.00,2025-01-07 09:44,23.93,KTPH 070956Z AUTO 36022G31KT 10SM OVC100 02/M05 A3020 RMK AO2 PK WND 36032/0944 SLP216 T00221050,M
LAS,2025-01-07 09:56,-115.1634,36.0719,663.00,48.00,24.00,38.64,120.00,3.00,0.00,30.05,1016.90,10.00,M,BKN,OVC,M,M,10000.00,11000.00,M,M,M,M,M,M,M,M,M,46.98,KLAS 070956Z 12003KT 10SM BKN100 OVC110 09/M04 A3005 RMK AO2 SLP169 T00891044 $,M
RTS,2025-01-07 10:05,-119.8764,39.6682,1539.00,32.00,24.80,74.44,0.00,0.00,0.00,30.37,M,10.00,M,CLR,M,M,M,M,M,M,M,M,M,M,M,M,M,M,32.00,KRTS 071005Z AUTO 00000KT 10SM CLR 00/M04 A3037 RMK AO2,M
05U,2025-01-07 10:10,-116.0051,39.6042,1811.23,M,M,M,0.00,0.00,0.00,30.31,M,10.00,M,SCT,SCT,BKN,M,3700.00,4500.00,6500.00,M,M,M,M,M,M,M,M,M,K05U 071010Z AUTO 00000KT 10SM SCT037 SCT045 BKN065 A3031 RMK A01,M
TMT,2025-01-07 10:10,-117.1971,39.4643,1749.34,27.00,23.70,87.18,350.00,8.00,0.00,30.32,M,10.00,M,BKN,M,M,M,3400.00,M,M,M,M,M,M,M,M,M,M,17.95,KTMT 071010Z AUTO 35008KT 10SM BKN034 M03/M05 A3032 RMK AO2 T10271046,M
BVU,2025-01-07 10:15,-114.8611,35.9475,671.00,53.60,24.80,32.46,10.00,13.00,0.00,30.01,M,10.00,18.00,OVC,M,M,M,11000.00,M,M,M,M,M,M,M,M,M,M,53.60,KBVU 071015Z AUTO 01013G18KT 10SM OVC110 12/M04 A3001 RMK AO2,M
BAM,2025-01-07 10:15,-116.8743,40.5990,1382.36,32.00,30.20,92.97,340.00,6.00,0.00,30.38,M,10.00,M,SCT,BKN,M,M,2900.00,3400.00,M,M,M,M,M,M,M,M,M,25.53,KBAM 071015Z AUTO 34006KT 10SM SCT029 BKN034 00/M01 A3038 RMK AO1,M
CXP,2025-01-07 10:15,-119.7326,39.1923,1431.00,35.60,26.60,69.46,20.00,5.00,0.00,30.38,M,10.00,M,OVC,M,M,M,4300.00,M,M,M,M,M,M,M,M,M,M,30.67,KCXP 071015Z AUTO 02005KT 10SM OVC043 02/M03 A3038 RMK AO2,M
HTH,2025-01-07 10:15,-118.6315,38.5448,1282.89,35.60,30.20,80.51,340.00,12.00,0.00,30.34,M,10.00,M,FEW,FEW,SCT,M,3300.00,4800.00,6000.00,M,M,M,M,M,M,M,M,26.58,KHTH 071015Z AUTO 34012KT 10SM FEW033 FEW048 SCT060 02/M01 A3034 RMK A01,M
05U,2025-01-07 10:30,-116.0051,39.6042,1811.23,M,M,M,0.00,0.00,0.00,30.31,M,10.00,M,CLR,M,M,M,M,M,M,M,M,M,M,M,M,M,M,M,K05U 071030Z AUTO 00000KT 10SM CLR A3031 RMK A01,M
TMT,2025-01-07 10:30,-117.1971,39.4643,1749.34,26.40,23.00,86.78,30.00,4.00,0.00,30.33,M,10.00,M,CLR,M,M,M,M,M,M,M,M,M,M,M,M,M,M,20.88,KTMT 071030Z AUTO 03004KT 10SM CLR M03/M05 A3033 RMK AO2 T10311050,M
INS,2025-01-07 10:34,-115.6733,36.5872,955.00,50.00,28.40,43.03,340.00,17.00,0.00,30.07,1016.10,10.00,M,BKN,OVC,M,M,4800.00,6000.00,M,M,-RA,M,M,M,M,M,M,50.00,KINS 071034Z AUTO 34017KT 10SM -RA BKN048 OVC060 10/M02 A3007 RMK AO2 RAB34 SLP161,M
BVU,2025-01-07 10:35,-114.8611,35.9475,671.00,53.60,24.80,32.46,10.00,16.00,0.00,30.01,M,10.00,M,BKN,OVC,M,M,9500.00,12000.00,M,M,M,M,M,M,M,M,M,53.60,KBVU 071035Z AUTO 01016KT 10SM BKN095 OVC120 12/M04 A3001 RMK AO2,M
CXP,2025-01-07 10:35,-119.7326,39.1923,1431.00,33.80,26.60,74.63,40.00,5.00,0.00,30.38,M,10.00,M,FEW,M,M,M,4200.00,M,M,M,M,M,M,M,M,M,M,28.53,KCXP 071035Z AUTO 04005KT 10SM FEW042 01/M03 A3038 RMK AO2,M
BAM,2025-01-07 10:35,-116.8743,40.5990,1382.36,32.00,30.20,92.97,350.00,5.00,0.00,30.38,M,10.00,M,BKN,M,M,M,3400.00,M,M,M,M,M,M,M,M,M,M,26.40,KBAM 071035Z AUTO 35005KT 10SM BKN034 00/M01 A3038 RMK AO1,M
HTH,2025-01-07 10:35,-118.6315,38.5448,1282.89,35.60,30.20,80.51,340.00,15.00,0.00,30.35,M,10.00,M,CLR,M,M,M,M,M,M,M,M,M,M,M,M,M,M,25.45,KHTH 071035Z AUTO 34015KT 10SM CLR 02/M01 A3035 RMK A01,M
INS,2025-01-07 10:45,-115.6733,36.5872,955.00,48.20,28.40,46.02,340.00,15.00,0.00,30.08,1016.40,10.00,M,BKN,OVC,M,M,5000.00,6000.00,M,M,M,M,M,M,M,M,M,41.78,KINS 071045Z AUTO 34015KT 10SM BKN050 OVC060 09/M02 A3008 RMK AO2 RAB34E45 SLP164,M
MEV,2025-01-07 10:45,-119.7500,38.9963,1441.42,35.60,24.80,64.46,M,5.00,0.00,30.36,M,10.00,11.00,BKN,BKN,M,M,4000.00,4700.00,M,M,M,M,M,M,M,M,M,30.67,KMEV 071045Z AUTO VRB05G11KT 10SM BKN040 BKN047 02/M04 A3036 RMK AO2,M
RTS,2025-01-07 10:45,-119.8764,39.6682,1539.00,32.00,24.80,74.44,0.00,0.00,0.00,30.37,M,10.00,M,CLR,M,M,M,M,M,M,M,M,M,M,M,M,M,M,32.00,KRTS 071045Z AUTO 00000KT 10SM CLR 00/M04 A3037 RMK AO2,M
05U,2025-01-07 10:50,-116.0051,39.6042,1811.23,M,M,M,0.00,0.00,0.00,30.31,M,10.00,M,CLR,M,M,M,M,M,M,M,M,M,M,M,M,M,M,M,K05U 071050Z AUTO 00000KT 10SM CLR A3031 RMK A01,M
TMT,2025-01-07 10:50,-117.1971,39.4643,1749.34,25.50,22.60,88.58,20.00,7.00,0.00,30.33,M,10.00,M,CLR,M,M,M,M,M,M,M,M,M,M,M,M,M,M,16.86,KTMT 071050Z AUTO 02007KT 10SM CLR M04/M05 A3033 RMK AO2 T10361052,M
P68,2025-01-07 10:53,-116.0056,39.6014,1993.00,20.00,19.00,95.82,0.00,0.00,0.00,30.28,1026.60,M,M,M,M,M,M,M,M,M,M,M,M,M,M,M,M,M,20.00,KP68 071053Z AUTO 00000KT M07/M07 A3028 RMK AO1 SLP266 T10671072 $,M
DRA,2025-01-07 10:53,-116.0278,36.6206,1009.00,46.00,32.00,57.87,20.00,17.00,0.00,30.07,1016.10,10.00,M,OVC,M,M,M,5500.00,M,M,M,M,M,M,M,29.00,20.00,2025-01-07 10:11,38.42,KDRA 071053Z AUTO 02017KT 10SM OVC055 08/00 A3007 RMK AO2 PK WND 02029/1011 SLP161 T00780000,M
ELY,2025-01-07 10:53,-114.8453,39.2950,1909.00,24.00,21.00,88.13,10.00,9.00,0.00,30.23,1023.80,10.00,16.00,CLR,M,M,M,M,M,M,M,M,M,M,M,M,M,M,13.57,KELY 071053Z AUTO 01009G16KT 10SM CLR M04/M06 A3023 RMK AO2 SLP238 T10441061,M
VGT,2025-01-07 10:53,-115.1933,36.2111,667.00,48.00,27.00,43.77,0.00,0.00,0.00,30.04,1018.50,10.00,M,OVC,M,M,M,10000.00,M,M,M,M,M,M,M,M,M,M,48.00,KVGT 071053Z AUTO 00000KT 10SM OVC100 09/M03 A3004 RMK AO2 SLP185 T00891028,M
LOL,2025-01-07 10:53,-118.5701,40.0684,1192.43,33.00,27.00,78.34,0.00,0.00,0.00,30.38,1029.80,10.00,M,CLR,M,M,M,M,M,M,M,M,M,M,M,M,M,M,33.00,KLOL 071053Z AUTO 00000KT 10SM CLR 01/M03 A3038 RMK AO2 SLP298 T00061028,M
BVU,2025-01-07 10:55,-114.8611,35.9475,671.00,53.60,24.80,32.46,20.00,18.00,0.00,30.01,M,10.00,23.00,BKN,OVC,M,M,10000.00,12000.00,M,M,M,M,M,M,M,M,M,53.60,KBVU 071055Z AUTO 02018G23KT 10SM BKN100 OVC120 12/M04 A3001 RMK AO2,M
RNO,2025-01-07 10:55,-119.7711,39.4839,1341.00,34.00,27.00,75.26,20.00,4.00,0.00,30.37,1027.90,10.00,M,FEW,FEW,M,M,3500.00,5500.00,M,M,M,M,M,M,M,M,M,29.76,KRNO 071055Z 02004KT 10SM FEW035 FEW055 01/M03 A3037 RMK AO2 SLP279 T00111028,M
CXP,2025-01-07 10:55,-119.7326,39.1923,1431.00,33.80,26.60,74.63,30.00,6.00,0.00,30.37,M,10.00,M,FEW,M,M,M,3900.00,M,M,M,M,M,M,M,M,M,M,27.70,KCXP 071055Z AUTO 03006KT 10SM FEW039 01/M03 A3037 RMK AO2,M
BAM,2025-01-07 10:55,-116.8743,40.5990,1382.36,32.00,28.40,86.39,360.00,7.00,0.00,30.38,M,10.00,M,SCT,M,M,M,3600.00,M,M,M,M,M,M,M,M,M,M,24.78,KBAM 071055Z AUTO 36007KT 10SM SCT036 00/M02 A3038 RMK AO1,M
HTH,2025-01-07 10:55,-118.6315,38.5448,1282.89,35.60,28.40,74.80,330.00,14.00,0.00,30.35,M,10.00,M,CLR,M,M,M,M,M,M,M,M,M,M,M,M,M,M,25.80,KHTH 071055Z AUTO 33014KT 10SM CLR 02/M02 A3035 RMK A01,M
INS,2025-01-07 10:55,-115.6733,36.5872,955.00,49.00,28.60,45.03,350.00,13.00,T,30.08,1016.40,10.00,M,OVC,M,M,M,5500.00,M,M,M,M,M,M,M,M,M,M,43.35,KINS 071055Z AUTO 35013KT 10SM OVC055 09/M02 A3008 RMK AO2 RAB34E45 SLP164 P0000 T00941019,M
LSV,2025-01-07 10:55,-115.0343,36.2362,570.00,55.40,23.00,28.20,30.00,8.00,0.00,30.01,1015.40,10.00,M,SCT,M,M,M,11000.00,M,M,M,M,M,M,M,M,M,M,55.40,KLSV 071055Z AUTO 03008KT 10SM SCT110 13/M05 A3001 RMK AO2 SLP154 T01301051 $,M
EKO,2025-01-07 10:56,-115.7860,40.8242,1367.00,28.00,22.00,77.89,0.00,0.00,0.00,30.33,1029.10,10.00,M,CLR,M,M,M,M,M,M,M,M,M,M,M,M,M,M,28.00,KEKO 071056Z AUTO 00000KT 10SM CLR M02/M06 A3033 RMK AO2 SLP291 T10221056,M
WMC,2025-01-07 10:56,-117.8072,40.9019,1315.00,32.00,25.00,75.07,20.00,6.00,0.00,30.39,1030.20,10.00,M,CLR,M,M,M,M,M,M,M,M,M,M,M,M,M,M,25.53,KWMC 071056Z AUTO 02006KT 10SM CLR 00/M04 A3039 RMK AO2 SLP302 T00001039,M
HND,2025-01-07 10:56,-115.1344,35.9729,742.79,49.00,24.00,37.22,30.00,5.00,0.00,30.06,1019.10,10.00,M,BKN,OVC,M,M,8000.00,9000.00,M,M,M,M,M,M,M,M,M,46.58,KHND 071056Z AUTO 03005KT 10SM BKN080 OVC090 09/M04 A3006 RMK AO2 SLP191 T00941044 $,M
TPH,2025-01-07 10:56,-117.0904,38.0505,1654.00,34.00,22.00,61.09,350.00,23.00,0.00,30.21,1022.40,10.00,29.00,CLR,M,M,M,M,M,M,M,M,M,M,M,30.00,350.00,2025-01-07 09:57,21.00,KTPH 071056Z AUTO 35023G29KT 10SM CLR 01/M06 A3021 RMK AO2 PK WND 35030/0957 SLP224 T00111056,M
LAS,2025-01-07 10:56,-115.1634,36.0719,663.00,49.00,24.00,37.22,0.00,0.00,0.00,30.05,1017.00,10.00,M,OVC,M,M,M,9000.00,M,M,M,M,M,M,M,M,M,M,49.00,KLAS 071056Z 00000KT 10SM OVC090 09/M04 A3005 RMK AO2 SLP170 T00941044 $,M
05U,2025-01-07 11:10,-116.0051,39.6042,1811.23,M,M,M,0.00,0.00,0.00,30.31,M,10.00,M,CLR,M,M,M,M,M,M,M,M,M,M,M,M,M,M,M,K05U 071110Z AUTO 00000KT 10SM CLR A3031 RMK A01,M
TMT,2025-01-07 11:10,-117.1971,39.4643,1749.34,25.00,22.00,88.18,30.00,5.00,0.00,30.33,M,10.00,M,CLR,M,M,M,M,M,M,M,M,M,M,M,M,M,M,18.08,KTMT 071110Z AUTO 03005KT 10SM CLR M04/M05 A3033 RMK AO2 T10381055,M
BVU,2025-01-07 11:15,-114.8611,35.9475,671.00,53.60,24.80,32.46,10.00,17.00,0.00,30.01,M,10.00,25.00,OVC,M,M,M,11000.00,M,M,M,M,M,M,M,M,M,M,53.60,KBVU 071115Z AUTO 01017G25KT 10SM OVC110 12/M04 A3001 RMK AO2,M
CXP,2025-01-07 11:15,-119.7326,39.1923,1431.00,33.80,26.60,74.63,10.00,5.00,0.00,30.37,M,10.00,M,CLR,M,M,M,M,M,M,M,M,M,M,M,M,M,M,28.53,KCXP 071115Z AUTO 01005KT 10SM CLR 01/M03 A3037 RMK AO2,M
RTS,2025-01-07 11:15,-119.8764,39.6682,1539.00,32.00,24.80,74.44,M,3.00,0.00,30.36,M,10.00,M,CLR,M,M,M,M,M,M,M,M,M,M,M,M,M,M,28.69,KRTS 071115Z AUTO VRB03KT 10SM CLR M00/M04 A3036 RMK AO2,M
BAM,2025-01-07 11:15,-116.8743,40.5990,1382.36,32.00,28.40,86.39,350.00,8.00,0.00,30.38,M,10.00,M,CLR,M,M,M,M,M,M,M,M,M,M,M,M,M,M,24.11,KBAM 071115Z AUTO 35008KT 10SM CLR 00/M02 A3038 RMK AO1,M
HTH,2025-01-07 11:15,-118.6315,38.5448,1282.89,35.60,28.40,74.80,350.00,13.00,0.00,30.36,M,10.00,20.00,SCT,SCT,M,M,5000.00,5500.00,M,M,M,M,M,M,M,M,M,26.18,KHTH 071115Z AUTO 35013G20KT 10SM SCT050 SCT055 02/M02 A3036 RMK A01,M
05U,2025-01-07 11:30,-116.0051,39.6042,1811.23,M,M,M,0.00,0.00,0.00,30.31,M,10.00,M,CLR,M,M,M,M,M,M,M,M,M,M,M,M,M,M,M,K05U 071130Z AUTO 00000KT 10SM CLR A3031 RMK A01,M
TMT,2025-01-07 11:30,-117.1971,39.4643,1749.34,25.00,22.50,90.06,10.00,9.00,0.00,30.33,M,10.00,M,CLR,M,M,M,M,M,M,M,M,M,M,M,M,M,M,14.81,KTMT 071130Z AUTO 01009KT 10SM CLR M04/M05 A3033 RMK AO2 T10381053,M
BVU,2025-01-07 11:35,-114.8611,35.9475,671.00,53.60,24.80,32.46,10.00,20.00,0.00,30.01,M,10.00,M,SCT,BKN,OVC,M,5500.00,9000.00,11000.00,M,M,M,M,M,M,M,M,53.60,KBVU 071135Z AUTO 01020KT 10SM SCT055 BKN090 OVC110 12/M04 A3001 RMK AO2,M
BAM,2025-01-07 11:35,-116.8743,40.5990,1382.36,32.00,28.40,86.39,350.00,7.00,0.00,30.38,M,10.00,M,CLR,M,M,M,M,M,M,M,M,M,M,M,M,M,M,24.78,KBAM 071135Z AUTO 35007KT 10SM CLR 00/M02 A3038 RMK AO1,M
CXP,2025-01-07 11:35,-119.7326,39.1923,1431.00,33.80,24.80,69.25,30.00,7.00,0.00,30.37,M,10.00,M,CLR,M,M,M,M,M,M,M,M,M,M,M,M,M,M,26.97,KCXP 071135Z AUTO 03007KT 10SM CLR 01/M04 A3037 RMK AO2,M
RTS,2025-01-07 11:35,-119.8764,39.6682,1539.00,32.00,24.80,74.44,0.00,0.00,0.00,30.37,M,10.00,M,CLR,M,M,M,M,M,M,M,M,M,M,M,M,M,M,32.00,KRTS 071135Z AUTO 00000KT 10SM CLR M00/M04 A3037 RMK AO2,M
HTH,2025-01-07 11:35,-118.6315,38.5448,1282.89,35.60,28.40,74.80,340.00,9.00,0.00,30.36,M,10.00,14.00,BKN,M,M,M,5000.00,M,M,M,M,M,M,M,M,M,M,27.99,KHTH 071135Z AUTO 34009G14KT 10SM BKN050 02/M02 A3036 RMK A01,M
05U,2025-01-07 11:50,-116.0051,39.6042,1811.23,M,M,M,0.00,0.00,0.00,30.32,M,10.00,M,CLR,M,M,M,M,M,M,M,M,M,M,M,M,M,M,M,K05U 071150Z AUTO 00000KT 10SM CLR A3032 RMK A01,M
TMT,2025-01-07 11:50,-117.1971,39.4643,1749.34,26.40,22.60,85.34,360.00,8.00,0.00,30.33,M,10.00,M,SCT,M,M,M,3400.00,M,M,M,M,M,M,M,M,M,M,17.21,KTMT 071150Z AUTO 36008KT 10SM SCT034 M03/M05 A3033 RMK AO2 T10311052,M
P68,2025-01-07 11:53,-116.0056,39.6014,1993.00,15.00,13.00,91.61,0.00,0.00,0.00,30.29,1028.20,M,M,M,M,M,M,M,M,M,M,M,M,M,M,M,M,M,15.00,KP68 071153Z AUTO 00000KT M09/M11 A3029 RMK AO1 SLP282 60001 70025 T10941106 11011 21100 51011 $,M
DRA,2025-01-07 11:53,-116.0278,36.6206,1009.00,46.00,32.00,57.87,40.00,14.00,0.00,30.09,1016.80,10.00,M,FEW,BKN,OVC,M,4900.00,6000.00,7500.00,M,M,M,M,M,M,M,M,39.21,KDRA 071153Z AUTO 04014KT 10SM FEW049 BKN060 OVC075 08/00 A3009 RMK AO2 SLP168 T00780000 10106 20078 53014,M
ELY,2025-01-07 11:53,-114.8453,39.2950,1909.00,22.00,19.00,88.02,30.00,9.00,0.00,30.23,1024.70,10.00,M,CLR,M,M,M,M,M,M,M,M,M,M,M,M,M,M,11.08,KELY 071153Z AUTO 03009KT 10SM CLR M06/M07 A3023 RMK AO2 SLP247 70001 T10561072 11011 21056 51006,M
VGT,2025-01-07 11:53,-115.1933,36.2111,667.00,53.00,30.00,41.11,330.00,6.00,0.00,30.05,1018.90,10.00,M,BKN,OVC,M,M,7000.00,9500.00,M,M,M,M,M,M,M,M,M,53.00,KVGT 071153Z AUTO 33006KT 10SM BKN070 OVC095 12/M01 A3005 RMK AO2 SLP189 T01171011 10122 20072 53007,M
LOL,2025-01-07 11:53,-118.5701,40.0684,1192.43,33.00,27.00,78.34,M,5.00,0.00,30.39,1030.30,10.00,M,CLR,M,M,M,M,M,M,M,M,M,M,M,M,M,M,27.58,KLOL 071153Z AUTO VRB05KT 10SM CLR 01/M03 A3039 RMK AO2 SLP303 70055 T00061028 10039 21011 52009,M
BVU,2025-01-07 11:55,-114.8611,35.9475,671.00,53.60,24.80,32.46,10.00,18.00,0.00,30.01,M,10.00,26.00,SCT,BKN,OVC,M,6000.00,7500.00,10000.00,M,M,M,M,M,M,M,M,53.60,KBVU 071155Z AUTO 01018G26KT 10SM SCT060 BKN075 OVC100 12/M04 A3001 RMK AO2,M
RNO,2025-01-07 11:55,-119.7711,39.4839,1341.00,32.00,26.00,78.25,190.00,3.00,0.00,30.37,1028.30,10.00,M,FEW,FEW,M,M,3500.00,5500.00,M,M,M,M,M,M,M,M,M,28.69,KRNO 071155Z 19003KT 10SM FEW035 FEW055 00/M03 A3037 RMK AO2 SLP283 70009 T00001033 10044 21011 51002,M
CXP,2025-01-07 11:55,-119.7326,39.1923,1431.00,33.80,24.80,69.25,0.00,0.00,0.00,30.37,M,10.00,M,CLR,M,M,M,M,M,M,M,M,M,M,M,M,M,M,33.80,KCXP 071155Z AUTO 00000KT 10SM CLR 01/M04 A3037 RMK AO2,M
RTS,2025-01-07 11:55,-119.8764,39.6682,1539.00,32.00,24.80,74.44,M,3.00,0.00,30.37,M,10.00,M,CLR,M,M,M,M,M,M,M,M,M,M,M,M,M,M,28.69,KRTS 071155Z AUTO VRB03KT 10SM CLR 00/M04 A3037 RMK AO2,M
BAM,2025-01-07 11:55,-116.8743,40.5990,1382.36,32.00,28.40,86.39,340.00,6.00,0.00,30.39,M,10.00,M,CLR,M,M,M,M,M,M,M,M,M,M,M,M,M,M,25.53,KBAM 071155Z AUTO 34006KT 10SM CLR 00/M02 A3039 RMK AO1,M
HTH,2025-01-07 11:55,-118.6315,38.5448,1282.89,33.80,28.40,80.36,330.00,11.00,0.00,30.36,M,10.00,M,FEW,M,M,M,5000.00,M,M,M,M,M,M,M,M,M,M,24.74,KHTH 071155Z AUTO 33011KT 10SM FEW050 01/M02 A3036 RMK A01,M
INS,2025-01-07 11:55,-115.6733,36.5872,955.00,48.00,27.00,43.77,290.00,4.00,0.00,30.10,1017.30,10.00,M,OVC,M,M,M,6500.00,M,M,M,M,M,M,M,M,M,M,46.10,KINS 071155Z AUTO 29004KT 10SM OVC065 09/M03 A3010 RMK AO2 SLP173 60000 T00881028 10100 20049 52014,M
LSV,2025-01-07 11:55,-115.0343,36.2362,570.00,55.40,23.70,29.04,30.00,12.00,0.00,30.03,1016.10,10.00,20.00,CLR,M,M,M,M,M,M,M,M,M,M,M,M,M,M,55.40,KLSV 071155Z AUTO 03012G20KT 10SM CLR 13/M05 A3003 RMK AO2 SLP161 T01301046 10139 20081 53008 $,M
EKO,2025-01-07 11:56,-115.7860,40.8242,1367.00,25.00,21.00,84.53,0.00,0.00,0.00,30.34,1029.60,10.00,M,BKN,M,M,M,3900.00,M,M,M,M,M,M,M,M,M,M,25.00,KEKO 071156Z AUTO 00000KT 10SM BKN039 M04/M06 A3034 RMK AO2 SLP296 70012 T10391061 10000 21044 53006,M
WMC,2025-01-07 11:56,-117.8072,40.9019,1315.00,27.00,22.00,81.17,0.00,0.00,0.00,30.39,1030.60,10.00,M,CLR,M,M,M,M,M,M,M,M,M,M,M,M,M,M,27.00,KWMC 071156Z AUTO 00000KT 10SM CLR M03/M06 A3039 RMK AO2 SLP306 70006 T10281056 10017 21028 51005,M
HND,2025-01-07 11:56,-115.1344,35.9729,742.79,49.00,25.00,38.81,10.00,8.00,0.00,30.07,1019.40,10.00,M,OVC,M,M,M,9000.00,M,M,M,M,M,M,M,M,M,M,45.05,KHND 071156Z AUTO 01008KT 10SM OVC090 09/M04 A3007 RMK AO2 SLP194 T00941039 10100 20044 53005 $,M
TPH,2025-01-07 11:56,-117.0904,38.0505,1654.00,32.00,21.00,63.45,350.00,21.00,0.00,30.22,1023.10,10.00,27.00,CLR,M,M,M,M,M,M,M,M,M,M,M,29.00,350.00,2025-01-07 11:01,18.85,KTPH 071156Z AUTO 35021G27KT 10SM CLR 00/M06 A3022 RMK AO2 PK WND 35029/1101 SLP231 60000 T00001061 10033 20000 51013,M
LAS,2025-01-07 11:56,-115.1634,36.0719,663.00,49.00,25.00,38.81,360.00,6.00,0.00,30.06,1017.30,10.00,M,OVC,M,M,M,9000.00,M,M,M,M,M,M,M,M,M,M,46.00,KLAS 071156Z 36006KT 10SM OVC090 09/M04 A3006 RMK AO2 SLP173 T00941039 10100 20083 53006 $,M
NFL,2025-01-07 11:57,-118.7010,39.4166,1199.00,30.00,25.00,81.40,M,3.00,0.00,30.36,1023.80,M,M,CLR,M,M,M,M,M,M,M,M,M,M,M,M,M,M,26.40,KNFL 071157Z AUTO VRB03KT CLR M01/M04 A3036 RMK AO2 SLP238 70005 T10111039 10033 21017 50004 $,M
RTS,2025-01-07 12:05,-119.8764,39.6682,1539.00,32.00,24.80,74.44,10.00,4.00,0.00,30.38,M,10.00,M,CLR,M,M,M,M,M,M,M,M,M,M,M,M,M,M,27.42,KRTS 071205Z AUTO 01004KT 10SM CLR M00/M04 A3038 RMK AO2,M
05U,2025-01-07 12:10,-116.0051,39.6042,1811.23,M,M,M,0.00,0.00,0.00,30.32,M,10.00,M,CLR,M,M,M,M,M,M,M,M,M,M,M,M,M,M,M,K05U 071210Z AUTO 00000KT 10SM CLR A3032 RMK A01,M
TMT,2025-01-07 12:10,-117.1971,39.4643,1749.34,26.00,22.30,85.67,30.00,7.00,0.00,30.33,M,10.00,M,SCT,M,M,M,3200.00,M,M,M,M,M,M,M,M,M,M,17.47,KTMT 071210Z AUTO 03007KT 10SM SCT032 M03/M05 A3033 RMK AO2 T10331054,M
BVU,2025-01-07 12:15,-114.8611,35.9475,671.00,53.60,24.80,32.46,350.00,16.00,0.00,30.02,M,10.00,26.00,FEW,OVC,M,M,6000.00,7500.00,M,M,M,M,M,M,M,M,M,53.60,KBVU 071215Z AUTO 35016G26KT 10SM FEW060 OVC075 12/M04 A3002 RMK AO2,M
CXP,2025-01-07 12:15,-119.7326,39.1923,1431.00,32.00,24.80,74.44,0.00,0.00,0.00,30.38,M,10.00,M,CLR,M,M,M,M,M,M,M,M,M,M,M,M,M,M,32.00,KCXP 071215Z AUTO 00000KT 10SM CLR M00/M04 A3038 RMK AO2,M
BAM,2025-01-07 12:15,-116.8743,40.5990,1382.36,32.00,28.40,86.39,330.00,5.00,0.00,30.39,M,10.00,M,CLR,M,M,M,M,M,M,M,M,M,M,M,M,M,M,26.40,KBAM 071215Z AUTO 33005KT 10SM CLR 00/M02 A3039 RMK AO1,M
HTH,2025-01-07 12:15,-118.6315,38.5448,1282.89,33.80,28.40,80.36,330.00,8.00,0.00,30.36,M,10.00,M,SCT,BKN,M,M,5000.00,5500.00,M,M,M,M,M,M,M,M,M,26.33,KHTH 071215Z AUTO 33008KT 10SM SCT050 BKN055 01/M02 A3036 RMK A01,M
05U,2025-01-07 12:30,-116.0051,39.6042,1811.23,M,M,M,0.00,0.00,0.00,30.32,M,10.00,M,CLR,M,M,M,M,M,M,M,M,M,M,M,M,M,M,M,K05U 071230Z AUTO 00000KT 10SM CLR A3032 RMK A01,M
TMT,2025-01-07 12:30,-117.1971,39.4643,1749.34,23.40,21.00,90.37,10.00,5.00,0.00,30.34,M,10.00,M,SCT,M,M,M,3200.00,M,M,M,M,M,M,M,M,M,M,16.18,KTMT 071230Z AUTO 01005KT 10SM SCT032 M05/M06 A3034 RMK AO2 T10481062,M
BVU,2025-01-07 12:35,-114.8611,35.9475,671.00,53.60,24.80,32.46,350.00,16.00,0.00,30.03,M,10.00,23.00,OVC,M,M,M,7000.00,M,M,M,M,M,M,M,M,M,M,53.60,KBVU 071235Z AUTO 35016G23KT 10SM OVC070 12/M04 A3003 RMK AO2,M
CXP,2025-01-07 12:35,-119.7326,39.1923,1431.00,30.20,24.80,80.07,0.00,0.00,0.00,30.38,M,10.00,M,BKN,M,M,M,3800.00,M,M,M,M,M,M,M,M,M,M,30.20,KCXP 071235Z AUTO 00000KT 10SM BKN038 M01/M04 A3038 RMK AO2,M
BAM,2025-01-07 12:35,-116.8743,40.5990,1382.36,32.00,28.40,86.39,320.00,5.00,0.00,30.39,M,10.00,M,CLR,M,M,M,M,M,M,M,M,M,M,M,M,M,M,26.40,KBAM 071235Z AUTO 32005KT 10SM CLR 00/M02 A3039 RMK AO1,M
HTH,2025-01-07 12:35,-118.6315,38.5448,1282.89,33.80,26.60,74.63,330.00,8.00,0.00,30.36,M,10.00,M,BKN,OVC,M,M,5000.00,5500.00,M,M,M,M,M,M,M,M,M,26.33,KHTH 071235Z AUTO 33008KT 10SM BKN050 OVC055 01/M03 A3036 RMK A01,M
05U,2025-01-07 12:50,-116.0051,39.6042,1811.23,M,M,M,0.00,0.00,0.00,30.32,M,10.00,M,CLR,M,M,M,M,M,M,M,M,M,M,M,M,M,M,M,K05U 071250Z AUTO 00000KT 10SM CLR A3032 RMK A01,M
TMT,2025-01-07 12:50,-117.1971,39.4643,1749.34,22.60,20.50,91.50,360.00,7.00,0.00,30.34,M,10.00,M,CLR,M,M,M,M,M,M,M,M,M,M,M,M,M,M,13.32,KTMT 071250Z AUTO 36007KT 10SM CLR M05/M06 A3034 RMK AO2 T10521064,M
P68,2025-01-07 12:53,-116.0056,39.6014,1993.00,8.00,5.00,87.25,200.00,4.00,0.00,30.29,1029.30,M,M,M,M,M,M,M,M,M,M,M,M,M,M,M,M,M,-0.61,KP68 071253Z AUTO 20004KT M13/M15 A3029 RMK AO1 SLP293 T11331150 $,M
DRA,2025-01-07 12:53,-116.0278,36.6206,1009.00,46.00,32.00,57.87,60.00,12.00,0.00,30.10,1017.50,10.00,M,OVC,M,M,M,8000.00,M,M,M,M,M,M,M,M,M,M,39.82,KDRA 071253Z AUTO 06012KT 10SM OVC080 08/00 A3010 RMK AO2 SLP175 T00780000,M
ELY,2025-01-07 12:53,-114.8453,39.2950,1909.00,21.00,18.00,87.97,20.00,9.00,0.00,30.25,1026.20,10.00,18.00,CLR,M,M,M,M,M,M,M,M,M,M,M,M,M,M,9.84,KELY 071253Z AUTO 02009G18KT 10SM CLR M06/M08 A3025 RMK AO2 SLP262 T10611078,M
VGT,2025-01-07 12:53,-115.1933,36.2111,667.00,53.00,30.00,41.11,350.00,12.00,0.00,30.07,1019.50,10.00,19.00,SCT,OVC,M,M,6000.00,8000.00,M,M,M,M,M,M,M,M,M,53.00,KVGT 071253Z AUTO 35012G19KT 10SM SCT060 OVC080 12/M01 A3007 RMK AO2 SLP195 T01171011,M
LOL,2025-01-07 12:53,-118.5701,40.0684,1192.43,31.00,26.00,81.48,10.00,6.00,0.00,30.38,1030.30,10.00,M,CLR,M,M,M,M,M,M,M,M,M,M,M,M,M,M,24.33,KLOL 071253Z AUTO 01006KT 10SM CLR M01/M03 A3038 RMK AO2 SLP303 T10061033,M
BVU,2025-01-07 12:55,-114.8611,35.9475,671.00,53.60,24.80,32.46,360.00,16.00,0.00,30.03,M,10.00,23.00,OVC,M,M,M,7000.00,M,M,M,M,M,M,M,M,M,M,53.60,KBVU 071255Z AUTO 36016G23KT 10SM OVC070 12/M04 A3003 RMK AO2,M
RNO,2025-01-07 12:55,-119.7711,39.4839,1341.00,28.00,26.00,92.08,0.00,0.00,0.00,30.38,1029.40,10.00,M,FEW,FEW,M,M,3500.00,5500.00,M,M,M,M,M,M,M,M,M,28.00,KRNO 071255Z 00000KT 10SM FEW035 FEW055 M02/M03 A3038 RMK AO2 SLP294 T10221033 $,M
CXP,2025-01-07 12:55,-119.7326,39.1923,1431.00,33.80,24.80,69.25,340.00,5.00,0.00,30.39,M,10.00,M,OVC,M,M,M,3700.00,M,M,M,M,M,M,M,M,M,M,28.53,KCXP 071255Z AUTO 34005KT 10SM OVC037 01/M04 A3039 RMK AO2,M
RTS,2025-01-07 12:55,-119.8764,39.6682,1539.00,32.00,24.80,74.44,40.00,8.00,0.00,30.39,M,10.00,M,CLR,M,M,M,M,M,M,M,M,M,M,M,M,M,M,24.11,KRTS 071255Z AUTO 04008KT 10SM CLR 00/M04 A3039 RMK AO2,M
MEV,2025-01-07 12:55,-119.7500,38.9963,1441.42,32.00,24.80,74.44,350.00,6.00,0.00,30.37,M,10.00,M,BKN,BKN,M,M,3400.00,4100.00,M,M,M,M,M,M,M,M,M,25.53,KMEV 071255Z AUTO 35006KT 10SM BKN034 BKN041 M00/M04 A3037 RMK AO2,M
BAM,2025-01-07 12:55,-116.8743,40.5990,1382.36,30.20,28.40,92.92,350.00,5.00,0.00,30.40,M,10.00,M,CLR,M,M,M,M,M,M,M,M,M,M,M,M,M,M,24.26,KBAM 071255Z AUTO 35005KT 10SM CLR M01/M02 A3040 RMK AO1,M
HTH,2025-01-07 12:55,-118.6315,38.5448,1282.89,33.80,26.60,74.63,330.00,12.00,0.00,30.37,M,10.00,M,BKN,OVC,M,M,4600.00,5000.00,M,M,M,M,M,M,M,M,M,24.29,KHTH 071255Z AUTO 33012KT 10SM BKN046 OVC050 01/M03 A3037 RMK A01,M
INS,2025-01-07 12:55,-115.6733,36.5872,955.00,48.40,25.00,39.69,10.00,4.00,0.00,30.11,1017.90,10.00,M,SCT,SCT,OVC,M,6500.00,8000.00,9000.00,M,M,M,M,M,M,M,M,46.57,KINS 071255Z AUTO 01004KT 10SM SCT065 SCT080 OVC090 09/M04 A3011 RMK AO2 SLP179 T00911038,M
LSV,2025-01-07 12:55,-115.0343,36.2362,570.00,55.40,24.40,29.90,20.00,16.00,0.00,30.04,1016.50,10.00,M,SCT,M,M,M,9000.00,M,M,M,M,M,M,M,M,M,M,55.40,KLSV 071255Z AUTO 02016KT 10SM SCT090 13/M04 A3004 RMK AO2 SLP165 T01301042 $,M
EKO,2025-01-07 12:56,-115.7860,40.8242,1367.00,25.00,22.00,88.18,0.00,0.00,0.00,30.34,1030.20,10.00,M,BKN,M,M,M,4700.00,M,M,M,M,M,M,M,M,M,M,25.00,KEKO 071256Z AUTO 00000KT 10SM BKN047 M04/M06 A3034 RMK AO2 SLP302 T10391056,M
WMC,2025-01-07 12:56,-117.8072,40.9019,1315.00,26.00,21.00,81.09,310.00,4.00,0.00,30.40,1031.10,10.00,M,CLR,M,M,M,M,M,M,M,M,M,M,M,M,M,M,20.41,KWMC 071256Z AUTO 31004KT 10SM CLR M03/M06 A3040 RMK AO2 SLP311 T10331061,M
HND,2025-01-07 12:56,-115.1344,35.9729,742.79,49.00,26.00,40.45,40.00,6.00,0.00,30.08,1020.10,10.00,M,OVC,M,M,M,8000.00,M,M,M,M,M,M,M,M,M,M,46.00,KHND 071256Z AUTO 04006KT 10SM OVC080 09/M03 A3008 RMK AO2 SLP201 T00941033 $,M
TPH,2025-01-07 12:56,-117.0904,38.0505,1654.00,32.00,20.00,60.81,340.00,23.00,0.00,30.22,1023.60,10.00,31.00,CLR,M,M,M,M,M,M,M,M,M,M,M,31.00,350.00,2025-01-07 12:54,18.31,KTPH 071256Z AUTO 34023G31KT 10SM CLR 00/M07 A3022 RMK AO2 PK WND 35031/1254 SLP236 T00001067,M
LAS,2025-01-07 12:56,-115.1634,36.0719,663.00,53.00,28.00,37.88,350.00,14.00,0.00,30.08,1017.90,10.00,M,OVC,M,M,M,7000.00,M,M,M,M,M,M,M,M,M,M,53.00,KLAS 071256Z 35014KT 10SM OVC070 12/M02 A3008 RMK AO2 SLP179 T01171022 $,M
RTS,2025-01-07 13:05,-119.8764,39.6682,1539.00,32.00,24.80,74.44,60.00,7.00,0.00,30.39,M,10.00,M,CLR,M,M,M,M,M,M,M,M,M,M,M,M,M,M,24.78,KRTS 071305Z AUTO 06007KT 10SM CLR 00/M04 A3039 RMK AO2,M
05U,2025-01-07 13:10,-116.0051,39.6042,1811.23,M,M,M,0.00,0.00,0.00,30.32,M,10.00,M,CLR,M,M,M,M,M,M,M,M,M,M,M,M,M,M,M,K05U 071310Z AUTO 00000KT 10SM CLR A3032 RMK A01,M
TMT,2025-01-07 13:10,-117.1971,39.4643,1749.34,22.50,20.00,89.95,0.00,0.00,0.00,30.34,M,10.00,M,CLR,M,M,M,M,M,M,M,M,M,M,M,M,M,M,22.50,KTMT 071310Z AUTO 00000KT 10SM CLR M05/M07 A3034 RMK AO2 T10531067,M
BVU,2025-01-07 13:15,-114.8611,35.9475,671.00,51.80,26.60,37.38,360.00,20.00,0.00,30.04,M,10.00,27.00,FEW,SCT,OVC,M,2200.00,3300.00,7000.00,M,M,M,M,M,M,M,M,51.80,KBVU 071315Z AUTO 36020G27KT 10SM FEW022 SCT033 OVC070 11/M03 A3004 RMK AO2,M
CXP,2025-01-07 13:15,-119.7326,39.1923,1431.00,32.00,24.80,74.44,30.00,3.00,0.00,30.39,M,10.00,M,SCT,M,M,M,3800.00,M,M,M,M,M,M,M,M,M,M,28.69,KCXP 071315Z AUTO 03003KT 10SM SCT038 M00/M04 A3039 RMK AO2,M
MEV,2025-01-07 13:15,-119.7500,38.9963,1441.42,30.20,24.80,80.07,360.00,7.00,0.00,30.37,M,10.00,M,BKN,BKN,M,M,3400.00,4400.00,M,M,M,M,M,M,M,M,M,22.59,KMEV 071315Z AUTO 36007KT 10SM BKN034 BKN044 M01/M04 A3037 RMK AO2,M
BAM,2025-01-07 13:15,-116.8743,40.5990,1382.36,30.20,28.40,92.92,350.00,5.00,0.00,30.40,M,10.00,M,CLR,M,M,M,M,M,M,M,M,M,M,M,M,M,M,24.26,KBAM 071315Z AUTO 35005KT 10SM CLR M01/M02 A3040 RMK AO1,M
HTH,2025-01-07 13:15,-118.6315,38.5448,1282.89,33.80,26.60,74.63,320.00,8.00,0.00,30.38,M,10.00,M,BKN,OVC,M,M,4600.00,5000.00,M,M,M,M,M,M,M,M,M,26.33,KHTH 071315Z AUTO 32008KT 10SM BKN046 OVC050 01/M03 A3038 RMK A01,M
05U,2025-01-07 13:30,-116.0051,39.6042,1811.23,M,M,M,0.00,0.00,0.00,30.33,M,10.00,M,CLR,M,M,M,M,M,M,M,M,M,M,M,M,M,M,M,K05U 071330Z AUTO 00000KT 10SM CLR A3033 RMK A01,M
TMT,2025-01-07 13:30,-117.1971,39.4643,1749.34,19.60,17.80,92.57,0.00,0.00,0.00,30.35,M,10.00,M,CLR,M,M,M,M,M,M,M,M,M,M,M,M,M,M,19.60,KTMT 071330Z AUTO 00000KT 10SM CLR M07/M08 A3035 RMK AO2 T10691079,M
BVU,2025-01-07 13:35,-114.8611,35.9475,671.00,51.80,26.60,37.38,350.00,21.00,0.00,30.05,M,10.00,27.00,FEW,BKN,OVC,M,2200.00,3300.00,11000.00,M,M,M,M,M,M,M,M,51.80,KBVU 071335Z AUTO 35021G27KT 10SM FEW022 BKN033 OVC110 11/M03 A3005 RMK AO2,M
CXP,2025-01-07 13:35,-119.7326,39.1923,1431.00,30.20,24.80,80.07,20.00,4.00,0.00,30.39,M,10.00,M,CLR,M,M,M,M,M,M,M,M,M,M,M,M,M,M,25.32,KCXP 071335Z AUTO 02004KT 10SM CLR M01/M04 A3039 RMK AO2,M
MEV,2025-01-07 13:35,-119.7500,38.9963,1441.42,32.00,24.80,74.44,20.00,5.00,0.00,30.38,M,10.00,M,FEW,FEW,M,M,3500.00,4500.00,M,M,M,M,M,M,M,M,M,26.40,KMEV 071335Z AUTO 02005KT 10SM FEW035 FEW045 M00/M04 A3038 RMK AO2,M
BAM,2025-01-07 13:35,-116.8743,40.5990,1382.36,30.20,28.40,92.92,10.00,4.00,0.00,30.40,M,10.00,M,CLR,M,M,M,M,M,M,M,M,M,M,M,M,M,M,25.32,KBAM 071335Z AUTO 01004KT 10SM CLR M01/M02 A3040 RMK AO1,M
HTH,2025-01-07 13:35,-118.6315,38.5448,1282.89,33.80,26.60,74.63,330.00,10.00,0.00,30.38,M,10.00,M,SCT,OVC,M,M,4400.00,5000.00,M,M,M,M,M,M,M,M,M,25.23,KHTH 071335Z AUTO 33010KT 10SM SCT044 OVC050 01/M03 A3038 RMK A01,M
05U,2025-01-07 13:50,-116.0051,39.6042,1811.23,M,M,M,0.00,0.00,0.00,30.34,M,10.00,M,CLR,M,M,M,M,M,M,M,M,M,M,M,M,M,M,M,K05U 071350Z AUTO 00000KT 10SM CLR A3034 RMK A01,M
TMT,2025-01-07 13:50,-117.1971,39.4643,1749.34,19.20,17.60,93.36,0.00,0.00,0.00,30.36,M,10.00,M,CLR,M,M,M,M,M,M,M,M,M,M,M,M,M,M,19.20,KTMT 071350Z AUTO 00000KT 10SM CLR M07/M08 A3036 RMK AO2 T10711080,M
P68,2025-01-07 13:53,-116.0056,39.6014,1993.00,7.00,4.00,87.20,200.00,6.00,0.00,30.31,1030.20,M,M,M,M,M,M,M,M,M,M,M,M,M,M,M,M,M,-4.58,KP68 071353Z AUTO 20006KT M14/M16 A3031 RMK AO1 SLP302 T11391156 $,M
DRA,2025-01-07 13:53,-116.0278,36.6206,1009.00,45.00,31.00,57.73,30.00,20.00,0.00,30.11,1018.00,10.00,28.00,CLR,M,M,M,M,M,M,M,M,M,M,M,28.00,30.00,2025-01-07 13:52,36.41,KDRA 071353Z AUTO 03020G28KT 10SM CLR 07/M01 A3011 RMK AO2 PK WND 03028/1352 SLP180 T00721006,M
ELY,2025-01-07 13:53,-114.8453,39.2950,1909.00,22.00,18.00,84.33,360.00,10.00,0.00,30.26,1026.80,10.00,M,CLR,M,M,M,M,M,M,M,M,M,M,M,27.00,10.00,2025-01-07 13:20,10.43,KELY 071353Z AUTO 36010KT 10SM CLR M06/M08 A3026 RMK AO2 PK WND 01027/1320 SLP268 T10561078,M
VGT,2025-01-07 13:53,-115.1933,36.2111,667.00,53.00,28.00,37.88,350.00,11.00,0.00,30.09,1020.20,10.00,19.00,OVC,M,M,M,7000.00,M,M,M,M,M,M,M,M,M,M,53.00,KVGT 071353Z 35011G19KT 10SM OVC070 12/M02 A3009 RMK AO2 SLP202 T01171022,M
LOL,2025-01-07 13:53,-118.5701,40.0684,1192.43,31.00,26.00,81.48,10.00,4.00,0.00,30.41,1031.20,10.00,M,CLR,M,M,M,M,M,M,M,M,M,M,M,M,M,M,26.25,KLOL 071353Z AUTO 01004KT 10SM CLR M01/M03 A3041 RMK AO2 SLP312 T10061033,M
BVU,2025-01-07 13:55,-114.8611,35.9475,671.00,50.00,30.20,46.31,350.00,23.00,0.00,30.06,M,10.00,M,FEW,OVC,M,M,2200.00,3300.00,M,M,-RA,M,M,M,M,M,M,50.00,KBVU 071355Z AUTO 35023KT 10SM -RA FEW022 OVC033 10/M01 A3006 RMK AO2,M
RNO,2025-01-07 13:55,-119.7711,39.4839,1341.00,29.00,26.00,88.38,0.00,0.00,0.00,30.41,1030.40,10.00,M,FEW,FEW,M,M,3500.00,5500.00,M,M,M,M,M,M,M,M,M,29.00,KRNO 071355Z 00000KT 10SM FEW035 FEW055 M02/M03 A3041 RMK AO2 SLP304 T10171033 $,M
BAM,2025-01-07 13:55,-116.8743,40.5990,1382.36,28.40,26.60,92.86,0.00,0.00,0.00,30.41,M,10.00,M,CLR,M,M,M,M,M,M,M,M,M,M,M,M,M,M,28.40,KBAM 071355Z AUTO 00000KT 10SM CLR M02/M03 A3041 RMK AO1,M
CXP,2025-01-07 13:55,-119.7326,39.1923,1431.00,32.00,23.00,69.04,30.00,4.00,0.00,30.40,M,10.00,M,CLR,M,M,M,M,M,M,M,M,M,M,M,M,M,M,27.42,KCXP 071355Z AUTO 03004KT 10SM CLR 00/M05 A3040 RMK AO2,M
MEV,2025-01-07 13:55,-119.7500,38.9963,1441.42,28.40,23.00,79.92,30.00,5.00,0.00,30.38,M,10.00,M,FEW,M,M,M,4100.00,M,M,M,M,M,M,M,M,M,M,22.12,KMEV 071355Z AUTO 03005KT 10SM FEW041 M02/M05 A3038 RMK AO2,M
HTH,2025-01-07 13:55,-118.6315,38.5448,1282.89,33.80,26.60,74.63,310.00,10.00,0.00,30.39,M,10.00,M,SCT,BKN,OVC,M,3600.00,4300.00,5000.00,M,M,M,M,M,M,M,M,25.23,KHTH 071355Z AUTO 31010KT 10SM SCT036 BKN043 OVC050 01/M03 A3039 RMK A01,M
INS,2025-01-07 13:55,-115.6733,36.5872,955.00,48.00,24.30,39.13,10.00,8.00,0.00,30.13,1019.00,10.00,M,SCT,BKN,M,M,8000.00,10000.00,M,M,M,M,M,M,M,M,M,43.82,KINS 071355Z AUTO 01008KT 10SM SCT080 BKN100 09/M04 A3013 RMK AO2 SLP190 T00891043,M
LSV,2025-01-07 13:55,-115.0343,36.2362,570.00,54.70,25.30,31.84,30.00,15.00,0.00,30.06,1017.40,10.00,M,SCT,M,M,M,8000.00,M,M,M,M,M,M,M,M,M,M,54.70,KLSV 071355Z AUTO 03015KT 10SM SCT080 13/M04 A3006 RMK AO2 SLP174 T01261037 $,M
EKO,2025-01-07 13:56,-115.7860,40.8242,1367.00,26.00,23.00,88.23,220.00,3.00,0.00,30.36,1030.40,10.00,M,OVC,M,M,M,4700.00,M,M,M,M,M,M,M,M,M,M,21.83,KEKO 071356Z AUTO 22003KT 10SM OVC047 M03/M05 A3036 RMK AO2 SLP304 T10331050,M
WMC,2025-01-07 13:56,-117.8072,40.9019,1315.00,30.00,24.00,78.07,20.00,8.00,0.00,30.41,1031.40,10.00,M,CLR,M,M,M,M,M,M,M,M,M,M,M,M,M,M,21.65,KWMC 071356Z AUTO 02008KT 10SM CLR M01/M04 A3041 RMK AO2 SLP314 T10111044,M
HND,2025-01-07 13:56,-115.1344,35.9729,742.79,51.00,26.00,37.55,20.00,9.00,0.00,30.10,1020.90,10.00,M,SCT,OVC,M,M,5000.00,7000.00,M,M,M,M,M,M,M,M,M,51.00,KHND 071356Z 02009KT 10SM SCT050 OVC070 11/M03 A3010 RMK AO2 SLP209 T01061033 $,M
TPH,2025-01-07 13:56,-117.0904,38.0505,1654.00,30.00,20.00,65.94,340.00,16.00,0.00,30.25,1025.10,10.00,M,CLR,M,M,M,M,M,M,M,M,M,M,M,32.00,340.00,2025-01-07 13:05,17.81,KTPH 071356Z AUTO 34016KT 10SM CLR M01/M07 A3025 RMK AO2 PK WND 34032/1305 SLP251 T10111067,M
LAS,2025-01-07 13:56,-115.1634,36.0719,663.00,53.00,26.00,34.88,20.00,15.00,0.00,30.10,1018.60,10.00,M,BKN,OVC,M,M,8500.00,12000.00,M,M,M,M,M,M,M,M,M,53.00,KLAS 071356Z 02015KT 10SM BKN085 OVC120 12/M03 A3010 RMK AO2 SLP186 VCSH SW-W T01171033 $,M
NFL,2025-01-07 13:57,-118.7010,39.4166,1199.00,25.00,21.00,84.53,330.00,7.00,0.00,30.39,1024.70,M,M,CLR,M,M,M,M,M,M,M,M,M,M,M,M,M,M,16.25,KNFL 071357Z AUTO 33007KT CLR M04/M06 A3039 RMK AO2 SLP247 T10391061 $,M
05U,2025-01-07 14:10,-116.0051,39.6042,1811.23,M,M,M,0.00,0.00,0.00,30.34,M,10.00,M,CLR,M,M,M,M,M,M,M,M,M,M,M,M,M,M,M,K05U 071410Z AUTO 00000KT 10SM CLR A3034 RMK A01,M
TMT,2025-01-07 14:10,-117.1971,39.4643,1749.34,16.70,15.00,92.88,0.00,0.00,0.00,30.36,M,10.00,M,SCT,M,M,M,1800.00,M,M,M,M,M,M,M,M,M,M,16.70,KTMT 071410Z AUTO 00000KT 10SM SCT018 M08/M09 A3036 RMK AO2 T10851095,M
BVU,2025-01-07 14:15,-114.8611,35.9475,671.00,51.80,28.40,40.25,360.00,15.00,0.00,30.07,M,10.00,22.00,FEW,BKN,OVC,M,2200.00,3300.00,3900.00,M,M,M,M,M,M,M,M,51.80,KBVU 071415Z AUTO 36015G22KT 10SM FEW022 BKN033 OVC039 11/M02 A3007 RMK AO2,M
CXP,2025-01-07 14:15,-119.7326,39.1923,1431.00,30.20,23.00,74.26,0.00,0.00,0.00,30.41,M,10.00,M,CLR,M,M,M,M,M,M,M,M,M,M,M,M,M,M,30.20,KCXP 071415Z AUTO 00000KT 10SM CLR M01/M05 A3041 RMK AO2,M
MEV,2025-01-07 14:15,-119.7500,38.9963,1441.42,28.40,24.80,86.18,30.00,7.00,0.00,30.40,M,10.00,M,SCT,SCT,M,M,3800.00,4600.00,M,M,M,M,M,M,M,M,M,20.39,KMEV 071415Z AUTO 03007KT 10SM SCT038 SCT046 M02/M04 A3040 RMK AO2,M
BAM,2025-01-07 14:15,-116.8743,40.5990,1382.36,28.40,26.60,92.86,10.00,4.00,0.00,30.41,M,10.00,M,CLR,M,M,M,M,M,M,M,M,M,M,M,M,M,M,23.22,KBAM 071415Z AUTO 01004KT 10SM CLR M02/M03 A3041 RMK AO1,M
HTH,2025-01-07 14:15,-118.6315,38.5448,1282.89,33.80,26.60,74.63,350.00,8.00,0.00,30.39,M,10.00,14.00,BKN,OVC,M,M,3600.00,4400.00,M,M,M,M,M,M,M,M,M,26.33,KHTH 071415Z AUTO 35008G14KT 10SM BKN036 OVC044 01/M03 A3039 RMK A01,M
MEV,2025-01-07 14:25,-119.7500,38.9963,1441.42,30.20,24.80,80.07,20.00,7.00,0.00,30.39,M,10.00,M,BKN,BKN,BKN,M,3600.00,4200.00,4700.00,M,M,M,M,M,M,M,M,22.59,KMEV 071425Z AUTO 02007KT 10SM BKN036 BKN042 BKN047 M01/M04 A3039 RMK AO2,M
05U,2025-01-07 14:30,-116.0051,39.6042,1811.23,M,M,M,0.00,0.00,0.00,30.35,M,10.00,M,CLR,M,M,M,M,M,M,M,M,M,M,M,M,M,M,M,K05U 071430Z AUTO 00000KT 10SM CLR A3035 RMK A01,M
TMT,2025-01-07 14:30,-117.1971,39.4643,1749.34,16.00,14.40,93.26,190.00,4.00,0.00,30.36,M,10.00,M,CLR,M,M,M,M,M,M,M,M,M,M,M,M,M,M,8.74,KTMT 071430Z AUTO 19004KT 10SM CLR M09/M10 A3036 RMK AO2 T10891098,M
BVU,2025-01-07 14:35,-114.8611,35.9475,671.00,50.00,30.20,46.31,360.00,14.00,0.00,30.07,M,10.00,24.00,FEW,BKN,OVC,M,1800.00,3300.00,3900.00,M,-RA,M,M,M,M,M,M,50.00,KBVU 071435Z AUTO 36014G24KT 10SM -RA FEW018 BKN033 OVC039 10/M01 A3007 RMK AO2,M
CXP,2025-01-07 14:35,-119.7326,39.1923,1431.00,30.20,24.80,80.07,0.00,0.00,0.00,30.42,M,10.00,M,CLR,M,M,M,M,M,M,M,M,M,M,M,M,M,M,30.20,KCXP 071435Z AUTO 00000KT 10SM CLR M01/M04 A3042 RMK AO2,M
RTS,2025-01-07 14:35,-119.8764,39.6682,1539.00,28.40,23.00,79.92,0.00,0.00,0.00,30.41,M,10.00,M,CLR,M,M,M,M,M,M,M,M,M,M,M,M,M,M,28.40,KRTS 071435Z AUTO 00000KT 10SM CLR M02/M05 A3041 RMK AO2,M
BAM,2025-01-07 14:35,-116.8743,40.5990,1382.36,28.40,26.60,92.86,100.00,3.00,0.00,30.42,M,10.00,M,CLR,M,M,M,M,M,M,M,M,M,M,M,M,M,M,24.57,KBAM 071435Z AUTO 10003KT 10SM CLR M02/M03 A3042 RMK AO1,M
HTH,2025-01-07 14:35,-118.6315,38.5448,1282.89,33.80,26.60,74.63,330.00,6.00,0.00,30.40,M,10.00,M,BKN,OVC,M,M,3500.00,4200.00,M,M,M,M,M,M,M,M,M,27.70,KHTH 071435Z AUTO 33006KT 10SM BKN035 OVC042 01/M03 A3040 RMK A01,M
NFL,2025-01-07 14:44,-118.7010,39.4166,1199.00,26.00,22.00,84.59,320.00,7.00,0.00,30.41,M,10.00,M,SCT,M,M,M,4000.00,M,M,M,M,M,M,M,M,M,M,17.47,KNFL 071444Z 32007KT 10SM SCT040 M03/M06 A3041 RMK AO2 T10331056 $,M
RTS,2025-01-07 14:45,-119.8764,39.6682,1539.00,30.20,23.00,74.26,0.00,0.00,0.00,30.41,M,10.00,M,CLR,M,M,M,M,M,M,M,M,M,M,M,M,M,M,30.20,KRTS 071445Z AUTO 00000KT 10SM CLR M01/M05 A3041 RMK AO2,M
05U,2025-01-07 14:50,-116.0051,39.6042,1811.23,M,M,M,0.00,0.00,0.00,30.35,M,10.00,M,CLR,M,M,M,M,M,M,M,M,M,M,M,M,M,M,M,K05U 071450Z AUTO 00000KT 10SM CLR A3035 RMK A01,M
TMT,2025-01-07 14:50,-117.1971,39.4643,1749.34,17.00,15.00,91.68,240.00,4.00,0.00,30.36,M,10.00,M,CLR,M,M,M,M,M,M,M,M,M,M,M,M,M,M,9.90,KTMT 071450Z AUTO 24004KT 10SM CLR M08/M09 A3036 RMK AO2 T10831095,M
P68,2025-01-07 14:53,-116.0056,39.6014,1993.00,5.00,3.00,91.21,0.00,0.00,0.00,30.33,1031.00,M,M,M,M,M,M,M,M,M,M,M,M,M,M,M,M,M,5.00,KP68 071453Z AUTO 00000KT M15/M16 A3033 RMK AO1 SLP310 T11501161 53010 $,M
DRA,2025-01-07 14:53,-116.0278,36.6206,1009.00,44.00,29.00,55.29,40.00,15.00,0.00,30.14,1019.20,10.00,M,CLR,M,M,M,M,M,M,M,M,M,M,M,27.00,30.00,2025-01-07 14:00,36.34,KDRA 071453Z AUTO 04015KT 10SM CLR 07/M02 A3014 RMK AO2 PK WND 03027/1400 SLP192 T00671017 53016,M
ELY,2025-01-07 14:53,-114.8453,39.2950,1909.00,22.00,17.00,80.77,350.00,12.00,0.00,30.29,1027.50,10.00,M,FEW,M,M,M,1400.00,M,M,M,M,M,M,M,M,M,M,9.27,KELY 071453Z AUTO 35012KT 10SM FEW014 M06/M08 A3029 RMK AO2 SLP275 T10561083 53015,M
VGT,2025-01-07 14:53,-115.1933,36.2111,667.00,53.00,28.00,37.88,20.00,8.00,0.00,30.11,1021.10,10.00,M,OVC,M,M,M,8000.00,M,M,M,M,M,M,M,M,M,M,53.00,KVGT 071453Z 02008KT 10SM OVC080 12/M02 A3011 RMK AO2 SLP211 T01171022 53017,M
LOL,2025-01-07 14:53,-118.5701,40.0684,1192.43,30.00,26.00,84.85,0.00,0.00,0.00,30.42,1032.10,10.00,M,CLR,M,M,M,M,M,M,M,M,M,M,M,M,M,M,30.00,KLOL 071453Z AUTO 00000KT 10SM CLR M01/M03 A3042 RMK AO2 SLP321 T10111033 53012,M
BVU,2025-01-07 14:55,-114.8611,35.9475,671.00,51.80,28.40,40.25,360.00,17.00,0.00,30.07,M,10.00,23.00,FEW,BKN,OVC,M,3100.00,3800.00,4900.00,M,M,M,M,M,M,M,M,51.80,KBVU 071455Z AUTO 36017G23KT 10SM FEW031 BKN038 OVC049 11/M02 A3007 RMK AO2,M
RNO,2025-01-07 14:55,-119.7711,39.4839,1341.00,28.00,26.00,92.08,0.00,0.00,0.00,30.42,1030.90,10.00,M,FEW,SCT,M,M,3500.00,5500.00,M,M,M,M,M,M,M,M,M,28.00,KRNO 071455Z 00000KT 10SM FEW035 SCT055 M02/M03 A3042 RMK AO2 SLP309 MTN TOPS OBSCD DSNT SW THRU NW T10221033 51015,M
CXP,2025-01-07 14:55,-119.7326,39.1923,1431.00,28.40,23.00,79.92,0.00,0.00,0.00,30.42,M,10.00,M,CLR,M,M,M,M,M,M,M,M,M,M,M,M,M,M,28.40,KCXP 071455Z AUTO 00000KT 10SM CLR M02/M05 A3042 RMK AO2,M
BAM,2025-01-07 14:55,-116.8743,40.5990,1382.36,28.40,26.60,92.86,40.00,3.00,0.00,30.43,M,10.00,M,CLR,M,M,M,M,M,M,M,M,M,M,M,M,M,M,24.57,KBAM 071455Z AUTO 04003KT 10SM CLR M02/M03 A3043 RMK AO1,M
HTH,2025-01-07 14:55,-118.6315,38.5448,1282.89,33.80,26.60,74.63,320.00,5.00,0.00,30.41,M,10.00,M,OVC,M,M,M,3600.00,M,M,M,M,M,M,M,M,M,M,28.53,KHTH 071455Z AUTO 32005KT 10SM OVC036 01/M03 A3041 RMK A01,M
INS,2025-01-07 14:55,-115.6733,36.5872,955.00,46.40,22.00,37.73,360.00,11.00,0.00,30.14,1019.50,10.00,M,FEW,M,M,M,8000.00,M,M,M,M,M,M,M,M,M,M,40.66,KINS 071455Z AUTO 36011KT 10SM FEW080 08/M05 A3014 RMK AO2 SLP195 T00801055 52015,M
LSV,2025-01-07 14:55,-115.0343,36.2362,570.00,54.00,25.00,32.26,20.00,16.00,0.00,30.08,1018.30,10.00,23.00,CLR,M,M,M,M,M,M,M,M,M,M,M,M,M,M,54.00,KLSV 071455Z AUTO 02016G23KT 10SM CLR 12/M04 A3008 RMK AO2 SLP183 T01231039 52017 $,M
EKO,2025-01-07 14:56,-115.7860,40.8242,1367.00,23.00,20.00,88.08,220.00,3.00,0.00,30.37,1031.20,10.00,M,CLR,M,M,M,M,M,M,M,M,M,M,M,M,M,M,18.40,KEKO 071456Z AUTO 22003KT 10SM CLR M05/M07 A3037 RMK AO2 SLP312 T10501067 53009,M
WMC,2025-01-07 14:56,-117.8072,40.9019,1315.00,27.00,22.00,81.17,M,4.00,0.00,30.44,1032.50,10.00,M,CLR,M,M,M,M,M,M,M,M,M,M,M,M,M,M,21.58,KWMC 071456Z AUTO VRB04KT 10SM CLR M03/M06 A3044 RMK AO2 SLP325 T10281056 53013,M
HND,2025-01-07 14:56,-115.1344,35.9729,742.79,51.00,27.00,39.14,10.00,14.00,0.00,30.11,1021.30,10.00,20.00,OVC,M,M,M,7000.00,M,M,M,M,M,M,M,M,M,M,51.00,KHND 071456Z 01014G20KT 10SM OVC070 11/M03 A3011 RMK AO2 SLP213 T01061028 51014 $,M
TPH,2025-01-07 14:56,-117.0904,38.0505,1654.00,29.00,19.00,65.81,330.00,15.00,0.00,30.27,1025.80,10.00,M,CLR,M,M,M,M,M,M,M,M,M,M,M,28.00,350.00,2025-01-07 14:23,16.89,KTPH 071456Z AUTO 33015KT 10SM CLR M02/M07 A3027 RMK AO2 PK WND 35028/1423 SLP258 T10171072 53015,M
LAS,2025-01-07 14:56,-115.1634,36.0719,663.00,53.00,26.00,34.88,10.00,18.00,0.00,30.11,1019.10,10.00,27.00,BKN,BKN,M,M,8000.00,12000.00,M,M,M,M,M,M,28.00,10.00,2025-01-07 14:25,53.00,KLAS 071456Z 01018G27KT 10SM BKN080 BKN120 12/M03 A3011 RMK AO2 PK WND 01028/1425 SLP191 VIRGA DSNT SE-SW T01171033 51016 $,M
NFL,2025-01-07 14:57,-118.7010,39.4166,1199.00,25.00,22.00,88.18,340.00,5.00,0.00,30.41,1025.40,10.00,M,SCT,M,M,M,4000.00,M,M,M,M,M,M,M,M,M,M,18.08,KNFL 071457Z 34005KT 10SM SCT040 M04/M06 A3041 RMK AO2 SLP254 T10391056 53016 $,M
ELY,2025-01-07 15:09,-114.8453,39.2950,1909.00,22.00,17.00,80.77,M,6.00,0.00,30.29,M,10.00,M,BKN,M,M,M,1400.00,M,M,M,M,M,M,M,M,M,M,13.49,KELY 071509Z AUTO VRB06KT 10SM BKN014 M06/M08 A3029 RMK AO2 T10561083,M
05U,2025-01-07 15:10,-116.0051,39.6042,1811.23,M,M,M,0.00,0.00,0.00,30.36,M,9.00,M,CLR,M,M,M,M,M,M,M,M,M,M,M,M,M,M,M,K05U 071510Z AUTO 00000KT 9SM CLR A3036 RMK A01,M
TMT,2025-01-07 15:10,-117.1971,39.4643,1749.34,16.00,14.00,91.64,250.00,3.00,0.00,30.38,M,10.00,M,CLR,M,M,M,M,M,M,M,M,M,M,M,M,M,M,10.40,KTMT 071510Z AUTO 25003KT 10SM CLR M09/M10 A3038 RMK AO2 T10891100,M
BVU,2025-01-07 15:15,-114.8611,35.9475,671.00,51.80,26.60,37.38,10.00,17.00,0.00,30.08,M,10.00,23.00,FEW,BKN,M,M,3700.00,4700.00,M,M,M,M,M,M,M,M,M,51.80,KBVU 071515Z AUTO 01017G23KT 10SM FEW037 BKN047 11/M03 A3008 RMK AO2,M
CXP,2025-01-07 15:15,-119.7326,39.1923,1431.00,30.20,23.00,74.26,0.00,0.00,0.00,30.43,M,10.00,M,CLR,M,M,M,M,M,M,M,M,M,M,M,M,M,M,30.20,KCXP 071515Z AUTO 00000KT 10SM CLR M01/M05 A3043 RMK AO2,M
BAM,2025-01-07 15:15,-116.8743,40.5990,1382.36,28.40,26.60,92.86,0.00,0.00,0.00,30.43,M,10.00,M,CLR,M,M,M,M,M,M,M,M,M,M,M,M,M,M,28.40,KBAM 071515Z AUTO 00000KT 10SM CLR M02/M03 A3043 RMK AO1,M
HTH,2025-01-07 15:15,-118.6315,38.5448,1282.89,33.80,26.60,74.63,290.00,10.00,0.00,30.41,M,10.00,15.00,BKN,OVC,M,M,3900.00,4400.00,M,M,M,M,M,M,M,M,M,25.23,KHTH 071515Z AUTO 29010G15KT 10SM BKN039 OVC044 01/M03 A3041 RMK A01,M
ELY,2025-01-07 15:18,-114.8453,39.2950,1909.00,21.00,17.00,84.26,360.00,6.00,0.00,30.29,M,10.00,M,SCT,M,M,M,1400.00,M,M,M,M,M,M,M,M,M,M,12.28,KELY 071518Z AUTO 36006KT 10SM SCT014 M06/M08 A3029 RMK AO2 T10611083,M
05U,2025-01-07 15:30,-116.0051,39.6042,1811.23,M,M,M,320.00,6.00,0.00,30.36,M,10.00,M,CLR,M,M,M,M,M,M,M,M,M,M,M,M,M,M,M,K05U 071530Z AUTO 32006KT 10SM CLR A3036 RMK A01,M
TMT,2025-01-07 15:30,-117.1971,39.4643,1749.34,16.00,14.00,91.64,160.00,4.00,0.00,30.39,M,10.00,M,CLR,M,M,M,M,M,M,M,M,M,M,M,M,M,M,8.74,KTMT 071530Z AUTO 16004KT 10SM CLR M09/M10 A3039 RMK AO2 T10891101,M
BVU,2025-01-07 15:35,-114.8611,35.9475,671.00,51.80,26.60,37.38,360.00,20.00,0.00,30.08,M,10.00,26.00,CLR,M,M,M,M,M,M,M,M,M,M,M,M,M,M,51.80,KBVU 071535Z AUTO 36020G26KT 10SM CLR 11/M03 A3008 RMK AO2,M
CXP,2025-01-07 15:35,-119.7326,39.1923,1431.00,30.20,23.00,74.26,0.00,0.00,0.00,30.43,M,10.00,M,CLR,M,M,M,M,M,M,M,M,M,M,M,M,M,M,30.20,KCXP 071535Z AUTO 00000KT 10SM CLR M01/M05 A3043 RMK AO2,M
BAM,2025-01-07 15:35,-116.8743,40.5990,1382.36,28.40,26.60,92.86,350.00,4.00,0.00,30.44,M,10.00,M,CLR,M,M,M,M,M,M,M,M,M,M,M,M,M,M,23.22,KBAM 071535Z AUTO 35004KT 10SM CLR M02/M03 A3044 RMK AO1,M
HTH,2025-01-07 15:35,-118.6315,38.5448,1282.89,33.80,24.80,69.25,330.00,9.00,0.00,30.42,M,10.00,M,FEW,BKN,OVC,M,3600.00,4400.00,5000.00,M,M,M,M,M,M,M,M,25.75,KHTH 071535Z AUTO 33009KT 10SM FEW036 BKN044 OVC050 01/M04 A3042 RMK A01,M
RTS,2025-01-07 15:45,-119.8764,39.6682,1539.00,28.40,23.00,79.92,270.00,6.00,0.00,30.42,M,10.00,M,CLR,M,M,M,M,M,M,M,M,M,M,M,M,M,M,21.19,KRTS 071545Z AUTO 27006KT 10SM CLR M02/M05 A3042 RMK AO2,M
05U,2025-01-07 15:50,-116.0051,39.6042,1811.23,M,M,M,0.00,0.00,0.00,30.37,M,10.00,M,FEW,M,M,M,1400.00,M,M,M,M,M,M,M,M,M,M,M,K05U 071550Z AUTO 00000KT 10SM FEW014 A3037 RMK A01,M
TMT,2025-01-07 15:50,-117.1971,39.4643,1749.34,15.00,13.00,91.61,150.00,4.00,0.00,30.39,M,10.00,M,CLR,M,M,M,M,M,M,M,M,M,M,M,M,M,M,7.57,KTMT 071550Z AUTO 15004KT 10SM CLR M09/M11 A3039 RMK AO2 T10951106,M
P68,2025-01-07 15:53,-116.0056,39.6014,1993.00,10.00,8.00,91.41,0.00,0.00,0.00,30.34,1030.80,M,M,M,M,M,M,M,M,M,M,M,M,M,M,M,M,M,10.00,KP68 071553Z AUTO 00000KT M12/M13 A3034 RMK AO1 SLP308 T11221133 $,M
DRA,2025-01-07 15:53,-116.0278,36.6206,1009.00,45.00,28.00,51.08,20.00,19.00,0.00,30.15,1019.50,10.00,M,CLR,M,M,M,M,M,M,M,M,M,M,M,M,M,M,36.63,KDRA 071553Z AUTO 02019KT 10SM CLR 07/M02 A3015 RMK AO2 SLP195 T00721022,M
ELY,2025-01-07 15:53,-114.8453,39.2950,1909.00,22.00,17.00,80.77,350.00,12.00,0.00,30.29,1027.80,10.00,M,CLR,M,M,M,M,M,M,M,M,M,M,M,M,M,M,9.27,KELY 071553Z AUTO 35012KT 10SM CLR M06/M08 A3029 RMK AO2 SLP278 T10561083,M
VGT,2025-01-07 15:53,-115.1933,36.2111,667.00,53.00,27.00,36.36,360.00,12.00,0.00,30.12,1021.70,10.00,19.00,FEW,BKN,M,M,7500.00,11000.00,M,M,M,M,M,M,M,M,M,53.00,KVGT 071553Z 36012G19KT 10SM FEW075 BKN110 12/M03 A3012 RMK AO2 SLP217 T01171028,M
LOL,2025-01-07 15:53,-118.5701,40.0684,1192.43,31.00,26.00,81.48,10.00,4.00,0.00,30.44,1032.60,10.00,M,CLR,M,M,M,M,M,M,M,M,M,M,M,M,M,M,26.25,KLOL 071553Z AUTO 01004KT 10SM CLR M01/M03 A3044 RMK AO2 SLP326 T10061033,M
BVU,2025-01-07 15:55,-114.8611,35.9475,671.00,51.80,26.60,37.38,10.00,20.00,0.00,30.09,M,10.00,28.00,CLR,M,M,M,M,M,M,M,M,M,M,M,M,M,M,51.80,KBVU 071555Z AUTO 01020G28KT 10SM CLR 11/M03 A3009 RMK AO2,M
RNO,2025-01-07 15:55,-119.7711,39.4839,1341.00,27.00,25.00,92.05,180.00,3.00,0.00,30.43,1031.40,10.00,M,FEW,M,M,M,4000.00,M,M,M,M,M,M,M,M,M,M,22.97,KRNO 071555Z 18003KT 10SM FEW040 M03/M04 A3043 RMK AO2 SLP314 T10281039,M
CXP,2025-01-07 15:55,-119.7326,39.1923,1431.00,30.20,24.80,80.07,0.00,0.00,0.00,30.43,M,10.00,M,CLR,M,M,M,M,M,M,M,M,M,M,M,M,M,M,30.20,KCXP 071555Z AUTO 00000KT 10SM CLR M01/M04 A3043 RMK AO2,M
MEV,2025-01-07 15:55,-119.7500,38.9963,1441.42,30.20,23.00,74.26,30.00,4.00,0.00,30.42,M,10.00,M,CLR,M,M,M,M,M,M,M,M,M,M,M,M,M,M,25.32,KMEV 071555Z AUTO 03004KT 10SM CLR M01/M05 A3042 RMK AO2,M
BAM,2025-01-07 15:55,-116.8743,40.5990,1382.36,30.20,28.40,92.92,10.00,4.00,0.00,30.45,M,10.00,M,CLR,M,M,M,M,M,M,M,M,M,M,M,M,M,M,25.32,KBAM 071555Z AUTO 01004KT 10SM CLR M01/M02 A3045 RMK AO1,M
HTH,2025-01-07 15:55,-118.6315,38.5448,1282.89,33.80,24.80,69.25,320.00,9.00,0.00,30.42,M,10.00,M,OVC,M,M,M,3900.00,M,M,M,M,M,M,M,M,M,M,25.75,KHTH 071555Z AUTO 32009KT 10SM OVC039 01/M04 A3042 RMK A01,M
INS,2025-01-07 15:55,-115.6733,36.5872,955.00,46.60,21.00,35.90,10.00,8.00,0.00,30.17,1020.40,10.00,M,CLR,M,M,M,M,M,M,M,M,M,M,M,M,M,M,42.10,KINS 071555Z AUTO 01008KT 10SM CLR 08/M06 A3017 RMK AO2 SLP204 T00811061,M
LSV,2025-01-07 15:55,-115.0343,36.2362,570.00,54.00,24.00,30.94,20.00,13.00,0.00,30.10,1019.10,10.00,M,SCT,M,M,M,8000.00,M,M,M,M,M,M,M,M,M,M,54.00,KLSV 071555Z AUTO 02013KT 10SM SCT080 12/M04 A3010 RMK AO2 SLP191 T01231044 $,M
EKO,2025-01-07 15:56,-115.7860,40.8242,1367.00,25.00,22.00,88.18,0.00,0.00,0.00,30.39,1031.80,10.00,M,FEW,M,M,M,4100.00,M,M,M,M,M,M,M,M,M,M,25.00,KEKO 071556Z AUTO 00000KT 10SM FEW041 M04/M06 A3039 RMK AO2 SLP318 T10391056,M
WMC,2025-01-07 15:56,-117.8072,40.9019,1315.00,30.00,24.00,78.07,30.00,11.00,0.00,30.45,1032.60,10.00,M,CLR,M,M,M,M,M,M,M,M,M,M,M,M,M,M,19.94,KWMC 071556Z AUTO 03011KT 10SM CLR M01/M04 A3045 RMK AO2 SLP326 T10111044,M
HND,2025-01-07 15:56,-115.1344,35.9729,742.79,51.00,26.00,37.55,10.00,16.00,0.00,30.13,1022.10,10.00,M,BKN,BKN,OVC,M,6500.00,8000.00,10000.00,M,M,M,M,M,M,M,M,51.00,KHND 071556Z 01016KT 10SM BKN065 BKN080 OVC100 11/M03 A3013 RMK AO2 SLP221 T01061033 $,M
TPH,2025-01-07 15:56,-117.0904,38.0505,1654.00,31.00,18.00,58.12,340.00,15.00,0.00,30.29,1026.30,10.00,M,CLR,M,M,M,M,M,M,M,M,M,M,M,M,M,M,19.48,KTPH 071556Z AUTO 34015KT 10SM CLR M01/M08 A3029 RMK AO2 SLP263 T10061078,M
LAS,2025-01-07 15:56,-115.1634,36.0719,663.00,53.00,25.00,33.46,10.00,19.00,0.00,30.13,1019.80,10.00,26.00,BKN,BKN,M,M,8000.00,12000.00,M,M,M,M,M,M,29.00,10.00,2025-01-07 15:36,53.00,KLAS 071556Z 01019G26KT 10SM BKN080 BKN120 12/M04 A3013 RMK AO2 PK WND 01029/1536 SLP198 VIRGA DSNT S T01171039 $,M
NFL,2025-01-07 15:57,-118.7010,39.4166,1199.00,25.00,22.00,88.18,0.00,0.00,0.00,30.43,1026.00,10.00,M,SCT,M,M,M,4500.00,M,M,M,M,M,M,M,M,M,M,25.00,KNFL 071557Z 00000KT 10SM SCT045 M04/M06 A3043 RMK AO2 SLP260 T10391056 $,M
05U,2025-01-07 16:10,-116.0051,39.6042,1811.23,M,M,M,0.00,0.00,0.00,30.38,M,10.00,M,BKN,M,M,M,1300.00,M,M,M,M,M,M,M,M,M,M,M,K05U 071610Z AUTO 00000KT 10SM BKN013 A3038 RMK A01,M
TMT,2025-01-07 16:10,-117.1971,39.4643,1749.34,18.00,15.80,90.92,0.00,0.00,0.00,30.40,M,10.00,M,CLR,M,M,M,M,M,M,M,M,M,M,M,M,M,M,18.00,KTMT 071610Z AUTO 00000KT 10SM CLR M08/M09 A3040 RMK AO2 T10771090,M
LAS,2025-01-07 16:11,-115.1634,36.0719,663.00,53.00,25.00,33.46,20.00,19.00,0.00,30.14,M,10.00,M,BKN,BKN,M,M,8000.00,12000.00,M,M,M,M,M,M,27.00,20.00,2025-01-07 15:58,53.00,KLAS 071611Z 02019KT 10SM BKN080 BKN120 12/M04 A3014 RMK AO2 PK WND 02027/1558 T01171039 $,M
BVU,2025-01-07 16:15,-114.8611,35.9475,671.00,51.80,26.60,37.38,10.00,20.00,0.00,30.10,M,10.00,30.00,CLR,M,M,M,M,M,M,M,M,M,M,M,M,M,M,51.80,KBVU 071615Z AUTO 01020G30KT 10SM CLR 11/M03 A3010 RMK AO2,M
CXP,2025-01-07 16:15,-119.7326,39.1923,1431.00,32.00,24.80,74.44,0.00,0.00,0.00,30.44,M,10.00,M,CLR,M,M,M,M,M,M,M,M,M,M,M,M,M,M,32.00,KCXP 071615Z AUTO 00000KT 10SM CLR 00/M04 A3044 RMK AO2,M
MEV,2025-01-07 16:15,-119.7500,38.9963,1441.42,32.00,24.80,74.44,0.00,0.00,0.00,30.42,M,10.00,M,CLR,M,M,M,M,M,M,M,M,M,M,M,M,M,M,32.00,KMEV 071615Z AUTO 00000KT 10SM CLR M00/M04 A3042 RMK AO2,M
BAM,2025-01-07 16:15,-116.8743,40.5990,1382.36,30.20,28.40,92.92,20.00,4.00,0.00,30.46,M,10.00,M,CLR,M,M,M,M,M,M,M,M,M,M,M,M,M,M,25.32,KBAM 071615Z AUTO 02004KT 10SM CLR M01/M02 A3046 RMK AO1,M
HTH,2025-01-07 16:15,-118.6315,38.5448,1282.89,35.60,26.60,69.46,310.00,8.00,0.00,30.44,M,10.00,M,OVC,M,M,M,3700.00,M,M,M,M,M,M,M,M,M,M,28.55,KHTH 071615Z AUTO 31008KT 10SM OVC037 02/M03 A3044 RMK A01,M
05U,2025-01-07 16:30,-116.0051,39.6042,1811.23,M,M,M,0.00,0.00,0.00,30.39,M,10.00,M,FEW,M,M,M,1300.00,M,M,M,M,M,M,M,M,M,M,M,K05U 071630Z AUTO 00000KT 10SM FEW013 A3039 RMK A01,M
TMT,2025-01-07 16:30,-117.1971,39.4643,1749.34,22.00,21.00,95.86,0.00,0.00,0.00,30.40,M,10.00,M,BKN,M,M,M,3300.00,M,M,M,M,M,M,M,M,M,M,22.00,KTMT 071630Z AUTO 00000KT 10SM BKN033 M05/M06 A3040 RMK AO2 T10551062,M
BVU,2025-01-07 16:35,-114.8611,35.9475,671.00,53.60,24.80,32.46,360.00,24.00,0.00,30.10,M,10.00,31.00,CLR,M,M,M,M,M,M,M,M,M,M,M,M,M,M,53.60,KBVU 071635Z AUTO 36024G31KT 10SM CLR 12/M04 A3010 RMK AO2,M
CXP,2025-01-07 16:35,-119.7326,39.1923,1431.00,32.00,24.80,74.44,0.00,0.00,0.00,30.44,M,10.00,M,FEW,M,M,M,1300.00,M,M,M,M,M,M,M,M,M,M,32.00,KCXP 071635Z AUTO 00000KT 10SM FEW013 00/M04 A3044 RMK AO2,M
MEV,2025-01-07 16:35,-119.7500,38.9963,1441.42,M,M,M,0.00,0.00,0.00,30.43,M,M,M,M,M,M,M,M,M,M,M,M,M,M,M,M,M,M,M,KMEV 071635Z AUTO 00000KT A3043 RMK AO2 PWINO,M
BAM,2025-01-07 16:35,-116.8743,40.5990,1382.36,32.00,28.40,86.39,10.00,3.00,0.00,30.47,M,10.00,M,CLR,M,M,M,M,M,M,M,M,M,M,M,M,M,M,28.69,KBAM 071635Z AUTO 01003KT 10SM CLR 00/M02 A3047 RMK AO1,M
HTH,2025-01-07 16:35,-118.6315,38.5448,1282.89,33.80,24.80,69.25,320.00,6.00,0.00,30.45,M,10.00,M,BKN,OVC,M,M,4000.00,4600.00,M,M,M,M,M,M,M,M,M,27.70,KHTH 071635Z AUTO 32006KT 10SM BKN040 OVC046 01/M04 A3045 RMK A01,M
05U,2025-01-07 16:50,-116.0051,39.6042,1811.23,M,M,M,0.00,0.00,0.00,30.39,M,10.00,M,FEW,M,M,M,1600.00,M,M,M,M,M,M,M,M,M,M,M,K05U 071650Z AUTO 00000KT 10SM FEW016 A3039 RMK A01,M
TMT,2025-01-07 16:50,-117.1971,39.4643,1749.34,24.60,22.60,91.96,0.00,0.00,0.00,30.41,M,10.00,M,SCT,M,M,M,3300.00,M,M,M,M,M,M,M,M,M,M,24.60,KTMT 071650Z AUTO 00000KT 10SM SCT033 M04/M05 A3041 RMK AO2 T10411052,M
P68,2025-01-07 16:53,-116.0056,39.6014,1993.00,18.00,18.00,100.00,220.00,3.00,0.00,30.37,1030.60,M,M,M,M,M,M,M,M,M,M,M,M,M,M,M,M,M,12.68,KP68 071653Z AUTO 22003KT M08/M08 A3037 RMK AO1 SLP306 T10781078,M
DRA,2025-01-07 16:53,-116.0278,36.6206,1009.00,46.00,25.00,43.44,20.00,22.00,0.00,30.18,1020.70,10.00,30.00,CLR,M,M,M,M,M,M,M,M,M,M,M,30.00,30.00,2025-01-07 16:52,37.33,KDRA 071653Z AUTO 02022G30KT 10SM CLR 08/M04 A3018 RMK AO2 PK WND 03030/1652 SLP207 T00781039,M
ELY,2025-01-07 16:53,-114.8453,39.2950,1909.00,25.00,19.00,77.62,350.00,15.00,0.00,30.31,1028.10,10.00,23.00,CLR,M,M,M,M,M,M,M,M,M,M,M,M,M,M,11.71,KELY 071653Z AUTO 35015G23KT 10SM CLR M04/M07 A3031 RMK AO2 SLP281 T10391072,M
VGT,2025-01-07 16:53,-115.1933,36.2111,667.00,53.00,26.00,34.88,340.00,15.00,0.00,30.14,1022.40,10.00,20.00,SCT,M,M,M,9000.00,M,M,M,M,M,M,M,M,M,M,53.00,KVGT 071653Z 34015G20KT 10SM SCT090 12/M03 A3014 RMK AO2 SLP224 T01171033,M
LOL,2025-01-07 16:53,-118.5701,40.0684,1192.43,33.00,27.00,78.34,0.00,0.00,0.00,30.45,1033.00,10.00,M,CLR,M,M,M,M,M,M,M,M,M,M,M,M,M,M,33.00,KLOL 071653Z AUTO 00000KT 10SM CLR 01/M03 A3045 RMK AO2 SLP330 T00061028,M
BVU,2025-01-07 16:55,-114.8611,35.9475,671.00,53.60,24.80,32.46,360.00,25.00,0.00,30.10,M,10.00,31.00,CLR,M,M,M,M,M,M,M,M,M,M,M,M,M,M,53.60,KBVU 071655Z AUTO 36025G31KT 10SM CLR 12/M04 A3010 RMK AO2,M
RNO,2025-01-07 16:55,-119.7711,39.4839,1341.00,33.00,27.00,78.34,130.00,4.00,0.00,30.44,1031.70,10.00,M,FEW,M,M,M,4000.00,M,M,M,M,M,M,M,M,M,M,28.59,KRNO 071655Z 13004KT 10SM FEW040 01/M03 A3044 RMK AO2 SLP317 T00061028,M
BAM,2025-01-07 16:55,-116.8743,40.5990,1382.36,32.00,30.20,92.97,10.00,5.00,0.00,30.47,M,10.00,M,CLR,M,M,M,M,M,M,M,M,M,M,M,M,M,M,26.40,KBAM 071655Z AUTO 01005KT 10SM CLR 00/M01 A3047 RMK AO1,M
CXP,2025-01-07 16:55,-119.7326,39.1923,1431.00,33.80,24.80,69.25,120.00,4.00,0.00,30.45,M,10.00,M,CLR,M,M,M,M,M,M,M,M,M,M,M,M,M,M,29.52,KCXP 071655Z AUTO 12004KT 10SM CLR 01/M04 A3045 RMK AO2,M
MEV,2025-01-07 16:55,-119.7500,38.9963,1441.42,33.80,24.80,69.25,M,3.00,0.00,30.43,M,10.00,11.00,M,M,M,M,M,M,M,M,M,M,M,M,M,M,M,30.75,KMEV 071655Z AUTO VRB03G11KT 10SM 01/M04 A3043 RMK AO2,M
HTH,2025-01-07 16:55,-118.6315,38.5448,1282.89,33.80,24.80,69.25,320.00,9.00,0.00,30.45,M,10.00,M,OVC,M,M,M,3800.00,M,M,M,M,M,M,M,M,M,M,25.75,KHTH 071655Z AUTO 32009KT 10SM OVC038 01/M04 A3045 RMK A01,M
INS,2025-01-07 16:55,-115.6733,36.5872,955.00,48.70,18.70,30.07,360.00,13.00,0.00,30.20,1021.80,10.00,M,CLR,M,M,M,M,M,M,M,M,M,M,M,M,M,M,42.96,KINS 071655Z AUTO 36013KT 10SM CLR 09/M07 A3020 RMK AO2 SLP218 T00931074,M
LSV,2025-01-07 16:55,-115.0343,36.2362,570.00,55.60,21.20,25.94,20.00,18.00,0.00,30.12,1019.80,10.00,M,CLR,M,M,M,M,M,M,M,M,M,M,M,M,M,M,55.60,KLSV 071655Z AUTO 02018KT 10SM CLR 13/M06 A3012 RMK AO2 SLP198 T01311060 $,M
EKO,2025-01-07 16:56,-115.7860,40.8242,1367.00,27.00,24.00,88.28,220.00,5.00,0.00,30.41,1032.20,10.00,M,FEW,M,M,M,4100.00,M,M,M,M,M,M,M,M,M,M,20.46,KEKO 071656Z AUTO 22005KT 10SM FEW041 M03/M04 A3041 RMK AO2 SLP322 T10281044,M
WMC,2025-01-07 16:56,-117.8072,40.9019,1315.00,32.00,25.00,75.07,40.00,13.00,0.00,30.46,1032.90,10.00,M,CLR,M,M,M,M,M,M,M,M,M,M,M,M,M,M,21.57,KWMC 071656Z AUTO 04013KT 10SM CLR 00/M04 A3046 RMK AO2 SLP329 T00001039,M
HND,2025-01-07 16:56,-115.1344,35.9729,742.79,51.00,25.00,36.03,10.00,14.00,0.00,30.15,1022.80,10.00,M,CLR,M,M,M,M,M,M,M,M,M,M,M,M,M,M,51.00,KHND 071656Z 01014KT 10SM CLR 11/M04 A3015 RMK AO2 SLP228 T01061039 $,M
TPH,2025-01-07 16:56,-117.0904,38.0505,1654.00,34.00,17.00,49.34,350.00,18.00,0.00,30.32,1027.00,10.00,M,CLR,M,M,M,M,M,M,M,M,M,M,M,M,M,M,22.38,KTPH 071656Z AUTO 35018KT 10SM CLR 01/M08 A3032 RMK AO2 SLP270 T00111083,M
LAS,2025-01-07 16:56,-115.1634,36.0719,663.00,55.00,24.00,29.83,10.00,20.00,0.00,30.14,1020.40,10.00,M,SCT,BKN,BKN,M,7500.00,12000.00,20000.00,M,M,M,M,M,28.00,10.00,2025-01-07 16:54,55.00,KLAS 071656Z 01020KT 10SM SCT075 BKN120 BKN200 13/M04 A3014 RMK AO2 PK WND 01028/1654 SLP204 T01281044 $,M
NFL,2025-01-07 16:57,-118.7010,39.4166,1199.00,33.00,26.00,75.17,0.00,0.00,0.00,30.45,1026.40,10.00,M,SCT,M,M,M,4500.00,M,M,M,M,M,M,M,M,M,M,33.00,KNFL 071657Z COR 00000KT 10SM SCT045 01/M03 A3045 RMK SLP264 T00061033,M
05U,2025-01-07 17:10,-116.0051,39.6042,1811.23,M,M,M,0.00,0.00,0.00,30.40,M,9.00,M,SCT,M,M,M,1600.00,M,M,M,M,M,M,M,M,M,M,M,K05U 071710Z AUTO 00000KT 9SM SCT016 A3040 RMK A01,M
TMT,2025-01-07 17:10,-117.1971,39.4643,1749.34,27.00,24.30,89.40,20.00,3.00,0.00,30.41,M,10.00,M,SCT,M,M,M,3300.00,M,M,M,M,M,M,M,M,M,M,22.97,KTMT 071710Z AUTO 02003KT 10SM SCT033 M03/M04 A3041 RMK AO2 T10271043,M
BVU,2025-01-07 17:15,-114.8611,35.9475,671.00,53.60,24.80,32.46,10.00,23.00,0.00,30.11,M,10.00,33.00,CLR,M,M,M,M,M,M,M,M,M,M,M,M,M,M,53.60,KBVU 071715Z AUTO 01023G33KT 10SM CLR 12/M04 A3011 RMK AO2,M
CXP,2025-01-07 17:15,-119.7326,39.1923,1431.00,35.60,24.80,64.46,110.00,4.00,0.00,30.45,M,10.00,M,CLR,M,M,M,M,M,M,M,M,M,M,M,M,M,M,31.62,KCXP 071715Z AUTO 11004KT 10SM CLR 02/M04 A3045 RMK AO2,M
RTS,2025-01-07 17:15,-119.8764,39.6682,1539.00,33.80,24.80,69.25,80.00,6.00,0.00,30.44,M,10.00,14.00,CLR,M,M,M,M,M,M,M,M,M,M,M,M,M,M,27.70,KRTS 071715Z AUTO 08006G14KT 10SM CLR 01/M04 A3044 RMK AO2,M
MEV,2025-01-07 17:15,-119.7500,38.9963,1441.42,35.60,24.80,64.46,M,4.00,0.00,30.44,M,10.00,M,CLR,M,M,M,M,M,M,M,M,M,M,M,M,M,M,31.62,KMEV 071715Z AUTO VRB04KT 10SM CLR 02/M04 A3044 RMK AO2,M
BAM,2025-01-07 17:15,-116.8743,40.5990,1382.36,32.00,30.20,92.97,10.00,4.00,0.00,30.47,M,10.00,M,CLR,M,M,M,M,M,M,M,M,M,M,M,M,M,M,27.42,KBAM 071715Z AUTO 01004KT 10SM CLR 00/M01 A3047 RMK AO1,M
HTH,2025-01-07 17:15,-118.6315,38.5448,1282.89,33.80,24.80,69.25,340.00,9.00,0.00,30.46,M,10.00,M,OVC,M,M,M,4200.00,M,M,M,M,M,M,M,M,M,M,25.75,KHTH 071715Z AUTO 34009KT 10SM OVC042 01/M04 A3046 RMK A01,M
05U,2025-01-07 17:30,-116.0051,39.6042,1811.23,M,M,M,0.00,0.00,0.00,30.40,M,9.00,M,BKN,M,M,M,1400.00,M,M,M,M,M,M,M,M,M,M,M,K05U 071730Z AUTO 00000KT 9SM BKN014 A3040 RMK A01,M
TMT,2025-01-07 17:30,-117.1971,39.4643,1749.34,29.30,26.00,87.31,20.00,4.00,0.00,30.41,M,10.00,M,CLR,M,M,M,M,M,M,M,M,M,M,M,M,M,M,24.27,KTMT 071730Z AUTO 02004KT 10SM CLR M01/M03 A3041 RMK AO2 T10151034,M
BVU,2025-01-07 17:35,-114.8611,35.9475,671.00,53.60,23.00,30.11,10.00,22.00,0.00,30.12,M,10.00,31.00,CLR,M,M,M,M,M,M,M,M,M,M,M,M,M,M,53.60,KBVU 071735Z AUTO 01022G31KT 10SM CLR 12/M05 A3012 RMK AO2,M
BAM,2025-01-07 17:35,-116.8743,40.5990,1382.36,33.80,30.20,86.49,340.00,6.00,0.00,30.48,M,10.00,M,CLR,M,M,M,M,M,M,M,M,M,M,M,M,M,M,27.70,KBAM 071735Z AUTO 34006KT 10SM CLR 01/M01 A3048 RMK AO1,M
CXP,2025-01-07 17:35,-119.7326,39.1923,1431.00,35.60,26.60,69.46,110.00,5.00,0.00,30.46,M,10.00,M,CLR,M,M,M,M,M,M,M,M,M,M,M,M,M,M,30.67,KCXP 071735Z AUTO 11005KT 10SM CLR 02/M03 A3046 RMK AO2,M
RTS,2025-01-07 17:35,-119.8764,39.6682,1539.00,33.80,24.80,69.25,M,6.00,0.00,30.46,M,10.00,12.00,CLR,M,M,M,M,M,M,M,M,M,M,M,M,M,M,27.70,KRTS 071735Z AUTO VRB06G12KT 10SM CLR 01/M04 A3046 RMK AO2,M
MEV,2025-01-07 17:35,-119.7500,38.9963,1441.42,37.40,24.80,60.04,40.00,6.00,0.00,30.45,M,10.00,M,CLR,M,M,M,M,M,M,M,M,M,M,M,M,M,M,32.03,KMEV 071735Z AUTO 04006KT 10SM CLR 03/M04 A3045 RMK AO2,M
HTH,2025-01-07 17:35,-118.6315,38.5448,1282.89,35.60,24.80,64.46,320.00,9.00,0.00,30.46,M,10.00,M,OVC,M,M,M,4200.00,M,M,M,M,M,M,M,M,M,M,27.99,KHTH 071735Z AUTO 32009KT 10SM OVC042 02/M04 A3046 RMK A01,M
RTS,2025-01-07 17:45,-119.8764,39.6682,1539.00,35.60,24.80,64.46,110.00,6.00,0.00,30.45,M,10.00,M,CLR,M,M,M,M,M,M,M,M,M,M,M,M,M,M,29.87,KRTS 071745Z AUTO 11006KT 10SM CLR 02/M04 A3045 RMK AO2,M
05U,2025-01-07 17:50,-116.0051,39.6042,1811.23,M,M,M,0.00,0.00,0.00,30.40,M,10.00,M,OVC,M,M,M,1600.00,M,M,M,M,M,M,M,M,M,M,M,K05U 071750Z AUTO 00000KT 10SM OVC016 A3040 RMK A01,M
TMT,2025-01-07 17:50,-117.1971,39.4643,1749.34,31.30,27.00,83.89,20.00,7.00,0.00,30.41,M,10.00,M,SCT,M,M,M,1600.00,M,M,M,M,M,M,M,M,M,M,23.93,KTMT 071750Z AUTO 02007KT 10SM SCT016 00/M03 A3041 RMK AO2 T10041028,M
P68,2025-01-07 17:53,-116.0056,39.6014,1993.00,23.00,22.00,95.88,0.00,0.00,0.00,30.38,1030.50,M,M,M,M,M,M,M,M,M,M,M,M,M,M,M,M,M,23.00,KP68 071753Z AUTO 00000KT M05/M06 A3038 RMK AO1 SLP305 T10501056 11050 21161 53015,M
DRA,2025-01-07 17:53,-116.0278,36.6206,1009.00,49.00,22.00,34.22,30.00,17.00,0.00,30.19,1020.80,10.00,27.00,CLR,M,M,M,M,M,M,M,M,M,M,M,28.00,30.00,2025-01-07 17:23,42.35,KDRA 071753Z AUTO 03017G27KT 10SM CLR 09/M06 A3019 RMK AO2 PK WND 03028/1723 SLP208 T00941056 10094 20067 51017,M
ELY,2025-01-07 17:53,-114.8453,39.2950,1909.00,27.00,19.00,71.45,10.00,18.00,0.00,30.33,1028.40,10.00,25.00,CLR,M,M,M,M,M,M,M,M,M,M,M,28.00,360.00,2025-01-07 17:39,13.17,KELY 071753Z AUTO 01018G25KT 10SM CLR M03/M07 A3033 RMK AO2 PK WND 36028/1739 SLP284 T10281072 11028 21067 53012,M
VGT,2025-01-07 17:53,-115.1933,36.2111,667.00,55.00,25.00,31.11,320.00,15.00,0.00,30.15,1022.70,10.00,22.00,BKN,M,M,M,10000.00,M,M,M,M,M,M,M,M,M,M,55.00,KVGT 071753Z 32015G22KT 10SM BKN100 13/M04 A3015 RMK AO2 SLP227 T01281039 10128 20111 51014,M
LOL,2025-01-07 17:53,-118.5701,40.0684,1192.43,37.00,28.00,69.63,10.00,5.00,0.00,30.47,1033.10,10.00,M,CLR,M,M,M,M,M,M,M,M,M,M,M,M,M,M,32.33,KLOL 071753Z AUTO 01005KT 10SM CLR 03/M02 A3047 RMK AO2 SLP331 T00281022 10028 21022 53013,M
CXP,2025-01-07 17:55,-119.7326,39.1923,1431.00,35.60,24.80,64.46,70.00,4.00,0.00,30.46,M,10.00,M,SCT,M,M,M,3700.00,M,M,M,M,M,M,M,M,M,M,31.62,KCXP 071755Z AUTO 07004KT 10SM SCT037 02/M04 A3046 RMK AO2,M
MEV,2025-01-07 17:55,-119.7500,38.9963,1441.42,37.40,24.80,60.04,40.00,9.00,0.00,30.44,M,10.00,M,CLR,M,M,M,M,M,M,M,M,M,M,M,M,M,M,30.23,KMEV 071755Z AUTO 04009KT 10SM CLR 03/M04 A3044 RMK AO2,M
HTH,2025-01-07 17:55,-118.6315,38.5448,1282.89,35.60,26.60,69.46,320.00,10.00,0.00,30.46,M,10.00,M,BKN,OVC,M,M,4200.00,5000.00,M,M,M,M,M,M,M,M,M,27.48,KHTH 071755Z AUTO 32010KT 10SM BKN042 OVC050 02/M03 A3046 RMK A01,M
BVU,2025-01-07 17:55,-114.8611,35.9475,671.00,55.40,23.00,28.20,360.00,21.00,0.00,30.12,M,10.00,31.00,CLR,M,M,M,M,M,M,M,M,M,M,M,M,M,M,55.40,KBVU 071755Z AUTO 36021G31KT 10SM CLR 13/M05 A3012 RMK AO2,M
RNO,2025-01-07 17:55,-119.7711,39.4839,1341.00,37.00,26.00,64.11,140.00,3.00,0.00,30.45,1031.50,10.00,M,FEW,M,M,M,4000.00,M,M,M,M,M,M,M,M,M,M,34.40,KRNO 071755Z 14003KT 10SM FEW040 03/M03 A3045 RMK AO2 SLP315 T00281033 10028 21028 51011,M
BAM,2025-01-07 17:55,-116.8743,40.5990,1382.36,33.80,30.20,86.49,340.00,5.00,0.00,30.48,M,10.00,M,CLR,M,M,M,M,M,M,M,M,M,M,M,M,M,M,28.53,KBAM 071755Z AUTO 34005KT 10SM CLR 01/M01 A3048 RMK AO1,M
INS,2025-01-07 17:55,-115.6733,36.5872,955.00,50.00,15.60,25.06,40.00,22.00,0.00,30.21,1021.70,10.00,26.00,CLR,M,M,M,M,M,M,M,M,M,M,M,M,M,M,50.00,KINS 071755Z AUTO 04022G26KT 10SM CLR 10/M09 A3021 RMK AO2 SLP217 T01011091 10102 20077 52020,M
LSV,2025-01-07 17:55,-115.0343,36.2362,570.00,57.00,18.50,21.98,20.00,22.00,0.00,30.13,1020.00,10.00,30.00,CLR,M,M,M,M,M,M,M,M,M,M,M,30.00,10.00,2025-01-07 17:44,57.00,KLSV 071755Z AUTO 02022G30KT 10SM CLR 14/M07 A3013 RMK AO2 PK WND 01030/44 SLP200 T01391075 10139 20121 52017 $,M
EKO,2025-01-07 17:56,-115.7860,40.8242,1367.00,33.00,23.00,66.32,60.00,11.00,0.00,30.43,1032.60,10.00,M,BKN,M,M,M,4300.00,M,M,M,M,M,M,M,M,M,M,23.73,KEKO 071756Z AUTO 06011KT 10SM BKN043 01/M05 A3043 RMK AO2 SLP326 T00061050 10006 21056 53019,M
WMC,2025-01-07 17:56,-117.8072,40.9019,1315.00,34.00,26.00,72.22,20.00,13.00,0.00,30.48,1033.60,10.00,M,CLR,M,M,M,M,M,M,M,M,M,M,M,M,M,M,24.13,KWMC 071756Z AUTO 02013KT 10SM CLR 01/M03 A3048 RMK AO2 SLP336 T00111033 10011 21039 53013,M
HND,2025-01-07 17:56,-115.1344,35.9729,742.79,53.00,22.00,29.51,20.00,17.00,0.00,30.16,1023.00,10.00,29.00,CLR,M,M,M,M,M,M,M,M,M,M,M,30.00,20.00,2025-01-07 17:26,53.00,KHND 071756Z 02017G29KT 10SM CLR 12/M06 A3016 RMK AO2 PK WND 02030/1726 SLP230 T01171056 10122 20072 51014 $,M
TPH,2025-01-07 17:56,-117.0904,38.0505,1654.00,37.00,17.00,43.80,340.00,20.00,0.00,30.32,1026.60,10.00,25.00,CLR,M,M,M,M,M,M,M,M,M,M,M,M,M,M,25.78,KTPH 071756Z AUTO 34020G25KT 10SM CLR 03/M08 A3032 RMK AO2 SLP266 T00281083 10028 21017 50012,M
LAS,2025-01-07 17:56,-115.1634,36.0719,663.00,56.00,22.00,26.45,10.00,17.00,0.00,30.15,1020.50,10.00,24.00,FEW,SCT,SCT,M,7500.00,12000.00,20000.00,M,M,M,M,M,31.00,10.00,2025-01-07 17:38,56.00,KLAS 071756Z 01017G24KT 10SM FEW075 SCT120 SCT200 13/M06 A3015 RMK AO2 PK WND 01031/1738 SLP205 T01331056 10133 20094 51013 $,M
NFL,2025-01-07 17:57,-118.7010,39.4166,1199.00,38.00,28.00,66.94,10.00,5.00,0.00,30.46,1026.70,10.00,M,SCT,M,M,M,4500.00,M,M,M,M,M,M,M,M,M,M,33.52,KNFL 071757Z 01005KT 10SM SCT045 03/M02 A3046 RMK AO2 SLP267 T00331022 10033 21061 51014 $,M
TMT,2025-01-07 18:10,-117.1971,39.4643,1749.34,29.70,26.00,85.90,0.00,0.00,0.00,30.41,M,10.00,M,SCT,SCT,M,M,1600.00,2400.00,M,M,M,M,M,M,M,M,M,29.70,KTMT 071810Z AUTO 00000KT 10SM SCT016 SCT024 M01/M03 A3041 RMK AO2 T10131034,M
BVU,2025-01-07 18:15,-114.8611,35.9475,671.00,55.40,21.20,26.13,10.00,19.00,0.00,30.12,M,10.00,26.00,CLR,M,M,M,M,M,M,M,M,M,M,M,M,M,M,55.40,KBVU 071815Z AUTO 01019G26KT 10SM CLR 13/M06 A3012 RMK AO2,M
BAM,2025-01-07 18:15,-116.8743,40.5990,1382.36,35.60,30.20,80.51,350.00,5.00,0.00,30.48,M,10.00,M,CLR,M,M,M,M,M,M,M,M,M,M,M,M,M,M,30.67,KBAM 071815Z AUTO 35005KT 10SM CLR 02/M01 A3048 RMK AO1,M
CXP,2025-01-07 18:15,-119.7326,39.1923,1431.00,37.40,26.60,64.70,90.00,6.00,0.00,30.46,M,10.00,M,SCT,M,M,M,3700.00,M,M,M,M,M,M,M,M,M,M,32.03,KCXP 071815Z AUTO 09006KT 10SM SCT037 03/M03 A3046 RMK AO2,M
05U,2025-01-07 18:30,-116.0051,39.6042,1811.23,M,M,M,0.00,0.00,0.00,30.40,M,10.00,M,SCT,M,M,M,1700.00,M,M,M,M,M,M,M,M,M,M,M,K05U 071830Z AUTO 00000KT 10SM SCT017 A3040 RMK A01,M
TMT,2025-01-07 18:30,-117.1971,39.4643,1749.34,31.00,26.00,81.48,20.00,8.00,0.00,30.42,M,10.00,M,BKN,BKN,M,M,2000.00,2700.00,M,M,M,M,M,M,M,M,M,22.88,KTMT 071830Z AUTO 02008KT 340V060 10SM BKN020 BKN027 00/M03 A3042 RMK AO2 T10051034,M
BVU,2025-01-07 18:35,-114.8611,35.9475,671.00,55.40,19.40,24.21,360.00,20.00,0.00,30.11,M,10.00,30.00,CLR,M,M,M,M,M,M,M,M,M,M,M,M,M,M,55.40,KBVU 071835Z AUTO 36020G30KT 10SM CLR 13/M07 A3011 RMK AO2,M
CXP,2025-01-07 18:35,-119.7326,39.1923,1431.00,39.20,24.80,55.95,80.00,9.00,0.00,30.46,M,10.00,M,BKN,M,M,M,3800.00,M,M,M,M,M,M,M,M,M,M,32.47,KCXP 071835Z AUTO 08009KT 10SM BKN038 04/M04 A3046 RMK AO2,M
RTS,2025-01-07 18:35,-119.8764,39.6682,1539.00,35.60,24.80,64.46,50.00,5.00,0.00,30.46,M,10.00,12.00,CLR,M,M,M,M,M,M,M,M,M,M,M,M,M,M,30.67,KRTS 071835Z AUTO 05005G12KT 10SM CLR 02/M04 A3046 RMK AO2,M
MEV,2025-01-07 18:35,-119.7500,38.9963,1441.42,39.20,23.00,51.89,40.00,7.00,0.00,30.44,M,10.00,M,CLR,M,M,M,M,M,M,M,M,M,M,M,M,M,M,33.56,KMEV 071835Z AUTO 04007KT 10SM CLR 04/M05 A3044 RMK AO2,M
BAM,2025-01-07 18:35,-116.8743,40.5990,1382.36,37.40,30.20,74.98,0.00,0.00,0.00,30.48,M,10.00,M,BKN,M,M,M,2800.00,M,M,M,M,M,M,M,M,M,M,37.40,KBAM 071835Z AUTO 00000KT 10SM BKN028 03/M01 A3048 RMK AO1,M
HTH,2025-01-07 18:35,-118.6315,38.5448,1282.89,39.20,24.80,55.95,340.00,11.00,0.00,30.46,M,10.00,M,BKN,M,M,M,5000.00,M,M,M,M,M,M,M,M,M,M,31.57,KHTH 071835Z AUTO 34011KT 10SM BKN050 04/M04 A3046 RMK A01,M
WMC,2025-01-07 18:45,-117.8072,40.9019,1315.00,36.00,26.00,66.69,30.00,12.00,0.00,30.49,M,10.00,20.00,BKN,M,M,M,2000.00,M,M,M,M,M,M,M,M,M,M,27.09,KWMC 071845Z AUTO 03012G20KT 10SM BKN020 02/M03 A3049 RMK AO2 T00221033,M
MEV,2025-01-07 18:45,-119.7500,38.9963,1441.42,37.40,23.00,55.68,40.00,8.00,0.00,30.44,M,10.00,M,CLR,M,M,M,M,M,M,M,M,M,M,M,M,M,M,30.76,KMEV 071845Z AUTO 04008KT 10SM CLR 03/M05 A3044 RMK AO2,M
RTS,2025-01-07 18:45,-119.8764,39.6682,1539.00,35.60,24.80,64.46,50.00,7.00,0.00,30.47,M,10.00,M,FEW,M,M,M,3400.00,M,M,M,M,M,M,M,M,M,M,29.17,KRTS 071845Z AUTO 05007KT 10SM FEW034 02/M04 A3047 RMK AO2,M
05U,2025-01-07 18:50,-116.0051,39.6042,1811.23,M,M,M,0.00,0.00,0.00,30.40,M,10.00,M,CLR,M,M,M,M,M,M,M,M,M,M,M,M,M,M,M,K05U 071850Z AUTO 00000KT 10SM CLR A3040 RMK A01,M
TMT,2025-01-07 18:50,-117.1971,39.4643,1749.34,31.00,25.00,78.16,350.00,11.00,0.00,30.41,M,10.00,M,SCT,BKN,OVC,M,2000.00,2500.00,3600.00,M,M,M,M,M,M,M,M,21.20,KTMT 071850Z AUTO 35011KT 10SM SCT020 BKN025 OVC036 M01/M04 A3041 RMK AO2 T10061038,M
P68,2025-01-07 18:53,-116.0056,39.6014,1993.00,28.00,24.00,84.72,0.00,0.00,0.00,30.37,1029.70,M,M,M,M,M,M,M,M,M,M,M,M,M,M,M,M,M,28.00,KP68 071853Z AUTO 00000KT M02/M04 A3037 RMK AO1 SLP297 T10221044,M
DRA,2025-01-07 18:53,-116.0278,36.6206,1009.00,52.00,18.00,25.82,30.00,22.00,0.00,30.17,1019.90,10.00,30.00,CLR,M,M,M,M,M,M,M,M,M,M,M,30.00,40.00,2025-01-07 18:04,52.00,KDRA 071853Z AUTO 03022G30KT 10SM CLR 11/M08 A3017 RMK AO2 PK WND 04030/1804 SLP199 T01111078,M
ELY,2025-01-07 18:53,-114.8453,39.2950,1909.00,29.00,19.00,65.81,10.00,23.00,0.00,30.32,1028.20,10.00,33.00,CLR,M,M,M,M,M,M,M,M,M,M,M,33.00,10.00,2025-01-07 18:47,14.28,KELY 071853Z AUTO 01023G33KT 10SM CLR M02/M07 A3032 RMK AO2 PK WND 01033/1847 SLP282 T10171072,M
VGT,2025-01-07 18:53,-115.1933,36.2111,667.00,56.00,24.00,28.77,320.00,17.00,0.00,30.12,1021.80,10.00,25.00,CLR,M,M,M,M,M,M,M,M,M,M,M,27.00,340.00,2025-01-07 18:40,56.00,KVGT 071853Z 32017G25KT 10SM CLR 13/M04 A3012 RMK AO2 PK WND 34027/1840 SLP218 T01331044 $,M
LOL,2025-01-07 18:53,-118.5701,40.0684,1192.43,39.00,29.00,67.06,20.00,9.00,0.00,30.47,1033.20,10.00,M,CLR,M,M,M,M,M,M,M,M,M,M,M,M,M,M,32.22,KLOL 071853Z AUTO 02009KT 10SM CLR 04/M02 A3047 RMK AO2 SLP332 T00391017,M
BVU,2025-01-07 18:55,-114.8611,35.9475,671.00,55.40,19.40,24.21,350.00,22.00,0.00,30.10,M,10.00,29.00,CLR,M,M,M,M,M,M,M,M,M,M,M,M,M,M,55.40,KBVU 071855Z AUTO 35022G29KT 10SM CLR 13/M07 A3010 RMK AO2,M
RNO,2025-01-07 18:55,-119.7711,39.4839,1341.00,40.00,23.00,50.30,140.00,3.00,0.00,30.46,1031.60,10.00,M,FEW,M,M,M,3900.00,M,M,M,M,M,M,M,M,M,M,37.83,KRNO 071855Z 14003KT 10SM FEW039 04/M05 A3046 RMK AO2 SLP316 T00441050,M
CXP,2025-01-07 18:55,-119.7326,39.1923,1431.00,39.20,24.80,55.95,80.00,8.00,0.00,30.46,M,10.00,M,BKN,M,M,M,3900.00,M,M,M,M,M,M,M,M,M,M,32.98,KCXP 071855Z AUTO 08008KT 10SM BKN039 04/M04 A3046 RMK AO2,M
BAM,2025-01-07 18:55,-116.8743,40.5990,1382.36,39.20,30.20,69.88,40.00,5.00,0.00,30.49,M,10.00,M,OVC,M,M,M,2600.00,M,M,M,M,M,M,M,M,M,M,34.95,KBAM 071855Z AUTO 04005KT 10SM OVC026 04/M01 A3049 RMK AO1,M
HTH,2025-01-07 18:55,-118.6315,38.5448,1282.89,39.20,24.80,55.95,360.00,12.00,0.00,30.45,M,10.00,17.00,SCT,SCT,M,M,4200.00,5000.00,M,M,M,M,M,M,M,M,M,31.17,KHTH 071855Z AUTO 36012G17KT 10SM SCT042 SCT050 04/M04 A3045 RMK A01,M
INS,2025-01-07 18:55,-115.6733,36.5872,955.00,51.30,14.70,22.96,20.00,11.00,0.00,30.19,1020.80,10.00,18.00,CLR,M,M,M,M,M,M,M,M,M,M,M,M,M,M,51.30,KINS 071855Z AUTO 02011G18KT 10SM CLR 11/M10 A3019 RMK AO2 SLP208 T01071096,M
LSV,2025-01-07 18:55,-115.0343,36.2362,570.00,58.00,17.00,19.88,30.00,21.00,0.00,30.11,1019.30,10.00,27.00,CLR,M,M,M,M,M,M,M,M,M,M,M,32.00,20.00,2025-01-07 18:34,58.00,KLSV 071855Z AUTO 03021G27KT 10SM CLR 14/M08 A3011 RMK AO2 PK WND 02032/34 SLP193 T01441083 $,M
EKO,2025-01-07 18:56,-115.7860,40.8242,1367.00,36.00,22.00,56.42,40.00,12.00,0.00,30.43,1032.40,10.00,M,FEW,BKN,M,M,4000.00,5000.00,M,M,M,M,M,M,M,M,M,27.09,KEKO 071856Z AUTO 04012KT 10SM FEW040 BKN050 02/M06 A3043 RMK AO2 SLP324 T00221056,M
WMC,2025-01-07 18:56,-117.8072,40.9019,1315.00,37.00,27.00,66.82,30.00,15.00,0.00,30.49,1033.50,10.00,M,SCT,M,M,M,2000.00,M,M,M,M,M,M,M,M,M,M,27.26,KWMC 071856Z AUTO 03015KT 10SM SCT020 03/M03 A3049 RMK AO2 SLP335 T00281028,M
HND,2025-01-07 18:56,-115.1344,35.9729,742.79,55.00,21.00,26.29,10.00,18.00,0.00,30.13,1022.20,10.00,27.00,CLR,M,M,M,M,M,M,M,M,M,M,M,31.00,20.00,2025-01-07 18:11,55.00,KHND 071856Z 01018G27KT 10SM CLR 13/M06 A3013 RMK AO2 PK WND 02031/1811 SLP222 T01281061 $,M
TPH,2025-01-07 18:56,-117.0904,38.0505,1654.00,39.00,15.00,37.13,10.00,22.00,0.00,30.30,1025.90,10.00,28.00,CLR,M,M,M,M,M,M,M,M,M,M,M,29.00,360.00,2025-01-07 18:36,27.95,KTPH 071856Z AUTO 01022G28KT 10SM CLR 04/M09 A3030 RMK AO2 PK WND 36029/1836 SLP259 T00391094,M
LAS,2025-01-07 18:56,-115.1634,36.0719,663.00,56.00,20.00,24.30,30.00,24.00,0.00,30.13,1019.90,10.00,31.00,FEW,FEW,SCT,M,7500.00,12000.00,20000.00,M,M,M,M,M,32.00,20.00,2025-01-07 18:14,56.00,KLAS 071856Z 03024G31KT 10SM FEW075 FEW120 SCT200 13/M07 A3013 RMK AO2 PK WND 02032/1814 SLP199 T01331067 $,M
NFL,2025-01-07 18:57,-118.7010,39.4166,1199.00,42.00,28.00,57.30,20.00,9.00,0.00,30.46,1026.80,10.00,M,FEW,SCT,M,M,3000.00,4500.00,M,M,M,M,M,M,M,M,M,35.95,KNFL 071857Z 02009KT 10SM FEW030 SCT045 06/M02 A3046 RMK AO2 SLP268 T00561022 $,M
05U,2025-01-07 19:10,-116.0051,39.6042,1811.23,M,M,M,0.00,0.00,0.00,30.40,M,10.00,M,SCT,M,M,M,2100.00,M,M,M,M,M,M,M,M,M,M,M,K05U 071910Z AUTO 00000KT 10SM SCT021 A3040 RMK A01,M
TMT,2025-01-07 19:10,-117.1971,39.4643,1749.34,30.60,24.60,78.13,10.00,12.00,0.00,30.41,M,10.00,M,SCT,BKN,BKN,M,2000.00,2700.00,3600.00,M,M,M,M,M,M,M,M,20.22,KTMT 071910Z AUTO 01012KT 10SM SCT020 BKN027 BKN036 M01/M04 A3041 RMK AO2 T10081041,M
BVU,2025-01-07 19:15,-114.8611,35.9475,671.00,57.20,19.40,22.68,360.00,22.00,0.00,30.09,M,10.00,M,CLR,M,M,M,M,M,M,M,M,M,M,M,M,M,M,57.20,KBVU 071915Z AUTO 36022KT 10SM CLR 14/M07 A3009 RMK AO2,M
CXP,2025-01-07 19:15,-119.7326,39.1923,1431.00,39.20,24.80,55.95,80.00,11.00,0.00,30.45,M,10.00,17.00,BKN,M,M,M,3800.00,M,M,M,M,M,M,M,M,M,M,31.57,KCXP 071915Z AUTO 08011G17KT 10SM BKN038 04/M04 A3045 RMK AO2,M
BAM,2025-01-07 19:15,-116.8743,40.5990,1382.36,37.40,28.40,69.67,0.00,0.00,0.00,30.48,M,10.00,M,SCT,OVC,M,M,2400.00,2900.00,M,M,M,M,M,M,M,M,M,37.40,KBAM 071915Z AUTO 00000KT 10SM SCT024 OVC029 03/M02 A3048 RMK AO1,M
HTH,2025-01-07 19:15,-118.6315,38.5448,1282.89,39.20,24.80,55.95,350.00,13.00,0.00,30.45,M,10.00,M,OVC,M,M,M,4000.00,M,M,M,M,M,M,M,M,M,M,30.79,KHTH 071915Z AUTO 35013KT 10SM OVC040 04/M04 A3045 RMK A01,M
INS,2025-01-07 19:16,-115.6733,36.5872,955.00,51.80,12.20,20.20,10.00,12.00,0.00,30.18,1020.70,10.00,M,CLR,M,M,M,M,M,M,M,M,M,M,M,M,M,M,51.80,KINS 071916Z AUTO 01012KT 10SM CLR 11/M11 A3018 RMK AO2 WSHFT 03 SLP207,M
LAS,2025-01-07 19:18,-115.1634,36.0719,663.00,57.00,19.00,22.46,20.00,22.00,0.00,30.11,M,10.00,M,FEW,FEW,SCT,M,7500.00,12000.00,20000.00,M,M,M,M,M,31.00,40.00,2025-01-07 19:05,57.00,KLAS 071918Z 02022KT 10SM FEW075 FEW120 SCT200 14/M07 A3011 RMK AO2 PK WND 04031/1905 T01391072 $,M
05U,2025-01-07 19:30,-116.0051,39.6042,1811.23,M,M,M,M,4.00,0.00,30.39,M,10.00,M,SCT,M,M,M,2200.00,M,M,M,M,M,M,M,M,M,M,M,K05U 071930Z AUTO VRB04KT 10SM SCT022 A3039 RMK A01,M
TMT,2025-01-07 19:30,-117.1971,39.4643,1749.34,32.00,24.80,74.44,10.00,11.00,0.00,30.40,M,10.00,18.00,SCT,SCT,SCT,M,2300.00,2900.00,3400.00,M,M,M,M,M,M,M,M,22.47,KTMT 071930Z AUTO 01011G18KT 10SM SCT023 SCT029 SCT034 00/M04 A3040 RMK AO2 T00011040,M
BVU,2025-01-07 19:35,-114.8611,35.9475,671.00,57.20,19.40,22.68,10.00,22.00,0.00,30.08,M,10.00,29.00,CLR,M,M,M,M,M,M,M,M,M,M,M,M,M,M,57.20,KBVU 071935Z AUTO 01022G29KT 10SM CLR 14/M07 A3008 RMK AO2,M
CXP,2025-01-07 19:35,-119.7326,39.1923,1431.00,39.20,24.80,55.95,80.00,10.00,0.00,30.45,M,10.00,15.00,SCT,M,M,M,3700.00,M,M,M,M,M,M,M,M,M,M,32.00,KCXP 071935Z AUTO 08010G15KT 10SM SCT037 04/M04 A3045 RMK AO2,M
BAM,2025-01-07 19:35,-116.8743,40.5990,1382.36,37.40,28.40,69.67,320.00,3.00,0.00,30.47,M,10.00,M,BKN,BKN,M,M,2900.00,3400.00,M,M,M,M,M,M,M,M,M,34.86,KBAM 071935Z AUTO 32003KT 10SM BKN029 BKN034 03/M02 A3047 RMK AO1,M
HTH,2025-01-07 19:35,-118.6315,38.5448,1282.89,39.20,24.80,55.95,340.00,12.00,0.00,30.44,M,10.00,M,OVC,M,M,M,4400.00,M,M,M,M,M,M,M,M,M,M,31.17,KHTH 071935Z AUTO 34012KT 10SM OVC044 04/M04 A3044 RMK A01,M
LAS,2025-01-07 19:39,-115.1634,36.0719,663.00,57.00,19.00,22.46,360.00,17.00,0.00,30.11,M,10.00,33.00,FEW,FEW,SCT,M,7500.00,12000.00,20000.00,M,M,M,M,M,33.00,10.00,2025-01-07 19:32,57.00,KLAS 071939Z 36017G33KT 10SM FEW075 FEW120 SCT200 14/M07 A3011 RMK AO2 PK WND 01033/1932 T01391072 $,M
05U,2025-01-07 19:50,-116.0051,39.6042,1811.23,M,M,M,20.00,6.00,0.00,30.38,M,10.00,M,FEW,FEW,SCT,M,1900.00,2400.00,2800.00,M,M,M,M,M,M,M,M,M,K05U 071950Z AUTO 02006KT 10SM FEW019 FEW024 SCT028 A3038 RMK A01,M
TMT,2025-01-07 19:50,-117.1971,39.4643,1749.34,32.50,24.00,70.56,360.00,14.00,0.00,30.39,M,10.00,M,CLR,M,M,M,M,M,M,M,M,M,M,M,M,M,M,21.81,KTMT 071950Z AUTO 36014KT 10SM CLR 00/M04 A3039 RMK AO2 T00031045,M
P68,2025-01-07 19:53,-116.0056,39.6014,1993.00,32.00,25.00,75.07,10.00,8.00,0.00,30.35,1028.80,M,M,M,M,M,M,M,M,M,M,M,M,M,M,M,M,M,24.11,KP68 071953Z AUTO 01008KT 00/M04 A3035 RMK AO1 SLP288 T00001039,M
DRA,2025-01-07 19:53,-116.0278,36.6206,1009.00,53.00,14.00,20.92,30.00,25.00,0.00,30.13,1018.50,10.00,36.00,CLR,M,M,M,M,M,M,M,M,M,M,M,36.00,30.00,2025-01-07 19:51,53.00,KDRA 071953Z AUTO 03025G36KT 10SM CLR 12/M10 A3013 RMK AO2 PK WND 03036/1951 SLP185 T01171100,M
ELY,2025-01-07 19:53,-114.8453,39.2950,1909.00,30.00,17.00,57.98,360.00,20.00,0.00,30.30,1027.30,10.00,30.00,FEW,M,M,M,3400.00,M,M,M,M,M,M,M,32.00,10.00,2025-01-07 18:59,16.48,KELY 071953Z AUTO 36020G30KT 10SM FEW034 M01/M08 A3030 RMK AO2 PK WND 01032/1859 SLP273 T10111083,M
VGT,2025-01-07 19:53,-115.1933,36.2111,667.00,57.00,24.00,27.75,330.00,16.00,0.00,30.10,1020.90,10.00,27.00,SCT,M,M,M,8500.00,M,M,M,M,M,M,M,31.00,320.00,2025-01-07 19:03,57.00,KVGT 071953Z 33016G27KT 10SM SCT085 14/M04 A3010 RMK AO2 PK WND 32031/1903 SLP209 T01391044,M
LOL,2025-01-07 19:53,-118.5701,40.0684,1192.43,41.00,29.00,62.04,30.00,14.00,0.00,30.44,1032.10,10.00,M,CLR,M,M,M,M,M,M,M,M,M,M,M,M,M,M,32.76,KLOL 071953Z AUTO 03014KT 10SM CLR 05/M02 A3044 RMK AO2 SLP321 T00501017,M
BVU,2025-01-07 19:55,-114.8611,35.9475,671.00,57.20,19.40,22.68,360.00,22.00,0.00,30.07,M,10.00,28.00,CLR,M,M,M,M,M,M,M,M,M,M,M,M,M,M,57.20,KBVU 071955Z AUTO 36022G28KT 10SM CLR 14/M07 A3007 RMK AO2,M
RNO,2025-01-07 19:55,-119.7711,39.4839,1341.00,42.00,24.00,48.55,140.00,6.00,0.00,30.44,1030.90,10.00,M,SCT,M,M,M,3900.00,M,M,M,M,M,M,M,M,M,M,37.57,KRNO 071955Z 14006KT 10SM SCT039 06/M04 A3044 RMK AO2 SLP309 T00561044,M
CXP,2025-01-07 19:55,-119.7326,39.1923,1431.00,39.20,26.60,60.29,70.00,8.00,0.00,30.44,M,10.00,15.00,FEW,M,M,M,3600.00,M,M,M,M,M,M,M,M,M,M,32.98,KCXP 071955Z AUTO 07008G15KT 10SM FEW036 04/M03 A3044 RMK AO2,M
BAM,2025-01-07 19:55,-116.8743,40.5990,1382.36,39.20,28.40,64.93,50.00,4.00,0.00,30.46,M,10.00,M,SCT,SCT,M,M,3300.00,3900.00,M,M,M,M,M,M,M,M,M,35.83,KBAM 071955Z AUTO 05004KT 10SM SCT033 SCT039 04/M02 A3046 RMK AO1,M
HTH,2025-01-07 19:55,-118.6315,38.5448,1282.89,41.00,23.00,48.39,350.00,13.00,0.00,30.42,M,10.00,M,OVC,M,M,M,4700.00,M,M,M,M,M,M,M,M,M,M,33.10,KHTH 071955Z AUTO 35013KT 10SM OVC047 05/M05 A3042 RMK A01,M
INS,2025-01-07 19:55,-115.6733,36.5872,955.00,52.30,12.40,20.00,30.00,8.00,0.00,30.17,1020.40,10.00,22.00,CLR,M,M,M,M,M,M,M,M,M,M,M,27.00,60.00,2025-01-07 19:35,52.30,KINS 071955Z AUTO 03008G22KT 10SM CLR 11/M11 A3017 RMK AO2 PK WND 06027/35 SLP204 T01131109,M
LSV,2025-01-07 19:55,-115.0343,36.2362,570.00,59.00,15.40,17.89,10.00,22.00,0.00,30.08,1017.90,10.00,27.00,CLR,M,M,M,M,M,M,M,M,M,M,M,30.00,30.00,2025-01-07 19:05,59.00,KLSV 071955Z AUTO 01022G27KT 10SM CLR 15/M09 A3008 RMK AO2 PK WND 03030/05 SLP179 T01501092 $,M
EKO,2025-01-07 19:56,-115.7860,40.8242,1367.00,37.00,21.00,51.99,60.00,14.00,0.00,30.40,1031.30,10.00,23.00,FEW,M,M,M,4600.00,M,M,M,M,M,M,M,M,M,M,27.61,KEKO 071956Z AUTO 06014G23KT 10SM FEW046 03/M06 A3040 RMK AO2 SLP313 T00281061,M
WMC,2025-01-07 19:56,-117.8072,40.9019,1315.00,38.00,25.00,59.13,40.00,16.00,0.00,30.46,1032.50,10.00,21.00,CLR,M,M,M,M,M,M,M,M,M,M,M,M,M,M,28.24,KWMC 071956Z AUTO 04016G21KT 10SM CLR 03/M04 A3046 RMK AO2 SLP325 T00331039,M
HND,2025-01-07 19:56,-115.1344,35.9729,742.79,55.00,19.00,24.14,30.00,22.00,0.00,30.11,1021.40,10.00,32.00,CLR,M,M,M,M,M,M,M,M,M,M,M,32.00,20.00,2025-01-07 19:53,55.00,KHND 071956Z 03022G32KT 10SM CLR 13/M07 A3011 RMK AO2 PK WND 02032/1953 SLP214 T01281072 $,M
TPH,2025-01-07 19:56,-117.0904,38.0505,1654.00,41.00,14.00,32.88,10.00,27.00,0.00,30.27,1024.90,10.00,35.00,CLR,M,M,M,M,M,M,M,M,M,M,M,35.00,10.00,2025-01-07 19:46,29.61,KTPH 071956Z AUTO 01027G35KT 10SM CLR 05/M10 A3027 RMK AO2 PK WND 01035/1946 SLP249 T00501100,M
LAS,2025-01-07 19:56,-115.1634,36.0719,663.00,58.00,18.00,20.75,30.00,21.00,0.00,30.10,1019.00,10.00,28.00,FEW,FEW,M,M,8000.00,12000.00,M,M,M,M,M,M,33.00,10.00,2025-01-07 19:32,58.00,KLAS 071956Z 03021G28KT 10SM FEW080 FEW120 14/M08 A3010 RMK AO2 PK WND 01033/1932 SLP190 T01441078 $,M
NFL,2025-01-07 19:57,-118.7010,39.4166,1199.00,43.00,27.00,52.91,10.00,8.00,0.00,30.44,1026.10,10.00,M,SCT,SCT,M,M,3500.00,4500.00,M,M,M,M,M,M,M,M,M,37.66,KNFL 071957Z 01008KT 10SM SCT035 SCT045 06/M03 A3044 RMK AO2 SLP261 T00611028 $,M
05U,2025-01-07 20:10,-116.0051,39.6042,1811.23,M,M,M,360.00,9.00,0.00,30.37,M,10.00,M,FEW,FEW,BKN,M,1900.00,2400.00,3200.00,M,M,M,M,M,M,M,M,M,K05U 072010Z AUTO 36009KT 10SM FEW019 FEW024 BKN032 A3037 RMK A01,M
TMT,2025-01-07 20:10,-117.1971,39.4643,1749.34,33.30,25.00,71.25,360.00,13.00,0.00,30.39,M,10.00,M,SCT,SCT,SCT,M,2500.00,3700.00,4300.00,M,M,M,M,M,M,M,M,23.23,KTMT 072010Z AUTO 36013KT 10SM SCT025 SCT037 SCT043 01/M04 A3039 RMK AO2 T00071039,M
BVU,2025-01-07 20:15,-114.8611,35.9475,671.00,59.00,19.40,21.26,10.00,18.00,0.00,30.07,M,10.00,24.00,CLR,M,M,M,M,M,M,M,M,M,M,M,M,M,M,59.00,KBVU 072015Z AUTO 01018G24KT 10SM CLR 15/M07 A3007 RMK AO2,M
CXP,2025-01-07 20:15,-119.7326,39.1923,1431.00,39.20,26.60,60.29,60.00,13.00,0.00,30.43,M,10.00,M,SCT,M,M,M,3400.00,M,M,M,M,M,M,M,M,M,M,30.79,KCXP 072015Z AUTO 06013KT 10SM SCT034 04/M03 A3043 RMK AO2,M
RTS,2025-01-07 20:15,-119.8764,39.6682,1539.00,37.40,24.80,60.04,70.00,9.00,0.00,30.42,M,10.00,M,CLR,M,M,M,M,M,M,M,M,M,M,M,M,M,M,30.23,KRTS 072015Z AUTO 07009KT 10SM CLR 03/M04 A3042 RMK AO2,M
MEV,2025-01-07 20:15,-119.7500,38.9963,1441.42,39.20,23.00,51.89,30.00,8.00,0.00,30.41,M,10.00,M,CLR,M,M,M,M,M,M,M,M,M,M,M,M,M,M,32.98,KMEV 072015Z AUTO 03008KT 10SM CLR 04/M05 A3041 RMK AO2,M
BAM,2025-01-07 20:15,-116.8743,40.5990,1382.36,37.40,28.40,69.67,40.00,7.00,0.00,30.46,M,10.00,M,BKN,OVC,M,M,2900.00,3900.00,M,M,M,M,M,M,M,M,M,31.36,KBAM 072015Z AUTO 04007KT 10SM BKN029 OVC039 03/M02 A3046 RMK AO1,M
HTH,2025-01-07 20:15,-118.6315,38.5448,1282.89,42.80,23.00,45.14,340.00,16.00,0.00,30.42,M,10.00,M,BKN,M,M,M,4800.00,M,M,M,M,M,M,M,M,M,M,34.50,KHTH 072015Z AUTO 34016KT 10SM BKN048 06/M05 A3042 RMK A01,M
10U,2025-01-07 20:20,-116.1876,41.9532,1637.00,32.00,23.00,69.04,M,M,0.00,30.45,M,10.00,M,BKN,OVC,M,M,2500.00,2900.00,M,M,M,M,M,M,M,M,M,M,K10U 072020Z AUTO 10SM BKN025 OVC029 00/M05 A3045 RMK AO2,M
RTS,2025-01-07 20:25,-119.8764,39.6682,1539.00,39.20,24.80,55.95,50.00,11.00,0.00,30.42,M,10.00,M,CLR,M,M,M,M,M,M,M,M,M,M,M,M,M,M,31.57,KRTS 072025Z AUTO 05011KT 030V090 10SM CLR 04/M04 A3042 RMK AO2,M
INS,2025-01-07 20:26,-115.6733,36.5872,955.00,53.60,10.40,17.45,60.00,17.00,0.00,30.15,1019.70,10.00,25.00,CLR,M,M,M,M,M,M,M,M,M,M,M,M,M,M,53.60,KINS 072026Z AUTO 06017G25KT 10SM CLR 12/M12 A3015 RMK AO2 WSHFT 20 SLP197,M
05U,2025-01-07 20:30,-116.0051,39.6042,1811.23,M,M,M,360.00,11.00,0.00,30.37,M,10.00,16.00,FEW,SCT,M,M,2000.00,3200.00,M,M,M,M,M,M,M,M,M,M,K05U 072030Z AUTO 36011G16KT 10SM FEW020 SCT032 A3037 RMK A01,M
TMT,2025-01-07 20:30,-117.1971,39.4643,1749.34,33.00,23.50,67.73,10.00,13.00,0.00,30.38,M,10.00,18.00,SCT,BKN,BKN,M,2900.00,3900.00,4700.00,M,M,M,M,M,M,M,M,22.85,KTMT 072030Z AUTO 01013G18KT 10SM SCT029 BKN039 BKN047 01/M05 A3038 RMK AO2 T00061047,M
BVU,2025-01-07 20:35,-114.8611,35.9475,671.00,59.00,19.40,21.26,360.00,17.00,0.00,30.05,M,10.00,28.00,CLR,M,M,M,M,M,M,M,M,M,M,M,M,M,M,59.00,KBVU 072035Z AUTO 36017G28KT 10SM CLR 15/M07 A3005 RMK AO2,M
CXP,2025-01-07 20:35,-119.7326,39.1923,1431.00,41.00,26.60,56.22,70.00,10.00,0.00,30.42,M,10.00,15.00,FEW,M,M,M,3300.00,M,M,M,M,M,M,M,M,M,M,34.25,KCXP 072035Z AUTO 07010G15KT 10SM FEW033 05/M03 A3042 RMK AO2,M
MEV,2025-01-07 20:35,-119.7500,38.9963,1441.42,41.00,23.00,48.39,30.00,11.00,0.00,30.40,M,10.00,M,CLR,M,M,M,M,M,M,M,M,M,M,M,M,M,M,33.84,KMEV 072035Z AUTO 03011KT 10SM CLR 05/M05 A3040 RMK AO2,M
BAM,2025-01-07 20:35,-116.8743,40.5990,1382.36,37.40,28.40,69.67,90.00,5.00,0.00,30.45,M,10.00,M,SCT,SCT,OVC,M,2900.00,3500.00,4100.00,M,M,M,M,M,M,M,M,32.81,KBAM 072035Z AUTO 09005KT 10SM SCT029 SCT035 OVC041 03/M02 A3045 RMK AO1,M
HTH,2025-01-07 20:35,-118.6315,38.5448,1282.89,41.00,23.00,48.39,330.00,16.00,0.00,30.41,M,10.00,M,BKN,M,M,M,4900.00,M,M,M,M,M,M,M,M,M,M,32.15,KHTH 072035Z AUTO 33016KT 10SM BKN049 05/M05 A3041 RMK A01,M
10U,2025-01-07 20:40,-116.1876,41.9532,1637.00,33.80,23.00,64.23,M,M,0.00,30.45,M,10.00,M,OVC,M,M,M,2500.00,M,M,M,M,M,M,M,M,M,M,M,K10U 072040Z AUTO 10SM OVC025 01/M05 A3045 RMK AO2,M
MEV,2025-01-07 20:45,-119.7500,38.9963,1441.42,41.00,23.00,48.39,40.00,8.00,0.00,30.40,M,10.00,M,CLR,M,M,M,M,M,M,M,M,M,M,M,M,M,M,35.20,KMEV 072045Z AUTO 04008KT 010V070 10SM CLR 05/M05 A3040 RMK AO2,M
05U,2025-01-07 20:50,-116.0051,39.6042,1811.23,M,M,M,10.00,9.00,0.00,30.37,M,10.00,15.00,CLR,M,M,M,M,M,M,M,M,M,M,M,M,M,M,M,K05U 072050Z AUTO 01009G15KT 10SM CLR A3037 RMK A01,M
TMT,2025-01-07 20:50,-117.1971,39.4643,1749.34,33.00,23.00,66.32,20.00,11.00,0.00,30.38,M,10.00,18.00,SCT,BKN,M,M,3400.00,4100.00,M,M,M,M,M,M,M,M,M,23.73,KTMT 072050Z AUTO 02011G18KT 10SM SCT034 BKN041 01/M05 A3038 RMK AO2 T00051049,M
P68,2025-01-07 20:53,-116.0056,39.6014,1993.00,33.00,23.00,66.32,10.00,10.00,0.00,30.34,1028.30,M,M,M,M,M,M,M,M,M,M,M,M,M,M,M,M,M,24.22,KP68 072053Z AUTO 01010KT 01/M05 A3034 RMK AO1 SLP283 T00061050 58011,M
DRA,2025-01-07 20:53,-116.0278,36.6206,1009.00,53.00,18.00,24.88,30.00,20.00,0.00,30.12,1018.20,10.00,29.00,CLR,M,M,M,M,M,M,M,M,M,M,M,32.00,40.00,2025-01-07 20:14,53.00,KDRA 072053Z AUTO 03020G29KT 10SM CLR 12/M08 A3012 RMK AO2 PK WND 04032/2014 SLP182 T01171078 56022,M
ELY,2025-01-07 20:53,-114.8453,39.2950,1909.00,31.00,19.00,60.67,360.00,18.00,0.00,30.28,1026.60,10.00,29.00,FEW,BKN,M,M,3200.00,4000.00,M,M,M,M,M,M,30.00,10.00,2025-01-07 20:08,18.43,KELY 072053Z AUTO 36018G29KT 10SM FEW032 BKN040 M01/M07 A3028 RMK AO2 PK WND 01030/2008 SLP266 T10061072 58012,M
VGT,2025-01-07 20:53,-115.1933,36.2111,667.00,58.00,25.00,27.91,40.00,18.00,0.00,30.07,1019.90,10.00,23.00,CLR,M,M,M,M,M,M,M,M,M,M,M,27.00,350.00,2025-01-07 20:24,58.00,KVGT 072053Z 04018G23KT 10SM CLR 14/M04 A3007 RMK AO2 PK WND 35027/2024 SLP199 T01441039 57025,M
LOL,2025-01-07 20:53,-118.5701,40.0684,1192.43,42.00,28.00,57.30,50.00,14.00,0.00,30.41,1031.20,10.00,M,CLR,M,M,M,M,M,M,M,M,M,M,M,M,M,M,34.05,KLOL 072053Z AUTO 05014KT 10SM CLR 06/M02 A3041 RMK AO2 SLP312 T00561022 58016,M
BVU,2025-01-07 20:55,-114.8611,35.9475,671.00,59.00,17.60,19.68,360.00,19.00,0.00,30.04,M,10.00,26.00,CLR,M,M,M,M,M,M,M,M,M,M,M,M,M,M,59.00,KBVU 072055Z AUTO 36019G26KT 10SM CLR 15/M08 A3004 RMK AO2,M
RNO,2025-01-07 20:55,-119.7711,39.4839,1341.00,43.00,23.00,44.80,50.00,6.00,0.00,30.40,1029.50,10.00,M,FEW,M,M,M,4000.00,M,M,M,M,M,M,M,M,M,M,38.78,KRNO 072055Z 05006KT 10SM FEW040 06/M05 A3040 RMK AO2 SLP295 T00611050 58016,M
CXP,2025-01-07 20:55,-119.7326,39.1923,1431.00,41.00,24.80,52.17,60.00,10.00,0.00,30.41,M,10.00,15.00,CLR,M,M,M,M,M,M,M,M,M,M,M,M,M,M,34.25,KCXP 072055Z AUTO 06010G15KT 10SM CLR 05/M04 A3041 RMK AO2,M
BAM,2025-01-07 20:55,-116.8743,40.5990,1382.36,39.20,30.20,69.88,60.00,7.00,0.00,30.45,M,10.00,M,OVC,M,M,M,4000.00,M,M,M,M,M,M,M,M,M,M,33.56,KBAM 072055Z AUTO 06007KT 10SM OVC040 04/M01 A3045 RMK AO1,M
HTH,2025-01-07 20:55,-118.6315,38.5448,1282.89,42.80,23.00,45.14,340.00,16.00,0.00,30.41,M,10.00,M,BKN,OVC,M,M,4900.00,5500.00,M,M,M,M,M,M,M,M,M,34.50,KHTH 072055Z AUTO 34016KT 10SM BKN049 OVC055 06/M05 A3041 RMK A01,M
INS,2025-01-07 20:55,-115.6733,36.5872,955.00,53.20,10.80,18.03,30.00,18.00,0.00,30.14,1019.10,10.00,23.00,CLR,M,M,M,M,M,M,M,M,M,M,M,28.00,40.00,2025-01-07 20:26,53.20,KINS 072055Z AUTO 03018G23KT 10SM CLR 12/M12 A3014 RMK AO2 PK WND 04028/26 SLP191 T01181118 57022,M
LSV,2025-01-07 20:55,-115.0343,36.2362,570.00,59.70,16.00,17.91,30.00,27.00,0.00,30.03,1016.20,10.00,38.00,CLR,M,M,M,M,M,M,M,M,M,M,M,38.00,40.00,2025-01-07 20:49,59.70,KLSV 072055Z AUTO 03027G38KT 10SM CLR 15/M09 A3003 RMK AO2 PK WND 04038/49 SLP162 T01541088 57031 $,M
EKO,2025-01-07 20:56,-115.7860,40.8242,1367.00,38.00,20.00,47.90,60.00,13.00,0.00,30.39,1030.80,10.00,18.00,FEW,FEW,M,M,4400.00,5500.00,M,M,M,M,M,M,M,M,M,29.26,KEKO 072056Z AUTO 06013G18KT 10SM FEW044 FEW055 03/M07 A3039 RMK AO2 SLP308 T00331067 58013,M
WMC,2025-01-07 20:56,-117.8072,40.9019,1315.00,39.00,24.00,54.54,40.00,14.00,0.00,30.44,1032.00,10.00,21.00,CLR,M,M,M,M,M,M,M,M,M,M,M,M,M,M,30.19,KWMC 072056Z AUTO 04014G21KT 10SM CLR 04/M04 A3044 RMK AO2 SLP320 T00391044 58011,M
HND,2025-01-07 20:56,-115.1344,35.9729,742.79,57.00,20.00,23.44,20.00,22.00,0.00,30.08,1020.20,10.00,29.00,CLR,M,M,M,M,M,M,M,M,M,M,M,31.00,20.00,2025-01-07 20:29,57.00,KHND 072056Z 02022G29KT 10SM CLR 14/M07 A3008 RMK AO2 PK WND 02031/2029 SLP202 T01391067 58024 $,M
TPH,2025-01-07 20:56,-117.0904,38.0505,1654.00,42.00,12.00,28.97,20.00,22.00,0.00,30.26,1024.50,10.00,34.00,CLR,M,M,M,M,M,M,M,M,M,M,M,36.00,360.00,2025-01-07 20:22,31.97,KTPH 072056Z AUTO 02022G34KT 10SM CLR 06/M11 A3026 RMK AO2 PK WND 36036/2022 SLP245 T00561111 56016,M
LAS,2025-01-07 20:56,-115.1634,36.0719,663.00,58.00,18.00,20.75,30.00,21.00,0.00,30.08,1018.30,10.00,31.00,FEW,FEW,M,M,8000.00,12000.00,M,M,M,M,M,M,31.00,30.00,2025-01-07 20:18,58.00,KLAS 072056Z 03021G31KT 10SM FEW080 FEW120 14/M08 A3008 RMK AO2 PK WND 03031/2018 SLP183 T01441078 57021,M
NFL,2025-01-07 20:57,-118.7010,39.4166,1199.00,44.00,26.00,48.86,20.00,11.00,0.00,30.41,1025.30,10.00,M,SCT,SCT,M,M,3500.00,4500.00,M,M,M,M,M,M,M,M,M,37.63,KNFL 072057Z 02011KT 10SM SCT035 SCT045 07/M03 A3041 RMK AO2 SLP253 T00671033 58015 $,M
10U,2025-01-07 21:00,-116.1876,41.9532,1637.00,33.80,23.00,64.23,M,M,0.00,30.45,M,10.00,M,BKN,BKN,M,M,2500.00,3200.00,M,M,M,M,M,M,M,M,M,M,K10U 072100Z AUTO 10SM BKN025 BKN032 01/M05 A3045 RMK AO2,M
INS,2025-01-07 21:02,-115.6733,36.5872,955.00,53.60,10.40,17.45,50.00,12.00,0.00,30.14,1019.10,10.00,25.00,CLR,M,M,M,M,M,M,M,M,M,M,M,M,M,M,53.60,KINS 072102Z AUTO 05012G25KT 10SM CLR 12/M12 A3014 RMK AO2 WSHFT 2047 SLP191,M
05U,2025-01-07 21:10,-116.0051,39.6042,1811.23,M,M,M,10.00,14.00,0.00,30.36,M,10.00,M,CLR,M,M,M,M,M,M,M,M,M,M,M,M,M,M,M,K05U 072110Z AUTO 01014KT 10SM CLR A3036 RMK A01,M
TMT,2025-01-07 21:10,-117.1971,39.4643,1749.34,32.00,23.00,69.04,20.00,12.00,0.00,30.38,M,10.00,M,BKN,BKN,M,M,3200.00,3800.00,M,M,M,M,M,M,M,M,M,22.00,KTMT 072110Z AUTO 02012KT 10SM BKN032 BKN038 00/M05 A3038 RMK AO2 T00001050,M
BVU,2025-01-07 21:15,-114.8611,35.9475,671.00,59.00,19.40,21.26,360.00,21.00,0.00,30.04,M,10.00,30.00,CLR,M,M,M,M,M,M,M,M,M,M,M,M,M,M,59.00,KBVU 072115Z AUTO 36021G30KT 10SM CLR 15/M07 A3004 RMK AO2,M
BAM,2025-01-07 21:15,-116.8743,40.5990,1382.36,37.40,28.40,69.67,60.00,7.00,0.00,30.44,M,10.00,M,OVC,M,M,M,3800.00,M,M,M,M,M,M,M,M,M,M,31.36,KBAM 072115Z AUTO 06007KT 10SM OVC038 03/M02 A3044 RMK AO1,M
CXP,2025-01-07 21:15,-119.7326,39.1923,1431.00,41.00,24.80,52.17,80.00,11.00,0.00,30.40,M,10.00,16.00,CLR,M,M,M,M,M,M,M,M,M,M,M,M,M,M,33.84,KCXP 072115Z AUTO 08011G16KT 10SM CLR 05/M04 A3040 RMK AO2,M
HTH,2025-01-07 21:15,-118.6315,38.5448,1282.89,41.00,23.00,48.39,350.00,15.00,0.00,30.41,M,10.00,M,OVC,M,M,M,5000.00,M,M,M,M,M,M,M,M,M,M,32.45,KHTH 072115Z AUTO 35015KT 10SM OVC050 05/M05 A3041 RMK A01,M
10U,2025-01-07 21:20,-116.1876,41.9532,1637.00,33.80,23.00,64.23,M,M,0.00,30.44,M,10.00,M,SCT,SCT,M,M,2700.00,3300.00,M,M,M,M,M,M,M,M,M,M,K10U 072120Z AUTO 10SM SCT027 SCT033 01/M05 A3044 RMK AO2,M
CXP,2025-01-07 21:30,-119.7326,39.1923,1431.00,41.00,24.80,52.17,70.00,8.00,0.00,30.40,M,10.00,17.00,CLR,M,M,M,M,M,M,M,M,M,M,M,M,M,M,35.20,KCXP 072130Z AUTO 07008G17KT 10SM CLR 05/M04 A3040 RMK AO2,M
05U,2025-01-07 21:30,-116.0051,39.6042,1811.23,M,M,M,360.00,11.00,0.00,30.36,M,10.00,M,CLR,M,M,M,M,M,M,M,M,M,M,M,M,M,M,M,K05U 072130Z AUTO 36011KT 10SM CLR A3036 RMK A01,M
TMT,2025-01-07 21:30,-117.1971,39.4643,1749.34,32.70,22.50,65.73,20.00,12.00,0.00,30.37,M,10.00,M,BKN,OVC,M,M,3200.00,3800.00,M,M,M,M,M,M,M,M,M,22.89,KTMT 072130Z AUTO 02012KT 10SM BKN032 OVC038 00/M05 A3037 RMK AO2 T00041053,M
BVU,2025-01-07 21:35,-114.8611,35.9475,671.00,59.00,19.40,21.26,10.00,22.00,0.00,30.04,M,10.00,29.00,CLR,M,M,M,M,M,M,M,M,M,M,M,M,M,M,59.00,KBVU 072135Z AUTO 01022G29KT 10SM CLR 15/M07 A3004 RMK AO2,M
BAM,2025-01-07 21:35,-116.8743,40.5990,1382.36,41.00,28.40,60.54,40.00,5.00,0.00,30.44,M,10.00,M,BKN,M,M,M,3800.00,M,M,M,M,M,M,M,M,M,M,37.08,KBAM 072135Z AUTO 04005KT 10SM BKN038 05/M02 A3044 RMK AO1,M
HTH,2025-01-07 21:35,-118.6315,38.5448,1282.89,41.00,23.00,48.39,340.00,12.00,0.00,30.40,M,10.00,18.00,BKN,M,M,M,5000.00,M,M,M,M,M,M,M,M,M,M,33.46,KHTH 072135Z AUTO 34012G18KT 10SM BKN050 05/M05 A3040 RMK A01,M
10U,2025-01-07 21:40,-116.1876,41.9532,1637.00,33.80,23.00,64.23,M,M,0.00,30.44,M,10.00,M,BKN,BKN,M,M,2700.00,3300.00,M,M,M,M,M,M,M,M,M,M,K10U 072140Z AUTO 10SM BKN027 BKN033 01/M05 A3044 RMK AO2,M
INS,2025-01-07 21:42,-115.6733,36.5872,955.00,53.60,8.60,16.10,360.00,20.00,0.00,30.13,1018.80,10.00,26.00,CLR,M,M,M,M,M,M,M,M,M,M,M,M,M,M,53.60,KINS 072142Z AUTO 36020G26KT 10SM CLR 12/M13 A3013 RMK AO2 WSHFT 31 SLP188,M
INS,2025-01-07 21:49,-115.6733,36.5872,955.00,53.60,8.60,16.10,50.00,18.00,0.00,30.13,1018.60,10.00,24.00,CLR,M,M,M,M,M,M,M,M,M,M,M,M,M,M,53.60,KINS 072149Z AUTO 05018G24KT 10SM CLR 12/M13 A3013 RMK AO2 WSHFT 42 SLP186,M
05U,2025-01-07 21:50,-116.0051,39.6042,1811.23,M,M,M,20.00,11.00,0.00,30.36,M,10.00,M,CLR,M,M,M,M,M,M,M,M,M,M,M,M,M,M,M,K05U 072150Z AUTO 02011KT 10SM CLR A3036 RMK A01,M
TMT,2025-01-07 21:50,-117.1971,39.4643,1749.34,32.40,21.60,64.05,30.00,11.00,0.00,30.37,M,10.00,M,BKN,OVC,M,M,3200.00,3800.00,M,M,M,M,M,M,M,M,M,22.97,KTMT 072150Z AUTO 03011KT 10SM BKN032 OVC038 00/M06 A3037 RMK AO2 T00021058,M
P68,2025-01-07 21:53,-116.0056,39.6014,1993.00,33.00,23.00,66.32,30.00,14.00,0.00,30.33,1028.10,M,M,M,M,M,M,M,M,M,M,M,M,M,M,M,M,M,22.45,KP68 072153Z AUTO 03014KT 01/M05 A3033 RMK AO1 SLP281 T00061050,M
DRA,2025-01-07 21:53,-116.0278,36.6206,1009.00,54.00,14.00,20.16,20.00,23.00,0.00,30.10,1017.50,10.00,31.00,CLR,M,M,M,M,M,M,M,M,M,M,M,31.00,10.00,2025-01-07 20:58,54.00,KDRA 072153Z AUTO 02023G31KT 10SM CLR 12/M10 A3010 RMK AO2 PK WND 01031/2058 SLP175 T01221100,M
ELY,2025-01-07 21:53,-114.8453,39.2950,1909.00,32.00,18.00,55.82,360.00,16.00,0.00,30.29,1026.80,10.00,27.00,SCT,M,M,M,4200.00,M,M,M,M,M,M,M,31.00,350.00,2025-01-07 21:40,20.42,KELY 072153Z AUTO 36016G27KT 10SM SCT042 00/M08 A3029 RMK AO2 PK WND 35031/2140 SLP268 T00001078,M
VGT,2025-01-07 21:53,-115.1933,36.2111,667.00,58.00,24.00,26.77,30.00,22.00,0.00,30.06,1019.40,10.00,33.00,CLR,M,M,M,M,M,M,M,M,M,M,M,34.00,40.00,2025-01-07 21:39,58.00,KVGT 072153Z 03022G33KT 10SM CLR 14/M04 A3006 RMK AO2 PK WND 04034/2139 SLP194 T01441044,M
LOL,2025-01-07 21:53,-118.5701,40.0684,1192.43,43.00,27.00,52.91,40.00,13.00,0.00,30.41,1031.00,10.00,M,CLR,M,M,M,M,M,M,M,M,M,M,M,M,M,M,35.66,KLOL 072153Z AUTO 04013KT 10SM CLR 06/M03 A3041 RMK AO2 SLP310 T00611028,M
BVU,2025-01-07 21:55,-114.8611,35.9475,671.00,59.00,17.60,19.68,360.00,20.00,0.00,30.03,M,10.00,26.00,CLR,M,M,M,M,M,M,M,M,M,M,M,M,M,M,59.00,KBVU 072155Z AUTO 36020G26KT 10SM CLR 15/M08 A3003 RMK AO2,M
RNO,2025-01-07 21:55,-119.7711,39.4839,1341.00,44.00,22.00,41.34,100.00,7.00,0.00,30.39,1029.20,10.00,14.00,FEW,M,M,M,4500.00,M,M,M,M,M,M,M,M,M,M,39.41,KRNO 072155Z 10007G14KT 10SM FEW045 07/M06 A3039 RMK AO2 SLP292 T00671056,M
CXP,2025-01-07 21:55,-119.7326,39.1923,1431.00,41.00,24.80,52.17,70.00,10.00,0.00,30.40,M,10.00,16.00,CLR,M,M,M,M,M,M,M,M,M,M,M,M,M,M,34.25,KCXP 072155Z AUTO 07010G16KT 10SM CLR 05/M04 A3040 RMK AO2,M
RTS,2025-01-07 21:55,-119.8764,39.6682,1539.00,39.20,23.00,51.89,60.00,10.00,0.00,30.40,M,10.00,M,CLR,M,M,M,M,M,M,M,M,M,M,M,M,M,M,32.00,KRTS 072155Z AUTO 06010KT 10SM CLR 04/M05 A3040 RMK AO2,M
MEV,2025-01-07 21:55,-119.7500,38.9963,1441.42,41.00,21.20,44.85,0.00,0.00,0.00,30.38,M,10.00,M,SCT,M,M,M,4400.00,M,M,M,M,M,M,M,M,M,M,41.00,KMEV 072155Z AUTO 00000KT 10SM SCT044 05/M06 A3038 RMK AO2,M
BAM,2025-01-07 21:55,-116.8743,40.5990,1382.36,39.20,26.60,60.29,40.00,7.00,0.00,30.44,M,10.00,M,SCT,M,M,M,3600.00,M,M,M,M,M,M,M,M,M,M,33.56,KBAM 072155Z AUTO 04007KT 10SM SCT036 04/M03 A3044 RMK AO1,M
HTH,2025-01-07 21:55,-118.6315,38.5448,1282.89,41.00,21.20,44.85,350.00,14.00,0.00,30.40,M,10.00,M,BKN,BKN,M,M,5000.00,5500.00,M,M,M,M,M,M,M,M,M,32.76,KHTH 072155Z AUTO 35014KT 10SM BKN050 BKN055 05/M06 A3040 RMK A01,M
INS,2025-01-07 21:55,-115.6733,36.5872,955.00,54.00,9.00,16.15,20.00,15.00,0.03,30.12,1018.20,10.00,21.00,CLR,M,M,M,M,M,M,M,M,M,M,M,27.00,340.00,2025-01-07 21:54,54.00,KINS 072155Z AUTO 02015G21KT 10SM CLR 12/M13 A3012 RMK AO2 PK WND 34027/54 SLP182 P0003 T01231128,M
LSV,2025-01-07 21:55,-115.0343,36.2362,570.00,60.00,13.60,15.96,30.00,25.00,0.00,30.03,1016.10,10.00,33.00,CLR,M,M,M,M,M,M,M,M,M,M,M,39.00,20.00,2025-01-07 20:55,60.00,KLSV 072155Z AUTO 03025G33KT 10SM CLR 16/M10 A3003 RMK AO2 PK WND 02039/2055 SLP161 T01551102 $,M
EKO,2025-01-07 21:56,-115.7860,40.8242,1367.00,38.00,20.00,47.90,60.00,15.00,0.00,30.39,1031.00,10.00,25.00,CLR,M,M,M,M,M,M,M,M,M,M,M,M,M,M,28.56,KEKO 072156Z AUTO 06015G25KT 10SM CLR 03/M07 A3039 RMK AO2 SLP310 T00331067,M
WMC,2025-01-07 21:56,-117.8072,40.9019,1315.00,40.00,24.00,52.45,40.00,16.00,0.00,30.44,1031.80,10.00,24.00,CLR,M,M,M,M,M,M,M,M,M,M,M,M,M,M,30.85,KWMC 072156Z AUTO 04016G24KT 10SM CLR 04/M04 A3044 RMK AO2 SLP318 T00441044,M
HND,2025-01-07 21:56,-115.1344,35.9729,742.79,57.00,18.00,21.51,30.00,23.00,0.00,30.07,1019.50,10.00,31.00,CLR,M,M,M,M,M,M,M,M,M,M,M,31.00,10.00,2025-01-07 21:52,57.00,KHND 072156Z 03023G31KT 10SM CLR 14/M08 A3007 RMK AO2 PK WND 01031/2152 SLP195 T01391078 $,M
TPH,2025-01-07 21:56,-117.0904,38.0505,1654.00,42.00,11.00,27.71,20.00,23.00,0.00,30.25,1024.30,10.00,32.00,CLR,M,M,M,M,M,M,M,M,M,M,M,35.00,20.00,2025-01-07 21:31,31.76,KTPH 072156Z AUTO 02023G32KT 10SM CLR 06/M12 A3025 RMK AO2 PK WND 02035/2131 SLP243 T00561117,M
LAS,2025-01-07 21:56,-115.1634,36.0719,663.00,58.00,17.00,19.88,10.00,23.00,0.00,30.07,1017.90,10.00,33.00,FEW,FEW,M,M,8000.00,12000.00,M,M,M,M,M,M,33.00,20.00,2025-01-07 21:49,58.00,KLAS 072156Z 01023G33KT 10SM FEW080 FEW120 14/M08 A3007 RMK AO2 PK WND 02033/2149 SLP179 T01441083,M
NFL,2025-01-07 21:57,-118.7010,39.4166,1199.00,45.00,25.00,45.12,30.00,11.00,0.00,30.40,1024.90,10.00,27.00,SCT,SCT,M,M,3500.00,5000.00,M,M,M,M,M,M,27.00,20.00,2025-01-07 21:54,38.89,KNFL 072157Z 03011G27KT 10SM SCT035 SCT050 07/M04 A3040 RMK AO2 PK WND 02027/2154 SLP249 T00721039 $,M
10U,2025-01-07 22:00,-116.1876,41.9532,1637.00,33.80,23.00,64.23,M,M,0.00,30.45,M,10.00,M,SCT,SCT,M,M,2600.00,3200.00,M,M,M,M,M,M,M,M,M,M,K10U 072200Z AUTO 10SM SCT026 SCT032 01/M05 A3045 RMK AO2,M
RTS,2025-01-07 22:05,-119.8764,39.6682,1539.00,39.20,24.80,55.95,60.00,10.00,0.00,30.40,M,10.00,M,CLR,M,M,M,M,M,M,M,M,M,M,M,M,M,M,32.00,KRTS 072205Z AUTO 06010KT 10SM CLR 04/M04 A3040 RMK AO2,M
INS,2025-01-07 22:10,-115.6733,36.5872,955.00,53.60,8.60,16.10,20.00,14.00,0.00,30.13,1018.60,10.00,19.00,CLR,M,M,M,M,M,M,M,M,M,M,M,M,M,M,53.60,KINS 072210Z AUTO 02014G19KT 10SM CLR 12/M13 A3013 RMK AO2 WSHFT 02 SLP186,M
05U,2025-01-07 22:10,-116.0051,39.6042,1811.23,M,M,M,360.00,15.00,0.00,30.36,M,10.00,20.00,FEW,SCT,M,M,3900.00,4900.00,M,M,M,M,M,M,M,M,M,M,K05U 072210Z AUTO 36015G20KT 10SM FEW039 SCT049 A3036 RMK A01,M
TMT,2025-01-07 22:10,-117.1971,39.4643,1749.34,32.00,21.70,65.36,20.00,11.00,0.00,30.38,M,10.00,16.00,SCT,SCT,BKN,M,3200.00,3800.00,4500.00,M,M,M,M,M,M,M,M,22.47,KTMT 072210Z AUTO 02011G16KT 10SM SCT032 SCT038 BKN045 00/M06 A3038 RMK AO2 T00011057,M
INS,2025-01-07 22:14,-115.6733,36.5872,955.00,53.60,8.60,16.10,60.00,15.00,0.00,30.13,1018.60,10.00,19.00,CLR,M,M,M,M,M,M,M,M,M,M,M,M,M,M,53.60,KINS 072214Z AUTO 06015G19KT 10SM CLR 12/M13 A3013 RMK AO2 WSHFT 11 SLP186,M
BVU,2025-01-07 22:15,-114.8611,35.9475,671.00,59.00,17.60,19.68,10.00,20.00,0.00,30.03,M,10.00,29.00,CLR,M,M,M,M,M,M,M,M,M,M,M,M,M,M,59.00,KBVU 072215Z AUTO 01020G29KT 10SM CLR 15/M08 A3003 RMK AO2,M
CXP,2025-01-07 22:15,-119.7326,39.1923,1431.00,41.00,23.00,48.39,70.00,12.00,0.00,30.39,M,10.00,18.00,CLR,M,M,M,M,M,M,M,M,M,M,M,M,M,M,33.46,KCXP 072215Z AUTO 07012G18KT 10SM CLR 05/M05 A3039 RMK AO2,M
MEV,2025-01-07 22:15,-119.7500,38.9963,1441.42,41.00,21.20,44.85,0.00,0.00,0.00,30.37,M,10.00,M,SCT,M,M,M,4500.00,M,M,M,M,M,M,M,M,M,M,41.00,KMEV 072215Z AUTO 00000KT 10SM SCT045 05/M06 A3037 RMK AO2,M
BAM,2025-01-07 22:15,-116.8743,40.5990,1382.36,41.00,26.60,56.22,50.00,4.00,0.00,30.44,M,10.00,M,CLR,M,M,M,M,M,M,M,M,M,M,M,M,M,M,37.93,KBAM 072215Z AUTO 05004KT 10SM CLR 05/M03 A3044 RMK AO1,M
HTH,2025-01-07 22:15,-118.6315,38.5448,1282.89,41.00,23.00,48.39,340.00,13.00,0.00,30.39,M,10.00,20.00,BKN,BKN,M,M,4600.00,5000.00,M,M,M,M,M,M,M,M,M,33.10,KHTH 072215Z AUTO 34013G20KT 10SM BKN046 BKN050 05/M05 A3039 RMK A01,M
10U,2025-01-07 22:15,-116.1876,41.9532,1637.00,33.80,21.20,59.53,M,M,0.00,30.45,M,10.00,M,SCT,SCT,M,M,2900.00,3400.00,M,M,M,M,M,M,M,M,M,M,K10U 072215Z AUTO 10SM SCT029 SCT034 01/M06 A3045 RMK AO2,M
05U,2025-01-07 22:30,-116.0051,39.6042,1811.23,M,M,M,10.00,12.00,0.00,30.36,M,10.00,M,FEW,M,M,M,4800.00,M,M,M,M,M,M,M,M,M,M,M,K05U 072230Z AUTO 01012KT 10SM FEW048 A3036 RMK A01,M
TMT,2025-01-07 22:30,-117.1971,39.4643,1749.34,32.00,22.30,67.04,20.00,16.00,0.00,30.38,M,10.00,M,SCT,BKN,M,M,3200.00,4000.00,M,M,M,M,M,M,M,M,M,20.42,KTMT 072230Z AUTO 02016KT 10SM SCT032 BKN040 00/M05 A3038 RMK AO2 T00011054,M
BVU,2025-01-07 22:35,-114.8611,35.9475,671.00,59.00,15.80,18.20,10.00,19.00,0.00,30.03,M,10.00,26.00,CLR,M,M,M,M,M,M,M,M,M,M,M,M,M,M,59.00,KBVU 072235Z AUTO 01019G26KT 10SM CLR 15/M09 A3003 RMK AO2,M
CXP,2025-01-07 22:35,-119.7326,39.1923,1431.00,41.00,23.00,48.39,70.00,13.00,0.00,30.40,M,10.00,M,CLR,M,M,M,M,M,M,M,M,M,M,M,M,M,M,33.10,KCXP 072235Z AUTO 07013KT 10SM CLR 05/M05 A3040 RMK AO2,M
MEV,2025-01-07 22:35,-119.7500,38.9963,1441.42,42.80,21.20,41.84,M,4.00,0.00,30.37,M,10.00,M,FEW,M,M,M,4600.00,M,M,M,M,M,M,M,M,M,M,40.03,KMEV 072235Z AUTO VRB04KT 10SM FEW046 06/M06 A3037 RMK AO2,M
BAM,2025-01-07 22:35,-116.8743,40.5990,1382.36,41.00,26.60,56.22,60.00,5.00,0.00,30.45,M,10.00,M,BKN,M,M,M,4000.00,M,M,M,M,M,M,M,M,M,M,37.08,KBAM 072235Z AUTO 06005KT 10SM BKN040 05/M03 A3045 RMK AO1,M
HTH,2025-01-07 22:35,-118.6315,38.5448,1282.89,41.00,23.00,48.39,320.00,14.00,0.00,30.39,M,10.00,19.00,BKN,BKN,M,M,4600.00,5000.00,M,M,M,M,M,M,M,M,M,32.76,KHTH 072235Z AUTO 32014G19KT 10SM BKN046 BKN050 05/M05 A3039 RMK A01,M
10U,2025-01-07 22:40,-116.1876,41.9532,1637.00,33.80,23.00,64.23,M,M,0.00,30.46,M,10.00,M,FEW,M,M,M,3300.00,M,M,M,M,M,M,M,M,M,M,M,K10U 072240Z AUTO 10SM FEW033 01/M05 A3046 RMK AO2,M
MEV,2025-01-07 22:45,-119.7500,38.9963,1441.42,42.80,21.20,41.84,100.00,3.00,0.00,30.37,M,10.00,M,CLR,M,M,M,M,M,M,M,M,M,M,M,M,M,M,41.03,KMEV 072245Z AUTO 10003KT 10SM CLR 06/M06 A3037 RMK AO2,M
05U,2025-01-07 22:50,-116.0051,39.6042,1811.23,M,M,M,360.00,8.00,0.00,30.36,M,10.00,15.00,FEW,M,M,M,4300.00,M,M,M,M,M,M,M,M,M,M,M,K05U 072250Z AUTO 36008G15KT 10SM FEW043 A3036 RMK A01,M
TMT,2025-01-07 22:50,-117.1971,39.4643,1749.34,33.00,23.00,66.32,20.00,15.00,0.00,30.38,M,10.00,M,SCT,BKN,M,M,3100.00,4000.00,M,M,M,M,M,M,M,M,M,22.08,KTMT 072250Z AUTO 02015KT 10SM SCT031 BKN040 01/M05 A3038 RMK AO2 T00061051,M
P68,2025-01-07 22:53,-116.0056,39.6014,1993.00,33.00,22.00,63.59,360.00,12.00,0.00,30.33,1028.80,M,M,M,M,M,M,M,M,M,M,M,M,M,M,M,M,M,23.27,KP68 072253Z AUTO 36012KT 01/M06 A3033 RMK AO1 SLP288 T00061056,M
DRA,2025-01-07 22:53,-116.0278,36.6206,1009.00,53.00,12.00,19.15,20.00,24.00,0.00,30.10,1017.80,10.00,34.00,CLR,M,M,M,M,M,M,M,M,M,M,M,36.00,30.00,2025-01-07 21:57,53.00,KDRA 072253Z AUTO 02024G34KT 10SM CLR 12/M11 A3010 RMK AO2 PK WND 03036/2157 SLP178 T01171111,M
ELY,2025-01-07 22:53,-114.8453,39.2950,1909.00,31.00,18.00,58.12,360.00,19.00,0.00,30.31,1028.00,10.00,28.00,CLR,M,M,M,M,M,M,M,M,M,M,M,30.00,20.00,2025-01-07 22:16,18.11,KELY 072253Z AUTO 36019G28KT 10SM CLR M01/M08 A3031 RMK AO2 PK WND 02030/2216 SLP280 T10061078,M
VGT,2025-01-07 22:53,-115.1933,36.2111,667.00,58.00,23.00,25.67,10.00,14.00,0.00,30.07,1019.80,10.00,26.00,CLR,M,M,M,M,M,M,M,M,M,M,M,31.00,30.00,2025-01-07 21:56,58.00,KVGT 072253Z 01014G26KT 10SM CLR 14/M05 A3007 RMK AO2 PK WND 03031/2156 SLP198 T01441050,M
LOL,2025-01-07 22:53,-118.5701,40.0684,1192.43,42.00,26.00,52.76,40.00,15.00,0.00,30.42,1031.60,10.00,M,CLR,M,M,M,M,M,M,M,M,M,M,M,M,M,M,33.74,KLOL 072253Z AUTO 04015KT 10SM CLR 06/M03 A3042 RMK AO2 SLP316 T00561033,M
BVU,2025-01-07 22:55,-114.8611,35.9475,671.00,59.00,15.80,18.20,360.00,24.00,0.00,30.03,M,10.00,M,CLR,M,M,M,M,M,M,M,M,M,M,M,M,M,M,59.00,KBVU 072255Z AUTO 36024KT 10SM CLR 15/M09 A3003 RMK AO2,M
RNO,2025-01-07 22:55,-119.7711,39.4839,1341.00,43.00,24.00,46.71,90.00,12.00,0.00,30.40,1029.80,10.00,M,FEW,M,M,M,6000.00,M,M,M,M,M,M,M,M,M,M,36.00,KRNO 072255Z 09012KT 10SM FEW060 06/M04 A3040 RMK AO2 SLP298 T00611044,M
LSV,2025-01-07 22:55,-115.0343,36.2362,570.00,60.00,13.60,15.96,30.00,22.00,0.00,30.05,1016.80,10.00,28.00,CLR,M,M,M,M,M,M,M,M,M,M,M,32.00,40.00,2025-01-07 22:40,60.00,KLSV 072255Z AUTO 03022G28KT 10SM CLR 16/M10 A3005 RMK AO2 PK WND 04032/40 SLP168 T01551102 $,M
BAM,2025-01-07 22:55,-116.8743,40.5990,1382.36,41.00,26.60,56.22,40.00,6.00,0.00,30.45,M,10.00,M,BKN,M,M,M,4600.00,M,M,M,M,M,M,M,M,M,M,36.37,KBAM 072255Z AUTO 04006KT 10SM BKN046 05/M03 A3045 RMK AO1,M
CXP,2025-01-07 22:55,-119.7326,39.1923,1431.00,41.00,24.80,52.17,60.00,11.00,0.00,30.40,M,10.00,M,CLR,M,M,M,M,M,M,M,M,M,M,M,M,M,M,33.84,KCXP 072255Z AUTO 06011KT 10SM CLR 05/M04 A3040 RMK AO2,M
HTH,2025-01-07 22:55,-118.6315,38.5448,1282.89,39.20,23.00,51.89,330.00,15.00,0.00,30.39,M,10.00,20.00,SCT,BKN,M,M,4500.00,5000.00,M,M,M,M,M,M,M,M,M,30.11,KHTH 072255Z AUTO 33015G20KT 10SM SCT045 BKN050 04/M05 A3039 RMK A01,M
INS,2025-01-07 22:55,-115.6733,36.5872,955.00,54.00,7.50,15.10,40.00,16.00,0.00,30.13,1018.60,10.00,21.00,FEW,M,M,M,9000.00,M,M,M,M,M,M,M,M,M,M,54.00,KINS 072255Z AUTO 04016G21KT 10SM FEW090 12/M14 A3013 RMK AO2 SLP186 T01231136,M
EKO,2025-01-07 22:56,-115.7860,40.8242,1367.00,38.00,19.00,45.90,30.00,15.00,0.00,30.41,1031.50,10.00,M,CLR,M,M,M,M,M,M,M,M,M,M,M,M,M,M,28.56,KEKO 072256Z AUTO 03015KT 10SM CLR 03/M07 A3041 RMK AO2 SLP315 T00331072,M
WMC,2025-01-07 22:56,-117.8072,40.9019,1315.00,39.00,24.00,54.54,20.00,14.00,0.00,30.45,1032.30,10.00,M,CLR,M,M,M,M,M,M,M,M,M,M,M,M,M,M,30.19,KWMC 072256Z AUTO 02014KT 10SM CLR 04/M04 A3045 RMK AO2 SLP323 T00391044,M
HND,2025-01-07 22:56,-115.1344,35.9729,742.79,57.00,17.00,20.60,20.00,20.00,0.00,30.07,1019.70,10.00,28.00,CLR,M,M,M,M,M,M,M,M,M,M,M,31.00,360.00,2025-01-07 22:39,57.00,KHND 072256Z 02020G28KT 10SM CLR 14/M08 A3007 RMK AO2 PK WND 36031/2239 SLP197 T01391083 $,M
TPH,2025-01-07 22:56,-117.0904,38.0505,1654.00,41.00,13.00,31.47,10.00,20.00,0.00,30.27,1024.90,10.00,28.00,CLR,M,M,M,M,M,M,M,M,M,M,M,35.00,360.00,2025-01-07 22:25,31.09,KTPH 072256Z AUTO 01020G28KT 10SM CLR 05/M11 A3027 RMK AO2 PK WND 36035/2225 SLP249 T00501106 $,M
LAS,2025-01-07 22:56,-115.1634,36.0719,663.00,58.00,16.00,19.03,20.00,24.00,0.00,30.07,1017.80,10.00,34.00,FEW,FEW,M,M,8000.00,12000.00,M,M,M,M,M,M,39.00,20.00,2025-01-07 22:33,58.00,KLAS 072256Z 02024G34KT 10SM FEW080 FEW120 14/M09 A3007 RMK AO2 PK WND 02039/2233 SLP178 T01441089,M
NFL,2025-01-07 22:57,-118.7010,39.4166,1199.00,45.00,25.00,45.12,30.00,12.00,0.00,30.40,1025.10,10.00,M,SCT,SCT,M,M,4500.00,18000.00,M,M,M,M,M,M,M,M,M,38.55,KNFL 072257Z 03012KT 10SM SCT045 SCT180 07/M04 A3040 RMK AO2 SLP251 T00721039 $,M
10U,2025-01-07 23:00,-116.1876,41.9532,1637.00,32.00,21.20,63.99,M,M,0.00,30.45,M,10.00,M,CLR,M,M,M,M,M,M,M,M,M,M,M,M,M,M,M,K10U 072300Z AUTO 10SM CLR M00/M06 A3045 RMK AO2,M
05U,2025-01-07 23:10,-116.0051,39.6042,1811.23,M,M,M,360.00,9.00,0.00,30.37,M,10.00,14.00,FEW,M,M,M,4200.00,M,M,M,M,M,M,M,M,M,M,M,K05U 072310Z AUTO 36009G14KT 10SM FEW042 A3037 RMK A01,M
TMT,2025-01-07 23:10,-117.1971,39.4643,1749.34,32.00,22.30,67.04,20.00,15.00,0.00,30.38,M,10.00,M,SCT,SCT,M,M,3700.00,4300.00,M,M,M,M,M,M,M,M,M,20.78,KTMT 072310Z AUTO 02015KT 10SM SCT037 SCT043 00/M05 A3038 RMK AO2 T00001054,M
INS,2025-01-07 23:11,-115.6733,36.5872,955.00,53.60,6.80,14.84,60.00,13.00,0.00,30.13,1018.60,10.00,22.00,BKN,M,M,M,9000.00,M,M,M,M,M,M,M,M,M,M,53.60,KINS 072311Z AUTO 06013G22KT 10SM BKN090 12/M14 A3013 RMK AO2 WSHFT 05 SLP186,M
BVU,2025-01-07 23:15,-114.8611,35.9475,671.00,59.00,17.60,19.68,20.00,23.00,0.00,30.03,M,10.00,29.00,CLR,M,M,M,M,M,M,M,M,M,M,M,M,M,M,59.00,KBVU 072315Z AUTO 02023G29KT 10SM CLR 15/M08 A3003 RMK AO2,M
CXP,2025-01-07 23:15,-119.7326,39.1923,1431.00,41.00,23.00,48.39,60.00,11.00,0.00,30.41,M,10.00,M,CLR,M,M,M,M,M,M,M,M,M,M,M,M,M,M,33.84,KCXP 072315Z AUTO 06011KT 10SM CLR 05/M05 A3041 RMK AO2,M
BAM,2025-01-07 23:15,-116.8743,40.5990,1382.36,41.00,26.60,56.22,20.00,6.00,0.00,30.45,M,10.00,M,OVC,M,M,M,4600.00,M,M,M,M,M,M,M,M,M,M,36.37,KBAM 072315Z AUTO 02006KT 10SM OVC046 05/M03 A3045 RMK AO1,M
HTH,2025-01-07 23:15,-118.6315,38.5448,1282.89,41.00,23.00,48.39,340.00,16.00,0.00,30.39,M,10.00,M,FEW,SCT,M,M,4700.00,6000.00,M,M,M,M,M,M,M,M,M,32.15,KHTH 072315Z AUTO 34016KT 10SM FEW047 SCT060 05/M05 A3039 RMK A01,M
10U,2025-01-07 23:20,-116.1876,41.9532,1637.00,32.00,21.20,63.99,M,M,0.00,30.46,M,10.00,M,CLR,M,M,M,M,M,M,M,M,M,M,M,M,M,M,M,K10U 072320Z AUTO 10SM CLR 00/M06 A3046 RMK AO2,M
05U,2025-01-07 23:30,-116.0051,39.6042,1811.23,M,M,M,360.00,9.00,0.00,30.37,M,10.00,M,CLR,M,M,M,M,M,M,M,M,M,M,M,M,M,M,M,K05U 072330Z AUTO 36009KT 10SM CLR A3037 RMK A01,M
TMT,2025-01-07 23:30,-117.1971,39.4643,1749.34,32.50,22.00,64.88,40.00,11.00,0.00,30.39,M,10.00,16.00,SCT,BKN,M,M,3000.00,3800.00,M,M,M,M,M,M,M,M,M,23.10,KTMT 072330Z AUTO 04011G16KT 10SM SCT030 BKN038 00/M05 A3039 RMK AO2 T00031055,M
BVU,2025-01-07 23:35,-114.8611,35.9475,671.00,57.20,17.60,20.99,30.00,17.00,0.00,30.04,M,10.00,29.00,CLR,M,M,M,M,M,M,M,M,M,M,M,M,M,M,57.20,KBVU 072335Z AUTO 03017G29KT 10SM CLR 14/M08 A3004 RMK AO2,M
BAM,2025-01-07 23:35,-116.8743,40.5990,1382.36,41.00,26.60,56.22,360.00,5.00,0.00,30.45,M,10.00,M,SCT,BKN,M,M,4100.00,5000.00,M,M,M,M,M,M,M,M,M,37.08,KBAM 072335Z AUTO 36005KT 10SM SCT041 BKN050 05/M03 A3045 RMK AO1,M
CXP,2025-01-07 23:35,-119.7326,39.1923,1431.00,41.00,23.00,48.39,70.00,10.00,0.00,30.41,M,10.00,16.00,CLR,M,M,M,M,M,M,M,M,M,M,M,M,M,M,34.25,KCXP 072335Z AUTO 07010G16KT 10SM CLR 05/M05 A3041 RMK AO2,M
RTS,2025-01-07 23:35,-119.8764,39.6682,1539.00,39.20,21.20,48.10,40.00,11.00,0.00,30.43,M,10.00,M,CLR,M,M,M,M,M,M,M,M,M,M,M,M,M,M,31.57,KRTS 072335Z AUTO 04011KT 10SM CLR 04/M06 A3043 RMK AO2,M
MEV,2025-01-07 23:35,-119.7500,38.9963,1441.42,39.20,23.00,51.89,360.00,12.00,0.00,30.39,M,10.00,M,CLR,M,M,M,M,M,M,M,M,M,M,M,M,M,M,31.17,KMEV 072335Z AUTO 36012KT 10SM CLR 04/M05 A3039 RMK AO2,M
HTH,2025-01-07 23:35,-118.6315,38.5448,1282.89,41.00,23.00,48.39,340.00,15.00,0.00,30.40,M,10.00,M,SCT,BKN,M,M,5000.00,6000.00,M,M,M,M,M,M,M,M,M,32.45,KHTH 072335Z AUTO 34015KT 10SM SCT050 BKN060 05/M05 A3040 RMK A01,M
10U,2025-01-07 23:40,-116.1876,41.9532,1637.00,32.00,19.40,59.27,M,M,0.00,30.46,M,10.00,M,CLR,M,M,M,M,M,M,M,M,M,M,M,M,M,M,M,K10U 072340Z AUTO 10SM CLR M00/M07 A3046 RMK AO2,M
RTS,2025-01-07 23:45,-119.8764,39.6682,1539.00,37.40,21.20,51.61,50.00,10.00,0.00,30.43,M,10.00,M,CLR,M,M,M,M,M,M,M,M,M,M,M,M,M,M,29.74,KRTS 072345Z AUTO 05010KT 10SM CLR 03/M06 A3043 RMK AO2,M
05U,2025-01-07 23:50,-116.0051,39.6042,1811.23,M,M,M,360.00,9.00,0.00,30.38,M,10.00,M,CLR,M,M,M,M,M,M,M,M,M,M,M,M,M,M,M,K05U 072350Z AUTO 36009KT 10SM CLR A3038 RMK A01,M
TMT,2025-01-07 23:50,-117.1971,39.4643,1749.34,32.00,20.00,60.81,40.00,8.00,0.00,30.40,M,10.00,M,SCT,OVC,M,M,3100.00,3900.00,M,M,M,M,M,M,M,M,M,24.11,KTMT 072350Z AUTO 04008KT 10SM SCT031 OVC039 00/M07 A3040 RMK AO2 T00001066,M
P68,2025-01-07 23:53,-116.0056,39.6014,1993.00,30.00,20.00,65.94,360.00,10.00,0.00,30.36,1030.90,M,M,M,M,M,M,M,M,M,M,M,M,M,M,M,M,M,20.46,KP68 072353Z AUTO 36010KT M01/M07 A3036 RMK AO1 SLP309 T10111067 10006 21044 53005,M
DRA,2025-01-07 23:53,-116.0278,36.6206,1009.00,52.00,14.00,21.70,30.00,25.00,0.00,30.11,1018.20,10.00,38.00,CLR,M,M,M,M,M,M,M,M,M,M,M,39.00,30.00,2025-01-07 23:25,52.00,KDRA 072353Z AUTO 03025G38KT 10SM CLR 11/M10 A3011 RMK AO2 PK WND 03039/2325 SLP182 T01111100 10122 20094 55002,M
ELY,2025-01-07 23:53,-114.8453,39.2950,1909.00,30.00,15.00,53.15,360.00,19.00,0.00,30.31,1028.70,10.00,27.00,CLR,M,M,M,M,M,M,M,M,M,M,M,29.00,340.00,2025-01-07 23:11,16.79,KELY 072353Z AUTO 36019G27KT 10SM CLR M01/M09 A3031 RMK AO2 PK WND 34029/2311 SLP287 T10111094 10000 21028 51007,M
VGT,2025-01-07 23:53,-115.1933,36.2111,667.00,56.00,22.00,26.45,20.00,15.00,0.00,30.08,1020.00,10.00,23.00,FEW,M,M,M,9500.00,M,M,M,M,M,M,M,32.00,40.00,2025-01-07 23:14,56.00,KVGT 072353Z 02015G23KT 10SM FEW095 13/M06 A3008 RMK AO2 PK WND 04032/2314 SLP200 T01331056 10156 20128 53003,M
LOL,2025-01-07 23:53,-118.5701,40.0684,1192.43,41.00,27.00,57.15,30.00,13.00,0.00,30.43,1032.00,10.00,M,CLR,M,M,M,M,M,M,M,M,M,M,M,M,M,M,33.10,KLOL 072353Z AUTO 03013KT 10SM CLR 05/M03 A3043 RMK AO2 SLP320 T00501028 10067 20028 53006,M
BVU,2025-01-07 23:55,-114.8611,35.9475,671.00,57.20,17.60,20.99,20.00,14.00,0.00,30.05,M,10.00,22.00,CLR,M,M,M,M,M,M,M,M,M,M,M,M,M,M,57.20,KBVU 072355Z AUTO 02014G22KT 10SM CLR 14/M08 A3005 RMK AO2,M
RNO,2025-01-07 23:55,-119.7711,39.4839,1341.00,41.00,23.00,48.39,70.00,5.00,0.00,30.42,1030.70,10.00,M,SCT,M,M,M,4500.00,M,M,M,M,M,M,M,M,M,M,37.08,KRNO 072355Z 07005KT 10SM SCT045 05/M05 A3042 RMK AO2 SLP307 T00501050 10067 20028 53006,M
CXP,2025-01-07 23:55,-119.7326,39.1923,1431.00,41.00,23.00,48.39,60.00,11.00,0.00,30.42,M,10.00,16.00,FEW,FEW,M,M,4300.00,5000.00,M,M,M,M,M,M,M,M,M,33.84,KCXP 072355Z AUTO 06011G16KT 10SM FEW043 FEW050 05/M05 A3042 RMK AO2,M
MEV,2025-01-07 23:55,-119.7500,38.9963,1441.42,39.20,23.00,51.89,360.00,15.00,0.00,30.40,M,10.00,M,SCT,BKN,M,M,5000.00,6000.00,M,M,M,M,M,M,M,M,M,30.11,KMEV 072355Z AUTO 36015KT 10SM SCT050 BKN060 04/M05 A3040 RMK AO2,M
BAM,2025-01-07 23:55,-116.8743,40.5990,1382.36,41.00,26.60,56.22,350.00,8.00,0.00,30.45,M,10.00,M,SCT,SCT,SCT,M,4000.00,4600.00,5000.00,M,M,M,M,M,M,M,M,35.20,KBAM 072355Z AUTO 35008KT 10SM SCT040 SCT046 SCT050 05/M03 A3045 RMK AO1,M
HTH,2025-01-07 23:55,-118.6315,38.5448,1282.89,41.00,23.00,48.39,330.00,17.00,0.00,30.40,M,10.00,M,BKN,BKN,M,M,5000.00,5500.00,M,M,M,M,M,M,M,M,M,31.87,KHTH 072355Z AUTO 33017KT 10SM BKN050 BKN055 05/M05 A3040 RMK A01,M
INS,2025-01-07 23:55,-115.6733,36.5872,955.00,52.00,7.00,15.88,30.00,19.00,0.00,30.14,1019.10,10.00,27.00,OVC,M,M,M,9000.00,M,M,M,M,M,M,M,27.00,30.00,2025-01-07 23:52,52.00,KINS 072355Z AUTO 03019G27KT 10SM OVC090 11/M14 A3014 RMK AO2 PK WND 03027/52 SLP191 T01111138 10125 20100 55000,M
LSV,2025-01-07 23:55,-115.0343,36.2362,570.00,59.00,12.70,15.89,20.00,18.00,0.00,30.05,1016.90,10.00,M,CLR,M,M,M,M,M,M,M,M,M,M,M,28.00,30.00,2025-01-07 23:03,59.00,KLSV 072355Z AUTO 02018KT 10SM CLR 15/M11 A3005 RMK AO2 PK WND 03028/03 SLP169 T01491107 10157 20138 52006 $,M
EKO,2025-01-07 23:56,-115.7860,40.8242,1367.00,37.00,18.00,45.73,40.00,12.00,0.00,30.41,1032.10,10.00,M,CLR,M,M,M,M,M,M,M,M,M,M,M,M,M,M,28.37,KEKO 072356Z AUTO 04012KT 10SM CLR 03/M08 A3041 RMK AO2 SLP321 T00281078 10039 20006 51006,M
WMC,2025-01-07 23:56,-117.8072,40.9019,1315.00,37.00,23.00,56.57,30.00,13.00,0.00,30.45,1033.10,10.00,M,CLR,M,M,M,M,M,M,M,M,M,M,M,M,M,M,27.97,KWMC 072356Z AUTO 03013KT 10SM CLR 03/M05 A3045 RMK AO2 SLP331 T00281050 10044 20011 53003,M
HND,2025-01-07 23:56,-115.1344,35.9729,742.79,55.00,16.00,21.21,10.00,20.00,0.00,30.08,1020.10,10.00,29.00,CLR,M,M,M,M,M,M,M,M,M,M,M,30.00,10.00,2025-01-07 23:33,55.00,KHND 072356Z 01020G29KT 10SM CLR 13/M09 A3008 RMK AO2 PK WND 01030/2333 SLP201 T01281089 10139 20117 53000 $,M
TPH,2025-01-07 23:56,-117.0904,38.0505,1654.00,38.00,11.00,32.37,10.00,24.00,0.00,30.29,1026.40,10.00,32.00,CLR,M,M,M,M,M,M,M,M,M,M,M,36.00,20.00,2025-01-07 23:26,26.15,KTPH 072356Z AUTO 01024G32KT 10SM CLR 03/M12 A3029 RMK AO2 PK WND 02036/2326 SLP264 T00331117 10061 20028 53008 $,M
LAS,2025-01-07 23:56,-115.1634,36.0719,663.00,57.00,15.00,18.89,20.00,23.00,0.00,30.08,1018.10,10.00,34.00,FEW,FEW,M,M,12000.00,18000.00,M,M,M,M,M,M,35.00,20.00,2025-01-07 23:11,57.00,KLAS 072356Z 02023G34KT 10SM FEW120 FEW180 14/M09 A3008 RMK AO2 PK WND 02035/2311 SLP181 T01391094 10150 20128 55002,M
NFL,2025-01-07 23:57,-118.7010,39.4166,1199.00,44.00,25.00,46.88,20.00,8.00,0.00,30.42,1025.70,10.00,M,SCT,BKN,M,M,4500.00,18000.00,M,M,M,M,M,M,M,M,M,38.90,KNFL 072357Z 02008KT 10SM SCT045 BKN180 07/M04 A3042 RMK SLP257 T00671039 10072 20039 53004,M
