station,valid,lon,lat,elevation,tmpf,dwpf,relh,drct,sknt,p01i,alti,mslp,vsby,gust,skyc1,skyc2,skyc3,skyc4,skyl1,skyl2,skyl3,skyl4,wxcodes,ice_accretion_1hr,ice_accretion_3hr,ice_accretion_6hr,peak_wind_gust,peak_wind_drct,peak_wind_time,feel,metar,snowdepth
05U,2023-08-16 00:10,-116.0051,39.6042,1811.23,82.40,41.00,23.07,M,M,0.00,30.33,M,10.00,M,M,M,M,M,M,M,M,M,M,M,M,M,M,M,M,80.29,K05U 160010Z AUTO 10SM 28/05 A3033 RMK A01,M
BVU,2023-08-16 00:15,-114.8611,35.9475,671.00,102.20,50.00,17.51,30.00,12.00,0.00,29.93,M,10.00,M,CLR,M,M,M,M,M,M,M,M,M,M,M,M,M,M,99.28,KBVU 160015Z AUTO 03012KT 10SM CLR 39/10 A2993 RMK AO2,M
CXP,2023-08-16 00:15,-119.7326,39.1923,1431.00,84.20,44.60,24.99,260.00,9.00,0.00,30.25,M,10.00,M,CLR,M,M,M,M,M,M,M,M,M,M,M,M,M,M,81.73,KCXP 160015Z AUTO 26009KT 10SM CLR 29/07 A3025 RMK AO2,M
RTS,2023-08-16 00:15,-119.8764,39.6682,1539.00,84.20,39.20,20.29,220.00,18.00,0.00,30.25,M,10.00,25.00,CLR,M,M,M,M,M,M,M,M,M,M,M,M,M,M,81.44,KRTS 160015Z AUTO 22018G25KT 10SM CLR 29/04 A3025 RMK AO2,M
MEV,2023-08-16 00:15,-119.7500,38.9963,1441.42,78.80,44.60,29.79,260.00,10.00,0.00,30.25,M,10.00,16.00,CLR,M,M,M,M,M,M,M,M,M,M,M,M,M,M,78.80,KMEV 160015Z AUTO 26010G16KT 10SM CLR 26/07 A3025 RMK AO2,M
HTH,2023-08-16 00:15,-118.6315,38.5448,1282.89,89.60,42.80,19.64,260.00,17.00,0.00,30.18,M,10.00,M,CLR,M,M,M,M,M,M,M,M,M,M,M,M,M,M,85.93,KHTH 160015Z AUTO 26017KT 10SM CLR 32/06 A3018 RMK A01,M
10U,2023-08-16 00:15,-116.1876,41.9532,1637.00,86.00,39.20,19.15,220.00,13.00,0.00,30.26,M,10.00,M,SCT,M,M,M,11000.00,M,M,M,M,M,M,M,M,M,M,82.79,K10U 160015Z AUTO 22013KT 10SM SCT110 30/04 A3026 RMK AO2,M
BAM,2023-08-16 00:15,-116.8743,40.5990,1382.36,95.00,41.00,15.49,230.00,9.00,0.00,30.19,M,10.00,M,CLR,M,M,M,M,M,M,M,M,M,M,M,M,M,M,90.70,KBAM 160015Z AUTO 23009KT 10SM CLR 35/05 A3019 RMK AO1,M
TMT,2023-08-16 00:15,-117.1971,39.4643,1749.34,85.00,44.00,23.80,90.00,5.00,0.00,30.29,M,M,14.00,CLR,M,M,M,M,M,M,M,M,M,M,M,M,M,M,82.27,KTMT 160015Z AUTO 09005G14KT CLR 30/07 A3029 RMK AO2 T02950066 PWINO,M
BVU,2023-08-16 00:35,-114.8611,35.9475,671.00,102.20,50.00,17.51,40.00,12.00,0.00,29.93,M,10.00,M,CLR,M,M,M,M,M,M,M,M,M,M,M,M,M,M,99.28,KBVU 160035Z AUTO 04012KT 10SM CLR 39/10 A2993 RMK AO2,M
CXP,2023-08-16 00:35,-119.7326,39.1923,1431.00,82.40,42.80,24.72,M,4.00,0.00,30.25,M,10.00,11.00,CLR,M,M,M,M,M,M,M,M,M,M,M,M,M,M,80.39,KCXP 160035Z AUTO VRB04G11KT 10SM CLR 28/06 A3025 RMK AO2,M
RTS,2023-08-16 00:35,-119.8764,39.6682,1539.00,82.40,41.00,23.07,220.00,19.00,0.00,30.26,M,10.00,24.00,CLR,M,M,M,M,M,M,M,M,M,M,M,M,M,M,80.29,KRTS 160035Z AUTO 22019G24KT 10SM CLR 28/05 A3026 RMK AO2,M
05U,2023-08-16 00:35,-116.0051,39.6042,1811.23,80.60,42.80,26.22,M,M,0.00,30.33,M,10.00,M,M,M,M,M,M,M,M,M,M,M,M,M,M,M,M,79.30,K05U 160035Z AUTO 10SM 27/06 A3033 RMK A01,M
MEV,2023-08-16 00:35,-119.7500,38.9963,1441.42,78.80,42.80,27.81,0.00,0.00,0.00,30.26,M,10.00,10.00,CLR,M,M,M,M,M,M,M,M,M,M,M,M,M,M,78.80,KMEV 160035Z AUTO 00000G10KT 10SM CLR 26/06 A3026 RMK AO2,M
BAM,2023-08-16 00:35,-116.8743,40.5990,1382.36,91.40,41.00,17.32,220.00,7.00,0.00,30.19,M,10.00,M,CLR,M,M,M,M,M,M,M,M,M,M,M,M,M,M,87.40,KBAM 160035Z AUTO 22007KT 10SM CLR 33/05 A3019 RMK AO1,M
HTH,2023-08-16 00:35,-118.6315,38.5448,1282.89,89.60,41.00,18.33,240.00,14.00,0.00,30.18,M,10.00,M,CLR,M,M,M,M,M,M,M,M,M,M,M,M,M,M,85.82,KHTH 160035Z AUTO 24014KT 10SM CLR 32/05 A3018 RMK A01,M
10U,2023-08-16 00:35,-116.1876,41.9532,1637.00,86.00,39.20,19.15,220.00,10.00,0.00,30.25,M,10.00,M,CLR,M,M,M,M,M,M,M,M,M,M,M,M,M,M,82.79,K10U 160035Z AUTO 22010KT 10SM CLR 30/04 A3025 RMK AO2,M
TMT,2023-08-16 00:35,-117.1971,39.4643,1749.34,83.70,44.00,24.82,330.00,5.00,0.00,30.28,M,M,M,CLR,M,M,M,M,M,M,M,M,M,M,M,M,M,M,81.33,KTMT 160035Z AUTO 33005KT CLR 29/07 A3028 RMK AO2 T02870066 PWINO,M
05U,2023-08-16 00:50,-116.0051,39.6042,1811.23,80.60,41.00,24.46,M,M,0.00,30.33,M,10.00,M,M,M,M,M,M,M,M,M,M,M,M,M,M,M,M,79.20,K05U 160050Z AUTO 10SM 27/05 A3033 RMK A01,M
P68,2023-08-16 00:53,-116.0056,39.6014,1993.00,80.00,42.00,25.93,240.00,9.00,0.00,30.30,1018.50,M,M,M,M,M,M,M,M,M,M,M,M,M,M,M,M,M,78.92,KP68 160053Z AUTO 24009KT 27/06 A3030 RMK AO1 SLP185 T02670056,M
ELY,2023-08-16 00:53,-114.8453,39.2950,1909.00,77.00,50.00,38.74,320.00,9.00,0.00,30.32,1017.60,10.00,M,CLR,M,M,M,M,M,M,M,M,M,M,M,M,M,M,77.00,KELY 160053Z AUTO 32009KT 10SM CLR 25/10 A3032 RMK AO2 SLP176 T02500100 $,M
VGT,2023-08-16 00:53,-115.1933,36.2111,667.00,103.00,53.00,19.10,90.00,10.00,0.00,29.93,1011.90,10.00,M,CLR,M,M,M,M,M,M,M,M,M,M,M,M,M,M,101.03,KVGT 160053Z 09010KT 10SM CLR 39/12 A2993 RMK AO2 SLP119 T03940117,M
LOL,2023-08-16 00:53,-118.5701,40.0684,1192.43,93.00,38.00,14.66,240.00,7.00,0.00,30.11,1015.70,10.00,M,CLR,M,M,M,M,M,M,M,M,M,M,M,M,M,M,88.68,KLOL 160053Z AUTO 24007KT 10SM CLR 34/03 A3011 RMK AO2 SLP157 T03390033,M
BVU,2023-08-16 00:55,-114.8611,35.9475,671.00,102.20,50.00,17.51,40.00,13.00,0.00,29.92,M,10.00,M,CLR,M,M,M,M,M,M,M,M,M,M,M,M,M,M,99.28,KBVU 160055Z AUTO 04013KT 10SM CLR 39/10 A2992 RMK AO2 LTG DSNT NE AND E,M
CXP,2023-08-16 00:55,-119.7326,39.1923,1431.00,80.60,44.60,28.08,190.00,3.00,0.00,30.25,M,10.00,M,CLR,M,M,M,M,M,M,M,M,M,M,M,M,M,M,79.42,KCXP 160055Z AUTO 19003KT 10SM CLR 27/07 A3025 RMK AO2,M
INS,2023-08-16 00:55,-115.6733,36.5872,955.00,98.00,38.70,12.92,130.00,4.00,0.00,30.01,1010.80,10.00,M,FEW,BKN,M,M,13000.00,15000.00,M,M,M,M,M,M,M,M,M,93.29,KINS 160055Z AUTO 13004KT 10SM FEW130 BKN150 37/04 A3001 RMK AO2 SLP108 T03660037 $,M
RNO,2023-08-16 00:55,-119.7711,39.4839,1341.00,85.00,45.00,24.73,140.00,6.00,0.00,30.20,1017.40,10.00,M,SCT,BKN,BKN,M,10000.00,16000.00,25000.00,M,M,M,M,M,M,M,M,82.34,KRNO 160055Z 14006KT 10SM SCT100 BKN160 BKN250 29/07 A3020 RMK AO2 SLP174 T02940072,M
LSV,2023-08-16 00:55,-115.0343,36.2362,570.00,102.00,51.80,18.83,10.00,13.00,0.00,29.89,1009.20,10.00,M,CLR,M,M,M,M,M,M,M,M,M,M,M,M,M,M,99.59,KLSV 160055Z AUTO 01013KT 10SM CLR 39/11 A2989 RMK AO2 SLP092 T03880110 $,M
RTS,2023-08-16 00:55,-119.8764,39.6682,1539.00,82.40,41.00,23.07,240.00,13.00,0.00,30.26,M,10.00,21.00,CLR,M,M,M,M,M,M,M,M,M,M,M,M,M,M,80.29,KRTS 160055Z AUTO 24013G21KT 10SM CLR 28/05 A3026 RMK AO2,M
MEV,2023-08-16 00:55,-119.7500,38.9963,1441.42,77.00,48.20,36.22,200.00,7.00,0.00,30.26,M,9.00,13.00,FEW,FEW,SCT,M,3500.00,5500.00,6500.00,M,-RA,M,M,M,M,M,M,77.00,KMEV 160055Z AUTO 20007G13KT 9SM -RA FEW035 FEW055 SCT065 25/09 A3026 RMK AO2,M
BAM,2023-08-16 00:55,-116.8743,40.5990,1382.36,91.40,41.00,17.32,250.00,9.00,0.00,30.18,M,10.00,M,CLR,M,M,M,M,M,M,M,M,M,M,M,M,M,M,87.40,KBAM 160055Z AUTO 25009KT 10SM CLR 33/05 A3018 RMK AO1,M
HTH,2023-08-16 00:55,-118.6315,38.5448,1282.89,89.60,41.00,18.33,230.00,11.00,0.00,30.17,M,10.00,17.00,CLR,M,M,M,M,M,M,M,M,M,M,M,M,M,M,85.82,KHTH 160055Z AUTO 23011G17KT 10SM CLR 32/05 A3017 RMK A01,M
TMT,2023-08-16 00:55,-117.1971,39.4643,1749.34,84.40,44.00,24.27,270.00,6.00,0.00,30.28,M,M,M,CLR,M,M,M,M,M,M,M,M,M,M,M,M,M,M,81.83,KTMT 160055Z AUTO 27006KT CLR 29/07 A3028 RMK AO2 T02910067 PWINO,M
10U,2023-08-16 00:55,-116.1876,41.9532,1637.00,86.00,39.20,19.15,260.00,9.00,0.00,30.24,M,10.00,M,FEW,M,M,M,10000.00,M,M,M,M,M,M,M,M,M,M,82.79,K10U 160055Z AUTO 26009KT 10SM FEW100 30/04 A3024 RMK AO2,M
EKO,2023-08-16 00:56,-115.7860,40.8242,1367.00,91.00,42.00,18.23,270.00,7.00,0.00,30.18,1016.00,10.00,M,CLR,M,M,M,M,M,M,M,M,M,M,M,M,M,M,87.11,KEKO 160056Z AUTO 27007KT 10SM CLR 33/06 A3018 RMK AO2 SLP160 T03280056,M
WMC,2023-08-16 00:56,-117.8072,40.9019,1315.00,94.00,39.00,14.78,190.00,7.00,0.00,30.14,1015.60,10.00,M,FEW,M,M,M,11000.00,M,M,M,M,M,M,M,M,M,M,89.64,KWMC 160056Z AUTO 19007KT 10SM FEW110 34/04 A3014 RMK AO2 SLP156 T03440039,M
NFL,2023-08-16 00:56,-118.7010,39.4166,1199.00,92.00,40.00,16.35,320.00,8.00,0.00,30.12,1016.60,10.00,M,SCT,BKN,BKN,BKN,7000.00,12000.00,18000.00,25000.00,M,M,M,M,M,M,M,87.88,KNFL 160056Z 32008KT 10SM SCT070 BKN120 BKN180 BKN250 33/04 A3012 RMK AO2 SLP166 T03330044,M
HND,2023-08-16 00:56,-115.1344,35.9729,742.79,101.00,51.00,18.84,20.00,4.00,0.00,29.98,1013.30,10.00,M,CLR,M,M,M,M,M,M,M,M,M,M,M,M,M,M,98.30,KHND 160056Z 02004KT 10SM CLR 38/11 A2998 RMK AO2 SLP133 T03830106,M
TPH,2023-08-16 00:56,-117.0904,38.0505,1654.00,87.00,48.00,25.98,M,5.00,0.00,30.24,1016.10,10.00,M,SCT,M,M,M,10000.00,M,M,M,M,M,M,M,M,M,M,84.18,KTPH 160056Z AUTO VRB05KT 10SM SCT100 31/09 A3024 RMK AO2 SLP161 T03060089,M
LAS,2023-08-16 00:56,-115.1634,36.0719,663.00,102.00,49.00,16.97,60.00,8.00,0.00,29.94,1010.50,10.00,M,FEW,FEW,SCT,M,12000.00,15000.00,20000.00,M,M,M,M,M,M,M,M,98.82,KLAS 160056Z 06008KT 020V080 10SM FEW120 FEW150 SCT200 39/09 A2994 RMK AO2 SLP105 CB DSNT NE-SE T03890094,M
05U,2023-08-16 01:10,-116.0051,39.6042,1811.23,80.60,41.00,24.46,M,M,0.00,30.32,M,10.00,M,M,M,M,M,M,M,M,M,M,M,M,M,M,M,M,79.20,K05U 160110Z AUTO 10SM 27/05 A3032 RMK A01,M
BVU,2023-08-16 01:15,-114.8611,35.9475,671.00,100.40,50.00,18.48,30.00,11.00,0.00,29.93,M,10.00,17.00,CLR,M,M,M,M,M,M,M,M,M,M,M,M,M,M,97.42,KBVU 160115Z AUTO 03011G17KT 10SM CLR 38/10 A2993 RMK AO2,M
CXP,2023-08-16 01:15,-119.7326,39.1923,1431.00,80.60,44.60,28.08,180.00,10.00,0.00,30.26,M,10.00,M,CLR,M,M,M,M,M,M,M,M,M,M,M,M,M,M,79.42,KCXP 160115Z AUTO 18010KT 10SM CLR 27/07 A3026 RMK AO2,M
RTS,2023-08-16 01:15,-119.8764,39.6682,1539.00,80.60,39.20,22.81,260.00,17.00,0.00,30.27,M,10.00,M,CLR,M,M,M,M,M,M,M,M,M,M,M,M,M,M,79.10,KRTS 160115Z AUTO 26017KT 10SM CLR 27/04 A3027 RMK AO2,M
MEV,2023-08-16 01:15,-119.7500,38.9963,1441.42,75.20,48.20,38.46,170.00,12.00,0.00,30.26,M,10.00,M,CLR,M,M,M,M,M,M,M,M,M,M,M,M,M,M,75.20,KMEV 160115Z AUTO 17012KT 10SM CLR 24/09 A3026 RMK AO2,M
BAM,2023-08-16 01:15,-116.8743,40.5990,1382.36,91.40,42.80,18.56,240.00,6.00,0.00,30.17,M,10.00,M,CLR,M,M,M,M,M,M,M,M,M,M,M,M,M,M,87.52,KBAM 160115Z AUTO 24006KT 10SM CLR 33/06 A3017 RMK AO1,M
HTH,2023-08-16 01:15,-118.6315,38.5448,1282.89,89.60,41.00,18.33,250.00,10.00,0.00,30.17,M,10.00,16.00,CLR,M,M,M,M,M,M,M,M,M,M,M,M,M,M,85.82,KHTH 160115Z AUTO 25010G16KT 10SM CLR 32/05 A3017 RMK A01,M
10U,2023-08-16 01:15,-116.1876,41.9532,1637.00,86.00,39.20,19.15,260.00,4.00,0.00,30.25,M,10.00,M,FEW,M,M,M,11000.00,M,M,M,M,M,M,M,M,M,M,82.79,K10U 160115Z AUTO 26004KT 10SM FEW110 30/04 A3025 RMK AO2,M
TMT,2023-08-16 01:15,-117.1971,39.4643,1749.34,84.20,44.00,24.42,260.00,5.00,0.00,30.28,M,M,M,CLR,M,M,M,M,M,M,M,M,M,M,M,M,M,M,81.69,KTMT 160115Z AUTO 26005KT CLR 29/07 A3028 RMK AO2 T02900066 PWINO,M
05U,2023-08-16 01:30,-116.0051,39.6042,1811.23,80.60,41.00,24.46,M,M,0.00,30.32,M,10.00,M,M,M,M,M,M,M,M,M,M,M,M,M,M,M,M,79.20,K05U 160130Z AUTO 10SM 27/05 A3032 RMK A01,M
BVU,2023-08-16 01:35,-114.8611,35.9475,671.00,100.40,50.00,18.48,40.00,13.00,0.00,29.93,M,10.00,M,CLR,M,M,M,M,M,M,M,M,M,M,M,M,M,M,97.42,KBVU 160135Z AUTO 04013KT 10SM CLR 38/10 A2993 RMK AO2,M
CXP,2023-08-16 01:35,-119.7326,39.1923,1431.00,78.80,46.40,31.90,190.00,8.00,0.00,30.26,M,10.00,15.00,CLR,M,M,M,M,M,M,M,M,M,M,M,M,M,M,78.80,KCXP 160135Z AUTO 19008G15KT 10SM CLR 26/08 A3026 RMK AO2,M
RTS,2023-08-16 01:35,-119.8764,39.6682,1539.00,78.80,41.00,25.95,260.00,13.00,0.00,30.27,M,10.00,19.00,CLR,M,M,M,M,M,M,M,M,M,M,M,M,M,M,78.80,KRTS 160135Z AUTO 26013G19KT 10SM CLR 26/05 A3027 RMK AO2,M
MEV,2023-08-16 01:35,-119.7500,38.9963,1441.42,73.40,50.00,43.69,170.00,10.00,0.00,30.25,M,10.00,15.00,FEW,M,M,M,12000.00,M,M,M,M,M,M,M,M,M,M,73.40,KMEV 160135Z AUTO 17010G15KT 10SM FEW120 23/10 A3025 RMK AO2,M
HTH,2023-08-16 01:35,-118.6315,38.5448,1282.89,86.00,42.80,22.02,260.00,12.00,0.00,30.17,M,10.00,M,CLR,M,M,M,M,M,M,M,M,M,M,M,M,M,M,82.95,KHTH 160135Z AUTO 26012KT 10SM CLR 30/06 A3017 RMK A01,M
10U,2023-08-16 01:35,-116.1876,41.9532,1637.00,84.20,41.00,21.76,180.00,5.00,0.00,30.25,M,10.00,M,CLR,M,M,M,M,M,M,M,M,M,M,M,M,M,M,81.52,K10U 160135Z AUTO 18005KT 10SM CLR 29/05 A3025 RMK AO2,M
BAM,2023-08-16 01:35,-116.8743,40.5990,1382.36,89.60,42.80,19.64,250.00,5.00,0.00,30.17,M,10.00,M,CLR,M,M,M,M,M,M,M,M,M,M,M,M,M,M,85.93,KBAM 160135Z AUTO 25005KT 10SM CLR 32/06 A3017 RMK AO1,M
TMT,2023-08-16 01:35,-117.1971,39.4643,1749.34,83.70,43.30,24.17,0.00,0.00,0.00,30.28,M,M,M,CLR,M,M,M,M,M,M,M,M,M,M,M,M,M,M,81.29,KTMT 160135Z AUTO 00000KT CLR 29/06 A3028 RMK AO2 T02870063 PWINO,M
05U,2023-08-16 01:50,-116.0051,39.6042,1811.23,78.80,42.80,27.81,M,M,0.00,30.32,M,10.00,M,M,M,M,M,M,M,M,M,M,M,M,M,M,M,M,78.80,K05U 160150Z AUTO 10SM 26/06 A3032 RMK A01,M
HTH,2023-08-16 01:50,-118.6315,38.5448,1282.89,86.00,41.00,20.54,260.00,12.00,0.00,30.17,M,10.00,M,CLR,M,M,M,M,M,M,M,M,M,M,M,M,M,M,82.86,KHTH 160150Z AUTO 26012KT 10SM CLR 30/05 A3017 RMK A01,M
P68,2023-08-16 01:53,-116.0056,39.6014,1993.00,79.00,42.00,26.79,230.00,5.00,0.00,30.30,1018.30,M,M,M,M,M,M,M,M,M,M,M,M,M,M,M,M,M,79.00,KP68 160153Z AUTO 23005KT 26/06 A3030 RMK AO1 SLP183 T02610056,M
ELY,2023-08-16 01:53,-114.8453,39.2950,1909.00,75.00,50.00,41.41,300.00,6.00,0.00,30.32,1017.60,10.00,M,OVC,M,M,M,11000.00,M,M,M,M,M,M,M,M,M,M,75.00,KELY 160153Z AUTO 30006KT 10SM OVC110 24/10 A3032 RMK AO2 SLP176 T02390100 $,M
VGT,2023-08-16 01:53,-115.1933,36.2111,667.00,101.00,52.00,19.55,60.00,11.00,0.00,29.94,1012.40,10.00,M,CLR,M,M,M,M,M,M,M,M,M,M,M,M,M,M,98.59,KVGT 160153Z 06011KT 10SM CLR 38/11 A2994 RMK AO2 SLP124 T03830111,M
LOL,2023-08-16 01:53,-118.5701,40.0684,1192.43,91.00,39.00,16.23,230.00,9.00,0.00,30.11,1015.60,10.00,M,CLR,M,M,M,M,M,M,M,M,M,M,M,M,M,M,86.94,KLOL 160153Z AUTO 23009KT 10SM CLR 33/04 A3011 RMK AO2 SLP156 T03280039,M
BVU,2023-08-16 01:55,-114.8611,35.9475,671.00,100.40,50.00,18.48,50.00,9.00,0.00,29.93,M,10.00,16.00,CLR,M,M,M,M,M,M,M,M,M,M,M,M,M,M,97.42,KBVU 160155Z AUTO 05009G16KT 10SM CLR 38/10 A2993 RMK AO2,M
CXP,2023-08-16 01:55,-119.7326,39.1923,1431.00,77.00,46.40,33.85,200.00,7.00,0.00,30.26,M,10.00,13.00,CLR,M,M,M,M,M,M,M,M,M,M,M,M,M,M,77.00,KCXP 160155Z AUTO 20007G13KT 10SM CLR 25/08 A3026 RMK AO2,M
INS,2023-08-16 01:55,-115.6733,36.5872,955.00,97.50,42.00,14.91,30.00,9.00,0.00,30.01,1011.00,10.00,M,BKN,M,M,M,15000.00,M,M,M,M,M,M,M,M,M,M,93.15,KINS 160155Z AUTO 03009KT 10SM BKN150 36/06 A3001 RMK AO2 SLP110 T03640056 $,M
RNO,2023-08-16 01:55,-119.7711,39.4839,1341.00,83.00,46.00,27.39,M,3.00,0.00,30.21,1017.90,10.00,M,SCT,BKN,M,M,10000.00,15000.00,M,M,M,M,M,M,M,M,M,81.00,KRNO 160155Z VRB03KT 10SM SCT100 BKN150 28/08 A3021 RMK AO2 SLP179 T02830078,M
RTS,2023-08-16 01:55,-119.8764,39.6682,1539.00,78.80,41.00,25.95,260.00,14.00,0.00,30.26,M,10.00,M,CLR,M,M,M,M,M,M,M,M,M,M,M,M,M,M,78.80,KRTS 160155Z AUTO 26014KT 10SM CLR 26/05 A3026 RMK AO2,M
MEV,2023-08-16 01:55,-119.7500,38.9963,1441.42,73.40,50.00,43.69,130.00,6.00,0.00,30.25,M,10.00,M,FEW,M,M,M,12000.00,M,M,M,M,M,M,M,M,M,M,73.40,KMEV 160155Z AUTO 13006KT 10SM FEW120 23/10 A3025 RMK AO2,M
BAM,2023-08-16 01:55,-116.8743,40.5990,1382.36,87.80,42.80,20.79,240.00,4.00,0.00,30.17,M,10.00,M,CLR,M,M,M,M,M,M,M,M,M,M,M,M,M,M,84.40,KBAM 160155Z AUTO 24004KT 10SM CLR 31/06 A3017 RMK AO1,M
TMT,2023-08-16 01:55,-117.1971,39.4643,1749.34,82.40,43.50,25.40,120.00,3.00,0.00,30.28,M,M,M,SCT,M,M,M,10000.00,M,M,M,M,M,M,M,M,M,M,80.43,KTMT 160155Z AUTO 12003KT SCT100 28/06 A3028 RMK AO2 T02800064 PWINO,M
10U,2023-08-16 01:55,-116.1876,41.9532,1637.00,84.20,41.00,21.76,M,4.00,0.00,30.25,M,10.00,M,CLR,M,M,M,M,M,M,M,M,M,M,M,M,M,M,81.52,K10U 160155Z AUTO VRB04KT 10SM CLR 29/05 A3025 RMK AO2,M
LSV,2023-08-16 01:55,-115.0343,36.2362,570.00,100.40,50.50,18.83,40.00,11.00,0.00,29.90,1009.60,10.00,M,OVC,M,M,M,21000.00,M,M,M,M,M,M,M,M,M,M,97.54,KLSV 160155Z AUTO 04011KT 10SM OVC210 38/10 A2990 RMK AO2 SLP096 T03800103 $,M
EKO,2023-08-16 01:56,-115.7860,40.8242,1367.00,91.00,43.00,18.94,340.00,8.00,0.00,30.18,1015.60,10.00,M,FEW,M,M,M,12000.00,M,M,M,M,M,M,M,M,M,M,87.18,KEKO 160156Z AUTO 34008KT 10SM FEW120 33/06 A3018 RMK AO2 SLP156 T03280061,M
WMC,2023-08-16 01:56,-117.8072,40.9019,1315.00,94.00,39.00,14.78,200.00,3.00,0.00,30.14,1015.20,10.00,M,CLR,M,M,M,M,M,M,M,M,M,M,M,M,M,M,89.64,KWMC 160156Z AUTO 20003KT 10SM CLR 34/04 A3014 RMK AO2 SLP152 T03440039,M
NFL,2023-08-16 01:56,-118.7010,39.4166,1199.00,91.00,43.00,18.94,250.00,10.00,0.00,30.13,1016.80,10.00,M,SCT,BKN,BKN,BKN,7000.00,12000.00,18000.00,25000.00,M,M,M,M,M,M,M,87.18,KNFL 160156Z 25010KT 10SM SCT070 BKN120 BKN180 BKN250 33/06 A3013 RMK AO2 SLP168 T03280061,M
HND,2023-08-16 01:56,-115.1344,35.9729,742.79,100.00,53.00,20.90,40.00,9.00,0.00,29.99,1013.50,10.00,M,CLR,M,M,M,M,M,M,M,M,M,M,M,M,M,M,97.82,KHND 160156Z 04009KT 10SM CLR 38/12 A2999 RMK AO2 SLP135 T03780117,M
TPH,2023-08-16 01:56,-117.0904,38.0505,1654.00,85.00,46.00,25.69,100.00,7.00,0.00,30.24,1016.40,10.00,M,CLR,M,M,M,M,M,M,M,M,M,M,M,M,M,M,82.42,KTPH 160156Z AUTO 10007KT 060V130 10SM CLR 29/08 A3024 RMK AO2 SLP164 T02940078,M
LAS,2023-08-16 01:56,-115.1634,36.0719,663.00,100.00,51.00,19.42,30.00,14.00,0.00,29.95,1010.80,10.00,M,FEW,FEW,SCT,M,12000.00,15000.00,20000.00,M,M,M,M,M,M,M,M,97.26,KLAS 160156Z 03014KT 10SM FEW120 FEW150 SCT200 38/11 A2995 RMK AO2 SLP108 CB DSNT NE-SE T03780106,M
BVU,2023-08-16 02:15,-114.8611,35.9475,671.00,98.60,50.00,19.52,40.00,12.00,0.00,29.94,M,10.00,M,CLR,M,M,M,M,M,M,M,M,M,M,M,M,M,M,95.56,KBVU 160215Z AUTO 04012KT 10SM CLR 37/10 A2994 RMK AO2,M
CXP,2023-08-16 02:15,-119.7326,39.1923,1431.00,77.00,48.20,36.22,0.00,0.00,0.00,30.26,M,10.00,M,CLR,M,M,M,M,M,M,M,M,M,M,M,M,M,M,77.00,KCXP 160215Z AUTO 00000KT 10SM CLR 25/09 A3026 RMK AO2,M
RTS,2023-08-16 02:15,-119.8764,39.6682,1539.00,78.80,39.20,24.19,260.00,9.00,0.00,30.26,M,10.00,M,FEW,M,M,M,12000.00,M,M,M,M,M,M,M,M,M,M,78.80,KRTS 160215Z AUTO 26009KT 10SM FEW120 26/04 A3026 RMK AO2,M
05U,2023-08-16 02:15,-116.0051,39.6042,1811.23,77.00,42.80,29.51,M,M,0.00,30.33,M,10.00,M,M,M,M,M,M,M,M,M,M,M,M,M,M,M,M,77.00,K05U 160215Z AUTO 10SM 25/06 A3033 RMK A01,M
MEV,2023-08-16 02:15,-119.7500,38.9963,1441.42,71.60,50.00,46.43,140.00,5.00,0.00,30.24,M,10.00,M,CLR,M,M,M,M,M,M,M,M,M,M,M,M,M,M,71.60,KMEV 160215Z AUTO 14005KT 10SM CLR 22/10 A3024 RMK AO2,M
HTH,2023-08-16 02:15,-118.6315,38.5448,1282.89,86.00,41.00,20.54,260.00,9.00,0.00,30.17,M,10.00,M,CLR,M,M,M,M,M,M,M,M,M,M,M,M,M,M,82.86,KHTH 160215Z AUTO 26009KT 10SM CLR 30/05 A3017 RMK A01,M
10U,2023-08-16 02:15,-116.1876,41.9532,1637.00,78.80,44.60,29.79,0.00,0.00,0.00,30.25,M,10.00,M,CLR,M,M,M,M,M,M,M,M,M,M,M,M,M,M,78.80,K10U 160215Z AUTO 00000KT 10SM CLR 26/07 A3025 RMK AO2,M
BAM,2023-08-16 02:15,-116.8743,40.5990,1382.36,87.80,42.80,20.79,230.00,5.00,0.00,30.18,M,10.00,M,CLR,M,M,M,M,M,M,M,M,M,M,M,M,M,M,84.40,KBAM 160215Z AUTO 23005KT 10SM CLR 31/06 A3018 RMK AO1,M
TMT,2023-08-16 02:15,-117.1971,39.4643,1749.34,79.70,43.70,27.95,110.00,9.00,0.00,30.29,M,M,M,SCT,M,M,M,10000.00,M,M,M,M,M,M,M,M,M,M,79.70,KTMT 160215Z AUTO 11009KT SCT100 27/07 A3029 RMK AO2 T02650065 PWINO,M
05U,2023-08-16 02:30,-116.0051,39.6042,1811.23,77.00,44.60,31.62,M,M,0.00,30.33,M,10.00,M,M,M,M,M,M,M,M,M,M,M,M,M,M,M,M,77.00,K05U 160230Z AUTO 10SM 25/07 A3033 RMK A01,M
BVU,2023-08-16 02:35,-114.8611,35.9475,671.00,98.60,50.00,19.52,40.00,8.00,0.00,29.94,M,10.00,M,CLR,M,M,M,M,M,M,M,M,M,M,M,M,M,M,95.56,KBVU 160235Z AUTO 04008KT 10SM CLR 37/10 A2994 RMK AO2,M
CXP,2023-08-16 02:35,-119.7326,39.1923,1431.00,75.20,48.20,38.46,180.00,4.00,0.00,30.26,M,10.00,M,CLR,M,M,M,M,M,M,M,M,M,M,M,M,M,M,75.20,KCXP 160235Z AUTO 18004KT 10SM CLR 24/09 A3026 RMK AO2,M
RTS,2023-08-16 02:35,-119.8764,39.6682,1539.00,78.80,39.20,24.19,250.00,8.00,0.00,30.27,M,10.00,M,FEW,M,M,M,12000.00,M,M,M,M,M,M,M,M,M,M,78.80,KRTS 160235Z AUTO 25008KT 10SM FEW120 26/04 A3027 RMK AO2,M
MEV,2023-08-16 02:35,-119.7500,38.9963,1441.42,71.60,50.00,46.43,90.00,4.00,0.00,30.25,M,10.00,M,CLR,M,M,M,M,M,M,M,M,M,M,M,M,M,M,71.60,KMEV 160235Z AUTO 09004KT 10SM CLR 22/10 A3025 RMK AO2,M
HTH,2023-08-16 02:35,-118.6315,38.5448,1282.89,86.00,39.20,19.15,260.00,9.00,0.00,30.18,M,10.00,M,CLR,M,M,M,M,M,M,M,M,M,M,M,M,M,M,82.79,KHTH 160235Z AUTO 26009KT 10SM CLR 30/04 A3018 RMK A01,M
10U,2023-08-16 02:35,-116.1876,41.9532,1637.00,78.80,44.60,29.79,0.00,0.00,0.00,30.24,M,10.00,M,BKN,M,M,M,12000.00,M,M,M,M,M,M,M,M,M,M,78.80,K10U 160235Z AUTO 00000KT 10SM BKN120 26/07 A3024 RMK AO2,M
BAM,2023-08-16 02:35,-116.8743,40.5990,1382.36,86.00,42.80,22.02,230.00,5.00,0.00,30.19,M,10.00,M,CLR,M,M,M,M,M,M,M,M,M,M,M,M,M,M,82.95,KBAM 160235Z AUTO 23005KT 10SM CLR 30/06 A3019 RMK AO1,M
TMT,2023-08-16 02:35,-117.1971,39.4643,1749.34,78.80,44.40,29.57,120.00,6.00,0.00,30.29,M,M,M,CLR,M,M,M,M,M,M,M,M,M,M,M,M,M,M,78.80,KTMT 160235Z AUTO 12006KT CLR 26/07 A3029 RMK AO2 T02600069 PWINO,M
P68,2023-08-16 02:53,-116.0056,39.6014,1993.00,75.00,44.00,33.03,210.00,3.00,0.00,30.31,1018.40,M,M,M,M,M,M,M,M,M,M,M,M,M,M,M,M,M,75.00,KP68 160253Z AUTO 21003KT 24/07 A3031 RMK AO1 SLP184 T02390067 53001,M
ELY,2023-08-16 02:53,-114.8453,39.2950,1909.00,73.00,47.00,39.58,0.00,0.00,0.00,30.33,1017.50,10.00,M,OVC,M,M,M,11000.00,M,M,M,M,M,M,M,M,M,M,73.00,KELY 160253Z AUTO 00000KT 10SM OVC110 23/08 A3033 RMK AO2 SLP175 T02280083 53002 $,M
VGT,2023-08-16 02:53,-115.1933,36.2111,667.00,100.00,52.00,20.15,70.00,10.00,0.00,29.95,1012.70,10.00,M,CLR,M,M,M,M,M,M,M,M,M,M,M,M,M,M,97.53,KVGT 160253Z 07010KT 10SM CLR 38/11 A2995 RMK AO2 LTG DSNT SW SLP127 T03780111 53004,M
LOL,2023-08-16 02:53,-118.5701,40.0684,1192.43,83.00,38.00,20.13,240.00,7.00,0.00,30.11,1015.90,10.00,M,CLR,M,M,M,M,M,M,M,M,M,M,M,M,M,M,80.56,KLOL 160253Z AUTO 24007KT 10SM CLR 28/03 A3011 RMK AO2 SLP159 T02830033 55001,M
BVU,2023-08-16 02:55,-114.8611,35.9475,671.00,98.60,50.00,19.52,60.00,13.00,0.00,29.95,M,10.00,M,CLR,M,M,M,M,M,M,M,M,M,M,M,M,M,M,95.56,KBVU 160255Z AUTO 06013KT 10SM CLR 37/10 A2995 RMK AO2,M
CXP,2023-08-16 02:55,-119.7326,39.1923,1431.00,75.20,48.20,38.46,0.00,0.00,0.00,30.27,M,10.00,M,CLR,M,M,M,M,M,M,M,M,M,M,M,M,M,M,75.20,KCXP 160255Z AUTO 00000KT 10SM CLR 24/09 A3027 RMK AO2,M
INS,2023-08-16 02:55,-115.6733,36.5872,955.00,94.50,47.00,19.78,110.00,10.00,0.00,30.03,1011.50,10.00,M,OVC,M,M,M,13000.00,M,M,M,M,M,M,M,M,M,M,90.89,KINS 160255Z AUTO 11010KT 10SM OVC130 35/08 A3003 RMK AO2 SLP115 T03470084 53003 $,M
RNO,2023-08-16 02:55,-119.7711,39.4839,1341.00,81.00,45.00,28.15,170.00,7.00,0.00,30.22,1018.20,10.00,M,SCT,BKN,M,M,9000.00,15000.00,M,M,M,M,M,M,M,M,M,79.68,KRNO 160255Z 17007KT 10SM SCT090 BKN150 27/07 A3022 RMK AO2 SLP182 VIRGA T02720072 53007,M
RTS,2023-08-16 02:55,-119.8764,39.6682,1539.00,78.80,37.40,22.54,250.00,7.00,0.00,30.27,M,10.00,M,CLR,M,M,M,M,M,M,M,M,M,M,M,M,M,M,78.80,KRTS 160255Z AUTO 25007KT 10SM CLR 26/03 A3027 RMK AO2,M
05U,2023-08-16 02:55,-116.0051,39.6042,1811.23,75.20,44.60,33.57,M,M,0.00,30.33,M,10.00,M,M,M,M,M,M,M,M,M,M,M,M,M,M,M,M,75.20,K05U 160255Z AUTO 10SM 24/07 A3033 RMK A01,M
MEV,2023-08-16 02:55,-119.7500,38.9963,1441.42,69.80,51.80,52.77,250.00,3.00,0.00,30.26,M,10.00,M,CLR,M,M,M,M,M,M,M,M,M,M,M,M,M,M,69.80,KMEV 160255Z AUTO 25003KT 10SM CLR 21/11 A3026 RMK AO2,M
HTH,2023-08-16 02:55,-118.6315,38.5448,1282.89,84.20,39.20,20.29,250.00,8.00,0.00,30.18,M,10.00,M,CLR,M,M,M,M,M,M,M,M,M,M,M,M,M,M,81.44,KHTH 160255Z AUTO 25008KT 10SM CLR 29/04 A3018 RMK A01,M
BAM,2023-08-16 02:55,-116.8743,40.5990,1382.36,84.20,42.80,23.33,230.00,5.00,0.00,30.19,M,10.00,M,CLR,M,M,M,M,M,M,M,M,M,M,M,M,M,M,81.61,KBAM 160255Z AUTO 23005KT 10SM CLR 29/06 A3019 RMK AO1,M
TMT,2023-08-16 02:55,-117.1971,39.4643,1749.34,76.30,44.80,32.61,110.00,5.00,0.00,30.30,M,M,M,SCT,M,M,M,10000.00,M,M,M,M,M,M,M,M,M,M,76.30,KTMT 160255Z AUTO 11005KT SCT100 25/07 A3030 RMK AO2 T02460071 PWINO,M
10U,2023-08-16 02:55,-116.1876,41.9532,1637.00,78.80,44.60,29.79,140.00,4.00,0.00,30.24,M,10.00,M,SCT,M,M,M,12000.00,M,M,M,M,M,M,M,M,M,M,78.80,K10U 160255Z AUTO 14004KT 10SM SCT120 26/07 A3024 RMK AO2,M
LSV,2023-08-16 02:55,-115.0343,36.2362,570.00,98.20,49.00,19.04,30.00,10.00,0.00,29.91,1009.90,10.00,M,CLR,M,M,M,M,M,M,M,M,M,M,M,M,M,M,94.93,KLSV 160255Z AUTO 03010KT 10SM CLR 37/09 A2991 RMK AO2 SLP099 T03680094 53003 $,M
EKO,2023-08-16 02:56,-115.7860,40.8242,1367.00,78.00,47.00,33.50,200.00,5.00,0.00,30.19,1016.50,10.00,M,CLR,M,M,M,M,M,M,M,M,M,M,M,M,M,M,78.00,KEKO 160256Z AUTO 20005KT 10SM CLR 26/08 A3019 RMK AO2 SLP165 T02560083 53000,M
WMC,2023-08-16 02:56,-117.8072,40.9019,1315.00,87.00,40.00,19.14,140.00,4.00,0.00,30.14,1015.40,10.00,M,CLR,M,M,M,M,M,M,M,M,M,M,M,M,M,M,83.60,KWMC 160256Z AUTO 14004KT 10SM CLR 31/04 A3014 RMK AO2 SLP154 T03060044 55005,M
HND,2023-08-16 02:56,-115.1344,35.9729,742.79,98.00,52.00,21.41,40.00,9.00,0.00,30.00,1013.70,10.00,M,CLR,M,M,M,M,M,M,M,M,M,M,M,M,M,M,95.42,KHND 160256Z 04009KT 10SM CLR 37/11 A3000 RMK AO2 SLP137 T03670111 53004,M
TPH,2023-08-16 02:56,-117.0904,38.0505,1654.00,82.00,46.00,28.30,100.00,7.00,0.00,30.25,1016.50,10.00,M,CLR,M,M,M,M,M,M,M,M,M,M,M,M,M,M,80.36,KTPH 160256Z AUTO 10007KT 10SM CLR 28/08 A3025 RMK AO2 SLP165 T02780078 53000,M
LAS,2023-08-16 02:56,-115.1634,36.0719,663.00,99.00,51.00,20.01,40.00,13.00,0.00,29.96,1011.20,10.00,M,SCT,BKN,BKN,M,12000.00,15000.00,20000.00,M,M,M,M,M,M,M,M,96.21,KLAS 160256Z 04013KT 10SM SCT120 BKN150 BKN200 37/11 A2996 RMK AO2 SLP112 CB DSNT E AND SW-W T03720106 53003,M
NFL,2023-08-16 02:56,-118.7010,39.4166,1199.00,84.00,45.00,25.54,240.00,12.00,0.00,30.15,1017.40,10.00,M,FEW,SCT,SCT,BKN,7000.00,12000.00,18000.00,25000.00,-RA,M,M,M,26.00,230.00,2023-08-16 02:35,81.61,KNFL 160256Z COR 24012KT 10SM FEW070 SCT120 SCT180 BKN250 29/07 A3015 RMK AO2 PK WND 23026/0235 SLP174 T02890072 53005,M
05U,2023-08-16 03:10,-116.0051,39.6042,1811.23,75.20,44.60,33.57,M,M,0.00,30.34,M,10.00,M,M,M,M,M,M,M,M,M,M,M,M,M,M,M,M,75.20,K05U 160310Z AUTO 10SM 24/07 A3034 RMK A01,M
BVU,2023-08-16 03:15,-114.8611,35.9475,671.00,95.00,53.60,24.89,120.00,14.00,0.00,29.96,M,10.00,M,CLR,M,M,M,M,M,M,M,M,M,M,M,M,M,M,92.71,KBVU 160315Z AUTO 12014KT 10SM CLR 35/12 A2996 RMK AO2,M
CXP,2023-08-16 03:15,-119.7326,39.1923,1431.00,75.20,48.20,38.46,0.00,0.00,0.00,30.27,M,10.00,M,CLR,M,M,M,M,M,M,M,M,M,M,M,M,M,M,75.20,KCXP 160315Z AUTO 00000KT 10SM CLR 24/09 A3027 RMK AO2,M
RTS,2023-08-16 03:15,-119.8764,39.6682,1539.00,77.00,39.20,25.67,220.00,5.00,0.00,30.27,M,10.00,M,SCT,M,M,M,12000.00,M,M,M,M,M,M,M,M,M,M,77.00,KRTS 160315Z AUTO 22005KT 10SM SCT120 25/04 A3027 RMK AO2,M
MEV,2023-08-16 03:15,-119.7500,38.9963,1441.42,69.80,50.00,49.37,0.00,0.00,0.00,30.26,M,10.00,M,CLR,M,M,M,M,M,M,M,M,M,M,M,M,M,M,69.80,KMEV 160315Z AUTO 00000KT 10SM CLR 21/10 A3026 RMK AO2,M
HTH,2023-08-16 03:15,-118.6315,38.5448,1282.89,84.20,41.00,21.76,140.00,6.00,0.00,30.18,M,10.00,M,CLR,M,M,M,M,M,M,M,M,M,M,M,M,M,M,81.52,KHTH 160315Z AUTO 14006KT 10SM CLR 29/05 A3018 RMK A01,M
10U,2023-08-16 03:15,-116.1876,41.9532,1637.00,77.00,44.60,31.62,0.00,0.00,0.00,30.24,M,10.00,M,BKN,M,M,M,12000.00,M,M,M,M,M,M,M,M,M,M,77.00,K10U 160315Z AUTO 00000KT 10SM BKN120 25/07 A3024 RMK AO2,M
BAM,2023-08-16 03:15,-116.8743,40.5990,1382.36,82.40,41.00,23.07,230.00,4.00,0.00,30.19,M,10.00,M,SCT,M,M,M,12000.00,M,M,M,M,M,M,M,M,M,M,80.29,KBAM 160315Z AUTO 23004KT 10SM SCT120 28/05 A3019 RMK AO1,M
TMT,2023-08-16 03:15,-117.1971,39.4643,1749.34,73.20,45.50,37.15,120.00,3.00,0.00,30.30,M,M,M,CLR,M,M,M,M,M,M,M,M,M,M,M,M,M,M,73.20,KTMT 160315Z AUTO 12003KT CLR 23/08 A3030 RMK AO2 T02290075 PWINO,M
BVU,2023-08-16 03:35,-114.8611,35.9475,671.00,95.00,53.60,24.89,110.00,9.00,0.00,29.97,M,10.00,M,CLR,M,M,M,M,M,M,M,M,M,M,M,M,M,M,92.71,KBVU 160335Z AUTO 11009KT 10SM CLR 35/12 A2997 RMK AO2,M
CXP,2023-08-16 03:35,-119.7326,39.1923,1431.00,73.40,50.00,43.69,0.00,0.00,0.00,30.28,M,10.00,M,CLR,M,M,M,M,M,M,M,M,M,M,M,M,M,M,73.40,KCXP 160335Z AUTO 00000KT 10SM CLR 23/10 A3028 RMK AO2,M
RTS,2023-08-16 03:35,-119.8764,39.6682,1539.00,77.00,39.20,25.67,350.00,3.00,0.00,30.27,M,10.00,M,BKN,M,M,M,12000.00,M,M,M,M,M,M,M,M,M,M,77.00,KRTS 160335Z AUTO 35003KT 10SM BKN120 25/04 A3027 RMK AO2,M
05U,2023-08-16 03:35,-116.0051,39.6042,1811.23,75.20,44.60,33.57,M,M,0.00,30.35,M,10.00,M,M,M,M,M,M,M,M,M,M,M,M,M,M,M,M,75.20,K05U 160335Z AUTO 10SM 24/07 A3035 RMK A01,M
MEV,2023-08-16 03:35,-119.7500,38.9963,1441.42,69.80,48.20,46.16,140.00,5.00,0.00,30.26,M,10.00,M,CLR,M,M,M,M,M,M,M,M,M,M,M,M,M,M,69.80,KMEV 160335Z AUTO 14005KT 10SM CLR 21/09 A3026 RMK AO2,M
HTH,2023-08-16 03:35,-118.6315,38.5448,1282.89,82.40,41.00,23.07,180.00,4.00,0.00,30.19,M,10.00,M,CLR,M,M,M,M,M,M,M,M,M,M,M,M,M,M,80.29,KHTH 160335Z AUTO 18004KT 10SM CLR 28/05 A3019 RMK A01,M
10U,2023-08-16 03:35,-116.1876,41.9532,1637.00,71.60,42.80,35.37,300.00,4.00,0.00,30.25,M,10.00,M,BKN,M,M,M,11000.00,M,M,M,M,M,M,M,M,M,M,71.60,K10U 160335Z AUTO 30004KT 10SM BKN110 22/06 A3025 RMK AO2,M
BAM,2023-08-16 03:35,-116.8743,40.5990,1382.36,82.40,41.00,23.07,230.00,5.00,0.00,30.19,M,10.00,M,SCT,M,M,M,12000.00,M,M,M,M,M,M,M,M,M,M,80.29,KBAM 160335Z AUTO 23005KT 10SM SCT120 28/05 A3019 RMK AO1,M
TMT,2023-08-16 03:35,-117.1971,39.4643,1749.34,71.80,43.70,36.37,130.00,3.00,0.00,30.31,M,M,M,SCT,M,M,M,10000.00,M,M,M,M,M,M,M,M,M,M,71.80,KTMT 160335Z AUTO 13003KT SCT100 22/07 A3031 RMK AO2 T02210065 PWINO,M
05U,2023-08-16 03:50,-116.0051,39.6042,1811.23,73.40,46.40,38.18,M,M,0.00,30.36,M,10.00,M,M,M,M,M,M,M,M,M,M,M,M,M,M,M,M,73.40,K05U 160350Z AUTO 10SM 23/08 A3036 RMK A01,M
P68,2023-08-16 03:53,-116.0056,39.6014,1993.00,73.00,46.00,38.11,210.00,6.00,0.00,30.34,1018.80,M,M,M,M,M,M,M,M,M,M,M,M,M,M,M,M,M,73.00,KP68 160353Z AUTO 21006KT 23/08 A3034 RMK AO1 SLP188 T02280078,M
ELY,2023-08-16 03:53,-114.8453,39.2950,1909.00,70.00,48.00,45.50,50.00,5.00,0.00,30.36,1018.10,10.00,M,SCT,M,M,M,9500.00,M,M,M,M,M,M,M,M,M,M,70.00,KELY 160353Z AUTO 05005KT 10SM SCT095 21/09 A3036 RMK AO2 SLP181 T02110089 $,M
VGT,2023-08-16 03:53,-115.1933,36.2111,667.00,99.00,51.00,20.01,70.00,9.00,0.00,29.97,1013.20,10.00,M,CLR,M,M,M,M,M,M,M,M,M,M,M,M,M,M,96.21,KVGT 160353Z 07009KT 10SM CLR 37/11 A2997 RMK AO2 SLP132 T03720106,M
LOL,2023-08-16 03:53,-118.5701,40.0684,1192.43,79.00,38.00,22.93,270.00,8.00,0.00,30.14,1016.30,10.00,M,CLR,M,M,M,M,M,M,M,M,M,M,M,M,M,M,79.00,KLOL 160353Z AUTO 27008KT 10SM CLR 26/03 A3014 RMK AO2 SLP163 T02610033,M
BVU,2023-08-16 03:55,-114.8611,35.9475,671.00,95.00,53.60,24.89,120.00,9.00,0.00,29.98,M,10.00,M,CLR,M,M,M,M,M,M,M,M,M,M,M,M,M,M,92.71,KBVU 160355Z AUTO 12009KT 10SM CLR 35/12 A2998 RMK AO2,M
CXP,2023-08-16 03:55,-119.7326,39.1923,1431.00,73.40,50.00,43.69,0.00,0.00,0.00,30.28,M,10.00,M,CLR,M,M,M,M,M,M,M,M,M,M,M,M,M,M,73.40,KCXP 160355Z AUTO 00000KT 10SM CLR 23/10 A3028 RMK AO2,M
INS,2023-08-16 03:55,-115.6733,36.5872,955.00,91.40,47.00,21.78,90.00,9.00,0.00,30.05,1012.20,10.00,M,CLR,M,M,M,M,M,M,M,M,M,M,M,M,M,M,87.94,KINS 160355Z AUTO 09009KT 10SM CLR 33/08 A3005 RMK AO2 SLP122 T03300084 $,M
RNO,2023-08-16 03:55,-119.7711,39.4839,1341.00,80.00,46.00,30.20,150.00,5.00,0.00,30.23,1018.20,10.00,M,BKN,M,M,M,14000.00,M,M,M,M,M,M,M,M,M,M,79.20,KRNO 160355Z 15005KT 10SM BKN140 27/08 A3023 RMK AO2 SLP182 T02670078,M
LSV,2023-08-16 03:55,-115.0343,36.2362,570.00,95.50,56.00,26.75,70.00,13.00,0.00,29.93,1010.60,10.00,M,CLR,M,M,M,M,M,M,M,M,M,M,M,M,M,M,93.94,KLSV 160355Z AUTO 07013KT 10SM CLR 35/13 A2993 RMK AO2 SLP106 T03530134 $,M
RTS,2023-08-16 03:55,-119.8764,39.6682,1539.00,75.20,39.20,27.26,20.00,4.00,0.00,30.29,M,10.00,M,FEW,M,M,M,12000.00,M,M,M,M,M,M,M,M,M,M,75.20,KRTS 160355Z AUTO 02004KT 10SM FEW120 24/04 A3029 RMK AO2,M
MEV,2023-08-16 03:55,-119.7500,38.9963,1441.42,68.00,48.20,49.10,M,3.00,0.00,30.26,M,10.00,M,CLR,M,M,M,M,M,M,M,M,M,M,M,M,M,M,68.00,KMEV 160355Z AUTO VRB03KT 10SM CLR 20/09 A3026 RMK AO2,M
HTH,2023-08-16 03:55,-118.6315,38.5448,1282.89,82.40,46.40,28.36,290.00,4.00,0.00,30.20,M,10.00,M,FEW,M,M,M,12000.00,M,M,M,M,M,M,M,M,M,M,80.64,KHTH 160355Z AUTO 29004KT 10SM FEW120 28/08 A3020 RMK A01,M
BAM,2023-08-16 03:55,-116.8743,40.5990,1382.36,80.60,42.80,26.22,240.00,6.00,0.00,30.20,M,10.00,M,SCT,BKN,M,M,8000.00,11000.00,M,M,M,M,M,M,M,M,M,79.30,KBAM 160355Z AUTO 24006KT 10SM SCT080 BKN110 27/06 A3020 RMK AO1,M
TMT,2023-08-16 03:55,-117.1971,39.4643,1749.34,73.00,43.70,34.92,0.00,0.00,0.00,30.31,M,M,M,OVC,M,M,M,10000.00,M,M,M,M,M,M,M,M,M,M,73.00,KTMT 160355Z AUTO 00000KT OVC100 23/07 A3031 RMK AO2 T02280065 PWINO,M
10U,2023-08-16 03:55,-116.1876,41.9532,1637.00,71.60,42.80,35.37,150.00,3.00,0.00,30.25,M,10.00,M,BKN,M,M,M,12000.00,M,M,M,M,M,M,M,M,M,M,71.60,K10U 160355Z AUTO 15003KT 10SM BKN120 22/06 A3025 RMK AO2,M
EKO,2023-08-16 03:56,-115.7860,40.8242,1367.00,78.00,45.00,31.06,230.00,5.00,0.00,30.22,1017.10,10.00,M,CLR,M,M,M,M,M,M,M,M,M,M,M,M,M,M,78.00,KEKO 160356Z AUTO 23005KT 10SM CLR 26/07 A3022 RMK AO2 SLP171 T02560072,M
WMC,2023-08-16 03:56,-117.8072,40.9019,1315.00,80.00,43.00,26.94,110.00,4.00,0.00,30.16,1015.90,10.00,M,CLR,M,M,M,M,M,M,M,M,M,M,M,M,M,M,78.97,KWMC 160356Z AUTO 11004KT 10SM CLR 27/06 A3016 RMK AO2 SLP159 T02670061,M
NFL,2023-08-16 03:56,-118.7010,39.4166,1199.00,80.00,46.00,30.20,250.00,9.00,T,30.17,1018.00,10.00,M,FEW,SCT,BKN,BKN,7000.00,12000.00,18000.00,25000.00,M,M,M,M,M,M,M,79.20,KNFL 160356Z 25009KT 10SM FEW070 SCT120 BKN180 BKN250 27/08 A3017 RMK AO2 RAE08 SLP180 P0000 T02670078,M
HND,2023-08-16 03:56,-115.1344,35.9729,742.79,95.00,54.00,25.26,130.00,11.00,0.00,30.03,1014.70,10.00,M,CLR,M,M,M,M,M,M,M,M,M,M,M,M,M,M,92.82,KHND 160356Z AUTO 13011KT 10SM CLR 35/12 A3003 RMK AO2 LTG DSNT SW SLP147 T03500122,M
TPH,2023-08-16 03:56,-117.0904,38.0505,1654.00,78.00,46.00,32.26,100.00,7.00,0.00,30.27,1017.50,10.00,M,CLR,M,M,M,M,M,M,M,M,M,M,M,M,M,M,78.00,KTPH 160356Z AUTO 10007KT 10SM CLR 26/08 A3027 RMK AO2 SLP175 T02560078,M
LAS,2023-08-16 03:56,-115.1634,36.0719,663.00,96.00,54.00,24.49,80.00,17.00,0.00,29.98,1012.00,10.00,M,SCT,BKN,BKN,M,12000.00,15000.00,20000.00,M,M,M,M,M,M,M,M,93.86,KLAS 160356Z 08017KT 10SM SCT120 BKN150 BKN200 36/12 A2998 RMK AO2 LTG DSNT SW SLP120 CB DSNT E AND SW-W T03560122,M
05U,2023-08-16 04:10,-116.0051,39.6042,1811.23,69.80,53.60,56.38,M,M,0.00,30.37,M,10.00,M,M,M,M,M,M,M,M,M,M,M,M,M,M,M,M,69.80,K05U 160410Z AUTO 10SM 21/12 A3037 RMK A01,M
BVU,2023-08-16 04:15,-114.8611,35.9475,671.00,93.20,51.80,24.63,130.00,7.00,0.00,29.99,M,10.00,12.00,CLR,M,M,M,M,M,M,M,M,M,M,M,M,M,M,90.45,KBVU 160415Z AUTO 13007G12KT 10SM CLR 34/11 A2999 RMK AO2,M
CXP,2023-08-16 04:15,-119.7326,39.1923,1431.00,73.40,50.00,43.69,0.00,0.00,0.00,30.28,M,10.00,M,CLR,M,M,M,M,M,M,M,M,M,M,M,M,M,M,73.40,KCXP 160415Z AUTO 00000KT 10SM CLR 23/10 A3028 RMK AO2,M
RTS,2023-08-16 04:15,-119.8764,39.6682,1539.00,75.20,39.20,27.26,320.00,3.00,0.00,30.29,M,10.00,M,CLR,M,M,M,M,M,M,M,M,M,M,M,M,M,M,75.20,KRTS 160415Z AUTO 32003KT 10SM CLR 24/04 A3029 RMK AO2,M
MEV,2023-08-16 04:15,-119.7500,38.9963,1441.42,66.20,48.20,52.25,60.00,6.00,0.00,30.27,M,10.00,M,CLR,M,M,M,M,M,M,M,M,M,M,M,M,M,M,66.20,KMEV 160415Z AUTO 06006KT 10SM CLR 19/09 A3027 RMK AO2,M
HTH,2023-08-16 04:15,-118.6315,38.5448,1282.89,80.60,42.80,26.22,340.00,5.00,0.00,30.20,M,10.00,M,BKN,M,M,M,12000.00,M,M,M,M,M,M,M,M,M,M,79.30,KHTH 160415Z AUTO 34005KT 10SM BKN120 27/06 A3020 RMK A01,M
10U,2023-08-16 04:15,-116.1876,41.9532,1637.00,69.80,44.60,40.29,140.00,6.00,0.00,30.26,M,10.00,M,FEW,M,M,M,12000.00,M,M,M,M,M,M,M,M,M,M,69.80,K10U 160415Z AUTO 14006KT 10SM FEW120 21/07 A3026 RMK AO2,M
BAM,2023-08-16 04:15,-116.8743,40.5990,1382.36,87.80,42.80,20.79,200.00,10.00,0.00,30.19,M,10.00,22.00,SCT,SCT,BKN,M,7000.00,8000.00,10000.00,M,M,M,M,M,M,M,M,84.40,KBAM 160415Z AUTO 20010G22KT 10SM SCT070 SCT080 BKN100 31/06 A3019 RMK AO1,M
TMT,2023-08-16 04:15,-117.1971,39.4643,1749.34,73.80,43.00,33.09,0.00,0.00,0.00,30.32,M,M,M,OVC,M,M,M,10000.00,M,M,M,M,M,M,M,M,M,M,73.80,KTMT 160415Z AUTO 00000KT OVC100 23/06 A3032 RMK AO2 T02320061 PWINO,M
BVU,2023-08-16 04:35,-114.8611,35.9475,671.00,93.20,53.60,26.31,150.00,6.00,0.00,30.00,M,10.00,M,CLR,M,M,M,M,M,M,M,M,M,M,M,M,M,M,90.86,KBVU 160435Z AUTO 15006KT 10SM CLR 34/12 A3000 RMK AO2,M
CXP,2023-08-16 04:35,-119.7326,39.1923,1431.00,71.60,51.80,49.64,0.00,0.00,0.00,30.29,M,10.00,M,CLR,M,M,M,M,M,M,M,M,M,M,M,M,M,M,71.60,KCXP 160435Z AUTO 00000KT 10SM CLR 22/11 A3029 RMK AO2,M
RTS,2023-08-16 04:35,-119.8764,39.6682,1539.00,77.00,39.20,25.67,120.00,3.00,0.00,30.29,M,10.00,M,FEW,M,M,M,12000.00,M,M,M,M,M,M,M,M,M,M,77.00,KRTS 160435Z AUTO 12003KT 10SM FEW120 25/04 A3029 RMK AO2,M
05U,2023-08-16 04:35,-116.0051,39.6042,1811.23,66.20,57.20,72.74,M,M,0.00,30.37,M,10.00,M,M,M,M,M,M,M,M,M,M,M,M,M,M,M,M,66.20,K05U 160435Z AUTO 10SM 19/14 A3037 RMK A01,M
MEV,2023-08-16 04:35,-119.7500,38.9963,1441.42,64.40,48.20,55.63,150.00,8.00,0.00,30.27,M,10.00,M,CLR,M,M,M,M,M,M,M,M,M,M,M,M,M,M,64.40,KMEV 160435Z AUTO 15008KT 10SM CLR 18/09 A3027 RMK AO2,M
HTH,2023-08-16 04:35,-118.6315,38.5448,1282.89,78.80,42.80,27.81,300.00,4.00,0.00,30.21,M,10.00,M,BKN,M,M,M,12000.00,M,M,M,M,M,M,M,M,M,M,78.80,KHTH 160435Z AUTO 30004KT 10SM BKN120 26/06 A3021 RMK A01,M
10U,2023-08-16 04:35,-116.1876,41.9532,1637.00,69.80,42.80,37.61,150.00,7.00,0.00,30.26,M,10.00,M,CLR,M,M,M,M,M,M,M,M,M,M,M,M,M,M,69.80,K10U 160435Z AUTO 15007KT 10SM CLR 21/06 A3026 RMK AO2,M
BAM,2023-08-16 04:35,-116.8743,40.5990,1382.36,82.40,42.80,24.72,200.00,3.00,0.00,30.21,M,10.00,M,SCT,M,M,M,12000.00,M,M,M,M,M,M,M,M,M,M,80.39,KBAM 160435Z AUTO 20003KT 10SM SCT120 28/06 A3021 RMK AO1,M
TMT,2023-08-16 04:35,-117.1971,39.4643,1749.34,70.00,45.50,41.41,310.00,3.00,0.00,30.32,M,M,M,OVC,M,M,M,11000.00,M,M,M,M,M,M,M,M,M,M,70.00,KTMT 160435Z AUTO 31003KT OVC110 21/08 A3032 RMK AO2 T02120075 PWINO,M
05U,2023-08-16 04:50,-116.0051,39.6042,1811.23,68.00,57.20,68.35,M,M,0.00,30.38,M,10.00,M,M,M,M,M,M,M,M,M,M,M,M,M,M,M,M,68.00,K05U 160450Z AUTO 10SM 20/14 A3038 RMK A01,M
ELY,2023-08-16 04:53,-114.8453,39.2950,1909.00,69.00,49.00,48.88,210.00,8.00,0.00,30.38,1018.00,10.00,M,OVC,M,M,M,9000.00,M,M,M,M,M,M,M,M,M,M,69.00,KELY 160453Z AUTO 21008KT 10SM OVC090 21/09 A3038 RMK AO2 SLP180 T02060094 $,M
P68,2023-08-16 04:53,-116.0056,39.6014,1993.00,68.00,56.00,65.45,140.00,5.00,0.00,30.35,1019.30,M,M,M,M,M,M,M,M,M,M,M,M,M,M,M,M,M,68.00,KP68 160453Z AUTO 14005KT 20/13 A3035 RMK AO1 SLP193 T02000133,M
VGT,2023-08-16 04:53,-115.1933,36.2111,667.00,95.00,57.00,28.16,120.00,8.00,0.00,30.01,1014.60,10.00,M,CLR,M,M,M,M,M,M,M,M,M,M,M,M,M,M,93.75,KVGT 160453Z AUTO 12008KT 10SM CLR 35/14 A3001 RMK AO2 LTG DSNT S SLP146 T03500139,M
LOL,2023-08-16 04:53,-118.5701,40.0684,1192.43,76.00,39.00,26.34,160.00,9.00,0.00,30.14,1016.60,10.00,M,CLR,M,M,M,M,M,M,M,M,M,M,M,M,M,M,76.00,KLOL 160453Z AUTO 16009KT 10SM CLR 24/04 A3014 RMK AO2 SLP166 T02440039,M
BVU,2023-08-16 04:55,-114.8611,35.9475,671.00,93.20,53.60,26.31,150.00,6.00,0.00,30.00,M,10.00,M,CLR,M,M,M,M,M,M,M,M,M,M,M,M,M,M,90.86,KBVU 160455Z AUTO 15006KT 10SM CLR 34/12 A3000 RMK AO2,M
CXP,2023-08-16 04:55,-119.7326,39.1923,1431.00,71.60,51.80,49.64,30.00,3.00,0.00,30.29,M,10.00,M,CLR,M,M,M,M,M,M,M,M,M,M,M,M,M,M,71.60,KCXP 160455Z AUTO 03003KT 10SM CLR 22/11 A3029 RMK AO2,M
INS,2023-08-16 04:55,-115.6733,36.5872,955.00,89.80,48.20,23.96,100.00,6.00,0.00,30.06,1012.40,10.00,M,CLR,M,M,M,M,M,M,M,M,M,M,M,M,M,M,86.62,KINS 160455Z AUTO 10006KT 10SM CLR 32/09 A3006 RMK AO2 SLP124 T03210090 $,M
RNO,2023-08-16 04:55,-119.7711,39.4839,1341.00,78.00,49.00,36.11,200.00,4.00,0.00,30.24,1018.30,10.00,M,BKN,BKN,M,M,13000.00,18000.00,M,M,M,M,M,M,M,M,M,78.00,KRNO 160455Z 20004KT 10SM BKN130 BKN180 26/09 A3024 RMK AO2 SLP183 T02560094,M
RTS,2023-08-16 04:55,-119.8764,39.6682,1539.00,75.20,42.80,31.34,0.00,0.00,0.00,30.29,M,10.00,M,BKN,M,M,M,12000.00,M,M,M,M,M,M,M,M,M,M,75.20,KRTS 160455Z AUTO 00000KT 10SM BKN120 24/06 A3029 RMK AO2,M
MEV,2023-08-16 04:55,-119.7500,38.9963,1441.42,62.60,50.00,63.38,220.00,6.00,0.00,30.28,M,10.00,M,CLR,M,M,M,M,M,M,M,M,M,M,M,M,M,M,62.60,KMEV 160455Z AUTO 22006KT 10SM CLR 17/10 A3028 RMK AO2,M
HTH,2023-08-16 04:55,-118.6315,38.5448,1282.89,78.80,42.80,27.81,280.00,8.00,0.00,30.20,M,10.00,M,FEW,M,M,M,12000.00,M,M,M,M,M,M,M,M,M,M,78.80,KHTH 160455Z AUTO 28008KT 10SM FEW120 26/06 A3020 RMK A01,M
10U,2023-08-16 04:55,-116.1876,41.9532,1637.00,71.60,42.80,35.37,130.00,7.00,0.00,30.26,M,10.00,M,CLR,M,M,M,M,M,M,M,M,M,M,M,M,M,M,71.60,K10U 160455Z AUTO 13007KT 10SM CLR 22/06 A3026 RMK AO2,M
BAM,2023-08-16 04:55,-116.8743,40.5990,1382.36,80.60,42.80,26.22,230.00,5.00,0.00,30.21,M,10.00,M,BKN,M,M,M,12000.00,M,M,M,M,M,M,M,M,M,M,79.30,KBAM 160455Z AUTO 23005KT 10SM BKN120 27/06 A3021 RMK AO1,M
TMT,2023-08-16 04:55,-117.1971,39.4643,1749.34,70.70,45.70,40.74,340.00,6.00,0.00,30.33,M,M,M,OVC,M,M,M,10000.00,M,M,M,M,M,M,M,M,M,M,70.70,KTMT 160455Z AUTO 34006KT OVC100 22/08 A3033 RMK AO2 T02150076 PWINO,M
LSV,2023-08-16 04:55,-115.0343,36.2362,570.00,93.00,56.00,28.90,50.00,8.00,0.00,29.96,1011.50,10.00,M,FEW,M,M,M,22000.00,M,M,M,M,M,M,M,M,M,M,91.32,KLSV 160455Z AUTO 05008KT 10SM FEW220 34/13 A2996 RMK AO2 SLP115 T03390133 $,M
EKO,2023-08-16 04:56,-115.7860,40.8242,1367.00,76.00,45.00,33.19,0.00,0.00,0.00,30.23,1017.20,10.00,M,CLR,M,M,M,M,M,M,M,M,M,M,M,M,M,M,76.00,KEKO 160456Z AUTO 00000KT 10SM CLR 24/07 A3023 RMK AO2 SLP172 T02440072,M
WMC,2023-08-16 04:56,-117.8072,40.9019,1315.00,77.00,39.00,25.47,0.00,0.00,0.00,30.17,1015.90,10.00,M,CLR,M,M,M,M,M,M,M,M,M,M,M,M,M,M,77.00,KWMC 160456Z AUTO 00000KT 10SM CLR 25/04 A3017 RMK AO2 SLP159 T02500039,M
NFL,2023-08-16 04:56,-118.7010,39.4166,1199.00,78.00,46.00,32.26,250.00,6.00,0.00,30.17,1018.20,10.00,M,FEW,SCT,BKN,M,7000.00,12000.00,25000.00,M,M,M,M,M,M,M,M,78.00,KNFL 160456Z 25006KT 10SM FEW070 SCT120 BKN250 26/08 A3017 RMK AO2 SLP182 T02560078,M
HND,2023-08-16 04:56,-115.1344,35.9729,742.79,93.00,55.00,27.87,190.00,11.00,0.00,30.05,1015.70,10.00,M,FEW,SCT,BKN,M,7000.00,9000.00,11000.00,M,M,M,M,M,M,M,M,91.03,KHND 160456Z AUTO 19011KT 10SM FEW070 SCT090 BKN110 34/13 A3005 RMK AO2 LTG DSNT SW SLP157 T03390128,M
TPH,2023-08-16 04:56,-117.0904,38.0505,1654.00,77.00,46.00,33.34,M,3.00,0.00,30.28,1017.30,10.00,M,CLR,M,M,M,M,M,M,M,M,M,M,M,M,M,M,77.00,KTPH 160456Z AUTO VRB03KT 10SM CLR 25/08 A3028 RMK AO2 SLP173 T02500078,M
LAS,2023-08-16 04:56,-115.1634,36.0719,663.00,94.00,53.00,25.11,200.00,8.00,0.00,30.01,1013.20,10.00,M,SCT,BKN,BKN,M,12000.00,15000.00,20000.00,M,M,M,M,M,M,M,M,91.53,KLAS 160456Z 20008KT 10SM SCT120 BKN150 BKN200 34/12 A3001 RMK AO2 LTG DSNT SW SLP132 CB DSNT E AND SW-W T03440117,M
BVU,2023-08-16 05:15,-114.8611,35.9475,671.00,93.20,53.60,26.31,140.00,7.00,0.00,30.01,M,10.00,M,CLR,M,M,M,M,M,M,M,M,M,M,M,M,M,M,90.86,KBVU 160515Z AUTO 14007KT 10SM CLR 34/12 A3001 RMK AO2,M
CXP,2023-08-16 05:15,-119.7326,39.1923,1431.00,69.80,53.60,56.38,0.00,0.00,0.00,30.29,M,10.00,M,CLR,M,M,M,M,M,M,M,M,M,M,M,M,M,M,69.80,KCXP 160515Z AUTO 00000KT 10SM CLR 21/12 A3029 RMK AO2,M
RTS,2023-08-16 05:15,-119.8764,39.6682,1539.00,73.40,42.80,33.29,0.00,0.00,0.00,30.29,M,10.00,M,SCT,M,M,M,12000.00,M,M,M,M,M,M,M,M,M,M,73.40,KRTS 160515Z AUTO 00000KT 10SM SCT120 23/06 A3029 RMK AO2,M
05U,2023-08-16 05:15,-116.0051,39.6042,1811.23,68.00,57.20,68.35,M,M,0.00,30.38,M,10.00,M,M,M,M,M,M,M,M,M,M,M,M,M,M,M,M,68.00,K05U 160515Z AUTO 10SM 20/14 A3038 RMK A01,M
MEV,2023-08-16 05:15,-119.7500,38.9963,1441.42,62.60,50.00,63.38,0.00,0.00,0.00,30.28,M,10.00,M,CLR,M,M,M,M,M,M,M,M,M,M,M,M,M,M,62.60,KMEV 160515Z AUTO 00000KT 10SM CLR 17/10 A3028 RMK AO2,M
HTH,2023-08-16 05:15,-118.6315,38.5448,1282.89,78.80,42.80,27.81,320.00,3.00,0.00,30.21,M,10.00,M,FEW,M,M,M,12000.00,M,M,M,M,M,M,M,M,M,M,78.80,KHTH 160515Z AUTO 32003KT 10SM FEW120 26/06 A3021 RMK A01,M
10U,2023-08-16 05:15,-116.1876,41.9532,1637.00,69.80,42.80,37.61,190.00,7.00,0.00,30.26,M,10.00,M,CLR,M,M,M,M,M,M,M,M,M,M,M,M,M,M,69.80,K10U 160515Z AUTO 19007KT 10SM CLR 21/06 A3026 RMK AO2,M
BAM,2023-08-16 05:15,-116.8743,40.5990,1382.36,80.60,42.80,26.22,250.00,6.00,0.00,30.21,M,10.00,M,OVC,M,M,M,12000.00,M,M,M,M,M,M,M,M,M,M,79.30,KBAM 160515Z AUTO 25006KT 10SM OVC120 27/06 A3021 RMK AO1,M
TMT,2023-08-16 05:15,-117.1971,39.4643,1749.34,72.30,45.00,37.57,0.00,0.00,0.00,30.34,M,M,M,OVC,M,M,M,10000.00,M,M,M,M,M,M,M,M,M,M,72.30,KTMT 160515Z AUTO 00000KT OVC100 22/07 A3034 RMK AO2 T02240072 PWINO,M
05U,2023-08-16 05:30,-116.0051,39.6042,1811.23,66.20,57.20,72.74,M,M,0.00,30.37,M,10.00,M,M,M,M,M,M,M,M,M,M,M,M,M,M,M,M,66.20,K05U 160530Z AUTO 10SM 19/14 A3037 RMK A01,M
BVU,2023-08-16 05:35,-114.8611,35.9475,671.00,91.40,53.60,27.83,220.00,4.00,0.00,30.01,M,10.00,M,CLR,M,M,M,M,M,M,M,M,M,M,M,M,M,M,89.08,KBVU 160535Z AUTO 22004KT 10SM CLR 33/12 A3001 RMK AO2,M
CXP,2023-08-16 05:35,-119.7326,39.1923,1431.00,69.80,51.80,52.77,0.00,0.00,0.00,30.28,M,10.00,M,CLR,M,M,M,M,M,M,M,M,M,M,M,M,M,M,69.80,KCXP 160535Z AUTO 00000KT 10SM CLR 21/11 A3028 RMK AO2,M
RTS,2023-08-16 05:35,-119.8764,39.6682,1539.00,71.60,41.00,33.00,20.00,5.00,0.00,30.29,M,10.00,M,CLR,M,M,M,M,M,M,M,M,M,M,M,M,M,M,71.60,KRTS 160535Z AUTO 02005KT 10SM CLR 22/05 A3029 RMK AO2,M
MEV,2023-08-16 05:35,-119.7500,38.9963,1441.42,M,M,M,M,M,0.00,M,M,10.00,M,FEW,M,M,M,12000.00,M,M,M,M,M,M,M,M,M,M,M,KMEV 160535Z AUTO 10SM FEW120 RMK AO2 PNO PWINO TSNO,M
HTH,2023-08-16 05:35,-118.6315,38.5448,1282.89,77.00,42.80,29.51,0.00,0.00,0.00,30.21,M,10.00,M,CLR,M,M,M,M,M,M,M,M,M,M,M,M,M,M,77.00,KHTH 160535Z AUTO 00000KT 10SM CLR 25/06 A3021 RMK A01,M
10U,2023-08-16 05:35,-116.1876,41.9532,1637.00,68.00,42.80,40.00,130.00,8.00,0.00,30.26,M,10.00,M,CLR,M,M,M,M,M,M,M,M,M,M,M,M,M,M,68.00,K10U 160535Z AUTO 13008KT 10SM CLR 20/06 A3026 RMK AO2,M
BAM,2023-08-16 05:35,-116.8743,40.5990,1382.36,78.80,44.60,29.79,120.00,4.00,0.00,30.21,M,10.00,M,OVC,M,M,M,12000.00,M,M,M,M,M,M,M,M,M,M,78.80,KBAM 160535Z AUTO 12004KT 10SM OVC120 26/07 A3021 RMK AO1,M
TMT,2023-08-16 05:35,-117.1971,39.4643,1749.34,73.00,43.70,34.92,110.00,6.00,0.00,30.34,M,M,M,BKN,OVC,M,M,10000.00,12000.00,M,M,M,M,M,M,M,M,M,73.00,KTMT 160535Z AUTO 11006KT BKN100 OVC120 23/07 A3034 RMK AO2 T02280065 PWINO,M
P68,2023-08-16 05:53,-116.0056,39.6014,1993.00,66.00,56.00,70.14,0.00,0.00,0.00,30.35,1019.30,M,M,M,M,M,M,M,M,M,M,M,M,M,M,M,M,M,66.00,KP68 160553Z AUTO 00000KT 19/13 A3035 RMK AO1 SLP193 T01890133 10272 20189 51013,M
ELY,2023-08-16 05:53,-114.8453,39.2950,1909.00,66.00,51.00,58.40,220.00,4.00,0.00,30.38,1017.70,10.00,M,BKN,OVC,M,M,10000.00,12000.00,M,M,M,M,M,M,M,M,M,66.00,KELY 160553Z AUTO 22004KT 10SM BKN100 OVC120 19/11 A3038 RMK AO2 SLP177 T01890106 10267 20189 50012 $,M
VGT,2023-08-16 05:53,-115.1933,36.2111,667.00,93.00,58.00,31.06,60.00,8.00,0.00,30.02,1014.80,10.00,M,CLR,M,M,M,M,M,M,M,M,M,M,M,M,M,M,91.98,KVGT 160553Z AUTO 06008KT 10SM CLR 34/14 A3002 RMK AO2 SLP148 T03390144 10406 20339 51020,M
LOL,2023-08-16 05:53,-118.5701,40.0684,1192.43,74.00,43.00,32.87,170.00,4.00,0.00,30.16,1016.90,10.00,M,CLR,M,M,M,M,M,M,M,M,M,M,M,M,M,M,74.00,KLOL 160553Z AUTO 17004KT 10SM CLR 23/06 A3016 RMK AO2 SLP169 T02330061 10356 20228 51014,M
BVU,2023-08-16 05:55,-114.8611,35.9475,671.00,91.40,53.60,27.83,0.00,0.00,0.00,30.01,M,10.00,M,CLR,M,M,M,M,M,M,M,M,M,M,M,M,M,M,89.08,KBVU 160555Z AUTO 00000KT 10SM CLR 33/12 A3001 RMK AO2,M
CXP,2023-08-16 05:55,-119.7326,39.1923,1431.00,69.80,51.80,52.77,0.00,0.00,0.00,30.28,M,10.00,M,CLR,M,M,M,M,M,M,M,M,M,M,M,M,M,M,69.80,KCXP 160555Z AUTO 00000KT 10SM CLR 21/11 A3028 RMK AO2,M
INS,2023-08-16 05:55,-115.6733,36.5872,955.00,89.00,48.40,24.75,90.00,7.00,0.00,30.07,1012.60,10.00,M,CLR,M,M,M,M,M,M,M,M,M,M,M,M,M,M,85.94,KINS 160555Z AUTO 09007KT 10SM CLR 32/09 A3007 RMK AO2 SLP126 T03160091 10375 20314 52012 $,M
RNO,2023-08-16 05:55,-119.7711,39.4839,1341.00,78.00,48.00,34.78,240.00,4.00,0.00,30.23,1017.40,10.00,M,SCT,BKN,M,M,13000.00,18000.00,M,M,M,M,M,M,M,M,M,78.00,KRNO 160555Z 24004KT 10SM SCT130 BKN180 26/09 A3023 RMK AO2 SLP174 T02560089 10311 20250 50001,M
LSV,2023-08-16 05:55,-115.0343,36.2362,570.00,91.20,57.20,31.92,10.00,11.00,0.00,29.98,1012.20,10.00,M,CLR,M,M,M,M,M,M,M,M,M,M,M,M,M,M,89.86,KLSV 160555Z AUTO 01011KT 10SM CLR 33/14 A2998 RMK AO2 SLP122 T03290140 10389 20329 52022 $,M
RTS,2023-08-16 05:55,-119.8764,39.6682,1539.00,73.40,41.00,31.05,360.00,4.00,0.00,30.30,M,10.00,M,CLR,M,M,M,M,M,M,M,M,M,M,M,M,M,M,73.40,KRTS 160555Z AUTO 36004KT 10SM CLR 23/05 A3030 RMK AO2,M
05U,2023-08-16 05:55,-116.0051,39.6042,1811.23,66.20,55.40,68.15,M,M,0.00,30.38,M,10.00,M,M,M,M,M,M,M,M,M,M,M,M,M,M,M,M,66.20,K05U 160555Z AUTO 10SM 19/13 A3038 RMK A01,M
MEV,2023-08-16 05:55,-119.7500,38.9963,1441.42,59.00,50.00,72.01,120.00,4.00,0.00,30.27,M,10.00,M,FEW,M,M,M,12000.00,M,M,M,M,M,M,M,M,M,M,59.00,KMEV 160555Z AUTO 12004KT 10SM FEW120 15/10 A3027 RMK AO2,M
BAM,2023-08-16 05:55,-116.8743,40.5990,1382.36,78.80,42.80,27.81,140.00,5.00,0.00,30.22,M,10.00,M,OVC,M,M,M,12000.00,M,M,M,M,M,M,M,M,M,M,78.80,KBAM 160555Z AUTO 14005KT 10SM OVC120 26/06 A3022 RMK AO1,M
HTH,2023-08-16 05:55,-118.6315,38.5448,1282.89,77.00,44.60,31.62,210.00,3.00,0.00,30.21,M,10.00,M,M,M,M,M,M,M,M,M,M,M,M,M,M,M,M,77.00,KHTH 160555Z AUTO 21003KT 10SM 25/07 A3021 RMK A01,M
TMT,2023-08-16 05:55,-117.1971,39.4643,1749.34,74.00,45.00,35.48,50.00,5.00,0.00,30.34,M,M,M,OVC,M,M,M,10000.00,M,M,M,M,M,M,M,M,M,M,74.00,KTMT 160555Z AUTO 05005KT OVC100 23/07 A3034 RMK AO2 T02340072 10296 20211 PWINO,M
10U,2023-08-16 05:55,-116.1876,41.9532,1637.00,69.80,42.80,37.61,130.00,8.00,0.00,30.26,M,10.00,M,CLR,M,M,M,M,M,M,M,M,M,M,M,M,M,M,69.80,K10U 160555Z AUTO 13008KT 10SM CLR 21/06 A3026 RMK AO2,M
EKO,2023-08-16 05:56,-115.7860,40.8242,1367.00,79.00,44.00,28.93,0.00,0.00,0.00,30.24,1017.00,10.00,M,OVC,M,M,M,12000.00,M,M,M,M,M,M,M,M,M,M,79.00,KEKO 160556Z AUTO 00000KT 10SM OVC120 26/07 A3024 RMK AO2 SLP170 T02610067 10339 20239 51014,M
WMC,2023-08-16 05:56,-117.8072,40.9019,1315.00,78.00,40.00,25.62,190.00,6.00,0.00,30.17,1015.70,10.00,M,CLR,M,M,M,M,M,M,M,M,M,M,M,M,M,M,78.00,KWMC 160556Z AUTO 19006KT 10SM CLR 26/04 A3017 RMK AO2 SLP157 T02560044 10344 20239 51010,M
NFL,2023-08-16 05:56,-118.7010,39.4166,1199.00,75.00,46.00,35.64,220.00,6.00,0.00,30.17,1018.10,10.00,M,FEW,SCT,M,M,12000.00,25000.00,M,M,M,M,M,M,M,M,M,75.00,KNFL 160556Z 22006KT 10SM FEW120 SCT250 24/08 A3017 RMK AO2 SLP181 60000 T02390078 10350 20239 50006,M
HND,2023-08-16 05:56,-115.1344,35.9729,742.79,90.00,55.00,30.61,180.00,10.00,0.00,30.06,1016.00,10.00,M,CLR,M,M,M,M,M,M,M,M,M,M,M,M,M,M,88.06,KHND 160556Z AUTO 18010KT 10SM CLR 32/13 A3006 RMK AO2 SLP160 T03220128 10394 20322 51020,M
TPH,2023-08-16 05:56,-117.0904,38.0505,1654.00,75.00,45.00,34.31,30.00,5.00,0.00,30.29,1017.00,10.00,M,CLR,M,M,M,M,M,M,M,M,M,M,M,M,M,M,75.00,KTPH 160556Z AUTO 03005KT 10SM CLR 24/07 A3029 RMK AO2 SLP170 T02390072 10322 20211 51009,M
LAS,2023-08-16 05:56,-115.1634,36.0719,663.00,93.00,53.00,25.90,0.00,0.00,0.00,30.02,1013.20,10.00,M,FEW,BKN,BKN,M,12000.00,16000.00,20000.00,M,M,M,M,M,M,M,M,90.52,KLAS 160556Z 00000KT 10SM FEW120 BKN160 BKN200 34/12 A3002 RMK AO2 SLP132 T03390117 10394 20339 51019,M
05U,2023-08-16 06:10,-116.0051,39.6042,1811.23,66.20,53.60,63.82,M,M,0.00,30.38,M,10.00,M,M,M,M,M,M,M,M,M,M,M,M,M,M,M,M,66.20,K05U 160610Z AUTO 10SM 19/12 A3038 RMK A01,M
BVU,2023-08-16 06:15,-114.8611,35.9475,671.00,89.60,57.20,33.56,50.00,3.00,0.00,30.01,M,10.00,M,CLR,M,M,M,M,M,M,M,M,M,M,M,M,M,M,88.28,KBVU 160615Z AUTO 05003KT 10SM CLR 32/14 A3001 RMK AO2,M
CXP,2023-08-16 06:15,-119.7326,39.1923,1431.00,68.00,51.80,56.13,210.00,3.00,0.00,30.28,M,10.00,M,CLR,M,M,M,M,M,M,M,M,M,M,M,M,M,M,68.00,KCXP 160615Z AUTO 21003KT 10SM CLR 20/11 A3028 RMK AO2,M
RTS,2023-08-16 06:15,-119.8764,39.6682,1539.00,71.60,41.00,33.00,350.00,5.00,0.00,30.29,M,10.00,M,FEW,FEW,SCT,M,4800.00,6000.00,10000.00,M,M,M,M,M,M,M,M,71.60,KRTS 160615Z AUTO 35005KT 10SM FEW048 FEW060 SCT100 22/05 A3029 RMK AO2,M
MEV,2023-08-16 06:15,-119.7500,38.9963,1441.42,59.00,50.00,72.01,150.00,6.00,0.00,30.27,M,10.00,M,CLR,M,M,M,M,M,M,M,M,M,M,M,M,M,M,59.00,KMEV 160615Z AUTO 15006KT 10SM CLR 15/10 A3027 RMK AO2,M
BAM,2023-08-16 06:15,-116.8743,40.5990,1382.36,78.80,42.80,27.81,160.00,5.00,0.00,30.22,M,10.00,M,OVC,M,M,M,12000.00,M,M,M,M,M,M,M,M,M,M,78.80,KBAM 160615Z AUTO 16005KT 10SM OVC120 26/06 A3022 RMK AO1,M
HTH,2023-08-16 06:15,-118.6315,38.5448,1282.89,77.00,42.80,29.51,160.00,6.00,0.00,30.22,M,10.00,M,M,M,M,M,M,M,M,M,M,M,M,M,M,M,M,77.00,KHTH 160615Z AUTO 16006KT 10SM 25/06 A3022 RMK A01,M
10U,2023-08-16 06:15,-116.1876,41.9532,1637.00,69.80,42.80,37.61,130.00,7.00,0.00,30.26,M,10.00,M,CLR,M,M,M,M,M,M,M,M,M,M,M,M,M,M,69.80,K10U 160615Z AUTO 13007KT 10SM CLR 21/06 A3026 RMK AO2,M
TMT,2023-08-16 06:15,-117.1971,39.4643,1749.34,74.50,46.00,36.24,30.00,5.00,0.00,30.34,M,M,M,BKN,OVC,M,M,10000.00,12000.00,M,M,M,M,M,M,M,M,M,74.50,KTMT 160615Z AUTO 03005KT BKN100 OVC120 24/08 A3034 RMK AO2 T02360077 PWINO,M
BVU,2023-08-16 06:35,-114.8611,35.9475,671.00,87.80,57.20,35.53,20.00,5.00,0.00,30.01,M,10.00,M,CLR,M,M,M,M,M,M,M,M,M,M,M,M,M,M,86.58,KBVU 160635Z AUTO 02005KT 10SM CLR 31/14 A3001 RMK AO2,M
CXP,2023-08-16 06:35,-119.7326,39.1923,1431.00,69.80,48.20,46.16,230.00,3.00,0.00,30.28,M,10.00,M,CLR,M,M,M,M,M,M,M,M,M,M,M,M,M,M,69.80,KCXP 160635Z AUTO 23003KT 10SM CLR 21/09 A3028 RMK AO2,M
RTS,2023-08-16 06:35,-119.8764,39.6682,1539.00,71.60,42.80,35.37,310.00,4.00,0.00,30.28,M,10.00,M,FEW,SCT,BKN,M,1900.00,4800.00,10000.00,M,M,M,M,M,M,M,M,71.60,KRTS 160635Z AUTO 31004KT 10SM FEW019 SCT048 BKN100 22/06 A3028 RMK AO2,M
05U,2023-08-16 06:35,-116.0051,39.6042,1811.23,68.00,51.80,56.13,M,M,0.00,30.38,M,9.00,M,M,M,M,M,M,M,M,M,M,M,M,M,M,M,M,68.00,K05U 160635Z AUTO 9SM 20/11 A3038 RMK A01,M
MEV,2023-08-16 06:35,-119.7500,38.9963,1441.42,59.00,50.00,72.01,0.00,0.00,0.00,30.27,M,10.00,M,CLR,M,M,M,M,M,M,M,M,M,M,M,M,M,M,59.00,KMEV 160635Z AUTO 00000KT 10SM CLR 15/10 A3027 RMK AO2,M
HTH,2023-08-16 06:35,-118.6315,38.5448,1282.89,78.80,41.00,25.95,230.00,7.00,0.00,30.21,M,10.00,M,CLR,M,M,M,M,M,M,M,M,M,M,M,M,M,M,78.80,KHTH 160635Z AUTO 23007KT 10SM CLR 26/05 A3021 RMK A01,M
10U,2023-08-16 06:35,-116.1876,41.9532,1637.00,68.00,42.80,40.00,180.00,5.00,0.00,30.26,M,10.00,M,CLR,M,M,M,M,M,M,M,M,M,M,M,M,M,M,68.00,K10U 160635Z AUTO 18005KT 10SM CLR 20/06 A3026 RMK AO2,M
BAM,2023-08-16 06:35,-116.8743,40.5990,1382.36,78.80,42.80,27.81,160.00,4.00,0.00,30.22,M,10.00,M,OVC,M,M,M,12000.00,M,M,M,M,M,M,M,M,M,M,78.80,KBAM 160635Z AUTO 16004KT 10SM OVC120 26/06 A3022 RMK AO1,M
TMT,2023-08-16 06:35,-117.1971,39.4643,1749.34,72.00,46.60,40.33,30.00,8.00,0.00,30.33,M,M,M,SCT,OVC,M,M,10000.00,12000.00,M,M,M,M,M,M,M,M,M,72.00,KTMT 160635Z AUTO 03008KT SCT100 OVC120 22/08 A3033 RMK AO2 T02230081 PWINO,M
05U,2023-08-16 06:50,-116.0051,39.6042,1811.23,66.20,55.40,68.15,M,M,0.00,30.38,M,10.00,M,M,M,M,M,M,M,M,M,M,M,M,M,M,M,M,66.20,K05U 160650Z AUTO 10SM 19/13 A3038 RMK A01,M
P68,2023-08-16 06:53,-116.0056,39.6014,1993.00,66.00,55.00,67.64,130.00,5.00,0.00,30.35,1018.80,M,M,M,M,M,M,M,M,M,M,M,M,M,M,M,M,M,66.00,KP68 160653Z AUTO 13005KT 19/13 A3035 RMK AO1 SLP188 T01890128,M
ELY,2023-08-16 06:53,-114.8453,39.2950,1909.00,66.00,50.00,56.27,290.00,6.00,0.00,30.37,1017.10,10.00,M,BKN,M,M,M,8000.00,M,M,M,M,M,M,M,M,M,M,66.00,KELY 160653Z AUTO 29006KT 10SM BKN080 19/10 A3037 RMK AO2 SLP171 T01890100 $,M
VGT,2023-08-16 06:53,-115.1933,36.2111,667.00,92.00,59.00,33.21,60.00,5.00,0.00,30.01,1014.40,10.00,M,CLR,M,M,M,M,M,M,M,M,M,M,M,M,M,M,91.30,KVGT 160653Z AUTO 06005KT 10SM CLR 33/15 A3001 RMK AO2 SLP144 T03330150,M
LOL,2023-08-16 06:53,-118.5701,40.0684,1192.43,70.00,46.00,42.20,160.00,7.00,0.00,30.16,1017.00,10.00,M,CLR,M,M,M,M,M,M,M,M,M,M,M,M,M,M,70.00,KLOL 160653Z AUTO 16007KT 10SM CLR 21/08 A3016 RMK AO2 SLP170 T02110078,M
BVU,2023-08-16 06:55,-114.8611,35.9475,671.00,87.80,57.20,35.53,10.00,3.00,0.00,30.00,M,10.00,M,CLR,M,M,M,M,M,M,M,M,M,M,M,M,M,M,86.58,KBVU 160655Z AUTO 01003KT 10SM CLR 31/14 A3000 RMK AO2,M
CXP,2023-08-16 06:55,-119.7326,39.1923,1431.00,68.00,48.20,49.10,0.00,0.00,0.00,30.28,M,10.00,M,CLR,M,M,M,M,M,M,M,M,M,M,M,M,M,M,68.00,KCXP 160655Z AUTO 00000KT 10SM CLR 20/09 A3028 RMK AO2,M
INS,2023-08-16 06:55,-115.6733,36.5872,955.00,88.00,51.60,28.78,100.00,12.00,0.00,30.06,1012.20,10.00,M,BKN,M,M,M,18000.00,M,M,M,M,M,M,M,M,M,M,85.53,KINS 160655Z AUTO 10012KT 10SM BKN180 31/11 A3006 RMK AO2 SLP122 T03110109 $,M
RNO,2023-08-16 06:55,-119.7711,39.4839,1341.00,77.00,46.00,33.34,M,3.00,0.00,30.23,1017.40,10.00,M,FEW,BKN,BKN,M,10000.00,13000.00,18000.00,M,M,M,M,M,M,M,M,77.00,KRNO 160655Z VRB03KT 10SM FEW100 BKN130 BKN180 25/08 A3023 RMK AO2 SLP174 T02500078,M
LSV,2023-08-16 06:55,-115.0343,36.2362,570.00,90.00,57.70,33.75,20.00,9.00,0.00,29.96,1011.50,10.00,M,BKN,M,M,M,17000.00,M,M,M,M,M,M,M,M,M,M,88.82,KLSV 160655Z AUTO 02009KT 10SM BKN170 32/14 A2996 RMK AO2 SLP115 T03220143 $,M
RTS,2023-08-16 06:55,-119.8764,39.6682,1539.00,69.80,42.80,37.61,340.00,7.00,0.00,30.28,M,10.00,M,FEW,FEW,BKN,M,2200.00,3400.00,12000.00,M,M,M,M,M,M,M,M,69.80,KRTS 160655Z AUTO 34007KT 10SM FEW022 FEW034 BKN120 21/06 A3028 RMK AO2,M
MEV,2023-08-16 06:55,-119.7500,38.9963,1441.42,60.80,50.00,67.54,0.00,0.00,0.00,30.27,M,10.00,M,FEW,M,M,M,12000.00,M,M,M,M,M,M,M,M,M,M,60.80,KMEV 160655Z AUTO 00000KT 10SM FEW120 16/10 A3027 RMK AO2,M
BAM,2023-08-16 06:55,-116.8743,40.5990,1382.36,78.80,42.80,27.81,140.00,6.00,0.00,30.23,M,10.00,M,SCT,M,M,M,12000.00,M,M,M,M,M,M,M,M,M,M,78.80,KBAM 160655Z AUTO 14006KT 10SM SCT120 26/06 A3023 RMK AO1,M
HTH,2023-08-16 06:55,-118.6315,38.5448,1282.89,78.80,41.00,25.95,300.00,8.00,0.00,30.19,M,10.00,M,CLR,M,M,M,M,M,M,M,M,M,M,M,M,M,M,78.80,KHTH 160655Z AUTO 30008KT 10SM CLR 26/05 A3019 RMK A01,M
TMT,2023-08-16 06:55,-117.1971,39.4643,1749.34,71.40,46.80,41.47,350.00,5.00,0.00,30.33,M,M,M,SCT,BKN,M,M,10000.00,12000.00,M,M,M,M,M,M,M,M,M,71.40,KTMT 160655Z AUTO 35005KT SCT100 BKN120 22/08 A3033 RMK AO2 T02190082 PWINO,M
10U,2023-08-16 06:55,-116.1876,41.9532,1637.00,66.20,42.80,42.57,180.00,7.00,0.00,30.26,M,10.00,M,CLR,M,M,M,M,M,M,M,M,M,M,M,M,M,M,66.20,K10U 160655Z AUTO 18007KT 10SM CLR 19/06 A3026 RMK AO2,M
EKO,2023-08-16 06:56,-115.7860,40.8242,1367.00,77.00,44.00,30.90,320.00,3.00,0.00,30.25,1017.00,10.00,M,BKN,M,M,M,11000.00,M,M,M,M,M,M,M,M,M,M,77.00,KEKO 160656Z AUTO 32003KT 10SM BKN110 25/07 A3025 RMK AO2 SLP170 T02500067,M
WMC,2023-08-16 06:56,-117.8072,40.9019,1315.00,76.00,40.00,27.38,160.00,5.00,0.00,30.18,1015.80,10.00,M,CLR,M,M,M,M,M,M,M,M,M,M,M,M,M,M,76.00,KWMC 160656Z AUTO 16005KT 10SM CLR 24/04 A3018 RMK AO2 SLP158 T02440044,M
NFL,2023-08-16 06:56,-118.7010,39.4166,1199.00,70.00,45.00,40.63,40.00,4.00,0.00,30.18,1018.30,10.00,M,CLR,M,M,M,M,M,M,M,M,M,M,M,M,M,M,70.00,KNFL 160656Z AUTO 04004KT 10SM CLR 21/07 A3018 RMK AO2 SLP183 T02110072,M
HND,2023-08-16 06:56,-115.1344,35.9729,742.79,91.00,54.00,28.60,360.00,3.00,0.00,30.05,1015.40,10.00,M,CLR,M,M,M,M,M,M,M,M,M,M,M,M,M,M,88.78,KHND 160656Z AUTO 36003KT 10SM CLR 33/12 A3005 RMK AO2 SLP154 T03280122 404000272,M
TPH,2023-08-16 06:56,-117.0904,38.0505,1654.00,70.00,43.00,37.64,330.00,7.00,0.00,30.29,1017.30,10.00,M,CLR,M,M,M,M,M,M,M,M,M,M,M,M,M,M,70.00,KTPH 160656Z AUTO 33007KT 10SM CLR 21/06 A3029 RMK AO2 SLP173 T02110061,M
LAS,2023-08-16 06:56,-115.1634,36.0719,663.00,91.00,58.00,33.06,20.00,10.00,0.00,30.01,1012.90,10.00,M,FEW,OVC,M,M,12000.00,16000.00,M,M,M,M,M,M,M,M,M,89.92,KLAS 160656Z 02010KT 10SM FEW120 OVC160 33/14 A3001 RMK AO2 SLP129 OVC V BKN T03280144,M
BVU,2023-08-16 07:15,-114.8611,35.9475,671.00,89.60,55.40,31.45,40.00,5.00,0.00,30.00,M,10.00,M,CLR,M,M,M,M,M,M,M,M,M,M,M,M,M,M,87.78,KBVU 160715Z AUTO 04005KT 10SM CLR 32/13 A3000 RMK AO2,M
CXP,2023-08-16 07:15,-119.7326,39.1923,1431.00,68.00,50.00,52.51,0.00,0.00,0.00,30.28,M,10.00,M,CLR,M,M,M,M,M,M,M,M,M,M,M,M,M,M,68.00,KCXP 160715Z AUTO 00000KT 10SM CLR 20/10 A3028 RMK AO2,M
RTS,2023-08-16 07:15,-119.8764,39.6682,1539.00,69.80,42.80,37.61,300.00,3.00,0.00,30.29,M,10.00,M,FEW,M,M,M,12000.00,M,M,M,M,M,M,M,M,M,M,69.80,KRTS 160715Z AUTO 30003KT 10SM FEW120 21/06 A3029 RMK AO2,M
05U,2023-08-16 07:15,-116.0051,39.6042,1811.23,66.20,55.40,68.15,M,M,0.00,30.37,M,9.00,M,M,M,M,M,M,M,M,M,M,M,M,M,M,M,M,66.20,K05U 160715Z AUTO 9SM 19/13 A3037 RMK A01,M
MEV,2023-08-16 07:15,-119.7500,38.9963,1441.42,60.80,50.00,67.54,M,3.00,0.00,30.26,M,10.00,M,FEW,SCT,BKN,M,6000.00,8500.00,11000.00,M,M,M,M,M,M,M,M,60.80,KMEV 160715Z AUTO VRB03KT 10SM FEW060 SCT085 BKN110 16/10 A3026 RMK AO2,M
HTH,2023-08-16 07:15,-118.6315,38.5448,1282.89,77.00,42.80,29.51,M,5.00,0.00,30.20,M,10.00,M,CLR,M,M,M,M,M,M,M,M,M,M,M,M,M,M,77.00,KHTH 160715Z AUTO VRB05KT 10SM CLR 25/06 A3020 RMK A01,M
10U,2023-08-16 07:15,-116.1876,41.9532,1637.00,68.00,42.80,40.00,140.00,8.00,0.00,30.26,M,10.00,M,CLR,M,M,M,M,M,M,M,M,M,M,M,M,M,M,68.00,K10U 160715Z AUTO 14008KT 10SM CLR 20/06 A3026 RMK AO2,M
BAM,2023-08-16 07:15,-116.8743,40.5990,1382.36,80.60,44.60,28.08,200.00,8.00,0.00,30.22,M,10.00,M,SCT,M,M,M,12000.00,M,M,M,M,M,M,M,M,M,M,79.42,KBAM 160715Z AUTO 20008KT 10SM SCT120 27/07 A3022 RMK AO1,M
TMT,2023-08-16 07:15,-117.1971,39.4643,1749.34,69.40,47.30,45.24,350.00,6.00,0.00,30.32,M,M,M,SCT,M,M,M,11000.00,M,M,M,M,M,M,M,M,M,M,69.40,KTMT 160715Z AUTO 35006KT SCT110 21/09 A3032 RMK AO2 T02080085 PWINO,M
BVU,2023-08-16 07:35,-114.8611,35.9475,671.00,89.60,55.40,31.45,70.00,4.00,0.00,30.00,M,10.00,M,CLR,M,M,M,M,M,M,M,M,M,M,M,M,M,M,87.78,KBVU 160735Z AUTO 07004KT 10SM CLR 32/13 A3000 RMK AO2,M
CXP,2023-08-16 07:35,-119.7326,39.1923,1431.00,68.00,48.20,49.10,330.00,3.00,0.00,30.28,M,10.00,M,CLR,M,M,M,M,M,M,M,M,M,M,M,M,M,M,68.00,KCXP 160735Z AUTO 33003KT 10SM CLR 20/09 A3028 RMK AO2,M
RTS,2023-08-16 07:35,-119.8764,39.6682,1539.00,69.80,41.00,35.09,350.00,4.00,0.00,30.28,M,10.00,M,FEW,M,M,M,12000.00,M,M,M,M,M,M,M,M,M,M,69.80,KRTS 160735Z AUTO 35004KT 10SM FEW120 21/05 A3028 RMK AO2,M
05U,2023-08-16 07:35,-116.0051,39.6042,1811.23,62.60,57.20,82.50,M,M,0.00,30.36,M,10.00,M,M,M,M,M,M,M,M,M,M,M,M,M,M,M,M,62.60,K05U 160735Z AUTO 10SM 17/14 A3036 RMK A01,M
MEV,2023-08-16 07:35,-119.7500,38.9963,1441.42,62.60,50.00,63.38,M,3.00,0.00,30.26,M,10.00,11.00,FEW,FEW,SCT,M,4300.00,6000.00,8500.00,M,M,M,M,M,M,M,M,62.60,KMEV 160735Z AUTO VRB03G11KT 10SM FEW043 FEW060 SCT085 17/10 A3026 RMK AO2,M
BAM,2023-08-16 07:35,-116.8743,40.5990,1382.36,82.40,44.60,26.49,220.00,7.00,0.00,30.21,M,10.00,M,SCT,M,M,M,11000.00,M,M,M,M,M,M,M,M,M,M,80.50,KBAM 160735Z AUTO 22007KT 10SM SCT110 28/07 A3021 RMK AO1,M
HTH,2023-08-16 07:35,-118.6315,38.5448,1282.89,77.00,41.00,27.53,90.00,7.00,0.00,30.20,M,10.00,M,CLR,M,M,M,M,M,M,M,M,M,M,M,M,M,M,77.00,KHTH 160735Z AUTO 09007KT 10SM CLR 25/05 A3020 RMK A01,M
10U,2023-08-16 07:35,-116.1876,41.9532,1637.00,66.20,42.80,42.57,190.00,4.00,0.00,30.26,M,10.00,M,CLR,M,M,M,M,M,M,M,M,M,M,M,M,M,M,66.20,K10U 160735Z AUTO 19004KT 10SM CLR 19/06 A3026 RMK AO2,M
TMT,2023-08-16 07:35,-117.1971,39.4643,1749.34,68.70,47.50,46.69,220.00,4.00,0.00,30.33,M,M,M,BKN,M,M,M,11000.00,M,M,M,M,M,M,M,M,M,M,68.70,KTMT 160735Z AUTO 22004KT BKN110 20/09 A3033 RMK AO2 T02040086 PWINO,M
05U,2023-08-16 07:50,-116.0051,39.6042,1811.23,64.40,57.20,77.45,M,M,0.00,30.35,M,10.00,M,M,M,M,M,M,M,M,M,M,M,M,M,M,M,M,64.40,K05U 160750Z AUTO 10SM 18/14 A3035 RMK A01,M
P68,2023-08-16 07:53,-116.0056,39.6014,1993.00,64.00,58.00,80.83,120.00,6.00,0.00,30.33,1018.20,M,M,M,M,M,M,M,M,M,M,M,M,M,M,M,M,M,64.00,KP68 160753Z AUTO 12006KT 18/14 A3033 RMK AO1 SLP182 T01780144 403000106,M
ELY,2023-08-16 07:53,-114.8453,39.2950,1909.00,63.00,51.00,64.85,140.00,6.00,0.00,30.36,1017.20,10.00,M,SCT,M,M,M,12000.00,M,M,M,M,M,M,M,M,M,M,63.00,KELY 160753Z AUTO 14006KT 10SM SCT120 17/11 A3036 RMK AO2 SLP172 T01720106 403000106 $,M
VGT,2023-08-16 07:53,-115.1933,36.2111,667.00,92.00,58.00,32.04,80.00,5.00,0.00,30.00,1014.10,10.00,M,CLR,M,M,M,M,M,M,M,M,M,M,M,M,M,M,90.94,KVGT 160753Z AUTO 08005KT 10SM CLR 33/14 A3000 RMK AO2 SLP141 T03330144 404060317,M
LOL,2023-08-16 07:53,-118.5701,40.0684,1192.43,70.00,46.00,42.20,0.00,0.00,0.00,30.17,1016.90,10.00,M,FEW,M,M,M,12000.00,M,M,M,M,M,M,M,M,M,M,70.00,KLOL 160753Z AUTO 00000KT 10SM FEW120 21/08 A3017 RMK AO2 SLP169 T02110078 403560117,M
BVU,2023-08-16 07:55,-114.8611,35.9475,671.00,89.60,55.40,31.45,40.00,7.00,0.00,29.99,M,10.00,M,CLR,M,M,M,M,M,M,M,M,M,M,M,M,M,M,87.78,KBVU 160755Z AUTO 04007KT 10SM CLR 32/13 A2999 RMK AO2,M
CXP,2023-08-16 07:55,-119.7326,39.1923,1431.00,68.00,50.00,52.51,300.00,4.00,0.00,30.27,M,10.00,M,CLR,M,M,M,M,M,M,M,M,M,M,M,M,M,M,68.00,KCXP 160755Z AUTO 30004KT 10SM CLR 20/10 A3027 RMK AO2,M
INS,2023-08-16 07:55,-115.6733,36.5872,955.00,86.00,52.70,31.94,90.00,12.00,0.00,30.06,1012.20,10.00,M,OVC,M,M,M,18000.00,M,M,M,M,M,M,M,M,M,M,84.02,KINS 160755Z AUTO 09012KT 10SM OVC180 30/12 A3006 RMK AO2 SLP122 T03000115 403750232 $,M
RNO,2023-08-16 07:55,-119.7711,39.4839,1341.00,74.00,48.00,39.74,200.00,3.00,0.00,30.23,1017.30,10.00,M,FEW,SCT,M,M,13000.00,18000.00,M,M,M,M,M,M,M,M,M,74.00,KRNO 160755Z 20003KT 10SM FEW130 SCT180 23/09 A3023 RMK AO2 SLP173 T02330089 403440156,M
LSV,2023-08-16 07:55,-115.0343,36.2362,570.00,89.60,58.30,34.92,50.00,6.00,0.00,29.96,1011.50,10.00,M,BKN,BKN,M,M,18000.00,21000.00,M,M,M,M,M,M,M,M,M,88.62,KLSV 160755Z AUTO 05006KT 10SM BKN180 BKN210 32/15 A2996 RMK AO2 SLP115 T03200146 404130300 $,M
RTS,2023-08-16 07:55,-119.8764,39.6682,1539.00,68.00,41.00,37.32,0.00,0.00,0.00,30.28,M,10.00,M,CLR,M,M,M,M,M,M,M,M,M,M,M,M,M,M,68.00,KRTS 160755Z AUTO 00000KT 10SM CLR 20/05 A3028 RMK AO2,M
MEV,2023-08-16 07:55,-119.7500,38.9963,1441.42,60.80,50.00,67.54,80.00,6.00,0.00,30.26,M,10.00,M,CLR,M,M,M,M,M,M,M,M,M,M,M,M,M,M,60.80,KMEV 160755Z AUTO 08006KT 10SM CLR 16/10 A3026 RMK AO2,M
HTH,2023-08-16 07:55,-118.6315,38.5448,1282.89,77.00,42.80,29.51,90.00,5.00,0.00,30.21,M,10.00,M,CLR,M,M,M,M,M,M,M,M,M,M,M,M,M,M,77.00,KHTH 160755Z AUTO 09005KT 10SM CLR 25/06 A3021 RMK A01,M
BAM,2023-08-16 07:55,-116.8743,40.5990,1382.36,80.60,44.60,28.08,220.00,8.00,0.00,30.21,M,10.00,M,SCT,M,M,M,11000.00,M,M,M,M,M,M,M,M,M,M,79.42,KBAM 160755Z AUTO 22008KT 10SM SCT110 27/07 A3021 RMK AO1,M
TMT,2023-08-16 07:55,-117.1971,39.4643,1749.34,69.30,47.00,44.88,210.00,3.00,0.00,30.33,M,M,M,BKN,M,M,M,11000.00,M,M,M,M,M,M,M,M,M,M,69.30,KTMT 160755Z AUTO 21003KT BKN110 21/08 A3033 RMK AO2 T02070083 402960027 PWINO,M
10U,2023-08-16 07:55,-116.1876,41.9532,1637.00,68.00,42.80,40.00,140.00,6.00,0.00,30.26,M,10.00,M,CLR,M,M,M,M,M,M,M,M,M,M,M,M,M,M,68.00,K10U 160755Z AUTO 14006KT 10SM CLR 20/06 A3026 RMK AO2,M
EKO,2023-08-16 07:56,-115.7860,40.8242,1367.00,75.00,45.00,34.31,0.00,0.00,0.00,30.25,1017.10,10.00,M,SCT,M,M,M,11000.00,M,M,M,M,M,M,M,M,M,M,75.00,KEKO 160756Z AUTO 00000KT 10SM SCT110 24/07 A3025 RMK AO2 SLP171 T02390072 403500122,M
WMC,2023-08-16 07:56,-117.8072,40.9019,1315.00,80.00,41.00,24.94,170.00,9.00,0.00,30.18,1015.50,10.00,M,CLR,M,M,M,M,M,M,M,M,M,M,M,M,M,M,78.87,KWMC 160756Z AUTO 17009KT 10SM CLR 27/05 A3018 RMK AO2 SLP155 T02670050 403670133,M
NFL,2023-08-16 07:56,-118.7010,39.4166,1199.00,67.00,44.00,43.35,90.00,3.00,0.00,30.18,1018.40,10.00,M,CLR,M,M,M,M,M,M,M,M,M,M,M,M,M,M,67.00,KNFL 160756Z AUTO 09003KT 10SM CLR 19/07 A3018 RMK AO2 SLP184 T01940067 403560144,M
HND,2023-08-16 07:56,-115.1344,35.9729,742.79,90.00,57.00,32.91,30.00,8.00,0.00,30.04,1015.30,10.00,M,CLR,M,M,M,M,M,M,M,M,M,M,M,M,M,M,88.61,KHND 160756Z AUTO 03008KT 10SM CLR 32/14 A3004 RMK AO2 SLP153 T03220139,M
TPH,2023-08-16 07:56,-117.0904,38.0505,1654.00,68.00,46.00,45.19,20.00,9.00,0.00,30.29,1017.40,10.00,M,CLR,M,M,M,M,M,M,M,M,M,M,M,M,M,M,68.00,KTPH 160756Z AUTO 02009KT 10SM CLR 20/08 A3029 RMK AO2 SLP174 T02000078 403220144,M
LAS,2023-08-16 07:56,-115.1634,36.0719,663.00,90.00,58.00,34.11,40.00,7.00,0.00,30.00,1012.80,10.00,M,FEW,OVC,M,M,12000.00,16000.00,M,M,M,M,M,M,M,M,M,88.92,KLAS 160756Z 04007KT 10SM FEW120 OVC160 32/14 A3000 RMK AO2 SLP128 T03220144 404060300,M
BVU,2023-08-16 08:15,-114.8611,35.9475,671.00,89.60,57.20,33.56,40.00,9.00,0.00,29.99,M,10.00,M,CLR,M,M,M,M,M,M,M,M,M,M,M,M,M,M,88.28,KBVU 160815Z AUTO 04009KT 10SM CLR 32/14 A2999 RMK AO2,M
CXP,2023-08-16 08:15,-119.7326,39.1923,1431.00,64.40,51.80,63.60,0.00,0.00,0.00,30.27,M,10.00,M,CLR,M,M,M,M,M,M,M,M,M,M,M,M,M,M,64.40,KCXP 160815Z AUTO 00000KT 10SM CLR 18/11 A3027 RMK AO2,M
RTS,2023-08-16 08:15,-119.8764,39.6682,1539.00,66.20,41.00,39.72,340.00,5.00,0.00,30.28,M,10.00,M,CLR,M,M,M,M,M,M,M,M,M,M,M,M,M,M,66.20,KRTS 160815Z AUTO 34005KT 10SM CLR 19/05 A3028 RMK AO2,M
05U,2023-08-16 08:15,-116.0051,39.6042,1811.23,64.40,57.20,77.45,M,M,0.00,30.35,M,10.00,M,M,M,M,M,M,M,M,M,M,M,M,M,M,M,M,64.40,K05U 160815Z AUTO 10SM 18/14 A3035 RMK A01,M
MEV,2023-08-16 08:15,-119.7500,38.9963,1441.42,60.80,50.00,67.54,0.00,0.00,0.00,30.26,M,10.00,M,CLR,M,M,M,M,M,M,M,M,M,M,M,M,M,M,60.80,KMEV 160815Z AUTO 00000KT 10SM CLR 16/10 A3026 RMK AO2,M
BAM,2023-08-16 08:15,-116.8743,40.5990,1382.36,80.60,44.60,28.08,230.00,7.00,0.00,30.21,M,10.00,M,CLR,M,M,M,M,M,M,M,M,M,M,M,M,M,M,79.42,KBAM 160815Z AUTO 23007KT 10SM CLR 27/07 A3021 RMK AO1,M
HTH,2023-08-16 08:15,-118.6315,38.5448,1282.89,75.20,42.80,31.34,0.00,0.00,0.00,30.21,M,10.00,M,CLR,M,M,M,M,M,M,M,M,M,M,M,M,M,M,75.20,KHTH 160815Z AUTO 00000KT 10SM CLR 24/06 A3021 RMK A01,M
10U,2023-08-16 08:15,-116.1876,41.9532,1637.00,64.40,42.80,45.32,170.00,5.00,0.00,30.26,M,10.00,M,CLR,M,M,M,M,M,M,M,M,M,M,M,M,M,M,64.40,K10U 160815Z AUTO 17005KT 10SM CLR 18/06 A3026 RMK AO2,M
TMT,2023-08-16 08:15,-117.1971,39.4643,1749.34,67.30,46.80,47.72,0.00,0.00,0.00,30.33,M,M,M,SCT,M,M,M,10000.00,M,M,M,M,M,M,M,M,M,M,67.30,KTMT 160815Z AUTO 00000KT SCT100 20/08 A3033 RMK AO2 T01960082 PWINO,M
05U,2023-08-16 08:30,-116.0051,39.6042,1811.23,62.60,57.20,82.50,M,M,0.00,30.35,M,10.00,M,M,M,M,M,M,M,M,M,M,M,M,M,M,M,M,62.60,K05U 160830Z AUTO 10SM 17/14 A3035 RMK A01,M
BVU,2023-08-16 08:35,-114.8611,35.9475,671.00,89.60,55.40,31.45,40.00,9.00,0.00,29.99,M,10.00,M,CLR,M,M,M,M,M,M,M,M,M,M,M,M,M,M,87.78,KBVU 160835Z AUTO 04009KT 10SM CLR 32/13 A2999 RMK AO2,M
CXP,2023-08-16 08:35,-119.7326,39.1923,1431.00,66.20,50.00,55.88,0.00,0.00,0.00,30.28,M,10.00,M,CLR,M,M,M,M,M,M,M,M,M,M,M,M,M,M,66.20,KCXP 160835Z AUTO 00000KT 10SM CLR 19/10 A3028 RMK AO2,M
RTS,2023-08-16 08:35,-119.8764,39.6682,1539.00,66.20,41.00,39.72,350.00,6.00,0.00,30.28,M,10.00,M,FEW,M,M,M,12000.00,M,M,M,M,M,M,M,M,M,M,66.20,KRTS 160835Z AUTO 35006KT 10SM FEW120 19/05 A3028 RMK AO2,M
MEV,2023-08-16 08:35,-119.7500,38.9963,1441.42,59.00,50.00,72.01,0.00,0.00,0.00,30.26,M,10.00,M,CLR,M,M,M,M,M,M,M,M,M,M,M,M,M,M,59.00,KMEV 160835Z AUTO 00000KT 10SM CLR 15/10 A3026 RMK AO2,M
HTH,2023-08-16 08:35,-118.6315,38.5448,1282.89,75.20,42.80,31.34,0.00,0.00,0.00,30.21,M,10.00,M,CLR,M,M,M,M,M,M,M,M,M,M,M,M,M,M,75.20,KHTH 160835Z AUTO 00000KT 10SM CLR 24/06 A3021 RMK A01,M
10U,2023-08-16 08:35,-116.1876,41.9532,1637.00,66.20,42.80,42.57,140.00,9.00,0.00,30.26,M,10.00,M,CLR,M,M,M,M,M,M,M,M,M,M,M,M,M,M,66.20,K10U 160835Z AUTO 14009KT 10SM CLR 19/06 A3026 RMK AO2,M
BAM,2023-08-16 08:35,-116.8743,40.5990,1382.36,78.80,44.60,29.79,210.00,6.00,0.00,30.21,M,10.00,M,CLR,M,M,M,M,M,M,M,M,M,M,M,M,M,M,78.80,KBAM 160835Z AUTO 21006KT 10SM CLR 26/07 A3021 RMK AO1,M
TMT,2023-08-16 08:35,-117.1971,39.4643,1749.34,64.20,46.40,52.35,200.00,3.00,0.00,30.33,M,M,M,CLR,M,M,M,M,M,M,M,M,M,M,M,M,M,M,64.20,KTMT 160835Z AUTO 20003KT CLR 18/08 A3033 RMK AO2 T01790080 PWINO,M
P68,2023-08-16 08:53,-116.0056,39.6014,1993.00,63.00,58.00,83.72,130.00,7.00,0.00,30.32,1017.80,M,M,M,M,M,M,M,M,M,M,M,M,M,M,M,M,M,63.00,KP68 160853Z AUTO 13007KT 17/14 A3032 RMK AO1 SLP178 T01720144 58008,M
ELY,2023-08-16 08:53,-114.8453,39.2950,1909.00,63.00,51.00,64.85,200.00,5.00,0.00,30.34,1017.00,10.00,M,CLR,M,M,M,M,M,M,M,M,M,M,M,M,M,M,63.00,KELY 160853Z AUTO 20005KT 10SM CLR 17/11 A3034 RMK AO2 SLP170 T01720106 58010 $,M
VGT,2023-08-16 08:53,-115.1933,36.2111,667.00,91.00,58.00,33.06,80.00,6.00,0.00,30.00,1014.10,10.00,M,CLR,M,M,M,M,M,M,M,M,M,M,M,M,M,M,89.92,KVGT 160853Z AUTO 08006KT 10SM CLR 33/14 A3000 RMK AO2 SLP141 T03280144 55006,M
LOL,2023-08-16 08:53,-118.5701,40.0684,1192.43,68.00,46.00,45.19,0.00,0.00,0.00,30.17,1016.80,10.00,M,SCT,M,M,M,12000.00,M,M,M,M,M,M,M,M,M,M,68.00,KLOL 160853Z AUTO 00000KT 10SM SCT120 20/08 A3017 RMK AO2 SLP168 T02000078 50002,M
BVU,2023-08-16 08:55,-114.8611,35.9475,671.00,89.60,55.40,31.45,40.00,7.00,0.00,29.99,M,10.00,M,CLR,M,M,M,M,M,M,M,M,M,M,M,M,M,M,87.78,KBVU 160855Z AUTO 04007KT 10SM CLR 32/13 A2999 RMK AO2,M
CXP,2023-08-16 08:55,-119.7326,39.1923,1431.00,64.40,51.80,63.60,0.00,0.00,0.00,30.27,M,10.00,M,CLR,M,M,M,M,M,M,M,M,M,M,M,M,M,M,64.40,KCXP 160855Z AUTO 00000KT 10SM CLR 18/11 A3027 RMK AO2,M
INS,2023-08-16 08:55,-115.6733,36.5872,955.00,85.00,53.40,33.84,100.00,12.00,0.00,30.06,1012.20,10.00,M,BKN,BKN,M,M,17000.00,19000.00,M,M,M,M,M,M,M,M,M,83.34,KINS 160855Z AUTO 10012KT 10SM BKN170 BKN190 29/12 A3006 RMK AO2 SLP122 T02940119 56002 $,M
RNO,2023-08-16 08:55,-119.7711,39.4839,1341.00,71.00,50.00,47.39,250.00,3.00,0.00,30.23,1017.20,10.00,M,SCT,M,M,M,18000.00,M,M,M,M,M,M,M,M,M,M,71.00,KRNO 160855Z 25003KT 10SM SCT180 22/10 A3023 RMK AO2 SLP172 T02170100 51001,M
LSV,2023-08-16 08:55,-115.0343,36.2362,570.00,88.70,57.60,35.03,40.00,8.00,0.00,29.96,1011.50,10.00,M,BKN,M,M,M,18000.00,M,M,M,M,M,M,M,M,M,M,87.53,KLSV 160855Z AUTO 04008KT 10SM BKN180 32/14 A2996 RMK AO2 SLP115 T03150142 55006 $,M
RTS,2023-08-16 08:55,-119.8764,39.6682,1539.00,64.40,41.00,42.28,360.00,6.00,0.00,30.28,M,10.00,M,SCT,M,M,M,12000.00,M,M,M,M,M,M,M,M,M,M,64.40,KRTS 160855Z AUTO 36006KT 10SM SCT120 18/05 A3028 RMK AO2,M
05U,2023-08-16 08:55,-116.0051,39.6042,1811.23,64.40,57.20,77.45,M,M,0.00,30.35,M,10.00,M,M,M,M,M,M,M,M,M,M,M,M,M,M,M,M,64.40,K05U 160855Z AUTO 10SM 18/14 A3035 RMK A01,M
MEV,2023-08-16 08:55,-119.7500,38.9963,1441.42,57.20,50.00,76.82,60.00,3.00,0.00,30.26,M,10.00,M,FEW,M,M,M,12000.00,M,M,M,M,M,M,M,M,M,M,57.20,KMEV 160855Z AUTO 06003KT 10SM FEW120 14/10 A3026 RMK AO2,M
HTH,2023-08-16 08:55,-118.6315,38.5448,1282.89,75.20,42.80,31.34,0.00,0.00,0.00,30.22,M,10.00,M,CLR,M,M,M,M,M,M,M,M,M,M,M,M,M,M,75.20,KHTH 160855Z AUTO 00000KT 10SM CLR 24/06 A3022 RMK A01,M
10U,2023-08-16 08:55,-116.1876,41.9532,1637.00,66.20,42.80,42.57,140.00,7.00,0.00,30.26,M,10.00,M,CLR,M,M,M,M,M,M,M,M,M,M,M,M,M,M,66.20,K10U 160855Z AUTO 14007KT 10SM CLR 19/06 A3026 RMK AO2,M
BAM,2023-08-16 08:55,-116.8743,40.5990,1382.36,78.80,44.60,29.79,220.00,7.00,0.00,30.20,M,10.00,M,CLR,M,M,M,M,M,M,M,M,M,M,M,M,M,M,78.80,KBAM 160855Z AUTO 22007KT 10SM CLR 26/07 A3020 RMK AO1,M
TMT,2023-08-16 08:55,-117.1971,39.4643,1749.34,63.00,47.00,55.85,270.00,6.00,0.00,30.33,M,M,M,SCT,M,M,M,9500.00,M,M,M,M,M,M,M,M,M,M,63.00,KTMT 160855Z AUTO 27006KT SCT095 17/08 A3033 RMK AO2 T01730084 PWINO,M
EKO,2023-08-16 08:56,-115.7860,40.8242,1367.00,73.00,45.00,36.70,0.00,0.00,0.00,30.24,1016.60,10.00,M,CLR,M,M,M,M,M,M,M,M,M,M,M,M,M,M,73.00,KEKO 160856Z AUTO 00000KT 10SM CLR 23/07 A3024 RMK AO2 SLP166 T02280072 58001,M
WMC,2023-08-16 08:56,-117.8072,40.9019,1315.00,76.00,41.00,28.47,190.00,6.00,0.00,30.18,1015.70,10.00,M,CLR,M,M,M,M,M,M,M,M,M,M,M,M,M,M,76.00,KWMC 160856Z AUTO 19006KT 10SM CLR 24/05 A3018 RMK AO2 SLP157 T02440050 50000,M
NFL,2023-08-16 08:56,-118.7010,39.4166,1199.00,69.00,44.00,40.47,190.00,7.00,0.00,30.17,1018.10,10.00,M,CLR,M,M,M,M,M,M,M,M,M,M,M,M,M,M,69.00,KNFL 160856Z AUTO 19007KT 10SM CLR 21/07 A3017 RMK AO2 SLP181 T02060067 50000,M
HND,2023-08-16 08:56,-115.1344,35.9729,742.79,88.00,59.00,37.66,0.00,0.00,0.00,30.05,1015.50,10.00,M,CLR,M,M,M,M,M,M,M,M,M,M,M,M,M,M,87.31,KHND 160856Z AUTO 00000KT 10SM CLR 31/15 A3005 RMK AO2 SLP155 T03110150 55004,M
TPH,2023-08-16 08:56,-117.0904,38.0505,1654.00,67.00,45.00,45.04,340.00,9.00,0.00,30.29,1017.30,10.00,M,CLR,M,M,M,M,M,M,M,M,M,M,M,M,M,M,67.00,KTPH 160856Z AUTO 34009KT 10SM CLR 19/07 A3029 RMK AO2 SLP173 T01940072 50000,M
LAS,2023-08-16 08:56,-115.1634,36.0719,663.00,90.00,58.00,34.11,30.00,5.00,0.00,30.01,1012.90,10.00,M,OVC,M,M,M,15000.00,M,M,M,M,M,M,M,M,M,M,88.92,KLAS 160856Z 03005KT 10SM OVC150 32/14 A3001 RMK AO2 SLP129 T03220144 55003,M
05U,2023-08-16 09:10,-116.0051,39.6042,1811.23,64.40,57.20,77.45,M,M,0.00,30.34,M,10.00,M,M,M,M,M,M,M,M,M,M,M,M,M,M,M,M,64.40,K05U 160910Z AUTO 10SM 18/14 A3034 RMK A01,M
BVU,2023-08-16 09:15,-114.8611,35.9475,671.00,89.60,55.40,31.45,320.00,5.00,0.00,29.99,M,10.00,M,CLR,M,M,M,M,M,M,M,M,M,M,M,M,M,M,87.78,KBVU 160915Z AUTO 32005KT 10SM CLR 32/13 A2999 RMK AO2,M
CXP,2023-08-16 09:15,-119.7326,39.1923,1431.00,62.60,51.80,67.75,0.00,0.00,0.00,30.27,M,10.00,M,CLR,M,M,M,M,M,M,M,M,M,M,M,M,M,M,62.60,KCXP 160915Z AUTO 00000KT 10SM CLR 17/11 A3027 RMK AO2,M
RTS,2023-08-16 09:15,-119.8764,39.6682,1539.00,62.60,41.00,45.04,0.00,0.00,0.00,30.28,M,10.00,M,SCT,M,M,M,12000.00,M,M,M,M,M,M,M,M,M,M,62.60,KRTS 160915Z AUTO 00000KT 10SM SCT120 17/05 A3028 RMK AO2,M
MEV,2023-08-16 09:15,-119.7500,38.9963,1441.42,57.20,50.00,76.82,50.00,7.00,0.00,30.26,M,10.00,M,CLR,M,M,M,M,M,M,M,M,M,M,M,M,M,M,57.20,KMEV 160915Z AUTO 05007KT 10SM CLR 14/10 A3026 RMK AO2,M
BAM,2023-08-16 09:15,-116.8743,40.5990,1382.36,78.80,44.60,29.79,180.00,5.00,0.00,30.20,M,10.00,M,SCT,M,M,M,11000.00,M,M,M,M,M,M,M,M,M,M,78.80,KBAM 160915Z AUTO 18005KT 10SM SCT110 26/07 A3020 RMK AO1,M
HTH,2023-08-16 09:15,-118.6315,38.5448,1282.89,73.40,44.60,35.66,0.00,0.00,0.00,30.22,M,10.00,M,CLR,M,M,M,M,M,M,M,M,M,M,M,M,M,M,73.40,KHTH 160915Z AUTO 00000KT 10SM CLR 23/07 A3022 RMK A01,M
10U,2023-08-16 09:15,-116.1876,41.9532,1637.00,64.40,42.80,45.32,180.00,6.00,0.00,30.26,M,10.00,M,CLR,M,M,M,M,M,M,M,M,M,M,M,M,M,M,64.40,K10U 160915Z AUTO 18006KT 10SM CLR 18/06 A3026 RMK AO2,M
TMT,2023-08-16 09:15,-117.1971,39.4643,1749.34,63.50,47.30,55.50,250.00,6.00,0.00,30.33,M,M,M,BKN,M,M,M,9500.00,M,M,M,M,M,M,M,M,M,M,63.50,KTMT 160915Z AUTO 25006KT BKN095 18/09 A3033 RMK AO2 T01750085 PWINO,M
BVU,2023-08-16 09:35,-114.8611,35.9475,671.00,89.60,57.20,33.56,0.00,0.00,0.00,29.99,M,10.00,M,CLR,M,M,M,M,M,M,M,M,M,M,M,M,M,M,88.28,KBVU 160935Z AUTO 00000KT 10SM CLR 32/14 A2999 RMK AO2,M
CXP,2023-08-16 09:35,-119.7326,39.1923,1431.00,60.80,51.80,72.20,0.00,0.00,0.00,30.27,M,10.00,M,CLR,M,M,M,M,M,M,M,M,M,M,M,M,M,M,60.80,KCXP 160935Z AUTO 00000KT 10SM CLR 16/11 A3027 RMK AO2,M
RTS,2023-08-16 09:35,-119.8764,39.6682,1539.00,62.60,42.80,48.28,330.00,6.00,0.00,30.28,M,10.00,M,FEW,M,M,M,12000.00,M,M,M,M,M,M,M,M,M,M,62.60,KRTS 160935Z AUTO 33006KT 10SM FEW120 17/06 A3028 RMK AO2,M
05U,2023-08-16 09:35,-116.0051,39.6042,1811.23,62.60,55.40,77.29,M,M,0.00,30.34,M,10.00,M,M,M,M,M,M,M,M,M,M,M,M,M,M,M,M,62.60,K05U 160935Z AUTO 10SM 17/13 A3034 RMK A01,M
MEV,2023-08-16 09:35,-119.7500,38.9963,1441.42,57.20,50.00,76.82,80.00,4.00,0.00,30.26,M,10.00,M,CLR,M,M,M,M,M,M,M,M,M,M,M,M,M,M,57.20,KMEV 160935Z AUTO 08004KT 10SM CLR 14/10 A3026 RMK AO2,M
HTH,2023-08-16 09:35,-118.6315,38.5448,1282.89,71.60,46.40,40.57,310.00,4.00,0.00,30.22,M,10.00,M,CLR,M,M,M,M,M,M,M,M,M,M,M,M,M,M,71.60,KHTH 160935Z AUTO 31004KT 10SM CLR 22/08 A3022 RMK A01,M
10U,2023-08-16 09:35,-116.1876,41.9532,1637.00,66.20,42.80,42.57,180.00,6.00,0.00,30.26,M,10.00,M,CLR,M,M,M,M,M,M,M,M,M,M,M,M,M,M,66.20,K10U 160935Z AUTO 18006KT 10SM CLR 19/06 A3026 RMK AO2,M
BAM,2023-08-16 09:35,-116.8743,40.5990,1382.36,77.00,44.60,31.62,250.00,5.00,0.00,30.20,M,10.00,M,SCT,M,M,M,11000.00,M,M,M,M,M,M,M,M,M,M,77.00,KBAM 160935Z AUTO 25005KT 10SM SCT110 25/07 A3020 RMK AO1,M
TMT,2023-08-16 09:35,-117.1971,39.4643,1749.34,63.30,49.50,60.69,240.00,5.00,0.00,30.32,M,M,M,BKN,M,M,M,9500.00,M,M,M,M,M,M,M,M,M,M,63.30,KTMT 160935Z AUTO 24005KT BKN095 17/10 A3032 RMK AO2 T01740097 PWINO,M
05U,2023-08-16 09:50,-116.0051,39.6042,1811.23,64.40,51.80,63.60,M,M,0.00,30.34,M,10.00,M,M,M,M,M,M,M,M,M,M,M,M,M,M,M,M,64.40,K05U 160950Z AUTO 10SM 18/11 A3034 RMK A01,M
P68,2023-08-16 09:53,-116.0056,39.6014,1993.00,65.00,52.00,62.74,190.00,7.00,0.00,30.31,1017.60,M,M,M,M,M,M,M,M,M,M,M,M,M,M,M,M,M,65.00,KP68 160953Z AUTO 19007KT 18/11 A3031 RMK AO1 SLP176 T01830111,M
ELY,2023-08-16 09:53,-114.8453,39.2950,1909.00,61.00,52.00,72.22,180.00,6.00,0.00,30.33,1017.30,10.00,M,OVC,M,M,M,11000.00,M,M,M,M,M,M,M,M,M,M,61.00,KELY 160953Z AUTO 18006KT 10SM OVC110 16/11 A3033 RMK AO2 SLP173 T01610111 $,M
VGT,2023-08-16 09:53,-115.1933,36.2111,667.00,90.00,58.00,34.11,80.00,6.00,0.00,29.99,1014.00,10.00,M,CLR,M,M,M,M,M,M,M,M,M,M,M,M,M,M,88.92,KVGT 160953Z AUTO 08006KT 10SM CLR 32/14 A2999 RMK AO2 SLP140 T03220144,M
LOL,2023-08-16 09:53,-118.5701,40.0684,1192.43,69.00,46.00,43.67,0.00,0.00,0.00,30.16,1016.70,10.00,M,SCT,M,M,M,12000.00,M,M,M,M,M,M,M,M,M,M,69.00,KLOL 160953Z AUTO 00000KT 10SM SCT120 21/08 A3016 RMK AO2 SLP167 T02060078,M
BVU,2023-08-16 09:55,-114.8611,35.9475,671.00,86.00,59.00,40.14,60.00,3.00,0.00,29.99,M,10.00,M,CLR,M,M,M,M,M,M,M,M,M,M,M,M,M,M,85.47,KBVU 160955Z AUTO 06003KT 10SM CLR 30/15 A2999 RMK AO2,M
CXP,2023-08-16 09:55,-119.7326,39.1923,1431.00,60.80,51.80,72.20,0.00,0.00,0.00,30.27,M,10.00,M,CLR,M,M,M,M,M,M,M,M,M,M,M,M,M,M,60.80,KCXP 160955Z AUTO 00000KT 10SM CLR 16/11 A3027 RMK AO2,M
INS,2023-08-16 09:55,-115.6733,36.5872,955.00,83.70,52.30,33.88,320.00,3.00,0.00,30.07,1012.70,10.00,M,BKN,OVC,M,M,16000.00,19000.00,M,M,M,M,M,M,M,M,M,82.18,KINS 160955Z AUTO 32003KT 10SM BKN160 OVC190 29/11 A3007 RMK AO2 SLP127 T02870113 $,M
RNO,2023-08-16 09:55,-119.7711,39.4839,1341.00,70.00,49.00,47.24,0.00,0.00,0.00,30.23,1017.20,10.00,M,FEW,M,M,M,18000.00,M,M,M,M,M,M,M,M,M,M,70.00,KRNO 160955Z 00000KT 10SM FEW180 21/09 A3023 RMK AO2 SLP172 T02110094,M
LSV,2023-08-16 09:55,-115.0343,36.2362,570.00,88.70,57.60,35.03,50.00,7.00,0.00,29.95,1011.20,10.00,M,SCT,M,M,M,17000.00,M,M,M,M,M,M,M,M,M,M,87.53,KLSV 160955Z AUTO 05007KT 10SM SCT170 32/14 A2995 RMK AO2 SLP112 T03150142 $,M
RTS,2023-08-16 09:55,-119.8764,39.6682,1539.00,62.60,42.80,48.28,330.00,7.00,0.00,30.27,M,10.00,M,FEW,M,M,M,12000.00,M,M,M,M,M,M,M,M,M,M,62.60,KRTS 160955Z AUTO 33007KT 10SM FEW120 17/06 A3027 RMK AO2,M
MEV,2023-08-16 09:55,-119.7500,38.9963,1441.42,55.40,48.20,76.66,160.00,6.00,0.00,30.26,M,10.00,M,CLR,M,M,M,M,M,M,M,M,M,M,M,M,M,M,55.40,KMEV 160955Z AUTO 16006KT 10SM CLR 13/09 A3026 RMK AO2,M
BAM,2023-08-16 09:55,-116.8743,40.5990,1382.36,77.00,46.40,33.85,220.00,3.00,0.00,30.20,M,10.00,M,SCT,M,M,M,12000.00,M,M,M,M,M,M,M,M,M,M,77.00,KBAM 160955Z AUTO 22003KT 10SM SCT120 25/08 A3020 RMK AO1,M
HTH,2023-08-16 09:55,-118.6315,38.5448,1282.89,71.60,50.00,46.43,M,5.00,0.00,30.21,M,10.00,M,CLR,M,M,M,M,M,M,M,M,M,M,M,M,M,M,71.60,KHTH 160955Z AUTO VRB05KT 10SM CLR 22/10 A3021 RMK A01,M
TMT,2023-08-16 09:55,-117.1971,39.4643,1749.34,60.80,50.00,67.54,230.00,5.00,0.00,30.32,M,M,M,CLR,M,M,M,M,M,M,M,M,M,M,M,M,M,M,60.80,KTMT 160955Z AUTO 23005KT CLR 16/10 A3032 RMK AO2 T01600099 PWINO,M
10U,2023-08-16 09:55,-116.1876,41.9532,1637.00,66.20,42.80,42.57,170.00,6.00,0.00,30.26,M,10.00,M,SCT,M,M,M,12000.00,M,M,M,M,M,M,M,M,M,M,66.20,K10U 160955Z AUTO 17006KT 10SM SCT120 19/06 A3026 RMK AO2,M
EKO,2023-08-16 09:56,-115.7860,40.8242,1367.00,69.00,47.00,45.35,310.00,3.00,0.00,30.23,1017.10,10.00,M,CLR,M,M,M,M,M,M,M,M,M,M,M,M,M,M,69.00,KEKO 160956Z AUTO 31003KT 10SM CLR 21/08 A3023 RMK AO2 SLP171 T02060083,M
WMC,2023-08-16 09:56,-117.8072,40.9019,1315.00,74.00,41.00,30.43,290.00,4.00,0.00,30.17,1015.50,10.00,M,FEW,BKN,M,M,9000.00,11000.00,M,M,M,M,M,M,M,M,M,74.00,KWMC 160956Z AUTO 29004KT 10SM FEW090 BKN110 23/05 A3017 RMK AO2 SLP155 T02330050,M
NFL,2023-08-16 09:56,-118.7010,39.4166,1199.00,68.00,44.00,41.88,140.00,4.00,0.00,30.17,1018.10,10.00,M,CLR,M,M,M,M,M,M,M,M,M,M,M,M,M,M,68.00,KNFL 160956Z AUTO 14004KT 10SM CLR 20/07 A3017 RMK AO2 SLP181 T02000067,M
HND,2023-08-16 09:56,-115.1344,35.9729,742.79,87.00,59.00,38.88,10.00,4.00,0.00,30.04,1015.40,10.00,M,CLR,M,M,M,M,M,M,M,M,M,M,M,M,M,M,86.37,KHND 160956Z AUTO 01004KT 10SM CLR 31/15 A3004 RMK AO2 SLP154 T03060150,M
TPH,2023-08-16 09:56,-117.0904,38.0505,1654.00,66.00,45.00,46.62,360.00,10.00,0.00,30.28,1017.40,10.00,M,CLR,M,M,M,M,M,M,M,M,M,M,M,M,M,M,66.00,KTPH 160956Z AUTO 36010KT 10SM CLR 19/07 A3028 RMK AO2 SLP174 T01890072,M
LAS,2023-08-16 09:56,-115.1634,36.0719,663.00,89.00,59.00,36.49,0.00,0.00,0.00,30.00,1012.70,10.00,M,BKN,M,M,M,15000.00,M,M,M,M,M,M,M,M,M,M,88.27,KLAS 160956Z 00000KT 10SM BKN150 32/15 A3000 RMK AO2 SLP127 T03170150,M
05U,2023-08-16 10:10,-116.0051,39.6042,1811.23,64.40,51.80,63.60,M,M,0.00,30.33,M,10.00,M,M,M,M,M,M,M,M,M,M,M,M,M,M,M,M,64.40,K05U 161010Z AUTO 10SM 18/11 A3033 RMK A01,M
BVU,2023-08-16 10:15,-114.8611,35.9475,671.00,86.00,57.20,37.62,40.00,6.00,0.00,29.99,M,10.00,M,CLR,M,M,M,M,M,M,M,M,M,M,M,M,M,M,84.97,KBVU 161015Z AUTO 04006KT 10SM CLR 30/14 A2999 RMK AO2,M
CXP,2023-08-16 10:15,-119.7326,39.1923,1431.00,60.80,51.80,72.20,0.00,0.00,0.00,30.27,M,10.00,M,CLR,M,M,M,M,M,M,M,M,M,M,M,M,M,M,60.80,KCXP 161015Z AUTO 00000KT 10SM CLR 16/11 A3027 RMK AO2,M
RTS,2023-08-16 10:15,-119.8764,39.6682,1539.00,62.60,41.00,45.04,330.00,4.00,0.00,30.27,M,10.00,M,FEW,M,M,M,12000.00,M,M,M,M,M,M,M,M,M,M,62.60,KRTS 161015Z AUTO 33004KT 10SM FEW120 17/05 A3027 RMK AO2,M
MEV,2023-08-16 10:15,-119.7500,38.9963,1441.42,53.60,48.20,81.87,190.00,5.00,0.00,30.26,M,10.00,M,CLR,M,M,M,M,M,M,M,M,M,M,M,M,M,M,53.60,KMEV 161015Z AUTO 19005KT 10SM CLR 12/09 A3026 RMK AO2,M
HTH,2023-08-16 10:15,-118.6315,38.5448,1282.89,69.80,46.40,43.13,180.00,4.00,0.00,30.22,M,10.00,M,CLR,M,M,M,M,M,M,M,M,M,M,M,M,M,M,69.80,KHTH 161015Z AUTO 18004KT 10SM CLR 21/08 A3022 RMK A01,M
10U,2023-08-16 10:15,-116.1876,41.9532,1637.00,64.40,41.00,42.28,170.00,5.00,0.00,30.25,M,10.00,M,FEW,M,M,M,12000.00,M,M,M,M,M,M,M,M,M,M,64.40,K10U 161015Z AUTO 17005KT 10SM FEW120 18/05 A3025 RMK AO2,M
BAM,2023-08-16 10:15,-116.8743,40.5990,1382.36,77.00,46.40,33.85,260.00,4.00,0.00,30.19,M,10.00,M,SCT,M,M,M,11000.00,M,M,M,M,M,M,M,M,M,M,77.00,KBAM 161015Z AUTO 26004KT 10SM SCT110 25/08 A3019 RMK AO1,M
TMT,2023-08-16 10:15,-117.1971,39.4643,1749.34,58.30,46.40,64.52,170.00,5.00,0.00,30.32,M,M,M,CLR,M,M,M,M,M,M,M,M,M,M,M,M,M,M,58.30,KTMT 161015Z AUTO 17005KT CLR 15/08 A3032 RMK AO2 T01460080 PWINO,M
BVU,2023-08-16 10:35,-114.8611,35.9475,671.00,87.80,57.20,35.53,40.00,6.00,0.00,29.99,M,10.00,M,CLR,M,M,M,M,M,M,M,M,M,M,M,M,M,M,86.58,KBVU 161035Z AUTO 04006KT 10SM CLR 31/14 A2999 RMK AO2,M
CXP,2023-08-16 10:35,-119.7326,39.1923,1431.00,60.80,53.60,77.14,0.00,0.00,0.00,30.27,M,10.00,M,SCT,M,M,M,11000.00,M,M,M,M,M,M,M,M,M,M,60.80,KCXP 161035Z AUTO 00000KT 10SM SCT110 16/12 A3027 RMK AO2,M
RTS,2023-08-16 10:35,-119.8764,39.6682,1539.00,62.60,41.00,45.04,0.00,0.00,0.00,30.27,M,10.00,M,FEW,M,M,M,12000.00,M,M,M,M,M,M,M,M,M,M,62.60,KRTS 161035Z AUTO 00000KT 10SM FEW120 17/05 A3027 RMK AO2,M
05U,2023-08-16 10:35,-116.0051,39.6042,1811.23,64.40,51.80,63.60,M,M,0.00,30.33,M,10.00,M,M,M,M,M,M,M,M,M,M,M,M,M,M,M,M,64.40,K05U 161035Z AUTO 10SM 18/11 A3033 RMK A01,M
MEV,2023-08-16 10:35,-119.7500,38.9963,1441.42,55.40,48.20,76.66,0.00,0.00,0.00,30.26,M,10.00,M,SCT,M,M,M,12000.00,M,M,M,M,M,M,M,M,M,M,55.40,KMEV 161035Z AUTO 00000KT 10SM SCT120 13/09 A3026 RMK AO2,M
HTH,2023-08-16 10:35,-118.6315,38.5448,1282.89,69.80,48.20,46.16,220.00,5.00,0.00,30.21,M,10.00,M,CLR,M,M,M,M,M,M,M,M,M,M,M,M,M,M,69.80,KHTH 161035Z AUTO 22005KT 10SM CLR 21/09 A3021 RMK A01,M
10U,2023-08-16 10:35,-116.1876,41.9532,1637.00,64.40,41.00,42.28,160.00,6.00,0.00,30.25,M,10.00,M,FEW,M,M,M,11000.00,M,M,M,M,M,M,M,M,M,M,64.40,K10U 161035Z AUTO 16006KT 10SM FEW110 18/05 A3025 RMK AO2,M
BAM,2023-08-16 10:35,-116.8743,40.5990,1382.36,78.80,44.60,29.79,0.00,0.00,0.00,30.19,M,10.00,M,SCT,M,M,M,12000.00,M,M,M,M,M,M,M,M,M,M,78.80,KBAM 161035Z AUTO 00000KT 10SM SCT120 26/07 A3019 RMK AO1,M
TMT,2023-08-16 10:35,-117.1971,39.4643,1749.34,58.60,44.60,59.62,190.00,4.00,0.00,30.31,M,M,M,CLR,M,M,M,M,M,M,M,M,M,M,M,M,M,M,58.60,KTMT 161035Z AUTO 19004KT CLR 15/07 A3031 RMK AO2 T01480070 PWINO,M
05U,2023-08-16 10:50,-116.0051,39.6042,1811.23,62.60,53.60,72.38,M,M,0.00,30.32,M,10.00,M,M,M,M,M,M,M,M,M,M,M,M,M,M,M,M,62.60,K05U 161050Z AUTO 10SM 17/12 A3032 RMK A01,M
P68,2023-08-16 10:53,-116.0056,39.6014,1993.00,61.00,54.00,77.72,180.00,3.00,0.00,30.30,1017.30,M,M,M,M,M,M,M,M,M,M,M,M,M,M,M,M,M,61.00,KP68 161053Z AUTO 18003KT 16/12 A3030 RMK AO1 SLP173 T01610122,M
ELY,2023-08-16 10:53,-114.8453,39.2950,1909.00,62.00,54.00,75.02,150.00,7.00,0.00,30.32,1016.20,10.00,M,SCT,OVC,M,M,9000.00,11000.00,M,M,M,M,M,M,M,M,M,62.00,KELY 161053Z AUTO 15007KT 10SM SCT090 OVC110 17/12 A3032 RMK AO2 SLP162 T01670122 $,M
VGT,2023-08-16 10:53,-115.1933,36.2111,667.00,89.00,58.00,35.20,120.00,6.00,0.00,29.99,1013.90,10.00,M,CLR,M,M,M,M,M,M,M,M,M,M,M,M,M,M,87.94,KVGT 161053Z AUTO 12006KT 10SM CLR 32/14 A2999 RMK AO2 SLP139 T03170144,M
LOL,2023-08-16 10:53,-118.5701,40.0684,1192.43,66.00,46.00,48.43,100.00,5.00,0.00,30.16,1016.80,10.00,M,BKN,M,M,M,12000.00,M,M,M,M,M,M,M,M,M,M,66.00,KLOL 161053Z AUTO 10005KT 10SM BKN120 19/08 A3016 RMK AO2 SLP168 T01890078,M
BVU,2023-08-16 10:55,-114.8611,35.9475,671.00,86.00,57.20,37.62,50.00,5.00,0.00,29.99,M,10.00,M,CLR,M,M,M,M,M,M,M,M,M,M,M,M,M,M,84.97,KBVU 161055Z AUTO 05005KT 10SM CLR 30/14 A2999 RMK AO2,M
CXP,2023-08-16 10:55,-119.7326,39.1923,1431.00,60.80,53.60,77.14,0.00,0.00,0.00,30.26,M,10.00,M,BKN,M,M,M,11000.00,M,M,M,M,M,M,M,M,M,M,60.80,KCXP 161055Z AUTO 00000KT 10SM BKN110 16/12 A3026 RMK AO2,M
INS,2023-08-16 10:55,-115.6733,36.5872,955.00,82.40,52.70,35.86,130.00,7.00,0.00,30.07,1012.70,10.00,M,OVC,M,M,M,15000.00,M,M,M,M,M,M,M,M,M,M,81.33,KINS 161055Z AUTO 13007KT 10SM OVC150 28/12 A3007 RMK AO2 SLP127 T02800115 $,M
RNO,2023-08-16 10:55,-119.7711,39.4839,1341.00,67.00,51.00,56.41,200.00,3.00,0.00,30.22,1017.50,10.00,M,FEW,SCT,M,M,13000.00,18000.00,M,M,M,M,M,M,M,M,M,67.00,KRNO 161055Z 20003KT 10SM FEW130 SCT180 19/11 A3022 RMK AO2 SLP175 T01940106,M
LSV,2023-08-16 10:55,-115.0343,36.2362,570.00,87.30,57.70,36.75,50.00,8.00,0.00,29.95,1011.20,10.00,M,FEW,FEW,M,M,20000.00,23000.00,M,M,M,M,M,M,M,M,M,86.26,KLSV 161055Z AUTO 05008KT 10SM FEW200 FEW230 31/14 A2995 RMK AO2 SLP112 T03070143 $,M
RTS,2023-08-16 10:55,-119.8764,39.6682,1539.00,60.80,41.00,48.00,10.00,4.00,0.00,30.27,M,10.00,M,CLR,M,M,M,M,M,M,M,M,M,M,M,M,M,M,60.80,KRTS 161055Z AUTO 01004KT 10SM CLR 16/05 A3027 RMK AO2,M
MEV,2023-08-16 10:55,-119.7500,38.9963,1441.42,55.40,48.20,76.66,0.00,0.00,0.00,30.26,M,10.00,M,OVC,M,M,M,12000.00,M,M,M,M,M,M,M,M,M,M,55.40,KMEV 161055Z AUTO 00000KT 10SM OVC120 13/09 A3026 RMK AO2,M
HTH,2023-08-16 10:55,-118.6315,38.5448,1282.89,69.80,46.40,43.13,0.00,0.00,0.00,30.21,M,10.00,M,CLR,M,M,M,M,M,M,M,M,M,M,M,M,M,M,69.80,KHTH 161055Z AUTO 00000KT 10SM CLR 21/08 A3021 RMK A01,M
10U,2023-08-16 10:55,-116.1876,41.9532,1637.00,64.40,42.80,45.32,180.00,3.00,0.00,30.25,M,10.00,M,FEW,M,M,M,11000.00,M,M,M,M,M,M,M,M,M,M,64.40,K10U 161055Z AUTO 18003KT 10SM FEW110 18/06 A3025 RMK AO2,M
BAM,2023-08-16 10:55,-116.8743,40.5990,1382.36,78.80,44.60,29.79,190.00,4.00,0.00,30.19,M,10.00,M,BKN,M,M,M,12000.00,M,M,M,M,M,M,M,M,M,M,78.80,KBAM 161055Z AUTO 19004KT 10SM BKN120 26/07 A3019 RMK AO1,M
TMT,2023-08-16 10:55,-117.1971,39.4643,1749.34,57.40,44.40,61.77,170.00,4.00,0.00,30.31,M,M,M,CLR,M,M,M,M,M,M,M,M,M,M,M,M,M,M,57.40,KTMT 161055Z AUTO 17004KT CLR 14/07 A3031 RMK AO2 T01410069 PWINO,M
EKO,2023-08-16 10:56,-115.7860,40.8242,1367.00,69.00,45.00,42.04,0.00,0.00,0.00,30.23,1016.80,10.00,M,CLR,M,M,M,M,M,M,M,M,M,M,M,M,M,M,69.00,KEKO 161056Z AUTO 00000KT 10SM CLR 21/07 A3023 RMK AO2 SLP168 T02060072,M
WMC,2023-08-16 10:56,-117.8072,40.9019,1315.00,77.00,42.00,28.62,160.00,10.00,0.00,30.17,1015.30,10.00,M,FEW,OVC,M,M,8000.00,11000.00,M,M,M,M,M,M,M,M,M,77.00,KWMC 161056Z AUTO 16010KT 10SM FEW080 OVC110 25/06 A3017 RMK AO2 SLP153 T02500056,M
NFL,2023-08-16 10:56,-118.7010,39.4166,1199.00,67.00,45.00,45.04,170.00,6.00,0.00,30.17,1017.90,10.00,M,CLR,M,M,M,M,M,M,M,M,M,M,M,M,M,M,67.00,KNFL 161056Z AUTO 17006KT 10SM CLR 19/07 A3017 RMK AO2 SLP179 T01940072,M
HND,2023-08-16 10:56,-115.1344,35.9729,742.79,86.00,59.00,40.14,40.00,3.00,0.00,30.04,1015.20,10.00,M,CLR,M,M,M,M,M,M,M,M,M,M,M,M,M,M,85.47,KHND 161056Z AUTO 04003KT 10SM CLR 30/15 A3004 RMK AO2 SLP152 T03000150,M
TPH,2023-08-16 10:56,-117.0904,38.0505,1654.00,64.00,45.00,49.99,340.00,6.00,0.00,30.27,1017.10,10.00,M,CLR,M,M,M,M,M,M,M,M,M,M,M,M,M,M,64.00,KTPH 161056Z AUTO 34006KT 10SM CLR 18/07 A3027 RMK AO2 SLP171 T01780072,M
LAS,2023-08-16 10:56,-115.1634,36.0719,663.00,88.00,58.00,36.34,0.00,0.00,0.00,30.00,1012.80,10.00,M,SCT,BKN,M,M,15000.00,19000.00,M,M,M,M,M,M,M,M,M,86.99,KLAS 161056Z 00000KT 10SM SCT150 BKN190 31/14 A3000 RMK AO2 SLP128 T03110144,M
BVU,2023-08-16 11:15,-114.8611,35.9475,671.00,86.00,55.40,35.25,40.00,5.00,0.00,29.99,M,10.00,M,CLR,M,M,M,M,M,M,M,M,M,M,M,M,M,M,84.54,KBVU 161115Z AUTO 04005KT 10SM CLR 30/13 A2999 RMK AO2,M
CXP,2023-08-16 11:15,-119.7326,39.1923,1431.00,60.80,55.40,82.37,0.00,0.00,0.00,30.27,M,10.00,M,OVC,M,M,M,11000.00,M,M,M,M,M,M,M,M,M,M,60.80,KCXP 161115Z AUTO 00000KT 10SM OVC110 16/13 A3027 RMK AO2,M
RTS,2023-08-16 11:15,-119.8764,39.6682,1539.00,59.00,39.20,47.72,0.00,0.00,0.00,30.27,M,10.00,M,CLR,M,M,M,M,M,M,M,M,M,M,M,M,M,M,59.00,KRTS 161115Z AUTO 00000KT 10SM CLR 15/04 A3027 RMK AO2,M
05U,2023-08-16 11:15,-116.0051,39.6042,1811.23,60.80,51.80,72.20,M,M,0.00,30.32,M,10.00,M,M,M,M,M,M,M,M,M,M,M,M,M,M,M,M,60.80,K05U 161115Z AUTO 10SM 16/11 A3032 RMK A01,M
MEV,2023-08-16 11:15,-119.7500,38.9963,1441.42,55.40,46.40,71.64,0.00,0.00,0.00,30.26,M,10.00,M,SCT,M,M,M,12000.00,M,M,M,M,M,M,M,M,M,M,55.40,KMEV 161115Z AUTO 00000KT 10SM SCT120 13/08 A3026 RMK AO2,M
HTH,2023-08-16 11:15,-118.6315,38.5448,1282.89,68.00,48.20,49.10,0.00,0.00,0.00,30.21,M,10.00,M,CLR,M,M,M,M,M,M,M,M,M,M,M,M,M,M,68.00,KHTH 161115Z AUTO 00000KT 10SM CLR 20/09 A3021 RMK A01,M
10U,2023-08-16 11:15,-116.1876,41.9532,1637.00,64.40,42.80,45.32,220.00,4.00,0.00,30.25,M,10.00,M,BKN,M,M,M,11000.00,M,M,M,M,M,M,M,M,M,M,64.40,K10U 161115Z AUTO 22004KT 10SM BKN110 18/06 A3025 RMK AO2,M
BAM,2023-08-16 11:15,-116.8743,40.5990,1382.36,78.80,44.60,29.79,220.00,7.00,0.00,30.19,M,10.00,M,SCT,OVC,M,M,10000.00,12000.00,M,M,M,M,M,M,M,M,M,78.80,KBAM 161115Z AUTO 22007KT 10SM SCT100 OVC120 26/07 A3019 RMK AO1,M
TMT,2023-08-16 11:15,-117.1971,39.4643,1749.34,58.00,44.00,59.54,230.00,6.00,0.00,30.31,M,M,M,CLR,M,M,M,M,M,M,M,M,M,M,M,M,M,M,58.00,KTMT 161115Z AUTO 23006KT CLR 14/07 A3031 RMK AO2 T01440067 PWINO,M
05U,2023-08-16 11:30,-116.0051,39.6042,1811.23,62.60,50.00,63.38,M,M,0.00,30.31,M,10.00,M,M,M,M,M,M,M,M,M,M,M,M,M,M,M,M,62.60,K05U 161130Z AUTO 10SM 17/10 A3031 RMK A01,M
BVU,2023-08-16 11:35,-114.8611,35.9475,671.00,84.20,59.00,42.52,30.00,4.00,0.00,29.99,M,10.00,M,CLR,M,M,M,M,M,M,M,M,M,M,M,M,M,M,83.92,KBVU 161135Z AUTO 03004KT 10SM CLR 29/15 A2999 RMK AO2,M
CXP,2023-08-16 11:35,-119.7326,39.1923,1431.00,62.60,51.80,67.75,0.00,0.00,0.00,30.27,M,10.00,M,OVC,M,M,M,11000.00,M,M,M,M,M,M,M,M,M,M,62.60,KCXP 161135Z AUTO 00000KT 10SM OVC110 17/11 A3027 RMK AO2,M
RTS,2023-08-16 11:35,-119.8764,39.6682,1539.00,57.20,41.00,54.60,320.00,5.00,0.00,30.27,M,10.00,M,CLR,M,M,M,M,M,M,M,M,M,M,M,M,M,M,57.20,KRTS 161135Z AUTO 32005KT 10SM CLR 14/05 A3027 RMK AO2,M
MEV,2023-08-16 11:35,-119.7500,38.9963,1441.42,53.60,46.40,76.50,0.00,0.00,0.00,30.26,M,10.00,M,CLR,M,M,M,M,M,M,M,M,M,M,M,M,M,M,53.60,KMEV 161135Z AUTO 00000KT 10SM CLR 12/08 A3026 RMK AO2,M
BAM,2023-08-16 11:35,-116.8743,40.5990,1382.36,78.80,44.60,29.79,250.00,8.00,0.00,30.19,M,10.00,M,BKN,M,M,M,11000.00,M,M,M,M,M,M,M,M,M,M,78.80,KBAM 161135Z AUTO 25008KT 10SM BKN110 26/07 A3019 RMK AO1,M
HTH,2023-08-16 11:35,-118.6315,38.5448,1282.89,69.80,48.20,46.16,260.00,3.00,0.00,30.21,M,10.00,M,CLR,M,M,M,M,M,M,M,M,M,M,M,M,M,M,69.80,KHTH 161135Z AUTO 26003KT 10SM CLR 21/09 A3021 RMK A01,M
TMT,2023-08-16 11:35,-117.1971,39.4643,1749.34,59.40,45.50,59.95,230.00,7.00,0.00,30.31,M,M,M,BKN,M,M,M,12000.00,M,M,M,M,M,M,M,M,M,M,59.40,KTMT 161135Z AUTO 23007KT BKN120 15/08 A3031 RMK AO2 T01520075 PWINO,M
10U,2023-08-16 11:35,-116.1876,41.9532,1637.00,62.60,42.80,48.28,170.00,4.00,0.00,30.25,M,10.00,M,SCT,M,M,M,11000.00,M,M,M,M,M,M,M,M,M,M,62.60,K10U 161135Z AUTO 17004KT 10SM SCT110 17/06 A3025 RMK AO2,M
P68,2023-08-16 11:53,-116.0056,39.6014,1993.00,63.00,52.00,67.29,190.00,5.00,0.00,30.29,1017.00,M,M,M,M,M,M,M,M,M,M,M,M,M,M,M,M,M,63.00,KP68 161153Z AUTO 19005KT 17/11 A3029 RMK AO1 SLP170 T01720111 10206 20156 56009,M
ELY,2023-08-16 11:53,-114.8453,39.2950,1909.00,63.00,54.00,72.42,210.00,9.00,0.00,30.32,1016.30,10.00,M,OVC,M,M,M,9000.00,M,M,M,M,M,M,M,M,M,M,63.00,KELY 161153Z AUTO 21009KT 10SM OVC090 17/12 A3032 RMK AO2 SLP163 7//// T01720122 10189 20156 56005 $,M
VGT,2023-08-16 11:53,-115.1933,36.2111,667.00,88.00,58.00,36.34,120.00,7.00,0.00,30.00,1014.20,10.00,M,CLR,M,M,M,M,M,M,M,M,M,M,M,M,M,M,86.99,KVGT 161153Z AUTO 12007KT 10SM CLR 31/14 A3000 RMK AO2 SLP142 T03110144 10339 20311 55000,M
LOL,2023-08-16 11:53,-118.5701,40.0684,1192.43,67.00,49.00,52.37,0.00,0.00,T,30.16,1016.70,10.00,M,FEW,BKN,M,M,8000.00,11000.00,M,M,-RA,M,M,M,M,M,M,67.00,KLOL 161153Z AUTO 00000KT 10SM -RA FEW080 BKN110 19/09 A3016 RMK AO2 RAB51 SLP167 P0000 60000 T01940094 10250 20189 58001,M
BVU,2023-08-16 11:55,-114.8611,35.9475,671.00,86.00,57.20,37.62,30.00,5.00,0.00,30.00,M,10.00,M,CLR,M,M,M,M,M,M,M,M,M,M,M,M,M,M,84.97,KBVU 161155Z AUTO 03005KT 10SM CLR 30/14 A3000 RMK AO2,M
CXP,2023-08-16 11:55,-119.7326,39.1923,1431.00,62.60,50.00,63.38,0.00,0.00,0.00,30.27,M,10.00,M,OVC,M,M,M,11000.00,M,M,M,M,M,M,M,M,M,M,62.60,KCXP 161155Z AUTO 00000KT 10SM OVC110 17/10 A3027 RMK AO2,M
INS,2023-08-16 11:55,-115.6733,36.5872,955.00,82.00,51.00,34.12,110.00,3.00,0.00,30.07,1012.70,10.00,M,BKN,M,M,M,16000.00,M,M,M,M,M,M,M,M,M,M,80.84,KINS 161155Z AUTO 11003KT 10SM BKN160 28/11 A3007 RMK AO2 SLP127 T02780105 10316 20278 50002 $,M
RNO,2023-08-16 11:55,-119.7711,39.4839,1341.00,67.00,49.00,52.37,0.00,0.00,0.00,30.22,1017.40,10.00,M,SCT,M,M,M,18000.00,M,M,M,M,M,M,M,M,M,M,67.00,KRNO 161155Z 00000KT 10SM SCT180 19/09 A3022 RMK AO2 SLP174 T01940094 10256 20189 57003,M
LSV,2023-08-16 11:55,-115.0343,36.2362,570.00,86.50,57.20,37.03,40.00,9.00,0.00,29.96,1011.70,10.00,M,CLR,M,M,M,M,M,M,M,M,M,M,M,M,M,M,85.41,KLSV 161155Z AUTO 04009KT 10SM CLR 30/14 A2996 RMK AO2 SLP117 T03030140 10328 20303 55000 $,M
RTS,2023-08-16 11:55,-119.8764,39.6682,1539.00,57.20,41.00,54.60,320.00,5.00,0.00,30.27,M,10.00,M,CLR,M,M,M,M,M,M,M,M,M,M,M,M,M,M,57.20,KRTS 161155Z AUTO 32005KT 10SM CLR 14/05 A3027 RMK AO2,M
05U,2023-08-16 11:55,-116.0051,39.6042,1811.23,62.60,51.80,67.75,M,M,0.00,30.32,M,10.00,M,M,M,M,M,M,M,M,M,M,M,M,M,M,M,M,62.60,K05U 161155Z AUTO 10SM 17/11 A3032 RMK A01,M
MEV,2023-08-16 11:55,-119.7500,38.9963,1441.42,55.40,46.40,71.64,0.00,0.00,0.00,30.26,M,10.00,M,CLR,M,M,M,M,M,M,M,M,M,M,M,M,M,M,55.40,KMEV 161155Z AUTO 00000KT 10SM CLR 13/08 A3026 RMK AO2,M
BAM,2023-08-16 11:55,-116.8743,40.5990,1382.36,78.80,44.60,29.79,210.00,5.00,0.00,30.19,M,10.00,M,BKN,M,M,M,11000.00,M,M,M,M,M,M,M,M,M,M,78.80,KBAM 161155Z AUTO 21005KT 10SM BKN110 26/07 A3019 RMK AO1,M
HTH,2023-08-16 11:55,-118.6315,38.5448,1282.89,68.00,48.20,49.10,0.00,0.00,0.00,30.21,M,10.00,M,CLR,M,M,M,M,M,M,M,M,M,M,M,M,M,M,68.00,KHTH 161155Z AUTO 00000KT 10SM CLR 20/09 A3021 RMK A01,M
TMT,2023-08-16 11:55,-117.1971,39.4643,1749.34,57.60,45.00,62.74,0.00,0.00,0.00,30.31,M,M,M,BKN,M,M,M,12000.00,M,M,M,M,M,M,M,M,M,M,57.60,KTMT 161155Z AUTO 00000KT BKN120 14/07 A3031 RMK AO2 T01420073 10237 20135 PWINO,M
10U,2023-08-16 11:55,-116.1876,41.9532,1637.00,62.60,42.80,48.28,130.00,7.00,0.00,30.25,M,10.00,M,FEW,M,M,M,11000.00,M,M,M,M,M,M,M,M,M,M,62.60,K10U 161155Z AUTO 13007KT 10SM FEW110 17/06 A3025 RMK AO2,M
NFL,2023-08-16 11:56,-118.7010,39.4166,1199.00,66.00,48.00,52.22,170.00,3.00,0.00,30.16,1017.70,10.00,M,CLR,M,M,M,M,M,M,M,M,M,M,M,M,M,M,66.00,KNFL 161156Z AUTO 17003KT 10SM CLR 19/09 A3016 RMK AO2 SLP177 T01890089 10239 20178 58003,M
EKO,2023-08-16 11:56,-115.7860,40.8242,1367.00,67.00,46.00,46.78,0.00,0.00,0.00,30.23,1017.10,10.00,M,CLR,M,M,M,M,M,M,M,M,M,M,M,M,M,M,67.00,KEKO 161156Z AUTO 00000KT 10SM CLR 19/08 A3023 RMK AO2 SLP171 T01940078 10256 20189 55002,M
WMC,2023-08-16 11:56,-117.8072,40.9019,1315.00,79.00,41.00,25.78,170.00,11.00,T,30.16,1015.10,10.00,M,BKN,M,M,M,12000.00,M,M,M,M,M,M,M,M,M,M,79.00,KWMC 161156Z AUTO 17011KT 10SM BKN120 26/05 A3016 RMK AO2 RAB16E36 SLP151 P0000 60000 T02610050 10272 20228 56004,M
HND,2023-08-16 11:56,-115.1344,35.9729,742.79,85.00,59.00,41.44,0.00,0.00,0.00,30.04,1015.40,10.00,M,CLR,M,M,M,M,M,M,M,M,M,M,M,M,M,M,84.59,KHND 161156Z AUTO 00000KT 10SM CLR 29/15 A3004 RMK AO2 SLP154 T02940150 10328 20294 55001,M
TPH,2023-08-16 11:56,-117.0904,38.0505,1654.00,64.00,45.00,49.99,360.00,11.00,0.00,30.27,1016.90,10.00,M,CLR,M,M,M,M,M,M,M,M,M,M,M,M,M,M,64.00,KTPH 161156Z AUTO 36011KT 10SM CLR 18/07 A3027 RMK AO2 SLP169 T01780072 10239 20172 56005,M
LAS,2023-08-16 11:56,-115.1634,36.0719,663.00,87.00,58.00,37.51,0.00,0.00,0.00,30.00,1012.80,10.00,M,FEW,BKN,M,M,15000.00,19000.00,M,M,M,M,M,M,M,M,M,86.07,KLAS 161156Z 00000KT 10SM FEW150 BKN190 31/14 A3000 RMK AO2 SLP128 T03060144 10339 20306 55002,M
05U,2023-08-16 12:10,-116.0051,39.6042,1811.23,62.60,51.80,67.75,M,M,0.00,30.32,M,10.00,M,M,M,M,M,M,M,M,M,M,M,M,M,M,M,M,62.60,K05U 161210Z AUTO 10SM 17/11 A3032 RMK A01,M
BVU,2023-08-16 12:15,-114.8611,35.9475,671.00,86.00,57.20,37.62,30.00,6.00,0.00,29.99,M,10.00,M,CLR,M,M,M,M,M,M,M,M,M,M,M,M,M,M,84.97,KBVU 161215Z AUTO 03006KT 10SM CLR 30/14 A2999 RMK AO2,M
CXP,2023-08-16 12:15,-119.7326,39.1923,1431.00,62.60,48.20,59.26,0.00,0.00,0.00,30.27,M,10.00,M,BKN,M,M,M,12000.00,M,M,M,M,M,M,M,M,M,M,62.60,KCXP 161215Z AUTO 00000KT 10SM BKN120 17/09 A3027 RMK AO2,M
RTS,2023-08-16 12:15,-119.8764,39.6682,1539.00,57.20,39.20,50.91,0.00,0.00,0.00,30.27,M,10.00,M,CLR,M,M,M,M,M,M,M,M,M,M,M,M,M,M,57.20,KRTS 161215Z AUTO 00000KT 10SM CLR 14/04 A3027 RMK AO2,M
MEV,2023-08-16 12:15,-119.7500,38.9963,1441.42,53.60,46.40,76.50,0.00,0.00,0.00,30.26,M,10.00,M,CLR,M,M,M,M,M,M,M,M,M,M,M,M,M,M,53.60,KMEV 161215Z AUTO 00000KT 10SM CLR 12/08 A3026 RMK AO2,M
BAM,2023-08-16 12:15,-116.8743,40.5990,1382.36,77.00,44.60,31.62,140.00,6.00,0.00,30.20,M,10.00,M,SCT,M,M,M,11000.00,M,M,M,M,M,M,M,M,M,M,77.00,KBAM 161215Z AUTO 14006KT 10SM SCT110 25/07 A3020 RMK AO1,M
HTH,2023-08-16 12:15,-118.6315,38.5448,1282.89,66.20,48.20,52.25,170.00,5.00,0.00,30.21,M,10.00,M,CLR,M,M,M,M,M,M,M,M,M,M,M,M,M,M,66.20,KHTH 161215Z AUTO 17005KT 10SM CLR 19/09 A3021 RMK A01,M
10U,2023-08-16 12:15,-116.1876,41.9532,1637.00,62.60,42.80,48.28,130.00,6.00,0.00,30.26,M,10.00,M,CLR,M,M,M,M,M,M,M,M,M,M,M,M,M,M,62.60,K10U 161215Z AUTO 13006KT 10SM CLR 17/06 A3026 RMK AO2,M
TMT,2023-08-16 12:15,-117.1971,39.4643,1749.34,57.60,45.50,63.95,0.00,0.00,0.00,30.31,M,M,M,BKN,M,M,M,12000.00,M,M,M,M,M,M,M,M,M,M,57.60,KTMT 161215Z AUTO 00000KT BKN120 14/08 A3031 RMK AO2 T01420075 PWINO,M
05U,2023-08-16 12:30,-116.0051,39.6042,1811.23,62.60,51.80,67.75,M,M,0.00,30.32,M,10.00,M,M,M,M,M,M,M,M,M,M,M,M,M,M,M,M,62.60,K05U 161230Z AUTO 10SM 17/11 A3032 RMK A01,M
BVU,2023-08-16 12:35,-114.8611,35.9475,671.00,84.20,59.00,42.52,20.00,5.00,0.00,29.99,M,10.00,M,CLR,M,M,M,M,M,M,M,M,M,M,M,M,M,M,83.92,KBVU 161235Z AUTO 02005KT 10SM CLR 29/15 A2999 RMK AO2,M
CXP,2023-08-16 12:35,-119.7326,39.1923,1431.00,62.60,48.20,59.26,0.00,0.00,0.00,30.27,M,10.00,M,FEW,M,M,M,12000.00,M,M,M,M,M,M,M,M,M,M,62.60,KCXP 161235Z AUTO 00000KT 10SM FEW120 17/09 A3027 RMK AO2,M
RTS,2023-08-16 12:35,-119.8764,39.6682,1539.00,59.00,39.20,47.72,310.00,4.00,0.00,30.27,M,10.00,M,CLR,M,M,M,M,M,M,M,M,M,M,M,M,M,M,59.00,KRTS 161235Z AUTO 31004KT 10SM CLR 15/04 A3027 RMK AO2,M
MEV,2023-08-16 12:35,-119.7500,38.9963,1441.42,53.60,46.40,76.50,0.00,0.00,0.00,30.26,M,10.00,M,FEW,M,M,M,11000.00,M,M,M,M,M,M,M,M,M,M,53.60,KMEV 161235Z AUTO 00000KT 10SM FEW110 12/08 A3026 RMK AO2,M
HTH,2023-08-16 12:35,-118.6315,38.5448,1282.89,68.00,48.20,49.10,160.00,5.00,0.00,30.21,M,10.00,M,CLR,M,M,M,M,M,M,M,M,M,M,M,M,M,M,68.00,KHTH 161235Z AUTO 16005KT 10SM CLR 20/09 A3021 RMK A01,M
BAM,2023-08-16 12:35,-116.8743,40.5990,1382.36,77.00,44.60,31.62,200.00,3.00,0.00,30.20,M,10.00,M,CLR,M,M,M,M,M,M,M,M,M,M,M,M,M,M,77.00,KBAM 161235Z AUTO 20003KT 10SM CLR 25/07 A3020 RMK AO1,M
TMT,2023-08-16 12:35,-117.1971,39.4643,1749.34,58.00,45.70,63.51,0.00,0.00,0.00,30.31,M,M,M,BKN,M,M,M,11000.00,M,M,M,M,M,M,M,M,M,M,58.00,KTMT 161235Z AUTO 00000KT BKN110 15/08 A3031 RMK AO2 T01450076 PWINO,M
05U,2023-08-16 12:50,-116.0051,39.6042,1811.23,62.60,50.00,63.38,M,M,0.00,30.33,M,10.00,M,M,M,M,M,M,M,M,M,M,M,M,M,M,M,M,62.60,K05U 161250Z AUTO 10SM 17/10 A3033 RMK A01,M
P68,2023-08-16 12:53,-116.0056,39.6014,1993.00,63.00,51.00,64.85,200.00,7.00,0.00,30.30,1017.40,M,M,M,M,M,M,M,M,M,M,M,M,M,M,M,M,M,63.00,KP68 161253Z AUTO 20007KT 17/11 A3030 RMK AO1 SLP174 T01720106,M
ELY,2023-08-16 12:53,-114.8453,39.2950,1909.00,63.00,54.00,72.42,200.00,7.00,0.00,30.33,1016.70,10.00,M,OVC,M,M,M,8000.00,M,M,M,M,M,M,M,M,M,M,63.00,KELY 161253Z AUTO 20007KT 10SM OVC080 17/12 A3033 RMK AO2 SLP167 T01720122 $,M
VGT,2023-08-16 12:53,-115.1933,36.2111,667.00,87.00,58.00,37.51,150.00,5.00,0.00,30.01,1014.60,10.00,M,CLR,M,M,M,M,M,M,M,M,M,M,M,M,M,M,86.07,KVGT 161253Z 15005KT 10SM CLR 31/14 A3001 RMK AO2 SLP146 T03060144,M
LOL,2023-08-16 12:53,-118.5701,40.0684,1192.43,67.00,49.00,52.37,100.00,7.00,T,30.17,1017.20,10.00,M,FEW,OVC,M,M,7000.00,11000.00,M,M,M,M,M,M,M,M,M,67.00,KLOL 161253Z AUTO 10007KT 10SM FEW070 OVC110 19/09 A3017 RMK AO2 RAE00 SLP172 P0000 T01940094,M
BVU,2023-08-16 12:55,-114.8611,35.9475,671.00,86.00,57.20,37.62,350.00,5.00,0.00,30.00,M,10.00,10.00,CLR,M,M,M,M,M,M,M,M,M,M,M,M,M,M,84.97,KBVU 161255Z AUTO 35005G10KT 10SM CLR 30/14 A3000 RMK AO2,M
CXP,2023-08-16 12:55,-119.7326,39.1923,1431.00,60.80,48.20,63.15,0.00,0.00,0.00,30.27,M,10.00,M,CLR,M,M,M,M,M,M,M,M,M,M,M,M,M,M,60.80,KCXP 161255Z AUTO 00000KT 10SM CLR 16/09 A3027 RMK AO2,M
INS,2023-08-16 12:55,-115.6733,36.5872,955.00,80.20,51.00,36.19,130.00,5.00,0.00,30.08,1013.10,10.00,M,BKN,M,M,M,18000.00,M,M,M,M,M,M,M,M,M,M,79.76,KINS 161255Z AUTO 13005KT 10SM BKN180 27/11 A3008 RMK AO2 SLP131 T02680105 $,M
RNO,2023-08-16 12:55,-119.7711,39.4839,1341.00,67.00,47.00,48.58,330.00,3.00,0.00,30.23,1017.90,10.00,M,FEW,SCT,M,M,10000.00,18000.00,M,M,M,M,M,M,M,M,M,67.00,KRNO 161255Z 33003KT 10SM FEW100 SCT180 19/08 A3023 RMK AO2 SLP179 VIRGA W T01940083,M
RTS,2023-08-16 12:55,-119.8764,39.6682,1539.00,53.60,39.20,58.02,350.00,6.00,0.00,30.27,M,10.00,M,CLR,M,M,M,M,M,M,M,M,M,M,M,M,M,M,53.60,KRTS 161255Z AUTO 35006KT 10SM CLR 12/04 A3027 RMK AO2,M
MEV,2023-08-16 12:55,-119.7500,38.9963,1441.42,51.80,46.40,81.74,100.00,3.00,0.00,30.26,M,10.00,M,FEW,M,M,M,11000.00,M,M,M,M,M,M,M,M,M,M,51.80,KMEV 161255Z AUTO 10003KT 10SM FEW110 11/08 A3026 RMK AO2,M
BAM,2023-08-16 12:55,-116.8743,40.5990,1382.36,75.20,44.60,33.57,0.00,0.00,0.00,30.20,M,10.00,M,CLR,M,M,M,M,M,M,M,M,M,M,M,M,M,M,75.20,KBAM 161255Z AUTO 00000KT 10SM CLR 24/07 A3020 RMK AO1,M
HTH,2023-08-16 12:55,-118.6315,38.5448,1282.89,68.00,46.40,45.88,180.00,4.00,0.00,30.20,M,10.00,M,CLR,M,M,M,M,M,M,M,M,M,M,M,M,M,M,68.00,KHTH 161255Z AUTO 18004KT 10SM CLR 20/08 A3020 RMK A01,M
TMT,2023-08-16 12:55,-117.1971,39.4643,1749.34,57.60,46.40,66.16,0.00,0.00,0.00,30.32,M,M,M,SCT,SCT,OVC,M,5000.00,7000.00,10000.00,M,M,M,M,M,M,M,M,57.60,KTMT 161255Z AUTO 00000KT SCT050 SCT070 OVC100 14/08 A3032 RMK AO2 T01420080 PWINO,M
10U,2023-08-16 12:55,-116.1876,41.9532,1637.00,60.80,42.80,51.45,140.00,6.00,0.00,30.26,M,10.00,M,CLR,M,M,M,M,M,M,M,M,M,M,M,M,M,M,60.80,K10U 161255Z AUTO 14006KT 10SM CLR 16/06 A3026 RMK AO2,M
LSV,2023-08-16 12:55,-115.0343,36.2362,570.00,84.60,57.00,39.07,50.00,8.00,0.00,29.96,1011.70,10.00,M,FEW,SCT,M,M,19000.00,23000.00,M,M,M,M,M,M,M,M,M,83.75,KLSV 161255Z AUTO 05008KT 10SM FEW190 SCT230 29/14 A2996 RMK AO2 SLP117 T02920138 $,M
EKO,2023-08-16 12:56,-115.7860,40.8242,1367.00,64.00,45.00,49.99,90.00,4.00,0.00,30.24,1017.50,10.00,M,BKN,M,M,M,12000.00,M,M,M,M,M,M,M,M,M,M,64.00,KEKO 161256Z AUTO 09004KT 10SM BKN120 18/07 A3024 RMK AO2 SLP175 T01780072,M
WMC,2023-08-16 12:56,-117.8072,40.9019,1315.00,74.00,42.00,31.63,280.00,4.00,0.00,30.18,1015.90,10.00,M,SCT,M,M,M,12000.00,M,M,M,M,M,M,M,M,M,M,74.00,KWMC 161256Z AUTO 28004KT 10SM SCT120 23/06 A3018 RMK AO2 SLP159 T02330056,M
NFL,2023-08-16 12:56,-118.7010,39.4166,1199.00,63.00,50.00,62.49,160.00,6.00,0.00,30.16,1017.90,10.00,M,CLR,M,M,M,M,M,M,M,M,M,M,M,M,M,M,63.00,KNFL 161256Z AUTO 16006KT 10SM CLR 17/10 A3016 RMK AO2 SLP179 T01720100,M
HND,2023-08-16 12:56,-115.1344,35.9729,742.79,84.00,59.00,42.80,0.00,0.00,0.00,30.06,1016.00,10.00,M,CLR,M,M,M,M,M,M,M,M,M,M,M,M,M,M,83.75,KHND 161256Z 00000KT 10SM CLR 29/15 A3006 RMK AO2 SLP160 T02890150,M
TPH,2023-08-16 12:56,-117.0904,38.0505,1654.00,62.00,45.00,53.63,350.00,8.00,0.00,30.28,1017.20,10.00,M,CLR,M,M,M,M,M,M,M,M,M,M,M,M,M,M,62.00,KTPH 161256Z AUTO 35008KT 10SM CLR 17/07 A3028 RMK AO2 SLP172 T01670072,M
LAS,2023-08-16 12:56,-115.1634,36.0719,663.00,87.00,58.00,37.51,0.00,0.00,0.00,30.02,1013.30,10.00,M,FEW,SCT,BKN,M,12000.00,16000.00,20000.00,M,M,M,M,M,M,M,M,86.07,KLAS 161256Z 00000KT 10SM FEW120 SCT160 BKN200 31/14 A3002 RMK AO2 SLP133 T03060144,M
BVU,2023-08-16 13:15,-114.8611,35.9475,671.00,87.80,57.20,35.53,10.00,7.00,0.00,30.01,M,10.00,M,CLR,M,M,M,M,M,M,M,M,M,M,M,M,M,M,86.58,KBVU 161315Z AUTO 01007KT 10SM CLR 31/14 A3001 RMK AO2,M
CXP,2023-08-16 13:15,-119.7326,39.1923,1431.00,60.80,50.00,67.54,0.00,0.00,0.00,30.27,M,10.00,M,CLR,M,M,M,M,M,M,M,M,M,M,M,M,M,M,60.80,KCXP 161315Z AUTO 00000KT 10SM CLR 16/10 A3027 RMK AO2,M
RTS,2023-08-16 13:15,-119.8764,39.6682,1539.00,55.40,39.20,54.34,350.00,4.00,0.00,30.28,M,10.00,M,CLR,M,M,M,M,M,M,M,M,M,M,M,M,M,M,55.40,KRTS 161315Z AUTO 35004KT 10SM CLR 13/04 A3028 RMK AO2,M
05U,2023-08-16 13:15,-116.0051,39.6042,1811.23,64.40,50.00,59.50,M,M,0.00,30.33,M,10.00,M,M,M,M,M,M,M,M,M,M,M,M,M,M,M,M,64.40,K05U 161315Z AUTO 10SM 18/10 A3033 RMK A01,M
MEV,2023-08-16 13:15,-119.7500,38.9963,1441.42,53.60,48.20,81.87,0.00,0.00,0.00,30.26,M,10.00,M,CLR,M,M,M,M,M,M,M,M,M,M,M,M,M,M,53.60,KMEV 161315Z AUTO 00000KT 10SM CLR 12/09 A3026 RMK AO2,M
HTH,2023-08-16 13:15,-118.6315,38.5448,1282.89,62.60,46.40,55.37,140.00,5.00,0.00,30.21,M,10.00,M,CLR,M,M,M,M,M,M,M,M,M,M,M,M,M,M,62.60,KHTH 161315Z AUTO 14005KT 10SM CLR 17/08 A3021 RMK A01,M
10U,2023-08-16 13:15,-116.1876,41.9532,1637.00,60.80,42.80,51.45,140.00,5.00,0.00,30.26,M,10.00,M,CLR,M,M,M,M,M,M,M,M,M,M,M,M,M,M,60.80,K10U 161315Z AUTO 14005KT 10SM CLR 16/06 A3026 RMK AO2,M
BAM,2023-08-16 13:15,-116.8743,40.5990,1382.36,71.60,46.40,40.57,60.00,5.00,0.00,30.21,M,10.00,M,CLR,M,M,M,M,M,M,M,M,M,M,M,M,M,M,71.60,KBAM 161315Z AUTO 06005KT 10SM CLR 22/08 A3021 RMK AO1,M
TMT,2023-08-16 13:15,-117.1971,39.4643,1749.34,56.50,47.30,71.22,0.00,0.00,0.00,30.32,M,M,M,OVC,M,M,M,10000.00,M,M,M,M,M,M,M,M,M,M,56.50,KTMT 161315Z AUTO 00000KT OVC100 14/09 A3032 RMK AO2 T01360085 PWINO,M
05U,2023-08-16 13:30,-116.0051,39.6042,1811.23,62.60,51.80,67.75,M,M,0.00,30.33,M,10.00,M,M,M,M,M,M,M,M,M,M,M,M,M,M,M,M,62.60,K05U 161330Z AUTO 10SM 17/11 A3033 RMK A01,M
BVU,2023-08-16 13:35,-114.8611,35.9475,671.00,87.80,57.20,35.53,360.00,6.00,0.00,30.01,M,10.00,M,CLR,M,M,M,M,M,M,M,M,M,M,M,M,M,M,86.58,KBVU 161335Z AUTO 36006KT 10SM CLR 31/14 A3001 RMK AO2,M
CXP,2023-08-16 13:35,-119.7326,39.1923,1431.00,62.60,46.40,55.37,0.00,0.00,0.00,30.28,M,10.00,M,SCT,M,M,M,11000.00,M,M,M,M,M,M,M,M,M,M,62.60,KCXP 161335Z AUTO 00000KT 10SM SCT110 17/08 A3028 RMK AO2,M
RTS,2023-08-16 13:35,-119.8764,39.6682,1539.00,55.40,39.20,54.34,330.00,4.00,0.00,30.28,M,10.00,M,FEW,M,M,M,11000.00,M,M,M,M,M,M,M,M,M,M,55.40,KRTS 161335Z AUTO 33004KT 10SM FEW110 13/04 A3028 RMK AO2,M
MEV,2023-08-16 13:35,-119.7500,38.9963,1441.42,50.00,44.60,81.61,0.00,0.00,0.00,30.27,M,10.00,M,CLR,M,M,M,M,M,M,M,M,M,M,M,M,M,M,50.00,KMEV 161335Z AUTO 00000KT 10SM CLR 10/07 A3027 RMK AO2,M
BAM,2023-08-16 13:35,-116.8743,40.5990,1382.36,73.40,46.40,38.18,80.00,4.00,0.00,30.21,M,10.00,M,CLR,M,M,M,M,M,M,M,M,M,M,M,M,M,M,73.40,KBAM 161335Z AUTO 08004KT 10SM CLR 23/08 A3021 RMK AO1,M
HTH,2023-08-16 13:35,-118.6315,38.5448,1282.89,64.40,44.60,48.55,0.00,0.00,0.00,30.22,M,10.00,M,CLR,M,M,M,M,M,M,M,M,M,M,M,M,M,M,64.40,KHTH 161335Z AUTO 00000KT 10SM CLR 18/07 A3022 RMK A01,M
10U,2023-08-16 13:35,-116.1876,41.9532,1637.00,60.80,42.80,51.45,160.00,4.00,0.00,30.27,M,10.00,M,CLR,M,M,M,M,M,M,M,M,M,M,M,M,M,M,60.80,K10U 161335Z AUTO 16004KT 10SM CLR 16/06 A3027 RMK AO2,M
TMT,2023-08-16 13:35,-117.1971,39.4643,1749.34,57.40,47.30,68.94,0.00,0.00,0.00,30.32,M,M,M,OVC,M,M,M,10000.00,M,M,M,M,M,M,M,M,M,M,57.40,KTMT 161335Z AUTO 00000KT OVC100 14/09 A3032 RMK AO2 T01410085 PWINO,M
NFL,2023-08-16 13:44,-118.7010,39.4166,1199.00,64.00,49.00,58.13,200.00,3.00,0.00,30.17,M,10.00,M,SCT,BKN,BKN,BKN,7000.00,10000.00,15000.00,20000.00,M,M,M,M,M,M,M,64.00,KNFL 161344Z 20003KT 10SM SCT070 BKN100 BKN150 BKN200 18/09 A3017 RMK AO2 T01780094,M
HTH,2023-08-16 13:50,-118.6315,38.5448,1282.89,66.20,44.60,45.60,170.00,3.00,0.00,30.22,M,10.00,M,CLR,M,M,M,M,M,M,M,M,M,M,M,M,M,M,66.20,KHTH 161350Z AUTO 17003KT 10SM CLR 19/07 A3022 RMK A01,M
P68,2023-08-16 13:53,-116.0056,39.6014,1993.00,63.00,51.00,64.85,210.00,4.00,0.00,30.30,1017.60,M,M,M,M,M,M,M,M,M,M,M,M,M,M,M,M,M,63.00,KP68 161353Z AUTO 21004KT 17/11 A3030 RMK AO1 SLP176 T01720106,M
ELY,2023-08-16 13:53,-114.8453,39.2950,1909.00,62.00,55.00,77.81,150.00,4.00,0.00,30.33,1017.10,10.00,M,FEW,OVC,M,M,8500.00,11000.00,M,M,M,M,M,M,M,M,M,62.00,KELY 161353Z AUTO 15004KT 10SM FEW085 OVC110 17/13 A3033 RMK AO2 SLP171 T01670128 $,M
VGT,2023-08-16 13:53,-115.1933,36.2111,667.00,88.00,58.00,36.34,100.00,5.00,0.00,30.02,1015.20,10.00,M,CLR,M,M,M,M,M,M,M,M,M,M,M,M,M,M,86.99,KVGT 161353Z 10005KT 10SM CLR 31/14 A3002 RMK AO2 SLP152 T03110144,M
LOL,2023-08-16 13:53,-118.5701,40.0684,1192.43,67.00,53.00,60.73,120.00,5.00,T,30.19,1018.10,10.00,M,OVC,M,M,M,11000.00,M,M,M,M,M,M,M,M,M,M,67.00,KLOL 161353Z AUTO 12005KT 10SM OVC110 19/12 A3019 RMK AO2 RAB1257E19 SLP181 P0000 T01940117,M
BVU,2023-08-16 13:55,-114.8611,35.9475,671.00,87.80,57.20,35.53,20.00,8.00,0.00,30.01,M,10.00,M,CLR,M,M,M,M,M,M,M,M,M,M,M,M,M,M,86.58,KBVU 161355Z AUTO 02008KT 10SM CLR 31/14 A3001 RMK AO2,M
CXP,2023-08-16 13:55,-119.7326,39.1923,1431.00,62.60,48.20,59.26,0.00,0.00,0.00,30.29,M,10.00,M,OVC,M,M,M,11000.00,M,M,M,M,M,M,M,M,M,M,62.60,KCXP 161355Z AUTO 00000KT 10SM OVC110 17/09 A3029 RMK AO2,M
INS,2023-08-16 13:55,-115.6733,36.5872,955.00,79.30,51.40,37.83,100.00,4.00,0.00,30.09,1013.60,10.00,M,CLR,M,M,M,M,M,M,M,M,M,M,M,M,M,M,79.30,KINS 161355Z AUTO 10004KT 10SM CLR 26/11 A3009 RMK AO2 SLP136 T02630108 $,M
RNO,2023-08-16 13:55,-119.7711,39.4839,1341.00,66.00,48.00,52.22,200.00,3.00,0.00,30.25,1018.80,10.00,M,SCT,SCT,M,M,11000.00,18000.00,M,M,M,M,M,M,M,M,M,66.00,KRNO 161355Z 20003KT 10SM SCT110 SCT180 19/09 A3025 RMK AO2 SLP188 T01890089,M
RTS,2023-08-16 13:55,-119.8764,39.6682,1539.00,55.40,39.20,54.34,0.00,0.00,0.00,30.29,M,10.00,M,BKN,M,M,M,11000.00,M,M,M,M,M,M,M,M,M,M,55.40,KRTS 161355Z AUTO 00000KT 10SM BKN110 13/04 A3029 RMK AO2,M
05U,2023-08-16 13:55,-116.0051,39.6042,1811.23,62.60,51.80,67.75,M,M,0.00,30.33,M,10.00,M,M,M,M,M,M,M,M,M,M,M,M,M,M,M,M,62.60,K05U 161355Z AUTO 10SM 17/11 A3033 RMK A01,M
MEV,2023-08-16 13:55,-119.7500,38.9963,1441.42,51.80,44.60,76.34,0.00,0.00,0.00,30.27,M,10.00,M,SCT,M,M,M,11000.00,M,M,M,M,M,M,M,M,M,M,51.80,KMEV 161355Z AUTO 00000KT 10SM SCT110 11/07 A3027 RMK AO2,M
LSV,2023-08-16 13:55,-115.0343,36.2362,570.00,86.40,56.00,35.57,40.00,9.00,0.00,29.98,1012.40,10.00,M,BKN,M,M,M,20000.00,M,M,M,M,M,M,M,M,M,M,85.02,KLSV 161355Z COR AUTO 04009KT 10SM BKN200 30/13 A2998 RMK AO2 SLP124 T03020134 $ COR 1403,M
BAM,2023-08-16 13:55,-116.8743,40.5990,1382.36,73.40,46.40,38.18,230.00,4.00,0.00,30.22,M,10.00,M,CLR,M,M,M,M,M,M,M,M,M,M,M,M,M,M,73.40,KBAM 161355Z AUTO 23004KT 10SM CLR 23/08 A3022 RMK AO1,M
TMT,2023-08-16 13:55,-117.1971,39.4643,1749.34,59.00,47.30,65.09,220.00,5.00,0.00,30.32,M,M,M,OVC,M,M,M,10000.00,M,M,M,M,M,M,M,M,M,M,59.00,KTMT 161355Z AUTO 22005KT OVC100 15/09 A3032 RMK AO2 T01490085 PWINO,M
10U,2023-08-16 13:55,-116.1876,41.9532,1637.00,64.40,44.60,48.55,170.00,6.00,0.00,30.27,M,10.00,M,FEW,M,M,M,11000.00,M,M,M,M,M,M,M,M,M,M,64.40,K10U 161355Z AUTO 17006KT 10SM FEW110 18/07 A3027 RMK AO2,M
EKO,2023-08-16 13:56,-115.7860,40.8242,1367.00,65.00,45.00,48.28,90.00,5.00,0.00,30.25,1017.90,10.00,M,CLR,M,M,M,M,M,M,M,M,M,M,M,M,M,M,65.00,KEKO 161356Z AUTO 09005KT 10SM CLR 18/07 A3025 RMK AO2 SLP179 T01830072,M
WMC,2023-08-16 13:56,-117.8072,40.9019,1315.00,78.00,42.00,27.69,200.00,5.00,0.00,30.19,1016.10,10.00,M,SCT,BKN,M,M,10000.00,12000.00,M,M,M,M,M,M,M,M,M,78.00,KWMC 161356Z AUTO 20005KT 10SM SCT100 BKN120 26/06 A3019 RMK AO2 SLP161 T02560056,M
NFL,2023-08-16 13:56,-118.7010,39.4166,1199.00,65.00,48.00,54.07,0.00,0.00,0.00,30.18,1018.50,10.00,M,SCT,BKN,BKN,BKN,7000.00,10000.00,15000.00,20000.00,M,M,M,M,M,M,M,65.00,KNFL 161356Z 00000KT 10SM SCT070 BKN100 BKN150 BKN200 18/09 A3018 RMK AO2 SLP185 T01830089,M
HND,2023-08-16 13:56,-115.1344,35.9729,742.79,85.00,60.00,42.95,0.00,0.00,0.00,30.07,1016.30,10.00,M,CLR,M,M,M,M,M,M,M,M,M,M,M,M,M,M,84.89,KHND 161356Z 00000KT 10SM CLR 29/16 A3007 RMK AO2 SLP163 T02940156,M
TPH,2023-08-16 13:56,-117.0904,38.0505,1654.00,64.00,45.00,49.99,360.00,6.00,0.00,30.29,1017.60,10.00,M,CLR,M,M,M,M,M,M,M,M,M,M,M,M,M,M,64.00,KTPH 161356Z AUTO 36006KT 10SM CLR 18/07 A3029 RMK AO2 SLP176 T01780072,M
LAS,2023-08-16 13:56,-115.1634,36.0719,663.00,88.00,57.00,35.05,10.00,5.00,0.00,30.03,1013.70,10.00,M,FEW,SCT,BKN,M,12000.00,16000.00,20000.00,M,M,M,M,M,M,M,M,86.71,KLAS 161356Z 01005KT 10SM FEW120 SCT160 BKN200 31/14 A3003 RMK AO2 SLP137 T03110139,M
05U,2023-08-16 14:10,-116.0051,39.6042,1811.23,64.40,50.00,59.50,M,M,0.00,30.33,M,10.00,M,M,M,M,M,M,M,M,M,M,M,M,M,M,M,M,64.40,K05U 161410Z AUTO 10SM 18/10 A3033 RMK A01,M
BVU,2023-08-16 14:15,-114.8611,35.9475,671.00,87.80,57.20,35.53,30.00,7.00,0.00,30.01,M,10.00,M,CLR,M,M,M,M,M,M,M,M,M,M,M,M,M,M,86.58,KBVU 161415Z AUTO 03007KT 10SM CLR 31/14 A3001 RMK AO2,M
CXP,2023-08-16 14:15,-119.7326,39.1923,1431.00,64.40,50.00,59.50,0.00,0.00,0.00,30.29,M,10.00,M,OVC,M,M,M,11000.00,M,M,M,M,M,M,M,M,M,M,64.40,KCXP 161415Z AUTO 00000KT 10SM OVC110 18/10 A3029 RMK AO2,M
RTS,2023-08-16 14:15,-119.8764,39.6682,1539.00,57.20,39.20,50.91,340.00,4.00,0.00,30.29,M,10.00,M,FEW,M,M,M,11000.00,M,M,M,M,M,M,M,M,M,M,57.20,KRTS 161415Z AUTO 34004KT 10SM FEW110 14/04 A3029 RMK AO2,M
MEV,2023-08-16 14:15,-119.7500,38.9963,1441.42,53.60,46.40,76.50,0.00,0.00,0.00,30.28,M,10.00,M,OVC,M,M,M,11000.00,M,M,M,M,M,M,M,M,M,M,53.60,KMEV 161415Z AUTO 00000KT 10SM OVC110 12/08 A3028 RMK AO2,M
HTH,2023-08-16 14:15,-118.6315,38.5448,1282.89,69.80,44.60,40.29,130.00,3.00,0.00,30.22,M,10.00,M,CLR,M,M,M,M,M,M,M,M,M,M,M,M,M,M,69.80,KHTH 161415Z AUTO 13003KT 10SM CLR 21/07 A3022 RMK A01,M
10U,2023-08-16 14:15,-116.1876,41.9532,1637.00,68.00,44.60,42.85,0.00,0.00,0.00,30.27,M,10.00,M,SCT,M,M,M,11000.00,M,M,M,M,M,M,M,M,M,M,68.00,K10U 161415Z AUTO 00000KT 10SM SCT110 20/07 A3027 RMK AO2,M
BAM,2023-08-16 14:15,-116.8743,40.5990,1382.36,73.40,46.40,38.18,0.00,0.00,0.00,30.21,M,10.00,M,CLR,M,M,M,M,M,M,M,M,M,M,M,M,M,M,73.40,KBAM 161415Z AUTO 00000KT 10SM CLR 23/08 A3021 RMK AO1,M
TMT,2023-08-16 14:15,-117.1971,39.4643,1749.34,59.00,47.30,65.09,90.00,3.00,0.00,30.33,M,M,M,BKN,M,M,M,11000.00,M,M,M,M,M,M,M,M,M,M,59.00,KTMT 161415Z AUTO 09003KT BKN110 15/09 A3033 RMK AO2 T01500085 PWINO,M
05U,2023-08-16 14:30,-116.0051,39.6042,1811.23,66.20,51.80,59.74,M,M,0.00,30.33,M,10.00,M,M,M,M,M,M,M,M,M,M,M,M,M,M,M,M,66.20,K05U 161430Z AUTO 10SM 19/11 A3033 RMK A01,M
BVU,2023-08-16 14:35,-114.8611,35.9475,671.00,89.60,57.20,33.56,30.00,8.00,0.00,30.02,M,10.00,M,CLR,M,M,M,M,M,M,M,M,M,M,M,M,M,M,88.28,KBVU 161435Z AUTO 03008KT 10SM CLR 32/14 A3002 RMK AO2,M
CXP,2023-08-16 14:35,-119.7326,39.1923,1431.00,66.20,50.00,55.88,0.00,0.00,0.00,30.29,M,10.00,M,SCT,M,M,M,11000.00,M,M,M,M,M,M,M,M,M,M,66.20,KCXP 161435Z AUTO 00000KT 10SM SCT110 19/10 A3029 RMK AO2,M
RTS,2023-08-16 14:35,-119.8764,39.6682,1539.00,60.80,41.00,48.00,340.00,3.00,0.00,30.29,M,10.00,M,CLR,M,M,M,M,M,M,M,M,M,M,M,M,M,M,60.80,KRTS 161435Z AUTO 34003KT 10SM CLR 16/05 A3029 RMK AO2,M
MEV,2023-08-16 14:35,-119.7500,38.9963,1441.42,59.00,48.20,67.33,0.00,0.00,0.00,30.28,M,10.00,M,BKN,M,M,M,11000.00,M,M,M,M,M,M,M,M,M,M,59.00,KMEV 161435Z AUTO 00000KT 10SM BKN110 15/09 A3028 RMK AO2,M
BAM,2023-08-16 14:35,-116.8743,40.5990,1382.36,77.00,48.20,36.22,0.00,0.00,0.00,30.21,M,10.00,M,SCT,M,M,M,12000.00,M,M,M,M,M,M,M,M,M,M,77.00,KBAM 161435Z AUTO 00000KT 10SM SCT120 25/09 A3021 RMK AO1,M
HTH,2023-08-16 14:35,-118.6315,38.5448,1282.89,71.60,48.20,43.42,290.00,4.00,0.00,30.22,M,10.00,M,CLR,M,M,M,M,M,M,M,M,M,M,M,M,M,M,71.60,KHTH 161435Z AUTO 29004KT 10SM CLR 22/09 A3022 RMK A01,M
TMT,2023-08-16 14:35,-117.1971,39.4643,1749.34,59.70,48.00,65.18,0.00,0.00,0.00,30.33,M,M,M,BKN,M,M,M,10000.00,M,M,M,M,M,M,M,M,M,M,59.70,KTMT 161435Z AUTO 00000KT BKN100 15/09 A3033 RMK AO2 T01540089 PWINO,M
10U,2023-08-16 14:35,-116.1876,41.9532,1637.00,71.60,44.60,37.89,0.00,0.00,0.00,30.27,M,10.00,M,FEW,M,M,M,11000.00,M,M,M,M,M,M,M,M,M,M,71.60,K10U 161435Z AUTO 00000KT 10SM FEW110 22/07 A3027 RMK AO2,M
P68,2023-08-16 14:53,-116.0056,39.6014,1993.00,65.00,52.00,62.74,230.00,3.00,0.00,30.31,1018.00,M,M,M,M,M,M,M,M,M,M,M,M,M,M,M,M,M,65.00,KP68 161453Z AUTO 23003KT 18/11 A3031 RMK AO1 SLP180 T01830111 51006,M
ELY,2023-08-16 14:53,-114.8453,39.2950,1909.00,65.00,54.00,67.52,190.00,8.00,0.00,30.33,1017.20,10.00,M,OVC,M,M,M,11000.00,M,M,M,M,M,M,M,M,M,M,65.00,KELY 161453Z AUTO 19008KT 10SM OVC110 18/12 A3033 RMK AO2 SLP172 T01830122 $,M
VGT,2023-08-16 14:53,-115.1933,36.2111,667.00,91.00,58.00,33.06,60.00,3.00,0.00,30.03,1015.40,10.00,M,CLR,M,M,M,M,M,M,M,M,M,M,M,M,M,M,89.92,KVGT 161453Z 06003KT 10SM CLR 33/14 A3003 RMK AO2 SLP154 T03280144 53011,M
LOL,2023-08-16 14:53,-118.5701,40.0684,1192.43,74.00,51.00,44.44,310.00,5.00,0.00,30.17,1017.20,10.00,M,SCT,M,M,M,12000.00,M,M,M,M,M,M,M,M,M,M,74.00,KLOL 161453Z AUTO 31005KT 10SM SCT120 23/11 A3017 RMK AO2 SLP172 60000 T02330106 50002,M
BVU,2023-08-16 14:55,-114.8611,35.9475,671.00,89.60,57.20,33.56,10.00,8.00,0.00,30.02,M,10.00,M,CLR,M,M,M,M,M,M,M,M,M,M,M,M,M,M,88.28,KBVU 161455Z AUTO 01008KT 10SM CLR 32/14 A3002 RMK AO2,M
CXP,2023-08-16 14:55,-119.7326,39.1923,1431.00,66.20,48.20,52.25,0.00,0.00,0.00,30.29,M,10.00,M,CLR,M,M,M,M,M,M,M,M,M,M,M,M,M,M,66.20,KCXP 161455Z AUTO 00000KT 10SM CLR 19/09 A3029 RMK AO2,M
INS,2023-08-16 14:55,-115.6733,36.5872,955.00,83.30,51.00,32.72,110.00,7.00,0.00,30.10,1013.80,10.00,M,M,M,M,M,M,M,M,M,M,M,M,M,M,M,M,81.72,KINS 161455Z AUTO 11007KT 10SM M 29/11 A3010 RMK AO2 SLP138 T02850106 52011 $,M
RNO,2023-08-16 14:55,-119.7711,39.4839,1341.00,69.00,48.00,47.09,160.00,3.00,0.00,30.25,1018.80,10.00,M,SCT,SCT,M,M,11000.00,18000.00,M,M,M,M,M,M,M,M,M,69.00,KRNO 161455Z 16003KT 10SM SCT110 SCT180 21/09 A3025 RMK AO2 SLP188 ACC S THRU SW T02060089 51008,M
RTS,2023-08-16 14:55,-119.8764,39.6682,1539.00,66.20,41.00,39.72,0.00,0.00,0.00,30.29,M,10.00,M,CLR,M,M,M,M,M,M,M,M,M,M,M,M,M,M,66.20,KRTS 161455Z AUTO 00000KT 10SM CLR 19/05 A3029 RMK AO2,M
05U,2023-08-16 14:55,-116.0051,39.6042,1811.23,66.20,51.80,59.74,M,M,0.00,30.34,M,10.00,M,M,M,M,M,M,M,M,M,M,M,M,M,M,M,M,66.20,K05U 161455Z AUTO 10SM 19/11 A3034 RMK A01,M
MEV,2023-08-16 14:55,-119.7500,38.9963,1441.42,62.60,50.00,63.38,0.00,0.00,0.00,30.28,M,10.00,M,BKN,M,M,M,11000.00,M,M,M,M,M,M,M,M,M,M,62.60,KMEV 161455Z AUTO 00000KT 10SM BKN110 17/10 A3028 RMK AO2,M
BAM,2023-08-16 14:55,-116.8743,40.5990,1382.36,78.80,48.20,34.13,0.00,0.00,0.00,30.22,M,10.00,M,CLR,M,M,M,M,M,M,M,M,M,M,M,M,M,M,78.80,KBAM 161455Z AUTO 00000KT 10SM CLR 26/09 A3022 RMK AO1,M
HTH,2023-08-16 14:55,-118.6315,38.5448,1282.89,71.60,48.20,43.42,270.00,4.00,0.00,30.23,M,10.00,M,CLR,M,M,M,M,M,M,M,M,M,M,M,M,M,M,71.60,KHTH 161455Z AUTO 27004KT 10SM CLR 22/09 A3023 RMK A01,M
TMT,2023-08-16 14:55,-117.1971,39.4643,1749.34,61.00,47.70,61.54,0.00,0.00,0.00,30.33,M,M,M,BKN,M,M,M,10000.00,M,M,M,M,M,M,M,M,M,M,61.00,KTMT 161455Z AUTO 00000KT BKN100 16/09 A3033 RMK AO2 T01620087 PWINO,M
10U,2023-08-16 14:55,-116.1876,41.9532,1637.00,75.20,44.60,33.57,140.00,5.00,0.00,30.28,M,10.00,M,BKN,M,M,M,11000.00,M,M,M,M,M,M,M,M,M,M,75.20,K10U 161455Z AUTO 14005KT 10SM BKN110 24/07 A3028 RMK AO2,M
LSV,2023-08-16 14:55,-115.0343,36.2362,570.00,89.20,56.30,32.90,30.00,9.00,0.00,29.99,1012.70,10.00,M,FEW,M,M,M,20000.00,M,M,M,M,M,M,M,M,M,M,87.64,KLSV 161455Z AUTO 03009KT 10SM FEW200 32/14 A2999 RMK AO2 SLP127 T03180135 52010 $,M
NFL,2023-08-16 14:56,-118.7010,39.4166,1199.00,71.00,50.00,47.39,0.00,0.00,0.00,30.19,1018.70,10.00,M,SCT,SCT,BKN,BKN,7000.00,10000.00,15000.00,20000.00,M,M,M,M,M,M,M,71.00,KNFL 161456Z 00000KT 10SM SCT070 SCT100 BKN150 BKN200 22/10 A3019 RMK AO2 SLP187 T02170100 53009,M
EKO,2023-08-16 14:56,-115.7860,40.8242,1367.00,71.00,46.00,40.78,90.00,3.00,0.00,30.25,1018.50,10.00,M,BKN,M,M,M,12000.00,M,M,M,M,M,M,M,M,M,M,71.00,KEKO 161456Z AUTO 09003KT 10SM BKN120 22/08 A3025 RMK AO2 SLP185 T02170078 51007,M
WMC,2023-08-16 14:56,-117.8072,40.9019,1315.00,80.00,43.00,26.94,350.00,5.00,T,30.20,1016.50,10.00,M,CLR,M,M,M,M,M,M,M,M,M,M,M,M,M,M,78.97,KWMC 161456Z AUTO 35005KT 10SM CLR 27/06 A3020 RMK AO2 RAB00E09 SLP165 P0000 60000 T02670061 51010,M
HND,2023-08-16 14:56,-115.1344,35.9729,742.79,88.00,58.00,36.34,40.00,5.00,0.00,30.08,1016.70,10.00,M,CLR,M,M,M,M,M,M,M,M,M,M,M,M,M,M,86.99,KHND 161456Z 04005KT 10SM CLR 31/14 A3008 RMK AO2 SLP167 T03110144 51011,M
TPH,2023-08-16 14:56,-117.0904,38.0505,1654.00,72.00,46.00,39.42,20.00,7.00,0.00,30.29,1017.30,10.00,M,CLR,M,M,M,M,M,M,M,M,M,M,M,M,M,M,72.00,KTPH 161456Z AUTO 02007KT 10SM CLR 22/08 A3029 RMK AO2 SLP173 T02220078 51005,M
LAS,2023-08-16 14:56,-115.1634,36.0719,663.00,88.00,57.00,35.05,50.00,6.00,0.00,30.04,1014.20,10.00,M,FEW,SCT,BKN,M,12000.00,16000.00,20000.00,M,M,M,M,M,M,M,M,86.71,KLAS 161456Z 05006KT 10SM FEW120 SCT160 BKN200 31/14 A3004 RMK AO2 SLP142 T03110139 53013,M
05U,2023-08-16 15:10,-116.0051,39.6042,1811.23,66.20,50.00,55.88,M,M,0.00,30.34,M,10.00,M,M,M,M,M,M,M,M,M,M,M,M,M,M,M,M,66.20,K05U 161510Z AUTO 10SM 19/10 A3034 RMK A01,M
BVU,2023-08-16 15:15,-114.8611,35.9475,671.00,89.60,57.20,33.56,30.00,8.00,0.00,30.02,M,10.00,M,CLR,M,M,M,M,M,M,M,M,M,M,M,M,M,M,88.28,KBVU 161515Z AUTO 03008KT 10SM CLR 32/14 A3002 RMK AO2,M
CXP,2023-08-16 15:15,-119.7326,39.1923,1431.00,68.00,44.60,42.85,M,3.00,0.00,30.29,M,10.00,M,CLR,M,M,M,M,M,M,M,M,M,M,M,M,M,M,68.00,KCXP 161515Z AUTO VRB03KT 10SM CLR 20/07 A3029 RMK AO2,M
RTS,2023-08-16 15:15,-119.8764,39.6682,1539.00,68.00,42.80,40.00,0.00,0.00,0.00,30.29,M,10.00,M,CLR,M,M,M,M,M,M,M,M,M,M,M,M,M,M,68.00,KRTS 161515Z AUTO 00000KT 10SM CLR 20/06 A3029 RMK AO2,M
MEV,2023-08-16 15:15,-119.7500,38.9963,1441.42,64.40,50.00,59.50,0.00,0.00,0.00,30.27,M,10.00,M,FEW,M,M,M,11000.00,M,M,M,M,M,M,M,M,M,M,64.40,KMEV 161515Z AUTO 00000KT 10SM FEW110 18/10 A3027 RMK AO2,M
HTH,2023-08-16 15:15,-118.6315,38.5448,1282.89,71.60,48.20,43.42,310.00,3.00,0.00,30.23,M,10.00,M,CLR,M,M,M,M,M,M,M,M,M,M,M,M,M,M,71.60,KHTH 161515Z AUTO 31003KT 10SM CLR 22/09 A3023 RMK A01,M
10U,2023-08-16 15:15,-116.1876,41.9532,1637.00,77.00,44.60,31.62,130.00,5.00,0.00,30.28,M,10.00,M,OVC,M,M,M,11000.00,M,M,M,M,M,M,M,M,M,M,77.00,K10U 161515Z AUTO 13005KT 10SM OVC110 25/07 A3028 RMK AO2,M
BAM,2023-08-16 15:15,-116.8743,40.5990,1382.36,80.60,46.40,30.07,220.00,4.00,0.00,30.22,M,10.00,M,CLR,M,M,M,M,M,M,M,M,M,M,M,M,M,M,79.56,KBAM 161515Z AUTO 22004KT 10SM CLR 27/08 A3022 RMK AO1,M
TMT,2023-08-16 15:15,-117.1971,39.4643,1749.34,61.70,48.70,62.32,0.00,0.00,0.00,30.34,M,M,M,SCT,SCT,BKN,M,4000.00,5000.00,12000.00,M,M,M,M,M,M,M,M,61.70,KTMT 161515Z AUTO 00000KT SCT040 SCT050 BKN120 17/09 A3034 RMK AO2 T01650093 PWINO,M
BVU,2023-08-16 15:35,-114.8611,35.9475,671.00,87.80,57.20,35.53,20.00,7.00,0.00,30.02,M,10.00,M,CLR,M,M,M,M,M,M,M,M,M,M,M,M,M,M,86.58,KBVU 161535Z AUTO 02007KT 10SM CLR 31/14 A3002 RMK AO2,M
CXP,2023-08-16 15:35,-119.7326,39.1923,1431.00,68.00,46.40,45.88,0.00,0.00,0.00,30.29,M,10.00,M,CLR,M,M,M,M,M,M,M,M,M,M,M,M,M,M,68.00,KCXP 161535Z AUTO 00000KT 10SM CLR 20/08 A3029 RMK AO2,M
RTS,2023-08-16 15:35,-119.8764,39.6682,1539.00,69.80,42.80,37.61,0.00,0.00,0.00,30.29,M,10.00,M,CLR,M,M,M,M,M,M,M,M,M,M,M,M,M,M,69.80,KRTS 161535Z AUTO 00000KT 10SM CLR 21/06 A3029 RMK AO2,M
05U,2023-08-16 15:35,-116.0051,39.6042,1811.23,68.00,51.80,56.13,M,M,0.00,30.35,M,10.00,M,M,M,M,M,M,M,M,M,M,M,M,M,M,M,M,68.00,K05U 161535Z AUTO 10SM 20/11 A3035 RMK A01,M
MEV,2023-08-16 15:35,-119.7500,38.9963,1441.42,66.20,48.20,52.25,340.00,5.00,0.00,30.27,M,5.00,M,CLR,M,M,M,M,M,M,M,HZ,M,M,M,M,M,M,66.20,KMEV 161535Z AUTO 34005KT 5SM HZ CLR 19/09 A3027 RMK AO2,M
HTH,2023-08-16 15:35,-118.6315,38.5448,1282.89,73.40,46.40,38.18,0.00,0.00,0.00,30.23,M,10.00,M,CLR,M,M,M,M,M,M,M,M,M,M,M,M,M,M,73.40,KHTH 161535Z AUTO 00000KT 10SM CLR 23/08 A3023 RMK A01,M
10U,2023-08-16 15:35,-116.1876,41.9532,1637.00,78.80,42.80,27.81,0.00,0.00,0.00,30.28,M,10.00,M,BKN,M,M,M,12000.00,M,M,M,M,M,M,M,M,M,M,78.80,K10U 161535Z AUTO 00000KT 10SM BKN120 26/06 A3028 RMK AO2,M
BAM,2023-08-16 15:35,-116.8743,40.5990,1382.36,82.40,46.40,28.36,220.00,4.00,0.00,30.23,M,10.00,M,CLR,M,M,M,M,M,M,M,M,M,M,M,M,M,M,80.64,KBAM 161535Z AUTO 22004KT 10SM CLR 28/08 A3023 RMK AO1,M
TMT,2023-08-16 15:35,-117.1971,39.4643,1749.34,62.00,51.40,68.18,0.00,0.00,0.00,30.34,M,M,M,SCT,SCT,BKN,M,3000.00,4200.00,11000.00,M,M,M,M,M,M,M,M,62.00,KTMT 161535Z AUTO 00000KT SCT030 SCT042 BKN110 17/11 A3034 RMK AO2 T01670108 PWINO,M
05U,2023-08-16 15:50,-116.0051,39.6042,1811.23,68.00,51.80,56.13,M,M,0.00,30.34,M,10.00,M,M,M,M,M,M,M,M,M,M,M,M,M,M,M,M,68.00,K05U 161550Z AUTO 10SM 20/11 A3034 RMK A01,M
P68,2023-08-16 15:53,-116.0056,39.6014,1993.00,68.00,52.00,56.55,240.00,3.00,0.00,30.32,1018.10,M,M,M,M,M,M,M,M,M,M,M,M,M,M,M,M,M,68.00,KP68 161553Z AUTO 24003KT 20/11 A3032 RMK AO1 SLP181 T02000111,M
DRA,2023-08-16 15:53,-116.0278,36.6206,1009.00,87.00,54.00,32.45,120.00,6.00,0.00,30.11,1013.80,10.00,M,CLR,M,M,M,M,M,M,M,M,M,M,M,M,M,M,85.10,KDRA 161553Z AUTO 12006KT 10SM CLR 31/12 A3011 RMK AO2 SLP138 T03060122,M
ELY,2023-08-16 15:53,-114.8453,39.2950,1909.00,68.00,54.00,60.86,180.00,8.00,0.00,30.34,1017.30,10.00,M,OVC,M,M,M,11000.00,M,M,M,M,M,M,M,M,M,M,68.00,KELY 161553Z AUTO 18008KT 10SM OVC110 20/12 A3034 RMK AO2 SLP173 T02000122,M
VGT,2023-08-16 15:53,-115.1933,36.2111,667.00,92.00,57.00,30.91,90.00,4.00,0.00,30.03,1015.30,10.00,M,CLR,M,M,M,M,M,M,M,M,M,M,M,M,M,M,90.60,KVGT 161553Z 09004KT 10SM CLR 33/14 A3003 RMK AO2 SLP153 T03330139,M
LOL,2023-08-16 15:53,-118.5701,40.0684,1192.43,74.00,51.00,44.44,30.00,3.00,0.00,30.19,1018.20,10.00,M,SCT,M,M,M,10000.00,M,M,M,M,M,M,M,M,M,M,74.00,KLOL 161553Z AUTO 03003KT 10SM SCT100 23/11 A3019 RMK AO2 SLP182 T02330106,M
BVU,2023-08-16 15:55,-114.8611,35.9475,671.00,89.60,55.40,31.45,330.00,7.00,0.00,30.03,M,10.00,M,CLR,M,M,M,M,M,M,M,M,M,M,M,M,M,M,87.78,KBVU 161555Z AUTO 33007KT 10SM CLR 32/13 A3003 RMK AO2,M
CXP,2023-08-16 15:55,-119.7326,39.1923,1431.00,71.60,44.60,37.89,0.00,0.00,0.00,30.28,M,10.00,M,CLR,M,M,M,M,M,M,M,M,M,M,M,M,M,M,71.60,KCXP 161555Z AUTO 00000KT 10SM CLR 22/07 A3028 RMK AO2,M
INS,2023-08-16 15:55,-115.6733,36.5872,955.00,84.70,53.20,33.91,90.00,5.00,0.00,30.10,1013.90,10.00,M,BKN,OVC,M,M,16000.00,19000.00,M,M,M,M,M,M,M,M,M,83.07,KINS 161555Z AUTO 09005KT 10SM BKN160 OVC190 29/12 A3010 RMK AO2 SLP139 T02930118 $,M
RNO,2023-08-16 15:55,-119.7711,39.4839,1341.00,73.00,48.00,41.10,0.00,0.00,0.00,30.25,1018.70,10.00,M,BKN,M,M,M,11000.00,M,M,M,M,M,M,M,M,M,M,73.00,KRNO 161555Z 00000KT 10SM BKN110 23/09 A3025 RMK AO2 SLP187 ACC ALQDS T02280089,M
LSV,2023-08-16 15:55,-115.0343,36.2362,570.00,92.00,56.00,29.81,30.00,8.00,0.00,29.99,1012.70,10.00,M,CLR,M,M,M,M,M,M,M,M,M,M,M,M,M,M,90.30,KLSV 161555Z AUTO 03008KT 10SM CLR 33/13 A2999 RMK AO2 SLP127 T03340134 $,M
RTS,2023-08-16 15:55,-119.8764,39.6682,1539.00,71.60,42.80,35.37,0.00,0.00,0.00,30.29,M,10.00,M,CLR,M,M,M,M,M,M,M,M,M,M,M,M,M,M,71.60,KRTS 161555Z AUTO 00000KT 10SM CLR 22/06 A3029 RMK AO2,M
MEV,2023-08-16 15:55,-119.7500,38.9963,1441.42,68.00,44.60,42.85,320.00,4.00,0.00,30.26,M,10.00,M,SCT,M,M,M,11000.00,M,M,M,M,M,M,M,M,M,M,68.00,KMEV 161555Z AUTO 32004KT 10SM SCT110 20/07 A3026 RMK AO2,M
BAM,2023-08-16 15:55,-116.8743,40.5990,1382.36,82.40,46.40,28.36,220.00,5.00,0.00,30.23,M,10.00,M,CLR,M,M,M,M,M,M,M,M,M,M,M,M,M,M,80.64,KBAM 161555Z AUTO 22005KT 10SM CLR 28/08 A3023 RMK AO1,M
HTH,2023-08-16 15:55,-118.6315,38.5448,1282.89,75.20,46.40,35.94,300.00,5.00,0.00,30.23,M,10.00,M,CLR,M,M,M,M,M,M,M,M,M,M,M,M,M,M,75.20,KHTH 161555Z AUTO 30005KT 10SM CLR 24/08 A3023 RMK A01,M
TMT,2023-08-16 15:55,-117.1971,39.4643,1749.34,64.20,51.00,62.18,0.00,0.00,0.00,30.34,M,M,M,SCT,BKN,M,M,4600.00,11000.00,M,M,M,M,M,M,M,M,M,64.20,KTMT 161555Z AUTO 00000KT SCT046 BKN110 18/11 A3034 RMK AO2 T01790105 PWINO,M
10U,2023-08-16 15:55,-116.1876,41.9532,1637.00,80.60,41.00,24.46,190.00,4.00,0.00,30.28,M,10.00,M,OVC,M,M,M,12000.00,M,M,M,M,M,M,M,M,M,M,79.20,K10U 161555Z AUTO 19004KT 10SM OVC120 27/05 A3028 RMK AO2,M
EKO,2023-08-16 15:56,-115.7860,40.8242,1367.00,76.00,47.00,35.80,M,3.00,0.00,30.25,1018.20,10.00,M,FEW,M,M,M,12000.00,M,M,M,M,M,M,M,M,M,M,76.00,KEKO 161556Z AUTO VRB03KT 10SM FEW120 24/08 A3025 RMK AO2 SLP182 T02440083,M
WMC,2023-08-16 15:56,-117.8072,40.9019,1315.00,81.00,45.00,28.15,0.00,0.00,0.00,30.20,1017.00,10.00,M,SCT,M,M,M,12000.00,M,M,M,M,M,M,M,M,M,M,79.68,KWMC 161556Z AUTO 00000KT 10SM SCT120 27/07 A3020 RMK AO2 SLP170 T02720072,M
NFL,2023-08-16 15:56,-118.7010,39.4166,1199.00,77.00,49.00,37.33,200.00,4.00,0.00,30.20,1019.00,10.00,M,FEW,BKN,BKN,M,7000.00,11000.00,17000.00,M,M,M,M,M,M,M,M,77.00,KNFL 161556Z COR 20004KT 10SM FEW070 BKN110 BKN170 25/09 A3020 RMK AO2 SLP190 T02500094,M
HND,2023-08-16 15:56,-115.1344,35.9729,742.79,90.00,58.00,34.11,0.00,0.00,0.00,30.08,1016.70,10.00,M,CLR,M,M,M,M,M,M,M,M,M,M,M,M,M,M,88.92,KHND 161556Z 00000KT 10SM CLR 32/14 A3008 RMK AO2 SLP167 T03220144,M
TPH,2023-08-16 15:56,-117.0904,38.0505,1654.00,77.00,46.00,33.34,M,5.00,0.00,30.29,1017.10,10.00,M,CLR,M,M,M,M,M,M,M,M,M,M,M,M,M,M,77.00,KTPH 161556Z AUTO VRB05KT 10SM CLR 25/08 A3029 RMK AO2 SLP171 T02500078,M
LAS,2023-08-16 15:56,-115.1634,36.0719,663.00,91.00,57.00,31.89,50.00,6.00,0.00,30.03,1013.80,10.00,M,FEW,SCT,SCT,M,12000.00,16000.00,20000.00,M,M,M,M,M,M,M,M,89.59,KLAS 161556Z 05006KT 10SM FEW120 SCT160 SCT200 33/14 A3003 RMK AO2 SLP138 T03280139,M
BVU,2023-08-16 16:15,-114.8611,35.9475,671.00,91.40,55.40,29.72,340.00,6.00,0.00,30.02,M,10.00,M,CLR,M,M,M,M,M,M,M,M,M,M,M,M,M,M,89.53,KBVU 161615Z AUTO 34006KT 10SM CLR 33/13 A3002 RMK AO2,M
CXP,2023-08-16 16:15,-119.7326,39.1923,1431.00,73.40,42.80,33.29,0.00,0.00,0.00,30.28,M,10.00,M,CLR,M,M,M,M,M,M,M,M,M,M,M,M,M,M,73.40,KCXP 161615Z AUTO 00000KT 10SM CLR 23/06 A3028 RMK AO2,M
RTS,2023-08-16 16:15,-119.8764,39.6682,1539.00,75.20,41.00,29.23,0.00,0.00,0.00,30.29,M,10.00,M,CLR,M,M,M,M,M,M,M,M,M,M,M,M,M,M,75.20,KRTS 161615Z AUTO 00000KT 10SM CLR 24/05 A3029 RMK AO2,M
05U,2023-08-16 16:15,-116.0051,39.6042,1811.23,71.60,51.80,49.64,M,M,0.00,30.35,M,10.00,M,M,M,M,M,M,M,M,M,M,M,M,M,M,M,M,71.60,K05U 161615Z AUTO 10SM 22/11 A3035 RMK A01,M
MEV,2023-08-16 16:15,-119.7500,38.9963,1441.42,71.60,48.20,43.42,250.00,8.00,0.00,30.26,M,10.00,M,FEW,M,M,M,11000.00,M,M,M,M,M,M,M,M,M,M,71.60,KMEV 161615Z AUTO 25008KT 10SM FEW110 22/09 A3026 RMK AO2,M
HTH,2023-08-16 16:15,-118.6315,38.5448,1282.89,77.00,46.40,33.85,300.00,5.00,0.00,30.23,M,10.00,M,CLR,M,M,M,M,M,M,M,M,M,M,M,M,M,M,77.00,KHTH 161615Z AUTO 30005KT 10SM CLR 25/08 A3023 RMK A01,M
10U,2023-08-16 16:15,-116.1876,41.9532,1637.00,84.20,39.20,20.29,0.00,0.00,0.00,30.27,M,10.00,M,SCT,M,M,M,12000.00,M,M,M,M,M,M,M,M,M,M,81.44,K10U 161615Z AUTO 00000KT 10SM SCT120 29/04 A3027 RMK AO2,M
BAM,2023-08-16 16:15,-116.8743,40.5990,1382.36,82.40,48.20,30.35,220.00,5.00,0.00,30.23,M,10.00,M,SCT,M,M,M,12000.00,M,M,M,M,M,M,M,M,M,M,80.80,KBAM 161615Z AUTO 22005KT 10SM SCT120 28/09 A3023 RMK AO1,M
TMT,2023-08-16 16:15,-117.1971,39.4643,1749.34,65.70,51.40,59.89,220.00,3.00,0.00,30.34,M,M,M,OVC,M,M,M,10000.00,M,M,M,M,M,M,M,M,M,M,65.70,KTMT 161615Z AUTO 22003KT OVC100 19/11 A3034 RMK AO2 T01870108 PWINO,M
05U,2023-08-16 16:30,-116.0051,39.6042,1811.23,71.60,51.80,49.64,M,M,0.00,30.35,M,10.00,M,M,M,M,M,M,M,M,M,M,M,M,M,M,M,M,71.60,K05U 161630Z AUTO 10SM 22/11 A3035 RMK A01,M
BVU,2023-08-16 16:35,-114.8611,35.9475,671.00,91.40,55.40,29.72,340.00,7.00,0.00,30.02,M,10.00,M,CLR,M,M,M,M,M,M,M,M,M,M,M,M,M,M,89.53,KBVU 161635Z AUTO 34007KT 10SM CLR 33/13 A3002 RMK AO2,M
CXP,2023-08-16 16:35,-119.7326,39.1923,1431.00,75.20,42.80,31.34,0.00,0.00,0.00,30.27,M,10.00,M,CLR,M,M,M,M,M,M,M,M,M,M,M,M,M,M,75.20,KCXP 161635Z AUTO 00000KT 10SM CLR 24/06 A3027 RMK AO2,M
RTS,2023-08-16 16:35,-119.8764,39.6682,1539.00,77.00,41.00,27.53,120.00,3.00,0.00,30.29,M,10.00,M,FEW,M,M,M,12000.00,M,M,M,M,M,M,M,M,M,M,77.00,KRTS 161635Z AUTO 12003KT 10SM FEW120 25/05 A3029 RMK AO2,M
MEV,2023-08-16 16:35,-119.7500,38.9963,1441.42,73.40,46.40,38.18,240.00,6.00,0.00,30.26,M,9.00,M,CLR,M,M,M,M,M,M,M,M,M,M,M,M,M,M,73.40,KMEV 161635Z AUTO 24006KT 9SM CLR 23/08 A3026 RMK AO2,M
HTH,2023-08-16 16:35,-118.6315,38.5448,1282.89,77.00,44.60,31.62,M,3.00,0.00,30.22,M,10.00,M,CLR,M,M,M,M,M,M,M,M,M,M,M,M,M,M,77.00,KHTH 161635Z AUTO VRB03KT 10SM CLR 25/07 A3022 RMK A01,M
10U,2023-08-16 16:35,-116.1876,41.9532,1637.00,84.20,39.20,20.29,M,3.00,0.00,30.28,M,10.00,M,CLR,M,M,M,M,M,M,M,M,M,M,M,M,M,M,81.44,K10U 161635Z AUTO VRB03KT 10SM CLR 29/04 A3028 RMK AO2,M
BAM,2023-08-16 16:35,-116.8743,40.5990,1382.36,82.40,48.20,30.35,230.00,5.00,0.00,30.23,M,10.00,M,SCT,M,M,M,12000.00,M,M,M,M,M,M,M,M,M,M,80.80,KBAM 161635Z AUTO 23005KT 10SM SCT120 28/09 A3023 RMK AO1,M
TMT,2023-08-16 16:35,-117.1971,39.4643,1749.34,67.50,51.30,56.06,0.00,0.00,0.00,30.34,M,M,M,SCT,M,M,M,11000.00,M,M,M,M,M,M,M,M,M,M,67.50,KTMT 161635Z AUTO 00000KT SCT110 20/11 A3034 RMK AO2 T01970107 PWINO,M
DRA,2023-08-16 16:53,-116.0278,36.6206,1009.00,90.00,54.00,29.51,110.00,7.00,0.00,30.10,1013.30,10.00,M,CLR,M,M,M,M,M,M,M,M,M,M,M,M,M,M,87.82,KDRA 161653Z AUTO 11007KT 10SM CLR 32/12 A3010 RMK AO2 SLP133 T03220122,M
ELY,2023-08-16 16:53,-114.8453,39.2950,1909.00,72.00,54.00,53.09,180.00,5.00,0.00,30.33,1016.70,10.00,M,OVC,M,M,M,11000.00,M,M,M,M,M,M,M,M,M,M,72.00,KELY 161653Z AUTO 18005KT 10SM OVC110 22/12 A3033 RMK AO2 SLP167 T02220122,M
VGT,2023-08-16 16:53,-115.1933,36.2111,667.00,94.00,57.00,29.05,0.00,0.00,0.00,30.02,1015.20,10.00,M,CLR,M,M,M,M,M,M,M,M,M,M,M,M,M,M,92.68,KVGT 161653Z 00000KT 10SM CLR 34/14 A3002 RMK AO2 SLP152 T03440139,M
LOL,2023-08-16 16:53,-118.5701,40.0684,1192.43,78.00,49.00,36.11,200.00,5.00,0.00,30.19,1018.10,10.00,M,SCT,M,M,M,12000.00,M,M,M,M,M,M,M,M,M,M,78.00,KLOL 161653Z AUTO 20005KT 10SM SCT120 26/09 A3019 RMK AO2 SLP181 T02560094,M
HND,2023-08-16 16:54,-115.1344,35.9729,742.79,M,M,M,50.00,6.00,0.00,30.08,M,10.00,M,CLR,M,M,M,M,M,M,M,M,M,M,M,M,M,M,M,KHND 161654Z 05006KT 10SM SKC A3008 RMK FX,M
BVU,2023-08-16 16:55,-114.8611,35.9475,671.00,93.20,55.40,28.10,350.00,4.00,0.00,30.02,M,10.00,M,CLR,M,M,M,M,M,M,M,M,M,M,M,M,M,M,91.35,KBVU 161655Z AUTO 35004KT 10SM CLR 34/13 A3002 RMK AO2,M
CXP,2023-08-16 16:55,-119.7326,39.1923,1431.00,77.00,41.00,27.53,0.00,0.00,0.00,30.26,M,10.00,M,CLR,M,M,M,M,M,M,M,M,M,M,M,M,M,M,77.00,KCXP 161655Z AUTO 00000KT 10SM CLR 25/05 A3026 RMK AO2,M
INS,2023-08-16 16:55,-115.6733,36.5872,955.00,86.70,53.20,31.81,80.00,3.00,0.00,30.09,1013.60,10.00,M,OVC,M,M,M,16000.00,M,M,M,M,M,M,M,M,M,M,84.69,KINS 161655Z AUTO 08003KT 10SM OVC160 30/12 A3009 RMK AO2 SLP136 T03040118 $,M
RNO,2023-08-16 16:55,-119.7711,39.4839,1341.00,79.00,48.00,33.66,0.00,0.00,0.00,30.25,1018.20,10.00,M,SCT,M,M,M,11000.00,M,M,M,M,M,M,M,M,M,M,79.00,KRNO 161655Z 00000KT 10SM SCT110 26/09 A3025 RMK AO2 SLP182 T02610089,M
LSV,2023-08-16 16:55,-115.0343,36.2362,570.00,96.40,56.00,26.02,30.00,6.00,0.00,29.98,1012.30,10.00,M,CLR,M,M,M,M,M,M,M,M,M,M,M,M,M,M,94.91,KLSV 161655Z AUTO 03006KT 10SM CLR 36/13 A2998 RMK AO2 SLP123 T03580133 $,M
RTS,2023-08-16 16:55,-119.8764,39.6682,1539.00,78.80,39.20,24.19,130.00,4.00,0.00,30.28,M,10.00,M,FEW,M,M,M,12000.00,M,M,M,M,M,M,M,M,M,M,78.80,KRTS 161655Z AUTO 13004KT 10SM FEW120 26/04 A3028 RMK AO2,M
05U,2023-08-16 16:55,-116.0051,39.6042,1811.23,71.60,53.60,53.03,M,M,0.00,30.35,M,10.00,M,M,M,M,M,M,M,M,M,M,M,M,M,M,M,M,71.60,K05U 161655Z AUTO 10SM 22/12 A3035 RMK A01,M
MEV,2023-08-16 16:55,-119.7500,38.9963,1441.42,77.00,46.40,33.85,220.00,5.00,0.00,30.25,M,9.00,M,CLR,M,M,M,M,M,M,M,M,M,M,M,M,M,M,77.00,KMEV 161655Z AUTO 22005KT 9SM CLR 25/08 A3025 RMK AO2,M
BAM,2023-08-16 16:55,-116.8743,40.5990,1382.36,84.20,48.20,28.63,240.00,5.00,0.00,30.23,M,10.00,M,SCT,M,M,M,12000.00,M,M,M,M,M,M,M,M,M,M,82.04,KBAM 161655Z AUTO 24005KT 10SM SCT120 29/09 A3023 RMK AO1,M
HTH,2023-08-16 16:55,-118.6315,38.5448,1282.89,78.80,46.40,31.90,M,3.00,0.00,30.22,M,10.00,M,CLR,M,M,M,M,M,M,M,M,M,M,M,M,M,M,78.80,KHTH 161655Z AUTO VRB03KT 10SM CLR 26/08 A3022 RMK A01,M
TMT,2023-08-16 16:55,-117.1971,39.4643,1749.34,68.50,51.60,54.77,0.00,0.00,0.00,30.34,M,M,M,SCT,SCT,BKN,M,8500.00,10000.00,12000.00,M,M,M,M,M,M,M,M,68.50,KTMT 161655Z AUTO 00000KT SCT085 SCT100 BKN120 20/11 A3034 RMK AO2 T02030109 PWINO,M
10U,2023-08-16 16:55,-116.1876,41.9532,1637.00,86.00,39.20,19.15,M,3.00,0.00,30.27,M,10.00,M,CLR,M,M,M,M,M,M,M,M,M,M,M,M,M,M,82.79,K10U 161655Z AUTO VRB03KT 10SM CLR 30/04 A3027 RMK AO2,M
EKO,2023-08-16 16:56,-115.7860,40.8242,1367.00,78.00,48.00,34.78,0.00,0.00,0.00,30.25,1018.10,10.00,M,FEW,M,M,M,12000.00,M,M,M,M,M,M,M,M,M,M,78.00,KEKO 161656Z AUTO 00000KT 10SM FEW120 26/09 A3025 RMK AO2 SLP181 T02560089,M
WMC,2023-08-16 16:56,-117.8072,40.9019,1315.00,83.00,45.00,26.37,M,3.00,0.00,30.21,1017.40,10.00,M,SCT,M,M,M,12000.00,M,M,M,M,M,M,M,M,M,M,80.93,KWMC 161656Z AUTO VRB03KT 10SM SCT120 28/07 A3021 RMK AO2 SLP174 T02830072,M
NFL,2023-08-16 16:56,-118.7010,39.4166,1199.00,82.00,45.00,27.24,240.00,5.00,0.00,30.19,1018.70,10.00,M,FEW,BKN,BKN,M,7000.00,11000.00,17000.00,M,M,M,M,M,M,M,M,80.28,KNFL 161656Z 24005KT 10SM FEW070 BKN110 BKN170 28/07 A3019 RMK AO2 SLP187 T02780072,M
HND,2023-08-16 16:56,-115.1344,35.9729,742.79,M,M,M,M,M,0.00,M,M,M,M,M,M,M,M,M,M,M,M,M,M,M,M,M,M,M,M,KHND 161656Z AUTO RMK AO2 SLPNO PWINO FZRANO TSNO PNO $,M
TPH,2023-08-16 16:56,-117.0904,38.0505,1654.00,81.00,46.00,29.23,M,4.00,0.00,30.28,1016.70,10.00,M,CLR,M,M,M,M,M,M,M,M,M,M,M,M,M,M,79.76,KTPH 161656Z AUTO VRB04KT 10SM CLR 27/08 A3028 RMK AO2 SLP167 T02720078,M
LAS,2023-08-16 16:56,-115.1634,36.0719,663.00,92.00,57.00,30.91,40.00,4.00,0.00,30.04,1014.10,10.00,M,FEW,SCT,SCT,M,12000.00,16000.00,20000.00,M,M,M,M,M,M,M,M,90.60,KLAS 161656Z 04004KT 10SM FEW120 SCT160 SCT200 33/14 A3004 RMK AO2 SLP141 T03330139,M
05U,2023-08-16 17:10,-116.0051,39.6042,1811.23,71.60,53.60,53.03,M,M,0.00,30.35,M,10.00,M,M,M,M,M,M,M,M,M,M,M,M,M,M,M,M,71.60,K05U 161710Z AUTO 10SM 22/12 A3035 RMK A01,M
HTH,2023-08-16 17:10,-118.6315,38.5448,1282.89,80.60,48.20,32.18,M,3.00,0.00,30.22,M,10.00,M,CLR,M,M,M,M,M,M,M,M,M,M,M,M,M,M,79.71,KHTH 161710Z AUTO VRB03KT 10SM CLR 27/09 A3022 RMK A01,M
BVU,2023-08-16 17:15,-114.8611,35.9475,671.00,93.20,55.40,28.10,60.00,7.00,0.00,30.02,M,10.00,M,CLR,M,M,M,M,M,M,M,M,M,M,M,M,M,M,91.35,KBVU 161715Z AUTO 06007KT 10SM CLR 34/13 A3002 RMK AO2,M
CXP,2023-08-16 17:15,-119.7326,39.1923,1431.00,80.60,42.80,26.22,0.00,0.00,0.00,30.26,M,10.00,M,CLR,M,M,M,M,M,M,M,M,M,M,M,M,M,M,79.30,KCXP 161715Z AUTO 00000KT 10SM CLR 27/06 A3026 RMK AO2,M
RTS,2023-08-16 17:15,-119.8764,39.6682,1539.00,80.60,39.20,22.81,150.00,6.00,0.00,30.29,M,10.00,M,CLR,M,M,M,M,M,M,M,M,M,M,M,M,M,M,79.10,KRTS 161715Z AUTO 15006KT 10SM CLR 27/04 A3029 RMK AO2,M
MEV,2023-08-16 17:15,-119.7500,38.9963,1441.42,78.80,48.20,34.13,200.00,5.00,0.00,30.25,M,10.00,M,CLR,M,M,M,M,M,M,M,M,M,M,M,M,M,M,78.80,KMEV 161715Z AUTO 20005KT 10SM CLR 26/09 A3025 RMK AO2,M
BAM,2023-08-16 17:15,-116.8743,40.5990,1382.36,86.00,46.40,25.26,0.00,0.00,0.00,30.23,M,10.00,M,CLR,M,M,M,M,M,M,M,M,M,M,M,M,M,M,83.22,KBAM 161715Z AUTO 00000KT 10SM CLR 30/08 A3023 RMK AO1,M
10U,2023-08-16 17:15,-116.1876,41.9532,1637.00,86.00,39.20,19.15,0.00,0.00,0.00,30.27,M,10.00,10.00,CLR,M,M,M,M,M,M,M,M,M,M,M,M,M,M,82.79,K10U 161715Z AUTO 00000G10KT 10SM CLR 30/04 A3027 RMK AO2,M
TMT,2023-08-16 17:15,-117.1971,39.4643,1749.34,70.00,51.00,50.89,0.00,0.00,0.00,30.34,M,M,M,BKN,M,M,M,10000.00,M,M,M,M,M,M,M,M,M,M,70.00,KTMT 161715Z AUTO 00000KT BKN100 21/11 A3034 RMK AO2 T02120105 PWINO,M
BVU,2023-08-16 17:35,-114.8611,35.9475,671.00,93.20,55.40,28.10,30.00,7.00,0.00,30.02,M,10.00,M,CLR,M,M,M,M,M,M,M,M,M,M,M,M,M,M,91.35,KBVU 161735Z AUTO 03007KT 10SM CLR 34/13 A3002 RMK AO2,M
CXP,2023-08-16 17:35,-119.7326,39.1923,1431.00,82.40,44.60,26.49,0.00,0.00,0.00,30.25,M,10.00,M,CLR,M,M,M,M,M,M,M,M,M,M,M,M,M,M,80.50,KCXP 161735Z AUTO 00000KT 10SM CLR 28/07 A3025 RMK AO2,M
05U,2023-08-16 17:35,-116.0051,39.6042,1811.23,75.20,51.80,43.97,M,M,0.00,30.34,M,10.00,M,M,M,M,M,M,M,M,M,M,M,M,M,M,M,M,75.20,K05U 161735Z AUTO 10SM 24/11 A3034 RMK A01,M
RTS,2023-08-16 17:35,-119.8764,39.6682,1539.00,80.60,39.20,22.81,0.00,0.00,0.00,30.29,M,10.00,M,CLR,M,M,M,M,M,M,M,M,M,M,M,M,M,M,79.10,KRTS 161735Z AUTO 00000KT 10SM CLR 27/04 A3029 RMK AO2,M
MEV,2023-08-16 17:35,-119.7500,38.9963,1441.42,80.60,44.60,28.08,210.00,5.00,0.00,30.24,M,10.00,M,CLR,M,M,M,M,M,M,M,M,M,M,M,M,M,M,79.42,KMEV 161735Z AUTO 21005KT 10SM CLR 27/07 A3024 RMK AO2,M
HTH,2023-08-16 17:35,-118.6315,38.5448,1282.89,80.60,46.40,30.07,M,3.00,0.00,30.21,M,10.00,M,CLR,M,M,M,M,M,M,M,M,M,M,M,M,M,M,79.56,KHTH 161735Z AUTO VRB03KT 10SM CLR 27/08 A3021 RMK A01,M
10U,2023-08-16 17:35,-116.1876,41.9532,1637.00,87.80,39.20,18.09,M,3.00,0.00,30.26,M,10.00,M,CLR,M,M,M,M,M,M,M,M,M,M,M,M,M,M,84.22,K10U 161735Z AUTO VRB03KT 10SM CLR 31/04 A3026 RMK AO2,M
BAM,2023-08-16 17:35,-116.8743,40.5990,1382.36,86.00,44.60,23.59,0.00,0.00,0.00,30.23,M,10.00,M,CLR,M,M,M,M,M,M,M,M,M,M,M,M,M,M,83.07,KBAM 161735Z AUTO 00000KT 10SM CLR 30/07 A3023 RMK AO1,M
TMT,2023-08-16 17:35,-117.1971,39.4643,1749.34,73.00,50.70,45.45,0.00,0.00,0.00,30.34,M,M,M,SCT,M,M,M,10000.00,M,M,M,M,M,M,M,M,M,M,73.00,KTMT 161735Z AUTO 00000KT SCT100 23/10 A3034 RMK AO2 T02280104 PWINO,M
P68,2023-08-16 17:53,-116.0056,39.6014,1993.00,76.00,51.00,41.57,0.00,0.00,0.00,30.31,1018.00,M,M,M,M,M,M,M,M,M,M,M,M,M,M,M,M,M,76.00,KP68 161753Z AUTO 00000KT 24/11 A3031 RMK AO1 SLP180 T02440106 10244 20161 50001,M
DRA,2023-08-16 17:53,-116.0278,36.6206,1009.00,94.00,53.00,25.11,M,5.00,0.00,30.09,1013.00,10.00,M,CLR,M,M,M,M,M,M,M,M,M,M,M,M,M,M,91.53,KDRA 161753Z AUTO VRB05KT 10SM CLR 34/12 A3009 RMK AO2 SLP130 T03440117 10344 20267 58005,M
ELY,2023-08-16 17:53,-114.8453,39.2950,1909.00,80.00,52.00,37.79,20.00,4.00,0.00,30.32,1015.70,10.00,M,OVC,M,M,M,12000.00,M,M,M,M,M,M,M,M,M,M,79.75,KELY 161753Z AUTO 02004KT 10SM OVC120 27/11 A3032 RMK AO2 SLP157 T02670111 10267 20167 58003,M
VGT,2023-08-16 17:53,-115.1933,36.2111,667.00,95.00,57.00,28.16,150.00,5.00,0.00,30.02,1014.90,10.00,M,CLR,M,M,M,M,M,M,M,M,M,M,M,M,M,M,93.75,KVGT 161753Z 15005KT 10SM CLR 35/14 A3002 RMK AO2 SLP149 T03500139 10350 20306 58005,M
LOL,2023-08-16 17:53,-118.5701,40.0684,1192.43,82.00,49.00,31.68,90.00,4.00,0.00,30.19,1018.10,10.00,M,BKN,M,M,M,12000.00,M,M,M,M,M,M,M,M,M,M,80.62,KLOL 161753Z AUTO 09004KT 10SM BKN120 28/09 A3019 RMK AO2 SLP181 60000 T02780094 10278 20183 51007,M
05U,2023-08-16 17:55,-116.0051,39.6042,1811.23,75.20,50.00,41.14,M,M,0.00,30.34,M,10.00,M,M,M,M,M,M,M,M,M,M,M,M,M,M,M,M,75.20,K05U 161755Z AUTO 10SM 24/10 A3034 RMK A01,M
BVU,2023-08-16 17:55,-114.8611,35.9475,671.00,95.00,55.40,26.58,30.00,6.00,0.00,30.01,M,10.00,M,CLR,M,M,M,M,M,M,M,M,M,M,M,M,M,M,93.22,KBVU 161755Z AUTO 03006KT 10SM CLR 35/13 A3001 RMK AO2,M
CXP,2023-08-16 17:55,-119.7326,39.1923,1431.00,84.20,42.80,23.33,0.00,0.00,0.00,30.25,M,10.00,M,CLR,M,M,M,M,M,M,M,M,M,M,M,M,M,M,81.61,KCXP 161755Z AUTO 00000KT 10SM CLR 29/06 A3025 RMK AO2,M
INS,2023-08-16 17:55,-115.6733,36.5872,955.00,91.00,52.30,26.87,120.00,5.00,0.00,30.08,1013.10,10.00,M,CLR,M,M,M,M,M,M,M,M,M,M,M,M,M,M,88.41,KINS 161755Z AUTO 12005KT 10SM CLR 33/11 A3008 RMK AO2 SLP131 T03280113 10328 20262 58006 $,M
RNO,2023-08-16 17:55,-119.7711,39.4839,1341.00,85.00,45.00,24.73,0.00,0.00,0.00,30.23,1017.20,10.00,M,SCT,M,M,M,11000.00,M,M,M,M,M,M,M,M,M,M,82.34,KRNO 161755Z 00000KT 10SM SCT110 29/07 A3023 RMK AO2 SLP172 T02940072 10294 20178 58006 $,M
LSV,2023-08-16 17:55,-115.0343,36.2362,570.00,96.40,56.00,26.02,70.00,7.00,0.00,29.97,1012.10,10.00,M,FEW,M,M,M,19000.00,M,M,M,M,M,M,M,M,M,M,94.91,KLSV 161755Z AUTO 07007KT 10SM FEW190 36/13 A2997 RMK AO2 SLP121 T03580133 10358 20291 57005 $,M
RTS,2023-08-16 17:55,-119.8764,39.6682,1539.00,82.40,37.40,20.04,140.00,4.00,0.00,30.28,M,10.00,M,CLR,M,M,M,M,M,M,M,M,M,M,M,M,M,M,80.14,KRTS 161755Z AUTO 14004KT 10SM CLR 28/03 A3028 RMK AO2,M
MEV,2023-08-16 17:55,-119.7500,38.9963,1441.42,82.40,44.60,26.49,M,4.00,0.00,30.24,M,10.00,M,CLR,M,M,M,M,M,M,M,M,M,M,M,M,M,M,80.50,KMEV 161755Z AUTO VRB04KT 10SM CLR 28/07 A3024 RMK AO2,M
HTH,2023-08-16 17:55,-118.6315,38.5448,1282.89,84.20,44.60,24.99,330.00,5.00,0.00,30.21,M,10.00,M,CLR,M,M,M,M,M,M,M,M,M,M,M,M,M,M,81.73,KHTH 161755Z AUTO 33005KT 10SM CLR 29/07 A3021 RMK A01,M
BAM,2023-08-16 17:55,-116.8743,40.5990,1382.36,86.00,44.60,23.59,0.00,0.00,0.00,30.23,M,10.00,M,SCT,M,M,M,12000.00,M,M,M,M,M,M,M,M,M,M,83.07,KBAM 161755Z AUTO 00000KT 10SM SCT120 30/07 A3023 RMK AO1,M
TMT,2023-08-16 17:55,-117.1971,39.4643,1749.34,73.80,50.50,43.92,270.00,3.00,0.00,30.33,M,M,M,SCT,M,M,M,10000.00,M,M,M,M,M,M,M,M,M,M,73.80,KTMT 161755Z AUTO 27003KT SCT100 23/10 A3033 RMK AO2 T02320103 10233 20135 PWINO,M
10U,2023-08-16 17:55,-116.1876,41.9532,1637.00,87.80,41.00,19.40,M,4.00,0.00,30.26,M,10.00,M,CLR,M,M,M,M,M,M,M,M,M,M,M,M,M,M,84.30,K10U 161755Z AUTO VRB04KT 10SM CLR 31/05 A3026 RMK AO2,M
EKO,2023-08-16 17:56,-115.7860,40.8242,1367.00,81.00,48.00,31.52,220.00,4.00,0.00,30.25,1017.50,10.00,M,FEW,M,M,M,11000.00,M,M,M,M,M,M,M,M,M,M,79.92,KEKO 161756Z AUTO 22004KT 10SM FEW110 27/09 A3025 RMK AO2 SLP175 T02720089 10272 20167 58003,M
WMC,2023-08-16 17:56,-117.8072,40.9019,1315.00,88.00,46.00,23.34,280.00,7.00,0.00,30.21,1017.10,10.00,M,CLR,M,M,M,M,M,M,M,M,M,M,M,M,M,M,84.81,KWMC 161756Z AUTO 28007KT 10SM CLR 31/08 A3021 RMK AO2 SLP171 60000 T03110078 10311 20233 51004,M
HND,2023-08-16 17:56,-115.1344,35.9729,742.79,93.00,59.00,32.19,M,5.00,0.00,30.07,1016.20,10.00,M,CLR,M,M,M,M,M,M,M,M,M,M,M,M,M,M,92.35,KHND 161756Z AUTO VRB05KT 10SM CLR 34/15 A3007 RMK AO2 SLP162 6//// T03390150,M
TPH,2023-08-16 17:56,-117.0904,38.0505,1654.00,83.00,46.00,27.39,120.00,3.00,0.00,30.27,1016.30,10.00,M,CLR,M,M,M,M,M,M,M,M,M,M,M,M,M,M,81.00,KTPH 161756Z AUTO 12003KT 10SM CLR 28/08 A3027 RMK AO2 SLP163 T02830078 10294 20167 58005,M
LAS,2023-08-16 17:56,-115.1634,36.0719,663.00,94.00,58.00,30.11,M,M,0.00,30.03,1013.70,10.00,M,FEW,SCT,SCT,M,12000.00,16000.00,20000.00,M,M,M,M,M,M,M,M,93.04,KLAS 161756Z 10SM FEW120 SCT160 SCT200 34/14 A3003 RMK AO2 SLP137 TCU DSNT NW AND N T03440144 10344 20306 56005,M
NFL,2023-08-16 17:56,-118.7010,39.4166,1199.00,86.00,45.00,23.95,250.00,6.00,0.00,30.18,1018.20,10.00,M,SCT,SCT,SCT,M,7000.00,12000.00,20000.00,M,M,M,M,M,M,M,M,83.10,KNFL 161756Z COR 25006KT 10SM SCT070 SCT120 SCT200 30/07 A3018 RMK AO2 SLP182 T03000072 10300 20167 58004,M
LAS,2023-08-16 18:00,-115.1634,36.0719,663.00,95.00,57.00,28.16,M,5.00,0.00,30.03,M,10.00,M,FEW,SCT,SCT,M,12000.00,16000.00,20000.00,M,M,M,M,M,M,M,M,93.75,KLAS 161800Z VRB05KT 10SM FEW120 SCT160 SCT200 35/14 A3003 RMK AO2 TCU DSNT NW AND N T03500139,M
05U,2023-08-16 18:10,-116.0051,39.6042,1811.23,77.00,50.00,38.74,M,M,0.00,30.34,M,10.00,M,M,M,M,M,M,M,M,M,M,M,M,M,M,M,M,77.00,K05U 161810Z AUTO 10SM 25/10 A3034 RMK A01,M
BVU,2023-08-16 18:15,-114.8611,35.9475,671.00,95.00,55.40,26.58,M,5.00,0.00,30.01,M,10.00,M,CLR,M,M,M,M,M,M,M,M,M,M,M,M,M,M,93.22,KBVU 161815Z AUTO VRB05KT 10SM CLR 35/13 A3001 RMK AO2 LTG DSNT NE AND E,M
CXP,2023-08-16 18:15,-119.7326,39.1923,1431.00,84.20,42.80,23.33,0.00,0.00,0.00,30.24,M,10.00,M,CLR,M,M,M,M,M,M,M,M,M,M,M,M,M,M,81.61,KCXP 161815Z AUTO 00000KT 10SM CLR 29/06 A3024 RMK AO2,M
RTS,2023-08-16 18:15,-119.8764,39.6682,1539.00,84.20,41.00,21.76,140.00,7.00,0.00,30.27,M,10.00,M,CLR,M,M,M,M,M,M,M,M,M,M,M,M,M,M,81.52,KRTS 161815Z AUTO 14007KT 10SM CLR 29/05 A3027 RMK AO2,M
MEV,2023-08-16 18:15,-119.7500,38.9963,1441.42,84.20,44.60,24.99,0.00,0.00,0.00,30.23,M,10.00,M,CLR,M,M,M,M,M,M,M,M,M,M,M,M,M,M,81.73,KMEV 161815Z AUTO 00000KT 10SM CLR 29/07 A3023 RMK AO2,M
HTH,2023-08-16 18:15,-118.6315,38.5448,1282.89,84.20,44.60,24.99,330.00,5.00,0.00,30.20,M,10.00,M,CLR,M,M,M,M,M,M,M,M,M,M,M,M,M,M,81.73,KHTH 161815Z AUTO 33005KT 10SM CLR 29/07 A3020 RMK A01,M
10U,2023-08-16 18:15,-116.1876,41.9532,1637.00,87.80,41.00,19.40,M,4.00,0.00,30.26,M,10.00,M,CLR,M,M,M,M,M,M,M,M,M,M,M,M,M,M,84.30,K10U 161815Z AUTO VRB04KT 10SM CLR 31/05 A3026 RMK AO2,M
BAM,2023-08-16 18:15,-116.8743,40.5990,1382.36,86.00,46.40,25.26,360.00,3.00,0.00,30.22,M,10.00,M,BKN,M,M,M,12000.00,M,M,M,M,M,M,M,M,M,M,83.22,KBAM 161815Z AUTO 36003KT 10SM BKN120 30/08 A3022 RMK AO1,M
TMT,2023-08-16 18:15,-117.1971,39.4643,1749.34,75.60,48.70,38.67,0.00,0.00,0.00,30.33,M,M,M,BKN,M,M,M,11000.00,M,M,M,M,M,M,M,M,M,M,75.60,KTMT 161815Z AUTO 00000KT BKN110 24/09 A3033 RMK AO2 T02420093 PWINO,M
BVU,2023-08-16 18:35,-114.8611,35.9475,671.00,95.00,55.40,26.58,0.00,0.00,0.00,30.00,M,10.00,M,CLR,M,M,M,M,M,M,M,M,M,M,M,M,M,M,93.22,KBVU 161835Z AUTO 00000KT 10SM CLR 35/13 A3000 RMK AO2,M
CXP,2023-08-16 18:35,-119.7326,39.1923,1431.00,87.80,42.80,20.79,0.00,0.00,0.00,30.24,M,10.00,M,CLR,M,M,M,M,M,M,M,M,M,M,M,M,M,M,84.40,KCXP 161835Z AUTO 00000KT 10SM CLR 31/06 A3024 RMK AO2,M
RTS,2023-08-16 18:35,-119.8764,39.6682,1539.00,84.20,39.20,20.29,M,6.00,0.00,30.26,M,10.00,M,CLR,M,M,M,M,M,M,M,M,M,M,M,M,M,M,81.44,KRTS 161835Z AUTO VRB06KT 10SM CLR 29/04 A3026 RMK AO2,M
05U,2023-08-16 18:35,-116.0051,39.6042,1811.23,78.80,48.20,34.13,M,M,0.00,30.33,M,10.00,M,M,M,M,M,M,M,M,M,M,M,M,M,M,M,M,78.80,K05U 161835Z AUTO 10SM 26/09 A3033 RMK A01,M
MEV,2023-08-16 18:35,-119.7500,38.9963,1441.42,84.20,41.00,21.76,0.00,0.00,0.00,30.23,M,10.00,M,CLR,M,M,M,M,M,M,M,M,M,M,M,M,M,M,81.52,KMEV 161835Z AUTO 00000KT 10SM CLR 29/05 A3023 RMK AO2,M
HTH,2023-08-16 18:35,-118.6315,38.5448,1282.89,86.00,41.00,20.54,320.00,7.00,0.00,30.20,M,10.00,M,CLR,M,M,M,M,M,M,M,M,M,M,M,M,M,M,82.86,KHTH 161835Z AUTO 32007KT 10SM CLR 30/05 A3020 RMK A01,M
10U,2023-08-16 18:35,-116.1876,41.9532,1637.00,89.60,41.00,18.33,M,3.00,0.00,30.25,M,10.00,M,CLR,M,M,M,M,M,M,M,M,M,M,M,M,M,M,85.82,K10U 161835Z AUTO VRB03KT 10SM CLR 32/05 A3025 RMK AO2,M
BAM,2023-08-16 18:35,-116.8743,40.5990,1382.36,86.00,44.60,23.59,0.00,0.00,0.00,30.22,M,10.00,M,SCT,M,M,M,12000.00,M,M,M,M,M,M,M,M,M,M,83.07,KBAM 161835Z AUTO 00000KT 10SM SCT120 30/07 A3022 RMK AO1,M
TMT,2023-08-16 18:35,-117.1971,39.4643,1749.34,77.00,48.20,36.22,0.00,0.00,0.00,30.32,M,M,M,SCT,M,M,M,11000.00,M,M,M,M,M,M,M,M,M,M,77.00,KTMT 161835Z AUTO 00000KT SCT110 25/09 A3032 RMK AO2 T02510090 PWINO,M
05U,2023-08-16 18:50,-116.0051,39.6042,1811.23,80.60,48.20,32.18,M,M,0.00,30.33,M,10.00,M,M,M,M,M,M,M,M,M,M,M,M,M,M,M,M,79.71,K05U 161850Z AUTO 10SM 27/09 A3033 RMK A01,M
P68,2023-08-16 18:53,-116.0056,39.6014,1993.00,79.00,49.00,34.94,20.00,3.00,0.00,30.30,1017.20,M,M,M,M,M,M,M,M,M,M,M,M,M,M,M,M,M,79.00,KP68 161853Z AUTO 02003KT 26/09 A3030 RMK AO1 SLP172 T02610094,M
DRA,2023-08-16 18:53,-116.0278,36.6206,1009.00,95.00,51.00,22.62,M,4.00,0.00,30.08,1012.60,10.00,M,CLR,M,M,M,M,M,M,M,M,M,M,M,M,M,M,92.09,KDRA 161853Z AUTO VRB04KT 10SM CLR 35/11 A3008 RMK AO2 SLP126 T03500106,M
ELY,2023-08-16 18:53,-114.8453,39.2950,1909.00,82.00,50.00,32.88,320.00,4.00,0.00,30.30,1015.10,10.00,M,OVC,M,M,M,10000.00,M,M,M,M,M,M,M,M,M,M,80.73,KELY 161853Z AUTO 32004KT 10SM OVC100 28/10 A3030 RMK AO2 SLP151 T02780100,M
VGT,2023-08-16 18:53,-115.1933,36.2111,667.00,98.00,57.00,25.69,M,3.00,0.00,30.00,1014.30,10.00,M,CLR,M,M,M,M,M,M,M,M,M,M,M,M,M,M,97.02,KVGT 161853Z VRB03KT 10SM CLR 37/14 A3000 RMK AO2 SLP143 T03670139,M
LOL,2023-08-16 18:53,-118.5701,40.0684,1192.43,85.00,49.00,28.75,30.00,4.00,0.00,30.17,1017.40,10.00,M,BKN,M,M,M,11000.00,M,M,M,M,M,M,M,M,M,M,82.71,KLOL 161853Z AUTO 03004KT 10SM BKN110 29/09 A3017 RMK AO2 SLP174 T02940094,M
BVU,2023-08-16 18:55,-114.8611,35.9475,671.00,96.80,55.40,25.15,40.00,7.00,0.00,29.99,M,10.00,M,CLR,M,M,M,M,M,M,M,M,M,M,M,M,M,M,95.14,KBVU 161855Z AUTO 04007KT 10SM CLR 36/13 A2999 RMK AO2,M
CXP,2023-08-16 18:55,-119.7326,39.1923,1431.00,87.80,42.80,20.79,0.00,0.00,0.00,30.23,M,10.00,M,CLR,M,M,M,M,M,M,M,M,M,M,M,M,M,M,84.40,KCXP 161855Z AUTO 00000KT 10SM CLR 31/06 A3023 RMK AO2,M
INS,2023-08-16 18:55,-115.6733,36.5872,955.00,92.50,51.40,24.80,0.00,0.00,0.00,30.06,1012.20,10.00,M,BKN,M,M,M,17000.00,M,M,M,M,M,M,M,M,M,M,89.68,KINS 161855Z AUTO 00000KT 10SM BKN170 34/11 A3006 RMK AO2 SLP122 T03360108 $,M
RNO,2023-08-16 18:55,-119.7711,39.4839,1341.00,89.00,43.00,20.17,100.00,4.00,0.00,30.20,1016.20,10.00,M,FEW,M,M,M,11000.00,M,M,M,M,M,M,M,M,M,M,85.42,KRNO 161855Z 10004KT 10SM FEW110 32/06 A3020 RMK AO2 SLP162 T03170061 $,M
LSV,2023-08-16 18:55,-115.0343,36.2362,570.00,103.60,57.20,21.86,130.00,3.00,0.00,29.95,1011.20,10.00,M,CLR,M,M,M,M,M,M,M,M,M,M,M,M,M,M,103.35,KLSV 161855Z AUTO 13003KT 10SM CLR 40/14 A2995 RMK AO2 SLP112 T03980140 $,M
RTS,2023-08-16 18:55,-119.8764,39.6682,1539.00,86.00,35.60,16.63,M,3.00,0.00,30.26,M,10.00,M,CLR,M,M,M,M,M,M,M,M,M,M,M,M,M,M,82.69,KRTS 161855Z AUTO VRB03KT 10SM CLR 30/02 A3026 RMK AO2,M
MEV,2023-08-16 18:55,-119.7500,38.9963,1441.42,86.00,41.00,20.54,M,4.00,0.00,30.22,M,2.00,M,CLR,M,M,M,M,M,M,M,HZ,M,M,M,M,M,M,82.86,KMEV 161855Z AUTO VRB04KT 2SM HZ CLR 30/05 A3022 RMK AO2,M
BAM,2023-08-16 18:55,-116.8743,40.5990,1382.36,86.00,44.60,23.59,0.00,0.00,0.00,30.21,M,10.00,M,BKN,M,M,M,12000.00,M,M,M,M,M,M,M,M,M,M,83.07,KBAM 161855Z AUTO 00000KT 10SM BKN120 30/07 A3021 RMK AO1,M
HTH,2023-08-16 18:55,-118.6315,38.5448,1282.89,86.00,41.00,20.54,300.00,7.00,0.00,30.19,M,10.00,M,CLR,M,M,M,M,M,M,M,M,M,M,M,M,M,M,82.86,KHTH 161855Z AUTO 30007KT 10SM CLR 30/05 A3019 RMK A01,M
TMT,2023-08-16 18:55,-117.1971,39.4643,1749.34,77.70,48.20,35.39,0.00,0.00,0.00,30.31,M,M,M,SCT,M,M,M,11000.00,M,M,M,M,M,M,M,M,M,M,77.70,KTMT 161855Z AUTO 00000KT SCT110 25/09 A3031 RMK AO2 T02540090 PWINO,M
10U,2023-08-16 18:55,-116.1876,41.9532,1637.00,91.40,42.80,18.56,350.00,6.00,0.00,30.24,M,10.00,M,CLR,M,M,M,M,M,M,M,M,M,M,M,M,M,M,87.52,K10U 161855Z AUTO 35006KT 10SM CLR 33/06 A3024 RMK AO2,M
EKO,2023-08-16 18:56,-115.7860,40.8242,1367.00,83.00,48.00,29.54,210.00,5.00,0.00,30.23,1016.90,10.00,M,CLR,M,M,M,M,M,M,M,M,M,M,M,M,M,M,81.18,KEKO 161856Z AUTO 21005KT 10SM CLR 28/09 A3023 RMK AO2 SLP169 T02830089,M
WMC,2023-08-16 18:56,-117.8072,40.9019,1315.00,88.00,45.00,22.47,270.00,10.00,0.00,30.20,1017.00,10.00,16.00,CLR,M,M,M,M,M,M,M,M,M,M,M,M,M,M,84.72,KWMC 161856Z AUTO 27010G16KT 10SM CLR 31/07 A3020 RMK AO2 SLP170 T03110072,M
NFL,2023-08-16 18:56,-118.7010,39.4166,1199.00,90.00,45.00,21.10,M,3.00,0.00,30.16,1017.70,10.00,M,SCT,SCT,SCT,M,7000.00,12000.00,20000.00,M,M,M,M,M,M,M,M,86.45,KNFL 161856Z VRB03KT 10SM SCT070 SCT120 SCT200 32/07 A3016 RMK AO2 SLP177 T03220072,M
HND,2023-08-16 18:56,-115.1344,35.9729,742.79,95.00,58.00,29.20,M,6.00,0.00,30.05,1015.60,10.00,M,CLR,M,M,M,M,M,M,M,M,M,M,M,M,M,M,94.11,KHND 161856Z VRB06KT 10SM CLR 35/14 A3005 RMK AO2 SLP156 T03500144,M
TPH,2023-08-16 18:56,-117.0904,38.0505,1654.00,86.00,46.00,24.88,80.00,5.00,0.00,30.25,1015.60,10.00,M,CLR,M,M,M,M,M,M,M,M,M,M,M,M,M,M,83.19,KTPH 161856Z AUTO 08005KT 10SM CLR 30/08 A3025 RMK AO2 SLP156 T03000078,M
LAS,2023-08-16 18:56,-115.1634,36.0719,663.00,95.00,56.00,27.16,M,3.00,0.00,30.01,1013.10,10.00,M,FEW,SCT,SCT,M,12000.00,16000.00,20000.00,M,M,M,M,M,M,M,M,93.41,KLAS 161856Z VRB03KT 10SM FEW120 SCT160 SCT200 35/13 A3001 RMK AO2 SLP131 TCU DSNT NW AND N T03500133,M
BVU,2023-08-16 19:15,-114.8611,35.9475,671.00,96.80,55.40,25.15,110.00,4.00,0.00,29.98,M,10.00,M,CLR,M,M,M,M,M,M,M,M,M,M,M,M,M,M,95.14,KBVU 161915Z AUTO 11004KT 10SM CLR 36/13 A2998 RMK AO2,M
CXP,2023-08-16 19:15,-119.7326,39.1923,1431.00,87.80,42.80,20.79,0.00,0.00,0.00,30.22,M,9.00,M,CLR,M,M,M,M,M,M,M,M,M,M,M,M,M,M,84.40,KCXP 161915Z AUTO 00000KT 9SM CLR 31/06 A3022 RMK AO2,M
RTS,2023-08-16 19:15,-119.8764,39.6682,1539.00,86.00,37.40,17.85,0.00,0.00,0.00,30.25,M,10.00,10.00,CLR,M,M,M,M,M,M,M,M,M,M,M,M,M,M,82.73,KRTS 161915Z AUTO 00000G10KT 10SM CLR 30/03 A3025 RMK AO2,M
05U,2023-08-16 19:15,-116.0051,39.6042,1811.23,82.40,48.20,30.35,M,M,0.00,30.32,M,10.00,M,M,M,M,M,M,M,M,M,M,M,M,M,M,M,M,80.80,K05U 161915Z AUTO 10SM 28/09 A3032 RMK A01,M
MEV,2023-08-16 19:15,-119.7500,38.9963,1441.42,87.80,39.20,18.09,320.00,5.00,0.00,30.21,M,9.00,M,CLR,M,M,M,M,M,M,M,M,M,M,M,M,M,M,84.22,KMEV 161915Z AUTO 32005KT 9SM CLR 31/04 A3021 RMK AO2,M
HTH,2023-08-16 19:15,-118.6315,38.5448,1282.89,87.80,41.00,19.40,330.00,7.00,0.00,30.18,M,10.00,12.00,CLR,M,M,M,M,M,M,M,M,M,M,M,M,M,M,84.30,KHTH 161915Z AUTO 33007G12KT 310V010 10SM CLR 31/05 A3018 RMK A01,M
10U,2023-08-16 19:15,-116.1876,41.9532,1637.00,89.60,41.00,18.33,M,5.00,0.00,30.24,M,10.00,M,CLR,M,M,M,M,M,M,M,M,M,M,M,M,M,M,85.82,K10U 161915Z AUTO VRB05KT 10SM CLR 32/05 A3024 RMK AO2,M
BAM,2023-08-16 19:15,-116.8743,40.5990,1382.36,87.80,42.80,20.79,290.00,5.00,0.00,30.21,M,10.00,M,BKN,M,M,M,12000.00,M,M,M,M,M,M,M,M,M,M,84.40,KBAM 161915Z AUTO 29005KT 10SM BKN120 31/06 A3021 RMK AO1,M
TMT,2023-08-16 19:15,-117.1971,39.4643,1749.34,79.00,49.00,34.94,360.00,3.00,0.00,30.31,M,M,M,SCT,M,M,M,11000.00,M,M,M,M,M,M,M,M,M,M,79.00,KTMT 161915Z AUTO 36003KT SCT110 26/10 A3031 RMK AO2 T02620095 PWINO,M
BVU,2023-08-16 19:35,-114.8611,35.9475,671.00,96.80,55.40,25.15,70.00,5.00,0.00,29.97,M,10.00,M,CLR,M,M,M,M,M,M,M,M,M,M,M,M,M,M,95.14,KBVU 161935Z AUTO 07005KT 10SM CLR 36/13 A2997 RMK AO2,M
CXP,2023-08-16 19:35,-119.7326,39.1923,1431.00,87.80,42.80,20.79,0.00,0.00,0.00,30.21,M,8.00,M,CLR,M,M,M,M,M,M,M,M,M,M,M,M,M,M,84.40,KCXP 161935Z AUTO 00000KT 8SM CLR 31/06 A3021 RMK AO2,M
RTS,2023-08-16 19:35,-119.8764,39.6682,1539.00,87.80,37.40,16.86,150.00,7.00,0.00,30.24,M,10.00,M,CLR,M,M,M,M,M,M,M,M,M,M,M,M,M,M,84.16,KRTS 161935Z AUTO 15007KT 130V190 10SM CLR 31/03 A3024 RMK AO2,M
05U,2023-08-16 19:35,-116.0051,39.6042,1811.23,84.20,46.40,26.76,M,M,0.00,30.31,M,10.00,M,M,M,M,M,M,M,M,M,M,M,M,M,M,M,M,81.87,K05U 161935Z AUTO 10SM 29/08 A3031 RMK A01,M
MEV,2023-08-16 19:35,-119.7500,38.9963,1441.42,87.80,39.20,18.09,0.00,0.00,0.00,30.20,M,8.00,M,CLR,M,M,M,M,M,M,M,M,M,M,M,M,M,M,84.22,KMEV 161935Z AUTO 00000KT 8SM CLR 31/04 A3020 RMK AO2,M
HTH,2023-08-16 19:35,-118.6315,38.5448,1282.89,89.60,39.20,17.09,340.00,9.00,0.00,30.17,M,10.00,M,CLR,M,M,M,M,M,M,M,M,M,M,M,M,M,M,85.73,KHTH 161935Z AUTO 34009KT 10SM CLR 32/04 A3017 RMK A01,M
10U,2023-08-16 19:35,-116.1876,41.9532,1637.00,91.40,41.00,17.32,340.00,7.00,0.00,30.23,M,10.00,13.00,CLR,M,M,M,M,M,M,M,M,M,M,M,M,M,M,87.40,K10U 161935Z AUTO 34007G13KT 10SM CLR 33/05 A3023 RMK AO2,M
BAM,2023-08-16 19:35,-116.8743,40.5990,1382.36,86.00,42.80,22.02,0.00,0.00,0.00,30.20,M,10.00,M,BKN,M,M,M,12000.00,M,M,M,M,M,M,M,M,M,M,82.95,KBAM 161935Z AUTO 00000KT 10SM BKN120 30/06 A3020 RMK AO1,M
TMT,2023-08-16 19:35,-117.1971,39.4643,1749.34,81.00,49.00,32.73,320.00,3.00,0.00,30.29,M,M,M,CLR,M,M,M,M,M,M,M,M,M,M,M,M,M,M,80.02,KTMT 161935Z AUTO 32003KT CLR 27/10 A3029 RMK AO2 T02720095 PWINO,M
05U,2023-08-16 19:50,-116.0051,39.6042,1811.23,84.20,46.40,26.76,M,M,0.00,30.31,M,10.00,M,M,M,M,M,M,M,M,M,M,M,M,M,M,M,M,81.87,K05U 161950Z AUTO 10SM 29/08 A3031 RMK A01,M
P68,2023-08-16 19:53,-116.0056,39.6014,1993.00,84.00,47.00,27.55,M,6.00,0.00,30.27,1016.10,M,M,M,M,M,M,M,M,M,M,M,M,M,M,M,M,M,81.78,KP68 161953Z AUTO VRB06KT 29/08 A3027 RMK AO1 SLP161 T02890083,M
DRA,2023-08-16 19:53,-116.0278,36.6206,1009.00,96.00,51.00,21.93,0.00,0.00,0.00,30.05,1011.80,10.00,M,CLR,M,M,M,M,M,M,M,M,M,M,M,M,M,M,93.11,KDRA 161953Z AUTO 00000KT 10SM CLR 36/11 A3005 RMK AO2 SLP118 T03560106,M
ELY,2023-08-16 19:53,-114.8453,39.2950,1909.00,81.00,50.00,33.97,360.00,5.00,0.00,30.29,1014.90,10.00,M,FEW,OVC,M,M,7500.00,10000.00,M,M,M,M,M,M,M,M,M,80.12,KELY 161953Z AUTO 36005KT 10SM FEW075 OVC100 27/10 A3029 RMK AO2 SLP149 T02720100,M
VGT,2023-08-16 19:53,-115.1933,36.2111,667.00,98.00,56.00,24.78,0.00,0.00,0.00,29.97,1013.40,10.00,M,CLR,M,M,M,M,M,M,M,M,M,M,M,M,M,M,96.65,KVGT 161953Z 00000KT 10SM CLR 37/13 A2997 RMK AO2 SLP134 T03670133,M
LOL,2023-08-16 19:53,-118.5701,40.0684,1192.43,84.00,51.00,31.99,70.00,10.00,0.00,30.17,1017.30,10.00,M,SCT,M,M,M,12000.00,M,M,M,M,M,M,M,M,M,M,82.22,KLOL 161953Z AUTO 07010KT 10SM SCT120 29/11 A3017 RMK AO2 SLP173 T02890106,M
BVU,2023-08-16 19:55,-114.8611,35.9475,671.00,96.80,53.60,23.55,M,3.00,0.00,29.96,M,10.00,M,CLR,M,M,M,M,M,M,M,M,M,M,M,M,M,M,94.59,KBVU 161955Z AUTO VRB03KT 10SM CLR 36/12 A2996 RMK AO2,M
CXP,2023-08-16 19:55,-119.7326,39.1923,1431.00,87.80,41.00,19.40,0.00,0.00,0.00,30.20,M,10.00,M,CLR,M,M,M,M,M,M,M,M,M,M,M,M,M,M,84.30,KCXP 161955Z AUTO 00000KT 10SM CLR 31/05 A3020 RMK AO2,M
INS,2023-08-16 19:55,-115.6733,36.5872,955.00,94.00,48.00,20.86,0.00,0.00,0.00,30.04,1011.70,10.00,M,SCT,M,M,M,17000.00,M,M,M,M,M,M,M,M,M,M,90.55,KINS 161955Z AUTO 00000KT 10SM SCT170 34/09 A3004 RMK AO2 SLP117 T03440089 $,M
RNO,2023-08-16 19:55,-119.7711,39.4839,1341.00,94.00,41.00,15.97,0.00,0.00,0.00,30.17,1015.00,10.00,M,SCT,M,M,M,11000.00,M,M,M,M,M,M,M,M,M,M,89.77,KRNO 161955Z 00000KT 10SM SCT110 34/05 A3017 RMK AO2 SLP150 T03440050,M
RTS,2023-08-16 19:55,-119.8764,39.6682,1539.00,87.80,37.40,16.86,160.00,7.00,0.00,30.23,M,10.00,M,CLR,M,M,M,M,M,M,M,M,M,M,M,M,M,M,84.16,KRTS 161955Z AUTO 16007KT 10SM CLR 31/03 A3023 RMK AO2,M
MEV,2023-08-16 19:55,-119.7500,38.9963,1441.42,89.60,39.20,17.09,M,5.00,0.00,30.19,M,9.00,M,CLR,M,M,M,M,M,M,M,M,M,M,M,M,M,M,85.73,KMEV 161955Z AUTO VRB05KT 9SM CLR 32/04 A3019 RMK AO2,M
HTH,2023-08-16 19:55,-118.6315,38.5448,1282.89,91.40,39.20,16.15,M,5.00,0.00,30.16,M,10.00,12.00,CLR,M,M,M,M,M,M,M,M,M,M,M,M,M,M,87.30,KHTH 161955Z AUTO VRB05G12KT 10SM CLR 33/04 A3016 RMK A01,M
BAM,2023-08-16 19:55,-116.8743,40.5990,1382.36,86.00,42.80,22.02,0.00,0.00,0.00,30.20,M,10.00,M,SCT,M,M,M,12000.00,M,M,M,M,M,M,M,M,M,M,82.95,KBAM 161955Z AUTO 00000KT 10SM SCT120 30/06 A3020 RMK AO1,M
TMT,2023-08-16 19:55,-117.1971,39.4643,1749.34,83.30,48.70,30.03,30.00,5.00,0.00,30.29,M,M,M,SCT,M,M,M,12000.00,M,M,M,M,M,M,M,M,M,M,81.45,KTMT 161955Z AUTO 03005KT SCT120 29/09 A3029 RMK AO2 T02850093 PWINO,M
10U,2023-08-16 19:55,-116.1876,41.9532,1637.00,91.40,39.20,16.15,M,6.00,0.00,30.22,M,10.00,M,CLR,M,M,M,M,M,M,M,M,M,M,M,M,M,M,87.30,K10U 161955Z AUTO VRB06KT 10SM CLR 33/04 A3022 RMK AO2,M
LSV,2023-08-16 19:55,-115.0343,36.2362,570.00,106.00,56.50,19.85,0.00,0.00,0.00,29.92,1010.10,10.00,M,FEW,BKN,M,M,14000.00,18000.00,M,M,M,M,M,M,M,M,M,105.69,KLSV 161955Z AUTO 00000KT 10SM FEW140 BKN180 41/14 A2992 RMK AO2 SLP101 T04110136 $,M
EKO,2023-08-16 19:56,-115.7860,40.8242,1367.00,86.00,45.00,23.95,260.00,3.00,0.00,30.21,1016.10,10.00,M,BKN,M,M,M,12000.00,M,M,M,M,M,M,M,M,M,M,83.10,KEKO 161956Z AUTO 26003KT 10SM BKN120 30/07 A3021 RMK AO2 SLP161 T03000072,M
WMC,2023-08-16 19:56,-117.8072,40.9019,1315.00,90.00,44.00,20.31,260.00,8.00,0.00,30.18,1016.00,10.00,17.00,CLR,M,M,M,M,M,M,M,M,M,M,M,M,M,M,86.37,KWMC 161956Z AUTO 26008G17KT 10SM CLR 32/07 A3018 RMK AO2 SLP160 T03220067,M
NFL,2023-08-16 19:56,-118.7010,39.4166,1199.00,92.00,46.00,20.58,30.00,7.00,0.00,30.13,1017.00,10.00,M,SCT,SCT,BKN,BKN,7000.00,12000.00,17000.00,20000.00,M,M,M,M,M,M,M,88.38,KNFL 161956Z 03007KT 10SM SCT070 SCT120 BKN170 BKN200 33/08 A3013 RMK AO2 SLP170 T03330078,M
HND,2023-08-16 19:56,-115.1344,35.9729,742.79,97.00,57.00,26.49,M,6.00,0.00,30.02,1014.40,10.00,M,CLR,M,M,M,M,M,M,M,M,M,M,M,M,M,M,95.92,KHND 161956Z VRB06KT 10SM CLR 36/14 A3002 RMK AO2 LTG DSNT S SLP144 T03610139,M
TPH,2023-08-16 19:56,-117.0904,38.0505,1654.00,89.00,48.00,24.39,140.00,7.00,0.00,30.22,1014.50,10.00,M,CLR,M,M,M,M,M,M,M,M,M,M,M,M,M,M,85.89,KTPH 161956Z AUTO 14007KT 10SM CLR 32/09 A3022 RMK AO2 SLP145 T03170089,M
LAS,2023-08-16 19:56,-115.1634,36.0719,663.00,98.00,56.00,24.78,M,3.00,0.00,29.98,1012.00,10.00,M,FEW,SCT,BKN,M,12000.00,16000.00,20000.00,M,M,M,M,M,M,M,M,96.65,KLAS 161956Z VRB03KT 10SM FEW120 SCT160 BKN200 37/13 A2998 RMK AO2 LTG DSNT S SLP120 TCU DSNT W-N T03670133,M
BVU,2023-08-16 20:15,-114.8611,35.9475,671.00,96.80,53.60,23.55,50.00,6.00,0.00,29.96,M,10.00,M,CLR,M,M,M,M,M,M,M,M,M,M,M,M,M,M,94.59,KBVU 162015Z AUTO 05006KT 10SM CLR 36/12 A2996 RMK AO2,M
CXP,2023-08-16 20:15,-119.7326,39.1923,1431.00,89.60,41.00,18.33,0.00,0.00,0.00,30.19,M,10.00,M,CLR,M,M,M,M,M,M,M,M,M,M,M,M,M,M,85.82,KCXP 162015Z AUTO 00000KT 10SM CLR 32/05 A3019 RMK AO2,M
RTS,2023-08-16 20:15,-119.8764,39.6682,1539.00,87.80,37.40,16.86,200.00,5.00,0.00,30.23,M,10.00,13.00,CLR,M,M,M,M,M,M,M,M,M,M,M,M,M,M,84.16,KRTS 162015Z AUTO 20005G13KT 10SM CLR 31/03 A3023 RMK AO2,M
05U,2023-08-16 20:15,-116.0051,39.6042,1811.23,86.00,46.40,25.26,M,M,0.00,30.30,M,10.00,M,M,M,M,M,M,M,M,M,M,M,M,M,M,M,M,83.22,K05U 162015Z AUTO 10SM 30/08 A3030 RMK A01,M
MEV,2023-08-16 20:15,-119.7500,38.9963,1441.42,89.60,39.20,17.09,M,6.00,0.00,30.18,M,8.00,M,CLR,M,M,M,M,M,M,M,M,M,M,M,M,M,M,85.73,KMEV 162015Z AUTO VRB06KT 8SM CLR 32/04 A3018 RMK AO2,M
BAM,2023-08-16 20:15,-116.8743,40.5990,1382.36,87.80,44.60,22.27,240.00,3.00,0.00,30.19,M,10.00,M,CLR,M,M,M,M,M,M,M,M,M,M,M,M,M,M,84.53,KBAM 162015Z AUTO 24003KT 10SM CLR 31/07 A3019 RMK AO1,M
HTH,2023-08-16 20:15,-118.6315,38.5448,1282.89,89.60,41.00,18.33,320.00,5.00,0.00,30.15,M,10.00,11.00,CLR,M,M,M,M,M,M,M,M,M,M,M,M,M,M,85.82,KHTH 162015Z AUTO 32005G11KT 10SM CLR 32/05 A3015 RMK A01,M
10U,2023-08-16 20:15,-116.1876,41.9532,1637.00,93.20,39.20,15.27,0.00,0.00,0.00,30.21,M,10.00,12.00,CLR,M,M,M,M,M,M,M,M,M,M,M,M,M,M,88.92,K10U 162015Z AUTO 00000G12KT 10SM CLR 34/04 A3021 RMK AO2,M
TMT,2023-08-16 20:15,-117.1971,39.4643,1749.34,82.40,48.40,30.57,50.00,8.00,0.00,30.28,M,M,M,SCT,SCT,SCT,M,5000.00,6000.00,11000.00,M,M,M,M,M,M,M,M,80.82,KTMT 162015Z AUTO 05008KT SCT050 SCT060 SCT110 28/09 A3028 RMK AO2 LTG DSNT E T02800091 PWINO,M
05U,2023-08-16 20:30,-116.0051,39.6042,1811.23,86.00,46.40,25.26,M,M,0.00,30.29,M,10.00,M,M,M,M,M,M,M,M,M,M,M,M,M,M,M,M,83.22,K05U 162030Z AUTO 10SM 30/08 A3029 RMK A01,M
BVU,2023-08-16 20:35,-114.8611,35.9475,671.00,98.60,53.60,22.29,40.00,5.00,0.00,29.95,M,10.00,M,CLR,M,M,M,M,M,M,M,M,M,M,M,M,M,M,96.51,KBVU 162035Z AUTO 04005KT 10SM CLR 37/12 A2995 RMK AO2 LTG DSNT NE,M
CXP,2023-08-16 20:35,-119.7326,39.1923,1431.00,91.40,41.00,17.32,250.00,6.00,0.00,30.19,M,10.00,M,CLR,M,M,M,M,M,M,M,M,M,M,M,M,M,M,87.40,KCXP 162035Z AUTO 25006KT 10SM CLR 33/05 A3019 RMK AO2,M
RTS,2023-08-16 20:35,-119.8764,39.6682,1539.00,87.80,37.40,16.86,M,6.00,0.00,30.22,M,9.00,M,CLR,M,M,M,M,M,M,M,M,M,M,M,M,M,M,84.16,KRTS 162035Z AUTO VRB06KT 9SM CLR 31/03 A3022 RMK AO2,M
MEV,2023-08-16 20:35,-119.7500,38.9963,1441.42,89.60,39.20,17.09,60.00,3.00,0.00,30.17,M,10.00,10.00,CLR,M,M,M,M,M,M,M,M,M,M,M,M,M,M,85.73,KMEV 162035Z AUTO 06003G10KT 10SM CLR 32/04 A3017 RMK AO2,M
HTH,2023-08-16 20:35,-118.6315,38.5448,1282.89,91.40,41.00,17.32,340.00,7.00,0.00,30.14,M,10.00,12.00,CLR,M,M,M,M,M,M,M,M,M,M,M,M,M,M,87.40,KHTH 162035Z AUTO 34007G12KT 10SM CLR 33/05 A3014 RMK A01,M
10U,2023-08-16 20:35,-116.1876,41.9532,1637.00,93.20,39.20,15.27,30.00,6.00,0.00,30.21,M,10.00,M,CLR,M,M,M,M,M,M,M,M,M,M,M,M,M,M,88.92,K10U 162035Z AUTO 03006KT 10SM CLR 34/04 A3021 RMK AO2,M
BAM,2023-08-16 20:35,-116.8743,40.5990,1382.36,87.80,44.60,22.27,250.00,4.00,0.00,30.19,M,10.00,M,CLR,M,M,M,M,M,M,M,M,M,M,M,M,M,M,84.53,KBAM 162035Z AUTO 25004KT 10SM CLR 31/07 A3019 RMK AO1,M
TMT,2023-08-16 20:35,-117.1971,39.4643,1749.34,79.50,49.50,35.02,60.00,15.00,0.00,30.29,M,M,M,SCT,BKN,OVC,M,6000.00,10000.00,12000.00,M,M,M,M,M,M,M,M,79.50,KTMT 162035Z AUTO 06015KT SCT060 BKN100 OVC120 26/10 A3029 RMK AO2 T02640097 PWINO,M
P68,2023-08-16 20:53,-116.0056,39.6014,1993.00,86.00,46.00,24.88,M,M,0.00,30.25,1015.30,M,M,M,M,M,M,M,M,M,M,M,M,M,M,M,M,M,83.19,KP68 162053Z AUTO 30/08 A3025 RMK AO1 SLP153 T03000078 58017,M
DRA,2023-08-16 20:53,-116.0278,36.6206,1009.00,99.00,49.00,18.58,270.00,5.00,0.00,30.03,1010.70,10.00,15.00,CLR,M,M,M,M,M,M,M,M,M,M,M,M,M,M,95.75,KDRA 162053Z AUTO 27005G15KT 10SM CLR 37/09 A3003 RMK AO2 SLP107 T03720094 58020,M
ELY,2023-08-16 20:53,-114.8453,39.2950,1909.00,85.00,50.00,29.85,70.00,8.00,0.00,30.27,1014.00,10.00,15.00,BKN,BKN,M,M,9000.00,12000.00,M,M,M,M,M,M,M,M,M,82.83,KELY 162053Z AUTO 07008G15KT 10SM BKN090 BKN120 29/10 A3027 RMK AO2 SLP140 T02940100 56014,M
VGT,2023-08-16 20:53,-115.1933,36.2111,667.00,102.00,56.00,21.96,30.00,5.00,0.00,29.95,1012.40,10.00,M,CLR,M,M,M,M,M,M,M,M,M,M,M,M,M,M,101.05,KVGT 162053Z 03005KT 10SM CLR 39/13 A2995 RMK AO2 LTG DSNT W SLP124 T03890133 58022,M
LOL,2023-08-16 20:53,-118.5701,40.0684,1192.43,85.00,51.00,30.97,30.00,7.00,0.00,30.15,1016.90,10.00,M,FEW,M,M,M,11000.00,M,M,M,M,M,M,M,M,M,M,82.97,KLOL 162053Z AUTO 03007KT 10SM FEW110 29/11 A3015 RMK AO2 SLP169 T02940106 56012,M
BVU,2023-08-16 20:55,-114.8611,35.9475,671.00,98.60,53.60,22.29,90.00,5.00,0.00,29.94,M,10.00,M,CLR,M,M,M,M,M,M,M,M,M,M,M,M,M,M,96.51,KBVU 162055Z AUTO 09005KT 10SM CLR 37/12 A2994 RMK AO2,M
CXP,2023-08-16 20:55,-119.7326,39.1923,1431.00,91.40,39.20,16.15,M,4.00,0.00,30.18,M,10.00,M,CLR,M,M,M,M,M,M,M,M,M,M,M,M,M,M,87.30,KCXP 162055Z AUTO VRB04KT 10SM CLR 33/04 A3018 RMK AO2,M
INS,2023-08-16 20:55,-115.6733,36.5872,955.00,94.00,46.80,19.94,150.00,4.00,0.00,30.01,1010.70,10.00,M,CLR,M,M,M,M,M,M,M,M,M,M,M,M,M,M,90.37,KINS 162055Z AUTO 15004KT 10SM CLR 35/08 A3001 RMK AO2 SLP107 T03450082 57022 $,M
RNO,2023-08-16 20:55,-119.7711,39.4839,1341.00,96.00,40.00,14.45,280.00,6.00,0.00,30.14,1014.10,10.00,M,SCT,SCT,M,M,11000.00,25000.00,M,M,M,M,M,M,M,M,M,91.55,KRNO 162055Z 28006KT 10SM SCT110 SCT250 36/04 A3014 RMK AO2 SLP141 T03560044 58025,M
LSV,2023-08-16 20:55,-115.0343,36.2362,570.00,102.60,55.00,20.80,0.00,0.00,0.00,29.90,1009.60,10.00,M,FEW,M,M,M,12000.00,M,M,M,M,M,M,M,M,M,M,101.32,KLSV 162055Z AUTO 00000KT 10SM FEW120 39/13 A2990 RMK AO2 SLP096 T03920128 57024 $,M
RTS,2023-08-16 20:55,-119.8764,39.6682,1539.00,89.60,35.60,14.83,160.00,8.00,0.00,30.21,M,10.00,M,CLR,M,M,M,M,M,M,M,M,M,M,M,M,M,M,85.62,KRTS 162055Z AUTO 16008KT 10SM CLR 32/02 A3021 RMK AO2,M
05U,2023-08-16 20:55,-116.0051,39.6042,1811.23,87.80,46.40,23.85,M,M,0.00,30.29,M,10.00,M,M,M,M,M,M,M,M,M,M,M,M,M,M,M,M,84.68,K05U 162055Z AUTO 10SM 31/08 A3029 RMK A01,M
MEV,2023-08-16 20:55,-119.7500,38.9963,1441.42,89.60,39.20,17.09,290.00,6.00,0.00,30.16,M,10.00,M,CLR,M,M,M,M,M,M,M,M,M,M,M,M,M,M,85.73,KMEV 162055Z AUTO 29006KT 10SM CLR 32/04 A3016 RMK AO2,M
BAM,2023-08-16 20:55,-116.8743,40.5990,1382.36,87.80,44.60,22.27,250.00,3.00,0.00,30.19,M,10.00,M,SCT,M,M,M,12000.00,M,M,M,M,M,M,M,M,M,M,84.53,KBAM 162055Z AUTO 25003KT 10SM SCT120 31/07 A3019 RMK AO1,M
HTH,2023-08-16 20:55,-118.6315,38.5448,1282.89,93.20,41.00,16.37,310.00,8.00,0.00,30.13,M,10.00,M,CLR,M,M,M,M,M,M,M,M,M,M,M,M,M,M,89.03,KHTH 162055Z AUTO 31008KT 10SM CLR 34/05 A3013 RMK A01,M
TMT,2023-08-16 20:55,-117.1971,39.4643,1749.34,83.50,49.50,30.74,50.00,10.00,0.00,30.28,M,M,M,BKN,BKN,M,M,10000.00,12000.00,M,M,M,M,M,M,M,M,M,81.68,KTMT 162055Z AUTO 05010KT BKN100 BKN120 29/10 A3028 RMK AO2 LTG DSNT SW T02860097 PWINO,M
10U,2023-08-16 20:55,-116.1876,41.9532,1637.00,91.40,37.40,15.05,0.00,0.00,0.00,30.20,M,10.00,M,CLR,M,M,M,M,M,M,M,M,M,M,M,M,M,M,87.23,K10U 162055Z AUTO 00000KT 10SM CLR 33/03 A3020 RMK AO2,M
EKO,2023-08-16 20:56,-115.7860,40.8242,1367.00,88.00,47.00,24.24,230.00,6.00,0.00,30.19,1015.40,10.00,M,FEW,M,M,M,12000.00,M,M,M,M,M,M,M,M,M,M,84.91,KEKO 162056Z AUTO 23006KT 10SM FEW120 31/08 A3019 RMK AO2 SLP154 T03110083 58017,M
WMC,2023-08-16 20:56,-117.8072,40.9019,1315.00,89.00,43.00,20.17,250.00,9.00,0.00,30.17,1015.90,10.00,M,CLR,M,M,M,M,M,M,M,M,M,M,M,M,M,M,85.42,KWMC 162056Z AUTO 25009KT 10SM CLR 32/06 A3017 RMK AO2 SLP159 T03170061 58011,M
NFL,2023-08-16 20:56,-118.7010,39.4166,1199.00,95.00,47.00,19.48,70.00,8.00,0.00,30.11,1016.40,10.00,16.00,SCT,SCT,BKN,BKN,7000.00,12000.00,17000.00,20000.00,M,M,M,M,M,M,M,91.37,KNFL 162056Z 07008G16KT 10SM SCT070 SCT120 BKN170 BKN200 35/08 A3011 RMK AO2 SLP164 T03500083 57019,M
HND,2023-08-16 20:56,-115.1344,35.9729,742.79,99.00,56.00,24.04,350.00,4.00,0.00,29.99,1013.60,10.00,M,CLR,M,M,M,M,M,M,M,M,M,M,M,M,M,M,97.74,KHND 162056Z 35004KT 10SM CLR 37/13 A2999 RMK AO2 SLP136 T03720133 58023,M
TPH,2023-08-16 20:56,-117.0904,38.0505,1654.00,89.00,47.00,23.49,0.00,0.00,0.00,30.19,1013.70,10.00,M,CLR,M,M,M,M,M,M,M,M,M,M,M,M,M,M,85.77,KTPH 162056Z AUTO 00000KT 10SM CLR 32/08 A3019 RMK AO2 LTG DSNT E SLP137 T03170083 58023,M
LAS,2023-08-16 20:56,-115.1634,36.0719,663.00,98.00,55.00,23.89,M,3.00,0.00,29.96,1011.20,10.00,M,FEW,SCT,BKN,M,12000.00,16000.00,20000.00,M,M,M,M,M,M,M,M,96.31,KLAS 162056Z VRB03KT 10SM FEW120 SCT160 BKN200 37/13 A2996 RMK AO2 LTG DSNT NW SLP112 TCU DSNT W-N T03670128 58023,M
HND,2023-08-16 21:08,-115.1344,35.9729,742.79,100.40,55.40,22.54,60.00,6.00,0.00,29.99,M,10.00,M,CLR,M,M,M,M,M,M,M,VCTS,M,M,M,M,M,M,99.06,KHND 162108Z 06006KT 10SM VCTS CLR 38/13 A2999 RMK AO2 LTG DSNT W TSB02,M
05U,2023-08-16 21:10,-116.0051,39.6042,1811.23,84.20,46.40,26.76,M,M,0.00,30.28,M,10.00,M,M,M,M,M,M,M,M,M,M,M,M,M,M,M,M,81.87,K05U 162110Z AUTO 10SM 29/08 A3028 RMK A01,M
BVU,2023-08-16 21:15,-114.8611,35.9475,671.00,98.60,53.60,22.29,50.00,6.00,0.00,29.94,M,10.00,M,CLR,M,M,M,M,M,M,M,M,M,M,M,M,M,M,96.51,KBVU 162115Z AUTO 05006KT 10SM CLR 37/12 A2994 RMK AO2,M
CXP,2023-08-16 21:15,-119.7326,39.1923,1431.00,91.40,39.20,16.15,120.00,7.00,0.00,30.17,M,10.00,M,CLR,M,M,M,M,M,M,M,M,M,M,M,M,M,M,87.30,KCXP 162115Z AUTO 12007KT 090V160 10SM CLR 33/04 A3017 RMK AO2,M
RTS,2023-08-16 21:15,-119.8764,39.6682,1539.00,89.60,35.60,14.83,140.00,9.00,0.00,30.21,M,10.00,M,CLR,M,M,M,M,M,M,M,M,M,M,M,M,M,M,85.62,KRTS 162115Z AUTO 14009KT 10SM CLR 32/02 A3021 RMK AO2,M
MEV,2023-08-16 21:15,-119.7500,38.9963,1441.42,91.40,39.20,16.15,M,5.00,0.00,30.16,M,9.00,M,CLR,M,M,M,M,M,M,M,M,M,M,M,M,M,M,87.30,KMEV 162115Z AUTO VRB05KT 9SM CLR 33/04 A3016 RMK AO2,M
BAM,2023-08-16 21:15,-116.8743,40.5990,1382.36,87.80,44.60,22.27,0.00,0.00,0.00,30.18,M,10.00,M,SCT,M,M,M,12000.00,M,M,M,M,M,M,M,M,M,M,84.53,KBAM 162115Z AUTO 00000KT 10SM SCT120 31/07 A3018 RMK AO1,M
HTH,2023-08-16 21:15,-118.6315,38.5448,1282.89,93.20,41.00,16.37,10.00,8.00,0.00,30.12,M,10.00,M,CLR,M,M,M,M,M,M,M,M,M,M,M,M,M,M,89.03,KHTH 162115Z AUTO 01008KT 10SM CLR 34/05 A3012 RMK A01,M
10U,2023-08-16 21:15,-116.1876,41.9532,1637.00,95.00,37.40,13.46,M,4.00,0.00,30.20,M,10.00,14.00,CLR,M,M,M,M,M,M,M,M,M,M,M,M,M,M,90.46,K10U 162115Z AUTO VRB04G14KT 10SM CLR 35/03 A3020 RMK AO2,M
TMT,2023-08-16 21:15,-117.1971,39.4643,1749.34,81.00,48.40,32.00,40.00,11.00,0.00,30.28,M,M,15.00,BKN,M,M,M,10000.00,M,M,M,M,M,M,M,M,M,M,79.96,KTMT 162115Z AUTO 04011G15KT BKN100 27/09 A3028 RMK AO2 LTG DSNT SW T02720091 PWINO,M
05U,2023-08-16 21:30,-116.0051,39.6042,1811.23,86.00,46.40,25.26,M,M,0.00,30.27,M,10.00,M,M,M,M,M,M,M,M,M,M,M,M,M,M,M,M,83.22,K05U 162130Z AUTO 10SM 30/08 A3027 RMK A01,M
BVU,2023-08-16 21:35,-114.8611,35.9475,671.00,98.60,53.60,22.29,0.00,0.00,0.00,29.93,M,10.00,M,CLR,M,M,M,M,M,M,M,M,M,M,M,M,M,M,96.51,KBVU 162135Z AUTO 00000KT 10SM CLR 37/12 A2993 RMK AO2,M
CXP,2023-08-16 21:35,-119.7326,39.1923,1431.00,91.40,39.20,16.15,M,5.00,0.00,30.16,M,10.00,M,CLR,M,M,M,M,M,M,M,M,M,M,M,M,M,M,87.30,KCXP 162135Z AUTO VRB05KT 10SM CLR 33/04 A3016 RMK AO2,M
RTS,2023-08-16 21:35,-119.8764,39.6682,1539.00,91.40,35.60,14.02,140.00,4.00,0.00,30.20,M,10.00,M,CLR,M,M,M,M,M,M,M,M,M,M,M,M,M,M,87.17,KRTS 162135Z AUTO 14004KT 10SM CLR 33/02 A3020 RMK AO2,M
MEV,2023-08-16 21:35,-119.7500,38.9963,1441.42,89.60,39.20,17.09,270.00,5.00,0.00,30.15,M,9.00,M,CLR,M,M,M,M,M,M,M,M,M,M,M,M,M,M,85.73,KMEV 162135Z AUTO 27005KT 9SM CLR 32/04 A3015 RMK AO2,M
BAM,2023-08-16 21:35,-116.8743,40.5990,1382.36,87.80,44.60,22.27,0.00,0.00,0.00,30.17,M,10.00,M,SCT,M,M,M,12000.00,M,M,M,M,M,M,M,M,M,M,84.53,KBAM 162135Z AUTO 00000KT 10SM SCT120 31/07 A3017 RMK AO1,M
HTH,2023-08-16 21:35,-118.6315,38.5448,1282.89,95.00,41.00,15.49,330.00,10.00,0.00,30.11,M,10.00,M,CLR,M,M,M,M,M,M,M,M,M,M,M,M,M,M,90.70,KHTH 162135Z AUTO 33010KT 10SM CLR 35/05 A3011 RMK A01,M
10U,2023-08-16 21:35,-116.1876,41.9532,1637.00,91.40,37.40,15.05,M,6.00,0.00,30.19,M,10.00,M,CLR,M,M,M,M,M,M,M,M,M,M,M,M,M,M,87.23,K10U 162135Z AUTO VRB06KT 10SM CLR 33/03 A3019 RMK AO2,M
TMT,2023-08-16 21:35,-117.1971,39.4643,1749.34,81.00,49.50,33.34,60.00,8.00,0.00,30.27,M,M,M,BKN,M,M,M,10000.00,M,M,M,M,M,M,M,M,M,M,80.06,KTMT 162135Z AUTO 06008KT BKN100 27/10 A3027 RMK AO2 T02720097 PWINO,M
HND,2023-08-16 21:47,-115.1344,35.9729,742.79,98.60,53.60,22.29,50.00,4.00,0.00,29.98,M,10.00,M,CLR,M,M,M,M,M,M,M,M,M,M,M,M,M,M,96.51,KHND 162147Z 05004KT 10SM CLR 37/12 A2998 RMK AO2 LTG DSNT W TSB02E41,M
P68,2023-08-16 21:53,-116.0056,39.6014,1993.00,87.00,47.00,25.02,20.00,9.00,0.00,30.22,1014.10,M,15.00,M,M,M,M,M,M,M,M,M,M,M,M,M,M,M,84.08,KP68 162153Z AUTO 02009G15KT 31/08 A3022 RMK AO1 SLP141 T03060083,M
DRA,2023-08-16 21:53,-116.0278,36.6206,1009.00,97.00,48.00,19.02,210.00,9.00,0.00,30.01,1010.20,10.00,18.00,CLR,M,M,M,M,M,M,M,M,M,M,M,M,M,M,93.52,KDRA 162153Z AUTO 21009G18KT 10SM CLR 36/09 A3001 RMK AO2 SLP102 T03610089,M
ELY,2023-08-16 21:53,-114.8453,39.2950,1909.00,86.00,51.00,30.00,350.00,6.00,0.00,30.25,1013.20,10.00,M,SCT,BKN,M,M,8500.00,12000.00,M,M,M,M,M,M,M,M,M,83.75,KELY 162153Z AUTO 35006KT 10SM SCT085 BKN120 30/11 A3025 RMK AO2 SLP132 T03000106,M
VGT,2023-08-16 21:53,-115.1933,36.2111,667.00,100.00,56.00,23.32,90.00,7.00,0.00,29.92,1011.70,10.00,M,CLR,M,M,M,M,M,M,M,M,M,M,M,M,M,M,98.84,KVGT 162153Z 09007KT 10SM CLR 38/13 A2992 RMK AO2 LTG DSNT SW AND W SLP117 T03780133,M
LOL,2023-08-16 21:53,-118.5701,40.0684,1192.43,86.00,51.00,30.00,40.00,10.00,0.00,30.12,1015.70,10.00,M,CLR,M,M,M,M,M,M,M,M,M,M,M,M,M,M,83.75,KLOL 162153Z AUTO 04010KT 10SM CLR 30/11 A3012 RMK AO2 SLP157 T03000106,M
BVU,2023-08-16 21:55,-114.8611,35.9475,671.00,98.60,53.60,22.29,30.00,5.00,0.00,29.92,M,10.00,M,CLR,M,M,M,M,M,M,M,M,M,M,M,M,M,M,96.51,KBVU 162155Z AUTO 03005KT 10SM CLR 37/12 A2992 RMK AO2,M
CXP,2023-08-16 21:55,-119.7326,39.1923,1431.00,93.20,41.00,16.37,330.00,7.00,0.00,30.15,M,10.00,M,CLR,M,M,M,M,M,M,M,M,M,M,M,M,M,M,89.03,KCXP 162155Z AUTO 33007KT 10SM CLR 34/05 A3015 RMK AO2 LTG DSNT SE AND S,M
INS,2023-08-16 21:55,-115.6733,36.5872,955.00,95.40,46.60,18.95,140.00,10.00,0.00,29.99,1010.00,10.00,M,FEW,SCT,M,M,17000.00,21000.00,M,M,M,M,M,M,M,M,M,91.71,KINS 162155Z AUTO 14010KT 10SM FEW170 SCT210 35/08 A2999 RMK AO2 SLP100 T03520081 $,M
RNO,2023-08-16 21:55,-119.7711,39.4839,1341.00,96.00,40.00,14.45,320.00,3.00,0.00,30.11,1013.10,10.00,M,SCT,SCT,M,M,11000.00,25000.00,M,M,M,M,M,M,M,M,M,91.55,KRNO 162155Z 32003KT 10SM SCT110 SCT250 36/04 A3011 RMK AO2 SLP131 T03560044,M
LSV,2023-08-16 21:55,-115.0343,36.2362,570.00,102.40,55.00,20.92,0.00,0.00,0.00,29.87,1008.50,10.00,M,FEW,SCT,M,M,16000.00,19000.00,M,M,M,M,M,M,M,M,M,101.10,KLSV 162155Z AUTO 00000KT 10SM FEW160 SCT190 39/13 A2987 RMK AO2 SLP085 T03910127 $,M
RTS,2023-08-16 21:55,-119.8764,39.6682,1539.00,91.40,37.40,15.05,130.00,7.00,0.00,30.19,M,10.00,M,CLR,M,M,M,M,M,M,M,M,M,M,M,M,M,M,87.23,KRTS 162155Z AUTO 13007KT 10SM CLR 33/03 A3019 RMK AO2,M
05U,2023-08-16 21:55,-116.0051,39.6042,1811.23,87.80,46.40,23.85,M,M,0.00,30.25,M,10.00,M,M,M,M,M,M,M,M,M,M,M,M,M,M,M,M,84.68,K05U 162155Z AUTO 10SM 31/08 A3025 RMK A01,M
MEV,2023-08-16 21:55,-119.7500,38.9963,1441.42,89.60,37.40,15.92,250.00,8.00,0.00,30.14,M,10.00,M,CLR,M,M,M,M,M,M,M,M,M,M,M,M,M,M,85.67,KMEV 162155Z AUTO 25008KT 10SM CLR 32/03 A3014 RMK AO2 LTG DSNT E AND S,M
BAM,2023-08-16 21:55,-116.8743,40.5990,1382.36,87.80,44.60,22.27,0.00,0.00,0.00,30.16,M,10.00,M,SCT,M,M,M,12000.00,M,M,M,M,M,M,M,M,M,M,84.53,KBAM 162155Z AUTO 00000KT 10SM SCT120 31/07 A3016 RMK AO1,M
HTH,2023-08-16 21:55,-118.6315,38.5448,1282.89,95.00,39.20,14.44,320.00,12.00,0.00,30.10,M,10.00,M,CLR,M,M,M,M,M,M,M,M,M,M,M,M,M,M,90.57,KHTH 162155Z AUTO 32012KT 10SM CLR 35/04 A3010 RMK A01,M
10U,2023-08-16 21:55,-116.1876,41.9532,1637.00,95.00,37.40,13.46,30.00,10.00,0.00,30.19,M,10.00,M,CLR,M,M,M,M,M,M,M,M,M,M,M,M,M,M,90.46,K10U 162155Z AUTO 03010KT 350V050 10SM CLR 35/03 A3019 RMK AO2,M
TMT,2023-08-16 21:55,-117.1971,39.4643,1749.34,81.50,48.00,31.01,20.00,9.00,0.00,30.26,M,M,M,BKN,M,M,M,10000.00,M,M,M,M,M,M,M,M,M,M,80.22,KTMT 162155Z AUTO 02009KT BKN100 28/09 A3026 RMK AO2 LTG DSNT SE T02750088 PWINO,M
EKO,2023-08-16 21:56,-115.7860,40.8242,1367.00,87.00,51.00,29.06,220.00,7.00,0.00,30.17,1014.90,10.00,M,OVC,M,M,M,12000.00,M,M,M,M,M,M,M,M,M,M,84.58,KEKO 162156Z AUTO 22007KT 10SM OVC120 31/11 A3017 RMK AO2 SLP149 T03060106,M
WMC,2023-08-16 21:56,-117.8072,40.9019,1315.00,89.00,43.00,20.17,270.00,10.00,0.00,30.16,1015.60,10.00,M,CLR,M,M,M,M,M,M,M,M,M,M,M,M,M,M,85.42,KWMC 162156Z AUTO 27010KT 10SM CLR 32/06 A3016 RMK AO2 SLP156 T03170061,M
NFL,2023-08-16 21:56,-118.7010,39.4166,1199.00,96.00,46.00,18.19,10.00,8.00,0.00,30.09,1015.60,10.00,M,SCT,BKN,BKN,BKN,7000.00,12000.00,17000.00,25000.00,M,M,M,M,M,M,M,92.21,KNFL 162156Z 01008KT 10SM SCT070 BKN120 BKN170 BKN250 36/08 A3009 RMK AO2 SLP156 CB DSNT SE T03560078,M
HND,2023-08-16 21:56,-115.1344,35.9729,742.79,98.00,55.00,23.89,M,3.00,0.00,29.97,1013.00,10.00,M,CLR,M,M,M,M,M,M,M,M,M,M,M,M,M,M,96.31,KHND 162156Z VRB03KT 10SM CLR 37/13 A2997 RMK AO2 LTG DSNT W AND NW TSB02E41 SLP130 T03670128,M
TPH,2023-08-16 21:56,-117.0904,38.0505,1654.00,85.00,49.00,28.75,50.00,19.00,0.00,30.18,1013.60,10.00,29.00,BKN,M,M,M,10000.00,M,M,M,M,M,M,M,30.00,50.00,2023-08-16 21:39,82.71,KTPH 162156Z AUTO 05019G29KT 10SM BKN100 29/09 A3018 RMK AO2 PK WND 05030/2139 LTG DSNT NW-NE SLP136 T02940094,M
LAS,2023-08-16 21:56,-115.1634,36.0719,663.00,98.00,54.00,23.04,0.00,0.00,0.00,29.93,1010.30,10.00,M,FEW,SCT,BKN,M,12000.00,16000.00,20000.00,M,M,M,M,M,M,M,M,95.99,KLAS 162156Z 00000KT 10SM FEW120 SCT160 BKN200 37/12 A2993 RMK AO2 LTG DSNT SW AND W SLP103 CB DSNT ALQDS T03670122,M
05U,2023-08-16 22:10,-116.0051,39.6042,1811.23,87.80,46.40,23.85,M,M,0.00,30.25,M,10.00,M,M,M,M,M,M,M,M,M,M,M,M,M,M,M,M,84.68,K05U 162210Z AUTO 10SM 31/08 A3025 RMK A01,M
BVU,2023-08-16 22:15,-114.8611,35.9475,671.00,98.60,51.80,20.87,0.00,0.00,0.00,29.91,M,10.00,M,CLR,M,M,M,M,M,M,M,M,M,M,M,M,M,M,96.00,KBVU 162215Z AUTO 00000KT 10SM CLR 37/11 A2991 RMK AO2,M
CXP,2023-08-16 22:15,-119.7326,39.1923,1431.00,91.40,41.00,17.32,M,5.00,0.00,30.14,M,10.00,12.00,SCT,M,M,M,11000.00,M,M,M,M,M,M,M,M,M,M,87.40,KCXP 162215Z AUTO VRB05G12KT 10SM SCT110 33/05 A3014 RMK AO2,M
RTS,2023-08-16 22:15,-119.8764,39.6682,1539.00,89.60,35.60,14.83,0.00,0.00,0.00,30.18,M,10.00,11.00,SCT,M,M,M,11000.00,M,M,M,M,M,M,M,M,M,M,85.62,KRTS 162215Z AUTO 00000G11KT 10SM SCT110 32/02 A3018 RMK AO2,M
MEV,2023-08-16 22:15,-119.7500,38.9963,1441.42,87.80,44.60,22.27,250.00,14.00,0.00,30.13,M,10.00,M,BKN,M,M,M,11000.00,M,M,M,M,M,M,M,M,M,M,84.53,KMEV 162215Z AUTO 25014KT 10SM BKN110 31/07 A3013 RMK AO2,M
HTH,2023-08-16 22:15,-118.6315,38.5448,1282.89,95.00,39.20,14.44,300.00,11.00,0.00,30.09,M,10.00,M,CLR,M,M,M,M,M,M,M,M,M,M,M,M,M,M,90.57,KHTH 162215Z AUTO 30011KT 10SM CLR 35/04 A3009 RMK A01,M
BAM,2023-08-16 22:15,-116.8743,40.5990,1382.36,87.80,44.60,22.27,260.00,3.00,0.00,30.16,M,10.00,M,SCT,M,M,M,12000.00,M,M,M,M,M,M,M,M,M,M,84.53,KBAM 162215Z AUTO 26003KT 10SM SCT120 31/07 A3016 RMK AO1,M
TMT,2023-08-16 22:15,-117.1971,39.4643,1749.34,81.00,47.70,31.17,20.00,8.00,0.00,30.25,M,M,M,BKN,M,M,M,11000.00,M,M,M,M,M,M,M,M,M,M,79.90,KTMT 162215Z AUTO 02008KT BKN110 27/09 A3025 RMK AO2 T02730087 PWINO,M
10U,2023-08-16 22:15,-116.1876,41.9532,1637.00,93.20,37.40,14.23,M,6.00,0.00,30.18,M,10.00,14.00,CLR,M,M,M,M,M,M,M,M,M,M,M,M,M,M,88.83,K10U 162215Z AUTO VRB06G14KT 10SM CLR 34/03 A3018 RMK AO2,M
BVU,2023-08-16 22:35,-114.8611,35.9475,671.00,98.60,53.60,22.29,120.00,4.00,0.00,29.90,M,10.00,M,CLR,M,M,M,M,M,M,M,M,M,M,M,M,M,M,96.51,KBVU 162235Z AUTO 12004KT 10SM CLR 37/12 A2990 RMK AO2,M
CXP,2023-08-16 22:35,-119.7326,39.1923,1431.00,91.40,41.00,17.32,360.00,5.00,0.00,30.13,M,10.00,11.00,BKN,M,M,M,11000.00,M,M,M,M,M,M,M,M,M,M,87.40,KCXP 162235Z AUTO 36005G11KT 10SM BKN110 33/05 A3013 RMK AO2,M
RTS,2023-08-16 22:35,-119.8764,39.6682,1539.00,89.60,37.40,15.92,0.00,0.00,0.00,30.18,M,10.00,M,BKN,M,M,M,11000.00,M,M,M,M,M,M,M,M,M,M,85.67,KRTS 162235Z AUTO 00000KT 10SM BKN110 32/03 A3018 RMK AO2,M
05U,2023-08-16 22:35,-116.0051,39.6042,1811.23,87.80,46.40,23.85,M,M,0.00,30.24,M,10.00,M,M,M,M,M,M,M,M,M,M,M,M,M,M,M,M,84.68,K05U 162235Z AUTO 10SM 31/08 A3024 RMK A01,M
MEV,2023-08-16 22:35,-119.7500,38.9963,1441.42,86.00,44.60,23.59,250.00,14.00,0.00,30.14,M,10.00,M,SCT,M,M,M,11000.00,M,M,M,M,M,M,M,M,M,M,83.07,KMEV 162235Z AUTO 25014KT 10SM SCT110 30/07 A3014 RMK AO2,M
BAM,2023-08-16 22:35,-116.8743,40.5990,1382.36,87.80,44.60,22.27,250.00,3.00,0.00,30.15,M,10.00,M,CLR,M,M,M,M,M,M,M,M,M,M,M,M,M,M,84.53,KBAM 162235Z AUTO 25003KT 10SM CLR 31/07 A3015 RMK AO1,M
HTH,2023-08-16 22:35,-118.6315,38.5448,1282.89,95.00,37.40,13.46,300.00,12.00,0.00,30.08,M,10.00,M,CLR,M,M,M,M,M,M,M,M,M,M,M,M,M,M,90.46,KHTH 162235Z AUTO 30012KT 10SM CLR 35/03 A3008 RMK A01,M
10U,2023-08-16 22:35,-116.1876,41.9532,1637.00,93.20,37.40,14.23,40.00,12.00,0.00,30.17,M,10.00,M,FEW,M,M,M,12000.00,M,M,M,M,M,M,M,M,M,M,88.83,K10U 162235Z AUTO 04012KT 10SM FEW120 34/03 A3017 RMK AO2,M
TMT,2023-08-16 22:35,-117.1971,39.4643,1749.34,84.00,48.00,28.60,10.00,9.00,0.00,30.24,M,M,16.00,BKN,M,M,M,10000.00,M,M,M,M,M,M,M,M,M,M,81.87,KTMT 162235Z AUTO 01009G16KT BKN100 29/09 A3024 RMK AO2 LTG DSNT S T02890089 PWINO,M
05U,2023-08-16 22:50,-116.0051,39.6042,1811.23,89.60,46.40,22.53,M,M,0.00,30.23,M,10.00,M,M,M,M,M,M,M,M,M,M,M,M,M,M,M,M,86.24,K05U 162250Z AUTO 10SM 32/08 A3023 RMK A01,M
P68,2023-08-16 22:53,-116.0056,39.6014,1993.00,88.00,47.00,24.24,360.00,9.00,0.00,30.20,1013.40,M,15.00,M,M,M,M,M,M,M,M,M,M,M,M,M,M,M,84.91,KP68 162253Z AUTO 36009G15KT 31/08 A3020 RMK AO1 SLP134 T03110083,M
DRA,2023-08-16 22:53,-116.0278,36.6206,1009.00,96.00,47.00,18.89,M,5.00,0.00,29.99,1009.60,10.00,M,CLR,M,M,M,M,M,M,M,M,M,M,M,M,M,M,92.36,KDRA 162253Z AUTO VRB05KT 10SM CLR 36/08 A2999 RMK AO2 SLP096 T03560083,M
ELY,2023-08-16 22:53,-114.8453,39.2950,1909.00,85.00,51.00,30.97,350.00,6.00,0.00,30.22,1012.30,10.00,M,CLR,M,M,M,M,M,M,M,M,M,M,M,M,M,M,82.97,KELY 162253Z AUTO 35006KT 10SM CLR 29/11 A3022 RMK AO2 SLP123 T02940106 $,M
VGT,2023-08-16 22:53,-115.1933,36.2111,667.00,102.00,55.00,21.17,0.00,0.00,0.00,29.90,1010.80,10.00,M,CLR,M,M,M,M,M,M,M,M,M,M,M,M,M,M,100.66,KVGT 162253Z 00000KT 10SM CLR 39/13 A2990 RMK AO2 SLP108 T03890128,M
LOL,2023-08-16 22:53,-118.5701,40.0684,1192.43,90.00,48.00,23.63,40.00,13.00,0.00,30.10,1014.80,10.00,M,CLR,M,M,M,M,M,M,M,M,M,M,M,M,M,M,86.78,KLOL 162253Z AUTO 04013KT 10SM CLR 32/09 A3010 RMK AO2 SLP148 T03220089,M
BVU,2023-08-16 22:55,-114.8611,35.9475,671.00,98.60,51.80,20.87,100.00,4.00,0.00,29.89,M,10.00,M,CLR,M,M,M,M,M,M,M,M,M,M,M,M,M,M,96.00,KBVU 162255Z AUTO 10004KT 10SM CLR 37/11 A2989 RMK AO2,M
CXP,2023-08-16 22:55,-119.7326,39.1923,1431.00,89.60,41.00,18.33,330.00,7.00,0.00,30.13,M,10.00,M,BKN,M,M,M,11000.00,M,M,M,M,M,M,M,M,M,M,85.82,KCXP 162255Z AUTO 33007KT 10SM BKN110 32/05 A3013 RMK AO2,M
INS,2023-08-16 22:55,-115.6733,36.5872,955.00,94.50,46.00,19.05,0.00,0.00,0.00,29.97,1009.30,10.00,M,SCT,SCT,M,M,16000.00,20000.00,M,M,M,M,M,M,M,M,M,90.75,KINS 162255Z AUTO 00000KT 10SM SCT160 SCT200 35/08 A2997 RMK AO2 SLP093 T03470077 $,M
RNO,2023-08-16 22:55,-119.7711,39.4839,1341.00,95.00,39.00,14.33,240.00,4.00,0.00,30.09,1012.60,10.00,M,SCT,BKN,M,M,13000.00,23000.00,M,M,M,M,M,M,M,M,M,90.55,KRNO 162255Z 24004KT 10SM SCT130 BKN230 35/04 A3009 RMK AO2 SLP126 T03500039,M
LSV,2023-08-16 22:55,-115.0343,36.2362,570.00,107.60,55.00,17.93,220.00,6.00,0.00,29.85,1007.80,10.00,M,CLR,M,M,M,M,M,M,M,M,M,M,M,M,M,M,106.73,KLSV 162255Z AUTO 22006KT 10SM CLR 42/13 A2985 RMK AO2 SLP078 T04200127 $,M
RTS,2023-08-16 22:55,-119.8764,39.6682,1539.00,91.40,37.40,15.05,80.00,7.00,0.00,30.17,M,10.00,16.00,FEW,M,M,M,11000.00,M,M,M,M,M,M,M,M,M,M,87.23,KRTS 162255Z AUTO 08007G16KT 040V130 10SM FEW110 33/03 A3017 RMK AO2,M
MEV,2023-08-16 22:55,-119.7500,38.9963,1441.42,84.20,46.40,26.76,250.00,13.00,0.00,30.14,M,10.00,M,BKN,M,M,M,12000.00,M,M,M,M,M,M,M,M,M,M,81.87,KMEV 162255Z AUTO 25013KT 10SM BKN120 29/08 A3014 RMK AO2,M
HTH,2023-08-16 22:55,-118.6315,38.5448,1282.89,95.00,37.40,13.46,340.00,11.00,0.00,30.07,M,10.00,M,CLR,M,M,M,M,M,M,M,M,M,M,M,M,M,M,90.46,KHTH 162255Z AUTO 34011KT 10SM CLR 35/03 A3007 RMK A01,M
BAM,2023-08-16 22:55,-116.8743,40.5990,1382.36,87.80,44.60,22.27,250.00,4.00,0.00,30.14,M,10.00,M,CLR,M,M,M,M,M,M,M,M,M,M,M,M,M,M,84.53,KBAM 162255Z AUTO 25004KT 10SM CLR 31/07 A3014 RMK AO1,M
TMT,2023-08-16 22:55,-117.1971,39.4643,1749.34,84.70,46.60,26.53,360.00,3.00,0.00,30.24,M,M,10.00,SCT,M,M,M,10000.00,M,M,M,M,M,M,M,M,M,M,82.25,KTMT 162255Z AUTO 36003G10KT SCT100 29/08 A3024 RMK AO2 LTG DSNT SW T02930081 PWINO,M
10U,2023-08-16 22:55,-116.1876,41.9532,1637.00,93.20,37.40,14.23,40.00,7.00,0.00,30.17,M,10.00,M,FEW,M,M,M,12000.00,M,M,M,M,M,M,M,M,M,M,88.83,K10U 162255Z AUTO 04007KT 10SM FEW120 34/03 A3017 RMK AO2,M
EKO,2023-08-16 22:56,-115.7860,40.8242,1367.00,88.00,47.00,24.24,260.00,6.00,0.00,30.14,1014.00,10.00,M,OVC,M,M,M,12000.00,M,M,M,M,M,M,M,M,M,M,84.91,KEKO 162256Z AUTO 26006KT 10SM OVC120 31/08 A3014 RMK AO2 SLP140 T03110083,M
WMC,2023-08-16 22:56,-117.8072,40.9019,1315.00,89.00,44.00,20.96,270.00,10.00,0.00,30.14,1014.70,10.00,M,CLR,M,M,M,M,M,M,M,M,M,M,M,M,M,M,85.50,KWMC 162256Z AUTO 27010KT 10SM CLR 32/07 A3014 RMK AO2 SLP147 T03170067,M
HND,2023-08-16 22:56,-115.1344,35.9729,742.79,100.00,55.00,22.49,M,4.00,0.00,29.95,1012.30,10.00,M,CLR,M,M,M,M,M,M,M,M,M,M,M,M,M,M,98.48,KHND 162256Z VRB04KT 10SM CLR 38/13 A2995 RMK AO2 SLP123 T03780128,M
TPH,2023-08-16 22:56,-117.0904,38.0505,1654.00,85.00,48.00,27.70,40.00,17.00,0.00,30.18,1013.70,10.00,33.00,OVC,M,M,M,10000.00,M,M,M,M,M,M,M,33.00,60.00,2023-08-16 22:48,82.61,KTPH 162256Z AUTO 04017G33KT 10SM OVC100 29/09 A3018 RMK AO2 PK WND 06033/2248 LTG DSNT N SLP137 T02940089,M
LAS,2023-08-16 22:56,-115.1634,36.0719,663.00,102.00,54.00,20.42,270.00,20.00,0.00,29.91,1009.50,10.00,29.00,FEW,SCT,BKN,M,12000.00,16000.00,20000.00,M,M,M,M,M,29.00,270.00,2023-08-16 22:56,100.30,KLAS 162256Z 27020G29KT 10SM FEW120 SCT160 BKN200 39/12 A2991 RMK AO2 PK WND 27029/2256 SLP095 CB DSNT SW-NW T03890122,M
NFL,2023-08-16 22:56,-118.7010,39.4166,1199.00,97.00,45.00,16.98,40.00,9.00,0.00,30.06,1014.90,10.00,M,SCT,BKN,BKN,BKN,7000.00,12000.00,18000.00,25000.00,M,M,M,M,M,M,M,93.04,KNFL 162256Z 04009KT 10SM SCT070 BKN120 BKN180 BKN250 36/07 A3006 RMK AO2 SLP149 CB DSNT SE T03610072,M
RNO,2023-08-16 23:13,-119.7711,39.4839,1341.00,97.00,42.00,15.14,40.00,18.00,0.00,30.09,M,10.00,23.00,SCT,BKN,M,M,12000.00,23000.00,M,M,M,M,M,M,M,M,M,92.68,KRNO 162313Z 04018G23KT 10SM SCT120 BKN230 36/06 A3009 RMK AO2 WSHFT 2258 T03610056,M
BVU,2023-08-16 23:15,-114.8611,35.9475,671.00,100.40,51.80,19.76,M,5.00,0.00,29.88,M,10.00,M,CLR,M,M,M,M,M,M,M,M,M,M,M,M,M,M,97.90,KBVU 162315Z AUTO VRB05KT 10SM CLR 38/11 A2988 RMK AO2 LTG DSNT NE,M
CXP,2023-08-16 23:15,-119.7326,39.1923,1431.00,87.80,42.80,20.79,280.00,7.00,0.00,30.14,M,10.00,M,OVC,M,M,M,11000.00,M,M,M,M,M,M,M,M,M,M,84.40,KCXP 162315Z AUTO 28007KT 250V310 10SM OVC110 31/06 A3014 RMK AO2,M
RTS,2023-08-16 23:15,-119.8764,39.6682,1539.00,91.40,37.40,15.05,40.00,14.00,0.00,30.17,M,10.00,M,SCT,M,M,M,11000.00,M,M,M,M,M,M,M,M,M,M,87.23,KRTS 162315Z AUTO 04014KT 10SM SCT110 33/03 A3017 RMK AO2,M
05U,2023-08-16 23:15,-116.0051,39.6042,1811.23,89.60,46.40,22.53,M,M,0.00,30.22,M,10.00,M,M,M,M,M,M,M,M,M,M,M,M,M,M,M,M,86.24,K05U 162315Z AUTO 10SM 32/08 A3022 RMK A01,M
MEV,2023-08-16 23:15,-119.7500,38.9963,1441.42,89.60,46.40,22.53,250.00,16.00,0.00,30.14,M,10.00,M,FEW,M,M,M,12000.00,M,M,M,M,M,M,M,M,M,M,86.24,KMEV 162315Z AUTO 25016KT 10SM FEW120 32/08 A3014 RMK AO2,M
BAM,2023-08-16 23:15,-116.8743,40.5990,1382.36,87.80,44.60,22.27,310.00,3.00,0.00,30.14,M,10.00,M,CLR,M,M,M,M,M,M,M,M,M,M,M,M,M,M,84.53,KBAM 162315Z AUTO 31003KT 10SM CLR 31/07 A3014 RMK AO1,M
HTH,2023-08-16 23:15,-118.6315,38.5448,1282.89,95.00,39.20,14.44,330.00,9.00,0.00,30.07,M,10.00,M,CLR,M,M,M,M,M,M,M,M,M,M,M,M,M,M,90.57,KHTH 162315Z AUTO 33009KT 10SM CLR 35/04 A3007 RMK A01,M
10U,2023-08-16 23:15,-116.1876,41.9532,1637.00,93.20,37.40,14.23,50.00,7.00,0.00,30.17,M,10.00,M,CLR,M,M,M,M,M,M,M,M,M,M,M,M,M,M,88.83,K10U 162315Z AUTO 05007KT 10SM CLR 34/03 A3017 RMK AO2,M
TMT,2023-08-16 23:15,-117.1971,39.4643,1749.34,84.40,46.80,26.99,20.00,11.00,0.00,30.22,M,M,16.00,SCT,M,M,M,10000.00,M,M,M,M,M,M,M,M,M,M,82.05,KTMT 162315Z AUTO 02011G16KT SCT100 29/08 A3022 RMK AO2 T02910082 PWINO,M
HND,2023-08-16 23:18,-115.1344,35.9729,742.79,100.40,55.40,22.54,300.00,19.00,0.00,29.94,M,10.00,M,CLR,M,M,M,M,M,M,M,M,M,M,M,M,M,M,99.06,KHND 162318Z 30019KT 10SM CLR 38/13 A2994 RMK AO2 WSHFT 2258,M
05U,2023-08-16 23:30,-116.0051,39.6042,1811.23,89.60,46.40,22.53,M,M,0.00,30.22,M,10.00,M,M,M,M,M,M,M,M,M,M,M,M,M,M,M,M,86.24,K05U 162330Z AUTO 10SM 32/08 A3022 RMK A01,M
BVU,2023-08-16 23:35,-114.8611,35.9475,671.00,100.40,51.80,19.76,M,3.00,0.00,29.88,M,10.00,M,CLR,M,M,M,M,M,M,M,M,M,M,M,M,M,M,97.90,KBVU 162335Z AUTO VRB03KT 10SM CLR 38/11 A2988 RMK AO2,M
CXP,2023-08-16 23:35,-119.7326,39.1923,1431.00,87.80,44.60,22.27,M,4.00,0.00,30.14,M,10.00,10.00,BKN,M,M,M,11000.00,M,M,M,M,M,M,M,M,M,M,84.53,KCXP 162335Z AUTO VRB04G10KT 10SM BKN110 31/07 A3014 RMK AO2,M
RTS,2023-08-16 23:35,-119.8764,39.6682,1539.00,89.60,37.40,15.92,60.00,8.00,0.00,30.16,M,10.00,15.00,FEW,M,M,M,11000.00,M,M,M,M,M,M,M,M,M,M,85.67,KRTS 162335Z AUTO 06008G15KT 040V120 10SM FEW110 32/03 A3016 RMK AO2,M
MEV,2023-08-16 23:35,-119.7500,38.9963,1441.42,86.00,44.60,23.59,260.00,11.00,0.00,30.14,M,10.00,M,FEW,M,M,M,12000.00,M,M,M,M,M,M,M,M,M,M,83.07,KMEV 162335Z AUTO 26011KT 10SM FEW120 30/07 A3014 RMK AO2,M
HTH,2023-08-16 23:35,-118.6315,38.5448,1282.89,95.00,39.20,14.44,330.00,12.00,0.00,30.06,M,10.00,M,CLR,M,M,M,M,M,M,M,M,M,M,M,M,M,M,90.57,KHTH 162335Z AUTO 33012KT 10SM CLR 35/04 A3006 RMK A01,M
10U,2023-08-16 23:35,-116.1876,41.9532,1637.00,91.40,39.20,16.15,40.00,6.00,0.00,30.16,M,10.00,11.00,CLR,M,M,M,M,M,M,M,M,M,M,M,M,M,M,87.30,K10U 162335Z AUTO 04006G11KT 10SM CLR 33/04 A3016 RMK AO2,M
BAM,2023-08-16 23:35,-116.8743,40.5990,1382.36,87.80,44.60,22.27,330.00,4.00,0.00,30.13,M,10.00,M,CLR,M,M,M,M,M,M,M,M,M,M,M,M,M,M,84.53,KBAM 162335Z AUTO 33004KT 10SM CLR 31/07 A3013 RMK AO1,M
TMT,2023-08-16 23:35,-117.1971,39.4643,1749.34,85.00,47.00,26.67,20.00,8.00,0.00,30.22,M,M,14.00,SCT,M,M,M,10000.00,M,M,M,M,M,M,M,M,M,M,82.51,KTMT 162335Z AUTO 02008G14KT SCT100 29/08 A3022 RMK AO2 T02940083 PWINO,M
LAS,2023-08-16 23:37,-115.1634,36.0719,663.00,100.00,53.00,20.90,270.00,15.00,0.00,29.90,M,10.00,M,FEW,FEW,BKN,M,12000.00,16000.00,20000.00,M,M,M,M,M,28.00,260.00,2023-08-16 22:59,97.82,KLAS 162337Z 27015KT 10SM FEW120 FEW160 BKN200 38/12 A2990 RMK AO2 PK WND 26028/2259 CB DSNT SW-NW T03780117,M
05U,2023-08-16 23:50,-116.0051,39.6042,1811.23,89.60,46.40,22.53,M,M,0.00,30.21,M,10.00,M,M,M,M,M,M,M,M,M,M,M,M,M,M,M,M,86.24,K05U 162350Z AUTO 10SM 32/08 A3021 RMK A01,M
P68,2023-08-16 23:53,-116.0056,39.6014,1993.00,87.00,46.00,24.10,M,M,0.00,30.18,1012.80,M,M,M,M,M,M,M,M,M,M,M,M,M,M,M,M,M,83.98,KP68 162353Z AUTO 31/08 A3018 RMK AO1 SLP128 T03060078 10317 20239 56020,M
ELY,2023-08-16 23:53,-114.8453,39.2950,1909.00,85.00,49.00,28.75,290.00,5.00,0.00,30.22,1012.00,10.00,M,SCT,M,M,M,9500.00,M,M,M,TS,M,M,M,M,M,M,82.71,KELY 162353Z AUTO 29005KT 10SM TS SCT095 29/09 A3022 RMK AO2 LTG DSNT NE AND E TSB48 SLP120 T02940094 10306 20261 56016,M
VGT,2023-08-16 23:53,-115.1933,36.2111,667.00,102.00,54.00,20.42,260.00,10.00,0.00,29.88,1010.10,10.00,M,CLR,M,M,M,M,M,M,M,M,M,M,M,M,M,M,100.30,KVGT 162353Z 26010KT 10SM CLR 39/12 A2988 RMK AO2 SLP101 T03890122 10400 20350 56022,M
LOL,2023-08-16 23:53,-118.5701,40.0684,1192.43,89.00,50.00,26.28,30.00,12.00,0.00,30.08,1014.30,10.00,M,CLR,M,M,M,M,M,M,M,M,M,M,M,M,M,M,86.16,KLOL 162353Z AUTO 03012KT 10SM CLR 32/10 A3008 RMK AO2 SLP143 T03170100 10322 20272 56022,M
BVU,2023-08-16 23:55,-114.8611,35.9475,671.00,100.40,48.20,17.28,0.00,0.00,0.00,29.87,M,10.00,M,CLR,M,M,M,M,M,M,M,M,M,M,M,M,M,M,97.00,KBVU 162355Z AUTO 00000KT 10SM CLR 38/09 A2987 RMK AO2,M
CXP,2023-08-16 23:55,-119.7326,39.1923,1431.00,86.00,44.60,23.59,M,5.00,0.00,30.14,M,10.00,M,FEW,M,M,M,11000.00,M,M,M,M,M,M,M,M,M,M,83.07,KCXP 162355Z AUTO VRB05KT 10SM FEW110 30/07 A3014 RMK AO2,M
INS,2023-08-16 23:55,-115.6733,36.5872,955.00,94.50,46.00,19.05,170.00,4.00,0.00,29.96,1009.10,10.00,M,BKN,OVC,M,M,15000.00,21000.00,M,M,M,M,M,M,M,M,M,90.75,KINS 162355Z AUTO 17004KT 10SM BKN150 OVC210 35/08 A2996 RMK AO2 SLP091 T03470077 10356 20329 57016 $,M
RNO,2023-08-16 23:55,-119.7711,39.4839,1341.00,91.00,44.00,19.68,50.00,8.00,T,30.08,1012.50,10.00,M,BKN,BKN,M,M,13000.00,23000.00,M,M,-RA,M,M,M,M,M,M,87.26,KRNO 162355Z 05008KT 10SM -RA BKN130 BKN230 33/07 A3008 RMK AO2 WSHFT 2258 RAB47 SLP125 P0000 60000 T03280067 10367 20294 56018,M
LSV,2023-08-16 23:55,-115.0343,36.2362,570.00,104.40,53.80,18.87,260.00,7.00,0.00,29.82,1006.80,10.00,M,CLR,M,M,M,M,M,M,M,M,M,M,M,M,M,M,102.82,KLSV 162355Z AUTO 26007KT 10SM CLR 40/12 A2982 RMK AO2 SLP068 T04020121 10424 20358 57024 $,M
RTS,2023-08-16 23:55,-119.8764,39.6682,1539.00,87.80,37.40,16.86,40.00,9.00,0.00,30.16,M,10.00,M,CLR,M,M,M,M,M,M,M,M,M,M,M,M,M,M,84.16,KRTS 162355Z AUTO 04009KT 10SM CLR 31/03 A3016 RMK AO2,M
MEV,2023-08-16 23:55,-119.7500,38.9963,1441.42,84.20,44.60,24.99,270.00,9.00,0.00,30.14,M,10.00,M,FEW,M,M,M,12000.00,M,M,M,M,M,M,M,M,M,M,81.73,KMEV 162355Z AUTO 27009KT 10SM FEW120 29/07 A3014 RMK AO2 LTG DSNT N AND S,M
HTH,2023-08-16 23:55,-118.6315,38.5448,1282.89,95.00,39.20,14.44,330.00,11.00,0.00,30.05,M,10.00,M,CLR,M,M,M,M,M,M,M,M,M,M,M,M,M,M,90.57,KHTH 162355Z AUTO 33011KT 10SM CLR 35/04 A3005 RMK A01,M
BAM,2023-08-16 23:55,-116.8743,40.5990,1382.36,87.80,44.60,22.27,330.00,4.00,0.00,30.12,M,10.00,M,CLR,M,M,M,M,M,M,M,M,M,M,M,M,M,M,84.53,KBAM 162355Z AUTO 33004KT 10SM CLR 31/07 A3012 RMK AO1,M
TMT,2023-08-16 23:55,-117.1971,39.4643,1749.34,83.30,46.00,27.13,30.00,7.00,0.00,30.22,M,M,M,CLR,M,M,M,M,M,M,M,M,M,M,M,M,M,M,81.20,KTMT 162355Z AUTO 03007KT CLR 29/08 A3022 RMK AO2 T02850077 10295 20233 PWINO,M
10U,2023-08-16 23:55,-116.1876,41.9532,1637.00,93.20,37.40,14.23,M,4.00,0.00,30.15,M,10.00,11.00,CLR,M,M,M,M,M,M,M,M,M,M,M,M,M,M,88.83,K10U 162355Z AUTO VRB04G11KT 10SM CLR 34/03 A3015 RMK AO2,M
EKO,2023-08-16 23:56,-115.7860,40.8242,1367.00,90.00,44.00,20.31,290.00,7.00,0.00,30.13,1013.50,10.00,M,SCT,M,M,M,12000.00,M,M,M,M,M,M,M,M,M,M,86.37,KEKO 162356Z AUTO 29007KT 10SM SCT120 32/07 A3013 RMK AO2 SLP135 T03220067 10328 20267 56018,M
WMC,2023-08-16 23:56,-117.8072,40.9019,1315.00,90.00,44.00,20.31,270.00,11.00,0.00,30.12,1013.80,10.00,M,CLR,M,M,M,M,M,M,M,M,M,M,M,M,M,M,86.37,KWMC 162356Z AUTO 27011KT 10SM CLR 32/07 A3012 RMK AO2 SLP138 T03220067 10328 20306 58016,M
NFL,2023-08-16 23:56,-118.7010,39.4166,1199.00,94.00,45.00,18.62,20.00,12.00,0.00,30.05,1014.40,10.00,M,SCT,BKN,BKN,BKN,7000.00,12000.00,18000.00,25000.00,M,M,M,M,M,M,M,90.15,KNFL 162356Z 02012KT 10SM SCT070 BKN120 BKN180 BKN250 34/07 A3005 RMK AO2 SLP144 CB DSNT SE T03440072 10361 20300 56020,M
HND,2023-08-16 23:56,-115.1344,35.9729,742.79,98.00,54.00,23.04,290.00,14.00,0.00,29.93,1011.70,10.00,M,CLR,M,M,M,M,M,M,M,M,M,M,M,M,M,M,95.99,KHND 162356Z 29014KT 10SM CLR 37/12 A2993 RMK AO2 WSHFT 2258 SLP117 T03670122 10394 20339 56018,M
TPH,2023-08-16 23:56,-117.0904,38.0505,1654.00,82.00,50.00,32.88,10.00,15.00,0.00,30.17,1014.00,10.00,23.00,SCT,M,M,M,11000.00,M,M,M,M,M,M,M,29.00,30.00,2023-08-16 23:04,80.73,KTPH 162356Z AUTO 01015G23KT 10SM SCT110 28/10 A3017 RMK AO2 PK WND 03029/2304 SLP140 T02780100 10333 20278 56006,M
LAS,2023-08-16 23:56,-115.1634,36.0719,663.00,100.00,52.00,20.15,260.00,12.00,0.00,29.89,1009.00,10.00,M,FEW,FEW,BKN,M,12000.00,16000.00,20000.00,M,M,M,M,M,28.00,260.00,2023-08-16 22:59,97.53,KLAS 162356Z 26012KT 10SM FEW120 FEW160 BKN200 38/11 A2989 RMK AO2 PK WND 26028/2259 SLP090 T03780111 10389 20344 56020,M
