station,valid,lon,lat,elevation,tmpf,dwpf,relh,drct,sknt,p01i,alti,mslp,vsby,gust,skyc1,skyc2,skyc3,skyc4,skyl1,skyl2,skyl3,skyl4,wxcodes,ice_accretion_1hr,ice_accretion_3hr,ice_accretion_6hr,peak_wind_gust,peak_wind_drct,peak_wind_time,feel,metar,snowdepth
05U,2024-09-01 00:10,-116.0051,39.6042,1811.23,84.20,28.40,13.18,230.00,5.00,0.00,30.25,M,10.00,10.00,CLR,M,M,M,M,M,M,M,M,M,M,M,M,M,M,81.25,K05U 010010Z AUTO 23005G10KT 10SM CLR 29/M02 A3025 RMK A01,M
BVU,2024-09-01 00:15,-114.8611,35.9475,671.00,89.60,51.80,27.56,170.00,21.00,0.00,29.94,M,9.00,29.00,FEW,FEW,SCT,M,4900.00,5500.00,7500.00,M,TS,M,M,M,M,M,M,87.00,KBVU 010015Z AUTO 17021G29KT 9SM TS FEW049 FEW055 SCT075 32/11 A2994 RMK AO2 LTG DSNT SW-N,M
HND,2024-09-01 00:15,-115.1344,35.9729,742.79,96.80,48.20,19.28,130.00,15.00,0.00,30.01,M,10.00,27.00,FEW,M,M,M,12000.00,M,M,M,TS,M,M,M,27.00,130.00,2024-09-01 00:08,93.36,KHND 010015Z 13015G27KT 10SM TS FEW120 36/09 A3001 RMK AO2 PK WND 13027/0008 LTG DSNT E AND SE TSB09,M
CXP,2024-09-01 00:15,-119.7326,39.1923,1431.00,91.40,30.20,11.28,250.00,8.00,0.00,30.13,M,10.00,18.00,CLR,M,M,M,M,M,M,M,M,M,M,M,M,M,M,86.71,KCXP 010015Z AUTO 25008G18KT 10SM CLR 33/M01 A3013 RMK AO2,M
RTS,2024-09-01 00:15,-119.8764,39.6682,1539.00,89.60,24.80,9.56,260.00,9.00,0.00,30.15,M,10.00,M,CLR,M,M,M,M,M,M,M,M,M,M,M,M,M,M,84.88,KRTS 010015Z AUTO 26009KT 10SM CLR 32/M04 A3015 RMK AO2,M
MEV,2024-09-01 00:15,-119.7500,38.9963,1441.42,89.60,33.80,13.80,280.00,11.00,0.00,30.13,M,10.00,M,CLR,M,M,M,M,M,M,M,M,M,M,M,M,M,M,85.59,KMEV 010015Z AUTO 28011KT 10SM CLR 32/01 A3013 RMK AO2,M
BAM,2024-09-01 00:15,-116.8743,40.5990,1382.36,95.00,24.80,8.08,300.00,3.00,0.00,30.12,M,10.00,M,CLR,M,M,M,M,M,M,M,M,M,M,M,M,M,M,88.91,KBAM 010015Z AUTO 30003KT 10SM CLR 35/M04 A3012 RMK AO1,M
HTH,2024-09-01 00:15,-118.6315,38.5448,1282.89,93.20,23.00,7.92,220.00,5.00,0.00,30.05,M,10.00,M,CLR,M,M,M,M,M,M,M,M,M,M,M,M,M,M,87.42,KHTH 010015Z AUTO 22005KT 10SM CLR 34/M05 A3005 RMK A01,M
TMT,2024-09-01 00:15,-117.1971,39.4643,1749.34,81.50,36.30,19.76,230.00,9.00,0.00,30.24,M,10.00,M,CLR,M,M,M,M,M,M,M,M,M,M,M,M,M,M,79.52,KTMT 010015Z AUTO 23009KT 10SM CLR 28/02 A3024 RMK AO2 T02750024,M
10U,2024-09-01 00:15,-116.1876,41.9532,1637.00,89.60,3.20,3.71,280.00,4.00,0.00,30.18,M,10.00,M,CLR,M,M,M,M,M,M,M,M,M,M,M,M,M,M,83.99,K10U 010015Z AUTO 28004KT 10SM CLR 32/M16 A3018 RMK AO2,M
LAS,2024-09-01 00:18,-115.1634,36.0719,663.00,102.00,34.00,9.51,210.00,10.00,0.00,29.94,M,10.00,18.00,SCT,BKN,M,M,6000.00,8000.00,M,M,TS,M,M,M,M,M,M,95.87,KLAS 010018Z 21010G18KT 10SM TS SCT060CB BKN080 39/01 A2994 RMK AO2 LTG DSNT E AND SE TSB12 TS SE MOV N T03890011 $,M
CXP,2024-09-01 00:30,-119.7326,39.1923,1431.00,89.60,32.00,12.84,260.00,10.00,0.00,30.13,M,10.00,M,CLR,M,M,M,M,M,M,M,M,M,M,M,M,M,M,85.54,KCXP 010030Z AUTO 26010KT 10SM CLR 32/00 A3013 RMK AO2,M
05U,2024-09-01 00:30,-116.0051,39.6042,1811.23,82.40,26.60,12.97,0.00,0.00,0.00,30.25,M,10.00,M,CLR,M,M,M,M,M,M,M,M,M,M,M,M,M,M,79.92,K05U 010030Z AUTO 00000KT 10SM CLR 28/M03 A3025 RMK A01,M
VGT,2024-09-01 00:33,-115.1933,36.2111,667.00,102.00,42.00,13.01,240.00,6.00,0.00,29.92,M,10.00,M,CLR,M,M,M,M,M,M,M,M,M,M,M,M,M,M,97.45,KVGT 010033Z 24006KT 10SM CLR 39/06 A2992 RMK AO2 WSHFT 0013 LTG DSNT SE T03890056,M
LAS,2024-09-01 00:34,-115.1634,36.0719,663.00,102.00,34.00,9.51,150.00,16.00,0.00,29.95,M,10.00,33.00,SCT,BKN,M,M,6000.00,8000.00,M,M,TS,M,M,M,33.00,150.00,2024-09-01 00:31,95.87,KLAS 010034Z 15016G33KT 10SM TS SCT060CB BKN080 39/01 A2995 RMK AO2 PK WND 15033/0031 WSHFT 0014 TSB12 TS SE-OHD MOV N T03890011 $,M
BVU,2024-09-01 00:35,-114.8611,35.9475,671.00,91.40,48.20,22.78,220.00,13.00,0.00,29.96,M,10.00,20.00,FEW,M,M,M,11000.00,M,M,M,M,M,M,M,M,M,M,88.09,KBVU 010035Z AUTO 22013G20KT 10SM FEW110 33/09 A2996 RMK AO2 LTG DSNT SE AND W,M
RTS,2024-09-01 00:35,-119.8764,39.6682,1539.00,89.60,30.20,11.94,270.00,13.00,0.00,30.15,M,10.00,M,CLR,M,M,M,M,M,M,M,M,M,M,M,M,M,M,85.34,KRTS 010035Z AUTO 27013KT 10SM CLR 32/M01 A3015 RMK AO2,M
MEV,2024-09-01 00:35,-119.7500,38.9963,1441.42,87.80,33.80,14.61,280.00,9.00,0.00,30.13,M,10.00,M,CLR,M,M,M,M,M,M,M,M,M,M,M,M,M,M,84.10,KMEV 010035Z AUTO 28009KT 10SM CLR 31/01 A3013 RMK AO2,M
BAM,2024-09-01 00:35,-116.8743,40.5990,1382.36,95.00,26.60,8.71,320.00,4.00,0.00,30.11,M,10.00,M,CLR,M,M,M,M,M,M,M,M,M,M,M,M,M,M,89.08,KBAM 010035Z AUTO 32004KT 10SM CLR 35/M03 A3011 RMK AO1,M
HTH,2024-09-01 00:35,-118.6315,38.5448,1282.89,93.20,23.00,7.92,M,5.00,0.00,30.05,M,10.00,M,CLR,M,M,M,M,M,M,M,M,M,M,M,M,M,M,87.42,KHTH 010035Z AUTO VRB05KT 10SM CLR 34/M05 A3005 RMK A01,M
TMT,2024-09-01 00:35,-117.1971,39.4643,1749.34,81.50,36.00,19.53,210.00,11.00,0.00,30.24,M,10.00,M,CLR,M,M,M,M,M,M,M,M,M,M,M,M,M,M,79.51,KTMT 010035Z AUTO 21011KT 10SM CLR 28/02 A3024 RMK AO2 T02750023,M
10U,2024-09-01 00:35,-116.1876,41.9532,1637.00,89.60,1.40,3.41,290.00,6.00,0.00,30.18,M,10.00,M,CLR,M,M,M,M,M,M,M,M,M,M,M,M,M,M,83.96,K10U 010035Z AUTO 29006KT 10SM CLR 32/M17 A3018 RMK AO2,M
HND,2024-09-01 00:42,-115.1344,35.9729,742.79,87.80,53.60,31.17,100.00,13.00,0.03,29.99,M,7.00,27.00,SCT,BKN,BKN,M,4800.00,7500.00,10000.00,M,-RA,M,M,M,27.00,110.00,2024-09-01 00:33,85.72,KHND 010042Z 10013G27KT 7SM -RA SCT048 BKN075 BKN100 31/12 A2999 RMK AO2 PK WND 11027/0033 TSB09E36RAB24 P0003,M
05U,2024-09-01 00:50,-116.0051,39.6042,1811.23,82.40,26.60,12.97,0.00,0.00,0.00,30.25,M,10.00,11.00,CLR,M,M,M,M,M,M,M,M,M,M,M,M,M,M,79.92,K05U 010050Z AUTO 00000G11KT 10SM CLR 28/M03 A3025 RMK A01,M
P68,2024-09-01 00:53,-116.0056,39.6014,1993.00,83.00,26.00,12.41,M,M,0.00,30.22,1015.90,M,M,M,M,M,M,M,M,M,M,M,M,M,M,M,M,M,80.27,KP68 010053Z AUTO 28/M03 A3022 RMK AO1 SLP159 T02831033,M
DRA,2024-09-01 00:53,-116.0278,36.6206,1009.00,97.00,38.00,12.96,120.00,10.00,0.00,30.00,1010.50,10.00,M,CLR,M,M,M,M,M,M,M,M,M,M,M,M,M,M,92.32,KDRA 010053Z AUTO 12010KT 10SM CLR 36/03 A3000 RMK AO2 SLP105 T03610033,M
ELY,2024-09-01 00:53,-114.8453,39.2950,1909.00,81.00,32.00,16.92,250.00,12.00,0.00,30.25,1016.00,10.00,M,CLR,M,M,M,M,M,M,M,M,M,M,M,M,M,M,79.07,KELY 010053Z AUTO 25012KT 10SM CLR 27/00 A3025 RMK AO2 SLP160 T02720000,M
VGT,2024-09-01 00:53,-115.1933,36.2111,667.00,99.00,45.00,15.98,170.00,21.00,0.00,29.92,1011.80,10.00,27.00,CLR,M,M,M,M,M,M,M,M,M,M,M,28.00,160.00,2024-09-01 00:40,95.00,KVGT 010053Z 17021G27KT 10SM CLR 37/07 A2992 RMK AO2 PK WND 16028/0040 WSHFT 0036 LTG DSNT NE SLP118 T03720072,M
LOL,2024-09-01 00:53,-118.5701,40.0684,1192.43,94.00,28.00,9.51,0.00,0.00,0.00,30.04,1014.10,10.00,M,CLR,M,M,M,M,M,M,M,M,M,M,M,M,M,M,88.46,KLOL 010053Z AUTO 00000KT 10SM CLR 34/M02 A3004 RMK AO2 SLP141 T03441022,M
BVU,2024-09-01 00:55,-114.8611,35.9475,671.00,95.00,42.80,16.60,260.00,7.00,0.00,29.96,M,10.00,14.00,CLR,M,M,M,M,M,M,M,M,M,M,M,M,M,M,90.86,KBVU 010055Z AUTO 26007G14KT 10SM CLR 35/06 A2996 RMK AO2,M
RNO,2024-09-01 00:55,-119.7711,39.4839,1341.00,88.00,53.00,30.30,250.00,14.00,0.00,30.08,1013.30,10.00,M,FEW,SCT,M,M,10000.00,15000.00,M,M,M,M,M,M,27.00,240.00,2024-09-01 00:32,85.78,KRNO 010055Z 25014KT 10SM FEW100CB SCT150 31/12 A3008 RMK AO2 PK WND 24027/0032 SLP133 VIRGA CB W MOV N T03110117 $,M
CXP,2024-09-01 00:55,-119.7326,39.1923,1431.00,87.80,33.80,14.61,M,5.00,0.00,30.13,M,10.00,11.00,CLR,M,M,M,M,M,M,M,M,M,M,M,M,M,M,84.10,KCXP 010055Z AUTO VRB05G11KT 10SM CLR 31/01 A3013 RMK AO2,M
RTS,2024-09-01 00:55,-119.8764,39.6682,1539.00,87.80,30.20,12.64,270.00,11.00,0.00,30.16,M,10.00,20.00,CLR,M,M,M,M,M,M,M,M,M,M,M,M,M,M,84.01,KRTS 010055Z AUTO 27011G20KT 10SM CLR 31/M01 A3016 RMK AO2,M
MEV,2024-09-01 00:55,-119.7500,38.9963,1441.42,84.20,35.60,17.61,300.00,6.00,0.00,30.13,M,10.00,11.00,CLR,M,M,M,M,M,M,M,M,M,M,M,M,M,M,81.34,KMEV 010055Z AUTO 30006G11KT 10SM CLR 29/02 A3013 RMK AO2,M
BAM,2024-09-01 00:55,-116.8743,40.5990,1382.36,91.40,24.80,9.04,350.00,7.00,0.00,30.11,M,10.00,M,CLR,M,M,M,M,M,M,M,M,M,M,M,M,M,M,86.21,KBAM 010055Z AUTO 35007KT 10SM CLR 33/M04 A3011 RMK AO1,M
HTH,2024-09-01 00:55,-118.6315,38.5448,1282.89,93.20,23.00,7.92,240.00,7.00,0.00,30.05,M,10.00,M,CLR,M,M,M,M,M,M,M,M,M,M,M,M,M,M,87.42,KHTH 010055Z AUTO 24007KT 10SM CLR 34/M05 A3005 RMK A01,M
TMT,2024-09-01 00:55,-117.1971,39.4643,1749.34,81.30,35.60,19.35,210.00,9.00,0.00,30.24,M,10.00,M,CLR,M,M,M,M,M,M,M,M,M,M,M,M,M,M,79.37,KTMT 010055Z AUTO 21009KT 10SM CLR 27/02 A3024 RMK AO2 T02740020,M
10U,2024-09-01 00:55,-116.1876,41.9532,1637.00,87.80,8.60,5.02,360.00,4.00,0.00,30.18,M,10.00,M,CLR,M,M,M,M,M,M,M,M,M,M,M,M,M,M,82.82,K10U 010055Z AUTO 36004KT 10SM CLR 31/M13 A3018 RMK AO2,M
INS,2024-09-01 00:55,-115.6733,36.5872,955.00,96.40,33.30,10.95,70.00,13.00,0.00,29.99,1009.70,10.00,M,SCT,M,M,M,16000.00,M,M,M,M,M,M,M,M,M,M,91.04,KINS 010055Z AUTO 07013KT 10SM SCT160 36/01 A2999 RMK AO2 SLP097 T03580007,M
LSV,2024-09-01 00:55,-115.0343,36.2362,570.00,98.40,41.00,13.96,170.00,15.00,0.00,29.88,1008.70,10.00,M,SCT,M,M,M,14000.00,M,M,M,M,M,M,M,34.00,180.00,2024-09-01 00:21,93.90,KLSV 010055Z AUTO 17015KT 10SM SCT140 37/05 A2988 RMK AO2 PK WND 18034/21 LTG DSNT N SLP087 T03690050 $,M
EKO,2024-09-01 00:56,-115.7860,40.8242,1367.00,92.00,19.00,6.94,300.00,6.00,0.00,30.13,1015.10,10.00,M,CLR,M,M,M,M,M,M,M,M,M,M,M,M,M,M,86.28,KEKO 010056Z AUTO 30006KT 10SM CLR 33/M07 A3013 RMK AO2 SLP151 T03331072,M
HND,2024-09-01 00:56,-115.1344,35.9729,742.79,89.00,52.00,28.30,110.00,11.00,0.03,29.98,1014.00,10.00,20.00,FEW,SCT,BKN,M,3600.00,4800.00,10000.00,M,-RA,M,M,M,27.00,110.00,2024-09-01 00:33,86.49,KHND 010056Z 11011G20KT 10SM -RA FEW036 SCT048 BKN100 32/11 A2998 RMK AO2 PK WND 11027/0033 TSB09E36RAB24 SLP140 P0003 T03170111,M
TPH,2024-09-01 00:56,-117.0904,38.0505,1654.00,86.00,34.00,15.60,190.00,10.00,0.00,30.18,1014.20,10.00,M,CLR,M,M,M,M,M,M,M,M,M,M,M,M,M,M,82.66,KTPH 010056Z AUTO 19010KT 10SM CLR 30/01 A3018 RMK AO2 SLP142 T03000011,M
LAS,2024-09-01 00:56,-115.1634,36.0719,663.00,100.00,34.00,10.10,140.00,9.00,0.00,29.96,1011.30,10.00,21.00,SCT,BKN,M,M,6000.00,8000.00,M,M,M,M,M,M,33.00,150.00,2024-09-01 00:31,94.16,KLAS 010056Z 14009G21KT 10SM SCT060 BKN080 38/01 A2996 RMK AO2 PK WND 15033/0031 WSHFT 0014 LTG DSNT N AND NE TSB12E52 SLP113 TS DSIPTD T03780011 $,M
NFL,2024-09-01 00:57,-118.7010,39.4166,1199.00,95.00,29.00,9.61,310.00,4.00,0.00,30.03,1013.90,10.00,M,CLR,M,M,M,M,M,M,M,M,M,M,M,M,M,M,89.34,KNFL 010057Z AUTO 31004KT 10SM CLR 35/M02 A3003 RMK AO2 SLP139 T03501017,M
05U,2024-09-01 01:10,-116.0051,39.6042,1811.23,82.40,24.80,12.03,0.00,0.00,0.00,30.24,M,10.00,M,CLR,M,M,M,M,M,M,M,M,M,M,M,M,M,M,79.79,K05U 010110Z AUTO 00000KT 10SM CLR 28/M04 A3024 RMK A01,M
CXP,2024-09-01 01:15,-119.7326,39.1923,1431.00,86.00,33.80,15.48,M,5.00,0.00,30.13,M,10.00,M,CLR,M,M,M,M,M,M,M,M,M,M,M,M,M,M,82.66,KCXP 010115Z AUTO VRB05KT 10SM CLR 30/01 A3013 RMK AO2,M
RTS,2024-09-01 01:15,-119.8764,39.6682,1539.00,87.80,28.40,11.74,220.00,14.00,0.00,30.16,M,10.00,M,CLR,M,M,M,M,M,M,M,M,M,M,M,M,M,M,83.84,KRTS 010115Z AUTO 22014KT 10SM CLR 31/M02 A3016 RMK AO2,M
MEV,2024-09-01 01:15,-119.7500,38.9963,1441.42,84.20,33.80,16.39,310.00,8.00,0.00,30.13,M,10.00,M,CLR,M,M,M,M,M,M,M,M,M,M,M,M,M,M,81.30,KMEV 010115Z AUTO 31008KT 10SM CLR 29/01 A3013 RMK AO2,M
BAM,2024-09-01 01:15,-116.8743,40.5990,1382.36,91.40,28.40,10.48,350.00,5.00,0.00,30.11,M,10.00,M,CLR,M,M,M,M,M,M,M,M,M,M,M,M,M,M,86.53,KBAM 010115Z AUTO 35005KT 10SM CLR 33/M02 A3011 RMK AO1,M
HTH,2024-09-01 01:15,-118.6315,38.5448,1282.89,91.40,24.80,9.04,250.00,5.00,0.00,30.05,M,10.00,M,CLR,M,M,M,M,M,M,M,M,M,M,M,M,M,M,86.21,KHTH 010115Z AUTO 25005KT 10SM CLR 33/M04 A3005 RMK A01,M
TMT,2024-09-01 01:15,-117.1971,39.4643,1749.34,80.20,35.80,20.21,220.00,7.00,0.00,30.24,M,10.00,M,CLR,M,M,M,M,M,M,M,M,M,M,M,M,M,M,78.87,KTMT 010115Z AUTO 22007KT 10SM CLR 27/02 A3024 RMK AO2 T02680021,M
10U,2024-09-01 01:15,-116.1876,41.9532,1637.00,86.00,15.80,7.31,80.00,8.00,0.00,30.18,M,10.00,M,CLR,M,M,M,M,M,M,M,M,M,M,M,M,M,M,81.78,K10U 010115Z AUTO 08008KT 10SM CLR 30/M09 A3018 RMK AO2,M
BVU,2024-09-01 01:15,-114.8611,35.9475,671.00,95.00,41.00,15.49,280.00,10.00,0.00,29.95,M,10.00,24.00,CLR,M,M,M,M,M,M,M,M,M,M,M,M,M,M,90.70,KBVU 010115Z AUTO 28010G24KT 10SM CLR 35/05 A2995 RMK AO2,M
05U,2024-09-01 01:30,-116.0051,39.6042,1811.23,82.40,24.80,12.03,0.00,0.00,0.00,30.25,M,10.00,11.00,CLR,M,M,M,M,M,M,M,M,M,M,M,M,M,M,79.79,K05U 010130Z AUTO 00000G11KT 10SM CLR 28/M04 A3025 RMK A01,M
HTH,2024-09-01 01:35,-118.6315,38.5448,1282.89,89.60,28.40,11.09,260.00,17.00,0.00,30.05,M,10.00,M,CLR,M,M,M,M,M,M,M,M,M,M,M,M,M,M,85.17,KHTH 010135Z AUTO 26017KT 10SM CLR 32/M02 A3005 RMK A01,M
TMT,2024-09-01 01:35,-117.1971,39.4643,1749.34,81.70,36.70,19.95,220.00,9.00,0.00,30.24,M,10.00,M,CLR,M,M,M,M,M,M,M,M,M,M,M,M,M,M,79.66,KTMT 010135Z AUTO 22009KT 10SM CLR 28/03 A3024 RMK AO2 T02760026,M
CXP,2024-09-01 01:35,-119.7326,39.1923,1431.00,87.80,33.80,14.61,260.00,6.00,0.00,30.13,M,10.00,M,CLR,M,M,M,M,M,M,M,M,M,M,M,M,M,M,84.10,KCXP 010135Z AUTO 26006KT 10SM CLR 31/01 A3013 RMK AO2,M
RTS,2024-09-01 01:35,-119.8764,39.6682,1539.00,86.00,28.40,12.44,230.00,11.00,0.00,30.16,M,10.00,18.00,CLR,M,M,M,M,M,M,M,M,M,M,M,M,M,M,82.54,KRTS 010135Z AUTO 23011G18KT 10SM CLR 30/M02 A3016 RMK AO2,M
MEV,2024-09-01 01:35,-119.7500,38.9963,1441.42,84.20,35.60,17.61,280.00,6.00,0.00,30.13,M,10.00,M,CLR,M,M,M,M,M,M,M,M,M,M,M,M,M,M,81.34,KMEV 010135Z AUTO 28006KT 10SM CLR 29/02 A3013 RMK AO2,M
BAM,2024-09-01 01:35,-116.8743,40.5990,1382.36,89.60,32.00,12.84,0.00,0.00,0.00,30.11,M,10.00,M,CLR,M,M,M,M,M,M,M,M,M,M,M,M,M,M,85.54,KBAM 010135Z AUTO 00000KT 10SM CLR 32/00 A3011 RMK AO1,M
10U,2024-09-01 01:35,-116.1876,41.9532,1637.00,80.60,21.20,10.97,M,M,0.00,30.18,M,10.00,M,CLR,M,M,M,M,M,M,M,M,M,M,M,M,M,M,78.68,K10U 010135Z AUTO 5.58333306KT 10SM CLR 27/M06 A3018 RMK AO2,M
05U,2024-09-01 01:50,-116.0051,39.6042,1811.23,80.60,26.60,13.75,0.00,0.00,0.00,30.25,M,9.00,M,CLR,M,M,M,M,M,M,M,M,M,M,M,M,M,M,78.68,K05U 010150Z AUTO 00000KT 9SM CLR 27/M03 A3025 RMK A01,M
P68,2024-09-01 01:53,-116.0056,39.6014,1993.00,79.00,28.00,15.35,220.00,8.00,0.00,30.22,1016.40,M,M,M,M,M,M,M,M,M,M,M,M,M,M,M,M,M,79.00,KP68 010153Z AUTO 22008KT 26/M02 A3022 RMK AO1 SLP164 T02611022,M
DRA,2024-09-01 01:53,-116.0278,36.6206,1009.00,95.00,38.00,13.78,110.00,11.00,0.00,30.00,1010.70,10.00,M,CLR,M,M,M,M,M,M,M,M,M,M,M,M,M,M,90.49,KDRA 010153Z AUTO 11011KT 10SM CLR 35/03 A3000 RMK AO2 SLP107 T03500033,M
ELY,2024-09-01 01:53,-114.8453,39.2950,1909.00,76.00,33.00,20.77,210.00,13.00,0.00,30.26,1016.90,10.00,18.00,CLR,M,M,M,M,M,M,M,M,M,M,M,M,M,M,76.00,KELY 010153Z AUTO 21013G18KT 10SM CLR 24/01 A3026 RMK AO2 SLP169 T02440006,M
VGT,2024-09-01 01:53,-115.1933,36.2111,667.00,97.00,44.00,16.35,160.00,8.00,0.00,29.95,1012.90,10.00,M,CLR,M,M,M,M,M,M,M,M,M,M,M,M,M,M,92.91,KVGT 010153Z 16008KT 10SM CLR 36/07 A2995 RMK AO2 SLP129 T03610067,M
LOL,2024-09-01 01:53,-118.5701,40.0684,1192.43,90.00,28.00,10.78,200.00,3.00,0.00,30.04,1014.10,10.00,M,CLR,M,M,M,M,M,M,M,M,M,M,M,M,M,M,85.43,KLOL 010153Z AUTO 20003KT 10SM CLR 32/M02 A3004 RMK AO2 SLP141 T03221022,M
CXP,2024-09-01 01:55,-119.7326,39.1923,1431.00,86.00,32.00,14.40,280.00,8.00,0.00,30.14,M,10.00,13.00,CLR,M,M,M,M,M,M,M,M,M,M,M,M,M,M,82.64,KCXP 010155Z AUTO 28008G13KT 230V300 10SM CLR 30/M00 A3014 RMK AO2,M
RNO,2024-09-01 01:55,-119.7711,39.4839,1341.00,88.00,54.00,31.43,260.00,10.00,0.00,30.09,1013.40,10.00,15.00,FEW,SCT,M,M,10000.00,15000.00,M,M,M,M,M,M,M,M,M,85.98,KRNO 010155Z COR 26010KT 10SM FEW100 SCT150 31/12 A3009 RMK AO2 SLP134 VIRGA T03110122 $,M
RTS,2024-09-01 01:55,-119.8764,39.6682,1539.00,84.20,30.20,14.18,300.00,14.00,0.00,30.16,M,10.00,M,CLR,M,M,M,M,M,M,M,M,M,M,M,M,M,M,81.26,KRTS 010155Z AUTO 30014KT 10SM CLR 29/M01 A3016 RMK AO2,M
MEV,2024-09-01 01:55,-119.7500,38.9963,1441.42,84.20,32.00,15.25,250.00,10.00,0.00,30.12,M,10.00,M,CLR,M,M,M,M,M,M,M,M,M,M,M,M,M,M,81.28,KMEV 010155Z AUTO 25010KT 10SM CLR 29/00 A3012 RMK AO2,M
BAM,2024-09-01 01:55,-116.8743,40.5990,1382.36,87.80,32.00,13.59,0.00,0.00,0.00,30.11,M,10.00,M,CLR,M,M,M,M,M,M,M,M,M,M,M,M,M,M,84.08,KBAM 010155Z AUTO 00000KT 10SM CLR 31/00 A3011 RMK AO1,M
HTH,2024-09-01 01:55,-118.6315,38.5448,1282.89,89.60,28.40,11.09,260.00,8.00,0.00,30.06,M,10.00,15.00,CLR,M,M,M,M,M,M,M,M,M,M,M,M,M,M,85.17,KHTH 010155Z AUTO 26008G15KT 10SM CLR 32/M02 A3006 RMK A01,M
TMT,2024-09-01 01:55,-117.1971,39.4643,1749.34,80.00,35.80,20.35,170.00,7.00,0.00,30.24,M,10.00,M,CLR,M,M,M,M,M,M,M,M,M,M,M,M,M,M,78.66,KTMT 010155Z AUTO 17007KT 10SM CLR 27/02 A3024 RMK AO2 T02660021,M
10U,2024-09-01 01:55,-116.1876,41.9532,1637.00,78.80,19.40,10.78,60.00,7.00,0.00,30.18,M,10.00,M,CLR,M,M,M,M,M,M,M,M,M,M,M,M,M,M,78.80,K10U 010155Z AUTO 06007KT 10SM CLR 26/M07 A3018 RMK AO2,M
INS,2024-09-01 01:55,-115.6733,36.5872,955.00,94.50,34.00,11.94,100.00,9.00,0.00,30.00,1010.00,10.00,M,BKN,M,M,M,14000.00,M,M,M,M,M,M,M,M,M,M,89.60,KINS 010155Z AUTO 10009KT 10SM BKN140 35/01 A3000 RMK AO2 SLP100 T03470011,M
LSV,2024-09-01 01:55,-115.0343,36.2362,570.00,97.00,41.50,14.85,50.00,14.00,0.00,29.90,1009.50,10.00,M,FEW,M,M,M,16000.00,M,M,M,M,M,M,M,M,M,M,92.63,KLSV 010155Z AUTO 05014KT 10SM FEW160 36/05 A2990 RMK AO2 SLP095 T03610053 $,M
EKO,2024-09-01 01:56,-115.7860,40.8242,1367.00,85.00,21.00,9.43,300.00,5.00,0.00,30.13,1015.90,10.00,M,CLR,M,M,M,M,M,M,M,M,M,M,M,M,M,M,81.32,KEKO 010156Z AUTO 30005KT 10SM CLR 29/M06 A3013 RMK AO2 SLP159 T02941061,M
HND,2024-09-01 01:56,-115.1344,35.9729,742.79,93.00,47.00,20.72,120.00,7.00,T,29.99,1014.10,10.00,M,CLR,M,M,M,M,M,M,M,M,M,M,M,M,M,M,89.44,KHND 010156Z 12007KT 10SM CLR 34/08 A2999 RMK AO2 RAE09 SLP141 P0000 T03390083,M
TPH,2024-09-01 01:56,-117.0904,38.0505,1654.00,85.00,33.00,15.47,150.00,9.00,0.00,30.18,1014.20,10.00,M,CLR,M,M,M,M,M,M,M,M,M,M,M,M,M,M,81.88,KTPH 010156Z AUTO 15009KT 10SM CLR 29/01 A3018 RMK AO2 SLP142 T02940006,M
LAS,2024-09-01 01:56,-115.1634,36.0719,663.00,94.00,47.00,20.09,150.00,7.00,0.00,29.96,1011.60,10.00,16.00,FEW,SCT,BKN,M,6000.00,8000.00,20000.00,M,M,M,M,M,M,M,M,90.40,KLAS 010156Z 15007G16KT 110V180 10SM FEW060 SCT080 BKN200 34/08 A2996 RMK AO2 SLP116 T03440083 $,M
NFL,2024-09-01 01:57,-118.7010,39.4166,1199.00,90.00,31.00,12.18,60.00,5.00,0.00,30.04,1014.00,10.00,M,CLR,M,M,M,M,M,M,M,M,M,M,M,M,M,M,85.73,KNFL 010157Z AUTO 06005KT 10SM CLR 32/M01 A3004 RMK AO2 SLP140 T03221006,M
05U,2024-09-01 02:10,-116.0051,39.6042,1811.23,78.80,28.40,15.71,0.00,0.00,0.00,30.25,M,10.00,11.00,CLR,M,M,M,M,M,M,M,M,M,M,M,M,M,M,78.80,K05U 010210Z AUTO 00000G11KT 10SM CLR 26/M02 A3025 RMK A01,M
MEV,2024-09-01 02:15,-119.7500,38.9963,1441.42,82.40,33.80,17.38,280.00,4.00,0.00,30.13,M,10.00,M,CLR,M,M,M,M,M,M,M,M,M,M,M,M,M,M,80.03,KMEV 010215Z AUTO 28004KT 10SM CLR 28/01 A3013 RMK AO2,M
CXP,2024-09-01 02:15,-119.7326,39.1923,1431.00,84.20,32.00,15.25,290.00,7.00,0.00,30.14,M,10.00,M,CLR,M,M,M,M,M,M,M,M,M,M,M,M,M,M,81.28,KCXP 010215Z AUTO 29007KT 10SM CLR 29/00 A3014 RMK AO2,M
RTS,2024-09-01 02:15,-119.8764,39.6682,1539.00,82.40,32.00,16.17,290.00,9.00,0.00,30.17,M,10.00,14.00,CLR,M,M,M,M,M,M,M,M,M,M,M,M,M,M,80.00,KRTS 010215Z AUTO 29009G14KT 10SM CLR 28/M00 A3017 RMK AO2,M
BAM,2024-09-01 02:15,-116.8743,40.5990,1382.36,84.20,33.80,16.39,330.00,3.00,0.00,30.11,M,10.00,M,CLR,M,M,M,M,M,M,M,M,M,M,M,M,M,M,81.30,KBAM 010215Z AUTO 33003KT 10SM CLR 29/01 A3011 RMK AO1,M
HTH,2024-09-01 02:15,-118.6315,38.5448,1282.89,89.60,26.60,10.30,50.00,11.00,0.00,30.07,M,10.00,16.00,CLR,M,M,M,M,M,M,M,M,M,M,M,M,M,M,85.02,KHTH 010215Z AUTO 05011G16KT 10SM CLR 32/M03 A3007 RMK A01,M
TMT,2024-09-01 02:15,-117.1971,39.4643,1749.34,78.30,36.00,21.69,110.00,9.00,0.00,30.24,M,10.00,M,CLR,M,M,M,M,M,M,M,M,M,M,M,M,M,M,78.30,KTMT 010215Z AUTO 11009KT 10SM CLR 26/02 A3024 RMK AO2 T02570022,M
10U,2024-09-01 02:15,-116.1876,41.9532,1637.00,77.00,19.40,11.44,70.00,6.00,0.00,30.19,M,10.00,12.00,CLR,M,M,M,M,M,M,M,M,M,M,M,M,M,M,77.00,K10U 010215Z AUTO 07006G12KT 10SM CLR 25/M07 A3019 RMK AO2,M
05U,2024-09-01 02:30,-116.0051,39.6042,1811.23,78.80,26.60,14.59,0.00,0.00,0.00,30.25,M,10.00,12.00,FEW,SCT,M,M,10000.00,12000.00,M,M,M,M,M,M,M,M,M,78.80,K05U 010230Z AUTO 00000G12KT 10SM FEW100 SCT120 26/M03 A3025 RMK A01,M
CXP,2024-09-01 02:35,-119.7326,39.1923,1431.00,84.20,32.00,15.25,300.00,6.00,0.00,30.14,M,10.00,M,CLR,M,M,M,M,M,M,M,M,M,M,M,M,M,M,81.28,KCXP 010235Z AUTO 30006KT 10SM CLR 29/00 A3014 RMK AO2,M
RTS,2024-09-01 02:35,-119.8764,39.6682,1539.00,78.80,30.20,16.90,280.00,9.00,0.00,30.17,M,10.00,M,CLR,M,M,M,M,M,M,M,M,M,M,M,M,M,M,78.80,KRTS 010235Z AUTO 28009KT 10SM CLR 26/M01 A3017 RMK AO2,M
MEV,2024-09-01 02:35,-119.7500,38.9963,1441.42,80.60,33.80,18.42,280.00,8.00,0.00,30.13,M,10.00,M,CLR,M,M,M,M,M,M,M,M,M,M,M,M,M,M,78.88,KMEV 010235Z AUTO 28008KT 10SM CLR 27/01 A3013 RMK AO2,M
BAM,2024-09-01 02:35,-116.8743,40.5990,1382.36,80.60,33.80,18.42,0.00,0.00,0.00,30.11,M,10.00,M,CLR,M,M,M,M,M,M,M,M,M,M,M,M,M,M,78.88,KBAM 010235Z AUTO 00000KT 10SM CLR 27/01 A3011 RMK AO1,M
HTH,2024-09-01 02:35,-118.6315,38.5448,1282.89,89.60,28.40,11.09,M,6.00,0.00,30.08,M,10.00,M,CLR,M,M,M,M,M,M,M,M,M,M,M,M,M,M,85.17,KHTH 010235Z AUTO VRB06KT 10SM CLR 32/M02 A3008 RMK A01,M
TMT,2024-09-01 02:35,-117.1971,39.4643,1749.34,76.60,35.00,22.05,120.00,10.00,0.00,30.24,M,10.00,M,CLR,M,M,M,M,M,M,M,M,M,M,M,M,M,M,76.60,KTMT 010235Z AUTO 12010KT 10SM CLR 25/02 A3024 RMK AO2 T02480017,M
10U,2024-09-01 02:35,-116.1876,41.9532,1637.00,75.20,17.60,11.24,50.00,7.00,0.00,30.19,M,10.00,13.00,CLR,M,M,M,M,M,M,M,M,M,M,M,M,M,M,75.20,K10U 010235Z AUTO 05007G13KT 10SM CLR 24/M08 A3019 RMK AO2,M
05U,2024-09-01 02:50,-116.0051,39.6042,1811.23,75.20,32.00,20.49,0.00,0.00,0.00,30.27,M,10.00,M,SCT,BKN,M,M,10000.00,12000.00,M,M,M,M,M,M,M,M,M,75.20,K05U 010250Z AUTO 00000KT 10SM SCT100 BKN120 24/00 A3027 RMK A01,M
P68,2024-09-01 02:53,-116.0056,39.6014,1993.00,75.00,32.00,20.63,20.00,4.00,0.00,30.24,1016.00,M,M,M,M,M,M,M,M,M,M,M,M,M,M,M,M,M,75.00,KP68 010253Z AUTO 02004KT 24/00 A3024 RMK AO1 SLP160 T02390000 53004,M
DRA,2024-09-01 02:53,-116.0278,36.6206,1009.00,92.00,40.00,16.35,100.00,10.00,0.00,30.02,1011.10,10.00,M,CLR,M,M,M,M,M,M,M,M,M,M,M,M,M,M,87.88,KDRA 010253Z AUTO 10010KT 10SM CLR 33/04 A3002 RMK AO2 SLP111 T03330044 53005,M
ELY,2024-09-01 02:53,-114.8453,39.2950,1909.00,75.00,34.00,22.35,40.00,5.00,0.00,30.29,1016.70,10.00,M,CLR,M,M,M,M,M,M,M,M,M,M,M,M,M,M,75.00,KELY 010253Z AUTO 04005KT 10SM CLR 24/01 A3029 RMK AO2 SLP167 T02390011 53012,M
VGT,2024-09-01 02:53,-115.1933,36.2111,667.00,96.00,45.00,17.51,250.00,7.00,0.00,29.96,1013.30,10.00,M,CLR,M,M,M,M,M,M,M,M,M,M,M,M,M,M,92.07,KVGT 010253Z 25007KT 10SM CLR 36/07 A2996 RMK AO2 SLP133 T03560072 51019,M
LOL,2024-09-01 02:53,-118.5701,40.0684,1192.43,80.00,33.00,18.20,0.00,0.00,0.00,30.05,1014.40,10.00,M,CLR,M,M,M,M,M,M,M,M,M,M,M,M,M,M,78.56,KLOL 010253Z AUTO 00000KT 10SM CLR 27/01 A3005 RMK AO2 SLP144 T02670006 55002,M
RNO,2024-09-01 02:55,-119.7711,39.4839,1341.00,85.00,51.00,30.97,290.00,12.00,0.00,30.10,1014.10,10.00,M,FEW,FEW,M,M,14000.00,18000.00,M,M,M,M,M,M,M,M,M,82.97,KRNO 010255Z 29012KT 10SM FEW140 FEW180 29/11 A3010 RMK AO2 SLP141 FU FEW180 T02940106 53006 $,M
CXP,2024-09-01 02:55,-119.7326,39.1923,1431.00,82.40,33.80,17.38,M,4.00,0.00,30.15,M,10.00,M,CLR,M,M,M,M,M,M,M,M,M,M,M,M,M,M,80.03,KCXP 010255Z AUTO VRB04KT 10SM CLR 28/01 A3015 RMK AO2,M
RTS,2024-09-01 02:55,-119.8764,39.6682,1539.00,77.00,30.20,17.94,280.00,8.00,0.00,30.18,M,10.00,M,CLR,M,M,M,M,M,M,M,M,M,M,M,M,M,M,77.00,KRTS 010255Z AUTO 28008KT 10SM CLR 25/M01 A3018 RMK AO2,M
MEV,2024-09-01 02:55,-119.7500,38.9963,1441.42,75.20,33.80,22.02,M,3.00,0.00,30.14,M,10.00,M,CLR,M,M,M,M,M,M,M,M,M,M,M,M,M,M,75.20,KMEV 010255Z AUTO VRB03KT 10SM CLR 24/01 A3014 RMK AO2,M
BAM,2024-09-01 02:55,-116.8743,40.5990,1382.36,78.80,32.00,18.18,350.00,4.00,0.00,30.12,M,10.00,M,CLR,M,M,M,M,M,M,M,M,M,M,M,M,M,M,78.80,KBAM 010255Z AUTO 35004KT 10SM CLR 26/00 A3012 RMK AO1,M
HTH,2024-09-01 02:55,-118.6315,38.5448,1282.89,87.80,28.40,11.74,0.00,0.00,0.00,30.08,M,10.00,11.00,CLR,M,M,M,M,M,M,M,M,M,M,M,M,M,M,83.84,KHTH 010255Z AUTO 00000G11KT 10SM CLR 31/M02 A3008 RMK A01,M
TMT,2024-09-01 02:55,-117.1971,39.4643,1749.34,76.30,34.70,22.01,130.00,10.00,0.00,30.24,M,10.00,19.00,SCT,M,M,M,12000.00,M,M,M,M,M,M,M,M,M,M,76.30,KTMT 010255Z AUTO 13010G19KT 10SM SCT120 25/02 A3024 RMK AO2 T02460015,M
10U,2024-09-01 02:55,-116.1876,41.9532,1637.00,68.00,17.60,14.35,220.00,5.00,0.00,30.20,M,10.00,M,CLR,M,M,M,M,M,M,M,M,M,M,M,M,M,M,68.00,K10U 010255Z AUTO 22005KT 10SM CLR 20/M08 A3020 RMK AO2,M
INS,2024-09-01 02:55,-115.6733,36.5872,955.00,91.40,39.00,16.02,100.00,16.00,0.00,30.01,1010.60,10.00,M,FEW,SCT,M,M,14000.00,16000.00,M,M,M,M,M,M,26.00,100.00,2024-09-01 02:19,87.29,KINS 010255Z AUTO 10016KT 10SM FEW140 SCT160 33/04 A3001 RMK AO2 PK WND 10026/19 SLP106 T03300038 53007,M
LSV,2024-09-01 02:55,-115.0343,36.2362,570.00,95.70,42.30,15.94,10.00,6.00,0.00,29.91,1009.80,10.00,M,CLR,M,M,M,M,M,M,M,M,M,M,M,M,M,M,91.47,KLSV 010255Z AUTO 01006KT 10SM CLR 35/06 A2991 RMK AO2 SLP098 T03540057 51019 $,M
EKO,2024-09-01 02:56,-115.7860,40.8242,1367.00,76.00,24.00,14.36,0.00,0.00,0.00,30.15,1016.40,10.00,M,CLR,M,M,M,M,M,M,M,M,M,M,M,M,M,M,76.00,KEKO 010256Z AUTO 00000KT 10SM CLR 24/M04 A3015 RMK AO2 SLP164 T02441044 53002,M
HND,2024-09-01 02:56,-115.1344,35.9729,742.79,90.00,48.00,23.63,200.00,4.00,0.00,30.01,1014.70,10.00,M,CLR,M,M,M,M,M,M,M,M,M,M,M,M,M,M,86.78,KHND 010256Z 20004KT 10SM CLR 32/09 A3001 RMK AO2 SLP147 60003 T03220089 53010,M
TPH,2024-09-01 02:56,-117.0904,38.0505,1654.00,80.00,32.00,17.48,150.00,5.00,0.00,30.20,1015.30,10.00,M,CLR,M,M,M,M,M,M,M,M,M,M,M,M,M,M,78.52,KTPH 010256Z AUTO 15005KT 10SM CLR 27/00 A3020 RMK AO2 SLP153 T02670000 53005,M
LAS,2024-09-01 02:56,-115.1634,36.0719,663.00,91.00,46.00,21.24,240.00,3.00,0.00,29.98,1012.20,10.00,M,FEW,SCT,BKN,M,6000.00,8000.00,20000.00,M,M,M,M,M,M,M,M,87.45,KLAS 010256Z 24003KT 10SM FEW060 SCT080 BKN200 33/08 A2998 RMK AO2 SLP122 T03280078 51015 $,M
NFL,2024-09-01 02:57,-118.7010,39.4166,1199.00,85.00,29.00,13.16,110.00,3.00,0.00,30.05,1014.60,10.00,M,CLR,M,M,M,M,M,M,M,M,M,M,M,M,M,M,81.86,KNFL 010257Z AUTO 11003KT 10SM CLR 29/M02 A3005 RMK AO2 SLP146 T02941017 53004,M
05U,2024-09-01 03:10,-116.0051,39.6042,1811.23,73.40,32.00,21.76,0.00,0.00,0.00,30.28,M,10.00,M,SCT,M,M,M,12000.00,M,M,M,M,M,M,M,M,M,M,73.40,K05U 010310Z AUTO 00000KT 10SM SCT120 23/M00 A3028 RMK A01,M
BVU,2024-09-01 03:15,-114.8611,35.9475,671.00,89.60,46.40,22.53,290.00,9.00,0.00,29.96,M,10.00,M,CLR,M,M,M,M,M,M,M,M,M,M,M,M,M,M,86.24,KBVU 010315Z AUTO 29009KT 10SM CLR 32/08 A2996 RMK AO2,M
CXP,2024-09-01 03:15,-119.7326,39.1923,1431.00,80.60,33.80,18.42,0.00,0.00,0.00,30.15,M,10.00,M,CLR,M,M,M,M,M,M,M,M,M,M,M,M,M,M,78.88,KCXP 010315Z AUTO 00000KT 10SM CLR 27/01 A3015 RMK AO2,M
RTS,2024-09-01 03:15,-119.8764,39.6682,1539.00,73.40,32.00,21.76,300.00,8.00,0.00,30.18,M,10.00,M,CLR,M,M,M,M,M,M,M,M,M,M,M,M,M,M,73.40,KRTS 010315Z AUTO 30008KT 10SM CLR 23/M00 A3018 RMK AO2,M
MEV,2024-09-01 03:15,-119.7500,38.9963,1441.42,75.20,35.60,23.66,0.00,0.00,0.00,30.15,M,10.00,M,CLR,M,M,M,M,M,M,M,M,M,M,M,M,M,M,75.20,KMEV 010315Z AUTO 00000KT 10SM CLR 24/02 A3015 RMK AO2,M
BAM,2024-09-01 03:15,-116.8743,40.5990,1382.36,78.80,32.00,18.18,330.00,3.00,0.00,30.12,M,10.00,M,CLR,M,M,M,M,M,M,M,M,M,M,M,M,M,M,78.80,KBAM 010315Z AUTO 33003KT 10SM CLR 26/00 A3012 RMK AO1,M
HTH,2024-09-01 03:15,-118.6315,38.5448,1282.89,87.80,28.40,11.74,140.00,7.00,0.00,30.09,M,10.00,M,FEW,M,M,M,12000.00,M,M,M,M,M,M,M,M,M,M,83.84,KHTH 010315Z AUTO 14007KT 110V170 10SM FEW120 31/M02 A3009 RMK A01,M
TMT,2024-09-01 03:15,-117.1971,39.4643,1749.34,74.50,34.00,22.73,140.00,8.00,0.00,30.24,M,10.00,M,CLR,M,M,M,M,M,M,M,M,M,M,M,M,M,M,74.50,KTMT 010315Z AUTO 14008KT 10SM CLR 24/01 A3024 RMK AO2 T02360012,M
10U,2024-09-01 03:15,-116.1876,41.9532,1637.00,73.40,17.60,11.94,140.00,5.00,0.00,30.20,M,10.00,M,CLR,M,M,M,M,M,M,M,M,M,M,M,M,M,M,73.40,K10U 010315Z AUTO 14005KT 10SM CLR 23/M08 A3020 RMK AO2,M
05U,2024-09-01 03:30,-116.0051,39.6042,1811.23,75.20,32.00,20.49,0.00,0.00,0.00,30.28,M,10.00,15.00,FEW,M,M,M,12000.00,M,M,M,M,M,M,M,M,M,M,75.20,K05U 010330Z AUTO 00000G15KT 10SM FEW120 24/M00 A3028 RMK A01,M
BVU,2024-09-01 03:35,-114.8611,35.9475,671.00,89.60,46.40,22.53,0.00,0.00,0.00,29.96,M,10.00,M,CLR,M,M,M,M,M,M,M,M,M,M,M,M,M,M,86.24,KBVU 010335Z AUTO 00000KT 10SM CLR 32/08 A2996 RMK AO2,M
CXP,2024-09-01 03:35,-119.7326,39.1923,1431.00,78.80,35.60,21.00,90.00,4.00,0.00,30.16,M,10.00,M,CLR,M,M,M,M,M,M,M,M,M,M,M,M,M,M,78.80,KCXP 010335Z AUTO 09004KT 10SM CLR 26/02 A3016 RMK AO2,M
RTS,2024-09-01 03:35,-119.8764,39.6682,1539.00,73.40,32.00,21.76,300.00,7.00,0.00,30.19,M,10.00,M,CLR,M,M,M,M,M,M,M,M,M,M,M,M,M,M,73.40,KRTS 010335Z AUTO 30007KT 10SM CLR 23/M00 A3019 RMK AO2,M
MEV,2024-09-01 03:35,-119.7500,38.9963,1441.42,68.00,37.40,32.43,160.00,4.00,0.00,30.16,M,10.00,M,CLR,M,M,M,M,M,M,M,M,M,M,M,M,M,M,68.00,KMEV 010335Z AUTO 16004KT 10SM CLR 20/03 A3016 RMK AO2,M
BAM,2024-09-01 03:35,-116.8743,40.5990,1382.36,69.80,28.40,21.24,180.00,4.00,0.00,30.13,M,10.00,M,CLR,M,M,M,M,M,M,M,M,M,M,M,M,M,M,69.80,KBAM 010335Z AUTO 18004KT 10SM CLR 21/M02 A3013 RMK AO1,M
HTH,2024-09-01 03:35,-118.6315,38.5448,1282.89,87.80,28.40,11.74,30.00,7.00,0.00,30.09,M,10.00,M,FEW,FEW,SCT,M,3700.00,7000.00,12000.00,M,M,M,M,M,M,M,M,83.84,KHTH 010335Z AUTO 03007KT 10SM FEW037 FEW070 SCT120 31/M02 A3009 RMK A01,M
TMT,2024-09-01 03:35,-117.1971,39.4643,1749.34,72.00,34.50,25.22,150.00,6.00,0.00,30.25,M,10.00,M,CLR,M,M,M,M,M,M,M,M,M,M,M,M,M,M,72.00,KTMT 010335Z AUTO 15006KT 10SM CLR 22/01 A3025 RMK AO2 T02220014,M
10U,2024-09-01 03:35,-116.1876,41.9532,1637.00,71.60,17.60,12.69,220.00,5.00,0.00,30.21,M,10.00,M,CLR,M,M,M,M,M,M,M,M,M,M,M,M,M,M,71.60,K10U 010335Z AUTO 22005KT 10SM CLR 22/M08 A3021 RMK AO2,M
05U,2024-09-01 03:50,-116.0051,39.6042,1811.23,73.40,32.00,21.76,0.00,0.00,0.00,30.29,M,10.00,M,CLR,M,M,M,M,M,M,M,M,M,M,M,M,M,M,73.40,K05U 010350Z AUTO 00000KT 10SM CLR 23/00 A3029 RMK A01,M
P68,2024-09-01 03:53,-116.0056,39.6014,1993.00,73.00,34.00,23.90,150.00,11.00,0.00,30.26,1016.20,M,M,M,M,M,M,M,M,M,M,M,M,M,M,M,M,M,73.00,KP68 010353Z AUTO 15011KT 23/01 A3026 RMK AO1 SLP162 T02280011,M
DRA,2024-09-01 03:53,-116.0278,36.6206,1009.00,91.00,40.00,16.87,110.00,10.00,0.00,30.03,1011.20,10.00,M,CLR,M,M,M,M,M,M,M,M,M,M,M,M,M,M,86.99,KDRA 010353Z AUTO 11010KT 10SM CLR 33/04 A3003 RMK AO2 SLP112 T03280044,M
ELY,2024-09-01 03:53,-114.8453,39.2950,1909.00,71.00,34.00,25.58,0.00,0.00,0.00,30.31,1016.50,10.00,M,CLR,M,M,M,M,M,M,M,M,M,M,M,M,M,M,71.00,KELY 010353Z AUTO 00000KT 10SM CLR 22/01 A3031 RMK AO2 SLP165 T02170011,M
VGT,2024-09-01 03:53,-115.1933,36.2111,667.00,95.00,46.00,18.76,260.00,4.00,0.00,29.98,1013.60,10.00,M,CLR,M,M,M,M,M,M,M,M,M,M,M,M,M,M,91.23,KVGT 010353Z AUTO 26004KT 10SM CLR 35/08 A2998 RMK AO2 SLP136 T03500078,M
LOL,2024-09-01 03:53,-118.5701,40.0684,1192.43,75.00,26.00,16.14,0.00,0.00,0.00,30.06,1014.50,10.00,M,CLR,M,M,M,M,M,M,M,M,M,M,M,M,M,M,75.00,KLOL 010353Z AUTO 00000KT 10SM CLR 24/M03 A3006 RMK AO2 SLP145 T02391033,M
BVU,2024-09-01 03:55,-114.8611,35.9475,671.00,87.80,50.00,27.29,30.00,4.00,0.00,29.97,M,10.00,M,CLR,M,M,M,M,M,M,M,M,M,M,M,M,M,M,85.11,KBVU 010355Z AUTO 03004KT 10SM CLR 31/10 A2997 RMK AO2,M
RNO,2024-09-01 03:55,-119.7711,39.4839,1341.00,82.00,49.00,31.68,290.00,7.00,0.00,30.12,1014.40,10.00,M,FEW,M,M,M,14000.00,M,M,M,M,M,M,M,M,M,M,80.62,KRNO 010355Z 29007KT 10SM FEW140 28/09 A3012 RMK AO2 SLP144 FU FEW180 T02780094,M
CXP,2024-09-01 03:55,-119.7326,39.1923,1431.00,77.00,35.60,22.28,M,4.00,0.00,30.16,M,10.00,M,CLR,M,M,M,M,M,M,M,M,M,M,M,M,M,M,77.00,KCXP 010355Z AUTO VRB04KT 10SM CLR 25/02 A3016 RMK AO2,M
RTS,2024-09-01 03:55,-119.8764,39.6682,1539.00,73.40,32.00,21.76,290.00,6.00,0.00,30.19,M,10.00,M,CLR,M,M,M,M,M,M,M,M,M,M,M,M,M,M,73.40,KRTS 010355Z AUTO 29006KT 10SM CLR 23/00 A3019 RMK AO2,M
MEV,2024-09-01 03:55,-119.7500,38.9963,1441.42,66.20,41.00,39.72,120.00,3.00,0.00,30.16,M,10.00,M,CLR,M,M,M,M,M,M,M,M,M,M,M,M,M,M,66.20,KMEV 010355Z AUTO 12003KT 10SM CLR 19/05 A3016 RMK AO2,M
BAM,2024-09-01 03:55,-116.8743,40.5990,1382.36,69.80,28.40,21.24,220.00,6.00,0.00,30.13,M,10.00,M,CLR,M,M,M,M,M,M,M,M,M,M,M,M,M,M,69.80,KBAM 010355Z AUTO 22006KT 10SM CLR 21/M02 A3013 RMK AO1,M
HTH,2024-09-01 03:55,-118.6315,38.5448,1282.89,84.20,28.40,13.18,40.00,5.00,0.00,30.10,M,10.00,M,FEW,M,M,M,12000.00,M,M,M,M,M,M,M,M,M,M,81.25,KHTH 010355Z AUTO 04005KT 10SM FEW120 29/M02 A3010 RMK A01,M
TMT,2024-09-01 03:55,-117.1971,39.4643,1749.34,71.60,32.50,23.60,150.00,6.00,0.00,30.25,M,10.00,M,CLR,M,M,M,M,M,M,M,M,M,M,M,M,M,M,71.60,KTMT 010355Z AUTO 15006KT 10SM CLR 22/00 A3025 RMK AO2 T02200003,M
10U,2024-09-01 03:55,-116.1876,41.9532,1637.00,64.40,17.60,16.26,240.00,6.00,0.00,30.22,M,10.00,M,CLR,M,M,M,M,M,M,M,M,M,M,M,M,M,M,64.40,K10U 010355Z AUTO 24006KT 10SM CLR 18/M08 A3022 RMK AO2,M
INS,2024-09-01 03:55,-115.6733,36.5872,955.00,89.00,38.50,16.94,40.00,8.00,0.00,30.03,1011.00,10.00,M,OVC,M,M,M,14000.00,M,M,M,M,M,M,M,M,M,M,85.20,KINS 010355Z AUTO 04008KT 10SM OVC140 32/04 A3003 RMK AO2 SLP110 T03170036,M
LSV,2024-09-01 03:55,-115.0343,36.2362,570.00,93.70,42.30,16.95,40.00,6.00,0.00,29.93,1010.40,10.00,M,CLR,M,M,M,M,M,M,M,M,M,M,M,M,M,M,89.59,KLSV 010355Z AUTO 04006KT 10SM CLR 34/06 A2993 RMK AO2 SLP104 T03430057 $,M
EKO,2024-09-01 03:56,-115.7860,40.8242,1367.00,70.00,23.00,16.86,340.00,4.00,0.00,30.16,1017.00,10.00,M,CLR,M,M,M,M,M,M,M,M,M,M,M,M,M,M,70.00,KEKO 010356Z AUTO 34004KT 10SM CLR 21/M05 A3016 RMK AO2 SLP170 T02111050,M
HND,2024-09-01 03:56,-115.1344,35.9729,742.79,88.00,51.00,28.15,0.00,0.00,0.00,30.03,1015.20,10.00,M,CLR,M,M,M,M,M,M,M,M,M,M,M,M,M,M,85.43,KHND 010356Z AUTO 00000KT 10SM CLR 31/11 A3003 RMK AO2 SLP152 T03110106,M
TPH,2024-09-01 03:56,-117.0904,38.0505,1654.00,78.00,40.00,25.62,100.00,15.00,0.00,30.24,1016.00,10.00,25.00,BKN,M,M,M,12000.00,M,M,M,M,M,M,M,27.00,110.00,2024-09-01 03:45,78.00,KTPH 010356Z AUTO 10015G25KT 10SM BKN120 26/04 A3024 RMK AO2 PK WND 11027/0345 LTG DSNT N SLP160 T02560044,M
LAS,2024-09-01 03:56,-115.1634,36.0719,663.00,87.00,46.00,24.10,220.00,4.00,0.00,29.99,1012.80,10.00,M,FEW,SCT,M,M,6000.00,8000.00,M,M,M,M,M,M,M,M,M,83.98,KLAS 010356Z 22004KT 10SM FEW060 SCT080 31/08 A2999 RMK AO2 SLP128 T03060078 $,M
NFL,2024-09-01 03:57,-118.7010,39.4166,1199.00,85.00,36.00,17.44,0.00,0.00,0.00,30.06,1014.90,10.00,M,CLR,M,M,M,M,M,M,M,M,M,M,M,M,M,M,81.93,KNFL 010357Z AUTO 00000KT 10SM CLR 29/02 A3006 RMK AO2 SLP149 T02940022,M
05U,2024-09-01 04:10,-116.0051,39.6042,1811.23,75.20,32.00,20.49,190.00,10.00,0.00,30.29,M,10.00,16.00,CLR,M,M,M,M,M,M,M,M,M,M,M,M,M,M,75.20,K05U 010410Z AUTO 19010G16KT 10SM CLR 24/M00 A3029 RMK A01,M
HTH,2024-09-01 04:10,-118.6315,38.5448,1282.89,84.20,28.40,13.18,160.00,5.00,0.00,30.10,M,10.00,M,CLR,M,M,M,M,M,M,M,M,M,M,M,M,M,M,81.25,KHTH 010410Z AUTO 16005KT 10SM CLR 29/M02 A3010 RMK A01,M
BVU,2024-09-01 04:15,-114.8611,35.9475,671.00,86.00,51.80,30.90,50.00,3.00,0.00,29.98,M,10.00,M,CLR,M,M,M,M,M,M,M,M,M,M,M,M,M,M,83.87,KBVU 010415Z AUTO 05003KT 10SM CLR 30/11 A2998 RMK AO2,M
CXP,2024-09-01 04:15,-119.7326,39.1923,1431.00,75.20,35.60,23.66,0.00,0.00,0.00,30.17,M,10.00,M,CLR,M,M,M,M,M,M,M,M,M,M,M,M,M,M,75.20,KCXP 010415Z AUTO 00000KT 10SM CLR 24/02 A3017 RMK AO2,M
RTS,2024-09-01 04:15,-119.8764,39.6682,1539.00,75.20,32.00,20.49,270.00,5.00,0.00,30.20,M,10.00,M,CLR,M,M,M,M,M,M,M,M,M,M,M,M,M,M,75.20,KRTS 010415Z AUTO 27005KT 10SM CLR 24/00 A3020 RMK AO2,M
MEV,2024-09-01 04:15,-119.7500,38.9963,1441.42,62.60,42.80,48.28,130.00,6.00,0.00,30.16,M,10.00,M,CLR,M,M,M,M,M,M,M,M,M,M,M,M,M,M,62.60,KMEV 010415Z AUTO 13006KT 10SM CLR 17/06 A3016 RMK AO2,M
BAM,2024-09-01 04:15,-116.8743,40.5990,1382.36,66.20,26.60,22.33,150.00,3.00,0.00,30.13,M,10.00,M,CLR,M,M,M,M,M,M,M,M,M,M,M,M,M,M,66.20,KBAM 010415Z AUTO 15003KT 10SM CLR 19/M03 A3013 RMK AO1,M
TMT,2024-09-01 04:15,-117.1971,39.4643,1749.34,69.60,32.40,25.16,240.00,4.00,0.00,30.25,M,10.00,M,CLR,M,M,M,M,M,M,M,M,M,M,M,M,M,M,69.60,KTMT 010415Z AUTO 24004KT 10SM CLR 21/00 A3025 RMK AO2 T02090002,M
10U,2024-09-01 04:15,-116.1876,41.9532,1637.00,64.40,19.40,17.56,240.00,4.00,0.00,30.21,M,10.00,M,CLR,M,M,M,M,M,M,M,M,M,M,M,M,M,M,64.40,K10U 010415Z AUTO 24004KT 10SM CLR 18/M07 A3021 RMK AO2,M
05U,2024-09-01 04:30,-116.0051,39.6042,1811.23,75.20,32.00,20.49,180.00,8.00,0.00,30.29,M,10.00,M,FEW,M,M,M,12000.00,M,M,M,M,M,M,M,M,M,M,75.20,K05U 010430Z AUTO 18008KT 10SM FEW120 24/00 A3029 RMK A01,M
BVU,2024-09-01 04:35,-114.8611,35.9475,671.00,86.00,50.00,28.90,30.00,5.00,0.00,29.97,M,10.00,M,CLR,M,M,M,M,M,M,M,M,M,M,M,M,M,M,83.62,KBVU 010435Z AUTO 03005KT 10SM CLR 30/10 A2997 RMK AO2,M
BAM,2024-09-01 04:35,-116.8743,40.5990,1382.36,64.40,26.60,23.77,180.00,6.00,0.00,30.14,M,10.00,M,CLR,M,M,M,M,M,M,M,M,M,M,M,M,M,M,64.40,KBAM 010435Z AUTO 18006KT 10SM CLR 18/M03 A3014 RMK AO1,M
CXP,2024-09-01 04:35,-119.7326,39.1923,1431.00,73.40,35.60,25.13,100.00,3.00,0.00,30.18,M,10.00,M,CLR,M,M,M,M,M,M,M,M,M,M,M,M,M,M,73.40,KCXP 010435Z AUTO 10003KT 10SM CLR 23/02 A3018 RMK AO2,M
RTS,2024-09-01 04:35,-119.8764,39.6682,1539.00,73.40,32.00,21.76,280.00,8.00,0.00,30.20,M,10.00,M,CLR,M,M,M,M,M,M,M,M,M,M,M,M,M,M,73.40,KRTS 010435Z AUTO 28008KT 10SM CLR 23/M00 A3020 RMK AO2,M
MEV,2024-09-01 04:35,-119.7500,38.9963,1441.42,64.40,37.40,36.74,120.00,7.00,0.00,30.17,M,10.00,M,CLR,M,M,M,M,M,M,M,M,M,M,M,M,M,M,64.40,KMEV 010435Z AUTO 12007KT 10SM CLR 18/03 A3017 RMK AO2,M
HTH,2024-09-01 04:35,-118.6315,38.5448,1282.89,84.20,30.20,14.18,140.00,4.00,0.00,30.10,M,10.00,M,CLR,M,M,M,M,M,M,M,M,M,M,M,M,M,M,81.26,KHTH 010435Z AUTO 14004KT 10SM CLR 29/M01 A3010 RMK A01,M
TMT,2024-09-01 04:35,-117.1971,39.4643,1749.34,64.60,34.50,32.53,250.00,7.00,0.00,30.25,M,10.00,M,CLR,M,M,M,M,M,M,M,M,M,M,M,M,M,M,64.60,KTMT 010435Z AUTO 25007KT 10SM CLR 18/01 A3025 RMK AO2 T01810014,M
10U,2024-09-01 04:35,-116.1876,41.9532,1637.00,60.80,19.40,19.94,270.00,5.00,0.00,30.21,M,10.00,M,CLR,M,M,M,M,M,M,M,M,M,M,M,M,M,M,60.80,K10U 010435Z AUTO 27005KT 10SM CLR 16/M07 A3021 RMK AO2,M
05U,2024-09-01 04:50,-116.0051,39.6042,1811.23,73.40,33.80,23.39,0.00,0.00,0.00,30.29,M,10.00,M,CLR,M,M,M,M,M,M,M,M,M,M,M,M,M,M,73.40,K05U 010450Z AUTO 00000KT 10SM CLR 23/01 A3029 RMK A01,M
CXP,2024-09-01 04:50,-119.7326,39.1923,1431.00,75.20,35.60,23.66,0.00,0.00,0.00,30.18,M,10.00,M,CLR,M,M,M,M,M,M,M,M,M,M,M,M,M,M,75.20,KCXP 010450Z AUTO 00000KT 10SM CLR 24/02 A3018 RMK AO2,M
P68,2024-09-01 04:53,-116.0056,39.6014,1993.00,72.00,35.00,25.73,250.00,5.00,0.00,30.26,1015.70,M,M,M,M,M,M,M,M,M,M,M,M,M,M,M,M,M,72.00,KP68 010453Z AUTO 25005KT 22/02 A3026 RMK AO1 SLP157 T02220017,M
DRA,2024-09-01 04:53,-116.0278,36.6206,1009.00,88.00,42.00,20.03,0.00,0.00,0.00,30.05,1011.80,10.00,M,CLR,M,M,M,M,M,M,M,M,M,M,M,M,M,M,84.52,KDRA 010453Z AUTO 00000KT 10SM CLR 31/06 A3005 RMK AO2 SLP118 T03110056,M
ELY,2024-09-01 04:53,-114.8453,39.2950,1909.00,63.00,32.00,31.12,170.00,7.00,0.00,30.32,1016.60,10.00,M,CLR,M,M,M,M,M,M,M,M,M,M,M,M,M,M,63.00,KELY 010453Z AUTO 17007KT 10SM CLR 17/00 A3032 RMK AO2 SLP166 T01720000,M
VGT,2024-09-01 04:53,-115.1933,36.2111,667.00,92.00,46.00,20.58,100.00,6.00,0.00,29.98,1013.70,10.00,M,CLR,M,M,M,M,M,M,M,M,M,M,M,M,M,M,88.38,KVGT 010453Z AUTO 10006KT 10SM CLR 33/08 A2998 RMK AO2 SLP137 T03330078,M
LOL,2024-09-01 04:53,-118.5701,40.0684,1192.43,71.00,31.00,22.67,0.00,0.00,0.00,30.06,1014.10,10.00,M,CLR,M,M,M,M,M,M,M,M,M,M,M,M,M,M,71.00,KLOL 010453Z AUTO 00000KT 10SM CLR 22/M01 A3006 RMK AO2 SLP141 T02171006,M
BVU,2024-09-01 04:55,-114.8611,35.9475,671.00,86.00,50.00,28.90,40.00,6.00,0.00,29.97,M,10.00,M,CLR,M,M,M,M,M,M,M,M,M,M,M,M,M,M,83.62,KBVU 010455Z AUTO 04006KT 10SM CLR 30/10 A2997 RMK AO2,M
RNO,2024-09-01 04:55,-119.7711,39.4839,1341.00,78.00,46.00,32.26,210.00,3.00,0.00,30.14,1015.00,10.00,M,FEW,M,M,M,14000.00,M,M,M,M,M,M,M,M,M,M,78.00,KRNO 010455Z 21003KT 10SM FEW140 26/08 A3014 RMK AO2 SLP150 T02560078,M
BAM,2024-09-01 04:55,-116.8743,40.5990,1382.36,62.60,26.60,25.32,170.00,4.00,0.00,30.14,M,10.00,M,CLR,M,M,M,M,M,M,M,M,M,M,M,M,M,M,62.60,KBAM 010455Z AUTO 17004KT 10SM CLR 17/M03 A3014 RMK AO1,M
RTS,2024-09-01 04:55,-119.8764,39.6682,1539.00,69.80,30.20,22.86,290.00,7.00,0.00,30.19,M,10.00,M,CLR,M,M,M,M,M,M,M,M,M,M,M,M,M,M,69.80,KRTS 010455Z AUTO 29007KT 10SM CLR 21/M01 A3019 RMK AO2,M
MEV,2024-09-01 04:55,-119.7500,38.9963,1441.42,66.20,35.60,32.14,110.00,8.00,0.00,30.17,M,10.00,M,FEW,FEW,M,M,4900.00,6000.00,M,M,M,M,M,M,M,M,M,66.20,KMEV 010455Z AUTO 11008KT 10SM FEW049 FEW060 19/02 A3017 RMK AO2,M
HTH,2024-09-01 04:55,-118.6315,38.5448,1282.89,80.60,30.20,15.94,280.00,4.00,0.00,30.11,M,10.00,M,CLR,M,M,M,M,M,M,M,M,M,M,M,M,M,M,78.77,KHTH 010455Z AUTO 28004KT 10SM CLR 27/M01 A3011 RMK A01,M
TMT,2024-09-01 04:55,-117.1971,39.4643,1749.34,60.40,34.30,37.42,0.00,0.00,0.00,30.25,M,10.00,M,CLR,M,M,M,M,M,M,M,M,M,M,M,M,M,M,60.40,KTMT 010455Z AUTO 00000KT 10SM CLR 16/01 A3025 RMK AO2 T01580013,M
10U,2024-09-01 04:55,-116.1876,41.9532,1637.00,60.80,21.20,21.53,0.00,0.00,0.00,30.21,M,10.00,M,CLR,M,M,M,M,M,M,M,M,M,M,M,M,M,M,60.80,K10U 010455Z AUTO 00000KT 10SM CLR 16/M06 A3021 RMK AO2,M
INS,2024-09-01 04:55,-115.6733,36.5872,955.00,87.00,39.70,18.92,90.00,10.00,0.00,30.04,1011.30,10.00,M,CLR,M,M,M,M,M,M,M,M,M,M,M,M,M,M,83.59,KINS 010455Z AUTO 09010KT 10SM CLR 31/04 A3004 RMK AO2 SLP113 T03060043,M
LSV,2024-09-01 04:55,-115.0343,36.2362,570.00,91.00,41.50,17.88,70.00,6.00,0.00,29.93,1010.40,10.00,M,CLR,M,M,M,M,M,M,M,M,M,M,M,M,M,M,87.07,KLSV 010455Z AUTO 07006KT 10SM CLR 33/05 A2993 RMK AO2 SLP104 T03270053 $,M
EKO,2024-09-01 04:56,-115.7860,40.8242,1367.00,63.00,27.00,25.38,M,5.00,0.00,30.17,1017.10,10.00,M,CLR,M,M,M,M,M,M,M,M,M,M,M,M,M,M,63.00,KEKO 010456Z AUTO VRB05KT 10SM CLR 17/M03 A3017 RMK AO2 SLP171 T01721028,M
HND,2024-09-01 04:56,-115.1344,35.9729,742.79,81.00,58.00,45.51,150.00,4.00,0.00,30.03,1015.30,10.00,M,CLR,M,M,M,M,M,M,M,M,M,M,M,M,M,M,81.22,KHND 010456Z AUTO 15004KT 10SM CLR 27/14 A3003 RMK AO2 SLP153 T02720144,M
TPH,2024-09-01 04:56,-117.0904,38.0505,1654.00,76.00,40.00,27.38,60.00,9.00,0.00,30.25,1015.80,10.00,M,SCT,M,M,M,12000.00,M,M,M,M,M,M,M,M,M,M,76.00,KTPH 010456Z AUTO 06009KT 10SM SCT120 24/04 A3025 RMK AO2 SLP158 T02440044,M
LAS,2024-09-01 04:56,-115.1634,36.0719,663.00,87.00,49.00,26.97,0.00,0.00,0.00,29.99,1012.60,10.00,M,FEW,SCT,M,M,6000.00,8000.00,M,M,M,M,M,M,M,M,M,84.30,KLAS 010456Z 00000KT 10SM FEW060 SCT080 30/10 A2999 RMK AO2 SLP126 T03060094 $,M
NFL,2024-09-01 04:57,-118.7010,39.4166,1199.00,85.00,33.00,15.47,0.00,0.00,0.00,30.07,1015.00,10.00,M,CLR,M,M,M,M,M,M,M,M,M,M,M,M,M,M,81.88,KNFL 010457Z AUTO 00000KT 10SM CLR 29/01 A3007 RMK AO2 SLP150 T02940006,M
05U,2024-09-01 05:10,-116.0051,39.6042,1811.23,71.60,33.80,24.86,0.00,0.00,0.00,30.29,M,10.00,M,FEW,M,M,M,12000.00,M,M,M,M,M,M,M,M,M,M,71.60,K05U 010510Z AUTO 00000KT 10SM FEW120 22/01 A3029 RMK A01,M
BVU,2024-09-01 05:15,-114.8611,35.9475,671.00,86.00,42.80,22.02,330.00,6.00,0.00,29.96,M,10.00,M,CLR,M,M,M,M,M,M,M,M,M,M,M,M,M,M,82.95,KBVU 010515Z AUTO 33006KT 10SM CLR 30/06 A2996 RMK AO2,M
CXP,2024-09-01 05:15,-119.7326,39.1923,1431.00,75.20,35.60,23.66,0.00,0.00,0.00,30.18,M,10.00,M,CLR,M,M,M,M,M,M,M,M,M,M,M,M,M,M,75.20,KCXP 010515Z AUTO 00000KT 10SM CLR 24/02 A3018 RMK AO2,M
RTS,2024-09-01 05:15,-119.8764,39.6682,1539.00,68.00,30.20,24.32,310.00,7.00,0.00,30.20,M,10.00,M,CLR,M,M,M,M,M,M,M,M,M,M,M,M,M,M,68.00,KRTS 010515Z AUTO 31007KT 10SM CLR 20/M01 A3020 RMK AO2,M
MEV,2024-09-01 05:15,-119.7500,38.9963,1441.42,66.20,35.60,32.14,100.00,8.00,0.00,30.17,M,10.00,M,FEW,FEW,M,M,4900.00,6000.00,M,M,M,M,M,M,M,M,M,66.20,KMEV 010515Z AUTO 10008KT 10SM FEW049 FEW060 19/02 A3017 RMK AO2,M
BAM,2024-09-01 05:15,-116.8743,40.5990,1382.36,68.00,26.60,20.98,160.00,5.00,0.00,30.14,M,10.00,M,CLR,M,M,M,M,M,M,M,M,M,M,M,M,M,M,68.00,KBAM 010515Z AUTO 16005KT 10SM CLR 20/M03 A3014 RMK AO1,M
HTH,2024-09-01 05:15,-118.6315,38.5448,1282.89,M,M,M,M,M,0.00,M,M,10.00,M,M,M,M,M,M,M,M,M,M,M,M,M,M,M,M,M,KHTH 010515Z AUTO 10SM RMK A01,M
TMT,2024-09-01 05:15,-117.1971,39.4643,1749.34,64.60,33.00,30.63,350.00,3.00,0.00,30.25,M,10.00,M,CLR,M,M,M,M,M,M,M,M,M,M,M,M,M,M,64.60,KTMT 010515Z AUTO 35003KT 10SM CLR 18/01 A3025 RMK AO2 T01810006,M
10U,2024-09-01 05:15,-116.1876,41.9532,1637.00,66.20,21.20,17.81,100.00,6.00,0.00,30.21,M,10.00,M,CLR,M,M,M,M,M,M,M,M,M,M,M,M,M,M,66.20,K10U 010515Z AUTO 10006KT 10SM CLR 19/M06 A3021 RMK AO2,M
05U,2024-09-01 05:30,-116.0051,39.6042,1811.23,69.80,33.80,26.43,0.00,0.00,0.00,30.29,M,10.00,M,FEW,M,M,M,12000.00,M,M,M,M,M,M,M,M,M,M,69.80,K05U 010530Z AUTO 00000KT 10SM FEW120 21/01 A3029 RMK A01,M
BVU,2024-09-01 05:35,-114.8611,35.9475,671.00,86.00,48.20,27.03,60.00,3.00,0.00,29.96,M,10.00,M,CLR,M,M,M,M,M,M,M,M,M,M,M,M,M,M,83.40,KBVU 010535Z AUTO 06003KT 10SM CLR 30/09 A2996 RMK AO2,M
CXP,2024-09-01 05:35,-119.7326,39.1923,1431.00,75.20,35.60,23.66,0.00,0.00,0.00,30.18,M,10.00,M,CLR,M,M,M,M,M,M,M,M,M,M,M,M,M,M,75.20,KCXP 010535Z AUTO 00000KT 10SM CLR 24/02 A3018 RMK AO2,M
RTS,2024-09-01 05:35,-119.8764,39.6682,1539.00,69.80,30.20,22.86,330.00,6.00,0.00,30.20,M,10.00,M,CLR,M,M,M,M,M,M,M,M,M,M,M,M,M,M,69.80,KRTS 010535Z AUTO 33006KT 10SM CLR 21/M01 A3020 RMK AO2,M
MEV,2024-09-01 05:35,-119.7500,38.9963,1441.42,66.20,35.60,32.14,100.00,9.00,0.00,30.16,M,10.00,M,FEW,SCT,M,M,3800.00,4800.00,M,M,M,M,M,M,M,M,M,66.20,KMEV 010535Z AUTO 10009KT 10SM FEW038 SCT048 19/02 A3016 RMK AO2,M
BAM,2024-09-01 05:35,-116.8743,40.5990,1382.36,64.40,26.60,23.77,200.00,3.00,0.00,30.15,M,10.00,M,CLR,M,M,M,M,M,M,M,M,M,M,M,M,M,M,64.40,KBAM 010535Z AUTO 20003KT 10SM CLR 18/M03 A3015 RMK AO1,M
HTH,2024-09-01 05:35,-118.6315,38.5448,1282.89,78.80,30.20,16.90,130.00,6.00,0.00,30.11,M,10.00,M,M,M,M,M,M,M,M,M,M,M,M,M,M,M,M,78.80,KHTH 010535Z AUTO 13006KT 10SM 26/M01 A3011 RMK A01,M
TMT,2024-09-01 05:35,-117.1971,39.4643,1749.34,59.50,31.60,34.67,140.00,3.00,0.00,30.25,M,10.00,M,CLR,M,M,M,M,M,M,M,M,M,M,M,M,M,M,59.50,KTMT 010535Z AUTO 14003KT 10SM CLR 15/00 A3025 RMK AO2 T01531002,M
10U,2024-09-01 05:35,-116.1876,41.9532,1637.00,68.00,21.20,16.74,100.00,4.00,0.00,30.21,M,10.00,M,CLR,M,M,M,M,M,M,M,M,M,M,M,M,M,M,68.00,K10U 010535Z AUTO 10004KT 10SM CLR 20/M06 A3021 RMK AO2,M
05U,2024-09-01 05:50,-116.0051,39.6042,1811.23,68.00,32.00,26.15,0.00,0.00,0.00,30.28,M,10.00,M,BKN,M,M,M,12000.00,M,M,M,M,M,M,M,M,M,M,68.00,K05U 010550Z AUTO 00000KT 10SM BKN120 20/00 A3028 RMK A01,M
P68,2024-09-01 05:53,-116.0056,39.6014,1993.00,69.00,34.00,27.38,290.00,3.00,0.00,30.25,1015.50,M,M,M,M,M,M,M,M,M,M,M,M,M,M,M,M,M,69.00,KP68 010553Z AUTO 29003KT 21/01 A3025 RMK AO1 SLP155 T02060011 10289 20189 50004,M
DRA,2024-09-01 05:53,-116.0278,36.6206,1009.00,85.00,42.00,22.05,130.00,6.00,0.00,30.06,1011.80,10.00,M,CLR,M,M,M,M,M,M,M,M,M,M,M,M,M,M,82.15,KDRA 010553Z AUTO 13006KT 10SM CLR 29/06 A3006 RMK AO2 SLP118 T02940056 10378 20294 51013,M
ELY,2024-09-01 05:53,-114.8453,39.2950,1909.00,62.00,33.00,33.56,200.00,10.00,0.00,30.30,1015.70,10.00,M,CLR,M,M,M,M,M,M,M,M,M,M,M,M,M,M,62.00,KELY 010553Z AUTO 20010KT 10SM CLR 17/01 A3030 RMK AO2 SLP157 T01670006 10289 20161 50003,M
VGT,2024-09-01 05:53,-115.1933,36.2111,667.00,91.00,46.00,21.24,120.00,3.00,0.00,29.97,1013.50,10.00,M,CLR,M,M,M,M,M,M,M,M,M,M,M,M,M,M,87.45,KVGT 010553Z AUTO 12003KT 10SM CLR 33/08 A2997 RMK AO2 SLP135 T03280078 10400 20322 50003,M
LOL,2024-09-01 05:53,-118.5701,40.0684,1192.43,63.00,32.00,31.12,80.00,3.00,0.00,30.07,1014.30,10.00,M,CLR,M,M,M,M,M,M,M,M,M,M,M,M,M,M,63.00,KLOL 010553Z AUTO 08003KT 10SM CLR 17/00 A3007 RMK AO2 SLP143 T01720000 10350 20172 51006,M
BVU,2024-09-01 05:55,-114.8611,35.9475,671.00,84.20,48.20,28.63,70.00,5.00,0.00,29.96,M,10.00,M,CLR,M,M,M,M,M,M,M,M,M,M,M,M,M,M,82.04,KBVU 010555Z AUTO 07005KT 10SM CLR 29/09 A2996 RMK AO2,M
RNO,2024-09-01 05:55,-119.7711,39.4839,1341.00,75.00,45.00,34.31,0.00,0.00,0.00,30.14,1014.90,10.00,M,SCT,M,M,M,14000.00,M,M,M,M,M,M,M,M,M,M,75.00,KRNO 010555Z 00000KT 10SM SCT140 24/07 A3014 RMK AO2 SLP149 T02390072 10333 20239 51012,M
CXP,2024-09-01 05:55,-119.7326,39.1923,1431.00,71.60,35.60,26.71,0.00,0.00,0.00,30.18,M,10.00,M,CLR,M,M,M,M,M,M,M,M,M,M,M,M,M,M,71.60,KCXP 010555Z AUTO 00000KT 10SM CLR 22/02 A3018 RMK AO2,M
RTS,2024-09-01 05:55,-119.8764,39.6682,1539.00,71.60,30.20,21.50,320.00,7.00,0.00,30.20,M,10.00,M,CLR,M,M,M,M,M,M,M,M,M,M,M,M,M,M,71.60,KRTS 010555Z AUTO 32007KT 10SM CLR 22/M01 A3020 RMK AO2,M
MEV,2024-09-01 05:55,-119.7500,38.9963,1441.42,64.40,35.60,34.22,100.00,6.00,0.00,30.17,M,10.00,M,FEW,FEW,SCT,M,4100.00,4900.00,5500.00,M,M,M,M,M,M,M,M,64.40,KMEV 010555Z AUTO 10006KT 10SM FEW041 FEW049 SCT055 18/02 A3017 RMK AO2,M
BAM,2024-09-01 05:55,-116.8743,40.5990,1382.36,64.40,26.60,23.77,0.00,0.00,0.00,30.15,M,10.00,M,CLR,M,M,M,M,M,M,M,M,M,M,M,M,M,M,64.40,KBAM 010555Z AUTO 00000KT 10SM CLR 18/M03 A3015 RMK AO1,M
HTH,2024-09-01 05:55,-118.6315,38.5448,1282.89,75.20,30.20,19.05,M,4.00,0.00,30.11,M,10.00,M,CLR,M,M,M,M,M,M,M,M,M,M,M,M,M,M,75.20,KHTH 010555Z AUTO VRB04KT 10SM CLR 24/M01 A3011 RMK A01,M
TMT,2024-09-01 05:55,-117.1971,39.4643,1749.34,56.00,32.00,39.96,100.00,5.00,0.00,30.25,M,10.00,M,CLR,M,M,M,M,M,M,M,M,M,M,M,M,M,M,56.00,KTMT 010555Z AUTO 10005KT 10SM CLR 13/00 A3025 RMK AO2 T01340000 10277 20134,M
10U,2024-09-01 05:55,-116.1876,41.9532,1637.00,68.00,19.40,15.50,0.00,0.00,0.00,30.21,M,10.00,M,CLR,M,M,M,M,M,M,M,M,M,M,M,M,M,M,68.00,K10U 010555Z AUTO 00000KT 10SM CLR 20/M07 A3021 RMK AO2,M
INS,2024-09-01 05:55,-115.6733,36.5872,955.00,84.60,39.00,19.88,70.00,5.00,0.00,30.05,1011.70,10.00,M,CLR,M,M,M,M,M,M,M,M,M,M,M,M,M,M,81.72,KINS 010555Z AUTO 07005KT 10SM CLR 29/04 A3005 RMK AO2 SLP117 T02920039 10365 20292 52010,M
LSV,2024-09-01 05:55,-115.0343,36.2362,570.00,89.20,41.50,18.92,0.00,0.00,0.00,29.92,1010.00,10.00,M,CLR,M,M,M,M,M,M,M,M,M,M,M,M,M,M,85.50,KLSV 010555Z AUTO 00000KT 10SM CLR 32/05 A2992 RMK AO2 SLP100 T03180053 10397 20318 50001 $,M
EKO,2024-09-01 05:56,-115.7860,40.8242,1367.00,67.00,23.00,18.69,80.00,6.00,0.00,30.19,1016.50,10.00,M,CLR,M,M,M,M,M,M,M,M,M,M,M,M,M,M,67.00,KEKO 010556Z AUTO 08006KT 10SM CLR 19/M05 A3019 RMK AO2 SLP165 T01941050 10333 20172 51012,M
HND,2024-09-01 05:56,-115.1344,35.9729,742.79,82.00,52.00,35.41,230.00,5.00,0.00,30.01,1014.70,10.00,M,CLR,M,M,M,M,M,M,M,M,M,M,M,M,M,M,80.97,KHND 010556Z AUTO 23005KT 10SM CLR 28/11 A3001 RMK AO2 SLP147 60003 T02780111 10394 20267 50002,M
TPH,2024-09-01 05:56,-117.0904,38.0505,1654.00,71.00,38.00,29.96,50.00,3.00,0.00,30.25,1015.90,10.00,M,CLR,M,M,M,M,M,M,M,M,M,M,M,M,M,M,71.00,KTPH 010556Z AUTO 05003KT 10SM CLR 22/03 A3025 RMK AO2 SLP159 T02170033 10311 20217 50013,M
LAS,2024-09-01 05:56,-115.1634,36.0719,663.00,84.00,45.00,25.54,0.00,0.00,0.00,29.99,1012.40,10.00,M,FEW,FEW,M,M,11000.00,18000.00,M,M,M,M,M,M,M,M,M,81.61,KLAS 010556Z 00000KT 10SM FEW110 FEW180 29/07 A2999 RMK AO2 SLP124 T02890072 50002 $,M
NFL,2024-09-01 05:57,-118.7010,39.4166,1199.00,78.00,36.00,21.90,210.00,5.00,0.00,30.07,1015.20,10.00,M,CLR,M,M,M,M,M,M,M,M,M,M,M,M,M,M,78.00,KNFL 010557Z AUTO 21005KT 10SM CLR 26/02 A3007 RMK AO2 SLP152 T02560022 10361 20256 51006,M
05U,2024-09-01 06:10,-116.0051,39.6042,1811.23,66.20,35.60,32.14,0.00,0.00,0.00,30.28,M,10.00,M,BKN,M,M,M,12000.00,M,M,M,M,M,M,M,M,M,M,66.20,K05U 010610Z AUTO 00000KT 10SM BKN120 19/02 A3028 RMK A01,M
BVU,2024-09-01 06:15,-114.8611,35.9475,671.00,84.20,48.20,28.63,60.00,7.00,0.00,29.97,M,10.00,M,CLR,M,M,M,M,M,M,M,M,M,M,M,M,M,M,82.04,KBVU 010615Z AUTO 06007KT 10SM CLR 29/09 A2997 RMK AO2,M
CXP,2024-09-01 06:15,-119.7326,39.1923,1431.00,69.80,35.60,28.39,0.00,0.00,0.00,30.18,M,10.00,M,CLR,M,M,M,M,M,M,M,M,M,M,M,M,M,M,69.80,KCXP 010615Z AUTO 00000KT 10SM CLR 21/02 A3018 RMK AO2,M
RTS,2024-09-01 06:15,-119.8764,39.6682,1539.00,69.80,30.20,22.86,350.00,6.00,0.00,30.20,M,10.00,M,CLR,M,M,M,M,M,M,M,M,M,M,M,M,M,M,69.80,KRTS 010615Z AUTO 35006KT 10SM CLR 21/M01 A3020 RMK AO2,M
MEV,2024-09-01 06:15,-119.7500,38.9963,1441.42,64.40,35.60,34.22,30.00,3.00,0.00,30.17,M,10.00,M,FEW,FEW,M,M,4900.00,5500.00,M,M,M,M,M,M,M,M,M,64.40,KMEV 010615Z AUTO 03003KT 10SM FEW049 FEW055 18/02 A3017 RMK AO2,M
BAM,2024-09-01 06:15,-116.8743,40.5990,1382.36,66.20,24.80,20.72,140.00,3.00,0.00,30.14,M,10.00,M,CLR,M,M,M,M,M,M,M,M,M,M,M,M,M,M,66.20,KBAM 010615Z AUTO 14003KT 10SM CLR 19/M04 A3014 RMK AO1,M
HTH,2024-09-01 06:15,-118.6315,38.5448,1282.89,75.20,30.20,19.05,130.00,7.00,0.00,30.11,M,10.00,M,CLR,M,M,M,M,M,M,M,M,M,M,M,M,M,M,75.20,KHTH 010615Z AUTO 13007KT 10SM CLR 24/M01 A3011 RMK A01,M
TMT,2024-09-01 06:15,-117.1971,39.4643,1749.34,64.20,33.00,31.07,0.00,0.00,0.00,30.25,M,10.00,M,CLR,M,M,M,M,M,M,M,M,M,M,M,M,M,M,64.20,KTMT 010615Z AUTO 00000KT 10SM CLR 18/01 A3025 RMK AO2 T01790006,M
10U,2024-09-01 06:15,-116.1876,41.9532,1637.00,57.20,17.60,20.99,0.00,0.00,0.00,30.21,M,10.00,M,CLR,M,M,M,M,M,M,M,M,M,M,M,M,M,M,57.20,K10U 010615Z AUTO 00000KT 10SM CLR 14/M08 A3021 RMK AO2,M
05U,2024-09-01 06:30,-116.0051,39.6042,1811.23,66.20,32.00,27.83,0.00,0.00,0.00,30.28,M,10.00,M,SCT,M,M,M,12000.00,M,M,M,M,M,M,M,M,M,M,66.20,K05U 010630Z AUTO 00000KT 10SM SCT120 19/00 A3028 RMK A01,M
HTH,2024-09-01 06:30,-118.6315,38.5448,1282.89,73.40,28.40,18.80,110.00,7.00,0.00,30.11,M,10.00,M,CLR,M,M,M,M,M,M,M,M,M,M,M,M,M,M,73.40,KHTH 010630Z AUTO 11007KT 10SM CLR 23/M02 A3011 RMK A01,M
BVU,2024-09-01 06:35,-114.8611,35.9475,671.00,82.40,48.20,30.35,60.00,4.00,0.00,29.96,M,10.00,M,CLR,M,M,M,M,M,M,M,M,M,M,M,M,M,M,80.80,KBVU 010635Z AUTO 06004KT 10SM CLR 28/09 A2996 RMK AO2,M
CXP,2024-09-01 06:35,-119.7326,39.1923,1431.00,68.00,35.60,30.20,0.00,0.00,0.00,30.18,M,10.00,M,CLR,M,M,M,M,M,M,M,M,M,M,M,M,M,M,68.00,KCXP 010635Z AUTO 00000KT 10SM CLR 20/02 A3018 RMK AO2,M
RTS,2024-09-01 06:35,-119.8764,39.6682,1539.00,68.00,30.20,24.32,300.00,4.00,0.00,30.20,M,10.00,M,CLR,M,M,M,M,M,M,M,M,M,M,M,M,M,M,68.00,KRTS 010635Z AUTO 30004KT 10SM CLR 20/M01 A3020 RMK AO2,M
MEV,2024-09-01 06:35,-119.7500,38.9963,1441.42,62.60,35.60,36.45,100.00,5.00,0.00,30.17,M,10.00,M,FEW,FEW,M,M,4600.00,5000.00,M,M,M,M,M,M,M,M,M,62.60,KMEV 010635Z AUTO 10005KT 10SM FEW046 FEW050 17/02 A3017 RMK AO2,M
BAM,2024-09-01 06:35,-116.8743,40.5990,1382.36,68.00,26.60,20.98,0.00,0.00,0.00,30.14,M,10.00,M,CLR,M,M,M,M,M,M,M,M,M,M,M,M,M,M,68.00,KBAM 010635Z AUTO 00000KT 10SM CLR 20/M03 A3014 RMK AO1,M
TMT,2024-09-01 06:35,-117.1971,39.4643,1749.34,55.20,32.70,42.31,260.00,4.00,0.00,30.25,M,10.00,M,CLR,M,M,M,M,M,M,M,M,M,M,M,M,M,M,55.20,KTMT 010635Z AUTO 26004KT 10SM CLR 13/00 A3025 RMK AO2 T01290004,M
10U,2024-09-01 06:35,-116.1876,41.9532,1637.00,57.20,19.40,22.68,0.00,0.00,0.00,30.21,M,10.00,M,CLR,M,M,M,M,M,M,M,M,M,M,M,M,M,M,57.20,K10U 010635Z AUTO 00000KT 10SM CLR 14/M07 A3021 RMK AO2,M
05U,2024-09-01 06:50,-116.0051,39.6042,1811.23,62.60,35.60,36.45,0.00,0.00,0.00,30.28,M,10.00,M,SCT,M,M,M,12000.00,M,M,M,M,M,M,M,M,M,M,62.60,K05U 010650Z AUTO 00000KT 10SM SCT120 17/02 A3028 RMK A01,M
P68,2024-09-01 06:53,-116.0056,39.6014,1993.00,63.00,36.00,36.52,70.00,4.00,0.00,30.25,1015.40,M,M,M,M,M,M,M,M,M,M,M,M,M,M,M,M,M,63.00,KP68 010653Z AUTO 07004KT 17/02 A3025 RMK AO1 SLP154 T01720022,M
DRA,2024-09-01 06:53,-116.0278,36.6206,1009.00,83.00,42.00,23.51,10.00,5.00,0.00,30.05,1011.80,10.00,M,CLR,M,M,M,M,M,M,M,M,M,M,M,M,M,M,80.74,KDRA 010653Z AUTO 01005KT 10SM CLR 28/06 A3005 RMK AO2 SLP118 T02830056,M
ELY,2024-09-01 06:53,-114.8453,39.2950,1909.00,57.00,32.00,38.54,140.00,7.00,0.00,30.31,1015.90,10.00,M,CLR,M,M,M,M,M,M,M,M,M,M,M,M,M,M,57.00,KELY 010653Z AUTO 14007KT 10SM CLR 14/00 A3031 RMK AO2 SLP159 T01390000,M
VGT,2024-09-01 06:53,-115.1933,36.2111,667.00,89.00,48.00,24.39,280.00,5.00,0.00,29.97,1013.30,10.00,M,CLR,M,M,M,M,M,M,M,M,M,M,M,M,M,M,85.89,KVGT 010653Z AUTO 28005KT 10SM CLR 32/09 A2997 RMK AO2 SLP133 T03170089,M
LOL,2024-09-01 06:53,-118.5701,40.0684,1192.43,63.00,30.00,28.70,40.00,3.00,0.00,30.07,1014.10,10.00,M,CLR,M,M,M,M,M,M,M,M,M,M,M,M,M,M,63.00,KLOL 010653Z AUTO 04003KT 10SM CLR 17/M01 A3007 RMK AO2 SLP141 T01721011,M
BVU,2024-09-01 06:55,-114.8611,35.9475,671.00,84.20,46.40,26.76,20.00,5.00,0.00,29.97,M,10.00,M,CLR,M,M,M,M,M,M,M,M,M,M,M,M,M,M,81.87,KBVU 010655Z AUTO 02005KT 10SM CLR 29/08 A2997 RMK AO2,M
RNO,2024-09-01 06:55,-119.7711,39.4839,1341.00,70.00,44.00,39.11,0.00,0.00,0.00,30.14,1014.90,10.00,M,FEW,M,M,M,14000.00,M,M,M,M,M,M,M,M,M,M,70.00,KRNO 010655Z 00000KT 10SM FEW140 21/07 A3014 RMK AO2 SLP149 T02110067,M
BAM,2024-09-01 06:55,-116.8743,40.5990,1382.36,66.20,26.60,22.33,140.00,5.00,0.00,30.14,M,10.00,M,CLR,M,M,M,M,M,M,M,M,M,M,M,M,M,M,66.20,KBAM 010655Z AUTO 14005KT 10SM CLR 19/M03 A3014 RMK AO1,M
CXP,2024-09-01 06:55,-119.7326,39.1923,1431.00,66.20,35.60,32.14,0.00,0.00,0.00,30.18,M,10.00,M,CLR,M,M,M,M,M,M,M,M,M,M,M,M,M,M,66.20,KCXP 010655Z AUTO 00000KT 10SM CLR 19/02 A3018 RMK AO2,M
RTS,2024-09-01 06:55,-119.8764,39.6682,1539.00,64.40,30.20,27.55,310.00,6.00,0.00,30.19,M,10.00,M,CLR,M,M,M,M,M,M,M,M,M,M,M,M,M,M,64.40,KRTS 010655Z AUTO 31006KT 10SM CLR 18/M01 A3019 RMK AO2,M
MEV,2024-09-01 06:55,-119.7500,38.9963,1441.42,59.00,37.40,44.47,120.00,4.00,0.00,30.17,M,10.00,M,FEW,FEW,M,M,5000.00,6000.00,M,M,M,M,M,M,M,M,M,59.00,KMEV 010655Z AUTO 12004KT 10SM FEW050 FEW060 15/03 A3017 RMK AO2,M
HTH,2024-09-01 06:55,-118.6315,38.5448,1282.89,73.40,30.20,20.23,130.00,6.00,0.00,30.12,M,10.00,M,CLR,M,M,M,M,M,M,M,M,M,M,M,M,M,M,73.40,KHTH 010655Z AUTO 13006KT 10SM CLR 23/M01 A3012 RMK A01,M
TMT,2024-09-01 06:55,-117.1971,39.4643,1749.34,54.00,34.00,46.57,260.00,3.00,0.00,30.25,M,10.00,M,CLR,M,M,M,M,M,M,M,M,M,M,M,M,M,M,54.00,KTMT 010655Z AUTO 26003KT 10SM CLR 12/01 A3025 RMK AO2 T01230011,M
10U,2024-09-01 06:55,-116.1876,41.9532,1637.00,64.40,19.40,17.56,110.00,4.00,0.00,30.21,M,10.00,M,CLR,M,M,M,M,M,M,M,M,M,M,M,M,M,M,64.40,K10U 010655Z AUTO 11004KT 10SM CLR 18/M07 A3021 RMK AO2,M
INS,2024-09-01 06:55,-115.6733,36.5872,955.00,82.40,38.50,20.93,110.00,3.00,0.00,30.04,1011.10,10.00,M,SCT,M,M,M,17000.00,M,M,M,M,M,M,M,M,M,M,80.18,KINS 010655Z AUTO 11003KT 10SM SCT170 28/04 A3004 RMK AO2 SLP111 T02800036,M
LSV,2024-09-01 06:55,-115.0343,36.2362,570.00,86.00,41.50,20.94,60.00,7.00,0.00,29.92,1010.00,10.00,M,CLR,M,M,M,M,M,M,M,M,M,M,M,M,M,M,82.88,KLSV 010655Z AUTO 06007KT 10SM CLR 30/05 A2992 RMK AO2 SLP100 T03000053 $,M
EKO,2024-09-01 06:56,-115.7860,40.8242,1367.00,58.00,26.00,29.09,210.00,6.00,0.00,30.19,1016.90,10.00,M,CLR,M,M,M,M,M,M,M,M,M,M,M,M,M,M,58.00,KEKO 010656Z AUTO 21006KT 10SM CLR 14/M03 A3019 RMK AO2 SLP169 T01441033,M
HND,2024-09-01 06:56,-115.1344,35.9729,742.79,78.00,55.00,45.05,0.00,0.00,0.00,30.02,1015.00,10.00,M,CLR,M,M,M,M,M,M,M,M,M,M,M,M,M,M,78.00,KHND 010656Z AUTO 00000KT 10SM CLR 26/13 A3002 RMK AO2 SLP150 T02560128 404000256,M
TPH,2024-09-01 06:56,-117.0904,38.0505,1654.00,65.00,36.00,34.05,230.00,4.00,0.00,30.25,1016.50,10.00,M,CLR,M,M,M,M,M,M,M,M,M,M,M,M,M,M,65.00,KTPH 010656Z AUTO 23004KT 10SM CLR 18/02 A3025 RMK AO2 SLP165 T01830022,M
LAS,2024-09-01 06:56,-115.1634,36.0719,663.00,84.00,45.00,25.54,160.00,5.00,0.00,29.99,1012.50,10.00,M,FEW,M,M,M,13000.00,M,M,M,M,M,M,M,M,M,M,81.61,KLAS 010656Z 16005KT 10SM FEW130 29/07 A2999 RMK AO2 SLP125 T02890072 $,M
NFL,2024-09-01 06:57,-118.7010,39.4166,1199.00,71.00,36.00,27.69,0.00,0.00,0.00,30.07,1015.00,10.00,M,CLR,M,M,M,M,M,M,M,M,M,M,M,M,M,M,71.00,KNFL 010657Z AUTO 00000KT 10SM CLR 22/02 A3007 RMK AO2 SLP150 T02170022,M
05U,2024-09-01 07:10,-116.0051,39.6042,1811.23,62.60,32.00,31.56,0.00,0.00,0.00,30.28,M,10.00,M,FEW,M,M,M,12000.00,M,M,M,M,M,M,M,M,M,M,62.60,K05U 010710Z AUTO 00000KT 10SM FEW120 17/00 A3028 RMK A01,M
BVU,2024-09-01 07:15,-114.8611,35.9475,671.00,84.20,46.40,26.76,40.00,5.00,0.00,29.97,M,10.00,M,CLR,M,M,M,M,M,M,M,M,M,M,M,M,M,M,81.87,KBVU 010715Z AUTO 04005KT 10SM CLR 29/08 A2997 RMK AO2,M
CXP,2024-09-01 07:15,-119.7326,39.1923,1431.00,64.40,35.60,34.22,0.00,0.00,0.00,30.18,M,10.00,M,CLR,M,M,M,M,M,M,M,M,M,M,M,M,M,M,64.40,KCXP 010715Z AUTO 00000KT 10SM CLR 18/02 A3018 RMK AO2,M
RTS,2024-09-01 07:15,-119.8764,39.6682,1539.00,66.20,30.20,25.88,340.00,5.00,0.00,30.20,M,10.00,M,CLR,M,M,M,M,M,M,M,M,M,M,M,M,M,M,66.20,KRTS 010715Z AUTO 34005KT 10SM CLR 19/M01 A3020 RMK AO2,M
MEV,2024-09-01 07:15,-119.7500,38.9963,1441.42,59.00,35.60,41.42,140.00,7.00,0.00,30.16,M,10.00,M,FEW,FEW,FEW,M,3800.00,4900.00,5500.00,M,M,M,M,M,M,M,M,59.00,KMEV 010715Z AUTO 14007KT 10SM FEW038 FEW049 FEW055 15/02 A3016 RMK AO2,M
BAM,2024-09-01 07:15,-116.8743,40.5990,1382.36,64.40,26.60,23.77,150.00,4.00,0.00,30.14,M,10.00,M,CLR,M,M,M,M,M,M,M,M,M,M,M,M,M,M,64.40,KBAM 010715Z AUTO 15004KT 10SM CLR 18/M03 A3014 RMK AO1,M
HTH,2024-09-01 07:15,-118.6315,38.5448,1282.89,75.20,30.20,19.05,190.00,7.00,0.00,30.12,M,10.00,M,CLR,M,M,M,M,M,M,M,M,M,M,M,M,M,M,75.20,KHTH 010715Z AUTO 19007KT 10SM CLR 24/M01 A3012 RMK A01,M
TMT,2024-09-01 07:15,-117.1971,39.4643,1749.34,51.30,32.00,47.46,0.00,0.00,0.00,30.26,M,10.00,M,CLR,M,M,M,M,M,M,M,M,M,M,M,M,M,M,51.30,KTMT 010715Z AUTO 00000KT 10SM CLR 11/00 A3026 RMK AO2 T01071001,M
10U,2024-09-01 07:15,-116.1876,41.9532,1637.00,62.60,19.40,18.71,110.00,7.00,0.00,30.20,M,10.00,M,CLR,M,M,M,M,M,M,M,M,M,M,M,M,M,M,62.60,K10U 010715Z AUTO 11007KT 10SM CLR 17/M07 A3020 RMK AO2,M
05U,2024-09-01 07:30,-116.0051,39.6042,1811.23,60.80,32.00,33.64,0.00,0.00,0.00,30.28,M,10.00,M,CLR,M,M,M,M,M,M,M,M,M,M,M,M,M,M,60.80,K05U 010730Z AUTO 00000KT 10SM CLR 16/00 A3028 RMK A01,M
BVU,2024-09-01 07:35,-114.8611,35.9475,671.00,82.40,46.40,28.36,0.00,0.00,0.00,29.98,M,10.00,M,CLR,M,M,M,M,M,M,M,M,M,M,M,M,M,M,80.64,KBVU 010735Z AUTO 00000KT 10SM CLR 28/08 A2998 RMK AO2,M
BAM,2024-09-01 07:35,-116.8743,40.5990,1382.36,59.00,24.80,26.70,60.00,7.00,0.00,30.15,M,10.00,M,CLR,M,M,M,M,M,M,M,M,M,M,M,M,M,M,59.00,KBAM 010735Z AUTO 06007KT 10SM CLR 15/M04 A3015 RMK AO1,M
CXP,2024-09-01 07:35,-119.7326,39.1923,1431.00,64.40,35.60,34.22,0.00,0.00,0.00,30.18,M,10.00,M,CLR,M,M,M,M,M,M,M,M,M,M,M,M,M,M,64.40,KCXP 010735Z AUTO 00000KT 10SM CLR 18/02 A3018 RMK AO2,M
RTS,2024-09-01 07:35,-119.8764,39.6682,1539.00,64.40,30.20,27.55,340.00,7.00,0.00,30.19,M,10.00,M,CLR,M,M,M,M,M,M,M,M,M,M,M,M,M,M,64.40,KRTS 010735Z AUTO 34007KT 10SM CLR 18/M01 A3019 RMK AO2,M
MEV,2024-09-01 07:35,-119.7500,38.9963,1441.42,57.20,37.40,47.44,110.00,5.00,0.00,30.17,M,10.00,M,FEW,FEW,M,M,5500.00,7000.00,M,M,M,M,M,M,M,M,M,57.20,KMEV 010735Z AUTO 11005KT 10SM FEW055 FEW070 14/03 A3017 RMK AO2,M
HTH,2024-09-01 07:35,-118.6315,38.5448,1282.89,75.20,30.20,19.05,0.00,0.00,0.00,30.12,M,10.00,M,CLR,M,M,M,M,M,M,M,M,M,M,M,M,M,M,75.20,KHTH 010735Z AUTO 00000KT 10SM CLR 24/M01 A3012 RMK A01,M
TMT,2024-09-01 07:35,-117.1971,39.4643,1749.34,56.50,32.00,39.24,0.00,0.00,0.00,30.27,M,10.00,M,CLR,M,M,M,M,M,M,M,M,M,M,M,M,M,M,56.50,KTMT 010735Z AUTO 00000KT 10SM CLR 14/00 A3027 RMK AO2 T01360001,M
10U,2024-09-01 07:35,-116.1876,41.9532,1637.00,62.60,21.20,20.20,100.00,8.00,0.00,30.20,M,10.00,M,CLR,M,M,M,M,M,M,M,M,M,M,M,M,M,M,62.60,K10U 010735Z AUTO 10008KT 10SM CLR 17/M06 A3020 RMK AO2,M
05U,2024-09-01 07:50,-116.0051,39.6042,1811.23,59.00,32.00,35.87,0.00,0.00,0.00,30.28,M,10.00,M,CLR,M,M,M,M,M,M,M,M,M,M,M,M,M,M,59.00,K05U 010750Z AUTO 00000KT 10SM CLR 15/M00 A3028 RMK A01,M
P68,2024-09-01 07:53,-116.0056,39.6014,1993.00,60.00,33.00,36.03,0.00,0.00,0.00,30.26,1015.80,M,M,M,M,M,M,M,M,M,M,M,M,M,M,M,M,M,60.00,KP68 010753Z AUTO 00000KT 16/01 A3026 RMK AO1 SLP158 T01560006 403170078,M
DRA,2024-09-01 07:53,-116.0278,36.6206,1009.00,80.00,41.00,24.94,120.00,3.00,0.00,30.05,1011.80,10.00,M,CLR,M,M,M,M,M,M,M,M,M,M,M,M,M,M,78.87,KDRA 010753Z AUTO 12003KT 10SM CLR 27/05 A3005 RMK AO2 SLP118 T02670050 403830211,M
ELY,2024-09-01 07:53,-114.8453,39.2950,1909.00,53.00,32.00,44.58,170.00,8.00,0.00,30.31,1016.20,10.00,M,CLR,M,M,M,M,M,M,M,M,M,M,M,M,M,M,53.00,KELY 010753Z AUTO 17008KT 10SM CLR 12/00 A3031 RMK AO2 SLP162 T01170000 403170050,M
VGT,2024-09-01 07:53,-115.1933,36.2111,667.00,87.00,47.00,25.02,50.00,3.00,0.00,29.98,1013.50,10.00,M,CLR,M,M,M,M,M,M,M,M,M,M,M,M,M,M,84.08,KVGT 010753Z AUTO 05003KT 10SM CLR 31/08 A2998 RMK AO2 SLP135 T03060083 404110289,M
LOL,2024-09-01 07:53,-118.5701,40.0684,1192.43,61.00,34.00,36.19,110.00,4.00,0.00,30.07,1014.20,10.00,M,CLR,M,M,M,M,M,M,M,M,M,M,M,M,M,M,61.00,KLOL 010753Z AUTO 11004KT 10SM CLR 16/01 A3007 RMK AO2 SLP142 T01610011 403560050,M
BVU,2024-09-01 07:55,-114.8611,35.9475,671.00,80.60,48.20,32.18,30.00,4.00,0.00,29.97,M,10.00,M,CLR,M,M,M,M,M,M,M,M,M,M,M,M,M,M,79.71,KBVU 010755Z AUTO 03004KT 10SM CLR 27/09 A2997 RMK AO2,M
RNO,2024-09-01 07:55,-119.7711,39.4839,1341.00,69.00,44.00,40.47,140.00,3.00,0.00,30.15,1014.70,10.00,M,CLR,M,M,M,M,M,M,M,M,M,M,M,M,M,M,69.00,KRNO 010755Z 14003KT 10SM CLR 21/07 A3015 RMK AO2 SLP147 T02060067 403500139,M
BAM,2024-09-01 07:55,-116.8743,40.5990,1382.36,60.80,28.40,29.06,60.00,5.00,0.00,30.15,M,10.00,M,CLR,M,M,M,M,M,M,M,M,M,M,M,M,M,M,60.80,KBAM 010755Z AUTO 06005KT 10SM CLR 16/M02 A3015 RMK AO1,M
CXP,2024-09-01 07:55,-119.7326,39.1923,1431.00,62.60,33.80,33.93,320.00,3.00,0.00,30.18,M,10.00,M,CLR,M,M,M,M,M,M,M,M,M,M,M,M,M,M,62.60,KCXP 010755Z AUTO 32003KT 10SM CLR 17/01 A3018 RMK AO2,M
RTS,2024-09-01 07:55,-119.8764,39.6682,1539.00,60.80,28.40,29.06,360.00,6.00,0.00,30.19,M,10.00,M,CLR,M,M,M,M,M,M,M,M,M,M,M,M,M,M,60.80,KRTS 010755Z AUTO 36006KT 10SM CLR 16/M02 A3019 RMK AO2,M
MEV,2024-09-01 07:55,-119.7500,38.9963,1441.42,55.40,33.80,43.90,120.00,3.00,0.00,30.17,M,10.00,M,SCT,M,M,M,5500.00,M,M,M,M,M,M,M,M,M,M,55.40,KMEV 010755Z AUTO 12003KT 10SM SCT055 13/01 A3017 RMK AO2,M
HTH,2024-09-01 07:55,-118.6315,38.5448,1282.89,73.40,32.00,21.76,160.00,7.00,0.00,30.13,M,10.00,M,CLR,M,M,M,M,M,M,M,M,M,M,M,M,M,M,73.40,KHTH 010755Z AUTO 16007KT 10SM CLR 23/M00 A3013 RMK A01,M
TMT,2024-09-01 07:55,-117.1971,39.4643,1749.34,53.60,32.00,43.61,180.00,5.00,0.00,30.27,M,10.00,M,CLR,M,M,M,M,M,M,M,M,M,M,M,M,M,M,53.60,KTMT 010755Z AUTO 18005KT 10SM CLR 12/00 A3027 RMK AO2 T01200000 403150007,M
10U,2024-09-01 07:55,-116.1876,41.9532,1637.00,53.60,21.20,27.91,50.00,5.00,0.00,30.20,M,10.00,M,CLR,M,M,M,M,M,M,M,M,M,M,M,M,M,M,53.60,K10U 010755Z AUTO 05005KT 10SM CLR 12/M06 A3020 RMK AO2,M
INS,2024-09-01 07:55,-115.6733,36.5872,955.00,76.60,37.00,23.87,270.00,6.00,0.00,30.05,1011.70,10.00,M,CLR,M,M,M,M,M,M,M,M,M,M,M,M,M,M,76.60,KINS 010755Z AUTO 27006KT 10SM CLR 25/03 A3005 RMK AO2 SLP117 T02480028 403670225,M
LSV,2024-09-01 07:55,-115.0343,36.2362,570.00,87.00,42.30,20.92,10.00,6.00,0.00,29.93,1010.30,10.00,M,CLR,M,M,M,M,M,M,M,M,M,M,M,M,M,M,83.72,KLSV 010755Z AUTO 01006KT 10SM CLR 31/06 A2993 RMK AO2 SLP103 T03050057 404060278 $,M
EKO,2024-09-01 07:56,-115.7860,40.8242,1367.00,57.00,23.00,26.61,0.00,0.00,0.00,30.19,1016.80,10.00,M,CLR,M,M,M,M,M,M,M,M,M,M,M,M,M,M,57.00,KEKO 010756Z AUTO 00000KT 10SM CLR 14/M05 A3019 RMK AO2 SLP168 T01391050 403440061,M
HND,2024-09-01 07:56,-115.1344,35.9729,742.79,76.00,56.00,49.92,190.00,5.00,0.00,30.02,1015.20,10.00,M,CLR,M,M,M,M,M,M,M,M,M,M,M,M,M,M,76.00,KHND 010756Z AUTO 19005KT 10SM CLR 24/13 A3002 RMK AO2 SLP152 T02440133,M
TPH,2024-09-01 07:56,-117.0904,38.0505,1654.00,64.00,35.00,33.89,330.00,5.00,0.00,30.24,1015.90,10.00,M,CLR,M,M,M,M,M,M,M,M,M,M,M,M,M,M,64.00,KTPH 010756Z AUTO 33005KT 10SM CLR 18/02 A3024 RMK AO2 SLP159 T01780017 403280156,M
LAS,2024-09-01 07:56,-115.1634,36.0719,663.00,84.00,47.00,27.55,220.00,6.00,0.00,29.99,1012.40,10.00,M,FEW,M,M,M,13000.00,M,M,M,M,M,M,M,M,M,M,81.78,KLAS 010756Z 22006KT 10SM FEW130 29/09 A2999 RMK AO2 SLP124 T02890083 $,M
NFL,2024-09-01 07:57,-118.7010,39.4166,1199.00,74.00,37.00,26.03,180.00,4.00,0.00,30.09,1015.70,10.00,M,CLR,M,M,M,M,M,M,M,M,M,M,M,M,M,M,74.00,KNFL 010757Z AUTO 18004KT 10SM CLR 23/03 A3009 RMK AO2 SLP157 T02330028 403670117,M
05U,2024-09-01 08:10,-116.0051,39.6042,1811.23,59.00,32.00,35.87,0.00,0.00,0.00,30.29,M,10.00,M,CLR,M,M,M,M,M,M,M,M,M,M,M,M,M,M,59.00,K05U 010810Z AUTO 00000KT 10SM CLR 15/M00 A3029 RMK A01,M
BVU,2024-09-01 08:15,-114.8611,35.9475,671.00,80.60,46.40,30.07,340.00,5.00,0.00,29.97,M,10.00,M,CLR,M,M,M,M,M,M,M,M,M,M,M,M,M,M,79.56,KBVU 010815Z AUTO 34005KT 10SM CLR 27/08 A2997 RMK AO2,M
BAM,2024-09-01 08:15,-116.8743,40.5990,1382.36,64.40,26.60,23.77,0.00,0.00,0.00,30.15,M,10.00,M,CLR,M,M,M,M,M,M,M,M,M,M,M,M,M,M,64.40,KBAM 010815Z AUTO 00000KT 10SM CLR 18/M03 A3015 RMK AO1,M
CXP,2024-09-01 08:15,-119.7326,39.1923,1431.00,64.40,33.80,31.85,0.00,0.00,0.00,30.17,M,10.00,M,CLR,M,M,M,M,M,M,M,M,M,M,M,M,M,M,64.40,KCXP 010815Z AUTO 00000KT 10SM CLR 18/01 A3017 RMK AO2,M
RTS,2024-09-01 08:15,-119.8764,39.6682,1539.00,60.80,28.40,29.06,350.00,8.00,0.00,30.19,M,10.00,M,CLR,M,M,M,M,M,M,M,M,M,M,M,M,M,M,60.80,KRTS 010815Z AUTO 35008KT 10SM CLR 16/M02 A3019 RMK AO2,M
MEV,2024-09-01 08:15,-119.7500,38.9963,1441.42,57.20,37.40,47.44,0.00,0.00,0.00,30.16,M,10.00,M,FEW,M,M,M,5000.00,M,M,M,M,M,M,M,M,M,M,57.20,KMEV 010815Z AUTO 00000KT 10SM FEW050 14/03 A3016 RMK AO2,M
HTH,2024-09-01 08:15,-118.6315,38.5448,1282.89,75.20,32.00,20.49,170.00,9.00,0.00,30.12,M,10.00,M,CLR,M,M,M,M,M,M,M,M,M,M,M,M,M,M,75.20,KHTH 010815Z AUTO 17009KT 10SM CLR 24/00 A3012 RMK A01,M
TMT,2024-09-01 08:15,-117.1971,39.4643,1749.34,50.00,32.00,49.81,0.00,0.00,0.00,30.26,M,10.00,M,CLR,M,M,M,M,M,M,M,M,M,M,M,M,M,M,50.00,KTMT 010815Z AUTO 00000KT 10SM CLR 10/00 A3026 RMK AO2 T01000000,M
10U,2024-09-01 08:15,-116.1876,41.9532,1637.00,51.80,21.20,29.82,40.00,4.00,0.00,30.20,M,10.00,M,CLR,M,M,M,M,M,M,M,M,M,M,M,M,M,M,51.80,K10U 010815Z AUTO 04004KT 10SM CLR 11/M06 A3020 RMK AO2,M
05U,2024-09-01 08:30,-116.0051,39.6042,1811.23,59.00,35.60,41.42,0.00,0.00,0.00,30.28,M,10.00,M,CLR,M,M,M,M,M,M,M,M,M,M,M,M,M,M,59.00,K05U 010830Z AUTO 00000KT 10SM CLR 15/02 A3028 RMK A01,M
BVU,2024-09-01 08:35,-114.8611,35.9475,671.00,78.80,50.00,36.51,350.00,5.00,0.00,29.96,M,10.00,M,CLR,M,M,M,M,M,M,M,M,M,M,M,M,M,M,78.80,KBVU 010835Z AUTO 35005KT 10SM CLR 26/10 A2996 RMK AO2,M
CXP,2024-09-01 08:35,-119.7326,39.1923,1431.00,64.40,33.80,31.85,0.00,0.00,0.00,30.17,M,10.00,M,CLR,M,M,M,M,M,M,M,M,M,M,M,M,M,M,64.40,KCXP 010835Z AUTO 00000KT 10SM CLR 18/01 A3017 RMK AO2,M
RTS,2024-09-01 08:35,-119.8764,39.6682,1539.00,60.80,28.40,29.06,10.00,5.00,0.00,30.18,M,10.00,M,CLR,M,M,M,M,M,M,M,M,M,M,M,M,M,M,60.80,KRTS 010835Z AUTO 01005KT 10SM CLR 16/M02 A3018 RMK AO2,M
MEV,2024-09-01 08:35,-119.7500,38.9963,1441.42,57.20,33.80,41.13,130.00,4.00,0.00,30.16,M,10.00,M,SCT,SCT,M,M,5000.00,6000.00,M,M,M,M,M,M,M,M,M,57.20,KMEV 010835Z AUTO 13004KT 10SM SCT050 SCT060 14/01 A3016 RMK AO2,M
BAM,2024-09-01 08:35,-116.8743,40.5990,1382.36,64.40,26.60,23.77,50.00,3.00,0.00,30.15,M,10.00,M,CLR,M,M,M,M,M,M,M,M,M,M,M,M,M,M,64.40,KBAM 010835Z AUTO 05003KT 10SM CLR 18/M03 A3015 RMK AO1,M
HTH,2024-09-01 08:35,-118.6315,38.5448,1282.89,75.20,33.80,22.02,140.00,10.00,0.00,30.11,M,10.00,M,CLR,M,M,M,M,M,M,M,M,M,M,M,M,M,M,75.20,KHTH 010835Z AUTO 14010KT 10SM CLR 24/01 A3011 RMK A01,M
TMT,2024-09-01 08:35,-117.1971,39.4643,1749.34,51.60,32.00,46.94,0.00,0.00,0.00,30.26,M,10.00,M,CLR,M,M,M,M,M,M,M,M,M,M,M,M,M,M,51.60,KTMT 010835Z AUTO 00000KT 10SM CLR 11/00 A3026 RMK AO2 T01090001,M
10U,2024-09-01 08:35,-116.1876,41.9532,1637.00,50.00,19.40,29.52,0.00,0.00,0.00,30.20,M,10.00,M,CLR,M,M,M,M,M,M,M,M,M,M,M,M,M,M,50.00,K10U 010835Z AUTO 00000KT 10SM CLR 10/M07 A3020 RMK AO2,M
05U,2024-09-01 08:50,-116.0051,39.6042,1811.23,57.20,32.00,38.26,0.00,0.00,0.00,30.28,M,10.00,M,CLR,M,M,M,M,M,M,M,M,M,M,M,M,M,M,57.20,K05U 010850Z AUTO 00000KT 10SM CLR 14/00 A3028 RMK A01,M
P68,2024-09-01 08:53,-116.0056,39.6014,1993.00,56.00,34.00,43.30,M,M,0.00,30.25,1015.70,M,M,M,M,M,M,M,M,M,M,M,M,M,M,M,M,M,56.00,KP68 010853Z AUTO 13/01 A3025 RMK AO1 SLP157 T01330011 58000,M
DRA,2024-09-01 08:53,-116.0278,36.6206,1009.00,79.00,41.00,25.78,70.00,5.00,0.00,30.05,1011.90,10.00,M,CLR,M,M,M,M,M,M,M,M,M,M,M,M,M,M,79.00,KDRA 010853Z AUTO 07005KT 10SM CLR 26/05 A3005 RMK AO2 SLP119 T02610050 55001,M
ELY,2024-09-01 08:53,-114.8453,39.2950,1909.00,50.00,31.00,47.83,160.00,6.00,0.00,30.32,1016.60,10.00,M,CLR,M,M,M,M,M,M,M,M,M,M,M,M,M,M,50.00,KELY 010853Z AUTO 16006KT 10SM CLR 10/M01 A3032 RMK AO2 SLP166 T01001006 51003,M
VGT,2024-09-01 08:53,-115.1933,36.2111,667.00,86.00,48.00,26.82,300.00,4.00,0.00,29.98,1013.60,10.00,M,CLR,M,M,M,M,M,M,M,M,M,M,M,M,M,M,83.38,KVGT 010853Z AUTO 30004KT 10SM CLR 30/09 A2998 RMK AO2 SLP136 T03000089 53001,M
LOL,2024-09-01 08:53,-118.5701,40.0684,1192.43,56.00,29.00,35.38,280.00,3.00,0.00,30.07,1014.50,10.00,M,CLR,M,M,M,M,M,M,M,M,M,M,M,M,M,M,56.00,KLOL 010853Z AUTO 28003KT 10SM CLR 13/M02 A3007 RMK AO2 SLP145 T01331017 53002,M
BVU,2024-09-01 08:55,-114.8611,35.9475,671.00,78.80,48.20,34.13,360.00,6.00,0.00,29.96,M,10.00,M,CLR,M,M,M,M,M,M,M,M,M,M,M,M,M,M,78.80,KBVU 010855Z AUTO 36006KT 10SM CLR 26/09 A2996 RMK AO2,M
RNO,2024-09-01 08:55,-119.7711,39.4839,1341.00,67.00,44.00,43.35,0.00,0.00,0.00,30.14,1014.40,10.00,M,CLR,M,M,M,M,M,M,M,M,M,M,M,M,M,M,67.00,KRNO 010855Z 00000KT 10SM CLR 19/07 A3014 RMK AO2 SLP144 T01940067 58001,M
CXP,2024-09-01 08:55,-119.7326,39.1923,1431.00,60.80,33.80,36.16,0.00,0.00,0.00,30.18,M,10.00,M,CLR,M,M,M,M,M,M,M,M,M,M,M,M,M,M,60.80,KCXP 010855Z AUTO 00000KT 10SM CLR 16/01 A3018 RMK AO2,M
RTS,2024-09-01 08:55,-119.8764,39.6682,1539.00,60.80,28.40,29.06,330.00,3.00,0.00,30.18,M,10.00,M,CLR,M,M,M,M,M,M,M,M,M,M,M,M,M,M,60.80,KRTS 010855Z AUTO 33003KT 10SM CLR 16/M02 A3018 RMK AO2,M
MEV,2024-09-01 08:55,-119.7500,38.9963,1441.42,53.60,35.60,50.36,100.00,3.00,0.00,30.16,M,10.00,M,SCT,SCT,M,M,5000.00,6000.00,M,M,M,M,M,M,M,M,M,53.60,KMEV 010855Z AUTO 10003KT 10SM SCT050 SCT060 12/02 A3016 RMK AO2,M
BAM,2024-09-01 08:55,-116.8743,40.5990,1382.36,62.60,28.40,27.27,70.00,5.00,0.00,30.15,M,10.00,M,CLR,M,M,M,M,M,M,M,M,M,M,M,M,M,M,62.60,KBAM 010855Z AUTO 07005KT 10SM CLR 17/M02 A3015 RMK AO1,M
HTH,2024-09-01 08:55,-118.6315,38.5448,1282.89,77.00,35.60,22.28,120.00,10.00,0.00,30.11,M,10.00,M,CLR,M,M,M,M,M,M,M,M,M,M,M,M,M,M,77.00,KHTH 010855Z AUTO 12010KT 10SM CLR 25/02 A3011 RMK A01,M
TMT,2024-09-01 08:55,-117.1971,39.4643,1749.34,48.20,32.00,53.27,330.00,8.00,0.00,30.26,M,10.00,M,CLR,M,M,M,M,M,M,M,M,M,M,M,M,M,M,44.07,KTMT 010855Z AUTO 33008KT 10SM CLR 09/00 A3026 RMK AO2 T00900001,M
10U,2024-09-01 08:55,-116.1876,41.9532,1637.00,53.60,21.20,27.91,M,3.00,0.00,30.20,M,10.00,M,CLR,M,M,M,M,M,M,M,M,M,M,M,M,M,M,53.60,K10U 010855Z AUTO VRB03KT 10SM CLR 12/M06 A3020 RMK AO2,M
INS,2024-09-01 08:55,-115.6733,36.5872,955.00,74.30,35.20,24.00,0.00,0.00,0.00,30.05,1011.70,10.00,M,CLR,M,M,M,M,M,M,M,M,M,M,M,M,M,M,74.30,KINS 010855Z AUTO 00000KT 10SM CLR 24/02 A3005 RMK AO2 SLP117 T02350018 55000,M
LSV,2024-09-01 08:55,-115.0343,36.2362,570.00,85.60,41.00,20.81,0.00,0.00,0.00,29.92,1010.00,10.00,M,CLR,M,M,M,M,M,M,M,M,M,M,M,M,M,M,82.55,KLSV 010855Z AUTO 00000KT 10SM CLR 30/05 A2992 RMK AO2 SLP100 T02980051 50002 $,M
EKO,2024-09-01 08:56,-115.7860,40.8242,1367.00,56.00,24.00,28.77,80.00,3.00,0.00,30.20,1016.90,10.00,M,CLR,M,M,M,M,M,M,M,M,M,M,M,M,M,M,56.00,KEKO 010856Z AUTO 08003KT 10SM CLR 13/M04 A3020 RMK AO2 SLP169 T01331044 52003,M
HND,2024-09-01 08:56,-115.1344,35.9729,742.79,76.00,52.00,43.13,190.00,5.00,0.00,30.02,1014.80,10.00,M,CLR,M,M,M,M,M,M,M,M,M,M,M,M,M,M,76.00,KHND 010856Z AUTO 19005KT 10SM CLR 24/11 A3002 RMK AO2 SLP148 T02440111 50001,M
TPH,2024-09-01 08:56,-117.0904,38.0505,1654.00,62.00,36.00,37.83,340.00,6.00,0.00,30.23,1015.70,10.00,M,CLR,M,M,M,M,M,M,M,M,M,M,M,M,M,M,62.00,KTPH 010856Z AUTO 34006KT 10SM CLR 17/02 A3023 RMK AO2 SLP157 T01670022 58004,M
LAS,2024-09-01 08:56,-115.1634,36.0719,663.00,84.00,46.00,26.52,300.00,6.00,0.00,29.99,1012.30,10.00,M,FEW,M,M,M,13000.00,M,M,M,M,M,M,M,M,M,M,81.69,KLAS 010856Z 30006KT 10SM FEW130 29/08 A2999 RMK AO2 SLP123 T02890078 50001 $,M
NFL,2024-09-01 08:57,-118.7010,39.4166,1199.00,70.00,38.00,31.00,240.00,8.00,0.00,30.08,1015.20,10.00,M,CLR,M,M,M,M,M,M,M,M,M,M,M,M,M,M,70.00,KNFL 010857Z AUTO 24008KT 10SM CLR 21/03 A3008 RMK AO2 SLP152 T02110033 50000,M
05U,2024-09-01 09:10,-116.0051,39.6042,1811.23,57.20,32.00,38.26,0.00,0.00,0.00,30.28,M,10.00,M,FEW,M,M,M,11000.00,M,M,M,M,M,M,M,M,M,M,57.20,K05U 010910Z AUTO 00000KT 10SM FEW110 14/00 A3028 RMK A01,M
BVU,2024-09-01 09:15,-114.8611,35.9475,671.00,80.60,46.40,30.07,360.00,7.00,0.00,29.95,M,10.00,M,CLR,M,M,M,M,M,M,M,M,M,M,M,M,M,M,79.56,KBVU 010915Z AUTO 36007KT 10SM CLR 27/08 A2995 RMK AO2,M
CXP,2024-09-01 09:15,-119.7326,39.1923,1431.00,64.40,33.80,31.85,300.00,5.00,0.00,30.18,M,10.00,M,CLR,M,M,M,M,M,M,M,M,M,M,M,M,M,M,64.40,KCXP 010915Z AUTO 30005KT 10SM CLR 18/01 A3018 RMK AO2,M
RTS,2024-09-01 09:15,-119.8764,39.6682,1539.00,62.60,28.40,27.27,0.00,0.00,0.00,30.19,M,10.00,M,CLR,M,M,M,M,M,M,M,M,M,M,M,M,M,M,62.60,KRTS 010915Z AUTO 00000KT 10SM CLR 17/M02 A3019 RMK AO2,M
MEV,2024-09-01 09:15,-119.7500,38.9963,1441.42,53.60,37.40,54.07,100.00,4.00,0.00,30.16,M,10.00,M,FEW,SCT,SCT,M,5000.00,6000.00,7000.00,M,M,M,M,M,M,M,M,53.60,KMEV 010915Z AUTO 10004KT 10SM FEW050 SCT060 SCT070 12/03 A3016 RMK AO2,M
BAM,2024-09-01 09:15,-116.8743,40.5990,1382.36,60.80,26.60,26.98,110.00,4.00,0.00,30.15,M,10.00,M,CLR,M,M,M,M,M,M,M,M,M,M,M,M,M,M,60.80,KBAM 010915Z AUTO 11004KT 10SM CLR 16/M03 A3015 RMK AO1,M
HTH,2024-09-01 09:15,-118.6315,38.5448,1282.89,75.20,35.60,23.66,130.00,7.00,0.00,30.11,M,10.00,M,CLR,M,M,M,M,M,M,M,M,M,M,M,M,M,M,75.20,KHTH 010915Z AUTO 13007KT 10SM CLR 24/02 A3011 RMK A01,M
TMT,2024-09-01 09:15,-117.1971,39.4643,1749.34,50.00,32.00,49.81,320.00,6.00,0.00,30.25,M,10.00,M,CLR,M,M,M,M,M,M,M,M,M,M,M,M,M,M,50.00,KTMT 010915Z AUTO 32006KT 10SM CLR 10/00 A3025 RMK AO2 T01010000,M
10U,2024-09-01 09:15,-116.1876,41.9532,1637.00,57.20,21.20,24.49,100.00,8.00,0.00,30.20,M,10.00,M,CLR,M,M,M,M,M,M,M,M,M,M,M,M,M,M,57.20,K10U 010915Z AUTO 10008KT 10SM CLR 14/M06 A3020 RMK AO2,M
MEV,2024-09-01 09:20,-119.7500,38.9963,1441.42,53.60,37.40,54.07,90.00,5.00,0.00,30.16,M,10.00,M,FEW,SCT,M,M,5500.00,7000.00,M,M,M,M,M,M,M,M,M,53.60,KMEV 010920Z AUTO 09005KT 10SM FEW055 SCT070 12/03 A3016 RMK AO2,M
RTS,2024-09-01 09:30,-119.8764,39.6682,1539.00,60.80,28.40,29.06,360.00,4.00,0.00,30.19,M,10.00,M,CLR,M,M,M,M,M,M,M,M,M,M,M,M,M,M,60.80,KRTS 010930Z AUTO 36004KT 10SM CLR 16/M02 A3019 RMK AO2,M
05U,2024-09-01 09:30,-116.0051,39.6042,1811.23,57.20,32.00,38.26,0.00,0.00,0.00,30.28,M,10.00,M,SCT,M,M,M,11000.00,M,M,M,M,M,M,M,M,M,M,57.20,K05U 010930Z AUTO 00000KT 10SM SCT110 14/00 A3028 RMK A01,M
BVU,2024-09-01 09:35,-114.8611,35.9475,671.00,78.80,48.20,34.13,130.00,4.00,0.00,29.96,M,10.00,M,CLR,M,M,M,M,M,M,M,M,M,M,M,M,M,M,78.80,KBVU 010935Z AUTO 13004KT 10SM CLR 26/09 A2996 RMK AO2,M
CXP,2024-09-01 09:35,-119.7326,39.1923,1431.00,66.20,33.80,29.92,0.00,0.00,0.00,30.17,M,10.00,M,CLR,M,M,M,M,M,M,M,M,M,M,M,M,M,M,66.20,KCXP 010935Z AUTO 00000KT 10SM CLR 19/01 A3017 RMK AO2,M
BAM,2024-09-01 09:35,-116.8743,40.5990,1382.36,59.00,26.60,28.77,0.00,0.00,0.00,30.15,M,10.00,M,CLR,M,M,M,M,M,M,M,M,M,M,M,M,M,M,59.00,KBAM 010935Z AUTO 00000KT 10SM CLR 15/M03 A3015 RMK AO1,M
HTH,2024-09-01 09:35,-118.6315,38.5448,1282.89,73.40,35.60,25.13,190.00,5.00,0.00,30.11,M,10.00,M,CLR,M,M,M,M,M,M,M,M,M,M,M,M,M,M,73.40,KHTH 010935Z AUTO 19005KT 10SM CLR 23/02 A3011 RMK A01,M
TMT,2024-09-01 09:35,-117.1971,39.4643,1749.34,47.30,32.00,55.10,0.00,0.00,0.00,30.25,M,10.00,M,CLR,M,M,M,M,M,M,M,M,M,M,M,M,M,M,47.30,KTMT 010935Z AUTO 00000KT 10SM CLR 09/00 A3025 RMK AO2 T00850000,M
10U,2024-09-01 09:35,-116.1876,41.9532,1637.00,57.20,23.00,26.42,120.00,4.00,0.00,30.20,M,10.00,10.00,CLR,M,M,M,M,M,M,M,M,M,M,M,M,M,M,57.20,K10U 010935Z AUTO 12004G10KT 10SM CLR 14/M05 A3020 RMK AO2,M
05U,2024-09-01 09:50,-116.0051,39.6042,1811.23,55.40,32.00,40.84,0.00,0.00,0.00,30.28,M,10.00,M,FEW,M,M,M,11000.00,M,M,M,M,M,M,M,M,M,M,55.40,K05U 010950Z AUTO 00000KT 10SM FEW110 13/M00 A3028 RMK A01,M
P68,2024-09-01 09:53,-116.0056,39.6014,1993.00,57.00,33.00,40.12,160.00,5.00,0.00,30.25,1015.80,M,M,M,M,M,M,M,M,M,M,M,M,M,M,M,M,M,57.00,KP68 010953Z AUTO 16005KT 14/01 A3025 RMK AO1 SLP158 T01390006,M
DRA,2024-09-01 09:53,-116.0278,36.6206,1009.00,76.00,41.00,28.47,230.00,3.00,0.00,30.04,1011.70,10.00,M,CLR,M,M,M,M,M,M,M,M,M,M,M,M,M,M,76.00,KDRA 010953Z AUTO 23003KT 10SM CLR 24/05 A3004 RMK AO2 SLP117 T02440050,M
ELY,2024-09-01 09:53,-114.8453,39.2950,1909.00,49.00,32.00,51.70,170.00,8.00,0.00,30.31,1016.70,10.00,M,CLR,M,M,M,M,M,M,M,M,M,M,M,M,M,M,45.05,KELY 010953Z AUTO 17008KT 10SM CLR 09/00 A3031 RMK AO2 SLP167 T00940000,M
VGT,2024-09-01 09:53,-115.1933,36.2111,667.00,84.00,48.00,28.60,290.00,6.00,0.00,29.97,1013.20,10.00,M,CLR,M,M,M,M,M,M,M,M,M,M,M,M,M,M,81.87,KVGT 010953Z AUTO 29006KT 10SM CLR 29/09 A2997 RMK AO2 SLP132 T02890089,M
LOL,2024-09-01 09:53,-118.5701,40.0684,1192.43,64.00,27.00,24.51,320.00,7.00,0.00,30.08,1013.80,10.00,M,CLR,M,M,M,M,M,M,M,M,M,M,M,M,M,M,64.00,KLOL 010953Z AUTO 32007KT 10SM CLR 18/M03 A3008 RMK AO2 SLP138 T01781028,M
BVU,2024-09-01 09:55,-114.8611,35.9475,671.00,75.20,51.80,43.97,70.00,4.00,0.00,29.96,M,10.00,M,CLR,M,M,M,M,M,M,M,M,M,M,M,M,M,M,75.20,KBVU 010955Z AUTO 07004KT 10SM CLR 24/11 A2996 RMK AO2,M
RNO,2024-09-01 09:55,-119.7711,39.4839,1341.00,65.00,43.00,44.73,270.00,3.00,0.00,30.14,1014.50,10.00,M,CLR,M,M,M,M,M,M,M,M,M,M,M,M,M,M,65.00,KRNO 010955Z 27003KT 10SM CLR 18/06 A3014 RMK AO2 SLP145 T01830061,M
CXP,2024-09-01 09:55,-119.7326,39.1923,1431.00,60.80,35.60,38.85,0.00,0.00,0.00,30.17,M,10.00,M,CLR,M,M,M,M,M,M,M,M,M,M,M,M,M,M,60.80,KCXP 010955Z AUTO 00000KT 10SM CLR 16/02 A3017 RMK AO2,M
RTS,2024-09-01 09:55,-119.8764,39.6682,1539.00,59.00,28.40,30.98,0.00,0.00,0.00,30.19,M,10.00,M,CLR,M,M,M,M,M,M,M,M,M,M,M,M,M,M,59.00,KRTS 010955Z AUTO 00000KT 10SM CLR 15/M02 A3019 RMK AO2,M
MEV,2024-09-01 09:55,-119.7500,38.9963,1441.42,51.80,35.60,53.81,210.00,4.00,0.00,30.16,M,10.00,M,FEW,FEW,M,M,5500.00,6500.00,M,M,M,M,M,M,M,M,M,51.80,KMEV 010955Z AUTO 21004KT 10SM FEW055 FEW065 11/02 A3016 RMK AO2,M
BAM,2024-09-01 09:55,-116.8743,40.5990,1382.36,55.40,28.40,35.28,0.00,0.00,0.00,30.14,M,10.00,M,CLR,M,M,M,M,M,M,M,M,M,M,M,M,M,M,55.40,KBAM 010955Z AUTO 00000KT 10SM CLR 13/M02 A3014 RMK AO1,M
HTH,2024-09-01 09:55,-118.6315,38.5448,1282.89,73.40,35.60,25.13,0.00,0.00,0.00,30.11,M,10.00,M,CLR,M,M,M,M,M,M,M,M,M,M,M,M,M,M,73.40,KHTH 010955Z AUTO 00000KT 10SM CLR 23/02 A3011 RMK A01,M
TMT,2024-09-01 09:55,-117.1971,39.4643,1749.34,45.00,31.60,59.15,0.00,0.00,0.00,30.25,M,10.00,M,CLR,M,M,M,M,M,M,M,M,M,M,M,M,M,M,45.00,KTMT 010955Z AUTO 00000KT 10SM CLR 07/00 A3025 RMK AO2 T00721002,M
10U,2024-09-01 09:55,-116.1876,41.9532,1637.00,51.80,21.20,29.82,190.00,5.00,0.00,30.20,M,10.00,M,CLR,M,M,M,M,M,M,M,M,M,M,M,M,M,M,51.80,K10U 010955Z AUTO 19005KT 10SM CLR 11/M06 A3020 RMK AO2,M
INS,2024-09-01 09:55,-115.6733,36.5872,955.00,73.40,36.50,26.04,0.00,0.00,0.00,30.04,1011.60,10.00,M,CLR,M,M,M,M,M,M,M,M,M,M,M,M,M,M,73.40,KINS 010955Z AUTO 00000KT 10SM CLR 23/03 A3004 RMK AO2 SLP116 T02300025,M
LSV,2024-09-01 09:55,-115.0343,36.2362,570.00,82.00,41.70,24.01,0.00,0.00,0.00,29.92,1010.00,10.00,M,CLR,M,M,M,M,M,M,M,M,M,M,M,M,M,M,80.07,KLSV 010955Z AUTO 00000KT 10SM CLR 28/05 A2992 RMK AO2 SLP100 T02780054 $,M
EKO,2024-09-01 09:56,-115.7860,40.8242,1367.00,55.00,26.00,32.42,70.00,5.00,0.00,30.20,1016.70,10.00,M,CLR,M,M,M,M,M,M,M,M,M,M,M,M,M,M,55.00,KEKO 010956Z AUTO 07005KT 10SM CLR 13/M03 A3020 RMK AO2 SLP167 T01281033,M
HND,2024-09-01 09:56,-115.1344,35.9729,742.79,75.00,52.00,44.59,160.00,4.00,0.00,30.01,1014.60,10.00,M,CLR,M,M,M,M,M,M,M,M,M,M,M,M,M,M,75.00,KHND 010956Z AUTO 16004KT 10SM CLR 24/11 A3001 RMK AO2 SLP146 T02390111,M
TPH,2024-09-01 09:56,-117.0904,38.0505,1654.00,62.00,40.00,44.25,350.00,6.00,0.00,30.23,1015.30,10.00,M,CLR,M,M,M,M,M,M,M,M,M,M,M,M,M,M,62.00,KTPH 010956Z AUTO 35006KT 10SM CLR 17/04 A3023 RMK AO2 SLP153 T01670044,M
LAS,2024-09-01 09:56,-115.1634,36.0719,663.00,84.00,48.00,28.60,290.00,7.00,0.00,29.98,1011.90,10.00,M,CLR,M,M,M,M,M,M,M,M,M,M,M,M,M,M,81.87,KLAS 010956Z 29007KT 10SM CLR 29/09 A2998 RMK AO2 SLP119 T02890089 $,M
NFL,2024-09-01 09:57,-118.7010,39.4166,1199.00,67.00,39.00,35.74,180.00,4.00,0.00,30.07,1015.20,10.00,M,CLR,M,M,M,M,M,M,M,M,M,M,M,M,M,M,67.00,KNFL 010957Z AUTO 18004KT 10SM CLR 19/04 A3007 RMK AO2 SLP152 T01940039,M
05U,2024-09-01 10:10,-116.0051,39.6042,1811.23,57.20,33.80,41.13,0.00,0.00,0.00,30.27,M,10.00,M,FEW,M,M,M,12000.00,M,M,M,M,M,M,M,M,M,M,57.20,K05U 011010Z AUTO 00000KT 10SM FEW120 14/01 A3027 RMK A01,M
BVU,2024-09-01 10:15,-114.8611,35.9475,671.00,77.00,50.00,38.74,40.00,3.00,0.00,29.95,M,10.00,M,CLR,M,M,M,M,M,M,M,M,M,M,M,M,M,M,77.00,KBVU 011015Z AUTO 04003KT 10SM CLR 25/10 A2995 RMK AO2,M
CXP,2024-09-01 10:15,-119.7326,39.1923,1431.00,59.00,39.20,47.72,0.00,0.00,0.00,30.17,M,10.00,M,CLR,M,M,M,M,M,M,M,M,M,M,M,M,M,M,59.00,KCXP 011015Z AUTO 00000KT 10SM CLR 15/04 A3017 RMK AO2,M
RTS,2024-09-01 10:15,-119.8764,39.6682,1539.00,55.40,28.40,35.28,320.00,8.00,0.00,30.18,M,10.00,M,CLR,M,M,M,M,M,M,M,M,M,M,M,M,M,M,55.40,KRTS 011015Z AUTO 32008KT 10SM CLR 13/M02 A3018 RMK AO2,M
MEV,2024-09-01 10:15,-119.7500,38.9963,1441.42,50.00,37.40,61.76,180.00,4.00,0.00,30.16,M,10.00,M,FEW,FEW,M,M,5500.00,6500.00,M,M,M,M,M,M,M,M,M,50.00,KMEV 011015Z AUTO 18004KT 10SM FEW055 FEW065 10/03 A3016 RMK AO2,M
BAM,2024-09-01 10:15,-116.8743,40.5990,1382.36,55.40,28.40,35.28,0.00,0.00,0.00,30.15,M,10.00,M,CLR,M,M,M,M,M,M,M,M,M,M,M,M,M,M,55.40,KBAM 011015Z AUTO 00000KT 10SM CLR 13/M02 A3015 RMK AO1,M
HTH,2024-09-01 10:15,-118.6315,38.5448,1282.89,73.40,35.60,25.13,90.00,8.00,0.00,30.11,M,10.00,M,CLR,M,M,M,M,M,M,M,M,M,M,M,M,M,M,73.40,KHTH 011015Z AUTO 09008KT 10SM CLR 23/02 A3011 RMK A01,M
TMT,2024-09-01 10:15,-117.1971,39.4643,1749.34,43.00,30.70,61.56,140.00,5.00,0.00,30.25,M,10.00,M,CLR,M,M,M,M,M,M,M,M,M,M,M,M,M,M,39.46,KTMT 011015Z AUTO 14005KT 10SM CLR 06/M01 A3025 RMK AO2 T00611007,M
10U,2024-09-01 10:15,-116.1876,41.9532,1637.00,51.80,23.00,32.17,210.00,6.00,0.00,30.20,M,10.00,M,CLR,M,M,M,M,M,M,M,M,M,M,M,M,M,M,51.80,K10U 011015Z AUTO 21006KT 10SM CLR 11/M05 A3020 RMK AO2,M
05U,2024-09-01 10:30,-116.0051,39.6042,1811.23,59.00,33.80,38.56,0.00,0.00,0.00,30.27,M,10.00,M,BKN,M,M,M,12000.00,M,M,M,M,M,M,M,M,M,M,59.00,K05U 011030Z AUTO 00000KT 10SM BKN120 15/01 A3027 RMK A01,M
BVU,2024-09-01 10:35,-114.8611,35.9475,671.00,77.00,50.00,38.74,90.00,4.00,0.00,29.95,M,10.00,M,CLR,M,M,M,M,M,M,M,M,M,M,M,M,M,M,77.00,KBVU 011035Z AUTO 09004KT 10SM CLR 25/10 A2995 RMK AO2,M
CXP,2024-09-01 10:35,-119.7326,39.1923,1431.00,59.00,37.40,44.47,0.00,0.00,0.00,30.17,M,10.00,M,CLR,M,M,M,M,M,M,M,M,M,M,M,M,M,M,59.00,KCXP 011035Z AUTO 00000KT 10SM CLR 15/03 A3017 RMK AO2,M
RTS,2024-09-01 10:35,-119.8764,39.6682,1539.00,55.40,28.40,35.28,360.00,7.00,0.00,30.19,M,10.00,M,CLR,M,M,M,M,M,M,M,M,M,M,M,M,M,M,55.40,KRTS 011035Z AUTO 36007KT 10SM CLR 13/M02 A3019 RMK AO2,M
MEV,2024-09-01 10:35,-119.7500,38.9963,1441.42,50.00,37.40,61.76,0.00,0.00,0.00,30.16,M,10.00,M,FEW,SCT,SCT,M,5000.00,5500.00,7000.00,M,M,M,M,M,M,M,M,50.00,KMEV 011035Z AUTO 00000KT 10SM FEW050 SCT055 SCT070 10/03 A3016 RMK AO2,M
BAM,2024-09-01 10:35,-116.8743,40.5990,1382.36,55.40,30.20,37.97,50.00,5.00,0.00,30.15,M,10.00,M,CLR,M,M,M,M,M,M,M,M,M,M,M,M,M,M,55.40,KBAM 011035Z AUTO 05005KT 10SM CLR 13/M01 A3015 RMK AO1,M
HTH,2024-09-01 10:35,-118.6315,38.5448,1282.89,73.40,35.60,25.13,130.00,10.00,0.00,30.11,M,10.00,M,CLR,M,M,M,M,M,M,M,M,M,M,M,M,M,M,73.40,KHTH 011035Z AUTO 13010KT 10SM CLR 23/02 A3011 RMK A01,M
TMT,2024-09-01 10:35,-117.1971,39.4643,1749.34,44.00,32.00,62.44,130.00,3.00,0.00,30.25,M,10.00,M,CLR,M,M,M,M,M,M,M,M,M,M,M,M,M,M,42.41,KTMT 011035Z AUTO 13003KT 10SM CLR 07/00 A3025 RMK AO2 T00661001,M
10U,2024-09-01 10:35,-116.1876,41.9532,1637.00,51.80,23.00,32.17,220.00,7.00,0.00,30.20,M,10.00,M,CLR,M,M,M,M,M,M,M,M,M,M,M,M,M,M,51.80,K10U 011035Z AUTO 22007KT 10SM CLR 11/M05 A3020 RMK AO2,M
05U,2024-09-01 10:50,-116.0051,39.6042,1811.23,59.00,33.80,38.56,0.00,0.00,0.00,30.28,M,10.00,M,BKN,M,M,M,12000.00,M,M,M,M,M,M,M,M,M,M,59.00,K05U 011050Z AUTO 00000KT 10SM BKN120 15/01 A3028 RMK A01,M
P68,2024-09-01 10:53,-116.0056,39.6014,1993.00,59.00,34.00,38.87,180.00,3.00,0.00,30.25,1015.70,M,M,M,M,M,M,M,M,M,M,M,M,M,M,M,M,M,59.00,KP68 011053Z AUTO 18003KT 15/01 A3025 RMK AO1 SLP157 T01500011,M
DRA,2024-09-01 10:53,-116.0278,36.6206,1009.00,73.00,40.00,30.28,0.00,0.00,0.00,30.04,1011.90,10.00,M,CLR,M,M,M,M,M,M,M,M,M,M,M,M,M,M,73.00,KDRA 011053Z AUTO 00000KT 10SM CLR 23/04 A3004 RMK AO2 SLP119 T02280044,M
ELY,2024-09-01 10:53,-114.8453,39.2950,1909.00,49.00,32.00,51.70,170.00,11.00,0.00,30.30,1016.70,10.00,M,CLR,M,M,M,M,M,M,M,M,M,M,M,M,M,M,43.95,KELY 011053Z AUTO 17011KT 10SM CLR 09/00 A3030 RMK AO2 SLP167 T00940000,M
VGT,2024-09-01 10:53,-115.1933,36.2111,667.00,82.00,47.00,29.39,300.00,5.00,0.00,29.96,1013.10,10.00,M,CLR,M,M,M,M,M,M,M,M,M,M,M,M,M,M,80.44,KVGT 011053Z AUTO 30005KT 10SM CLR 28/08 A2996 RMK AO2 SLP131 T02780083,M
LOL,2024-09-01 10:53,-118.5701,40.0684,1192.43,56.00,34.00,43.30,100.00,8.00,0.00,30.08,1014.50,10.00,M,CLR,M,M,M,M,M,M,M,M,M,M,M,M,M,M,56.00,KLOL 011053Z AUTO 10008KT 10SM CLR 13/01 A3008 RMK AO2 SLP145 T01330011,M
BVU,2024-09-01 10:55,-114.8611,35.9475,671.00,75.20,50.00,41.14,0.00,0.00,0.00,29.95,M,10.00,M,CLR,M,M,M,M,M,M,M,M,M,M,M,M,M,M,75.20,KBVU 011055Z AUTO 00000KT 10SM CLR 24/10 A2995 RMK AO2,M
RNO,2024-09-01 10:55,-119.7711,39.4839,1341.00,63.00,43.00,47.97,0.00,0.00,0.00,30.14,1014.50,10.00,M,CLR,M,M,M,M,M,M,M,M,M,M,M,M,M,M,63.00,KRNO 011055Z 00000KT 10SM CLR 17/06 A3014 RMK AO2 SLP145 T01720061,M
CXP,2024-09-01 10:55,-119.7326,39.1923,1431.00,57.20,39.20,50.91,0.00,0.00,0.00,30.17,M,10.00,M,CLR,M,M,M,M,M,M,M,M,M,M,M,M,M,M,57.20,KCXP 011055Z AUTO 00000KT 10SM CLR 14/04 A3017 RMK AO2,M
INS,2024-09-01 10:55,-115.6733,36.5872,955.00,73.00,35.00,24.87,0.00,0.00,0.00,30.04,1011.60,10.00,M,CLR,M,M,M,M,M,M,M,M,M,M,M,M,M,M,73.00,KINS 011055Z AUTO 00000KT 10SM CLR 23/02 A3004 RMK AO2 SLP116 T02280017,M
RTS,2024-09-01 10:55,-119.8764,39.6682,1539.00,57.20,28.40,33.05,350.00,5.00,0.00,30.18,M,10.00,M,CLR,M,M,M,M,M,M,M,M,M,M,M,M,M,M,57.20,KRTS 011055Z AUTO 35005KT 10SM CLR 14/M02 A3018 RMK AO2,M
MEV,2024-09-01 10:55,-119.7500,38.9963,1441.42,50.00,37.40,61.76,0.00,0.00,0.00,30.16,M,10.00,M,FEW,FEW,M,M,6000.00,6500.00,M,M,M,M,M,M,M,M,M,50.00,KMEV 011055Z AUTO 00000KT 10SM FEW060 FEW065 10/03 A3016 RMK AO2,M
BAM,2024-09-01 10:55,-116.8743,40.5990,1382.36,57.20,28.40,33.05,100.00,4.00,0.00,30.15,M,10.00,M,CLR,M,M,M,M,M,M,M,M,M,M,M,M,M,M,57.20,KBAM 011055Z AUTO 10004KT 10SM CLR 14/M02 A3015 RMK AO1,M
HTH,2024-09-01 10:55,-118.6315,38.5448,1282.89,71.60,35.60,26.71,160.00,8.00,0.00,30.10,M,10.00,M,CLR,M,M,M,M,M,M,M,M,M,M,M,M,M,M,71.60,KHTH 011055Z AUTO 16008KT 10SM CLR 22/02 A3010 RMK A01,M
TMT,2024-09-01 10:55,-117.1971,39.4643,1749.34,44.00,32.00,62.44,0.00,0.00,0.00,30.25,M,10.00,M,CLR,M,M,M,M,M,M,M,M,M,M,M,M,M,M,44.00,KTMT 011055Z AUTO 00000KT 10SM CLR 07/00 A3025 RMK AO2 T00660000,M
10U,2024-09-01 10:55,-116.1876,41.9532,1637.00,50.00,21.20,31.87,210.00,4.00,0.00,30.20,M,10.00,M,CLR,M,M,M,M,M,M,M,M,M,M,M,M,M,M,50.00,K10U 011055Z AUTO 21004KT 10SM CLR 10/M06 A3020 RMK AO2,M
LSV,2024-09-01 10:55,-115.0343,36.2362,570.00,80.40,41.40,25.00,80.00,7.00,0.00,29.92,1010.00,10.00,M,CLR,M,M,M,M,M,M,M,M,M,M,M,M,M,M,79.11,KLSV 011055Z AUTO 08007KT 10SM CLR 27/05 A2992 RMK AO2 SLP100 T02690052 $,M
EKO,2024-09-01 10:56,-115.7860,40.8242,1367.00,54.00,24.00,30.94,70.00,6.00,0.00,30.20,1016.80,10.00,M,CLR,M,M,M,M,M,M,M,M,M,M,M,M,M,M,54.00,KEKO 011056Z AUTO 07006KT 10SM CLR 12/M04 A3020 RMK AO2 SLP168 T01221044,M
HND,2024-09-01 10:56,-115.1344,35.9729,742.79,73.00,54.00,51.33,140.00,4.00,0.00,30.01,1014.60,10.00,M,CLR,M,M,M,M,M,M,M,M,M,M,M,M,M,M,73.00,KHND 011056Z AUTO 14004KT 10SM CLR 23/12 A3001 RMK AO2 SLP146 T02280122,M
TPH,2024-09-01 10:56,-117.0904,38.0505,1654.00,60.00,41.00,49.39,340.00,8.00,0.00,30.22,1015.40,10.00,M,CLR,M,M,M,M,M,M,M,M,M,M,M,M,M,M,60.00,KTPH 011056Z AUTO 34008KT 10SM CLR 16/05 A3022 RMK AO2 SLP154 T01560050,M
LAS,2024-09-01 10:56,-115.1634,36.0719,663.00,82.00,51.00,34.12,220.00,3.00,0.00,29.98,1012.00,10.00,M,CLR,M,M,M,M,M,M,M,M,M,M,M,M,M,M,80.84,KLAS 011056Z 22003KT 10SM CLR 28/11 A2998 RMK AO2 SLP120 T02780106 $,M
NFL,2024-09-01 10:57,-118.7010,39.4166,1199.00,67.00,39.00,35.74,170.00,3.00,0.00,30.08,1015.20,10.00,M,CLR,M,M,M,M,M,M,M,M,M,M,M,M,M,M,67.00,KNFL 011057Z AUTO 17003KT 10SM CLR 19/04 A3008 RMK AO2 SLP152 T01940039,M
05U,2024-09-01 11:10,-116.0051,39.6042,1811.23,57.20,35.60,44.19,0.00,0.00,0.00,30.28,M,10.00,M,SCT,M,M,M,12000.00,M,M,M,M,M,M,M,M,M,M,57.20,K05U 011110Z AUTO 00000KT 10SM SCT120 14/02 A3028 RMK A01,M
BVU,2024-09-01 11:15,-114.8611,35.9475,671.00,77.00,44.60,31.62,220.00,3.00,0.00,29.95,M,10.00,M,CLR,M,M,M,M,M,M,M,M,M,M,M,M,M,M,77.00,KBVU 011115Z AUTO 22003KT 10SM CLR 25/07 A2995 RMK AO2,M
CXP,2024-09-01 11:15,-119.7326,39.1923,1431.00,57.20,37.40,47.44,0.00,0.00,0.00,30.17,M,10.00,M,CLR,M,M,M,M,M,M,M,M,M,M,M,M,M,M,57.20,KCXP 011115Z AUTO 00000KT 10SM CLR 14/03 A3017 RMK AO2,M
RTS,2024-09-01 11:15,-119.8764,39.6682,1539.00,53.60,28.40,37.67,300.00,7.00,0.00,30.18,M,10.00,M,CLR,M,M,M,M,M,M,M,M,M,M,M,M,M,M,53.60,KRTS 011115Z AUTO 30007KT 10SM CLR 12/M02 A3018 RMK AO2,M
MEV,2024-09-01 11:15,-119.7500,38.9963,1441.42,51.80,37.40,57.77,100.00,3.00,0.00,30.15,M,10.00,M,FEW,SCT,M,M,4800.00,6000.00,M,M,M,M,M,M,M,M,M,51.80,KMEV 011115Z AUTO 10003KT 10SM FEW048 SCT060 11/03 A3015 RMK AO2,M
BAM,2024-09-01 11:15,-116.8743,40.5990,1382.36,55.40,28.40,35.28,100.00,5.00,0.00,30.15,M,10.00,M,CLR,M,M,M,M,M,M,M,M,M,M,M,M,M,M,55.40,KBAM 011115Z AUTO 10005KT 10SM CLR 13/M02 A3015 RMK AO1,M
HTH,2024-09-01 11:15,-118.6315,38.5448,1282.89,71.60,35.60,26.71,180.00,10.00,0.00,30.10,M,10.00,M,CLR,M,M,M,M,M,M,M,M,M,M,M,M,M,M,71.60,KHTH 011115Z AUTO 18010KT 10SM CLR 22/02 A3010 RMK A01,M
TMT,2024-09-01 11:15,-117.1971,39.4643,1749.34,45.70,32.40,59.48,0.00,0.00,0.00,30.25,M,10.00,M,CLR,M,M,M,M,M,M,M,M,M,M,M,M,M,M,45.70,KTMT 011115Z AUTO 00000KT 10SM CLR 08/00 A3025 RMK AO2 T00760002,M
10U,2024-09-01 11:15,-116.1876,41.9532,1637.00,50.00,21.20,31.87,220.00,6.00,0.00,30.19,M,10.00,M,CLR,M,M,M,M,M,M,M,M,M,M,M,M,M,M,50.00,K10U 011115Z AUTO 22006KT 10SM CLR 10/M06 A3019 RMK AO2,M
05U,2024-09-01 11:30,-116.0051,39.6042,1811.23,57.20,33.80,41.13,0.00,0.00,0.00,30.27,M,10.00,M,CLR,M,M,M,M,M,M,M,M,M,M,M,M,M,M,57.20,K05U 011130Z AUTO 00000KT 10SM CLR 14/01 A3027 RMK A01,M
HTH,2024-09-01 11:30,-118.6315,38.5448,1282.89,73.40,35.60,25.13,170.00,11.00,0.00,30.10,M,10.00,M,CLR,M,M,M,M,M,M,M,M,M,M,M,M,M,M,73.40,KHTH 011130Z AUTO 17011KT 10SM CLR 23/02 A3010 RMK A01,M
BVU,2024-09-01 11:35,-114.8611,35.9475,671.00,77.00,46.40,33.85,130.00,4.00,0.00,29.96,M,10.00,M,CLR,M,M,M,M,M,M,M,M,M,M,M,M,M,M,77.00,KBVU 011135Z AUTO 13004KT 10SM CLR 25/08 A2996 RMK AO2,M
CXP,2024-09-01 11:35,-119.7326,39.1923,1431.00,55.40,33.80,43.90,0.00,0.00,0.00,30.17,M,10.00,M,CLR,M,M,M,M,M,M,M,M,M,M,M,M,M,M,55.40,KCXP 011135Z AUTO 00000KT 10SM CLR 13/01 A3017 RMK AO2,M
RTS,2024-09-01 11:35,-119.8764,39.6682,1539.00,55.40,28.40,35.28,340.00,8.00,0.00,30.18,M,10.00,M,CLR,M,M,M,M,M,M,M,M,M,M,M,M,M,M,55.40,KRTS 011135Z AUTO 34008KT 10SM CLR 13/M02 A3018 RMK AO2,M
MEV,2024-09-01 11:35,-119.7500,38.9963,1441.42,50.00,33.80,53.54,0.00,0.00,0.00,30.15,M,10.00,M,FEW,SCT,M,M,4800.00,6000.00,M,M,M,M,M,M,M,M,M,50.00,KMEV 011135Z AUTO 00000KT 10SM FEW048 SCT060 10/01 A3015 RMK AO2,M
BAM,2024-09-01 11:35,-116.8743,40.5990,1382.36,51.80,26.60,37.38,160.00,5.00,0.00,30.15,M,10.00,M,CLR,M,M,M,M,M,M,M,M,M,M,M,M,M,M,51.80,KBAM 011135Z AUTO 16005KT 10SM CLR 11/M03 A3015 RMK AO1,M
TMT,2024-09-01 11:35,-117.1971,39.4643,1749.34,43.00,30.60,61.31,0.00,0.00,0.00,30.25,M,10.00,M,CLR,M,M,M,M,M,M,M,M,M,M,M,M,M,M,43.00,KTMT 011135Z AUTO 00000KT 10SM CLR 06/M01 A3025 RMK AO2 T00611008,M
10U,2024-09-01 11:35,-116.1876,41.9532,1637.00,48.20,21.20,34.09,230.00,7.00,0.00,30.19,M,10.00,M,CLR,M,M,M,M,M,M,M,M,M,M,M,M,M,M,44.53,K10U 011135Z AUTO 23007KT 10SM CLR 09/M06 A3019 RMK AO2,M
05U,2024-09-01 11:50,-116.0051,39.6042,1811.23,55.40,33.80,43.90,0.00,0.00,0.00,30.27,M,10.00,M,CLR,M,M,M,M,M,M,M,M,M,M,M,M,M,M,55.40,K05U 011150Z AUTO 00000KT 10SM CLR 13/01 A3027 RMK A01,M
P68,2024-09-01 11:53,-116.0056,39.6014,1993.00,53.00,33.00,46.41,190.00,6.00,0.00,30.25,1016.40,M,M,M,M,M,M,M,M,M,M,M,M,M,M,M,M,M,53.00,KP68 011153Z AUTO 19006KT 12/01 A3025 RMK AO1 SLP164 T01170006 10211 20117 57000,M
DRA,2024-09-01 11:53,-116.0278,36.6206,1009.00,73.00,40.00,30.28,0.00,0.00,0.00,30.04,1011.80,10.00,M,CLR,M,M,M,M,M,M,M,M,M,M,M,M,M,M,73.00,KDRA 011153Z AUTO 00000KT 10SM CLR 23/04 A3004 RMK AO2 SLP118 T02280044 10294 20222 56004,M
ELY,2024-09-01 11:53,-114.8453,39.2950,1909.00,48.00,31.00,51.54,170.00,8.00,0.00,30.30,1016.70,10.00,M,CLR,M,M,M,M,M,M,M,M,M,M,M,M,M,M,43.82,KELY 011153Z AUTO 17008KT 10SM CLR 09/M01 A3030 RMK AO2 SLP167 T00891006 10178 20067 56005,M
VGT,2024-09-01 11:53,-115.1933,36.2111,667.00,80.00,47.00,31.37,320.00,6.00,0.00,29.96,1013.00,10.00,M,CLR,M,M,M,M,M,M,M,M,M,M,M,M,M,M,79.28,KVGT 011153Z AUTO 32006KT 10SM CLR 27/08 A2996 RMK AO2 SLP130 T02670083 10333 20267 56006,M
LOL,2024-09-01 11:53,-118.5701,40.0684,1192.43,55.00,32.00,41.44,320.00,6.00,0.00,30.08,1014.80,10.00,M,CLR,M,M,M,M,M,M,M,M,M,M,M,M,M,M,55.00,KLOL 011153Z AUTO 32006KT 10SM CLR 13/00 A3008 RMK AO2 SLP148 T01280000 10211 20122 53003,M
BVU,2024-09-01 11:55,-114.8611,35.9475,671.00,73.40,51.80,46.71,50.00,4.00,0.00,29.96,M,10.00,M,CLR,M,M,M,M,M,M,M,M,M,M,M,M,M,M,73.40,KBVU 011155Z AUTO 05004KT 10SM CLR 23/11 A2996 RMK AO2,M
RNO,2024-09-01 11:55,-119.7711,39.4839,1341.00,62.00,44.00,51.63,180.00,4.00,0.00,30.14,1014.80,10.00,M,CLR,M,M,M,M,M,M,M,M,M,M,M,M,M,M,62.00,KRNO 011155Z 18004KT 10SM CLR 17/07 A3014 RMK AO2 SLP148 T01670067 10250 20156 54000,M
BAM,2024-09-01 11:55,-116.8743,40.5990,1382.36,51.80,28.40,40.25,0.00,0.00,0.00,30.15,M,10.00,M,CLR,M,M,M,M,M,M,M,M,M,M,M,M,M,M,51.80,KBAM 011155Z AUTO 00000KT 10SM CLR 11/M02 A3015 RMK AO1,M
CXP,2024-09-01 11:55,-119.7326,39.1923,1431.00,55.40,37.40,50.64,0.00,0.00,0.00,30.17,M,10.00,M,CLR,M,M,M,M,M,M,M,M,M,M,M,M,M,M,55.40,KCXP 011155Z AUTO 00000KT 10SM CLR 13/03 A3017 RMK AO2,M
RTS,2024-09-01 11:55,-119.8764,39.6682,1539.00,53.60,28.40,37.67,330.00,4.00,0.00,30.18,M,10.00,M,CLR,M,M,M,M,M,M,M,M,M,M,M,M,M,M,53.60,KRTS 011155Z AUTO 33004KT 10SM CLR 12/M02 A3018 RMK AO2,M
MEV,2024-09-01 11:55,-119.7500,38.9963,1441.42,50.00,35.60,57.52,0.00,0.00,0.00,30.15,M,10.00,M,SCT,BKN,BKN,M,4900.00,6000.00,7000.00,M,M,M,M,M,M,M,M,50.00,KMEV 011155Z AUTO 00000KT 10SM SCT049 BKN060 BKN070 10/02 A3015 RMK AO2,M
HTH,2024-09-01 11:55,-118.6315,38.5448,1282.89,73.40,35.60,25.13,180.00,9.00,0.00,30.11,M,10.00,M,CLR,M,M,M,M,M,M,M,M,M,M,M,M,M,M,73.40,KHTH 011155Z AUTO 18009KT 10SM CLR 23/02 A3011 RMK A01,M
TMT,2024-09-01 11:55,-117.1971,39.4643,1749.34,41.40,30.60,65.21,100.00,4.00,0.00,30.25,M,10.00,M,CLR,M,M,M,M,M,M,M,M,M,M,M,M,M,M,38.40,KTMT 011155Z AUTO 10004KT 10SM CLR 05/M01 A3025 RMK AO2 T00521008 10180 20043,M
10U,2024-09-01 11:55,-116.1876,41.9532,1637.00,50.00,19.40,29.52,210.00,3.00,0.00,30.19,M,10.00,M,CLR,M,M,M,M,M,M,M,M,M,M,M,M,M,M,50.00,K10U 011155Z AUTO 21003KT 10SM CLR 10/M07 A3019 RMK AO2,M
INS,2024-09-01 11:55,-115.6733,36.5872,955.00,71.00,35.20,26.83,0.00,0.00,0.00,30.04,1011.60,10.00,M,CLR,M,M,M,M,M,M,M,M,M,M,M,M,M,M,71.00,KINS 011155Z AUTO 00000KT 10SM CLR 22/02 A3004 RMK AO2 SLP116 T02160018 10291 20212 55002,M
LSV,2024-09-01 11:55,-115.0343,36.2362,570.00,80.40,40.30,23.96,60.00,6.00,0.00,29.91,1009.80,10.00,M,CLR,M,M,M,M,M,M,M,M,M,M,M,M,M,M,79.05,KLSV 011155Z AUTO 06006KT 10SM CLR 27/05 A2991 RMK AO2 SLP098 T02690046 10322 20262 57003 $,M
EKO,2024-09-01 11:56,-115.7860,40.8242,1367.00,52.00,21.00,29.35,50.00,7.00,0.00,30.20,1017.30,10.00,M,CLR,M,M,M,M,M,M,M,M,M,M,M,M,M,M,52.00,KEKO 011156Z AUTO 05007KT 10SM CLR 11/M06 A3020 RMK AO2 SLP173 T01111061 10206 20111 53002,M
HND,2024-09-01 11:56,-115.1344,35.9729,742.79,74.00,47.00,38.27,190.00,8.00,0.00,30.01,1014.50,10.00,M,CLR,M,M,M,M,M,M,M,M,M,M,M,M,M,M,74.00,KHND 011156Z AUTO 19008KT 10SM CLR 23/08 A3001 RMK AO2 SLP145 70003 T02330083 10283 20228 56002,M
TPH,2024-09-01 11:56,-117.0904,38.0505,1654.00,58.00,41.00,53.05,350.00,10.00,0.00,30.22,1015.50,10.00,M,CLR,M,M,M,M,M,M,M,M,M,M,M,M,M,M,58.00,KTPH 011156Z AUTO 35010KT 10SM CLR 14/05 A3022 RMK AO2 SLP155 T01440050 10217 20144 56004,M
LAS,2024-09-01 11:56,-115.1634,36.0719,663.00,82.00,51.00,34.12,230.00,3.00,0.00,29.97,1011.80,10.00,M,CLR,M,M,M,M,M,M,M,M,M,M,M,M,M,M,80.84,KLAS 011156Z 23003KT 10SM CLR 28/11 A2997 RMK AO2 SLP118 T02780106 56004 $,M
NFL,2024-09-01 11:57,-118.7010,39.4166,1199.00,65.00,38.00,36.84,200.00,6.00,0.00,30.07,1015.10,10.00,M,CLR,M,M,M,M,M,M,M,M,M,M,M,M,M,M,65.00,KNFL 011157Z AUTO 20006KT 10SM CLR 18/03 A3007 RMK AO2 SLP151 T01830033 10256 20178 58001,M
05U,2024-09-01 12:10,-116.0051,39.6042,1811.23,55.40,32.00,40.84,0.00,0.00,0.00,30.27,M,10.00,M,CLR,M,M,M,M,M,M,M,M,M,M,M,M,M,M,55.40,K05U 011210Z AUTO 00000KT 10SM CLR 13/M00 A3027 RMK A01,M
BVU,2024-09-01 12:15,-114.8611,35.9475,671.00,75.20,50.00,41.14,0.00,0.00,0.00,29.96,M,10.00,M,CLR,M,M,M,M,M,M,M,M,M,M,M,M,M,M,75.20,KBVU 011215Z AUTO 00000KT 10SM CLR 24/10 A2996 RMK AO2,M
CXP,2024-09-01 12:15,-119.7326,39.1923,1431.00,55.40,39.20,54.34,0.00,0.00,0.00,30.17,M,10.00,M,CLR,M,M,M,M,M,M,M,M,M,M,M,M,M,M,55.40,KCXP 011215Z AUTO 00000KT 10SM CLR 13/04 A3017 RMK AO2,M
RTS,2024-09-01 12:15,-119.8764,39.6682,1539.00,53.60,28.40,37.67,0.00,0.00,0.00,30.18,M,10.00,M,CLR,M,M,M,M,M,M,M,M,M,M,M,M,M,M,53.60,KRTS 011215Z AUTO 00000KT 10SM CLR 12/M02 A3018 RMK AO2,M
MEV,2024-09-01 12:15,-119.7500,38.9963,1441.42,50.00,35.60,57.52,0.00,0.00,0.00,30.15,M,10.00,M,FEW,BKN,BKN,M,4500.00,5000.00,6000.00,M,M,M,M,M,M,M,M,50.00,KMEV 011215Z AUTO 00000KT 10SM FEW045 BKN050 BKN060 10/02 A3015 RMK AO2,M
BAM,2024-09-01 12:15,-116.8743,40.5990,1382.36,51.80,28.40,40.25,0.00,0.00,0.00,30.15,M,10.00,M,CLR,M,M,M,M,M,M,M,M,M,M,M,M,M,M,51.80,KBAM 011215Z AUTO 00000KT 10SM CLR 11/M02 A3015 RMK AO1,M
HTH,2024-09-01 12:15,-118.6315,38.5448,1282.89,73.40,35.60,25.13,160.00,7.00,0.00,30.11,M,10.00,M,CLR,M,M,M,M,M,M,M,M,M,M,M,M,M,M,73.40,KHTH 011215Z AUTO 16007KT 10SM CLR 23/02 A3011 RMK A01,M
TMT,2024-09-01 12:15,-117.1971,39.4643,1749.34,43.00,31.50,63.59,0.00,0.00,0.00,30.25,M,10.00,M,CLR,M,M,M,M,M,M,M,M,M,M,M,M,M,M,43.00,KTMT 011215Z AUTO 00000KT 10SM CLR 06/00 A3025 RMK AO2 T00611003,M
10U,2024-09-01 12:15,-116.1876,41.9532,1637.00,46.40,19.40,33.79,130.00,6.00,0.00,30.19,M,10.00,M,CLR,M,M,M,M,M,M,M,M,M,M,M,M,M,M,42.87,K10U 011215Z AUTO 13006KT 10SM CLR 08/M07 A3019 RMK AO2,M
05U,2024-09-01 12:30,-116.0051,39.6042,1811.23,50.00,33.80,53.54,0.00,0.00,0.00,30.28,M,10.00,M,CLR,M,M,M,M,M,M,M,M,M,M,M,M,M,M,50.00,K05U 011230Z AUTO 00000KT 10SM CLR 10/01 A3028 RMK A01,M
BVU,2024-09-01 12:35,-114.8611,35.9475,671.00,73.40,51.80,46.71,0.00,0.00,0.00,29.97,M,10.00,M,CLR,M,M,M,M,M,M,M,M,M,M,M,M,M,M,73.40,KBVU 011235Z AUTO 00000KT 10SM CLR 23/11 A2997 RMK AO2,M
CXP,2024-09-01 12:35,-119.7326,39.1923,1431.00,55.40,39.20,54.34,0.00,0.00,0.00,30.17,M,10.00,M,CLR,M,M,M,M,M,M,M,M,M,M,M,M,M,M,55.40,KCXP 011235Z AUTO 00000KT 10SM CLR 13/04 A3017 RMK AO2,M
RTS,2024-09-01 12:35,-119.8764,39.6682,1539.00,51.80,28.40,40.25,0.00,0.00,0.00,30.18,M,10.00,M,CLR,M,M,M,M,M,M,M,M,M,M,M,M,M,M,51.80,KRTS 011235Z AUTO 00000KT 10SM CLR 11/M02 A3018 RMK AO2,M
MEV,2024-09-01 12:35,-119.7500,38.9963,1441.42,48.20,35.60,61.52,0.00,0.00,0.00,30.15,M,10.00,M,SCT,SCT,BKN,M,4700.00,5500.00,6500.00,M,M,M,M,M,M,M,M,48.20,KMEV 011235Z AUTO 00000KT 10SM SCT047 SCT055 BKN065 09/02 A3015 RMK AO2,M
BAM,2024-09-01 12:35,-116.8743,40.5990,1382.36,55.40,28.40,35.28,200.00,3.00,0.00,30.14,M,10.00,M,CLR,M,M,M,M,M,M,M,M,M,M,M,M,M,M,55.40,KBAM 011235Z AUTO 20003KT 10SM CLR 13/M02 A3014 RMK AO1,M
HTH,2024-09-01 12:35,-118.6315,38.5448,1282.89,69.80,35.60,28.39,0.00,0.00,0.00,30.11,M,10.00,M,CLR,M,M,M,M,M,M,M,M,M,M,M,M,M,M,69.80,KHTH 011235Z AUTO 00000KT 10SM CLR 21/02 A3011 RMK A01,M
TMT,2024-09-01 12:35,-117.1971,39.4643,1749.34,42.80,32.00,65.38,0.00,0.00,0.00,30.25,M,10.00,M,CLR,M,M,M,M,M,M,M,M,M,M,M,M,M,M,42.80,KTMT 011235Z AUTO 00000KT 10SM CLR 06/00 A3025 RMK AO2 T00600000,M
10U,2024-09-01 12:35,-116.1876,41.9532,1637.00,48.20,19.40,31.57,150.00,6.00,0.00,30.19,M,10.00,M,CLR,M,M,M,M,M,M,M,M,M,M,M,M,M,M,45.04,K10U 011235Z AUTO 15006KT 10SM CLR 09/M07 A3019 RMK AO2,M
05U,2024-09-01 12:50,-116.0051,39.6042,1811.23,53.60,32.00,43.61,0.00,0.00,0.00,30.28,M,10.00,M,CLR,M,M,M,M,M,M,M,M,M,M,M,M,M,M,53.60,K05U 011250Z AUTO 00000KT 10SM CLR 12/00 A3028 RMK A01,M
P68,2024-09-01 12:53,-116.0056,39.6014,1993.00,54.00,33.00,44.74,210.00,7.00,0.00,30.25,1016.30,M,M,M,M,M,M,M,M,M,M,M,M,M,M,M,M,M,54.00,KP68 011253Z AUTO 21007KT 12/01 A3025 RMK AO1 SLP163 T01220006,M
DRA,2024-09-01 12:53,-116.0278,36.6206,1009.00,73.00,41.00,31.47,10.00,5.00,0.00,30.05,1012.20,10.00,M,CLR,M,M,M,M,M,M,M,M,M,M,M,M,M,M,73.00,KDRA 011253Z AUTO 01005KT 10SM CLR 23/05 A3005 RMK AO2 SLP122 T02280050,M
ELY,2024-09-01 12:53,-114.8453,39.2950,1909.00,50.00,33.00,51.85,180.00,8.00,0.00,30.30,1016.70,10.00,M,CLR,M,M,M,M,M,M,M,M,M,M,M,M,M,M,50.00,KELY 011253Z AUTO 18008KT 10SM CLR 10/01 A3030 RMK AO2 SLP167 T01000006,M
VGT,2024-09-01 12:53,-115.1933,36.2111,667.00,80.00,47.00,31.37,0.00,0.00,0.00,29.98,1013.70,10.00,M,CLR,M,M,M,M,M,M,M,M,M,M,M,M,M,M,79.28,KVGT 011253Z AUTO 00000KT 10SM CLR 27/08 A2998 RMK AO2 SLP137 T02670083,M
LOL,2024-09-01 12:53,-118.5701,40.0684,1192.43,58.00,29.00,32.91,320.00,5.00,0.00,30.08,1014.40,10.00,M,CLR,M,M,M,M,M,M,M,M,M,M,M,M,M,M,58.00,KLOL 011253Z AUTO 32005KT 10SM CLR 14/M02 A3008 RMK AO2 SLP144 T01441017,M
BVU,2024-09-01 12:55,-114.8611,35.9475,671.00,73.40,50.00,43.69,10.00,3.00,0.00,29.97,M,10.00,M,CLR,M,M,M,M,M,M,M,M,M,M,M,M,M,M,73.40,KBVU 011255Z AUTO 01003KT 10SM CLR 23/10 A2997 RMK AO2,M
RNO,2024-09-01 12:55,-119.7711,39.4839,1341.00,62.00,44.00,51.63,0.00,0.00,0.00,30.14,1015.10,10.00,M,FEW,M,M,M,13000.00,M,M,M,M,M,M,M,M,M,M,62.00,KRNO 011255Z 00000KT 10SM FEW130 17/07 A3014 RMK AO2 SLP151 T01670067,M
CXP,2024-09-01 12:55,-119.7326,39.1923,1431.00,53.60,39.20,58.02,0.00,0.00,0.00,30.17,M,10.00,M,CLR,M,M,M,M,M,M,M,M,M,M,M,M,M,M,53.60,KCXP 011255Z AUTO 00000KT 10SM CLR 12/04 A3017 RMK AO2,M
INS,2024-09-01 12:55,-115.6733,36.5872,955.00,69.30,35.60,28.88,0.00,0.00,0.00,30.05,1012.20,10.00,M,CLR,M,M,M,M,M,M,M,M,M,M,M,M,M,M,69.30,KINS 011255Z AUTO 00000KT 10SM CLR 21/02 A3005 RMK AO2 SLP122 T02070020,M
RTS,2024-09-01 12:55,-119.8764,39.6682,1539.00,53.60,30.20,40.54,0.00,0.00,0.00,30.18,M,10.00,M,CLR,M,M,M,M,M,M,M,M,M,M,M,M,M,M,53.60,KRTS 011255Z AUTO 00000KT 10SM CLR 12/M01 A3018 RMK AO2,M
MEV,2024-09-01 12:55,-119.7500,38.9963,1441.42,48.20,39.20,70.88,0.00,0.00,0.00,30.16,M,10.00,M,FEW,BKN,BKN,M,4400.00,5500.00,6500.00,M,M,M,M,M,M,M,M,48.20,KMEV 011255Z AUTO 00000KT 10SM FEW044 BKN055 BKN065 09/04 A3016 RMK AO2,M
BAM,2024-09-01 12:55,-116.8743,40.5990,1382.36,51.80,30.20,43.32,0.00,0.00,0.00,30.15,M,10.00,M,CLR,M,M,M,M,M,M,M,M,M,M,M,M,M,M,51.80,KBAM 011255Z AUTO 00000KT 10SM CLR 11/M01 A3015 RMK AO1,M
HTH,2024-09-01 12:55,-118.6315,38.5448,1282.89,68.00,33.80,28.11,190.00,6.00,0.00,30.11,M,10.00,M,CLR,M,M,M,M,M,M,M,M,M,M,M,M,M,M,68.00,KHTH 011255Z AUTO 19006KT 10SM CLR 20/01 A3011 RMK A01,M
TMT,2024-09-01 12:55,-117.1971,39.4643,1749.34,44.00,32.00,62.44,0.00,0.00,0.00,30.25,M,10.00,M,CLR,M,M,M,M,M,M,M,M,M,M,M,M,M,M,44.00,KTMT 011255Z AUTO 00000KT 10SM CLR 07/00 A3025 RMK AO2 T00670001,M
10U,2024-09-01 12:55,-116.1876,41.9532,1637.00,55.40,23.00,28.20,0.00,0.00,0.00,30.19,M,10.00,M,CLR,M,M,M,M,M,M,M,M,M,M,M,M,M,M,55.40,K10U 011255Z AUTO 00000KT 10SM CLR 13/M05 A3019 RMK AO2,M
LSV,2024-09-01 12:55,-115.0343,36.2362,570.00,82.80,41.00,22.77,130.00,4.00,0.00,29.93,1010.40,10.00,M,CLR,M,M,M,M,M,M,M,M,M,M,M,M,M,M,80.55,KLSV 011255Z AUTO 13004KT 10SM CLR 28/05 A2993 RMK AO2 SLP104 T02820051 $,M
EKO,2024-09-01 12:56,-115.7860,40.8242,1367.00,52.00,20.00,28.13,80.00,6.00,0.00,30.21,1017.60,10.00,M,CLR,M,M,M,M,M,M,M,M,M,M,M,M,M,M,52.00,KEKO 011256Z AUTO 08006KT 10SM CLR 11/M07 A3021 RMK AO2 SLP176 T01111067,M
HND,2024-09-01 12:56,-115.1344,35.9729,742.79,74.00,46.00,36.85,180.00,7.00,0.00,30.02,1015.60,10.00,M,CLR,M,M,M,M,M,M,M,M,M,M,M,M,M,M,74.00,KHND 011256Z AUTO 18007KT 10SM CLR 23/08 A3002 RMK AO2 SLP156 T02330078,M
TPH,2024-09-01 12:56,-117.0904,38.0505,1654.00,59.00,39.00,47.35,350.00,11.00,0.00,30.22,1015.60,10.00,M,CLR,M,M,M,M,M,M,M,M,M,M,M,M,M,M,59.00,KTPH 011256Z AUTO 35011KT 10SM CLR 15/04 A3022 RMK AO2 SLP156 T01500039,M
LAS,2024-09-01 12:56,-115.1634,36.0719,663.00,80.00,45.00,29.08,200.00,4.00,0.00,29.99,1012.60,10.00,M,FEW,FEW,M,M,18000.00,25000.00,M,M,M,M,M,M,M,M,M,79.13,KLAS 011256Z 20004KT 10SM FEW180 FEW250 27/07 A2999 RMK AO2 SLP126 T02670072 $,M
NFL,2024-09-01 12:57,-118.7010,39.4166,1199.00,63.00,37.00,37.99,170.00,5.00,0.00,30.08,1015.30,10.00,M,CLR,M,M,M,M,M,M,M,M,M,M,M,M,M,M,63.00,KNFL 011257Z AUTO 17005KT 10SM CLR 17/03 A3008 RMK AO2 SLP153 T01720028,M
05U,2024-09-01 13:10,-116.0051,39.6042,1811.23,53.60,33.80,46.88,0.00,0.00,0.00,30.28,M,10.00,M,CLR,M,M,M,M,M,M,M,M,M,M,M,M,M,M,53.60,K05U 011310Z AUTO 00000KT 10SM CLR 12/01 A3028 RMK A01,M
BVU,2024-09-01 13:15,-114.8611,35.9475,671.00,75.20,50.00,41.14,0.00,0.00,0.00,29.98,M,10.00,M,CLR,M,M,M,M,M,M,M,M,M,M,M,M,M,M,75.20,KBVU 011315Z AUTO 00000KT 10SM CLR 24/10 A2998 RMK AO2,M
CXP,2024-09-01 13:15,-119.7326,39.1923,1431.00,51.80,39.20,61.99,0.00,0.00,0.00,30.17,M,10.00,M,CLR,M,M,M,M,M,M,M,M,M,M,M,M,M,M,51.80,KCXP 011315Z AUTO 00000KT 10SM CLR 11/04 A3017 RMK AO2,M
RTS,2024-09-01 13:15,-119.8764,39.6682,1539.00,53.60,28.40,37.67,330.00,3.00,0.00,30.18,M,7.00,M,CLR,M,M,M,M,M,M,M,M,M,M,M,M,M,M,53.60,KRTS 011315Z AUTO 33003KT 7SM CLR 12/M02 A3018 RMK AO2,M
MEV,2024-09-01 13:15,-119.7500,38.9963,1441.42,48.20,37.40,66.05,110.00,4.00,0.00,30.16,M,10.00,M,FEW,FEW,M,M,5000.00,5500.00,M,M,M,M,M,M,M,M,M,46.34,KMEV 011315Z AUTO 11004KT 10SM FEW050 FEW055 09/03 A3016 RMK AO2,M
BAM,2024-09-01 13:15,-116.8743,40.5990,1382.36,51.80,30.20,43.32,0.00,0.00,0.00,30.15,M,10.00,M,CLR,M,M,M,M,M,M,M,M,M,M,M,M,M,M,51.80,KBAM 011315Z AUTO 00000KT 10SM CLR 11/M01 A3015 RMK AO1,M
HTH,2024-09-01 13:15,-118.6315,38.5448,1282.89,68.00,33.80,28.11,180.00,6.00,0.00,30.11,M,10.00,M,CLR,M,M,M,M,M,M,M,M,M,M,M,M,M,M,68.00,KHTH 011315Z AUTO 18006KT 10SM CLR 20/01 A3011 RMK A01,M
TMT,2024-09-01 13:15,-117.1971,39.4643,1749.34,44.00,31.30,60.70,0.00,0.00,0.00,30.26,M,10.00,M,CLR,M,M,M,M,M,M,M,M,M,M,M,M,M,M,44.00,KTMT 011315Z AUTO 00000KT 10SM CLR 07/00 A3026 RMK AO2 T00671004,M
10U,2024-09-01 13:15,-116.1876,41.9532,1637.00,51.80,26.60,37.38,10.00,4.00,0.00,30.19,M,10.00,M,CLR,M,M,M,M,M,M,M,M,M,M,M,M,M,M,51.80,K10U 011315Z AUTO 01004KT 10SM CLR 11/M03 A3019 RMK AO2,M
05U,2024-09-01 13:30,-116.0051,39.6042,1811.23,53.60,33.80,46.88,0.00,0.00,0.00,30.28,M,10.00,M,CLR,M,M,M,M,M,M,M,M,M,M,M,M,M,M,53.60,K05U 011330Z AUTO 00000KT 10SM CLR 12/01 A3028 RMK A01,M
BVU,2024-09-01 13:35,-114.8611,35.9475,671.00,73.40,48.20,40.85,0.00,0.00,0.00,29.98,M,10.00,M,CLR,M,M,M,M,M,M,M,M,M,M,M,M,M,M,73.40,KBVU 011335Z AUTO 00000KT 10SM CLR 23/09 A2998 RMK AO2,M
CXP,2024-09-01 13:35,-119.7326,39.1923,1431.00,51.80,39.20,61.99,0.00,0.00,0.00,30.18,M,10.00,M,CLR,M,M,M,M,M,M,M,M,M,M,M,M,M,M,51.80,KCXP 011335Z AUTO 00000KT 10SM CLR 11/04 A3018 RMK AO2,M
RTS,2024-09-01 13:35,-119.8764,39.6682,1539.00,51.80,28.40,40.25,0.00,0.00,0.00,30.18,M,8.00,M,CLR,M,M,M,M,M,M,M,M,M,M,M,M,M,M,51.80,KRTS 011335Z AUTO 00000KT 8SM CLR 11/M02 A3018 RMK AO2,M
MEV,2024-09-01 13:35,-119.7500,38.9963,1441.42,46.40,33.80,61.28,130.00,3.00,0.00,30.16,M,10.00,M,CLR,M,M,M,M,M,M,M,M,M,M,M,M,M,M,45.15,KMEV 011335Z AUTO 13003KT 10SM CLR 08/01 A3016 RMK AO2,M
BAM,2024-09-01 13:35,-116.8743,40.5990,1382.36,50.00,28.40,43.03,190.00,4.00,0.00,30.16,M,10.00,M,CLR,M,M,M,M,M,M,M,M,M,M,M,M,M,M,50.00,KBAM 011335Z AUTO 19004KT 10SM CLR 10/M02 A3016 RMK AO1,M
HTH,2024-09-01 13:35,-118.6315,38.5448,1282.89,66.20,35.60,32.14,0.00,0.00,0.00,30.12,M,10.00,M,CLR,M,M,M,M,M,M,M,M,M,M,M,M,M,M,66.20,KHTH 011335Z AUTO 00000KT 10SM CLR 19/02 A3012 RMK A01,M
TMT,2024-09-01 13:35,-117.1971,39.4643,1749.34,38.30,28.40,67.25,0.00,0.00,0.00,30.26,M,10.00,M,CLR,M,M,M,M,M,M,M,M,M,M,M,M,M,M,38.30,KTMT 011335Z AUTO 00000KT 10SM CLR 04/M02 A3026 RMK AO2 T00351020,M
10U,2024-09-01 13:35,-116.1876,41.9532,1637.00,50.00,28.40,43.03,0.00,0.00,0.00,30.20,M,10.00,M,CLR,M,M,M,M,M,M,M,M,M,M,M,M,M,M,50.00,K10U 011335Z AUTO 00000KT 10SM CLR 10/M02 A3020 RMK AO2,M
05U,2024-09-01 13:50,-116.0051,39.6042,1811.23,53.60,33.80,46.88,0.00,0.00,0.00,30.29,M,10.00,M,CLR,M,M,M,M,M,M,M,M,M,M,M,M,M,M,53.60,K05U 011350Z AUTO 00000KT 10SM CLR 12/01 A3029 RMK A01,M
P68,2024-09-01 13:53,-116.0056,39.6014,1993.00,54.00,35.00,48.46,190.00,5.00,0.00,30.26,1017.00,M,M,M,M,M,M,M,M,M,M,M,M,M,M,M,M,M,54.00,KP68 011353Z AUTO 19005KT 12/02 A3026 RMK AO1 SLP170 T01220017,M
DRA,2024-09-01 13:53,-116.0278,36.6206,1009.00,72.00,40.00,31.32,30.00,3.00,0.00,30.06,1012.80,10.00,M,CLR,M,M,M,M,M,M,M,M,M,M,M,M,M,M,72.00,KDRA 011353Z AUTO 03003KT 10SM CLR 22/04 A3006 RMK AO2 SLP128 T02220044,M
ELY,2024-09-01 13:53,-114.8453,39.2950,1909.00,51.00,33.00,49.96,200.00,6.00,0.00,30.31,1017.30,10.00,M,CLR,M,M,M,M,M,M,M,M,M,M,M,M,M,M,51.00,KELY 011353Z AUTO 20006KT 10SM CLR 11/01 A3031 RMK AO2 SLP173 T01060006,M
VGT,2024-09-01 13:53,-115.1933,36.2111,667.00,81.00,45.00,28.15,340.00,5.00,0.00,29.99,1014.30,10.00,M,CLR,M,M,M,M,M,M,M,M,M,M,M,M,M,M,79.68,KVGT 011353Z 34005KT 10SM CLR 27/07 A2999 RMK AO2 SLP143 T02720072,M
LOL,2024-09-01 13:53,-118.5701,40.0684,1192.43,53.00,34.00,48.30,M,4.00,0.00,30.09,1015.30,10.00,M,CLR,M,M,M,M,M,M,M,M,M,M,M,M,M,M,53.00,KLOL 011353Z AUTO VRB04KT 10SM CLR 12/01 A3009 RMK AO2 SLP153 T01170011,M
BVU,2024-09-01 13:55,-114.8611,35.9475,671.00,75.20,50.00,41.14,0.00,0.00,0.00,29.98,M,10.00,M,CLR,M,M,M,M,M,M,M,M,M,M,M,M,M,M,75.20,KBVU 011355Z AUTO 00000KT 10SM CLR 24/10 A2998 RMK AO2,M
RNO,2024-09-01 13:55,-119.7711,39.4839,1341.00,60.00,44.00,55.42,0.00,0.00,0.00,30.15,1015.70,10.00,M,FEW,M,M,M,13000.00,M,M,M,M,M,M,M,M,M,M,60.00,KRNO 011355Z 00000KT 10SM FEW130 16/07 A3015 RMK AO2 SLP157 FU ALF DSNT W T01560067,M
CXP,2024-09-01 13:55,-119.7326,39.1923,1431.00,53.60,39.20,58.02,0.00,0.00,0.00,30.18,M,10.00,M,CLR,M,M,M,M,M,M,M,M,M,M,M,M,M,M,53.60,KCXP 011355Z AUTO 00000KT 10SM CLR 12/04 A3018 RMK AO2,M
RTS,2024-09-01 13:55,-119.8764,39.6682,1539.00,51.80,30.20,43.32,330.00,4.00,0.00,30.19,M,10.00,M,CLR,M,M,M,M,M,M,M,M,M,M,M,M,M,M,51.80,KRTS 011355Z AUTO 33004KT 10SM CLR 11/M01 A3019 RMK AO2,M
MEV,2024-09-01 13:55,-119.7500,38.9963,1441.42,46.40,35.60,65.83,0.00,0.00,0.00,30.16,M,10.00,M,CLR,M,M,M,M,M,M,M,M,M,M,M,M,M,M,46.40,KMEV 011355Z AUTO 00000KT 10SM CLR 08/02 A3016 RMK AO2,M
BAM,2024-09-01 13:55,-116.8743,40.5990,1382.36,51.80,30.20,43.32,120.00,3.00,0.00,30.16,M,10.00,M,CLR,M,M,M,M,M,M,M,M,M,M,M,M,M,M,51.80,KBAM 011355Z AUTO 12003KT 10SM CLR 11/M01 A3016 RMK AO1,M
HTH,2024-09-01 13:55,-118.6315,38.5448,1282.89,68.00,35.60,30.20,250.00,6.00,0.00,30.13,M,10.00,M,CLR,M,M,M,M,M,M,M,M,M,M,M,M,M,M,68.00,KHTH 011355Z AUTO 25006KT 10SM CLR 20/02 A3013 RMK A01,M
TMT,2024-09-01 13:55,-117.1971,39.4643,1749.34,42.00,31.30,65.55,0.00,0.00,0.00,30.27,M,10.00,M,CLR,M,M,M,M,M,M,M,M,M,M,M,M,M,M,42.00,KTMT 011355Z AUTO 00000KT 10SM CLR 06/00 A3027 RMK AO2 T00561004,M
10U,2024-09-01 13:55,-116.1876,41.9532,1637.00,51.80,30.20,43.32,0.00,0.00,0.00,30.20,M,10.00,M,CLR,M,M,M,M,M,M,M,M,M,M,M,M,M,M,51.80,K10U 011355Z AUTO 00000KT 10SM CLR 11/M01 A3020 RMK AO2,M
INS,2024-09-01 13:55,-115.6733,36.5872,955.00,68.00,34.50,28.91,0.00,0.00,0.00,30.06,1012.80,10.00,M,CLR,M,M,M,M,M,M,M,M,M,M,M,M,M,M,68.00,KINS 011355Z AUTO 00000KT 10SM CLR 20/01 A3006 RMK AO2 SLP128 T02000014,M
LSV,2024-09-01 13:55,-115.0343,36.2362,570.00,82.00,42.60,24.86,40.00,6.00,0.00,29.95,1011.20,10.00,M,CLR,M,M,M,M,M,M,M,M,M,M,M,M,M,M,80.12,KLSV 011355Z AUTO 04006KT 10SM CLR 28/06 A2995 RMK AO2 SLP112 T02770059 $,M
EKO,2024-09-01 13:56,-115.7860,40.8242,1367.00,53.00,22.00,29.51,100.00,3.00,0.00,30.22,1018.30,10.00,M,CLR,M,M,M,M,M,M,M,M,M,M,M,M,M,M,53.00,KEKO 011356Z AUTO 10003KT 10SM CLR 12/M06 A3022 RMK AO2 SLP183 T01171056,M
HND,2024-09-01 13:56,-115.1344,35.9729,742.79,73.00,49.00,42.67,190.00,7.00,0.00,30.03,1015.80,10.00,M,CLR,M,M,M,M,M,M,M,M,M,M,M,M,M,M,73.00,KHND 011356Z 19007KT 10SM CLR 23/09 A3003 RMK AO2 SLP158 T02280094,M
TPH,2024-09-01 13:56,-117.0904,38.0505,1654.00,61.00,38.00,42.40,350.00,7.00,0.00,30.23,1016.10,10.00,M,CLR,M,M,M,M,M,M,M,M,M,M,M,M,M,M,61.00,KTPH 011356Z AUTO 35007KT 10SM CLR 16/03 A3023 RMK AO2 SLP161 T01610033,M
LAS,2024-09-01 13:56,-115.1634,36.0719,663.00,81.00,47.00,30.36,210.00,3.00,0.00,30.01,1013.20,10.00,M,FEW,FEW,M,M,18000.00,25000.00,M,M,M,M,M,M,M,M,M,79.84,KLAS 011356Z 21003KT 10SM FEW180 FEW250 27/08 A3001 RMK AO2 SLP132 T02720083 $,M
NFL,2024-09-01 13:57,-118.7010,39.4166,1199.00,63.00,36.00,36.52,160.00,7.00,0.00,30.09,1015.70,10.00,M,CLR,M,M,M,M,M,M,M,M,M,M,M,M,M,M,63.00,KNFL 011357Z AUTO 16007KT 10SM CLR 17/02 A3009 RMK AO2 SLP157 T01720022,M
BVU,2024-09-01 14:15,-114.8611,35.9475,671.00,78.80,48.20,34.13,0.00,0.00,0.00,29.99,M,10.00,M,CLR,M,M,M,M,M,M,M,M,M,M,M,M,M,M,78.80,KBVU 011415Z AUTO 00000KT 10SM CLR 26/09 A2999 RMK AO2,M
CXP,2024-09-01 14:15,-119.7326,39.1923,1431.00,57.20,39.20,50.91,0.00,0.00,0.00,30.18,M,10.00,M,CLR,M,M,M,M,M,M,M,M,M,M,M,M,M,M,57.20,KCXP 011415Z AUTO 00000KT 10SM CLR 14/04 A3018 RMK AO2,M
RTS,2024-09-01 14:15,-119.8764,39.6682,1539.00,53.60,30.20,40.54,340.00,4.00,0.00,30.19,M,10.00,M,CLR,M,M,M,M,M,M,M,M,M,M,M,M,M,M,53.60,KRTS 011415Z AUTO 34004KT 10SM CLR 12/M01 A3019 RMK AO2,M
MEV,2024-09-01 14:15,-119.7500,38.9963,1441.42,50.00,35.60,57.52,100.00,3.00,0.00,30.17,M,10.00,M,CLR,M,M,M,M,M,M,M,M,M,M,M,M,M,M,50.00,KMEV 011415Z AUTO 10003KT 10SM CLR 10/02 A3017 RMK AO2,M
BAM,2024-09-01 14:15,-116.8743,40.5990,1382.36,53.60,30.20,40.54,0.00,0.00,0.00,30.17,M,10.00,M,CLR,M,M,M,M,M,M,M,M,M,M,M,M,M,M,53.60,KBAM 011415Z AUTO 00000KT 10SM CLR 12/M01 A3017 RMK AO1,M
HTH,2024-09-01 14:15,-118.6315,38.5448,1282.89,68.00,37.40,32.43,230.00,4.00,0.00,30.13,M,10.00,M,CLR,M,M,M,M,M,M,M,M,M,M,M,M,M,M,68.00,KHTH 011415Z AUTO 23004KT 10SM CLR 20/03 A3013 RMK A01,M
TMT,2024-09-01 14:15,-117.1971,39.4643,1749.34,47.30,32.00,55.10,0.00,0.00,0.00,30.27,M,10.00,M,CLR,M,M,M,M,M,M,M,M,M,M,M,M,M,M,47.30,KTMT 011415Z AUTO 00000KT 10SM CLR 09/00 A3027 RMK AO2 T00850000,M
10U,2024-09-01 14:15,-116.1876,41.9532,1637.00,51.80,28.40,40.25,0.00,0.00,0.00,30.20,M,10.00,M,CLR,M,M,M,M,M,M,M,M,M,M,M,M,M,M,51.80,K10U 011415Z AUTO 00000KT 10SM CLR 11/M02 A3020 RMK AO2,M
BVU,2024-09-01 14:35,-114.8611,35.9475,671.00,78.80,46.40,31.90,0.00,0.00,0.00,29.99,M,10.00,M,CLR,M,M,M,M,M,M,M,M,M,M,M,M,M,M,78.80,KBVU 011435Z AUTO 00000KT 10SM CLR 26/08 A2999 RMK AO2,M
CXP,2024-09-01 14:35,-119.7326,39.1923,1431.00,57.20,41.00,54.60,0.00,0.00,0.00,30.18,M,10.00,M,CLR,M,M,M,M,M,M,M,M,M,M,M,M,M,M,57.20,KCXP 011435Z AUTO 00000KT 10SM CLR 14/05 A3018 RMK AO2,M
RTS,2024-09-01 14:35,-119.8764,39.6682,1539.00,57.20,30.20,35.57,360.00,4.00,0.00,30.19,M,10.00,M,CLR,M,M,M,M,M,M,M,M,M,M,M,M,M,M,57.20,KRTS 011435Z AUTO 36004KT 10SM CLR 14/M01 A3019 RMK AO2,M
MEV,2024-09-01 14:35,-119.7500,38.9963,1441.42,55.40,35.60,47.16,250.00,3.00,0.00,30.17,M,10.00,M,CLR,M,M,M,M,M,M,M,M,M,M,M,M,M,M,55.40,KMEV 011435Z AUTO 25003KT 10SM CLR 13/02 A3017 RMK AO2,M
BAM,2024-09-01 14:35,-116.8743,40.5990,1382.36,59.00,32.00,35.87,0.00,0.00,0.00,30.17,M,10.00,M,CLR,M,M,M,M,M,M,M,M,M,M,M,M,M,M,59.00,KBAM 011435Z AUTO 00000KT 10SM CLR 15/00 A3017 RMK AO1,M
HTH,2024-09-01 14:35,-118.6315,38.5448,1282.89,69.80,42.80,37.61,290.00,4.00,0.00,30.13,M,10.00,M,CLR,M,M,M,M,M,M,M,M,M,M,M,M,M,M,69.80,KHTH 011435Z AUTO 29004KT 10SM CLR 21/06 A3013 RMK A01,M
TMT,2024-09-01 14:35,-117.1971,39.4643,1749.34,52.00,33.80,49.72,0.00,0.00,0.00,30.27,M,10.00,M,CLR,M,M,M,M,M,M,M,M,M,M,M,M,M,M,52.00,KTMT 011435Z AUTO 00000KT 10SM CLR 11/01 A3027 RMK AO2 T01110010,M
10U,2024-09-01 14:35,-116.1876,41.9532,1637.00,55.40,26.60,32.76,0.00,0.00,0.00,30.21,M,10.00,M,CLR,M,M,M,M,M,M,M,M,M,M,M,M,M,M,55.40,K10U 011435Z AUTO 00000KT 10SM CLR 13/M03 A3021 RMK AO2,M
DRA,2024-09-01 14:53,-116.0278,36.6206,1009.00,78.00,41.00,26.64,0.00,0.00,0.00,30.07,1013.00,10.00,M,CLR,M,M,M,M,M,M,M,M,M,M,M,M,M,M,78.00,KDRA 011453Z AUTO 00000KT 10SM CLR 26/05 A3007 RMK AO2 SLP130 T02560050 51010,M
ELY,2024-09-01 14:53,-114.8453,39.2950,1909.00,61.00,35.00,37.66,160.00,7.00,0.00,30.31,1016.80,10.00,M,CLR,M,M,M,M,M,M,M,M,M,M,M,M,M,M,61.00,KELY 011453Z AUTO 16007KT 10SM CLR 16/02 A3031 RMK AO2 SLP168 T01610017 53004,M
VGT,2024-09-01 14:53,-115.1933,36.2111,667.00,85.00,45.00,24.73,0.00,0.00,0.00,30.01,1014.80,10.00,M,CLR,M,M,M,M,M,M,M,M,M,M,M,M,M,M,82.34,KVGT 011453Z 00000KT 10SM CLR 29/07 A3001 RMK AO2 SLP148 T02940072 51016,M
LOL,2024-09-01 14:53,-118.5701,40.0684,1192.43,59.00,35.00,40.45,170.00,4.00,0.00,30.10,1016.00,10.00,M,CLR,M,M,M,M,M,M,M,M,M,M,M,M,M,M,59.00,KLOL 011453Z AUTO 17004KT 10SM CLR 15/02 A3010 RMK AO2 SLP160 T01500017 53006,M
BVU,2024-09-01 14:55,-114.8611,35.9475,671.00,80.60,44.60,28.08,0.00,0.00,0.00,30.00,M,10.00,M,CLR,M,M,M,M,M,M,M,M,M,M,M,M,M,M,79.42,KBVU 011455Z AUTO 00000KT 10SM CLR 27/07 A3000 RMK AO2,M
RNO,2024-09-01 14:55,-119.7711,39.4839,1341.00,64.00,44.00,48.12,0.00,0.00,0.00,30.16,1015.70,10.00,M,CLR,M,M,M,M,M,M,M,M,M,M,M,M,M,M,64.00,KRNO 011455Z 00000KT 10SM CLR 18/07 A3016 RMK AO2 SLP157 T01780067 53005,M
BAM,2024-09-01 14:55,-116.8743,40.5990,1382.36,62.60,32.00,31.56,0.00,0.00,0.00,30.17,M,10.00,M,CLR,M,M,M,M,M,M,M,M,M,M,M,M,M,M,62.60,KBAM 011455Z AUTO 00000KT 10SM CLR 17/00 A3017 RMK AO1,M
CXP,2024-09-01 14:55,-119.7326,39.1923,1431.00,60.80,39.20,44.76,0.00,0.00,0.00,30.19,M,10.00,M,CLR,M,M,M,M,M,M,M,M,M,M,M,M,M,M,60.80,KCXP 011455Z AUTO 00000KT 10SM CLR 16/04 A3019 RMK AO2,M
RTS,2024-09-01 14:55,-119.8764,39.6682,1539.00,60.80,30.20,31.28,0.00,0.00,0.00,30.20,M,10.00,M,CLR,M,M,M,M,M,M,M,M,M,M,M,M,M,M,60.80,KRTS 011455Z AUTO 00000KT 10SM CLR 16/M01 A3020 RMK AO2,M
MEV,2024-09-01 14:55,-119.7500,38.9963,1441.42,57.20,39.20,50.91,0.00,0.00,0.00,30.18,M,10.00,M,CLR,M,M,M,M,M,M,M,M,M,M,M,M,M,M,57.20,KMEV 011455Z AUTO 00000KT 10SM CLR 14/04 A3018 RMK AO2,M
HTH,2024-09-01 14:55,-118.6315,38.5448,1282.89,69.80,37.40,30.49,290.00,3.00,0.00,30.14,M,10.00,M,CLR,M,M,M,M,M,M,M,M,M,M,M,M,M,M,69.80,KHTH 011455Z AUTO 29003KT 10SM CLR 21/03 A3014 RMK A01,M
TMT,2024-09-01 14:55,-117.1971,39.4643,1749.34,55.40,35.00,46.05,0.00,0.00,0.00,30.27,M,10.00,M,CLR,M,M,M,M,M,M,M,M,M,M,M,M,M,M,55.40,KTMT 011455Z AUTO 00000KT 10SM CLR 13/02 A3027 RMK AO2 T01300016,M
10U,2024-09-01 14:55,-116.1876,41.9532,1637.00,55.40,28.40,35.28,0.00,0.00,0.00,30.21,M,10.00,M,CLR,M,M,M,M,M,M,M,M,M,M,M,M,M,M,55.40,K10U 011455Z AUTO 00000KT 10SM CLR 13/M02 A3021 RMK AO2,M
INS,2024-09-01 14:55,-115.6733,36.5872,955.00,74.50,37.40,26.01,0.00,0.00,0.00,30.07,1012.60,10.00,M,CLR,M,M,M,M,M,M,M,M,M,M,M,M,M,M,74.50,KINS 011455Z AUTO 00000KT 10SM CLR 24/03 A3007 RMK AO2 SLP126 T02360030 52010,M
LSV,2024-09-01 14:55,-115.0343,36.2362,570.00,85.30,39.60,19.90,0.00,0.00,0.00,29.96,1011.50,10.00,M,CLR,M,M,M,M,M,M,M,M,M,M,M,M,M,M,82.27,KLSV 011455Z AUTO 00000KT 10SM CLR 30/04 A2996 RMK AO2 SLP115 T02960042 52017 $,M
EKO,2024-09-01 14:56,-115.7860,40.8242,1367.00,58.00,23.00,25.67,0.00,0.00,0.00,30.23,1019.00,10.00,M,CLR,M,M,M,M,M,M,M,M,M,M,M,M,M,M,58.00,KEKO 011456Z AUTO 00000KT 10SM CLR 14/M05 A3023 RMK AO2 SLP190 T01441050 53008,M
HND,2024-09-01 14:56,-115.1344,35.9729,742.79,82.00,48.00,30.51,0.00,0.00,0.00,30.05,1016.20,10.00,M,CLR,M,M,M,M,M,M,M,M,M,M,M,M,M,M,80.53,KHND 011456Z 00000KT 10SM CLR 28/09 A3005 RMK AO2 SLP162 T02780089 53013,M
TPH,2024-09-01 14:56,-117.0904,38.0505,1654.00,66.00,39.00,37.00,10.00,7.00,0.00,30.24,1016.40,10.00,M,CLR,M,M,M,M,M,M,M,M,M,M,M,M,M,M,66.00,KTPH 011456Z AUTO 01007KT 10SM CLR 19/04 A3024 RMK AO2 SLP164 T01890039 53006,M
LAS,2024-09-01 14:56,-115.1634,36.0719,663.00,83.00,49.00,30.67,280.00,4.00,0.00,30.02,1013.80,10.00,M,FEW,FEW,SCT,M,12000.00,18000.00,25000.00,M,M,M,M,M,M,M,M,81.28,KLAS 011456Z 28004KT 10SM FEW120 FEW180 SCT250 29/10 A3002 RMK AO2 SLP138 T02830094 51015 $,M
NFL,2024-09-01 14:57,-118.7010,39.4166,1199.00,74.00,37.00,26.03,160.00,4.00,0.00,30.10,1016.00,10.00,M,CLR,M,M,M,M,M,M,M,M,M,M,M,M,M,M,74.00,KNFL 011457Z AUTO 16004KT 10SM CLR 23/03 A3010 RMK AO2 SLP160 T02330028 53008,M
HTH,2024-09-01 15:10,-118.6315,38.5448,1282.89,69.80,35.60,28.39,0.00,0.00,0.00,30.14,M,10.00,M,CLR,M,M,M,M,M,M,M,M,M,M,M,M,M,M,69.80,KHTH 011510Z AUTO 00000KT 10SM CLR 21/02 A3014 RMK A01,M
BVU,2024-09-01 15:15,-114.8611,35.9475,671.00,82.40,44.60,26.49,0.00,0.00,0.00,30.00,M,10.00,M,CLR,M,M,M,M,M,M,M,M,M,M,M,M,M,M,80.50,KBVU 011515Z AUTO 00000KT 10SM CLR 28/07 A3000 RMK AO2,M
CXP,2024-09-01 15:15,-119.7326,39.1923,1431.00,64.40,39.20,39.43,180.00,3.00,0.00,30.19,M,10.00,M,CLR,M,M,M,M,M,M,M,M,M,M,M,M,M,M,64.40,KCXP 011515Z AUTO 18003KT 10SM CLR 18/04 A3019 RMK AO2,M
RTS,2024-09-01 15:15,-119.8764,39.6682,1539.00,64.40,32.00,29.63,0.00,0.00,0.00,30.19,M,10.00,M,CLR,M,M,M,M,M,M,M,M,M,M,M,M,M,M,64.40,KRTS 011515Z AUTO 00000KT 10SM CLR 18/M00 A3019 RMK AO2,M
MEV,2024-09-01 15:15,-119.7500,38.9963,1441.42,59.00,37.40,44.47,0.00,0.00,0.00,30.18,M,3.00,M,CLR,M,M,M,M,M,M,M,HZ,M,M,M,M,M,M,59.00,KMEV 011515Z AUTO 00000KT 3SM HZ CLR 15/03 A3018 RMK AO2,M
BAM,2024-09-01 15:15,-116.8743,40.5990,1382.36,68.00,32.00,26.15,0.00,0.00,0.00,30.18,M,10.00,M,CLR,M,M,M,M,M,M,M,M,M,M,M,M,M,M,68.00,KBAM 011515Z AUTO 00000KT 10SM CLR 20/00 A3018 RMK AO1,M
TMT,2024-09-01 15:15,-117.1971,39.4643,1749.34,59.00,36.30,42.58,0.00,0.00,0.00,30.27,M,10.00,M,CLR,M,M,M,M,M,M,M,M,M,M,M,M,M,M,59.00,KTMT 011515Z AUTO 00000KT 10SM CLR 15/02 A3027 RMK AO2 T01500024,M
10U,2024-09-01 15:15,-116.1876,41.9532,1637.00,59.00,30.20,33.35,0.00,0.00,0.00,30.21,M,10.00,M,FEW,M,M,M,11000.00,M,M,M,M,M,M,M,M,M,M,59.00,K10U 011515Z AUTO 00000KT 10SM FEW110 15/M01 A3021 RMK AO2,M
BVU,2024-09-01 15:35,-114.8611,35.9475,671.00,84.20,44.60,24.99,220.00,3.00,0.00,30.00,M,10.00,M,CLR,M,M,M,M,M,M,M,M,M,M,M,M,M,M,81.73,KBVU 011535Z AUTO 22003KT 10SM CLR 29/07 A3000 RMK AO2,M
CXP,2024-09-01 15:35,-119.7326,39.1923,1431.00,66.20,37.40,34.51,0.00,0.00,0.00,30.19,M,10.00,M,CLR,M,M,M,M,M,M,M,M,M,M,M,M,M,M,66.20,KCXP 011535Z AUTO 00000KT 10SM CLR 19/03 A3019 RMK AO2,M
RTS,2024-09-01 15:35,-119.8764,39.6682,1539.00,66.20,33.80,29.92,0.00,0.00,0.00,30.19,M,10.00,M,CLR,M,M,M,M,M,M,M,M,M,M,M,M,M,M,66.20,KRTS 011535Z AUTO 00000KT 10SM CLR 19/01 A3019 RMK AO2,M
MEV,2024-09-01 15:35,-119.7500,38.9963,1441.42,62.60,39.20,42.00,90.00,4.00,0.00,30.18,M,10.00,M,CLR,M,M,M,M,M,M,M,M,M,M,M,M,M,M,62.60,KMEV 011535Z AUTO 09004KT 10SM CLR 17/04 A3018 RMK AO2,M
BAM,2024-09-01 15:35,-116.8743,40.5990,1382.36,69.80,33.80,26.43,0.00,0.00,0.00,30.18,M,10.00,M,CLR,M,M,M,M,M,M,M,M,M,M,M,M,M,M,69.80,KBAM 011535Z AUTO 00000KT 10SM CLR 21/01 A3018 RMK AO1,M
HTH,2024-09-01 15:35,-118.6315,38.5448,1282.89,73.40,37.40,26.98,0.00,0.00,0.00,30.15,M,10.00,M,CLR,M,M,M,M,M,M,M,M,M,M,M,M,M,M,73.40,KHTH 011535Z AUTO 00000KT 10SM CLR 23/03 A3015 RMK A01,M
TMT,2024-09-01 15:35,-117.1971,39.4643,1749.34,62.00,37.00,39.35,0.00,0.00,0.00,30.27,M,10.00,M,CLR,M,M,M,M,M,M,M,M,M,M,M,M,M,M,62.00,KTMT 011535Z AUTO 00000KT 10SM CLR 17/03 A3027 RMK AO2 T01670028,M
10U,2024-09-01 15:35,-116.1876,41.9532,1637.00,62.60,28.40,27.27,0.00,0.00,0.00,30.22,M,10.00,M,CLR,M,M,M,M,M,M,M,M,M,M,M,M,M,M,62.60,K10U 011535Z AUTO 00000KT 10SM CLR 17/M02 A3022 RMK AO2,M
CXP,2024-09-01 15:50,-119.7326,39.1923,1431.00,68.00,35.60,30.20,0.00,0.00,0.00,30.19,M,10.00,M,CLR,M,M,M,M,M,M,M,M,M,M,M,M,M,M,68.00,KCXP 011550Z AUTO 00000KT 10SM CLR 20/02 A3019 RMK AO2,M
DRA,2024-09-01 15:53,-116.0278,36.6206,1009.00,85.00,42.00,22.05,0.00,0.00,0.00,30.08,1012.90,10.00,M,CLR,M,M,M,M,M,M,M,M,M,M,M,M,M,M,82.15,KDRA 011553Z AUTO 00000KT 10SM CLR 29/06 A3008 RMK AO2 SLP129 T02940056,M
ELY,2024-09-01 15:53,-114.8453,39.2950,1909.00,69.00,37.00,30.84,200.00,4.00,0.00,30.31,1016.30,10.00,M,CLR,M,M,M,M,M,M,M,M,M,M,M,M,M,M,69.00,KELY 011553Z AUTO 20004KT 10SM CLR 21/03 A3031 RMK AO2 SLP163 T02060028,M
VGT,2024-09-01 15:53,-115.1933,36.2111,667.00,90.00,46.00,21.91,0.00,0.00,0.00,30.01,1014.90,10.00,M,CLR,M,M,M,M,M,M,M,M,M,M,M,M,M,M,86.55,KVGT 011553Z 00000KT 10SM CLR 32/08 A3001 RMK AO2 SLP149 T03220078,M
LOL,2024-09-01 15:53,-118.5701,40.0684,1192.43,71.00,37.00,28.81,80.00,3.00,0.00,30.11,1015.90,10.00,M,CLR,M,M,M,M,M,M,M,M,M,M,M,M,M,M,71.00,KLOL 011553Z AUTO 08003KT 10SM CLR 22/03 A3011 RMK AO2 SLP159 T02170028,M
BVU,2024-09-01 15:55,-114.8611,35.9475,671.00,86.00,44.60,23.59,0.00,0.00,0.00,30.00,M,10.00,M,CLR,M,M,M,M,M,M,M,M,M,M,M,M,M,M,83.07,KBVU 011555Z AUTO 00000KT 10SM CLR 30/07 A3000 RMK AO2,M
RNO,2024-09-01 15:55,-119.7711,39.4839,1341.00,69.00,45.00,42.04,0.00,0.00,0.00,30.15,1015.30,10.00,M,CLR,M,M,M,M,M,M,M,M,M,M,M,M,M,M,69.00,KRNO 011555Z 00000KT 10SM CLR 21/07 A3015 RMK AO2 SLP153 T02060072,M
BAM,2024-09-01 15:55,-116.8743,40.5990,1382.36,71.60,33.80,24.86,0.00,0.00,0.00,30.17,M,10.00,M,CLR,M,M,M,M,M,M,M,M,M,M,M,M,M,M,71.60,KBAM 011555Z AUTO 00000KT 10SM CLR 22/01 A3017 RMK AO1,M
RTS,2024-09-01 15:55,-119.8764,39.6682,1539.00,69.80,33.80,26.43,0.00,0.00,0.00,30.19,M,10.00,M,CLR,M,M,M,M,M,M,M,M,M,M,M,M,M,M,69.80,KRTS 011555Z AUTO 00000KT 10SM CLR 21/01 A3019 RMK AO2,M
MEV,2024-09-01 15:55,-119.7500,38.9963,1441.42,64.40,41.00,42.28,0.00,0.00,0.00,30.18,M,10.00,M,CLR,M,M,M,M,M,M,M,M,M,M,M,M,M,M,64.40,KMEV 011555Z AUTO 00000KT 10SM CLR 18/05 A3018 RMK AO2,M
HTH,2024-09-01 15:55,-118.6315,38.5448,1282.89,73.40,37.40,26.98,0.00,0.00,0.00,30.15,M,10.00,M,CLR,M,M,M,M,M,M,M,M,M,M,M,M,M,M,73.40,KHTH 011555Z AUTO 00000KT 10SM CLR 23/03 A3015 RMK A01,M
TMT,2024-09-01 15:55,-117.1971,39.4643,1749.34,65.30,38.00,36.46,0.00,0.00,0.00,30.27,M,10.00,M,CLR,M,M,M,M,M,M,M,M,M,M,M,M,M,M,65.30,KTMT 011555Z AUTO 00000KT 10SM CLR 19/03 A3027 RMK AO2 T01850033,M
10U,2024-09-01 15:55,-116.1876,41.9532,1637.00,64.40,28.40,25.60,20.00,4.00,0.00,30.22,M,10.00,M,CLR,M,M,M,M,M,M,M,M,M,M,M,M,M,M,64.40,K10U 011555Z AUTO 02004KT 10SM CLR 18/M02 A3022 RMK AO2,M
INS,2024-09-01 15:55,-115.6733,36.5872,955.00,79.00,38.00,22.93,0.00,0.00,0.00,30.08,1013.00,10.00,M,CLR,M,M,M,M,M,M,M,M,M,M,M,M,M,M,79.00,KINS 011555Z AUTO 00000KT 10SM CLR 26/03 A3008 RMK AO2 SLP130 T02620034,M
LSV,2024-09-01 15:55,-115.0343,36.2362,570.00,87.80,40.50,19.03,0.00,0.00,0.00,29.96,1011.50,10.00,M,CLR,M,M,M,M,M,M,M,M,M,M,M,M,M,M,84.28,KLSV 011555Z AUTO 00000KT 10SM CLR 31/05 A2996 RMK AO2 SLP115 T03100047 $,M
EKO,2024-09-01 15:56,-115.7860,40.8242,1367.00,65.00,27.00,23.67,120.00,3.00,0.00,30.23,1018.70,10.00,M,CLR,M,M,M,M,M,M,M,M,M,M,M,M,M,M,65.00,KEKO 011556Z AUTO 12003KT 10SM CLR 18/M03 A3023 RMK AO2 SLP187 T01831028,M
HND,2024-09-01 15:56,-115.1344,35.9729,742.79,87.00,47.00,25.02,0.00,0.00,0.00,30.06,1016.20,10.00,M,CLR,M,M,M,M,M,M,M,M,M,M,M,M,M,M,84.08,KHND 011556Z 00000KT 10SM CLR 31/08 A3006 RMK AO2 SLP162 T03060083,M
TPH,2024-09-01 15:56,-117.0904,38.0505,1654.00,73.00,39.00,29.12,0.00,0.00,0.00,30.25,1016.00,10.00,M,CLR,M,M,M,M,M,M,M,M,M,M,M,M,M,M,73.00,KTPH 011556Z AUTO 00000KT 10SM CLR 23/04 A3025 RMK AO2 SLP160 T02280039,M
LAS,2024-09-01 15:56,-115.1634,36.0719,663.00,86.00,49.00,27.85,30.00,5.00,0.00,30.03,1014.10,10.00,M,FEW,FEW,SCT,M,12000.00,18000.00,25000.00,M,M,M,M,M,M,M,M,83.49,KLAS 011556Z 03005KT 10SM FEW120 FEW180 SCT250 30/09 A3003 RMK AO2 SLP141 T03000094 $,M
NFL,2024-09-01 15:57,-118.7010,39.4166,1199.00,79.00,38.00,22.93,180.00,4.00,0.00,30.11,1016.20,10.00,M,CLR,M,M,M,M,M,M,M,M,M,M,M,M,M,M,79.00,KNFL 011557Z AUTO 18004KT 10SM CLR 26/03 A3011 RMK AO2 SLP162 T02610033,M
BVU,2024-09-01 16:15,-114.8611,35.9475,671.00,87.80,44.60,22.27,0.00,0.00,0.00,30.00,M,10.00,M,CLR,M,M,M,M,M,M,M,M,M,M,M,M,M,M,84.53,KBVU 011615Z AUTO 00000KT 10SM CLR 31/07 A3000 RMK AO2,M
CXP,2024-09-01 16:15,-119.7326,39.1923,1431.00,69.80,35.60,28.39,280.00,4.00,0.00,30.19,M,10.00,M,CLR,M,M,M,M,M,M,M,M,M,M,M,M,M,M,69.80,KCXP 011615Z AUTO 28004KT 10SM CLR 21/02 A3019 RMK AO2,M
RTS,2024-09-01 16:15,-119.8764,39.6682,1539.00,71.60,33.80,24.86,0.00,0.00,0.00,30.19,M,10.00,M,CLR,M,M,M,M,M,M,M,M,M,M,M,M,M,M,71.60,KRTS 011615Z AUTO 00000KT 10SM CLR 22/01 A3019 RMK AO2,M
MEV,2024-09-01 16:15,-119.7500,38.9963,1441.42,68.00,35.60,30.20,220.00,3.00,0.00,30.17,M,10.00,M,CLR,M,M,M,M,M,M,M,M,M,M,M,M,M,M,68.00,KMEV 011615Z AUTO 22003KT 10SM CLR 20/02 A3017 RMK AO2,M
BAM,2024-09-01 16:15,-116.8743,40.5990,1382.36,77.00,33.80,20.74,0.00,0.00,0.00,30.17,M,10.00,M,CLR,M,M,M,M,M,M,M,M,M,M,M,M,M,M,77.00,KBAM 011615Z AUTO 00000KT 10SM CLR 25/01 A3017 RMK AO1,M
HTH,2024-09-01 16:15,-118.6315,38.5448,1282.89,75.20,35.60,23.66,340.00,3.00,0.00,30.15,M,10.00,M,CLR,M,M,M,M,M,M,M,M,M,M,M,M,M,M,75.20,KHTH 011615Z AUTO 34003KT 10SM CLR 24/02 A3015 RMK A01,M
TMT,2024-09-01 16:15,-117.1971,39.4643,1749.34,69.40,39.20,33.17,0.00,0.00,0.00,30.27,M,10.00,M,CLR,M,M,M,M,M,M,M,M,M,M,M,M,M,M,69.40,KTMT 011615Z AUTO 00000KT 10SM CLR 21/04 A3027 RMK AO2 T02080040,M
10U,2024-09-01 16:15,-116.1876,41.9532,1637.00,66.20,28.40,24.04,0.00,0.00,0.00,30.22,M,10.00,M,CLR,M,M,M,M,M,M,M,M,M,M,M,M,M,M,66.20,K10U 011615Z AUTO 00000KT 10SM CLR 19/M02 A3022 RMK AO2,M
BVU,2024-09-01 16:35,-114.8611,35.9475,671.00,89.60,44.60,21.04,0.00,0.00,0.00,30.00,M,10.00,M,CLR,M,M,M,M,M,M,M,M,M,M,M,M,M,M,86.07,KBVU 011635Z AUTO 00000KT 10SM CLR 32/07 A3000 RMK AO2,M
CXP,2024-09-01 16:35,-119.7326,39.1923,1431.00,71.60,35.60,26.71,240.00,3.00,0.00,30.19,M,10.00,M,CLR,M,M,M,M,M,M,M,M,M,M,M,M,M,M,71.60,KCXP 011635Z AUTO 24003KT 10SM CLR 22/02 A3019 RMK AO2,M
RTS,2024-09-01 16:35,-119.8764,39.6682,1539.00,73.40,33.80,23.39,0.00,0.00,0.00,30.20,M,10.00,M,CLR,M,M,M,M,M,M,M,M,M,M,M,M,M,M,73.40,KRTS 011635Z AUTO 00000KT 10SM CLR 23/01 A3020 RMK AO2,M
MEV,2024-09-01 16:35,-119.7500,38.9963,1441.42,69.80,37.40,30.49,0.00,0.00,0.00,30.18,M,10.00,M,CLR,M,M,M,M,M,M,M,M,M,M,M,M,M,M,69.80,KMEV 011635Z AUTO 00000KT 10SM CLR 21/03 A3018 RMK AO2,M
BAM,2024-09-01 16:35,-116.8743,40.5990,1382.36,78.80,35.60,21.00,60.00,3.00,0.00,30.17,M,7.00,M,CLR,M,M,M,M,M,M,M,M,M,M,M,M,M,M,78.80,KBAM 011635Z AUTO 06003KT 7SM CLR 26/02 A3017 RMK AO1,M
HTH,2024-09-01 16:35,-118.6315,38.5448,1282.89,77.00,37.40,23.93,0.00,0.00,0.00,30.15,M,10.00,M,CLR,M,M,M,M,M,M,M,M,M,M,M,M,M,M,77.00,KHTH 011635Z AUTO 00000KT 10SM CLR 25/03 A3015 RMK A01,M
TMT,2024-09-01 16:35,-117.1971,39.4643,1749.34,71.20,39.00,30.95,0.00,0.00,0.00,30.27,M,10.00,M,CLR,M,M,M,M,M,M,M,M,M,M,M,M,M,M,71.20,KTMT 011635Z AUTO 00000KT 10SM CLR 22/04 A3027 RMK AO2 T02180038,M
10U,2024-09-01 16:35,-116.1876,41.9532,1637.00,73.40,26.60,17.46,20.00,4.00,0.00,30.21,M,10.00,M,CLR,M,M,M,M,M,M,M,M,M,M,M,M,M,M,73.40,K10U 011635Z AUTO 02004KT 10SM CLR 23/M03 A3021 RMK AO2,M
05U,2024-09-01 16:50,-116.0051,39.6042,1811.23,78.80,35.60,21.00,0.00,0.00,0.00,30.30,M,M,M,M,M,M,M,M,M,M,M,M,M,M,M,M,M,M,78.80,K05U 011650Z AUTO 00000KT 26/02 A3030 RMK A01,M
P68,2024-09-01 16:53,-116.0056,39.6014,1993.00,79.00,37.00,22.05,0.00,0.00,0.00,30.27,1015.00,M,M,M,M,M,M,M,M,M,M,M,M,M,M,M,M,M,79.00,KP68 011653Z AUTO 00000KT 26/03 A3027 RMK AO1 SLP150 T02610028,M
DRA,2024-09-01 16:53,-116.0278,36.6206,1009.00,92.00,41.00,17.00,110.00,9.00,0.00,30.08,1012.70,10.00,M,CLR,M,M,M,M,M,M,M,M,M,M,M,M,M,M,87.94,KDRA 011653Z AUTO 11009KT 10SM CLR 33/05 A3008 RMK AO2 SLP127 T03330050,M
ELY,2024-09-01 16:53,-114.8453,39.2950,1909.00,79.00,37.00,22.05,M,3.00,0.00,30.31,1015.90,10.00,M,CLR,M,M,M,M,M,M,M,M,M,M,M,M,M,M,79.00,KELY 011653Z AUTO VRB03KT 10SM CLR 26/03 A3031 RMK AO2 SLP159 T02610028,M
VGT,2024-09-01 16:53,-115.1933,36.2111,667.00,93.00,45.00,19.21,0.00,0.00,0.00,30.02,1015.00,10.00,M,CLR,M,M,M,M,M,M,M,M,M,M,M,M,M,M,89.20,KVGT 011653Z 00000KT 10SM CLR 34/07 A3002 RMK AO2 SLP150 T03390072,M
LOL,2024-09-01 16:53,-118.5701,40.0684,1192.43,80.00,35.00,19.71,320.00,3.00,0.00,30.11,1015.40,10.00,M,CLR,M,M,M,M,M,M,M,M,M,M,M,M,M,M,78.63,KLOL 011653Z AUTO 32003KT 10SM CLR 27/02 A3011 RMK AO2 SLP154 T02670017,M
BVU,2024-09-01 16:55,-114.8611,35.9475,671.00,91.40,46.40,21.29,0.00,0.00,0.00,30.01,M,10.00,M,CLR,M,M,M,M,M,M,M,M,M,M,M,M,M,M,87.86,KBVU 011655Z AUTO 00000KT 10SM CLR 33/08 A3001 RMK AO2,M
CXP,2024-09-01 16:55,-119.7326,39.1923,1431.00,75.20,35.60,23.66,0.00,0.00,0.00,30.19,M,10.00,M,CLR,M,M,M,M,M,M,M,M,M,M,M,M,M,M,75.20,KCXP 011655Z AUTO 00000KT 10SM CLR 24/02 A3019 RMK AO2,M
RNO,2024-09-01 16:55,-119.7711,39.4839,1341.00,75.00,46.00,35.64,0.00,0.00,0.00,30.15,1015.20,10.00,M,CLR,M,M,M,M,M,M,M,M,M,M,M,M,M,M,75.00,KRNO 011655Z 00000KT 10SM CLR 24/08 A3015 RMK AO2 SLP152 T02390078,M
RTS,2024-09-01 16:55,-119.8764,39.6682,1539.00,77.00,32.00,19.30,160.00,3.00,0.00,30.20,M,10.00,M,CLR,M,M,M,M,M,M,M,M,M,M,M,M,M,M,77.00,KRTS 011655Z AUTO 16003KT 10SM CLR 25/M00 A3020 RMK AO2,M
MEV,2024-09-01 16:55,-119.7500,38.9963,1441.42,73.40,37.40,26.98,0.00,0.00,0.00,30.17,M,10.00,M,CLR,M,M,M,M,M,M,M,M,M,M,M,M,M,M,73.40,KMEV 011655Z AUTO 00000KT 10SM CLR 23/03 A3017 RMK AO2,M
BAM,2024-09-01 16:55,-116.8743,40.5990,1382.36,80.60,33.80,18.42,0.00,0.00,0.00,30.17,M,10.00,M,CLR,M,M,M,M,M,M,M,M,M,M,M,M,M,M,78.88,KBAM 011655Z AUTO 00000KT 10SM CLR 27/01 A3017 RMK AO1,M
HTH,2024-09-01 16:55,-118.6315,38.5448,1282.89,78.80,35.60,21.00,0.00,0.00,0.00,30.14,M,10.00,M,CLR,M,M,M,M,M,M,M,M,M,M,M,M,M,M,78.80,KHTH 011655Z AUTO 00000KT 10SM CLR 26/02 A3014 RMK A01,M
TMT,2024-09-01 16:55,-117.1971,39.4643,1749.34,74.50,38.30,26.94,0.00,0.00,0.00,30.26,M,10.00,M,CLR,M,M,M,M,M,M,M,M,M,M,M,M,M,M,74.50,KTMT 011655Z AUTO 00000KT 10SM CLR 24/04 A3026 RMK AO2 T02360035,M
10U,2024-09-01 16:55,-116.1876,41.9532,1637.00,75.20,26.60,16.43,M,3.00,0.00,30.22,M,10.00,M,CLR,M,M,M,M,M,M,M,M,M,M,M,M,M,M,75.20,K10U 011655Z AUTO VRB03KT 10SM CLR 24/M03 A3022 RMK AO2,M
INS,2024-09-01 16:55,-115.6733,36.5872,955.00,85.50,37.00,17.85,0.00,0.00,0.00,30.08,1012.80,10.00,M,CLR,M,M,M,M,M,M,M,M,M,M,M,M,M,M,82.34,KINS 011655Z AUTO 00000KT 10SM CLR 30/03 A3008 RMK AO2 SLP128 T02970028,M
LSV,2024-09-01 16:55,-115.0343,36.2362,570.00,94.00,41.00,15.97,0.00,0.00,0.00,29.96,1011.40,10.00,M,FEW,M,M,M,19000.00,M,M,M,M,M,M,M,M,M,M,89.77,KLSV 011655Z AUTO 00000KT 10SM FEW190 35/05 A2996 RMK AO2 SLP114 T03450050 $,M
EKO,2024-09-01 16:56,-115.7860,40.8242,1367.00,71.00,26.00,18.47,0.00,0.00,0.00,30.23,1018.90,10.00,M,CLR,M,M,M,M,M,M,M,M,M,M,M,M,M,M,71.00,KEKO 011656Z AUTO 00000KT 10SM CLR 22/M03 A3023 RMK AO2 SLP189 T02171033,M
HND,2024-09-01 16:56,-115.1344,35.9729,742.79,90.00,47.00,22.76,350.00,3.00,0.00,30.06,1016.50,10.00,M,CLR,M,M,M,M,M,M,M,M,M,M,M,M,M,M,86.66,KHND 011656Z 35003KT 10SM CLR 32/08 A3006 RMK AO2 SLP165 T03220083,M
TPH,2024-09-01 16:56,-117.0904,38.0505,1654.00,79.00,38.00,22.93,120.00,5.00,0.00,30.25,1015.70,10.00,M,CLR,M,M,M,M,M,M,M,M,M,M,M,M,M,M,79.00,KTPH 011656Z AUTO 12005KT 10SM CLR 26/03 A3025 RMK AO2 SLP157 T02610033,M
LAS,2024-09-01 16:56,-115.1634,36.0719,663.00,89.00,48.00,24.39,350.00,5.00,0.00,30.03,1014.20,10.00,M,FEW,FEW,M,M,12000.00,18000.00,M,M,M,M,M,M,M,M,M,85.89,KLAS 011656Z 35005KT 10SM FEW120 FEW180 32/09 A3003 RMK AO2 SLP142 T03170089 $,M
NFL,2024-09-01 16:57,-118.7010,39.4166,1199.00,84.00,39.00,20.27,M,3.00,0.00,30.11,1016.20,10.00,M,CLR,M,M,M,M,M,M,M,M,M,M,M,M,M,M,81.29,KNFL 011657Z AUTO VRB03KT 10SM CLR 29/04 A3011 RMK AO2 SLP162 T02890039,M
05U,2024-09-01 17:10,-116.0051,39.6042,1811.23,80.60,35.60,19.79,0.00,0.00,0.00,30.29,M,10.00,M,M,M,M,M,M,M,M,M,M,M,M,M,M,M,M,78.94,K05U 011710Z AUTO 00000KT 10SM 27/02 A3029 RMK A01,M
BVU,2024-09-01 17:15,-114.8611,35.9475,671.00,93.20,46.40,20.13,0.00,0.00,0.00,30.01,M,10.00,M,CLR,M,M,M,M,M,M,M,M,M,M,M,M,M,M,89.55,KBVU 011715Z AUTO 00000KT 10SM CLR 34/08 A3001 RMK AO2,M
CXP,2024-09-01 17:15,-119.7326,39.1923,1431.00,77.00,35.60,22.28,240.00,4.00,0.00,30.18,M,10.00,M,CLR,M,M,M,M,M,M,M,M,M,M,M,M,M,M,77.00,KCXP 011715Z AUTO 24004KT 10SM CLR 25/02 A3018 RMK AO2,M
RTS,2024-09-01 17:15,-119.8764,39.6682,1539.00,78.80,32.00,18.18,160.00,4.00,0.00,30.19,M,10.00,M,CLR,M,M,M,M,M,M,M,M,M,M,M,M,M,M,78.80,KRTS 011715Z AUTO 16004KT 10SM CLR 26/00 A3019 RMK AO2,M
MEV,2024-09-01 17:15,-119.7500,38.9963,1441.42,75.20,39.20,27.26,0.00,0.00,0.00,30.17,M,10.00,M,CLR,M,M,M,M,M,M,M,M,M,M,M,M,M,M,75.20,KMEV 011715Z AUTO 00000KT 10SM CLR 24/04 A3017 RMK AO2,M
BAM,2024-09-01 17:15,-116.8743,40.5990,1382.36,82.40,33.80,17.38,80.00,4.00,0.00,30.17,M,10.00,M,CLR,M,M,M,M,M,M,M,M,M,M,M,M,M,M,80.03,KBAM 011715Z AUTO 08004KT 10SM CLR 28/01 A3017 RMK AO1,M
HTH,2024-09-01 17:15,-118.6315,38.5448,1282.89,80.60,37.40,21.25,0.00,0.00,0.00,30.14,M,10.00,M,CLR,M,M,M,M,M,M,M,M,M,M,M,M,M,M,79.02,KHTH 011715Z AUTO 00000KT 10SM CLR 27/03 A3014 RMK A01,M
TMT,2024-09-01 17:15,-117.1971,39.4643,1749.34,77.00,39.00,25.47,0.00,0.00,0.00,30.26,M,10.00,M,CLR,M,M,M,M,M,M,M,M,M,M,M,M,M,M,77.00,KTMT 011715Z AUTO 00000KT 10SM CLR 25/04 A3026 RMK AO2 T02510038,M
10U,2024-09-01 17:15,-116.1876,41.9532,1637.00,77.00,30.20,17.94,M,4.00,0.00,30.22,M,10.00,M,CLR,M,M,M,M,M,M,M,M,M,M,M,M,M,M,77.00,K10U 011715Z AUTO VRB04KT 10SM CLR 25/M01 A3022 RMK AO2,M
05U,2024-09-01 17:30,-116.0051,39.6042,1811.23,80.60,35.60,19.79,0.00,0.00,0.00,30.29,M,10.00,M,CLR,M,M,M,M,M,M,M,M,M,M,M,M,M,M,78.94,K05U 011730Z AUTO 00000KT 10SM CLR 27/02 A3029 RMK A01,M
BVU,2024-09-01 17:35,-114.8611,35.9475,671.00,93.20,44.60,18.80,10.00,5.00,0.00,30.00,M,10.00,M,CLR,M,M,M,M,M,M,M,M,M,M,M,M,M,M,89.34,KBVU 011735Z AUTO 01005KT 10SM CLR 34/07 A3000 RMK AO2,M
CXP,2024-09-01 17:35,-119.7326,39.1923,1431.00,78.80,35.60,21.00,310.00,4.00,0.00,30.18,M,10.00,M,CLR,M,M,M,M,M,M,M,M,M,M,M,M,M,M,78.80,KCXP 011735Z AUTO 31004KT 10SM CLR 26/02 A3018 RMK AO2,M
RTS,2024-09-01 17:35,-119.8764,39.6682,1539.00,80.60,30.20,15.94,150.00,4.00,0.00,30.19,M,10.00,M,CLR,M,M,M,M,M,M,M,M,M,M,M,M,M,M,78.77,KRTS 011735Z AUTO 15004KT 10SM CLR 27/M01 A3019 RMK AO2,M
BAM,2024-09-01 17:35,-116.8743,40.5990,1382.36,86.00,35.60,16.63,0.00,0.00,0.00,30.16,M,10.00,M,CLR,M,M,M,M,M,M,M,M,M,M,M,M,M,M,82.69,KBAM 011735Z AUTO 00000KT 10SM CLR 30/02 A3016 RMK AO1,M
HTH,2024-09-01 17:35,-118.6315,38.5448,1282.89,82.40,37.40,20.04,10.00,4.00,0.00,30.13,M,10.00,M,CLR,M,M,M,M,M,M,M,M,M,M,M,M,M,M,80.14,KHTH 011735Z AUTO 01004KT 10SM CLR 28/03 A3013 RMK A01,M
TMT,2024-09-01 17:35,-117.1971,39.4643,1749.34,79.00,38.70,23.57,350.00,3.00,0.00,30.26,M,10.00,M,CLR,M,M,M,M,M,M,M,M,M,M,M,M,M,M,79.00,KTMT 011735Z AUTO 35003KT 10SM CLR 26/04 A3026 RMK AO2 T02610037,M
10U,2024-09-01 17:35,-116.1876,41.9532,1637.00,80.60,28.40,14.81,M,4.00,0.00,30.22,M,10.00,M,CLR,M,M,M,M,M,M,M,M,M,M,M,M,M,M,78.72,K10U 011735Z AUTO VRB04KT 10SM CLR 27/M02 A3022 RMK AO2,M
MEV,2024-09-01 17:35,-119.7500,38.9963,1441.42,78.80,39.20,24.19,M,4.00,0.00,30.16,M,10.00,M,CLR,M,M,M,M,M,M,M,M,M,M,M,M,M,M,78.80,KMEV 011735Z AUTO VRB04KT 10SM CLR 26/04 A3016 RMK AO2,M
RTS,2024-09-01 17:40,-119.8764,39.6682,1539.00,80.60,32.00,17.14,0.00,0.00,0.00,30.20,M,10.00,M,CLR,M,M,M,M,M,M,M,M,M,M,M,M,M,M,78.82,KRTS 011740Z AUTO 00000KT 10SM CLR 27/M00 A3020 RMK AO2,M
05U,2024-09-01 17:50,-116.0051,39.6042,1811.23,82.40,35.60,18.67,0.00,0.00,0.00,30.28,M,10.00,M,CLR,M,M,M,M,M,M,M,M,M,M,M,M,M,M,80.08,K05U 011750Z AUTO 00000KT 10SM CLR 28/02 A3028 RMK A01,M
P68,2024-09-01 17:53,-116.0056,39.6014,1993.00,83.00,36.00,18.60,0.00,0.00,0.00,30.25,1014.60,M,M,M,M,M,M,M,M,M,M,M,M,M,M,M,M,M,80.50,KP68 011753Z AUTO 00000KT 28/02 A3025 RMK AO1 SLP146 6//// T02830022 10289 20100,M
DRA,2024-09-01 17:53,-116.0278,36.6206,1009.00,94.00,41.00,15.97,120.00,7.00,0.00,30.07,1012.40,10.00,M,CLR,M,M,M,M,M,M,M,M,M,M,M,M,M,M,89.77,KDRA 011753Z AUTO 12007KT 10SM CLR 34/05 A3007 RMK AO2 SLP124 T03440050 10344 20211 58000,M
ELY,2024-09-01 17:53,-114.8453,39.2950,1909.00,83.00,35.00,17.88,250.00,5.00,0.00,30.29,1015.00,10.00,M,CLR,M,M,M,M,M,M,M,M,M,M,M,M,M,M,80.47,KELY 011753Z AUTO 25005KT 10SM CLR 28/02 A3029 RMK AO2 SLP150 T02830017 10283 20089 58005,M
VGT,2024-09-01 17:53,-115.1933,36.2111,667.00,95.00,45.00,18.06,150.00,5.00,0.00,30.01,1014.80,10.00,M,CLR,M,M,M,M,M,M,M,M,M,M,M,M,M,M,91.10,KVGT 011753Z 15005KT 10SM CLR 35/07 A3001 RMK AO2 SLP148 T03500072 10350 20261 50000,M
LOL,2024-09-01 17:53,-118.5701,40.0684,1192.43,84.00,37.00,18.74,120.00,5.00,0.00,30.10,1015.20,10.00,M,CLR,M,M,M,M,M,M,M,M,M,M,M,M,M,M,81.23,KLOL 011753Z AUTO 12005KT 10SM CLR 29/03 A3010 RMK AO2 SLP152 T02890028 10294 20094 58002,M
BVU,2024-09-01 17:55,-114.8611,35.9475,671.00,95.00,42.80,16.60,40.00,5.00,0.00,30.00,M,10.00,M,CLR,M,M,M,M,M,M,M,M,M,M,M,M,M,M,90.86,KBVU 011755Z AUTO 04005KT 10SM CLR 35/06 A3000 RMK AO2,M
CXP,2024-09-01 17:55,-119.7326,39.1923,1431.00,80.60,35.60,19.79,0.00,0.00,0.00,30.17,M,10.00,M,CLR,M,M,M,M,M,M,M,M,M,M,M,M,M,M,78.94,KCXP 011755Z AUTO 00000KT 10SM CLR 27/02 A3017 RMK AO2,M
RNO,2024-09-01 17:55,-119.7711,39.4839,1341.00,82.00,51.00,34.12,0.00,0.00,0.00,30.14,1014.50,10.00,M,CLR,M,M,M,M,M,M,M,M,M,M,M,M,M,M,80.84,KRNO 011755Z 00000KT 10SM CLR 28/11 A3014 RMK AO2 SLP145 T02780106 10278 20150 58005,M
BAM,2024-09-01 17:55,-116.8743,40.5990,1382.36,87.80,35.60,15.70,340.00,4.00,0.00,30.16,M,7.00,M,CLR,M,M,M,M,M,M,M,M,M,M,M,M,M,M,84.12,KBAM 011755Z AUTO 34004KT 7SM CLR 31/02 A3016 RMK AO1,M
HTH,2024-09-01 17:55,-118.6315,38.5448,1282.89,84.20,37.40,18.91,M,4.00,0.00,30.13,M,10.00,M,CLR,M,M,M,M,M,M,M,M,M,M,M,M,M,M,81.38,KHTH 011755Z AUTO VRB04KT 10SM CLR 29/03 A3013 RMK A01,M
TMT,2024-09-01 17:55,-117.1971,39.4643,1749.34,80.20,38.00,22.05,0.00,0.00,0.00,30.25,M,10.00,M,CLR,M,M,M,M,M,M,M,M,M,M,M,M,M,M,78.96,KTMT 011755Z AUTO 00000KT 10SM CLR 27/03 A3025 RMK AO2 T02680033 10270 20033,M
10U,2024-09-01 17:55,-116.1876,41.9532,1637.00,82.40,26.60,12.97,0.00,0.00,0.00,30.21,M,10.00,M,CLR,M,M,M,M,M,M,M,M,M,M,M,M,M,M,79.92,K10U 011755Z AUTO 00000KT 10SM CLR 28/M03 A3021 RMK AO2,M
INS,2024-09-01 17:55,-115.6733,36.5872,955.00,92.50,38.00,14.89,50.00,6.00,0.00,30.06,1011.80,10.00,M,CLR,M,M,M,M,M,M,M,M,M,M,M,M,M,M,88.23,KINS 011755Z AUTO 05006KT 10SM CLR 34/03 A3006 RMK AO2 SLP118 T03360034 10340 20189 58004,M
LSV,2024-09-01 17:55,-115.0343,36.2362,570.00,96.30,39.20,13.88,80.00,4.00,0.00,29.96,1011.40,10.00,M,CLR,M,M,M,M,M,M,M,M,M,M,M,M,M,M,91.77,KLSV 011755Z AUTO 08004KT 10SM CLR 36/04 A2996 RMK AO2 SLP114 T03570040 10359 20266 58002 $,M
EKO,2024-09-01 17:56,-115.7860,40.8242,1367.00,80.00,34.00,18.94,20.00,3.00,0.00,30.21,1017.10,10.00,M,CLR,M,M,M,M,M,M,M,M,M,M,M,M,M,M,78.59,KEKO 011756Z AUTO 02003KT 10SM CLR 27/01 A3021 RMK AO2 SLP171 T02670011 10267 20100 58007,M
HND,2024-09-01 17:56,-115.1344,35.9729,742.79,94.00,47.00,20.09,M,6.00,0.00,30.05,1016.10,10.00,M,CLR,M,M,M,M,M,M,M,M,M,M,M,M,M,M,90.40,KHND 011756Z VRB06KT 10SM CLR 34/08 A3005 RMK AO2 SLP161 T03440083 10344 20222 50001,M
TPH,2024-09-01 17:56,-117.0904,38.0505,1654.00,83.00,38.00,20.13,0.00,0.00,0.00,30.24,1015.70,10.00,M,CLR,M,M,M,M,M,M,M,M,M,M,M,M,M,M,80.56,KTPH 011756Z AUTO 00000KT 10SM CLR 28/03 A3024 RMK AO2 SLP157 T02830033 10283 20144 50000,M
LAS,2024-09-01 17:56,-115.1634,36.0719,663.00,91.00,47.00,22.05,90.00,4.00,0.00,30.03,1013.90,10.00,M,FEW,FEW,M,M,12000.00,18000.00,M,M,M,M,M,M,M,M,M,87.57,KLAS 011756Z 09004KT 10SM FEW120 FEW180 33/08 A3003 RMK AO2 SLP139 T03280083 50002 $,M
NFL,2024-09-01 17:57,-118.7010,39.4166,1199.00,88.00,37.00,16.49,260.00,4.00,0.00,30.10,1015.90,10.00,M,CLR,M,M,M,M,M,M,M,M,M,M,M,M,M,M,84.32,KNFL 011757Z AUTO 26004KT 10SM CLR 31/03 A3010 RMK AO2 SLP159 T03110028 10311 20167 58001,M
05U,2024-09-01 18:10,-116.0051,39.6042,1811.23,84.20,35.60,17.61,0.00,0.00,0.00,30.27,M,10.00,M,CLR,M,M,M,M,M,M,M,M,M,M,M,M,M,M,81.34,K05U 011810Z AUTO 00000KT 10SM CLR 29/02 A3027 RMK A01,M
BVU,2024-09-01 18:15,-114.8611,35.9475,671.00,95.00,42.80,16.60,30.00,8.00,0.00,29.99,M,10.00,M,CLR,M,M,M,M,M,M,M,M,M,M,M,M,M,M,90.86,KBVU 011815Z AUTO 03008KT 10SM CLR 35/06 A2999 RMK AO2,M
CXP,2024-09-01 18:15,-119.7326,39.1923,1431.00,84.20,32.00,15.25,190.00,4.00,0.00,30.16,M,10.00,M,CLR,M,M,M,M,M,M,M,M,M,M,M,M,M,M,81.28,KCXP 011815Z AUTO 19004KT 10SM CLR 29/00 A3016 RMK AO2,M
RTS,2024-09-01 18:15,-119.8764,39.6682,1539.00,82.40,30.20,15.03,120.00,6.00,0.00,30.18,M,10.00,M,CLR,M,M,M,M,M,M,M,M,M,M,M,M,M,M,79.97,KRTS 011815Z AUTO 12006KT 10SM CLR 28/M01 A3018 RMK AO2,M
MEV,2024-09-01 18:15,-119.7500,38.9963,1441.42,84.20,32.00,15.25,M,4.00,0.00,30.15,M,10.00,M,CLR,M,M,M,M,M,M,M,M,M,M,M,M,M,M,81.28,KMEV 011815Z AUTO VRB04KT 10SM CLR 29/00 A3015 RMK AO2,M
BAM,2024-09-01 18:15,-116.8743,40.5990,1382.36,89.60,35.60,14.83,210.00,3.00,0.00,30.15,M,10.00,M,CLR,M,M,M,M,M,M,M,M,M,M,M,M,M,M,85.62,KBAM 011815Z AUTO 21003KT 10SM CLR 32/02 A3015 RMK AO1,M
HTH,2024-09-01 18:15,-118.6315,38.5448,1282.89,86.00,37.40,17.85,M,4.00,0.00,30.12,M,10.00,M,CLR,M,M,M,M,M,M,M,M,M,M,M,M,M,M,82.73,KHTH 011815Z AUTO VRB04KT 10SM CLR 30/03 A3012 RMK A01,M
TMT,2024-09-01 18:15,-117.1971,39.4643,1749.34,82.20,37.60,20.33,310.00,4.00,0.00,30.24,M,10.00,M,CLR,M,M,M,M,M,M,M,M,M,M,M,M,M,M,80.02,KTMT 011815Z AUTO 31004KT 10SM CLR 28/03 A3024 RMK AO2 T02790031,M
10U,2024-09-01 18:15,-116.1876,41.9532,1637.00,84.20,26.60,12.23,0.00,0.00,0.00,30.20,M,10.00,M,FEW,M,M,M,12000.00,M,M,M,M,M,M,M,M,M,M,81.13,K10U 011815Z AUTO 00000KT 10SM FEW120 29/M03 A3020 RMK AO2,M
05U,2024-09-01 18:30,-116.0051,39.6042,1811.23,82.40,33.80,17.38,0.00,0.00,0.00,30.27,M,10.00,M,CLR,M,M,M,M,M,M,M,M,M,M,M,M,M,M,80.03,K05U 011830Z AUTO 00000KT 10SM CLR 28/01 A3027 RMK A01,M
BVU,2024-09-01 18:35,-114.8611,35.9475,671.00,95.00,41.00,15.49,0.00,0.00,0.00,29.98,M,10.00,M,CLR,M,M,M,M,M,M,M,M,M,M,M,M,M,M,90.70,KBVU 011835Z AUTO 00000KT 10SM CLR 35/05 A2998 RMK AO2,M
CXP,2024-09-01 18:35,-119.7326,39.1923,1431.00,87.80,32.00,13.59,190.00,8.00,0.00,30.15,M,10.00,14.00,CLR,M,M,M,M,M,M,M,M,M,M,M,M,M,M,84.08,KCXP 011835Z AUTO 19008G14KT 10SM CLR 31/M00 A3015 RMK AO2,M
RTS,2024-09-01 18:35,-119.8764,39.6682,1539.00,84.20,30.20,14.18,120.00,9.00,0.00,30.18,M,10.00,M,CLR,M,M,M,M,M,M,M,M,M,M,M,M,M,M,81.26,KRTS 011835Z AUTO 12009KT 10SM CLR 29/M01 A3018 RMK AO2,M
MEV,2024-09-01 18:35,-119.7500,38.9963,1441.42,86.00,33.80,15.48,200.00,5.00,0.00,30.14,M,8.00,M,CLR,M,M,M,M,M,M,M,M,M,M,M,M,M,M,82.66,KMEV 011835Z AUTO 20005KT 8SM CLR 30/01 A3014 RMK AO2,M
BAM,2024-09-01 18:35,-116.8743,40.5990,1382.36,89.60,35.60,14.83,0.00,0.00,0.00,30.15,M,10.00,M,CLR,M,M,M,M,M,M,M,M,M,M,M,M,M,M,85.62,KBAM 011835Z AUTO 00000KT 10SM CLR 32/02 A3015 RMK AO1,M
HTH,2024-09-01 18:35,-118.6315,38.5448,1282.89,87.80,37.40,16.86,330.00,7.00,0.00,30.11,M,10.00,M,CLR,M,M,M,M,M,M,M,M,M,M,M,M,M,M,84.16,KHTH 011835Z AUTO 33007KT 10SM CLR 31/03 A3011 RMK A01,M
TMT,2024-09-01 18:35,-117.1971,39.4643,1749.34,84.00,37.00,18.74,240.00,6.00,0.00,30.24,M,10.00,M,CLR,M,M,M,M,M,M,M,M,M,M,M,M,M,M,81.23,KTMT 011835Z AUTO 24006KT 10SM CLR 29/03 A3024 RMK AO2 T02890028,M
10U,2024-09-01 18:35,-116.1876,41.9532,1637.00,87.80,26.60,10.91,0.00,0.00,0.00,30.19,M,10.00,M,CLR,M,M,M,M,M,M,M,M,M,M,M,M,M,M,83.69,K10U 011835Z AUTO 00000KT 10SM CLR 31/M03 A3019 RMK AO2,M
05U,2024-09-01 18:50,-116.0051,39.6042,1811.23,84.20,35.60,17.61,0.00,0.00,0.00,30.26,M,10.00,M,FEW,M,M,M,11000.00,M,M,M,M,M,M,M,M,M,M,81.34,K05U 011850Z AUTO 00000KT 10SM FEW110 29/02 A3026 RMK A01,M
HTH,2024-09-01 18:50,-118.6315,38.5448,1282.89,87.80,37.40,16.86,M,5.00,0.00,30.10,M,10.00,M,CLR,M,M,M,M,M,M,M,M,M,M,M,M,M,M,84.16,KHTH 011850Z AUTO VRB05KT 10SM CLR 31/03 A3010 RMK A01,M
P68,2024-09-01 18:53,-116.0056,39.6014,1993.00,85.00,36.00,17.44,240.00,9.00,0.00,30.23,1013.30,M,M,M,M,M,M,M,M,M,M,M,M,M,M,M,M,M,81.93,KP68 011853Z AUTO 24009KT 220V280 29/02 A3023 RMK AO1 SLP133 T02940022,M
DRA,2024-09-01 18:53,-116.0278,36.6206,1009.00,96.00,40.00,14.45,0.00,0.00,0.00,30.05,1011.80,10.00,M,CLR,M,M,M,M,M,M,M,M,M,M,M,M,M,M,91.55,KDRA 011853Z AUTO 00000KT 10SM CLR 36/04 A3005 RMK AO2 SLP118 T03560044,M
ELY,2024-09-01 18:53,-114.8453,39.2950,1909.00,81.00,30.00,15.60,270.00,8.00,T,30.28,1015.30,9.00,39.00,FEW,M,M,M,2200.00,M,M,M,M,M,M,M,39.00,260.00,2024-09-01 18:44,79.02,KELY 011853Z AUTO 27008G39KT 9SM FEW022 27/M01 A3028 RMK AO2 PK WND 26039/1844 RAB43E53 SLP153 P0000 T02721011,M
VGT,2024-09-01 18:53,-115.1933,36.2111,667.00,99.00,44.00,15.38,M,3.00,0.00,29.99,1014.00,10.00,M,CLR,M,M,M,M,M,M,M,M,M,M,M,M,M,M,94.85,KVGT 011853Z VRB03KT 10SM CLR 37/07 A2999 RMK AO2 SLP140 T03720067,M
LOL,2024-09-01 18:53,-118.5701,40.0684,1192.43,89.00,36.00,15.36,200.00,7.00,0.00,30.08,1014.50,10.00,M,CLR,M,M,M,M,M,M,M,M,M,M,M,M,M,M,85.12,KLOL 011853Z AUTO 20007KT 170V230 10SM CLR 32/02 A3008 RMK AO2 SLP145 T03170022,M
BVU,2024-09-01 18:55,-114.8611,35.9475,671.00,96.80,41.00,14.66,0.00,0.00,0.00,29.98,M,10.00,M,CLR,M,M,M,M,M,M,M,M,M,M,M,M,M,M,92.39,KBVU 011855Z AUTO 00000KT 10SM CLR 36/05 A2998 RMK AO2,M
RNO,2024-09-01 18:55,-119.7711,39.4839,1341.00,87.00,55.00,33.65,0.00,0.00,0.00,30.11,1013.60,10.00,M,FEW,M,M,M,12000.00,M,M,M,M,M,M,M,M,M,M,85.31,KRNO 011855Z 00000KT 10SM FEW120 31/13 A3011 RMK AO2 SLP136 T03060128,M
CXP,2024-09-01 18:55,-119.7326,39.1923,1431.00,89.60,26.60,10.30,190.00,11.00,0.00,30.15,M,10.00,M,CLR,M,M,M,M,M,M,M,M,M,M,M,M,M,M,85.02,KCXP 011855Z AUTO 19011KT 160V230 10SM CLR 32/M03 A3015 RMK AO2,M
RTS,2024-09-01 18:55,-119.8764,39.6682,1539.00,84.20,30.20,14.18,140.00,11.00,0.00,30.17,M,10.00,M,CLR,M,M,M,M,M,M,M,M,M,M,M,M,M,M,81.26,KRTS 011855Z AUTO 14011KT 10SM CLR 29/M01 A3017 RMK AO2,M
MEV,2024-09-01 18:55,-119.7500,38.9963,1441.42,87.80,33.80,14.61,170.00,5.00,0.00,30.13,M,8.00,12.00,CLR,M,M,M,M,M,M,M,M,M,M,M,M,M,M,84.10,KMEV 011855Z AUTO 17005G12KT 8SM CLR 31/01 A3013 RMK AO2,M
BAM,2024-09-01 18:55,-116.8743,40.5990,1382.36,91.40,35.60,14.02,100.00,4.00,0.00,30.14,M,10.00,M,CLR,M,M,M,M,M,M,M,M,M,M,M,M,M,M,87.17,KBAM 011855Z AUTO 10004KT 10SM CLR 33/02 A3014 RMK AO1,M
TMT,2024-09-01 18:55,-117.1971,39.4643,1749.34,82.80,37.00,19.48,0.00,0.00,0.00,30.23,M,10.00,M,CLR,M,M,M,M,M,M,M,M,M,M,M,M,M,M,80.39,KTMT 011855Z AUTO 00000KT 10SM CLR 28/03 A3023 RMK AO2 T02820028,M
10U,2024-09-01 18:55,-116.1876,41.9532,1637.00,87.80,26.60,10.91,M,5.00,0.00,30.19,M,10.00,M,CLR,M,M,M,M,M,M,M,M,M,M,M,M,M,M,83.69,K10U 011855Z AUTO VRB05KT 10SM CLR 31/M03 A3019 RMK AO2,M
INS,2024-09-01 18:55,-115.6733,36.5872,955.00,96.60,35.60,11.93,80.00,14.00,0.00,30.03,1010.80,10.00,18.00,CLR,M,M,M,M,M,M,M,M,M,M,M,M,M,M,91.56,KINS 011855Z AUTO 08014G18KT 10SM CLR 36/02 A3003 RMK AO2 SLP108 T03590020,M
LSV,2024-09-01 18:55,-115.0343,36.2362,570.00,98.80,39.40,12.96,190.00,6.00,0.00,29.94,1010.70,10.00,M,FEW,FEW,M,M,13000.00,18000.00,M,M,M,M,M,M,M,M,M,94.10,KLSV 011855Z AUTO 19006KT 10SM FEW130 FEW180 37/04 A2994 RMK AO2 SLP107 T03710041 $,M
EKO,2024-09-01 18:56,-115.7860,40.8242,1367.00,87.00,36.00,16.36,M,3.00,0.00,30.18,1016.30,10.00,M,CLR,M,M,M,M,M,M,M,M,M,M,M,M,M,M,83.48,KEKO 011856Z AUTO VRB03KT 10SM CLR 31/02 A3018 RMK AO2 SLP163 T03060022,M
HND,2024-09-01 18:56,-115.1344,35.9729,742.79,97.00,46.00,17.64,30.00,6.00,0.00,30.04,1015.50,10.00,M,CLR,M,M,M,M,M,M,M,M,M,M,M,M,M,M,93.19,KHND 011856Z 03006KT 10SM CLR 36/08 A3004 RMK AO2 SLP155 T03610078,M
TPH,2024-09-01 18:56,-117.0904,38.0505,1654.00,86.00,35.00,16.23,190.00,10.00,0.00,30.22,1015.20,10.00,M,CLR,M,M,M,M,M,M,M,M,M,M,M,M,M,M,82.68,KTPH 011856Z AUTO 19010KT 10SM CLR 30/02 A3022 RMK AO2 SLP152 T03000017,M
LAS,2024-09-01 18:56,-115.1634,36.0719,663.00,92.00,45.00,19.82,0.00,0.00,0.00,30.01,1013.30,10.00,M,FEW,FEW,M,M,12000.00,18000.00,M,M,M,M,M,M,M,M,M,88.27,KLAS 011856Z 00000KT 10SM FEW120 FEW180 33/07 A3001 RMK AO2 SLP133 T03330072 $,M
NFL,2024-09-01 18:57,-118.7010,39.4166,1199.00,90.00,37.00,15.48,M,M,0.00,30.08,1015.40,10.00,M,CLR,M,M,M,M,M,M,M,M,M,M,M,M,M,M,86.00,KNFL 011857Z AUTO 10SM CLR 32/03 A3008 RMK AO2 SLP154 T03220028,M
05U,2024-09-01 19:10,-116.0051,39.6042,1811.23,86.00,35.60,16.63,0.00,0.00,0.00,30.25,M,10.00,13.00,CLR,M,M,M,M,M,M,M,M,M,M,M,M,M,M,82.69,K05U 011910Z AUTO 00000G13KT 10SM CLR 30/02 A3025 RMK A01,M
INS,2024-09-01 19:11,-115.6733,36.5872,955.00,96.80,33.80,11.04,110.00,13.00,0.00,30.02,1010.50,10.00,21.00,FEW,M,M,M,14000.00,M,M,M,M,M,M,M,M,M,M,91.44,KINS 011911Z AUTO 11013G21KT 10SM FEW140 36/01 A3002 RMK AO2 WSHFT 04 SLP105,M
INS,2024-09-01 19:13,-115.6733,36.5872,955.00,96.80,33.80,11.04,60.00,11.00,0.00,30.03,1010.80,10.00,M,FEW,M,M,M,13000.00,M,M,M,M,M,M,M,M,M,M,91.44,KINS 011913Z AUTO 06011KT 10SM FEW130 36/01 A3003 RMK AO2 WSHFT 11 SLP108,M
BVU,2024-09-01 19:15,-114.8611,35.9475,671.00,96.80,41.00,14.66,0.00,0.00,0.00,29.97,M,10.00,M,CLR,M,M,M,M,M,M,M,M,M,M,M,M,M,M,92.39,KBVU 011915Z AUTO 00000KT 10SM CLR 36/05 A2997 RMK AO2,M
CXP,2024-09-01 19:15,-119.7326,39.1923,1431.00,91.40,23.00,8.38,160.00,10.00,0.00,30.14,M,10.00,M,CLR,M,M,M,M,M,M,M,M,M,M,M,M,M,M,86.08,KCXP 011915Z AUTO 16010KT 10SM CLR 33/M05 A3014 RMK AO2,M
RTS,2024-09-01 19:15,-119.8764,39.6682,1539.00,86.00,28.40,12.44,130.00,12.00,0.00,30.17,M,10.00,M,CLR,M,M,M,M,M,M,M,M,M,M,M,M,M,M,82.54,KRTS 011915Z AUTO 13012KT 10SM CLR 30/M02 A3017 RMK AO2,M
MEV,2024-09-01 19:15,-119.7500,38.9963,1441.42,91.40,23.00,8.38,200.00,18.00,0.00,30.12,M,7.00,25.00,CLR,M,M,M,M,M,M,M,M,M,M,M,M,M,M,86.08,KMEV 011915Z AUTO 20018G25KT 7SM CLR 33/M05 A3012 RMK AO2,M
BAM,2024-09-01 19:15,-116.8743,40.5990,1382.36,91.40,35.60,14.02,140.00,4.00,0.00,30.13,M,10.00,M,CLR,M,M,M,M,M,M,M,M,M,M,M,M,M,M,87.17,KBAM 011915Z AUTO 14004KT 10SM CLR 33/02 A3013 RMK AO1,M
HTH,2024-09-01 19:15,-118.6315,38.5448,1282.89,89.60,33.80,13.80,M,4.00,0.00,30.09,M,10.00,M,CLR,M,M,M,M,M,M,M,M,M,M,M,M,M,M,85.59,KHTH 011915Z AUTO VRB04KT 10SM CLR 32/01 A3009 RMK A01,M
TMT,2024-09-01 19:15,-117.1971,39.4643,1749.34,84.40,37.60,18.94,140.00,4.00,0.00,30.22,M,10.00,M,CLR,M,M,M,M,M,M,M,M,M,M,M,M,M,M,81.53,KTMT 011915Z AUTO 14004KT 10SM CLR 29/03 A3022 RMK AO2 T02910031,M
10U,2024-09-01 19:15,-116.1876,41.9532,1637.00,87.80,26.60,10.91,250.00,8.00,0.00,30.18,M,10.00,M,CLR,M,M,M,M,M,M,M,M,M,M,M,M,M,M,83.69,K10U 011915Z AUTO 25008KT 10SM CLR 31/M03 A3018 RMK AO2,M
05U,2024-09-01 19:30,-116.0051,39.6042,1811.23,87.80,32.00,13.59,M,5.00,0.00,30.24,M,10.00,15.00,CLR,M,M,M,M,M,M,M,M,M,M,M,M,M,M,84.08,K05U 011930Z AUTO VRB05G15KT 10SM CLR 31/M00 A3024 RMK A01,M
ELY,2024-09-01 19:31,-114.8453,39.2950,1909.00,79.00,33.00,18.80,M,M,T,30.28,M,10.00,M,FEW,BKN,OVC,M,7000.00,10000.00,12000.00,M,M,M,M,M,40.00,230.00,2024-09-01 19:18,79.00,KELY 011931Z AUTO 10SM FEW070 BKN100 OVC120 26/01 A3028 RMK AO2 PK WND 23040/1918 WSHFT 1911 RAB19E31 P0000 T02610006,M
BVU,2024-09-01 19:35,-114.8611,35.9475,671.00,98.60,41.00,13.87,340.00,6.00,0.00,29.96,M,10.00,M,CLR,M,M,M,M,M,M,M,M,M,M,M,M,M,M,94.09,KBVU 011935Z AUTO 34006KT 10SM CLR 37/05 A2996 RMK AO2,M
CXP,2024-09-01 19:35,-119.7326,39.1923,1431.00,91.40,19.40,7.19,170.00,8.00,0.00,30.13,M,10.00,16.00,CLR,M,M,M,M,M,M,M,M,M,M,M,M,M,M,85.86,KCXP 011935Z AUTO 17008G16KT 10SM CLR 33/M07 A3013 RMK AO2,M
RTS,2024-09-01 19:35,-119.8764,39.6682,1539.00,86.00,28.40,12.44,110.00,11.00,0.00,30.16,M,10.00,M,CLR,M,M,M,M,M,M,M,M,M,M,M,M,M,M,82.54,KRTS 011935Z AUTO 11011KT 10SM CLR 30/M02 A3016 RMK AO2,M
MEV,2024-09-01 19:35,-119.7500,38.9963,1441.42,91.40,21.20,7.77,220.00,15.00,0.00,30.12,M,10.00,22.00,CLR,M,M,M,M,M,M,M,M,M,M,M,M,M,M,85.96,KMEV 011935Z AUTO 22015G22KT 10SM CLR 33/M06 A3012 RMK AO2,M
BAM,2024-09-01 19:35,-116.8743,40.5990,1382.36,91.40,35.60,14.02,230.00,3.00,0.00,30.12,M,10.00,M,CLR,M,M,M,M,M,M,M,M,M,M,M,M,M,M,87.17,KBAM 011935Z AUTO 23003KT 10SM CLR 33/02 A3012 RMK AO1,M
HTH,2024-09-01 19:35,-118.6315,38.5448,1282.89,91.40,33.80,13.05,0.00,0.00,0.00,30.08,M,10.00,11.00,CLR,M,M,M,M,M,M,M,M,M,M,M,M,M,M,87.13,KHTH 011935Z AUTO 00000G11KT 10SM CLR 33/01 A3008 RMK A01,M
TMT,2024-09-01 19:35,-117.1971,39.4643,1749.34,82.60,37.20,19.76,180.00,7.00,0.00,30.22,M,10.00,M,CLR,M,M,M,M,M,M,M,M,M,M,M,M,M,M,80.26,KTMT 011935Z AUTO 18007KT 10SM CLR 28/03 A3022 RMK AO2 T02810029,M
10U,2024-09-01 19:35,-116.1876,41.9532,1637.00,89.60,23.00,8.87,200.00,4.00,0.00,30.18,M,10.00,13.00,CLR,M,M,M,M,M,M,M,M,M,M,M,M,M,M,84.75,K10U 011935Z AUTO 20004G13KT 10SM CLR 32/M05 A3018 RMK AO2,M
P68,2024-09-01 19:46,-116.0056,39.6014,1993.00,86.00,31.00,13.83,210.00,14.00,0.00,30.22,M,M,26.00,M,M,M,M,M,M,M,M,M,M,M,M,27.00,210.00,2024-09-01 19:34,82.64,KP68 011946Z AUTO 21014G26KT 30/M01 A3022 RMK AO1 PK WND 21027/1934 WSHFT 1929 T03001006,M
INS,2024-09-01 19:47,-115.6733,36.5872,955.00,98.60,33.80,10.45,100.00,11.00,0.00,30.01,1010.10,10.00,19.00,FEW,M,M,M,14000.00,M,M,M,M,M,M,M,M,M,M,92.94,KINS 011947Z AUTO 10011G19KT 10SM FEW140 37/01 A3001 RMK AO2 WSHFT 43 SLP101,M
05U,2024-09-01 19:50,-116.0051,39.6042,1811.23,84.20,30.20,14.18,220.00,16.00,0.00,30.25,M,10.00,22.00,FEW,M,M,M,11000.00,M,M,M,M,M,M,M,M,M,M,81.26,K05U 011950Z AUTO 22016G22KT 10SM FEW110 29/M01 A3025 RMK A01,M
P68,2024-09-01 19:53,-116.0056,39.6014,1993.00,84.00,31.00,14.74,230.00,18.00,0.00,30.22,1013.50,M,26.00,M,M,M,M,M,M,M,M,M,M,M,M,27.00,210.00,2024-09-01 19:34,81.12,KP68 011953Z AUTO 23018G26KT 29/M01 A3022 RMK AO1 PK WND 21027/1934 WSHFT 1929 SLP135 T02891006,M
DRA,2024-09-01 19:53,-116.0278,36.6206,1009.00,99.00,39.00,12.68,80.00,9.00,0.00,30.03,1011.10,10.00,M,CLR,M,M,M,M,M,M,M,M,M,M,M,M,M,M,94.19,KDRA 011953Z AUTO 08009KT 10SM CLR 37/04 A3003 RMK AO2 SLP111 T03720039,M
ELY,2024-09-01 19:53,-114.8453,39.2950,1909.00,79.00,34.00,19.57,90.00,10.00,T,30.29,1016.30,10.00,28.00,FEW,BKN,M,M,8500.00,11000.00,M,M,-RA,M,M,M,40.00,230.00,2024-09-01 19:18,79.00,KELY 011953Z AUTO 09010G28KT 10SM -RA FEW085 BKN110 26/01 A3029 RMK AO2 PK WND 23040/1918 WSHFT 1911 RAB19E31B50 SLP163 P0000 T02610011,M
VGT,2024-09-01 19:53,-115.1933,36.2111,667.00,100.00,45.00,15.50,M,M,0.00,29.97,1013.20,10.00,M,CLR,M,M,M,M,M,M,M,M,M,M,M,M,M,M,95.99,KVGT 011953Z 10SM CLR 38/07 A2997 RMK AO2 SLP132 T03780072,M
LOL,2024-09-01 19:53,-118.5701,40.0684,1192.43,92.00,36.00,13.98,160.00,10.00,0.00,30.06,1013.70,10.00,M,CLR,M,M,M,M,M,M,M,M,M,M,M,M,M,M,87.71,KLOL 011953Z AUTO 16010KT 10SM CLR 33/02 A3006 RMK AO2 SLP137 T03330022,M
BVU,2024-09-01 19:55,-114.8611,35.9475,671.00,98.60,41.00,13.87,M,3.00,0.00,29.95,M,10.00,M,CLR,M,M,M,M,M,M,M,M,M,M,M,M,M,M,94.09,KBVU 011955Z AUTO VRB03KT 10SM CLR 37/05 A2995 RMK AO2,M
RNO,2024-09-01 19:55,-119.7711,39.4839,1341.00,91.00,60.00,35.51,180.00,6.00,0.00,30.09,1012.50,10.00,15.00,FEW,M,M,M,12000.00,M,M,M,M,M,M,M,M,M,M,90.65,KRNO 011955Z COR 18006G15KT 10SM FEW120 33/16 A3009 RMK AO2 SLP125 T03280156,M
CXP,2024-09-01 19:55,-119.7326,39.1923,1431.00,91.40,19.40,7.19,210.00,10.00,0.00,30.12,M,10.00,19.00,CLR,M,M,M,M,M,M,M,M,M,M,M,M,M,M,85.86,KCXP 011955Z AUTO 21010G19KT 10SM CLR 33/M07 A3012 RMK AO2,M
INS,2024-09-01 19:55,-115.6733,36.5872,955.00,99.50,30.60,8.94,70.00,12.00,0.00,30.01,1010.20,10.00,20.00,CLR,M,M,M,M,M,M,M,M,M,M,M,M,M,M,93.27,KINS 011955Z AUTO 07012G20KT 10SM CLR 38/M01 A3001 RMK AO2 SLP102 T03751008,M
RTS,2024-09-01 19:55,-119.8764,39.6682,1539.00,86.00,28.40,12.44,100.00,10.00,0.00,30.15,M,10.00,M,CLR,M,M,M,M,M,M,M,M,M,M,M,M,M,M,82.54,KRTS 011955Z AUTO 10010KT 10SM CLR 30/M02 A3015 RMK AO2,M
MEV,2024-09-01 19:55,-119.7500,38.9963,1441.42,91.40,23.00,8.38,210.00,14.00,0.00,30.11,M,10.00,M,CLR,M,M,M,M,M,M,M,M,M,M,M,M,M,M,86.08,KMEV 011955Z AUTO 21014KT 10SM CLR 33/M05 A3011 RMK AO2,M
BAM,2024-09-01 19:55,-116.8743,40.5990,1382.36,91.40,35.60,14.02,0.00,0.00,0.00,30.11,M,10.00,M,CLR,M,M,M,M,M,M,M,M,M,M,M,M,M,M,87.17,KBAM 011955Z AUTO 00000KT 10SM CLR 33/02 A3011 RMK AO1,M
HTH,2024-09-01 19:55,-118.6315,38.5448,1282.89,93.20,32.00,11.48,M,5.00,0.00,30.07,M,10.00,11.00,CLR,M,M,M,M,M,M,M,M,M,M,M,M,M,M,88.31,KHTH 011955Z AUTO VRB05G11KT 10SM CLR 34/00 A3007 RMK A01,M
TMT,2024-09-01 19:55,-117.1971,39.4643,1749.34,83.30,36.30,18.64,190.00,14.00,0.00,30.22,M,10.00,20.00,CLR,M,M,M,M,M,M,M,M,M,M,M,M,M,M,80.71,KTMT 011955Z AUTO 19014G20KT 10SM CLR 29/02 A3022 RMK AO2 T02850024,M
10U,2024-09-01 19:55,-116.1876,41.9532,1637.00,87.80,26.60,10.91,0.00,0.00,0.00,30.18,M,10.00,M,CLR,M,M,M,M,M,M,M,M,M,M,M,M,M,M,83.69,K10U 011955Z AUTO 00000KT 10SM CLR 31/M03 A3018 RMK AO2,M
LSV,2024-09-01 19:55,-115.0343,36.2362,570.00,100.20,36.00,10.87,200.00,4.00,0.00,29.91,1009.70,10.00,M,FEW,M,M,M,20000.00,M,M,M,M,M,M,M,M,M,M,94.65,KLSV 011955Z AUTO 20004KT 10SM FEW200 38/02 A2991 RMK AO2 SLP097 T03790023 $,M
EKO,2024-09-01 19:56,-115.7860,40.8242,1367.00,89.00,37.00,15.97,280.00,8.00,0.00,30.15,1015.10,10.00,M,CLR,M,M,M,M,M,M,M,M,M,M,M,M,M,M,85.15,KEKO 011956Z AUTO 28008KT 10SM CLR 32/03 A3015 RMK AO2 SLP151 T03170028,M
HND,2024-09-01 19:56,-115.1344,35.9729,742.79,98.00,46.00,17.11,70.00,5.00,0.00,30.01,1014.70,10.00,M,CLR,M,M,M,M,M,M,M,M,M,M,M,M,M,M,94.18,KHND 011956Z 07005KT 10SM CLR 37/08 A3001 RMK AO2 SLP147 T03670078,M
TPH,2024-09-01 19:56,-117.0904,38.0505,1654.00,89.00,33.00,13.62,M,6.00,0.00,30.20,1014.20,10.00,16.00,FEW,M,M,M,11000.00,M,M,M,M,M,M,M,M,M,M,85.08,KTPH 011956Z AUTO VRB06G16KT 10SM FEW110 32/01 A3020 RMK AO2 SLP142 T03170006,M
LAS,2024-09-01 19:56,-115.1634,36.0719,663.00,97.00,48.00,19.02,120.00,5.00,0.00,29.98,1012.20,10.00,M,FEW,FEW,M,M,12000.00,18000.00,M,M,M,M,M,M,M,M,M,93.52,KLAS 011956Z 12005KT 10SM FEW120 FEW180 36/09 A2998 RMK AO2 SLP122 T03610089 $,M
NFL,2024-09-01 19:57,-118.7010,39.4166,1199.00,93.00,37.00,14.09,M,5.00,0.00,30.06,1014.60,10.00,M,CLR,M,M,M,M,M,M,M,M,M,M,M,M,M,M,88.63,KNFL 011957Z AUTO VRB05KT 10SM CLR 34/03 A3006 RMK AO2 SLP146 T03390028,M
INS,2024-09-01 20:04,-115.6733,36.5872,955.00,98.60,30.20,9.04,110.00,12.00,0.00,30.00,1009.90,10.00,22.00,CLR,M,M,M,M,M,M,M,M,M,M,M,M,M,M,92.46,KINS 012004Z AUTO 11012G22KT 10SM CLR 37/M01 A3000 RMK AO2 WSHFT 1955 SLP099,M
05U,2024-09-01 20:10,-116.0051,39.6042,1811.23,80.60,33.80,18.42,220.00,19.00,0.00,30.25,M,9.00,28.00,CLR,M,M,M,M,M,M,M,M,M,M,M,M,M,M,78.88,K05U 012010Z AUTO 22019G28KT 9SM CLR 27/01 A3025 RMK A01,M
BVU,2024-09-01 20:15,-114.8611,35.9475,671.00,100.40,39.20,12.25,150.00,7.00,0.00,29.95,M,10.00,M,CLR,M,M,M,M,M,M,M,M,M,M,M,M,M,M,95.43,KBVU 012015Z AUTO 15007KT 10SM CLR 38/04 A2995 RMK AO2,M
CXP,2024-09-01 20:15,-119.7326,39.1923,1431.00,91.40,19.40,7.19,180.00,13.00,0.00,30.12,M,7.00,M,CLR,M,M,M,M,M,M,M,M,M,M,M,M,M,M,85.86,KCXP 012015Z AUTO 18013KT 7SM CLR 33/M07 A3012 RMK AO2,M
RTS,2024-09-01 20:15,-119.8764,39.6682,1539.00,87.80,28.40,11.74,160.00,11.00,0.00,30.15,M,10.00,M,CLR,M,M,M,M,M,M,M,M,M,M,M,M,M,M,83.84,KRTS 012015Z AUTO 16011KT 120V210 10SM CLR 31/M02 A3015 RMK AO2,M
MEV,2024-09-01 20:15,-119.7500,38.9963,1441.42,91.40,21.20,7.77,190.00,17.00,0.00,30.11,M,10.00,M,CLR,M,M,M,M,M,M,M,M,M,M,M,M,M,M,85.96,KMEV 012015Z AUTO 19017KT 10SM CLR 33/M06 A3011 RMK AO2,M
BAM,2024-09-01 20:15,-116.8743,40.5990,1382.36,95.00,37.40,13.46,140.00,10.00,0.00,30.11,M,10.00,M,CLR,M,M,M,M,M,M,M,M,M,M,M,M,M,M,90.46,KBAM 012015Z AUTO 14010KT 10SM CLR 35/03 A3011 RMK AO1,M
HTH,2024-09-01 20:15,-118.6315,38.5448,1282.89,93.20,32.00,11.48,20.00,8.00,0.00,30.07,M,10.00,M,CLR,M,M,M,M,M,M,M,M,M,M,M,M,M,M,88.31,KHTH 012015Z AUTO 02008KT 10SM CLR 34/M00 A3007 RMK A01,M
TMT,2024-09-01 20:15,-117.1971,39.4643,1749.34,85.60,35.00,16.44,160.00,8.00,0.00,30.22,M,10.00,M,CLR,M,M,M,M,M,M,M,M,M,M,M,M,M,M,82.37,KTMT 012015Z AUTO 16008KT 10SM CLR 30/02 A3022 RMK AO2 T02980016,M
10U,2024-09-01 20:15,-116.1876,41.9532,1637.00,89.60,26.60,10.30,M,6.00,0.00,30.17,M,10.00,M,CLR,M,M,M,M,M,M,M,M,M,M,M,M,M,M,85.02,K10U 012015Z AUTO VRB06KT 10SM CLR 32/M03 A3017 RMK AO2,M
05U,2024-09-01 20:30,-116.0051,39.6042,1811.23,80.60,37.40,21.25,210.00,25.00,0.00,30.25,M,8.00,39.00,FEW,FEW,FEW,M,3400.00,4300.00,5500.00,M,M,M,M,M,M,M,M,79.02,K05U 012030Z AUTO 21025G39KT 8SM FEW034 FEW043 FEW055 27/03 A3025 RMK A01,M
INS,2024-09-01 20:32,-115.6733,36.5872,955.00,100.40,30.20,8.56,100.00,14.00,0.00,30.00,1009.90,10.00,20.00,CLR,M,M,M,M,M,M,M,M,M,M,M,M,M,M,93.98,KINS 012032Z AUTO 10014G20KT 10SM CLR 38/M01 A3000 RMK AO2 WSHFT 23 SLP099,M
BVU,2024-09-01 20:35,-114.8611,35.9475,671.00,100.40,39.20,12.25,50.00,7.00,0.00,29.94,M,10.00,M,CLR,M,M,M,M,M,M,M,M,M,M,M,M,M,M,95.43,KBVU 012035Z AUTO 05007KT 10SM CLR 38/04 A2994 RMK AO2,M
CXP,2024-09-01 20:35,-119.7326,39.1923,1431.00,91.40,21.20,7.77,220.00,9.00,0.00,30.12,M,10.00,17.00,CLR,M,M,M,M,M,M,M,M,M,M,M,M,M,M,85.96,KCXP 012035Z AUTO 22009G17KT 190V270 10SM CLR 33/M06 A3012 RMK AO2,M
RTS,2024-09-01 20:35,-119.8764,39.6682,1539.00,87.80,23.00,9.39,190.00,9.00,0.00,30.14,M,10.00,17.00,CLR,M,M,M,M,M,M,M,M,M,M,M,M,M,M,83.43,KRTS 012035Z AUTO 19009G17KT 160V220 10SM CLR 31/M05 A3014 RMK AO2,M
MEV,2024-09-01 20:35,-119.7500,38.9963,1441.42,91.40,21.20,7.77,210.00,20.00,0.00,30.11,M,10.00,28.00,CLR,M,M,M,M,M,M,M,M,M,M,M,M,M,M,85.96,KMEV 012035Z AUTO 21020G28KT 10SM CLR 33/M06 A3011 RMK AO2,M
BAM,2024-09-01 20:35,-116.8743,40.5990,1382.36,93.20,35.60,13.25,40.00,4.00,0.00,30.10,M,10.00,M,CLR,M,M,M,M,M,M,M,M,M,M,M,M,M,M,88.76,KBAM 012035Z AUTO 04004KT 10SM CLR 34/02 A3010 RMK AO1,M
HTH,2024-09-01 20:35,-118.6315,38.5448,1282.89,93.20,30.20,10.67,30.00,6.00,0.00,30.06,M,10.00,M,CLR,M,M,M,M,M,M,M,M,M,M,M,M,M,M,88.09,KHTH 012035Z AUTO 03006KT 10SM CLR 34/M01 A3006 RMK A01,M
TMT,2024-09-01 20:35,-117.1971,39.4643,1749.34,83.00,35.00,17.88,260.00,6.00,0.00,30.21,M,10.00,33.00,CLR,M,M,M,M,M,M,M,M,M,M,M,M,M,M,80.47,KTMT 012035Z AUTO 26006G33KT 10SM CLR 28/02 A3021 RMK AO2 T02840017,M
10U,2024-09-01 20:35,-116.1876,41.9532,1637.00,86.00,26.60,11.55,0.00,0.00,0.00,30.16,M,10.00,11.00,CLR,M,M,M,M,M,M,M,M,M,M,M,M,M,M,82.39,K10U 012035Z AUTO 00000G11KT 10SM CLR 30/M03 A3016 RMK AO2,M
TPH,2024-09-01 20:38,-117.0904,38.0505,1654.00,88.00,34.00,14.64,150.00,8.00,0.00,30.19,M,10.00,21.00,FEW,M,M,M,12000.00,M,M,M,M,M,M,M,26.00,140.00,2024-09-01 20:09,84.26,KTPH 012038Z AUTO 15008G21KT 090V170 10SM FEW120 31/01 A3019 RMK AO2 PK WND 14026/2009 WSHFT 2018 T03110011,M
05U,2024-09-01 20:50,-116.0051,39.6042,1811.23,82.40,33.80,17.38,180.00,7.00,0.00,30.26,M,10.00,M,FEW,FEW,FEW,M,3400.00,4300.00,5500.00,M,M,M,M,M,M,M,M,80.03,K05U 012050Z AUTO 18007KT 080V240 10SM FEW034 FEW043 FEW055 28/01 A3026 RMK A01,M
P68,2024-09-01 20:53,-116.0056,39.6014,1993.00,82.00,36.00,19.21,120.00,11.00,0.00,30.23,1014.30,M,20.00,M,M,M,M,M,M,M,M,M,M,M,M,36.00,210.00,2024-09-01 20:31,79.83,KP68 012053Z AUTO 12011G20KT 28/02 A3023 RMK AO1 PK WND 21036/2031 SLP143 T02780022 55005,M
DRA,2024-09-01 20:53,-116.0278,36.6206,1009.00,101.00,39.00,11.94,M,5.00,0.00,30.01,1010.20,10.00,M,CLR,M,M,M,M,M,M,M,M,M,M,M,M,M,M,95.90,KDRA 012053Z AUTO VRB05KT 10SM CLR 38/04 A3001 RMK AO2 SLP102 T03830039 58019,M
ELY,2024-09-01 20:53,-114.8453,39.2950,1909.00,84.00,33.00,15.98,130.00,12.00,T,30.26,1015.10,10.00,19.00,CLR,M,M,M,M,M,M,M,M,M,M,M,36.00,130.00,2024-09-01 20:10,81.14,KELY 012053Z AUTO 13012G19KT 10SM CLR 29/01 A3026 RMK AO2 PK WND 13036/2010 RAE00 SLP151 P0000 60000 T02890006 58010,M
VGT,2024-09-01 20:53,-115.1933,36.2111,667.00,101.00,44.00,14.48,M,5.00,0.00,29.94,1012.40,10.00,M,CLR,M,M,M,M,M,M,M,M,M,M,M,M,M,M,96.80,KVGT 012053Z VRB05KT 10SM CLR 38/07 A2994 RMK AO2 SLP124 T03830067 58021,M
LOL,2024-09-01 20:53,-118.5701,40.0684,1192.43,94.00,36.00,13.13,250.00,7.00,0.00,30.04,1013.30,10.00,M,CLR,M,M,M,M,M,M,M,M,M,M,M,M,M,M,89.49,KLOL 012053Z AUTO 25007KT 10SM CLR 34/02 A3004 RMK AO2 SLP133 T03440022 58016,M
BVU,2024-09-01 20:55,-114.8611,35.9475,671.00,100.40,39.20,12.25,M,6.00,0.00,29.93,M,10.00,11.00,CLR,M,M,M,M,M,M,M,M,M,M,M,M,M,M,95.43,KBVU 012055Z AUTO VRB06G11KT 10SM CLR 38/04 A2993 RMK AO2,M
RNO,2024-09-01 20:55,-119.7711,39.4839,1341.00,93.00,61.00,34.57,190.00,10.00,0.00,30.07,1012.00,10.00,17.00,FEW,M,M,M,12000.00,M,M,M,M,M,M,M,M,M,M,93.20,KRNO 012055Z 19010G17KT 10SM FEW120 34/16 A3007 RMK AO2 SLP120 T03390161 56020,M
CXP,2024-09-01 20:55,-119.7326,39.1923,1431.00,91.40,21.20,7.77,M,6.00,0.00,30.11,M,10.00,15.00,CLR,M,M,M,M,M,M,M,M,M,M,M,M,M,M,85.96,KCXP 012055Z AUTO VRB06G15KT 10SM CLR 33/M06 A3011 RMK AO2,M
RTS,2024-09-01 20:55,-119.8764,39.6682,1539.00,87.80,21.20,8.70,210.00,9.00,0.00,30.14,M,10.00,22.00,CLR,M,M,M,M,M,M,M,M,M,M,M,M,M,M,83.33,KRTS 012055Z AUTO 21009G22KT 10SM CLR 31/M06 A3014 RMK AO2,M
MEV,2024-09-01 20:55,-119.7500,38.9963,1441.42,91.40,24.80,9.04,190.00,17.00,0.00,30.10,M,10.00,22.00,CLR,M,M,M,M,M,M,M,M,M,M,M,M,M,M,86.21,KMEV 012055Z AUTO 19017G22KT 10SM CLR 33/M04 A3010 RMK AO2,M
BAM,2024-09-01 20:55,-116.8743,40.5990,1382.36,96.80,37.40,12.73,160.00,9.00,0.00,30.10,M,10.00,M,BKN,M,M,M,12000.00,M,M,M,M,M,M,M,M,M,M,92.04,KBAM 012055Z AUTO 16009KT 10SM BKN120 36/03 A3010 RMK AO1,M
HTH,2024-09-01 20:55,-118.6315,38.5448,1282.89,95.00,28.40,9.38,100.00,11.00,0.00,30.05,M,10.00,16.00,CLR,M,M,M,M,M,M,M,M,M,M,M,M,M,M,89.27,KHTH 012055Z AUTO 10011G16KT 10SM CLR 35/M02 A3005 RMK A01,M
TMT,2024-09-01 20:55,-117.1971,39.4643,1749.34,84.60,36.00,17.67,0.00,0.00,0.00,30.20,M,10.00,M,CLR,M,M,M,M,M,M,M,M,M,M,M,M,M,M,81.64,KTMT 012055Z AUTO 00000KT 10SM CLR 29/02 A3020 RMK AO2 T02920023,M
10U,2024-09-01 20:55,-116.1876,41.9532,1637.00,86.00,26.60,11.55,70.00,5.00,0.00,30.16,M,10.00,10.00,CLR,M,M,M,M,M,M,M,M,M,M,M,M,M,M,82.39,K10U 012055Z AUTO 07005G10KT 10SM CLR 30/M03 A3016 RMK AO2,M
INS,2024-09-01 20:55,-115.6733,36.5872,955.00,100.80,31.60,8.95,80.00,14.00,0.00,29.99,1009.50,10.00,M,CLR,M,M,M,M,M,M,M,M,M,M,M,M,M,M,94.49,KINS 012055Z AUTO 08014KT 10SM CLR 38/M00 A2999 RMK AO2 SLP095 T03821002 57021,M
LSV,2024-09-01 20:55,-115.0343,36.2362,570.00,102.40,32.70,8.92,70.00,8.00,0.00,29.88,1008.70,10.00,M,CLR,M,M,M,M,M,M,M,M,M,M,M,M,M,M,96.01,KLSV 012055Z AUTO 07008KT 10SM CLR 39/00 A2988 RMK AO2 SLP087 T03910004 57024 $,M
EKO,2024-09-01 20:56,-115.7860,40.8242,1367.00,93.00,38.00,14.66,M,M,0.00,30.13,1014.10,10.00,M,CLR,M,M,M,M,M,M,M,M,M,M,M,M,M,M,88.68,KEKO 012056Z AUTO 10SM CLR 34/03 A3013 RMK AO2 SLP141 T03390033 56024,M
HND,2024-09-01 20:56,-115.1344,35.9729,742.79,98.00,45.00,16.47,M,5.00,0.00,29.99,1013.80,10.00,M,CLR,M,M,M,M,M,M,M,M,M,M,M,M,M,M,94.02,KHND 012056Z VRB05KT 10SM CLR 37/07 A2999 RMK AO2 SLP138 T03670072 58022,M
TPH,2024-09-01 20:56,-117.0904,38.0505,1654.00,88.00,35.00,15.23,M,4.00,0.00,30.18,1013.80,10.00,20.00,FEW,M,M,M,12000.00,M,M,M,M,M,M,M,26.00,140.00,2024-09-01 20:09,84.28,KTPH 012056Z AUTO VRB04G20KT 10SM FEW120 31/02 A3018 RMK AO2 PK WND 14026/2009 WSHFT 2018 SLP138 T03110017 58018,M
LAS,2024-09-01 20:56,-115.1634,36.0719,663.00,98.00,48.00,18.45,M,M,0.00,29.96,1011.40,10.00,M,FEW,FEW,M,M,12000.00,18000.00,M,M,M,M,M,M,M,M,M,94.53,KLAS 012056Z 10SM FEW120 FEW180 36/09 A2996 RMK AO2 SLP114 T03670089 58021 $,M
NFL,2024-09-01 20:57,-118.7010,39.4166,1199.00,93.00,37.00,14.09,M,5.00,0.00,30.04,1014.10,10.00,M,CLR,M,M,M,M,M,M,M,M,M,M,M,M,M,M,88.63,KNFL 012057Z AUTO VRB05KT 10SM CLR 34/03 A3004 RMK AO2 SLP141 T03390028 58018,M
LAS,2024-09-01 20:59,-115.1634,36.0719,663.00,98.00,48.00,18.45,70.00,7.00,0.00,29.96,M,10.00,M,FEW,FEW,M,M,12000.00,18000.00,M,M,M,M,M,M,M,M,M,94.53,KLAS 012059Z 07007KT 040V100 10SM FEW120 FEW180 36/09 A2996 RMK AO2 T03670089 $,M
05U,2024-09-01 21:10,-116.0051,39.6042,1811.23,80.60,37.40,21.25,250.00,11.00,0.00,30.25,M,10.00,22.00,CLR,M,M,M,M,M,M,M,M,M,M,M,M,M,M,79.02,K05U 012110Z AUTO 25011G22KT 10SM CLR 27/03 A3025 RMK A01,M
BVU,2024-09-01 21:15,-114.8611,35.9475,671.00,100.40,37.40,11.41,0.00,0.00,0.00,29.92,M,10.00,16.00,CLR,M,M,M,M,M,M,M,M,M,M,M,M,M,M,95.08,KBVU 012115Z AUTO 00000G16KT 10SM CLR 38/03 A2992 RMK AO2,M
CXP,2024-09-01 21:15,-119.7326,39.1923,1431.00,93.20,24.80,8.54,220.00,9.00,0.00,30.11,M,10.00,17.00,CLR,M,M,M,M,M,M,M,M,M,M,M,M,M,M,87.56,KCXP 012115Z AUTO 22009G17KT 10SM CLR 34/M04 A3011 RMK AO2,M
RTS,2024-09-01 21:15,-119.8764,39.6682,1539.00,89.60,21.20,8.22,220.00,10.00,0.00,30.14,M,10.00,21.00,CLR,M,M,M,M,M,M,M,M,M,M,M,M,M,M,84.64,KRTS 012115Z AUTO 22010G21KT 10SM CLR 32/M06 A3014 RMK AO2,M
MEV,2024-09-01 21:15,-119.7500,38.9963,1441.42,91.40,24.80,9.04,200.00,16.00,0.00,30.10,M,10.00,25.00,CLR,M,M,M,M,M,M,M,M,M,M,M,M,M,M,86.21,KMEV 012115Z AUTO 20016G25KT 10SM CLR 33/M04 A3010 RMK AO2,M
BAM,2024-09-01 21:15,-116.8743,40.5990,1382.36,95.00,35.60,12.53,160.00,18.00,0.00,30.09,M,10.00,22.00,SCT,M,M,M,12000.00,M,M,M,M,M,M,M,M,M,M,90.25,KBAM 012115Z AUTO 16018G22KT 10SM SCT120 35/02 A3009 RMK AO1,M
HTH,2024-09-01 21:15,-118.6315,38.5448,1282.89,93.20,26.60,9.21,270.00,11.00,0.00,30.03,M,10.00,M,CLR,M,M,M,M,M,M,M,M,M,M,M,M,M,M,87.72,KHTH 012115Z AUTO 27011KT 10SM CLR 34/M03 A3003 RMK A01,M
TMT,2024-09-01 21:15,-117.1971,39.4643,1749.34,86.00,36.00,16.89,320.00,8.00,0.00,30.19,M,10.00,M,CLR,M,M,M,M,M,M,M,M,M,M,M,M,M,M,82.70,KTMT 012115Z AUTO 32008KT 10SM CLR 30/02 A3019 RMK AO2 T03010023,M
10U,2024-09-01 21:15,-116.1876,41.9532,1637.00,87.80,26.60,10.91,130.00,10.00,0.00,30.15,M,10.00,M,CLR,M,M,M,M,M,M,M,M,M,M,M,M,M,M,83.69,K10U 012115Z AUTO 13010KT 100V160 10SM CLR 31/M03 A3015 RMK AO2,M
P68,2024-09-01 21:17,-116.0056,39.6014,1993.00,82.00,37.00,19.99,240.00,14.00,0.00,30.23,M,M,19.00,M,M,M,M,M,M,M,M,M,M,M,M,M,M,M,79.86,KP68 012117Z AUTO 24014G19KT 28/03 A3023 RMK AO1 WSHFT 2100 T02780028,M
INS,2024-09-01 21:17,-115.6733,36.5872,955.00,100.40,33.80,9.90,70.00,11.00,0.00,29.98,1009.20,10.00,15.00,SCT,M,M,M,13000.00,M,M,M,M,M,M,M,M,M,M,94.47,KINS 012117Z AUTO 07011G15KT 10SM SCT130 38/01 A2998 RMK AO2 WSHFT 14 SLP092,M
INS,2024-09-01 21:30,-115.6733,36.5872,955.00,100.40,33.80,9.90,110.00,11.00,0.00,29.98,1009.20,10.00,M,FEW,M,M,M,13000.00,M,M,M,M,M,M,M,M,M,M,94.47,KINS 012130Z AUTO 11011KT 10SM FEW130 38/01 A2998 RMK AO2 WSHFT 27 SLP092,M
05U,2024-09-01 21:30,-116.0051,39.6042,1811.23,80.60,35.60,19.79,0.00,0.00,0.00,30.24,M,10.00,13.00,BKN,M,M,M,11000.00,M,M,M,M,M,M,M,M,M,M,78.94,K05U 012130Z AUTO 00000G13KT 10SM BKN110 27/02 A3024 RMK A01,M
BVU,2024-09-01 21:35,-114.8611,35.9475,671.00,100.40,37.40,11.41,130.00,8.00,0.00,29.91,M,10.00,M,CLR,M,M,M,M,M,M,M,M,M,M,M,M,M,M,95.08,KBVU 012135Z AUTO 13008KT 10SM CLR 38/03 A2991 RMK AO2,M
CXP,2024-09-01 21:35,-119.7326,39.1923,1431.00,91.40,26.60,9.74,230.00,9.00,0.00,30.10,M,10.00,15.00,CLR,M,M,M,M,M,M,M,M,M,M,M,M,M,M,86.36,KCXP 012135Z AUTO 23009G15KT 200V280 10SM CLR 33/M03 A3010 RMK AO2,M
HTH,2024-09-01 21:35,-118.6315,38.5448,1282.89,95.00,24.80,8.08,70.00,6.00,0.00,30.03,M,10.00,M,CLR,M,M,M,M,M,M,M,M,M,M,M,M,M,M,88.91,KHTH 012135Z AUTO 07006KT 10SM CLR 35/M04 A3003 RMK A01,M
RTS,2024-09-01 21:35,-119.8764,39.6682,1539.00,89.60,21.20,8.22,230.00,14.00,0.00,30.12,M,10.00,21.00,CLR,M,M,M,M,M,M,M,M,M,M,M,M,M,M,84.64,KRTS 012135Z AUTO 23014G21KT 10SM CLR 32/M06 A3012 RMK AO2,M
MEV,2024-09-01 21:35,-119.7500,38.9963,1441.42,93.20,23.00,7.92,210.00,17.00,0.00,30.09,M,10.00,22.00,CLR,M,M,M,M,M,M,M,M,M,M,M,M,M,M,87.42,KMEV 012135Z AUTO 21017G22KT 10SM CLR 34/M05 A3009 RMK AO2,M
BAM,2024-09-01 21:35,-116.8743,40.5990,1382.36,91.40,37.40,15.05,130.00,14.00,0.00,30.09,M,10.00,20.00,CLR,M,M,M,M,M,M,M,M,M,M,M,M,M,M,87.23,KBAM 012135Z AUTO 13014G20KT 10SM CLR 33/03 A3009 RMK AO1,M
10U,2024-09-01 21:35,-116.1876,41.9532,1637.00,87.80,30.20,12.64,150.00,15.00,0.00,30.15,M,10.00,20.00,CLR,M,M,M,M,M,M,M,M,M,M,M,M,M,M,84.01,K10U 012135Z AUTO 15015G20KT 10SM CLR 31/M01 A3015 RMK AO2,M
05U,2024-09-01 21:50,-116.0051,39.6042,1811.23,82.40,35.60,18.67,260.00,10.00,0.00,30.23,M,10.00,M,BKN,M,M,M,12000.00,M,M,M,M,M,M,M,M,M,M,80.08,K05U 012150Z AUTO 26010KT 10SM BKN120 28/02 A3023 RMK A01,M
P68,2024-09-01 21:53,-116.0056,39.6014,1993.00,83.00,36.00,18.60,250.00,12.00,0.00,30.21,1014.10,M,17.00,M,M,M,M,M,M,M,M,M,M,M,M,M,M,M,80.50,KP68 012153Z AUTO 25012G17KT 28/02 A3021 RMK AO1 WSHFT 2100 SLP141 T02830022,M
DRA,2024-09-01 21:53,-116.0278,36.6206,1009.00,101.00,39.00,11.94,200.00,12.00,0.00,29.97,1009.20,10.00,M,CLR,M,M,M,M,M,M,M,M,M,M,M,M,M,M,95.90,KDRA 012153Z AUTO 20012KT 10SM CLR 38/04 A2997 RMK AO2 SLP092 T03830039,M
ELY,2024-09-01 21:53,-114.8453,39.2950,1909.00,83.00,33.00,16.50,120.00,10.00,0.00,30.24,1014.50,10.00,M,CLR,M,M,M,M,M,M,M,M,M,M,M,28.00,140.00,2024-09-01 21:12,80.43,KELY 012153Z AUTO 12010KT 10SM CLR 28/01 A3024 RMK AO2 PK WND 14028/2112 SLP145 T02830006,M
VGT,2024-09-01 21:53,-115.1933,36.2111,667.00,103.00,42.00,12.63,120.00,9.00,0.00,29.91,1011.30,10.00,M,CLR,M,M,M,M,M,M,M,M,M,M,M,M,M,M,98.33,KVGT 012153Z 12009KT 10SM CLR 39/06 A2991 RMK AO2 SLP113 T03940056,M
LOL,2024-09-01 21:53,-118.5701,40.0684,1192.43,93.00,34.00,12.51,M,6.00,0.00,30.02,1011.90,10.00,M,CLR,M,M,M,M,M,M,M,M,M,M,M,M,M,M,88.42,KLOL 012153Z AUTO VRB06KT 10SM CLR 34/01 A3002 RMK AO2 SLP119 T03390011,M
BVU,2024-09-01 21:55,-114.8611,35.9475,671.00,102.20,37.40,10.81,80.00,5.00,0.00,29.90,M,10.00,10.00,CLR,M,M,M,M,M,M,M,M,M,M,M,M,M,M,96.63,KBVU 012155Z AUTO 08005G10KT 10SM CLR 39/03 A2990 RMK AO2,M
RNO,2024-09-01 21:55,-119.7711,39.4839,1341.00,93.00,61.00,34.57,220.00,10.00,0.00,30.05,1011.40,10.00,20.00,FEW,M,M,M,12000.00,M,M,M,M,M,M,M,M,M,M,93.20,KRNO 012155Z 22010G20KT 10SM FEW120 34/16 A3005 RMK AO2 SLP114 T03390161,M
LSV,2024-09-01 21:55,-115.0343,36.2362,570.00,102.60,33.00,8.97,80.00,5.00,0.00,29.86,1008.10,10.00,M,CLR,M,M,M,M,M,M,M,M,M,M,M,M,M,M,96.23,KLSV 012155Z AUTO 08005KT 10SM CLR 39/01 A2986 RMK AO2 SLP081 T03920005 $,M
BAM,2024-09-01 21:55,-116.8743,40.5990,1382.36,91.40,35.60,14.02,210.00,5.00,0.00,30.08,M,10.00,M,CLR,M,M,M,M,M,M,M,M,M,M,M,M,M,M,87.17,KBAM 012155Z AUTO 21005KT 10SM CLR 33/02 A3008 RMK AO1,M
CXP,2024-09-01 21:55,-119.7326,39.1923,1431.00,93.20,24.80,8.54,180.00,10.00,0.00,30.09,M,10.00,M,CLR,M,M,M,M,M,M,M,M,M,M,M,M,M,M,87.56,KCXP 012155Z AUTO 18010KT 10SM CLR 34/M04 A3009 RMK AO2,M
RTS,2024-09-01 21:55,-119.8764,39.6682,1539.00,89.60,19.40,7.61,220.00,14.00,0.00,30.12,M,10.00,23.00,CLR,M,M,M,M,M,M,M,M,M,M,M,M,M,M,84.54,KRTS 012155Z AUTO 22014G23KT 10SM CLR 32/M07 A3012 RMK AO2,M
MEV,2024-09-01 21:55,-119.7500,38.9963,1441.42,91.40,26.60,9.74,200.00,18.00,0.00,30.08,M,10.00,23.00,CLR,M,M,M,M,M,M,M,M,M,M,M,M,M,M,86.36,KMEV 012155Z AUTO 20018G23KT 10SM CLR 33/M03 A3008 RMK AO2,M
HTH,2024-09-01 21:55,-118.6315,38.5448,1282.89,93.20,24.80,8.54,140.00,8.00,0.00,30.02,M,10.00,M,CLR,M,M,M,M,M,M,M,M,M,M,M,M,M,M,87.56,KHTH 012155Z AUTO 14008KT 10SM CLR 34/M04 A3002 RMK A01,M
TMT,2024-09-01 21:55,-117.1971,39.4643,1749.34,87.80,36.50,16.27,140.00,13.00,0.00,30.17,M,10.00,19.00,CLR,M,M,M,M,M,M,M,M,M,M,M,M,M,M,84.14,KTMT 012155Z AUTO 14013G19KT 10SM CLR 31/03 A3017 RMK AO2 T03100025,M
10U,2024-09-01 21:55,-116.1876,41.9532,1637.00,86.00,28.40,12.44,M,5.00,0.00,30.14,M,10.00,19.00,CLR,M,M,M,M,M,M,M,M,M,M,M,M,M,M,82.54,K10U 012155Z AUTO VRB05G19KT 10SM CLR 30/M02 A3014 RMK AO2,M
INS,2024-09-01 21:55,-115.6733,36.5872,955.00,99.30,33.00,9.91,110.00,6.00,0.00,29.97,1009.00,10.00,18.00,CLR,M,M,M,M,M,M,M,M,M,M,M,M,M,M,93.42,KINS 012155Z AUTO 11006G18KT 10SM CLR 37/01 A2997 RMK AO2 SLP090 T03740006,M
EKO,2024-09-01 21:56,-115.7860,40.8242,1367.00,89.00,37.00,15.97,150.00,5.00,0.00,30.12,1014.10,10.00,M,CLR,M,M,M,M,M,M,M,M,M,M,M,M,M,M,85.15,KEKO 012156Z AUTO 15005KT 10SM CLR 32/03 A3012 RMK AO2 LTG DSNT SW SLP141 T03170028,M
HND,2024-09-01 21:56,-115.1344,35.9729,742.79,101.00,45.00,15.04,M,5.00,0.00,29.95,1012.60,10.00,M,CLR,M,M,M,M,M,M,M,M,M,M,M,M,M,M,96.97,KHND 012156Z VRB05KT 10SM CLR 38/07 A2995 RMK AO2 SLP126 T03830072,M
TPH,2024-09-01 21:56,-117.0904,38.0505,1654.00,92.00,34.00,12.91,180.00,19.00,0.00,30.15,1012.50,10.00,27.00,SCT,M,M,M,12000.00,M,M,M,M,M,M,M,27.00,210.00,2024-09-01 21:54,87.64,KTPH 012156Z AUTO 18019G27KT 10SM SCT120 33/01 A3015 RMK AO2 PK WND 21027/2154 SLP125 T03330011,M
LAS,2024-09-01 21:56,-115.1634,36.0719,663.00,99.00,48.00,17.90,140.00,5.00,0.00,29.93,1010.20,10.00,M,FEW,FEW,M,M,12000.00,18000.00,M,M,M,M,M,M,M,M,M,95.54,KLAS 012156Z 14005KT 10SM FEW120 FEW180 37/09 A2993 RMK AO2 SLP102 T03720089 $,M
NFL,2024-09-01 21:57,-118.7010,39.4166,1199.00,96.00,35.00,11.87,240.00,11.00,0.00,30.01,1013.20,10.00,M,CLR,M,M,M,M,M,M,M,M,M,M,M,M,M,M,90.97,KNFL 012157Z AUTO 24011KT 10SM CLR 36/02 A3001 RMK AO2 SLP132 T03560017,M
05U,2024-09-01 22:10,-116.0051,39.6042,1811.23,82.40,33.80,17.38,0.00,0.00,0.00,30.22,M,10.00,M,FEW,M,M,M,12000.00,M,M,M,M,M,M,M,M,M,M,80.03,K05U 012210Z AUTO 00000KT 10SM FEW120 28/01 A3022 RMK A01,M
BVU,2024-09-01 22:15,-114.8611,35.9475,671.00,102.20,37.40,10.81,140.00,6.00,0.00,29.89,M,10.00,M,CLR,M,M,M,M,M,M,M,M,M,M,M,M,M,M,96.63,KBVU 012215Z AUTO 14006KT 10SM CLR 39/03 A2989 RMK AO2,M
CXP,2024-09-01 22:15,-119.7326,39.1923,1431.00,91.40,26.60,9.74,250.00,11.00,0.00,30.09,M,10.00,18.00,CLR,M,M,M,M,M,M,M,M,M,M,M,M,M,M,86.36,KCXP 012215Z AUTO 25011G18KT 10SM CLR 33/M03 A3009 RMK AO2,M
RTS,2024-09-01 22:15,-119.8764,39.6682,1539.00,89.60,17.60,7.05,240.00,13.00,0.00,30.11,M,10.00,20.00,CLR,M,M,M,M,M,M,M,M,M,M,M,M,M,M,84.45,KRTS 012215Z AUTO 24013G20KT 10SM CLR 32/M08 A3011 RMK AO2,M
MEV,2024-09-01 22:15,-119.7500,38.9963,1441.42,93.20,26.60,9.21,190.00,14.00,0.00,30.07,M,10.00,21.00,CLR,M,M,M,M,M,M,M,M,M,M,M,M,M,M,87.72,KMEV 012215Z AUTO 19014G21KT 10SM CLR 34/M03 A3007 RMK AO2,M
BAM,2024-09-01 22:15,-116.8743,40.5990,1382.36,93.20,35.60,13.25,0.00,0.00,0.00,30.07,M,10.00,M,CLR,M,M,M,M,M,M,M,M,M,M,M,M,M,M,88.76,KBAM 012215Z AUTO 00000KT 10SM CLR 34/02 A3007 RMK AO1,M
HTH,2024-09-01 22:15,-118.6315,38.5448,1282.89,95.00,24.80,8.08,130.00,6.00,0.00,30.01,M,10.00,15.00,CLR,M,M,M,M,M,M,M,M,M,M,M,M,M,M,88.91,KHTH 012215Z AUTO 13006G15KT 10SM CLR 35/M04 A3001 RMK A01,M
TMT,2024-09-01 22:15,-117.1971,39.4643,1749.34,85.50,33.60,15.60,90.00,7.00,0.00,30.16,M,10.00,14.00,CLR,M,M,M,M,M,M,M,M,M,M,M,M,M,M,82.27,KTMT 012215Z AUTO 09007G14KT 10SM CLR 30/01 A3016 RMK AO2 T02970009,M
10U,2024-09-01 22:15,-116.1876,41.9532,1637.00,86.00,30.20,13.38,130.00,9.00,0.00,30.14,M,10.00,M,CLR,M,M,M,M,M,M,M,M,M,M,M,M,M,M,82.64,K10U 012215Z AUTO 13009KT 10SM CLR 30/M01 A3014 RMK AO2,M
05U,2024-09-01 22:30,-116.0051,39.6042,1811.23,84.20,33.80,16.39,0.00,0.00,0.00,30.22,M,10.00,M,FEW,M,M,M,12000.00,M,M,M,M,M,M,M,M,M,M,81.30,K05U 012230Z AUTO 00000KT 10SM FEW120 29/01 A3022 RMK A01,M
HTH,2024-09-01 22:30,-118.6315,38.5448,1282.89,93.20,24.80,8.54,0.00,0.00,0.00,30.01,M,10.00,M,CLR,M,M,M,M,M,M,M,M,M,M,M,M,M,M,87.56,KHTH 012230Z AUTO 00000KT 10SM CLR 34/M04 A3001 RMK A01,M
BVU,2024-09-01 22:35,-114.8611,35.9475,671.00,102.20,35.60,10.07,M,4.00,0.00,29.88,M,10.00,M,CLR,M,M,M,M,M,M,M,M,M,M,M,M,M,M,96.30,KBVU 012235Z AUTO VRB04KT 10SM CLR 39/02 A2988 RMK AO2,M
CXP,2024-09-01 22:35,-119.7326,39.1923,1431.00,91.40,28.40,10.48,250.00,11.00,0.00,30.08,M,10.00,16.00,CLR,M,M,M,M,M,M,M,M,M,M,M,M,M,M,86.53,KCXP 012235Z AUTO 25011G16KT 200V270 10SM CLR 33/M02 A3008 RMK AO2,M
RTS,2024-09-01 22:35,-119.8764,39.6682,1539.00,89.60,19.40,7.61,240.00,15.00,0.00,30.11,M,10.00,22.00,CLR,M,M,M,M,M,M,M,M,M,M,M,M,M,M,84.54,KRTS 012235Z AUTO 24015G22KT 10SM CLR 32/M07 A3011 RMK AO2,M
MEV,2024-09-01 22:35,-119.7500,38.9963,1441.42,91.40,23.00,8.38,220.00,16.00,0.00,30.07,M,10.00,26.00,CLR,M,M,M,M,M,M,M,M,M,M,M,M,M,M,86.08,KMEV 012235Z AUTO 22016G26KT 10SM CLR 33/M05 A3007 RMK AO2,M
BAM,2024-09-01 22:35,-116.8743,40.5990,1382.36,95.00,35.60,12.53,170.00,7.00,0.00,30.06,M,10.00,M,CLR,M,M,M,M,M,M,M,M,M,M,M,M,M,M,90.25,KBAM 012235Z AUTO 17007KT 10SM CLR 35/02 A3006 RMK AO1,M
TMT,2024-09-01 22:35,-117.1971,39.4643,1749.34,86.00,34.30,15.79,360.00,4.00,0.00,30.16,M,10.00,M,SCT,M,M,M,12000.00,M,M,M,M,M,M,M,M,M,M,82.67,KTMT 012235Z AUTO 36004KT 10SM SCT120 30/01 A3016 RMK AO2 T03010013,M
10U,2024-09-01 22:35,-116.1876,41.9532,1637.00,87.80,30.20,12.64,140.00,11.00,0.00,30.13,M,10.00,17.00,CLR,M,M,M,M,M,M,M,M,M,M,M,M,M,M,84.01,K10U 012235Z AUTO 14011G17KT 10SM CLR 31/M01 A3013 RMK AO2,M
EKO,2024-09-01 22:41,-115.7860,40.8242,1367.00,87.00,40.00,19.14,330.00,4.00,T,30.10,M,10.00,M,CLR,M,M,M,M,M,M,M,VCTS,M,M,M,M,M,M,83.60,KEKO 012241Z AUTO 33004KT 10SM VCTS CLR 31/04 A3010 RMK AO2 RAB00E11 P0000 T03060044,M
HND,2024-09-01 22:47,-115.1344,35.9729,742.79,100.40,44.60,15.08,320.00,8.00,0.00,29.94,M,10.00,M,CLR,M,M,M,M,M,M,M,M,M,M,M,M,M,M,96.31,KHND 012247Z 32008KT 10SM SKC 38/07 A2994 RMK FX,M
05U,2024-09-01 22:50,-116.0051,39.6042,1811.23,82.40,35.60,18.67,0.00,0.00,0.00,30.22,M,10.00,M,CLR,M,M,M,M,M,M,M,M,M,M,M,M,M,M,80.08,K05U 012250Z AUTO 00000KT 10SM CLR 28/02 A3022 RMK A01,M
P68,2024-09-01 22:53,-116.0056,39.6014,1993.00,83.00,36.00,18.60,30.00,5.00,0.00,30.18,1013.50,M,M,M,M,M,M,M,M,M,M,M,M,M,M,M,M,M,80.50,KP68 012253Z AUTO 03005KT 28/02 A3018 RMK AO1 SLP135 T02830022,M
DRA,2024-09-01 22:53,-116.0278,36.6206,1009.00,99.00,40.00,13.18,0.00,0.00,0.00,29.96,1009.10,10.00,M,CLR,M,M,M,M,M,M,M,M,M,M,M,M,M,M,94.36,KDRA 012253Z AUTO 00000KT 10SM CLR 37/04 A2996 RMK AO2 SLP091 T03720044,M
ELY,2024-09-01 22:53,-114.8453,39.2950,1909.00,81.00,33.00,17.61,140.00,17.00,0.00,30.22,1014.20,10.00,28.00,CLR,M,M,M,M,M,M,M,M,M,M,M,28.00,150.00,2024-09-01 22:46,79.10,KELY 012253Z AUTO 14017G28KT 10SM CLR 27/01 A3022 RMK AO2 PK WND 15028/2246 SLP142 T02720006,M
VGT,2024-09-01 22:53,-115.1933,36.2111,667.00,103.00,42.00,12.63,M,3.00,0.00,29.89,1010.60,10.00,M,CLR,M,M,M,M,M,M,M,M,M,M,M,M,M,M,98.33,KVGT 012253Z VRB03KT 10SM CLR 39/06 A2989 RMK AO2 SLP106 T03940056,M
LOL,2024-09-01 22:53,-118.5701,40.0684,1192.43,95.00,34.00,11.76,240.00,10.00,0.00,29.99,1011.30,10.00,18.00,CLR,M,M,M,M,M,M,M,M,M,M,M,M,M,M,90.00,KLOL 012253Z AUTO 24010G18KT 190V290 10SM CLR 35/01 A2999 RMK AO2 SLP113 T03500011,M
EKO,2024-09-01 22:54,-115.7860,40.8242,1367.00,86.00,37.40,17.85,M,M,M,30.12,M,10.00,M,CLR,M,M,M,M,M,M,M,M,M,M,M,M,M,M,82.73,SPECI KEKO 012254Z KT 10SM CLR 30/03 A3012 RMK AO2 RAB00E11 P0000 FIBI,M
BVU,2024-09-01 22:55,-114.8611,35.9475,671.00,100.40,37.40,11.41,100.00,5.00,0.00,29.87,M,10.00,M,CLR,M,M,M,M,M,M,M,M,M,M,M,M,M,M,95.08,KBVU 012255Z AUTO 10005KT 10SM CLR 38/03 A2987 RMK AO2,M
RNO,2024-09-01 22:55,-119.7711,39.4839,1341.00,93.00,61.00,34.57,200.00,14.00,0.00,30.03,1010.90,10.00,19.00,FEW,M,M,M,12000.00,M,M,M,M,M,M,M,M,M,M,93.20,KRNO 012255Z 20014G19KT 10SM FEW120 34/16 A3003 RMK AO2 SLP109 T03390161,M
CXP,2024-09-01 22:55,-119.7326,39.1923,1431.00,91.40,28.40,10.48,260.00,10.00,0.00,30.07,M,10.00,M,CLR,M,M,M,M,M,M,M,M,M,M,M,M,M,M,86.53,KCXP 012255Z AUTO 26010KT 230V290 10SM CLR 33/M02 A3007 RMK AO2,M
RTS,2024-09-01 22:55,-119.8764,39.6682,1539.00,89.60,21.20,8.22,230.00,16.00,0.00,30.10,M,10.00,M,CLR,M,M,M,M,M,M,M,M,M,M,M,M,M,M,84.64,KRTS 012255Z AUTO 23016KT 10SM CLR 32/M06 A3010 RMK AO2,M
MEV,2024-09-01 22:55,-119.7500,38.9963,1441.42,91.40,26.60,9.74,210.00,16.00,0.00,30.06,M,10.00,22.00,CLR,M,M,M,M,M,M,M,M,M,M,M,M,M,M,86.36,KMEV 012255Z AUTO 21016G22KT 10SM CLR 33/M03 A3006 RMK AO2,M
BAM,2024-09-01 22:55,-116.8743,40.5990,1382.36,95.00,35.60,12.53,260.00,4.00,0.00,30.05,M,10.00,M,CLR,M,M,M,M,M,M,M,M,M,M,M,M,M,M,90.25,KBAM 012255Z AUTO 26004KT 10SM CLR 35/02 A3005 RMK AO1,M
HTH,2024-09-01 22:55,-118.6315,38.5448,1282.89,95.00,24.80,8.08,M,3.00,0.00,29.99,M,10.00,M,CLR,M,M,M,M,M,M,M,M,M,M,M,M,M,M,88.91,KHTH 012255Z AUTO VRB03KT 10SM CLR 35/M04 A2999 RMK A01,M
TMT,2024-09-01 22:55,-117.1971,39.4643,1749.34,86.40,34.50,15.71,290.00,6.00,0.00,30.15,M,10.00,M,SCT,M,M,M,12000.00,M,M,M,M,M,M,M,M,M,M,82.98,KTMT 012255Z AUTO 29006KT 10SM SCT120 30/01 A3015 RMK AO2 T03020014,M
10U,2024-09-01 22:55,-116.1876,41.9532,1637.00,87.80,30.20,12.64,160.00,7.00,0.00,30.13,M,10.00,21.00,CLR,M,M,M,M,M,M,M,M,M,M,M,M,M,M,84.01,K10U 012255Z AUTO 16007G21KT 110V180 10SM CLR 31/M01 A3013 RMK AO2,M
INS,2024-09-01 22:55,-115.6733,36.5872,955.00,100.40,31.30,8.95,90.00,9.00,0.00,29.95,1008.30,10.00,M,CLR,M,M,M,M,M,M,M,M,M,M,M,M,M,M,94.12,KINS 012255Z AUTO 09009KT 10SM CLR 38/M00 A2995 RMK AO2 SLP083 T03801004,M
LSV,2024-09-01 22:55,-115.0343,36.2362,570.00,102.70,33.00,8.94,260.00,3.00,0.00,29.83,1007.00,10.00,M,CLR,M,M,M,M,M,M,M,M,M,M,M,M,M,M,96.31,KLSV 012255Z AUTO 26003KT 10SM CLR 39/01 A2983 RMK AO2 SLP070 T03930006 $,M
EKO,2024-09-01 22:56,-115.7860,40.8242,1367.00,85.00,39.00,19.62,140.00,17.00,T,30.11,1014.20,10.00,25.00,CLR,M,M,M,M,M,M,M,M,M,M,M,M,M,M,82.02,KEKO 012256Z AUTO 14017G25KT 10SM CLR 29/04 A3011 RMK AO2 RAB00E11 SLP142 P0000 T02940039,M
HND,2024-09-01 22:56,-115.1344,35.9729,742.79,102.00,44.00,14.05,300.00,8.00,0.00,29.93,1011.80,10.00,M,CLR,M,M,M,M,M,M,M,M,M,M,M,M,M,M,97.77,KHND 012256Z 30008KT 10SM CLR 39/07 A2993 RMK AO2 SLP118 T03890067,M
TPH,2024-09-01 22:56,-117.0904,38.0505,1654.00,90.00,34.00,13.74,190.00,11.00,0.00,30.13,1012.30,10.00,18.00,CLR,M,M,M,M,M,M,M,M,M,M,M,M,M,M,85.93,KTPH 012256Z AUTO 19011G18KT 10SM CLR 32/01 A3013 RMK AO2 SLP123 T03220011,M
LAS,2024-09-01 22:56,-115.1634,36.0719,663.00,101.00,46.00,15.62,90.00,4.00,0.00,29.90,1009.50,10.00,M,FEW,M,M,M,12000.00,M,M,M,M,M,M,M,M,M,M,97.16,KLAS 012256Z 09004KT 10SM FEW120 38/08 A2990 RMK AO2 SLP095 T03830078 $,M
NFL,2024-09-01 22:57,-118.7010,39.4166,1199.00,96.00,35.00,11.87,290.00,7.00,0.00,29.98,1012.30,10.00,M,CLR,M,M,M,M,M,M,M,M,M,M,M,M,M,M,90.97,KNFL 012257Z AUTO 29007KT 10SM CLR 36/02 A2998 RMK AO2 SLP123 T03560017,M
05U,2024-09-01 23:10,-116.0051,39.6042,1811.23,82.40,35.60,18.67,0.00,0.00,0.00,30.21,M,10.00,M,CLR,M,M,M,M,M,M,M,M,M,M,M,M,M,M,80.08,K05U 012310Z AUTO 00000KT 10SM CLR 28/02 A3021 RMK A01,M
BVU,2024-09-01 23:15,-114.8611,35.9475,671.00,102.20,37.40,10.81,230.00,10.00,0.00,29.87,M,10.00,M,CLR,M,M,M,M,M,M,M,M,M,M,M,M,M,M,96.63,KBVU 012315Z AUTO 23010KT 10SM CLR 39/03 A2987 RMK AO2,M
CXP,2024-09-01 23:15,-119.7326,39.1923,1431.00,91.40,28.40,10.48,240.00,10.00,0.00,30.07,M,10.00,16.00,CLR,M,M,M,M,M,M,M,M,M,M,M,M,M,M,86.53,KCXP 012315Z AUTO 24010G16KT 10SM CLR 33/M02 A3007 RMK AO2,M
RTS,2024-09-01 23:15,-119.8764,39.6682,1539.00,87.80,21.20,8.70,230.00,12.00,0.00,30.09,M,10.00,21.00,CLR,M,M,M,M,M,M,M,M,M,M,M,M,M,M,83.33,KRTS 012315Z AUTO 23012G21KT 10SM CLR 31/M06 A3009 RMK AO2,M
MEV,2024-09-01 23:15,-119.7500,38.9963,1441.42,91.40,26.60,9.74,200.00,15.00,0.00,30.06,M,10.00,23.00,CLR,M,M,M,M,M,M,M,M,M,M,M,M,M,M,86.36,KMEV 012315Z AUTO 20015G23KT 10SM CLR 33/M03 A3006 RMK AO2,M
BAM,2024-09-01 23:15,-116.8743,40.5990,1382.36,95.00,33.80,11.67,0.00,0.00,0.00,30.05,M,10.00,M,CLR,M,M,M,M,M,M,M,M,M,M,M,M,M,M,89.97,KBAM 012315Z AUTO 00000KT 10SM CLR 35/01 A3005 RMK AO1,M
HTH,2024-09-01 23:15,-118.6315,38.5448,1282.89,95.00,24.80,8.08,160.00,6.00,0.00,29.99,M,10.00,M,CLR,M,M,M,M,M,M,M,M,M,M,M,M,M,M,88.91,KHTH 012315Z AUTO 16006KT 10SM CLR 35/M04 A2999 RMK A01,M
TMT,2024-09-01 23:15,-117.1971,39.4643,1749.34,86.00,34.50,15.91,290.00,8.00,0.00,30.15,M,10.00,M,CLR,M,M,M,M,M,M,M,M,M,M,M,M,M,M,82.67,KTMT 012315Z AUTO 29008KT 10SM CLR 30/01 A3015 RMK AO2 T02990014,M
10U,2024-09-01 23:15,-116.1876,41.9532,1637.00,87.80,30.20,12.64,0.00,0.00,0.00,30.12,M,10.00,14.00,CLR,M,M,M,M,M,M,M,M,M,M,M,M,M,M,84.01,K10U 012315Z AUTO 00000G14KT 10SM CLR 31/M01 A3012 RMK AO2,M
05U,2024-09-01 23:30,-116.0051,39.6042,1811.23,82.40,35.60,18.67,110.00,5.00,0.00,30.20,M,10.00,M,CLR,M,M,M,M,M,M,M,M,M,M,M,M,M,M,80.08,K05U 012330Z AUTO 11005KT 10SM CLR 28/02 A3020 RMK A01,M
BVU,2024-09-01 23:35,-114.8611,35.9475,671.00,102.20,37.40,10.81,M,5.00,0.00,29.86,M,10.00,10.00,CLR,M,M,M,M,M,M,M,M,M,M,M,M,M,M,96.63,KBVU 012335Z AUTO VRB05G10KT 10SM CLR 39/03 A2986 RMK AO2,M
CXP,2024-09-01 23:35,-119.7326,39.1923,1431.00,89.60,30.20,11.94,260.00,11.00,0.00,30.07,M,10.00,18.00,CLR,M,M,M,M,M,M,M,M,M,M,M,M,M,M,85.34,KCXP 012335Z AUTO 26011G18KT 200V280 10SM CLR 32/M01 A3007 RMK AO2,M
RTS,2024-09-01 23:35,-119.8764,39.6682,1539.00,87.80,23.00,9.39,210.00,9.00,0.00,30.09,M,10.00,19.00,CLR,M,M,M,M,M,M,M,M,M,M,M,M,M,M,83.43,KRTS 012335Z AUTO 21009G19KT 170V230 10SM CLR 31/M05 A3009 RMK AO2,M
MEV,2024-09-01 23:35,-119.7500,38.9963,1441.42,89.60,28.40,11.09,210.00,20.00,0.00,30.05,M,10.00,26.00,CLR,M,M,M,M,M,M,M,M,M,M,M,M,M,M,85.17,KMEV 012335Z AUTO 21020G26KT 10SM CLR 32/M02 A3005 RMK AO2,M
BAM,2024-09-01 23:35,-116.8743,40.5990,1382.36,93.20,35.60,13.25,150.00,10.00,0.00,30.05,M,10.00,30.00,CLR,M,M,M,M,M,M,M,M,M,M,M,M,M,M,88.76,KBAM 012335Z AUTO 15010G30KT 10SM CLR 34/02 A3005 RMK AO1,M
HTH,2024-09-01 23:35,-118.6315,38.5448,1282.89,96.80,26.60,8.24,0.00,0.00,0.00,29.99,M,10.00,11.00,CLR,M,M,M,M,M,M,M,M,M,M,M,M,M,M,90.57,KHTH 012335Z AUTO 00000G11KT 10SM CLR 36/M03 A2999 RMK A01,M
TMT,2024-09-01 23:35,-117.1971,39.4643,1749.34,84.20,34.30,16.73,360.00,3.00,0.00,30.14,M,10.00,M,CLR,M,M,M,M,M,M,M,M,M,M,M,M,M,M,81.31,KTMT 012335Z AUTO 36003KT 10SM CLR 29/01 A3014 RMK AO2 T02900013,M
10U,2024-09-01 23:35,-116.1876,41.9532,1637.00,87.80,30.20,12.64,M,4.00,0.00,30.12,M,10.00,M,CLR,M,M,M,M,M,M,M,M,M,M,M,M,M,M,84.01,K10U 012335Z AUTO VRB04KT 10SM CLR 31/M01 A3012 RMK AO2,M
05U,2024-09-01 23:50,-116.0051,39.6042,1811.23,82.40,33.80,17.38,240.00,3.00,0.00,30.21,M,10.00,M,FEW,M,M,M,12000.00,M,M,M,M,M,M,M,M,M,M,80.03,K05U 012350Z AUTO 24003KT 10SM FEW120 28/01 A3021 RMK A01,M
P68,2024-09-01 23:53,-116.0056,39.6014,1993.00,83.00,34.00,17.18,M,4.00,0.00,30.18,1013.30,M,M,M,M,M,M,M,M,M,M,M,M,M,M,M,M,M,80.45,KP68 012353Z AUTO VRB04KT 28/01 A3018 RMK AO1 SLP133 T02830011 10311 20261 56015,M
DRA,2024-09-01 23:53,-116.0278,36.6206,1009.00,97.00,39.00,13.48,230.00,5.00,0.00,29.95,1008.80,10.00,M,CLR,M,M,M,M,M,M,M,M,M,M,M,M,M,M,92.40,KDRA 012353Z AUTO 23005KT 10SM CLR 36/04 A2995 RMK AO2 SLP088 T03610039 10394 20344 56018,M
ELY,2024-09-01 23:53,-114.8453,39.2950,1909.00,82.00,33.00,17.05,170.00,13.00,0.00,30.22,1013.90,10.00,25.00,CLR,M,M,M,M,M,M,M,M,M,M,M,26.00,120.00,2024-09-01 23:10,79.75,KELY 012353Z AUTO 17013G25KT 10SM CLR 28/01 A3022 RMK AO2 PK WND 12026/2310 SLP139 60000 T02780006 10300 20256 56012,M
VGT,2024-09-01 23:53,-115.1933,36.2111,667.00,102.00,42.00,13.01,190.00,6.00,0.00,29.87,1010.20,10.00,M,CLR,M,M,M,M,M,M,M,M,M,M,M,M,M,M,97.45,KVGT 012353Z 19006KT 10SM CLR 39/06 A2987 RMK AO2 SLP102 T03890056 10400 20350 56021,M
LOL,2024-09-01 23:53,-118.5701,40.0684,1192.43,94.00,34.00,12.13,M,5.00,0.00,29.97,1010.70,10.00,M,CLR,M,M,M,M,M,M,M,M,M,M,M,M,M,M,89.21,KLOL 012353Z AUTO VRB05KT 10SM CLR 34/01 A2997 RMK AO2 SLP107 T03440011 10356 20294 56022,M
BVU,2024-09-01 23:55,-114.8611,35.9475,671.00,102.20,37.40,10.81,M,3.00,0.00,29.86,M,10.00,M,CLR,M,M,M,M,M,M,M,M,M,M,M,M,M,M,96.63,KBVU 012355Z AUTO VRB03KT 10SM CLR 39/03 A2986 RMK AO2,M
RNO,2024-09-01 23:55,-119.7711,39.4839,1341.00,93.00,61.00,34.57,220.00,10.00,0.00,30.02,1010.60,10.00,17.00,FEW,FEW,M,M,12000.00,20000.00,M,M,M,M,M,M,M,M,M,93.20,KRNO 012355Z 22010G17KT 10SM FEW120 FEW200 34/16 A3002 RMK AO2 SLP106 FU ALF SW THRU NW T03390161 10350 20278 56015,M
CXP,2024-09-01 23:55,-119.7326,39.1923,1431.00,89.60,30.20,11.94,260.00,11.00,0.00,30.07,M,10.00,21.00,CLR,M,M,M,M,M,M,M,M,M,M,M,M,M,M,85.34,KCXP 012355Z AUTO 26011G21KT 10SM CLR 32/M01 A3007 RMK AO2,M
RTS,2024-09-01 23:55,-119.8764,39.6682,1539.00,87.80,26.60,10.91,240.00,11.00,0.00,30.09,M,10.00,17.00,CLR,M,M,M,M,M,M,M,M,M,M,M,M,M,M,83.69,KRTS 012355Z AUTO 24011G17KT 10SM CLR 31/M03 A3009 RMK AO2,M
MEV,2024-09-01 23:55,-119.7500,38.9963,1441.42,89.60,28.40,11.09,210.00,13.00,0.00,30.05,M,10.00,22.00,CLR,M,M,M,M,M,M,M,M,M,M,M,M,M,M,85.17,KMEV 012355Z AUTO 21013G22KT 10SM CLR 32/M02 A3005 RMK AO2,M
BAM,2024-09-01 23:55,-116.8743,40.5990,1382.36,91.40,37.40,15.05,180.00,9.00,0.00,30.06,M,10.00,M,CLR,M,M,M,M,M,M,M,M,M,M,M,M,M,M,87.23,KBAM 012355Z AUTO 18009KT 10SM CLR 33/03 A3006 RMK AO1,M
HTH,2024-09-01 23:55,-118.6315,38.5448,1282.89,95.00,24.80,8.08,240.00,11.00,0.00,29.98,M,10.00,M,CLR,M,M,M,M,M,M,M,M,M,M,M,M,M,M,88.91,KHTH 012355Z AUTO 24011KT 10SM CLR 35/M04 A2998 RMK A01,M
TMT,2024-09-01 23:55,-117.1971,39.4643,1749.34,83.00,36.50,18.97,300.00,5.00,0.00,30.14,M,10.00,M,CLR,M,M,M,M,M,M,M,M,M,M,M,M,M,M,80.51,KTMT 012355Z AUTO 30005KT 10SM CLR 28/03 A3014 RMK AO2 T02840025 10313 20272,M
10U,2024-09-01 23:55,-116.1876,41.9532,1637.00,87.80,30.20,12.64,M,6.00,0.00,30.11,M,10.00,M,CLR,M,M,M,M,M,M,M,M,M,M,M,M,M,M,84.01,K10U 012355Z AUTO VRB06KT 10SM CLR 31/M01 A3011 RMK AO2,M
INS,2024-09-01 23:55,-115.6733,36.5872,955.00,99.00,30.40,9.00,160.00,9.00,0.00,29.94,1008.20,10.00,M,CLR,M,M,M,M,M,M,M,M,M,M,M,M,M,M,92.82,KINS 012355Z AUTO 16009KT 10SM CLR 37/M01 A2994 RMK AO2 SLP082 T03731009 10382 20338 57017,M
LSV,2024-09-01 23:55,-115.0343,36.2362,570.00,102.70,33.00,8.94,240.00,3.00,0.00,29.82,1006.70,10.00,M,CLR,M,M,M,M,M,M,M,M,M,M,M,M,M,M,96.31,KLSV 012355Z AUTO 24003KT 10SM CLR 39/01 A2982 RMK AO2 SLP067 T03930006 10398 20357 57021 $,M
EKO,2024-09-01 23:56,-115.7860,40.8242,1367.00,81.00,42.00,25.09,340.00,8.00,T,30.16,1016.30,10.00,23.00,FEW,BKN,OVC,M,5000.00,10000.00,12000.00,M,M,M,M,M,34.00,180.00,2024-09-01 23:02,79.48,KEKO 012356Z AUTO 34008G23KT 310V020 10SM FEW050 BKN100 OVC120 27/06 A3016 RMK AO2 PK WND 18034/2302 RAB36E51 SLP163 P0000 60000 T02720056 10344 20250 53008,M
HND,2024-09-01 23:56,-115.1344,35.9729,742.79,100.00,43.00,14.36,230.00,4.00,0.00,29.92,1011.50,10.00,M,CLR,M,M,M,M,M,M,M,M,M,M,M,M,M,M,95.68,KHND 012356Z 23004KT 10SM CLR 38/06 A2992 RMK AO2 SLP115 T03780061 10389 20344 56021,M
TPH,2024-09-01 23:56,-117.0904,38.0505,1654.00,89.00,34.00,14.18,200.00,10.00,0.00,30.12,1012.00,10.00,21.00,FEW,M,M,M,12000.00,M,M,M,M,M,M,M,M,M,M,85.09,KTPH 012356Z AUTO 20010G21KT 10SM FEW120 32/01 A3012 RMK AO2 SLP120 T03170011 10333 20283 56017,M
LAS,2024-09-01 23:56,-115.1634,36.0719,663.00,103.00,45.00,14.17,0.00,0.00,0.00,29.89,1009.00,10.00,M,FEW,M,M,M,12000.00,M,M,M,M,M,M,M,M,M,M,98.93,KLAS 012356Z 00000KT 10SM FEW120 39/07 A2989 RMK AO2 SLP090 T03940072 $,M
NFL,2024-09-01 23:57,-118.7010,39.4166,1199.00,96.00,33.00,10.96,M,5.00,0.00,29.96,1011.70,10.00,M,CLR,M,M,M,M,M,M,M,M,M,M,M,M,M,M,90.66,KNFL 012357Z AUTO VRB05KT 10SM CLR 36/01 A2996 RMK AO2 SLP117 T03560006 10361 20311 56024,M
