station,valid,lon,lat,elevation,tmpf,dwpf,relh,drct,sknt,p01i,alti,mslp,vsby,gust,skyc1,skyc2,skyc3,skyc4,skyl1,skyl2,skyl3,skyl4,wxcodes,ice_accretion_1hr,ice_accretion_3hr,ice_accretion_6hr,peak_wind_gust,peak_wind_drct,peak_wind_time,feel,metar,snowdepth
INS,2023-03-21 00:06,-115.6733,36.5872,955.00,59.00,30.20,33.35,30.00,16.00,0.00,29.73,1004.90,10.00,25.00,SCT,M,M,M,8500.00,M,M,M,M,M,M,M,M,M,M,59.00,KINS 210006Z AUTO 03016G25KT 10SM SCT085 15/M01 A2973 RMK AO2 WSHFT 2356 SLP049 $,M
05U,2023-03-21 00:10,-116.0051,39.6042,1811.23,46.40,10.40,22.81,270.00,13.00,0.00,29.75,M,10.00,20.00,CLR,M,M,M,M,M,M,M,M,M,M,M,M,M,M,40.02,K05U 210010Z AUTO 27013G20KT 10SM CLR 08/M12 A2975 RMK A01,M
BVU,2023-03-21 00:15,-114.8611,35.9475,671.00,64.40,26.60,23.77,240.00,17.00,0.00,29.73,M,10.00,M,CLR,M,M,M,M,M,M,M,M,M,M,M,M,M,M,64.40,KBVU 210015Z AUTO 24017KT 10SM CLR 18/M03 A2973 RMK AO2,M
CXP,2023-03-21 00:15,-119.7326,39.1923,1431.00,48.20,14.00,24.99,240.00,9.00,0.00,29.77,M,10.00,15.00,CLR,M,M,M,M,M,M,M,M,M,M,M,M,M,M,43.66,KCXP 210015Z AUTO 24009G15KT 10SM CLR 09/M10 A2977 RMK AO2,M
RTS,2023-03-21 00:15,-119.8764,39.6682,1539.00,44.60,14.00,28.64,250.00,14.00,0.00,29.77,M,10.00,20.00,CLR,M,M,M,M,M,M,M,M,M,M,M,M,M,M,37.40,KRTS 210015Z AUTO 25014G20KT 10SM CLR 07/M10 A2977 RMK AO2,M
MEV,2023-03-21 00:15,-119.7500,38.9963,1441.42,50.00,15.80,25.28,270.00,14.00,0.00,29.75,M,10.00,22.00,CLR,M,M,M,M,M,M,M,M,M,M,M,M,M,M,50.00,KMEV 210015Z AUTO 27014G22KT 10SM CLR 10/M09 A2975 RMK AO2,M
BAM,2023-03-21 00:15,-116.8743,40.5990,1382.36,46.40,23.00,39.36,290.00,18.00,0.00,29.74,M,10.00,22.00,CLR,M,M,M,M,M,M,M,M,M,M,M,M,M,M,38.70,KBAM 210015Z AUTO 29018G22KT 10SM CLR 08/M05 A2974 RMK AO1,M
HTH,2023-03-21 00:15,-118.6315,38.5448,1282.89,55.40,-2.20,9.15,290.00,7.00,0.00,29.73,M,10.00,M,CLR,M,M,M,M,M,M,M,M,M,M,M,M,M,M,55.40,KHTH 210015Z AUTO 29007KT 10SM CLR 13/M19 A2973 RMK A01,M
TMT,2023-03-21 00:15,-117.1971,39.4643,1749.34,45.30,12.20,25.76,270.00,13.00,0.00,29.75,M,10.00,M,CLR,M,M,M,M,M,M,M,M,M,M,M,M,M,M,38.61,KTMT 210015Z AUTO 27013KT 10SM CLR 07/M11 A2975 RMK AO2 T00741110,M
BVU,2023-03-21 00:35,-114.8611,35.9475,671.00,64.40,26.60,23.77,230.00,16.00,0.00,29.73,M,10.00,21.00,CLR,M,M,M,M,M,M,M,M,M,M,M,M,M,M,64.40,KBVU 210035Z AUTO 23016G21KT 10SM CLR 18/M03 A2973 RMK AO2,M
CXP,2023-03-21 00:35,-119.7326,39.1923,1431.00,48.20,17.60,29.23,280.00,12.00,0.00,29.77,M,10.00,18.00,CLR,M,M,M,M,M,M,M,M,M,M,M,M,M,M,42.62,KCXP 210035Z AUTO 28012G18KT 10SM CLR 09/M08 A2977 RMK AO2,M
RTS,2023-03-21 00:35,-119.8764,39.6682,1539.00,44.60,14.00,28.64,270.00,13.00,0.00,29.77,M,10.00,M,CLR,M,M,M,M,M,M,M,M,M,M,M,M,M,M,37.71,KRTS 210035Z AUTO 27013KT 10SM CLR 07/M10 A2977 RMK AO2,M
05U,2023-03-21 00:35,-116.0051,39.6042,1811.23,44.60,10.40,24.42,270.00,12.00,0.00,29.75,M,10.00,18.00,CLR,M,M,M,M,M,M,M,M,M,M,M,M,M,M,38.04,K05U 210035Z AUTO 27012G18KT 10SM CLR 07/M12 A2975 RMK A01,M
MEV,2023-03-21 00:35,-119.7500,38.9963,1441.42,48.20,15.80,27.04,270.00,12.00,0.00,29.75,M,10.00,21.00,CLR,M,M,M,M,M,M,M,M,M,M,M,M,M,M,42.62,KMEV 210035Z AUTO 27012G21KT 10SM CLR 09/M09 A2975 RMK AO2,M
BAM,2023-03-21 00:35,-116.8743,40.5990,1382.36,46.40,23.00,39.36,290.00,22.00,0.00,29.74,M,10.00,29.00,CLR,M,M,M,M,M,M,M,M,M,M,M,M,M,M,37.86,KBAM 210035Z AUTO 29022G29KT 10SM CLR 08/M05 A2974 RMK AO1,M
HTH,2023-03-21 00:35,-118.6315,38.5448,1282.89,55.40,8.60,15.08,280.00,9.00,0.00,29.73,M,10.00,M,FEW,M,M,M,10000.00,M,M,M,M,M,M,M,M,M,M,55.40,KHTH 210035Z AUTO 28009KT 10SM FEW100 13/M13 A2973 RMK A01,M
TMT,2023-03-21 00:35,-117.1971,39.4643,1749.34,44.60,12.70,27.04,280.00,12.00,0.00,29.74,M,10.00,18.00,CLR,M,M,M,M,M,M,M,M,M,M,M,M,M,M,38.04,KTMT 210035Z AUTO 28012G18KT 10SM CLR 07/M11 A2974 RMK AO2 T00701107,M
P68,2023-03-21 00:53,-116.0056,39.6014,1993.00,43.00,10.90,26.55,270.00,11.00,0.00,29.72,1004.50,M,26.00,M,M,M,M,M,M,M,M,M,M,M,M,26.00,280.00,2023-03-21 00:43,36.37,KP68 210053Z AUTO 27011G26KT 06/M12 A2972 RMK AO1 PK WND 28026/0043 SLP045 T00611117,M
DRA,2023-03-21 00:53,-116.0278,36.6206,1009.00,59.00,27.00,29.25,180.00,11.00,0.00,29.72,1004.50,10.00,M,CLR,M,M,M,M,M,M,M,M,M,M,M,M,M,M,59.00,KDRA 210053Z AUTO 18011KT 10SM CLR 15/M03 A2972 RMK AO2 SLP045 T01501028,M
VGT,2023-03-21 00:53,-115.1933,36.2111,667.00,66.00,28.90,24.71,240.00,14.00,0.00,29.71,1006.90,10.00,M,FEW,M,M,M,9500.00,M,M,M,M,M,M,M,M,M,M,66.00,KVGT 210053Z 24014KT 10SM FEW095 19/M02 A2971 RMK AO2 SLP069 T01891017,M
LOL,2023-03-21 00:53,-118.5701,40.0684,1192.43,50.00,19.90,30.16,320.00,11.00,0.00,29.72,1006.40,10.00,M,FEW,M,M,M,9000.00,M,M,M,M,M,M,M,M,M,M,50.00,KLOL 210053Z AUTO 32011KT 10SM FEW090 10/M07 A2972 RMK AO2 SLP064 T01001067,M
ELY,2023-03-21 00:53,-114.8453,39.2950,1909.00,42.00,18.00,37.49,290.00,8.00,0.00,29.72,1004.60,10.00,M,CLR,M,M,M,M,M,M,M,M,M,M,M,M,M,M,36.55,KELY 210053Z AUTO 29008KT 10SM CLR 06/M08 A2972 RMK AO2 SLP046 T00561078,M
BVU,2023-03-21 00:55,-114.8611,35.9475,671.00,64.40,26.60,23.77,240.00,13.00,0.00,29.73,M,10.00,19.00,CLR,M,M,M,M,M,M,M,M,M,M,M,M,M,M,64.40,KBVU 210055Z AUTO 24013G19KT 10SM CLR 18/M03 A2973 RMK AO2,M
CXP,2023-03-21 00:55,-119.7326,39.1923,1431.00,48.20,17.60,29.23,250.00,10.00,0.00,29.77,M,10.00,M,CLR,M,M,M,M,M,M,M,M,M,M,M,M,M,M,43.28,KCXP 210055Z AUTO 25010KT 10SM CLR 09/M08 A2977 RMK AO2,M
INS,2023-03-21 00:55,-115.6733,36.5872,955.00,56.70,31.30,37.87,20.00,11.00,0.00,29.72,1004.60,10.00,M,CLR,M,M,M,M,M,M,M,M,M,M,M,M,M,M,56.70,KINS 210055Z AUTO 02011KT 10SM CLR 14/M00 A2972 RMK AO2 SLP046 T01371004 $,M
LSV,2023-03-21 00:55,-115.0343,36.2362,570.00,67.30,32.20,27.01,200.00,8.00,0.00,29.69,1004.40,10.00,M,SCT,M,M,M,9000.00,M,M,M,M,M,M,M,M,M,M,67.30,KLSV 210055Z AUTO 20008KT 10SM SCT090 20/00 A2969 RMK AO2 SLP044 T01960001 $,M
RTS,2023-03-21 00:55,-119.8764,39.6682,1539.00,44.60,15.80,30.98,290.00,14.00,0.00,29.77,M,10.00,M,CLR,M,M,M,M,M,M,M,M,M,M,M,M,M,M,37.40,KRTS 210055Z AUTO 29014KT 10SM CLR 07/M09 A2977 RMK AO2,M
05U,2023-03-21 00:55,-116.0051,39.6042,1811.23,44.60,8.60,22.53,280.00,9.00,0.00,29.74,M,10.00,19.00,CLR,M,M,M,M,M,M,M,M,M,M,M,M,M,M,39.18,K05U 210055Z AUTO 28009G19KT 10SM CLR 07/M13 A2974 RMK A01,M
MEV,2023-03-21 00:55,-119.7500,38.9963,1441.42,46.40,19.40,33.79,280.00,13.00,0.00,29.76,M,10.00,20.00,CLR,M,M,M,M,M,M,M,M,M,M,M,M,M,M,40.02,KMEV 210055Z AUTO 28013G20KT 10SM CLR 08/M07 A2976 RMK AO2,M
BAM,2023-03-21 00:55,-116.8743,40.5990,1382.36,44.60,24.80,45.44,300.00,16.00,0.00,29.74,M,10.00,23.00,SCT,BKN,BKN,M,7500.00,8500.00,11000.00,M,M,M,M,M,M,M,M,36.84,KBAM 210055Z AUTO 30016G23KT 10SM SCT075 BKN085 BKN110 07/M04 A2974 RMK AO1,M
HTH,2023-03-21 00:55,-118.6315,38.5448,1282.89,53.60,10.40,17.45,280.00,7.00,0.00,29.73,M,10.00,M,CLR,M,M,M,M,M,M,M,M,M,M,M,M,M,M,53.60,KHTH 210055Z AUTO 28007KT 10SM CLR 12/M12 A2973 RMK A01,M
RNO,2023-03-21 00:55,-119.7711,39.4839,1341.00,51.00,12.90,21.37,290.00,16.00,0.00,29.75,1005.80,10.00,M,FEW,BKN,M,M,6000.00,15000.00,M,M,M,M,M,M,M,M,M,51.10,KRNO 210055Z 29016KT 10SM FEW060 BKN150 11/M11 A2975 RMK AO2 SLP058 ACSL DSNT E THRU S T01061106,M
TMT,2023-03-21 00:55,-117.1971,39.4643,1749.34,44.00,10.80,25.53,280.00,13.00,0.00,29.74,M,10.00,17.00,CLR,M,M,M,M,M,M,M,M,M,M,M,M,M,M,36.81,KTMT 210055Z AUTO 28013G17KT 10SM CLR 07/M12 A2974 RMK AO2 T00661118,M
EKO,2023-03-21 00:56,-115.7860,40.8242,1367.00,37.00,28.00,69.63,260.00,12.00,0.00,29.74,1007.60,10.00,18.00,FEW,BKN,OVC,M,3100.00,4100.00,6500.00,M,M,M,M,M,M,M,M,28.37,KEKO 210056Z AUTO 26012G18KT 10SM FEW031 BKN041 OVC065 03/M02 A2974 RMK AO2 SLP076 T00281022,M
WMC,2023-03-21 00:56,-117.8072,40.9019,1315.00,46.00,18.00,32.30,320.00,9.00,0.00,29.74,1006.40,10.00,M,CLR,M,M,M,M,M,M,M,M,M,M,M,M,M,M,40.92,KWMC 210056Z AUTO 32009KT 10SM CLR 08/M08 A2974 RMK AO2 SLP064 T00781078,M
NFL,2023-03-21 00:56,-118.7010,39.4166,1199.00,53.00,1.00,11.57,280.00,16.00,0.00,29.72,1004.60,10.00,23.00,FEW,SCT,BKN,M,5000.00,15000.00,20000.00,M,M,M,M,M,M,M,M,53.10,KNFL 210056Z 28016G23KT 10SM FEW050 SCT150 BKN200 12/M17 A2972 RMK AO2 SLP046 T01171172,M
HND,2023-03-21 00:56,-115.1344,35.9729,742.79,63.00,30.90,29.77,230.00,14.00,0.00,29.75,1008.10,10.00,M,CLR,M,M,M,M,M,M,M,M,M,M,M,M,M,M,63.00,KHND 210056Z 23014KT 10SM CLR 17/M01 A2975 RMK AO2 SLP081 T01721006,M
LAS,2023-03-21 00:56,-115.1634,36.0719,663.00,64.00,30.00,27.71,230.00,11.00,0.00,29.72,1005.30,10.00,20.00,FEW,FEW,SCT,M,7000.00,15000.00,22000.00,M,M,M,M,M,M,M,M,64.00,KLAS 210056Z 23011G20KT 10SM FEW070 FEW150 SCT220 18/M01 A2972 RMK AO2 SLP053 VCSH NW-NE T01781011,M
TPH,2023-03-21 00:56,-117.0904,38.0505,1654.00,52.00,-3.00,10.03,300.00,9.00,0.00,29.72,1004.10,10.00,16.00,CLR,M,M,M,M,M,M,M,M,M,M,M,M,M,M,52.00,KTPH 210056Z AUTO 30009G16KT 10SM CLR 11/M19 A2972 RMK AO2 SLP041 T01111194,M
BVU,2023-03-21 01:15,-114.8611,35.9475,671.00,64.40,26.60,23.77,240.00,12.00,0.00,29.73,M,10.00,M,CLR,M,M,M,M,M,M,M,M,M,M,M,M,M,M,64.40,KBVU 210115Z AUTO 24012KT 10SM CLR 18/M03 A2973 RMK AO2,M
CXP,2023-03-21 01:15,-119.7326,39.1923,1431.00,46.40,19.40,33.79,260.00,7.00,0.00,29.78,M,10.00,14.00,CLR,M,M,M,M,M,M,M,M,M,M,M,M,M,M,42.33,KCXP 210115Z AUTO 26007G14KT 230V290 10SM CLR 08/M07 A2978 RMK AO2,M
RTS,2023-03-21 01:15,-119.8764,39.6682,1539.00,44.60,14.00,28.64,290.00,11.00,0.00,29.78,M,10.00,17.00,CLR,M,M,M,M,M,M,M,M,M,M,M,M,M,M,38.39,KRTS 210115Z AUTO 29011G17KT 10SM CLR 07/M10 A2978 RMK AO2,M
05U,2023-03-21 01:15,-116.0051,39.6042,1811.23,42.80,8.60,24.14,270.00,8.00,0.00,29.74,M,10.00,15.00,CLR,M,M,M,M,M,M,M,M,M,M,M,M,M,M,37.42,K05U 210115Z AUTO 27008G15KT 10SM CLR 06/M13 A2974 RMK A01,M
MEV,2023-03-21 01:15,-119.7500,38.9963,1441.42,46.40,19.40,33.79,280.00,12.00,0.00,29.76,M,10.00,M,SCT,M,M,M,8000.00,M,M,M,M,M,M,M,M,M,M,40.33,KMEV 210115Z AUTO 28012KT 10SM SCT080 08/M07 A2976 RMK AO2,M
BAM,2023-03-21 01:15,-116.8743,40.5990,1382.36,44.60,23.00,42.14,300.00,11.00,0.00,29.74,M,10.00,M,SCT,BKN,OVC,M,4100.00,7500.00,11000.00,M,M,M,M,M,M,M,M,38.39,KBAM 210115Z AUTO 30011KT 10SM SCT041 BKN075 OVC110 07/M05 A2974 RMK AO1,M
HTH,2023-03-21 01:15,-118.6315,38.5448,1282.89,53.60,10.40,17.45,270.00,5.00,0.00,29.73,M,10.00,M,CLR,M,M,M,M,M,M,M,M,M,M,M,M,M,M,53.60,KHTH 210115Z AUTO 27005KT 10SM CLR 12/M12 A2973 RMK A01,M
TMT,2023-03-21 01:15,-117.1971,39.4643,1749.34,43.20,12.60,28.41,290.00,11.00,0.00,29.74,M,10.00,M,CLR,M,M,M,M,M,M,M,M,M,M,M,M,M,M,36.62,KTMT 210115Z AUTO 29011KT 10SM CLR 06/M11 A2974 RMK AO2 T00621108,M
BVU,2023-03-21 01:35,-114.8611,35.9475,671.00,62.60,26.60,25.32,240.00,11.00,0.00,29.73,M,10.00,M,CLR,M,M,M,M,M,M,M,M,M,M,M,M,M,M,62.60,KBVU 210135Z AUTO 24011KT 10SM CLR 17/M03 A2973 RMK AO2,M
CXP,2023-03-21 01:35,-119.7326,39.1923,1431.00,44.60,19.40,36.18,250.00,6.00,0.00,29.78,M,10.00,13.00,CLR,M,M,M,M,M,M,M,M,M,M,M,M,M,M,40.71,KCXP 210135Z AUTO 25006G13KT 10SM CLR 07/M07 A2978 RMK AO2,M
RTS,2023-03-21 01:35,-119.8764,39.6682,1539.00,42.80,15.80,33.18,270.00,11.00,0.00,29.77,M,10.00,16.00,CLR,M,M,M,M,M,M,M,M,M,M,M,M,M,M,36.11,KRTS 210135Z AUTO 27011G16KT 10SM CLR 06/M09 A2977 RMK AO2,M
05U,2023-03-21 01:35,-116.0051,39.6042,1811.23,41.00,6.80,23.85,280.00,9.00,0.00,29.74,M,10.00,M,CLR,M,M,M,M,M,M,M,M,M,M,M,M,M,M,34.70,K05U 210135Z AUTO 28009KT 10SM CLR 05/M14 A2974 RMK A01,M
MEV,2023-03-21 01:35,-119.7500,38.9963,1441.42,46.40,21.20,36.48,300.00,9.00,0.00,29.75,M,10.00,15.00,SCT,M,M,M,8000.00,M,M,M,M,M,M,M,M,M,M,41.42,KMEV 210135Z AUTO 30009G15KT 10SM SCT080 08/M06 A2975 RMK AO2,M
BAM,2023-03-21 01:35,-116.8743,40.5990,1382.36,44.60,23.00,42.14,320.00,10.00,0.00,29.74,M,10.00,M,SCT,M,M,M,11000.00,M,M,M,M,M,M,M,M,M,M,38.77,KBAM 210135Z AUTO 32010KT 10SM SCT110 07/M05 A2974 RMK AO1,M
HTH,2023-03-21 01:35,-118.6315,38.5448,1282.89,51.80,10.40,18.64,310.00,6.00,0.00,29.73,M,10.00,M,CLR,M,M,M,M,M,M,M,M,M,M,M,M,M,M,51.80,KHTH 210135Z AUTO 31006KT 10SM CLR 11/M12 A2973 RMK A01,M
TMT,2023-03-21 01:35,-117.1971,39.4643,1749.34,41.70,11.30,28.41,290.00,11.00,0.00,29.74,M,10.00,17.00,CLR,M,M,M,M,M,M,M,M,M,M,M,M,M,M,34.72,KTMT 210135Z AUTO 29011G17KT 10SM CLR 05/M11 A2974 RMK AO2 T00541115,M
P68,2023-03-21 01:53,-116.0056,39.6014,1993.00,39.00,12.00,32.54,290.00,8.00,0.00,29.72,1004.80,M,M,M,M,M,M,M,M,M,M,M,M,M,M,M,M,M,32.74,KP68 210153Z AUTO 29008KT 04/M11 A2972 RMK AO1 SLP048 T00391111,M
DRA,2023-03-21 01:53,-116.0278,36.6206,1009.00,55.00,30.00,38.21,20.00,9.00,0.00,29.72,1004.50,10.00,M,SCT,M,M,M,7000.00,M,M,M,M,M,M,M,M,M,M,55.00,KDRA 210153Z AUTO 02009KT 10SM SCT070 13/M01 A2972 RMK AO2 SLP045 T01281011,M
ELY,2023-03-21 01:53,-114.8453,39.2950,1909.00,34.00,18.00,51.52,270.00,3.00,0.00,29.73,1006.10,10.00,M,CLR,M,M,M,M,M,M,M,M,M,M,M,M,M,M,30.97,KELY 210153Z AUTO 27003KT 10SM CLR 01/M08 A2973 RMK AO2 SLP061 T00111078,M
VGT,2023-03-21 01:53,-115.1933,36.2111,667.00,64.00,28.90,26.50,220.00,5.00,0.00,29.71,1007.00,10.00,M,CLR,M,M,M,M,M,M,M,M,M,M,M,M,M,M,64.00,KVGT 210153Z 22005KT 10SM CLR 18/M02 A2971 RMK AO2 SLP070 T01781017,M
LOL,2023-03-21 01:53,-118.5701,40.0684,1192.43,48.00,16.00,27.48,320.00,8.00,0.00,29.73,1007.00,10.00,M,CLR,M,M,M,M,M,M,M,M,M,M,M,M,M,M,43.82,KLOL 210153Z AUTO 32008KT 10SM CLR 09/M09 A2973 RMK AO2 SLP070 T00891089,M
BVU,2023-03-21 01:55,-114.8611,35.9475,671.00,62.60,26.60,25.32,240.00,8.00,0.00,29.73,M,10.00,15.00,SCT,M,M,M,10000.00,M,M,M,M,M,M,M,M,M,M,62.60,KBVU 210155Z AUTO 24008G15KT 10SM SCT100 17/M03 A2973 RMK AO2,M
CXP,2023-03-21 01:55,-119.7326,39.1923,1431.00,44.60,19.40,36.18,270.00,5.00,0.00,29.78,M,10.00,M,CLR,M,M,M,M,M,M,M,M,M,M,M,M,M,M,41.36,KCXP 210155Z AUTO 27005KT 10SM CLR 07/M07 A2978 RMK AO2,M
INS,2023-03-21 01:55,-115.6733,36.5872,955.00,55.00,31.80,41.10,30.00,11.00,0.00,29.73,1005.20,10.00,M,CLR,M,M,M,M,M,M,M,M,M,M,M,M,M,M,55.00,KINS 210155Z AUTO 03011KT 10SM CLR 13/M00 A2973 RMK AO2 SLP052 T01281001 $,M
RNO,2023-03-21 01:55,-119.7711,39.4839,1341.00,48.00,14.00,25.18,300.00,8.00,0.00,29.76,1006.30,10.00,M,FEW,SCT,M,M,6500.00,14000.00,M,M,M,M,M,M,M,M,M,43.82,KRNO 210155Z 30008KT 10SM FEW065 SCT140 09/M10 A2976 RMK AO2 SLP063 ACSL DSNT E THRU S T00891100,M
RTS,2023-03-21 01:55,-119.8764,39.6682,1539.00,41.00,17.60,38.45,290.00,10.00,0.00,29.77,M,10.00,M,CLR,M,M,M,M,M,M,M,M,M,M,M,M,M,M,34.25,KRTS 210155Z AUTO 29010KT 10SM CLR 05/M08 A2977 RMK AO2,M
05U,2023-03-21 01:55,-116.0051,39.6042,1811.23,39.20,10.40,30.07,300.00,4.00,0.00,29.74,M,10.00,11.00,CLR,M,M,M,M,M,M,M,M,M,M,M,M,M,M,35.83,K05U 210155Z AUTO 30004G11KT 10SM CLR 04/M12 A2974 RMK A01,M
MEV,2023-03-21 01:55,-119.7500,38.9963,1441.42,44.60,21.20,39.06,300.00,8.00,0.00,29.75,M,10.00,M,FEW,FEW,M,M,7000.00,9000.00,M,M,M,M,M,M,M,M,M,39.63,KMEV 210155Z AUTO 30008KT 10SM FEW070 FEW090 07/M06 A2975 RMK AO2,M
BAM,2023-03-21 01:55,-116.8743,40.5990,1382.36,42.80,24.80,48.67,330.00,11.00,0.00,29.75,M,10.00,16.00,CLR,M,M,M,M,M,M,M,M,M,M,M,M,M,M,36.11,KBAM 210155Z AUTO 33011G16KT 10SM CLR 06/M04 A2975 RMK AO1,M
HTH,2023-03-21 01:55,-118.6315,38.5448,1282.89,51.80,10.40,18.64,320.00,7.00,0.00,29.73,M,10.00,M,CLR,M,M,M,M,M,M,M,M,M,M,M,M,M,M,51.80,KHTH 210155Z AUTO 32007KT 10SM CLR 11/M12 A2973 RMK A01,M
TMT,2023-03-21 01:55,-117.1971,39.4643,1749.34,39.40,14.20,35.30,290.00,9.00,0.00,29.75,M,10.00,M,CLR,M,M,M,M,M,M,M,M,M,M,M,M,M,M,32.72,KTMT 210155Z AUTO 29009KT 10SM CLR 04/M10 A2975 RMK AO2 T00411099,M
LSV,2023-03-21 01:55,-115.0343,36.2362,570.00,60.00,37.40,43.07,50.00,10.00,0.00,29.70,1005.00,10.00,M,BKN,M,M,M,10000.00,M,M,M,M,M,M,M,27.00,50.00,2023-03-21 01:22,59.90,KLSV 210155Z AUTO 05010KT 10SM BKN100 16/03 A2970 RMK AO2 PK WND 05027/22 SLP050 T01550030 $,M
EKO,2023-03-21 01:56,-115.7860,40.8242,1367.00,36.00,27.00,69.51,170.00,6.00,0.00,29.73,1007.30,10.00,M,FEW,OVC,M,M,6500.00,8000.00,M,M,M,M,M,M,M,M,M,30.35,KEKO 210156Z AUTO 17006KT 10SM FEW065 OVC080 02/M03 A2973 RMK AO2 SLP073 T00221028,M
NFL,2023-03-21 01:56,-118.7010,39.4166,1199.00,51.00,8.10,17.26,290.00,12.00,0.00,29.73,1004.90,10.00,M,FEW,SCT,BKN,M,5000.00,15000.00,20000.00,M,M,M,M,M,M,M,M,51.10,KNFL 210156Z 29012KT 10SM FEW050 SCT150 BKN200 11/M13 A2973 RMK AO2 SLP049 T01061133,M
HND,2023-03-21 01:56,-115.1344,35.9729,742.79,60.00,28.90,30.41,220.00,9.00,0.00,29.74,1007.90,10.00,M,CLR,M,M,M,M,M,M,M,M,M,M,M,M,M,M,60.10,KHND 210156Z 22009KT 10SM CLR 16/M02 A2974 RMK AO2 SLP079 T01561017,M
WMC,2023-03-21 01:56,-117.8072,40.9019,1315.00,40.00,19.00,42.62,340.00,7.00,0.00,29.75,1007.20,10.00,M,CLR,M,M,M,M,M,M,M,M,M,M,M,M,M,M,34.41,KWMC 210156Z AUTO 34007KT 10SM CLR 04/M07 A2975 RMK AO2 SLP072 T00441072,M
LAS,2023-03-21 01:56,-115.1634,36.0719,663.00,62.00,28.90,28.33,220.00,9.00,0.00,29.71,1005.20,10.00,15.00,FEW,FEW,SCT,M,7000.00,15000.00,22000.00,M,M,M,M,M,M,M,M,62.10,KLAS 210156Z 22009G15KT 10SM FEW070 FEW150 SCT220 17/M02 A2971 RMK AO2 SLP052 T01671017,M
TPH,2023-03-21 01:56,-117.0904,38.0505,1654.00,47.00,-5.00,10.92,320.00,8.00,0.00,29.72,1004.80,10.00,M,CLR,M,M,M,M,M,M,M,M,M,M,M,M,M,M,42.47,KTPH 210156Z AUTO 32008KT 10SM CLR 08/M21 A2972 RMK AO2 SLP048 T00831206,M
BVU,2023-03-21 02:15,-114.8611,35.9475,671.00,60.80,24.80,25.04,220.00,8.00,0.00,29.72,M,10.00,M,BKN,M,M,M,10000.00,M,M,M,M,M,M,M,M,M,M,60.80,KBVU 210215Z AUTO 22008KT 10SM BKN100 16/M04 A2972 RMK AO2,M
CXP,2023-03-21 02:15,-119.7326,39.1923,1431.00,44.60,21.20,39.06,280.00,7.00,0.00,29.77,M,10.00,M,SCT,M,M,M,12000.00,M,M,M,M,M,M,M,M,M,M,40.14,KCXP 210215Z AUTO 28007KT 10SM SCT120 07/M06 A2977 RMK AO2,M
RTS,2023-03-21 02:15,-119.8764,39.6682,1539.00,39.20,19.40,44.55,310.00,6.00,0.00,29.77,M,10.00,M,CLR,M,M,M,M,M,M,M,M,M,M,M,M,M,M,34.20,KRTS 210215Z AUTO 31006KT 10SM CLR 04/M07 A2977 RMK AO2,M
05U,2023-03-21 02:15,-116.0051,39.6042,1811.23,37.40,10.40,32.27,290.00,7.00,0.00,29.75,M,10.00,13.00,CLR,M,M,M,M,M,M,M,M,M,M,M,M,M,M,31.36,K05U 210215Z AUTO 29007G13KT 10SM CLR 03/M12 A2975 RMK A01,M
MEV,2023-03-21 02:15,-119.7500,38.9963,1441.42,42.80,21.20,41.84,300.00,9.00,0.00,29.76,M,10.00,M,CLR,M,M,M,M,M,M,M,M,M,M,M,M,M,M,36.94,KMEV 210215Z AUTO 30009KT 10SM CLR 06/M06 A2976 RMK AO2,M
BAM,2023-03-21 02:15,-116.8743,40.5990,1382.36,41.00,26.60,56.22,330.00,8.00,0.00,29.76,M,10.00,M,CLR,M,M,M,M,M,M,M,M,M,M,M,M,M,M,35.20,KBAM 210215Z AUTO 33008KT 10SM CLR 05/M03 A2976 RMK AO1,M
HTH,2023-03-21 02:15,-118.6315,38.5448,1282.89,50.00,14.00,23.37,320.00,7.00,0.00,29.73,M,10.00,M,CLR,M,M,M,M,M,M,M,M,M,M,M,M,M,M,50.00,KHTH 210215Z AUTO 32007KT 10SM CLR 10/M10 A2973 RMK A01,M
TMT,2023-03-21 02:15,-117.1971,39.4643,1749.34,36.70,16.20,42.82,270.00,6.00,0.00,29.75,M,10.00,M,CLR,M,M,M,M,M,M,M,M,M,M,M,M,M,M,31.19,KTMT 210215Z AUTO 27006KT 10SM CLR 03/M09 A2975 RMK AO2 T00261088,M
BVU,2023-03-21 02:35,-114.8611,35.9475,671.00,60.80,24.80,25.04,210.00,7.00,0.00,29.73,M,10.00,M,SCT,BKN,M,M,10000.00,11000.00,M,M,M,M,M,M,M,M,M,60.80,KBVU 210235Z AUTO 21007KT 10SM SCT100 BKN110 16/M04 A2973 RMK AO2,M
CXP,2023-03-21 02:35,-119.7326,39.1923,1431.00,44.60,21.20,39.06,260.00,10.00,0.00,29.77,M,10.00,M,BKN,M,M,M,12000.00,M,M,M,M,M,M,M,M,M,M,38.77,KCXP 210235Z AUTO 26010KT 10SM BKN120 07/M06 A2977 RMK AO2,M
RTS,2023-03-21 02:35,-119.8764,39.6682,1539.00,37.40,19.40,47.80,300.00,7.00,0.00,29.77,M,10.00,M,CLR,M,M,M,M,M,M,M,M,M,M,M,M,M,M,31.36,KRTS 210235Z AUTO 30007KT 10SM CLR 03/M07 A2977 RMK AO2,M
05U,2023-03-21 02:35,-116.0051,39.6042,1811.23,35.60,14.00,40.63,300.00,5.00,0.00,29.75,M,10.00,M,CLR,M,M,M,M,M,M,M,M,M,M,M,M,M,M,30.67,K05U 210235Z AUTO 30005KT 10SM CLR 02/M10 A2975 RMK A01,M
MEV,2023-03-21 02:35,-119.7500,38.9963,1441.42,42.80,23.00,45.14,290.00,8.00,0.00,29.76,M,10.00,M,CLR,M,M,M,M,M,M,M,M,M,M,M,M,M,M,37.42,KMEV 210235Z AUTO 29008KT 10SM CLR 06/M05 A2976 RMK AO2,M
BAM,2023-03-21 02:35,-116.8743,40.5990,1382.36,41.00,26.60,56.22,330.00,5.00,0.00,29.76,M,10.00,M,CLR,M,M,M,M,M,M,M,M,M,M,M,M,M,M,37.08,KBAM 210235Z AUTO 33005KT 10SM CLR 05/M03 A2976 RMK AO1,M
HTH,2023-03-21 02:35,-118.6315,38.5448,1282.89,50.00,15.80,25.28,230.00,5.00,0.00,29.73,M,10.00,M,CLR,M,M,M,M,M,M,M,M,M,M,M,M,M,M,50.00,KHTH 210235Z AUTO 23005KT 10SM CLR 10/M09 A2973 RMK A01,M
TMT,2023-03-21 02:35,-117.1971,39.4643,1749.34,33.80,19.60,55.61,270.00,4.00,0.00,29.76,M,10.00,M,CLR,M,M,M,M,M,M,M,M,M,M,M,M,M,M,29.52,KTMT 210235Z AUTO 27004KT 10SM CLR 01/M07 A2976 RMK AO2 T00101069,M
P68,2023-03-21 02:53,-116.0056,39.6014,1993.00,34.00,19.00,53.77,20.00,5.00,0.00,29.74,1006.30,M,M,M,M,M,M,M,M,M,M,M,M,M,M,M,M,M,28.77,KP68 210253Z AUTO 02005KT 01/M07 A2974 RMK AO1 SLP063 T00111072 53000,M
DRA,2023-03-21 02:53,-116.0278,36.6206,1009.00,51.00,34.00,51.81,30.00,12.00,0.00,29.73,1004.90,10.00,M,BKN,M,M,M,8000.00,M,M,M,M,M,M,M,M,M,M,51.10,KDRA 210253Z AUTO 03012KT 10SM BKN080 11/01 A2973 RMK AO2 SLP049 T01060011 55003,M
ELY,2023-03-21 02:53,-114.8453,39.2950,1909.00,28.90,19.00,66.08,0.00,0.00,0.00,29.75,1006.80,10.00,M,CLR,M,M,M,M,M,M,M,M,M,M,M,M,M,M,28.90,KELY 210253Z AUTO 00000KT 10SM CLR M02/M07 A2975 RMK AO2 SLP068 T10171072 53004 $,M
VGT,2023-03-21 02:53,-115.1933,36.2111,667.00,59.00,36.00,42.08,80.00,13.00,0.00,29.72,1007.60,10.00,M,FEW,M,M,M,8000.00,M,M,M,M,M,M,M,M,M,M,59.00,KVGT 210253Z AUTO 08013KT 10SM FEW080 15/02 A2972 RMK AO2 SLP076 T01500022 53003,M
LOL,2023-03-21 02:53,-118.5701,40.0684,1192.43,43.00,23.00,44.80,340.00,8.00,0.00,29.75,1007.70,10.00,M,CLR,M,M,M,M,M,M,M,M,M,M,M,M,M,M,37.66,KLOL 210253Z AUTO 34008KT 10SM CLR 06/M05 A2975 RMK AO2 SLP077 T00611050 53006,M
BVU,2023-03-21 02:55,-114.8611,35.9475,671.00,59.00,26.60,28.77,240.00,4.00,0.00,29.73,M,10.00,M,OVC,M,M,M,10000.00,M,M,M,M,M,M,M,M,M,M,59.00,KBVU 210255Z AUTO 24004KT 10SM OVC100 15/M03 A2973 RMK AO2,M
CXP,2023-03-21 02:55,-119.7326,39.1923,1431.00,42.80,21.20,41.84,280.00,5.00,0.00,29.77,M,10.00,M,BKN,M,M,M,11000.00,M,M,M,M,M,M,M,M,M,M,39.22,KCXP 210255Z AUTO 28005KT 10SM BKN110 06/M06 A2977 RMK AO2,M
RNO,2023-03-21 02:55,-119.7711,39.4839,1341.00,45.00,18.00,33.55,290.00,9.00,0.00,29.76,1006.60,10.00,M,FEW,SCT,M,M,6000.00,14000.00,M,M,M,M,M,M,M,M,M,39.68,KRNO 210255Z 29009KT 10SM FEW060 SCT140 07/M08 A2976 RMK AO2 SLP066 T00721078 55002,M
RTS,2023-03-21 02:55,-119.8764,39.6682,1539.00,33.80,19.40,55.14,230.00,5.00,0.00,29.77,M,10.00,M,CLR,M,M,M,M,M,M,M,M,M,M,M,M,M,M,28.53,KRTS 210255Z AUTO 23005KT 10SM CLR 01/M07 A2977 RMK AO2,M
05U,2023-03-21 02:55,-116.0051,39.6042,1811.23,33.80,19.40,55.14,40.00,4.00,0.00,29.77,M,10.00,M,CLR,M,M,M,M,M,M,M,M,M,M,M,M,M,M,29.52,K05U 210255Z AUTO 04004KT 10SM CLR 01/M07 A2977 RMK A01,M
MEV,2023-03-21 02:55,-119.7500,38.9963,1441.42,41.00,23.00,48.39,270.00,7.00,0.00,29.76,M,10.00,M,FEW,M,M,M,12000.00,M,M,M,M,M,M,M,M,M,M,35.75,KMEV 210255Z AUTO 27007KT 10SM FEW120 05/M05 A2976 RMK AO2,M
BAM,2023-03-21 02:55,-116.8743,40.5990,1382.36,37.40,24.80,60.04,340.00,4.00,0.00,29.76,M,10.00,M,CLR,M,M,M,M,M,M,M,M,M,M,M,M,M,M,33.73,KBAM 210255Z AUTO 34004KT 10SM CLR 03/M04 A2976 RMK AO1,M
HTH,2023-03-21 02:55,-118.6315,38.5448,1282.89,50.00,15.80,25.28,240.00,6.00,0.00,29.75,M,10.00,M,CLR,M,M,M,M,M,M,M,M,M,M,M,M,M,M,50.00,KHTH 210255Z AUTO 24006KT 10SM CLR 10/M09 A2975 RMK A01,M
INS,2023-03-21 02:55,-115.6733,36.5872,955.00,50.20,33.30,52.09,20.00,15.00,0.00,29.73,1005.40,10.00,M,CLR,M,M,M,M,M,M,M,M,M,M,M,29.00,30.00,2023-03-21 02:01,50.20,KINS 210255Z AUTO 02015KT 10SM CLR 10/01 A2973 RMK AO2 PK WND 03029/01 SLP054 T01010007 53000 $,M
LSV,2023-03-21 02:55,-115.0343,36.2362,570.00,57.40,37.40,47.10,60.00,10.00,0.00,29.71,1005.50,10.00,M,CLR,M,M,M,M,M,M,M,M,M,M,M,M,M,M,57.40,KLSV 210255Z AUTO 06010KT 10SM CLR 14/03 A2971 RMK AO2 SLP055 T01410030 52007 $,M
TMT,2023-03-21 02:55,-117.1971,39.4643,1749.34,33.00,19.40,57.17,290.00,4.00,0.00,29.77,M,10.00,M,CLR,M,M,M,M,M,M,M,M,M,M,M,M,M,M,28.47,KTMT 210255Z AUTO 29004KT 10SM CLR 01/M07 A2977 RMK AO2 T00051070,M
EKO,2023-03-21 02:56,-115.7860,40.8242,1367.00,36.00,28.00,72.43,290.00,5.00,0.00,29.74,1007.90,10.00,M,OVC,M,M,M,7000.00,M,M,M,M,M,M,M,M,M,M,31.15,KEKO 210256Z AUTO 29005KT 10SM OVC070 02/M02 A2974 RMK AO2 SLP079 T00221022 53002,M
NFL,2023-03-21 02:56,-118.7010,39.4166,1199.00,46.00,15.10,28.49,310.00,5.00,0.00,29.74,1005.20,10.00,M,FEW,SCT,BKN,M,5000.00,15000.00,20000.00,M,M,M,M,M,M,M,M,43.02,KNFL 210256Z 31005KT 10SM FEW050 SCT150 BKN200 08/M09 A2974 RMK AO2 SLP052 T00781094 53004,M
TPH,2023-03-21 02:56,-117.0904,38.0505,1654.00,44.00,7.00,21.36,10.00,8.00,0.00,29.73,1005.50,10.00,M,FEW,M,M,M,11000.00,M,M,M,M,M,M,M,M,M,M,39.02,KTPH 210256Z AUTO 01008KT 10SM FEW110 07/M14 A2973 RMK AO2 SLP055 T00671139 53002,M
LAS,2023-03-21 02:56,-115.1634,36.0719,663.00,61.00,28.90,29.45,190.00,5.00,0.00,29.73,1005.60,10.00,M,FEW,FEW,SCT,M,7000.00,15000.00,22000.00,M,M,M,M,M,M,M,M,61.00,KLAS 210256Z 19005KT 10SM FEW070 FEW150 SCT220 16/M02 A2973 RMK AO2 SLP056 T01611017 53000,M
WMC,2023-03-21 02:56,-117.8072,40.9019,1315.00,35.00,21.00,56.05,20.00,3.00,0.00,29.76,1008.00,10.00,M,CLR,M,M,M,M,M,M,M,M,M,M,M,M,M,M,32.23,KWMC 210256Z AUTO 02003KT 10SM CLR 02/M06 A2976 RMK AO2 SLP080 T00171061 53006,M
HND,2023-03-21 02:56,-115.1344,35.9729,742.79,58.00,30.00,34.41,180.00,9.00,0.00,29.75,1008.30,10.00,M,FEW,M,M,M,8500.00,M,M,M,M,M,M,M,M,M,M,57.90,KHND 210256Z 18009KT 10SM FEW085 14/M01 A2975 RMK AO2 SLP083 T01441011 55000,M
BVU,2023-03-21 03:15,-114.8611,35.9475,671.00,59.00,26.60,28.77,230.00,6.00,0.00,29.74,M,10.00,M,OVC,M,M,M,11000.00,M,M,M,M,M,M,M,M,M,M,59.00,KBVU 210315Z AUTO 23006KT 10SM OVC110 15/M03 A2974 RMK AO2,M
CXP,2023-03-21 03:15,-119.7326,39.1923,1431.00,42.80,21.20,41.84,350.00,4.00,0.00,29.77,M,10.00,M,SCT,M,M,M,11000.00,M,M,M,M,M,M,M,M,M,M,40.03,KCXP 210315Z AUTO 35004KT 10SM SCT110 06/M06 A2977 RMK AO2,M
RTS,2023-03-21 03:15,-119.8764,39.6682,1539.00,35.60,19.40,51.33,20.00,6.00,0.00,29.77,M,10.00,M,CLR,M,M,M,M,M,M,M,M,M,M,M,M,M,M,29.87,KRTS 210315Z AUTO 02006KT 10SM CLR 02/M07 A2977 RMK AO2,M
05U,2023-03-21 03:15,-116.0051,39.6042,1811.23,32.00,21.20,63.99,M,M,0.00,29.78,M,10.00,M,CLR,M,M,M,M,M,M,M,M,M,M,M,M,M,M,M,K05U 210315Z AUTO 10SM CLR M00/M06 A2978 RMK A01,M
MEV,2023-03-21 03:15,-119.7500,38.9963,1441.42,39.20,24.80,55.95,M,4.00,0.00,29.76,M,10.00,M,FEW,BKN,M,M,8500.00,12000.00,M,M,M,M,M,M,M,M,M,35.83,KMEV 210315Z AUTO VRB04KT 10SM FEW085 BKN120 04/M04 A2976 RMK AO2,M
BAM,2023-03-21 03:15,-116.8743,40.5990,1382.36,35.60,24.80,64.46,0.00,0.00,0.00,29.78,M,10.00,M,CLR,M,M,M,M,M,M,M,M,M,M,M,M,M,M,35.60,KBAM 210315Z AUTO 00000KT 10SM CLR 02/M04 A2978 RMK AO1,M
HTH,2023-03-21 03:15,-118.6315,38.5448,1282.89,48.20,15.80,27.04,350.00,6.00,0.00,29.75,M,10.00,M,BKN,M,M,M,11000.00,M,M,M,M,M,M,M,M,M,M,45.04,KHTH 210315Z AUTO 35006KT 10SM BKN110 09/M09 A2975 RMK A01,M
TMT,2023-03-21 03:15,-117.1971,39.4643,1749.34,32.20,20.10,60.58,260.00,4.00,0.00,29.78,M,10.00,M,CLR,M,M,M,M,M,M,M,M,M,M,M,M,M,M,27.65,KTMT 210315Z AUTO 26004KT 10SM CLR 00/M07 A2978 RMK AO2 T00011066,M
BVU,2023-03-21 03:35,-114.8611,35.9475,671.00,59.00,24.80,26.70,190.00,3.00,0.00,29.75,M,10.00,M,OVC,M,M,M,10000.00,M,M,M,M,M,M,M,M,M,M,59.00,KBVU 210335Z AUTO 19003KT 10SM OVC100 15/M04 A2975 RMK AO2,M
CXP,2023-03-21 03:35,-119.7326,39.1923,1431.00,41.00,23.00,48.39,320.00,6.00,0.00,29.77,M,10.00,M,CLR,M,M,M,M,M,M,M,M,M,M,M,M,M,M,36.37,KCXP 210335Z AUTO 32006KT 10SM CLR 05/M05 A2977 RMK AO2,M
RTS,2023-03-21 03:35,-119.8764,39.6682,1539.00,35.60,21.20,55.41,350.00,5.00,0.00,29.77,M,10.00,M,CLR,M,M,M,M,M,M,M,M,M,M,M,M,M,M,30.67,KRTS 210335Z AUTO 35005KT 10SM CLR 02/M06 A2977 RMK AO2,M
05U,2023-03-21 03:35,-116.0051,39.6042,1811.23,30.20,23.00,74.26,0.00,0.00,0.00,29.78,M,10.00,M,CLR,M,M,M,M,M,M,M,M,M,M,M,M,M,M,30.20,K05U 210335Z AUTO 00000KT 10SM CLR M01/M05 A2978 RMK A01,M
MEV,2023-03-21 03:35,-119.7500,38.9963,1441.42,39.20,23.00,51.89,120.00,5.00,0.00,29.76,M,10.00,M,FEW,FEW,SCT,M,4600.00,5500.00,12000.00,M,M,M,M,M,M,M,M,34.95,KMEV 210335Z AUTO 12005KT 10SM FEW046 FEW055 SCT120 04/M05 A2976 RMK AO2,M
BAM,2023-03-21 03:35,-116.8743,40.5990,1382.36,35.60,24.80,64.46,0.00,0.00,0.00,29.79,M,10.00,M,CLR,M,M,M,M,M,M,M,M,M,M,M,M,M,M,35.60,KBAM 210335Z AUTO 00000KT 10SM CLR 02/M04 A2979 RMK AO1,M
HTH,2023-03-21 03:35,-118.6315,38.5448,1282.89,50.00,15.80,25.28,330.00,6.00,0.00,29.75,M,10.00,13.00,OVC,M,M,M,10000.00,M,M,M,M,M,M,M,M,M,M,50.00,KHTH 210335Z AUTO 33006G13KT 10SM OVC100 10/M09 A2975 RMK A01,M
TMT,2023-03-21 03:35,-117.1971,39.4643,1749.34,33.00,19.80,58.15,330.00,3.00,0.00,29.78,M,10.00,M,CLR,M,M,M,M,M,M,M,M,M,M,M,M,M,M,29.72,KTMT 210335Z AUTO 33003KT 10SM CLR 01/M07 A2978 RMK AO2 T00051068,M
P68,2023-03-21 03:53,-116.0056,39.6014,1993.00,30.00,24.10,78.40,280.00,6.00,0.00,29.76,1007.30,M,M,M,M,M,M,M,M,M,M,M,M,M,M,M,M,M,23.12,KP68 210353Z AUTO 28006KT M01/M04 A2976 RMK AO1 SLP073 T10111044,M
ELY,2023-03-21 03:53,-114.8453,39.2950,1909.00,26.10,19.00,74.16,180.00,7.00,0.00,29.76,1008.00,M,M,CLR,M,M,M,M,M,M,M,M,M,M,M,M,M,M,17.59,KELY 210353Z AUTO 18007KT CLR M03/M07 A2976 RMK AO2 SLP080 T10331072 $,M
LOL,2023-03-21 03:53,-118.5701,40.0684,1192.43,39.00,23.00,52.30,50.00,7.00,0.00,29.77,1008.20,10.00,M,CLR,M,M,M,M,M,M,M,M,M,M,M,M,M,M,33.31,KLOL 210353Z AUTO 05007KT 10SM CLR 04/M05 A2977 RMK AO2 SLP082 T00391050,M
VGT,2023-03-21 03:53,-115.1933,36.2111,667.00,56.00,37.00,48.95,80.00,10.00,0.00,29.73,1008.00,10.00,M,FEW,M,M,M,11000.00,M,M,M,M,M,M,M,M,M,M,55.90,KVGT 210353Z AUTO 08010KT 10SM FEW110 13/03 A2973 RMK AO2 SLP080 T01330028,M
DRA,2023-03-21 03:53,-116.0278,36.6206,1009.00,51.00,35.00,54.13,90.00,6.00,0.00,29.74,1005.30,10.00,M,FEW,BKN,OVC,M,7000.00,9000.00,11000.00,M,M,M,M,M,M,M,M,51.10,KDRA 210353Z AUTO 09006KT 10SM FEW070 BKN090 OVC110 11/02 A2974 RMK AO2 SLP053 T01060017,M
BVU,2023-03-21 03:55,-114.8611,35.9475,671.00,59.00,26.60,28.77,190.00,5.00,0.00,29.75,M,10.00,M,OVC,M,M,M,9500.00,M,M,M,M,M,M,M,M,M,M,59.00,KBVU 210355Z AUTO 19005KT 10SM OVC095 15/M03 A2975 RMK AO2,M
CXP,2023-03-21 03:55,-119.7326,39.1923,1431.00,41.00,23.00,48.39,360.00,5.00,0.00,29.77,M,10.00,M,CLR,M,M,M,M,M,M,M,M,M,M,M,M,M,M,37.08,KCXP 210355Z AUTO 36005KT 10SM CLR 05/M05 A2977 RMK AO2,M
INS,2023-03-21 03:55,-115.6733,36.5872,955.00,49.60,33.30,53.26,0.00,0.00,0.00,29.76,1006.20,10.00,M,CLR,M,M,M,M,M,M,M,M,M,M,M,M,M,M,49.60,KINS 210355Z AUTO 00000KT 10SM CLR 10/01 A2976 RMK AO2 SLP062 T00980007 $,M
RNO,2023-03-21 03:55,-119.7711,39.4839,1341.00,43.00,18.00,36.22,300.00,4.00,0.00,29.76,1006.40,10.00,M,SCT,M,M,M,14000.00,M,M,M,M,M,M,M,M,M,M,40.27,KRNO 210355Z 30004KT 10SM SCT140 06/M08 A2976 RMK AO2 SLP064 T00611078,M
RTS,2023-03-21 03:55,-119.8764,39.6682,1539.00,30.20,21.20,68.83,330.00,6.00,0.00,29.78,M,10.00,M,CLR,M,M,M,M,M,M,M,M,M,M,M,M,M,M,23.36,KRTS 210355Z AUTO 33006KT 10SM CLR M01/M06 A2978 RMK AO2,M
05U,2023-03-21 03:55,-116.0051,39.6042,1811.23,30.20,24.80,80.07,280.00,6.00,0.00,29.79,M,10.00,M,CLR,M,M,M,M,M,M,M,M,M,M,M,M,M,M,23.36,K05U 210355Z AUTO 28006KT 10SM CLR M01/M04 A2979 RMK A01,M
MEV,2023-03-21 03:55,-119.7500,38.9963,1441.42,35.60,23.00,59.79,140.00,7.00,0.00,29.75,M,10.00,M,FEW,FEW,FEW,M,3700.00,4200.00,4700.00,M,M,M,M,M,M,M,M,29.17,KMEV 210355Z AUTO 14007KT 10SM FEW037 FEW042 FEW047 02/M05 A2975 RMK AO2,M
BAM,2023-03-21 03:55,-116.8743,40.5990,1382.36,37.40,21.20,51.61,0.00,0.00,0.00,29.80,M,10.00,M,CLR,M,M,M,M,M,M,M,M,M,M,M,M,M,M,37.40,KBAM 210355Z AUTO 00000KT 10SM CLR 03/M06 A2980 RMK AO1,M
HTH,2023-03-21 03:55,-118.6315,38.5448,1282.89,48.20,15.80,27.04,240.00,3.00,0.00,29.75,M,10.00,12.00,FEW,OVC,M,M,8000.00,9000.00,M,M,M,M,M,M,M,M,M,47.21,KHTH 210355Z AUTO 24003G12KT 10SM FEW080 OVC090 09/M09 A2975 RMK A01,M
TMT,2023-03-21 03:55,-117.1971,39.4643,1749.34,29.30,23.00,77.03,170.00,4.00,0.00,29.79,M,10.00,M,CLR,M,M,M,M,M,M,M,M,M,M,M,M,M,M,24.27,KTMT 210355Z AUTO 17004KT 10SM CLR M01/M05 A2979 RMK AO2 T10151050,M
LSV,2023-03-21 03:55,-115.0343,36.2362,570.00,55.00,40.80,58.89,80.00,11.00,0.00,29.72,1005.80,10.00,M,CLR,M,M,M,M,M,M,M,M,M,M,M,M,M,M,54.90,KLSV 210355Z AUTO 08011KT 10SM CLR 13/05 A2972 RMK AO2 SLP058 T01270049 $,M
EKO,2023-03-21 03:56,-115.7860,40.8242,1367.00,34.00,28.00,78.43,310.00,4.00,0.00,29.77,1009.00,10.00,M,FEW,BKN,M,M,6500.00,8500.00,M,M,M,M,M,M,M,M,M,29.76,KEKO 210356Z AUTO 31004KT 10SM FEW065 BKN085 01/M02 A2977 RMK AO2 SLP090 T00111022,M
WMC,2023-03-21 03:56,-117.8072,40.9019,1315.00,30.90,19.00,60.92,210.00,4.00,0.00,29.79,1008.90,10.00,M,CLR,M,M,M,M,M,M,M,M,M,M,M,M,M,M,26.14,KWMC 210356Z AUTO 21004KT 10SM CLR M01/M07 A2979 RMK AO2 SLP089 T10061072,M
TPH,2023-03-21 03:56,-117.0904,38.0505,1654.00,39.00,8.10,27.34,100.00,4.00,0.00,29.75,1006.20,10.00,M,FEW,M,M,M,12000.00,M,M,M,M,M,M,M,M,M,M,35.59,KTPH 210356Z AUTO 10004KT 10SM FEW120 04/M13 A2975 RMK AO2 SLP062 T00391133,M
LAS,2023-03-21 03:56,-115.1634,36.0719,663.00,61.00,26.10,26.25,200.00,5.00,0.00,29.74,1006.10,10.00,M,FEW,SCT,BKN,M,7000.00,11000.00,20000.00,M,M,M,M,M,M,M,M,61.00,KLAS 210356Z 20005KT 10SM FEW070 SCT110 BKN200 16/M03 A2974 RMK AO2 SLP061 T01611033,M
NFL,2023-03-21 03:56,-118.7010,39.4166,1199.00,44.00,16.00,31.85,330.00,4.00,0.00,29.75,1005.40,10.00,M,FEW,SCT,M,M,15000.00,20000.00,M,M,M,M,M,M,M,M,M,41.55,KNFL 210356Z 33004KT 10SM FEW150 SCT200 07/M09 A2975 RMK AO2 SLP054 T00671089,M
HND,2023-03-21 03:56,-115.1344,35.9729,742.79,58.00,25.00,28.01,190.00,11.00,0.00,29.76,1008.70,10.00,M,SCT,M,M,M,10000.00,M,M,M,M,M,M,M,M,M,M,57.90,KHND 210356Z AUTO 19011KT 10SM SCT100 14/M04 A2976 RMK AO2 SLP087 T01441039,M
BVU,2023-03-21 04:15,-114.8611,35.9475,671.00,59.00,26.60,28.77,180.00,4.00,0.00,29.76,M,10.00,M,OVC,M,M,M,9000.00,M,M,M,M,M,M,M,M,M,M,59.00,KBVU 210415Z AUTO 18004KT 10SM OVC090 15/M03 A2976 RMK AO2,M
CXP,2023-03-21 04:15,-119.7326,39.1923,1431.00,39.20,24.80,55.95,0.00,0.00,0.00,29.77,M,10.00,M,CLR,M,M,M,M,M,M,M,M,M,M,M,M,M,M,39.20,KCXP 210415Z AUTO 00000KT 10SM CLR 04/M04 A2977 RMK AO2,M
RTS,2023-03-21 04:15,-119.8764,39.6682,1539.00,30.20,21.20,68.83,310.00,4.00,0.00,29.78,M,10.00,M,CLR,M,M,M,M,M,M,M,M,M,M,M,M,M,M,25.32,KRTS 210415Z AUTO 31004KT 10SM CLR M01/M06 A2978 RMK AO2,M
05U,2023-03-21 04:15,-116.0051,39.6042,1811.23,28.40,24.80,86.18,320.00,3.00,0.00,29.80,M,10.00,M,CLR,M,M,M,M,M,M,M,M,M,M,M,M,M,M,24.57,K05U 210415Z AUTO 32003KT 10SM CLR M02/M04 A2980 RMK A01,M
MEV,2023-03-21 04:15,-119.7500,38.9963,1441.42,35.60,23.00,59.79,160.00,3.00,0.00,29.75,M,10.00,M,FEW,SCT,M,M,4000.00,4700.00,M,M,M,M,M,M,M,M,M,32.80,KMEV 210415Z AUTO 16003KT 10SM FEW040 SCT047 02/M05 A2975 RMK AO2,M
BAM,2023-03-21 04:15,-116.8743,40.5990,1382.36,37.40,21.20,51.61,0.00,0.00,0.00,29.80,M,10.00,M,CLR,M,M,M,M,M,M,M,M,M,M,M,M,M,M,37.40,KBAM 210415Z AUTO 00000KT 10SM CLR 03/M06 A2980 RMK AO1,M
HTH,2023-03-21 04:15,-118.6315,38.5448,1282.89,48.20,19.40,31.57,0.00,0.00,0.00,29.76,M,10.00,M,FEW,OVC,M,M,8000.00,9000.00,M,M,M,M,M,M,M,M,M,48.20,KHTH 210415Z AUTO 00000KT 10SM FEW080 OVC090 09/M07 A2976 RMK A01,M
TMT,2023-03-21 04:15,-117.1971,39.4643,1749.34,30.00,23.40,76.14,0.00,0.00,0.00,29.78,M,10.00,M,CLR,M,M,M,M,M,M,M,M,M,M,M,M,M,M,30.00,KTMT 210415Z AUTO 00000KT 10SM CLR M01/M05 A2978 RMK AO2 T10111048,M
BVU,2023-03-21 04:35,-114.8611,35.9475,671.00,59.00,28.40,30.98,150.00,4.00,0.00,29.76,M,10.00,M,FEW,OVC,M,M,8000.00,9000.00,M,M,M,M,M,M,M,M,M,59.00,KBVU 210435Z AUTO 15004KT 10SM FEW080 OVC090 15/M02 A2976 RMK AO2,M
CXP,2023-03-21 04:35,-119.7326,39.1923,1431.00,39.20,23.00,51.89,0.00,0.00,0.00,29.77,M,10.00,M,CLR,M,M,M,M,M,M,M,M,M,M,M,M,M,M,39.20,KCXP 210435Z AUTO 00000KT 10SM CLR 04/M05 A2977 RMK AO2,M
RTS,2023-03-21 04:35,-119.8764,39.6682,1539.00,32.00,21.20,63.99,0.00,0.00,0.00,29.78,M,10.00,M,CLR,M,M,M,M,M,M,M,M,M,M,M,M,M,M,32.00,KRTS 210435Z AUTO 00000KT 10SM CLR M00/M06 A2978 RMK AO2,M
05U,2023-03-21 04:35,-116.0051,39.6042,1811.23,28.40,24.80,86.18,0.00,0.00,0.00,29.80,M,10.00,M,CLR,M,M,M,M,M,M,M,M,M,M,M,M,M,M,28.40,K05U 210435Z AUTO 00000KT 10SM CLR M02/M04 A2980 RMK A01,M
MEV,2023-03-21 04:35,-119.7500,38.9963,1441.42,35.60,26.60,69.46,0.00,0.00,0.00,29.76,M,10.00,M,FEW,M,M,M,4600.00,M,M,M,M,M,M,M,M,M,M,35.60,KMEV 210435Z AUTO 00000KT 10SM FEW046 02/M03 A2976 RMK AO2,M
BAM,2023-03-21 04:35,-116.8743,40.5990,1382.36,35.60,23.00,59.79,0.00,0.00,0.00,29.81,M,10.00,M,CLR,M,M,M,M,M,M,M,M,M,M,M,M,M,M,35.60,KBAM 210435Z AUTO 00000KT 10SM CLR 02/M05 A2981 RMK AO1,M
HTH,2023-03-21 04:35,-118.6315,38.5448,1282.89,46.40,21.20,36.48,310.00,6.00,0.00,29.76,M,10.00,M,SCT,OVC,M,M,7500.00,8500.00,M,M,M,M,M,M,M,M,M,42.87,KHTH 210435Z AUTO 31006KT 10SM SCT075 OVC085 08/M06 A2976 RMK A01,M
TMT,2023-03-21 04:35,-117.1971,39.4643,1749.34,27.50,23.70,85.40,160.00,4.00,0.00,29.78,M,10.00,M,CLR,M,M,M,M,M,M,M,M,M,M,M,M,M,M,22.17,KTMT 210435Z AUTO 16004KT 10SM CLR M02/M05 A2978 RMK AO2 T10251046,M
P68,2023-03-21 04:53,-116.0056,39.6014,1993.00,28.90,24.10,82.00,60.00,4.00,0.00,29.78,1007.70,M,M,M,M,M,M,M,M,M,M,M,M,M,M,M,M,M,23.80,KP68 210453Z AUTO 06004KT M02/M04 A2978 RMK AO1 SLP077 T10171044,M
DRA,2023-03-21 04:53,-116.0278,36.6206,1009.00,50.00,34.00,53.97,110.00,9.00,0.00,29.76,1005.70,10.00,M,BKN,OVC,M,M,7000.00,8000.00,M,M,M,M,M,M,M,M,M,50.00,KDRA 210453Z AUTO 11009KT 10SM BKN070 OVC080 10/01 A2976 RMK AO2 SLP057 T01000011,M
ELY,2023-03-21 04:53,-114.8453,39.2950,1909.00,25.00,18.00,74.36,180.00,9.00,0.00,29.77,1009.20,10.00,M,CLR,M,M,M,M,M,M,M,M,M,M,M,M,M,M,14.81,KELY 210453Z AUTO 18009KT 10SM CLR M04/M08 A2977 RMK AO2 SLP092 T10391078 $,M
LOL,2023-03-21 04:53,-118.5701,40.0684,1192.43,36.00,24.10,61.62,50.00,8.00,0.00,29.76,1008.00,10.00,M,CLR,M,M,M,M,M,M,M,M,M,M,M,M,M,M,29.04,KLOL 210453Z AUTO 05008KT 10SM CLR 02/M04 A2976 RMK AO2 SLP080 T00221044,M
VGT,2023-03-21 04:53,-115.1933,36.2111,667.00,55.00,38.00,52.40,120.00,4.00,0.00,29.76,1008.80,10.00,M,CLR,M,M,M,M,M,M,M,M,M,M,M,M,M,M,55.00,KVGT 210453Z AUTO 12004KT 10SM CLR 13/03 A2976 RMK AO2 SLP088 T01280033,M
BVU,2023-03-21 04:55,-114.8611,35.9475,671.00,59.00,28.40,30.98,0.00,0.00,0.00,29.76,M,10.00,M,OVC,M,M,M,9000.00,M,M,M,M,M,M,M,M,M,M,59.00,KBVU 210455Z AUTO 00000KT 10SM OVC090 15/M02 A2976 RMK AO2,M
CXP,2023-03-21 04:55,-119.7326,39.1923,1431.00,35.60,24.80,64.46,0.00,0.00,0.00,29.77,M,10.00,M,CLR,M,M,M,M,M,M,M,M,M,M,M,M,M,M,35.60,KCXP 210455Z AUTO 00000KT 10SM CLR 02/M04 A2977 RMK AO2,M
RNO,2023-03-21 04:55,-119.7711,39.4839,1341.00,41.00,19.90,42.44,300.00,4.00,0.00,29.77,1006.40,10.00,M,SCT,M,M,M,14000.00,M,M,M,M,M,M,M,M,M,M,37.93,KRNO 210455Z 30004KT 10SM SCT140 05/M07 A2977 RMK AO2 SLP064 T00501067,M
RTS,2023-03-21 04:55,-119.8764,39.6682,1539.00,30.20,21.20,68.83,M,3.00,0.00,29.77,M,10.00,M,CLR,M,M,M,M,M,M,M,M,M,M,M,M,M,M,26.63,KRTS 210455Z AUTO VRB03KT 10SM CLR M01/M06 A2977 RMK AO2,M
05U,2023-03-21 04:55,-116.0051,39.6042,1811.23,28.40,24.80,86.18,60.00,3.00,0.00,29.80,M,10.00,M,CLR,M,M,M,M,M,M,M,M,M,M,M,M,M,M,24.57,K05U 210455Z AUTO 06003KT 10SM CLR M02/M04 A2980 RMK A01,M
MEV,2023-03-21 04:55,-119.7500,38.9963,1441.42,33.80,24.80,69.25,70.00,6.00,0.00,29.75,M,10.00,M,CLR,M,M,M,M,M,M,M,M,M,M,M,M,M,M,27.70,KMEV 210455Z AUTO 07006KT 10SM CLR 01/M04 A2975 RMK AO2,M
BAM,2023-03-21 04:55,-116.8743,40.5990,1382.36,33.80,23.00,64.23,0.00,0.00,0.00,29.81,M,10.00,M,CLR,M,M,M,M,M,M,M,M,M,M,M,M,M,M,33.80,KBAM 210455Z AUTO 00000KT 10SM CLR 01/M05 A2981 RMK AO1,M
HTH,2023-03-21 04:55,-118.6315,38.5448,1282.89,46.40,21.20,36.48,0.00,0.00,0.00,29.76,M,10.00,M,BKN,OVC,M,M,7500.00,9000.00,M,M,M,M,M,M,M,M,M,46.40,KHTH 210455Z AUTO 00000KT 10SM BKN075 OVC090 08/M06 A2976 RMK A01,M
TMT,2023-03-21 04:55,-117.1971,39.4643,1749.34,27.10,23.70,86.82,140.00,4.00,0.00,29.78,M,10.00,M,CLR,M,M,M,M,M,M,M,M,M,M,M,M,M,M,21.70,KTMT 210455Z AUTO 14004KT 10SM CLR M03/M05 A2978 RMK AO2 T10271046,M
INS,2023-03-21 04:55,-115.6733,36.5872,955.00,49.50,33.40,53.68,240.00,3.00,0.00,29.76,1006.00,10.00,M,CLR,M,M,M,M,M,M,M,M,M,M,M,M,M,M,48.69,KINS 210455Z AUTO 24003KT 10SM CLR 10/01 A2976 RMK AO2 SLP060 T00970008 $,M
LSV,2023-03-21 04:55,-115.0343,36.2362,570.00,53.20,41.70,64.88,90.00,10.00,0.00,29.74,1006.40,10.00,M,OVC,M,M,M,9000.00,M,M,M,M,M,M,M,M,M,M,53.20,KLSV 210455Z AUTO 09010KT 10SM OVC090 12/05 A2974 RMK AO2 SLP064 T01180054 $,M
EKO,2023-03-21 04:56,-115.7860,40.8242,1367.00,30.00,23.00,74.87,240.00,5.00,0.00,29.78,1009.60,10.00,M,CLR,M,M,M,M,M,M,M,M,M,M,M,M,M,M,24.02,KEKO 210456Z AUTO 24005KT 10SM CLR M01/M05 A2978 RMK AO2 SLP096 T10111050,M
WMC,2023-03-21 04:56,-117.8072,40.9019,1315.00,30.90,21.00,66.34,0.00,0.00,0.00,29.79,1009.30,10.00,M,CLR,M,M,M,M,M,M,M,M,M,M,M,M,M,M,30.90,KWMC 210456Z AUTO 00000KT 10SM CLR M01/M06 A2979 RMK AO2 SLP093 T10061061,M
NFL,2023-03-21 04:56,-118.7010,39.4166,1199.00,39.00,19.00,44.14,20.00,5.00,0.00,29.74,1005.20,10.00,M,SCT,M,M,M,20000.00,M,M,M,M,M,M,M,M,M,M,34.71,KNFL 210456Z 02005KT 10SM SCT200 04/M07 A2974 RMK AO2 SLP052 T00391072,M
HND,2023-03-21 04:56,-115.1344,35.9729,742.79,57.00,30.00,35.54,210.00,10.00,0.00,29.78,1009.20,10.00,M,FEW,M,M,M,10000.00,M,M,M,M,M,M,M,M,M,M,57.00,KHND 210456Z AUTO 21010KT 10SM FEW100 14/M01 A2978 RMK AO2 SLP092 T01391011,M
TPH,2023-03-21 04:56,-117.0904,38.0505,1654.00,37.00,12.90,36.63,350.00,4.00,0.00,29.77,1006.60,10.00,M,SCT,M,M,M,12000.00,M,M,M,M,M,M,M,M,M,M,33.26,KTPH 210456Z AUTO 35004KT 10SM SCT120 03/M11 A2977 RMK AO2 SLP066 T00281106,M
LAS,2023-03-21 04:56,-115.1634,36.0719,663.00,56.00,36.00,47.05,0.00,0.00,0.00,29.76,1007.00,10.00,M,FEW,FEW,BKN,M,7000.00,11000.00,21000.00,M,M,M,M,M,M,M,M,55.90,KLAS 210456Z 00000KT 10SM FEW070 FEW110 BKN210 13/02 A2976 RMK AO2 SLP070 T01330022,M
BVU,2023-03-21 05:15,-114.8611,35.9475,671.00,57.20,30.20,35.57,350.00,4.00,0.00,29.76,M,10.00,M,BKN,M,M,M,10000.00,M,M,M,M,M,M,M,M,M,M,57.20,KBVU 210515Z AUTO 35004KT 10SM BKN100 14/M01 A2976 RMK AO2,M
CXP,2023-03-21 05:15,-119.7326,39.1923,1431.00,37.40,23.00,55.68,0.00,0.00,0.00,29.77,M,10.00,M,CLR,M,M,M,M,M,M,M,M,M,M,M,M,M,M,37.40,KCXP 210515Z AUTO 00000KT 10SM CLR 03/M05 A2977 RMK AO2,M
RTS,2023-03-21 05:15,-119.8764,39.6682,1539.00,32.00,21.20,63.99,0.00,0.00,0.00,29.77,M,10.00,M,CLR,M,M,M,M,M,M,M,M,M,M,M,M,M,M,32.00,KRTS 210515Z AUTO 00000KT 10SM CLR M00/M06 A2977 RMK AO2,M
05U,2023-03-21 05:15,-116.0051,39.6042,1811.23,28.40,24.80,86.18,0.00,0.00,0.00,29.81,M,10.00,M,CLR,M,M,M,M,M,M,M,M,M,M,M,M,M,M,28.40,K05U 210515Z AUTO 00000KT 10SM CLR M02/M04 A2981 RMK A01,M
MEV,2023-03-21 05:15,-119.7500,38.9963,1441.42,33.80,24.80,69.25,100.00,4.00,0.00,29.75,M,10.00,M,CLR,M,M,M,M,M,M,M,M,M,M,M,M,M,M,29.52,KMEV 210515Z AUTO 10004KT 10SM CLR 01/M04 A2975 RMK AO2,M
BAM,2023-03-21 05:15,-116.8743,40.5990,1382.36,33.80,23.00,64.23,310.00,4.00,0.00,29.81,M,10.00,M,CLR,M,M,M,M,M,M,M,M,M,M,M,M,M,M,29.52,KBAM 210515Z AUTO 31004KT 10SM CLR 01/M05 A2981 RMK AO1,M
HTH,2023-03-21 05:15,-118.6315,38.5448,1282.89,46.40,19.40,33.79,310.00,3.00,0.00,29.76,M,10.00,M,BKN,OVC,M,M,7000.00,9500.00,M,M,M,M,M,M,M,M,M,45.15,KHTH 210515Z AUTO 31003KT 10SM BKN070 OVC095 08/M07 A2976 RMK A01,M
TMT,2023-03-21 05:15,-117.1971,39.4643,1749.34,27.30,22.80,82.92,130.00,3.00,0.00,29.78,M,10.00,M,CLR,M,M,M,M,M,M,M,M,M,M,M,M,M,M,23.32,KTMT 210515Z AUTO 13003KT 10SM CLR M03/M05 A2978 RMK AO2 T10261051,M
BVU,2023-03-21 05:35,-114.8611,35.9475,671.00,57.20,30.20,35.57,M,3.00,0.00,29.77,M,10.00,M,BKN,M,M,M,11000.00,M,M,M,M,M,M,M,M,M,M,57.20,KBVU 210535Z AUTO VRB03KT 10SM BKN110 14/M01 A2977 RMK AO2,M
CXP,2023-03-21 05:35,-119.7326,39.1923,1431.00,35.60,24.80,64.46,330.00,6.00,0.00,29.77,M,10.00,M,CLR,M,M,M,M,M,M,M,M,M,M,M,M,M,M,29.87,KCXP 210535Z AUTO 33006KT 10SM CLR 02/M04 A2977 RMK AO2,M
RTS,2023-03-21 05:35,-119.8764,39.6682,1539.00,32.00,21.20,63.99,0.00,0.00,0.00,29.76,M,10.00,M,CLR,M,M,M,M,M,M,M,M,M,M,M,M,M,M,32.00,KRTS 210535Z AUTO 00000KT 10SM CLR M00/M06 A2976 RMK AO2,M
05U,2023-03-21 05:35,-116.0051,39.6042,1811.23,26.60,24.80,92.80,M,M,0.00,29.80,M,10.00,M,CLR,M,M,M,M,M,M,M,M,M,M,M,M,M,M,M,K05U 210535Z AUTO 10SM CLR M03/M04 A2980 RMK A01,M
MEV,2023-03-21 05:35,-119.7500,38.9963,1441.42,32.00,24.80,74.44,0.00,0.00,0.00,29.74,M,10.00,M,FEW,M,M,M,4600.00,M,M,M,M,M,M,M,M,M,M,32.00,KMEV 210535Z AUTO 00000KT 10SM FEW046 M00/M04 A2974 RMK AO2,M
BAM,2023-03-21 05:35,-116.8743,40.5990,1382.36,33.80,23.00,64.23,330.00,6.00,0.00,29.80,M,10.00,M,CLR,M,M,M,M,M,M,M,M,M,M,M,M,M,M,27.70,KBAM 210535Z AUTO 33006KT 10SM CLR 01/M05 A2980 RMK AO1,M
HTH,2023-03-21 05:35,-118.6315,38.5448,1282.89,46.40,21.20,36.48,270.00,3.00,0.00,29.75,M,10.00,M,BKN,OVC,M,M,7500.00,9500.00,M,M,M,M,M,M,M,M,M,45.15,KHTH 210535Z AUTO 27003KT 10SM BKN075 OVC095 08/M06 A2975 RMK A01,M
TMT,2023-03-21 05:35,-117.1971,39.4643,1749.34,27.70,21.90,78.53,0.00,0.00,0.00,29.78,M,10.00,M,CLR,M,M,M,M,M,M,M,M,M,M,M,M,M,M,27.70,KTMT 210535Z AUTO 00000KT 10SM CLR M02/M06 A2978 RMK AO2 T10241056,M
P68,2023-03-21 05:53,-116.0056,39.6014,1993.00,28.00,24.10,85.08,0.00,0.00,0.00,29.77,1007.20,M,M,M,M,M,M,M,M,M,M,M,M,M,M,M,M,M,28.00,KP68 210553Z AUTO 00000KT M02/M04 A2977 RMK AO1 SLP072 T10221044 10072 21028 50009,M
ELY,2023-03-21 05:53,-114.8453,39.2950,1909.00,25.00,17.10,71.53,180.00,12.00,0.00,29.77,1008.80,M,M,CLR,M,M,M,M,M,M,M,M,M,M,M,M,M,M,13.09,KELY 210553Z AUTO 18012KT CLR M04/M08 A2977 RMK AO2 SLP088 T10391083 10061 21044 51008 $,M
LOL,2023-03-21 05:53,-118.5701,40.0684,1192.43,37.00,21.00,51.99,20.00,10.00,0.00,29.75,1007.50,10.00,M,CLR,M,M,M,M,M,M,M,M,M,M,M,M,M,M,29.24,KLOL 210553Z AUTO 02010KT 10SM CLR 03/M06 A2975 RMK AO2 SLP075 T00281061 10117 21011 50002,M
DRA,2023-03-21 05:53,-116.0278,36.6206,1009.00,50.00,35.00,56.39,0.00,0.00,0.00,29.74,1004.90,10.00,M,OVC,M,M,M,10000.00,M,M,M,M,M,M,M,M,M,M,50.00,KDRA 210553Z AUTO 00000KT 10SM OVC100 10/02 A2974 RMK AO2 SLP049 T01000017 10156 20100 50004,M
VGT,2023-03-21 05:53,-115.1933,36.2111,667.00,56.00,38.00,50.71,100.00,5.00,0.00,29.75,1008.60,10.00,M,SCT,M,M,M,9000.00,M,M,M,M,M,M,M,M,M,M,55.90,KVGT 210553Z AUTO 10005KT 10SM SCT090 13/03 A2975 RMK AO2 SLP086 T01330033 10194 20128 50010,M
BVU,2023-03-21 05:55,-114.8611,35.9475,671.00,57.20,32.00,38.26,0.00,0.00,0.00,29.76,M,10.00,M,OVC,M,M,M,11000.00,M,M,M,M,M,M,M,M,M,M,57.20,KBVU 210555Z AUTO 00000KT 10SM OVC110 14/M00 A2976 RMK AO2,M
CXP,2023-03-21 05:55,-119.7326,39.1923,1431.00,37.40,21.20,51.61,320.00,5.00,0.00,29.75,M,10.00,M,CLR,M,M,M,M,M,M,M,M,M,M,M,M,M,M,32.81,KCXP 210555Z AUTO 32005KT 10SM CLR 03/M06 A2975 RMK AO2,M
INS,2023-03-21 05:55,-115.6733,36.5872,955.00,48.40,33.40,55.93,0.00,0.00,0.00,29.76,1006.00,10.00,M,SCT,M,M,M,7000.00,M,M,M,M,M,M,M,M,M,M,48.40,KINS 210555Z AUTO 00000KT 10SM SCT070 09/01 A2976 RMK AO2 SLP060 T00910008 10171 20086 50009 $,M
RNO,2023-03-21 05:55,-119.7711,39.4839,1341.00,39.00,19.90,45.87,0.00,0.00,0.00,29.75,1005.90,10.00,M,SCT,M,M,M,14000.00,M,M,M,M,M,M,M,M,M,M,39.00,KRNO 210555Z 00000KT 10SM SCT140 04/M07 A2975 RMK AO2 SLP059 T00391067 10111 20039 58003,M
LSV,2023-03-21 05:55,-115.0343,36.2362,570.00,53.60,41.70,63.93,70.00,9.00,0.00,29.74,1006.40,10.00,M,BKN,M,M,M,10000.00,M,M,M,M,M,M,M,M,M,M,53.60,KLSV 210555Z AUTO 07009KT 10SM BKN100 12/05 A2974 RMK AO2 SLP064 T01200054 10205 20116 50009 $,M
RTS,2023-03-21 05:55,-119.8764,39.6682,1539.00,30.20,21.20,68.83,30.00,3.00,0.00,29.75,M,10.00,M,CLR,M,M,M,M,M,M,M,M,M,M,M,M,M,M,26.63,KRTS 210555Z AUTO 03003KT 10SM CLR M01/M06 A2975 RMK AO2,M
05U,2023-03-21 05:55,-116.0051,39.6042,1811.23,26.60,24.80,92.80,0.00,0.00,0.00,29.80,M,10.00,M,CLR,M,M,M,M,M,M,M,M,M,M,M,M,M,M,26.60,K05U 210555Z AUTO 00000KT 10SM CLR M03/M04 A2980 RMK A01,M
MEV,2023-03-21 05:55,-119.7500,38.9963,1441.42,33.80,24.80,69.25,300.00,5.00,0.00,29.74,M,10.00,M,FEW,SCT,M,M,4000.00,4700.00,M,M,M,M,M,M,M,M,M,28.53,KMEV 210555Z AUTO 30005KT 10SM FEW040 SCT047 01/M04 A2974 RMK AO2,M
BAM,2023-03-21 05:55,-116.8743,40.5990,1382.36,33.80,23.00,64.23,340.00,5.00,0.00,29.80,M,10.00,M,CLR,M,M,M,M,M,M,M,M,M,M,M,M,M,M,28.53,KBAM 210555Z AUTO 34005KT 10SM CLR 01/M05 A2980 RMK AO1,M
HTH,2023-03-21 05:55,-118.6315,38.5448,1282.89,46.40,21.20,36.48,0.00,0.00,0.00,29.75,M,10.00,M,OVC,M,M,M,7500.00,M,M,M,M,M,M,M,M,M,M,46.40,KHTH 210555Z AUTO 00000KT 10SM OVC075 08/M06 A2975 RMK A01,M
TMT,2023-03-21 05:55,-117.1971,39.4643,1749.34,27.30,23.70,86.11,0.00,0.00,0.00,29.79,M,10.00,M,CLR,M,M,M,M,M,M,M,M,M,M,M,M,M,M,27.30,KTMT 210555Z AUTO 00000KT 10SM CLR M03/M05 A2979 RMK AO2 T10261046 10077 21028,M
EKO,2023-03-21 05:56,-115.7860,40.8242,1367.00,28.00,19.90,71.25,210.00,3.00,0.00,29.78,1009.10,10.00,M,CLR,M,M,M,M,M,M,M,M,M,M,M,M,M,M,24.12,KEKO 210556Z AUTO 21003KT 10SM CLR M02/M07 A2978 RMK AO2 SLP091 T10221067 10033 21022 50010,M
WMC,2023-03-21 05:56,-117.8072,40.9019,1315.00,27.00,21.00,77.80,360.00,3.00,0.00,29.77,1009.10,10.00,M,CLR,M,M,M,M,M,M,M,M,M,M,M,M,M,M,22.97,KWMC 210556Z AUTO 36003KT 10SM CLR M03/M06 A2977 RMK AO2 SLP091 T10281061 10083 21033 50004,M
NFL,2023-03-21 05:56,-118.7010,39.4166,1199.00,36.00,21.90,56.18,0.00,0.00,0.00,29.75,1005.40,10.00,M,FEW,M,M,M,20000.00,M,M,M,M,M,M,M,M,M,M,36.00,KNFL 210556Z 00000KT 10SM FEW200 02/M06 A2975 RMK AO2 SLP054 T00221056 10128 20017 51001,M
HND,2023-03-21 05:56,-115.1344,35.9729,742.79,56.00,32.00,40.10,M,3.00,0.00,29.77,1009.00,10.00,M,FEW,M,M,M,11000.00,M,M,M,M,M,M,M,M,M,M,55.90,KHND 210556Z AUTO VRB03KT 10SM FEW110 13/00 A2977 RMK AO2 SLP090 T01330000 10178 20133 50007,M
LAS,2023-03-21 05:56,-115.1634,36.0719,663.00,55.00,37.00,50.58,20.00,6.00,0.00,29.75,1006.60,10.00,M,FEW,SCT,BKN,M,7000.00,11000.00,20000.00,M,M,M,M,M,M,M,M,55.00,KLAS 210556Z 02006KT 10SM FEW070 SCT110 BKN200 13/03 A2975 RMK AO2 SLP066 T01280028 10183 20128 50009,M
TPH,2023-03-21 05:56,-117.0904,38.0505,1654.00,35.00,15.10,43.49,360.00,8.00,0.00,29.76,1006.30,10.00,M,SCT,M,M,M,11000.00,M,M,M,M,M,M,M,M,M,M,27.93,KTPH 210556Z AUTO 36008KT 10SM SCT110 02/M09 A2976 RMK AO2 SLP063 T00171094 10122 20017 50008,M
BVU,2023-03-21 06:15,-114.8611,35.9475,671.00,57.20,33.80,41.13,140.00,3.00,0.00,29.75,M,10.00,M,SCT,M,M,M,10000.00,M,M,M,M,M,M,M,M,M,M,57.20,KBVU 210615Z AUTO 14003KT 10SM SCT100 14/01 A2975 RMK AO2,M
CXP,2023-03-21 06:15,-119.7326,39.1923,1431.00,37.40,19.40,47.80,340.00,4.00,0.00,29.75,M,10.00,M,CLR,M,M,M,M,M,M,M,M,M,M,M,M,M,M,33.73,KCXP 210615Z AUTO 34004KT 10SM CLR 03/M07 A2975 RMK AO2,M
RTS,2023-03-21 06:15,-119.8764,39.6682,1539.00,28.40,19.40,68.61,340.00,3.00,0.00,29.75,M,10.00,M,CLR,M,M,M,M,M,M,M,M,M,M,M,M,M,M,24.57,KRTS 210615Z AUTO 34003KT 10SM CLR M02/M07 A2975 RMK AO2,M
05U,2023-03-21 06:15,-116.0051,39.6042,1811.23,26.60,24.80,92.80,0.00,0.00,0.00,29.80,M,10.00,M,CLR,M,M,M,M,M,M,M,M,M,M,M,M,M,M,26.60,K05U 210615Z AUTO 00000KT 10SM CLR M03/M04 A2980 RMK A01,M
MEV,2023-03-21 06:15,-119.7500,38.9963,1441.42,30.20,24.80,80.07,0.00,0.00,0.00,29.74,M,10.00,M,FEW,FEW,FEW,M,3600.00,4300.00,10000.00,M,M,M,M,M,M,M,M,30.20,KMEV 210615Z AUTO 00000KT 10SM FEW036 FEW043 FEW100 M01/M04 A2974 RMK AO2,M
BAM,2023-03-21 06:15,-116.8743,40.5990,1382.36,33.80,23.00,64.23,340.00,4.00,0.00,29.80,M,10.00,M,CLR,M,M,M,M,M,M,M,M,M,M,M,M,M,M,29.52,KBAM 210615Z AUTO 34004KT 10SM CLR 01/M05 A2980 RMK AO1,M
HTH,2023-03-21 06:15,-118.6315,38.5448,1282.89,46.40,21.20,36.48,0.00,0.00,0.00,29.75,M,10.00,M,OVC,M,M,M,7500.00,M,M,M,M,M,M,M,M,M,M,46.40,KHTH 210615Z AUTO 00000KT 10SM OVC075 08/M06 A2975 RMK A01,M
TMT,2023-03-21 06:15,-117.1971,39.4643,1749.34,27.70,23.00,82.25,0.00,0.00,0.00,29.78,M,10.00,M,CLR,M,M,M,M,M,M,M,M,M,M,M,M,M,M,27.70,KTMT 210615Z AUTO 00000KT 10SM CLR M02/M05 A2978 RMK AO2 T10241050,M
CXP,2023-03-21 06:30,-119.7326,39.1923,1431.00,35.60,21.20,55.41,0.00,0.00,0.00,29.76,M,10.00,M,CLR,M,M,M,M,M,M,M,M,M,M,M,M,M,M,35.60,KCXP 210630Z AUTO 00000KT 10SM CLR 02/M06 A2976 RMK AO2,M
BVU,2023-03-21 06:35,-114.8611,35.9475,671.00,57.20,35.60,44.19,140.00,3.00,0.00,29.75,M,10.00,M,FEW,M,M,M,6500.00,M,M,M,M,M,M,M,M,M,M,57.20,KBVU 210635Z AUTO 14003KT 10SM FEW065 14/02 A2975 RMK AO2,M
RTS,2023-03-21 06:35,-119.8764,39.6682,1539.00,28.40,21.20,74.08,0.00,0.00,0.00,29.76,M,10.00,M,CLR,M,M,M,M,M,M,M,M,M,M,M,M,M,M,28.40,KRTS 210635Z AUTO 00000KT 10SM CLR M02/M06 A2976 RMK AO2,M
05U,2023-03-21 06:35,-116.0051,39.6042,1811.23,26.60,23.00,86.07,M,M,0.00,29.80,M,10.00,M,CLR,M,M,M,M,M,M,M,M,M,M,M,M,M,M,M,K05U 210635Z AUTO 10SM CLR M03/M05 A2980 RMK A01,M
MEV,2023-03-21 06:35,-119.7500,38.9963,1441.42,30.20,24.80,80.07,80.00,5.00,0.00,29.75,M,10.00,M,FEW,BKN,M,M,4300.00,10000.00,M,M,M,M,M,M,M,M,M,24.26,KMEV 210635Z AUTO 08005KT 10SM FEW043 BKN100 M01/M04 A2975 RMK AO2,M
BAM,2023-03-21 06:35,-116.8743,40.5990,1382.36,32.00,23.00,69.04,110.00,4.00,0.00,29.79,M,10.00,M,CLR,M,M,M,M,M,M,M,M,M,M,M,M,M,M,27.42,KBAM 210635Z AUTO 11004KT 10SM CLR 00/M05 A2979 RMK AO1,M
HTH,2023-03-21 06:35,-118.6315,38.5448,1282.89,44.60,21.20,39.06,0.00,0.00,0.00,29.75,M,10.00,M,OVC,M,M,M,7500.00,M,M,M,M,M,M,M,M,M,M,44.60,KHTH 210635Z AUTO 00000KT 10SM OVC075 07/M06 A2975 RMK A01,M
TMT,2023-03-21 06:35,-117.1971,39.4643,1749.34,27.00,23.40,86.09,0.00,0.00,0.00,29.77,M,10.00,M,CLR,M,M,M,M,M,M,M,M,M,M,M,M,M,M,27.00,KTMT 210635Z AUTO 00000KT 10SM CLR M03/M05 A2977 RMK AO2 T10281048,M
05U,2023-03-21 06:50,-116.0051,39.6042,1811.23,24.80,23.00,92.74,190.00,4.00,0.00,29.80,M,10.00,M,CLR,M,M,M,M,M,M,M,M,M,M,M,M,M,M,19.01,K05U 210650Z AUTO 19004KT 10SM CLR M04/M05 A2980 RMK A01,M
P68,2023-03-21 06:53,-116.0056,39.6014,1993.00,26.10,21.90,83.89,180.00,4.00,0.00,29.77,1007.20,M,M,M,M,M,M,M,M,M,M,M,M,M,M,M,M,M,20.53,KP68 210653Z AUTO 18004KT M03/M06 A2977 RMK AO1 SLP072 T10331056,M
DRA,2023-03-21 06:53,-116.0278,36.6206,1009.00,48.00,36.00,62.97,310.00,3.00,0.00,29.73,1004.40,10.00,M,CLR,M,M,M,M,M,M,M,M,M,M,M,M,M,M,46.98,KDRA 210653Z AUTO 31003KT 10SM CLR 09/02 A2973 RMK AO2 SLP044 T00890022,M
ELY,2023-03-21 06:53,-114.8453,39.2950,1909.00,21.90,15.10,74.69,190.00,11.00,0.00,29.77,1008.40,10.00,M,CLR,M,M,M,M,M,M,M,M,M,M,M,M,M,M,9.70,KELY 210653Z AUTO 19011KT 10SM CLR M06/M09 A2977 RMK AO2 SLP084 T10561094 $,M
VGT,2023-03-21 06:53,-115.1933,36.2111,667.00,55.00,37.00,50.58,110.00,6.00,0.00,29.74,1008.10,10.00,M,CLR,M,M,M,M,M,M,M,M,M,M,M,M,M,M,55.00,KVGT 210653Z AUTO 11006KT 10SM CLR 13/03 A2974 RMK AO2 SLP081 T01280028,M
LOL,2023-03-21 06:53,-118.5701,40.0684,1192.43,32.00,21.00,63.45,70.00,8.00,0.00,29.75,1007.50,10.00,M,CLR,M,M,M,M,M,M,M,M,M,M,M,M,M,M,24.11,KLOL 210653Z AUTO 07008KT 10SM CLR 00/M06 A2975 RMK AO2 SLP075 T00001061,M
BVU,2023-03-21 06:55,-114.8611,35.9475,671.00,57.20,35.60,44.19,0.00,0.00,0.00,29.74,M,10.00,M,BKN,BKN,M,M,6000.00,7000.00,M,M,M,M,M,M,M,M,M,57.20,KBVU 210655Z AUTO 00000KT 10SM BKN060 BKN070 14/02 A2974 RMK AO2,M
CXP,2023-03-21 06:55,-119.7326,39.1923,1431.00,35.60,21.20,55.41,0.00,0.00,0.00,29.76,M,10.00,M,SCT,M,M,M,11000.00,M,M,M,M,M,M,M,M,M,M,35.60,KCXP 210655Z AUTO 00000KT 10SM SCT110 02/M06 A2976 RMK AO2,M
INS,2023-03-21 06:55,-115.6733,36.5872,955.00,47.80,33.80,58.13,0.00,0.00,0.00,29.73,1004.70,10.00,M,CLR,M,M,M,M,M,M,M,M,M,M,M,M,M,M,47.80,KINS 210655Z AUTO 00000KT 10SM CLR 09/01 A2973 RMK AO2 SLP047 T00880010 $,M
RNO,2023-03-21 06:55,-119.7711,39.4839,1341.00,36.00,19.90,51.61,220.00,5.00,0.00,29.75,1006.00,10.00,M,FEW,M,M,M,14000.00,M,M,M,M,M,M,M,M,M,M,31.15,KRNO 210655Z 22005KT 10SM FEW140 02/M07 A2975 RMK AO2 SLP060 T00221067,M
RTS,2023-03-21 06:55,-119.8764,39.6682,1539.00,28.40,21.20,74.08,0.00,0.00,0.00,29.75,M,10.00,M,CLR,M,M,M,M,M,M,M,M,M,M,M,M,M,M,28.40,KRTS 210655Z AUTO 00000KT 10SM CLR M02/M06 A2975 RMK AO2,M
MEV,2023-03-21 06:55,-119.7500,38.9963,1441.42,32.00,26.60,80.22,50.00,5.00,0.00,29.74,M,10.00,M,OVC,M,M,M,10000.00,M,M,M,M,M,M,M,M,M,M,26.40,KMEV 210655Z AUTO 05005KT 10SM OVC100 00/M03 A2974 RMK AO2,M
BAM,2023-03-21 06:55,-116.8743,40.5990,1382.36,30.20,23.00,74.26,120.00,3.00,0.00,29.79,M,10.00,M,CLR,M,M,M,M,M,M,M,M,M,M,M,M,M,M,26.63,KBAM 210655Z AUTO 12003KT 10SM CLR M01/M05 A2979 RMK AO1,M
HTH,2023-03-21 06:55,-118.6315,38.5448,1282.89,44.60,17.60,33.49,350.00,3.00,0.00,29.75,M,10.00,M,OVC,M,M,M,7000.00,M,M,M,M,M,M,M,M,M,M,43.09,KHTH 210655Z AUTO 35003KT 10SM OVC070 07/M08 A2975 RMK A01,M
TMT,2023-03-21 06:55,-117.1971,39.4643,1749.34,25.20,22.80,90.45,60.00,3.00,0.00,29.76,M,10.00,M,CLR,M,M,M,M,M,M,M,M,M,M,M,M,M,M,20.91,KTMT 210655Z AUTO 06003KT 10SM CLR M04/M05 A2976 RMK AO2 T10381051,M
LSV,2023-03-21 06:55,-115.0343,36.2362,570.00,53.60,40.00,60.09,60.00,13.00,0.00,29.72,1005.50,10.00,M,CLR,M,M,M,M,M,M,M,M,M,M,M,M,M,M,53.60,KLSV 210655Z AUTO 06013KT 10SM CLR 12/05 A2972 RMK AO2 SLP055 T01200045 $,M
EKO,2023-03-21 06:56,-115.7860,40.8242,1367.00,26.10,18.00,71.04,220.00,5.00,0.00,29.77,1008.60,10.00,M,CLR,M,M,M,M,M,M,M,M,M,M,M,M,M,M,19.39,KEKO 210656Z AUTO 22005KT 10SM CLR M03/M08 A2977 RMK AO2 SLP086 T10331078,M
WMC,2023-03-21 06:56,-117.8072,40.9019,1315.00,27.00,19.90,74.25,0.00,0.00,0.00,29.77,1008.60,10.00,M,CLR,M,M,M,M,M,M,M,M,M,M,M,M,M,M,27.00,KWMC 210656Z AUTO 00000KT 10SM CLR M03/M07 A2977 RMK AO2 SLP086 T10281067,M
NFL,2023-03-21 06:56,-118.7010,39.4166,1199.00,34.00,23.00,63.72,350.00,4.00,0.00,29.73,1004.90,10.00,M,CLR,M,M,M,M,M,M,M,M,M,M,M,M,M,M,29.76,KNFL 210656Z AUTO 35004KT 10SM CLR 01/M05 A2973 RMK AO2 SLP049 T00111050,M
HND,2023-03-21 06:56,-115.1344,35.9729,742.79,55.00,34.00,44.90,0.00,0.00,0.00,29.76,1008.60,10.00,M,CLR,M,M,M,M,M,M,M,M,M,M,M,M,M,M,55.00,KHND 210656Z AUTO 00000KT 10SM CLR 13/01 A2976 RMK AO2 SLP086 T01280011 401830089,M
TPH,2023-03-21 06:56,-117.0904,38.0505,1654.00,34.00,16.00,47.25,20.00,7.00,0.00,29.74,1005.70,10.00,M,CLR,M,M,M,M,M,M,M,M,M,M,M,M,M,M,27.22,KTPH 210656Z AUTO 02007KT 10SM CLR 01/M09 A2974 RMK AO2 SLP057 T00111089,M
LAS,2023-03-21 06:56,-115.1634,36.0719,663.00,54.00,38.00,54.34,30.00,6.00,0.00,29.75,1006.60,10.00,M,FEW,BKN,M,M,11000.00,18000.00,M,M,M,M,M,M,M,M,M,54.00,KLAS 210656Z 03006KT 10SM FEW110 BKN180 12/03 A2975 RMK AO2 SLP066 T01220033,M
BVU,2023-03-21 07:15,-114.8611,35.9475,671.00,57.20,37.40,47.44,0.00,0.00,0.00,29.74,M,10.00,M,OVC,M,M,M,6000.00,M,M,M,M,M,M,M,M,M,M,57.20,KBVU 210715Z AUTO 00000KT 10SM OVC060 14/03 A2974 RMK AO2,M
CXP,2023-03-21 07:15,-119.7326,39.1923,1431.00,33.80,24.80,69.25,100.00,5.00,0.00,29.76,M,10.00,M,OVC,M,M,M,10000.00,M,M,M,M,M,M,M,M,M,M,28.53,KCXP 210715Z AUTO 10005KT 10SM OVC100 01/M04 A2976 RMK AO2,M
RTS,2023-03-21 07:15,-119.8764,39.6682,1539.00,28.40,21.20,74.08,340.00,4.00,0.00,29.75,M,10.00,M,CLR,M,M,M,M,M,M,M,M,M,M,M,M,M,M,23.22,KRTS 210715Z AUTO 34004KT 10SM CLR M02/M06 A2975 RMK AO2,M
05U,2023-03-21 07:15,-116.0051,39.6042,1811.23,24.80,23.00,92.74,0.00,0.00,0.00,29.78,M,10.00,M,CLR,M,M,M,M,M,M,M,M,M,M,M,M,M,M,24.80,K05U 210715Z AUTO 00000KT 10SM CLR M04/M05 A2978 RMK A01,M
MEV,2023-03-21 07:15,-119.7500,38.9963,1441.42,30.20,24.80,80.07,0.00,0.00,0.00,29.73,M,10.00,M,OVC,M,M,M,10000.00,M,M,M,M,M,M,M,M,M,M,30.20,KMEV 210715Z AUTO 00000KT 10SM OVC100 M01/M04 A2973 RMK AO2,M
BAM,2023-03-21 07:15,-116.8743,40.5990,1382.36,30.20,24.80,80.07,0.00,0.00,0.00,29.79,M,10.00,M,CLR,M,M,M,M,M,M,M,M,M,M,M,M,M,M,30.20,KBAM 210715Z AUTO 00000KT 10SM CLR M01/M04 A2979 RMK AO1,M
HTH,2023-03-21 07:15,-118.6315,38.5448,1282.89,44.60,17.60,33.49,330.00,7.00,0.00,29.74,M,10.00,M,OVC,M,M,M,7000.00,M,M,M,M,M,M,M,M,M,M,40.14,KHTH 210715Z AUTO 33007KT 10SM OVC070 07/M08 A2974 RMK A01,M
TMT,2023-03-21 07:15,-117.1971,39.4643,1749.34,25.90,23.70,91.24,0.00,0.00,0.00,29.76,M,10.00,M,CLR,M,M,M,M,M,M,M,M,M,M,M,M,M,M,25.90,KTMT 210715Z AUTO 00000KT 10SM CLR M03/M05 A2976 RMK AO2 T10341046,M
BVU,2023-03-21 07:35,-114.8611,35.9475,671.00,57.20,35.60,44.19,0.00,0.00,0.00,29.74,M,10.00,M,BKN,OVC,M,M,6000.00,7000.00,M,M,M,M,M,M,M,M,M,57.20,KBVU 210735Z AUTO 00000KT 10SM BKN060 OVC070 14/02 A2974 RMK AO2,M
CXP,2023-03-21 07:35,-119.7326,39.1923,1431.00,33.80,24.80,69.25,0.00,0.00,0.00,29.75,M,10.00,M,SCT,M,M,M,10000.00,M,M,M,M,M,M,M,M,M,M,33.80,KCXP 210735Z AUTO 00000KT 10SM SCT100 01/M04 A2975 RMK AO2,M
RTS,2023-03-21 07:35,-119.8764,39.6682,1539.00,26.60,21.20,79.77,0.00,0.00,0.00,29.76,M,10.00,M,CLR,M,M,M,M,M,M,M,M,M,M,M,M,M,M,26.60,KRTS 210735Z AUTO 00000KT 10SM CLR M03/M06 A2976 RMK AO2,M
05U,2023-03-21 07:35,-116.0051,39.6042,1811.23,24.80,23.00,92.74,170.00,4.00,0.00,29.78,M,10.00,M,CLR,M,M,M,M,M,M,M,M,M,M,M,M,M,M,19.01,K05U 210735Z AUTO 17004KT 10SM CLR M04/M05 A2978 RMK A01,M
MEV,2023-03-21 07:35,-119.7500,38.9963,1441.42,30.20,24.80,80.07,0.00,0.00,0.00,29.73,M,10.00,M,BKN,M,M,M,10000.00,M,M,M,M,M,M,M,M,M,M,30.20,KMEV 210735Z AUTO 00000KT 10SM BKN100 M01/M04 A2973 RMK AO2,M
BAM,2023-03-21 07:35,-116.8743,40.5990,1382.36,30.20,23.00,74.26,100.00,3.00,0.00,29.79,M,10.00,M,CLR,M,M,M,M,M,M,M,M,M,M,M,M,M,M,26.63,KBAM 210735Z AUTO 10003KT 10SM CLR M01/M05 A2979 RMK AO1,M
HTH,2023-03-21 07:35,-118.6315,38.5448,1282.89,44.60,17.60,33.49,350.00,6.00,0.00,29.73,M,10.00,M,OVC,M,M,M,6500.00,M,M,M,M,M,M,M,M,M,M,40.71,KHTH 210735Z AUTO 35006KT 10SM OVC065 07/M08 A2973 RMK A01,M
TMT,2023-03-21 07:35,-117.1971,39.4643,1749.34,26.60,23.20,86.79,300.00,3.00,0.00,29.76,M,10.00,M,CLR,M,M,M,M,M,M,M,M,M,M,M,M,M,M,22.52,KTMT 210735Z AUTO 30003KT 10SM CLR M03/M05 A2976 RMK AO2 T10301049,M
P68,2023-03-21 07:53,-116.0056,39.6014,1993.00,26.10,21.90,83.89,170.00,4.00,0.00,29.76,1006.50,M,M,M,M,M,M,M,M,M,M,M,M,M,M,M,M,M,20.53,KP68 210753Z AUTO 17004KT M03/M06 A2976 RMK AO1 SLP065 T10331056 400781039,M
DRA,2023-03-21 07:53,-116.0278,36.6206,1009.00,48.00,37.00,65.51,350.00,4.00,0.00,29.72,1004.20,10.00,M,CLR,M,M,M,M,M,M,M,M,M,M,M,M,M,M,46.10,KDRA 210753Z AUTO 35004KT 10SM CLR 09/03 A2972 RMK AO2 SLP042 T00890028 401610061,M
ELY,2023-03-21 07:53,-114.8453,39.2950,1909.00,21.90,16.00,77.67,180.00,7.00,0.00,29.77,1007.70,M,M,BKN,M,M,M,12000.00,M,M,M,M,M,M,M,M,M,M,12.47,KELY 210753Z AUTO 18007KT BKN120 M06/M09 A2977 RMK AO2 SLP077 T10561089 400671067 $,M
VGT,2023-03-21 07:53,-115.1933,36.2111,667.00,54.00,37.00,52.45,90.00,7.00,0.00,29.74,1008.00,10.00,M,CLR,M,M,M,M,M,M,M,M,M,M,M,M,M,M,54.00,KVGT 210753Z AUTO 09007KT 10SM CLR 12/03 A2974 RMK AO2 SLP080 T01220028 402000089,M
LOL,2023-03-21 07:53,-118.5701,40.0684,1192.43,30.90,19.90,63.31,360.00,8.00,0.00,29.74,1007.30,10.00,M,CLR,M,M,M,M,M,M,M,M,M,M,M,M,M,M,22.76,KLOL 210753Z AUTO 36008KT 10SM CLR M01/M07 A2974 RMK AO2 SLP073 T10061067 401281011,M
BVU,2023-03-21 07:55,-114.8611,35.9475,671.00,55.40,37.40,50.64,50.00,3.00,0.00,29.74,M,10.00,M,SCT,BKN,M,M,6500.00,7500.00,M,M,M,M,M,M,M,M,M,55.40,KBVU 210755Z AUTO 05003KT 10SM SCT065 BKN075 13/03 A2974 RMK AO2,M
CXP,2023-03-21 07:55,-119.7326,39.1923,1431.00,35.60,23.00,59.79,M,5.00,0.00,29.74,M,10.00,M,CLR,M,M,M,M,M,M,M,M,M,M,M,M,M,M,30.67,KCXP 210755Z AUTO VRB05KT 10SM CLR 02/M05 A2974 RMK AO2,M
INS,2023-03-21 07:55,-115.6733,36.5872,955.00,45.70,33.40,61.92,0.00,0.00,0.00,29.74,1004.90,10.00,M,CLR,M,M,M,M,M,M,M,M,M,M,M,M,M,M,45.70,KINS 210755Z AUTO 00000KT 10SM CLR 08/01 A2974 RMK AO2 SLP049 T00760008 401710040 $,M
RTS,2023-03-21 07:55,-119.8764,39.6682,1539.00,24.80,21.20,85.96,40.00,4.00,0.00,29.75,M,10.00,M,CLR,M,M,M,M,M,M,M,M,M,M,M,M,M,M,19.01,KRTS 210755Z AUTO 04004KT 10SM CLR M04/M06 A2975 RMK AO2,M
05U,2023-03-21 07:55,-116.0051,39.6042,1811.23,24.80,23.00,92.74,M,3.00,0.00,29.78,M,10.00,M,CLR,M,M,M,M,M,M,M,M,M,M,M,M,M,M,20.46,K05U 210755Z AUTO VRB03KT 10SM CLR M04/M05 A2978 RMK A01,M
MEV,2023-03-21 07:55,-119.7500,38.9963,1441.42,30.20,26.60,86.28,200.00,7.00,0.00,29.74,M,10.00,M,BKN,M,M,M,10000.00,M,M,M,M,M,M,M,M,M,M,22.59,KMEV 210755Z AUTO 20007KT 10SM BKN100 M01/M03 A2974 RMK AO2,M
BAM,2023-03-21 07:55,-116.8743,40.5990,1382.36,30.20,23.00,74.26,0.00,0.00,0.00,29.79,M,10.00,M,CLR,M,M,M,M,M,M,M,M,M,M,M,M,M,M,30.20,KBAM 210755Z AUTO 00000KT 10SM CLR M01/M05 A2979 RMK AO1,M
HTH,2023-03-21 07:55,-118.6315,38.5448,1282.89,42.80,17.60,35.87,360.00,6.00,0.00,29.73,M,10.00,M,BKN,OVC,M,M,6500.00,9000.00,M,M,M,M,M,M,M,M,M,38.54,KHTH 210755Z AUTO 36006KT 10SM BKN065 OVC090 06/M08 A2973 RMK A01,M
TMT,2023-03-21 07:55,-117.1971,39.4643,1749.34,26.40,24.40,92.02,340.00,3.00,0.00,29.76,M,10.00,M,CLR,M,M,M,M,M,M,M,M,M,M,M,M,M,M,22.29,KTMT 210755Z AUTO 34003KT 10SM CLR M03/M04 A2976 RMK AO2 T10311042 400831038,M
LSV,2023-03-21 07:55,-115.0343,36.2362,570.00,53.40,39.40,58.91,70.00,10.00,0.00,29.72,1005.30,10.00,M,BKN,M,M,M,7000.00,M,M,M,M,M,M,M,M,M,M,53.40,KLSV 210755Z AUTO 07010KT 10SM BKN070 12/04 A2972 RMK AO2 SLP053 T01190041 402130092 $,M
RNO,2023-03-21 07:55,-119.7711,39.4839,1341.00,35.00,21.00,56.05,280.00,7.00,0.00,29.74,1005.70,10.00,M,FEW,M,M,M,11000.00,M,M,M,M,M,M,M,M,M,M,28.56,KRNO 210755Z 28007KT 10SM FEW110 02/M06 A2974 RMK AO2 SLP057 T00171061 401220017,M
EKO,2023-03-21 07:56,-115.7860,40.8242,1367.00,27.00,19.00,71.45,310.00,3.00,0.00,29.77,1008.90,10.00,M,CLR,M,M,M,M,M,M,M,M,M,M,M,M,M,M,22.97,KEKO 210756Z AUTO 31003KT 10SM CLR M03/M07 A2977 RMK AO2 SLP089 T10281072 400781033,M
WMC,2023-03-21 07:56,-117.8072,40.9019,1315.00,27.00,21.00,77.80,0.00,0.00,0.00,29.77,1008.40,10.00,M,CLR,M,M,M,M,M,M,M,M,M,M,M,M,M,M,27.00,KWMC 210756Z AUTO 00000KT 10SM CLR M03/M06 A2977 RMK AO2 SLP084 T10281061 400891044,M
NFL,2023-03-21 07:56,-118.7010,39.4166,1199.00,33.00,25.00,71.82,160.00,3.00,0.00,29.73,1004.90,10.00,M,CLR,M,M,M,M,M,M,M,M,M,M,M,M,M,M,29.95,KNFL 210756Z AUTO 16003KT 10SM CLR 01/M04 A2973 RMK AO2 SLP049 T00061039 401390000,M
TPH,2023-03-21 07:56,-117.0904,38.0505,1654.00,34.00,18.00,51.52,10.00,5.00,0.00,29.74,1005.20,10.00,M,BKN,M,M,M,11000.00,M,M,M,M,M,M,M,M,M,M,28.77,KTPH 210756Z AUTO 01005KT 10SM BKN110 01/M08 A2974 RMK AO2 SLP052 T00111078 401330006,M
HND,2023-03-21 07:56,-115.1344,35.9729,742.79,54.00,35.00,48.65,0.00,0.00,0.00,29.77,1008.70,10.00,M,CLR,M,M,M,M,M,M,M,M,M,M,M,M,M,M,54.00,KHND 210756Z AUTO 00000KT 10SM CLR 12/02 A2977 RMK AO2 SLP087 T01220017,M
LAS,2023-03-21 07:56,-115.1634,36.0719,663.00,53.00,38.00,56.17,340.00,5.00,0.00,29.75,1006.30,10.00,M,FEW,BKN,M,M,11000.00,16000.00,M,M,M,M,M,M,M,M,M,53.10,KLAS 210756Z 34005KT 10SM FEW110 BKN160 12/03 A2975 RMK AO2 SLP063 T01170033 401890100,M
BVU,2023-03-21 08:15,-114.8611,35.9475,671.00,57.20,37.40,47.44,0.00,0.00,0.00,29.74,M,10.00,M,SCT,SCT,M,M,8000.00,12000.00,M,M,M,M,M,M,M,M,M,57.20,KBVU 210815Z AUTO 00000KT 10SM SCT080 SCT120 14/03 A2974 RMK AO2,M
CXP,2023-03-21 08:15,-119.7326,39.1923,1431.00,32.00,24.80,74.44,0.00,0.00,0.00,29.75,M,10.00,M,FEW,M,M,M,11000.00,M,M,M,M,M,M,M,M,M,M,32.00,KCXP 210815Z AUTO 00000KT 10SM FEW110 00/M04 A2975 RMK AO2,M
RTS,2023-03-21 08:15,-119.8764,39.6682,1539.00,24.80,19.40,79.62,280.00,4.00,0.00,29.74,M,10.00,M,CLR,M,M,M,M,M,M,M,M,M,M,M,M,M,M,19.01,KRTS 210815Z AUTO 28004KT 10SM CLR M04/M07 A2974 RMK AO2,M
05U,2023-03-21 08:15,-116.0051,39.6042,1811.23,24.80,23.00,92.74,190.00,4.00,0.00,29.78,M,10.00,M,CLR,M,M,M,M,M,M,M,M,M,M,M,M,M,M,19.01,K05U 210815Z AUTO 19004KT 10SM CLR M04/M05 A2978 RMK A01,M
MEV,2023-03-21 08:15,-119.7500,38.9963,1441.42,30.20,26.60,86.28,210.00,3.00,0.00,29.73,M,10.00,M,OVC,M,M,M,10000.00,M,M,M,M,M,M,M,M,M,M,26.63,KMEV 210815Z AUTO 21003KT 10SM OVC100 M01/M03 A2973 RMK AO2,M
BAM,2023-03-21 08:15,-116.8743,40.5990,1382.36,30.20,23.00,74.26,10.00,3.00,0.00,29.79,M,10.00,M,CLR,M,M,M,M,M,M,M,M,M,M,M,M,M,M,26.63,KBAM 210815Z AUTO 01003KT 10SM CLR M01/M05 A2979 RMK AO1,M
HTH,2023-03-21 08:15,-118.6315,38.5448,1282.89,41.00,23.00,48.39,10.00,6.00,0.00,29.72,M,10.00,M,FEW,SCT,M,M,7500.00,9000.00,M,M,M,M,M,M,M,M,M,36.37,KHTH 210815Z AUTO 01006KT 10SM FEW075 SCT090 05/M05 A2972 RMK A01,M
TMT,2023-03-21 08:15,-117.1971,39.4643,1749.34,25.30,23.70,93.54,130.00,4.00,0.00,29.76,M,10.00,M,CLR,M,M,M,M,M,M,M,M,M,M,M,M,M,M,19.60,KTMT 210815Z AUTO 13004KT 10SM CLR M04/M05 A2976 RMK AO2 T10371046,M
05U,2023-03-21 08:30,-116.0051,39.6042,1811.23,24.80,23.00,92.74,M,3.00,0.00,29.78,M,10.00,M,CLR,M,M,M,M,M,M,M,M,M,M,M,M,M,M,20.46,K05U 210830Z AUTO VRB03KT 10SM CLR M04/M05 A2978 RMK A01,M
BVU,2023-03-21 08:35,-114.8611,35.9475,671.00,57.20,37.40,47.44,0.00,0.00,0.00,29.73,M,10.00,M,SCT,OVC,M,M,8000.00,11000.00,M,M,M,M,M,M,M,M,M,57.20,KBVU 210835Z AUTO 00000KT 10SM SCT080 OVC110 14/03 A2973 RMK AO2,M
CXP,2023-03-21 08:35,-119.7326,39.1923,1431.00,32.00,24.80,74.44,0.00,0.00,0.00,29.74,M,10.00,M,BKN,M,M,M,10000.00,M,M,M,M,M,M,M,M,M,M,32.00,KCXP 210835Z AUTO 00000KT 10SM BKN100 M00/M04 A2974 RMK AO2,M
RTS,2023-03-21 08:35,-119.8764,39.6682,1539.00,24.80,21.20,85.96,0.00,0.00,0.00,29.73,M,10.00,M,CLR,M,M,M,M,M,M,M,M,M,M,M,M,M,M,24.80,KRTS 210835Z AUTO 00000KT 10SM CLR M04/M06 A2973 RMK AO2,M
MEV,2023-03-21 08:35,-119.7500,38.9963,1441.42,32.00,24.80,74.44,0.00,0.00,0.00,29.72,M,10.00,M,BKN,M,M,M,9500.00,M,M,M,M,M,M,M,M,M,M,32.00,KMEV 210835Z AUTO 00000KT 10SM BKN095 M00/M04 A2972 RMK AO2,M
BAM,2023-03-21 08:35,-116.8743,40.5990,1382.36,30.20,23.00,74.26,10.00,3.00,0.00,29.78,M,10.00,M,CLR,M,M,M,M,M,M,M,M,M,M,M,M,M,M,26.63,KBAM 210835Z AUTO 01003KT 10SM CLR M01/M05 A2978 RMK AO1,M
HTH,2023-03-21 08:35,-118.6315,38.5448,1282.89,41.00,17.60,38.45,340.00,4.00,0.00,29.72,M,10.00,M,BKN,M,M,M,7000.00,M,M,M,M,M,M,M,M,M,M,37.93,KHTH 210835Z AUTO 34004KT 10SM BKN070 05/M08 A2972 RMK A01,M
TMT,2023-03-21 08:35,-117.1971,39.4643,1749.34,25.70,22.80,88.59,0.00,0.00,0.00,29.76,M,10.00,M,CLR,M,M,M,M,M,M,M,M,M,M,M,M,M,M,25.70,KTMT 210835Z AUTO 00000KT 10SM CLR M03/M05 A2976 RMK AO2 T10351051,M
P68,2023-03-21 08:53,-116.0056,39.6014,1993.00,25.00,21.00,84.53,180.00,3.00,0.00,29.75,1006.30,M,M,M,M,M,M,M,M,M,M,M,M,M,M,M,M,M,20.69,KP68 210853Z AUTO 18003KT M04/M06 A2975 RMK AO1 SLP063 T10391061 58005,M
DRA,2023-03-21 08:53,-116.0278,36.6206,1009.00,47.00,37.00,68.27,330.00,3.00,0.00,29.69,1003.10,10.00,M,CLR,M,M,M,M,M,M,M,M,M,M,M,M,M,M,45.72,KDRA 210853Z AUTO 33003KT 10SM CLR 08/03 A2969 RMK AO2 SLP031 T00830028 58016,M
ELY,2023-03-21 08:53,-114.8453,39.2950,1909.00,19.00,12.90,76.72,170.00,7.00,0.00,29.76,1007.80,10.00,M,CLR,M,M,M,M,M,M,M,M,M,M,M,M,M,M,8.93,KELY 210853Z AUTO 17007KT 10SM CLR M07/M11 A2976 RMK AO2 SLP078 T10721106 58003 $,M
LOL,2023-03-21 08:53,-118.5701,40.0684,1192.43,30.00,19.00,63.18,340.00,6.00,0.00,29.75,1007.40,10.00,M,CLR,M,M,M,M,M,M,M,M,M,M,M,M,M,M,23.12,KLOL 210853Z AUTO 34006KT 10SM CLR M01/M07 A2975 RMK AO2 SLP074 T10111072 55002,M
VGT,2023-03-21 08:53,-115.1933,36.2111,667.00,54.00,38.00,54.34,160.00,4.00,0.00,29.71,1007.00,10.00,M,FEW,M,M,M,7000.00,M,M,M,M,M,M,M,M,M,M,54.00,KVGT 210853Z AUTO 16004KT 10SM FEW070 12/03 A2971 RMK AO2 SLP070 T01220033 58012,M
BVU,2023-03-21 08:55,-114.8611,35.9475,671.00,57.20,37.40,47.44,110.00,6.00,0.00,29.72,M,10.00,M,SCT,BKN,OVC,M,7500.00,9000.00,11000.00,M,M,M,M,M,M,M,M,57.20,KBVU 210855Z AUTO 11006KT 10SM SCT075 BKN090 OVC110 14/03 A2972 RMK AO2,M
CXP,2023-03-21 08:55,-119.7326,39.1923,1431.00,32.00,24.80,74.44,0.00,0.00,0.00,29.73,M,10.00,M,SCT,M,M,M,10000.00,M,M,M,M,M,M,M,M,M,M,32.00,KCXP 210855Z AUTO 00000KT 10SM SCT100 M00/M04 A2973 RMK AO2,M
INS,2023-03-21 08:55,-115.6733,36.5872,955.00,45.00,34.70,66.98,340.00,3.00,0.00,29.70,1003.50,10.00,M,FEW,M,M,M,15000.00,M,M,M,M,M,M,M,M,M,M,43.55,KINS 210855Z AUTO 34003KT 10SM FEW150 07/02 A2970 RMK AO2 SLP035 T00720015 56019 $,M
RTS,2023-03-21 08:55,-119.8764,39.6682,1539.00,24.80,21.20,85.96,0.00,0.00,0.00,29.73,M,10.00,M,CLR,M,M,M,M,M,M,M,M,M,M,M,M,M,M,24.80,KRTS 210855Z AUTO 00000KT 10SM CLR M04/M06 A2973 RMK AO2,M
05U,2023-03-21 08:55,-116.0051,39.6042,1811.23,24.80,21.20,85.96,0.00,0.00,0.00,29.78,M,10.00,M,FEW,FEW,M,M,10000.00,12000.00,M,M,M,M,M,M,M,M,M,24.80,K05U 210855Z AUTO 00000KT 10SM FEW100 FEW120 M04/M06 A2978 RMK A01,M
MEV,2023-03-21 08:55,-119.7500,38.9963,1441.42,28.40,24.80,86.18,100.00,4.00,0.00,29.72,M,10.00,M,CLR,M,M,M,M,M,M,M,M,M,M,M,M,M,M,23.22,KMEV 210855Z AUTO 10004KT 10SM CLR M02/M04 A2972 RMK AO2,M
BAM,2023-03-21 08:55,-116.8743,40.5990,1382.36,28.40,23.00,79.92,0.00,0.00,0.00,29.78,M,10.00,M,CLR,M,M,M,M,M,M,M,M,M,M,M,M,M,M,28.40,KBAM 210855Z AUTO 00000KT 10SM CLR M02/M05 A2978 RMK AO1,M
HTH,2023-03-21 08:55,-118.6315,38.5448,1282.89,41.00,21.20,44.85,290.00,4.00,0.00,29.71,M,10.00,M,BKN,OVC,M,M,6500.00,7500.00,M,M,M,M,M,M,M,M,M,37.93,KHTH 210855Z AUTO 29004KT 10SM BKN065 OVC075 05/M06 A2971 RMK A01,M
TMT,2023-03-21 08:55,-117.1971,39.4643,1749.34,26.40,23.70,89.37,0.00,0.00,0.00,29.75,M,10.00,M,BKN,M,M,M,9000.00,M,M,M,M,M,M,M,M,M,M,26.40,KTMT 210855Z AUTO 00000KT 10SM BKN090 M03/M05 A2975 RMK AO2 T10311046,M
LSV,2023-03-21 08:55,-115.0343,36.2362,570.00,52.30,40.00,63.03,80.00,11.00,0.00,29.70,1004.80,10.00,M,CLR,M,M,M,M,M,M,M,M,M,M,M,M,M,M,52.30,KLSV 210855Z AUTO 08011KT 10SM CLR 11/05 A2970 RMK AO2 SLP048 T01130045 55012 $,M
RNO,2023-03-21 08:55,-119.7711,39.4839,1341.00,33.00,21.00,60.71,270.00,3.00,0.00,29.73,1005.60,10.00,M,FEW,M,M,M,22000.00,M,M,M,M,M,M,M,M,M,M,29.95,KRNO 210855Z 27003KT 10SM FEW220 01/M06 A2973 RMK AO2 SLP056 T00061061 58007,M
EKO,2023-03-21 08:56,-115.7860,40.8242,1367.00,26.10,18.00,71.04,60.00,3.00,0.00,29.77,1009.20,10.00,M,CLR,M,M,M,M,M,M,M,M,M,M,M,M,M,M,21.94,KEKO 210856Z AUTO 06003KT 10SM CLR M03/M08 A2977 RMK AO2 SLP092 T10331078 55002,M
WMC,2023-03-21 08:56,-117.8072,40.9019,1315.00,25.00,19.00,77.62,160.00,3.00,0.00,29.76,1008.40,10.00,M,CLR,M,M,M,M,M,M,M,M,M,M,M,M,M,M,20.69,KWMC 210856Z AUTO 16003KT 10SM CLR M04/M07 A2976 RMK AO2 SLP084 T10391072 58003,M
TPH,2023-03-21 08:56,-117.0904,38.0505,1654.00,34.00,19.00,53.77,350.00,8.00,0.00,29.71,1004.40,10.00,M,BKN,OVC,M,M,9000.00,12000.00,M,M,M,M,M,M,M,M,M,26.58,KTPH 210856Z AUTO 35008KT 10SM BKN090 OVC120 01/M07 A2971 RMK AO2 SLP044 T00111072 58014,M
HND,2023-03-21 08:56,-115.1344,35.9729,742.79,52.00,38.00,58.48,0.00,0.00,0.00,29.74,1007.90,10.00,M,OVC,M,M,M,11000.00,M,M,M,M,M,M,M,M,M,M,52.00,KHND 210856Z AUTO 00000KT 10SM OVC110 11/03 A2974 RMK AO2 SLP079 T01110033 58010,M
NFL,2023-03-21 08:56,-118.7010,39.4166,1199.00,35.00,25.00,66.31,320.00,6.00,0.00,29.73,1004.70,10.00,M,BKN,M,M,M,12000.00,M,M,M,M,M,M,M,M,M,M,29.26,KNFL 210856Z AUTO 32006KT 10SM BKN120 02/M04 A2973 RMK AO2 SLP047 T00171039 56006,M
LAS,2023-03-21 08:56,-115.1634,36.0719,663.00,53.00,38.00,56.17,40.00,3.00,0.00,29.72,1005.50,10.00,M,OVC,M,M,M,15000.00,M,M,M,M,M,M,M,M,M,M,53.10,KLAS 210856Z 04003KT 10SM OVC150 12/03 A2972 RMK AO2 SLP055 T01170033 58009,M
05U,2023-03-21 09:10,-116.0051,39.6042,1811.23,24.80,23.00,92.74,0.00,0.00,0.00,29.77,M,10.00,M,BKN,M,M,M,10000.00,M,M,M,M,M,M,M,M,M,M,24.80,K05U 210910Z AUTO 00000KT 10SM BKN100 M04/M05 A2977 RMK A01,M
BVU,2023-03-21 09:15,-114.8611,35.9475,671.00,55.40,39.20,54.34,80.00,5.00,0.00,29.71,M,10.00,M,BKN,OVC,M,M,7500.00,9000.00,M,M,M,M,M,M,M,M,M,55.40,KBVU 210915Z AUTO 08005KT 10SM BKN075 OVC090 13/04 A2971 RMK AO2,M
CXP,2023-03-21 09:15,-119.7326,39.1923,1431.00,30.20,24.80,80.07,0.00,0.00,0.00,29.72,M,10.00,M,CLR,M,M,M,M,M,M,M,M,M,M,M,M,M,M,30.20,KCXP 210915Z AUTO 00000KT 10SM CLR M01/M04 A2972 RMK AO2,M
RTS,2023-03-21 09:15,-119.8764,39.6682,1539.00,24.80,21.20,85.96,320.00,4.00,0.00,29.72,M,10.00,M,CLR,M,M,M,M,M,M,M,M,M,M,M,M,M,M,19.01,KRTS 210915Z AUTO 32004KT 10SM CLR M04/M06 A2972 RMK AO2,M
MEV,2023-03-21 09:15,-119.7500,38.9963,1441.42,28.40,24.80,86.18,110.00,5.00,0.00,29.71,M,10.00,M,FEW,M,M,M,4400.00,M,M,M,M,M,M,M,M,M,M,22.12,KMEV 210915Z AUTO 11005KT 10SM FEW044 M02/M04 A2971 RMK AO2,M
BAM,2023-03-21 09:15,-116.8743,40.5990,1382.36,28.40,23.00,79.92,40.00,3.00,0.00,29.78,M,10.00,M,CLR,M,M,M,M,M,M,M,M,M,M,M,M,M,M,24.57,KBAM 210915Z AUTO 04003KT 10SM CLR M02/M05 A2978 RMK AO1,M
HTH,2023-03-21 09:15,-118.6315,38.5448,1282.89,41.00,21.20,44.85,270.00,5.00,0.00,29.70,M,10.00,M,BKN,OVC,M,M,7000.00,7500.00,M,M,M,M,M,M,M,M,M,37.08,KHTH 210915Z AUTO 27005KT 10SM BKN070 OVC075 05/M06 A2970 RMK A01,M
TMT,2023-03-21 09:15,-117.1971,39.4643,1749.34,26.40,23.20,87.52,0.00,0.00,0.00,29.75,M,10.00,M,BKN,M,M,M,9000.00,M,M,M,M,M,M,M,M,M,M,26.40,KTMT 210915Z AUTO 00000KT 10SM BKN090 M03/M05 A2975 RMK AO2 T10311049,M
05U,2023-03-21 09:30,-116.0051,39.6042,1811.23,24.80,23.00,92.74,0.00,0.00,0.00,29.77,M,10.00,M,BKN,M,M,M,10000.00,M,M,M,M,M,M,M,M,M,M,24.80,K05U 210930Z AUTO 00000KT 10SM BKN100 M04/M05 A2977 RMK A01,M
BVU,2023-03-21 09:35,-114.8611,35.9475,671.00,57.20,39.20,50.91,150.00,4.00,0.00,29.71,M,10.00,M,BKN,OVC,M,M,7000.00,9000.00,M,M,M,M,M,M,M,M,M,57.20,KBVU 210935Z AUTO 15004KT 10SM BKN070 OVC090 14/04 A2971 RMK AO2,M
CXP,2023-03-21 09:35,-119.7326,39.1923,1431.00,30.20,23.00,74.26,220.00,5.00,0.00,29.72,M,10.00,M,CLR,M,M,M,M,M,M,M,M,M,M,M,M,M,M,24.26,KCXP 210935Z AUTO 22005KT 10SM CLR M01/M05 A2972 RMK AO2,M
RTS,2023-03-21 09:35,-119.8764,39.6682,1539.00,26.60,21.20,79.77,0.00,0.00,0.00,29.71,M,10.00,M,CLR,M,M,M,M,M,M,M,M,M,M,M,M,M,M,26.60,KRTS 210935Z AUTO 00000KT 10SM CLR M03/M06 A2971 RMK AO2,M
MEV,2023-03-21 09:35,-119.7500,38.9963,1441.42,28.40,24.80,86.18,0.00,0.00,0.00,29.70,M,10.00,M,FEW,FEW,M,M,4400.00,7500.00,M,M,M,M,M,M,M,M,M,28.40,KMEV 210935Z AUTO 00000KT 10SM FEW044 FEW075 M02/M04 A2970 RMK AO2,M
BAM,2023-03-21 09:35,-116.8743,40.5990,1382.36,28.40,23.00,79.92,70.00,3.00,0.00,29.78,M,10.00,M,CLR,M,M,M,M,M,M,M,M,M,M,M,M,M,M,24.57,KBAM 210935Z AUTO 07003KT 10SM CLR M02/M05 A2978 RMK AO1,M
HTH,2023-03-21 09:35,-118.6315,38.5448,1282.89,41.00,23.00,48.39,300.00,5.00,0.00,29.70,M,10.00,M,OVC,M,M,M,7000.00,M,M,M,M,M,M,M,M,M,M,37.08,KHTH 210935Z AUTO 30005KT 10SM OVC070 05/M05 A2970 RMK A01,M
TMT,2023-03-21 09:35,-117.1971,39.4643,1749.34,26.40,24.40,92.02,0.00,0.00,0.00,29.74,M,10.00,M,SCT,M,M,M,9000.00,M,M,M,M,M,M,M,M,M,M,26.40,KTMT 210935Z AUTO 00000KT 10SM SCT090 M03/M04 A2974 RMK AO2 T10311042,M
05U,2023-03-21 09:50,-116.0051,39.6042,1811.23,24.80,21.20,85.96,M,M,0.00,29.76,M,10.00,M,FEW,M,M,M,10000.00,M,M,M,M,M,M,M,M,M,M,M,K05U 210950Z AUTO 10SM FEW100 M04/M06 A2976 RMK A01,M
P68,2023-03-21 09:53,-116.0056,39.6014,1993.00,26.10,21.00,80.75,0.00,0.00,0.00,29.73,1005.30,M,M,M,M,M,M,M,M,M,M,M,M,M,M,M,M,M,26.10,KP68 210953Z AUTO 00000KT M03/M06 A2973 RMK AO1 SLP053 T10331061,M
DRA,2023-03-21 09:53,-116.0278,36.6206,1009.00,46.00,37.00,70.64,20.00,4.00,0.00,29.68,1002.60,10.00,M,CLR,M,M,M,M,M,M,M,M,M,M,M,M,M,M,43.77,KDRA 210953Z AUTO 02004KT 10SM CLR 08/03 A2968 RMK AO2 SLP026 T00780028,M
ELY,2023-03-21 09:53,-114.8453,39.2950,1909.00,19.90,12.90,73.83,170.00,7.00,0.00,29.74,1007.10,10.00,M,CLR,M,M,M,M,M,M,M,M,M,M,M,M,M,M,10.03,KELY 210953Z AUTO 17007KT 10SM CLR M07/M11 A2974 RMK AO2 SLP071 T10671106 $,M
VGT,2023-03-21 09:53,-115.1933,36.2111,667.00,52.00,39.00,61.06,140.00,9.00,0.00,29.71,1006.70,10.00,M,SCT,M,M,M,11000.00,M,M,M,M,M,M,M,M,M,M,52.00,KVGT 210953Z AUTO 14009KT 10SM SCT110 11/04 A2971 RMK AO2 SLP067 T01110039,M
LOL,2023-03-21 09:53,-118.5701,40.0684,1192.43,27.00,18.00,68.45,160.00,5.00,0.00,29.72,1007.10,10.00,M,CLR,M,M,M,M,M,M,M,M,M,M,M,M,M,M,20.46,KLOL 210953Z AUTO 16005KT 10SM CLR M03/M08 A2972 RMK AO2 SLP071 T10281078,M
BVU,2023-03-21 09:55,-114.8611,35.9475,671.00,55.40,39.20,54.34,190.00,6.00,0.00,29.71,M,10.00,M,SCT,OVC,M,M,7500.00,11000.00,M,M,M,M,M,M,M,M,M,55.40,KBVU 210955Z AUTO 19006KT 10SM SCT075 OVC110 13/04 A2971 RMK AO2,M
CXP,2023-03-21 09:55,-119.7326,39.1923,1431.00,32.00,23.00,69.04,0.00,0.00,0.00,29.71,M,10.00,M,CLR,M,M,M,M,M,M,M,M,M,M,M,M,M,M,32.00,KCXP 210955Z AUTO 00000KT 10SM CLR 00/M05 A2971 RMK AO2,M
RNO,2023-03-21 09:55,-119.7711,39.4839,1341.00,32.00,21.00,63.45,290.00,3.00,0.00,29.71,1004.80,10.00,M,SCT,M,M,M,22000.00,M,M,M,M,M,M,M,M,M,M,28.69,KRNO 210955Z 29003KT 10SM SCT220 00/M06 A2971 RMK AO2 SLP048 T00001061,M
LSV,2023-03-21 09:55,-115.0343,36.2362,570.00,52.00,40.60,64.98,90.00,10.00,0.00,29.68,1004.00,10.00,M,BKN,BKN,M,M,6500.00,9000.00,M,M,M,M,M,M,M,M,M,52.00,KLSV 210955Z AUTO 09010KT 10SM BKN065 BKN090 11/05 A2968 RMK AO2 SLP040 T01110048 $,M
RTS,2023-03-21 09:55,-119.8764,39.6682,1539.00,26.60,21.20,79.77,0.00,0.00,0.00,29.70,M,10.00,M,CLR,M,M,M,M,M,M,M,M,M,M,M,M,M,M,26.60,KRTS 210955Z AUTO 00000KT 10SM CLR M03/M06 A2970 RMK AO2,M
MEV,2023-03-21 09:55,-119.7500,38.9963,1441.42,30.20,24.80,80.07,0.00,0.00,0.00,29.69,M,10.00,M,CLR,M,M,M,M,M,M,M,M,M,M,M,M,M,M,30.20,KMEV 210955Z AUTO 00000KT 10SM CLR M01/M04 A2969 RMK AO2,M
BAM,2023-03-21 09:55,-116.8743,40.5990,1382.36,28.40,21.20,74.08,60.00,5.00,0.00,29.78,M,10.00,M,CLR,M,M,M,M,M,M,M,M,M,M,M,M,M,M,22.12,KBAM 210955Z AUTO 06005KT 10SM CLR M02/M06 A2978 RMK AO1,M
HTH,2023-03-21 09:55,-118.6315,38.5448,1282.89,41.00,21.20,44.85,320.00,7.00,0.00,29.69,M,10.00,M,OVC,M,M,M,7000.00,M,M,M,M,M,M,M,M,M,M,35.75,KHTH 210955Z AUTO 32007KT 10SM OVC070 05/M06 A2969 RMK A01,M
TMT,2023-03-21 09:55,-117.1971,39.4643,1749.34,26.60,24.80,92.80,0.00,0.00,0.00,29.74,M,10.00,M,CLR,M,M,M,M,M,M,M,M,M,M,M,M,M,M,26.60,KTMT 210955Z AUTO 00000KT 10SM CLR M03/M04 A2974 RMK AO2 T10301040,M
INS,2023-03-21 09:55,-115.6733,36.5872,955.00,46.20,34.70,64.00,0.00,0.00,0.00,29.68,1002.80,10.00,M,FEW,M,M,M,13000.00,M,M,M,M,M,M,M,M,M,M,46.20,KINS 210955Z AUTO 00000KT 10SM FEW130 08/02 A2968 RMK AO2 SLP028 T00790015 $,M
EKO,2023-03-21 09:56,-115.7860,40.8242,1367.00,25.00,18.00,74.36,90.00,3.00,0.00,29.77,1009.70,10.00,M,CLR,M,M,M,M,M,M,M,M,M,M,M,M,M,M,20.69,KEKO 210956Z AUTO 09003KT 10SM CLR M04/M08 A2977 RMK AO2 SLP097 T10391078,M
WMC,2023-03-21 09:56,-117.8072,40.9019,1315.00,24.10,18.00,77.21,180.00,4.00,0.00,29.76,1008.00,10.00,M,CLR,M,M,M,M,M,M,M,M,M,M,M,M,M,M,18.19,KWMC 210956Z AUTO 18004KT 10SM CLR M04/M08 A2976 RMK AO2 SLP080 T10441078,M
HND,2023-03-21 09:56,-115.1344,35.9729,742.79,52.00,39.00,61.06,0.00,0.00,0.00,29.73,1007.50,10.00,M,SCT,OVC,M,M,6500.00,8000.00,M,M,M,M,M,M,M,M,M,52.00,KHND 210956Z AUTO 00000KT 10SM SCT065 OVC080 11/04 A2973 RMK AO2 SLP075 T01110039,M
TPH,2023-03-21 09:56,-117.0904,38.0505,1654.00,34.00,21.00,58.56,10.00,4.00,0.00,29.69,1003.40,10.00,M,SCT,OVC,M,M,6000.00,8500.00,M,M,M,M,M,M,M,M,M,29.76,KTPH 210956Z AUTO 01004KT 10SM SCT060 OVC085 01/M06 A2969 RMK AO2 SLP034 T00111061,M
LAS,2023-03-21 09:56,-115.1634,36.0719,663.00,52.00,38.00,58.48,0.00,0.00,0.00,29.71,1005.10,10.00,M,OVC,M,M,M,8500.00,M,M,M,M,M,M,M,M,M,M,52.00,KLAS 210956Z 00000KT 10SM OVC085 11/03 A2971 RMK AO2 SLP051 MTNS OBSCURED DSNT W T01110033,M
NFL,2023-03-21 09:56,-118.7010,39.4166,1199.00,33.00,24.10,69.17,360.00,5.00,0.00,29.71,1004.10,10.00,M,CLR,M,M,M,M,M,M,M,M,M,M,M,M,M,M,27.70,KNFL 210956Z AUTO 36005KT 10SM CLR 01/M04 A2971 RMK AO2 SLP041 T00061044,M
05U,2023-03-21 10:10,-116.0051,39.6042,1811.23,24.80,23.00,92.74,40.00,3.00,0.00,29.76,M,10.00,M,CLR,M,M,M,M,M,M,M,M,M,M,M,M,M,M,20.46,K05U 211010Z AUTO 04003KT 10SM CLR M04/M05 A2976 RMK A01,M
BVU,2023-03-21 10:15,-114.8611,35.9475,671.00,55.40,37.40,50.64,200.00,7.00,0.00,29.71,M,10.00,M,SCT,BKN,OVC,M,6500.00,7500.00,10000.00,M,M,M,M,M,M,M,M,55.40,KBVU 211015Z AUTO 20007KT 10SM SCT065 BKN075 OVC100 13/03 A2971 RMK AO2,M
CXP,2023-03-21 10:15,-119.7326,39.1923,1431.00,30.20,23.00,74.26,0.00,0.00,0.00,29.70,M,10.00,M,CLR,M,M,M,M,M,M,M,M,M,M,M,M,M,M,30.20,KCXP 211015Z AUTO 00000KT 10SM CLR M01/M05 A2970 RMK AO2,M
RTS,2023-03-21 10:15,-119.8764,39.6682,1539.00,26.60,21.20,79.77,0.00,0.00,0.00,29.70,M,10.00,M,CLR,M,M,M,M,M,M,M,M,M,M,M,M,M,M,26.60,KRTS 211015Z AUTO 00000KT 10SM CLR M03/M06 A2970 RMK AO2,M
MEV,2023-03-21 10:15,-119.7500,38.9963,1441.42,30.20,24.80,80.07,150.00,3.00,0.00,29.69,M,10.00,M,FEW,FEW,M,M,5000.00,6000.00,M,M,M,M,M,M,M,M,M,26.63,KMEV 211015Z AUTO 15003KT 10SM FEW050 FEW060 M01/M04 A2969 RMK AO2,M
BAM,2023-03-21 10:15,-116.8743,40.5990,1382.36,28.40,23.00,79.92,60.00,4.00,0.00,29.77,M,10.00,M,CLR,M,M,M,M,M,M,M,M,M,M,M,M,M,M,23.22,KBAM 211015Z AUTO 06004KT 10SM CLR M02/M05 A2977 RMK AO1,M
HTH,2023-03-21 10:15,-118.6315,38.5448,1282.89,41.00,19.40,41.54,320.00,7.00,0.00,29.68,M,10.00,M,OVC,M,M,M,7000.00,M,M,M,M,M,M,M,M,M,M,35.75,KHTH 211015Z AUTO 32007KT 10SM OVC070 05/M07 A2968 RMK A01,M
TMT,2023-03-21 10:15,-117.1971,39.4643,1749.34,26.60,24.30,90.89,210.00,4.00,0.00,29.73,M,10.00,M,CLR,M,M,M,M,M,M,M,M,M,M,M,M,M,M,21.11,KTMT 211015Z AUTO 21004KT 10SM CLR M03/M04 A2973 RMK AO2 T10301043,M
LSV,2023-03-21 10:21,-115.0343,36.2362,570.00,51.80,41.00,66.48,90.00,9.00,0.00,29.69,1004.30,10.00,M,SCT,BKN,M,M,4000.00,6500.00,M,M,-RA,M,M,M,M,M,M,51.80,KLSV 211021Z AUTO 09009KT 10SM -RA SCT040 BKN065 11/05 A2969 RMK AO2 RAB21 SLP043 $,M
05U,2023-03-21 10:30,-116.0051,39.6042,1811.23,24.80,23.00,92.74,0.00,0.00,0.00,29.75,M,10.00,M,CLR,M,M,M,M,M,M,M,M,M,M,M,M,M,M,24.80,K05U 211030Z AUTO 00000KT 10SM CLR M04/M05 A2975 RMK A01,M
BVU,2023-03-21 10:35,-114.8611,35.9475,671.00,57.20,35.60,44.19,190.00,9.00,0.00,29.72,M,10.00,18.00,SCT,BKN,OVC,M,3500.00,4600.00,7500.00,M,M,M,M,M,M,M,M,57.20,KBVU 211035Z AUTO 19009G18KT 10SM SCT035 BKN046 OVC075 14/02 A2972 RMK AO2,M
CXP,2023-03-21 10:35,-119.7326,39.1923,1431.00,32.00,23.00,69.04,0.00,0.00,0.00,29.70,M,10.00,M,CLR,M,M,M,M,M,M,M,M,M,M,M,M,M,M,32.00,KCXP 211035Z AUTO 00000KT 10SM CLR M00/M05 A2970 RMK AO2,M
RTS,2023-03-21 10:35,-119.8764,39.6682,1539.00,24.80,21.20,85.96,330.00,3.00,0.00,29.69,M,10.00,M,CLR,M,M,M,M,M,M,M,M,M,M,M,M,M,M,20.46,KRTS 211035Z AUTO 33003KT 10SM CLR M04/M06 A2969 RMK AO2,M
MEV,2023-03-21 10:35,-119.7500,38.9963,1441.42,28.40,24.80,86.18,0.00,0.00,0.00,29.68,M,10.00,M,CLR,M,M,M,M,M,M,M,M,M,M,M,M,M,M,28.40,KMEV 211035Z AUTO 00000KT 10SM CLR M02/M04 A2968 RMK AO2,M
BAM,2023-03-21 10:35,-116.8743,40.5990,1382.36,28.40,23.00,79.92,0.00,0.00,0.00,29.77,M,10.00,M,CLR,M,M,M,M,M,M,M,M,M,M,M,M,M,M,28.40,KBAM 211035Z AUTO 00000KT 10SM CLR M02/M05 A2977 RMK AO1,M
HTH,2023-03-21 10:35,-118.6315,38.5448,1282.89,41.00,19.40,41.54,300.00,5.00,0.00,29.67,M,10.00,M,OVC,M,M,M,7000.00,M,M,M,M,M,M,M,M,M,M,37.08,KHTH 211035Z AUTO 30005KT 10SM OVC070 05/M07 A2967 RMK A01,M
TMT,2023-03-21 10:35,-117.1971,39.4643,1749.34,26.80,24.40,90.52,0.00,0.00,0.00,29.72,M,10.00,M,SCT,M,M,M,9500.00,M,M,M,M,M,M,M,M,M,M,26.80,KTMT 211035Z AUTO 00000KT 10SM SCT095 M03/M04 A2972 RMK AO2 T10291042,M
HND,2023-03-21 10:41,-115.1344,35.9729,742.79,51.80,41.00,66.48,190.00,15.00,T,29.73,M,10.00,M,OVC,M,M,M,5000.00,M,M,M,-RA,M,M,M,M,M,M,51.80,KHND 211041Z AUTO 19015KT 10SM -RA OVC050 11/05 A2973 RMK AO2 WSHFT 1021 RAB17 P0000,M
05U,2023-03-21 10:50,-116.0051,39.6042,1811.23,24.80,23.00,92.74,0.00,0.00,0.00,29.75,M,10.00,M,CLR,M,M,M,M,M,M,M,M,M,M,M,M,M,M,24.80,K05U 211050Z AUTO 00000KT 10SM CLR M04/M05 A2975 RMK A01,M
P68,2023-03-21 10:53,-116.0056,39.6014,1993.00,25.00,21.90,87.81,140.00,4.00,0.00,29.73,1005.40,M,M,M,M,M,M,M,M,M,M,M,M,M,M,M,M,M,19.25,KP68 211053Z AUTO 14004KT M04/M06 A2973 RMK AO1 SLP054 T10391056,M
ELY,2023-03-21 10:53,-114.8453,39.2950,1909.00,19.90,12.90,73.83,190.00,8.00,0.00,29.73,1006.40,10.00,M,CLR,M,M,M,M,M,M,M,M,M,M,M,M,M,M,9.21,KELY 211053Z AUTO 19008KT 10SM CLR M07/M11 A2973 RMK AO2 SLP064 T10671106 $,M
VGT,2023-03-21 10:53,-115.1933,36.2111,667.00,52.00,41.00,66.00,150.00,6.00,T,29.70,1006.50,10.00,M,BKN,OVC,M,M,6000.00,7000.00,M,M,M,M,M,M,M,M,M,52.00,KVGT 211053Z AUTO 15006KT 10SM BKN060 OVC070 11/05 A2970 RMK AO2 RAB41E53 SLP065 P0000 T01110050,M
LOL,2023-03-21 10:53,-118.5701,40.0684,1192.43,28.90,19.00,66.08,10.00,6.00,0.00,29.70,1006.10,10.00,M,CLR,M,M,M,M,M,M,M,M,M,M,M,M,M,M,21.80,KLOL 211053Z AUTO 01006KT 10SM CLR M02/M07 A2970 RMK AO2 SLP061 T10171072,M
DRA,2023-03-21 10:53,-116.0278,36.6206,1009.00,47.00,36.00,65.63,60.00,3.00,0.00,29.65,1001.70,10.00,M,BKN,M,M,M,11000.00,M,M,M,M,M,M,M,M,M,M,45.72,KDRA 211053Z AUTO 06003KT 10SM BKN110 08/02 A2965 RMK AO2 SLP017 T00830022,M
BVU,2023-03-21 10:55,-114.8611,35.9475,671.00,53.60,41.00,62.23,180.00,11.00,0.00,29.72,M,10.00,19.00,SCT,BKN,OVC,M,3200.00,4400.00,5000.00,M,M,M,M,M,M,M,M,53.60,KBVU 211055Z AUTO 18011G19KT 10SM SCT032 BKN044 OVC050 12/05 A2972 RMK AO2,M
CXP,2023-03-21 10:55,-119.7326,39.1923,1431.00,32.00,23.00,69.04,0.00,0.00,0.00,29.69,M,10.00,M,CLR,M,M,M,M,M,M,M,M,M,M,M,M,M,M,32.00,KCXP 211055Z AUTO 00000KT 10SM CLR 00/M05 A2969 RMK AO2,M
RNO,2023-03-21 10:55,-119.7711,39.4839,1341.00,32.00,21.00,63.45,0.00,0.00,0.00,29.68,1003.90,10.00,M,CLR,M,M,M,M,M,M,M,M,M,M,M,M,M,M,32.00,KRNO 211055Z 00000KT 10SM CLR 00/M06 A2968 RMK AO2 SLP039 T00001061,M
RTS,2023-03-21 10:55,-119.8764,39.6682,1539.00,24.80,19.40,79.62,0.00,0.00,0.00,29.69,M,10.00,M,CLR,M,M,M,M,M,M,M,M,M,M,M,M,M,M,24.80,KRTS 211055Z AUTO 00000KT 10SM CLR M04/M07 A2969 RMK AO2,M
MEV,2023-03-21 10:55,-119.7500,38.9963,1441.42,26.60,24.80,92.80,0.00,0.00,0.00,29.67,M,10.00,M,FEW,M,M,M,6000.00,M,M,M,M,M,M,M,M,M,M,26.60,KMEV 211055Z AUTO 00000KT 10SM FEW060 M03/M04 A2967 RMK AO2,M
BAM,2023-03-21 10:55,-116.8743,40.5990,1382.36,28.40,21.20,74.08,70.00,3.00,0.00,29.76,M,10.00,M,CLR,M,M,M,M,M,M,M,M,M,M,M,M,M,M,24.57,KBAM 211055Z AUTO 07003KT 10SM CLR M02/M06 A2976 RMK AO1,M
HTH,2023-03-21 10:55,-118.6315,38.5448,1282.89,41.00,19.40,41.54,300.00,6.00,0.00,29.66,M,10.00,M,OVC,M,M,M,7000.00,M,M,M,M,M,M,M,M,M,M,36.37,KHTH 211055Z AUTO 30006KT 10SM OVC070 05/M07 A2966 RMK A01,M
TMT,2023-03-21 10:55,-117.1971,39.4643,1749.34,27.00,24.40,89.77,0.00,0.00,0.00,29.71,M,10.00,M,SCT,M,M,M,9500.00,M,M,M,M,M,M,M,M,M,M,27.00,KTMT 211055Z AUTO 00000KT 10SM SCT095 M03/M04 A2971 RMK AO2 T10281042,M
INS,2023-03-21 10:55,-115.6733,36.5872,955.00,45.30,34.70,66.22,300.00,4.00,0.00,29.65,1001.80,10.00,M,OVC,M,M,M,10000.00,M,M,M,M,M,M,M,M,M,M,42.95,KINS 211055Z AUTO 30004KT 10SM OVC100 07/02 A2965 RMK AO2 SLP018 T00740015 $,M
LSV,2023-03-21 10:55,-115.0343,36.2362,570.00,50.70,42.40,73.09,80.00,9.00,T,29.68,1004.00,10.00,M,FEW,FEW,M,M,3000.00,5500.00,M,M,-RA,M,M,M,M,M,M,50.70,KLSV 211055Z AUTO 08009KT 10SM -RA FEW030 FEW055 10/06 A2968 RMK AO2 RAB21 SLP040 P0000 T01040058 $,M
EKO,2023-03-21 10:56,-115.7860,40.8242,1367.00,24.10,19.00,80.59,90.00,5.00,0.00,29.76,1009.50,10.00,M,CLR,M,M,M,M,M,M,M,M,M,M,M,M,M,M,17.01,KEKO 211056Z AUTO 09005KT 10SM CLR M04/M07 A2976 RMK AO2 SLP095 T10441072,M
WMC,2023-03-21 10:56,-117.8072,40.9019,1315.00,21.90,17.10,81.46,110.00,4.00,0.00,29.74,1007.60,10.00,M,CLR,M,M,M,M,M,M,M,M,M,M,M,M,M,M,15.63,KWMC 211056Z AUTO 11004KT 10SM CLR M06/M08 A2974 RMK AO2 SLP076 T10561083,M
NFL,2023-03-21 10:56,-118.7010,39.4166,1199.00,32.00,23.00,69.04,20.00,7.00,0.00,29.68,1003.20,10.00,M,CLR,M,M,M,M,M,M,M,M,M,M,M,M,M,M,24.78,KNFL 211056Z AUTO 02007KT 10SM CLR 00/M05 A2968 RMK AO2 SLP032 T00001050,M
HND,2023-03-21 10:56,-115.1344,35.9729,742.79,50.00,42.00,74.15,200.00,14.00,T,29.73,1007.60,10.00,M,OVC,M,M,M,5000.00,M,M,M,-RA,M,M,M,M,M,M,50.00,KHND 211056Z AUTO 20014KT 10SM -RA OVC050 10/06 A2973 RMK AO2 WSHFT 1021 RAB17 SLP076 P0000 T01000056,M
LAS,2023-03-21 10:56,-115.1634,36.0719,663.00,52.00,40.00,63.24,180.00,7.00,0.00,29.71,1005.00,10.00,M,OVC,M,M,M,5500.00,M,M,M,M,M,M,M,M,M,M,52.00,KLAS 211056Z 18007KT 10SM OVC055 11/04 A2971 RMK AO2 SLP050 MTNS OBSCURED DSNT W T01110044,M
TPH,2023-03-21 10:56,-117.0904,38.0505,1654.00,35.00,21.90,58.22,350.00,5.00,0.00,29.68,1002.80,10.00,M,BKN,OVC,M,M,4800.00,6000.00,M,M,M,M,M,M,M,M,M,30.08,KTPH 211056Z AUTO 35005KT 10SM BKN048 OVC060 02/M06 A2968 RMK AO2 SLP028 T00171056,M
05U,2023-03-21 11:10,-116.0051,39.6042,1811.23,24.80,23.00,92.74,0.00,0.00,0.00,29.74,M,10.00,M,BKN,M,M,M,9500.00,M,M,M,M,M,M,M,M,M,M,24.80,K05U 211110Z AUTO 00000KT 10SM BKN095 M04/M05 A2974 RMK A01,M
BVU,2023-03-21 11:15,-114.8611,35.9475,671.00,51.80,44.60,76.34,200.00,6.00,0.00,29.72,M,4.00,M,BKN,OVC,M,M,3300.00,4300.00,M,M,-RA,M,M,M,M,M,M,51.80,KBVU 211115Z AUTO 20006KT 4SM -RA BKN033 OVC043 11/07 A2972 RMK AO2,M
CXP,2023-03-21 11:15,-119.7326,39.1923,1431.00,32.00,24.80,74.44,0.00,0.00,0.00,29.68,M,10.00,M,CLR,M,M,M,M,M,M,M,M,M,M,M,M,M,M,32.00,KCXP 211115Z AUTO 00000KT 10SM CLR M00/M04 A2968 RMK AO2,M
RTS,2023-03-21 11:15,-119.8764,39.6682,1539.00,24.80,21.20,85.96,360.00,3.00,0.00,29.68,M,10.00,M,CLR,M,M,M,M,M,M,M,M,M,M,M,M,M,M,20.46,KRTS 211115Z AUTO 36003KT 10SM CLR M04/M06 A2968 RMK AO2,M
MEV,2023-03-21 11:15,-119.7500,38.9963,1441.42,26.60,24.80,92.80,130.00,5.00,0.00,29.66,M,10.00,M,CLR,M,M,M,M,M,M,M,M,M,M,M,M,M,M,19.98,KMEV 211115Z AUTO 13005KT 10SM CLR M03/M04 A2966 RMK AO2,M
BAM,2023-03-21 11:15,-116.8743,40.5990,1382.36,26.60,21.20,79.77,60.00,5.00,0.00,29.76,M,10.00,M,CLR,M,M,M,M,M,M,M,M,M,M,M,M,M,M,19.98,KBAM 211115Z AUTO 06005KT 10SM CLR M03/M06 A2976 RMK AO1,M
HTH,2023-03-21 11:15,-118.6315,38.5448,1282.89,41.00,17.60,38.45,320.00,7.00,0.00,29.65,M,10.00,M,OVC,M,M,M,7000.00,M,M,M,M,M,M,M,M,M,M,35.75,KHTH 211115Z AUTO 32007KT 10SM OVC070 05/M08 A2965 RMK A01,M
TMT,2023-03-21 11:15,-117.1971,39.4643,1749.34,27.50,24.30,87.57,0.00,0.00,0.00,29.71,M,10.00,M,CLR,M,M,M,M,M,M,M,M,M,M,M,M,M,M,27.50,KTMT 211115Z AUTO 00000KT 10SM CLR M02/M04 A2971 RMK AO2 T10251043,M
05U,2023-03-21 11:30,-116.0051,39.6042,1811.23,24.80,23.00,92.74,0.00,0.00,0.00,29.74,M,10.00,M,SCT,M,M,M,10000.00,M,M,M,M,M,M,M,M,M,M,24.80,K05U 211130Z AUTO 00000KT 10SM SCT100 M04/M05 A2974 RMK A01,M
BVU,2023-03-21 11:35,-114.8611,35.9475,671.00,50.00,44.60,81.61,210.00,5.00,0.00,29.71,M,4.00,M,BKN,OVC,M,M,3200.00,4000.00,M,M,-RA,M,M,M,M,M,M,50.00,KBVU 211135Z AUTO 21005KT 4SM -RA BKN032 OVC040 10/07 A2971 RMK AO2,M
CXP,2023-03-21 11:35,-119.7326,39.1923,1431.00,32.00,23.00,69.04,0.00,0.00,0.00,29.67,M,10.00,M,CLR,M,M,M,M,M,M,M,M,M,M,M,M,M,M,32.00,KCXP 211135Z AUTO 00000KT 10SM CLR 00/M05 A2967 RMK AO2,M
RTS,2023-03-21 11:35,-119.8764,39.6682,1539.00,26.60,21.20,79.77,0.00,0.00,0.00,29.67,M,10.00,M,CLR,M,M,M,M,M,M,M,M,M,M,M,M,M,M,26.60,KRTS 211135Z AUTO 00000KT 10SM CLR M03/M06 A2967 RMK AO2,M
MEV,2023-03-21 11:35,-119.7500,38.9963,1441.42,26.60,24.80,92.80,150.00,3.00,0.00,29.65,M,10.00,M,FEW,BKN,BKN,M,6500.00,7500.00,8500.00,M,M,M,M,M,M,M,M,22.52,KMEV 211135Z AUTO 15003KT 10SM FEW065 BKN075 BKN085 M03/M04 A2965 RMK AO2,M
BAM,2023-03-21 11:35,-116.8743,40.5990,1382.36,28.40,21.20,74.08,60.00,9.00,0.00,29.75,M,10.00,M,CLR,M,M,M,M,M,M,M,M,M,M,M,M,M,M,19.04,KBAM 211135Z AUTO 06009KT 10SM CLR M02/M06 A2975 RMK AO1,M
HTH,2023-03-21 11:35,-118.6315,38.5448,1282.89,41.00,21.20,44.85,360.00,5.00,0.00,29.65,M,10.00,M,OVC,M,M,M,7000.00,M,M,M,M,M,M,M,M,M,M,37.08,KHTH 211135Z AUTO 36005KT 10SM OVC070 05/M06 A2965 RMK A01,M
TMT,2023-03-21 11:35,-117.1971,39.4643,1749.34,26.40,23.50,88.62,0.00,0.00,0.00,29.70,M,10.00,M,CLR,M,M,M,M,M,M,M,M,M,M,M,M,M,M,26.40,KTMT 211135Z AUTO 00000KT 10SM CLR M03/M05 A2970 RMK AO2 T10311047,M
LSV,2023-03-21 11:45,-115.0343,36.2362,570.00,50.00,44.60,81.61,100.00,4.00,0.00,29.68,1004.00,10.00,M,BKN,M,M,M,4500.00,M,M,M,-RA,M,M,M,M,M,M,50.00,KLSV 211145Z AUTO 10004KT 10SM -RA BKN045 10/07 A2968 RMK AO2 SLP040 $,M
05U,2023-03-21 11:50,-116.0051,39.6042,1811.23,24.80,23.00,92.74,0.00,0.00,0.00,29.74,M,10.00,M,CLR,M,M,M,M,M,M,M,M,M,M,M,M,M,M,24.80,K05U 211150Z AUTO 00000KT 10SM CLR M04/M05 A2974 RMK A01,M
P68,2023-03-21 11:53,-116.0056,39.6014,1993.00,25.00,23.00,91.97,0.00,0.00,0.00,29.72,1005.10,M,M,M,M,M,M,M,M,M,M,M,M,M,M,M,M,M,25.00,KP68 211153Z AUTO 00000KT M04/M05 A2972 RMK AO1 SLP051 70002 T10391050 11022 21044 56010,M
ELY,2023-03-21 11:53,-114.8453,39.2950,1909.00,18.00,12.90,80.09,170.00,7.00,0.00,29.73,1006.50,M,M,CLR,M,M,M,M,M,M,M,M,M,M,M,M,M,M,7.71,KELY 211153Z AUTO 17007KT CLR M08/M11 A2973 RMK AO2 SLP065 70008 T10781106 11039 21078 56010 $,M
LOL,2023-03-21 11:53,-118.5701,40.0684,1192.43,30.90,19.00,60.92,30.00,11.00,0.00,29.68,1005.10,10.00,M,CLR,M,M,M,M,M,M,M,M,M,M,M,M,M,M,21.08,KLOL 211153Z AUTO 03011KT 10SM CLR M01/M07 A2968 RMK AO2 SLP051 T10061072 10028 21050 56020,M
DRA,2023-03-21 11:53,-116.0278,36.6206,1009.00,48.00,33.00,56.10,220.00,18.00,0.00,29.66,1002.00,10.00,29.00,OVC,M,M,M,9000.00,M,M,M,M,M,M,M,32.00,200.00,2023-03-21 11:29,40.81,KDRA 211153Z AUTO 22018G29KT 10SM OVC090 09/01 A2966 RMK AO2 PK WND 20032/1129 SLP020 T00890006 10100 20072 55010,M
VGT,2023-03-21 11:53,-115.1933,36.2111,667.00,51.00,42.00,71.19,180.00,8.00,T,29.69,1006.30,10.00,M,OVC,M,M,M,4500.00,M,M,M,-RA,M,M,M,M,M,M,51.10,KVGT 211153Z AUTO 18008KT 10SM -RA OVC045 11/06 A2969 RMK AO2 RAB04 SLP063 P0000 60000 T01060056 10133 20106 56007,M
BVU,2023-03-21 11:55,-114.8611,35.9475,671.00,50.00,46.40,87.37,150.00,4.00,0.00,29.72,M,5.00,M,FEW,SCT,BKN,M,1800.00,2300.00,2700.00,M,RA,M,M,M,M,M,M,50.00,KBVU 211155Z AUTO 15004KT 5SM RA FEW018 SCT023 BKN027 10/08 A2972 RMK AO2,M
CXP,2023-03-21 11:55,-119.7326,39.1923,1431.00,33.80,23.00,64.23,0.00,0.00,0.00,29.66,M,10.00,M,CLR,M,M,M,M,M,M,M,M,M,M,M,M,M,M,33.80,KCXP 211155Z AUTO 00000KT 10SM CLR 01/M05 A2966 RMK AO2,M
RNO,2023-03-21 11:55,-119.7711,39.4839,1341.00,30.90,21.00,66.34,0.00,0.00,0.00,29.66,1003.50,10.00,M,CLR,M,M,M,M,M,M,M,M,M,M,M,M,M,M,30.90,KRNO 211155Z 00000KT 10SM CLR M01/M06 A2966 RMK AO2 SLP035 T10061061 10039 21006 58019,M
RTS,2023-03-21 11:55,-119.8764,39.6682,1539.00,24.80,21.20,85.96,0.00,0.00,0.00,29.66,M,10.00,M,CLR,M,M,M,M,M,M,M,M,M,M,M,M,M,M,24.80,KRTS 211155Z AUTO 00000KT 10SM CLR M04/M06 A2966 RMK AO2,M
MEV,2023-03-21 11:55,-119.7500,38.9963,1441.42,26.60,24.80,92.80,130.00,3.00,0.00,29.64,M,10.00,M,BKN,OVC,M,M,6500.00,7500.00,M,M,M,M,M,M,M,M,M,22.52,KMEV 211155Z AUTO 13003KT 10SM BKN065 OVC075 M03/M04 A2964 RMK AO2,M
BAM,2023-03-21 11:55,-116.8743,40.5990,1382.36,30.20,21.20,68.83,50.00,9.00,0.00,29.75,M,10.00,M,CLR,M,M,M,M,M,M,M,M,M,M,M,M,M,M,21.28,KBAM 211155Z AUTO 05009KT 10SM CLR M01/M06 A2975 RMK AO1,M
HTH,2023-03-21 11:55,-118.6315,38.5448,1282.89,41.00,21.20,44.85,320.00,8.00,0.00,29.64,M,10.00,M,OVC,M,M,M,7500.00,M,M,M,M,M,M,M,M,M,M,35.20,KHTH 211155Z AUTO 32008KT 10SM OVC075 05/M06 A2964 RMK A01,M
TMT,2023-03-21 11:55,-117.1971,39.4643,1749.34,26.10,23.70,90.49,0.00,0.00,0.00,29.70,M,10.00,M,CLR,M,M,M,M,M,M,M,M,M,M,M,M,M,M,26.10,KTMT 211155Z AUTO 00000KT 10SM CLR M03/M05 A2970 RMK AO2 T10331046 11023 21038,M
INS,2023-03-21 11:55,-115.6733,36.5872,955.00,47.00,34.00,60.16,0.00,0.00,0.00,29.66,1001.90,10.00,M,OVC,M,M,M,10000.00,M,M,M,M,M,M,M,M,M,M,47.10,KINS 211155Z AUTO 00000KT 10SM OVC100 08/01 A2966 RMK AO2 SLP019 T00840011 10092 20069 55013 $,M
LSV,2023-03-21 11:55,-115.0343,36.2362,570.00,49.30,46.00,88.00,100.00,3.00,T,29.68,1004.10,10.00,M,BKN,M,M,M,4500.00,M,M,M,-RA,M,M,M,M,M,M,48.47,KLSV 211155Z AUTO 10003KT 10SM -RA BKN045 10/08 A2968 RMK AO2 SLP041 P0000 60000 T00960077 10121 20096 55005 $,M
EKO,2023-03-21 11:56,-115.7860,40.8242,1367.00,23.00,17.10,77.77,60.00,5.00,0.00,29.76,1009.30,10.00,M,CLR,M,M,M,M,M,M,M,M,M,M,M,M,M,M,15.71,KEKO 211156Z AUTO 06005KT 10SM CLR M05/M08 A2976 RMK AO2 SLP093 70018 T10501083 11017 21050 58003,M
WMC,2023-03-21 11:56,-117.8072,40.9019,1315.00,25.00,18.00,74.36,70.00,5.00,0.00,29.72,1006.80,10.00,M,CLR,M,M,M,M,M,M,M,M,M,M,M,M,M,M,18.08,KWMC 211156Z AUTO 07005KT 10SM CLR M04/M08 A2972 RMK AO2 SLP068 70009 T10391078 11022 21061 58013,M
HND,2023-03-21 11:56,-115.1344,35.9729,742.79,48.00,43.00,82.72,200.00,8.00,0.02,29.72,1007.30,10.00,M,OVC,M,M,M,3900.00,M,M,M,-RA,M,M,M,M,M,M,43.82,KHND 211156Z AUTO 20008KT 10SM -RA OVC039 09/06 A2972 RMK AO2 SLP073 P0002 60002 70002 T00890061 10139 20089 57006,M
TPH,2023-03-21 11:56,-117.0904,38.0505,1654.00,35.00,24.10,63.86,50.00,3.00,T,29.67,1002.50,9.00,M,SCT,OVC,M,M,2800.00,3700.00,M,M,-SN,M,M,M,M,M,M,32.23,KTPH 211156Z AUTO 05003KT 9SM -SN SCT028 OVC037 02/M04 A2967 RMK AO2 SNB16E37B56 SLP025 P0000 60000 T00171044 10017 20006 56012,M
LAS,2023-03-21 11:56,-115.1634,36.0719,663.00,50.00,40.00,68.10,200.00,6.00,0.02,29.70,1004.70,8.00,M,OVC,M,M,M,4300.00,M,M,M,-RA VCFG,M,M,M,M,M,M,50.00,KLAS 211156Z 20006KT 8SM -RA VCFG OVC043 10/04 A2970 RMK AO2 RAB02 SLP047 VIS LWR SW-NW MTNS OBSCURED DSNT S-W-N P0002 60002 70002 T01000044 10128 20100 56007,M
NFL,2023-03-21 11:56,-118.7010,39.4166,1199.00,33.00,21.90,63.06,20.00,5.00,0.00,29.66,1002.60,10.00,M,OVC,M,M,M,9000.00,M,M,M,M,M,M,M,M,M,M,27.70,KNFL 211156Z AUTO 02005KT 10SM OVC090 01/M06 A2966 RMK AO2 SLP026 T00061056 10028 20000 56021,M
TPH,2023-03-21 12:05,-117.0904,38.0505,1654.00,34.00,28.00,78.43,110.00,4.00,T,29.67,M,1.50,M,OVC,M,M,M,2600.00,M,M,M,-SN,M,M,M,M,M,M,29.76,KTPH 211205Z AUTO 11004KT 1 1/2SM -SN OVC026 01/M02 A2967 RMK AO2 P0000 T00111022,M
05U,2023-03-21 12:10,-116.0051,39.6042,1811.23,24.80,23.00,92.74,0.00,0.00,0.00,29.74,M,10.00,M,FEW,M,M,M,11000.00,M,M,M,M,M,M,M,M,M,M,24.80,K05U 211210Z AUTO 00000KT 10SM FEW110 M04/M05 A2974 RMK A01,M
BVU,2023-03-21 12:15,-114.8611,35.9475,671.00,50.00,44.60,81.61,140.00,11.00,0.00,29.72,M,5.00,M,FEW,BKN,OVC,M,1900.00,2400.00,3000.00,M,-RA,M,M,M,M,M,M,50.00,KBVU 211215Z AUTO 14011KT 5SM -RA FEW019 BKN024 OVC030 10/07 A2972 RMK AO2,M
CXP,2023-03-21 12:15,-119.7326,39.1923,1431.00,33.80,21.20,59.53,0.00,0.00,0.00,29.66,M,10.00,M,SCT,M,M,M,7500.00,M,M,M,M,M,M,M,M,M,M,33.80,KCXP 211215Z AUTO 00000KT 10SM SCT075 01/M06 A2966 RMK AO2,M
RTS,2023-03-21 12:15,-119.8764,39.6682,1539.00,24.80,21.20,85.96,0.00,0.00,0.00,29.66,M,10.00,M,CLR,M,M,M,M,M,M,M,M,M,M,M,M,M,M,24.80,KRTS 211215Z AUTO 00000KT 10SM CLR M04/M06 A2966 RMK AO2,M
MEV,2023-03-21 12:15,-119.7500,38.9963,1441.42,26.60,24.80,92.80,130.00,3.00,0.00,29.64,M,10.00,M,BKN,OVC,M,M,5500.00,6500.00,M,M,M,M,M,M,M,M,M,22.52,KMEV 211215Z AUTO 13003KT 10SM BKN055 OVC065 M03/M04 A2964 RMK AO2,M
BAM,2023-03-21 12:15,-116.8743,40.5990,1382.36,30.20,23.00,74.26,50.00,9.00,0.00,29.75,M,10.00,M,CLR,M,M,M,M,M,M,M,M,M,M,M,M,M,M,21.28,KBAM 211215Z AUTO 05009KT 10SM CLR M01/M05 A2975 RMK AO1,M
HTH,2023-03-21 12:15,-118.6315,38.5448,1282.89,41.00,23.00,48.39,330.00,10.00,0.00,29.64,M,10.00,M,OVC,M,M,M,7500.00,M,M,M,M,M,M,M,M,M,M,34.25,KHTH 211215Z AUTO 33010KT 10SM OVC075 05/M05 A2964 RMK A01,M
TMT,2023-03-21 12:15,-117.1971,39.4643,1749.34,26.20,23.40,88.99,30.00,3.00,0.00,29.68,M,10.00,M,SCT,M,M,M,9500.00,M,M,M,M,M,M,M,M,M,M,22.06,KTMT 211215Z AUTO 03003KT 10SM SCT095 M03/M05 A2968 RMK AO2 T10321048,M
TPH,2023-03-21 12:16,-117.0904,38.0505,1654.00,32.00,30.90,95.65,150.00,4.00,T,29.67,M,0.75,M,BKN,OVC,M,M,1400.00,2700.00,M,M,-SN BR,M,M,M,M,M,M,27.42,KTPH 211216Z AUTO 15004KT 3/4SM -SN BR BKN014 OVC027 00/M01 A2967 RMK AO2 P0000 T00001006,M
TPH,2023-03-21 12:28,-117.0904,38.0505,1654.00,32.00,30.90,95.65,350.00,4.00,T,29.66,M,1.25,M,OVC,M,M,M,1500.00,M,M,M,-SN BR,M,M,M,M,M,M,27.42,KTPH 211228Z AUTO 35004KT 1 1/4SM -SN BR OVC015 00/M01 A2966 RMK AO2 P0000 T00001006,M
05U,2023-03-21 12:30,-116.0051,39.6042,1811.23,24.80,23.00,92.74,0.00,0.00,0.00,29.73,M,10.00,M,FEW,M,M,M,11000.00,M,M,M,M,M,M,M,M,M,M,24.80,K05U 211230Z AUTO 00000KT 10SM FEW110 M04/M05 A2973 RMK A01,M
TPH,2023-03-21 12:33,-117.0904,38.0505,1654.00,32.00,30.90,95.65,20.00,5.00,T,29.66,M,4.00,M,OVC,M,M,M,2100.00,M,M,M,-SN BR,M,M,M,M,M,M,26.40,KTPH 211233Z AUTO 02005KT 4SM -SN BR OVC021 00/M01 A2966 RMK AO2 P0000 T00001006,M
LSV,2023-03-21 12:34,-115.0343,36.2362,570.00,48.20,48.20,100.00,210.00,3.00,0.00,29.70,1004.90,10.00,M,SCT,M,M,M,4200.00,M,M,M,-RA,M,M,M,M,M,M,47.21,KLSV 211234Z AUTO 21003KT 10SM -RA SCT042 09/09 A2970 RMK AO2 SLP049 $,M
BVU,2023-03-21 12:35,-114.8611,35.9475,671.00,48.20,44.60,87.28,150.00,14.00,0.00,29.73,M,4.00,M,BKN,OVC,M,M,3000.00,3800.00,M,M,-RA,M,M,M,M,M,M,42.04,KBVU 211235Z AUTO 15014KT 4SM -RA BKN030 OVC038 09/07 A2973 RMK AO2,M
CXP,2023-03-21 12:35,-119.7326,39.1923,1431.00,33.80,21.20,59.53,0.00,0.00,0.00,29.65,M,10.00,M,OVC,M,M,M,7000.00,M,M,M,M,M,M,M,M,M,M,33.80,KCXP 211235Z AUTO 00000KT 10SM OVC070 01/M06 A2965 RMK AO2,M
RTS,2023-03-21 12:35,-119.8764,39.6682,1539.00,23.00,19.40,85.85,10.00,3.00,0.00,29.66,M,10.00,M,CLR,M,M,M,M,M,M,M,M,M,M,M,M,M,M,18.40,KRTS 211235Z AUTO 01003KT 10SM CLR M05/M07 A2966 RMK AO2,M
MEV,2023-03-21 12:35,-119.7500,38.9963,1441.42,28.40,24.80,86.18,0.00,0.00,0.00,29.63,M,10.00,M,OVC,M,M,M,6000.00,M,M,M,M,M,M,M,M,M,M,28.40,KMEV 211235Z AUTO 00000KT 10SM OVC060 M02/M04 A2963 RMK AO2,M
BAM,2023-03-21 12:35,-116.8743,40.5990,1382.36,30.20,23.00,74.26,50.00,9.00,0.00,29.75,M,10.00,M,CLR,M,M,M,M,M,M,M,M,M,M,M,M,M,M,21.28,KBAM 211235Z AUTO 05009KT 10SM CLR M01/M05 A2975 RMK AO1,M
HTH,2023-03-21 12:35,-118.6315,38.5448,1282.89,41.00,23.00,48.39,330.00,9.00,0.00,29.63,M,10.00,M,OVC,M,M,M,7500.00,M,M,M,M,M,M,M,M,M,M,34.70,KHTH 211235Z AUTO 33009KT 10SM OVC075 05/M05 A2963 RMK A01,M
TMT,2023-03-21 12:35,-117.1971,39.4643,1749.34,26.60,23.70,88.63,0.00,0.00,0.00,29.68,M,10.00,M,BKN,M,M,M,9500.00,M,M,M,M,M,M,M,M,M,M,26.60,KTMT 211235Z AUTO 00000KT 10SM BKN095 M03/M05 A2968 RMK AO2 T10301046,M
TPH,2023-03-21 12:46,-117.0904,38.0505,1654.00,32.00,32.00,100.00,10.00,7.00,T,29.65,M,9.00,M,OVC,M,M,M,3600.00,M,M,M,M,M,M,M,M,M,M,24.78,KTPH 211246Z AUTO 01007KT 9SM OVC036 00/00 A2965 RMK AO2 SNE46 P0000 T00000000,M
LSV,2023-03-21 12:47,-115.0343,36.2362,570.00,48.20,46.40,93.45,0.00,0.00,0.00,29.69,1004.60,10.00,M,BKN,M,M,M,4000.00,M,M,M,-RA,M,M,M,M,M,M,48.20,KLSV 211247Z AUTO 00000KT 10SM -RA BKN040 09/08 A2969 RMK AO2 SLP046 $,M
HTH,2023-03-21 12:50,-118.6315,38.5448,1282.89,39.20,23.00,51.89,320.00,10.00,0.00,29.63,M,10.00,M,OVC,M,M,M,7500.00,M,M,M,M,M,M,M,M,M,M,32.00,KHTH 211250Z AUTO 32010KT 10SM OVC075 04/M05 A2963 RMK A01,M
05U,2023-03-21 12:50,-116.0051,39.6042,1811.23,23.00,23.00,100.00,0.00,0.00,0.00,29.73,M,10.00,M,CLR,M,M,M,M,M,M,M,M,M,M,M,M,M,M,23.00,K05U 211250Z AUTO 00000KT 10SM CLR M05/M05 A2973 RMK A01,M
P68,2023-03-21 12:53,-116.0056,39.6014,1993.00,25.00,21.00,84.53,0.00,0.00,0.00,29.71,1005.00,M,M,M,M,M,M,M,M,M,M,M,M,M,M,M,M,M,25.00,KP68 211253Z AUTO 00000KT M04/M06 A2971 RMK AO1 SLP050 T10391061,M
ELY,2023-03-21 12:53,-114.8453,39.2950,1909.00,19.00,14.00,80.52,190.00,4.00,0.00,29.72,1006.30,10.00,M,FEW,M,M,M,12000.00,M,M,M,M,M,M,M,M,M,M,12.24,KELY 211253Z AUTO 19004KT 10SM FEW120 M07/M10 A2972 RMK AO2 SLP063 T10721100 $,M
VGT,2023-03-21 12:53,-115.1933,36.2111,667.00,50.00,43.00,76.76,160.00,6.00,0.02,29.71,1006.90,10.00,M,BKN,OVC,M,M,4200.00,4900.00,M,M,-RA,M,M,M,M,M,M,50.00,KVGT 211253Z 16006KT 10SM -RA BKN042 OVC049 10/06 A2971 RMK AO2 SLP069 P0002 T01000061,M
LOL,2023-03-21 12:53,-118.5701,40.0684,1192.43,30.90,19.00,60.92,30.00,15.00,0.00,29.66,1004.50,10.00,M,BKN,M,M,M,10000.00,M,M,M,M,M,M,M,M,M,M,19.35,KLOL 211253Z AUTO 03015KT 10SM BKN100 M01/M07 A2966 RMK AO2 SLP045 T10061072,M
DRA,2023-03-21 12:53,-116.0278,36.6206,1009.00,45.00,35.00,68.05,240.00,13.00,0.00,29.67,1002.50,10.00,24.00,BKN,OVC,M,M,5500.00,7000.00,M,M,M,M,M,M,29.00,220.00,2023-03-21 12:32,38.22,KDRA 211253Z AUTO 24013G24KT 10SM BKN055 OVC070 07/02 A2967 RMK AO2 PK WND 22029/1232 SLP025 T00720017,M
BVU,2023-03-21 12:55,-114.8611,35.9475,671.00,48.20,46.40,93.45,170.00,10.00,0.00,29.73,M,3.00,M,FEW,BKN,OVC,M,1800.00,2900.00,3700.00,M,RA,M,M,M,M,M,M,43.28,KBVU 211255Z AUTO 17010KT 3SM RA FEW018 BKN029 OVC037 09/08 A2973 RMK AO2,M
CXP,2023-03-21 12:55,-119.7326,39.1923,1431.00,35.60,21.20,55.41,20.00,3.00,0.00,29.64,M,10.00,M,OVC,M,M,M,7500.00,M,M,M,M,M,M,M,M,M,M,32.80,KCXP 211255Z AUTO 02003KT 10SM OVC075 02/M06 A2964 RMK AO2,M
RNO,2023-03-21 12:55,-119.7711,39.4839,1341.00,30.90,21.00,66.34,340.00,3.00,0.00,29.64,1002.70,10.00,M,SCT,M,M,M,18000.00,M,M,M,M,M,M,M,M,M,M,27.43,KRNO 211255Z 34003KT 10SM SCT180 M01/M06 A2964 RMK AO2 SLP027 T10061061,M
LSV,2023-03-21 12:55,-115.0343,36.2362,570.00,48.20,46.60,94.16,0.00,0.00,T,29.70,1004.90,10.00,M,BKN,M,M,M,3800.00,M,M,M,-RA,M,M,M,M,M,M,48.20,KLSV 211255Z AUTO 00000KT 10SM -RA BKN038 09/08 A2970 RMK AO2 SLP049 P0000 T00900081 $,M
RTS,2023-03-21 12:55,-119.8764,39.6682,1539.00,24.80,21.20,85.96,0.00,0.00,0.00,29.64,M,10.00,M,CLR,M,M,M,M,M,M,M,M,M,M,M,M,M,M,24.80,KRTS 211255Z AUTO 00000KT 10SM CLR M04/M06 A2964 RMK AO2,M
MEV,2023-03-21 12:55,-119.7500,38.9963,1441.42,26.60,24.80,92.80,0.00,0.00,0.00,29.62,M,10.00,M,OVC,M,M,M,6000.00,M,M,M,M,M,M,M,M,M,M,26.60,KMEV 211255Z AUTO 00000KT 10SM OVC060 M03/M04 A2962 RMK AO2,M
BAM,2023-03-21 12:55,-116.8743,40.5990,1382.36,30.20,21.20,68.83,50.00,10.00,0.00,29.75,M,10.00,M,CLR,M,M,M,M,M,M,M,M,M,M,M,M,M,M,20.71,KBAM 211255Z AUTO 05010KT 10SM CLR M01/M06 A2975 RMK AO1,M
TMT,2023-03-21 12:55,-117.1971,39.4643,1749.34,26.40,24.10,90.88,0.00,0.00,0.00,29.68,M,10.00,M,BKN,M,M,M,9500.00,M,M,M,M,M,M,M,M,M,M,26.40,KTMT 211255Z AUTO 00000KT 10SM BKN095 M03/M04 A2968 RMK AO2 T10311044,M
INS,2023-03-21 12:55,-115.6733,36.5872,955.00,47.30,37.00,66.99,100.00,14.00,0.00,29.66,1002.30,10.00,M,OVC,M,M,M,7500.00,M,M,M,M,M,M,M,M,M,M,40.88,KINS 211255Z AUTO 10014KT 10SM OVC075 09/03 A2966 RMK AO2 SLP023 T00850027 $,M
EKO,2023-03-21 12:56,-115.7860,40.8242,1367.00,21.90,15.10,74.69,40.00,4.00,0.00,29.75,1009.30,10.00,M,CLR,M,M,M,M,M,M,M,M,M,M,M,M,M,M,15.63,KEKO 211256Z AUTO 04004KT 10SM CLR M06/M09 A2975 RMK AO2 SLP093 T10561094,M
WMC,2023-03-21 12:56,-117.8072,40.9019,1315.00,26.10,19.00,74.16,90.00,12.00,0.00,29.72,1006.80,10.00,M,CLR,M,M,M,M,M,M,M,M,M,M,M,M,M,M,14.49,KWMC 211256Z AUTO 09012KT 10SM CLR M03/M07 A2972 RMK AO2 SLP068 T10331072,M
NFL,2023-03-21 12:56,-118.7010,39.4166,1199.00,30.90,21.90,68.91,50.00,4.00,0.00,29.65,1002.30,10.00,M,SCT,M,M,M,10000.00,M,M,M,M,M,M,M,M,M,M,26.14,KNFL 211256Z AUTO 05004KT 10SM SCT100 M01/M06 A2965 RMK AO2 SLP023 T10061056,M
TPH,2023-03-21 12:56,-117.0904,38.0505,1654.00,33.00,32.00,95.67,10.00,5.00,T,29.65,1002.20,10.00,M,OVC,M,M,M,4000.00,M,M,M,M,M,M,M,M,M,M,27.70,KTPH 211256Z AUTO 01005KT 10SM OVC040 01/00 A2965 RMK AO2 SNE46 SLP022 P0000 T00060000,M
HND,2023-03-21 12:56,-115.1344,35.9729,742.79,47.00,42.00,83.28,220.00,8.00,0.02,29.73,1007.90,10.00,M,OVC,M,M,M,3500.00,M,M,M,-RA,M,M,M,M,M,M,42.47,KHND 211256Z 22008KT 10SM -RA OVC035 08/06 A2973 RMK AO2 SLP079 P0002 T00830056,M
LAS,2023-03-21 12:56,-115.1634,36.0719,663.00,49.00,42.00,77.26,200.00,4.00,0.02,29.72,1005.60,9.00,M,OVC,M,M,M,4600.00,M,M,M,-RA,M,M,M,M,M,M,47.16,KLAS 211256Z 20004KT 9SM -RA OVC046 09/06 A2972 RMK AO2 SLP056 P0002 T00940056,M
05U,2023-03-21 13:10,-116.0051,39.6042,1811.23,23.00,23.00,100.00,M,M,0.00,29.73,M,10.00,M,CLR,M,M,M,M,M,M,M,M,M,M,M,M,M,M,M,K05U 211310Z AUTO 10SM CLR M05/M05 A2973 RMK A01,M
BVU,2023-03-21 13:15,-114.8611,35.9475,671.00,48.20,44.60,87.28,150.00,10.00,0.00,29.73,M,4.00,M,FEW,SCT,BKN,M,1400.00,1800.00,2700.00,M,-RA,M,M,M,M,M,M,43.28,KBVU 211315Z AUTO 15010KT 4SM -RA FEW014 SCT018 BKN027 09/07 A2973 RMK AO2,M
CXP,2023-03-21 13:15,-119.7326,39.1923,1431.00,35.60,19.40,51.33,50.00,6.00,0.00,29.63,M,10.00,M,OVC,M,M,M,7500.00,M,M,M,M,M,M,M,M,M,M,29.87,KCXP 211315Z AUTO 05006KT 10SM OVC075 02/M07 A2963 RMK AO2,M
RTS,2023-03-21 13:15,-119.8764,39.6682,1539.00,26.60,21.20,79.77,0.00,0.00,0.00,29.64,M,10.00,M,CLR,M,M,M,M,M,M,M,M,M,M,M,M,M,M,26.60,KRTS 211315Z AUTO 00000KT 10SM CLR M03/M06 A2964 RMK AO2,M
MEV,2023-03-21 13:15,-119.7500,38.9963,1441.42,26.60,24.80,92.80,0.00,0.00,0.00,29.61,M,10.00,M,SCT,OVC,M,M,6000.00,7500.00,M,M,M,M,M,M,M,M,M,26.60,KMEV 211315Z AUTO 00000KT 10SM SCT060 OVC075 M03/M04 A2961 RMK AO2,M
BAM,2023-03-21 13:15,-116.8743,40.5990,1382.36,30.20,21.20,68.83,50.00,10.00,0.00,29.74,M,10.00,M,CLR,M,M,M,M,M,M,M,M,M,M,M,M,M,M,20.71,KBAM 211315Z AUTO 05010KT 10SM CLR M01/M06 A2974 RMK AO1,M
HTH,2023-03-21 13:15,-118.6315,38.5448,1282.89,39.20,24.80,55.95,310.00,6.00,0.00,29.62,M,10.00,M,BKN,BKN,M,M,7500.00,11000.00,M,M,M,M,M,M,M,M,M,34.20,KHTH 211315Z AUTO 31006KT 10SM BKN075 BKN110 04/M04 A2962 RMK A01,M
TMT,2023-03-21 13:15,-117.1971,39.4643,1749.34,27.10,23.70,86.82,10.00,3.00,0.00,29.68,M,10.00,M,BKN,M,M,M,9500.00,M,M,M,M,M,M,M,M,M,M,23.09,KTMT 211315Z AUTO 01003KT 10SM BKN095 M03/M05 A2968 RMK AO2 T10271046,M
05U,2023-03-21 13:30,-116.0051,39.6042,1811.23,24.80,21.20,85.96,0.00,0.00,0.00,29.73,M,10.00,M,FEW,M,M,M,9500.00,M,M,M,M,M,M,M,M,M,M,24.80,K05U 211330Z AUTO 00000KT 10SM FEW095 M04/M06 A2973 RMK A01,M
BVU,2023-03-21 13:35,-114.8611,35.9475,671.00,48.20,44.60,87.28,150.00,10.00,0.00,29.73,M,4.00,M,FEW,BKN,OVC,M,1700.00,2700.00,3700.00,M,-RA,M,M,M,M,M,M,43.28,KBVU 211335Z AUTO 15010KT 4SM -RA FEW017 BKN027 OVC037 09/07 A2973 RMK AO2,M
CXP,2023-03-21 13:35,-119.7326,39.1923,1431.00,35.60,19.40,51.33,60.00,5.00,0.00,29.63,M,10.00,M,BKN,OVC,M,M,7000.00,8000.00,M,M,M,M,M,M,M,M,M,30.67,KCXP 211335Z AUTO 06005KT 10SM BKN070 OVC080 02/M07 A2963 RMK AO2,M
RTS,2023-03-21 13:35,-119.8764,39.6682,1539.00,23.00,19.40,85.85,0.00,0.00,0.00,29.63,M,10.00,M,FEW,M,M,M,6500.00,M,M,M,M,M,M,M,M,M,M,23.00,KRTS 211335Z AUTO 00000KT 10SM FEW065 M05/M07 A2963 RMK AO2,M
MEV,2023-03-21 13:35,-119.7500,38.9963,1441.42,26.60,24.80,92.80,110.00,4.00,0.00,29.61,M,10.00,M,BKN,OVC,M,M,7000.00,7500.00,M,M,M,M,M,M,M,M,M,21.11,KMEV 211335Z AUTO 11004KT 10SM BKN070 OVC075 M03/M04 A2961 RMK AO2,M
BAM,2023-03-21 13:35,-116.8743,40.5990,1382.36,30.20,19.40,63.75,50.00,10.00,0.00,29.73,M,10.00,M,CLR,M,M,M,M,M,M,M,M,M,M,M,M,M,M,20.71,KBAM 211335Z AUTO 05010KT 10SM CLR M01/M07 A2973 RMK AO1,M
HTH,2023-03-21 13:35,-118.6315,38.5448,1282.89,39.20,21.20,48.10,320.00,5.00,0.00,29.62,M,10.00,M,SCT,BKN,M,M,8000.00,11000.00,M,M,M,M,M,M,M,M,M,34.95,KHTH 211335Z AUTO 32005KT 10SM SCT080 BKN110 04/M06 A2962 RMK A01,M
TMT,2023-03-21 13:35,-117.1971,39.4643,1749.34,28.00,22.50,79.55,360.00,4.00,0.00,29.67,M,10.00,M,BKN,M,M,M,9500.00,M,M,M,M,M,M,M,M,M,M,22.75,KTMT 211335Z AUTO 36004KT 10SM BKN095 M02/M05 A2967 RMK AO2 T10221053,M
TPH,2023-03-21 13:40,-117.0904,38.0505,1654.00,34.00,32.00,92.29,110.00,5.00,T,29.65,M,5.00,M,FEW,BKN,OVC,M,1400.00,1900.00,4100.00,M,-SN BR,M,M,M,M,M,M,28.77,KTPH 211340Z AUTO 11005KT 5SM -SN BR FEW014 BKN019 OVC041 01/00 A2965 RMK AO2 SNB29 P0000 T00110000,M
NFL,2023-03-21 13:44,-118.7010,39.4166,1199.00,30.90,21.90,68.91,0.00,0.00,0.00,29.63,M,10.00,M,FEW,SCT,BKN,BKN,5000.00,9500.00,12000.00,18000.00,M,M,M,M,M,M,M,30.90,KNFL 211344Z 00000KT 10SM FEW050 SCT095 BKN120 BKN180 M01/M06 A2963 RMK AO2 T10061056,M
LSV,2023-03-21 13:45,-115.0343,36.2362,570.00,48.20,48.20,100.00,180.00,9.00,0.00,29.70,1005.10,10.00,M,OVC,M,M,M,3200.00,M,M,M,M,M,M,M,M,M,M,43.66,KLSV 211345Z AUTO 18009KT 10SM OVC032 09/09 A2970 RMK AO2 RAE41DZB41E45 SLP051 $,M
05U,2023-03-21 13:50,-116.0051,39.6042,1811.23,24.80,23.00,92.74,0.00,0.00,0.00,29.72,M,10.00,M,CLR,M,M,M,M,M,M,M,M,M,M,M,M,M,M,24.80,K05U 211350Z AUTO 00000KT 10SM CLR M04/M05 A2972 RMK A01,M
P68,2023-03-21 13:53,-116.0056,39.6014,1993.00,24.10,21.00,87.76,160.00,3.00,0.00,29.70,1005.10,M,M,M,M,M,M,M,M,M,M,M,M,M,M,M,M,M,19.66,KP68 211353Z AUTO 16003KT M04/M06 A2970 RMK AO1 SLP051 T10441061,M
ELY,2023-03-21 13:53,-114.8453,39.2950,1909.00,19.90,14.00,77.48,190.00,6.00,0.00,29.72,1007.40,10.00,M,BKN,OVC,M,M,10000.00,12000.00,M,M,M,M,M,M,M,M,M,10.96,KELY 211353Z AUTO 19006KT 10SM BKN100 OVC120 M07/M10 A2972 RMK AO2 SLP074 T10671100 $,M
LOL,2023-03-21 13:53,-118.5701,40.0684,1192.43,30.00,18.00,60.53,30.00,15.00,0.00,29.64,1004.10,10.00,M,FEW,M,M,M,8500.00,M,M,M,M,M,M,M,M,M,M,18.19,KLOL 211353Z AUTO 03015KT 10SM FEW085 M01/M08 A2964 RMK AO2 SLP041 T10111078,M
DRA,2023-03-21 13:53,-116.0278,36.6206,1009.00,43.00,38.00,82.04,240.00,13.00,T,29.67,1003.00,10.00,M,OVC,M,M,M,4200.00,M,M,M,-RA,M,M,M,27.00,240.00,2023-03-21 13:10,35.66,KDRA 211353Z AUTO 24013KT 10SM -RA OVC042 06/03 A2967 RMK AO2 PK WND 24027/1310 RAB04 SLP030 P0000 T00610033,M
VGT,2023-03-21 13:53,-115.1933,36.2111,667.00,49.00,42.00,77.26,150.00,6.00,T,29.71,1007.30,10.00,M,OVC,M,M,M,4100.00,M,M,M,M,M,M,M,M,M,M,45.88,KVGT 211353Z 15006KT 10SM OVC041 09/06 A2971 RMK AO2 RAE45 SLP073 P0000 T00940056,M
BVU,2023-03-21 13:55,-114.8611,35.9475,671.00,48.20,44.60,87.28,150.00,12.00,0.00,29.73,M,5.00,17.00,BKN,BKN,OVC,M,2400.00,2800.00,3900.00,M,-RA,M,M,M,M,M,M,42.62,KBVU 211355Z AUTO 15012G17KT 5SM -RA BKN024 BKN028 OVC039 09/07 A2973 RMK AO2,M
CXP,2023-03-21 13:55,-119.7326,39.1923,1431.00,35.60,19.40,51.33,10.00,7.00,0.00,29.63,M,10.00,M,OVC,M,M,M,7500.00,M,M,M,M,M,M,M,M,M,M,29.17,KCXP 211355Z AUTO 01007KT 360V060 10SM OVC075 02/M07 A2963 RMK AO2,M
INS,2023-03-21 13:55,-115.6733,36.5872,955.00,45.70,39.60,79.10,120.00,14.00,0.00,29.67,1002.90,10.00,M,BKN,OVC,M,M,5500.00,7000.00,M,M,M,M,M,M,M,M,M,38.82,KINS 211355Z AUTO 12014KT 10SM BKN055 OVC070 08/04 A2967 RMK AO2 SLP029 T00760042 $,M
RNO,2023-03-21 13:55,-119.7711,39.4839,1341.00,30.00,21.90,71.48,160.00,4.00,0.00,29.62,1002.40,10.00,M,BKN,BKN,M,M,8000.00,18000.00,M,M,M,M,M,M,M,M,M,25.08,KRNO 211355Z 16004KT 10SM BKN080 BKN180 M01/M06 A2962 RMK AO2 SLP024 T10111056,M
RTS,2023-03-21 13:55,-119.8764,39.6682,1539.00,24.80,19.40,79.62,0.00,0.00,0.00,29.61,M,10.00,M,BKN,BKN,M,M,6500.00,7500.00,M,M,M,M,M,M,M,M,M,24.80,KRTS 211355Z AUTO 00000KT 10SM BKN065 BKN075 M04/M07 A2961 RMK AO2,M
MEV,2023-03-21 13:55,-119.7500,38.9963,1441.42,28.40,26.60,92.86,0.00,0.00,0.00,29.60,M,10.00,M,OVC,M,M,M,7000.00,M,M,M,M,M,M,M,M,M,M,28.40,KMEV 211355Z AUTO 00000KT 10SM OVC070 M02/M03 A2960 RMK AO2,M
BAM,2023-03-21 13:55,-116.8743,40.5990,1382.36,30.20,19.40,63.75,30.00,11.00,0.00,29.73,M,10.00,M,CLR,M,M,M,M,M,M,M,M,M,M,M,M,M,M,20.19,KBAM 211355Z AUTO 03011KT 10SM CLR M01/M07 A2973 RMK AO1,M
HTH,2023-03-21 13:55,-118.6315,38.5448,1282.89,39.20,21.20,48.10,0.00,0.00,0.00,29.62,M,10.00,M,BKN,OVC,M,M,8500.00,11000.00,M,M,M,M,M,M,M,M,M,39.20,KHTH 211355Z AUTO 00000KT 10SM BKN085 OVC110 04/M06 A2962 RMK A01,M
TMT,2023-03-21 13:55,-117.1971,39.4643,1749.34,28.40,22.30,77.60,40.00,6.00,0.00,29.66,M,10.00,M,BKN,M,M,M,9500.00,M,M,M,M,M,M,M,M,M,M,21.19,KTMT 211355Z AUTO 04006KT 10SM BKN095 M02/M05 A2966 RMK AO2 T10201054,M
LSV,2023-03-21 13:55,-115.0343,36.2362,570.00,48.40,48.00,98.51,170.00,8.00,T,29.70,1005.10,10.00,M,OVC,M,M,M,3100.00,M,M,M,M,M,M,M,M,M,M,44.32,KLSV 211355Z AUTO 17008KT 10SM OVC031 09/09 A2970 RMK AO2 RAE41DZB41E45 SLP051 P0000 T00910089 $,M
EKO,2023-03-21 13:56,-115.7860,40.8242,1367.00,21.90,15.10,74.69,80.00,5.00,0.00,29.75,1009.30,10.00,M,CLR,M,M,M,M,M,M,M,M,M,M,M,M,M,M,14.40,KEKO 211356Z AUTO 08005KT 10SM CLR M06/M09 A2975 RMK AO2 SLP093 T10561094,M
WMC,2023-03-21 13:56,-117.8072,40.9019,1315.00,28.00,18.00,65.69,60.00,11.00,0.00,29.71,1006.60,10.00,M,CLR,M,M,M,M,M,M,M,M,M,M,M,M,M,M,17.41,KWMC 211356Z AUTO 06011KT 10SM CLR M02/M08 A2971 RMK AO2 SLP066 T10221078,M
NFL,2023-03-21 13:56,-118.7010,39.4166,1199.00,30.00,21.90,71.48,0.00,0.00,0.00,29.63,1001.90,10.00,M,FEW,SCT,BKN,BKN,5000.00,9500.00,12000.00,18000.00,M,M,M,M,M,M,M,30.00,KNFL 211356Z 00000KT 10SM FEW050 SCT095 BKN120 BKN180 M01/M06 A2963 RMK AO2 SLP019 T10111056,M
HND,2023-03-21 13:56,-115.1344,35.9729,742.79,46.00,43.00,89.20,140.00,3.00,T,29.73,1008.10,10.00,M,OVC,M,M,M,3600.00,M,M,M,-RA,M,M,M,M,M,M,44.69,KHND 211356Z 14003KT 10SM -RA OVC036 08/06 A2973 RMK AO2 SLP081 P0000 T00780061,M
TPH,2023-03-21 13:56,-117.0904,38.0505,1654.00,35.00,32.00,88.33,120.00,8.00,T,29.64,1002.40,9.00,M,BKN,OVC,M,M,1800.00,2200.00,M,M,UP,M,M,M,M,M,M,27.93,KTPH 211356Z AUTO 12008KT 9SM UP BKN018 OVC022 02/00 A2964 RMK AO2 UPB55SNB29E55 SLP024 P0000 T00170000,M
LAS,2023-03-21 13:56,-115.1634,36.0719,663.00,49.00,40.00,70.95,170.00,5.00,T,29.71,1005.40,10.00,M,FEW,SCT,OVC,M,3000.00,4700.00,6500.00,M,M,M,M,M,M,M,M,46.47,KLAS 211356Z 17005KT 10SM FEW030 SCT047 OVC065 09/04 A2971 RMK AO2 RAE15 SLP054 P0000 T00940044,M
LSV,2023-03-21 14:06,-115.0343,36.2362,570.00,48.20,48.20,100.00,170.00,4.00,0.00,29.70,1005.10,10.00,M,OVC,M,M,M,3300.00,M,M,M,-DZ,M,M,M,M,M,M,46.34,KLSV 211406Z AUTO 17004KT 10SM -DZ OVC033 09/09 A2970 RMK AO2 DZB06 SLP051 $,M
05U,2023-03-21 14:10,-116.0051,39.6042,1811.23,24.80,23.00,92.74,0.00,0.00,0.00,29.72,M,10.00,M,CLR,M,M,M,M,M,M,M,M,M,M,M,M,M,M,24.80,K05U 211410Z AUTO 00000KT 10SM CLR M04/M05 A2972 RMK A01,M
LSV,2023-03-21 14:13,-115.0343,36.2362,570.00,48.20,48.20,100.00,160.00,6.00,0.00,29.70,1005.10,10.00,M,OVC,M,M,M,3200.00,M,M,M,M,M,M,M,M,M,M,45.04,KLSV 211413Z AUTO 16006KT 10SM OVC032 09/09 A2970 RMK AO2 DZB06E13 SLP051 $,M
BVU,2023-03-21 14:15,-114.8611,35.9475,671.00,48.20,42.80,81.47,160.00,14.00,0.00,29.73,M,10.00,M,SCT,BKN,OVC,M,2500.00,3500.00,4100.00,M,M,M,M,M,M,M,M,42.04,KBVU 211415Z AUTO 16014KT 10SM SCT025 BKN035 OVC041 09/06 A2973 RMK AO2,M
CXP,2023-03-21 14:15,-119.7326,39.1923,1431.00,35.60,19.40,51.33,50.00,10.00,0.00,29.61,M,10.00,M,OVC,M,M,M,7000.00,M,M,M,M,M,M,M,M,M,M,27.48,KCXP 211415Z AUTO 05010KT 10SM OVC070 02/M07 A2961 RMK AO2,M
RTS,2023-03-21 14:15,-119.8764,39.6682,1539.00,26.60,21.20,79.77,200.00,3.00,0.00,29.61,M,10.00,M,OVC,M,M,M,6500.00,M,M,M,M,M,M,M,M,M,M,22.52,KRTS 211415Z AUTO 20003KT 10SM OVC065 M03/M06 A2961 RMK AO2,M
MEV,2023-03-21 14:15,-119.7500,38.9963,1441.42,30.20,26.60,86.28,0.00,0.00,0.00,29.59,M,10.00,M,OVC,M,M,M,7000.00,M,M,M,M,M,M,M,M,M,M,30.20,KMEV 211415Z AUTO 00000KT 10SM OVC070 M01/M03 A2959 RMK AO2,M
BAM,2023-03-21 14:15,-116.8743,40.5990,1382.36,28.40,19.40,68.61,10.00,9.00,0.00,29.73,M,10.00,M,CLR,M,M,M,M,M,M,M,M,M,M,M,M,M,M,19.04,KBAM 211415Z AUTO 01009KT 10SM CLR M02/M07 A2973 RMK AO1,M
HTH,2023-03-21 14:15,-118.6315,38.5448,1282.89,39.20,23.00,51.89,0.00,0.00,0.00,29.61,M,10.00,M,SCT,BKN,BKN,M,6000.00,7500.00,8500.00,M,M,M,M,M,M,M,M,39.20,KHTH 211415Z AUTO 00000KT 10SM SCT060 BKN075 BKN085 04/M05 A2961 RMK A01,M
TMT,2023-03-21 14:15,-117.1971,39.4643,1749.34,29.30,21.60,72.62,40.00,11.00,0.00,29.64,M,10.00,M,BKN,M,M,M,9500.00,M,M,M,M,M,M,M,M,M,M,19.05,KTMT 211415Z AUTO 04011KT 10SM BKN095 M01/M06 A2964 RMK AO2 T10151058,M
VGT,2023-03-21 14:18,-115.1933,36.2111,667.00,48.00,45.00,89.29,110.00,8.00,T,29.71,M,10.00,M,FEW,OVC,M,M,700.00,3700.00,M,M,-RA,M,M,M,M,M,M,43.82,KVGT 211418Z 11008KT 10SM -RA FEW007 OVC037 09/07 A2971 RMK AO2 RAB01 P0000 T00890072,M
05U,2023-03-21 14:30,-116.0051,39.6042,1811.23,24.80,23.00,92.74,0.00,0.00,0.00,29.71,M,10.00,M,CLR,M,M,M,M,M,M,M,M,M,M,M,M,M,M,24.80,K05U 211430Z AUTO 00000KT 10SM CLR M04/M05 A2971 RMK A01,M
BVU,2023-03-21 14:35,-114.8611,35.9475,671.00,48.20,39.20,70.88,180.00,14.00,0.00,29.73,M,10.00,M,OVC,M,M,M,4300.00,M,M,M,M,M,M,M,M,M,M,42.04,KBVU 211435Z AUTO 18014KT 10SM OVC043 09/04 A2973 RMK AO2,M
CXP,2023-03-21 14:35,-119.7326,39.1923,1431.00,35.60,19.40,51.33,50.00,8.00,0.00,29.62,M,10.00,M,OVC,M,M,M,7500.00,M,M,M,M,M,M,M,M,M,M,28.55,KCXP 211435Z AUTO 05008KT 020V080 10SM OVC075 02/M07 A2962 RMK AO2,M
RTS,2023-03-21 14:35,-119.8764,39.6682,1539.00,26.60,23.00,86.07,0.00,0.00,0.00,29.61,M,10.00,M,OVC,M,M,M,7000.00,M,M,M,M,M,M,M,M,M,M,26.60,KRTS 211435Z AUTO 00000KT 10SM OVC070 M03/M05 A2961 RMK AO2,M
MEV,2023-03-21 14:35,-119.7500,38.9963,1441.42,30.20,24.80,80.07,0.00,0.00,0.00,29.59,M,10.00,M,OVC,M,M,M,7000.00,M,M,M,M,M,M,M,M,M,M,30.20,KMEV 211435Z AUTO 00000KT 10SM OVC070 M01/M04 A2959 RMK AO2,M
BAM,2023-03-21 14:35,-116.8743,40.5990,1382.36,28.40,19.40,68.61,10.00,6.00,0.00,29.73,M,10.00,M,CLR,M,M,M,M,M,M,M,M,M,M,M,M,M,M,21.19,KBAM 211435Z AUTO 01006KT 10SM CLR M02/M07 A2973 RMK AO1,M
HTH,2023-03-21 14:35,-118.6315,38.5448,1282.89,39.20,23.00,51.89,140.00,5.00,0.00,29.61,M,10.00,M,BKN,M,M,M,6000.00,M,M,M,M,M,M,M,M,M,M,34.95,KHTH 211435Z AUTO 14005KT 10SM BKN060 04/M05 A2961 RMK A01,M
TMT,2023-03-21 14:35,-117.1971,39.4643,1749.34,30.00,21.70,70.88,360.00,8.00,0.00,29.64,M,10.00,M,OVC,M,M,M,9500.00,M,M,M,M,M,M,M,M,M,M,21.65,KTMT 211435Z AUTO 36008KT 10SM OVC095 M01/M06 A2964 RMK AO2 T10111057,M
05U,2023-03-21 14:50,-116.0051,39.6042,1811.23,26.60,24.80,92.80,0.00,0.00,0.00,29.71,M,10.00,M,CLR,M,M,M,M,M,M,M,M,M,M,M,M,M,M,26.60,K05U 211450Z AUTO 00000KT 10SM CLR M03/M04 A2971 RMK A01,M
ELY,2023-03-21 14:53,-114.8453,39.2950,1909.00,21.90,16.00,77.67,180.00,6.00,0.00,29.71,1007.40,10.00,M,SCT,M,M,M,9000.00,M,M,M,M,M,M,M,M,M,M,13.37,KELY 211453Z AUTO 18006KT 10SM SCT090 M06/M09 A2971 RMK AO2 SLP074 T10561089 58006 $,M
LOL,2023-03-21 14:53,-118.5701,40.0684,1192.43,32.00,19.00,58.27,30.00,12.00,0.00,29.63,1004.10,10.00,M,OVC,M,M,M,10000.00,M,M,M,M,M,M,M,M,M,M,22.00,KLOL 211453Z AUTO 03012KT 10SM OVC100 00/M07 A2963 RMK AO2 SLP041 T00001072 56015,M
P68,2023-03-21 14:53,-116.0056,39.6014,1993.00,27.00,21.90,80.83,0.00,0.00,0.00,29.68,1004.70,M,M,M,M,M,M,M,M,M,M,M,M,M,M,M,M,M,27.00,KP68 211453Z AUTO 00000KT M03/M06 A2968 RMK AO1 SLP047 T10281056 58010,M
DRA,2023-03-21 14:53,-116.0278,36.6206,1009.00,43.00,38.00,82.04,240.00,7.00,0.01,29.67,1003.20,10.00,M,BKN,OVC,M,M,4600.00,5500.00,M,M,M,M,M,M,M,M,M,38.19,KDRA 211453Z AUTO 24007KT 10SM BKN046 OVC055 06/03 A2967 RMK AO2 RAE1358 SLP032 P0001 60001 T00610033 50004,M
VGT,2023-03-21 14:53,-115.1933,36.2111,667.00,49.00,44.00,83.42,110.00,10.00,T,29.71,1007.20,10.00,M,FEW,OVC,M,M,4500.00,6500.00,M,M,-RA,M,M,M,M,M,M,44.16,KVGT 211453Z 11010KT 10SM -RA FEW045 OVC065 09/07 A2971 RMK AO2 RAB01E26B53 SLP072 P0000 60002 T00940067 50004,M
BVU,2023-03-21 14:55,-114.8611,35.9475,671.00,48.20,42.80,81.47,150.00,13.00,0.00,29.74,M,10.00,M,OVC,M,M,M,4700.00,M,M,M,M,M,M,M,M,M,M,42.32,KBVU 211455Z AUTO 15013KT 10SM OVC047 09/06 A2974 RMK AO2,M
CXP,2023-03-21 14:55,-119.7326,39.1923,1431.00,33.80,19.40,55.14,60.00,10.00,0.00,29.61,M,10.00,M,OVC,M,M,M,7500.00,M,M,M,M,M,M,M,M,M,M,25.23,KCXP 211455Z AUTO 06010KT 10SM OVC075 01/M07 A2961 RMK AO2,M
RNO,2023-03-21 14:55,-119.7711,39.4839,1341.00,30.90,23.00,72.18,190.00,3.00,0.00,29.61,1002.20,10.00,M,FEW,BKN,OVC,M,7000.00,9500.00,18000.00,M,M,M,M,M,M,M,M,27.43,KRNO 211455Z 19003KT 10SM FEW070 BKN095 OVC180 M01/M05 A2961 RMK AO2 SLP022 T10061050 56015,M
RTS,2023-03-21 14:55,-119.8764,39.6682,1539.00,28.40,23.00,79.92,0.00,0.00,0.00,29.60,M,10.00,M,OVC,M,M,M,7000.00,M,M,M,M,M,M,M,M,M,M,28.40,KRTS 211455Z AUTO 00000KT 10SM OVC070 M02/M05 A2960 RMK AO2,M
MEV,2023-03-21 14:55,-119.7500,38.9963,1441.42,30.20,26.60,86.28,170.00,5.00,0.00,29.58,M,10.00,M,OVC,M,M,M,7000.00,M,M,M,M,M,M,M,M,M,M,24.26,KMEV 211455Z AUTO 17005KT 10SM OVC070 M01/M03 A2958 RMK AO2,M
BAM,2023-03-21 14:55,-116.8743,40.5990,1382.36,30.20,19.40,63.75,360.00,8.00,0.00,29.72,M,10.00,M,CLR,M,M,M,M,M,M,M,M,M,M,M,M,M,M,21.90,KBAM 211455Z AUTO 36008KT 10SM CLR M01/M07 A2972 RMK AO1,M
HTH,2023-03-21 14:55,-118.6315,38.5448,1282.89,39.20,24.80,55.95,130.00,10.00,0.00,29.61,M,10.00,M,FEW,BKN,OVC,M,2500.00,4800.00,6000.00,M,M,M,M,M,M,M,M,32.00,KHTH 211455Z AUTO 13010KT 10SM FEW025 BKN048 OVC060 04/M04 A2961 RMK A01,M
EKO,2023-03-21 14:56,-115.7860,40.8242,1367.00,24.10,16.00,70.81,100.00,8.00,0.00,29.73,1008.60,10.00,M,CLR,M,M,M,M,M,M,M,M,M,M,M,M,M,M,14.38,KEKO 211456Z AUTO 10008KT 10SM CLR M04/M09 A2973 RMK AO2 SLP086 T10441089 58007,M
WMC,2023-03-21 14:56,-117.8072,40.9019,1315.00,30.90,18.00,58.36,50.00,14.00,0.00,29.68,1006.00,10.00,20.00,CLR,M,M,M,M,M,M,M,M,M,M,M,M,M,M,19.74,KWMC 211456Z AUTO 05014G20KT 10SM CLR M01/M08 A2968 RMK AO2 SLP060 T10061078 58011,M
NFL,2023-03-21 14:56,-118.7010,39.4166,1199.00,32.00,23.00,69.04,0.00,0.00,0.00,29.62,1001.40,10.00,M,SCT,BKN,BKN,BKN,5000.00,9500.00,12000.00,18000.00,M,M,M,M,M,M,M,32.00,KNFL 211456Z 00000KT 10SM SCT050 BKN095 BKN120 BKN180 00/M05 A2962 RMK AO2 SLP014 T00001050 58012,M
LAS,2023-03-21 14:56,-115.1634,36.0719,663.00,48.00,41.00,76.58,160.00,4.00,T,29.72,1005.60,10.00,M,FEW,BKN,OVC,M,1300.00,4700.00,6500.00,M,M,M,M,M,M,M,M,46.10,KLAS 211456Z 16004KT 10SM FEW013 BKN047 OVC065 09/05 A2972 RMK AO2 RAB39E56 SLP056 P0000 60002 T00890050 51005,M
HND,2023-03-21 14:56,-115.1344,35.9729,742.79,46.00,42.00,86.16,150.00,3.00,T,29.74,1008.40,10.00,M,FEW,OVC,M,M,2000.00,3200.00,M,M,-RA,M,M,M,M,M,M,44.69,KHND 211456Z 15003KT 10SM -RA FEW020 OVC032 08/06 A2974 RMK AO2 SLP084 P0000 60002 T00780056 51006,M
TPH,2023-03-21 14:56,-117.0904,38.0505,1654.00,35.00,32.00,88.33,120.00,15.00,T,29.63,1002.20,9.00,M,BKN,OVC,M,M,2000.00,2800.00,M,M,UP,M,M,M,M,M,M,24.80,KTPH 211456Z AUTO 12015KT 9SM UP BKN020 OVC028 02/00 A2963 RMK AO2 UPE1359B55 SLP022 P0000 60000 T00170000 56011,M
LSV,2023-03-21 15:04,-115.0343,36.2362,570.00,48.20,48.20,100.00,180.00,8.00,0.00,29.70,1005.30,10.00,M,BKN,OVC,M,M,2500.00,3400.00,M,M,M,M,M,M,M,M,M,44.07,KLSV 211504Z AUTO 18008KT 10SM BKN025 OVC034 09/09 A2970 RMK AO2 CIG 025V034 BKN V SCT SLP053 $,M
TPH,2023-03-21 15:09,-117.0904,38.0505,1654.00,34.00,32.00,92.29,130.00,14.00,T,29.63,M,2.50,M,SCT,BKN,OVC,M,900.00,1700.00,3200.00,M,-SN BR,M,M,M,M,M,M,23.74,KTPH 211509Z AUTO 13014KT 2 1/2SM -SN BR SCT009 BKN017 OVC032 01/00 A2963 RMK AO2 UPE1457SNB1457 P0000 T00110000,M
05U,2023-03-21 15:10,-116.0051,39.6042,1811.23,28.40,24.80,86.18,0.00,0.00,0.00,29.71,M,9.00,M,CLR,M,M,M,M,M,M,M,M,M,M,M,M,M,M,28.40,K05U 211510Z AUTO 00000KT 9SM CLR M02/M04 A2971 RMK A01,M
TPH,2023-03-21 15:12,-117.0904,38.0505,1654.00,34.00,32.00,92.29,130.00,13.00,T,29.64,M,1.50,M,BKN,BKN,OVC,M,1000.00,1700.00,2800.00,M,-SN BR,M,M,M,M,M,M,24.13,KTPH 211512Z AUTO 13013KT 1 1/2SM -SN BR BKN010 BKN017 OVC028 01/00 A2964 RMK AO2 UPE1457SNB1457 P0000 T00110000,M
BVU,2023-03-21 15:15,-114.8611,35.9475,671.00,48.20,42.80,81.47,150.00,14.00,0.00,29.74,M,10.00,M,BKN,OVC,M,M,4100.00,4800.00,M,M,M,M,M,M,M,M,M,42.04,KBVU 211515Z AUTO 15014KT 10SM BKN041 OVC048 09/06 A2974 RMK AO2,M
CXP,2023-03-21 15:15,-119.7326,39.1923,1431.00,33.80,19.40,55.14,60.00,7.00,0.00,29.60,M,10.00,M,OVC,M,M,M,8000.00,M,M,M,M,M,M,M,M,M,M,26.97,KCXP 211515Z AUTO 06007KT 020V080 10SM OVC080 01/M07 A2960 RMK AO2,M
RTS,2023-03-21 15:15,-119.8764,39.6682,1539.00,30.20,23.00,74.26,0.00,0.00,0.00,29.59,M,10.00,M,BKN,M,M,M,7000.00,M,M,M,M,M,M,M,M,M,M,30.20,KRTS 211515Z AUTO 00000KT 10SM BKN070 M01/M05 A2959 RMK AO2,M
MEV,2023-03-21 15:15,-119.7500,38.9963,1441.42,30.20,26.60,86.28,0.00,0.00,0.00,29.58,M,10.00,M,BKN,M,M,M,7500.00,M,M,M,M,M,M,M,M,M,M,30.20,KMEV 211515Z AUTO 00000KT 10SM BKN075 M01/M03 A2958 RMK AO2,M
BAM,2023-03-21 15:15,-116.8743,40.5990,1382.36,32.00,19.40,59.27,30.00,11.00,0.00,29.72,M,10.00,M,CLR,M,M,M,M,M,M,M,M,M,M,M,M,M,M,22.47,KBAM 211515Z AUTO 03011KT 10SM CLR 00/M07 A2972 RMK AO1,M
HTH,2023-03-21 15:15,-118.6315,38.5448,1282.89,37.40,30.20,74.98,90.00,12.00,0.00,29.62,M,5.00,M,FEW,SCT,BKN,M,2000.00,2800.00,3300.00,M,HZ,M,M,M,M,M,M,28.87,KHTH 211515Z AUTO 09012KT 5SM HZ FEW020 SCT028 BKN033 03/M01 A2962 RMK A01,M
TMT,2023-03-21 15:15,-117.1971,39.4643,1749.34,32.00,22.60,67.89,100.00,5.00,0.00,29.64,M,10.00,M,SCT,BKN,M,M,8500.00,9000.00,M,M,M,M,M,M,M,M,M,26.40,KTMT 211515Z AUTO 10005KT 10SM SCT085 BKN090 00/M05 A2964 RMK AO2 T00001052,M
LSV,2023-03-21 15:17,-115.0343,36.2362,570.00,48.20,48.20,100.00,160.00,7.00,0.00,29.71,1005.60,10.00,M,BKN,OVC,M,M,2300.00,3600.00,M,M,-RA,M,M,M,M,M,M,44.53,KLSV 211517Z AUTO 16007KT 10SM -RA BKN023 OVC036 09/09 A2971 RMK AO2 RAB17 SLP056 $,M
TPH,2023-03-21 15:19,-117.0904,38.0505,1654.00,33.00,32.00,95.67,130.00,14.00,T,29.64,M,1.00,M,BKN,BKN,OVC,M,700.00,1000.00,2400.00,M,-SN BR,M,M,M,M,M,M,22.58,KTPH 211519Z AUTO 13014KT 1SM -SN BR BKN007 BKN010 OVC024 01/00 A2964 RMK AO2 UPE1457SNB1457 P0000 T00060000,M
TPH,2023-03-21 15:24,-117.0904,38.0505,1654.00,33.00,32.00,95.67,140.00,12.00,T,29.64,M,0.75,M,SCT,OVC,M,M,700.00,1400.00,M,M,-SN BR,M,M,M,M,M,M,23.40,KTPH 211524Z AUTO 14012KT 3/4SM -SN BR SCT007 OVC014 01/00 A2964 RMK AO2 UPE1457SNB1457 P0000 T00060000,M
05U,2023-03-21 15:30,-116.0051,39.6042,1811.23,28.40,24.80,86.18,0.00,0.00,0.00,29.71,M,10.00,M,SCT,M,M,M,9000.00,M,M,M,M,M,M,M,M,M,M,28.40,K05U 211530Z AUTO 00000KT 10SM SCT090 M02/M04 A2971 RMK A01,M
LSV,2023-03-21 15:32,-115.0343,36.2362,570.00,48.20,48.20,100.00,160.00,11.00,0.00,29.71,1005.60,10.00,M,SCT,OVC,M,M,2300.00,3200.00,M,M,-RA,M,M,M,M,M,M,42.94,KLSV 211532Z AUTO 16011KT 10SM -RA SCT023 OVC032 09/09 A2971 RMK AO2 RAB17 SLP056 $,M
BVU,2023-03-21 15:35,-114.8611,35.9475,671.00,48.20,42.80,81.47,170.00,13.00,0.00,29.74,M,10.00,18.00,OVC,M,M,M,4300.00,M,M,M,M,M,M,M,M,M,M,42.32,KBVU 211535Z AUTO 17013G18KT 10SM OVC043 09/06 A2974 RMK AO2,M
CXP,2023-03-21 15:35,-119.7326,39.1923,1431.00,33.80,19.40,55.14,60.00,8.00,0.00,29.60,M,10.00,M,BKN,M,M,M,8000.00,M,M,M,M,M,M,M,M,M,M,26.33,KCXP 211535Z AUTO 06008KT 10SM BKN080 01/M07 A2960 RMK AO2,M
INS,2023-03-21 15:35,-115.6733,36.5872,955.00,44.60,39.20,81.20,120.00,11.00,0.00,29.68,1003.70,10.00,M,FEW,FEW,OVC,M,2500.00,3700.00,7000.00,M,-DZ,M,M,M,M,M,M,38.39,KINS 211535Z AUTO 12011KT 10SM -DZ FEW025 FEW037 OVC070 07/04 A2968 RMK AO2 DZB35 SLP037 $,M
RTS,2023-03-21 15:35,-119.8764,39.6682,1539.00,30.20,23.00,74.26,0.00,0.00,0.00,29.58,M,10.00,M,SCT,M,M,M,7000.00,M,M,M,M,M,M,M,M,M,M,30.20,KRTS 211535Z AUTO 00000KT 10SM SCT070 M01/M05 A2958 RMK AO2,M
MEV,2023-03-21 15:35,-119.7500,38.9963,1441.42,32.00,26.60,80.22,0.00,0.00,0.00,29.57,M,10.00,M,FEW,M,M,M,7500.00,M,M,M,M,M,M,M,M,M,M,32.00,KMEV 211535Z AUTO 00000KT 10SM FEW075 M00/M03 A2957 RMK AO2,M
BAM,2023-03-21 15:35,-116.8743,40.5990,1382.36,32.00,21.20,63.99,20.00,10.00,0.00,29.71,M,10.00,15.00,CLR,M,M,M,M,M,M,M,M,M,M,M,M,M,M,22.97,KBAM 211535Z AUTO 02010G15KT 10SM CLR 00/M06 A2971 RMK AO1,M
HTH,2023-03-21 15:35,-118.6315,38.5448,1282.89,35.60,32.00,86.59,100.00,8.00,0.00,29.61,M,3.00,M,FEW,FEW,FEW,M,400.00,2000.00,2400.00,M,BR,M,M,M,M,M,M,28.55,KHTH 211535Z AUTO 10008KT 3SM BR FEW004 FEW020 FEW024 02/M00 A2961 RMK A01,M
TMT,2023-03-21 15:35,-117.1971,39.4643,1749.34,32.50,22.30,65.70,0.00,0.00,0.00,29.64,M,10.00,M,SCT,M,M,M,8000.00,M,M,M,M,M,M,M,M,M,M,32.50,KTMT 211535Z AUTO 00000KT 10SM SCT080 00/M05 A2964 RMK AO2 T00031054,M
TPH,2023-03-21 15:38,-117.0904,38.0505,1654.00,33.00,32.00,95.67,140.00,8.00,T,29.63,M,0.75,M,OVC,M,M,M,700.00,M,M,M,-SN BR,M,M,M,M,M,M,25.47,KTPH 211538Z AUTO 14008KT 3/4SM -SN BR OVC007 01/00 A2963 RMK AO2 UPE1457SNB1457 P0000 T00060000,M
LSV,2023-03-21 15:43,-115.0343,36.2362,570.00,48.20,48.20,100.00,170.00,10.00,0.00,29.71,1005.60,10.00,M,OVC,M,M,M,2900.00,M,M,M,-RA,M,M,M,M,M,M,43.28,KLSV 211543Z AUTO 17010KT 10SM -RA OVC029 09/09 A2971 RMK AO2 RAB17 SLP056 $,M
TPH,2023-03-21 15:47,-117.0904,38.0505,1654.00,33.00,32.00,95.67,120.00,10.00,T,29.62,M,1.00,M,BKN,BKN,OVC,M,600.00,1000.00,1600.00,M,-SN BR,M,M,M,M,M,M,24.35,KTPH 211547Z AUTO 12010KT 1SM -SN BR BKN006 BKN010 OVC016 01/00 A2962 RMK AO2 UPE1457SNB1457 P0000 T00060000,M
LSV,2023-03-21 15:49,-115.0343,36.2362,570.00,48.20,48.20,100.00,180.00,8.00,0.00,29.71,1005.60,10.00,M,OVC,M,M,M,3200.00,M,M,M,-RA,M,M,M,M,M,M,44.07,KLSV 211549Z AUTO 18008KT 10SM -RA OVC032 09/09 A2971 RMK AO2 RAB17 SLP056 $,M
LSV,2023-03-21 15:50,-115.0343,36.2362,570.00,48.20,48.20,100.00,180.00,8.00,0.00,29.71,1005.60,10.00,M,OVC,M,M,M,3200.00,M,M,M,M,M,M,M,M,M,M,44.07,KLSV 211550Z AUTO 18008KT 10SM OVC032 09/09 A2971 RMK AO2 RAB17E50 SLP056 $,M
05U,2023-03-21 15:50,-116.0051,39.6042,1811.23,28.40,24.80,86.18,20.00,4.00,0.00,29.69,M,10.00,M,FEW,M,M,M,9000.00,M,M,M,M,M,M,M,M,M,M,23.22,K05U 211550Z AUTO 02004KT 10SM FEW090 M02/M04 A2969 RMK A01,M
P68,2023-03-21 15:53,-116.0056,39.6014,1993.00,28.90,23.00,78.30,20.00,5.00,0.00,29.67,1004.60,M,M,M,M,M,M,M,M,M,M,M,M,M,M,M,M,M,22.71,KP68 211553Z AUTO 02005KT M02/M05 A2967 RMK AO1 SLP046 T10171050,M
ELY,2023-03-21 15:53,-114.8453,39.2950,1909.00,24.10,17.10,74.27,170.00,4.00,0.00,29.70,1007.50,10.00,M,OVC,M,M,M,9000.00,M,M,M,M,M,M,M,M,M,M,18.19,KELY 211553Z AUTO 17004KT 10SM OVC090 M04/M08 A2970 RMK AO2 SLP075 T10441083,M
VGT,2023-03-21 15:53,-115.1933,36.2111,667.00,50.00,43.00,76.76,110.00,9.00,T,29.71,1007.50,10.00,M,BKN,OVC,M,M,4000.00,5500.00,M,M,-RA,M,M,M,M,M,M,50.00,KVGT 211553Z 11009KT 10SM -RA BKN040 OVC055 10/06 A2971 RMK AO2 SLP075 P0000 T01000061,M
LOL,2023-03-21 15:53,-118.5701,40.0684,1192.43,34.00,19.90,55.88,30.00,14.00,0.00,29.61,1003.40,10.00,M,FEW,M,M,M,10000.00,M,M,M,M,M,M,M,M,M,M,23.74,KLOL 211553Z AUTO 03014KT 10SM FEW100 01/M07 A2961 RMK AO2 SLP034 T00111067,M
DRA,2023-03-21 15:53,-116.0278,36.6206,1009.00,44.00,39.00,82.12,290.00,7.00,0.01,29.66,1002.60,10.00,M,OVC,M,M,M,4700.00,M,M,M,-RA,M,M,M,M,M,M,39.53,KDRA 211553Z AUTO 29007KT 10SM -RA OVC047 07/04 A2966 RMK AO2 RAB1458 SLP026 P0001 T00670039,M
BVU,2023-03-21 15:55,-114.8611,35.9475,671.00,48.20,42.80,81.47,170.00,15.00,0.00,29.74,M,10.00,M,BKN,OVC,M,M,4200.00,4800.00,M,M,M,M,M,M,M,M,M,41.78,KBVU 211555Z AUTO 17015KT 10SM BKN042 OVC048 09/06 A2974 RMK AO2,M
CXP,2023-03-21 15:55,-119.7326,39.1923,1431.00,33.80,19.40,55.14,30.00,8.00,0.00,29.59,M,10.00,M,BKN,M,M,M,8000.00,M,M,M,M,M,M,M,M,M,M,26.33,KCXP 211555Z AUTO 03008KT 10SM BKN080 01/M07 A2959 RMK AO2,M
RNO,2023-03-21 15:55,-119.7711,39.4839,1341.00,34.00,23.00,63.72,0.00,0.00,0.00,29.58,1000.90,10.00,M,FEW,SCT,OVC,M,6500.00,10000.00,15000.00,M,M,M,M,M,M,M,M,34.00,KRNO 211555Z 00000KT 10SM FEW065 SCT100 OVC150 01/M05 A2958 RMK AO2 SLP009 T00111050,M
RTS,2023-03-21 15:55,-119.8764,39.6682,1539.00,30.20,21.20,68.83,80.00,4.00,0.00,29.57,M,10.00,M,CLR,M,M,M,M,M,M,M,M,M,M,M,M,M,M,25.32,KRTS 211555Z AUTO 08004KT 10SM CLR M01/M06 A2957 RMK AO2,M
MEV,2023-03-21 15:55,-119.7500,38.9963,1441.42,33.80,24.80,69.25,M,4.00,0.00,29.56,M,10.00,M,FEW,M,M,M,6000.00,M,M,M,M,M,M,M,M,M,M,29.52,KMEV 211555Z AUTO VRB04KT 10SM FEW060 01/M04 A2956 RMK AO2,M
BAM,2023-03-21 15:55,-116.8743,40.5990,1382.36,33.80,21.20,59.53,30.00,12.00,0.00,29.71,M,10.00,15.00,CLR,M,M,M,M,M,M,M,M,M,M,M,M,M,M,24.29,KBAM 211555Z AUTO 03012G15KT 10SM CLR 01/M06 A2971 RMK AO1,M
HTH,2023-03-21 15:55,-118.6315,38.5448,1282.89,35.60,32.00,86.59,0.00,0.00,0.01,29.60,M,3.00,M,CLR,M,M,M,M,M,M,M,BR,M,M,M,M,M,M,35.60,KHTH 211555Z AUTO 00000KT 3SM BR CLR 02/00 A2960 RMK A01 P0001,M
TMT,2023-03-21 15:55,-117.1971,39.4643,1749.34,33.40,21.60,61.53,160.00,3.00,0.00,29.62,M,10.00,M,SCT,M,M,M,9000.00,M,M,M,M,M,M,M,M,M,M,30.29,KTMT 211555Z AUTO 16003KT 10SM SCT090 01/M06 A2962 RMK AO2 T00081058,M
LSV,2023-03-21 15:55,-115.0343,36.2362,570.00,48.40,48.00,98.51,170.00,9.00,T,29.71,1005.60,10.00,M,OVC,M,M,M,3200.00,M,M,M,M,M,M,M,M,M,M,43.91,KLSV 211555Z AUTO 17009KT 10SM OVC032 09/09 A2971 RMK AO2 RAB17E50 SLP056 P0000 T00910089 $,M
INS,2023-03-21 15:55,-115.6733,36.5872,955.00,45.00,40.00,81.88,120.00,14.00,T,29.67,1003.30,10.00,18.00,FEW,OVC,M,M,2300.00,7000.00,M,M,-DZ,M,M,M,M,M,M,38.05,KINS 211555Z AUTO 12014G18KT 10SM -DZ FEW023 OVC070 07/04 A2967 RMK AO2 DZB35 SLP033 P0000 T00730044 $,M
EKO,2023-03-21 15:56,-115.7860,40.8242,1367.00,28.90,16.00,58.06,70.00,7.00,0.00,29.72,1007.90,10.00,M,CLR,M,M,M,M,M,M,M,M,M,M,M,M,M,M,21.00,KEKO 211556Z AUTO 07007KT 10SM CLR M02/M09 A2972 RMK AO2 SLP079 T10171089,M
WMC,2023-03-21 15:56,-117.8072,40.9019,1315.00,35.00,19.00,51.47,60.00,14.00,0.00,29.66,1005.30,10.00,21.00,CLR,M,M,M,M,M,M,M,M,M,M,M,M,M,M,25.16,KWMC 211556Z AUTO 06014G21KT 10SM CLR 02/M07 A2966 RMK AO2 SLP053 T00171072,M
HND,2023-03-21 15:56,-115.1344,35.9729,742.79,48.00,41.00,76.58,160.00,8.00,T,29.74,1008.20,10.00,M,FEW,OVC,M,M,1800.00,3800.00,M,M,M,M,M,M,M,M,M,43.82,KHND 211556Z 16008KT 10SM FEW018 OVC038 09/05 A2974 RMK AO2 RAE23 SLP082 P0000 T00890050,M
LAS,2023-03-21 15:56,-115.1634,36.0719,663.00,50.00,41.00,71.07,170.00,5.00,0.00,29.72,1005.70,10.00,M,FEW,BKN,BKN,M,2000.00,4200.00,6000.00,M,M,M,M,M,M,M,M,50.00,KLAS 211556Z 17005KT 10SM FEW020 BKN042 BKN060 10/05 A2972 RMK AO2 SLP057 T01000050,M
NFL,2023-03-21 15:56,-118.7010,39.4166,1199.00,35.00,23.00,60.99,360.00,3.00,0.00,29.60,1000.90,10.00,M,BKN,OVC,M,M,7500.00,9000.00,M,M,M,M,M,M,M,M,M,32.23,KNFL 211556Z 36003KT 10SM BKN075 OVC090 02/M05 A2960 RMK AO2 SLP009 T00171050,M
TPH,2023-03-21 15:56,-117.0904,38.0505,1654.00,33.00,32.00,95.67,120.00,10.00,T,29.62,1002.70,1.00,M,OVC,M,M,M,800.00,M,M,M,-SN BR,M,M,M,M,M,M,24.35,KTPH 211556Z AUTO 12010KT 1SM -SN BR OVC008 01/00 A2962 RMK AO2 UPE1457SNB1457 SLP027 P0000 T00060000,M
INS,2023-03-21 15:59,-115.6733,36.5872,955.00,44.60,41.00,87.09,120.00,11.00,0.00,29.67,1003.30,10.00,M,FEW,OVC,M,M,2300.00,7000.00,M,M,M,M,M,M,M,M,M,38.39,KINS 211559Z AUTO 12011KT 10SM FEW023 OVC070 07/05 A2967 RMK AO2 DZE59 SLP033 $,M
TPH,2023-03-21 16:08,-117.0904,38.0505,1654.00,34.00,32.00,92.29,120.00,10.00,T,29.62,M,1.00,M,FEW,BKN,OVC,M,500.00,1000.00,1300.00,M,-SN BR,M,M,M,M,M,M,25.48,KTPH 211608Z AUTO 12010KT 1SM -SN BR FEW005 BKN010 OVC013 01/00 A2962 RMK AO2 P0000 T00110000,M
05U,2023-03-21 16:10,-116.0051,39.6042,1811.23,28.40,24.80,86.18,40.00,5.00,0.00,29.69,M,10.00,M,CLR,M,M,M,M,M,M,M,M,M,M,M,M,M,M,22.12,K05U 211610Z AUTO 04005KT 10SM CLR M02/M04 A2969 RMK A01,M
TPH,2023-03-21 16:13,-117.0904,38.0505,1654.00,33.00,32.00,95.67,120.00,12.00,T,29.62,M,0.75,M,BKN,OVC,M,M,900.00,1300.00,M,M,-SN BR,M,M,M,M,M,M,23.40,KTPH 211613Z AUTO 12012KT 3/4SM -SN BR BKN009 OVC013 01/00 A2962 RMK AO2 P0000 T00060000,M
BVU,2023-03-21 16:15,-114.8611,35.9475,671.00,50.00,41.00,71.07,180.00,11.00,0.00,29.74,M,10.00,18.00,OVC,M,M,M,3800.00,M,M,M,M,M,M,M,M,M,M,50.00,KBVU 211615Z AUTO 18011G18KT 10SM OVC038 10/05 A2974 RMK AO2,M
CXP,2023-03-21 16:15,-119.7326,39.1923,1431.00,33.80,19.40,55.14,60.00,9.00,0.00,29.59,M,10.00,15.00,SCT,BKN,M,M,6500.00,7500.00,M,M,M,M,M,M,M,M,M,25.75,KCXP 211615Z AUTO 06009G15KT 10SM SCT065 BKN075 01/M07 A2959 RMK AO2,M
RTS,2023-03-21 16:15,-119.8764,39.6682,1539.00,32.00,21.20,63.99,110.00,5.00,0.00,29.57,M,10.00,M,CLR,M,M,M,M,M,M,M,M,M,M,M,M,M,M,26.40,KRTS 211615Z AUTO 11005KT 10SM CLR M00/M06 A2957 RMK AO2,M
MEV,2023-03-21 16:15,-119.7500,38.9963,1441.42,33.80,23.00,64.23,350.00,11.00,0.00,29.55,M,10.00,M,SCT,SCT,M,M,4900.00,6000.00,M,M,M,M,M,M,M,M,M,24.74,KMEV 211615Z AUTO 35011KT 10SM SCT049 SCT060 01/M05 A2955 RMK AO2,M
BAM,2023-03-21 16:15,-116.8743,40.5990,1382.36,33.80,21.20,59.53,40.00,12.00,0.00,29.69,M,10.00,M,CLR,M,M,M,M,M,M,M,M,M,M,M,M,M,M,24.29,KBAM 211615Z AUTO 04012KT 10SM CLR 01/M06 A2969 RMK AO1,M
HTH,2023-03-21 16:15,-118.6315,38.5448,1282.89,33.80,32.00,93.03,0.00,0.00,0.00,29.60,M,1.25,M,BKN,BKN,M,M,700.00,1300.00,M,M,BR,M,M,M,M,M,M,33.80,KHTH 211615Z AUTO 00000KT 1 1/4SM BR BKN007 BKN013 01/00 A2960 RMK A01,M
TMT,2023-03-21 16:15,-117.1971,39.4643,1749.34,35.60,20.50,53.79,100.00,15.00,0.00,29.61,M,10.00,21.00,CLR,M,M,M,M,M,M,M,M,M,M,M,M,M,M,25.45,KTMT 211615Z AUTO 10015G21KT 10SM CLR 02/M06 A2961 RMK AO2 T00201064,M
05U,2023-03-21 16:30,-116.0051,39.6042,1811.23,30.20,23.00,74.26,0.00,0.00,0.00,29.69,M,10.00,M,CLR,M,M,M,M,M,M,M,M,M,M,M,M,M,M,30.20,K05U 211630Z AUTO 00000KT 10SM CLR M01/M05 A2969 RMK A01,M
BVU,2023-03-21 16:35,-114.8611,35.9475,671.00,50.00,41.00,71.07,170.00,15.00,0.00,29.73,M,10.00,M,OVC,M,M,M,3900.00,M,M,M,M,M,M,M,M,M,M,50.00,KBVU 211635Z AUTO 17015KT 10SM OVC039 10/05 A2973 RMK AO2,M
CXP,2023-03-21 16:35,-119.7326,39.1923,1431.00,33.80,19.40,55.14,60.00,10.00,0.00,29.58,M,10.00,M,OVC,M,M,M,6500.00,M,M,M,M,M,M,M,M,M,M,25.23,KCXP 211635Z AUTO 06010KT 10SM OVC065 01/M07 A2958 RMK AO2,M
RTS,2023-03-21 16:35,-119.8764,39.6682,1539.00,33.80,21.20,59.53,80.00,8.00,0.00,29.56,M,10.00,M,CLR,M,M,M,M,M,M,M,M,M,M,M,M,M,M,26.33,KRTS 211635Z AUTO 08008KT 10SM CLR 01/M06 A2956 RMK AO2,M
MEV,2023-03-21 16:35,-119.7500,38.9963,1441.42,33.80,21.20,59.53,360.00,11.00,0.00,29.55,M,10.00,M,SCT,BKN,M,M,4100.00,4700.00,M,M,M,M,M,M,M,M,M,24.74,KMEV 211635Z AUTO 36011KT 10SM SCT041 BKN047 01/M06 A2955 RMK AO2,M
BAM,2023-03-21 16:35,-116.8743,40.5990,1382.36,35.60,23.00,59.79,40.00,14.00,0.00,29.69,M,10.00,M,CLR,M,M,M,M,M,M,M,M,M,M,M,M,M,M,25.80,KBAM 211635Z AUTO 04014KT 10SM CLR 02/M05 A2969 RMK AO1,M
HTH,2023-03-21 16:35,-118.6315,38.5448,1282.89,33.80,32.00,93.03,0.00,0.00,0.00,29.59,M,2.50,M,BKN,BKN,BKN,M,500.00,900.00,1300.00,M,BR,M,M,M,M,M,M,33.80,KHTH 211635Z AUTO 00000KT 2 1/2SM BR BKN005 BKN009 BKN013 01/00 A2959 RMK A01,M
TMT,2023-03-21 16:35,-117.1971,39.4643,1749.34,32.20,24.10,71.72,160.00,5.00,0.00,29.62,M,10.00,M,CLR,M,M,M,M,M,M,M,M,M,M,M,M,M,M,26.63,KTMT 211635Z AUTO 16005KT 10SM CLR 00/M04 A2962 RMK AO2 T00011044,M
TPH,2023-03-21 16:45,-117.0904,38.0505,1654.00,33.00,32.00,95.67,120.00,9.00,T,29.61,M,0.50,M,BKN,OVC,M,M,300.00,900.00,M,M,SN FG,M,M,M,M,M,M,24.88,KTPH 211645Z AUTO 12009KT 1/2SM SN FG BKN003 OVC009 01/00 A2961 RMK AO2 P0000 T00060000,M
05U,2023-03-21 16:50,-116.0051,39.6042,1811.23,30.20,23.00,74.26,0.00,0.00,0.00,29.68,M,10.00,M,CLR,M,M,M,M,M,M,M,M,M,M,M,M,M,M,30.20,K05U 211650Z AUTO 00000KT 10SM CLR M01/M05 A2968 RMK A01,M
P68,2023-03-21 16:53,-116.0056,39.6014,1993.00,30.00,23.00,74.87,0.00,0.00,0.00,29.65,1004.00,M,M,M,M,M,M,M,M,M,M,M,M,M,M,M,M,M,30.00,KP68 211653Z AUTO 00000KT M01/M05 A2965 RMK AO1 SLP040 T10111050,M
ELY,2023-03-21 16:53,-114.8453,39.2950,1909.00,28.90,19.00,66.08,M,3.00,0.00,29.70,1006.80,10.00,M,SCT,BKN,M,M,5500.00,7000.00,M,M,M,M,M,M,M,M,M,25.14,KELY 211653Z AUTO VRB03KT 10SM SCT055 BKN070 M02/M07 A2970 RMK AO2 SLP068 T10171072,M
VGT,2023-03-21 16:53,-115.1933,36.2111,667.00,51.00,43.00,73.69,110.00,10.00,0.01,29.71,1007.50,10.00,M,SCT,BKN,OVC,M,2300.00,2900.00,4100.00,M,-RA,M,M,M,M,M,M,51.10,KVGT 211653Z 11010KT 10SM -RA SCT023 BKN029 OVC041 11/06 A2971 RMK AO2 SLP075 P0001 T01060061,M
DRA,2023-03-21 16:53,-116.0278,36.6206,1009.00,46.00,38.00,73.18,250.00,8.00,T,29.65,1002.20,10.00,15.00,BKN,OVC,M,M,2500.00,5500.00,M,M,M,M,M,M,M,M,M,41.36,KDRA 211653Z AUTO 25008G15KT 10SM BKN025 OVC055 08/03 A2965 RMK AO2 RAE07 SLP022 P0000 T00780033,M
LOL,2023-03-21 16:53,-118.5701,40.0684,1192.43,38.00,19.90,47.89,30.00,17.00,0.00,29.59,1002.60,10.00,23.00,CLR,M,M,M,M,M,M,M,M,M,M,M,M,M,M,27.80,KLOL 211653Z AUTO 03017G23KT 10SM CLR 03/M07 A2959 RMK AO2 SLP026 T00331067,M
BVU,2023-03-21 16:55,-114.8611,35.9475,671.00,50.00,41.00,71.07,160.00,15.00,0.00,29.73,M,10.00,M,FEW,OVC,M,M,2700.00,3900.00,M,M,M,M,M,M,M,M,M,50.00,KBVU 211655Z AUTO 16015KT 10SM FEW027 OVC039 10/05 A2973 RMK AO2,M
CXP,2023-03-21 16:55,-119.7326,39.1923,1431.00,33.80,19.40,55.14,70.00,10.00,0.00,29.57,M,10.00,17.00,SCT,BKN,M,M,5500.00,6500.00,M,M,M,M,M,M,M,M,M,25.23,KCXP 211655Z AUTO 07010G17KT 10SM SCT055 BKN065 01/M07 A2957 RMK AO2,M
RTS,2023-03-21 16:55,-119.8764,39.6682,1539.00,33.80,21.20,59.53,110.00,6.00,0.00,29.55,M,10.00,M,CLR,M,M,M,M,M,M,M,M,M,M,M,M,M,M,27.70,KRTS 211655Z AUTO 11006KT 10SM CLR 01/M06 A2955 RMK AO2,M
MEV,2023-03-21 16:55,-119.7500,38.9963,1441.42,35.60,21.20,55.41,10.00,7.00,0.00,29.55,M,10.00,M,FEW,SCT,BKN,M,1900.00,2800.00,3900.00,M,M,M,M,M,M,M,M,29.17,KMEV 211655Z AUTO 01007KT 10SM FEW019 SCT028 BKN039 02/M06 A2955 RMK AO2,M
BAM,2023-03-21 16:55,-116.8743,40.5990,1382.36,37.40,23.00,55.68,50.00,12.00,0.00,29.69,M,10.00,18.00,CLR,M,M,M,M,M,M,M,M,M,M,M,M,M,M,28.87,KBAM 211655Z AUTO 05012G18KT 10SM CLR 03/M05 A2969 RMK AO1,M
HTH,2023-03-21 16:55,-118.6315,38.5448,1282.89,33.80,33.80,100.00,240.00,4.00,0.01,29.57,M,3.00,M,SCT,M,M,M,400.00,M,M,M,BR,M,M,M,M,M,M,29.52,KHTH 211655Z AUTO 24004KT 3SM BR SCT004 01/01 A2957 RMK A01 P0001,M
TMT,2023-03-21 16:55,-117.1971,39.4643,1749.34,34.00,21.00,58.56,110.00,10.00,0.00,29.61,M,10.00,M,SCT,M,M,M,7000.00,M,M,M,M,M,M,M,M,M,M,25.48,KTMT 211655Z AUTO 11010KT 10SM SCT070 01/M06 A2961 RMK AO2 T00111061,M
LSV,2023-03-21 16:55,-115.0343,36.2362,570.00,49.80,46.00,86.70,170.00,10.00,0.00,29.71,1005.60,10.00,19.00,OVC,M,M,M,3600.00,M,M,M,M,M,M,M,M,M,M,45.29,KLSV 211655Z AUTO 17010G19KT 10SM OVC036 10/08 A2971 RMK AO2 SLP056 T00990078 $,M
INS,2023-03-21 16:55,-115.6733,36.5872,955.00,48.20,38.00,67.89,110.00,17.00,T,29.67,1003.10,10.00,22.00,BKN,BKN,M,M,4300.00,6000.00,M,M,M,M,M,M,M,M,M,41.30,KINS 211655Z AUTO 11017G22KT 10SM BKN043 BKN060 09/03 A2967 RMK AO2 DZE1559 SLP031 P0000 T00900034 $,M
RNO,2023-03-21 16:55,-119.7711,39.4839,1341.00,38.00,19.00,46.08,90.00,8.00,0.00,29.56,1000.00,10.00,M,BKN,OVC,M,M,8500.00,12000.00,M,M,M,M,M,M,M,M,M,31.38,KRNO 211655Z 09008KT 060V130 10SM BKN085 OVC120 03/M07 A2956 RMK AO2 SLP000 T00331072,M
EKO,2023-03-21 16:56,-115.7860,40.8242,1367.00,34.00,18.00,51.52,50.00,10.00,0.00,29.70,1007.00,10.00,16.00,CLR,M,M,M,M,M,M,M,M,M,M,M,M,M,M,25.48,KEKO 211656Z AUTO 05010G16KT 10SM CLR 01/M08 A2970 RMK AO2 SLP070 T00111078,M
NFL,2023-03-21 16:56,-118.7010,39.4166,1199.00,37.00,23.00,56.57,320.00,4.00,0.00,29.58,1000.30,10.00,M,BKN,OVC,M,M,6000.00,9000.00,M,M,M,M,M,M,M,M,M,33.26,KNFL 211656Z 32004KT 10SM BKN060 OVC090 03/M05 A2958 RMK AO2 SLP003 T00281050,M
LAS,2023-03-21 16:56,-115.1634,36.0719,663.00,50.00,39.00,65.75,M,5.00,0.00,29.71,1005.40,10.00,M,OVC,M,M,M,3700.00,M,M,M,M,M,M,M,M,M,M,50.00,KLAS 211656Z VRB05KT 10SM OVC037 10/04 A2971 RMK AO2 SLP054 T01000039,M
WMC,2023-03-21 16:56,-117.8072,40.9019,1315.00,38.00,19.90,47.89,40.00,20.00,0.00,29.64,1004.10,10.00,30.00,CLR,M,M,M,M,M,M,M,M,M,M,M,30.00,40.00,2023-03-21 16:56,26.98,KWMC 211656Z AUTO 04020G30KT 10SM CLR 03/M07 A2964 RMK AO2 PK WND 04030/1656 SLP041 T00331067,M
TPH,2023-03-21 16:56,-117.0904,38.0505,1654.00,33.00,32.00,95.67,110.00,11.00,T,29.60,1002.20,0.50,M,BKN,OVC,M,M,300.00,900.00,M,M,SN FG,M,M,M,M,M,M,23.86,KTPH 211656Z AUTO 11011KT 1/2SM SN FG BKN003 OVC009 01/00 A2960 RMK AO2 SLP022 P0000 T00060000,M
HND,2023-03-21 16:56,-115.1344,35.9729,742.79,49.00,40.00,70.95,160.00,16.00,0.00,29.73,1007.80,10.00,19.00,FEW,OVC,M,M,2000.00,3700.00,M,M,M,M,M,M,M,M,M,42.45,KHND 211656Z 16016G19KT 10SM FEW020 OVC037 09/04 A2973 RMK AO2 SLP078 T00940044,M
DRA,2023-03-21 17:07,-116.0278,36.6206,1009.00,47.00,37.00,68.27,0.00,0.00,0.00,29.64,M,10.00,M,SCT,BKN,OVC,M,2500.00,4200.00,6000.00,M,M,M,M,M,M,M,M,46.90,KDRA 211707Z AUTO 00000KT 10SM SCT025 BKN042 OVC060 08/03 A2964 RMK AO2 T00830028,M
TPH,2023-03-21 17:13,-117.0904,38.0505,1654.00,34.00,33.00,96.46,120.00,13.00,T,29.60,M,1.25,M,BKN,OVC,M,M,500.00,1100.00,M,M,-SN BR,M,M,M,M,M,M,24.13,KTPH 211713Z AUTO 12013KT 1 1/4SM -SN BR BKN005 OVC011 01/01 A2960 RMK AO2 P0000 T00110006,M
BVU,2023-03-21 17:15,-114.8611,35.9475,671.00,50.00,41.00,71.07,140.00,17.00,0.00,29.72,M,10.00,M,OVC,M,M,M,3900.00,M,M,M,M,M,M,M,M,M,M,50.00,KBVU 211715Z AUTO 14017KT 10SM OVC039 10/05 A2972 RMK AO2,M
CXP,2023-03-21 17:15,-119.7326,39.1923,1431.00,33.80,19.40,55.14,70.00,17.00,0.00,29.56,M,10.00,M,CLR,M,M,M,M,M,M,M,M,M,M,M,M,M,M,22.43,KCXP 211715Z AUTO 07017KT 10SM CLR 01/M07 A2956 RMK AO2,M
RTS,2023-03-21 17:15,-119.8764,39.6682,1539.00,33.80,19.40,55.14,110.00,6.00,0.00,29.55,M,10.00,M,CLR,M,M,M,M,M,M,M,M,M,M,M,M,M,M,27.70,KRTS 211715Z AUTO 11006KT 10SM CLR 01/M07 A2955 RMK AO2,M
05U,2023-03-21 17:15,-116.0051,39.6042,1811.23,30.20,23.00,74.26,0.00,0.00,0.00,29.68,M,10.00,M,CLR,M,M,M,M,M,M,M,M,M,M,M,M,M,M,30.20,K05U 211715Z AUTO 00000KT 10SM CLR M01/M05 A2968 RMK A01,M
MEV,2023-03-21 17:15,-119.7500,38.9963,1441.42,35.60,23.00,59.79,320.00,4.00,0.00,29.54,M,10.00,M,FEW,SCT,BKN,M,1500.00,2800.00,3300.00,M,M,M,M,M,M,M,M,31.62,KMEV 211715Z AUTO 32004KT 10SM FEW015 SCT028 BKN033 02/M05 A2954 RMK AO2,M
BAM,2023-03-21 17:15,-116.8743,40.5990,1382.36,37.40,23.00,55.68,50.00,13.00,0.00,29.69,M,10.00,M,CLR,M,M,M,M,M,M,M,M,M,M,M,M,M,M,28.49,KBAM 211715Z AUTO 05013KT 10SM CLR 03/M05 A2969 RMK AO1,M
HTH,2023-03-21 17:15,-118.6315,38.5448,1282.89,33.80,33.80,100.00,250.00,4.00,0.00,29.56,M,6.00,M,BKN,M,M,M,500.00,M,M,M,BR,M,M,M,M,M,M,29.52,KHTH 211715Z AUTO 25004KT 6SM BR BKN005 01/01 A2956 RMK A01,M
TMT,2023-03-21 17:15,-117.1971,39.4643,1749.34,33.40,23.00,65.27,130.00,12.00,0.00,29.61,M,10.00,22.00,SCT,SCT,M,M,7000.00,8500.00,M,M,M,M,M,M,M,M,M,23.78,KTMT 211715Z AUTO 13012G22KT 10SM SCT070 SCT085 01/M05 A2961 RMK AO2 T00081050,M
VGT,2023-03-21 17:16,-115.1933,36.2111,667.00,51.00,42.00,71.19,120.00,8.00,T,29.70,M,10.00,M,FEW,BKN,OVC,M,2600.00,3500.00,4200.00,M,M,M,M,M,M,M,M,51.10,KVGT 211716Z 12008KT 10SM FEW026 BKN035 OVC042 11/06 A2970 RMK AO2 RAE11 P0000 T01060056,M
DRA,2023-03-21 17:22,-116.0278,36.6206,1009.00,47.00,37.00,68.27,M,5.00,0.00,29.65,M,10.00,M,BKN,BKN,OVC,M,2500.00,4000.00,6000.00,M,M,M,M,M,M,M,M,44.09,KDRA 211722Z AUTO VRB05KT 10SM BKN025 BKN040 OVC060 08/03 A2965 RMK AO2 T00830028,M
TPH,2023-03-21 17:32,-117.0904,38.0505,1654.00,35.00,34.00,95.71,120.00,13.00,T,29.60,M,3.00,M,BKN,OVC,M,M,600.00,1200.00,M,M,-SN BR,M,M,M,M,M,M,25.54,KTPH 211732Z AUTO 12013KT 3SM -SN BR BKN006 OVC012 02/01 A2960 RMK AO2 P0000 T00170011,M
INS,2023-03-21 17:33,-115.6733,36.5872,955.00,48.20,39.20,70.88,110.00,16.00,0.00,29.65,1002.40,10.00,24.00,BKN,OVC,M,M,4800.00,6000.00,M,M,-DZ,M,M,M,M,M,M,41.53,KINS 211733Z AUTO 11016G24KT 10SM -DZ BKN048 OVC060 09/04 A2965 RMK AO2 DZB33 SLP024 $,M
BVU,2023-03-21 17:35,-114.8611,35.9475,671.00,53.60,42.80,66.70,170.00,18.00,0.00,29.73,M,10.00,M,BKN,M,M,M,4200.00,M,M,M,M,M,M,M,M,M,M,53.60,KBVU 211735Z AUTO 17018KT 10SM BKN042 12/06 A2973 RMK AO2,M
CXP,2023-03-21 17:35,-119.7326,39.1923,1431.00,33.80,23.00,64.23,60.00,12.00,0.00,29.57,M,3.00,19.00,CLR,M,M,M,M,M,M,M,-RA HZ,M,M,M,M,M,M,24.29,KCXP 211735Z AUTO 06012G19KT 3SM -RA HZ CLR 01/M05 A2957 RMK AO2,M
RTS,2023-03-21 17:35,-119.8764,39.6682,1539.00,33.80,19.40,55.14,140.00,8.00,0.00,29.55,M,10.00,M,FEW,M,M,M,4800.00,M,M,M,M,M,M,M,M,M,M,26.33,KRTS 211735Z AUTO 14008KT 10SM FEW048 01/M07 A2955 RMK AO2,M
05U,2023-03-21 17:35,-116.0051,39.6042,1811.23,32.00,23.00,69.04,0.00,0.00,0.00,29.67,M,10.00,M,FEW,M,M,M,6000.00,M,M,M,M,M,M,M,M,M,M,32.00,K05U 211735Z AUTO 00000KT 10SM FEW060 M00/M05 A2967 RMK A01,M
MEV,2023-03-21 17:35,-119.7500,38.9963,1441.42,33.80,24.80,69.25,M,4.00,0.00,29.54,M,2.50,M,FEW,SCT,BKN,M,1900.00,3300.00,3900.00,M,-SN HZ,M,M,M,M,M,M,29.52,KMEV 211735Z AUTO VRB04KT 2 1/2SM -SN HZ FEW019 SCT033 BKN039 01/M04 A2954 RMK AO2,M
BAM,2023-03-21 17:35,-116.8743,40.5990,1382.36,41.00,23.00,48.39,50.00,12.00,0.00,29.67,M,10.00,M,CLR,M,M,M,M,M,M,M,M,M,M,M,M,M,M,33.46,KBAM 211735Z AUTO 05012KT 10SM CLR 05/M05 A2967 RMK AO1,M
HTH,2023-03-21 17:35,-118.6315,38.5448,1282.89,35.60,33.80,93.08,0.00,0.00,0.00,29.56,M,6.00,M,SCT,BKN,BKN,M,600.00,3100.00,3700.00,M,BR,M,M,M,M,M,M,35.60,KHTH 211735Z AUTO 00000KT 6SM BR SCT006 BKN031 BKN037 02/01 A2956 RMK A01,M
TMT,2023-03-21 17:35,-117.1971,39.4643,1749.34,33.00,22.50,64.68,100.00,15.00,0.00,29.61,M,10.00,20.00,SCT,BKN,BKN,M,6500.00,7500.00,8500.00,M,M,M,M,M,M,M,M,22.21,KTMT 211735Z AUTO 10015G20KT 10SM SCT065 BKN075 BKN085 01/M05 A2961 RMK AO2 T00061053,M
TPH,2023-03-21 17:41,-117.0904,38.0505,1654.00,34.00,34.00,100.00,120.00,15.00,T,29.60,M,1.75,M,BKN,OVC,M,M,600.00,1200.00,M,M,-SN BR,M,M,M,M,M,M,23.37,KTPH 211741Z AUTO 12015KT 1 3/4SM -SN BR BKN006 OVC012 01/01 A2960 RMK AO2 P0000 T00110011,M
RNO,2023-03-21 17:50,-119.7711,39.4839,1341.00,37.40,21.20,51.61,90.00,11.00,T,29.55,M,10.00,M,BKN,OVC,M,M,4000.00,8500.00,M,M,-SN,M,M,M,M,M,M,29.29,KRNO 211750Z 09011KT 10SM -SN BKN040 OVC085 03/M06 A2955 RMK AO2 SNB50 P0000,M
INS,2023-03-21 17:53,-115.6733,36.5872,955.00,46.40,39.20,75.84,110.00,19.00,0.00,29.65,1002.40,10.00,27.00,BKN,BKN,OVC,M,1700.00,3600.00,4900.00,M,-RA,M,M,M,M,M,M,38.48,KINS 211753Z AUTO 11019G27KT 10SM -RA BKN017 BKN036 OVC049 08/04 A2965 RMK AO2 DZB33E53RAB53 SLP024 $,M
P68,2023-03-21 17:53,-116.0056,39.6014,1993.00,32.00,24.10,72.30,340.00,6.00,0.00,29.63,1003.20,M,M,M,M,M,M,M,M,M,M,M,M,M,M,M,M,M,25.53,KP68 211753Z AUTO 34006KT 00/M04 A2963 RMK AO1 SLP032 T00001044 10000 21044 58015,M
ELY,2023-03-21 17:53,-114.8453,39.2950,1909.00,30.00,18.00,60.53,0.00,0.00,0.00,29.69,1006.00,10.00,M,BKN,OVC,M,M,6000.00,7500.00,M,M,M,M,M,M,M,M,M,30.00,KELY 211753Z AUTO 00000KT 10SM BKN060 OVC075 M01/M08 A2969 RMK AO2 SLP060 T10111078 11011 21078 58006,M
VGT,2023-03-21 17:53,-115.1933,36.2111,667.00,53.00,41.00,63.38,160.00,13.00,T,29.71,1007.00,10.00,M,FEW,SCT,OVC,M,3000.00,3600.00,4400.00,M,M,M,M,M,M,M,M,53.10,KVGT 211753Z 16013KT 10SM FEW030 SCT036 OVC044 12/05 A2971 RMK AO2 RAE11 SLP070 P0000 60003 T01170050 10117 20089 58001,M
DRA,2023-03-21 17:53,-116.0278,36.6206,1009.00,45.00,40.00,82.19,230.00,14.00,0.01,29.66,1002.60,10.00,21.00,OVC,M,M,M,2300.00,M,M,M,-RA,M,M,M,M,M,M,37.92,KDRA 211753Z AUTO 23014G21KT 10SM -RA OVC023 07/04 A2966 RMK AO2 RAB33 SLP026 P0001 60003 T00720044 10089 20061 55000,M
LOL,2023-03-21 17:53,-118.5701,40.0684,1192.43,42.00,19.90,40.67,40.00,15.00,0.00,29.57,1001.50,10.00,22.00,FEW,M,M,M,12000.00,M,M,M,M,M,M,M,M,M,M,33.87,KLOL 211753Z AUTO 04015G22KT 10SM FEW120 06/M07 A2957 RMK AO2 SLP015 T00561067 10056 21011 56020,M
BVU,2023-03-21 17:55,-114.8611,35.9475,671.00,51.80,42.80,71.26,160.00,18.00,0.00,29.73,M,10.00,M,FEW,BKN,BKN,M,3500.00,4400.00,8500.00,M,M,M,M,M,M,M,M,51.80,KBVU 211755Z AUTO 16018KT 10SM FEW035 BKN044 BKN085 11/06 A2973 RMK AO2,M
CXP,2023-03-21 17:55,-119.7326,39.1923,1431.00,30.20,26.60,86.28,60.00,8.00,0.00,29.56,M,0.25,14.00,BKN,M,M,M,300.00,M,M,M,SN HZ,M,M,M,M,M,M,21.90,KCXP 211755Z AUTO 06008G14KT 1/4SM SN HZ BKN003 M01/M03 A2956 RMK AO2,M
RNO,2023-03-21 17:55,-119.7711,39.4839,1341.00,37.00,21.90,54.01,110.00,12.00,T,29.55,1000.20,9.00,M,BKN,OVC,M,M,4000.00,8500.00,M,M,-SN,M,M,M,M,M,M,28.37,KRNO 211755Z 11012KT 9SM -SN BKN040 OVC085 03/M06 A2955 RMK AO2 SNB50 SLP002 P0000 60000 T00281056 10033 21011 56017,M
LSV,2023-03-21 17:55,-115.0343,36.2362,570.00,51.30,44.60,77.76,130.00,8.00,0.00,29.70,1005.10,10.00,M,OVC,M,M,M,3800.00,M,M,M,M,M,M,M,M,M,M,51.30,KLSV 211755Z AUTO 13008KT 10SM OVC038 11/07 A2970 RMK AO2 SLP051 60000 T01070070 10107 20089 58001 $,M
RTS,2023-03-21 17:55,-119.8764,39.6682,1539.00,33.80,17.60,51.04,130.00,12.00,0.00,29.54,M,10.00,18.00,FEW,SCT,BKN,M,3400.00,4300.00,4900.00,M,M,M,M,M,M,M,M,24.29,KRTS 211755Z AUTO 13012G18KT 10SM FEW034 SCT043 BKN049 01/M08 A2954 RMK AO2,M
05U,2023-03-21 17:55,-116.0051,39.6042,1811.23,32.00,24.80,74.44,360.00,5.00,0.00,29.65,M,10.00,M,FEW,M,M,M,6000.00,M,M,M,M,M,M,M,M,M,M,26.40,K05U 211755Z AUTO 36005KT 10SM FEW060 00/M04 A2965 RMK A01,M
MEV,2023-03-21 17:55,-119.7500,38.9963,1441.42,32.00,28.40,86.39,330.00,8.00,0.00,29.54,M,1.00,M,BKN,BKN,M,M,1900.00,2600.00,M,M,-SN HZ,M,M,M,M,M,M,24.11,KMEV 211755Z AUTO 33008KT 1SM -SN HZ BKN019 BKN026 00/M02 A2954 RMK AO2,M
BAM,2023-03-21 17:55,-116.8743,40.5990,1382.36,41.00,23.00,48.39,40.00,12.00,0.00,29.66,M,10.00,M,CLR,M,M,M,M,M,M,M,M,M,M,M,M,M,M,33.46,KBAM 211755Z AUTO 04012KT 10SM CLR 05/M05 A2966 RMK AO1,M
HTH,2023-03-21 17:55,-118.6315,38.5448,1282.89,35.60,33.80,93.08,0.00,0.00,0.01,29.56,M,8.00,M,FEW,OVC,M,M,700.00,3000.00,M,M,M,M,M,M,M,M,M,35.60,KHTH 211755Z AUTO 00000KT 8SM FEW007 OVC030 02/01 A2956 RMK A01 P0001,M
TMT,2023-03-21 17:55,-117.1971,39.4643,1749.34,33.30,22.50,64.16,90.00,15.00,0.00,29.59,M,10.00,M,SCT,SCT,M,M,6500.00,8500.00,M,M,M,M,M,M,M,M,M,22.47,KTMT 211755Z AUTO 09015KT 10SM SCT065 SCT085 01/M05 A2959 RMK AO2 T00071053 10020 21036,M
INS,2023-03-21 17:55,-115.6733,36.5872,955.00,46.80,39.60,75.88,110.00,18.00,T,29.65,1002.40,10.00,23.00,BKN,BKN,OVC,M,1700.00,3600.00,4900.00,M,-RA,M,M,M,28.00,110.00,2023-03-21 17:48,39.23,KINS 211755Z AUTO 11018G23KT 10SM -RA BKN017 BKN036 OVC049 08/04 A2965 RMK AO2 PK WND 11028/48 DZB33E53RAB53 SLP024 P0000 60000 T00820042 10092 20071 58005 $,M
EKO,2023-03-21 17:56,-115.7860,40.8242,1367.00,37.00,19.00,47.74,40.00,12.00,0.00,29.68,1006.10,10.00,M,CLR,M,M,M,M,M,M,M,M,M,M,M,M,M,M,28.37,KEKO 211756Z AUTO 04012KT 10SM CLR 03/M07 A2968 RMK AO2 SLP061 T00281072 10028 21056 58015,M
HND,2023-03-21 17:56,-115.1344,35.9729,742.79,52.00,41.00,66.00,150.00,11.00,0.00,29.72,1007.50,10.00,16.00,FEW,OVC,M,M,3000.00,3500.00,M,M,M,M,M,M,M,M,M,52.00,KHND 211756Z 15011G16KT 10SM FEW030 OVC035 11/05 A2972 RMK AO2 SLP075 60002 T01110050 10111 20078 58007,M
TPH,2023-03-21 17:56,-117.0904,38.0505,1654.00,33.00,32.00,95.67,120.00,12.00,T,29.59,1002.20,1.00,M,SCT,BKN,OVC,M,700.00,1200.00,2000.00,M,-SN BR,M,M,M,M,M,M,23.40,KTPH 211756Z AUTO 12012KT 1SM -SN BR SCT007 BKN012 OVC020 01/00 A2959 RMK AO2 SLP022 P0000 60000 T00060000 10017 20000 58007,M
LAS,2023-03-21 17:56,-115.1634,36.0719,663.00,52.00,39.00,61.06,170.00,8.00,0.00,29.71,1005.50,10.00,M,FEW,OVC,M,M,2200.00,3800.00,M,M,M,M,M,M,M,M,M,52.00,KLAS 211756Z 17008KT 10SM FEW022 OVC038 11/04 A2971 RMK AO2 SLP055 60002 T01110039 10111 20089 58001,M
NFL,2023-03-21 17:56,-118.7010,39.4166,1199.00,39.00,21.90,49.93,340.00,4.00,0.00,29.56,999.70,10.00,M,BKN,OVC,M,M,5500.00,6500.00,M,M,M,M,M,M,M,M,M,35.59,KNFL 211756Z 34004KT 10SM BKN055 OVC065 04/M06 A2956 RMK AO2 SLP997 T00391056 10039 21011 58017,M
WMC,2023-03-21 17:56,-117.8072,40.9019,1315.00,42.00,21.00,42.62,40.00,19.00,0.00,29.61,1003.20,10.00,31.00,CLR,M,M,M,M,M,M,M,M,M,M,M,31.00,50.00,2023-03-21 17:54,32.79,KWMC 211756Z AUTO 04019G31KT 10SM CLR 06/M06 A2961 RMK AO2 PK WND 05031/1754 SLP032 T00561061 10056 21039 58021,M
INS,2023-03-21 18:02,-115.6733,36.5872,955.00,46.40,39.20,75.84,110.00,20.00,0.00,29.65,1002.40,10.00,25.00,BKN,BKN,OVC,M,1700.00,3500.00,4900.00,M,M,M,M,M,M,M,M,38.26,KINS 211802Z AUTO 11020G25KT 10SM BKN017 BKN035 OVC049 08/04 A2965 RMK AO2 RAE02 SLP024 $,M
TPH,2023-03-21 18:07,-117.0904,38.0505,1654.00,34.00,33.00,96.46,110.00,13.00,T,29.59,M,2.00,M,SCT,SCT,OVC,M,600.00,1400.00,2800.00,M,-SN BR,M,M,M,M,M,M,24.13,KTPH 211807Z AUTO 11013KT 2SM -SN BR SCT006 SCT014 OVC028 01/01 A2959 RMK AO2 P0000 T00110006,M
TPH,2023-03-21 18:14,-117.0904,38.0505,1654.00,35.00,34.00,95.71,110.00,11.00,T,29.58,M,3.00,M,FEW,SCT,OVC,M,700.00,1500.00,3000.00,M,-SN BR,M,M,M,M,M,M,26.38,KTPH 211814Z AUTO 11011KT 3SM -SN BR FEW007 SCT015 OVC030 02/01 A2958 RMK AO2 P0000 T00170011,M
BVU,2023-03-21 18:15,-114.8611,35.9475,671.00,51.80,41.00,66.48,150.00,19.00,0.00,29.74,M,10.00,26.00,BKN,OVC,M,M,4600.00,5500.00,M,M,M,M,M,M,M,M,M,51.80,KBVU 211815Z AUTO 15019G26KT 10SM BKN046 OVC055 11/05 A2974 RMK AO2,M
CXP,2023-03-21 18:15,-119.7326,39.1923,1431.00,30.20,28.40,92.92,M,6.00,0.00,29.56,M,0.50,M,BKN,BKN,BKN,M,300.00,1300.00,2000.00,M,-SN BR,M,M,M,M,M,M,23.36,KCXP 211815Z AUTO VRB06KT 1/2SM -SN BR BKN003 BKN013 BKN020 M01/M02 A2956 RMK AO2,M
RTS,2023-03-21 18:15,-119.8764,39.6682,1539.00,32.00,21.20,63.99,130.00,20.00,0.00,29.54,M,5.00,M,FEW,FEW,SCT,M,2400.00,3200.00,4300.00,M,HZ,M,M,M,M,M,M,19.14,KRTS 211815Z AUTO 13020KT 5SM HZ FEW024 FEW032 SCT043 00/M06 A2954 RMK AO2,M
05U,2023-03-21 18:15,-116.0051,39.6042,1811.23,33.80,23.00,64.23,M,4.00,0.00,29.65,M,10.00,M,CLR,M,M,M,M,M,M,M,M,M,M,M,M,M,M,29.52,K05U 211815Z AUTO VRB04KT 10SM CLR 01/M05 A2965 RMK A01,M
MEV,2023-03-21 18:15,-119.7500,38.9963,1441.42,30.20,28.40,92.92,350.00,11.00,0.00,29.53,M,0.50,M,BKN,BKN,M,M,2000.00,2600.00,M,M,-SN FZFG,M,M,M,M,M,M,20.19,KMEV 211815Z AUTO 35011KT 1/2SM -SN FZFG BKN020 BKN026 M01/M02 A2953 RMK AO2,M
BAM,2023-03-21 18:15,-116.8743,40.5990,1382.36,42.80,23.00,45.14,50.00,12.00,0.00,29.65,M,10.00,M,CLR,M,M,M,M,M,M,M,M,M,M,M,M,M,M,35.75,KBAM 211815Z AUTO 05012KT 10SM CLR 06/M05 A2965 RMK AO1,M
HTH,2023-03-21 18:15,-118.6315,38.5448,1282.89,35.60,33.80,93.08,0.00,0.00,0.00,29.55,M,5.00,M,FEW,SCT,M,M,700.00,2900.00,M,M,BR,M,M,M,M,M,M,35.60,KHTH 211815Z AUTO 00000KT 5SM BR FEW007 SCT029 02/01 A2955 RMK A01,M
TMT,2023-03-21 18:15,-117.1971,39.4643,1749.34,33.80,23.90,66.70,80.00,13.00,0.00,29.58,M,10.00,M,CLR,M,M,M,M,M,M,M,M,M,M,M,M,M,M,23.87,KTMT 211815Z AUTO 08013KT 10SM CLR 01/M04 A2958 RMK AO2 T00101045,M
DRA,2023-03-21 18:15,-116.0278,36.6206,1009.00,45.00,42.00,89.49,230.00,5.00,T,29.65,M,9.00,M,SCT,SCT,OVC,M,2100.00,2600.00,4500.00,M,-RA,M,M,M,M,M,M,41.83,KDRA 211815Z AUTO 23005KT 9SM -RA SCT021 SCT026 OVC045 07/06 A2965 RMK AO2 P0000 T00720056,M
INS,2023-03-21 18:17,-115.6733,36.5872,955.00,48.20,39.20,70.88,120.00,17.00,0.00,29.66,1002.70,10.00,23.00,SCT,BKN,BKN,OVC,1700.00,3400.00,6500.00,8000.00,M,M,M,M,M,M,M,41.30,KINS 211817Z AUTO 12017G23KT 10SM SCT017 BKN034 BKN065 OVC080 09/04 A2966 RMK AO2 RAE02 SLP027 $,M
RNO,2023-03-21 18:24,-119.7711,39.4839,1341.00,35.00,27.00,72.04,80.00,8.00,T,29.55,M,2.50,M,BKN,OVC,M,M,2400.00,5500.00,M,M,-SN,M,M,M,M,M,M,27.93,KRNO 211824Z 08008KT 2 1/2SM -SN BKN024 OVC055 02/M03 A2955 RMK AO2 P0000 T00171028,M
TPH,2023-03-21 18:24,-117.0904,38.0505,1654.00,35.00,34.00,95.71,120.00,12.00,T,29.57,M,3.00,M,FEW,SCT,OVC,M,1200.00,2000.00,2800.00,M,-SN BR,M,M,M,M,M,M,25.95,KTPH 211824Z AUTO 12012KT 3SM -SN BR FEW012 SCT020 OVC028 02/01 A2957 RMK AO2 P0000 T00170011,M
INS,2023-03-21 18:25,-115.6733,36.5872,955.00,46.40,39.20,75.84,120.00,19.00,0.00,29.67,1003.30,10.00,23.00,FEW,SCT,BKN,OVC,1700.00,2800.00,3400.00,6500.00,-DZ,M,M,M,M,M,M,38.48,KINS 211825Z AUTO 12019G23KT 10SM -DZ FEW017 SCT028 BKN034 OVC065 08/04 A2967 RMK AO2 RAE02DZB25 SLP033 $,M
RNO,2023-03-21 18:29,-119.7711,39.4839,1341.00,34.00,28.00,78.43,60.00,6.00,T,29.55,M,1.50,M,OVC,M,M,M,2200.00,M,M,M,-SN,M,M,M,M,M,M,27.94,KRNO 211829Z 06006KT 1 1/2SM -SN OVC022 01/M02 A2955 RMK AO2 P0000 T00111022,M
INS,2023-03-21 18:30,-115.6733,36.5872,955.00,46.40,41.00,81.34,120.00,15.00,0.00,29.66,1003.00,10.00,23.00,FEW,BKN,BKN,BKN,2100.00,2800.00,3400.00,6500.00,-RA,M,M,M,M,M,M,39.45,KINS 211830Z AUTO 12015G23KT 10SM -RA FEW021 BKN028 BKN034 BKN065 08/05 A2966 RMK AO2 RAE02DZB25E27RAB27 BKN028 V SCT SLP030 $,M
BVU,2023-03-21 18:35,-114.8611,35.9475,671.00,50.00,41.00,71.07,150.00,17.00,0.00,29.73,M,10.00,M,BKN,BKN,OVC,M,3200.00,4100.00,4900.00,M,M,M,M,M,M,M,M,50.00,KBVU 211835Z AUTO 15017KT 10SM BKN032 BKN041 OVC049 10/05 A2973 RMK AO2,M
CXP,2023-03-21 18:35,-119.7326,39.1923,1431.00,32.00,28.40,86.39,310.00,5.00,0.00,29.54,M,0.50,M,VV ,M,M,M,500.00,M,M,M,-SN FZFG,M,M,M,M,M,M,26.40,KCXP 211835Z AUTO 31005KT 1/2SM -SN FZFG VV005 M00/M02 A2954 RMK AO2,M
RTS,2023-03-21 18:35,-119.8764,39.6682,1539.00,30.20,23.00,74.26,140.00,15.00,0.00,29.54,M,3.00,M,CLR,M,M,M,M,M,M,M,HZ,M,M,M,M,M,M,18.45,KRTS 211835Z AUTO 14015KT 3SM HZ CLR M01/M05 A2954 RMK AO2,M
05U,2023-03-21 18:35,-116.0051,39.6042,1811.23,35.60,23.00,59.79,M,3.00,0.00,29.64,M,10.00,M,CLR,M,M,M,M,M,M,M,M,M,M,M,M,M,M,32.80,K05U 211835Z AUTO VRB03KT 10SM CLR 02/M05 A2964 RMK A01,M
MEV,2023-03-21 18:35,-119.7500,38.9963,1441.42,30.20,28.40,92.92,340.00,13.00,0.00,29.52,M,0.25,24.00,BKN,M,M,M,300.00,M,M,M,SN FZFG,M,M,M,M,M,M,19.26,KMEV 211835Z AUTO 34013G24KT 1/4SM SN FZFG BKN003 M01/M02 A2952 RMK AO2,M
BAM,2023-03-21 18:35,-116.8743,40.5990,1382.36,42.80,23.00,45.14,60.00,10.00,0.00,29.65,M,10.00,M,BKN,M,M,M,11000.00,M,M,M,M,M,M,M,M,M,M,36.51,KBAM 211835Z AUTO 06010KT 10SM BKN110 06/M05 A2965 RMK AO1,M
HTH,2023-03-21 18:35,-118.6315,38.5448,1282.89,35.60,33.80,93.08,0.00,0.00,0.00,29.53,M,2.50,M,CLR,M,M,M,M,M,M,M,BR,M,M,M,M,M,M,35.60,KHTH 211835Z AUTO 00000KT 2 1/2SM BR CLR 02/01 A2953 RMK A01,M
TMT,2023-03-21 18:35,-117.1971,39.4643,1749.34,35.20,25.30,66.87,90.00,12.00,0.00,29.57,M,10.00,M,CLR,M,M,M,M,M,M,M,M,M,M,M,M,M,M,26.07,KTMT 211835Z AUTO 09012KT 10SM CLR 02/M04 A2957 RMK AO2 T00181037,M
TPH,2023-03-21 18:37,-117.0904,38.0505,1654.00,35.00,34.00,95.71,130.00,15.00,T,29.58,M,3.00,21.00,FEW,BKN,OVC,M,700.00,1900.00,2900.00,M,-SN BR,M,M,M,M,M,M,24.80,KTPH 211837Z AUTO 13015G21KT 3SM -SN BR FEW007 BKN019 OVC029 02/01 A2958 RMK AO2 P0000 T00170011,M
TPH,2023-03-21 18:42,-117.0904,38.0505,1654.00,35.00,34.00,95.71,140.00,14.00,T,29.58,M,1.75,M,FEW,FEW,OVC,M,700.00,1100.00,1700.00,M,-SN BR,M,M,M,M,M,M,25.16,KTPH 211842Z AUTO 14014KT 1 3/4SM -SN BR FEW007 FEW011 OVC017 02/01 A2958 RMK AO2 P0000 T00170011,M
INS,2023-03-21 18:49,-115.6733,36.5872,955.00,46.40,42.80,87.19,120.00,21.00,0.00,29.65,1002.60,10.00,27.00,FEW,FEW,SCT,BKN,900.00,1400.00,2100.00,3000.00,M,M,M,M,M,M,M,38.06,KINS 211849Z AUTO 12021G27KT 10SM FEW009 FEW014 SCT021 BKN030 OVC036 08/06 A2965 RMK AO2 RAE02DZB25E27RAB27E49 SLP026 $,M
TPH,2023-03-21 18:49,-117.0904,38.0505,1654.00,35.00,34.00,95.71,140.00,13.00,T,29.58,M,1.75,M,FEW,OVC,M,M,700.00,1400.00,M,M,-SN BR,M,M,M,M,M,M,25.54,KTPH 211849Z AUTO 14013KT 1 3/4SM -SN BR FEW007 OVC014 02/01 A2958 RMK AO2 P0000 T00170011,M
P68,2023-03-21 18:53,-116.0056,39.6014,1993.00,34.00,25.00,69.28,350.00,5.00,0.00,29.62,1002.90,M,M,M,M,M,M,M,M,M,M,M,M,M,M,M,M,M,28.77,KP68 211853Z AUTO 35005KT 01/M04 A2962 RMK AO1 SLP029 T00111039,M
ELY,2023-03-21 18:53,-114.8453,39.2950,1909.00,33.00,18.00,53.40,50.00,3.00,0.00,29.66,1005.20,10.00,M,FEW,OVC,M,M,4400.00,6000.00,M,M,M,M,M,M,M,M,M,29.95,KELY 211853Z AUTO 05003KT 10SM FEW044 OVC060 01/M08 A2966 RMK AO2 SLP052 T00061078,M
LOL,2023-03-21 18:53,-118.5701,40.0684,1192.43,44.00,19.90,37.67,20.00,9.00,0.00,29.55,1001.20,10.00,M,OVC,M,M,M,5000.00,M,M,M,M,M,M,M,M,M,M,38.56,KLOL 211853Z AUTO 02009KT 10SM OVC050 07/M07 A2955 RMK AO2 SLP012 T00671067,M
DRA,2023-03-21 18:53,-116.0278,36.6206,1009.00,45.00,40.00,82.19,300.00,3.00,0.03,29.64,1002.20,7.00,M,SCT,BKN,OVC,M,2800.00,3800.00,4400.00,M,-RA,M,M,M,M,M,M,43.55,KDRA 211853Z AUTO 30003KT 7SM -RA SCT028 BKN038 OVC044 07/04 A2964 RMK AO2 SLP022 P0003 T00720044,M
VGT,2023-03-21 18:53,-115.1933,36.2111,667.00,53.00,42.00,66.13,150.00,7.00,0.00,29.70,1006.90,10.00,M,BKN,OVC,M,M,3600.00,6000.00,M,M,M,M,M,M,M,M,M,53.10,KVGT 211853Z 15007KT 10SM BKN036 OVC060 12/06 A2970 RMK AO2 SLP069 T01170056,M
BVU,2023-03-21 18:55,-114.8611,35.9475,671.00,50.00,41.00,71.07,150.00,15.00,0.00,29.73,M,10.00,M,BKN,OVC,M,M,2900.00,3500.00,M,M,M,M,M,M,M,M,M,50.00,KBVU 211855Z AUTO 15015KT 10SM BKN029 OVC035 10/05 A2973 RMK AO2,M
CXP,2023-03-21 18:55,-119.7326,39.1923,1431.00,32.00,28.40,86.39,M,4.00,0.00,29.54,M,0.75,M,BKN,OVC,M,M,1100.00,1600.00,M,M,-SN BR,M,M,M,M,M,M,27.42,KCXP 211855Z AUTO VRB04KT 3/4SM -SN BR BKN011 OVC016 M00/M02 A2954 RMK AO2,M
INS,2023-03-21 18:55,-115.6733,36.5872,955.00,46.80,42.30,84.24,120.00,20.00,T,29.64,1002.30,10.00,27.00,FEW,SCT,BKN,OVC,1100.00,2300.00,3300.00,7500.00,M,M,M,M,31.00,120.00,2023-03-21 18:16,38.80,KINS 211855Z AUTO 12020G27KT 10SM FEW011 SCT023 BKN033 OVC075 08/06 A2964 RMK AO2 PK WND 12031/16 RAE02DZB25E27RAB27E49 SLP023 P0000 T00820057 $,M
RNO,2023-03-21 18:55,-119.7711,39.4839,1341.00,32.00,28.00,84.98,50.00,7.00,T,29.53,1000.20,1.50,M,OVC,M,M,M,2000.00,M,M,M,-SN BR,M,M,M,M,M,M,24.78,KRNO 211855Z 05007KT 1 1/2SM -SN BR OVC020 00/M02 A2953 RMK AO2 SLP002 P0000 T00001022,M
RTS,2023-03-21 18:55,-119.8764,39.6682,1539.00,30.20,24.80,80.07,140.00,15.00,0.00,29.53,M,2.00,M,CLR,M,M,M,M,M,M,M,-UP,M,M,M,M,M,M,18.45,KRTS 211855Z AUTO 14015KT 2SM -UP CLR M01/M04 A2953 RMK AO2,M
05U,2023-03-21 18:55,-116.0051,39.6042,1811.23,35.60,24.80,64.46,360.00,4.00,0.00,29.64,M,10.00,M,CLR,M,M,M,M,M,M,M,M,M,M,M,M,M,M,31.62,K05U 211855Z AUTO 36004KT 10SM CLR 02/M04 A2964 RMK A01,M
MEV,2023-03-21 18:55,-119.7500,38.9963,1441.42,30.20,28.40,92.92,350.00,13.00,0.00,29.52,M,0.75,M,SCT,M,M,M,300.00,M,M,M,-SN BR,M,M,M,M,M,M,19.26,KMEV 211855Z AUTO 35013KT 3/4SM -SN BR SCT003 M01/M02 A2952 RMK AO2,M
BAM,2023-03-21 18:55,-116.8743,40.5990,1382.36,42.80,23.00,45.14,60.00,10.00,0.00,29.63,M,10.00,M,OVC,M,M,M,11000.00,M,M,M,M,M,M,M,M,M,M,36.51,KBAM 211855Z AUTO 06010KT 10SM OVC110 06/M05 A2963 RMK AO1,M
HTH,2023-03-21 18:55,-118.6315,38.5448,1282.89,35.60,33.80,93.08,0.00,0.00,0.03,29.53,M,3.00,M,SCT,SCT,M,M,500.00,2600.00,M,M,BR,M,M,M,M,M,M,35.60,KHTH 211855Z AUTO 00000KT 3SM BR SCT005 SCT026 02/01 A2953 RMK A01 P0003,M
TMT,2023-03-21 18:55,-117.1971,39.4643,1749.34,35.60,25.70,66.92,80.00,13.00,0.00,29.56,M,10.00,20.00,SCT,BKN,M,M,4000.00,4900.00,M,M,M,M,M,M,M,M,M,26.18,KTMT 211855Z AUTO 08013G20KT 10SM SCT040 BKN049 02/M03 A2956 RMK AO2 T00201035,M
LSV,2023-03-21 18:55,-115.0343,36.2362,570.00,52.50,44.00,72.99,140.00,5.00,0.00,29.69,1004.80,10.00,M,OVC,M,M,M,3200.00,M,M,M,M,M,M,M,M,M,M,52.50,KLSV 211855Z AUTO 14005KT 10SM OVC032 11/07 A2969 RMK AO2 SLP048 T01140067 $,M
INS,2023-03-21 18:56,-115.6733,36.5872,955.00,46.40,41.00,81.34,120.00,20.00,0.00,29.65,1002.60,10.00,27.00,FEW,SCT,BKN,OVC,1100.00,2300.00,3300.00,7500.00,-RA,M,M,M,M,M,M,38.26,KINS 211856Z AUTO 12020G27KT 10SM -RA FEW011 SCT023 BKN033 OVC075 08/05 A2965 RMK AO2 RAB54 SLP026 $,M
EKO,2023-03-21 18:56,-115.7860,40.8242,1367.00,39.00,19.00,44.14,40.00,13.00,0.00,29.65,1005.10,10.00,18.00,SCT,M,M,M,11000.00,M,M,M,M,M,M,M,M,M,M,30.54,KEKO 211856Z AUTO 04013G18KT 10SM SCT110 04/M07 A2965 RMK AO2 SLP051 T00391072,M
NFL,2023-03-21 18:56,-118.7010,39.4166,1199.00,41.00,23.00,48.39,340.00,4.00,0.00,29.54,998.90,10.00,M,BKN,OVC,M,M,4300.00,6000.00,M,M,M,M,M,M,M,M,M,37.93,KNFL 211856Z 34004KT 10SM BKN043 OVC060 05/M05 A2954 RMK AO2 SLP989 T00501050,M
TPH,2023-03-21 18:56,-117.0904,38.0505,1654.00,35.00,34.00,95.71,130.00,15.00,T,29.57,1001.10,2.50,M,FEW,OVC,M,M,700.00,1400.00,M,M,-SN BR,M,M,M,M,M,M,24.80,KTPH 211856Z AUTO 13015KT 2 1/2SM -SN BR FEW007 OVC014 02/01 A2957 RMK AO2 SLP011 P0000 T00170011,M
LAS,2023-03-21 18:56,-115.1634,36.0719,663.00,53.00,39.00,58.64,150.00,10.00,0.00,29.70,1005.10,10.00,16.00,BKN,OVC,M,M,3400.00,4200.00,M,M,M,M,M,M,M,M,M,53.10,KLAS 211856Z 15010G16KT 10SM BKN034 OVC042 12/04 A2970 RMK AO2 SLP051 T01170039,M
HND,2023-03-21 18:56,-115.1344,35.9729,742.79,52.00,40.00,63.24,150.00,9.00,T,29.71,1007.20,10.00,19.00,FEW,OVC,M,M,3500.00,4500.00,M,M,M,M,M,M,M,M,M,52.00,KHND 211856Z 15009G19KT 10SM FEW035 OVC045 11/04 A2971 RMK AO2 RAB08E40 SLP072 P0000 T01110044,M
WMC,2023-03-21 18:56,-117.8072,40.9019,1315.00,44.00,19.00,36.25,50.00,20.00,0.00,29.59,1002.20,10.00,32.00,SCT,M,M,M,11000.00,M,M,M,M,M,M,M,35.00,40.00,2023-03-21 18:14,35.21,KWMC 211856Z AUTO 05020G32KT 10SM SCT110 07/M07 A2959 RMK AO2 PK WND 04035/1814 SLP022 T00671072,M
RNO,2023-03-21 19:00,-119.7711,39.4839,1341.00,33.00,28.90,84.36,70.00,7.00,0.01,29.53,M,1.00,M,OVC,M,M,M,1700.00,M,M,M,-SN BR,M,M,M,M,M,M,26.12,KRNO 211900Z 07007KT 1SM -SN BR OVC017 01/M02 A2953 RMK AO2 P0001 T00061017 RVRNO,M
TPH,2023-03-21 19:01,-117.0904,38.0505,1654.00,35.00,34.00,95.71,130.00,14.00,T,29.56,M,3.00,M,BKN,OVC,M,M,900.00,1400.00,M,M,-SN BR,M,M,M,M,M,M,25.16,KTPH 211901Z AUTO 13014KT 3SM -SN BR BKN009 OVC014 02/01 A2956 RMK AO2 P0000 T00170011,M
TPH,2023-03-21 19:04,-117.0904,38.0505,1654.00,35.00,34.00,95.71,130.00,15.00,T,29.57,M,2.50,M,OVC,M,M,M,1100.00,M,M,M,-SN BR,M,M,M,M,M,M,24.80,KTPH 211904Z AUTO 13015KT 2 1/2SM -SN BR OVC011 02/01 A2957 RMK AO2 P0000 T00170011,M
TPH,2023-03-21 19:08,-117.0904,38.0505,1654.00,34.00,34.00,100.00,140.00,13.00,T,29.57,M,1.75,M,BKN,OVC,M,M,700.00,1300.00,M,M,-SN BR,M,M,M,M,M,M,24.13,KTPH 211908Z AUTO 14013KT 1 3/4SM -SN BR BKN007 OVC013 01/01 A2957 RMK AO2 P0000 T00110011,M
DRA,2023-03-21 19:11,-116.0278,36.6206,1009.00,46.00,41.00,82.58,0.00,0.00,0.02,29.64,M,9.00,M,BKN,BKN,OVC,M,2800.00,3400.00,4200.00,M,-RA,M,M,M,M,M,M,46.00,KDRA 211911Z AUTO 00000KT 9SM -RA BKN028 BKN034 OVC042 08/05 A2964 RMK AO2 P0002 T00780050,M
RNO,2023-03-21 19:14,-119.7711,39.4839,1341.00,33.00,28.90,84.36,70.00,6.00,0.01,29.54,M,1.75,M,OVC,M,M,M,2400.00,M,M,M,-SN BR,M,M,M,M,M,M,26.86,KRNO 211914Z 07006KT 1 3/4SM -SN BR OVC024 01/M02 A2954 RMK AO2 P0001 T00061017,M
BVU,2023-03-21 19:15,-114.8611,35.9475,671.00,53.60,41.00,62.23,160.00,15.00,0.00,29.72,M,10.00,21.00,BKN,OVC,M,M,3200.00,4100.00,M,M,M,M,M,M,M,M,M,53.60,KBVU 211915Z AUTO 16015G21KT 10SM BKN032 OVC041 12/05 A2972 RMK AO2,M
CXP,2023-03-21 19:15,-119.7326,39.1923,1431.00,33.80,28.40,80.36,30.00,8.00,0.00,29.53,M,2.00,14.00,SCT,SCT,SCT,M,1200.00,1700.00,2100.00,M,-SN BR,M,M,M,M,M,M,26.33,KCXP 211915Z AUTO 03008G14KT 2SM -SN BR SCT012 SCT017 SCT021 01/M02 A2953 RMK AO2,M
RTS,2023-03-21 19:15,-119.8764,39.6682,1539.00,30.20,26.60,86.28,140.00,11.00,0.00,29.53,M,2.00,M,CLR,M,M,M,M,M,M,M,BR,M,M,M,M,M,M,20.19,KRTS 211915Z AUTO 14011KT 2SM BR CLR M01/M03 A2953 RMK AO2,M
05U,2023-03-21 19:15,-116.0051,39.6042,1811.23,35.60,23.00,59.79,0.00,0.00,0.00,29.63,M,10.00,M,CLR,M,M,M,M,M,M,M,M,M,M,M,M,M,M,35.60,K05U 211915Z AUTO 00000KT 10SM CLR 02/M05 A2963 RMK A01,M
MEV,2023-03-21 19:15,-119.7500,38.9963,1441.42,30.20,28.40,92.92,350.00,15.00,0.00,29.51,M,0.25,M,BKN,M,M,M,300.00,M,M,M,SN FZFG,M,M,M,M,M,M,18.45,KMEV 211915Z AUTO 35015KT 1/4SM SN FZFG BKN003 M01/M02 A2951 RMK AO2,M
BAM,2023-03-21 19:15,-116.8743,40.5990,1382.36,42.80,23.00,45.14,80.00,10.00,0.00,29.62,M,10.00,M,OVC,M,M,M,11000.00,M,M,M,M,M,M,M,M,M,M,36.51,KBAM 211915Z AUTO 08010KT 10SM OVC110 06/M05 A2962 RMK AO1,M
HTH,2023-03-21 19:15,-118.6315,38.5448,1282.89,35.60,35.60,100.00,320.00,6.00,0.00,29.51,M,5.00,M,SCT,BKN,OVC,M,500.00,2300.00,2800.00,M,BR,M,M,M,M,M,M,29.87,KHTH 211915Z AUTO 32006KT 5SM BR SCT005 BKN023 OVC028 02/02 A2951 RMK A01,M
TMT,2023-03-21 19:15,-117.1971,39.4643,1749.34,34.30,27.30,75.29,80.00,12.00,0.00,29.56,M,7.00,18.00,SCT,BKN,OVC,M,2600.00,3100.00,4400.00,M,M,M,M,M,M,M,M,24.93,KTMT 211915Z AUTO 08012G18KT 7SM SCT026 BKN031 OVC044 01/M03 A2956 RMK AO2 T00131026,M
TPH,2023-03-21 19:28,-117.0904,38.0505,1654.00,35.00,34.00,95.71,120.00,14.00,T,29.55,M,3.00,M,OVC,M,M,M,700.00,M,M,M,-SN BR,M,M,M,M,M,M,25.16,KTPH 211928Z AUTO 12014KT 3SM -SN BR OVC007 02/01 A2955 RMK AO2 P0000 T00170011,M
DRA,2023-03-21 19:29,-116.0278,36.6206,1009.00,46.00,42.00,86.16,360.00,5.00,0.03,29.63,M,10.00,M,SCT,OVC,M,M,2800.00,3600.00,M,M,-RA,M,M,M,M,M,M,43.02,KDRA 211929Z AUTO 36005KT 10SM -RA SCT028 OVC036 08/06 A2963 RMK AO2 P0003 T00780056,M
LSV,2023-03-21 19:34,-115.0343,36.2362,570.00,53.60,42.80,66.70,150.00,12.00,0.00,29.67,1004.10,10.00,M,FEW,SCT,BKN,M,3400.00,4500.00,6000.00,M,M,M,M,M,M,M,M,53.60,KLSV 211934Z AUTO 15012KT 10SM FEW034 SCT045 BKN060 12/06 A2967 RMK AO2 SLP041 $,M
BVU,2023-03-21 19:35,-114.8611,35.9475,671.00,51.80,41.00,66.48,140.00,17.00,0.00,29.70,M,10.00,M,OVC,M,M,M,3300.00,M,M,M,M,M,M,M,M,M,M,51.80,KBVU 211935Z AUTO 14017KT 10SM OVC033 11/05 A2970 RMK AO2,M
CXP,2023-03-21 19:35,-119.7326,39.1923,1431.00,33.80,28.40,80.36,20.00,9.00,0.00,29.52,M,1.00,M,SCT,M,M,M,1500.00,M,M,M,-SN HZ,M,M,M,M,M,M,25.75,KCXP 211935Z AUTO 02009KT 1SM -SN HZ SCT015 01/M02 A2952 RMK AO2,M
RTS,2023-03-21 19:35,-119.8764,39.6682,1539.00,30.20,26.60,86.28,160.00,8.00,0.00,29.52,M,2.00,M,SCT,SCT,M,M,1600.00,2500.00,M,M,BR,M,M,M,M,M,M,21.90,KRTS 211935Z AUTO 16008KT 2SM BR SCT016 SCT025 M01/M03 A2952 RMK AO2,M
05U,2023-03-21 19:35,-116.0051,39.6042,1811.23,35.60,21.20,55.41,0.00,0.00,0.00,29.62,M,10.00,M,FEW,FEW,M,M,2200.00,2900.00,M,M,M,M,M,M,M,M,M,35.60,K05U 211935Z AUTO 00000KT 10SM FEW022 FEW029 02/M06 A2962 RMK A01,M
MEV,2023-03-21 19:35,-119.7500,38.9963,1441.42,32.00,30.20,92.97,350.00,14.00,0.00,29.49,M,0.50,M,BKN,M,M,M,300.00,M,M,M,-SN FZFG,M,M,M,M,M,M,21.16,KMEV 211935Z AUTO 35014KT 1/2SM -SN FZFG BKN003 M00/M01 A2949 RMK AO2,M
BAM,2023-03-21 19:35,-116.8743,40.5990,1382.36,42.80,23.00,45.14,50.00,10.00,0.00,29.61,M,10.00,14.00,BKN,M,M,M,11000.00,M,M,M,M,M,M,M,M,M,M,36.51,KBAM 211935Z AUTO 05010G14KT 10SM BKN110 06/M05 A2961 RMK AO1,M
HTH,2023-03-21 19:35,-118.6315,38.5448,1282.89,37.40,35.60,93.14,330.00,8.00,0.00,29.50,M,4.00,M,BKN,BKN,BKN,M,500.00,900.00,2200.00,M,BR,M,M,M,M,M,M,30.76,KHTH 211935Z AUTO 33008KT 4SM BR BKN005 BKN009 BKN022 03/02 A2950 RMK A01,M
TMT,2023-03-21 19:35,-117.1971,39.4643,1749.34,32.50,28.90,86.42,70.00,8.00,0.00,29.55,M,1.75,M,SCT,OVC,M,M,1500.00,2400.00,M,M,-SN,M,M,M,M,M,M,24.73,KTMT 211935Z AUTO 07008KT 1 3/4SM -SN SCT015 OVC024 00/M02 A2955 RMK AO2 T00031017,M
TPH,2023-03-21 19:35,-117.0904,38.0505,1654.00,35.00,34.00,95.71,110.00,15.00,T,29.54,M,3.00,M,BKN,OVC,M,M,400.00,1000.00,M,M,-SN BR,M,M,M,M,M,M,24.80,KTPH 211935Z AUTO 11015KT 3SM -SN BR BKN004 OVC010 02/01 A2954 RMK AO2 P0000 T00170011,M
RNO,2023-03-21 19:37,-119.7711,39.4839,1341.00,33.00,28.90,84.36,70.00,10.00,0.02,29.52,M,1.25,M,OVC,M,M,M,2200.00,M,M,M,-SN BR,M,M,M,M,M,M,24.35,KRNO 211937Z 07010KT 1 1/4SM -SN BR OVC022 01/M02 A2952 RMK AO2 P0002 T00061017,M
TPH,2023-03-21 19:39,-117.0904,38.0505,1654.00,35.00,34.00,95.71,110.00,15.00,T,29.54,M,2.50,M,BKN,OVC,M,M,600.00,1000.00,M,M,-SN BR,M,M,M,M,M,M,24.80,KTPH 211939Z AUTO 11015KT 2 1/2SM -SN BR BKN006 OVC010 02/01 A2954 RMK AO2 VIS 1 3/4V4 P0000 T00170011,M
ELY,2023-03-21 19:41,-114.8453,39.2950,1909.00,30.90,24.10,75.59,0.00,0.00,T,29.64,M,2.00,M,BKN,OVC,M,M,3400.00,4300.00,M,M,-SN,M,M,M,M,M,M,30.90,KELY 211941Z AUTO 00000KT 2SM -SN BKN034 OVC043 M01/M04 A2964 RMK AO2 SNB28 P0000 T10061044,M
RNO,2023-03-21 19:43,-119.7711,39.4839,1341.00,33.00,28.90,84.36,70.00,9.00,0.02,29.52,M,0.75,M,OVC,M,M,M,1600.00,M,M,M,-SN BR,M,M,M,M,M,M,24.88,KRNO 211943Z 07009KT 3/4SM -SN BR OVC016 01/M02 A2952 RMK AO2 TWR VIS 1 1/4 P0002 T00061017 RVRNO,M
TPH,2023-03-21 19:46,-117.0904,38.0505,1654.00,36.00,34.00,92.35,110.00,14.00,T,29.53,M,4.00,M,BKN,OVC,M,M,600.00,1200.00,M,M,-SN BR,M,M,M,M,M,M,26.32,KTPH 211946Z AUTO 11014KT 4SM -SN BR BKN006 OVC012 02/01 A2953 RMK AO2 P0000 T00220011,M
INS,2023-03-21 19:47,-115.6733,36.5872,955.00,48.20,41.00,76.01,100.00,25.00,0.00,29.62,1001.60,10.00,29.00,FEW,SCT,BKN,OVC,3400.00,4700.00,6000.00,8000.00,M,M,M,M,M,M,M,39.75,KINS 211947Z AUTO 10025G29KT 10SM FEW034 SCT047 BKN060 OVC080 09/05 A2962 RMK AO2 RAB1854E10DZB10E47 SLP016 $,M
INS,2023-03-21 19:49,-115.6733,36.5872,955.00,48.20,41.00,76.01,110.00,20.00,0.00,29.62,1001.60,10.00,29.00,FEW,SCT,BKN,OVC,3400.00,5000.00,6000.00,8000.00,-DZ,M,M,M,M,M,M,40.66,KINS 211949Z AUTO 11020G29KT 10SM -DZ FEW034 SCT050 BKN060 OVC080 09/05 A2962 RMK AO2 RAB1854E10DZB10E47DZB49 SLP016 $,M
P68,2023-03-21 19:53,-116.0056,39.6014,1993.00,36.00,24.10,61.62,M,M,0.00,29.59,1001.50,M,M,M,M,M,M,M,M,M,M,M,M,M,M,M,M,M,M,KP68 211953Z AUTO 02/M04 A2959 RMK AO1 SLP015 T00221044,M
ELY,2023-03-21 19:53,-114.8453,39.2950,1909.00,32.00,25.00,75.07,0.00,0.00,T,29.63,1004.50,4.00,M,BKN,OVC,M,M,3100.00,3900.00,M,M,-SN,M,M,M,M,M,M,32.00,KELY 211953Z AUTO 00000KT 4SM -SN BKN031 OVC039 00/M04 A2963 RMK AO2 SNB28 SLP045 P0000 T00001039,M
VGT,2023-03-21 19:53,-115.1933,36.2111,667.00,54.00,41.00,61.32,120.00,13.00,0.00,29.66,1005.70,10.00,M,BKN,OVC,M,M,3900.00,4900.00,M,M,M,M,M,M,M,M,M,54.00,KVGT 211953Z 12013KT 10SM BKN039 OVC049 12/05 A2966 RMK AO2 SLP057 T01220050,M
LOL,2023-03-21 19:53,-118.5701,40.0684,1192.43,43.00,21.90,42.77,110.00,12.00,0.00,29.54,1000.90,8.00,18.00,BKN,BKN,OVC,M,3300.00,4000.00,5000.00,M,M,M,M,M,M,M,M,36.00,KLOL 211953Z AUTO 11012G18KT 8SM BKN033 BKN040 OVC050 06/M06 A2954 RMK AO2 SLP009 T00611056,M
DRA,2023-03-21 19:53,-116.0278,36.6206,1009.00,46.00,40.00,79.13,60.00,4.00,0.04,29.61,1000.90,7.00,M,OVC,M,M,M,3200.00,M,M,M,-RA,M,M,M,M,M,M,43.77,KDRA 211953Z AUTO 06004KT 7SM -RA OVC032 08/04 A2961 RMK AO2 SLP009 P0004 T00780044,M
BVU,2023-03-21 19:55,-114.8611,35.9475,671.00,51.80,41.00,66.48,150.00,15.00,0.00,29.69,M,10.00,M,OVC,M,M,M,3100.00,M,M,M,M,M,M,M,M,M,M,51.80,KBVU 211955Z AUTO 15015KT 10SM OVC031 11/05 A2969 RMK AO2,M
CXP,2023-03-21 19:55,-119.7326,39.1923,1431.00,33.80,28.40,80.36,50.00,8.00,0.00,29.51,M,2.50,M,SCT,M,M,M,4100.00,M,M,M,-SN HZ,M,M,M,M,M,M,26.33,KCXP 211955Z AUTO 05008KT 2 1/2SM -SN HZ SCT041 01/M02 A2951 RMK AO2,M
INS,2023-03-21 19:55,-115.6733,36.5872,955.00,47.50,41.50,79.56,110.00,17.00,0.01,29.62,1001.60,10.00,M,BKN,BKN,M,M,6000.00,8000.00,M,M,-RA,M,M,M,31.00,110.00,2023-03-21 19:03,40.38,KINS 211955Z AUTO 11017KT 10SM -RA BKN060 BKN080 09/05 A2962 RMK AO2 PK WND 11031/03 RAB1854E10DZB10E47DZB49E52RAB52 SLP016 P0001 T00860053 $,M
RNO,2023-03-21 19:55,-119.7711,39.4839,1341.00,33.00,28.90,84.36,80.00,6.00,0.02,29.51,999.50,0.75,M,OVC,M,M,M,1600.00,M,M,M,-SN BR,M,M,M,M,M,M,26.86,KRNO 211955Z 08006KT 3/4SM -SN BR OVC016 01/M02 A2951 RMK AO2 TWR VIS 1 1/4 SLP995 P0002 T00061017 RVRNO,M
RTS,2023-03-21 19:55,-119.8764,39.6682,1539.00,30.20,26.60,86.28,160.00,8.00,0.00,29.52,M,0.50,M,SCT,BKN,BKN,M,900.00,1600.00,2300.00,M,-SN,M,M,M,M,M,M,21.90,KRTS 211955Z AUTO 16008KT 1/2SM -SN SCT009 BKN016 BKN023 M01/M03 A2952 RMK AO2,M
05U,2023-03-21 19:55,-116.0051,39.6042,1811.23,37.40,23.00,55.68,50.00,6.00,0.00,29.61,M,9.00,M,FEW,SCT,SCT,M,1600.00,2300.00,3000.00,M,M,M,M,M,M,M,M,32.03,K05U 211955Z AUTO 05006KT 9SM FEW016 SCT023 SCT030 03/M05 A2961 RMK A01,M
MEV,2023-03-21 19:55,-119.7500,38.9963,1441.42,32.00,30.20,92.97,350.00,14.00,0.00,29.49,M,1.00,M,BKN,BKN,BKN,M,600.00,1000.00,3600.00,M,-SN BR,M,M,M,M,M,M,21.16,KMEV 211955Z AUTO 35014KT 1SM -SN BR BKN006 BKN010 BKN036 00/M01 A2949 RMK AO2,M
BAM,2023-03-21 19:55,-116.8743,40.5990,1382.36,44.60,21.20,39.06,70.00,11.00,0.00,29.60,M,10.00,M,SCT,M,M,M,12000.00,M,M,M,M,M,M,M,M,M,M,38.39,KBAM 211955Z AUTO 07011KT 10SM SCT120 07/M06 A2960 RMK AO1,M
HTH,2023-03-21 19:55,-118.6315,38.5448,1282.89,35.60,35.60,100.00,310.00,8.00,0.02,29.49,M,5.00,M,BKN,OVC,M,M,500.00,900.00,M,M,BR,M,M,M,M,M,M,28.55,KHTH 211955Z AUTO 31008KT 5SM BR BKN005 OVC009 02/02 A2949 RMK A01 P0002,M
TMT,2023-03-21 19:55,-117.1971,39.4643,1749.34,33.30,30.90,90.78,50.00,13.00,0.00,29.53,M,2.50,M,BKN,OVC,M,M,1500.00,2400.00,M,M,-SN,M,M,M,M,M,M,23.23,KTMT 211955Z AUTO 05013KT 2 1/2SM -SN BKN015 OVC024 01/M01 A2953 RMK AO2 T00071006,M
LSV,2023-03-21 19:55,-115.0343,36.2362,570.00,54.00,42.00,63.98,150.00,10.00,0.00,29.66,1003.80,10.00,18.00,BKN,BKN,M,M,5000.00,6000.00,M,M,M,M,M,M,M,M,M,54.00,KLSV 211955Z AUTO 15010G18KT 10SM BKN050 BKN060 12/06 A2966 RMK AO2 SLP038 T01220056 $,M
WMC,2023-03-21 19:56,-117.8072,40.9019,1315.00,45.00,18.00,33.55,50.00,16.00,0.00,29.55,1000.90,10.00,30.00,BKN,M,M,M,12000.00,M,M,M,M,M,M,M,32.00,60.00,2023-03-21 19:32,37.36,KWMC 211956Z AUTO 05016G30KT 10SM BKN120 07/M08 A2955 RMK AO2 PK WND 06032/1932 SLP009 T00721078,M
NFL,2023-03-21 19:56,-118.7010,39.4166,1199.00,43.00,27.00,52.91,100.00,4.00,0.00,29.50,998.00,10.00,M,BKN,OVC,M,M,4200.00,6000.00,M,M,M,M,M,M,M,M,M,40.27,KNFL 211956Z 10004KT 10SM BKN042 OVC060 06/M03 A2950 RMK AO2 SLP980 T00611028,M
HND,2023-03-21 19:56,-115.1344,35.9729,742.79,53.00,41.00,63.38,160.00,16.00,0.00,29.67,1005.80,10.00,26.00,OVC,M,M,M,4700.00,M,M,M,M,M,M,M,26.00,170.00,2023-03-21 19:47,53.10,KHND 211956Z 16016G26KT 10SM OVC047 12/05 A2967 RMK AO2 PK WND 17026/1947 SLP058 T01170050,M
TPH,2023-03-21 19:56,-117.0904,38.0505,1654.00,37.00,35.00,92.76,150.00,18.00,T,29.53,999.40,4.00,27.00,OVC,M,M,M,800.00,M,M,M,-RA BR,M,M,M,27.00,150.00,2023-03-21 19:56,26.33,KTPH 211956Z AUTO 15018G27KT 4SM -RA BR OVC008 03/02 A2953 RMK AO2 PK WND 15027/1956 RAB50SNE50 SLP994 P0000 T00280017,M
LAS,2023-03-21 19:56,-115.1634,36.0719,663.00,54.00,40.00,58.76,110.00,7.00,0.00,29.66,1003.70,10.00,17.00,FEW,OVC,M,M,3700.00,4600.00,M,M,M,M,M,M,M,M,M,54.00,KLAS 211956Z 11007G17KT 10SM FEW037 OVC046 12/04 A2966 RMK AO2 SLP037 T01220044,M
EKO,2023-03-21 19:56,-115.7860,40.8242,1367.00,40.00,19.90,44.29,30.00,15.00,0.00,29.61,1003.40,10.00,22.00,CLR,M,M,M,M,M,M,M,M,M,M,M,M,M,M,31.02,KEKO 211956Z AUTO 03015G22KT 10SM CLR 04/M07 A2961 RMK AO2 SLP034 T00441067,M
ELY,2023-03-21 20:02,-114.8453,39.2950,1909.00,30.90,25.00,78.48,0.00,0.00,T,29.63,M,1.75,M,BKN,OVC,M,M,3000.00,3800.00,M,M,-SN,M,M,M,M,M,M,30.90,KELY 212002Z AUTO 00000KT 1 3/4SM -SN BKN030 OVC038 M01/M04 A2963 RMK AO2 P0000 T10061039,M
LOL,2023-03-21 20:05,-118.5701,40.0684,1192.43,42.00,24.10,48.56,90.00,16.00,T,29.55,M,7.00,26.00,BKN,BKN,OVC,M,2900.00,3800.00,5000.00,M,-RA,M,M,M,26.00,90.00,2023-03-21 19:58,33.58,KLOL 212005Z AUTO 09016G26KT 7SM -RA BKN029 BKN038 OVC050 06/M04 A2955 RMK AO2 PK WND 09026/1958 RAB1955 P0000 T00561044,M
TPH,2023-03-21 20:11,-117.0904,38.0505,1654.00,39.00,36.00,88.87,160.00,22.00,T,29.52,M,10.00,30.00,SCT,BKN,OVC,M,800.00,1600.00,2300.00,M,-RA,M,M,M,30.00,150.00,2023-03-21 20:06,27.95,KTPH 212011Z AUTO 16022G30KT 10SM -RA SCT008 BKN016 OVC023 04/02 A2952 RMK AO2 PK WND 15030/2006 P0000 T00390022,M
ELY,2023-03-21 20:13,-114.8453,39.2950,1909.00,32.00,26.10,78.58,0.00,0.00,T,29.62,M,3.00,M,OVC,M,M,M,3300.00,M,M,M,-SN,M,M,M,M,M,M,32.00,KELY 212013Z AUTO 00000KT 3SM -SN OVC033 00/M03 A2962 RMK AO2 P0000 T00001033,M
LSV,2023-03-21 20:13,-115.0343,36.2362,570.00,53.60,42.80,66.70,140.00,9.00,0.00,29.65,1003.40,10.00,19.00,OVC,M,M,M,4800.00,M,M,M,M,M,M,M,M,M,M,53.60,KLSV 212013Z AUTO 14009G19KT 10SM OVC048 12/06 A2965 RMK AO2 SLP034 $,M
LOL,2023-03-21 20:14,-118.5701,40.0684,1192.43,41.00,26.10,55.07,60.00,14.00,T,29.55,M,10.00,24.00,BKN,OVC,M,M,3200.00,5000.00,M,M,-RA,M,M,M,26.00,90.00,2023-03-21 19:58,32.76,KLOL 212014Z AUTO 06014G24KT 10SM -RA BKN032 OVC050 05/M03 A2955 RMK AO2 PK WND 09026/1958 RAB1955 P0000 T00501033,M
BVU,2023-03-21 20:15,-114.8611,35.9475,671.00,51.80,42.80,71.26,150.00,19.00,0.00,29.69,M,10.00,M,OVC,M,M,M,3100.00,M,M,M,M,M,M,M,M,M,M,51.80,KBVU 212015Z AUTO 15019KT 10SM OVC031 11/06 A2969 RMK AO2,M
CXP,2023-03-21 20:15,-119.7326,39.1923,1431.00,33.80,28.40,80.36,80.00,7.00,0.00,29.51,M,3.00,M,FEW,FEW,BKN,M,1600.00,2000.00,4000.00,M,UP HZ,M,M,M,M,M,M,26.97,KCXP 212015Z AUTO 08007KT 3SM UP HZ FEW016 FEW020 BKN040 01/M02 A2951 RMK AO2,M
RTS,2023-03-21 20:15,-119.8764,39.6682,1539.00,30.20,28.40,92.92,150.00,6.00,0.00,29.50,M,0.75,M,VV ,M,M,M,500.00,M,M,M,-SN,M,M,M,M,M,M,23.36,KRTS 212015Z AUTO 15006KT 3/4SM -SN VV005 M01/M02 A2950 RMK AO2,M
05U,2023-03-21 20:15,-116.0051,39.6042,1811.23,35.60,24.80,64.46,0.00,0.00,0.00,29.60,M,3.00,M,FEW,FEW,FEW,M,1500.00,2000.00,2800.00,M,HZ,M,M,M,M,M,M,35.60,K05U 212015Z AUTO 00000KT 3SM HZ FEW015 FEW020 FEW028 02/M04 A2960 RMK A01,M
MEV,2023-03-21 20:15,-119.7500,38.9963,1441.42,32.00,30.20,92.97,360.00,15.00,0.00,29.49,M,4.00,M,FEW,FEW,SCT,M,700.00,1100.00,3700.00,M,-SN BR,M,M,M,M,M,M,20.78,KMEV 212015Z AUTO 36015KT 4SM -SN BR FEW007 FEW011 SCT037 00/M01 A2949 RMK AO2,M
BAM,2023-03-21 20:15,-116.8743,40.5990,1382.36,44.60,21.20,39.06,100.00,8.00,0.00,29.60,M,10.00,M,SCT,M,M,M,12000.00,M,M,M,M,M,M,M,M,M,M,39.63,KBAM 212015Z AUTO 10008KT 10SM SCT120 07/M06 A2960 RMK AO1,M
HTH,2023-03-21 20:15,-118.6315,38.5448,1282.89,35.60,35.60,100.00,310.00,7.00,0.00,29.48,M,8.00,M,BKN,OVC,M,M,400.00,2000.00,M,M,M,M,M,M,M,M,M,29.17,KHTH 212015Z AUTO 31007KT 8SM BKN004 OVC020 02/02 A2948 RMK A01,M
TMT,2023-03-21 20:15,-117.1971,39.4643,1749.34,35.00,31.30,86.55,60.00,16.00,0.00,29.51,M,3.00,19.00,SCT,OVC,M,M,1900.00,2500.00,M,M,-SN,M,M,M,M,M,M,24.20,KTMT 212015Z AUTO 06016G19KT 3SM -SN SCT019 OVC025 02/00 A2951 RMK AO2 T00161004,M
RNO,2023-03-21 20:16,-119.7711,39.4839,1341.00,34.00,30.00,85.11,100.00,7.00,0.01,29.51,M,2.00,M,BKN,OVC,M,M,1900.00,3500.00,M,M,-SN BR,M,M,M,M,M,M,27.22,KRNO 212016Z 10007KT 2SM -SN BR BKN019 OVC035 01/M01 A2951 RMK AO2 P0001 T00111011,M
ELY,2023-03-21 20:22,-114.8453,39.2950,1909.00,32.00,26.10,78.58,0.00,0.00,T,29.62,M,2.50,M,BKN,OVC,M,M,3000.00,3600.00,M,M,-SN,M,M,M,M,M,M,32.00,KELY 212022Z AUTO 00000KT 2 1/2SM -SN BKN030 OVC036 00/M03 A2962 RMK AO2 P0000 T00001033,M
TPH,2023-03-21 20:22,-117.0904,38.0505,1654.00,39.00,36.00,88.87,150.00,19.00,T,29.52,M,10.00,28.00,FEW,BKN,OVC,M,800.00,1400.00,2700.00,M,-RA,M,M,M,30.00,150.00,2023-03-21 20:06,28.69,KTPH 212022Z AUTO 15019G28KT 10SM -RA FEW008 BKN014 OVC027 04/02 A2952 RMK AO2 PK WND 15030/2006 P0000 T00390022,M
DRA,2023-03-21 20:24,-116.0278,36.6206,1009.00,46.00,41.00,82.58,30.00,3.00,0.03,29.58,M,10.00,M,BKN,BKN,OVC,M,1900.00,3300.00,4500.00,M,M,M,M,M,M,M,M,44.69,KDRA 212024Z AUTO 03003KT 10SM BKN019 BKN033 OVC045 08/05 A2958 RMK AO2 RAE23 P0003 T00780050,M
INS,2023-03-21 20:31,-115.6733,36.5872,955.00,48.20,42.80,81.47,110.00,17.00,0.00,29.58,1000.20,10.00,23.00,BKN,OVC,M,M,6000.00,7000.00,M,M,M,M,M,M,M,M,M,41.30,KINS 212031Z AUTO 11017G23KT 10SM BKN060 OVC070 09/06 A2958 RMK AO2 RAE27DZB27E31 PRESFR SLP002 $,M
TPH,2023-03-21 20:31,-117.0904,38.0505,1654.00,39.00,36.00,88.87,150.00,21.00,T,29.51,M,10.00,28.00,SCT,BKN,OVC,M,1400.00,2400.00,2900.00,M,-RA,M,M,M,30.00,150.00,2023-03-21 20:06,28.19,KTPH 212031Z AUTO 15021G28KT 10SM -RA SCT014 BKN024 OVC029 04/02 A2951 RMK AO2 PK WND 15030/2006 P0000 T00390022,M
INS,2023-03-21 20:32,-115.6733,36.5872,955.00,48.20,42.80,81.47,110.00,20.00,0.00,29.58,1000.20,10.00,23.00,OVC,M,M,M,6000.00,M,M,M,-DZ,M,M,M,M,M,M,40.66,KINS 212032Z AUTO 11020G23KT 10SM -DZ OVC060 09/06 A2958 RMK AO2 RAE27DZB27E31DZB32 SLP002 $,M
BVU,2023-03-21 20:35,-114.8611,35.9475,671.00,51.80,42.80,71.26,170.00,18.00,0.00,29.69,M,10.00,26.00,FEW,BKN,OVC,M,2600.00,3200.00,3800.00,M,M,M,M,M,M,M,M,51.80,KBVU 212035Z AUTO 17018G26KT 10SM FEW026 BKN032 OVC038 11/06 A2969 RMK AO2,M
CXP,2023-03-21 20:35,-119.7326,39.1923,1431.00,35.60,28.40,74.80,70.00,8.00,0.00,29.51,M,10.00,14.00,SCT,OVC,M,M,1800.00,3700.00,M,M,UP,M,M,M,M,M,M,28.55,KCXP 212035Z AUTO 07008G14KT 10SM UP SCT018 OVC037 02/M02 A2951 RMK AO2,M
INS,2023-03-21 20:35,-115.6733,36.5872,955.00,48.20,42.80,81.47,120.00,19.00,0.00,29.58,1000.20,10.00,23.00,BKN,OVC,M,M,6000.00,8000.00,M,M,M,M,M,M,M,M,M,40.86,KINS 212035Z AUTO 12019G23KT 10SM BKN060 OVC080 09/06 A2958 RMK AO2 RAE27DZB27E31DZB32E35 SLP002 $,M
ELY,2023-03-21 20:35,-114.8453,39.2950,1909.00,30.90,27.00,86.28,0.00,0.00,T,29.62,M,1.75,M,BKN,OVC,M,M,3000.00,4000.00,M,M,-SN BR,M,M,M,M,M,M,30.20,KELY 212035Z AUTO 00000KT 1 3/4SM -SN BR BKN030 OVC040 M01/M03 A2962 RMK AO2 P0000 T10061028,M
RTS,2023-03-21 20:35,-119.8764,39.6682,1539.00,30.20,28.40,92.92,160.00,6.00,0.00,29.50,M,1.00,M,CLR,M,M,M,M,M,M,M,-SN,M,M,M,M,M,M,23.36,KRTS 212035Z AUTO 16006KT 1SM -SN CLR M01/M02 A2950 RMK AO2,M
05U,2023-03-21 20:35,-116.0051,39.6042,1811.23,35.60,26.60,69.46,M,5.00,0.00,29.58,M,4.00,10.00,FEW,FEW,FEW,M,2800.00,3500.00,4100.00,M,HZ,M,M,M,M,M,M,30.67,K05U 212035Z AUTO VRB05G10KT 4SM HZ FEW028 FEW035 FEW041 02/M03 A2958 RMK A01,M
MEV,2023-03-21 20:35,-119.7500,38.9963,1441.42,32.00,30.20,92.97,350.00,13.00,0.00,29.49,M,0.50,M,VV ,M,M,M,500.00,M,M,M,-SN BR,M,M,M,M,M,M,21.57,KMEV 212035Z AUTO 35013KT 1/2SM -SN BR VV005 00/M01 A2949 RMK AO2,M
BAM,2023-03-21 20:35,-116.8743,40.5990,1382.36,44.60,21.20,39.06,120.00,9.00,0.00,29.60,M,10.00,M,BKN,M,M,M,8000.00,M,M,M,M,M,M,M,M,M,M,39.18,KBAM 212035Z AUTO 12009KT 10SM BKN080 07/M06 A2960 RMK AO1,M
HTH,2023-03-21 20:35,-118.6315,38.5448,1282.89,35.60,35.60,100.00,320.00,6.00,0.00,29.48,M,8.00,M,BKN,OVC,M,M,600.00,1900.00,M,M,M,M,M,M,M,M,M,29.87,KHTH 212035Z AUTO 32006KT 8SM BKN006 OVC019 02/02 A2948 RMK A01,M
TMT,2023-03-21 20:35,-117.1971,39.4643,1749.34,35.80,30.90,82.17,70.00,12.00,0.00,29.51,M,7.00,15.00,BKN,OVC,M,M,2100.00,2600.00,M,M,-SN,M,M,M,M,M,M,26.84,KTMT 212035Z AUTO 07012G15KT 7SM -SN BKN021 OVC026 02/M01 A2951 RMK AO2 T00211006,M
RNO,2023-03-21 20:36,-119.7711,39.4839,1341.00,34.00,30.00,85.11,100.00,5.00,0.01,29.50,M,7.00,M,SCT,OVC,M,M,2300.00,3500.00,M,M,-SN,M,M,M,M,M,M,28.77,KRNO 212036Z 10005KT 7SM -SN SCT023 OVC035 01/M01 A2950 RMK AO2 P0001 T00111011,M
INS,2023-03-21 20:37,-115.6733,36.5872,955.00,48.20,42.80,81.47,120.00,16.00,0.00,29.58,1000.20,10.00,23.00,BKN,OVC,M,M,6000.00,8000.00,M,M,-DZ,M,M,M,M,M,M,41.53,KINS 212037Z AUTO 12016G23KT 10SM -DZ BKN060 OVC080 09/06 A2958 RMK AO2 RAE27DZB27E31DZB32E35DZB37 SLP002 $,M
INS,2023-03-21 20:42,-115.6733,36.5872,955.00,48.20,41.00,76.01,110.00,17.00,0.00,29.57,999.90,10.00,M,BKN,OVC,M,M,6000.00,8000.00,M,M,M,M,M,M,M,M,M,41.30,KINS 212042Z AUTO 11017KT 10SM BKN060 OVC080 09/05 A2957 RMK AO2 RAE27DZB27E31DZB32E35DZB37E42 SLP999 $,M
ELY,2023-03-21 20:44,-114.8453,39.2950,1909.00,32.00,28.00,84.98,0.00,0.00,T,29.61,M,1.25,M,BKN,OVC,M,M,2900.00,3500.00,M,M,-SN BR,M,M,M,M,M,M,32.00,KELY 212044Z AUTO 00000KT 1 1/4SM -SN BR BKN029 OVC035 00/M02 A2961 RMK AO2 P0000 T00001022,M
DRA,2023-03-21 20:53,-116.0278,36.6206,1009.00,46.00,41.00,82.58,280.00,7.00,0.03,29.57,999.50,10.00,M,FEW,FEW,OVC,M,1600.00,2100.00,2800.00,M,-RA,M,M,M,M,M,M,41.84,KDRA 212053Z AUTO 28007KT 10SM -RA FEW016 FEW021 OVC028 08/05 A2957 RMK AO2 RAE23B25 SLP995 P0003 60010 T00780050 58028,M
ELY,2023-03-21 20:53,-114.8453,39.2950,1909.00,32.00,28.90,88.17,0.00,0.00,T,29.60,1003.70,1.50,M,BKN,OVC,M,M,2900.00,3500.00,M,M,-SN BR,M,M,M,M,M,M,32.00,KELY 212053Z AUTO 00000KT 1 1/2SM -SN BR BKN029 OVC035 00/M02 A2960 RMK AO2 SLP037 P0000 60000 T00001017 58017,M
VGT,2023-03-21 20:53,-115.1933,36.2111,667.00,54.00,43.00,66.24,120.00,14.00,T,29.63,1004.50,9.00,M,BKN,OVC,M,M,3900.00,4900.00,M,M,-RA,M,M,M,M,M,M,54.00,KVGT 212053Z 12014KT 9SM -RA BKN039 OVC049 12/06 A2963 RMK AO2 RAB51 SLP045 P0000 60000 T01220061 58024,M
LOL,2023-03-21 20:53,-118.5701,40.0684,1192.43,41.00,28.90,61.79,90.00,15.00,T,29.52,1000.40,10.00,21.00,OVC,M,M,M,4600.00,M,M,M,M,M,M,M,26.00,90.00,2023-03-21 19:58,32.45,KLOL 212053Z AUTO 09015G21KT 10SM OVC046 05/M02 A2952 RMK AO2 PK WND 09026/1958 RAB1955E24 SLP004 P0000 60000 T00501017 58015,M
P68,2023-03-21 20:53,-116.0056,39.6014,1993.00,35.00,28.00,75.06,300.00,5.00,0.00,29.55,1000.40,M,M,M,M,M,M,M,M,M,M,M,M,M,M,M,M,M,30.08,KP68 212053Z AUTO 30005KT 02/M02 A2955 RMK AO1 SLP004 T00171022 58022,M
TPH,2023-03-21 20:54,-117.0904,38.0505,1654.00,37.40,35.60,93.14,170.00,20.00,T,29.51,M,9.00,28.00,BKN,OVC,M,M,1200.00,2100.00,M,M,-RA,M,M,M,30.00,150.00,2023-03-21 20:06,26.31,KTPH 212054Z AUTO 17020G28KT 9SM -RA BKN012 OVC021 03/02 A2951 RMK AO2 PK WND 15030/2006 P0000,M
BVU,2023-03-21 20:55,-114.8611,35.9475,671.00,51.80,42.80,71.26,170.00,15.00,0.00,29.68,M,10.00,21.00,BKN,OVC,M,M,2800.00,3400.00,M,M,M,M,M,M,M,M,M,51.80,KBVU 212055Z AUTO 17015G21KT 10SM BKN028 OVC034 11/06 A2968 RMK AO2,M
CXP,2023-03-21 20:55,-119.7326,39.1923,1431.00,35.60,28.40,74.80,70.00,11.00,0.00,29.51,M,4.00,16.00,BKN,OVC,M,M,3500.00,4200.00,M,M,UP HZ,M,M,M,M,M,M,27.02,KCXP 212055Z AUTO 07011G16KT 4SM UP HZ BKN035 OVC042 02/M02 A2951 RMK AO2,M
INS,2023-03-21 20:55,-115.6733,36.5872,955.00,48.40,40.80,74.86,110.00,23.00,0.01,29.57,999.90,10.00,29.00,BKN,OVC,M,M,6000.00,8000.00,M,M,M,M,M,M,34.00,120.00,2023-03-21 20:48,40.36,KINS 212055Z AUTO 11023G29KT 10SM BKN060 OVC080 09/05 A2957 RMK AO2 PK WND 12034/48 RAE27DZB27E31DZB32E35DZB37E42 SLP999 P0001 60002 T00910049 58025 $,M
RNO,2023-03-21 20:55,-119.7711,39.4839,1341.00,34.00,28.90,81.37,80.00,4.00,0.01,29.50,998.90,8.00,M,FEW,OVC,M,M,2300.00,3200.00,M,M,-SN,M,M,M,M,M,M,29.76,KRNO 212055Z 08004KT 8SM -SN FEW023 OVC032 01/M02 A2950 RMK AO2 SLP989 P0001 60003 T00111017 56017,M
RTS,2023-03-21 20:55,-119.8764,39.6682,1539.00,30.20,28.40,92.92,180.00,6.00,0.00,29.50,M,5.00,M,SCT,SCT,SCT,M,600.00,1600.00,3000.00,M,BR,M,M,M,M,M,M,23.36,KRTS 212055Z AUTO 18006KT 5SM BR SCT006 SCT016 SCT030 M01/M02 A2950 RMK AO2,M
05U,2023-03-21 20:55,-116.0051,39.6042,1811.23,35.60,26.60,69.46,280.00,5.00,0.00,29.58,M,10.00,M,BKN,BKN,BKN,M,2700.00,3500.00,4000.00,M,M,M,M,M,M,M,M,30.67,K05U 212055Z AUTO 28005KT 10SM BKN027 BKN035 BKN040 02/M03 A2958 RMK A01,M
MEV,2023-03-21 20:55,-119.7500,38.9963,1441.42,32.00,30.20,92.97,350.00,7.00,0.00,29.51,M,0.50,M,VV ,M,M,M,500.00,M,M,M,-SN BR,M,M,M,M,M,M,24.78,KMEV 212055Z AUTO 35007KT 1/2SM -SN BR VV005 M00/M01 A2951 RMK AO2,M
BAM,2023-03-21 20:55,-116.8743,40.5990,1382.36,42.80,23.00,45.14,130.00,12.00,0.00,29.59,M,10.00,M,OVC,M,M,M,7500.00,M,M,M,M,M,M,M,M,M,M,35.75,KBAM 212055Z AUTO 13012KT 10SM OVC075 06/M05 A2959 RMK AO1,M
HTH,2023-03-21 20:55,-118.6315,38.5448,1282.89,35.60,35.60,100.00,0.00,0.00,0.00,29.49,M,4.00,M,BKN,BKN,BKN,M,500.00,1900.00,2800.00,M,BR,M,M,M,M,M,M,35.60,KHTH 212055Z AUTO 00000KT 4SM BR BKN005 BKN019 BKN028 02/02 A2949 RMK A01,M
TMT,2023-03-21 20:55,-117.1971,39.4643,1749.34,35.60,30.20,80.51,70.00,11.00,0.00,29.51,M,5.00,M,SCT,BKN,OVC,M,2200.00,2600.00,3200.00,M,-SN,M,M,M,M,M,M,27.02,KTMT 212055Z AUTO 07011KT 5SM -SN SCT022 BKN026 OVC032 02/M01 A2951 RMK AO2 T00201010,M
LSV,2023-03-21 20:55,-115.0343,36.2362,570.00,54.50,42.00,62.83,130.00,9.00,0.00,29.63,1002.70,9.00,M,FEW,BKN,M,M,3900.00,4700.00,M,M,-SHRA,M,M,M,M,M,M,54.50,KLSV 212055Z COR AUTO 13009KT 9SM -SHRA FEW039 BKN047 13/06 A2963 RMK AO2 SLP027 T01250056 57023 $ COR 2123,M
INS,2023-03-21 20:56,-115.6733,36.5872,955.00,48.20,41.00,76.01,110.00,23.00,0.00,29.58,1000.20,10.00,29.00,BKN,OVC,M,M,6000.00,8000.00,M,M,-DZ,M,M,M,M,M,M,40.09,KINS 212056Z AUTO 11023G29KT 10SM -DZ BKN060 OVC080 09/05 A2958 RMK AO2 DZB55 SLP002 $,M
WMC,2023-03-21 20:56,-117.8072,40.9019,1315.00,46.00,18.00,32.30,50.00,15.00,0.00,29.53,1000.10,10.00,31.00,CLR,M,M,M,M,M,M,M,M,M,M,M,31.00,60.00,2023-03-21 20:47,38.93,KWMC 212056Z AUTO 05015G31KT 10SM CLR 08/M08 A2953 RMK AO2 PK WND 06031/2047 SLP001 T00781078 56025,M
NFL,2023-03-21 20:56,-118.7010,39.4166,1199.00,44.00,28.00,52.86,50.00,11.00,T,29.47,997.00,10.00,M,BKN,OVC,M,M,3600.00,4500.00,M,M,-RA,M,M,M,M,M,M,37.76,KNFL 212056Z 05011KT 10SM -RA BKN036 OVC045 07/M02 A2947 RMK AO2 RAB56 SLP970 P0000 60000 T00671022 58027,M
HND,2023-03-21 20:56,-115.1344,35.9729,742.79,53.00,41.00,63.38,160.00,24.00,0.00,29.64,1004.90,10.00,30.00,BKN,OVC,M,M,4700.00,6000.00,M,M,M,M,M,M,31.00,160.00,2023-03-21 20:45,53.10,KHND 212056Z 16024G30KT 10SM BKN047 OVC060 12/05 A2964 RMK AO2 PK WND 16031/2045 SLP049 60000 T01170050 58024,M
TPH,2023-03-21 20:56,-117.0904,38.0505,1654.00,37.00,35.00,92.76,180.00,22.00,T,29.51,998.80,8.00,30.00,BKN,BKN,OVC,M,1200.00,1600.00,2100.00,M,-RA,M,M,M,30.00,180.00,2023-03-21 20:55,25.27,KTPH 212056Z AUTO 18022G30KT 8SM -RA BKN012 BKN016 OVC021 03/02 A2951 RMK AO2 PK WND 18030/2055 SLP988 P0000 60000 T00280017 56017,M
LAS,2023-03-21 20:56,-115.1634,36.0719,663.00,55.00,40.00,56.66,160.00,15.00,0.00,29.63,1002.50,10.00,28.00,FEW,BKN,OVC,M,3000.00,4800.00,6500.00,M,M,M,M,M,31.00,130.00,2023-03-21 20:42,55.00,KLAS 212056Z 16015G28KT 10SM FEW030 BKN048 OVC065 13/04 A2963 RMK AO2 PK WND 13031/2042 SLP025 T01280044 58028,M
EKO,2023-03-21 20:56,-115.7860,40.8242,1367.00,42.00,21.90,44.27,50.00,13.00,0.00,29.59,1002.70,10.00,20.00,BKN,M,M,M,10000.00,M,M,M,M,M,M,M,M,M,M,34.51,KEKO 212056Z AUTO 05013G20KT 10SM BKN100 06/M06 A2959 RMK AO2 SLP027 T00561056 56027,M
BVU,2023-03-21 21:15,-114.8611,35.9475,671.00,51.80,42.80,71.26,160.00,18.00,0.00,29.67,M,10.00,24.00,FEW,OVC,M,M,2700.00,3300.00,M,M,M,M,M,M,M,M,M,51.80,KBVU 212115Z AUTO 16018G24KT 10SM FEW027 OVC033 11/06 A2967 RMK AO2,M
CXP,2023-03-21 21:15,-119.7326,39.1923,1431.00,33.80,28.40,80.36,90.00,9.00,0.00,29.53,M,4.00,M,FEW,FEW,SCT,M,1500.00,2900.00,3300.00,M,UP HZ,M,M,M,M,M,M,25.75,KCXP 212115Z AUTO 09009KT 060V120 4SM UP HZ FEW015 FEW029 SCT033 01/M02 A2953 RMK AO2,M
RNO,2023-03-21 21:15,-119.7711,39.4839,1341.00,34.00,30.00,85.11,150.00,4.00,T,29.49,M,2.50,M,OVC,M,M,M,2700.00,M,M,M,-SN BR,M,M,M,M,M,M,29.76,KRNO 212115Z 15004KT 2 1/2SM -SN BR OVC027 01/M01 A2949 RMK AO2 P0000 T00111011,M
RTS,2023-03-21 21:15,-119.8764,39.6682,1539.00,32.00,28.40,86.39,170.00,5.00,0.00,29.49,M,7.00,M,SCT,BKN,BKN,M,800.00,1500.00,3000.00,M,-SN,M,M,M,M,M,M,26.40,KRTS 212115Z AUTO 17005KT 7SM -SN SCT008 BKN015 BKN030 M00/M02 A2949 RMK AO2,M
05U,2023-03-21 21:15,-116.0051,39.6042,1811.23,35.60,26.60,69.46,M,6.00,0.00,29.57,M,7.00,M,SCT,BKN,BKN,M,2600.00,3100.00,3900.00,M,M,M,M,M,M,M,M,29.87,K05U 212115Z AUTO VRB06KT 7SM SCT026 BKN031 BKN039 02/M03 A2957 RMK A01,M
MEV,2023-03-21 21:15,-119.7500,38.9963,1441.42,32.00,30.20,92.97,360.00,10.00,0.00,29.51,M,0.50,M,BKN,M,M,M,300.00,M,M,M,-SN BR,M,M,M,M,M,M,22.97,KMEV 212115Z AUTO 36010KT 1/2SM -SN BR BKN003 M00/M01 A2951 RMK AO2,M
BAM,2023-03-21 21:15,-116.8743,40.5990,1382.36,42.80,23.00,45.14,120.00,12.00,0.00,29.59,M,10.00,M,SCT,OVC,M,M,5500.00,6500.00,M,M,M,M,M,M,M,M,M,35.75,KBAM 212115Z AUTO 12012KT 10SM SCT055 OVC065 06/M05 A2959 RMK AO1,M
HTH,2023-03-21 21:15,-118.6315,38.5448,1282.89,35.60,35.60,100.00,220.00,8.00,0.00,29.50,M,3.00,M,SCT,SCT,M,M,500.00,2800.00,M,M,BR,M,M,M,M,M,M,28.55,KHTH 212115Z AUTO 22008KT 3SM BR SCT005 SCT028 02/02 A2950 RMK A01,M
TMT,2023-03-21 21:15,-117.1971,39.4643,1749.34,36.50,30.60,78.96,80.00,11.00,0.00,29.51,M,10.00,M,BKN,OVC,M,M,2900.00,3600.00,M,M,M,M,M,M,M,M,M,28.15,KTMT 212115Z AUTO 08011KT 10SM BKN029 OVC036 03/M01 A2951 RMK AO2 T00251008,M
TPH,2023-03-21 21:15,-117.0904,38.0505,1654.00,37.00,35.00,92.76,180.00,13.00,T,29.51,M,8.00,24.00,BKN,OVC,M,M,800.00,1400.00,M,M,-RA,M,M,M,26.00,180.00,2023-03-21 20:57,27.97,KTPH 212115Z AUTO 18013G24KT 8SM -RA BKN008 OVC014 03/02 A2951 RMK AO2 PK WND 18026/2057 SNB2058E08 P0000 T00280017,M
ELY,2023-03-21 21:15,-114.8453,39.2950,1909.00,33.00,28.90,84.36,60.00,3.00,0.01,29.60,M,2.00,M,FEW,BKN,OVC,M,1100.00,2900.00,3600.00,M,-SN BR,M,M,M,M,M,M,29.95,KELY 212115Z AUTO 06003KT 2SM -SN BR FEW011 BKN029 OVC036 01/M02 A2960 RMK AO2 P0001 T00061017,M
ELY,2023-03-21 21:26,-114.8453,39.2950,1909.00,33.00,28.90,80.36,0.00,0.00,0.01,29.59,M,1.75,M,SCT,BKN,OVC,M,1300.00,2700.00,3400.00,M,-SN BR,M,M,M,M,M,M,33.80,KELY 212126Z AUTO 00000KT 1 3/4SM -SN BR SCT013 BKN027 OVC034 01/M02 A2959 RMK AO2 P0001 T00061017,M
TPH,2023-03-21 21:32,-117.0904,38.0505,1654.00,34.00,33.00,96.46,190.00,14.00,0.02,29.51,M,2.50,25.00,OVC,M,M,M,1000.00,M,M,M,-SN BR,M,M,M,26.00,180.00,2023-03-21 20:57,23.74,KTPH 212132Z AUTO 19014G25KT 2 1/2SM -SN BR OVC010 01/01 A2951 RMK AO2 PK WND 18026/2057 RAE26SNB2058E08B26 P0002 T00110006,M
INS,2023-03-21 21:33,-115.6733,36.5872,955.00,48.20,42.80,81.47,120.00,22.00,0.00,29.55,999.20,10.00,30.00,FEW,OVC,M,M,1300.00,6500.00,M,M,M,M,M,M,M,M,M,40.27,KINS 212133Z AUTO 12022G30KT 10SM FEW013 OVC065 09/06 A2955 RMK AO2 DZB2055E08RAB08E33 SLP992 $,M
BVU,2023-03-21 21:35,-114.8611,35.9475,671.00,53.60,42.80,66.70,160.00,18.00,0.00,29.66,M,10.00,26.00,OVC,M,M,M,3200.00,M,M,M,M,M,M,M,M,M,M,53.60,KBVU 212135Z AUTO 16018G26KT 10SM OVC032 12/06 A2966 RMK AO2,M
CXP,2023-03-21 21:35,-119.7326,39.1923,1431.00,33.80,30.20,86.49,100.00,7.00,0.00,29.52,M,0.25,M,SCT,BKN,M,M,300.00,1400.00,M,M,SN FG,M,M,M,M,M,M,26.97,KCXP 212135Z AUTO 10007KT 1/4SM SN FG SCT003 BKN014 01/M01 A2952 RMK AO2,M
RTS,2023-03-21 21:35,-119.8764,39.6682,1539.00,32.00,28.40,86.39,170.00,5.00,0.00,29.49,M,8.00,M,FEW,BKN,M,M,1000.00,1400.00,M,M,M,M,M,M,M,M,M,26.40,KRTS 212135Z AUTO 17005KT 8SM FEW010 BKN014 M00/M02 A2949 RMK AO2,M
05U,2023-03-21 21:35,-116.0051,39.6042,1811.23,37.40,26.60,64.70,M,4.00,0.00,29.55,M,10.00,M,SCT,M,M,M,3200.00,M,M,M,M,M,M,M,M,M,M,33.73,K05U 212135Z AUTO VRB04KT 10SM SCT032 03/M03 A2955 RMK A01,M
MEV,2023-03-21 21:35,-119.7500,38.9963,1441.42,33.80,32.00,93.03,350.00,7.00,0.00,29.50,M,1.75,M,BKN,M,M,M,500.00,M,M,M,-SN BR,M,M,M,M,M,M,26.97,KMEV 212135Z AUTO 35007KT 1 3/4SM -SN BR BKN005 01/M00 A2950 RMK AO2,M
BAM,2023-03-21 21:35,-116.8743,40.5990,1382.36,42.80,26.60,52.45,90.00,14.00,0.00,29.58,M,10.00,M,SCT,OVC,M,M,4400.00,5000.00,M,M,M,M,M,M,M,M,M,35.08,KBAM 212135Z AUTO 09014KT 10SM SCT044 OVC050 06/M03 A2958 RMK AO1,M
HTH,2023-03-21 21:35,-118.6315,38.5448,1282.89,37.40,35.60,93.14,80.00,14.00,0.00,29.45,M,9.00,M,FEW,FEW,SCT,M,700.00,4500.00,5500.00,M,M,M,M,M,M,M,M,28.12,KHTH 212135Z AUTO 08014KT 9SM FEW007 FEW045 SCT055 03/02 A2945 RMK A01,M
TMT,2023-03-21 21:35,-117.1971,39.4643,1749.34,37.00,30.20,76.47,80.00,11.00,0.00,29.49,M,10.00,M,BKN,OVC,M,M,3000.00,3700.00,M,M,M,M,M,M,M,M,M,28.66,KTMT 212135Z AUTO 08011KT 10SM BKN030 OVC037 03/M01 A2949 RMK AO2 T00271010,M
LSV,2023-03-21 21:39,-115.0343,36.2362,570.00,53.60,46.40,76.50,140.00,17.00,0.00,29.60,1001.70,8.00,M,FEW,FEW,SCT,OVC,1900.00,2900.00,4200.00,5000.00,-SHRA,M,M,M,M,M,M,53.60,KLSV 212139Z 14017KT 8SM -SHRA FEW019 FEW029 SCT042 OVC050 12/08 A2960 RMK AO2A SHRAE2055RAB39 SLP017 $,M
VGT,2023-03-21 21:39,-115.1933,36.2111,667.00,53.00,45.00,73.89,140.00,12.00,0.07,29.62,M,3.00,20.00,BKN,OVC,M,M,3500.00,4500.00,M,M,-RA,M,M,M,28.00,140.00,2023-03-21 21:22,53.10,KVGT 212139Z 14012G20KT 3SM -RA BKN035 OVC045 12/07 A2962 RMK AO2 PK WND 14028/2122 P0007 T01170072,M
INS,2023-03-21 21:40,-115.6733,36.5872,955.00,48.20,42.80,81.47,120.00,23.00,0.00,29.54,998.80,10.00,30.00,OVC,M,M,M,7000.00,M,M,M,-RA,M,M,M,M,M,M,40.09,KINS 212140Z AUTO 12023G30KT 10SM -RA OVC070 09/06 A2954 RMK AO2 DZB2055E08RAB08E33RAB40 SLP988 $,M
RNO,2023-03-21 21:46,-119.7711,39.4839,1341.00,34.00,30.00,85.11,170.00,7.00,0.02,29.52,M,1.00,M,OVC,M,M,M,2000.00,M,M,M,-SN BR,M,M,M,M,M,M,27.22,KRNO 212146Z 17007KT 1SM -SN BR OVC020 01/M01 A2952 RMK AO2 TWR VIS 2 PRESRR P0002 T00111011 RVRNO,M
TPH,2023-03-21 21:46,-117.0904,38.0505,1654.00,37.00,36.00,96.13,180.00,11.00,0.03,29.50,M,5.00,M,SCT,OVC,M,M,700.00,1000.00,M,M,-SN BR,M,M,M,26.00,180.00,2023-03-21 20:57,28.79,KTPH 212146Z AUTO 18011KT 5SM -SN BR SCT007 OVC010 03/02 A2950 RMK AO2 PK WND 18026/2057 RAE26SNB2058E08B26 P0003 T00280022,M
VGT,2023-03-21 21:53,-115.1933,36.2111,667.00,54.00,45.00,71.50,150.00,14.00,0.08,29.61,1003.90,3.00,M,OVC,M,M,M,3700.00,M,M,M,-RA,M,M,M,28.00,140.00,2023-03-21 21:22,54.00,KVGT 212153Z 15014KT 3SM -RA OVC037 12/07 A2961 RMK AO2 PK WND 14028/2122 SFC VIS 10 SLP039 P0008 T01220072,M
P68,2023-03-21 21:53,-116.0056,39.6014,1993.00,38.00,28.00,67.20,90.00,3.00,0.00,29.52,999.00,M,14.00,M,M,M,M,M,M,M,M,M,M,M,M,M,M,M,35.43,KP68 212153Z AUTO 09003G14KT 03/M02 A2952 RMK AO1 SLP990 T00331022,M
ELY,2023-03-21 21:53,-114.8453,39.2950,1909.00,33.00,30.00,88.23,360.00,5.00,0.01,29.58,1002.70,2.00,M,BKN,OVC,M,M,2500.00,3300.00,M,M,-SN BR,M,M,M,M,M,M,27.70,KELY 212153Z AUTO 36005KT 2SM -SN BR BKN025 OVC033 01/M01 A2958 RMK AO2 SLP027 P0001 T00061011,M
LOL,2023-03-21 21:53,-118.5701,40.0684,1192.43,40.00,30.00,67.45,60.00,11.00,T,29.50,1000.30,10.00,M,SCT,BKN,OVC,M,4100.00,5000.00,6500.00,M,M,M,M,M,M,M,M,32.45,KLOL 212153Z AUTO 06011KT 10SM SCT041 BKN050 OVC065 04/M01 A2950 RMK AO2 RAB04E16 SLP003 P0000 T00441011,M
DRA,2023-03-21 21:53,-116.0278,36.6206,1009.00,47.00,44.00,89.92,220.00,12.00,0.04,29.57,999.50,3.00,18.00,SCT,BKN,OVC,M,1500.00,2200.00,5000.00,M,-RA BR,M,M,M,M,M,M,40.97,KDRA 212153Z AUTO 22012G18KT 3SM -RA BR SCT015 BKN022 OVC050 08/07 A2957 RMK AO2 RAE21B44 SLP995 P0004 T00830067,M
BVU,2023-03-21 21:55,-114.8611,35.9475,671.00,53.60,42.80,66.70,160.00,18.00,0.00,29.65,M,10.00,24.00,OVC,M,M,M,3400.00,M,M,M,M,M,M,M,M,M,M,53.60,KBVU 212155Z AUTO 16018G24KT 10SM OVC034 12/06 A2965 RMK AO2,M
CXP,2023-03-21 21:55,-119.7326,39.1923,1431.00,35.60,32.00,86.59,80.00,7.00,0.00,29.51,M,3.00,M,CLR,M,M,M,M,M,M,M,-SN BR,M,M,M,M,M,M,29.17,KCXP 212155Z AUTO 08007KT 3SM -SN BR CLR 02/00 A2951 RMK AO2,M
RNO,2023-03-21 21:55,-119.7711,39.4839,1341.00,34.00,30.00,85.11,140.00,4.00,0.02,29.51,999.60,1.00,M,OVC,M,M,M,2000.00,M,M,M,-SN BR,M,M,M,M,M,M,29.76,KRNO 212155Z 14004KT 1SM -SN BR OVC020 01/M01 A2951 RMK AO2 TWR VIS 1 1/4 SLP996 P0002 T00111011 RVRNO,M
RTS,2023-03-21 21:55,-119.8764,39.6682,1539.00,32.00,28.40,86.39,180.00,8.00,0.00,29.51,M,1.25,M,SCT,BKN,M,M,1300.00,2100.00,M,M,-SN,M,M,M,M,M,M,24.11,KRTS 212155Z AUTO 18008KT 1 1/4SM -SN SCT013 BKN021 M00/M02 A2951 RMK AO2,M
05U,2023-03-21 21:55,-116.0051,39.6042,1811.23,39.20,28.40,64.93,150.00,5.00,0.00,29.55,M,10.00,13.00,FEW,SCT,BKN,M,2700.00,3200.00,3900.00,M,M,M,M,M,M,M,M,34.95,K05U 212155Z AUTO 15005G13KT 10SM FEW027 SCT032 BKN039 04/M02 A2955 RMK A01,M
MEV,2023-03-21 21:55,-119.7500,38.9963,1441.42,33.80,32.00,93.03,40.00,6.00,0.00,29.49,M,7.00,M,BKN,M,M,M,700.00,M,M,M,UP,M,M,M,M,M,M,27.70,KMEV 212155Z AUTO 04006KT 7SM UP BKN007 01/M00 A2949 RMK AO2,M
BAM,2023-03-21 21:55,-116.8743,40.5990,1382.36,41.00,28.40,60.54,110.00,18.00,0.00,29.59,M,10.00,21.00,OVC,M,M,M,5000.00,M,M,M,M,M,M,M,M,M,M,31.60,KBAM 212155Z AUTO 11018G21KT 10SM OVC050 05/M02 A2959 RMK AO1,M
HTH,2023-03-21 21:55,-118.6315,38.5448,1282.89,39.20,33.80,80.79,120.00,13.00,0.07,29.46,M,10.00,22.00,FEW,FEW,FEW,M,6000.00,7000.00,8000.00,M,M,M,M,M,M,M,M,30.79,KHTH 212155Z AUTO 12013G22KT 10SM FEW060 FEW070 FEW080 04/01 A2946 RMK A01 P0007,M
TMT,2023-03-21 21:55,-117.1971,39.4643,1749.34,37.40,30.20,74.98,90.00,11.00,0.00,29.49,M,10.00,M,BKN,OVC,M,M,3200.00,4100.00,M,M,M,M,M,M,M,M,M,29.29,KTMT 212155Z AUTO 09011KT 10SM BKN032 OVC041 03/M01 A2949 RMK AO2 T00301010,M
INS,2023-03-21 21:55,-115.6733,36.5872,955.00,49.00,42.40,78.16,120.00,22.00,0.01,29.56,999.50,10.00,32.00,OVC,M,M,M,7000.00,M,M,M,-DZ,M,M,M,36.00,120.00,2023-03-21 21:39,41.21,KINS 212155Z AUTO 12022G32KT 10SM -DZ OVC070 09/06 A2956 RMK AO2 PK WND 12036/39 DZB2055E08RAB08E33RAB40E51DZB51 PRESRR SLP995 P0001 T00940058 $,M
LSV,2023-03-21 21:55,-115.0343,36.2362,570.00,52.50,45.50,76.99,150.00,15.00,0.05,29.61,1002.20,6.00,22.00,FEW,SCT,OVC,M,1700.00,3000.00,5000.00,M,-RA,M,M,M,M,M,M,52.50,KLSV 212155Z COR 15015G22KT 6SM -RA FEW017 SCT030 OVC050 11/08 A2961 RMK AO2A SHRAE2055RAB39E49 SLP022 P0005 T01140075 $ COR 2200,M
EKO,2023-03-21 21:56,-115.7860,40.8242,1367.00,43.00,19.00,37.81,30.00,13.00,0.00,29.57,1002.00,10.00,17.00,OVC,M,M,M,9000.00,M,M,M,M,M,M,M,M,M,M,35.66,KEKO 212156Z AUTO 03013G17KT 10SM OVC090 06/M07 A2957 RMK AO2 SLP020 T00611072,M
WMC,2023-03-21 21:56,-117.8072,40.9019,1315.00,45.00,19.00,35.02,20.00,10.00,0.00,29.53,1000.20,10.00,23.00,SCT,BKN,OVC,M,3400.00,4900.00,7500.00,M,M,M,M,M,28.00,40.00,2023-03-21 21:08,39.27,KWMC 212156Z AUTO 02010G23KT 350V080 10SM SCT034 BKN049 OVC075 07/M07 A2953 RMK AO2 PK WND 04028/2108 SLP002 T00721072,M
NFL,2023-03-21 21:56,-118.7010,39.4166,1199.00,43.00,32.00,64.88,300.00,5.00,T,29.45,996.50,10.00,M,OVC,M,M,M,3600.00,M,M,M,-RA,M,M,M,M,M,M,39.46,KNFL 212156Z 30005KT 10SM -RA OVC036 06/00 A2945 RMK AO2 SLP965 P0000 T00610000,M
TPH,2023-03-21 21:56,-117.0904,38.0505,1654.00,39.00,37.00,92.45,180.00,15.00,0.03,29.50,998.10,10.00,M,SCT,BKN,OVC,M,700.00,1400.00,2900.00,M,M,M,M,M,26.00,180.00,2023-03-21 20:57,29.85,KTPH 212156Z AUTO 18015KT 10SM SCT007 BKN014 OVC029 04/03 A2950 RMK AO2 PK WND 18026/2057 RAE26B48E50SNB2058E08B26E48 SLP981 P0003 T00390028,M
LAS,2023-03-21 21:56,-115.1634,36.0719,663.00,54.00,45.00,71.50,150.00,8.00,0.01,29.61,1002.00,7.00,22.00,FEW,BKN,OVC,M,3000.00,4800.00,6500.00,M,-RA,M,M,M,26.00,180.00,2023-03-21 20:57,54.00,KLAS 212156Z 15008G22KT 7SM -RA FEW030 BKN048 OVC065 12/07 A2961 RMK AO2 PK WND 18026/2057 RAB06 SLP020 P0001 T01220072,M
HND,2023-03-21 21:56,-115.1344,35.9729,742.79,54.00,42.00,63.98,160.00,23.00,0.00,29.61,1003.90,10.00,32.00,OVC,M,M,M,6000.00,M,M,M,M,M,M,M,32.00,160.00,2023-03-21 21:52,54.00,KHND 212156Z 16023G32KT 10SM OVC060 12/06 A2961 RMK AO2 PK WND 16032/2152 SLP039 T01220056,M
ELY,2023-03-21 22:02,-114.8453,39.2950,1909.00,33.00,30.00,88.23,350.00,6.00,T,29.58,M,4.00,M,BKN,OVC,M,M,2500.00,3300.00,M,M,-SN BR,M,M,M,M,M,M,26.86,KELY 212202Z AUTO 35006KT 4SM -SN BR BKN025 OVC033 01/M01 A2958 RMK AO2 P0000 T00061011,M
LSV,2023-03-21 22:04,-115.0343,36.2362,570.00,51.80,48.20,87.47,140.00,15.00,0.00,29.60,1001.80,5.00,M,FEW,FEW,OVC,M,1800.00,3000.00,5000.00,M,-RA,M,M,M,M,M,M,51.80,KLSV 212204Z 14015KT 5SM -RA FEW018 FEW030 OVC050 11/09 A2960 RMK AO2A RAE2155RAB03 SLP018 $,M
ELY,2023-03-21 22:10,-114.8453,39.2950,1909.00,34.00,30.00,85.11,M,3.00,T,29.57,M,9.00,M,FEW,OVC,M,M,2500.00,3300.00,M,M,M,M,M,M,M,M,M,30.97,KELY 212210Z AUTO VRB03KT 9SM FEW025 OVC033 01/M01 A2957 RMK AO2 SNE09 P0000 T00111011,M
RNO,2023-03-21 22:14,-119.7711,39.4839,1341.00,35.00,33.00,92.32,80.00,4.00,0.01,29.50,M,1.75,M,OVC,M,M,M,2000.00,M,M,M,-SN BR,M,M,M,M,M,M,31.04,KRNO 212214Z 08004KT 1 3/4SM -SN BR OVC020 02/01 A2950 RMK AO2 P0001 T00170006,M
BVU,2023-03-21 22:15,-114.8611,35.9475,671.00,55.40,44.60,66.91,170.00,18.00,0.00,29.64,M,10.00,25.00,BKN,BKN,BKN,M,3500.00,4000.00,8000.00,M,M,M,M,M,M,M,M,55.40,KBVU 212215Z AUTO 17018G25KT 10SM BKN035 BKN040 BKN080 13/07 A2964 RMK AO2,M
CXP,2023-03-21 22:15,-119.7326,39.1923,1431.00,35.60,32.00,86.59,60.00,9.00,0.00,29.50,M,10.00,M,CLR,M,M,M,M,M,M,M,UP,M,M,M,M,M,M,27.99,KCXP 212215Z AUTO 06009KT 10SM UP CLR 02/00 A2950 RMK AO2,M
RTS,2023-03-21 22:15,-119.8764,39.6682,1539.00,32.00,30.20,92.97,0.00,0.00,0.00,29.50,M,0.75,M,VV ,M,M,M,500.00,M,M,M,-SN,M,M,M,M,M,M,32.00,KRTS 212215Z AUTO 00000KT 3/4SM -SN VV005 M00/M01 A2950 RMK AO2,M
05U,2023-03-21 22:15,-116.0051,39.6042,1811.23,39.20,28.40,64.93,60.00,9.00,0.00,29.55,M,10.00,M,SCT,BKN,OVC,M,2500.00,3200.00,3900.00,M,M,M,M,M,M,M,M,32.47,K05U 212215Z AUTO 06009KT 10SM SCT025 BKN032 OVC039 04/M02 A2955 RMK A01,M
MEV,2023-03-21 22:15,-119.7500,38.9963,1441.42,33.80,30.20,86.49,30.00,3.00,0.00,29.48,M,10.00,M,BKN,M,M,M,900.00,M,M,M,M,M,M,M,M,M,M,30.75,KMEV 212215Z AUTO 03003KT 10SM BKN009 01/M01 A2948 RMK AO2,M
BAM,2023-03-21 22:15,-116.8743,40.5990,1382.36,39.20,32.00,75.16,110.00,13.00,0.00,29.59,M,10.00,18.00,SCT,BKN,OVC,M,4100.00,4800.00,5000.00,M,M,M,M,M,M,M,M,30.79,KBAM 212215Z AUTO 11013G18KT 10SM SCT041 BKN048 OVC050 04/00 A2959 RMK AO1,M
HTH,2023-03-21 22:15,-118.6315,38.5448,1282.89,42.80,32.00,65.38,M,7.00,0.00,29.45,M,10.00,16.00,FEW,M,M,M,11000.00,M,M,M,M,M,M,M,M,M,M,37.94,KHTH 212215Z AUTO VRB07G16KT 10SM FEW110 06/M00 A2945 RMK A01,M
TMT,2023-03-21 22:15,-117.1971,39.4643,1749.34,38.70,30.40,71.84,90.00,13.00,0.00,29.47,M,10.00,M,BKN,BKN,M,M,3400.00,4100.00,M,M,M,M,M,M,M,M,M,30.15,KTMT 212215Z AUTO 09013KT 10SM BKN034 BKN041 04/M01 A2947 RMK AO2 T00371009,M
DRA,2023-03-21 22:17,-116.0278,36.6206,1009.00,48.00,46.00,92.74,210.00,10.00,0.01,29.55,M,10.00,M,FEW,BKN,OVC,M,1000.00,3000.00,6000.00,M,M,M,M,M,M,M,M,43.03,KDRA 212217Z AUTO 21010KT 10SM FEW010 BKN030 OVC060 09/08 A2955 RMK AO2 RAE03 P0001 T00890078,M
LSV,2023-03-21 22:17,-115.0343,36.2362,570.00,53.60,50.00,87.56,140.00,14.00,0.00,29.58,1001.00,10.00,M,BKN,M,M,M,5000.00,M,M,M,M,M,M,M,M,M,M,53.60,KLSV 212217Z 14014KT 10SM BKN050 12/10 A2958 RMK AO2A RAE2155RAB03E12RAB16E17 SLP010 $,M
NFL,2023-03-21 22:21,-118.7010,39.4166,1199.00,40.00,34.00,79.25,270.00,11.00,T,29.45,M,6.00,M,BKN,BKN,OVC,M,2800.00,3300.00,4200.00,M,-RA,M,M,M,M,M,M,32.45,KNFL 212221Z 27011KT 6SM -RA BKN028 BKN033 OVC042 04/01 A2945 RMK AO2 P0000 T00440011,M
RNO,2023-03-21 22:21,-119.7711,39.4839,1341.00,35.00,33.00,92.32,90.00,5.00,0.02,29.50,M,2.00,M,OVC,M,M,M,2000.00,M,M,M,-SN BR,M,M,M,M,M,M,30.08,KRNO 212221Z 09005KT 2SM -SN BR OVC020 02/01 A2950 RMK AO2 P0002 T00170006,M
INS,2023-03-21 22:23,-115.6733,36.5872,955.00,46.40,42.80,87.19,120.00,21.00,0.00,29.58,1000.20,10.00,27.00,FEW,BKN,BKN,OVC,900.00,3800.00,4700.00,6000.00,M,M,M,M,M,M,M,38.06,KINS 212223Z AUTO 12021G27KT 10SM FEW009 BKN038 BKN047 OVC060 08/06 A2958 RMK AO2 DZE01RAB01E23 SLP002 $,M
INS,2023-03-21 22:25,-115.6733,36.5872,955.00,46.40,44.60,93.40,120.00,23.00,0.00,29.58,1000.20,10.00,27.00,FEW,BKN,BKN,OVC,2800.00,3800.00,4700.00,5500.00,-RA BR,M,M,M,M,M,M,37.67,KINS 212225Z AUTO 12023G27KT 10SM -RA BR FEW028 BKN038 BKN047 OVC055 08/07 A2958 RMK AO2 DZE01RAB01E23RAB25 SLP002 $,M
TPH,2023-03-21 22:25,-117.0904,38.0505,1654.00,41.00,38.00,88.62,170.00,23.00,T,29.48,M,10.00,34.00,SCT,BKN,BKN,M,1500.00,2800.00,5000.00,M,M,M,M,M,34.00,170.00,2023-03-21 22:25,30.41,KTPH 212225Z AUTO 17023G34KT 10SM SCT015 BKN028 BKN050 05/03 A2948 RMK AO2 PK WND 17034/2225 RAB01E13 P0000 T00500033,M
RNO,2023-03-21 22:25,-119.7711,39.4839,1341.00,35.00,33.00,92.32,50.00,6.00,0.02,29.49,M,5.00,M,OVC,M,M,M,2000.00,M,M,M,-SN BR,M,M,M,M,M,M,29.26,KRNO 212225Z 05006KT 5SM -SN BR OVC020 02/01 A2949 RMK AO2 P0002 T00170006,M
BVU,2023-03-21 22:35,-114.8611,35.9475,671.00,55.40,42.80,62.46,160.00,21.00,0.00,29.64,M,10.00,28.00,BKN,BKN,BKN,M,3700.00,7000.00,8000.00,M,M,M,M,M,M,M,M,55.40,KBVU 212235Z AUTO 16021G28KT 10SM BKN037 BKN070 BKN080 13/06 A2964 RMK AO2,M
CXP,2023-03-21 22:35,-119.7326,39.1923,1431.00,35.60,32.00,86.59,80.00,10.00,0.00,29.50,M,10.00,M,FEW,M,M,M,3200.00,M,M,M,M,M,M,M,M,M,M,27.48,KCXP 212235Z AUTO 08010KT 10SM FEW032 02/M00 A2950 RMK AO2,M
RTS,2023-03-21 22:35,-119.8764,39.6682,1539.00,33.80,32.00,93.03,110.00,5.00,0.00,29.49,M,5.00,M,FEW,SCT,M,M,600.00,1200.00,M,M,BR,M,M,M,M,M,M,28.53,KRTS 212235Z AUTO 11005KT 5SM BR FEW006 SCT012 01/M00 A2949 RMK AO2 PWINO,M
05U,2023-03-21 22:35,-116.0051,39.6042,1811.23,39.20,28.40,64.93,M,5.00,0.00,29.54,M,10.00,M,FEW,BKN,OVC,M,2400.00,2900.00,3400.00,M,M,M,M,M,M,M,M,34.95,K05U 212235Z AUTO VRB05KT 10SM FEW024 BKN029 OVC034 04/M02 A2954 RMK A01,M
MEV,2023-03-21 22:35,-119.7500,38.9963,1441.42,33.80,30.20,86.49,0.00,0.00,0.00,29.49,M,10.00,M,SCT,BKN,OVC,M,1000.00,1400.00,1900.00,M,M,M,M,M,M,M,M,33.80,KMEV 212235Z AUTO 00000KT 10SM SCT010 BKN014 OVC019 01/M01 A2949 RMK AO2,M
BAM,2023-03-21 22:35,-116.8743,40.5990,1382.36,37.40,32.00,80.65,110.00,10.00,0.00,29.59,M,10.00,M,SCT,BKN,OVC,M,2100.00,2900.00,4700.00,M,M,M,M,M,M,M,M,29.74,KBAM 212235Z AUTO 11010KT 10SM SCT021 BKN029 OVC047 03/00 A2959 RMK AO1,M
HTH,2023-03-21 22:35,-118.6315,38.5448,1282.89,41.00,32.00,70.08,320.00,9.00,0.00,29.45,M,10.00,M,CLR,M,M,M,M,M,M,M,M,M,M,M,M,M,M,34.70,KHTH 212235Z AUTO 32009KT 10SM CLR 05/00 A2945 RMK A01,M
TMT,2023-03-21 22:35,-117.1971,39.4643,1749.34,40.80,30.90,67.55,90.00,12.00,0.00,29.46,M,10.00,M,SCT,BKN,M,M,3400.00,5500.00,M,M,M,M,M,M,M,M,M,33.20,KTMT 212235Z AUTO 09012KT 10SM SCT034 BKN055 05/M01 A2946 RMK AO2 T00491006,M
RNO,2023-03-21 22:46,-119.7711,39.4839,1341.00,36.00,32.00,85.23,40.00,4.00,0.02,29.49,M,6.00,M,FEW,SCT,OVC,M,800.00,1400.00,2200.00,M,-SN BR,M,M,M,M,M,M,32.09,KRNO 212246Z 04004KT 6SM -SN BR FEW008 SCT014 OVC022 02/00 A2949 RMK AO2 P0002 T00220000 $,M
ELY,2023-03-21 22:48,-114.8453,39.2950,1909.00,35.60,30.20,80.51,170.00,10.00,T,29.57,M,2.50,15.00,FEW,BKN,OVC,M,2200.00,2800.00,3400.00,M,-SN,M,M,M,M,M,M,27.48,KELY 212248Z AUTO 17010G15KT 2 1/2SM -SN FEW022 BKN028 OVC034 02/M01 A2957 RMK AO2 SNE09B44 P0000,M
DRA,2023-03-21 22:48,-116.0278,36.6206,1009.00,47.00,43.00,86.21,230.00,13.00,0.01,29.57,M,10.00,22.00,FEW,BKN,OVC,M,1600.00,2800.00,4800.00,M,M,M,M,M,34.00,200.00,2023-03-21 22:26,40.66,KDRA 212248Z AUTO 23013G22KT 10SM FEW016 BKN028 OVC048 08/06 A2957 RMK AO2 PK WND 20034/2226 RAE03B23E35 P0001 T00830061,M
ELY,2023-03-21 22:49,-114.8453,39.2950,1909.00,35.00,30.00,81.46,170.00,10.00,T,29.57,1002.30,2.00,15.00,FEW,BKN,OVC,M,2200.00,2800.00,3400.00,M,-SN,M,M,M,M,M,M,26.86,KELY 212249Z AUTO 17010G15KT 2SM -SN FEW022 BKN028 OVC034 02/M01 A2957 RMK AO2 SNE09B44 SLP023 P0000 T00171011,M
INS,2023-03-21 22:50,-115.6733,36.5872,955.00,46.40,46.40,100.00,110.00,17.00,0.00,29.59,1000.60,10.00,M,SCT,BKN,BKN,OVC,500.00,1000.00,2900.00,4200.00,-RA,M,M,M,M,M,M,38.94,KINS 212250Z AUTO 11017KT 10SM -RA SCT005 BKN010 BKN029 OVC042 08/08 A2959 RMK AO2 DZE01RAB01E23RAB25 BKN010 V SCT CIG 005 RWY26 SLP006 $,M
HTH,2023-03-21 22:50,-118.6315,38.5448,1282.89,39.20,35.60,86.79,300.00,10.00,0.00,29.45,M,10.00,M,CLR,M,M,M,M,M,M,M,M,M,M,M,M,M,M,32.00,KHTH 212250Z AUTO 30010KT 10SM CLR 04/02 A2945 RMK A01,M
P68,2023-03-21 22:53,-116.0056,39.6014,1993.00,39.00,28.90,66.79,130.00,14.00,0.00,29.50,998.10,M,20.00,M,M,M,M,M,M,M,M,M,M,M,M,M,M,M,30.19,KP68 212253Z AUTO 13014G20KT 04/M02 A2950 RMK AO1 SLP981 T00391017,M
DRA,2023-03-21 22:53,-116.0278,36.6206,1009.00,48.00,43.00,82.72,220.00,12.00,0.01,29.57,999.50,10.00,20.00,FEW,BKN,OVC,M,1600.00,3100.00,5500.00,M,M,M,M,M,34.00,200.00,2023-03-21 22:26,42.37,KDRA 212253Z AUTO 22012G20KT 10SM FEW016 BKN031 OVC055 09/06 A2957 RMK AO2 PK WND 20034/2226 RAE03B23E35 SLP995 P0001 T00890061,M
VGT,2023-03-21 22:53,-115.1933,36.2111,667.00,55.00,45.00,68.93,140.00,16.00,0.01,29.59,1003.10,4.00,M,FEW,BKN,OVC,M,3400.00,4800.00,6000.00,M,-RA,M,M,M,M,M,M,55.00,KVGT 212253Z 14016KT 4SM -RA FEW034 BKN048 OVC060 13/07 A2959 RMK AO2 SLP031 P0001 T01280072,M
LOL,2023-03-21 22:53,-118.5701,40.0684,1192.43,41.00,32.00,70.08,20.00,11.00,0.00,29.48,999.30,10.00,M,FEW,FEW,OVC,M,2700.00,5000.00,6500.00,M,M,M,M,M,M,M,M,33.84,KLOL 212253Z AUTO 02011KT 10SM FEW027 FEW050 OVC065 05/00 A2948 RMK AO2 SLP993 T00500000,M
BVU,2023-03-21 22:55,-114.8611,35.9475,671.00,55.40,44.60,66.91,160.00,23.00,0.00,29.63,M,10.00,M,SCT,BKN,BKN,M,3500.00,4100.00,6000.00,M,M,M,M,M,M,M,M,55.40,KBVU 212255Z AUTO 16023KT 10SM SCT035 BKN041 BKN060 13/07 A2963 RMK AO2,M
CXP,2023-03-21 22:55,-119.7326,39.1923,1431.00,35.60,32.00,86.59,90.00,10.00,0.00,29.50,M,10.00,M,FEW,FEW,M,M,2200.00,3200.00,M,M,M,M,M,M,M,M,M,27.48,KCXP 212255Z AUTO 09010KT 10SM FEW022 FEW032 02/M00 A2950 RMK AO2,M
RNO,2023-03-21 22:55,-119.7711,39.4839,1341.00,36.00,32.00,85.23,60.00,5.00,0.02,29.50,999.10,6.00,M,FEW,SCT,OVC,M,800.00,1400.00,2200.00,M,-SN BR,M,M,M,M,M,M,31.15,KRNO 212255Z 06005KT 6SM -SN BR FEW008 SCT014 OVC022 02/00 A2950 RMK AO2 SLP991 P0002 T00220000 $,M
RTS,2023-03-21 22:55,-119.8764,39.6682,1539.00,33.80,32.00,93.03,120.00,8.00,0.01,29.50,M,10.00,M,SCT,BKN,M,M,700.00,1200.00,M,M,M,M,M,M,M,M,M,26.33,KRTS 212255Z AUTO 12008KT 10SM SCT007 BKN012 01/M00 A2950 RMK AO2 P0001,M
05U,2023-03-21 22:55,-116.0051,39.6042,1811.23,41.00,28.40,60.54,140.00,13.00,0.00,29.53,M,10.00,19.00,BKN,BKN,M,M,2900.00,3500.00,M,M,M,M,M,M,M,M,M,33.10,K05U 212255Z AUTO 14013G19KT 10SM BKN029 BKN035 05/M02 A2953 RMK A01,M
MEV,2023-03-21 22:55,-119.7500,38.9963,1441.42,33.80,30.20,86.49,330.00,4.00,0.00,29.50,M,10.00,M,BKN,OVC,M,M,1300.00,1900.00,M,M,M,M,M,M,M,M,M,29.52,KMEV 212255Z AUTO 33004KT 10SM BKN013 OVC019 01/M01 A2950 RMK AO2,M
BAM,2023-03-21 22:55,-116.8743,40.5990,1382.36,35.60,32.00,86.59,120.00,9.00,0.00,29.58,M,10.00,M,SCT,BKN,OVC,M,2100.00,2900.00,4000.00,M,M,M,M,M,M,M,M,27.99,KBAM 212255Z AUTO 12009KT 10SM SCT021 BKN029 OVC040 02/00 A2958 RMK AO1,M
TMT,2023-03-21 22:55,-117.1971,39.4643,1749.34,41.20,30.60,65.71,100.00,16.00,0.00,29.46,M,10.00,M,SCT,M,M,M,5500.00,M,M,M,M,M,M,M,M,M,M,32.41,KTMT 212255Z AUTO 10016KT 10SM SCT055 05/M01 A2946 RMK AO2 T00511008,M
INS,2023-03-21 22:55,-115.6733,36.5872,955.00,47.30,47.00,99.25,90.00,15.00,0.05,29.60,1000.90,9.00,M,BKN,BKN,OVC,M,500.00,1100.00,4200.00,M,-RA,M,M,M,40.00,120.00,2023-03-21 22:05,40.61,KINS 212255Z AUTO 09015KT 9SM -RA BKN005 BKN011 OVC042 09/08 A2960 RMK AO2 PK WND 12040/05 DZE01RAB01E23RAB25 BKN005 V FEW SLP009 P0005 T00850084 $,M
LSV,2023-03-21 22:55,-115.0343,36.2362,570.00,56.00,50.70,82.04,140.00,18.00,T,29.57,1000.70,10.00,31.00,BKN,M,M,M,5000.00,M,M,M,M,M,M,M,31.00,130.00,2023-03-21 22:46,56.10,KLSV 212255Z 14018G31KT 10SM BKN050 13/10 A2957 RMK AO2A PK WND 13031/46 RAB03E12RAB16E17 SLP007 P0000 T01340104 $,M
EKO,2023-03-21 22:56,-115.7860,40.8242,1367.00,42.00,18.00,37.49,140.00,3.00,0.00,29.57,1002.10,10.00,M,OVC,M,M,M,5500.00,M,M,M,M,M,M,M,M,M,M,40.23,KEKO 212256Z AUTO 14003KT 10SM OVC055 06/M08 A2957 RMK AO2 SLP021 T00561078,M
WMC,2023-03-21 22:56,-117.8072,40.9019,1315.00,41.00,25.00,52.61,180.00,10.00,0.00,29.52,1000.50,10.00,14.00,BKN,BKN,OVC,M,3400.00,4500.00,5500.00,M,M,M,M,M,M,M,M,34.25,KWMC 212256Z AUTO 18010G14KT 10SM BKN034 BKN045 OVC055 05/M04 A2952 RMK AO2 SLP005 T00501039,M
HND,2023-03-21 22:56,-115.1344,35.9729,742.79,57.00,43.00,59.40,150.00,22.00,T,29.59,1003.00,10.00,31.00,FEW,BKN,M,M,5500.00,7000.00,M,M,M,M,M,M,31.00,150.00,2023-03-21 22:49,57.00,KHND 212256Z 15022G31KT 10SM FEW055 BKN070 14/06 A2959 RMK AO2 PK WND 15031/2249 RAB04E24 SLP030 P0000 T01390061,M
TPH,2023-03-21 22:56,-117.0904,38.0505,1654.00,39.00,36.00,88.87,180.00,21.00,T,29.50,998.20,10.00,30.00,SCT,BKN,OVC,M,1300.00,2100.00,10000.00,M,M,M,M,M,34.00,170.00,2023-03-21 22:25,28.19,KTPH 212256Z AUTO 18021G30KT 10SM SCT013 BKN021 OVC100 04/02 A2950 RMK AO2 PK WND 17034/2225 RAB01E13B30E41 SLP982 P0000 T00390022,M
LAS,2023-03-21 22:56,-115.1634,36.0719,663.00,57.00,43.00,59.40,170.00,10.00,T,29.59,1001.10,10.00,28.00,SCT,BKN,OVC,M,3000.00,4800.00,6500.00,M,M,M,M,M,28.00,150.00,2023-03-21 22:40,57.00,KLAS 212256Z 17010G28KT 10SM SCT030 BKN048 OVC065 14/06 A2959 RMK AO2 PK WND 15028/2240 RAE37 SLP011 P0000 T01390061,M
NFL,2023-03-21 22:56,-118.7010,39.4166,1199.00,38.00,33.00,82.66,240.00,10.00,0.06,29.49,997.60,3.00,M,OVC,M,M,M,1500.00,M,M,M,-RA,M,M,M,M,M,M,30.37,KNFL 212256Z 24010KT 3SM -RA OVC015 03/01 A2949 RMK AO2 PRESRR SLP976 P0006 T00330006,M
ELY,2023-03-21 22:59,-114.8453,39.2950,1909.00,35.00,30.00,80.51,170.00,8.00,T,29.57,M,3.00,M,FEW,OVC,M,M,2000.00,3200.00,M,M,-SN,M,M,M,M,M,M,28.55,KELY 212259Z AUTO 17008KT 3SM -SN FEW020 OVC032 02/M01 A2957 RMK AO2 P0000 T00171011,M
NFL,2023-03-21 23:03,-118.7010,39.4166,1199.00,36.00,33.00,89.09,230.00,15.00,0.00,29.51,M,2.00,21.00,FEW,OVC,M,M,700.00,1500.00,M,M,-SN BR,M,M,M,M,M,M,25.97,KNFL 212303Z 23015G21KT 2SM -SN BR FEW007 OVC015 02/01 A2951 RMK AO2 RAE02SNB02 PRESRR T00220006 PNO $,M
TPH,2023-03-21 23:04,-117.0904,38.0505,1654.00,38.00,36.00,92.78,180.00,18.00,T,29.51,M,10.00,30.00,BKN,BKN,OVC,M,1300.00,2200.00,10000.00,M,-RA,M,M,M,30.00,170.00,2023-03-21 22:57,27.52,KTPH 212304Z AUTO 18018G30KT 10SM -RA BKN013 BKN022 OVC100 03/02 A2951 RMK AO2 PK WND 17030/2257 RAB2257 P0000 T00330022,M
INS,2023-03-21 23:05,-115.6733,36.5872,955.00,48.20,48.20,100.00,100.00,16.00,0.00,29.60,1000.90,10.00,M,SCT,BKN,OVC,M,600.00,1000.00,4400.00,M,-RA,M,M,M,M,M,M,41.53,KINS 212305Z AUTO 10016KT 10SM -RA SCT006 BKN010 OVC044 09/09 A2960 RMK AO2 SLP009 $,M
INS,2023-03-21 23:10,-115.6733,36.5872,955.00,48.20,48.20,100.00,90.00,14.00,0.00,29.59,1000.60,10.00,M,BKN,BKN,OVC,M,700.00,4700.00,5500.00,M,-RA,M,M,M,M,M,M,42.04,KINS 212310Z AUTO 09014KT 10SM -RA BKN007 BKN047 OVC055 09/09 A2959 RMK AO2 RAE07DZB07E09RAB09 SLP006 $,M
WMC,2023-03-21 23:10,-117.8072,40.9019,1315.00,39.00,28.00,64.37,M,5.00,0.00,29.52,M,10.00,M,BKN,OVC,M,M,2700.00,3300.00,M,M,M,M,M,M,M,M,M,34.71,KWMC 212310Z AUTO VRB05KT 10SM BKN027 OVC033 04/M02 A2952 RMK AO2 T00391022,M
RNO,2023-03-21 23:10,-119.7711,39.4839,1341.00,37.00,30.90,78.37,40.00,5.00,T,29.50,M,9.00,M,SCT,BKN,OVC,M,1600.00,2200.00,3500.00,M,M,M,M,M,M,M,M,32.33,KRNO 212310Z COR 04005KT 9SM SCT016 BKN022 OVC035 03/M01 A2950 RMK AO2 SNE09 P0000 T00281006 $,M
NFL,2023-03-21 23:10,-118.7010,39.4166,1199.00,33.00,30.90,91.51,240.00,15.00,0.00,29.51,M,0.50,M,FEW,OVC,M,M,700.00,1100.00,M,M,SN FG,M,M,M,M,M,M,22.21,KNFL 212310Z 24015KT 1/2SM SN FG FEW007 OVC011 01/M01 A2951 RMK AO2 RAE02SNB02 T00061006 PNO $,M
NFL,2023-03-21 23:12,-118.7010,39.4166,1199.00,33.00,30.90,91.51,250.00,14.00,0.00,29.51,M,0.25,M,VV ,M,M,M,900.00,M,M,M,+SN FG,M,M,M,M,M,M,22.58,KNFL 212312Z 25014KT 1/4SM +SN FG VV009 01/M01 A2951 RMK AO2 RAE02SNB02 T00061006 PNO $,M
BVU,2023-03-21 23:15,-114.8611,35.9475,671.00,55.40,44.60,66.91,170.00,21.00,0.00,29.63,M,10.00,30.00,FEW,FEW,FEW,M,3400.00,4000.00,8500.00,M,M,M,M,M,M,M,M,55.40,KBVU 212315Z AUTO 17021G30KT 10SM FEW034 FEW040 FEW085 13/07 A2963 RMK AO2,M
CXP,2023-03-21 23:15,-119.7326,39.1923,1431.00,35.60,32.00,86.59,100.00,8.00,0.00,29.50,M,10.00,M,BKN,M,M,M,2200.00,M,M,M,M,M,M,M,M,M,M,28.55,KCXP 212315Z AUTO 10008KT 10SM BKN022 02/M00 A2950 RMK AO2,M
RTS,2023-03-21 23:15,-119.8764,39.6682,1539.00,33.80,30.20,86.49,110.00,9.00,0.00,29.50,M,10.00,M,OVC,M,M,M,1100.00,M,M,M,-SN,M,M,M,M,M,M,25.75,KRTS 212315Z AUTO 11009KT 10SM -SN OVC011 01/M01 A2950 RMK AO2,M
05U,2023-03-21 23:15,-116.0051,39.6042,1811.23,39.20,30.20,69.88,150.00,10.00,0.00,29.53,M,10.00,16.00,FEW,M,M,M,2700.00,M,M,M,M,M,M,M,M,M,M,32.00,K05U 212315Z AUTO 15010G16KT 10SM FEW027 04/M01 A2953 RMK A01,M
MEV,2023-03-21 23:15,-119.7500,38.9963,1441.42,33.80,30.20,86.49,0.00,0.00,0.00,29.49,M,4.00,M,BKN,BKN,M,M,1400.00,1900.00,M,M,-SN BR,M,M,M,M,M,M,33.80,KMEV 212315Z AUTO 00000KT 4SM -SN BR BKN014 BKN019 01/M01 A2949 RMK AO2,M
BAM,2023-03-21 23:15,-116.8743,40.5990,1382.36,35.60,32.00,86.59,60.00,10.00,0.00,29.58,M,10.00,M,SCT,BKN,OVC,M,800.00,2800.00,4400.00,M,M,M,M,M,M,M,M,27.48,KBAM 212315Z AUTO 06010KT 10SM SCT008 BKN028 OVC044 02/00 A2958 RMK AO1,M
HTH,2023-03-21 23:15,-118.6315,38.5448,1282.89,41.00,33.80,75.33,340.00,6.00,0.00,29.44,M,10.00,M,CLR,M,M,M,M,M,M,M,M,M,M,M,M,M,M,36.37,KHTH 212315Z AUTO 34006KT 10SM CLR 05/01 A2944 RMK A01,M
INS,2023-03-21 23:16,-115.6733,36.5872,955.00,48.20,48.20,100.00,90.00,15.00,0.00,29.59,1000.30,10.00,M,FEW,SCT,BKN,OVC,600.00,1000.00,4700.00,5500.00,M,M,M,M,M,M,M,41.78,KINS 212316Z AUTO 09015KT 10SM FEW006 SCT010 BKN047 OVC055 09/09 A2959 RMK AO2 RAE07DZB07E09RAB09E10 SLP003 $,M
WMC,2023-03-21 23:25,-117.8072,40.9019,1315.00,40.00,28.00,62.15,230.00,6.00,0.00,29.52,M,10.00,M,BKN,BKN,OVC,M,3300.00,4300.00,5500.00,M,M,M,M,M,M,M,M,35.04,KWMC 212325Z AUTO 23006KT 10SM BKN033 BKN043 OVC055 04/M02 A2952 RMK AO2 T00441022,M
NFL,2023-03-21 23:26,-118.7010,39.4166,1199.00,33.00,32.00,95.67,320.00,14.00,0.00,29.46,M,0.75,M,VV ,M,M,M,900.00,M,M,M,-SN BR,M,M,M,M,M,M,22.58,KNFL 212326Z 32014KT 3/4SM -SN BR VV009 01/00 A2946 RMK AO2 WSHFT 2312 RAE02SNB02 PRESFR T00060000 PNO $,M
NFL,2023-03-21 23:28,-118.7010,39.4166,1199.00,33.00,32.00,95.67,310.00,13.00,0.00,29.47,M,1.25,M,OVC,M,M,M,1000.00,M,M,M,-SN BR,M,M,M,M,M,M,22.98,KNFL 212328Z 31013KT 1 1/4SM -SN BR OVC010 01/00 A2947 RMK AO2 WSHFT 2312 RAE02SNB02 PRESFR T00060000 PNO $,M
INS,2023-03-21 23:33,-115.6733,36.5872,955.00,51.80,39.20,61.99,140.00,12.00,0.00,29.58,999.80,10.00,19.00,BKN,BKN,OVC,M,5500.00,7000.00,9000.00,M,M,M,M,M,M,M,M,51.80,KINS 212333Z AUTO 14012G19KT 10SM BKN055 BKN070 OVC090 11/04 A2958 RMK AO2 WSHFT 28 RAE07DZB07E09RAB09E10 SLP998 $,M
NFL,2023-03-21 23:33,-118.7010,39.4166,1199.00,33.00,32.00,95.67,300.00,12.00,0.00,29.48,M,3.00,M,OVC,M,M,M,1000.00,M,M,M,-SN BR,M,M,M,M,M,M,23.40,KNFL 212333Z 30012KT 3SM -SN BR OVC010 01/00 A2948 RMK AO2 WSHFT 2312 RAE02SNB02 T00060000 PNO $,M
TPH,2023-03-21 23:34,-117.0904,38.0505,1654.00,39.00,35.00,85.76,190.00,15.00,T,29.51,M,10.00,25.00,SCT,BKN,OVC,M,1300.00,1900.00,5500.00,M,M,M,M,M,30.00,170.00,2023-03-21 22:57,29.85,KTPH 212334Z AUTO 19015G25KT 10SM SCT013 BKN019 OVC055 04/02 A2951 RMK AO2 PK WND 17030/2257 RAB2257E08 P0000 T00390017,M
BVU,2023-03-21 23:35,-114.8611,35.9475,671.00,59.00,42.80,54.86,180.00,22.00,0.00,29.62,M,10.00,34.00,CLR,M,M,M,M,M,M,M,M,M,M,M,M,M,M,59.00,KBVU 212335Z AUTO 18022G34KT 10SM CLR 15/06 A2962 RMK AO2,M
CXP,2023-03-21 23:35,-119.7326,39.1923,1431.00,35.60,32.00,86.59,90.00,7.00,0.00,29.51,M,10.00,M,OVC,M,M,M,2100.00,M,M,M,M,M,M,M,M,M,M,29.17,KCXP 212335Z AUTO 09007KT 070V130 10SM OVC021 02/M00 A2951 RMK AO2,M
RTS,2023-03-21 23:35,-119.8764,39.6682,1539.00,33.80,30.20,86.49,170.00,7.00,0.00,29.50,M,10.00,M,FEW,SCT,OVC,M,900.00,1300.00,2500.00,M,-SN,M,M,M,M,M,M,26.97,KRTS 212335Z AUTO 17007KT 10SM -SN FEW009 SCT013 OVC025 01/M01 A2950 RMK AO2,M
05U,2023-03-21 23:35,-116.0051,39.6042,1811.23,35.60,32.00,86.59,130.00,6.00,0.00,29.53,M,1.50,13.00,SCT,SCT,M,M,300.00,2400.00,M,M,HZ,M,M,M,M,M,M,29.87,K05U 212335Z AUTO 13006G13KT 1 1/2SM HZ SCT003 SCT024 02/M00 A2953 RMK A01,M
MEV,2023-03-21 23:35,-119.7500,38.9963,1441.42,35.60,30.20,80.51,120.00,3.00,0.00,29.48,M,9.00,M,FEW,SCT,M,M,1400.00,3100.00,M,M,-RA,M,M,M,M,M,M,32.80,KMEV 212335Z AUTO 12003KT 9SM -RA FEW014 SCT031 02/M01 A2948 RMK AO2,M
BAM,2023-03-21 23:35,-116.8743,40.5990,1382.36,33.80,33.80,100.00,70.00,7.00,0.00,29.57,M,4.00,M,SCT,BKN,OVC,M,600.00,900.00,1800.00,M,M,M,M,M,M,M,M,26.97,KBAM 212335Z AUTO 07007KT 4SM SCT006 BKN009 OVC018 01/01 A2957 RMK AO1,M
HTH,2023-03-21 23:35,-118.6315,38.5448,1282.89,41.00,33.80,75.33,330.00,8.00,0.00,29.46,M,10.00,M,CLR,M,M,M,M,M,M,M,M,M,M,M,M,M,M,35.20,KHTH 212335Z AUTO 33008KT 10SM CLR 05/01 A2946 RMK A01,M
TMT,2023-03-21 23:35,-117.1971,39.4643,1749.34,38.80,30.20,70.98,110.00,13.00,0.00,29.47,M,10.00,M,SCT,BKN,OVC,M,3600.00,4500.00,6500.00,M,M,M,M,M,M,M,M,30.28,KTMT 212335Z AUTO 11013KT 10SM SCT036 BKN045 OVC065 04/M01 A2947 RMK AO2 T00381010,M
LSV,2023-03-21 23:38,-115.0343,36.2362,570.00,59.00,46.40,62.92,160.00,21.00,0.00,29.57,1000.70,10.00,29.00,BKN,M,M,M,5000.00,M,M,M,M,M,M,M,M,M,M,59.00,KLSV 212338Z 16021G29KT 10SM BKN050 15/08 A2957 RMK SLP007 $,M
INS,2023-03-21 23:45,-115.6733,36.5872,955.00,50.00,44.60,81.61,110.00,14.00,0.00,29.57,999.60,10.00,22.00,BKN,OVC,M,M,5500.00,7000.00,M,M,M,M,M,M,M,M,M,50.00,KINS 212345Z AUTO 11014G22KT 10SM BKN055 OVC070 10/07 A2957 RMK AO2 WSHFT 40 RAE07DZB07E09RAB09E10 SLP996 $,M
INS,2023-03-21 23:51,-115.6733,36.5872,955.00,48.20,44.60,87.28,110.00,17.00,0.00,29.57,999.60,10.00,22.00,BKN,OVC,M,M,5500.00,7000.00,M,M,-RA,M,M,M,M,M,M,41.30,KINS 212351Z AUTO 11017G22KT 10SM -RA BKN055 OVC070 09/07 A2957 RMK AO2 RAE07DZB07E09RAB09E10RAB51 SLP996 $,M
NFL,2023-03-21 23:52,-118.7010,39.4166,1199.00,33.80,32.00,93.03,340.00,12.00,0.00,29.46,M,10.00,M,SCT,SCT,OVC,M,1700.00,7500.00,11000.00,M,M,M,M,M,M,M,M,24.29,KNFL 212352Z 34012KT 10SM SCT017 SCT075 OVC110 01/00 A2946 RMK AO2 WSHFT 2312 RAE02B37E41UPB41E49SNB02E37 4/000 $,0
ELY,2023-03-21 23:53,-114.8453,39.2950,1909.00,33.00,30.00,88.23,70.00,3.00,T,29.55,1001.70,10.00,M,SCT,BKN,OVC,M,3400.00,4800.00,6500.00,M,M,M,M,M,M,M,M,29.95,KELY 212353Z AUTO 07003KT 10SM SCT034 BKN048 OVC065 01/M01 A2955 RMK AO2 SNE09 SLP017 P0000 60001 T00061011 10022 21011 58016,M
LOL,2023-03-21 23:53,-118.5701,40.0684,1192.43,41.00,30.90,67.03,20.00,13.00,0.00,29.47,998.60,10.00,M,BKN,OVC,M,M,6500.00,11000.00,M,M,M,M,M,M,M,M,M,33.10,KLOL 212353Z AUTO 02013KT 10SM BKN065 OVC110 05/M01 A2947 RMK AO2 SLP986 60000 T00501006 10072 20039 57015,M
VGT,2023-03-21 23:53,-115.1933,36.2111,667.00,58.00,39.00,49.26,210.00,22.00,T,29.58,1002.70,10.00,33.00,FEW,BKN,OVC,M,6000.00,9000.00,11000.00,M,M,M,M,M,38.00,180.00,2023-03-21 23:39,57.90,KVGT 212353Z 21022G33KT 10SM FEW060 BKN090 OVC110 14/04 A2958 RMK AO2 PK WND 18038/2339 RAE48 SLP027 P0000 60009 T01440039 10150 20117 56016,M
P68,2023-03-21 23:53,-116.0056,39.6014,1993.00,35.00,33.00,92.32,170.00,6.00,0.01,29.50,998.60,M,M,M,M,M,M,M,M,M,M,M,M,M,M,M,M,M,29.26,KP68 212353Z AUTO 17006KT 02/01 A2950 RMK AO1 SLP986 P0001 60001 T00170006 10044 20000 56014,M
DRA,2023-03-21 23:53,-116.0278,36.6206,1009.00,51.00,40.00,65.38,180.00,18.00,0.00,29.55,998.80,10.00,28.00,SCT,BKN,OVC,M,4700.00,7000.00,9000.00,M,M,M,M,M,29.00,190.00,2023-03-21 23:35,51.10,KDRA 212353Z AUTO 18018G28KT 10SM SCT047 BKN070 OVC090 11/04 A2955 RMK AO2 PK WND 19029/2335 SLP988 60015 T01060044 10106 20067 58004,M
BVU,2023-03-21 23:55,-114.8611,35.9475,671.00,59.00,42.80,54.86,180.00,26.00,0.00,29.61,M,10.00,31.00,CLR,M,M,M,M,M,M,M,M,M,M,M,M,M,M,59.00,KBVU 212355Z AUTO 18026G31KT 10SM CLR 15/06 A2961 RMK AO2,M
CXP,2023-03-21 23:55,-119.7326,39.1923,1431.00,35.60,32.00,86.59,70.00,8.00,0.00,29.50,M,10.00,M,SCT,M,M,M,2000.00,M,M,M,M,M,M,M,M,M,M,28.55,KCXP 212355Z AUTO 07008KT 10SM SCT020 02/M00 A2950 RMK AO2,M
RTS,2023-03-21 23:55,-119.8764,39.6682,1539.00,35.60,30.20,80.51,160.00,8.00,0.00,29.49,M,10.00,M,FEW,BKN,M,M,1300.00,2600.00,M,M,-SN,M,M,M,M,M,M,28.55,KRTS 212355Z AUTO 16008KT 140V200 10SM -SN FEW013 BKN026 02/M01 A2949 RMK AO2,M
05U,2023-03-21 23:55,-116.0051,39.6042,1811.23,35.60,33.80,93.08,M,5.00,0.00,29.53,M,6.00,M,FEW,FEW,M,M,200.00,3300.00,M,M,BR,M,M,M,M,M,M,30.67,K05U 212355Z AUTO VRB05KT 6SM BR FEW002 FEW033 02/01 A2953 RMK A01,M
MEV,2023-03-21 23:55,-119.7500,38.9963,1441.42,35.60,30.20,80.51,80.00,4.00,0.00,29.48,M,10.00,M,FEW,M,M,M,3200.00,M,M,M,M,M,M,M,M,M,M,31.62,KMEV 212355Z AUTO 08004KT 10SM FEW032 02/M01 A2948 RMK AO2,M
BAM,2023-03-21 23:55,-116.8743,40.5990,1382.36,33.80,33.80,100.00,60.00,9.00,0.00,29.56,M,3.00,17.00,BKN,OVC,M,M,400.00,1400.00,M,M,M,M,M,M,M,M,M,25.75,KBAM 212355Z AUTO 06009G17KT 3SM BKN004 OVC014 01/01 A2956 RMK AO1,M
HTH,2023-03-21 23:55,-118.6315,38.5448,1282.89,42.80,33.80,70.28,320.00,10.00,0.00,29.47,M,10.00,M,CLR,M,M,M,M,M,M,M,M,M,M,M,M,M,M,36.51,KHTH 212355Z AUTO 32010KT 10SM CLR 06/01 A2947 RMK A01,M
INS,2023-03-21 23:55,-115.6733,36.5872,955.00,48.40,45.00,87.96,110.00,15.00,T,29.57,999.60,10.00,M,BKN,OVC,M,M,6000.00,7000.00,M,M,-RA,M,M,M,M,M,M,42.04,KINS 212355Z AUTO 11015KT 10SM -RA BKN060 OVC070 09/07 A2957 RMK AO2 RAE07DZB07E09RAB09E10RAB51 SLP996 P0000 60008 T00910072 10110 20081 55001 $,M
LSV,2023-03-21 23:55,-115.0343,36.2362,570.00,59.40,45.00,58.82,180.00,24.00,0.00,29.57,1000.70,9.00,30.00,FEW,M,M,M,3400.00,M,M,M,M,M,M,M,M,M,M,59.40,KLSV 212355Z AUTO 18024G30KT 9SM FEW034 15/07 A2957 RMK AO2 SLP007 60000 T01520072 10154 20107 56019 $,M
RNO,2023-03-21 23:55,-119.7711,39.4839,1341.00,38.00,30.90,75.64,110.00,6.00,T,29.49,998.70,10.00,M,SCT,BKN,OVC,M,1400.00,2700.00,4600.00,M,M,M,M,M,M,M,M,32.64,KRNO 212355Z 11006KT 10SM SCT014 BKN027 OVC046 03/M01 A2949 RMK AO2 SNE09 SLP987 P0000 60007 T00331006 10033 20000 58001 $,M
TMT,2023-03-21 23:55,-117.1971,39.4643,1749.34,38.00,31.30,76.88,110.00,7.00,0.00,29.47,M,10.00,M,BKN,BKN,OVC,M,3200.00,3800.00,4500.00,M,M,M,M,M,M,M,M,31.97,KTMT 212355Z AUTO 11007KT 10SM BKN032 BKN038 OVC045 03/00 A2947 RMK AO2 T00331004 10052 20002,M
EKO,2023-03-21 23:56,-115.7860,40.8242,1367.00,39.00,25.00,56.86,50.00,11.00,0.00,29.55,1001.90,10.00,M,BKN,OVC,M,M,4200.00,5500.00,M,M,M,M,M,M,M,M,M,31.31,KEKO 212356Z AUTO 05011KT 10SM BKN042 OVC055 04/M04 A2955 RMK AO2 SLP019 T00391039 10061 20022 56012,M
NFL,2023-03-21 23:56,-118.7010,39.4166,1199.00,34.00,32.00,92.29,360.00,9.00,0.00,29.47,997.00,10.00,M,SCT,SCT,BKN,M,1700.00,7500.00,10000.00,M,M,M,M,M,M,M,M,26.00,KNFL 212356Z 36009KT 10SM SCT017 SCT075 BKN100 01/00 A2947 RMK AO2 WSHFT 2312 RAE02B37E41UPB41E49SNB02E37 SLP970 4/000 6//// T00110000 10067 20006 51005 $,0
LAS,2023-03-21 23:56,-115.1634,36.0719,663.00,54.00,41.00,61.32,230.00,11.00,0.03,29.61,1002.00,7.00,27.00,SCT,BKN,BKN,BKN,3100.00,3900.00,5000.00,16000.00,-RA,M,M,M,35.00,220.00,2023-03-21 23:34,54.00,KLAS 212356Z 23011G27KT 7SM -RA SCT031 BKN039 BKN050 BKN160 12/05 A2961 RMK AO2 PK WND 22035/2334 RAB23 SLP020 P0003 60004 T01220050 10156 20111 55006,M
HND,2023-03-21 23:56,-115.1344,35.9729,742.79,55.00,42.00,61.69,230.00,20.00,T,29.60,1003.70,10.00,28.00,FEW,OVC,M,M,4700.00,6000.00,M,M,-RA,M,M,M,33.00,170.00,2023-03-21 23:16,55.00,KHND 212356Z 23020G28KT 10SM -RA FEW047 OVC060 13/06 A2960 RMK AO2 PK WND 17033/2316 WSHFT 2336 RAB40 SLP037 P0000 60000 T01280056 10144 20106 55012,M
WMC,2023-03-21 23:56,-117.8072,40.9019,1315.00,38.00,30.00,72.93,200.00,5.00,0.00,29.52,1000.60,10.00,M,BKN,OVC,M,M,3500.00,5000.00,M,M,M,M,M,M,M,M,M,33.40,KWMC 212356Z AUTO 20005KT 10SM BKN035 OVC050 03/M01 A2952 RMK AO2 SLP006 T00331011 10083 20033 55001,M
TPH,2023-03-21 23:56,-117.0904,38.0505,1654.00,38.00,35.00,89.53,180.00,19.00,0.01,29.49,998.00,10.00,27.00,SCT,BKN,OVC,M,1800.00,2400.00,6500.00,M,M,M,M,M,30.00,170.00,2023-03-21 22:57,27.24,KTPH 212356Z AUTO 18019G27KT 10SM SCT018 BKN024 OVC065 03/02 A2949 RMK AO2 PK WND 17030/2257 RAB2257E08 SLP980 P0001 60004 T00330017 10050 20006 56004,M
