station,valid,lon,lat,elevation,tmpf,dwpf,relh,drct,sknt,p01i,alti,mslp,vsby,gust,skyc1,skyc2,skyc3,skyc4,skyl1,skyl2,skyl3,skyl4,wxcodes,ice_accretion_1hr,ice_accretion_3hr,ice_accretion_6hr,peak_wind_gust,peak_wind_drct,peak_wind_time,feel,metar,snowdepth
LOL,2023-01-01 00:02,-118.5701,40.0684,1192.43,39.00,38.00,95.78,0.00,0.00,T,29.73,M,10.00,M,SCT,OVC,M,M,1300.00,3400.00,M,M,-RA,M,M,M,M,M,M,39.00,KLOL 010002Z AUTO 00000KT 10SM -RA SCT013 OVC034 04/03 A2973 RMK AO2 P0000 T00390033,M
BVU,2023-01-01 00:15,-114.8611,35.9475,671.00,57.20,44.60,62.69,170.00,23.00,0.00,29.80,M,10.00,31.00,SCT,SCT,M,M,5500.00,6500.00,M,M,M,M,M,M,M,M,M,57.20,KBVU 010015Z AUTO 17023G31KT 10SM SCT055 SCT065 14/07 A2980 RMK AO2,M
CXP,2023-01-01 00:15,-119.7326,39.1923,1431.00,32.00,32.00,100.00,M,M,0.00,29.73,M,0.25,M,OVC,M,M,M,300.00,M,M,M,SN FG,M,M,M,M,M,M,M,KCXP 010015Z AUTO 1/4SM SN FG OVC003 00/00 A2973 RMK AO2,M
RTS,2023-01-01 00:15,-119.8764,39.6682,1539.00,32.00,32.00,100.00,270.00,4.00,0.00,29.74,M,0.50,M,OVC,M,M,M,200.00,M,M,M,-SN,M,M,M,M,M,M,27.42,KRTS 010015Z AUTO 27004KT 1/2SM -SN OVC002 00/00 A2974 RMK AO2,M
05U,2023-01-01 00:15,-116.0051,39.6042,1811.23,33.80,33.80,100.00,350.00,5.00,0.00,29.70,M,1.00,M,OVC,M,M,M,300.00,M,M,M,BR,M,M,M,M,M,M,28.53,K05U 010015Z AUTO 35005KT 1SM BR OVC003 01/01 A2970 RMK A01,M
MEV,2023-01-01 00:15,-119.7500,38.9963,1441.42,32.00,32.00,100.00,0.00,0.00,0.00,29.72,M,0.25,M,M,M,M,M,M,M,M,M,SN FG,M,M,M,M,M,M,32.00,KMEV 010015Z AUTO 00000KT 1/4SM SN FG 00/M00 A2972 RMK AO2,M
BAM,2023-01-01 00:15,-116.8743,40.5990,1382.36,33.80,33.80,100.00,350.00,5.00,0.00,29.75,M,3.00,M,SCT,OVC,M,M,600.00,1800.00,M,M,M,M,M,M,M,M,M,28.53,KBAM 010015Z AUTO 35005KT 3SM SCT006 OVC018 01/01 A2975 RMK AO1,M
TMT,2023-01-01 00:15,-117.1971,39.4643,1749.34,32.00,32.00,100.00,350.00,4.00,0.01,29.69,M,0.75,M,BKN,OVC,M,M,500.00,1400.00,M,M,-SN,M,M,M,M,M,M,27.42,KTMT 010015Z AUTO 35004KT 3/4SM -SN BKN005 OVC014 00/00 A2969 RMK AO2 P0001 T00000000,M
LOL,2023-01-01 00:30,-118.5701,40.0684,1192.43,38.00,37.00,96.52,330.00,3.00,0.01,29.72,M,5.00,M,OVC,M,M,M,2600.00,M,M,M,-RA BR,M,M,M,M,M,M,35.43,KLOL 010030Z AUTO 33003KT 5SM -RA BR OVC026 03/03 A2972 RMK AO2 P0001 T00330028,M
BVU,2023-01-01 00:35,-114.8611,35.9475,671.00,57.20,44.60,62.69,170.00,20.00,0.00,29.80,M,10.00,26.00,FEW,M,M,M,5500.00,M,M,M,M,M,M,M,M,M,M,57.20,KBVU 010035Z AUTO 17020G26KT 10SM FEW055 14/07 A2980 RMK AO2,M
CXP,2023-01-01 00:35,-119.7326,39.1923,1431.00,32.00,32.00,100.00,M,M,0.00,29.74,M,0.25,M,OVC,M,M,M,300.00,M,M,M,SN FG,M,M,M,M,M,M,M,KCXP 010035Z AUTO 1/4SM SN FG OVC003 00/00 A2974 RMK AO2,M
RTS,2023-01-01 00:35,-119.8764,39.6682,1539.00,32.00,32.00,100.00,250.00,5.00,0.00,29.74,M,0.50,M,OVC,M,M,M,200.00,M,M,M,-SN,M,M,M,M,M,M,26.40,KRTS 010035Z AUTO 25005KT 1/2SM -SN OVC002 00/00 A2974 RMK AO2,M
05U,2023-01-01 00:35,-116.0051,39.6042,1811.23,33.80,33.80,100.00,0.00,0.00,0.00,29.70,M,0.75,M,OVC,M,M,M,200.00,M,M,M,BR,M,M,M,M,M,M,33.80,K05U 010035Z AUTO 00000KT 3/4SM BR OVC002 01/01 A2970 RMK A01,M
MEV,2023-01-01 00:35,-119.7500,38.9963,1441.42,32.00,32.00,100.00,330.00,4.00,0.00,29.72,M,0.25,M,M,M,M,M,M,M,M,M,SN FG,M,M,M,M,M,M,27.42,KMEV 010035Z AUTO 33004KT 1/4SM SN FG 00/M00 A2972 RMK AO2,M
BAM,2023-01-01 00:35,-116.8743,40.5990,1382.36,33.80,33.80,100.00,0.00,0.00,0.00,29.74,M,7.00,M,SCT,BKN,OVC,M,600.00,2700.00,3200.00,M,M,M,M,M,M,M,M,33.80,KBAM 010035Z AUTO 00000KT 7SM SCT006 BKN027 OVC032 01/01 A2974 RMK AO1,M
TMT,2023-01-01 00:35,-117.1971,39.4643,1749.34,32.00,32.00,100.00,360.00,5.00,0.03,29.69,M,0.75,M,OVC,M,M,M,500.00,M,M,M,SN,M,M,M,M,M,M,26.40,KTMT 010035Z AUTO 36005KT 3/4SM SN OVC005 00/00 A2969 RMK AO2 P0003 T00000000,M
TPH,2023-01-01 00:38,-117.0904,38.0505,1654.00,43.00,41.00,92.58,180.00,11.00,T,29.67,M,10.00,M,BKN,OVC,M,M,1400.00,2600.00,M,M,M,M,M,M,M,M,M,36.37,KTPH 010038Z AUTO 18011KT 10SM BKN014 OVC026 06/05 A2967 RMK AO2 RAE2359 P0000 T00610050,M
NFL,2023-01-01 00:40,-118.7010,39.4166,1199.00,32.00,30.90,95.65,320.00,4.00,0.05,29.72,M,0.75,M,VV ,M,M,M,1200.00,M,M,M,-SN BR,M,M,M,M,M,M,27.42,KNFL 010040Z AUTO 32004KT 3/4SM -SN BR VV012 00/M01 A2972 RMK AO2 P0005 T00001006 $,M
NFL,2023-01-01 00:49,-118.7010,39.4166,1199.00,32.00,32.00,100.00,330.00,4.00,0.06,29.72,M,1.00,M,VV ,M,M,M,1200.00,M,M,M,-SN BR,M,M,M,M,M,M,27.42,KNFL 010049Z AUTO 33004KT 1SM -SN BR VV012 00/00 A2972 RMK AO2 P0006 T00000000 $,M
P68,2023-01-01 00:53,-116.0056,39.6014,1993.00,32.00,30.90,95.65,360.00,6.00,0.04,29.67,1003.80,M,M,M,M,M,M,M,M,M,M,M,M,M,M,M,M,M,25.53,KP68 010053Z AUTO 36006KT 00/M01 A2967 RMK AO1 SLP038 P0004 T00001006,M
DRA,2023-01-01 00:53,-116.0278,36.6206,1009.00,55.00,41.00,59.13,190.00,22.00,0.00,29.69,1003.30,10.00,39.00,FEW,M,M,M,4500.00,M,M,M,M,M,M,M,39.00,180.00,2023-01-01 00:44,55.00,KDRA 010053Z AUTO 19022G39KT 10SM FEW045 13/05 A2969 RMK AO2 PK WND 18039/0044 PRESFR SLP033 T01280050,M
LOL,2023-01-01 00:53,-118.5701,40.0684,1192.43,38.00,37.00,96.52,M,4.00,0.03,29.72,1006.60,8.00,M,FEW,SCT,OVC,M,1200.00,1700.00,2400.00,M,-RA,M,M,M,M,M,M,34.31,KLOL 010053Z AUTO VRB04KT 8SM -RA FEW012 SCT017 OVC024 03/03 A2972 RMK AO2 SLP066 P0003 T00330028,M
ELY,2023-01-01 00:53,-114.8453,39.2950,1909.00,37.00,35.00,92.76,200.00,10.00,T,29.67,1002.40,10.00,19.00,OVC,M,M,M,4100.00,M,M,M,M,M,M,M,M,M,M,29.24,KELY 010053Z AUTO 20010G19KT 10SM OVC041 03/02 A2967 RMK AO2 RAE49 SLP024 P0000 T00280017,M
VGT,2023-01-01 00:53,-115.1933,36.2111,667.00,62.00,42.00,47.83,190.00,12.00,0.00,29.76,1009.10,10.00,21.00,OVC,M,M,M,6000.00,M,M,M,M,M,M,M,M,M,M,62.10,KVGT 010053Z 19012G21KT 10SM OVC060 17/06 A2976 RMK AO2 SLP091 T01670056,M
BVU,2023-01-01 00:55,-114.8611,35.9475,671.00,57.20,44.60,62.69,170.00,21.00,0.00,29.80,M,10.00,29.00,BKN,M,M,M,5500.00,M,M,M,M,M,M,M,M,M,M,57.20,KBVU 010055Z AUTO 17021G29KT 10SM BKN055 14/07 A2980 RMK AO2,M
CXP,2023-01-01 00:55,-119.7326,39.1923,1431.00,32.00,32.00,100.00,0.00,0.00,0.17,29.74,M,0.50,M,OVC,M,M,M,300.00,M,M,M,-SN FG,M,M,M,M,M,M,32.00,KCXP 010055Z AUTO 00000KT 1/2SM -SN FG OVC003 00/00 A2974 RMK AO2 P0017,M
INS,2023-01-01 00:55,-115.6733,36.5872,955.00,55.40,36.50,48.87,200.00,12.00,0.00,29.72,1004.60,10.00,19.00,OVC,M,M,M,11000.00,M,M,M,M,M,M,M,M,M,M,55.40,KINS 010055Z AUTO 20012G19KT 10SM OVC110 13/03 A2972 RMK AO2 SLP046 T01300025 $,M
RTS,2023-01-01 00:55,-119.8764,39.6682,1539.00,32.00,32.00,100.00,260.00,5.00,0.10,29.74,M,0.50,M,OVC,M,M,M,200.00,M,M,M,-SN,M,M,M,M,M,M,26.40,KRTS 010055Z AUTO 26005KT 1/2SM -SN OVC002 00/00 A2974 RMK AO2 P0010,M
05U,2023-01-01 00:55,-116.0051,39.6042,1811.23,32.00,33.80,M,0.00,0.00,0.02,29.70,M,1.50,M,OVC,M,M,M,200.00,M,M,M,BR,M,M,M,M,M,M,M,K05U 010055Z AUTO 00000KT 1 1/2SM BR OVC002 00/01 A2970 RMK A01 P0002,M
MEV,2023-01-01 00:55,-119.7500,38.9963,1441.42,32.00,32.00,100.00,330.00,7.00,0.18,29.72,M,0.50,M,M,M,M,M,M,M,M,M,-SN BR,M,M,M,M,M,M,24.78,KMEV 010055Z AUTO 33007KT 1/2SM -SN BR 00/M00 A2972 RMK AO2 P0018,M
BAM,2023-01-01 00:55,-116.8743,40.5990,1382.36,33.80,33.80,100.00,0.00,0.00,0.00,29.74,M,10.00,M,SCT,BKN,OVC,M,2700.00,4500.00,5500.00,M,M,M,M,M,M,M,M,33.80,KBAM 010055Z AUTO 00000KT 10SM SCT027 BKN045 OVC055 01/01 A2974 RMK AO1,M
LSV,2023-01-01 00:55,-115.0343,36.2362,570.00,59.20,43.50,55.95,170.00,23.00,0.00,29.72,1005.60,10.00,M,SCT,M,M,M,20000.00,M,M,M,M,M,M,M,27.00,180.00,2023-01-01 00:12,59.20,KLSV 010055Z AUTO 17023KT 10SM SCT200 15/06 A2972 RMK AO2 PK WND 18027/12 SLP056 T01510064 $,M
TMT,2023-01-01 00:55,-117.1971,39.4643,1749.34,32.00,32.00,100.00,10.00,7.00,0.04,29.69,M,1.50,M,OVC,M,M,M,500.00,M,M,M,-SN,M,M,M,M,M,M,24.78,KTMT 010055Z AUTO 01007KT 1 1/2SM -SN OVC005 00/00 A2969 RMK AO2 P0004 T00000000,M
RNO,2023-01-01 00:55,-119.7711,39.4839,1341.00,33.00,33.00,100.00,270.00,3.00,0.10,29.73,1006.40,0.25,M,VV ,M,M,M,1000.00,M,M,M,+SN,M,M,M,M,M,M,29.95,KRNO 010055Z 27003KT 1/4SM +SN VV010 01/01 A2973 RMK AO2 SFC VIS 1/2 SLP064 P0010 T00060006 RVRNO,M
EKO,2023-01-01 00:56,-115.7860,40.8242,1367.00,34.00,32.00,92.29,0.00,0.00,0.00,29.71,1006.60,10.00,M,OVC,M,M,M,6500.00,M,M,M,M,M,M,M,M,M,M,34.00,KEKO 010056Z AUTO 00000KT 10SM OVC065 01/00 A2971 RMK AO2 SLP066 T00110000,M
NFL,2023-01-01 00:56,-118.7010,39.4166,1199.00,32.00,32.00,100.00,340.00,5.00,0.07,29.72,1004.40,1.00,M,VV ,M,M,M,1100.00,M,M,M,-SN BR,M,M,M,M,M,M,26.40,KNFL 010056Z AUTO 34005KT 1SM -SN BR VV011 00/00 A2972 RMK AO2 SLP044 P0007 T00000000 $,M
HND,2023-01-01 00:56,-115.1344,35.9729,742.79,57.00,43.00,59.40,170.00,17.00,0.00,29.80,1010.00,10.00,M,FEW,M,M,M,4800.00,M,M,M,M,M,M,M,M,M,M,57.00,KHND 010056Z 17017KT 10SM FEW048 14/06 A2980 RMK AO2 SLP100 T01390061,M
LAS,2023-01-01 00:56,-115.1634,36.0719,663.00,60.00,41.00,49.21,170.00,11.00,0.00,29.77,1007.70,10.00,24.00,SCT,BKN,OVC,M,5000.00,10000.00,20000.00,M,M,M,M,M,M,M,M,60.10,KLAS 010056Z 17011G24KT 10SM SCT050 BKN100 OVC200 16/05 A2977 RMK AO2 SLP077 T01560050,M
TPH,2023-01-01 00:56,-117.0904,38.0505,1654.00,43.00,40.00,88.71,170.00,13.00,T,29.66,1002.80,10.00,M,BKN,OVC,M,M,1400.00,2200.00,M,M,M,M,M,M,M,M,M,35.66,KTPH 010056Z AUTO 17013KT 10SM BKN014 OVC022 06/04 A2966 RMK AO2 RAE2359 SLP028 P0000 T00610044,M
WMC,2023-01-01 00:56,-117.8072,40.9019,1315.00,38.00,35.00,89.53,0.00,0.00,0.00,29.73,1006.00,10.00,M,FEW,FEW,OVC,M,2800.00,3800.00,8000.00,M,M,M,M,M,M,M,M,37.90,KWMC 010056Z AUTO 00000KT 10SM FEW028 FEW038 OVC080 03/02 A2973 RMK AO2 SLP060 T00330017,M
RNO,2023-01-01 01:02,-119.7711,39.4839,1341.00,33.00,32.00,95.67,270.00,4.00,0.01,29.73,M,0.25,M,VV ,M,M,M,700.00,M,M,M,+SN,M,M,M,M,M,M,28.70,KRNO 010102Z COR 27004KT 1/4SM +SN VV007 01/00 A2973 RMK AO2 SFC VIS 3/4 4/007 P0001 T00060000 RVRNO,7
TPH,2023-01-01 01:09,-117.0904,38.0505,1654.00,43.00,40.00,88.71,180.00,12.00,0.00,29.66,M,10.00,M,OVC,M,M,M,1600.00,M,M,M,M,M,M,M,M,M,M,36.00,KTPH 010109Z AUTO 18012KT 10SM OVC016 06/04 A2966 RMK AO2 T00610044,M
BVU,2023-01-01 01:15,-114.8611,35.9475,671.00,57.20,44.60,62.69,160.00,21.00,0.00,29.81,M,10.00,28.00,OVC,M,M,M,5500.00,M,M,M,M,M,M,M,M,M,M,57.20,KBVU 010115Z AUTO 16021G28KT 10SM OVC055 14/07 A2981 RMK AO2,M
CXP,2023-01-01 01:15,-119.7326,39.1923,1431.00,32.00,32.00,100.00,320.00,4.00,0.00,29.73,M,1.00,M,OVC,M,M,M,300.00,M,M,M,-SN BR,M,M,M,M,M,M,27.42,KCXP 010115Z AUTO 32004KT 1SM -SN BR OVC003 00/00 A2973 RMK AO2,M
RTS,2023-01-01 01:15,-119.8764,39.6682,1539.00,32.00,32.00,100.00,270.00,5.00,0.00,29.74,M,0.75,M,OVC,M,M,M,200.00,M,M,M,-SN,M,M,M,M,M,M,26.40,KRTS 010115Z AUTO 27005KT 3/4SM -SN OVC002 00/00 A2974 RMK AO2,M
05U,2023-01-01 01:15,-116.0051,39.6042,1811.23,32.00,32.00,100.00,0.00,0.00,0.00,29.70,M,1.00,M,OVC,M,M,M,200.00,M,M,M,BR,M,M,M,M,M,M,32.00,K05U 010115Z AUTO 00000KT 1SM BR OVC002 00/00 A2970 RMK A01,M
MEV,2023-01-01 01:15,-119.7500,38.9963,1441.42,32.00,32.00,100.00,320.00,5.00,0.00,29.72,M,0.75,M,M,M,M,M,M,M,M,M,-SN BR,M,M,M,M,M,M,26.40,KMEV 010115Z AUTO 32005KT 3/4SM -SN BR 00/M00 A2972 RMK AO2,M
BAM,2023-01-01 01:15,-116.8743,40.5990,1382.36,33.80,33.80,100.00,180.00,5.00,0.00,29.74,M,10.00,M,SCT,OVC,M,M,3400.00,4200.00,M,M,M,M,M,M,M,M,M,28.53,KBAM 010115Z AUTO 18005KT 10SM SCT034 OVC042 01/01 A2974 RMK AO1,M
TMT,2023-01-01 01:15,-117.1971,39.4643,1749.34,32.00,31.80,99.20,10.00,6.00,0.00,29.69,M,2.00,M,BKN,OVC,M,M,500.00,900.00,M,M,-SN,M,M,M,M,M,M,25.53,KTMT 010115Z AUTO 01006KT 2SM -SN BKN005 OVC009 00/00 A2969 RMK AO2 T00001001,M
LOL,2023-01-01 01:16,-118.5701,40.0684,1192.43,38.00,37.00,96.52,330.00,3.00,T,29.72,M,10.00,M,FEW,FEW,OVC,M,1900.00,2600.00,3200.00,M,-RA,M,M,M,M,M,M,35.43,KLOL 010116Z AUTO 33003KT 10SM -RA FEW019 FEW026 OVC032 03/03 A2972 RMK AO2 P0000 T00330028,M
05U,2023-01-01 01:30,-116.0051,39.6042,1811.23,32.00,32.00,100.00,0.00,0.00,0.00,29.69,M,1.00,M,OVC,M,M,M,200.00,M,M,M,BR,M,M,M,M,M,M,32.00,K05U 010130Z AUTO 00000KT 1SM BR OVC002 00/00 A2969 RMK A01,M
BVU,2023-01-01 01:35,-114.8611,35.9475,671.00,57.20,44.60,62.69,160.00,16.00,0.00,29.81,M,10.00,27.00,BKN,OVC,M,M,5000.00,5500.00,M,M,M,M,M,M,M,M,M,57.20,KBVU 010135Z AUTO 16016G27KT 10SM BKN050 OVC055 14/07 A2981 RMK AO2,M
CXP,2023-01-01 01:35,-119.7326,39.1923,1431.00,33.80,33.80,100.00,0.00,0.00,0.00,29.73,M,1.75,M,OVC,M,M,M,300.00,M,M,M,-SN BR,M,M,M,M,M,M,33.80,KCXP 010135Z AUTO 00000KT 1 3/4SM -SN BR OVC003 01/01 A2973 RMK AO2 VIS 1 1/4V2 1/2,M
RTS,2023-01-01 01:35,-119.8764,39.6682,1539.00,32.00,32.00,100.00,250.00,4.00,0.00,29.74,M,1.00,M,OVC,M,M,M,200.00,M,M,M,-SN,M,M,M,M,M,M,27.42,KRTS 010135Z AUTO 25004KT 1SM -SN OVC002 00/00 A2974 RMK AO2,M
MEV,2023-01-01 01:35,-119.7500,38.9963,1441.42,32.00,32.00,100.00,320.00,6.00,0.00,29.72,M,0.75,M,OVC,M,M,M,300.00,M,M,M,-SN BR,M,M,M,M,M,M,25.53,KMEV 010135Z AUTO 32006KT 3/4SM -SN BR OVC003 00/M00 A2972 RMK AO2,M
BAM,2023-01-01 01:35,-116.8743,40.5990,1382.36,33.80,33.80,100.00,200.00,3.00,0.00,29.73,M,10.00,M,OVC,M,M,M,4500.00,M,M,M,M,M,M,M,M,M,M,30.75,KBAM 010135Z AUTO 20003KT 10SM OVC045 01/01 A2973 RMK AO1,M
TMT,2023-01-01 01:35,-117.1971,39.4643,1749.34,32.00,32.00,100.00,360.00,7.00,0.02,29.68,M,1.00,M,OVC,M,M,M,700.00,M,M,M,-SN,M,M,M,M,M,M,24.78,KTMT 010135Z AUTO 36007KT 1SM -SN OVC007 00/00 A2968 RMK AO2 P0002 T00000000,M
NFL,2023-01-01 01:38,-118.7010,39.4166,1199.00,32.00,32.00,100.00,310.00,5.00,0.06,29.72,M,1.00,M,FEW,OVC,M,M,300.00,900.00,M,M,-SN BR,M,M,M,M,M,M,26.40,KNFL 010138Z AUTO 31005KT 1SM -SN BR FEW003 OVC009 00/00 A2972 RMK AO2 P0006 T00000000 $,M
TPH,2023-01-01 01:46,-117.0904,38.0505,1654.00,43.00,40.00,88.71,170.00,14.00,T,29.63,M,10.00,M,SCT,OVC,M,M,2500.00,5000.00,M,M,-RA,M,M,M,M,M,M,35.34,KTPH 010146Z AUTO 17014KT 10SM -RA SCT025 OVC050 06/04 A2963 RMK AO2 RAB39 P0000 T00610044,M
P68,2023-01-01 01:53,-116.0056,39.6014,1993.00,32.00,30.00,92.22,360.00,10.00,0.07,29.67,1003.60,M,M,M,M,M,M,M,M,M,M,M,M,M,M,M,M,M,22.97,KP68 010153Z AUTO 36010KT 00/M01 A2967 RMK AO1 SLP036 P0007 T00001011,M
LOL,2023-01-01 01:53,-118.5701,40.0684,1192.43,38.00,36.00,92.78,360.00,4.00,0.01,29.71,1006.00,10.00,M,OVC,M,M,M,3400.00,M,M,M,-RA,M,M,M,M,M,M,34.31,KLOL 010153Z AUTO 36004KT 10SM -RA OVC034 03/02 A2971 RMK AO2 SLP060 P0001 T00330022,M
DRA,2023-01-01 01:53,-116.0278,36.6206,1009.00,55.00,40.00,56.66,190.00,21.00,0.00,29.68,1002.90,10.00,34.00,FEW,M,M,M,5000.00,M,M,M,M,M,M,M,41.00,180.00,2023-01-01 01:13,55.00,KDRA 010153Z AUTO 19021G34KT 10SM FEW050 13/04 A2968 RMK AO2 PK WND 18041/0113 SLP029 T01280044,M
ELY,2023-01-01 01:53,-114.8453,39.2950,1909.00,37.00,35.00,92.76,180.00,11.00,0.01,29.65,1002.00,10.00,M,OVC,M,M,M,4000.00,M,M,M,-RA,M,M,M,M,M,M,28.79,KELY 010153Z AUTO 18011KT 10SM -RA OVC040 03/02 A2965 RMK AO2 RAB0054 SLP020 P0001 T00280017,M
VGT,2023-01-01 01:53,-115.1933,36.2111,667.00,60.00,42.00,51.35,170.00,12.00,0.00,29.76,1008.90,10.00,19.00,OVC,M,M,M,6000.00,M,M,M,M,M,M,M,M,M,M,60.10,KVGT 010153Z 17012G19KT 10SM OVC060 16/06 A2976 RMK AO2 SLP089 T01560056,M
BVU,2023-01-01 01:55,-114.8611,35.9475,671.00,57.20,44.60,62.69,160.00,19.00,0.00,29.81,M,10.00,27.00,FEW,FEW,SCT,M,4800.00,5500.00,6500.00,M,M,M,M,M,M,M,M,57.20,KBVU 010155Z AUTO 16019G27KT 10SM FEW048 FEW055 SCT065 14/07 A2981 RMK AO2,M
CXP,2023-01-01 01:55,-119.7326,39.1923,1431.00,32.00,33.80,M,0.00,0.00,0.11,29.73,M,1.75,M,OVC,M,M,M,400.00,M,M,M,-SN BR,M,M,M,M,M,M,M,KCXP 010155Z AUTO 00000KT 1 3/4SM -SN BR OVC004 00/01 A2973 RMK AO2 P0011,M
RNO,2023-01-01 01:55,-119.7711,39.4839,1341.00,33.00,30.90,91.51,0.00,0.00,0.13,29.74,1006.40,0.25,M,VV ,M,M,M,700.00,M,M,M,+SN,M,M,M,M,M,M,33.10,KRNO 010155Z 00000KT 1/4SM +SN VV007 01/M01 A2974 RMK AO2 SFC VIS 3/4 SLP064 SNINCR 1/8 P0013 T00061006 RVRNO,M
RTS,2023-01-01 01:55,-119.8764,39.6682,1539.00,32.00,32.00,100.00,0.00,0.00,0.08,29.74,M,1.00,M,OVC,M,M,M,200.00,M,M,M,-SN,M,M,M,M,M,M,32.00,KRTS 010155Z AUTO 00000KT 1SM -SN OVC002 00/00 A2974 RMK AO2 P0008,M
05U,2023-01-01 01:55,-116.0051,39.6042,1811.23,32.00,32.00,100.00,0.00,0.00,0.01,29.69,M,0.75,M,OVC,M,M,M,200.00,M,M,M,BR,M,M,M,M,M,M,32.00,K05U 010155Z AUTO 00000KT 3/4SM BR OVC002 00/00 A2969 RMK A01 P0001,M
MEV,2023-01-01 01:55,-119.7500,38.9963,1441.42,32.00,32.00,100.00,310.00,6.00,0.21,29.72,M,0.50,M,OVC,M,M,M,300.00,M,M,M,-SN BR,M,M,M,M,M,M,25.53,KMEV 010155Z AUTO 31006KT 1/2SM -SN BR OVC003 00/00 A2972 RMK AO2 P0021,M
BAM,2023-01-01 01:55,-116.8743,40.5990,1382.36,35.60,33.80,93.08,30.00,3.00,0.00,29.73,M,10.00,M,BKN,OVC,M,M,4000.00,4600.00,M,M,M,M,M,M,M,M,M,32.80,KBAM 010155Z AUTO 03003KT 10SM BKN040 OVC046 02/01 A2973 RMK AO1,M
TMT,2023-01-01 01:55,-117.1971,39.4643,1749.34,32.00,32.00,100.00,10.00,7.00,0.03,29.68,M,2.00,M,OVC,M,M,M,700.00,M,M,M,-SN,M,M,M,M,M,M,24.78,KTMT 010155Z AUTO 01007KT 2SM -SN OVC007 00/00 A2968 RMK AO2 P0003 T00000000,M
LSV,2023-01-01 01:55,-115.0343,36.2362,570.00,58.50,43.70,57.81,160.00,20.00,0.00,29.74,1006.30,10.00,M,BKN,BKN,M,M,7000.00,22000.00,M,M,M,M,M,M,29.00,170.00,2023-01-01 00:55,58.50,KLSV 010155Z AUTO 16020KT 10SM BKN070 BKN220 15/07 A2974 RMK AO2 PK WND 17029/0055 SLP063 T01470065 $,M
INS,2023-01-01 01:55,-115.6733,36.5872,955.00,58.60,35.00,41.19,190.00,18.00,0.00,29.71,1004.10,10.00,22.00,BKN,OVC,M,M,11000.00,16000.00,M,M,M,M,M,M,M,M,M,58.60,KINS 010155Z AUTO 19018G22KT 10SM BKN110 OVC160 15/02 A2971 RMK AO2 SLP041 T01480017 $,M
EKO,2023-01-01 01:56,-115.7860,40.8242,1367.00,34.00,30.90,88.27,100.00,3.00,0.00,29.72,1006.90,10.00,M,OVC,M,M,M,4400.00,M,M,M,M,M,M,M,M,M,M,30.97,KEKO 010156Z AUTO 10003KT 10SM OVC044 01/M01 A2972 RMK AO2 SLP069 T00111006,M
WMC,2023-01-01 01:56,-117.8072,40.9019,1315.00,38.00,34.00,85.69,0.00,0.00,0.00,29.72,1005.80,10.00,M,FEW,OVC,M,M,2900.00,8000.00,M,M,M,M,M,M,M,M,M,37.90,KWMC 010156Z AUTO 00000KT 10SM FEW029 OVC080 03/01 A2972 RMK AO2 SLP058 T00330011,M
NFL,2023-01-01 01:56,-118.7010,39.4166,1199.00,32.00,30.90,95.65,330.00,8.00,0.08,29.70,1004.00,1.25,M,FEW,OVC,M,M,300.00,800.00,M,M,-SN BR,M,M,M,M,M,M,24.11,KNFL 010156Z AUTO 33008KT 1 1/4SM -SN BR FEW003 OVC008 00/M01 A2970 RMK AO2 SLP040 P0008 T00001006 $,M
LAS,2023-01-01 01:56,-115.1634,36.0719,663.00,57.00,43.00,59.40,180.00,13.00,0.00,29.77,1007.70,10.00,20.00,SCT,BKN,BKN,M,4500.00,10000.00,20000.00,M,M,M,M,M,M,M,M,57.00,KLAS 010156Z 18013G20KT 10SM SCT045 BKN100 BKN200 14/06 A2977 RMK AO2 SLP077 T01390061,M
HND,2023-01-01 01:56,-115.1344,35.9729,742.79,55.00,44.00,66.61,160.00,20.00,0.00,29.80,1010.10,10.00,27.00,CLR,M,M,M,M,M,M,M,M,M,M,M,27.00,150.00,2023-01-01 01:56,55.00,KHND 010156Z 16020G27KT 10SM CLR 13/07 A2980 RMK AO2 PK WND 15027/0156 SLP101 T01280067,M
TPH,2023-01-01 01:56,-117.0904,38.0505,1654.00,43.00,40.00,88.71,170.00,11.00,T,29.64,1002.30,10.00,M,FEW,BKN,OVC,M,1400.00,2800.00,5000.00,M,M,M,M,M,M,M,M,36.37,KTPH 010156Z AUTO 17011KT 10SM FEW014 BKN028 OVC050 06/04 A2964 RMK AO2 RAB39E49 SLP023 P0000 T00610044,M
BVU,2023-01-01 02:15,-114.8611,35.9475,671.00,57.20,44.60,62.69,170.00,15.00,0.00,29.82,M,10.00,21.00,SCT,BKN,M,M,4900.00,6500.00,M,M,M,M,M,M,M,M,M,57.20,KBVU 010215Z AUTO 17015G21KT 10SM SCT049 BKN065 14/07 A2982 RMK AO2,M
CXP,2023-01-01 02:15,-119.7326,39.1923,1431.00,32.00,32.00,100.00,0.00,0.00,0.00,29.74,M,0.75,M,OVC,M,M,M,300.00,M,M,M,-SN BR,M,M,M,M,M,M,32.00,KCXP 010215Z AUTO 00000KT 3/4SM -SN BR OVC003 00/00 A2974 RMK AO2,M
RTS,2023-01-01 02:15,-119.8764,39.6682,1539.00,32.00,32.00,100.00,0.00,0.00,0.00,29.74,M,1.25,M,OVC,M,M,M,200.00,M,M,M,-SN,M,M,M,M,M,M,32.00,KRTS 010215Z AUTO 00000KT 1 1/4SM -SN OVC002 00/00 A2974 RMK AO2,M
05U,2023-01-01 02:15,-116.0051,39.6042,1811.23,32.00,32.00,100.00,0.00,0.00,0.00,29.69,M,1.50,M,OVC,M,M,M,300.00,M,M,M,BR,M,M,M,M,M,M,32.00,K05U 010215Z AUTO 00000KT 1 1/2SM BR OVC003 00/00 A2969 RMK A01,M
MEV,2023-01-01 02:15,-119.7500,38.9963,1441.42,32.00,32.00,100.00,310.00,5.00,0.00,29.72,M,0.50,M,OVC,M,M,M,300.00,M,M,M,-SN FG,M,M,M,M,M,M,26.40,KMEV 010215Z AUTO 31005KT 1/2SM -SN FG OVC003 00/00 A2972 RMK AO2,M
BAM,2023-01-01 02:15,-116.8743,40.5990,1382.36,33.80,33.80,100.00,0.00,0.00,0.00,29.74,M,10.00,M,OVC,M,M,M,4300.00,M,M,M,M,M,M,M,M,M,M,33.80,KBAM 010215Z AUTO 00000KT 10SM OVC043 01/01 A2974 RMK AO1,M
TMT,2023-01-01 02:15,-117.1971,39.4643,1749.34,32.00,31.80,99.20,10.00,5.00,0.01,29.68,M,1.50,M,OVC,M,M,M,900.00,M,M,M,-SN,M,M,M,M,M,M,26.40,KTMT 010215Z AUTO 01005KT 1 1/2SM -SN OVC009 00/00 A2968 RMK AO2 P0001 T00001001,M
BVU,2023-01-01 02:35,-114.8611,35.9475,671.00,57.20,44.60,62.69,170.00,11.00,0.00,29.82,M,10.00,17.00,BKN,BKN,OVC,M,4800.00,5500.00,6500.00,M,M,M,M,M,M,M,M,57.20,KBVU 010235Z AUTO 17011G17KT 10SM BKN048 BKN055 OVC065 14/07 A2982 RMK AO2,M
CXP,2023-01-01 02:35,-119.7326,39.1923,1431.00,32.00,33.80,M,0.00,0.00,0.00,29.74,M,1.00,M,OVC,M,M,M,300.00,M,M,M,-SN BR,M,M,M,M,M,M,M,KCXP 010235Z AUTO 00000KT 1SM -SN BR OVC003 00/01 A2974 RMK AO2,M
NFL,2023-01-01 02:35,-118.7010,39.4166,1199.00,32.00,32.00,100.00,320.00,10.00,0.03,29.71,M,1.50,M,OVC,M,M,M,1000.00,M,M,M,-SN BR,M,M,M,M,M,M,22.97,KNFL 010235Z AUTO 32010KT 1 1/2SM -SN BR OVC010 00/00 A2971 RMK AO2 P0003 T00000000 $,M
RTS,2023-01-01 02:35,-119.8764,39.6682,1539.00,32.00,32.00,100.00,290.00,3.00,0.00,29.74,M,1.50,M,OVC,M,M,M,200.00,M,M,M,-SN,M,M,M,M,M,M,28.69,KRTS 010235Z AUTO 29003KT 1 1/2SM -SN OVC002 00/00 A2974 RMK AO2,M
05U,2023-01-01 02:35,-116.0051,39.6042,1811.23,32.00,32.00,100.00,0.00,0.00,0.00,29.69,M,1.00,M,OVC,M,M,M,300.00,M,M,M,BR,M,M,M,M,M,M,32.00,K05U 010235Z AUTO 00000KT 1SM BR OVC003 00/00 A2969 RMK A01,M
MEV,2023-01-01 02:35,-119.7500,38.9963,1441.42,32.00,32.00,100.00,320.00,4.00,0.00,29.71,M,0.75,M,OVC,M,M,M,300.00,M,M,M,-SN BR,M,M,M,M,M,M,27.42,KMEV 010235Z AUTO 32004KT 3/4SM -SN BR OVC003 00/00 A2971 RMK AO2,M
BAM,2023-01-01 02:35,-116.8743,40.5990,1382.36,33.80,33.80,100.00,0.00,0.00,0.00,29.73,M,10.00,M,OVC,M,M,M,4300.00,M,M,M,M,M,M,M,M,M,M,33.80,KBAM 010235Z AUTO 00000KT 10SM OVC043 01/01 A2973 RMK AO1,M
TMT,2023-01-01 02:35,-117.1971,39.4643,1749.34,32.00,31.80,99.20,10.00,7.00,0.01,29.67,M,2.00,M,OVC,M,M,M,900.00,M,M,M,-SN,M,M,M,M,M,M,24.78,KTMT 010235Z AUTO 01007KT 2SM -SN OVC009 00/00 A2967 RMK AO2 P0001 T00001001,M
ELY,2023-01-01 02:36,-114.8453,39.2950,1909.00,33.00,32.00,95.67,M,3.00,0.01,29.66,M,10.00,15.00,SCT,BKN,OVC,M,800.00,2800.00,3400.00,M,-RA,M,M,M,M,M,M,29.95,KELY 010236Z AUTO VRB03G15KT 10SM -RA SCT008 BKN028 OVC034 01/00 A2966 RMK AO2 P0001 T00060000,M
EKO,2023-01-01 02:42,-115.7860,40.8242,1367.00,34.00,30.90,88.27,40.00,3.00,T,29.72,M,4.00,M,OVC,M,M,M,2600.00,M,M,M,-SN BR,M,M,M,M,M,M,30.97,KEKO 010242Z AUTO 04003KT 4SM -SN BR OVC026 01/M01 A2972 RMK AO2 SNB27 P0000 T00111006,M
NFL,2023-01-01 02:48,-118.7010,39.4166,1199.00,32.00,32.00,100.00,330.00,11.00,0.04,29.70,M,2.00,M,OVC,M,M,M,1100.00,M,M,M,-SN BR,M,M,M,M,M,M,22.47,KNFL 010248Z AUTO 33011KT 2SM -SN BR OVC011 00/00 A2970 RMK AO2 P0004 T00000000 $,M
INS,2023-01-01 02:49,-115.6733,36.5872,955.00,55.40,39.20,54.34,170.00,17.00,0.00,29.70,1003.90,10.00,29.00,OVC,M,M,M,11000.00,M,M,M,M,M,M,M,M,M,M,55.40,KINS 010249Z AUTO 17017G29KT 10SM OVC110 13/04 A2970 RMK AO2 WSHFT 46 SLP039 $,M
WMC,2023-01-01 02:49,-117.8072,40.9019,1315.00,38.00,34.00,85.69,10.00,7.00,0.00,29.72,M,10.00,M,BKN,OVC,M,M,1900.00,8500.00,M,M,M,M,M,M,M,M,M,31.97,KWMC 010249Z AUTO 01007KT 10SM BKN019 OVC085 03/01 A2972 RMK AO2 T00330011,M
INS,2023-01-01 02:50,-115.6733,36.5872,955.00,55.40,39.20,54.34,120.00,15.00,0.00,29.70,1003.90,10.00,29.00,OVC,M,M,M,11000.00,M,M,M,M,M,M,M,M,M,M,55.40,KINS 010250Z AUTO 12015G29KT 10SM OVC110 13/04 A2970 RMK AO2 WSHFT 49 SLP039 $,M
P68,2023-01-01 02:53,-116.0056,39.6014,1993.00,30.90,28.90,92.18,350.00,16.00,0.04,29.66,1003.40,M,25.00,M,M,M,M,M,M,M,M,M,M,M,M,M,M,M,18.98,KP68 010253Z AUTO 35016G25KT M01/M02 A2966 RMK AO1 SLP034 P0004 60015 T10061017 58004,M
ELY,2023-01-01 02:53,-114.8453,39.2950,1909.00,32.00,30.90,95.65,350.00,13.00,0.01,29.66,1003.20,10.00,20.00,FEW,BKN,OVC,M,700.00,1100.00,2700.00,M,-SN,M,M,M,M,M,M,21.57,KELY 010253Z AUTO 35013G20KT 10SM -SN FEW007 BKN011 OVC027 00/M01 A2966 RMK AO2 RAE52SNB52 SLP032 P0001 60002 T00001006 55003,M
VGT,2023-01-01 02:53,-115.1933,36.2111,667.00,58.00,43.00,57.51,150.00,16.00,0.00,29.75,1008.90,10.00,M,OVC,M,M,M,6500.00,M,M,M,M,M,M,M,M,M,M,57.90,KVGT 010253Z 15016KT 10SM OVC065 14/06 A2975 RMK AO2 SLP089 T01440061 50000,M
LOL,2023-01-01 02:53,-118.5701,40.0684,1192.43,37.00,37.00,100.00,120.00,5.00,T,29.70,1005.90,10.00,M,OVC,M,M,M,4000.00,M,M,M,-RA,M,M,M,M,M,M,32.33,KLOL 010253Z AUTO 12005KT 10SM -RA OVC040 03/03 A2970 RMK AO2 SLP059 P0000 60004 T00280028 58009,M
DRA,2023-01-01 02:53,-116.0278,36.6206,1009.00,55.00,40.00,56.66,190.00,20.00,0.00,29.66,1002.20,10.00,38.00,FEW,M,M,M,11000.00,M,M,M,M,M,M,M,45.00,170.00,2023-01-01 02:11,55.00,KDRA 010253Z AUTO 19020G38KT 10SM FEW110 13/04 A2966 RMK AO2 PK WND 17045/0211 SLP022 T01280044 56020,M
EKO,2023-01-01 02:54,-115.7860,40.8242,1367.00,33.80,32.00,93.03,40.00,2.92,M,29.72,M,2.50,M,OVC,M,M,M,2201.00,M,M,M,-SN BR,M,M,M,M,M,M,30.86,SPECI KEKO 010254Z 04003KT 2 1/2SM -SN BR OVC022 01/00 A2972 RMK AO2 SNB27 P0001 FIBI,M
BVU,2023-01-01 02:55,-114.8611,35.9475,671.00,57.20,44.60,62.69,200.00,8.00,0.00,29.81,M,10.00,15.00,BKN,OVC,M,M,4800.00,5500.00,M,M,M,M,M,M,M,M,M,57.20,KBVU 010255Z AUTO 20008G15KT 10SM BKN048 OVC055 14/07 A2981 RMK AO2,M
CXP,2023-01-01 02:55,-119.7326,39.1923,1431.00,32.00,32.00,100.00,0.00,0.00,0.09,29.73,M,1.25,M,OVC,M,M,M,400.00,M,M,M,-SN BR,M,M,M,M,M,M,32.00,KCXP 010255Z AUTO 00000KT 1 1/4SM -SN BR OVC004 00/00 A2973 RMK AO2 P0009,M
INS,2023-01-01 02:55,-115.6733,36.5872,955.00,55.00,38.70,54.07,100.00,12.00,0.00,29.69,1003.60,10.00,29.00,OVC,M,M,M,11000.00,M,M,M,M,M,M,M,29.00,190.00,2023-01-01 02:48,55.00,KINS 010255Z AUTO 10012G29KT 10SM OVC110 13/04 A2969 RMK AO2 PK WND 19029/48 SLP036 T01280037 57014 $,M
RTS,2023-01-01 02:55,-119.8764,39.6682,1539.00,32.00,32.00,100.00,0.00,0.00,0.07,29.73,M,1.00,M,OVC,M,M,M,200.00,M,M,M,-SN,M,M,M,M,M,M,32.00,KRTS 010255Z AUTO 00000KT 1SM -SN OVC002 00/00 A2973 RMK AO2 P0007,M
05U,2023-01-01 02:55,-116.0051,39.6042,1811.23,32.00,32.00,100.00,0.00,0.00,0.01,29.68,M,1.00,M,OVC,M,M,M,300.00,M,M,M,BR,M,M,M,M,M,M,32.00,K05U 010255Z AUTO 00000KT 1SM BR OVC003 M00/M00 A2968 RMK A01 P0001,M
MEV,2023-01-01 02:55,-119.7500,38.9963,1441.42,32.00,32.00,100.00,340.00,7.00,0.14,29.71,M,0.50,M,OVC,M,M,M,300.00,M,M,M,-SN BR,M,M,M,M,M,M,24.78,KMEV 010255Z AUTO 34007KT 1/2SM -SN BR OVC003 00/00 A2971 RMK AO2 P0014,M
BAM,2023-01-01 02:55,-116.8743,40.5990,1382.36,33.80,33.80,100.00,100.00,3.00,0.00,29.73,M,10.00,M,OVC,M,M,M,4800.00,M,M,M,M,M,M,M,M,M,M,30.75,KBAM 010255Z AUTO 10003KT 10SM OVC048 01/01 A2973 RMK AO1,M
LSV,2023-01-01 02:55,-115.0343,36.2362,570.00,58.30,43.50,57.78,170.00,22.00,0.00,29.73,1005.90,10.00,M,BKN,M,M,M,6500.00,M,M,M,M,M,M,M,32.00,170.00,2023-01-01 02:11,58.30,KLSV 010255Z AUTO 17022KT 10SM BKN065 15/06 A2973 RMK AO2 PK WND 17032/11 SLP059 T01460064 55001 $,M
TMT,2023-01-01 02:55,-117.1971,39.4643,1749.34,31.50,31.10,98.40,10.00,9.00,0.02,29.67,M,1.75,M,OVC,M,M,M,700.00,M,M,M,-SN,M,M,M,M,M,M,22.89,KTMT 010255Z AUTO 01009KT 1 3/4SM -SN OVC007 00/00 A2967 RMK AO2 P0002 60009 T10031005,M
RNO,2023-01-01 02:55,-119.7711,39.4839,1341.00,33.00,32.00,95.67,0.00,0.00,0.07,29.73,1006.20,0.50,M,FEW,OVC,M,M,500.00,900.00,M,M,SN,M,M,M,M,M,M,33.10,KRNO 010255Z 00000KT 1/2SM SN FEW005 OVC009 01/00 A2973 RMK AO2 SFC VIS 3/4 SLP062 P0007 60030 T00060000 58003 RVRNO,M
EKO,2023-01-01 02:56,-115.7860,40.8242,1367.00,34.00,32.00,92.29,40.00,3.00,0.01,29.72,1006.90,2.50,M,OVC,M,M,M,2200.00,M,M,M,-SN BR,M,M,M,M,M,M,30.97,KEKO 010256Z AUTO 04003KT 2 1/2SM -SN BR OVC022 01/00 A2972 RMK AO2 SNB27 SLP069 P0001 60001 T00110000 56003,M
WMC,2023-01-01 02:56,-117.8072,40.9019,1315.00,38.00,34.00,85.69,10.00,8.00,0.00,29.72,1005.90,10.00,M,BKN,OVC,M,M,1900.00,8000.00,M,M,M,M,M,M,M,M,M,31.38,KWMC 010256Z AUTO 01008KT 10SM BKN019 OVC080 03/01 A2972 RMK AO2 SLP059 T00330011 58002,M
NFL,2023-01-01 02:56,-118.7010,39.4166,1199.00,33.00,32.00,95.67,340.00,9.00,0.05,29.70,1004.00,1.50,M,OVC,M,M,M,1100.00,M,M,M,-SN BR,M,M,M,M,M,M,24.88,KNFL 010256Z AUTO 34009KT 1 1/2SM -SN BR OVC011 01/00 A2970 RMK AO2 SLP040 P0005 60020 T00060000 56005 $,M
LAS,2023-01-01 02:56,-115.1634,36.0719,663.00,56.00,43.00,61.81,170.00,14.00,0.00,29.75,1007.00,10.00,26.00,SCT,BKN,BKN,M,4500.00,7000.00,20000.00,M,M,M,M,M,27.00,170.00,2023-01-01 02:33,55.90,KLAS 010256Z 17014G26KT 10SM SCT045 BKN070 BKN200 13/06 A2975 RMK AO2 PK WND 17027/0233 SLP070 T01330061 58005,M
HND,2023-01-01 02:56,-115.1344,35.9729,742.79,55.00,44.00,66.61,160.00,23.00,0.00,29.79,1009.80,10.00,28.00,SCT,BKN,M,M,5000.00,6500.00,M,M,M,M,M,M,28.00,150.00,2023-01-01 02:56,55.00,KHND 010256Z 16023G28KT 10SM SCT050 BKN065 13/07 A2979 RMK AO2 PK WND 15028/0256 SLP098 T01280067 58003,M
TPH,2023-01-01 02:56,-117.0904,38.0505,1654.00,43.00,40.00,88.71,170.00,11.00,0.00,29.63,1001.80,10.00,M,BKN,OVC,M,M,1600.00,2100.00,M,M,M,M,M,M,M,M,M,36.37,KTPH 010256Z AUTO 17011KT 10SM BKN016 OVC021 06/04 A2963 RMK AO2 SLP018 60000 T00610044 58010,M
EKO,2023-01-01 03:04,-115.7860,40.8242,1367.00,34.00,32.00,92.29,20.00,3.00,T,29.72,M,3.00,M,OVC,M,M,M,2100.00,M,M,M,-SN BR,M,M,M,M,M,M,30.97,KEKO 010304Z AUTO 02003KT 3SM -SN BR OVC021 01/00 A2972 RMK AO2 P0000 T00110000,M
NFL,2023-01-01 03:05,-118.7010,39.4166,1199.00,32.00,32.00,100.00,340.00,9.00,0.01,29.70,M,2.00,M,FEW,OVC,M,M,500.00,1300.00,M,M,-SN BR,M,M,M,M,M,M,23.51,KNFL 010305Z AUTO 34009KT 2SM -SN BR FEW005 OVC013 00/00 A2970 RMK AO2 P0001 T00000000 $,M
CXP,2023-01-01 03:05,-119.7326,39.1923,1431.00,33.80,33.80,100.00,330.00,5.00,0.00,29.72,M,2.50,M,BKN,M,M,M,500.00,M,M,M,-SN BR,M,M,M,M,M,M,28.53,KCXP 010305Z AUTO 33005KT 2 1/2SM -SN BR BKN005 01/01 A2972 RMK AO2,M
ELY,2023-01-01 03:10,-114.8453,39.2950,1909.00,30.90,30.90,100.00,20.00,15.00,0.01,29.66,M,1.75,22.00,FEW,OVC,M,M,600.00,1100.00,M,M,-SN BR,M,M,M,M,M,M,19.35,KELY 010310Z AUTO 02015G22KT 1 3/4SM -SN BR FEW006 OVC011 M01/M01 A2966 RMK AO2 P0001 T10061006,M
NFL,2023-01-01 03:13,-118.7010,39.4166,1199.00,33.00,32.00,95.67,340.00,9.00,0.02,29.70,M,3.00,M,OVC,M,M,M,1500.00,M,M,M,-SN BR,M,M,M,M,M,M,24.88,KNFL 010313Z AUTO 34009KT 3SM -SN BR OVC015 01/00 A2970 RMK AO2 P0002 T00060000 $,M
BVU,2023-01-01 03:15,-114.8611,35.9475,671.00,57.20,42.80,58.52,210.00,10.00,0.00,29.80,M,10.00,15.00,OVC,M,M,M,4900.00,M,M,M,M,M,M,M,M,M,M,57.20,KBVU 010315Z AUTO 21010G15KT 10SM OVC049 14/06 A2980 RMK AO2,M
RTS,2023-01-01 03:15,-119.8764,39.6682,1539.00,32.00,32.00,100.00,290.00,6.00,0.00,29.74,M,1.25,M,OVC,M,M,M,200.00,M,M,M,-SN,M,M,M,M,M,M,25.53,KRTS 010315Z AUTO 29006KT 1 1/4SM -SN OVC002 00/00 A2974 RMK AO2,M
05U,2023-01-01 03:15,-116.0051,39.6042,1811.23,32.00,32.00,100.00,0.00,0.00,0.00,29.68,M,0.50,M,OVC,M,M,M,200.00,M,M,M,BR,M,M,M,M,M,M,32.00,K05U 010315Z AUTO 00000KT 1/2SM BR OVC002 M00/M00 A2968 RMK A01,M
MEV,2023-01-01 03:15,-119.7500,38.9963,1441.42,32.00,32.00,100.00,330.00,7.00,0.00,29.71,M,0.50,M,OVC,M,M,M,300.00,M,M,M,-SN FG,M,M,M,M,M,M,24.78,KMEV 010315Z AUTO 33007KT 1/2SM -SN FG OVC003 00/00 A2971 RMK AO2,M
BAM,2023-01-01 03:15,-116.8743,40.5990,1382.36,33.80,33.80,100.00,0.00,0.00,0.00,29.73,M,10.00,M,OVC,M,M,M,5000.00,M,M,M,M,M,M,M,M,M,M,33.80,KBAM 010315Z AUTO 00000KT 10SM OVC050 01/01 A2973 RMK AO1,M
TMT,2023-01-01 03:15,-117.1971,39.4643,1749.34,31.50,31.10,98.40,20.00,8.00,0.00,29.66,M,1.50,M,OVC,M,M,M,700.00,M,M,M,-SN,M,M,M,M,M,M,23.50,KTMT 010315Z AUTO 02008KT 1 1/2SM -SN OVC007 00/00 A2966 RMK AO2 T10031005,M
RNO,2023-01-01 03:16,-119.7711,39.4839,1341.00,33.00,32.00,95.67,300.00,4.00,0.03,29.73,M,0.50,M,FEW,OVC,M,M,500.00,1100.00,M,M,SN,M,M,M,M,M,M,28.70,KRNO 010316Z 30004KT 1/2SM SN FEW005 OVC011 01/00 A2973 RMK AO2 SFC VIS 3/4 P0003 T00060000 RVRNO,M
EKO,2023-01-01 03:30,-115.7860,40.8242,1367.00,33.00,30.90,91.51,50.00,5.00,T,29.72,M,2.50,M,OVC,M,M,M,2300.00,M,M,M,-SN BR,M,M,M,M,M,M,27.70,KEKO 010330Z AUTO 05005KT 2 1/2SM -SN BR OVC023 01/M01 A2972 RMK AO2 P0000 T00061006,M
BVU,2023-01-01 03:35,-114.8611,35.9475,671.00,57.20,42.80,58.52,M,5.00,0.00,29.80,M,10.00,11.00,FEW,OVC,M,M,3500.00,5000.00,M,M,M,M,M,M,M,M,M,57.20,KBVU 010335Z AUTO VRB05G11KT 10SM FEW035 OVC050 14/06 A2980 RMK AO2,M
RTS,2023-01-01 03:35,-119.8764,39.6682,1539.00,32.00,32.00,100.00,310.00,6.00,0.00,29.74,M,1.75,M,OVC,M,M,M,200.00,M,M,M,-SN,M,M,M,M,M,M,25.53,KRTS 010335Z AUTO 31006KT 1 3/4SM -SN OVC002 00/00 A2974 RMK AO2,M
05U,2023-01-01 03:35,-116.0051,39.6042,1811.23,32.00,32.00,100.00,0.00,0.00,0.00,29.68,M,0.75,M,OVC,M,M,M,200.00,M,M,M,BR,M,M,M,M,M,M,32.00,K05U 010335Z AUTO 00000KT 3/4SM BR OVC002 M00/M00 A2968 RMK A01,M
MEV,2023-01-01 03:35,-119.7500,38.9963,1441.42,32.00,32.00,100.00,320.00,7.00,0.00,29.71,M,0.50,M,OVC,M,M,M,300.00,M,M,M,-SN FG,M,M,M,M,M,M,24.78,KMEV 010335Z AUTO 32007KT 1/2SM -SN FG OVC003 00/00 A2971 RMK AO2,M
BAM,2023-01-01 03:35,-116.8743,40.5990,1382.36,33.80,33.80,100.00,350.00,6.00,0.00,29.73,M,10.00,M,OVC,M,M,M,5000.00,M,M,M,M,M,M,M,M,M,M,27.70,KBAM 010335Z AUTO 35006KT 10SM OVC050 01/01 A2973 RMK AO1,M
TMT,2023-01-01 03:35,-117.1971,39.4643,1749.34,31.10,30.90,99.19,10.00,11.00,0.00,29.67,M,1.25,M,OVC,M,M,M,700.00,M,M,M,-SN,M,M,M,M,M,M,21.33,KTMT 010335Z AUTO 01011KT 1 1/4SM -SN OVC007 00/M01 A2967 RMK AO2 T10051006,M
TPH,2023-01-01 03:51,-117.0904,38.0505,1654.00,42.80,39.20,86.99,180.00,13.00,0.00,29.63,M,10.00,M,BKN,BKN,OVC,M,900.00,1500.00,2100.00,M,M,M,M,M,M,M,M,35.40,KTPH 010351Z AUTO 18013KT 10SM BKN009 BKN015 OVC021 06/04 A2963 RMK AO2 CIG 008V012,M
P68,2023-01-01 03:53,-116.0056,39.6014,1993.00,30.00,28.90,95.61,360.00,13.00,0.06,29.66,1003.80,M,M,M,M,M,M,M,M,M,M,M,M,M,M,M,M,M,19.01,KP68 010353Z AUTO 36013KT M01/M02 A2966 RMK AO1 SLP038 P0006 T10111017,M
ELY,2023-01-01 03:53,-114.8453,39.2950,1909.00,30.90,30.90,100.00,10.00,8.00,0.05,29.66,1003.20,1.50,17.00,FEW,OVC,M,M,400.00,1200.00,M,M,-SN BR,M,M,M,M,M,M,22.76,KELY 010353Z AUTO 01008G17KT 1 1/2SM -SN BR FEW004 OVC012 M01/M01 A2966 RMK AO2 SLP032 P0005 T10061006,M
VGT,2023-01-01 03:53,-115.1933,36.2111,667.00,58.00,43.00,57.51,170.00,18.00,0.00,29.74,1008.50,10.00,26.00,OVC,M,M,M,6500.00,M,M,M,M,M,M,M,26.00,170.00,2023-01-01 03:48,57.90,KVGT 010353Z 17018G26KT 10SM OVC065 14/06 A2974 RMK AO2 PK WND 17026/0348 SLP085 T01440061,M
LOL,2023-01-01 03:53,-118.5701,40.0684,1192.43,37.00,36.00,96.13,0.00,0.00,T,29.70,1005.90,10.00,M,FEW,BKN,OVC,M,1800.00,3500.00,4600.00,M,-RA,M,M,M,M,M,M,37.00,KLOL 010353Z AUTO 00000KT 10SM -RA FEW018 BKN035 OVC046 03/02 A2970 RMK AO2 SLP059 P0000 T00280022,M
NFL,2023-01-01 03:53,-118.7010,39.4166,1199.00,33.80,32.00,93.03,330.00,9.00,0.05,29.70,M,2.00,M,OVC,M,M,M,1600.00,M,M,M,-SN BR,M,M,M,M,M,M,25.75,KNFL 010353Z AUTO 33009KT 2SM -SN BR OVC016 01/00 A2970 RMK AO2 P0005 $,M
DRA,2023-01-01 03:53,-116.0278,36.6206,1009.00,54.00,40.00,58.76,200.00,22.00,0.00,29.68,1002.90,10.00,35.00,FEW,M,M,M,4500.00,M,M,M,M,M,M,M,40.00,200.00,2023-01-01 03:35,54.00,KDRA 010353Z AUTO 20022G35KT 10SM FEW045 12/04 A2968 RMK AO2 PK WND 20040/0335 SLP029 T01220044,M
BVU,2023-01-01 03:55,-114.8611,35.9475,671.00,57.20,44.60,62.69,200.00,8.00,0.00,29.80,M,10.00,M,FEW,FEW,OVC,M,3500.00,4400.00,5000.00,M,M,M,M,M,M,M,M,57.20,KBVU 010355Z AUTO 20008KT 10SM FEW035 FEW044 OVC050 14/07 A2980 RMK AO2,M
INS,2023-01-01 03:55,-115.6733,36.5872,955.00,53.20,39.70,60.04,130.00,9.00,0.00,29.69,1003.60,10.00,21.00,FEW,SCT,OVC,M,6500.00,8000.00,10000.00,M,M,M,M,M,M,M,M,53.20,KINS 010355Z AUTO 13009G21KT 10SM FEW065 SCT080 OVC100 12/04 A2969 RMK AO2 SLP036 T01180043 $,M
RTS,2023-01-01 03:55,-119.8764,39.6682,1539.00,32.00,32.00,100.00,0.00,0.00,0.03,29.73,M,1.50,M,OVC,M,M,M,200.00,M,M,M,-SN,M,M,M,M,M,M,32.00,KRTS 010355Z AUTO 00000KT 1 1/2SM -SN OVC002 00/00 A2973 RMK AO2 P0003,M
05U,2023-01-01 03:55,-116.0051,39.6042,1811.23,30.20,32.00,M,0.00,0.00,0.00,29.68,M,1.00,M,OVC,M,M,M,200.00,M,M,M,BR,M,M,M,M,M,M,M,K05U 010355Z AUTO 00000KT 1SM BR OVC002 M01/M00 A2968 RMK A01,M
MEV,2023-01-01 03:55,-119.7500,38.9963,1441.42,32.00,32.00,100.00,310.00,6.00,0.10,29.71,M,0.50,M,OVC,M,M,M,300.00,M,M,M,-SN FG,M,M,M,M,M,M,25.53,KMEV 010355Z AUTO 31006KT 1/2SM -SN FG OVC003 00/00 A2971 RMK AO2 P0010,M
BAM,2023-01-01 03:55,-116.8743,40.5990,1382.36,33.80,33.80,100.00,0.00,0.00,0.00,29.73,M,10.00,M,BKN,OVC,M,M,4400.00,5000.00,M,M,M,M,M,M,M,M,M,33.80,KBAM 010355Z AUTO 00000KT 10SM BKN044 OVC050 01/01 A2973 RMK AO1,M
TMT,2023-01-01 03:55,-117.1971,39.4643,1749.34,31.10,30.70,98.39,10.00,12.00,0.00,29.66,M,1.25,M,OVC,M,M,M,900.00,M,M,M,-SN,M,M,M,M,M,M,20.86,KTMT 010355Z AUTO 01012KT 1 1/4SM -SN OVC009 00/M01 A2966 RMK AO2 T10051007,M
LSV,2023-01-01 03:55,-115.0343,36.2362,570.00,58.60,43.00,56.08,170.00,20.00,0.00,29.72,1005.60,10.00,30.00,SCT,BKN,M,M,7500.00,22000.00,M,M,M,M,M,M,30.00,170.00,2023-01-01 03:47,58.60,KLSV 010355Z AUTO 17020G30KT 10SM SCT075 BKN220 15/06 A2972 RMK AO2 PK WND 17030/47 SLP056 T01480061 $,M
RNO,2023-01-01 03:55,-119.7711,39.4839,1341.00,33.00,33.00,100.00,0.00,0.00,0.07,29.73,1006.50,0.50,M,SCT,OVC,M,M,600.00,1400.00,M,M,SN,M,M,M,M,M,M,33.10,KRNO 010355Z 00000KT 1/2SM SN SCT006 OVC014 01/01 A2973 RMK AO2 SFC VIS 1 SLP065 P0007 T00060006 RVRNO,M
EKO,2023-01-01 03:56,-115.7860,40.8242,1367.00,33.00,30.90,91.51,40.00,5.00,0.01,29.71,1006.90,2.50,M,OVC,M,M,M,1900.00,M,M,M,-SN BR,M,M,M,M,M,M,27.70,KEKO 010356Z AUTO 04005KT 2 1/2SM -SN BR OVC019 01/M01 A2971 RMK AO2 SLP069 P0001 T00061006,M
NFL,2023-01-01 03:56,-118.7010,39.4166,1199.00,32.00,32.00,100.00,330.00,9.00,0.06,29.70,1003.80,2.00,M,OVC,M,M,M,1400.00,M,M,M,-SN BR,M,M,M,M,M,M,23.51,KNFL 010356Z AUTO 33009KT 2SM -SN BR OVC014 00/00 A2970 RMK AO2 SLP038 P0006 T00000000 $,M
HND,2023-01-01 03:56,-115.1344,35.9729,742.79,55.00,44.00,66.61,160.00,20.00,0.00,29.77,1009.00,10.00,26.00,CLR,M,M,M,M,M,M,M,M,M,M,M,28.00,170.00,2023-01-01 03:15,55.00,KHND 010356Z 16020G26KT 10SM CLR 13/07 A2977 RMK AO2 PK WND 17028/0315 SLP090 T01280067,M
WMC,2023-01-01 03:56,-117.8072,40.9019,1315.00,38.00,33.00,82.66,50.00,8.00,0.00,29.72,1006.20,10.00,M,BKN,OVC,M,M,2100.00,3700.00,M,M,M,M,M,M,M,M,M,31.38,KWMC 010356Z AUTO 05008KT 10SM BKN021 OVC037 03/01 A2972 RMK AO2 SLP062 T00330006,M
TPH,2023-01-01 03:56,-117.0904,38.0505,1654.00,42.00,40.00,91.84,190.00,11.00,0.00,29.63,1002.20,10.00,M,BKN,OVC,M,M,900.00,1500.00,M,M,M,M,M,M,M,M,M,35.23,KTPH 010356Z AUTO 19011KT 10SM BKN009 OVC015 06/04 A2963 RMK AO2 CIG 008V012 SLP022 T00560044,M
LAS,2023-01-01 03:56,-115.1634,36.0719,663.00,56.00,44.00,64.47,170.00,17.00,0.00,29.74,1006.70,10.00,27.00,SCT,BKN,BKN,M,4500.00,7000.00,20000.00,M,M,M,M,M,31.00,180.00,2023-01-01 03:06,55.90,KLAS 010356Z 17017G27KT 10SM SCT045 BKN070 BKN200 13/07 A2974 RMK AO2 PK WND 18031/0306 SLP067 T01330067,M
RNO,2023-01-01 03:58,-119.7711,39.4839,1341.00,33.00,33.00,100.00,0.00,0.00,T,29.73,M,1.00,M,SCT,OVC,M,M,600.00,1600.00,M,M,-SN,M,M,M,M,M,M,33.10,KRNO 010358Z 00000KT 1SM -SN SCT006 OVC016 01/01 A2973 RMK AO2 P0000 T00060006 RVRNO,M
ELY,2023-01-01 04:12,-114.8453,39.2950,1909.00,30.90,30.00,96.41,20.00,13.00,0.02,29.66,M,1.25,M,OVC,M,M,M,1300.00,M,M,M,-SN BR,M,M,M,M,M,M,20.16,KELY 010412Z AUTO 02013KT 1 1/4SM -SN BR OVC013 M01/M01 A2966 RMK AO2 P0002 T10061011,M
BVU,2023-01-01 04:15,-114.8611,35.9475,671.00,57.20,44.60,62.69,190.00,7.00,0.00,29.79,M,10.00,12.00,BKN,BKN,OVC,M,3500.00,4900.00,5500.00,M,M,M,M,M,M,M,M,57.20,KBVU 010415Z AUTO 19007G12KT 10SM BKN035 BKN049 OVC055 14/07 A2979 RMK AO2,M
RTS,2023-01-01 04:15,-119.8764,39.6682,1539.00,32.00,32.00,100.00,290.00,4.00,0.00,29.73,M,1.75,M,OVC,M,M,M,200.00,M,M,M,-SN,M,M,M,M,M,M,27.42,KRTS 010415Z AUTO 29004KT 1 3/4SM -SN OVC002 00/00 A2973 RMK AO2,M
05U,2023-01-01 04:15,-116.0051,39.6042,1811.23,30.20,30.20,100.00,0.00,0.00,0.00,29.68,M,0.75,M,OVC,M,M,M,200.00,M,M,M,BR,M,M,M,M,M,M,30.20,K05U 010415Z AUTO 00000KT 3/4SM BR OVC002 M01/M01 A2968 RMK A01,M
MEV,2023-01-01 04:15,-119.7500,38.9963,1441.42,32.00,32.00,100.00,300.00,6.00,0.00,29.71,M,0.75,M,M,M,M,M,M,M,M,M,-SN BR,M,M,M,M,M,M,25.53,KMEV 010415Z AUTO 30006KT 3/4SM -SN BR 00/00 A2971 RMK AO2,M
BAM,2023-01-01 04:15,-116.8743,40.5990,1382.36,33.80,33.80,100.00,0.00,0.00,0.00,29.74,M,10.00,M,OVC,M,M,M,4000.00,M,M,M,M,M,M,M,M,M,M,33.80,KBAM 010415Z AUTO 00000KT 10SM OVC040 01/01 A2974 RMK AO1,M
TMT,2023-01-01 04:15,-117.1971,39.4643,1749.34,31.10,30.70,98.39,10.00,11.00,0.00,29.66,M,1.75,M,OVC,M,M,M,1200.00,M,M,M,-SN,M,M,M,M,M,M,21.33,KTMT 010415Z AUTO 01011KT 1 3/4SM -SN OVC012 00/M01 A2966 RMK AO2 T10051007,M
NFL,2023-01-01 04:20,-118.7010,39.4166,1199.00,32.00,32.00,100.00,320.00,10.00,0.01,29.70,M,3.00,M,OVC,M,M,M,1200.00,M,M,M,-SN BR,M,M,M,M,M,M,22.97,KNFL 010420Z AUTO 32010KT 3SM -SN BR OVC012 00/00 A2970 RMK AO2 P0001 T00000000 $,M
ELY,2023-01-01 04:20,-114.8453,39.2950,1909.00,30.90,30.00,96.41,20.00,12.00,0.02,29.66,M,1.50,M,OVC,M,M,M,1300.00,M,M,M,-SN BR,M,M,M,M,M,M,20.60,KELY 010420Z AUTO 02012KT 1 1/2SM -SN BR OVC013 M01/M01 A2966 RMK AO2 P0002 T10061011,M
BVU,2023-01-01 04:35,-114.8611,35.9475,671.00,55.40,44.60,66.91,200.00,8.00,0.00,29.78,M,10.00,M,SCT,OVC,M,M,3400.00,5500.00,M,M,M,M,M,M,M,M,M,55.40,KBVU 010435Z AUTO 20008KT 10SM SCT034 OVC055 13/07 A2978 RMK AO2,M
RTS,2023-01-01 04:35,-119.8764,39.6682,1539.00,32.00,32.00,100.00,240.00,5.00,0.00,29.73,M,3.00,M,SCT,SCT,BKN,M,200.00,900.00,2000.00,M,-SN,M,M,M,M,M,M,26.40,KRTS 010435Z AUTO 24005KT 3SM -SN SCT002 SCT009 BKN020 00/00 A2973 RMK AO2,M
05U,2023-01-01 04:35,-116.0051,39.6042,1811.23,30.20,30.20,100.00,0.00,0.00,0.00,29.67,M,0.75,M,OVC,M,M,M,200.00,M,M,M,BR,M,M,M,M,M,M,30.20,K05U 010435Z AUTO 00000KT 3/4SM BR OVC002 M01/M01 A2967 RMK A01,M
MEV,2023-01-01 04:35,-119.7500,38.9963,1441.42,32.00,32.00,100.00,330.00,6.00,0.00,29.72,M,0.75,M,M,M,M,M,M,M,M,M,-SN BR,M,M,M,M,M,M,25.53,KMEV 010435Z AUTO 33006KT 3/4SM -SN BR 00/00 A2972 RMK AO2,M
BAM,2023-01-01 04:35,-116.8743,40.5990,1382.36,33.80,33.80,100.00,20.00,3.00,0.00,29.73,M,10.00,M,SCT,BKN,OVC,M,1600.00,3800.00,4400.00,M,M,M,M,M,M,M,M,30.75,KBAM 010435Z AUTO 02003KT 10SM SCT016 BKN038 OVC044 01/01 A2973 RMK AO1,M
TMT,2023-01-01 04:35,-117.1971,39.4643,1749.34,31.10,30.60,97.99,10.00,11.00,0.00,29.66,M,2.00,M,OVC,M,M,M,1200.00,M,M,M,-SN,M,M,M,M,M,M,21.33,KTMT 010435Z AUTO 01011KT 2SM -SN OVC012 00/M01 A2966 RMK AO2 T10051008,M
NFL,2023-01-01 04:37,-118.7010,39.4166,1199.00,32.00,32.00,100.00,320.00,9.00,0.02,29.70,M,3.00,M,FEW,FEW,OVC,M,800.00,1100.00,1600.00,M,-SN BR,M,M,M,M,M,M,23.51,KNFL 010437Z AUTO 32009KT 3SM -SN BR FEW008 FEW011 OVC016 00/00 A2970 RMK AO2 P0002 T00000000 $,M
TPH,2023-01-01 04:51,-117.0904,38.0505,1654.00,42.80,41.00,93.30,170.00,14.00,T,29.61,M,10.00,M,OVC,M,M,M,1100.00,M,M,M,-RA,M,M,M,M,M,M,35.08,KTPH 010451Z AUTO 17014KT 10SM -RA OVC011 06/05 A2961 RMK AO2 RAB46 P0000,M
P68,2023-01-01 04:53,-116.0056,39.6014,1993.00,30.00,28.00,92.15,350.00,13.00,0.05,29.65,1003.10,M,M,M,M,M,M,M,M,M,M,M,M,M,M,M,M,M,19.01,KP68 010453Z AUTO 35013KT M01/M02 A2965 RMK AO1 SLP031 P0005 T10111022,M
ELY,2023-01-01 04:53,-114.8453,39.2950,1909.00,30.00,30.00,100.00,20.00,11.00,0.04,29.65,1002.80,1.25,M,OVC,M,M,M,1300.00,M,M,M,-SN BR,M,M,M,M,M,M,19.94,KELY 010453Z AUTO 02011KT 1 1/4SM -SN BR OVC013 M01/M01 A2965 RMK AO2 SLP028 P0004 T10111011,M
VGT,2023-01-01 04:53,-115.1933,36.2111,667.00,58.00,43.00,57.51,170.00,15.00,0.00,29.73,1007.80,10.00,20.00,CLR,M,M,M,M,M,M,M,M,M,M,M,M,M,M,57.90,KVGT 010453Z AUTO 17015G20KT 10SM CLR 14/06 A2973 RMK AO2 SLP078 T01440061,M
LOL,2023-01-01 04:53,-118.5701,40.0684,1192.43,37.00,37.00,100.00,300.00,3.00,T,29.70,1006.00,10.00,M,FEW,SCT,OVC,M,1100.00,2400.00,5500.00,M,-RA,M,M,M,M,M,M,34.40,KLOL 010453Z AUTO 30003KT 10SM -RA FEW011 SCT024 OVC055 03/03 A2970 RMK AO2 RAE12B53 SLP060 P0000 T00280028,M
DRA,2023-01-01 04:53,-116.0278,36.6206,1009.00,55.00,40.00,56.66,190.00,24.00,0.00,29.67,1002.50,10.00,35.00,BKN,BKN,OVC,M,4600.00,5500.00,7000.00,M,M,M,M,M,38.00,200.00,2023-01-01 04:02,55.00,KDRA 010453Z AUTO 19024G35KT 10SM BKN046 BKN055 OVC070 13/04 A2967 RMK AO2 PK WND 20038/0402 SLP025 T01280044,M
EKO,2023-01-01 04:54,-115.7860,40.8242,1367.00,33.80,30.20,86.49,40.00,7.00,M,29.70,M,3.00,M,OVC,M,M,M,2401.00,M,M,M,-SN BR,M,M,M,M,M,M,26.97,SPECI KEKO 010454Z 04007KT 3SM -SN BR OVC024 01/M01 A2970 RMK AO2 P0001 FIBI,M
BVU,2023-01-01 04:55,-114.8611,35.9475,671.00,55.40,44.60,66.91,180.00,11.00,0.00,29.78,M,10.00,18.00,FEW,SCT,OVC,M,3400.00,4000.00,5500.00,M,M,M,M,M,M,M,M,55.40,KBVU 010455Z AUTO 18011G18KT 10SM FEW034 SCT040 OVC055 13/07 A2978 RMK AO2,M
INS,2023-01-01 04:55,-115.6733,36.5872,955.00,54.00,39.00,56.74,230.00,17.00,0.00,29.69,1003.40,10.00,22.00,SCT,OVC,M,M,6500.00,9000.00,M,M,M,M,M,M,M,M,M,54.00,KINS 010455Z AUTO 23017G22KT 10SM SCT065 OVC090 12/04 A2969 RMK AO2 SLP034 T01220039 $,M
RNO,2023-01-01 04:55,-119.7711,39.4839,1341.00,34.00,30.90,88.27,260.00,3.00,0.03,29.73,1006.80,1.00,M,SCT,OVC,M,M,600.00,1100.00,M,M,-SN BR,M,M,M,M,M,M,30.97,KRNO 010455Z 26003KT 1SM -SN BR SCT006 OVC011 01/M01 A2973 RMK AO2 SFC VIS 2 SLP068 P0003 T00111006,M
RTS,2023-01-01 04:55,-119.8764,39.6682,1539.00,32.00,32.00,100.00,250.00,7.00,0.02,29.74,M,2.00,M,FEW,SCT,SCT,M,1900.00,2500.00,3100.00,M,-SN,M,M,M,M,M,M,24.78,KRTS 010455Z AUTO 25007KT 2SM -SN FEW019 SCT025 SCT031 M00/00 A2974 RMK AO2 P0002,M
05U,2023-01-01 04:55,-116.0051,39.6042,1811.23,30.20,30.20,100.00,0.00,0.00,0.00,29.67,M,1.50,M,OVC,M,M,M,400.00,M,M,M,BR,M,M,M,M,M,M,30.20,K05U 010455Z AUTO 00000KT 1 1/2SM BR OVC004 M01/M01 A2967 RMK A01,M
MEV,2023-01-01 04:55,-119.7500,38.9963,1441.42,32.00,32.00,100.00,320.00,6.00,0.05,29.73,M,1.00,M,M,M,M,M,M,M,M,M,-SN BR,M,M,M,M,M,M,25.53,KMEV 010455Z AUTO 32006KT 1SM -SN BR 00/00 A2973 RMK AO2 P0005,M
BAM,2023-01-01 04:55,-116.8743,40.5990,1382.36,33.80,33.80,100.00,30.00,3.00,0.00,29.73,M,10.00,M,SCT,BKN,OVC,M,1000.00,1400.00,3000.00,M,M,M,M,M,M,M,M,30.75,KBAM 010455Z AUTO 03003KT 10SM SCT010 BKN014 OVC030 01/01 A2973 RMK AO1,M
TMT,2023-01-01 04:55,-117.1971,39.4643,1749.34,30.90,30.20,97.20,10.00,10.00,0.00,29.65,M,2.50,M,BKN,OVC,M,M,1500.00,2000.00,M,M,-SN,M,M,M,M,M,M,21.59,KTMT 010455Z AUTO 01010KT 2 1/2SM -SN BKN015 OVC020 M01/M01 A2965 RMK AO2 T10061010,M
LSV,2023-01-01 04:55,-115.0343,36.2362,570.00,57.70,44.00,59.95,180.00,16.00,0.00,29.71,1005.40,10.00,M,BKN,M,M,M,7000.00,M,M,M,M,M,M,M,31.00,160.00,2023-01-01 04:16,57.70,KLSV 010455Z AUTO 18016KT 10SM BKN070 14/07 A2971 RMK AO2 PK WND 16031/16 SLP054 T01430066 $,M
EKO,2023-01-01 04:56,-115.7860,40.8242,1367.00,33.00,30.90,91.51,40.00,7.00,0.01,29.70,1006.50,3.00,M,OVC,M,M,M,2400.00,M,M,M,-SN BR,M,M,M,M,M,M,26.12,KEKO 010456Z AUTO 04007KT 3SM -SN BR OVC024 01/M01 A2970 RMK AO2 SLP065 P0001 T00061006,M
WMC,2023-01-01 04:56,-117.8072,40.9019,1315.00,37.00,30.90,78.37,30.00,9.00,0.00,29.71,1005.90,10.00,M,SCT,BKN,OVC,M,2700.00,3300.00,4200.00,M,M,M,M,M,M,M,M,29.73,KWMC 010456Z AUTO 03009KT 10SM SCT027 BKN033 OVC042 03/M01 A2971 RMK AO2 SLP059 T00281006,M
NFL,2023-01-01 04:56,-118.7010,39.4166,1199.00,33.00,32.00,95.67,320.00,10.00,0.03,29.70,1004.00,9.00,M,OVC,M,M,M,2600.00,M,M,M,UP,M,M,M,M,M,M,24.35,KNFL 010456Z AUTO 32010KT 9SM UP OVC026 01/00 A2970 RMK AO2 UPB48SNE48 SLP040 P0003 T00060000 $,M
TPH,2023-01-01 04:56,-117.0904,38.0505,1654.00,42.00,41.00,95.84,180.00,14.00,T,29.62,1001.40,10.00,M,OVC,M,M,M,1100.00,M,M,M,-RA,M,M,M,M,M,M,34.18,KTPH 010456Z AUTO 18014KT 10SM -RA OVC011 06/05 A2962 RMK AO2 RAB46 SLP014 P0000 T00560050,M
HND,2023-01-01 04:56,-115.1344,35.9729,742.79,54.00,44.00,69.09,160.00,17.00,0.00,29.76,1008.70,10.00,23.00,CLR,M,M,M,M,M,M,M,M,M,M,M,28.00,170.00,2023-01-01 04:11,54.00,KHND 010456Z AUTO 16017G23KT 10SM CLR 12/07 A2976 RMK AO2 PK WND 17028/0411 SLP087 T01220067,M
LAS,2023-01-01 04:56,-115.1634,36.0719,663.00,55.00,44.00,66.61,170.00,11.00,0.00,29.73,1005.90,10.00,22.00,FEW,BKN,BKN,OVC,3000.00,4500.00,7000.00,20000.00,M,M,M,M,28.00,180.00,2023-01-01 04:00,55.00,KLAS 010456Z 17011G22KT 10SM FEW030 BKN045 BKN070 OVC200 13/07 A2973 RMK AO2 PK WND 18028/0400 SLP059 T01280067,M
ELY,2023-01-01 05:00,-114.8453,39.2950,1909.00,30.00,30.00,100.00,20.00,16.00,0.01,29.65,M,1.50,23.00,OVC,M,M,M,1400.00,M,M,M,-SN BR,M,M,M,M,M,M,17.81,KELY 010500Z AUTO 02016G23KT 1 1/2SM -SN BR OVC014 M01/M01 A2965 RMK AO2 P0001 T10111011,M
LOL,2023-01-01 05:01,-118.5701,40.0684,1192.43,37.00,37.00,100.00,300.00,3.00,T,29.71,M,10.00,M,FEW,BKN,OVC,M,1100.00,2400.00,5000.00,M,-RA,M,M,M,M,M,M,34.40,KLOL 010501Z AUTO 30003KT 10SM -RA FEW011 BKN024 OVC050 03/03 A2971 RMK AO2 P0000 T00280028,M
INS,2023-01-01 05:03,-115.6733,36.5872,955.00,53.60,39.20,58.02,190.00,21.00,0.00,29.68,1003.00,10.00,37.00,SCT,OVC,M,M,6000.00,9000.00,M,M,M,M,M,M,M,M,M,53.60,KINS 010503Z AUTO 19021G37KT 10SM SCT060 OVC090 12/04 A2968 RMK AO2 WSHFT 0457 SLP030 $,M
INS,2023-01-01 05:04,-115.6733,36.5872,955.00,53.60,39.20,58.02,130.00,11.00,0.00,29.68,1003.00,10.00,37.00,SCT,OVC,M,M,6000.00,9000.00,M,M,M,M,M,M,M,M,M,53.60,KINS 010504Z AUTO 13011G37KT 10SM SCT060 OVC090 12/04 A2968 RMK AO2 WSHFT 04 SLP030 $,M
TPH,2023-01-01 05:04,-117.0904,38.0505,1654.00,42.00,41.00,95.84,170.00,14.00,T,29.61,M,10.00,M,BKN,OVC,M,M,900.00,1300.00,M,M,-RA,M,M,M,M,M,M,34.18,KTPH 010504Z AUTO 17014KT 10SM -RA BKN009 OVC013 06/05 A2961 RMK AO2 CIG 006V011 P0000 T00560050,M
ELY,2023-01-01 05:09,-114.8453,39.2950,1909.00,30.00,30.00,100.00,20.00,11.00,0.01,29.65,M,1.50,M,FEW,OVC,M,M,400.00,1600.00,M,M,-SN BR,M,M,M,M,M,M,19.94,KELY 010509Z AUTO 02011KT 1 1/2SM -SN BR FEW004 OVC016 M01/M01 A2965 RMK AO2 P0001 T10111011,M
NFL,2023-01-01 05:10,-118.7010,39.4166,1199.00,33.00,32.00,95.67,320.00,11.00,T,29.71,M,10.00,M,OVC,M,M,M,3200.00,M,M,M,UP,M,M,M,M,M,M,23.86,KNFL 010510Z AUTO 32011KT 10SM UP OVC032 01/00 A2971 RMK AO2 P0000 T00060000 $,M
BVU,2023-01-01 05:15,-114.8611,35.9475,671.00,55.40,46.40,71.64,190.00,10.00,0.00,29.77,M,10.00,18.00,FEW,SCT,M,M,4100.00,5500.00,M,M,M,M,M,M,M,M,M,55.40,KBVU 010515Z AUTO 19010G18KT 10SM FEW041 SCT055 13/08 A2977 RMK AO2,M
RTS,2023-01-01 05:15,-119.8764,39.6682,1539.00,32.00,32.00,100.00,250.00,4.00,0.00,29.73,M,2.50,M,FEW,FEW,M,M,300.00,1800.00,M,M,-SN,M,M,M,M,M,M,27.42,KRTS 010515Z AUTO 25004KT 2 1/2SM -SN FEW003 FEW018 M00/M00 A2973 RMK AO2,M
05U,2023-01-01 05:15,-116.0051,39.6042,1811.23,30.20,30.20,100.00,0.00,0.00,0.00,29.67,M,1.75,M,OVC,M,M,M,400.00,M,M,M,BR,M,M,M,M,M,M,30.20,K05U 010515Z AUTO 00000KT 1 3/4SM BR OVC004 M01/M01 A2967 RMK A01,M
MEV,2023-01-01 05:15,-119.7500,38.9963,1441.42,32.00,32.00,100.00,320.00,7.00,0.00,29.73,M,0.75,M,M,M,M,M,M,M,M,M,-SN BR,M,M,M,M,M,M,24.78,KMEV 010515Z AUTO 32007KT 3/4SM -SN BR 00/00 A2973 RMK AO2,M
BAM,2023-01-01 05:15,-116.8743,40.5990,1382.36,33.80,33.80,100.00,0.00,0.00,0.00,29.72,M,7.00,M,SCT,OVC,M,M,1200.00,2300.00,M,M,M,M,M,M,M,M,M,33.80,KBAM 010515Z AUTO 00000KT 7SM SCT012 OVC023 01/01 A2972 RMK AO1,M
TMT,2023-01-01 05:15,-117.1971,39.4643,1749.34,30.90,30.20,97.20,360.00,10.00,0.00,29.66,M,4.00,M,OVC,M,M,M,2000.00,M,M,M,-SN,M,M,M,M,M,M,21.59,KTMT 010515Z AUTO 36010KT 4SM -SN OVC020 M01/M01 A2966 RMK AO2 T10061010,M
LOL,2023-01-01 05:20,-118.5701,40.0684,1192.43,37.00,37.00,100.00,0.00,0.00,T,29.71,M,10.00,M,FEW,SCT,OVC,M,1100.00,2300.00,3900.00,M,-RA,M,M,M,M,M,M,37.00,KLOL 010520Z AUTO 00000KT 10SM -RA FEW011 SCT023 OVC039 03/03 A2971 RMK AO2 P0000 T00280028,M
EKO,2023-01-01 05:23,-115.7860,40.8242,1367.00,34.00,30.90,88.27,40.00,8.00,T,29.70,M,6.00,M,OVC,M,M,M,3000.00,M,M,M,-SN BR,M,M,M,M,M,M,26.58,KEKO 010523Z AUTO 04008KT 6SM -SN BR OVC030 01/M01 A2970 RMK AO2 P0000 T00111006,M
ELY,2023-01-01 05:30,-114.8453,39.2950,1909.00,30.00,30.00,100.00,30.00,11.00,0.03,29.65,M,1.25,M,FEW,OVC,M,M,400.00,1800.00,M,M,-SN BR,M,M,M,M,M,M,19.94,KELY 010530Z AUTO 03011KT 1 1/4SM -SN BR FEW004 OVC018 M01/M01 A2965 RMK AO2 P0003 T10111011,M
TPH,2023-01-01 05:32,-117.0904,38.0505,1654.00,42.00,41.00,95.84,180.00,11.00,T,29.61,M,10.00,M,OVC,M,M,M,600.00,M,M,M,M,M,M,M,M,M,M,35.23,KTPH 010532Z AUTO 18011KT 10SM OVC006 06/05 A2961 RMK AO2 RAE21 P0000 T00560050,M
BVU,2023-01-01 05:35,-114.8611,35.9475,671.00,55.40,46.40,71.64,180.00,11.00,0.00,29.77,M,10.00,18.00,CLR,M,M,M,M,M,M,M,M,M,M,M,M,M,M,55.40,KBVU 010535Z AUTO 18011G18KT 10SM CLR 13/08 A2977 RMK AO2,M
RTS,2023-01-01 05:35,-119.8764,39.6682,1539.00,32.00,32.00,100.00,240.00,4.00,0.00,29.74,M,2.50,M,FEW,FEW,SCT,M,300.00,2200.00,3100.00,M,-SN,M,M,M,M,M,M,27.42,KRTS 010535Z AUTO 24004KT 2 1/2SM -SN FEW003 FEW022 SCT031 M00/M00 A2974 RMK AO2,M
05U,2023-01-01 05:35,-116.0051,39.6042,1811.23,30.20,30.20,100.00,0.00,0.00,0.00,29.67,M,0.75,M,OVC,M,M,M,300.00,M,M,M,BR,M,M,M,M,M,M,30.20,K05U 010535Z AUTO 00000KT 3/4SM BR OVC003 M01/M01 A2967 RMK A01,M
MEV,2023-01-01 05:35,-119.7500,38.9963,1441.42,32.00,32.00,100.00,330.00,7.00,0.00,29.72,M,1.25,M,M,M,M,M,M,M,M,M,-SN BR,M,M,M,M,M,M,24.78,KMEV 010535Z AUTO 33007KT 1 1/4SM -SN BR 00/00 A2972 RMK AO2 VIS 3/4V2,M
BAM,2023-01-01 05:35,-116.8743,40.5990,1382.36,33.80,33.80,100.00,50.00,4.00,0.00,29.72,M,10.00,M,OVC,M,M,M,2500.00,M,M,M,M,M,M,M,M,M,M,29.52,KBAM 010535Z AUTO 05004KT 10SM OVC025 01/01 A2972 RMK AO1,M
TMT,2023-01-01 05:35,-117.1971,39.4643,1749.34,30.70,30.00,97.20,360.00,10.00,0.00,29.66,M,2.50,M,OVC,M,M,M,2000.00,M,M,M,-SN,M,M,M,M,M,M,21.34,KTMT 010535Z AUTO 36010KT 2 1/2SM -SN OVC020 M01/M01 A2966 RMK AO2 T10071011,M
ELY,2023-01-01 05:37,-114.8453,39.2950,1909.00,30.00,30.00,100.00,30.00,9.00,0.03,29.66,M,1.75,M,FEW,OVC,M,M,400.00,1800.00,M,M,-SN BR,M,M,M,M,M,M,21.03,KELY 010537Z AUTO 03009KT 1 3/4SM -SN BR FEW004 OVC018 M01/M01 A2966 RMK AO2 P0003 T10111011,M
NFL,2023-01-01 05:41,-118.7010,39.4166,1199.00,33.00,32.00,95.67,340.00,11.00,T,29.70,M,10.00,M,OVC,M,M,M,2800.00,M,M,M,UP,M,M,M,M,M,M,23.86,KNFL 010541Z AUTO 34011KT 10SM UP OVC028 01/00 A2970 RMK AO2 P0000 T00060000 $,M
EKO,2023-01-01 05:45,-115.7860,40.8242,1367.00,33.00,30.90,91.51,40.00,9.00,T,29.69,M,4.00,M,OVC,M,M,M,2800.00,M,M,M,-SN BR,M,M,M,M,M,M,24.88,KEKO 010545Z AUTO 04009KT 4SM -SN BR OVC028 01/M01 A2969 RMK AO2 P0000 T00061006,M
P68,2023-01-01 05:53,-116.0056,39.6014,1993.00,30.00,28.00,92.15,360.00,11.00,0.04,29.64,1002.80,M,M,M,M,M,M,M,M,M,M,M,M,M,M,M,M,M,19.94,KP68 010553Z AUTO 36011KT M01/M02 A2964 RMK AO1 SLP028 P0004 60030 T10111022 10000 21011 58005,M
ELY,2023-01-01 05:53,-114.8453,39.2950,1909.00,30.00,30.00,100.00,20.00,13.00,0.04,29.66,1003.10,1.50,19.00,FEW,OVC,M,M,400.00,1800.00,M,M,-SN BR,M,M,M,M,M,M,19.01,KELY 010553Z AUTO 02013G19KT 1 1/2SM -SN BR FEW004 OVC018 M01/M01 A2966 RMK AO2 SLP031 P0004 60015 T10111011 10033 21011 55000,M
LOL,2023-01-01 05:53,-118.5701,40.0684,1192.43,38.00,37.00,96.52,0.00,0.00,T,29.72,1006.80,10.00,M,OVC,M,M,M,4100.00,M,M,M,-RA,M,M,M,M,M,M,37.90,KLOL 010553Z AUTO 00000KT 10SM -RA OVC041 03/03 A2972 RMK AO2 SLP068 P0000 60004 T00330028 10039 20028 53006,M
TPH,2023-01-01 05:53,-117.0904,38.0505,1654.00,42.80,39.20,86.99,170.00,17.00,T,29.60,M,10.00,24.00,OVC,M,M,M,700.00,M,M,M,M,M,M,M,M,M,M,34.22,KTPH 010553Z AUTO 17017G24KT 10SM OVC007 06/04 A2960 RMK AO2 RAE21 CIG 006V010 P0000,M
DRA,2023-01-01 05:53,-116.0278,36.6206,1009.00,51.00,44.00,76.86,200.00,19.00,0.02,29.68,1002.80,10.00,29.00,OVC,M,M,M,5500.00,M,M,M,-RA,M,M,M,35.00,180.00,2023-01-01 05:31,51.10,KDRA 010553Z AUTO 20019G29KT 10SM -RA OVC055 11/07 A2968 RMK AO2 PK WND 18035/0531 RAB13 SLP028 P0002 60002 T01060067 10139 20106 51006,M
VGT,2023-01-01 05:53,-115.1933,36.2111,667.00,56.00,44.00,64.47,170.00,8.00,0.00,29.73,1007.90,10.00,M,BKN,M,M,M,10000.00,M,M,M,M,M,M,M,M,M,M,55.90,KVGT 010553Z AUTO 17008KT 10SM BKN100 13/07 A2973 RMK AO2 SLP079 T01330067 10167 20133 55008,M
BVU,2023-01-01 05:55,-114.8611,35.9475,671.00,55.40,46.40,71.64,180.00,12.00,0.00,29.77,M,10.00,18.00,BKN,BKN,BKN,M,3800.00,5000.00,5500.00,M,M,M,M,M,M,M,M,55.40,KBVU 010555Z AUTO 18012G18KT 10SM BKN038 BKN050 BKN055 13/08 A2977 RMK AO2,M
RNO,2023-01-01 05:55,-119.7711,39.4839,1341.00,33.00,32.00,95.67,0.00,0.00,0.03,29.73,1007.00,1.00,M,SCT,OVC,M,M,500.00,1500.00,M,M,-SN BR,M,M,M,M,M,M,33.10,KRNO 010555Z 00000KT 1SM -SN BR SCT005 OVC015 01/00 A2973 RMK AO2 SFC VIS 2 SLP070 4/008 P0003 60043 T00060000 10011 20006 50000,8
RTS,2023-01-01 05:55,-119.8764,39.6682,1539.00,32.00,32.00,100.00,320.00,4.00,0.02,29.73,M,2.00,M,SCT,SCT,BKN,M,200.00,2200.00,3100.00,M,-SN,M,M,M,M,M,M,27.42,KRTS 010555Z AUTO 32004KT 2SM -SN SCT002 SCT022 BKN031 M00/00 A2973 RMK AO2 P0002,M
05U,2023-01-01 05:55,-116.0051,39.6042,1811.23,30.20,30.20,100.00,0.00,0.00,0.00,29.66,M,1.00,M,OVC,M,M,M,200.00,M,M,M,BR,M,M,M,M,M,M,30.20,K05U 010555Z AUTO 00000KT 1SM BR OVC002 M01/M01 A2966 RMK A01,M
MEV,2023-01-01 05:55,-119.7500,38.9963,1441.42,32.00,32.00,100.00,320.00,7.00,0.02,29.72,M,1.25,M,OVC,M,M,M,300.00,M,M,M,-SN BR,M,M,M,M,M,M,24.78,KMEV 010555Z AUTO 32007KT 1 1/4SM -SN BR OVC003 00/00 A2972 RMK AO2 P0002,M
BAM,2023-01-01 05:55,-116.8743,40.5990,1382.36,33.80,33.80,100.00,40.00,4.00,0.00,29.73,M,10.00,M,OVC,M,M,M,3000.00,M,M,M,M,M,M,M,M,M,M,29.52,KBAM 010555Z AUTO 04004KT 10SM OVC030 01/01 A2973 RMK AO1,M
LSV,2023-01-01 05:55,-115.0343,36.2362,570.00,56.80,44.40,63.12,180.00,17.00,0.00,29.72,1005.60,10.00,22.00,BKN,OVC,M,M,6000.00,9500.00,M,M,M,M,M,M,27.00,170.00,2023-01-01 05:09,56.80,KLSV 010555Z AUTO 18017G22KT 10SM BKN060 OVC095 14/07 A2972 RMK AO2 PK WND 17027/09 SLP056 T01380069 10156 20138 55003 $,M
TMT,2023-01-01 05:55,-117.1971,39.4643,1749.34,30.70,29.80,96.41,360.00,10.00,0.00,29.66,M,3.00,15.00,OVC,M,M,M,1800.00,M,M,M,-SN,M,M,M,M,M,M,21.34,KTMT 010555Z AUTO 36010G15KT 3SM -SN OVC018 M01/M01 A2966 RMK AO2 60009 T10071012 10000 21007,M
INS,2023-01-01 05:55,-115.6733,36.5872,955.00,52.70,40.00,62.11,110.00,14.00,0.00,29.69,1003.20,10.00,M,OVC,M,M,M,6000.00,M,M,M,M,M,M,M,37.00,180.00,2023-01-01 05:02,52.70,KINS 010555Z AUTO 11014KT 10SM OVC060 12/05 A2969 RMK AO2 PK WND 18037/02 SLP032 T01150045 10152 20110 50002 $,M
EKO,2023-01-01 05:56,-115.7860,40.8242,1367.00,33.00,30.90,91.51,40.00,8.00,T,29.69,1006.00,3.00,M,OVC,M,M,M,2400.00,M,M,M,-SN BR,M,M,M,M,M,M,25.47,KEKO 010556Z AUTO 04008KT 3SM -SN BR OVC024 01/M01 A2969 RMK AO2 SLP060 P0000 60003 T00061006 10017 20006 58009,M
WMC,2023-01-01 05:56,-117.8072,40.9019,1315.00,37.00,30.00,75.56,30.00,10.00,0.00,29.73,1006.40,10.00,17.00,SCT,BKN,OVC,M,2700.00,4700.00,8500.00,M,M,M,M,M,M,M,M,29.24,KWMC 010556Z AUTO 03010G17KT 10SM SCT027 BKN047 OVC085 03/M01 A2973 RMK AO2 SLP064 T00281011 10039 20017 53004,M
NFL,2023-01-01 05:56,-118.7010,39.4166,1199.00,34.00,32.00,92.29,320.00,11.00,T,29.71,1004.10,10.00,M,OVC,M,M,M,2600.00,M,M,M,UP,M,M,M,M,M,M,24.99,KNFL 010556Z AUTO 32011KT 10SM UP OVC026 01/00 A2971 RMK AO2 SLP041 P0000 60029 T00110000 10011 20000 53002 $,M
HND,2023-01-01 05:56,-115.1344,35.9729,742.79,53.00,45.00,73.89,160.00,18.00,0.00,29.75,1008.60,10.00,25.00,CLR,M,M,M,M,M,M,M,M,M,M,M,28.00,170.00,2023-01-01 05:10,53.10,KHND 010556Z AUTO 16018G25KT 10SM CLR 12/07 A2975 RMK AO2 PK WND 17028/0510 SLP086 T01170072 10156 20117 56011,M
LAS,2023-01-01 05:56,-115.1634,36.0719,663.00,54.00,45.00,71.50,180.00,13.00,0.00,29.73,1006.20,10.00,20.00,FEW,BKN,BKN,OVC,3000.00,4500.00,7000.00,20000.00,M,M,M,M,M,M,M,54.00,KLAS 010556Z 18013G20KT 10SM FEW030 BKN045 BKN070 OVC200 12/07 A2973 RMK AO2 SLP062 T01220072 10161 20122 55005,M
TPH,2023-01-01 05:56,-117.0904,38.0505,1654.00,42.00,40.00,91.84,170.00,16.00,T,29.60,1000.70,10.00,24.00,OVC,M,M,M,700.00,M,M,M,M,M,M,M,M,M,M,33.58,KTPH 010556Z AUTO 17016G24KT 10SM OVC007 06/04 A2960 RMK AO2 RAE21 CIG 006V010 SLP007 P0000 60000 T00560044 10061 20056 58005,M
ELY,2023-01-01 06:00,-114.8453,39.2950,1909.00,30.00,28.90,95.61,30.00,12.00,T,29.66,M,1.25,19.00,OVC,M,M,M,1800.00,M,M,M,-SN BR,M,M,M,M,M,M,19.46,KELY 010600Z AUTO 03012G19KT 1 1/4SM -SN BR OVC018 M01/M02 A2966 RMK AO2 P0000 T10111017,M
EKO,2023-01-01 06:03,-115.7860,40.8242,1367.00,33.00,30.90,91.51,40.00,9.00,0.01,29.69,M,2.50,M,OVC,M,M,M,2200.00,M,M,M,-SN BR,M,M,M,M,M,M,24.88,KEKO 010603Z AUTO 04009KT 2 1/2SM -SN BR OVC022 01/M01 A2969 RMK AO2 P0001 T00061006,M
BVU,2023-01-01 06:15,-114.8611,35.9475,671.00,55.40,46.40,71.64,190.00,10.00,0.00,29.77,M,10.00,M,FEW,FEW,SCT,M,3800.00,4400.00,5000.00,M,M,M,M,M,M,M,M,55.40,KBVU 010615Z AUTO 19010KT 10SM FEW038 FEW044 SCT050 13/08 A2977 RMK AO2,M
RTS,2023-01-01 06:15,-119.8764,39.6682,1539.00,32.00,32.00,100.00,290.00,5.00,0.00,29.73,M,2.50,M,FEW,FEW,SCT,M,200.00,2000.00,3300.00,M,-SN,M,M,M,M,M,M,26.40,KRTS 010615Z AUTO 29005KT 2 1/2SM -SN FEW002 FEW020 SCT033 M00/M00 A2973 RMK AO2,M
05U,2023-01-01 06:15,-116.0051,39.6042,1811.23,30.20,30.20,100.00,0.00,0.00,0.00,29.66,M,1.25,M,OVC,M,M,M,200.00,M,M,M,BR,M,M,M,M,M,M,30.20,K05U 010615Z AUTO 00000KT 1 1/4SM BR OVC002 M01/M01 A2966 RMK A01,M
MEV,2023-01-01 06:15,-119.7500,38.9963,1441.42,32.00,32.00,100.00,280.00,5.00,0.00,29.72,M,2.00,M,BKN,OVC,M,M,300.00,2600.00,M,M,-SN BR,M,M,M,M,M,M,26.40,KMEV 010615Z AUTO 28005KT 2SM -SN BR BKN003 OVC026 00/00 A2972 RMK AO2,M
BAM,2023-01-01 06:15,-116.8743,40.5990,1382.36,33.80,33.80,100.00,40.00,5.00,0.00,29.72,M,7.00,M,SCT,SCT,OVC,M,1400.00,2200.00,2800.00,M,M,M,M,M,M,M,M,28.53,KBAM 010615Z AUTO 04005KT 7SM SCT014 SCT022 OVC028 01/01 A2972 RMK AO1,M
TMT,2023-01-01 06:15,-117.1971,39.4643,1749.34,30.60,29.70,96.41,360.00,13.00,0.00,29.65,M,3.00,M,OVC,M,M,M,1900.00,M,M,M,-SN,M,M,M,M,M,M,19.77,KTMT 010615Z AUTO 36013KT 3SM -SN OVC019 M01/M01 A2965 RMK AO2 T10081013,M
ELY,2023-01-01 06:18,-114.8453,39.2950,1909.00,30.00,28.90,95.61,10.00,11.00,0.01,29.65,M,1.75,M,FEW,OVC,M,M,500.00,1700.00,M,M,-SN BR,M,M,M,M,M,M,19.94,KELY 010618Z AUTO 01011KT 1 3/4SM -SN BR FEW005 OVC017 M01/M02 A2965 RMK AO2 P0001 T10111017,M
LOL,2023-01-01 06:19,-118.5701,40.0684,1192.43,37.00,37.00,100.00,30.00,4.00,0.01,29.72,M,8.00,M,FEW,OVC,M,M,2100.00,2900.00,M,M,-RA,M,M,M,M,M,M,33.26,KLOL 010619Z AUTO 03004KT 8SM -RA FEW021 OVC029 03/03 A2972 RMK AO2 P0001 T00280028,M
NFL,2023-01-01 06:19,-118.7010,39.4166,1199.00,34.00,32.00,92.29,330.00,11.00,0.01,29.71,M,10.00,M,OVC,M,M,M,3400.00,M,M,M,UP,M,M,M,M,M,M,24.99,KNFL 010619Z AUTO 33011KT 10SM UP OVC034 01/00 A2971 RMK AO2 P0001 T00110000 $,M
TPH,2023-01-01 06:21,-117.0904,38.0505,1654.00,42.00,41.00,95.84,190.00,15.00,0.00,29.61,M,10.00,M,OVC,M,M,M,600.00,M,M,M,M,M,M,M,M,M,M,33.87,KTPH 010621Z AUTO 19015KT 10SM OVC006 06/05 A2961 RMK AO2 CIG 005V009 T00560050,M
ELY,2023-01-01 06:27,-114.8453,39.2950,1909.00,30.00,28.90,95.61,10.00,14.00,0.01,29.65,M,2.00,19.00,OVC,M,M,M,1800.00,M,M,M,-SN BR,M,M,M,M,M,M,18.58,KELY 010627Z AUTO 01014G19KT 2SM -SN BR OVC018 M01/M02 A2965 RMK AO2 P0001 T10111017,M
LOL,2023-01-01 06:32,-118.5701,40.0684,1192.43,37.00,36.00,96.13,40.00,6.00,0.02,29.73,M,10.00,M,OVC,M,M,M,3100.00,M,M,M,-RA,M,M,M,M,M,M,31.55,KLOL 010632Z AUTO 04006KT 10SM -RA OVC031 03/02 A2973 RMK AO2 P0002 T00280022,M
RNO,2023-01-01 06:33,-119.7711,39.4839,1341.00,33.00,33.00,100.00,0.00,0.00,0.04,29.73,M,1.00,M,SCT,OVC,M,M,500.00,1200.00,M,M,-SN BR,M,M,M,M,M,M,33.10,KRNO 010633Z 00000KT 1SM -SN BR SCT005 OVC012 01/01 A2973 RMK AO2 SFC VIS 1 1/2 P0004 T00060006,M
BVU,2023-01-01 06:35,-114.8611,35.9475,671.00,55.40,44.60,66.91,200.00,14.00,0.00,29.77,M,10.00,20.00,FEW,M,M,M,5500.00,M,M,M,M,M,M,M,M,M,M,55.40,KBVU 010635Z AUTO 20014G20KT 10SM FEW055 13/07 A2977 RMK AO2,M
INS,2023-01-01 06:35,-115.6733,36.5872,955.00,51.80,41.00,66.48,90.00,8.00,0.00,29.69,1003.40,10.00,M,FEW,BKN,BKN,OVC,3300.00,6000.00,7500.00,9500.00,-RA,M,M,M,M,M,M,51.80,KINS 010635Z AUTO 09008KT 10SM -RA FEW033 BKN060 BKN075 OVC095 11/05 A2969 RMK AO2 RAB35 SLP034 $,M
RTS,2023-01-01 06:35,-119.8764,39.6682,1539.00,32.00,32.00,100.00,290.00,5.00,0.00,29.73,M,4.00,M,FEW,SCT,BKN,M,300.00,1000.00,3600.00,M,-SN,M,M,M,M,M,M,26.40,KRTS 010635Z AUTO 29005KT 4SM -SN FEW003 SCT010 BKN036 M00/M00 A2973 RMK AO2,M
05U,2023-01-01 06:35,-116.0051,39.6042,1811.23,30.20,30.20,100.00,0.00,0.00,0.00,29.66,M,1.50,M,OVC,M,M,M,300.00,M,M,M,BR,M,M,M,M,M,M,30.20,K05U 010635Z AUTO 00000KT 1 1/2SM BR OVC003 M01/M01 A2966 RMK A01,M
MEV,2023-01-01 06:35,-119.7500,38.9963,1441.42,32.00,32.00,100.00,250.00,5.00,0.00,29.73,M,1.25,M,OVC,M,M,M,300.00,M,M,M,-SN BR,M,M,M,M,M,M,26.40,KMEV 010635Z AUTO 25005KT 1 1/4SM -SN BR OVC003 00/00 A2973 RMK AO2,M
BAM,2023-01-01 06:35,-116.8743,40.5990,1382.36,33.80,33.80,100.00,360.00,4.00,0.00,29.73,M,3.00,M,SCT,OVC,M,M,1400.00,2200.00,M,M,M,M,M,M,M,M,M,29.52,KBAM 010635Z AUTO 36004KT 3SM SCT014 OVC022 01/01 A2973 RMK AO1,M
TMT,2023-01-01 06:35,-117.1971,39.4643,1749.34,30.60,29.70,96.41,10.00,11.00,0.00,29.66,M,3.00,M,BKN,OVC,M,M,1400.00,2100.00,M,M,-SN,M,M,M,M,M,M,20.70,KTMT 010635Z AUTO 01011KT 3SM -SN BKN014 OVC021 M01/M01 A2966 RMK AO2 T10081013,M
EKO,2023-01-01 06:43,-115.7860,40.8242,1367.00,33.00,30.90,91.51,40.00,13.00,0.01,29.69,M,3.00,M,FEW,OVC,M,M,600.00,2700.00,M,M,-SN BR,M,M,M,M,M,M,22.98,KEKO 010643Z AUTO 04013KT 3SM -SN BR FEW006 OVC027 01/M01 A2969 RMK AO2 P0001 T00061006,M
TPH,2023-01-01 06:49,-117.0904,38.0505,1654.00,42.00,40.00,91.84,180.00,13.00,0.00,29.60,M,10.00,22.00,FEW,OVC,M,M,600.00,1400.00,M,M,M,M,M,M,M,M,M,34.51,KTPH 010649Z AUTO 18013G22KT 10SM FEW006 OVC014 06/04 A2960 RMK AO2 T00560044,M
INS,2023-01-01 06:51,-115.6733,36.5872,955.00,50.00,42.80,76.18,90.00,12.00,0.00,29.67,1002.70,10.00,M,FEW,BKN,OVC,M,4700.00,6000.00,8500.00,M,M,M,M,M,M,M,M,50.00,KINS 010651Z AUTO 09012KT 10SM FEW047 BKN060 OVC085 10/06 A2967 RMK AO2 RAB35E51 PRESFR SLP027 $,M
P68,2023-01-01 06:53,-116.0056,39.6014,1993.00,30.00,28.00,92.15,350.00,7.00,0.03,29.64,1003.00,M,M,M,M,M,M,M,M,M,M,M,M,M,M,M,M,M,22.34,KP68 010653Z AUTO 35007KT M01/M02 A2964 RMK AO1 SLP030 P0003 T10111022,M
DRA,2023-01-01 06:53,-116.0278,36.6206,1009.00,51.00,43.00,73.69,200.00,20.00,0.01,29.68,1002.70,10.00,27.00,SCT,OVC,M,M,4400.00,5500.00,M,M,M,M,M,M,31.00,200.00,2023-01-01 06:05,51.10,KDRA 010653Z AUTO 20020G27KT 10SM SCT044 OVC055 11/06 A2968 RMK AO2 PK WND 20031/0605 RAE47 SLP027 P0001 T01060061,M
ELY,2023-01-01 06:53,-114.8453,39.2950,1909.00,28.90,28.90,100.00,30.00,10.00,0.02,29.65,1002.70,1.50,M,OVC,M,M,M,1600.00,M,M,M,-SN BR,M,M,M,M,M,M,19.08,KELY 010653Z AUTO 03010KT 1 1/2SM -SN BR OVC016 M02/M02 A2965 RMK AO2 SLP027 P0002 T10171017,M
VGT,2023-01-01 06:53,-115.1933,36.2111,667.00,56.00,45.00,66.72,170.00,14.00,T,29.72,1007.60,10.00,20.00,BKN,OVC,M,M,7500.00,9000.00,M,M,-RA,M,M,M,M,M,M,55.90,KVGT 010653Z AUTO 17014G20KT 10SM -RA BKN075 OVC090 13/07 A2972 RMK AO2 RAB53 SLP076 P0000 T01330072,M
LOL,2023-01-01 06:53,-118.5701,40.0684,1192.43,37.00,35.00,92.76,50.00,8.00,0.02,29.73,1007.30,10.00,M,OVC,M,M,M,3500.00,M,M,M,-RA,M,M,M,M,M,M,30.27,KLOL 010653Z AUTO 05008KT 10SM -RA OVC035 03/02 A2973 RMK AO2 SLP073 P0002 T00280017,M
EKO,2023-01-01 06:54,-115.7860,40.8242,1367.00,33.80,30.20,86.49,50.00,9.91,M,29.70,M,2.50,19.05,OVC,M,M,M,2500.00,M,M,M,-SN BR,M,M,M,M,M,M,25.27,SPECI KEKO 010654Z 05010G19KT 2 1/2SM -SN BR OVC025 01/M01 A2970 RMK AO2 P0001 FIBI,M
BVU,2023-01-01 06:55,-114.8611,35.9475,671.00,55.40,44.60,66.91,210.00,8.00,0.00,29.77,M,10.00,16.00,FEW,BKN,M,M,3000.00,5500.00,M,M,M,M,M,M,M,M,M,55.40,KBVU 010655Z AUTO 21008G16KT 10SM FEW030 BKN055 13/07 A2977 RMK AO2,M
INS,2023-01-01 06:55,-115.6733,36.5872,955.00,50.70,42.80,74.22,100.00,13.00,T,29.68,1003.00,10.00,M,FEW,BKN,OVC,M,4900.00,6500.00,9000.00,M,M,M,M,M,26.00,100.00,2023-01-01 05:59,50.70,KINS 010655Z AUTO 10013KT 10SM FEW049 BKN065 OVC090 10/06 A2968 RMK AO2 PK WND 10026/0559 RAB35E51 SLP030 P0000 T01040060 $,M
RTS,2023-01-01 06:55,-119.8764,39.6682,1539.00,32.00,32.00,100.00,300.00,6.00,0.00,29.73,M,10.00,M,FEW,BKN,OVC,M,700.00,3100.00,3800.00,M,M,M,M,M,M,M,M,25.53,KRTS 010655Z AUTO 30006KT 10SM FEW007 BKN031 OVC038 M00/M00 A2973 RMK AO2,M
05U,2023-01-01 06:55,-116.0051,39.6042,1811.23,30.20,30.20,100.00,0.00,0.00,0.00,29.66,M,1.25,M,OVC,M,M,M,200.00,M,M,M,BR,M,M,M,M,M,M,30.20,K05U 010655Z AUTO 00000KT 1 1/4SM BR OVC002 M01/M01 A2966 RMK A01,M
MEV,2023-01-01 06:55,-119.7500,38.9963,1441.42,32.00,32.00,100.00,310.00,6.00,0.01,29.73,M,0.75,M,OVC,M,M,M,300.00,M,M,M,-SN BR,M,M,M,M,M,M,25.53,KMEV 010655Z AUTO 31006KT 3/4SM -SN BR OVC003 00/00 A2973 RMK AO2 P0001,M
BAM,2023-01-01 06:55,-116.8743,40.5990,1382.36,33.80,33.80,100.00,10.00,5.00,0.00,29.74,M,4.00,M,OVC,M,M,M,1900.00,M,M,M,M,M,M,M,M,M,M,28.53,KBAM 010655Z AUTO 01005KT 4SM OVC019 01/01 A2974 RMK AO1,M
TMT,2023-01-01 06:55,-117.1971,39.4643,1749.34,30.60,29.50,95.62,360.00,11.00,0.00,29.67,M,3.00,M,SCT,BKN,OVC,M,1000.00,1600.00,2100.00,M,-SN,M,M,M,M,M,M,20.70,KTMT 010655Z AUTO 36011KT 3SM -SN SCT010 BKN016 OVC021 M01/M01 A2967 RMK AO2 T10081014,M
LSV,2023-01-01 06:55,-115.0343,36.2362,570.00,56.70,45.50,66.06,190.00,24.00,0.00,29.70,1004.90,10.00,28.00,SCT,BKN,OVC,M,7000.00,9500.00,14000.00,M,M,M,M,M,29.00,180.00,2023-01-01 06:43,56.70,KLSV 010655Z AUTO 19024G28KT 10SM SCT070 BKN095 OVC140 14/08 A2970 RMK AO2 PK WND 18029/43 SLP049 T01370075 $,M
RNO,2023-01-01 06:55,-119.7711,39.4839,1341.00,33.00,32.00,95.67,0.00,0.00,0.06,29.73,1007.40,1.00,M,SCT,OVC,M,M,500.00,1200.00,M,M,-SN BR,M,M,M,M,M,M,33.10,KRNO 010655Z 00000KT 1SM -SN BR SCT005 OVC012 01/00 A2973 RMK AO2 SFC VIS 1 1/2 SLP074 P0006 T00060000,M
EKO,2023-01-01 06:56,-115.7860,40.8242,1367.00,33.00,30.00,88.23,40.00,10.00,0.01,29.70,1006.50,2.50,18.00,OVC,M,M,M,2500.00,M,M,M,-SN BR,M,M,M,M,M,M,24.35,KEKO 010656Z AUTO 04010G18KT 2 1/2SM -SN BR OVC025 01/M01 A2970 RMK AO2 SLP065 P0001 T00061011,M
WMC,2023-01-01 06:56,-117.8072,40.9019,1315.00,36.00,28.00,72.43,10.00,8.00,0.00,29.74,1006.80,10.00,M,OVC,M,M,M,9000.00,M,M,M,M,M,M,M,M,M,M,29.04,KWMC 010656Z AUTO 01008KT 10SM OVC090 02/M02 A2974 RMK AO2 SLP068 T00221022,M
NFL,2023-01-01 06:56,-118.7010,39.4166,1199.00,33.00,32.00,95.67,330.00,9.00,0.01,29.71,1004.10,10.00,M,OVC,M,M,M,2800.00,M,M,M,UP,M,M,M,M,M,M,24.88,KNFL 010656Z AUTO 33009KT 10SM UP OVC028 01/00 A2971 RMK AO2 SLP041 P0001 T00060000 $,M
HND,2023-01-01 06:56,-115.1344,35.9729,742.79,53.00,45.00,73.89,160.00,20.00,0.00,29.74,1008.00,10.00,25.00,FEW,SCT,SCT,M,3900.00,4800.00,11000.00,M,M,M,M,M,26.00,170.00,2023-01-01 06:32,53.10,KHND 010656Z AUTO 16020G25KT 10SM FEW039 SCT048 SCT110 12/07 A2974 RMK AO2 PK WND 17026/0632 SLP080 T01170072 401720078,M
LAS,2023-01-01 06:56,-115.1634,36.0719,663.00,55.00,45.00,68.93,170.00,11.00,0.00,29.72,1005.50,10.00,23.00,FEW,BKN,BKN,M,3000.00,4500.00,9500.00,M,M,M,M,M,M,M,M,55.00,KLAS 010656Z 17011G23KT 10SM FEW030 BKN045 BKN095 13/07 A2972 RMK AO2 SLP055 T01280072,M
TPH,2023-01-01 06:56,-117.0904,38.0505,1654.00,42.00,40.00,91.84,180.00,13.00,0.00,29.59,1000.40,10.00,M,SCT,OVC,M,M,600.00,1400.00,M,M,M,M,M,M,M,M,M,34.51,KTPH 010656Z AUTO 18013KT 10SM SCT006 OVC014 06/04 A2959 RMK AO2 SLP004 T00560044,M
INS,2023-01-01 07:03,-115.6733,36.5872,955.00,50.00,42.80,76.18,90.00,16.00,0.00,29.67,1002.70,10.00,21.00,FEW,SCT,BKN,OVC,3300.00,4900.00,6500.00,9000.00,-RA,M,M,M,M,M,M,50.00,KINS 010703Z AUTO 09016G21KT 10SM -RA FEW033 SCT049 BKN065 OVC090 10/06 A2967 RMK AO2 RAB03 SLP027 $,M
TPH,2023-01-01 07:03,-117.0904,38.0505,1654.00,42.00,40.00,91.84,190.00,15.00,0.00,29.59,M,10.00,M,SCT,OVC,M,M,600.00,1500.00,M,M,M,M,M,M,M,M,M,33.87,KTPH 010703Z AUTO 19015KT 10SM SCT006 OVC015 06/04 A2959 RMK AO2 T00560044,M
EKO,2023-01-01 07:06,-115.7860,40.8242,1367.00,33.00,30.90,91.51,50.00,8.00,T,29.70,M,2.00,M,FEW,OVC,M,M,500.00,2500.00,M,M,-SN BR,M,M,M,M,M,M,25.47,KEKO 010706Z AUTO 05008KT 2SM -SN BR FEW005 OVC025 01/M01 A2970 RMK AO2 P0000 T00061006,M
LSV,2023-01-01 07:08,-115.0343,36.2362,570.00,57.20,46.40,67.12,180.00,22.00,0.00,29.69,1004.40,10.00,M,FEW,BKN,M,M,7000.00,9000.00,M,M,-RA,M,M,M,M,M,M,57.20,KLSV 010708Z AUTO 18022KT 10SM -RA FEW070 BKN090 14/08 A2969 RMK AO2 RAB08 SLP044 $,M
ELY,2023-01-01 07:09,-114.8453,39.2950,1909.00,28.90,28.90,100.00,10.00,10.00,T,29.64,M,1.75,M,OVC,M,M,M,1400.00,M,M,M,-SN BR,M,M,M,M,M,M,19.08,KELY 010709Z AUTO 01010KT 1 3/4SM -SN BR OVC014 M02/M02 A2964 RMK AO2 P0000 T10171017,M
05U,2023-01-01 07:10,-116.0051,39.6042,1811.23,30.20,30.20,100.00,0.00,0.00,0.00,29.66,M,1.75,M,OVC,M,M,M,300.00,M,M,M,BR,M,M,M,M,M,M,30.20,K05U 010710Z AUTO 00000KT 1 3/4SM BR OVC003 M01/M01 A2966 RMK A01,M
ELY,2023-01-01 07:13,-114.8453,39.2950,1909.00,28.90,28.90,100.00,20.00,11.00,T,29.64,M,2.00,M,OVC,M,M,M,1500.00,M,M,M,-SN BR,M,M,M,M,M,M,18.55,KELY 010713Z AUTO 02011KT 2SM -SN BR OVC015 M02/M02 A2964 RMK AO2 P0000 T10171017,M
EKO,2023-01-01 07:14,-115.7860,40.8242,1367.00,33.00,30.90,91.51,40.00,9.00,0.01,29.70,M,1.50,M,SCT,BKN,OVC,M,500.00,1200.00,2300.00,M,-SN BR,M,M,M,M,M,M,24.88,KEKO 010714Z AUTO 04009KT 1 1/2SM -SN BR SCT005 BKN012 OVC023 01/M01 A2970 RMK AO2 P0001 T00061006,M
BVU,2023-01-01 07:15,-114.8611,35.9475,671.00,55.40,46.40,71.64,0.00,0.00,0.00,29.75,M,10.00,12.00,FEW,FEW,OVC,M,3000.00,4800.00,6000.00,M,M,M,M,M,M,M,M,55.40,KBVU 010715Z AUTO 00000G12KT 10SM FEW030 FEW048 OVC060 13/08 A2975 RMK AO2,M
RTS,2023-01-01 07:15,-119.8764,39.6682,1539.00,32.00,32.00,100.00,0.00,0.00,0.00,29.74,M,10.00,M,FEW,SCT,BKN,M,1400.00,2100.00,2600.00,M,M,M,M,M,M,M,M,32.00,KRTS 010715Z AUTO 00000KT 10SM FEW014 SCT021 BKN026 M00/00 A2974 RMK AO2,M
MEV,2023-01-01 07:15,-119.7500,38.9963,1441.42,32.00,32.00,100.00,0.00,0.00,0.00,29.73,M,1.00,M,OVC,M,M,M,300.00,M,M,M,-SN BR,M,M,M,M,M,M,32.00,KMEV 010715Z AUTO 00000KT 1SM -SN BR OVC003 00/00 A2973 RMK AO2,M
BAM,2023-01-01 07:15,-116.8743,40.5990,1382.36,33.80,33.80,100.00,20.00,4.00,0.00,29.74,M,5.00,M,OVC,M,M,M,2100.00,M,M,M,M,M,M,M,M,M,M,29.52,KBAM 010715Z AUTO 02004KT 5SM OVC021 01/01 A2974 RMK AO1,M
TMT,2023-01-01 07:15,-117.1971,39.4643,1749.34,30.60,29.70,96.41,360.00,9.00,0.00,29.67,M,4.00,M,OVC,M,M,M,1800.00,M,M,M,-SN,M,M,M,M,M,M,21.77,KTMT 010715Z AUTO 36009KT 4SM -SN OVC018 M01/M01 A2967 RMK AO2 T10081013,M
TPH,2023-01-01 07:17,-117.0904,38.0505,1654.00,42.00,40.00,91.84,180.00,15.00,0.00,29.59,M,10.00,M,FEW,BKN,OVC,M,700.00,1400.00,2100.00,M,M,M,M,M,M,M,M,33.87,KTPH 010717Z AUTO 18015KT 10SM FEW007 BKN014 OVC021 06/04 A2959 RMK AO2 T00560044,M
INS,2023-01-01 07:18,-115.6733,36.5872,955.00,50.00,42.80,76.18,130.00,19.00,0.00,29.67,1002.70,10.00,27.00,FEW,SCT,BKN,BKN,400.00,3300.00,4100.00,5000.00,-RA,M,M,M,M,M,M,50.00,KINS 010718Z AUTO 13019G27KT 10SM -RA FEW004 SCT033 BKN041 BKN050 BKN060 OVC070 10/06 A2967 RMK AO2 WSHFT 04 RAB03 SLP027 $,M
LSV,2023-01-01 07:18,-115.0343,36.2362,570.00,55.40,46.40,71.64,190.00,18.00,0.00,29.68,1004.20,10.00,M,FEW,SCT,M,M,7000.00,9000.00,M,M,M,M,M,M,M,M,M,55.40,KLSV 010718Z AUTO 19018KT 10SM FEW070 SCT090 13/08 A2968 RMK AO2 RAB08E18 SLP042 $,M
EKO,2023-01-01 07:26,-115.7860,40.8242,1367.00,33.00,30.00,88.23,30.00,13.00,0.01,29.69,M,2.00,M,SCT,SCT,OVC,M,500.00,1200.00,2100.00,M,-SN BR,M,M,M,M,M,M,22.98,KEKO 010726Z AUTO 03013KT 2SM -SN BR SCT005 SCT012 OVC021 01/M01 A2969 RMK AO2 P0001 T00061011,M
NFL,2023-01-01 07:33,-118.7010,39.4166,1199.00,34.00,32.00,92.29,330.00,9.00,T,29.69,M,10.00,M,OVC,M,M,M,3300.00,M,M,M,UP,M,M,M,M,M,M,26.00,KNFL 010733Z AUTO 33009KT 10SM UP OVC033 01/00 A2969 RMK AO2 P0000 T00110000 $,M
TPH,2023-01-01 07:34,-117.0904,38.0505,1654.00,41.00,40.00,95.82,180.00,13.00,0.00,29.58,M,10.00,M,FEW,BKN,OVC,M,1000.00,1500.00,2900.00,M,M,M,M,M,M,M,M,33.10,KTPH 010734Z AUTO 18013KT 10SM FEW010 BKN015 OVC029 05/04 A2958 RMK AO2 T00500044,M
BVU,2023-01-01 07:35,-114.8611,35.9475,671.00,55.40,46.40,71.64,M,3.00,0.00,29.73,M,10.00,M,FEW,BKN,OVC,M,4700.00,6000.00,12000.00,M,M,M,M,M,M,M,M,55.40,KBVU 010735Z AUTO VRB03KT 10SM FEW047 BKN060 OVC120 13/08 A2973 RMK AO2,M
RTS,2023-01-01 07:35,-119.8764,39.6682,1539.00,32.00,32.00,100.00,0.00,0.00,0.00,29.74,M,2.50,M,FEW,SCT,BKN,M,300.00,1500.00,2200.00,M,-SN,M,M,M,M,M,M,32.00,KRTS 010735Z AUTO 00000KT 2 1/2SM -SN FEW003 SCT015 BKN022 M00/M00 A2974 RMK AO2,M
05U,2023-01-01 07:35,-116.0051,39.6042,1811.23,30.20,30.20,100.00,0.00,0.00,0.00,29.66,M,2.00,M,OVC,M,M,M,400.00,M,M,M,BR,M,M,M,M,M,M,30.20,K05U 010735Z AUTO 00000KT 2SM BR OVC004 M01/M01 A2966 RMK A01,M
MEV,2023-01-01 07:35,-119.7500,38.9963,1441.42,32.00,32.00,100.00,290.00,3.00,0.00,29.73,M,1.50,M,OVC,M,M,M,300.00,M,M,M,-SN BR,M,M,M,M,M,M,28.69,KMEV 010735Z AUTO 29003KT 1 1/2SM -SN BR OVC003 00/00 A2973 RMK AO2,M
BAM,2023-01-01 07:35,-116.8743,40.5990,1382.36,33.80,33.80,100.00,30.00,4.00,0.00,29.75,M,2.00,M,SCT,OVC,M,M,800.00,1700.00,M,M,M,M,M,M,M,M,M,29.52,KBAM 010735Z AUTO 03004KT 2SM SCT008 OVC017 01/01 A2975 RMK AO1,M
INS,2023-01-01 07:35,-115.6733,36.5872,955.00,50.00,44.60,81.61,130.00,18.00,0.00,29.66,1002.30,10.00,27.00,FEW,BKN,OVC,M,4000.00,5500.00,7000.00,M,M,M,M,M,M,M,M,50.00,KINS 010735Z AUTO 13018G27KT 10SM FEW040 BKN055 OVC070 10/07 A2966 RMK AO2 RAB03E35 SLP023 $,M
TMT,2023-01-01 07:35,-117.1971,39.4643,1749.34,30.20,29.30,96.40,10.00,10.00,0.00,29.66,M,7.00,M,SCT,SCT,OVC,M,700.00,1500.00,2000.00,M,-SN,M,M,M,M,M,M,20.71,KTMT 010735Z AUTO 01010KT 7SM -SN SCT007 SCT015 OVC020 M01/M01 A2966 RMK AO2 T10101015,M
ELY,2023-01-01 07:40,-114.8453,39.2950,1909.00,28.90,28.90,100.00,20.00,10.00,0.01,29.64,M,1.25,M,OVC,M,M,M,1500.00,M,M,M,-SN BR,M,M,M,M,M,M,19.08,KELY 010740Z AUTO 02010KT 1 1/4SM -SN BR OVC015 M02/M02 A2964 RMK AO2 P0001 T10171017,M
INS,2023-01-01 07:49,-115.6733,36.5872,955.00,50.00,44.60,81.61,120.00,11.00,0.00,29.66,1002.30,10.00,M,FEW,BKN,OVC,M,4000.00,5000.00,6500.00,M,-RA,M,M,M,M,M,M,50.00,KINS 010749Z AUTO 12011KT 10SM -RA FEW040 BKN050 OVC065 10/07 A2966 RMK AO2 RAB03E35RAB49 SLP023 $,M
LSV,2023-01-01 07:50,-115.0343,36.2362,570.00,55.40,46.40,71.64,190.00,17.00,0.00,29.67,1003.90,10.00,M,FEW,M,M,M,6000.00,M,M,M,-RA,M,M,M,M,M,M,55.40,KLSV 010750Z AUTO 19017KT 10SM -RA FEW060 13/08 A2967 RMK AO2 RAB08E18RAB50 SLP039 $,M
RNO,2023-01-01 07:52,-119.7711,39.4839,1341.00,33.80,32.00,93.03,0.00,0.00,0.03,29.73,M,0.75,M,VV ,M,M,M,1900.00,M,M,M,-SN BR,M,M,M,M,M,M,33.80,KRNO 010752Z 00000KT 3/4SM -SN BR VV019 01/00 A2973 RMK AO2 P0003 RVRNO,M
P68,2023-01-01 07:53,-116.0056,39.6014,1993.00,30.00,28.00,92.15,350.00,11.00,0.01,29.62,1002.50,M,M,M,M,M,M,M,M,M,M,M,M,M,M,M,M,M,19.94,KP68 010753Z AUTO 35011KT M01/M02 A2962 RMK AO1 SLP025 P0001 T10111022 400331011,M
ELY,2023-01-01 07:53,-114.8453,39.2950,1909.00,28.90,28.90,100.00,30.00,13.00,0.03,29.63,1002.30,1.25,M,OVC,M,M,M,1400.00,M,M,M,-SN BR,M,M,M,M,M,M,17.60,KELY 010753Z AUTO 03013KT 1 1/4SM -SN BR OVC014 M02/M02 A2963 RMK AO2 SLP023 P0003 T10171017 400441017,M
LOL,2023-01-01 07:53,-118.5701,40.0684,1192.43,36.00,34.00,92.35,20.00,9.00,T,29.72,1007.10,10.00,M,OVC,M,M,M,3500.00,M,M,M,-RA,M,M,M,M,M,M,28.49,KLOL 010753Z AUTO 02009KT 10SM -RA OVC035 02/01 A2972 RMK AO2 SLP071 P0000 T00220011 400890022,M
VGT,2023-01-01 07:53,-115.1933,36.2111,667.00,55.00,47.00,74.08,190.00,5.00,0.01,29.69,1006.40,10.00,M,BKN,OVC,M,M,6000.00,7500.00,M,M,-RA,M,M,M,M,M,M,55.00,KVGT 010753Z AUTO 19005KT 10SM -RA BKN060 OVC075 13/08 A2969 RMK AO2 SLP064 P0001 T01280083 401780072,M
DRA,2023-01-01 07:53,-116.0278,36.6206,1009.00,49.00,44.00,83.42,190.00,14.00,0.04,29.66,1002.00,8.00,25.00,OVC,M,M,M,4300.00,M,M,M,-RA,M,M,M,26.00,190.00,2023-01-01 07:25,42.95,KDRA 010753Z AUTO 19014G25KT 8SM -RA OVC043 09/07 A2966 RMK AO2 PK WND 19026/0725 RAB01 SLP020 P0004 T00940067 401560061,M
BVU,2023-01-01 07:55,-114.8611,35.9475,671.00,55.40,46.40,71.64,180.00,9.00,0.00,29.72,M,10.00,16.00,FEW,BKN,BKN,M,3700.00,5500.00,11000.00,M,M,M,M,M,M,M,M,55.40,KBVU 010755Z AUTO 18009G16KT 10SM FEW037 BKN055 BKN110 13/08 A2972 RMK AO2,M
RNO,2023-01-01 07:55,-119.7711,39.4839,1341.00,33.00,32.00,95.67,0.00,0.00,0.04,29.73,1007.10,0.75,M,VV ,M,M,M,1800.00,M,M,M,-SN BR,M,M,M,M,M,M,33.10,KRNO 010755Z 00000KT 3/4SM -SN BR VV018 01/00 A2973 RMK AO2 SLP071 P0004 T00060000 400890006 RVRNO,M
RTS,2023-01-01 07:55,-119.8764,39.6682,1539.00,32.00,32.00,100.00,0.00,0.00,0.00,29.73,M,5.00,M,FEW,FEW,BKN,M,600.00,1800.00,2500.00,M,-SN,M,M,M,M,M,M,32.00,KRTS 010755Z AUTO 00000KT 5SM -SN FEW006 FEW018 BKN025 M00/M00 A2973 RMK AO2,M
05U,2023-01-01 07:55,-116.0051,39.6042,1811.23,30.20,30.20,100.00,0.00,0.00,0.00,29.65,M,2.50,M,OVC,M,M,M,400.00,M,M,M,BR,M,M,M,M,M,M,30.20,K05U 010755Z AUTO 00000KT 2 1/2SM BR OVC004 M01/M01 A2965 RMK A01,M
MEV,2023-01-01 07:55,-119.7500,38.9963,1441.42,32.00,32.00,100.00,320.00,4.00,0.03,29.72,M,1.50,M,OVC,M,M,M,300.00,M,M,M,-SN BR,M,M,M,M,M,M,27.42,KMEV 010755Z AUTO 32004KT 1 1/2SM -SN BR OVC003 00/00 A2972 RMK AO2 P0003,M
BAM,2023-01-01 07:55,-116.8743,40.5990,1382.36,33.80,33.80,100.00,360.00,5.00,0.00,29.73,M,1.75,M,BKN,BKN,OVC,M,500.00,900.00,1800.00,M,M,M,M,M,M,M,M,28.53,KBAM 010755Z AUTO 36005KT 1 3/4SM BKN005 BKN009 OVC018 01/01 A2973 RMK AO1,M
TMT,2023-01-01 07:55,-117.1971,39.4643,1749.34,30.20,29.30,96.40,10.00,12.00,0.00,29.67,M,5.00,M,SCT,BKN,OVC,M,1600.00,2200.00,3000.00,M,-SN,M,M,M,M,M,M,19.71,KTMT 010755Z AUTO 01012KT 5SM -SN SCT016 BKN022 OVC030 M01/M01 A2967 RMK AO2 T10101015 400401010,M
INS,2023-01-01 07:55,-115.6733,36.5872,955.00,49.00,44.60,85.02,130.00,14.00,T,29.66,1002.30,10.00,18.00,FEW,OVC,M,M,4000.00,5000.00,M,M,-RA,M,M,M,30.00,130.00,2023-01-01 07:22,42.95,KINS 010755Z AUTO 13014G18KT 10SM -RA FEW040 OVC050 09/07 A2966 RMK AO2 PK WND 13030/22 RAB03E35RAB49 SLP023 P0000 T00940070 401520069 $,M
LSV,2023-01-01 07:55,-115.0343,36.2362,570.00,56.00,46.00,69.04,190.00,15.00,T,29.67,1003.90,10.00,M,SCT,M,M,M,6000.00,M,M,M,-RA,M,M,M,29.00,180.00,2023-01-01 06:56,55.90,KLSV 010755Z AUTO 19015KT 10SM -RA SCT060 13/08 A2967 RMK AO2 PK WND 18029/0656 RAB08E18RAB50 SLP039 P0000 T01330077 401640109 $,M
EKO,2023-01-01 07:56,-115.7860,40.8242,1367.00,32.00,30.00,92.22,40.00,12.00,0.02,29.69,1006.40,2.00,19.00,OVC,M,M,M,2700.00,M,M,M,-SN BR,M,M,M,M,M,M,22.00,KEKO 010756Z AUTO 04012G19KT 2SM -SN BR OVC027 00/M01 A2969 RMK AO2 SLP064 P0002 T00001011 400390000,M
WMC,2023-01-01 07:56,-117.8072,40.9019,1315.00,35.00,28.00,75.06,30.00,12.00,0.00,29.74,1007.10,10.00,M,OVC,M,M,M,7500.00,M,M,M,M,M,M,M,M,M,M,25.95,KWMC 010756Z AUTO 03012KT 10SM OVC075 02/M02 A2974 RMK AO2 SLP071 T00171022 401060011,M
NFL,2023-01-01 07:56,-118.7010,39.4166,1199.00,34.00,32.00,92.29,320.00,10.00,T,29.69,1003.50,10.00,M,BKN,OVC,M,M,4900.00,7500.00,M,M,M,M,M,M,M,M,M,25.48,KNFL 010756Z AUTO 32010KT 10SM BKN049 OVC075 01/00 A2969 RMK AO2 UPE56 SLP035 P0000 T00110000 400890000 $,M
HND,2023-01-01 07:56,-115.1344,35.9729,742.79,54.00,45.00,71.50,160.00,12.00,0.00,29.71,1006.90,10.00,19.00,BKN,OVC,M,M,6000.00,10000.00,M,M,M,M,M,M,M,M,M,54.00,KHND 010756Z AUTO 16012G19KT 10SM BKN060 OVC100 12/07 A2971 RMK AO2 SLP069 T01220072,M
TPH,2023-01-01 07:56,-117.0904,38.0505,1654.00,41.00,40.00,95.82,180.00,13.00,0.00,29.58,1000.10,10.00,18.00,SCT,BKN,OVC,M,800.00,1500.00,3100.00,M,M,M,M,M,M,M,M,33.10,KTPH 010756Z AUTO 18013G18KT 10SM SCT008 BKN015 OVC031 05/04 A2958 RMK AO2 SLP001 T00500044 400670033,M
LAS,2023-01-01 07:56,-115.1634,36.0719,663.00,55.00,44.00,66.61,170.00,8.00,0.00,29.69,1004.50,10.00,20.00,FEW,BKN,BKN,M,3000.00,6000.00,8000.00,M,M,M,M,M,M,M,M,55.00,KLAS 010756Z 17008G20KT 10SM FEW030 BKN060 BKN080 13/07 A2969 RMK AO2 SLP045 T01280067 401720067,M
LSV,2023-01-01 07:58,-115.0343,36.2362,570.00,55.40,46.40,71.64,190.00,14.00,0.00,29.67,1003.90,10.00,M,BKN,M,M,M,6000.00,M,M,M,M,M,M,M,M,M,M,55.40,KLSV 010758Z AUTO 19014KT 10SM BKN060 13/08 A2967 RMK AO2 RAE58 SLP039 $,M
ELY,2023-01-01 08:01,-114.8453,39.2950,1909.00,28.90,28.90,100.00,30.00,12.00,T,29.63,M,1.50,M,OVC,M,M,M,1400.00,M,M,M,-SN BR,M,M,M,M,M,M,18.06,KELY 010801Z AUTO 03012KT 1 1/2SM -SN BR OVC014 M02/M02 A2963 RMK AO2 P0000 T10171017,M
INS,2023-01-01 08:06,-115.6733,36.5872,955.00,48.20,44.60,87.28,130.00,12.00,0.00,29.66,1002.50,10.00,M,FEW,OVC,M,M,4000.00,5000.00,M,M,M,M,M,M,M,M,M,42.62,KINS 010806Z AUTO 13012KT 10SM FEW040 OVC050 09/07 A2966 RMK AO2 RAE06 SLP025 $,M
RNO,2023-01-01 08:06,-119.7711,39.4839,1341.00,33.00,32.00,95.67,150.00,4.00,T,29.73,M,0.75,M,SCT,OVC,M,M,500.00,1600.00,M,M,-SN BR,M,M,M,M,M,M,28.70,KRNO 010806Z 15004KT 3/4SM -SN BR SCT005 OVC016 01/00 A2973 RMK AO2 P0000 T00060000 RVRNO,M
LSV,2023-01-01 08:09,-115.0343,36.2362,570.00,55.40,46.40,71.64,190.00,14.00,0.00,29.66,1003.50,10.00,M,BKN,M,M,M,6000.00,M,M,M,-RA,M,M,M,M,M,M,55.40,KLSV 010809Z AUTO 19014KT 10SM -RA BKN060 13/08 A2966 RMK AO2 RAE0758RAB09 SLP035 $,M
BVU,2023-01-01 08:15,-114.8611,35.9475,671.00,55.40,46.40,71.64,170.00,15.00,0.00,29.71,M,10.00,M,SCT,BKN,OVC,M,5500.00,7000.00,10000.00,M,M,M,M,M,M,M,M,55.40,KBVU 010815Z AUTO 17015KT 10SM SCT055 BKN070 OVC100 13/08 A2971 RMK AO2,M
RTS,2023-01-01 08:15,-119.8764,39.6682,1539.00,32.00,32.00,100.00,0.00,0.00,0.00,29.73,M,6.00,M,FEW,SCT,BKN,M,1000.00,1500.00,2000.00,M,-SN,M,M,M,M,M,M,32.00,KRTS 010815Z AUTO 00000KT 6SM -SN FEW010 SCT015 BKN020 M00/M00 A2973 RMK AO2,M
05U,2023-01-01 08:15,-116.0051,39.6042,1811.23,30.20,30.20,100.00,0.00,0.00,0.00,29.65,M,2.00,M,OVC,M,M,M,400.00,M,M,M,BR,M,M,M,M,M,M,30.20,K05U 010815Z AUTO 00000KT 2SM BR OVC004 M01/M01 A2965 RMK A01,M
MEV,2023-01-01 08:15,-119.7500,38.9963,1441.42,32.00,32.00,100.00,280.00,4.00,0.00,29.71,M,1.75,M,BKN,OVC,M,M,300.00,900.00,M,M,-SN BR,M,M,M,M,M,M,27.42,KMEV 010815Z AUTO 28004KT 1 3/4SM -SN BR BKN003 OVC009 00/00 A2971 RMK AO2,M
BAM,2023-01-01 08:15,-116.8743,40.5990,1382.36,33.80,33.80,100.00,350.00,6.00,0.00,29.72,M,2.50,M,BKN,OVC,M,M,500.00,900.00,M,M,M,M,M,M,M,M,M,27.70,KBAM 010815Z AUTO 35006KT 2 1/2SM BKN005 OVC009 01/01 A2972 RMK AO1,M
TMT,2023-01-01 08:15,-117.1971,39.4643,1749.34,30.20,29.10,95.62,360.00,10.00,0.00,29.65,M,10.00,M,SCT,OVC,M,M,2000.00,2900.00,M,M,-SN,M,M,M,M,M,M,20.71,KTMT 010815Z AUTO 36010KT 10SM -SN SCT020 OVC029 M01/M02 A2965 RMK AO2 T10101016,M
INS,2023-01-01 08:16,-115.6733,36.5872,955.00,48.20,44.60,87.28,120.00,8.00,0.00,29.65,1002.00,10.00,M,OVC,M,M,M,4800.00,M,M,M,-RA,M,M,M,M,M,M,44.07,KINS 010816Z AUTO 12008KT 10SM -RA OVC048 09/07 A2965 RMK AO2 RAE06RAB16 SLP020 $,M
RNO,2023-01-01 08:17,-119.7711,39.4839,1341.00,33.00,32.00,95.67,0.00,0.00,T,29.72,M,0.75,M,BKN,OVC,M,M,500.00,1600.00,M,M,-SN BR,M,M,M,M,M,M,33.10,KRNO 010817Z 00000KT 3/4SM -SN BR BKN005 OVC016 01/00 A2972 RMK AO2 P0000 T00060000 RVRNO,M
EKO,2023-01-01 08:18,-115.7860,40.8242,1367.00,32.00,28.90,88.17,30.00,14.00,T,29.69,M,1.25,22.00,OVC,M,M,M,2200.00,M,M,M,-SN BR,M,M,M,M,M,M,21.16,KEKO 010818Z AUTO 03014G22KT 1 1/4SM -SN BR OVC022 00/M02 A2969 RMK AO2 P0000 T00001017,M
ELY,2023-01-01 08:21,-114.8453,39.2950,1909.00,28.90,28.90,100.00,20.00,11.00,0.01,29.62,M,2.50,M,OVC,M,M,M,1600.00,M,M,M,-SN BR,M,M,M,M,M,M,18.55,KELY 010821Z AUTO 02011KT 2 1/2SM -SN BR OVC016 M02/M02 A2962 RMK AO2 P0001 T10171017,M
LSV,2023-01-01 08:25,-115.0343,36.2362,570.00,55.40,46.40,71.64,190.00,17.00,0.00,29.66,1003.50,10.00,M,BKN,M,M,M,6000.00,M,M,M,M,M,M,M,M,M,M,55.40,KLSV 010825Z AUTO 19017KT 10SM BKN060 13/08 A2966 RMK AO2 RAE0758RAB09E25 SLP035 $,M
NFL,2023-01-01 08:29,-118.7010,39.4166,1199.00,34.00,32.00,92.29,330.00,9.00,0.00,29.69,M,10.00,M,BKN,OVC,M,M,2000.00,7000.00,M,M,M,M,M,M,M,M,M,26.00,KNFL 010829Z AUTO 33009KT 10SM BKN020 OVC070 01/00 A2969 RMK AO2 T00110000 $,M
ELY,2023-01-01 08:34,-114.8453,39.2950,1909.00,28.90,28.90,100.00,20.00,9.00,0.01,29.62,M,2.00,18.00,OVC,M,M,M,1400.00,M,M,M,-SN BR,M,M,M,M,M,M,19.66,KELY 010834Z AUTO 02009G18KT 2SM -SN BR OVC014 M02/M02 A2962 RMK AO2 P0001 T10171017,M
LSV,2023-01-01 08:34,-115.0343,36.2362,570.00,55.40,46.40,71.64,190.00,16.00,0.00,29.66,1003.50,10.00,M,BKN,M,M,M,6000.00,M,M,M,-RA,M,M,M,M,M,M,55.40,KLSV 010834Z AUTO 19016KT 10SM -RA BKN060 13/08 A2966 RMK AO2 RAE0758RAB09E25RAB34 SLP035 $,M
BVU,2023-01-01 08:35,-114.8611,35.9475,671.00,55.40,46.40,71.64,170.00,15.00,0.00,29.70,M,10.00,M,SCT,BKN,OVC,M,4700.00,5000.00,10000.00,M,M,M,M,M,M,M,M,55.40,KBVU 010835Z AUTO 17015KT 10SM SCT047 BKN050 OVC100 13/08 A2970 RMK AO2,M
RTS,2023-01-01 08:35,-119.8764,39.6682,1539.00,32.00,32.00,100.00,300.00,3.00,0.00,29.72,M,2.50,M,FEW,SCT,BKN,M,300.00,1000.00,3300.00,M,-SN,M,M,M,M,M,M,28.69,KRTS 010835Z AUTO 30003KT 2 1/2SM -SN FEW003 SCT010 BKN033 M00/M00 A2972 RMK AO2,M
05U,2023-01-01 08:35,-116.0051,39.6042,1811.23,30.20,30.20,100.00,0.00,0.00,0.00,29.65,M,1.25,M,OVC,M,M,M,200.00,M,M,M,BR,M,M,M,M,M,M,30.20,K05U 010835Z AUTO 00000KT 1 1/4SM BR OVC002 M01/M01 A2965 RMK A01,M
MEV,2023-01-01 08:35,-119.7500,38.9963,1441.42,32.00,32.00,100.00,0.00,0.00,0.00,29.71,M,2.50,M,BKN,OVC,M,M,300.00,900.00,M,M,-SN BR,M,M,M,M,M,M,32.00,KMEV 010835Z AUTO 00000KT 2 1/2SM -SN BR BKN003 OVC009 00/00 A2971 RMK AO2,M
BAM,2023-01-01 08:35,-116.8743,40.5990,1382.36,33.80,33.80,100.00,350.00,4.00,0.00,29.73,M,2.00,M,OVC,M,M,M,500.00,M,M,M,M,M,M,M,M,M,M,29.52,KBAM 010835Z AUTO 35004KT 2SM OVC005 01/01 A2973 RMK AO1,M
TMT,2023-01-01 08:35,-117.1971,39.4643,1749.34,30.20,29.30,96.40,10.00,9.00,0.00,29.64,M,7.00,M,BKN,OVC,M,M,2000.00,2900.00,M,M,-SN,M,M,M,M,M,M,21.28,KTMT 010835Z AUTO 01009KT 7SM -SN BKN020 OVC029 M01/M01 A2964 RMK AO2 T10101015,M
INS,2023-01-01 08:39,-115.6733,36.5872,955.00,48.20,46.40,93.45,110.00,11.00,0.00,29.63,1001.30,10.00,M,FEW,OVC,M,M,4000.00,5500.00,M,M,M,M,M,M,M,M,M,42.94,KINS 010839Z AUTO 11011KT 10SM FEW040 OVC055 09/08 A2963 RMK AO2 RAE06RAB16E39 SLP013 $,M
EKO,2023-01-01 08:42,-115.7860,40.8242,1367.00,32.00,28.90,88.17,40.00,11.00,0.01,29.69,M,2.00,20.00,OVC,M,M,M,2200.00,M,M,M,-SN BR,M,M,M,M,M,M,22.47,KEKO 010842Z AUTO 04011G20KT 2SM -SN BR OVC022 00/M02 A2969 RMK AO2 P0001 T00001017,M
ELY,2023-01-01 08:43,-114.8453,39.2950,1909.00,28.90,28.90,100.00,30.00,11.00,0.02,29.62,M,1.50,M,OVC,M,M,M,1400.00,M,M,M,-SN BR,M,M,M,M,M,M,18.55,KELY 010843Z AUTO 03011KT 1 1/2SM -SN BR OVC014 M02/M02 A2962 RMK AO2 P0002 T10171017,M
RNO,2023-01-01 08:44,-119.7711,39.4839,1341.00,33.00,32.00,95.67,0.00,0.00,0.01,29.72,M,0.75,M,BKN,BKN,OVC,M,200.00,1500.00,2300.00,M,-SN BR,M,M,M,M,M,M,33.10,KRNO 010844Z 00000KT 3/4SM -SN BR BKN002 BKN015 OVC023 01/00 A2972 RMK AO2 P0001 T00060000 RVRNO,M
TPH,2023-01-01 08:48,-117.0904,38.0505,1654.00,41.00,40.00,95.82,180.00,10.00,0.01,29.56,M,6.00,M,BKN,BKN,OVC,M,600.00,1300.00,1700.00,M,-RA BR,M,M,M,M,M,M,34.25,KTPH 010848Z AUTO 18010KT 6SM -RA BR BKN006 BKN013 OVC017 05/04 A2956 RMK AO2 RAB35 CIG 004V009 P0001 T00500044,M
ELY,2023-01-01 08:50,-114.8453,39.2950,1909.00,28.40,28.40,100.00,30.00,9.00,0.02,29.61,M,1.25,M,OVC,M,M,M,1400.00,M,M,M,-SN BR,M,M,M,M,M,M,19.04,KELY 010850Z AUTO 03009KT 1 1/4SM -SN BR OVC014 M02/M02 A2961 RMK AO2 P0002,M
P68,2023-01-01 08:53,-116.0056,39.6014,1993.00,30.00,28.00,92.15,360.00,11.00,0.03,29.61,1002.20,M,M,M,M,M,M,M,M,M,M,M,M,M,M,M,M,M,19.94,KP68 010853Z AUTO 36011KT M01/M02 A2961 RMK AO1 SLP022 P0003 60007 T10111022 58007,M
ELY,2023-01-01 08:53,-114.8453,39.2950,1909.00,28.90,28.90,100.00,30.00,11.00,0.03,29.62,1001.70,1.25,M,OVC,M,M,M,1400.00,M,M,M,-SN BR,M,M,M,M,M,M,18.55,KELY 010853Z AUTO 03011KT 1 1/4SM -SN BR OVC014 M02/M02 A2962 RMK AO2 SLP017 P0003 60008 T10171017 55008,M
VGT,2023-01-01 08:53,-115.1933,36.2111,667.00,55.00,46.00,71.60,170.00,9.00,0.02,29.67,1005.30,10.00,M,OVC,M,M,M,6000.00,M,M,M,-RA,M,M,M,M,M,M,55.00,KVGT 010853Z AUTO 17009KT 10SM -RA OVC060 13/08 A2967 RMK AO2 SLP053 P0002 60003 T01280078 58020,M
DRA,2023-01-01 08:53,-116.0278,36.6206,1009.00,50.00,42.00,74.15,190.00,15.00,0.04,29.61,1000.30,10.00,23.00,SCT,OVC,M,M,3800.00,5000.00,M,M,-RA,M,M,M,M,M,M,50.00,KDRA 010853Z AUTO 19015G23KT 10SM -RA SCT038 OVC050 10/06 A2961 RMK AO2 SLP003 P0004 60009 T01000056 58020,M
LOL,2023-01-01 08:53,-118.5701,40.0684,1192.43,35.00,33.00,92.32,30.00,9.00,T,29.71,1006.80,10.00,M,BKN,OVC,M,M,5000.00,7000.00,M,M,M,M,M,M,M,M,M,27.37,KLOL 010853Z AUTO 03009KT 10SM BKN050 OVC070 02/01 A2971 RMK AO2 RAE17 SLP068 P0000 60002 T00170006 58003,M
BVU,2023-01-01 08:55,-114.8611,35.9475,671.00,55.40,46.40,71.64,180.00,11.00,0.00,29.70,M,10.00,19.00,OVC,M,M,M,4700.00,M,M,M,M,M,M,M,M,M,M,55.40,KBVU 010855Z AUTO 18011G19KT 10SM OVC047 13/08 A2970 RMK AO2,M
INS,2023-01-01 08:55,-115.6733,36.5872,955.00,48.40,46.40,92.75,120.00,15.00,T,29.63,1001.30,10.00,M,FEW,OVC,M,M,3900.00,5000.00,M,M,M,M,M,M,M,M,M,42.04,KINS 010855Z AUTO 12015KT 10SM FEW039 OVC050 09/08 A2963 RMK AO2 RAE06RAB16E39 SLP013 P0000 60000 T00910080 57020 $,M
RTS,2023-01-01 08:55,-119.8764,39.6682,1539.00,32.00,32.00,100.00,330.00,5.00,0.00,29.73,M,1.75,M,BKN,BKN,OVC,M,200.00,600.00,2200.00,M,-SN,M,M,M,M,M,M,26.40,KRTS 010855Z AUTO 33005KT 1 3/4SM -SN BKN002 BKN006 OVC022 M00/00 A2973 RMK AO2,M
05U,2023-01-01 08:55,-116.0051,39.6042,1811.23,30.20,30.20,100.00,0.00,0.00,0.00,29.64,M,0.75,M,OVC,M,M,M,200.00,M,M,M,BR,M,M,M,M,M,M,30.20,K05U 010855Z AUTO 00000KT 3/4SM BR OVC002 M01/M01 A2964 RMK A01,M
MEV,2023-01-01 08:55,-119.7500,38.9963,1441.42,32.00,32.00,100.00,0.00,0.00,0.01,29.71,M,2.00,M,OVC,M,M,M,300.00,M,M,M,-SN BR,M,M,M,M,M,M,32.00,KMEV 010855Z AUTO 00000KT 2SM -SN BR OVC003 00/M00 A2971 RMK AO2 P0001,M
BAM,2023-01-01 08:55,-116.8743,40.5990,1382.36,33.80,33.80,100.00,360.00,3.00,0.00,29.73,M,7.00,M,OVC,M,M,M,500.00,M,M,M,M,M,M,M,M,M,M,30.75,KBAM 010855Z AUTO 36003KT 7SM OVC005 01/01 A2973 RMK AO1,M
TMT,2023-01-01 08:55,-117.1971,39.4643,1749.34,30.20,29.30,96.40,10.00,11.00,0.00,29.64,M,3.00,M,SCT,BKN,OVC,M,700.00,1400.00,2900.00,M,-SN,M,M,M,M,M,M,20.19,KTMT 010855Z AUTO 01011KT 3SM -SN SCT007 BKN014 OVC029 M01/M01 A2964 RMK AO2 T10101015,M
LSV,2023-01-01 08:55,-115.0343,36.2362,570.00,54.50,46.00,72.92,190.00,12.00,T,29.65,1003.10,10.00,M,FEW,M,M,M,6000.00,M,M,M,-RA,M,M,M,M,M,M,54.50,KLSV 010855Z AUTO 19012KT 10SM -RA FEW060 13/08 A2965 RMK AO2 RAE0758RAB09E25RAB34 SLP031 P0000 60000 T01250078 57021 $,M
RNO,2023-01-01 08:55,-119.7711,39.4839,1341.00,33.00,32.00,95.67,0.00,0.00,0.01,29.72,1006.80,1.00,M,BKN,OVC,M,M,300.00,1400.00,M,M,-SN BR,M,M,M,M,M,M,33.10,KRNO 010855Z 00000KT 1SM -SN BR BKN003 OVC014 01/00 A2972 RMK AO2 SLP068 P0001 60011 T00060000 58003 RVRNO,M
EKO,2023-01-01 08:56,-115.7860,40.8242,1367.00,32.00,28.90,88.17,40.00,12.00,0.01,29.68,1006.00,1.75,19.00,OVC,M,M,M,2600.00,M,M,M,-SN BR,M,M,M,M,M,M,22.00,KEKO 010856Z AUTO 04012G19KT 1 3/4SM -SN BR OVC026 00/M02 A2968 RMK AO2 SLP060 P0001 60004 T00001017 58002,M
WMC,2023-01-01 08:56,-117.8072,40.9019,1315.00,34.00,28.00,78.43,330.00,10.00,0.00,29.75,1007.40,10.00,M,OVC,M,M,M,3200.00,M,M,M,M,M,M,M,M,M,M,25.48,KWMC 010856Z AUTO 33010KT 10SM OVC032 01/M02 A2975 RMK AO2 SLP074 T00111022 51005,M
NFL,2023-01-01 08:56,-118.7010,39.4166,1199.00,34.00,32.00,92.29,330.00,11.00,T,29.69,1003.70,10.00,M,OVC,M,M,M,2200.00,M,M,M,UP,M,M,M,M,M,M,24.99,KNFL 010856Z AUTO 33011KT 10SM UP OVC022 01/00 A2969 RMK AO2 UPB45 SLP037 P0000 60001 T00110000 55004 $,M
LAS,2023-01-01 08:56,-115.1634,36.0719,663.00,54.00,46.00,74.26,160.00,8.00,T,29.67,1003.80,10.00,17.00,FEW,BKN,OVC,M,3000.00,6000.00,8000.00,M,-RA,M,M,M,M,M,M,54.00,KLAS 010856Z 16008G17KT 10SM -RA FEW030 BKN060 OVC080 12/08 A2967 RMK AO2 RAB28 SLP038 P0000 60000 T01220078 58019,M
HND,2023-01-01 08:56,-115.1344,35.9729,742.79,52.00,47.00,82.68,180.00,11.00,T,29.69,1006.00,10.00,M,FEW,BKN,OVC,M,4400.00,7500.00,9000.00,M,-RA,M,M,M,M,M,M,52.00,KHND 010856Z AUTO 18011KT 10SM -RA FEW044 BKN075 OVC090 11/08 A2969 RMK AO2 RAB10 SLP060 P0000 60000 T01110083 58021,M
TPH,2023-01-01 08:56,-117.0904,38.0505,1654.00,41.00,40.00,95.82,200.00,10.00,0.01,29.56,999.40,6.00,M,BKN,OVC,M,M,600.00,1300.00,M,M,-RA BR,M,M,M,M,M,M,34.25,KTPH 010856Z AUTO 20010KT 6SM -RA BR BKN006 OVC013 05/04 A2956 RMK AO2 RAB35 CIG 004V009 SLP994 P0001 60001 T00500044 58009,M
LSV,2023-01-01 09:00,-115.0343,36.2362,570.00,55.40,46.40,71.64,190.00,16.00,0.00,29.65,1003.10,10.00,M,CLR,M,M,M,M,M,M,M,M,M,M,M,M,M,M,55.40,KLSV 010900Z AUTO 19016KT 10SM CLR 13/08 A2965 RMK AO2 RAE00 SLP031 $,M
LSV,2023-01-01 09:04,-115.0343,36.2362,570.00,55.40,46.40,71.64,190.00,16.00,0.00,29.65,1003.10,10.00,22.00,FEW,M,M,M,6000.00,M,M,M,-RA,M,M,M,M,M,M,55.40,KLSV 010904Z AUTO 19016G22KT 10SM -RA FEW060 13/08 A2965 RMK AO2 RAE00RAB04 SLP031 $,M
TPH,2023-01-01 09:04,-117.0904,38.0505,1654.00,40.00,40.00,100.00,280.00,11.00,T,29.56,M,10.00,M,BKN,OVC,M,M,800.00,1300.00,M,M,-RA,M,M,M,M,M,M,32.45,KTPH 010904Z AUTO 28011KT 240V320 10SM -RA BKN008 OVC013 04/04 A2956 RMK AO2 P0000 T00440044,M
EKO,2023-01-01 09:05,-115.7860,40.8242,1367.00,32.00,28.90,88.17,40.00,13.00,T,29.68,M,1.50,M,FEW,OVC,M,M,800.00,2200.00,M,M,-SN BR,M,M,M,M,M,M,21.57,KEKO 010905Z AUTO 04013KT 1 1/2SM -SN BR FEW008 OVC022 00/M02 A2968 RMK AO2 P0000 T00001017,M
LSV,2023-01-01 09:05,-115.0343,36.2362,570.00,55.40,46.40,71.64,180.00,15.00,0.00,29.65,1003.10,10.00,22.00,FEW,M,M,M,6000.00,M,M,M,M,M,M,M,M,M,M,55.40,KLSV 010905Z AUTO 18015G22KT 10SM FEW060 13/08 A2965 RMK AO2 RAE00RAB04E04 SLP031 $,M
LSV,2023-01-01 09:13,-115.0343,36.2362,570.00,55.40,48.20,76.66,180.00,19.00,0.00,29.64,1002.70,10.00,M,FEW,M,M,M,6000.00,M,M,M,-RA,M,M,M,M,M,M,55.40,KLSV 010913Z AUTO 18019KT 10SM -RA FEW060 13/09 A2964 RMK AO2 RAE00RAB04E04RAB13 SLP027 $,M
BVU,2023-01-01 09:15,-114.8611,35.9475,671.00,55.40,46.40,71.64,170.00,11.00,0.00,29.69,M,10.00,M,OVC,M,M,M,4500.00,M,M,M,M,M,M,M,M,M,M,55.40,KBVU 010915Z AUTO 17011KT 10SM OVC045 13/08 A2969 RMK AO2,M
RTS,2023-01-01 09:15,-119.8764,39.6682,1539.00,32.00,32.00,100.00,0.00,0.00,0.00,29.73,M,1.50,M,OVC,M,M,M,200.00,M,M,M,-SN,M,M,M,M,M,M,32.00,KRTS 010915Z AUTO 00000KT 1 1/2SM -SN OVC002 00/00 A2973 RMK AO2,M
05U,2023-01-01 09:15,-116.0051,39.6042,1811.23,30.20,30.20,100.00,0.00,0.00,0.00,29.64,M,0.75,M,OVC,M,M,M,200.00,M,M,M,BR,M,M,M,M,M,M,30.20,K05U 010915Z AUTO 00000KT 3/4SM BR OVC002 M01/M01 A2964 RMK A01,M
MEV,2023-01-01 09:15,-119.7500,38.9963,1441.42,32.00,32.00,100.00,0.00,0.00,0.00,29.71,M,2.00,M,OVC,M,M,M,400.00,M,M,M,-SN BR,M,M,M,M,M,M,32.00,KMEV 010915Z AUTO 00000KT 2SM -SN BR OVC004 00/M00 A2971 RMK AO2 VIS 1 3/4V3,M
BAM,2023-01-01 09:15,-116.8743,40.5990,1382.36,33.80,33.80,100.00,360.00,3.00,0.00,29.73,M,7.00,M,OVC,M,M,M,300.00,M,M,M,M,M,M,M,M,M,M,30.75,KBAM 010915Z AUTO 36003KT 7SM OVC003 01/01 A2973 RMK AO1,M
TMT,2023-01-01 09:15,-117.1971,39.4643,1749.34,30.20,29.30,96.40,10.00,10.00,0.00,29.64,M,5.00,M,SCT,BKN,OVC,M,1100.00,1800.00,3200.00,M,-SN,M,M,M,M,M,M,20.71,KTMT 010915Z AUTO 01010KT 5SM -SN SCT011 BKN018 OVC032 M01/M01 A2964 RMK AO2 T10101015,M
EKO,2023-01-01 09:18,-115.7860,40.8242,1367.00,32.00,28.90,88.17,40.00,14.00,T,29.69,M,2.50,21.00,OVC,M,M,M,2200.00,M,M,M,-SN BR,M,M,M,M,M,M,21.16,KEKO 010918Z AUTO 04014G21KT 2 1/2SM -SN BR OVC022 00/M02 A2969 RMK AO2 P0000 T00001017,M
RNO,2023-01-01 09:19,-119.7711,39.4839,1341.00,33.00,30.90,91.51,0.00,0.00,0.02,29.72,M,1.00,M,SCT,OVC,M,M,400.00,1100.00,M,M,-SN BR,M,M,M,M,M,M,33.10,KRNO 010919Z 00000KT 1SM -SN BR SCT004 OVC011 01/M01 A2972 RMK AO2 P0002 T00061006 RVRNO,M
TPH,2023-01-01 09:21,-117.0904,38.0505,1654.00,33.00,30.90,91.51,300.00,15.00,0.01,29.56,M,6.00,M,OVC,M,M,M,1000.00,M,M,M,RA BR,M,M,M,M,M,M,22.21,KTPH 010921Z AUTO 30015KT 6SM RA BR OVC010 01/M01 A2956 RMK AO2 WSHFT 0903 P0001 T00061006,M
ELY,2023-01-01 09:29,-114.8453,39.2950,1909.00,28.90,28.00,96.38,20.00,12.00,0.02,29.61,M,1.50,M,OVC,M,M,M,1600.00,M,M,M,-SN BR,M,M,M,M,M,M,18.06,KELY 010929Z AUTO 02012KT 1 1/2SM -SN BR OVC016 M02/M02 A2961 RMK AO2 P0002 T10171022,M
RNO,2023-01-01 09:29,-119.7711,39.4839,1341.00,33.00,32.00,95.67,0.00,0.00,0.03,29.73,M,1.00,M,FEW,BKN,OVC,M,400.00,2300.00,3800.00,M,-SN BR,M,M,M,M,M,M,33.10,KRNO 010929Z 00000KT 1SM -SN BR FEW004 BKN023 OVC038 01/00 A2973 RMK AO2 P0003 T00060000 RVRNO,M
NFL,2023-01-01 09:30,-118.7010,39.4166,1199.00,34.00,33.00,96.46,340.00,8.00,0.01,29.69,M,9.00,M,SCT,BKN,OVC,M,800.00,1400.00,2100.00,M,-RA,M,M,M,M,M,M,26.58,KNFL 010930Z AUTO 34008KT 9SM -RA SCT008 BKN014 OVC021 01/01 A2969 RMK AO2 UPE20RAB08 P0001 T00110006 $,M
LSV,2023-01-01 09:34,-115.0343,36.2362,570.00,55.40,50.00,81.99,170.00,20.00,0.00,29.63,1002.40,10.00,M,SCT,M,M,M,6000.00,M,M,M,M,M,M,M,M,M,M,55.40,KLSV 010934Z AUTO 17020KT 10SM SCT060 13/10 A2963 RMK AO2 RAE00RAB04E04RAB13E34 SLP024 $,M
BVU,2023-01-01 09:35,-114.8611,35.9475,671.00,55.40,46.40,71.64,170.00,12.00,0.00,29.69,M,10.00,M,BKN,OVC,M,M,3200.00,4300.00,M,M,M,M,M,M,M,M,M,55.40,KBVU 010935Z AUTO 17012KT 10SM BKN032 OVC043 13/08 A2969 RMK AO2,M
RTS,2023-01-01 09:35,-119.8764,39.6682,1539.00,32.00,32.00,100.00,350.00,7.00,0.00,29.74,M,3.00,M,FEW,BKN,OVC,M,200.00,600.00,1500.00,M,-SN,M,M,M,M,M,M,24.78,KRTS 010935Z AUTO 35007KT 3SM -SN FEW002 BKN006 OVC015 M00/00 A2974 RMK AO2,M
05U,2023-01-01 09:35,-116.0051,39.6042,1811.23,30.20,30.20,100.00,0.00,0.00,0.00,29.65,M,1.25,M,OVC,M,M,M,300.00,M,M,M,BR,M,M,M,M,M,M,30.20,K05U 010935Z AUTO 00000KT 1 1/4SM BR OVC003 M01/M01 A2965 RMK A01,M
MEV,2023-01-01 09:35,-119.7500,38.9963,1441.42,32.00,32.00,100.00,0.00,0.00,0.00,29.71,M,2.50,M,OVC,M,M,M,400.00,M,M,M,-SN BR,M,M,M,M,M,M,32.00,KMEV 010935Z AUTO 00000KT 2 1/2SM -SN BR OVC004 00/00 A2971 RMK AO2 VIS 2V3,M
BAM,2023-01-01 09:35,-116.8743,40.5990,1382.36,33.80,33.80,100.00,360.00,3.00,0.00,29.72,M,3.00,M,SCT,OVC,M,M,500.00,2100.00,M,M,M,M,M,M,M,M,M,30.75,KBAM 010935Z AUTO 36003KT 3SM SCT005 OVC021 01/01 A2972 RMK AO1,M
TMT,2023-01-01 09:35,-117.1971,39.4643,1749.34,30.20,29.10,95.62,10.00,9.00,0.00,29.64,M,5.00,M,SCT,OVC,M,M,800.00,2300.00,M,M,-SN,M,M,M,M,M,M,21.28,KTMT 010935Z AUTO 01009KT 5SM -SN SCT008 OVC023 M01/M02 A2964 RMK AO2 T10101016,M
LSV,2023-01-01 09:42,-115.0343,36.2362,570.00,55.40,50.00,81.99,170.00,18.00,0.00,29.63,1002.50,10.00,M,SCT,M,M,M,6000.00,M,M,M,-RA,M,M,M,M,M,M,55.40,KLSV 010942Z AUTO 17018KT 10SM -RA SCT060 13/10 A2963 RMK AO2 RAE00RAB04E04RAB13E34RAB42 SLP025 $,M
NFL,2023-01-01 09:42,-118.7010,39.4166,1199.00,34.00,33.00,96.46,340.00,9.00,0.02,29.70,M,8.00,M,BKN,OVC,M,M,800.00,1400.00,M,M,-RA,M,M,M,M,M,M,26.00,KNFL 010942Z AUTO 34009KT 8SM -RA BKN008 OVC014 01/01 A2970 RMK AO2 UPE20RAB08 P0002 T00110006 $,M
EKO,2023-01-01 09:45,-115.7860,40.8242,1367.00,30.90,28.00,88.84,60.00,10.00,0.01,29.67,M,3.00,M,OVC,M,M,M,3400.00,M,M,M,-SN BR,M,M,M,M,M,M,21.59,KEKO 010945Z AUTO 06010KT 3SM -SN BR OVC034 M01/M02 A2967 RMK AO2 P0001 T10061022,M
ELY,2023-01-01 09:50,-114.8453,39.2950,1909.00,28.40,28.40,100.00,360.00,5.00,0.03,29.62,M,1.25,17.00,FEW,OVC,M,M,400.00,1700.00,M,M,-SN BR,M,M,M,M,M,M,22.12,KELY 010950Z AUTO 36005G17KT 1 1/4SM -SN BR FEW004 OVC017 M02/M02 A2962 RMK AO2 P0003,M
RNO,2023-01-01 09:50,-119.7711,39.4839,1341.00,33.80,30.20,86.49,280.00,4.00,0.03,29.74,M,2.00,M,OVC,M,M,M,3100.00,M,M,M,-SN BR,M,M,M,M,M,M,29.52,KRNO 010950Z 28004KT 2SM -SN BR OVC031 01/M01 A2974 RMK AO2 P0003,M
P68,2023-01-01 09:53,-116.0056,39.6014,1993.00,30.00,28.00,92.15,360.00,12.00,0.05,29.62,1002.40,M,M,M,M,M,M,M,M,M,M,M,M,M,M,M,M,M,19.46,KP68 010953Z AUTO 36012KT M01/M02 A2962 RMK AO1 SLP024 P0005 T10111022,M
DRA,2023-01-01 09:53,-116.0278,36.6206,1009.00,49.00,43.00,79.98,210.00,13.00,0.01,29.60,1000.00,10.00,22.00,SCT,OVC,M,M,3900.00,4900.00,M,M,-RA,M,M,M,26.00,180.00,2023-01-01 09:01,43.22,KDRA 010953Z AUTO 21013G22KT 10SM -RA SCT039 OVC049 09/06 A2960 RMK AO2 PK WND 18026/0901 RAE0854B19 SLP000 P0001 T00940061,M
ELY,2023-01-01 09:53,-114.8453,39.2950,1909.00,28.90,28.90,100.00,30.00,8.00,0.04,29.63,1001.70,1.50,M,FEW,OVC,M,M,400.00,1700.00,M,M,-SN BR,M,M,M,M,M,M,20.29,KELY 010953Z AUTO 03008KT 1 1/2SM -SN BR FEW004 OVC017 M02/M02 A2963 RMK AO2 SLP017 P0004 T10171017,M
VGT,2023-01-01 09:53,-115.1933,36.2111,667.00,54.00,48.00,80.07,160.00,9.00,0.03,29.65,1005.00,9.00,M,BKN,OVC,M,M,4100.00,5500.00,M,M,-RA,M,M,M,M,M,M,54.00,KVGT 010953Z AUTO 16009KT 9SM -RA BKN041 OVC055 12/09 A2965 RMK AO2 SLP050 P0003 T01220089,M
LOL,2023-01-01 09:53,-118.5701,40.0684,1192.43,36.00,30.00,78.60,30.00,8.00,0.00,29.72,1007.20,10.00,M,OVC,M,M,M,4000.00,M,M,M,M,M,M,M,M,M,M,29.04,KLOL 010953Z AUTO 03008KT 10SM OVC040 02/M01 A2972 RMK AO2 SLP072 T00221011,M
BVU,2023-01-01 09:55,-114.8611,35.9475,671.00,53.60,46.40,76.50,170.00,10.00,0.00,29.68,M,7.00,15.00,BKN,OVC,M,M,3100.00,4200.00,M,M,-RA,M,M,M,M,M,M,53.60,KBVU 010955Z AUTO 17010G15KT 7SM -RA BKN031 OVC042 12/08 A2968 RMK AO2,M
INS,2023-01-01 09:55,-115.6733,36.5872,955.00,48.60,45.50,88.97,100.00,20.00,0.00,29.60,1000.30,10.00,23.00,OVC,M,M,M,5000.00,M,M,M,M,M,M,M,26.00,120.00,2023-01-01 09:07,41.19,KINS 010955Z AUTO 10020G23KT 10SM OVC050 09/08 A2960 RMK AO2 PK WND 12026/07 SLP003 T00920075 $,M
RNO,2023-01-01 09:55,-119.7711,39.4839,1341.00,33.00,32.00,95.67,290.00,3.00,0.03,29.74,1007.60,2.00,M,FEW,OVC,M,M,900.00,3100.00,M,M,-SN BR,M,M,M,M,M,M,29.95,KRNO 010955Z COR 29003KT 2SM -SN BR FEW009 OVC031 01/00 A2974 RMK AO2 UPB55SNE55 SLP076 P0003 T00060000,M
RTS,2023-01-01 09:55,-119.8764,39.6682,1539.00,32.00,32.00,100.00,350.00,13.00,0.02,29.75,M,3.00,M,FEW,BKN,OVC,M,700.00,1700.00,3200.00,M,+UP,M,M,M,M,M,M,21.57,KRTS 010955Z AUTO 35013KT 3SM +UP FEW007 BKN017 OVC032 M00/M00 A2975 RMK AO2 P0002,M
05U,2023-01-01 09:55,-116.0051,39.6042,1811.23,30.20,30.20,100.00,0.00,0.00,0.01,29.64,M,1.00,M,OVC,M,M,M,200.00,M,M,M,BR,M,M,M,M,M,M,30.20,K05U 010955Z AUTO 00000KT 1SM BR OVC002 M01/M01 A2964 RMK A01 P0001,M
MEV,2023-01-01 09:55,-119.7500,38.9963,1441.42,32.00,32.00,100.00,270.00,3.00,0.00,29.72,M,1.75,M,OVC,M,M,M,400.00,M,M,M,-SN BR,M,M,M,M,M,M,28.69,KMEV 010955Z AUTO 27003KT 1 3/4SM -SN BR OVC004 00/M00 A2972 RMK AO2,M
BAM,2023-01-01 09:55,-116.8743,40.5990,1382.36,33.80,33.80,100.00,20.00,4.00,0.00,29.72,M,10.00,M,SCT,BKN,OVC,M,500.00,2100.00,5500.00,M,M,M,M,M,M,M,M,29.52,KBAM 010955Z AUTO 02004KT 10SM SCT005 BKN021 OVC055 01/01 A2972 RMK AO1,M
TMT,2023-01-01 09:55,-117.1971,39.4643,1749.34,30.20,29.30,96.40,10.00,8.00,0.00,29.64,M,4.00,M,SCT,BKN,OVC,M,600.00,1100.00,2400.00,M,-SN,M,M,M,M,M,M,21.90,KTMT 010955Z AUTO 01008KT 4SM -SN SCT006 BKN011 OVC024 M01/M01 A2964 RMK AO2 T10101015,M
LSV,2023-01-01 09:55,-115.0343,36.2362,570.00,55.00,49.80,82.88,180.00,19.00,T,29.63,1002.50,10.00,25.00,BKN,M,M,M,6000.00,M,M,M,-RA,M,M,M,M,M,M,54.90,KLSV 010955Z AUTO 18019G25KT 10SM -RA BKN060 13/10 A2963 RMK AO2 RAE00RAB04E04RAB13E34RAB42 SLP025 P0000 T01270099 $,M
EKO,2023-01-01 09:56,-115.7860,40.8242,1367.00,30.90,28.00,88.84,50.00,8.00,0.01,29.69,1006.30,3.00,M,OVC,M,M,M,3600.00,M,M,M,-SN BR,M,M,M,M,M,M,22.76,KEKO 010956Z AUTO 05008KT 3SM -SN BR OVC036 M01/M02 A2969 RMK AO2 SLP063 P0001 T10061022,M
WMC,2023-01-01 09:56,-117.8072,40.9019,1315.00,35.00,28.00,75.06,10.00,10.00,0.00,29.75,1007.50,10.00,16.00,OVC,M,M,M,9500.00,M,M,M,M,M,M,M,M,M,M,26.86,KWMC 010956Z AUTO 01010G16KT 10SM OVC095 02/M02 A2975 RMK AO2 SLP075 T00171022,M
NFL,2023-01-01 09:56,-118.7010,39.4166,1199.00,34.00,32.00,92.29,350.00,10.00,0.03,29.70,1004.00,6.00,M,BKN,OVC,M,M,900.00,1400.00,M,M,-SN BR,M,M,M,M,M,M,25.48,KNFL 010956Z AUTO 35010KT 6SM -SN BR BKN009 OVC014 01/00 A2970 RMK AO2 UPE20RAB08E46SNB46 SLP040 P0003 T00110000 $,M
TPH,2023-01-01 09:56,-117.0904,38.0505,1654.00,33.00,30.90,91.51,300.00,14.00,0.02,29.57,1000.30,9.00,M,OVC,M,M,M,1300.00,M,M,M,-RA,M,M,M,M,M,M,22.58,KTPH 010956Z AUTO 30014KT 9SM -RA OVC013 01/M01 A2957 RMK AO2 WSHFT 0903 SLP003 P0002 T00061006,M
HND,2023-01-01 09:56,-115.1344,35.9729,742.79,52.00,47.00,82.68,160.00,13.00,0.01,29.67,1005.40,10.00,19.00,FEW,BKN,OVC,M,3900.00,6500.00,7500.00,M,-RA,M,M,M,M,M,M,52.00,KHND 010956Z AUTO 16013G19KT 10SM -RA FEW039 BKN065 OVC075 11/08 A2967 RMK AO2 SLP054 P0001 T01110083,M
LAS,2023-01-01 09:56,-115.1634,36.0719,663.00,53.00,47.00,79.40,170.00,6.00,T,29.66,1003.40,10.00,M,FEW,OVC,M,M,4200.00,6000.00,M,M,-RA,M,M,M,M,M,M,53.10,KLAS 010956Z 17006KT 10SM -RA FEW042 OVC060 12/08 A2966 RMK AO2 RAE11B33 SLP034 P0000 T01170083,M
RNO,2023-01-01 10:06,-119.7711,39.4839,1341.00,34.00,32.00,92.29,350.00,6.00,T,29.74,M,2.00,M,FEW,OVC,M,M,900.00,2600.00,M,M,-SN BR,M,M,M,M,M,M,27.94,KRNO 011006Z 35006KT 2SM -SN BR FEW009 OVC026 01/00 A2974 RMK AO2 UPE0956SNB0957 P0000 T00110000,M
BVU,2023-01-01 10:15,-114.8611,35.9475,671.00,53.60,48.20,81.87,180.00,11.00,0.00,29.67,M,7.00,M,BKN,OVC,M,M,3200.00,4100.00,M,M,-RA,M,M,M,M,M,M,53.60,KBVU 011015Z AUTO 18011KT 7SM -RA BKN032 OVC041 12/09 A2967 RMK AO2,M
RTS,2023-01-01 10:15,-119.8764,39.6682,1539.00,32.00,30.20,92.97,350.00,14.00,0.00,29.75,M,M,M,M,M,M,M,M,M,M,M,-UP,M,M,M,M,M,M,21.16,KRTS 011015Z AUTO 35014KT -UP M00/M01 A2975 RMK AO2,M
05U,2023-01-01 10:15,-116.0051,39.6042,1811.23,30.20,30.20,100.00,0.00,0.00,0.00,29.64,M,1.00,M,OVC,M,M,M,200.00,M,M,M,BR,M,M,M,M,M,M,30.20,K05U 011015Z AUTO 00000KT 1SM BR OVC002 M01/M01 A2964 RMK A01,M
MEV,2023-01-01 10:15,-119.7500,38.9963,1441.42,32.00,32.00,100.00,310.00,4.00,0.00,29.72,M,2.50,M,OVC,M,M,M,400.00,M,M,M,-SN BR,M,M,M,M,M,M,27.42,KMEV 011015Z AUTO 31004KT 2 1/2SM -SN BR OVC004 00/00 A2972 RMK AO2,M
BAM,2023-01-01 10:15,-116.8743,40.5990,1382.36,33.80,32.00,93.03,350.00,4.00,0.00,29.72,M,10.00,M,BKN,BKN,OVC,M,1900.00,2900.00,5500.00,M,M,M,M,M,M,M,M,29.52,KBAM 011015Z AUTO 35004KT 10SM BKN019 BKN029 OVC055 01/00 A2972 RMK AO1,M
TMT,2023-01-01 10:15,-117.1971,39.4643,1749.34,30.00,29.30,97.19,360.00,12.00,0.00,29.64,M,3.00,M,SCT,BKN,OVC,M,900.00,1300.00,4100.00,M,-SN,M,M,M,M,M,M,19.46,KTMT 011015Z AUTO 36012KT 3SM -SN SCT009 BKN013 OVC041 M01/M01 A2964 RMK AO2 T10111015,M
NFL,2023-01-01 10:18,-118.7010,39.4166,1199.00,33.00,32.00,95.67,360.00,12.00,0.01,29.71,M,2.50,M,SCT,OVC,M,M,700.00,1400.00,M,M,-SN BR,M,M,M,M,M,M,23.40,KNFL 011018Z AUTO 36012KT 2 1/2SM -SN BR SCT007 OVC014 01/00 A2971 RMK AO2 P0001 T00060000 $,M
ELY,2023-01-01 10:19,-114.8453,39.2950,1909.00,28.90,28.00,96.38,30.00,12.00,0.01,29.62,M,1.25,17.00,FEW,OVC,M,M,600.00,1300.00,M,M,-SN BR,M,M,M,M,M,M,18.06,KELY 011019Z AUTO 03012G17KT 1 1/4SM -SN BR FEW006 OVC013 M02/M02 A2962 RMK AO2 P0001 T10171022,M
TPH,2023-01-01 10:25,-117.0904,38.0505,1654.00,32.00,30.90,95.65,310.00,15.00,0.01,29.57,M,3.00,24.00,OVC,M,M,M,1500.00,M,M,M,-SN BR,M,M,M,M,M,M,20.78,KTPH 011025Z AUTO 31015G24KT 3SM -SN BR OVC015 00/M01 A2957 RMK AO2 RAE11SNB11 P0001 T00001006,M
RNO,2023-01-01 10:27,-119.7711,39.4839,1341.00,33.00,32.00,95.67,360.00,6.00,0.00,29.75,M,0.50,M,SCT,OVC,M,M,500.00,1400.00,M,M,SN FG,M,M,M,M,M,M,26.86,KRNO 011027Z COR 36006KT 1/2SM SN FG SCT005 OVC014 01/00 A2975,M
LSV,2023-01-01 10:29,-115.0343,36.2362,570.00,53.60,51.80,93.60,180.00,16.00,0.00,29.62,1002.20,10.00,23.00,BKN,BKN,M,M,4300.00,5500.00,M,M,-RA,M,M,M,M,M,M,53.60,KLSV 011029Z AUTO 18016G23KT 10SM -RA BKN043 BKN055 12/11 A2962 RMK AO2 SLP022 $,M
ELY,2023-01-01 10:30,-114.8453,39.2950,1909.00,28.00,28.00,100.00,30.00,12.00,0.02,29.61,M,1.25,21.00,FEW,FEW,OVC,M,500.00,1000.00,1500.00,M,-SN BR,M,M,M,M,M,M,16.91,KELY 011030Z AUTO 03012G21KT 1 1/4SM -SN BR FEW005 FEW010 OVC015 M02/M02 A2961 RMK AO2 P0002 T10221022,M
NFL,2023-01-01 10:30,-118.7010,39.4166,1199.00,33.00,30.90,91.51,360.00,16.00,0.02,29.72,M,1.75,23.00,FEW,OVC,M,M,700.00,1400.00,M,M,-SN BR,M,M,M,M,M,M,21.85,KNFL 011030Z AUTO 36016G23KT 1 3/4SM -SN BR FEW007 OVC014 01/M01 A2972 RMK AO2 P0002 T00061006 $,M
BVU,2023-01-01 10:35,-114.8611,35.9475,671.00,53.60,48.20,81.87,180.00,7.00,0.00,29.67,M,6.00,M,OVC,M,M,M,3200.00,M,M,M,-RA,M,M,M,M,M,M,53.60,KBVU 011035Z AUTO 18007KT 6SM -RA OVC032 12/09 A2967 RMK AO2,M
RTS,2023-01-01 10:35,-119.8764,39.6682,1539.00,30.20,28.40,92.92,340.00,16.00,0.00,29.76,M,8.00,M,FEW,SCT,BKN,M,500.00,2600.00,3700.00,M,M,M,M,M,M,M,M,18.07,KRTS 011035Z AUTO 34016KT 8SM FEW005 SCT026 BKN037 M01/M02 A2976 RMK AO2,M
05U,2023-01-01 10:35,-116.0051,39.6042,1811.23,30.20,30.20,100.00,0.00,0.00,0.00,29.65,M,1.50,M,OVC,M,M,M,200.00,M,M,M,BR,M,M,M,M,M,M,30.20,K05U 011035Z AUTO 00000KT 1 1/2SM BR OVC002 M01/M01 A2965 RMK A01,M
MEV,2023-01-01 10:35,-119.7500,38.9963,1441.42,32.00,32.00,100.00,310.00,4.00,0.00,29.72,M,1.50,M,OVC,M,M,M,400.00,M,M,M,-SN BR,M,M,M,M,M,M,27.42,KMEV 011035Z AUTO 31004KT 1 1/2SM -SN BR OVC004 00/M00 A2972 RMK AO2,M
BAM,2023-01-01 10:35,-116.8743,40.5990,1382.36,33.80,32.00,93.03,30.00,4.00,0.00,29.72,M,10.00,M,BKN,OVC,M,M,2100.00,6000.00,M,M,M,M,M,M,M,M,M,29.52,KBAM 011035Z AUTO 03004KT 10SM BKN021 OVC060 01/00 A2972 RMK AO1,M
TMT,2023-01-01 10:35,-117.1971,39.4643,1749.34,30.20,29.30,96.40,360.00,9.00,0.00,29.65,M,10.00,M,SCT,BKN,OVC,M,1000.00,1800.00,3700.00,M,-SN,M,M,M,M,M,M,21.28,KTMT 011035Z AUTO 36009KT 10SM -SN SCT010 BKN018 OVC037 M01/M01 A2965 RMK AO2 T10101015,M
ELY,2023-01-01 10:41,-114.8453,39.2950,1909.00,28.00,28.00,100.00,30.00,11.00,0.02,29.61,M,1.00,20.00,FEW,OVC,M,M,500.00,1300.00,M,M,-SN BR,M,M,M,M,M,M,17.92,KELY 011041Z AUTO 03011G20KT 1SM -SN BR FEW005 OVC013 M02/M02 A2961 RMK AO2 P0002 T10221022,M
RNO,2023-01-01 10:44,-119.7711,39.4839,1341.00,33.00,32.00,95.67,340.00,7.00,0.04,29.75,M,0.50,M,BKN,OVC,M,M,700.00,1200.00,M,M,SN FG,M,M,M,M,M,M,26.12,KRNO 011044Z 34007KT 1/2SM SN FG BKN007 OVC012 01/00 A2975 RMK AO2 UPE0956SNB0957 P0004 T00060000 RVRNO,M
ELY,2023-01-01 10:46,-114.8453,39.2950,1909.00,28.00,28.00,100.00,30.00,13.00,0.03,29.61,M,0.75,20.00,FEW,OVC,M,M,500.00,1500.00,M,M,-SN BR,M,M,M,M,M,M,16.44,KELY 011046Z AUTO 03013G20KT 3/4SM -SN BR FEW005 OVC015 M02/M02 A2961 RMK AO2 P0003 T10221022,M
TPH,2023-01-01 10:49,-117.0904,38.0505,1654.00,32.00,30.00,92.22,310.00,14.00,0.01,29.57,M,2.00,22.00,OVC,M,M,M,2100.00,M,M,M,-SN BR,M,M,M,26.00,320.00,2023-01-01 10:32,21.16,KTPH 011049Z AUTO 31014G22KT 2SM -SN BR OVC021 00/M01 A2957 RMK AO2 PK WND 32026/1032 RAE11SNB11 P0001 T00001011,M
P68,2023-01-01 10:53,-116.0056,39.6014,1993.00,28.90,28.00,96.38,350.00,12.00,0.04,29.61,1002.40,M,M,M,M,M,M,M,M,M,M,M,M,M,M,M,M,M,18.06,KP68 011053Z AUTO 35012KT M02/M02 A2961 RMK AO1 SLP024 P0004 T10171022,M
DRA,2023-01-01 10:53,-116.0278,36.6206,1009.00,48.00,43.00,82.72,190.00,11.00,0.08,29.60,999.90,7.00,19.00,OVC,M,M,M,4200.00,M,M,M,RA,M,M,M,28.00,220.00,2023-01-01 10:09,42.69,KDRA 011053Z AUTO 19011G19KT 7SM RA OVC042 09/06 A2960 RMK AO2 PK WND 22028/1009 SLP999 P0008 T00890061,M
ELY,2023-01-01 10:53,-114.8453,39.2950,1909.00,28.00,28.00,100.00,20.00,16.00,0.03,29.61,1001.40,1.25,20.00,FEW,OVC,M,M,400.00,1500.00,M,M,-SN BR,M,M,M,M,M,M,15.20,KELY 011053Z AUTO 02016G20KT 1 1/4SM -SN BR FEW004 OVC015 M02/M02 A2961 RMK AO2 SLP014 P0003 T10221022,M
LOL,2023-01-01 10:53,-118.5701,40.0684,1192.43,36.00,30.90,81.53,10.00,9.00,0.00,29.73,1007.60,10.00,M,OVC,M,M,M,4400.00,M,M,M,M,M,M,M,M,M,M,28.49,KLOL 011053Z AUTO 01009KT 10SM OVC044 02/M01 A2973 RMK AO2 SLP076 T00221006,M
VGT,2023-01-01 10:53,-115.1933,36.2111,667.00,53.00,48.00,82.76,140.00,5.00,0.05,29.63,1004.30,9.00,M,SCT,OVC,M,M,3700.00,5500.00,M,M,-RA,M,M,M,M,M,M,53.10,KVGT 011053Z AUTO 14005KT 9SM -RA SCT037 OVC055 12/09 A2963 RMK AO2 SLP043 P0005 T01170089,M
BVU,2023-01-01 10:55,-114.8611,35.9475,671.00,53.60,48.20,81.87,180.00,8.00,0.00,29.66,M,6.00,M,OVC,M,M,M,3200.00,M,M,M,-RA,M,M,M,M,M,M,53.60,KBVU 011055Z AUTO 18008KT 6SM -RA OVC032 12/09 A2966 RMK AO2,M
INS,2023-01-01 10:55,-115.6733,36.5872,955.00,48.20,46.20,92.75,120.00,13.00,0.00,29.59,999.90,10.00,18.00,OVC,M,M,M,5000.00,M,M,M,M,M,M,M,28.00,130.00,2023-01-01 10:48,42.32,KINS 011055Z AUTO 12013G18KT 10SM OVC050 09/08 A2959 RMK AO2 PK WND 13028/48 SLP999 T00900079 $,M
RNO,2023-01-01 10:55,-119.7711,39.4839,1341.00,33.00,32.00,95.67,320.00,6.00,0.05,29.76,1008.20,0.50,M,BKN,OVC,M,M,900.00,1200.00,M,M,SN FG,M,M,M,M,M,M,26.86,KRNO 011055Z 32006KT 1/2SM SN FG BKN009 OVC012 01/00 A2976 RMK AO2 UPE0956SNB0957 SLP082 P0005 T00060000 RVRNO,M
RTS,2023-01-01 10:55,-119.8764,39.6682,1539.00,30.20,28.40,92.92,350.00,13.00,0.00,29.77,M,5.00,18.00,FEW,SCT,BKN,M,700.00,2700.00,3400.00,M,-UP,M,M,M,M,M,M,19.26,KRTS 011055Z AUTO 35013G18KT 5SM -UP FEW007 SCT027 BKN034 M01/M02 A2977 RMK AO2,M
05U,2023-01-01 10:55,-116.0051,39.6042,1811.23,30.20,30.20,100.00,0.00,0.00,0.01,29.64,M,1.25,M,OVC,M,M,M,200.00,M,M,M,BR,M,M,M,M,M,M,30.20,K05U 011055Z AUTO 00000KT 1 1/4SM BR OVC002 M01/M01 A2964 RMK A01 P0001,M
MEV,2023-01-01 10:55,-119.7500,38.9963,1441.42,32.00,32.00,100.00,300.00,5.00,0.01,29.73,M,1.25,M,OVC,M,M,M,300.00,M,M,M,-SN BR,M,M,M,M,M,M,26.40,KMEV 011055Z AUTO 30005KT 1 1/4SM -SN BR OVC003 00/M00 A2973 RMK AO2 P0001,M
BAM,2023-01-01 10:55,-116.8743,40.5990,1382.36,33.80,32.00,93.03,30.00,7.00,0.00,29.71,M,10.00,M,OVC,M,M,M,2300.00,M,M,M,M,M,M,M,M,M,M,26.97,KBAM 011055Z AUTO 03007KT 10SM OVC023 01/00 A2971 RMK AO1,M
TMT,2023-01-01 10:55,-117.1971,39.4643,1749.34,30.20,29.30,96.40,360.00,7.00,0.00,29.65,M,2.50,M,SCT,BKN,OVC,M,500.00,1100.00,1800.00,M,-SN,M,M,M,M,M,M,22.59,KTMT 011055Z AUTO 36007KT 2 1/2SM -SN SCT005 BKN011 OVC018 M01/M01 A2965 RMK AO2 T10101015,M
LSV,2023-01-01 10:55,-115.0343,36.2362,570.00,53.60,53.20,98.54,190.00,13.00,T,29.62,1002.20,10.00,M,OVC,M,M,M,4000.00,M,M,M,-RA,M,M,M,28.00,180.00,2023-01-01 10:06,53.60,KLSV 011055Z AUTO 19013KT 10SM -RA OVC040 12/12 A2962 RMK AO2 PK WND 18028/06 SLP022 P0000 T01200118 $,M
EKO,2023-01-01 10:56,-115.7860,40.8242,1367.00,30.90,28.00,88.84,80.00,7.00,T,29.68,1006.10,8.00,M,FEW,OVC,M,M,4600.00,9500.00,M,M,-SN,M,M,M,M,M,M,23.44,KEKO 011056Z AUTO 08007KT 8SM -SN FEW046 OVC095 M01/M02 A2968 RMK AO2 SLP061 P0000 T10061022,M
WMC,2023-01-01 10:56,-117.8072,40.9019,1315.00,34.00,25.00,69.28,20.00,16.00,0.00,29.76,1008.00,10.00,24.00,OVC,M,M,M,9500.00,M,M,M,M,M,M,M,M,M,M,23.03,KWMC 011056Z AUTO 02016G24KT 10SM OVC095 01/M04 A2976 RMK AO2 SLP080 T00111039,M
TPH,2023-01-01 10:56,-117.0904,38.0505,1654.00,32.00,30.00,92.22,310.00,16.00,0.01,29.57,1000.50,2.50,22.00,OVC,M,M,M,2300.00,M,M,M,-SN BR,M,M,M,26.00,320.00,2023-01-01 10:32,20.42,KTPH 011056Z AUTO 31016G22KT 2 1/2SM -SN BR OVC023 00/M01 A2957 RMK AO2 PK WND 32026/1032 RAE11SNB11 SLP005 P0001 T00001011,M
HND,2023-01-01 10:56,-115.1344,35.9729,742.79,52.00,47.00,82.68,180.00,13.00,0.01,29.65,1004.90,10.00,M,BKN,OVC,M,M,3900.00,5000.00,M,M,-RA,M,M,M,M,M,M,52.00,KHND 011056Z AUTO 18013KT 10SM -RA BKN039 OVC050 11/08 A2965 RMK AO2 SLP049 P0001 T01110083,M
LAS,2023-01-01 10:56,-115.1634,36.0719,663.00,52.00,47.00,82.68,180.00,4.00,0.03,29.64,1002.70,10.00,M,BKN,OVC,M,M,3300.00,6000.00,M,M,-RA,M,M,M,M,M,M,52.00,KLAS 011056Z 18004KT 10SM -RA BKN033 OVC060 11/08 A2964 RMK AO2 SLP027 P0003 T01110083,M
NFL,2023-01-01 10:56,-118.7010,39.4166,1199.00,33.00,32.00,95.67,350.00,8.00,0.03,29.72,1004.60,2.00,M,SCT,OVC,M,M,500.00,1300.00,M,M,BR,M,M,M,M,M,M,25.47,KNFL 011056Z AUTO 35008KT 2SM BR SCT005 OVC013 01/00 A2972 RMK AO2 SNEMM SLP046 P0003 T00060000 PWINO $,M
ELY,2023-01-01 11:03,-114.8453,39.2950,1909.00,28.00,28.00,100.00,30.00,16.00,0.01,29.60,M,1.50,23.00,FEW,OVC,M,M,400.00,1500.00,M,M,-SN BR,M,M,M,M,M,M,15.20,KELY 011103Z AUTO 03016G23KT 1 1/2SM -SN BR FEW004 OVC015 M02/M02 A2960 RMK AO2 P0001 T10221022,M
NFL,2023-01-01 11:04,-118.7010,39.4166,1199.00,32.00,32.00,100.00,340.00,7.00,0.00,29.72,M,1.75,M,BKN,OVC,M,M,500.00,1100.00,M,M,BR,M,M,M,M,M,M,24.78,KNFL 011104Z AUTO 34007KT 1 3/4SM BR BKN005 OVC011 00/00 A2972 RMK AO2 T00000000 PWINO $,M
TPH,2023-01-01 11:06,-117.0904,38.0505,1654.00,32.00,30.00,92.22,310.00,14.00,T,29.57,M,5.00,22.00,OVC,M,M,M,2500.00,M,M,M,-SN BR,M,M,M,M,M,M,21.16,KTPH 011106Z AUTO 31014G22KT 5SM -SN BR OVC025 00/M01 A2957 RMK AO2 P0000 T00001011,M
RNO,2023-01-01 11:14,-119.7711,39.4839,1341.00,34.00,32.00,92.29,340.00,5.00,0.01,29.76,M,1.00,M,FEW,FEW,OVC,M,600.00,1000.00,1800.00,M,-SN BR,M,M,M,M,M,M,28.77,KRNO 011114Z COR 34005KT 1SM -SN BR FEW006 FEW010 OVC018 01/00 A2976 RMK AO2 P0001 T00110000 RVRNO,M
BVU,2023-01-01 11:15,-114.8611,35.9475,671.00,51.80,48.20,87.47,240.00,4.00,0.00,29.65,M,5.00,M,FEW,BKN,OVC,M,2300.00,3000.00,3400.00,M,RA,M,M,M,M,M,M,51.80,KBVU 011115Z AUTO 24004KT 5SM RA FEW023 BKN030 OVC034 11/09 A2965 RMK AO2,M
RTS,2023-01-01 11:15,-119.8764,39.6682,1539.00,30.20,28.40,92.92,360.00,12.00,0.00,29.77,M,3.00,M,SCT,BKN,BKN,M,2200.00,3300.00,4100.00,M,-SN,M,M,M,M,M,M,19.71,KRTS 011115Z AUTO 36012KT 3SM -SN SCT022 BKN033 BKN041 M01/M02 A2977 RMK AO2,M
05U,2023-01-01 11:15,-116.0051,39.6042,1811.23,30.20,30.20,100.00,0.00,0.00,0.00,29.63,M,2.00,M,BKN,M,M,M,400.00,M,M,M,BR,M,M,M,M,M,M,30.20,K05U 011115Z AUTO 00000KT 2SM BR BKN004 M01/M01 A2963 RMK A01,M
MEV,2023-01-01 11:15,-119.7500,38.9963,1441.42,32.00,32.00,100.00,340.00,7.00,0.00,29.73,M,2.00,M,OVC,M,M,M,300.00,M,M,M,-SN BR,M,M,M,M,M,M,24.78,KMEV 011115Z AUTO 34007KT 2SM -SN BR OVC003 00/00 A2973 RMK AO2,M
BAM,2023-01-01 11:15,-116.8743,40.5990,1382.36,33.80,32.00,93.03,0.00,0.00,0.00,29.72,M,10.00,M,OVC,M,M,M,2300.00,M,M,M,M,M,M,M,M,M,M,33.80,KBAM 011115Z AUTO 00000KT 10SM OVC023 01/00 A2972 RMK AO1,M
TMT,2023-01-01 11:15,-117.1971,39.4643,1749.34,30.20,29.30,96.40,10.00,10.00,0.00,29.64,M,2.50,M,SCT,BKN,OVC,M,500.00,1200.00,1900.00,M,-SN,M,M,M,M,M,M,20.71,KTMT 011115Z AUTO 01010KT 2 1/2SM -SN SCT005 BKN012 OVC019 M01/M01 A2964 RMK AO2 T10101015,M
INS,2023-01-01 11:16,-115.6733,36.5872,955.00,48.20,46.40,93.45,110.00,11.00,0.00,29.58,999.60,10.00,M,BKN,OVC,M,M,5500.00,7000.00,M,M,-RA,M,M,M,M,M,M,42.94,KINS 011116Z AUTO 11011KT 10SM -RA BKN055 OVC070 09/08 A2958 RMK AO2 RAB16 SLP996 $,M
LSV,2023-01-01 11:21,-115.0343,36.2362,570.00,53.60,53.60,100.00,180.00,12.00,0.00,29.60,1001.50,10.00,M,SCT,M,M,M,3900.00,M,M,M,-RA,M,M,M,M,M,M,53.60,KLSV 011121Z AUTO 18012KT 10SM -RA SCT039 12/12 A2960 RMK AO2 SLP015 $,M
RNO,2023-01-01 11:22,-119.7711,39.4839,1341.00,34.00,32.00,92.29,340.00,8.00,0.01,29.76,M,1.00,M,OVC,M,M,M,1800.00,M,M,M,-SN BR,M,M,M,M,M,M,26.58,KRNO 011122Z 34008KT 1SM -SN BR OVC018 01/00 A2976 RMK AO2 P0001 T00110000 RVRNO,M
ELY,2023-01-01 11:30,-114.8453,39.2950,1909.00,28.00,28.00,100.00,20.00,11.00,0.01,29.60,M,1.00,22.00,FEW,OVC,M,M,500.00,1500.00,M,M,-SN BR,M,M,M,M,M,M,17.92,KELY 011130Z AUTO 02011G22KT 1SM -SN BR FEW005 OVC015 M02/M02 A2960 RMK AO2 P0001 T10221022,M
BVU,2023-01-01 11:35,-114.8611,35.9475,671.00,51.80,50.00,93.55,260.00,5.00,0.00,29.65,M,4.00,M,BKN,OVC,M,M,2500.00,3200.00,M,M,RA,M,M,M,M,M,M,51.80,KBVU 011135Z AUTO 26005KT 4SM RA BKN025 OVC032 11/10 A2965 RMK AO2,M
RTS,2023-01-01 11:35,-119.8764,39.6682,1539.00,30.20,28.40,92.92,350.00,11.00,0.00,29.78,M,2.00,M,SCT,SCT,M,M,300.00,2100.00,M,M,-SN,M,M,M,M,M,M,20.19,KRTS 011135Z AUTO 35011KT 2SM -SN SCT003 SCT021 M01/M02 A2978 RMK AO2,M
TPH,2023-01-01 11:35,-117.0904,38.0505,1654.00,32.00,30.00,92.22,310.00,13.00,T,29.56,M,10.00,23.00,OVC,M,M,M,3300.00,M,M,M,M,M,M,M,M,M,M,21.57,KTPH 011135Z AUTO 31013G23KT 10SM OVC033 00/M01 A2956 RMK AO2 SNE09 P0000 T00001011,M
05U,2023-01-01 11:35,-116.0051,39.6042,1811.23,30.20,30.20,100.00,0.00,0.00,0.00,29.63,M,3.00,M,OVC,M,M,M,500.00,M,M,M,BR,M,M,M,M,M,M,30.20,K05U 011135Z AUTO 00000KT 3SM BR OVC005 M01/M01 A2963 RMK A01,M
MEV,2023-01-01 11:35,-119.7500,38.9963,1441.42,32.00,32.00,100.00,340.00,11.00,0.00,29.73,M,2.00,M,OVC,M,M,M,400.00,M,M,M,-SN BR,M,M,M,M,M,M,22.47,KMEV 011135Z AUTO 34011KT 2SM -SN BR OVC004 00/00 A2973 RMK AO2 VIS 1 3/4V3,M
BAM,2023-01-01 11:35,-116.8743,40.5990,1382.36,33.80,30.20,86.49,360.00,11.00,0.00,29.72,M,10.00,20.00,BKN,BKN,OVC,M,2500.00,5000.00,6500.00,M,M,M,M,M,M,M,M,24.74,KBAM 011135Z AUTO 36011G20KT 10SM BKN025 BKN050 OVC065 01/M01 A2972 RMK AO1,M
TMT,2023-01-01 11:35,-117.1971,39.4643,1749.34,30.20,29.10,95.62,360.00,12.00,0.00,29.64,M,2.00,M,SCT,OVC,M,M,700.00,1200.00,M,M,-SN,M,M,M,M,M,M,19.71,KTMT 011135Z AUTO 36012KT 2SM -SN SCT007 OVC012 M01/M02 A2964 RMK AO2 T10101016,M
ELY,2023-01-01 11:38,-114.8453,39.2950,1909.00,28.00,28.00,100.00,20.00,13.00,0.02,29.60,M,1.00,21.00,FEW,OVC,M,M,500.00,1300.00,M,M,-SN BR,M,M,M,M,M,M,16.44,KELY 011138Z AUTO 02013G21KT 1SM -SN BR FEW005 OVC013 M02/M02 A2960 RMK AO2 P0002 T10221022,M
ELY,2023-01-01 11:43,-114.8453,39.2950,1909.00,28.00,28.00,100.00,20.00,16.00,0.02,29.59,M,1.50,25.00,OVC,M,M,M,1500.00,M,M,M,-SN BR,M,M,M,M,M,M,15.20,KELY 011143Z AUTO 02016G25KT 1 1/2SM -SN BR OVC015 M02/M02 A2959 RMK AO2 P0002 T10221022,M
P68,2023-01-01 11:53,-116.0056,39.6014,1993.00,28.90,27.00,92.49,350.00,12.00,0.01,29.60,1001.90,M,M,M,M,M,M,M,M,M,M,M,M,M,M,M,M,M,18.06,KP68 011153Z AUTO 35012KT M02/M03 A2960 RMK AO1 SLP019 P0001 60017 70123 T10171028 11011 21017 58004,M
ELY,2023-01-01 11:53,-114.8453,39.2950,1909.00,28.00,28.00,100.00,20.00,14.00,0.02,29.60,1001.30,1.25,22.00,FEW,OVC,M,M,300.00,1500.00,M,M,-SN BR,M,M,M,M,M,M,16.01,KELY 011153Z AUTO 02014G22KT 1 1/4SM -SN BR FEW003 OVC015 M02/M02 A2960 RMK AO2 SLP013 P0002 60017 70049 T10221022 11017 21022 58005,M
LOL,2023-01-01 11:53,-118.5701,40.0684,1192.43,36.00,26.10,66.97,360.00,18.00,0.00,29.75,1008.10,10.00,M,OVC,M,M,M,4700.00,M,M,M,M,M,M,M,M,M,M,25.01,KLOL 011153Z AUTO 36018KT 10SM OVC047 02/M03 A2975 RMK AO2 SLP081 60002 70037 T00221033 10033 20017 53012,M
DRA,2023-01-01 11:53,-116.0278,36.6206,1009.00,48.00,44.00,86.28,220.00,16.00,0.07,29.56,998.60,8.00,M,FEW,OVC,M,M,3600.00,4300.00,M,M,-RA,M,M,M,M,M,M,41.27,KDRA 011153Z AUTO 22016KT 8SM -RA FEW036 OVC043 09/07 A2956 RMK AO2 SLP986 P0007 60025 70027 T00890067 10106 20083 58017,M
VGT,2023-01-01 11:53,-115.1933,36.2111,667.00,53.00,48.00,82.76,170.00,8.00,0.06,29.61,1003.60,7.00,M,OVC,M,M,M,5500.00,M,M,M,-RA,M,M,M,M,M,M,53.10,KVGT 011153Z AUTO 17008KT 7SM -RA OVC055 12/09 A2961 RMK AO2 SLP036 P0006 60017 70017 T01170089 10133 20117 58018,M
BVU,2023-01-01 11:55,-114.8611,35.9475,671.00,51.80,50.00,93.55,260.00,3.00,0.00,29.64,M,3.00,M,FEW,SCT,BKN,M,500.00,2100.00,2800.00,M,+RA,M,M,M,M,M,M,51.80,KBVU 011155Z AUTO 26003KT 3SM +RA FEW005 SCT021 BKN028 11/10 A2964 RMK AO2,M
RNO,2023-01-01 11:55,-119.7711,39.4839,1341.00,34.00,30.00,85.11,330.00,9.00,0.01,29.78,1008.80,1.00,M,SCT,BKN,OVC,M,1600.00,2600.00,3900.00,M,-SN BR,M,M,M,M,M,M,26.00,KRNO 011155Z 33009KT 1SM -SN BR SCT016 BKN026 OVC039 01/M01 A2978 RMK AO2 SLP088 4/008 P0001 60020 70226 T00111011 10011 20006 52018 RVRNO,8
RTS,2023-01-01 11:55,-119.8764,39.6682,1539.00,30.20,28.40,92.92,350.00,11.00,0.00,29.79,M,4.00,M,FEW,SCT,BKN,M,300.00,1900.00,7000.00,M,-SN,M,M,M,M,M,M,20.19,KRTS 011155Z AUTO 35011KT 4SM -SN FEW003 SCT019 BKN070 M01/M02 A2979 RMK AO2,M
05U,2023-01-01 11:55,-116.0051,39.6042,1811.23,30.20,30.20,100.00,0.00,0.00,0.00,29.63,M,4.00,M,OVC,M,M,M,500.00,M,M,M,BR,M,M,M,M,M,M,30.20,K05U 011155Z AUTO 00000KT 4SM BR OVC005 M01/M01 A2963 RMK A01,M
MEV,2023-01-01 11:55,-119.7500,38.9963,1441.42,32.00,32.00,100.00,340.00,11.00,0.00,29.74,M,2.00,M,BKN,BKN,OVC,M,400.00,2300.00,2900.00,M,-SN BR,M,M,M,M,M,M,22.47,KMEV 011155Z AUTO 34011KT 2SM -SN BR BKN004 BKN023 OVC029 00/00 A2974 RMK AO2,M
BAM,2023-01-01 11:55,-116.8743,40.5990,1382.36,33.80,30.20,86.49,340.00,7.00,0.00,29.73,M,10.00,20.00,SCT,BKN,OVC,M,2700.00,5500.00,6500.00,M,M,M,M,M,M,M,M,26.97,KBAM 011155Z AUTO 34007G20KT 10SM SCT027 BKN055 OVC065 01/M01 A2973 RMK AO1,M
LSV,2023-01-01 11:55,-115.0343,36.2362,570.00,52.70,52.30,98.54,190.00,9.00,T,29.60,1001.50,10.00,M,FEW,M,M,M,3800.00,M,M,M,-RA,M,M,M,M,M,M,52.70,KLSV 011155Z AUTO 19009KT 10SM -RA FEW038 12/11 A2960 RMK AO2 SLP015 P0000 60000 T01150113 10138 20115 57016 $,M
TMT,2023-01-01 11:55,-117.1971,39.4643,1749.34,30.00,29.30,97.19,10.00,12.00,0.00,29.64,M,2.50,M,SCT,OVC,M,M,700.00,1400.00,M,M,-SN,M,M,M,M,M,M,19.46,KTMT 011155Z AUTO 01012KT 2 1/2SM -SN SCT007 OVC014 M01/M01 A2964 RMK AO2 70095 T10111015 11007 21011,M
INS,2023-01-01 11:55,-115.6733,36.5872,955.00,47.70,47.30,98.51,120.00,14.00,0.01,29.56,998.90,10.00,M,OVC,M,M,M,5500.00,M,M,M,-RA,M,M,M,26.00,120.00,2023-01-01 10:58,41.40,KINS 011155Z AUTO 12014KT 10SM -RA OVC055 09/09 A2956 RMK AO2 PK WND 12026/1058 RAB16 SLP989 P0001 60001 70001 T00870085 10114 20087 57023 $,M
EKO,2023-01-01 11:56,-115.7860,40.8242,1367.00,30.90,27.00,85.26,80.00,6.00,T,29.68,1006.00,9.00,M,OVC,M,M,M,5000.00,M,M,M,-SN,M,M,M,M,M,M,24.21,KEKO 011156Z AUTO 08006KT 9SM -SN OVC050 M01/M03 A2968 RMK AO2 SLP060 P0000 60005 70033 T10061028 10006 21006 58001,M
WMC,2023-01-01 11:56,-117.8072,40.9019,1315.00,32.00,26.10,78.58,340.00,12.00,0.00,29.77,1008.50,10.00,M,OVC,M,M,M,10000.00,M,M,M,M,M,M,M,M,M,M,22.00,KWMC 011156Z AUTO 34012KT 10SM OVC100 00/M03 A2977 RMK AO2 SLP085 70007 T00001033 10028 20000 53006,M
NFL,2023-01-01 11:56,-118.7010,39.4166,1199.00,33.00,30.90,91.51,350.00,13.00,0.02,29.73,1004.80,1.75,M,BKN,OVC,M,M,500.00,1300.00,M,M,-SN BR,M,M,M,M,M,M,22.98,KNFL 011156Z AUTO 35013KT 1 3/4SM -SN BR BKN005 OVC013 01/M01 A2973 RMK AO2 SNB41 SLP048 P0002 60009 7//// T00061006 10011 20000 51010 $,M
HND,2023-01-01 11:56,-115.1344,35.9729,742.79,51.00,46.00,82.62,190.00,12.00,0.04,29.64,1004.50,10.00,M,BKN,OVC,M,M,5000.00,6000.00,M,M,-RA,M,M,M,M,M,M,51.10,KHND 011156Z AUTO 19012KT 10SM -RA BKN050 OVC060 11/08 A2964 RMK AO2 SLP045 P0004 60006 70006 T01060078 10122 20106 56015,M
TPH,2023-01-01 11:56,-117.0904,38.0505,1654.00,33.00,28.90,84.36,330.00,13.00,T,29.56,1000.20,10.00,23.00,OVC,M,M,M,4000.00,M,M,M,M,M,M,M,M,M,M,22.98,KTPH 011156Z AUTO 33013G23KT 10SM OVC040 01/M02 A2956 RMK AO2 SNE09 SLP002 P0000 60004 70005 T00061017 10056 20000 50000,M
LAS,2023-01-01 11:56,-115.1634,36.0719,663.00,51.00,51.00,100.00,170.00,4.00,0.08,29.65,1003.30,8.00,M,FEW,OVC,M,M,4100.00,5500.00,M,M,-RA,M,M,M,M,M,M,51.10,KLAS 011156Z 17004KT 8SM -RA FEW041 OVC055 11/11 A2965 RMK AO2 SLP033 P0008 60011 70011 T01060106 10128 20106 55006,M
INS,2023-01-01 12:03,-115.6733,36.5872,955.00,48.20,48.20,100.00,110.00,14.00,0.00,29.55,998.30,10.00,M,BKN,BKN,OVC,M,4900.00,6000.00,10000.00,M,M,M,M,M,M,M,M,42.04,KINS 011203Z AUTO 11014KT 10SM BKN049 BKN060 OVC100 09/09 A2955 RMK AO2 RAE03 SLP983 $,M
LSV,2023-01-01 12:05,-115.0343,36.2362,570.00,51.80,51.80,100.00,190.00,6.00,0.00,29.60,1001.60,8.00,M,CLR,M,M,M,M,M,M,M,M,M,M,M,M,M,M,51.80,KLSV 011205Z AUTO 19006KT 8SM CLR 11/11 A2960 RMK AO2 RAE05 SLP016 $,M
BVU,2023-01-01 12:15,-114.8611,35.9475,671.00,51.80,50.00,93.55,220.00,8.00,0.00,29.64,M,4.00,M,FEW,BKN,OVC,M,500.00,2200.00,2800.00,M,RA,M,M,M,M,M,M,51.80,KBVU 011215Z AUTO 22008KT 4SM RA FEW005 BKN022 OVC028 11/10 A2964 RMK AO2,M
RTS,2023-01-01 12:15,-119.8764,39.6682,1539.00,30.20,26.60,86.28,330.00,8.00,0.00,29.80,M,10.00,14.00,FEW,OVC,M,M,1900.00,7500.00,M,M,M,M,M,M,M,M,M,21.90,KRTS 011215Z AUTO 33008G14KT 10SM FEW019 OVC075 M01/M03 A2980 RMK AO2,M
05U,2023-01-01 12:15,-116.0051,39.6042,1811.23,30.20,30.20,100.00,0.00,0.00,0.00,29.62,M,4.00,M,OVC,M,M,M,500.00,M,M,M,BR,M,M,M,M,M,M,30.20,K05U 011215Z AUTO 00000KT 4SM BR OVC005 M01/M01 A2962 RMK A01,M
MEV,2023-01-01 12:15,-119.7500,38.9963,1441.42,32.00,32.00,100.00,360.00,15.00,0.00,29.74,M,1.00,M,OVC,M,M,M,300.00,M,M,M,-SN BR,M,M,M,M,M,M,20.78,KMEV 011215Z AUTO 36015KT 1SM -SN BR OVC003 00/00 A2974 RMK AO2,M
BAM,2023-01-01 12:15,-116.8743,40.5990,1382.36,33.80,30.20,86.49,340.00,11.00,0.00,29.73,M,10.00,20.00,OVC,M,M,M,5000.00,M,M,M,M,M,M,M,M,M,M,24.74,KBAM 011215Z AUTO 34011G20KT 10SM OVC050 01/M01 A2973 RMK AO1,M
TMT,2023-01-01 12:15,-117.1971,39.4643,1749.34,30.00,28.90,95.61,10.00,12.00,0.00,29.64,M,5.00,M,SCT,BKN,OVC,M,500.00,2500.00,3400.00,M,-SN,M,M,M,M,M,M,19.46,KTMT 011215Z AUTO 01012KT 5SM -SN SCT005 BKN025 OVC034 M01/M02 A2964 RMK AO2 T10111017,M
NFL,2023-01-01 12:16,-118.7010,39.4166,1199.00,33.00,30.90,91.51,350.00,15.00,T,29.73,M,2.00,M,OVC,M,M,M,500.00,M,M,M,-SN BR,M,M,M,M,M,M,22.21,KNFL 011216Z AUTO 35015KT 2SM -SN BR OVC005 01/M01 A2973 RMK AO2 P0000 T00061006 $,M
ELY,2023-01-01 12:27,-114.8453,39.2950,1909.00,28.00,28.00,100.00,30.00,13.00,0.01,29.59,M,0.75,25.00,FEW,OVC,M,M,400.00,1200.00,M,M,-SN BR,M,M,M,M,M,M,16.44,KELY 011227Z AUTO 03013G25KT 3/4SM -SN BR FEW004 OVC012 M02/M02 A2959 RMK AO2 P0001 T10221022,M
RNO,2023-01-01 12:28,-119.7711,39.4839,1341.00,34.00,30.00,85.11,340.00,9.00,0.01,29.79,M,1.00,M,SCT,OVC,M,M,2400.00,3000.00,M,M,-SN BR,M,M,M,M,M,M,26.00,KRNO 011228Z 34009KT 1SM -SN BR SCT024 OVC030 01/M01 A2979 RMK AO2 P0001 T00111011 RVRNO,M
LSV,2023-01-01 12:30,-115.0343,36.2362,570.00,51.80,51.80,100.00,190.00,5.00,0.00,29.57,1000.60,10.00,M,FEW,M,M,M,6000.00,M,M,M,-RA,M,M,M,M,M,M,51.80,KLSV 011230Z AUTO 19005KT 10SM -RA FEW060 11/11 A2957 RMK AO2 RAE05RAB30 PRESFR SLP006 $,M
LSV,2023-01-01 12:31,-115.0343,36.2362,570.00,51.80,51.80,100.00,190.00,5.00,0.00,29.57,1000.60,10.00,M,FEW,M,M,M,6000.00,M,M,M,M,M,M,M,M,M,M,51.80,KLSV 011231Z AUTO 19005KT 10SM FEW060 11/11 A2957 RMK AO2 RAE05RAB30E30 SLP006 $,M
BVU,2023-01-01 12:35,-114.8611,35.9475,671.00,51.80,50.00,93.55,230.00,5.00,0.00,29.63,M,5.00,M,SCT,BKN,OVC,M,2300.00,3000.00,4900.00,M,-RA,M,M,M,M,M,M,51.80,KBVU 011235Z AUTO 23005KT 5SM -RA SCT023 BKN030 OVC049 11/10 A2963 RMK AO2,M
RTS,2023-01-01 12:35,-119.8764,39.6682,1539.00,28.40,24.80,86.18,320.00,8.00,0.00,29.80,M,10.00,M,OVC,M,M,M,7500.00,M,M,M,M,M,M,M,M,M,M,19.68,KRTS 011235Z AUTO 32008KT 10SM OVC075 M02/M04 A2980 RMK AO2,M
05U,2023-01-01 12:35,-116.0051,39.6042,1811.23,28.40,28.40,100.00,0.00,0.00,0.00,29.63,M,1.00,M,OVC,M,M,M,300.00,M,M,M,BR,M,M,M,M,M,M,28.40,K05U 011235Z AUTO 00000KT 1SM BR OVC003 M02/M02 A2963 RMK A01,M
MEV,2023-01-01 12:35,-119.7500,38.9963,1441.42,32.00,32.00,100.00,360.00,17.00,0.00,29.75,M,1.75,22.00,BKN,BKN,OVC,M,300.00,800.00,2000.00,M,-SN BR,M,M,M,M,M,M,20.08,KMEV 011235Z AUTO 36017G22KT 1 3/4SM -SN BR BKN003 BKN008 OVC020 00/M00 A2975 RMK AO2,M
BAM,2023-01-01 12:35,-116.8743,40.5990,1382.36,33.80,28.40,80.36,10.00,7.00,0.00,29.73,M,10.00,20.00,SCT,BKN,OVC,M,4600.00,5000.00,6500.00,M,M,M,M,M,M,M,M,26.97,KBAM 011235Z AUTO 01007G20KT 10SM SCT046 BKN050 OVC065 01/M02 A2973 RMK AO1,M
TMT,2023-01-01 12:35,-117.1971,39.4643,1749.34,29.70,28.80,96.39,10.00,14.00,0.00,29.65,M,2.50,19.00,SCT,BKN,OVC,M,700.00,1900.00,2500.00,M,-SN,M,M,M,M,M,M,18.20,KTMT 011235Z AUTO 01014G19KT 2 1/2SM -SN SCT007 BKN019 OVC025 M01/M02 A2965 RMK AO2 T10131018,M
RNO,2023-01-01 12:36,-119.7711,39.4839,1341.00,34.00,28.90,81.37,330.00,8.00,0.01,29.79,M,1.00,M,OVC,M,M,M,2700.00,M,M,M,-SN,M,M,M,M,M,M,26.58,KRNO 011236Z 33008KT 1SM -SN OVC027 01/M02 A2979 RMK AO2 P0001 T00111017 RVRNO,M
ELY,2023-01-01 12:41,-114.8453,39.2950,1909.00,28.00,27.00,95.97,20.00,19.00,0.03,29.59,M,0.50,26.00,VV ,M,M,M,700.00,M,M,M,SN FZFG,M,M,M,26.00,20.00,2023-01-01 12:41,14.15,KELY 011241Z AUTO 02019G26KT 1/2SM SN FZFG VV007 M02/M03 A2959 RMK AO2 PK WND 02026/1241 P0003 T10221028,M
RNO,2023-01-01 12:45,-119.7711,39.4839,1341.00,34.00,28.90,81.37,350.00,8.00,0.01,29.80,M,1.00,M,BKN,OVC,M,M,2700.00,3200.00,M,M,HZ,M,M,M,M,M,M,26.58,KRNO 011245Z 35008KT 1SM HZ BKN027 OVC032 01/M02 A2980 RMK AO2 SNE40 P0001 T00111017 RVRNO,M
LSV,2023-01-01 12:46,-115.0343,36.2362,570.00,51.80,51.80,100.00,180.00,9.00,0.00,29.58,1000.90,10.00,M,SCT,M,M,M,5500.00,M,M,M,-RA,M,M,M,M,M,M,51.80,KLSV 011246Z AUTO 18009KT 10SM -RA SCT055 11/11 A2958 RMK AO2 RAE05RAB30E30RAB46 SLP009 $,M
05U,2023-01-01 12:50,-116.0051,39.6042,1811.23,28.40,28.40,100.00,0.00,0.00,0.00,29.63,M,1.00,M,OVC,M,M,M,200.00,M,M,M,BR,M,M,M,M,M,M,28.40,K05U 011250Z AUTO 00000KT 1SM BR OVC002 M02/M02 A2963 RMK A01,M
P68,2023-01-01 12:53,-116.0056,39.6014,1993.00,28.00,26.10,92.46,360.00,16.00,0.03,29.61,1002.60,M,22.00,M,M,M,M,M,M,M,M,M,M,M,M,M,M,M,15.20,KP68 011253Z AUTO 36016G22KT M02/M03 A2961 RMK AO1 SLP026 P0003 T10221033,M
DRA,2023-01-01 12:53,-116.0278,36.6206,1009.00,48.00,43.00,82.72,200.00,17.00,0.05,29.54,998.00,10.00,25.00,FEW,BKN,OVC,M,4000.00,4800.00,11000.00,M,M,M,M,M,M,M,M,41.04,KDRA 011253Z AUTO 20017G25KT 10SM FEW040 BKN048 OVC110 09/06 A2954 RMK AO2 RAE34 SLP980 P0005 T00890061,M
ELY,2023-01-01 12:53,-114.8453,39.2950,1909.00,28.00,27.00,95.97,20.00,14.00,0.03,29.58,1000.90,0.75,25.00,FEW,OVC,M,M,400.00,800.00,M,M,-SN BR,M,M,M,26.00,20.00,2023-01-01 12:41,16.01,KELY 011253Z AUTO 02014G25KT 3/4SM -SN BR FEW004 OVC008 M02/M03 A2958 RMK AO2 PK WND 02026/1241 SLP009 P0003 T10221028,M
LOL,2023-01-01 12:53,-118.5701,40.0684,1192.43,35.00,25.00,66.31,20.00,17.00,0.00,29.76,1008.70,10.00,24.00,SCT,OVC,M,M,9000.00,12000.00,M,M,M,M,M,M,M,M,M,24.14,KLOL 011253Z AUTO 02017G24KT 10SM SCT090 OVC120 02/M04 A2976 RMK AO2 SLP087 T00171039,M
VGT,2023-01-01 12:53,-115.1933,36.2111,667.00,53.00,47.00,79.40,160.00,15.00,0.01,29.58,1002.40,10.00,M,SCT,OVC,M,M,6500.00,9500.00,M,M,-RA,M,M,M,M,M,M,53.10,KVGT 011253Z AUTO 16015KT 10SM -RA SCT065 OVC095 12/08 A2958 RMK AO2 RAE23B44 SLP024 P0001 T01170083,M
INS,2023-01-01 12:54,-115.6733,36.5872,955.00,48.20,48.20,100.00,130.00,15.00,0.00,29.54,998.20,10.00,19.00,BKN,BKN,BKN,OVC,3300.00,4100.00,5000.00,6000.00,-RA,M,M,M,M,M,M,41.78,KINS 011254Z AUTO 13015G19KT 10SM -RA BKN033 BKN041 BKN050 OVC060 09/09 A2954 RMK AO2 RAE03RAB54 SLP982 $,M
BVU,2023-01-01 12:55,-114.8611,35.9475,671.00,51.80,50.00,93.55,250.00,4.00,0.00,29.62,M,6.00,M,FEW,SCT,BKN,M,3200.00,3800.00,4300.00,M,RA,M,M,M,M,M,M,51.80,KBVU 011255Z AUTO 25004KT 6SM RA FEW032 SCT038 BKN043 11/10 A2962 RMK AO2,M
INS,2023-01-01 12:55,-115.6733,36.5872,955.00,47.80,47.50,98.88,130.00,14.00,T,29.54,998.20,10.00,19.00,BKN,BKN,BKN,OVC,3300.00,4100.00,5000.00,6000.00,-RA,M,M,M,26.00,120.00,2023-01-01 12:46,41.53,KINS 011255Z AUTO 13014G19KT 10SM -RA BKN033 BKN041 BKN050 OVC060 09/09 A2954 RMK AO2 PK WND 12026/46 RAE03RAB54 SLP982 P0000 T00880086 $,M
RNO,2023-01-01 12:55,-119.7711,39.4839,1341.00,34.00,28.00,78.43,330.00,7.00,0.01,29.80,1009.50,3.00,M,SCT,OVC,M,M,2600.00,3100.00,M,M,M,M,M,M,M,M,M,27.22,KRNO 011255Z 33007KT 3SM SCT026 OVC031 01/M02 A2980 RMK AO2 SNE40 SLP095 P0001 T00111022,M
RTS,2023-01-01 12:55,-119.8764,39.6682,1539.00,28.40,24.80,86.18,290.00,5.00,0.00,29.81,M,10.00,M,OVC,M,M,M,7500.00,M,M,M,M,M,M,M,M,M,M,22.12,KRTS 011255Z AUTO 29005KT 10SM OVC075 M02/M04 A2981 RMK AO2,M
MEV,2023-01-01 12:55,-119.7500,38.9963,1441.42,32.00,30.20,92.97,360.00,21.00,0.00,29.76,M,0.75,26.00,OVC,M,M,M,300.00,M,M,M,-SN BR,M,M,M,M,M,M,18.85,KMEV 011255Z AUTO 36021G26KT 3/4SM -SN BR OVC003 00/M01 A2976 RMK AO2,M
BAM,2023-01-01 12:55,-116.8743,40.5990,1382.36,33.80,30.20,86.49,0.00,0.00,0.00,29.75,M,10.00,M,SCT,SCT,OVC,M,2700.00,4800.00,6000.00,M,M,M,M,M,M,M,M,33.80,KBAM 011255Z AUTO 00000KT 10SM SCT027 SCT048 OVC060 01/M01 A2975 RMK AO1,M
TMT,2023-01-01 12:55,-117.1971,39.4643,1749.34,29.30,28.40,96.39,360.00,16.00,0.00,29.66,M,1.25,M,BKN,OVC,M,M,700.00,1700.00,M,M,-SN,M,M,M,M,M,M,16.90,KTMT 011255Z AUTO 36016KT 1 1/4SM -SN BKN007 OVC017 M01/M02 A2966 RMK AO2 T10151020,M
LSV,2023-01-01 12:55,-115.0343,36.2362,570.00,52.50,52.20,98.90,180.00,11.00,T,29.57,1000.60,10.00,M,SCT,M,M,M,5500.00,M,M,M,-RA,M,M,M,M,M,M,52.50,KLSV 011255Z AUTO 18011KT 10SM -RA SCT055 11/11 A2957 RMK AO2 RAE05RAB30E30RAB46 SLP006 P0000 T01140112 $,M
EKO,2023-01-01 12:56,-115.7860,40.8242,1367.00,30.90,25.00,78.48,70.00,10.00,T,29.68,1006.10,10.00,M,OVC,M,M,M,5000.00,M,M,M,M,M,M,M,M,M,M,21.59,KEKO 011256Z AUTO 07010KT 10SM OVC050 M01/M04 A2968 RMK AO2 SNE26 SLP061 P0000 T10061039,M
WMC,2023-01-01 12:56,-117.8072,40.9019,1315.00,32.00,25.00,75.07,330.00,10.00,0.00,29.79,1009.40,10.00,M,OVC,M,M,M,12000.00,M,M,M,M,M,M,M,M,M,M,22.97,KWMC 011256Z AUTO 33010KT 10SM OVC120 00/M04 A2979 RMK AO2 SLP094 T00001039,M
NFL,2023-01-01 12:56,-118.7010,39.4166,1199.00,32.00,30.90,95.65,360.00,15.00,T,29.75,1005.40,1.75,M,BKN,OVC,M,M,600.00,1200.00,M,M,BR,M,M,M,M,M,M,20.78,KNFL 011256Z AUTO 36015KT 1 3/4SM BR BKN006 OVC012 00/M01 A2975 RMK AO2 SNEMM SLP054 P0000 T00001006 PWINO $,M
HND,2023-01-01 12:56,-115.1344,35.9729,742.79,51.00,45.00,79.54,180.00,14.00,0.02,29.60,1003.40,10.00,M,SCT,BKN,OVC,M,5500.00,7000.00,9000.00,M,-RA,M,M,M,M,M,M,51.10,KHND 011256Z AUTO 18014KT 10SM -RA SCT055 BKN070 OVC090 11/07 A2960 RMK AO2 SLP034 P0002 T01060072,M
TPH,2023-01-01 12:56,-117.0904,38.0505,1654.00,33.00,28.90,84.36,320.00,16.00,T,29.56,1000.10,9.00,M,FEW,OVC,M,M,3000.00,4800.00,M,M,-SN,M,M,M,M,M,M,21.85,KTPH 011256Z AUTO 32016KT 9SM -SN FEW030 OVC048 01/M02 A2956 RMK AO2 SNB12 SLP001 P0000 T00061017,M
LAS,2023-01-01 12:56,-115.1634,36.0719,663.00,51.00,50.00,96.00,180.00,9.00,0.01,29.59,1001.00,10.00,M,BKN,OVC,M,M,6500.00,9000.00,M,M,M,M,M,M,M,M,M,51.10,KLAS 011256Z 18009KT 10SM BKN065 OVC090 11/10 A2959 RMK AO2 RAE17B45E55 SLP010 P0001 T01060100 $,M
ELY,2023-01-01 13:00,-114.8453,39.2950,1909.00,28.00,28.00,100.00,20.00,13.00,0.01,29.59,M,1.00,22.00,FEW,OVC,M,M,400.00,800.00,M,M,-SN BR,M,M,M,M,M,M,16.44,KELY 011300Z AUTO 02013G22KT 1SM -SN BR FEW004 OVC008 M02/M02 A2959 RMK AO2 P0001 T10221022,M
INS,2023-01-01 13:03,-115.6733,36.5872,955.00,48.20,48.20,100.00,110.00,14.00,0.00,29.54,998.20,10.00,21.00,FEW,BKN,BKN,BKN,1200.00,3300.00,4600.00,6000.00,M,M,M,M,M,M,M,42.04,KINS 011303Z AUTO 11014G21KT 10SM FEW012 BKN033 BKN046 BKN060 09/09 A2954 RMK AO2 RAE03 SLP982 $,M
NFL,2023-01-01 13:03,-118.7010,39.4166,1199.00,32.00,30.90,95.65,360.00,18.00,0.00,29.75,M,2.00,25.00,SCT,OVC,M,M,800.00,1800.00,M,M,BR,M,M,M,M,M,M,19.75,KNFL 011303Z AUTO 36018G25KT 2SM BR SCT008 OVC018 00/M01 A2975 RMK AO2 T00001006 PWINO $,M
LSV,2023-01-01 13:09,-115.0343,36.2362,570.00,51.80,51.80,100.00,160.00,12.00,0.00,29.56,1000.20,10.00,M,FEW,M,M,M,5500.00,M,M,M,M,M,M,M,M,M,M,51.80,KLSV 011309Z AUTO 16012KT 10SM FEW055 11/11 A2956 RMK AO2 RAE09 SLP002 $,M
ELY,2023-01-01 13:11,-114.8453,39.2950,1909.00,28.00,27.00,95.97,20.00,13.00,0.01,29.59,M,1.00,27.00,VV ,M,M,M,1000.00,M,M,M,-SN BR,M,M,M,27.00,20.00,2023-01-01 13:05,16.44,KELY 011311Z AUTO 02013G27KT 1SM -SN BR VV010 M02/M03 A2959 RMK AO2 PK WND 02027/1305 P0001 T10221028,M
BVU,2023-01-01 13:15,-114.8611,35.9475,671.00,51.80,50.00,93.55,130.00,5.00,0.00,29.61,M,9.00,M,SCT,BKN,OVC,M,3100.00,4100.00,6500.00,M,-DZ,M,M,M,M,M,M,51.80,KBVU 011315Z AUTO 13005KT 9SM -DZ SCT031 BKN041 OVC065 11/10 A2961 RMK AO2,M
RTS,2023-01-01 13:15,-119.8764,39.6682,1539.00,28.40,24.80,86.18,330.00,10.00,0.00,29.81,M,10.00,M,BKN,OVC,M,M,7500.00,8000.00,M,M,M,M,M,M,M,M,M,18.45,KRTS 011315Z AUTO 33010KT 10SM BKN075 OVC080 M02/M04 A2981 RMK AO2,M
05U,2023-01-01 13:15,-116.0051,39.6042,1811.23,28.40,28.40,100.00,0.00,0.00,0.00,29.64,M,0.50,M,OVC,M,M,M,200.00,M,M,M,BR,M,M,M,M,M,M,28.40,K05U 011315Z AUTO 00000KT 1/2SM BR OVC002 M02/M02 A2964 RMK A01,M
MEV,2023-01-01 13:15,-119.7500,38.9963,1441.42,32.00,30.20,92.97,360.00,17.00,0.00,29.77,M,0.75,28.00,OVC,M,M,M,300.00,M,M,M,-SN BR,M,M,M,M,M,M,20.08,KMEV 011315Z AUTO 36017G28KT 3/4SM -SN BR OVC003 M00/M01 A2977 RMK AO2,M
BAM,2023-01-01 13:15,-116.8743,40.5990,1382.36,33.80,30.20,86.49,290.00,5.00,0.00,29.75,M,10.00,M,SCT,SCT,OVC,M,2900.00,5000.00,6500.00,M,M,M,M,M,M,M,M,28.53,KBAM 011315Z AUTO 29005KT 10SM SCT029 SCT050 OVC065 01/M01 A2975 RMK AO1,M
TMT,2023-01-01 13:15,-117.1971,39.4643,1749.34,28.60,27.70,96.37,360.00,18.00,0.00,29.67,M,2.00,22.00,BKN,OVC,M,M,700.00,1700.00,M,M,-SN,M,M,M,M,M,M,15.27,KTMT 011315Z AUTO 36018G22KT 2SM -SN BKN007 OVC017 M02/M02 A2967 RMK AO2 T10191024,M
ELY,2023-01-01 13:18,-114.8453,39.2950,1909.00,28.00,27.00,92.86,20.00,16.00,0.01,29.59,M,1.00,25.00,FEW,OVC,M,M,500.00,1000.00,M,M,-SN BR,M,M,M,27.00,20.00,2023-01-01 13:05,15.73,KELY 011318Z AUTO 02016G25KT 1SM -SN BR FEW005 OVC010 M02/M03 A2959 RMK AO2 PK WND 02027/1305 P0001 T10221028,M
NFL,2023-01-01 13:18,-118.7010,39.4166,1199.00,32.00,30.90,95.65,360.00,14.00,0.00,29.76,M,3.00,M,FEW,OVC,M,M,800.00,2200.00,M,M,BR,M,M,M,M,M,M,21.16,KNFL 011318Z AUTO 36014KT 3SM BR FEW008 OVC022 00/M01 A2976 RMK AO2 T00001006 PWINO $,M
TPH,2023-01-01 13:21,-117.0904,38.0505,1654.00,32.00,30.00,92.22,320.00,20.00,T,29.57,M,2.00,30.00,BKN,OVC,M,M,2800.00,3800.00,M,M,-SN BR,M,M,M,30.00,320.00,2023-01-01 13:17,19.14,KTPH 011321Z AUTO 32020G30KT 2SM -SN BR BKN028 OVC038 00/M01 A2957 RMK AO2 PK WND 32030/1317 P0000 T00001011,M
INS,2023-01-01 13:24,-115.6733,36.5872,955.00,48.20,46.40,93.45,110.00,14.00,0.00,29.54,998.00,10.00,M,FEW,BKN,OVC,M,1200.00,3300.00,6000.00,M,-DZ,M,M,M,M,M,M,42.04,KINS 011324Z AUTO 11014KT 10SM -DZ FEW012 BKN033 OVC060 09/08 A2954 RMK AO2 RAE03DZB24 SLP980 $,M
TPH,2023-01-01 13:26,-117.0904,38.0505,1654.00,32.00,30.00,92.22,320.00,20.00,T,29.57,M,0.75,30.00,BKN,BKN,OVC,M,2200.00,3000.00,3800.00,M,-SN BR,M,M,M,30.00,320.00,2023-01-01 13:17,19.14,KTPH 011326Z AUTO 32020G30KT 3/4SM -SN BR BKN022 BKN030 OVC038 00/M01 A2957 RMK AO2 PK WND 32030/1317 P0000 T00001011,M
BVU,2023-01-01 13:35,-114.8611,35.9475,671.00,51.80,48.20,87.47,150.00,9.00,0.00,29.60,M,10.00,M,FEW,BKN,OVC,M,4200.00,6500.00,7500.00,M,M,M,M,M,M,M,M,51.80,KBVU 011335Z AUTO 15009KT 10SM FEW042 BKN065 OVC075 11/09 A2960 RMK AO2,M
RTS,2023-01-01 13:35,-119.8764,39.6682,1539.00,28.40,24.80,86.18,330.00,8.00,0.00,29.82,M,10.00,M,FEW,BKN,OVC,M,5000.00,7000.00,8000.00,M,M,M,M,M,M,M,M,19.68,KRTS 011335Z AUTO 33008KT 10SM FEW050 BKN070 OVC080 M02/M04 A2982 RMK AO2,M
05U,2023-01-01 13:35,-116.0051,39.6042,1811.23,28.40,28.40,100.00,0.00,0.00,0.00,29.65,M,1.25,M,BKN,OVC,M,M,200.00,800.00,M,M,BR,M,M,M,M,M,M,28.40,K05U 011335Z AUTO 00000KT 1 1/4SM BR BKN002 OVC008 M02/M02 A2965 RMK A01,M
MEV,2023-01-01 13:35,-119.7500,38.9963,1441.42,32.00,30.20,92.97,350.00,17.00,0.00,29.79,M,1.00,M,OVC,M,M,M,300.00,M,M,M,-SN BR,M,M,M,M,M,M,20.08,KMEV 011335Z AUTO 35017KT 1SM -SN BR OVC003 M00/M01 A2979 RMK AO2,M
BAM,2023-01-01 13:35,-116.8743,40.5990,1382.36,32.00,28.40,86.39,330.00,11.00,0.00,29.76,M,10.00,18.00,SCT,BKN,OVC,M,2600.00,6500.00,7000.00,M,M,M,M,M,M,M,M,22.47,KBAM 011335Z AUTO 33011G18KT 10SM SCT026 BKN065 OVC070 00/M02 A2976 RMK AO1,M
TMT,2023-01-01 13:35,-117.1971,39.4643,1749.34,28.40,27.10,94.80,360.00,19.00,0.00,29.68,M,2.50,22.00,SCT,OVC,M,M,1900.00,2500.00,M,M,-SN,M,M,M,M,M,M,14.68,KTMT 011335Z AUTO 36019G22KT 2 1/2SM -SN SCT019 OVC025 M02/M03 A2968 RMK AO2 T10201027,M
TPH,2023-01-01 13:40,-117.0904,38.0505,1654.00,30.90,30.00,96.41,320.00,18.00,0.01,29.58,M,0.50,28.00,VV ,M,M,M,1100.00,M,M,M,SN FZFG,M,M,M,30.00,320.00,2023-01-01 13:17,18.30,KTPH 011340Z AUTO 32018G28KT 1/2SM SN FZFG VV011 M01/M01 A2958 RMK AO2 PK WND 32030/1317 P0001 T10061011,M
NFL,2023-01-01 13:48,-118.7010,39.4166,1199.00,33.00,28.90,84.36,10.00,13.00,0.00,29.77,M,7.00,M,FEW,OVC,M,M,1400.00,3700.00,M,M,M,M,M,M,M,M,M,22.98,KNFL 011348Z AUTO 01013KT 7SM FEW014 OVC037 01/M02 A2977 RMK AO2 T00061017 PWINO $,M
INS,2023-01-01 13:50,-115.6733,36.5872,955.00,48.20,46.40,93.45,100.00,19.00,0.00,29.53,997.60,10.00,M,FEW,FEW,BKN,OVC,1000.00,1700.00,3600.00,5000.00,M,M,M,M,M,M,M,40.86,KINS 011350Z AUTO 10019KT 10SM FEW010 FEW017 BKN036 OVC050 09/08 A2953 RMK AO2 RAE03DZB24E29RAB29E50 SLP976 $,M
TPH,2023-01-01 13:51,-117.0904,38.0505,1654.00,30.20,30.20,100.00,330.00,21.00,0.02,29.59,M,0.50,29.00,VV ,M,M,M,700.00,M,M,M,SN FZFG,M,M,M,30.00,320.00,2023-01-01 13:17,16.45,KTPH 011351Z AUTO 33021G29KT 1/2SM SN FZFG VV007 M01/M01 A2959 RMK AO2 PK WND 32030/1317 P0002,M
P68,2023-01-01 13:53,-116.0056,39.6014,1993.00,28.00,26.10,92.46,350.00,17.00,0.03,29.62,1003.00,M,25.00,M,M,M,M,M,M,M,M,M,M,M,M,26.00,350.00,2023-01-01 13:36,14.83,KP68 011353Z AUTO 35017G25KT M02/M03 A2962 RMK AO1 PK WND 35026/1336 SLP030 P0003 T10221033,M
DRA,2023-01-01 13:53,-116.0278,36.6206,1009.00,49.00,41.00,74.05,150.00,8.00,0.00,29.53,997.60,10.00,17.00,SCT,BKN,OVC,M,5000.00,6000.00,11000.00,M,M,M,M,M,35.00,230.00,2023-01-01 12:55,44.93,KDRA 011353Z AUTO 15008G17KT 10SM SCT050 BKN060 OVC110 09/05 A2953 RMK AO2 PK WND 23035/1255 SLP976 T00940050,M
ELY,2023-01-01 13:53,-114.8453,39.2950,1909.00,28.00,28.00,100.00,20.00,18.00,0.02,29.59,1001.10,1.00,M,VV ,M,M,M,1200.00,M,M,M,-SN BR,M,M,M,27.00,10.00,2023-01-01 13:25,14.48,KELY 011353Z AUTO 02018KT 1SM -SN BR VV012 M02/M02 A2959 RMK AO2 PK WND 01027/1325 SLP011 P0002 T10221022,M
VGT,2023-01-01 13:53,-115.1933,36.2111,667.00,53.00,46.00,76.75,160.00,10.00,T,29.57,1002.20,10.00,M,FEW,SCT,BKN,M,6000.00,7000.00,10000.00,M,M,M,M,M,M,M,M,53.10,KVGT 011353Z 16010KT 10SM FEW060 SCT070 BKN100 12/08 A2957 RMK AO2 RAE01B24E38 SLP022 P0000 T01170078,M
LOL,2023-01-01 13:53,-118.5701,40.0684,1192.43,34.00,26.10,72.52,20.00,11.00,0.00,29.80,1010.00,10.00,M,OVC,M,M,M,10000.00,M,M,M,M,M,M,M,M,M,M,24.99,KLOL 011353Z AUTO 02011KT 10SM OVC100 01/M03 A2980 RMK AO2 SLP100 T00111033,M
BVU,2023-01-01 13:55,-114.8611,35.9475,671.00,51.80,48.20,87.47,150.00,12.00,0.00,29.59,M,10.00,M,FEW,BKN,OVC,M,3800.00,6000.00,7000.00,M,M,M,M,M,M,M,M,51.80,KBVU 011355Z AUTO 15012KT 10SM FEW038 BKN060 OVC070 11/09 A2959 RMK AO2,M
RNO,2023-01-01 13:55,-119.7711,39.4839,1341.00,33.00,26.10,75.18,330.00,10.00,0.00,29.82,1010.40,10.00,M,BKN,M,M,M,3800.00,M,M,M,M,M,M,M,M,M,M,24.35,KRNO 011355Z 33010KT 10SM BKN038 01/M03 A2982 RMK AO2 SLP104 T00061033,M
RTS,2023-01-01 13:55,-119.8764,39.6682,1539.00,28.40,23.00,79.92,330.00,9.00,0.00,29.83,M,10.00,M,BKN,OVC,M,M,7000.00,7500.00,M,M,M,M,M,M,M,M,M,19.04,KRTS 011355Z AUTO 33009KT 10SM BKN070 OVC075 M02/M05 A2983 RMK AO2,M
05U,2023-01-01 13:55,-116.0051,39.6042,1811.23,28.40,28.40,100.00,0.00,0.00,0.00,29.65,M,2.50,M,FEW,SCT,BKN,M,200.00,700.00,1500.00,M,BR,M,M,M,M,M,M,28.40,K05U 011355Z AUTO 00000KT 2 1/2SM BR FEW002 SCT007 BKN015 M02/M02 A2965 RMK A01,M
MEV,2023-01-01 13:55,-119.7500,38.9963,1441.42,32.00,30.20,92.97,350.00,17.00,0.00,29.80,M,1.00,22.00,OVC,M,M,M,300.00,M,M,M,-SN BR,M,M,M,M,M,M,20.08,KMEV 011355Z AUTO 35017G22KT 1SM -SN BR OVC003 M00/M01 A2980 RMK AO2,M
BAM,2023-01-01 13:55,-116.8743,40.5990,1382.36,32.00,28.40,86.39,340.00,15.00,0.00,29.76,M,10.00,23.00,SCT,BKN,OVC,M,2600.00,4800.00,7000.00,M,M,M,M,M,M,M,M,20.78,KBAM 011355Z AUTO 34015G23KT 10SM SCT026 BKN048 OVC070 00/M02 A2976 RMK AO1,M
TMT,2023-01-01 13:55,-117.1971,39.4643,1749.34,28.40,27.10,94.80,360.00,16.00,0.00,29.70,M,2.50,M,BKN,OVC,M,M,2000.00,2500.00,M,M,-SN,M,M,M,M,M,M,15.73,KTMT 011355Z AUTO 36016KT 2 1/2SM -SN BKN020 OVC025 M02/M03 A2970 RMK AO2 T10201027,M
LSV,2023-01-01 13:55,-115.0343,36.2362,570.00,53.00,52.70,98.54,130.00,8.00,T,29.56,1000.20,10.00,M,FEW,M,M,M,6000.00,M,M,M,M,M,M,M,M,M,M,53.10,KLSV 011355Z AUTO 13008KT 10SM FEW060 12/12 A2956 RMK AO2 RAE09 SLP002 P0000 T01170115 $,M
INS,2023-01-01 13:55,-115.6733,36.5872,955.00,47.50,47.00,98.51,110.00,17.00,T,29.54,998.00,10.00,M,FEW,FEW,BKN,OVC,1000.00,1700.00,3600.00,4700.00,M,M,M,M,M,M,M,40.38,KINS 011355Z AUTO 11017KT 10SM FEW010 FEW017 BKN036 OVC047 09/08 A2954 RMK AO2 RAE03DZB24E29RAB29E50 SLP980 P0000 T00860084 $,M
EKO,2023-01-01 13:56,-115.7860,40.8242,1367.00,30.90,23.00,72.18,40.00,11.00,T,29.70,1006.70,10.00,19.00,BKN,OVC,M,M,4100.00,5000.00,M,M,M,M,M,M,M,M,M,21.08,KEKO 011356Z AUTO 04011G19KT 10SM BKN041 OVC050 M01/M05 A2970 RMK AO2 SNB22E36 SLP067 P0000 T10061050,M
WMC,2023-01-01 13:56,-117.8072,40.9019,1315.00,30.90,25.00,78.48,350.00,11.00,0.00,29.80,1009.70,10.00,M,FEW,M,M,M,12000.00,M,M,M,M,M,M,M,M,M,M,21.08,KWMC 011356Z AUTO 35011KT 10SM FEW120 M01/M04 A2980 RMK AO2 SLP097 T10061039,M
NFL,2023-01-01 13:56,-118.7010,39.4166,1199.00,33.00,28.90,84.36,10.00,13.00,0.00,29.78,1006.20,10.00,M,FEW,BKN,OVC,M,1500.00,3700.00,7000.00,M,M,M,M,M,M,M,M,22.98,KNFL 011356Z AUTO 01013KT 10SM FEW015 BKN037 OVC070 01/M02 A2978 RMK AO2 SLP062 T00061017 PWINO $,M
TPH,2023-01-01 13:56,-117.0904,38.0505,1654.00,30.90,30.00,96.41,320.00,17.00,0.02,29.59,1001.20,0.50,29.00,VV ,M,M,M,700.00,M,M,M,SN FZFG,M,M,M,30.00,320.00,2023-01-01 13:17,18.63,KTPH 011356Z AUTO 32017G29KT 1/2SM SN FZFG VV007 M01/M01 A2959 RMK AO2 PK WND 32030/1317 SLP012 P0002 T10061011,M
LAS,2023-01-01 13:56,-115.1634,36.0719,663.00,52.00,45.00,76.94,200.00,5.00,T,29.58,1000.90,10.00,M,FEW,SCT,OVC,M,5500.00,7500.00,11000.00,M,M,M,M,M,M,M,M,52.00,KLAS 011356Z 20005KT 10SM FEW055 SCT075 OVC110 11/07 A2958 RMK AO2 RAB04E16 SLP009 P0000 T01110072 $,M
HND,2023-01-01 13:56,-115.1344,35.9729,742.79,51.00,44.00,76.86,170.00,10.00,T,29.59,1003.20,10.00,M,BKN,BKN,M,M,5500.00,7000.00,M,M,M,M,M,M,M,M,M,51.10,KHND 011356Z AUTO 17010KT 10SM BKN055 BKN070 11/07 A2959 RMK AO2 RAE08 SLP032 P0000 T01060067,M
ELY,2023-01-01 14:00,-114.8453,39.2950,1909.00,28.00,28.00,100.00,20.00,18.00,T,29.59,M,0.50,M,VV ,M,M,M,1000.00,M,M,M,SN FZFG,M,M,M,M,M,M,15.01,KELY 011400Z AUTO 02018KT 1/2SM SN FZFG VV010 M02/M02 A2959 RMK AO2 P0000 T10221022,M
INS,2023-01-01 14:05,-115.6733,36.5872,955.00,48.20,46.40,93.45,110.00,15.00,0.00,29.54,998.00,10.00,M,FEW,SCT,BKN,BKN,1100.00,1800.00,2300.00,2800.00,M,M,M,M,M,M,M,41.78,KINS 011405Z AUTO 11015KT 10SM FEW011 SCT018 BKN023 BKN028 BKN036 OVC047 09/08 A2954 RMK AO2 BKN023 V SCT SLP980 $,M
INS,2023-01-01 14:10,-115.6733,36.5872,955.00,48.20,46.40,93.45,110.00,16.00,0.00,29.54,998.00,10.00,M,FEW,SCT,SCT,BKN,1100.00,2100.00,2800.00,3500.00,M,M,M,M,M,M,M,41.53,KINS 011410Z AUTO 11016KT 10SM FEW011 SCT021 SCT028 BKN035 OVC047 09/08 A2954 RMK AO2 SLP980 $,M
TPH,2023-01-01 14:11,-117.0904,38.0505,1654.00,32.00,28.90,88.17,320.00,18.00,T,29.59,M,1.25,27.00,OVC,M,M,M,1000.00,M,M,M,-SN BR,M,M,M,27.00,320.00,2023-01-01 14:11,19.75,KTPH 011411Z AUTO 32018G27KT 1 1/4SM -SN BR OVC010 00/M02 A2959 RMK AO2 PK WND 32027/1411 P0000 T00001017,M
BVU,2023-01-01 14:15,-114.8611,35.9475,671.00,51.80,48.20,87.47,150.00,10.00,0.00,29.60,M,10.00,16.00,OVC,M,M,M,6000.00,M,M,M,M,M,M,M,M,M,M,51.80,KBVU 011415Z AUTO 15010G16KT 10SM OVC060 11/09 A2960 RMK AO2,M
RTS,2023-01-01 14:15,-119.8764,39.6682,1539.00,28.40,23.00,79.92,340.00,10.00,0.00,29.84,M,10.00,M,BKN,OVC,M,M,7500.00,8500.00,M,M,M,M,M,M,M,M,M,18.45,KRTS 011415Z AUTO 34010KT 10SM BKN075 OVC085 M02/M05 A2984 RMK AO2,M
05U,2023-01-01 14:15,-116.0051,39.6042,1811.23,28.40,28.40,100.00,0.00,0.00,0.00,29.66,M,1.25,M,BKN,BKN,BKN,M,200.00,700.00,1500.00,M,BR,M,M,M,M,M,M,28.40,K05U 011415Z AUTO 00000KT 1 1/4SM BR BKN002 BKN007 BKN015 M02/M02 A2966 RMK A01,M
MEV,2023-01-01 14:15,-119.7500,38.9963,1441.42,30.20,30.20,100.00,340.00,17.00,0.00,29.81,M,1.00,25.00,OVC,M,M,M,300.00,M,M,M,-SN BR,M,M,M,M,M,M,17.72,KMEV 011415Z AUTO 34017G25KT 1SM -SN BR OVC003 M01/M01 A2981 RMK AO2,M
BAM,2023-01-01 14:15,-116.8743,40.5990,1382.36,33.80,26.60,74.63,150.00,5.00,0.00,29.78,M,10.00,M,SCT,OVC,M,M,4800.00,5500.00,M,M,M,M,M,M,M,M,M,28.53,KBAM 011415Z AUTO 15005KT 10SM SCT048 OVC055 01/M03 A2978 RMK AO1,M
TMT,2023-01-01 14:15,-117.1971,39.4643,1749.34,28.20,26.80,94.40,360.00,13.00,0.00,29.71,M,2.50,M,BKN,OVC,M,M,1700.00,2400.00,M,M,-SN,M,M,M,M,M,M,16.70,KTMT 011415Z AUTO 36013KT 2 1/2SM -SN BKN017 OVC024 M02/M03 A2971 RMK AO2 T10211029,M
ELY,2023-01-01 14:19,-114.8453,39.2950,1909.00,28.00,27.00,95.97,20.00,18.00,0.01,29.59,M,0.75,25.00,VV ,M,M,M,900.00,M,M,M,-SN BR,M,M,M,26.00,20.00,2023-01-01 14:07,14.48,KELY 011419Z AUTO 02018G25KT 3/4SM -SN BR VV009 M02/M03 A2959 RMK AO2 PK WND 02026/1407 P0001 T10221028,M
TPH,2023-01-01 14:19,-117.0904,38.0505,1654.00,32.00,28.90,88.17,320.00,19.00,T,29.60,M,3.00,28.00,OVC,M,M,M,1400.00,M,M,M,-SN BR,M,M,M,28.00,320.00,2023-01-01 14:16,19.44,KTPH 011419Z AUTO 32019G28KT 3SM -SN BR OVC014 00/M02 A2960 RMK AO2 PK WND 32028/1416 P0000 T00001017,M
TPH,2023-01-01 14:27,-117.0904,38.0505,1654.00,32.00,28.90,88.17,320.00,18.00,T,29.60,M,9.00,M,OVC,M,M,M,2000.00,M,M,M,-SN,M,M,M,28.00,320.00,2023-01-01 14:16,19.75,KTPH 011427Z AUTO 32018KT 9SM -SN OVC020 00/M02 A2960 RMK AO2 PK WND 32028/1416 P0000 T00001017,M
BVU,2023-01-01 14:35,-114.8611,35.9475,671.00,51.80,48.20,87.47,140.00,9.00,0.00,29.60,M,10.00,M,FEW,FEW,OVC,M,3000.00,3600.00,5500.00,M,M,M,M,M,M,M,M,51.80,KBVU 011435Z AUTO 14009KT 10SM FEW030 FEW036 OVC055 11/09 A2960 RMK AO2,M
RTS,2023-01-01 14:35,-119.8764,39.6682,1539.00,28.40,23.00,79.92,340.00,8.00,0.00,29.84,M,10.00,14.00,OVC,M,M,M,8000.00,M,M,M,M,M,M,M,M,M,M,19.68,KRTS 011435Z AUTO 34008G14KT 10SM OVC080 M02/M05 A2984 RMK AO2,M
05U,2023-01-01 14:35,-116.0051,39.6042,1811.23,28.40,28.40,100.00,0.00,0.00,0.00,29.67,M,0.50,M,OVC,M,M,M,200.00,M,M,M,FZFG,M,M,M,M,M,M,28.40,K05U 011435Z AUTO 00000KT 1/2SM FZFG OVC002 M02/M02 A2967 RMK A01,M
MEV,2023-01-01 14:35,-119.7500,38.9963,1441.42,30.20,28.40,92.92,350.00,11.00,0.00,29.82,M,4.00,M,FEW,BKN,OVC,M,300.00,1800.00,6000.00,M,-SN BR,M,M,M,M,M,M,20.19,KMEV 011435Z AUTO 35011KT 4SM -SN BR FEW003 BKN018 OVC060 M01/M02 A2982 RMK AO2,M
BAM,2023-01-01 14:35,-116.8743,40.5990,1382.36,32.00,28.40,86.39,340.00,13.00,0.00,29.79,M,10.00,M,SCT,OVC,M,M,2500.00,5500.00,M,M,M,M,M,M,M,M,M,21.57,KBAM 011435Z AUTO 34013KT 10SM SCT025 OVC055 00/M02 A2979 RMK AO1,M
TMT,2023-01-01 14:35,-117.1971,39.4643,1749.34,27.50,26.20,94.78,360.00,14.00,0.00,29.72,M,2.50,M,SCT,OVC,M,M,1700.00,2400.00,M,M,-SN,M,M,M,M,M,M,15.36,KTMT 011435Z AUTO 36014KT 2 1/2SM -SN SCT017 OVC024 M02/M03 A2972 RMK AO2 T10251032,M
LSV,2023-01-01 14:42,-115.0343,36.2362,570.00,53.60,51.80,93.60,140.00,5.00,0.00,29.56,1000.20,10.00,M,OVC,M,M,M,5000.00,M,M,M,-RA,M,M,M,M,M,M,53.60,KLSV 011442Z AUTO 14005KT 10SM -RA OVC050 12/11 A2956 RMK AO2 RAB42 SLP002 $,M
TPH,2023-01-01 14:46,-117.0904,38.0505,1654.00,32.00,28.90,88.17,320.00,21.00,T,29.60,M,6.00,30.00,OVC,M,M,M,3600.00,M,M,M,-SN BR,M,M,M,30.00,320.00,2023-01-01 14:45,18.85,KTPH 011446Z AUTO 32021G30KT 6SM -SN BR OVC036 00/M02 A2960 RMK AO2 PK WND 32030/1445 P0000 T00001017,M
P68,2023-01-01 14:53,-116.0056,39.6014,1993.00,27.00,25.00,92.05,360.00,19.00,0.04,29.64,1004.00,M,26.00,M,M,M,M,M,M,M,M,M,M,M,M,30.00,10.00,2023-01-01 14:42,12.82,KP68 011453Z AUTO 36019G26KT M03/M04 A2964 RMK AO1 PK WND 01030/1442 SLP040 P0004 60010 T10281039 53013,M
ELY,2023-01-01 14:53,-114.8453,39.2950,1909.00,28.00,27.00,95.97,20.00,18.00,0.03,29.60,1002.30,0.75,25.00,VV ,M,M,M,900.00,M,M,M,-SN BR,M,M,M,28.00,20.00,2023-01-01 14:37,14.48,KELY 011453Z AUTO 02018G25KT 3/4SM -SN BR VV009 M02/M03 A2960 RMK AO2 PK WND 02028/1437 SLP023 P0003 60008 T10221028 53001,M
VGT,2023-01-01 14:53,-115.1933,36.2111,667.00,53.00,46.00,76.75,130.00,9.00,0.01,29.57,1002.30,10.00,M,SCT,OVC,M,M,5500.00,9000.00,M,M,M,M,M,M,M,M,M,53.10,KVGT 011453Z 13009KT 10SM SCT055 OVC090 12/08 A2957 RMK AO2 RAB01E52 SLP023 P0001 60002 T01170078 55014,M
LOL,2023-01-01 14:53,-118.5701,40.0684,1192.43,34.00,25.00,69.28,30.00,11.00,0.00,29.81,1010.60,10.00,M,CLR,M,M,M,M,M,M,M,M,M,M,M,M,M,M,24.99,KLOL 011453Z AUTO 03011KT 10SM CLR 01/M04 A2981 RMK AO2 SLP106 T00111039 52019,M
DRA,2023-01-01 14:53,-116.0278,36.6206,1009.00,49.00,40.00,70.95,220.00,9.00,0.00,29.54,998.10,10.00,20.00,BKN,OVC,M,M,4700.00,5500.00,M,M,M,M,M,M,M,M,M,44.53,KDRA 011453Z AUTO 22009G20KT 10SM BKN047 OVC055 09/04 A2954 RMK AO2 SLP981 60005 T00940044 55005,M
BVU,2023-01-01 14:55,-114.8611,35.9475,671.00,51.80,48.20,87.47,180.00,8.00,0.00,29.60,M,10.00,16.00,FEW,FEW,OVC,M,3400.00,4500.00,5500.00,M,M,M,M,M,M,M,M,51.80,KBVU 011455Z AUTO 18008G16KT 10SM FEW034 FEW045 OVC055 11/09 A2960 RMK AO2,M
RTS,2023-01-01 14:55,-119.8764,39.6682,1539.00,26.60,23.00,86.07,330.00,9.00,0.00,29.85,M,10.00,M,SCT,OVC,M,M,8000.00,12000.00,M,M,M,M,M,M,M,M,M,16.80,KRTS 011455Z AUTO 33009KT 10SM SCT080 OVC120 M03/M05 A2985 RMK AO2,M
05U,2023-01-01 14:55,-116.0051,39.6042,1811.23,28.40,28.40,100.00,0.00,0.00,0.02,29.67,M,0.25,M,OVC,M,M,M,200.00,M,M,M,FZFG,M,M,M,M,M,M,28.40,K05U 011455Z AUTO 00000KT 1/4SM FZFG OVC002 M02/M02 A2967 RMK A01 P0002,M
MEV,2023-01-01 14:55,-119.7500,38.9963,1441.42,30.20,28.40,92.92,320.00,4.00,0.00,29.83,M,10.00,M,FEW,BKN,OVC,M,1800.00,3000.00,6000.00,M,M,M,M,M,M,M,M,25.32,KMEV 011455Z AUTO 32004KT 10SM FEW018 BKN030 OVC060 M01/M02 A2983 RMK AO2,M
BAM,2023-01-01 14:55,-116.8743,40.5990,1382.36,32.00,28.40,86.39,320.00,10.00,0.00,29.80,M,10.00,14.00,SCT,BKN,OVC,M,2700.00,6500.00,7500.00,M,M,M,M,M,M,M,M,22.97,KBAM 011455Z AUTO 32010G14KT 10SM SCT027 BKN065 OVC075 00/M02 A2980 RMK AO1,M
LSV,2023-01-01 14:55,-115.0343,36.2362,570.00,53.00,52.50,98.54,170.00,6.00,T,29.56,1000.20,10.00,M,OVC,M,M,M,5000.00,M,M,M,-RA,M,M,M,M,M,M,52.90,KLSV 011455Z AUTO 17006KT 10SM -RA OVC050 12/11 A2956 RMK AO2 RAB42 SLP002 P0000 60000 T01160114 55012 $,M
TMT,2023-01-01 14:55,-117.1971,39.4643,1749.34,27.10,25.50,93.59,360.00,15.00,0.00,29.73,M,4.00,M,SCT,SCT,OVC,M,1300.00,2400.00,4200.00,M,-SN,M,M,M,M,M,M,14.43,KTMT 011455Z AUTO 36015KT 4SM -SN SCT013 SCT024 OVC042 M03/M04 A2973 RMK AO2 T10271036,M
RNO,2023-01-01 14:55,-119.7711,39.4839,1341.00,33.00,25.00,71.82,320.00,7.00,0.00,29.84,1011.20,10.00,M,FEW,BKN,BKN,M,3800.00,10000.00,18000.00,M,M,M,M,M,M,M,M,26.12,KRNO 011455Z 32007KT 10SM FEW038 BKN100 BKN180 01/M04 A2984 RMK AO2 SLP112 MTN TOPS OBSCD DSNT SE THRU W 60001 T00061039 51019,M
INS,2023-01-01 14:55,-115.6733,36.5872,955.00,47.00,46.00,96.29,120.00,11.00,0.00,29.54,998.40,10.00,M,SCT,SCT,M,M,4100.00,17000.00,M,M,M,M,M,M,M,M,M,41.30,KINS 011455Z AUTO 12011KT 10SM SCT041 SCT170 08/08 A2954 RMK AO2 SLP984 60000 T00830077 56007 $,M
EKO,2023-01-01 14:56,-115.7860,40.8242,1367.00,30.90,24.10,75.59,60.00,6.00,T,29.73,1008.00,9.00,M,OVC,M,M,M,3700.00,M,M,M,-SN,M,M,M,M,M,M,24.21,KEKO 011456Z AUTO 06006KT 9SM -SN OVC037 M01/M04 A2973 RMK AO2 SNB35 SLP080 P0000 60000 T10061044 53016,M
WMC,2023-01-01 14:56,-117.8072,40.9019,1315.00,30.90,25.00,78.48,350.00,7.00,0.00,29.83,1010.80,10.00,M,CLR,M,M,M,M,M,M,M,M,M,M,M,M,M,M,23.44,KWMC 011456Z AUTO 35007KT 10SM CLR M01/M04 A2983 RMK AO2 SLP108 T10061039 53018,M
NFL,2023-01-01 14:56,-118.7010,39.4166,1199.00,32.00,28.00,84.98,350.00,11.00,0.00,29.80,1007.00,10.00,M,FEW,M,M,M,11000.00,M,M,M,M,M,M,M,M,M,M,22.47,KNFL 011456Z AUTO 35011KT 10SM FEW110 00/M02 A2980 RMK AO2 SLP070 60000 T00001022 53022 PWINO $,M
HND,2023-01-01 14:56,-115.1344,35.9729,742.79,50.00,46.00,86.06,190.00,8.00,0.01,29.61,1003.60,10.00,M,SCT,BKN,OVC,M,4100.00,4800.00,7000.00,M,-RA,M,M,M,M,M,M,50.00,KHND 011456Z 19008KT 10SM -RA SCT041 BKN048 OVC070 10/08 A2961 RMK AO2 RAB33 SLP036 P0001 60003 T01000078 55010,M
TPH,2023-01-01 14:56,-117.0904,38.0505,1654.00,32.00,28.90,88.17,330.00,15.00,T,29.60,1001.50,9.00,28.00,OVC,M,M,M,4200.00,M,M,M,-SN,M,M,M,30.00,320.00,2023-01-01 14:45,20.78,KTPH 011456Z AUTO 33015G28KT 9SM -SN OVC042 00/M02 A2960 RMK AO2 PK WND 32030/1445 SLP015 P0000 60002 T00001017 51012,M
LAS,2023-01-01 14:56,-115.1634,36.0719,663.00,52.00,45.00,76.94,170.00,6.00,T,29.58,1000.90,10.00,M,FEW,BKN,OVC,M,4400.00,5500.00,8000.00,M,-RA,M,M,M,M,M,M,52.00,KLAS 011456Z 17006KT 10SM -RA FEW044 BKN055 OVC080 11/07 A2958 RMK AO2 RAB27 SLP009 P0000 60001 T01110072 55023 $,M
LSV,2023-01-01 14:56,-115.0343,36.2362,570.00,53.60,51.80,93.60,180.00,9.00,0.00,29.56,1000.20,10.00,M,BKN,OVC,M,M,4700.00,5500.00,M,M,-RA,M,M,M,M,M,M,53.60,KLSV 011456Z AUTO 18009KT 10SM -RA BKN047 OVC055 12/11 A2956 RMK AO2 SLP002 $,M
LSV,2023-01-01 15:05,-115.0343,36.2362,570.00,53.60,51.80,93.60,130.00,6.00,0.00,29.56,1000.20,10.00,M,SCT,M,M,M,4700.00,M,M,M,-RA,M,M,M,M,M,M,53.60,KLSV 011505Z AUTO 13006KT 10SM -RA SCT047 12/11 A2956 RMK AO2 SLP002 $,M
LSV,2023-01-01 15:12,-115.0343,36.2362,570.00,53.60,51.80,93.60,140.00,6.00,0.00,29.56,1000.20,10.00,M,SCT,M,M,M,4700.00,M,M,M,M,M,M,M,M,M,M,53.60,KLSV 011512Z AUTO 14006KT 10SM SCT047 12/11 A2956 RMK AO2 RAE12 SLP002 $,M
BVU,2023-01-01 15:15,-114.8611,35.9475,671.00,51.80,46.40,81.74,170.00,7.00,0.00,29.60,M,10.00,15.00,BKN,BKN,OVC,M,5500.00,8000.00,10000.00,M,M,M,M,M,M,M,M,51.80,KBVU 011515Z AUTO 17007G15KT 10SM BKN055 BKN080 OVC100 11/08 A2960 RMK AO2,M
RTS,2023-01-01 15:15,-119.8764,39.6682,1539.00,26.60,21.20,79.77,330.00,8.00,0.00,29.86,M,10.00,14.00,SCT,M,M,M,12000.00,M,M,M,M,M,M,M,M,M,M,17.46,KRTS 011515Z AUTO 33008G14KT 10SM SCT120 M03/M06 A2986 RMK AO2,M
05U,2023-01-01 15:15,-116.0051,39.6042,1811.23,28.40,28.40,100.00,0.00,0.00,0.00,29.68,M,0.25,M,OVC,M,M,M,200.00,M,M,M,FZFG,M,M,M,M,M,M,28.40,K05U 011515Z AUTO 00000KT 1/4SM FZFG OVC002 M02/M02 A2968 RMK A01,M
MEV,2023-01-01 15:15,-119.7500,38.9963,1441.42,30.20,26.60,86.28,330.00,5.00,0.00,29.84,M,10.00,M,BKN,BKN,OVC,M,3100.00,6500.00,8000.00,M,M,M,M,M,M,M,M,24.26,KMEV 011515Z AUTO 33005KT 10SM BKN031 BKN065 OVC080 M01/M03 A2984 RMK AO2,M
BAM,2023-01-01 15:15,-116.8743,40.5990,1382.36,32.00,26.60,80.22,320.00,13.00,0.00,29.80,M,10.00,19.00,SCT,SCT,OVC,M,2700.00,5500.00,8000.00,M,M,M,M,M,M,M,M,21.57,KBAM 011515Z AUTO 32013G19KT 270V340 10SM SCT027 SCT055 OVC080 00/M03 A2980 RMK AO1,M
TMT,2023-01-01 15:15,-117.1971,39.4643,1749.34,27.00,25.20,92.82,360.00,13.00,0.00,29.74,M,5.00,M,SCT,BKN,OVC,M,2600.00,3600.00,4200.00,M,-SN,M,M,M,M,M,M,15.16,KTMT 011515Z AUTO 36013KT 5SM -SN SCT026 BKN036 OVC042 M03/M04 A2974 RMK AO2 T10281038,M
LSV,2023-01-01 15:17,-115.0343,36.2362,570.00,53.60,51.80,93.60,140.00,6.00,0.00,29.55,999.90,10.00,M,FEW,M,M,M,4600.00,M,M,M,-RA,M,M,M,M,M,M,53.60,KLSV 011517Z AUTO 14006KT 10SM -RA FEW046 12/11 A2955 RMK AO2 RAE12RAB17 SLP999 $,M
LSV,2023-01-01 15:21,-115.0343,36.2362,570.00,51.80,51.80,100.00,160.00,8.00,0.00,29.55,999.90,10.00,M,CLR,M,M,M,M,M,M,M,M,M,M,M,M,M,M,51.80,KLSV 011521Z AUTO 16008KT 10SM CLR 11/11 A2955 RMK AO2 RAE12RAB17E21 SLP999 $,M
ELY,2023-01-01 15:31,-114.8453,39.2950,1909.00,27.00,27.00,100.00,20.00,16.00,0.02,29.60,M,0.25,24.00,VV ,M,M,M,800.00,M,M,M,SN FZFG,M,M,M,M,M,M,13.90,KELY 011531Z AUTO 02016G24KT 1/4SM SN FZFG VV008 M03/M03 A2960 RMK AO2 P0002 T10281028,M
BVU,2023-01-01 15:35,-114.8611,35.9475,671.00,51.80,48.20,87.47,210.00,7.00,0.00,29.59,M,10.00,M,FEW,BKN,OVC,M,4100.00,5000.00,10000.00,M,M,M,M,M,M,M,M,51.80,KBVU 011535Z AUTO 21007KT 10SM FEW041 BKN050 OVC100 11/09 A2959 RMK AO2,M
RTS,2023-01-01 15:35,-119.8764,39.6682,1539.00,24.80,19.40,79.62,330.00,9.00,0.00,29.87,M,10.00,M,CLR,M,M,M,M,M,M,M,M,M,M,M,M,M,M,14.56,KRTS 011535Z AUTO 33009KT 10SM CLR M04/M07 A2987 RMK AO2,M
05U,2023-01-01 15:35,-116.0051,39.6042,1811.23,28.40,28.40,100.00,0.00,0.00,0.00,29.69,M,0.25,M,OVC,M,M,M,200.00,M,M,M,FZFG,M,M,M,M,M,M,28.40,K05U 011535Z AUTO 00000KT 1/4SM FZFG OVC002 M02/M02 A2969 RMK A01,M
MEV,2023-01-01 15:35,-119.7500,38.9963,1441.42,30.20,26.60,86.28,330.00,5.00,0.00,29.84,M,10.00,M,FEW,BKN,OVC,M,3200.00,6500.00,8000.00,M,M,M,M,M,M,M,M,24.26,KMEV 011535Z AUTO 33005KT 10SM FEW032 BKN065 OVC080 M01/M03 A2984 RMK AO2,M
BAM,2023-01-01 15:35,-116.8743,40.5990,1382.36,32.00,28.40,86.39,350.00,14.00,0.00,29.80,M,10.00,20.00,BKN,OVC,M,M,7000.00,8500.00,M,M,M,M,M,M,M,M,M,21.16,KBAM 011535Z AUTO 35014G20KT 10SM BKN070 OVC085 00/M02 A2980 RMK AO1,M
TMT,2023-01-01 15:35,-117.1971,39.4643,1749.34,26.60,24.30,90.89,10.00,12.00,0.00,29.74,M,7.00,17.00,SCT,OVC,M,M,2600.00,3600.00,M,M,M,M,M,M,M,M,M,15.13,KTMT 011535Z AUTO 01012G17KT 7SM SCT026 OVC036 M03/M04 A2974 RMK AO2 T10301043,M
HND,2023-01-01 15:49,-115.1344,35.9729,742.79,M,M,M,190.00,10.00,0.00,29.60,M,10.00,14.00,SCT,BKN,M,M,8000.00,9500.00,M,M,M,M,M,M,M,M,M,M,KHND 011549Z 19010G14KT 10SM SCT080 BKN095 A2960 VCSH RMK SP,M
P68,2023-01-01 15:53,-116.0056,39.6014,1993.00,27.00,25.00,92.05,340.00,14.00,0.05,29.66,1004.70,M,M,M,M,M,M,M,M,M,M,M,M,M,M,29.00,360.00,2023-01-01 14:56,14.72,KP68 011553Z AUTO 34014KT M03/M04 A2966 RMK AO1 PK WND 36029/1456 SLP047 P0005 T10281039,M
ELY,2023-01-01 15:53,-114.8453,39.2950,1909.00,27.00,26.10,96.35,20.00,18.00,0.05,29.60,1002.70,0.25,24.00,VV ,M,M,M,700.00,M,M,M,SN FZFG,M,M,M,M,M,M,13.17,KELY 011553Z AUTO 02018G24KT 1/4SM SN FZFG VV007 M03/M03 A2960 RMK AO2 SLP027 P0005 T10281033,M
VGT,2023-01-01 15:53,-115.1933,36.2111,667.00,53.00,46.00,76.75,150.00,10.00,0.00,29.57,1002.30,10.00,M,FEW,M,M,M,11000.00,M,M,M,M,M,M,M,M,M,M,53.10,KVGT 011553Z 15010KT 10SM FEW110 12/08 A2957 RMK AO2 SLP023 T01170078,M
LOL,2023-01-01 15:53,-118.5701,40.0684,1192.43,34.00,25.00,69.28,30.00,12.00,0.00,29.83,1011.20,10.00,M,CLR,M,M,M,M,M,M,M,M,M,M,M,M,M,M,24.55,KLOL 011553Z AUTO 03012KT 10SM CLR 01/M04 A2983 RMK AO2 SLP112 T00111039,M
DRA,2023-01-01 15:53,-116.0278,36.6206,1009.00,49.00,40.00,70.95,200.00,12.00,0.00,29.55,998.40,10.00,21.00,BKN,BKN,M,M,4600.00,5500.00,M,M,M,M,M,M,M,M,M,43.51,KDRA 011553Z AUTO 20012G21KT 10SM BKN046 BKN055 09/04 A2955 RMK AO2 SLP984 T00940044,M
BVU,2023-01-01 15:55,-114.8611,35.9475,671.00,51.80,46.40,81.74,180.00,10.00,0.00,29.59,M,10.00,M,FEW,BKN,OVC,M,3900.00,4400.00,9000.00,M,M,M,M,M,M,M,M,51.80,KBVU 011555Z AUTO 18010KT 10SM FEW039 BKN044 OVC090 11/08 A2959 RMK AO2,M
RNO,2023-01-01 15:55,-119.7711,39.4839,1341.00,30.90,23.00,72.18,330.00,13.00,0.00,29.88,1012.60,10.00,M,FEW,FEW,SCT,BKN,3800.00,6000.00,10000.00,15000.00,M,M,M,M,M,M,M,20.16,KRNO 011555Z 33013KT 10SM FEW038 FEW060 SCT100 BKN150 M01/M05 A2988 RMK AO2 SLP126 MTN TOPS OBSCD DSNT SW THRU W T10061050,M
RTS,2023-01-01 15:55,-119.8764,39.6682,1539.00,24.80,19.40,79.62,340.00,9.00,0.00,29.88,M,10.00,M,CLR,M,M,M,M,M,M,M,M,M,M,M,M,M,M,14.56,KRTS 011555Z AUTO 34009KT 10SM CLR M04/M07 A2988 RMK AO2,M
05U,2023-01-01 15:55,-116.0051,39.6042,1811.23,26.60,26.60,100.00,0.00,0.00,0.01,29.69,M,0.50,M,OVC,M,M,M,200.00,M,M,M,FZFG,M,M,M,M,M,M,26.60,K05U 011555Z AUTO 00000KT 1/2SM FZFG OVC002 M03/M03 A2969 RMK A01 P0001,M
MEV,2023-01-01 15:55,-119.7500,38.9963,1441.42,30.20,24.80,80.07,340.00,6.00,0.00,29.85,M,10.00,M,BKN,OVC,M,M,7000.00,8000.00,M,M,M,M,M,M,M,M,M,23.36,KMEV 011555Z AUTO 34006KT 10SM BKN070 OVC080 M01/M04 A2985 RMK AO2,M
BAM,2023-01-01 15:55,-116.8743,40.5990,1382.36,32.00,28.40,86.39,340.00,15.00,0.00,29.80,M,10.00,24.00,SCT,OVC,M,M,7500.00,9500.00,M,M,M,M,M,M,M,M,M,20.78,KBAM 011555Z AUTO 34015G24KT 10SM SCT075 OVC095 00/M02 A2980 RMK AO1,M
TMT,2023-01-01 15:55,-117.1971,39.4643,1749.34,26.40,23.90,90.12,10.00,10.00,0.00,29.75,M,10.00,M,SCT,OVC,M,M,3600.00,5500.00,M,M,M,M,M,M,M,M,M,15.95,KTMT 011555Z AUTO 01010KT 10SM SCT036 OVC055 M03/M04 A2975 RMK AO2 T10311045,M
LSV,2023-01-01 15:55,-115.0343,36.2362,570.00,52.70,52.30,98.54,200.00,4.00,T,29.55,999.90,10.00,M,SCT,M,M,M,9000.00,M,M,M,M,M,M,M,M,M,M,52.70,KLSV 011555Z AUTO 20004KT 10SM SCT090 12/11 A2955 RMK AO2 RAE12RAB17E21 SLP999 P0000 T01150113 $,M
INS,2023-01-01 15:55,-115.6733,36.5872,955.00,46.60,46.00,97.39,90.00,13.00,0.00,29.55,998.70,10.00,M,FEW,SCT,M,M,6000.00,7500.00,M,M,M,M,M,M,M,M,M,40.27,KINS 011555Z AUTO 09013KT 10SM FEW060 SCT075 08/08 A2955 RMK AO2 SLP987 T00810077 $,M
EKO,2023-01-01 15:56,-115.7860,40.8242,1367.00,30.90,23.00,72.18,80.00,5.00,T,29.73,1008.30,10.00,M,BKN,OVC,M,M,4400.00,6500.00,M,M,M,M,M,M,M,M,M,25.09,KEKO 011556Z AUTO 08005KT 10SM BKN044 OVC065 M01/M05 A2973 RMK AO2 SNE09 SLP083 P0000 T10061050,M
WMC,2023-01-01 15:56,-117.8072,40.9019,1315.00,30.90,25.00,78.48,350.00,10.00,0.00,29.85,1011.40,10.00,M,CLR,M,M,M,M,M,M,M,M,M,M,M,M,M,M,21.59,KWMC 011556Z AUTO 35010KT 10SM CLR M01/M04 A2985 RMK AO2 SLP114 T10061039,M
NFL,2023-01-01 15:56,-118.7010,39.4166,1199.00,32.00,27.00,81.55,340.00,9.00,0.00,29.82,1007.50,10.00,M,OVC,M,M,M,10000.00,M,M,M,M,M,M,M,M,M,M,23.51,KNFL 011556Z AUTO 34009KT 10SM OVC100 00/M03 A2982 RMK AO2 SLP075 T00001028 PWINO $,M
HND,2023-01-01 15:56,-115.1344,35.9729,742.79,51.00,45.00,79.54,200.00,9.00,T,29.60,1003.50,10.00,M,BKN,OVC,M,M,9000.00,10000.00,M,M,M,M,M,M,M,M,M,51.10,KHND 011556Z 20009KT 10SM BKN090 OVC100 11/07 A2960 RMK AO2 RAE29 SLP035 P0000 T01060072,M
TPH,2023-01-01 15:56,-117.0904,38.0505,1654.00,32.00,28.90,88.17,320.00,15.00,T,29.63,1002.70,2.00,M,OVC,M,M,M,3200.00,M,M,M,-SN BR,M,M,M,29.00,340.00,2023-01-01 15:18,20.78,KTPH 011556Z AUTO 32015KT 2SM -SN BR OVC032 00/M02 A2963 RMK AO2 PK WND 34029/1518 SNE00B32 SLP027 P0000 T00001017,M
LAS,2023-01-01 15:56,-115.1634,36.0719,663.00,51.00,46.00,82.62,190.00,11.00,T,29.57,1000.50,10.00,21.00,FEW,SCT,BKN,M,2300.00,5000.00,10000.00,M,M,M,M,M,M,M,M,51.10,KLAS 011556Z 19011G21KT 10SM FEW023 SCT050 BKN100 11/08 A2957 RMK AO2 RAE04 SLP005 P0000 T01060078 $,M
ELY,2023-01-01 16:13,-114.8453,39.2950,1909.00,27.00,27.00,100.00,20.00,15.00,0.01,29.61,M,0.50,M,VV ,M,M,M,1000.00,M,M,M,SN FZFG,M,M,M,M,M,M,14.30,KELY 011613Z AUTO 02015KT 1/2SM SN FZFG VV010 M03/M03 A2961 RMK AO2 P0001 T10281028,M
TPH,2023-01-01 16:14,-117.0904,38.0505,1654.00,32.00,28.90,88.17,310.00,15.00,T,29.64,M,5.00,M,BKN,OVC,M,M,3400.00,5500.00,M,M,-SN BR,M,M,M,M,M,M,20.78,KTPH 011614Z AUTO 31015KT 5SM -SN BR BKN034 OVC055 00/M02 A2964 RMK AO2 P0000 T00001017,M
BVU,2023-01-01 16:15,-114.8611,35.9475,671.00,53.60,48.20,81.87,160.00,10.00,0.00,29.60,M,10.00,16.00,BKN,OVC,M,M,4100.00,10000.00,M,M,M,M,M,M,M,M,M,53.60,KBVU 011615Z AUTO 16010G16KT 10SM BKN041 OVC100 12/09 A2960 RMK AO2,M
RTS,2023-01-01 16:15,-119.8764,39.6682,1539.00,23.00,19.40,85.85,340.00,8.00,0.00,29.89,M,10.00,M,CLR,M,M,M,M,M,M,M,M,M,M,M,M,M,M,13.03,KRTS 011615Z AUTO 34008KT 10SM CLR M05/M07 A2989 RMK AO2,M
05U,2023-01-01 16:15,-116.0051,39.6042,1811.23,26.60,26.60,100.00,0.00,0.00,0.00,29.70,M,0.75,M,BKN,M,M,M,200.00,M,M,M,BR,M,M,M,M,M,M,26.60,K05U 011615Z AUTO 00000KT 3/4SM BR BKN002 M03/M03 A2970 RMK A01,M
MEV,2023-01-01 16:15,-119.7500,38.9963,1441.42,30.20,24.80,80.07,340.00,3.00,0.00,29.86,M,10.00,M,BKN,M,M,M,7500.00,M,M,M,M,M,M,M,M,M,M,26.63,KMEV 011615Z AUTO 34003KT 10SM BKN075 M01/M04 A2986 RMK AO2,M
BAM,2023-01-01 16:15,-116.8743,40.5990,1382.36,32.00,28.40,86.39,340.00,21.00,0.00,29.80,M,10.00,26.00,SCT,OVC,M,M,3300.00,9500.00,M,M,M,M,M,M,M,M,M,18.85,KBAM 011615Z AUTO 34021G26KT 10SM SCT033 OVC095 00/M02 A2980 RMK AO1,M
TMT,2023-01-01 16:15,-117.1971,39.4643,1749.34,26.40,23.90,90.12,360.00,8.00,0.00,29.76,M,10.00,M,OVC,M,M,M,5500.00,M,M,M,M,M,M,M,M,M,M,17.21,KTMT 011615Z AUTO 36008KT 10SM OVC055 M03/M04 A2976 RMK AO2 T10311045,M
ELY,2023-01-01 16:28,-114.8453,39.2950,1909.00,27.00,26.10,96.35,20.00,16.00,0.02,29.62,M,0.50,M,VV ,M,M,M,900.00,M,M,M,-SN FZFG,M,M,M,M,M,M,13.90,KELY 011628Z AUTO 02016KT 1/2SM -SN FZFG VV009 M03/M03 A2962 RMK AO2 P0002 T10281033,M
BVU,2023-01-01 16:35,-114.8611,35.9475,671.00,53.60,46.40,76.50,170.00,9.00,0.00,29.60,M,10.00,18.00,BKN,OVC,M,M,3800.00,4500.00,M,M,M,M,M,M,M,M,M,53.60,KBVU 011635Z AUTO 17009G18KT 10SM BKN038 OVC045 12/08 A2960 RMK AO2,M
RTS,2023-01-01 16:35,-119.8764,39.6682,1539.00,23.00,19.40,85.85,330.00,8.00,0.00,29.90,M,10.00,M,CLR,M,M,M,M,M,M,M,M,M,M,M,M,M,M,13.03,KRTS 011635Z AUTO 33008KT 10SM CLR M05/M07 A2990 RMK AO2,M
05U,2023-01-01 16:35,-116.0051,39.6042,1811.23,26.60,26.60,100.00,0.00,0.00,0.00,29.71,M,0.75,M,BKN,M,M,M,300.00,M,M,M,BR,M,M,M,M,M,M,26.60,K05U 011635Z AUTO 00000KT 3/4SM BR BKN003 M03/M03 A2971 RMK A01,M
MEV,2023-01-01 16:35,-119.7500,38.9963,1441.42,28.40,24.80,86.18,330.00,3.00,0.00,29.86,M,10.00,M,FEW,M,M,M,7000.00,M,M,M,M,M,M,M,M,M,M,24.57,KMEV 011635Z AUTO 33003KT 10SM FEW070 M02/M04 A2986 RMK AO2,M
BAM,2023-01-01 16:35,-116.8743,40.5990,1382.36,32.00,28.40,86.39,10.00,12.00,0.00,29.82,M,10.00,21.00,BKN,OVC,M,M,3500.00,11000.00,M,M,M,M,M,M,M,M,M,22.00,KBAM 011635Z AUTO 01012G21KT 10SM BKN035 OVC110 00/M02 A2982 RMK AO1,M
TMT,2023-01-01 16:35,-117.1971,39.4643,1749.34,26.60,23.70,88.63,350.00,9.00,0.00,29.76,M,10.00,M,OVC,M,M,M,5500.00,M,M,M,M,M,M,M,M,M,M,16.80,KTMT 011635Z AUTO 35009KT 10SM OVC055 M03/M05 A2976 RMK AO2 T10301046,M
ELY,2023-01-01 16:37,-114.8453,39.2950,1909.00,27.00,26.10,96.35,20.00,17.00,0.03,29.62,M,0.50,M,SCT,OVC,M,M,600.00,1000.00,M,M,-SN FZFG,M,M,M,M,M,M,13.52,KELY 011637Z AUTO 02017KT 1/2SM -SN FZFG SCT006 OVC010 M03/M03 A2962 RMK AO2 P0003 T10281033,M
ELY,2023-01-01 16:45,-114.8453,39.2950,1909.00,27.00,26.10,96.35,20.00,18.00,0.03,29.62,M,0.50,23.00,VV ,M,M,M,800.00,M,M,M,SN FZFG,M,M,M,M,M,M,13.17,KELY 011645Z AUTO 02018G23KT 1/2SM SN FZFG VV008 M03/M03 A2962 RMK AO2 P0003 T10281033,M
P68,2023-01-01 16:53,-116.0056,39.6014,1993.00,26.10,24.10,92.01,350.00,13.00,0.02,29.69,1006.00,M,M,M,M,M,M,M,M,M,M,M,M,M,M,M,M,M,14.01,KP68 011653Z AUTO 35013KT M03/M04 A2969 RMK AO1 SLP060 P0002 T10331044,M
DRA,2023-01-01 16:53,-116.0278,36.6206,1009.00,49.00,39.00,68.51,210.00,19.00,0.00,29.57,999.00,10.00,27.00,OVC,M,M,M,4600.00,M,M,M,M,M,M,M,27.00,200.00,2023-01-01 16:53,41.79,KDRA 011653Z AUTO 21019G27KT 10SM OVC046 09/04 A2957 RMK AO2 PK WND 20027/1653 SLP990 T00940039,M
ELY,2023-01-01 16:53,-114.8453,39.2950,1909.00,27.00,26.10,96.35,10.00,18.00,0.03,29.62,1003.40,0.25,24.00,VV ,M,M,M,800.00,M,M,M,SN FZFG,M,M,M,M,M,M,13.17,KELY 011653Z AUTO 01018G24KT 1/4SM SN FZFG VV008 M03/M03 A2962 RMK AO2 SLP034 P0003 T10281033,M
LOL,2023-01-01 16:53,-118.5701,40.0684,1192.43,35.00,25.00,66.31,10.00,13.00,0.00,29.85,1012.00,10.00,18.00,CLR,M,M,M,M,M,M,M,M,M,M,M,M,M,M,25.54,KLOL 011653Z AUTO 01013G18KT 10SM CLR 02/M04 A2985 RMK AO2 SLP120 T00171039,M
VGT,2023-01-01 16:53,-115.1933,36.2111,667.00,54.00,44.00,69.09,170.00,7.00,0.00,29.56,1002.10,10.00,M,SCT,OVC,M,M,7000.00,11000.00,M,M,M,M,M,M,M,M,M,54.00,KVGT 011653Z 17007KT 10SM SCT070 OVC110 12/07 A2956 RMK AO2 SLP021 T01220067,M
BVU,2023-01-01 16:55,-114.8611,35.9475,671.00,51.80,48.20,87.47,200.00,10.00,0.00,29.60,M,8.00,M,SCT,BKN,OVC,M,3700.00,4600.00,7000.00,M,M,M,M,M,M,M,M,51.80,KBVU 011655Z AUTO 20010KT 8SM SCT037 BKN046 OVC070 11/09 A2960 RMK AO2,M
INS,2023-01-01 16:55,-115.6733,36.5872,955.00,49.80,43.20,77.93,90.00,14.00,0.00,29.56,998.90,10.00,M,FEW,BKN,M,M,3300.00,7000.00,M,M,M,M,M,M,M,M,M,44.11,KINS 011655Z AUTO 09014KT 10SM FEW033 BKN070 10/06 A2956 RMK AO2 SLP989 T00990062 $,M
RNO,2023-01-01 16:55,-119.7711,39.4839,1341.00,32.00,23.00,69.04,330.00,10.00,0.00,29.91,1013.40,10.00,M,FEW,SCT,M,M,3800.00,11000.00,M,M,M,M,M,M,M,M,M,22.97,KRNO 011655Z 33010KT 10SM FEW038 SCT110 00/M05 A2991 RMK AO2 SLP134 MTN TOPS OBSCD DSNT SW THRU NW T00001050,M
RTS,2023-01-01 16:55,-119.8764,39.6682,1539.00,24.80,19.40,79.62,340.00,9.00,0.00,29.90,M,10.00,M,CLR,M,M,M,M,M,M,M,M,M,M,M,M,M,M,14.56,KRTS 011655Z AUTO 34009KT 10SM CLR M04/M07 A2990 RMK AO2,M
05U,2023-01-01 16:55,-116.0051,39.6042,1811.23,26.60,26.60,100.00,0.00,0.00,0.00,29.72,M,0.75,M,BKN,M,M,M,300.00,M,M,M,BR,M,M,M,M,M,M,26.60,K05U 011655Z AUTO 00000KT 3/4SM BR BKN003 M03/M03 A2972 RMK A01,M
MEV,2023-01-01 16:55,-119.7500,38.9963,1441.42,24.80,23.00,92.74,340.00,9.00,0.00,29.87,M,10.00,M,CLR,M,M,M,M,M,M,M,M,M,M,M,M,M,M,14.56,KMEV 011655Z AUTO 34009KT 10SM CLR M04/M05 A2987 RMK AO2,M
BAM,2023-01-01 16:55,-116.8743,40.5990,1382.36,32.00,26.60,80.22,360.00,11.00,0.00,29.83,M,10.00,16.00,SCT,OVC,M,M,7500.00,10000.00,M,M,M,M,M,M,M,M,M,22.47,KBAM 011655Z AUTO 36011G16KT 10SM SCT075 OVC100 00/M03 A2983 RMK AO1,M
LSV,2023-01-01 16:55,-115.0343,36.2362,570.00,54.00,53.60,98.55,180.00,13.00,0.00,29.55,999.90,10.00,M,CLR,M,M,M,M,M,M,M,M,M,M,M,M,M,M,54.00,KLSV 011655Z AUTO 18013KT 10SM CLR 12/12 A2955 RMK AO2 SLP999 T01220120 $,M
TMT,2023-01-01 16:55,-117.1971,39.4643,1749.34,26.60,23.50,87.89,360.00,5.00,0.00,29.76,M,10.00,M,OVC,M,M,M,5500.00,M,M,M,M,M,M,M,M,M,M,19.98,KTMT 011655Z AUTO 36005KT 10SM OVC055 M03/M05 A2976 RMK AO2 T10301047,M
EKO,2023-01-01 16:56,-115.7860,40.8242,1367.00,30.90,23.00,72.18,10.00,5.00,0.00,29.75,1008.80,10.00,M,OVC,M,M,M,8000.00,M,M,M,M,M,M,M,M,M,M,25.09,KEKO 011656Z AUTO 01005KT 10SM OVC080 M01/M05 A2975 RMK AO2 SLP088 T10061050,M
WMC,2023-01-01 16:56,-117.8072,40.9019,1315.00,32.00,25.00,75.07,350.00,10.00,0.00,29.87,1012.00,10.00,M,CLR,M,M,M,M,M,M,M,M,M,M,M,M,M,M,22.97,KWMC 011656Z AUTO 35010KT 10SM CLR 00/M04 A2987 RMK AO2 SLP120 T00001039,M
NFL,2023-01-01 16:56,-118.7010,39.4166,1199.00,32.00,27.00,81.55,350.00,3.00,T,29.86,1008.70,10.00,M,CLR,M,M,M,M,M,M,M,-SN,M,M,M,M,M,M,28.69,KNFL 011656Z AUTO 35003KT 10SM -SN CLR 00/M03 A2986 RMK AO2 SNB55 SLP087 P0000 T00001028 $,M
TPH,2023-01-01 16:56,-117.0904,38.0505,1654.00,33.00,28.00,81.30,350.00,18.00,T,29.66,1003.50,10.00,25.00,OVC,M,M,M,4200.00,M,M,M,M,M,M,M,M,M,M,21.20,KTPH 011656Z AUTO 35018G25KT 10SM OVC042 01/M02 A2966 RMK AO2 SNE48 SLP035 P0000 T00061022,M
HND,2023-01-01 16:56,-115.1344,35.9729,742.79,53.00,42.00,66.13,220.00,15.00,0.00,29.60,1003.40,10.00,M,BKN,M,M,M,4700.00,M,M,M,M,M,M,M,M,M,M,53.10,KHND 011656Z 22015KT 10SM BKN047 12/06 A2960 RMK AO2 SLP034 T01170056,M
LAS,2023-01-01 16:56,-115.1634,36.0719,663.00,53.00,44.00,71.40,190.00,6.00,0.00,29.58,1000.90,10.00,15.00,FEW,SCT,BKN,M,2600.00,5500.00,9000.00,M,M,M,M,M,M,M,M,53.10,KLAS 011656Z 19006G15KT 10SM FEW026 SCT055 BKN090 12/07 A2958 RMK AO2 SLP009 T01170067 $,M
BVU,2023-01-01 17:15,-114.8611,35.9475,671.00,51.80,46.40,81.74,180.00,8.00,0.00,29.61,M,10.00,M,SCT,SCT,BKN,M,4400.00,5500.00,6500.00,M,M,M,M,M,M,M,M,51.80,KBVU 011715Z AUTO 18008KT 10SM SCT044 SCT055 BKN065 11/08 A2961 RMK AO2,M
RTS,2023-01-01 17:15,-119.8764,39.6682,1539.00,26.60,21.20,79.77,330.00,9.00,0.00,29.91,M,10.00,16.00,CLR,M,M,M,M,M,M,M,M,M,M,M,M,M,M,16.80,KRTS 011715Z AUTO 33009G16KT 10SM CLR M03/M06 A2991 RMK AO2,M
05U,2023-01-01 17:15,-116.0051,39.6042,1811.23,26.60,26.60,100.00,0.00,0.00,0.00,29.72,M,0.50,M,BKN,M,M,M,200.00,M,M,M,BR,M,M,M,M,M,M,26.60,K05U 011715Z AUTO 00000KT 1/2SM BR BKN002 M03/M03 A2972 RMK A01,M
MEV,2023-01-01 17:15,-119.7500,38.9963,1441.42,26.60,23.00,86.07,340.00,8.00,0.00,29.89,M,10.00,M,CLR,M,M,M,M,M,M,M,M,M,M,M,M,M,M,17.46,KMEV 011715Z AUTO 34008KT 10SM CLR M03/M05 A2989 RMK AO2,M
BAM,2023-01-01 17:15,-116.8743,40.5990,1382.36,32.00,26.60,80.22,360.00,11.00,0.00,29.82,M,10.00,M,BKN,OVC,M,M,7500.00,11000.00,M,M,M,M,M,M,M,M,M,22.47,KBAM 011715Z AUTO 36011KT 10SM BKN075 OVC110 00/M03 A2982 RMK AO1,M
TMT,2023-01-01 17:15,-117.1971,39.4643,1749.34,26.60,23.40,87.53,340.00,7.00,0.00,29.77,M,10.00,M,OVC,M,M,M,6500.00,M,M,M,M,M,M,M,M,M,M,18.20,KTMT 011715Z AUTO 34007KT 10SM OVC065 M03/M05 A2977 RMK AO2 T10301048,M
BVU,2023-01-01 17:35,-114.8611,35.9475,671.00,53.60,46.40,76.50,190.00,7.00,0.00,29.60,M,10.00,M,BKN,BKN,M,M,7000.00,8000.00,M,M,M,M,M,M,M,M,M,53.60,KBVU 011735Z AUTO 19007KT 10SM BKN070 BKN080 12/08 A2960 RMK AO2,M
RTS,2023-01-01 17:35,-119.8764,39.6682,1539.00,26.60,21.20,79.77,330.00,7.00,0.00,29.92,M,10.00,13.00,CLR,M,M,M,M,M,M,M,M,M,M,M,M,M,M,18.20,KRTS 011735Z AUTO 33007G13KT 10SM CLR M03/M06 A2992 RMK AO2,M
05U,2023-01-01 17:35,-116.0051,39.6042,1811.23,26.60,26.60,100.00,0.00,0.00,0.00,29.73,M,0.75,M,BKN,M,M,M,300.00,M,M,M,BR,M,M,M,M,M,M,26.60,K05U 011735Z AUTO 00000KT 3/4SM BR BKN003 M03/M03 A2973 RMK A01,M
MEV,2023-01-01 17:35,-119.7500,38.9963,1441.42,26.60,23.00,86.07,360.00,12.00,0.00,29.89,M,10.00,M,CLR,M,M,M,M,M,M,M,M,M,M,M,M,M,M,15.13,KMEV 011735Z AUTO 36012KT 10SM CLR M03/M05 A2989 RMK AO2,M
BAM,2023-01-01 17:35,-116.8743,40.5990,1382.36,32.00,28.40,86.39,350.00,6.00,0.00,29.83,M,10.00,M,SCT,BKN,OVC,M,3100.00,7000.00,12000.00,M,M,M,M,M,M,M,M,25.53,KBAM 011735Z AUTO 35006KT 10SM SCT031 BKN070 OVC120 00/M02 A2983 RMK AO1,M
TMT,2023-01-01 17:35,-117.1971,39.4643,1749.34,25.70,22.80,88.59,360.00,5.00,0.00,29.78,M,10.00,M,SCT,SCT,SCT,M,2000.00,6500.00,10000.00,M,M,M,M,M,M,M,M,18.91,KTMT 011735Z AUTO 36005KT 10SM SCT020 SCT065 SCT100 M03/M05 A2978 RMK AO2 T10351051,M
DRA,2023-01-01 17:45,-116.0278,36.6206,1009.00,44.00,42.00,92.62,210.00,10.00,0.02,29.60,M,5.00,23.00,SCT,BKN,OVC,M,1500.00,2600.00,3700.00,M,-RA BR,M,M,M,28.00,240.00,2023-01-01 17:00,38.14,KDRA 011745Z AUTO 21010G23KT 5SM -RA BR SCT015 BKN026 OVC037 07/06 A2960 RMK AO2 PK WND 24028/1700 RAB03 P0002 T00670056,M
P68,2023-01-01 17:53,-116.0056,39.6014,1993.00,26.10,24.10,92.01,350.00,14.00,0.02,29.70,1006.40,M,M,M,M,M,M,M,M,M,M,M,M,M,M,M,M,M,13.56,KP68 011753Z AUTO 35014KT M03/M04 A2970 RMK AO1 SLP064 P0002 60019 T10331044 11017 21033 51017,M
ELY,2023-01-01 17:53,-114.8453,39.2950,1909.00,26.10,26.10,100.00,10.00,22.00,0.04,29.64,1004.50,0.50,30.00,FEW,OVC,M,M,500.00,900.00,M,M,-SN FZFG,M,M,M,30.00,20.00,2023-01-01 17:30,10.68,KELY 011753Z AUTO 01022G30KT 1/2SM -SN FZFG FEW005 OVC009 M03/M03 A2964 RMK AO2 PK WND 02030/1730 SLP045 P0004 60020 T10331033 11022 21033 53013,M
VGT,2023-01-01 17:53,-115.1933,36.2111,667.00,57.00,41.00,54.99,190.00,8.00,0.00,29.56,1001.80,10.00,M,CLR,M,M,M,M,M,M,M,M,M,M,M,M,M,M,57.00,KVGT 011753Z 19008KT 10SM CLR 14/05 A2956 RMK AO2 SLP018 60002 T01390050 10139 20111 58004,M
LOL,2023-01-01 17:53,-118.5701,40.0684,1192.43,37.00,26.10,64.38,20.00,15.00,0.00,29.87,1012.40,10.00,23.00,CLR,M,M,M,M,M,M,M,M,M,M,M,M,M,M,27.26,KLOL 011753Z AUTO 02015G23KT 10SM CLR 03/M03 A2987 RMK AO2 SLP124 T00281033 10028 20011 52018,M
DRA,2023-01-01 17:53,-116.0278,36.6206,1009.00,44.00,42.00,92.62,190.00,9.00,0.02,29.60,1000.70,10.00,M,SCT,BKN,OVC,M,1300.00,2000.00,3900.00,M,M,M,M,M,28.00,240.00,2023-01-01 17:00,38.56,KDRA 011753Z AUTO 19009KT 10SM SCT013 BKN020 OVC039 07/06 A2960 RMK AO2 PK WND 24028/1700 RAB03E51 SLP007 P0002 60007 T00670056 10106 20067 53018,M
TMT,2023-01-01 17:55,-117.1971,39.4643,1749.34,23.40,20.80,89.61,0.00,0.00,0.00,29.79,M,10.00,M,CLR,M,M,M,M,M,M,M,M,M,M,M,M,M,M,23.40,KTMT 011755Z AUTO 00000KT 10SM CLR M05/M06 A2979 RMK AO2 T10481062 11011 21048,M
BVU,2023-01-01 17:55,-114.8611,35.9475,671.00,53.60,46.40,76.50,160.00,8.00,0.00,29.60,M,10.00,M,FEW,SCT,BKN,M,4600.00,7000.00,11000.00,M,M,M,M,M,M,M,M,53.60,KBVU 011755Z AUTO 16008KT 10SM FEW046 SCT070 BKN110 12/08 A2960 RMK AO2,M
RNO,2023-01-01 17:55,-119.7711,39.4839,1341.00,32.00,26.10,78.58,0.00,0.00,0.00,29.93,1014.20,10.00,M,FEW,SCT,M,M,3800.00,6000.00,M,M,M,M,M,M,M,M,M,32.00,KRNO 011755Z 00000KT 10SM FEW038 SCT060 00/M03 A2993 RMK AO2 SLP142 MTN TOPS OBSCD DSNT SW THRU NW 4/007 60001 T00001033 10011 21011 51025,7
RTS,2023-01-01 17:55,-119.8764,39.6682,1539.00,26.60,21.20,79.77,320.00,8.00,0.00,29.93,M,10.00,M,CLR,M,M,M,M,M,M,M,M,M,M,M,M,M,M,17.46,KRTS 011755Z AUTO 32008KT 10SM CLR M03/M06 A2993 RMK AO2,M
05U,2023-01-01 17:55,-116.0051,39.6042,1811.23,28.40,26.60,92.86,0.00,0.00,0.01,29.73,M,0.75,M,VV ,M,M,M,500.00,M,M,M,BR,M,M,M,M,M,M,28.40,K05U 011755Z AUTO 00000KT 3/4SM BR VV005 M02/M03 A2973 RMK A01 P0001,M
MEV,2023-01-01 17:55,-119.7500,38.9963,1441.42,28.40,23.00,79.92,360.00,11.00,0.00,29.90,M,10.00,M,CLR,M,M,M,M,M,M,M,M,M,M,M,M,M,M,17.92,KMEV 011755Z AUTO 36011KT 10SM CLR M02/M05 A2990 RMK AO2,M
BAM,2023-01-01 17:55,-116.8743,40.5990,1382.36,33.80,26.60,74.63,60.00,3.00,0.00,29.84,M,10.00,15.00,SCT,BKN,OVC,M,3300.00,7000.00,12000.00,M,M,M,M,M,M,M,M,30.75,KBAM 011755Z AUTO 06003G15KT 10SM SCT033 BKN070 OVC120 01/M03 A2984 RMK AO1,M
INS,2023-01-01 17:55,-115.6733,36.5872,955.00,52.50,37.00,55.20,300.00,6.00,0.00,29.56,998.90,10.00,M,SCT,BKN,M,M,4000.00,8000.00,M,M,M,M,M,M,M,M,M,52.50,KINS 011755Z AUTO 30006KT 10SM SCT040 BKN080 11/03 A2956 RMK AO2 SLP989 60000 T01140027 10114 20079 51007 $,M
LSV,2023-01-01 17:55,-115.0343,36.2362,570.00,56.70,46.00,67.07,180.00,14.00,0.00,29.54,999.40,10.00,M,FEW,M,M,M,10000.00,M,M,M,M,M,M,M,M,M,M,56.70,KLSV 011755Z AUTO 18014KT 10SM FEW100 14/08 A2954 RMK AO2 SLP994 60000 T01370077 10137 20112 57006 $,M
EKO,2023-01-01 17:56,-115.7860,40.8242,1367.00,32.00,23.00,69.04,0.00,0.00,0.00,29.77,1009.20,10.00,M,OVC,M,M,M,10000.00,M,M,M,M,M,M,M,M,M,M,32.00,KEKO 011756Z AUTO 00000KT 10SM OVC100 00/M05 A2977 RMK AO2 SLP092 60000 T00001050 10000 21011 53010,M
WMC,2023-01-01 17:56,-117.8072,40.9019,1315.00,33.00,25.00,71.82,340.00,15.00,0.00,29.88,1012.50,10.00,M,FEW,M,M,M,2800.00,M,M,M,M,M,M,M,M,M,M,22.21,KWMC 011756Z AUTO 34015KT 10SM FEW028 01/M04 A2988 RMK AO2 SLP125 T00061039 10006 21006 51015,M
NFL,2023-01-01 17:56,-118.7010,39.4166,1199.00,33.00,28.90,84.36,310.00,5.00,T,29.88,1009.40,10.00,M,CLR,M,M,M,M,M,M,M,M,M,M,M,M,M,M,27.70,KNFL 011756Z AUTO 31005KT 10SM CLR 01/M02 A2988 RMK AO2 SNE04 SLP094 P0000 60000 T00061017 10006 21006 53024 $,M
HND,2023-01-01 17:56,-115.1344,35.9729,742.79,54.00,41.00,61.32,220.00,13.00,0.00,29.60,1003.30,10.00,19.00,CLR,M,M,M,M,M,M,M,M,M,M,M,27.00,210.00,2023-01-01 17:35,54.00,KHND 011756Z 22013G19KT 10SM CLR 12/05 A2960 RMK AO2 PK WND 21027/1735 SLP033 60003 T01220050 10122 20094 56002,M
TPH,2023-01-01 17:56,-117.0904,38.0505,1654.00,33.00,28.90,84.36,10.00,14.00,0.00,29.68,1004.30,10.00,M,FEW,SCT,M,M,5500.00,11000.00,M,M,M,M,M,M,27.00,350.00,2023-01-01 17:07,22.58,KTPH 011756Z AUTO 01014KT 10SM FEW055 SCT110 01/M02 A2968 RMK AO2 PK WND 35027/1707 SLP043 60002 T00061017 10006 21006 51022,M
LAS,2023-01-01 17:56,-115.1634,36.0719,663.00,56.00,38.00,50.71,210.00,19.00,0.00,29.57,1000.70,10.00,36.00,FEW,FEW,M,M,4200.00,9500.00,M,M,M,M,M,M,36.00,210.00,2023-01-01 17:56,55.90,KLAS 011756Z 21019G36KT 10SM FEW042 FEW095 13/03 A2957 RMK AO2 PK WND 21036/1756 SLP007 60001 T01330033 10133 20106 56002 $,M
BVU,2023-01-01 18:15,-114.8611,35.9475,671.00,53.60,46.40,76.50,150.00,9.00,0.00,29.59,M,10.00,M,BKN,BKN,BKN,M,4400.00,8000.00,11000.00,M,M,M,M,M,M,M,M,53.60,KBVU 011815Z AUTO 15009KT 10SM BKN044 BKN080 BKN110 12/08 A2959 RMK AO2,M
RTS,2023-01-01 18:15,-119.8764,39.6682,1539.00,28.40,21.20,74.08,340.00,10.00,0.00,29.92,M,10.00,M,CLR,M,M,M,M,M,M,M,M,M,M,M,M,M,M,18.45,KRTS 011815Z AUTO 34010KT 10SM CLR M02/M06 A2992 RMK AO2,M
05U,2023-01-01 18:15,-116.0051,39.6042,1811.23,28.40,26.60,92.86,0.00,0.00,0.00,29.73,M,0.75,M,VV ,M,M,M,500.00,M,M,M,BR,M,M,M,M,M,M,28.40,K05U 011815Z AUTO 00000KT 3/4SM BR VV005 M02/M03 A2973 RMK A01,M
MEV,2023-01-01 18:15,-119.7500,38.9963,1441.42,28.40,23.00,79.92,360.00,11.00,0.00,29.91,M,10.00,M,CLR,M,M,M,M,M,M,M,M,M,M,M,M,M,M,17.92,KMEV 011815Z AUTO 36011KT 10SM CLR M02/M05 A2991 RMK AO2,M
BAM,2023-01-01 18:15,-116.8743,40.5990,1382.36,32.00,28.40,86.39,330.00,11.00,0.00,29.83,M,10.00,16.00,SCT,SCT,BKN,M,3100.00,3500.00,7000.00,M,M,M,M,M,M,M,M,22.47,KBAM 011815Z AUTO 33011G16KT 280V350 10SM SCT031 SCT035 BKN070 00/M02 A2983 RMK AO1,M
TMT,2023-01-01 18:15,-117.1971,39.4643,1749.34,25.20,22.50,89.31,360.00,6.00,0.00,29.79,M,10.00,M,SCT,BKN,M,M,2100.00,2900.00,M,M,M,M,M,M,M,M,M,17.34,KTMT 011815Z AUTO 36006KT 10SM SCT021 BKN029 M04/M05 A2979 RMK AO2 T10381053,M
ELY,2023-01-01 18:26,-114.8453,39.2950,1909.00,26.10,25.00,95.53,10.00,21.00,0.01,29.64,M,0.25,31.00,VV ,M,M,M,800.00,M,M,M,SN FZFG,M,M,M,32.00,20.00,2023-01-01 18:05,10.98,KELY 011826Z AUTO 01021G31KT 1/4SM SN FZFG VV008 M03/M04 A2964 RMK AO2 PK WND 02032/1805 P0001 T10331039,M
05U,2023-01-01 18:30,-116.0051,39.6042,1811.23,28.40,26.60,92.86,0.00,0.00,0.00,29.73,M,1.00,M,CLR,M,M,M,M,M,M,M,BR,M,M,M,M,M,M,28.40,K05U 011830Z AUTO 00000KT 1SM BR CLR M02/M03 A2973 RMK A01,M
DRA,2023-01-01 18:30,-116.0278,36.6206,1009.00,44.00,42.00,92.62,180.00,10.00,T,29.61,M,10.00,M,FEW,OVC,M,M,400.00,2500.00,M,M,M,M,M,M,M,M,M,38.14,KDRA 011830Z AUTO 18010KT 10SM FEW004 OVC025 07/06 A2961 RMK AO2 RAB17E28 P0000 T00670056,M
BVU,2023-01-01 18:35,-114.8611,35.9475,671.00,53.60,46.40,76.50,160.00,7.00,0.00,29.59,M,10.00,M,BKN,BKN,BKN,M,4500.00,5000.00,8000.00,M,M,M,M,M,M,M,M,53.60,KBVU 011835Z AUTO 16007KT 10SM BKN045 BKN050 BKN080 12/08 A2959 RMK AO2,M
RTS,2023-01-01 18:35,-119.8764,39.6682,1539.00,28.40,21.20,74.08,350.00,8.00,0.00,29.92,M,10.00,M,CLR,M,M,M,M,M,M,M,M,M,M,M,M,M,M,19.68,KRTS 011835Z AUTO 35008KT 10SM CLR M02/M06 A2992 RMK AO2,M
MEV,2023-01-01 18:35,-119.7500,38.9963,1441.42,28.40,23.00,79.92,360.00,11.00,0.00,29.90,M,10.00,M,CLR,M,M,M,M,M,M,M,M,M,M,M,M,M,M,17.92,KMEV 011835Z AUTO 36011KT 10SM CLR M02/M05 A2990 RMK AO2,M
BAM,2023-01-01 18:35,-116.8743,40.5990,1382.36,32.00,28.40,86.39,310.00,11.00,0.00,29.83,M,10.00,19.00,SCT,M,M,M,3300.00,M,M,M,M,M,M,M,M,M,M,22.47,KBAM 011835Z AUTO 31011G19KT 10SM SCT033 00/M02 A2983 RMK AO1,M
TMT,2023-01-01 18:35,-117.1971,39.4643,1749.34,26.60,22.80,85.35,360.00,11.00,0.00,29.80,M,10.00,M,OVC,M,M,M,2000.00,M,M,M,M,M,M,M,M,M,M,15.64,KTMT 011835Z AUTO 36011KT 10SM OVC020 M03/M05 A2980 RMK AO2 T10301051,M
DRA,2023-01-01 18:42,-116.0278,36.6206,1009.00,44.00,42.00,92.62,190.00,11.00,T,29.60,M,10.00,M,BKN,BKN,OVC,M,400.00,2500.00,3700.00,M,M,M,M,M,M,M,M,37.76,KDRA 011842Z AUTO 19011KT 10SM BKN004 BKN025 OVC037 07/06 A2960 RMK AO2 RAB17E28 CIG 002V008 P0000 T00670056,M
ELY,2023-01-01 18:44,-114.8453,39.2950,1909.00,26.10,25.00,92.80,10.00,23.00,0.02,29.64,M,0.50,31.00,FEW,OVC,M,M,500.00,900.00,M,M,-SN FZFG,M,M,M,32.00,20.00,2023-01-01 18:05,11.06,KELY 011844Z AUTO 01023G31KT 1/2SM -SN FZFG FEW005 OVC009 M03/M04 A2964 RMK AO2 PK WND 02032/1805 P0002 T10331039,M
DRA,2023-01-01 18:47,-116.0278,36.6206,1009.00,44.00,42.00,92.62,200.00,13.00,T,29.60,M,10.00,M,SCT,BKN,OVC,M,400.00,1600.00,3700.00,M,M,M,M,M,M,M,M,37.07,KDRA 011847Z AUTO 20013KT 10SM SCT004 BKN016 OVC037 07/06 A2960 RMK AO2 RAB17E28 P0000 T00670056,M
P68,2023-01-01 18:53,-116.0056,39.6014,1993.00,27.00,25.00,92.05,360.00,15.00,0.01,29.69,1005.50,M,M,M,M,M,M,M,M,M,M,M,M,M,M,M,M,M,14.30,KP68 011853Z AUTO 36015KT M03/M04 A2969 RMK AO1 SLP055 P0001 T10281039,M
DRA,2023-01-01 18:53,-116.0278,36.6206,1009.00,44.00,41.00,88.77,270.00,13.00,T,29.59,1000.40,10.00,23.00,SCT,BKN,OVC,M,400.00,1400.00,3700.00,M,M,M,M,M,M,M,M,37.07,KDRA 011853Z AUTO 27013G23KT 10SM SCT004 BKN014 OVC037 07/05 A2959 RMK AO2 RAB17E28 SLP004 P0000 T00670050,M
ELY,2023-01-01 18:53,-114.8453,39.2950,1909.00,26.10,25.00,95.53,10.00,22.00,0.02,29.64,1004.20,0.50,30.00,SCT,OVC,M,M,500.00,1100.00,M,M,SN FZFG,M,M,M,32.00,20.00,2023-01-01 18:05,10.68,KELY 011853Z AUTO 01022G30KT 1/2SM SN FZFG SCT005 OVC011 M03/M04 A2964 RMK AO2 PK WND 02032/1805 SLP042 P0002 T10331039,M
LOL,2023-01-01 18:53,-118.5701,40.0684,1192.43,39.00,28.00,64.37,20.00,12.00,0.00,29.88,1012.60,10.00,M,FEW,M,M,M,3600.00,M,M,M,M,M,M,M,M,M,M,30.91,KLOL 011853Z AUTO 02012KT 10SM FEW036 04/M02 A2988 RMK AO2 SLP126 T00391022,M
VGT,2023-01-01 18:53,-115.1933,36.2111,667.00,58.00,38.00,47.18,200.00,16.00,0.00,29.53,1000.80,10.00,25.00,SCT,M,M,M,11000.00,M,M,M,M,M,M,M,M,M,M,57.90,KVGT 011853Z 20016G25KT 10SM SCT110 14/03 A2953 RMK AO2 SLP008 T01440033,M
BVU,2023-01-01 18:55,-114.8611,35.9475,671.00,55.40,42.80,62.46,220.00,9.00,0.00,29.58,M,10.00,M,SCT,M,M,M,4700.00,M,M,M,M,M,M,M,M,M,M,55.40,KBVU 011855Z AUTO 22009KT 10SM SCT047 13/06 A2958 RMK AO2,M
RNO,2023-01-01 18:55,-119.7711,39.4839,1341.00,34.00,24.10,66.72,360.00,6.00,0.00,29.92,1013.90,10.00,M,FEW,SCT,M,M,3800.00,6000.00,M,M,M,M,M,M,M,M,M,27.94,KRNO 011855Z 36006KT 10SM FEW038 SCT060 01/M04 A2992 RMK AO2 SLP139 MTN TOPS OBSCD DSNT SW THRU NW T00111044,M
RTS,2023-01-01 18:55,-119.8764,39.6682,1539.00,28.40,21.20,74.08,360.00,12.00,0.00,29.92,M,10.00,M,CLR,M,M,M,M,M,M,M,M,M,M,M,M,M,M,17.42,KRTS 011855Z AUTO 36012KT 10SM CLR M02/M06 A2992 RMK AO2,M
05U,2023-01-01 18:55,-116.0051,39.6042,1811.23,28.40,26.60,92.86,0.00,0.00,0.00,29.71,M,1.75,M,CLR,M,M,M,M,M,M,M,BR,M,M,M,M,M,M,28.40,K05U 011855Z AUTO 00000KT 1 3/4SM BR CLR M02/M03 A2971 RMK A01,M
MEV,2023-01-01 18:55,-119.7500,38.9963,1441.42,30.20,23.00,74.26,330.00,5.00,0.00,29.91,M,10.00,10.00,CLR,M,M,M,M,M,M,M,M,M,M,M,M,M,M,24.26,KMEV 011855Z AUTO 33005G10KT 10SM CLR M01/M05 A2991 RMK AO2,M
BAM,2023-01-01 18:55,-116.8743,40.5990,1382.36,33.80,26.60,74.63,220.00,3.00,0.00,29.83,M,10.00,M,SCT,SCT,BKN,M,2500.00,3500.00,5000.00,M,M,M,M,M,M,M,M,30.75,KBAM 011855Z AUTO 22003KT 10SM SCT025 SCT035 BKN050 01/M03 A2983 RMK AO1,M
TMT,2023-01-01 18:55,-117.1971,39.4643,1749.34,27.30,23.00,83.62,350.00,8.00,0.00,29.79,M,10.00,M,OVC,M,M,M,2000.00,M,M,M,M,M,M,M,M,M,M,18.32,KTMT 011855Z AUTO 35008KT 10SM OVC020 M03/M05 A2979 RMK AO2 T10261050,M
LSV,2023-01-01 18:55,-115.0343,36.2362,570.00,59.50,42.80,53.89,180.00,16.00,0.00,29.52,998.70,10.00,M,CLR,M,M,M,M,M,M,M,M,M,M,M,M,M,M,59.50,KLSV 011855Z AUTO 18016KT 10SM CLR 15/06 A2952 RMK AO2 SLP987 T01530060 $,M
INS,2023-01-01 18:55,-115.6733,36.5872,955.00,49.30,37.00,62.15,270.00,25.00,0.00,29.54,998.40,10.00,M,SCT,BKN,M,M,7000.00,11000.00,M,M,M,M,M,M,30.00,270.00,2023-01-01 18:53,41.24,KINS 011855Z AUTO 27025KT 10SM SCT070 BKN110 10/03 A2954 RMK AO2 PK WND 27030/53 SLP984 T00960027 $,M
EKO,2023-01-01 18:56,-115.7860,40.8242,1367.00,32.00,24.10,72.30,40.00,3.00,0.00,29.76,1008.80,10.00,M,OVC,M,M,M,3100.00,M,M,M,M,M,M,M,M,M,M,28.69,KEKO 011856Z AUTO 04003KT 10SM OVC031 00/M04 A2976 RMK AO2 SLP088 T00001044,M
WMC,2023-01-01 18:56,-117.8072,40.9019,1315.00,36.00,25.00,63.98,350.00,15.00,0.00,29.87,1011.90,10.00,M,FEW,M,M,M,3000.00,M,M,M,M,M,M,M,M,M,M,25.97,KWMC 011856Z AUTO 35015KT 10SM FEW030 02/M04 A2987 RMK AO2 SLP119 T00221039,M
NFL,2023-01-01 18:56,-118.7010,39.4166,1199.00,36.00,28.00,72.43,350.00,9.00,0.00,29.88,1009.30,10.00,M,CLR,M,M,M,M,M,M,M,M,M,M,M,M,M,M,28.49,KNFL 011856Z AUTO 35009KT 10SM CLR 02/M02 A2988 RMK AO2 SLP093 T00221022 $,M
HND,2023-01-01 18:56,-115.1344,35.9729,742.79,54.00,37.00,52.45,210.00,19.00,0.00,29.58,1002.50,10.00,25.00,CLR,M,M,M,M,M,M,M,M,M,M,M,27.00,210.00,2023-01-01 18:36,54.00,KHND 011856Z 21019G25KT 10SM CLR 12/03 A2958 RMK AO2 PK WND 21027/1836 SLP025 T01220028,M
TPH,2023-01-01 18:56,-117.0904,38.0505,1654.00,34.00,28.00,78.43,350.00,21.00,0.00,29.68,1004.30,10.00,26.00,FEW,M,M,M,11000.00,M,M,M,M,M,M,M,26.00,350.00,2023-01-01 18:55,21.52,KTPH 011856Z AUTO 35021G26KT 10SM FEW110 01/M02 A2968 RMK AO2 PK WND 35026/1855 SLP043 T00111022,M
LAS,2023-01-01 18:56,-115.1634,36.0719,663.00,55.00,36.00,48.62,210.00,13.00,0.00,29.54,999.60,10.00,22.00,FEW,FEW,M,M,6000.00,10000.00,M,M,M,M,M,M,34.00,230.00,2023-01-01 18:03,55.00,KLAS 011856Z 21013G22KT 10SM FEW060 FEW100 13/02 A2954 RMK AO2 PK WND 23034/1803 SLP996 T01280022 $,M
DRA,2023-01-01 19:05,-116.0278,36.6206,1009.00,44.00,38.00,78.66,270.00,10.00,0.00,29.60,M,10.00,M,FEW,BKN,OVC,M,400.00,1600.00,2300.00,M,M,M,M,M,M,M,M,38.14,KDRA 011905Z AUTO 27010KT 10SM FEW004 BKN016 OVC023 07/03 A2960 RMK AO2 T00670033,M
EKO,2023-01-01 19:09,-115.7860,40.8242,1367.00,32.00,23.00,69.04,360.00,5.00,0.00,29.76,M,10.00,M,OVC,M,M,M,2900.00,M,M,M,M,M,M,M,M,M,M,26.40,KEKO 011909Z AUTO 36005KT 10SM OVC029 00/M05 A2976 RMK AO2 T00001050,M
BVU,2023-01-01 19:15,-114.8611,35.9475,671.00,57.20,41.00,54.60,240.00,18.00,0.00,29.56,M,10.00,M,FEW,FEW,M,M,4600.00,5000.00,M,M,M,M,M,M,M,M,M,57.20,KBVU 011915Z AUTO 24018KT 10SM FEW046 FEW050 14/05 A2956 RMK AO2,M
RTS,2023-01-01 19:15,-119.8764,39.6682,1539.00,28.40,21.20,74.08,340.00,11.00,0.00,29.92,M,10.00,M,CLR,M,M,M,M,M,M,M,M,M,M,M,M,M,M,17.92,KRTS 011915Z AUTO 34011KT 10SM CLR M02/M06 A2992 RMK AO2,M
05U,2023-01-01 19:15,-116.0051,39.6042,1811.23,28.40,26.60,92.86,0.00,0.00,0.00,29.72,M,2.50,M,CLR,M,M,M,M,M,M,M,BR,M,M,M,M,M,M,28.40,K05U 011915Z AUTO 00000KT 2 1/2SM BR CLR M02/M03 A2972 RMK A01,M
MEV,2023-01-01 19:15,-119.7500,38.9963,1441.42,30.20,23.00,74.26,340.00,7.00,0.00,29.90,M,10.00,M,CLR,M,M,M,M,M,M,M,M,M,M,M,M,M,M,22.59,KMEV 011915Z AUTO 34007KT 10SM CLR M01/M05 A2990 RMK AO2,M
BAM,2023-01-01 19:15,-116.8743,40.5990,1382.36,32.00,28.40,86.39,350.00,11.00,0.00,29.83,M,10.00,16.00,BKN,BKN,OVC,M,2600.00,3400.00,5000.00,M,M,M,M,M,M,M,M,22.47,KBAM 011915Z AUTO 35011G16KT 10SM BKN026 BKN034 OVC050 00/M02 A2983 RMK AO1,M
TMT,2023-01-01 19:15,-117.1971,39.4643,1749.34,26.60,23.00,86.07,340.00,11.00,0.00,29.79,M,10.00,M,SCT,BKN,OVC,M,1600.00,2200.00,2800.00,M,M,M,M,M,M,M,M,15.64,KTMT 011915Z AUTO 34011KT 10SM SCT016 BKN022 OVC028 M03/M05 A2979 RMK AO2 T10301050,M
BVU,2023-01-01 19:35,-114.8611,35.9475,671.00,57.20,39.20,50.91,220.00,18.00,0.00,29.55,M,10.00,M,CLR,M,M,M,M,M,M,M,M,M,M,M,M,M,M,57.20,KBVU 011935Z AUTO 22018KT 10SM CLR 14/04 A2955 RMK AO2 LTG DSNT S,M
DRA,2023-01-01 19:35,-116.0278,36.6206,1009.00,43.00,39.00,85.66,210.00,16.00,T,29.59,M,10.00,M,OVC,M,M,M,2100.00,M,M,M,-RA,M,M,M,M,M,M,34.76,KDRA 011935Z AUTO 21016KT 10SM -RA OVC021 06/04 A2959 RMK AO2 WSHFT 1918 RAB28 P0000 T00610039,M
RTS,2023-01-01 19:35,-119.8764,39.6682,1539.00,28.40,21.20,74.08,350.00,6.00,0.00,29.91,M,10.00,12.00,SCT,M,M,M,3200.00,M,M,M,M,M,M,M,M,M,M,21.19,KRTS 011935Z AUTO 35006G12KT 10SM SCT032 M02/M06 A2991 RMK AO2,M
05U,2023-01-01 19:35,-116.0051,39.6042,1811.23,28.40,26.60,92.86,0.00,0.00,0.00,29.71,M,4.00,M,FEW,M,M,M,2000.00,M,M,M,BR,M,M,M,M,M,M,28.40,K05U 011935Z AUTO 00000KT 4SM BR FEW020 M02/M03 A2971 RMK A01,M
MEV,2023-01-01 19:35,-119.7500,38.9963,1441.42,30.20,24.80,80.07,320.00,6.00,0.00,29.90,M,10.00,M,CLR,M,M,M,M,M,M,M,M,M,M,M,M,M,M,23.36,KMEV 011935Z AUTO 32006KT 10SM CLR M01/M04 A2990 RMK AO2,M
BAM,2023-01-01 19:35,-116.8743,40.5990,1382.36,33.80,28.40,80.36,30.00,7.00,0.00,29.83,M,10.00,M,SCT,BKN,OVC,M,2500.00,3000.00,3800.00,M,M,M,M,M,M,M,M,26.97,KBAM 011935Z AUTO 03007KT 10SM SCT025 BKN030 OVC038 01/M02 A2983 RMK AO1,M
TMT,2023-01-01 19:35,-117.1971,39.4643,1749.34,26.60,22.60,84.63,350.00,9.00,0.00,29.79,M,10.00,M,SCT,OVC,M,M,1800.00,2800.00,M,M,M,M,M,M,M,M,M,16.80,KTMT 011935Z AUTO 35009KT 10SM SCT018 OVC028 M03/M05 A2979 RMK AO2 T10301052,M
P68,2023-01-01 19:53,-116.0056,39.6014,1993.00,28.00,24.10,85.08,360.00,16.00,0.00,29.68,1005.30,M,23.00,M,M,M,M,M,M,M,M,M,M,M,M,M,M,M,15.20,KP68 011953Z AUTO 36016G23KT M02/M04 A2968 RMK AO1 SLP053 T10221044,M
ELY,2023-01-01 19:53,-114.8453,39.2950,1909.00,26.10,25.00,95.53,10.00,24.00,0.02,29.62,1003.70,0.50,32.00,VV ,M,M,M,800.00,M,M,M,SN FZFG,M,M,M,33.00,10.00,2023-01-01 19:20,10.10,KELY 011953Z AUTO 01024G32KT 1/2SM SN FZFG VV008 M03/M04 A2962 RMK AO2 PK WND 01033/1920 SLP037 P0002 T10331039,M
VGT,2023-01-01 19:53,-115.1933,36.2111,667.00,59.00,37.00,43.78,230.00,14.00,0.00,29.50,999.70,10.00,22.00,BKN,BKN,M,M,6000.00,7500.00,M,M,M,M,M,M,M,M,M,59.00,KVGT 011953Z 23014G22KT 10SM BKN060 BKN075 15/03 A2950 RMK AO2 SLP997 T01500028,M
LOL,2023-01-01 19:53,-118.5701,40.0684,1192.43,39.00,27.00,61.78,30.00,17.00,0.00,29.87,1012.20,10.00,24.00,SCT,M,M,M,3800.00,M,M,M,M,M,M,M,M,M,M,29.25,KLOL 011953Z AUTO 03017G24KT 10SM SCT038 04/M03 A2987 RMK AO2 SLP122 T00391028,M
DRA,2023-01-01 19:53,-116.0278,36.6206,1009.00,42.00,40.00,91.84,230.00,11.00,0.01,29.59,1000.40,5.00,21.00,SCT,OVC,M,M,1400.00,1900.00,M,M,RA BR,M,M,M,M,M,M,35.23,KDRA 011953Z AUTO 23011G21KT 5SM RA BR SCT014 OVC019 06/04 A2959 RMK AO2 WSHFT 1918 RAB28 SLP004 P0001 T00560044,M
BVU,2023-01-01 19:55,-114.8611,35.9475,671.00,55.40,39.20,54.34,250.00,17.00,0.00,29.54,M,10.00,M,CLR,M,M,M,M,M,M,M,M,M,M,M,M,M,M,55.40,KBVU 011955Z AUTO 25017KT 10SM CLR 13/04 A2954 RMK AO2,M
RNO,2023-01-01 19:55,-119.7711,39.4839,1341.00,34.00,25.00,69.28,310.00,8.00,0.00,29.90,1013.10,10.00,M,BKN,BKN,M,M,3500.00,6000.00,M,M,M,M,M,M,M,M,M,26.58,KRNO 011955Z 31008KT 10SM BKN035 BKN060 01/M04 A2990 RMK AO2 SLP131 MTN TOPS OBSCD DSNT SW THRU NW T00111039,M
RTS,2023-01-01 19:55,-119.8764,39.6682,1539.00,28.40,23.00,79.92,340.00,6.00,0.00,29.90,M,10.00,M,BKN,OVC,M,M,3000.00,3500.00,M,M,M,M,M,M,M,M,M,21.19,KRTS 011955Z AUTO 34006KT 10SM BKN030 OVC035 M02/M05 A2990 RMK AO2,M
05U,2023-01-01 19:55,-116.0051,39.6042,1811.23,28.40,24.80,86.18,0.00,0.00,0.00,29.71,M,2.50,M,CLR,M,M,M,M,M,M,M,BR,M,M,M,M,M,M,28.40,K05U 011955Z AUTO 00000KT 2 1/2SM BR CLR M02/M04 A2971 RMK A01,M
MEV,2023-01-01 19:55,-119.7500,38.9963,1441.42,30.20,24.80,80.07,340.00,6.00,0.00,29.88,M,10.00,M,CLR,M,M,M,M,M,M,M,M,M,M,M,M,M,M,23.36,KMEV 011955Z AUTO 34006KT 10SM CLR M01/M04 A2988 RMK AO2,M
BAM,2023-01-01 19:55,-116.8743,40.5990,1382.36,33.80,28.40,80.36,40.00,7.00,0.00,29.83,M,10.00,M,BKN,OVC,M,M,2900.00,3600.00,M,M,M,M,M,M,M,M,M,26.97,KBAM 011955Z AUTO 04007KT 10SM BKN029 OVC036 01/M02 A2983 RMK AO1,M
LSV,2023-01-01 19:55,-115.0343,36.2362,570.00,58.80,39.20,48.07,180.00,16.00,0.00,29.49,997.70,10.00,M,CLR,M,M,M,M,M,M,M,M,M,M,M,M,M,M,58.80,KLSV 011955Z AUTO 18016KT 10SM CLR 15/04 A2949 RMK AO2 SLP977 T01490040 $,M
TMT,2023-01-01 19:55,-117.1971,39.4643,1749.34,26.60,23.00,86.07,10.00,6.00,0.00,29.80,M,7.00,M,SCT,OVC,M,M,2300.00,3000.00,M,M,M,M,M,M,M,M,M,19.03,KTMT 011955Z AUTO 01006KT 7SM SCT023 OVC030 M03/M05 A2980 RMK AO2 T10301050,M
INS,2023-01-01 19:55,-115.6733,36.5872,955.00,47.50,36.00,64.16,270.00,29.00,0.00,29.54,998.60,10.00,M,OVC,M,M,M,9000.00,M,M,M,M,M,M,M,36.00,270.00,2023-01-01 19:10,38.16,KINS 011955Z AUTO 27029KT 10SM OVC090 09/02 A2954 RMK AO2 PK WND 27036/10 SLP986 T00860022 $,M
EKO,2023-01-01 19:56,-115.7860,40.8242,1367.00,30.90,23.00,72.18,10.00,11.00,0.00,29.74,1008.50,10.00,M,OVC,M,M,M,2700.00,M,M,M,M,M,M,M,M,M,M,21.08,KEKO 011956Z AUTO 01011KT 10SM OVC027 M01/M05 A2974 RMK AO2 SLP085 T10061050,M
WMC,2023-01-01 19:56,-117.8072,40.9019,1315.00,37.00,25.00,61.50,350.00,15.00,0.00,29.86,1011.60,10.00,21.00,FEW,M,M,M,3300.00,M,M,M,M,M,M,M,M,M,M,27.26,KWMC 011956Z AUTO 35015G21KT 10SM FEW033 03/M04 A2986 RMK AO2 SLP116 T00281039,M
NFL,2023-01-01 19:56,-118.7010,39.4166,1199.00,36.00,28.00,72.43,360.00,7.00,0.00,29.87,1009.00,10.00,M,SCT,SCT,M,M,3300.00,4100.00,M,M,M,M,M,M,M,M,M,29.65,KNFL 011956Z AUTO 36007KT 10SM SCT033 SCT041 02/M02 A2987 RMK AO2 SLP090 T00221022 $,M
HND,2023-01-01 19:56,-115.1344,35.9729,742.79,54.00,37.00,52.45,240.00,19.00,0.00,29.55,1001.50,10.00,27.00,CLR,M,M,M,M,M,M,M,M,M,M,M,30.00,240.00,2023-01-01 19:29,54.00,KHND 011956Z 24019G27KT 10SM CLR 12/03 A2955 RMK AO2 PK WND 24030/1929 SLP015 T01220028,M
TPH,2023-01-01 19:56,-117.0904,38.0505,1654.00,33.00,27.00,78.03,330.00,19.00,0.00,29.69,1004.80,10.00,28.00,FEW,FEW,M,M,2600.00,12000.00,M,M,M,M,M,M,34.00,360.00,2023-01-01 19:36,20.89,KTPH 011956Z AUTO 33019G28KT 10SM FEW026 FEW120 01/M03 A2969 RMK AO2 PK WND 36034/1936 SLP048 T00061028,M
LAS,2023-01-01 19:56,-115.1634,36.0719,663.00,56.00,37.00,48.95,240.00,16.00,0.00,29.52,998.80,10.00,23.00,FEW,M,M,M,10000.00,M,M,M,M,M,M,M,32.00,220.00,2023-01-01 19:08,55.90,KLAS 011956Z 24016G23KT 10SM FEW100 13/03 A2952 RMK AO2 PK WND 22032/1908 SLP988 T01330028 $,M
BVU,2023-01-01 20:15,-114.8611,35.9475,671.00,57.20,39.20,50.91,240.00,17.00,0.00,29.53,M,10.00,M,CLR,M,M,M,M,M,M,M,M,M,M,M,M,M,M,57.20,KBVU 012015Z AUTO 24017KT 10SM CLR 14/04 A2953 RMK AO2,M
RTS,2023-01-01 20:15,-119.8764,39.6682,1539.00,28.40,23.00,79.92,360.00,7.00,0.00,29.90,M,10.00,M,OVC,M,M,M,3000.00,M,M,M,M,M,M,M,M,M,M,20.39,KRTS 012015Z AUTO 36007KT 10SM OVC030 M02/M05 A2990 RMK AO2,M
05U,2023-01-01 20:15,-116.0051,39.6042,1811.23,28.40,24.80,86.18,0.00,0.00,0.00,29.70,M,2.00,M,FEW,M,M,M,2000.00,M,M,M,BR,M,M,M,M,M,M,28.40,K05U 012015Z AUTO 00000KT 2SM BR FEW020 M02/M04 A2970 RMK A01,M
MEV,2023-01-01 20:15,-119.7500,38.9963,1441.42,30.20,24.80,80.07,340.00,7.00,0.00,29.88,M,10.00,M,CLR,M,M,M,M,M,M,M,M,M,M,M,M,M,M,22.59,KMEV 012015Z AUTO 34007KT 10SM CLR M01/M04 A2988 RMK AO2,M
BAM,2023-01-01 20:15,-116.8743,40.5990,1382.36,33.80,28.40,80.36,10.00,8.00,0.00,29.83,M,10.00,M,BKN,OVC,M,M,2700.00,3400.00,M,M,M,M,M,M,M,M,M,26.33,KBAM 012015Z AUTO 01008KT 10SM BKN027 OVC034 01/M02 A2983 RMK AO1,M
TMT,2023-01-01 20:15,-117.1971,39.4643,1749.34,27.30,23.20,84.32,10.00,7.00,0.00,29.79,M,10.00,M,SCT,BKN,OVC,M,1600.00,2300.00,3400.00,M,M,M,M,M,M,M,M,19.05,KTMT 012015Z AUTO 01007KT 10SM SCT016 BKN023 OVC034 M03/M05 A2979 RMK AO2 T10261049,M
LSV,2023-01-01 20:23,-115.0343,36.2362,570.00,59.00,37.40,44.47,210.00,11.00,0.00,29.48,997.40,10.00,M,FEW,FEW,M,M,5500.00,6500.00,M,M,M,M,M,M,M,M,M,59.00,KLSV 012023Z AUTO 21011KT 10SM FEW055 FEW065 15/03 A2948 RMK AO2 WSHFT 17 SLP974 $,M
EKO,2023-01-01 20:29,-115.7860,40.8242,1367.00,33.00,24.10,69.17,40.00,5.00,0.00,29.74,M,10.00,M,OVC,M,M,M,3100.00,M,M,M,M,M,M,M,M,M,M,27.70,KEKO 012029Z AUTO 04005KT 10SM OVC031 01/M04 A2974 RMK AO2 T00061044,M
ELY,2023-01-01 20:29,-114.8453,39.2950,1909.00,25.00,24.10,100.00,10.00,22.00,0.01,29.61,M,0.50,29.00,SCT,OVC,M,M,600.00,1000.00,M,M,-SN FZFG,M,M,M,31.00,20.00,2023-01-01 20:08,8.94,KELY 012029Z AUTO 01022G29KT 1/2SM -SN FZFG SCT006 OVC010 M04/M04 A2961 RMK AO2 PK WND 02031/2008 P0001 T10391044,M
BVU,2023-01-01 20:35,-114.8611,35.9475,671.00,57.20,39.20,50.91,210.00,14.00,0.00,29.54,M,10.00,22.00,CLR,M,M,M,M,M,M,M,M,M,M,M,M,M,M,57.20,KBVU 012035Z AUTO 21014G22KT 10SM CLR 14/04 A2954 RMK AO2,M
RTS,2023-01-01 20:35,-119.8764,39.6682,1539.00,30.20,21.20,68.83,340.00,5.00,0.00,29.90,M,10.00,M,OVC,M,M,M,3000.00,M,M,M,M,M,M,M,M,M,M,24.26,KRTS 012035Z AUTO 34005KT 10SM OVC030 M01/M06 A2990 RMK AO2,M
05U,2023-01-01 20:35,-116.0051,39.6042,1811.23,28.40,24.80,86.18,0.00,0.00,0.00,29.70,M,1.25,M,SCT,M,M,M,2000.00,M,M,M,BR,M,M,M,M,M,M,28.40,K05U 012035Z AUTO 00000KT 1 1/4SM BR SCT020 M02/M04 A2970 RMK A01,M
MEV,2023-01-01 20:35,-119.7500,38.9963,1441.42,30.20,24.80,80.07,360.00,10.00,0.00,29.87,M,10.00,M,CLR,M,M,M,M,M,M,M,M,M,M,M,M,M,M,20.71,KMEV 012035Z AUTO 36010KT 10SM CLR M01/M04 A2987 RMK AO2,M
TMT,2023-01-01 20:35,-117.1971,39.4643,1749.34,27.00,23.00,84.66,350.00,6.00,0.00,29.79,M,10.00,M,BKN,BKN,OVC,M,1600.00,2100.00,3600.00,M,M,M,M,M,M,M,M,19.51,KTMT 012035Z AUTO 35006KT 10SM BKN016 BKN021 OVC036 M03/M05 A2979 RMK AO2 T10281050,M
DRA,2023-01-01 20:39,-116.0278,36.6206,1009.00,42.00,39.00,88.67,330.00,8.00,0.08,29.61,M,4.00,M,BKN,OVC,M,M,1400.00,2000.00,M,M,RA BR,M,M,M,M,M,M,36.55,KDRA 012039Z AUTO 33008KT 4SM RA BR BKN014 OVC020 06/04 A2961 RMK AO2 P0008 T00560039,M
BAM,2023-01-01 20:40,-116.8743,40.5990,1382.36,33.80,28.40,80.36,340.00,11.00,0.00,29.82,M,10.00,15.00,OVC,M,M,M,3400.00,M,M,M,M,M,M,M,M,M,M,24.74,KBAM 012040Z AUTO 34011G15KT 10SM OVC034 01/M02 A2982 RMK AO1,M
ELY,2023-01-01 20:42,-114.8453,39.2950,1909.00,25.00,24.10,100.00,10.00,20.00,0.01,29.61,M,0.75,30.00,BKN,OVC,M,M,600.00,1200.00,M,M,-SN BR,M,M,M,31.00,20.00,2023-01-01 20:08,9.58,KELY 012042Z AUTO 01020G30KT 3/4SM -SN BR BKN006 OVC012 M04/M04 A2961 RMK AO2 PK WND 02031/2008 P0001 T10391044,M
DRA,2023-01-01 20:43,-116.0278,36.6206,1009.00,42.00,38.00,84.93,320.00,7.00,0.09,29.61,M,4.00,M,BKN,OVC,M,M,1800.00,2200.00,M,M,-RA BR,M,M,M,M,M,M,37.09,KDRA 012043Z AUTO 32007KT 4SM -RA BR BKN018 OVC022 06/03 A2961 RMK AO2 P0009 T00560033,M
INS,2023-01-01 20:50,-115.6733,36.5872,955.00,46.40,35.60,65.83,270.00,22.00,0.00,29.56,999.30,10.00,M,BKN,BKN,M,M,2300.00,8500.00,M,M,M,M,M,M,M,M,M,37.86,KINS 012050Z AUTO 27022KT 10SM BKN023 BKN085 08/02 A2956 RMK AO2 BKN023 V SCT SLP993 $,M
P68,2023-01-01 20:53,-116.0056,39.6014,1993.00,28.00,24.10,85.08,350.00,12.00,0.00,29.68,1005.30,M,M,M,M,M,M,M,M,M,M,M,M,M,M,M,M,M,16.91,KP68 012053Z AUTO 35012KT M02/M04 A2968 RMK AO1 SLP053 60001 T10221044 56007,M
ELY,2023-01-01 20:53,-114.8453,39.2950,1909.00,26.10,25.00,95.53,10.00,18.00,0.01,29.61,1003.40,0.50,29.00,BKN,OVC,M,M,600.00,1200.00,M,M,-SN FZFG,M,M,M,31.00,20.00,2023-01-01 20:08,11.98,KELY 012053Z AUTO 01018G29KT 1/2SM -SN FZFG BKN006 OVC012 M03/M04 A2961 RMK AO2 PK WND 02031/2008 SLP034 P0001 60005 T10331039 57008,M
LOL,2023-01-01 20:53,-118.5701,40.0684,1192.43,38.00,26.10,62.14,30.00,16.00,0.00,29.85,1011.60,10.00,22.00,BKN,M,M,M,3800.00,M,M,M,M,M,M,M,M,M,M,28.11,KLOL 012053Z AUTO 03016G22KT 10SM BKN038 03/M03 A2985 RMK AO2 SLP116 T00331033 58007,M
VGT,2023-01-01 20:53,-115.1933,36.2111,667.00,57.00,38.00,48.73,330.00,24.00,0.00,29.48,999.20,10.00,37.00,FEW,SCT,SCT,M,5000.00,6000.00,8000.00,M,M,M,M,M,37.00,330.00,2023-01-01 20:47,57.00,KVGT 012053Z 33024G37KT 10SM FEW050 SCT060 SCT080 14/03 A2948 RMK AO2 PK WND 33037/2047 WSHFT 2034 SLP992 T01390033 56025,M
DRA,2023-01-01 20:53,-116.0278,36.6206,1009.00,42.00,38.00,84.93,300.00,5.00,0.10,29.60,1000.90,5.00,M,SCT,OVC,M,M,1500.00,2200.00,M,M,-RA BR,M,M,M,M,M,M,38.39,KDRA 012053Z AUTO 30005KT 5SM -RA BR SCT015 OVC022 06/03 A2960 RMK AO2 SLP009 P0010 60011 T00560033 53001,M
BVU,2023-01-01 20:55,-114.8611,35.9475,671.00,55.40,39.20,54.34,220.00,17.00,0.00,29.52,M,10.00,M,CLR,M,M,M,M,M,M,M,M,M,M,M,M,M,M,55.40,KBVU 012055Z AUTO 22017KT 10SM CLR 13/04 A2952 RMK AO2,M
RNO,2023-01-01 20:55,-119.7711,39.4839,1341.00,35.00,25.00,66.31,320.00,4.00,0.00,29.89,1012.80,10.00,M,BKN,M,M,M,3500.00,M,M,M,M,M,M,M,M,M,M,31.04,KRNO 012055Z 32004KT 10SM BKN035 02/M04 A2989 RMK AO2 SLP128 MTN TOPS OBSCD DSNT SW THRU NW T00171039 58010,M
RTS,2023-01-01 20:55,-119.8764,39.6682,1539.00,30.20,23.00,74.26,310.00,4.00,0.00,29.89,M,10.00,M,OVC,M,M,M,3100.00,M,M,M,M,M,M,M,M,M,M,25.32,KRTS 012055Z AUTO 31004KT 10SM OVC031 M01/M05 A2989 RMK AO2,M
05U,2023-01-01 20:55,-116.0051,39.6042,1811.23,28.40,24.80,86.18,0.00,0.00,0.01,29.71,M,1.50,M,SCT,M,M,M,1500.00,M,M,M,BR,M,M,M,M,M,M,28.40,K05U 012055Z AUTO 00000KT 1 1/2SM BR SCT015 M02/M04 A2971 RMK A01 P0001,M
MEV,2023-01-01 20:55,-119.7500,38.9963,1441.42,30.20,24.80,80.07,30.00,7.00,0.00,29.87,M,10.00,M,CLR,M,M,M,M,M,M,M,M,M,M,M,M,M,M,22.59,KMEV 012055Z AUTO 03007KT 10SM CLR M01/M04 A2987 RMK AO2,M
BAM,2023-01-01 20:55,-116.8743,40.5990,1382.36,33.80,28.40,80.36,350.00,10.00,0.00,29.82,M,10.00,M,SCT,OVC,M,M,2800.00,3400.00,M,M,M,M,M,M,M,M,M,25.23,KBAM 012055Z AUTO 35010KT 10SM SCT028 OVC034 01/M02 A2982 RMK AO1,M
TMT,2023-01-01 20:55,-117.1971,39.4643,1749.34,26.60,23.00,86.07,340.00,8.00,0.00,29.79,M,7.00,M,OVC,M,M,M,1600.00,M,M,M,M,M,M,M,M,M,M,17.46,KTMT 012055Z AUTO 34008KT 7SM OVC016 M03/M05 A2979 RMK AO2 T10301050,M
LSV,2023-01-01 20:55,-115.0343,36.2362,570.00,58.80,38.00,46.04,200.00,17.00,0.00,29.47,997.00,10.00,M,CLR,M,M,M,M,M,M,M,M,M,M,M,M,M,M,58.80,KLSV 012055Z AUTO 20017KT 10SM CLR 15/03 A2947 RMK AO2 SLP970 T01490034 57023 $,M
INS,2023-01-01 20:55,-115.6733,36.5872,955.00,47.00,35.00,63.33,270.00,23.00,0.00,29.56,999.30,10.00,M,BKN,BKN,M,M,2300.00,8000.00,M,M,M,M,M,M,33.00,270.00,2023-01-01 19:57,38.34,KINS 012055Z AUTO 27023KT 10SM BKN023 BKN080 08/02 A2956 RMK AO2 PK WND 27033/1957 BKN023 V SCT SLP993 T00830017 55000 $,M
EKO,2023-01-01 20:56,-115.7860,40.8242,1367.00,33.00,23.00,66.06,30.00,6.00,0.00,29.74,1008.10,10.00,M,BKN,OVC,M,M,3500.00,4400.00,M,M,M,M,M,M,M,M,M,26.86,KEKO 012056Z AUTO 03006KT 10SM BKN035 OVC044 01/M05 A2974 RMK AO2 SLP081 T00061050 56008,M
WMC,2023-01-01 20:56,-117.8072,40.9019,1315.00,37.00,25.00,61.50,340.00,16.00,0.00,29.84,1011.00,10.00,24.00,FEW,SCT,M,M,3700.00,5000.00,M,M,M,M,M,M,M,M,M,26.94,KWMC 012056Z AUTO 34016G24KT 10SM FEW037 SCT050 03/M04 A2984 RMK AO2 SLP110 T00281039 58011,M
NFL,2023-01-01 20:56,-118.7010,39.4166,1199.00,35.00,28.90,77.88,350.00,6.00,0.00,29.85,1008.40,10.00,M,BKN,M,M,M,3500.00,M,M,M,M,M,M,M,M,M,M,29.26,KNFL 012056Z AUTO 35006KT 10SM BKN035 02/M02 A2985 RMK AO2 SLP084 T00171017 58009 $,M
TPH,2023-01-01 20:56,-117.0904,38.0505,1654.00,32.00,26.10,78.58,320.00,21.00,0.00,29.68,1004.50,10.00,31.00,CLR,M,M,M,M,M,M,M,M,M,M,M,32.00,320.00,2023-01-01 20:32,18.85,KTPH 012056Z AUTO 32021G31KT 10SM CLR 00/M03 A2968 RMK AO2 PK WND 32032/2032 SLP045 T00001033 58000,M
LAS,2023-01-01 20:56,-115.1634,36.0719,663.00,54.00,35.00,48.65,240.00,14.00,0.00,29.51,998.30,10.00,25.00,SCT,BKN,M,M,10000.00,20000.00,M,M,M,M,M,M,28.00,250.00,2023-01-01 20:25,54.00,KLAS 012056Z 24014G25KT 10SM SCT100 BKN200 12/02 A2951 RMK AO2 PK WND 25028/2025 SLP983 T01220017 56022 $,M
HND,2023-01-01 20:56,-115.1344,35.9729,742.79,53.00,36.00,52.11,230.00,17.00,0.00,29.53,1001.20,10.00,22.00,CLR,M,M,M,M,M,M,M,M,M,M,M,28.00,250.00,2023-01-01 20:05,53.10,KHND 012056Z 23017G22KT 10SM CLR 12/02 A2953 RMK AO2 PK WND 25028/2005 SLP012 T01170022 56021,M
INS,2023-01-01 21:10,-115.6733,36.5872,955.00,46.40,35.60,65.83,270.00,17.00,0.00,29.56,999.30,10.00,M,SCT,OVC,M,M,2300.00,4200.00,M,M,M,M,M,M,M,M,M,38.94,KINS 012110Z AUTO 27017KT 10SM SCT023 OVC042 08/02 A2956 RMK AO2 SLP993 $,M
BVU,2023-01-01 21:15,-114.8611,35.9475,671.00,53.60,37.40,54.07,220.00,13.00,0.00,29.53,M,10.00,M,CLR,M,M,M,M,M,M,M,M,M,M,M,M,M,M,53.60,KBVU 012115Z AUTO 22013KT 10SM CLR 12/03 A2953 RMK AO2,M
RTS,2023-01-01 21:15,-119.8764,39.6682,1539.00,30.20,23.00,74.26,0.00,0.00,0.00,29.89,M,10.00,M,OVC,M,M,M,3300.00,M,M,M,M,M,M,M,M,M,M,30.20,KRTS 012115Z AUTO 00000KT 10SM OVC033 M01/M05 A2989 RMK AO2,M
05U,2023-01-01 21:15,-116.0051,39.6042,1811.23,28.40,24.80,86.18,0.00,0.00,0.00,29.72,M,1.25,M,SCT,SCT,M,M,1300.00,1900.00,M,M,BR,M,M,M,M,M,M,28.40,K05U 012115Z AUTO 00000KT 1 1/4SM BR SCT013 SCT019 M02/M04 A2972 RMK A01,M
MEV,2023-01-01 21:15,-119.7500,38.9963,1441.42,28.40,23.00,79.92,50.00,3.00,0.00,29.87,M,10.00,M,CLR,M,M,M,M,M,M,M,M,M,M,M,M,M,M,24.57,KMEV 012115Z AUTO 05003KT 10SM CLR M02/M05 A2987 RMK AO2,M
BAM,2023-01-01 21:15,-116.8743,40.5990,1382.36,33.80,28.40,80.36,10.00,7.00,0.00,29.82,M,10.00,M,SCT,OVC,M,M,2900.00,3500.00,M,M,M,M,M,M,M,M,M,26.97,KBAM 012115Z AUTO 01007KT 10SM SCT029 OVC035 01/M02 A2982 RMK AO1,M
TMT,2023-01-01 21:15,-117.1971,39.4643,1749.34,26.60,23.00,86.07,350.00,7.00,0.00,29.79,M,7.00,M,OVC,M,M,M,1400.00,M,M,M,M,M,M,M,M,M,M,18.20,KTMT 012115Z AUTO 35007KT 7SM OVC014 M03/M05 A2979 RMK AO2 T10301050,M
INS,2023-01-01 21:25,-115.6733,36.5872,955.00,46.40,35.60,65.83,260.00,21.00,0.00,29.56,999.30,10.00,M,BKN,BKN,OVC,M,2300.00,4300.00,6000.00,M,M,M,M,M,M,M,M,38.06,KINS 012125Z AUTO 26021KT 10SM BKN023 BKN043 OVC060 08/02 A2956 RMK AO2 BKN023 V SCT SLP993 $,M
LAS,2023-01-01 21:32,-115.1634,36.0719,663.00,55.00,37.00,50.58,330.00,11.00,0.00,29.52,M,10.00,18.00,OVC,M,M,M,4800.00,M,M,M,M,M,M,M,M,M,M,55.00,KLAS 012132Z 33011G18KT 10SM OVC048 13/03 A2952 RMK AO2 T01280028 $,M
BVU,2023-01-01 21:35,-114.8611,35.9475,671.00,53.60,39.20,58.02,220.00,15.00,0.00,29.53,M,10.00,M,CLR,M,M,M,M,M,M,M,M,M,M,M,M,M,M,53.60,KBVU 012135Z AUTO 22015KT 10SM CLR 12/04 A2953 RMK AO2,M
DRA,2023-01-01 21:35,-116.0278,36.6206,1009.00,43.00,37.00,79.19,0.00,0.00,0.02,29.59,M,10.00,M,FEW,BKN,OVC,M,1900.00,3000.00,4600.00,M,M,M,M,M,M,M,M,43.00,KDRA 012135Z AUTO 00000KT 10SM FEW019 BKN030 OVC046 06/03 A2959 RMK AO2 RAE20 P0002 T00610028,M
RTS,2023-01-01 21:35,-119.8764,39.6682,1539.00,30.20,23.00,74.26,340.00,6.00,0.00,29.89,M,10.00,M,OVC,M,M,M,3700.00,M,M,M,M,M,M,M,M,M,M,23.36,KRTS 012135Z AUTO 34006KT 10SM OVC037 M01/M05 A2989 RMK AO2,M
05U,2023-01-01 21:35,-116.0051,39.6042,1811.23,28.40,24.80,86.18,0.00,0.00,0.00,29.72,M,1.50,M,SCT,BKN,M,M,1400.00,2000.00,M,M,BR,M,M,M,M,M,M,28.40,K05U 012135Z AUTO 00000KT 1 1/2SM BR SCT014 BKN020 M02/M04 A2972 RMK A01,M
BAM,2023-01-01 21:35,-116.8743,40.5990,1382.36,33.80,28.40,80.36,350.00,5.00,0.00,29.82,M,10.00,M,BKN,OVC,M,M,3500.00,4100.00,M,M,M,M,M,M,M,M,M,28.53,KBAM 012135Z AUTO 35005KT 10SM BKN035 OVC041 01/M02 A2982 RMK AO1,M
TMT,2023-01-01 21:35,-117.1971,39.4643,1749.34,26.40,22.80,86.06,340.00,9.00,0.00,29.79,M,5.00,M,OVC,M,M,M,1400.00,M,M,M,BR,M,M,M,M,M,M,16.55,KTMT 012135Z AUTO 34009KT 5SM BR OVC014 M03/M05 A2979 RMK AO2 T10311051,M
MEV,2023-01-01 21:35,-119.7500,38.9963,1441.42,30.20,24.80,80.07,360.00,12.00,0.00,29.87,M,10.00,M,CLR,M,M,M,M,M,M,M,M,M,M,M,M,M,M,19.71,KMEV 012135Z AUTO 36012KT 10SM CLR M01/M04 A2987 RMK AO2,M
INS,2023-01-01 21:47,-115.6733,36.5872,955.00,44.60,35.60,70.48,260.00,22.00,0.00,29.57,999.90,10.00,M,OVC,M,M,M,2200.00,M,M,M,-RA,M,M,M,M,M,M,35.45,KINS 012147Z AUTO 26022KT 10SM -RA OVC022 07/02 A2957 RMK AO2 RAB47 SLP999 $,M
P68,2023-01-01 21:53,-116.0056,39.6014,1993.00,27.00,23.00,84.66,350.00,14.00,0.00,29.70,1005.80,M,M,M,M,M,M,M,M,M,M,M,M,M,M,M,M,M,14.72,KP68 012153Z AUTO 35014KT M03/M05 A2970 RMK AO1 SLP058 T10281050,M
ELY,2023-01-01 21:53,-114.8453,39.2950,1909.00,25.00,24.10,96.31,10.00,18.00,0.01,29.62,1004.00,0.50,26.00,SCT,OVC,M,M,700.00,1200.00,M,M,-SN FZFG,M,M,M,29.00,10.00,2023-01-01 21:10,10.53,KELY 012153Z AUTO 01018G26KT 1/2SM -SN FZFG SCT007 OVC012 M04/M04 A2962 RMK AO2 PK WND 01029/2110 SLP040 P0001 T10391044,M
VGT,2023-01-01 21:53,-115.1933,36.2111,667.00,54.00,37.00,52.45,330.00,24.00,0.00,29.49,999.70,10.00,36.00,FEW,M,M,M,6000.00,M,M,M,M,M,M,M,36.00,330.00,2023-01-01 21:45,54.00,KVGT 012153Z 33024G36KT 10SM FEW060 12/03 A2949 RMK AO2 PK WND 33036/2145 SLP997 T01220028,M
LOL,2023-01-01 21:53,-118.5701,40.0684,1192.43,38.00,25.00,59.36,40.00,14.00,0.00,29.85,1011.80,10.00,M,OVC,M,M,M,4000.00,M,M,M,M,M,M,M,M,M,M,28.77,KLOL 012153Z AUTO 04014KT 10SM OVC040 03/M04 A2985 RMK AO2 SLP118 T00331039,M
DRA,2023-01-01 21:53,-116.0278,36.6206,1009.00,44.00,38.00,78.66,80.00,3.00,0.02,29.59,1000.40,10.00,M,FEW,FEW,OVC,M,2700.00,3900.00,5000.00,M,M,M,M,M,M,M,M,42.52,KDRA 012153Z AUTO 08003KT 10SM FEW027 FEW039 OVC050 07/03 A2959 RMK AO2 RAE20 SLP004 P0002 T00670033,M
BVU,2023-01-01 21:55,-114.8611,35.9475,671.00,53.60,39.20,58.02,230.00,14.00,0.00,29.53,M,10.00,22.00,CLR,M,M,M,M,M,M,M,M,M,M,M,M,M,M,53.60,KBVU 012155Z AUTO 23014G22KT 10SM CLR 12/04 A2953 RMK AO2,M
RNO,2023-01-01 21:55,-119.7711,39.4839,1341.00,34.00,24.10,66.72,320.00,7.00,0.00,29.89,1012.80,10.00,M,SCT,BKN,M,M,3500.00,5000.00,M,M,M,M,M,M,M,M,M,27.22,KRNO 012155Z 32007KT 10SM SCT035 BKN050 01/M04 A2989 RMK AO2 SLP128 MTN TOPS OBSCD DSNT SW THRU NW T00111044,M
RTS,2023-01-01 21:55,-119.8764,39.6682,1539.00,32.00,23.00,69.04,340.00,8.00,0.00,29.89,M,10.00,M,OVC,M,M,M,3900.00,M,M,M,M,M,M,M,M,M,M,24.11,KRTS 012155Z AUTO 34008KT 10SM OVC039 M00/M05 A2989 RMK AO2,M
05U,2023-01-01 21:55,-116.0051,39.6042,1811.23,28.40,24.80,86.18,0.00,0.00,0.00,29.72,M,1.25,M,SCT,BKN,M,M,1400.00,2000.00,M,M,BR,M,M,M,M,M,M,28.40,K05U 012155Z AUTO 00000KT 1 1/4SM BR SCT014 BKN020 M02/M04 A2972 RMK A01,M
BAM,2023-01-01 21:55,-116.8743,40.5990,1382.36,33.80,28.40,80.36,360.00,15.00,0.00,29.82,M,10.00,M,OVC,M,M,M,3500.00,M,M,M,M,M,M,M,M,M,M,23.11,KBAM 012155Z AUTO 36015KT 10SM OVC035 01/M02 A2982 RMK AO1,M
INS,2023-01-01 21:55,-115.6733,36.5872,955.00,44.40,35.20,69.90,260.00,20.00,T,29.57,999.90,10.00,M,OVC,M,M,M,2200.00,M,M,M,-RA,M,M,M,28.00,250.00,2023-01-01 21:18,35.61,KINS 012155Z AUTO 26020KT 10SM -RA OVC022 07/02 A2957 RMK AO2 PK WND 25028/18 RAB47 SLP999 P0000 T00690018 $,M
LSV,2023-01-01 21:55,-115.0343,36.2362,570.00,58.30,39.20,48.93,290.00,13.00,0.00,29.46,996.70,10.00,M,BKN,M,M,M,9000.00,M,M,M,M,M,M,M,M,M,M,58.30,KLSV 012155Z AUTO 29013KT 10SM BKN090 15/04 A2946 RMK AO2 SLP967 T01460040 $,M
TMT,2023-01-01 21:55,-117.1971,39.4643,1749.34,26.20,22.10,84.25,350.00,7.00,0.00,29.80,M,7.00,M,OVC,M,M,M,1800.00,M,M,M,-SN,M,M,M,M,M,M,17.71,KTMT 012155Z AUTO 35007KT 7SM -SN OVC018 M03/M05 A2980 RMK AO2 T10321055,M
EKO,2023-01-01 21:56,-115.7860,40.8242,1367.00,33.00,21.00,60.71,30.00,13.00,0.00,29.74,1008.30,10.00,19.00,SCT,M,M,M,3800.00,M,M,M,M,M,M,M,M,M,M,22.98,KEKO 012156Z AUTO 03013G19KT 10SM SCT038 01/M06 A2974 RMK AO2 SLP083 T00061061,M
WMC,2023-01-01 21:56,-117.8072,40.9019,1315.00,38.00,26.10,62.14,350.00,16.00,0.00,29.84,1010.80,10.00,25.00,CLR,M,M,M,M,M,M,M,M,M,M,M,26.00,360.00,2023-01-01 21:27,28.11,KWMC 012156Z AUTO 35016G25KT 10SM CLR 03/M03 A2984 RMK AO2 PK WND 36026/2127 SLP108 T00331033,M
NFL,2023-01-01 21:56,-118.7010,39.4166,1199.00,37.00,27.00,66.82,10.00,11.00,0.00,29.85,1008.60,10.00,M,FEW,FEW,M,M,4900.00,5500.00,M,M,M,M,M,M,M,M,M,28.79,KNFL 012156Z AUTO 01011KT 10SM FEW049 FEW055 03/M03 A2985 RMK AO2 SLP086 T00281028 $,M
HND,2023-01-01 21:56,-115.1344,35.9729,742.79,53.00,36.00,52.11,230.00,9.00,0.00,29.54,1001.30,10.00,M,OVC,M,M,M,5000.00,M,M,M,M,M,M,M,M,M,M,53.10,KHND 012156Z 23009KT 10SM OVC050 12/02 A2954 RMK AO2 SLP013 T01170022,M
TPH,2023-01-01 21:56,-117.0904,38.0505,1654.00,33.00,26.10,75.18,330.00,27.00,0.00,29.68,1005.40,10.00,36.00,SCT,M,M,M,4200.00,M,M,M,M,M,M,M,36.00,330.00,2023-01-01 21:55,18.84,KTPH 012156Z AUTO 33027G36KT 10SM SCT042 01/M03 A2968 RMK AO2 PK WND 33036/2155 SLP054 T00061033,M
LAS,2023-01-01 21:56,-115.1634,36.0719,663.00,54.00,37.00,52.45,330.00,16.00,0.00,29.52,998.70,10.00,24.00,BKN,BKN,M,M,5000.00,20000.00,M,M,M,M,M,M,M,M,M,54.00,KLAS 012156Z 33016G24KT 10SM BKN050 BKN200 12/03 A2952 RMK AO2 SLP987 SH DSNT W T01220028 $,M
BVU,2023-01-01 22:15,-114.8611,35.9475,671.00,53.60,39.20,58.02,220.00,12.00,0.00,29.53,M,10.00,18.00,FEW,FEW,M,M,4800.00,5500.00,M,M,M,M,M,M,M,M,M,53.60,KBVU 012215Z AUTO 22012G18KT 10SM FEW048 FEW055 12/04 A2953 RMK AO2,M
INS,2023-01-01 22:15,-115.6733,36.5872,955.00,44.60,35.60,70.48,280.00,11.00,0.00,29.58,1000.20,10.00,22.00,SCT,OVC,M,M,2200.00,3000.00,M,M,-RA,M,M,M,M,M,M,38.39,KINS 012215Z AUTO 28011G22KT 10SM -RA SCT022 OVC030 07/02 A2958 RMK AO2 RAE2158DZB2158E08RAB08 SLP002 $,M
RTS,2023-01-01 22:15,-119.8764,39.6682,1539.00,32.00,23.00,69.04,10.00,6.00,0.00,29.89,M,10.00,M,OVC,M,M,M,3700.00,M,M,M,M,M,M,M,M,M,M,25.53,KRTS 012215Z AUTO 01006KT 10SM OVC037 M00/M05 A2989 RMK AO2,M
05U,2023-01-01 22:15,-116.0051,39.6042,1811.23,28.40,24.80,86.18,0.00,0.00,0.00,29.73,M,2.50,M,SCT,SCT,M,M,1800.00,2300.00,M,M,BR,M,M,M,M,M,M,28.40,K05U 012215Z AUTO 00000KT 2 1/2SM BR SCT018 SCT023 M02/M04 A2973 RMK A01,M
BAM,2023-01-01 22:15,-116.8743,40.5990,1382.36,33.80,28.40,80.36,360.00,6.00,0.00,29.82,M,10.00,M,BKN,OVC,M,M,3700.00,4300.00,M,M,M,M,M,M,M,M,M,27.70,KBAM 012215Z AUTO 36006KT 10SM BKN037 OVC043 01/M02 A2982 RMK AO1,M
TMT,2023-01-01 22:15,-117.1971,39.4643,1749.34,26.10,22.10,84.60,350.00,9.00,0.00,29.80,M,5.00,M,SCT,OVC,M,M,2000.00,2900.00,M,M,-SN,M,M,M,M,M,M,16.18,KTMT 012215Z AUTO 35009KT 5SM -SN SCT020 OVC029 M03/M05 A2980 RMK AO2 T10331055,M
ELY,2023-01-01 22:19,-114.8453,39.2950,1909.00,25.00,24.10,96.31,10.00,19.00,0.01,29.63,M,0.75,28.00,FEW,BKN,OVC,M,600.00,1700.00,3400.00,M,-SN BR,M,M,M,28.00,360.00,2023-01-01 22:16,10.18,KELY 012219Z AUTO 01019G28KT 3/4SM -SN BR FEW006 BKN017 OVC034 M04/M04 A2963 RMK AO2 PK WND 36028/2216 P0001 T10391044,M
ELY,2023-01-01 22:33,-114.8453,39.2950,1909.00,25.00,24.10,96.31,10.00,19.00,0.01,29.63,M,1.00,M,SCT,OVC,M,M,700.00,2000.00,M,M,-SN BR,M,M,M,28.00,360.00,2023-01-01 22:16,10.18,KELY 012233Z AUTO 01019KT 1SM -SN BR SCT007 OVC020 M04/M04 A2963 RMK AO2 PK WND 36028/2216 P0001 T10391044,M
BVU,2023-01-01 22:35,-114.8611,35.9475,671.00,53.60,39.20,58.02,220.00,12.00,0.00,29.53,M,10.00,M,BKN,BKN,M,M,4600.00,5000.00,M,M,M,M,M,M,M,M,M,53.60,KBVU 012235Z AUTO 22012KT 10SM BKN046 BKN050 12/04 A2953 RMK AO2,M
RTS,2023-01-01 22:35,-119.8764,39.6682,1539.00,30.20,23.00,74.26,0.00,0.00,0.00,29.89,M,10.00,M,OVC,M,M,M,3700.00,M,M,M,M,M,M,M,M,M,M,30.20,KRTS 012235Z AUTO 00000KT 10SM OVC037 M01/M05 A2989 RMK AO2,M
05U,2023-01-01 22:35,-116.0051,39.6042,1811.23,28.40,24.80,86.18,0.00,0.00,0.00,29.73,M,5.00,M,BKN,M,M,M,2000.00,M,M,M,BR,M,M,M,M,M,M,28.40,K05U 012235Z AUTO 00000KT 5SM BR BKN020 M02/M04 A2973 RMK A01,M
BAM,2023-01-01 22:35,-116.8743,40.5990,1382.36,33.80,26.60,74.63,360.00,15.00,0.00,29.82,M,10.00,22.00,SCT,OVC,M,M,3700.00,4300.00,M,M,M,M,M,M,M,M,M,23.11,KBAM 012235Z AUTO 36015G22KT 10SM SCT037 OVC043 01/M03 A2982 RMK AO1,M
TMT,2023-01-01 22:35,-117.1971,39.4643,1749.34,25.90,22.60,87.12,340.00,10.00,0.00,29.81,M,5.00,M,SCT,OVC,M,M,2500.00,3000.00,M,M,-SN,M,M,M,M,M,M,15.32,KTMT 012235Z AUTO 34010KT 5SM -SN SCT025 OVC030 M03/M05 A2981 RMK AO2 T10341052,M
INS,2023-01-01 22:47,-115.6733,36.5872,955.00,46.40,33.80,61.28,310.00,12.00,0.00,29.59,1000.30,10.00,M,BKN,OVC,M,M,3500.00,5500.00,M,M,M,M,M,M,M,M,M,40.33,KINS 012247Z AUTO 31012KT 10SM BKN035 OVC055 08/01 A2959 RMK AO2 RAE2158DZB2158E08RAB08E44DZB44E47 SLP003 $,M
P68,2023-01-01 22:53,-116.0056,39.6014,1993.00,26.10,23.00,87.87,340.00,9.00,0.00,29.71,1006.70,M,M,M,M,M,M,M,M,M,M,M,M,M,M,M,M,M,16.18,KP68 012253Z AUTO 34009KT M03/M05 A2971 RMK AO1 SLP067 T10331050,M
ELY,2023-01-01 22:53,-114.8453,39.2950,1909.00,25.00,23.00,91.97,10.00,18.00,0.01,29.63,1004.50,1.00,25.00,SCT,OVC,M,M,700.00,2400.00,M,M,-SN BR,M,M,M,28.00,360.00,2023-01-01 22:16,10.53,KELY 012253Z AUTO 01018G25KT 1SM -SN BR SCT007 OVC024 M04/M05 A2963 RMK AO2 PK WND 36028/2216 SLP045 P0001 T10391050,M
VGT,2023-01-01 22:53,-115.1933,36.2111,667.00,54.00,36.00,50.42,320.00,17.00,0.00,29.51,1000.50,10.00,32.00,BKN,OVC,M,M,7500.00,9500.00,M,M,M,M,M,M,38.00,320.00,2023-01-01 22:14,54.00,KVGT 012253Z 32017G32KT 10SM BKN075 OVC095 12/02 A2951 RMK AO2 PK WND 32038/2214 SLP005 T01220022,M
LOL,2023-01-01 22:53,-118.5701,40.0684,1192.43,37.00,25.00,61.50,30.00,14.00,0.00,29.87,1012.30,10.00,20.00,BKN,M,M,M,4400.00,M,M,M,M,M,M,M,M,M,M,27.61,KLOL 012253Z AUTO 03014G20KT 10SM BKN044 03/M04 A2987 RMK AO2 SLP123 T00281039,M
DRA,2023-01-01 22:53,-116.0278,36.6206,1009.00,44.00,38.00,78.66,210.00,6.00,0.00,29.59,1000.50,10.00,M,BKN,M,M,M,4300.00,M,M,M,M,M,M,M,M,M,M,40.10,KDRA 012253Z AUTO 21006KT 10SM BKN043 07/03 A2959 RMK AO2 SLP005 T00670033,M
BVU,2023-01-01 22:55,-114.8611,35.9475,671.00,51.80,39.20,61.99,210.00,8.00,0.00,29.54,M,10.00,M,OVC,M,M,M,4600.00,M,M,M,M,M,M,M,M,M,M,51.80,KBVU 012255Z AUTO 21008KT 10SM OVC046 11/04 A2954 RMK AO2,M
RNO,2023-01-01 22:55,-119.7711,39.4839,1341.00,34.00,24.10,66.72,320.00,7.00,0.00,29.89,1012.60,10.00,M,SCT,BKN,M,M,3500.00,5000.00,M,M,M,M,M,M,M,M,M,27.22,KRNO 012255Z 32007KT 10SM SCT035 BKN050 01/M04 A2989 RMK AO2 SLP126 MTN TOPS OBSCD DSNT SW THRU NW T00111044,M
RTS,2023-01-01 22:55,-119.8764,39.6682,1539.00,30.20,23.00,74.26,0.00,0.00,0.00,29.89,M,10.00,M,FEW,FEW,BKN,M,2200.00,2800.00,3700.00,M,M,M,M,M,M,M,M,30.20,KRTS 012255Z AUTO 00000KT 10SM FEW022 FEW028 BKN037 M01/M05 A2989 RMK AO2,M
05U,2023-01-01 22:55,-116.0051,39.6042,1811.23,26.60,24.80,92.80,0.00,0.00,0.00,29.74,M,3.00,M,FEW,OVC,M,M,200.00,2100.00,M,M,BR,M,M,M,M,M,M,26.60,K05U 012255Z AUTO 00000KT 3SM BR FEW002 OVC021 M03/M04 A2974 RMK A01,M
BAM,2023-01-01 22:55,-116.8743,40.5990,1382.36,35.60,26.60,69.46,10.00,15.00,0.00,29.83,M,10.00,27.00,OVC,M,M,M,4000.00,M,M,M,M,M,M,M,M,M,M,25.45,KBAM 012255Z AUTO 01015G27KT 10SM OVC040 02/M03 A2983 RMK AO1,M
TMT,2023-01-01 22:55,-117.1971,39.4643,1749.34,25.70,23.00,89.34,10.00,6.00,0.00,29.81,M,3.00,M,BKN,OVC,M,M,2500.00,3100.00,M,M,-SN,M,M,M,M,M,M,17.94,KTMT 012255Z AUTO 01006KT 3SM -SN BKN025 OVC031 M03/M05 A2981 RMK AO2 T10351050,M
INS,2023-01-01 22:55,-115.6733,36.5872,955.00,46.20,32.20,57.90,310.00,11.00,T,29.59,1000.30,10.00,M,OVC,M,M,M,3500.00,M,M,M,M,M,M,M,M,M,M,40.41,KINS 012255Z AUTO 31011KT 10SM OVC035 08/00 A2959 RMK AO2 RAE2158DZB2158E08RAB08E44DZB44E47 SLP003 P0000 T00790001 $,M
LSV,2023-01-01 22:55,-115.0343,36.2362,570.00,55.20,38.00,52.02,290.00,25.00,0.00,29.47,997.10,10.00,33.00,FEW,SCT,M,M,6000.00,8500.00,M,M,M,M,M,M,33.00,300.00,2023-01-01 22:44,55.20,KLSV 012255Z AUTO 29025G33KT 10SM FEW060 SCT085 13/03 A2947 RMK AO2 PK WND 30033/44 SLP971 T01290033 $,M
EKO,2023-01-01 22:56,-115.7860,40.8242,1367.00,32.00,21.90,65.92,350.00,12.00,0.00,29.76,1009.00,10.00,M,OVC,M,M,M,6000.00,M,M,M,M,M,M,M,M,M,M,22.00,KEKO 012256Z AUTO 35012KT 10SM OVC060 00/M06 A2976 RMK AO2 SLP090 T00001056,M
WMC,2023-01-01 22:56,-117.8072,40.9019,1315.00,37.00,23.00,56.57,350.00,21.00,0.00,29.85,1011.30,10.00,31.00,FEW,M,M,M,4300.00,M,M,M,M,M,M,M,31.00,350.00,2023-01-01 22:49,25.52,KWMC 012256Z AUTO 35021G31KT 10SM FEW043 03/M05 A2985 RMK AO2 PK WND 35031/2249 SLP113 T00281050,M
NFL,2023-01-01 22:56,-118.7010,39.4166,1199.00,36.00,28.00,72.43,350.00,7.00,0.00,29.86,1008.70,10.00,M,SCT,BKN,OVC,M,3800.00,4500.00,5000.00,M,M,M,M,M,M,M,M,29.65,KNFL 012256Z AUTO 35007KT 10SM SCT038 BKN045 OVC050 02/M02 A2986 RMK AO2 SLP087 T00221022 $,M
HND,2023-01-01 22:56,-115.1344,35.9729,742.79,52.00,36.00,54.26,300.00,13.00,0.00,29.56,1002.10,10.00,M,BKN,OVC,M,M,4100.00,4800.00,M,M,M,M,M,M,M,M,M,52.00,KHND 012256Z 30013KT 10SM BKN041 OVC048 11/02 A2956 RMK AO2 SLP021 T01110022,M
TPH,2023-01-01 22:56,-117.0904,38.0505,1654.00,32.00,25.00,75.07,330.00,24.00,0.00,29.69,1006.20,10.00,35.00,OVC,M,M,M,4300.00,M,M,M,M,M,M,M,37.00,320.00,2023-01-01 22:27,18.06,KTPH 012256Z AUTO 33024G35KT 10SM OVC043 00/M04 A2969 RMK AO2 PK WND 32037/2227 SLP062 T00001039,M
LAS,2023-01-01 22:56,-115.1634,36.0719,663.00,54.00,35.00,48.65,320.00,11.00,0.00,29.53,999.30,10.00,21.00,BKN,BKN,M,M,5000.00,11000.00,M,M,M,M,M,M,M,M,M,54.00,KLAS 012256Z 32011G21KT 10SM BKN050 BKN110 12/02 A2953 RMK AO2 SLP993 VIRGA DSNT NE SH DSNT SW T01220017 $,M
BVU,2023-01-01 23:15,-114.8611,35.9475,671.00,53.60,39.20,58.02,240.00,7.00,0.00,29.55,M,10.00,M,BKN,OVC,M,M,4600.00,6000.00,M,M,M,M,M,M,M,M,M,53.60,KBVU 012315Z AUTO 24007KT 10SM BKN046 OVC060 12/04 A2955 RMK AO2,M
RTS,2023-01-01 23:15,-119.8764,39.6682,1539.00,28.40,23.00,79.92,300.00,3.00,0.00,29.89,M,10.00,M,FEW,FEW,M,M,2200.00,3800.00,M,M,M,M,M,M,M,M,M,24.57,KRTS 012315Z AUTO 30003KT 10SM FEW022 FEW038 M02/M05 A2989 RMK AO2,M
05U,2023-01-01 23:15,-116.0051,39.6042,1811.23,26.60,23.00,86.07,0.00,0.00,0.00,29.75,M,1.25,M,FEW,BKN,BKN,M,200.00,1400.00,2000.00,M,BR,M,M,M,M,M,M,26.60,K05U 012315Z AUTO 00000KT 1 1/4SM BR FEW002 BKN014 BKN020 M03/M05 A2975 RMK A01,M
BAM,2023-01-01 23:15,-116.8743,40.5990,1382.36,33.80,26.60,74.63,10.00,12.00,0.00,29.84,M,10.00,18.00,OVC,M,M,M,4200.00,M,M,M,M,M,M,M,M,M,M,24.29,KBAM 012315Z AUTO 01012G18KT 10SM OVC042 01/M03 A2984 RMK AO1,M
TMT,2023-01-01 23:15,-117.1971,39.4643,1749.34,25.50,23.40,91.61,0.00,0.00,0.00,29.82,M,1.50,M,BKN,OVC,M,M,2200.00,2700.00,M,M,-SN,M,M,M,M,M,M,25.50,KTMT 012315Z AUTO 00000KT 1 1/2SM -SN BKN022 OVC027 M04/M05 A2982 RMK AO2 T10361048,M
ELY,2023-01-01 23:27,-114.8453,39.2950,1909.00,25.00,23.00,91.97,10.00,15.00,T,29.65,M,1.50,M,FEW,BKN,OVC,M,900.00,2300.00,3200.00,M,-SN BR,M,M,M,M,M,M,11.71,KELY 012327Z AUTO 01015KT 1 1/2SM -SN BR FEW009 BKN023 OVC032 M04/M05 A2965 RMK AO2 P0000 T10391050,M
BVU,2023-01-01 23:35,-114.8611,35.9475,671.00,51.80,39.20,61.99,230.00,10.00,0.00,29.55,M,10.00,16.00,OVC,M,M,M,4300.00,M,M,M,M,M,M,M,M,M,M,51.80,KBVU 012335Z AUTO 23010G16KT 10SM OVC043 11/04 A2955 RMK AO2,M
RTS,2023-01-01 23:35,-119.8764,39.6682,1539.00,28.40,23.00,79.92,310.00,5.00,0.00,29.90,M,10.00,M,CLR,M,M,M,M,M,M,M,M,M,M,M,M,M,M,22.12,KRTS 012335Z AUTO 31005KT 10SM CLR M02/M05 A2990 RMK AO2,M
05U,2023-01-01 23:35,-116.0051,39.6042,1811.23,26.60,23.00,86.07,0.00,0.00,0.00,29.75,M,1.00,M,BKN,BKN,BKN,M,200.00,1400.00,1900.00,M,BR,M,M,M,M,M,M,26.60,K05U 012335Z AUTO 00000KT 1SM BR BKN002 BKN014 BKN019 M03/M05 A2975 RMK A01,M
BAM,2023-01-01 23:35,-116.8743,40.5990,1382.36,33.80,28.40,80.36,320.00,9.00,0.00,29.84,M,10.00,M,OVC,M,M,M,4400.00,M,M,M,M,M,M,M,M,M,M,25.75,KBAM 012335Z AUTO 32009KT 10SM OVC044 01/M02 A2984 RMK AO1,M
TMT,2023-01-01 23:35,-117.1971,39.4643,1749.34,25.30,23.40,92.37,0.00,0.00,0.00,29.82,M,1.50,M,SCT,BKN,OVC,M,900.00,2900.00,3500.00,M,-SN,M,M,M,M,M,M,25.30,KTMT 012335Z AUTO 00000KT 1 1/2SM -SN SCT009 BKN029 OVC035 M04/M05 A2982 RMK AO2 T10371048,M
ELY,2023-01-01 23:49,-114.8453,39.2950,1909.00,24.80,23.00,92.74,10.00,18.00,T,29.66,M,2.00,24.00,SCT,BKN,OVC,M,800.00,3600.00,6500.00,M,-SN BR,M,M,M,M,M,M,10.27,KELY 012349Z AUTO 01018G24KT 2SM -SN BR SCT008 BKN036 OVC065 M04/M05 A2966 RMK AO2 P0000,M
ELY,2023-01-01 23:50,-114.8453,39.2950,1909.00,25.00,23.00,91.97,10.00,18.00,T,29.66,1005.20,2.00,24.00,SCT,BKN,OVC,M,800.00,3900.00,6500.00,M,-SN BR,M,M,M,M,M,M,10.53,KELY 012350Z AUTO 01018G24KT 2SM -SN BR SCT008 BKN039 OVC065 M04/M05 A2966 RMK AO2 SLP052 P0000 60007 T10391050 11033 21039 53012,M
ELY,2023-01-01 23:50,-114.8453,39.2950,1909.00,M,M,M,10.00,18.00,M,29.66,M,2.00,22.00,SCT,BKN,OVC,M,800.00,3900.00,6500.00,M,-SN BR,M,M,M,M,M,M,M,KELY 012350Z AUTO 01018G22KT 2SM -SN BR SCT008 BKN039 OVC065 M04/M05 A2966 RMK T10401050 MADISHF,M
P68,2023-01-01 23:53,-116.0056,39.6014,1993.00,25.00,21.90,87.81,350.00,11.00,0.01,29.73,1007.60,M,M,M,M,M,M,M,M,M,M,M,M,M,M,M,M,M,13.62,KP68 012353Z AUTO 35011KT M04/M06 A2973 RMK AO1 SLP076 P0001 60002 T10391056 11022 21039 53014,M
DRA,2023-01-01 23:53,-116.0278,36.6206,1009.00,45.00,36.00,70.53,240.00,5.00,0.00,29.61,1000.90,10.00,M,BKN,OVC,M,M,4300.00,5000.00,M,M,M,M,M,M,M,M,M,41.83,KDRA 012353Z AUTO 24005KT 10SM BKN043 OVC050 07/02 A2961 RMK AO2 SLP009 60013 T00720022 10072 20056 53001,M
LOL,2023-01-01 23:53,-118.5701,40.0684,1192.43,36.00,23.00,58.85,30.00,11.00,0.00,29.88,1012.90,10.00,18.00,FEW,M,M,M,4200.00,M,M,M,M,M,M,M,M,M,M,27.52,KLOL 012353Z AUTO 03011G18KT 10SM FEW042 02/M05 A2988 RMK AO2 SLP129 T00221050 10044 20022 53009,M
VGT,2023-01-01 23:53,-115.1933,36.2111,667.00,53.00,33.00,46.42,310.00,18.00,0.00,29.53,1001.30,10.00,31.00,SCT,BKN,M,M,8000.00,12000.00,M,M,M,M,M,M,34.00,310.00,2023-01-01 23:03,53.10,KVGT 012353Z 31018G31KT 10SM SCT080 BKN120 12/01 A2953 RMK AO2 PK WND 31034/2303 SLP013 T01170006 10156 20117 53018,M
BVU,2023-01-01 23:55,-114.8611,35.9475,671.00,51.80,39.20,61.99,250.00,9.00,0.00,29.55,M,10.00,M,OVC,M,M,M,4300.00,M,M,M,M,M,M,M,M,M,M,51.80,KBVU 012355Z AUTO 25009KT 10SM OVC043 11/04 A2955 RMK AO2,M
INS,2023-01-01 23:55,-115.6733,36.5872,955.00,46.60,32.50,57.72,270.00,9.00,0.00,29.60,1000.90,10.00,M,BKN,OVC,M,M,3600.00,4700.00,M,M,M,M,M,M,M,M,M,41.67,KINS 012355Z AUTO 27009KT 10SM BKN036 OVC047 08/00 A2960 RMK AO2 SLP009 60000 T00810003 10116 20069 52012 $,M
RTS,2023-01-01 23:55,-119.8764,39.6682,1539.00,30.20,21.20,68.83,320.00,5.00,0.00,29.90,M,10.00,13.00,SCT,M,M,M,4700.00,M,M,M,M,M,M,M,M,M,M,24.26,KRTS 012355Z AUTO 32005G13KT 10SM SCT047 M01/M06 A2990 RMK AO2,M
05U,2023-01-01 23:55,-116.0051,39.6042,1811.23,26.60,23.00,86.07,0.00,0.00,0.00,29.75,M,1.00,M,BKN,OVC,M,M,200.00,2700.00,M,M,BR,M,M,M,M,M,M,26.60,K05U 012355Z AUTO 00000KT 1SM BR BKN002 OVC027 M03/M05 A2975 RMK A01,M
BAM,2023-01-01 23:55,-116.8743,40.5990,1382.36,33.80,28.40,80.36,350.00,10.00,0.00,29.84,M,10.00,M,OVC,M,M,M,4400.00,M,M,M,M,M,M,M,M,M,M,25.23,KBAM 012355Z AUTO 35010KT 10SM OVC044 01/M02 A2984 RMK AO1,M
TMT,2023-01-01 23:55,-117.1971,39.4643,1749.34,25.30,23.00,90.83,0.00,0.00,0.00,29.82,M,2.50,M,SCT,SCT,OVC,M,900.00,1800.00,3300.00,M,-SN,M,M,M,M,M,M,25.30,KTMT 012355Z AUTO 00000KT 2 1/2SM -SN SCT009 SCT018 OVC033 M04/M05 A2982 RMK AO2 T10371050 11026 21050,M
LSV,2023-01-01 23:55,-115.0343,36.2362,570.00,53.20,36.50,52.96,290.00,23.00,0.00,29.50,998.30,10.00,30.00,SCT,M,M,M,10000.00,M,M,M,M,M,M,M,35.00,290.00,2023-01-01 23:20,53.20,KLSV 012355Z AUTO 29023G30KT 10SM SCT100 12/03 A2950 RMK AO2 PK WND 29035/20 SLP983 T01180025 10153 20118 53010 $,M
RNO,2023-01-01 23:55,-119.7711,39.4839,1341.00,35.00,24.10,63.86,0.00,0.00,0.00,29.91,1013.00,10.00,M,FEW,BKN,BKN,M,3500.00,5000.00,9000.00,M,M,M,M,M,M,M,M,35.10,KRNO 012355Z 00000KT 10SM FEW035 BKN050 BKN090 02/M04 A2991 RMK AO2 SLP130 MTN TOPS OBSCD DSNT S THRU NW 4/007 T00171044 10022 20000 53003,7
EKO,2023-01-01 23:56,-115.7860,40.8242,1367.00,30.90,21.00,66.34,360.00,10.00,0.00,29.77,1009.70,10.00,M,FEW,OVC,M,M,6000.00,7500.00,M,M,M,M,M,M,M,M,M,21.59,KEKO 012356Z AUTO 36010KT 10SM FEW060 OVC075 M01/M06 A2977 RMK AO2 SLP097 T10061061 10011 21006 53009,M
NFL,2023-01-01 23:56,-118.7010,39.4166,1199.00,35.00,26.10,69.41,360.00,8.00,0.00,29.87,1009.00,10.00,M,FEW,M,M,M,4900.00,M,M,M,M,M,M,M,M,M,M,27.93,KNFL 012356Z AUTO 36008KT 10SM FEW049 02/M03 A2987 RMK AO2 SLP090 T00171033 10033 20006 53006 $,M
HND,2023-01-01 23:56,-115.1344,35.9729,742.79,50.00,37.00,60.79,260.00,8.00,T,29.58,1002.90,10.00,M,BKN,OVC,M,M,4500.00,6000.00,M,M,-RA,M,M,M,M,M,M,50.00,KHND 012356Z 26008KT 10SM -RA BKN045 OVC060 10/03 A2958 RMK AO2 RAB50 SLP029 P0000 60000 T01000028 10128 20100 53014,M
TPH,2023-01-01 23:56,-117.0904,38.0505,1654.00,30.90,24.10,75.59,330.00,21.00,0.00,29.71,1006.90,10.00,31.00,OVC,M,M,M,4800.00,M,M,M,M,M,M,M,38.00,330.00,2023-01-01 23:23,17.39,KTPH 012356Z AUTO 33021G31KT 10SM OVC048 M01/M04 A2971 RMK AO2 PK WND 33038/2323 SLP069 T10061044 10011 21006 53010,M
LAS,2023-01-01 23:56,-115.1634,36.0719,663.00,52.00,37.00,56.45,240.00,5.00,0.00,29.55,1000.20,10.00,M,BKN,BKN,M,M,5000.00,11000.00,M,M,M,M,M,M,M,M,M,52.00,KLAS 012356Z 24005KT 10SM BKN050 BKN110 11/03 A2955 RMK AO2 SLP002 VIRGA DSNT NE SH DSNT E AND S T01110028 10133 20111 53015 $,M
WMC,2023-01-01 23:56,-117.8072,40.9019,1315.00,35.00,21.90,58.22,360.00,16.00,0.00,29.87,1012.20,10.00,26.00,BKN,OVC,M,M,3700.00,4800.00,M,M,M,M,M,M,29.00,360.00,2023-01-01 23:14,24.46,KWMC 012356Z AUTO 36016G26KT 10SM BKN037 OVC048 02/M06 A2987 RMK AO2 PK WND 36029/2314 SLP122 T00171056 10039 20006 53007,M
