station,valid,lon,lat,elevation,tmpf,dwpf,relh,drct,sknt,p01i,alti,mslp,vsby,gust,skyc1,skyc2,skyc3,skyc4,skyl1,skyl2,skyl3,skyl4,wxcodes,ice_accretion_1hr,ice_accretion_3hr,ice_accretion_6hr,peak_wind_gust,peak_wind_drct,peak_wind_time,feel,metar,snowdepth
BVU,2025-05-04 00:15,-114.8611,35.9475,671.00,82.40,33.80,17.38,230.00,9.00,0.00,29.68,M,10.00,M,CLR,M,M,M,M,M,M,M,M,M,M,M,M,M,M,80.03,KBVU 040015Z AUTO 23009KT 10SM CLR 28/01 A2968 RMK AO2,M
BAM,2025-05-04 00:15,-116.8743,40.5990,1382.36,51.80,50.00,93.55,240.00,11.00,0.00,29.91,M,10.00,16.00,SCT,SCT,BKN,M,4400.00,5000.00,11000.00,M,M,M,M,M,M,M,M,51.80,KBAM 040015Z AUTO 24011G16KT 10SM SCT044 SCT050 BKN110 11/10 A2991 RMK AO1,M
CXP,2025-05-04 00:15,-119.7326,39.1923,1431.00,57.20,33.80,41.13,250.00,5.00,0.00,29.92,M,10.00,11.00,FEW,M,M,M,10000.00,M,M,M,M,M,M,M,M,M,M,57.20,KCXP 040015Z AUTO 25005G11KT 10SM FEW100 14/01 A2992 RMK AO2,M
RTS,2025-05-04 00:15,-119.8764,39.6682,1539.00,57.20,33.80,41.13,290.00,15.00,0.00,29.91,M,10.00,23.00,CLR,M,M,M,M,M,M,M,M,M,M,M,M,M,M,57.20,KRTS 040015Z AUTO 29015G23KT 10SM CLR 14/01 A2991 RMK AO2,M
MEV,2025-05-04 00:15,-119.7500,38.9963,1441.42,57.20,35.60,44.19,260.00,13.00,0.00,29.91,M,10.00,M,CLR,M,M,M,M,M,M,M,M,M,M,M,M,M,M,57.20,KMEV 040015Z AUTO 26013KT 10SM CLR 14/02 A2991 RMK AO2,M
HTH,2025-05-04 00:15,-118.6315,38.5448,1282.89,51.80,48.20,87.47,0.00,0.00,0.00,29.94,M,2.00,M,SCT,BKN,OVC,M,2800.00,3900.00,4600.00,M,HZ,M,M,M,M,M,M,51.80,KHTH 040015Z AUTO 00000KT 2SM HZ SCT028 BKN039 OVC046 11/09 A2994 RMK A01,M
TMT,2025-05-04 00:15,-117.1971,39.4643,1749.34,51.60,45.00,78.09,340.00,11.00,0.00,29.88,M,10.00,14.00,SCT,SCT,SCT,M,4600.00,6000.00,7000.00,M,M,M,M,M,M,M,M,51.60,KTMT 040015Z AUTO 34011G14KT 10SM SCT046 SCT060 SCT070 11/07 A2988 RMK AO2 T01090072,M
10U,2025-05-04 00:15,-116.1876,41.9532,1637.00,55.40,46.40,71.64,340.00,10.00,0.00,29.89,M,10.00,15.00,FEW,SCT,M,M,1900.00,11000.00,M,M,M,M,M,M,M,M,M,55.40,K10U 040015Z AUTO 34010G15KT 10SM FEW019 SCT110 13/08 A2989 RMK AO2,M
MEV,2025-05-04 00:25,-119.7500,38.9963,1441.42,57.20,35.60,44.19,260.00,10.00,0.00,29.91,M,10.00,15.00,CLR,M,M,M,M,M,M,M,M,M,M,M,M,M,M,57.20,KMEV 040025Z AUTO 26010G15KT 10SM CLR 14/02 A2991 RMK AO2,M
RTS,2025-05-04 00:25,-119.8764,39.6682,1539.00,55.40,33.80,43.90,290.00,13.00,0.00,29.91,M,10.00,20.00,CLR,M,M,M,M,M,M,M,M,M,M,M,M,M,M,55.40,KRTS 040025Z AUTO 29013G20KT 10SM CLR 13/01 A2991 RMK AO2,M
BVU,2025-05-04 00:35,-114.8611,35.9475,671.00,82.40,33.80,17.38,250.00,6.00,0.00,29.68,M,10.00,M,CLR,M,M,M,M,M,M,M,M,M,M,M,M,M,M,80.03,KBVU 040035Z AUTO 25006KT 10SM CLR 28/01 A2968 RMK AO2,M
BAM,2025-05-04 00:35,-116.8743,40.5990,1382.36,55.40,50.00,81.99,320.00,5.00,0.00,29.89,M,10.00,M,SCT,M,M,M,11000.00,M,M,M,M,M,M,M,M,M,M,55.40,KBAM 040035Z AUTO 32005KT 10SM SCT110 13/10 A2989 RMK AO1,M
CXP,2025-05-04 00:35,-119.7326,39.1923,1431.00,57.20,33.80,41.13,M,5.00,0.00,29.91,M,10.00,M,SCT,M,M,M,10000.00,M,M,M,M,M,M,M,M,M,M,57.20,KCXP 040035Z AUTO VRB05KT 10SM SCT100 14/01 A2991 RMK AO2,M
HTH,2025-05-04 00:35,-118.6315,38.5448,1282.89,51.80,48.20,87.47,340.00,6.00,0.00,29.94,M,2.00,M,FEW,BKN,OVC,M,1600.00,2900.00,4000.00,M,BR,M,M,M,M,M,M,51.80,KHTH 040035Z AUTO 34006KT 2SM BR FEW016 BKN029 OVC040 11/09 A2994 RMK A01,M
TMT,2025-05-04 00:35,-117.1971,39.4643,1749.34,51.80,43.70,73.76,350.00,9.00,0.00,29.89,M,10.00,M,SCT,M,M,M,8000.00,M,M,M,M,M,M,M,M,M,M,51.80,KTMT 040035Z AUTO 35009KT 10SM SCT080 11/07 A2989 RMK AO2 T01100065,M
10U,2025-05-04 00:35,-116.1876,41.9532,1637.00,55.40,44.60,66.91,340.00,9.00,0.00,29.88,M,10.00,M,FEW,BKN,M,M,2200.00,11000.00,M,M,M,M,M,M,M,M,M,55.40,K10U 040035Z AUTO 34009KT 10SM FEW022 BKN110 13/07 A2988 RMK AO2 LTG DSNT S,M
TPH,2025-05-04 00:38,-117.0904,38.0505,1654.00,65.00,24.00,20.89,150.00,25.00,0.00,29.82,M,10.00,31.00,BKN,M,M,M,11000.00,M,M,M,M,M,M,M,31.00,140.00,2025-05-04 00:37,65.00,KTPH 040038Z AUTO 15025G31KT 10SM BKN110 18/M04 A2982 RMK AO2 PK WND 14031/0037 WSHFT 0018 T01831044 $,M
INS,2025-05-04 00:44,-115.6733,36.5872,955.00,71.60,41.00,33.00,150.00,13.00,0.00,29.75,1004.10,10.00,18.00,OVC,M,M,M,10000.00,M,M,M,M,M,M,M,M,M,M,71.60,KINS 040044Z AUTO 15013G18KT 10SM OVC100 22/05 A2975 RMK AO2 WSHFT 39 LTG DSNT W SLP041 $,M
RTS,2025-05-04 00:45,-119.8764,39.6682,1539.00,55.40,32.00,40.84,290.00,14.00,0.00,29.91,M,10.00,M,CLR,M,M,M,M,M,M,M,M,M,M,M,M,M,M,55.40,KRTS 040045Z AUTO 29014KT 10SM CLR 13/00 A2991 RMK AO2,M
P68,2025-05-04 00:53,-116.0056,39.6014,1993.00,55.00,47.00,74.36,30.00,6.00,0.00,29.87,1007.10,M,M,M,M,M,M,M,M,M,M,M,M,M,M,M,M,M,55.00,KP68 040053Z AUTO 03006KT 13/08 A2987 RMK AO1 SLP071 T01280083 $,M
DRA,2025-05-04 00:53,-116.0278,36.6206,1009.00,63.00,49.00,60.20,200.00,15.00,T,29.80,1006.10,9.00,29.00,FEW,BKN,OVC,M,5500.00,7500.00,9000.00,M,-RA,M,M,M,35.00,170.00,2025-05-04 00:40,63.00,KDRA 040053Z AUTO 20015G29KT 9SM -RA FEW055 BKN075 OVC090 17/09 A2980 RMK AO2 PK WND 17035/0040 RAB18 SLP061 P0000 T01720094,M
ELY,2025-05-04 00:53,-114.8453,39.2950,1909.00,60.00,32.00,34.61,190.00,11.00,0.00,29.89,1007.60,10.00,19.00,FEW,BKN,OVC,M,7000.00,9500.00,11000.00,M,M,M,M,M,M,M,M,60.00,KELY 040053Z AUTO 19011G19KT 10SM FEW070 BKN095 OVC110 16/00 A2989 RMK AO2 SLP076 T01560000 $,M
VGT,2025-05-04 00:53,-115.1933,36.2111,667.00,80.00,35.00,19.71,260.00,13.00,0.00,29.70,1005.40,10.00,M,CLR,M,M,M,M,M,M,M,M,M,M,M,M,M,M,78.63,KVGT 040053Z 26013KT 10SM CLR 27/02 A2970 RMK AO2 SLP054 T02670017,M
LOL,2025-05-04 00:53,-118.5701,40.0684,1192.43,56.00,47.00,71.70,70.00,6.00,T,29.88,1010.10,10.00,M,OVC,M,M,M,6000.00,M,M,M,-RA,M,M,M,M,M,M,56.00,KLOL 040053Z AUTO 07006KT 10SM -RA OVC060 13/08 A2988 RMK AO2 RAB13 SLP101 P0000 T01330083,M
LSV,2025-05-04 00:55,-115.0343,36.2362,570.00,82.60,32.00,16.06,290.00,9.00,0.00,29.64,1001.70,10.00,M,BKN,M,M,M,15000.00,M,M,M,M,M,M,M,M,M,M,80.13,KLSV 040055Z 29009KT 10SM BKN150 28/M00 A2964 RMK AO2A SLP017 T02811001 $,M
BVU,2025-05-04 00:55,-114.8611,35.9475,671.00,82.40,32.00,16.17,220.00,10.00,0.00,29.67,M,10.00,M,CLR,M,M,M,M,M,M,M,M,M,M,M,M,M,M,80.00,KBVU 040055Z AUTO 22010KT 10SM CLR 28/M00 A2967 RMK AO2,M
INS,2025-05-04 00:55,-115.6733,36.5872,955.00,70.30,37.40,29.97,190.00,17.00,0.00,29.75,1004.10,10.00,23.00,BKN,OVC,M,M,10000.00,12000.00,M,M,M,M,M,M,M,M,M,70.30,KINS 040055Z AUTO 19017G23KT 10SM BKN100 OVC120 21/03 A2975 RMK AO2 SLP041 T02130030 $,M
RNO,2025-05-04 00:55,-119.7711,39.4839,1341.00,60.00,33.00,36.03,280.00,14.00,0.00,29.88,1008.50,10.00,27.00,BKN,OVC,M,M,5000.00,8000.00,M,M,M,M,M,M,27.00,280.00,2025-05-04 00:51,60.00,KRNO 040055Z 28014G27KT 10SM BKN050 OVC080 16/01 A2988 RMK AO2 PK WND 28027/0051 SLP085 VIRGA T01560006 $,M
BAM,2025-05-04 00:55,-116.8743,40.5990,1382.36,55.40,50.00,81.99,340.00,13.00,0.00,29.89,M,10.00,17.00,CLR,M,M,M,M,M,M,M,M,M,M,M,M,M,M,55.40,KBAM 040055Z AUTO 34013G17KT 10SM CLR 13/10 A2989 RMK AO1,M
CXP,2025-05-04 00:55,-119.7326,39.1923,1431.00,57.20,33.80,41.13,280.00,6.00,0.00,29.91,M,10.00,M,BKN,BKN,M,M,8000.00,11000.00,M,M,M,M,M,M,M,M,M,57.20,KCXP 040055Z AUTO 28006KT 10SM BKN080 BKN110 14/01 A2991 RMK AO2,M
HTH,2025-05-04 00:55,-118.6315,38.5448,1282.89,51.80,48.20,87.47,330.00,5.00,0.12,29.92,M,3.00,M,BKN,BKN,BKN,M,2900.00,3900.00,6500.00,M,BR,M,M,M,M,M,M,51.80,KHTH 040055Z AUTO 33005KT 3SM BR BKN029 BKN039 BKN065 11/09 A2992 RMK A01 P0012,M
TMT,2025-05-04 00:55,-117.1971,39.4643,1749.34,51.60,43.00,72.34,250.00,21.00,0.00,29.93,M,M,M,M,M,M,M,M,M,M,M,M,M,M,M,M,M,M,51.60,KTMT 040055Z AUTO 25021KT 11/06 A2993 RMK AO2 T01090061,M
10U,2025-05-04 00:55,-116.1876,41.9532,1637.00,53.60,44.60,71.45,350.00,7.00,0.00,29.89,M,10.00,13.00,FEW,SCT,M,M,2300.00,11000.00,M,M,M,M,M,M,M,M,M,53.60,K10U 040055Z AUTO 35007G13KT 10SM FEW023 SCT110 12/07 A2989 RMK AO2,M
EKO,2025-05-04 00:56,-115.7860,40.8242,1367.00,61.00,42.00,49.54,170.00,13.00,T,29.85,1008.50,10.00,22.00,FEW,BKN,M,M,7000.00,9000.00,M,M,M,M,M,M,M,M,M,61.00,KEKO 040056Z AUTO 17013G22KT 10SM FEW070 BKN090 16/06 A2985 RMK AO2 LTG DSNT S-NW RAE10 SLP085 P0000 T01610056,M
WMC,2025-05-04 00:56,-117.8072,40.9019,1315.00,51.00,46.00,82.93,0.00,0.00,0.03,29.88,1009.70,10.00,M,FEW,OVC,M,M,3600.00,7500.00,M,M,-RA,M,M,M,M,M,M,51.00,KWMC 040056Z AUTO 00000KT 10SM -RA FEW036 OVC075 11/08 A2988 RMK AO2 SLP097 P0003 T01060078,M
HND,2025-05-04 00:56,-115.1344,35.9729,742.79,77.00,38.00,24.50,240.00,17.00,0.00,29.75,1007.10,10.00,26.00,FEW,BKN,OVC,M,7500.00,9500.00,11000.00,M,M,M,M,M,26.00,230.00,2025-05-04 00:53,77.00,KHND 040056Z 24017G26KT 10SM FEW075 BKN095 OVC110 25/03 A2975 RMK AO2 PK WND 23026/0053 SLP071 T02500033 $,M
TPH,2025-05-04 00:56,-117.0904,38.0505,1654.00,62.00,30.00,29.73,220.00,18.00,T,29.83,1006.30,10.00,35.00,FEW,SCT,OVC,M,5500.00,7000.00,9500.00,M,-RA,M,M,M,50.00,170.00,2025-05-04 00:40,62.00,KTPH 040056Z AUTO 22018G35KT 10SM -RA FEW055 SCT070 OVC095 17/M01 A2983 RMK AO2 PK WND 17050/0040 WSHFT 0018 RAB44 SLP063 P0000 T01671011 $,M
LAS,2025-05-04 00:56,-115.1634,36.0719,663.00,79.00,38.00,22.93,230.00,18.00,0.00,29.73,1004.80,10.00,35.00,FEW,BKN,BKN,M,8000.00,11000.00,15000.00,M,M,M,M,M,35.00,240.00,2025-05-04 00:54,79.00,KLAS 040056Z 23018G35KT 10SM FEW080 BKN110 BKN150 26/03 A2973 RMK AO2 PK WND 24035/0054 PRESRR SLP048 SH DSNT W T02610033,M
NFL,2025-05-04 00:57,-118.7010,39.4166,1199.00,53.00,47.00,80.00,130.00,8.00,0.01,29.89,1009.50,10.00,M,OVC,M,M,M,6500.00,M,M,M,-RA,M,M,M,M,M,M,53.00,KNFL 040057Z AUTO 13008KT 10SM -RA OVC065 12/08 A2989 RMK AO2 RAB04 SLP095 P0001 T01170083,M
INS,2025-05-04 00:58,-115.6733,36.5872,955.00,69.80,37.40,30.49,200.00,16.00,0.00,29.76,1004.40,10.00,23.00,BKN,OVC,M,M,10000.00,12000.00,M,M,M,M,M,M,M,M,M,69.80,KINS 040058Z AUTO 20016G23KT 10SM BKN100 OVC120 21/03 A2976 RMK AO2 WSHFT 44 SLP044 $,M
EKO,2025-05-04 01:08,-115.7860,40.8242,1367.00,60.00,42.00,51.33,160.00,13.00,0.00,29.85,M,10.00,M,BKN,OVC,M,M,7000.00,9500.00,M,M,VCTS,M,M,M,M,M,M,60.00,KEKO 040108Z AUTO 16013KT 10SM VCTS BKN070 OVC095 16/06 A2985 RMK AO2 LTG DSNT S-NW T01560056,M
CXP,2025-05-04 01:10,-119.7326,39.1923,1431.00,57.20,33.80,41.13,260.00,6.00,0.00,29.92,M,10.00,M,OVC,M,M,M,7500.00,M,M,M,M,M,M,M,M,M,M,57.20,KCXP 040110Z AUTO 26006KT 10SM OVC075 14/01 A2992 RMK AO2,M
BVU,2025-05-04 01:15,-114.8611,35.9475,671.00,82.40,32.00,16.17,200.00,13.00,0.00,29.67,M,10.00,20.00,FEW,M,M,M,12000.00,M,M,M,M,M,M,M,M,M,M,80.00,KBVU 040115Z AUTO 20013G20KT 10SM FEW120 28/M00 A2967 RMK AO2,M
BAM,2025-05-04 01:15,-116.8743,40.5990,1382.36,53.60,46.40,76.50,340.00,11.00,0.00,29.89,M,10.00,M,CLR,M,M,M,M,M,M,M,M,M,M,M,M,M,M,53.60,KBAM 040115Z AUTO 34011KT 10SM CLR 12/08 A2989 RMK AO1,M
HTH,2025-05-04 01:15,-118.6315,38.5448,1282.89,50.00,48.20,93.50,340.00,4.00,0.00,29.92,M,9.00,M,CLR,M,M,M,M,M,M,M,M,M,M,M,M,M,M,50.00,KHTH 040115Z AUTO 34004KT 9SM CLR 10/09 A2992 RMK A01,M
TMT,2025-05-04 01:15,-117.1971,39.4643,1749.34,42.60,40.00,90.44,280.00,15.00,0.00,29.93,M,10.00,20.00,SCT,BKN,OVC,M,2000.00,4700.00,5500.00,M,-RA,M,M,M,M,M,M,34.52,KTMT 040115Z AUTO 28015G20KT 10SM -RA SCT020 BKN047 OVC055 06/05 A2993 RMK AO2 T00590045,M
10U,2025-05-04 01:15,-116.1876,41.9532,1637.00,53.60,44.60,71.45,30.00,5.00,0.00,29.91,M,10.00,M,FEW,SCT,BKN,M,2200.00,6500.00,10000.00,M,M,M,M,M,M,M,M,53.60,K10U 040115Z AUTO 03005KT 10SM FEW022 SCT065 BKN100 12/07 A2991 RMK AO2 LTG DSNT SE,M
EKO,2025-05-04 01:20,-115.7860,40.8242,1367.00,57.00,44.00,61.72,230.00,18.00,T,29.87,M,9.00,34.00,FEW,OVC,M,M,3500.00,6500.00,M,M,-TSRA,M,M,M,34.00,180.00,2025-05-04 01:16,57.00,KEKO 040120Z AUTO 23018G34KT 9SM -TSRA FEW035 OVC065 14/07 A2987 RMK AO2 PK WND 18034/0116 LTG DSNT S AND SW RAB15 TSB14 P0000 T01390067,M
INS,2025-05-04 01:24,-115.6733,36.5872,955.00,68.00,41.00,37.32,250.00,13.00,0.00,29.75,1004.10,10.00,M,FEW,SCT,OVC,M,6000.00,8000.00,10000.00,M,M,M,M,M,M,M,M,68.00,KINS 040124Z AUTO 25013KT 10SM FEW060 SCT080 OVC100 20/05 A2975 RMK AO2 WSHFT 13 SLP041 $,M
EKO,2025-05-04 01:29,-115.7860,40.8242,1367.00,54.00,45.00,71.50,240.00,13.00,T,29.88,M,8.00,29.00,BKN,OVC,M,M,6500.00,8000.00,M,M,-TSRA,M,M,M,34.00,180.00,2025-05-04 01:16,54.00,KEKO 040129Z AUTO 24013G29KT 8SM -TSRA BKN065 OVC080 12/07 A2988 RMK AO2 PK WND 18034/0116 WSHFT 0109 LTG DSNT SW RAB15 TSB14 PRESRR P0000 T01220072,M
INS,2025-05-04 01:31,-115.6733,36.5872,955.00,66.20,42.80,42.57,260.00,15.00,0.00,29.76,1004.60,10.00,M,SCT,SCT,OVC,M,5500.00,7000.00,9500.00,M,-RA,M,M,M,M,M,M,66.20,KINS 040131Z AUTO 26015KT 10SM -RA SCT055 SCT070 OVC095 19/06 A2976 RMK AO2 RAB31 SLP046 $,M
TPH,2025-05-04 01:31,-117.0904,38.0505,1654.00,57.00,40.00,52.90,310.00,10.00,T,29.85,M,10.00,M,FEW,BKN,OVC,M,5500.00,7500.00,9000.00,M,-RA,M,M,M,M,M,M,57.00,KTPH 040131Z AUTO 31010KT 10SM -RA FEW055 BKN075 OVC090 14/04 A2985 RMK AO2 WSHFT 0111 P0000 T01390044 $,M
BVU,2025-05-04 01:35,-114.8611,35.9475,671.00,78.80,35.60,21.00,260.00,10.00,0.00,29.67,M,10.00,16.00,FEW,M,M,M,12000.00,M,M,M,M,M,M,M,M,M,M,78.80,KBVU 040135Z AUTO 26010G16KT 10SM FEW120 26/02 A2967 RMK AO2,M
BAM,2025-05-04 01:35,-116.8743,40.5990,1382.36,53.60,46.40,76.50,350.00,14.00,0.00,29.89,M,10.00,M,SCT,M,M,M,10000.00,M,M,M,M,M,M,M,M,M,M,53.60,KBAM 040135Z AUTO 35014KT 10SM SCT100 12/08 A2989 RMK AO1,M
CXP,2025-05-04 01:35,-119.7326,39.1923,1431.00,55.40,33.80,43.90,0.00,0.00,0.00,29.91,M,10.00,M,SCT,OVC,M,M,5500.00,7000.00,M,M,M,M,M,M,M,M,M,55.40,KCXP 040135Z AUTO 00000KT 10SM SCT055 OVC070 13/01 A2991 RMK AO2,M
RTS,2025-05-04 01:35,-119.8764,39.6682,1539.00,53.60,35.60,50.36,270.00,12.00,0.00,29.92,M,10.00,M,FEW,M,M,M,8500.00,M,M,M,M,M,M,M,M,M,M,53.60,KRTS 040135Z AUTO 27012KT 10SM FEW085 12/02 A2992 RMK AO2,M
MEV,2025-05-04 01:35,-119.7500,38.9963,1441.42,53.60,35.60,50.36,250.00,10.00,0.00,29.90,M,10.00,M,OVC,M,M,M,8000.00,M,M,M,M,M,M,M,M,M,M,53.60,KMEV 040135Z AUTO 25010KT 10SM OVC080 12/02 A2990 RMK AO2,M
HTH,2025-05-04 01:35,-118.6315,38.5448,1282.89,51.80,46.40,81.74,260.00,4.00,0.00,29.92,M,10.00,M,FEW,SCT,BKN,M,4700.00,5500.00,6500.00,M,M,M,M,M,M,M,M,51.80,KHTH 040135Z AUTO 26004KT 10SM FEW047 SCT055 BKN065 11/08 A2992 RMK A01,M
TMT,2025-05-04 01:35,-117.1971,39.4643,1749.34,43.00,40.30,90.10,180.00,5.00,0.00,29.95,M,10.00,M,SCT,BKN,OVC,M,1400.00,4500.00,6000.00,M,M,M,M,M,M,M,M,39.46,KTMT 040135Z AUTO 18005KT 10SM SCT014 BKN045 OVC060 06/05 A2995 RMK AO2 T00620046,M
10U,2025-05-04 01:35,-116.1876,41.9532,1637.00,51.80,46.40,81.74,30.00,5.00,0.00,29.91,M,8.00,M,BKN,BKN,BKN,M,2200.00,3500.00,4900.00,M,-RA,M,M,M,M,M,M,51.80,K10U 040135Z AUTO 03005KT 8SM -RA BKN022 BKN035 BKN049 11/08 A2991 RMK AO2 LTG DSNT ALQDS,M
EKO,2025-05-04 01:39,-115.7860,40.8242,1367.00,52.00,46.00,79.92,220.00,10.00,T,29.90,M,10.00,20.00,FEW,BKN,OVC,M,4700.00,6000.00,8000.00,M,VCTS -RA,M,M,M,34.00,180.00,2025-05-04 01:16,52.00,KEKO 040139Z AUTO 22010G20KT 10SM VCTS -RA FEW047 BKN060 OVC080 11/08 A2990 RMK AO2 PK WND 18034/0116 WSHFT 0109 LTG DSNT S AND SW RAB15 TSB14E33 PRESRR P0000 T01110078,M
EKO,2025-05-04 01:48,-115.7860,40.8242,1367.00,51.00,47.00,86.12,260.00,20.00,T,29.88,M,6.00,24.00,FEW,BKN,OVC,M,2300.00,5500.00,8000.00,M,-RA BR,M,M,M,34.00,180.00,2025-05-04 01:16,51.00,KEKO 040148Z AUTO 26020G24KT 6SM -RA BR FEW023 BKN055 OVC080 11/08 A2988 RMK AO2 PK WND 18034/0116 WSHFT 0109 LTG DSNT SW RAB15 TSB14E33 P0000 T01060083,M
P68,2025-05-04 01:53,-116.0056,39.6014,1993.00,54.00,48.00,80.07,330.00,6.00,0.00,29.87,1006.70,M,M,M,M,M,M,M,M,M,M,M,M,M,M,M,M,M,54.00,KP68 040153Z AUTO 33006KT 12/09 A2987 RMK AO1 SLP067 T01220089 $,M
DRA,2025-05-04 01:53,-116.0278,36.6206,1009.00,68.00,42.00,38.79,80.00,9.00,T,29.76,1004.40,10.00,15.00,FEW,OVC,M,M,7500.00,10000.00,M,M,M,M,M,M,M,M,M,68.00,KDRA 040153Z AUTO 08009G15KT 10SM FEW075 OVC100 20/06 A2976 RMK AO2 RAE04 SLP044 P0000 T02000056,M
ELY,2025-05-04 01:53,-114.8453,39.2950,1909.00,58.00,31.00,35.70,180.00,11.00,0.00,29.87,1006.00,10.00,M,FEW,SCT,M,M,8000.00,11000.00,M,M,M,M,M,M,M,M,M,58.00,KELY 040153Z AUTO 18011KT 10SM FEW080 SCT110 14/M01 A2987 RMK AO2 SLP060 T01441006 $,M
VGT,2025-05-04 01:53,-115.1933,36.2111,667.00,75.00,39.00,27.23,270.00,12.00,T,29.69,1005.30,10.00,M,CLR,M,M,M,M,M,M,M,M,M,M,M,41.00,230.00,2025-05-04 01:12,75.00,KVGT 040153Z 27012KT 10SM CLR 24/04 A2969 RMK AO2 PK WND 23041/0112 RAB15E26 SLP053 P0000 T02390039,M
LOL,2025-05-04 01:53,-118.5701,40.0684,1192.43,55.00,45.00,68.93,180.00,7.00,T,29.87,1010.00,10.00,M,BKN,M,M,M,11000.00,M,M,M,M,M,M,M,M,M,M,55.00,KLOL 040153Z AUTO 18007KT 10SM BKN110 13/07 A2987 RMK AO2 RAE24 SLP100 P0000 T01280072,M
INS,2025-05-04 01:55,-115.6733,36.5872,955.00,67.00,42.40,40.77,260.00,8.00,T,29.77,1004.90,10.00,M,FEW,OVC,M,M,5500.00,8500.00,M,M,-RA,M,M,M,34.00,220.00,2025-05-04 01:06,67.00,KINS 040155Z AUTO 26008KT 10SM -RA FEW055 OVC085 19/06 A2977 RMK AO2 PK WND 22034/06 RAE0055RAB31 SLP049 P0000 T01940058 $,M
LSV,2025-05-04 01:55,-115.0343,36.2362,570.00,77.50,37.00,23.17,290.00,11.00,0.00,29.64,1001.70,10.00,M,BKN,M,M,M,17000.00,M,M,M,M,M,M,M,41.00,280.00,2025-05-04 01:20,77.50,KLSV 040155Z 29011KT 10SM BKN170 25/03 A2964 RMK AO2A PK WND 28041/20 SLP017 T02530027 $,M
BVU,2025-05-04 01:55,-114.8611,35.9475,671.00,78.80,33.80,19.55,270.00,10.00,0.00,29.67,M,10.00,M,CLR,M,M,M,M,M,M,M,M,M,M,M,M,M,M,78.80,KBVU 040155Z AUTO 27010KT 10SM CLR 26/01 A2967 RMK AO2,M
RNO,2025-05-04 01:55,-119.7711,39.4839,1341.00,58.00,35.00,41.92,290.00,10.00,0.00,29.88,1008.70,10.00,M,BKN,OVC,M,M,5000.00,8000.00,M,M,M,M,M,M,M,M,M,58.00,KRNO 040155Z 29010KT 10SM BKN050 OVC080 14/02 A2988 RMK AO2 SLP087 VIRGA T01440017 $,M
BAM,2025-05-04 01:55,-116.8743,40.5990,1382.36,53.60,48.20,81.87,340.00,11.00,0.00,29.89,M,10.00,16.00,OVC,M,M,M,10000.00,M,M,M,M,M,M,M,M,M,M,53.60,KBAM 040155Z AUTO 34011G16KT 10SM OVC100 12/09 A2989 RMK AO1,M
CXP,2025-05-04 01:55,-119.7326,39.1923,1431.00,57.20,33.80,41.13,90.00,3.00,0.00,29.91,M,10.00,M,FEW,BKN,OVC,M,3000.00,4600.00,7000.00,M,M,M,M,M,M,M,M,57.20,KCXP 040155Z AUTO 09003KT 10SM FEW030 BKN046 OVC070 14/01 A2991 RMK AO2,M
RTS,2025-05-04 01:55,-119.8764,39.6682,1539.00,53.60,37.40,54.07,270.00,10.00,0.00,29.92,M,10.00,M,CLR,M,M,M,M,M,M,M,M,M,M,M,M,M,M,53.60,KRTS 040155Z AUTO 27010KT 10SM CLR 12/03 A2992 RMK AO2,M
MEV,2025-05-04 01:55,-119.7500,38.9963,1441.42,53.60,33.80,46.88,260.00,4.00,0.00,29.90,M,10.00,11.00,SCT,M,M,M,8000.00,M,M,M,M,M,M,M,M,M,M,53.60,KMEV 040155Z AUTO 26004G11KT 10SM SCT080 12/01 A2990 RMK AO2,M
HTH,2025-05-04 01:55,-118.6315,38.5448,1282.89,51.80,48.20,87.47,250.00,5.00,0.01,29.92,M,7.00,M,FEW,SCT,BKN,M,2900.00,4900.00,6000.00,M,M,M,M,M,M,M,M,51.80,KHTH 040155Z AUTO 25005KT 7SM FEW029 SCT049 BKN060 11/09 A2992 RMK A01 P0001,M
TMT,2025-05-04 01:55,-117.1971,39.4643,1749.34,43.30,41.00,91.52,180.00,8.00,0.00,29.95,M,10.00,M,SCT,OVC,M,M,1700.00,4100.00,M,M,M,M,M,M,M,M,M,38.03,KTMT 040155Z AUTO 18008KT 10SM SCT017 OVC041 06/05 A2995 RMK AO2 T00630050,M
10U,2025-05-04 01:55,-116.1876,41.9532,1637.00,51.80,48.20,87.47,350.00,6.00,0.00,29.91,M,10.00,M,SCT,SCT,BKN,M,2000.00,2500.00,11000.00,M,-RA,M,M,M,M,M,M,51.80,K10U 040155Z AUTO 35006KT 10SM -RA SCT020 SCT025 BKN110 11/09 A2991 RMK AO2 LTG DSNT E AND S,M
EKO,2025-05-04 01:56,-115.7860,40.8242,1367.00,51.00,47.00,86.12,240.00,18.00,0.02,29.87,1009.90,7.00,M,FEW,BKN,OVC,M,4400.00,5500.00,7000.00,M,-RA,M,M,M,34.00,180.00,2025-05-04 01:16,51.00,KEKO 040156Z AUTO 24018KT 7SM -RA FEW044 BKN055 OVC070 11/08 A2987 RMK AO2 PK WND 18034/0116 WSHFT 0109 RAB15 TSB14E33 SLP099 P0002 T01060083,M
WMC,2025-05-04 01:56,-117.8072,40.9019,1315.00,51.00,48.00,89.42,180.00,3.00,T,29.86,1008.60,10.00,M,SCT,M,M,M,12000.00,M,M,M,M,M,M,M,M,M,M,51.00,KWMC 040156Z AUTO 18003KT 10SM SCT120 11/09 A2986 RMK AO2 RAE06 SLP086 P0000 T01060089,M
HND,2025-05-04 01:56,-115.1344,35.9729,742.79,73.00,41.00,31.47,270.00,9.00,T,29.73,1006.30,10.00,M,SCT,M,M,M,11000.00,M,M,M,M,M,M,M,34.00,230.00,2025-05-04 01:00,73.00,KHND 040156Z 27009KT 10SM SCT110 23/05 A2973 RMK AO2 PK WND 23034/0100 RAB0058E13 SLP063 P0000 T02280050 $,M
TPH,2025-05-04 01:56,-117.0904,38.0505,1654.00,56.00,40.00,54.85,320.00,8.00,T,29.84,1006.40,10.00,M,FEW,FEW,SCT,M,8000.00,9500.00,11000.00,M,M,M,M,M,M,M,M,56.00,KTPH 040156Z AUTO 32008KT 10SM FEW080 FEW095 SCT110 13/04 A2984 RMK AO2 WSHFT 0111 RAE45 SLP064 P0000 T01330044 $,M
LAS,2025-05-04 01:56,-115.1634,36.0719,663.00,74.00,40.00,29.28,280.00,11.00,T,29.71,1004.00,10.00,M,FEW,SCT,BKN,M,9000.00,12000.00,15000.00,M,M,M,M,M,38.00,240.00,2025-05-04 01:10,74.00,KLAS 040156Z 28011KT 10SM FEW090 SCT120 BKN150 23/04 A2971 RMK AO2 PK WND 24038/0110 RAB02E20 SLP040 P0000 T02330044,M
NFL,2025-05-04 01:57,-118.7010,39.4166,1199.00,53.00,46.00,77.03,130.00,9.00,T,29.89,1009.70,10.00,M,BKN,BKN,OVC,M,5500.00,8000.00,9000.00,M,-RA,M,M,M,M,M,M,53.00,KNFL 040157Z AUTO 13009KT 10SM -RA BKN055 BKN080 OVC090 12/08 A2989 RMK AO2 RAE25B55 SLP097 P0000 T01170078,M
INS,2025-05-04 02:03,-115.6733,36.5872,955.00,66.20,42.80,42.57,260.00,9.00,0.00,29.77,1004.90,10.00,M,OVC,M,M,M,8500.00,M,M,M,M,M,M,M,M,M,M,66.20,KINS 040203Z AUTO 26009KT 10SM OVC085 19/06 A2977 RMK AO2 RAE0158DZB0158E03 SLP049 $,M
INS,2025-05-04 02:12,-115.6733,36.5872,955.00,66.20,42.80,42.57,280.00,11.00,0.00,29.77,1004.80,10.00,M,FEW,SCT,OVC,M,4400.00,6500.00,8500.00,M,-RA,M,M,M,M,M,M,66.20,KINS 040212Z AUTO 28011KT 10SM -RA FEW044 SCT065 OVC085 19/06 A2977 RMK AO2 RAB0155E0158DZB0158E03RAB12 SLP048 $,M
BVU,2025-05-04 02:15,-114.8611,35.9475,671.00,77.00,33.80,20.74,280.00,10.00,0.00,29.66,M,10.00,M,CLR,M,M,M,M,M,M,M,M,M,M,M,M,M,M,77.00,KBVU 040215Z AUTO 28010KT 10SM CLR 25/01 A2966 RMK AO2,M
BAM,2025-05-04 02:15,-116.8743,40.5990,1382.36,53.60,48.20,81.87,350.00,10.00,0.00,29.90,M,10.00,M,SCT,OVC,M,M,8000.00,10000.00,M,M,M,M,M,M,M,M,M,53.60,KBAM 040215Z AUTO 35010KT 10SM SCT080 OVC100 12/09 A2990 RMK AO1,M
CXP,2025-05-04 02:15,-119.7326,39.1923,1431.00,55.40,35.60,47.16,150.00,5.00,0.00,29.91,M,10.00,M,FEW,SCT,BKN,M,2600.00,3200.00,4300.00,M,M,M,M,M,M,M,M,55.40,KCXP 040215Z AUTO 15005KT 10SM FEW026 SCT032 BKN043 13/02 A2991 RMK AO2,M
RTS,2025-05-04 02:15,-119.8764,39.6682,1539.00,53.60,35.60,50.36,240.00,9.00,0.00,29.92,M,10.00,15.00,FEW,M,M,M,6000.00,M,M,M,M,M,M,M,M,M,M,53.60,KRTS 040215Z AUTO 24009G15KT 10SM FEW060 12/02 A2992 RMK AO2,M
MEV,2025-05-04 02:15,-119.7500,38.9963,1441.42,55.40,33.80,43.90,0.00,0.00,0.00,29.89,M,10.00,M,BKN,BKN,M,M,5500.00,6500.00,M,M,M,M,M,M,M,M,M,55.40,KMEV 040215Z AUTO 00000KT 10SM BKN055 BKN065 13/01 A2989 RMK AO2,M
HTH,2025-05-04 02:15,-118.6315,38.5448,1282.89,51.80,48.20,87.47,280.00,7.00,0.00,29.91,M,10.00,M,FEW,FEW,M,M,6000.00,7000.00,M,M,M,M,M,M,M,M,M,51.80,KHTH 040215Z AUTO 28007KT 10SM FEW060 FEW070 11/09 A2991 RMK A01,M
TMT,2025-05-04 02:15,-117.1971,39.4643,1749.34,43.30,41.00,91.52,200.00,9.00,0.00,29.95,M,10.00,M,SCT,OVC,M,M,1800.00,4100.00,M,M,M,M,M,M,M,M,M,37.56,KTMT 040215Z AUTO 20009KT 10SM SCT018 OVC041 06/05 A2995 RMK AO2 T00630051,M
10U,2025-05-04 02:15,-116.1876,41.9532,1637.00,51.80,48.20,87.47,10.00,5.00,0.00,29.91,M,10.00,M,FEW,BKN,BKN,M,6000.00,8000.00,11000.00,M,VCTS,M,M,M,M,M,M,51.80,K10U 040215Z AUTO 01005KT 10SM VCTS FEW060 BKN080 BKN110 11/09 A2991 RMK AO2 LTG DSNT ALQDS,M
BVU,2025-05-04 02:35,-114.8611,35.9475,671.00,75.20,37.40,25.40,310.00,12.00,0.00,29.67,M,10.00,M,CLR,M,M,M,M,M,M,M,M,M,M,M,M,M,M,75.20,KBVU 040235Z AUTO 31012KT 10SM CLR 24/03 A2967 RMK AO2,M
BAM,2025-05-04 02:35,-116.8743,40.5990,1382.36,53.60,48.20,81.87,10.00,8.00,0.00,29.89,M,10.00,M,SCT,BKN,OVC,M,4500.00,7000.00,8000.00,M,M,M,M,M,M,M,M,53.60,KBAM 040235Z AUTO 01008KT 10SM SCT045 BKN070 OVC080 12/09 A2989 RMK AO1,M
CXP,2025-05-04 02:35,-119.7326,39.1923,1431.00,55.40,35.60,47.16,290.00,8.00,0.00,29.91,M,10.00,M,FEW,SCT,BKN,M,3000.00,5000.00,6000.00,M,M,M,M,M,M,M,M,55.40,KCXP 040235Z AUTO 29008KT 10SM FEW030 SCT050 BKN060 13/02 A2991 RMK AO2,M
RTS,2025-05-04 02:35,-119.8764,39.6682,1539.00,53.60,33.80,46.88,270.00,12.00,0.00,29.91,M,10.00,17.00,SCT,M,M,M,6000.00,M,M,M,M,M,M,M,M,M,M,53.60,KRTS 040235Z AUTO 27012G17KT 10SM SCT060 12/01 A2991 RMK AO2,M
MEV,2025-05-04 02:35,-119.7500,38.9963,1441.42,55.40,32.00,40.84,360.00,11.00,0.00,29.90,M,10.00,M,OVC,M,M,M,5000.00,M,M,M,M,M,M,M,M,M,M,55.40,KMEV 040235Z AUTO 36011KT 10SM OVC050 13/00 A2990 RMK AO2,M
HTH,2025-05-04 02:35,-118.6315,38.5448,1282.89,51.80,46.40,81.74,240.00,5.00,0.00,29.90,M,10.00,M,FEW,M,M,M,8000.00,M,M,M,M,M,M,M,M,M,M,51.80,KHTH 040235Z AUTO 24005KT 10SM FEW080 11/08 A2990 RMK A01,M
TMT,2025-05-04 02:35,-117.1971,39.4643,1749.34,43.70,41.00,90.13,210.00,9.00,0.00,29.96,M,10.00,M,OVC,M,M,M,3900.00,M,M,M,M,M,M,M,M,M,M,38.06,KTMT 040235Z AUTO 21009KT 10SM OVC039 07/05 A2996 RMK AO2 T00650049,M
10U,2025-05-04 02:35,-116.1876,41.9532,1637.00,51.80,46.40,81.74,340.00,6.00,0.00,29.92,M,10.00,M,M,M,M,M,M,M,M,M,VCTS,M,M,M,M,M,M,51.80,K10U 040235Z AUTO 34006KT 10SM VCTS 11/08 A2992 RMK AO2 LTG DSNT S,M
MEV,2025-05-04 02:45,-119.7500,38.9963,1441.42,53.60,32.00,43.61,340.00,8.00,0.00,29.90,M,10.00,15.00,BKN,BKN,OVC,M,5500.00,8000.00,8500.00,M,M,M,M,M,M,M,M,53.60,KMEV 040245Z AUTO 34008G15KT 10SM BKN055 BKN080 OVC085 12/00 A2990 RMK AO2,M
RTS,2025-05-04 02:45,-119.8764,39.6682,1539.00,51.80,35.60,53.81,270.00,12.00,0.00,29.91,M,10.00,17.00,SCT,SCT,M,M,4800.00,6000.00,M,M,M,M,M,M,M,M,M,51.80,KRTS 040245Z AUTO 27012G17KT 10SM SCT048 SCT060 11/02 A2991 RMK AO2,M
CXP,2025-05-04 02:50,-119.7326,39.1923,1431.00,53.60,35.60,50.36,290.00,9.00,0.00,29.91,M,10.00,M,FEW,SCT,SCT,M,5000.00,6000.00,7000.00,M,M,M,M,M,M,M,M,53.60,KCXP 040250Z AUTO 29009KT 10SM FEW050 SCT060 SCT070 12/02 A2991 RMK AO2,M
INS,2025-05-04 02:52,-115.6733,36.5872,955.00,66.20,41.00,39.72,240.00,10.00,0.00,29.76,1004.20,10.00,M,FEW,SCT,OVC,M,6000.00,8000.00,9500.00,M,M,M,M,M,M,M,M,66.20,KINS 040252Z AUTO 24010KT 10SM FEW060 SCT080 OVC095 19/05 A2976 RMK AO2 RAE0158DZB0158E03RAB12E37DZB37E52 SLP042 $,M
P68,2025-05-04 02:53,-116.0056,39.6014,1993.00,48.00,44.00,85.95,160.00,11.00,0.02,29.92,1008.20,M,23.00,M,M,M,M,M,M,M,M,M,M,M,M,30.00,190.00,2025-05-04 02:26,42.69,KP68 040253Z AUTO 16011G23KT 09/07 A2992 RMK AO1 PK WND 19030/0226 SLP082 P0002 60002 T00890067 53006 $,M
DRA,2025-05-04 02:53,-116.0278,36.6206,1009.00,64.00,47.00,53.92,300.00,8.00,0.00,29.79,1005.10,10.00,M,BKN,OVC,M,M,8000.00,10000.00,M,M,M,M,M,M,M,M,M,64.00,KDRA 040253Z AUTO 30008KT 10SM BKN080 OVC100 18/08 A2979 RMK AO2 SLP051 60000 T01780083 51013,M
ELY,2025-05-04 02:53,-114.8453,39.2950,1909.00,53.00,35.00,50.27,200.00,11.00,0.00,29.90,1006.20,10.00,19.00,BKN,M,M,M,10000.00,M,M,M,M,M,M,M,M,M,M,53.00,KELY 040253Z AUTO 20011G19KT 10SM BKN100 12/02 A2990 RMK AO2 SLP062 T01170017 55002 $,M
VGT,2025-05-04 02:53,-115.1933,36.2111,667.00,76.00,37.00,24.35,270.00,8.00,0.00,29.68,1004.90,10.00,M,CLR,M,M,M,M,M,M,M,M,M,M,M,M,M,M,76.00,KVGT 040253Z 27008KT 10SM CLR 24/03 A2968 RMK AO2 SLP049 60000 T02440028 56008,M
LOL,2025-05-04 02:53,-118.5701,40.0684,1192.43,53.00,44.00,71.39,180.00,9.00,0.00,29.87,1010.10,10.00,M,OVC,M,M,M,10000.00,M,M,M,M,M,M,M,M,M,M,53.00,KLOL 040253Z AUTO 18009KT 10SM OVC100 12/07 A2987 RMK AO2 SLP101 60000 T01170067 55002,M
INS,2025-05-04 02:55,-115.6733,36.5872,955.00,66.00,44.60,45.92,250.00,15.00,0.02,29.76,1004.00,10.00,M,FEW,OVC,M,M,7500.00,9500.00,M,M,M,M,M,M,M,M,M,66.00,KINS 040255Z AUTO 25015KT 10SM FEW075 OVC095 19/07 A2976 RMK AO2 RAB0155E0158DZB0158E03RAB12E37DZB37E52 SLP040 P0002 60002 T01890070 55002 $,M
LSV,2025-05-04 02:55,-115.0343,36.2362,570.00,77.70,34.70,21.01,270.00,6.00,0.00,29.64,1001.40,10.00,M,FEW,BKN,M,M,12000.00,18000.00,M,M,M,M,M,M,M,M,M,77.70,KLSV 040255Z 27006KT 10SM FEW120 BKN180 25/02 A2964 RMK AO2A SLP014 T02540015 55004 $,M
BVU,2025-05-04 02:55,-114.8611,35.9475,671.00,75.20,35.60,23.66,280.00,10.00,0.00,29.68,M,10.00,M,FEW,M,M,M,12000.00,M,M,M,M,M,M,M,M,M,M,75.20,KBVU 040255Z AUTO 28010KT 10SM FEW120 24/02 A2968 RMK AO2,M
RNO,2025-05-04 02:55,-119.7711,39.4839,1341.00,56.00,38.00,50.73,280.00,12.00,T,29.89,1008.90,10.00,19.00,OVC,M,M,M,5000.00,M,M,M,-RA,M,M,M,M,M,M,56.00,KRNO 040255Z 28012G19KT 10SM -RA OVC050 13/03 A2989 RMK AO2 RAB53 SLP089 P0000 60000 T01330033 51005 $,M
BAM,2025-05-04 02:55,-116.8743,40.5990,1382.36,53.60,50.00,87.56,340.00,10.00,0.00,29.89,M,10.00,M,OVC,M,M,M,5500.00,M,M,M,M,M,M,M,M,M,M,53.60,KBAM 040255Z AUTO 34010KT 10SM OVC055 12/10 A2989 RMK AO1,M
HTH,2025-05-04 02:55,-118.6315,38.5448,1282.89,51.80,46.40,81.74,250.00,5.00,0.00,29.90,M,10.00,M,SCT,M,M,M,10000.00,M,M,M,M,M,M,M,M,M,M,51.80,KHTH 040255Z AUTO 25005KT 10SM SCT100 11/08 A2990 RMK A01,M
TMT,2025-05-04 02:55,-117.1971,39.4643,1749.34,44.00,41.00,89.11,240.00,4.00,0.00,29.96,M,10.00,M,BKN,OVC,M,M,2100.00,4200.00,M,M,M,M,M,M,M,M,M,41.43,KTMT 040255Z AUTO 24004KT 10SM BKN021 OVC042 07/05 A2996 RMK AO2 T00660050,M
10U,2025-05-04 02:55,-116.1876,41.9532,1637.00,50.00,46.40,87.37,350.00,4.00,0.00,29.93,M,3.00,M,FEW,SCT,BKN,M,500.00,1500.00,2300.00,M,VCTS RA,M,M,M,M,M,M,50.00,K10U 040255Z AUTO 35004KT 3SM VCTS RA FEW005 SCT015 BKN023 10/08 A2993 RMK AO2 LTG DSNT ALQDS,M
EKO,2025-05-04 02:56,-115.7860,40.8242,1367.00,50.00,45.00,82.86,240.00,10.00,0.01,29.88,1009.70,10.00,M,SCT,OVC,M,M,6000.00,9000.00,M,M,M,M,M,M,M,M,M,50.00,KEKO 040256Z AUTO 24010KT 10SM SCT060 OVC090 10/07 A2988 RMK AO2 RAE13 SLP097 P0001 60003 T01000072 52008,M
WMC,2025-05-04 02:56,-117.8072,40.9019,1315.00,51.00,48.00,89.42,150.00,3.00,0.00,29.87,1009.30,10.00,M,SCT,OVC,M,M,8000.00,10000.00,M,M,M,M,M,M,M,M,M,51.00,KWMC 040256Z AUTO 15003KT 10SM SCT080 OVC100 11/09 A2987 RMK AO2 SLP093 60003 T01060089 55013,M
HND,2025-05-04 02:56,-115.1344,35.9729,742.79,73.00,38.00,28.00,250.00,8.00,0.00,29.72,1005.70,10.00,M,FEW,M,M,M,12000.00,M,M,M,M,M,M,M,M,M,M,73.00,KHND 040256Z 25008KT 10SM FEW120 23/03 A2972 RMK AO2 SLP057 60000 T02280033 58007 $,M
TPH,2025-05-04 02:56,-117.0904,38.0505,1654.00,51.00,40.00,65.87,310.00,18.00,0.00,29.86,1007.10,10.00,29.00,FEW,M,M,M,11000.00,M,M,M,M,M,M,M,31.00,290.00,2025-05-04 02:19,51.00,KTPH 040256Z AUTO 31018G29KT 10SM FEW110 11/04 A2986 RMK AO2 PK WND 29031/0219 SLP071 60000 T01060044 53009 $,M
LAS,2025-05-04 02:56,-115.1634,36.0719,663.00,74.00,39.00,28.16,240.00,5.00,0.00,29.70,1003.60,10.00,M,FEW,SCT,BKN,M,9000.00,14000.00,18000.00,M,M,M,M,M,M,M,M,74.00,KLAS 040256Z 24005KT 10SM FEW090 SCT140 BKN180 23/04 A2970 RMK AO2 SLP036 60000 T02330039 58007,M
NFL,2025-05-04 02:57,-118.7010,39.4166,1199.00,52.00,46.00,79.92,130.00,9.00,T,29.88,1009.30,10.00,M,SCT,BKN,OVC,M,6500.00,9500.00,11000.00,M,M,M,M,M,M,M,M,52.00,KNFL 040257Z AUTO 13009KT 10SM SCT065 BKN095 OVC110 11/08 A2988 RMK AO2 RAE04B28E34 SLP093 P0000 60001 T01110078 58003,M
BVU,2025-05-04 03:15,-114.8611,35.9475,671.00,75.20,33.80,22.02,290.00,8.00,0.00,29.67,M,10.00,13.00,FEW,M,M,M,12000.00,M,M,M,M,M,M,M,M,M,M,75.20,KBVU 040315Z AUTO 29008G13KT 10SM FEW120 24/01 A2967 RMK AO2,M
BAM,2025-05-04 03:15,-116.8743,40.5990,1382.36,53.60,48.20,81.87,70.00,4.00,0.00,29.88,M,10.00,M,SCT,BKN,M,M,5500.00,8500.00,M,M,M,M,M,M,M,M,M,53.60,KBAM 040315Z AUTO 07004KT 10SM SCT055 BKN085 12/09 A2988 RMK AO1,M
CXP,2025-05-04 03:15,-119.7326,39.1923,1431.00,53.60,35.60,50.36,310.00,4.00,0.00,29.91,M,10.00,M,BKN,BKN,OVC,M,5500.00,7000.00,10000.00,M,M,M,M,M,M,M,M,53.60,KCXP 040315Z AUTO 31004KT 10SM BKN055 BKN070 OVC100 12/02 A2991 RMK AO2,M
RTS,2025-05-04 03:15,-119.8764,39.6682,1539.00,51.80,35.60,53.81,270.00,8.00,0.00,29.92,M,10.00,M,BKN,OVC,M,M,5500.00,6500.00,M,M,M,M,M,M,M,M,M,51.80,KRTS 040315Z AUTO 27008KT 10SM BKN055 OVC065 11/02 A2992 RMK AO2,M
MEV,2025-05-04 03:15,-119.7500,38.9963,1441.42,53.60,33.80,46.88,270.00,6.00,0.00,29.90,M,10.00,M,SCT,OVC,M,M,6000.00,7500.00,M,M,M,M,M,M,M,M,M,53.60,KMEV 040315Z AUTO 27006KT 10SM SCT060 OVC075 12/01 A2990 RMK AO2,M
HTH,2025-05-04 03:15,-118.6315,38.5448,1282.89,51.80,46.40,81.74,190.00,4.00,0.00,29.91,M,10.00,M,FEW,OVC,M,M,8000.00,9500.00,M,M,M,M,M,M,M,M,M,51.80,KHTH 040315Z AUTO 19004KT 10SM FEW080 OVC095 11/08 A2991 RMK A01,M
TMT,2025-05-04 03:15,-117.1971,39.4643,1749.34,44.00,41.00,89.11,0.00,0.00,0.00,29.95,M,10.00,M,SCT,OVC,M,M,2100.00,2800.00,M,M,M,M,M,M,M,M,M,44.00,KTMT 040315Z AUTO 00000KT 10SM SCT021 OVC028 07/05 A2995 RMK AO2 T00670050,M
10U,2025-05-04 03:15,-116.1876,41.9532,1637.00,48.20,46.40,93.45,10.00,6.00,0.00,29.93,M,3.00,M,FEW,SCT,BKN,M,400.00,1200.00,2700.00,M,RA,M,M,M,M,M,M,45.04,K10U 040315Z AUTO 01006KT 3SM RA FEW004 SCT012 BKN027 09/08 A2993 RMK AO2 LTG DSNT NE AND S,M
BVU,2025-05-04 03:35,-114.8611,35.9475,671.00,77.00,32.00,19.30,250.00,9.00,0.00,29.67,M,10.00,M,BKN,M,M,M,11000.00,M,M,M,M,M,M,M,M,M,M,77.00,KBVU 040335Z AUTO 25009KT 10SM BKN110 25/00 A2967 RMK AO2,M
BAM,2025-05-04 03:35,-116.8743,40.5990,1382.36,51.80,48.20,87.47,30.00,6.00,0.00,29.89,M,10.00,M,SCT,M,M,M,8500.00,M,M,M,M,M,M,M,M,M,M,51.80,KBAM 040335Z AUTO 03006KT 10SM SCT085 11/09 A2989 RMK AO1,M
CXP,2025-05-04 03:35,-119.7326,39.1923,1431.00,53.60,35.60,50.36,350.00,6.00,0.00,29.91,M,10.00,M,OVC,M,M,M,5000.00,M,M,M,M,M,M,M,M,M,M,53.60,KCXP 040335Z AUTO 35006KT 10SM OVC050 12/02 A2991 RMK AO2,M
RTS,2025-05-04 03:35,-119.8764,39.6682,1539.00,51.80,35.60,53.81,280.00,6.00,0.00,29.92,M,10.00,M,SCT,OVC,M,M,5500.00,6500.00,M,M,M,M,M,M,M,M,M,51.80,KRTS 040335Z AUTO 28006KT 10SM SCT055 OVC065 11/02 A2992 RMK AO2,M
MEV,2025-05-04 03:35,-119.7500,38.9963,1441.42,53.60,33.80,46.88,280.00,3.00,0.00,29.90,M,10.00,M,SCT,SCT,OVC,M,4800.00,6500.00,7500.00,M,M,M,M,M,M,M,M,53.60,KMEV 040335Z AUTO 28003KT 10SM SCT048 SCT065 OVC075 12/01 A2990 RMK AO2,M
HTH,2025-05-04 03:35,-118.6315,38.5448,1282.89,51.80,46.40,81.74,160.00,5.00,0.00,29.91,M,10.00,M,BKN,OVC,M,M,7500.00,9000.00,M,M,M,M,M,M,M,M,M,51.80,KHTH 040335Z AUTO 16005KT 10SM BKN075 OVC090 11/08 A2991 RMK A01,M
TMT,2025-05-04 03:35,-117.1971,39.4643,1749.34,44.60,41.00,87.09,0.00,0.00,0.00,29.96,M,10.00,M,OVC,M,M,M,3000.00,M,M,M,M,M,M,M,M,M,M,44.60,KTMT 040335Z AUTO 00000KT 10SM OVC030 07/05 A2996 RMK AO2 T00700051,M
10U,2025-05-04 03:35,-116.1876,41.9532,1637.00,48.20,46.40,93.45,10.00,4.00,0.00,29.93,M,8.00,M,FEW,SCT,BKN,M,1000.00,2400.00,3300.00,M,-RA,M,M,M,M,M,M,46.34,K10U 040335Z AUTO 01004KT 8SM -RA FEW010 SCT024 BKN033 09/08 A2993 RMK AO2,M
MEV,2025-05-04 03:45,-119.7500,38.9963,1441.42,53.60,33.80,46.88,0.00,0.00,0.00,29.90,M,10.00,M,FEW,BKN,OVC,M,4200.00,6000.00,7500.00,M,M,M,M,M,M,M,M,53.60,KMEV 040345Z AUTO 00000KT 10SM FEW042 BKN060 OVC075 12/01 A2990 RMK AO2,M
RTS,2025-05-04 03:45,-119.8764,39.6682,1539.00,51.80,37.40,57.77,290.00,5.00,0.00,29.92,M,10.00,M,BKN,OVC,M,M,5500.00,6500.00,M,M,M,M,M,M,M,M,M,51.80,KRTS 040345Z AUTO 29005KT 10SM BKN055 OVC065 11/03 A2992 RMK AO2,M
10U,2025-05-04 03:50,-116.1876,41.9532,1637.00,48.20,46.40,93.45,M,3.00,0.00,29.93,M,10.00,M,FEW,BKN,OVC,M,1000.00,3400.00,4200.00,M,-RA,M,M,M,M,M,M,47.21,K10U 040350Z AUTO VRB03KT 10SM -RA FEW010 BKN034 OVC042 09/08 A2993 RMK AO2,M
CXP,2025-05-04 03:50,-119.7326,39.1923,1431.00,53.60,37.40,54.07,360.00,5.00,0.00,29.92,M,10.00,M,BKN,OVC,M,M,4400.00,5000.00,M,M,-RA,M,M,M,M,M,M,53.60,KCXP 040350Z AUTO 36005KT 10SM -RA BKN044 OVC050 12/03 A2992 RMK AO2,M
P68,2025-05-04 03:53,-116.0056,39.6014,1993.00,48.00,44.00,85.95,50.00,5.00,0.02,29.88,1005.50,M,M,M,M,M,M,M,M,M,M,M,M,M,M,M,M,M,45.40,KP68 040353Z AUTO 05005KT 09/07 A2988 RMK AO1 SLP055 P0002 T00890067 $,M
DRA,2025-05-04 03:53,-116.0278,36.6206,1009.00,63.00,47.00,55.85,30.00,12.00,0.00,29.76,1003.90,10.00,M,CLR,M,M,M,M,M,M,M,M,M,M,M,M,M,M,63.00,KDRA 040353Z AUTO 03012KT 10SM CLR 17/08 A2976 RMK AO2 SLP039 T01720083,M
ELY,2025-05-04 03:53,-114.8453,39.2950,1909.00,52.00,35.00,52.15,110.00,5.00,0.00,29.91,1005.00,10.00,M,BKN,M,M,M,10000.00,M,M,M,M,M,M,M,M,M,M,52.00,KELY 040353Z AUTO 11005KT 10SM BKN100 11/02 A2991 RMK AO2 SLP050 T01110017 $,M
VGT,2025-05-04 03:53,-115.1933,36.2111,667.00,75.00,37.00,25.17,250.00,5.00,0.00,29.70,1005.20,10.00,M,CLR,M,M,M,M,M,M,M,M,M,M,M,M,M,M,75.00,KVGT 040353Z 25005KT 10SM CLR 24/03 A2970 RMK AO2 SLP052 T02390028,M
LOL,2025-05-04 03:53,-118.5701,40.0684,1192.43,52.00,45.00,76.94,0.00,0.00,0.00,29.88,1010.40,10.00,M,SCT,OVC,M,M,8000.00,9000.00,M,M,M,M,M,M,M,M,M,52.00,KLOL 040353Z AUTO 00000KT 10SM SCT080 OVC090 11/07 A2988 RMK AO2 SLP104 T01110072,M
INS,2025-05-04 03:55,-115.6733,36.5872,955.00,63.70,46.80,54.08,310.00,4.00,0.00,29.76,1004.00,10.00,M,BKN,OVC,M,M,13000.00,18000.00,M,M,M,M,M,M,M,M,M,63.70,KINS 040355Z AUTO 31004KT 10SM BKN130 OVC180 18/08 A2976 RMK AO2 SLP040 T01760082 $,M
LSV,2025-05-04 03:55,-115.0343,36.2362,570.00,76.50,36.00,23.02,280.00,7.00,0.00,29.64,1001.30,10.00,M,FEW,SCT,M,M,13000.00,16000.00,M,M,M,M,M,M,M,M,M,76.50,KLSV 040355Z AUTO 28007KT 10SM FEW130 SCT160 25/02 A2964 RMK AO2 SLP013 T02470022 $,M
BVU,2025-05-04 03:55,-114.8611,35.9475,671.00,75.20,32.00,20.49,230.00,8.00,0.00,29.67,M,10.00,M,SCT,M,M,M,12000.00,M,M,M,M,M,M,M,M,M,M,75.20,KBVU 040355Z AUTO 23008KT 10SM SCT120 24/M00 A2967 RMK AO2,M
RNO,2025-05-04 03:55,-119.7711,39.4839,1341.00,54.00,38.00,54.56,310.00,7.00,T,29.89,1009.20,10.00,M,BKN,M,M,M,5000.00,M,M,M,M,M,M,M,28.00,280.00,2025-05-04 03:01,54.00,KRNO 040355Z 31007KT 10SM BKN050 12/03 A2989 RMK AO2 PK WND 28028/0301 RAE02 SLP092 P0000 T01220033 $,M
BAM,2025-05-04 03:55,-116.8743,40.5990,1382.36,51.80,46.40,81.74,10.00,4.00,0.00,29.89,M,10.00,M,BKN,M,M,M,8500.00,M,M,M,M,M,M,M,M,M,M,51.80,KBAM 040355Z AUTO 01004KT 10SM BKN085 11/08 A2989 RMK AO1,M
TMT,2025-05-04 03:55,-117.1971,39.4643,1749.34,44.00,41.00,89.11,0.00,0.00,0.00,29.96,M,10.00,M,SCT,OVC,M,M,2300.00,3000.00,M,M,-RA,M,M,M,M,M,M,44.00,KTMT 040355Z AUTO 00000KT 10SM -RA SCT023 OVC030 07/05 A2996 RMK AO2 T00670050,M
HTH,2025-05-04 03:55,-118.6315,38.5448,1282.89,51.80,46.40,81.74,150.00,4.00,0.00,29.92,M,10.00,M,BKN,OVC,M,M,6000.00,7000.00,M,M,M,M,M,M,M,M,M,51.80,KHTH 040355Z AUTO 15004KT 10SM BKN060 OVC070 11/08 A2992 RMK A01,M
EKO,2025-05-04 03:56,-115.7860,40.8242,1367.00,49.00,45.00,86.00,180.00,4.00,0.00,29.89,1009.50,10.00,M,BKN,BKN,M,M,10000.00,11000.00,M,M,M,M,M,M,M,M,M,47.27,KEKO 040356Z AUTO 18004KT 10SM BKN100 BKN110 09/07 A2989 RMK AO2 SLP095 T00940072,M
WMC,2025-05-04 03:56,-117.8072,40.9019,1315.00,50.00,48.00,92.80,150.00,10.00,0.02,29.88,1009.00,10.00,M,OVC,M,M,M,6000.00,M,M,M,-RA,M,M,M,M,M,M,50.00,KWMC 040356Z AUTO 15010KT 10SM -RA OVC060 10/09 A2988 RMK AO2 RAB12 SLP090 P0002 T01000089,M
HND,2025-05-04 03:56,-115.1344,35.9729,742.79,73.00,37.00,26.92,220.00,12.00,0.00,29.73,1005.90,10.00,M,SCT,M,M,M,11000.00,M,M,M,M,M,M,M,M,M,M,73.00,KHND 040356Z AUTO 22012KT 10SM SCT110 23/03 A2973 RMK AO2 SLP059 T02280028 $,M
TPH,2025-05-04 03:56,-117.0904,38.0505,1654.00,49.00,39.00,68.25,310.00,21.00,0.00,29.86,1007.10,10.00,31.00,SCT,M,M,M,9000.00,M,M,M,M,M,M,M,35.00,310.00,2025-05-04 03:08,41.53,KTPH 040356Z AUTO 31021G31KT 10SM SCT090 09/04 A2986 RMK AO2 PK WND 31035/0308 SLP071 T00940039 $,M
LAS,2025-05-04 03:56,-115.1634,36.0719,663.00,74.00,40.00,29.28,210.00,3.00,0.00,29.71,1004.00,10.00,M,FEW,FEW,BKN,M,6000.00,9000.00,14000.00,M,M,M,M,M,M,M,M,74.00,KLAS 040356Z 21003KT 10SM FEW060 FEW090 BKN140 23/04 A2971 RMK AO2 SLP040 T02330044,M
NFL,2025-05-04 03:57,-118.7010,39.4166,1199.00,52.00,46.00,79.92,120.00,9.00,0.00,29.87,1009.10,10.00,M,BKN,OVC,M,M,10000.00,12000.00,M,M,M,M,M,M,M,M,M,52.00,KNFL 040357Z AUTO 12009KT 10SM BKN100 OVC120 11/08 A2987 RMK AO2 SLP091 T01110078,M
RTS,2025-05-04 04:05,-119.8764,39.6682,1539.00,51.80,37.40,57.77,290.00,7.00,0.00,29.93,M,10.00,M,BKN,OVC,M,M,5000.00,5500.00,M,M,M,M,M,M,M,M,M,51.80,KRTS 040405Z AUTO 29007KT 10SM BKN050 OVC055 11/03 A2993 RMK AO2,M
MEV,2025-05-04 04:05,-119.7500,38.9963,1441.42,51.80,35.60,53.81,0.00,0.00,0.00,29.91,M,10.00,M,BKN,OVC,M,M,4500.00,6000.00,M,M,M,M,M,M,M,M,M,51.80,KMEV 040405Z AUTO 00000KT 10SM BKN045 OVC060 11/02 A2991 RMK AO2,M
BVU,2025-05-04 04:15,-114.8611,35.9475,671.00,75.20,33.80,22.02,250.00,7.00,0.00,29.67,M,10.00,M,CLR,M,M,M,M,M,M,M,M,M,M,M,M,M,M,75.20,KBVU 040415Z AUTO 25007KT 10SM CLR 24/01 A2967 RMK AO2,M
BAM,2025-05-04 04:15,-116.8743,40.5990,1382.36,51.80,48.20,87.47,260.00,7.00,0.00,29.91,M,10.00,M,SCT,BKN,OVC,M,2300.00,4300.00,8500.00,M,M,M,M,M,M,M,M,51.80,KBAM 040415Z AUTO 26007KT 10SM SCT023 BKN043 OVC085 11/09 A2991 RMK AO1,M
CXP,2025-05-04 04:15,-119.7326,39.1923,1431.00,51.80,41.00,66.48,230.00,3.00,0.00,29.92,M,9.00,M,BKN,OVC,M,M,4200.00,5000.00,M,M,-RA,M,M,M,M,M,M,51.80,KCXP 040415Z AUTO 23003KT 9SM -RA BKN042 OVC050 11/05 A2992 RMK AO2,M
HTH,2025-05-04 04:15,-118.6315,38.5448,1282.89,51.80,48.20,87.47,150.00,4.00,0.00,29.92,M,10.00,M,BKN,OVC,M,M,5000.00,6000.00,M,M,M,M,M,M,M,M,M,51.80,KHTH 040415Z AUTO 15004KT 10SM BKN050 OVC060 11/09 A2992 RMK A01,M
TMT,2025-05-04 04:15,-117.1971,39.4643,1749.34,44.00,40.60,87.73,300.00,4.00,0.00,29.97,M,10.00,M,OVC,M,M,M,3000.00,M,M,M,-RA,M,M,M,M,M,M,41.43,KTMT 040415Z AUTO 30004KT 10SM -RA OVC030 07/05 A2997 RMK AO2 T00660048,M
10U,2025-05-04 04:15,-116.1876,41.9532,1637.00,48.20,46.40,93.45,40.00,4.00,0.00,29.92,M,9.00,M,SCT,BKN,BKN,M,2900.00,3600.00,4700.00,M,-RA,M,M,M,M,M,M,46.34,K10U 040415Z AUTO 04004KT 9SM -RA SCT029 BKN036 BKN047 09/08 A2992 RMK AO2,M
VGT,2025-05-04 04:23,-115.1933,36.2111,667.00,73.00,40.00,30.28,330.00,13.00,0.00,29.69,M,10.00,19.00,FEW,M,M,M,11000.00,M,M,M,M,M,M,M,M,M,M,73.00,KVGT 040423Z AUTO 33013G19KT 10SM FEW110 23/04 A2969 RMK AO2 WSHFT 0403 T02280044,M
RTS,2025-05-04 04:25,-119.8764,39.6682,1539.00,51.80,35.60,53.81,300.00,5.00,0.00,29.93,M,10.00,M,SCT,BKN,OVC,M,4500.00,5500.00,6500.00,M,M,M,M,M,M,M,M,51.80,KRTS 040425Z AUTO 30005KT 10SM SCT045 BKN055 OVC065 11/02 A2993 RMK AO2,M
MEV,2025-05-04 04:25,-119.7500,38.9963,1441.42,51.80,35.60,53.81,290.00,4.00,0.00,29.91,M,10.00,M,OVC,M,M,M,4500.00,M,M,M,-RA,M,M,M,M,M,M,51.80,KMEV 040425Z AUTO 29004KT 10SM -RA OVC045 11/02 A2991 RMK AO2,M
BVU,2025-05-04 04:35,-114.8611,35.9475,671.00,75.20,32.00,20.49,290.00,10.00,0.00,29.67,M,10.00,M,CLR,M,M,M,M,M,M,M,M,M,M,M,M,M,M,75.20,KBVU 040435Z AUTO 29010KT 10SM CLR 24/M00 A2967 RMK AO2,M
CXP,2025-05-04 04:35,-119.7326,39.1923,1431.00,51.80,41.00,66.48,0.00,0.00,0.00,29.93,M,8.00,M,FEW,OVC,M,M,4200.00,5000.00,M,M,-RA,M,M,M,M,M,M,51.80,KCXP 040435Z AUTO 00000KT 8SM -RA FEW042 OVC050 11/05 A2993 RMK AO2,M
BAM,2025-05-04 04:35,-116.8743,40.5990,1382.36,51.80,50.00,93.55,250.00,5.00,0.00,29.92,M,7.00,M,SCT,BKN,OVC,M,2300.00,4900.00,6000.00,M,M,M,M,M,M,M,M,51.80,KBAM 040435Z AUTO 25005KT 7SM SCT023 BKN049 OVC060 11/10 A2992 RMK AO1,M
HTH,2025-05-04 04:35,-118.6315,38.5448,1282.89,51.80,46.40,81.74,0.00,0.00,0.00,29.92,M,7.00,M,FEW,OVC,M,M,3600.00,4600.00,M,M,M,M,M,M,M,M,M,51.80,KHTH 040435Z AUTO 00000KT 7SM FEW036 OVC046 11/08 A2992 RMK A01,M
TMT,2025-05-04 04:35,-117.1971,39.4643,1749.34,43.00,42.00,96.23,0.00,0.00,0.00,29.96,M,10.00,M,SCT,BKN,OVC,M,1900.00,3000.00,3800.00,M,-RA,M,M,M,M,M,M,43.00,KTMT 040435Z AUTO 00000KT 10SM -RA SCT019 BKN030 OVC038 06/06 A2996 RMK AO2 T00620056,M
10U,2025-05-04 04:35,-116.1876,41.9532,1637.00,48.20,44.60,87.28,170.00,5.00,0.00,29.93,M,9.00,M,M,M,M,M,M,M,M,M,-RA,M,M,M,M,M,M,45.63,K10U 040435Z AUTO 17005KT 9SM -RA 09/07 A2993 RMK AO2,M
P68,2025-05-04 04:53,-116.0056,39.6014,1993.00,46.00,44.00,92.68,10.00,3.00,0.00,29.89,1005.80,M,M,M,M,M,M,M,M,M,M,M,M,M,M,M,M,M,44.69,KP68 040453Z AUTO 01003KT 08/07 A2989 RMK AO1 SLP058 T00780067 $,M
DRA,2025-05-04 04:53,-116.0278,36.6206,1009.00,63.00,44.00,49.84,40.00,14.00,0.00,29.75,1003.00,10.00,19.00,CLR,M,M,M,M,M,M,M,M,M,M,M,M,M,M,63.00,KDRA 040453Z AUTO 04014G19KT 10SM CLR 17/07 A2975 RMK AO2 SLP030 T01720067,M
ELY,2025-05-04 04:53,-114.8453,39.2950,1909.00,50.00,37.00,60.79,200.00,9.00,0.00,29.91,1004.50,10.00,M,FEW,BKN,OVC,M,7000.00,9000.00,11000.00,M,M,M,M,M,M,M,M,50.00,KELY 040453Z AUTO 20009KT 10SM FEW070 BKN090 OVC110 10/03 A2991 RMK AO2 SLP045 T01000028 $,M
VGT,2025-05-04 04:53,-115.1933,36.2111,667.00,73.00,39.00,29.12,310.00,16.00,0.00,29.68,1004.50,10.00,23.00,CLR,M,M,M,M,M,M,M,M,M,M,M,M,M,M,73.00,KVGT 040453Z AUTO 31016G23KT 10SM CLR 23/04 A2968 RMK AO2 WSHFT 0403 SLP045 T02280039,M
LOL,2025-05-04 04:53,-118.5701,40.0684,1192.43,52.00,44.00,74.07,280.00,4.00,0.00,29.88,1010.00,10.00,M,OVC,M,M,M,6500.00,M,M,M,M,M,M,M,M,M,M,52.00,KLOL 040453Z AUTO 28004KT 10SM OVC065 11/07 A2988 RMK AO2 SLP100 T01110067,M
INS,2025-05-04 04:55,-115.6733,36.5872,955.00,61.70,47.30,59.13,340.00,4.00,0.00,29.76,1003.80,10.00,M,BKN,M,M,M,11000.00,M,M,M,M,M,M,M,M,M,M,61.70,KINS 040455Z AUTO 34004KT 10SM BKN110 17/09 A2976 RMK AO2 SLP038 T01650085 $,M
LSV,2025-05-04 04:55,-115.0343,36.2362,570.00,75.20,38.00,26.01,280.00,8.00,0.00,29.63,1001.00,10.00,M,BKN,M,M,M,15000.00,M,M,M,M,M,M,M,M,M,M,75.20,KLSV 040455Z COR AUTO 28008KT 10SM BKN150 24/03 A2963 RMK AO2 SLP010 T02400033 $ COR 0516,M
BVU,2025-05-04 04:55,-114.8611,35.9475,671.00,75.20,32.00,20.49,280.00,6.00,0.00,29.68,M,10.00,12.00,FEW,M,M,M,12000.00,M,M,M,M,M,M,M,M,M,M,75.20,KBVU 040455Z AUTO 28006G12KT 10SM FEW120 24/00 A2968 RMK AO2,M
CXP,2025-05-04 04:55,-119.7326,39.1923,1431.00,51.80,41.00,66.48,0.00,0.00,0.00,29.93,M,8.00,M,BKN,BKN,OVC,M,4200.00,5000.00,5500.00,M,-RA,M,M,M,M,M,M,51.80,KCXP 040455Z AUTO 00000KT 8SM -RA BKN042 BKN050 OVC055 11/05 A2993 RMK AO2,M
RNO,2025-05-04 04:55,-119.7711,39.4839,1341.00,55.00,37.00,50.58,280.00,8.00,0.00,29.90,1009.00,10.00,M,BKN,M,M,M,4000.00,M,M,M,M,M,M,M,M,M,M,55.00,KRNO 040455Z 28008KT 10SM BKN040 13/03 A2990 RMK AO2 SLP090 T01280028 $,M
RTS,2025-05-04 04:55,-119.8764,39.6682,1539.00,50.00,37.40,61.76,360.00,11.00,0.00,29.93,M,10.00,M,BKN,OVC,M,M,3700.00,4600.00,M,M,M,M,M,M,M,M,M,50.00,KRTS 040455Z AUTO 36011KT 10SM BKN037 OVC046 10/03 A2993 RMK AO2,M
MEV,2025-05-04 04:55,-119.7500,38.9963,1441.42,50.00,37.40,61.76,330.00,9.00,0.00,29.91,M,10.00,M,BKN,OVC,M,M,4400.00,5500.00,M,M,M,M,M,M,M,M,M,50.00,KMEV 040455Z AUTO 33009KT 10SM BKN044 OVC055 10/03 A2991 RMK AO2,M
BAM,2025-05-04 04:55,-116.8743,40.5990,1382.36,51.80,48.20,87.47,250.00,7.00,0.00,29.92,M,10.00,M,SCT,BKN,OVC,M,1500.00,4800.00,6000.00,M,M,M,M,M,M,M,M,51.80,KBAM 040455Z AUTO 25007KT 10SM SCT015 BKN048 OVC060 11/09 A2992 RMK AO1,M
HTH,2025-05-04 04:55,-118.6315,38.5448,1282.89,51.80,46.40,81.74,0.00,0.00,0.00,29.92,M,10.00,M,SCT,BKN,OVC,M,3300.00,4400.00,5000.00,M,M,M,M,M,M,M,M,51.80,KHTH 040455Z AUTO 00000KT 10SM SCT033 BKN044 OVC050 11/08 A2992 RMK A01,M
TMT,2025-05-04 04:55,-117.1971,39.4643,1749.34,43.00,41.50,94.39,360.00,7.00,0.00,29.94,M,7.00,M,SCT,OVC,M,M,3000.00,4000.00,M,M,-RA,M,M,M,M,M,M,38.19,KTMT 040455Z AUTO 36007KT 7SM -RA SCT030 OVC040 06/05 A2994 RMK AO2 T00610053,M
10U,2025-05-04 04:55,-116.1876,41.9532,1637.00,48.20,46.40,93.45,190.00,5.00,0.00,29.94,M,7.00,M,SCT,BKN,OVC,M,1500.00,3500.00,4600.00,M,-RA,M,M,M,M,M,M,45.63,K10U 040455Z AUTO 19005KT 7SM -RA SCT015 BKN035 OVC046 09/08 A2994 RMK AO2,M
EKO,2025-05-04 04:56,-115.7860,40.8242,1367.00,49.00,47.00,92.77,260.00,9.00,T,29.87,1008.50,10.00,M,FEW,BKN,OVC,M,5500.00,7500.00,10000.00,M,-RA,M,M,M,M,M,M,44.65,KEKO 040456Z AUTO 26009KT 10SM -RA FEW055 BKN075 OVC100 09/08 A2987 RMK AO2 RAB49 SLP085 P0000 T00940083,M
WMC,2025-05-04 04:56,-117.8072,40.9019,1315.00,49.00,48.00,96.32,190.00,10.00,0.03,29.90,1009.90,10.00,M,OVC,M,M,M,5000.00,M,M,M,-RA,M,M,M,M,M,M,44.29,KWMC 040456Z AUTO 19010KT 10SM -RA OVC050 09/09 A2990 RMK AO2 SLP099 P0003 T00940089,M
HND,2025-05-04 04:56,-115.1344,35.9729,742.79,72.00,38.00,28.96,240.00,6.00,0.00,29.72,1005.50,10.00,M,CLR,M,M,M,M,M,M,M,M,M,M,M,M,M,M,72.00,KHND 040456Z AUTO 24006KT 10SM CLR 22/03 A2972 RMK AO2 SLP055 T02220033 $,M
TPH,2025-05-04 04:56,-117.0904,38.0505,1654.00,50.00,38.00,63.23,10.00,8.00,T,29.89,1007.30,10.00,23.00,BKN,BKN,OVC,M,5500.00,7000.00,9000.00,M,M,M,M,M,35.00,320.00,2025-05-04 04:22,50.00,KTPH 040456Z AUTO 01008G23KT 10SM BKN055 BKN070 OVC090 10/03 A2989 RMK AO2 PK WND 32035/0422 LTG DSNT S RAB32E43 SLP073 P0000 T01000033 $,M
LAS,2025-05-04 04:56,-115.1634,36.0719,663.00,74.00,36.00,25.02,270.00,6.00,0.00,29.70,1003.40,10.00,M,FEW,FEW,BKN,M,6000.00,9000.00,14000.00,M,M,M,M,M,M,M,M,74.00,KLAS 040456Z 27006KT 10SM FEW060 FEW090 BKN140 23/02 A2970 RMK AO2 SLP034 T02330022,M
NFL,2025-05-04 04:57,-118.7010,39.4166,1199.00,51.00,46.00,82.93,160.00,8.00,0.00,29.88,1009.40,10.00,M,BKN,OVC,M,M,6500.00,11000.00,M,M,M,M,M,M,M,M,M,51.00,KNFL 040457Z AUTO 16008KT 10SM BKN065 OVC110 11/08 A2988 RMK AO2 SLP094 T01060078,M
RTS,2025-05-04 05:05,-119.8764,39.6682,1539.00,50.00,37.40,61.76,350.00,11.00,0.00,29.93,M,10.00,M,OVC,M,M,M,3600.00,M,M,M,M,M,M,M,M,M,M,50.00,KRTS 040505Z AUTO 35011KT 10SM OVC036 10/03 A2993 RMK AO2,M
MEV,2025-05-04 05:05,-119.7500,38.9963,1441.42,50.00,39.20,66.27,330.00,10.00,0.00,29.92,M,10.00,M,SCT,OVC,M,M,4300.00,5500.00,M,M,M,M,M,M,M,M,M,50.00,KMEV 040505Z AUTO 33010KT 10SM SCT043 OVC055 10/04 A2992 RMK AO2,M
BVU,2025-05-04 05:15,-114.8611,35.9475,671.00,73.40,32.00,21.76,270.00,6.00,0.00,29.68,M,10.00,M,FEW,M,M,M,12000.00,M,M,M,M,M,M,M,M,M,M,73.40,KBVU 040515Z AUTO 27006KT 10SM FEW120 23/00 A2968 RMK AO2,M
BAM,2025-05-04 05:15,-116.8743,40.5990,1382.36,50.00,48.20,93.50,250.00,7.00,0.00,29.92,M,10.00,M,SCT,SCT,OVC,M,1500.00,2300.00,6000.00,M,M,M,M,M,M,M,M,50.00,KBAM 040515Z AUTO 25007KT 10SM SCT015 SCT023 OVC060 10/09 A2992 RMK AO1,M
CXP,2025-05-04 05:15,-119.7326,39.1923,1431.00,50.00,42.80,76.18,0.00,0.00,0.00,29.93,M,10.00,M,SCT,SCT,OVC,M,4200.00,5000.00,6000.00,M,-RA,M,M,M,M,M,M,50.00,KCXP 040515Z AUTO 00000KT 10SM -RA SCT042 SCT050 OVC060 10/06 A2993 RMK AO2,M
HTH,2025-05-04 05:15,-118.6315,38.5448,1282.89,51.80,44.60,76.34,0.00,0.00,0.00,29.91,M,10.00,M,FEW,SCT,BKN,M,3300.00,5500.00,7000.00,M,M,M,M,M,M,M,M,51.80,KHTH 040515Z AUTO 00000KT 10SM FEW033 SCT055 BKN070 11/07 A2991 RMK A01,M
TMT,2025-05-04 05:15,-117.1971,39.4643,1749.34,M,M,M,90.00,4.00,0.00,29.94,M,M,M,M,M,M,M,M,M,M,M,M,M,M,M,M,M,M,M,KTMT 040515Z AUTO 09004KT A2994 RMK AO2 PWINO,M
10U,2025-05-04 05:15,-116.1876,41.9532,1637.00,46.40,44.60,93.40,0.00,0.00,0.00,29.90,M,6.00,M,FEW,SCT,BKN,M,1500.00,3300.00,4400.00,M,-RA,M,M,M,M,M,M,46.40,K10U 040515Z AUTO 00000KT 6SM -RA FEW015 SCT033 BKN044 08/07 A2990 RMK AO2,M
RTS,2025-05-04 05:25,-119.8764,39.6682,1539.00,50.00,37.40,61.76,310.00,8.00,0.00,29.94,M,10.00,M,M,M,M,M,M,M,M,M,-DZ,M,M,M,M,M,M,50.00,KRTS 040525Z AUTO 31008KT 10SM -DZ 10/03 A2994 RMK AO2,M
MEV,2025-05-04 05:25,-119.7500,38.9963,1441.42,50.00,39.20,66.27,330.00,9.00,0.00,29.91,M,10.00,M,BKN,OVC,M,M,5000.00,5500.00,M,M,M,M,M,M,M,M,M,50.00,KMEV 040525Z AUTO 33009KT 10SM BKN050 OVC055 10/04 A2991 RMK AO2,M
BVU,2025-05-04 05:35,-114.8611,35.9475,671.00,73.40,33.80,23.39,0.00,0.00,0.00,29.68,M,10.00,M,SCT,M,M,M,11000.00,M,M,M,M,M,M,M,M,M,M,73.40,KBVU 040535Z AUTO 00000KT 10SM SCT110 23/01 A2968 RMK AO2,M
BAM,2025-05-04 05:35,-116.8743,40.5990,1382.36,50.00,46.40,87.37,240.00,9.00,0.00,29.91,M,10.00,M,BKN,OVC,M,M,5000.00,6000.00,M,M,M,M,M,M,M,M,M,50.00,KBAM 040535Z AUTO 24009KT 10SM BKN050 OVC060 10/08 A2991 RMK AO1,M
CXP,2025-05-04 05:35,-119.7326,39.1923,1431.00,50.00,42.80,76.18,0.00,0.00,0.00,29.93,M,10.00,M,BKN,OVC,M,M,4400.00,6000.00,M,M,M,M,M,M,M,M,M,50.00,KCXP 040535Z AUTO 00000KT 10SM BKN044 OVC060 10/06 A2993 RMK AO2,M
HTH,2025-05-04 05:35,-118.6315,38.5448,1282.89,51.80,48.20,87.47,0.00,0.00,0.00,29.91,M,10.00,M,FEW,OVC,M,M,6000.00,9000.00,M,M,M,M,M,M,M,M,M,51.80,KHTH 040535Z AUTO 00000KT 10SM FEW060 OVC090 11/09 A2991 RMK A01,M
TMT,2025-05-04 05:35,-117.1971,39.4643,1749.34,41.40,40.60,96.95,140.00,3.00,0.00,29.93,M,10.00,M,SCT,SCT,SCT,M,4000.00,8500.00,12000.00,M,M,M,M,M,M,M,M,39.43,KTMT 040535Z AUTO 14003KT 10SM SCT040 SCT085 SCT120 05/05 A2993 RMK AO2 T00520048,M
10U,2025-05-04 05:35,-116.1876,41.9532,1637.00,46.40,44.60,93.40,70.00,3.00,0.00,29.90,M,10.00,M,FEW,SCT,BKN,M,1000.00,3300.00,8000.00,M,M,M,M,M,M,M,M,45.15,K10U 040535Z AUTO 07003KT 10SM FEW010 SCT033 BKN080 08/07 A2990 RMK AO2,M
P68,2025-05-04 05:53,-116.0056,39.6014,1993.00,44.00,43.00,96.24,60.00,4.00,0.00,29.89,1006.10,M,M,M,M,M,M,M,M,M,M,M,M,M,M,M,M,M,41.43,KP68 040553Z AUTO 06004KT 07/06 A2989 RMK AO1 SLP061 60004 T00670061 10128 20067 55009 $,M
DRA,2025-05-04 05:53,-116.0278,36.6206,1009.00,65.00,41.00,41.41,100.00,4.00,0.00,29.75,1003.00,10.00,15.00,BKN,M,M,M,11000.00,M,M,M,M,M,M,M,M,M,M,65.00,KDRA 040553Z AUTO 10004G15KT 10SM BKN110 18/05 A2975 RMK AO2 SLP030 60000 T01830050 10222 20167 55012,M
ELY,2025-05-04 05:53,-114.8453,39.2950,1909.00,50.00,37.00,60.79,200.00,10.00,T,29.90,1003.90,10.00,M,BKN,M,M,M,10000.00,M,M,M,M,M,M,M,M,M,M,50.00,KELY 040553Z AUTO 20010KT 10SM BKN100 10/03 A2990 RMK AO2 RAB00E10 SLP039 P0000 60000 T01000028 10161 20089 50000 $,M
VGT,2025-05-04 05:53,-115.1933,36.2111,667.00,73.00,39.00,29.12,310.00,13.00,0.00,29.67,1004.10,10.00,M,CLR,M,M,M,M,M,M,M,M,M,M,M,M,M,M,73.00,KVGT 040553Z AUTO 31013KT 10SM CLR 23/04 A2967 RMK AO2 SLP041 60000 T02280039 10272 20228 58004,M
LOL,2025-05-04 05:53,-118.5701,40.0684,1192.43,49.00,42.00,76.67,240.00,4.00,0.00,29.87,1009.80,10.00,M,FEW,FEW,M,M,5500.00,11000.00,M,M,M,M,M,M,M,M,M,47.27,KLOL 040553Z AUTO 24004KT 10SM FEW055 FEW110 09/06 A2987 RMK AO2 SLP098 60000 T00940056 10139 20094 50000,M
INS,2025-05-04 05:55,-115.6733,36.5872,955.00,63.00,46.00,53.78,200.00,4.00,0.00,29.75,1003.20,10.00,M,BKN,BKN,M,M,9000.00,11000.00,M,M,M,M,M,M,M,M,M,63.00,KINS 040555Z AUTO 20004KT 10SM BKN090 BKN110 17/08 A2975 RMK AO2 SLP032 60002 T01720078 10220 20159 56005 $,M
LSV,2025-05-04 05:55,-115.0343,36.2362,570.00,74.00,38.00,27.08,260.00,5.00,0.00,29.63,1001.00,10.00,M,SCT,M,M,M,14000.00,M,M,M,M,M,M,M,M,M,M,74.00,KLSV 040555Z AUTO 26005KT 10SM SCT140 23/03 A2963 RMK AO2 SLP010 T02340033 10281 20233 58005 $,M
CXP,2025-05-04 05:55,-119.7326,39.1923,1431.00,50.00,42.80,76.18,0.00,0.00,0.00,29.93,M,10.00,M,OVC,M,M,M,4400.00,M,M,M,M,M,M,M,M,M,M,50.00,KCXP 040555Z AUTO 00000KT 10SM OVC044 10/06 A2993 RMK AO2,M
10U,2025-05-04 05:55,-116.1876,41.9532,1637.00,46.40,44.60,93.40,0.00,0.00,0.00,29.90,M,10.00,M,SCT,BKN,OVC,M,1100.00,7000.00,7500.00,M,M,M,M,M,M,M,M,46.40,K10U 040555Z AUTO 00000KT 10SM SCT011 BKN070 OVC075 08/07 A2990 RMK AO2,M
BVU,2025-05-04 05:55,-114.8611,35.9475,671.00,73.40,35.60,25.13,210.00,6.00,0.00,29.68,M,10.00,M,OVC,M,M,M,11000.00,M,M,M,M,M,M,M,M,M,M,73.40,KBVU 040555Z AUTO 21006KT 10SM OVC110 23/02 A2968 RMK AO2,M
RNO,2025-05-04 05:55,-119.7711,39.4839,1341.00,52.00,43.00,71.28,360.00,9.00,T,29.91,1009.40,10.00,M,OVC,M,M,M,3500.00,M,M,M,-RA,M,M,M,M,M,M,52.00,KRNO 040555Z 36009KT 10SM -RA OVC035 11/06 A2991 RMK AO2 RAB18 SLP094 P0000 60000 T01110061 10172 20111 53005 $,M
BAM,2025-05-04 05:55,-116.8743,40.5990,1382.36,50.00,48.20,93.50,240.00,3.00,0.00,29.91,M,10.00,M,OVC,M,M,M,6000.00,M,M,M,M,M,M,M,M,M,M,50.00,KBAM 040555Z AUTO 24003KT 10SM OVC060 10/09 A2991 RMK AO1,M
RTS,2025-05-04 05:55,-119.8764,39.6682,1539.00,48.20,41.00,76.01,310.00,6.00,0.00,29.94,M,6.00,M,SCT,BKN,OVC,M,2900.00,3500.00,4100.00,M,-DZ,M,M,M,M,M,M,45.04,KRTS 040555Z AUTO 31006KT 6SM -DZ SCT029 BKN035 OVC041 09/05 A2994 RMK AO2,M
MEV,2025-05-04 05:55,-119.7500,38.9963,1441.42,48.20,42.80,81.47,320.00,6.00,0.00,29.91,M,10.00,M,FEW,BKN,OVC,M,3000.00,4100.00,5500.00,M,-RA,M,M,M,M,M,M,45.04,KMEV 040555Z AUTO 32006KT 10SM -RA FEW030 BKN041 OVC055 09/06 A2991 RMK AO2,M
HTH,2025-05-04 05:55,-118.6315,38.5448,1282.89,51.80,48.20,87.47,0.00,0.00,0.01,29.90,M,10.00,M,BKN,OVC,M,M,4900.00,9000.00,M,M,M,M,M,M,M,M,M,51.80,KHTH 040555Z AUTO 00000KT 10SM BKN049 OVC090 11/09 A2990 RMK A01 P0001,M
TMT,2025-05-04 05:55,-117.1971,39.4643,1749.34,41.70,41.00,97.33,0.00,0.00,0.00,29.93,M,10.00,M,BKN,BKN,M,M,4000.00,11000.00,M,M,M,M,M,M,M,M,M,41.70,KTMT 040555Z AUTO 00000KT 10SM BKN040 BKN110 05/05 A2993 RMK AO2 6//// T00540050,M
EKO,2025-05-04 05:56,-115.7860,40.8242,1367.00,48.00,46.00,92.74,230.00,7.00,T,29.89,1008.70,10.00,M,SCT,BKN,OVC,M,3200.00,4700.00,11000.00,M,M,M,M,M,M,M,M,44.28,KEKO 040556Z AUTO 23007KT 10SM SCT032 BKN047 OVC110 09/08 A2989 RMK AO2 RAE02B30E42 SLP087 P0000 60003 T00890078 10178 20089 53005,M
WMC,2025-05-04 05:56,-117.8072,40.9019,1315.00,49.00,48.00,96.32,170.00,7.00,0.02,29.88,1009.20,10.00,M,OVC,M,M,M,5500.00,M,M,M,-RA,M,M,M,M,M,M,45.50,KWMC 040556Z AUTO 17007KT 10SM -RA OVC055 09/09 A2988 RMK AO2 SLP092 P0002 60010 T00940089 10111 20094 50002,M
HND,2025-05-04 05:56,-115.1344,35.9729,742.79,70.00,36.00,28.65,170.00,7.00,0.00,29.73,1005.80,10.00,M,SCT,M,M,M,11000.00,M,M,M,M,M,M,M,M,M,M,70.00,KHND 040556Z AUTO 17007KT 10SM SCT110 21/02 A2973 RMK AO2 SLP058 60000 T02110022 10267 20211 51004 $,M
TPH,2025-05-04 05:56,-117.0904,38.0505,1654.00,46.00,41.00,82.58,260.00,18.00,0.02,29.90,1007.80,5.00,M,BKN,OVC,M,M,4100.00,5000.00,M,M,RA,M,M,M,M,M,M,38.18,KTPH 040556Z AUTO 26018KT 5SM RA BKN041 OVC050 08/05 A2990 RMK AO2 RAB10 SLP078 P0002 60002 T00780050 10194 20078 53013 $,M
LAS,2025-05-04 05:56,-115.1634,36.0719,663.00,73.00,40.00,30.28,0.00,0.00,0.00,29.70,1003.30,10.00,M,FEW,SCT,BKN,M,12000.00,14000.00,20000.00,M,M,M,M,M,M,M,M,73.00,KLAS 040556Z 00000KT 10SM FEW120 SCT140 BKN200 23/04 A2970 RMK AO2 SLP033 60000 T02280044 10267 20222 58000,M
NFL,2025-05-04 05:57,-118.7010,39.4166,1199.00,51.00,46.00,82.93,150.00,7.00,0.01,29.88,1009.30,10.00,M,OVC,M,M,M,5000.00,M,M,M,-RA,M,M,M,M,M,M,51.00,KNFL 040557Z AUTO 15007KT 10SM -RA OVC050 11/08 A2988 RMK AO2 RAB13 SLP093 P0001 60002 T01060078 10133 20106 53000,M
MEV,2025-05-04 06:00,-119.7500,38.9963,1441.42,48.20,42.80,81.47,320.00,6.00,0.00,29.91,M,10.00,M,FEW,SCT,OVC,M,3000.00,4100.00,5500.00,M,-RA,M,M,M,M,M,M,45.04,KMEV 040600Z AUTO 32006KT 10SM -RA FEW030 SCT041 OVC055 09/06 A2991 RMK AO2,M
BVU,2025-05-04 06:15,-114.8611,35.9475,671.00,71.60,33.80,24.86,180.00,5.00,0.00,29.68,M,10.00,M,BKN,OVC,M,M,10000.00,12000.00,M,M,M,M,M,M,M,M,M,71.60,KBVU 040615Z AUTO 18005KT 10SM BKN100 OVC120 22/01 A2968 RMK AO2,M
BAM,2025-05-04 06:15,-116.8743,40.5990,1382.36,50.00,48.20,93.50,240.00,5.00,0.00,29.89,M,10.00,M,OVC,M,M,M,6000.00,M,M,M,M,M,M,M,M,M,M,50.00,KBAM 040615Z AUTO 24005KT 10SM OVC060 10/09 A2989 RMK AO1,M
CXP,2025-05-04 06:15,-119.7326,39.1923,1431.00,50.00,42.80,76.18,0.00,0.00,0.00,29.92,M,10.00,M,BKN,OVC,M,M,4500.00,5500.00,M,M,M,M,M,M,M,M,M,50.00,KCXP 040615Z AUTO 00000KT 10SM BKN045 OVC055 10/06 A2992 RMK AO2,M
RTS,2025-05-04 06:15,-119.8764,39.6682,1539.00,46.40,42.80,87.19,300.00,5.00,0.00,29.94,M,5.00,M,BKN,BKN,OVC,M,2100.00,2800.00,3300.00,M,-DZ,M,M,M,M,M,M,43.50,KRTS 040615Z AUTO 30005KT 5SM -DZ BKN021 BKN028 OVC033 08/06 A2994 RMK AO2,M
HTH,2025-05-04 06:15,-118.6315,38.5448,1282.89,51.80,46.40,81.74,0.00,0.00,0.00,29.89,M,10.00,M,BKN,BKN,OVC,M,4900.00,7500.00,11000.00,M,M,M,M,M,M,M,M,51.80,KHTH 040615Z AUTO 00000KT 10SM BKN049 BKN075 OVC110 11/08 A2989 RMK A01,M
TMT,2025-05-04 06:15,-117.1971,39.4643,1749.34,42.00,41.00,96.21,250.00,3.00,0.00,29.93,M,10.00,M,SCT,BKN,OVC,M,2300.00,3400.00,4000.00,M,M,M,M,M,M,M,M,40.12,KTMT 040615Z AUTO 25003KT 10SM SCT023 BKN034 OVC040 06/05 A2993 RMK AO2 T00550050,M
10U,2025-05-04 06:15,-116.1876,41.9532,1637.00,46.40,44.60,93.40,0.00,0.00,0.00,29.90,M,10.00,M,FEW,OVC,M,M,1400.00,6500.00,M,M,M,M,M,M,M,M,M,46.40,K10U 040615Z AUTO 00000KT 10SM FEW014 OVC065 08/07 A2990 RMK AO2,M
BVU,2025-05-04 06:35,-114.8611,35.9475,671.00,71.60,37.40,28.68,30.00,5.00,0.00,29.67,M,10.00,M,BKN,OVC,M,M,10000.00,12000.00,M,M,M,M,M,M,M,M,M,71.60,KBVU 040635Z AUTO 03005KT 10SM BKN100 OVC120 22/03 A2967 RMK AO2,M
BAM,2025-05-04 06:35,-116.8743,40.5990,1382.36,50.00,48.20,93.50,0.00,0.00,0.00,29.89,M,10.00,M,OVC,M,M,M,7000.00,M,M,M,M,M,M,M,M,M,M,50.00,KBAM 040635Z AUTO 00000KT 10SM OVC070 10/09 A2989 RMK AO1,M
CXP,2025-05-04 06:35,-119.7326,39.1923,1431.00,50.00,42.80,76.18,0.00,0.00,0.00,29.91,M,10.00,M,BKN,OVC,M,M,4100.00,4700.00,M,M,M,M,M,M,M,M,M,50.00,KCXP 040635Z AUTO 00000KT 10SM BKN041 OVC047 10/06 A2991 RMK AO2,M
RTS,2025-05-04 06:35,-119.8764,39.6682,1539.00,46.40,42.80,87.19,280.00,6.00,0.00,29.93,M,6.00,M,FEW,SCT,OVC,M,1800.00,2200.00,3400.00,M,-DZ,M,M,M,M,M,M,42.87,KRTS 040635Z AUTO 28006KT 6SM -DZ FEW018 SCT022 OVC034 08/06 A2993 RMK AO2,M
MEV,2025-05-04 06:35,-119.7500,38.9963,1441.42,48.20,42.80,81.47,0.00,0.00,0.00,29.90,M,10.00,M,FEW,FEW,OVC,M,1700.00,2800.00,4400.00,M,M,M,M,M,M,M,M,48.20,KMEV 040635Z AUTO 00000KT 10SM FEW017 FEW028 OVC044 09/06 A2990 RMK AO2,M
HTH,2025-05-04 06:35,-118.6315,38.5448,1282.89,51.80,46.40,81.74,260.00,3.00,0.00,29.89,M,10.00,M,FEW,BKN,OVC,M,5000.00,5500.00,11000.00,M,M,M,M,M,M,M,M,51.80,KHTH 040635Z AUTO 26003KT 10SM FEW050 BKN055 OVC110 11/08 A2989 RMK A01,M
TMT,2025-05-04 06:35,-117.1971,39.4643,1749.34,41.70,41.00,97.33,0.00,0.00,0.00,29.93,M,10.00,M,SCT,SCT,OVC,M,2500.00,3400.00,4200.00,M,M,M,M,M,M,M,M,41.70,KTMT 040635Z AUTO 00000KT 10SM SCT025 SCT034 OVC042 05/05 A2993 RMK AO2 T00540050,M
10U,2025-05-04 06:35,-116.1876,41.9532,1637.00,46.40,44.60,93.40,0.00,0.00,0.00,29.90,M,10.00,M,BKN,OVC,M,M,1400.00,6500.00,M,M,M,M,M,M,M,M,M,46.40,K10U 040635Z AUTO 00000KT 10SM BKN014 OVC065 08/07 A2990 RMK AO2,M
P68,2025-05-04 06:53,-116.0056,39.6014,1993.00,43.00,42.00,96.23,0.00,0.00,0.00,29.88,1006.60,M,M,M,M,M,M,M,M,M,M,M,M,M,M,M,M,M,43.00,KP68 040653Z AUTO 00000KT 06/06 A2988 RMK AO1 SLP066 T00610056 $,M
DRA,2025-05-04 06:53,-116.0278,36.6206,1009.00,63.00,42.00,46.16,50.00,6.00,0.00,29.73,1002.40,10.00,M,CLR,M,M,M,M,M,M,M,M,M,M,M,M,M,M,63.00,KDRA 040653Z AUTO 05006KT 10SM CLR 17/06 A2973 RMK AO2 SLP024 T01720056,M
ELY,2025-05-04 06:53,-114.8453,39.2950,1909.00,51.00,36.00,56.31,200.00,5.00,0.00,29.89,1003.60,10.00,M,OVC,M,M,M,6500.00,M,M,M,M,M,M,M,M,M,M,51.00,KELY 040653Z AUTO 20005KT 10SM OVC065 11/02 A2989 RMK AO2 SLP036 T01060022 $,M
VGT,2025-05-04 06:53,-115.1933,36.2111,667.00,74.00,38.00,27.08,300.00,6.00,0.00,29.68,1004.30,10.00,17.00,FEW,SCT,M,M,7500.00,10000.00,M,M,M,M,M,M,29.00,320.00,2025-05-04 06:36,74.00,KVGT 040653Z AUTO 30006G17KT 10SM FEW075 SCT100 23/03 A2968 RMK AO2 PK WND 32029/0636 SLP043 T02330033,M
LOL,2025-05-04 06:53,-118.5701,40.0684,1192.43,48.00,42.00,79.60,0.00,0.00,0.00,29.87,1009.50,10.00,M,FEW,OVC,M,M,4200.00,5500.00,M,M,M,M,M,M,M,M,M,48.00,KLOL 040653Z AUTO 00000KT 10SM FEW042 OVC055 09/06 A2987 RMK AO2 SLP095 T00890056,M
LSV,2025-05-04 06:55,-115.0343,36.2362,570.00,74.30,38.00,26.80,170.00,8.00,0.00,29.64,1001.20,10.00,M,FEW,M,M,M,12000.00,M,M,M,M,M,M,M,M,M,M,74.30,KLSV 040655Z AUTO 17008KT 10SM FEW120 24/03 A2964 RMK AO2 SLP012 T02350034 $,M
BVU,2025-05-04 06:55,-114.8611,35.9475,671.00,69.80,37.40,30.49,30.00,9.00,0.00,29.65,M,10.00,M,FEW,OVC,M,M,7500.00,10000.00,M,M,M,M,M,M,M,M,M,69.80,KBVU 040655Z AUTO 03009KT 10SM FEW075 OVC100 21/03 A2965 RMK AO2,M
RNO,2025-05-04 06:55,-119.7711,39.4839,1341.00,50.00,44.00,79.76,320.00,6.00,0.01,29.90,1009.20,10.00,M,OVC,M,M,M,4000.00,M,M,M,-RA,M,M,M,M,M,M,50.00,KRNO 040655Z 32006KT 10SM -RA OVC040 10/07 A2990 RMK AO2 SLP092 P0001 T01000067 $,M
BAM,2025-05-04 06:55,-116.8743,40.5990,1382.36,50.00,48.20,93.50,220.00,4.00,0.00,29.89,M,10.00,M,OVC,M,M,M,7000.00,M,M,M,M,M,M,M,M,M,M,50.00,KBAM 040655Z AUTO 22004KT 10SM OVC070 10/09 A2989 RMK AO1,M
CXP,2025-05-04 06:55,-119.7326,39.1923,1431.00,50.00,42.80,76.18,350.00,7.00,0.00,29.92,M,10.00,M,BKN,OVC,M,M,3000.00,3900.00,M,M,M,M,M,M,M,M,M,50.00,KCXP 040655Z AUTO 35007KT 10SM BKN030 OVC039 10/06 A2992 RMK AO2,M
RTS,2025-05-04 06:55,-119.8764,39.6682,1539.00,46.40,42.80,87.19,270.00,8.00,0.00,29.92,M,10.00,M,FEW,BKN,OVC,M,2200.00,3300.00,4900.00,M,-DZ,M,M,M,M,M,M,41.85,KRTS 040655Z AUTO 27008KT 10SM -DZ FEW022 BKN033 OVC049 08/06 A2992 RMK AO2,M
MEV,2025-05-04 06:55,-119.7500,38.9963,1441.42,48.20,44.60,87.28,0.00,0.00,0.00,29.90,M,10.00,M,OVC,M,M,M,4100.00,M,M,M,M,M,M,M,M,M,M,48.20,KMEV 040655Z AUTO 00000KT 10SM OVC041 09/07 A2990 RMK AO2,M
HTH,2025-05-04 06:55,-118.6315,38.5448,1282.89,51.80,50.00,93.55,0.00,0.00,0.00,29.89,M,10.00,M,BKN,OVC,M,M,5000.00,6000.00,M,M,M,M,M,M,M,M,M,51.80,KHTH 040655Z AUTO 00000KT 10SM BKN050 OVC060 11/10 A2989 RMK A01,M
TMT,2025-05-04 06:55,-117.1971,39.4643,1749.34,42.00,41.00,96.21,190.00,3.00,0.00,29.93,M,10.00,M,SCT,OVC,M,M,2100.00,4200.00,M,M,M,M,M,M,M,M,M,40.12,KTMT 040655Z AUTO 19003KT 10SM SCT021 OVC042 06/05 A2993 RMK AO2 T00550051,M
10U,2025-05-04 06:55,-116.1876,41.9532,1637.00,46.40,44.60,93.40,0.00,0.00,0.00,29.89,M,10.00,M,OVC,M,M,M,1500.00,M,M,M,M,M,M,M,M,M,M,46.40,K10U 040655Z AUTO 00000KT 10SM OVC015 08/07 A2989 RMK AO2,M
EKO,2025-05-04 06:56,-115.7860,40.8242,1367.00,49.00,44.00,82.79,120.00,6.00,0.01,29.85,1007.00,10.00,M,FEW,OVC,M,M,4200.00,10000.00,M,M,M,M,M,M,M,M,M,46.00,KEKO 040656Z AUTO 12006KT 10SM FEW042 OVC100 09/07 A2985 RMK AO2 RAB33E48 SLP070 P0001 T00940067,M
WMC,2025-05-04 06:56,-117.8072,40.9019,1315.00,48.00,47.00,96.31,250.00,3.00,0.01,29.87,1009.50,10.00,M,SCT,BKN,M,M,6000.00,12000.00,M,M,M,M,M,M,M,M,M,46.98,KWMC 040656Z AUTO 25003KT 10SM SCT060 BKN120 09/08 A2987 RMK AO2 RAE25 SLP095 P0001 T00890083,M
HND,2025-05-04 06:56,-115.1344,35.9729,742.79,71.00,36.00,27.69,210.00,9.00,T,29.71,1005.00,10.00,M,FEW,M,M,M,12000.00,M,M,M,M,M,M,M,M,M,M,71.00,KHND 040656Z AUTO 21009KT 10SM FEW120 22/02 A2971 RMK AO2 RAB03E17 SLP050 P0000 T02170022 403000194 $,M
TPH,2025-05-04 06:56,-117.0904,38.0505,1654.00,45.00,40.00,82.51,340.00,17.00,0.13,29.86,1006.90,9.00,29.00,SCT,OVC,M,M,3100.00,8000.00,M,M,-RA,M,M,M,30.00,340.00,2025-05-04 06:46,37.11,KTPH 040656Z AUTO 34017G29KT 9SM -RA SCT031 OVC080 07/04 A2986 RMK AO2 PK WND 34030/0646 SLP069 P0013 T00720044 $,M
LAS,2025-05-04 06:56,-115.1634,36.0719,663.00,73.00,38.00,28.00,0.00,0.00,0.00,29.69,1003.00,10.00,M,FEW,SCT,BKN,M,12000.00,14000.00,20000.00,M,M,M,M,M,M,M,M,73.00,KLAS 040656Z 00000KT 10SM FEW120 SCT140 BKN200 23/03 A2969 RMK AO2 SLP030 T02280033,M
NFL,2025-05-04 06:57,-118.7010,39.4166,1199.00,51.00,47.00,86.12,170.00,6.00,0.01,29.87,1009.10,10.00,M,BKN,OVC,M,M,4700.00,6000.00,M,M,M,M,M,M,M,M,M,51.00,KNFL 040657Z AUTO 17006KT 10SM BKN047 OVC060 11/08 A2987 RMK AO2 RAE00B16E30 SLP091 P0001 T01060083,M
BVU,2025-05-04 07:15,-114.8611,35.9475,671.00,71.60,37.40,28.68,20.00,6.00,0.00,29.66,M,10.00,M,FEW,SCT,M,M,7500.00,9500.00,M,M,M,M,M,M,M,M,M,71.60,KBVU 040715Z AUTO 02006KT 10SM FEW075 SCT095 22/03 A2966 RMK AO2,M
BAM,2025-05-04 07:15,-116.8743,40.5990,1382.36,50.00,48.20,93.50,220.00,3.00,0.00,29.89,M,10.00,M,SCT,OVC,M,M,6000.00,7000.00,M,M,M,M,M,M,M,M,M,50.00,KBAM 040715Z AUTO 22003KT 10SM SCT060 OVC070 10/09 A2989 RMK AO1,M
CXP,2025-05-04 07:15,-119.7326,39.1923,1431.00,50.00,42.80,76.18,320.00,5.00,0.00,29.92,M,9.00,M,SCT,OVC,M,M,3000.00,3600.00,M,M,-RA,M,M,M,M,M,M,50.00,KCXP 040715Z AUTO 32005KT 9SM -RA SCT030 OVC036 10/06 A2992 RMK AO2,M
RTS,2025-05-04 07:15,-119.8764,39.6682,1539.00,46.40,42.80,87.19,280.00,6.00,0.00,29.92,M,10.00,M,FEW,FEW,OVC,M,2200.00,3400.00,4900.00,M,-DZ,M,M,M,M,M,M,42.87,KRTS 040715Z AUTO 28006KT 10SM -DZ FEW022 FEW034 OVC049 08/06 A2992 RMK AO2,M
MEV,2025-05-04 07:15,-119.7500,38.9963,1441.42,48.20,44.60,87.28,0.00,0.00,0.00,29.89,M,10.00,M,OVC,M,M,M,3800.00,M,M,M,M,M,M,M,M,M,M,48.20,KMEV 040715Z AUTO 00000KT 10SM OVC038 09/07 A2989 RMK AO2,M
HTH,2025-05-04 07:15,-118.6315,38.5448,1282.89,51.80,48.20,87.47,0.00,0.00,0.00,29.88,M,10.00,M,BKN,OVC,M,M,5000.00,5500.00,M,M,M,M,M,M,M,M,M,51.80,KHTH 040715Z AUTO 00000KT 10SM BKN050 OVC055 11/09 A2988 RMK A01,M
TMT,2025-05-04 07:15,-117.1971,39.4643,1749.34,42.00,41.00,96.21,0.00,0.00,0.00,29.92,M,10.00,M,SCT,OVC,M,M,2300.00,4200.00,M,M,M,M,M,M,M,M,M,42.00,KTMT 040715Z AUTO 00000KT 10SM SCT023 OVC042 06/05 A2992 RMK AO2 T00550051,M
10U,2025-05-04 07:15,-116.1876,41.9532,1637.00,46.40,44.60,93.40,150.00,3.00,0.00,29.90,M,10.00,M,BKN,BKN,OVC,M,1600.00,5500.00,11000.00,M,M,M,M,M,M,M,M,45.15,K10U 040715Z AUTO 15003KT 10SM BKN016 BKN055 OVC110 08/07 A2990 RMK AO2,M
BVU,2025-05-04 07:35,-114.8611,35.9475,671.00,71.60,39.20,30.77,60.00,5.00,0.00,29.65,M,10.00,M,FEW,M,M,M,12000.00,M,M,M,M,M,M,M,M,M,M,71.60,KBVU 040735Z AUTO 06005KT 10SM FEW120 22/04 A2965 RMK AO2,M
BAM,2025-05-04 07:35,-116.8743,40.5990,1382.36,50.00,48.20,93.50,0.00,0.00,0.00,29.88,M,10.00,M,SCT,OVC,M,M,6000.00,7000.00,M,M,M,M,M,M,M,M,M,50.00,KBAM 040735Z AUTO 00000KT 10SM SCT060 OVC070 10/09 A2988 RMK AO1,M
CXP,2025-05-04 07:35,-119.7326,39.1923,1431.00,48.20,42.80,81.47,0.00,0.00,0.00,29.91,M,10.00,M,FEW,OVC,M,M,2800.00,3500.00,M,M,-RA,M,M,M,M,M,M,48.20,KCXP 040735Z AUTO 00000KT 10SM -RA FEW028 OVC035 09/06 A2991 RMK AO2,M
RTS,2025-05-04 07:35,-119.8764,39.6682,1539.00,46.40,42.80,87.19,290.00,7.00,0.00,29.92,M,10.00,M,BKN,OVC,M,M,3900.00,4700.00,M,M,M,M,M,M,M,M,M,42.33,KRTS 040735Z AUTO 29007KT 10SM BKN039 OVC047 08/06 A2992 RMK AO2,M
MEV,2025-05-04 07:35,-119.7500,38.9963,1441.42,48.20,44.60,87.28,0.00,0.00,0.00,29.89,M,10.00,M,OVC,M,M,M,3600.00,M,M,M,M,M,M,M,M,M,M,48.20,KMEV 040735Z AUTO 00000KT 10SM OVC036 09/07 A2989 RMK AO2,M
HTH,2025-05-04 07:35,-118.6315,38.5448,1282.89,51.80,48.20,87.47,0.00,0.00,0.00,29.88,M,10.00,M,OVC,M,M,M,4900.00,M,M,M,M,M,M,M,M,M,M,51.80,KHTH 040735Z AUTO 00000KT 10SM OVC049 11/09 A2988 RMK A01,M
TMT,2025-05-04 07:35,-117.1971,39.4643,1749.34,42.80,41.40,94.75,0.00,0.00,0.00,29.91,M,10.00,M,OVC,M,M,M,4200.00,M,M,M,M,M,M,M,M,M,M,42.80,KTMT 040735Z AUTO 00000KT 10SM OVC042 06/05 A2991 RMK AO2 T00600052,M
10U,2025-05-04 07:35,-116.1876,41.9532,1637.00,46.40,44.60,93.40,0.00,0.00,0.00,29.89,M,10.00,M,BKN,OVC,M,M,1600.00,5500.00,M,M,M,M,M,M,M,M,M,46.40,K10U 040735Z AUTO 00000KT 10SM BKN016 OVC055 08/07 A2989 RMK AO2,M
P68,2025-05-04 07:53,-116.0056,39.6014,1993.00,40.00,39.00,96.18,250.00,4.00,0.00,29.87,1006.30,M,M,M,M,M,M,M,M,M,M,M,M,M,M,M,M,M,36.76,KP68 040753Z AUTO 25004KT 04/04 A2987 RMK AO1 SLP063 T00440039 402220039 $,M
DRA,2025-05-04 07:53,-116.0278,36.6206,1009.00,58.00,45.00,61.85,M,3.00,0.00,29.71,1001.90,10.00,M,FEW,M,M,M,11000.00,M,M,M,M,M,M,M,M,M,M,58.00,KDRA 040753Z AUTO VRB03KT 10SM FEW110 14/07 A2971 RMK AO2 SLP019 T01440072 403000122,M
ELY,2025-05-04 07:53,-114.8453,39.2950,1909.00,47.00,35.00,62.84,120.00,7.00,0.00,29.88,1003.90,10.00,M,BKN,M,M,M,11000.00,M,M,M,M,M,M,M,M,M,M,43.06,KELY 040753Z AUTO 12007KT 10SM BKN110 08/02 A2988 RMK AO2 SLP039 T00830017 402220006 $,M
VGT,2025-05-04 07:53,-115.1933,36.2111,667.00,72.00,39.00,30.12,330.00,6.00,0.00,29.65,1003.40,10.00,M,FEW,M,M,M,11000.00,M,M,M,M,M,M,M,M,M,M,72.00,KVGT 040753Z AUTO 33006KT 10SM FEW110 22/04 A2965 RMK AO2 SLP034 T02220039 403060183,M
LOL,2025-05-04 07:53,-118.5701,40.0684,1192.43,49.00,42.00,76.67,0.00,0.00,0.00,29.85,1008.90,10.00,M,SCT,OVC,M,M,5000.00,7000.00,M,M,M,M,M,M,M,M,M,49.00,KLOL 040753Z AUTO 00000KT 10SM SCT050 OVC070 09/06 A2985 RMK AO2 SLP089 T00940056 401940089,M
INS,2025-05-04 07:55,-115.6733,36.5872,955.00,63.50,40.00,41.98,0.00,0.00,0.00,29.72,1002.20,10.00,M,BKN,BKN,BKN,M,11000.00,13000.00,16000.00,M,M,M,M,M,M,M,M,63.50,KINS 040755Z AUTO 00000KT 10SM BKN110 BKN130 BKN160 18/04 A2972 RMK AO2 SLP022 T01750044 402840143 $,M
LSV,2025-05-04 07:55,-115.0343,36.2362,570.00,73.20,38.00,27.81,0.00,0.00,0.00,29.60,999.80,10.00,M,FEW,FEW,M,M,13000.00,16000.00,M,M,M,M,M,M,M,M,M,73.20,KLSV 040755Z AUTO 00000KT 10SM FEW130 FEW160 23/03 A2960 RMK AO2 SLP998 T02290034 403160185 $,M
BVU,2025-05-04 07:55,-114.8611,35.9475,671.00,69.80,39.20,32.72,10.00,6.00,0.00,29.64,M,10.00,M,BKN,M,M,M,11000.00,M,M,M,M,M,M,M,M,M,M,69.80,KBVU 040755Z AUTO 01006KT 10SM BKN110 21/04 A2964 RMK AO2 LTG DSNT S,M
RNO,2025-05-04 07:55,-119.7711,39.4839,1341.00,50.00,43.00,76.76,280.00,4.00,T,29.89,1008.70,10.00,M,OVC,M,M,M,4100.00,M,M,M,-RA,M,M,M,M,M,M,50.00,KRNO 040755Z 28004KT 10SM -RA OVC041 10/06 A2989 RMK AO2 SLP087 P0000 T01000061 402110100 $,M
BAM,2025-05-04 07:55,-116.8743,40.5990,1382.36,50.00,48.20,93.50,220.00,3.00,0.00,29.88,M,10.00,M,OVC,M,M,M,7000.00,M,M,M,M,M,M,M,M,M,M,50.00,KBAM 040755Z AUTO 22003KT 10SM OVC070 10/09 A2988 RMK AO1,M
CXP,2025-05-04 07:55,-119.7326,39.1923,1431.00,48.20,42.80,81.47,230.00,4.00,0.01,29.91,M,10.00,M,FEW,SCT,OVC,M,2400.00,3300.00,4100.00,M,M,M,M,M,M,M,M,46.34,KCXP 040755Z AUTO 23004KT 10SM FEW024 SCT033 OVC041 09/06 A2991 RMK AO2 P0001,M
RTS,2025-05-04 07:55,-119.8764,39.6682,1539.00,46.40,42.80,87.19,310.00,4.00,0.00,29.91,M,10.00,M,SCT,BKN,OVC,M,3800.00,4500.00,6000.00,M,M,M,M,M,M,M,M,44.24,KRTS 040755Z AUTO 31004KT 10SM SCT038 BKN045 OVC060 08/06 A2991 RMK AO2,M
MEV,2025-05-04 07:55,-119.7500,38.9963,1441.42,48.20,42.80,81.47,340.00,4.00,0.00,29.89,M,10.00,M,OVC,M,M,M,3300.00,M,M,M,M,M,M,M,M,M,M,46.34,KMEV 040755Z AUTO 34004KT 10SM OVC033 09/06 A2989 RMK AO2,M
HTH,2025-05-04 07:55,-118.6315,38.5448,1282.89,51.80,48.20,87.47,0.00,0.00,0.00,29.87,M,10.00,M,OVC,M,M,M,4900.00,M,M,M,M,M,M,M,M,M,M,51.80,KHTH 040755Z AUTO 00000KT 10SM OVC049 11/09 A2987 RMK A01,M
TMT,2025-05-04 07:55,-117.1971,39.4643,1749.34,42.80,41.40,94.75,0.00,0.00,0.00,29.90,M,10.00,M,SCT,BKN,OVC,M,4200.00,6000.00,7500.00,M,M,M,M,M,M,M,M,42.80,KTMT 040755Z AUTO 00000KT 10SM SCT042 BKN060 OVC075 06/05 A2990 RMK AO2 T00600052,M
10U,2025-05-04 07:55,-116.1876,41.9532,1637.00,46.40,44.60,93.40,0.00,0.00,0.00,29.90,M,10.00,M,OVC,M,M,M,5000.00,M,M,M,M,M,M,M,M,M,M,46.40,K10U 040755Z AUTO 00000KT 10SM OVC050 08/07 A2990 RMK AO2,M
EKO,2025-05-04 07:56,-115.7860,40.8242,1367.00,46.00,44.00,92.68,230.00,6.00,0.00,29.85,1007.50,10.00,M,FEW,M,M,M,11000.00,M,M,M,M,M,M,M,M,M,M,42.39,KEKO 040756Z AUTO 23006KT 10SM FEW110 08/07 A2985 RMK AO2 SLP075 T00780067 402220039,M
WMC,2025-05-04 07:56,-117.8072,40.9019,1315.00,48.00,47.00,96.31,140.00,4.00,0.00,29.86,1009.00,10.00,M,FEW,BKN,M,M,7000.00,10000.00,M,M,M,M,M,M,M,M,M,46.10,KWMC 040756Z AUTO 14004KT 10SM FEW070 BKN100 09/08 A2986 RMK AO2 SLP090 T00890083 401830089,M
HND,2025-05-04 07:56,-115.1344,35.9729,742.79,69.00,35.00,28.50,200.00,7.00,0.00,29.68,1004.30,10.00,M,SCT,M,M,M,11000.00,M,M,M,M,M,M,M,M,M,M,69.00,KHND 040756Z AUTO 20007KT 10SM SCT110 21/02 A2968 RMK AO2 SLP043 T02060017 $,M
TPH,2025-05-04 07:56,-117.0904,38.0505,1654.00,46.00,40.00,79.44,320.00,10.00,T,29.84,1006.10,10.00,M,BKN,M,M,M,10000.00,M,M,M,M,M,M,M,27.00,360.00,2025-05-04 07:14,40.52,KTPH 040756Z AUTO 32010KT 10SM BKN100 08/04 A2984 RMK AO2 PK WND 36027/0714 RAE05 SLP061 P0000 T00780044 402170061 $,M
LAS,2025-05-04 07:56,-115.1634,36.0719,663.00,72.00,35.00,25.73,80.00,3.00,0.00,29.66,1002.20,10.00,M,SCT,M,M,M,11000.00,M,M,M,M,M,M,M,M,M,M,72.00,KLAS 040756Z 08003KT 10SM SCT110 22/02 A2966 RMK AO2 SLP022 T02220017 403000200,M
NFL,2025-05-04 07:57,-118.7010,39.4166,1199.00,51.00,47.00,86.12,210.00,4.00,T,29.86,1008.60,10.00,M,OVC,M,M,M,4400.00,M,M,M,M,M,M,M,M,M,M,51.00,KNFL 040757Z AUTO 21004KT 10SM OVC044 11/08 A2986 RMK AO2 RAB0659E12 SLP086 P0000 T01060083 402060106,M
BVU,2025-05-04 08:15,-114.8611,35.9475,671.00,69.80,39.20,32.72,20.00,5.00,0.00,29.63,M,10.00,M,FEW,BKN,M,M,9000.00,11000.00,M,M,M,M,M,M,M,M,M,69.80,KBVU 040815Z AUTO 02005KT 10SM FEW090 BKN110 21/04 A2963 RMK AO2,M
BAM,2025-05-04 08:15,-116.8743,40.5990,1382.36,50.00,48.20,93.50,230.00,3.00,0.00,29.88,M,10.00,M,SCT,BKN,M,M,3300.00,7000.00,M,M,M,M,M,M,M,M,M,50.00,KBAM 040815Z AUTO 23003KT 10SM SCT033 BKN070 10/09 A2988 RMK AO1,M
CXP,2025-05-04 08:15,-119.7326,39.1923,1431.00,50.00,39.20,66.27,M,5.00,0.00,29.90,M,10.00,M,SCT,BKN,OVC,M,2600.00,3500.00,4200.00,M,-RA,M,M,M,M,M,M,50.00,KCXP 040815Z AUTO VRB05KT 10SM -RA SCT026 BKN035 OVC042 10/04 A2990 RMK AO2,M
RTS,2025-05-04 08:15,-119.8764,39.6682,1539.00,46.40,42.80,87.19,300.00,4.00,0.00,29.91,M,10.00,M,BKN,BKN,OVC,M,3500.00,4200.00,6000.00,M,M,M,M,M,M,M,M,44.24,KRTS 040815Z AUTO 30004KT 10SM BKN035 BKN042 OVC060 08/06 A2991 RMK AO2,M
MEV,2025-05-04 08:15,-119.7500,38.9963,1441.42,48.20,42.80,81.47,360.00,3.00,0.00,29.89,M,10.00,M,BKN,OVC,M,M,3300.00,4100.00,M,M,M,M,M,M,M,M,M,47.21,KMEV 040815Z AUTO 36003KT 10SM BKN033 OVC041 09/06 A2989 RMK AO2,M
HTH,2025-05-04 08:15,-118.6315,38.5448,1282.89,51.80,48.20,87.47,0.00,0.00,0.00,29.87,M,10.00,M,SCT,OVC,M,M,4800.00,5500.00,M,M,M,M,M,M,M,M,M,51.80,KHTH 040815Z AUTO 00000KT 10SM SCT048 OVC055 11/09 A2987 RMK A01,M
TMT,2025-05-04 08:15,-117.1971,39.4643,1749.34,42.00,41.00,96.21,0.00,0.00,0.00,29.90,M,10.00,M,BKN,OVC,M,M,4700.00,6000.00,M,M,-RA,M,M,M,M,M,M,42.00,KTMT 040815Z AUTO 00000KT 10SM -RA BKN047 OVC060 06/05 A2990 RMK AO2 T00550050,M
10U,2025-05-04 08:15,-116.1876,41.9532,1637.00,46.40,44.60,93.40,210.00,4.00,0.00,29.90,M,10.00,M,FEW,OVC,M,M,1600.00,5000.00,M,M,M,M,M,M,M,M,M,44.24,K10U 040815Z AUTO 21004KT 10SM FEW016 OVC050 08/07 A2990 RMK AO2,M
BVU,2025-05-04 08:35,-114.8611,35.9475,671.00,69.80,37.40,30.49,0.00,0.00,0.00,29.64,M,10.00,M,BKN,M,M,M,11000.00,M,M,M,M,M,M,M,M,M,M,69.80,KBVU 040835Z AUTO 00000KT 10SM BKN110 21/03 A2964 RMK AO2,M
BAM,2025-05-04 08:35,-116.8743,40.5990,1382.36,48.20,46.40,93.45,240.00,4.00,0.00,29.87,M,10.00,M,BKN,BKN,M,M,3300.00,7000.00,M,M,M,M,M,M,M,M,M,46.34,KBAM 040835Z AUTO 24004KT 10SM BKN033 BKN070 09/08 A2987 RMK AO1,M
CXP,2025-05-04 08:35,-119.7326,39.1923,1431.00,48.20,41.00,76.01,0.00,0.00,0.00,29.89,M,10.00,M,FEW,SCT,OVC,M,2600.00,3300.00,4000.00,M,-RA,M,M,M,M,M,M,48.20,KCXP 040835Z AUTO 00000KT 10SM -RA FEW026 SCT033 OVC040 09/05 A2989 RMK AO2,M
RTS,2025-05-04 08:35,-119.8764,39.6682,1539.00,46.40,42.80,87.19,M,5.00,0.00,29.90,M,10.00,M,BKN,OVC,M,M,3300.00,4500.00,M,M,M,M,M,M,M,M,M,43.50,KRTS 040835Z AUTO VRB05KT 10SM BKN033 OVC045 08/06 A2990 RMK AO2,M
MEV,2025-05-04 08:35,-119.7500,38.9963,1441.42,48.20,42.80,81.47,310.00,4.00,0.00,29.88,M,10.00,M,BKN,OVC,M,M,3700.00,4400.00,M,M,M,M,M,M,M,M,M,46.34,KMEV 040835Z AUTO 31004KT 10SM BKN037 OVC044 09/06 A2988 RMK AO2,M
HTH,2025-05-04 08:35,-118.6315,38.5448,1282.89,51.80,46.40,81.74,0.00,0.00,0.00,29.86,M,10.00,M,OVC,M,M,M,6000.00,M,M,M,M,M,M,M,M,M,M,51.80,KHTH 040835Z AUTO 00000KT 10SM OVC060 11/08 A2986 RMK A01,M
TMT,2025-05-04 08:35,-117.1971,39.4643,1749.34,42.00,41.00,96.21,0.00,0.00,0.00,29.89,M,10.00,M,BKN,BKN,OVC,M,4500.00,5500.00,7500.00,M,-RA,M,M,M,M,M,M,42.00,KTMT 040835Z AUTO 00000KT 10SM -RA BKN045 BKN055 OVC075 06/05 A2989 RMK AO2 T00550051,M
10U,2025-05-04 08:35,-116.1876,41.9532,1637.00,46.40,44.60,93.40,0.00,0.00,0.00,29.88,M,10.00,M,FEW,OVC,M,M,1600.00,5000.00,M,M,M,M,M,M,M,M,M,46.40,K10U 040835Z AUTO 00000KT 10SM FEW016 OVC050 08/07 A2988 RMK AO2,M
P68,2025-05-04 08:53,-116.0056,39.6014,1993.00,40.00,40.00,100.00,150.00,4.00,0.00,29.86,1006.40,M,M,M,M,M,M,M,M,M,M,M,M,M,M,M,M,M,36.76,KP68 040853Z AUTO 15004KT 04/04 A2986 RMK AO1 SLP064 T00440044 56009 $,M
DRA,2025-05-04 08:53,-116.0278,36.6206,1009.00,60.00,42.00,51.33,290.00,3.00,0.00,29.69,1001.20,10.00,M,FEW,M,M,M,11000.00,M,M,M,M,M,M,M,M,M,M,60.00,KDRA 040853Z AUTO 29003KT 10SM FEW110 16/06 A2969 RMK AO2 SLP012 T01560056 56018,M
ELY,2025-05-04 08:53,-114.8453,39.2950,1909.00,47.00,35.00,62.84,150.00,5.00,0.00,29.85,1002.80,10.00,M,FEW,BKN,M,M,6500.00,9000.00,M,M,M,M,M,M,M,M,M,44.21,KELY 040853Z AUTO 15005KT 10SM FEW065 BKN090 08/02 A2985 RMK AO2 SLP028 T00830017 58012 $,M
VGT,2025-05-04 08:53,-115.1933,36.2111,667.00,70.00,32.00,24.42,330.00,5.00,T,29.63,1003.10,10.00,M,FEW,BKN,M,M,4700.00,11000.00,M,M,M,M,M,M,M,M,M,70.00,KVGT 040853Z AUTO 33005KT 10SM FEW047 BKN110 21/00 A2963 RMK AO2 RAB29E40 SLP031 P0000 60000 T02110000 58011,M
LOL,2025-05-04 08:53,-118.5701,40.0684,1192.43,49.00,43.00,79.68,0.00,0.00,0.00,29.84,1008.90,10.00,M,OVC,M,M,M,6500.00,M,M,M,M,M,M,M,M,M,M,49.00,KLOL 040853Z AUTO 00000KT 10SM OVC065 09/06 A2984 RMK AO2 SLP089 T00940061 58010,M
INS,2025-05-04 08:55,-115.6733,36.5872,955.00,61.30,42.00,49.01,230.00,3.00,0.00,29.68,1001.00,10.00,M,SCT,M,M,M,12000.00,M,M,M,M,M,M,M,M,M,M,61.30,KINS 040855Z AUTO 23003KT 10SM SCT120 16/06 A2968 RMK AO2 SLP010 T01630056 57020 $,M
LSV,2025-05-04 08:55,-115.0343,36.2362,570.00,71.00,38.00,29.96,220.00,3.00,0.00,29.59,999.70,10.00,M,SCT,M,M,M,11000.00,M,M,M,M,M,M,M,M,M,M,71.00,KLSV 040855Z AUTO 22003KT 10SM SCT110 22/03 A2959 RMK AO2 SLP997 T02170034 58012 $,M
BVU,2025-05-04 08:55,-114.8611,35.9475,671.00,69.80,37.40,30.49,240.00,7.00,0.00,29.65,M,10.00,M,FEW,OVC,M,M,7500.00,10000.00,M,M,M,M,M,M,M,M,M,69.80,KBVU 040855Z AUTO 24007KT 10SM FEW075 OVC100 21/03 A2965 RMK AO2,M
RNO,2025-05-04 08:55,-119.7711,39.4839,1341.00,50.00,43.00,76.76,270.00,4.00,0.01,29.87,1007.80,9.00,M,OVC,M,M,M,3600.00,M,M,M,-RA,M,M,M,M,M,M,50.00,KRNO 040855Z 27004KT 9SM -RA OVC036 10/06 A2987 RMK AO2 SLP078 P0001 60002 T01000061 58011 $,M
BAM,2025-05-04 08:55,-116.8743,40.5990,1382.36,46.40,46.40,100.00,0.00,0.00,0.00,29.87,M,10.00,M,SCT,M,M,M,3300.00,M,M,M,M,M,M,M,M,M,M,46.40,KBAM 040855Z AUTO 00000KT 10SM SCT033 08/08 A2987 RMK AO1,M
CXP,2025-05-04 08:55,-119.7326,39.1923,1431.00,48.20,41.00,76.01,300.00,4.00,0.00,29.89,M,10.00,M,SCT,BKN,OVC,M,2800.00,3300.00,3900.00,M,-RA,M,M,M,M,M,M,46.34,KCXP 040855Z AUTO 30004KT 10SM -RA SCT028 BKN033 OVC039 09/05 A2989 RMK AO2,M
RTS,2025-05-04 08:55,-119.8764,39.6682,1539.00,46.40,41.00,81.34,320.00,7.00,0.00,29.89,M,10.00,M,FEW,BKN,OVC,M,2900.00,3400.00,4600.00,M,M,M,M,M,M,M,M,42.33,KRTS 040855Z AUTO 32007KT 10SM FEW029 BKN034 OVC046 08/05 A2989 RMK AO2,M
MEV,2025-05-04 08:55,-119.7500,38.9963,1441.42,48.20,42.80,81.47,330.00,7.00,0.00,29.87,M,10.00,M,BKN,OVC,M,M,3400.00,4300.00,M,M,-RA,M,M,M,M,M,M,44.53,KMEV 040855Z AUTO 33007KT 10SM -RA BKN034 OVC043 09/06 A2987 RMK AO2,M
HTH,2025-05-04 08:55,-118.6315,38.5448,1282.89,51.80,46.40,81.74,0.00,0.00,0.00,29.85,M,10.00,M,OVC,M,M,M,6000.00,M,M,M,M,M,M,M,M,M,M,51.80,KHTH 040855Z AUTO 00000KT 10SM OVC060 11/08 A2985 RMK A01,M
TMT,2025-05-04 08:55,-117.1971,39.4643,1749.34,42.30,42.00,98.85,0.00,0.00,0.00,29.89,M,10.00,M,SCT,SCT,OVC,M,4200.00,4900.00,7500.00,M,M,M,M,M,M,M,M,42.30,KTMT 040855Z AUTO 00000KT 10SM SCT042 SCT049 OVC075 06/06 A2989 RMK AO2 T00570055,M
10U,2025-05-04 08:55,-116.1876,41.9532,1637.00,44.60,44.60,100.00,0.00,0.00,0.00,29.87,M,10.00,M,BKN,OVC,M,M,5000.00,7500.00,M,M,M,M,M,M,M,M,M,44.60,K10U 040855Z AUTO 00000KT 10SM BKN050 OVC075 07/07 A2987 RMK AO2,M
EKO,2025-05-04 08:56,-115.7860,40.8242,1367.00,45.00,43.00,92.65,190.00,5.00,0.00,29.84,1007.50,10.00,M,CLR,M,M,M,M,M,M,M,M,M,M,M,M,M,M,41.83,KEKO 040856Z AUTO 19005KT 10SM CLR 07/06 A2984 RMK AO2 SLP075 60001 T00720061 56014,M
WMC,2025-05-04 08:56,-117.8072,40.9019,1315.00,48.00,47.00,96.31,180.00,3.00,T,29.85,1008.30,10.00,M,BKN,OVC,M,M,3500.00,6500.00,M,M,-RA,M,M,M,M,M,M,46.98,KWMC 040856Z AUTO 18003KT 10SM -RA BKN035 OVC065 09/08 A2985 RMK AO2 RAB29 SLP083 P0000 60001 T00890083 56007,M
HND,2025-05-04 08:56,-115.1344,35.9729,742.79,69.00,36.00,29.65,200.00,13.00,0.00,29.71,1005.20,10.00,M,FEW,SCT,OVC,M,7000.00,8000.00,9500.00,M,M,M,M,M,M,M,M,69.00,KHND 040856Z AUTO 20013KT 10SM FEW070 SCT080 OVC095 21/02 A2971 RMK AO2 LTG DSNT SE SLP052 60000 T02060022 55007 $,M
TPH,2025-05-04 08:56,-117.0904,38.0505,1654.00,46.00,40.00,79.44,320.00,7.00,0.00,29.83,1005.80,10.00,M,FEW,M,M,M,12000.00,M,M,M,M,M,M,M,M,M,M,41.84,KTPH 040856Z AUTO 32007KT 10SM FEW120 08/04 A2983 RMK AO2 SLP058 60013 T00780044 56020 $,M
LAS,2025-05-04 08:56,-115.1634,36.0719,663.00,71.00,36.00,27.69,240.00,13.00,0.00,29.68,1002.80,10.00,20.00,SCT,BKN,M,M,11000.00,20000.00,M,M,M,M,M,M,M,M,M,71.00,KLAS 040856Z 24013G20KT 10SM SCT110 BKN200 22/02 A2968 RMK AO2 LTG DSNT SE AND S SLP028 TS DSNT S T02170022 55007,M
NFL,2025-05-04 08:57,-118.7010,39.4166,1199.00,51.00,47.00,86.12,220.00,3.00,0.00,29.84,1008.20,10.00,M,BKN,OVC,M,M,5000.00,8000.00,M,M,M,M,M,M,M,M,M,51.00,KNFL 040857Z AUTO 22003KT 10SM BKN050 OVC080 11/08 A2984 RMK AO2 SLP082 60001 T01060083 58011,M
LSV,2025-05-04 09:03,-115.0343,36.2362,570.00,69.80,35.60,28.39,210.00,5.00,0.00,29.59,999.70,10.00,M,BKN,M,M,M,11000.00,M,M,M,M,M,M,M,M,M,M,69.80,KLSV 040903Z 21005KT 10SM BKN110 21/02 A2959 RMK LTG DSNT SW SLP997 $,M
BVU,2025-05-04 09:15,-114.8611,35.9475,671.00,64.40,44.60,48.55,240.00,21.00,0.00,29.66,M,5.00,28.00,FEW,SCT,OVC,M,300.00,7000.00,8000.00,M,-RA,M,M,M,M,M,M,64.40,KBVU 040915Z AUTO 24021G28KT 5SM -RA FEW003 SCT070 OVC080 18/07 A2966 RMK AO2,M
TMT,2025-05-04 09:15,-117.1971,39.4643,1749.34,42.30,42.00,98.85,230.00,3.00,0.00,29.87,M,10.00,M,OVC,M,M,M,6500.00,M,M,M,M,M,M,M,M,M,M,40.46,KTMT 040915Z AUTO 23003KT 10SM OVC065 06/06 A2987 RMK AO2 T00570055,M
CXP,2025-05-04 09:15,-119.7326,39.1923,1431.00,48.20,41.00,76.01,200.00,4.00,0.00,29.88,M,8.00,M,FEW,OVC,M,M,2800.00,3600.00,M,M,-RA,M,M,M,M,M,M,46.34,KCXP 040915Z AUTO 20004KT 8SM -RA FEW028 OVC036 09/05 A2988 RMK AO2,M
RTS,2025-05-04 09:15,-119.8764,39.6682,1539.00,46.40,41.00,81.34,290.00,7.00,0.00,29.89,M,10.00,M,SCT,BKN,OVC,M,3000.00,3500.00,4700.00,M,M,M,M,M,M,M,M,42.33,KRTS 040915Z AUTO 29007KT 10SM SCT030 BKN035 OVC047 08/05 A2989 RMK AO2,M
MEV,2025-05-04 09:15,-119.7500,38.9963,1441.42,46.40,44.60,93.40,340.00,7.00,0.00,29.87,M,10.00,M,BKN,OVC,M,M,3400.00,4200.00,M,M,M,M,M,M,M,M,M,42.33,KMEV 040915Z AUTO 34007KT 10SM BKN034 OVC042 08/07 A2987 RMK AO2,M
HTH,2025-05-04 09:15,-118.6315,38.5448,1282.89,51.80,46.40,81.74,230.00,3.00,0.00,29.85,M,10.00,M,OVC,M,M,M,6000.00,M,M,M,M,M,M,M,M,M,M,51.80,KHTH 040915Z AUTO 23003KT 10SM OVC060 11/08 A2985 RMK A01,M
10U,2025-05-04 09:15,-116.1876,41.9532,1637.00,46.40,44.60,93.40,0.00,0.00,0.00,29.86,M,10.00,M,FEW,SCT,BKN,M,2700.00,5000.00,7500.00,M,M,M,M,M,M,M,M,46.40,K10U 040915Z AUTO 00000KT 10SM FEW027 SCT050 BKN075 08/07 A2986 RMK AO2,M
BAM,2025-05-04 09:20,-116.8743,40.5990,1382.36,46.40,46.40,100.00,220.00,3.00,0.00,29.85,M,10.00,M,BKN,M,M,M,5000.00,M,M,M,M,M,M,M,M,M,M,45.15,KBAM 040920Z AUTO 22003KT 10SM BKN050 08/08 A2985 RMK AO1,M
LAS,2025-05-04 09:21,-115.1634,36.0719,663.00,67.00,42.00,40.15,160.00,7.00,0.02,29.73,M,8.00,15.00,FEW,BKN,OVC,M,6500.00,7500.00,9500.00,M,-TSRA,M,M,M,M,M,M,67.00,KLAS 040921Z COR 16007G15KT 100V190 8SM -TSRA FEW065 BKN075 OVC095CB 19/06 A2973 RMK AO2 RAB07 TSB15 CONS LTGICCC OHD-S TS OHD MOV N P0002 T01940056 $,M
LSV,2025-05-04 09:23,-115.0343,36.2362,570.00,71.60,42.80,35.37,240.00,13.00,0.00,29.61,1000.30,10.00,M,OVC,M,M,M,10000.00,M,M,M,-RA,M,M,M,M,M,M,71.60,KLSV 040923Z 24013KT 10SM -RA OVC100 22/06 A2961 RMK LTG DSNT SE RAB22 SLP003 $,M
LSV,2025-05-04 09:32,-115.0343,36.2362,570.00,69.80,46.40,43.13,220.00,29.00,0.00,29.62,1000.70,10.00,33.00,BKN,M,M,M,10000.00,M,M,M,-RA,M,M,M,M,M,M,69.80,KLSV 040932Z 22029G33KT 10SM -RA BKN100 21/08 A2962 RMK LTG DSNT SE SLP007 $,M
BVU,2025-05-04 09:35,-114.8611,35.9475,671.00,64.40,46.40,51.98,220.00,9.00,0.00,29.69,M,10.00,15.00,FEW,FEW,OVC,M,2600.00,3900.00,7000.00,M,-RA,M,M,M,M,M,M,64.40,KBVU 040935Z AUTO 22009G15KT 10SM -RA FEW026 FEW039 OVC070 18/08 A2969 RMK AO2 LTG DSNT E,M
BAM,2025-05-04 09:35,-116.8743,40.5990,1382.36,46.40,46.40,100.00,210.00,3.00,0.00,29.85,M,10.00,M,OVC,M,M,M,5000.00,M,M,M,M,M,M,M,M,M,M,45.15,KBAM 040935Z AUTO 21003KT 10SM OVC050 08/08 A2985 RMK AO1,M
CXP,2025-05-04 09:35,-119.7326,39.1923,1431.00,46.40,42.80,87.19,0.00,0.00,0.00,29.88,M,10.00,M,OVC,M,M,M,3600.00,M,M,M,-RA,M,M,M,M,M,M,46.40,KCXP 040935Z AUTO 00000KT 10SM -RA OVC036 08/06 A2988 RMK AO2,M
RTS,2025-05-04 09:35,-119.8764,39.6682,1539.00,46.40,41.00,81.34,310.00,4.00,0.00,29.89,M,10.00,M,SCT,BKN,OVC,M,2400.00,3300.00,5500.00,M,-DZ,M,M,M,M,M,M,44.24,KRTS 040935Z AUTO 31004KT 10SM -DZ SCT024 BKN033 OVC055 08/05 A2989 RMK AO2,M
MEV,2025-05-04 09:35,-119.7500,38.9963,1441.42,46.40,44.60,93.40,330.00,6.00,0.00,29.86,M,7.00,M,BKN,OVC,M,M,3900.00,4400.00,M,M,-RA,M,M,M,M,M,M,42.87,KMEV 040935Z AUTO 33006KT 7SM -RA BKN039 OVC044 08/07 A2986 RMK AO2,M
HTH,2025-05-04 09:35,-118.6315,38.5448,1282.89,51.80,46.40,81.74,0.00,0.00,0.00,29.84,M,10.00,M,OVC,M,M,M,6000.00,M,M,M,M,M,M,M,M,M,M,51.80,KHTH 040935Z AUTO 00000KT 10SM OVC060 11/08 A2984 RMK A01,M
TMT,2025-05-04 09:35,-117.1971,39.4643,1749.34,42.00,41.50,98.09,200.00,4.00,0.00,29.87,M,10.00,M,BKN,OVC,M,M,6500.00,7000.00,M,M,M,M,M,M,M,M,M,39.10,KTMT 040935Z AUTO 20004KT 10SM BKN065 OVC070 06/05 A2987 RMK AO2 T00560053,M
10U,2025-05-04 09:35,-116.1876,41.9532,1637.00,46.40,44.60,93.40,0.00,0.00,0.00,29.86,M,10.00,M,FEW,BKN,OVC,M,1600.00,2700.00,10000.00,M,M,M,M,M,M,M,M,46.40,K10U 040935Z AUTO 00000KT 10SM FEW016 BKN027 OVC100 08/07 A2986 RMK AO2,M
LSV,2025-05-04 09:37,-115.0343,36.2362,570.00,68.00,44.60,42.85,230.00,23.00,0.00,29.64,1001.60,10.00,33.00,SCT,M,M,M,10000.00,M,M,M,-RA,M,M,M,M,M,M,68.00,KLSV 040937Z 23023G33KT 10SM -RA SCT100 20/07 A2964 RMK LTG DSNT SE AND NW PRESRR SLP016 $,M
EKO,2025-05-04 09:47,-115.7860,40.8242,1367.00,44.00,43.00,96.24,240.00,4.00,0.00,29.84,M,10.00,M,BKN,M,M,M,2200.00,M,M,M,M,M,M,M,M,M,M,41.43,KEKO 040947Z AUTO 24004KT 10SM BKN022 07/06 A2984 RMK AO2 T00670061,M
P68,2025-05-04 09:53,-116.0056,39.6014,1993.00,39.00,38.00,96.16,290.00,4.00,0.00,29.84,1005.70,M,M,M,M,M,M,M,M,M,M,M,M,M,M,M,M,M,35.59,KP68 040953Z AUTO 29004KT 04/03 A2984 RMK AO1 SLP057 T00390033 $,M
DRA,2025-05-04 09:53,-116.0278,36.6206,1009.00,59.00,42.00,53.20,80.00,4.00,0.00,29.70,1001.80,10.00,M,BKN,M,M,M,10000.00,M,M,M,M,M,M,M,M,M,M,59.00,KDRA 040953Z AUTO 08004KT 10SM BKN100 15/06 A2970 RMK AO2 SLP018 T01500056,M
ELY,2025-05-04 09:53,-114.8453,39.2950,1909.00,47.00,35.00,62.84,240.00,5.00,0.00,29.84,1004.10,10.00,M,BKN,M,M,M,10000.00,M,M,M,M,M,M,M,M,M,M,44.21,KELY 040953Z AUTO 24005KT 10SM BKN100 08/02 A2984 RMK AO2 SLP041 T00830017 $,M
VGT,2025-05-04 09:53,-115.1933,36.2111,667.00,66.00,31.00,26.92,190.00,7.00,0.03,29.70,1005.40,10.00,M,OVC,M,M,M,7000.00,M,M,M,-RA,M,M,M,M,M,M,66.00,KVGT 040953Z AUTO 19007KT 10SM -RA OVC070 19/M01 A2970 RMK AO2 RAB26 SLP054 P0003 T01891006,M
LOL,2025-05-04 09:53,-118.5701,40.0684,1192.43,49.00,44.00,82.79,130.00,5.00,0.00,29.83,1008.40,10.00,M,BKN,OVC,M,M,4400.00,7000.00,M,M,M,M,M,M,M,M,M,46.58,KLOL 040953Z AUTO 13005KT 10SM BKN044 OVC070 09/07 A2983 RMK AO2 SLP084 T00940067,M
LSV,2025-05-04 09:55,-115.0343,36.2362,570.00,64.80,48.20,54.86,250.00,13.00,T,29.65,1002.10,10.00,M,BKN,M,M,M,4100.00,M,M,M,-RA,M,M,M,33.00,230.00,2025-05-04 09:31,64.80,KLSV 040955Z 25013KT 10SM -RA BKN041 18/09 A2965 RMK AO2A PK WND 23033/31 RAE0855RAB22 SLP021 P0000 T01820090 $,M
BVU,2025-05-04 09:55,-114.8611,35.9475,671.00,62.60,46.40,55.37,M,4.00,0.00,29.69,M,2.50,12.00,FEW,SCT,OVC,M,2400.00,3100.00,6500.00,M,VCTS RA,M,M,M,M,M,M,62.60,KBVU 040955Z AUTO VRB04G12KT 2 1/2SM VCTS RA FEW024 SCT031 OVC065 17/08 A2969 RMK AO2 LTG DSNT S,M
CXP,2025-05-04 09:55,-119.7326,39.1923,1431.00,46.40,42.80,87.19,0.00,0.00,0.01,29.88,M,10.00,M,BKN,OVC,M,M,3700.00,4300.00,M,M,-RA,M,M,M,M,M,M,46.40,KCXP 040955Z AUTO 00000KT 10SM -RA BKN037 OVC043 08/06 A2988 RMK AO2 P0001,M
INS,2025-05-04 09:55,-115.6733,36.5872,955.00,64.00,40.30,41.73,170.00,8.00,0.00,29.69,1001.80,10.00,M,FEW,SCT,OVC,M,5000.00,6000.00,8500.00,M,M,M,M,M,M,M,M,64.00,KINS 040955Z AUTO 17008KT 10SM FEW050 SCT060 OVC085 18/05 A2969 RMK AO2 SLP018 T01770046 $,M
RNO,2025-05-04 09:55,-119.7711,39.4839,1341.00,50.00,42.00,73.87,270.00,5.00,T,29.86,1007.60,10.00,M,OVC,M,M,M,3500.00,M,M,M,M,M,M,M,M,M,M,50.00,KRNO 040955Z 27005KT 10SM OVC035 10/06 A2986 RMK AO2 RAE08 SLP076 P0000 T01000056 $,M
RTS,2025-05-04 09:55,-119.8764,39.6682,1539.00,46.40,41.00,81.34,330.00,3.00,0.00,29.89,M,10.00,M,BKN,OVC,M,M,2200.00,3300.00,M,M,M,M,M,M,M,M,M,45.15,KRTS 040955Z AUTO 33003KT 10SM BKN022 OVC033 08/05 A2989 RMK AO2,M
MEV,2025-05-04 09:55,-119.7500,38.9963,1441.42,46.40,44.60,93.40,0.00,0.00,0.00,29.86,M,10.00,M,OVC,M,M,M,3600.00,M,M,M,-RA,M,M,M,M,M,M,46.40,KMEV 040955Z AUTO 00000KT 10SM -RA OVC036 08/07 A2986 RMK AO2,M
BAM,2025-05-04 09:55,-116.8743,40.5990,1382.36,48.20,46.40,93.45,0.00,0.00,0.00,29.85,M,10.00,M,OVC,M,M,M,5000.00,M,M,M,M,M,M,M,M,M,M,48.20,KBAM 040955Z AUTO 00000KT 10SM OVC050 09/08 A2985 RMK AO1,M
HTH,2025-05-04 09:55,-118.6315,38.5448,1282.89,51.80,46.40,81.74,0.00,0.00,0.00,29.84,M,10.00,M,BKN,OVC,M,M,6000.00,7000.00,M,M,M,M,M,M,M,M,M,51.80,KHTH 040955Z AUTO 00000KT 10SM BKN060 OVC070 11/08 A2984 RMK A01,M
TMT,2025-05-04 09:55,-117.1971,39.4643,1749.34,42.40,42.00,98.47,220.00,5.00,0.00,29.87,M,10.00,M,SCT,OVC,M,M,3800.00,5500.00,M,M,M,M,M,M,M,M,M,38.75,KTMT 040955Z AUTO 22005KT 10SM SCT038 OVC055 06/06 A2987 RMK AO2 T00580055,M
10U,2025-05-04 09:55,-116.1876,41.9532,1637.00,46.40,44.60,93.40,230.00,4.00,0.00,29.87,M,10.00,M,SCT,OVC,M,M,1900.00,2900.00,M,M,M,M,M,M,M,M,M,44.24,K10U 040955Z AUTO 23004KT 10SM SCT019 OVC029 08/07 A2987 RMK AO2,M
WMC,2025-05-04 09:56,-117.8072,40.9019,1315.00,48.00,47.00,96.31,0.00,0.00,0.01,29.84,1007.80,10.00,M,OVC,M,M,M,4500.00,M,M,M,M,M,M,M,M,M,M,48.00,KWMC 040956Z AUTO 00000KT 10SM OVC045 09/08 A2984 RMK AO2 RAE33 SLP078 P0001 T00890083,M
EKO,2025-05-04 09:56,-115.7860,40.8242,1367.00,43.00,42.00,96.23,240.00,3.00,0.00,29.84,1007.40,10.00,M,SCT,M,M,M,2100.00,M,M,M,M,M,M,M,M,M,M,41.26,KEKO 040956Z AUTO 24003KT 10SM SCT021 06/06 A2984 RMK AO2 SLP074 T00610056,M
HND,2025-05-04 09:56,-115.1344,35.9729,742.79,62.00,48.00,60.07,90.00,6.00,0.01,29.72,1006.00,10.00,M,SCT,BKN,M,M,7000.00,11000.00,M,M,M,M,M,M,26.00,190.00,2025-05-04 09:05,62.00,KHND 040956Z AUTO 09006KT 10SM SCT070 BKN110 17/09 A2972 RMK AO2 PK WND 19026/0905 LTG DSNT E RAB01E56 SLP060 P0001 T01670089 $,M
TPH,2025-05-04 09:56,-117.0904,38.0505,1654.00,45.00,41.00,85.77,350.00,9.00,0.00,29.81,1005.40,10.00,M,BKN,M,M,M,11000.00,M,M,M,M,M,M,M,M,M,M,39.68,KTPH 040956Z AUTO 35009KT 10SM BKN110 07/05 A2981 RMK AO2 SLP054 T00720050 $,M
LAS,2025-05-04 09:56,-115.1634,36.0719,663.00,65.00,47.00,52.07,140.00,3.00,0.03,29.74,1005.20,8.00,M,FEW,BKN,OVC,M,6500.00,7500.00,9500.00,M,-TSRA,M,M,M,M,M,M,65.00,KLAS 040956Z 14003KT 8SM -TSRA FEW065 BKN075 OVC095CB 18/08 A2974 RMK AO2 RAB07 TSB15 SLP052 CONS LTGICCC OHD-S TS OHD MOV N P0003 T01830083 $,M
NFL,2025-05-04 09:57,-118.7010,39.4166,1199.00,50.00,47.00,89.37,0.00,0.00,0.00,29.83,1007.70,10.00,M,OVC,M,M,M,5000.00,M,M,M,M,M,M,M,M,M,M,50.00,KNFL 040957Z AUTO 00000KT 10SM OVC050 10/08 A2983 RMK AO2 SLP077 T01000083,M
INS,2025-05-04 09:58,-115.6733,36.5872,955.00,64.40,39.20,39.43,160.00,10.00,0.00,29.69,1001.80,10.00,M,SCT,BKN,OVC,M,5000.00,6000.00,8500.00,M,-DZ,M,M,M,M,M,M,64.40,KINS 040958Z AUTO 16010KT 10SM -DZ SCT050 BKN060 OVC085 18/04 A2969 RMK AO2 DZB58 SLP018 $,M
LAS,2025-05-04 10:04,-115.1634,36.0719,663.00,66.00,43.00,43.20,90.00,4.00,0.02,29.73,M,7.00,M,FEW,OVC,M,M,6500.00,8000.00,M,M,-RA,M,M,M,M,M,M,66.00,KLAS 041004Z 09004KT 7SM -RA FEW065 OVC080 19/06 A2973 RMK AO2 TSE0958 LTG DSNT N TS DSNT NE P0002 T01890061 $,M
INS,2025-05-04 10:09,-115.6733,36.5872,955.00,64.40,41.00,42.28,130.00,13.00,0.00,29.70,1002.10,10.00,20.00,FEW,SCT,BKN,OVC,2500.00,5000.00,7000.00,8500.00,-RA,M,M,M,M,M,M,64.40,KINS 041009Z AUTO 13013G20KT 10SM -RA FEW025 SCT050 BKN070 OVC085 18/05 A2970 RMK AO2 WSHFT 00 DZE0955DZB0958E00RAB00 SLP021 $,M
INS,2025-05-04 10:10,-115.6733,36.5872,955.00,62.60,42.80,48.28,80.00,10.00,0.00,29.70,1002.10,10.00,20.00,FEW,FEW,BKN,OVC,1100.00,2500.00,5500.00,7000.00,-RA,M,M,M,M,M,M,62.60,KINS 041010Z AUTO 08010G20KT 10SM -RA FEW011 FEW025 BKN055 OVC070 17/06 A2970 RMK AO2 WSHFT 09 RAE0955DZB0958E00RAB00 SLP021 $,M
BVU,2025-05-04 10:15,-114.8611,35.9475,671.00,60.80,48.20,63.15,20.00,28.00,0.00,29.61,M,4.00,34.00,FEW,BKN,OVC,M,600.00,2800.00,6500.00,M,-RA,M,M,M,M,M,M,60.80,KBVU 041015Z AUTO 02028G34KT 4SM -RA FEW006 BKN028 OVC065 16/09 A2961 RMK AO2,M
CXP,2025-05-04 10:15,-119.7326,39.1923,1431.00,48.20,41.00,76.01,M,4.00,0.00,29.87,M,10.00,M,SCT,OVC,M,M,2900.00,3800.00,M,M,M,M,M,M,M,M,M,46.34,KCXP 041015Z AUTO VRB04KT 10SM SCT029 OVC038 09/05 A2987 RMK AO2,M
RTS,2025-05-04 10:15,-119.8764,39.6682,1539.00,46.40,41.00,81.34,320.00,4.00,0.00,29.88,M,10.00,M,BKN,BKN,OVC,M,2200.00,2700.00,3400.00,M,M,M,M,M,M,M,M,44.24,KRTS 041015Z AUTO 32004KT 10SM BKN022 BKN027 OVC034 08/05 A2988 RMK AO2,M
MEV,2025-05-04 10:15,-119.7500,38.9963,1441.42,46.40,42.80,87.19,310.00,4.00,0.00,29.86,M,10.00,M,OVC,M,M,M,3700.00,M,M,M,M,M,M,M,M,M,M,44.24,KMEV 041015Z AUTO 31004KT 10SM OVC037 08/06 A2986 RMK AO2,M
BAM,2025-05-04 10:15,-116.8743,40.5990,1382.36,46.40,44.60,93.40,120.00,3.00,0.00,29.85,M,10.00,M,BKN,OVC,M,M,5000.00,8000.00,M,M,M,M,M,M,M,M,M,45.15,KBAM 041015Z AUTO 12003KT 10SM BKN050 OVC080 08/07 A2985 RMK AO1,M
HTH,2025-05-04 10:15,-118.6315,38.5448,1282.89,51.80,44.60,76.34,0.00,0.00,0.00,29.84,M,10.00,M,OVC,M,M,M,7000.00,M,M,M,M,M,M,M,M,M,M,51.80,KHTH 041015Z AUTO 00000KT 10SM OVC070 11/07 A2984 RMK A01,M
TMT,2025-05-04 10:15,-117.1971,39.4643,1749.34,42.00,41.00,96.21,190.00,4.00,0.00,29.87,M,10.00,M,BKN,OVC,M,M,3300.00,3900.00,M,M,M,M,M,M,M,M,M,39.10,KTMT 041015Z AUTO 19004KT 10SM BKN033 OVC039 06/05 A2987 RMK AO2 T00560051,M
10U,2025-05-04 10:15,-116.1876,41.9532,1637.00,46.40,44.60,93.40,300.00,3.00,0.00,29.86,M,10.00,M,FEW,OVC,M,M,1900.00,2700.00,M,M,M,M,M,M,M,M,M,45.15,K10U 041015Z AUTO 30003KT 10SM FEW019 OVC027 08/07 A2986 RMK AO2,M
INS,2025-05-04 10:25,-115.6733,36.5872,955.00,60.80,44.60,55.12,190.00,3.00,0.00,29.71,1002.70,10.00,M,FEW,FEW,FEW,BKN,1400.00,2600.00,4800.00,6500.00,M,M,M,M,M,M,M,60.80,KINS 041025Z AUTO 19003KT 10SM FEW014 FEW026 FEW048 BKN065 OVC090 16/07 A2971 RMK AO2 RAE0955DZB0958E00RAB00E23DZB23E25 SLP027 $,M
RTS,2025-05-04 10:25,-119.8764,39.6682,1539.00,46.40,41.00,81.34,330.00,7.00,0.00,29.88,M,10.00,M,OVC,M,M,M,2400.00,M,M,M,M,M,M,M,M,M,M,42.33,KRTS 041025Z AUTO 33007KT 10SM OVC024 08/05 A2988 RMK AO2,M
MEV,2025-05-04 10:25,-119.7500,38.9963,1441.42,46.40,42.80,87.19,320.00,3.00,0.00,29.86,M,10.00,M,OVC,M,M,M,3800.00,M,M,M,M,M,M,M,M,M,M,45.15,KMEV 041025Z AUTO 32003KT 10SM OVC038 08/06 A2986 RMK AO2,M
LSV,2025-05-04 10:26,-115.0343,36.2362,570.00,62.60,50.00,63.38,290.00,7.00,0.00,29.66,1002.40,10.00,M,BKN,M,M,M,6000.00,M,M,M,M,M,M,M,M,M,M,62.60,KLSV 041026Z 29007KT 10SM BKN060 17/10 A2966 RMK AO2A RAE26 SLP024 $,M
WMC,2025-05-04 10:32,-117.8072,40.9019,1315.00,48.00,47.00,96.31,0.00,0.00,0.00,29.84,M,10.00,M,FEW,OVC,M,M,500.00,4400.00,M,M,M,M,M,M,M,M,M,48.00,KWMC 041032Z AUTO 00000KT 10SM FEW005 OVC044 09/08 A2984 RMK AO2 T00890083,M
LSV,2025-05-04 10:32,-115.0343,36.2362,570.00,64.40,50.00,59.50,310.00,6.00,0.00,29.66,1002.40,9.00,M,CLR,M,M,M,M,M,M,M,-RA,M,M,M,M,M,M,64.40,KLSV 041032Z AUTO 31006KT 9SM -RA CLR 18/10 A2966 RMK AO2 RAB0955E26RAB32 SLP024 $,M
BVU,2025-05-04 10:35,-114.8611,35.9475,671.00,62.60,46.40,55.37,350.00,13.00,0.00,29.63,M,10.00,27.00,FEW,SCT,BKN,M,400.00,1700.00,3400.00,M,M,M,M,M,M,M,M,62.60,KBVU 041035Z AUTO 35013G27KT 10SM FEW004 SCT017 BKN034 17/08 A2963 RMK AO2,M
BAM,2025-05-04 10:35,-116.8743,40.5990,1382.36,46.40,44.60,93.40,0.00,0.00,0.00,29.84,M,10.00,M,SCT,SCT,BKN,M,2100.00,5000.00,8000.00,M,M,M,M,M,M,M,M,46.40,KBAM 041035Z AUTO 00000KT 10SM SCT021 SCT050 BKN080 08/07 A2984 RMK AO1,M
CXP,2025-05-04 10:35,-119.7326,39.1923,1431.00,48.20,41.00,76.01,0.00,0.00,0.00,29.87,M,10.00,M,BKN,OVC,M,M,2900.00,3500.00,M,M,M,M,M,M,M,M,M,48.20,KCXP 041035Z AUTO 00000KT 10SM BKN029 OVC035 09/05 A2987 RMK AO2,M
HTH,2025-05-04 10:35,-118.6315,38.5448,1282.89,51.80,46.40,81.74,300.00,4.00,0.00,29.83,M,10.00,M,BKN,BKN,M,M,7500.00,11000.00,M,M,M,M,M,M,M,M,M,51.80,KHTH 041035Z AUTO 30004KT 10SM BKN075 BKN110 11/08 A2983 RMK A01,M
TMT,2025-05-04 10:35,-117.1971,39.4643,1749.34,42.00,41.00,96.21,190.00,4.00,0.00,29.87,M,10.00,M,SCT,OVC,M,M,1400.00,2900.00,M,M,-RA,M,M,M,M,M,M,39.10,KTMT 041035Z AUTO 19004KT 10SM -RA SCT014 OVC029 06/05 A2987 RMK AO2 T00550051,M
10U,2025-05-04 10:35,-116.1876,41.9532,1637.00,46.40,44.60,93.40,0.00,0.00,0.00,29.85,M,10.00,M,OVC,M,M,M,2700.00,M,M,M,M,M,M,M,M,M,M,46.40,K10U 041035Z AUTO 00000KT 10SM OVC027 08/07 A2985 RMK AO2,M
LSV,2025-05-04 10:38,-115.0343,36.2362,570.00,64.40,50.00,59.50,20.00,4.00,0.00,29.65,1002.10,9.00,M,CLR,M,M,M,M,M,M,M,M,M,M,M,M,M,M,64.40,KLSV 041038Z AUTO 02004KT 9SM CLR 18/10 A2965 RMK AO2 RAB0955E26RAB32E38 SLP021 $,M
LSV,2025-05-04 10:43,-115.0343,36.2362,570.00,64.40,48.20,55.63,0.00,0.00,0.00,29.65,1002.10,10.00,M,CLR,M,M,M,M,M,M,M,-RA,M,M,M,M,M,M,64.40,KLSV 041043Z 00000KT 10SM -RA CLR 18/09 A2965 RMK AO2A RAE26RAB32E38RAB43 SLP021 $,M
WMC,2025-05-04 10:46,-117.8072,40.9019,1315.00,48.00,47.00,96.31,0.00,0.00,0.00,29.84,M,10.00,M,FEW,BKN,OVC,M,600.00,1500.00,4300.00,M,M,M,M,M,M,M,M,48.00,KWMC 041046Z AUTO 00000KT 10SM FEW006 BKN015 OVC043 09/08 A2984 RMK AO2 T00890083,M
LSV,2025-05-04 10:49,-115.0343,36.2362,570.00,64.40,50.00,59.50,10.00,15.00,0.00,29.65,1002.10,10.00,20.00,CLR,M,M,M,M,M,M,M,M,M,M,M,M,M,M,64.40,KLSV 041049Z 01015G20KT 10SM CLR 18/10 A2965 RMK AO2A RAE26RAB32E38RAB43E49 SLP021 $,M
P68,2025-05-04 10:53,-116.0056,39.6014,1993.00,39.00,39.00,100.00,0.00,0.00,0.00,29.83,1004.90,M,M,M,M,M,M,M,M,M,M,M,M,M,M,M,M,M,39.00,KP68 041053Z AUTO 00000KT 04/04 A2983 RMK AO1 SLP049 T00390039 $,M
DRA,2025-05-04 10:53,-116.0278,36.6206,1009.00,58.00,43.00,57.30,30.00,4.00,0.00,29.68,1001.60,10.00,M,SCT,SCT,M,M,9500.00,12000.00,M,M,M,M,M,M,M,M,M,58.00,KDRA 041053Z AUTO 03004KT 10SM SCT095 SCT120 14/06 A2968 RMK AO2 SLP016 T01440061,M
ELY,2025-05-04 10:53,-114.8453,39.2950,1909.00,45.00,35.00,67.78,170.00,4.00,0.00,29.83,1003.60,10.00,M,BKN,OVC,M,M,9000.00,11000.00,M,M,M,M,M,M,M,M,M,42.60,KELY 041053Z AUTO 17004KT 10SM BKN090 OVC110 07/02 A2983 RMK AO2 SLP036 T00720017 $,M
VGT,2025-05-04 10:53,-115.1933,36.2111,667.00,61.00,31.00,32.08,30.00,10.00,0.04,29.67,1004.80,10.00,M,SCT,OVC,M,M,8000.00,9500.00,M,M,-RA,M,M,M,M,M,M,61.00,KVGT 041053Z AUTO 03010KT 10SM -RA SCT080 OVC095 16/M01 A2967 RMK AO2 SLP048 P0004 T01611006,M
LOL,2025-05-04 10:53,-118.5701,40.0684,1192.43,49.00,45.00,86.00,0.00,0.00,0.00,29.82,1008.30,10.00,M,OVC,M,M,M,4200.00,M,M,M,M,M,M,M,M,M,M,49.00,KLOL 041053Z AUTO 00000KT 10SM OVC042 09/07 A2982 RMK AO2 SLP083 T00940072,M
CXP,2025-05-04 10:55,-119.7326,39.1923,1431.00,48.20,41.00,76.01,0.00,0.00,0.00,29.87,M,10.00,M,BKN,OVC,M,M,3000.00,3500.00,M,M,M,M,M,M,M,M,M,48.20,KCXP 041055Z AUTO 00000KT 10SM BKN030 OVC035 09/05 A2987 RMK AO2,M
RTS,2025-05-04 10:55,-119.8764,39.6682,1539.00,46.40,41.00,81.34,340.00,7.00,0.00,29.88,M,10.00,M,SCT,OVC,M,M,2500.00,3000.00,M,M,M,M,M,M,M,M,M,42.33,KRTS 041055Z AUTO 34007KT 10SM SCT025 OVC030 08/05 A2988 RMK AO2,M
MEV,2025-05-04 10:55,-119.7500,38.9963,1441.42,46.40,42.80,87.19,0.00,0.00,0.00,29.85,M,10.00,M,OVC,M,M,M,3600.00,M,M,M,M,M,M,M,M,M,M,46.40,KMEV 041055Z AUTO 00000KT 10SM OVC036 08/06 A2985 RMK AO2,M
HTH,2025-05-04 10:55,-118.6315,38.5448,1282.89,50.00,46.40,87.37,300.00,4.00,0.00,29.83,M,10.00,M,BKN,BKN,OVC,M,4400.00,5000.00,7500.00,M,M,M,M,M,M,M,M,50.00,KHTH 041055Z AUTO 30004KT 10SM BKN044 BKN050 OVC075 10/08 A2983 RMK A01,M
TMT,2025-05-04 10:55,-117.1971,39.4643,1749.34,41.50,41.00,98.09,180.00,4.00,0.00,29.87,M,10.00,M,OVC,M,M,M,2900.00,M,M,M,-RA,M,M,M,M,M,M,38.51,KTMT 041055Z AUTO 18004KT 10SM -RA OVC029 05/05 A2987 RMK AO2 T00530050,M
10U,2025-05-04 10:55,-116.1876,41.9532,1637.00,46.40,44.60,93.40,0.00,0.00,0.00,29.85,M,10.00,M,BKN,OVC,M,M,2700.00,6000.00,M,M,M,M,M,M,M,M,M,46.40,K10U 041055Z AUTO 00000KT 10SM BKN027 OVC060 08/07 A2985 RMK AO2,M
LSV,2025-05-04 10:55,-115.0343,36.2362,570.00,62.20,51.00,66.71,90.00,9.00,0.06,29.67,1002.90,10.00,20.00,CLR,M,M,M,M,M,M,M,M,M,M,M,M,M,M,62.20,KLSV 041055Z 09009G20KT 10SM CLR 17/11 A2967 RMK AO2A RAB0955E26RAB32E38RAB43E49 PRESRR SLP029 P0006 T01680106 $,M
BVU,2025-05-04 10:55,-114.8611,35.9475,671.00,64.40,44.60,48.55,340.00,5.00,0.00,29.64,M,10.00,14.00,FEW,FEW,M,M,1600.00,12000.00,M,M,M,M,M,M,M,M,M,64.40,KBVU 041055Z AUTO 34005G14KT 10SM FEW016 FEW120 18/07 A2964 RMK AO2,M
INS,2025-05-04 10:55,-115.6733,36.5872,955.00,59.50,46.60,62.28,80.00,10.00,0.01,29.72,1003.00,10.00,M,FEW,OVC,M,M,7000.00,9000.00,M,M,M,M,M,M,M,M,M,59.50,KINS 041055Z AUTO 08010KT 10SM FEW070 OVC090 15/08 A2972 RMK AO2 DZB0958E00RAB00E23DZB23E25 SLP030 P0001 T01530081 $,M
RNO,2025-05-04 10:55,-119.7711,39.4839,1341.00,50.00,42.00,73.87,300.00,4.00,0.00,29.85,1007.50,10.00,M,OVC,M,M,M,3100.00,M,M,M,M,M,M,M,M,M,M,50.00,KRNO 041055Z 30004KT 10SM OVC031 10/06 A2985 RMK AO2 SLP075 T01000056 $,M
BAM,2025-05-04 10:55,-116.8743,40.5990,1382.36,46.40,44.60,93.40,0.00,0.00,0.00,29.84,M,10.00,M,SCT,SCT,M,M,3000.00,8000.00,M,M,M,M,M,M,M,M,M,46.40,KBAM 041055Z AUTO 00000KT 10SM SCT030 SCT080 08/07 A2984 RMK AO1,M
EKO,2025-05-04 10:56,-115.7860,40.8242,1367.00,42.00,42.00,100.00,190.00,3.00,0.00,29.82,1007.00,10.00,M,FEW,M,M,M,11000.00,M,M,M,M,M,M,M,M,M,M,40.12,KEKO 041056Z AUTO 19003KT 10SM FEW110 06/06 A2982 RMK AO2 SLP070 T00560056,M
WMC,2025-05-04 10:56,-117.8072,40.9019,1315.00,48.00,47.00,96.31,290.00,3.00,0.00,29.84,1008.60,10.00,M,BKN,OVC,M,M,1400.00,2000.00,M,M,M,M,M,M,M,M,M,46.98,KWMC 041056Z AUTO 29003KT 10SM BKN014 OVC020 09/08 A2984 RMK AO2 SLP086 T00890083,M
HND,2025-05-04 10:56,-115.1344,35.9729,742.79,62.00,50.00,64.73,330.00,3.00,0.01,29.69,1005.10,10.00,M,FEW,M,M,M,5000.00,M,M,M,M,M,M,M,M,M,M,62.00,KHND 041056Z AUTO 33003KT 10SM FEW050 17/10 A2969 RMK AO2 RAB07E49 SLP051 P0001 T01670100 $,M
TPH,2025-05-04 10:56,-117.0904,38.0505,1654.00,44.00,41.00,89.11,310.00,5.00,0.00,29.80,1005.20,10.00,M,CLR,M,M,M,M,M,M,M,M,M,M,M,M,M,M,40.65,KTPH 041056Z AUTO 31005KT 10SM CLR 07/05 A2980 RMK AO2 SLP052 T00670050 $,M
LAS,2025-05-04 10:56,-115.1634,36.0719,663.00,63.00,49.00,60.20,350.00,7.00,0.02,29.69,1003.70,10.00,M,SCT,BKN,OVC,M,6000.00,9000.00,12000.00,M,M,M,M,M,M,M,M,63.00,KLAS 041056Z 35007KT 10SM SCT060 BKN090 OVC120 17/09 A2969 RMK AO2 RAE13 TSE0958 SLP037 P0002 T01720094 $,M
NFL,2025-05-04 10:57,-118.7010,39.4166,1199.00,50.00,47.00,89.37,0.00,0.00,0.00,29.82,1007.40,10.00,M,OVC,M,M,M,7500.00,M,M,M,M,M,M,M,M,M,M,50.00,KNFL 041057Z AUTO 00000KT 10SM OVC075 10/08 A2982 RMK AO2 SLP074 T01000083,M
INS,2025-05-04 10:58,-115.6733,36.5872,955.00,59.00,46.40,62.92,90.00,18.00,0.00,29.72,1003.00,10.00,22.00,SCT,OVC,M,M,6500.00,9000.00,M,M,-DZ,M,M,M,M,M,M,59.00,KINS 041058Z AUTO 09018G22KT 10SM -DZ SCT065 OVC090 15/08 A2972 RMK AO2 DZB58 SLP030 $,M
CXP,2025-05-04 11:10,-119.7326,39.1923,1431.00,48.20,41.00,76.01,0.00,0.00,0.00,29.86,M,10.00,M,BKN,OVC,M,M,3000.00,3400.00,M,M,UP,M,M,M,M,M,M,48.20,KCXP 041110Z AUTO 00000KT 10SM UP BKN030 OVC034 09/05 A2986 RMK AO2,M
WMC,2025-05-04 11:11,-117.8072,40.9019,1315.00,48.00,47.00,96.31,250.00,5.00,0.00,29.84,M,10.00,M,BKN,OVC,M,M,1800.00,2200.00,M,M,M,M,M,M,M,M,M,45.40,KWMC 041111Z AUTO 25005KT 10SM BKN018 OVC022 09/08 A2984 RMK AO2 T00890083,M
INS,2025-05-04 11:14,-115.6733,36.5872,955.00,57.20,46.40,67.12,70.00,15.00,0.00,29.72,1003.20,10.00,M,FEW,SCT,OVC,M,4700.00,6000.00,8000.00,M,M,M,M,M,M,M,M,57.20,KINS 041114Z AUTO 07015KT 10SM FEW047 SCT060 OVC080 14/08 A2972 RMK AO2 DZE1055DZB1058E00RAB00E10DZB10E14 SLP032 $,M
LSV,2025-05-04 11:14,-115.0343,36.2362,570.00,60.80,51.80,72.20,10.00,14.00,0.00,29.59,1000.10,10.00,23.00,CLR,M,M,M,M,M,M,M,M,M,M,M,M,M,M,60.80,KLSV 041114Z 01014G23KT 10SM CLR 16/11 A2959 RMK AO2A WSHFT 02 PRESFR SLP001 $,M
BVU,2025-05-04 11:15,-114.8611,35.9475,671.00,64.40,42.80,45.32,50.00,7.00,0.00,29.65,M,10.00,M,SCT,BKN,M,M,9500.00,11000.00,M,M,M,M,M,M,M,M,M,64.40,KBVU 041115Z AUTO 05007KT 020V080 10SM SCT095 BKN110 18/06 A2965 RMK AO2,M
BAM,2025-05-04 11:15,-116.8743,40.5990,1382.36,46.40,44.60,93.40,0.00,0.00,0.00,29.84,M,10.00,M,BKN,M,M,M,3000.00,M,M,M,M,M,M,M,M,M,M,46.40,KBAM 041115Z AUTO 00000KT 10SM BKN030 08/07 A2984 RMK AO1,M
RTS,2025-05-04 11:15,-119.8764,39.6682,1539.00,46.40,41.00,81.34,330.00,8.00,0.00,29.87,M,10.00,M,OVC,M,M,M,3000.00,M,M,M,M,M,M,M,M,M,M,41.85,KRTS 041115Z AUTO 33008KT 10SM OVC030 08/05 A2987 RMK AO2,M
MEV,2025-05-04 11:15,-119.7500,38.9963,1441.42,46.40,42.80,87.19,350.00,4.00,0.00,29.85,M,9.00,M,FEW,OVC,M,M,1200.00,3500.00,M,M,-RA,M,M,M,M,M,M,44.24,KMEV 041115Z AUTO 35004KT 9SM -RA FEW012 OVC035 08/06 A2985 RMK AO2,M
HTH,2025-05-04 11:15,-118.6315,38.5448,1282.89,50.00,44.60,81.61,310.00,5.00,0.00,29.83,M,10.00,M,BKN,OVC,M,M,4300.00,4800.00,M,M,M,M,M,M,M,M,M,50.00,KHTH 041115Z AUTO 31005KT 10SM BKN043 OVC048 10/07 A2983 RMK A01,M
TMT,2025-05-04 11:15,-117.1971,39.4643,1749.34,41.40,41.00,98.46,180.00,5.00,0.00,29.86,M,7.00,M,SCT,OVC,M,M,3200.00,3900.00,M,M,-RA,M,M,M,M,M,M,37.56,KTMT 041115Z AUTO 18005KT 7SM -RA SCT032 OVC039 05/05 A2986 RMK AO2 T00520050,M
10U,2025-05-04 11:15,-116.1876,41.9532,1637.00,44.60,44.60,100.00,110.00,4.00,0.00,29.85,M,10.00,M,OVC,M,M,M,2700.00,M,M,M,M,M,M,M,M,M,M,42.13,K10U 041115Z AUTO 11004KT 10SM OVC027 07/07 A2985 RMK AO2,M
INS,2025-05-04 11:16,-115.6733,36.5872,955.00,57.20,46.40,67.12,70.00,14.00,0.00,29.72,1003.20,10.00,M,FEW,SCT,OVC,M,4700.00,6000.00,8500.00,M,-DZ,M,M,M,M,M,M,57.20,KINS 041116Z AUTO 07014KT 10SM -DZ FEW047 SCT060 OVC085 14/08 A2972 RMK AO2 DZB1058E00RAB00E10DZB10E14DZB16 SLP032 $,M
LSV,2025-05-04 11:18,-115.0343,36.2362,570.00,62.60,50.00,63.38,280.00,12.00,0.00,29.61,1000.70,10.00,M,CLR,M,M,M,M,M,M,M,M,M,M,M,M,M,M,62.60,KLSV 041118Z AUTO 28012KT 10SM CLR 17/10 A2961 RMK AO2 WSHFT 17 PRESRR SLP007 $,M
LSV,2025-05-04 11:19,-115.0343,36.2362,570.00,62.60,50.00,63.38,M,M,0.00,29.61,1000.70,10.00,M,CLR,M,M,M,M,M,M,M,-RA,M,M,M,M,M,M,62.60,KLSV 041119Z AUTO M 10SM -RA CLR 17/10 A2961 RMK AO2 RAB19 SLP007 $,M
INS,2025-05-04 11:25,-115.6733,36.5872,955.00,57.20,48.20,71.83,70.00,14.00,0.00,29.72,1003.20,10.00,M,FEW,SCT,OVC,M,4700.00,6500.00,8000.00,M,M,M,M,M,M,M,M,57.20,KINS 041125Z AUTO 07014KT 10SM FEW047 SCT065 OVC080 14/09 A2972 RMK AO2 DZE1055DZB1058E00RAB00E10DZB10E14DZB16E25 SLP032 $,M
LSV,2025-05-04 11:26,-115.0343,36.2362,570.00,62.60,48.20,59.26,310.00,10.00,0.00,29.62,1001.00,10.00,M,M,M,M,M,M,M,M,M,M,M,M,M,M,M,M,62.60,KLSV 041126Z 31010KT 10SM M 17/09 A2962 RMK AO2A RAE1055RAB19E23DZB23E26 SLP010 $,M
BVU,2025-05-04 11:35,-114.8611,35.9475,671.00,62.60,48.20,59.26,60.00,4.00,0.00,29.66,M,10.00,M,FEW,OVC,M,M,7500.00,9500.00,M,M,M,M,M,M,M,M,M,62.60,KBVU 041135Z AUTO 06004KT 10SM FEW075 OVC095 17/09 A2966 RMK AO2,M
BAM,2025-05-04 11:35,-116.8743,40.5990,1382.36,46.40,46.40,100.00,0.00,0.00,0.00,29.84,M,10.00,M,BKN,OVC,M,M,3000.00,3400.00,M,M,M,M,M,M,M,M,M,46.40,KBAM 041135Z AUTO 00000KT 10SM BKN030 OVC034 08/08 A2984 RMK AO1,M
CXP,2025-05-04 11:35,-119.7326,39.1923,1431.00,48.20,42.80,81.47,210.00,3.00,0.00,29.86,M,10.00,M,BKN,OVC,M,M,2700.00,3300.00,M,M,M,M,M,M,M,M,M,47.21,KCXP 041135Z AUTO 21003KT 10SM BKN027 OVC033 09/06 A2986 RMK AO2,M
10U,2025-05-04 11:35,-116.1876,41.9532,1637.00,44.60,44.60,100.00,0.00,0.00,0.00,29.84,M,10.00,M,OVC,M,M,M,2700.00,M,M,M,M,M,M,M,M,M,M,44.60,K10U 041135Z AUTO 00000KT 10SM OVC027 07/07 A2984 RMK AO2,M
RTS,2025-05-04 11:35,-119.8764,39.6682,1539.00,44.60,39.20,81.20,340.00,8.00,0.00,29.87,M,10.00,M,OVC,M,M,M,3000.00,M,M,M,M,M,M,M,M,M,M,39.63,KRTS 041135Z AUTO 34008KT 10SM OVC030 07/04 A2987 RMK AO2,M
MEV,2025-05-04 11:35,-119.7500,38.9963,1441.42,46.40,42.80,87.19,0.00,0.00,0.00,29.85,M,10.00,M,BKN,OVC,M,M,3000.00,3600.00,M,M,M,M,M,M,M,M,M,46.40,KMEV 041135Z AUTO 00000KT 10SM BKN030 OVC036 08/06 A2985 RMK AO2,M
HTH,2025-05-04 11:35,-118.6315,38.5448,1282.89,50.00,46.40,87.37,310.00,5.00,0.00,29.83,M,10.00,M,SCT,BKN,M,M,4200.00,4800.00,M,M,M,M,M,M,M,M,M,50.00,KHTH 041135Z AUTO 31005KT 10SM SCT042 BKN048 10/08 A2983 RMK A01,M
TMT,2025-05-04 11:35,-117.1971,39.4643,1749.34,41.40,41.00,98.46,0.00,0.00,0.00,29.85,M,4.00,M,SCT,OVC,M,M,3600.00,4200.00,M,M,-RA,M,M,M,M,M,M,41.40,KTMT 041135Z AUTO 00000KT 4SM -RA SCT036 OVC042 05/05 A2985 RMK AO2 T00520051,M
WMC,2025-05-04 11:48,-117.8072,40.9019,1315.00,48.00,46.00,92.74,340.00,12.00,0.00,29.83,M,10.00,18.00,BKN,BKN,OVC,M,1000.00,1400.00,3900.00,M,M,M,M,M,M,M,M,42.37,KWMC 041148Z AUTO 34012G18KT 10SM BKN010 BKN014 OVC039 09/08 A2983 RMK AO2 CIG 007V012 T00890078,M
INS,2025-05-04 11:50,-115.6733,36.5872,955.00,57.20,48.20,71.83,40.00,6.00,0.00,29.71,1002.90,10.00,M,FEW,BKN,OVC,M,3900.00,7500.00,9000.00,M,-DZ,M,M,M,M,M,M,57.20,KINS 041150Z AUTO 04006KT 10SM -DZ FEW039 BKN075 OVC090 14/09 A2971 RMK AO2 DZB1058E00RAB00E10DZB10E14DZB16E25DZB50 SLP029 $,M
P68,2025-05-04 11:53,-116.0056,39.6014,1993.00,41.00,41.00,100.00,0.00,0.00,0.00,29.83,1006.10,M,M,M,M,M,M,M,M,M,M,M,M,M,M,M,M,M,41.00,KP68 041153Z AUTO 00000KT 05/05 A2983 RMK AO1 SLP061 70016 T00500050 10067 20039 56009 $,M
DRA,2025-05-04 11:53,-116.0278,36.6206,1009.00,60.00,42.00,51.33,100.00,14.00,0.00,29.70,1002.20,10.00,24.00,SCT,SCT,OVC,M,7000.00,9000.00,11000.00,M,M,M,M,M,M,M,M,60.00,KDRA 041153Z AUTO 10014G24KT 10SM SCT070 SCT090 OVC110 16/06 A2970 RMK AO2 SLP022 T01560056 10189 20139 53004,M
ELY,2025-05-04 11:53,-114.8453,39.2950,1909.00,43.00,35.00,73.16,180.00,5.00,0.00,29.82,1003.90,10.00,M,BKN,M,M,M,11000.00,M,M,M,M,M,M,M,M,M,M,39.46,KELY 041153Z AUTO 18005KT 10SM BKN110 06/02 A2982 RMK AO2 SLP039 T00610017 10106 20061 56008 $,M
VGT,2025-05-04 11:53,-115.1933,36.2111,667.00,61.00,30.00,30.80,270.00,9.00,T,29.66,1004.30,10.00,M,SCT,M,M,M,11000.00,M,M,M,M,M,M,M,M,M,M,61.00,KVGT 041153Z AUTO 27009KT 10SM SCT110 16/M01 A2966 RMK AO2 RAE01 SLP043 P0000 60007 70007 T01611011 10233 20161 50009,M
LOL,2025-05-04 11:53,-118.5701,40.0684,1192.43,49.00,45.00,86.00,10.00,4.00,0.00,29.81,1008.20,10.00,M,BKN,OVC,M,M,4500.00,8000.00,M,M,M,M,M,M,M,M,M,47.27,KLOL 041153Z AUTO 01004KT 10SM BKN045 OVC080 09/07 A2981 RMK AO2 SLP082 70008 T00940072 10100 20089 56008,M
BVU,2025-05-04 11:55,-114.8611,35.9475,671.00,60.80,50.00,67.54,10.00,10.00,0.00,29.65,M,10.00,M,FEW,BKN,OVC,M,5500.00,9000.00,11000.00,M,M,M,M,M,M,M,M,60.80,KBVU 041155Z AUTO 01010KT 10SM FEW055 BKN090 OVC110 16/10 A2965 RMK AO2,M
INS,2025-05-04 11:55,-115.6733,36.5872,955.00,57.00,47.70,71.00,30.00,7.00,T,29.71,1002.90,10.00,M,FEW,BKN,OVC,M,3900.00,7500.00,9000.00,M,-DZ,M,M,M,M,M,M,57.00,KINS 041155Z AUTO 03007KT 10SM -DZ FEW039 BKN075 OVC090 14/09 A2971 RMK AO2 DZE1055DZB1058E00RAB00E10DZB10E14DZB16E25DZB50 SLP029 P0000 60001 70007 T01390087 10182 20135 50010 $,M
RNO,2025-05-04 11:55,-119.7711,39.4839,1341.00,50.00,41.00,71.07,330.00,10.00,0.00,29.85,1007.50,10.00,M,OVC,M,M,M,3600.00,M,M,M,M,M,M,M,M,M,M,50.00,KRNO 041155Z 33010KT 10SM OVC036 10/05 A2985 RMK AO2 SLP075 60002 70002 T01000050 10111 20094 56007 $,M
BAM,2025-05-04 11:55,-116.8743,40.5990,1382.36,46.40,46.40,100.00,0.00,0.00,0.00,29.84,M,10.00,M,SCT,OVC,M,M,3000.00,3500.00,M,M,M,M,M,M,M,M,M,46.40,KBAM 041155Z AUTO 00000KT 10SM SCT030 OVC035 08/08 A2984 RMK AO1,M
CXP,2025-05-04 11:55,-119.7326,39.1923,1431.00,48.20,41.00,76.01,0.00,0.00,0.00,29.86,M,10.00,M,OVC,M,M,M,2400.00,M,M,M,M,M,M,M,M,M,M,48.20,KCXP 041155Z AUTO 00000KT 10SM OVC024 09/05 A2986 RMK AO2,M
RTS,2025-05-04 11:55,-119.8764,39.6682,1539.00,44.60,39.20,81.20,340.00,6.00,0.00,29.87,M,10.00,M,OVC,M,M,M,2800.00,M,M,M,M,M,M,M,M,M,M,40.71,KRTS 041155Z AUTO 34006KT 10SM OVC028 07/04 A2987 RMK AO2,M
MEV,2025-05-04 11:55,-119.7500,38.9963,1441.42,46.40,42.80,87.19,320.00,3.00,0.01,29.85,M,4.00,M,FEW,BKN,OVC,M,2700.00,3300.00,3900.00,M,-RA BR,M,M,M,M,M,M,45.15,KMEV 041155Z AUTO 32003KT 4SM -RA BR FEW027 BKN033 OVC039 08/06 A2985 RMK AO2 P0001,M
HTH,2025-05-04 11:55,-118.6315,38.5448,1282.89,50.00,46.40,87.37,300.00,5.00,0.00,29.82,M,10.00,M,OVC,M,M,M,4700.00,M,M,M,M,M,M,M,M,M,M,50.00,KHTH 041155Z AUTO 30005KT 10SM OVC047 10/08 A2982 RMK A01,M
TMT,2025-05-04 11:55,-117.1971,39.4643,1749.34,41.40,41.00,98.46,0.00,0.00,0.00,29.85,M,10.00,M,OVC,M,M,M,3900.00,M,M,M,-RA,M,M,M,M,M,M,41.40,KTMT 041155Z AUTO 00000KT 10SM -RA OVC039 05/05 A2985 RMK AO2 7//// T00520050 10060 20052,M
10U,2025-05-04 11:55,-116.1876,41.9532,1637.00,44.60,44.60,100.00,0.00,0.00,0.00,29.84,M,10.00,M,SCT,OVC,M,M,2700.00,6500.00,M,M,M,M,M,M,M,M,M,44.60,K10U 041155Z AUTO 00000KT 10SM SCT027 OVC065 07/07 A2984 RMK AO2,M
LSV,2025-05-04 11:55,-115.0343,36.2362,570.00,63.00,49.00,60.20,160.00,4.00,T,29.62,1001.00,10.00,M,FEW,FEW,SCT,M,10000.00,12000.00,15000.00,M,M,M,M,M,M,M,M,63.00,KLSV 041155Z AUTO 16004KT 10SM FEW100 FEW120 SCT150 17/09 A2962 RMK AO2 RAB19E23DZB23E26 SLP010 P0000 60006 70006 T01720094 10237 20164 50009 $,M
EKO,2025-05-04 11:56,-115.7860,40.8242,1367.00,42.00,41.00,96.21,0.00,0.00,0.00,29.81,1007.10,10.00,M,CLR,M,M,M,M,M,M,M,M,M,M,M,M,M,M,42.00,KEKO 041156Z AUTO 00000KT 10SM CLR 06/05 A2981 RMK AO2 SLP071 60001 70012 T00560050 10094 20050 58010,M
WMC,2025-05-04 11:56,-117.8072,40.9019,1315.00,47.00,44.00,89.24,340.00,13.00,0.00,29.83,1008.40,10.00,20.00,SCT,OVC,M,M,1000.00,1800.00,M,M,M,M,M,M,M,M,M,40.79,KWMC 041156Z AUTO 34013G20KT 10SM SCT010 OVC018 08/07 A2983 RMK AO2 SLP084 60002 70018 T00830067 10094 20083 56008,M
HND,2025-05-04 11:56,-115.1344,35.9729,742.79,61.00,50.00,67.06,330.00,7.00,0.00,29.71,1005.60,10.00,M,SCT,BKN,OVC,M,7000.00,8500.00,11000.00,M,M,M,M,M,M,M,M,61.00,KHND 041156Z AUTO 33007KT 10SM SCT070 BKN085 OVC110 16/10 A2971 RMK AO2 SLP056 60002 70002 T01610100 10228 20161 50000 $,M
TPH,2025-05-04 11:56,-117.0904,38.0505,1654.00,43.00,40.00,89.06,310.00,9.00,0.00,29.79,1004.90,10.00,M,CLR,M,M,M,M,M,M,M,M,M,M,M,M,M,M,37.19,KTPH 041156Z AUTO 31009KT 10SM CLR 06/04 A2979 RMK AO2 SLP049 60013 70015 T00610044 10083 20061 56013 $,M
LAS,2025-05-04 11:56,-115.1634,36.0719,663.00,62.00,49.00,62.36,290.00,6.00,0.00,29.70,1004.00,10.00,M,SCT,BKN,OVC,M,6000.00,9000.00,12000.00,M,M,M,M,M,M,M,M,62.00,KLAS 041156Z 29006KT 10SM SCT060 BKN090 OVC120 17/09 A2970 RMK AO2 SLP040 60005 70008 T01670094 10228 20167 51009 $,M
NFL,2025-05-04 11:57,-118.7010,39.4166,1199.00,50.00,47.00,89.37,330.00,4.00,0.00,29.81,1007.10,10.00,M,OVC,M,M,M,8000.00,M,M,M,M,M,M,M,M,M,M,50.00,KNFL 041157Z AUTO 33004KT 10SM OVC080 10/08 A2981 RMK AO2 SLP071 60001 70008 T01000083 10106 20100 56011,M
INS,2025-05-04 11:59,-115.6733,36.5872,955.00,57.20,46.40,67.12,10.00,6.00,0.00,29.71,1002.90,10.00,M,FEW,BKN,OVC,M,3900.00,7500.00,9000.00,M,M,M,M,M,M,M,M,57.20,KINS 041159Z AUTO 01006KT 10SM FEW039 BKN075 OVC090 14/08 A2971 RMK AO2 DZE59 SLP029 $,M
CXP,2025-05-04 12:10,-119.7326,39.1923,1431.00,48.20,41.00,76.01,0.00,0.00,0.00,29.85,M,10.00,M,BKN,OVC,M,M,2400.00,3000.00,M,M,M,M,M,M,M,M,M,48.20,KCXP 041210Z AUTO 00000KT 10SM BKN024 OVC030 09/05 A2985 RMK AO2,M
BVU,2025-05-04 12:15,-114.8611,35.9475,671.00,60.80,51.80,72.20,20.00,7.00,0.00,29.66,M,10.00,M,SCT,BKN,OVC,M,8000.00,10000.00,12000.00,M,M,M,M,M,M,M,M,60.80,KBVU 041215Z AUTO 02007KT 10SM SCT080 BKN100 OVC120 16/11 A2966 RMK AO2,M
BAM,2025-05-04 12:15,-116.8743,40.5990,1382.36,46.40,46.40,100.00,230.00,3.00,0.00,29.83,M,10.00,M,BKN,OVC,M,M,2800.00,3700.00,M,M,M,M,M,M,M,M,M,45.15,KBAM 041215Z AUTO 23003KT 10SM BKN028 OVC037 08/08 A2983 RMK AO1,M
RTS,2025-05-04 12:15,-119.8764,39.6682,1539.00,44.60,39.20,81.20,330.00,8.00,0.00,29.87,M,10.00,M,OVC,M,M,M,2800.00,M,M,M,M,M,M,M,M,M,M,39.63,KRTS 041215Z AUTO 33008KT 10SM OVC028 07/04 A2987 RMK AO2,M
MEV,2025-05-04 12:15,-119.7500,38.9963,1441.42,46.40,44.60,93.40,0.00,0.00,0.00,29.84,M,9.00,M,BKN,OVC,M,M,2900.00,3300.00,M,M,-RA,M,M,M,M,M,M,46.40,KMEV 041215Z AUTO 00000KT 9SM -RA BKN029 OVC033 08/07 A2984 RMK AO2,M
HTH,2025-05-04 12:15,-118.6315,38.5448,1282.89,50.00,46.40,87.37,300.00,5.00,0.00,29.82,M,10.00,M,OVC,M,M,M,4600.00,M,M,M,M,M,M,M,M,M,M,50.00,KHTH 041215Z AUTO 30005KT 10SM OVC046 10/08 A2982 RMK A01,M
TMT,2025-05-04 12:15,-117.1971,39.4643,1749.34,41.40,41.00,98.46,0.00,0.00,0.00,29.84,M,10.00,M,SCT,OVC,M,M,300.00,3900.00,M,M,M,M,M,M,M,M,M,41.40,KTMT 041215Z AUTO 00000KT 10SM SCT003 OVC039 05/05 A2984 RMK AO2 T00520051,M
10U,2025-05-04 12:15,-116.1876,41.9532,1637.00,44.60,44.60,100.00,M,3.00,0.00,29.84,M,10.00,M,BKN,OVC,M,M,2500.00,6000.00,M,M,M,M,M,M,M,M,M,43.09,K10U 041215Z AUTO VRB03KT 10SM BKN025 OVC060 07/07 A2984 RMK AO2,M
INS,2025-05-04 12:25,-115.6733,36.5872,955.00,55.40,48.20,76.66,0.00,0.00,0.00,29.72,1003.20,10.00,M,FEW,OVC,M,M,5000.00,7500.00,M,M,-DZ,M,M,M,M,M,M,55.40,KINS 041225Z AUTO 00000KT 10SM -DZ FEW050 OVC075 13/09 A2972 RMK AO2 DZB1155E1159DZB25 SLP032 $,M
WMC,2025-05-04 12:25,-117.8072,40.9019,1315.00,46.00,44.00,92.68,340.00,13.00,0.00,29.82,M,10.00,22.00,FEW,OVC,M,M,2200.00,3000.00,M,M,M,M,M,M,M,M,M,39.50,KWMC 041225Z AUTO 34013G22KT 10SM FEW022 OVC030 08/07 A2982 RMK AO2 T00780067,M
CXP,2025-05-04 12:30,-119.7326,39.1923,1431.00,48.20,41.00,76.01,350.00,9.00,0.00,29.85,M,10.00,M,SCT,OVC,M,M,2500.00,3200.00,M,M,M,M,M,M,M,M,M,43.66,KCXP 041230Z AUTO 35009KT 10SM SCT025 OVC032 09/05 A2985 RMK AO2,M
BVU,2025-05-04 12:35,-114.8611,35.9475,671.00,60.80,50.00,67.54,320.00,4.00,0.00,29.66,M,10.00,M,FEW,OVC,M,M,6000.00,7500.00,M,M,M,M,M,M,M,M,M,60.80,KBVU 041235Z AUTO 32004KT 10SM FEW060 OVC075 16/10 A2966 RMK AO2,M
BAM,2025-05-04 12:35,-116.8743,40.5990,1382.36,46.40,46.40,100.00,240.00,5.00,0.00,29.83,M,10.00,M,OVC,M,M,M,2800.00,M,M,M,M,M,M,M,M,M,M,43.50,KBAM 041235Z AUTO 24005KT 10SM OVC028 08/08 A2983 RMK AO1,M
RTS,2025-05-04 12:35,-119.8764,39.6682,1539.00,44.60,39.20,81.20,340.00,11.00,0.00,29.87,M,10.00,M,OVC,M,M,M,2800.00,M,M,M,M,M,M,M,M,M,M,38.39,KRTS 041235Z AUTO 34011KT 10SM OVC028 07/04 A2987 RMK AO2,M
MEV,2025-05-04 12:35,-119.7500,38.9963,1441.42,46.40,44.60,93.40,220.00,3.00,0.00,29.84,M,8.00,M,SCT,OVC,M,M,2300.00,2800.00,M,M,-RA,M,M,M,M,M,M,45.15,KMEV 041235Z AUTO 22003KT 8SM -RA SCT023 OVC028 08/07 A2984 RMK AO2,M
HTH,2025-05-04 12:35,-118.6315,38.5448,1282.89,50.00,46.40,87.37,320.00,7.00,0.00,29.82,M,10.00,M,OVC,M,M,M,4400.00,M,M,M,M,M,M,M,M,M,M,50.00,KHTH 041235Z AUTO 32007KT 10SM OVC044 10/08 A2982 RMK A01,M
TMT,2025-05-04 12:35,-117.1971,39.4643,1749.34,41.50,41.00,98.09,0.00,0.00,0.00,29.84,M,10.00,M,BKN,OVC,M,M,3700.00,4600.00,M,M,M,M,M,M,M,M,M,41.50,KTMT 041235Z AUTO 00000KT 10SM BKN037 OVC046 05/05 A2984 RMK AO2 T00530050,M
10U,2025-05-04 12:35,-116.1876,41.9532,1637.00,44.60,44.60,100.00,0.00,0.00,0.00,29.84,M,10.00,M,OVC,M,M,M,2400.00,M,M,M,M,M,M,M,M,M,M,44.60,K10U 041235Z AUTO 00000KT 10SM OVC024 07/07 A2984 RMK AO2,M
LSV,2025-05-04 12:37,-115.0343,36.2362,570.00,64.40,48.20,55.63,0.00,0.00,0.00,29.64,1001.70,10.00,M,BKN,M,M,M,9000.00,M,M,M,-RA,M,M,M,M,M,M,64.40,KLSV 041237Z 00000KT 10SM -RA BKN090 18/09 A2964 RMK AO2A RAB37 SLP017 $,M
WMC,2025-05-04 12:38,-117.8072,40.9019,1315.00,46.00,43.00,89.20,340.00,13.00,0.00,29.82,M,10.00,24.00,OVC,M,M,M,2900.00,M,M,M,M,M,M,M,M,M,M,39.50,KWMC 041238Z AUTO 34013G24KT 10SM OVC029 08/06 A2982 RMK AO2 T00780061,M
INS,2025-05-04 12:43,-115.6733,36.5872,955.00,55.40,46.40,71.64,330.00,5.00,0.00,29.72,1003.00,10.00,M,FEW,SCT,SCT,OVC,3100.00,4100.00,5000.00,7000.00,M,M,M,M,M,M,M,55.40,KINS 041243Z AUTO 33005KT 10SM FEW031 SCT041 SCT050 OVC070 13/08 A2972 RMK AO2 DZE1159DZB25E43 SLP030 $,M
MEV,2025-05-04 12:45,-119.7500,38.9963,1441.42,46.40,44.60,93.40,230.00,4.00,0.00,29.84,M,8.00,M,BKN,OVC,M,M,2000.00,2600.00,M,M,-RA,M,M,M,M,M,M,44.24,KMEV 041245Z AUTO 23004KT 8SM -RA BKN020 OVC026 08/07 A2984 RMK AO2,M
RTS,2025-05-04 12:45,-119.8764,39.6682,1539.00,44.60,39.20,81.20,340.00,11.00,0.00,29.87,M,10.00,M,OVC,M,M,M,2800.00,M,M,M,M,M,M,M,M,M,M,38.39,KRTS 041245Z AUTO 34011KT 10SM OVC028 07/04 A2987 RMK AO2,M
LOL,2025-05-04 12:50,-118.5701,40.0684,1192.43,48.20,44.60,87.28,30.00,3.00,0.00,29.81,M,10.00,M,BKN,BKN,OVC,M,2900.00,4000.00,7500.00,M,M,M,M,M,M,M,M,47.21,KLOL 041250Z AUTO 03003KT 10SM BKN029 BKN040 OVC075 09/07 A2981 RMK AO2,M
HTH,2025-05-04 12:50,-118.6315,38.5448,1282.89,50.00,44.60,81.61,320.00,10.00,0.00,29.82,M,10.00,M,BKN,OVC,M,M,4500.00,5500.00,M,M,M,M,M,M,M,M,M,50.00,KHTH 041250Z AUTO 32010KT 10SM BKN045 OVC055 10/07 A2982 RMK A01,M
WMC,2025-05-04 12:51,-117.8072,40.9019,1315.00,44.60,42.80,93.35,350.00,15.00,0.00,29.82,M,10.00,23.00,BKN,OVC,M,M,3000.00,4100.00,M,M,M,M,M,M,M,M,M,37.11,KWMC 041251Z AUTO 35015G23KT 10SM BKN030 OVC041 07/06 A2982 RMK AO2,M
P68,2025-05-04 12:53,-116.0056,39.6014,1993.00,43.00,42.00,96.23,0.00,0.00,0.00,29.82,1005.40,M,M,M,M,M,M,M,M,M,M,M,M,M,M,M,M,M,43.00,KP68 041253Z AUTO 00000KT 06/06 A2982 RMK AO1 SLP054 T00610056 $,M
DRA,2025-05-04 12:53,-116.0278,36.6206,1009.00,58.00,42.00,55.14,70.00,11.00,0.00,29.70,1002.70,10.00,M,OVC,M,M,M,9000.00,M,M,M,M,M,M,M,M,M,M,58.00,KDRA 041253Z AUTO 07011KT 10SM OVC090 14/06 A2970 RMK AO2 SLP027 T01440056,M
ELY,2025-05-04 12:53,-114.8453,39.2950,1909.00,44.00,37.00,76.22,160.00,10.00,T,29.83,1003.90,10.00,M,BKN,OVC,M,M,5000.00,7000.00,M,M,-RA,M,M,M,M,M,M,38.02,KELY 041253Z AUTO 16010KT 10SM -RA BKN050 OVC070 07/03 A2983 RMK AO2 RAB52 SLP039 P0000 T00670028 $,M
VGT,2025-05-04 12:53,-115.1933,36.2111,667.00,62.00,30.00,29.73,350.00,5.00,0.00,29.67,1004.50,10.00,M,OVC,M,M,M,8000.00,M,M,M,M,M,M,M,M,M,M,62.00,KVGT 041253Z AUTO 35005KT 10SM OVC080 17/M01 A2967 RMK AO2 SLP045 T01671011,M
LOL,2025-05-04 12:53,-118.5701,40.0684,1192.43,49.00,45.00,86.00,20.00,3.00,0.00,29.81,1008.20,10.00,M,BKN,BKN,OVC,M,2900.00,4000.00,7500.00,M,M,M,M,M,M,M,M,48.12,KLOL 041253Z AUTO 02003KT 10SM BKN029 BKN040 OVC075 09/07 A2981 RMK AO2 SLP082 T00940072,M
BVU,2025-05-04 12:55,-114.8611,35.9475,671.00,60.80,48.20,63.15,320.00,8.00,0.00,29.65,M,10.00,M,FEW,SCT,BKN,M,4800.00,6000.00,7000.00,M,M,M,M,M,M,M,M,60.80,KBVU 041255Z AUTO 32008KT 10SM FEW048 SCT060 BKN070 16/09 A2965 RMK AO2,M
CXP,2025-05-04 12:55,-119.7326,39.1923,1431.00,48.20,41.00,76.01,340.00,9.00,0.00,29.85,M,10.00,M,SCT,BKN,OVC,M,2300.00,3000.00,3500.00,M,M,M,M,M,M,M,M,43.66,KCXP 041255Z AUTO 34009KT 10SM SCT023 BKN030 OVC035 09/05 A2985 RMK AO2,M
BAM,2025-05-04 12:55,-116.8743,40.5990,1382.36,46.40,46.40,100.00,250.00,3.00,0.00,29.83,M,10.00,M,SCT,OVC,M,M,1600.00,2800.00,M,M,M,M,M,M,M,M,M,45.15,KBAM 041255Z AUTO 25003KT 10SM SCT016 OVC028 08/08 A2983 RMK AO1,M
TMT,2025-05-04 12:55,-117.1971,39.4643,1749.34,41.40,41.00,98.46,40.00,3.00,0.00,29.83,M,10.00,M,SCT,OVC,M,M,3900.00,4600.00,M,M,M,M,M,M,M,M,M,39.43,KTMT 041255Z AUTO 04003KT 10SM SCT039 OVC046 05/05 A2983 RMK AO2 T00520050,M
10U,2025-05-04 12:55,-116.1876,41.9532,1637.00,46.40,44.60,93.40,300.00,4.00,0.00,29.84,M,10.00,M,OVC,M,M,M,2200.00,M,M,M,M,M,M,M,M,M,M,44.24,K10U 041255Z AUTO 30004KT 10SM OVC022 08/07 A2984 RMK AO2,M
RNO,2025-05-04 12:55,-119.7711,39.4839,1341.00,49.00,40.00,70.96,330.00,10.00,0.00,29.84,1007.60,10.00,M,OVC,M,M,M,3500.00,M,M,M,M,M,M,M,M,M,M,44.29,KRNO 041255Z 33010KT 10SM OVC035 09/04 A2984 RMK AO2 SLP076 T00940044 $,M
INS,2025-05-04 12:55,-115.6733,36.5872,955.00,55.20,46.40,72.16,340.00,11.00,T,29.72,1003.20,10.00,M,FEW,BKN,OVC,M,3100.00,6500.00,8500.00,M,M,M,M,M,M,M,M,55.20,KINS 041255Z AUTO 34011KT 10SM FEW031 BKN065 OVC085 13/08 A2972 RMK AO2 DZB1155E1159DZB25E43 SLP032 P0000 T01290080 $,M
LSV,2025-05-04 12:55,-115.0343,36.2362,570.00,62.40,51.30,66.98,50.00,3.00,T,29.63,1001.40,10.00,M,FEW,FEW,M,M,8000.00,10000.00,M,M,-DZ,M,M,M,M,M,M,62.40,KLSV 041255Z 05003KT 10SM -DZ FEW080 FEW100 17/11 A2963 RMK AO2A RAE1155RAB37E54DZB54 SLP014 P0000 T01690107 $,M
WMC,2025-05-04 12:56,-117.8072,40.9019,1315.00,45.00,43.00,92.65,350.00,16.00,0.00,29.82,1008.50,10.00,M,SCT,OVC,M,M,3100.00,4100.00,M,M,M,M,M,M,M,M,M,37.36,KWMC 041256Z AUTO 35016KT 10SM SCT031 OVC041 07/06 A2982 RMK AO2 SLP085 T00720061,M
TPH,2025-05-04 12:56,-117.0904,38.0505,1654.00,43.00,40.00,89.06,310.00,7.00,0.00,29.79,1004.80,10.00,M,M,M,M,M,M,M,M,M,M,M,M,M,M,M,M,38.19,KTPH 041256Z AUTO 31007KT 10SM 06/04 A2979 RMK AO2 SLP048 T00610044 $,M
LAS,2025-05-04 12:56,-115.1634,36.0719,663.00,62.00,50.00,64.73,40.00,6.00,0.01,29.69,1003.60,10.00,M,FEW,BKN,OVC,M,5500.00,10000.00,20000.00,M,-RA,M,M,M,M,M,M,62.00,KLAS 041256Z 04006KT 10SM -RA FEW055 BKN100 OVC200 17/10 A2969 RMK AO2 RAB16 SLP036 P0001 T01670100 $,M
EKO,2025-05-04 12:56,-115.7860,40.8242,1367.00,42.00,42.00,100.00,0.00,0.00,0.00,29.80,1006.70,7.00,M,CLR,M,M,M,M,M,M,M,M,M,M,M,M,M,M,42.00,KEKO 041256Z AUTO 00000KT 7SM CLR 06/06 A2980 RMK AO2 SLP067 T00560056,M
HND,2025-05-04 12:56,-115.1344,35.9729,742.79,59.00,52.00,77.55,0.00,0.00,0.01,29.69,1005.40,10.00,M,BKN,OVC,M,M,7000.00,9000.00,M,M,-RA,M,M,M,M,M,M,59.00,KHND 041256Z AUTO 00000KT 10SM -RA BKN070 OVC090 15/11 A2969 RMK AO2 RAB1158 SLP054 P0001 T01500111 $,M
NFL,2025-05-04 12:57,-118.7010,39.4166,1199.00,50.00,47.00,89.37,320.00,4.00,0.00,29.81,1007.10,10.00,M,FEW,OVC,M,M,5500.00,8000.00,M,M,M,M,M,M,M,M,M,50.00,KNFL 041257Z AUTO 32004KT 10SM FEW055 OVC080 10/08 A2981 RMK AO2 SLP071 T01000083,M
LSV,2025-05-04 13:00,-115.0343,36.2362,570.00,62.60,51.80,67.75,0.00,0.00,0.00,29.63,1001.50,10.00,M,CLR,M,M,M,M,M,M,M,M,M,M,M,M,M,M,62.60,KLSV 041300Z 00000KT 10SM CLR 17/11 A2963 RMK AO2A DZE00 SLP015 $,M
INS,2025-05-04 13:06,-115.6733,36.5872,955.00,55.40,44.60,66.91,340.00,11.00,0.00,29.72,1003.20,10.00,M,SCT,BKN,OVC,M,5000.00,7000.00,8500.00,M,-RA,M,M,M,M,M,M,55.40,KINS 041306Z AUTO 34011KT 10SM -RA SCT050 BKN070 OVC085 13/07 A2972 RMK AO2 RAB06 SLP032 $,M
EKO,2025-05-04 13:10,-115.7860,40.8242,1367.00,40.00,40.00,100.00,240.00,3.00,0.00,29.81,M,1.50,M,CLR,M,M,M,M,M,M,M,BR,M,M,M,M,M,M,37.83,KEKO 041310Z AUTO 24003KT 1 1/2SM BR CLR 04/04 A2981 RMK AO2 T00440044,M
BVU,2025-05-04 13:15,-114.8611,35.9475,671.00,60.80,48.20,63.15,270.00,7.00,0.00,29.66,M,10.00,M,OVC,M,M,M,7500.00,M,M,M,M,M,M,M,M,M,M,60.80,KBVU 041315Z AUTO 27007KT 10SM OVC075 16/09 A2966 RMK AO2,M
BAM,2025-05-04 13:15,-116.8743,40.5990,1382.36,48.20,46.40,93.45,240.00,4.00,0.00,29.83,M,10.00,M,BKN,OVC,M,M,1900.00,2800.00,M,M,M,M,M,M,M,M,M,46.34,KBAM 041315Z AUTO 24004KT 10SM BKN019 OVC028 09/08 A2983 RMK AO1,M
CXP,2025-05-04 13:15,-119.7326,39.1923,1431.00,48.20,41.00,76.01,350.00,8.00,0.00,29.85,M,10.00,M,SCT,OVC,M,M,2300.00,3500.00,M,M,-RA,M,M,M,M,M,M,44.07,KCXP 041315Z AUTO 35008KT 10SM -RA SCT023 OVC035 09/05 A2985 RMK AO2,M
RTS,2025-05-04 13:15,-119.8764,39.6682,1539.00,44.60,39.20,81.20,360.00,11.00,0.00,29.87,M,10.00,M,OVC,M,M,M,2700.00,M,M,M,M,M,M,M,M,M,M,38.39,KRTS 041315Z AUTO 36011KT 10SM OVC027 07/04 A2987 RMK AO2,M
MEV,2025-05-04 13:15,-119.7500,38.9963,1441.42,44.60,44.60,100.00,210.00,4.00,0.00,29.84,M,6.00,M,BKN,OVC,M,M,1900.00,2400.00,M,M,-RA BR,M,M,M,M,M,M,42.13,KMEV 041315Z AUTO 21004KT 6SM -RA BR BKN019 OVC024 07/07 A2984 RMK AO2,M
HTH,2025-05-04 13:15,-118.6315,38.5448,1282.89,50.00,44.60,81.61,330.00,10.00,0.00,29.82,M,10.00,M,FEW,OVC,M,M,4700.00,5500.00,M,M,M,M,M,M,M,M,M,50.00,KHTH 041315Z AUTO 33010KT 10SM FEW047 OVC055 10/07 A2982 RMK A01,M
TMT,2025-05-04 13:15,-117.1971,39.4643,1749.34,41.40,41.00,98.46,30.00,4.00,0.00,29.83,M,10.00,M,SCT,BKN,M,M,4300.00,4900.00,M,M,M,M,M,M,M,M,M,38.40,KTMT 041315Z AUTO 03004KT 10SM SCT043 BKN049 05/05 A2983 RMK AO2 T00520050,M
10U,2025-05-04 13:15,-116.1876,41.9532,1637.00,46.40,44.60,93.40,50.00,8.00,0.00,29.85,M,10.00,M,OVC,M,M,M,2100.00,M,M,M,M,M,M,M,M,M,M,41.85,K10U 041315Z AUTO 05008KT 10SM OVC021 08/07 A2985 RMK AO2,M
EKO,2025-05-04 13:20,-115.7860,40.8242,1367.00,41.00,41.00,100.00,300.00,3.00,0.00,29.81,M,2.50,M,CLR,M,M,M,M,M,M,M,BR,M,M,M,M,M,M,38.98,KEKO 041320Z AUTO 30003KT 2 1/2SM BR CLR 05/05 A2981 RMK AO2 T00500050,M
EKO,2025-05-04 13:22,-115.7860,40.8242,1367.00,41.00,41.00,100.00,320.00,4.00,0.00,29.81,M,6.00,M,FEW,M,M,M,100.00,M,M,M,BR,M,M,M,M,M,M,37.93,KEKO 041322Z AUTO 32004KT 6SM BR FEW001 05/05 A2981 RMK AO2 T00500050,M
RTS,2025-05-04 13:25,-119.8764,39.6682,1539.00,42.80,39.20,86.99,350.00,13.00,0.00,29.87,M,10.00,M,OVC,M,M,M,2700.00,M,M,M,M,M,M,M,M,M,M,35.40,KRTS 041325Z AUTO 35013KT 10SM OVC027 06/04 A2987 RMK AO2,M
MEV,2025-05-04 13:25,-119.7500,38.9963,1441.42,44.60,44.60,100.00,220.00,4.00,0.00,29.84,M,2.50,M,BKN,OVC,M,M,2100.00,2700.00,M,M,-RA BR,M,M,M,M,M,M,42.13,KMEV 041325Z AUTO 22004KT 2 1/2SM -RA BR BKN021 OVC027 07/07 A2984 RMK AO2,M
BVU,2025-05-04 13:35,-114.8611,35.9475,671.00,60.80,50.00,67.54,110.00,5.00,0.00,29.67,M,10.00,M,OVC,M,M,M,7000.00,M,M,M,M,M,M,M,M,M,M,60.80,KBVU 041335Z AUTO 11005KT 10SM OVC070 16/10 A2967 RMK AO2,M
BAM,2025-05-04 13:35,-116.8743,40.5990,1382.36,48.20,46.40,93.45,220.00,3.00,0.00,29.83,M,10.00,M,BKN,OVC,M,M,1700.00,2100.00,M,M,M,M,M,M,M,M,M,47.21,KBAM 041335Z AUTO 22003KT 10SM BKN017 OVC021 09/08 A2983 RMK AO1,M
CXP,2025-05-04 13:35,-119.7326,39.1923,1431.00,48.20,41.00,76.01,M,5.00,0.00,29.86,M,10.00,M,OVC,M,M,M,3600.00,M,M,M,M,M,M,M,M,M,M,45.63,KCXP 041335Z AUTO VRB05KT 10SM OVC036 09/05 A2986 RMK AO2,M
HTH,2025-05-04 13:35,-118.6315,38.5448,1282.89,50.00,44.60,81.61,330.00,9.00,0.00,29.82,M,10.00,M,FEW,OVC,M,M,4800.00,5500.00,M,M,M,M,M,M,M,M,M,50.00,KHTH 041335Z AUTO 33009KT 10SM FEW048 OVC055 10/07 A2982 RMK A01,M
TMT,2025-05-04 13:35,-117.1971,39.4643,1749.34,42.00,41.40,97.71,360.00,4.00,0.00,29.84,M,10.00,M,CLR,M,M,M,M,M,M,M,M,M,M,M,M,M,M,39.10,KTMT 041335Z AUTO 36004KT 10SM CLR 06/05 A2984 RMK AO2 T00550052,M
10U,2025-05-04 13:35,-116.1876,41.9532,1637.00,44.60,42.80,93.35,100.00,5.00,0.00,29.85,M,10.00,11.00,BKN,OVC,M,M,2000.00,2500.00,M,M,M,M,M,M,M,M,M,41.36,K10U 041335Z AUTO 10005G11KT 10SM BKN020 OVC025 07/06 A2985 RMK AO2,M
EKO,2025-05-04 13:39,-115.7860,40.8242,1367.00,42.00,42.00,100.00,0.00,0.00,0.00,29.82,M,3.00,M,BKN,M,M,M,100.00,M,M,M,BR,M,M,M,M,M,M,42.00,KEKO 041339Z AUTO 00000KT 3SM BR BKN001 06/06 A2982 RMK AO2 T00560056,M
EKO,2025-05-04 13:42,-115.7860,40.8242,1367.00,42.00,42.00,100.00,0.00,0.00,0.00,29.82,M,1.50,M,BKN,M,M,M,100.00,M,M,M,BR,M,M,M,M,M,M,42.00,KEKO 041342Z AUTO 00000KT 1 1/2SM BR BKN001 06/06 A2982 RMK AO2 T00560056,M
LOL,2025-05-04 13:43,-118.5701,40.0684,1192.43,50.00,43.00,76.76,360.00,6.00,0.00,29.82,M,10.00,M,FEW,BKN,OVC,M,1900.00,3000.00,7000.00,M,M,M,M,M,M,M,M,50.00,KLOL 041343Z AUTO 36006KT 10SM FEW019 BKN030 OVC070 10/06 A2982 RMK AO2 T01000061,M
INS,2025-05-04 13:44,-115.6733,36.5872,955.00,55.40,46.40,71.64,360.00,8.00,0.00,29.73,1003.80,10.00,M,FEW,FEW,SCT,OVC,800.00,3500.00,4800.00,8000.00,M,M,M,M,M,M,M,55.40,KINS 041344Z AUTO 36008KT 10SM FEW008 FEW035 SCT048 OVC080 13/08 A2973 RMK AO2 RAE1255RAB06E44 SLP038 $,M
RNO,2025-05-04 13:50,-119.7711,39.4839,1341.00,48.20,41.00,76.01,330.00,10.00,T,29.86,M,10.00,M,FEW,OVC,M,M,1500.00,2600.00,M,M,-RA,M,M,M,M,M,M,43.28,KRNO 041350Z 33010KT 10SM -RA FEW015 OVC026 09/05 A2986 RMK AO2 RAB12 P0000 $,M
10U,2025-05-04 13:50,-116.1876,41.9532,1637.00,44.60,42.80,93.35,20.00,5.00,0.00,29.86,M,10.00,M,SCT,OVC,M,M,1300.00,2300.00,M,M,M,M,M,M,M,M,M,41.36,K10U 041350Z AUTO 02005KT 10SM SCT013 OVC023 07/06 A2986 RMK AO2,M
WMC,2025-05-04 13:52,-117.8072,40.9019,1315.00,44.60,42.80,93.35,350.00,17.00,0.00,29.84,M,10.00,25.00,BKN,OVC,M,M,2400.00,3500.00,M,M,M,M,M,M,M,M,M,36.58,KWMC 041352Z AUTO 35017G25KT 10SM BKN024 OVC035 07/06 A2984 RMK AO2,M
P68,2025-05-04 13:53,-116.0056,39.6014,1993.00,44.00,43.00,96.24,0.00,0.00,0.00,29.82,1005.60,M,M,M,M,M,M,M,M,M,M,M,M,M,M,M,M,M,44.00,KP68 041353Z AUTO 00000KT 07/06 A2982 RMK AO1 SLP056 T00670061 $,M
DRA,2025-05-04 13:53,-116.0278,36.6206,1009.00,57.00,45.00,64.12,100.00,9.00,0.00,29.72,1003.00,10.00,M,CLR,M,M,M,M,M,M,M,M,M,M,M,M,M,M,57.00,KDRA 041353Z AUTO 10009KT 10SM CLR 14/07 A2972 RMK AO2 SLP030 T01390072,M
ELY,2025-05-04 13:53,-114.8453,39.2950,1909.00,45.00,38.00,76.31,190.00,7.00,T,29.84,1004.20,10.00,M,BKN,OVC,M,M,8000.00,9500.00,M,M,M,M,M,M,M,M,M,40.63,KELY 041353Z AUTO 19007KT 10SM BKN080 OVC095 07/03 A2984 RMK AO2 RAE31 SLP042 P0000 T00720033 $,M
VGT,2025-05-04 13:53,-115.1933,36.2111,667.00,61.00,28.00,28.38,340.00,6.00,0.01,29.68,1005.00,10.00,M,OVC,M,M,M,8500.00,M,M,M,M,M,M,M,M,M,M,61.00,KVGT 041353Z 34006KT 10SM OVC085 16/M02 A2968 RMK AO2 RAB14E46 SLP050 P0001 T01611022,M
LOL,2025-05-04 13:53,-118.5701,40.0684,1192.43,50.00,43.00,76.76,10.00,7.00,0.00,29.83,1008.70,10.00,M,FEW,BKN,OVC,M,1900.00,3300.00,7000.00,M,M,M,M,M,M,M,M,50.00,KLOL 041353Z AUTO 01007KT 10SM FEW019 BKN033 OVC070 10/06 A2983 RMK AO2 SLP087 T01000061,M
BVU,2025-05-04 13:55,-114.8611,35.9475,671.00,60.80,50.00,67.54,0.00,0.00,0.00,29.68,M,8.00,M,FEW,OVC,M,M,5500.00,7000.00,M,M,-RA,M,M,M,M,M,M,60.80,KBVU 041355Z AUTO 00000KT 8SM -RA FEW055 OVC070 16/10 A2968 RMK AO2,M
BAM,2025-05-04 13:55,-116.8743,40.5990,1382.36,48.20,46.40,93.45,230.00,3.00,0.00,29.84,M,10.00,M,OVC,M,M,M,1500.00,M,M,M,M,M,M,M,M,M,M,47.21,KBAM 041355Z AUTO 23003KT 10SM OVC015 09/08 A2984 RMK AO1,M
CXP,2025-05-04 13:55,-119.7326,39.1923,1431.00,48.20,42.80,81.47,0.00,0.00,0.00,29.86,M,10.00,M,SCT,BKN,OVC,M,2200.00,2900.00,3600.00,M,M,M,M,M,M,M,M,48.20,KCXP 041355Z AUTO 00000KT 10SM SCT022 BKN029 OVC036 09/06 A2986 RMK AO2,M
RNO,2025-05-04 13:55,-119.7711,39.4839,1341.00,48.00,42.00,79.60,340.00,11.00,T,29.86,1008.50,9.00,M,FEW,OVC,M,M,1500.00,2600.00,M,M,-RA,M,M,M,M,M,M,42.69,KRNO 041355Z 34011KT 9SM -RA FEW015 OVC026 09/06 A2986 RMK AO2 RAB12 SLP085 P0000 T00890056 $,M
RTS,2025-05-04 13:55,-119.8764,39.6682,1539.00,42.80,37.40,81.07,360.00,15.00,0.00,29.88,M,10.00,M,OVC,M,M,M,2800.00,M,M,M,M,M,M,M,M,M,M,34.78,KRTS 041355Z AUTO 36015KT 10SM OVC028 06/03 A2988 RMK AO2,M
MEV,2025-05-04 13:55,-119.7500,38.9963,1441.42,44.60,44.60,100.00,0.00,0.00,0.04,29.85,M,4.00,M,FEW,BKN,OVC,M,1500.00,2300.00,2800.00,M,-RA BR,M,M,M,M,M,M,44.60,KMEV 041355Z AUTO 00000KT 4SM -RA BR FEW015 BKN023 OVC028 07/07 A2985 RMK AO2 P0004,M
HTH,2025-05-04 13:55,-118.6315,38.5448,1282.89,50.00,44.60,81.61,340.00,11.00,0.00,29.83,M,10.00,M,SCT,OVC,M,M,4900.00,6500.00,M,M,M,M,M,M,M,M,M,50.00,KHTH 041355Z AUTO 34011KT 10SM SCT049 OVC065 10/07 A2983 RMK A01,M
TMT,2025-05-04 13:55,-117.1971,39.4643,1749.34,41.50,41.00,98.09,320.00,3.00,0.00,29.84,M,10.00,M,SCT,M,M,M,3200.00,M,M,M,M,M,M,M,M,M,M,39.55,KTMT 041355Z AUTO 32003KT 10SM SCT032 05/05 A2984 RMK AO2 T00530051,M
INS,2025-05-04 13:55,-115.6733,36.5872,955.00,55.60,46.80,72.21,20.00,6.00,0.01,29.73,1003.80,10.00,M,BKN,BKN,M,M,8000.00,10000.00,M,M,M,M,M,M,M,M,M,55.60,KINS 041355Z AUTO 02006KT 10SM BKN080 BKN100 13/08 A2973 RMK AO2 RAB06E44 SLP038 P0001 T01310082 $,M
LSV,2025-05-04 13:55,-115.0343,36.2362,570.00,62.80,51.60,66.78,0.00,0.00,0.01,29.64,1002.00,10.00,M,FEW,BKN,OVC,M,5000.00,8000.00,10000.00,M,M,M,M,M,M,M,M,62.80,KLSV 041355Z 00000KT 10SM FEW050 BKN080 OVC100 17/11 A2964 RMK AO2A DZB1255E00 SLP020 P0001 T01710109 $,M
WMC,2025-05-04 13:56,-117.8072,40.9019,1315.00,44.00,42.00,92.61,340.00,18.00,0.00,29.84,1009.10,10.00,25.00,BKN,BKN,OVC,M,2400.00,3300.00,4000.00,M,M,M,M,M,M,M,M,35.55,KWMC 041356Z AUTO 34018G25KT 10SM BKN024 BKN033 OVC040 07/06 A2984 RMK AO2 SLP091 T00670056,M
EKO,2025-05-04 13:56,-115.7860,40.8242,1367.00,42.00,42.00,100.00,0.00,0.00,0.00,29.82,1008.40,1.00,M,OVC,M,M,M,100.00,M,M,M,BR,M,M,M,M,M,M,42.00,KEKO 041356Z AUTO 00000KT 1SM BR OVC001 06/06 A2982 RMK AO2 SLP084 T00560056,M
HND,2025-05-04 13:56,-115.1344,35.9729,742.79,60.00,51.00,72.12,80.00,4.00,T,29.72,1006.30,10.00,M,BKN,OVC,M,M,7000.00,8000.00,M,M,-RA,M,M,M,M,M,M,60.00,KHND 041356Z 08004KT 10SM -RA BKN070 OVC080 16/11 A2972 RMK AO2 RAE13B38 SLP063 P0000 T01560106 $,M
TPH,2025-05-04 13:56,-117.0904,38.0505,1654.00,44.00,40.00,85.71,350.00,7.00,0.00,29.79,1005.70,10.00,M,CLR,M,M,M,M,M,M,M,M,M,M,M,M,M,M,39.41,KTPH 041356Z AUTO 35007KT 10SM CLR 07/04 A2979 RMK AO2 SLP057 T00670044 $,M
LAS,2025-05-04 13:56,-115.1634,36.0719,663.00,62.00,49.00,62.36,160.00,3.00,T,29.70,1004.20,10.00,M,BKN,OVC,M,M,8000.00,20000.00,M,M,M,M,M,M,M,M,M,62.00,KLAS 041356Z 16003KT 10SM BKN080 OVC200 17/09 A2970 RMK AO2 RAE06 SLP042 P0000 T01670094 $,M
NFL,2025-05-04 13:57,-118.7010,39.4166,1199.00,50.00,47.00,89.37,350.00,6.00,0.00,29.82,1007.50,10.00,M,BKN,OVC,M,M,4400.00,5000.00,M,M,M,M,M,M,M,M,M,50.00,KNFL 041357Z AUTO 35006KT 10SM BKN044 OVC050 10/08 A2982 RMK AO2 SLP075 T01000083,M
LOL,2025-05-04 14:01,-118.5701,40.0684,1192.43,51.00,43.00,73.97,30.00,5.00,0.00,29.83,M,10.00,M,BKN,BKN,OVC,M,2500.00,3400.00,7000.00,M,M,M,M,M,M,M,M,51.00,KLOL 041401Z AUTO 03005KT 10SM BKN025 BKN034 OVC070 11/06 A2983 RMK AO2 T01060061,M
EKO,2025-05-04 14:07,-115.7860,40.8242,1367.00,43.00,42.00,96.23,0.00,0.00,0.00,29.82,M,3.00,M,OVC,M,M,M,100.00,M,M,M,BR,M,M,M,M,M,M,43.00,KEKO 041407Z AUTO 00000KT 3SM BR OVC001 06/06 A2982 RMK AO2 T00610056,M
RNO,2025-05-04 14:08,-119.7711,39.4839,1341.00,47.00,42.00,82.65,330.00,8.00,0.03,29.86,M,3.00,M,SCT,OVC,M,M,2600.00,4500.00,M,M,RA,M,M,M,M,M,M,42.59,KRNO 041408Z 33008KT 3SM RA SCT026 OVC045 08/06 A2986 RMK AO2 P0003 T00830056 $,M
RNO,2025-05-04 14:12,-119.7711,39.4839,1341.00,47.00,42.00,82.65,330.00,9.00,0.04,29.87,M,5.00,M,FEW,BKN,OVC,M,1500.00,2600.00,3500.00,M,-RA BR,M,M,M,M,M,M,42.17,KRNO 041412Z 33009KT 5SM -RA BR FEW015 BKN026 OVC035 08/06 A2987 RMK AO2 P0004 T00830056 $,M
10U,2025-05-04 14:15,-116.1876,41.9532,1637.00,44.60,41.00,87.09,20.00,9.00,0.00,29.87,M,10.00,M,BKN,OVC,M,M,1600.00,2200.00,M,M,M,M,M,M,M,M,M,39.18,K10U 041415Z AUTO 02009KT 10SM BKN016 OVC022 07/05 A2987 RMK AO2,M
BVU,2025-05-04 14:15,-114.8611,35.9475,671.00,60.80,51.80,72.20,340.00,5.00,0.00,29.67,M,10.00,M,BKN,OVC,M,M,7000.00,10000.00,M,M,M,M,M,M,M,M,M,60.80,KBVU 041415Z AUTO 34005KT 10SM BKN070 OVC100 16/11 A2967 RMK AO2,M
BAM,2025-05-04 14:15,-116.8743,40.5990,1382.36,50.00,46.40,87.37,0.00,0.00,0.00,29.84,M,10.00,M,OVC,M,M,M,1300.00,M,M,M,M,M,M,M,M,M,M,50.00,KBAM 041415Z AUTO 00000KT 10SM OVC013 10/08 A2984 RMK AO1,M
CXP,2025-05-04 14:15,-119.7326,39.1923,1431.00,48.20,42.80,81.47,300.00,4.00,0.00,29.86,M,10.00,M,SCT,BKN,OVC,M,2200.00,2800.00,4200.00,M,M,M,M,M,M,M,M,46.34,KCXP 041415Z AUTO 30004KT 10SM SCT022 BKN028 OVC042 09/06 A2986 RMK AO2,M
RTS,2025-05-04 14:15,-119.8764,39.6682,1539.00,42.80,37.40,81.07,360.00,14.00,0.00,29.88,M,10.00,21.00,OVC,M,M,M,2600.00,M,M,M,-DZ,M,M,M,M,M,M,35.08,KRTS 041415Z AUTO 36014G21KT 10SM -DZ OVC026 06/03 A2988 RMK AO2,M
MEV,2025-05-04 14:15,-119.7500,38.9963,1441.42,46.40,44.60,93.40,320.00,4.00,0.00,29.85,M,5.00,M,BKN,OVC,M,M,2300.00,3100.00,M,M,-RA BR,M,M,M,M,M,M,44.24,KMEV 041415Z AUTO 32004KT 5SM -RA BR BKN023 OVC031 08/07 A2985 RMK AO2,M
HTH,2025-05-04 14:15,-118.6315,38.5448,1282.89,50.00,44.60,81.61,330.00,10.00,0.00,29.83,M,10.00,M,FEW,OVC,M,M,4600.00,6500.00,M,M,M,M,M,M,M,M,M,50.00,KHTH 041415Z AUTO 33010KT 10SM FEW046 OVC065 10/07 A2983 RMK A01,M
TMT,2025-05-04 14:15,-117.1971,39.4643,1749.34,42.30,42.00,98.85,0.00,0.00,0.00,29.85,M,10.00,M,SCT,BKN,M,M,2500.00,3200.00,M,M,M,M,M,M,M,M,M,42.30,KTMT 041415Z AUTO 00000KT 10SM SCT025 BKN032 06/06 A2985 RMK AO2 T00570056,M
RTS,2025-05-04 14:25,-119.8764,39.6682,1539.00,42.80,37.40,81.07,360.00,15.00,0.00,29.88,M,10.00,M,OVC,M,M,M,2600.00,M,M,M,-DZ,M,M,M,M,M,M,34.78,KRTS 041425Z AUTO 36015KT 10SM -DZ OVC026 06/03 A2988 RMK AO2,M
MEV,2025-05-04 14:25,-119.7500,38.9963,1441.42,46.40,44.60,93.40,310.00,4.00,0.00,29.85,M,4.00,M,SCT,BKN,BKN,M,2300.00,3100.00,4100.00,M,-RA BR,M,M,M,M,M,M,44.24,KMEV 041425Z AUTO 31004KT 4SM -RA BR SCT023 BKN031 BKN041 08/07 A2985 RMK AO2,M
LAS,2025-05-04 14:31,-115.1634,36.0719,663.00,59.00,53.00,80.46,230.00,4.00,0.04,29.72,M,3.00,M,BKN,OVC,M,M,6000.00,20000.00,M,M,RA,M,M,M,M,M,M,59.00,KLAS 041431Z 23004KT 3SM RA BKN060 OVC200 15/12 A2972 RMK AO2 RAB00 P0004 T01500117 $,M
EKO,2025-05-04 14:32,-115.7860,40.8242,1367.00,44.00,43.00,96.24,0.00,0.00,0.00,29.83,M,10.00,M,BKN,M,M,M,200.00,M,M,M,M,M,M,M,M,M,M,44.00,KEKO 041432Z AUTO 00000KT 10SM BKN002 07/06 A2983 RMK AO2 CIG 001V005 T00670061,M
BAM,2025-05-04 14:35,-116.8743,40.5990,1382.36,50.00,46.40,87.37,0.00,0.00,0.00,29.84,M,10.00,M,OVC,M,M,M,1300.00,M,M,M,M,M,M,M,M,M,M,50.00,KBAM 041435Z AUTO 00000KT 10SM OVC013 10/08 A2984 RMK AO1,M
BVU,2025-05-04 14:35,-114.8611,35.9475,671.00,60.80,51.80,72.20,340.00,6.00,0.00,29.66,M,10.00,M,SCT,BKN,M,M,7000.00,10000.00,M,M,M,M,M,M,M,M,M,60.80,KBVU 041435Z AUTO 34006KT 10SM SCT070 BKN100 16/11 A2966 RMK AO2,M
CXP,2025-05-04 14:35,-119.7326,39.1923,1431.00,48.20,41.00,76.01,M,4.00,0.00,29.87,M,10.00,M,BKN,BKN,OVC,M,2200.00,3000.00,4200.00,M,M,M,M,M,M,M,M,46.34,KCXP 041435Z AUTO VRB04KT 10SM BKN022 BKN030 OVC042 09/05 A2987 RMK AO2,M
HTH,2025-05-04 14:35,-118.6315,38.5448,1282.89,50.00,44.60,81.61,340.00,11.00,0.00,29.83,M,10.00,M,FEW,BKN,OVC,M,3300.00,4500.00,7000.00,M,M,M,M,M,M,M,M,50.00,KHTH 041435Z AUTO 34011KT 10SM FEW033 BKN045 OVC070 10/07 A2983 RMK A01,M
TMT,2025-05-04 14:35,-117.1971,39.4643,1749.34,42.80,42.80,100.00,210.00,4.00,0.00,29.85,M,10.00,M,SCT,OVC,M,M,400.00,2500.00,M,M,M,M,M,M,M,M,M,40.03,KTMT 041435Z AUTO 21004KT 10SM SCT004 OVC025 06/06 A2985 RMK AO2 T00600060,M
10U,2025-05-04 14:35,-116.1876,41.9532,1637.00,44.60,41.00,87.09,30.00,7.00,0.00,29.87,M,10.00,12.00,OVC,M,M,M,2000.00,M,M,M,M,M,M,M,M,M,M,40.14,K10U 041435Z AUTO 03007G12KT 10SM OVC020 07/05 A2987 RMK AO2,M
EKO,2025-05-04 14:42,-115.7860,40.8242,1367.00,46.00,43.00,89.20,50.00,3.00,0.00,29.83,M,10.00,M,SCT,M,M,M,400.00,M,M,M,M,M,M,M,M,M,M,44.69,KEKO 041442Z AUTO 05003KT 10SM SCT004 08/06 A2983 RMK AO2 T00780061,M
P68,2025-05-04 14:53,-116.0056,39.6014,1993.00,46.00,43.00,89.20,0.00,0.00,0.00,29.82,1005.90,M,M,M,M,M,M,M,M,M,M,M,M,M,M,M,M,M,46.00,KP68 041453Z AUTO 00000KT 08/06 A2982 RMK AO1 SLP059 T00780061 56002 $,M
DRA,2025-05-04 14:53,-116.0278,36.6206,1009.00,60.00,43.00,53.34,110.00,11.00,0.00,29.72,1003.10,10.00,M,BKN,OVC,M,M,10000.00,11000.00,M,M,M,M,M,M,M,M,M,60.00,KDRA 041453Z AUTO 11011KT 10SM BKN100 OVC110 16/06 A2972 RMK AO2 SLP031 T01560061 52004,M
ELY,2025-05-04 14:53,-114.8453,39.2950,1909.00,48.00,38.00,68.13,200.00,7.00,0.00,29.83,1004.20,10.00,M,OVC,M,M,M,8000.00,M,M,M,M,M,M,M,M,M,M,44.28,KELY 041453Z AUTO 20007KT 10SM OVC080 09/03 A2983 RMK AO2 SLP042 60000 T00890033 50003 $,M
VGT,2025-05-04 14:53,-115.1933,36.2111,667.00,59.00,51.00,74.74,330.00,7.00,0.02,29.71,1006.20,8.00,M,OVC,M,M,M,6500.00,M,M,M,-RA,M,M,M,M,M,M,59.00,KVGT 041453Z 33007KT 8SM -RA OVC065 15/11 A2971 RMK AO2 RAB13 SLP062 P0002 60003 T01500106 53015,M
LOL,2025-05-04 14:53,-118.5701,40.0684,1192.43,50.00,42.00,73.87,350.00,11.00,0.00,29.84,1009.10,10.00,M,OVC,M,M,M,2000.00,M,M,M,M,M,M,M,M,M,M,50.00,KLOL 041453Z AUTO 35011KT 10SM OVC020 10/06 A2984 RMK AO2 SLP091 T01000056 53008,M
BAM,2025-05-04 14:55,-116.8743,40.5990,1382.36,50.00,46.40,87.37,0.00,0.00,0.00,29.84,M,10.00,M,BKN,OVC,M,M,1100.00,1700.00,M,M,M,M,M,M,M,M,M,50.00,KBAM 041455Z AUTO 00000KT 10SM BKN011 OVC017 10/08 A2984 RMK AO1,M
BVU,2025-05-04 14:55,-114.8611,35.9475,671.00,62.60,48.20,59.26,310.00,10.00,0.00,29.67,M,10.00,M,BKN,M,M,M,10000.00,M,M,M,M,M,M,M,M,M,M,62.60,KBVU 041455Z AUTO 31010KT 10SM BKN100 17/09 A2967 RMK AO2,M
RNO,2025-05-04 14:55,-119.7711,39.4839,1341.00,47.00,41.00,79.52,330.00,8.00,0.07,29.87,1008.90,5.00,M,FEW,BKN,OVC,M,1500.00,2500.00,3500.00,M,-RA BR,M,M,M,M,M,M,42.59,KRNO 041455Z 33008KT 5SM -RA BR FEW015 BKN025 OVC035 08/05 A2987 RMK AO2 SLP089 P0007 60007 T00830050 51008 $,M
MEV,2025-05-04 14:55,-119.7500,38.9963,1441.42,46.40,42.80,87.19,330.00,6.00,0.03,29.85,M,9.00,M,FEW,BKN,BKN,M,2500.00,3000.00,3600.00,M,-RA,M,M,M,M,M,M,42.87,KMEV 041455Z AUTO 33006KT 9SM -RA FEW025 BKN030 BKN036 08/06 A2985 RMK AO2 P0003,M
HTH,2025-05-04 14:55,-118.6315,38.5448,1282.89,50.00,44.60,81.61,330.00,10.00,0.00,29.83,M,10.00,M,FEW,BKN,OVC,M,2800.00,4400.00,7000.00,M,M,M,M,M,M,M,M,50.00,KHTH 041455Z AUTO 33010KT 10SM FEW028 BKN044 OVC070 10/07 A2983 RMK A01,M
TMT,2025-05-04 14:55,-117.1971,39.4643,1749.34,42.80,42.00,96.97,200.00,4.00,0.00,29.86,M,10.00,M,BKN,OVC,M,M,700.00,1100.00,M,M,M,M,M,M,M,M,M,40.03,KTMT 041455Z AUTO 20004KT 10SM BKN007 OVC011 06/06 A2986 RMK AO2 T00600056,M
10U,2025-05-04 14:55,-116.1876,41.9532,1637.00,44.60,41.00,87.09,30.00,10.00,0.00,29.88,M,10.00,M,OVC,M,M,M,2000.00,M,M,M,M,M,M,M,M,M,M,38.77,K10U 041455Z AUTO 03010KT 10SM OVC020 07/05 A2988 RMK AO2,M
CXP,2025-05-04 14:55,-119.7326,39.1923,1431.00,48.20,41.00,76.01,330.00,9.00,0.00,29.87,M,10.00,M,SCT,BKN,OVC,M,2100.00,3000.00,3400.00,M,M,M,M,M,M,M,M,43.66,KCXP 041455Z AUTO 33009KT 10SM SCT021 BKN030 OVC034 09/05 A2987 RMK AO2,M
RTS,2025-05-04 14:55,-119.8764,39.6682,1539.00,42.80,37.40,81.07,360.00,13.00,0.00,29.89,M,10.00,20.00,BKN,OVC,M,M,2800.00,3800.00,M,M,-DZ,M,M,M,M,M,M,35.40,KRTS 041455Z AUTO 36013G20KT 10SM -DZ BKN028 OVC038 06/03 A2989 RMK AO2,M
LSV,2025-05-04 14:55,-115.0343,36.2362,570.00,61.50,52.30,71.74,330.00,6.00,T,29.66,1002.70,10.00,M,BKN,OVC,M,M,6500.00,8000.00,M,M,-RA,M,M,M,M,M,M,61.50,KLSV 041455Z 33006KT 10SM -RA BKN065 OVC080 16/11 A2966 RMK AO2A DZB10E21RAB21E42DZB42E45RAB45 SLP027 P0000 60001 T01640113 52012 $,M
TPH,2025-05-04 14:56,-117.0904,38.0505,1654.00,47.00,41.00,79.52,360.00,6.00,0.00,29.80,1006.00,10.00,M,CLR,M,M,M,M,M,M,M,M,M,M,M,M,M,M,43.60,KTPH 041456Z AUTO 36006KT 10SM CLR 08/05 A2980 RMK AO2 SLP060 T00830050 $,M
LAS,2025-05-04 14:56,-115.1634,36.0719,663.00,59.00,51.00,74.74,340.00,14.00,0.08,29.70,1004.20,3.00,M,BKN,OVC,M,M,5000.00,10000.00,M,M,RA,M,M,M,M,M,M,59.00,KLAS 041456Z 34014KT 3SM RA BKN050 OVC100 15/11 A2970 RMK AO2 RAB00 SLP042 P0008 60009 T01500106 56001 $,M
EKO,2025-05-04 14:56,-115.7860,40.8242,1367.00,47.00,45.00,92.71,80.00,3.00,0.00,29.82,1008.00,10.00,M,BKN,M,M,M,600.00,M,M,M,M,M,M,M,M,M,M,45.84,KEKO 041456Z AUTO 08003KT 10SM BKN006 08/07 A2982 RMK AO2 SLP080 T00830072 53005,M
WMC,2025-05-04 14:56,-117.8072,40.9019,1315.00,43.00,42.00,96.23,350.00,14.00,0.01,29.86,1009.70,5.00,23.00,BKN,OVC,M,M,1900.00,2400.00,M,M,-RA BR,M,M,M,26.00,340.00,2025-05-04 14:20,35.34,KWMC 041456Z AUTO 35014G23KT 5SM -RA BR BKN019 OVC024 06/06 A2986 RMK AO2 PK WND 34026/1420 RAB09 SLP097 P0001 60001 T00610056 51009,M
HND,2025-05-04 14:56,-115.1344,35.9729,742.79,57.00,51.00,80.31,10.00,5.00,0.09,29.72,1006.50,10.00,M,SCT,OVC,M,M,6000.00,7500.00,M,M,-RA,M,M,M,M,M,M,57.00,KHND 041456Z 01005KT 10SM -RA SCT060 OVC075 14/11 A2972 RMK AO2 SLP065 P0009 60010 T01390106 53004 $,M
NFL,2025-05-04 14:57,-118.7010,39.4166,1199.00,51.00,47.00,86.12,340.00,6.00,0.00,29.83,1007.70,10.00,M,BKN,OVC,M,M,4600.00,5500.00,M,M,M,M,M,M,M,M,M,51.00,KNFL 041457Z AUTO 34006KT 10SM BKN046 OVC055 11/08 A2983 RMK AO2 SLP077 T01060083 53006,M
EKO,2025-05-04 15:07,-115.7860,40.8242,1367.00,46.00,44.00,92.68,80.00,4.00,0.00,29.82,M,10.00,M,SCT,BKN,M,M,600.00,2900.00,M,M,M,M,M,M,M,M,M,43.77,KEKO 041507Z AUTO 08004KT 10SM SCT006 BKN029 08/07 A2982 RMK AO2 T00780067,M
INS,2025-05-04 15:13,-115.6733,36.5872,955.00,57.20,46.40,67.12,10.00,4.00,0.00,29.74,1004.10,10.00,M,FEW,BKN,OVC,M,3800.00,7500.00,9000.00,M,-DZ,M,M,M,M,M,M,57.20,KINS 041513Z AUTO 01004KT 10SM -DZ FEW038 BKN075 OVC090 14/08 A2974 RMK AO2 DZB13 SLP041 $,M
BVU,2025-05-04 15:15,-114.8611,35.9475,671.00,62.60,50.00,63.38,310.00,11.00,0.00,29.67,M,10.00,M,SCT,M,M,M,11000.00,M,M,M,M,M,M,M,M,M,M,62.60,KBVU 041515Z AUTO 31011KT 10SM SCT110 17/10 A2967 RMK AO2,M
BAM,2025-05-04 15:15,-116.8743,40.5990,1382.36,51.80,46.40,81.74,0.00,0.00,0.00,29.84,M,10.00,M,BKN,OVC,M,M,1100.00,1700.00,M,M,M,M,M,M,M,M,M,51.80,KBAM 041515Z AUTO 00000KT 10SM BKN011 OVC017 11/08 A2984 RMK AO1,M
CXP,2025-05-04 15:15,-119.7326,39.1923,1431.00,48.20,42.80,81.47,330.00,11.00,0.00,29.87,M,9.00,M,BKN,BKN,BKN,M,2000.00,2400.00,3000.00,M,-RA,M,M,M,M,M,M,42.94,KCXP 041515Z AUTO 33011KT 9SM -RA BKN020 BKN024 BKN030 09/06 A2987 RMK AO2,M
RTS,2025-05-04 15:15,-119.8764,39.6682,1539.00,42.80,37.40,81.07,360.00,13.00,0.00,29.89,M,10.00,21.00,OVC,M,M,M,2600.00,M,M,M,-DZ,M,M,M,M,M,M,35.40,KRTS 041515Z AUTO 36013G21KT 10SM -DZ OVC026 06/03 A2989 RMK AO2,M
MEV,2025-05-04 15:15,-119.7500,38.9963,1441.42,46.40,42.80,87.19,350.00,14.00,0.00,29.85,M,6.00,M,BKN,BKN,OVC,M,2800.00,3400.00,3900.00,M,-RA BR,M,M,M,M,M,M,39.72,KMEV 041515Z AUTO 35014KT 6SM -RA BR BKN028 BKN034 OVC039 08/06 A2985 RMK AO2,M
HTH,2025-05-04 15:15,-118.6315,38.5448,1282.89,51.80,44.60,76.34,330.00,11.00,0.00,29.83,M,10.00,M,BKN,OVC,M,M,2900.00,4400.00,M,M,M,M,M,M,M,M,M,51.80,KHTH 041515Z AUTO 33011KT 10SM BKN029 OVC044 11/07 A2983 RMK A01,M
TMT,2025-05-04 15:15,-117.1971,39.4643,1749.34,43.00,42.30,97.35,220.00,3.00,0.00,29.85,M,10.00,M,BKN,OVC,M,M,700.00,1100.00,M,M,M,M,M,M,M,M,M,41.26,KTMT 041515Z AUTO 22003KT 10SM BKN007 OVC011 06/06 A2985 RMK AO2 T00620057,M
10U,2025-05-04 15:15,-116.1876,41.9532,1637.00,44.60,41.00,87.09,20.00,6.00,0.00,29.88,M,10.00,M,OVC,M,M,M,2100.00,M,M,M,M,M,M,M,M,M,M,40.71,K10U 041515Z AUTO 02006KT 10SM OVC021 07/05 A2988 RMK AO2,M
LAS,2025-05-04 15:22,-115.1634,36.0719,663.00,59.00,50.00,72.01,310.00,7.00,0.03,29.71,M,10.00,M,FEW,BKN,OVC,M,4700.00,7500.00,10000.00,M,M,M,M,M,M,M,M,59.00,KLAS 041522Z 31007KT 10SM FEW047 BKN075 OVC100 15/10 A2971 RMK AO2 RAE09 P0003 T01500100 $,M
LSV,2025-05-04 15:24,-115.0343,36.2362,570.00,62.60,53.60,72.38,320.00,7.00,0.00,29.66,1002.70,10.00,M,FEW,M,M,M,18000.00,M,M,M,M,M,M,M,M,M,M,62.60,KLSV 041524Z AUTO 32007KT 10SM FEW180 17/12 A2966 RMK AO2 RAE12DZB12E14 SLP027 $,M
NFL,2025-05-04 15:25,-118.7010,39.4166,1199.00,51.00,46.00,82.93,340.00,8.00,0.00,29.83,M,10.00,M,BKN,OVC,M,M,1800.00,4500.00,M,M,M,M,M,M,M,M,M,51.00,KNFL 041525Z AUTO 34008KT 10SM BKN018 OVC045 11/08 A2983 RMK AO2 T01060078,M
RTS,2025-05-04 15:25,-119.8764,39.6682,1539.00,42.80,37.40,81.07,10.00,14.00,0.00,29.89,M,10.00,19.00,OVC,M,M,M,2500.00,M,M,M,-DZ,M,M,M,M,M,M,35.08,KRTS 041525Z AUTO 01014G19KT 10SM -DZ OVC025 06/03 A2989 RMK AO2,M
MEV,2025-05-04 15:25,-119.7500,38.9963,1441.42,46.40,42.80,87.19,350.00,11.00,0.00,29.85,M,6.00,16.00,FEW,BKN,OVC,M,2800.00,3400.00,3900.00,M,-RA BR,M,M,M,M,M,M,40.66,KMEV 041525Z AUTO 35011G16KT 6SM -RA BR FEW028 BKN034 OVC039 08/06 A2985 RMK AO2,M
BVU,2025-05-04 15:35,-114.8611,35.9475,671.00,60.80,50.00,67.54,320.00,13.00,0.00,29.67,M,10.00,M,SCT,SCT,M,M,9500.00,11000.00,M,M,M,M,M,M,M,M,M,60.80,KBVU 041535Z AUTO 32013KT 10SM SCT095 SCT110 16/10 A2967 RMK AO2,M
BAM,2025-05-04 15:35,-116.8743,40.5990,1382.36,51.80,46.40,81.74,0.00,0.00,0.00,29.84,M,10.00,M,OVC,M,M,M,1100.00,M,M,M,M,M,M,M,M,M,M,51.80,KBAM 041535Z AUTO 00000KT 10SM OVC011 11/08 A2984 RMK AO1,M
CXP,2025-05-04 15:35,-119.7326,39.1923,1431.00,46.40,42.80,87.19,340.00,11.00,0.00,29.88,M,8.00,17.00,SCT,BKN,BKN,M,2100.00,2700.00,3600.00,M,-RA,M,M,M,M,M,M,40.66,KCXP 041535Z AUTO 34011G17KT 8SM -RA SCT021 BKN027 BKN036 08/06 A2988 RMK AO2,M
HTH,2025-05-04 15:35,-118.6315,38.5448,1282.89,51.80,44.60,76.34,330.00,12.00,0.00,29.84,M,10.00,M,OVC,M,M,M,3200.00,M,M,M,M,M,M,M,M,M,M,51.80,KHTH 041535Z AUTO 33012KT 10SM OVC032 11/07 A2984 RMK A01,M
TMT,2025-05-04 15:35,-117.1971,39.4643,1749.34,43.50,42.00,94.40,0.00,0.00,0.00,29.85,M,10.00,M,BKN,OVC,M,M,700.00,1300.00,M,M,M,M,M,M,M,M,M,43.50,KTMT 041535Z AUTO 00000KT 10SM BKN007 OVC013 06/06 A2985 RMK AO2 T00640056,M
10U,2025-05-04 15:35,-116.1876,41.9532,1637.00,44.60,41.00,87.09,360.00,4.00,0.00,29.89,M,10.00,M,OVC,M,M,M,2300.00,M,M,M,M,M,M,M,M,M,M,42.13,K10U 041535Z AUTO 36004KT 10SM OVC023 07/05 A2989 RMK AO2,M
INS,2025-05-04 15:41,-115.6733,36.5872,955.00,57.20,48.20,71.83,110.00,6.00,0.00,29.74,1004.10,10.00,M,FEW,SCT,BKN,OVC,2700.00,3800.00,6500.00,8000.00,M,M,M,M,M,M,M,57.20,KINS 041541Z AUTO 11006KT 10SM FEW027 SCT038 BKN065 OVC080 14/09 A2974 RMK AO2 DZE1455DZB13E20RAB20E29DZB29E41 SLP041 $,M
P68,2025-05-04 15:53,-116.0056,39.6014,1993.00,48.00,42.00,79.60,0.00,0.00,0.00,29.81,1005.40,M,M,M,M,M,M,M,M,M,M,M,M,M,M,M,M,M,48.00,KP68 041553Z AUTO 00000KT 09/06 A2981 RMK AO1 SLP054 T00890056 $,M
DRA,2025-05-04 15:53,-116.0278,36.6206,1009.00,59.00,44.00,57.44,80.00,8.00,0.00,29.73,1003.50,10.00,M,OVC,M,M,M,9500.00,M,M,M,M,M,M,M,M,M,M,59.00,KDRA 041553Z AUTO 08008KT 10SM OVC095 15/07 A2973 RMK AO2 SLP035 T01500067,M
ELY,2025-05-04 15:53,-114.8453,39.2950,1909.00,48.00,38.00,68.13,160.00,7.00,0.00,29.82,1004.00,10.00,M,FEW,OVC,M,M,5000.00,7500.00,M,M,M,M,M,M,M,M,M,44.28,KELY 041553Z AUTO 16007KT 10SM FEW050 OVC075 09/03 A2982 RMK AO2 SLP040 T00890033 $,M
VGT,2025-05-04 15:53,-115.1933,36.2111,667.00,59.00,52.00,77.55,310.00,11.00,0.02,29.69,1005.70,10.00,M,BKN,OVC,M,M,8000.00,10000.00,M,M,M,M,M,M,M,M,M,59.00,KVGT 041553Z 31011KT 10SM BKN080 OVC100 15/11 A2969 RMK AO2 RAE25 SLP057 P0002 T01500111,M
LOL,2025-05-04 15:53,-118.5701,40.0684,1192.43,51.00,40.00,65.87,360.00,13.00,0.00,29.84,1009.10,10.00,M,OVC,M,M,M,2600.00,M,M,M,M,M,M,M,M,M,M,51.00,KLOL 041553Z AUTO 36013KT 10SM OVC026 11/04 A2984 RMK AO2 SLP091 T01060044,M
INS,2025-05-04 15:54,-115.6733,36.5872,955.00,57.20,48.20,71.83,110.00,9.00,0.00,29.75,1004.50,10.00,M,FEW,BKN,OVC,M,4000.00,5500.00,7500.00,M,-DZ,M,M,M,M,M,M,57.20,KINS 041554Z AUTO 11009KT 10SM -DZ FEW040 BKN055 OVC075 14/09 A2975 RMK AO2 DZB13E20RAB20E29DZB29E41DZB54 SLP045 $,M
BVU,2025-05-04 15:55,-114.8611,35.9475,671.00,60.80,51.80,72.20,310.00,8.00,0.00,29.68,M,10.00,14.00,BKN,BKN,M,M,6000.00,9000.00,M,M,M,M,M,M,M,M,M,60.80,KBVU 041555Z AUTO 31008G14KT 10SM BKN060 BKN090 16/11 A2968 RMK AO2,M
RNO,2025-05-04 15:55,-119.7711,39.4839,1341.00,47.00,41.00,79.52,350.00,7.00,0.01,29.88,1009.50,10.00,M,FEW,BKN,OVC,M,1500.00,2300.00,3200.00,M,-RA,M,M,M,M,M,M,43.06,KRNO 041555Z 35007KT 10SM -RA FEW015 BKN023 OVC032 08/05 A2988 RMK AO2 SLP095 P0001 T00830050 $,M
BAM,2025-05-04 15:55,-116.8743,40.5990,1382.36,51.80,48.20,87.47,350.00,3.00,0.00,29.84,M,10.00,M,BKN,OVC,M,M,900.00,1700.00,M,M,M,M,M,M,M,M,M,51.80,KBAM 041555Z AUTO 35003KT 10SM BKN009 OVC017 11/09 A2984 RMK AO1,M
MEV,2025-05-04 15:55,-119.7500,38.9963,1441.42,46.40,42.80,87.19,350.00,13.00,0.02,29.85,M,10.00,M,OVC,M,M,M,2500.00,M,M,M,-RA,M,M,M,M,M,M,40.02,KMEV 041555Z AUTO 35013KT 10SM -RA OVC025 08/06 A2985 RMK AO2 P0002,M
HTH,2025-05-04 15:55,-118.6315,38.5448,1282.89,51.80,46.40,81.74,340.00,11.00,0.00,29.83,M,10.00,M,BKN,OVC,M,M,3400.00,4200.00,M,M,M,M,M,M,M,M,M,51.80,KHTH 041555Z AUTO 34011KT 10SM BKN034 OVC042 11/08 A2983 RMK A01,M
TMT,2025-05-04 15:55,-117.1971,39.4643,1749.34,44.00,42.30,93.69,210.00,4.00,0.00,29.85,M,10.00,M,BKN,OVC,M,M,900.00,1300.00,M,M,M,M,M,M,M,M,M,41.43,KTMT 041555Z AUTO 21004KT 10SM BKN009 OVC013 07/06 A2985 RMK AO2 T00660057,M
10U,2025-05-04 15:55,-116.1876,41.9532,1637.00,44.60,41.00,87.09,20.00,8.00,0.00,29.88,M,10.00,M,OVC,M,M,M,2300.00,M,M,M,M,M,M,M,M,M,M,39.63,K10U 041555Z AUTO 02008KT 10SM OVC023 07/05 A2988 RMK AO2,M
CXP,2025-05-04 15:55,-119.7326,39.1923,1431.00,46.40,42.80,87.19,340.00,12.00,0.02,29.87,M,10.00,17.00,FEW,SCT,BKN,M,2100.00,2600.00,3100.00,M,M,M,M,M,M,M,M,40.33,KCXP 041555Z AUTO 34012G17KT 10SM FEW021 SCT026 BKN031 08/06 A2987 RMK AO2 P0002,M
RTS,2025-05-04 15:55,-119.8764,39.6682,1539.00,42.80,37.40,81.07,360.00,13.00,0.02,29.89,M,6.00,M,OVC,M,M,M,2400.00,M,M,M,-RA,M,M,M,M,M,M,35.40,KRTS 041555Z AUTO 36013KT 6SM -RA OVC024 06/03 A2989 RMK AO2 P0002,M
INS,2025-05-04 15:55,-115.6733,36.5872,955.00,57.00,48.70,73.72,110.00,10.00,T,29.75,1004.50,10.00,M,FEW,BKN,OVC,M,4000.00,5500.00,7500.00,M,-DZ,M,M,M,M,M,M,57.00,KINS 041555Z AUTO 11010KT 10SM -DZ FEW040 BKN055 OVC075 14/09 A2975 RMK AO2 DZE1455DZB13E20RAB20E29DZB29E41DZB54 SLP045 P0000 T01390093 $,M
LSV,2025-05-04 15:55,-115.0343,36.2362,570.00,63.30,52.00,66.59,290.00,5.00,T,29.65,1002.30,10.00,M,FEW,BKN,OVC,M,5000.00,8000.00,12000.00,M,M,M,M,M,M,M,M,63.30,KLSV 041555Z 29005KT 10SM FEW050 BKN080 OVC120 17/11 A2965 RMK AO2A RAB1455E12DZB12E14 SLP023 P0000 T01740112 $,M
EKO,2025-05-04 15:56,-115.7860,40.8242,1367.00,48.00,44.00,85.95,0.00,0.00,0.00,29.82,1007.80,10.00,M,OVC,M,M,M,3000.00,M,M,M,M,M,M,M,M,M,M,48.00,KEKO 041556Z AUTO 00000KT 10SM OVC030 09/07 A2982 RMK AO2 SLP078 T00890067,M
WMC,2025-05-04 15:56,-117.8072,40.9019,1315.00,43.00,41.00,92.58,340.00,14.00,0.03,29.86,1009.90,10.00,26.00,OVC,M,M,M,1900.00,M,M,M,-RA,M,M,M,28.00,330.00,2025-05-04 15:16,35.34,KWMC 041556Z AUTO 34014G26KT 10SM -RA OVC019 06/05 A2986 RMK AO2 PK WND 33028/1516 SLP099 P0003 T00610050,M
HND,2025-05-04 15:56,-115.1344,35.9729,742.79,59.00,52.00,77.55,340.00,3.00,0.01,29.72,1006.50,10.00,M,FEW,BKN,OVC,M,2600.00,5500.00,7500.00,M,-RA,M,M,M,M,M,M,59.00,KHND 041556Z 34003KT 10SM -RA FEW026 BKN055 OVC075 15/11 A2972 RMK AO2 RAE00B17 SLP065 P0001 T01500111 $,M
TPH,2025-05-04 15:56,-117.0904,38.0505,1654.00,49.00,41.00,73.77,310.00,11.00,0.00,29.79,1005.90,10.00,M,SCT,M,M,M,6500.00,M,M,M,M,M,M,M,M,M,M,43.95,KTPH 041556Z AUTO 31011KT 10SM SCT065 09/05 A2979 RMK AO2 SLP059 T00940050 $,M
LAS,2025-05-04 15:56,-115.1634,36.0719,663.00,60.00,51.00,72.12,330.00,11.00,0.03,29.70,1004.20,10.00,M,FEW,BKN,OVC,M,3700.00,7000.00,10000.00,M,M,M,M,M,M,M,M,60.00,KLAS 041556Z 33011KT 10SM FEW037 BKN070 OVC100 16/11 A2970 RMK AO2 RAE09B32E53 SLP042 P0003 T01560106 $,M
NFL,2025-05-04 15:57,-118.7010,39.4166,1199.00,52.00,46.00,79.92,340.00,10.00,0.00,29.83,1007.70,10.00,M,SCT,BKN,OVC,M,2000.00,2700.00,4900.00,M,M,M,M,M,M,M,M,52.00,KNFL 041557Z AUTO 34010KT 10SM SCT020 BKN027 OVC049 11/08 A2983 RMK AO2 SLP077 T01110078,M
NFL,2025-05-04 16:04,-118.7010,39.4166,1199.00,52.00,47.00,82.99,340.00,9.00,0.00,29.83,M,10.00,M,FEW,BKN,OVC,M,2000.00,4400.00,5000.00,M,M,M,M,M,M,M,M,52.00,KNFL 041604Z AUTO 34009KT 10SM FEW020 BKN044 OVC050 11/08 A2983 RMK AO2 T01110083,M
RTS,2025-05-04 16:05,-119.8764,39.6682,1539.00,42.80,37.40,81.07,M,M,0.00,29.90,M,8.00,M,OVC,M,M,M,2500.00,M,M,M,-RA,M,M,M,M,M,M,M,KRTS 041605Z AUTO G14KT 8SM -RA OVC025 06/03 A2990 RMK AO2,M
MEV,2025-05-04 16:05,-119.7500,38.9963,1441.42,48.20,44.60,87.28,360.00,14.00,0.00,29.85,M,10.00,M,BKN,OVC,M,M,2400.00,3000.00,M,M,M,M,M,M,M,M,M,42.04,KMEV 041605Z AUTO 36014KT 10SM BKN024 OVC030 09/07 A2985 RMK AO2,M
BVU,2025-05-04 16:15,-114.8611,35.9475,671.00,59.00,51.80,76.98,330.00,7.00,0.00,29.69,M,5.00,14.00,BKN,M,M,M,6000.00,M,M,M,-RA,M,M,M,M,M,M,59.00,KBVU 041615Z AUTO 33007G14KT 5SM -RA BKN060 15/11 A2969 RMK AO2,M
BAM,2025-05-04 16:15,-116.8743,40.5990,1382.36,51.80,48.20,87.47,0.00,0.00,0.00,29.84,M,10.00,M,SCT,BKN,OVC,M,1100.00,1500.00,2400.00,M,M,M,M,M,M,M,M,51.80,KBAM 041615Z AUTO 00000KT 10SM SCT011 BKN015 OVC024 11/09 A2984 RMK AO1,M
CXP,2025-05-04 16:15,-119.7326,39.1923,1431.00,46.40,41.00,81.34,330.00,15.00,0.00,29.87,M,10.00,M,OVC,M,M,M,3000.00,M,M,M,M,M,M,M,M,M,M,39.45,KCXP 041615Z AUTO 33015KT 10SM OVC030 08/05 A2987 RMK AO2,M
HTH,2025-05-04 16:15,-118.6315,38.5448,1282.89,51.80,46.40,81.74,330.00,12.00,0.00,29.83,M,10.00,M,BKN,BKN,OVC,M,3500.00,4400.00,7000.00,M,M,M,M,M,M,M,M,51.80,KHTH 041615Z AUTO 33012KT 10SM BKN035 BKN044 OVC070 11/08 A2983 RMK A01,M
TMT,2025-05-04 16:15,-117.1971,39.4643,1749.34,44.60,42.30,91.57,0.00,0.00,0.00,29.84,M,10.00,M,BKN,BKN,OVC,M,900.00,1400.00,2600.00,M,M,M,M,M,M,M,M,44.60,KTMT 041615Z AUTO 00000KT 10SM BKN009 BKN014 OVC026 07/06 A2984 RMK AO2 T00700057,M
10U,2025-05-04 16:15,-116.1876,41.9532,1637.00,44.60,39.20,81.20,40.00,6.00,0.00,29.88,M,10.00,M,OVC,M,M,M,2300.00,M,M,M,M,M,M,M,M,M,M,40.71,K10U 041615Z AUTO 04006KT 10SM OVC023 07/04 A2988 RMK AO2,M
LOL,2025-05-04 16:23,-118.5701,40.0684,1192.43,51.00,39.00,63.36,360.00,13.00,0.00,29.84,M,10.00,M,OVC,M,M,M,3000.00,M,M,M,M,M,M,M,M,M,M,51.00,KLOL 041623Z AUTO 36013KT 10SM OVC030 11/04 A2984 RMK AO2 T01060039,M
RTS,2025-05-04 16:25,-119.8764,39.6682,1539.00,42.80,37.40,81.07,350.00,15.00,0.00,29.90,M,9.00,M,OVC,M,M,M,2600.00,M,M,M,-RA,M,M,M,M,M,M,34.78,KRTS 041625Z AUTO 35015KT 9SM -RA OVC026 06/03 A2990 RMK AO2,M
NFL,2025-05-04 16:27,-118.7010,39.4166,1199.00,51.00,45.00,79.84,340.00,12.00,T,29.82,M,8.00,M,BKN,OVC,M,M,1300.00,4300.00,M,M,-RA,M,M,M,M,M,M,51.00,KNFL 041627Z AUTO 34012KT 8SM -RA BKN013 OVC043 11/07 A2982 RMK AO2 RAB21 P0000 T01060072,M
BAM,2025-05-04 16:35,-116.8743,40.5990,1382.36,51.80,48.20,87.47,0.00,0.00,0.00,29.83,M,10.00,M,SCT,BKN,OVC,M,1100.00,1400.00,2400.00,M,M,M,M,M,M,M,M,51.80,KBAM 041635Z AUTO 00000KT 10SM SCT011 BKN014 OVC024 11/09 A2983 RMK AO1,M
BVU,2025-05-04 16:35,-114.8611,35.9475,671.00,60.80,51.80,72.20,340.00,10.00,0.00,29.68,M,10.00,M,BKN,BKN,M,M,6000.00,10000.00,M,M,M,M,M,M,M,M,M,60.80,KBVU 041635Z AUTO 34010KT 10SM BKN060 BKN100 16/11 A2968 RMK AO2,M
CXP,2025-05-04 16:35,-119.7326,39.1923,1431.00,46.40,41.00,81.34,340.00,14.00,0.00,29.87,M,10.00,21.00,OVC,M,M,M,2700.00,M,M,M,M,M,M,M,M,M,M,39.72,KCXP 041635Z AUTO 34014G21KT 10SM OVC027 08/05 A2987 RMK AO2,M
HTH,2025-05-04 16:35,-118.6315,38.5448,1282.89,51.80,46.40,81.74,340.00,9.00,0.00,29.83,M,10.00,15.00,OVC,M,M,M,3400.00,M,M,M,M,M,M,M,M,M,M,51.80,KHTH 041635Z AUTO 34009G15KT 10SM OVC034 11/08 A2983 RMK A01,M
TMT,2025-05-04 16:35,-117.1971,39.4643,1749.34,45.00,43.00,92.65,150.00,3.00,0.00,29.84,M,10.00,M,BKN,OVC,M,M,1100.00,2600.00,M,M,M,M,M,M,M,M,M,43.55,KTMT 041635Z AUTO 15003KT 10SM BKN011 OVC026 07/06 A2984 RMK AO2 T00730061,M
10U,2025-05-04 16:35,-116.1876,41.9532,1637.00,44.60,41.00,87.09,10.00,9.00,0.00,29.88,M,10.00,M,OVC,M,M,M,2200.00,M,M,M,M,M,M,M,M,M,M,39.18,K10U 041635Z AUTO 01009KT 10SM OVC022 07/05 A2988 RMK AO2,M
NFL,2025-05-04 16:39,-118.7010,39.4166,1199.00,50.00,45.00,82.86,340.00,11.00,0.01,29.83,M,10.00,M,OVC,M,M,M,1600.00,M,M,M,-RA,M,M,M,M,M,M,50.00,KNFL 041639Z AUTO 34011KT 10SM -RA OVC016 10/07 A2983 RMK AO2 RAB21 P0001 T01000072,M
MEV,2025-05-04 16:45,-119.7500,38.9963,1441.42,48.20,44.60,87.28,360.00,15.00,0.00,29.84,M,10.00,21.00,SCT,OVC,M,M,2400.00,3300.00,M,M,M,M,M,M,M,M,M,41.78,KMEV 041645Z AUTO 36015G21KT 10SM SCT024 OVC033 09/07 A2984 RMK AO2,M
RTS,2025-05-04 16:45,-119.8764,39.6682,1539.00,42.80,37.40,81.07,350.00,15.00,0.00,29.90,M,9.00,M,BKN,BKN,M,M,2600.00,3300.00,M,M,-RA,M,M,M,M,M,M,34.78,KRTS 041645Z AUTO 35015KT 9SM -RA BKN026 BKN033 06/03 A2990 RMK AO2,M
LSV,2025-05-04 16:46,-115.0343,36.2362,570.00,62.60,51.80,67.75,250.00,5.00,0.00,29.67,1003.00,10.00,M,SCT,M,M,M,6000.00,M,M,M,-RA,M,M,M,M,M,M,62.60,KLSV 041646Z AUTO 25005KT 10SM -RA SCT060 17/11 A2967 RMK AO2 RAB37 SLP030 $,M
INS,2025-05-04 16:49,-115.6733,36.5872,955.00,55.40,48.20,76.66,50.00,4.00,0.00,29.74,1004.30,10.00,M,BKN,OVC,M,M,5500.00,8000.00,M,M,M,M,M,M,M,M,M,55.40,KINS 041649Z AUTO 05004KT 10SM BKN055 OVC080 13/09 A2974 RMK AO2 DZE1556RAB1556E46DZB46E49 SLP043 $,M
P68,2025-05-04 16:53,-116.0056,39.6014,1993.00,47.00,43.00,85.89,340.00,5.00,0.00,29.82,1005.70,M,M,M,M,M,M,M,M,M,M,M,M,M,M,M,M,M,44.21,KP68 041653Z AUTO 34005KT 08/06 A2982 RMK AO1 SLP057 T00830061 $,M
DRA,2025-05-04 16:53,-116.0278,36.6206,1009.00,59.00,45.00,59.67,50.00,7.00,0.00,29.72,1003.40,10.00,M,FEW,BKN,OVC,M,4800.00,8000.00,11000.00,M,M,M,M,M,M,M,M,59.00,KDRA 041653Z AUTO 05007KT 10SM FEW048 BKN080 OVC110 15/07 A2972 RMK AO2 SLP034 T01500072,M
ELY,2025-05-04 16:53,-114.8453,39.2950,1909.00,51.00,39.00,63.36,M,3.00,T,29.80,1003.20,10.00,M,FEW,BKN,OVC,M,3000.00,6500.00,9500.00,M,M,M,M,M,M,M,M,51.00,KELY 041653Z AUTO VRB03KT 10SM FEW030 BKN065 OVC095 11/04 A2980 RMK AO2 RAB42E52 SLP032 P0000 T01060039 $,M
VGT,2025-05-04 16:53,-115.1933,36.2111,667.00,61.00,49.00,64.61,320.00,13.00,T,29.70,1005.80,10.00,M,FEW,BKN,OVC,M,6000.00,7500.00,9000.00,M,-RA,M,M,M,M,M,M,61.00,KVGT 041653Z 32013KT 10SM -RA FEW060 BKN075 OVC090 16/09 A2970 RMK AO2 RAB51 SLP058 P0000 T01610094,M
LOL,2025-05-04 16:53,-118.5701,40.0684,1192.43,50.00,39.00,65.75,350.00,12.00,0.00,29.84,1009.50,10.00,M,BKN,OVC,M,M,2700.00,3700.00,M,M,M,M,M,M,M,M,M,50.00,KLOL 041653Z AUTO 35012KT 10SM BKN027 OVC037 10/04 A2984 RMK AO2 SLP095 T01000039,M
INS,2025-05-04 16:54,-115.6733,36.5872,955.00,55.40,48.20,76.66,50.00,4.00,0.00,29.74,1004.30,10.00,M,BKN,OVC,M,M,5500.00,8000.00,M,M,-DZ,M,M,M,M,M,M,55.40,KINS 041654Z AUTO 05004KT 10SM -DZ BKN055 OVC080 13/09 A2974 RMK AO2 DZB1555E1556RAB1556E46DZB46E49DZB54 SLP043 $,M
BVU,2025-05-04 16:55,-114.8611,35.9475,671.00,60.80,51.80,72.20,M,4.00,0.00,29.69,M,10.00,M,SCT,BKN,BKN,M,6000.00,8000.00,9500.00,M,M,M,M,M,M,M,M,60.80,KBVU 041655Z AUTO VRB04KT 10SM SCT060 BKN080 BKN095 16/11 A2969 RMK AO2,M
RNO,2025-05-04 16:55,-119.7711,39.4839,1341.00,47.00,41.00,79.52,350.00,9.00,0.03,29.88,1009.50,10.00,M,FEW,BKN,OVC,M,1500.00,2300.00,3200.00,M,-RA,M,M,M,M,M,M,42.17,KRNO 041655Z 35009KT 10SM -RA FEW015 BKN023 OVC032 08/05 A2988 RMK AO2 SLP095 P0003 T00830050 $,M
BAM,2025-05-04 16:55,-116.8743,40.5990,1382.36,51.80,50.00,93.55,10.00,3.00,0.00,29.83,M,10.00,M,BKN,BKN,OVC,M,1100.00,2000.00,2600.00,M,M,M,M,M,M,M,M,51.80,KBAM 041655Z AUTO 01003KT 10SM BKN011 BKN020 OVC026 11/10 A2983 RMK AO1,M
CXP,2025-05-04 16:55,-119.7326,39.1923,1431.00,48.20,41.00,76.01,320.00,15.00,0.00,29.87,M,10.00,M,OVC,M,M,M,2700.00,M,M,M,M,M,M,M,M,M,M,41.78,KCXP 041655Z AUTO 32015KT 10SM OVC027 09/05 A2987 RMK AO2,M
HTH,2025-05-04 16:55,-118.6315,38.5448,1282.89,53.60,46.40,76.50,330.00,10.00,0.00,29.82,M,10.00,M,BKN,SCT,OVC,M,3500.00,5500.00,6500.00,M,M,M,M,M,M,M,M,53.60,KHTH 041655Z AUTO 33010KT 10SM BKN035 SCT055 OVC065 12/08 A2982 RMK A01,M
TMT,2025-05-04 16:55,-117.1971,39.4643,1749.34,45.30,42.30,89.16,0.00,0.00,0.00,29.84,M,10.00,M,OVC,M,M,M,1300.00,M,M,M,M,M,M,M,M,M,M,45.30,KTMT 041655Z AUTO 00000KT 10SM OVC013 07/06 A2984 RMK AO2 T00740057,M
10U,2025-05-04 16:55,-116.1876,41.9532,1637.00,44.60,41.00,87.09,10.00,11.00,0.00,29.89,M,10.00,M,OVC,M,M,M,2000.00,M,M,M,M,M,M,M,M,M,M,38.39,K10U 041655Z AUTO 01011KT 10SM OVC020 07/05 A2989 RMK AO2,M
INS,2025-05-04 16:55,-115.6733,36.5872,955.00,55.40,48.00,76.09,60.00,5.00,0.02,29.74,1004.30,10.00,M,BKN,OVC,M,M,5500.00,8000.00,M,M,-DZ,M,M,M,M,M,M,55.40,KINS 041655Z AUTO 06005KT 10SM -DZ BKN055 OVC080 13/09 A2974 RMK AO2 DZB1555E1556RAB1556E46DZB46E49DZB54 SLP043 P0002 T01300089 $,M
LSV,2025-05-04 16:55,-115.0343,36.2362,570.00,61.50,52.00,70.95,290.00,3.00,0.03,29.67,1003.20,6.00,M,FEW,OVC,M,M,6000.00,8000.00,M,M,-RA,M,M,M,M,M,M,61.50,KLSV 041655Z 29003KT 6SM -RA FEW060 OVC080 16/11 A2967 RMK AO2A RAE1555RAB37 SLP032 P0003 T01640111 $,M
EKO,2025-05-04 16:56,-115.7860,40.8242,1367.00,52.00,45.00,76.94,270.00,3.00,0.00,29.80,1006.90,10.00,M,BKN,M,M,M,3800.00,M,M,M,M,M,M,M,M,M,M,52.00,KEKO 041656Z AUTO 27003KT 10SM BKN038 11/07 A2980 RMK AO2 SLP069 T01110072,M
WMC,2025-05-04 16:56,-117.8072,40.9019,1315.00,42.00,40.00,92.55,340.00,17.00,0.02,29.87,1010.20,9.00,28.00,OVC,M,M,M,1900.00,M,M,M,-RA,M,M,M,28.00,350.00,2025-05-04 16:36,33.18,KWMC 041656Z AUTO 34017G28KT 9SM -RA OVC019 06/04 A2987 RMK AO2 PK WND 35028/1636 SLP102 P0002 T00560044,M
HND,2025-05-04 16:56,-115.1344,35.9729,742.79,60.00,49.00,66.95,350.00,5.00,T,29.73,1006.70,10.00,M,FEW,BKN,OVC,M,3400.00,7000.00,8500.00,M,-RA,M,M,M,M,M,M,60.00,KHND 041656Z 35005KT 10SM -RA FEW034 BKN070 OVC085 16/09 A2973 RMK AO2 RAE08B47 SLP067 P0000 T01560094 $,M
TPH,2025-05-04 16:56,-117.0904,38.0505,1654.00,51.00,42.00,71.18,300.00,10.00,0.00,29.78,1005.10,10.00,M,FEW,M,M,M,7000.00,M,M,M,M,M,M,M,M,M,M,51.00,KTPH 041656Z AUTO 30010KT 10SM FEW070 11/06 A2978 RMK AO2 SLP051 T01060056 $,M
LAS,2025-05-04 16:56,-115.1634,36.0719,663.00,62.00,49.00,62.36,20.00,10.00,0.00,29.72,1004.70,10.00,M,FEW,BKN,OVC,M,5000.00,8000.00,10000.00,M,M,M,M,M,M,M,M,62.00,KLAS 041656Z 02010KT 10SM FEW050 BKN080 OVC100 17/09 A2972 RMK AO2 SLP047 T01670094 $,M
NFL,2025-05-04 16:57,-118.7010,39.4166,1199.00,50.00,44.00,79.76,340.00,12.00,0.01,29.83,1007.80,10.00,M,OVC,M,M,M,1800.00,M,M,M,M,M,M,M,M,M,M,50.00,KNFL 041657Z AUTO 34012KT 10SM OVC018 10/07 A2983 RMK AO2 RAB21E42 SLP078 P0001 T01000067,M
MEV,2025-05-04 17:05,-119.7500,38.9963,1441.42,48.20,44.60,87.28,360.00,15.00,0.00,29.84,M,10.00,25.00,BKN,OVC,M,M,2300.00,3500.00,M,M,M,M,M,M,M,M,M,41.78,KMEV 041705Z AUTO 36015G25KT 10SM BKN023 OVC035 09/07 A2984 RMK AO2,M
BVU,2025-05-04 17:15,-114.8611,35.9475,671.00,60.80,51.80,72.20,M,6.00,0.00,29.69,M,10.00,M,SCT,SCT,BKN,M,8000.00,9000.00,11000.00,M,M,M,M,M,M,M,M,60.80,KBVU 041715Z AUTO VRB06KT 10SM SCT080 SCT090 BKN110 16/11 A2969 RMK AO2 LTG DSNT N AND NE,M
BAM,2025-05-04 17:15,-116.8743,40.5990,1382.36,51.80,48.20,87.47,320.00,4.00,0.00,29.83,M,10.00,M,BKN,BKN,OVC,M,1100.00,1400.00,3200.00,M,M,M,M,M,M,M,M,51.80,KBAM 041715Z AUTO 32004KT 10SM BKN011 BKN014 OVC032 11/09 A2983 RMK AO1,M
CXP,2025-05-04 17:15,-119.7326,39.1923,1431.00,48.20,41.00,76.01,330.00,14.00,0.00,29.87,M,10.00,23.00,OVC,M,M,M,3000.00,M,M,M,M,M,M,M,M,M,M,42.04,KCXP 041715Z AUTO 33014G23KT 10SM OVC030 09/05 A2987 RMK AO2 LTG DSNT E,M
RTS,2025-05-04 17:15,-119.8764,39.6682,1539.00,42.80,37.40,81.07,350.00,13.00,0.00,29.91,M,10.00,19.00,OVC,M,M,M,2500.00,M,M,M,-DZ,M,M,M,M,M,M,35.40,KRTS 041715Z AUTO 35013G19KT 10SM -DZ OVC025 06/03 A2991 RMK AO2,M
HTH,2025-05-04 17:15,-118.6315,38.5448,1282.89,53.60,46.40,76.50,330.00,11.00,0.00,29.83,M,10.00,M,OVC,M,M,M,6500.00,M,M,M,M,M,M,M,M,M,M,53.60,KHTH 041715Z AUTO 33011KT 10SM OVC065 12/08 A2983 RMK A01,M
TMT,2025-05-04 17:15,-117.1971,39.4643,1749.34,46.00,42.00,85.83,0.00,0.00,0.00,29.84,M,10.00,M,SCT,BKN,OVC,M,1300.00,1700.00,2900.00,M,M,M,M,M,M,M,M,46.00,KTMT 041715Z AUTO 00000KT 10SM SCT013 BKN017 OVC029 08/06 A2984 RMK AO2 T00780056,M
10U,2025-05-04 17:15,-116.1876,41.9532,1637.00,44.60,39.20,81.20,360.00,14.00,0.00,29.89,M,10.00,19.00,OVC,M,M,M,1900.00,M,M,M,M,M,M,M,M,M,M,37.40,K10U 041715Z AUTO 36014G19KT 10SM OVC019 07/04 A2989 RMK AO2 LTG DSNT SE AND S,M
LSV,2025-05-04 17:24,-115.0343,36.2362,570.00,60.80,55.40,82.37,10.00,8.00,0.00,29.65,1002.50,10.00,M,CLR,M,M,M,M,M,M,M,M,M,M,M,M,M,M,60.80,KLSV 041724Z AUTO 01008KT 10SM CLR 16/13 A2965 RMK AO2 RAE05RAB12E24 SLP025 $,M
RTS,2025-05-04 17:25,-119.8764,39.6682,1539.00,42.80,37.40,81.07,350.00,14.00,0.00,29.90,M,10.00,M,OVC,M,M,M,2600.00,M,M,M,M,M,M,M,M,M,M,35.08,KRTS 041725Z AUTO 35014KT 10SM OVC026 06/03 A2990 RMK AO2,M
MEV,2025-05-04 17:25,-119.7500,38.9963,1441.42,50.00,44.60,81.61,10.00,18.00,0.00,29.85,M,10.00,26.00,SCT,BKN,M,M,2400.00,4200.00,M,M,M,M,M,M,M,M,M,50.00,KMEV 041725Z AUTO 01018G26KT 10SM SCT024 BKN042 10/07 A2985 RMK AO2 LTG DSNT E,M
BVU,2025-05-04 17:35,-114.8611,35.9475,671.00,62.60,50.00,63.38,360.00,7.00,0.00,29.68,M,10.00,M,FEW,FEW,SCT,M,4900.00,6500.00,8000.00,M,M,M,M,M,M,M,M,62.60,KBVU 041735Z AUTO 36007KT 10SM FEW049 FEW065 SCT080 17/10 A2968 RMK AO2 LTG DSNT N AND NE,M
BAM,2025-05-04 17:35,-116.8743,40.5990,1382.36,51.80,46.40,81.74,50.00,7.00,0.00,29.84,M,10.00,M,SCT,BKN,OVC,M,1100.00,1700.00,2200.00,M,M,M,M,M,M,M,M,51.80,KBAM 041735Z AUTO 05007KT 10SM SCT011 BKN017 OVC022 11/08 A2984 RMK AO1,M
CXP,2025-05-04 17:35,-119.7326,39.1923,1431.00,48.20,41.00,76.01,340.00,16.00,0.00,29.87,M,10.00,22.00,OVC,M,M,M,3200.00,M,M,M,M,M,M,M,M,M,M,41.53,KCXP 041735Z AUTO 34016G22KT 10SM OVC032 09/05 A2987 RMK AO2,M
HTH,2025-05-04 17:35,-118.6315,38.5448,1282.89,53.60,46.40,76.50,340.00,12.00,0.00,29.82,M,10.00,M,OVC,M,M,M,7000.00,M,M,M,M,M,M,M,M,M,M,53.60,KHTH 041735Z AUTO 34012KT 10SM OVC070 12/08 A2982 RMK A01,M
TMT,2025-05-04 17:35,-117.1971,39.4643,1749.34,46.60,42.80,86.53,260.00,3.00,0.00,29.84,M,10.00,M,SCT,OVC,M,M,1300.00,3100.00,M,M,M,M,M,M,M,M,M,45.38,KTMT 041735Z AUTO 26003KT 10SM SCT013 OVC031 08/06 A2984 RMK AO2 T00810060,M
10U,2025-05-04 17:35,-116.1876,41.9532,1637.00,42.80,39.20,86.99,10.00,15.00,0.00,29.90,M,10.00,M,OVC,M,M,M,1800.00,M,M,M,M,M,M,M,M,M,M,34.78,K10U 041735Z AUTO 01015KT 10SM OVC018 06/04 A2990 RMK AO2,M
INS,2025-05-04 17:44,-115.6733,36.5872,955.00,57.20,48.20,71.83,10.00,5.00,0.00,29.74,1004.10,10.00,M,FEW,BKN,BKN,M,1700.00,7500.00,9000.00,M,M,M,M,M,M,M,M,57.20,KINS 041744Z AUTO 01005KT 10SM FEW017 BKN075 BKN090 14/09 A2974 RMK AO2 DZE13RAB13E40DZB40E44 SLP041 $,M
P68,2025-05-04 17:53,-116.0056,39.6014,1993.00,48.00,42.00,79.60,0.00,0.00,0.00,29.81,1005.80,M,M,M,M,M,M,M,M,M,M,M,M,M,M,M,M,M,48.00,KP68 041753Z AUTO 00000KT 09/06 A2981 RMK AO1 SLP058 T00890056 10094 20050 57003 $,M
DRA,2025-05-04 17:53,-116.0278,36.6206,1009.00,59.00,46.00,61.98,110.00,8.00,0.00,29.73,1003.40,10.00,16.00,BKN,OVC,M,M,2500.00,9000.00,M,M,M,M,M,M,M,M,M,59.00,KDRA 041753Z AUTO 11008G16KT 10SM BKN025 OVC090 15/08 A2973 RMK AO2 SLP034 T01500078 10156 20133 51002,M
ELY,2025-05-04 17:53,-114.8453,39.2950,1909.00,52.00,37.00,56.45,M,5.00,0.00,29.80,1003.00,10.00,M,BKN,BKN,OVC,M,6000.00,7500.00,9000.00,M,M,M,M,M,M,M,M,52.00,KELY 041753Z AUTO VRB05KT 10SM BKN060 BKN075 OVC090 11/03 A2980 RMK AO2 SLP030 60000 T01110028 10111 20061 56010 $,M
VGT,2025-05-04 17:53,-115.1933,36.2111,667.00,61.00,49.00,64.61,310.00,12.00,T,29.69,1005.70,10.00,M,BKN,OVC,M,M,9500.00,11000.00,M,M,M,M,M,M,M,M,M,61.00,KVGT 041753Z 31012KT 10SM BKN095 OVC110 16/09 A2969 RMK AO2 RAE05 SLP057 P0000 60005 T01610094 10167 20144 56005,M
LOL,2025-05-04 17:53,-118.5701,40.0684,1192.43,50.00,38.00,63.23,350.00,14.00,0.00,29.86,1010.10,10.00,19.00,OVC,M,M,M,2600.00,M,M,M,M,M,M,M,M,M,M,50.00,KLOL 041753Z AUTO 35014G19KT 10SM OVC026 10/03 A2986 RMK AO2 SLP101 T01000033 10106 20094 53006,M
BVU,2025-05-04 17:55,-114.8611,35.9475,671.00,62.60,50.00,63.38,330.00,13.00,0.00,29.67,M,10.00,M,CLR,M,M,M,M,M,M,M,M,M,M,M,M,M,M,62.60,KBVU 041755Z AUTO 33013KT 10SM CLR 17/10 A2967 RMK AO2 LTG DSNT ALQDS,M
BAM,2025-05-04 17:55,-116.8743,40.5990,1382.36,51.80,46.40,81.74,50.00,6.00,0.00,29.84,M,10.00,M,SCT,BKN,OVC,M,1700.00,2400.00,2900.00,M,M,M,M,M,M,M,M,51.80,KBAM 041755Z AUTO 05006KT 10SM SCT017 BKN024 OVC029 11/08 A2984 RMK AO1,M
CXP,2025-05-04 17:55,-119.7326,39.1923,1431.00,48.20,41.00,76.01,340.00,14.00,0.00,29.88,M,10.00,21.00,OVC,M,M,M,3200.00,M,M,M,M,M,M,M,M,M,M,42.04,KCXP 041755Z AUTO 34014G21KT 10SM OVC032 09/05 A2988 RMK AO2,M
RNO,2025-05-04 17:55,-119.7711,39.4839,1341.00,47.00,40.00,76.49,350.00,12.00,0.02,29.89,1010.00,9.00,M,FEW,BKN,OVC,M,1500.00,2400.00,3200.00,M,-RA,M,M,M,M,M,M,41.09,KRNO 041755Z 35012KT 9SM -RA FEW015 BKN024 OVC032 08/04 A2989 RMK AO2 SLP100 P0002 60013 T00830044 10100 20078 52006 $,M
RTS,2025-05-04 17:55,-119.8764,39.6682,1539.00,44.60,37.40,75.68,360.00,13.00,0.00,29.90,M,10.00,18.00,OVC,M,M,M,3100.00,M,M,M,M,M,M,M,M,M,M,37.71,KRTS 041755Z AUTO 36013G18KT 10SM OVC031 07/03 A2990 RMK AO2,M
MEV,2025-05-04 17:55,-119.7500,38.9963,1441.42,50.00,42.80,76.18,360.00,18.00,0.00,29.85,M,10.00,M,SCT,BKN,M,M,4300.00,5000.00,M,M,M,M,M,M,M,M,M,50.00,KMEV 041755Z AUTO 36018KT 10SM SCT043 BKN050 10/06 A2985 RMK AO2,M
HTH,2025-05-04 17:55,-118.6315,38.5448,1282.89,55.40,46.40,71.64,350.00,15.00,0.00,29.82,M,10.00,M,OVC,M,M,M,7500.00,M,M,M,M,M,M,M,M,M,M,55.40,KHTH 041755Z AUTO 35015KT 10SM OVC075 13/08 A2982 RMK A01,M
TMT,2025-05-04 17:55,-117.1971,39.4643,1749.34,46.80,42.40,84.57,260.00,3.00,0.00,29.84,M,10.00,M,SCT,BKN,OVC,M,1100.00,2500.00,3100.00,M,M,M,M,M,M,M,M,45.61,KTMT 041755Z AUTO 26003KT 10SM SCT011 BKN025 OVC031 08/06 A2984 RMK AO2 T00820058 10083 20051,M
10U,2025-05-04 17:55,-116.1876,41.9532,1637.00,44.60,39.20,81.20,10.00,15.00,0.00,29.90,M,10.00,M,OVC,M,M,M,1800.00,M,M,M,M,M,M,M,M,M,M,37.11,K10U 041755Z AUTO 01015KT 10SM OVC018 07/04 A2990 RMK AO2,M
INS,2025-05-04 17:55,-115.6733,36.5872,955.00,57.40,48.40,71.85,10.00,6.00,0.01,29.75,1004.50,10.00,M,FEW,OVC,M,M,1900.00,8500.00,M,M,M,M,M,M,M,M,M,57.40,KINS 041755Z AUTO 01006KT 10SM FEW019 OVC085 14/09 A2975 RMK AO2 DZB1655E13RAB13E40DZB40E44 SLP045 P0001 60004 T01410091 10141 20126 50003 $,M
LSV,2025-05-04 17:55,-115.0343,36.2362,570.00,61.00,51.80,71.69,0.00,0.00,0.02,29.66,1002.80,10.00,M,FEW,BKN,OVC,M,4000.00,6000.00,8000.00,M,M,M,M,M,M,M,M,61.00,KLSV 041755Z 00000KT 10SM FEW040 BKN060 OVC080 16/11 A2966 RMK AO2A RAB1655E05RAB12E24 SLP028 P0002 60006 T01610110 10179 20155 53003 $,M
EKO,2025-05-04 17:56,-115.7860,40.8242,1367.00,54.00,44.00,68.82,0.00,0.00,0.00,29.80,1006.70,10.00,M,SCT,BKN,BKN,M,2500.00,3300.00,6000.00,M,M,M,M,M,M,M,M,54.00,KEKO 041756Z AUTO 00000KT 10SM SCT025 BKN033 BKN060 12/07 A2980 RMK AO2 SLP067 T01220067 10128 20044 56008,M
WMC,2025-05-04 17:56,-117.8072,40.9019,1315.00,42.00,39.00,89.01,340.00,17.00,T,29.88,1010.70,10.00,26.00,OVC,M,M,M,2100.00,M,M,M,-RA,M,M,M,29.00,340.00,2025-05-04 17:17,33.18,KWMC 041756Z AUTO 34017G26KT 10SM -RA OVC021 06/04 A2988 RMK AO2 PK WND 34029/1717 SLP107 P0000 60006 T00560039 10083 20056 53007,M
HND,2025-05-04 17:56,-115.1344,35.9729,742.79,63.00,49.00,60.20,20.00,9.00,0.00,29.72,1006.20,10.00,M,BKN,BKN,M,M,6500.00,8000.00,M,M,M,M,M,M,M,M,M,63.00,KHND 041756Z 02009KT 10SM BKN065 BKN080 17/09 A2972 RMK AO2 LTG DSNT SE RAE1657 SLP062 60011 T01720094 10172 20139 58001 $,M
TPH,2025-05-04 17:56,-117.0904,38.0505,1654.00,54.00,42.00,63.74,290.00,12.00,0.00,29.78,1005.00,10.00,M,CLR,M,M,M,M,M,M,M,M,M,M,M,M,M,M,54.00,KTPH 041756Z AUTO 29012KT 10SM CLR 12/06 A2978 RMK AO2 SLP050 T01220056 10122 20056 56005 $,M
LAS,2025-05-04 17:56,-115.1634,36.0719,663.00,62.00,50.00,64.73,330.00,13.00,T,29.71,1004.30,10.00,M,FEW,BKN,BKN,M,4500.00,7000.00,10000.00,M,-RA,M,M,M,M,M,M,62.00,KLAS 041756Z 33013KT 10SM -RA FEW045 BKN070 BKN100 17/10 A2971 RMK AO2 RAB46 SLP043 P0000 60012 T01670100 10172 20144 50002 $,M
NFL,2025-05-04 17:57,-118.7010,39.4166,1199.00,49.00,45.00,86.00,340.00,13.00,0.07,29.84,1008.20,4.00,M,OVC,M,M,M,2200.00,M,M,M,-RA BR,M,M,M,M,M,M,43.35,KNFL 041757Z AUTO 34013KT 4SM -RA BR OVC022 09/07 A2984 RMK AO2 RAB02 SLP082 P0007 60008 T00940072 10117 20094 53005,M
EKO,2025-05-04 18:04,-115.7860,40.8242,1367.00,55.00,44.00,66.36,110.00,5.00,0.00,29.80,M,10.00,M,BKN,BKN,M,M,2500.00,3000.00,M,M,M,M,M,M,M,M,M,55.00,KEKO 041804Z AUTO 11005KT 10SM BKN025 BKN030 13/07 A2980 RMK AO2 T01280067,M
DRA,2025-05-04 18:05,-116.0278,36.6206,1009.00,59.00,46.00,61.98,120.00,11.00,0.00,29.73,M,10.00,M,SCT,BKN,OVC,M,2600.00,3200.00,8000.00,M,M,M,M,M,M,M,M,59.00,KDRA 041805Z AUTO 12011KT 10SM SCT026 BKN032 OVC080 15/08 A2973 RMK AO2 T01500078,M
RTS,2025-05-04 18:05,-119.8764,39.6682,1539.00,44.60,37.40,75.68,360.00,13.00,0.00,29.91,M,10.00,M,OVC,M,M,M,3000.00,M,M,M,M,M,M,M,M,M,M,37.71,KRTS 041805Z AUTO 36013KT 10SM OVC030 07/03 A2991 RMK AO2,M
MEV,2025-05-04 18:05,-119.7500,38.9963,1441.42,50.00,42.80,76.18,360.00,18.00,0.00,29.85,M,10.00,M,FEW,OVC,M,M,2400.00,4900.00,M,M,M,M,M,M,M,M,M,50.00,KMEV 041805Z AUTO 36018KT 10SM FEW024 OVC049 10/06 A2985 RMK AO2,M
INS,2025-05-04 18:10,-115.6733,36.5872,955.00,59.00,48.20,67.33,100.00,7.00,0.00,29.75,1004.50,10.00,M,BKN,OVC,M,M,2000.00,9000.00,M,M,M,M,M,M,M,M,M,59.00,KINS 041810Z AUTO 10007KT 10SM BKN020 OVC090 15/09 A2975 RMK AO2 CIG 020V090 SLP045 $,M
DRA,2025-05-04 18:11,-116.0278,36.6206,1009.00,59.00,46.00,61.98,110.00,11.00,0.00,29.73,M,10.00,M,BKN,BKN,OVC,M,2800.00,6500.00,8000.00,M,M,M,M,M,M,M,M,59.00,KDRA 041811Z AUTO 11011KT 10SM BKN028 BKN065 OVC080 15/08 A2973 RMK AO2 T01500078,M
BVU,2025-05-04 18:15,-114.8611,35.9475,671.00,64.40,50.00,59.50,320.00,12.00,0.00,29.67,M,10.00,M,FEW,M,M,M,8500.00,M,M,M,M,M,M,M,M,M,M,64.40,KBVU 041815Z AUTO 32012KT 10SM FEW085 18/10 A2967 RMK AO2 LTG DSNT N-SE,M
BAM,2025-05-04 18:15,-116.8743,40.5990,1382.36,53.60,46.40,76.50,340.00,6.00,0.00,29.84,M,10.00,M,SCT,SCT,OVC,M,2000.00,2500.00,3300.00,M,M,M,M,M,M,M,M,53.60,KBAM 041815Z AUTO 34006KT 10SM SCT020 SCT025 OVC033 12/08 A2984 RMK AO1,M
CXP,2025-05-04 18:15,-119.7326,39.1923,1431.00,48.20,41.00,76.01,330.00,19.00,0.00,29.88,M,10.00,24.00,OVC,M,M,M,3100.00,M,M,M,M,M,M,M,M,M,M,40.86,KCXP 041815Z AUTO 33019G24KT 10SM OVC031 09/05 A2988 RMK AO2,M
HTH,2025-05-04 18:15,-118.6315,38.5448,1282.89,55.40,46.40,71.64,350.00,15.00,0.00,29.82,M,10.00,20.00,OVC,M,M,M,7500.00,M,M,M,M,M,M,M,M,M,M,55.40,KHTH 041815Z AUTO 35015G20KT 10SM OVC075 13/08 A2982 RMK A01,M
TMT,2025-05-04 18:15,-117.1971,39.4643,1749.34,47.50,42.40,82.37,280.00,3.00,0.00,29.84,M,10.00,M,SCT,SCT,OVC,M,1100.00,1900.00,3100.00,M,M,M,M,M,M,M,M,46.41,KTMT 041815Z AUTO 28003KT 10SM SCT011 SCT019 OVC031 09/06 A2984 RMK AO2 T00860058,M
10U,2025-05-04 18:15,-116.1876,41.9532,1637.00,42.80,37.40,81.07,20.00,13.00,0.00,29.90,M,10.00,18.00,OVC,M,M,M,1600.00,M,M,M,M,M,M,M,M,M,M,35.40,K10U 041815Z AUTO 02013G18KT 10SM OVC016 06/03 A2990 RMK AO2,M
INS,2025-05-04 18:18,-115.6733,36.5872,955.00,57.20,48.20,71.83,120.00,6.00,0.00,29.75,1004.70,10.00,M,BKN,BKN,BKN,OVC,2000.00,3400.00,6500.00,9000.00,-DZ,M,M,M,M,M,M,57.20,KINS 041818Z AUTO 12006KT 10SM -DZ BKN020 BKN034 BKN065 OVC090 14/09 A2975 RMK AO2 DZB18 SLP047 $,M
INS,2025-05-04 18:23,-115.6733,36.5872,955.00,57.20,48.20,71.83,0.00,0.00,0.00,29.75,1004.70,10.00,M,SCT,BKN,BKN,OVC,2000.00,3400.00,6000.00,7500.00,-DZ,M,M,M,M,M,M,57.20,KINS 041823Z AUTO 00000KT 10SM -DZ SCT020 BKN034 BKN060 OVC075 14/09 A2975 RMK AO2 DZE1755DZB18 SLP047 $,M
LSV,2025-05-04 18:23,-115.0343,36.2362,570.00,62.60,51.80,67.75,0.00,0.00,0.00,29.64,1002.10,10.00,M,FEW,FEW,SCT,M,11000.00,17000.00,20000.00,M,-DZ,M,M,M,M,M,M,62.60,KLSV 041823Z AUTO 00000KT 10SM -DZ FEW110 FEW170 SCT200 17/11 A2964 RMK AO2 DZB15 SLP021 $,M
LSV,2025-05-04 18:24,-115.0343,36.2362,570.00,62.60,51.80,67.75,0.00,0.00,0.00,29.64,1002.10,10.00,M,FEW,FEW,SCT,M,11000.00,17000.00,20000.00,M,M,M,M,M,M,M,M,62.60,KLSV 041824Z AUTO 00000KT 10SM FEW110 FEW170 SCT200 17/11 A2964 RMK AO2 DZB15E24 SLP021 $,M
EKO,2025-05-04 18:25,-115.7860,40.8242,1367.00,55.00,43.00,63.86,90.00,4.00,0.00,29.79,M,10.00,M,FEW,OVC,M,M,2500.00,3500.00,M,M,M,M,M,M,M,M,M,55.00,KEKO 041825Z AUTO 09004KT 10SM FEW025 OVC035 13/06 A2979 RMK AO2 T01280061,M
CXP,2025-05-04 18:35,-119.7326,39.1923,1431.00,48.20,41.00,76.01,330.00,17.00,0.00,29.88,M,10.00,M,OVC,M,M,M,3000.00,M,M,M,M,M,M,M,M,M,M,41.30,KCXP 041835Z AUTO 33017KT 10SM OVC030 09/05 A2988 RMK AO2,M
RTS,2025-05-04 18:35,-119.8764,39.6682,1539.00,44.60,37.40,75.68,350.00,14.00,0.00,29.91,M,10.00,19.00,BKN,OVC,M,M,2600.00,3300.00,M,M,M,M,M,M,M,M,M,37.40,KRTS 041835Z AUTO 35014G19KT 10SM BKN026 OVC033 07/03 A2991 RMK AO2,M
MEV,2025-05-04 18:35,-119.7500,38.9963,1441.42,50.00,41.00,71.07,360.00,18.00,0.00,29.86,M,10.00,24.00,BKN,BKN,OVC,M,2400.00,3100.00,4600.00,M,M,M,M,M,M,M,M,50.00,KMEV 041835Z AUTO 36018G24KT 10SM BKN024 BKN031 OVC046 10/05 A2986 RMK AO2,M
HTH,2025-05-04 18:35,-118.6315,38.5448,1282.89,53.60,46.40,76.50,350.00,19.00,0.00,29.82,M,10.00,M,OVC,M,M,M,7500.00,M,M,M,M,M,M,M,M,M,M,53.60,KHTH 041835Z AUTO 35019KT 10SM OVC075 12/08 A2982 RMK A01,M
TMT,2025-05-04 18:35,-117.1971,39.4643,1749.34,48.40,43.00,81.49,340.00,4.00,0.00,29.84,M,10.00,M,BKN,OVC,M,M,2300.00,3100.00,M,M,M,M,M,M,M,M,M,46.57,KTMT 041835Z AUTO 34004KT 10SM BKN023 OVC031 09/06 A2984 RMK AO2 T00910062,M
10U,2025-05-04 18:35,-116.1876,41.9532,1637.00,42.80,37.40,81.07,20.00,12.00,0.00,29.90,M,10.00,19.00,OVC,M,M,M,1600.00,M,M,M,M,M,M,M,M,M,M,35.75,K10U 041835Z AUTO 02012G19KT 10SM OVC016 06/03 A2990 RMK AO2,M
BVU,2025-05-04 18:35,-114.8611,35.9475,671.00,64.40,48.20,55.63,320.00,12.00,0.00,29.67,M,10.00,19.00,FEW,FEW,M,M,8000.00,11000.00,M,M,VCTS,M,M,M,M,M,M,64.40,KBVU 041835Z AUTO 32012G19KT 10SM VCTS FEW080 FEW110 18/09 A2967 RMK AO2 LTG DSNT ALQDS,M
BAM,2025-05-04 18:35,-116.8743,40.5990,1382.36,53.60,46.40,76.50,330.00,6.00,0.00,29.84,M,10.00,M,BKN,OVC,M,M,2000.00,3300.00,M,M,M,M,M,M,M,M,M,53.60,KBAM 041835Z AUTO 33006KT 10SM BKN020 OVC033 12/08 A2984 RMK AO1,M
MEV,2025-05-04 18:45,-119.7500,38.9963,1441.42,50.00,41.00,71.07,360.00,18.00,0.00,29.86,M,10.00,23.00,OVC,M,M,M,2400.00,M,M,M,M,M,M,M,M,M,M,50.00,KMEV 041845Z AUTO 36018G23KT 10SM OVC024 10/05 A2986 RMK AO2,M
RTS,2025-05-04 18:45,-119.8764,39.6682,1539.00,46.40,37.40,70.68,350.00,14.00,0.00,29.91,M,10.00,M,BKN,OVC,M,M,2700.00,3200.00,M,M,M,M,M,M,M,M,M,39.72,KRTS 041845Z AUTO 35014KT 10SM BKN027 OVC032 08/03 A2991 RMK AO2,M
DRA,2025-05-04 18:47,-116.0278,36.6206,1009.00,61.00,44.00,53.49,100.00,10.00,0.00,29.72,M,10.00,M,OVC,M,M,M,3200.00,M,M,M,M,M,M,M,M,M,M,61.00,KDRA 041847Z AUTO 10010KT 10SM OVC032 16/07 A2972 RMK AO2 T01610067,M
P68,2025-05-04 18:53,-116.0056,39.6014,1993.00,52.00,44.00,74.07,M,4.00,0.00,29.78,1004.30,M,M,M,M,M,M,M,M,M,M,M,M,M,M,M,M,M,52.00,KP68 041853Z AUTO VRB04KT 11/07 A2978 RMK AO1 SLP043 T01110067 $,M
DRA,2025-05-04 18:53,-116.0278,36.6206,1009.00,61.00,45.00,55.57,90.00,11.00,0.00,29.72,1003.30,10.00,19.00,OVC,M,M,M,3400.00,M,M,M,M,M,M,M,M,M,M,61.00,KDRA 041853Z AUTO 09011G19KT 10SM OVC034 16/07 A2972 RMK AO2 SLP033 T01610072,M
ELY,2025-05-04 18:53,-114.8453,39.2950,1909.00,54.00,37.00,52.45,30.00,10.00,0.00,29.79,1002.00,10.00,M,BKN,BKN,M,M,6000.00,9500.00,M,M,M,M,M,M,M,M,M,54.00,KELY 041853Z AUTO 03010KT 10SM BKN060 BKN095 12/03 A2979 RMK AO2 SLP020 T01220028 $,M
VGT,2025-05-04 18:53,-115.1933,36.2111,667.00,66.00,50.00,56.27,320.00,16.00,T,29.66,1004.50,10.00,25.00,CLR,M,M,M,M,M,M,M,M,M,M,M,26.00,310.00,2025-05-04 18:30,66.00,KVGT 041853Z 32016G25KT 10SM CLR 19/10 A2966 RMK AO2 PK WND 31026/1830 RAB08E28 SLP045 P0000 T01890100,M
LOL,2025-05-04 18:53,-118.5701,40.0684,1192.43,51.00,39.00,63.36,30.00,18.00,0.00,29.86,1010.20,10.00,M,BKN,BKN,OVC,M,2800.00,3400.00,4600.00,M,M,M,M,M,M,M,M,51.00,KLOL 041853Z AUTO 03018KT 10SM BKN028 BKN034 OVC046 11/04 A2986 RMK AO2 SLP102 T01060039,M
INS,2025-05-04 18:54,-115.6733,36.5872,955.00,57.20,48.20,71.83,0.00,0.00,0.00,29.73,1004.00,10.00,M,FEW,FEW,BKN,BKN,400.00,1800.00,5000.00,9000.00,M,M,M,M,M,M,M,57.20,KINS 041854Z AUTO 00000KT 10SM FEW004 FEW018 BKN050 BKN090 14/09 A2973 RMK AO2 DZE1755DZB18E29RAB29E51DZB51E54 SLP040 $,M
BVU,2025-05-04 18:55,-114.8611,35.9475,671.00,64.40,48.20,55.63,330.00,10.00,0.00,29.66,M,10.00,M,CLR,M,M,M,M,M,M,M,VCTS,M,M,M,M,M,M,64.40,KBVU 041855Z AUTO 33010KT 10SM VCTS CLR 18/09 A2966 RMK AO2 LTG DSNT N AND E AND S,M
RNO,2025-05-04 18:55,-119.7711,39.4839,1341.00,48.00,41.00,76.58,350.00,11.00,0.01,29.89,1010.30,10.00,15.00,FEW,BKN,OVC,M,1500.00,2600.00,3500.00,M,-RA,M,M,M,M,M,M,42.69,KRNO 041855Z 35011G15KT 10SM -RA FEW015 BKN026 OVC035 09/05 A2989 RMK AO2 SLP103 P0001 T00890050 $,M
BAM,2025-05-04 18:55,-116.8743,40.5990,1382.36,51.80,46.40,81.74,310.00,12.00,0.00,29.84,M,10.00,M,OVC,M,M,M,2200.00,M,M,M,M,M,M,M,M,M,M,51.80,KBAM 041855Z AUTO 31012KT 10SM OVC022 11/08 A2984 RMK AO1,M
CXP,2025-05-04 18:55,-119.7326,39.1923,1431.00,48.20,41.00,76.01,340.00,17.00,0.00,29.88,M,10.00,M,OVC,M,M,M,3100.00,M,M,M,M,M,M,M,M,M,M,41.30,KCXP 041855Z AUTO 34017KT 10SM OVC031 09/05 A2988 RMK AO2,M
HTH,2025-05-04 18:55,-118.6315,38.5448,1282.89,55.40,46.40,71.64,330.00,21.00,0.00,29.82,M,10.00,26.00,OVC,M,M,M,8000.00,M,M,M,M,M,M,M,M,M,M,55.40,KHTH 041855Z AUTO 33021G26KT 10SM OVC080 13/08 A2982 RMK A01,M
TMT,2025-05-04 18:55,-117.1971,39.4643,1749.34,49.30,43.30,79.70,320.00,4.00,0.00,29.83,M,10.00,M,BKN,OVC,M,M,1600.00,2500.00,M,M,M,M,M,M,M,M,M,47.62,KTMT 041855Z AUTO 32004KT 10SM BKN016 OVC025 10/06 A2983 RMK AO2 T00960063,M
10U,2025-05-04 18:55,-116.1876,41.9532,1637.00,44.60,37.40,75.68,30.00,15.00,0.00,29.90,M,10.00,21.00,OVC,M,M,M,1800.00,M,M,M,M,M,M,M,M,M,M,37.11,K10U 041855Z AUTO 03015G21KT 10SM OVC018 07/03 A2990 RMK AO2 LTG DSNT S,M
INS,2025-05-04 18:55,-115.6733,36.5872,955.00,57.00,48.60,73.44,0.00,0.00,0.02,29.73,1004.00,10.00,M,FEW,FEW,BKN,BKN,400.00,1800.00,5000.00,9000.00,M,M,M,M,M,M,M,57.00,KINS 041855Z AUTO 00000KT 10SM FEW004 FEW018 BKN050 BKN090 14/09 A2973 RMK AO2 DZB18E29RAB29E51DZB51E54 SLP040 P0002 T01380092 $,M
LSV,2025-05-04 18:55,-115.0343,36.2362,570.00,66.20,53.20,62.89,310.00,4.00,T,29.63,1001.60,10.00,M,FEW,BKN,OVC,M,5000.00,8000.00,15000.00,M,M,M,M,M,M,M,M,66.20,KLSV 041855Z 31004KT 10SM FEW050 BKN080 OVC150 19/12 A2963 RMK AO2A DZB15E24 SLP016 P0000 T01900118 $,M
EKO,2025-05-04 18:56,-115.7860,40.8242,1367.00,58.00,44.00,59.54,310.00,5.00,0.00,29.78,1005.50,10.00,M,BKN,BKN,OVC,M,3200.00,4200.00,8500.00,M,M,M,M,M,M,M,M,58.00,KEKO 041856Z AUTO 31005KT 10SM BKN032 BKN042 OVC085 14/07 A2978 RMK AO2 LTG DSNT SW AND W SLP055 T01440067,M
WMC,2025-05-04 18:56,-117.8072,40.9019,1315.00,42.00,39.00,89.01,340.00,16.00,T,29.89,1011.20,10.00,27.00,OVC,M,M,M,2200.00,M,M,M,-RA,M,M,M,27.00,330.00,2025-05-04 18:53,33.45,KWMC 041856Z AUTO 34016G27KT 10SM -RA OVC022 06/04 A2989 RMK AO2 PK WND 33027/1853 SLP112 P0000 T00560039,M
HND,2025-05-04 18:56,-115.1344,35.9729,742.79,64.00,46.00,51.93,360.00,8.00,0.00,29.70,1005.60,10.00,M,BKN,OVC,M,M,7000.00,9000.00,M,M,M,M,M,M,M,M,M,64.00,KHND 041856Z 36008KT 10SM BKN070 OVC090 18/08 A2970 RMK AO2 LTG DSNT SE SLP056 T01780078 $,M
TPH,2025-05-04 18:56,-117.0904,38.0505,1654.00,55.00,41.00,59.13,290.00,11.00,0.00,29.77,1004.90,10.00,M,FEW,OVC,M,M,3300.00,6000.00,M,M,M,M,M,M,M,M,M,55.00,KTPH 041856Z AUTO 29011KT 10SM FEW033 OVC060 13/05 A2977 RMK AO2 SLP049 T01280050 $,M
LAS,2025-05-04 18:56,-115.1634,36.0719,663.00,66.00,47.00,50.29,340.00,14.00,T,29.69,1003.40,10.00,18.00,FEW,SCT,BKN,BKN,4500.00,7000.00,12000.00,25000.00,M,M,M,M,M,M,M,66.00,KLAS 041856Z 34014G18KT 10SM FEW045 SCT070 BKN120 BKN250 19/08 A2969 RMK AO2 RAE02 SLP034 P0000 T01890083 $,M
NFL,2025-05-04 18:57,-118.7010,39.4166,1199.00,51.00,44.00,76.85,340.00,15.00,T,29.85,1008.40,10.00,M,OVC,M,M,M,2600.00,M,M,M,M,M,M,M,M,M,M,51.00,KNFL 041857Z AUTO 34015KT 10SM OVC026 11/07 A2985 RMK AO2 RAE13 SLP084 P0000 T01060067,M
TPH,2025-05-04 19:06,-117.0904,38.0505,1654.00,55.00,40.00,56.88,280.00,12.00,0.00,29.77,M,10.00,17.00,FEW,OVC,M,M,3300.00,6000.00,M,M,VCTS,M,M,M,M,M,M,55.00,KTPH 041906Z AUTO 28012G17KT 10SM VCTS FEW033 OVC060 13/04 A2977 RMK AO2 LTG DSNT NE AND E T01280044 $,M
BVU,2025-05-04 19:15,-114.8611,35.9475,671.00,64.40,46.40,51.98,280.00,12.00,0.00,29.67,M,10.00,M,BKN,BKN,BKN,M,7000.00,8000.00,9500.00,M,M,M,M,M,M,M,M,64.40,KBVU 041915Z AUTO 28012KT 10SM BKN070 BKN080 BKN095 18/08 A2967 RMK AO2 LTG DSNT E AND SE,M
BAM,2025-05-04 19:15,-116.8743,40.5990,1382.36,53.60,46.40,76.50,320.00,14.00,0.00,29.84,M,10.00,M,BKN,OVC,M,M,2200.00,4700.00,M,M,M,M,M,M,M,M,M,53.60,KBAM 041915Z AUTO 32014KT 10SM BKN022 OVC047 12/08 A2984 RMK AO1,M
CXP,2025-05-04 19:15,-119.7326,39.1923,1431.00,48.20,39.20,70.88,330.00,18.00,0.00,29.89,M,10.00,M,OVC,M,M,M,3000.00,M,M,M,M,M,M,M,M,M,M,41.07,KCXP 041915Z AUTO 33018KT 10SM OVC030 09/04 A2989 RMK AO2,M
RTS,2025-05-04 19:15,-119.8764,39.6682,1539.00,46.40,35.60,65.83,350.00,12.00,0.00,29.91,M,10.00,M,OVC,M,M,M,2700.00,M,M,M,M,M,M,M,M,M,M,40.33,KRTS 041915Z AUTO 35012KT 10SM OVC027 08/02 A2991 RMK AO2,M
MEV,2025-05-04 19:15,-119.7500,38.9963,1441.42,50.00,41.00,71.07,360.00,17.00,0.00,29.86,M,10.00,M,OVC,M,M,M,2300.00,M,M,M,M,M,M,M,M,M,M,50.00,KMEV 041915Z AUTO 36017KT 10SM OVC023 10/05 A2986 RMK AO2,M
HTH,2025-05-04 19:15,-118.6315,38.5448,1282.89,55.40,46.40,71.64,350.00,23.00,0.00,29.82,M,10.00,29.00,SCT,SCT,OVC,M,1700.00,3300.00,8000.00,M,M,M,M,M,M,M,M,55.40,KHTH 041915Z AUTO 35023G29KT 10SM SCT017 SCT033 OVC080 13/08 A2982 RMK A01,M
TMT,2025-05-04 19:15,-117.1971,39.4643,1749.34,50.00,43.30,77.65,320.00,5.00,0.00,29.82,M,10.00,M,BKN,BKN,OVC,M,1600.00,2700.00,3200.00,M,M,M,M,M,M,M,M,50.00,KTMT 041915Z AUTO 32005KT 10SM BKN016 BKN027 OVC032 10/06 A2982 RMK AO2 T01000063,M
10U,2025-05-04 19:15,-116.1876,41.9532,1637.00,44.60,37.40,75.68,360.00,14.00,0.00,29.91,M,10.00,19.00,BKN,OVC,M,M,1800.00,2800.00,M,M,M,M,M,M,M,M,M,37.40,K10U 041915Z AUTO 36014G19KT 10SM BKN018 OVC028 07/03 A2991 RMK AO2,M
RTS,2025-05-04 19:25,-119.8764,39.6682,1539.00,46.40,37.40,70.68,360.00,14.00,0.00,29.91,M,10.00,M,OVC,M,M,M,2700.00,M,M,M,M,M,M,M,M,M,M,39.72,KRTS 041925Z AUTO 36014KT 10SM OVC027 08/03 A2991 RMK AO2,M
MEV,2025-05-04 19:25,-119.7500,38.9963,1441.42,48.20,41.00,76.01,360.00,19.00,0.00,29.86,M,10.00,M,OVC,M,M,M,2400.00,M,M,M,UP,M,M,M,M,M,M,40.86,KMEV 041925Z AUTO 36019KT 10SM UP OVC024 09/05 A2986 RMK AO2 LTG DSNT E AND SE,M
LOL,2025-05-04 19:28,-118.5701,40.0684,1192.43,51.00,40.00,65.87,30.00,17.00,0.00,29.87,M,10.00,25.00,BKN,BKN,OVC,M,3000.00,3700.00,4600.00,M,M,M,M,M,27.00,30.00,2025-05-04 19:16,51.00,KLOL 041928Z AUTO 03017G25KT 10SM BKN030 BKN037 OVC046 11/04 A2987 RMK AO2 PK WND 03027/1916 T01060044,M
CXP,2025-05-04 19:30,-119.7326,39.1923,1431.00,48.20,39.20,70.88,330.00,14.00,0.00,29.89,M,10.00,21.00,OVC,M,M,M,3000.00,M,M,M,M,M,M,M,M,M,M,42.04,KCXP 041930Z AUTO 33014G21KT 310V010 10SM OVC030 09/04 A2989 RMK AO2,M
TPH,2025-05-04 19:33,-117.0904,38.0505,1654.00,56.00,40.00,54.85,320.00,11.00,0.00,29.77,M,10.00,M,FEW,BKN,OVC,M,3300.00,6500.00,8000.00,M,M,M,M,M,M,M,M,56.00,KTPH 041933Z AUTO 32011KT 10SM FEW033 BKN065 OVC080 13/04 A2977 RMK AO2 LTG DSNT NE T01330044 $,M
RNO,2025-05-04 19:34,-119.7711,39.4839,1341.00,48.00,40.00,73.67,10.00,9.00,T,29.89,M,10.00,M,FEW,BKN,OVC,M,2000.00,3400.00,4500.00,M,M,M,M,M,M,M,M,43.41,KRNO 041934Z 01009KT 10SM FEW020 BKN034 OVC045 09/04 A2989 RMK AO2 RAE21 P0000 T00890044 $,M
BAM,2025-05-04 19:35,-116.8743,40.5990,1382.36,53.60,46.40,76.50,310.00,15.00,0.00,29.83,M,10.00,20.00,BKN,OVC,M,M,2600.00,4700.00,M,M,M,M,M,M,M,M,M,53.60,KBAM 041935Z AUTO 31015G20KT 10SM BKN026 OVC047 12/08 A2983 RMK AO1,M
BVU,2025-05-04 19:35,-114.8611,35.9475,671.00,64.40,46.40,51.98,210.00,10.00,0.00,29.66,M,10.00,17.00,BKN,BKN,M,M,7000.00,12000.00,M,M,VCTS,M,M,M,M,M,M,64.40,KBVU 041935Z AUTO 21010G17KT 10SM VCTS BKN070 BKN120 18/08 A2966 RMK AO2 LTG DSNT N-SE,M
HTH,2025-05-04 19:35,-118.6315,38.5448,1282.89,55.40,46.40,71.64,340.00,22.00,0.00,29.82,M,10.00,28.00,SCT,SCT,OVC,M,1600.00,3300.00,8000.00,M,M,M,M,M,M,M,M,55.40,KHTH 041935Z AUTO 34022G28KT 10SM SCT016 SCT033 OVC080 13/08 A2982 RMK A01,M
TMT,2025-05-04 19:35,-117.1971,39.4643,1749.34,50.00,42.60,75.59,330.00,4.00,0.00,29.82,M,10.00,M,SCT,BKN,OVC,M,1800.00,2700.00,3200.00,M,M,M,M,M,M,M,M,50.00,KTMT 041935Z AUTO 33004KT 10SM SCT018 BKN027 OVC032 10/06 A2982 RMK AO2 T01000059,M
10U,2025-05-04 19:35,-116.1876,41.9532,1637.00,44.60,39.20,81.20,20.00,14.00,0.00,29.90,M,10.00,19.00,OVC,M,M,M,1700.00,M,M,M,M,M,M,M,M,M,M,37.40,K10U 041935Z AUTO 02014G19KT 10SM OVC017 07/04 A2990 RMK AO2,M
P68,2025-05-04 19:53,-116.0056,39.6014,1993.00,55.00,44.00,66.36,0.00,0.00,0.00,29.76,1003.60,M,M,M,M,M,M,M,M,M,M,M,M,M,M,M,M,M,55.00,KP68 041953Z AUTO 00000KT 13/07 A2976 RMK AO1 SLP036 T01280067 $,M
DRA,2025-05-04 19:53,-116.0278,36.6206,1009.00,64.00,43.00,46.32,20.00,11.00,0.00,29.69,1002.30,10.00,M,SCT,M,M,M,3800.00,M,M,M,M,M,M,M,M,M,M,64.00,KDRA 041953Z AUTO 02011KT 10SM SCT038 18/06 A2969 RMK AO2 SLP023 T01780061,M
ELY,2025-05-04 19:53,-114.8453,39.2950,1909.00,50.00,36.00,58.44,150.00,20.00,T,29.83,1004.60,10.00,27.00,FEW,BKN,OVC,M,3400.00,5000.00,6500.00,M,VCTS -RA,M,M,M,27.00,150.00,2025-05-04 19:51,50.00,KELY 041953Z AUTO 15020G27KT 10SM VCTS -RA FEW034 BKN050 OVC065 10/02 A2983 RMK AO2 PK WND 15027/1951 LTG DSNT NE AND SW RAB30 PRESRR SLP046 P0000 T01000022 $,M
VGT,2025-05-04 19:53,-115.1933,36.2111,667.00,66.00,45.00,46.62,340.00,15.00,0.00,29.65,1004.20,10.00,22.00,BKN,M,M,M,10000.00,M,M,M,M,M,M,M,27.00,320.00,2025-05-04 19:07,66.00,KVGT 041953Z 34015G22KT 10SM BKN100 19/07 A2965 RMK AO2 PK WND 32027/1907 SLP042 T01890072,M
LOL,2025-05-04 19:53,-118.5701,40.0684,1192.43,52.00,40.00,63.48,40.00,16.00,0.00,29.87,1010.30,10.00,24.00,OVC,M,M,M,3600.00,M,M,M,M,M,M,M,27.00,30.00,2025-05-04 19:16,52.00,KLOL 041953Z AUTO 04016G24KT 10SM OVC036 11/04 A2987 RMK AO2 PK WND 03027/1916 SLP103 T01110044,M
BVU,2025-05-04 19:55,-114.8611,35.9475,671.00,62.60,48.20,59.26,190.00,14.00,0.00,29.67,M,10.00,M,BKN,BKN,BKN,M,6500.00,9000.00,12000.00,M,M,M,M,M,M,M,M,62.60,KBVU 041955Z AUTO 19014KT 10SM BKN065 BKN090 BKN120 17/09 A2967 RMK AO2 LTG DSNT SE,M
RNO,2025-05-04 19:55,-119.7711,39.4839,1341.00,49.00,40.00,70.96,10.00,10.00,T,29.90,1010.20,10.00,M,FEW,BKN,OVC,M,2000.00,3400.00,4500.00,M,M,M,M,M,M,M,M,44.29,KRNO 041955Z 01010KT 10SM FEW020 BKN034 OVC045 09/04 A2990 RMK AO2 RAE21 SLP102 P0000 T00940044 $,M
BAM,2025-05-04 19:55,-116.8743,40.5990,1382.36,53.60,44.60,71.45,320.00,16.00,0.00,29.83,M,10.00,20.00,SCT,OVC,M,M,2200.00,2800.00,M,M,M,M,M,M,M,M,M,53.60,KBAM 041955Z AUTO 32016G20KT 10SM SCT022 OVC028 12/07 A2983 RMK AO1,M
CXP,2025-05-04 19:55,-119.7326,39.1923,1431.00,48.20,39.20,70.88,330.00,14.00,0.00,29.89,M,10.00,20.00,OVC,M,M,M,2900.00,M,M,M,M,M,M,M,M,M,M,42.04,KCXP 041955Z AUTO 33014G20KT 10SM OVC029 09/04 A2989 RMK AO2 LTG DSNT E-SW,M
RTS,2025-05-04 19:55,-119.8764,39.6682,1539.00,48.20,35.60,61.52,350.00,14.00,0.00,29.91,M,10.00,M,OVC,M,M,M,2700.00,M,M,M,M,M,M,M,M,M,M,42.04,KRTS 041955Z AUTO 35014KT 10SM OVC027 09/02 A2991 RMK AO2,M
MEV,2025-05-04 19:55,-119.7500,38.9963,1441.42,48.20,41.00,76.01,10.00,17.00,0.00,29.86,M,10.00,24.00,OVC,M,M,M,2500.00,M,M,M,-RA,M,M,M,M,M,M,41.30,KMEV 041955Z AUTO 01017G24KT 10SM -RA OVC025 09/05 A2986 RMK AO2 LTG DSNT E-SW,M
HTH,2025-05-04 19:55,-118.6315,38.5448,1282.89,53.60,44.60,71.45,340.00,19.00,0.00,29.82,M,10.00,28.00,SCT,BKN,OVC,M,1800.00,3300.00,8000.00,M,M,M,M,M,M,M,M,53.60,KHTH 041955Z AUTO 34019G28KT 10SM SCT018 BKN033 OVC080 12/07 A2982 RMK A01,M
TMT,2025-05-04 19:55,-117.1971,39.4643,1749.34,50.40,43.00,75.63,340.00,6.00,0.00,29.81,M,10.00,M,BKN,OVC,M,M,2000.00,2800.00,M,M,M,M,M,M,M,M,M,50.40,KTMT 041955Z AUTO 34006KT 10SM BKN020 OVC028 10/06 A2981 RMK AO2 T01020062,M
10U,2025-05-04 19:55,-116.1876,41.9532,1637.00,44.60,37.40,75.68,20.00,14.00,0.00,29.91,M,10.00,19.00,OVC,M,M,M,1700.00,M,M,M,M,M,M,M,M,M,M,37.40,K10U 041955Z AUTO 02014G19KT 10SM OVC017 07/03 A2991 RMK AO2,M
INS,2025-05-04 19:55,-115.6733,36.5872,955.00,59.00,48.00,66.83,240.00,3.00,0.00,29.71,1003.10,10.00,M,FEW,SCT,SCT,M,10000.00,13000.00,20000.00,M,M,M,M,M,M,M,M,59.00,KINS 041955Z AUTO 24003KT 10SM FEW100 SCT130 SCT200 15/09 A2971 RMK AO2 SLP031 T01510088 $,M
LSV,2025-05-04 19:55,-115.0343,36.2362,570.00,67.00,51.30,57.04,60.00,6.00,0.00,29.62,1001.30,10.00,M,SCT,OVC,M,M,7000.00,15000.00,M,M,M,M,M,M,M,M,M,67.00,KLSV 041955Z 06006KT 10SM SCT070 BKNB100 OVC150 19/11 A2962 RMK AO2A SLP013 T01940107 $,M
EKO,2025-05-04 19:56,-115.7860,40.8242,1367.00,58.00,41.00,53.05,30.00,8.00,0.00,29.77,1005.40,10.00,M,BKN,BKN,OVC,M,3600.00,4400.00,6000.00,M,M,M,M,M,M,M,M,58.00,KEKO 041956Z AUTO 03008KT 10SM BKN036 BKN044 OVC060 14/05 A2977 RMK AO2 SLP054 T01440050,M
WMC,2025-05-04 19:56,-117.8072,40.9019,1315.00,44.00,39.00,82.44,340.00,15.00,0.01,29.88,1010.90,10.00,22.00,OVC,M,M,M,2400.00,M,M,M,M,M,M,M,26.00,340.00,2025-05-04 19:36,36.34,KWMC 041956Z AUTO 34015G22KT 10SM OVC024 07/04 A2988 RMK AO2 PK WND 34026/1936 RAE23 SLP109 P0001 T00670039,M
HND,2025-05-04 19:56,-115.1344,35.9729,742.79,64.00,48.00,55.99,220.00,11.00,T,29.69,1005.40,10.00,M,FEW,SCT,BKN,M,3200.00,4700.00,8000.00,M,M,M,M,M,M,M,M,64.00,KHND 041956Z 22011KT 10SM FEW032 SCT047 BKN080 18/09 A2969 RMK AO2 LTG DSNT SE RAB31E52 SLP054 P0000 T01780089 $,M
TPH,2025-05-04 19:56,-117.0904,38.0505,1654.00,55.00,42.00,61.46,360.00,19.00,0.00,29.76,1004.50,10.00,M,BKN,BKN,OVC,M,3700.00,5000.00,7500.00,M,M,M,M,M,M,M,M,55.00,KTPH 041956Z AUTO 36019KT 10SM BKN037 BKN050 OVC075 13/06 A2976 RMK AO2 SLP045 T01280056 $,M
LAS,2025-05-04 19:56,-115.1634,36.0719,663.00,67.00,44.00,43.35,320.00,8.00,0.00,29.67,1002.90,10.00,M,FEW,BKN,BKN,BKN,4500.00,8500.00,12000.00,25000.00,M,M,M,M,M,M,M,67.00,KLAS 041956Z 32008KT 10SM FEW045 BKN085 BKN120 BKN250 19/07 A2967 RMK AO2 SLP029 T01940067 $,M
NFL,2025-05-04 19:57,-118.7010,39.4166,1199.00,52.00,43.00,71.28,350.00,15.00,T,29.85,1008.40,10.00,21.00,OVC,M,M,M,2500.00,M,M,M,M,M,M,M,M,M,M,52.00,KNFL 041957Z AUTO 35015G21KT 10SM OVC025 11/06 A2985 RMK AO2 RAB42E53 SLP084 P0000 T01110061,M
ELY,2025-05-04 19:59,-114.8453,39.2950,1909.00,41.00,35.00,79.02,150.00,8.00,T,29.83,M,2.50,27.00,FEW,BKN,OVC,M,2900.00,3800.00,6500.00,M,+TSRA,M,M,M,27.00,150.00,2025-05-04 19:54,35.20,KELY 041959Z AUTO 15008G27KT 2 1/2SM +TSRA FEW029 BKN038 OVC065 05/02 A2983 RMK AO2 PK WND 15027/1954 LTG DSNT NE AND SW TSB54 P0000 T00500017 $,M
RTS,2025-05-04 20:05,-119.8764,39.6682,1539.00,48.20,35.60,61.52,340.00,14.00,0.00,29.91,M,10.00,19.00,OVC,M,M,M,2700.00,M,M,M,M,M,M,M,M,M,M,42.04,KRTS 042005Z AUTO 34014G19KT 10SM OVC027 09/02 A2991 RMK AO2,M
MEV,2025-05-04 20:05,-119.7500,38.9963,1441.42,48.20,41.00,76.01,360.00,21.00,0.00,29.86,M,9.00,26.00,BKN,OVC,M,M,2500.00,3000.00,M,M,-RA,M,M,M,M,M,M,40.46,KMEV 042005Z AUTO 36021G26KT 9SM -RA BKN025 OVC030 09/05 A2986 RMK AO2 LTG DSNT E-S,M
ELY,2025-05-04 20:13,-114.8453,39.2950,1909.00,40.00,37.00,88.92,150.00,11.00,0.14,29.83,M,3.00,M,FEW,BKN,OVC,M,2900.00,3300.00,4700.00,M,VCTS -RA BR,M,M,M,27.00,150.00,2025-05-04 19:54,32.58,KELY 042013Z AUTO 15011KT 3SM VCTS -RA BR FEW029 BKN033 OVC047 04/03 A2983 RMK AO2 PK WND 15027/1954 LTG DSNT W TSB1954E09 P0014 T00440028 $,M
BVU,2025-05-04 20:15,-114.8611,35.9475,671.00,60.80,51.80,72.20,210.00,12.00,0.00,29.66,M,10.00,M,OVC,M,M,M,6500.00,M,M,M,-RA,M,M,M,M,M,M,60.80,KBVU 042015Z AUTO 21012KT 10SM -RA OVC065 16/11 A2966 RMK AO2 LTG DSNT NE-S,M
BAM,2025-05-04 20:15,-116.8743,40.5990,1382.36,53.60,44.60,71.45,320.00,16.00,0.00,29.83,M,10.00,20.00,OVC,M,M,M,2700.00,M,M,M,M,M,M,M,M,M,M,53.60,KBAM 042015Z AUTO 32016G20KT 10SM OVC027 12/07 A2983 RMK AO1,M
TMT,2025-05-04 20:15,-117.1971,39.4643,1749.34,51.60,43.00,72.34,340.00,8.00,0.00,29.81,M,10.00,M,BKN,BKN,OVC,M,2000.00,2900.00,3400.00,M,M,M,M,M,M,M,M,51.60,KTMT 042015Z AUTO 34008KT 10SM BKN020 BKN029 OVC034 11/06 A2981 RMK AO2 T01090062,M
CXP,2025-05-04 20:15,-119.7326,39.1923,1431.00,48.20,39.20,70.88,340.00,14.00,0.00,29.89,M,10.00,22.00,OVC,M,M,M,3200.00,M,M,M,M,M,M,M,M,M,M,42.04,KCXP 042015Z AUTO 34014G22KT 10SM OVC032 09/04 A2989 RMK AO2 LTG DSNT E AND S,M
HTH,2025-05-04 20:15,-118.6315,38.5448,1282.89,53.60,44.60,71.45,360.00,20.00,0.00,29.83,M,10.00,26.00,OVC,M,M,M,2000.00,M,M,M,M,M,M,M,M,M,M,53.60,KHTH 042015Z AUTO 36020G26KT 10SM OVC020 12/07 A2983 RMK A01,M
10U,2025-05-04 20:15,-116.1876,41.9532,1637.00,44.60,37.40,75.68,30.00,13.00,0.00,29.91,M,10.00,M,OVC,M,M,M,1800.00,M,M,M,M,M,M,M,M,M,M,37.71,K10U 042015Z AUTO 03013KT 10SM OVC018 07/03 A2991 RMK AO2,M
ELY,2025-05-04 20:27,-114.8453,39.2950,1909.00,41.00,38.00,88.97,140.00,12.00,0.15,29.83,M,5.00,M,OVC,M,M,M,3100.00,M,M,M,RA BR,M,M,M,27.00,150.00,2025-05-04 19:54,33.46,KELY 042027Z AUTO 14012KT 5SM RA BR OVC031 05/03 A2983 RMK AO2 PK WND 15027/1954 LTG DSNT E TSB1954E09 P0015 T00500033 $,M
CXP,2025-05-04 20:30,-119.7326,39.1923,1431.00,48.20,39.20,70.88,340.00,14.00,0.00,29.89,M,10.00,22.00,OVC,M,M,M,3200.00,M,M,M,-RA,M,M,M,M,M,M,42.04,KCXP 042030Z AUTO 34014G22KT 10SM -RA OVC032 09/04 A2989 RMK AO2,M
BAM,2025-05-04 20:35,-116.8743,40.5990,1382.36,55.40,44.60,66.91,320.00,17.00,0.00,29.83,M,10.00,22.00,BKN,BKN,OVC,M,2700.00,3700.00,8000.00,M,M,M,M,M,M,M,M,55.40,KBAM 042035Z AUTO 32017G22KT 10SM BKN027 BKN037 OVC080 13/07 A2983 RMK AO1,M
HTH,2025-05-04 20:35,-118.6315,38.5448,1282.89,51.80,44.60,76.34,340.00,20.00,0.00,29.83,M,10.00,27.00,OVC,M,M,M,1800.00,M,M,M,M,M,M,M,M,M,M,51.80,KHTH 042035Z AUTO 34020G27KT 10SM OVC018 11/07 A2983 RMK A01,M
TMT,2025-05-04 20:35,-117.1971,39.4643,1749.34,51.00,42.30,72.00,360.00,7.00,0.00,29.81,M,10.00,M,BKN,OVC,M,M,2400.00,3300.00,M,M,M,M,M,M,M,M,M,51.00,KTMT 042035Z AUTO 36007KT 10SM BKN024 OVC033 11/06 A2981 RMK AO2 T01050057,M
10U,2025-05-04 20:35,-116.1876,41.9532,1637.00,44.60,37.40,75.68,30.00,11.00,0.00,29.91,M,10.00,M,OVC,M,M,M,1800.00,M,M,M,M,M,M,M,M,M,M,38.39,K10U 042035Z AUTO 03011KT 10SM OVC018 07/03 A2991 RMK AO2,M
BVU,2025-05-04 20:35,-114.8611,35.9475,671.00,60.80,51.80,72.20,210.00,16.00,0.00,29.67,M,10.00,M,BKN,M,M,M,6500.00,M,M,M,M,M,M,M,M,M,M,60.80,KBVU 042035Z AUTO 21016KT 10SM BKN065 16/11 A2967 RMK AO2 LTG DSNT N-SE,M
EKO,2025-05-04 20:45,-115.7860,40.8242,1367.00,50.00,46.00,86.06,40.00,13.00,0.01,29.79,M,2.50,M,FEW,BKN,OVC,M,1700.00,3500.00,4700.00,M,TSRA BR,M,M,M,M,M,M,50.00,KEKO 042045Z AUTO 04013KT 2 1/2SM TSRA BR FEW017 BKN035 OVC047 10/08 A2979 RMK AO2 RAB33 TSB40 P0001 T01000078,M
10U,2025-05-04 20:50,-116.1876,41.9532,1637.00,44.60,39.20,81.20,20.00,10.00,0.00,29.91,M,10.00,16.00,OVC,M,M,M,1800.00,M,M,M,M,M,M,M,M,M,M,38.77,K10U 042050Z AUTO 02010G16KT 10SM OVC018 07/04 A2991 RMK AO2,M
P68,2025-05-04 20:53,-116.0056,39.6014,1993.00,50.00,43.00,76.76,50.00,8.00,0.00,29.78,1004.90,M,M,M,M,M,M,M,M,M,M,M,M,M,M,M,M,M,50.00,KP68 042053Z AUTO 05008KT 10/06 A2978 RMK AO1 SLP049 T01000061 55008 $,M
DRA,2025-05-04 20:53,-116.0278,36.6206,1009.00,66.00,42.00,41.57,40.00,11.00,0.00,29.67,1001.40,10.00,15.00,CLR,M,M,M,M,M,M,M,M,M,M,M,M,M,M,66.00,KDRA 042053Z AUTO 04011G15KT 10SM CLR 19/06 A2967 RMK AO2 SLP014 T01890056 58017,M
ELY,2025-05-04 20:53,-114.8453,39.2950,1909.00,43.00,39.00,85.66,160.00,8.00,0.18,29.82,1005.70,10.00,M,BKN,BKN,OVC,M,3300.00,6000.00,7500.00,M,-RA,M,M,M,27.00,150.00,2025-05-04 19:54,37.66,KELY 042053Z AUTO 16008KT 10SM -RA BKN033 BKN060 OVC075 06/04 A2982 RMK AO2 PK WND 15027/1954 TSB1954E09 SLP057 P0018 60018 T00610039 53008 $,M
VGT,2025-05-04 20:53,-115.1933,36.2111,667.00,67.00,44.00,43.35,350.00,10.00,0.00,29.64,1003.90,10.00,M,BKN,BKN,M,M,7500.00,11000.00,M,M,M,M,M,M,M,M,M,67.00,KVGT 042053Z 35010KT 10SM BKN075 BKN110 19/07 A2964 RMK AO2 LTG DSNT SE SLP039 60000 T01940067 56016,M
RNO,2025-05-04 20:55,-119.7711,39.4839,1341.00,51.00,38.00,60.92,20.00,11.00,0.00,29.89,1009.90,10.00,M,FEW,BKN,OVC,M,2000.00,3400.00,4500.00,M,M,M,M,M,M,M,M,51.00,KRNO 042055Z 02011KT 10SM FEW020 BKN034 OVC045 11/03 A2989 RMK AO2 SLP099 60001 T01060033 50001 $,M
BAM,2025-05-04 20:55,-116.8743,40.5990,1382.36,53.60,44.60,71.45,320.00,16.00,0.00,29.83,M,10.00,25.00,BKN,BKN,OVC,M,2900.00,3600.00,4600.00,M,M,M,M,M,M,M,M,53.60,KBAM 042055Z AUTO 32016G25KT 10SM BKN029 BKN036 OVC046 12/07 A2983 RMK AO1,M
MEV,2025-05-04 20:55,-119.7500,38.9963,1441.42,48.20,41.00,76.01,360.00,17.00,0.00,29.87,M,10.00,23.00,BKN,OVC,M,M,2400.00,4000.00,M,M,M,M,M,M,M,M,M,41.30,KMEV 042055Z AUTO 36017G23KT 10SM BKN024 OVC040 09/05 A2987 RMK AO2,M
HTH,2025-05-04 20:55,-118.6315,38.5448,1282.89,51.80,42.80,71.26,350.00,19.00,0.00,29.83,M,10.00,27.00,OVC,M,M,M,1700.00,M,M,M,M,M,M,M,M,M,M,51.80,KHTH 042055Z AUTO 35019G27KT 10SM OVC017 11/06 A2983 RMK A01,M
TMT,2025-05-04 20:55,-117.1971,39.4643,1749.34,49.00,44.40,84.06,340.00,8.00,0.00,29.81,M,10.00,M,SCT,BKN,OVC,M,2200.00,3000.00,4900.00,M,-RA,M,M,M,M,M,M,45.05,KTMT 042055Z AUTO 34008KT 10SM -RA SCT022 BKN030 OVC049 10/07 A2981 RMK AO2 T00950069,M
CXP,2025-05-04 20:55,-119.7326,39.1923,1431.00,48.20,39.20,70.88,350.00,11.00,0.00,29.89,M,10.00,22.00,OVC,M,M,M,3600.00,M,M,M,M,M,M,M,M,M,M,42.94,KCXP 042055Z AUTO 35011G22KT 10SM OVC036 09/04 A2989 RMK AO2,M
RTS,2025-05-04 20:55,-119.8764,39.6682,1539.00,48.20,33.80,57.26,350.00,13.00,0.00,29.91,M,10.00,M,OVC,M,M,M,3000.00,M,M,M,M,M,M,M,M,M,M,42.32,KRTS 042055Z AUTO 35013KT 10SM OVC030 09/01 A2991 RMK AO2,M
INS,2025-05-04 20:55,-115.6733,36.5872,955.00,61.00,44.80,55.15,0.00,0.00,0.00,29.68,1002.00,10.00,M,FEW,M,M,M,20000.00,M,M,M,M,M,M,M,M,M,M,61.00,KINS 042055Z AUTO 00000KT 10SM FEW200 16/07 A2968 RMK AO2 SLP020 60002 T01610071 57021 $,M
LSV,2025-05-04 20:55,-115.0343,36.2362,570.00,67.60,48.40,50.15,140.00,5.00,0.00,29.61,1001.00,10.00,M,FEW,BKN,OVC,M,5000.00,8000.00,12000.00,M,M,M,M,M,M,M,M,67.60,KLSV 042055Z 14005KT 10SM FEW050 BKN080 OVC120 20/09 A2961 RMK AO2A LTG DSNT E-SE SLP010 60000 T01980091 57015 $,M
EKO,2025-05-04 20:56,-115.7860,40.8242,1367.00,49.00,46.00,89.33,40.00,15.00,0.03,29.80,1007.60,1.75,21.00,SCT,BKN,OVC,M,3300.00,4300.00,5000.00,M,+TSRA BR,M,M,M,M,M,M,42.82,KEKO 042056Z AUTO 04015G21KT 1 3/4SM +TSRA BR SCT033 BKN043 OVC050 09/08 A2980 RMK AO2 VIS 1V3 RAB33 TSB40 SLP076 P0003 60003 T00940078 53002,M
WMC,2025-05-04 20:56,-117.8072,40.9019,1315.00,46.00,38.00,73.47,340.00,14.00,0.00,29.89,1010.90,10.00,24.00,OVC,M,M,M,2600.00,M,M,M,M,M,M,M,M,M,M,39.21,KWMC 042056Z AUTO 34014G24KT 10SM OVC026 08/03 A2989 RMK AO2 SLP109 60001 T00780033 51003,M
HND,2025-05-04 20:56,-115.1344,35.9729,742.79,59.00,49.00,69.38,160.00,11.00,0.01,29.71,1006.10,10.00,M,OVC,M,M,M,6500.00,M,M,M,-RA,M,M,M,M,M,M,59.00,KHND 042056Z 16011KT 10SM -RA OVC065 15/09 A2971 RMK AO2 LTG DSNT E RAB29 SLP061 P0001 60001 T01500094 55003 $,M
TPH,2025-05-04 20:56,-117.0904,38.0505,1654.00,55.00,40.00,56.88,10.00,13.00,T,29.76,1004.40,10.00,M,FEW,SCT,OVC,M,4700.00,5500.00,7000.00,M,M,M,M,M,M,M,M,55.00,KTPH 042056Z AUTO 01013KT 10SM FEW047 SCT055 OVC070 13/04 A2976 RMK AO2 RAB23E48 SLP044 P0000 60000 T01280044 56005 $,M
LAS,2025-05-04 20:56,-115.1634,36.0719,663.00,64.00,48.00,55.99,180.00,10.00,T,29.68,1003.30,10.00,M,FEW,BKN,BKN,M,4500.00,6000.00,10000.00,M,-RA,M,M,M,M,M,M,64.00,KLAS 042056Z 18010KT 10SM -RA FEW045 BKN060 BKN100 18/09 A2968 RMK AO2 LTG DSNT E RAB49 SLP033 P0000 60000 T01780089 55009 $,M
NFL,2025-05-04 20:57,-118.7010,39.4166,1199.00,51.00,44.00,76.85,20.00,16.00,0.01,29.86,1008.60,10.00,23.00,OVC,M,M,M,3200.00,M,M,M,-RA,M,M,M,M,M,M,51.00,KNFL 042057Z AUTO 02016G23KT 10SM -RA OVC032 11/07 A2986 RMK AO2 RAB14 SLP086 P0001 60001 T01060067 53004,M
EKO,2025-05-04 21:02,-115.7860,40.8242,1367.00,48.00,45.00,89.29,30.00,11.00,0.04,29.80,M,1.25,21.00,BKN,OVC,M,M,2900.00,4500.00,M,M,+RA BR,M,M,M,M,M,M,42.69,KEKO 042102Z AUTO 03011G21KT 1 1/4SM +RA BR BKN029 OVC045 09/07 A2980 RMK AO2 TSE2057 P0004 T00890072,M
BVU,2025-05-04 21:15,-114.8611,35.9475,671.00,60.80,44.60,55.12,200.00,9.00,0.00,29.68,M,10.00,14.00,BKN,OVC,M,M,4000.00,4600.00,M,M,VCTS,M,M,M,M,M,M,60.80,KBVU 042115Z AUTO 20009G14KT 10SM VCTS BKN040 OVC046 16/07 A2968 RMK AO2 LTG DSNT N AND E,M
BAM,2025-05-04 21:15,-116.8743,40.5990,1382.36,51.80,42.80,71.26,330.00,18.00,0.00,29.83,M,10.00,21.00,OVC,M,M,M,2900.00,M,M,M,M,M,M,M,M,M,M,51.80,KBAM 042115Z AUTO 33018G21KT 10SM OVC029 11/06 A2983 RMK AO1,M
CXP,2025-05-04 21:15,-119.7326,39.1923,1431.00,50.00,37.40,61.76,350.00,14.00,0.00,29.89,M,10.00,27.00,OVC,M,M,M,3500.00,M,M,M,M,M,M,M,M,M,M,50.00,KCXP 042115Z AUTO 35014G27KT 10SM OVC035 10/03 A2989 RMK AO2 LTG DSNT E AND SE,M
RTS,2025-05-04 21:15,-119.8764,39.6682,1539.00,50.00,35.60,57.52,350.00,13.00,0.00,29.91,M,10.00,M,BKN,OVC,M,M,3400.00,4200.00,M,M,M,M,M,M,M,M,M,50.00,KRTS 042115Z AUTO 35013KT 10SM BKN034 OVC042 10/02 A2991 RMK AO2,M
MEV,2025-05-04 21:15,-119.7500,38.9963,1441.42,50.00,41.00,71.07,350.00,17.00,0.00,29.87,M,10.00,23.00,OVC,M,M,M,2600.00,M,M,M,M,M,M,M,M,M,M,50.00,KMEV 042115Z AUTO 35017G23KT 10SM OVC026 10/05 A2987 RMK AO2 LTG DSNT E AND SE,M
HTH,2025-05-04 21:15,-118.6315,38.5448,1282.89,53.60,42.80,66.70,350.00,23.00,0.00,29.83,M,10.00,M,BKN,BKN,OVC,M,1900.00,2400.00,4200.00,M,M,M,M,M,M,M,M,53.60,KHTH 042115Z AUTO 35023KT 10SM BKN019 BKN024 OVC042 12/06 A2983 RMK A01,M
TMT,2025-05-04 21:15,-117.1971,39.4643,1749.34,49.00,44.00,82.79,350.00,13.00,0.00,29.82,M,10.00,17.00,SCT,BKN,OVC,M,2000.00,7000.00,8500.00,M,M,M,M,M,M,M,M,43.35,KTMT 042115Z AUTO 35013G17KT 10SM SCT020 BKN070 OVC085 09/07 A2982 RMK AO2 T00940066,M
10U,2025-05-04 21:15,-116.1876,41.9532,1637.00,44.60,37.40,75.68,40.00,11.00,0.00,29.91,M,10.00,M,OVC,M,M,M,2000.00,M,M,M,M,M,M,M,M,M,M,38.39,K10U 042115Z AUTO 04011KT 10SM OVC020 07/03 A2991 RMK AO2,M
NFL,2025-05-04 21:18,-118.7010,39.4166,1199.00,51.00,42.00,71.18,10.00,19.00,T,29.86,M,10.00,27.00,OVC,M,M,M,2800.00,M,M,M,M,M,M,M,27.00,10.00,2025-05-04 21:17,51.00,KNFL 042118Z AUTO 01019G27KT 10SM OVC028 11/06 A2986 RMK AO2 PK WND 01027/2117 RAE09 P0000 T01060056,M
EKO,2025-05-04 21:25,-115.7860,40.8242,1367.00,49.00,45.00,86.00,360.00,12.00,0.16,29.80,M,2.00,M,SCT,BKN,OVC,M,2700.00,3400.00,4400.00,M,RA BR,M,M,M,M,M,M,43.64,KEKO 042125Z AUTO 36012KT 2SM RA BR SCT027 BKN034 OVC044 09/07 A2980 RMK AO2 TSE2057 P0016 T00940072,M
CXP,2025-05-04 21:30,-119.7326,39.1923,1431.00,50.00,39.20,66.27,340.00,16.00,0.00,29.89,M,10.00,21.00,OVC,M,M,M,3800.00,M,M,M,M,M,M,M,M,M,M,50.00,KCXP 042130Z AUTO 34016G21KT 10SM OVC038 10/04 A2989 RMK AO2 LTG DSNT E,M
BVU,2025-05-04 21:35,-114.8611,35.9475,671.00,59.00,46.40,62.92,140.00,9.00,0.00,29.68,M,5.00,21.00,FEW,FEW,OVC,M,3800.00,4400.00,5000.00,M,-RA,M,M,M,M,M,M,59.00,KBVU 042135Z AUTO 14009G21KT 5SM -RA FEW038 FEW044 OVC050 15/08 A2968 RMK AO2 LTG DSNT N-SE,M
EKO,2025-05-04 21:35,-115.7860,40.8242,1367.00,49.00,45.00,86.00,350.00,11.00,0.18,29.80,M,5.00,M,FEW,BKN,OVC,M,2700.00,4100.00,4800.00,M,-RA BR,M,M,M,M,M,M,43.95,KEKO 042135Z AUTO 35011KT 5SM -RA BR FEW027 BKN041 OVC048 09/07 A2980 RMK AO2 TSE2057 P0018 T00940072,M
BAM,2025-05-04 21:35,-116.8743,40.5990,1382.36,51.80,42.80,71.26,330.00,14.00,0.00,29.84,M,10.00,18.00,OVC,M,M,M,2900.00,M,M,M,M,M,M,M,M,M,M,51.80,KBAM 042135Z AUTO 33014G18KT 10SM OVC029 11/06 A2984 RMK AO1,M
RTS,2025-05-04 21:35,-119.8764,39.6682,1539.00,50.00,33.80,53.54,10.00,14.00,0.00,29.91,M,10.00,M,BKN,OVC,M,M,3600.00,4300.00,M,M,M,M,M,M,M,M,M,50.00,KRTS 042135Z AUTO 01014KT 10SM BKN036 OVC043 10/01 A2991 RMK AO2,M
MEV,2025-05-04 21:35,-119.7500,38.9963,1441.42,50.00,39.20,66.27,360.00,16.00,0.00,29.87,M,10.00,22.00,OVC,M,M,M,2600.00,M,M,M,M,M,M,M,M,M,M,50.00,KMEV 042135Z AUTO 36016G22KT 10SM OVC026 10/04 A2987 RMK AO2 LTG DSNT E,M
HTH,2025-05-04 21:35,-118.6315,38.5448,1282.89,53.60,42.80,66.70,350.00,20.00,0.00,29.83,M,10.00,28.00,FEW,OVC,M,M,2000.00,3300.00,M,M,M,M,M,M,M,M,M,53.60,KHTH 042135Z AUTO 35020G28KT 10SM FEW020 OVC033 12/06 A2983 RMK A01,M
TMT,2025-05-04 21:35,-117.1971,39.4643,1749.34,46.80,43.70,88.89,360.00,12.00,0.00,29.83,M,10.00,M,BKN,BKN,OVC,M,2800.00,4100.00,7000.00,M,-RA,M,M,M,M,M,M,40.84,KTMT 042135Z AUTO 36012KT 10SM -RA BKN028 BKN041 OVC070 08/07 A2983 RMK AO2 T00820065,M
10U,2025-05-04 21:35,-116.1876,41.9532,1637.00,46.40,37.40,70.68,10.00,8.00,0.00,29.91,M,10.00,14.00,OVC,M,M,M,2200.00,M,M,M,M,M,M,M,M,M,M,41.85,K10U 042135Z AUTO 01008G14KT 10SM OVC022 08/03 A2991 RMK AO2,M
NFL,2025-05-04 21:42,-118.7010,39.4166,1199.00,52.00,43.00,71.28,10.00,18.00,T,29.86,M,9.00,25.00,OVC,M,M,M,3000.00,M,M,M,M,M,M,M,28.00,20.00,2025-05-04 21:25,52.00,KNFL 042142Z AUTO 01018G25KT 9SM OVC030 11/06 A2986 RMK AO2 PK WND 02028/2125 RAE09 P0000 T01110061,M
RTS,2025-05-04 21:45,-119.8764,39.6682,1539.00,50.00,33.80,53.54,340.00,14.00,0.00,29.91,M,10.00,20.00,OVC,M,M,M,3800.00,M,M,M,M,M,M,M,M,M,M,50.00,KRTS 042145Z AUTO 34014G20KT 10SM OVC038 10/01 A2991 RMK AO2,M
HTH,2025-05-04 21:50,-118.6315,38.5448,1282.89,53.60,42.80,66.70,350.00,22.00,0.00,29.84,M,10.00,28.00,SCT,SCT,OVC,M,2000.00,2700.00,3300.00,M,M,M,M,M,M,M,M,53.60,KHTH 042150Z AUTO 35022G28KT 10SM SCT020 SCT027 OVC033 12/06 A2984 RMK A01,M
P68,2025-05-04 21:53,-116.0056,39.6014,1993.00,49.00,43.00,79.68,30.00,17.00,0.00,29.78,1005.20,M,M,M,M,M,M,M,M,M,M,M,M,M,M,M,M,M,42.35,KP68 042153Z AUTO 03017KT 09/06 A2978 RMK AO1 SLP052 T00940061 $,M
DRA,2025-05-04 21:53,-116.0278,36.6206,1009.00,67.00,41.00,38.63,50.00,7.00,0.00,29.64,1000.40,10.00,M,CLR,M,M,M,M,M,M,M,M,M,M,M,M,M,M,67.00,KDRA 042153Z AUTO 05007KT 10SM CLR 19/05 A2964 RMK AO2 SLP004 T01940050,M
ELY,2025-05-04 21:53,-114.8453,39.2950,1909.00,46.00,41.00,82.58,300.00,8.00,T,29.80,1004.20,10.00,M,OVC,M,M,M,5500.00,M,M,M,-RA,M,M,M,M,M,M,41.36,KELY 042153Z AUTO 30008KT 10SM -RA OVC055 08/05 A2980 RMK AO2 SLP042 P0000 T00780050 $,M
VGT,2025-05-04 21:53,-115.1933,36.2111,667.00,62.00,46.00,55.71,200.00,15.00,0.00,29.64,1004.20,10.00,M,FEW,OVC,M,M,5500.00,9000.00,M,M,M,M,M,M,M,M,M,62.00,KVGT 042153Z 20015KT 10SM FEW055 OVC090 17/08 A2964 RMK AO2 SLP042 T01670078,M
BVU,2025-05-04 21:55,-114.8611,35.9475,671.00,57.20,48.20,71.83,0.00,0.00,0.00,29.66,M,7.00,M,SCT,OVC,M,M,5500.00,6500.00,M,M,-RA,M,M,M,M,M,M,57.20,KBVU 042155Z AUTO 00000KT 7SM -RA SCT055 OVC065 14/09 A2966 RMK AO2 LTG DSNT NE AND SE,M
RNO,2025-05-04 21:55,-119.7711,39.4839,1341.00,52.00,37.00,56.45,10.00,13.00,0.00,29.89,1009.90,10.00,19.00,FEW,BKN,OVC,M,2000.00,3200.00,4200.00,M,M,M,M,M,M,M,M,52.00,KRNO 042155Z 01013G19KT 10SM FEW020 BKN032 OVC042 11/03 A2989 RMK AO2 SLP099 T01110028 $,M
BAM,2025-05-04 21:55,-116.8743,40.5990,1382.36,51.80,42.80,71.26,330.00,19.00,0.00,29.84,M,10.00,24.00,OVC,M,M,M,2900.00,M,M,M,M,M,M,M,M,M,M,51.80,KBAM 042155Z AUTO 33019G24KT 10SM OVC029 11/06 A2984 RMK AO1,M
CXP,2025-05-04 21:55,-119.7326,39.1923,1431.00,51.80,37.40,57.77,360.00,12.00,0.00,29.90,M,10.00,21.00,BKN,OVC,M,M,4300.00,4800.00,M,M,M,M,M,M,M,M,M,51.80,KCXP 042155Z AUTO 36012G21KT 10SM BKN043 OVC048 11/03 A2990 RMK AO2,M
LSV,2025-05-04 21:55,-115.0343,36.2362,570.00,64.80,48.20,54.86,200.00,14.00,0.00,29.61,1001.30,10.00,M,BKN,OVC,M,M,5500.00,7000.00,M,M,-SHRA,M,M,M,M,M,M,64.80,KLSV 042155Z 20014KT 10SM -SHRA BKN055 OVC070 18/09 A2961 RMK AO2A LTG DSNT E SLP013 T01820090 $,M
MEV,2025-05-04 21:55,-119.7500,38.9963,1441.42,50.00,39.20,66.27,360.00,13.00,0.00,29.87,M,10.00,M,OVC,M,M,M,2800.00,M,M,M,M,M,M,M,M,M,M,50.00,KMEV 042155Z AUTO 36013KT 10SM OVC028 10/04 A2987 RMK AO2 LTG DSNT E AND W,M
TMT,2025-05-04 21:55,-117.1971,39.4643,1749.34,44.80,43.30,94.43,350.00,10.00,0.00,29.84,M,5.00,15.00,BKN,OVC,M,M,2400.00,2900.00,M,M,RA,M,M,M,M,M,M,39.02,KTMT 042155Z AUTO 35010G15KT 5SM RA BKN024 OVC029 07/06 A2984 RMK AO2 T00710063,M
10U,2025-05-04 21:55,-116.1876,41.9532,1637.00,46.40,37.40,70.68,10.00,10.00,0.00,29.90,M,10.00,M,OVC,M,M,M,2200.00,M,M,M,M,M,M,M,M,M,M,41.03,K10U 042155Z AUTO 01010KT 10SM OVC022 08/03 A2990 RMK AO2,M
INS,2025-05-04 21:55,-115.6733,36.5872,955.00,62.80,44.00,50.19,170.00,3.00,0.00,29.66,1001.20,10.00,M,FEW,M,M,M,20000.00,M,M,M,M,M,M,M,M,M,M,62.80,KINS 042155Z AUTO 17003KT 10SM FEW200 17/07 A2966 RMK AO2 SLP012 T01710066 $,M
EKO,2025-05-04 21:56,-115.7860,40.8242,1367.00,50.00,45.00,82.86,350.00,8.00,0.18,29.80,1007.40,10.00,M,BKN,OVC,M,M,3600.00,4300.00,M,M,M,M,M,M,M,M,M,50.00,KEKO 042156Z AUTO 35008KT 10SM BKN036 OVC043 10/07 A2980 RMK AO2 RAE47 TSE2057 SLP074 P0018 T01000072,M
WMC,2025-05-04 21:56,-117.8072,40.9019,1315.00,48.00,38.00,68.13,350.00,15.00,0.00,29.89,1010.70,10.00,21.00,OVC,M,M,M,2800.00,M,M,M,M,M,M,M,M,M,M,41.52,KWMC 042156Z AUTO 35015G21KT 10SM OVC028 09/03 A2989 RMK AO2 SLP107 T00890033,M
HND,2025-05-04 21:56,-115.1344,35.9729,742.79,61.00,48.00,62.23,110.00,5.00,0.02,29.67,1005.20,10.00,M,FEW,SCT,OVC,M,6000.00,7500.00,11000.00,M,M,M,M,M,M,M,M,61.00,KHND 042156Z 11005KT 10SM FEW060 SCT075 OVC110 16/09 A2967 RMK AO2 RAE48 SLP052 P0002 T01610089 $,M
TPH,2025-05-04 21:56,-117.0904,38.0505,1654.00,52.00,42.00,68.59,350.00,18.00,T,29.75,1004.50,10.00,25.00,FEW,SCT,OVC,M,6000.00,8000.00,9000.00,M,M,M,M,M,32.00,350.00,2025-05-04 21:14,52.00,KTPH 042156Z AUTO 35018G25KT 10SM FEW060 SCT080 OVC090 11/06 A2975 RMK AO2 PK WND 35032/2114 LTG DSNT W RAB06E25 SLP045 P0000 T01110056 $,M
LAS,2025-05-04 21:56,-115.1634,36.0719,663.00,61.00,49.00,64.61,0.00,0.00,0.06,29.67,1003.30,10.00,M,FEW,BKN,BKN,M,3000.00,6000.00,11000.00,M,M,M,M,M,M,M,M,61.00,KLAS 042156Z 00000KT 10SM FEW030 BKN060 BKN110 16/09 A2967 RMK AO2 RAE52 SLP033 SH DSNT NE-SE AND W P0006 T01610094 $,M
NFL,2025-05-04 21:57,-118.7010,39.4166,1199.00,51.00,43.00,73.97,20.00,14.00,T,29.86,1008.80,10.00,24.00,OVC,M,M,M,3100.00,M,M,M,-RA,M,M,M,28.00,20.00,2025-05-04 21:25,51.00,KNFL 042157Z AUTO 02014G24KT 10SM -RA OVC031 11/06 A2986 RMK AO2 PK WND 02028/2125 RAE09B55 SLP088 P0000 T01060061,M
MEV,2025-05-04 22:05,-119.7500,38.9963,1441.42,50.00,39.20,66.27,350.00,18.00,0.00,29.88,M,10.00,M,OVC,M,M,M,2800.00,M,M,M,M,M,M,M,M,M,M,50.00,KMEV 042205Z AUTO 35018KT 10SM OVC028 10/04 A2988 RMK AO2,M
LSV,2025-05-04 22:06,-115.0343,36.2362,570.00,64.40,48.20,55.63,190.00,11.00,0.00,29.61,1001.30,10.00,M,OVC,M,M,M,5500.00,M,M,M,M,M,M,M,M,M,M,64.40,KLSV 042206Z AUTO 19011KT 10SM OVC055 18/09 A2961 RMK AO2 LTG DSNT E SHRAE2155 SLP013 $,M
WMC,2025-05-04 22:08,-117.8072,40.9019,1315.00,49.00,39.00,68.25,350.00,13.00,0.00,29.89,M,10.00,M,OVC,M,M,M,3000.00,M,M,M,M,M,M,M,M,M,M,43.35,KWMC 042208Z AUTO 35013KT 10SM OVC030 09/04 A2989 RMK AO2 T00940039,M
LSV,2025-05-04 22:12,-115.0343,36.2362,570.00,64.40,50.00,59.50,160.00,11.00,0.00,29.61,1001.30,10.00,M,BKN,OVC,M,M,5500.00,7000.00,M,M,-RA,M,M,M,M,M,M,64.40,KLSV 042212Z 16011KT 10SM -RA BKN055 OVC070 18/10 A2961 RMK AO2A SHRAE2155RAB10 SLP013 $,M
BVU,2025-05-04 22:15,-114.8611,35.9475,671.00,57.20,50.00,76.82,30.00,9.00,0.00,29.64,M,5.00,M,SCT,BKN,OVC,M,3600.00,4500.00,6500.00,M,-RA,M,M,M,M,M,M,57.20,KBVU 042215Z AUTO 03009KT 5SM -RA SCT036 BKN045 OVC065 14/10 A2964 RMK AO2,M
BAM,2025-05-04 22:15,-116.8743,40.5990,1382.36,51.80,42.80,71.26,330.00,19.00,0.00,29.84,M,10.00,23.00,OVC,M,M,M,2900.00,M,M,M,M,M,M,M,M,M,M,51.80,KBAM 042215Z AUTO 33019G23KT 10SM OVC029 11/06 A2984 RMK AO1,M
CXP,2025-05-04 22:15,-119.7326,39.1923,1431.00,51.80,37.40,57.77,350.00,15.00,0.00,29.90,M,10.00,20.00,OVC,M,M,M,4200.00,M,M,M,M,M,M,M,M,M,M,51.80,KCXP 042215Z AUTO 35015G20KT 10SM OVC042 11/03 A2990 RMK AO2,M
HTH,2025-05-04 22:15,-118.6315,38.5448,1282.89,51.80,42.80,71.26,350.00,22.00,0.00,29.85,M,10.00,31.00,FEW,SCT,OVC,M,2000.00,2500.00,3500.00,M,M,M,M,M,M,M,M,51.80,KHTH 042215Z AUTO 35022G31KT 10SM FEW020 SCT025 OVC035 11/06 A2985 RMK A01,M
TMT,2025-05-04 22:15,-117.1971,39.4643,1749.34,44.00,42.80,95.51,340.00,11.00,0.00,29.84,M,7.00,15.00,SCT,BKN,OVC,M,900.00,2000.00,3500.00,M,RA,M,M,M,M,M,M,37.63,KTMT 042215Z AUTO 34011G15KT 7SM RA SCT009 BKN020 OVC035 07/06 A2984 RMK AO2 T00660060,M
10U,2025-05-04 22:15,-116.1876,41.9532,1637.00,46.40,39.20,75.84,10.00,10.00,0.00,29.90,M,10.00,16.00,OVC,M,M,M,2200.00,M,M,M,M,M,M,M,M,M,M,41.03,K10U 042215Z AUTO 01010G16KT 10SM OVC022 08/04 A2990 RMK AO2,M
RTS,2025-05-04 22:25,-119.8764,39.6682,1539.00,51.80,33.80,50.08,20.00,10.00,0.00,29.91,M,10.00,17.00,OVC,M,M,M,3800.00,M,M,M,M,M,M,M,M,M,M,51.80,KRTS 042225Z AUTO 02010G17KT 10SM OVC038 11/01 A2991 RMK AO2,M
MEV,2025-05-04 22:25,-119.7500,38.9963,1441.42,50.00,39.20,66.27,350.00,15.00,0.00,29.88,M,10.00,M,OVC,M,M,M,3100.00,M,M,M,M,M,M,M,M,M,M,50.00,KMEV 042225Z AUTO 35015KT 10SM OVC031 10/04 A2988 RMK AO2 LTG DSNT E AND SW,M
BAM,2025-05-04 22:35,-116.8743,40.5990,1382.36,51.80,42.80,71.26,330.00,15.00,0.00,29.84,M,10.00,21.00,OVC,M,M,M,2700.00,M,M,M,M,M,M,M,M,M,M,51.80,KBAM 042235Z AUTO 33015G21KT 10SM OVC027 11/06 A2984 RMK AO1,M
CXP,2025-05-04 22:35,-119.7326,39.1923,1431.00,51.80,37.40,57.77,330.00,10.00,0.00,29.90,M,10.00,17.00,BKN,OVC,M,M,4300.00,5000.00,M,M,M,M,M,M,M,M,M,51.80,KCXP 042235Z AUTO 33010G17KT 10SM BKN043 OVC050 11/03 A2990 RMK AO2 LTG DSNT NE AND E,M
HTH,2025-05-04 22:35,-118.6315,38.5448,1282.89,51.80,41.00,66.48,360.00,22.00,0.00,29.85,M,10.00,29.00,FEW,OVC,M,M,2200.00,3700.00,M,M,M,M,M,M,M,M,M,51.80,KHTH 042235Z AUTO 36022G29KT 10SM FEW022 OVC037 11/05 A2985 RMK A01,M
TMT,2025-05-04 22:35,-117.1971,39.4643,1749.34,44.00,42.80,95.51,340.00,9.00,0.00,29.85,M,10.00,M,SCT,BKN,OVC,M,900.00,2300.00,3700.00,M,-RA,M,M,M,M,M,M,38.44,KTMT 042235Z AUTO 34009KT 10SM -RA SCT009 BKN023 OVC037 07/06 A2985 RMK AO2 T00670060,M
10U,2025-05-04 22:35,-116.1876,41.9532,1637.00,46.40,39.20,75.84,360.00,9.00,0.00,29.90,M,10.00,16.00,OVC,M,M,M,2100.00,M,M,M,VCTS,M,M,M,M,M,M,41.42,K10U 042235Z AUTO 36009G16KT 10SM VCTS OVC021 08/04 A2990 RMK AO2 LTG DSNT E AND S,M
BVU,2025-05-04 22:35,-114.8611,35.9475,671.00,57.20,51.80,82.12,10.00,6.00,0.00,29.62,M,5.00,M,FEW,FEW,BKN,M,3300.00,3900.00,4600.00,M,-RA,M,M,M,M,M,M,57.20,KBVU 042235Z AUTO 01006KT 5SM -RA FEW033 FEW039 BKN046 14/11 A2962 RMK AO2 LTG DSNT NE AND S,M
LSV,2025-05-04 22:36,-115.0343,36.2362,570.00,64.40,51.80,63.60,130.00,6.00,0.00,29.60,1001.00,10.00,M,BKN,OVC,M,M,5500.00,7000.00,M,M,M,M,M,M,M,M,M,64.40,KLSV 042236Z COR AUTO 13006KT 10SM BKN055CB OVC070 18/11 A2960 RMK AO2 LTG DSNT N RAE2155RAB10E32 SLP010 $ COR 2243,M
P68,2025-05-04 22:53,-116.0056,39.6014,1993.00,47.00,44.00,89.24,360.00,9.00,0.01,29.80,1006.00,M,M,M,M,M,M,M,M,M,M,M,M,M,M,M,M,M,42.17,KP68 042253Z AUTO 36009KT 08/07 A2980 RMK AO1 SLP060 P0001 T00830067 $,M
DRA,2025-05-04 22:53,-116.0278,36.6206,1009.00,68.00,40.00,35.90,M,M,0.00,29.62,999.70,10.00,M,CLR,M,M,M,M,M,M,M,M,M,M,M,M,M,M,68.00,KDRA 042253Z AUTO 10SM CLR 20/04 A2962 RMK AO2 SLP997 T02000044,M
ELY,2025-05-04 22:53,-114.8453,39.2950,1909.00,50.00,40.00,68.37,30.00,5.00,T,29.78,1003.10,10.00,M,CLR,M,M,M,M,M,M,M,M,M,M,M,M,M,M,50.00,KELY 042253Z AUTO 03005KT 10SM CLR 10/04 A2978 RMK AO2 RAE2158 SLP031 P0000 T01000044 $,M
VGT,2025-05-04 22:53,-115.1933,36.2111,667.00,65.00,45.00,48.28,0.00,0.00,0.00,29.62,1003.70,10.00,M,FEW,M,M,M,9000.00,M,M,M,M,M,M,M,M,M,M,65.00,KVGT 042253Z 00000KT 10SM FEW090 18/07 A2962 RMK AO2 SLP037 T01830072,M
BVU,2025-05-04 22:55,-114.8611,35.9475,671.00,59.00,53.60,82.25,20.00,5.00,0.00,29.61,M,10.00,M,FEW,FEW,M,M,3500.00,6500.00,M,M,-RA,M,M,M,M,M,M,59.00,KBVU 042255Z AUTO 02005KT 10SM -RA FEW035 FEW065 15/12 A2961 RMK AO2 LTG DSNT NE AND SW,M
RNO,2025-05-04 22:55,-119.7711,39.4839,1341.00,54.00,37.00,52.45,20.00,11.00,0.00,29.89,1009.70,10.00,M,BKN,OVC,M,M,4000.00,8000.00,M,M,M,M,M,M,M,M,M,54.00,KRNO 042255Z 02011KT 10SM BKN040 OVC080 12/03 A2989 RMK AO2 SLP097 T01220028 $,M
RTS,2025-05-04 22:55,-119.8764,39.6682,1539.00,50.00,35.60,57.52,70.00,12.00,0.00,29.91,M,10.00,M,OVC,M,M,M,3800.00,M,M,M,M,M,M,M,M,M,M,50.00,KRTS 042255Z AUTO 07012KT 10SM OVC038 10/02 A2991 RMK AO2,M
BAM,2025-05-04 22:55,-116.8743,40.5990,1382.36,51.80,42.80,71.26,340.00,11.00,0.00,29.85,M,10.00,21.00,BKN,OVC,M,M,2700.00,3700.00,M,M,M,M,M,M,M,M,M,51.80,KBAM 042255Z AUTO 34011G21KT 10SM BKN027 OVC037 11/06 A2985 RMK AO1,M
CXP,2025-05-04 22:55,-119.7326,39.1923,1431.00,51.80,37.40,57.77,350.00,10.00,0.00,29.90,M,10.00,M,OVC,M,M,M,4900.00,M,M,M,M,M,M,M,M,M,M,51.80,KCXP 042255Z AUTO 35010KT 10SM OVC049 11/03 A2990 RMK AO2,M
MEV,2025-05-04 22:55,-119.7500,38.9963,1441.42,50.00,39.20,66.27,360.00,15.00,0.00,29.88,M,10.00,M,OVC,M,M,M,3000.00,M,M,M,M,M,M,M,M,M,M,50.00,KMEV 042255Z AUTO 36015KT 10SM OVC030 10/04 A2988 RMK AO2,M
HTH,2025-05-04 22:55,-118.6315,38.5448,1282.89,51.80,41.00,66.48,350.00,22.00,0.00,29.84,M,10.00,M,BKN,OVC,M,M,2300.00,3600.00,M,M,M,M,M,M,M,M,M,51.80,KHTH 042255Z AUTO 35022KT 10SM BKN023 OVC036 11/05 A2984 RMK A01,M
TMT,2025-05-04 22:55,-117.1971,39.4643,1749.34,44.00,42.80,95.51,340.00,8.00,0.00,29.85,M,10.00,M,SCT,OVC,M,M,1000.00,2100.00,M,M,-RA,M,M,M,M,M,M,38.90,KTMT 042255Z AUTO 34008KT 10SM -RA SCT010 OVC021 07/06 A2985 RMK AO2 T00670060,M
10U,2025-05-04 22:55,-116.1876,41.9532,1637.00,46.40,37.40,70.68,20.00,8.00,0.00,29.90,M,10.00,13.00,OVC,M,M,M,2100.00,M,M,M,M,M,M,M,M,M,M,41.85,K10U 042255Z AUTO 02008G13KT 10SM OVC021 08/03 A2990 RMK AO2,M
INS,2025-05-04 22:55,-115.6733,36.5872,955.00,64.20,43.00,45.99,0.00,0.00,0.00,29.64,1000.50,10.00,M,SCT,M,M,M,16000.00,M,M,M,M,M,M,M,M,M,M,64.20,KINS 042255Z AUTO 00000KT 10SM SCT160 18/06 A2964 RMK AO2 SLP005 T01790061 $,M
LSV,2025-05-04 22:55,-115.0343,36.2362,570.00,64.40,48.70,56.68,0.00,0.00,T,29.59,1000.80,10.00,M,SCT,BKN,M,M,5500.00,10000.00,M,M,M,M,M,M,M,M,M,64.40,KLSV 042255Z 00000KT 10SM SCT055 BKN100 18/09 A2959 RMK AO2A LTG DSNT NE RAB10E32 SLP008 P0000 T01800093 $,M
TPH,2025-05-04 22:56,-117.0904,38.0505,1654.00,55.00,42.00,61.46,360.00,16.00,T,29.75,1004.10,10.00,M,FEW,SCT,M,M,7000.00,10000.00,M,M,M,M,M,M,27.00,350.00,2025-05-04 22:06,55.00,KTPH 042256Z AUTO 36016KT 10SM FEW070 SCT100 13/06 A2975 RMK AO2 PK WND 35027/2206 RAB03E27 SLP041 P0000 T01280056 $,M
EKO,2025-05-04 22:56,-115.7860,40.8242,1367.00,53.00,43.00,68.71,10.00,11.00,0.00,29.79,1007.10,10.00,19.00,FEW,BKN,OVC,M,2600.00,4800.00,8500.00,M,M,M,M,M,M,M,M,53.00,KEKO 042256Z AUTO 01011G19KT 10SM FEW026 BKN048 OVC085 12/06 A2979 RMK AO2 SLP071 T01170061,M
WMC,2025-05-04 22:56,-117.8072,40.9019,1315.00,50.00,38.00,63.23,350.00,12.00,0.00,29.88,1010.40,10.00,M,OVC,M,M,M,3000.00,M,M,M,M,M,M,M,M,M,M,50.00,KWMC 042256Z AUTO 35012KT 10SM OVC030 10/03 A2988 RMK AO2 SLP104 T01000033,M
HND,2025-05-04 22:56,-115.1344,35.9729,742.79,63.00,45.00,51.78,50.00,6.00,0.00,29.65,1004.20,10.00,M,SCT,M,M,M,11000.00,M,M,M,M,M,M,M,M,M,M,63.00,KHND 042256Z 05006KT 10SM SCT110 17/07 A2965 RMK AO2 SLP042 T01720072 $,M
LAS,2025-05-04 22:56,-115.1634,36.0719,663.00,64.00,46.00,51.93,0.00,0.00,0.00,29.63,1002.10,10.00,M,FEW,SCT,BKN,M,8000.00,10000.00,15000.00,M,M,M,M,M,M,M,M,64.00,KLAS 042256Z 00000KT 10SM FEW080 SCT100 BKN150 18/08 A2963 RMK AO2 SLP021 T01780078 $,M
NFL,2025-05-04 22:57,-118.7010,39.4166,1199.00,52.00,43.00,71.28,20.00,15.00,T,29.86,1008.80,10.00,24.00,FEW,OVC,M,M,1900.00,3300.00,M,M,M,M,M,M,M,M,M,52.00,KNFL 042257Z AUTO 02015G24KT 10SM FEW019 OVC033 11/06 A2986 RMK AO2 RAE04 SLP088 P0000 T01110061,M
RTS,2025-05-04 23:05,-119.8764,39.6682,1539.00,50.00,35.60,57.52,60.00,11.00,0.00,29.91,M,10.00,M,OVC,M,M,M,3900.00,M,M,M,M,M,M,M,M,M,M,50.00,KRTS 042305Z AUTO 06011KT 10SM OVC039 10/02 A2991 RMK AO2,M
MEV,2025-05-04 23:05,-119.7500,38.9963,1441.42,50.00,39.20,66.27,10.00,10.00,0.00,29.88,M,10.00,19.00,OVC,M,M,M,2900.00,M,M,M,M,M,M,M,M,M,M,50.00,KMEV 042305Z AUTO 01010G19KT 10SM OVC029 10/04 A2988 RMK AO2,M
BVU,2025-05-04 23:15,-114.8611,35.9475,671.00,62.60,50.00,63.38,360.00,6.00,0.00,29.61,M,10.00,M,CLR,M,M,M,M,M,M,M,M,M,M,M,M,M,M,62.60,KBVU 042315Z AUTO 36006KT 10SM CLR 17/10 A2961 RMK AO2 LTG DSNT N AND NW,M
CXP,2025-05-04 23:15,-119.7326,39.1923,1431.00,53.60,37.40,54.07,10.00,9.00,0.00,29.90,M,10.00,16.00,SCT,OVC,M,M,3700.00,4800.00,M,M,M,M,M,M,M,M,M,53.60,KCXP 042315Z AUTO 01009G16KT 10SM SCT037 OVC048 12/03 A2990 RMK AO2,M
BAM,2025-05-04 23:15,-116.8743,40.5990,1382.36,51.80,42.80,71.26,350.00,10.00,0.00,29.85,M,10.00,15.00,BKN,BKN,OVC,M,2700.00,3200.00,3700.00,M,M,M,M,M,M,M,M,51.80,KBAM 042315Z AUTO 35010G15KT 10SM BKN027 BKN032 OVC037 11/06 A2985 RMK AO1,M
HTH,2025-05-04 23:15,-118.6315,38.5448,1282.89,51.80,41.00,66.48,350.00,22.00,0.00,29.85,M,10.00,30.00,SCT,OVC,M,M,2300.00,3700.00,M,M,M,M,M,M,M,M,M,51.80,KHTH 042315Z AUTO 35022G30KT 10SM SCT023 OVC037 11/05 A2985 RMK A01,M
TMT,2025-05-04 23:15,-117.1971,39.4643,1749.34,44.40,42.80,94.06,340.00,10.00,0.00,29.85,M,10.00,M,BKN,BKN,OVC,M,1000.00,2000.00,2500.00,M,-RA,M,M,M,M,M,M,38.52,KTMT 042315Z AUTO 34010KT 10SM -RA BKN010 BKN020 OVC025 07/06 A2985 RMK AO2 T00690060,M
10U,2025-05-04 23:15,-116.1876,41.9532,1637.00,46.40,37.40,70.68,10.00,7.00,0.00,29.90,M,10.00,M,OVC,M,M,M,2200.00,M,M,M,M,M,M,M,M,M,M,42.33,K10U 042315Z AUTO 01007KT 10SM OVC022 08/03 A2990 RMK AO2,M
EKO,2025-05-04 23:21,-115.7860,40.8242,1367.00,55.00,42.00,61.46,360.00,13.00,0.00,29.79,M,10.00,21.00,BKN,BKN,BKN,M,2800.00,6000.00,8500.00,M,M,M,M,M,M,M,M,55.00,KEKO 042321Z AUTO 36013G21KT 10SM BKN028 BKN060 BKN085 13/06 A2979 RMK AO2 T01280056,M
CXP,2025-05-04 23:35,-119.7326,39.1923,1431.00,51.80,37.40,57.77,20.00,8.00,0.00,29.90,M,10.00,M,BKN,OVC,M,M,3600.00,4300.00,M,M,M,M,M,M,M,M,M,51.80,KCXP 042335Z AUTO 02008KT 360V060 10SM BKN036 OVC043 11/03 A2990 RMK AO2,M
RTS,2025-05-04 23:35,-119.8764,39.6682,1539.00,50.00,35.60,57.52,80.00,11.00,0.00,29.91,M,10.00,M,OVC,M,M,M,4000.00,M,M,M,M,M,M,M,M,M,M,50.00,KRTS 042335Z AUTO 08011KT 10SM OVC040 10/02 A2991 RMK AO2,M
MEV,2025-05-04 23:35,-119.7500,38.9963,1441.42,50.00,39.20,66.27,30.00,12.00,0.00,29.88,M,10.00,17.00,BKN,OVC,M,M,3000.00,3700.00,M,M,M,M,M,M,M,M,M,50.00,KMEV 042335Z AUTO 03012G17KT 10SM BKN030 OVC037 10/04 A2988 RMK AO2,M
HTH,2025-05-04 23:35,-118.6315,38.5448,1282.89,51.80,41.00,66.48,350.00,21.00,0.00,29.85,M,10.00,28.00,FEW,OVC,M,M,2200.00,3800.00,M,M,M,M,M,M,M,M,M,51.80,KHTH 042335Z AUTO 35021G28KT 10SM FEW022 OVC038 11/05 A2985 RMK A01,M
TMT,2025-05-04 23:35,-117.1971,39.4643,1749.34,43.50,42.40,95.87,350.00,11.00,0.00,29.86,M,10.00,M,SCT,BKN,OVC,M,800.00,1600.00,2300.00,M,-RA,M,M,M,M,M,M,37.00,KTMT 042335Z AUTO 35011KT 10SM -RA SCT008 BKN016 OVC023 06/06 A2986 RMK AO2 T00640058,M
10U,2025-05-04 23:35,-116.1876,41.9532,1637.00,46.40,37.40,70.68,20.00,7.00,0.00,29.90,M,10.00,M,OVC,M,M,M,2300.00,M,M,M,M,M,M,M,M,M,M,42.33,K10U 042335Z AUTO 02007KT 10SM OVC023 08/03 A2990 RMK AO2,M
BVU,2025-05-04 23:35,-114.8611,35.9475,671.00,62.60,50.00,63.38,250.00,8.00,0.00,29.62,M,10.00,M,CLR,M,M,M,M,M,M,M,VCTS,M,M,M,M,M,M,62.60,KBVU 042335Z AUTO 25008KT 10SM VCTS CLR 17/10 A2962 RMK AO2 LTG DSNT E,M
BAM,2025-05-04 23:35,-116.8743,40.5990,1382.36,51.80,42.80,71.26,10.00,10.00,0.00,29.86,M,10.00,M,BKN,OVC,M,M,2700.00,3500.00,M,M,M,M,M,M,M,M,M,51.80,KBAM 042335Z AUTO 01010KT 10SM BKN027 OVC035 11/06 A2986 RMK AO1,M
EKO,2025-05-04 23:52,-115.7860,40.8242,1367.00,53.60,39.20,58.02,340.00,16.00,0.00,29.80,M,10.00,24.00,BKN,M,M,M,3100.00,M,M,M,M,M,M,M,M,M,M,53.60,KEKO 042352Z AUTO 34016G24KT 10SM BKN031 12/04 A2980 RMK AO2,M
P68,2025-05-04 23:53,-116.0056,39.6014,1993.00,47.00,45.00,92.71,350.00,7.00,0.01,29.80,1005.80,M,M,M,M,M,M,M,M,M,M,M,M,M,M,M,M,M,43.06,KP68 042353Z AUTO 35007KT 08/07 A2980 RMK AO1 SLP058 P0001 60002 T00830072 10139 20078 52006 $,M
DRA,2025-05-04 23:53,-116.0278,36.6206,1009.00,67.00,38.00,34.37,90.00,13.00,0.00,29.62,999.40,10.00,19.00,CLR,M,M,M,M,M,M,M,M,M,M,M,M,M,M,67.00,KDRA 042353Z AUTO 09013G19KT 10SM CLR 19/03 A2962 RMK AO2 SLP994 T01940033 10206 20150 56016,M
ELY,2025-05-04 23:53,-114.8453,39.2950,1909.00,51.00,41.00,68.48,360.00,12.00,0.00,29.76,1002.80,10.00,M,CLR,M,M,M,M,M,M,M,M,M,M,M,M,M,M,51.00,KELY 042353Z AUTO 36012KT 10SM CLR 11/05 A2976 RMK AO2 SLP028 60018 T01060050 10133 20039 56018 $,M
VGT,2025-05-04 23:53,-115.1933,36.2111,667.00,66.00,45.00,46.62,0.00,0.00,0.00,29.62,1003.60,10.00,M,CLR,M,M,M,M,M,M,M,M,M,M,M,M,M,M,66.00,KVGT 042353Z 00000KT 10SM CLR 19/07 A2962 RMK AO2 SLP036 60000 T01890072 10200 20161 56006,M
BVU,2025-05-04 23:55,-114.8611,35.9475,671.00,60.80,50.00,67.54,190.00,5.00,0.00,29.63,M,10.00,11.00,CLR,M,M,M,M,M,M,M,M,M,M,M,M,M,M,60.80,KBVU 042355Z AUTO 19005G11KT 10SM CLR 16/10 A2963 RMK AO2,M
RNO,2025-05-04 23:55,-119.7711,39.4839,1341.00,54.00,36.00,50.42,30.00,15.00,0.00,29.89,1009.80,10.00,21.00,BKN,M,M,M,5000.00,M,M,M,M,M,M,M,M,M,M,54.00,KRNO 042355Z 03015G21KT 10SM BKN050 12/02 A2989 RMK AO2 SLP098 60001 T01220022 10128 20083 53000 $,M
BAM,2025-05-04 23:55,-116.8743,40.5990,1382.36,51.80,42.80,71.26,10.00,9.00,0.00,29.86,M,10.00,M,SCT,BKN,OVC,M,2900.00,3500.00,4300.00,M,M,M,M,M,M,M,M,51.80,KBAM 042355Z AUTO 01009KT 10SM SCT029 BKN035 OVC043 11/06 A2986 RMK AO1,M
CXP,2025-05-04 23:55,-119.7326,39.1923,1431.00,53.60,35.60,50.36,20.00,15.00,0.00,29.90,M,10.00,M,BKN,OVC,M,M,3800.00,4600.00,M,M,M,M,M,M,M,M,M,53.60,KCXP 042355Z AUTO 02015KT 10SM BKN038 OVC046 12/02 A2990 RMK AO2,M
RTS,2025-05-04 23:55,-119.8764,39.6682,1539.00,50.00,35.60,57.52,80.00,13.00,0.00,29.91,M,10.00,M,OVC,M,M,M,4100.00,M,M,M,M,M,M,M,M,M,M,50.00,KRTS 042355Z AUTO 08013KT 10SM OVC041 10/02 A2991 RMK AO2,M
MEV,2025-05-04 23:55,-119.7500,38.9963,1441.42,51.80,39.20,61.99,30.00,5.00,0.00,29.88,M,10.00,M,BKN,OVC,M,M,3600.00,4200.00,M,M,M,M,M,M,M,M,M,51.80,KMEV 042355Z AUTO 03005KT 10SM BKN036 OVC042 11/04 A2988 RMK AO2,M
HTH,2025-05-04 23:55,-118.6315,38.5448,1282.89,51.80,41.00,66.48,350.00,21.00,0.00,29.86,M,10.00,M,FEW,OVC,M,M,2400.00,4000.00,M,M,M,M,M,M,M,M,M,51.80,KHTH 042355Z AUTO 35021KT 10SM FEW024 OVC040 11/05 A2986 RMK A01,M
TMT,2025-05-04 23:55,-117.1971,39.4643,1749.34,43.00,42.30,97.35,350.00,10.00,0.00,29.87,M,5.00,M,SCT,BKN,OVC,M,800.00,1400.00,1900.00,M,RA,M,M,M,M,M,M,36.76,KTMT 042355Z AUTO 35010KT 5SM RA SCT008 BKN014 OVC019 06/06 A2987 RMK AO2 T00610057 10110 20061,M
10U,2025-05-04 23:55,-116.1876,41.9532,1637.00,46.40,37.40,70.68,20.00,6.00,0.00,29.90,M,10.00,M,OVC,M,M,M,2700.00,M,M,M,M,M,M,M,M,M,M,42.87,K10U 042355Z AUTO 02006KT 10SM OVC027 08/03 A2990 RMK AO2,M
INS,2025-05-04 23:55,-115.6733,36.5872,955.00,64.80,44.60,47.88,70.00,3.00,0.00,29.64,1000.70,10.00,M,BKN,OVC,M,M,11000.00,13000.00,M,M,M,M,M,M,M,M,M,64.80,KINS 042355Z AUTO 07003KT 10SM BKN110 OVC130 18/07 A2964 RMK AO2 SLP007 60002 T01820070 10182 20135 57014 $,M
LSV,2025-05-04 23:55,-115.0343,36.2362,570.00,64.20,51.00,62.18,0.00,0.00,0.00,29.59,1000.60,10.00,M,SCT,BKN,M,M,7000.00,10000.00,M,M,M,M,M,M,M,M,M,64.20,KLSV 042355Z 00000KT 10SM SCT070 BKN100 18/11 A2959 RMK AO2A SLP006 60000 T01790105 10206 20162 58007 $,M
EKO,2025-05-04 23:56,-115.7860,40.8242,1367.00,53.00,39.00,58.85,350.00,11.00,0.00,29.80,1007.40,10.00,24.00,BKN,OVC,M,M,3100.00,9000.00,M,M,M,M,M,M,M,M,M,53.00,KEKO 042356Z AUTO 35011G24KT 10SM BKN031 OVC090 12/04 A2980 RMK AO2 SLP074 60021 T01170039 10150 20089 53001,M
WMC,2025-05-04 23:56,-117.8072,40.9019,1315.00,51.00,40.00,65.87,30.00,8.00,0.00,29.88,1010.40,10.00,M,OVC,M,M,M,3600.00,M,M,M,M,M,M,M,M,M,M,51.00,KWMC 042356Z AUTO 03008KT 10SM OVC036 11/04 A2988 RMK AO2 SLP104 60001 T01060044 10111 20056 55002 TSNO,M
HND,2025-05-04 23:56,-115.1344,35.9729,742.79,66.00,44.00,44.88,300.00,5.00,0.00,29.65,1004.10,10.00,M,FEW,M,M,M,10000.00,M,M,M,M,M,M,M,M,M,M,66.00,KHND 042356Z 30005KT 10SM FEW100 19/07 A2965 RMK AO2 SLP041 60003 T01890067 10189 20139 55018 $,M
TPH,2025-05-04 23:56,-117.0904,38.0505,1654.00,54.00,41.00,61.32,310.00,16.00,0.00,29.75,1004.40,10.00,22.00,FEW,BKN,OVC,M,3200.00,3900.00,7000.00,M,M,M,M,M,M,M,M,54.00,KTPH 042356Z AUTO 31016G22KT 10SM FEW032 BKN039 OVC070 12/05 A2975 RMK AO2 SLP044 60000 T01220050 10139 20100 55003 $,M
LAS,2025-05-04 23:56,-115.1634,36.0719,663.00,66.00,47.00,50.29,290.00,3.00,0.00,29.63,1002.10,10.00,M,FEW,BKN,BKN,BKN,8000.00,11000.00,17000.00,23000.00,M,M,M,M,M,M,M,66.00,KLAS 042356Z 29003KT 10SM FEW080 BKN110 BKN170 BKN230 19/08 A2963 RMK AO2 SLP021 60006 T01890083 10194 20150 56015 $,M
NFL,2025-05-04 23:57,-118.7010,39.4166,1199.00,53.00,42.00,66.12,10.00,17.00,0.00,29.86,1008.80,10.00,24.00,OVC,M,M,M,3400.00,M,M,M,M,M,M,M,M,M,M,53.00,KNFL 042357Z AUTO 01017G24KT 10SM OVC034 12/06 A2986 RMK AO2 SLP088 60001 T01170056 10117 20094 51002,M
