station,valid,lon,lat,elevation,tmpf,dwpf,relh,drct,sknt,p01i,alti,mslp,vsby,gust,skyc1,skyc2,skyc3,skyc4,skyl1,skyl2,skyl3,skyl4,wxcodes,ice_accretion_1hr,ice_accretion_3hr,ice_accretion_6hr,peak_wind_gust,peak_wind_drct,peak_wind_time,feel,metar,snowdepth
TPH,2023-09-04 00:04,-117.0904,38.0505,1654.00,58.00,49.00,71.91,360.00,18.00,T,30.02,M,10.00,24.00,BKN,BKN,OVC,M,7000.00,9000.00,11000.00,M,-TSRA,M,M,M,M,M,M,58.00,KTPH 040004Z AUTO 36018G24KT 10SM -TSRA BKN070 BKN090 OVC110 14/09 A3002 RMK AO2 LTG DSNT NE AND S TSB2358 P0000 T01440094,M
05U,2023-09-04 00:10,-116.0051,39.6042,1811.23,50.00,48.20,93.50,M,M,0.00,30.14,M,10.00,M,BKN,BKN,OVC,M,2800.00,3200.00,3800.00,M,M,M,M,M,M,M,M,50.00,K05U 040010Z AUTO 10SM BKN028 BKN032 OVC038 10/09 A3014 RMK A01,M
BVU,2023-09-04 00:15,-114.8611,35.9475,671.00,87.80,55.40,33.29,190.00,20.00,0.00,29.79,M,10.00,27.00,BKN,BKN,M,M,9000.00,12000.00,M,M,M,M,M,M,M,M,M,86.11,KBVU 040015Z AUTO 19020G27KT 10SM BKN090 BKN120 31/13 A2979 RMK AO2,M
CXP,2023-09-04 00:15,-119.7326,39.1923,1431.00,62.60,46.40,55.37,310.00,6.00,0.00,30.08,M,10.00,11.00,SCT,M,M,M,7500.00,M,M,M,M,M,M,M,M,M,M,62.60,KCXP 040015Z AUTO 31006G11KT 10SM SCT075 17/08 A3008 RMK AO2,M
RTS,2023-09-04 00:15,-119.8764,39.6682,1539.00,60.80,42.80,51.45,290.00,12.00,0.00,30.09,M,10.00,M,CLR,M,M,M,M,M,M,M,M,M,M,M,M,M,M,60.80,KRTS 040015Z AUTO 29012KT 10SM CLR 16/06 A3009 RMK AO2,M
MEV,2023-09-04 00:15,-119.7500,38.9963,1441.42,64.40,41.00,42.28,280.00,11.00,0.00,30.06,M,10.00,M,BKN,OVC,M,M,5500.00,6500.00,M,M,M,M,M,M,M,M,M,64.40,KMEV 040015Z AUTO 28011KT 10SM BKN055 OVC065 18/05 A3006 RMK AO2,M
BAM,2023-09-04 00:15,-116.8743,40.5990,1382.36,53.60,51.80,93.60,0.00,0.00,0.00,30.08,M,10.00,M,SCT,BKN,OVC,M,4300.00,7000.00,8000.00,M,M,M,M,M,M,M,M,53.60,KBAM 040015Z AUTO 00000KT 10SM SCT043 BKN070 OVC080 12/11 A3008 RMK AO1,M
HTH,2023-09-04 00:15,-118.6315,38.5448,1282.89,57.20,51.80,82.12,M,5.00,0.00,30.06,M,2.50,11.00,FEW,BKN,OVC,M,300.00,4300.00,5500.00,M,HZ,M,M,M,M,M,M,57.20,KHTH 040015Z AUTO VRB05G11KT 2 1/2SM HZ FEW003 BKN043 OVC055 14/11 A3006 RMK A01 VIS 1 1/2V5,M
10U,2023-09-04 00:15,-116.1876,41.9532,1637.00,51.80,50.00,93.55,190.00,4.00,0.00,30.04,M,10.00,M,CLR,M,M,M,M,M,M,M,M,M,M,M,M,M,M,51.80,K10U 040015Z AUTO 19004KT 10SM CLR 11/10 A3004 RMK AO2,M
ELY,2023-09-04 00:18,-114.8453,39.2950,1909.00,59.00,51.00,74.74,200.00,9.00,T,29.98,M,10.00,23.00,FEW,BKN,OVC,M,5000.00,9000.00,11000.00,M,-RA,M,M,M,29.00,150.00,2023-09-03 23:57,59.00,KELY 040018Z AUTO 20009G23KT 10SM -RA FEW050 BKN090 OVC110 15/11 A2998 RMK AO2 PK WND 15029/2357 LTG DSNT W-N RAB02 P0000 T01500106,M
TPH,2023-09-04 00:29,-117.0904,38.0505,1654.00,56.00,50.00,80.23,360.00,18.00,0.04,30.02,M,10.00,29.00,SCT,BKN,OVC,M,6000.00,7500.00,9000.00,M,-RA,M,M,M,29.00,10.00,2023-09-04 00:23,56.00,KTPH 040029Z AUTO 36018G29KT 10SM -RA SCT060 BKN075 OVC090 13/10 A3002 RMK AO2 PK WND 01029/0023 LTG DSNT NE AND E AND W TSB2358E08E24 P0004 T01330100,M
05U,2023-09-04 00:30,-116.0051,39.6042,1811.23,50.00,48.20,93.50,M,M,0.00,30.13,M,10.00,M,BKN,BKN,OVC,M,3000.00,3700.00,4800.00,M,M,M,M,M,M,M,M,50.00,K05U 040030Z AUTO 10SM BKN030 BKN037 OVC048 10/09 A3013 RMK A01,M
BVU,2023-09-04 00:35,-114.8611,35.9475,671.00,87.80,57.20,35.53,180.00,19.00,0.00,29.79,M,10.00,24.00,FEW,OVC,M,M,4600.00,9000.00,M,M,M,M,M,M,M,M,M,86.58,KBVU 040035Z AUTO 18019G24KT 10SM FEW046 OVC090 31/14 A2979 RMK AO2,M
CXP,2023-09-04 00:35,-119.7326,39.1923,1431.00,62.60,46.40,55.37,330.00,10.00,0.00,30.08,M,10.00,M,FEW,M,M,M,7500.00,M,M,M,M,M,M,M,M,M,M,62.60,KCXP 040035Z AUTO 33010KT 10SM FEW075 17/08 A3008 RMK AO2,M
RTS,2023-09-04 00:35,-119.8764,39.6682,1539.00,60.80,42.80,51.45,300.00,15.00,0.00,30.10,M,10.00,M,FEW,SCT,SCT,M,4000.00,6500.00,8000.00,M,M,M,M,M,M,M,M,60.80,KRTS 040035Z AUTO 30015KT 10SM FEW040 SCT065 SCT080 16/06 A3010 RMK AO2,M
MEV,2023-09-04 00:35,-119.7500,38.9963,1441.42,62.60,42.80,48.28,280.00,5.00,0.00,30.06,M,10.00,M,BKN,BKN,M,M,5500.00,7000.00,M,M,M,M,M,M,M,M,M,62.60,KMEV 040035Z AUTO 28005KT 10SM BKN055 BKN070 17/06 A3006 RMK AO2,M
BAM,2023-09-04 00:35,-116.8743,40.5990,1382.36,53.60,51.80,93.60,160.00,3.00,0.00,30.08,M,10.00,M,SCT,SCT,SCT,M,4400.00,5500.00,7000.00,M,M,M,M,M,M,M,M,53.60,KBAM 040035Z AUTO 16003KT 10SM SCT044 SCT055 SCT070 12/11 A3008 RMK AO1,M
HTH,2023-09-04 00:35,-118.6315,38.5448,1282.89,57.20,51.80,82.12,360.00,18.00,0.00,30.07,M,3.00,23.00,SCT,BKN,OVC,M,3000.00,4000.00,5000.00,M,HZ,M,M,M,M,M,M,57.20,KHTH 040035Z AUTO 36018G23KT 3SM HZ SCT030 BKN040 OVC050 14/11 A3007 RMK A01,M
10U,2023-09-04 00:35,-116.1876,41.9532,1637.00,53.60,51.80,93.60,210.00,7.00,0.00,30.04,M,10.00,M,SCT,M,M,M,900.00,M,M,M,M,M,M,M,M,M,M,53.60,K10U 040035Z AUTO 21007KT 10SM SCT009 12/11 A3004 RMK AO2 LTG DSNT ALQDS,M
EKO,2023-09-04 00:44,-115.7860,40.8242,1367.00,52.00,50.00,92.86,210.00,9.00,0.04,30.07,M,10.00,M,SCT,BKN,OVC,M,2100.00,2900.00,3700.00,M,-RA,M,M,M,M,M,M,52.00,KEKO 040044Z AUTO 21009KT 10SM -RA SCT021 BKN029 OVC037 11/10 A3007 RMK AO2 P0004 T01110100,M
LSV,2023-09-04 00:44,-115.0343,36.2362,570.00,93.20,55.40,28.10,210.00,13.00,0.00,29.73,1004.50,10.00,M,SCT,SCT,M,M,9000.00,13000.00,M,M,-RA,M,M,M,M,M,M,91.35,KLSV 040044Z AUTO 21013KT 10SM -RA SCT090 SCT130 34/13 A2973 RMK AO2 RAB44 SLP045 $,M
05U,2023-09-04 00:50,-116.0051,39.6042,1811.23,50.00,46.40,87.37,M,M,0.00,30.13,M,10.00,M,FEW,BKN,OVC,M,3100.00,4300.00,6000.00,M,M,M,M,M,M,M,M,50.00,K05U 040050Z AUTO 10SM FEW031 BKN043 OVC060 10/08 A3013 RMK A01,M
P68,2023-09-04 00:53,-116.0056,39.6014,1993.00,50.00,48.00,92.80,20.00,8.00,0.00,30.10,1014.30,M,M,M,M,M,M,M,M,M,M,M,M,M,M,M,M,M,50.00,KP68 040053Z AUTO 02008KT 10/09 A3010 RMK AO1 SLP143 T01000089 $,M
DRA,2023-09-04 00:53,-116.0278,36.6206,1009.00,81.00,50.00,33.97,190.00,21.00,0.00,29.84,1006.20,10.00,29.00,CLR,M,M,M,M,M,M,M,M,M,M,M,31.00,180.00,2023-09-04 00:34,80.12,KDRA 040053Z AUTO 19021G29KT 10SM CLR 27/10 A2984 RMK AO2 PK WND 18031/0034 SLP062 T02720100,M
ELY,2023-09-04 00:53,-114.8453,39.2950,1909.00,59.00,47.00,64.36,310.00,21.00,T,30.02,1008.80,10.00,31.00,FEW,SCT,BKN,M,4800.00,7500.00,10000.00,M,-RA,M,M,M,31.00,310.00,2023-09-04 00:52,59.00,KELY 040053Z AUTO 31021G31KT 10SM -RA FEW048 SCT075 BKN100 15/08 A3002 RMK AO2 PK WND 31031/0052 WSHFT 0039 LTG DSNT W-N RAB02E21B52 PRESRR SLP088 P0000 T01500083,M
VGT,2023-09-04 00:53,-115.1933,36.2111,667.00,90.00,57.00,32.91,230.00,13.00,0.00,29.78,1007.60,10.00,24.00,SCT,BKN,M,M,8500.00,10000.00,M,M,M,M,M,M,M,M,M,88.61,KVGT 040053Z 23013G24KT 10SM SCT085 BKN100 32/14 A2978 RMK AO2 SLP076 T03220139 $,M
LOL,2023-09-04 00:53,-118.5701,40.0684,1192.43,57.00,54.00,89.68,200.00,3.00,0.00,30.04,1015.10,10.00,M,CLR,M,M,M,M,M,M,M,M,M,M,M,M,M,M,57.00,KLOL 040053Z AUTO 20003KT 10SM CLR 14/12 A3004 RMK AO2 SLP151 T01390122,M
BVU,2023-09-04 00:55,-114.8611,35.9475,671.00,87.80,60.80,40.41,170.00,15.00,0.00,29.78,M,10.00,23.00,BKN,BKN,M,M,8500.00,11000.00,M,M,M,M,M,M,M,M,M,87.75,KBVU 040055Z AUTO 17015G23KT 10SM BKN085 BKN110 31/16 A2978 RMK AO2,M
CXP,2023-09-04 00:55,-119.7326,39.1923,1431.00,62.60,42.80,48.28,310.00,8.00,0.00,30.08,M,10.00,16.00,FEW,FEW,M,M,7000.00,8000.00,M,M,M,M,M,M,M,M,M,62.60,KCXP 040055Z AUTO 31008G16KT 10SM FEW070 FEW080 17/06 A3008 RMK AO2,M
INS,2023-09-04 00:55,-115.6733,36.5872,955.00,84.40,43.70,23.99,180.00,11.00,0.00,29.84,1006.10,10.00,28.00,SCT,M,M,M,10000.00,M,M,M,M,M,M,M,37.00,210.00,2023-09-04 00:41,81.81,KINS 040055Z AUTO 18011G28KT 10SM SCT100 29/07 A2984 RMK AO2 PK WND 21037/41 SLP061 T02910065 $,M
RNO,2023-09-04 00:55,-119.7711,39.4839,1341.00,64.00,45.00,49.99,290.00,12.00,0.00,30.06,1014.40,10.00,22.00,BKN,BKN,M,M,6500.00,9000.00,M,M,M,M,M,M,M,M,M,64.00,KRNO 040055Z 29012G22KT 10SM BKN065 BKN090 18/07 A3006 RMK AO2 SLP144 T01780072,M
RTS,2023-09-04 00:55,-119.8764,39.6682,1539.00,59.00,42.80,54.86,280.00,8.00,0.00,30.10,M,10.00,15.00,SCT,BKN,M,M,6500.00,8000.00,M,M,M,M,M,M,M,M,M,59.00,KRTS 040055Z AUTO 28008G15KT 10SM SCT065 BKN080 15/06 A3010 RMK AO2,M
MEV,2023-09-04 00:55,-119.7500,38.9963,1441.42,60.80,42.80,51.45,270.00,9.00,0.00,30.07,M,10.00,M,FEW,BKN,M,M,5500.00,7000.00,M,M,M,M,M,M,M,M,M,60.80,KMEV 040055Z AUTO 27009KT 10SM FEW055 BKN070 16/06 A3007 RMK AO2,M
BAM,2023-09-04 00:55,-116.8743,40.5990,1382.36,53.60,51.80,93.60,150.00,5.00,0.00,30.07,M,10.00,M,BKN,M,M,M,12000.00,M,M,M,M,M,M,M,M,M,M,53.60,KBAM 040055Z AUTO 15005KT 10SM BKN120 12/11 A3007 RMK AO1,M
HTH,2023-09-04 00:55,-118.6315,38.5448,1282.89,57.20,51.80,82.12,350.00,13.00,0.06,30.08,M,5.00,M,FEW,SCT,OVC,M,3100.00,4400.00,5000.00,M,HZ,M,M,M,M,M,M,57.20,KHTH 040055Z AUTO 35013KT 5SM HZ FEW031 SCT044 OVC050 14/11 A3008 RMK A01 P0006,M
LSV,2023-09-04 00:55,-115.0343,36.2362,570.00,89.00,62.20,40.88,200.00,16.00,T,29.74,1004.90,10.00,21.00,SCT,M,M,M,9000.00,M,M,M,-RA,M,M,M,M,M,M,89.52,KLSV 040055Z AUTO 20016G21KT 10SM -RA SCT090 32/17 A2974 RMK AO2 RAB44 SLP049 P0000 T03170168 $,M
EKO,2023-09-04 00:56,-115.7860,40.8242,1367.00,52.00,50.00,92.86,210.00,10.00,0.04,30.06,1015.30,10.00,M,BKN,OVC,M,M,1700.00,2500.00,M,M,M,M,M,M,M,M,M,52.00,KEKO 040056Z AUTO 21010KT 10SM BKN017 OVC025 11/10 A3006 RMK AO2 RAE47 SLP153 P0004 T01110100,M
WMC,2023-09-04 00:56,-117.8072,40.9019,1315.00,57.00,50.00,77.38,180.00,5.00,0.00,30.02,1013.90,10.00,M,SCT,M,M,M,8500.00,M,M,M,M,M,M,M,M,M,M,57.00,KWMC 040056Z AUTO 18005KT 10SM SCT085 14/10 A3002 RMK AO2 SLP139 T01390100,M
NFL,2023-09-04 00:56,-118.7010,39.4166,1199.00,58.00,52.00,80.38,80.00,4.00,0.00,30.05,1014.60,10.00,M,FEW,M,M,M,8000.00,M,M,M,M,M,M,M,M,M,M,58.00,KNFL 040056Z AUTO 08004KT 10SM FEW080 14/11 A3005 RMK AO2 SLP146 T01440111,M
HND,2023-09-04 00:56,-115.1344,35.9729,742.79,88.00,57.00,35.05,210.00,12.00,T,29.83,1009.00,10.00,M,SCT,M,M,M,9000.00,M,M,M,M,M,M,M,31.00,200.00,2023-09-04 00:17,86.71,KHND 040056Z 21012KT 10SM SCT090 31/14 A2983 RMK AO2 PK WND 20031/0017 LTG DSNT N RAB21E43 SLP090 P0000 T03110139,M
LAS,2023-09-04 00:56,-115.1634,36.0719,663.00,86.00,60.00,41.60,220.00,8.00,T,29.79,1006.50,10.00,M,BKN,M,M,M,8000.00,M,M,M,M,M,M,M,30.00,180.00,2023-09-04 00:36,85.78,KLAS 040056Z 22008KT 10SM BKN080 30/16 A2979 RMK AO2 PK WND 18030/0036 LTG DSNT NE RAB36E51 SLP065 P0000 T03000156 $,M
LSV,2023-09-04 00:56,-115.0343,36.2362,570.00,87.80,64.40,45.88,200.00,16.00,0.00,29.75,1005.30,10.00,M,FEW,SCT,M,M,7500.00,9000.00,M,M,M,M,M,M,M,M,M,89.33,KLSV 040056Z AUTO 20016KT 10SM FEW075 SCT090 31/18 A2975 RMK AO2 RAE54 SLP053 $,M
ELY,2023-09-04 00:58,-114.8453,39.2950,1909.00,52.00,45.00,76.94,280.00,21.00,T,30.03,M,10.00,32.00,FEW,SCT,BKN,M,4400.00,5500.00,8500.00,M,VCTS -RA,M,M,M,32.00,290.00,2023-09-04 00:57,52.00,KELY 040058Z AUTO 28021G32KT 10SM VCTS -RA FEW044 SCT055 BKN085 11/07 A3003 RMK AO2 PK WND 29032/0057 WSHFT 0044 LTG DSNT ALQDS PRESRR P0000 T01110072,M
LSV,2023-09-04 00:59,-115.0343,36.2362,570.00,86.00,64.40,48.58,230.00,24.00,0.00,29.77,1006.10,8.00,29.00,FEW,FEW,SCT,M,3000.00,7500.00,9000.00,M,M,M,M,M,M,M,M,87.49,KLSV 040059Z AUTO 23024G29KT 8SM FEW030 FEW075 SCT090 30/18 A2977 RMK AO2 WSHFT 48 RAE54 PRESRR SLP061 $,M
10U,2023-09-04 01:00,-116.1876,41.9532,1637.00,53.60,50.00,87.56,180.00,8.00,0.00,30.04,M,10.00,M,FEW,M,M,M,1000.00,M,M,M,M,M,M,M,M,M,M,53.60,K10U 040100Z AUTO 18008KT 10SM FEW010 12/10 A3004 RMK AO2,M
LSV,2023-09-04 01:00,-115.0343,36.2362,570.00,84.20,64.40,51.47,240.00,21.00,0.00,29.77,1006.10,7.00,29.00,FEW,FEW,BKN,M,2700.00,7500.00,9000.00,M,RA,M,M,M,M,M,M,85.71,KLSV 040100Z AUTO 24021G29KT 7SM RA FEW027 FEW075 BKN090 29/18 A2977 RMK AO2 RAE0054RAB0059 SLP061 $,M
VGT,2023-09-04 01:02,-115.1933,36.2111,667.00,90.00,57.00,32.91,230.00,19.00,T,29.78,M,10.00,24.00,FEW,SCT,BKN,M,6000.00,8000.00,10000.00,M,VCTS -RA,M,M,M,M,M,M,88.61,KVGT 040102Z 23019G24KT 10SM VCTS -RA FEW060 SCT080 BKN100 32/14 A2978 RMK AO2 LTG DSNT NE RAB0054 P0000 T03220139 $,M
05U,2023-09-04 01:10,-116.0051,39.6042,1811.23,50.00,46.40,87.37,M,M,0.00,30.13,M,9.00,M,FEW,BKN,OVC,M,2800.00,3500.00,4200.00,M,M,M,M,M,M,M,M,50.00,K05U 040110Z AUTO 9SM FEW028 BKN035 OVC042 10/08 A3013 RMK A01,M
BVU,2023-09-04 01:15,-114.8611,35.9475,671.00,86.00,59.00,40.14,170.00,17.00,0.00,29.78,M,10.00,22.00,BKN,BKN,M,M,9000.00,11000.00,M,M,M,M,M,M,M,M,M,85.47,KBVU 040115Z AUTO 17017G22KT 10SM BKN090 BKN110 30/15 A2978 RMK AO2,M
CXP,2023-09-04 01:15,-119.7326,39.1923,1431.00,60.80,42.80,51.45,290.00,7.00,0.00,30.09,M,10.00,M,CLR,M,M,M,M,M,M,M,M,M,M,M,M,M,M,60.80,KCXP 040115Z AUTO 29007KT 10SM CLR 16/06 A3009 RMK AO2,M
ELY,2023-09-04 01:15,-114.8453,39.2950,1909.00,49.00,43.00,79.68,310.00,22.00,0.01,30.03,M,10.00,38.00,SCT,BKN,OVC,M,4400.00,6000.00,9000.00,M,-TSRA,M,M,M,38.00,300.00,2023-09-04 01:11,41.34,KELY 040115Z AUTO 31022G38KT 10SM -TSRA SCT044 BKN060 OVC090 09/06 A3003 RMK AO2 PK WND 30038/0111 WSHFT 0044 LTG DSNT ALQDS TSB09 P0001 T00940061,M
RTS,2023-09-04 01:15,-119.8764,39.6682,1539.00,59.00,42.80,54.86,290.00,7.00,0.00,30.10,M,10.00,14.00,SCT,BKN,M,M,7000.00,8000.00,M,M,M,M,M,M,M,M,M,59.00,KRTS 040115Z AUTO 29007G14KT 10SM SCT070 BKN080 15/06 A3010 RMK AO2,M
MEV,2023-09-04 01:15,-119.7500,38.9963,1441.42,62.60,41.00,45.04,280.00,7.00,0.00,30.07,M,10.00,15.00,BKN,BKN,M,M,6500.00,7500.00,M,M,M,M,M,M,M,M,M,62.60,KMEV 040115Z AUTO 28007G15KT 10SM BKN065 BKN075 17/05 A3007 RMK AO2,M
BAM,2023-09-04 01:15,-116.8743,40.5990,1382.36,53.60,51.80,93.60,170.00,3.00,0.00,30.06,M,10.00,M,SCT,M,M,M,12000.00,M,M,M,M,M,M,M,M,M,M,53.60,KBAM 040115Z AUTO 17003KT 10SM SCT120 12/11 A3006 RMK AO1,M
HTH,2023-09-04 01:15,-118.6315,38.5448,1282.89,57.20,51.80,82.12,350.00,13.00,0.00,30.08,M,10.00,M,FEW,SCT,BKN,M,3100.00,4200.00,5000.00,M,M,M,M,M,M,M,M,57.20,KHTH 040115Z AUTO 35013KT 10SM FEW031 SCT042 BKN050 14/11 A3008 RMK A01,M
10U,2023-09-04 01:15,-116.1876,41.9532,1637.00,53.60,50.00,87.56,160.00,6.00,0.00,30.03,M,10.00,M,SCT,M,M,M,7000.00,M,M,M,M,M,M,M,M,M,M,53.60,K10U 040115Z AUTO 16006KT 10SM SCT070 12/10 A3003 RMK AO2,M
VGT,2023-09-04 01:17,-115.1933,36.2111,667.00,88.00,58.00,36.34,230.00,9.00,T,29.77,M,10.00,17.00,FEW,SCT,M,M,8000.00,10000.00,M,M,M,M,M,M,M,M,M,86.99,KVGT 040117Z 23009G17KT 10SM FEW080 SCT100 31/14 A2977 RMK AO2 LTG DSNT NE RAB0054E03 P0000 T03110144 $,M
EKO,2023-09-04 01:19,-115.7860,40.8242,1367.00,53.00,50.00,89.51,220.00,7.00,T,30.04,M,10.00,M,SCT,OVC,M,M,1800.00,10000.00,M,M,M,M,M,M,M,M,M,53.00,KEKO 040119Z AUTO 22007KT 10SM SCT018 OVC100 12/10 A3004 RMK AO2 RAB0057E06 P0000 T01170100,M
LSV,2023-09-04 01:22,-115.0343,36.2362,570.00,78.80,66.20,65.33,190.00,4.00,0.00,29.74,1005.30,10.00,M,FEW,SCT,M,M,3000.00,8500.00,M,M,M,M,M,M,M,M,M,78.80,KLSV 040122Z AUTO 19004KT 10SM FEW030 SCT085 26/19 A2974 RMK AO2 RAE0054RAB0059E20DZB20E21RAB21E22 PRESFR SLP053 $,M
ELY,2023-09-04 01:30,-114.8453,39.2950,1909.00,49.00,45.00,86.00,340.00,8.00,0.01,30.07,M,10.00,20.00,SCT,BKN,OVC,M,4600.00,6000.00,10000.00,M,VCTS -RA,M,M,M,38.00,300.00,2023-09-04 01:11,45.05,KELY 040130Z AUTO 34008G20KT 10SM VCTS -RA SCT046 BKN060 OVC100 09/07 A3007 RMK AO2 PK WND 30038/0111 WSHFT 0044 LTG DSNT ALQDS TSB09E24 P0001 T00940072,M
05U,2023-09-04 01:30,-116.0051,39.6042,1811.23,50.00,48.20,93.50,M,M,0.00,30.12,M,5.00,M,BKN,BKN,OVC,M,2900.00,3600.00,5000.00,M,BR,M,M,M,M,M,M,50.00,K05U 040130Z AUTO 5SM BR BKN029 BKN036 OVC050 10/09 A3012 RMK A01,M
BVU,2023-09-04 01:35,-114.8611,35.9475,671.00,86.00,57.20,37.62,180.00,20.00,0.00,29.78,M,10.00,M,SCT,BKN,M,M,9000.00,12000.00,M,M,M,M,M,M,M,M,M,84.97,KBVU 040135Z AUTO 18020KT 10SM SCT090 BKN120 30/14 A2978 RMK AO2,M
CXP,2023-09-04 01:35,-119.7326,39.1923,1431.00,60.80,42.80,51.45,310.00,12.00,0.00,30.09,M,10.00,M,CLR,M,M,M,M,M,M,M,M,M,M,M,M,M,M,60.80,KCXP 040135Z AUTO 31012KT 10SM CLR 16/06 A3009 RMK AO2,M
RTS,2023-09-04 01:35,-119.8764,39.6682,1539.00,59.00,42.80,54.86,290.00,12.00,0.00,30.10,M,10.00,M,BKN,BKN,M,M,6500.00,8000.00,M,M,M,M,M,M,M,M,M,59.00,KRTS 040135Z AUTO 29012KT 10SM BKN065 BKN080 15/06 A3010 RMK AO2,M
MEV,2023-09-04 01:35,-119.7500,38.9963,1441.42,60.80,41.00,48.00,M,5.00,0.00,30.08,M,10.00,M,FEW,SCT,M,M,6500.00,7500.00,M,M,M,M,M,M,M,M,M,60.80,KMEV 040135Z AUTO VRB05KT 10SM FEW065 SCT075 16/05 A3008 RMK AO2,M
BAM,2023-09-04 01:35,-116.8743,40.5990,1382.36,53.60,51.80,93.60,200.00,3.00,0.00,30.05,M,10.00,M,CLR,M,M,M,M,M,M,M,M,M,M,M,M,M,M,53.60,KBAM 040135Z AUTO 20003KT 10SM CLR 12/11 A3005 RMK AO1,M
HTH,2023-09-04 01:35,-118.6315,38.5448,1282.89,57.20,51.80,82.12,320.00,7.00,0.00,30.09,M,10.00,M,FEW,OVC,M,M,4200.00,5000.00,M,M,M,M,M,M,M,M,M,57.20,KHTH 040135Z AUTO 32007KT 10SM FEW042 OVC050 14/11 A3009 RMK A01,M
10U,2023-09-04 01:35,-116.1876,41.9532,1637.00,51.80,50.00,93.55,140.00,6.00,0.00,30.03,M,10.00,M,OVC,M,M,M,7000.00,M,M,M,M,M,M,M,M,M,M,51.80,K10U 040135Z AUTO 14006KT 10SM OVC070 11/10 A3003 RMK AO2,M
05U,2023-09-04 01:50,-116.0051,39.6042,1811.23,48.20,46.40,93.45,M,M,0.00,30.13,M,5.00,M,BKN,BKN,OVC,M,1900.00,2600.00,4700.00,M,BR,M,M,M,M,M,M,M,K05U 040150Z AUTO 5SM BR BKN019 BKN026 OVC047 09/08 A3013 RMK A01,M
P68,2023-09-04 01:53,-116.0056,39.6014,1993.00,49.00,46.00,89.33,50.00,5.00,0.02,30.10,1014.10,M,M,M,M,M,M,M,M,M,M,M,M,M,M,M,M,M,46.58,KP68 040153Z AUTO 05005KT 09/08 A3010 RMK AO1 SLP141 P0002 T00940078 $,M
DRA,2023-09-04 01:53,-116.0278,36.6206,1009.00,80.00,39.00,23.08,230.00,17.00,0.00,29.83,1005.90,10.00,32.00,CLR,M,M,M,M,M,M,M,M,M,M,M,32.00,210.00,2023-09-04 01:33,78.78,KDRA 040153Z AUTO 23017G32KT 10SM CLR 27/04 A2983 RMK AO2 PK WND 21032/0133 SLP059 T02670039,M
ELY,2023-09-04 01:53,-114.8453,39.2950,1909.00,50.00,44.00,79.76,40.00,14.00,0.01,30.08,1012.10,10.00,21.00,SCT,BKN,OVC,M,3200.00,3900.00,6000.00,M,M,M,M,M,38.00,300.00,2023-09-04 01:11,50.00,KELY 040153Z AUTO 04014G21KT 10SM SCT032 BKN039 OVC060 10/07 A3008 RMK AO2 PK WND 30038/0111 WSHFT 0044 LTG DSNT ALQDS RAE53 TSB09E24 SLP121 P0001 T01000067,M
VGT,2023-09-04 01:53,-115.1933,36.2111,667.00,88.00,59.00,37.66,230.00,6.00,T,29.76,1007.30,10.00,M,CLR,M,M,M,M,M,M,M,M,M,M,M,M,M,M,87.31,KVGT 040153Z 23006KT 10SM CLR 31/15 A2976 RMK AO2 RAB0054E03 SLP073 P0000 T03110150 $,M
LOL,2023-09-04 01:53,-118.5701,40.0684,1192.43,56.00,54.00,92.98,180.00,6.00,0.00,30.03,1015.20,10.00,M,CLR,M,M,M,M,M,M,M,M,M,M,M,M,M,M,56.00,KLOL 040153Z AUTO 18006KT 10SM CLR 13/12 A3003 RMK AO2 SLP152 T01330122,M
BVU,2023-09-04 01:55,-114.8611,35.9475,671.00,86.00,57.20,37.62,190.00,18.00,0.00,29.77,M,10.00,M,BKN,BKN,M,M,9000.00,11000.00,M,M,M,M,M,M,M,M,M,84.97,KBVU 040155Z AUTO 19018KT 10SM BKN090 BKN110 30/14 A2977 RMK AO2,M
CXP,2023-09-04 01:55,-119.7326,39.1923,1431.00,59.00,42.80,54.86,290.00,6.00,0.00,30.09,M,10.00,M,CLR,M,M,M,M,M,M,M,M,M,M,M,M,M,M,59.00,KCXP 040155Z AUTO 29006KT 10SM CLR 15/06 A3009 RMK AO2,M
INS,2023-09-04 01:55,-115.6733,36.5872,955.00,82.00,46.60,28.95,190.00,13.00,0.00,29.81,1005.20,10.00,26.00,CLR,M,M,M,M,M,M,M,M,M,M,M,35.00,220.00,2023-09-04 01:39,80.40,KINS 040155Z AUTO 19013G26KT 10SM CLR 28/08 A2981 RMK AO2 PK WND 22035/39 SLP052 T02780081 $,M
RNO,2023-09-04 01:55,-119.7711,39.4839,1341.00,61.00,44.00,53.49,280.00,9.00,0.00,30.06,1014.80,10.00,M,SCT,SCT,M,M,6500.00,9000.00,M,M,M,M,M,M,M,M,M,61.00,KRNO 040155Z 28009KT 10SM SCT065 SCT090 16/07 A3006 RMK AO2 SLP148 T01610067,M
RTS,2023-09-04 01:55,-119.8764,39.6682,1539.00,59.00,42.80,54.86,290.00,8.00,0.00,30.10,M,10.00,14.00,OVC,M,M,M,6500.00,M,M,M,M,M,M,M,M,M,M,59.00,KRTS 040155Z AUTO 29008G14KT 10SM OVC065 15/06 A3010 RMK AO2,M
MEV,2023-09-04 01:55,-119.7500,38.9963,1441.42,59.00,42.80,54.86,320.00,9.00,0.00,30.08,M,10.00,M,CLR,M,M,M,M,M,M,M,M,M,M,M,M,M,M,59.00,KMEV 040155Z AUTO 32009KT 10SM CLR 15/06 A3008 RMK AO2,M
HTH,2023-09-04 01:55,-118.6315,38.5448,1282.89,57.20,51.80,82.12,320.00,7.00,0.00,30.09,M,10.00,M,BKN,OVC,M,M,5000.00,5500.00,M,M,M,M,M,M,M,M,M,57.20,KHTH 040155Z AUTO 32007KT 10SM BKN050 OVC055 14/11 A3009 RMK A01,M
LSV,2023-09-04 01:55,-115.0343,36.2362,570.00,78.80,67.60,68.57,40.00,4.00,0.09,29.72,1004.50,10.00,M,CLR,M,M,M,M,M,M,M,M,M,M,M,29.00,210.00,2023-09-04 00:57,78.80,KLSV 040155Z AUTO 04004KT 10SM CLR 26/20 A2972 RMK AO2 PK WND 21029/0057 RAE0054RAB0059E20DZB20E21RAB21E22 SLP045 P0009 T02600198 $,M
BAM,2023-09-04 01:55,-116.8743,40.5990,1382.36,53.60,51.80,93.60,210.00,4.00,0.00,30.05,M,10.00,M,CLR,M,M,M,M,M,M,M,M,M,M,M,M,M,M,53.60,KBAM 040155Z AUTO 21004KT 10SM CLR 12/11 A3005 RMK AO1,M
10U,2023-09-04 01:55,-116.1876,41.9532,1637.00,51.80,50.00,93.55,0.00,0.00,0.00,30.03,M,10.00,M,OVC,M,M,M,7500.00,M,M,M,M,M,M,M,M,M,M,51.80,K10U 040155Z AUTO 00000KT 10SM OVC075 11/10 A3003 RMK AO2,M
EKO,2023-09-04 01:56,-115.7860,40.8242,1367.00,52.00,50.00,92.86,240.00,6.00,T,30.03,1013.90,10.00,M,FEW,M,M,M,11000.00,M,M,M,M,M,M,M,M,M,M,52.00,KEKO 040156Z AUTO 24006KT 10SM FEW110 11/10 A3003 RMK AO2 RAB0057E06 SLP139 P0000 T01110100,M
WMC,2023-09-04 01:56,-117.8072,40.9019,1315.00,56.00,50.00,80.23,180.00,9.00,0.00,30.02,1014.00,10.00,M,FEW,M,M,M,9500.00,M,M,M,M,M,M,M,M,M,M,56.00,KWMC 040156Z AUTO 18009KT 10SM FEW095 13/10 A3002 RMK AO2 SLP140 T01330100,M
NFL,2023-09-04 01:56,-118.7010,39.4166,1199.00,58.00,51.00,77.47,190.00,5.00,0.00,30.05,1014.30,10.00,M,BKN,M,M,M,9000.00,M,M,M,M,M,M,M,M,M,M,58.00,KNFL 040156Z AUTO 19005KT 10SM BKN090 14/11 A3005 RMK AO2 SLP143 T01440106,M
HND,2023-09-04 01:56,-115.1344,35.9729,742.79,86.00,62.00,44.65,230.00,10.00,T,29.82,1008.70,10.00,M,BKN,BKN,M,M,7000.00,9000.00,M,M,-RA,M,M,M,27.00,210.00,2023-09-04 01:45,86.48,KHND 040156Z 23010KT 10SM -RA BKN070 BKN090 30/17 A2982 RMK AO2 PK WND 21027/0145 RAB51 SLP087 P0000 T03000167,M
LAS,2023-09-04 01:56,-115.1634,36.0719,663.00,86.00,60.00,41.60,230.00,12.00,0.00,29.78,1006.00,10.00,21.00,FEW,SCT,M,M,8000.00,9500.00,M,M,M,M,M,M,M,M,M,85.78,KLAS 040156Z 23012G21KT 10SM FEW080 SCT095 30/16 A2978 RMK AO2 SLP060 CB DSNT NE T03000156 $,M
ELY,2023-09-04 02:02,-114.8453,39.2950,1909.00,50.00,44.00,79.76,30.00,16.00,0.00,30.08,M,10.00,26.00,OVC,M,M,M,3500.00,M,M,M,M,M,M,M,26.00,40.00,2023-09-04 01:55,50.00,KELY 040202Z AUTO 03016G26KT 10SM OVC035 10/07 A3008 RMK AO2 PK WND 04026/0155 WSHFT 0142 LTG DSNT NE-SE T01000067,M
05U,2023-09-04 02:10,-116.0051,39.6042,1811.23,48.20,46.40,93.45,M,M,0.00,30.12,M,5.00,M,BKN,BKN,OVC,M,1900.00,3100.00,4700.00,M,BR,M,M,M,M,M,M,M,K05U 040210Z AUTO 5SM BR BKN019 BKN031 OVC047 09/08 A3012 RMK A01,M
BVU,2023-09-04 02:15,-114.8611,35.9475,671.00,86.00,57.20,37.62,180.00,17.00,0.00,29.77,M,10.00,24.00,BKN,BKN,M,M,9000.00,12000.00,M,M,M,M,M,M,M,M,M,84.97,KBVU 040215Z AUTO 18017G24KT 10SM BKN090 BKN120 30/14 A2977 RMK AO2,M
CXP,2023-09-04 02:15,-119.7326,39.1923,1431.00,59.00,42.80,54.86,290.00,5.00,0.00,30.09,M,10.00,M,CLR,M,M,M,M,M,M,M,M,M,M,M,M,M,M,59.00,KCXP 040215Z AUTO 29005KT 10SM CLR 15/06 A3009 RMK AO2,M
RTS,2023-09-04 02:15,-119.8764,39.6682,1539.00,57.20,42.80,58.52,280.00,10.00,0.00,30.10,M,10.00,M,SCT,OVC,M,M,5000.00,7000.00,M,M,M,M,M,M,M,M,M,57.20,KRTS 040215Z AUTO 28010KT 10SM SCT050 OVC070 14/06 A3010 RMK AO2,M
MEV,2023-09-04 02:15,-119.7500,38.9963,1441.42,59.00,39.20,47.72,M,4.00,0.00,30.08,M,10.00,M,FEW,M,M,M,8000.00,M,M,M,M,M,M,M,M,M,M,59.00,KMEV 040215Z AUTO VRB04KT 10SM FEW080 15/04 A3008 RMK AO2,M
BAM,2023-09-04 02:15,-116.8743,40.5990,1382.36,53.60,51.80,93.60,220.00,3.00,0.00,30.04,M,10.00,M,CLR,M,M,M,M,M,M,M,M,M,M,M,M,M,M,53.60,KBAM 040215Z AUTO 22003KT 10SM CLR 12/11 A3004 RMK AO1,M
HTH,2023-09-04 02:15,-118.6315,38.5448,1282.89,57.20,51.80,82.12,310.00,7.00,0.00,30.09,M,10.00,M,OVC,M,M,M,6000.00,M,M,M,M,M,M,M,M,M,M,57.20,KHTH 040215Z AUTO 31007KT 10SM OVC060 14/11 A3009 RMK A01,M
10U,2023-09-04 02:20,-116.1876,41.9532,1637.00,51.80,48.20,87.47,180.00,4.00,0.00,30.02,M,10.00,M,OVC,M,M,M,6500.00,M,M,M,M,M,M,M,M,M,M,51.80,K10U 040220Z AUTO 18004KT 10SM OVC065 11/09 A3002 RMK AO2,M
05U,2023-09-04 02:30,-116.0051,39.6042,1811.23,48.20,46.40,93.45,M,M,0.00,30.12,M,8.00,M,FEW,SCT,BKN,M,1800.00,3200.00,3800.00,M,M,M,M,M,M,M,M,M,K05U 040230Z AUTO 8SM FEW018 SCT032 BKN038 09/08 A3012 RMK A01,M
BVU,2023-09-04 02:35,-114.8611,35.9475,671.00,86.00,57.20,37.62,180.00,18.00,0.00,29.77,M,10.00,25.00,BKN,BKN,M,M,9000.00,12000.00,M,M,M,M,M,M,M,M,M,84.97,KBVU 040235Z AUTO 18018G25KT 10SM BKN090 BKN120 30/14 A2977 RMK AO2,M
CXP,2023-09-04 02:35,-119.7326,39.1923,1431.00,57.20,44.60,62.69,320.00,4.00,0.00,30.09,M,10.00,M,CLR,M,M,M,M,M,M,M,M,M,M,M,M,M,M,57.20,KCXP 040235Z AUTO 32004KT 10SM CLR 14/07 A3009 RMK AO2,M
RTS,2023-09-04 02:35,-119.8764,39.6682,1539.00,55.40,46.40,71.64,300.00,13.00,0.00,30.10,M,10.00,19.00,FEW,BKN,BKN,M,5500.00,6500.00,8500.00,M,M,M,M,M,M,M,M,55.40,KRTS 040235Z AUTO 30013G19KT 10SM FEW055 BKN065 BKN085 13/08 A3010 RMK AO2,M
MEV,2023-09-04 02:35,-119.7500,38.9963,1441.42,59.00,39.20,47.72,M,4.00,0.00,30.08,M,10.00,M,CLR,M,M,M,M,M,M,M,M,M,M,M,M,M,M,59.00,KMEV 040235Z AUTO VRB04KT 10SM CLR 15/04 A3008 RMK AO2,M
HTH,2023-09-04 02:35,-118.6315,38.5448,1282.89,57.20,51.80,82.12,310.00,6.00,0.00,30.09,M,10.00,M,SCT,OVC,M,M,6000.00,7500.00,M,M,M,M,M,M,M,M,M,57.20,KHTH 040235Z AUTO 31006KT 10SM SCT060 OVC075 14/11 A3009 RMK A01,M
BAM,2023-09-04 02:35,-116.8743,40.5990,1382.36,53.60,51.80,93.60,0.00,0.00,0.00,30.04,M,10.00,M,CLR,M,M,M,M,M,M,M,M,M,M,M,M,M,M,53.60,KBAM 040235Z AUTO 00000KT 10SM CLR 12/11 A3004 RMK AO1,M
10U,2023-09-04 02:40,-116.1876,41.9532,1637.00,51.80,48.20,87.47,250.00,6.00,0.00,30.03,M,10.00,M,SCT,BKN,OVC,M,4800.00,5500.00,6500.00,M,M,M,M,M,M,M,M,51.80,K10U 040240Z AUTO 25006KT 10SM SCT048 BKN055 OVC065 11/09 A3003 RMK AO2,M
05U,2023-09-04 02:50,-116.0051,39.6042,1811.23,48.20,46.40,93.45,M,M,0.00,30.11,M,8.00,M,BKN,BKN,OVC,M,1600.00,3100.00,4900.00,M,M,M,M,M,M,M,M,M,K05U 040250Z AUTO 8SM BKN016 BKN031 OVC049 09/08 A3011 RMK A01,M
INS,2023-09-04 02:51,-115.6733,36.5872,955.00,80.60,41.00,24.46,200.00,13.00,0.00,29.81,1005.10,10.00,M,CLR,M,M,M,M,M,M,M,M,M,M,M,M,M,M,79.20,KINS 040251Z AUTO 20013KT 10SM CLR 27/05 A2981 RMK AO2 WSHFT 49 SLP051 $,M
P68,2023-09-04 02:53,-116.0056,39.6014,1993.00,49.00,46.00,89.33,0.00,0.00,0.03,30.09,1013.20,M,M,M,M,M,M,M,M,M,M,M,M,M,M,M,M,M,49.00,KP68 040253Z AUTO 00000KT 09/08 A3009 RMK AO1 SLP132 P0003 60005 T00940078 56006 $,M
DRA,2023-09-04 02:53,-116.0278,36.6206,1009.00,76.00,33.00,20.77,220.00,16.00,0.00,29.84,1006.00,10.00,28.00,CLR,M,M,M,M,M,M,M,M,M,M,M,29.00,210.00,2023-09-04 02:21,76.00,KDRA 040253Z AUTO 22016G28KT 10SM CLR 24/01 A2984 RMK AO2 PK WND 21029/0221 SLP060 T02440006 55009,M
ELY,2023-09-04 02:53,-114.8453,39.2950,1909.00,49.00,45.00,86.00,340.00,5.00,0.01,30.09,1012.20,10.00,M,FEW,BKN,OVC,M,4100.00,6000.00,7500.00,M,-RA,M,M,M,26.00,40.00,2023-09-04 01:55,46.58,KELY 040253Z AUTO 34005KT 10SM -RA FEW041 BKN060 OVC075 09/07 A3009 RMK AO2 PK WND 04026/0155 WSHFT 0142 LTG DSNT E AND S RAB23 SLP122 P0001 60002 T00940072 51029,M
VGT,2023-09-04 02:53,-115.1933,36.2111,667.00,87.00,51.00,29.06,240.00,15.00,0.00,29.76,1007.20,10.00,21.00,CLR,M,M,M,M,M,M,M,M,M,M,M,M,M,M,84.58,KVGT 040253Z 24015G21KT 10SM CLR 31/11 A2976 RMK AO2 SLP072 60000 T03060106 56008 $,M
LOL,2023-09-04 02:53,-118.5701,40.0684,1192.43,55.00,53.00,92.95,180.00,5.00,0.00,30.04,1015.00,10.00,M,FEW,M,M,M,7000.00,M,M,M,M,M,M,M,M,M,M,55.00,KLOL 040253Z AUTO 18005KT 10SM FEW070 13/12 A3004 RMK AO2 SLP150 T01280117 55000,M
BVU,2023-09-04 02:55,-114.8611,35.9475,671.00,86.00,57.20,37.62,190.00,16.00,0.00,29.77,M,10.00,M,BKN,OVC,M,M,9000.00,11000.00,M,M,M,M,M,M,M,M,M,84.97,KBVU 040255Z AUTO 19016KT 10SM BKN090 OVC110 30/14 A2977 RMK AO2,M
CXP,2023-09-04 02:55,-119.7326,39.1923,1431.00,55.40,44.60,66.91,360.00,3.00,0.00,30.09,M,10.00,M,CLR,M,M,M,M,M,M,M,M,M,M,M,M,M,M,55.40,KCXP 040255Z AUTO 36003KT 10SM CLR 13/07 A3009 RMK AO2,M
RNO,2023-09-04 02:55,-119.7711,39.4839,1341.00,60.00,43.00,53.34,300.00,9.00,0.00,30.07,1015.20,10.00,M,SCT,BKN,M,M,6000.00,7500.00,M,M,M,M,M,M,M,M,M,60.00,KRNO 040255Z 30009KT 10SM SCT060 BKN075 16/06 A3007 RMK AO2 SLP152 T01560061 53001,M
RTS,2023-09-04 02:55,-119.8764,39.6682,1539.00,53.60,44.60,71.45,300.00,5.00,0.00,30.11,M,10.00,14.00,BKN,BKN,M,M,6500.00,8000.00,M,M,M,M,M,M,M,M,M,53.60,KRTS 040255Z AUTO 30005G14KT 10SM BKN065 BKN080 12/07 A3011 RMK AO2,M
MEV,2023-09-04 02:55,-119.7500,38.9963,1441.42,57.20,39.20,50.91,320.00,6.00,0.00,30.08,M,10.00,M,FEW,M,M,M,7000.00,M,M,M,M,M,M,M,M,M,M,57.20,KMEV 040255Z AUTO 32006KT 10SM FEW070 14/04 A3008 RMK AO2,M
BAM,2023-09-04 02:55,-116.8743,40.5990,1382.36,53.60,51.80,93.60,270.00,3.00,0.00,30.05,M,10.00,M,SCT,M,M,M,12000.00,M,M,M,M,M,M,M,M,M,M,53.60,KBAM 040255Z AUTO 27003KT 10SM SCT120 12/11 A3005 RMK AO1,M
HTH,2023-09-04 02:55,-118.6315,38.5448,1282.89,55.40,51.80,87.65,310.00,5.00,0.00,30.09,M,10.00,M,BKN,OVC,M,M,7000.00,8000.00,M,M,M,M,M,M,M,M,M,55.40,KHTH 040255Z AUTO 31005KT 10SM BKN070 OVC080 13/11 A3009 RMK A01,M
LSV,2023-09-04 02:55,-115.0343,36.2362,570.00,80.60,69.80,69.71,210.00,6.00,0.00,29.73,1004.60,10.00,M,BKN,M,M,M,8000.00,M,M,M,M,M,M,M,M,M,M,83.90,KLSV 040255Z AUTO 21006KT 10SM BKN080 27/21 A2973 RMK AO2 SLP046 60009 T02700210 55006 $,M
10U,2023-09-04 02:55,-116.1876,41.9532,1637.00,51.80,48.20,87.47,240.00,7.00,0.00,30.04,M,10.00,M,OVC,M,M,M,5000.00,M,M,M,M,M,M,M,M,M,M,51.80,K10U 040255Z AUTO 24007KT 10SM OVC050 11/09 A3004 RMK AO2,M
INS,2023-09-04 02:55,-115.6733,36.5872,955.00,80.60,42.40,25.82,230.00,13.00,0.00,29.82,1005.40,10.00,M,CLR,M,M,M,M,M,M,M,M,M,M,M,31.00,210.00,2023-09-04 01:57,79.28,KINS 040255Z AUTO 23013KT 10SM CLR 27/06 A2982 RMK AO2 PK WND 21031/0157 SLP054 T02700058 55009 $,M
EKO,2023-09-04 02:56,-115.7860,40.8242,1367.00,52.00,49.00,89.46,240.00,4.00,0.00,30.02,1013.30,10.00,M,FEW,M,M,M,12000.00,M,M,M,M,M,M,M,M,M,M,52.00,KEKO 040256Z AUTO 24004KT 10SM FEW120 11/09 A3002 RMK AO2 SLP133 60004 T01110094 58009,M
WMC,2023-09-04 02:56,-117.8072,40.9019,1315.00,55.00,50.00,83.20,200.00,5.00,0.00,30.03,1014.20,10.00,M,CLR,M,M,M,M,M,M,M,M,M,M,M,M,M,M,55.00,KWMC 040256Z AUTO 20005KT 10SM CLR 13/10 A3003 RMK AO2 SLP142 T01280100 55002,M
NFL,2023-09-04 02:56,-118.7010,39.4166,1199.00,57.00,52.00,83.33,200.00,4.00,0.00,30.05,1014.50,10.00,M,OVC,M,M,M,9000.00,M,M,M,M,M,M,M,M,M,M,57.00,KNFL 040256Z AUTO 20004KT 10SM OVC090 14/11 A3005 RMK AO2 SLP145 T01390111 55002,M
HND,2023-09-04 02:56,-115.1344,35.9729,742.79,83.00,52.00,34.28,220.00,10.00,T,29.83,1009.10,10.00,M,BKN,M,M,M,7500.00,M,M,M,M,M,M,M,M,M,M,81.64,KHND 040256Z 22010KT 10SM BKN075 28/11 A2983 RMK AO2 RAE01 SLP091 P0000 60000 T02830111 55001,M
LAS,2023-09-04 02:56,-115.1634,36.0719,663.00,84.00,51.00,31.99,230.00,13.00,0.00,29.78,1006.30,10.00,20.00,FEW,FEW,M,M,8000.00,9500.00,M,M,M,M,M,M,M,M,M,82.22,KLAS 040256Z 23013G20KT 10SM FEW080 FEW095 29/11 A2978 RMK AO2 SLP063 CB DSNT NE 60000 T02890106 55004 $,M
05U,2023-09-04 03:10,-116.0051,39.6042,1811.23,48.20,46.40,93.45,M,M,0.00,30.12,M,10.00,M,OVC,M,M,M,1500.00,M,M,M,M,M,M,M,M,M,M,M,K05U 040310Z AUTO 10SM OVC015 09/08 A3012 RMK A01,M
BVU,2023-09-04 03:15,-114.8611,35.9475,671.00,84.20,55.40,37.35,230.00,12.00,0.00,29.79,M,10.00,21.00,BKN,BKN,M,M,9000.00,11000.00,M,M,M,M,M,M,M,M,M,83.09,KBVU 040315Z AUTO 23012G21KT 10SM BKN090 BKN110 29/13 A2979 RMK AO2,M
CXP,2023-09-04 03:15,-119.7326,39.1923,1431.00,57.20,42.80,58.52,350.00,5.00,0.00,30.10,M,10.00,M,CLR,M,M,M,M,M,M,M,M,M,M,M,M,M,M,57.20,KCXP 040315Z AUTO 35005KT 10SM CLR 14/06 A3010 RMK AO2,M
RTS,2023-09-04 03:15,-119.8764,39.6682,1539.00,53.60,46.40,76.50,270.00,5.00,0.00,30.12,M,10.00,M,BKN,OVC,M,M,7000.00,7500.00,M,M,M,M,M,M,M,M,M,53.60,KRTS 040315Z AUTO 27005KT 10SM BKN070 OVC075 12/08 A3012 RMK AO2,M
MEV,2023-09-04 03:15,-119.7500,38.9963,1441.42,57.20,39.20,50.91,300.00,8.00,0.00,30.09,M,10.00,M,CLR,M,M,M,M,M,M,M,M,M,M,M,M,M,M,57.20,KMEV 040315Z AUTO 30008KT 10SM CLR 14/04 A3009 RMK AO2,M
BAM,2023-09-04 03:15,-116.8743,40.5990,1382.36,53.60,51.80,93.60,240.00,4.00,0.00,30.05,M,10.00,M,BKN,M,M,M,11000.00,M,M,M,M,M,M,M,M,M,M,53.60,KBAM 040315Z AUTO 24004KT 10SM BKN110 12/11 A3005 RMK AO1,M
HTH,2023-09-04 03:15,-118.6315,38.5448,1282.89,55.40,53.60,93.65,260.00,4.00,0.00,30.10,M,10.00,M,FEW,SCT,BKN,M,6500.00,7500.00,9000.00,M,M,M,M,M,M,M,M,55.40,KHTH 040315Z AUTO 26004KT 10SM FEW065 SCT075 BKN090 13/12 A3010 RMK A01,M
10U,2023-09-04 03:15,-116.1876,41.9532,1637.00,51.80,48.20,87.47,230.00,7.00,0.00,30.04,M,10.00,M,FEW,SCT,OVC,M,700.00,2200.00,4800.00,M,-RA,M,M,M,M,M,M,51.80,K10U 040315Z AUTO 23007KT 10SM -RA FEW007 SCT022 OVC048 11/09 A3004 RMK AO2,M
INS,2023-09-04 03:18,-115.6733,36.5872,955.00,78.80,41.00,25.95,220.00,16.00,0.00,29.82,1005.40,10.00,M,CLR,M,M,M,M,M,M,M,M,M,M,M,M,M,M,78.80,KINS 040318Z AUTO 22016KT 10SM CLR 26/05 A2982 RMK AO2 WSHFT 05 SLP054 $,M
05U,2023-09-04 03:30,-116.0051,39.6042,1811.23,48.20,46.40,93.45,M,M,0.00,30.12,M,9.00,M,BKN,OVC,M,M,1500.00,3600.00,M,M,M,M,M,M,M,M,M,M,K05U 040330Z AUTO 9SM BKN015 OVC036 09/08 A3012 RMK A01,M
BVU,2023-09-04 03:35,-114.8611,35.9475,671.00,82.40,51.80,34.69,240.00,13.00,0.00,29.80,M,10.00,M,FEW,M,M,M,8500.00,M,M,M,M,M,M,M,M,M,M,81.20,KBVU 040335Z AUTO 24013KT 10SM FEW085 28/11 A2980 RMK AO2,M
CXP,2023-09-04 03:35,-119.7326,39.1923,1431.00,55.40,42.80,62.46,360.00,6.00,0.00,30.11,M,10.00,M,CLR,M,M,M,M,M,M,M,M,M,M,M,M,M,M,55.40,KCXP 040335Z AUTO 36006KT 10SM CLR 13/06 A3011 RMK AO2,M
RTS,2023-09-04 03:35,-119.8764,39.6682,1539.00,53.60,46.40,76.50,290.00,7.00,0.00,30.12,M,10.00,M,BKN,M,M,M,7000.00,M,M,M,M,M,M,M,M,M,M,53.60,KRTS 040335Z AUTO 29007KT 10SM BKN070 12/08 A3012 RMK AO2,M
MEV,2023-09-04 03:35,-119.7500,38.9963,1441.42,55.40,41.00,58.27,250.00,6.00,0.00,30.09,M,10.00,M,FEW,SCT,SCT,M,4100.00,5000.00,6000.00,M,M,M,M,M,M,M,M,55.40,KMEV 040335Z AUTO 25006KT 10SM FEW041 SCT050 SCT060 13/05 A3009 RMK AO2,M
BAM,2023-09-04 03:35,-116.8743,40.5990,1382.36,53.60,51.80,93.60,220.00,4.00,0.00,30.05,M,10.00,M,OVC,M,M,M,11000.00,M,M,M,M,M,M,M,M,M,M,53.60,KBAM 040335Z AUTO 22004KT 10SM OVC110 12/11 A3005 RMK AO1,M
HTH,2023-09-04 03:35,-118.6315,38.5448,1282.89,55.40,51.80,87.65,270.00,5.00,0.00,30.10,M,10.00,M,SCT,M,M,M,7500.00,M,M,M,M,M,M,M,M,M,M,55.40,KHTH 040335Z AUTO 27005KT 10SM SCT075 13/11 A3010 RMK A01,M
10U,2023-09-04 03:35,-116.1876,41.9532,1637.00,50.00,48.20,93.50,200.00,5.00,0.00,30.05,M,8.00,M,FEW,SCT,OVC,M,700.00,1300.00,4500.00,M,-RA,M,M,M,M,M,M,50.00,K10U 040335Z AUTO 20005KT 8SM -RA FEW007 SCT013 OVC045 10/09 A3005 RMK AO2,M
05U,2023-09-04 03:50,-116.0051,39.6042,1811.23,48.20,46.40,93.45,M,M,0.00,30.12,M,9.00,M,FEW,BKN,OVC,M,1400.00,3800.00,5000.00,M,M,M,M,M,M,M,M,M,K05U 040350Z AUTO 9SM FEW014 BKN038 OVC050 09/08 A3012 RMK A01,M
P68,2023-09-04 03:53,-116.0056,39.6014,1993.00,48.00,46.00,92.74,160.00,6.00,0.00,30.09,1013.00,M,M,M,M,M,M,M,M,M,M,M,M,M,M,M,M,M,44.80,KP68 040353Z AUTO 16006KT 09/08 A3009 RMK AO1 SLP130 T00890078 $,M
DRA,2023-09-04 03:53,-116.0278,36.6206,1009.00,74.00,37.00,26.03,240.00,13.00,0.00,29.87,1007.20,10.00,M,CLR,M,M,M,M,M,M,M,M,M,M,M,28.00,230.00,2023-09-04 02:55,74.00,KDRA 040353Z AUTO 24013KT 10SM CLR 23/03 A2987 RMK AO2 PK WND 23028/0255 SLP072 T02330028,M
ELY,2023-09-04 03:53,-114.8453,39.2950,1909.00,48.00,46.00,92.74,300.00,4.00,0.09,30.11,1012.20,5.00,M,BKN,OVC,M,M,4700.00,6000.00,M,M,-RA BR,M,M,M,M,M,M,46.10,KELY 040353Z AUTO 30004KT 5SM -RA BR BKN047 OVC060 09/08 A3011 RMK AO2 SLP122 P0009 T00890078,M
VGT,2023-09-04 03:53,-115.1933,36.2111,667.00,84.00,44.00,24.58,240.00,13.00,0.00,29.79,1008.20,10.00,21.00,CLR,M,M,M,M,M,M,M,M,M,M,M,26.00,250.00,2023-09-04 03:39,81.54,KVGT 040353Z 24013G21KT 10SM CLR 29/07 A2979 RMK AO2 PK WND 25026/0339 SLP082 T02890067 $,M
LOL,2023-09-04 03:53,-118.5701,40.0684,1192.43,54.00,52.00,92.92,200.00,6.00,0.00,30.05,1015.80,10.00,M,FEW,FEW,M,M,7000.00,9000.00,M,M,M,M,M,M,M,M,M,54.00,KLOL 040353Z AUTO 20006KT 10SM FEW070 FEW090 12/11 A3005 RMK AO2 SLP158 T01220111,M
BVU,2023-09-04 03:55,-114.8611,35.9475,671.00,80.60,53.60,39.30,220.00,7.00,0.00,29.81,M,10.00,M,FEW,M,M,M,8000.00,M,M,M,M,M,M,M,M,M,M,80.29,KBVU 040355Z AUTO 22007KT 10SM FEW080 27/12 A2981 RMK AO2,M
CXP,2023-09-04 03:55,-119.7326,39.1923,1431.00,55.40,42.80,62.46,330.00,4.00,0.00,30.11,M,10.00,M,CLR,M,M,M,M,M,M,M,M,M,M,M,M,M,M,55.40,KCXP 040355Z AUTO 33004KT 10SM CLR 13/06 A3011 RMK AO2,M
INS,2023-09-04 03:55,-115.6733,36.5872,955.00,77.40,32.00,19.04,210.00,16.00,0.00,29.83,1005.70,10.00,22.00,CLR,M,M,M,M,M,M,M,M,M,M,M,28.00,220.00,2023-09-04 03:02,77.40,KINS 040355Z AUTO 21016G22KT 10SM CLR 25/M00 A2983 RMK AO2 PK WND 22028/02 SLP057 T02521001 $,M
RNO,2023-09-04 03:55,-119.7711,39.4839,1341.00,59.00,43.00,55.28,280.00,4.00,0.00,30.09,1015.70,10.00,M,BKN,M,M,M,9000.00,M,M,M,M,M,M,M,M,M,M,59.00,KRNO 040355Z 28004KT 10SM BKN090 15/06 A3009 RMK AO2 SLP157 T01500061,M
RTS,2023-09-04 03:55,-119.8764,39.6682,1539.00,53.60,44.60,71.45,320.00,10.00,0.00,30.12,M,10.00,M,FEW,M,M,M,7000.00,M,M,M,M,M,M,M,M,M,M,53.60,KRTS 040355Z AUTO 32010KT 10SM FEW070 12/07 A3012 RMK AO2,M
MEV,2023-09-04 03:55,-119.7500,38.9963,1441.42,55.40,41.00,58.27,300.00,4.00,0.00,30.10,M,10.00,M,FEW,FEW,FEW,M,4100.00,5000.00,6000.00,M,M,M,M,M,M,M,M,55.40,KMEV 040355Z AUTO 30004KT 10SM FEW041 FEW050 FEW060 13/05 A3010 RMK AO2,M
BAM,2023-09-04 03:55,-116.8743,40.5990,1382.36,53.60,51.80,93.60,220.00,4.00,0.00,30.07,M,10.00,M,OVC,M,M,M,12000.00,M,M,M,M,M,M,M,M,M,M,53.60,KBAM 040355Z AUTO 22004KT 10SM OVC120 12/11 A3007 RMK AO1,M
HTH,2023-09-04 03:55,-118.6315,38.5448,1282.89,55.40,51.80,87.65,230.00,4.00,0.01,30.10,M,10.00,M,BKN,M,M,M,8000.00,M,M,M,M,M,M,M,M,M,M,55.40,KHTH 040355Z AUTO 23004KT 10SM BKN080 13/11 A3010 RMK A01 P0001,M
LSV,2023-09-04 03:55,-115.0343,36.2362,570.00,82.20,55.40,39.84,200.00,11.00,0.00,29.75,1005.10,10.00,M,SCT,M,M,M,8500.00,M,M,M,M,M,M,M,M,M,M,81.60,KLSV 040355Z AUTO 20011KT 10SM SCT085 28/13 A2975 RMK AO2 SLP051 T02790130 $,M
EKO,2023-09-04 03:56,-115.7860,40.8242,1367.00,52.00,49.00,89.46,230.00,4.00,0.00,30.05,1013.80,10.00,M,SCT,M,M,M,7000.00,M,M,M,M,M,M,M,M,M,M,52.00,KEKO 040356Z AUTO 23004KT 10SM SCT070 11/09 A3005 RMK AO2 SLP138 T01110094,M
WMC,2023-09-04 03:56,-117.8072,40.9019,1315.00,55.00,51.00,86.34,210.00,5.00,0.00,30.04,1014.80,10.00,M,CLR,M,M,M,M,M,M,M,M,M,M,M,M,M,M,55.00,KWMC 040356Z AUTO 21005KT 10SM CLR 13/11 A3004 RMK AO2 SLP148 T01280106,M
NFL,2023-09-04 03:56,-118.7010,39.4166,1199.00,56.00,52.00,86.40,220.00,4.00,0.00,30.06,1014.80,10.00,M,CLR,M,M,M,M,M,M,M,M,M,M,M,M,M,M,56.00,KNFL 040356Z AUTO 22004KT 10SM CLR 13/11 A3006 RMK AO2 SLP148 T01330111,M
HND,2023-09-04 03:56,-115.1344,35.9729,742.79,80.00,52.00,37.79,190.00,9.00,0.00,29.85,1010.00,10.00,M,CLR,M,M,M,M,M,M,M,M,M,M,M,M,M,M,79.75,KHND 040356Z AUTO 19009KT 10SM CLR 27/11 A2985 RMK AO2 SLP100 T02670111,M
LAS,2023-09-04 03:56,-115.1634,36.0719,663.00,81.00,48.00,31.52,240.00,13.00,0.00,29.80,1007.00,10.00,24.00,FEW,FEW,M,M,8000.00,9500.00,M,M,M,M,M,M,26.00,240.00,2023-09-04 03:46,79.92,KLAS 040356Z 24013G24KT 10SM FEW080 FEW095 27/09 A2980 RMK AO2 PK WND 24026/0346 SLP070 T02720089 $,M
10U,2023-09-04 04:00,-116.1876,41.9532,1637.00,50.00,48.20,93.50,200.00,4.00,0.00,30.05,M,10.00,M,FEW,SCT,OVC,M,1400.00,2700.00,4600.00,M,-DZ,M,M,M,M,M,M,50.00,K10U 040400Z AUTO 20004KT 10SM -DZ FEW014 SCT027 OVC046 10/09 A3005 RMK AO2,M
05U,2023-09-04 04:10,-116.0051,39.6042,1811.23,48.20,46.40,93.45,M,M,0.00,30.11,M,10.00,M,SCT,BKN,OVC,M,3700.00,4800.00,9000.00,M,M,M,M,M,M,M,M,M,K05U 040410Z AUTO 10SM SCT037 BKN048 OVC090 09/08 A3011 RMK A01,M
BVU,2023-09-04 04:15,-114.8611,35.9475,671.00,80.60,51.80,36.79,210.00,11.00,0.00,29.81,M,10.00,M,BKN,M,M,M,9000.00,M,M,M,M,M,M,M,M,M,M,80.08,KBVU 040415Z AUTO 21011KT 10SM BKN090 27/11 A2981 RMK AO2,M
CXP,2023-09-04 04:15,-119.7326,39.1923,1431.00,53.60,42.80,66.70,0.00,0.00,0.00,30.12,M,10.00,M,FEW,M,M,M,7500.00,M,M,M,M,M,M,M,M,M,M,53.60,KCXP 040415Z AUTO 00000KT 10SM FEW075 12/06 A3012 RMK AO2,M
RTS,2023-09-04 04:15,-119.8764,39.6682,1539.00,53.60,44.60,71.45,300.00,9.00,0.00,30.13,M,10.00,M,CLR,M,M,M,M,M,M,M,M,M,M,M,M,M,M,53.60,KRTS 040415Z AUTO 30009KT 10SM CLR 12/07 A3013 RMK AO2,M
MEV,2023-09-04 04:15,-119.7500,38.9963,1441.42,50.00,39.20,66.27,240.00,6.00,0.00,30.11,M,10.00,M,FEW,M,M,M,5000.00,M,M,M,M,M,M,M,M,M,M,50.00,KMEV 040415Z AUTO 24006KT 10SM FEW050 10/04 A3011 RMK AO2,M
HTH,2023-09-04 04:15,-118.6315,38.5448,1282.89,55.40,53.60,93.65,190.00,6.00,0.00,30.10,M,10.00,M,BKN,M,M,M,8000.00,M,M,M,M,M,M,M,M,M,M,55.40,KHTH 040415Z AUTO 19006KT 10SM BKN080 13/12 A3010 RMK A01,M
10U,2023-09-04 04:15,-116.1876,41.9532,1637.00,51.80,50.00,93.55,180.00,4.00,0.00,30.05,M,10.00,M,FEW,FEW,OVC,M,1400.00,2500.00,4700.00,M,M,M,M,M,M,M,M,51.80,K10U 040415Z AUTO 18004KT 10SM FEW014 FEW025 OVC047 11/10 A3005 RMK AO2,M
BAM,2023-09-04 04:15,-116.8743,40.5990,1382.36,53.60,51.80,93.60,0.00,0.00,0.00,30.07,M,10.00,M,OVC,M,M,M,12000.00,M,M,M,M,M,M,M,M,M,M,53.60,KBAM 040415Z AUTO 00000KT 10SM OVC120 12/11 A3007 RMK AO1,M
05U,2023-09-04 04:30,-116.0051,39.6042,1811.23,48.20,46.40,93.45,M,M,0.00,30.10,M,10.00,M,FEW,SCT,BKN,M,1600.00,7500.00,12000.00,M,M,M,M,M,M,M,M,M,K05U 040430Z AUTO 10SM FEW016 SCT075 BKN120 09/08 A3010 RMK A01,M
BVU,2023-09-04 04:35,-114.8611,35.9475,671.00,78.80,53.60,41.69,200.00,10.00,0.00,29.81,M,10.00,M,OVC,M,M,M,9000.00,M,M,M,M,M,M,M,M,M,M,78.80,KBVU 040435Z AUTO 20010KT 10SM OVC090 26/12 A2981 RMK AO2,M
CXP,2023-09-04 04:35,-119.7326,39.1923,1431.00,51.80,44.60,76.34,0.00,0.00,0.00,30.12,M,10.00,M,FEW,M,M,M,7500.00,M,M,M,M,M,M,M,M,M,M,51.80,KCXP 040435Z AUTO 00000KT 10SM FEW075 11/07 A3012 RMK AO2,M
RTS,2023-09-04 04:35,-119.8764,39.6682,1539.00,51.80,44.60,76.34,310.00,6.00,0.00,30.13,M,10.00,11.00,CLR,M,M,M,M,M,M,M,M,M,M,M,M,M,M,51.80,KRTS 040435Z AUTO 31006G11KT 10SM CLR 11/07 A3013 RMK AO2,M
MEV,2023-09-04 04:35,-119.7500,38.9963,1441.42,50.00,39.20,66.27,120.00,4.00,0.00,30.11,M,10.00,M,FEW,FEW,M,M,4100.00,5000.00,M,M,M,M,M,M,M,M,M,50.00,KMEV 040435Z AUTO 12004KT 10SM FEW041 FEW050 10/04 A3011 RMK AO2,M
BAM,2023-09-04 04:35,-116.8743,40.5990,1382.36,53.60,51.80,93.60,170.00,3.00,0.00,30.07,M,10.00,M,OVC,M,M,M,10000.00,M,M,M,M,M,M,M,M,M,M,53.60,KBAM 040435Z AUTO 17003KT 10SM OVC100 12/11 A3007 RMK AO1,M
HTH,2023-09-04 04:35,-118.6315,38.5448,1282.89,55.40,51.80,87.65,190.00,5.00,0.00,30.10,M,10.00,M,BKN,M,M,M,8000.00,M,M,M,M,M,M,M,M,M,M,55.40,KHTH 040435Z AUTO 19005KT 10SM BKN080 13/11 A3010 RMK A01,M
10U,2023-09-04 04:35,-116.1876,41.9532,1637.00,50.00,50.00,100.00,210.00,6.00,0.00,30.05,M,10.00,M,SCT,SCT,OVC,M,2400.00,4300.00,4800.00,M,M,M,M,M,M,M,M,50.00,K10U 040435Z AUTO 21006KT 10SM SCT024 SCT043 OVC048 10/10 A3005 RMK AO2,M
INS,2023-09-04 04:38,-115.6733,36.5872,955.00,77.00,32.00,19.30,260.00,15.00,0.00,29.85,1006.30,10.00,26.00,CLR,M,M,M,M,M,M,M,M,M,M,M,M,M,M,77.00,KINS 040438Z AUTO 26015G26KT 10SM CLR 25/00 A2985 RMK AO2 WSHFT 23 SLP063 $,M
ELY,2023-09-04 04:45,-114.8453,39.2950,1909.00,47.00,46.00,96.29,280.00,3.00,0.08,30.11,M,2.50,M,FEW,BKN,OVC,M,2300.00,4000.00,6000.00,M,RA BR,M,M,M,M,M,M,45.84,KELY 040445Z AUTO 28003KT 2 1/2SM RA BR FEW023 BKN040 OVC060 08/08 A3011 RMK AO2 P0008 T00830078,M
05U,2023-09-04 04:50,-116.0051,39.6042,1811.23,48.20,46.40,93.45,M,M,0.00,30.10,M,10.00,M,SCT,BKN,BKN,M,1500.00,5500.00,12000.00,M,M,M,M,M,M,M,M,M,K05U 040450Z AUTO 10SM SCT015 BKN055 BKN120 09/08 A3010 RMK A01,M
P68,2023-09-04 04:53,-116.0056,39.6014,1993.00,49.00,46.00,89.33,0.00,0.00,0.01,30.07,1012.80,M,M,M,M,M,M,M,M,M,M,M,M,M,M,M,M,M,49.00,KP68 040453Z AUTO 00000KT 09/08 A3007 RMK AO1 SLP128 P0001 T00940078 $,M
DRA,2023-09-04 04:53,-116.0278,36.6206,1009.00,72.00,39.00,30.12,220.00,8.00,0.00,29.90,1008.10,10.00,19.00,CLR,M,M,M,M,M,M,M,M,M,M,M,M,M,M,72.00,KDRA 040453Z AUTO 22008G19KT 10SM CLR 22/04 A2990 RMK AO2 SLP081 T02220039,M
ELY,2023-09-04 04:53,-114.8453,39.2950,1909.00,47.00,45.00,92.71,230.00,4.00,0.10,30.11,1012.20,5.00,M,FEW,FEW,OVC,M,2300.00,3000.00,4400.00,M,-RA BR,M,M,M,M,M,M,44.94,KELY 040453Z AUTO 23004KT 5SM -RA BR FEW023 FEW030 OVC044 08/07 A3011 RMK AO2 SLP122 P0010 T00830072,M
VGT,2023-09-04 04:53,-115.1933,36.2111,667.00,82.00,41.00,23.37,250.00,12.00,0.00,29.81,1008.90,10.00,19.00,CLR,M,M,M,M,M,M,M,M,M,M,M,M,M,M,80.04,KVGT 040453Z AUTO 25012G19KT 10SM CLR 28/05 A2981 RMK AO2 SLP089 T02780050 $,M
LOL,2023-09-04 04:53,-118.5701,40.0684,1192.43,53.00,51.00,92.89,0.00,0.00,0.00,30.06,1015.90,10.00,M,FEW,SCT,M,M,7500.00,9000.00,M,M,M,M,M,M,M,M,M,53.00,KLOL 040453Z AUTO 00000KT 10SM FEW075 SCT090 12/11 A3006 RMK AO2 SLP159 T01170106,M
BVU,2023-09-04 04:55,-114.8611,35.9475,671.00,78.80,51.80,39.02,200.00,12.00,0.00,29.81,M,10.00,M,SCT,M,M,M,8500.00,M,M,M,M,M,M,M,M,M,M,78.80,KBVU 040455Z AUTO 20012KT 10SM SCT085 26/11 A2981 RMK AO2,M
CXP,2023-09-04 04:55,-119.7326,39.1923,1431.00,53.60,44.60,71.45,0.00,0.00,0.00,30.12,M,10.00,M,SCT,SCT,M,M,7000.00,8000.00,M,M,M,M,M,M,M,M,M,53.60,KCXP 040455Z AUTO 00000KT 10SM SCT070 SCT080 12/07 A3012 RMK AO2,M
INS,2023-09-04 04:55,-115.6733,36.5872,955.00,73.80,36.70,25.90,230.00,12.00,0.00,29.87,1007.10,10.00,M,CLR,M,M,M,M,M,M,M,M,M,M,M,28.00,220.00,2023-09-04 04:15,73.80,KINS 040455Z AUTO 23012KT 10SM CLR 23/03 A2987 RMK AO2 PK WND 22028/15 PRESRR SLP071 T02320026 $,M
RNO,2023-09-04 04:55,-119.7711,39.4839,1341.00,58.00,45.00,61.85,360.00,6.00,0.00,30.10,1016.20,10.00,M,BKN,M,M,M,7500.00,M,M,M,M,M,M,M,M,M,M,58.00,KRNO 040455Z 36006KT 10SM BKN075 14/07 A3010 RMK AO2 SLP162 T01440072,M
RTS,2023-09-04 04:55,-119.8764,39.6682,1539.00,51.80,44.60,76.34,0.00,0.00,0.00,30.13,M,10.00,M,SCT,BKN,M,M,4900.00,7000.00,M,M,M,M,M,M,M,M,M,51.80,KRTS 040455Z AUTO 00000KT 10SM SCT049 BKN070 11/07 A3013 RMK AO2,M
MEV,2023-09-04 04:55,-119.7500,38.9963,1441.42,48.20,39.20,70.88,0.00,0.00,0.00,30.10,M,10.00,M,FEW,FEW,M,M,3900.00,5000.00,M,M,M,M,M,M,M,M,M,48.20,KMEV 040455Z AUTO 00000KT 10SM FEW039 FEW050 09/04 A3010 RMK AO2,M
BAM,2023-09-04 04:55,-116.8743,40.5990,1382.36,53.60,51.80,93.60,230.00,6.00,0.00,30.07,M,10.00,M,SCT,SCT,OVC,M,7500.00,8000.00,9000.00,M,M,M,M,M,M,M,M,53.60,KBAM 040455Z AUTO 23006KT 10SM SCT075 SCT080 OVC090 12/11 A3007 RMK AO1,M
HTH,2023-09-04 04:55,-118.6315,38.5448,1282.89,55.40,51.80,87.65,180.00,4.00,0.00,30.10,M,10.00,M,FEW,M,M,M,8000.00,M,M,M,M,M,M,M,M,M,M,55.40,KHTH 040455Z AUTO 18004KT 10SM FEW080 13/11 A3010 RMK A01,M
LSV,2023-09-04 04:55,-115.0343,36.2362,570.00,77.40,51.80,40.87,170.00,6.00,0.00,29.77,1005.90,10.00,M,CLR,M,M,M,M,M,M,M,M,M,M,M,M,M,M,77.40,KLSV 040455Z AUTO 17006KT 10SM CLR 25/11 A2977 RMK AO2 SLP059 T02520110 $,M
10U,2023-09-04 04:55,-116.1876,41.9532,1637.00,50.00,48.20,93.50,200.00,5.00,0.00,30.05,M,10.00,M,SCT,BKN,OVC,M,2400.00,2800.00,5500.00,M,M,M,M,M,M,M,M,50.00,K10U 040455Z AUTO 20005KT 10SM SCT024 BKN028 OVC055 10/09 A3005 RMK AO2,M
INS,2023-09-04 04:56,-115.6733,36.5872,955.00,73.40,37.40,26.98,220.00,12.00,0.00,29.87,1007.10,10.00,M,CLR,M,M,M,M,M,M,M,M,M,M,M,M,M,M,73.40,KINS 040456Z AUTO 22012KT 10SM CLR 23/03 A2987 RMK AO2 WSHFT 51 SLP071 $,M
EKO,2023-09-04 04:56,-115.7860,40.8242,1367.00,51.00,48.00,89.42,220.00,8.00,0.00,30.04,1013.80,10.00,M,FEW,SCT,OVC,M,2500.00,4900.00,6000.00,M,M,M,M,M,M,M,M,51.00,KEKO 040456Z AUTO 22008KT 10SM FEW025 SCT049 OVC060 11/09 A3004 RMK AO2 SLP138 T01060089,M
WMC,2023-09-04 04:56,-117.8072,40.9019,1315.00,55.00,50.00,83.20,190.00,6.00,T,30.05,1014.90,10.00,M,SCT,OVC,M,M,7500.00,9000.00,M,M,-RA,M,M,M,M,M,M,55.00,KWMC 040456Z AUTO 19006KT 10SM -RA SCT075 OVC090 13/10 A3005 RMK AO2 RAB51 SLP149 P0000 T01280100,M
NFL,2023-09-04 04:56,-118.7010,39.4166,1199.00,53.00,50.00,89.51,150.00,4.00,0.00,30.06,1014.90,10.00,M,CLR,M,M,M,M,M,M,M,M,M,M,M,M,M,M,53.00,KNFL 040456Z AUTO 15004KT 10SM CLR 12/10 A3006 RMK AO2 SLP149 T01170100,M
HND,2023-09-04 04:56,-115.1344,35.9729,742.79,77.00,51.00,40.21,180.00,12.00,0.00,29.86,1010.40,10.00,19.00,CLR,M,M,M,M,M,M,M,M,M,M,M,M,M,M,77.00,KHND 040456Z AUTO 18012G19KT 10SM CLR 25/11 A2986 RMK AO2 SLP104 T02500106,M
LAS,2023-09-04 04:56,-115.1634,36.0719,663.00,80.00,50.00,35.10,220.00,10.00,0.00,29.82,1007.40,10.00,M,FEW,M,M,M,9500.00,M,M,M,M,M,M,M,M,M,M,79.55,KLAS 040456Z 22010KT 10SM FEW095 27/10 A2982 RMK AO2 SLP074 T02670100 $,M
05U,2023-09-04 05:10,-116.0051,39.6042,1811.23,48.20,46.40,93.45,M,M,0.00,30.09,M,10.00,M,FEW,BKN,M,M,1500.00,6000.00,M,M,M,M,M,M,M,M,M,M,K05U 040510Z AUTO 10SM FEW015 BKN060 09/08 A3009 RMK A01,M
BVU,2023-09-04 05:15,-114.8611,35.9475,671.00,78.80,51.80,39.02,200.00,13.00,0.00,29.82,M,10.00,M,CLR,M,M,M,M,M,M,M,M,M,M,M,M,M,M,78.80,KBVU 040515Z AUTO 20013KT 10SM CLR 26/11 A2982 RMK AO2,M
CXP,2023-09-04 05:15,-119.7326,39.1923,1431.00,53.60,46.40,76.50,0.00,0.00,0.00,30.12,M,10.00,M,OVC,M,M,M,6500.00,M,M,M,M,M,M,M,M,M,M,53.60,KCXP 040515Z AUTO 00000KT 10SM OVC065 12/08 A3012 RMK AO2,M
RTS,2023-09-04 05:15,-119.8764,39.6682,1539.00,51.80,46.40,81.74,280.00,5.00,0.00,30.13,M,10.00,M,OVC,M,M,M,5000.00,M,M,M,M,M,M,M,M,M,M,51.80,KRTS 040515Z AUTO 28005KT 10SM OVC050 11/08 A3013 RMK AO2,M
MEV,2023-09-04 05:15,-119.7500,38.9963,1441.42,44.60,39.20,81.20,150.00,5.00,0.00,30.10,M,10.00,M,FEW,M,M,M,4900.00,M,M,M,M,M,M,M,M,M,M,41.36,KMEV 040515Z AUTO 15005KT 10SM FEW049 07/04 A3010 RMK AO2,M
BAM,2023-09-04 05:15,-116.8743,40.5990,1382.36,53.60,51.80,93.60,240.00,8.00,0.00,30.07,M,10.00,M,SCT,SCT,OVC,M,6500.00,7000.00,8000.00,M,M,M,M,M,M,M,M,53.60,KBAM 040515Z AUTO 24008KT 10SM SCT065 SCT070 OVC080 12/11 A3007 RMK AO1,M
HTH,2023-09-04 05:15,-118.6315,38.5448,1282.89,55.40,51.80,87.65,130.00,4.00,0.00,30.09,M,10.00,M,CLR,M,M,M,M,M,M,M,M,M,M,M,M,M,M,55.40,KHTH 040515Z AUTO 13004KT 10SM CLR 13/11 A3009 RMK A01,M
10U,2023-09-04 05:20,-116.1876,41.9532,1637.00,51.80,50.00,93.55,210.00,7.00,0.00,30.05,M,10.00,M,BKN,OVC,M,M,2400.00,2800.00,M,M,M,M,M,M,M,M,M,51.80,K10U 040520Z AUTO 21007KT 10SM BKN024 OVC028 11/10 A3005 RMK AO2,M
05U,2023-09-04 05:30,-116.0051,39.6042,1811.23,48.20,46.40,93.45,M,M,0.00,30.10,M,10.00,M,FEW,M,M,M,6000.00,M,M,M,M,M,M,M,M,M,M,M,K05U 040530Z AUTO 10SM FEW060 09/08 A3010 RMK A01,M
BVU,2023-09-04 05:35,-114.8611,35.9475,671.00,77.00,51.80,41.42,200.00,15.00,0.00,29.81,M,10.00,M,CLR,M,M,M,M,M,M,M,M,M,M,M,M,M,M,77.00,KBVU 040535Z AUTO 20015KT 10SM CLR 25/11 A2981 RMK AO2,M
CXP,2023-09-04 05:35,-119.7326,39.1923,1431.00,53.60,44.60,71.45,0.00,0.00,0.00,30.12,M,10.00,M,BKN,BKN,M,M,6500.00,8000.00,M,M,M,M,M,M,M,M,M,53.60,KCXP 040535Z AUTO 00000KT 10SM BKN065 BKN080 12/07 A3012 RMK AO2,M
RTS,2023-09-04 05:35,-119.8764,39.6682,1539.00,51.80,46.40,81.74,M,4.00,0.00,30.13,M,10.00,M,BKN,M,M,M,5000.00,M,M,M,M,M,M,M,M,M,M,51.80,KRTS 040535Z AUTO VRB04KT 10SM BKN050 11/08 A3013 RMK AO2,M
MEV,2023-09-04 05:35,-119.7500,38.9963,1441.42,44.60,41.00,87.09,170.00,5.00,0.00,30.11,M,10.00,M,FEW,FEW,FEW,M,3100.00,3900.00,4700.00,M,M,M,M,M,M,M,M,41.36,KMEV 040535Z AUTO 17005KT 10SM FEW031 FEW039 FEW047 07/05 A3011 RMK AO2,M
BAM,2023-09-04 05:35,-116.8743,40.5990,1382.36,53.60,51.80,93.60,250.00,6.00,0.00,30.06,M,10.00,M,SCT,SCT,OVC,M,6000.00,8000.00,9000.00,M,M,M,M,M,M,M,M,53.60,KBAM 040535Z AUTO 25006KT 10SM SCT060 SCT080 OVC090 12/11 A3006 RMK AO1,M
HTH,2023-09-04 05:35,-118.6315,38.5448,1282.89,53.60,51.80,93.60,140.00,6.00,0.00,30.09,M,10.00,M,CLR,M,M,M,M,M,M,M,M,M,M,M,M,M,M,53.60,KHTH 040535Z AUTO 14006KT 10SM CLR 12/11 A3009 RMK A01,M
10U,2023-09-04 05:40,-116.1876,41.9532,1637.00,51.80,48.20,87.47,220.00,6.00,0.00,30.05,M,10.00,M,FEW,BKN,OVC,M,1500.00,2500.00,3400.00,M,-RA,M,M,M,M,M,M,51.80,K10U 040540Z AUTO 22006KT 10SM -RA FEW015 BKN025 OVC034 11/09 A3005 RMK AO2 LTG DSNT NE,M
INS,2023-09-04 05:48,-115.6733,36.5872,955.00,73.40,39.20,28.96,240.00,15.00,0.00,29.89,1007.70,10.00,M,CLR,M,M,M,M,M,M,M,M,M,M,M,M,M,M,73.40,KINS 040548Z AUTO 24015KT 10SM CLR 23/04 A2989 RMK AO2 WSHFT 34 SLP077 $,M
HTH,2023-09-04 05:50,-118.6315,38.5448,1282.89,53.60,51.80,93.60,150.00,6.00,0.00,30.09,M,10.00,M,CLR,M,M,M,M,M,M,M,M,M,M,M,M,M,M,53.60,KHTH 040550Z AUTO 15006KT 10SM CLR 12/11 A3009 RMK A01,M
05U,2023-09-04 05:50,-116.0051,39.6042,1811.23,48.20,46.40,93.45,M,M,0.00,30.10,M,10.00,M,FEW,M,M,M,2000.00,M,M,M,M,M,M,M,M,M,M,M,K05U 040550Z AUTO 10SM FEW020 09/08 A3010 RMK A01,M
P68,2023-09-04 05:53,-116.0056,39.6014,1993.00,47.00,46.00,96.29,360.00,5.00,0.00,30.07,1013.60,M,M,M,M,M,M,M,M,M,M,M,M,M,M,M,M,M,44.21,KP68 040553Z AUTO 36005KT 08/08 A3007 RMK AO1 SLP136 60006 T00830078 10100 20083 57005 $,M
DRA,2023-09-04 05:53,-116.0278,36.6206,1009.00,69.00,46.00,43.67,30.00,14.00,0.00,29.91,1008.60,10.00,20.00,CLR,M,M,M,M,M,M,M,M,M,M,M,M,M,M,69.00,KDRA 040553Z AUTO 03014G20KT 10SM CLR 21/08 A2991 RMK AO2 SLP086 T02060078 10278 20206 51024,M
ELY,2023-09-04 05:53,-114.8453,39.2950,1909.00,47.00,45.00,92.71,180.00,4.00,0.08,30.08,1010.60,4.00,M,OVC,M,M,M,5000.00,M,M,M,RA BR,M,M,M,M,M,M,44.94,KELY 040553Z AUTO 18004KT 4SM RA BR OVC050 08/07 A3008 RMK AO2 SLP106 P0008 60029 T00830072 10189 20083 58004,M
VGT,2023-09-04 05:53,-115.1933,36.2111,667.00,79.00,48.00,33.66,210.00,15.00,0.00,29.81,1008.80,10.00,24.00,CLR,M,M,M,M,M,M,M,M,M,M,M,M,M,M,79.00,KVGT 040553Z AUTO 21015G24KT 10SM CLR 26/09 A2981 RMK AO2 SLP088 60000 T02610089 10333 20261 50014 $,M
LOL,2023-09-04 05:53,-118.5701,40.0684,1192.43,53.00,52.00,96.39,160.00,3.00,0.00,30.05,1015.80,10.00,M,OVC,M,M,M,8000.00,M,M,M,M,M,M,M,M,M,M,53.00,KLOL 040553Z AUTO 16003KT 10SM OVC080 12/11 A3005 RMK AO2 SLP158 T01170111 10144 20111 50003,M
INS,2023-09-04 05:54,-115.6733,36.5872,955.00,73.40,39.20,28.96,280.00,16.00,0.00,29.90,1008.00,10.00,M,CLR,M,M,M,M,M,M,M,M,M,M,M,M,M,M,73.40,KINS 040554Z AUTO 28016KT 10SM CLR 23/04 A2990 RMK AO2 WSHFT 48 SLP080 $,M
BVU,2023-09-04 05:55,-114.8611,35.9475,671.00,77.00,50.00,38.74,210.00,16.00,0.00,29.81,M,10.00,M,CLR,M,M,M,M,M,M,M,M,M,M,M,M,M,M,77.00,KBVU 040555Z AUTO 21016KT 10SM CLR 25/10 A2981 RMK AO2,M
CXP,2023-09-04 05:55,-119.7326,39.1923,1431.00,51.80,44.60,76.34,0.00,0.00,0.00,30.12,M,10.00,M,FEW,M,M,M,7000.00,M,M,M,M,M,M,M,M,M,M,51.80,KCXP 040555Z AUTO 00000KT 10SM FEW070 11/07 A3012 RMK AO2,M
INS,2023-09-04 05:55,-115.6733,36.5872,955.00,73.00,39.70,29.93,290.00,17.00,0.00,29.90,1008.00,10.00,M,CLR,M,M,M,M,M,M,M,M,M,M,M,M,M,M,73.00,KINS 040555Z AUTO 29017KT 10SM CLR 23/04 A2990 RMK AO2 SLP080 T02280043 10294 20228 52025 $,M
RNO,2023-09-04 05:55,-119.7711,39.4839,1341.00,56.00,45.00,66.48,0.00,0.00,0.00,30.10,1016.40,10.00,M,BKN,M,M,M,6000.00,M,M,M,M,M,M,M,M,M,M,56.00,KRNO 040555Z 00000KT 10SM BKN060 13/07 A3010 RMK AO2 SLP164 T01330072 10183 20133 51008,M
RTS,2023-09-04 05:55,-119.8764,39.6682,1539.00,50.00,44.60,81.61,300.00,8.00,0.00,30.12,M,10.00,M,FEW,M,M,M,5500.00,M,M,M,M,M,M,M,M,M,M,50.00,KRTS 040555Z AUTO 30008KT 10SM FEW055 10/07 A3012 RMK AO2,M
MEV,2023-09-04 05:55,-119.7500,38.9963,1441.42,46.40,41.00,81.34,130.00,3.00,0.00,30.11,M,10.00,M,CLR,M,M,M,M,M,M,M,M,M,M,M,M,M,M,45.15,KMEV 040555Z AUTO 13003KT 10SM CLR 08/05 A3011 RMK AO2,M
BAM,2023-09-04 05:55,-116.8743,40.5990,1382.36,53.60,51.80,93.60,230.00,5.00,0.00,30.05,M,10.00,M,SCT,SCT,OVC,M,5000.00,7000.00,9000.00,M,M,M,M,M,M,M,M,53.60,KBAM 040555Z AUTO 23005KT 10SM SCT050 SCT070 OVC090 12/11 A3005 RMK AO1,M
LSV,2023-09-04 05:55,-115.0343,36.2362,570.00,79.00,49.00,34.94,220.00,17.00,0.00,29.77,1005.80,10.00,M,CLR,M,M,M,M,M,M,M,M,M,M,M,M,M,M,79.00,KLSV 040555Z AUTO 22017KT 10SM CLR 26/09 A2977 RMK AO2 SLP058 60009 T02610094 10346 20250 51015 $,M
EKO,2023-09-04 05:56,-115.7860,40.8242,1367.00,51.00,48.00,89.42,220.00,6.00,0.00,30.03,1013.50,10.00,M,OVC,M,M,M,5500.00,M,M,M,M,M,M,M,M,M,M,51.00,KEKO 040556Z AUTO 22006KT 10SM OVC055 11/09 A3003 RMK AO2 SLP135 60004 T01060089 10117 20106 50004,M
WMC,2023-09-04 05:56,-117.8072,40.9019,1315.00,54.00,50.00,86.29,180.00,6.00,T,30.04,1014.50,10.00,M,FEW,BKN,OVC,M,3100.00,8500.00,11000.00,M,M,M,M,M,M,M,M,54.00,KWMC 040556Z AUTO 18006KT 10SM FEW031 BKN085 OVC110 12/10 A3004 RMK AO2 RAE07 SLP145 P0000 60000 T01220100 10144 20122 50002,M
NFL,2023-09-04 05:56,-118.7010,39.4166,1199.00,53.00,50.00,89.51,150.00,5.00,0.00,30.06,1014.70,10.00,M,CLR,M,M,M,M,M,M,M,M,M,M,M,M,M,M,53.00,KNFL 040556Z AUTO 15005KT 10SM CLR 12/10 A3006 RMK AO2 SLP147 T01170100 10144 20117 50002,M
HND,2023-09-04 05:56,-115.1344,35.9729,742.79,75.00,51.00,42.98,230.00,14.00,0.00,29.88,1011.00,10.00,M,CLR,M,M,M,M,M,M,M,M,M,M,M,M,M,M,75.00,KHND 040556Z AUTO 23014KT 10SM CLR 24/11 A2988 RMK AO2 SLP110 60000 T02390106 10317 20239 51017,M
LAS,2023-09-04 05:56,-115.1634,36.0719,663.00,77.00,49.00,37.33,230.00,16.00,0.00,29.84,1008.10,10.00,23.00,FEW,M,M,M,9500.00,M,M,M,M,M,M,M,M,M,M,77.00,KLAS 040556Z 23016G23KT 10SM FEW095 25/09 A2984 RMK AO2 SLP081 BLDU DSNT W-N 60000 T02500094 10328 20250 51017 $,M
10U,2023-09-04 06:00,-116.1876,41.9532,1637.00,50.00,48.20,93.50,220.00,7.00,0.00,30.05,M,10.00,M,FEW,BKN,OVC,M,1300.00,2400.00,3400.00,M,-DZ,M,M,M,M,M,M,50.00,K10U 040600Z AUTO 22007KT 10SM -DZ FEW013 BKN024 OVC034 10/09 A3005 RMK AO2,M
05U,2023-09-04 06:10,-116.0051,39.6042,1811.23,48.20,46.40,93.45,M,M,0.00,30.10,M,10.00,M,SCT,SCT,BKN,M,3800.00,4400.00,5000.00,M,M,M,M,M,M,M,M,M,K05U 040610Z AUTO 10SM SCT038 SCT044 BKN050 09/08 A3010 RMK A01,M
BVU,2023-09-04 06:15,-114.8611,35.9475,671.00,77.00,50.00,38.74,230.00,13.00,0.00,29.82,M,10.00,M,CLR,M,M,M,M,M,M,M,M,M,M,M,M,M,M,77.00,KBVU 040615Z AUTO 23013KT 10SM CLR 25/10 A2982 RMK AO2,M
CXP,2023-09-04 06:15,-119.7326,39.1923,1431.00,50.00,44.60,81.61,0.00,0.00,0.00,30.13,M,10.00,M,CLR,M,M,M,M,M,M,M,M,M,M,M,M,M,M,50.00,KCXP 040615Z AUTO 00000KT 10SM CLR 10/07 A3013 RMK AO2,M
RTS,2023-09-04 06:15,-119.8764,39.6682,1539.00,50.00,44.60,81.61,290.00,10.00,0.00,30.13,M,10.00,M,SCT,M,M,M,7000.00,M,M,M,M,M,M,M,M,M,M,50.00,KRTS 040615Z AUTO 29010KT 10SM SCT070 10/07 A3013 RMK AO2,M
MEV,2023-09-04 06:15,-119.7500,38.9963,1441.42,44.60,41.00,87.09,130.00,6.00,0.00,30.11,M,10.00,M,FEW,SCT,M,M,4400.00,5500.00,M,M,M,M,M,M,M,M,M,40.71,KMEV 040615Z AUTO 13006KT 10SM FEW044 SCT055 07/05 A3011 RMK AO2,M
BAM,2023-09-04 06:15,-116.8743,40.5990,1382.36,53.60,51.80,93.60,240.00,7.00,0.00,30.05,M,10.00,M,SCT,SCT,OVC,M,7000.00,8000.00,10000.00,M,M,M,M,M,M,M,M,53.60,KBAM 040615Z AUTO 24007KT 10SM SCT070 SCT080 OVC100 12/11 A3005 RMK AO1,M
HTH,2023-09-04 06:15,-118.6315,38.5448,1282.89,53.60,51.80,93.60,200.00,4.00,0.00,30.09,M,10.00,M,CLR,M,M,M,M,M,M,M,M,M,M,M,M,M,M,53.60,KHTH 040615Z AUTO 20004KT 10SM CLR 12/11 A3009 RMK A01,M
10U,2023-09-04 06:15,-116.1876,41.9532,1637.00,50.00,48.20,93.50,220.00,7.00,0.00,30.05,M,8.00,M,FEW,SCT,OVC,M,400.00,900.00,2400.00,M,-DZ,M,M,M,M,M,M,50.00,K10U 040615Z AUTO 22007KT 8SM -DZ FEW004 SCT009 OVC024 10/09 A3005 RMK AO2,M
05U,2023-09-04 06:30,-116.0051,39.6042,1811.23,48.20,46.40,93.45,M,M,0.00,30.11,M,10.00,M,BKN,OVC,M,M,3400.00,4900.00,M,M,M,M,M,M,M,M,M,M,K05U 040630Z AUTO 10SM BKN034 OVC049 09/08 A3011 RMK A01,M
BVU,2023-09-04 06:35,-114.8611,35.9475,671.00,75.20,50.00,41.14,250.00,12.00,0.00,29.83,M,10.00,M,CLR,M,M,M,M,M,M,M,M,M,M,M,M,M,M,75.20,KBVU 040635Z AUTO 25012KT 10SM CLR 24/10 A2983 RMK AO2,M
CXP,2023-09-04 06:35,-119.7326,39.1923,1431.00,50.00,44.60,81.61,0.00,0.00,0.00,30.13,M,10.00,M,CLR,M,M,M,M,M,M,M,M,M,M,M,M,M,M,50.00,KCXP 040635Z AUTO 00000KT 10SM CLR 10/07 A3013 RMK AO2,M
RTS,2023-09-04 06:35,-119.8764,39.6682,1539.00,50.00,44.60,81.61,290.00,6.00,0.00,30.13,M,10.00,11.00,FEW,M,M,M,7000.00,M,M,M,M,M,M,M,M,M,M,50.00,KRTS 040635Z AUTO 29006G11KT 10SM FEW070 10/07 A3013 RMK AO2,M
MEV,2023-09-04 06:35,-119.7500,38.9963,1441.42,44.60,41.00,87.09,100.00,7.00,0.00,30.11,M,10.00,M,FEW,FEW,M,M,4400.00,5000.00,M,M,M,M,M,M,M,M,M,40.14,KMEV 040635Z AUTO 10007KT 10SM FEW044 FEW050 07/05 A3011 RMK AO2,M
HTH,2023-09-04 06:35,-118.6315,38.5448,1282.89,53.60,53.60,100.00,0.00,0.00,0.00,30.09,M,10.00,M,CLR,M,M,M,M,M,M,M,M,M,M,M,M,M,M,53.60,KHTH 040635Z AUTO 00000KT 10SM CLR 12/12 A3009 RMK A01,M
BAM,2023-09-04 06:35,-116.8743,40.5990,1382.36,53.60,51.80,93.60,240.00,9.00,0.00,30.05,M,10.00,M,SCT,OVC,M,M,7000.00,11000.00,M,M,M,M,M,M,M,M,M,53.60,KBAM 040635Z AUTO 24009KT 10SM SCT070 OVC110 12/11 A3005 RMK AO1,M
10U,2023-09-04 06:35,-116.1876,41.9532,1637.00,50.00,48.20,93.50,210.00,7.00,0.00,30.04,M,7.00,M,FEW,SCT,OVC,M,600.00,1200.00,2300.00,M,-RA,M,M,M,M,M,M,50.00,K10U 040635Z AUTO 21007KT 7SM -RA FEW006 SCT012 OVC023 10/09 A3004 RMK AO2,M
05U,2023-09-04 06:50,-116.0051,39.6042,1811.23,48.20,46.40,93.45,M,M,0.00,30.11,M,10.00,M,OVC,M,M,M,3300.00,M,M,M,M,M,M,M,M,M,M,M,K05U 040650Z AUTO 10SM OVC033 09/08 A3011 RMK A01,M
EKO,2023-09-04 06:52,-115.7860,40.8242,1367.00,51.80,48.20,87.47,230.00,6.00,0.00,30.04,M,10.00,M,BKN,OVC,M,M,2900.00,5000.00,M,M,M,M,M,M,M,M,M,51.80,KEKO 040652Z AUTO 23006KT 10SM BKN029 OVC050 11/09 A3004 RMK AO2,M
P68,2023-09-04 06:53,-116.0056,39.6014,1993.00,49.00,46.00,89.33,240.00,5.00,0.00,30.09,1013.40,M,M,M,M,M,M,M,M,M,M,M,M,M,M,M,M,M,46.58,KP68 040653Z AUTO 24005KT 09/08 A3009 RMK AO1 SLP134 T00940078 $,M
DRA,2023-09-04 06:53,-116.0278,36.6206,1009.00,67.00,45.00,45.04,40.00,12.00,0.00,29.93,1009.00,10.00,M,CLR,M,M,M,M,M,M,M,M,M,M,M,26.00,30.00,2023-09-04 05:57,67.00,KDRA 040653Z AUTO 04012KT 10SM CLR 19/07 A2993 RMK AO2 PK WND 03026/0557 SLP090 T01940072,M
ELY,2023-09-04 06:53,-114.8453,39.2950,1909.00,47.00,44.00,89.24,230.00,5.00,0.02,30.06,1011.40,10.00,M,FEW,OVC,M,M,6000.00,9000.00,M,M,M,M,M,M,M,M,M,44.21,KELY 040653Z AUTO 23005KT 10SM FEW060 OVC090 08/07 A3006 RMK AO2 RAE46 SLP114 P0002 T00830067,M
VGT,2023-09-04 06:53,-115.1933,36.2111,667.00,77.00,49.00,37.33,170.00,15.00,0.00,29.83,1009.30,10.00,M,CLR,M,M,M,M,M,M,M,M,M,M,M,M,M,M,77.00,KVGT 040653Z AUTO 17015KT 10SM CLR 25/09 A2983 RMK AO2 SLP093 T02500094 $,M
LOL,2023-09-04 06:53,-118.5701,40.0684,1192.43,53.00,52.00,96.39,0.00,0.00,0.00,30.05,1016.20,10.00,M,OVC,M,M,M,11000.00,M,M,M,M,M,M,M,M,M,M,53.00,KLOL 040653Z AUTO 00000KT 10SM OVC110 12/11 A3005 RMK AO2 SLP162 T01170111,M
BVU,2023-09-04 06:55,-114.8611,35.9475,671.00,75.20,51.80,43.97,270.00,11.00,0.00,29.83,M,10.00,M,CLR,M,M,M,M,M,M,M,M,M,M,M,M,M,M,75.20,KBVU 040655Z AUTO 27011KT 10SM CLR 24/11 A2983 RMK AO2,M
CXP,2023-09-04 06:55,-119.7326,39.1923,1431.00,48.20,44.60,87.28,0.00,0.00,0.00,30.13,M,10.00,M,CLR,M,M,M,M,M,M,M,M,M,M,M,M,M,M,48.20,KCXP 040655Z AUTO 00000KT 10SM CLR 09/07 A3013 RMK AO2,M
INS,2023-09-04 06:55,-115.6733,36.5872,955.00,68.00,43.00,40.31,300.00,15.00,0.00,29.91,1008.50,10.00,M,CLR,M,M,M,M,M,M,M,M,M,M,M,M,M,M,68.00,KINS 040655Z AUTO 30015KT 10SM CLR 20/06 A2991 RMK AO2 SLP085 T02010061 $,M
RNO,2023-09-04 06:55,-119.7711,39.4839,1341.00,55.00,45.00,68.93,200.00,6.00,0.00,30.10,1016.20,10.00,M,BKN,M,M,M,7000.00,M,M,M,M,M,M,M,M,M,M,55.00,KRNO 040655Z 20006KT 10SM BKN070 13/07 A3010 RMK AO2 SLP162 T01280072,M
RTS,2023-09-04 06:55,-119.8764,39.6682,1539.00,48.20,44.60,87.28,M,3.00,0.00,30.13,M,10.00,M,CLR,M,M,M,M,M,M,M,M,M,M,M,M,M,M,47.21,KRTS 040655Z AUTO VRB03KT 10SM CLR 09/07 A3013 RMK AO2,M
MEV,2023-09-04 06:55,-119.7500,38.9963,1441.42,46.40,41.00,81.34,100.00,8.00,0.00,30.11,M,10.00,M,CLR,M,M,M,M,M,M,M,M,M,M,M,M,M,M,41.85,KMEV 040655Z AUTO 10008KT 10SM CLR 08/05 A3011 RMK AO2,M
BAM,2023-09-04 06:55,-116.8743,40.5990,1382.36,53.60,51.80,93.60,240.00,8.00,0.00,30.05,M,10.00,M,BKN,BKN,OVC,M,7000.00,9000.00,11000.00,M,M,M,M,M,M,M,M,53.60,KBAM 040655Z AUTO 24008KT 10SM BKN070 BKN090 OVC110 12/11 A3005 RMK AO1,M
HTH,2023-09-04 06:55,-118.6315,38.5448,1282.89,51.80,51.80,100.00,0.00,0.00,0.00,30.09,M,10.00,M,CLR,M,M,M,M,M,M,M,M,M,M,M,M,M,M,51.80,KHTH 040655Z AUTO 00000KT 10SM CLR 11/11 A3009 RMK A01,M
LSV,2023-09-04 06:55,-115.0343,36.2362,570.00,77.40,51.80,40.87,210.00,15.00,0.00,29.79,1006.60,10.00,24.00,CLR,M,M,M,M,M,M,M,M,M,M,M,M,M,M,77.40,KLSV 040655Z AUTO 21015G24KT 10SM CLR 25/11 A2979 RMK AO2 SLP066 T02520110 $,M
EKO,2023-09-04 06:56,-115.7860,40.8242,1367.00,51.00,48.00,89.42,220.00,6.00,0.00,30.04,1013.70,10.00,M,OVC,M,M,M,2900.00,M,M,M,M,M,M,M,M,M,M,51.00,KEKO 040656Z AUTO 22006KT 10SM OVC029 11/09 A3004 RMK AO2 SLP137 T01060089,M
WMC,2023-09-04 06:56,-117.8072,40.9019,1315.00,54.00,50.00,86.29,200.00,6.00,0.00,30.03,1014.50,10.00,M,FEW,SCT,OVC,M,7000.00,9000.00,11000.00,M,M,M,M,M,M,M,M,54.00,KWMC 040656Z AUTO 20006KT 10SM FEW070 SCT090 OVC110 12/10 A3003 RMK AO2 SLP145 T01220100,M
NFL,2023-09-04 06:56,-118.7010,39.4166,1199.00,51.00,49.00,92.83,140.00,7.00,0.00,30.06,1014.80,10.00,M,CLR,M,M,M,M,M,M,M,M,M,M,M,M,M,M,51.00,KNFL 040656Z AUTO 14007KT 10SM CLR 11/09 A3006 RMK AO2 SLP148 T01060094,M
HND,2023-09-04 06:56,-115.1344,35.9729,742.79,74.00,50.00,42.82,240.00,9.00,0.00,29.89,1011.10,10.00,M,CLR,M,M,M,M,M,M,M,M,M,M,M,M,M,M,74.00,KHND 040656Z AUTO 24009KT 10SM CLR 23/10 A2989 RMK AO2 SLP111 T02330100 403330189,M
LAS,2023-09-04 06:56,-115.1634,36.0719,663.00,75.00,49.00,39.90,230.00,15.00,0.00,29.84,1008.10,10.00,24.00,CLR,M,M,M,M,M,M,M,VCBLDU,M,M,M,M,M,M,75.00,KLAS 040656Z 23015G24KT 10SM VCBLDU CLR 24/09 A2984 RMK AO2 SLP081 VIS LWR W-N T02390094 $,M
10U,2023-09-04 07:00,-116.1876,41.9532,1637.00,50.00,48.20,93.50,210.00,6.00,0.00,30.04,M,5.00,M,FEW,BKN,OVC,M,500.00,2500.00,4600.00,M,-RA,M,M,M,M,M,M,50.00,K10U 040700Z AUTO 21006KT 5SM -RA FEW005 BKN025 OVC046 10/09 A3004 RMK AO2,M
05U,2023-09-04 07:10,-116.0051,39.6042,1811.23,48.20,46.40,93.45,M,M,0.00,30.11,M,10.00,M,BKN,OVC,M,M,3600.00,5000.00,M,M,M,M,M,M,M,M,M,M,K05U 040710Z AUTO 10SM BKN036 OVC050 09/08 A3011 RMK A01,M
BVU,2023-09-04 07:15,-114.8611,35.9475,671.00,75.20,50.00,41.14,260.00,12.00,0.00,29.84,M,10.00,M,CLR,M,M,M,M,M,M,M,M,M,M,M,M,M,M,75.20,KBVU 040715Z AUTO 26012KT 10SM CLR 24/10 A2984 RMK AO2,M
CXP,2023-09-04 07:15,-119.7326,39.1923,1431.00,48.20,44.60,87.28,0.00,0.00,0.00,30.13,M,10.00,M,CLR,M,M,M,M,M,M,M,M,M,M,M,M,M,M,48.20,KCXP 040715Z AUTO 00000KT 10SM CLR 09/07 A3013 RMK AO2,M
RTS,2023-09-04 07:15,-119.8764,39.6682,1539.00,50.00,44.60,81.61,270.00,3.00,0.00,30.13,M,10.00,M,CLR,M,M,M,M,M,M,M,M,M,M,M,M,M,M,50.00,KRTS 040715Z AUTO 27003KT 10SM CLR 10/07 A3013 RMK AO2,M
MEV,2023-09-04 07:15,-119.7500,38.9963,1441.42,44.60,41.00,87.09,110.00,4.00,0.00,30.12,M,10.00,M,CLR,M,M,M,M,M,M,M,M,M,M,M,M,M,M,42.13,KMEV 040715Z AUTO 11004KT 10SM CLR 07/05 A3012 RMK AO2,M
BAM,2023-09-04 07:15,-116.8743,40.5990,1382.36,53.60,51.80,93.60,240.00,8.00,0.00,30.05,M,10.00,M,SCT,OVC,M,M,7000.00,7500.00,M,M,M,M,M,M,M,M,M,53.60,KBAM 040715Z AUTO 24008KT 10SM SCT070 OVC075 12/11 A3005 RMK AO1,M
HTH,2023-09-04 07:15,-118.6315,38.5448,1282.89,51.80,51.80,100.00,120.00,5.00,0.00,30.09,M,10.00,M,CLR,M,M,M,M,M,M,M,M,M,M,M,M,M,M,51.80,KHTH 040715Z AUTO 12005KT 10SM CLR 11/11 A3009 RMK A01,M
10U,2023-09-04 07:15,-116.1876,41.9532,1637.00,50.00,50.00,100.00,220.00,8.00,0.00,30.04,M,7.00,M,FEW,SCT,BKN,M,600.00,2600.00,3200.00,M,-RA,M,M,M,M,M,M,50.00,K10U 040715Z AUTO 22008KT 7SM -RA FEW006 SCT026 BKN032 10/10 A3004 RMK AO2,M
05U,2023-09-04 07:30,-116.0051,39.6042,1811.23,48.20,46.40,93.45,M,M,0.00,30.10,M,10.00,M,SCT,OVC,M,M,3700.00,5500.00,M,M,M,M,M,M,M,M,M,M,K05U 040730Z AUTO 10SM SCT037 OVC055 09/08 A3010 RMK A01,M
BVU,2023-09-04 07:35,-114.8611,35.9475,671.00,73.40,51.80,46.71,250.00,9.00,0.00,29.84,M,10.00,15.00,CLR,M,M,M,M,M,M,M,M,M,M,M,M,M,M,73.40,KBVU 040735Z AUTO 25009G15KT 10SM CLR 23/11 A2984 RMK AO2,M
CXP,2023-09-04 07:35,-119.7326,39.1923,1431.00,48.20,44.60,87.28,0.00,0.00,0.00,30.13,M,10.00,M,CLR,M,M,M,M,M,M,M,M,M,M,M,M,M,M,48.20,KCXP 040735Z AUTO 00000KT 10SM CLR 09/07 A3013 RMK AO2,M
RTS,2023-09-04 07:35,-119.8764,39.6682,1539.00,48.20,42.80,81.47,290.00,4.00,0.00,30.13,M,10.00,M,CLR,M,M,M,M,M,M,M,M,M,M,M,M,M,M,46.34,KRTS 040735Z AUTO 29004KT 10SM CLR 09/06 A3013 RMK AO2,M
MEV,2023-09-04 07:35,-119.7500,38.9963,1441.42,44.60,41.00,87.09,130.00,3.00,0.00,30.12,M,10.00,M,FEW,FEW,M,M,4000.00,4600.00,M,M,M,M,M,M,M,M,M,43.09,KMEV 040735Z AUTO 13003KT 10SM FEW040 FEW046 07/05 A3012 RMK AO2,M
HTH,2023-09-04 07:35,-118.6315,38.5448,1282.89,51.80,51.80,100.00,130.00,4.00,0.00,30.09,M,10.00,M,CLR,M,M,M,M,M,M,M,M,M,M,M,M,M,M,51.80,KHTH 040735Z AUTO 13004KT 10SM CLR 11/11 A3009 RMK A01,M
10U,2023-09-04 07:35,-116.1876,41.9532,1637.00,50.00,48.20,93.50,220.00,7.00,0.00,30.04,M,7.00,M,SCT,BKN,OVC,M,600.00,3300.00,4200.00,M,-RA,M,M,M,M,M,M,50.00,K10U 040735Z AUTO 22007KT 7SM -RA SCT006 BKN033 OVC042 10/09 A3004 RMK AO2,M
BAM,2023-09-04 07:35,-116.8743,40.5990,1382.36,53.60,51.80,93.60,230.00,7.00,0.00,30.05,M,10.00,M,SCT,BKN,OVC,M,7000.00,7500.00,9500.00,M,M,M,M,M,M,M,M,53.60,KBAM 040735Z AUTO 23007KT 10SM SCT070 BKN075 OVC095 12/11 A3005 RMK AO1,M
05U,2023-09-04 07:50,-116.0051,39.6042,1811.23,48.20,46.40,93.45,M,M,0.00,30.11,M,10.00,M,SCT,OVC,M,M,3800.00,5500.00,M,M,M,M,M,M,M,M,M,M,K05U 040750Z AUTO 10SM SCT038 OVC055 09/08 A3011 RMK A01,M
P68,2023-09-04 07:53,-116.0056,39.6014,1993.00,49.00,46.00,89.33,210.00,5.00,0.00,30.08,1012.80,M,M,M,M,M,M,M,M,M,M,M,M,M,M,M,M,M,46.58,KP68 040753Z AUTO 21005KT 09/08 A3008 RMK AO1 SLP128 T00940078 402280083 $,M
DRA,2023-09-04 07:53,-116.0278,36.6206,1009.00,67.00,46.00,46.78,40.00,11.00,0.00,29.93,1009.10,10.00,M,CLR,M,M,M,M,M,M,M,M,M,M,M,M,M,M,67.00,KDRA 040753Z AUTO 04011KT 10SM CLR 19/08 A2993 RMK AO2 SLP091 T01940078 403000194,M
ELY,2023-09-04 07:53,-114.8453,39.2950,1909.00,45.00,43.00,92.65,40.00,3.00,0.00,30.06,1012.20,10.00,M,BKN,M,M,M,5000.00,M,M,M,M,M,M,M,M,M,M,43.55,KELY 040753Z AUTO 04003KT 10SM BKN050 07/06 A3006 RMK AO2 SLP122 T00720061 402220072,M
VGT,2023-09-04 07:53,-115.1933,36.2111,667.00,77.00,45.00,32.10,290.00,11.00,0.00,29.84,1009.60,10.00,M,CLR,M,M,M,M,M,M,M,M,M,M,M,M,M,M,77.00,KVGT 040753Z AUTO 29011KT 10SM CLR 25/07 A2984 RMK AO2 SLP096 T02500072 403500217 $,M
LOL,2023-09-04 07:53,-118.5701,40.0684,1192.43,50.00,50.00,100.00,0.00,0.00,0.00,30.05,1016.00,10.00,M,CLR,M,M,M,M,M,M,M,M,M,M,M,M,M,M,50.00,KLOL 040753Z AUTO 00000KT 10SM CLR 10/10 A3005 RMK AO2 SLP160 T01000100 401830100,M
BVU,2023-09-04 07:55,-114.8611,35.9475,671.00,71.60,51.80,49.64,250.00,13.00,0.00,29.84,M,10.00,M,CLR,M,M,M,M,M,M,M,M,M,M,M,M,M,M,71.60,KBVU 040755Z AUTO 25013KT 10SM CLR 22/11 A2984 RMK AO2,M
CXP,2023-09-04 07:55,-119.7326,39.1923,1431.00,46.40,44.60,93.40,0.00,0.00,0.00,30.13,M,10.00,M,CLR,M,M,M,M,M,M,M,M,M,M,M,M,M,M,46.40,KCXP 040755Z AUTO 00000KT 10SM CLR 08/07 A3013 RMK AO2,M
INS,2023-09-04 07:55,-115.6733,36.5872,955.00,66.00,44.00,44.88,270.00,5.00,0.00,29.93,1009.20,10.00,M,CLR,M,M,M,M,M,M,M,M,M,M,M,M,M,M,66.00,KINS 040755Z AUTO 27005KT 10SM CLR 19/07 A2993 RMK AO2 SLP092 T01890067 403090181 $,M
RNO,2023-09-04 07:55,-119.7711,39.4839,1341.00,53.00,45.00,74.16,200.00,3.00,0.00,30.10,1016.30,10.00,M,FEW,M,M,M,7000.00,M,M,M,M,M,M,M,M,M,M,53.00,KRNO 040755Z 20003KT 10SM FEW070 12/07 A3010 RMK AO2 SLP163 T01170072 401830111,M
RTS,2023-09-04 07:55,-119.8764,39.6682,1539.00,46.40,42.80,87.19,340.00,3.00,0.00,30.13,M,10.00,M,CLR,M,M,M,M,M,M,M,M,M,M,M,M,M,M,45.15,KRTS 040755Z AUTO 34003KT 10SM CLR 08/06 A3013 RMK AO2,M
MEV,2023-09-04 07:55,-119.7500,38.9963,1441.42,42.80,39.20,86.99,130.00,5.00,0.00,30.12,M,10.00,M,FEW,M,M,M,4400.00,M,M,M,M,M,M,M,M,M,M,39.22,KMEV 040755Z AUTO 13005KT 10SM FEW044 06/04 A3012 RMK AO2,M
BAM,2023-09-04 07:55,-116.8743,40.5990,1382.36,53.60,51.80,93.60,230.00,6.00,0.00,30.05,M,10.00,M,SCT,SCT,OVC,M,6500.00,8000.00,10000.00,M,M,M,M,M,M,M,M,53.60,KBAM 040755Z AUTO 23006KT 10SM SCT065 SCT080 OVC100 12/11 A3005 RMK AO1,M
HTH,2023-09-04 07:55,-118.6315,38.5448,1282.89,51.80,51.80,100.00,220.00,4.00,0.00,30.09,M,10.00,M,CLR,M,M,M,M,M,M,M,M,M,M,M,M,M,M,51.80,KHTH 040755Z AUTO 22004KT 10SM CLR 11/11 A3009 RMK A01,M
LSV,2023-09-04 07:55,-115.0343,36.2362,570.00,72.50,53.20,50.69,190.00,14.00,0.00,29.78,1006.30,10.00,M,CLR,M,M,M,M,M,M,M,M,M,M,M,M,M,M,72.50,KLSV 040755Z AUTO 19014KT 10SM CLR 23/12 A2978 RMK AO2 SLP063 T02250118 403550204 $,M
10U,2023-09-04 07:55,-116.1876,41.9532,1637.00,50.00,50.00,100.00,220.00,4.00,0.00,30.04,M,7.00,M,BKN,BKN,OVC,M,600.00,1400.00,3200.00,M,-RA,M,M,M,M,M,M,50.00,K10U 040755Z AUTO 22004KT 7SM -RA BKN006 BKN014 OVC032 10/10 A3004 RMK AO2,M
EKO,2023-09-04 07:56,-115.7860,40.8242,1367.00,52.00,48.00,86.17,200.00,6.00,0.00,30.03,1013.40,10.00,M,OVC,M,M,M,1900.00,M,M,M,M,M,M,M,M,M,M,52.00,KEKO 040756Z AUTO 20006KT 10SM OVC019 11/09 A3003 RMK AO2 SLP134 T01110089 402110106,M
WMC,2023-09-04 07:56,-117.8072,40.9019,1315.00,53.00,49.00,86.23,180.00,6.00,0.00,30.03,1014.90,10.00,M,CLR,M,M,M,M,M,M,M,M,M,M,M,M,M,M,53.00,KWMC 040756Z AUTO 18006KT 10SM CLR 12/09 A3003 RMK AO2 SLP149 T01170094 401610106,M
NFL,2023-09-04 07:56,-118.7010,39.4166,1199.00,53.00,49.00,86.23,190.00,6.00,0.00,30.06,1014.60,10.00,M,CLR,M,M,M,M,M,M,M,M,M,M,M,M,M,M,53.00,KNFL 040756Z AUTO 19006KT 10SM CLR 12/09 A3006 RMK AO2 SLP146 T01170094 401890106,M
HND,2023-09-04 07:56,-115.1344,35.9729,742.79,72.00,50.00,45.81,220.00,15.00,0.00,29.90,1011.40,10.00,M,CLR,M,M,M,M,M,M,M,M,M,M,M,M,M,M,72.00,KHND 040756Z AUTO 22015KT 10SM CLR 22/10 A2990 RMK AO2 SLP114 T02220100,M
LAS,2023-09-04 07:56,-115.1634,36.0719,663.00,73.00,49.00,42.67,220.00,12.00,0.00,29.85,1008.40,10.00,19.00,CLR,M,M,M,M,M,M,M,M,M,M,M,M,M,M,73.00,KLAS 040756Z 22012G19KT 10SM CLR 23/09 A2985 RMK AO2 SLP084 BLDU DSNT W-NW T02280094 403330206 $,M
05U,2023-09-04 08:10,-116.0051,39.6042,1811.23,48.20,46.40,93.45,M,M,0.00,30.10,M,10.00,M,BKN,BKN,OVC,M,3900.00,4900.00,6000.00,M,M,M,M,M,M,M,M,M,K05U 040810Z AUTO 10SM BKN039 BKN049 OVC060 09/08 A3010 RMK A01,M
BVU,2023-09-04 08:15,-114.8611,35.9475,671.00,73.40,48.20,40.85,270.00,14.00,0.00,29.84,M,10.00,21.00,CLR,M,M,M,M,M,M,M,M,M,M,M,M,M,M,73.40,KBVU 040815Z AUTO 27014G21KT 10SM CLR 23/09 A2984 RMK AO2,M
CXP,2023-09-04 08:15,-119.7326,39.1923,1431.00,46.40,44.60,93.40,0.00,0.00,0.00,30.13,M,10.00,M,CLR,M,M,M,M,M,M,M,M,M,M,M,M,M,M,46.40,KCXP 040815Z AUTO 00000KT 10SM CLR 08/07 A3013 RMK AO2,M
RTS,2023-09-04 08:15,-119.8764,39.6682,1539.00,48.20,42.80,81.47,320.00,4.00,0.00,30.13,M,10.00,M,CLR,M,M,M,M,M,M,M,M,M,M,M,M,M,M,46.34,KRTS 040815Z AUTO 32004KT 10SM CLR 09/06 A3013 RMK AO2,M
MEV,2023-09-04 08:15,-119.7500,38.9963,1441.42,41.00,37.40,86.89,100.00,4.00,0.00,30.12,M,10.00,M,FEW,SCT,M,M,4400.00,5000.00,M,M,M,M,M,M,M,M,M,37.93,KMEV 040815Z AUTO 10004KT 10SM FEW044 SCT050 05/03 A3012 RMK AO2,M
BAM,2023-09-04 08:15,-116.8743,40.5990,1382.36,53.60,51.80,93.60,240.00,7.00,0.00,30.04,M,10.00,M,SCT,BKN,M,M,10000.00,12000.00,M,M,M,M,M,M,M,M,M,53.60,KBAM 040815Z AUTO 24007KT 10SM SCT100 BKN120 12/11 A3004 RMK AO1,M
HTH,2023-09-04 08:15,-118.6315,38.5448,1282.89,51.80,51.80,100.00,250.00,4.00,0.00,30.09,M,10.00,M,CLR,M,M,M,M,M,M,M,M,M,M,M,M,M,M,51.80,KHTH 040815Z AUTO 25004KT 10SM CLR 11/11 A3009 RMK A01,M
10U,2023-09-04 08:15,-116.1876,41.9532,1637.00,50.00,48.20,93.50,220.00,8.00,0.00,30.04,M,7.00,M,FEW,SCT,OVC,M,500.00,900.00,2200.00,M,-RA,M,M,M,M,M,M,50.00,K10U 040815Z AUTO 22008KT 7SM -RA FEW005 SCT009 OVC022 10/09 A3004 RMK AO2,M
05U,2023-09-04 08:30,-116.0051,39.6042,1811.23,48.20,44.60,87.28,M,M,0.00,30.10,M,10.00,M,SCT,BKN,OVC,M,3900.00,6000.00,7000.00,M,M,M,M,M,M,M,M,M,K05U 040830Z AUTO 10SM SCT039 BKN060 OVC070 09/07 A3010 RMK A01,M
BVU,2023-09-04 08:35,-114.8611,35.9475,671.00,73.40,48.20,40.85,240.00,16.00,0.00,29.84,M,10.00,M,CLR,M,M,M,M,M,M,M,M,M,M,M,M,M,M,73.40,KBVU 040835Z AUTO 24016KT 10SM CLR 23/09 A2984 RMK AO2,M
CXP,2023-09-04 08:35,-119.7326,39.1923,1431.00,46.40,44.60,93.40,0.00,0.00,0.00,30.13,M,10.00,M,CLR,M,M,M,M,M,M,M,M,M,M,M,M,M,M,46.40,KCXP 040835Z AUTO 00000KT 10SM CLR 08/07 A3013 RMK AO2,M
RTS,2023-09-04 08:35,-119.8764,39.6682,1539.00,46.40,42.80,87.19,290.00,4.00,0.00,30.13,M,10.00,M,CLR,M,M,M,M,M,M,M,M,M,M,M,M,M,M,44.24,KRTS 040835Z AUTO 29004KT 10SM CLR 08/06 A3013 RMK AO2,M
MEV,2023-09-04 08:35,-119.7500,38.9963,1441.42,41.00,37.40,86.89,0.00,0.00,0.00,30.12,M,10.00,M,FEW,SCT,M,M,4300.00,5000.00,M,M,M,M,M,M,M,M,M,41.00,KMEV 040835Z AUTO 00000KT 10SM FEW043 SCT050 05/03 A3012 RMK AO2,M
BAM,2023-09-04 08:35,-116.8743,40.5990,1382.36,53.60,51.80,93.60,240.00,7.00,0.00,30.04,M,10.00,M,SCT,SCT,M,M,8000.00,12000.00,M,M,M,M,M,M,M,M,M,53.60,KBAM 040835Z AUTO 24007KT 10SM SCT080 SCT120 12/11 A3004 RMK AO1,M
HTH,2023-09-04 08:35,-118.6315,38.5448,1282.89,50.00,50.00,100.00,0.00,0.00,0.00,30.09,M,10.00,M,CLR,M,M,M,M,M,M,M,M,M,M,M,M,M,M,50.00,KHTH 040835Z AUTO 00000KT 10SM CLR 10/10 A3009 RMK A01,M
10U,2023-09-04 08:35,-116.1876,41.9532,1637.00,50.00,50.00,100.00,220.00,8.00,0.00,30.04,M,8.00,M,SCT,BKN,OVC,M,900.00,1200.00,2100.00,M,-RA,M,M,M,M,M,M,50.00,K10U 040835Z AUTO 22008KT 8SM -RA SCT009 BKN012 OVC021 10/10 A3004 RMK AO2,M
05U,2023-09-04 08:50,-116.0051,39.6042,1811.23,48.20,44.60,87.28,M,M,0.00,30.09,M,10.00,M,BKN,OVC,M,M,6000.00,7000.00,M,M,M,M,M,M,M,M,M,M,K05U 040850Z AUTO 10SM BKN060 OVC070 09/07 A3009 RMK A01,M
P68,2023-09-04 08:53,-116.0056,39.6014,1993.00,48.00,45.00,89.29,250.00,5.00,0.00,30.07,1012.00,M,M,M,M,M,M,M,M,M,M,M,M,M,M,M,M,M,45.40,KP68 040853Z AUTO 25005KT 09/07 A3007 RMK AO1 SLP120 T00890072 58001 $,M
DRA,2023-09-04 08:53,-116.0278,36.6206,1009.00,66.00,46.00,48.43,50.00,7.00,0.00,29.93,1009.00,10.00,M,CLR,M,M,M,M,M,M,M,M,M,M,M,M,M,M,66.00,KDRA 040853Z AUTO 05007KT 10SM CLR 19/08 A2993 RMK AO2 SLP090 T01890078 50004,M
ELY,2023-09-04 08:53,-114.8453,39.2950,1909.00,46.00,43.00,89.20,0.00,0.00,0.00,30.06,1011.40,10.00,M,BKN,BKN,M,M,4300.00,6000.00,M,M,M,M,M,M,M,M,M,46.00,KELY 040853Z AUTO 00000KT 10SM BKN043 BKN060 08/06 A3006 RMK AO2 SLP114 60002 T00780061 55004,M
VGT,2023-09-04 08:53,-115.1933,36.2111,667.00,76.00,46.00,34.47,280.00,18.00,0.00,29.83,1009.40,10.00,23.00,CLR,M,M,M,M,M,M,M,M,M,M,M,26.00,310.00,2023-09-04 08:16,76.00,KVGT 040853Z AUTO 28018G23KT 10SM CLR 24/08 A2983 RMK AO2 PK WND 31026/0816 SLP094 T02440078 50008 $,M
LOL,2023-09-04 08:53,-118.5701,40.0684,1192.43,49.00,48.00,96.32,0.00,0.00,0.00,30.04,1015.90,10.00,M,CLR,M,M,M,M,M,M,M,M,M,M,M,M,M,M,49.00,KLOL 040853Z AUTO 00000KT 10SM CLR 09/09 A3004 RMK AO2 SLP159 T00940089 58002,M
BVU,2023-09-04 08:55,-114.8611,35.9475,671.00,71.60,50.00,46.43,210.00,5.00,0.00,29.85,M,10.00,M,CLR,M,M,M,M,M,M,M,M,M,M,M,M,M,M,71.60,KBVU 040855Z AUTO 21005KT 10SM CLR 22/10 A2985 RMK AO2,M
CXP,2023-09-04 08:55,-119.7326,39.1923,1431.00,46.40,44.60,93.40,0.00,0.00,0.00,30.13,M,10.00,M,CLR,M,M,M,M,M,M,M,M,M,M,M,M,M,M,46.40,KCXP 040855Z AUTO 00000KT 10SM CLR 08/07 A3013 RMK AO2,M
RNO,2023-09-04 08:55,-119.7711,39.4839,1341.00,51.00,45.00,79.84,180.00,3.00,0.00,30.10,1016.60,10.00,M,CLR,M,M,M,M,M,M,M,M,M,M,M,M,M,M,51.00,KRNO 040855Z 18003KT 10SM CLR 11/07 A3010 RMK AO2 SLP166 T01060072 50000,M
RTS,2023-09-04 08:55,-119.8764,39.6682,1539.00,46.40,42.80,87.19,300.00,6.00,0.00,30.13,M,10.00,M,CLR,M,M,M,M,M,M,M,M,M,M,M,M,M,M,42.87,KRTS 040855Z AUTO 30006KT 10SM CLR 08/06 A3013 RMK AO2,M
MEV,2023-09-04 08:55,-119.7500,38.9963,1441.42,41.00,39.20,93.24,0.00,0.00,0.00,30.11,M,10.00,M,FEW,SCT,BKN,M,3600.00,4600.00,5500.00,M,M,M,M,M,M,M,M,41.00,KMEV 040855Z AUTO 00000KT 10SM FEW036 SCT046 BKN055 05/04 A3011 RMK AO2,M
BAM,2023-09-04 08:55,-116.8743,40.5990,1382.36,53.60,50.00,87.56,240.00,8.00,0.00,30.04,M,10.00,M,SCT,M,M,M,12000.00,M,M,M,M,M,M,M,M,M,M,53.60,KBAM 040855Z AUTO 24008KT 10SM SCT120 12/10 A3004 RMK AO1,M
HTH,2023-09-04 08:55,-118.6315,38.5448,1282.89,51.80,51.80,100.00,0.00,0.00,0.00,30.09,M,10.00,M,CLR,M,M,M,M,M,M,M,M,M,M,M,M,M,M,51.80,KHTH 040855Z AUTO 00000KT 10SM CLR 11/11 A3009 RMK A01,M
LSV,2023-09-04 08:55,-115.0343,36.2362,570.00,73.00,48.60,42.03,290.00,7.00,0.00,29.80,1006.90,10.00,M,CLR,M,M,M,M,M,M,M,M,M,M,M,M,M,M,73.00,KLSV 040855Z AUTO 29007KT 10SM CLR 23/09 A2980 RMK AO2 SLP069 T02280092 50009 $,M
10U,2023-09-04 08:55,-116.1876,41.9532,1637.00,50.00,50.00,100.00,220.00,7.00,0.00,30.04,M,5.00,M,SCT,BKN,OVC,M,1000.00,2300.00,3000.00,M,-RA,M,M,M,M,M,M,50.00,K10U 040855Z AUTO 22007KT 5SM -RA SCT010 BKN023 OVC030 10/10 A3004 RMK AO2,M
INS,2023-09-04 08:55,-115.6733,36.5872,955.00,66.00,44.00,44.88,300.00,4.00,0.00,29.93,1009.00,10.00,M,CLR,M,M,M,M,M,M,M,M,M,M,M,M,M,M,66.00,KINS 040855Z AUTO 30004KT 10SM CLR 19/07 A2993 RMK AO2 SLP090 T01880066 50011 $,M
EKO,2023-09-04 08:56,-115.7860,40.8242,1367.00,52.00,49.00,89.46,220.00,4.00,T,30.02,1013.10,10.00,M,OVC,M,M,M,1800.00,M,M,M,M,M,M,M,M,M,M,52.00,KEKO 040856Z AUTO 22004KT 10SM OVC018 11/09 A3002 RMK AO2 RAB40E49 SLP131 P0000 60000 T01110094 58004,M
WMC,2023-09-04 08:56,-117.8072,40.9019,1315.00,52.00,49.00,89.46,170.00,7.00,0.00,30.03,1014.90,10.00,M,CLR,M,M,M,M,M,M,M,M,M,M,M,M,M,M,52.00,KWMC 040856Z AUTO 17007KT 10SM CLR 11/09 A3003 RMK AO2 SLP149 T01110094 56003,M
NFL,2023-09-04 08:56,-118.7010,39.4166,1199.00,51.00,48.00,89.42,160.00,6.00,0.00,30.05,1014.60,10.00,M,CLR,M,M,M,M,M,M,M,M,M,M,M,M,M,M,51.00,KNFL 040856Z AUTO 16006KT 10SM CLR 11/09 A3005 RMK AO2 SLP146 T01060089 58001,M
HND,2023-09-04 08:56,-115.1344,35.9729,742.79,70.00,50.00,49.03,200.00,8.00,0.00,29.90,1011.30,10.00,M,CLR,M,M,M,M,M,M,M,M,M,M,M,M,M,M,70.00,KHND 040856Z AUTO 20008KT 10SM CLR 21/10 A2990 RMK AO2 SLP113 T02110100 50005,M
LAS,2023-09-04 08:56,-115.1634,36.0719,663.00,72.00,50.00,45.81,210.00,6.00,0.00,29.86,1008.70,10.00,M,CLR,M,M,M,M,M,M,M,M,M,M,M,M,M,M,72.00,KLAS 040856Z 21006KT 10SM CLR 22/10 A2986 RMK AO2 SLP087 T02220100 53007 $,M
05U,2023-09-04 09:10,-116.0051,39.6042,1811.23,48.20,44.60,87.28,M,M,0.00,30.09,M,10.00,M,FEW,OVC,M,M,6000.00,7500.00,M,M,M,M,M,M,M,M,M,M,K05U 040910Z AUTO 10SM FEW060 OVC075 09/07 A3009 RMK A01,M
HTH,2023-09-04 09:10,-118.6315,38.5448,1282.89,51.80,50.00,93.55,0.00,0.00,0.00,30.09,M,10.00,M,CLR,M,M,M,M,M,M,M,M,M,M,M,M,M,M,51.80,KHTH 040910Z AUTO 00000KT 10SM CLR 11/10 A3009 RMK A01,M
BVU,2023-09-04 09:15,-114.8611,35.9475,671.00,69.80,50.00,49.37,210.00,8.00,0.00,29.84,M,10.00,M,CLR,M,M,M,M,M,M,M,M,M,M,M,M,M,M,69.80,KBVU 040915Z AUTO 21008KT 10SM CLR 21/10 A2984 RMK AO2,M
CXP,2023-09-04 09:15,-119.7326,39.1923,1431.00,48.20,44.60,87.28,0.00,0.00,0.00,30.12,M,10.00,M,CLR,M,M,M,M,M,M,M,M,M,M,M,M,M,M,48.20,KCXP 040915Z AUTO 00000KT 10SM CLR 09/07 A3012 RMK AO2,M
RTS,2023-09-04 09:15,-119.8764,39.6682,1539.00,46.40,44.60,93.40,310.00,7.00,0.00,30.12,M,10.00,M,CLR,M,M,M,M,M,M,M,M,M,M,M,M,M,M,42.33,KRTS 040915Z AUTO 31007KT 10SM CLR 08/07 A3012 RMK AO2,M
MEV,2023-09-04 09:15,-119.7500,38.9963,1441.42,39.20,37.40,93.19,0.00,0.00,0.00,30.11,M,10.00,M,FEW,SCT,SCT,M,3700.00,4400.00,5000.00,M,M,M,M,M,M,M,M,39.20,KMEV 040915Z AUTO 00000KT 10SM FEW037 SCT044 SCT050 04/03 A3011 RMK AO2,M
BAM,2023-09-04 09:15,-116.8743,40.5990,1382.36,53.60,50.00,87.56,250.00,8.00,0.00,30.04,M,10.00,M,CLR,M,M,M,M,M,M,M,M,M,M,M,M,M,M,53.60,KBAM 040915Z AUTO 25008KT 10SM CLR 12/10 A3004 RMK AO1,M
10U,2023-09-04 09:15,-116.1876,41.9532,1637.00,50.00,48.20,93.50,210.00,8.00,0.00,30.03,M,8.00,M,BKN,OVC,M,M,2300.00,3000.00,M,M,-RA,M,M,M,M,M,M,50.00,K10U 040915Z AUTO 21008KT 8SM -RA BKN023 OVC030 10/09 A3003 RMK AO2,M
ELY,2023-09-04 09:19,-114.8453,39.2950,1909.00,47.00,44.00,89.24,0.00,0.00,0.00,30.06,M,10.00,M,BKN,OVC,M,M,2400.00,3700.00,M,M,M,M,M,M,M,M,M,47.00,KELY 040919Z AUTO 00000KT 10SM BKN024 OVC037 08/07 A3006 RMK AO2 T00830067,M
LOL,2023-09-04 09:30,-118.5701,40.0684,1192.43,48.00,48.00,100.00,200.00,3.00,0.00,30.04,M,2.50,M,CLR,M,M,M,M,M,M,M,BR,M,M,M,M,M,M,46.98,KLOL 040930Z AUTO 20003KT 2 1/2SM BR CLR 09/09 A3004 RMK AO2 VIS 1V5 T00890089,M
05U,2023-09-04 09:30,-116.0051,39.6042,1811.23,48.20,44.60,87.28,M,M,0.00,30.09,M,10.00,M,FEW,FEW,BKN,M,4800.00,6000.00,7500.00,M,M,M,M,M,M,M,M,M,K05U 040930Z AUTO 10SM FEW048 FEW060 BKN075 09/07 A3009 RMK A01,M
BVU,2023-09-04 09:35,-114.8611,35.9475,671.00,69.80,50.00,49.37,M,4.00,0.00,29.85,M,10.00,M,CLR,M,M,M,M,M,M,M,M,M,M,M,M,M,M,69.80,KBVU 040935Z AUTO VRB04KT 10SM CLR 21/10 A2985 RMK AO2,M
CXP,2023-09-04 09:35,-119.7326,39.1923,1431.00,46.40,42.80,87.19,0.00,0.00,0.00,30.13,M,10.00,M,CLR,M,M,M,M,M,M,M,M,M,M,M,M,M,M,46.40,KCXP 040935Z AUTO 00000KT 10SM CLR 08/06 A3013 RMK AO2,M
RTS,2023-09-04 09:35,-119.8764,39.6682,1539.00,42.80,41.00,93.30,330.00,5.00,0.00,30.12,M,10.00,M,CLR,M,M,M,M,M,M,M,M,M,M,M,M,M,M,39.22,KRTS 040935Z AUTO 33005KT 10SM CLR 06/05 A3012 RMK AO2,M
MEV,2023-09-04 09:35,-119.7500,38.9963,1441.42,39.20,37.40,93.19,110.00,3.00,0.00,30.11,M,10.00,M,FEW,BKN,M,M,4300.00,5000.00,M,M,M,M,M,M,M,M,M,36.92,KMEV 040935Z AUTO 11003KT 10SM FEW043 BKN050 04/03 A3011 RMK AO2,M
HTH,2023-09-04 09:35,-118.6315,38.5448,1282.89,51.80,50.00,93.55,210.00,3.00,0.00,30.09,M,10.00,M,CLR,M,M,M,M,M,M,M,M,M,M,M,M,M,M,51.80,KHTH 040935Z AUTO 21003KT 10SM CLR 11/10 A3009 RMK A01,M
10U,2023-09-04 09:35,-116.1876,41.9532,1637.00,50.00,48.20,93.50,220.00,8.00,0.00,30.03,M,10.00,M,BKN,OVC,M,M,2100.00,2700.00,M,M,M,M,M,M,M,M,M,50.00,K10U 040935Z AUTO 22008KT 10SM BKN021 OVC027 10/09 A3003 RMK AO2,M
BAM,2023-09-04 09:35,-116.8743,40.5990,1382.36,53.60,50.00,87.56,250.00,10.00,0.00,30.04,M,10.00,M,SCT,M,M,M,4700.00,M,M,M,M,M,M,M,M,M,M,53.60,KBAM 040935Z AUTO 25010KT 10SM SCT047 12/10 A3004 RMK AO1,M
LOL,2023-09-04 09:37,-118.5701,40.0684,1192.43,47.00,46.00,96.29,0.00,0.00,0.00,30.04,M,7.00,M,FEW,M,M,M,200.00,M,M,M,M,M,M,M,M,M,M,47.00,KLOL 040937Z AUTO 00000KT 7SM FEW002 08/08 A3004 RMK AO2 T00830078,M
05U,2023-09-04 09:50,-116.0051,39.6042,1811.23,46.40,44.60,93.40,M,M,0.00,30.09,M,10.00,M,FEW,BKN,M,M,4800.00,9500.00,M,M,M,M,M,M,M,M,M,M,K05U 040950Z AUTO 10SM FEW048 BKN095 08/07 A3009 RMK A01,M
P68,2023-09-04 09:53,-116.0056,39.6014,1993.00,47.00,44.00,89.24,0.00,0.00,0.00,30.06,1011.60,M,M,M,M,M,M,M,M,M,M,M,M,M,M,M,M,M,47.00,KP68 040953Z AUTO 00000KT 08/07 A3006 RMK AO1 SLP116 T00830067 $,M
DRA,2023-09-04 09:53,-116.0278,36.6206,1009.00,65.00,46.00,50.14,20.00,9.00,0.00,29.94,1009.40,10.00,M,CLR,M,M,M,M,M,M,M,M,M,M,M,M,M,M,65.00,KDRA 040953Z AUTO 02009KT 10SM CLR 18/08 A2994 RMK AO2 SLP094 T01830078,M
ELY,2023-09-04 09:53,-114.8453,39.2950,1909.00,47.00,44.00,89.24,210.00,3.00,0.00,30.07,1010.70,10.00,M,OVC,M,M,M,2700.00,M,M,M,M,M,M,M,M,M,M,45.84,KELY 040953Z AUTO 21003KT 10SM OVC027 08/07 A3007 RMK AO2 SLP107 T00830067,M
VGT,2023-09-04 09:53,-115.1933,36.2111,667.00,75.00,45.00,34.31,300.00,13.00,0.00,29.84,1009.40,10.00,M,CLR,M,M,M,M,M,M,M,M,M,M,M,M,M,M,75.00,KVGT 040953Z AUTO 30013KT 10SM CLR 24/07 A2984 RMK AO2 SLP094 T02390072 $,M
LOL,2023-09-04 09:53,-118.5701,40.0684,1192.43,47.00,47.00,100.00,0.00,0.00,0.00,30.05,1016.20,3.00,M,BKN,M,M,M,200.00,M,M,M,BR,M,M,M,M,M,M,47.00,KLOL 040953Z AUTO 00000KT 3SM BR BKN002 08/08 A3005 RMK AO2 SLP162 T00830083,M
BVU,2023-09-04 09:55,-114.8611,35.9475,671.00,69.80,50.00,49.37,190.00,5.00,0.00,29.86,M,10.00,M,CLR,M,M,M,M,M,M,M,M,M,M,M,M,M,M,69.80,KBVU 040955Z AUTO 19005KT 10SM CLR 21/10 A2986 RMK AO2,M
CXP,2023-09-04 09:55,-119.7326,39.1923,1431.00,46.40,42.80,87.19,0.00,0.00,0.00,30.13,M,10.00,M,CLR,M,M,M,M,M,M,M,M,M,M,M,M,M,M,46.40,KCXP 040955Z AUTO 00000KT 10SM CLR 08/06 A3013 RMK AO2,M
INS,2023-09-04 09:55,-115.6733,36.5872,955.00,64.60,46.00,50.85,0.00,0.00,0.00,29.92,1008.80,10.00,M,CLR,M,M,M,M,M,M,M,M,M,M,M,M,M,M,64.60,KINS 040955Z AUTO 00000KT 10SM CLR 18/08 A2992 RMK AO2 SLP088 T01810078 $,M
RNO,2023-09-04 09:55,-119.7711,39.4839,1341.00,50.00,44.00,79.76,0.00,0.00,0.00,30.10,1016.50,10.00,M,FEW,M,M,M,10000.00,M,M,M,M,M,M,M,M,M,M,50.00,KRNO 040955Z 00000KT 10SM FEW100 10/07 A3010 RMK AO2 SLP165 T01000067,M
RTS,2023-09-04 09:55,-119.8764,39.6682,1539.00,42.80,41.00,93.30,350.00,5.00,0.00,30.13,M,10.00,M,CLR,M,M,M,M,M,M,M,M,M,M,M,M,M,M,39.22,KRTS 040955Z AUTO 35005KT 10SM CLR 06/05 A3013 RMK AO2,M
MEV,2023-09-04 09:55,-119.7500,38.9963,1441.42,39.20,37.40,93.19,0.00,0.00,0.00,30.12,M,10.00,M,SCT,SCT,M,M,4700.00,5500.00,M,M,M,M,M,M,M,M,M,39.20,KMEV 040955Z AUTO 00000KT 10SM SCT047 SCT055 04/03 A3012 RMK AO2,M
BAM,2023-09-04 09:55,-116.8743,40.5990,1382.36,53.60,50.00,87.56,250.00,9.00,0.00,30.05,M,10.00,M,OVC,M,M,M,4500.00,M,M,M,M,M,M,M,M,M,M,53.60,KBAM 040955Z AUTO 25009KT 10SM OVC045 12/10 A3005 RMK AO1,M
HTH,2023-09-04 09:55,-118.6315,38.5448,1282.89,51.80,50.00,93.55,240.00,3.00,0.00,30.09,M,10.00,M,CLR,M,M,M,M,M,M,M,M,M,M,M,M,M,M,51.80,KHTH 040955Z AUTO 24003KT 10SM CLR 11/10 A3009 RMK A01,M
LSV,2023-09-04 09:55,-115.0343,36.2362,570.00,70.50,49.30,46.96,0.00,0.00,0.00,29.81,1007.20,10.00,M,CLR,M,M,M,M,M,M,M,M,M,M,M,M,M,M,70.50,KLSV 040955Z AUTO 00000KT 10SM CLR 21/10 A2981 RMK AO2 SLP072 T02140096 $,M
10U,2023-09-04 09:55,-116.1876,41.9532,1637.00,50.00,48.20,93.50,210.00,8.00,0.00,30.03,M,10.00,M,FEW,OVC,M,M,900.00,2000.00,M,M,-RA,M,M,M,M,M,M,50.00,K10U 040955Z AUTO 21008KT 10SM -RA FEW009 OVC020 10/09 A3003 RMK AO2,M
EKO,2023-09-04 09:56,-115.7860,40.8242,1367.00,51.00,49.00,92.83,220.00,7.00,T,30.02,1014.10,10.00,M,BKN,OVC,M,M,1700.00,5500.00,M,M,M,M,M,M,M,M,M,51.00,KEKO 040956Z AUTO 22007KT 10SM BKN017 OVC055 11/09 A3002 RMK AO2 RAB16E25 SLP141 P0000 T01060094,M
WMC,2023-09-04 09:56,-117.8072,40.9019,1315.00,53.00,49.00,86.23,180.00,7.00,0.00,30.04,1014.90,10.00,M,BKN,OVC,M,M,3500.00,4600.00,M,M,M,M,M,M,M,M,M,53.00,KWMC 040956Z AUTO 18007KT 10SM BKN035 OVC046 12/09 A3004 RMK AO2 SLP149 T01170094,M
NFL,2023-09-04 09:56,-118.7010,39.4166,1199.00,50.00,48.00,92.80,160.00,6.00,0.00,30.05,1014.60,10.00,M,CLR,M,M,M,M,M,M,M,M,M,M,M,M,M,M,50.00,KNFL 040956Z AUTO 16006KT 10SM CLR 10/09 A3005 RMK AO2 SLP146 T01000089,M
HND,2023-09-04 09:56,-115.1344,35.9729,742.79,69.00,50.00,50.74,210.00,9.00,0.00,29.90,1011.30,10.00,M,CLR,M,M,M,M,M,M,M,M,M,M,M,M,M,M,69.00,KHND 040956Z AUTO 21009KT 10SM CLR 21/10 A2990 RMK AO2 SLP113 T02060100,M
LAS,2023-09-04 09:56,-115.1634,36.0719,663.00,71.00,50.00,47.39,200.00,6.00,0.00,29.86,1008.70,10.00,M,CLR,M,M,M,M,M,M,M,M,M,M,M,M,M,M,71.00,KLAS 040956Z 20006KT 10SM CLR 22/10 A2986 RMK AO2 SLP087 T02170100 $,M
LOL,2023-09-04 10:07,-118.5701,40.0684,1192.43,48.00,48.00,100.00,0.00,0.00,0.00,30.05,M,8.00,M,SCT,M,M,M,200.00,M,M,M,M,M,M,M,M,M,M,48.00,KLOL 041007Z AUTO 00000KT 8SM SCT002 09/09 A3005 RMK AO2 T00890089,M
05U,2023-09-04 10:10,-116.0051,39.6042,1811.23,46.40,42.80,87.19,M,M,0.00,30.10,M,10.00,M,FEW,BKN,M,M,5000.00,9500.00,M,M,M,M,M,M,M,M,M,M,K05U 041010Z AUTO 10SM FEW050 BKN095 08/06 A3010 RMK A01,M
ELY,2023-09-04 10:12,-114.8453,39.2950,1909.00,47.00,43.00,85.89,230.00,4.00,0.00,30.06,M,10.00,M,OVC,M,M,M,3000.00,M,M,M,M,M,M,M,M,M,M,44.94,KELY 041012Z AUTO 23004KT 10SM OVC030 08/06 A3006 RMK AO2 T00830061,M
BVU,2023-09-04 10:15,-114.8611,35.9475,671.00,69.80,50.00,49.37,0.00,0.00,0.00,29.85,M,10.00,M,CLR,M,M,M,M,M,M,M,M,M,M,M,M,M,M,69.80,KBVU 041015Z AUTO 00000KT 10SM CLR 21/10 A2985 RMK AO2,M
CXP,2023-09-04 10:15,-119.7326,39.1923,1431.00,46.40,42.80,87.19,0.00,0.00,0.00,30.13,M,10.00,M,CLR,M,M,M,M,M,M,M,M,M,M,M,M,M,M,46.40,KCXP 041015Z AUTO 00000KT 10SM CLR 08/06 A3013 RMK AO2,M
RTS,2023-09-04 10:15,-119.8764,39.6682,1539.00,44.60,42.80,93.35,80.00,5.00,0.00,30.13,M,10.00,M,CLR,M,M,M,M,M,M,M,M,M,M,M,M,M,M,41.36,KRTS 041015Z AUTO 08005KT 10SM CLR 07/06 A3013 RMK AO2,M
MEV,2023-09-04 10:15,-119.7500,38.9963,1441.42,39.20,37.40,93.19,110.00,5.00,0.00,30.12,M,10.00,M,SCT,SCT,M,M,4600.00,5500.00,M,M,M,M,M,M,M,M,M,34.95,KMEV 041015Z AUTO 11005KT 10SM SCT046 SCT055 04/03 A3012 RMK AO2,M
BAM,2023-09-04 10:15,-116.8743,40.5990,1382.36,53.60,50.00,87.56,240.00,13.00,0.00,30.04,M,10.00,17.00,OVC,M,M,M,4500.00,M,M,M,M,M,M,M,M,M,M,53.60,KBAM 041015Z AUTO 24013G17KT 10SM OVC045 12/10 A3004 RMK AO1,M
HTH,2023-09-04 10:15,-118.6315,38.5448,1282.89,50.00,50.00,100.00,190.00,3.00,0.00,30.08,M,10.00,M,CLR,M,M,M,M,M,M,M,M,M,M,M,M,M,M,50.00,KHTH 041015Z AUTO 19003KT 10SM CLR 10/10 A3008 RMK A01,M
10U,2023-09-04 10:15,-116.1876,41.9532,1637.00,50.00,48.20,93.50,200.00,8.00,0.00,30.03,M,10.00,M,FEW,OVC,M,M,800.00,2000.00,M,M,-RA,M,M,M,M,M,M,50.00,K10U 041015Z AUTO 20008KT 10SM -RA FEW008 OVC020 10/09 A3003 RMK AO2,M
ELY,2023-09-04 10:21,-114.8453,39.2950,1909.00,47.00,43.00,85.89,240.00,3.00,0.00,30.06,M,10.00,M,OVC,M,M,M,2800.00,M,M,M,M,M,M,M,M,M,M,45.84,KELY 041021Z AUTO 24003KT 10SM OVC028 08/06 A3006 RMK AO2 T00830061,M
05U,2023-09-04 10:30,-116.0051,39.6042,1811.23,44.60,42.80,93.35,M,M,0.00,30.09,M,10.00,M,SCT,SCT,SCT,M,4800.00,5500.00,9000.00,M,M,M,M,M,M,M,M,M,K05U 041030Z AUTO 10SM SCT048 SCT055 SCT090 07/06 A3009 RMK A01,M
EKO,2023-09-04 10:32,-115.7860,40.8242,1367.00,51.00,49.00,92.83,230.00,7.00,0.00,30.03,M,10.00,M,SCT,SCT,OVC,M,1600.00,4100.00,6500.00,M,M,M,M,M,M,M,M,51.00,KEKO 041032Z AUTO 23007KT 10SM SCT016 SCT041 OVC065 11/09 A3003 RMK AO2 T01060094,M
LOL,2023-09-04 10:32,-118.5701,40.0684,1192.43,47.00,46.00,96.29,30.00,4.00,0.00,30.05,M,1.75,M,SCT,M,M,M,200.00,M,M,M,BR,M,M,M,M,M,M,44.94,KLOL 041032Z AUTO 03004KT 1 3/4SM BR SCT002 08/08 A3005 RMK AO2 T00830078,M
BVU,2023-09-04 10:35,-114.8611,35.9475,671.00,69.80,48.20,46.16,220.00,6.00,0.00,29.85,M,10.00,M,CLR,M,M,M,M,M,M,M,M,M,M,M,M,M,M,69.80,KBVU 041035Z AUTO 22006KT 10SM CLR 21/09 A2985 RMK AO2,M
CXP,2023-09-04 10:35,-119.7326,39.1923,1431.00,44.60,42.80,93.35,0.00,0.00,0.00,30.13,M,10.00,M,CLR,M,M,M,M,M,M,M,M,M,M,M,M,M,M,44.60,KCXP 041035Z AUTO 00000KT 10SM CLR 07/06 A3013 RMK AO2,M
ELY,2023-09-04 10:35,-114.8453,39.2950,1909.00,47.00,42.00,82.65,260.00,3.00,0.00,30.06,M,10.00,M,BKN,BKN,M,M,3000.00,3400.00,M,M,M,M,M,M,M,M,M,45.84,KELY 041035Z AUTO 26003KT 10SM BKN030 BKN034 08/06 A3006 RMK AO2 T00830056,M
RTS,2023-09-04 10:35,-119.8764,39.6682,1539.00,46.40,42.80,87.19,360.00,4.00,0.00,30.13,M,10.00,M,CLR,M,M,M,M,M,M,M,M,M,M,M,M,M,M,44.24,KRTS 041035Z AUTO 36004KT 10SM CLR 08/06 A3013 RMK AO2,M
MEV,2023-09-04 10:35,-119.7500,38.9963,1441.42,39.20,37.40,93.19,110.00,4.00,0.00,30.12,M,10.00,M,SCT,M,M,M,4600.00,M,M,M,M,M,M,M,M,M,M,35.83,KMEV 041035Z AUTO 11004KT 10SM SCT046 04/03 A3012 RMK AO2,M
BAM,2023-09-04 10:35,-116.8743,40.5990,1382.36,53.60,50.00,87.56,240.00,10.00,0.00,30.05,M,10.00,M,OVC,M,M,M,4500.00,M,M,M,M,M,M,M,M,M,M,53.60,KBAM 041035Z AUTO 24010KT 10SM OVC045 12/10 A3005 RMK AO1,M
HTH,2023-09-04 10:35,-118.6315,38.5448,1282.89,50.00,50.00,100.00,0.00,0.00,0.00,30.09,M,10.00,M,CLR,M,M,M,M,M,M,M,M,M,M,M,M,M,M,50.00,KHTH 041035Z AUTO 00000KT 10SM CLR 10/10 A3009 RMK A01,M
10U,2023-09-04 10:35,-116.1876,41.9532,1637.00,50.00,48.20,93.50,220.00,9.00,0.00,30.03,M,10.00,M,OVC,M,M,M,1900.00,M,M,M,M,M,M,M,M,M,M,50.00,K10U 041035Z AUTO 22009KT 10SM OVC019 10/09 A3003 RMK AO2,M
LOL,2023-09-04 10:39,-118.5701,40.0684,1192.43,47.00,47.00,100.00,30.00,3.00,0.00,30.05,M,1.50,M,BKN,M,M,M,200.00,M,M,M,BR,M,M,M,M,M,M,45.84,KLOL 041039Z AUTO 03003KT 1 1/2SM BR BKN002 08/08 A3005 RMK AO2 T00830083,M
LOL,2023-09-04 10:42,-118.5701,40.0684,1192.43,47.00,47.00,100.00,40.00,4.00,0.00,30.05,M,4.00,M,SCT,M,M,M,200.00,M,M,M,BR,M,M,M,M,M,M,44.94,KLOL 041042Z AUTO 04004KT 4SM BR SCT002 08/08 A3005 RMK AO2 T00830083,M
05U,2023-09-04 10:50,-116.0051,39.6042,1811.23,42.80,42.80,100.00,M,M,0.00,30.09,M,10.00,M,FEW,M,M,M,5000.00,M,M,M,M,M,M,M,M,M,M,M,K05U 041050Z AUTO 10SM FEW050 06/06 A3009 RMK A01,M
P68,2023-09-04 10:53,-116.0056,39.6014,1993.00,43.00,41.00,92.58,170.00,6.00,0.00,30.07,1014.60,M,M,M,M,M,M,M,M,M,M,M,M,M,M,M,M,M,38.78,KP68 041053Z AUTO 17006KT 06/05 A3007 RMK AO1 SLP146 T00610050 $,M
DRA,2023-09-04 10:53,-116.0278,36.6206,1009.00,63.00,46.00,53.78,360.00,5.00,0.00,29.94,1009.50,10.00,M,CLR,M,M,M,M,M,M,M,M,M,M,M,M,M,M,63.00,KDRA 041053Z AUTO 36005KT 10SM CLR 17/08 A2994 RMK AO2 SLP095 T01720078,M
ELY,2023-09-04 10:53,-114.8453,39.2950,1909.00,45.00,41.00,85.77,270.00,5.00,0.00,30.06,1010.60,10.00,M,FEW,SCT,BKN,M,2900.00,3400.00,7500.00,M,M,M,M,M,M,M,M,41.83,KELY 041053Z AUTO 27005KT 10SM FEW029 SCT034 BKN075 07/05 A3006 RMK AO2 SLP106 T00720050,M
VGT,2023-09-04 10:53,-115.1933,36.2111,667.00,73.00,47.00,39.58,340.00,10.00,0.00,29.85,1009.80,10.00,M,CLR,M,M,M,M,M,M,M,M,M,M,M,M,M,M,73.00,KVGT 041053Z AUTO 34010KT 10SM CLR 23/08 A2985 RMK AO2 SLP098 T02280083 $,M
LOL,2023-09-04 10:53,-118.5701,40.0684,1192.43,48.00,48.00,100.00,0.00,0.00,0.00,30.05,1016.40,8.00,M,SCT,M,M,M,200.00,M,M,M,M,M,M,M,M,M,M,48.00,KLOL 041053Z AUTO 00000KT 8SM SCT002 09/09 A3005 RMK AO2 SLP164 T00890089,M
BVU,2023-09-04 10:55,-114.8611,35.9475,671.00,68.00,50.00,52.51,260.00,5.00,0.00,29.85,M,10.00,M,CLR,M,M,M,M,M,M,M,M,M,M,M,M,M,M,68.00,KBVU 041055Z AUTO 26005KT 10SM CLR 20/10 A2985 RMK AO2,M
CXP,2023-09-04 10:55,-119.7326,39.1923,1431.00,44.60,42.80,93.35,0.00,0.00,0.00,30.13,M,10.00,M,CLR,M,M,M,M,M,M,M,M,M,M,M,M,M,M,44.60,KCXP 041055Z AUTO 00000KT 10SM CLR 07/06 A3013 RMK AO2,M
INS,2023-09-04 10:55,-115.6733,36.5872,955.00,61.50,47.00,58.89,280.00,4.00,0.00,29.94,1009.70,10.00,M,CLR,M,M,M,M,M,M,M,M,M,M,M,M,M,M,61.50,KINS 041055Z AUTO 28004KT 10SM CLR 16/08 A2994 RMK AO2 SLP097 T01640084 $,M
RNO,2023-09-04 10:55,-119.7711,39.4839,1341.00,49.00,44.00,82.79,0.00,0.00,0.00,30.11,1017.00,10.00,M,FEW,M,M,M,10000.00,M,M,M,M,M,M,M,M,M,M,49.00,KRNO 041055Z 00000KT 10SM FEW100 09/07 A3011 RMK AO2 SLP170 T00940067,M
RTS,2023-09-04 10:55,-119.8764,39.6682,1539.00,44.60,42.80,93.35,320.00,6.00,0.00,30.13,M,10.00,M,CLR,M,M,M,M,M,M,M,M,M,M,M,M,M,M,40.71,KRTS 041055Z AUTO 32006KT 10SM CLR 07/06 A3013 RMK AO2,M
MEV,2023-09-04 10:55,-119.7500,38.9963,1441.42,41.00,37.40,86.89,0.00,0.00,0.00,30.12,M,10.00,M,BKN,BKN,M,M,4500.00,5000.00,M,M,M,M,M,M,M,M,M,41.00,KMEV 041055Z AUTO 00000KT 10SM BKN045 BKN050 05/03 A3012 RMK AO2,M
BAM,2023-09-04 10:55,-116.8743,40.5990,1382.36,51.80,50.00,93.55,250.00,7.00,0.00,30.05,M,10.00,M,BKN,OVC,M,M,4300.00,7000.00,M,M,M,M,M,M,M,M,M,51.80,KBAM 041055Z AUTO 25007KT 10SM BKN043 OVC070 11/10 A3005 RMK AO1,M
HTH,2023-09-04 10:55,-118.6315,38.5448,1282.89,50.00,50.00,100.00,0.00,0.00,0.00,30.09,M,10.00,M,CLR,M,M,M,M,M,M,M,M,M,M,M,M,M,M,50.00,KHTH 041055Z AUTO 00000KT 10SM CLR 10/10 A3009 RMK A01,M
LSV,2023-09-04 10:55,-115.0343,36.2362,570.00,70.30,49.00,46.76,310.00,3.00,0.00,29.81,1007.10,10.00,M,CLR,M,M,M,M,M,M,M,M,M,M,M,M,M,M,70.30,KLSV 041055Z AUTO 31003KT 10SM CLR 21/10 A2981 RMK AO2 SLP071 T02130095 $,M
10U,2023-09-04 10:55,-116.1876,41.9532,1637.00,50.00,48.20,93.50,210.00,8.00,0.00,30.03,M,10.00,M,OVC,M,M,M,1700.00,M,M,M,M,M,M,M,M,M,M,50.00,K10U 041055Z AUTO 21008KT 10SM OVC017 10/09 A3003 RMK AO2,M
EKO,2023-09-04 10:56,-115.7860,40.8242,1367.00,52.00,49.00,89.46,240.00,8.00,0.00,30.02,1014.30,10.00,M,FEW,SCT,OVC,M,1500.00,4900.00,6000.00,M,M,M,M,M,M,M,M,52.00,KEKO 041056Z AUTO 24008KT 10SM FEW015 SCT049 OVC060 11/09 A3002 RMK AO2 SLP143 T01110094,M
WMC,2023-09-04 10:56,-117.8072,40.9019,1315.00,52.00,48.00,86.17,160.00,3.00,0.00,30.04,1015.00,10.00,M,OVC,M,M,M,6000.00,M,M,M,M,M,M,M,M,M,M,52.00,KWMC 041056Z AUTO 16003KT 10SM OVC060 11/09 A3004 RMK AO2 SLP150 T01110089,M
NFL,2023-09-04 10:56,-118.7010,39.4166,1199.00,50.00,47.00,89.37,200.00,4.00,0.00,30.06,1014.80,10.00,M,CLR,M,M,M,M,M,M,M,M,M,M,M,M,M,M,50.00,KNFL 041056Z AUTO 20004KT 10SM CLR 10/08 A3006 RMK AO2 SLP148 T01000083,M
HND,2023-09-04 10:56,-115.1344,35.9729,742.79,66.00,51.00,58.40,220.00,7.00,0.00,29.89,1011.40,10.00,M,CLR,M,M,M,M,M,M,M,M,M,M,M,M,M,M,66.00,KHND 041056Z AUTO 22007KT 10SM CLR 19/11 A2989 RMK AO2 SLP114 T01890106,M
LAS,2023-09-04 10:56,-115.1634,36.0719,663.00,70.00,50.00,49.03,200.00,5.00,0.00,29.86,1008.60,10.00,M,CLR,M,M,M,M,M,M,M,M,M,M,M,M,M,M,70.00,KLAS 041056Z 20005KT 10SM CLR 21/10 A2986 RMK AO2 SLP086 T02110100 $,M
LOL,2023-09-04 11:13,-118.5701,40.0684,1192.43,46.00,45.00,96.28,70.00,3.00,0.00,30.05,M,1.50,M,SCT,M,M,M,300.00,M,M,M,BR,M,M,M,M,M,M,44.69,KLOL 041113Z AUTO 07003KT 1 1/2SM BR SCT003 08/07 A3005 RMK AO2 VIS 1/4V5 T00780072,M
BVU,2023-09-04 11:15,-114.8611,35.9475,671.00,66.20,51.80,59.74,50.00,6.00,0.00,29.86,M,10.00,M,CLR,M,M,M,M,M,M,M,M,M,M,M,M,M,M,66.20,KBVU 041115Z AUTO 05006KT 10SM CLR 19/11 A2986 RMK AO2,M
CXP,2023-09-04 11:15,-119.7326,39.1923,1431.00,42.80,41.00,93.30,0.00,0.00,0.00,30.13,M,10.00,M,CLR,M,M,M,M,M,M,M,M,M,M,M,M,M,M,42.80,KCXP 041115Z AUTO 00000KT 10SM CLR 06/05 A3013 RMK AO2,M
LOL,2023-09-04 11:15,-118.5701,40.0684,1192.43,45.00,45.00,100.00,80.00,3.00,0.00,30.05,M,0.75,M,VV ,M,M,M,200.00,M,M,M,BR,M,M,M,M,M,M,43.55,KLOL 041115Z AUTO 08003KT 3/4SM BR VV002 07/07 A3005 RMK AO2 VIS 1/4V5 T00720072,M
RTS,2023-09-04 11:15,-119.8764,39.6682,1539.00,44.60,42.80,93.35,350.00,5.00,0.00,30.13,M,10.00,M,CLR,M,M,M,M,M,M,M,M,M,M,M,M,M,M,41.36,KRTS 041115Z AUTO 35005KT 10SM CLR 07/06 A3013 RMK AO2,M
05U,2023-09-04 11:15,-116.0051,39.6042,1811.23,M,M,M,M,M,0.00,M,M,M,M,M,M,M,M,M,M,M,M,M,M,M,M,M,M,M,M,K05U 041115Z AUTO RMK A01,M
MEV,2023-09-04 11:15,-119.7500,38.9963,1441.42,39.20,35.60,86.79,0.00,0.00,0.00,30.12,M,10.00,M,BKN,BKN,M,M,4400.00,5000.00,M,M,M,M,M,M,M,M,M,39.20,KMEV 041115Z AUTO 00000KT 10SM BKN044 BKN050 04/02 A3012 RMK AO2,M
BAM,2023-09-04 11:15,-116.8743,40.5990,1382.36,53.60,50.00,87.56,250.00,9.00,0.00,30.05,M,10.00,M,OVC,M,M,M,4100.00,M,M,M,M,M,M,M,M,M,M,53.60,KBAM 041115Z AUTO 25009KT 10SM OVC041 12/10 A3005 RMK AO1,M
HTH,2023-09-04 11:15,-118.6315,38.5448,1282.89,48.20,48.20,100.00,0.00,0.00,0.00,30.09,M,10.00,M,CLR,M,M,M,M,M,M,M,M,M,M,M,M,M,M,48.20,KHTH 041115Z AUTO 00000KT 10SM CLR 09/09 A3009 RMK A01,M
10U,2023-09-04 11:15,-116.1876,41.9532,1637.00,50.00,48.20,93.50,220.00,9.00,0.00,30.03,M,10.00,M,FEW,OVC,M,M,1200.00,1700.00,M,M,M,M,M,M,M,M,M,50.00,K10U 041115Z AUTO 22009KT 10SM FEW012 OVC017 10/09 A3003 RMK AO2,M
05U,2023-09-04 11:30,-116.0051,39.6042,1811.23,M,M,M,M,M,0.00,30.10,M,10.00,M,M,M,M,M,M,M,M,M,M,M,M,M,M,M,M,M,K05U 041130Z AUTO 10SM A3010 RMK A01,M
BVU,2023-09-04 11:35,-114.8611,35.9475,671.00,68.00,50.00,52.51,120.00,5.00,0.00,29.85,M,10.00,M,CLR,M,M,M,M,M,M,M,M,M,M,M,M,M,M,68.00,KBVU 041135Z AUTO 12005KT 10SM CLR 20/10 A2985 RMK AO2,M
CXP,2023-09-04 11:35,-119.7326,39.1923,1431.00,42.80,41.00,93.30,0.00,0.00,0.00,30.13,M,10.00,M,CLR,M,M,M,M,M,M,M,M,M,M,M,M,M,M,42.80,KCXP 041135Z AUTO 00000KT 10SM CLR 06/05 A3013 RMK AO2,M
RTS,2023-09-04 11:35,-119.8764,39.6682,1539.00,44.60,42.80,93.35,340.00,4.00,0.00,30.13,M,10.00,M,CLR,M,M,M,M,M,M,M,M,M,M,M,M,M,M,42.13,KRTS 041135Z AUTO 34004KT 10SM CLR 07/06 A3013 RMK AO2,M
MEV,2023-09-04 11:35,-119.7500,38.9963,1441.42,37.40,35.60,93.14,0.00,0.00,0.00,30.12,M,10.00,M,BKN,BKN,M,M,4400.00,5000.00,M,M,M,M,M,M,M,M,M,37.40,KMEV 041135Z AUTO 00000KT 10SM BKN044 BKN050 03/02 A3012 RMK AO2,M
BAM,2023-09-04 11:35,-116.8743,40.5990,1382.36,53.60,50.00,87.56,240.00,8.00,0.00,30.05,M,10.00,M,OVC,M,M,M,4500.00,M,M,M,M,M,M,M,M,M,M,53.60,KBAM 041135Z AUTO 24008KT 10SM OVC045 12/10 A3005 RMK AO1,M
HTH,2023-09-04 11:35,-118.6315,38.5448,1282.89,48.20,48.20,100.00,220.00,3.00,0.00,30.09,M,10.00,M,CLR,M,M,M,M,M,M,M,M,M,M,M,M,M,M,47.21,KHTH 041135Z AUTO 22003KT 10SM CLR 09/09 A3009 RMK A01,M
10U,2023-09-04 11:35,-116.1876,41.9532,1637.00,51.80,50.00,93.55,220.00,8.00,0.00,30.03,M,10.00,M,SCT,BKN,OVC,M,800.00,1200.00,1800.00,M,M,M,M,M,M,M,M,51.80,K10U 041135Z AUTO 22008KT 10SM SCT008 BKN012 OVC018 11/10 A3003 RMK AO2,M
LOL,2023-09-04 11:39,-118.5701,40.0684,1192.43,45.00,45.00,100.00,90.00,4.00,0.00,30.05,M,1.50,M,SCT,M,M,M,200.00,M,M,M,BR,M,M,M,M,M,M,42.60,KLOL 041139Z AUTO 09004KT 1 1/2SM BR SCT002 07/07 A3005 RMK AO2 T00720072,M
EKO,2023-09-04 11:42,-115.7860,40.8242,1367.00,52.00,49.00,89.46,230.00,6.00,0.00,30.03,M,10.00,M,BKN,OVC,M,M,1500.00,6000.00,M,M,M,M,M,M,M,M,M,52.00,KEKO 041142Z AUTO 23006KT 10SM BKN015 OVC060 11/09 A3003 RMK AO2 T01110094,M
LOL,2023-09-04 11:44,-118.5701,40.0684,1192.43,45.00,45.00,100.00,90.00,3.00,0.00,30.05,M,3.00,M,SCT,M,M,M,200.00,M,M,M,BR,M,M,M,M,M,M,43.55,KLOL 041144Z AUTO 09003KT 3SM BR SCT002 07/07 A3005 RMK AO2 T00720072,M
LOL,2023-09-04 11:48,-118.5701,40.0684,1192.43,42.80,42.80,100.00,100.00,4.00,0.00,30.05,M,1.25,M,SCT,M,M,M,200.00,M,M,M,BR,M,M,M,M,M,M,40.03,KLOL 041148Z AUTO 10004KT 1 1/4SM BR SCT002 06/06 A3005 RMK AO2 VIS 1/2V4,M
LOL,2023-09-04 11:50,-118.5701,40.0684,1192.43,42.80,42.80,100.00,110.00,5.00,0.00,30.05,M,0.75,M,VV ,M,M,M,200.00,M,M,M,BR,M,M,M,M,M,M,39.22,KLOL 041150Z AUTO 11005KT 3/4SM BR VV002 06/06 A3005 RMK AO2 VIS 1/4V4,M
05U,2023-09-04 11:50,-116.0051,39.6042,1811.23,M,M,M,M,M,0.00,30.10,M,10.00,M,BKN,BKN,M,M,3800.00,4400.00,M,M,M,M,M,M,M,M,M,M,K05U 041150Z AUTO 10SM BKN038 BKN044 A3010 RMK A01,M
P68,2023-09-04 11:53,-116.0056,39.6014,1993.00,44.00,43.00,96.24,180.00,4.00,0.00,30.07,1014.80,M,M,M,M,M,M,M,M,M,M,M,M,M,M,M,M,M,41.43,KP68 041153Z AUTO 18004KT 07/06 A3007 RMK AO1 SLP148 70015 T00670061 10094 20056 53001 $,M
DRA,2023-09-04 11:53,-116.0278,36.6206,1009.00,64.00,45.00,49.99,30.00,11.00,0.00,29.95,1009.90,10.00,M,CLR,M,M,M,M,M,M,M,M,M,M,M,M,M,M,64.00,KDRA 041153Z AUTO 03011KT 10SM CLR 18/07 A2995 RMK AO2 SLP099 T01780072 10206 20167 51006,M
ELY,2023-09-04 11:53,-114.8453,39.2950,1909.00,47.00,43.00,85.89,250.00,4.00,0.00,30.06,1010.90,10.00,M,OVC,M,M,M,3300.00,M,M,M,M,M,M,M,M,M,M,44.94,KELY 041153Z AUTO 25004KT 10SM OVC033 08/06 A3006 RMK AO2 SLP109 60002 70038 T00830061 10089 20072 51000,M
VGT,2023-09-04 11:53,-115.1933,36.2111,667.00,71.00,48.00,43.98,330.00,12.00,0.00,29.85,1010.00,10.00,M,CLR,M,M,M,M,M,M,M,M,M,M,M,M,M,M,71.00,KVGT 041153Z AUTO 33012KT 10SM CLR 22/09 A2985 RMK AO2 SLP100 T02170089 10261 20217 52005 $,M
LOL,2023-09-04 11:53,-118.5701,40.0684,1192.43,42.00,42.00,100.00,110.00,6.00,0.00,30.05,1016.80,0.25,M,VV ,M,M,M,200.00,M,M,M,FG,M,M,M,M,M,M,37.57,KLOL 041153Z AUTO 11006KT 1/4SM FG VV002 06/06 A3005 RMK AO2 SLP168 70016 T00560056 10117 20056 53002,M
BVU,2023-09-04 11:55,-114.8611,35.9475,671.00,68.00,50.00,52.51,0.00,0.00,0.00,29.85,M,10.00,M,CLR,M,M,M,M,M,M,M,M,M,M,M,M,M,M,68.00,KBVU 041155Z AUTO 00000KT 10SM CLR 20/10 A2985 RMK AO2,M
CXP,2023-09-04 11:55,-119.7326,39.1923,1431.00,42.80,42.80,100.00,0.00,0.00,0.00,30.13,M,10.00,M,CLR,M,M,M,M,M,M,M,M,M,M,M,M,M,M,42.80,KCXP 041155Z AUTO 00000KT 10SM CLR 06/06 A3013 RMK AO2,M
INS,2023-09-04 11:55,-115.6733,36.5872,955.00,62.20,45.30,53.87,310.00,6.00,0.00,29.95,1010.00,10.00,M,CLR,M,M,M,M,M,M,M,M,M,M,M,M,M,M,62.20,KINS 041155Z AUTO 31006KT 10SM CLR 17/07 A2995 RMK AO2 SLP100 T01680074 10226 20164 53005 $,M
RNO,2023-09-04 11:55,-119.7711,39.4839,1341.00,50.00,43.00,76.76,230.00,4.00,0.00,30.11,1016.80,10.00,M,FEW,FEW,M,M,3900.00,10000.00,M,M,M,M,M,M,M,M,M,50.00,KRNO 041155Z 23004KT 10SM FEW039 FEW100 10/06 A3011 RMK AO2 SLP168 70034 T01000061 10139 20089 51002,M
RTS,2023-09-04 11:55,-119.8764,39.6682,1539.00,44.60,41.00,87.09,330.00,8.00,0.00,30.13,M,10.00,M,CLR,M,M,M,M,M,M,M,M,M,M,M,M,M,M,39.63,KRTS 041155Z AUTO 33008KT 10SM CLR 07/05 A3013 RMK AO2,M
MEV,2023-09-04 11:55,-119.7500,38.9963,1441.42,33.80,32.00,93.03,0.00,0.00,0.00,30.12,M,10.00,M,BKN,BKN,M,M,4400.00,5000.00,M,M,M,M,M,M,M,M,M,33.80,KMEV 041155Z AUTO 00000KT 10SM BKN044 BKN050 01/00 A3012 RMK AO2,M
BAM,2023-09-04 11:55,-116.8743,40.5990,1382.36,53.60,50.00,87.56,240.00,9.00,0.00,30.05,M,10.00,M,OVC,M,M,M,4800.00,M,M,M,M,M,M,M,M,M,M,53.60,KBAM 041155Z AUTO 24009KT 10SM OVC048 12/10 A3005 RMK AO1,M
HTH,2023-09-04 11:55,-118.6315,38.5448,1282.89,50.00,50.00,100.00,230.00,4.00,0.00,30.09,M,10.00,M,CLR,M,M,M,M,M,M,M,M,M,M,M,M,M,M,50.00,KHTH 041155Z AUTO 23004KT 10SM CLR 10/10 A3009 RMK A01,M
LSV,2023-09-04 11:55,-115.0343,36.2362,570.00,66.00,48.00,52.22,160.00,7.00,0.00,29.81,1007.20,10.00,M,CLR,M,M,M,M,M,M,M,M,M,M,M,M,M,M,66.00,KLSV 041155Z AUTO 16007KT 10SM CLR 19/09 A2981 RMK AO2 SLP072 70009 T01890088 10261 20189 51005 $,M
10U,2023-09-04 11:55,-116.1876,41.9532,1637.00,50.00,50.00,100.00,230.00,8.00,0.00,30.03,M,10.00,M,FEW,SCT,BKN,M,800.00,1300.00,2900.00,M,M,M,M,M,M,M,M,50.00,K10U 041155Z AUTO 23008KT 10SM FEW008 SCT013 BKN029 10/10 A3003 RMK AO2,M
EKO,2023-09-04 11:56,-115.7860,40.8242,1367.00,52.00,49.00,89.46,220.00,5.00,0.00,30.03,1014.70,10.00,M,OVC,M,M,M,1800.00,M,M,M,M,M,M,M,M,M,M,52.00,KEKO 041156Z AUTO 22005KT 10SM OVC018 11/09 A3003 RMK AO2 SLP147 60000 70037 T01110094 10111 20106 53002,M
WMC,2023-09-04 11:56,-117.8072,40.9019,1315.00,50.00,47.00,89.37,220.00,4.00,0.00,30.05,1015.40,10.00,M,FEW,M,M,M,4400.00,M,M,M,M,M,M,M,M,M,M,50.00,KWMC 041156Z AUTO 22004KT 10SM FEW044 10/08 A3005 RMK AO2 SLP154 70090 T01000083 10122 20100 51006,M
NFL,2023-09-04 11:56,-118.7010,39.4166,1199.00,50.00,46.00,86.06,190.00,4.00,0.00,30.06,1014.70,10.00,M,CLR,M,M,M,M,M,M,M,M,M,M,M,M,M,M,50.00,KNFL 041156Z AUTO 19004KT 10SM CLR 10/08 A3006 RMK AO2 SLP147 70018 T01000078 10122 20100 50001,M
HND,2023-09-04 11:56,-115.1344,35.9729,742.79,66.00,50.00,56.27,190.00,7.00,0.00,29.90,1011.70,10.00,M,CLR,M,M,M,M,M,M,M,M,M,M,M,M,M,M,66.00,KHND 041156Z AUTO 19007KT 10SM CLR 19/10 A2990 RMK AO2 SLP117 T01890100 10239 20189 53002,M
LAS,2023-09-04 11:56,-115.1634,36.0719,663.00,69.00,50.00,50.74,0.00,0.00,0.00,29.87,1009.20,10.00,M,CLR,M,M,M,M,M,M,M,M,M,M,M,M,M,M,69.00,KLAS 041156Z 00000KT 10SM CLR 21/10 A2987 RMK AO2 SLP092 T02060100 10250 20200 53003 $,M
05U,2023-09-04 12:10,-116.0051,39.6042,1811.23,44.60,42.80,93.35,M,M,0.00,30.10,M,10.00,M,OVC,M,M,M,3700.00,M,M,M,M,M,M,M,M,M,M,M,K05U 041210Z AUTO 10SM OVC037 07/06 A3010 RMK A01,M
BVU,2023-09-04 12:15,-114.8611,35.9475,671.00,66.20,50.00,55.88,0.00,0.00,0.00,29.86,M,10.00,M,CLR,M,M,M,M,M,M,M,M,M,M,M,M,M,M,66.20,KBVU 041215Z AUTO 00000KT 10SM CLR 19/10 A2986 RMK AO2,M
CXP,2023-09-04 12:15,-119.7326,39.1923,1431.00,44.60,42.80,93.35,0.00,0.00,0.00,30.14,M,10.00,M,CLR,M,M,M,M,M,M,M,M,M,M,M,M,M,M,44.60,KCXP 041215Z AUTO 00000KT 10SM CLR 07/06 A3014 RMK AO2,M
RTS,2023-09-04 12:15,-119.8764,39.6682,1539.00,42.80,42.80,100.00,340.00,6.00,0.00,30.13,M,10.00,M,CLR,M,M,M,M,M,M,M,M,M,M,M,M,M,M,38.54,KRTS 041215Z AUTO 34006KT 10SM CLR 06/06 A3013 RMK AO2,M
MEV,2023-09-04 12:15,-119.7500,38.9963,1441.42,35.60,33.80,93.08,110.00,4.00,0.00,30.12,M,10.00,M,SCT,SCT,M,M,4500.00,5000.00,M,M,M,M,M,M,M,M,M,31.62,KMEV 041215Z AUTO 11004KT 10SM SCT045 SCT050 02/01 A3012 RMK AO2,M
BAM,2023-09-04 12:15,-116.8743,40.5990,1382.36,53.60,50.00,87.56,240.00,9.00,0.00,30.06,M,10.00,M,BKN,OVC,M,M,4800.00,7500.00,M,M,M,M,M,M,M,M,M,53.60,KBAM 041215Z AUTO 24009KT 10SM BKN048 OVC075 12/10 A3006 RMK AO1,M
HTH,2023-09-04 12:15,-118.6315,38.5448,1282.89,48.20,48.20,100.00,180.00,4.00,0.00,30.09,M,10.00,M,CLR,M,M,M,M,M,M,M,M,M,M,M,M,M,M,46.34,KHTH 041215Z AUTO 18004KT 10SM CLR 09/09 A3009 RMK A01,M
10U,2023-09-04 12:15,-116.1876,41.9532,1637.00,50.00,50.00,100.00,230.00,6.00,0.00,30.03,M,10.00,M,BKN,BKN,OVC,M,1000.00,1400.00,2800.00,M,M,M,M,M,M,M,M,50.00,K10U 041215Z AUTO 23006KT 10SM BKN010 BKN014 OVC028 10/10 A3003 RMK AO2,M
05U,2023-09-04 12:30,-116.0051,39.6042,1811.23,46.40,44.60,93.40,M,M,0.00,30.10,M,10.00,M,OVC,M,M,M,3600.00,M,M,M,M,M,M,M,M,M,M,M,K05U 041230Z AUTO 10SM OVC036 08/07 A3010 RMK A01,M
BVU,2023-09-04 12:35,-114.8611,35.9475,671.00,66.20,50.00,55.88,0.00,0.00,0.00,29.86,M,10.00,M,CLR,M,M,M,M,M,M,M,M,M,M,M,M,M,M,66.20,KBVU 041235Z AUTO 00000KT 10SM CLR 19/10 A2986 RMK AO2,M
CXP,2023-09-04 12:35,-119.7326,39.1923,1431.00,42.80,41.00,93.30,0.00,0.00,0.00,30.13,M,10.00,M,CLR,M,M,M,M,M,M,M,M,M,M,M,M,M,M,42.80,KCXP 041235Z AUTO 00000KT 10SM CLR 06/05 A3013 RMK AO2,M
RTS,2023-09-04 12:35,-119.8764,39.6682,1539.00,44.60,42.80,93.35,350.00,5.00,0.00,30.13,M,10.00,M,CLR,M,M,M,M,M,M,M,M,M,M,M,M,M,M,41.36,KRTS 041235Z AUTO 35005KT 10SM CLR 07/06 A3013 RMK AO2,M
MEV,2023-09-04 12:35,-119.7500,38.9963,1441.42,37.40,35.60,93.14,140.00,3.00,0.00,30.12,M,10.00,M,SCT,SCT,M,M,4300.00,4800.00,M,M,M,M,M,M,M,M,M,34.86,KMEV 041235Z AUTO 14003KT 10SM SCT043 SCT048 03/02 A3012 RMK AO2,M
BAM,2023-09-04 12:35,-116.8743,40.5990,1382.36,51.80,48.20,87.47,240.00,7.00,0.00,30.06,M,10.00,M,SCT,OVC,M,M,4800.00,7500.00,M,M,M,M,M,M,M,M,M,51.80,KBAM 041235Z AUTO 24007KT 10SM SCT048 OVC075 11/09 A3006 RMK AO1,M
HTH,2023-09-04 12:35,-118.6315,38.5448,1282.89,50.00,48.20,93.50,0.00,0.00,0.00,30.09,M,10.00,M,CLR,M,M,M,M,M,M,M,M,M,M,M,M,M,M,50.00,KHTH 041235Z AUTO 00000KT 10SM CLR 10/09 A3009 RMK A01,M
10U,2023-09-04 12:35,-116.1876,41.9532,1637.00,50.00,48.20,93.50,280.00,9.00,0.00,30.04,M,10.00,M,OVC,M,M,M,1100.00,M,M,M,M,M,M,M,M,M,M,50.00,K10U 041235Z AUTO 28009KT 10SM OVC011 10/09 A3004 RMK AO2,M
05U,2023-09-04 12:50,-116.0051,39.6042,1811.23,48.20,44.60,87.28,M,M,0.00,30.11,M,10.00,M,FEW,BKN,OVC,M,2900.00,3600.00,4200.00,M,M,M,M,M,M,M,M,M,K05U 041250Z AUTO 10SM FEW029 BKN036 OVC042 09/07 A3011 RMK A01,M
P68,2023-09-04 12:53,-116.0056,39.6014,1993.00,49.00,44.00,82.79,260.00,8.00,0.00,30.08,1014.30,M,M,M,M,M,M,M,M,M,M,M,M,M,M,M,M,M,45.05,KP68 041253Z AUTO 26008KT 09/07 A3008 RMK AO1 SLP143 T00940067 $,M
DRA,2023-09-04 12:53,-116.0278,36.6206,1009.00,63.00,46.00,53.78,50.00,6.00,0.00,29.96,1010.40,10.00,M,CLR,M,M,M,M,M,M,M,M,M,M,M,M,M,M,63.00,KDRA 041253Z AUTO 05006KT 10SM CLR 17/08 A2996 RMK AO2 SLP104 T01720078,M
ELY,2023-09-04 12:53,-114.8453,39.2950,1909.00,47.00,42.00,82.65,280.00,3.00,0.00,30.07,1012.00,10.00,M,OVC,M,M,M,3100.00,M,M,M,M,M,M,M,M,M,M,45.84,KELY 041253Z AUTO 28003KT 10SM OVC031 08/06 A3007 RMK AO2 SLP120 T00830056,M
VGT,2023-09-04 12:53,-115.1933,36.2111,667.00,71.00,47.00,42.35,340.00,13.00,0.00,29.86,1010.40,10.00,21.00,CLR,M,M,M,M,M,M,M,M,M,M,M,M,M,M,71.00,KVGT 041253Z 34013G21KT 10SM CLR 22/08 A2986 RMK AO2 SLP104 T02170083 $,M
LOL,2023-09-04 12:53,-118.5701,40.0684,1192.43,45.00,45.00,100.00,310.00,3.00,0.00,30.06,1017.10,0.25,M,VV ,M,M,M,200.00,M,M,M,FG,M,M,M,M,M,M,43.55,KLOL 041253Z AUTO 31003KT 1/4SM FG VV002 07/07 A3006 RMK AO2 SLP171 T00720072,M
BVU,2023-09-04 12:55,-114.8611,35.9475,671.00,68.00,50.00,52.51,M,4.00,0.00,29.86,M,10.00,M,CLR,M,M,M,M,M,M,M,M,M,M,M,M,M,M,68.00,KBVU 041255Z AUTO VRB04KT 10SM CLR 20/10 A2986 RMK AO2,M
CXP,2023-09-04 12:55,-119.7326,39.1923,1431.00,42.80,41.00,93.30,0.00,0.00,0.00,30.14,M,10.00,M,CLR,M,M,M,M,M,M,M,M,M,M,M,M,M,M,42.80,KCXP 041255Z AUTO 00000KT 10SM CLR 06/05 A3014 RMK AO2,M
INS,2023-09-04 12:55,-115.6733,36.5872,955.00,60.40,47.30,61.92,0.00,0.00,0.00,29.95,1010.00,10.00,M,CLR,M,M,M,M,M,M,M,M,M,M,M,M,M,M,60.40,KINS 041255Z AUTO 00000KT 10SM CLR 16/09 A2995 RMK AO2 SLP100 T01580085 $,M
RNO,2023-09-04 12:55,-119.7711,39.4839,1341.00,47.00,44.00,89.24,0.00,0.00,0.00,30.11,1016.70,10.00,M,FEW,M,M,M,4000.00,M,M,M,M,M,M,M,M,M,M,47.00,KRNO 041255Z 00000KT 10SM FEW040 08/07 A3011 RMK AO2 SLP167 T00830067,M
RTS,2023-09-04 12:55,-119.8764,39.6682,1539.00,42.80,41.00,93.30,330.00,7.00,0.00,30.13,M,10.00,M,CLR,M,M,M,M,M,M,M,M,M,M,M,M,M,M,37.94,KRTS 041255Z AUTO 33007KT 10SM CLR 06/05 A3013 RMK AO2,M
MEV,2023-09-04 12:55,-119.7500,38.9963,1441.42,37.40,35.60,93.14,0.00,0.00,0.00,30.12,M,10.00,M,FEW,SCT,M,M,4100.00,4800.00,M,M,M,M,M,M,M,M,M,37.40,KMEV 041255Z AUTO 00000KT 10SM FEW041 SCT048 03/02 A3012 RMK AO2,M
BAM,2023-09-04 12:55,-116.8743,40.5990,1382.36,51.80,48.20,87.47,240.00,6.00,0.00,30.07,M,10.00,M,SCT,OVC,M,M,4500.00,7500.00,M,M,M,M,M,M,M,M,M,51.80,KBAM 041255Z AUTO 24006KT 10SM SCT045 OVC075 11/09 A3007 RMK AO1,M
HTH,2023-09-04 12:55,-118.6315,38.5448,1282.89,50.00,48.20,93.50,0.00,0.00,0.00,30.09,M,10.00,M,CLR,M,M,M,M,M,M,M,M,M,M,M,M,M,M,50.00,KHTH 041255Z AUTO 00000KT 10SM CLR 10/09 A3009 RMK A01,M
LSV,2023-09-04 12:55,-115.0343,36.2362,570.00,64.80,53.00,65.55,40.00,6.00,0.00,29.83,1008.20,10.00,M,CLR,M,M,M,M,M,M,M,M,M,M,M,M,M,M,64.80,KLSV 041255Z AUTO 04006KT 10SM CLR 18/12 A2983 RMK AO2 SLP082 T01820117 $,M
10U,2023-09-04 12:55,-116.1876,41.9532,1637.00,51.80,50.00,93.55,300.00,8.00,0.00,30.04,M,10.00,14.00,BKN,OVC,M,M,1300.00,1800.00,M,M,M,M,M,M,M,M,M,51.80,K10U 041255Z AUTO 30008G14KT 10SM BKN013 OVC018 11/10 A3004 RMK AO2,M
EKO,2023-09-04 12:56,-115.7860,40.8242,1367.00,52.00,48.00,86.17,240.00,9.00,0.00,30.04,1014.90,10.00,M,BKN,OVC,M,M,1800.00,4200.00,M,M,M,M,M,M,M,M,M,52.00,KEKO 041256Z AUTO 24009KT 10SM BKN018 OVC042 11/09 A3004 RMK AO2 SLP149 T01110089,M
WMC,2023-09-04 12:56,-117.8072,40.9019,1315.00,50.00,47.00,89.37,0.00,0.00,0.00,30.06,1015.80,10.00,M,FEW,OVC,M,M,3700.00,5000.00,M,M,M,M,M,M,M,M,M,50.00,KWMC 041256Z AUTO 00000KT 10SM FEW037 OVC050 10/08 A3006 RMK AO2 SLP158 T01000083,M
NFL,2023-09-04 12:56,-118.7010,39.4166,1199.00,48.00,45.00,89.29,170.00,6.00,0.00,30.07,1014.90,10.00,M,CLR,M,M,M,M,M,M,M,M,M,M,M,M,M,M,44.80,KNFL 041256Z AUTO 17006KT 10SM CLR 09/07 A3007 RMK AO2 SLP149 T00890072,M
HND,2023-09-04 12:56,-115.1344,35.9729,742.79,64.00,51.00,62.62,190.00,7.00,0.00,29.91,1012.20,10.00,M,CLR,M,M,M,M,M,M,M,M,M,M,M,M,M,M,64.00,KHND 041256Z AUTO 19007KT 10SM CLR 18/11 A2991 RMK AO2 SLP122 T01780106,M
LAS,2023-09-04 12:56,-115.1634,36.0719,663.00,68.00,50.00,52.51,170.00,3.00,0.00,29.90,1010.40,10.00,M,CLR,M,M,M,M,M,M,M,M,M,M,M,M,M,M,68.00,KLAS 041256Z 17003KT 10SM CLR 20/10 A2990 RMK AO2 PRESRR SLP104 T02000100 $,M
EKO,2023-09-04 13:10,-115.7860,40.8242,1367.00,52.00,48.00,86.17,250.00,11.00,0.00,30.04,M,10.00,M,SCT,SCT,OVC,M,1800.00,4000.00,6500.00,M,M,M,M,M,M,M,M,52.00,KEKO 041310Z AUTO 25011KT 10SM SCT018 SCT040 OVC065 11/09 A3004 RMK AO2 T01110089,M
BVU,2023-09-04 13:15,-114.8611,35.9475,671.00,68.00,48.20,49.10,0.00,0.00,0.00,29.87,M,10.00,M,CLR,M,M,M,M,M,M,M,M,M,M,M,M,M,M,68.00,KBVU 041315Z AUTO 00000KT 10SM CLR 20/09 A2987 RMK AO2,M
CXP,2023-09-04 13:15,-119.7326,39.1923,1431.00,42.80,41.00,93.30,0.00,0.00,0.00,30.14,M,10.00,M,CLR,M,M,M,M,M,M,M,M,M,M,M,M,M,M,42.80,KCXP 041315Z AUTO 00000KT 10SM CLR 06/05 A3014 RMK AO2,M
RTS,2023-09-04 13:15,-119.8764,39.6682,1539.00,42.80,41.00,93.30,350.00,5.00,0.00,30.14,M,10.00,M,CLR,M,M,M,M,M,M,M,M,M,M,M,M,M,M,39.22,KRTS 041315Z AUTO 35005KT 10SM CLR 06/05 A3014 RMK AO2,M
05U,2023-09-04 13:15,-116.0051,39.6042,1811.23,50.00,44.60,81.61,M,M,0.00,30.11,M,10.00,M,M,M,M,M,M,M,M,M,M,M,M,M,M,M,M,50.00,K05U 041315Z AUTO 10SM 10/07 A3011 RMK A01,M
MEV,2023-09-04 13:15,-119.7500,38.9963,1441.42,35.60,33.80,93.08,0.00,0.00,0.00,30.13,M,10.00,M,CLR,M,M,M,M,M,M,M,M,M,M,M,M,M,M,35.60,KMEV 041315Z AUTO 00000KT 10SM CLR 02/01 A3013 RMK AO2,M
BAM,2023-09-04 13:15,-116.8743,40.5990,1382.36,51.80,50.00,93.55,250.00,8.00,0.00,30.07,M,10.00,M,SCT,OVC,M,M,3800.00,4700.00,M,M,M,M,M,M,M,M,M,51.80,KBAM 041315Z AUTO 25008KT 10SM SCT038 OVC047 11/10 A3007 RMK AO1,M
HTH,2023-09-04 13:15,-118.6315,38.5448,1282.89,50.00,50.00,100.00,0.00,0.00,0.00,30.10,M,10.00,M,CLR,M,M,M,M,M,M,M,M,M,M,M,M,M,M,50.00,KHTH 041315Z AUTO 00000KT 10SM CLR 10/10 A3010 RMK A01,M
10U,2023-09-04 13:15,-116.1876,41.9532,1637.00,51.80,50.00,93.55,280.00,7.00,0.00,30.04,M,10.00,M,FEW,BKN,OVC,M,1000.00,1600.00,2600.00,M,-RA,M,M,M,M,M,M,51.80,K10U 041315Z AUTO 28007KT 10SM -RA FEW010 BKN016 OVC026 11/10 A3004 RMK AO2,M
05U,2023-09-04 13:30,-116.0051,39.6042,1811.23,50.00,42.80,76.18,M,M,0.00,30.12,M,10.00,M,BKN,OVC,M,M,3700.00,4300.00,M,M,M,M,M,M,M,M,M,50.00,K05U 041330Z AUTO 10SM BKN037 OVC043 10/06 A3012 RMK A01,M
LOL,2023-09-04 13:34,-118.5701,40.0684,1192.43,46.00,46.00,100.00,180.00,3.00,0.00,30.07,M,0.25,M,VV ,M,M,M,200.00,M,M,M,FG,M,M,M,M,M,M,44.69,KLOL 041334Z AUTO 18003KT M1/4SM FG VV002 08/08 A3007 RMK AO2 T00780078,M
BVU,2023-09-04 13:35,-114.8611,35.9475,671.00,68.00,48.20,49.10,0.00,0.00,0.00,29.88,M,10.00,M,CLR,M,M,M,M,M,M,M,M,M,M,M,M,M,M,68.00,KBVU 041335Z AUTO 00000KT 10SM CLR 20/09 A2988 RMK AO2,M
CXP,2023-09-04 13:35,-119.7326,39.1923,1431.00,42.80,41.00,93.30,0.00,0.00,0.00,30.14,M,10.00,M,CLR,M,M,M,M,M,M,M,M,M,M,M,M,M,M,42.80,KCXP 041335Z AUTO 00000KT 10SM CLR 06/05 A3014 RMK AO2,M
RTS,2023-09-04 13:35,-119.8764,39.6682,1539.00,42.80,41.00,93.30,340.00,5.00,0.00,30.14,M,10.00,M,CLR,M,M,M,M,M,M,M,M,M,M,M,M,M,M,39.22,KRTS 041335Z AUTO 34005KT 10SM CLR 06/05 A3014 RMK AO2,M
MEV,2023-09-04 13:35,-119.7500,38.9963,1441.42,35.60,33.80,93.08,0.00,0.00,0.00,30.13,M,10.00,M,FEW,M,M,M,4000.00,M,M,M,M,M,M,M,M,M,M,35.60,KMEV 041335Z AUTO 00000KT 10SM FEW040 02/01 A3013 RMK AO2,M
BAM,2023-09-04 13:35,-116.8743,40.5990,1382.36,53.60,50.00,87.56,250.00,8.00,0.00,30.07,M,10.00,M,BKN,OVC,M,M,3800.00,4700.00,M,M,M,M,M,M,M,M,M,53.60,KBAM 041335Z AUTO 25008KT 10SM BKN038 OVC047 12/10 A3007 RMK AO1,M
HTH,2023-09-04 13:35,-118.6315,38.5448,1282.89,48.20,48.20,100.00,0.00,0.00,0.00,30.10,M,10.00,M,CLR,M,M,M,M,M,M,M,M,M,M,M,M,M,M,48.20,KHTH 041335Z AUTO 00000KT 10SM CLR 09/09 A3010 RMK A01,M
10U,2023-09-04 13:35,-116.1876,41.9532,1637.00,51.80,50.00,93.55,280.00,6.00,0.00,30.05,M,7.00,M,BKN,BKN,OVC,M,1100.00,2600.00,3500.00,M,-RA,M,M,M,M,M,M,51.80,K10U 041335Z AUTO 28006KT 7SM -RA BKN011 BKN026 OVC035 11/10 A3005 RMK AO2 LTG DSNT SE,M
EKO,2023-09-04 13:38,-115.7860,40.8242,1367.00,52.00,48.00,86.17,250.00,10.00,0.00,30.05,M,10.00,M,BKN,BKN,OVC,M,1900.00,3900.00,7000.00,M,M,M,M,M,M,M,M,52.00,KEKO 041338Z AUTO 25010KT 10SM BKN019 BKN039 OVC070 11/09 A3005 RMK AO2 T01110089,M
05U,2023-09-04 13:50,-116.0051,39.6042,1811.23,50.00,42.80,76.18,M,M,0.00,30.13,M,10.00,M,BKN,OVC,M,M,3700.00,4300.00,M,M,M,M,M,M,M,M,M,50.00,K05U 041350Z AUTO 10SM BKN037 OVC043 10/06 A3013 RMK A01,M
P68,2023-09-04 13:53,-116.0056,39.6014,1993.00,50.00,44.00,79.76,0.00,0.00,0.00,30.10,1015.00,M,M,M,M,M,M,M,M,M,M,M,M,M,M,M,M,M,50.00,KP68 041353Z AUTO 00000KT 10/07 A3010 RMK AO1 SLP150 T01000067 $,M
DRA,2023-09-04 13:53,-116.0278,36.6206,1009.00,64.00,46.00,51.93,80.00,4.00,0.00,29.97,1010.70,10.00,M,CLR,M,M,M,M,M,M,M,M,M,M,M,M,M,M,64.00,KDRA 041353Z AUTO 08004KT 10SM CLR 18/08 A2997 RMK AO2 SLP107 T01780078,M
ELY,2023-09-04 13:53,-114.8453,39.2950,1909.00,46.00,43.00,89.20,0.00,0.00,0.00,30.08,1014.00,10.00,M,OVC,M,M,M,4200.00,M,M,M,M,M,M,M,M,M,M,46.00,KELY 041353Z AUTO 00000KT 10SM OVC042 08/06 A3008 RMK AO2 SLP140 T00780061,M
VGT,2023-09-04 13:53,-115.1933,36.2111,667.00,70.00,48.00,45.50,340.00,13.00,0.00,29.88,1011.20,10.00,20.00,CLR,M,M,M,M,M,M,M,M,M,M,M,M,M,M,70.00,KVGT 041353Z 34013G20KT 10SM CLR 21/09 A2988 RMK AO2 SLP112 T02110089 $,M
LOL,2023-09-04 13:53,-118.5701,40.0684,1192.43,45.00,45.00,100.00,130.00,5.00,0.00,30.08,1017.50,0.25,M,VV ,M,M,M,200.00,M,M,M,FG,M,M,M,M,M,M,41.83,KLOL 041353Z AUTO 13005KT M1/4SM FG VV002 07/07 A3008 RMK AO2 SLP175 T00720072,M
BVU,2023-09-04 13:55,-114.8611,35.9475,671.00,69.80,46.40,43.13,0.00,0.00,0.00,29.88,M,10.00,M,CLR,M,M,M,M,M,M,M,M,M,M,M,M,M,M,69.80,KBVU 041355Z AUTO 00000KT 10SM CLR 21/08 A2988 RMK AO2,M
CXP,2023-09-04 13:55,-119.7326,39.1923,1431.00,42.80,41.00,93.30,0.00,0.00,0.00,30.14,M,10.00,M,CLR,M,M,M,M,M,M,M,M,M,M,M,M,M,M,42.80,KCXP 041355Z AUTO 00000KT 10SM CLR 06/05 A3014 RMK AO2,M
INS,2023-09-04 13:55,-115.6733,36.5872,955.00,60.30,47.70,63.09,0.00,0.00,0.00,29.97,1010.90,10.00,M,CLR,M,M,M,M,M,M,M,M,M,M,M,M,M,M,60.30,KINS 041355Z AUTO 00000KT 10SM CLR 16/09 A2997 RMK AO2 SLP109 T01570087 $,M
RNO,2023-09-04 13:55,-119.7711,39.4839,1341.00,48.00,43.00,82.72,0.00,0.00,0.00,30.12,1017.20,10.00,M,FEW,FEW,M,M,4000.00,8000.00,M,M,M,M,M,M,M,M,M,48.00,KRNO 041355Z 00000KT 10SM FEW040 FEW080 09/06 A3012 RMK AO2 SLP172 T00890061,M
RTS,2023-09-04 13:55,-119.8764,39.6682,1539.00,42.80,42.80,100.00,340.00,6.00,0.00,30.14,M,10.00,M,CLR,M,M,M,M,M,M,M,M,M,M,M,M,M,M,38.54,KRTS 041355Z AUTO 34006KT 10SM CLR 06/06 A3014 RMK AO2,M
MEV,2023-09-04 13:55,-119.7500,38.9963,1441.42,35.60,33.80,93.08,0.00,0.00,0.00,30.14,M,10.00,M,CLR,M,M,M,M,M,M,M,M,M,M,M,M,M,M,35.60,KMEV 041355Z AUTO 00000KT 10SM CLR 02/01 A3014 RMK AO2,M
BAM,2023-09-04 13:55,-116.8743,40.5990,1382.36,53.60,50.00,87.56,250.00,7.00,0.00,30.08,M,10.00,M,OVC,M,M,M,4200.00,M,M,M,M,M,M,M,M,M,M,53.60,KBAM 041355Z AUTO 25007KT 10SM OVC042 12/10 A3008 RMK AO1,M
HTH,2023-09-04 13:55,-118.6315,38.5448,1282.89,50.00,50.00,100.00,0.00,0.00,0.00,30.11,M,10.00,M,CLR,M,M,M,M,M,M,M,M,M,M,M,M,M,M,50.00,KHTH 041355Z AUTO 00000KT 10SM CLR 10/10 A3011 RMK A01,M
LSV,2023-09-04 13:55,-115.0343,36.2362,570.00,66.00,52.70,62.18,60.00,8.00,0.00,29.85,1009.00,10.00,M,CLR,M,M,M,M,M,M,M,M,M,M,M,M,M,M,66.00,KLSV 041355Z AUTO 06008KT 10SM CLR 19/12 A2985 RMK AO2 SLP090 T01890115 $,M
10U,2023-09-04 13:55,-116.1876,41.9532,1637.00,51.80,50.00,93.55,260.00,5.00,0.00,30.05,M,7.00,M,BKN,BKN,OVC,M,1000.00,3500.00,5000.00,M,-RA,M,M,M,M,M,M,51.80,K10U 041355Z AUTO 26005KT 7SM -RA BKN010 BKN035 OVC050 11/10 A3005 RMK AO2,M
EKO,2023-09-04 13:56,-115.7860,40.8242,1367.00,52.00,48.00,86.17,230.00,7.00,0.00,30.05,1015.40,10.00,M,OVC,M,M,M,1900.00,M,M,M,M,M,M,M,M,M,M,52.00,KEKO 041356Z AUTO 23007KT 10SM OVC019 11/09 A3005 RMK AO2 SLP154 T01110089,M
WMC,2023-09-04 13:56,-117.8072,40.9019,1315.00,50.00,47.00,89.37,180.00,4.00,0.00,30.06,1016.10,10.00,M,FEW,M,M,M,7000.00,M,M,M,M,M,M,M,M,M,M,50.00,KWMC 041356Z AUTO 18004KT 10SM FEW070 10/08 A3006 RMK AO2 SLP161 T01000083,M
NFL,2023-09-04 13:56,-118.7010,39.4166,1199.00,49.00,46.00,89.33,160.00,5.00,0.00,30.08,1015.20,10.00,M,CLR,M,M,M,M,M,M,M,M,M,M,M,M,M,M,46.58,KNFL 041356Z AUTO 16005KT 10SM CLR 09/08 A3008 RMK AO2 SLP152 T00940078,M
HND,2023-09-04 13:56,-115.1344,35.9729,742.79,66.00,50.00,56.27,220.00,8.00,0.00,29.93,1012.80,10.00,M,CLR,M,M,M,M,M,M,M,M,M,M,M,M,M,M,66.00,KHND 041356Z 22008KT 10SM CLR 19/10 A2993 RMK AO2 SLP128 T01890100,M
LAS,2023-09-04 13:56,-115.1634,36.0719,663.00,68.00,51.00,54.50,200.00,5.00,0.00,29.90,1010.30,10.00,M,CLR,M,M,M,M,M,M,M,M,M,M,M,M,M,M,68.00,KLAS 041356Z 20005KT 10SM CLR 20/11 A2990 RMK AO2 SLP103 T02000106 $,M
LOL,2023-09-04 14:09,-118.5701,40.0684,1192.43,46.00,46.00,100.00,0.00,0.00,0.00,30.08,M,0.25,M,VV ,M,M,M,200.00,M,M,M,FG,M,M,M,M,M,M,46.00,KLOL 041409Z AUTO 00000KT 1/4SM FG VV002 08/08 A3008 RMK AO2 T00780078,M
05U,2023-09-04 14:10,-116.0051,39.6042,1811.23,50.00,44.60,81.61,M,M,0.00,30.13,M,10.00,M,BKN,OVC,M,M,3300.00,3900.00,M,M,M,M,M,M,M,M,M,50.00,K05U 041410Z AUTO 10SM BKN033 OVC039 10/07 A3013 RMK A01,M
BVU,2023-09-04 14:15,-114.8611,35.9475,671.00,69.80,48.20,46.16,M,3.00,0.00,29.89,M,10.00,M,CLR,M,M,M,M,M,M,M,M,M,M,M,M,M,M,69.80,KBVU 041415Z AUTO VRB03KT 10SM CLR 21/09 A2989 RMK AO2,M
CXP,2023-09-04 14:15,-119.7326,39.1923,1431.00,44.60,42.80,93.35,0.00,0.00,0.00,30.16,M,10.00,M,CLR,M,M,M,M,M,M,M,M,M,M,M,M,M,M,44.60,KCXP 041415Z AUTO 00000KT 10SM CLR 07/06 A3016 RMK AO2,M
RTS,2023-09-04 14:15,-119.8764,39.6682,1539.00,46.40,42.80,87.19,300.00,3.00,0.00,30.14,M,10.00,M,CLR,M,M,M,M,M,M,M,M,M,M,M,M,M,M,45.15,KRTS 041415Z AUTO 30003KT 10SM CLR 08/06 A3014 RMK AO2,M
MEV,2023-09-04 14:15,-119.7500,38.9963,1441.42,37.40,35.60,93.14,100.00,4.00,0.00,30.14,M,10.00,M,CLR,M,M,M,M,M,M,M,M,M,M,M,M,M,M,33.73,KMEV 041415Z AUTO 10004KT 10SM CLR 03/02 A3014 RMK AO2,M
BAM,2023-09-04 14:15,-116.8743,40.5990,1382.36,53.60,50.00,87.56,240.00,7.00,0.00,30.08,M,10.00,M,OVC,M,M,M,4400.00,M,M,M,M,M,M,M,M,M,M,53.60,KBAM 041415Z AUTO 24007KT 10SM OVC044 12/10 A3008 RMK AO1,M
HTH,2023-09-04 14:15,-118.6315,38.5448,1282.89,50.00,50.00,100.00,0.00,0.00,0.00,30.12,M,10.00,M,CLR,M,M,M,M,M,M,M,M,M,M,M,M,M,M,50.00,KHTH 041415Z AUTO 00000KT 10SM CLR 10/10 A3012 RMK A01,M
10U,2023-09-04 14:15,-116.1876,41.9532,1637.00,50.00,50.00,100.00,240.00,3.00,0.00,30.06,M,7.00,M,BKN,BKN,OVC,M,1000.00,3600.00,5500.00,M,-RA,M,M,M,M,M,M,50.00,K10U 041415Z AUTO 24003KT 7SM -RA BKN010 BKN036 OVC055 10/10 A3006 RMK AO2,M
LOL,2023-09-04 14:23,-118.5701,40.0684,1192.43,47.00,47.00,100.00,0.00,0.00,0.00,30.08,M,0.25,M,VV ,M,M,M,200.00,M,M,M,FG,M,M,M,M,M,M,47.00,KLOL 041423Z AUTO 00000KT M1/4SM FG VV002 08/08 A3008 RMK AO2 T00830083,M
BVU,2023-09-04 14:35,-114.8611,35.9475,671.00,69.80,48.20,46.16,330.00,7.00,0.00,29.89,M,10.00,M,CLR,M,M,M,M,M,M,M,M,M,M,M,M,M,M,69.80,KBVU 041435Z AUTO 33007KT 10SM CLR 21/09 A2989 RMK AO2,M
CXP,2023-09-04 14:35,-119.7326,39.1923,1431.00,46.40,42.80,87.19,0.00,0.00,0.00,30.16,M,10.00,M,CLR,M,M,M,M,M,M,M,M,M,M,M,M,M,M,46.40,KCXP 041435Z AUTO 00000KT 10SM CLR 08/06 A3016 RMK AO2,M
RTS,2023-09-04 14:35,-119.8764,39.6682,1539.00,46.40,44.60,93.40,0.00,0.00,0.00,30.14,M,10.00,M,CLR,M,M,M,M,M,M,M,M,M,M,M,M,M,M,46.40,KRTS 041435Z AUTO 00000KT 10SM CLR 08/07 A3014 RMK AO2,M
05U,2023-09-04 14:35,-116.0051,39.6042,1811.23,50.00,44.60,81.61,M,M,0.00,30.14,M,10.00,M,SCT,OVC,M,M,2200.00,3200.00,M,M,M,M,M,M,M,M,M,50.00,K05U 041435Z AUTO 10SM SCT022 OVC032 10/07 A3014 RMK A01,M
MEV,2023-09-04 14:35,-119.7500,38.9963,1441.42,42.80,39.20,86.99,0.00,0.00,0.00,30.15,M,10.00,M,CLR,M,M,M,M,M,M,M,M,M,M,M,M,M,M,42.80,KMEV 041435Z AUTO 00000KT 10SM CLR 06/04 A3015 RMK AO2,M
BAM,2023-09-04 14:35,-116.8743,40.5990,1382.36,53.60,50.00,87.56,250.00,8.00,0.00,30.08,M,10.00,M,OVC,M,M,M,4400.00,M,M,M,M,M,M,M,M,M,M,53.60,KBAM 041435Z AUTO 25008KT 10SM OVC044 12/10 A3008 RMK AO1,M
HTH,2023-09-04 14:35,-118.6315,38.5448,1282.89,51.80,50.00,93.55,0.00,0.00,0.00,30.12,M,10.00,M,CLR,M,M,M,M,M,M,M,M,M,M,M,M,M,M,51.80,KHTH 041435Z AUTO 00000KT 10SM CLR 11/10 A3012 RMK A01,M
10U,2023-09-04 14:35,-116.1876,41.9532,1637.00,50.00,50.00,100.00,270.00,6.00,0.00,30.06,M,10.00,M,BKN,OVC,M,M,800.00,1200.00,M,M,M,M,M,M,M,M,M,50.00,K10U 041435Z AUTO 27006KT 10SM BKN008 OVC012 10/10 A3006 RMK AO2,M
LOL,2023-09-04 14:37,-118.5701,40.0684,1192.43,47.00,47.00,100.00,0.00,0.00,0.00,30.08,M,0.25,M,VV ,M,M,M,200.00,M,M,M,FG,M,M,M,M,M,M,47.00,KLOL 041437Z AUTO 00000KT 1/4SM FG VV002 08/08 A3008 RMK AO2 T00830083,M
LOL,2023-09-04 14:49,-118.5701,40.0684,1192.43,48.20,48.20,100.00,0.00,0.00,0.00,30.08,M,0.25,M,VV ,M,M,M,200.00,M,M,M,FG,M,M,M,M,M,M,48.20,KLOL 041449Z AUTO 00000KT M1/4SM FG VV002 09/09 A3008 RMK AO2,M
05U,2023-09-04 14:50,-116.0051,39.6042,1811.23,50.00,44.60,81.61,M,M,0.00,30.14,M,10.00,M,BKN,BKN,OVC,M,3300.00,3800.00,4900.00,M,M,M,M,M,M,M,M,50.00,K05U 041450Z AUTO 10SM BKN033 BKN038 OVC049 10/07 A3014 RMK A01,M
P68,2023-09-04 14:53,-116.0056,39.6014,1993.00,50.00,44.00,79.76,220.00,3.00,0.00,30.12,1015.60,M,M,M,M,M,M,M,M,M,M,M,M,M,M,M,M,M,50.00,KP68 041453Z AUTO 22003KT 10/07 A3012 RMK AO1 SLP156 T01000067 53012 $,M
DRA,2023-09-04 14:53,-116.0278,36.6206,1009.00,67.00,46.00,46.78,40.00,5.00,0.00,29.98,1011.00,10.00,M,CLR,M,M,M,M,M,M,M,M,M,M,M,M,M,M,67.00,KDRA 041453Z AUTO 04005KT 10SM CLR 19/08 A2998 RMK AO2 SLP110 T01940078 51009,M
ELY,2023-09-04 14:53,-114.8453,39.2950,1909.00,48.00,44.00,85.95,290.00,7.00,0.00,30.10,1014.10,10.00,M,FEW,OVC,M,M,3000.00,4000.00,M,M,M,M,M,M,M,M,M,44.28,KELY 041453Z AUTO 29007KT 10SM FEW030 OVC040 09/07 A3010 RMK AO2 SLP141 T00890067 53009,M
VGT,2023-09-04 14:53,-115.1933,36.2111,667.00,72.00,49.00,44.13,340.00,13.00,0.00,29.90,1011.80,10.00,19.00,CLR,M,M,M,M,M,M,M,M,M,M,M,M,M,M,72.00,KVGT 041453Z 34013G19KT 10SM CLR 22/09 A2990 RMK AO2 SLP118 T02220094 53015 $,M
LOL,2023-09-04 14:53,-118.5701,40.0684,1192.43,48.00,48.00,100.00,320.00,3.00,0.00,30.09,1017.70,0.25,M,VV ,M,M,M,200.00,M,M,M,FG,M,M,M,M,M,M,46.98,KLOL 041453Z AUTO 32003KT M1/4SM FG VV002 09/09 A3009 RMK AO2 SLP177 T00890089 51007,M
BVU,2023-09-04 14:55,-114.8611,35.9475,671.00,71.60,48.20,43.42,320.00,10.00,0.00,29.89,M,10.00,M,CLR,M,M,M,M,M,M,M,M,M,M,M,M,M,M,71.60,KBVU 041455Z AUTO 32010KT 10SM CLR 22/09 A2989 RMK AO2,M
CXP,2023-09-04 14:55,-119.7326,39.1923,1431.00,48.20,41.00,76.01,0.00,0.00,0.00,30.16,M,10.00,M,CLR,M,M,M,M,M,M,M,M,M,M,M,M,M,M,48.20,KCXP 041455Z AUTO 00000KT 10SM CLR 09/05 A3016 RMK AO2,M
INS,2023-09-04 14:55,-115.6733,36.5872,955.00,64.80,46.20,50.88,0.00,0.00,0.00,29.98,1011.20,10.00,M,CLR,M,M,M,M,M,M,M,M,M,M,M,M,M,M,64.80,KINS 041455Z AUTO 00000KT 10SM CLR 18/08 A2998 RMK AO2 SLP112 T01820079 52009 $,M
RNO,2023-09-04 14:55,-119.7711,39.4839,1341.00,50.00,44.00,79.76,150.00,4.00,0.00,30.13,1017.60,10.00,M,FEW,FEW,M,M,3800.00,10000.00,M,M,M,M,M,M,M,M,M,50.00,KRNO 041455Z 15004KT 10SM FEW038 FEW100 10/07 A3013 RMK AO2 SLP176 MTN TOP OBSCD DSNT NW T01000067 53007,M
RTS,2023-09-04 14:55,-119.8764,39.6682,1539.00,48.20,44.60,87.28,0.00,0.00,0.00,30.14,M,10.00,M,CLR,M,M,M,M,M,M,M,M,M,M,M,M,M,M,48.20,KRTS 041455Z AUTO 00000KT 10SM CLR 09/07 A3014 RMK AO2,M
MEV,2023-09-04 14:55,-119.7500,38.9963,1441.42,46.40,41.00,81.34,120.00,3.00,0.00,30.14,M,10.00,M,CLR,M,M,M,M,M,M,M,M,M,M,M,M,M,M,45.15,KMEV 041455Z AUTO 12003KT 10SM CLR 08/05 A3014 RMK AO2,M
HTH,2023-09-04 14:55,-118.6315,38.5448,1282.89,53.60,50.00,87.56,0.00,0.00,0.00,30.12,M,10.00,M,CLR,M,M,M,M,M,M,M,M,M,M,M,M,M,M,53.60,KHTH 041455Z AUTO 00000KT 10SM CLR 12/10 A3012 RMK A01,M
LSV,2023-09-04 14:55,-115.0343,36.2362,570.00,71.80,53.20,51.91,70.00,5.00,0.00,29.87,1009.50,10.00,M,CLR,M,M,M,M,M,M,M,M,M,M,M,M,M,M,71.80,KLSV 041455Z AUTO 07005KT 10SM CLR 22/12 A2987 RMK AO2 SLP095 T02210118 52017 $,M
BAM,2023-09-04 14:55,-116.8743,40.5990,1382.36,55.40,50.00,81.99,250.00,8.00,0.00,30.08,M,10.00,M,OVC,M,M,M,4200.00,M,M,M,M,M,M,M,M,M,M,55.40,KBAM 041455Z AUTO 25008KT 10SM OVC042 13/10 A3008 RMK AO1,M
10U,2023-09-04 14:55,-116.1876,41.9532,1637.00,51.80,50.00,93.55,260.00,6.00,0.00,30.07,M,10.00,M,OVC,M,M,M,900.00,M,M,M,M,M,M,M,M,M,M,51.80,K10U 041455Z AUTO 26006KT 10SM OVC009 11/10 A3007 RMK AO2,M
EKO,2023-09-04 14:56,-115.7860,40.8242,1367.00,54.00,49.00,83.13,250.00,7.00,0.00,30.06,1015.70,10.00,M,BKN,BKN,M,M,1900.00,2500.00,M,M,M,M,M,M,M,M,M,54.00,KEKO 041456Z AUTO 25007KT 10SM BKN019 BKN025 12/09 A3006 RMK AO2 SLP157 T01220094 53009,M
WMC,2023-09-04 14:56,-117.8072,40.9019,1315.00,55.00,50.00,83.20,180.00,5.00,0.00,30.07,1015.90,10.00,M,CLR,M,M,M,M,M,M,M,M,M,M,M,M,M,M,55.00,KWMC 041456Z AUTO 18005KT 10SM CLR 13/10 A3007 RMK AO2 SLP159 T01280100 51006,M
NFL,2023-09-04 14:56,-118.7010,39.4166,1199.00,54.00,50.00,86.29,160.00,5.00,0.00,30.09,1015.80,10.00,M,CLR,M,M,M,M,M,M,M,M,M,M,M,M,M,M,54.00,KNFL 041456Z AUTO 16005KT 10SM CLR 12/10 A3009 RMK AO2 SLP158 T01220100 53011,M
HND,2023-09-04 14:56,-115.1344,35.9729,742.79,69.00,51.00,52.66,190.00,5.00,0.00,29.95,1013.30,10.00,M,CLR,M,M,M,M,M,M,M,M,M,M,M,M,M,M,69.00,KHND 041456Z 19005KT 10SM CLR 21/11 A2995 RMK AO2 SLP133 T02060106 53014,M
LAS,2023-09-04 14:56,-115.1634,36.0719,663.00,73.00,47.00,39.58,20.00,9.00,0.00,29.91,1010.60,10.00,M,CLR,M,M,M,M,M,M,M,M,M,M,M,M,M,M,73.00,KLAS 041456Z 02009KT 10SM CLR 23/08 A2991 RMK AO2 SLP106 T02280083 51013 $,M
BVU,2023-09-04 15:15,-114.8611,35.9475,671.00,71.60,48.20,43.42,330.00,12.00,0.00,29.90,M,10.00,M,CLR,M,M,M,M,M,M,M,M,M,M,M,M,M,M,71.60,KBVU 041515Z AUTO 33012KT 10SM CLR 22/09 A2990 RMK AO2,M
CXP,2023-09-04 15:15,-119.7326,39.1923,1431.00,50.00,41.00,71.07,0.00,0.00,0.00,30.16,M,10.00,M,CLR,M,M,M,M,M,M,M,M,M,M,M,M,M,M,50.00,KCXP 041515Z AUTO 00000KT 10SM CLR 10/05 A3016 RMK AO2,M
RTS,2023-09-04 15:15,-119.8764,39.6682,1539.00,51.80,46.40,81.74,0.00,0.00,0.00,30.14,M,10.00,M,CLR,M,M,M,M,M,M,M,M,M,M,M,M,M,M,51.80,KRTS 041515Z AUTO 00000KT 10SM CLR 11/08 A3014 RMK AO2,M
05U,2023-09-04 15:15,-116.0051,39.6042,1811.23,50.00,44.60,81.61,M,M,0.00,30.15,M,10.00,M,FEW,BKN,OVC,M,3500.00,5000.00,5500.00,M,M,M,M,M,M,M,M,50.00,K05U 041515Z AUTO 10SM FEW035 BKN050 OVC055 10/07 A3015 RMK A01,M
MEV,2023-09-04 15:15,-119.7500,38.9963,1441.42,50.00,39.20,66.27,0.00,0.00,0.00,30.15,M,10.00,M,CLR,M,M,M,M,M,M,M,M,M,M,M,M,M,M,50.00,KMEV 041515Z AUTO 00000KT 10SM CLR 10/04 A3015 RMK AO2,M
BAM,2023-09-04 15:15,-116.8743,40.5990,1382.36,55.40,50.00,81.99,250.00,8.00,0.00,30.09,M,10.00,M,OVC,M,M,M,4200.00,M,M,M,M,M,M,M,M,M,M,55.40,KBAM 041515Z AUTO 25008KT 10SM OVC042 13/10 A3009 RMK AO1,M
HTH,2023-09-04 15:15,-118.6315,38.5448,1282.89,53.60,50.00,87.56,0.00,0.00,0.00,30.13,M,10.00,M,CLR,M,M,M,M,M,M,M,M,M,M,M,M,M,M,53.60,KHTH 041515Z AUTO 00000KT 10SM CLR 12/10 A3013 RMK A01,M
10U,2023-09-04 15:15,-116.1876,41.9532,1637.00,51.80,50.00,93.55,260.00,6.00,0.00,30.07,M,10.00,M,BKN,OVC,M,M,1000.00,1400.00,M,M,M,M,M,M,M,M,M,51.80,K10U 041515Z AUTO 26006KT 10SM BKN010 OVC014 11/10 A3007 RMK AO2,M
05U,2023-09-04 15:30,-116.0051,39.6042,1811.23,50.00,44.60,81.61,M,M,0.00,30.14,M,10.00,M,FEW,OVC,M,M,3300.00,5000.00,M,M,M,M,M,M,M,M,M,50.00,K05U 041530Z AUTO 10SM FEW033 OVC050 10/07 A3014 RMK A01,M
EKO,2023-09-04 15:33,-115.7860,40.8242,1367.00,55.00,48.00,77.21,250.00,9.00,0.00,30.07,M,10.00,M,SCT,BKN,M,M,2000.00,3100.00,M,M,M,M,M,M,M,M,M,55.00,KEKO 041533Z AUTO 25009KT 10SM SCT020 BKN031 13/09 A3007 RMK AO2 T01280089,M
BVU,2023-09-04 15:35,-114.8611,35.9475,671.00,73.40,50.00,43.69,320.00,8.00,0.00,29.90,M,10.00,M,CLR,M,M,M,M,M,M,M,M,M,M,M,M,M,M,73.40,KBVU 041535Z AUTO 32008KT 10SM CLR 23/10 A2990 RMK AO2,M
CXP,2023-09-04 15:35,-119.7326,39.1923,1431.00,51.80,41.00,66.48,180.00,3.00,0.00,30.15,M,10.00,M,CLR,M,M,M,M,M,M,M,M,M,M,M,M,M,M,51.80,KCXP 041535Z AUTO 18003KT 10SM CLR 11/05 A3015 RMK AO2,M
RTS,2023-09-04 15:35,-119.8764,39.6682,1539.00,53.60,46.40,76.50,0.00,0.00,0.00,30.14,M,10.00,M,CLR,M,M,M,M,M,M,M,M,M,M,M,M,M,M,53.60,KRTS 041535Z AUTO 00000KT 10SM CLR 12/08 A3014 RMK AO2,M
MEV,2023-09-04 15:35,-119.7500,38.9963,1441.42,50.00,39.20,66.27,230.00,4.00,0.00,30.14,M,10.00,M,CLR,M,M,M,M,M,M,M,M,M,M,M,M,M,M,50.00,KMEV 041535Z AUTO 23004KT 10SM CLR 10/04 A3014 RMK AO2,M
BAM,2023-09-04 15:35,-116.8743,40.5990,1382.36,55.40,50.00,81.99,240.00,8.00,0.00,30.09,M,10.00,M,SCT,OVC,M,M,3700.00,4400.00,M,M,M,M,M,M,M,M,M,55.40,KBAM 041535Z AUTO 24008KT 10SM SCT037 OVC044 13/10 A3009 RMK AO1,M
HTH,2023-09-04 15:35,-118.6315,38.5448,1282.89,55.40,50.00,81.99,0.00,0.00,0.00,30.12,M,10.00,M,CLR,M,M,M,M,M,M,M,M,M,M,M,M,M,M,55.40,KHTH 041535Z AUTO 00000KT 10SM CLR 13/10 A3012 RMK A01,M
10U,2023-09-04 15:35,-116.1876,41.9532,1637.00,51.80,50.00,93.55,260.00,7.00,0.00,30.07,M,10.00,M,BKN,BKN,OVC,M,1100.00,1800.00,7000.00,M,M,M,M,M,M,M,M,51.80,K10U 041535Z AUTO 26007KT 10SM BKN011 BKN018 OVC070 11/10 A3007 RMK AO2,M
P68,2023-09-04 15:53,-116.0056,39.6014,1993.00,51.00,45.00,79.84,210.00,6.00,0.00,30.12,1015.70,M,M,M,M,M,M,M,M,M,M,M,M,M,M,M,M,M,51.00,KP68 041553Z AUTO 21006KT 11/07 A3012 RMK AO1 SLP157 T01060072 $,M
DRA,2023-09-04 15:53,-116.0278,36.6206,1009.00,70.00,45.00,40.63,20.00,10.00,0.00,29.98,1011.30,10.00,M,CLR,M,M,M,M,M,M,M,M,M,M,M,M,M,M,70.00,KDRA 041553Z AUTO 02010KT 10SM CLR 21/07 A2998 RMK AO2 SLP113 T02110072,M
ELY,2023-09-04 15:53,-114.8453,39.2950,1909.00,50.00,45.00,82.86,310.00,5.00,0.00,30.12,1014.90,10.00,M,BKN,OVC,M,M,4000.00,4900.00,M,M,M,M,M,M,M,M,M,50.00,KELY 041553Z AUTO 31005KT 10SM BKN040 OVC049 10/07 A3012 RMK AO2 SLP149 T01000072,M
VGT,2023-09-04 15:53,-115.1933,36.2111,667.00,76.00,48.00,37.17,340.00,12.00,0.00,29.90,1012.00,10.00,M,CLR,M,M,M,M,M,M,M,M,M,M,M,M,M,M,76.00,KVGT 041553Z 34012KT 10SM CLR 24/09 A2990 RMK AO2 SLP120 T02440089 $,M
LOL,2023-09-04 15:53,-118.5701,40.0684,1192.43,50.00,50.00,100.00,170.00,5.00,0.00,30.09,1017.90,0.25,M,VV ,M,M,M,200.00,M,M,M,FG,M,M,M,M,M,M,50.00,KLOL 041553Z AUTO 17005KT 1/4SM FG VV002 10/10 A3009 RMK AO2 SLP179 T01000100,M
BVU,2023-09-04 15:55,-114.8611,35.9475,671.00,73.40,48.20,40.85,320.00,11.00,0.00,29.90,M,10.00,M,CLR,M,M,M,M,M,M,M,M,M,M,M,M,M,M,73.40,KBVU 041555Z AUTO 32011KT 10SM CLR 23/09 A2990 RMK AO2,M
CXP,2023-09-04 15:55,-119.7326,39.1923,1431.00,51.80,41.00,66.48,0.00,0.00,0.00,30.16,M,10.00,M,CLR,M,M,M,M,M,M,M,M,M,M,M,M,M,M,51.80,KCXP 041555Z AUTO 00000KT 10SM CLR 11/05 A3016 RMK AO2,M
INS,2023-09-04 15:55,-115.6733,36.5872,955.00,69.00,45.00,42.04,0.00,0.00,0.00,29.98,1011.10,10.00,M,CLR,M,M,M,M,M,M,M,M,M,M,M,M,M,M,69.00,KINS 041555Z AUTO 00000KT 10SM CLR 21/07 A2998 RMK AO2 SLP111 T02060072 $,M
RNO,2023-09-04 15:55,-119.7711,39.4839,1341.00,56.00,44.00,63.99,0.00,0.00,0.00,30.12,1017.00,10.00,M,FEW,FEW,M,M,3800.00,9000.00,M,M,M,M,M,M,M,M,M,56.00,KRNO 041555Z 00000KT 10SM FEW038 FEW090 13/07 A3012 RMK AO2 SLP170 MTN TOPS OBSCD DSNT SW AND NW T01330067,M
RTS,2023-09-04 15:55,-119.8764,39.6682,1539.00,53.60,46.40,76.50,M,4.00,0.00,30.14,M,10.00,M,CLR,M,M,M,M,M,M,M,M,M,M,M,M,M,M,53.60,KRTS 041555Z AUTO VRB04KT 10SM CLR 12/08 A3014 RMK AO2,M
05U,2023-09-04 15:55,-116.0051,39.6042,1811.23,51.80,44.60,76.34,M,M,0.00,30.15,M,10.00,M,OVC,M,M,M,6000.00,M,M,M,M,M,M,M,M,M,M,51.80,K05U 041555Z AUTO 10SM OVC060 11/07 A3015 RMK A01,M
MEV,2023-09-04 15:55,-119.7500,38.9963,1441.42,51.80,41.00,66.48,230.00,4.00,0.00,30.14,M,10.00,M,CLR,M,M,M,M,M,M,M,M,M,M,M,M,M,M,51.80,KMEV 041555Z AUTO 23004KT 10SM CLR 11/05 A3014 RMK AO2,M
BAM,2023-09-04 15:55,-116.8743,40.5990,1382.36,59.00,51.80,76.98,240.00,10.00,0.00,30.09,M,10.00,M,BKN,OVC,M,M,4400.00,7000.00,M,M,M,M,M,M,M,M,M,59.00,KBAM 041555Z AUTO 24010KT 10SM BKN044 OVC070 15/11 A3009 RMK AO1,M
HTH,2023-09-04 15:55,-118.6315,38.5448,1282.89,55.40,50.00,81.99,0.00,0.00,0.00,30.13,M,10.00,M,CLR,M,M,M,M,M,M,M,M,M,M,M,M,M,M,55.40,KHTH 041555Z AUTO 00000KT 10SM CLR 13/10 A3013 RMK A01,M
LSV,2023-09-04 15:55,-115.0343,36.2362,570.00,76.60,50.50,40.00,100.00,3.00,0.00,29.87,1009.40,10.00,M,CLR,M,M,M,M,M,M,M,M,M,M,M,M,M,M,76.60,KLSV 041555Z AUTO 10003KT 10SM CLR 25/10 A2987 RMK AO2 SLP094 T02480103 $,M
10U,2023-09-04 15:55,-116.1876,41.9532,1637.00,51.80,50.00,93.55,260.00,6.00,0.00,30.08,M,10.00,M,BKN,OVC,M,M,1100.00,1700.00,M,M,M,M,M,M,M,M,M,51.80,K10U 041555Z AUTO 26006KT 10SM BKN011 OVC017 11/10 A3008 RMK AO2,M
EKO,2023-09-04 15:56,-115.7860,40.8242,1367.00,55.00,47.00,74.36,270.00,11.00,0.00,30.08,1015.90,10.00,M,SCT,SCT,OVC,M,2000.00,3100.00,3900.00,M,M,M,M,M,M,M,M,55.00,KEKO 041556Z AUTO 27011KT 10SM SCT020 SCT031 OVC039 13/08 A3008 RMK AO2 SLP159 T01280083,M
WMC,2023-09-04 15:56,-117.8072,40.9019,1315.00,58.00,49.00,71.91,0.00,0.00,0.00,30.08,1016.00,10.00,M,FEW,M,M,M,4400.00,M,M,M,M,M,M,M,M,M,M,58.00,KWMC 041556Z AUTO 00000KT 10SM FEW044 14/09 A3008 RMK AO2 SLP160 T01440094,M
NFL,2023-09-04 15:56,-118.7010,39.4166,1199.00,59.00,49.00,69.38,180.00,4.00,0.00,30.09,1015.80,10.00,M,CLR,M,M,M,M,M,M,M,M,M,M,M,M,M,M,59.00,KNFL 041556Z AUTO 18004KT 10SM CLR 15/09 A3009 RMK AO2 SLP158 T01500094,M
HND,2023-09-04 15:56,-115.1344,35.9729,742.79,74.00,48.00,39.74,360.00,9.00,0.00,29.95,1013.20,10.00,M,CLR,M,M,M,M,M,M,M,M,M,M,M,M,M,M,74.00,KHND 041556Z 36009KT 10SM CLR 23/09 A2995 RMK AO2 SLP132 T02330089,M
LAS,2023-09-04 15:56,-115.1634,36.0719,663.00,75.00,48.00,38.43,300.00,4.00,0.00,29.92,1010.80,10.00,M,CLR,M,M,M,M,M,M,M,M,M,M,M,M,M,M,75.00,KLAS 041556Z 30004KT 10SM CLR 24/09 A2992 RMK AO2 SLP108 T02390089 $,M
05U,2023-09-04 16:10,-116.0051,39.6042,1811.23,51.80,44.60,76.34,M,M,0.00,30.15,M,10.00,M,OVC,M,M,M,6000.00,M,M,M,M,M,M,M,M,M,M,51.80,K05U 041610Z AUTO 10SM OVC060 11/07 A3015 RMK A01,M
BVU,2023-09-04 16:15,-114.8611,35.9475,671.00,75.20,48.20,38.46,330.00,7.00,0.00,29.91,M,10.00,M,CLR,M,M,M,M,M,M,M,M,M,M,M,M,M,M,75.20,KBVU 041615Z AUTO 33007KT 10SM CLR 24/09 A2991 RMK AO2,M
CXP,2023-09-04 16:15,-119.7326,39.1923,1431.00,53.60,41.00,62.23,M,3.00,0.00,30.15,M,10.00,M,CLR,M,M,M,M,M,M,M,M,M,M,M,M,M,M,53.60,KCXP 041615Z AUTO VRB03KT 10SM CLR 12/05 A3015 RMK AO2,M
RTS,2023-09-04 16:15,-119.8764,39.6682,1539.00,55.40,44.60,66.91,0.00,0.00,0.00,30.14,M,10.00,M,CLR,M,M,M,M,M,M,M,M,M,M,M,M,M,M,55.40,KRTS 041615Z AUTO 00000KT 10SM CLR 13/07 A3014 RMK AO2,M
MEV,2023-09-04 16:15,-119.7500,38.9963,1441.42,53.60,41.00,62.23,0.00,0.00,0.00,30.14,M,10.00,M,CLR,M,M,M,M,M,M,M,M,M,M,M,M,M,M,53.60,KMEV 041615Z AUTO 00000KT 10SM CLR 12/05 A3014 RMK AO2,M
BAM,2023-09-04 16:15,-116.8743,40.5990,1382.36,59.00,51.80,76.98,230.00,9.00,0.00,30.09,M,10.00,M,SCT,OVC,M,M,4400.00,7000.00,M,M,M,M,M,M,M,M,M,59.00,KBAM 041615Z AUTO 23009KT 10SM SCT044 OVC070 15/11 A3009 RMK AO1,M
HTH,2023-09-04 16:15,-118.6315,38.5448,1282.89,57.20,50.00,76.82,300.00,4.00,0.00,30.13,M,10.00,M,CLR,M,M,M,M,M,M,M,M,M,M,M,M,M,M,57.20,KHTH 041615Z AUTO 30004KT 10SM CLR 14/10 A3013 RMK A01,M
10U,2023-09-04 16:15,-116.1876,41.9532,1637.00,53.60,50.00,87.56,270.00,6.00,0.00,30.08,M,10.00,M,SCT,BKN,OVC,M,1100.00,1800.00,2200.00,M,M,M,M,M,M,M,M,53.60,K10U 041615Z AUTO 27006KT 10SM SCT011 BKN018 OVC022 12/10 A3008 RMK AO2,M
LOL,2023-09-04 16:18,-118.5701,40.0684,1192.43,51.00,51.00,100.00,0.00,0.00,0.00,30.09,M,1.00,M,OVC,M,M,M,200.00,M,M,M,BR,M,M,M,M,M,M,51.00,KLOL 041618Z AUTO 00000KT 1SM BR OVC002 11/11 A3009 RMK AO2 T01060106,M
LOL,2023-09-04 16:27,-118.5701,40.0684,1192.43,51.00,51.00,100.00,0.00,0.00,0.00,30.10,M,3.00,M,OVC,M,M,M,200.00,M,M,M,BR,M,M,M,M,M,M,51.00,KLOL 041627Z AUTO 00000KT 3SM BR OVC002 11/11 A3010 RMK AO2 T01060106,M
ELY,2023-09-04 16:29,-114.8453,39.2950,1909.00,50.00,45.00,82.86,290.00,6.00,0.00,30.14,M,10.00,M,BKN,OVC,M,M,2400.00,3000.00,M,M,M,M,M,M,M,M,M,50.00,KELY 041629Z AUTO 29006KT 10SM BKN024 OVC030 10/07 A3014 RMK AO2 T01000072,M
05U,2023-09-04 16:30,-116.0051,39.6042,1811.23,53.60,44.60,71.45,M,M,0.00,30.15,M,10.00,M,OVC,M,M,M,6000.00,M,M,M,M,M,M,M,M,M,M,53.60,K05U 041630Z AUTO 10SM OVC060 12/07 A3015 RMK A01,M
BVU,2023-09-04 16:35,-114.8611,35.9475,671.00,75.20,46.40,35.94,300.00,6.00,0.00,29.92,M,10.00,11.00,CLR,M,M,M,M,M,M,M,M,M,M,M,M,M,M,75.20,KBVU 041635Z AUTO 30006G11KT 10SM CLR 24/08 A2992 RMK AO2,M
CXP,2023-09-04 16:35,-119.7326,39.1923,1431.00,55.40,42.80,62.46,0.00,0.00,0.00,30.15,M,10.00,M,CLR,M,M,M,M,M,M,M,M,M,M,M,M,M,M,55.40,KCXP 041635Z AUTO 00000KT 10SM CLR 13/06 A3015 RMK AO2,M
RTS,2023-09-04 16:35,-119.8764,39.6682,1539.00,55.40,42.80,62.46,0.00,0.00,0.00,30.14,M,10.00,M,CLR,M,M,M,M,M,M,M,M,M,M,M,M,M,M,55.40,KRTS 041635Z AUTO 00000KT 10SM CLR 13/06 A3014 RMK AO2,M
MEV,2023-09-04 16:35,-119.7500,38.9963,1441.42,55.40,41.00,58.27,0.00,0.00,0.00,30.14,M,10.00,M,CLR,M,M,M,M,M,M,M,M,M,M,M,M,M,M,55.40,KMEV 041635Z AUTO 00000KT 10SM CLR 13/05 A3014 RMK AO2,M
BAM,2023-09-04 16:35,-116.8743,40.5990,1382.36,60.80,51.80,72.20,240.00,10.00,0.00,30.10,M,10.00,M,SCT,BKN,M,M,5500.00,6500.00,M,M,M,M,M,M,M,M,M,60.80,KBAM 041635Z AUTO 24010KT 10SM SCT055 BKN065 16/11 A3010 RMK AO1,M
HTH,2023-09-04 16:35,-118.6315,38.5448,1282.89,57.20,50.00,76.82,M,4.00,0.00,30.13,M,10.00,M,CLR,M,M,M,M,M,M,M,M,M,M,M,M,M,M,57.20,KHTH 041635Z AUTO VRB04KT 10SM CLR 14/10 A3013 RMK A01,M
10U,2023-09-04 16:35,-116.1876,41.9532,1637.00,53.60,50.00,87.56,260.00,6.00,0.00,30.09,M,10.00,M,SCT,BKN,OVC,M,1200.00,1600.00,8500.00,M,M,M,M,M,M,M,M,53.60,K10U 041635Z AUTO 26006KT 10SM SCT012 BKN016 OVC085 12/10 A3009 RMK AO2,M
LOL,2023-09-04 16:44,-118.5701,40.0684,1192.43,53.00,53.00,100.00,0.00,0.00,0.00,30.10,M,10.00,M,SCT,M,M,M,200.00,M,M,M,M,M,M,M,M,M,M,53.00,KLOL 041644Z AUTO 00000KT 10SM SCT002 12/12 A3010 RMK AO2 T01170117,M
HND,2023-09-04 16:45,-115.1344,35.9729,742.79,77.00,48.20,36.22,330.00,7.00,0.00,29.96,M,10.00,M,CLR,M,M,M,M,M,M,M,M,M,M,M,M,M,M,77.00,KHND 041645Z 33007KT 10SM SKC 25/09 A2996 RMK JC,M
05U,2023-09-04 16:50,-116.0051,39.6042,1811.23,59.00,44.60,58.77,M,M,0.00,30.16,M,10.00,M,OVC,M,M,M,6500.00,M,M,M,M,M,M,M,M,M,M,59.00,K05U 041650Z AUTO 10SM OVC065 15/07 A3016 RMK A01,M
P68,2023-09-04 16:53,-116.0056,39.6014,1993.00,56.00,45.00,66.48,0.00,0.00,0.00,30.13,1015.50,M,M,M,M,M,M,M,M,M,M,M,M,M,M,M,M,M,56.00,KP68 041653Z AUTO 00000KT 13/07 A3013 RMK AO1 SLP155 T01330072 $,M
DRA,2023-09-04 16:53,-116.0278,36.6206,1009.00,72.00,45.00,37.96,20.00,11.00,0.00,30.00,1011.70,10.00,M,CLR,M,M,M,M,M,M,M,M,M,M,M,M,M,M,72.00,KDRA 041653Z AUTO 02011KT 10SM CLR 22/07 A3000 RMK AO2 SLP117 T02220072,M
ELY,2023-09-04 16:53,-114.8453,39.2950,1909.00,50.00,44.00,79.76,290.00,7.00,0.00,30.14,1015.70,10.00,M,OVC,M,M,M,2600.00,M,M,M,M,M,M,M,M,M,M,50.00,KELY 041653Z AUTO 29007KT 10SM OVC026 10/07 A3014 RMK AO2 SLP157 T01000067,M
VGT,2023-09-04 16:53,-115.1933,36.2111,667.00,79.00,47.00,32.41,330.00,11.00,0.00,29.92,1012.50,10.00,M,CLR,M,M,M,M,M,M,M,M,M,M,M,M,M,M,79.00,KVGT 041653Z 33011KT 10SM CLR 26/08 A2992 RMK AO2 SLP125 T02610083 $,M
LOL,2023-09-04 16:53,-118.5701,40.0684,1192.43,54.00,54.00,100.00,0.00,0.00,0.00,30.10,1017.80,10.00,M,SCT,M,M,M,400.00,M,M,M,M,M,M,M,M,M,M,54.00,KLOL 041653Z AUTO 00000KT 10SM SCT004 12/12 A3010 RMK AO2 SLP178 T01220122,M
BVU,2023-09-04 16:55,-114.8611,35.9475,671.00,77.00,46.40,33.85,M,5.00,0.00,29.92,M,10.00,M,CLR,M,M,M,M,M,M,M,M,M,M,M,M,M,M,77.00,KBVU 041655Z AUTO VRB05KT 10SM CLR 25/08 A2992 RMK AO2,M
CXP,2023-09-04 16:55,-119.7326,39.1923,1431.00,57.20,42.80,58.52,0.00,0.00,0.00,30.15,M,10.00,M,CLR,M,M,M,M,M,M,M,M,M,M,M,M,M,M,57.20,KCXP 041655Z AUTO 00000KT 10SM CLR 14/06 A3015 RMK AO2,M
INS,2023-09-04 16:55,-115.6733,36.5872,955.00,71.20,43.70,37.11,310.00,4.00,0.00,29.99,1011.40,10.00,M,CLR,M,M,M,M,M,M,M,M,M,M,M,M,M,M,71.20,KINS 041655Z AUTO 31004KT 10SM CLR 22/07 A2999 RMK AO2 SLP114 T02180065 $,M
RNO,2023-09-04 16:55,-119.7711,39.4839,1341.00,58.00,45.00,61.85,0.00,0.00,0.00,30.12,1016.80,10.00,M,FEW,FEW,M,M,4000.00,9000.00,M,M,M,M,M,M,M,M,M,58.00,KRNO 041655Z 00000KT 10SM FEW040 FEW090 14/07 A3012 RMK AO2 SLP168 MTN TOPS OBSCD DSNT SW T01440072,M
RTS,2023-09-04 16:55,-119.8764,39.6682,1539.00,57.20,44.60,62.69,150.00,4.00,0.00,30.14,M,10.00,M,CLR,M,M,M,M,M,M,M,M,M,M,M,M,M,M,57.20,KRTS 041655Z AUTO 15004KT 10SM CLR 14/07 A3014 RMK AO2,M
MEV,2023-09-04 16:55,-119.7500,38.9963,1441.42,55.40,41.00,58.27,0.00,0.00,0.00,30.14,M,10.00,M,CLR,M,M,M,M,M,M,M,M,M,M,M,M,M,M,55.40,KMEV 041655Z AUTO 00000KT 10SM CLR 13/05 A3014 RMK AO2,M
BAM,2023-09-04 16:55,-116.8743,40.5990,1382.36,62.60,51.80,67.75,220.00,8.00,0.00,30.10,M,10.00,M,SCT,M,M,M,6500.00,M,M,M,M,M,M,M,M,M,M,62.60,KBAM 041655Z AUTO 22008KT 10SM SCT065 17/11 A3010 RMK AO1,M
HTH,2023-09-04 16:55,-118.6315,38.5448,1282.89,59.00,50.00,72.01,0.00,0.00,0.00,30.13,M,10.00,M,CLR,M,M,M,M,M,M,M,M,M,M,M,M,M,M,59.00,KHTH 041655Z AUTO 00000KT 10SM CLR 15/10 A3013 RMK A01,M
LSV,2023-09-04 16:55,-115.0343,36.2362,570.00,80.20,51.60,37.00,0.00,0.00,0.00,29.89,1010.10,10.00,M,CLR,M,M,M,M,M,M,M,M,M,M,M,M,M,M,79.82,KLSV 041655Z AUTO 00000KT 10SM CLR 27/11 A2989 RMK AO2 SLP101 T02680109 $,M
10U,2023-09-04 16:55,-116.1876,41.9532,1637.00,53.60,50.00,87.56,270.00,8.00,0.00,30.10,M,10.00,M,BKN,BKN,OVC,M,1500.00,2100.00,3500.00,M,M,M,M,M,M,M,M,53.60,K10U 041655Z AUTO 27008KT 10SM BKN015 BKN021 OVC035 12/10 A3010 RMK AO2,M
EKO,2023-09-04 16:56,-115.7860,40.8242,1367.00,57.00,48.00,71.81,250.00,13.00,0.00,30.09,1016.30,10.00,M,OVC,M,M,M,6000.00,M,M,M,M,M,M,M,M,M,M,57.00,KEKO 041656Z AUTO 25013KT 10SM OVC060 14/09 A3009 RMK AO2 SLP163 T01390089,M
WMC,2023-09-04 16:56,-117.8072,40.9019,1315.00,61.00,48.00,62.23,M,4.00,0.00,30.09,1016.10,10.00,M,FEW,BKN,M,M,2900.00,4700.00,M,M,M,M,M,M,M,M,M,61.00,KWMC 041656Z AUTO VRB04KT 10SM FEW029 BKN047 16/09 A3009 RMK AO2 SLP161 T01610089,M
NFL,2023-09-04 16:56,-118.7010,39.4166,1199.00,62.00,50.00,64.73,0.00,0.00,0.00,30.10,1016.00,10.00,M,CLR,M,M,M,M,M,M,M,M,M,M,M,M,M,M,62.00,KNFL 041656Z AUTO 00000KT 10SM CLR 17/10 A3010 RMK AO2 SLP160 T01670100,M
HND,2023-09-04 16:56,-115.1344,35.9729,742.79,77.00,48.00,35.95,350.00,10.00,0.00,29.96,1013.70,10.00,M,CLR,M,M,M,M,M,M,M,M,M,M,M,M,M,M,77.00,KHND 041656Z 35010KT 10SM CLR 25/09 A2996 RMK AO2 SLP137 T02500089,M
LAS,2023-09-04 16:56,-115.1634,36.0719,663.00,77.00,48.00,35.95,M,3.00,0.00,29.93,1011.30,10.00,M,CLR,M,M,M,M,M,M,M,M,M,M,M,M,M,M,77.00,KLAS 041656Z VRB03KT 10SM CLR 25/09 A2993 RMK AO2 SLP113 T02500089 $,M
05U,2023-09-04 17:10,-116.0051,39.6042,1811.23,57.20,44.60,62.69,M,M,0.00,30.16,M,10.00,M,BKN,OVC,M,M,2600.00,6500.00,M,M,M,M,M,M,M,M,M,57.20,K05U 041710Z AUTO 10SM BKN026 OVC065 14/07 A3016 RMK A01,M
BVU,2023-09-04 17:15,-114.8611,35.9475,671.00,78.80,46.40,31.90,320.00,7.00,0.00,29.92,M,10.00,M,CLR,M,M,M,M,M,M,M,M,M,M,M,M,M,M,78.80,KBVU 041715Z AUTO 32007KT 10SM CLR 26/08 A2992 RMK AO2,M
CXP,2023-09-04 17:15,-119.7326,39.1923,1431.00,59.00,42.80,54.86,0.00,0.00,0.00,30.14,M,10.00,M,CLR,M,M,M,M,M,M,M,M,M,M,M,M,M,M,59.00,KCXP 041715Z AUTO 00000KT 10SM CLR 15/06 A3014 RMK AO2,M
RTS,2023-09-04 17:15,-119.8764,39.6682,1539.00,57.20,42.80,58.52,100.00,4.00,0.00,30.14,M,10.00,M,CLR,M,M,M,M,M,M,M,M,M,M,M,M,M,M,57.20,KRTS 041715Z AUTO 10004KT 10SM CLR 14/06 A3014 RMK AO2,M
MEV,2023-09-04 17:15,-119.7500,38.9963,1441.42,57.20,41.00,54.60,0.00,0.00,0.00,30.13,M,10.00,M,CLR,M,M,M,M,M,M,M,M,M,M,M,M,M,M,57.20,KMEV 041715Z AUTO 00000KT 10SM CLR 14/05 A3013 RMK AO2,M
HTH,2023-09-04 17:15,-118.6315,38.5448,1282.89,60.80,50.00,67.54,0.00,0.00,0.00,30.14,M,10.00,M,CLR,M,M,M,M,M,M,M,M,M,M,M,M,M,M,60.80,KHTH 041715Z AUTO 00000KT 10SM CLR 16/10 A3014 RMK A01,M
10U,2023-09-04 17:15,-116.1876,41.9532,1637.00,53.60,50.00,87.56,260.00,5.00,0.00,30.10,M,10.00,M,SCT,BKN,OVC,M,1600.00,2300.00,3500.00,M,M,M,M,M,M,M,M,53.60,K10U 041715Z AUTO 26005KT 10SM SCT016 BKN023 OVC035 12/10 A3010 RMK AO2,M
BAM,2023-09-04 17:15,-116.8743,40.5990,1382.36,62.60,51.80,67.75,220.00,7.00,0.00,30.11,M,10.00,M,CLR,M,M,M,M,M,M,M,M,M,M,M,M,M,M,62.60,KBAM 041715Z AUTO 22007KT 10SM CLR 17/11 A3011 RMK AO1,M
ELY,2023-09-04 17:16,-114.8453,39.2950,1909.00,52.00,45.00,76.94,340.00,4.00,0.00,30.14,M,10.00,M,SCT,BKN,OVC,M,2700.00,3800.00,4900.00,M,M,M,M,M,M,M,M,52.00,KELY 041716Z AUTO 34004KT 10SM SCT027 BKN038 OVC049 11/07 A3014 RMK AO2 T01110072,M
WMC,2023-09-04 17:17,-117.8072,40.9019,1315.00,63.00,49.00,60.20,M,4.00,0.00,30.09,M,10.00,M,BKN,BKN,M,M,2900.00,4900.00,M,M,M,M,M,M,M,M,M,63.00,KWMC 041717Z AUTO VRB04KT 10SM BKN029 BKN049 17/09 A3009 RMK AO2 T01720094,M
05U,2023-09-04 17:30,-116.0051,39.6042,1811.23,59.00,44.60,58.77,M,M,0.00,30.16,M,10.00,M,OVC,M,M,M,2600.00,M,M,M,M,M,M,M,M,M,M,59.00,K05U 041730Z AUTO 10SM OVC026 15/07 A3016 RMK A01,M
WMC,2023-09-04 17:34,-117.8072,40.9019,1315.00,63.00,48.00,57.99,220.00,4.00,0.00,30.09,M,10.00,M,SCT,BKN,M,M,3000.00,3700.00,M,M,M,M,M,M,M,M,M,63.00,KWMC 041734Z AUTO 22004KT 10SM SCT030 BKN037 17/09 A3009 RMK AO2 T01720089,M
BVU,2023-09-04 17:35,-114.8611,35.9475,671.00,78.80,48.20,34.13,310.00,8.00,0.00,29.92,M,10.00,M,CLR,M,M,M,M,M,M,M,M,M,M,M,M,M,M,78.80,KBVU 041735Z AUTO 31008KT 10SM CLR 26/09 A2992 RMK AO2,M
CXP,2023-09-04 17:35,-119.7326,39.1923,1431.00,59.00,42.80,54.86,0.00,0.00,0.00,30.14,M,10.00,M,CLR,M,M,M,M,M,M,M,M,M,M,M,M,M,M,59.00,KCXP 041735Z AUTO 00000KT 10SM CLR 15/06 A3014 RMK AO2,M
RTS,2023-09-04 17:35,-119.8764,39.6682,1539.00,59.00,44.60,58.77,M,4.00,0.00,30.14,M,10.00,M,CLR,M,M,M,M,M,M,M,M,M,M,M,M,M,M,59.00,KRTS 041735Z AUTO VRB04KT 10SM CLR 15/07 A3014 RMK AO2,M
MEV,2023-09-04 17:35,-119.7500,38.9963,1441.42,59.00,41.00,51.18,0.00,0.00,0.00,30.13,M,10.00,M,CLR,M,M,M,M,M,M,M,M,M,M,M,M,M,M,59.00,KMEV 041735Z AUTO 00000KT 10SM CLR 15/05 A3013 RMK AO2,M
BAM,2023-09-04 17:35,-116.8743,40.5990,1382.36,62.60,50.00,63.38,220.00,4.00,0.00,30.11,M,10.00,M,SCT,M,M,M,2700.00,M,M,M,M,M,M,M,M,M,M,62.60,KBAM 041735Z AUTO 22004KT 10SM SCT027 17/10 A3011 RMK AO1,M
HTH,2023-09-04 17:35,-118.6315,38.5448,1282.89,60.80,48.20,63.15,M,4.00,0.00,30.14,M,10.00,M,M,M,M,M,M,M,M,M,M,M,M,M,M,M,M,60.80,KHTH 041735Z AUTO VRB04KT 10SM 16/09 A3014 RMK A01,M
10U,2023-09-04 17:35,-116.1876,41.9532,1637.00,55.40,50.00,81.99,250.00,7.00,0.00,30.10,M,10.00,M,FEW,BKN,OVC,M,1600.00,3500.00,4200.00,M,M,M,M,M,M,M,M,55.40,K10U 041735Z AUTO 25007KT 10SM FEW016 BKN035 OVC042 13/10 A3010 RMK AO2,M
HND,2023-09-04 17:45,-115.1344,35.9729,742.79,78.80,48.20,34.13,360.00,10.00,0.00,29.96,M,10.00,M,CLR,M,M,M,M,M,M,M,M,M,M,M,M,M,M,78.80,KHND 041745Z 36010KT 10SM SKC 26/09 A2996 RMK JC,M
05U,2023-09-04 17:50,-116.0051,39.6042,1811.23,59.00,44.60,58.77,M,M,0.00,30.16,M,10.00,M,SCT,SCT,M,M,2600.00,3300.00,M,M,M,M,M,M,M,M,M,59.00,K05U 041750Z AUTO 10SM SCT026 SCT033 15/07 A3016 RMK A01,M
P68,2023-09-04 17:53,-116.0056,39.6014,1993.00,58.00,46.00,64.24,70.00,4.00,0.00,30.13,1015.50,M,M,M,M,M,M,M,M,M,M,M,M,M,M,M,M,M,58.00,KP68 041753Z AUTO 07004KT 14/08 A3013 RMK AO1 SLP155 T01440078 10144 20067 51004 $,M
DRA,2023-09-04 17:53,-116.0278,36.6206,1009.00,76.00,45.00,33.19,20.00,9.00,0.00,29.99,1011.30,10.00,M,CLR,M,M,M,M,M,M,M,M,M,M,M,M,M,M,76.00,KDRA 041753Z AUTO 02009KT 10SM CLR 24/07 A2999 RMK AO2 SLP113 T02440072 10244 20167 50004,M
ELY,2023-09-04 17:53,-114.8453,39.2950,1909.00,55.00,46.00,71.60,0.00,0.00,0.00,30.14,1015.00,10.00,M,BKN,M,M,M,6000.00,M,M,M,M,M,M,M,M,M,M,55.00,KELY 041753Z AUTO 00000KT 10SM BKN060 13/08 A3014 RMK AO2 SLP150 T01280078 10128 20072 50012,M
VGT,2023-09-04 17:53,-115.1933,36.2111,667.00,80.00,47.00,31.37,60.00,4.00,0.00,29.92,1012.60,10.00,M,CLR,M,M,M,M,M,M,M,M,M,M,M,M,M,M,79.28,KVGT 041753Z 06004KT 10SM CLR 27/08 A2992 RMK AO2 SLP126 T02670083 10272 20211 51008 $,M
LOL,2023-09-04 17:53,-118.5701,40.0684,1192.43,61.00,52.00,72.22,170.00,5.00,0.00,30.10,1017.30,10.00,M,CLR,M,M,M,M,M,M,M,M,M,M,M,M,M,M,61.00,KLOL 041753Z AUTO 17005KT 10SM CLR 16/11 A3010 RMK AO2 SLP173 T01610111 10161 20061 50003,M
BVU,2023-09-04 17:55,-114.8611,35.9475,671.00,78.80,46.40,31.90,330.00,8.00,0.00,29.92,M,10.00,M,CLR,M,M,M,M,M,M,M,M,M,M,M,M,M,M,78.80,KBVU 041755Z AUTO 33008KT 10SM CLR 26/08 A2992 RMK AO2,M
CXP,2023-09-04 17:55,-119.7326,39.1923,1431.00,60.80,44.60,55.12,0.00,0.00,0.00,30.14,M,10.00,M,CLR,M,M,M,M,M,M,M,M,M,M,M,M,M,M,60.80,KCXP 041755Z AUTO 00000KT 10SM CLR 16/07 A3014 RMK AO2,M
INS,2023-09-04 17:55,-115.6733,36.5872,955.00,73.20,41.50,31.87,270.00,3.00,0.00,29.99,1011.40,10.00,M,CLR,M,M,M,M,M,M,M,M,M,M,M,M,M,M,73.20,KINS 041755Z AUTO 27003KT 10SM CLR 23/05 A2999 RMK AO2 SLP114 T02290053 10229 20150 50004 $,M
RNO,2023-09-04 17:55,-119.7711,39.4839,1341.00,64.00,45.00,49.99,0.00,0.00,0.00,30.11,1016.10,10.00,M,FEW,FEW,M,M,4000.00,9000.00,M,M,M,M,M,M,M,M,M,64.00,KRNO 041755Z 00000KT 10SM FEW040 FEW090 18/07 A3011 RMK AO2 SLP161 MTN TOPS OBSCD DSNT SW T01780072 10178 20083 58006,M
RTS,2023-09-04 17:55,-119.8764,39.6682,1539.00,60.80,44.60,55.12,0.00,0.00,0.00,30.14,M,10.00,M,CLR,M,M,M,M,M,M,M,M,M,M,M,M,M,M,60.80,KRTS 041755Z AUTO 00000KT 10SM CLR 16/07 A3014 RMK AO2,M
MEV,2023-09-04 17:55,-119.7500,38.9963,1441.42,60.80,42.80,51.45,0.00,0.00,0.00,30.12,M,10.00,M,CLR,M,M,M,M,M,M,M,M,M,M,M,M,M,M,60.80,KMEV 041755Z AUTO 00000KT 10SM CLR 16/06 A3012 RMK AO2,M
HTH,2023-09-04 17:55,-118.6315,38.5448,1282.89,62.60,48.20,59.26,320.00,5.00,0.00,30.13,M,10.00,M,CLR,M,M,M,M,M,M,M,M,M,M,M,M,M,M,62.60,KHTH 041755Z AUTO 32005KT 10SM CLR 17/09 A3013 RMK A01,M
10U,2023-09-04 17:55,-116.1876,41.9532,1637.00,57.20,48.20,71.83,300.00,6.00,0.00,30.10,M,10.00,13.00,SCT,BKN,OVC,M,2300.00,3800.00,6000.00,M,M,M,M,M,M,M,M,57.20,K10U 041755Z AUTO 30006G13KT 10SM SCT023 BKN038 OVC060 14/09 A3010 RMK AO2,M
BAM,2023-09-04 17:55,-116.8743,40.5990,1382.36,62.60,50.00,63.38,230.00,6.00,0.00,30.11,M,10.00,M,SCT,SCT,M,M,2900.00,3800.00,M,M,M,M,M,M,M,M,M,62.60,KBAM 041755Z AUTO 23006KT 10SM SCT029 SCT038 17/10 A3011 RMK AO1,M
LSV,2023-09-04 17:55,-115.0343,36.2362,570.00,87.00,54.50,33.04,240.00,3.00,0.00,29.89,1009.80,10.00,M,CLR,M,M,M,M,M,M,M,M,M,M,M,M,M,M,85.21,KLSV 041755Z AUTO 24003KT 10SM CLR 31/13 A2989 RMK AO2 SLP098 T03060125 10306 20177 50006 $,M
EKO,2023-09-04 17:56,-115.7860,40.8242,1367.00,62.00,49.00,62.36,250.00,10.00,0.00,30.09,1015.90,10.00,18.00,BKN,M,M,M,6500.00,M,M,M,M,M,M,M,M,M,M,62.00,KEKO 041756Z AUTO 25010G18KT 10SM BKN065 17/09 A3009 RMK AO2 SLP159 T01670094 10167 20111 51007,M
WMC,2023-09-04 17:56,-117.8072,40.9019,1315.00,63.00,49.00,60.20,230.00,6.00,0.00,30.09,1016.00,10.00,M,BKN,BKN,M,M,3100.00,4500.00,M,M,M,M,M,M,M,M,M,63.00,KWMC 041756Z AUTO 23006KT 10SM BKN031 BKN045 17/09 A3009 RMK AO2 SLP160 T01720094 10183 20100 51005,M
NFL,2023-09-04 17:56,-118.7010,39.4166,1199.00,64.00,50.00,60.34,M,3.00,0.00,30.10,1015.80,10.00,M,CLR,M,M,M,M,M,M,M,M,M,M,M,M,M,M,64.00,KNFL 041756Z AUTO VRB03KT 10SM CLR 18/10 A3010 RMK AO2 SLP158 T01780100 10178 20083 50001,M
HND,2023-09-04 17:56,-115.1344,35.9729,742.79,78.00,48.00,34.78,M,4.00,0.00,29.96,1013.80,10.00,M,CLR,M,M,M,M,M,M,M,M,M,M,M,M,M,M,78.00,KHND 041756Z VRB04KT 10SM CLR 26/09 A2996 RMK AO2 SLP138 T02560089 10256 20178 53005,M
LAS,2023-09-04 17:56,-115.1634,36.0719,663.00,80.00,45.00,29.08,M,3.00,0.00,29.93,1011.20,10.00,M,FEW,M,M,M,12000.00,M,M,M,M,M,M,M,M,M,M,79.13,KLAS 041756Z VRB03KT 10SM FEW120 27/07 A2993 RMK AO2 SLP112 T02670072 10272 20200 50006 $,M
05U,2023-09-04 18:10,-116.0051,39.6042,1811.23,59.00,44.60,58.77,M,M,0.00,30.16,M,10.00,M,SCT,M,M,M,3000.00,M,M,M,M,M,M,M,M,M,M,59.00,K05U 041810Z AUTO 10SM SCT030 15/07 A3016 RMK A01,M
BVU,2023-09-04 18:15,-114.8611,35.9475,671.00,80.60,44.60,28.08,350.00,7.00,0.00,29.91,M,10.00,13.00,CLR,M,M,M,M,M,M,M,M,M,M,M,M,M,M,79.42,KBVU 041815Z AUTO 35007G13KT 300V020 10SM CLR 27/07 A2991 RMK AO2,M
CXP,2023-09-04 18:15,-119.7326,39.1923,1431.00,60.80,42.80,51.45,0.00,0.00,0.00,30.13,M,10.00,M,CLR,M,M,M,M,M,M,M,M,M,M,M,M,M,M,60.80,KCXP 041815Z AUTO 00000KT 10SM CLR 16/06 A3013 RMK AO2,M
RTS,2023-09-04 18:15,-119.8764,39.6682,1539.00,60.80,44.60,55.12,120.00,3.00,0.00,30.13,M,10.00,M,CLR,M,M,M,M,M,M,M,M,M,M,M,M,M,M,60.80,KRTS 041815Z AUTO 12003KT 10SM CLR 16/07 A3013 RMK AO2,M
MEV,2023-09-04 18:15,-119.7500,38.9963,1441.42,62.60,42.80,48.28,0.00,0.00,0.00,30.12,M,10.00,M,CLR,M,M,M,M,M,M,M,M,M,M,M,M,M,M,62.60,KMEV 041815Z AUTO 00000KT 10SM CLR 17/06 A3012 RMK AO2,M
BAM,2023-09-04 18:15,-116.8743,40.5990,1382.36,62.60,50.00,63.38,170.00,4.00,0.00,30.11,M,10.00,M,SCT,SCT,M,M,3800.00,5500.00,M,M,M,M,M,M,M,M,M,62.60,KBAM 041815Z AUTO 17004KT 10SM SCT038 SCT055 17/10 A3011 RMK AO1,M
HTH,2023-09-04 18:15,-118.6315,38.5448,1282.89,64.40,48.20,55.63,290.00,5.00,0.00,30.13,M,10.00,M,CLR,M,M,M,M,M,M,M,M,M,M,M,M,M,M,64.40,KHTH 041815Z AUTO 29005KT 10SM CLR 18/09 A3013 RMK A01,M
10U,2023-09-04 18:15,-116.1876,41.9532,1637.00,59.00,46.40,62.92,320.00,9.00,0.00,30.10,M,10.00,15.00,FEW,FEW,SCT,M,2200.00,2800.00,4300.00,M,M,M,M,M,M,M,M,59.00,K10U 041815Z AUTO 32009G15KT 10SM FEW022 FEW028 SCT043 15/08 A3010 RMK AO2,M
05U,2023-09-04 18:30,-116.0051,39.6042,1811.23,62.60,46.40,55.37,M,M,0.00,30.16,M,10.00,M,BKN,BKN,M,M,3000.00,3500.00,M,M,M,M,M,M,M,M,M,62.60,K05U 041830Z AUTO 10SM BKN030 BKN035 17/08 A3016 RMK A01,M
BVU,2023-09-04 18:35,-114.8611,35.9475,671.00,80.60,44.60,28.08,340.00,9.00,0.00,29.91,M,10.00,M,CLR,M,M,M,M,M,M,M,M,M,M,M,M,M,M,79.42,KBVU 041835Z AUTO 34009KT 10SM CLR 27/07 A2991 RMK AO2,M
CXP,2023-09-04 18:35,-119.7326,39.1923,1431.00,64.40,42.80,45.32,0.00,0.00,0.00,30.13,M,10.00,M,CLR,M,M,M,M,M,M,M,M,M,M,M,M,M,M,64.40,KCXP 041835Z AUTO 00000KT 10SM CLR 18/06 A3013 RMK AO2,M
RTS,2023-09-04 18:35,-119.8764,39.6682,1539.00,60.80,44.60,55.12,120.00,5.00,0.00,30.13,M,10.00,M,CLR,M,M,M,M,M,M,M,M,M,M,M,M,M,M,60.80,KRTS 041835Z AUTO 12005KT 10SM CLR 16/07 A3013 RMK AO2,M
MEV,2023-09-04 18:35,-119.7500,38.9963,1441.42,64.40,42.80,45.32,M,3.00,0.00,30.11,M,10.00,M,CLR,M,M,M,M,M,M,M,M,M,M,M,M,M,M,64.40,KMEV 041835Z AUTO VRB03KT 10SM CLR 18/06 A3011 RMK AO2,M
BAM,2023-09-04 18:35,-116.8743,40.5990,1382.36,64.40,50.00,59.50,150.00,3.00,0.00,30.10,M,10.00,M,SCT,M,M,M,3400.00,M,M,M,M,M,M,M,M,M,M,64.40,KBAM 041835Z AUTO 15003KT 10SM SCT034 18/10 A3010 RMK AO1,M
HTH,2023-09-04 18:35,-118.6315,38.5448,1282.89,64.40,46.40,51.98,M,3.00,0.00,30.12,M,10.00,M,CLR,M,M,M,M,M,M,M,M,M,M,M,M,M,M,64.40,KHTH 041835Z AUTO VRB03KT 10SM CLR 18/08 A3012 RMK A01,M
10U,2023-09-04 18:35,-116.1876,41.9532,1637.00,59.00,46.40,62.92,330.00,8.00,0.00,30.10,M,10.00,M,FEW,SCT,BKN,M,2800.00,3500.00,4500.00,M,M,M,M,M,M,M,M,59.00,K10U 041835Z AUTO 33008KT 10SM FEW028 SCT035 BKN045 15/08 A3010 RMK AO2,M
05U,2023-09-04 18:50,-116.0051,39.6042,1811.23,59.00,44.60,58.77,M,M,0.00,30.16,M,10.00,M,OVC,M,M,M,2900.00,M,M,M,M,M,M,M,M,M,M,59.00,K05U 041850Z AUTO 10SM OVC029 15/07 A3016 RMK A01,M
P68,2023-09-04 18:53,-116.0056,39.6014,1993.00,58.00,46.00,64.24,200.00,3.00,0.00,30.13,1015.20,M,M,M,M,M,M,M,M,M,M,M,M,M,M,M,M,M,58.00,KP68 041853Z AUTO 20003KT 14/08 A3013 RMK AO1 SLP152 T01440078 $,M
DRA,2023-09-04 18:53,-116.0278,36.6206,1009.00,77.00,44.00,30.90,M,4.00,0.00,29.98,1011.10,10.00,M,CLR,M,M,M,M,M,M,M,M,M,M,M,M,M,M,77.00,KDRA 041853Z AUTO VRB04KT 10SM CLR 25/07 A2998 RMK AO2 SLP111 T02500067,M
ELY,2023-09-04 18:53,-114.8453,39.2950,1909.00,59.00,45.00,59.67,M,4.00,0.00,30.14,1014.40,10.00,M,CLR,M,M,M,M,M,M,M,M,M,M,M,M,M,M,59.00,KELY 041853Z AUTO VRB04KT 10SM CLR 15/07 A3014 RMK AO2 SLP144 T01500072,M
VGT,2023-09-04 18:53,-115.1933,36.2111,667.00,83.00,46.00,27.39,90.00,5.00,0.00,29.91,1012.30,10.00,M,CLR,M,M,M,M,M,M,M,M,M,M,M,M,M,M,81.00,KVGT 041853Z 09005KT 10SM CLR 28/08 A2991 RMK AO2 SLP123 T02830078 $,M
LOL,2023-09-04 18:53,-118.5701,40.0684,1192.43,65.00,51.00,60.47,130.00,5.00,0.00,30.08,1016.50,10.00,M,SCT,M,M,M,3500.00,M,M,M,M,M,M,M,M,M,M,65.00,KLOL 041853Z AUTO 13005KT 10SM SCT035 18/11 A3008 RMK AO2 SLP165 T01830106,M
BVU,2023-09-04 18:55,-114.8611,35.9475,671.00,80.60,44.60,28.08,350.00,8.00,0.00,29.90,M,10.00,15.00,CLR,M,M,M,M,M,M,M,M,M,M,M,M,M,M,79.42,KBVU 041855Z AUTO 35008G15KT 320V040 10SM CLR 27/07 A2990 RMK AO2,M
CXP,2023-09-04 18:55,-119.7326,39.1923,1431.00,64.40,44.60,48.55,170.00,4.00,0.00,30.12,M,10.00,M,CLR,M,M,M,M,M,M,M,M,M,M,M,M,M,M,64.40,KCXP 041855Z AUTO 17004KT 10SM CLR 18/07 A3012 RMK AO2,M
INS,2023-09-04 18:55,-115.6733,36.5872,955.00,76.00,40.60,28.03,340.00,4.00,0.00,29.97,1010.70,10.00,M,CLR,M,M,M,M,M,M,M,M,M,M,M,M,M,M,76.00,KINS 041855Z AUTO 34004KT 10SM CLR 25/05 A2997 RMK AO2 SLP107 T02450048 $,M
RNO,2023-09-04 18:55,-119.7711,39.4839,1341.00,68.00,45.00,43.51,M,6.00,0.00,30.09,1015.20,10.00,M,FEW,FEW,M,M,4500.00,9000.00,M,M,M,M,M,M,M,M,M,68.00,KRNO 041855Z VRB06KT 10SM FEW045 FEW090 20/07 A3009 RMK AO2 SLP152 MTN TOPS OBSCD DSNT SW T02000072,M
RTS,2023-09-04 18:55,-119.8764,39.6682,1539.00,60.80,42.80,51.45,M,6.00,0.00,30.12,M,10.00,M,CLR,M,M,M,M,M,M,M,M,M,M,M,M,M,M,60.80,KRTS 041855Z AUTO VRB06KT 10SM CLR 16/06 A3012 RMK AO2,M
MEV,2023-09-04 18:55,-119.7500,38.9963,1441.42,64.40,42.80,45.32,M,3.00,0.00,30.10,M,10.00,M,CLR,M,M,M,M,M,M,M,M,M,M,M,M,M,M,64.40,KMEV 041855Z AUTO VRB03KT 10SM CLR 18/06 A3010 RMK AO2,M
BAM,2023-09-04 18:55,-116.8743,40.5990,1382.36,64.40,50.00,59.50,240.00,4.00,0.00,30.10,M,10.00,M,SCT,BKN,BKN,M,3800.00,5000.00,7500.00,M,M,M,M,M,M,M,M,64.40,KBAM 041855Z AUTO 24004KT 10SM SCT038 BKN050 BKN075 18/10 A3010 RMK AO1,M
HTH,2023-09-04 18:55,-118.6315,38.5448,1282.89,64.40,46.40,51.98,290.00,5.00,0.00,30.11,M,10.00,M,CLR,M,M,M,M,M,M,M,M,M,M,M,M,M,M,64.40,KHTH 041855Z AUTO 29005KT 10SM CLR 18/08 A3011 RMK A01,M
LSV,2023-09-04 18:55,-115.0343,36.2362,570.00,87.80,47.50,24.86,0.00,0.00,0.00,29.87,1009.20,10.00,M,CLR,M,M,M,M,M,M,M,M,M,M,M,M,M,M,84.80,KLSV 041855Z AUTO 00000KT 10SM CLR 31/09 A2987 RMK AO2 SLP092 T03100086 $,M
HND,2023-09-04 18:55,-115.1344,35.9729,742.79,82.40,46.40,28.36,300.00,7.00,0.00,29.95,M,10.00,M,CLR,M,M,M,M,M,M,M,M,M,M,M,M,M,M,80.64,KHND 041855Z 30007KT 10SM SKC 28/08 A2995 RMK JC,M
10U,2023-09-04 18:55,-116.1876,41.9532,1637.00,60.80,46.40,59.01,M,3.00,0.00,30.09,M,10.00,M,FEW,SCT,M,M,3200.00,4700.00,M,M,M,M,M,M,M,M,M,60.80,K10U 041855Z AUTO VRB03KT 10SM FEW032 SCT047 16/08 A3009 RMK AO2,M
EKO,2023-09-04 18:56,-115.7860,40.8242,1367.00,64.00,50.00,60.34,250.00,11.00,0.00,30.09,1015.50,10.00,M,OVC,M,M,M,6000.00,M,M,M,M,M,M,M,M,M,M,64.00,KEKO 041856Z AUTO 25011KT 10SM OVC060 18/10 A3009 RMK AO2 SLP155 T01780100,M
WMC,2023-09-04 18:56,-117.8072,40.9019,1315.00,67.00,49.00,52.37,190.00,8.00,0.00,30.08,1015.30,10.00,M,SCT,BKN,M,M,5500.00,7000.00,M,M,M,M,M,M,M,M,M,67.00,KWMC 041856Z AUTO 19008KT 10SM SCT055 BKN070 19/09 A3008 RMK AO2 SLP153 T01940094,M
NFL,2023-09-04 18:56,-118.7010,39.4166,1199.00,66.00,47.00,50.29,0.00,0.00,0.00,30.08,1015.30,10.00,M,CLR,M,M,M,M,M,M,M,M,M,M,M,M,M,M,66.00,KNFL 041856Z AUTO 00000KT 10SM CLR 19/08 A3008 RMK AO2 SLP153 T01890083,M
HND,2023-09-04 18:56,-115.1344,35.9729,742.79,82.00,47.00,29.39,340.00,7.00,0.00,29.95,1013.30,10.00,M,CLR,M,M,M,M,M,M,M,M,M,M,M,M,M,M,80.44,KHND 041856Z 34007KT 10SM CLR 28/08 A2995 RMK AO2 SLP133 T02780083,M
LAS,2023-09-04 18:56,-115.1634,36.0719,663.00,81.00,45.00,28.15,0.00,0.00,0.00,29.92,1010.80,10.00,M,FEW,M,M,M,12000.00,M,M,M,M,M,M,M,M,M,M,79.68,KLAS 041856Z 00000KT 10SM FEW120 27/07 A2992 RMK AO2 SLP108 T02720072 $,M
05U,2023-09-04 19:10,-116.0051,39.6042,1811.23,60.80,44.60,55.12,M,M,0.00,30.15,M,10.00,M,SCT,OVC,M,M,2900.00,6000.00,M,M,M,M,M,M,M,M,M,60.80,K05U 041910Z AUTO 10SM SCT029 OVC060 16/07 A3015 RMK A01,M
BVU,2023-09-04 19:15,-114.8611,35.9475,671.00,82.40,42.80,24.72,360.00,11.00,0.00,29.90,M,10.00,M,CLR,M,M,M,M,M,M,M,M,M,M,M,M,M,M,80.39,KBVU 041915Z AUTO 36011KT 10SM CLR 28/06 A2990 RMK AO2,M
CXP,2023-09-04 19:15,-119.7326,39.1923,1431.00,66.20,42.80,42.57,0.00,0.00,0.00,30.11,M,10.00,M,CLR,M,M,M,M,M,M,M,M,M,M,M,M,M,M,66.20,KCXP 041915Z AUTO 00000KT 10SM CLR 19/06 A3011 RMK AO2,M
RTS,2023-09-04 19:15,-119.8764,39.6682,1539.00,62.60,41.00,45.04,0.00,0.00,0.00,30.12,M,10.00,10.00,CLR,M,M,M,M,M,M,M,M,M,M,M,M,M,M,62.60,KRTS 041915Z AUTO 00000G10KT 10SM CLR 17/05 A3012 RMK AO2,M
MEV,2023-09-04 19:15,-119.7500,38.9963,1441.42,64.40,41.00,42.28,M,5.00,0.00,30.10,M,10.00,M,CLR,M,M,M,M,M,M,M,M,M,M,M,M,M,M,64.40,KMEV 041915Z AUTO VRB05KT 10SM CLR 18/05 A3010 RMK AO2,M
BAM,2023-09-04 19:15,-116.8743,40.5990,1382.36,64.40,50.00,59.50,260.00,3.00,0.00,30.09,M,10.00,M,SCT,SCT,BKN,M,3600.00,5000.00,7500.00,M,M,M,M,M,M,M,M,64.40,KBAM 041915Z AUTO 26003KT 10SM SCT036 SCT050 BKN075 18/10 A3009 RMK AO1,M
HTH,2023-09-04 19:15,-118.6315,38.5448,1282.89,66.20,46.40,48.83,M,3.00,0.00,30.11,M,10.00,M,CLR,M,M,M,M,M,M,M,M,M,M,M,M,M,M,66.20,KHTH 041915Z AUTO VRB03KT 10SM CLR 19/08 A3011 RMK A01,M
10U,2023-09-04 19:15,-116.1876,41.9532,1637.00,60.80,46.40,59.01,300.00,9.00,0.00,30.09,M,10.00,M,SCT,SCT,BKN,M,3300.00,4500.00,6000.00,M,M,M,M,M,M,M,M,60.80,K10U 041915Z AUTO 30009KT 10SM SCT033 SCT045 BKN060 16/08 A3009 RMK AO2,M
05U,2023-09-04 19:30,-116.0051,39.6042,1811.23,60.80,44.60,55.12,M,M,0.00,30.15,M,10.00,M,OVC,M,M,M,6000.00,M,M,M,M,M,M,M,M,M,M,60.80,K05U 041930Z AUTO 10SM OVC060 16/07 A3015 RMK A01,M
BVU,2023-09-04 19:35,-114.8611,35.9475,671.00,82.40,44.60,26.49,M,5.00,0.00,29.90,M,10.00,M,CLR,M,M,M,M,M,M,M,M,M,M,M,M,M,M,80.50,KBVU 041935Z AUTO VRB05KT 10SM CLR 28/07 A2990 RMK AO2,M
CXP,2023-09-04 19:35,-119.7326,39.1923,1431.00,66.20,42.80,42.57,0.00,0.00,0.00,30.11,M,10.00,M,CLR,M,M,M,M,M,M,M,M,M,M,M,M,M,M,66.20,KCXP 041935Z AUTO 00000KT 10SM CLR 19/06 A3011 RMK AO2,M
RTS,2023-09-04 19:35,-119.8764,39.6682,1539.00,64.40,41.00,42.28,0.00,0.00,0.00,30.12,M,10.00,11.00,CLR,M,M,M,M,M,M,M,M,M,M,M,M,M,M,64.40,KRTS 041935Z AUTO 00000G11KT 10SM CLR 18/05 A3012 RMK AO2,M
MEV,2023-09-04 19:35,-119.7500,38.9963,1441.42,66.20,41.00,39.72,350.00,7.00,0.00,30.09,M,10.00,M,CLR,M,M,M,M,M,M,M,M,M,M,M,M,M,M,66.20,KMEV 041935Z AUTO 35007KT 10SM CLR 19/05 A3009 RMK AO2,M
BAM,2023-09-04 19:35,-116.8743,40.5990,1382.36,66.20,50.00,55.88,220.00,4.00,0.00,30.09,M,10.00,M,SCT,M,M,M,7500.00,M,M,M,M,M,M,M,M,M,M,66.20,KBAM 041935Z AUTO 22004KT 10SM SCT075 19/10 A3009 RMK AO1,M
HTH,2023-09-04 19:35,-118.6315,38.5448,1282.89,66.20,46.40,48.83,300.00,4.00,0.00,30.10,M,10.00,M,CLR,M,M,M,M,M,M,M,M,M,M,M,M,M,M,66.20,KHTH 041935Z AUTO 30004KT 10SM CLR 19/08 A3010 RMK A01,M
10U,2023-09-04 19:35,-116.1876,41.9532,1637.00,59.00,46.40,62.92,310.00,10.00,0.00,30.10,M,10.00,M,FEW,SCT,BKN,M,3200.00,3900.00,4700.00,M,M,M,M,M,M,M,M,59.00,K10U 041935Z AUTO 31010KT 10SM FEW032 SCT039 BKN047 15/08 A3010 RMK AO2,M
HND,2023-09-04 19:50,-115.1344,35.9729,742.79,82.40,44.60,26.49,0.00,0.00,0.00,29.94,M,10.00,M,CLR,M,M,M,M,M,M,M,M,M,M,M,M,M,M,80.50,KHND 041950Z 00000KT 10SM SKC 28/07 A2994 RMK JC,M
05U,2023-09-04 19:50,-116.0051,39.6042,1811.23,62.60,44.60,51.72,M,M,0.00,30.15,M,10.00,M,OVC,M,M,M,6000.00,M,M,M,M,M,M,M,M,M,M,62.60,K05U 041950Z AUTO 10SM OVC060 17/07 A3015 RMK A01,M
P68,2023-09-04 19:53,-116.0056,39.6014,1993.00,61.00,45.00,55.57,120.00,4.00,0.00,30.12,1014.60,M,M,M,M,M,M,M,M,M,M,M,M,M,M,M,M,M,61.00,KP68 041953Z AUTO 12004KT 16/07 A3012 RMK AO1 SLP146 T01610072 $,M
DRA,2023-09-04 19:53,-116.0278,36.6206,1009.00,81.00,43.00,26.08,90.00,8.00,0.00,29.97,1010.50,10.00,17.00,CLR,M,M,M,M,M,M,M,M,M,M,M,M,M,M,79.54,KDRA 041953Z AUTO 09008G17KT 10SM CLR 27/06 A2997 RMK AO2 SLP105 T02720061,M
ELY,2023-09-04 19:53,-114.8453,39.2950,1909.00,61.00,44.00,53.49,300.00,3.00,0.00,30.13,1014.20,10.00,M,CLR,M,M,M,M,M,M,M,M,M,M,M,M,M,M,61.00,KELY 041953Z AUTO 30003KT 10SM CLR 16/07 A3013 RMK AO2 SLP142 T01610067,M
VGT,2023-09-04 19:53,-115.1933,36.2111,667.00,83.00,46.00,27.39,M,4.00,0.00,29.89,1011.70,10.00,M,CLR,M,M,M,M,M,M,M,M,M,M,M,M,M,M,81.00,KVGT 041953Z VRB04KT 10SM CLR 28/08 A2989 RMK AO2 SLP117 T02830078 $,M
LOL,2023-09-04 19:53,-118.5701,40.0684,1192.43,66.00,49.00,54.21,M,3.00,0.00,30.06,1016.10,10.00,M,SCT,M,M,M,5500.00,M,M,M,M,M,M,M,M,M,M,66.00,KLOL 041953Z AUTO VRB03KT 10SM SCT055 19/09 A3006 RMK AO2 SLP161 T01890094,M
BVU,2023-09-04 19:55,-114.8611,35.9475,671.00,84.20,42.80,23.33,340.00,10.00,0.00,29.89,M,10.00,M,CLR,M,M,M,M,M,M,M,M,M,M,M,M,M,M,81.61,KBVU 041955Z AUTO 34010KT 10SM CLR 29/06 A2989 RMK AO2,M
CXP,2023-09-04 19:55,-119.7326,39.1923,1431.00,66.20,41.00,39.72,0.00,0.00,0.00,30.10,M,10.00,M,CLR,M,M,M,M,M,M,M,M,M,M,M,M,M,M,66.20,KCXP 041955Z AUTO 00000KT 10SM CLR 19/05 A3010 RMK AO2,M
INS,2023-09-04 19:55,-115.6733,36.5872,955.00,79.30,39.40,23.98,320.00,6.00,0.00,29.96,1010.60,10.00,M,CLR,M,M,M,M,M,M,M,M,M,M,M,M,M,M,79.30,KINS 041955Z AUTO 32006KT 10SM CLR 26/04 A2996 RMK AO2 SLP106 T02630041 $,M
RNO,2023-09-04 19:55,-119.7711,39.4839,1341.00,70.00,42.00,36.22,0.00,0.00,0.00,30.07,1014.50,10.00,M,FEW,FEW,M,M,6000.00,10000.00,M,M,M,M,M,M,M,M,M,70.00,KRNO 041955Z 00000KT 10SM FEW060 FEW100 21/06 A3007 RMK AO2 SLP145 MTN TOP OBSCD DSNT SW T02110056,M
RTS,2023-09-04 19:55,-119.8764,39.6682,1539.00,64.40,41.00,42.28,M,5.00,0.00,30.11,M,10.00,M,CLR,M,M,M,M,M,M,M,M,M,M,M,M,M,M,64.40,KRTS 041955Z AUTO VRB05KT 10SM CLR 18/05 A3011 RMK AO2,M
MEV,2023-09-04 19:55,-119.7500,38.9963,1441.42,66.20,39.20,37.03,M,4.00,0.00,30.08,M,9.00,M,CLR,M,M,M,M,M,M,M,M,M,M,M,M,M,M,66.20,KMEV 041955Z AUTO VRB04KT 9SM CLR 19/04 A3008 RMK AO2,M
BAM,2023-09-04 19:55,-116.8743,40.5990,1382.36,66.20,50.00,55.88,290.00,4.00,0.00,30.08,M,10.00,M,CLR,M,M,M,M,M,M,M,M,M,M,M,M,M,M,66.20,KBAM 041955Z AUTO 29004KT 10SM CLR 19/10 A3008 RMK AO1,M
HTH,2023-09-04 19:55,-118.6315,38.5448,1282.89,66.20,46.40,48.83,0.00,0.00,0.00,30.09,M,10.00,M,CLR,M,M,M,M,M,M,M,M,M,M,M,M,M,M,66.20,KHTH 041955Z AUTO 00000KT 10SM CLR 19/08 A3009 RMK A01,M
LSV,2023-09-04 19:55,-115.0343,36.2362,570.00,90.00,48.20,23.81,190.00,4.00,0.00,29.86,1009.00,10.00,M,CLR,M,M,M,M,M,M,M,M,M,M,M,M,M,M,86.80,KLSV 041955Z AUTO 19004KT 10SM CLR 32/09 A2986 RMK AO2 SLP090 T03220090 $,M
10U,2023-09-04 19:55,-116.1876,41.9532,1637.00,60.80,46.40,59.01,M,5.00,0.00,30.10,M,10.00,M,SCT,BKN,OVC,M,4800.00,6000.00,7000.00,M,M,M,M,M,M,M,M,60.80,K10U 041955Z AUTO VRB05KT 10SM SCT048 BKN060 OVC070 16/08 A3010 RMK AO2,M
EKO,2023-09-04 19:56,-115.7860,40.8242,1367.00,66.00,48.00,52.22,200.00,11.00,0.00,30.08,1015.10,10.00,M,FEW,SCT,M,M,3400.00,8000.00,M,M,M,M,M,M,M,M,M,66.00,KEKO 041956Z AUTO 20011KT 10SM FEW034 SCT080 19/09 A3008 RMK AO2 SLP151 T01890089,M
WMC,2023-09-04 19:56,-117.8072,40.9019,1315.00,68.00,48.00,48.73,M,3.00,0.00,30.07,1015.00,10.00,M,FEW,M,M,M,7500.00,M,M,M,M,M,M,M,M,M,M,68.00,KWMC 041956Z AUTO VRB03KT 10SM FEW075 20/09 A3007 RMK AO2 SLP150 T02000089,M
HND,2023-09-04 19:56,-115.1344,35.9729,742.79,83.00,45.00,26.37,M,4.00,0.00,29.93,1012.80,10.00,M,CLR,M,M,M,M,M,M,M,M,M,M,M,M,M,M,80.93,KHND 041956Z VRB04KT 10SM CLR 28/07 A2993 RMK AO2 SLP128 T02830072,M
LAS,2023-09-04 19:56,-115.1634,36.0719,663.00,84.00,44.00,24.58,320.00,8.00,0.00,29.91,1010.60,10.00,M,FEW,M,M,M,12000.00,M,M,M,M,M,M,M,M,M,M,81.54,KLAS 041956Z 32008KT 10SM FEW120 29/07 A2991 RMK AO2 SLP106 T02890067 $,M
NFL,2023-09-04 19:56,-118.7010,39.4166,1199.00,68.00,46.00,45.19,0.00,0.00,0.00,30.06,1014.90,10.00,M,CLR,M,M,M,M,M,M,M,M,M,M,M,M,M,M,68.00,KNFL 041956Z AUTO 00000KT 10SM CLR 20/08 A3006 RMK AO2 SLP149 T02000078,M
05U,2023-09-04 20:10,-116.0051,39.6042,1811.23,62.60,42.80,48.28,M,M,0.00,30.14,M,10.00,M,BKN,M,M,M,6000.00,M,M,M,M,M,M,M,M,M,M,62.60,K05U 042010Z AUTO 10SM BKN060 17/06 A3014 RMK A01,M
BVU,2023-09-04 20:15,-114.8611,35.9475,671.00,84.20,42.80,23.33,320.00,8.00,0.00,29.88,M,10.00,14.00,CLR,M,M,M,M,M,M,M,M,M,M,M,M,M,M,81.61,KBVU 042015Z AUTO 32008G14KT 10SM CLR 29/06 A2988 RMK AO2,M
CXP,2023-09-04 20:15,-119.7326,39.1923,1431.00,68.00,41.00,37.32,0.00,0.00,0.00,30.09,M,10.00,M,CLR,M,M,M,M,M,M,M,M,M,M,M,M,M,M,68.00,KCXP 042015Z AUTO 00000KT 10SM CLR 20/05 A3009 RMK AO2,M
RTS,2023-09-04 20:15,-119.8764,39.6682,1539.00,64.40,39.20,39.43,M,5.00,0.00,30.10,M,10.00,M,CLR,M,M,M,M,M,M,M,M,M,M,M,M,M,M,64.40,KRTS 042015Z AUTO VRB05KT 10SM CLR 18/04 A3010 RMK AO2,M
MEV,2023-09-04 20:15,-119.7500,38.9963,1441.42,68.00,39.20,34.80,0.00,0.00,0.00,30.07,M,10.00,M,CLR,M,M,M,M,M,M,M,M,M,M,M,M,M,M,68.00,KMEV 042015Z AUTO 00000KT 10SM CLR 20/04 A3007 RMK AO2,M
HTH,2023-09-04 20:15,-118.6315,38.5448,1282.89,68.00,46.40,45.88,80.00,5.00,0.00,30.08,M,10.00,M,CLR,M,M,M,M,M,M,M,M,M,M,M,M,M,M,68.00,KHTH 042015Z AUTO 08005KT 10SM CLR 20/08 A3008 RMK A01,M
10U,2023-09-04 20:15,-116.1876,41.9532,1637.00,60.80,46.40,59.01,M,4.00,0.00,30.09,M,10.00,10.00,FEW,SCT,BKN,M,3400.00,4000.00,4900.00,M,M,M,M,M,M,M,M,60.80,K10U 042015Z AUTO VRB04G10KT 10SM FEW034 SCT040 BKN049 16/08 A3009 RMK AO2,M
BAM,2023-09-04 20:15,-116.8743,40.5990,1382.36,68.00,50.00,52.51,0.00,0.00,0.00,30.08,M,10.00,M,BKN,BKN,BKN,M,4000.00,4700.00,8000.00,M,M,M,M,M,M,M,M,68.00,KBAM 042015Z AUTO 00000KT 10SM BKN040 BKN047 BKN080 20/10 A3008 RMK AO1,M
05U,2023-09-04 20:30,-116.0051,39.6042,1811.23,64.40,44.60,48.55,M,M,0.00,30.14,M,10.00,M,BKN,M,M,M,6000.00,M,M,M,M,M,M,M,M,M,M,64.40,K05U 042030Z AUTO 10SM BKN060 18/07 A3014 RMK A01,M
BVU,2023-09-04 20:35,-114.8611,35.9475,671.00,84.20,41.00,21.76,320.00,7.00,0.00,29.88,M,10.00,14.00,CLR,M,M,M,M,M,M,M,M,M,M,M,M,M,M,81.52,KBVU 042035Z AUTO 32007G14KT 10SM CLR 29/05 A2988 RMK AO2,M
CXP,2023-09-04 20:35,-119.7326,39.1923,1431.00,68.00,41.00,37.32,0.00,0.00,0.00,30.08,M,10.00,M,CLR,M,M,M,M,M,M,M,M,M,M,M,M,M,M,68.00,KCXP 042035Z AUTO 00000KT 10SM CLR 20/05 A3008 RMK AO2,M
RTS,2023-09-04 20:35,-119.8764,39.6682,1539.00,66.20,39.20,37.03,60.00,5.00,0.00,30.09,M,10.00,M,CLR,M,M,M,M,M,M,M,M,M,M,M,M,M,M,66.20,KRTS 042035Z AUTO 06005KT 10SM CLR 19/04 A3009 RMK AO2,M
MEV,2023-09-04 20:35,-119.7500,38.9963,1441.42,69.80,39.20,32.72,60.00,5.00,0.00,30.07,M,10.00,M,CLR,M,M,M,M,M,M,M,M,M,M,M,M,M,M,69.80,KMEV 042035Z AUTO 06005KT 10SM CLR 21/04 A3007 RMK AO2,M
BAM,2023-09-04 20:35,-116.8743,40.5990,1382.36,68.00,50.00,52.51,270.00,4.00,0.00,30.08,M,10.00,M,BKN,BKN,OVC,M,4000.00,6000.00,8000.00,M,M,M,M,M,M,M,M,68.00,KBAM 042035Z AUTO 27004KT 10SM BKN040 BKN060 OVC080 20/10 A3008 RMK AO1,M
HTH,2023-09-04 20:35,-118.6315,38.5448,1282.89,68.00,46.40,45.88,M,4.00,0.00,30.07,M,10.00,M,CLR,M,M,M,M,M,M,M,M,M,M,M,M,M,M,68.00,KHTH 042035Z AUTO VRB04KT 10SM CLR 20/08 A3007 RMK A01,M
10U,2023-09-04 20:35,-116.1876,41.9532,1637.00,64.40,48.20,55.63,270.00,9.00,0.00,30.09,M,10.00,M,FEW,SCT,BKN,M,3400.00,4000.00,6500.00,M,M,M,M,M,M,M,M,64.40,K10U 042035Z AUTO 27009KT 230V290 10SM FEW034 SCT040 BKN065 18/09 A3009 RMK AO2,M
05U,2023-09-04 20:50,-116.0051,39.6042,1811.23,66.20,44.60,45.60,M,M,0.00,30.14,M,10.00,M,BKN,M,M,M,6500.00,M,M,M,M,M,M,M,M,M,M,66.20,K05U 042050Z AUTO 10SM BKN065 19/07 A3014 RMK A01,M
P68,2023-09-04 20:53,-116.0056,39.6014,1993.00,63.00,43.00,47.97,M,3.00,0.00,30.11,1014.00,M,M,M,M,M,M,M,M,M,M,M,M,M,M,M,M,M,63.00,KP68 042053Z AUTO VRB03KT 17/06 A3011 RMK AO1 SLP140 T01720061 58007 $,M
DRA,2023-09-04 20:53,-116.0278,36.6206,1009.00,81.00,41.00,24.14,M,4.00,0.00,29.94,1009.70,10.00,M,CLR,M,M,M,M,M,M,M,M,M,M,M,M,M,M,79.43,KDRA 042053Z AUTO VRB04KT 10SM CLR 27/05 A2994 RMK AO2 SLP097 T02720050 58014,M
ELY,2023-09-04 20:53,-114.8453,39.2950,1909.00,64.00,44.00,48.12,M,5.00,0.00,30.12,1013.00,10.00,M,CLR,M,M,M,M,M,M,M,M,M,M,M,M,M,M,64.00,KELY 042053Z AUTO VRB05KT 10SM CLR 18/07 A3012 RMK AO2 SLP130 T01780067 58006,M
VGT,2023-09-04 20:53,-115.1933,36.2111,667.00,85.00,46.00,25.69,100.00,7.00,0.00,29.87,1010.90,10.00,M,CLR,M,M,M,M,M,M,M,M,M,M,M,M,M,M,82.42,KVGT 042053Z 10007KT 10SM CLR 29/08 A2987 RMK AO2 SLP109 T02940078 58015 $,M
LOL,2023-09-04 20:53,-118.5701,40.0684,1192.43,68.00,47.00,46.93,230.00,7.00,0.00,30.05,1015.40,10.00,M,SCT,M,M,M,6500.00,M,M,M,M,M,M,M,M,M,M,68.00,KLOL 042053Z AUTO 23007KT 10SM SCT065 20/08 A3005 RMK AO2 SLP154 T02000083 56014,M
BVU,2023-09-04 20:55,-114.8611,35.9475,671.00,84.20,41.00,21.76,M,6.00,0.00,29.87,M,10.00,12.00,CLR,M,M,M,M,M,M,M,M,M,M,M,M,M,M,81.52,KBVU 042055Z AUTO VRB06G12KT 10SM CLR 29/05 A2987 RMK AO2,M
CXP,2023-09-04 20:55,-119.7326,39.1923,1431.00,68.00,41.00,37.32,M,4.00,0.00,30.08,M,10.00,M,CLR,M,M,M,M,M,M,M,M,M,M,M,M,M,M,68.00,KCXP 042055Z AUTO VRB04KT 10SM CLR 20/05 A3008 RMK AO2,M
INS,2023-09-04 20:55,-115.6733,36.5872,955.00,79.70,38.70,23.03,0.00,0.00,0.00,29.94,1009.70,10.00,M,CLR,M,M,M,M,M,M,M,M,M,M,M,M,M,M,79.70,KINS 042055Z AUTO 00000KT 10SM CLR 27/04 A2994 RMK AO2 SLP097 T02650037 57015 $,M
RNO,2023-09-04 20:55,-119.7711,39.4839,1341.00,70.00,42.00,36.22,0.00,0.00,0.00,30.05,1013.90,10.00,M,FEW,FEW,M,M,7000.00,10000.00,M,M,M,M,M,M,M,M,M,70.00,KRNO 042055Z 00000KT 10SM FEW070 FEW100 21/06 A3005 RMK AO2 SLP139 T02110056 58018,M
HND,2023-09-04 20:55,-115.1344,35.9729,742.79,84.20,46.40,26.76,310.00,5.00,0.00,29.92,M,10.00,M,CLR,M,M,M,M,M,M,M,M,M,M,M,M,M,M,81.87,KHND 042055Z 31005KT 10SM SKC 29/08 A2992 RMK JC,M
RTS,2023-09-04 20:55,-119.8764,39.6682,1539.00,66.20,39.20,37.03,M,5.00,0.00,30.09,M,10.00,M,CLR,M,M,M,M,M,M,M,M,M,M,M,M,M,M,66.20,KRTS 042055Z AUTO VRB05KT 10SM CLR 19/04 A3009 RMK AO2,M
MEV,2023-09-04 20:55,-119.7500,38.9963,1441.42,71.60,41.00,33.00,230.00,5.00,0.00,30.06,M,10.00,M,CLR,M,M,M,M,M,M,M,M,M,M,M,M,M,M,71.60,KMEV 042055Z AUTO 23005KT 10SM CLR 22/05 A3006 RMK AO2,M
BAM,2023-09-04 20:55,-116.8743,40.5990,1382.36,68.00,50.00,52.51,270.00,5.00,0.00,30.08,M,10.00,M,SCT,OVC,M,M,4000.00,7000.00,M,M,M,M,M,M,M,M,M,68.00,KBAM 042055Z AUTO 27005KT 10SM SCT040 OVC070 20/10 A3008 RMK AO1,M
HTH,2023-09-04 20:55,-118.6315,38.5448,1282.89,69.80,46.40,43.13,0.00,0.00,0.00,30.07,M,10.00,M,CLR,M,M,M,M,M,M,M,M,M,M,M,M,M,M,69.80,KHTH 042055Z AUTO 00000KT 10SM CLR 21/08 A3007 RMK A01,M
10U,2023-09-04 20:55,-116.1876,41.9532,1637.00,62.60,46.40,55.37,230.00,10.00,0.00,30.09,M,10.00,M,FEW,SCT,BKN,M,3400.00,4100.00,4900.00,M,M,M,M,M,M,M,M,62.60,K10U 042055Z AUTO 23010KT 10SM FEW034 SCT041 BKN049 17/08 A3009 RMK AO2,M
LSV,2023-09-04 20:55,-115.0343,36.2362,570.00,89.40,45.50,21.91,0.00,0.00,0.00,29.84,1008.30,10.00,M,CLR,M,M,M,M,M,M,M,M,M,M,M,M,M,M,85.97,KLSV 042055Z AUTO 00000KT 10SM CLR 32/08 A2984 RMK AO2 SLP083 T03190075 57016 $,M
EKO,2023-09-04 20:56,-115.7860,40.8242,1367.00,66.00,47.00,50.29,250.00,7.00,0.00,30.07,1014.80,10.00,M,SCT,BKN,BKN,M,4000.00,5000.00,8000.00,M,M,M,M,M,M,M,M,66.00,KEKO 042056Z AUTO 25007KT 10SM SCT040 BKN050 BKN080 19/08 A3007 RMK AO2 SLP148 T01890083 58006,M
WMC,2023-09-04 20:56,-117.8072,40.9019,1315.00,69.00,47.00,45.35,220.00,4.00,0.00,30.06,1014.70,10.00,M,CLR,M,M,M,M,M,M,M,M,M,M,M,M,M,M,69.00,KWMC 042056Z AUTO 22004KT 10SM CLR 21/08 A3006 RMK AO2 SLP147 T02060083 56008,M
NFL,2023-09-04 20:56,-118.7010,39.4166,1199.00,70.00,45.00,40.63,M,4.00,0.00,30.05,1014.40,10.00,M,CLR,M,M,M,M,M,M,M,M,M,M,M,M,M,M,70.00,KNFL 042056Z AUTO VRB04KT 10SM CLR 21/07 A3005 RMK AO2 SLP144 T02110072 56014,M
HND,2023-09-04 20:56,-115.1344,35.9729,742.79,84.00,45.00,25.54,20.00,7.00,0.00,29.92,1012.20,10.00,M,CLR,M,M,M,M,M,M,M,M,M,M,M,M,M,M,81.61,KHND 042056Z 02007KT 10SM CLR 29/07 A2992 RMK AO2 SLP122 T02890072 58015,M
LAS,2023-09-04 20:56,-115.1634,36.0719,663.00,84.00,44.00,24.58,0.00,0.00,0.00,29.88,1009.60,10.00,M,FEW,M,M,M,12000.00,M,M,M,M,M,M,M,M,M,M,81.54,KLAS 042056Z 00000KT 10SM FEW120 29/07 A2988 RMK AO2 SLP096 T02890067 58015 $,M
05U,2023-09-04 21:10,-116.0051,39.6042,1811.23,66.20,42.80,42.57,M,M,0.00,30.13,M,10.00,M,OVC,M,M,M,6000.00,M,M,M,M,M,M,M,M,M,M,66.20,K05U 042110Z AUTO 10SM OVC060 19/06 A3013 RMK A01,M
BVU,2023-09-04 21:15,-114.8611,35.9475,671.00,86.00,39.20,19.15,360.00,8.00,0.00,29.86,M,10.00,13.00,CLR,M,M,M,M,M,M,M,M,M,M,M,M,M,M,82.79,KBVU 042115Z AUTO 36008G13KT 350V050 10SM CLR 30/04 A2986 RMK AO2,M
CXP,2023-09-04 21:15,-119.7326,39.1923,1431.00,69.80,41.00,35.09,M,3.00,0.00,30.07,M,10.00,M,CLR,M,M,M,M,M,M,M,M,M,M,M,M,M,M,69.80,KCXP 042115Z AUTO VRB03KT 10SM CLR 21/05 A3007 RMK AO2,M
RTS,2023-09-04 21:15,-119.8764,39.6682,1539.00,68.00,39.20,34.80,M,5.00,0.00,30.09,M,10.00,M,CLR,M,M,M,M,M,M,M,M,M,M,M,M,M,M,68.00,KRTS 042115Z AUTO VRB05KT 10SM CLR 20/04 A3009 RMK AO2,M
MEV,2023-09-04 21:15,-119.7500,38.9963,1441.42,69.80,39.20,32.72,0.00,0.00,0.00,30.05,M,10.00,M,CLR,M,M,M,M,M,M,M,M,M,M,M,M,M,M,69.80,KMEV 042115Z AUTO 00000KT 10SM CLR 21/04 A3005 RMK AO2,M
BAM,2023-09-04 21:15,-116.8743,40.5990,1382.36,66.20,50.00,55.88,310.00,4.00,0.00,30.07,M,10.00,M,OVC,M,M,M,7000.00,M,M,M,M,M,M,M,M,M,M,66.20,KBAM 042115Z AUTO 31004KT 10SM OVC070 19/10 A3007 RMK AO1,M
HTH,2023-09-04 21:15,-118.6315,38.5448,1282.89,69.80,46.40,43.13,M,3.00,0.00,30.06,M,10.00,M,CLR,M,M,M,M,M,M,M,M,M,M,M,M,M,M,69.80,KHTH 042115Z AUTO VRB03KT 10SM CLR 21/08 A3006 RMK A01,M
10U,2023-09-04 21:15,-116.1876,41.9532,1637.00,59.00,48.20,67.33,200.00,11.00,0.00,30.09,M,10.00,18.00,SCT,BKN,OVC,M,3600.00,4900.00,7000.00,M,M,M,M,M,M,M,M,59.00,K10U 042115Z AUTO 20011G18KT 10SM SCT036 BKN049 OVC070 15/09 A3009 RMK AO2,M
05U,2023-09-04 21:30,-116.0051,39.6042,1811.23,64.40,42.80,45.32,M,M,0.00,30.13,M,10.00,M,OVC,M,M,M,6000.00,M,M,M,M,M,M,M,M,M,M,64.40,K05U 042130Z AUTO 10SM OVC060 18/06 A3013 RMK A01,M
BVU,2023-09-04 21:35,-114.8611,35.9475,671.00,86.00,41.00,20.54,320.00,5.00,0.00,29.86,M,10.00,12.00,CLR,M,M,M,M,M,M,M,M,M,M,M,M,M,M,82.86,KBVU 042135Z AUTO 32005G12KT 10SM CLR 30/05 A2986 RMK AO2,M
CXP,2023-09-04 21:35,-119.7326,39.1923,1431.00,69.80,39.20,32.72,240.00,4.00,0.00,30.06,M,10.00,M,CLR,M,M,M,M,M,M,M,M,M,M,M,M,M,M,69.80,KCXP 042135Z AUTO 24004KT 10SM CLR 21/04 A3006 RMK AO2,M
RTS,2023-09-04 21:35,-119.8764,39.6682,1539.00,68.00,39.20,34.80,M,4.00,0.00,30.08,M,10.00,M,CLR,M,M,M,M,M,M,M,M,M,M,M,M,M,M,68.00,KRTS 042135Z AUTO VRB04KT 10SM CLR 20/04 A3008 RMK AO2,M
MEV,2023-09-04 21:35,-119.7500,38.9963,1441.42,71.60,41.00,33.00,M,6.00,0.00,30.04,M,10.00,M,CLR,M,M,M,M,M,M,M,M,M,M,M,M,M,M,71.60,KMEV 042135Z AUTO VRB06KT 10SM CLR 22/05 A3004 RMK AO2,M
BAM,2023-09-04 21:35,-116.8743,40.5990,1382.36,66.20,50.00,55.88,290.00,4.00,0.00,30.07,M,10.00,M,OVC,M,M,M,7000.00,M,M,M,M,M,M,M,M,M,M,66.20,KBAM 042135Z AUTO 29004KT 10SM OVC070 19/10 A3007 RMK AO1,M
HTH,2023-09-04 21:35,-118.6315,38.5448,1282.89,71.60,44.60,37.89,0.00,0.00,0.00,30.05,M,10.00,M,CLR,M,M,M,M,M,M,M,M,M,M,M,M,M,M,71.60,KHTH 042135Z AUTO 00000KT 10SM CLR 22/07 A3005 RMK A01,M
10U,2023-09-04 21:35,-116.1876,41.9532,1637.00,55.40,50.00,81.99,220.00,6.00,0.00,30.11,M,3.00,11.00,FEW,SCT,BKN,M,3300.00,5000.00,6000.00,M,RA,M,M,M,M,M,M,55.40,K10U 042135Z AUTO 22006G11KT 3SM RA FEW033 SCT050 BKN060 13/10 A3011 RMK AO2,M
05U,2023-09-04 21:45,-116.0051,39.6042,1811.23,64.40,42.80,45.32,M,M,0.00,30.12,M,10.00,M,OVC,M,M,M,6000.00,M,M,M,M,M,M,M,M,M,M,64.40,K05U 042145Z AUTO 10SM OVC060 18/06 A3012 RMK A01,M
P68,2023-09-04 21:53,-116.0056,39.6014,1993.00,64.00,42.00,44.57,40.00,5.00,0.00,30.09,1013.50,M,M,M,M,M,M,M,M,M,M,M,M,M,M,M,M,M,64.00,KP68 042153Z AUTO 04005KT 18/06 A3009 RMK AO1 SLP135 T01780056 $,M
DRA,2023-09-04 21:53,-116.0278,36.6206,1009.00,83.00,39.00,20.93,110.00,4.00,0.00,29.92,1009.00,10.00,M,CLR,M,M,M,M,M,M,M,M,M,M,M,M,M,M,80.60,KDRA 042153Z AUTO 11004KT 10SM CLR 28/04 A2992 RMK AO2 SLP090 T02830039,M
ELY,2023-09-04 21:53,-114.8453,39.2950,1909.00,67.00,44.00,43.35,350.00,8.00,0.00,30.11,1012.10,10.00,M,SCT,M,M,M,4900.00,M,M,M,M,M,M,M,M,M,M,67.00,KELY 042153Z AUTO 35008KT 10SM SCT049 19/07 A3011 RMK AO2 SLP121 T01940067,M
VGT,2023-09-04 21:53,-115.1933,36.2111,667.00,88.00,44.00,21.63,M,4.00,0.00,29.85,1010.10,10.00,M,CLR,M,M,M,M,M,M,M,M,M,M,M,M,M,M,84.65,KVGT 042153Z VRB04KT 10SM CLR 31/07 A2985 RMK AO2 SLP101 T03110067 $,M
LOL,2023-09-04 21:53,-118.5701,40.0684,1192.43,69.00,47.00,45.35,0.00,0.00,0.00,30.03,1015.10,10.00,M,BKN,OVC,M,M,5500.00,7000.00,M,M,M,M,M,M,M,M,M,69.00,KLOL 042153Z AUTO 00000KT 10SM BKN055 OVC070 21/08 A3003 RMK AO2 SLP151 T02060083,M
BVU,2023-09-04 21:55,-114.8611,35.9475,671.00,86.00,41.00,20.54,300.00,4.00,0.00,29.85,M,10.00,11.00,CLR,M,M,M,M,M,M,M,M,M,M,M,M,M,M,82.86,KBVU 042155Z AUTO 30004G11KT 10SM CLR 30/05 A2985 RMK AO2,M
CXP,2023-09-04 21:55,-119.7326,39.1923,1431.00,71.60,41.00,33.00,0.00,0.00,0.00,30.05,M,10.00,M,CLR,M,M,M,M,M,M,M,M,M,M,M,M,M,M,71.60,KCXP 042155Z AUTO 00000KT 10SM CLR 22/05 A3005 RMK AO2,M
INS,2023-09-04 21:55,-115.6733,36.5872,955.00,81.50,39.00,21.97,0.00,0.00,0.00,29.92,1009.00,10.00,M,CLR,M,M,M,M,M,M,M,M,M,M,M,M,M,M,79.63,KINS 042155Z AUTO 00000KT 10SM CLR 28/04 A2992 RMK AO2 SLP090 T02750039 $,M
RNO,2023-09-04 21:55,-119.7711,39.4839,1341.00,74.00,42.00,31.63,M,3.00,0.00,30.03,1013.20,10.00,M,FEW,M,M,M,8000.00,M,M,M,M,M,M,M,M,M,M,74.00,KRNO 042155Z VRB03KT 10SM FEW080 23/06 A3003 RMK AO2 SLP132 T02330056,M
RTS,2023-09-04 21:55,-119.8764,39.6682,1539.00,68.00,39.20,34.80,90.00,5.00,0.00,30.08,M,10.00,M,CLR,M,M,M,M,M,M,M,M,M,M,M,M,M,M,68.00,KRTS 042155Z AUTO 09005KT 10SM CLR 20/04 A3008 RMK AO2,M
MEV,2023-09-04 21:55,-119.7500,38.9963,1441.42,71.60,41.00,33.00,240.00,5.00,0.00,30.03,M,10.00,M,CLR,M,M,M,M,M,M,M,M,M,M,M,M,M,M,71.60,KMEV 042155Z AUTO 24005KT 10SM CLR 22/05 A3003 RMK AO2,M
HTH,2023-09-04 21:55,-118.6315,38.5448,1282.89,M,M,M,0.00,0.00,0.00,30.04,M,M,M,M,M,M,M,M,M,M,M,M,M,M,M,M,M,M,M,KHTH 042155Z AUTO 00000KT A3004 RMK A01,M
BAM,2023-09-04 21:55,-116.8743,40.5990,1382.36,66.20,50.00,55.88,290.00,3.00,0.00,30.07,M,10.00,M,OVC,M,M,M,7000.00,M,M,M,M,M,M,M,M,M,M,66.20,KBAM 042155Z AUTO 29003KT 10SM OVC070 19/10 A3007 RMK AO1,M
10U,2023-09-04 21:55,-116.1876,41.9532,1637.00,55.40,50.00,81.99,290.00,4.00,0.00,30.11,M,4.00,11.00,FEW,SCT,BKN,M,2000.00,3000.00,3900.00,M,-RA,M,M,M,M,M,M,55.40,K10U 042155Z AUTO 29004G11KT 4SM -RA FEW020 SCT030 BKN039 13/10 A3011 RMK AO2,M
LSV,2023-09-04 21:55,-115.0343,36.2362,570.00,90.50,45.00,20.77,0.00,0.00,0.00,29.81,1007.20,10.00,M,CLR,M,M,M,M,M,M,M,M,M,M,M,M,M,M,86.90,KLSV 042155Z AUTO 00000KT 10SM CLR 33/07 A2981 RMK AO2 SLP072 T03250073 $,M
EKO,2023-09-04 21:56,-115.7860,40.8242,1367.00,68.00,47.00,46.93,250.00,9.00,0.00,30.07,1014.50,10.00,M,FEW,OVC,M,M,4400.00,8500.00,M,M,M,M,M,M,M,M,M,68.00,KEKO 042156Z AUTO 25009KT 10SM FEW044 OVC085 20/08 A3007 RMK AO2 SLP145 T02000083,M
WMC,2023-09-04 21:56,-117.8072,40.9019,1315.00,68.00,46.00,45.19,M,M,0.00,30.05,1014.30,10.00,M,FEW,M,M,M,5000.00,M,M,M,M,M,M,M,M,M,M,68.00,KWMC 042156Z AUTO 10SM FEW050 20/08 A3005 RMK AO2 SLP143 T02000078,M
NFL,2023-09-04 21:56,-118.7010,39.4166,1199.00,71.00,42.00,35.01,0.00,0.00,0.00,30.03,1013.80,10.00,M,CLR,M,M,M,M,M,M,M,M,M,M,M,M,M,M,71.00,KNFL 042156Z AUTO 00000KT 10SM CLR 22/06 A3003 RMK AO2 SLP138 T02170056,M
HND,2023-09-04 21:56,-115.1344,35.9729,742.79,85.00,43.00,22.91,0.00,0.00,0.00,29.90,1011.70,10.00,M,CLR,M,M,M,M,M,M,M,M,M,M,M,M,M,M,82.21,KHND 042156Z 00000KT 10SM CLR 29/06 A2990 RMK AO2 SLP117 T02940061,M
LAS,2023-09-04 21:56,-115.1634,36.0719,663.00,85.00,42.00,22.05,0.00,0.00,0.00,29.86,1009.10,10.00,M,FEW,M,M,M,12000.00,M,M,M,M,M,M,M,M,M,M,82.15,KLAS 042156Z 00000KT 10SM FEW120 29/06 A2986 RMK AO2 SLP091 T02940056 $,M
05U,2023-09-04 22:10,-116.0051,39.6042,1811.23,68.00,42.80,40.00,M,M,0.00,30.11,M,10.00,M,FEW,SCT,M,M,6000.00,7000.00,M,M,M,M,M,M,M,M,M,68.00,K05U 042210Z AUTO 10SM FEW060 SCT070 20/06 A3011 RMK A01,M
HTH,2023-09-04 22:10,-118.6315,38.5448,1282.89,69.80,44.60,40.29,M,3.00,0.00,30.04,M,10.00,M,M,M,M,M,M,M,M,M,M,M,M,M,M,M,M,69.80,KHTH 042210Z AUTO VRB03KT 10SM 21/07 A3004 RMK A01,M
BVU,2023-09-04 22:15,-114.8611,35.9475,671.00,86.00,42.80,22.02,330.00,9.00,0.00,29.84,M,10.00,M,CLR,M,M,M,M,M,M,M,M,M,M,M,M,M,M,82.95,KBVU 042215Z AUTO 33009KT 10SM CLR 30/06 A2984 RMK AO2,M
CXP,2023-09-04 22:15,-119.7326,39.1923,1431.00,71.60,39.20,30.77,0.00,0.00,0.00,30.05,M,10.00,M,CLR,M,M,M,M,M,M,M,M,M,M,M,M,M,M,71.60,KCXP 042215Z AUTO 00000KT 10SM CLR 22/04 A3005 RMK AO2,M
RTS,2023-09-04 22:15,-119.8764,39.6682,1539.00,68.00,39.20,34.80,140.00,4.00,0.00,30.07,M,10.00,10.00,CLR,M,M,M,M,M,M,M,M,M,M,M,M,M,M,68.00,KRTS 042215Z AUTO 14004G10KT 10SM CLR 20/04 A3007 RMK AO2,M
MEV,2023-09-04 22:15,-119.7500,38.9963,1441.42,73.40,41.00,31.05,M,4.00,0.00,30.03,M,10.00,M,CLR,M,M,M,M,M,M,M,M,M,M,M,M,M,M,73.40,KMEV 042215Z AUTO VRB04KT 10SM CLR 23/05 A3003 RMK AO2,M
10U,2023-09-04 22:15,-116.1876,41.9532,1637.00,55.40,50.00,81.99,0.00,0.00,0.00,30.10,M,10.00,M,FEW,BKN,OVC,M,2000.00,5000.00,5500.00,M,M,M,M,M,M,M,M,55.40,K10U 042215Z AUTO 00000KT 10SM FEW020 BKN050 OVC055 13/10 A3010 RMK AO2,M
BAM,2023-09-04 22:15,-116.8743,40.5990,1382.36,68.00,50.00,52.51,320.00,4.00,0.00,30.07,M,10.00,M,OVC,M,M,M,6500.00,M,M,M,M,M,M,M,M,M,M,68.00,KBAM 042215Z AUTO 32004KT 10SM OVC065 20/10 A3007 RMK AO1,M
05U,2023-09-04 22:25,-116.0051,39.6042,1811.23,66.20,42.80,42.57,M,M,0.00,30.12,M,10.00,M,FEW,SCT,M,M,5000.00,7000.00,M,M,M,M,M,M,M,M,M,66.20,K05U 042225Z AUTO 10SM FEW050 SCT070 19/06 A3012 RMK A01,M
BVU,2023-09-04 22:35,-114.8611,35.9475,671.00,86.00,41.00,20.54,320.00,9.00,0.00,29.84,M,10.00,14.00,CLR,M,M,M,M,M,M,M,M,M,M,M,M,M,M,82.86,KBVU 042235Z AUTO 32009G14KT 10SM CLR 30/05 A2984 RMK AO2,M
CXP,2023-09-04 22:35,-119.7326,39.1923,1431.00,71.60,41.00,33.00,M,4.00,0.00,30.04,M,10.00,M,CLR,M,M,M,M,M,M,M,M,M,M,M,M,M,M,71.60,KCXP 042235Z AUTO VRB04KT 10SM CLR 22/05 A3004 RMK AO2,M
RTS,2023-09-04 22:35,-119.8764,39.6682,1539.00,69.80,41.00,35.09,200.00,5.00,0.00,30.06,M,10.00,M,CLR,M,M,M,M,M,M,M,M,M,M,M,M,M,M,69.80,KRTS 042235Z AUTO 20005KT 10SM CLR 21/05 A3006 RMK AO2,M
MEV,2023-09-04 22:35,-119.7500,38.9963,1441.42,73.40,41.00,31.05,M,3.00,0.00,30.02,M,10.00,M,CLR,M,M,M,M,M,M,M,M,M,M,M,M,M,M,73.40,KMEV 042235Z AUTO VRB03KT 10SM CLR 23/05 A3002 RMK AO2,M
BAM,2023-09-04 22:35,-116.8743,40.5990,1382.36,68.00,50.00,52.51,310.00,3.00,0.00,30.06,M,10.00,M,OVC,M,M,M,6500.00,M,M,M,M,M,M,M,M,M,M,68.00,KBAM 042235Z AUTO 31003KT 10SM OVC065 20/10 A3006 RMK AO1,M
HTH,2023-09-04 22:35,-118.6315,38.5448,1282.89,71.60,44.60,37.89,0.00,0.00,0.00,30.03,M,10.00,M,CLR,M,M,M,M,M,M,M,M,M,M,M,M,M,M,71.60,KHTH 042235Z AUTO 00000KT 10SM CLR 22/07 A3003 RMK A01,M
10U,2023-09-04 22:35,-116.1876,41.9532,1637.00,57.20,51.80,82.12,M,4.00,0.00,30.10,M,10.00,M,SCT,BKN,OVC,M,4800.00,5500.00,8500.00,M,M,M,M,M,M,M,M,57.20,K10U 042235Z AUTO VRB04KT 10SM SCT048 BKN055 OVC085 14/11 A3010 RMK AO2,M
05U,2023-09-04 22:50,-116.0051,39.6042,1811.23,66.20,41.00,39.72,M,M,0.00,30.11,M,10.00,M,SCT,BKN,M,M,5000.00,7000.00,M,M,M,M,M,M,M,M,M,66.20,K05U 042250Z AUTO 10SM SCT050 BKN070 19/05 A3011 RMK A01,M
P68,2023-09-04 22:53,-116.0056,39.6014,1993.00,66.00,43.00,43.20,90.00,5.00,0.00,30.08,1013.30,M,M,M,M,M,M,M,M,M,M,M,M,M,M,M,M,M,66.00,KP68 042253Z AUTO 09005KT 19/06 A3008 RMK AO1 SLP133 T01890061 $,M
DRA,2023-09-04 22:53,-116.0278,36.6206,1009.00,85.00,39.00,19.62,360.00,10.00,0.00,29.91,1008.40,10.00,M,CLR,M,M,M,M,M,M,M,M,M,M,M,M,M,M,82.02,KDRA 042253Z AUTO 36010KT 10SM CLR 29/04 A2991 RMK AO2 SLP084 T02940039,M
ELY,2023-09-04 22:53,-114.8453,39.2950,1909.00,66.00,43.00,43.20,340.00,6.00,0.00,30.10,1012.20,10.00,M,FEW,M,M,M,5000.00,M,M,M,M,M,M,M,M,M,M,66.00,KELY 042253Z AUTO 34006KT 10SM FEW050 19/06 A3010 RMK AO2 SLP122 T01890061,M
VGT,2023-09-04 22:53,-115.1933,36.2111,667.00,89.00,41.00,18.68,320.00,5.00,0.00,29.83,1009.60,10.00,M,CLR,M,M,M,M,M,M,M,M,M,M,M,M,M,M,85.30,KVGT 042253Z 32005KT 10SM CLR 32/05 A2983 RMK AO2 SLP096 T03170050 $,M
LOL,2023-09-04 22:53,-118.5701,40.0684,1192.43,70.00,46.00,42.20,100.00,5.00,0.00,30.02,1014.50,10.00,M,CLR,M,M,M,M,M,M,M,M,M,M,M,M,M,M,70.00,KLOL 042253Z AUTO 10005KT 10SM CLR 21/08 A3002 RMK AO2 SLP145 T02110078,M
BVU,2023-09-04 22:55,-114.8611,35.9475,671.00,87.80,39.20,18.09,320.00,6.00,0.00,29.84,M,10.00,M,CLR,M,M,M,M,M,M,M,M,M,M,M,M,M,M,84.22,KBVU 042255Z AUTO 32006KT 10SM CLR 31/04 A2984 RMK AO2,M
CXP,2023-09-04 22:55,-119.7326,39.1923,1431.00,71.60,41.00,33.00,0.00,0.00,0.00,30.03,M,10.00,M,CLR,M,M,M,M,M,M,M,M,M,M,M,M,M,M,71.60,KCXP 042255Z AUTO 00000KT 10SM CLR 22/05 A3003 RMK AO2,M
INS,2023-09-04 22:55,-115.6733,36.5872,955.00,83.30,35.40,17.99,0.00,0.00,0.00,29.90,1008.30,10.00,M,CLR,M,M,M,M,M,M,M,M,M,M,M,M,M,M,80.69,KINS 042255Z AUTO 00000KT 10SM CLR 29/02 A2990 RMK AO2 SLP083 T02850019 $,M
RNO,2023-09-04 22:55,-119.7711,39.4839,1341.00,74.00,43.00,32.87,M,4.00,0.00,30.01,1012.40,10.00,M,FEW,M,M,M,8000.00,M,M,M,M,M,M,M,M,M,M,74.00,KRNO 042255Z VRB04KT 10SM FEW080 23/06 A3001 RMK AO2 SLP124 T02330061,M
RTS,2023-09-04 22:55,-119.8764,39.6682,1539.00,69.80,41.00,35.09,0.00,0.00,0.00,30.05,M,10.00,M,CLR,M,M,M,M,M,M,M,M,M,M,M,M,M,M,69.80,KRTS 042255Z AUTO 00000KT 10SM CLR 21/05 A3005 RMK AO2,M
MEV,2023-09-04 22:55,-119.7500,38.9963,1441.42,75.20,39.20,27.26,M,4.00,0.00,30.01,M,10.00,M,CLR,M,M,M,M,M,M,M,M,M,M,M,M,M,M,75.20,KMEV 042255Z AUTO VRB04KT 10SM CLR 24/04 A3001 RMK AO2,M
HTH,2023-09-04 22:55,-118.6315,38.5448,1282.89,71.60,46.40,40.57,M,4.00,0.00,30.02,M,10.00,M,CLR,M,M,M,M,M,M,M,M,M,M,M,M,M,M,71.60,KHTH 042255Z AUTO VRB04KT 10SM CLR 22/08 A3002 RMK A01,M
LSV,2023-09-04 22:55,-115.0343,36.2362,570.00,91.20,47.00,21.92,70.00,4.00,0.00,29.80,1006.90,10.00,M,CLR,M,M,M,M,M,M,M,M,M,M,M,M,M,M,87.75,KLSV 042255Z AUTO 07004KT 10SM CLR 33/08 A2980 RMK AO2 SLP069 T03290083 $,M
BAM,2023-09-04 22:55,-116.8743,40.5990,1382.36,68.00,50.00,52.51,280.00,5.00,0.00,30.06,M,10.00,M,OVC,M,M,M,6500.00,M,M,M,M,M,M,M,M,M,M,68.00,KBAM 042255Z AUTO 28005KT 10SM OVC065 20/10 A3006 RMK AO1,M
10U,2023-09-04 22:55,-116.1876,41.9532,1637.00,57.20,51.80,82.12,100.00,5.00,0.00,30.10,M,10.00,M,FEW,SCT,OVC,M,4900.00,6000.00,8500.00,M,M,M,M,M,M,M,M,57.20,K10U 042255Z AUTO 10005KT 10SM FEW049 SCT060 OVC085 14/11 A3010 RMK AO2,M
EKO,2023-09-04 22:56,-115.7860,40.8242,1367.00,67.00,46.00,46.78,230.00,8.00,0.00,30.05,1014.10,10.00,M,BKN,M,M,M,4800.00,M,M,M,M,M,M,M,M,M,M,67.00,KEKO 042256Z AUTO 23008KT 10SM BKN048 19/08 A3005 RMK AO2 SLP141 T01940078,M
WMC,2023-09-04 22:56,-117.8072,40.9019,1315.00,72.00,47.00,40.94,270.00,7.00,0.00,30.04,1014.00,10.00,M,FEW,M,M,M,7000.00,M,M,M,M,M,M,M,M,M,M,72.00,KWMC 042256Z AUTO 27007KT 10SM FEW070 22/08 A3004 RMK AO2 SLP140 T02220083,M
NFL,2023-09-04 22:56,-118.7010,39.4166,1199.00,73.00,40.00,30.28,M,4.00,0.00,30.02,1013.40,10.00,M,CLR,M,M,M,M,M,M,M,M,M,M,M,M,M,M,73.00,KNFL 042256Z AUTO VRB04KT 10SM CLR 23/04 A3002 RMK AO2 SLP134 T02280044,M
HND,2023-09-04 22:56,-115.1344,35.9729,742.79,86.00,42.00,21.35,360.00,7.00,0.00,29.88,1011.10,10.00,M,CLR,M,M,M,M,M,M,M,M,M,M,M,M,M,M,82.91,KHND 042256Z 36007KT 10SM CLR 30/06 A2988 RMK AO2 SLP111 T03000056,M
LAS,2023-09-04 22:56,-115.1634,36.0719,663.00,86.00,41.00,20.54,M,4.00,0.00,29.85,1008.40,10.00,M,FEW,M,M,M,12000.00,M,M,M,M,M,M,M,M,M,M,82.86,KLAS 042256Z VRB04KT 10SM FEW120 30/05 A2985 RMK AO2 SLP084 T03000050 $,M
05U,2023-09-04 23:10,-116.0051,39.6042,1811.23,68.00,41.00,37.32,M,M,0.00,30.11,M,10.00,M,SCT,M,M,M,7000.00,M,M,M,M,M,M,M,M,M,M,68.00,K05U 042310Z AUTO 10SM SCT070 20/05 A3011 RMK A01,M
BVU,2023-09-04 23:15,-114.8611,35.9475,671.00,86.00,39.20,19.15,M,6.00,0.00,29.83,M,10.00,M,CLR,M,M,M,M,M,M,M,M,M,M,M,M,M,M,82.79,KBVU 042315Z AUTO VRB06KT 10SM CLR 30/04 A2983 RMK AO2,M
CXP,2023-09-04 23:15,-119.7326,39.1923,1431.00,73.40,42.80,33.29,90.00,4.00,0.00,30.03,M,10.00,M,CLR,M,M,M,M,M,M,M,M,M,M,M,M,M,M,73.40,KCXP 042315Z AUTO 09004KT 10SM CLR 23/06 A3003 RMK AO2,M
RTS,2023-09-04 23:15,-119.8764,39.6682,1539.00,69.80,39.20,32.72,M,3.00,0.00,30.05,M,10.00,M,CLR,M,M,M,M,M,M,M,M,M,M,M,M,M,M,69.80,KRTS 042315Z AUTO VRB03KT 10SM CLR 21/04 A3005 RMK AO2,M
MEV,2023-09-04 23:15,-119.7500,38.9963,1441.42,73.40,39.20,28.96,M,5.00,0.00,30.01,M,10.00,M,CLR,M,M,M,M,M,M,M,M,M,M,M,M,M,M,73.40,KMEV 042315Z AUTO VRB05KT 10SM CLR 23/04 A3001 RMK AO2,M
BAM,2023-09-04 23:15,-116.8743,40.5990,1382.36,68.00,50.00,52.51,290.00,3.00,0.00,30.05,M,10.00,M,SCT,OVC,M,M,7500.00,8000.00,M,M,M,M,M,M,M,M,M,68.00,KBAM 042315Z AUTO 29003KT 10SM SCT075 OVC080 20/10 A3005 RMK AO1,M
HTH,2023-09-04 23:15,-118.6315,38.5448,1282.89,71.60,46.40,40.57,310.00,5.00,0.00,30.02,M,10.00,M,CLR,M,M,M,M,M,M,M,M,M,M,M,M,M,M,71.60,KHTH 042315Z AUTO 31005KT 10SM CLR 22/08 A3002 RMK A01,M
10U,2023-09-04 23:15,-116.1876,41.9532,1637.00,59.00,51.80,76.98,110.00,5.00,0.00,30.09,M,10.00,M,FEW,SCT,BKN,M,2400.00,2900.00,4900.00,M,M,M,M,M,M,M,M,59.00,K10U 042315Z AUTO 11005KT 10SM FEW024 SCT029 BKN049 15/11 A3009 RMK AO2,M
05U,2023-09-04 23:30,-116.0051,39.6042,1811.23,68.00,41.00,37.32,M,M,0.00,30.11,M,10.00,M,FEW,M,M,M,7000.00,M,M,M,M,M,M,M,M,M,M,68.00,K05U 042330Z AUTO 10SM FEW070 20/05 A3011 RMK A01,M
BVU,2023-09-04 23:35,-114.8611,35.9475,671.00,86.00,37.40,17.85,40.00,7.00,0.00,29.83,M,10.00,M,CLR,M,M,M,M,M,M,M,M,M,M,M,M,M,M,82.73,KBVU 042335Z AUTO 04007KT 10SM CLR 30/03 A2983 RMK AO2,M
CXP,2023-09-04 23:35,-119.7326,39.1923,1431.00,71.60,42.80,35.37,90.00,7.00,0.00,30.03,M,10.00,M,CLR,M,M,M,M,M,M,M,M,M,M,M,M,M,M,71.60,KCXP 042335Z AUTO 09007KT 10SM CLR 22/06 A3003 RMK AO2,M
RTS,2023-09-04 23:35,-119.8764,39.6682,1539.00,69.80,41.00,35.09,160.00,6.00,0.00,30.05,M,10.00,M,CLR,M,M,M,M,M,M,M,M,M,M,M,M,M,M,69.80,KRTS 042335Z AUTO 16006KT 10SM CLR 21/05 A3005 RMK AO2,M
MEV,2023-09-04 23:35,-119.7500,38.9963,1441.42,73.40,39.20,28.96,270.00,5.00,0.00,30.01,M,10.00,10.00,CLR,M,M,M,M,M,M,M,M,M,M,M,M,M,M,73.40,KMEV 042335Z AUTO 27005G10KT 10SM CLR 23/04 A3001 RMK AO2,M
BAM,2023-09-04 23:35,-116.8743,40.5990,1382.36,68.00,51.80,56.13,0.00,0.00,0.00,30.05,M,10.00,M,BKN,M,M,M,7500.00,M,M,M,M,M,M,M,M,M,M,68.00,KBAM 042335Z AUTO 00000KT 10SM BKN075 20/11 A3005 RMK AO1,M
HTH,2023-09-04 23:35,-118.6315,38.5448,1282.89,73.40,44.60,35.66,M,5.00,0.00,30.01,M,10.00,M,CLR,M,M,M,M,M,M,M,M,M,M,M,M,M,M,73.40,KHTH 042335Z AUTO VRB05KT 10SM CLR 23/07 A3001 RMK A01,M
10U,2023-09-04 23:35,-116.1876,41.9532,1637.00,60.80,50.00,67.54,0.00,0.00,0.00,30.09,M,10.00,M,FEW,BKN,OVC,M,2300.00,3100.00,8500.00,M,M,M,M,M,M,M,M,60.80,K10U 042335Z AUTO 00000KT 10SM FEW023 BKN031 OVC085 16/10 A3009 RMK AO2,M
05U,2023-09-04 23:50,-116.0051,39.6042,1811.23,68.00,41.00,37.32,M,M,0.00,30.11,M,10.00,M,CLR,M,M,M,M,M,M,M,M,M,M,M,M,M,M,68.00,K05U 042350Z AUTO 10SM CLR 20/05 A3011 RMK A01,M
P68,2023-09-04 23:53,-116.0056,39.6014,1993.00,68.00,42.00,38.79,0.00,0.00,0.00,30.08,1013.00,M,M,M,M,M,M,M,M,M,M,M,M,M,M,M,M,M,68.00,KP68 042353Z AUTO 00000KT 20/06 A3008 RMK AO1 SLP130 T02000056 10200 20139 56008 $,M
DRA,2023-09-04 23:53,-116.0278,36.6206,1009.00,84.00,39.00,20.27,270.00,5.00,0.00,29.89,1008.00,10.00,M,CLR,M,M,M,M,M,M,M,M,M,M,M,M,M,M,81.29,KDRA 042353Z AUTO 27005KT 10SM CLR 29/04 A2989 RMK AO2 SLP080 T02890039 10300 20239 56015,M
ELY,2023-09-04 23:53,-114.8453,39.2950,1909.00,66.00,42.00,41.57,350.00,5.00,0.00,30.10,1011.80,10.00,M,CLR,M,M,M,M,M,M,M,M,M,M,M,M,M,M,66.00,KELY 042353Z AUTO 35005KT 10SM CLR 19/06 A3010 RMK AO2 SLP118 T01890056 10194 20128 56006,M
VGT,2023-09-04 23:53,-115.1933,36.2111,667.00,90.00,40.00,17.41,M,M,0.00,29.82,1009.20,10.00,M,CLR,M,M,M,M,M,M,M,M,M,M,M,M,M,M,86.11,KVGT 042353Z 10SM CLR 32/04 A2982 RMK AO2 SLP092 T03220044 10328 20272 56016 $,M
LOL,2023-09-04 23:53,-118.5701,40.0684,1192.43,70.00,46.00,42.20,M,3.00,0.00,30.01,1014.60,10.00,M,CLR,M,M,M,M,M,M,M,M,M,M,M,M,M,M,70.00,KLOL 042353Z AUTO VRB03KT 10SM CLR 21/08 A3001 RMK AO2 SLP146 T02110078 10217 20161 56011,M
BVU,2023-09-04 23:55,-114.8611,35.9475,671.00,87.80,37.40,16.86,340.00,5.00,0.00,29.83,M,10.00,M,CLR,M,M,M,M,M,M,M,M,M,M,M,M,M,M,84.16,KBVU 042355Z AUTO 34005KT 10SM CLR 31/03 A2983 RMK AO2,M
CXP,2023-09-04 23:55,-119.7326,39.1923,1431.00,73.40,44.60,35.66,60.00,8.00,0.00,30.02,M,10.00,M,CLR,M,M,M,M,M,M,M,M,M,M,M,M,M,M,73.40,KCXP 042355Z AUTO 06008KT 10SM CLR 23/07 A3002 RMK AO2,M
INS,2023-09-04 23:55,-115.6733,36.5872,955.00,82.60,34.70,17.90,250.00,3.00,0.00,29.89,1008.10,10.00,M,CLR,M,M,M,M,M,M,M,M,M,M,M,M,M,M,80.19,KINS 042355Z AUTO 25003KT 10SM CLR 28/02 A2989 RMK AO2 SLP081 T02810015 10287 20230 57016 $,M
RNO,2023-09-04 23:55,-119.7711,39.4839,1341.00,74.00,43.00,32.87,60.00,5.00,0.00,30.00,1012.10,10.00,M,FEW,M,M,M,8000.00,M,M,M,M,M,M,M,M,M,M,74.00,KRNO 042355Z 06005KT 10SM FEW080 23/06 A3000 RMK AO2 SLP121 T02330061 10239 20172 56014,M
RTS,2023-09-04 23:55,-119.8764,39.6682,1539.00,71.60,41.00,33.00,M,3.00,0.00,30.05,M,10.00,M,CLR,M,M,M,M,M,M,M,M,M,M,M,M,M,M,71.60,KRTS 042355Z AUTO VRB03KT 10SM CLR 22/05 A3005 RMK AO2,M
MEV,2023-09-04 23:55,-119.7500,38.9963,1441.42,75.20,39.20,27.26,280.00,4.00,0.00,30.01,M,10.00,M,CLR,M,M,M,M,M,M,M,M,M,M,M,M,M,M,75.20,KMEV 042355Z AUTO 28004KT 10SM CLR 24/04 A3001 RMK AO2,M
BAM,2023-09-04 23:55,-116.8743,40.5990,1382.36,68.00,50.00,52.51,280.00,4.00,0.00,30.05,M,10.00,M,BKN,M,M,M,7500.00,M,M,M,M,M,M,M,M,M,M,68.00,KBAM 042355Z AUTO 28004KT 10SM BKN075 20/10 A3005 RMK AO1,M
HTH,2023-09-04 23:55,-118.6315,38.5448,1282.89,71.60,44.60,37.89,320.00,8.00,0.00,30.01,M,10.00,M,CLR,M,M,M,M,M,M,M,M,M,M,M,M,M,M,71.60,KHTH 042355Z AUTO 32008KT 10SM CLR 22/07 A3001 RMK A01,M
LSV,2023-09-04 23:55,-115.0343,36.2362,570.00,90.30,46.20,21.87,170.00,3.00,0.00,29.78,1006.40,10.00,M,CLR,M,M,M,M,M,M,M,M,M,M,M,M,M,M,86.84,KLSV 042355Z AUTO 17003KT 10SM CLR 32/08 A2978 RMK AO2 SLP064 T03240079 10330 20306 57017 $,M
10U,2023-09-04 23:55,-116.1876,41.9532,1637.00,62.60,48.20,59.26,210.00,8.00,0.00,30.09,M,10.00,M,BKN,BKN,OVC,M,3100.00,3600.00,8500.00,M,M,M,M,M,M,M,M,62.60,K10U 042355Z AUTO 21008KT 10SM BKN031 BKN036 OVC085 17/09 A3009 RMK AO2,M
EKO,2023-09-04 23:56,-115.7860,40.8242,1367.00,68.00,46.00,45.19,250.00,6.00,0.00,30.06,1014.20,10.00,M,SCT,BKN,M,M,6000.00,8000.00,M,M,M,M,M,M,M,M,M,68.00,KEKO 042356Z AUTO 25006KT 10SM SCT060 BKN080 20/08 A3006 RMK AO2 SLP142 T02000078 10206 20161 55004,M
WMC,2023-09-04 23:56,-117.8072,40.9019,1315.00,71.00,46.00,40.78,250.00,5.00,0.00,30.03,1013.70,10.00,M,CLR,M,M,M,M,M,M,M,M,M,M,M,M,M,M,71.00,KWMC 042356Z AUTO 25005KT 10SM CLR 22/08 A3003 RMK AO2 SLP137 T02170078 10222 20167 56008,M
NFL,2023-09-04 23:56,-118.7010,39.4166,1199.00,74.00,40.00,29.28,20.00,6.00,0.00,30.00,1013.00,10.00,M,CLR,M,M,M,M,M,M,M,M,M,M,M,M,M,M,74.00,KNFL 042356Z AUTO 02006KT 10SM CLR 23/04 A3000 RMK AO2 SLP130 T02330044 10239 20178 56014,M
HND,2023-09-04 23:56,-115.1344,35.9729,742.79,86.00,41.00,20.54,280.00,3.00,0.00,29.88,1010.90,10.00,M,CLR,M,M,M,M,M,M,M,M,M,M,M,M,M,M,82.86,KHND 042356Z 28003KT 10SM CLR 30/05 A2988 RMK AO2 SLP109 T03000050 10306 20256 56013,M
LAS,2023-09-04 23:56,-115.1634,36.0719,663.00,88.00,41.00,19.28,80.00,5.00,0.00,29.84,1008.10,10.00,M,CLR,M,M,M,M,M,M,M,M,M,M,M,M,M,M,84.46,KLAS 042356Z 08005KT 10SM CLR 31/05 A2984 RMK AO2 SLP081 T03110050 10311 20261 56014 $,M
