station,valid,lon,lat,elevation,tmpf,dwpf,relh,drct,sknt,p01i,alti,mslp,vsby,gust,skyc1,skyc2,skyc3,skyc4,skyl1,skyl2,skyl3,skyl4,wxcodes,ice_accretion_1hr,ice_accretion_3hr,ice_accretion_6hr,peak_wind_gust,peak_wind_drct,peak_wind_time,feel,metar,snowdepth
CXP,2021-08-31 00:15,-119.7326,39.1923,1431.00,89.60,17.60,7.05,280.00,17.00,0.00,29.89,M,10.00,26.00,CLR,M,M,M,M,M,M,M,M,M,M,M,M,M,M,84.45,KCXP 310015Z AUTO 28017G26KT 10SM CLR 32/M08 A2989 RMK AO2,M
RTS,2021-08-31 00:15,-119.8764,39.6682,1539.00,89.60,8.60,4.74,270.00,17.00,0.00,29.92,M,10.00,M,CLR,M,M,M,M,M,M,M,M,M,M,M,M,M,M,84.12,KRTS 310015Z AUTO 27017KT 10SM CLR 32/M13 A2992 RMK AO2,M
BVU,2021-08-31 00:15,-114.8611,35.9475,671.00,100.40,44.60,15.08,210.00,13.00,0.00,29.69,M,10.00,20.00,CLR,M,M,M,M,M,M,M,M,M,M,M,M,M,M,96.31,KBVU 310015Z AUTO 21013G20KT 10SM CLR 38/07 A2969 RMK AO2 LTG DSNT E,M
MEV,2021-08-31 00:15,-119.7500,38.9963,1441.42,84.20,26.60,12.23,250.00,11.00,0.00,29.90,M,3.00,M,CLR,M,M,M,M,M,M,M,HZ,M,M,M,M,M,M,81.13,KMEV 310015Z AUTO 25011KT 3SM HZ CLR 29/M03 A2990 RMK AO2,M
BAM,2021-08-31 00:15,-116.8743,40.5990,1382.36,91.40,17.60,6.66,230.00,11.00,0.00,29.86,M,7.00,17.00,CLR,M,M,M,M,M,M,M,M,M,M,M,M,M,M,85.76,KBAM 310015Z AUTO 23011G17KT 7SM CLR 33/M08 A2986 RMK AO1,M
HTH,2021-08-31 00:15,-118.6315,38.5448,1282.89,96.80,17.60,5.63,340.00,13.00,0.00,29.81,M,10.00,19.00,CLR,M,M,M,M,M,M,M,M,M,M,M,M,M,M,89.88,KHTH 310015Z AUTO 34013G19KT 10SM CLR 36/M08 A2981 RMK A01,M
TMT,2021-08-31 00:15,-117.1971,39.4643,1749.34,88.20,20.10,8.20,270.00,12.00,0.00,29.96,M,10.00,15.00,CLR,M,M,M,M,M,M,M,M,M,M,M,M,M,M,83.56,KTMT 310015Z AUTO 27012G15KT 10SM CLR 31/M07 A2996 RMK AO2 T03121066,M
BVU,2021-08-31 00:35,-114.8611,35.9475,671.00,100.40,44.60,15.08,210.00,13.00,0.00,29.69,M,10.00,M,CLR,M,M,M,M,M,M,M,M,M,M,M,M,M,M,96.31,KBVU 310035Z AUTO 21013KT 10SM CLR 38/07 A2969 RMK AO2 LTG DSNT E AND SE,M
CXP,2021-08-31 00:35,-119.7326,39.1923,1431.00,89.60,19.40,7.61,260.00,15.00,0.00,29.89,M,10.00,32.00,CLR,M,M,M,M,M,M,M,M,M,M,M,M,M,M,84.54,KCXP 310035Z AUTO 26015G32KT 10SM CLR 32/M07 A2989 RMK AO2,M
RTS,2021-08-31 00:35,-119.8764,39.6682,1539.00,87.80,8.60,5.02,260.00,18.00,0.00,29.92,M,10.00,M,CLR,M,M,M,M,M,M,M,M,M,M,M,M,M,M,82.82,KRTS 310035Z AUTO 26018KT 10SM CLR 31/M13 A2992 RMK AO2,M
MEV,2021-08-31 00:35,-119.7500,38.9963,1441.42,86.00,23.00,9.94,280.00,9.00,0.00,29.90,M,3.00,M,CLR,M,M,M,M,M,M,M,HZ,M,M,M,M,M,M,82.14,KMEV 310035Z AUTO 28009KT 3SM HZ CLR 30/M05 A2990 RMK AO2,M
BAM,2021-08-31 00:35,-116.8743,40.5990,1382.36,91.40,17.60,6.66,240.00,8.00,0.00,29.85,M,7.00,14.00,CLR,M,M,M,M,M,M,M,M,M,M,M,M,M,M,85.76,KBAM 310035Z AUTO 24008G14KT 7SM CLR 33/M08 A2985 RMK AO1,M
HTH,2021-08-31 00:35,-118.6315,38.5448,1282.89,95.00,19.40,6.43,340.00,13.00,0.00,29.81,M,10.00,M,CLR,M,M,M,M,M,M,M,M,M,M,M,M,M,M,88.50,KHTH 310035Z AUTO 34013KT 10SM CLR 35/M07 A2981 RMK A01,M
TMT,2021-08-31 00:35,-117.1971,39.4643,1749.34,87.30,19.40,8.19,240.00,6.00,0.00,29.96,M,10.00,M,CLR,M,M,M,M,M,M,M,M,M,M,M,M,M,M,82.87,KTMT 310035Z AUTO 24006KT 10SM CLR 31/M07 A2996 RMK AO2 T03071070,M
LOL,2021-08-31 00:35,-118.5701,40.0684,1192.43,92.00,23.00,8.25,320.00,13.00,0.00,29.79,M,10.00,M,CLR,M,M,M,M,M,M,M,M,M,M,M,M,M,M,86.45,KLOL 310035Z AUTO 32013KT 10SM CLR 33/M05 A2979 RMK AO2 WSHFT 0015 T03331050,M
DRA,2021-08-31 00:53,-116.0278,36.6206,1009.00,101.00,33.00,9.48,250.00,10.00,0.00,29.73,1000.90,10.00,17.00,CLR,M,M,M,M,M,M,M,M,M,M,M,M,M,M,94.79,KDRA 310053Z AUTO 25010G17KT 10SM CLR 38/01 A2973 RMK AO2 SLP009 T03830006,M
P68,2021-08-31 00:53,-116.0056,39.6014,1993.00,88.00,16.00,6.92,290.00,12.00,0.00,29.93,1004.50,M,M,M,M,M,M,M,M,M,M,M,M,M,M,M,M,M,83.22,KP68 310053Z AUTO 29012KT 31/M09 A2993 RMK AO1 SLP045 T03111089,M
ELY,2021-08-31 00:53,-114.8453,39.2950,1909.00,86.00,21.90,9.49,210.00,11.00,0.00,29.96,1005.00,10.00,M,CLR,M,M,M,M,M,M,M,M,M,M,M,M,M,M,82.08,KELY 310053Z AUTO 21011KT 10SM CLR 30/M06 A2996 RMK AO2 SLP050 T03001056,M
LOL,2021-08-31 00:53,-118.5701,40.0684,1192.43,91.00,23.00,8.49,320.00,9.00,0.00,29.79,1005.00,10.00,M,CLR,M,M,M,M,M,M,M,M,M,M,M,M,M,M,85.79,KLOL 310053Z AUTO 32009KT 10SM CLR 33/M05 A2979 RMK AO2 WSHFT 0015 SLP050 T03281050,M
VGT,2021-08-31 00:53,-115.1933,36.2111,667.00,99.00,47.00,17.17,190.00,13.00,0.00,29.66,1003.00,10.00,M,CLR,M,M,M,M,M,M,M,M,M,M,M,M,M,M,95.33,KVGT 310053Z 19013KT 10SM CLR 37/08 A2966 RMK AO2 SLP030 T03720083,M
RTS,2021-08-31 00:55,-119.8764,39.6682,1539.00,87.80,10.40,5.44,270.00,15.00,0.00,29.92,M,10.00,M,CLR,M,M,M,M,M,M,M,M,M,M,M,M,M,M,82.88,KRTS 310055Z AUTO 27015KT 10SM CLR 31/M12 A2992 RMK AO2,M
RNO,2021-08-31 00:55,-119.7711,39.4839,1341.00,91.00,19.90,7.44,280.00,15.00,0.00,29.84,1004.90,10.00,26.00,FEW,M,M,M,7000.00,M,M,M,M,M,M,M,26.00,290.00,2021-08-31 00:48,85.59,KRNO 310055Z 28015G26KT 10SM FEW070 33/M07 A2984 RMK AO2 PK WND 29026/0048 SLP049 FU FEW070 FU DSNT NW THRU NE AND SE THRU S HZ ALQDS T03281067,M
MEV,2021-08-31 00:55,-119.7500,38.9963,1441.42,84.20,23.00,10.53,260.00,7.00,0.00,29.90,M,3.00,13.00,CLR,M,M,M,M,M,M,M,HZ,M,M,M,M,M,M,80.88,KMEV 310055Z AUTO 26007G13KT 3SM HZ CLR 29/M05 A2990 RMK AO2,M
BAM,2021-08-31 00:55,-116.8743,40.5990,1382.36,91.40,15.80,6.16,260.00,11.00,0.00,29.85,M,7.00,14.00,CLR,M,M,M,M,M,M,M,M,M,M,M,M,M,M,85.68,KBAM 310055Z AUTO 26011G14KT 7SM CLR 33/M09 A2985 RMK AO1,M
HTH,2021-08-31 00:55,-118.6315,38.5448,1282.89,95.00,21.20,6.95,330.00,14.00,0.00,29.81,M,10.00,M,CLR,M,M,M,M,M,M,M,M,M,M,M,M,M,M,88.62,KHTH 310055Z AUTO 33014KT 10SM CLR 35/M06 A2981 RMK A01,M
TMT,2021-08-31 00:55,-117.1971,39.4643,1749.34,86.50,17.10,7.61,280.00,9.00,0.00,29.96,M,10.00,M,CLR,M,M,M,M,M,M,M,M,M,M,M,M,M,M,82.19,KTMT 310055Z AUTO 28009KT 10SM CLR 30/M08 A2996 RMK AO2 T03031083,M
CXP,2021-08-31 00:55,-119.7326,39.1923,1431.00,89.60,15.80,6.52,260.00,10.00,0.00,29.89,M,10.00,23.00,CLR,M,M,M,M,M,M,M,M,M,M,M,M,M,M,84.37,KCXP 310055Z AUTO 26010G23KT 10SM CLR 32/M09 A2989 RMK AO2,M
BVU,2021-08-31 00:55,-114.8611,35.9475,671.00,98.60,44.60,15.93,210.00,8.00,0.00,29.69,M,10.00,M,CLR,M,M,M,M,M,M,M,M,M,M,M,M,M,M,94.55,KBVU 310055Z AUTO 21008KT 10SM CLR 37/07 A2969 RMK AO2 LTG DSNT E,M
EKO,2021-08-31 00:56,-115.7860,40.8242,1367.00,87.00,19.00,8.10,270.00,11.00,0.00,29.88,1006.90,4.00,M,CLR,M,M,M,M,M,M,M,HZ,M,M,M,M,M,M,82.71,KEKO 310056Z AUTO 27011KT 4SM HZ CLR 31/M07 A2988 RMK AO2 SLP069 T03061072,M
WMC,2021-08-31 00:56,-117.8072,40.9019,1315.00,91.00,21.90,8.10,230.00,8.00,0.00,29.81,1005.00,8.00,M,CLR,M,M,M,M,M,M,M,M,M,M,M,M,M,M,85.71,KWMC 310056Z AUTO 23008KT 8SM CLR 33/M06 A2981 RMK AO2 SLP050 T03281056 $,M
HND,2021-08-31 00:56,-115.1344,35.9729,742.79,95.00,50.00,21.79,210.00,13.00,0.00,29.73,1004.80,10.00,M,CLR,M,M,M,M,M,M,M,M,M,M,M,M,M,M,91.89,KHND 310056Z 21013KT 10SM CLR 35/10 A2973 RMK AO2 LTG DSNT SE SLP048 T03500100,M
TPH,2021-08-31 00:56,-117.0904,38.0505,1654.00,91.00,19.00,7.16,0.00,0.00,0.00,29.91,1004.30,7.00,M,CLR,M,M,M,M,M,M,M,M,M,M,M,M,M,M,85.54,KTPH 310056Z AUTO 00000KT 7SM CLR 33/M07 A2991 RMK AO2 SLP043 T03281072,M
NFL,2021-08-31 00:56,-118.7010,39.4166,1199.00,91.00,28.00,10.44,250.00,9.00,0.00,29.79,1006.50,2.00,M,OVC,M,M,M,3500.00,M,M,M,FU,M,M,M,M,M,M,86.19,KNFL 310056Z 25009KT 2SM FU OVC035 33/M02 A2979 RMK AO2 TWR VIS 3 SLP065 FU OVC035 T03281022,M
LAS,2021-08-31 00:56,-115.1634,36.0719,663.00,96.00,47.00,18.76,200.00,9.00,0.00,29.69,1002.20,10.00,M,FEW,BKN,BKN,M,13000.00,17000.00,22000.00,M,M,M,M,M,M,M,M,92.44,KLAS 310056Z 20009KT 10SM FEW130 BKN170 BKN220 36/08 A2969 RMK AO2 LTG DSNT SE SLP022 CB DSNT NE-SE-SW T03560083,M
LSV,2021-08-31 00:58,-115.0343,36.2362,570.00,98.80,47.80,17.87,200.00,12.00,0.00,29.65,1001.20,10.00,M,CLR,M,M,M,M,M,M,M,M,M,M,M,M,M,M,95.30,KLSV 310058Z AUTO 20012KT 10SM CLR 37/09 A2965 RMK AO2 SLP012 T03710088 $,M
INS,2021-08-31 00:59,-115.6733,36.5872,955.00,98.40,36.00,11.48,100.00,17.00,0.00,29.72,1000.00,M,22.00,SCT,M,M,M,14000.00,M,M,M,M,M,M,M,M,M,M,93.13,KINS 310059Z 10017G22KT SCT140 37/02 A2972 RMK AO2A SLP000 WND DATA ESTMD T03690022 PWINO $,M
HTH,2021-08-31 01:15,-118.6315,38.5448,1282.89,91.40,28.40,10.48,340.00,13.00,0.00,29.81,M,10.00,M,CLR,M,M,M,M,M,M,M,M,M,M,M,M,M,M,86.53,KHTH 310115Z AUTO 34013KT 10SM CLR 33/M02 A2981 RMK A01,M
TMT,2021-08-31 01:15,-117.1971,39.4643,1749.34,85.60,16.70,7.70,270.00,8.00,0.00,29.96,M,10.00,M,CLR,M,M,M,M,M,M,M,M,M,M,M,M,M,M,81.53,KTMT 310115Z AUTO 27008KT 10SM CLR 30/M08 A2996 RMK AO2 T02981085,M
MEV,2021-08-31 01:15,-119.7500,38.9963,1441.42,82.40,24.80,12.03,250.00,9.00,0.00,29.90,M,2.50,M,CLR,M,M,M,M,M,M,M,HZ,M,M,M,M,M,M,79.79,KMEV 310115Z AUTO 25009KT 2 1/2SM HZ CLR 28/M04 A2990 RMK AO2,M
RTS,2021-08-31 01:15,-119.8764,39.6682,1539.00,86.00,10.40,5.76,260.00,16.00,0.00,29.92,M,10.00,M,CLR,M,M,M,M,M,M,M,M,M,M,M,M,M,M,81.58,KRTS 310115Z AUTO 26016KT 10SM CLR 30/M12 A2992 RMK AO2,M
CXP,2021-08-31 01:15,-119.7326,39.1923,1431.00,87.80,15.80,6.90,250.00,11.00,0.00,29.89,M,10.00,20.00,CLR,M,M,M,M,M,M,M,M,M,M,M,M,M,M,83.07,KCXP 310115Z AUTO 25011G20KT 230V300 10SM CLR 31/M09 A2989 RMK AO2,M
BVU,2021-08-31 01:15,-114.8611,35.9475,671.00,98.60,42.80,14.87,210.00,9.00,0.00,29.69,M,10.00,M,CLR,M,M,M,M,M,M,M,M,M,M,M,M,M,M,94.30,KBVU 310115Z AUTO 21009KT 10SM CLR 37/06 A2969 RMK AO2,M
BAM,2021-08-31 01:15,-116.8743,40.5990,1382.36,89.60,17.60,7.05,270.00,5.00,0.00,29.85,M,10.00,M,CLR,M,M,M,M,M,M,M,M,M,M,M,M,M,M,84.45,KBAM 310115Z AUTO 27005KT 10SM CLR 32/M08 A2985 RMK AO1,M
NFL,2021-08-31 01:26,-118.7010,39.4166,1199.00,90.00,25.00,9.52,250.00,8.00,0.00,29.78,M,3.00,M,BKN,M,M,M,3500.00,M,M,M,FU,M,M,M,M,M,M,85.19,KNFL 310126Z 25008KT 3SM FU BKN035 32/M04 A2978 RMK AO2 FU BKN035 VIS N 4 T03221039,M
BVU,2021-08-31 01:35,-114.8611,35.9475,671.00,96.80,42.80,15.71,200.00,7.00,0.00,29.69,M,10.00,M,CLR,M,M,M,M,M,M,M,M,M,M,M,M,M,M,92.57,KBVU 310135Z AUTO 20007KT 10SM CLR 36/06 A2969 RMK AO2,M
RTS,2021-08-31 01:35,-119.8764,39.6682,1539.00,86.00,10.40,5.76,280.00,13.00,0.00,29.92,M,10.00,18.00,CLR,M,M,M,M,M,M,M,M,M,M,M,M,M,M,81.58,KRTS 310135Z AUTO 28013G18KT 10SM CLR 30/M12 A2992 RMK AO2,M
MEV,2021-08-31 01:35,-119.7500,38.9963,1441.42,84.20,23.00,10.53,260.00,13.00,0.00,29.89,M,2.00,20.00,CLR,M,M,M,M,M,M,M,HZ,M,M,M,M,M,M,80.88,KMEV 310135Z AUTO 26013G20KT 2SM HZ CLR 29/M05 A2989 RMK AO2,M
BAM,2021-08-31 01:35,-116.8743,40.5990,1382.36,86.00,19.40,8.53,10.00,4.00,0.00,29.85,M,7.00,M,CLR,M,M,M,M,M,M,M,M,M,M,M,M,M,M,81.94,KBAM 310135Z AUTO 01004KT 7SM CLR 30/M07 A2985 RMK AO1,M
HTH,2021-08-31 01:35,-118.6315,38.5448,1282.89,91.40,30.20,11.28,340.00,10.00,0.00,29.81,M,10.00,M,CLR,M,M,M,M,M,M,M,M,M,M,M,M,M,M,86.71,KHTH 310135Z AUTO 34010KT 10SM CLR 33/M01 A2981 RMK A01,M
TMT,2021-08-31 01:35,-117.1971,39.4643,1749.34,82.80,20.80,10.04,260.00,6.00,0.00,29.95,M,10.00,M,CLR,M,M,M,M,M,M,M,M,M,M,M,M,M,M,79.80,KTMT 310135Z AUTO 26006KT 10SM CLR 28/M06 A2995 RMK AO2 T02821062,M
CXP,2021-08-31 01:35,-119.7326,39.1923,1431.00,87.80,15.80,6.90,260.00,9.00,0.00,29.88,M,10.00,25.00,CLR,M,M,M,M,M,M,M,M,M,M,M,M,M,M,83.07,KCXP 310135Z AUTO 26009G25KT 10SM CLR 31/M09 A2988 RMK AO2,M
VGT,2021-08-31 01:53,-115.1933,36.2111,667.00,99.00,46.00,16.60,190.00,9.00,0.00,29.66,1002.80,10.00,M,CLR,M,M,M,M,M,M,M,M,M,M,M,M,M,M,95.17,KVGT 310153Z 19009KT 10SM CLR 37/08 A2966 RMK AO2 SLP028 T03720078,M
ELY,2021-08-31 01:53,-114.8453,39.2950,1909.00,79.00,21.00,11.46,200.00,9.00,0.00,29.96,1005.20,10.00,M,CLR,M,M,M,M,M,M,M,M,M,M,M,M,M,M,79.00,KELY 310153Z AUTO 20009KT 10SM CLR 26/M06 A2996 RMK AO2 SLP052 T02611061,M
P68,2021-08-31 01:53,-116.0056,39.6014,1993.00,81.00,17.10,9.08,320.00,7.00,0.00,29.94,1005.80,M,M,M,M,M,M,M,M,M,M,M,M,M,M,M,M,M,78.42,KP68 310153Z AUTO 32007KT 27/M08 A2994 RMK AO1 SLP058 T02721083,M
LOL,2021-08-31 01:53,-118.5701,40.0684,1192.43,85.00,21.90,9.83,50.00,5.00,0.00,29.79,1005.30,9.00,M,CLR,M,M,M,M,M,M,M,M,M,M,M,M,M,M,81.30,KLOL 310153Z AUTO 05005KT 9SM CLR 29/M06 A2979 RMK AO2 SLP053 T02941056,M
DRA,2021-08-31 01:53,-116.0278,36.6206,1009.00,98.00,37.00,12.05,190.00,13.00,0.00,29.73,1001.00,10.00,M,CLR,M,M,M,M,M,M,M,M,M,M,M,M,M,M,93.05,KDRA 310153Z AUTO 19013KT 10SM CLR 37/03 A2973 RMK AO2 SLP010 T03670028,M
HTH,2021-08-31 01:55,-118.6315,38.5448,1282.89,89.60,33.80,13.80,350.00,11.00,0.00,29.81,M,10.00,M,CLR,M,M,M,M,M,M,M,M,M,M,M,M,M,M,85.59,KHTH 310155Z AUTO 35011KT 10SM CLR 32/01 A2981 RMK A01,M
CXP,2021-08-31 01:55,-119.7326,39.1923,1431.00,86.00,12.20,6.24,270.00,14.00,0.00,29.89,M,10.00,26.00,FEW,FEW,M,M,2900.00,3500.00,M,M,M,M,M,M,M,M,M,81.64,KCXP 310155Z AUTO 27014G26KT 10SM FEW029 FEW035 30/M11 A2989 RMK AO2,M
RTS,2021-08-31 01:55,-119.8764,39.6682,1539.00,84.20,12.20,6.61,260.00,13.00,0.00,29.93,M,10.00,M,CLR,M,M,M,M,M,M,M,M,M,M,M,M,M,M,80.37,KRTS 310155Z AUTO 26013KT 10SM CLR 29/M11 A2993 RMK AO2,M
TMT,2021-08-31 01:55,-117.1971,39.4643,1749.34,78.00,20.50,11.56,280.00,4.00,0.00,29.95,M,10.00,M,CLR,M,M,M,M,M,M,M,M,M,M,M,M,M,M,78.10,KTMT 310155Z AUTO 28004KT 10SM CLR 26/M06 A2995 RMK AO2 T02561064,M
MEV,2021-08-31 01:55,-119.7500,38.9963,1441.42,82.40,24.80,12.03,260.00,13.00,0.00,29.89,M,1.25,M,CLR,M,M,M,M,M,M,M,HZ,M,M,M,M,M,M,79.79,KMEV 310155Z AUTO 26013KT 1 1/4SM HZ CLR 28/M04 A2989 RMK AO2,M
BAM,2021-08-31 01:55,-116.8743,40.5990,1382.36,82.40,26.60,12.97,360.00,6.00,0.00,29.85,M,7.00,M,CLR,M,M,M,M,M,M,M,M,M,M,M,M,M,M,79.92,KBAM 310155Z AUTO 36006KT 7SM CLR 28/M03 A2985 RMK AO1,M
BVU,2021-08-31 01:55,-114.8611,35.9475,671.00,96.80,42.80,15.71,110.00,6.00,0.00,29.70,M,10.00,M,CLR,M,M,M,M,M,M,M,M,M,M,M,M,M,M,92.57,KBVU 310155Z AUTO 11006KT 10SM CLR 36/06 A2970 RMK AO2 LTG DSNT NE AND S,M
RNO,2021-08-31 01:55,-119.7711,39.4839,1341.00,87.00,19.90,8.42,290.00,16.00,0.00,29.85,1005.40,10.00,M,FEW,M,M,M,8500.00,M,M,M,M,M,M,M,M,M,M,82.75,KRNO 310155Z 29016KT 10SM FEW085 31/M07 A2985 RMK AO2 SLP054 FU FEW085 FU DSNT NW THRU E AND SE THRU S T03061067,M
WMC,2021-08-31 01:56,-117.8072,40.9019,1315.00,83.00,23.00,10.98,240.00,3.00,0.00,29.81,1005.30,8.00,M,CLR,M,M,M,M,M,M,M,M,M,M,M,M,M,M,80.00,KWMC 310156Z AUTO 24003KT 8SM CLR 28/M05 A2981 RMK AO2 SLP053 T02831050 $,M
NFL,2021-08-31 01:56,-118.7010,39.4166,1199.00,88.00,25.00,10.14,240.00,7.00,0.00,29.79,1006.50,3.00,M,BKN,M,M,M,3500.00,M,M,M,FU,M,M,M,M,M,M,83.71,KNFL 310156Z 24007KT 3SM FU BKN035 31/M04 A2979 RMK AO2 SLP065 FU BKN035 VIS N 4 T03111039,M
TPH,2021-08-31 01:56,-117.0904,38.0505,1654.00,88.00,19.90,8.18,230.00,4.00,0.00,29.90,1004.10,7.00,M,CLR,M,M,M,M,M,M,M,M,M,M,M,M,M,M,83.40,KTPH 310156Z AUTO 23004KT 7SM CLR 31/M07 A2990 RMK AO2 SLP041 T03111067,M
LAS,2021-08-31 01:56,-115.1634,36.0719,663.00,95.00,48.00,20.22,190.00,7.00,0.00,29.68,1002.00,10.00,M,FEW,BKN,BKN,M,13000.00,17000.00,22000.00,M,M,M,M,M,M,M,M,91.53,KLAS 310156Z 19007KT 10SM FEW130 BKN170 BKN220 35/09 A2968 RMK AO2 SLP020 CB DSNT NE-SE-SW T03500089,M
EKO,2021-08-31 01:56,-115.7860,40.8242,1367.00,83.00,23.00,10.98,300.00,8.00,0.00,29.87,1006.50,4.00,M,CLR,M,M,M,M,M,M,M,HZ,M,M,M,M,M,M,80.00,KEKO 310156Z AUTO 30008KT 4SM HZ CLR 28/M05 A2987 RMK AO2 SLP065 T02831050,M
HND,2021-08-31 01:56,-115.1344,35.9729,742.79,92.00,52.00,25.84,200.00,14.00,0.00,29.72,1004.80,10.00,M,CLR,M,M,M,M,M,M,M,M,M,M,M,M,M,M,89.21,KHND 310156Z 20014KT 10SM CLR 33/11 A2972 RMK AO2 SLP048 T03330111,M
LSV,2021-08-31 01:58,-115.0343,36.2362,570.00,96.80,47.70,18.92,190.00,9.00,0.00,29.65,1001.20,10.00,M,FEW,M,M,M,22000.00,M,M,M,M,M,M,M,M,M,M,93.27,KLSV 310158Z AUTO 19009KT 10SM FEW220 36/09 A2965 RMK AO2 LTG DSNT NE SLP012 T03600087 $,M
INS,2021-08-31 01:58,-115.6733,36.5872,955.00,M,M,M,M,M,0.00,M,M,M,M,M,M,M,M,M,M,M,M,M,M,M,M,M,M,M,M,KINS 310158Z AUTO M M M M M M RMK AO2 SLPNO RVRNO $,M
INS,2021-08-31 01:59,-115.6733,36.5872,955.00,96.00,40.00,14.46,120.00,16.00,0.00,29.72,1000.00,M,22.00,BKN,M,M,M,14000.00,M,M,M,M,M,M,M,M,M,M,91.65,KINS 310159Z 12016G22KT BKN140 36/05 A2972 RMK AO2A SLP000 WND DATA ESTMD T03560045 PWINO $,M
HTH,2021-08-31 02:15,-118.6315,38.5448,1282.89,87.80,33.80,14.61,350.00,10.00,0.00,29.81,M,10.00,M,CLR,M,M,M,M,M,M,M,M,M,M,M,M,M,M,84.10,KHTH 310215Z AUTO 35010KT 10SM CLR 31/01 A2981 RMK A01,M
TMT,2021-08-31 02:15,-117.1971,39.4643,1749.34,74.00,18.30,12.02,310.00,6.00,0.00,29.96,M,10.00,M,CLR,M,M,M,M,M,M,M,M,M,M,M,M,M,M,74.10,KTMT 310215Z AUTO 31006KT 10SM CLR 23/M08 A2996 RMK AO2 T02341076,M
BAM,2021-08-31 02:15,-116.8743,40.5990,1382.36,80.60,24.80,12.76,360.00,3.00,0.00,29.85,M,7.00,M,CLR,M,M,M,M,M,M,M,M,M,M,M,M,M,M,78.94,KBAM 310215Z AUTO 36003KT 7SM CLR 27/M04 A2985 RMK AO1,M
MEV,2021-08-31 02:15,-119.7500,38.9963,1441.42,82.40,23.00,11.16,260.00,10.00,0.00,29.90,M,1.50,16.00,CLR,M,M,M,M,M,M,M,HZ,M,M,M,M,M,M,79.67,KMEV 310215Z AUTO 26010G16KT 1 1/2SM HZ CLR 28/M05 A2990 RMK AO2,M
RTS,2021-08-31 02:15,-119.8764,39.6682,1539.00,82.40,10.40,6.47,240.00,9.00,0.00,29.93,M,10.00,14.00,CLR,M,M,M,M,M,M,M,M,M,M,M,M,M,M,79.07,KRTS 310215Z AUTO 24009G14KT 10SM CLR 28/M12 A2993 RMK AO2,M
CXP,2021-08-31 02:15,-119.7326,39.1923,1431.00,86.00,12.20,6.24,270.00,9.00,0.00,29.90,M,10.00,20.00,CLR,M,M,M,M,M,M,M,M,M,M,M,M,M,M,81.64,KCXP 310215Z AUTO 27009G20KT 10SM CLR 30/M11 A2990 RMK AO2,M
BVU,2021-08-31 02:15,-114.8611,35.9475,671.00,96.80,42.80,15.71,110.00,3.00,0.00,29.70,M,10.00,M,CLR,M,M,M,M,M,M,M,M,M,M,M,M,M,M,92.57,KBVU 310215Z AUTO 11003KT 10SM CLR 36/06 A2970 RMK AO2,M
BVU,2021-08-31 02:35,-114.8611,35.9475,671.00,95.00,50.00,21.79,90.00,7.00,0.00,29.71,M,10.00,M,CLR,M,M,M,M,M,M,M,M,M,M,M,M,M,M,91.89,KBVU 310235Z AUTO 09007KT 10SM CLR 35/10 A2971 RMK AO2 LTG DSNT E AND S,M
HTH,2021-08-31 02:35,-118.6315,38.5448,1282.89,86.00,32.00,14.40,360.00,12.00,0.00,29.82,M,10.00,M,CLR,M,M,M,M,M,M,M,M,M,M,M,M,M,M,82.64,KHTH 310235Z AUTO 36012KT 10SM CLR 30/M00 A2982 RMK A01,M
CXP,2021-08-31 02:35,-119.7326,39.1923,1431.00,82.40,15.80,8.20,0.00,0.00,0.00,29.91,M,10.00,M,CLR,M,M,M,M,M,M,M,M,M,M,M,M,M,M,79.28,KCXP 310235Z AUTO 00000KT 10SM CLR 28/M09 A2991 RMK AO2,M
TMT,2021-08-31 02:35,-117.1971,39.4643,1749.34,72.50,19.20,13.18,360.00,5.00,0.00,29.96,M,10.00,M,CLR,M,M,M,M,M,M,M,M,M,M,M,M,M,M,72.50,KTMT 310235Z AUTO 36005KT 10SM CLR 23/M07 A2996 RMK AO2 T02251071,M
RTS,2021-08-31 02:35,-119.8764,39.6682,1539.00,80.60,12.20,7.43,250.00,8.00,0.00,29.94,M,10.00,M,CLR,M,M,M,M,M,M,M,M,M,M,M,M,M,M,78.16,KRTS 310235Z AUTO 25008KT 10SM CLR 27/M11 A2994 RMK AO2,M
MEV,2021-08-31 02:35,-119.7500,38.9963,1441.42,80.60,24.80,12.76,250.00,11.00,0.00,29.90,M,1.00,M,FEW,SCT,SCT,M,2800.00,4100.00,4800.00,M,HZ,M,M,M,M,M,M,78.94,KMEV 310235Z AUTO 25011KT 1SM HZ FEW028 SCT041 SCT048 27/M04 A2990 RMK AO2,M
BAM,2021-08-31 02:35,-116.8743,40.5990,1382.36,78.80,23.00,12.55,0.00,0.00,0.00,29.85,M,7.00,M,CLR,M,M,M,M,M,M,M,M,M,M,M,M,M,M,78.80,KBAM 310235Z AUTO 00000KT 7SM CLR 26/M05 A2985 RMK AO1,M
CXP,2021-08-31 02:50,-119.7326,39.1923,1431.00,80.60,17.60,9.40,170.00,4.00,0.00,29.91,M,10.00,M,CLR,M,M,M,M,M,M,M,M,M,M,M,M,M,M,78.45,KCXP 310250Z AUTO 17004KT 10SM CLR 27/M08 A2991 RMK AO2,M
VGT,2021-08-31 02:53,-115.1933,36.2111,667.00,96.00,47.00,18.76,140.00,9.00,0.00,29.69,1003.70,10.00,M,CLR,M,M,M,M,M,M,M,M,M,M,M,M,M,M,92.44,KVGT 310253Z 14009KT 10SM CLR 36/08 A2969 RMK AO2 SLP037 T03560083 53004,M
ELY,2021-08-31 02:53,-114.8453,39.2950,1909.00,71.00,19.00,13.71,170.00,9.00,0.00,29.97,1005.80,10.00,M,CLR,M,M,M,M,M,M,M,M,M,M,M,M,M,M,71.10,KELY 310253Z AUTO 17009KT 10SM CLR 22/M07 A2997 RMK AO2 SLP058 T02171072 53000,M
P68,2021-08-31 02:53,-116.0056,39.6014,1993.00,70.00,21.90,16.10,90.00,7.00,0.00,29.96,1007.00,M,M,M,M,M,M,M,M,M,M,M,M,M,M,M,M,M,70.00,KP68 310253Z AUTO 09007KT 21/M06 A2996 RMK AO1 SLP070 T02111056 53009,M
DRA,2021-08-31 02:53,-116.0278,36.6206,1009.00,94.00,37.00,13.71,190.00,7.00,0.00,29.74,1001.60,10.00,M,CLR,M,M,M,M,M,M,M,M,M,M,M,M,M,M,89.44,KDRA 310253Z AUTO 19007KT 10SM CLR 34/03 A2974 RMK AO2 SLP016 T03440028 53001,M
LOL,2021-08-31 02:53,-118.5701,40.0684,1192.43,84.00,19.90,9.29,0.00,0.00,0.00,29.79,1005.10,8.00,M,CLR,M,M,M,M,M,M,M,M,M,M,M,M,M,M,80.57,KLOL 310253Z AUTO 00000KT 8SM CLR 29/M07 A2979 RMK AO2 SLP051 T02891067 51005,M
BAM,2021-08-31 02:55,-116.8743,40.5990,1382.36,78.80,23.00,12.55,0.00,0.00,0.00,29.85,M,7.00,M,CLR,M,M,M,M,M,M,M,M,M,M,M,M,M,M,78.80,KBAM 310255Z AUTO 00000KT 7SM CLR 26/M05 A2985 RMK AO1,M
RTS,2021-08-31 02:55,-119.8764,39.6682,1539.00,78.80,14.00,8.53,240.00,11.00,0.00,29.94,M,10.00,M,CLR,M,M,M,M,M,M,M,M,M,M,M,M,M,M,78.80,KRTS 310255Z AUTO 24011KT 10SM CLR 26/M10 A2994 RMK AO2,M
BVU,2021-08-31 02:55,-114.8611,35.9475,671.00,95.00,50.00,21.79,110.00,7.00,0.00,29.72,M,10.00,M,CLR,M,M,M,M,M,M,M,M,M,M,M,M,M,M,91.89,KBVU 310255Z AUTO 11007KT 10SM CLR 35/10 A2972 RMK AO2,M
MEV,2021-08-31 02:55,-119.7500,38.9963,1441.42,78.80,24.80,13.54,270.00,10.00,0.00,29.91,M,2.50,M,BKN,BKN,BKN,M,2600.00,3700.00,4300.00,M,HZ,M,M,M,M,M,M,78.80,KMEV 310255Z AUTO 27010KT 2 1/2SM HZ BKN026 BKN037 BKN043 26/M04 A2991 RMK AO2,M
HTH,2021-08-31 02:55,-118.6315,38.5448,1282.89,86.00,28.40,12.44,340.00,6.00,0.00,29.83,M,10.00,13.00,CLR,M,M,M,M,M,M,M,M,M,M,M,M,M,M,82.54,KHTH 310255Z AUTO 34006G13KT 10SM CLR 30/M02 A2983 RMK A01,M
TMT,2021-08-31 02:55,-117.1971,39.4643,1749.34,68.50,17.40,13.98,90.00,5.00,0.00,29.97,M,10.00,M,CLR,M,M,M,M,M,M,M,M,M,M,M,M,M,M,68.50,KTMT 310255Z AUTO 09005KT 10SM CLR 20/M08 A2997 RMK AO2 T02031081,M
RNO,2021-08-31 02:55,-119.7711,39.4839,1341.00,83.00,23.00,10.98,280.00,15.00,0.00,29.87,1006.00,10.00,19.00,FEW,M,M,M,8500.00,M,M,M,M,M,M,M,M,M,M,80.00,KRNO 310255Z 28015G19KT 10SM FEW085 28/M05 A2987 RMK AO2 SLP060 FU FEW085 FU DSNT NW THRU E AND S T02831050 53006,M
EKO,2021-08-31 02:56,-115.7860,40.8242,1367.00,75.00,23.00,14.24,0.00,0.00,0.00,29.89,1007.70,5.00,M,CLR,M,M,M,M,M,M,M,HZ,M,M,M,M,M,M,75.00,KEKO 310256Z AUTO 00000KT 5SM HZ CLR 24/M05 A2989 RMK AO2 SLP077 T02391050 53002,M
NFL,2021-08-31 02:56,-118.7010,39.4166,1199.00,82.00,23.00,11.31,300.00,7.00,0.00,29.81,1007.20,5.00,M,BKN,M,M,M,4000.00,M,M,M,FU,M,M,M,M,M,M,79.40,KNFL 310256Z 30007KT 5SM FU BKN040 28/M05 A2981 RMK AO2 SLP072 FU BKN040 T02781050 53003,M
HND,2021-08-31 02:56,-115.1344,35.9729,742.79,91.00,52.00,26.57,180.00,12.00,0.00,29.75,1005.60,10.00,M,CLR,M,M,M,M,M,M,M,M,M,M,M,M,M,M,88.35,KHND 310256Z 18012KT 10SM CLR 33/11 A2975 RMK AO2 SLP056 T03280111 53004,M
LAS,2021-08-31 02:56,-115.1634,36.0719,663.00,92.00,51.00,24.99,190.00,10.00,0.00,29.71,1002.90,10.00,M,FEW,BKN,BKN,M,13000.00,17000.00,22000.00,M,M,M,M,M,M,M,M,89.04,KLAS 310256Z 19010KT 10SM FEW130 BKN170 BKN220 33/11 A2971 RMK AO2 SLP029 CB DSNT NE-SE-SW T03330106 53002,M
WMC,2021-08-31 02:56,-117.8072,40.9019,1315.00,71.00,26.10,18.48,0.00,0.00,0.00,29.81,1005.70,8.00,M,CLR,M,M,M,M,M,M,M,M,M,M,M,M,M,M,71.10,KWMC 310256Z AUTO 00000KT 8SM CLR 22/M03 A2981 RMK AO2 SLP057 T02171033 55003 $,M
TPH,2021-08-31 02:56,-117.0904,38.0505,1654.00,81.00,19.00,9.86,360.00,4.00,0.00,29.91,1004.80,8.00,M,CLR,M,M,M,M,M,M,M,M,M,M,M,M,M,M,78.51,KTPH 310256Z AUTO 36004KT 8SM CLR 27/M07 A2991 RMK AO2 SLP048 T02721072 55004,M
LSV,2021-08-31 02:58,-115.0343,36.2362,570.00,94.50,49.60,21.80,210.00,10.00,0.00,29.68,1002.20,10.00,M,BKN,BKN,M,M,20000.00,22000.00,M,M,M,M,M,M,M,M,M,91.31,KLSV 310258Z AUTO 21010KT 10SM BKN200 BKN220 35/10 A2968 RMK AO2 SLP022 T03470098 53007 $,M
INS,2021-08-31 02:58,-115.6733,36.5872,955.00,92.30,41.20,16.97,110.00,13.00,0.00,29.74,M,10.00,M,CLR,M,M,M,M,M,M,M,M,M,M,M,M,M,M,88.22,KINS 310258Z AUTO 11013KT 10SM CLR 34/05 A2974 RMK AO2 SLPNO T03350051 $,M
TMT,2021-08-31 03:15,-117.1971,39.4643,1749.34,64.20,17.20,16.09,130.00,5.00,0.00,29.97,M,10.00,M,CLR,M,M,M,M,M,M,M,M,M,M,M,M,M,M,64.20,KTMT 310315Z AUTO 13005KT 10SM CLR 18/M08 A2997 RMK AO2 T01791082,M
CXP,2021-08-31 03:15,-119.7326,39.1923,1431.00,82.40,10.40,6.47,260.00,11.00,0.00,29.91,M,10.00,19.00,FEW,FEW,M,M,5000.00,6000.00,M,M,M,M,M,M,M,M,M,79.07,KCXP 310315Z AUTO 26011G19KT 10SM FEW050 FEW060 28/M12 A2991 RMK AO2,M
MEV,2021-08-31 03:15,-119.7500,38.9963,1441.42,80.60,24.80,12.76,260.00,11.00,0.00,29.91,M,1.75,17.00,OVC,M,M,M,2400.00,M,M,M,HZ,M,M,M,M,M,M,78.94,KMEV 310315Z AUTO 26011G17KT 1 3/4SM HZ OVC024 27/M04 A2991 RMK AO2,M
HTH,2021-08-31 03:15,-118.6315,38.5448,1282.89,86.00,24.80,10.72,0.00,0.00,0.00,29.84,M,10.00,M,CLR,M,M,M,M,M,M,M,M,M,M,M,M,M,M,82.26,KHTH 310315Z AUTO 00000KT 10SM CLR 30/M04 A2984 RMK A01,M
BVU,2021-08-31 03:15,-114.8611,35.9475,671.00,95.00,50.00,21.79,160.00,18.00,0.00,29.73,M,10.00,M,CLR,M,M,M,M,M,M,M,M,M,M,M,M,M,M,91.89,KBVU 310315Z AUTO 16018KT 10SM CLR 35/10 A2973 RMK AO2,M
RTS,2021-08-31 03:15,-119.8764,39.6682,1539.00,77.00,14.00,9.05,270.00,8.00,0.00,29.95,M,10.00,14.00,CLR,M,M,M,M,M,M,M,M,M,M,M,M,M,M,77.00,KRTS 310315Z AUTO 27008G14KT 10SM CLR 25/M10 A2995 RMK AO2,M
BAM,2021-08-31 03:15,-116.8743,40.5990,1382.36,71.60,19.40,13.71,170.00,5.00,0.00,29.86,M,7.00,M,CLR,M,M,M,M,M,M,M,M,M,M,M,M,M,M,71.60,KBAM 310315Z AUTO 17005KT 7SM CLR 22/M07 A2986 RMK AO1,M
HTH,2021-08-31 03:35,-118.6315,38.5448,1282.89,84.20,26.60,12.23,230.00,4.00,0.00,29.85,M,10.00,M,FEW,FEW,SCT,M,2500.00,3000.00,3600.00,M,M,M,M,M,M,M,M,81.13,KHTH 310335Z AUTO 23004KT 10SM FEW025 FEW030 SCT036 29/M03 A2985 RMK A01,M
BAM,2021-08-31 03:35,-116.8743,40.5990,1382.36,68.00,17.60,14.35,150.00,8.00,0.00,29.86,M,7.00,M,CLR,M,M,M,M,M,M,M,M,M,M,M,M,M,M,68.00,KBAM 310335Z AUTO 15008KT 7SM CLR 20/M08 A2986 RMK AO1,M
TMT,2021-08-31 03:35,-117.1971,39.4643,1749.34,65.50,19.80,17.19,140.00,3.00,0.00,29.98,M,10.00,M,CLR,M,M,M,M,M,M,M,M,M,M,M,M,M,M,65.50,KTMT 310335Z AUTO 14003KT 10SM CLR 19/M07 A2998 RMK AO2 T01861068,M
BVU,2021-08-31 03:35,-114.8611,35.9475,671.00,93.20,48.20,21.54,210.00,18.00,0.00,29.74,M,10.00,M,CLR,M,M,M,M,M,M,M,M,M,M,M,M,M,M,89.80,KBVU 310335Z AUTO 21018KT 10SM CLR 34/09 A2974 RMK AO2 LTG DSNT SE,M
CXP,2021-08-31 03:35,-119.7326,39.1923,1431.00,82.40,15.80,8.20,260.00,7.00,0.00,29.92,M,10.00,14.00,FEW,M,M,M,4700.00,M,M,M,M,M,M,M,M,M,M,79.28,KCXP 310335Z AUTO 26007G14KT 240V300 10SM FEW047 28/M09 A2992 RMK AO2,M
RTS,2021-08-31 03:35,-119.8764,39.6682,1539.00,77.00,15.80,9.79,250.00,11.00,0.00,29.95,M,10.00,17.00,CLR,M,M,M,M,M,M,M,M,M,M,M,M,M,M,77.00,KRTS 310335Z AUTO 25011G17KT 10SM CLR 25/M09 A2995 RMK AO2,M
MEV,2021-08-31 03:35,-119.7500,38.9963,1441.42,77.00,26.60,15.48,M,6.00,0.00,29.92,M,1.75,M,OVC,M,M,M,2400.00,M,M,M,HZ,M,M,M,M,M,M,77.00,KMEV 310335Z AUTO VRB06KT 1 3/4SM HZ OVC024 25/M03 A2992 RMK AO2,M
HND,2021-08-31 03:48,-115.1344,35.9729,742.79,89.60,51.80,27.56,210.00,12.00,0.00,29.77,M,10.00,M,CLR,M,M,M,M,M,M,M,M,M,M,M,M,M,M,87.00,KHND 310348Z AUTO 21012KT 10SM CLR 32/11 A2977 RMK AO2 WSHFT 0328,M
CXP,2021-08-31 03:50,-119.7326,39.1923,1431.00,80.60,17.60,9.40,M,5.00,0.00,29.93,M,10.00,11.00,FEW,M,M,M,4700.00,M,M,M,M,M,M,M,M,M,M,78.45,KCXP 310350Z AUTO VRB05G11KT 10SM FEW047 27/M08 A2993 RMK AO2,M
DRA,2021-08-31 03:53,-116.0278,36.6206,1009.00,93.00,38.00,14.60,190.00,5.00,0.00,29.77,1002.00,10.00,M,CLR,M,M,M,M,M,M,M,M,M,M,M,M,M,M,88.67,KDRA 310353Z AUTO 19005KT 10SM CLR 34/03 A2977 RMK AO2 SLP020 T03390033,M
ELY,2021-08-31 03:53,-114.8453,39.2950,1909.00,69.00,21.00,15.98,160.00,11.00,0.00,29.99,1005.60,10.00,M,CLR,M,M,M,M,M,M,M,M,M,M,M,M,M,M,69.10,KELY 310353Z AUTO 16011KT 10SM CLR 21/M06 A2999 RMK AO2 SLP056 T02061061,M
P68,2021-08-31 03:53,-116.0056,39.6014,1993.00,65.00,21.00,18.48,190.00,5.00,0.00,29.99,1007.50,M,M,M,M,M,M,M,M,M,M,M,M,M,M,M,M,M,64.90,KP68 310353Z AUTO 19005KT 18/M06 A2999 RMK AO1 SLP075 T01831061,M
LOL,2021-08-31 03:53,-118.5701,40.0684,1192.43,85.00,18.00,8.32,300.00,13.00,0.00,29.81,1005.10,7.00,M,OVC,M,M,M,11000.00,M,M,M,M,M,M,M,M,M,M,81.10,KLOL 310353Z AUTO 30013KT 7SM OVC110 29/M08 A2981 RMK AO2 SLP051 T02941078,M
VGT,2021-08-31 03:53,-115.1933,36.2111,667.00,95.00,49.00,20.92,180.00,13.00,0.00,29.72,1004.80,10.00,M,CLR,M,M,M,M,M,M,M,M,M,M,M,M,M,M,91.68,KVGT 310353Z AUTO 18013KT 10SM CLR 35/09 A2972 RMK AO2 SLP048 T03500094,M
MEV,2021-08-31 03:55,-119.7500,38.9963,1441.42,75.20,26.60,16.43,0.00,0.00,0.00,29.93,M,1.75,M,OVC,M,M,M,2400.00,M,M,M,HZ,M,M,M,M,M,M,75.20,KMEV 310355Z AUTO 00000KT 1 3/4SM HZ OVC024 24/M03 A2993 RMK AO2,M
TMT,2021-08-31 03:55,-117.1971,39.4643,1749.34,60.30,16.30,17.76,170.00,5.00,0.00,29.99,M,10.00,M,CLR,M,M,M,M,M,M,M,M,M,M,M,M,M,M,60.30,KTMT 310355Z AUTO 17005KT 10SM CLR 16/M09 A2999 RMK AO2 T01571087,M
HTH,2021-08-31 03:55,-118.6315,38.5448,1282.89,82.40,30.20,15.03,240.00,5.00,0.00,29.86,M,10.00,M,CLR,M,M,M,M,M,M,M,M,M,M,M,M,M,M,79.97,KHTH 310355Z AUTO 24005KT 10SM CLR 28/M01 A2986 RMK A01,M
RNO,2021-08-31 03:55,-119.7711,39.4839,1341.00,82.00,23.00,11.31,M,3.00,0.00,29.89,1006.70,10.00,M,CLR,M,M,M,M,M,M,M,M,M,M,M,M,M,M,79.40,KRNO 310355Z VRB03KT 10SM CLR 28/M05 A2989 RMK AO2 SLP067 T02781050,M
BVU,2021-08-31 03:55,-114.8611,35.9475,671.00,91.40,50.00,24.37,190.00,13.00,0.00,29.76,M,10.00,M,CLR,M,M,M,M,M,M,M,M,M,M,M,M,M,M,88.36,KBVU 310355Z AUTO 19013KT 10SM CLR 33/10 A2976 RMK AO2,M
RTS,2021-08-31 03:55,-119.8764,39.6682,1539.00,75.20,15.80,10.40,0.00,0.00,0.00,29.97,M,10.00,M,CLR,M,M,M,M,M,M,M,M,M,M,M,M,M,M,75.20,KRTS 310355Z AUTO 00000KT 10SM CLR 24/M09 A2997 RMK AO2,M
BAM,2021-08-31 03:55,-116.8743,40.5990,1382.36,64.40,14.00,13.90,140.00,6.00,0.00,29.87,M,7.00,M,CLR,M,M,M,M,M,M,M,M,M,M,M,M,M,M,64.40,KBAM 310355Z AUTO 14006KT 7SM CLR 18/M10 A2987 RMK AO1,M
HND,2021-08-31 03:56,-115.1344,35.9729,742.79,90.00,52.00,27.42,190.00,12.00,0.00,29.77,1006.30,10.00,M,CLR,M,M,M,M,M,M,M,M,M,M,M,M,M,M,87.40,KHND 310356Z AUTO 19012KT 10SM CLR 32/11 A2977 RMK AO2 WSHFT 0328 SLP063 T03220111,M
TPH,2021-08-31 03:56,-117.0904,38.0505,1654.00,74.00,16.00,10.96,0.00,0.00,0.00,29.93,1005.50,9.00,M,CLR,M,M,M,M,M,M,M,M,M,M,M,M,M,M,73.90,KTPH 310356Z AUTO 00000KT 9SM CLR 23/M09 A2993 RMK AO2 SLP055 T02331089,M
EKO,2021-08-31 03:56,-115.7860,40.8242,1367.00,66.00,21.90,18.47,0.00,0.00,0.00,29.91,1008.60,5.00,M,CLR,M,M,M,M,M,M,M,HZ,M,M,M,M,M,M,66.00,KEKO 310356Z AUTO 00000KT 5SM HZ CLR 19/M06 A2991 RMK AO2 SLP086 T01891056,M
NFL,2021-08-31 03:56,-118.7010,39.4166,1199.00,77.00,19.90,11.68,290.00,4.00,0.00,29.84,1008.10,6.00,M,BKN,M,M,M,4000.00,M,M,M,FU,M,M,M,M,M,M,77.00,KNFL 310356Z 29004KT 6SM FU BKN040 25/M07 A2984 RMK AO2 SLP081 FU BKN040 T02501067,M
WMC,2021-08-31 03:56,-117.8072,40.9019,1315.00,69.00,27.00,20.54,M,4.00,0.00,29.83,1005.60,6.00,M,OVC,M,M,M,5000.00,M,M,M,HZ,M,M,M,M,M,M,69.10,KWMC 310356Z AUTO VRB04KT 6SM HZ OVC050 21/M03 A2983 RMK AO2 SLP056 T02061028 $,M
LAS,2021-08-31 03:56,-115.1634,36.0719,663.00,92.00,50.00,23.99,210.00,8.00,0.00,29.74,1004.00,10.00,17.00,FEW,BKN,BKN,M,13000.00,17000.00,22000.00,M,M,M,M,M,M,M,M,88.84,KLAS 310356Z 21008G17KT 10SM FEW130 BKN170 BKN220 33/10 A2974 RMK AO2 SLP040 CB DSNT NE-SE-SW T03330100,M
LSV,2021-08-31 03:58,-115.0343,36.2362,570.00,96.00,48.40,19.97,180.00,17.00,0.00,29.71,1003.10,10.00,20.00,BKN,BKN,M,M,15000.00,20000.00,M,M,M,M,M,M,M,M,M,92.49,KLSV 310358Z AUTO 18017G20KT 10SM BKN150 BKN200 36/09 A2971 RMK AO2 SLP031 T03550091 $,M
INS,2021-08-31 03:58,-115.6733,36.5872,955.00,89.80,42.00,18.85,110.00,8.00,0.00,29.77,M,10.00,M,CLR,M,M,M,M,M,M,M,M,M,M,M,M,M,M,86.04,KINS 310358Z AUTO 11008KT 10SM CLR 32/06 A2977 RMK AO2 SLPNO T03210055 $,M
BVU,2021-08-31 04:15,-114.8611,35.9475,671.00,91.40,51.80,26.05,170.00,10.00,0.00,29.77,M,10.00,M,CLR,M,M,M,M,M,M,M,M,M,M,M,M,M,M,88.69,KBVU 310415Z AUTO 17010KT 10SM CLR 33/11 A2977 RMK AO2,M
HTH,2021-08-31 04:15,-118.6315,38.5448,1282.89,82.40,28.40,13.96,250.00,6.00,0.00,29.87,M,6.00,M,FEW,FEW,SCT,M,3100.00,3700.00,4300.00,M,HZ,M,M,M,M,M,M,79.94,KHTH 310415Z AUTO 25006KT 6SM HZ FEW031 FEW037 SCT043 28/M02 A2987 RMK A01,M
CXP,2021-08-31 04:15,-119.7326,39.1923,1431.00,73.40,23.00,15.03,110.00,4.00,0.00,29.94,M,10.00,M,CLR,M,M,M,M,M,M,M,M,M,M,M,M,M,M,73.40,KCXP 310415Z AUTO 11004KT 10SM CLR 23/M05 A2994 RMK AO2,M
RTS,2021-08-31 04:15,-119.8764,39.6682,1539.00,75.20,15.80,10.40,0.00,0.00,0.00,29.97,M,10.00,M,CLR,M,M,M,M,M,M,M,M,M,M,M,M,M,M,75.20,KRTS 310415Z AUTO 00000KT 10SM CLR 24/M09 A2997 RMK AO2,M
MEV,2021-08-31 04:15,-119.7500,38.9963,1441.42,71.60,26.60,18.55,110.00,4.00,0.00,29.94,M,1.75,M,OVC,M,M,M,2300.00,M,M,M,HZ,M,M,M,M,M,M,71.60,KMEV 310415Z AUTO 11004KT 1 3/4SM HZ OVC023 22/M03 A2994 RMK AO2,M
TMT,2021-08-31 04:15,-117.1971,39.4643,1749.34,60.80,16.90,17.91,200.00,4.00,0.00,29.99,M,10.00,M,CLR,M,M,M,M,M,M,M,M,M,M,M,M,M,M,60.80,KTMT 310415Z AUTO 20004KT 10SM CLR 16/M08 A2999 RMK AO2 T01601084,M
BAM,2021-08-31 04:15,-116.8743,40.5990,1382.36,62.60,14.00,14.81,160.00,4.00,0.00,29.87,M,7.00,M,CLR,M,M,M,M,M,M,M,M,M,M,M,M,M,M,62.60,KBAM 310415Z AUTO 16004KT 7SM CLR 17/M10 A2987 RMK AO1,M
RTS,2021-08-31 04:35,-119.8764,39.6682,1539.00,75.20,17.60,11.24,M,3.00,0.00,29.97,M,10.00,13.00,CLR,M,M,M,M,M,M,M,M,M,M,M,M,M,M,75.20,KRTS 310435Z AUTO VRB03G13KT 10SM CLR 24/M08 A2997 RMK AO2,M
MEV,2021-08-31 04:35,-119.7500,38.9963,1441.42,68.00,30.20,24.32,90.00,7.00,0.00,29.94,M,1.75,M,OVC,M,M,M,2300.00,M,M,M,HZ,M,M,M,M,M,M,68.00,KMEV 310435Z AUTO 09007KT 1 3/4SM HZ OVC023 20/M01 A2994 RMK AO2,M
TMT,2021-08-31 04:35,-117.1971,39.4643,1749.34,56.00,17.40,21.66,240.00,3.00,0.00,29.99,M,10.00,M,CLR,M,M,M,M,M,M,M,M,M,M,M,M,M,M,56.10,KTMT 310435Z AUTO 24003KT 10SM CLR 13/M08 A2999 RMK AO2 T01341081,M
BAM,2021-08-31 04:35,-116.8743,40.5990,1382.36,64.40,14.00,13.90,150.00,8.00,0.00,29.87,M,7.00,M,CLR,M,M,M,M,M,M,M,M,M,M,M,M,M,M,64.40,KBAM 310435Z AUTO 15008KT 7SM CLR 18/M10 A2987 RMK AO1,M
BVU,2021-08-31 04:35,-114.8611,35.9475,671.00,89.60,51.80,27.56,170.00,12.00,0.00,29.78,M,10.00,M,CLR,M,M,M,M,M,M,M,M,M,M,M,M,M,M,87.00,KBVU 310435Z AUTO 17012KT 10SM CLR 32/11 A2978 RMK AO2,M
HTH,2021-08-31 04:35,-118.6315,38.5448,1282.89,82.40,30.20,15.03,310.00,6.00,0.00,29.87,M,6.00,M,FEW,FEW,M,M,4600.00,5000.00,M,M,HZ,M,M,M,M,M,M,79.97,KHTH 310435Z AUTO 31006KT 6SM HZ FEW046 FEW050 28/M01 A2987 RMK A01,M
CXP,2021-08-31 04:35,-119.7326,39.1923,1431.00,77.00,21.20,12.35,0.00,0.00,0.00,29.94,M,10.00,M,SCT,M,M,M,4500.00,M,M,M,M,M,M,M,M,M,M,77.00,KCXP 310435Z AUTO 00000KT 10SM SCT045 25/M06 A2994 RMK AO2,M
DRA,2021-08-31 04:53,-116.0278,36.6206,1009.00,92.00,39.00,15.77,0.00,0.00,0.00,29.77,1002.00,10.00,M,CLR,M,M,M,M,M,M,M,M,M,M,M,M,M,M,87.74,KDRA 310453Z AUTO 00000KT 10SM CLR 33/04 A2977 RMK AO2 SLP020 T03330039,M
LOL,2021-08-31 04:53,-118.5701,40.0684,1192.43,81.00,17.10,9.08,300.00,8.00,0.00,29.82,1005.10,7.00,M,OVC,M,M,M,11000.00,M,M,M,M,M,M,M,M,M,M,78.42,KLOL 310453Z AUTO 30008KT 7SM OVC110 27/M08 A2982 RMK AO2 SLP051 T02721083,M
ELY,2021-08-31 04:53,-114.8453,39.2950,1909.00,67.00,21.00,17.24,0.00,0.00,0.00,29.99,1004.80,10.00,M,CLR,M,M,M,M,M,M,M,M,M,M,M,M,M,M,66.90,KELY 310453Z AUTO 00000KT 10SM CLR 19/M06 A2999 RMK AO2 SLP048 T01941061,M
VGT,2021-08-31 04:53,-115.1933,36.2111,667.00,93.00,54.00,26.87,160.00,10.00,0.00,29.74,1005.30,10.00,M,CLR,M,M,M,M,M,M,M,M,M,M,M,M,M,M,90.76,KVGT 310453Z AUTO 16010KT 10SM CLR 34/12 A2974 RMK AO2 SLP053 T03390122,M
P68,2021-08-31 04:53,-116.0056,39.6014,1993.00,60.00,19.00,20.09,180.00,7.00,0.00,29.99,1007.10,M,M,M,M,M,M,M,M,M,M,M,M,M,M,M,M,M,60.10,KP68 310453Z AUTO 18007KT 16/M07 A2999 RMK AO1 SLP071 T01561072,M
BVU,2021-08-31 04:55,-114.8611,35.9475,671.00,89.60,53.60,29.45,160.00,7.00,0.00,29.78,M,10.00,14.00,CLR,M,M,M,M,M,M,M,M,M,M,M,M,M,M,87.36,KBVU 310455Z AUTO 16007G14KT 10SM CLR 32/12 A2978 RMK AO2,M
HTH,2021-08-31 04:55,-118.6315,38.5448,1282.89,80.60,23.00,11.83,230.00,6.00,0.00,29.88,M,7.00,M,FEW,FEW,M,M,4100.00,5000.00,M,M,M,M,M,M,M,M,M,78.80,KHTH 310455Z AUTO 23006KT 7SM FEW041 FEW050 27/M05 A2988 RMK A01,M
RTS,2021-08-31 04:55,-119.8764,39.6682,1539.00,75.20,19.40,12.14,M,5.00,0.00,29.97,M,10.00,12.00,CLR,M,M,M,M,M,M,M,M,M,M,M,M,M,M,75.20,KRTS 310455Z AUTO VRB05G12KT 10SM CLR 24/M07 A2997 RMK AO2,M
CXP,2021-08-31 04:55,-119.7326,39.1923,1431.00,69.80,24.80,18.30,M,4.00,0.00,29.94,M,10.00,M,BKN,M,M,M,4800.00,M,M,M,M,M,M,M,M,M,M,69.80,KCXP 310455Z AUTO VRB04KT 10SM BKN048 21/M04 A2994 RMK AO2,M
MEV,2021-08-31 04:55,-119.7500,38.9963,1441.42,66.20,28.40,24.04,70.00,8.00,0.00,29.94,M,3.00,M,OVC,M,M,M,2300.00,M,M,M,HZ,M,M,M,M,M,M,66.20,KMEV 310455Z AUTO 07008KT 3SM HZ OVC023 19/M02 A2994 RMK AO2,M
BAM,2021-08-31 04:55,-116.8743,40.5990,1382.36,64.40,15.80,15.04,160.00,8.00,0.00,29.87,M,7.00,M,CLR,M,M,M,M,M,M,M,M,M,M,M,M,M,M,64.40,KBAM 310455Z AUTO 16008KT 7SM CLR 18/M09 A2987 RMK AO1,M
TMT,2021-08-31 04:55,-117.1971,39.4643,1749.34,60.30,19.90,20.73,230.00,10.00,0.00,29.99,M,10.00,M,CLR,M,M,M,M,M,M,M,M,M,M,M,M,M,M,60.30,KTMT 310455Z AUTO 23010KT 10SM CLR 16/M07 A2999 RMK AO2 T01571067,M
RNO,2021-08-31 04:55,-119.7711,39.4839,1341.00,78.00,24.10,13.45,240.00,5.00,0.00,29.90,1006.90,10.00,M,CLR,M,M,M,M,M,M,M,M,M,M,M,M,M,M,78.10,KRNO 310455Z 24005KT 10SM CLR 26/M04 A2990 RMK AO2 SLP069 T02561044,M
HND,2021-08-31 04:56,-115.1344,35.9729,742.79,87.00,56.00,34.66,180.00,13.00,0.00,29.79,1007.00,10.00,M,CLR,M,M,M,M,M,M,M,M,M,M,M,M,M,M,85.61,KHND 310456Z AUTO 18013KT 10SM CLR 31/13 A2979 RMK AO2 SLP070 T03060133,M
LAS,2021-08-31 04:56,-115.1634,36.0719,663.00,90.00,53.00,28.55,150.00,7.00,0.00,29.76,1004.50,10.00,M,SCT,BKN,BKN,M,13000.00,17000.00,22000.00,M,M,M,M,M,M,M,M,87.62,KLAS 310456Z 15007KT 10SM SCT130 BKN170 BKN220 32/12 A2976 RMK AO2 SLP045 CB DSNT NE-SE-SW T03220117,M
TPH,2021-08-31 04:56,-117.0904,38.0505,1654.00,71.00,16.00,12.04,0.00,0.00,0.00,29.95,1006.00,9.00,M,CLR,M,M,M,M,M,M,M,M,M,M,M,M,M,M,71.10,KTPH 310456Z AUTO 00000KT 9SM CLR 22/M09 A2995 RMK AO2 SLP060 T02171089,M
WMC,2021-08-31 04:56,-117.8072,40.9019,1315.00,67.00,23.00,18.76,160.00,4.00,0.00,29.83,1005.40,7.00,M,BKN,BKN,M,M,4700.00,11000.00,M,M,M,M,M,M,M,M,M,66.90,KWMC 310456Z AUTO 16004KT 7SM BKN047 BKN110 19/M05 A2983 RMK AO2 SLP054 T01941050 $,M
NFL,2021-08-31 04:56,-118.7010,39.4166,1199.00,74.00,21.00,13.58,330.00,6.00,0.00,29.84,1008.20,7.00,M,SCT,M,M,M,4000.00,M,M,M,M,M,M,M,M,M,M,73.90,KNFL 310456Z 33006KT 7SM SCT040 23/M06 A2984 RMK AO2 SLP082 FU SCT040 FU HZ VC ALQDS T02331061,M
EKO,2021-08-31 04:56,-115.7860,40.8242,1367.00,64.00,25.00,22.56,0.00,0.00,0.00,29.91,1008.10,5.00,M,CLR,M,M,M,M,M,M,M,HZ,M,M,M,M,M,M,64.00,KEKO 310456Z AUTO 00000KT 5SM HZ CLR 18/M04 A2991 RMK AO2 SLP081 T01781039,M
LSV,2021-08-31 04:58,-115.0343,36.2362,570.00,92.80,50.70,23.94,180.00,6.00,0.00,29.73,1003.90,10.00,M,BKN,M,M,M,19000.00,M,M,M,M,M,M,M,M,M,M,89.84,KLSV 310458Z AUTO 18006KT 10SM BKN190 34/10 A2973 RMK AO2 SLP039 T03380104 $,M
INS,2021-08-31 04:58,-115.6733,36.5872,955.00,88.70,42.40,19.90,110.00,12.00,0.00,29.77,M,10.00,M,CLR,M,M,M,M,M,M,M,M,M,M,M,M,M,M,85.13,KINS 310458Z AUTO 11012KT 10SM CLR 32/06 A2977 RMK AO2 SLPNO T03150058 $,M
HTH,2021-08-31 05:15,-118.6315,38.5448,1282.89,78.80,24.80,13.54,0.00,0.00,0.00,29.88,M,7.00,M,FEW,M,M,M,4500.00,M,M,M,M,M,M,M,M,M,M,78.80,KHTH 310515Z AUTO 00000KT 7SM FEW045 26/M04 A2988 RMK A01,M
BAM,2021-08-31 05:15,-116.8743,40.5990,1382.36,64.40,15.80,15.04,170.00,5.00,0.00,29.87,M,7.00,M,CLR,M,M,M,M,M,M,M,M,M,M,M,M,M,M,64.40,KBAM 310515Z AUTO 17005KT 7SM CLR 18/M09 A2987 RMK AO1,M
TMT,2021-08-31 05:15,-117.1971,39.4643,1749.34,59.00,20.30,22.09,220.00,3.00,0.00,30.00,M,10.00,M,CLR,M,M,M,M,M,M,M,M,M,M,M,M,M,M,59.00,KTMT 310515Z AUTO 22003KT 10SM CLR 15/M06 A3000 RMK AO2 T01501065,M
MEV,2021-08-31 05:15,-119.7500,38.9963,1441.42,64.40,30.20,27.55,80.00,9.00,0.00,29.94,M,3.00,M,OVC,M,M,M,2300.00,M,M,M,HZ,M,M,M,M,M,M,64.40,KMEV 310515Z AUTO 08009KT 3SM HZ OVC023 18/M01 A2994 RMK AO2,M
CXP,2021-08-31 05:15,-119.7326,39.1923,1431.00,71.60,23.00,15.97,0.00,0.00,0.00,29.94,M,10.00,M,FEW,M,M,M,5000.00,M,M,M,M,M,M,M,M,M,M,71.60,KCXP 310515Z AUTO 00000KT 10SM FEW050 22/M05 A2994 RMK AO2,M
BVU,2021-08-31 05:15,-114.8611,35.9475,671.00,87.80,55.40,33.29,180.00,9.00,0.00,29.77,M,10.00,M,CLR,M,M,M,M,M,M,M,M,M,M,M,M,M,M,86.11,KBVU 310515Z AUTO 18009KT 10SM CLR 31/13 A2977 RMK AO2,M
RTS,2021-08-31 05:15,-119.8764,39.6682,1539.00,75.20,17.60,11.24,M,3.00,0.00,29.97,M,10.00,11.00,CLR,M,M,M,M,M,M,M,M,M,M,M,M,M,M,75.20,KRTS 310515Z AUTO VRB03G11KT 10SM CLR 24/M08 A2997 RMK AO2,M
HTH,2021-08-31 05:35,-118.6315,38.5448,1282.89,77.00,24.80,14.37,240.00,5.00,0.00,29.88,M,7.00,M,FEW,FEW,M,M,3200.00,4200.00,M,M,M,M,M,M,M,M,M,77.00,KHTH 310535Z AUTO 24005KT 7SM FEW032 FEW042 25/M04 A2988 RMK A01,M
RTS,2021-08-31 05:35,-119.8764,39.6682,1539.00,73.40,17.60,11.94,M,5.00,0.00,29.97,M,10.00,M,CLR,M,M,M,M,M,M,M,M,M,M,M,M,M,M,73.40,KRTS 310535Z AUTO VRB05KT 10SM CLR 23/M08 A2997 RMK AO2,M
MEV,2021-08-31 05:35,-119.7500,38.9963,1441.42,64.40,30.20,27.55,70.00,8.00,0.00,29.94,M,5.00,M,OVC,M,M,M,2400.00,M,M,M,HZ,M,M,M,M,M,M,64.40,KMEV 310535Z AUTO 07008KT 5SM HZ OVC024 18/M01 A2994 RMK AO2,M
TMT,2021-08-31 05:35,-117.1971,39.4643,1749.34,57.20,20.30,23.57,290.00,4.00,0.00,30.00,M,10.00,M,CLR,M,M,M,M,M,M,M,M,M,M,M,M,M,M,57.20,KTMT 310535Z AUTO 29004KT 10SM CLR 14/M06 A3000 RMK AO2 T01401065,M
BAM,2021-08-31 05:35,-116.8743,40.5990,1382.36,64.40,15.80,15.04,160.00,6.00,0.00,29.86,M,7.00,M,CLR,M,M,M,M,M,M,M,M,M,M,M,M,M,M,64.40,KBAM 310535Z AUTO 16006KT 7SM CLR 18/M09 A2986 RMK AO1,M
BVU,2021-08-31 05:35,-114.8611,35.9475,671.00,87.80,55.40,33.29,200.00,8.00,0.00,29.77,M,10.00,M,CLR,M,M,M,M,M,M,M,M,M,M,M,M,M,M,86.11,KBVU 310535Z AUTO 20008KT 10SM CLR 31/13 A2977 RMK AO2,M
CXP,2021-08-31 05:35,-119.7326,39.1923,1431.00,69.80,24.80,18.30,90.00,3.00,0.00,29.94,M,10.00,M,FEW,M,M,M,4300.00,M,M,M,M,M,M,M,M,M,M,69.80,KCXP 310535Z AUTO 09003KT 10SM FEW043 21/M04 A2994 RMK AO2,M
P68,2021-08-31 05:53,-116.0056,39.6014,1993.00,57.00,19.90,23.34,170.00,7.00,0.00,29.99,1006.80,M,M,M,M,M,M,M,M,M,M,M,M,M,M,M,M,M,57.00,KP68 310553Z AUTO 17007KT 14/M07 A2999 RMK AO1 SLP068 T01391067 10322 20128 50006,M
DRA,2021-08-31 05:53,-116.0278,36.6206,1009.00,90.00,44.00,20.39,180.00,12.00,0.00,29.79,1002.40,10.00,21.00,CLR,M,M,M,M,M,M,M,M,M,M,M,27.00,200.00,2021-08-31 05:40,86.38,KDRA 310553Z AUTO 18012G21KT 10SM CLR 32/07 A2979 RMK AO2 PK WND 20027/0540 SLP024 T03220067 10394 20317 51014,M
LOL,2021-08-31 05:53,-118.5701,40.0684,1192.43,76.00,17.10,10.75,200.00,5.00,0.00,29.84,1005.60,10.00,M,OVC,M,M,M,6000.00,M,M,M,M,M,M,M,M,M,M,75.90,KLOL 310553Z AUTO 20005KT 10SM OVC060 24/M08 A2984 RMK AO2 SLP056 T02441083 10350 20211 53014,M
ELY,2021-08-31 05:53,-114.8453,39.2950,1909.00,67.00,19.90,16.45,220.00,5.00,0.00,30.00,1004.40,10.00,M,CLR,M,M,M,M,M,M,M,M,M,M,M,M,M,M,66.90,KELY 310553Z AUTO 22005KT 10SM CLR 19/M07 A3000 RMK AO2 SLP044 T01941067 10311 20183 51009,M
VGT,2021-08-31 05:53,-115.1933,36.2111,667.00,91.00,54.00,28.60,140.00,7.00,0.00,29.74,1005.50,10.00,M,CLR,M,M,M,M,M,M,M,M,M,M,M,M,M,M,88.78,KVGT 310553Z AUTO 14007KT 10SM CLR 33/12 A2974 RMK AO2 SLP055 T03280122 10389 20328 51018,M
BVU,2021-08-31 05:55,-114.8611,35.9475,671.00,87.80,55.40,33.29,210.00,8.00,0.00,29.77,M,10.00,14.00,CLR,M,M,M,M,M,M,M,M,M,M,M,M,M,M,86.11,KBVU 310555Z AUTO 21008G14KT 10SM CLR 31/13 A2977 RMK AO2,M
CXP,2021-08-31 05:55,-119.7326,39.1923,1431.00,68.00,23.00,18.06,330.00,5.00,0.00,29.94,M,10.00,M,SCT,BKN,M,M,2900.00,3800.00,M,M,M,M,M,M,M,M,M,68.00,KCXP 310555Z AUTO 33005KT 10SM SCT029 BKN038 20/M05 A2994 RMK AO2,M
RTS,2021-08-31 05:55,-119.8764,39.6682,1539.00,71.60,17.60,12.69,240.00,6.00,0.00,29.97,M,10.00,M,CLR,M,M,M,M,M,M,M,M,M,M,M,M,M,M,71.60,KRTS 310555Z AUTO 24006KT 10SM CLR 22/M08 A2997 RMK AO2,M
MEV,2021-08-31 05:55,-119.7500,38.9963,1441.42,62.60,30.20,29.35,70.00,8.00,0.00,29.93,M,9.00,M,OVC,M,M,M,2200.00,M,M,M,M,M,M,M,M,M,M,62.60,KMEV 310555Z AUTO 07008KT 9SM OVC022 17/M01 A2993 RMK AO2,M
BAM,2021-08-31 05:55,-116.8743,40.5990,1382.36,62.60,15.80,16.02,170.00,5.00,0.00,29.87,M,7.00,M,CLR,M,M,M,M,M,M,M,M,M,M,M,M,M,M,62.60,KBAM 310555Z AUTO 17005KT 7SM CLR 17/M09 A2987 RMK AO1,M
HTH,2021-08-31 05:55,-118.6315,38.5448,1282.89,75.20,21.20,13.11,240.00,7.00,0.00,29.88,M,10.00,M,FEW,FEW,FEW,M,2300.00,3100.00,4100.00,M,M,M,M,M,M,M,M,75.20,KHTH 310555Z AUTO 24007KT 10SM FEW023 FEW031 FEW041 24/M06 A2988 RMK A01,M
TMT,2021-08-31 05:55,-117.1971,39.4643,1749.34,54.70,21.00,26.58,0.00,0.00,0.00,30.00,M,10.00,M,CLR,M,M,M,M,M,M,M,M,M,M,M,M,M,M,54.70,KTMT 310555Z AUTO 00000KT 10SM CLR 13/M06 A3000 RMK AO2 T01261061 10315 20123,M
RNO,2021-08-31 05:55,-119.7711,39.4839,1341.00,73.00,25.00,16.56,0.00,0.00,0.00,29.90,1007.10,10.00,M,CLR,M,M,M,M,M,M,M,M,M,M,M,M,M,M,73.00,KRNO 310555Z 00000KT 10SM CLR 23/M04 A2990 RMK AO2 SLP071 T02281039 10344 20222 51011,M
TPH,2021-08-31 05:56,-117.0904,38.0505,1654.00,70.00,17.10,13.11,0.00,0.00,0.00,29.95,1005.40,10.00,M,CLR,M,M,M,M,M,M,M,M,M,M,M,M,M,M,70.00,KTPH 310556Z AUTO 00000KT 10SM CLR 21/M08 A2995 RMK AO2 SLP054 T02111083 10333 20194 51010,M
NFL,2021-08-31 05:56,-118.7010,39.4166,1199.00,72.00,21.00,14.48,280.00,6.00,0.00,29.85,1008.50,9.00,M,BKN,M,M,M,5000.00,M,M,M,M,M,M,M,M,M,M,72.00,KNFL 310556Z 28006KT 9SM BKN050 22/M06 A2985 RMK AO2 SLP085 FU BKN050 FU HZ VC ALQDS T02221061 10344 20222 51012,M
LAS,2021-08-31 05:56,-115.1634,36.0719,663.00,88.00,54.00,31.43,200.00,4.00,0.00,29.76,1004.50,10.00,M,FEW,BKN,BKN,M,13000.00,18000.00,22000.00,M,M,M,M,M,M,M,M,85.98,KLAS 310556Z 20004KT 10SM FEW130 BKN180 BKN220 31/12 A2976 RMK AO2 SLP045 T03110122 10361 20311 50015,M
WMC,2021-08-31 05:56,-117.8072,40.9019,1315.00,67.00,23.00,18.76,280.00,4.00,0.00,29.84,1005.20,7.00,M,BKN,M,M,M,11000.00,M,M,M,M,M,M,M,M,M,M,66.90,KWMC 310556Z AUTO 28004KT 7SM BKN110 19/M05 A2984 RMK AO2 SLP052 T01941050 10339 20183 51009 $,M
HND,2021-08-31 05:56,-115.1344,35.9729,742.79,87.00,53.00,31.30,180.00,13.00,0.00,29.78,1006.60,10.00,M,CLR,M,M,M,M,M,M,M,M,M,M,M,M,M,M,85.01,KHND 310556Z AUTO 18013KT 10SM CLR 31/12 A2978 RMK AO2 SLP066 T03060117 10356 20306 50010,M
EKO,2021-08-31 05:56,-115.7860,40.8242,1367.00,57.00,25.00,28.93,0.00,0.00,0.00,29.90,1007.70,5.00,M,CLR,M,M,M,M,M,M,M,HZ,M,M,M,M,M,M,57.00,KEKO 310556Z AUTO 00000KT 5SM HZ CLR 14/M04 A2990 RMK AO2 SLP077 T01391039 10317 20133 50005,M
LSV,2021-08-31 05:58,-115.0343,36.2362,570.00,92.30,53.40,26.86,150.00,9.00,0.00,29.73,1003.80,10.00,M,BKN,M,M,M,16000.00,M,M,M,M,M,M,M,M,M,M,89.91,KLSV 310558Z AUTO 15009KT 10SM BKN160 34/12 A2973 RMK AO2 SLP038 T03350119 10391 20334 50018 $,M
INS,2021-08-31 05:58,-115.6733,36.5872,955.00,85.80,48.00,27.00,110.00,15.00,0.00,29.77,M,10.00,M,CLR,M,M,M,M,M,M,M,M,M,M,M,M,M,M,83.22,KINS 310558Z AUTO 11015KT 10SM CLR 30/09 A2977 RMK AO2 SLPNO T02990089 10354 20299 51009 $,M
TMT,2021-08-31 06:15,-117.1971,39.4643,1749.34,52.30,20.50,28.41,290.00,3.00,0.00,30.00,M,10.00,M,CLR,M,M,M,M,M,M,M,M,M,M,M,M,M,M,52.30,KTMT 310615Z AUTO 29003KT 10SM CLR 11/M06 A3000 RMK AO2 T01131064,M
HTH,2021-08-31 06:15,-118.6315,38.5448,1282.89,75.20,21.20,13.11,250.00,7.00,0.00,29.88,M,10.00,M,M,M,M,M,M,M,M,M,M,M,M,M,M,M,M,75.20,KHTH 310615Z AUTO 25007KT 10SM 24/M06 A2988 RMK A01,M
BAM,2021-08-31 06:15,-116.8743,40.5990,1382.36,60.80,14.00,15.78,190.00,5.00,0.00,29.87,M,7.00,M,CLR,M,M,M,M,M,M,M,M,M,M,M,M,M,M,60.80,KBAM 310615Z AUTO 19005KT 7SM CLR 16/M10 A2987 RMK AO1,M
MEV,2021-08-31 06:15,-119.7500,38.9963,1441.42,62.60,32.00,31.56,130.00,7.00,0.00,29.93,M,10.00,M,OVC,M,M,M,2200.00,M,M,M,M,M,M,M,M,M,M,62.60,KMEV 310615Z AUTO 13007KT 10SM OVC022 17/00 A2993 RMK AO2,M
RTS,2021-08-31 06:15,-119.8764,39.6682,1539.00,73.40,19.40,12.90,270.00,7.00,0.00,29.97,M,10.00,M,CLR,M,M,M,M,M,M,M,M,M,M,M,M,M,M,73.40,KRTS 310615Z AUTO 27007KT 240V300 10SM CLR 23/M07 A2997 RMK AO2,M
CXP,2021-08-31 06:15,-119.7326,39.1923,1431.00,66.20,26.60,22.33,0.00,0.00,0.00,29.95,M,10.00,M,OVC,M,M,M,2800.00,M,M,M,M,M,M,M,M,M,M,66.20,KCXP 310615Z AUTO 00000KT 10SM OVC028 19/M03 A2995 RMK AO2,M
BVU,2021-08-31 06:15,-114.8611,35.9475,671.00,87.80,53.60,31.17,160.00,6.00,0.00,29.77,M,10.00,M,CLR,M,M,M,M,M,M,M,M,M,M,M,M,M,M,85.72,KBVU 310615Z AUTO 16006KT 10SM CLR 31/12 A2977 RMK AO2,M
RTS,2021-08-31 06:35,-119.8764,39.6682,1539.00,68.00,17.60,14.35,M,5.00,0.00,29.97,M,10.00,M,CLR,M,M,M,M,M,M,M,M,M,M,M,M,M,M,68.00,KRTS 310635Z AUTO VRB05KT 10SM CLR 20/M08 A2997 RMK AO2,M
HTH,2021-08-31 06:35,-118.6315,38.5448,1282.89,75.20,21.20,13.11,230.00,7.00,0.00,29.88,M,10.00,M,M,M,M,M,M,M,M,M,M,M,M,M,M,M,M,75.20,KHTH 310635Z AUTO 23007KT 10SM 24/M06 A2988 RMK A01,M
BVU,2021-08-31 06:35,-114.8611,35.9475,671.00,87.80,53.60,31.17,160.00,8.00,0.00,29.77,M,10.00,M,CLR,M,M,M,M,M,M,M,M,M,M,M,M,M,M,85.72,KBVU 310635Z AUTO 16008KT 10SM CLR 31/12 A2977 RMK AO2,M
MEV,2021-08-31 06:35,-119.7500,38.9963,1441.42,60.80,32.00,33.64,100.00,4.00,0.00,29.93,M,5.00,M,OVC,M,M,M,2200.00,M,M,M,HZ,M,M,M,M,M,M,60.80,KMEV 310635Z AUTO 10004KT 5SM HZ OVC022 16/M00 A2993 RMK AO2,M
CXP,2021-08-31 06:35,-119.7326,39.1923,1431.00,64.40,26.60,23.77,0.00,0.00,0.00,29.94,M,10.00,M,OVC,M,M,M,2900.00,M,M,M,M,M,M,M,M,M,M,64.40,KCXP 310635Z AUTO 00000KT 10SM OVC029 18/M03 A2994 RMK AO2,M
BAM,2021-08-31 06:35,-116.8743,40.5990,1382.36,57.20,14.00,17.95,180.00,5.00,0.00,29.87,M,7.00,M,CLR,M,M,M,M,M,M,M,M,M,M,M,M,M,M,57.20,KBAM 310635Z AUTO 18005KT 7SM CLR 14/M10 A2987 RMK AO1,M
TMT,2021-08-31 06:35,-117.1971,39.4643,1749.34,51.40,19.40,28.03,0.00,0.00,0.00,30.00,M,10.00,M,CLR,M,M,M,M,M,M,M,M,M,M,M,M,M,M,51.40,KTMT 310635Z AUTO 00000KT 10SM CLR 11/M07 A3000 RMK AO2 T01081070,M
VGT,2021-08-31 06:53,-115.1933,36.2111,667.00,89.00,55.00,31.49,140.00,5.00,0.00,29.75,1005.70,10.00,M,CLR,M,M,M,M,M,M,M,M,M,M,M,M,M,M,87.21,KVGT 310653Z AUTO 14005KT 10SM CLR 32/13 A2975 RMK AO2 SLP057 T03170128,M
P68,2021-08-31 06:53,-116.0056,39.6014,1993.00,54.00,19.90,26.02,180.00,6.00,0.00,29.98,1006.70,M,M,M,M,M,M,M,M,M,M,M,M,M,M,M,M,M,54.00,KP68 310653Z AUTO 18006KT 12/M07 A2998 RMK AO1 SLP067 T01221067,M
ELY,2021-08-31 06:53,-114.8453,39.2950,1909.00,61.00,19.90,20.23,160.00,7.00,0.00,30.02,1005.10,10.00,M,CLR,M,M,M,M,M,M,M,M,M,M,M,M,M,M,61.00,KELY 310653Z AUTO 16007KT 10SM CLR 16/M07 A3002 RMK AO2 SLP051 T01611067,M
LOL,2021-08-31 06:53,-118.5701,40.0684,1192.43,68.00,19.90,15.84,360.00,4.00,0.00,29.84,1006.00,9.00,M,OVC,M,M,M,5500.00,M,M,M,M,M,M,M,M,M,M,68.00,KLOL 310653Z AUTO 36004KT 9SM OVC055 20/M07 A2984 RMK AO2 SLP060 T02001067,M
DRA,2021-08-31 06:53,-116.0278,36.6206,1009.00,89.00,45.00,21.70,200.00,14.00,0.00,29.78,1002.00,10.00,M,CLR,M,M,M,M,M,M,M,M,M,M,M,26.00,190.00,2021-08-31 06:11,85.66,KDRA 310653Z AUTO 20014KT 10SM CLR 32/07 A2978 RMK AO2 PK WND 19026/0611 SLP020 T03170072,M
CXP,2021-08-31 06:55,-119.7326,39.1923,1431.00,64.40,24.80,22.06,330.00,3.00,0.00,29.94,M,8.00,M,OVC,M,M,M,2900.00,M,M,M,M,M,M,M,M,M,M,64.40,KCXP 310655Z AUTO 33003KT 8SM OVC029 18/M04 A2994 RMK AO2,M
BVU,2021-08-31 06:55,-114.8611,35.9475,671.00,87.80,53.60,31.17,180.00,7.00,0.00,29.77,M,10.00,M,CLR,M,M,M,M,M,M,M,M,M,M,M,M,M,M,85.72,KBVU 310655Z AUTO 18007KT 10SM CLR 31/12 A2977 RMK AO2,M
RNO,2021-08-31 06:55,-119.7711,39.4839,1341.00,67.00,28.00,23.09,150.00,3.00,0.00,29.90,1006.90,10.00,M,CLR,M,M,M,M,M,M,M,M,M,M,M,M,M,M,66.90,KRNO 310655Z 15003KT 10SM CLR 19/M02 A2990 RMK AO2 SLP069 T01941022,M
TMT,2021-08-31 06:55,-117.1971,39.4643,1749.34,51.60,18.50,26.77,150.00,3.00,0.00,30.00,M,10.00,M,CLR,M,M,M,M,M,M,M,M,M,M,M,M,M,M,51.60,KTMT 310655Z AUTO 15003KT 10SM CLR 11/M07 A3000 RMK AO2 T01091075,M
MEV,2021-08-31 06:55,-119.7500,38.9963,1441.42,59.00,32.00,35.87,0.00,0.00,0.00,29.93,M,5.00,M,OVC,M,M,M,2200.00,M,M,M,HZ,M,M,M,M,M,M,59.00,KMEV 310655Z AUTO 00000KT 5SM HZ OVC022 15/00 A2993 RMK AO2,M
HTH,2021-08-31 06:55,-118.6315,38.5448,1282.89,75.20,21.20,13.11,240.00,5.00,0.00,29.88,M,9.00,M,CLR,M,M,M,M,M,M,M,M,M,M,M,M,M,M,75.20,KHTH 310655Z AUTO 24005KT 9SM CLR 24/M06 A2988 RMK A01,M
RTS,2021-08-31 06:55,-119.8764,39.6682,1539.00,60.80,17.60,18.46,0.00,0.00,0.00,29.97,M,10.00,M,CLR,M,M,M,M,M,M,M,M,M,M,M,M,M,M,60.80,KRTS 310655Z AUTO 00000KT 10SM CLR 16/M08 A2997 RMK AO2,M
BAM,2021-08-31 06:55,-116.8743,40.5990,1382.36,57.20,15.80,19.42,0.00,0.00,0.00,29.87,M,10.00,M,CLR,M,M,M,M,M,M,M,M,M,M,M,M,M,M,57.20,KBAM 310655Z AUTO 00000KT 10SM CLR 14/M09 A2987 RMK AO1,M
LAS,2021-08-31 06:56,-115.1634,36.0719,663.00,88.00,53.00,30.41,140.00,6.00,0.00,29.77,1004.60,10.00,M,FEW,OVC,M,M,13000.00,17000.00,M,M,M,M,M,M,M,M,M,85.80,KLAS 310656Z 14006KT 10SM FEW130 OVC170 31/12 A2977 RMK AO2 SLP046 T03110117,M
TPH,2021-08-31 06:56,-117.0904,38.0505,1654.00,66.00,17.10,15.05,300.00,5.00,0.00,29.95,1005.50,10.00,M,CLR,M,M,M,M,M,M,M,M,M,M,M,M,M,M,66.00,KTPH 310656Z AUTO 30005KT 10SM CLR 19/M08 A2995 RMK AO2 SLP055 T01891083,M
NFL,2021-08-31 06:56,-118.7010,39.4166,1199.00,68.00,21.00,16.60,0.00,0.00,0.00,29.85,1008.50,10.00,M,BKN,M,M,M,5000.00,M,M,M,M,M,M,M,M,M,M,68.00,KNFL 310656Z 00000KT 10SM BKN050 20/M06 A2985 RMK AO2 SLP085 FU BKN050 T02001061,M
HND,2021-08-31 06:56,-115.1344,35.9729,742.79,87.00,53.00,31.30,180.00,11.00,0.00,29.80,1007.20,10.00,M,CLR,M,M,M,M,M,M,M,M,M,M,M,M,M,M,85.01,KHND 310656Z AUTO 18011KT 10SM CLR 31/12 A2980 RMK AO2 SLP072 T03060117 403830272,M
EKO,2021-08-31 06:56,-115.7860,40.8242,1367.00,59.00,25.00,26.92,40.00,4.00,0.00,29.89,1006.60,6.00,M,BKN,M,M,M,10000.00,M,M,M,HZ,M,M,M,M,M,M,59.00,KEKO 310656Z AUTO 04004KT 6SM HZ BKN100 15/M04 A2989 RMK AO2 SLP066 T01501039,M
LSV,2021-08-31 06:58,-115.0343,36.2362,570.00,91.60,55.00,29.00,190.00,7.00,0.00,29.73,1003.80,10.00,M,BKN,BKN,M,M,15000.00,17000.00,M,M,M,M,M,M,M,M,M,89.59,KLSV 310658Z AUTO 19007KT 10SM BKN150 BKN170 33/13 A2973 RMK AO2 SLP038 T03310127 $,M
INS,2021-08-31 06:58,-115.6733,36.5872,955.00,85.60,48.70,27.89,110.00,14.00,0.00,29.79,M,10.00,M,CLR,M,M,M,M,M,M,M,M,M,M,M,M,M,M,83.14,KINS 310658Z AUTO 11014KT 10SM CLR 30/09 A2979 RMK AO2 SLPNO T02980093 $,M
TMT,2021-08-31 07:15,-117.1971,39.4643,1749.34,46.60,17.20,30.51,0.00,0.00,0.00,30.00,M,10.00,M,CLR,M,M,M,M,M,M,M,M,M,M,M,M,M,M,46.60,KTMT 310715Z AUTO 00000KT 10SM CLR 08/M08 A3000 RMK AO2 T00811082,M
RTS,2021-08-31 07:15,-119.8764,39.6682,1539.00,62.60,17.60,17.32,320.00,4.00,0.00,29.96,M,10.00,10.00,CLR,M,M,M,M,M,M,M,M,M,M,M,M,M,M,62.60,KRTS 310715Z AUTO 32004G10KT 10SM CLR 17/M08 A2996 RMK AO2,M
CXP,2021-08-31 07:15,-119.7326,39.1923,1431.00,64.40,24.80,22.06,0.00,0.00,0.00,29.94,M,7.00,M,OVC,M,M,M,3000.00,M,M,M,M,M,M,M,M,M,M,64.40,KCXP 310715Z AUTO 00000KT 7SM OVC030 18/M04 A2994 RMK AO2,M
BVU,2021-08-31 07:15,-114.8611,35.9475,671.00,87.80,53.60,31.17,160.00,9.00,0.00,29.77,M,10.00,M,CLR,M,M,M,M,M,M,M,M,M,M,M,M,M,M,85.72,KBVU 310715Z AUTO 16009KT 10SM CLR 31/12 A2977 RMK AO2,M
MEV,2021-08-31 07:15,-119.7500,38.9963,1441.42,55.40,30.20,37.97,140.00,4.00,0.00,29.93,M,6.00,M,OVC,M,M,M,2200.00,M,M,M,HZ,M,M,M,M,M,M,55.40,KMEV 310715Z AUTO 14004KT 6SM HZ OVC022 13/M01 A2993 RMK AO2,M
BAM,2021-08-31 07:15,-116.8743,40.5990,1382.36,57.20,15.80,19.42,120.00,8.00,0.00,29.88,M,7.00,M,CLR,M,M,M,M,M,M,M,M,M,M,M,M,M,M,57.20,KBAM 310715Z AUTO 12008KT 7SM CLR 14/M09 A2988 RMK AO1,M
HTH,2021-08-31 07:15,-118.6315,38.5448,1282.89,73.40,23.00,15.03,180.00,3.00,0.00,29.88,M,10.00,M,FEW,FEW,M,M,4000.00,4800.00,M,M,M,M,M,M,M,M,M,73.40,KHTH 310715Z AUTO 18003KT 10SM FEW040 FEW048 23/M05 A2988 RMK A01,M
BAM,2021-08-31 07:35,-116.8743,40.5990,1382.36,57.20,17.60,20.99,120.00,8.00,0.00,29.88,M,7.00,M,CLR,M,M,M,M,M,M,M,M,M,M,M,M,M,M,57.20,KBAM 310735Z AUTO 12008KT 7SM CLR 14/M08 A2988 RMK AO1,M
CXP,2021-08-31 07:35,-119.7326,39.1923,1431.00,64.40,24.80,22.06,0.00,0.00,0.00,29.94,M,5.00,M,OVC,M,M,M,3000.00,M,M,M,HZ,M,M,M,M,M,M,64.40,KCXP 310735Z AUTO 00000KT 5SM HZ OVC030 18/M04 A2994 RMK AO2,M
TMT,2021-08-31 07:35,-117.1971,39.4643,1749.34,47.80,17.80,29.93,0.00,0.00,0.00,30.01,M,10.00,M,CLR,M,M,M,M,M,M,M,M,M,M,M,M,M,M,47.80,KTMT 310735Z AUTO 00000KT 10SM CLR 09/M08 A3001 RMK AO2 T00881079,M
BVU,2021-08-31 07:35,-114.8611,35.9475,671.00,87.80,53.60,31.17,160.00,9.00,0.00,29.77,M,10.00,M,CLR,M,M,M,M,M,M,M,M,M,M,M,M,M,M,85.72,KBVU 310735Z AUTO 16009KT 10SM CLR 31/12 A2977 RMK AO2,M
HTH,2021-08-31 07:35,-118.6315,38.5448,1282.89,73.40,23.00,15.03,0.00,0.00,0.00,29.88,M,10.00,M,CLR,M,M,M,M,M,M,M,M,M,M,M,M,M,M,73.40,KHTH 310735Z AUTO 00000KT 10SM CLR 23/M05 A2988 RMK A01,M
RTS,2021-08-31 07:35,-119.8764,39.6682,1539.00,60.80,17.60,18.46,340.00,9.00,0.00,29.96,M,10.00,M,CLR,M,M,M,M,M,M,M,M,M,M,M,M,M,M,60.80,KRTS 310735Z AUTO 34009KT 10SM CLR 16/M08 A2996 RMK AO2,M
MEV,2021-08-31 07:35,-119.7500,38.9963,1441.42,55.40,30.20,37.97,130.00,4.00,0.00,29.93,M,10.00,M,OVC,M,M,M,2100.00,M,M,M,M,M,M,M,M,M,M,55.40,KMEV 310735Z AUTO 13004KT 10SM OVC021 13/M01 A2993 RMK AO2,M
VGT,2021-08-31 07:53,-115.1933,36.2111,667.00,90.00,52.00,27.42,160.00,7.00,0.00,29.74,1005.40,10.00,M,CLR,M,M,M,M,M,M,M,M,M,M,M,M,M,M,87.40,KVGT 310753Z AUTO 16007KT 10SM CLR 32/11 A2974 RMK AO2 SLP054 T03220111 403940278,M
ELY,2021-08-31 07:53,-114.8453,39.2950,1909.00,53.00,21.00,28.18,350.00,5.00,0.00,30.02,1005.60,10.00,M,CLR,M,M,M,M,M,M,M,M,M,M,M,M,M,M,53.10,KELY 310753Z AUTO 35005KT 10SM CLR 12/M06 A3002 RMK AO2 SLP056 T01171061 403220072,M
LOL,2021-08-31 07:53,-118.5701,40.0684,1192.43,61.00,19.90,20.23,80.00,8.00,0.00,29.85,1006.50,8.00,M,OVC,M,M,M,3600.00,M,M,M,M,M,M,M,M,M,M,61.00,KLOL 310753Z AUTO 08008KT 8SM OVC036 16/M07 A2985 RMK AO2 SLP065 T01611067 403670089,M
P68,2021-08-31 07:53,-116.0056,39.6014,1993.00,55.00,19.00,24.14,190.00,7.00,0.00,29.98,1006.20,M,M,M,M,M,M,M,M,M,M,M,M,M,M,M,M,M,55.00,KP68 310753Z AUTO 19007KT 13/M07 A2998 RMK AO1 SLP062 T01281072 403330089,M
DRA,2021-08-31 07:53,-116.0278,36.6206,1009.00,85.00,44.00,23.97,80.00,6.00,0.00,29.79,1002.40,10.00,M,CLR,M,M,M,M,M,M,M,M,M,M,M,M,M,M,82.20,KDRA 310753Z AUTO 08006KT 10SM CLR 29/07 A2979 RMK AO2 SLP024 T02940067 404000217,M
HTH,2021-08-31 07:55,-118.6315,38.5448,1282.89,69.80,23.00,16.98,170.00,4.00,0.00,29.88,M,10.00,M,FEW,FEW,M,M,3700.00,5000.00,M,M,M,M,M,M,M,M,M,69.80,KHTH 310755Z AUTO 17004KT 10SM FEW037 FEW050 21/M05 A2988 RMK A01,M
BVU,2021-08-31 07:55,-114.8611,35.9475,671.00,87.80,51.80,29.18,170.00,7.00,0.00,29.77,M,10.00,M,FEW,M,M,M,12000.00,M,M,M,M,M,M,M,M,M,M,85.39,KBVU 310755Z AUTO 17007KT 10SM FEW120 31/11 A2977 RMK AO2,M
CXP,2021-08-31 07:55,-119.7326,39.1923,1431.00,66.20,23.00,19.22,340.00,4.00,0.00,29.94,M,6.00,M,OVC,M,M,M,3000.00,M,M,M,HZ,M,M,M,M,M,M,66.20,KCXP 310755Z AUTO 34004KT 6SM HZ OVC030 19/M05 A2994 RMK AO2,M
BAM,2021-08-31 07:55,-116.8743,40.5990,1382.36,59.00,19.40,21.26,170.00,5.00,0.00,29.88,M,5.00,M,CLR,M,M,M,M,M,M,M,M,M,M,M,M,M,M,59.00,KBAM 310755Z AUTO 17005KT 5SM CLR 15/M07 A2988 RMK AO1,M
RNO,2021-08-31 07:55,-119.7711,39.4839,1341.00,62.00,26.10,25.24,170.00,5.00,0.00,29.91,1007.10,10.00,M,CLR,M,M,M,M,M,M,M,M,M,M,M,M,M,M,62.10,KRNO 310755Z 17005KT 10SM CLR 17/M03 A2991 RMK AO2 SLP071 T01671033 403560122,M
TMT,2021-08-31 07:55,-117.1971,39.4643,1749.34,48.60,17.40,28.55,0.00,0.00,0.00,30.00,M,10.00,M,CLR,M,M,M,M,M,M,M,M,M,M,M,M,M,M,48.60,KTMT 310755Z AUTO 00000KT 10SM CLR 09/M08 A3000 RMK AO2 T00921081 403260013,M
MEV,2021-08-31 07:55,-119.7500,38.9963,1441.42,53.60,33.80,46.88,0.00,0.00,0.00,29.93,M,8.00,M,OVC,M,M,M,2000.00,M,M,M,M,M,M,M,M,M,M,53.60,KMEV 310755Z AUTO 00000KT 8SM OVC020 12/01 A2993 RMK AO2,M
RTS,2021-08-31 07:55,-119.8764,39.6682,1539.00,59.00,17.60,19.68,320.00,7.00,0.00,29.96,M,10.00,M,CLR,M,M,M,M,M,M,M,M,M,M,M,M,M,M,59.00,KRTS 310755Z AUTO 32007KT 10SM CLR 15/M08 A2996 RMK AO2,M
TPH,2021-08-31 07:56,-117.0904,38.0505,1654.00,65.00,17.10,15.64,0.00,0.00,0.00,29.96,1005.60,10.00,M,CLR,M,M,M,M,M,M,M,M,M,M,M,M,M,M,64.90,KTPH 310756Z AUTO 00000KT 10SM CLR 18/M08 A2996 RMK AO2 SLP056 T01831083 403440150,M
HND,2021-08-31 07:56,-115.1344,35.9729,742.79,88.00,53.00,30.41,160.00,10.00,0.00,29.79,1006.70,10.00,M,CLR,M,M,M,M,M,M,M,M,M,M,M,M,M,M,85.80,KHND 310756Z AUTO 16010KT 10SM CLR 31/12 A2979 RMK AO2 SLP067 T03110117,M
LAS,2021-08-31 07:56,-115.1634,36.0719,663.00,88.00,52.00,29.21,180.00,9.00,0.00,29.76,1004.60,10.00,M,FEW,BKN,BKN,M,13000.00,15000.00,18000.00,M,M,M,M,M,M,M,M,85.60,KLAS 310756Z 18009KT 10SM FEW130 BKN150 BKN180 31/11 A2976 RMK AO2 SLP046 T03110111 403780278,M
WMC,2021-08-31 07:56,-117.8072,40.9019,1315.00,64.00,24.10,21.73,20.00,5.00,0.00,29.86,1005.80,8.00,M,OVC,M,M,M,10000.00,M,M,M,M,M,M,M,M,M,M,64.00,KWMC 310756Z AUTO 02005KT 8SM OVC100 18/M04 A2986 RMK AO2 SLP058 T01781044 403390083 $,M
EKO,2021-08-31 07:56,-115.7860,40.8242,1367.00,57.00,25.00,28.93,60.00,5.00,0.00,29.89,1006.50,6.00,M,CLR,M,M,M,M,M,M,M,HZ,M,M,M,M,M,M,57.00,KEKO 310756Z AUTO 06005KT 6SM HZ CLR 14/M04 A2989 RMK AO2 SLP065 T01391039 403330061,M
NFL,2021-08-31 07:56,-118.7010,39.4166,1199.00,63.00,21.00,19.75,0.00,0.00,0.00,29.86,1008.70,10.00,M,OVC,M,M,M,7000.00,M,M,M,M,M,M,M,M,M,M,63.00,KNFL 310756Z AUTO 00000KT 10SM OVC070 17/M06 A2986 RMK AO2 SLP087 T01721061 403500139,M
INS,2021-08-31 07:58,-115.6733,36.5872,955.00,83.30,49.50,30.94,80.00,10.00,0.00,29.78,M,10.00,M,CLR,M,M,M,M,M,M,M,M,M,M,M,M,M,M,81.54,KINS 310758Z AUTO 08010KT 10SM CLR 29/10 A2978 RMK AO2 SLPNO T02850097 403540208 $,M
LSV,2021-08-31 07:58,-115.0343,36.2362,570.00,88.70,54.00,30.86,110.00,4.00,0.00,29.73,1003.80,10.00,M,FEW,M,M,M,15000.00,M,M,M,M,M,M,M,M,M,M,86.63,KLSV 310758Z AUTO 11004KT 10SM FEW150 32/12 A2973 RMK AO2 SLP038 T03150123 403910276 $,M
MEV,2021-08-31 08:15,-119.7500,38.9963,1441.42,55.40,32.00,40.84,100.00,3.00,0.00,29.92,M,8.00,M,OVC,M,M,M,2100.00,M,M,M,M,M,M,M,M,M,M,55.40,KMEV 310815Z AUTO 10003KT 8SM OVC021 13/M00 A2992 RMK AO2,M
BVU,2021-08-31 08:15,-114.8611,35.9475,671.00,86.00,51.80,30.90,170.00,5.00,0.00,29.77,M,10.00,M,SCT,M,M,M,12000.00,M,M,M,M,M,M,M,M,M,M,83.87,KBVU 310815Z AUTO 17005KT 10SM SCT120 30/11 A2977 RMK AO2,M
TMT,2021-08-31 08:15,-117.1971,39.4643,1749.34,43.70,16.30,32.76,0.00,0.00,0.00,30.00,M,10.00,M,CLR,M,M,M,M,M,M,M,M,M,M,M,M,M,M,43.70,KTMT 310815Z AUTO 00000KT 10SM CLR 07/M09 A3000 RMK AO2 T00651087,M
HTH,2021-08-31 08:15,-118.6315,38.5448,1282.89,69.80,23.00,16.98,140.00,4.00,0.00,29.88,M,10.00,M,FEW,SCT,M,M,4000.00,4800.00,M,M,M,M,M,M,M,M,M,69.80,KHTH 310815Z AUTO 14004KT 10SM FEW040 SCT048 21/M05 A2988 RMK A01,M
BAM,2021-08-31 08:15,-116.8743,40.5990,1382.36,60.80,19.40,19.94,190.00,4.00,0.00,29.88,M,5.00,M,CLR,M,M,M,M,M,M,M,M,M,M,M,M,M,M,60.80,KBAM 310815Z AUTO 19004KT 5SM CLR 16/M07 A2988 RMK AO1,M
RTS,2021-08-31 08:15,-119.8764,39.6682,1539.00,59.00,17.60,19.68,M,6.00,0.00,29.96,M,10.00,M,CLR,M,M,M,M,M,M,M,M,M,M,M,M,M,M,59.00,KRTS 310815Z AUTO VRB06KT 10SM CLR 15/M08 A2996 RMK AO2,M
CXP,2021-08-31 08:15,-119.7326,39.1923,1431.00,64.40,23.00,20.46,350.00,5.00,0.00,29.93,M,6.00,M,OVC,M,M,M,2900.00,M,M,M,HZ,M,M,M,M,M,M,64.40,KCXP 310815Z AUTO 35005KT 6SM HZ OVC029 18/M05 A2993 RMK AO2,M
HTH,2021-08-31 08:35,-118.6315,38.5448,1282.89,69.80,24.80,18.30,0.00,0.00,0.00,29.88,M,10.00,M,SCT,SCT,BKN,M,2300.00,3100.00,3800.00,M,M,M,M,M,M,M,M,69.80,KHTH 310835Z AUTO 00000KT 10SM SCT023 SCT031 BKN038 21/M04 A2988 RMK A01,M
TMT,2021-08-31 08:35,-117.1971,39.4643,1749.34,45.30,17.40,32.33,0.00,0.00,0.00,30.00,M,10.00,M,CLR,M,M,M,M,M,M,M,M,M,M,M,M,M,M,45.30,KTMT 310835Z AUTO 00000KT 10SM CLR 07/M08 A3000 RMK AO2 T00741081,M
CXP,2021-08-31 08:35,-119.7326,39.1923,1431.00,64.40,24.80,22.06,0.00,0.00,0.00,29.93,M,5.00,M,OVC,M,M,M,2900.00,M,M,M,HZ,M,M,M,M,M,M,64.40,KCXP 310835Z AUTO 00000KT 5SM HZ OVC029 18/M04 A2993 RMK AO2,M
BVU,2021-08-31 08:35,-114.8611,35.9475,671.00,86.00,51.80,30.90,200.00,4.00,0.00,29.77,M,10.00,M,BKN,M,M,M,12000.00,M,M,M,M,M,M,M,M,M,M,83.87,KBVU 310835Z AUTO 20004KT 10SM BKN120 30/11 A2977 RMK AO2,M
RTS,2021-08-31 08:35,-119.8764,39.6682,1539.00,57.20,17.60,20.99,330.00,8.00,0.00,29.95,M,10.00,M,CLR,M,M,M,M,M,M,M,M,M,M,M,M,M,M,57.20,KRTS 310835Z AUTO 33008KT 10SM CLR 14/M08 A2995 RMK AO2,M
MEV,2021-08-31 08:35,-119.7500,38.9963,1441.42,53.60,32.00,43.61,0.00,0.00,0.00,29.92,M,10.00,M,BKN,OVC,M,M,1600.00,2200.00,M,M,M,M,M,M,M,M,M,53.60,KMEV 310835Z AUTO 00000KT 10SM BKN016 OVC022 12/M00 A2992 RMK AO2,M
BAM,2021-08-31 08:35,-116.8743,40.5990,1382.36,59.00,19.40,21.26,60.00,4.00,0.00,29.88,M,5.00,M,CLR,M,M,M,M,M,M,M,M,M,M,M,M,M,M,59.00,KBAM 310835Z AUTO 06004KT 5SM CLR 15/M07 A2988 RMK AO1,M
LOL,2021-08-31 08:53,-118.5701,40.0684,1192.43,67.00,18.00,15.16,0.00,0.00,0.00,29.85,1005.80,8.00,M,OVC,M,M,M,4100.00,M,M,M,M,M,M,M,M,M,M,66.90,KLOL 310853Z AUTO 00000KT 8SM OVC041 19/M08 A2985 RMK AO2 SLP058 T01941078 50002,M
VGT,2021-08-31 08:53,-115.1933,36.2111,667.00,87.00,53.00,31.30,80.00,4.00,0.00,29.75,1005.60,10.00,M,CLR,M,M,M,M,M,M,M,M,M,M,M,M,M,M,85.01,KVGT 310853Z AUTO 08004KT 10SM CLR 31/12 A2975 RMK AO2 SLP056 T03060117 51001,M
P68,2021-08-31 08:53,-116.0056,39.6014,1993.00,57.00,19.00,22.46,180.00,6.00,0.00,29.97,1005.60,M,M,M,M,M,M,M,M,M,M,M,M,M,M,M,M,M,57.00,KP68 310853Z AUTO 18006KT 14/M07 A2997 RMK AO1 SLP056 T01391072 58004,M
ELY,2021-08-31 08:53,-114.8453,39.2950,1909.00,55.00,27.00,33.79,160.00,3.00,0.00,30.02,1005.50,10.00,M,CLR,M,M,M,M,M,M,M,M,M,M,M,M,M,M,55.00,KELY 310853Z AUTO 16003KT 10SM CLR 13/M03 A3002 RMK AO2 SLP055 T01281028 51004,M
DRA,2021-08-31 08:53,-116.0278,36.6206,1009.00,81.00,44.00,27.20,0.00,0.00,0.00,29.79,1002.40,10.00,M,CLR,M,M,M,M,M,M,M,M,M,M,M,M,M,M,79.62,KDRA 310853Z AUTO 00000KT 10SM CLR 27/07 A2979 RMK AO2 SLP024 T02720067 56001,M
RNO,2021-08-31 08:55,-119.7711,39.4839,1341.00,61.00,27.00,27.24,130.00,4.00,0.00,29.90,1006.20,10.00,M,CLR,M,M,M,M,M,M,M,M,M,M,M,M,M,M,61.00,KRNO 310855Z 13004KT 10SM CLR 16/M03 A2990 RMK AO2 SLP062 T01611028 58002,M
BVU,2021-08-31 08:55,-114.8611,35.9475,671.00,86.00,51.80,30.90,150.00,4.00,0.00,29.77,M,10.00,M,BKN,M,M,M,12000.00,M,M,M,M,M,M,M,M,M,M,83.87,KBVU 310855Z AUTO 15004KT 10SM BKN120 30/11 A2977 RMK AO2,M
TMT,2021-08-31 08:55,-117.1971,39.4643,1749.34,44.20,16.70,32.70,0.00,0.00,0.00,30.00,M,10.00,M,CLR,M,M,M,M,M,M,M,M,M,M,M,M,M,M,44.20,KTMT 310855Z AUTO 00000KT 10SM CLR 07/M08 A3000 RMK AO2 T00681085,M
BAM,2021-08-31 08:55,-116.8743,40.5990,1382.36,55.40,19.40,24.21,120.00,3.00,0.00,29.88,M,5.00,M,CLR,M,M,M,M,M,M,M,M,M,M,M,M,M,M,55.40,KBAM 310855Z AUTO 12003KT 5SM CLR 13/M07 A2988 RMK AO1,M
RTS,2021-08-31 08:55,-119.8764,39.6682,1539.00,57.20,17.60,20.99,350.00,6.00,0.00,29.95,M,10.00,M,CLR,M,M,M,M,M,M,M,M,M,M,M,M,M,M,57.20,KRTS 310855Z AUTO 35006KT 10SM CLR 14/M08 A2995 RMK AO2,M
MEV,2021-08-31 08:55,-119.7500,38.9963,1441.42,51.80,30.20,43.32,0.00,0.00,0.00,29.92,M,3.00,M,SCT,OVC,M,M,1600.00,2200.00,M,M,HZ,M,M,M,M,M,M,51.80,KMEV 310855Z AUTO 00000KT 3SM HZ SCT016 OVC022 11/M01 A2992 RMK AO2,M
HTH,2021-08-31 08:55,-118.6315,38.5448,1282.89,69.80,24.80,18.30,190.00,3.00,0.00,29.88,M,10.00,M,OVC,M,M,M,2400.00,M,M,M,M,M,M,M,M,M,M,69.80,KHTH 310855Z AUTO 19003KT 10SM OVC024 21/M04 A2988 RMK A01,M
CXP,2021-08-31 08:55,-119.7326,39.1923,1431.00,62.60,24.80,23.50,0.00,0.00,0.00,29.93,M,6.00,M,OVC,M,M,M,3000.00,M,M,M,HZ,M,M,M,M,M,M,62.60,KCXP 310855Z AUTO 00000KT 6SM HZ OVC030 17/M04 A2993 RMK AO2,M
TPH,2021-08-31 08:56,-117.0904,38.0505,1654.00,62.00,19.00,18.72,320.00,7.00,0.00,29.96,1005.80,10.00,M,CLR,M,M,M,M,M,M,M,M,M,M,M,M,M,M,62.10,KTPH 310856Z AUTO 32007KT 10SM CLR 17/M07 A2996 RMK AO2 SLP058 T01671072 50004,M
NFL,2021-08-31 08:56,-118.7010,39.4166,1199.00,63.00,23.00,21.49,220.00,3.00,0.00,29.85,1008.50,10.00,M,OVC,M,M,M,7000.00,M,M,M,M,M,M,M,M,M,M,63.00,KNFL 310856Z AUTO 22003KT 10SM OVC070 17/M05 A2985 RMK AO2 SLP085 T01721050 50001,M
WMC,2021-08-31 08:56,-117.8072,40.9019,1315.00,60.00,24.10,24.93,130.00,4.00,0.00,29.87,1006.00,9.00,M,OVC,M,M,M,9000.00,M,M,M,M,M,M,M,M,M,M,60.10,KWMC 310856Z AUTO 13004KT 9SM OVC090 16/M04 A2987 RMK AO2 SLP060 T01561044 51006 $,M
HND,2021-08-31 08:56,-115.1344,35.9729,742.79,87.00,53.00,31.30,160.00,15.00,0.00,29.78,1006.30,10.00,19.00,CLR,M,M,M,M,M,M,M,M,M,M,M,M,M,M,85.01,KHND 310856Z AUTO 16015G19KT 10SM CLR 31/12 A2978 RMK AO2 SLP063 T03060117 58002,M
LAS,2021-08-31 08:56,-115.1634,36.0719,663.00,88.00,52.00,29.21,180.00,4.00,0.00,29.76,1004.40,10.00,M,FEW,SCT,OVC,M,15000.00,18000.00,21000.00,M,M,M,M,M,M,M,M,85.60,KLAS 310856Z 18004KT 10SM FEW150 SCT180 OVC210 31/11 A2976 RMK AO2 SLP044 T03110111 58000,M
EKO,2021-08-31 08:56,-115.7860,40.8242,1367.00,52.00,26.10,36.34,0.00,0.00,0.00,29.89,1006.60,6.00,M,OVC,M,M,M,5500.00,M,M,M,HZ,M,M,M,M,M,M,52.00,KEKO 310856Z AUTO 00000KT 6SM HZ OVC055 11/M03 A2989 RMK AO2 SLP066 T01111033 56003,M
LSV,2021-08-31 08:58,-115.0343,36.2362,570.00,89.20,54.70,31.05,0.00,0.00,0.00,29.73,1003.80,10.00,M,FEW,M,M,M,15000.00,M,M,M,M,M,M,M,M,M,M,87.23,KLSV 310858Z AUTO 00000KT 10SM FEW150 32/13 A2973 RMK AO2 SLP038 T03180126 50000 $,M
INS,2021-08-31 08:58,-115.6733,36.5872,955.00,82.40,48.70,30.92,110.00,10.00,0.00,29.79,M,10.00,M,CLR,M,M,M,M,M,M,M,M,M,M,M,M,M,M,80.85,KINS 310858Z AUTO 11010KT 10SM CLR 28/09 A2979 RMK AO2 SLPNO T02800093 51003 $,M
HTH,2021-08-31 09:15,-118.6315,38.5448,1282.89,68.00,23.00,18.06,210.00,4.00,0.00,29.88,M,10.00,M,BKN,OVC,M,M,2500.00,3600.00,M,M,M,M,M,M,M,M,M,68.00,KHTH 310915Z AUTO 21004KT 10SM BKN025 OVC036 20/M05 A2988 RMK A01,M
TMT,2021-08-31 09:15,-117.1971,39.4643,1749.34,41.20,16.20,35.91,0.00,0.00,0.00,30.00,M,10.00,M,CLR,M,M,M,M,M,M,M,M,M,M,M,M,M,M,41.20,KTMT 310915Z AUTO 00000KT 10SM CLR 05/M09 A3000 RMK AO2 T00511088,M
BAM,2021-08-31 09:15,-116.8743,40.5990,1382.36,55.40,19.40,24.21,120.00,3.00,0.00,29.88,M,5.00,M,CLR,M,M,M,M,M,M,M,M,M,M,M,M,M,M,55.40,KBAM 310915Z AUTO 12003KT 5SM CLR 13/M07 A2988 RMK AO1,M
MEV,2021-08-31 09:15,-119.7500,38.9963,1441.42,51.80,32.00,46.59,0.00,0.00,0.00,29.91,M,5.00,M,OVC,M,M,M,2100.00,M,M,M,HZ,M,M,M,M,M,M,51.80,KMEV 310915Z AUTO 00000KT 5SM HZ OVC021 11/M00 A2991 RMK AO2,M
RTS,2021-08-31 09:15,-119.8764,39.6682,1539.00,59.00,17.60,19.68,340.00,5.00,0.00,29.95,M,10.00,M,CLR,M,M,M,M,M,M,M,M,M,M,M,M,M,M,59.00,KRTS 310915Z AUTO 34005KT 10SM CLR 15/M08 A2995 RMK AO2,M
CXP,2021-08-31 09:15,-119.7326,39.1923,1431.00,60.80,24.80,25.04,0.00,0.00,0.00,29.93,M,6.00,M,OVC,M,M,M,3000.00,M,M,M,HZ,M,M,M,M,M,M,60.80,KCXP 310915Z AUTO 00000KT 6SM HZ OVC030 16/M04 A2993 RMK AO2,M
BVU,2021-08-31 09:15,-114.8611,35.9475,671.00,86.00,51.80,30.90,160.00,9.00,0.00,29.77,M,10.00,M,OVC,M,M,M,12000.00,M,M,M,M,M,M,M,M,M,M,83.87,KBVU 310915Z AUTO 16009KT 10SM OVC120 30/11 A2977 RMK AO2,M
CXP,2021-08-31 09:30,-119.7326,39.1923,1431.00,60.80,24.80,25.04,0.00,0.00,0.00,29.92,M,8.00,M,OVC,M,M,M,3000.00,M,M,M,M,M,M,M,M,M,M,60.80,KCXP 310930Z AUTO 00000KT 8SM OVC030 16/M04 A2992 RMK AO2,M
BAM,2021-08-31 09:35,-116.8743,40.5990,1382.36,59.00,19.40,21.26,0.00,0.00,0.00,29.88,M,5.00,M,CLR,M,M,M,M,M,M,M,M,M,M,M,M,M,M,59.00,KBAM 310935Z AUTO 00000KT 5SM CLR 15/M07 A2988 RMK AO1,M
HTH,2021-08-31 09:35,-118.6315,38.5448,1282.89,68.00,24.80,19.47,170.00,4.00,0.00,29.88,M,10.00,M,BKN,OVC,M,M,2400.00,3600.00,M,M,M,M,M,M,M,M,M,68.00,KHTH 310935Z AUTO 17004KT 10SM BKN024 OVC036 20/M04 A2988 RMK A01,M
MEV,2021-08-31 09:35,-119.7500,38.9963,1441.42,50.00,33.80,53.54,M,5.00,0.00,29.91,M,3.00,M,OVC,M,M,M,2200.00,M,M,M,HZ,M,M,M,M,M,M,50.00,KMEV 310935Z AUTO VRB05KT 3SM HZ OVC022 10/01 A2991 RMK AO2,M
BVU,2021-08-31 09:35,-114.8611,35.9475,671.00,86.00,53.60,33.01,170.00,11.00,0.00,29.77,M,10.00,M,BKN,M,M,M,12000.00,M,M,M,M,M,M,M,M,M,M,84.18,KBVU 310935Z AUTO 17011KT 10SM BKN120 30/12 A2977 RMK AO2,M
TMT,2021-08-31 09:35,-117.1971,39.4643,1749.34,44.60,16.90,32.49,260.00,3.00,0.00,30.00,M,10.00,M,CLR,M,M,M,M,M,M,M,M,M,M,M,M,M,M,43.09,KTMT 310935Z AUTO 26003KT 10SM CLR 07/M08 A3000 RMK AO2 T00701084,M
RTS,2021-08-31 09:35,-119.8764,39.6682,1539.00,59.00,19.40,21.26,340.00,5.00,0.00,29.94,M,10.00,M,CLR,M,M,M,M,M,M,M,M,M,M,M,M,M,M,59.00,KRTS 310935Z AUTO 34005KT 10SM CLR 15/M07 A2994 RMK AO2,M
CXP,2021-08-31 09:50,-119.7326,39.1923,1431.00,62.60,23.00,21.79,340.00,4.00,0.00,29.92,M,7.00,M,OVC,M,M,M,2900.00,M,M,M,M,M,M,M,M,M,M,62.60,KCXP 310950Z AUTO 34004KT 7SM OVC029 17/M05 A2992 RMK AO2,M
LOL,2021-08-31 09:53,-118.5701,40.0684,1192.43,62.00,18.00,17.93,310.00,3.00,0.00,29.85,1006.10,8.00,M,OVC,M,M,M,4000.00,M,M,M,M,M,M,M,M,M,M,62.10,KLOL 310953Z AUTO 31003KT 8SM OVC040 17/M08 A2985 RMK AO2 SLP061 T01671078,M
VGT,2021-08-31 09:53,-115.1933,36.2111,667.00,88.00,54.00,31.43,80.00,4.00,0.00,29.75,1005.80,10.00,M,CLR,M,M,M,M,M,M,M,M,M,M,M,M,M,M,85.98,KVGT 310953Z AUTO 08004KT 10SM CLR 31/12 A2975 RMK AO2 SLP058 T03110122,M
DRA,2021-08-31 09:53,-116.0278,36.6206,1009.00,80.00,46.00,30.11,10.00,6.00,0.00,29.79,1002.60,10.00,M,CLR,M,M,M,M,M,M,M,M,M,M,M,M,M,M,79.26,KDRA 310953Z AUTO 01006KT 10SM CLR 27/08 A2979 RMK AO2 SLP026 T02670078,M
ELY,2021-08-31 09:53,-114.8453,39.2950,1909.00,52.00,28.90,40.78,160.00,7.00,0.00,30.02,1005.70,10.00,M,CLR,M,M,M,M,M,M,M,M,M,M,M,M,M,M,52.00,KELY 310953Z AUTO 16007KT 10SM CLR 11/M02 A3002 RMK AO2 SLP057 T01111017,M
P68,2021-08-31 09:53,-116.0056,39.6014,1993.00,54.00,23.00,29.67,180.00,8.00,0.00,29.99,1006.50,M,M,M,M,M,M,M,M,M,M,M,M,M,M,M,M,M,54.00,KP68 310953Z AUTO 18008KT 12/M05 A2999 RMK AO1 SLP065 T01221050,M
TMT,2021-08-31 09:55,-117.1971,39.4643,1749.34,39.70,14.00,34.58,200.00,3.00,0.00,30.00,M,10.00,M,CLR,M,M,M,M,M,M,M,M,M,M,M,M,M,M,37.49,KTMT 310955Z AUTO 20003KT 10SM CLR 04/M10 A3000 RMK AO2 T00431100,M
HTH,2021-08-31 09:55,-118.6315,38.5448,1282.89,68.00,23.00,18.06,180.00,3.00,0.00,29.88,M,10.00,M,BKN,OVC,M,M,2800.00,3300.00,M,M,M,M,M,M,M,M,M,68.00,KHTH 310955Z AUTO 18003KT 10SM BKN028 OVC033 20/M05 A2988 RMK A01,M
RTS,2021-08-31 09:55,-119.8764,39.6682,1539.00,60.80,19.40,19.94,350.00,4.00,0.00,29.94,M,10.00,M,CLR,M,M,M,M,M,M,M,M,M,M,M,M,M,M,60.80,KRTS 310955Z AUTO 35004KT 10SM CLR 16/M07 A2994 RMK AO2,M
MEV,2021-08-31 09:55,-119.7500,38.9963,1441.42,51.80,33.80,50.08,0.00,0.00,0.00,29.91,M,4.00,M,OVC,M,M,M,2000.00,M,M,M,HZ,M,M,M,M,M,M,51.80,KMEV 310955Z AUTO 00000KT 4SM HZ OVC020 11/01 A2991 RMK AO2,M
BAM,2021-08-31 09:55,-116.8743,40.5990,1382.36,53.60,17.60,23.93,130.00,6.00,0.00,29.89,M,5.00,M,CLR,M,M,M,M,M,M,M,M,M,M,M,M,M,M,53.60,KBAM 310955Z AUTO 13006KT 5SM CLR 12/M08 A2989 RMK AO1,M
RNO,2021-08-31 09:55,-119.7711,39.4839,1341.00,59.00,27.00,29.25,0.00,0.00,0.00,29.89,1006.10,10.00,M,CLR,M,M,M,M,M,M,M,M,M,M,M,M,M,M,59.00,KRNO 310955Z 00000KT 10SM CLR 15/M03 A2989 RMK AO2 SLP061 T01501028,M
BVU,2021-08-31 09:55,-114.8611,35.9475,671.00,86.00,53.60,33.01,160.00,11.00,0.00,29.77,M,10.00,M,BKN,M,M,M,12000.00,M,M,M,M,M,M,M,M,M,M,84.18,KBVU 310955Z AUTO 16011KT 10SM BKN120 30/12 A2977 RMK AO2,M
HND,2021-08-31 09:56,-115.1344,35.9729,742.79,86.00,53.00,32.41,150.00,17.00,0.00,29.78,1006.50,10.00,21.00,CLR,M,M,M,M,M,M,M,M,M,M,M,M,M,M,84.09,KHND 310956Z AUTO 15017G21KT 10SM CLR 30/12 A2978 RMK AO2 SLP065 T03000117,M
TPH,2021-08-31 09:56,-117.0904,38.0505,1654.00,59.00,23.00,24.76,10.00,7.00,0.00,29.96,1006.10,10.00,M,FEW,M,M,M,3800.00,M,M,M,M,M,M,M,M,M,M,59.00,KTPH 310956Z AUTO 01007KT 10SM FEW038 15/M05 A2996 RMK AO2 SLP061 T01501050,M
NFL,2021-08-31 09:56,-118.7010,39.4166,1199.00,57.00,21.00,24.45,140.00,4.00,0.00,29.85,1008.50,10.00,M,OVC,M,M,M,6500.00,M,M,M,M,M,M,M,M,M,M,57.00,KNFL 310956Z AUTO 14004KT 10SM OVC065 14/M06 A2985 RMK AO2 SLP085 T01391061,M
EKO,2021-08-31 09:56,-115.7860,40.8242,1367.00,49.00,26.10,40.77,0.00,0.00,0.00,29.91,1007.30,6.00,M,BKN,M,M,M,4800.00,M,M,M,HZ,M,M,M,M,M,M,48.90,KEKO 310956Z AUTO 00000KT 6SM HZ BKN048 09/M03 A2991 RMK AO2 SLP073 T00941033,M
WMC,2021-08-31 09:56,-117.8072,40.9019,1315.00,56.00,23.00,27.69,0.00,0.00,0.00,29.86,1006.00,9.00,M,OVC,M,M,M,7000.00,M,M,M,M,M,M,M,M,M,M,55.90,KWMC 310956Z AUTO 00000KT 9SM OVC070 13/M05 A2986 RMK AO2 SLP060 T01331050 $,M
LAS,2021-08-31 09:56,-115.1634,36.0719,663.00,88.00,52.00,29.21,180.00,5.00,0.00,29.76,1004.60,10.00,M,FEW,SCT,OVC,M,15000.00,18000.00,21000.00,M,M,M,M,M,M,M,M,85.60,KLAS 310956Z 18005KT 10SM FEW150 SCT180 OVC210 31/11 A2976 RMK AO2 SLP046 T03110111,M
LSV,2021-08-31 09:58,-115.0343,36.2362,570.00,88.20,54.50,31.81,90.00,4.00,0.00,29.73,1003.90,10.00,M,BKN,OVC,M,M,16000.00,21000.00,M,M,M,M,M,M,M,M,M,86.27,KLSV 310958Z AUTO 09004KT 10SM BKN160 OVC210 31/13 A2973 RMK AO2 SLP039 T03120125 $,M
INS,2021-08-31 09:58,-115.6733,36.5872,955.00,81.30,48.60,31.93,100.00,13.00,0.00,29.79,M,10.00,M,SCT,M,M,M,16000.00,M,M,M,M,M,M,M,M,M,M,80.15,KINS 310958Z AUTO 10013KT 10SM SCT160 27/09 A2979 RMK AO2 SLPNO T02740092 $,M
HTH,2021-08-31 10:15,-118.6315,38.5448,1282.89,66.20,23.00,19.22,190.00,4.00,0.00,29.88,M,10.00,M,BKN,OVC,M,M,2900.00,3400.00,M,M,M,M,M,M,M,M,M,66.20,KHTH 311015Z AUTO 19004KT 10SM BKN029 OVC034 19/M05 A2988 RMK A01,M
TMT,2021-08-31 10:15,-117.1971,39.4643,1749.34,39.20,15.40,37.49,130.00,3.00,0.00,30.00,M,10.00,M,CLR,M,M,M,M,M,M,M,M,M,M,M,M,M,M,36.92,KTMT 311015Z AUTO 13003KT 10SM CLR 04/M09 A3000 RMK AO2 T00401092,M
RTS,2021-08-31 10:15,-119.8764,39.6682,1539.00,62.60,19.40,18.71,340.00,6.00,0.00,29.93,M,10.00,M,CLR,M,M,M,M,M,M,M,M,M,M,M,M,M,M,62.60,KRTS 311015Z AUTO 34006KT 10SM CLR 17/M07 A2993 RMK AO2,M
BVU,2021-08-31 10:15,-114.8611,35.9475,671.00,86.00,55.40,35.25,170.00,9.00,0.00,29.77,M,10.00,M,BKN,M,M,M,12000.00,M,M,M,M,M,M,M,M,M,M,84.54,KBVU 311015Z AUTO 17009KT 10SM BKN120 30/13 A2977 RMK AO2,M
CXP,2021-08-31 10:15,-119.7326,39.1923,1431.00,57.20,28.40,33.05,0.00,0.00,0.00,29.92,M,7.00,M,OVC,M,M,M,2900.00,M,M,M,M,M,M,M,M,M,M,57.20,KCXP 311015Z AUTO 00000KT 7SM OVC029 14/M02 A2992 RMK AO2,M
MEV,2021-08-31 10:15,-119.7500,38.9963,1441.42,50.00,33.80,53.54,0.00,0.00,0.00,29.91,M,3.00,M,OVC,M,M,M,2100.00,M,M,M,HZ,M,M,M,M,M,M,50.00,KMEV 311015Z AUTO 00000KT 3SM HZ OVC021 10/01 A2991 RMK AO2,M
BAM,2021-08-31 10:15,-116.8743,40.5990,1382.36,53.60,19.40,25.85,150.00,4.00,0.00,29.89,M,7.00,M,CLR,M,M,M,M,M,M,M,M,M,M,M,M,M,M,53.60,KBAM 311015Z AUTO 15004KT 7SM CLR 12/M07 A2989 RMK AO1,M
TMT,2021-08-31 10:35,-117.1971,39.4643,1749.34,41.20,16.70,36.70,160.00,3.00,0.00,30.00,M,10.00,M,CLR,M,M,M,M,M,M,M,M,M,M,M,M,M,M,39.21,KTMT 311035Z AUTO 16003KT 10SM CLR 05/M08 A3000 RMK AO2 T00511085,M
MEV,2021-08-31 10:35,-119.7500,38.9963,1441.42,48.20,33.80,57.26,90.00,3.00,0.00,29.91,M,3.00,M,OVC,M,M,M,2200.00,M,M,M,HZ,M,M,M,M,M,M,47.21,KMEV 311035Z AUTO 09003KT 3SM HZ OVC022 09/01 A2991 RMK AO2,M
RTS,2021-08-31 10:35,-119.8764,39.6682,1539.00,64.40,21.20,18.96,0.00,0.00,0.00,29.93,M,10.00,M,CLR,M,M,M,M,M,M,M,M,M,M,M,M,M,M,64.40,KRTS 311035Z AUTO 00000KT 10SM CLR 18/M06 A2993 RMK AO2,M
BAM,2021-08-31 10:35,-116.8743,40.5990,1382.36,53.60,19.40,25.85,120.00,5.00,0.00,29.88,M,7.00,M,CLR,M,M,M,M,M,M,M,M,M,M,M,M,M,M,53.60,KBAM 311035Z AUTO 12005KT 7SM CLR 12/M07 A2988 RMK AO1,M
BVU,2021-08-31 10:35,-114.8611,35.9475,671.00,86.00,55.40,35.25,170.00,5.00,0.00,29.77,M,10.00,M,SCT,M,M,M,12000.00,M,M,M,M,M,M,M,M,M,M,84.54,KBVU 311035Z AUTO 17005KT 10SM SCT120 30/13 A2977 RMK AO2,M
CXP,2021-08-31 10:35,-119.7326,39.1923,1431.00,57.20,26.60,30.69,0.00,0.00,0.00,29.92,M,6.00,M,OVC,M,M,M,3100.00,M,M,M,HZ,M,M,M,M,M,M,57.20,KCXP 311035Z AUTO 00000KT 6SM HZ OVC031 14/M03 A2992 RMK AO2,M
HTH,2021-08-31 10:35,-118.6315,38.5448,1282.89,66.20,21.20,17.81,180.00,3.00,0.00,29.88,M,10.00,M,BKN,OVC,M,M,2900.00,3500.00,M,M,M,M,M,M,M,M,M,66.20,KHTH 311035Z AUTO 18003KT 10SM BKN029 OVC035 19/M06 A2988 RMK A01,M
CXP,2021-08-31 10:50,-119.7326,39.1923,1431.00,57.20,24.80,28.48,0.00,0.00,0.00,29.92,M,7.00,M,OVC,M,M,M,3000.00,M,M,M,M,M,M,M,M,M,M,57.20,KCXP 311050Z AUTO 00000KT 7SM OVC030 14/M04 A2992 RMK AO2,M
ELY,2021-08-31 10:53,-114.8453,39.2950,1909.00,50.00,30.90,47.64,0.00,0.00,0.00,30.02,1005.90,10.00,M,CLR,M,M,M,M,M,M,M,M,M,M,M,M,M,M,50.00,KELY 311053Z AUTO 00000KT 10SM CLR 10/M01 A3002 RMK AO2 SLP059 T01001006,M
VGT,2021-08-31 10:53,-115.1933,36.2111,667.00,87.00,54.00,32.34,90.00,4.00,0.00,29.74,1005.60,10.00,M,CLR,M,M,M,M,M,M,M,M,M,M,M,M,M,M,85.19,KVGT 311053Z AUTO 09004KT 10SM CLR 31/12 A2974 RMK AO2 SLP056 T03060122,M
DRA,2021-08-31 10:53,-116.0278,36.6206,1009.00,77.00,48.00,35.95,110.00,5.00,0.00,29.79,1002.90,10.00,M,CLR,M,M,M,M,M,M,M,M,M,M,M,M,M,M,77.00,KDRA 311053Z AUTO 11005KT 10SM CLR 25/09 A2979 RMK AO2 SLP029 T02500089,M
P68,2021-08-31 10:53,-116.0056,39.6014,1993.00,57.00,19.00,22.46,190.00,7.00,0.00,29.99,1006.20,M,M,M,M,M,M,M,M,M,M,M,M,M,M,M,M,M,57.00,KP68 311053Z AUTO 19007KT 14/M07 A2999 RMK AO1 SLP062 T01391072,M
LOL,2021-08-31 10:53,-118.5701,40.0684,1192.43,54.00,21.00,27.27,70.00,5.00,0.00,29.85,1006.60,8.00,M,OVC,M,M,M,3400.00,M,M,M,M,M,M,M,M,M,M,54.00,KLOL 311053Z AUTO 07005KT 8SM OVC034 12/M06 A2985 RMK AO2 SLP066 T01221061,M
TMT,2021-08-31 10:55,-117.1971,39.4643,1749.34,40.50,15.40,35.64,0.00,0.00,0.00,30.00,M,10.00,M,CLR,M,M,M,M,M,M,M,M,M,M,M,M,M,M,40.50,KTMT 311055Z AUTO 00000KT 10SM CLR 05/M09 A3000 RMK AO2 T00471092,M
HTH,2021-08-31 10:55,-118.6315,38.5448,1282.89,66.20,23.00,19.22,190.00,4.00,0.00,29.88,M,10.00,M,BKN,OVC,M,M,2800.00,3300.00,M,M,M,M,M,M,M,M,M,66.20,KHTH 311055Z AUTO 19004KT 10SM BKN028 OVC033 19/M05 A2988 RMK A01,M
BAM,2021-08-31 10:55,-116.8743,40.5990,1382.36,53.60,19.40,25.85,120.00,7.00,0.00,29.89,M,7.00,M,CLR,M,M,M,M,M,M,M,M,M,M,M,M,M,M,53.60,KBAM 311055Z AUTO 12007KT 7SM CLR 12/M07 A2989 RMK AO1,M
MEV,2021-08-31 10:55,-119.7500,38.9963,1441.42,50.00,33.80,53.54,0.00,0.00,0.00,29.91,M,2.50,M,OVC,M,M,M,2200.00,M,M,M,HZ,M,M,M,M,M,M,50.00,KMEV 311055Z AUTO 00000KT 2 1/2SM HZ OVC022 10/01 A2991 RMK AO2,M
RTS,2021-08-31 10:55,-119.8764,39.6682,1539.00,64.40,21.20,18.96,350.00,5.00,0.00,29.93,M,10.00,M,CLR,M,M,M,M,M,M,M,M,M,M,M,M,M,M,64.40,KRTS 311055Z AUTO 35005KT 10SM CLR 18/M06 A2993 RMK AO2,M
RNO,2021-08-31 10:55,-119.7711,39.4839,1341.00,58.00,28.00,31.71,150.00,3.00,0.00,29.89,1006.20,10.00,M,CLR,M,M,M,M,M,M,M,M,M,M,M,M,M,M,57.90,KRNO 311055Z 15003KT 10SM CLR 14/M02 A2989 RMK AO2 SLP062 T01441022,M
BVU,2021-08-31 10:55,-114.8611,35.9475,671.00,84.20,51.80,32.73,220.00,7.00,0.00,29.76,M,10.00,M,FEW,M,M,M,12000.00,M,M,M,M,M,M,M,M,M,M,82.48,KBVU 311055Z AUTO 22007KT 10SM FEW120 29/11 A2976 RMK AO2,M
WMC,2021-08-31 10:56,-117.8072,40.9019,1315.00,52.00,21.00,29.35,260.00,4.00,0.00,29.87,1006.30,9.00,M,CLR,M,M,M,M,M,M,M,M,M,M,M,M,M,M,52.00,KWMC 311056Z AUTO 26004KT 9SM CLR 11/M06 A2987 RMK AO2 SLP063 T01111061 $,M
LAS,2021-08-31 10:56,-115.1634,36.0719,663.00,87.00,52.00,30.05,M,4.00,0.00,29.76,1004.40,10.00,M,FEW,SCT,OVC,M,15000.00,18000.00,20000.00,M,M,M,M,M,M,M,M,84.82,KLAS 311056Z VRB04KT 10SM FEW150 SCT180 OVC200 31/11 A2976 RMK AO2 SLP044 T03060111,M
NFL,2021-08-31 10:56,-118.7010,39.4166,1199.00,57.00,19.90,23.34,140.00,5.00,0.00,29.85,1008.30,10.00,M,OVC,M,M,M,7000.00,M,M,M,M,M,M,M,M,M,M,57.00,KNFL 311056Z AUTO 14005KT 10SM OVC070 14/M07 A2985 RMK AO2 SLP083 T01391067,M
TPH,2021-08-31 10:56,-117.0904,38.0505,1654.00,60.00,19.90,20.88,10.00,9.00,0.00,29.96,1005.80,10.00,M,OVC,M,M,M,4300.00,M,M,M,M,M,M,M,M,M,M,60.10,KTPH 311056Z AUTO 01009KT 10SM OVC043 16/M07 A2996 RMK AO2 SLP058 T01561067,M
HND,2021-08-31 10:56,-115.1344,35.9729,742.79,85.00,54.00,34.70,160.00,11.00,0.00,29.78,1006.40,10.00,M,CLR,M,M,M,M,M,M,M,M,M,M,M,M,M,M,83.37,KHND 311056Z AUTO 16011KT 10SM CLR 29/12 A2978 RMK AO2 SLP064 T02940122,M
EKO,2021-08-31 10:56,-115.7860,40.8242,1367.00,53.00,24.10,32.11,50.00,3.00,0.00,29.91,1007.10,6.00,M,CLR,M,M,M,M,M,M,M,HZ,M,M,M,M,M,M,53.10,KEKO 311056Z AUTO 05003KT 6SM HZ CLR 12/M04 A2991 RMK AO2 SLP071 T01171044,M
LSV,2021-08-31 10:58,-115.0343,36.2362,570.00,87.40,55.60,33.96,120.00,7.00,0.00,29.73,1003.80,10.00,M,BKN,BKN,M,M,16000.00,20000.00,M,M,M,M,M,M,M,M,M,85.80,KLSV 311058Z AUTO 12007KT 10SM BKN160 BKN200 31/13 A2973 RMK AO2 SLP038 T03080131 $,M
INS,2021-08-31 10:58,-115.6733,36.5872,955.00,81.00,49.00,32.85,0.00,0.00,0.00,29.79,M,10.00,M,CLR,M,M,M,M,M,M,M,M,M,M,M,M,M,M,80.03,KINS 311058Z AUTO 00000KT 10SM CLR 27/10 A2979 RMK AO2 SLPNO T02720095 $,M
TMT,2021-08-31 11:15,-117.1971,39.4643,1749.34,41.20,15.60,34.99,0.00,0.00,0.00,30.00,M,10.00,M,CLR,M,M,M,M,M,M,M,M,M,M,M,M,M,M,41.20,KTMT 311115Z AUTO 00000KT 10SM CLR 05/M09 A3000 RMK AO2 T00511091,M
CXP,2021-08-31 11:15,-119.7326,39.1923,1431.00,53.60,26.60,34.98,0.00,0.00,0.00,29.92,M,7.00,M,OVC,M,M,M,3000.00,M,M,M,M,M,M,M,M,M,M,53.60,KCXP 311115Z AUTO 00000KT 7SM OVC030 12/M03 A2992 RMK AO2,M
BVU,2021-08-31 11:15,-114.8611,35.9475,671.00,84.20,53.60,34.97,200.00,3.00,0.00,29.76,M,10.00,M,CLR,M,M,M,M,M,M,M,M,M,M,M,M,M,M,82.76,KBVU 311115Z AUTO 20003KT 10SM CLR 29/12 A2976 RMK AO2,M
RTS,2021-08-31 11:15,-119.8764,39.6682,1539.00,60.80,21.20,21.53,340.00,7.00,0.00,29.92,M,10.00,M,CLR,M,M,M,M,M,M,M,M,M,M,M,M,M,M,60.80,KRTS 311115Z AUTO 34007KT 10SM CLR 16/M06 A2992 RMK AO2,M
MEV,2021-08-31 11:15,-119.7500,38.9963,1441.42,48.20,35.60,61.52,0.00,0.00,0.00,29.91,M,2.50,M,OVC,M,M,M,2200.00,M,M,M,HZ,M,M,M,M,M,M,48.20,KMEV 311115Z AUTO 00000KT 2 1/2SM HZ OVC022 09/02 A2991 RMK AO2,M
BAM,2021-08-31 11:15,-116.8743,40.5990,1382.36,53.60,19.40,25.85,150.00,4.00,0.00,29.89,M,7.00,M,CLR,M,M,M,M,M,M,M,M,M,M,M,M,M,M,53.60,KBAM 311115Z AUTO 15004KT 7SM CLR 12/M07 A2989 RMK AO1,M
HTH,2021-08-31 11:15,-118.6315,38.5448,1282.89,64.40,23.00,20.46,200.00,3.00,0.00,29.88,M,10.00,M,BKN,OVC,M,M,2700.00,3200.00,M,M,M,M,M,M,M,M,M,64.40,KHTH 311115Z AUTO 20003KT 10SM BKN027 OVC032 18/M05 A2988 RMK A01,M
BVU,2021-08-31 11:35,-114.8611,35.9475,671.00,84.20,53.60,34.97,130.00,5.00,0.00,29.77,M,10.00,M,FEW,M,M,M,12000.00,M,M,M,M,M,M,M,M,M,M,82.76,KBVU 311135Z AUTO 13005KT 10SM FEW120 29/12 A2977 RMK AO2,M
HTH,2021-08-31 11:35,-118.6315,38.5448,1282.89,66.20,23.00,19.22,240.00,4.00,0.00,29.88,M,10.00,M,OVC,M,M,M,2900.00,M,M,M,M,M,M,M,M,M,M,66.20,KHTH 311135Z AUTO 24004KT 10SM OVC029 19/M05 A2988 RMK A01,M
CXP,2021-08-31 11:35,-119.7326,39.1923,1431.00,55.40,26.60,32.76,0.00,0.00,0.00,29.92,M,7.00,M,OVC,M,M,M,3100.00,M,M,M,M,M,M,M,M,M,M,55.40,KCXP 311135Z AUTO 00000KT 7SM OVC031 13/M03 A2992 RMK AO2,M
RTS,2021-08-31 11:35,-119.8764,39.6682,1539.00,66.20,23.00,19.22,M,3.00,0.00,29.93,M,10.00,10.00,CLR,M,M,M,M,M,M,M,M,M,M,M,M,M,M,66.20,KRTS 311135Z AUTO VRB03G10KT 10SM CLR 19/M05 A2993 RMK AO2,M
MEV,2021-08-31 11:35,-119.7500,38.9963,1441.42,46.40,32.00,57.00,0.00,0.00,0.00,29.91,M,2.00,M,SCT,BKN,BKN,M,1600.00,2200.00,5000.00,M,HZ,M,M,M,M,M,M,46.40,KMEV 311135Z AUTO 00000KT 2SM HZ SCT016 BKN022 BKN050 08/00 A2991 RMK AO2,M
TMT,2021-08-31 11:35,-117.1971,39.4643,1749.34,36.70,14.00,38.90,0.00,0.00,0.00,30.00,M,10.00,M,CLR,M,M,M,M,M,M,M,M,M,M,M,M,M,M,36.70,KTMT 311135Z AUTO 00000KT 10SM CLR 03/M10 A3000 RMK AO2 T00261100,M
BAM,2021-08-31 11:35,-116.8743,40.5990,1382.36,53.60,19.40,25.85,170.00,7.00,0.00,29.89,M,7.00,M,CLR,M,M,M,M,M,M,M,M,M,M,M,M,M,M,53.60,KBAM 311135Z AUTO 17007KT 7SM CLR 12/M07 A2989 RMK AO1,M
LOL,2021-08-31 11:53,-118.5701,40.0684,1192.43,54.00,19.90,26.02,0.00,0.00,0.00,29.85,1006.50,8.00,M,CLR,M,M,M,M,M,M,M,M,M,M,M,M,M,M,54.00,KLOL 311153Z AUTO 00000KT 8SM CLR 12/M07 A2985 RMK AO2 SLP065 T01221067 10250 20100 58000,M
DRA,2021-08-31 11:53,-116.0278,36.6206,1009.00,74.00,48.00,39.87,330.00,5.00,0.00,29.80,1003.20,10.00,M,CLR,M,M,M,M,M,M,M,M,M,M,M,M,M,M,73.90,KDRA 311153Z AUTO 33005KT 10SM CLR 23/09 A2980 RMK AO2 SLP032 T02330089 10328 20233 53005,M
P68,2021-08-31 11:53,-116.0056,39.6014,1993.00,53.00,19.90,26.89,220.00,8.00,0.00,29.98,1006.30,M,M,M,M,M,M,M,M,M,M,M,M,M,M,M,M,M,53.10,KP68 311153Z AUTO 22008KT 12/M07 A2998 RMK AO1 SLP063 T01171067 10150 20094 50003,M
VGT,2021-08-31 11:53,-115.1933,36.2111,667.00,87.00,55.00,33.55,100.00,7.00,0.00,29.74,1005.50,10.00,M,CLR,M,M,M,M,M,M,M,M,M,M,M,M,M,M,85.40,KVGT 311153Z AUTO 10007KT 10SM CLR 31/13 A2974 RMK AO2 SLP055 T03060128 10328 20300 58001,M
ELY,2021-08-31 11:53,-114.8453,39.2950,1909.00,52.00,35.00,52.36,160.00,7.00,0.00,30.02,1005.90,10.00,M,CLR,M,M,M,M,M,M,M,M,M,M,M,M,M,M,52.00,KELY 311153Z AUTO 16007KT 10SM CLR 11/02 A3002 RMK AO2 SLP059 T01110017 10194 20100 58000,M
MEV,2021-08-31 11:55,-119.7500,38.9963,1441.42,46.40,33.80,61.28,0.00,0.00,0.00,29.90,M,2.00,M,BKN,BKN,M,M,2300.00,5000.00,M,M,HZ,M,M,M,M,M,M,46.40,KMEV 311155Z AUTO 00000KT 2SM HZ BKN023 BKN050 08/01 A2990 RMK AO2,M
RNO,2021-08-31 11:55,-119.7711,39.4839,1341.00,56.00,28.00,34.08,0.00,0.00,0.00,29.89,1006.20,10.00,M,CLR,M,M,M,M,M,M,M,M,M,M,M,M,M,M,55.90,KRNO 311155Z 00000KT 10SM CLR 13/M02 A2989 RMK AO2 SLP062 FU ALF ALQDS 7//// T01331022 10228 20133 56003,M
BAM,2021-08-31 11:55,-116.8743,40.5990,1382.36,55.40,19.40,24.21,190.00,6.00,0.00,29.89,M,7.00,M,CLR,M,M,M,M,M,M,M,M,M,M,M,M,M,M,55.40,KBAM 311155Z AUTO 19006KT 7SM CLR 13/M07 A2989 RMK AO1,M
BVU,2021-08-31 11:55,-114.8611,35.9475,671.00,84.20,55.40,37.35,170.00,4.00,0.00,29.76,M,10.00,M,FEW,M,M,M,11000.00,M,M,M,M,M,M,M,M,M,M,83.09,KBVU 311155Z AUTO 17004KT 10SM FEW110 29/13 A2976 RMK AO2,M
TMT,2021-08-31 11:55,-117.1971,39.4643,1749.34,39.00,14.50,36.33,0.00,0.00,0.00,30.00,M,10.00,M,CLR,M,M,M,M,M,M,M,M,M,M,M,M,M,M,39.00,KTMT 311155Z AUTO 00000KT 10SM CLR 04/M10 A3000 RMK AO2 T00391097 10124 20026,M
RTS,2021-08-31 11:55,-119.8764,39.6682,1539.00,66.20,23.00,19.22,360.00,6.00,0.00,29.92,M,10.00,M,CLR,M,M,M,M,M,M,M,M,M,M,M,M,M,M,66.20,KRTS 311155Z AUTO 36006KT 10SM CLR 19/M05 A2992 RMK AO2,M
HTH,2021-08-31 11:55,-118.6315,38.5448,1282.89,64.40,24.80,22.06,220.00,7.00,0.00,29.88,M,9.00,M,BKN,OVC,M,M,2600.00,3000.00,M,M,M,M,M,M,M,M,M,64.40,KHTH 311155Z AUTO 22007KT 9SM BKN026 OVC030 18/M04 A2988 RMK A01,M
CXP,2021-08-31 11:55,-119.7326,39.1923,1431.00,55.40,26.60,32.76,0.00,0.00,0.00,29.92,M,7.00,M,OVC,M,M,M,2900.00,M,M,M,M,M,M,M,M,M,M,55.40,KCXP 311155Z AUTO 00000KT 7SM OVC029 13/M03 A2992 RMK AO2,M
WMC,2021-08-31 11:56,-117.8072,40.9019,1315.00,50.00,25.00,37.39,20.00,3.00,0.00,29.87,1006.60,8.00,M,CLR,M,M,M,M,M,M,M,M,M,M,M,M,M,M,50.00,KWMC 311156Z AUTO 02003KT 8SM CLR 10/M04 A2987 RMK AO2 SLP066 T01001039 10217 20089 53001 $,M
NFL,2021-08-31 11:56,-118.7010,39.4166,1199.00,57.00,19.90,23.34,160.00,7.00,0.00,29.85,1008.30,9.00,M,OVC,M,M,M,9500.00,M,M,M,M,M,M,M,M,M,M,57.00,KNFL 311156Z AUTO 16007KT 9SM OVC095 14/M07 A2985 RMK AO2 SLP083 T01391067 10217 20139 56002,M
HND,2021-08-31 11:56,-115.1344,35.9729,742.79,84.00,55.00,37.05,160.00,6.00,0.00,29.79,1007.00,10.00,M,FEW,M,M,M,12000.00,M,M,M,M,M,M,M,M,M,M,82.85,KHND 311156Z AUTO 16006KT 10SM FEW120 29/13 A2979 RMK AO2 SLP070 T02890128 10311 20289 53004,M
EKO,2021-08-31 11:56,-115.7860,40.8242,1367.00,51.00,24.10,34.57,20.00,3.00,0.00,29.92,1007.60,6.00,M,CLR,M,M,M,M,M,M,M,HZ,M,M,M,M,M,M,51.10,KEKO 311156Z AUTO 02003KT 6SM HZ CLR 11/M04 A2992 RMK AO2 SLP076 T01061044 10156 20089 51007,M
TPH,2021-08-31 11:56,-117.0904,38.0505,1654.00,56.00,19.00,23.37,350.00,9.00,0.00,29.96,1006.50,10.00,M,OVC,M,M,M,4800.00,M,M,M,M,M,M,M,M,M,M,55.90,KTPH 311156Z AUTO 35009KT 10SM OVC048 13/M07 A2996 RMK AO2 SLP065 T01331072 10211 20133 52001,M
LAS,2021-08-31 11:56,-115.1634,36.0719,663.00,86.00,53.00,32.41,160.00,5.00,0.00,29.76,1004.40,10.00,M,FEW,BKN,OVC,M,10000.00,15000.00,20000.00,M,M,M,M,M,M,M,M,84.09,KLAS 311156Z 16005KT 10SM FEW100 BKN150 OVC200 30/12 A2976 RMK AO2 SLP044 T03000117 10317 20300 50000,M
LSV,2021-08-31 11:58,-115.0343,36.2362,570.00,87.30,56.30,34.94,150.00,6.00,0.00,29.73,1003.80,10.00,M,OVC,M,M,M,14000.00,M,M,M,M,M,M,M,M,M,M,85.89,KLSV 311158Z AUTO 15006KT 10SM OVC140 31/14 A2973 RMK AO2 SLP038 T03070135 10335 20305 50000 $,M
INS,2021-08-31 11:58,-115.6733,36.5872,955.00,80.20,48.60,33.09,260.00,3.00,0.00,29.79,M,10.00,M,FEW,M,M,M,20000.00,M,M,M,M,M,M,M,M,M,M,79.53,KINS 311158Z AUTO 26003KT 10SM FEW200 27/09 A2979 RMK AO2 SLPNO T02680092 10300 20268 50001 $,M
RTS,2021-08-31 12:15,-119.8764,39.6682,1539.00,62.60,23.00,21.79,0.00,0.00,0.00,29.92,M,10.00,M,CLR,M,M,M,M,M,M,M,M,M,M,M,M,M,M,62.60,KRTS 311215Z AUTO 00000KT 10SM CLR 17/M05 A2992 RMK AO2,M
BVU,2021-08-31 12:15,-114.8611,35.9475,671.00,84.20,55.40,37.35,0.00,0.00,0.00,29.76,M,10.00,M,FEW,FEW,M,M,7500.00,11000.00,M,M,M,M,M,M,M,M,M,83.09,KBVU 311215Z AUTO 00000KT 10SM FEW075 FEW110 29/13 A2976 RMK AO2,M
CXP,2021-08-31 12:15,-119.7326,39.1923,1431.00,53.60,26.60,34.98,300.00,3.00,0.00,29.91,M,6.00,M,OVC,M,M,M,2800.00,M,M,M,HZ,M,M,M,M,M,M,53.60,KCXP 311215Z AUTO 30003KT 6SM HZ OVC028 12/M03 A2991 RMK AO2,M
MEV,2021-08-31 12:15,-119.7500,38.9963,1441.42,46.40,35.60,65.83,0.00,0.00,0.00,29.90,M,2.00,M,BKN,BKN,M,M,2200.00,3900.00,M,M,HZ,M,M,M,M,M,M,46.40,KMEV 311215Z AUTO 00000KT 2SM HZ BKN022 BKN039 08/02 A2990 RMK AO2,M
TMT,2021-08-31 12:15,-117.1971,39.4643,1749.34,36.30,14.50,40.39,0.00,0.00,0.00,30.00,M,10.00,M,CLR,M,M,M,M,M,M,M,M,M,M,M,M,M,M,36.30,KTMT 311215Z AUTO 00000KT 10SM CLR 02/M10 A3000 RMK AO2 T00241097,M
BAM,2021-08-31 12:15,-116.8743,40.5990,1382.36,50.00,19.40,29.52,90.00,4.00,0.00,29.89,M,7.00,M,CLR,M,M,M,M,M,M,M,M,M,M,M,M,M,M,50.00,KBAM 311215Z AUTO 09004KT 7SM CLR 10/M07 A2989 RMK AO1,M
HTH,2021-08-31 12:15,-118.6315,38.5448,1282.89,64.40,24.80,22.06,210.00,5.00,0.00,29.88,M,9.00,M,BKN,OVC,M,M,2400.00,2900.00,M,M,M,M,M,M,M,M,M,64.40,KHTH 311215Z AUTO 21005KT 9SM BKN024 OVC029 18/M04 A2988 RMK A01,M
LSV,2021-08-31 12:19,-115.0343,36.2362,570.00,87.80,57.20,35.53,120.00,5.00,0.00,29.73,1003.80,10.00,M,BKN,OVC,M,M,12000.00,14000.00,M,M,-RA,M,M,M,M,M,M,86.58,KLSV 311219Z AUTO 12005KT 10SM -RA BKN120 OVC140 31/14 A2973 RMK AO2 RAB19 SLP038 $,M
LSV,2021-08-31 12:34,-115.0343,36.2362,570.00,86.00,59.00,40.14,0.00,0.00,0.00,29.73,1003.90,10.00,M,BKN,OVC,M,M,12000.00,15000.00,M,M,M,M,M,M,M,M,M,85.47,KLSV 311234Z AUTO 00000KT 10SM BKN120 OVC150 30/15 A2973 RMK AO2 RAB19E31DZB31E34 SLP039 $,M
HTH,2021-08-31 12:35,-118.6315,38.5448,1282.89,62.60,23.00,21.79,140.00,4.00,0.00,29.88,M,9.00,M,OVC,M,M,M,2700.00,M,M,M,M,M,M,M,M,M,M,62.60,KHTH 311235Z AUTO 14004KT 9SM OVC027 17/M05 A2988 RMK A01,M
MEV,2021-08-31 12:35,-119.7500,38.9963,1441.42,46.40,33.80,61.28,160.00,3.00,0.00,29.91,M,2.00,M,OVC,M,M,M,2200.00,M,M,M,HZ,M,M,M,M,M,M,45.15,KMEV 311235Z AUTO 16003KT 2SM HZ OVC022 08/01 A2991 RMK AO2,M
CXP,2021-08-31 12:35,-119.7326,39.1923,1431.00,53.60,28.40,37.67,0.00,0.00,0.00,29.91,M,6.00,M,OVC,M,M,M,2600.00,M,M,M,HZ,M,M,M,M,M,M,53.60,KCXP 311235Z AUTO 00000KT 6SM HZ OVC026 12/M02 A2991 RMK AO2,M
RTS,2021-08-31 12:35,-119.8764,39.6682,1539.00,59.00,23.00,24.76,0.00,0.00,0.00,29.93,M,10.00,M,CLR,M,M,M,M,M,M,M,M,M,M,M,M,M,M,59.00,KRTS 311235Z AUTO 00000KT 10SM CLR 15/M05 A2993 RMK AO2,M
BAM,2021-08-31 12:35,-116.8743,40.5990,1382.36,46.40,21.20,36.48,80.00,5.00,0.00,29.90,M,7.00,M,CLR,M,M,M,M,M,M,M,M,M,M,M,M,M,M,43.50,KBAM 311235Z AUTO 08005KT 7SM CLR 08/M06 A2990 RMK AO1,M
BVU,2021-08-31 12:35,-114.8611,35.9475,671.00,82.40,53.60,37.07,0.00,0.00,0.00,29.76,M,10.00,M,CLR,M,M,M,M,M,M,M,M,M,M,M,M,M,M,81.46,KBVU 311235Z AUTO 00000KT 10SM CLR 28/12 A2976 RMK AO2,M
TMT,2021-08-31 12:35,-117.1971,39.4643,1749.34,38.30,14.40,37.17,0.00,0.00,0.00,30.00,M,10.00,M,CLR,M,M,M,M,M,M,M,M,M,M,M,M,M,M,38.30,KTMT 311235Z AUTO 00000KT 10SM CLR 04/M10 A3000 RMK AO2 T00351098,M
ELY,2021-08-31 12:53,-114.8453,39.2950,1909.00,52.00,36.00,54.26,190.00,9.00,0.00,30.02,1006.30,10.00,M,CLR,M,M,M,M,M,M,M,M,M,M,M,M,M,M,52.00,KELY 311253Z AUTO 19009KT 10SM CLR 11/02 A3002 RMK AO2 SLP063 T01110022,M
DRA,2021-08-31 12:53,-116.0278,36.6206,1009.00,73.00,47.00,39.43,330.00,4.00,0.00,29.81,1003.70,10.00,M,CLR,M,M,M,M,M,M,M,M,M,M,M,M,M,M,73.00,KDRA 311253Z AUTO 33004KT 10SM CLR 23/08 A2981 RMK AO2 SLP037 T02280083,M
LOL,2021-08-31 12:53,-118.5701,40.0684,1192.43,48.00,19.00,31.27,0.00,0.00,0.00,29.85,1007.30,8.00,M,BKN,M,M,M,6000.00,M,M,M,M,M,M,M,M,M,M,48.00,KLOL 311253Z AUTO 00000KT 8SM BKN060 09/M07 A2985 RMK AO2 SLP073 T00891072,M
P68,2021-08-31 12:53,-116.0056,39.6014,1993.00,53.00,19.00,25.88,210.00,9.00,0.00,29.99,1006.60,M,M,M,M,M,M,M,M,M,M,M,M,M,M,M,M,M,53.10,KP68 311253Z AUTO 21009KT 12/M07 A2999 RMK AO1 SLP066 T01171072,M
VGT,2021-08-31 12:53,-115.1933,36.2111,667.00,87.00,55.00,33.55,110.00,5.00,0.00,29.75,1005.80,10.00,M,FEW,M,M,M,12000.00,M,M,M,M,M,M,M,M,M,M,85.40,KVGT 311253Z 11005KT 10SM FEW120 31/13 A2975 RMK AO2 SLP058 T03060128,M
MEV,2021-08-31 12:55,-119.7500,38.9963,1441.42,44.60,33.80,65.61,100.00,5.00,0.00,29.90,M,2.00,M,OVC,M,M,M,2200.00,M,M,M,HZ,M,M,M,M,M,M,41.36,KMEV 311255Z AUTO 10005KT 2SM HZ OVC022 07/01 A2990 RMK AO2,M
HTH,2021-08-31 12:55,-118.6315,38.5448,1282.89,62.60,23.00,21.79,150.00,4.00,0.00,29.89,M,9.00,M,OVC,M,M,M,2700.00,M,M,M,M,M,M,M,M,M,M,62.60,KHTH 311255Z AUTO 15004KT 9SM OVC027 17/M05 A2989 RMK A01,M
BAM,2021-08-31 12:55,-116.8743,40.5990,1382.36,46.40,19.40,33.79,110.00,6.00,0.00,29.91,M,7.00,M,CLR,M,M,M,M,M,M,M,M,M,M,M,M,M,M,42.87,KBAM 311255Z AUTO 11006KT 7SM CLR 08/M07 A2991 RMK AO1,M
TMT,2021-08-31 12:55,-117.1971,39.4643,1749.34,37.20,14.20,38.48,0.00,0.00,0.00,30.00,M,10.00,M,CLR,M,M,M,M,M,M,M,M,M,M,M,M,M,M,37.20,KTMT 311255Z AUTO 00000KT 10SM CLR 03/M10 A3000 RMK AO2 LTG DSNT S T00291099,M
RTS,2021-08-31 12:55,-119.8764,39.6682,1539.00,60.80,23.00,23.23,0.00,0.00,0.00,29.93,M,10.00,M,CLR,M,M,M,M,M,M,M,M,M,M,M,M,M,M,60.80,KRTS 311255Z AUTO 00000KT 10SM CLR 16/M05 A2993 RMK AO2,M
RNO,2021-08-31 12:55,-119.7711,39.4839,1341.00,54.00,30.00,39.63,150.00,3.00,0.00,29.89,1006.60,10.00,M,CLR,M,M,M,M,M,M,M,M,M,M,M,M,M,M,54.00,KRNO 311255Z 15003KT 10SM CLR 12/M01 A2989 RMK AO2 SLP066 FU AND HZ ALQDS T01221011,M
BVU,2021-08-31 12:55,-114.8611,35.9475,671.00,82.40,55.40,39.58,0.00,0.00,0.00,29.77,M,10.00,M,SCT,M,M,M,12000.00,M,M,M,M,M,M,M,M,M,M,81.75,KBVU 311255Z AUTO 00000KT 10SM SCT120 28/13 A2977 RMK AO2,M
CXP,2021-08-31 12:55,-119.7326,39.1923,1431.00,53.60,28.40,37.67,0.00,0.00,0.00,29.92,M,6.00,M,OVC,M,M,M,2700.00,M,M,M,HZ,M,M,M,M,M,M,53.60,KCXP 311255Z AUTO 00000KT 6SM HZ OVC027 12/M02 A2992 RMK AO2,M
LAS,2021-08-31 12:56,-115.1634,36.0719,663.00,86.00,54.00,33.50,150.00,3.00,0.00,29.76,1004.70,10.00,M,FEW,BKN,OVC,M,12000.00,16000.00,21000.00,M,M,M,M,M,M,M,M,84.26,KLAS 311256Z 15003KT 10SM FEW120 BKN160 OVC210 30/12 A2976 RMK AO2 SLP047 T03000122,M
EKO,2021-08-31 12:56,-115.7860,40.8242,1367.00,48.00,25.00,40.29,80.00,4.00,0.00,29.93,1008.50,6.00,M,CLR,M,M,M,M,M,M,M,HZ,M,M,M,M,M,M,46.10,KEKO 311256Z AUTO 08004KT 6SM HZ CLR 09/M04 A2993 RMK AO2 SLP085 T00891039,M
WMC,2021-08-31 12:56,-117.8072,40.9019,1315.00,50.00,23.00,34.39,140.00,5.00,0.00,29.87,1006.90,8.00,M,CLR,M,M,M,M,M,M,M,M,M,M,M,M,M,M,50.00,KWMC 311256Z AUTO 14005KT 8SM CLR 10/M05 A2987 RMK AO2 SLP069 T01001050 $,M
NFL,2021-08-31 12:56,-118.7010,39.4166,1199.00,57.00,21.00,24.45,190.00,4.00,0.00,29.85,1008.40,9.00,M,OVC,M,M,M,8500.00,M,M,M,M,M,M,M,M,M,M,57.00,KNFL 311256Z AUTO 19004KT 9SM OVC085 14/M06 A2985 RMK AO2 SLP084 T01391061,M
HND,2021-08-31 12:56,-115.1344,35.9729,742.79,84.00,55.00,37.05,170.00,9.00,0.00,29.79,1007.00,10.00,M,CLR,M,M,M,M,M,M,M,M,M,M,M,M,M,M,82.85,KHND 311256Z 17009KT 10SM CLR 29/13 A2979 RMK AO2 SLP070 T02890128,M
TPH,2021-08-31 12:56,-117.0904,38.0505,1654.00,57.00,21.00,24.45,360.00,10.00,0.00,29.97,1006.80,10.00,M,OVC,M,M,M,4900.00,M,M,M,M,M,M,M,M,M,M,57.00,KTPH 311256Z AUTO 36010KT 10SM OVC049 14/M06 A2997 RMK AO2 SLP068 T01391061,M
INS,2021-08-31 12:58,-115.6733,36.5872,955.00,78.00,47.50,34.02,130.00,5.00,0.00,29.81,M,10.00,M,OVC,M,M,M,14000.00,M,M,M,M,M,M,M,M,M,M,78.10,KINS 311258Z AUTO 13005KT 10SM OVC140 26/09 A2981 RMK AO2 SLPNO T02560086 $,M
LSV,2021-08-31 12:58,-115.0343,36.2362,570.00,85.50,57.60,38.79,0.00,0.00,T,29.74,1004.20,10.00,M,OVC,M,M,M,12000.00,M,M,M,M,M,M,M,M,M,M,84.64,KLSV 311258Z AUTO 00000KT 10SM OVC120 30/14 A2974 RMK AO2 RAB19E31DZB31E34 SLP042 P0000 T02970142 $,M
BAM,2021-08-31 13:15,-116.8743,40.5990,1382.36,48.20,21.20,34.09,110.00,3.00,0.00,29.91,M,7.00,M,CLR,M,M,M,M,M,M,M,M,M,M,M,M,M,M,47.21,KBAM 311315Z AUTO 11003KT 7SM CLR 09/M06 A2991 RMK AO1,M
HTH,2021-08-31 13:15,-118.6315,38.5448,1282.89,60.80,21.20,21.53,0.00,0.00,0.00,29.89,M,9.00,M,OVC,M,M,M,2600.00,M,M,M,M,M,M,M,M,M,M,60.80,KHTH 311315Z AUTO 00000KT 9SM OVC026 16/M06 A2989 RMK A01,M
RTS,2021-08-31 13:15,-119.8764,39.6682,1539.00,55.40,23.00,28.20,0.00,0.00,0.00,29.93,M,10.00,M,CLR,M,M,M,M,M,M,M,M,M,M,M,M,M,M,55.40,KRTS 311315Z AUTO 00000KT 10SM CLR 13/M05 A2993 RMK AO2,M
CXP,2021-08-31 13:15,-119.7326,39.1923,1431.00,51.80,26.60,37.38,0.00,0.00,0.00,29.92,M,7.00,M,OVC,M,M,M,2500.00,M,M,M,M,M,M,M,M,M,M,51.80,KCXP 311315Z AUTO 00000KT 7SM OVC025 11/M03 A2992 RMK AO2,M
BVU,2021-08-31 13:15,-114.8611,35.9475,671.00,84.20,53.60,34.97,0.00,0.00,0.00,29.77,M,10.00,M,FEW,M,M,M,12000.00,M,M,M,M,M,M,M,M,M,M,82.76,KBVU 311315Z AUTO 00000KT 10SM FEW120 29/12 A2977 RMK AO2,M
MEV,2021-08-31 13:15,-119.7500,38.9963,1441.42,44.60,33.80,65.61,M,3.00,0.00,29.91,M,2.00,M,OVC,M,M,M,2400.00,M,M,M,HZ,M,M,M,M,M,M,43.09,KMEV 311315Z AUTO VRB03KT 2SM HZ OVC024 07/01 A2991 RMK AO2,M
TMT,2021-08-31 13:15,-117.1971,39.4643,1749.34,37.20,16.50,42.53,110.00,3.00,0.00,30.00,M,10.00,M,CLR,M,M,M,M,M,M,M,M,M,M,M,M,M,M,34.63,KTMT 311315Z AUTO 11003KT 10SM CLR 03/M09 A3000 RMK AO2 T00291086,M
CXP,2021-08-31 13:35,-119.7326,39.1923,1431.00,51.80,28.40,40.25,0.00,0.00,0.00,29.92,M,5.00,M,OVC,M,M,M,2200.00,M,M,M,HZ,M,M,M,M,M,M,51.80,KCXP 311335Z AUTO 00000KT 5SM HZ OVC022 11/M02 A2992 RMK AO2,M
BVU,2021-08-31 13:35,-114.8611,35.9475,671.00,84.20,55.40,37.35,120.00,4.00,0.00,29.77,M,10.00,M,CLR,M,M,M,M,M,M,M,M,M,M,M,M,M,M,83.09,KBVU 311335Z AUTO 12004KT 10SM CLR 29/13 A2977 RMK AO2,M
TMT,2021-08-31 13:35,-117.1971,39.4643,1749.34,35.60,16.20,44.72,0.00,0.00,0.00,30.00,M,7.00,M,SCT,M,M,M,4100.00,M,M,M,M,M,M,M,M,M,M,35.60,KTMT 311335Z AUTO 00000KT 7SM SCT041 02/M09 A3000 RMK AO2 T00201088,M
MEV,2021-08-31 13:35,-119.7500,38.9963,1441.42,44.60,32.00,61.03,0.00,0.00,0.00,29.91,M,1.25,M,FEW,BKN,OVC,M,300.00,2400.00,3100.00,M,HZ,M,M,M,M,M,M,44.60,KMEV 311335Z AUTO 00000KT 1 1/4SM HZ FEW003 BKN024 OVC031 07/00 A2991 RMK AO2,M
RTS,2021-08-31 13:35,-119.8764,39.6682,1539.00,59.00,24.80,26.70,M,5.00,0.00,29.93,M,10.00,M,CLR,M,M,M,M,M,M,M,M,M,M,M,M,M,M,59.00,KRTS 311335Z AUTO VRB05KT 10SM CLR 15/M04 A2993 RMK AO2,M
BAM,2021-08-31 13:35,-116.8743,40.5990,1382.36,44.60,17.60,33.49,90.00,3.00,0.00,29.91,M,5.00,M,CLR,M,M,M,M,M,M,M,M,M,M,M,M,M,M,43.09,KBAM 311335Z AUTO 09003KT 5SM CLR 07/M08 A2991 RMK AO1,M
HTH,2021-08-31 13:35,-118.6315,38.5448,1282.89,62.60,23.00,21.79,200.00,4.00,0.00,29.89,M,7.00,M,BKN,BKN,M,M,2700.00,3300.00,M,M,M,M,M,M,M,M,M,62.60,KHTH 311335Z AUTO 20004KT 7SM BKN027 BKN033 17/M05 A2989 RMK A01,M
LOL,2021-08-31 13:53,-118.5701,40.0684,1192.43,47.00,25.00,41.99,130.00,4.00,0.00,29.86,1008.00,7.00,M,OVC,M,M,M,6000.00,M,M,M,M,M,M,M,M,M,M,44.82,KLOL 311353Z AUTO 13004KT 7SM OVC060 08/M04 A2986 RMK AO2 SLP080 T00831039,M
DRA,2021-08-31 13:53,-116.0278,36.6206,1009.00,75.00,47.00,36.87,0.00,0.00,0.00,29.83,1004.30,10.00,M,CLR,M,M,M,M,M,M,M,M,M,M,M,M,M,M,75.00,KDRA 311353Z AUTO 00000KT 10SM CLR 24/08 A2983 RMK AO2 SLP043 T02390083,M
ELY,2021-08-31 13:53,-114.8453,39.2950,1909.00,62.00,40.00,43.93,210.00,14.00,0.00,30.03,1006.20,10.00,M,CLR,M,M,M,M,M,M,M,M,M,M,M,M,M,M,62.10,KELY 311353Z AUTO 21014KT 10SM CLR 17/04 A3003 RMK AO2 SLP062 T01670044,M
VGT,2021-08-31 13:53,-115.1933,36.2111,667.00,87.00,55.00,33.55,30.00,5.00,0.00,29.76,1006.10,10.00,M,CLR,M,M,M,M,M,M,M,M,M,M,M,M,M,M,85.40,KVGT 311353Z 03005KT 10SM CLR 31/13 A2976 RMK AO2 SLP061 T03060128,M
P68,2021-08-31 13:53,-116.0056,39.6014,1993.00,50.00,21.90,32.83,170.00,4.00,0.00,29.99,1007.80,M,M,M,M,M,M,M,M,M,M,M,M,M,M,M,M,M,50.00,KP68 311353Z AUTO 17004KT 10/M06 A2999 RMK AO1 SLP078 T01001056,M
CXP,2021-08-31 13:55,-119.7326,39.1923,1431.00,51.80,28.40,40.25,0.00,0.00,0.00,29.92,M,4.00,M,OVC,M,M,M,2100.00,M,M,M,HZ,M,M,M,M,M,M,51.80,KCXP 311355Z AUTO 00000KT 4SM HZ OVC021 11/M02 A2992 RMK AO2,M
BVU,2021-08-31 13:55,-114.8611,35.9475,671.00,84.20,55.40,37.35,0.00,0.00,0.00,29.77,M,10.00,M,CLR,M,M,M,M,M,M,M,M,M,M,M,M,M,M,83.09,KBVU 311355Z AUTO 00000KT 10SM CLR 29/13 A2977 RMK AO2,M
BAM,2021-08-31 13:55,-116.8743,40.5990,1382.36,46.40,19.40,33.79,90.00,3.00,0.00,29.92,M,7.00,M,CLR,M,M,M,M,M,M,M,M,M,M,M,M,M,M,45.15,KBAM 311355Z AUTO 09003KT 7SM CLR 08/M07 A2992 RMK AO1,M
TMT,2021-08-31 13:55,-117.1971,39.4643,1749.34,36.70,15.60,41.71,310.00,3.00,0.00,30.01,M,10.00,M,CLR,M,M,M,M,M,M,M,M,M,M,M,M,M,M,34.06,KTMT 311355Z AUTO 31003KT 10SM CLR 03/M09 A3001 RMK AO2 T00261091,M
HTH,2021-08-31 13:55,-118.6315,38.5448,1282.89,62.60,23.00,21.79,200.00,4.00,0.00,29.89,M,6.00,M,CLR,M,M,M,M,M,M,M,HZ,M,M,M,M,M,M,62.60,KHTH 311355Z AUTO 20004KT 6SM HZ CLR 17/M05 A2989 RMK A01,M
MEV,2021-08-31 13:55,-119.7500,38.9963,1441.42,46.40,32.00,57.00,0.00,0.00,0.00,29.91,M,1.25,10.00,SCT,BKN,BKN,M,3000.00,3700.00,4700.00,M,HZ,M,M,M,M,M,M,46.40,KMEV 311355Z AUTO 00000G10KT 1 1/4SM HZ SCT030 BKN037 BKN047 08/00 A2991 RMK AO2,M
RTS,2021-08-31 13:55,-119.8764,39.6682,1539.00,60.80,23.00,23.23,110.00,5.00,0.00,29.93,M,10.00,M,CLR,M,M,M,M,M,M,M,M,M,M,M,M,M,M,60.80,KRTS 311355Z AUTO 11005KT 10SM CLR 16/M05 A2993 RMK AO2,M
RNO,2021-08-31 13:55,-119.7711,39.4839,1341.00,55.00,30.90,39.63,0.00,0.00,0.00,29.89,1007.00,10.00,M,CLR,M,M,M,M,M,M,M,M,M,M,M,M,M,M,55.00,KRNO 311355Z 00000KT 10SM CLR 13/M01 A2989 RMK AO2 SLP070 FU AND HZ ALQDS T01281006,M
EKO,2021-08-31 13:56,-115.7860,40.8242,1367.00,45.00,24.10,43.46,0.00,0.00,0.00,29.94,1009.60,4.00,M,CLR,M,M,M,M,M,M,M,HZ,M,M,M,M,M,M,45.00,KEKO 311356Z AUTO 00000KT 4SM HZ CLR 07/M04 A2994 RMK AO2 SLP096 T00721044,M
LAS,2021-08-31 13:56,-115.1634,36.0719,663.00,85.00,54.00,34.70,M,3.00,0.00,29.77,1005.10,10.00,M,SCT,BKN,BKN,M,14000.00,18000.00,22000.00,M,M,M,M,M,M,M,M,83.37,KLAS 311356Z VRB03KT 10SM SCT140 BKN180 BKN220 29/12 A2977 RMK AO2 SLP051 VIRGA DSNT NW T02940122,M
WMC,2021-08-31 13:56,-117.8072,40.9019,1315.00,46.00,21.90,38.15,180.00,6.00,0.00,29.89,1008.10,7.00,M,CLR,M,M,M,M,M,M,M,M,M,M,M,M,M,M,42.39,KWMC 311356Z AUTO 18006KT 7SM CLR 08/M06 A2989 RMK AO2 SLP081 T00781056 $,M
TPH,2021-08-31 13:56,-117.0904,38.0505,1654.00,57.00,24.10,27.86,10.00,7.00,0.00,29.99,1007.60,10.00,M,OVC,M,M,M,4900.00,M,M,M,M,M,M,M,M,M,M,57.00,KTPH 311356Z AUTO 01007KT 10SM OVC049 14/M04 A2999 RMK AO2 SLP076 T01391044,M
NFL,2021-08-31 13:56,-118.7010,39.4166,1199.00,54.00,21.90,28.33,250.00,3.00,0.00,29.85,1008.50,6.00,M,OVC,M,M,M,8000.00,M,M,M,HZ,M,M,M,M,M,M,54.00,KNFL 311356Z AUTO 25003KT 6SM HZ OVC080 12/M06 A2985 RMK AO2 SLP085 T01221056,M
HND,2021-08-31 13:56,-115.1344,35.9729,742.79,84.00,54.00,35.72,190.00,7.00,0.00,29.80,1007.30,10.00,M,BKN,M,M,M,11000.00,M,M,M,M,M,M,M,M,M,M,82.67,KHND 311356Z 19007KT 10SM BKN110 29/12 A2980 RMK AO2 SLP073 T02890122,M
INS,2021-08-31 13:58,-115.6733,36.5872,955.00,78.80,48.00,33.88,260.00,5.00,0.00,29.82,1004.20,10.00,M,OVC,M,M,M,13000.00,M,M,M,M,M,M,M,M,M,M,78.80,KINS 311358Z AUTO 26005KT 10SM OVC130 26/09 A2982 RMK AO2 SLP042 T02600089 $,M
LSV,2021-08-31 13:58,-115.0343,36.2362,570.00,84.60,58.80,41.68,50.00,6.00,0.00,29.74,1004.30,10.00,M,OVC,M,M,M,13000.00,M,M,M,M,M,M,M,M,M,M,84.20,KLSV 311358Z AUTO 05006KT 10SM OVC130 29/15 A2974 RMK AO2 SLP043 T02920149 $,M
BAM,2021-08-31 14:15,-116.8743,40.5990,1382.36,46.40,21.20,36.48,50.00,4.00,0.00,29.92,M,7.00,M,CLR,M,M,M,M,M,M,M,M,M,M,M,M,M,M,44.24,KBAM 311415Z AUTO 05004KT 7SM CLR 08/M06 A2992 RMK AO1,M
BVU,2021-08-31 14:15,-114.8611,35.9475,671.00,82.40,57.20,42.25,80.00,6.00,0.00,29.78,M,10.00,M,CLR,M,M,M,M,M,M,M,M,M,M,M,M,M,M,82.08,KBVU 311415Z AUTO 08006KT 10SM CLR 28/14 A2978 RMK AO2,M
MEV,2021-08-31 14:15,-119.7500,38.9963,1441.42,44.60,32.00,61.03,0.00,0.00,0.00,29.91,M,1.00,M,SCT,M,M,M,3800.00,M,M,M,HZ,M,M,M,M,M,M,44.60,KMEV 311415Z AUTO 00000KT 1SM HZ SCT038 07/00 A2991 RMK AO2,M
CXP,2021-08-31 14:15,-119.7326,39.1923,1431.00,53.60,28.40,37.67,0.00,0.00,0.00,29.92,M,5.00,M,OVC,M,M,M,2100.00,M,M,M,HZ,M,M,M,M,M,M,53.60,KCXP 311415Z AUTO 00000KT 5SM HZ OVC021 12/M02 A2992 RMK AO2,M
HTH,2021-08-31 14:15,-118.6315,38.5448,1282.89,64.40,23.00,20.46,230.00,5.00,0.00,29.89,M,7.00,M,CLR,M,M,M,M,M,M,M,M,M,M,M,M,M,M,64.40,KHTH 311415Z AUTO 23005KT 7SM CLR 18/M05 A2989 RMK A01,M
TMT,2021-08-31 14:15,-117.1971,39.4643,1749.34,37.00,16.20,42.31,0.00,0.00,0.00,30.01,M,10.00,M,CLR,M,M,M,M,M,M,M,M,M,M,M,M,M,M,37.00,KTMT 311415Z AUTO 00000KT 10SM CLR 03/M09 A3001 RMK AO2 T00281088,M
RTS,2021-08-31 14:15,-119.8764,39.6682,1539.00,59.00,23.00,24.76,100.00,4.00,0.00,29.93,M,10.00,M,CLR,M,M,M,M,M,M,M,M,M,M,M,M,M,M,59.00,KRTS 311415Z AUTO 10004KT 10SM CLR 15/M05 A2993 RMK AO2,M
CXP,2021-08-31 14:35,-119.7326,39.1923,1431.00,53.60,30.20,40.54,0.00,0.00,0.00,29.92,M,4.00,M,OVC,M,M,M,2100.00,M,M,M,HZ,M,M,M,M,M,M,53.60,KCXP 311435Z AUTO 00000KT 4SM HZ OVC021 12/M01 A2992 RMK AO2,M
HTH,2021-08-31 14:35,-118.6315,38.5448,1282.89,66.20,23.00,19.22,210.00,4.00,0.00,29.90,M,8.00,M,CLR,M,M,M,M,M,M,M,M,M,M,M,M,M,M,66.20,KHTH 311435Z AUTO 21004KT 8SM CLR 19/M05 A2990 RMK A01,M
BAM,2021-08-31 14:35,-116.8743,40.5990,1382.36,50.00,23.00,34.39,60.00,4.00,0.00,29.92,M,7.00,M,CLR,M,M,M,M,M,M,M,M,M,M,M,M,M,M,50.00,KBAM 311435Z AUTO 06004KT 7SM CLR 10/M05 A2992 RMK AO1,M
MEV,2021-08-31 14:35,-119.7500,38.9963,1441.42,44.60,33.80,65.61,0.00,0.00,0.00,29.91,M,2.00,M,CLR,M,M,M,M,M,M,M,HZ,M,M,M,M,M,M,44.60,KMEV 311435Z AUTO 00000KT 2SM HZ CLR 07/01 A2991 RMK AO2,M
TMT,2021-08-31 14:35,-117.1971,39.4643,1749.34,40.00,18.00,40.51,140.00,4.00,0.00,30.01,M,10.00,M,CLR,M,M,M,M,M,M,M,M,M,M,M,M,M,M,36.88,KTMT 311435Z AUTO 14004KT 10SM CLR 05/M08 A3001 RMK AO2 T00451078,M
RTS,2021-08-31 14:35,-119.8764,39.6682,1539.00,59.00,24.80,26.70,0.00,0.00,0.00,29.93,M,10.00,M,CLR,M,M,M,M,M,M,M,M,M,M,M,M,M,M,59.00,KRTS 311435Z AUTO 00000KT 10SM CLR 15/M04 A2993 RMK AO2,M
BVU,2021-08-31 14:35,-114.8611,35.9475,671.00,86.00,57.20,37.62,110.00,9.00,0.00,29.77,M,10.00,M,CLR,M,M,M,M,M,M,M,M,M,M,M,M,M,M,84.97,KBVU 311435Z AUTO 11009KT 10SM CLR 30/14 A2977 RMK AO2,M
NFL,2021-08-31 14:40,-118.7010,39.4166,1199.00,59.00,21.00,22.76,0.00,0.00,0.00,29.86,M,4.00,M,OVC,M,M,M,7500.00,M,M,M,HZ FU,M,M,M,M,M,M,59.00,KNFL 311440Z 00000KT 4SM HZ FU OVC075 15/M06 A2986 RMK AO2 FU OVC075 T01501061,M
VGT,2021-08-31 14:53,-115.1933,36.2111,667.00,87.00,58.00,37.25,70.00,5.00,0.00,29.75,1006.00,10.00,M,CLR,M,M,M,M,M,M,M,M,M,M,M,M,M,M,86.14,KVGT 311453Z 07005KT 10SM CLR 31/14 A2975 RMK AO2 SLP060 T03060144 50004,M
LOL,2021-08-31 14:53,-118.5701,40.0684,1192.43,51.00,25.00,35.89,0.00,0.00,0.00,29.86,1008.00,7.00,M,OVC,M,M,M,6000.00,M,M,M,M,M,M,M,M,M,M,51.10,KLOL 311453Z AUTO 00000KT 7SM OVC060 11/M04 A2986 RMK AO2 SLP080 T01061039 52005,M
ELY,2021-08-31 14:53,-114.8453,39.2950,1909.00,66.00,41.00,39.99,210.00,9.00,0.00,30.03,1006.70,10.00,M,CLR,M,M,M,M,M,M,M,M,M,M,M,M,M,M,66.00,KELY 311453Z AUTO 21009KT 10SM CLR 19/05 A3003 RMK AO2 SLP067 T01890050 51005,M
P68,2021-08-31 14:53,-116.0056,39.6014,1993.00,57.00,19.90,23.34,200.00,7.00,0.00,30.00,1008.50,M,M,M,M,M,M,M,M,M,M,M,M,M,M,M,M,M,57.00,KP68 311453Z AUTO 20007KT 14/M07 A3000 RMK AO1 SLP085 T01391067 53004,M
DRA,2021-08-31 14:53,-116.0278,36.6206,1009.00,78.00,48.00,34.67,330.00,4.00,0.00,29.83,1004.60,10.00,M,CLR,M,M,M,M,M,M,M,M,M,M,M,M,M,M,78.10,KDRA 311453Z AUTO 33004KT 10SM CLR 26/09 A2983 RMK AO2 SLP046 T02560089 51009,M
RNO,2021-08-31 14:55,-119.7711,39.4839,1341.00,57.00,30.90,36.86,160.00,3.00,0.00,29.90,1007.40,10.00,M,SCT,M,M,M,3300.00,M,M,M,M,M,M,M,M,M,M,57.00,KRNO 311455Z 16003KT 10SM SCT033 14/M01 A2990 RMK AO2 SLP074 FU SCT033 HZ ALQDS T01391006 53004 $,M
CXP,2021-08-31 14:55,-119.7326,39.1923,1431.00,55.40,32.00,40.84,0.00,0.00,0.00,29.93,M,4.00,M,OVC,M,M,M,2000.00,M,M,M,HZ,M,M,M,M,M,M,55.40,KCXP 311455Z AUTO 00000KT 4SM HZ OVC020 13/M00 A2993 RMK AO2,M
RTS,2021-08-31 14:55,-119.8764,39.6682,1539.00,60.80,24.80,25.04,0.00,0.00,0.00,29.93,M,10.00,M,CLR,M,M,M,M,M,M,M,M,M,M,M,M,M,M,60.80,KRTS 311455Z AUTO 00000KT 10SM CLR 16/M04 A2993 RMK AO2,M
TMT,2021-08-31 14:55,-117.1971,39.4643,1749.34,45.50,20.50,36.64,180.00,3.00,0.00,30.01,M,7.00,M,CLR,M,M,M,M,M,M,M,M,M,M,M,M,M,M,44.12,KTMT 311455Z AUTO 18003KT 7SM CLR 08/M06 A3001 RMK AO2 T00751064,M
BAM,2021-08-31 14:55,-116.8743,40.5990,1382.36,55.40,23.00,28.20,50.00,4.00,0.00,29.92,M,7.00,M,CLR,M,M,M,M,M,M,M,M,M,M,M,M,M,M,55.40,KBAM 311455Z AUTO 05004KT 7SM CLR 13/M05 A2992 RMK AO1,M
HTH,2021-08-31 14:55,-118.6315,38.5448,1282.89,68.00,24.80,19.47,230.00,4.00,0.00,29.90,M,7.00,M,CLR,M,M,M,M,M,M,M,M,M,M,M,M,M,M,68.00,KHTH 311455Z AUTO 23004KT 7SM CLR 20/M04 A2990 RMK A01,M
MEV,2021-08-31 14:55,-119.7500,38.9963,1441.42,46.40,33.80,61.28,M,3.00,0.00,29.92,M,1.50,M,CLR,M,M,M,M,M,M,M,HZ,M,M,M,M,M,M,45.15,KMEV 311455Z AUTO VRB03KT 1 1/2SM HZ CLR 08/01 A2992 RMK AO2,M
BVU,2021-08-31 14:55,-114.8611,35.9475,671.00,86.00,57.20,37.62,110.00,8.00,0.00,29.78,M,10.00,M,CLR,M,M,M,M,M,M,M,M,M,M,M,M,M,M,84.97,KBVU 311455Z AUTO 11008KT 10SM CLR 30/14 A2978 RMK AO2,M
NFL,2021-08-31 14:56,-118.7010,39.4166,1199.00,61.00,21.90,22.02,240.00,3.00,0.00,29.86,1008.70,4.00,M,OVC,M,M,M,7500.00,M,M,M,HZ FU,M,M,M,M,M,M,61.00,KNFL 311456Z 24003KT 4SM HZ FU OVC075 16/M06 A2986 RMK AO2 SLP087 FU OVC075 T01611056 53004,M
EKO,2021-08-31 14:56,-115.7860,40.8242,1367.00,52.00,24.10,33.44,0.00,0.00,0.00,29.95,1009.80,4.00,M,CLR,M,M,M,M,M,M,M,HZ,M,M,M,M,M,M,52.00,KEKO 311456Z AUTO 00000KT 4SM HZ CLR 11/M04 A2995 RMK AO2 SLP098 T01111044 51010,M
HND,2021-08-31 14:56,-115.1344,35.9729,742.79,84.00,58.00,41.14,240.00,5.00,T,29.81,1007.60,10.00,M,FEW,BKN,M,M,4900.00,11000.00,M,M,-RA,M,M,M,M,M,M,83.47,KHND 311456Z 24005KT 10SM -RA FEW049 BKN110 29/14 A2981 RMK AO2 RAB18E29B52 SLP076 P0000 60000 T02890144 53005,M
LAS,2021-08-31 14:56,-115.1634,36.0719,663.00,87.00,54.00,32.34,100.00,3.00,0.00,29.77,1005.00,10.00,M,SCT,BKN,BKN,M,14000.00,18000.00,22000.00,M,M,M,M,M,M,M,M,85.19,KLAS 311456Z 10003KT 10SM SCT140 BKN180 BKN220 31/12 A2977 RMK AO2 SLP050 T03060122 50005,M
WMC,2021-08-31 14:56,-117.8072,40.9019,1315.00,54.00,27.00,35.05,170.00,3.00,0.00,29.89,1008.50,6.00,M,CLR,M,M,M,M,M,M,M,HZ,M,M,M,M,M,M,54.00,KWMC 311456Z AUTO 17003KT 6SM HZ CLR 12/M03 A2989 RMK AO2 SLP085 T01221028 51006,M
TPH,2021-08-31 14:56,-117.0904,38.0505,1654.00,61.00,27.00,27.24,360.00,9.00,0.00,30.00,1008.30,10.00,M,BKN,M,M,M,5500.00,M,M,M,M,M,M,M,M,M,M,61.00,KTPH 311456Z AUTO 36009KT 10SM BKN055 16/M03 A3000 RMK AO2 SLP083 T01611028 51009,M
LSV,2021-08-31 14:58,-115.0343,36.2362,570.00,86.50,58.60,38.94,120.00,8.00,0.00,29.74,1004.40,10.00,M,FEW,BKN,M,M,15000.00,20000.00,M,M,M,M,M,M,M,M,M,85.80,KLSV 311458Z AUTO 12008KT 10SM FEW150 BKN200 30/15 A2974 RMK AO2 SLP044 60000 T03030148 50004 $,M
INS,2021-08-31 14:58,-115.6733,36.5872,955.00,79.50,48.70,33.99,270.00,4.00,0.00,29.82,1004.40,10.00,M,FEW,M,M,M,12000.00,M,M,M,M,M,M,M,M,M,M,79.50,KINS 311458Z AUTO 27004KT 10SM FEW120 26/09 A2982 RMK AO2 SLP044 T02640093 51010 $,M
CXP,2021-08-31 15:15,-119.7326,39.1923,1431.00,57.20,33.80,41.13,0.00,0.00,0.00,29.93,M,3.00,M,FEW,OVC,M,M,1400.00,2000.00,M,M,HZ,M,M,M,M,M,M,57.20,KCXP 311515Z AUTO 00000KT 3SM HZ FEW014 OVC020 14/01 A2993 RMK AO2,M
BVU,2021-08-31 15:15,-114.8611,35.9475,671.00,86.00,57.20,37.62,120.00,11.00,0.00,29.78,M,10.00,M,CLR,M,M,M,M,M,M,M,M,M,M,M,M,M,M,84.97,KBVU 311515Z AUTO 12011KT 10SM CLR 30/14 A2978 RMK AO2,M
MEV,2021-08-31 15:15,-119.7500,38.9963,1441.42,48.20,33.80,57.26,90.00,5.00,0.00,29.91,M,2.00,M,CLR,M,M,M,M,M,M,M,HZ,M,M,M,M,M,M,45.63,KMEV 311515Z AUTO 09005KT 2SM HZ CLR 09/01 A2991 RMK AO2,M
HTH,2021-08-31 15:15,-118.6315,38.5448,1282.89,69.80,23.00,16.98,0.00,0.00,0.00,29.90,M,8.00,M,CLR,M,M,M,M,M,M,M,M,M,M,M,M,M,M,69.80,KHTH 311515Z AUTO 00000KT 8SM CLR 21/M05 A2990 RMK A01,M
BAM,2021-08-31 15:15,-116.8743,40.5990,1382.36,59.00,24.80,26.70,50.00,3.00,0.00,29.92,M,7.00,M,CLR,M,M,M,M,M,M,M,M,M,M,M,M,M,M,59.00,KBAM 311515Z AUTO 05003KT 7SM CLR 15/M04 A2992 RMK AO1,M
TMT,2021-08-31 15:15,-117.1971,39.4643,1749.34,50.00,20.30,30.68,210.00,4.00,0.00,30.01,M,10.00,M,CLR,M,M,M,M,M,M,M,M,M,M,M,M,M,M,50.00,KTMT 311515Z AUTO 21004KT 10SM CLR 10/M06 A3001 RMK AO2 T01001065,M
RTS,2021-08-31 15:15,-119.8764,39.6682,1539.00,66.20,23.00,19.22,130.00,3.00,0.00,29.93,M,10.00,M,CLR,M,M,M,M,M,M,M,M,M,M,M,M,M,M,66.20,KRTS 311515Z AUTO 13003KT 10SM CLR 19/M05 A2993 RMK AO2,M
HTH,2021-08-31 15:35,-118.6315,38.5448,1282.89,73.40,23.00,15.03,130.00,5.00,0.00,29.89,M,8.00,M,CLR,M,M,M,M,M,M,M,M,M,M,M,M,M,M,73.40,KHTH 311535Z AUTO 13005KT 8SM CLR 23/M05 A2989 RMK A01,M
BVU,2021-08-31 15:35,-114.8611,35.9475,671.00,87.80,57.20,35.53,140.00,9.00,0.00,29.78,M,10.00,M,CLR,M,M,M,M,M,M,M,M,M,M,M,M,M,M,86.58,KBVU 311535Z AUTO 14009KT 10SM CLR 31/14 A2978 RMK AO2,M
CXP,2021-08-31 15:35,-119.7326,39.1923,1431.00,57.20,33.80,41.13,0.00,0.00,0.00,29.93,M,3.00,M,SCT,OVC,M,M,1400.00,2100.00,M,M,HZ,M,M,M,M,M,M,57.20,KCXP 311535Z AUTO 00000KT 3SM HZ SCT014 OVC021 14/01 A2993 RMK AO2,M
RTS,2021-08-31 15:35,-119.8764,39.6682,1539.00,69.80,23.00,16.98,40.00,4.00,0.00,29.93,M,10.00,M,CLR,M,M,M,M,M,M,M,M,M,M,M,M,M,M,69.80,KRTS 311535Z AUTO 04004KT 10SM CLR 21/M05 A2993 RMK AO2,M
MEV,2021-08-31 15:35,-119.7500,38.9963,1441.42,51.80,33.80,50.08,M,4.00,0.00,29.92,M,2.50,M,CLR,M,M,M,M,M,M,M,HZ,M,M,M,M,M,M,51.80,KMEV 311535Z AUTO VRB04KT 2 1/2SM HZ CLR 11/01 A2992 RMK AO2,M
TMT,2021-08-31 15:35,-117.1971,39.4643,1749.34,53.60,21.20,27.91,0.00,0.00,0.00,30.01,M,10.00,M,CLR,M,M,M,M,M,M,M,M,M,M,M,M,M,M,53.60,KTMT 311535Z AUTO 00000KT 10SM CLR 12/M06 A3001 RMK AO2 T01201060,M
BAM,2021-08-31 15:35,-116.8743,40.5990,1382.36,60.80,24.80,25.04,0.00,0.00,0.00,29.92,M,5.00,M,CLR,M,M,M,M,M,M,M,M,M,M,M,M,M,M,60.80,KBAM 311535Z AUTO 00000KT 5SM CLR 16/M04 A2992 RMK AO1,M
VGT,2021-08-31 15:53,-115.1933,36.2111,667.00,90.00,56.00,31.62,120.00,6.00,0.00,29.77,1006.40,10.00,M,CLR,M,M,M,M,M,M,M,M,M,M,M,M,M,M,88.29,KVGT 311553Z 12006KT 10SM CLR 32/13 A2977 RMK AO2 SLP064 T03220133,M
DRA,2021-08-31 15:53,-116.0278,36.6206,1009.00,84.00,49.00,29.58,320.00,5.00,0.00,29.83,1004.40,10.00,M,CLR,M,M,M,M,M,M,M,M,M,M,M,M,M,M,81.97,KDRA 311553Z AUTO 32005KT 10SM CLR 29/09 A2983 RMK AO2 SLP044 T02890094,M
ELY,2021-08-31 15:53,-114.8453,39.2950,1909.00,73.00,44.00,35.46,220.00,12.00,0.00,30.03,1006.20,10.00,M,CLR,M,M,M,M,M,M,M,M,M,M,M,M,M,M,73.00,KELY 311553Z AUTO 22012KT 10SM CLR 23/07 A3003 RMK AO2 SLP062 T02280067,M
P68,2021-08-31 15:53,-116.0056,39.6014,1993.00,65.00,21.90,19.19,0.00,0.00,0.00,30.00,1008.20,M,M,M,M,M,M,M,M,M,M,M,M,M,M,M,M,M,64.90,KP68 311553Z AUTO 00000KT 18/M06 A3000 RMK AO1 SLP082 T01831056,M
LOL,2021-08-31 15:53,-118.5701,40.0684,1192.43,60.00,25.00,25.89,0.00,0.00,0.00,29.86,1007.30,7.00,M,OVC,M,M,M,6000.00,M,M,M,M,M,M,M,M,M,M,60.10,KLOL 311553Z AUTO 00000KT 7SM OVC060 16/M04 A2986 RMK AO2 SLP073 T01561039,M
RNO,2021-08-31 15:55,-119.7711,39.4839,1341.00,63.00,30.90,29.77,0.00,0.00,0.00,29.89,1006.70,10.00,M,SCT,M,M,M,3100.00,M,M,M,M,M,M,M,M,M,M,63.00,KRNO 311555Z 00000KT 10SM SCT031 17/M01 A2989 RMK AO2 SLP067 FU SCT031 HZ ALQDS T01721006 $,M
HTH,2021-08-31 15:55,-118.6315,38.5448,1282.89,77.00,19.40,11.44,0.00,0.00,0.00,29.89,M,9.00,M,CLR,M,M,M,M,M,M,M,M,M,M,M,M,M,M,77.00,KHTH 311555Z AUTO 00000KT 9SM CLR 25/M07 A2989 RMK A01,M
BAM,2021-08-31 15:55,-116.8743,40.5990,1382.36,64.40,26.60,23.77,40.00,4.00,0.00,29.92,M,7.00,M,CLR,M,M,M,M,M,M,M,M,M,M,M,M,M,M,64.40,KBAM 311555Z AUTO 04004KT 7SM CLR 18/M03 A2992 RMK AO1,M
MEV,2021-08-31 15:55,-119.7500,38.9963,1441.42,55.40,33.80,43.90,0.00,0.00,0.00,29.91,M,1.25,M,CLR,M,M,M,M,M,M,M,HZ,M,M,M,M,M,M,55.40,KMEV 311555Z AUTO 00000KT 1 1/4SM HZ CLR 13/01 A2991 RMK AO2,M
BVU,2021-08-31 15:55,-114.8611,35.9475,671.00,87.80,57.20,35.53,140.00,12.00,0.00,29.79,M,10.00,M,CLR,M,M,M,M,M,M,M,M,M,M,M,M,M,M,86.58,KBVU 311555Z AUTO 14012KT 10SM CLR 31/14 A2979 RMK AO2,M
CXP,2021-08-31 15:55,-119.7326,39.1923,1431.00,59.00,32.00,35.87,0.00,0.00,0.00,29.93,M,3.00,M,FEW,OVC,M,M,1400.00,2100.00,M,M,HZ,M,M,M,M,M,M,59.00,KCXP 311555Z AUTO 00000KT 3SM HZ FEW014 OVC021 15/00 A2993 RMK AO2,M
RTS,2021-08-31 15:55,-119.8764,39.6682,1539.00,71.60,23.00,15.97,0.00,0.00,0.00,29.93,M,10.00,M,CLR,M,M,M,M,M,M,M,M,M,M,M,M,M,M,71.60,KRTS 311555Z AUTO 00000KT 10SM CLR 22/M05 A2993 RMK AO2,M
TMT,2021-08-31 15:55,-117.1971,39.4643,1749.34,55.80,22.80,27.56,0.00,0.00,0.00,30.01,M,10.00,M,CLR,M,M,M,M,M,M,M,M,M,M,M,M,M,M,55.80,KTMT 311555Z AUTO 00000KT 10SM CLR 13/M05 A3001 RMK AO2 T01321051,M
LAS,2021-08-31 15:56,-115.1634,36.0719,663.00,87.00,53.00,31.30,180.00,5.00,0.00,29.78,1005.50,10.00,M,SCT,BKN,BKN,M,14000.00,18000.00,22000.00,M,M,M,M,M,M,M,M,85.01,KLAS 311556Z 18005KT 10SM SCT140 BKN180 BKN220 31/12 A2978 RMK AO2 SLP055 T03060117,M
TPH,2021-08-31 15:56,-117.0904,38.0505,1654.00,71.00,37.00,28.71,10.00,5.00,0.00,30.00,1007.80,10.00,M,CLR,M,M,M,M,M,M,M,M,M,M,M,M,M,M,71.10,KTPH 311556Z AUTO 01005KT 10SM CLR 22/03 A3000 RMK AO2 SLP078 T02170028,M
WMC,2021-08-31 15:56,-117.8072,40.9019,1315.00,65.00,25.00,21.86,130.00,3.00,0.00,29.88,1007.90,6.00,M,CLR,M,M,M,M,M,M,M,HZ,M,M,M,M,M,M,64.90,KWMC 311556Z AUTO 13003KT 6SM HZ CLR 18/M04 A2988 RMK AO2 SLP079 T01831039 $,M
HND,2021-08-31 15:56,-115.1344,35.9729,742.79,86.00,56.00,35.90,170.00,4.00,T,29.82,1008.00,10.00,M,FEW,M,M,M,7000.00,M,M,M,M,M,M,M,M,M,M,84.66,KHND 311556Z 17004KT 10SM FEW070 30/13 A2982 RMK AO2 RAE16 SLP080 P0000 T03000133,M
NFL,2021-08-31 15:56,-118.7010,39.4166,1199.00,68.00,23.00,18.06,0.00,0.00,0.00,29.86,1008.70,4.00,M,OVC,M,M,M,8000.00,M,M,M,FU,M,M,M,M,M,M,68.00,KNFL 311556Z 00000KT 4SM FU OVC080 20/M05 A2986 RMK AO2 SLP087 FU OVC080 T02001050,M
EKO,2021-08-31 15:56,-115.7860,40.8242,1367.00,59.00,24.10,25.93,0.00,0.00,0.00,29.95,1010.00,4.00,M,CLR,M,M,M,M,M,M,M,HZ,M,M,M,M,M,M,59.00,KEKO 311556Z AUTO 00000KT 4SM HZ CLR 15/M04 A2995 RMK AO2 SLP100 T01501044,M
INS,2021-08-31 15:58,-115.6733,36.5872,955.00,81.70,50.50,33.83,0.00,0.00,0.00,29.83,1004.70,10.00,M,FEW,M,M,M,13000.00,M,M,M,M,M,M,M,M,M,M,80.59,KINS 311558Z AUTO 00000KT 10SM FEW130 28/10 A2983 RMK AO2 SLP047 T02760103 $,M
LSV,2021-08-31 15:58,-115.0343,36.2362,570.00,87.60,57.40,36.01,110.00,6.00,0.00,29.76,1005.00,10.00,M,SCT,BKN,M,M,12000.00,15000.00,M,M,M,M,M,M,M,M,M,86.45,KLSV 311558Z AUTO 11006KT 10SM SCT120 BKN150 31/14 A2976 RMK AO2 SLP050 T03090141 $,M
CXP,2021-08-31 16:15,-119.7326,39.1923,1431.00,62.60,32.00,31.56,0.00,0.00,0.00,29.92,M,3.00,M,SCT,OVC,M,M,2100.00,2800.00,M,M,HZ,M,M,M,M,M,M,62.60,KCXP 311615Z AUTO 00000KT 3SM HZ SCT021 OVC028 17/00 A2992 RMK AO2,M
RTS,2021-08-31 16:15,-119.8764,39.6682,1539.00,73.40,23.00,15.03,0.00,0.00,0.00,29.93,M,9.00,M,CLR,M,M,M,M,M,M,M,M,M,M,M,M,M,M,73.40,KRTS 311615Z AUTO 00000KT 9SM CLR 23/M05 A2993 RMK AO2,M
MEV,2021-08-31 16:15,-119.7500,38.9963,1441.42,59.00,33.80,38.56,0.00,0.00,0.00,29.91,M,1.25,M,CLR,M,M,M,M,M,M,M,HZ,M,M,M,M,M,M,59.00,KMEV 311615Z AUTO 00000KT 1 1/4SM HZ CLR 15/01 A2991 RMK AO2,M
BAM,2021-08-31 16:15,-116.8743,40.5990,1382.36,68.00,26.60,20.98,70.00,5.00,0.00,29.92,M,5.00,M,CLR,M,M,M,M,M,M,M,M,M,M,M,M,M,M,68.00,KBAM 311615Z AUTO 07005KT 5SM CLR 20/M03 A2992 RMK AO1,M
BVU,2021-08-31 16:15,-114.8611,35.9475,671.00,87.80,57.20,35.53,140.00,11.00,0.00,29.79,M,10.00,M,CLR,M,M,M,M,M,M,M,M,M,M,M,M,M,M,86.58,KBVU 311615Z AUTO 14011KT 10SM CLR 31/14 A2979 RMK AO2,M
HTH,2021-08-31 16:15,-118.6315,38.5448,1282.89,77.00,21.20,12.35,0.00,0.00,0.00,29.89,M,8.00,M,CLR,M,M,M,M,M,M,M,M,M,M,M,M,M,M,77.00,KHTH 311615Z AUTO 00000KT 8SM CLR 25/M06 A2989 RMK A01,M
TMT,2021-08-31 16:15,-117.1971,39.4643,1749.34,57.00,23.00,26.61,0.00,0.00,0.00,30.00,M,10.00,M,CLR,M,M,M,M,M,M,M,M,M,M,M,M,M,M,57.00,KTMT 311615Z AUTO 00000KT 10SM CLR 14/M05 A3000 RMK AO2 T01391050,M
CXP,2021-08-31 16:35,-119.7326,39.1923,1431.00,64.40,30.20,27.55,0.00,0.00,0.00,29.92,M,4.00,M,BKN,OVC,M,M,2200.00,2800.00,M,M,HZ,M,M,M,M,M,M,64.40,KCXP 311635Z AUTO 00000KT 4SM HZ BKN022 OVC028 18/M01 A2992 RMK AO2,M
MEV,2021-08-31 16:35,-119.7500,38.9963,1441.42,60.80,33.80,36.16,0.00,0.00,0.00,29.90,M,1.00,M,SCT,M,M,M,2200.00,M,M,M,HZ,M,M,M,M,M,M,60.80,KMEV 311635Z AUTO 00000KT 1SM HZ SCT022 16/01 A2990 RMK AO2,M
BAM,2021-08-31 16:35,-116.8743,40.5990,1382.36,69.80,24.80,18.30,70.00,4.00,0.00,29.92,M,5.00,M,CLR,M,M,M,M,M,M,M,M,M,M,M,M,M,M,69.80,KBAM 311635Z AUTO 07004KT 5SM CLR 21/M04 A2992 RMK AO1,M
HTH,2021-08-31 16:35,-118.6315,38.5448,1282.89,78.80,21.20,11.64,330.00,4.00,0.00,29.88,M,6.00,M,CLR,M,M,M,M,M,M,M,HZ,M,M,M,M,M,M,78.80,KHTH 311635Z AUTO 33004KT 6SM HZ CLR 26/M06 A2988 RMK A01,M
TMT,2021-08-31 16:35,-117.1971,39.4643,1749.34,61.20,24.30,24.18,0.00,0.00,0.00,30.00,M,10.00,M,CLR,M,M,M,M,M,M,M,M,M,M,M,M,M,M,61.20,KTMT 311635Z AUTO 00000KT 10SM CLR 16/M04 A3000 RMK AO2 T01621043,M
RTS,2021-08-31 16:35,-119.8764,39.6682,1539.00,77.00,17.60,10.59,0.00,0.00,0.00,29.93,M,5.00,M,CLR,M,M,M,M,M,M,M,HZ,M,M,M,M,M,M,77.00,KRTS 311635Z AUTO 00000KT 5SM HZ CLR 25/M08 A2993 RMK AO2,M
BVU,2021-08-31 16:35,-114.8611,35.9475,671.00,89.60,57.20,33.56,140.00,12.00,0.00,29.79,M,10.00,M,CLR,M,M,M,M,M,M,M,M,M,M,M,M,M,M,88.28,KBVU 311635Z AUTO 14012KT 10SM CLR 32/14 A2979 RMK AO2,M
ELY,2021-08-31 16:53,-114.8453,39.2950,1909.00,78.00,42.00,27.70,180.00,9.00,0.00,30.02,1005.40,10.00,M,CLR,M,M,M,M,M,M,M,M,M,M,M,M,M,M,78.10,KELY 311653Z AUTO 18009KT 10SM CLR 26/06 A3002 RMK AO2 SLP054 T02560056,M
P68,2021-08-31 16:53,-116.0056,39.6014,1993.00,73.00,21.00,14.00,M,3.00,0.00,29.99,1007.40,M,M,M,M,M,M,M,M,M,M,M,M,M,M,M,M,M,73.00,KP68 311653Z AUTO VRB03KT 23/M06 A2999 RMK AO1 SLP074 T02281061,M
LOL,2021-08-31 16:53,-118.5701,40.0684,1192.43,71.00,23.00,16.24,0.00,0.00,0.00,29.86,1006.90,7.00,M,OVC,M,M,M,6000.00,M,M,M,M,M,M,M,M,M,M,71.10,KLOL 311653Z AUTO 00000KT 7SM OVC060 22/M05 A2986 RMK AO2 SLP069 T02171050,M
DRA,2021-08-31 16:53,-116.0278,36.6206,1009.00,89.00,49.00,25.14,250.00,10.00,0.00,29.83,1004.10,10.00,M,CLR,M,M,M,M,M,M,M,M,M,M,M,M,M,M,86.09,KDRA 311653Z AUTO 25010KT 10SM CLR 32/09 A2983 RMK AO2 SLP041 T03170094,M
VGT,2021-08-31 16:53,-115.1933,36.2111,667.00,92.00,56.00,29.80,130.00,10.00,0.00,29.77,1006.70,10.00,M,CLR,M,M,M,M,M,M,M,M,M,M,M,M,M,M,90.17,KVGT 311653Z 13010KT 10SM CLR 33/13 A2977 RMK AO2 SLP067 T03330133,M
TMT,2021-08-31 16:55,-117.1971,39.4643,1749.34,66.60,24.30,20.01,270.00,3.00,0.00,29.99,M,10.00,M,CLR,M,M,M,M,M,M,M,M,M,M,M,M,M,M,66.60,KTMT 311655Z AUTO 27003KT 10SM CLR 19/M04 A2999 RMK AO2 T01921043,M
CXP,2021-08-31 16:55,-119.7326,39.1923,1431.00,68.00,30.20,24.32,0.00,0.00,0.00,29.91,M,5.00,M,FEW,OVC,M,M,1500.00,2200.00,M,M,HZ,M,M,M,M,M,M,68.00,KCXP 311655Z AUTO 00000KT 5SM HZ FEW015 OVC022 20/M01 A2991 RMK AO2,M
BAM,2021-08-31 16:55,-116.8743,40.5990,1382.36,71.60,23.00,15.97,50.00,3.00,0.00,29.91,M,5.00,M,CLR,M,M,M,M,M,M,M,M,M,M,M,M,M,M,71.60,KBAM 311655Z AUTO 05003KT 5SM CLR 22/M05 A2991 RMK AO1,M
HTH,2021-08-31 16:55,-118.6315,38.5448,1282.89,80.60,21.20,10.97,310.00,4.00,0.00,29.88,M,6.00,M,CLR,M,M,M,M,M,M,M,HZ,M,M,M,M,M,M,78.68,KHTH 311655Z AUTO 31004KT 6SM HZ CLR 27/M06 A2988 RMK A01,M
MEV,2021-08-31 16:55,-119.7500,38.9963,1441.42,62.60,33.80,33.93,0.00,0.00,0.00,29.90,M,1.00,M,SCT,M,M,M,2100.00,M,M,M,HZ,M,M,M,M,M,M,62.60,KMEV 311655Z AUTO 00000KT 1SM HZ SCT021 17/01 A2990 RMK AO2,M
RNO,2021-08-31 16:55,-119.7711,39.4839,1341.00,69.00,30.90,24.09,0.00,0.00,0.00,29.88,1006.30,10.00,M,SCT,M,M,M,2700.00,M,M,M,M,M,M,M,M,M,M,69.10,KRNO 311655Z 00000KT 10SM SCT027 21/M01 A2988 RMK AO2 SLP063 FU SCT027 HZ ALQDS T02061006 $,M
BVU,2021-08-31 16:55,-114.8611,35.9475,671.00,89.60,55.40,31.45,160.00,14.00,0.00,29.79,M,10.00,M,CLR,M,M,M,M,M,M,M,M,M,M,M,M,M,M,87.78,KBVU 311655Z AUTO 16014KT 10SM CLR 32/13 A2979 RMK AO2,M
RTS,2021-08-31 16:55,-119.8764,39.6682,1539.00,78.80,15.80,9.23,0.00,0.00,0.00,29.92,M,7.00,M,CLR,M,M,M,M,M,M,M,M,M,M,M,M,M,M,78.80,KRTS 311655Z AUTO 00000KT 7SM CLR 26/M09 A2992 RMK AO2,M
LAS,2021-08-31 16:56,-115.1634,36.0719,663.00,88.00,53.00,30.41,170.00,4.00,0.00,29.79,1005.70,10.00,M,FEW,BKN,BKN,M,12000.00,15000.00,22000.00,M,M,M,M,M,M,M,M,85.80,KLAS 311656Z 17004KT 10SM FEW120 BKN150 BKN220 31/12 A2979 RMK AO2 SLP057 T03110117,M
NFL,2021-08-31 16:56,-118.7010,39.4166,1199.00,73.00,23.00,15.23,0.00,0.00,0.00,29.86,1008.60,3.00,M,SCT,BKN,OVC,M,4000.00,7500.00,9000.00,M,FU,M,M,M,M,M,M,73.00,KNFL 311656Z 00000KT 3SM FU SCT040 BKN075 OVC090 23/M05 A2986 RMK AO2 SLP086 FU SCT040 BKN075 OVC090 T02281050,M
TPH,2021-08-31 16:56,-117.0904,38.0505,1654.00,75.00,46.00,35.64,160.00,5.00,0.00,30.00,1007.90,10.00,M,CLR,M,M,M,M,M,M,M,M,M,M,M,M,M,M,75.00,KTPH 311656Z AUTO 16005KT 10SM CLR 24/08 A3000 RMK AO2 SLP079 T02390078,M
HND,2021-08-31 16:56,-115.1344,35.9729,742.79,88.00,56.00,33.68,180.00,6.00,0.00,29.82,1008.10,10.00,M,CLR,M,M,M,M,M,M,M,M,M,M,M,M,M,M,86.42,KHND 311656Z 18006KT 10SM CLR 31/13 A2982 RMK AO2 SLP081 T03110133,M
EKO,2021-08-31 16:56,-115.7860,40.8242,1367.00,65.00,25.00,21.86,0.00,0.00,0.00,29.94,1009.20,4.00,M,CLR,M,M,M,M,M,M,M,HZ,M,M,M,M,M,M,64.90,KEKO 311656Z AUTO 00000KT 4SM HZ CLR 18/M04 A2994 RMK AO2 SLP092 T01831039,M
WMC,2021-08-31 16:56,-117.8072,40.9019,1315.00,74.00,28.90,18.87,0.00,0.00,0.00,29.88,1006.90,6.00,M,CLR,M,M,M,M,M,M,M,HZ,M,M,M,M,M,M,73.90,KWMC 311656Z AUTO 00000KT 6SM HZ CLR 23/M02 A2988 RMK AO2 SLP069 T02331017 $,M
INS,2021-08-31 16:58,-115.6733,36.5872,955.00,86.00,50.00,28.90,0.00,0.00,0.00,29.83,1004.60,10.00,M,CLR,M,M,M,M,M,M,M,M,M,M,M,M,M,M,83.62,KINS 311658Z AUTO 00000KT 10SM CLR 30/10 A2983 RMK AO2 SLP046 T03000100 $,M
LSV,2021-08-31 16:58,-115.0343,36.2362,570.00,89.40,57.40,34.02,150.00,7.00,0.00,29.76,1005.00,10.00,M,FEW,FEW,M,M,13000.00,16000.00,M,M,M,M,M,M,M,M,M,88.14,KLSV 311658Z AUTO 15007KT 10SM FEW130 FEW160 32/14 A2976 RMK AO2 SLP050 T03190141 $,M
NFL,2021-08-31 17:11,-118.7010,39.4166,1199.00,74.00,21.90,14.11,0.00,0.00,0.00,29.86,M,2.00,M,BKN,OVC,M,M,4500.00,8000.00,M,M,FU,M,M,M,M,M,M,73.90,KNFL 311711Z 00000KT 2SM FU BKN045 OVC080 23/M06 A2986 RMK AO2 FU BKN040 OVC080 T02331056,M
CXP,2021-08-31 17:15,-119.7326,39.1923,1431.00,69.80,30.20,22.86,0.00,0.00,0.00,29.91,M,5.00,M,FEW,OVC,M,M,1300.00,2000.00,M,M,HZ,M,M,M,M,M,M,69.80,KCXP 311715Z AUTO 00000KT 5SM HZ FEW013 OVC020 21/M01 A2991 RMK AO2,M
TMT,2021-08-31 17:15,-117.1971,39.4643,1749.34,70.20,25.30,18.44,0.00,0.00,0.00,29.99,M,10.00,M,CLR,M,M,M,M,M,M,M,M,M,M,M,M,M,M,70.20,KTMT 311715Z AUTO 00000KT 10SM CLR 21/M04 A2999 RMK AO2 T02121037,M
HTH,2021-08-31 17:15,-118.6315,38.5448,1282.89,80.60,19.40,10.16,M,5.00,0.00,29.87,M,7.00,M,CLR,M,M,M,M,M,M,M,M,M,M,M,M,M,M,78.56,KHTH 311715Z AUTO VRB05KT 7SM CLR 27/M07 A2987 RMK A01,M
MEV,2021-08-31 17:15,-119.7500,38.9963,1441.42,64.40,32.00,29.63,10.00,3.00,0.00,29.90,M,1.25,M,SCT,M,M,M,1900.00,M,M,M,HZ,M,M,M,M,M,M,64.40,KMEV 311715Z AUTO 01003KT 1 1/4SM HZ SCT019 18/00 A2990 RMK AO2,M
RTS,2021-08-31 17:15,-119.8764,39.6682,1539.00,80.60,14.00,8.04,0.00,0.00,0.00,29.92,M,9.00,M,CLR,M,M,M,M,M,M,M,M,M,M,M,M,M,M,78.25,KRTS 311715Z AUTO 00000KT 9SM CLR 27/M10 A2992 RMK AO2,M
BVU,2021-08-31 17:15,-114.8611,35.9475,671.00,91.40,55.40,29.72,140.00,12.00,0.00,29.79,M,10.00,17.00,CLR,M,M,M,M,M,M,M,M,M,M,M,M,M,M,89.53,KBVU 311715Z AUTO 14012G17KT 120V190 10SM CLR 33/13 A2979 RMK AO2,M
BAM,2021-08-31 17:15,-116.8743,40.5990,1382.36,73.40,24.80,16.20,50.00,4.00,0.00,29.91,M,7.00,M,CLR,M,M,M,M,M,M,M,M,M,M,M,M,M,M,73.40,KBAM 311715Z AUTO 05004KT 7SM CLR 23/M04 A2991 RMK AO1,M
RNO,2021-08-31 17:25,-119.7711,39.4839,1341.00,72.00,30.00,21.04,0.00,0.00,0.00,29.88,M,5.00,M,BKN,M,M,M,2400.00,M,M,M,FU,M,M,M,M,M,M,72.00,KRNO 311725Z 00000KT 5SM FU BKN024 22/M01 A2988 RMK AO2 FU BKN024 T02221011 $,M
CXP,2021-08-31 17:35,-119.7326,39.1923,1431.00,71.60,30.20,21.50,0.00,0.00,0.00,29.91,M,6.00,M,BKN,BKN,M,M,2200.00,2800.00,M,M,HZ,M,M,M,M,M,M,71.60,KCXP 311735Z AUTO 00000KT 6SM HZ BKN022 BKN028 22/M01 A2991 RMK AO2,M
MEV,2021-08-31 17:35,-119.7500,38.9963,1441.42,68.00,32.00,26.15,0.00,0.00,0.00,29.90,M,1.75,M,BKN,BKN,M,M,1600.00,2100.00,M,M,HZ,M,M,M,M,M,M,68.00,KMEV 311735Z AUTO 00000KT 1 3/4SM HZ BKN016 BKN021 20/M00 A2990 RMK AO2,M
BAM,2021-08-31 17:35,-116.8743,40.5990,1382.36,77.00,24.80,14.37,80.00,4.00,0.00,29.91,M,7.00,M,CLR,M,M,M,M,M,M,M,M,M,M,M,M,M,M,77.00,KBAM 311735Z AUTO 08004KT 7SM CLR 25/M04 A2991 RMK AO1,M
HTH,2021-08-31 17:35,-118.6315,38.5448,1282.89,84.20,19.40,9.04,330.00,4.00,0.00,29.87,M,7.00,M,CLR,M,M,M,M,M,M,M,M,M,M,M,M,M,M,80.68,KHTH 311735Z AUTO 33004KT 7SM CLR 29/M07 A2987 RMK A01,M
RTS,2021-08-31 17:35,-119.8764,39.6682,1539.00,82.40,10.40,6.47,M,6.00,0.00,29.92,M,10.00,13.00,CLR,M,M,M,M,M,M,M,M,M,M,M,M,M,M,79.07,KRTS 311735Z AUTO VRB06G13KT 10SM CLR 28/M12 A2992 RMK AO2,M
BVU,2021-08-31 17:35,-114.8611,35.9475,671.00,93.20,55.40,28.10,160.00,13.00,0.00,29.78,M,10.00,18.00,CLR,M,M,M,M,M,M,M,M,M,M,M,M,M,M,91.35,KBVU 311735Z AUTO 16013G18KT 10SM CLR 34/13 A2978 RMK AO2,M
TMT,2021-08-31 17:35,-117.1971,39.4643,1749.34,74.00,26.40,17.03,0.00,0.00,0.00,29.99,M,10.00,M,CLR,M,M,M,M,M,M,M,M,M,M,M,M,M,M,73.90,KTMT 311735Z AUTO 00000KT 10SM CLR 23/M03 A2999 RMK AO2 T02331031,M
DRA,2021-08-31 17:53,-116.0278,36.6206,1009.00,92.00,50.00,23.99,240.00,16.00,0.00,29.82,1003.70,10.00,22.00,CLR,M,M,M,M,M,M,M,M,M,M,M,M,M,M,88.84,KDRA 311753Z AUTO 24016G22KT 10SM CLR 33/10 A2982 RMK AO2 SLP037 T03330100 10333 20217 58004,M
P68,2021-08-31 17:53,-116.0056,39.6014,1993.00,80.00,27.00,14.21,40.00,4.00,0.00,29.97,1006.50,M,M,M,M,M,M,M,M,M,M,M,M,M,M,M,M,M,78.48,KP68 311753Z AUTO 04004KT 27/M03 A2997 RMK AO1 SLP065 T02671028 10267 20089 58007,M
VGT,2021-08-31 17:53,-115.1933,36.2111,667.00,93.00,56.00,28.79,100.00,10.00,0.00,29.76,1006.30,10.00,M,CLR,M,M,M,M,M,M,M,M,M,M,M,M,M,M,91.29,KVGT 311753Z 10010KT 10SM CLR 34/13 A2976 RMK AO2 SLP063 T03390133 10339 20294 50002,M
ELY,2021-08-31 17:53,-114.8453,39.2950,1909.00,81.00,41.00,24.14,150.00,8.00,0.00,30.01,1004.80,10.00,M,CLR,M,M,M,M,M,M,M,M,M,M,M,M,M,M,79.43,KELY 311753Z AUTO 15008KT 10SM CLR 27/05 A3001 RMK AO2 SLP048 T02720050 10272 20106 58007,M
BVU,2021-08-31 17:55,-114.8611,35.9475,671.00,93.20,55.40,28.10,160.00,12.00,0.00,29.78,M,10.00,M,CLR,M,M,M,M,M,M,M,M,M,M,M,M,M,M,91.35,KBVU 311755Z AUTO 16012KT 10SM CLR 34/13 A2978 RMK AO2,M
CXP,2021-08-31 17:55,-119.7326,39.1923,1431.00,75.20,30.20,19.05,0.00,0.00,0.00,29.90,M,6.00,M,SCT,BKN,M,M,2400.00,2900.00,M,M,HZ,M,M,M,M,M,M,75.20,KCXP 311755Z AUTO 00000KT 6SM HZ SCT024 BKN029 24/M01 A2990 RMK AO2,M
BAM,2021-08-31 17:55,-116.8743,40.5990,1382.36,78.80,23.00,12.55,60.00,5.00,0.00,29.90,M,7.00,M,CLR,M,M,M,M,M,M,M,M,M,M,M,M,M,M,78.80,KBAM 311755Z AUTO 06005KT 7SM CLR 26/M05 A2990 RMK AO1,M
MEV,2021-08-31 17:55,-119.7500,38.9963,1441.42,69.80,35.60,28.39,0.00,0.00,0.00,29.89,M,1.50,M,SCT,M,M,M,1600.00,M,M,M,HZ,M,M,M,M,M,M,69.80,KMEV 311755Z AUTO 00000KT 1 1/2SM HZ SCT016 21/02 A2989 RMK AO2,M
HTH,2021-08-31 17:55,-118.6315,38.5448,1282.89,84.20,21.20,9.76,340.00,6.00,0.00,29.86,M,7.00,M,CLR,M,M,M,M,M,M,M,M,M,M,M,M,M,M,80.77,KHTH 311755Z AUTO 34006KT 7SM CLR 29/M06 A2986 RMK A01,M
RNO,2021-08-31 17:55,-119.7711,39.4839,1341.00,75.00,28.90,18.19,0.00,0.00,0.00,29.87,1005.90,4.00,M,BKN,M,M,M,2600.00,M,M,M,FU,M,M,M,M,M,M,75.00,KRNO 311755Z 00000KT 4SM FU BKN026 24/M02 A2987 RMK AO2 SLP059 FU BKN026 T02391017 10239 20117 58008 $,M
RTS,2021-08-31 17:55,-119.8764,39.6682,1539.00,82.40,12.20,7.01,170.00,8.00,0.00,29.91,M,10.00,M,CLR,M,M,M,M,M,M,M,M,M,M,M,M,M,M,79.13,KRTS 311755Z AUTO 17008KT 140V220 10SM CLR 28/M11 A2991 RMK AO2,M
TMT,2021-08-31 17:55,-117.1971,39.4643,1749.34,76.60,26.60,15.69,0.00,0.00,0.00,29.98,M,10.00,M,CLR,M,M,M,M,M,M,M,M,M,M,M,M,M,M,76.60,KTMT 311755Z AUTO 00000KT 10SM CLR 25/M03 A2998 RMK AO2 T02481030 10248 20003,M
TPH,2021-08-31 17:56,-117.0904,38.0505,1654.00,78.00,47.00,33.26,M,4.00,0.00,29.98,1007.20,10.00,M,CLR,M,M,M,M,M,M,M,M,M,M,M,M,M,M,78.10,KTPH 311756Z AUTO VRB04KT 10SM CLR 26/08 A2998 RMK AO2 SLP072 T02560083 10261 20133 58004,M
HND,2021-08-31 17:56,-115.1344,35.9729,742.79,92.00,55.00,28.84,230.00,4.00,0.00,29.81,1007.70,10.00,M,CLR,M,M,M,M,M,M,M,M,M,M,M,M,M,M,89.92,KHND 311756Z 23004KT 10SM CLR 33/13 A2981 RMK AO2 SLP077 60000 T03330128 10333 20283 50001,M
WMC,2021-08-31 17:56,-117.8072,40.9019,1315.00,79.00,27.00,14.73,0.00,0.00,0.00,29.87,1006.60,7.00,M,SCT,M,M,M,7000.00,M,M,M,M,M,M,M,M,M,M,79.00,KWMC 311756Z AUTO 00000KT 7SM SCT070 26/M03 A2987 RMK AO2 SLP066 T02611028 10261 20072 57005 $,M
EKO,2021-08-31 17:56,-115.7860,40.8242,1367.00,73.00,25.00,16.56,M,3.00,0.00,29.93,1008.70,4.00,M,CLR,M,M,M,M,M,M,M,HZ,M,M,M,M,M,M,73.00,KEKO 311756Z AUTO VRB03KT 4SM HZ CLR 23/M04 A2993 RMK AO2 SLP087 T02281039 10228 20061 58007,M
LAS,2021-08-31 17:56,-115.1634,36.0719,663.00,91.00,54.00,28.60,120.00,4.00,0.00,29.77,1005.10,10.00,M,FEW,SCT,SCT,M,12000.00,15000.00,22000.00,M,M,M,M,M,M,M,M,88.78,KLAS 311756Z 12004KT 10SM FEW120 SCT150 SCT220 33/12 A2977 RMK AO2 SLP051 T03280122 10333 20294 50001,M
NFL,2021-08-31 17:56,-118.7010,39.4166,1199.00,78.00,23.00,12.85,0.00,0.00,0.00,29.85,1008.40,2.00,M,BKN,OVC,M,M,4500.00,8000.00,M,M,FU,M,M,M,M,M,M,78.10,KNFL 311756Z 00000KT 2SM FU BKN045 OVC080 26/M05 A2985 RMK AO2 SLP084 FU BKN040 OVC080 T02561050 10256 20117 58003,M
LSV,2021-08-31 17:58,-115.0343,36.2362,570.00,92.00,57.00,30.81,90.00,7.00,0.00,29.75,1004.60,10.00,M,CLR,M,M,M,M,M,M,M,M,M,M,M,M,M,M,90.71,KLSV 311758Z AUTO 09007KT 10SM CLR 33/14 A2975 RMK AO2 SLP046 60000 T03340139 10334 20291 50001 $,M
INS,2021-08-31 17:58,-115.6733,36.5872,955.00,88.50,49.30,26.01,70.00,4.00,0.00,29.82,1004.40,10.00,M,CLR,M,M,M,M,M,M,M,M,M,M,M,M,M,M,85.62,KINS 311758Z AUTO 07004KT 10SM CLR 31/10 A2982 RMK AO2 SLP044 T03140096 10317 20246 58001 $,M
CXP,2021-08-31 18:15,-119.7326,39.1923,1431.00,77.00,32.00,19.30,M,4.00,0.00,29.90,M,6.00,M,FEW,M,M,M,2600.00,M,M,M,HZ,M,M,M,M,M,M,77.00,KCXP 311815Z AUTO VRB04KT 6SM HZ FEW026 25/00 A2990 RMK AO2,M
BVU,2021-08-31 18:15,-114.8611,35.9475,671.00,93.20,57.20,29.99,150.00,15.00,0.00,29.77,M,10.00,M,CLR,M,M,M,M,M,M,M,M,M,M,M,M,M,M,91.91,KBVU 311815Z AUTO 15015KT 10SM CLR 34/14 A2977 RMK AO2,M
RTS,2021-08-31 18:15,-119.8764,39.6682,1539.00,84.20,12.20,6.61,M,4.00,0.00,29.91,M,10.00,M,CLR,M,M,M,M,M,M,M,M,M,M,M,M,M,M,80.37,KRTS 311815Z AUTO VRB04KT 10SM CLR 29/M11 A2991 RMK AO2,M
HTH,2021-08-31 18:15,-118.6315,38.5448,1282.89,86.00,21.20,9.21,10.00,5.00,0.00,29.85,M,8.00,M,CLR,M,M,M,M,M,M,M,M,M,M,M,M,M,M,82.04,KHTH 311815Z AUTO 01005KT 8SM CLR 30/M06 A2985 RMK A01,M
RNO,2021-08-31 18:15,-119.7711,39.4839,1341.00,79.00,28.90,15.93,0.00,0.00,0.00,29.87,M,3.00,M,BKN,M,M,M,2500.00,M,M,M,FU,M,M,M,M,M,M,79.00,KRNO 311815Z 00000KT 3SM FU BKN025 26/M02 A2987 RMK AO2 FU BKN025 T02611017 $,M
MEV,2021-08-31 18:15,-119.7500,38.9963,1441.42,75.20,30.20,19.05,350.00,3.00,0.00,29.89,M,3.00,M,CLR,M,M,M,M,M,M,M,HZ,M,M,M,M,M,M,75.20,KMEV 311815Z AUTO 35003KT 3SM HZ CLR 24/M01 A2989 RMK AO2,M
TMT,2021-08-31 18:15,-117.1971,39.4643,1749.34,79.30,26.20,14.11,0.00,0.00,0.00,29.97,M,10.00,M,CLR,M,M,M,M,M,M,M,M,M,M,M,M,M,M,79.30,KTMT 311815Z AUTO 00000KT 10SM CLR 26/M03 A2997 RMK AO2 T02631032,M
BAM,2021-08-31 18:15,-116.8743,40.5990,1382.36,78.80,23.00,12.55,0.00,0.00,0.00,29.90,M,7.00,M,CLR,M,M,M,M,M,M,M,M,M,M,M,M,M,M,78.80,KBAM 311815Z AUTO 00000KT 7SM CLR 26/M05 A2990 RMK AO1,M
BAM,2021-08-31 18:35,-116.8743,40.5990,1382.36,80.60,23.00,11.83,0.00,0.00,0.00,29.90,M,7.00,M,CLR,M,M,M,M,M,M,M,M,M,M,M,M,M,M,78.80,KBAM 311835Z AUTO 00000KT 7SM CLR 27/M05 A2990 RMK AO1,M
HTH,2021-08-31 18:35,-118.6315,38.5448,1282.89,86.00,21.20,9.21,340.00,4.00,0.00,29.84,M,8.00,M,CLR,M,M,M,M,M,M,M,M,M,M,M,M,M,M,82.04,KHTH 311835Z AUTO 34004KT 8SM CLR 30/M06 A2984 RMK A01,M
BVU,2021-08-31 18:35,-114.8611,35.9475,671.00,93.20,57.20,29.99,160.00,13.00,0.00,29.77,M,10.00,20.00,CLR,M,M,M,M,M,M,M,M,M,M,M,M,M,M,91.91,KBVU 311835Z AUTO 16013G20KT 10SM CLR 34/14 A2977 RMK AO2,M
RTS,2021-08-31 18:35,-119.8764,39.6682,1539.00,86.00,15.80,7.31,130.00,7.00,0.00,29.90,M,9.00,M,CLR,M,M,M,M,M,M,M,M,M,M,M,M,M,M,81.78,KRTS 311835Z AUTO 13007KT 120V190 9SM CLR 30/M09 A2990 RMK AO2,M
CXP,2021-08-31 18:35,-119.7326,39.1923,1431.00,78.80,32.00,18.18,100.00,3.00,0.00,29.89,M,6.00,M,CLR,M,M,M,M,M,M,M,HZ,M,M,M,M,M,M,78.80,KCXP 311835Z AUTO 10003KT 6SM HZ CLR 26/M00 A2989 RMK AO2,M
MEV,2021-08-31 18:35,-119.7500,38.9963,1441.42,77.00,32.00,19.30,0.00,0.00,0.00,29.88,M,3.00,M,CLR,M,M,M,M,M,M,M,HZ,M,M,M,M,M,M,77.00,KMEV 311835Z AUTO 00000KT 3SM HZ CLR 25/M00 A2988 RMK AO2,M
TMT,2021-08-31 18:35,-117.1971,39.4643,1749.34,81.00,25.50,12.97,190.00,3.00,0.00,29.96,M,7.00,M,CLR,M,M,M,M,M,M,M,M,M,M,M,M,M,M,78.93,KTMT 311835Z AUTO 19003KT 7SM CLR 27/M04 A2996 RMK AO2 T02721036,M
DRA,2021-08-31 18:53,-116.0278,36.6206,1009.00,95.00,49.00,20.92,230.00,18.00,0.00,29.80,1002.80,10.00,25.00,CLR,M,M,M,M,M,M,M,M,M,M,M,M,M,M,91.68,KDRA 311853Z AUTO 23018G25KT 10SM CLR 35/09 A2980 RMK AO2 SLP028 T03500094,M
ELY,2021-08-31 18:53,-114.8453,39.2950,1909.00,86.00,39.00,19.01,240.00,8.00,0.00,29.99,1004.00,10.00,15.00,CLR,M,M,M,M,M,M,M,M,M,M,M,M,M,M,82.78,KELY 311853Z AUTO 24008G15KT 10SM CLR 30/04 A2999 RMK AO2 SLP040 T03000039,M
P68,2021-08-31 18:53,-116.0056,39.6014,1993.00,83.00,28.00,13.52,340.00,5.00,0.00,29.95,1005.70,M,M,M,M,M,M,M,M,M,M,M,M,M,M,M,M,M,80.29,KP68 311853Z AUTO 34005KT 28/M02 A2995 RMK AO1 SLP057 T02831022,M
VGT,2021-08-31 18:53,-115.1933,36.2111,667.00,95.00,55.00,26.19,160.00,8.00,0.00,29.74,1005.60,10.00,M,CLR,M,M,M,M,M,M,M,M,M,M,M,M,M,M,93.10,KVGT 311853Z 16008KT 120V210 10SM CLR 35/13 A2974 RMK AO2 SLP056 T03500128,M
MEV,2021-08-31 18:55,-119.7500,38.9963,1441.42,78.80,28.40,15.71,310.00,4.00,0.00,29.88,M,1.50,M,CLR,M,M,M,M,M,M,M,HZ,M,M,M,M,M,M,78.80,KMEV 311855Z AUTO 31004KT 1 1/2SM HZ CLR 26/M02 A2988 RMK AO2,M
CXP,2021-08-31 18:55,-119.7326,39.1923,1431.00,82.40,28.40,13.96,120.00,5.00,0.00,29.89,M,5.00,M,CLR,M,M,M,M,M,M,M,HZ,M,M,M,M,M,M,79.94,KCXP 311855Z AUTO 12005KT 5SM HZ CLR 28/M02 A2989 RMK AO2,M
RNO,2021-08-31 18:55,-119.7711,39.4839,1341.00,84.00,25.00,11.52,120.00,4.00,0.00,29.84,1004.60,3.00,M,BKN,M,M,M,2500.00,M,M,M,FU,M,M,M,M,M,M,80.88,KRNO 311855Z 12004KT 3SM FU BKN025 29/M04 A2984 RMK AO2 SLP046 FU BKN025 T02891039 $,M
BVU,2021-08-31 18:55,-114.8611,35.9475,671.00,93.20,55.40,28.10,190.00,10.00,0.00,29.76,M,10.00,23.00,CLR,M,M,M,M,M,M,M,M,M,M,M,M,M,M,91.35,KBVU 311855Z AUTO 19010G23KT 10SM CLR 34/13 A2976 RMK AO2,M
BAM,2021-08-31 18:55,-116.8743,40.5990,1382.36,80.60,23.00,11.83,0.00,0.00,0.00,29.89,M,7.00,M,CLR,M,M,M,M,M,M,M,M,M,M,M,M,M,M,78.80,KBAM 311855Z AUTO 00000KT 7SM CLR 27/M05 A2989 RMK AO1,M
HTH,2021-08-31 18:55,-118.6315,38.5448,1282.89,87.80,23.00,9.39,330.00,8.00,0.00,29.83,M,8.00,M,CLR,M,M,M,M,M,M,M,M,M,M,M,M,M,M,83.43,KHTH 311855Z AUTO 33008KT 8SM CLR 31/M05 A2983 RMK A01,M
TMT,2021-08-31 18:55,-117.1971,39.4643,1749.34,84.40,23.70,10.77,190.00,8.00,0.00,29.95,M,5.00,14.00,CLR,M,M,M,M,M,M,M,HZ,M,M,M,M,M,M,81.07,KTMT 311855Z AUTO 19008G14KT 5SM HZ CLR 29/M05 A2995 RMK AO2 T02911046,M
RTS,2021-08-31 18:55,-119.8764,39.6682,1539.00,87.80,10.40,5.44,200.00,7.00,0.00,29.89,M,9.00,19.00,CLR,M,M,M,M,M,M,M,M,M,M,M,M,M,M,82.88,KRTS 311855Z AUTO 20007G19KT 140V280 9SM CLR 31/M12 A2989 RMK AO2,M
WMC,2021-08-31 18:56,-117.8072,40.9019,1315.00,85.00,24.10,10.78,90.00,3.00,0.00,29.85,1005.40,6.00,M,FEW,FEW,M,M,6000.00,7500.00,M,M,HZ,M,M,M,M,M,M,81.44,KWMC 311856Z AUTO 09003KT 6SM HZ FEW060 FEW075 29/M04 A2985 RMK AO2 SLP054 T02941044 $,M
TPH,2021-08-31 18:56,-117.0904,38.0505,1654.00,82.00,43.00,25.24,180.00,7.00,0.00,29.96,1006.50,10.00,14.00,CLR,M,M,M,M,M,M,M,M,M,M,M,M,M,M,80.15,KTPH 311856Z AUTO 18007G14KT 10SM CLR 28/06 A2996 RMK AO2 SLP065 T02780061,M
EKO,2021-08-31 18:56,-115.7860,40.8242,1367.00,81.00,25.00,12.70,250.00,4.00,0.00,29.90,1007.00,7.00,M,CLR,M,M,M,M,M,M,M,M,M,M,M,M,M,M,78.89,KEKO 311856Z AUTO 25004KT 7SM CLR 27/M04 A2990 RMK AO2 SLP070 T02721039,M
HND,2021-08-31 18:56,-115.1344,35.9729,742.79,94.00,55.00,27.10,180.00,4.00,0.00,29.79,1006.90,10.00,M,CLR,M,M,M,M,M,M,M,M,M,M,M,M,M,M,91.95,KHND 311856Z 18004KT 10SM CLR 34/13 A2979 RMK AO2 SLP069 T03440128,M
NFL,2021-08-31 18:56,-118.7010,39.4166,1199.00,85.00,24.10,10.78,M,3.00,0.00,29.82,1007.60,2.00,M,BKN,OVC,M,M,4500.00,8000.00,M,M,FU,M,M,M,M,M,M,81.44,KNFL 311856Z VRB03KT 2SM FU BKN045 OVC080 29/M04 A2982 RMK AO2 SLP076 T02941044,M
LAS,2021-08-31 18:56,-115.1634,36.0719,663.00,94.00,53.00,25.28,190.00,8.00,0.00,29.75,1004.50,10.00,M,FEW,SCT,SCT,M,12000.00,15000.00,22000.00,M,M,M,M,M,M,M,M,91.45,KLAS 311856Z 19008KT 10SM FEW120 SCT150 SCT220 34/12 A2975 RMK AO2 SLP045 T03440117,M
INS,2021-08-31 18:58,-115.6733,36.5872,955.00,91.00,50.40,25.05,90.00,7.00,0.00,29.80,1003.60,10.00,M,FEW,FEW,M,M,17000.00,20000.00,M,M,M,M,M,M,M,M,M,88.05,KINS 311858Z AUTO 09007KT 10SM FEW170 FEW200 33/10 A2980 RMK AO2 SLP036 T03280102 $,M
LSV,2021-08-31 18:58,-115.0343,36.2362,570.00,94.80,54.50,25.88,0.00,0.00,0.00,29.73,1003.90,10.00,M,FEW,M,M,M,22000.00,M,M,M,M,M,M,M,M,M,M,92.75,KLSV 311858Z AUTO 00000KT 10SM FEW220 35/13 A2973 RMK AO2 SLP039 T03490125 $,M
BVU,2021-08-31 19:15,-114.8611,35.9475,671.00,95.00,53.60,24.89,210.00,9.00,0.00,29.75,M,9.00,16.00,CLR,M,M,M,M,M,M,M,M,M,M,M,M,M,M,92.71,KBVU 311915Z AUTO 21009G16KT 9SM CLR 35/12 A2975 RMK AO2,M
TMT,2021-08-31 19:15,-117.1971,39.4643,1749.34,86.00,23.00,9.94,190.00,8.00,0.00,29.94,M,7.00,M,CLR,M,M,M,M,M,M,M,M,M,M,M,M,M,M,82.14,KTMT 311915Z AUTO 19008KT 7SM CLR 30/M05 A2994 RMK AO2 T03001050,M
CXP,2021-08-31 19:15,-119.7326,39.1923,1431.00,86.00,21.20,9.21,0.00,0.00,0.00,29.88,M,3.00,M,CLR,M,M,M,M,M,M,M,HZ,M,M,M,M,M,M,82.04,KCXP 311915Z AUTO 00000KT 3SM HZ CLR 30/M06 A2988 RMK AO2,M
HTH,2021-08-31 19:15,-118.6315,38.5448,1282.89,89.60,21.20,8.22,350.00,8.00,0.00,29.82,M,8.00,M,CLR,M,M,M,M,M,M,M,M,M,M,M,M,M,M,84.64,KHTH 311915Z AUTO 35008KT 8SM CLR 32/M06 A2982 RMK A01,M
RTS,2021-08-31 19:15,-119.8764,39.6682,1539.00,87.80,10.40,5.44,260.00,15.00,0.00,29.89,M,10.00,22.00,CLR,M,M,M,M,M,M,M,M,M,M,M,M,M,M,82.88,KRTS 311915Z AUTO 26015G22KT 10SM CLR 31/M12 A2989 RMK AO2,M
MEV,2021-08-31 19:15,-119.7500,38.9963,1441.42,82.40,23.00,11.16,240.00,4.00,0.00,29.87,M,0.75,M,VV ,M,M,M,500.00,M,M,M,HZ,M,M,M,M,M,M,79.67,KMEV 311915Z AUTO 24004KT 3/4SM HZ VV005 28/M05 A2987 RMK AO2,M
BAM,2021-08-31 19:15,-116.8743,40.5990,1382.36,82.40,21.20,10.34,0.00,0.00,0.00,29.88,M,7.00,M,CLR,M,M,M,M,M,M,M,M,M,M,M,M,M,M,79.55,KBAM 311915Z AUTO 00000KT 7SM CLR 28/M06 A2988 RMK AO1,M
RNO,2021-08-31 19:31,-119.7711,39.4839,1341.00,87.00,21.00,8.82,M,3.00,0.00,29.83,M,4.00,M,SCT,M,M,M,2500.00,M,M,M,FU,M,M,M,M,M,M,82.81,KRNO 311931Z VRB03KT 4SM FU SCT025 31/M06 A2983 RMK AO2 FU SCT025 T03061061 $,M
RTS,2021-08-31 19:35,-119.8764,39.6682,1539.00,87.80,12.20,5.89,230.00,15.00,0.00,29.88,M,10.00,M,CLR,M,M,M,M,M,M,M,M,M,M,M,M,M,M,82.93,KRTS 311935Z AUTO 23015KT 10SM CLR 31/M11 A2988 RMK AO2,M
BVU,2021-08-31 19:35,-114.8611,35.9475,671.00,95.00,53.60,24.89,170.00,8.00,0.00,29.74,M,10.00,21.00,CLR,M,M,M,M,M,M,M,M,M,M,M,M,M,M,92.71,KBVU 311935Z AUTO 17008G21KT 130V210 10SM CLR 35/12 A2974 RMK AO2,M
TMT,2021-08-31 19:35,-117.1971,39.4643,1749.34,88.30,24.40,9.80,250.00,9.00,0.00,29.93,M,7.00,14.00,CLR,M,M,M,M,M,M,M,M,M,M,M,M,M,M,83.89,KTMT 311935Z AUTO 25009G14KT 7SM CLR 31/M04 A2993 RMK AO2 T03131042,M
MEV,2021-08-31 19:35,-119.7500,38.9963,1441.42,82.40,33.80,17.38,0.00,0.00,0.00,29.86,M,1.00,M,CLR,M,M,M,M,M,M,M,HZ,M,M,M,M,M,M,80.03,KMEV 311935Z AUTO 00000KT 1SM HZ CLR 28/01 A2986 RMK AO2,M
HTH,2021-08-31 19:35,-118.6315,38.5448,1282.89,89.60,21.20,8.22,330.00,7.00,0.00,29.81,M,8.00,13.00,CLR,M,M,M,M,M,M,M,M,M,M,M,M,M,M,84.64,KHTH 311935Z AUTO 33007G13KT 8SM CLR 32/M06 A2981 RMK A01,M
CXP,2021-08-31 19:35,-119.7326,39.1923,1431.00,86.00,19.40,8.53,0.00,0.00,0.00,29.87,M,2.50,M,CLR,M,M,M,M,M,M,M,HZ,M,M,M,M,M,M,81.94,KCXP 311935Z AUTO 00000KT 2 1/2SM HZ CLR 30/M07 A2987 RMK AO2,M
BAM,2021-08-31 19:35,-116.8743,40.5990,1382.36,82.40,21.20,10.34,0.00,0.00,0.00,29.88,M,7.00,M,CLR,M,M,M,M,M,M,M,M,M,M,M,M,M,M,79.55,KBAM 311935Z AUTO 00000KT 7SM CLR 28/M06 A2988 RMK AO1,M
VGT,2021-08-31 19:53,-115.1933,36.2111,667.00,97.00,54.00,23.75,120.00,5.00,0.00,29.71,1004.50,10.00,15.00,CLR,M,M,M,M,M,M,M,M,M,M,M,M,M,M,94.92,KVGT 311953Z 12005G15KT 10SM CLR 36/12 A2971 RMK AO2 SLP045 T03610122,M
ELY,2021-08-31 19:53,-114.8453,39.2950,1909.00,84.00,36.00,18.01,230.00,11.00,0.00,29.97,1004.40,10.00,M,CLR,M,M,M,M,M,M,M,M,M,M,M,M,M,M,81.20,KELY 311953Z AUTO 23011KT 10SM CLR 29/02 A2997 RMK AO2 SLP044 T02890022,M
P68,2021-08-31 19:53,-116.0056,39.6014,1993.00,86.00,27.00,11.74,250.00,4.00,0.00,29.92,1004.40,M,M,M,M,M,M,M,M,M,M,M,M,M,M,M,M,M,82.42,KP68 311953Z AUTO 25004KT 30/M03 A2992 RMK AO1 SLP044 T03001028,M
DRA,2021-08-31 19:53,-116.0278,36.6206,1009.00,95.00,44.00,17.45,210.00,15.00,0.00,29.78,1002.40,10.00,M,CLR,M,M,M,M,M,M,M,M,M,M,M,27.00,230.00,2021-08-31 19:39,91.00,KDRA 311953Z AUTO 21015KT 10SM CLR 35/07 A2978 RMK AO2 PK WND 23027/1939 SLP024 T03500067,M
LOL,2021-08-31 19:53,-118.5701,40.0684,1192.43,88.00,24.10,9.77,180.00,5.00,0.00,29.80,1005.00,8.00,M,CLR,M,M,M,M,M,M,M,M,M,M,M,M,M,M,83.65,KLOL 311953Z AUTO 18005KT 8SM CLR 31/M04 A2980 RMK AO2 SLP050 T03111044,M
CXP,2021-08-31 19:55,-119.7326,39.1923,1431.00,87.80,17.60,7.46,M,3.00,0.00,29.86,M,3.00,M,CLR,M,M,M,M,M,M,M,HZ,M,M,M,M,M,M,83.14,KCXP 311955Z AUTO VRB03KT 3SM HZ CLR 31/M08 A2986 RMK AO2,M
HTH,2021-08-31 19:55,-118.6315,38.5448,1282.89,91.40,21.20,7.77,350.00,6.00,0.00,29.80,M,9.00,12.00,CLR,M,M,M,M,M,M,M,M,M,M,M,M,M,M,85.96,KHTH 311955Z AUTO 35006G12KT 9SM CLR 33/M06 A2980 RMK A01,M
BVU,2021-08-31 19:55,-114.8611,35.9475,671.00,93.20,55.40,28.10,150.00,12.00,0.00,29.73,M,10.00,M,CLR,M,M,M,M,M,M,M,M,M,M,M,M,M,M,91.35,KBVU 311955Z AUTO 15012KT 10SM CLR 34/13 A2973 RMK AO2,M
RTS,2021-08-31 19:55,-119.8764,39.6682,1539.00,87.80,12.20,5.89,220.00,13.00,0.00,29.88,M,10.00,22.00,CLR,M,M,M,M,M,M,M,M,M,M,M,M,M,M,82.93,KRTS 311955Z AUTO 22013G22KT 10SM CLR 31/M11 A2988 RMK AO2,M
RNO,2021-08-31 19:55,-119.7711,39.4839,1341.00,92.00,19.90,7.24,320.00,5.00,0.00,29.82,1003.60,5.00,M,SCT,M,M,M,2500.00,M,M,M,FU,M,M,M,M,M,M,86.25,KRNO 311955Z 32005KT 5SM FU SCT025 33/M07 A2982 RMK AO2 SLP036 FU SCT025 HZ ALQDS T03331067 $,M
TMT,2021-08-31 19:55,-117.1971,39.4643,1749.34,88.00,24.10,9.77,230.00,8.00,0.00,29.92,M,7.00,M,CLR,M,M,M,M,M,M,M,M,M,M,M,M,M,M,83.65,KTMT 311955Z AUTO 23008KT 200V260 7SM CLR 31/M04 A2992 RMK AO2 T03111044,M
BAM,2021-08-31 19:55,-116.8743,40.5990,1382.36,82.40,21.20,10.34,270.00,3.00,0.00,29.87,M,7.00,M,CLR,M,M,M,M,M,M,M,M,M,M,M,M,M,M,79.55,KBAM 311955Z AUTO 27003KT 7SM CLR 28/M06 A2987 RMK AO1,M
MEV,2021-08-31 19:55,-119.7500,38.9963,1441.42,80.60,35.60,19.79,0.00,0.00,0.00,29.86,M,1.25,M,CLR,M,M,M,M,M,M,M,HZ,M,M,M,M,M,M,78.94,KMEV 311955Z AUTO 00000KT 1 1/4SM HZ CLR 27/02 A2986 RMK AO2,M
LAS,2021-08-31 19:56,-115.1634,36.0719,663.00,96.00,53.00,23.62,120.00,4.00,0.00,29.73,1003.50,10.00,M,FEW,SCT,SCT,M,12000.00,15000.00,22000.00,M,M,M,M,M,M,M,M,93.72,KLAS 311956Z 12004KT 10SM FEW120 SCT150 SCT220 36/12 A2973 RMK AO2 SLP035 CB DSNT NW T03560117,M
EKO,2021-08-31 19:56,-115.7860,40.8242,1367.00,86.00,25.00,10.81,230.00,8.00,0.00,29.88,1005.70,6.00,M,CLR,M,M,M,M,M,M,M,HZ,M,M,M,M,M,M,82.27,KEKO 311956Z AUTO 23008KT 6SM HZ CLR 30/M04 A2988 RMK AO2 SLP057 T03001039,M
TPH,2021-08-31 19:56,-117.0904,38.0505,1654.00,86.00,41.00,20.54,160.00,7.00,0.00,29.93,1005.10,8.00,M,CLR,M,M,M,M,M,M,M,M,M,M,M,M,M,M,82.86,KTPH 311956Z AUTO 16007KT 8SM CLR 30/05 A2993 RMK AO2 SLP051 T03000050,M
WMC,2021-08-31 19:56,-117.8072,40.9019,1315.00,88.00,21.00,8.57,M,4.00,0.00,29.83,1004.60,5.00,M,BKN,M,M,M,4000.00,M,M,M,HZ,M,M,M,M,M,M,83.46,KWMC 311956Z AUTO VRB04KT 5SM HZ BKN040 31/M06 A2983 RMK AO2 SLP046 T03111061 $,M
HND,2021-08-31 19:56,-115.1344,35.9729,742.79,95.00,55.00,26.19,190.00,7.00,0.00,29.76,1005.80,10.00,M,CLR,M,M,M,M,M,M,M,M,M,M,M,M,M,M,93.10,KHND 311956Z 19007KT 10SM CLR 35/13 A2976 RMK AO2 SLP058 T03500128,M
NFL,2021-08-31 19:56,-118.7010,39.4166,1199.00,87.00,21.90,9.16,0.00,0.00,0.00,29.80,1006.90,2.00,M,OVC,M,M,M,5000.00,M,M,M,FU,M,M,M,M,M,M,82.86,KNFL 311956Z 00000KT 2SM FU OVC050 31/M06 A2980 RMK AO2 SLP069 FU OVC050 T03061056,M
INS,2021-08-31 19:58,-115.6733,36.5872,955.00,92.30,50.20,23.87,100.00,7.00,0.00,29.78,1002.90,10.00,M,CLR,M,M,M,M,M,M,M,M,M,M,M,M,M,M,89.26,KINS 311958Z AUTO 10007KT 10SM CLR 34/10 A2978 RMK AO2 SLP029 T03350101 $,M
LSV,2021-08-31 19:58,-115.0343,36.2362,570.00,96.80,54.00,23.90,150.00,6.00,0.00,29.70,1002.80,10.00,M,CLR,M,M,M,M,M,M,M,M,M,M,M,M,M,M,94.71,KLSV 311958Z AUTO 15006KT 10SM CLR 36/12 A2970 RMK AO2 SLP028 T03600122 $,M
RTS,2021-08-31 20:15,-119.8764,39.6682,1539.00,89.60,14.00,6.03,220.00,14.00,0.00,29.87,M,10.00,27.00,CLR,M,M,M,M,M,M,M,M,M,M,M,M,M,M,84.30,KRTS 312015Z AUTO 22014G27KT 180V250 10SM CLR 32/M10 A2987 RMK AO2,M
MEV,2021-08-31 20:15,-119.7500,38.9963,1441.42,80.60,32.00,17.14,M,3.00,0.00,29.86,M,1.00,M,CLR,M,M,M,M,M,M,M,HZ,M,M,M,M,M,M,78.82,KMEV 312015Z AUTO VRB03KT 1SM HZ CLR 27/00 A2986 RMK AO2,M
BVU,2021-08-31 20:15,-114.8611,35.9475,671.00,95.00,57.20,28.37,130.00,14.00,0.00,29.73,M,10.00,20.00,CLR,M,M,M,M,M,M,M,M,M,M,M,M,M,M,93.82,KBVU 312015Z AUTO 13014G20KT 10SM CLR 35/14 A2973 RMK AO2 LTG DSNT NW,M
BAM,2021-08-31 20:15,-116.8743,40.5990,1382.36,84.20,19.40,9.04,220.00,4.00,0.00,29.86,M,7.00,M,CLR,M,M,M,M,M,M,M,M,M,M,M,M,M,M,80.68,KBAM 312015Z AUTO 22004KT 7SM CLR 29/M07 A2986 RMK AO1,M
HTH,2021-08-31 20:15,-118.6315,38.5448,1282.89,91.40,19.40,7.19,350.00,8.00,0.00,29.79,M,8.00,13.00,CLR,M,M,M,M,M,M,M,M,M,M,M,M,M,M,85.86,KHTH 312015Z AUTO 35008G13KT 8SM CLR 33/M07 A2979 RMK A01,M
TMT,2021-08-31 20:15,-117.1971,39.4643,1749.34,89.20,23.70,9.25,270.00,13.00,0.00,29.91,M,10.00,21.00,CLR,M,M,M,M,M,M,M,M,M,M,M,M,M,M,84.50,KTMT 312015Z AUTO 27013G21KT 10SM CLR 32/M05 A2991 RMK AO2 T03181046,M
CXP,2021-08-31 20:15,-119.7326,39.1923,1431.00,89.60,14.00,6.03,240.00,10.00,0.00,29.86,M,6.00,17.00,CLR,M,M,M,M,M,M,M,HZ,M,M,M,M,M,M,84.30,KCXP 312015Z AUTO 24010G17KT 6SM HZ CLR 32/M10 A2986 RMK AO2,M
BVU,2021-08-31 20:35,-114.8611,35.9475,671.00,95.00,55.40,26.58,120.00,10.00,0.00,29.71,M,10.00,18.00,FEW,M,M,M,8500.00,M,M,M,M,M,M,M,M,M,M,93.22,KBVU 312035Z AUTO 12010G18KT 10SM FEW085 35/13 A2971 RMK AO2,M
CXP,2021-08-31 20:35,-119.7326,39.1923,1431.00,89.60,12.20,5.57,250.00,10.00,0.00,29.86,M,9.00,17.00,CLR,M,M,M,M,M,M,M,M,M,M,M,M,M,M,84.23,KCXP 312035Z AUTO 25010G17KT 210V280 9SM CLR 32/M11 A2986 RMK AO2,M
RTS,2021-08-31 20:35,-119.8764,39.6682,1539.00,89.60,10.40,5.14,220.00,13.00,0.00,29.87,M,10.00,22.00,CLR,M,M,M,M,M,M,M,M,M,M,M,M,M,M,84.17,KRTS 312035Z AUTO 22013G22KT 10SM CLR 32/M12 A2987 RMK AO2,M
MEV,2021-08-31 20:35,-119.7500,38.9963,1441.42,80.60,32.00,17.14,240.00,6.00,0.00,29.86,M,1.00,M,CLR,M,M,M,M,M,M,M,HZ,M,M,M,M,M,M,78.82,KMEV 312035Z AUTO 24006KT 1SM HZ CLR 27/00 A2986 RMK AO2,M
TMT,2021-08-31 20:35,-117.1971,39.4643,1749.34,89.80,21.40,8.24,270.00,17.00,0.00,29.91,M,5.00,20.00,CLR,M,M,M,M,M,M,M,HZ,M,M,M,M,M,M,84.80,KTMT 312035Z AUTO 27017G20KT 5SM HZ CLR 32/M06 A2991 RMK AO2 T03211059,M
BAM,2021-08-31 20:35,-116.8743,40.5990,1382.36,86.00,21.20,9.21,200.00,6.00,0.00,29.85,M,7.00,M,CLR,M,M,M,M,M,M,M,M,M,M,M,M,M,M,82.04,KBAM 312035Z AUTO 20006KT 7SM CLR 30/M06 A2985 RMK AO1,M
HTH,2021-08-31 20:35,-118.6315,38.5448,1282.89,91.40,23.00,8.38,330.00,7.00,0.00,29.78,M,9.00,13.00,CLR,M,M,M,M,M,M,M,M,M,M,M,M,M,M,86.08,KHTH 312035Z AUTO 33007G13KT 9SM CLR 33/M05 A2978 RMK A01,M
P68,2021-08-31 20:53,-116.0056,39.6014,1993.00,88.00,23.00,9.33,M,M,0.00,29.90,1003.20,M,M,M,M,M,M,M,M,M,M,M,M,M,M,M,M,M,83.58,KP68 312053Z AUTO 31/M05 A2990 RMK AO1 SLP032 T03111050 58021,M
ELY,2021-08-31 20:53,-114.8453,39.2950,1909.00,84.00,36.00,18.01,0.00,0.00,0.00,29.95,1003.60,10.00,M,CLR,M,M,M,M,M,M,M,M,M,M,M,M,M,M,81.20,KELY 312053Z AUTO 00000KT 10SM CLR 29/02 A2995 RMK AO2 SLP036 T02890022 56016,M
LOL,2021-08-31 20:53,-118.5701,40.0684,1192.43,91.00,19.90,7.44,200.00,7.00,0.00,29.78,1003.60,5.00,M,OVC,M,M,M,3700.00,M,M,M,HZ,M,M,M,M,M,M,85.59,KLOL 312053Z AUTO 20007KT 5SM HZ OVC037 33/M07 A2978 RMK AO2 SLP036 T03281067 58023,M
VGT,2021-08-31 20:53,-115.1933,36.2111,667.00,99.00,54.00,22.35,100.00,10.00,0.00,29.68,1003.40,10.00,15.00,CLR,M,M,M,M,M,M,M,M,M,M,M,M,M,M,97.06,KVGT 312053Z 10010G15KT 10SM CLR 37/12 A2968 RMK AO2 SLP034 T03720122 58026,M
DRA,2021-08-31 20:53,-116.0278,36.6206,1009.00,97.00,44.00,16.41,200.00,15.00,0.00,29.76,1001.90,10.00,24.00,CLR,M,M,M,M,M,M,M,M,M,M,M,27.00,210.00,2021-08-31 20:43,92.92,KDRA 312053Z AUTO 20015G24KT 10SM CLR 36/07 A2976 RMK AO2 PK WND 21027/2043 SLP019 T03610067 56017,M
TMT,2021-08-31 20:55,-117.1971,39.4643,1749.34,90.70,17.20,6.69,270.00,13.00,0.00,29.90,M,10.00,25.00,CLR,M,M,M,M,M,M,M,M,M,M,M,M,M,M,85.23,KTMT 312055Z AUTO 27013G25KT 10SM CLR 33/M08 A2990 RMK AO2 T03261082,M
BVU,2021-08-31 20:55,-114.8611,35.9475,671.00,96.80,55.40,25.15,140.00,12.00,0.00,29.70,M,10.00,19.00,FEW,M,M,M,8500.00,M,M,M,M,M,M,M,M,M,M,95.14,KBVU 312055Z AUTO 14012G19KT 10SM FEW085 36/13 A2970 RMK AO2,M
RNO,2021-08-31 20:55,-119.7711,39.4839,1341.00,94.00,18.00,6.27,280.00,6.00,0.00,29.80,1002.80,10.00,19.00,CLR,M,M,M,M,M,M,M,M,M,M,M,M,M,M,87.61,KRNO 312055Z 28006G19KT 10SM CLR 34/M08 A2980 RMK AO2 SLP028 FU ALF ALQDS HZ ALQDS T03441078 56021 $,M
MEV,2021-08-31 20:55,-119.7500,38.9963,1441.42,80.60,30.20,15.94,210.00,5.00,0.00,29.86,M,1.00,M,CLR,M,M,M,M,M,M,M,HZ,M,M,M,M,M,M,78.77,KMEV 312055Z AUTO 21005KT 1SM HZ CLR 27/M01 A2986 RMK AO2,M
BAM,2021-08-31 20:55,-116.8743,40.5990,1382.36,87.80,19.40,8.06,220.00,10.00,0.00,29.84,M,7.00,15.00,CLR,M,M,M,M,M,M,M,M,M,M,M,M,M,M,83.23,KBAM 312055Z AUTO 22010G15KT 7SM CLR 31/M07 A2984 RMK AO1,M
HTH,2021-08-31 20:55,-118.6315,38.5448,1282.89,93.20,17.60,6.30,330.00,9.00,0.00,29.77,M,10.00,M,CLR,M,M,M,M,M,M,M,M,M,M,M,M,M,M,87.08,KHTH 312055Z AUTO 33009KT 10SM CLR 34/M08 A2977 RMK A01,M
RTS,2021-08-31 20:55,-119.8764,39.6682,1539.00,89.60,10.40,5.14,220.00,15.00,0.00,29.87,M,10.00,21.00,CLR,M,M,M,M,M,M,M,M,M,M,M,M,M,M,84.17,KRTS 312055Z AUTO 22015G21KT 10SM CLR 32/M12 A2987 RMK AO2,M
CXP,2021-08-31 20:55,-119.7326,39.1923,1431.00,91.40,17.60,6.66,250.00,9.00,0.00,29.86,M,9.00,17.00,CLR,M,M,M,M,M,M,M,M,M,M,M,M,M,M,85.76,KCXP 312055Z AUTO 25009G17KT 220V290 9SM CLR 33/M08 A2986 RMK AO2,M
WMC,2021-08-31 20:56,-117.8072,40.9019,1315.00,91.00,18.00,6.86,240.00,12.00,0.00,29.80,1003.90,4.00,M,OVC,M,M,M,3300.00,M,M,M,HZ,M,M,M,M,M,M,85.49,KWMC 312056Z AUTO 24012KT 4SM HZ OVC033 33/M08 A2980 RMK AO2 SLP039 T03281078 58020 $,M
NFL,2021-08-31 20:56,-118.7010,39.4166,1199.00,90.00,23.00,8.76,M,5.00,0.00,29.78,1006.30,3.00,M,OVC,M,M,M,5000.00,M,M,M,FU,M,M,M,M,M,M,85.05,KNFL 312056Z VRB05KT 3SM FU OVC050 32/M05 A2978 RMK AO2 SLP063 FU OVC050 T03221050 56021,M
HND,2021-08-31 20:56,-115.1344,35.9729,742.79,98.00,53.00,22.22,190.00,7.00,0.00,29.73,1004.70,10.00,M,CLR,M,M,M,M,M,M,M,M,M,M,M,M,M,M,95.83,KHND 312056Z 19007KT 160V240 10SM CLR 37/12 A2973 RMK AO2 SLP047 T03670117 58025,M
EKO,2021-08-31 20:56,-115.7860,40.8242,1367.00,88.00,23.00,9.33,M,4.00,0.00,29.86,1005.30,5.00,M,CLR,M,M,M,M,M,M,M,HZ,M,M,M,M,M,M,83.58,KEKO 312056Z AUTO VRB04KT 5SM HZ CLR 31/M05 A2986 RMK AO2 SLP053 T03111050 56022,M
TPH,2021-08-31 20:56,-117.0904,38.0505,1654.00,87.00,37.00,16.97,M,M,0.00,29.91,1004.50,5.00,M,SCT,M,M,M,3300.00,M,M,M,HZ,M,M,M,M,M,M,83.59,KTPH 312056Z AUTO 5SM HZ SCT033 31/03 A2991 RMK AO2 SLP045 T03060028 58021,M
LAS,2021-08-31 20:56,-115.1634,36.0719,663.00,99.00,51.00,20.09,100.00,7.00,0.00,29.70,1002.30,10.00,M,FEW,SCT,SCT,M,12000.00,15000.00,22000.00,M,M,M,M,M,M,M,M,96.24,KLAS 312056Z 10007KT 10SM FEW120 SCT150 SCT220 37/11 A2970 RMK AO2 SLP023 CB DSNT S AND NW T03720106 58024,M
LSV,2021-08-31 20:58,-115.0343,36.2362,570.00,98.80,54.50,22.90,200.00,8.00,0.00,29.67,1001.80,10.00,M,FEW,M,M,M,13000.00,M,M,M,M,M,M,M,M,M,M,97.01,KLSV 312058Z AUTO 20008KT 10SM FEW130 37/13 A2967 RMK AO2 SLP018 T03710125 57025 $,M
INS,2021-08-31 20:58,-115.6733,36.5872,955.00,90.00,49.50,24.99,80.00,8.00,0.00,29.76,1002.30,10.00,M,CLR,M,M,M,M,M,M,M,M,M,M,M,M,M,M,86.98,KINS 312058Z AUTO 08008KT 10SM CLR 32/10 A2976 RMK AO2 SLP023 T03220097 57017 $,M
CXP,2021-08-31 21:15,-119.7326,39.1923,1431.00,91.40,17.60,6.66,240.00,7.00,0.00,29.86,M,9.00,19.00,CLR,M,M,M,M,M,M,M,M,M,M,M,M,M,M,85.76,KCXP 312115Z AUTO 24007G19KT 9SM CLR 33/M08 A2986 RMK AO2,M
MEV,2021-08-31 21:15,-119.7500,38.9963,1441.42,82.40,28.40,13.96,0.00,0.00,0.00,29.85,M,1.00,M,CLR,M,M,M,M,M,M,M,HZ,M,M,M,M,M,M,79.94,KMEV 312115Z AUTO 00000KT 1SM HZ CLR 28/M02 A2985 RMK AO2,M
BAM,2021-08-31 21:15,-116.8743,40.5990,1382.36,87.80,19.40,8.06,220.00,10.00,0.00,29.84,M,7.00,M,CLR,M,M,M,M,M,M,M,M,M,M,M,M,M,M,83.23,KBAM 312115Z AUTO 22010KT 7SM CLR 31/M07 A2984 RMK AO1,M
HTH,2021-08-31 21:15,-118.6315,38.5448,1282.89,95.00,15.80,5.51,340.00,11.00,0.00,29.76,M,10.00,M,CLR,M,M,M,M,M,M,M,M,M,M,M,M,M,M,88.29,KHTH 312115Z AUTO 34011KT 10SM CLR 35/M09 A2976 RMK A01,M
TMT,2021-08-31 21:15,-117.1971,39.4643,1749.34,90.70,18.50,7.08,260.00,12.00,0.00,29.90,M,10.00,21.00,CLR,M,M,M,M,M,M,M,M,M,M,M,M,M,M,85.30,KTMT 312115Z AUTO 26012G21KT 10SM CLR 33/M07 A2990 RMK AO2 T03261075,M
BVU,2021-08-31 21:15,-114.8611,35.9475,671.00,96.80,55.40,25.15,140.00,11.00,0.00,29.70,M,10.00,21.00,CLR,M,M,M,M,M,M,M,M,M,M,M,M,M,M,95.14,KBVU 312115Z AUTO 14011G21KT 10SM CLR 36/13 A2970 RMK AO2,M
RTS,2021-08-31 21:15,-119.8764,39.6682,1539.00,89.60,8.60,4.74,230.00,19.00,0.00,29.86,M,10.00,M,CLR,M,M,M,M,M,M,M,M,M,M,M,M,M,M,84.12,KRTS 312115Z AUTO 23019KT 10SM CLR 32/M13 A2986 RMK AO2,M
HTH,2021-08-31 21:35,-118.6315,38.5448,1282.89,95.00,15.80,5.51,340.00,13.00,0.00,29.76,M,10.00,M,CLR,M,M,M,M,M,M,M,M,M,M,M,M,M,M,88.29,KHTH 312135Z AUTO 34013KT 10SM CLR 35/M09 A2976 RMK A01,M
BVU,2021-08-31 21:35,-114.8611,35.9475,671.00,95.00,55.40,26.58,160.00,15.00,0.00,29.69,M,10.00,M,CLR,M,M,M,M,M,M,M,M,M,M,M,M,M,M,93.22,KBVU 312135Z AUTO 16015KT 10SM CLR 35/13 A2969 RMK AO2 LTG DSNT SW,M
CXP,2021-08-31 21:35,-119.7326,39.1923,1431.00,91.40,15.80,6.16,260.00,14.00,0.00,29.85,M,10.00,21.00,CLR,M,M,M,M,M,M,M,M,M,M,M,M,M,M,85.68,KCXP 312135Z AUTO 26014G21KT 10SM CLR 33/M09 A2985 RMK AO2,M
RTS,2021-08-31 21:35,-119.8764,39.6682,1539.00,89.60,8.60,4.74,230.00,17.00,0.00,29.86,M,10.00,24.00,CLR,M,M,M,M,M,M,M,M,M,M,M,M,M,M,84.12,KRTS 312135Z AUTO 23017G24KT 10SM CLR 32/M13 A2986 RMK AO2,M
MEV,2021-08-31 21:35,-119.7500,38.9963,1441.42,82.40,30.20,15.03,0.00,0.00,0.00,29.85,M,1.00,M,CLR,M,M,M,M,M,M,M,HZ,M,M,M,M,M,M,79.97,KMEV 312135Z AUTO 00000KT 1SM HZ CLR 28/M01 A2985 RMK AO2,M
BAM,2021-08-31 21:35,-116.8743,40.5990,1382.36,89.60,19.40,7.61,240.00,8.00,0.00,29.82,M,7.00,M,CLR,M,M,M,M,M,M,M,M,M,M,M,M,M,M,84.54,KBAM 312135Z AUTO 24008KT 7SM CLR 32/M07 A2982 RMK AO1,M
TMT,2021-08-31 21:35,-117.1971,39.4643,1749.34,90.30,17.20,6.77,260.00,12.00,0.00,29.90,M,10.00,20.00,CLR,M,M,M,M,M,M,M,M,M,M,M,M,M,M,84.94,KTMT 312135Z AUTO 26012G20KT 10SM CLR 32/M08 A2990 RMK AO2 T03241082,M
VGT,2021-08-31 21:53,-115.1933,36.2111,667.00,99.00,54.00,22.35,120.00,10.00,0.00,29.65,1002.50,10.00,17.00,SCT,M,M,M,11000.00,M,M,M,M,M,M,M,M,M,M,97.06,KVGT 312153Z 12010G17KT 10SM SCT110 37/12 A2965 RMK AO2 LTG DSNT SE SLP025 T03720122,M
LOL,2021-08-31 21:53,-118.5701,40.0684,1192.43,93.00,19.90,6.99,190.00,11.00,0.00,29.75,1002.80,5.00,M,OVC,M,M,M,3600.00,M,M,M,HZ,M,M,M,M,M,M,87.06,KLOL 312153Z AUTO 19011KT 5SM HZ OVC036 34/M07 A2975 RMK AO2 SLP028 T03391067,M
DRA,2021-08-31 21:53,-116.0278,36.6206,1009.00,97.00,41.00,14.57,210.00,11.00,0.00,29.73,1000.90,10.00,22.00,CLR,M,M,M,M,M,M,M,M,M,M,M,27.00,230.00,2021-08-31 21:12,92.58,KDRA 312153Z AUTO 21011G22KT 10SM CLR 36/05 A2973 RMK AO2 PK WND 23027/2112 SLP009 T03610050 $,M
ELY,2021-08-31 21:53,-114.8453,39.2950,1909.00,82.00,37.00,19.99,240.00,5.00,0.00,29.93,1003.60,10.00,M,FEW,M,M,M,10000.00,M,M,M,M,M,M,M,M,M,M,79.86,KELY 312153Z AUTO 24005KT 10SM FEW100 28/03 A2993 RMK AO2 SLP036 T02780028,M
P68,2021-08-31 21:53,-116.0056,39.6014,1993.00,90.00,23.00,8.76,270.00,8.00,0.00,29.87,1002.40,M,M,M,M,M,M,M,M,M,M,M,M,M,M,M,M,M,85.05,KP68 312153Z AUTO 27008KT 32/M05 A2987 RMK AO1 SLP024 T03221050,M
CXP,2021-08-31 21:55,-119.7326,39.1923,1431.00,89.60,15.80,6.52,270.00,14.00,0.00,29.85,M,10.00,21.00,CLR,M,M,M,M,M,M,M,M,M,M,M,M,M,M,84.37,KCXP 312155Z AUTO 27014G21KT 10SM CLR 32/M09 A2985 RMK AO2,M
RNO,2021-08-31 21:55,-119.7711,39.4839,1341.00,94.00,15.10,5.53,300.00,15.00,0.00,29.79,1002.50,10.00,22.00,CLR,M,M,M,M,M,M,M,M,M,M,M,28.00,240.00,2021-08-31 21:25,87.46,KRNO 312155Z 30015G22KT 10SM CLR 34/M09 A2979 RMK AO2 PK WND 24028/2125 SLP025 FU ALF DSNT SE THRU SW AND NW THRU NE T03441094 $,M
RTS,2021-08-31 21:55,-119.8764,39.6682,1539.00,89.60,8.60,4.74,230.00,15.00,0.00,29.85,M,10.00,22.00,CLR,M,M,M,M,M,M,M,M,M,M,M,M,M,M,84.12,KRTS 312155Z AUTO 23015G22KT 10SM CLR 32/M13 A2985 RMK AO2,M
MEV,2021-08-31 21:55,-119.7500,38.9963,1441.42,84.20,28.40,13.18,260.00,5.00,0.00,29.84,M,1.00,M,CLR,M,M,M,M,M,M,M,HZ,M,M,M,M,M,M,81.25,KMEV 312155Z AUTO 26005KT 1SM HZ CLR 29/M02 A2984 RMK AO2,M
HTH,2021-08-31 21:55,-118.6315,38.5448,1282.89,95.00,10.40,4.34,340.00,13.00,0.00,29.75,M,10.00,19.00,CLR,M,M,M,M,M,M,M,M,M,M,M,M,M,M,88.04,KHTH 312155Z AUTO 34013G19KT 10SM CLR 35/M12 A2975 RMK A01,M
BAM,2021-08-31 21:55,-116.8743,40.5990,1382.36,89.60,19.40,7.61,220.00,11.00,0.00,29.81,M,5.00,15.00,CLR,M,M,M,M,M,M,M,M,M,M,M,M,M,M,84.54,KBAM 312155Z AUTO 22011G15KT 5SM CLR 32/M07 A2981 RMK AO1,M
TMT,2021-08-31 21:55,-117.1971,39.4643,1749.34,90.00,14.00,5.93,260.00,10.00,0.00,29.89,M,10.00,15.00,CLR,M,M,M,M,M,M,M,M,M,M,M,M,M,M,84.66,KTMT 312155Z AUTO 26010G15KT 10SM CLR 32/M10 A2989 RMK AO2 T03231100,M
HND,2021-08-31 21:56,-115.1344,35.9729,742.79,94.00,58.00,30.10,150.00,13.00,0.00,29.71,1004.20,10.00,M,SCT,M,M,M,11000.00,M,M,M,M,M,M,M,M,M,M,92.90,KHND 312156Z 15013KT 10SM SCT110 34/14 A2971 RMK AO2 LTG DSNT SE SLP042 T03440144,M
EKO,2021-08-31 21:56,-115.7860,40.8242,1367.00,89.00,21.00,8.28,270.00,9.00,0.00,29.84,1004.90,5.00,17.00,CLR,M,M,M,M,M,M,M,HZ,M,M,M,M,M,M,84.26,KEKO 312156Z AUTO 27009G17KT 220V290 5SM HZ CLR 32/M06 A2984 RMK AO2 SLP049 T03171061,M
LAS,2021-08-31 21:56,-115.1634,36.0719,663.00,98.00,52.00,21.34,180.00,4.00,0.00,29.67,1001.60,10.00,M,FEW,SCT,SCT,M,12000.00,15000.00,22000.00,M,M,M,M,M,M,M,M,95.53,KLAS 312156Z 18004KT 10SM FEW120CB SCT150 SCT220 37/11 A2967 RMK AO2 LTG DSNT SE SLP016 CB SE-S MOV N ACC DSNT NE-SE T03670111,M
TPH,2021-08-31 21:56,-117.0904,38.0505,1654.00,89.00,36.00,15.31,120.00,4.00,0.00,29.88,1003.70,4.00,M,BKN,M,M,M,3500.00,M,M,M,HZ,M,M,M,M,M,M,85.21,KTPH 312156Z AUTO 12004KT 4SM HZ BKN035 32/02 A2988 RMK AO2 SLP037 T03170022,M
WMC,2021-08-31 21:56,-117.8072,40.9019,1315.00,91.00,18.00,6.86,290.00,7.00,0.00,29.78,1003.30,5.00,15.00,BKN,M,M,M,3900.00,M,M,M,HZ,M,M,M,M,M,M,85.49,KWMC 312156Z AUTO 29007G15KT 5SM HZ BKN039 33/M08 A2978 RMK AO2 SLP033 T03281078 $,M
NFL,2021-08-31 21:56,-118.7010,39.4166,1199.00,91.00,19.00,7.16,0.00,0.00,0.00,29.76,1005.60,3.00,M,OVC,M,M,M,5000.00,M,M,M,FU,M,M,M,M,M,M,85.54,KNFL 312156Z 00000KT 3SM FU OVC050 33/M07 A2976 RMK AO2 SLP056 T03281072,M
INS,2021-08-31 21:58,-115.6733,36.5872,955.00,92.00,49.00,22.88,130.00,7.00,0.00,29.73,1001.30,10.00,M,FEW,FEW,M,M,17000.00,20000.00,M,M,M,M,M,M,M,M,M,88.85,KINS 312158Z AUTO 13007KT 10SM FEW170 FEW200 33/09 A2973 RMK AO2 SLP013 T03340094 $,M
LSV,2021-08-31 21:58,-115.0343,36.2362,570.00,98.20,55.20,23.92,120.00,15.00,0.00,29.64,1000.80,10.00,19.00,FEW,M,M,M,12000.00,M,M,M,M,M,M,M,M,M,M,96.59,KLSV 312158Z AUTO 12015G19KT 10SM FEW120 37/13 A2964 RMK AO2 SLP008 T03680129 $,M
HTH,2021-08-31 22:15,-118.6315,38.5448,1282.89,96.80,8.60,3.79,320.00,13.00,0.00,29.74,M,10.00,M,CLR,M,M,M,M,M,M,M,M,M,M,M,M,M,M,89.47,KHTH 312215Z AUTO 32013KT 10SM CLR 36/M13 A2974 RMK A01,M
TMT,2021-08-31 22:15,-117.1971,39.4643,1749.34,90.30,18.70,7.23,240.00,12.00,0.00,29.89,M,10.00,17.00,CLR,M,M,M,M,M,M,M,M,M,M,M,M,M,M,85.01,KTMT 312215Z AUTO 24012G17KT 10SM CLR 32/M07 A2989 RMK AO2 T03241074,M
CXP,2021-08-31 22:15,-119.7326,39.1923,1431.00,91.40,14.00,5.69,270.00,12.00,0.00,29.84,M,10.00,20.00,CLR,M,M,M,M,M,M,M,M,M,M,M,M,M,M,85.60,KCXP 312215Z AUTO 27012G20KT 10SM CLR 33/M10 A2984 RMK AO2,M
MEV,2021-08-31 22:15,-119.7500,38.9963,1441.42,84.20,19.40,9.04,270.00,9.00,0.00,29.84,M,1.75,16.00,CLR,M,M,M,M,M,M,M,HZ,M,M,M,M,M,M,80.68,KMEV 312215Z AUTO 27009G16KT 1 3/4SM HZ CLR 29/M07 A2984 RMK AO2,M
RTS,2021-08-31 22:15,-119.8764,39.6682,1539.00,89.60,3.20,3.71,230.00,19.00,0.00,29.85,M,10.00,M,CLR,M,M,M,M,M,M,M,M,M,M,M,M,M,M,83.99,KRTS 312215Z AUTO 23019KT 10SM CLR 32/M16 A2985 RMK AO2,M
BAM,2021-08-31 22:15,-116.8743,40.5990,1382.36,89.60,19.40,7.61,220.00,10.00,0.00,29.80,M,5.00,17.00,CLR,M,M,M,M,M,M,M,M,M,M,M,M,M,M,84.54,KBAM 312215Z AUTO 22010G17KT 5SM CLR 32/M07 A2980 RMK AO1,M
ELY,2021-08-31 22:20,-114.8453,39.2950,1909.00,84.00,28.90,13.53,350.00,11.00,0.00,29.92,M,9.00,20.00,FEW,M,M,M,11000.00,M,M,M,M,M,M,M,M,M,M,81.10,KELY 312220Z AUTO 35011G20KT 9SM FEW110 29/M02 A2992 RMK AO2 WSHFT 2200 T02891017,M
LAS,2021-08-31 22:22,-115.1634,36.0719,663.00,96.00,55.00,25.32,160.00,9.00,0.00,29.67,M,10.00,M,FEW,SCT,SCT,M,12000.00,15000.00,22000.00,M,TS,M,M,M,M,M,M,94.27,KLAS 312222Z 16009KT 10SM TS FEW120CB SCT150 SCT220 36/13 A2967 RMK AO2 LTG DSNT SE TSB22 OCNL LTGICCG SE TS SE MOV N T03560128,M
HND,2021-08-31 22:25,-115.1344,35.9729,742.79,82.40,66.20,58.08,210.00,18.00,0.02,29.72,M,9.00,M,FEW,BKN,BKN,M,4900.00,7000.00,9000.00,M,TSRA,M,M,M,M,M,M,84.63,KHND 312225Z 21018KT 9SM TSRA FEW049 BKN070 BKN090 28/19 A2972 RMK AO2 TSB19RAB10 P0002,M
TMT,2021-08-31 22:35,-117.1971,39.4643,1749.34,89.20,17.20,7.01,260.00,10.00,0.00,29.87,M,10.00,17.00,CLR,M,M,M,M,M,M,M,M,M,M,M,M,M,M,84.14,KTMT 312235Z AUTO 26010G17KT 140V350 10SM CLR 32/M08 A2987 RMK AO2 T03181082,M
HTH,2021-08-31 22:35,-118.6315,38.5448,1282.89,96.80,8.60,3.79,320.00,21.00,0.00,29.73,M,10.00,M,CLR,M,M,M,M,M,M,M,M,M,M,M,M,M,M,89.47,KHTH 312235Z AUTO 32021KT 10SM CLR 36/M13 A2973 RMK A01,M
CXP,2021-08-31 22:35,-119.7326,39.1923,1431.00,89.60,14.00,6.03,270.00,10.00,0.00,29.84,M,9.00,16.00,CLR,M,M,M,M,M,M,M,M,M,M,M,M,M,M,84.30,KCXP 312235Z AUTO 27010G16KT 9SM CLR 32/M10 A2984 RMK AO2,M
RTS,2021-08-31 22:35,-119.8764,39.6682,1539.00,89.60,3.20,3.71,230.00,17.00,0.00,29.85,M,10.00,27.00,CLR,M,M,M,M,M,M,M,M,M,M,M,M,M,M,83.99,KRTS 312235Z AUTO 23017G27KT 10SM CLR 32/M16 A2985 RMK AO2,M
MEV,2021-08-31 22:35,-119.7500,38.9963,1441.42,84.20,17.60,8.37,260.00,12.00,0.00,29.83,M,2.00,M,CLR,M,M,M,M,M,M,M,HZ,M,M,M,M,M,M,80.59,KMEV 312235Z AUTO 26012KT 2SM HZ CLR 29/M08 A2983 RMK AO2,M
BAM,2021-08-31 22:35,-116.8743,40.5990,1382.36,91.40,19.40,7.19,210.00,9.00,0.00,29.80,M,5.00,M,CLR,M,M,M,M,M,M,M,M,M,M,M,M,M,M,85.86,KBAM 312235Z AUTO 21009KT 5SM CLR 33/M07 A2980 RMK AO1,M
HND,2021-08-31 22:41,-115.1344,35.9729,742.79,82.40,64.40,54.55,140.00,11.00,0.09,29.71,M,9.00,M,FEW,BKN,OVC,M,3700.00,7000.00,9000.00,M,-RA,M,M,M,M,M,M,83.98,KHND 312241Z 14011KT 9SM -RA FEW037 BKN070 OVC090 28/18 A2971 RMK AO2 WSHFT 2227 TSB19E38RAB10 P0009,M
HND,2021-08-31 22:49,-115.1344,35.9729,742.79,82.40,62.60,51.21,140.00,11.00,0.09,29.71,M,10.00,M,FEW,BKN,OVC,M,3700.00,7000.00,9000.00,M,VCTS -RA,M,M,M,M,M,M,83.41,KHND 312249Z 14011KT 10SM VCTS -RA FEW037 BKN070 OVC090 28/17 A2971 RMK AO2 WSHFT 2227 LTG DSNT S TSB19E38B43RAB10 P0009,M
DRA,2021-08-31 22:53,-116.0278,36.6206,1009.00,96.00,42.00,15.62,220.00,9.00,0.00,29.72,1000.50,10.00,20.00,CLR,M,M,M,M,M,M,M,M,M,M,M,M,M,M,91.83,KDRA 312253Z AUTO 22009G20KT 10SM CLR 36/06 A2972 RMK AO2 SLP005 T03560056,M
ELY,2021-08-31 22:53,-114.8453,39.2950,1909.00,85.00,34.00,16.16,0.00,0.00,0.00,29.90,1002.20,10.00,M,CLR,M,M,M,M,M,M,M,M,M,M,M,M,M,M,81.82,KELY 312253Z AUTO 00000KT 10SM CLR 29/01 A2990 RMK AO2 WSHFT 2200 SLP022 T02940011,M
LOL,2021-08-31 22:53,-118.5701,40.0684,1192.43,93.00,19.00,6.73,170.00,7.00,0.00,29.72,1002.30,5.00,M,BKN,M,M,M,4000.00,M,M,M,HZ,M,M,M,M,M,M,87.01,KLOL 312253Z AUTO 17007KT 130V200 5SM HZ BKN040 34/M07 A2972 RMK AO2 SLP023 T03391072,M
VGT,2021-08-31 22:53,-115.1933,36.2111,667.00,99.00,58.00,25.74,140.00,20.00,0.00,29.64,1002.00,10.00,M,FEW,M,M,M,12000.00,M,M,M,M,M,M,M,M,M,M,98.49,KVGT 312253Z 14020KT 10SM FEW120 37/14 A2964 RMK AO2 LTG DSNT S SLP020 T03720144,M
P68,2021-08-31 22:53,-116.0056,39.6014,1993.00,89.00,19.90,7.90,210.00,5.00,0.00,29.85,1001.40,M,M,M,M,M,M,M,M,M,M,M,M,M,M,M,M,M,84.20,KP68 312253Z AUTO 21005KT 32/M07 A2985 RMK AO1 SLP014 T03171067,M
TMT,2021-08-31 22:55,-117.1971,39.4643,1749.34,90.00,18.70,7.27,240.00,12.00,0.00,29.87,M,10.00,18.00,CLR,M,M,M,M,M,M,M,M,M,M,M,M,M,M,84.87,KTMT 312255Z AUTO 24012G18KT 10SM CLR 32/M07 A2987 RMK AO2 T03231074,M
CXP,2021-08-31 22:55,-119.7326,39.1923,1431.00,89.60,12.20,5.57,240.00,9.00,0.00,29.84,M,10.00,14.00,CLR,M,M,M,M,M,M,M,M,M,M,M,M,M,M,84.23,KCXP 312255Z AUTO 24009G14KT 210V280 10SM CLR 32/M11 A2984 RMK AO2,M
RNO,2021-08-31 22:55,-119.7711,39.4839,1341.00,93.00,12.90,5.16,300.00,19.00,0.00,29.77,1001.90,10.00,23.00,FEW,M,M,M,6000.00,M,M,M,M,M,M,M,M,M,M,86.71,KRNO 312255Z 30019G23KT 10SM FEW060 34/M11 A2977 RMK AO2 SLP019 FU FEW060 FU ALF DSNT ALQDS T03391106 $,M
RTS,2021-08-31 22:55,-119.8764,39.6682,1539.00,89.60,3.20,3.71,230.00,19.00,0.00,29.85,M,10.00,M,CLR,M,M,M,M,M,M,M,M,M,M,M,M,M,M,83.99,KRTS 312255Z AUTO 23019KT 10SM CLR 32/M16 A2985 RMK AO2,M
MEV,2021-08-31 22:55,-119.7500,38.9963,1441.42,86.00,19.40,8.53,270.00,9.00,0.00,29.83,M,2.00,M,CLR,M,M,M,M,M,M,M,HZ,M,M,M,M,M,M,81.94,KMEV 312255Z AUTO 27009KT 2SM HZ CLR 30/M07 A2983 RMK AO2,M
BAM,2021-08-31 22:55,-116.8743,40.5990,1382.36,91.40,19.40,7.19,240.00,7.00,0.00,29.78,M,7.00,14.00,CLR,M,M,M,M,M,M,M,M,M,M,M,M,M,M,85.86,KBAM 312255Z AUTO 24007G14KT 7SM CLR 33/M07 A2978 RMK AO1,M
HTH,2021-08-31 22:55,-118.6315,38.5448,1282.89,96.80,8.60,3.79,330.00,17.00,0.00,29.73,M,10.00,23.00,CLR,M,M,M,M,M,M,M,M,M,M,M,M,M,M,89.47,KHTH 312255Z AUTO 33017G23KT 10SM CLR 36/M13 A2973 RMK A01,M
HND,2021-08-31 22:56,-115.1344,35.9729,742.79,85.00,62.00,46.42,160.00,13.00,0.09,29.71,1004.50,10.00,M,FEW,BKN,OVC,M,3700.00,7000.00,9000.00,M,VCTS,M,M,M,M,M,M,85.49,KHND 312256Z 16013KT 10SM VCTS FEW037 BKN070 OVC090 29/17 A2971 RMK AO2 WSHFT 2227 LTG DSNT S AND SW TSB19E38B43RAB10E54 SLP045 P0009 T02940167,M
EKO,2021-08-31 22:56,-115.7860,40.8242,1367.00,89.00,18.00,7.28,290.00,14.00,0.00,29.82,1003.90,4.00,19.00,CLR,M,M,M,M,M,M,M,HZ,M,M,M,M,M,M,84.10,KEKO 312256Z AUTO 29014G19KT 4SM HZ CLR 32/M08 A2982 RMK AO2 SLP039 T03171078,M
LAS,2021-08-31 22:56,-115.1634,36.0719,663.00,88.00,61.00,40.44,180.00,8.00,T,29.66,1001.50,10.00,15.00,SCT,BKN,BKN,M,12000.00,14000.00,18000.00,M,TS,M,M,M,M,M,M,88.02,KLAS 312256Z 18008G15KT 10SM TS SCT120CB BKN140 BKN180 31/16 A2966 RMK AO2 LTG DSNT S RAB35E48 TSB22 SLP015 OCNL LTGICCG OHD-S TS OHD-S MOV SLWLY N CB DSNT ALQDS P0000 T03110161,M
WMC,2021-08-31 22:56,-117.8072,40.9019,1315.00,92.00,17.10,6.42,310.00,4.00,0.00,29.76,1002.80,6.00,M,CLR,M,M,M,M,M,M,M,HZ,M,M,M,M,M,M,86.10,KWMC 312256Z AUTO 31004KT 6SM HZ CLR 33/M08 A2976 RMK AO2 SLP028 T03331083 $,M
TPH,2021-08-31 22:56,-117.0904,38.0505,1654.00,89.00,34.00,14.14,M,M,0.00,29.85,1002.50,7.00,M,CLR,M,M,M,M,M,M,M,M,M,M,M,M,M,M,85.17,KTPH 312256Z AUTO 7SM CLR 32/01 A2985 RMK AO2 SLP025 T03170011,M
NFL,2021-08-31 22:56,-118.7010,39.4166,1199.00,92.00,15.10,5.88,0.00,0.00,0.00,29.73,1004.80,3.00,M,BKN,M,M,M,5000.00,M,M,M,FU,M,M,M,M,M,M,86.01,KNFL 312256Z 00000KT 3SM FU BKN050 33/M09 A2973 RMK AO2 SLP048 FU BKN050 T03331094,M
LSV,2021-08-31 22:58,-115.0343,36.2362,570.00,95.20,58.00,28.91,150.00,16.00,0.00,29.63,1000.50,10.00,M,FEW,FEW,M,M,14000.00,21000.00,M,M,M,M,M,M,M,M,M,94.29,KLSV 312258Z AUTO 15016KT 10SM FEW140 FEW210 35/14 A2963 RMK AO2 SLP005 T03510144 $,M
INS,2021-08-31 22:58,-115.6733,36.5872,955.00,95.00,47.70,20.00,90.00,3.00,0.00,29.70,1000.10,10.00,M,CLR,M,M,M,M,M,M,M,M,M,M,M,M,M,M,91.48,KINS 312258Z AUTO 09003KT 10SM CLR 35/09 A2970 RMK AO2 SLP001 T03500087 $,M
HND,2021-08-31 23:14,-115.1344,35.9729,742.79,84.20,60.80,45.34,170.00,15.00,0.00,29.71,M,10.00,M,BKN,OVC,M,M,8000.00,9500.00,M,M,VCTS,M,M,M,M,M,M,84.43,KHND 312314Z 17015KT 10SM VCTS BKN080 OVC095 29/16 A2971 RMK AO2 WSHFT 2254 LTG DSNT S,M
LSV,2021-08-31 23:14,-115.0343,36.2362,570.00,95.00,59.00,30.26,180.00,14.00,0.00,29.64,1000.90,10.00,M,M,M,M,M,M,M,M,M,M,M,M,M,M,M,M,94.51,KLSV 312314Z AUTO 18014KT 10SM M 35/15 A2964 RMK AO2 WSHFT 00 SLP009 $,M
MEV,2021-08-31 23:15,-119.7500,38.9963,1441.42,86.00,17.60,7.90,260.00,10.00,0.00,29.83,M,1.75,M,CLR,M,M,M,M,M,M,M,HZ,M,M,M,M,M,M,81.85,KMEV 312315Z AUTO 26010KT 1 3/4SM HZ CLR 30/M08 A2983 RMK AO2,M
BAM,2021-08-31 23:15,-116.8743,40.5990,1382.36,93.20,17.60,6.30,240.00,11.00,0.00,29.78,M,7.00,15.00,CLR,M,M,M,M,M,M,M,M,M,M,M,M,M,M,87.08,KBAM 312315Z AUTO 24011G15KT 7SM CLR 34/M08 A2978 RMK AO1,M
HTH,2021-08-31 23:15,-118.6315,38.5448,1282.89,95.00,12.20,4.70,350.00,20.00,0.00,29.73,M,10.00,M,CLR,M,M,M,M,M,M,M,M,M,M,M,M,M,M,88.11,KHTH 312315Z AUTO 35020KT 10SM CLR 35/M11 A2973 RMK A01,M
CXP,2021-08-31 23:15,-119.7326,39.1923,1431.00,89.60,10.40,5.14,240.00,10.00,0.00,29.84,M,10.00,M,CLR,M,M,M,M,M,M,M,M,M,M,M,M,M,M,84.17,KCXP 312315Z AUTO 24010KT 10SM CLR 32/M12 A2984 RMK AO2,M
TMT,2021-08-31 23:15,-117.1971,39.4643,1749.34,89.60,18.70,7.39,260.00,9.00,0.00,29.87,M,10.00,M,CLR,M,M,M,M,M,M,M,M,M,M,M,M,M,M,84.50,KTMT 312315Z AUTO 26009KT 230V290 10SM CLR 32/M07 A2987 RMK AO2 T03201074,M
RTS,2021-08-31 23:15,-119.8764,39.6682,1539.00,89.60,3.20,3.71,220.00,19.00,0.00,29.84,M,10.00,28.00,CLR,M,M,M,M,M,M,M,M,M,M,M,M,M,M,83.99,KRTS 312315Z AUTO 22019G28KT 10SM CLR 32/M16 A2984 RMK AO2,M
HND,2021-08-31 23:28,-115.1344,35.9729,742.79,80.60,64.40,57.84,190.00,20.00,T,29.72,M,10.00,28.00,SCT,BKN,BKN,M,8000.00,10000.00,11000.00,M,VCTS -RA,M,M,M,28.00,200.00,2021-08-31 23:22,82.27,KHND 312328Z 19020G28KT 10SM VCTS -RA SCT080 BKN100 BKN110 27/18 A2972 RMK AO2 PK WND 20028/2322 WSHFT 2254 LTG DSNT S TSE25B28RAB24 P0000,M
MEV,2021-08-31 23:35,-119.7500,38.9963,1441.42,86.00,17.60,7.90,260.00,8.00,0.00,29.83,M,2.00,15.00,CLR,M,M,M,M,M,M,M,HZ,M,M,M,M,M,M,81.85,KMEV 312335Z AUTO 26008G15KT 2SM HZ CLR 30/M08 A2983 RMK AO2,M
TMT,2021-08-31 23:35,-117.1971,39.4643,1749.34,89.00,18.00,7.33,300.00,9.00,0.00,29.86,M,10.00,15.00,CLR,M,M,M,M,M,M,M,M,M,M,M,M,M,M,83.96,KTMT 312335Z AUTO 30009G15KT 10SM CLR 32/M08 A2986 RMK AO2 T03161078,M
RTS,2021-08-31 23:35,-119.8764,39.6682,1539.00,89.60,1.40,3.41,230.00,20.00,0.00,29.85,M,10.00,25.00,CLR,M,M,M,M,M,M,M,M,M,M,M,M,M,M,83.96,KRTS 312335Z AUTO 23020G25KT 10SM CLR 32/M17 A2985 RMK AO2,M
HTH,2021-08-31 23:35,-118.6315,38.5448,1282.89,93.20,12.20,4.97,340.00,17.00,0.00,29.73,M,10.00,22.00,CLR,M,M,M,M,M,M,M,M,M,M,M,M,M,M,86.83,KHTH 312335Z AUTO 34017G22KT 10SM CLR 34/M11 A2973 RMK A01,M
BAM,2021-08-31 23:35,-116.8743,40.5990,1382.36,91.40,17.60,6.66,230.00,10.00,0.00,29.77,M,7.00,M,CLR,M,M,M,M,M,M,M,M,M,M,M,M,M,M,85.76,KBAM 312335Z AUTO 23010KT 7SM CLR 33/M08 A2977 RMK AO1,M
CXP,2021-08-31 23:35,-119.7326,39.1923,1431.00,87.80,10.40,5.44,M,6.00,0.00,29.84,M,10.00,12.00,CLR,M,M,M,M,M,M,M,M,M,M,M,M,M,M,82.88,KCXP 312335Z AUTO VRB06G12KT 10SM CLR 31/M12 A2984 RMK AO2,M
ELY,2021-08-31 23:35,-114.8453,39.2950,1909.00,81.00,42.00,25.19,140.00,15.00,0.00,29.90,M,10.00,28.00,CLR,M,M,M,M,M,M,M,M,M,M,M,28.00,130.00,2021-08-31 23:26,79.49,KELY 312335Z AUTO 14015G28KT 10SM CLR 27/06 A2990 RMK AO2 PK WND 13028/2326 WSHFT 2315 LTG DSNT E T02720056,M
ELY,2021-08-31 23:53,-114.8453,39.2950,1909.00,82.00,42.00,24.38,140.00,22.00,0.00,29.90,1002.50,10.00,26.00,SCT,M,M,M,10000.00,M,M,M,M,M,M,M,28.00,130.00,2021-08-31 23:26,80.09,KELY 312353Z AUTO 14022G26KT 10SM SCT100 28/06 A2990 RMK AO2 PK WND 13028/2326 WSHFT 2315 SLP025 T02780056 10300 20272 56015,M
DRA,2021-08-31 23:53,-116.0278,36.6206,1009.00,96.00,43.00,16.17,220.00,12.00,0.00,29.70,1000.30,10.00,21.00,CLR,M,M,M,M,M,M,M,M,M,M,M,M,M,M,91.93,KDRA 312353Z AUTO 22012G21KT 10SM CLR 36/06 A2970 RMK AO2 SLP003 T03560061 10367 20333 56018,M
P68,2021-08-31 23:53,-116.0056,39.6014,1993.00,89.00,16.00,6.68,290.00,15.00,0.00,29.84,1001.40,M,19.00,M,M,M,M,M,M,M,M,M,M,M,M,M,M,M,84.01,KP68 312353Z AUTO 29015G19KT 32/M09 A2984 RMK AO1 SLP014 T03171089 10328 20256 56017,M
LOL,2021-08-31 23:53,-118.5701,40.0684,1192.43,92.00,19.00,6.96,180.00,8.00,0.00,29.71,1001.90,5.00,M,FEW,M,M,M,4000.00,M,M,M,HZ,M,M,M,M,M,M,86.20,KLOL 312353Z AUTO 18008KT 5SM HZ FEW040 33/M07 A2971 RMK AO2 SLP019 T03331072 10350 20261 56021,M
VGT,2021-08-31 23:53,-115.1933,36.2111,667.00,92.00,59.00,33.31,170.00,22.00,0.00,29.66,1002.80,10.00,M,FEW,M,M,M,6500.00,M,M,M,M,M,M,M,M,M,M,91.20,KVGT 312353Z 17022KT 10SM FEW065 33/15 A2966 RMK AO2 SLP028 T03330150 10383 20333 55006,M
HND,2021-08-31 23:53,-115.1344,35.9729,742.79,80.60,64.40,57.84,160.00,20.00,T,29.71,M,10.00,24.00,FEW,OVC,M,M,4900.00,11000.00,M,M,-RA,M,M,M,28.00,200.00,2021-08-31 23:22,82.27,KHND 312353Z 16020G24KT 10SM -RA FEW049 OVC110 27/18 A2971 RMK AO2 PK WND 20028/2322 WSHFT 2254 TSE25B28E47RAB24 P0000,M
RNO,2021-08-31 23:55,-119.7711,39.4839,1341.00,91.00,12.00,5.28,300.00,19.00,0.00,29.76,1002.10,10.00,28.00,FEW,M,M,M,6000.00,M,M,M,M,M,M,M,28.00,300.00,2021-08-31 23:50,85.24,KRNO 312355Z 30019G28KT 10SM FEW060 33/M11 A2976 RMK AO2 PK WND 30028/2350 SLP021 FU FEW060 FU DSNT ALQDS T03281111 10350 20244 56012 $,M
MEV,2021-08-31 23:55,-119.7500,38.9963,1441.42,84.20,17.60,8.37,260.00,12.00,0.00,29.82,M,1.75,M,CLR,M,M,M,M,M,M,M,HZ,M,M,M,M,M,M,80.59,KMEV 312355Z AUTO 26012KT 1 3/4SM HZ CLR 29/M08 A2982 RMK AO2,M
RTS,2021-08-31 23:55,-119.8764,39.6682,1539.00,87.80,1.40,3.61,230.00,20.00,0.00,29.84,M,10.00,26.00,CLR,M,M,M,M,M,M,M,M,M,M,M,M,M,M,82.67,KRTS 312355Z AUTO 23020G26KT 10SM CLR 31/M17 A2984 RMK AO2,M
BAM,2021-08-31 23:55,-116.8743,40.5990,1382.36,91.40,17.60,6.66,250.00,9.00,0.00,29.77,M,7.00,M,CLR,M,M,M,M,M,M,M,M,M,M,M,M,M,M,85.76,KBAM 312355Z AUTO 25009KT 7SM CLR 33/M08 A2977 RMK AO1,M
CXP,2021-08-31 23:55,-119.7326,39.1923,1431.00,87.80,12.20,5.89,210.00,8.00,0.00,29.83,M,10.00,13.00,CLR,M,M,M,M,M,M,M,M,M,M,M,M,M,M,82.93,KCXP 312355Z AUTO 21008G13KT 10SM CLR 31/M11 A2983 RMK AO2,M
HTH,2021-08-31 23:55,-118.6315,38.5448,1282.89,93.20,15.80,5.82,340.00,17.00,0.00,29.73,M,10.00,23.00,CLR,M,M,M,M,M,M,M,M,M,M,M,M,M,M,86.99,KHTH 312355Z AUTO 34017G23KT 10SM CLR 34/M09 A2973 RMK A01,M
TMT,2021-08-31 23:55,-117.1971,39.4643,1749.34,88.70,17.10,7.09,270.00,9.00,0.00,29.86,M,10.00,M,CLR,M,M,M,M,M,M,M,M,M,M,M,M,M,M,83.77,KTMT 312355Z AUTO 27009KT 10SM CLR 32/M08 A2986 RMK AO2 T03151083 10327 20251,M
NFL,2021-08-31 23:56,-118.7010,39.4166,1199.00,93.00,17.10,6.20,0.00,0.00,0.00,29.71,1004.30,2.00,M,OVC,M,M,M,4000.00,M,M,M,FU,M,M,M,M,M,M,86.91,KNFL 312356Z 00000KT 2SM FU OVC040 34/M08 A2971 RMK AO2 SLP043 FU OVC040 T03391083 10344 20256 56020,M
TPH,2021-08-31 23:56,-117.0904,38.0505,1654.00,88.00,28.90,11.91,230.00,6.00,0.00,29.84,1002.60,8.00,M,CLR,M,M,M,M,M,M,M,M,M,M,M,M,M,M,84.03,KTPH 312356Z AUTO 23006KT 8SM CLR 31/M02 A2984 RMK AO2 SLP026 T03111017 10322 20256 56021,M
LAS,2021-08-31 23:56,-115.1634,36.0719,663.00,83.00,63.00,51.10,200.00,8.00,0.00,29.68,1002.30,10.00,M,SCT,BKN,BKN,M,12000.00,14000.00,18000.00,M,TS,M,M,M,28.00,180.00,2021-08-31 23:36,83.98,KLAS 312356Z 20008KT 10SM TS SCT120CB BKN140 BKN180 28/17 A2968 RMK AO2 PK WND 18028/2336 SLP023 OCNL LTGICCG S TS STNRY CB DSNT ALQDS 60000 T02830172 10372 20283 55005,M
HND,2021-08-31 23:56,-115.1344,35.9729,742.79,80.00,64.00,57.98,160.00,19.00,T,29.72,1005.00,10.00,24.00,FEW,OVC,M,M,4900.00,11000.00,M,M,-RA,M,M,M,28.00,200.00,2021-08-31 23:22,81.71,KHND 312356Z 16019G24KT 10SM -RA FEW049 OVC110 27/18 A2972 RMK AO2 PK WND 20028/2322 WSHFT 2254 TSE25B28E47RAB24 SLP050 P0000 60009 T02670178 10372 20267 53003,M
WMC,2021-08-31 23:56,-117.8072,40.9019,1315.00,91.00,19.90,7.44,340.00,8.00,0.00,29.75,1002.70,8.00,M,CLR,M,M,M,M,M,M,M,M,M,M,M,M,M,M,85.59,KWMC 312356Z AUTO 34008KT 8SM CLR 33/M07 A2975 RMK AO2 SLP027 T03281067 10339 20267 56015 $,M
EKO,2021-08-31 23:56,-115.7860,40.8242,1367.00,87.00,15.10,6.84,280.00,11.00,0.00,29.81,1003.70,3.00,19.00,OVC,M,M,M,3500.00,M,M,M,HZ,M,M,M,M,M,M,82.53,KEKO 312356Z AUTO 28011G19KT 3SM HZ OVC035 31/M09 A2981 RMK AO2 SLP037 T03061094 10322 20228 56014,M
INS,2021-08-31 23:58,-115.6733,36.5872,955.00,94.00,48.00,20.92,110.00,8.00,0.00,29.69,999.90,10.00,M,FEW,M,M,M,19000.00,M,M,M,M,M,M,M,M,M,M,90.45,KINS 312358Z AUTO 11008KT 10SM FEW190 34/09 A2969 RMK AO2 SLP999 T03440089 10353 20315 57023 $,M
LSV,2021-08-31 23:58,-115.0343,36.2362,570.00,93.00,55.00,27.87,180.00,14.00,0.00,29.64,1001.00,10.00,M,SCT,M,M,M,12000.00,M,M,M,M,M,M,M,M,M,M,91.03,KLSV 312358Z AUTO 18014KT 10SM SCT120 34/13 A2964 RMK AO2 SLP010 T03390128 10375 20333 55010 $,M
