station,valid,lon,lat,elevation,tmpf,dwpf,relh,drct,sknt,p01i,alti,mslp,vsby,gust,skyc1,skyc2,skyc3,skyc4,skyl1,skyl2,skyl3,skyl4,wxcodes,ice_accretion_1hr,ice_accretion_3hr,ice_accretion_6hr,peak_wind_gust,peak_wind_drct,peak_wind_time,feel,metar,snowdepth
05U,2021-01-25 00:10,-116.0051,39.6042,1811.23,30.20,17.60,59.01,0.00,0.00,0.00,29.68,M,10.00,M,M,M,M,M,M,M,M,M,M,M,M,M,M,M,M,30.20,K05U 250010Z AUTO 00000KT 10SM M01/M08 A2968 RMK A01,M
CXP,2021-01-25 00:15,-119.7326,39.1923,1431.00,37.40,21.20,51.61,230.00,10.00,0.00,29.68,M,10.00,M,FEW,BKN,OVC,M,4600.00,6000.00,8500.00,M,M,M,M,M,M,M,M,29.74,KCXP 250015Z AUTO 23010KT 10SM FEW046 BKN060 OVC085 03/M06 A2968 RMK AO2,M
BAM,2021-01-25 00:15,-116.8743,40.5990,1382.36,28.40,28.40,100.00,90.00,3.00,0.00,29.72,M,10.00,M,OVC,M,M,M,1100.00,M,M,M,M,M,M,M,M,M,M,24.57,KBAM 250015Z AUTO 09003KT 10SM OVC011 M02/M02 A2972 RMK AO1,M
RTS,2021-01-25 00:15,-119.8764,39.6682,1539.00,33.80,19.40,55.14,240.00,10.00,0.00,29.68,M,10.00,M,SCT,OVC,M,M,5000.00,5500.00,M,M,M,M,M,M,M,M,M,25.23,KRTS 250015Z AUTO 24010KT 10SM SCT050 OVC055 01/M07 A2968 RMK AO2,M
HTH,2021-01-25 00:15,-118.6315,38.5448,1282.89,39.20,26.60,60.29,330.00,6.00,0.00,29.67,M,10.00,M,FEW,M,M,M,8000.00,M,M,M,M,M,M,M,M,M,M,34.20,KHTH 250015Z AUTO 33006KT 10SM FEW080 04/M03 A2967 RMK A01,M
TMT,2021-01-25 00:15,-117.1971,39.4643,1749.34,20.70,19.60,95.42,330.00,5.00,0.00,29.68,M,10.00,M,M,M,M,M,M,M,M,M,M,M,M,M,M,M,M,12.98,KTMT 250015Z AUTO 33005KT 10SM M06/M07 A2968 RMK AO2 T10631069,M
BVU,2021-01-25 00:15,-114.8611,35.9475,671.00,55.40,17.60,22.41,250.00,14.00,0.00,29.72,M,10.00,M,CLR,M,M,M,M,M,M,M,M,M,M,M,M,M,M,55.40,KBVU 250015Z AUTO 25014KT 10SM CLR 13/M08 A2972 RMK AO2,M
MEV,2021-01-25 00:15,-119.7500,38.9963,1441.42,37.40,19.40,47.80,0.00,0.00,0.00,29.67,M,10.00,M,OVC,M,M,M,6000.00,M,M,M,M,M,M,M,M,M,M,37.40,KMEV 250015Z AUTO 00000KT 10SM OVC060 03/M07 A2967 RMK AO2,M
05U,2021-01-25 00:30,-116.0051,39.6042,1811.23,28.40,17.60,63.51,0.00,0.00,0.00,29.67,M,10.00,M,M,M,M,M,M,M,M,M,M,M,M,M,M,M,M,28.40,K05U 250030Z AUTO 00000KT 10SM M02/M08 A2967 RMK A01,M
MEV,2021-01-25 00:35,-119.7500,38.9963,1441.42,37.40,21.20,51.61,310.00,3.00,0.00,29.67,M,10.00,M,OVC,M,M,M,5000.00,M,M,M,M,M,M,M,M,M,M,34.86,KMEV 250035Z AUTO 31003KT 10SM OVC050 03/M06 A2967 RMK AO2,M
RTS,2021-01-25 00:35,-119.8764,39.6682,1539.00,33.80,21.20,59.53,240.00,8.00,0.00,29.68,M,10.00,M,SCT,BKN,OVC,M,4400.00,5000.00,6000.00,M,M,M,M,M,M,M,M,26.33,KRTS 250035Z AUTO 24008KT 10SM SCT044 BKN050 OVC060 01/M06 A2968 RMK AO2,M
BVU,2021-01-25 00:35,-114.8611,35.9475,671.00,53.60,17.60,23.93,230.00,11.00,0.00,29.72,M,10.00,M,CLR,M,M,M,M,M,M,M,M,M,M,M,M,M,M,53.60,KBVU 250035Z AUTO 23011KT 10SM CLR 12/M08 A2972 RMK AO2,M
BAM,2021-01-25 00:35,-116.8743,40.5990,1382.36,26.60,26.60,100.00,0.00,0.00,0.00,29.72,M,10.00,M,SCT,M,M,M,1100.00,M,M,M,M,M,M,M,M,M,M,26.60,KBAM 250035Z AUTO 00000KT 10SM SCT011 M03/M03 A2972 RMK AO1,M
TMT,2021-01-25 00:35,-117.1971,39.4643,1749.34,19.80,18.90,96.23,330.00,4.00,0.00,29.68,M,10.00,M,M,M,M,M,M,M,M,M,M,M,M,M,M,M,M,13.17,KTMT 250035Z AUTO 33004KT 10SM M07/M07 A2968 RMK AO2 T10681073,M
CXP,2021-01-25 00:35,-119.7326,39.1923,1431.00,37.40,21.20,51.61,240.00,6.00,0.00,29.68,M,10.00,14.00,OVC,M,M,M,5500.00,M,M,M,M,M,M,M,M,M,M,32.03,KCXP 250035Z AUTO 24006G14KT 10SM OVC055 03/M06 A2968 RMK AO2,M
HTH,2021-01-25 00:35,-118.6315,38.5448,1282.89,37.40,26.60,64.70,300.00,5.00,0.00,29.68,M,10.00,M,FEW,M,M,M,9000.00,M,M,M,M,M,M,M,M,M,M,32.81,KHTH 250035Z AUTO 30005KT 10SM FEW090 03/M03 A2968 RMK A01,M
05U,2021-01-25 00:50,-116.0051,39.6042,1811.23,21.20,14.00,73.32,0.00,0.00,0.00,29.68,M,10.00,M,M,M,M,M,M,M,M,M,M,M,M,M,M,M,M,21.20,K05U 250050Z AUTO 00000KT 10SM M06/M10 A2968 RMK A01,M
ELY,2021-01-25 00:53,-114.8453,39.2950,1909.00,28.90,19.90,68.67,0.00,0.00,0.00,29.64,1004.50,10.00,M,SCT,SCT,M,M,4700.00,7000.00,M,M,M,M,M,M,M,M,M,28.90,KELY 250053Z AUTO 00000KT 10SM SCT047 SCT070 M02/M07 A2964 RMK AO2 SLP045 T10171067,M
LOL,2021-01-25 00:53,-118.5701,40.0684,1192.43,37.00,28.00,69.63,120.00,5.00,0.00,29.68,1006.60,10.00,M,BKN,M,M,M,3900.00,M,M,M,M,M,M,M,M,M,M,32.33,KLOL 250053Z AUTO 12005KT 10SM BKN039 03/M02 A2968 RMK AO2 SLP066 T00281022,M
DRA,2021-01-25 00:53,-116.0278,36.6206,1009.00,47.00,17.10,30.04,210.00,12.00,0.00,29.69,1005.00,10.00,19.00,CLR,M,M,M,M,M,M,M,M,M,M,M,M,M,M,40.97,KDRA 250053Z AUTO 21012G19KT 10SM CLR 08/M08 A2969 RMK AO2 SLP050 T00831083,M
VGT,2021-01-25 00:53,-115.1933,36.2111,667.00,55.00,16.00,21.21,240.00,9.00,0.00,29.65,1005.90,10.00,M,CLR,M,M,M,M,M,M,M,M,M,M,M,M,M,M,55.00,KVGT 250053Z 24009KT 10SM CLR 13/M09 A2965 RMK AO2 SLP059 T01281089,M
P68,2021-01-25 00:53,-116.0056,39.6014,1993.00,19.90,15.10,81.30,0.00,0.00,0.00,29.65,1006.10,M,M,M,M,M,M,M,M,M,M,M,M,M,M,M,M,M,19.90,KP68 250053Z AUTO 00000KT M07/M09 A2965 RMK AO1 SLP061 T10671094,M
RTS,2021-01-25 00:55,-119.8764,39.6682,1539.00,33.80,21.20,59.53,230.00,9.00,0.00,29.67,M,10.00,M,BKN,OVC,M,M,4300.00,4900.00,M,M,M,M,M,M,M,M,M,25.75,KRTS 250055Z AUTO 23009KT 10SM BKN043 OVC049 01/M06 A2967 RMK AO2,M
RNO,2021-01-25 00:55,-119.7711,39.4839,1341.00,38.00,21.00,50.18,300.00,8.00,0.00,29.66,1005.20,10.00,M,BKN,OVC,M,M,3500.00,5000.00,M,M,M,M,M,M,M,M,M,31.38,KRNO 250055Z 30008KT 10SM BKN035 OVC050 03/M06 A2966 RMK AO2 SLP052 T00331061 $,M
BAM,2021-01-25 00:55,-116.8743,40.5990,1382.36,24.80,24.80,100.00,0.00,0.00,0.00,29.72,M,10.00,M,SCT,M,M,M,1100.00,M,M,M,M,M,M,M,M,M,M,24.80,KBAM 250055Z AUTO 00000KT 10SM SCT011 M04/M04 A2972 RMK AO1,M
CXP,2021-01-25 00:55,-119.7326,39.1923,1431.00,37.40,23.00,55.68,220.00,7.00,0.00,29.68,M,10.00,12.00,FEW,SCT,OVC,M,3400.00,4700.00,5500.00,M,M,M,M,M,M,M,M,31.36,KCXP 250055Z AUTO 22007G12KT 10SM FEW034 SCT047 OVC055 03/M05 A2968 RMK AO2,M
MEV,2021-01-25 00:55,-119.7500,38.9963,1441.42,35.60,21.20,55.41,260.00,5.00,0.00,29.67,M,10.00,M,FEW,SCT,BKN,M,2500.00,4000.00,5000.00,M,M,M,M,M,M,M,M,30.67,KMEV 250055Z AUTO 26005KT 10SM FEW025 SCT040 BKN050 02/M06 A2967 RMK AO2,M
BVU,2021-01-25 00:55,-114.8611,35.9475,671.00,51.80,17.60,25.56,240.00,7.00,0.00,29.72,M,10.00,12.00,CLR,M,M,M,M,M,M,M,M,M,M,M,M,M,M,51.80,KBVU 250055Z AUTO 24007G12KT 10SM CLR 11/M08 A2972 RMK AO2,M
TMT,2021-01-25 00:55,-117.1971,39.4643,1749.34,18.90,17.80,95.39,330.00,4.00,0.00,29.68,M,10.00,M,M,M,M,M,M,M,M,M,M,M,M,M,M,M,M,12.12,KTMT 250055Z AUTO 33004KT 10SM M07/M08 A2968 RMK AO2 T10731079,M
HTH,2021-01-25 00:55,-118.6315,38.5448,1282.89,37.40,24.80,60.04,270.00,4.00,0.00,29.67,M,10.00,M,BKN,BKN,M,M,7500.00,8500.00,M,M,M,M,M,M,M,M,M,33.73,KHTH 250055Z AUTO 27004KT 10SM BKN075 BKN085 03/M04 A2967 RMK A01,M
EKO,2021-01-25 00:56,-115.7860,40.8242,1367.00,23.00,19.00,84.39,210.00,8.00,0.00,29.69,1009.00,10.00,M,CLR,M,M,M,M,M,M,M,M,M,M,M,M,M,M,13.03,KEKO 250056Z AUTO 21008KT 10SM CLR M05/M07 A2969 RMK AO2 SLP090 T10501072,M
WMC,2021-01-25 00:56,-117.8072,40.9019,1315.00,28.00,21.90,77.57,180.00,11.00,0.00,29.67,1008.30,10.00,M,BKN,M,M,M,4600.00,M,M,M,M,M,M,M,M,M,M,17.41,KWMC 250056Z AUTO 18011KT 10SM BKN046 M02/M06 A2967 RMK AO2 SLP083 T10221056 $,M
LAS,2021-01-25 00:56,-115.1634,36.0719,663.00,53.00,17.10,23.85,220.00,9.00,0.00,29.70,1005.70,10.00,M,FEW,FEW,M,M,10000.00,18000.00,M,M,M,M,M,M,M,M,M,53.10,KLAS 250056Z 22009KT 10SM FEW100 FEW180 12/M08 A2970 RMK AO2 SLP057 T01171083,M
HND,2021-01-25 00:56,-115.1344,35.9729,742.79,51.00,21.00,30.34,210.00,12.00,0.00,29.73,1008.90,10.00,M,CLR,M,M,M,M,M,M,M,M,M,M,M,M,M,M,51.10,KHND 250056Z 21012KT 10SM CLR 11/M06 A2973 RMK AO2 SLP089 T01061061,M
TPH,2021-01-25 00:56,-117.0904,38.0505,1654.00,30.00,23.00,74.87,40.00,6.00,0.00,29.66,1006.40,10.00,M,CLR,M,M,M,M,M,M,M,M,M,M,M,M,M,M,23.12,KTPH 250056Z AUTO 04006KT 10SM CLR M01/M05 A2966 RMK AO2 SLP064 T10111050,M
NFL,2021-01-25 00:56,-118.7010,39.4166,1199.00,37.00,27.00,66.82,0.00,0.00,0.00,29.67,1002.90,10.00,M,FEW,BKN,BKN,BKN,4000.00,6000.00,10000.00,15000.00,M,M,M,M,M,M,M,37.00,KNFL 250056Z 00000KT 10SM FEW040 BKN060 BKN100 BKN150 03/M03 A2967 RMK AO2 SLP029 ACSL VC S SH DSNT NW T00281028,M
INS,2021-01-25 00:58,-115.6733,36.5872,955.00,48.40,13.30,24.06,0.00,0.00,0.00,29.66,1004.10,10.00,M,CLR,M,M,M,M,M,M,M,M,M,M,M,M,M,M,48.40,KINS 250058Z AUTO 00000KT 10SM CLR 09/M10 A2966 RMK AO2 SLP041 T00911104 $,M
LSV,2021-01-25 00:58,-115.0343,36.2362,570.00,53.40,23.50,30.97,140.00,7.00,0.00,29.69,1005.40,10.00,M,CLR,M,M,M,M,M,M,M,M,M,M,M,M,M,M,53.40,KLSV 250058Z AUTO 14007KT 10SM CLR 12/M05 A2969 RMK AO2 SLP054 T01191047 $,M
05U,2021-01-25 01:10,-116.0051,39.6042,1811.23,17.60,12.20,79.00,0.00,0.00,0.00,29.67,M,10.00,M,M,M,M,M,M,M,M,M,M,M,M,M,M,M,M,17.60,K05U 250110Z AUTO 00000KT 10SM M08/M11 A2967 RMK A01,M
HTH,2021-01-25 01:15,-118.6315,38.5448,1282.89,37.40,24.80,60.04,0.00,0.00,0.00,29.67,M,10.00,M,OVC,M,M,M,7500.00,M,M,M,M,M,M,M,M,M,M,37.40,KHTH 250115Z AUTO 00000KT 10SM OVC075 03/M04 A2967 RMK A01,M
CXP,2021-01-25 01:15,-119.7326,39.1923,1431.00,37.40,23.00,55.68,230.00,4.00,0.00,29.67,M,10.00,12.00,FEW,BKN,OVC,M,4700.00,6000.00,7000.00,M,M,M,M,M,M,M,M,33.73,KCXP 250115Z AUTO 23004G12KT 10SM FEW047 BKN060 OVC070 03/M05 A2967 RMK AO2,M
BAM,2021-01-25 01:15,-116.8743,40.5990,1382.36,24.80,24.80,100.00,0.00,0.00,0.00,29.72,M,10.00,M,BKN,M,M,M,1300.00,M,M,M,M,M,M,M,M,M,M,24.80,KBAM 250115Z AUTO 00000KT 10SM BKN013 M04/M04 A2972 RMK AO1,M
RTS,2021-01-25 01:15,-119.8764,39.6682,1539.00,33.80,21.20,59.53,240.00,7.00,0.00,29.67,M,10.00,M,FEW,BKN,OVC,M,2500.00,4000.00,4500.00,M,M,M,M,M,M,M,M,26.97,KRTS 250115Z AUTO 24007KT 10SM FEW025 BKN040 OVC045 01/M06 A2967 RMK AO2,M
MEV,2021-01-25 01:15,-119.7500,38.9963,1441.42,35.60,19.40,51.33,0.00,0.00,0.00,29.66,M,10.00,M,FEW,SCT,OVC,M,2500.00,5000.00,6500.00,M,M,M,M,M,M,M,M,35.60,KMEV 250115Z AUTO 00000KT 10SM FEW025 SCT050 OVC065 02/M07 A2966 RMK AO2,M
TMT,2021-01-25 01:15,-117.1971,39.4643,1749.34,15.80,14.00,92.44,0.00,0.00,0.00,29.68,M,10.00,M,M,M,M,M,M,M,M,M,M,M,M,M,M,M,M,15.80,KTMT 250115Z AUTO 00000KT 10SM M09/M10 A2968 RMK AO2 T10901100,M
BVU,2021-01-25 01:15,-114.8611,35.9475,671.00,51.80,28.40,40.25,160.00,8.00,0.00,29.73,M,10.00,M,SCT,M,M,M,8000.00,M,M,M,M,M,M,M,M,M,M,51.80,KBVU 250115Z AUTO 16008KT 10SM SCT080 11/M02 A2973 RMK AO2,M
05U,2021-01-25 01:30,-116.0051,39.6042,1811.23,17.60,14.00,85.51,0.00,0.00,0.00,29.67,M,10.00,M,M,M,M,M,M,M,M,M,M,M,M,M,M,M,M,17.60,K05U 250130Z AUTO 00000KT 10SM M08/M10 A2967 RMK A01,M
CXP,2021-01-25 01:35,-119.7326,39.1923,1431.00,35.60,21.20,55.41,160.00,4.00,0.00,29.67,M,10.00,M,FEW,SCT,BKN,M,4500.00,5000.00,6000.00,M,M,M,M,M,M,M,M,31.62,KCXP 250135Z AUTO 16004KT 10SM FEW045 SCT050 BKN060 02/M06 A2967 RMK AO2,M
BVU,2021-01-25 01:35,-114.8611,35.9475,671.00,50.00,28.40,43.03,160.00,10.00,0.00,29.73,M,10.00,M,SCT,M,M,M,7500.00,M,M,M,M,M,M,M,M,M,M,50.00,KBVU 250135Z AUTO 16010KT 10SM SCT075 10/M02 A2973 RMK AO2,M
MEV,2021-01-25 01:35,-119.7500,38.9963,1441.42,35.60,19.40,51.33,0.00,0.00,0.00,29.66,M,10.00,M,SCT,OVC,M,M,5500.00,6500.00,M,M,M,M,M,M,M,M,M,35.60,KMEV 250135Z AUTO 00000KT 10SM SCT055 OVC065 02/M07 A2966 RMK AO2,M
HTH,2021-01-25 01:35,-118.6315,38.5448,1282.89,37.40,24.80,60.04,290.00,4.00,0.00,29.67,M,10.00,M,OVC,M,M,M,7500.00,M,M,M,M,M,M,M,M,M,M,33.73,KHTH 250135Z AUTO 29004KT 10SM OVC075 03/M04 A2967 RMK A01,M
BAM,2021-01-25 01:35,-116.8743,40.5990,1382.36,23.00,23.00,100.00,0.00,0.00,0.00,29.72,M,10.00,M,SCT,M,M,M,1300.00,M,M,M,M,M,M,M,M,M,M,23.00,KBAM 250135Z AUTO 00000KT 10SM SCT013 M05/M05 A2972 RMK AO1,M
TMT,2021-01-25 01:35,-117.1971,39.4643,1749.34,14.50,13.10,94.04,0.00,0.00,0.00,29.68,M,2.50,M,M,M,M,M,M,M,M,M,BR,M,M,M,M,M,M,14.50,KTMT 250135Z AUTO 00000KT 2 1/2SM BR M10/M10 A2968 RMK AO2 T10971105,M
RTS,2021-01-25 01:35,-119.8764,39.6682,1539.00,32.00,23.00,69.04,320.00,6.00,0.00,29.67,M,10.00,M,FEW,BKN,OVC,M,2600.00,3600.00,4500.00,M,-UP,M,M,M,M,M,M,25.53,KRTS 250135Z AUTO 32006KT 10SM -UP FEW026 BKN036 OVC045 M00/M05 A2967 RMK AO2,M
05U,2021-01-25 01:50,-116.0051,39.6042,1811.23,14.00,10.40,85.28,0.00,0.00,0.00,29.67,M,10.00,M,M,M,M,M,M,M,M,M,M,M,M,M,M,M,M,14.00,K05U 250150Z AUTO 00000KT 10SM M10/M12 A2967 RMK A01,M
ELY,2021-01-25 01:53,-114.8453,39.2950,1909.00,28.00,19.90,71.25,30.00,4.00,0.00,29.64,1005.10,10.00,M,BKN,BKN,M,M,5000.00,6000.00,M,M,M,M,M,M,M,M,M,22.75,KELY 250153Z AUTO 03004KT 10SM BKN050 BKN060 M02/M07 A2964 RMK AO2 SLP051 T10221067,M
LOL,2021-01-25 01:53,-118.5701,40.0684,1192.43,35.00,27.00,72.04,70.00,5.00,0.00,29.67,1006.50,10.00,M,BKN,BKN,OVC,M,3500.00,6000.00,8000.00,M,M,M,M,M,M,M,M,30.08,KLOL 250153Z AUTO 07005KT 10SM BKN035 BKN060 OVC080 02/M03 A2967 RMK AO2 SLP065 T00171028,M
P68,2021-01-25 01:53,-116.0056,39.6014,1993.00,16.00,12.00,83.91,170.00,3.00,0.00,29.64,1006.80,M,M,M,M,M,M,M,M,M,M,M,M,M,M,M,M,M,10.40,KP68 250153Z AUTO 17003KT M09/M11 A2964 RMK AO1 SLP068 T10891111,M
DRA,2021-01-25 01:53,-116.0278,36.6206,1009.00,46.00,16.00,29.63,190.00,11.00,0.00,29.70,1005.30,10.00,21.00,CLR,M,M,M,M,M,M,M,M,M,M,M,M,M,M,40.16,KDRA 250153Z AUTO 19011G21KT 10SM CLR 08/M09 A2970 RMK AO2 SLP053 T00781089,M
VGT,2021-01-25 01:53,-115.1933,36.2111,667.00,54.00,15.10,21.16,230.00,10.00,0.00,29.66,1006.10,10.00,M,CLR,M,M,M,M,M,M,M,M,M,M,M,M,M,M,54.00,KVGT 250153Z 23010KT 10SM CLR 12/M09 A2966 RMK AO2 SLP061 T01221094,M
CXP,2021-01-25 01:55,-119.7326,39.1923,1431.00,35.60,21.20,55.41,0.00,0.00,0.00,29.67,M,10.00,M,SCT,BKN,OVC,M,5000.00,6000.00,7500.00,M,M,M,M,M,M,M,M,35.60,KCXP 250155Z AUTO 00000KT 10SM SCT050 BKN060 OVC075 02/M06 A2967 RMK AO2,M
RNO,2021-01-25 01:55,-119.7711,39.4839,1341.00,37.00,21.90,54.01,30.00,6.00,0.00,29.66,1005.30,10.00,M,BKN,OVC,M,M,3500.00,5000.00,M,M,M,M,M,M,M,M,M,31.55,KRNO 250155Z 03006KT 10SM BKN035 OVC050 03/M06 A2966 RMK AO2 SLP053 SH VC SW THRU NW T00281056 $,M
RTS,2021-01-25 01:55,-119.8764,39.6682,1539.00,32.00,23.00,69.04,300.00,4.00,0.00,29.67,M,10.00,M,FEW,BKN,OVC,M,2600.00,4500.00,8000.00,M,-UP,M,M,M,M,M,M,27.42,KRTS 250155Z AUTO 30004KT 10SM -UP FEW026 BKN045 OVC080 M00/M05 A2967 RMK AO2,M
HTH,2021-01-25 01:55,-118.6315,38.5448,1282.89,37.40,26.60,64.70,280.00,3.00,0.00,29.68,M,10.00,M,SCT,BKN,OVC,M,5500.00,7000.00,7500.00,M,M,M,M,M,M,M,M,34.86,KHTH 250155Z AUTO 28003KT 10SM SCT055 BKN070 OVC075 03/M03 A2968 RMK A01,M
TMT,2021-01-25 01:55,-117.1971,39.4643,1749.34,14.20,12.70,93.62,250.00,3.00,0.00,29.68,M,0.25,M,M,M,M,M,M,M,M,M,FZFG,M,M,M,M,M,M,8.34,KTMT 250155Z AUTO 25003KT 1/4SM FZFG M10/M11 A2968 RMK AO2 T10991107,M
BAM,2021-01-25 01:55,-116.8743,40.5990,1382.36,21.20,21.20,100.00,0.00,0.00,0.00,29.72,M,10.00,M,CLR,M,M,M,M,M,M,M,M,M,M,M,M,M,M,21.20,KBAM 250155Z AUTO 00000KT 10SM CLR M06/M06 A2972 RMK AO1,M
BVU,2021-01-25 01:55,-114.8611,35.9475,671.00,50.00,30.20,46.31,160.00,10.00,0.00,29.74,M,10.00,M,FEW,M,M,M,7500.00,M,M,M,M,M,M,M,M,M,M,50.00,KBVU 250155Z AUTO 16010KT 10SM FEW075 10/M01 A2974 RMK AO2,M
MEV,2021-01-25 01:55,-119.7500,38.9963,1441.42,35.60,21.20,55.41,0.00,0.00,0.00,29.66,M,10.00,M,OVC,M,M,M,6000.00,M,M,M,M,M,M,M,M,M,M,35.60,KMEV 250155Z AUTO 00000KT 10SM OVC060 02/M06 A2966 RMK AO2,M
TPH,2021-01-25 01:56,-117.0904,38.0505,1654.00,28.90,24.10,82.00,30.00,4.00,0.00,29.65,1006.30,10.00,M,CLR,M,M,M,M,M,M,M,M,M,M,M,M,M,M,23.80,KTPH 250156Z AUTO 03004KT 10SM CLR M02/M04 A2965 RMK AO2 SLP063 T10171044,M
WMC,2021-01-25 01:56,-117.8072,40.9019,1315.00,27.00,21.90,80.83,180.00,12.00,0.00,29.67,1007.80,10.00,M,SCT,M,M,M,4400.00,M,M,M,M,M,M,M,M,M,M,15.64,KWMC 250156Z AUTO 18012KT 10SM SCT044 M03/M06 A2967 RMK AO2 SLP078 T10281056 $,M
LAS,2021-01-25 01:56,-115.1634,36.0719,663.00,51.00,16.00,24.48,230.00,9.00,0.00,29.72,1006.50,10.00,16.00,FEW,FEW,M,M,10000.00,18000.00,M,M,M,M,M,M,M,M,M,51.10,KLAS 250156Z 23009G16KT 10SM FEW100 FEW180 11/M09 A2972 RMK AO2 SLP065 T01061089,M
EKO,2021-01-25 01:56,-115.7860,40.8242,1367.00,19.90,16.00,84.55,0.00,0.00,0.00,29.68,1008.90,10.00,M,CLR,M,M,M,M,M,M,M,M,M,M,M,M,M,M,19.90,KEKO 250156Z AUTO 00000KT 10SM CLR M07/M09 A2968 RMK AO2 SLP089 T10671089,M
HND,2021-01-25 01:56,-115.1344,35.9729,742.79,49.00,21.00,32.93,220.00,12.00,0.00,29.74,1009.40,10.00,M,CLR,M,M,M,M,M,M,M,M,M,M,M,M,M,M,43.51,KHND 250156Z 22012KT 10SM CLR 09/M06 A2974 RMK AO2 SLP094 T00941061,M
NFL,2021-01-25 01:56,-118.7010,39.4166,1199.00,33.00,27.00,78.03,50.00,3.00,0.00,29.67,1002.90,10.00,M,SCT,BKN,BKN,BKN,4000.00,6500.00,10000.00,15000.00,M,M,M,M,M,M,M,29.95,KNFL 250156Z 05003KT 10SM SCT040 BKN065 BKN100 BKN150 01/M03 A2967 RMK AO2 SLP029 SH DSNT SW-NW T00061028,M
LSV,2021-01-25 01:58,-115.0343,36.2362,570.00,51.00,19.80,29.04,190.00,10.00,0.00,29.70,1005.90,10.00,M,CLR,M,M,M,M,M,M,M,M,M,M,M,M,M,M,50.90,KLSV 250158Z AUTO 19010KT 10SM CLR 11/M07 A2970 RMK AO2 SLP059 T01051068 $,M
INS,2021-01-25 01:58,-115.6733,36.5872,955.00,46.00,13.10,26.10,210.00,11.00,0.00,29.67,1004.70,10.00,M,CLR,M,M,M,M,M,M,M,M,M,M,M,M,M,M,40.16,KINS 250158Z AUTO 21011KT 10SM CLR 08/M10 A2967 RMK AO2 SLP047 T00781105 $,M
EKO,2021-01-25 02:06,-115.7860,40.8242,1367.00,19.00,15.10,84.49,240.00,3.00,0.00,29.68,M,10.00,M,SCT,M,M,M,800.00,M,M,M,M,M,M,M,M,M,M,13.83,KEKO 250206Z AUTO 24003KT 10SM SCT008 M07/M09 A2968 RMK AO2 T10721094,M
05U,2021-01-25 02:10,-116.0051,39.6042,1811.23,12.20,8.60,85.17,0.00,0.00,0.00,29.67,M,10.00,M,M,M,M,M,M,M,M,M,M,M,M,M,M,M,M,12.20,K05U 250210Z AUTO 00000KT 10SM M11/M13 A2967 RMK A01,M
HTH,2021-01-25 02:15,-118.6315,38.5448,1282.89,37.40,26.60,64.70,170.00,7.00,0.00,29.68,M,10.00,M,BKN,OVC,M,M,5500.00,6500.00,M,M,M,M,M,M,M,M,M,31.36,KHTH 250215Z AUTO 17007KT 10SM BKN055 OVC065 03/M03 A2968 RMK A01,M
BVU,2021-01-25 02:15,-114.8611,35.9475,671.00,48.20,30.20,49.53,190.00,7.00,0.00,29.74,M,10.00,M,BKN,M,M,M,8000.00,M,M,M,M,M,M,M,M,M,M,44.53,KBVU 250215Z AUTO 19007KT 10SM BKN080 09/M01 A2974 RMK AO2,M
TMT,2021-01-25 02:15,-117.1971,39.4643,1749.34,12.00,10.00,91.49,230.00,4.00,0.00,29.68,M,0.25,M,M,M,M,M,M,M,M,M,FZFG,M,M,M,M,M,M,4.07,KTMT 250215Z AUTO 23004KT 1/4SM FZFG M11/M12 A2968 RMK AO2 T11111122,M
RTS,2021-01-25 02:15,-119.8764,39.6682,1539.00,30.20,23.00,74.26,310.00,4.00,0.00,29.67,M,10.00,M,BKN,BKN,OVC,M,2600.00,4200.00,6500.00,M,M,M,M,M,M,M,M,25.32,KRTS 250215Z AUTO 31004KT 10SM BKN026 BKN042 OVC065 M01/M05 A2967 RMK AO2,M
MEV,2021-01-25 02:15,-119.7500,38.9963,1441.42,33.80,23.00,64.23,80.00,4.00,0.00,29.65,M,10.00,M,OVC,M,M,M,6000.00,M,M,M,M,M,M,M,M,M,M,29.52,KMEV 250215Z AUTO 08004KT 10SM OVC060 01/M05 A2965 RMK AO2,M
BAM,2021-01-25 02:15,-116.8743,40.5990,1382.36,19.40,19.40,100.00,130.00,4.00,0.00,29.72,M,10.00,M,CLR,M,M,M,M,M,M,M,M,M,M,M,M,M,M,12.71,KBAM 250215Z AUTO 13004KT 10SM CLR M07/M07 A2972 RMK AO1,M
CXP,2021-01-25 02:15,-119.7326,39.1923,1431.00,37.40,19.40,47.80,0.00,0.00,0.00,29.66,M,10.00,M,OVC,M,M,M,6000.00,M,M,M,M,M,M,M,M,M,M,37.40,KCXP 250215Z AUTO 00000KT 10SM OVC060 03/M07 A2966 RMK AO2,M
EKO,2021-01-25 02:24,-115.7860,40.8242,1367.00,18.00,14.00,84.05,230.00,3.00,0.00,29.68,M,10.00,M,BKN,M,M,M,800.00,M,M,M,M,M,M,M,M,M,M,12.68,KEKO 250224Z AUTO 23003KT 10SM BKN008 M08/M10 A2968 RMK AO2 T10781100,M
05U,2021-01-25 02:30,-116.0051,39.6042,1811.23,12.20,10.40,92.32,0.00,0.00,0.00,29.67,M,10.00,M,M,M,M,M,M,M,M,M,M,M,M,M,M,M,M,12.20,K05U 250230Z AUTO 00000KT 10SM M11/M12 A2967 RMK A01,M
BAM,2021-01-25 02:35,-116.8743,40.5990,1382.36,19.40,19.40,100.00,120.00,4.00,0.00,29.72,M,10.00,M,CLR,M,M,M,M,M,M,M,M,M,M,M,M,M,M,12.71,KBAM 250235Z AUTO 12004KT 10SM CLR M07/M07 A2972 RMK AO1,M
HTH,2021-01-25 02:35,-118.6315,38.5448,1282.89,37.40,26.60,64.70,150.00,11.00,0.00,29.68,M,10.00,M,SCT,BKN,OVC,M,3100.00,3800.00,5000.00,M,M,M,M,M,M,M,M,29.29,KHTH 250235Z AUTO 15011KT 10SM SCT031 BKN038 OVC050 03/M03 A2968 RMK A01,M
MEV,2021-01-25 02:35,-119.7500,38.9963,1441.42,32.00,24.80,74.44,70.00,7.00,0.00,29.64,M,10.00,M,BKN,OVC,M,M,6000.00,7000.00,M,M,M,M,M,M,M,M,M,24.78,KMEV 250235Z AUTO 07007KT 10SM BKN060 OVC070 00/M04 A2964 RMK AO2,M
BVU,2021-01-25 02:35,-114.8611,35.9475,671.00,48.20,32.00,53.27,180.00,7.00,0.00,29.74,M,10.00,M,FEW,M,M,M,8000.00,M,M,M,M,M,M,M,M,M,M,44.53,KBVU 250235Z AUTO 18007KT 10SM FEW080 09/00 A2974 RMK AO2,M
RTS,2021-01-25 02:35,-119.8764,39.6682,1539.00,30.20,24.80,80.07,0.00,0.00,0.00,29.66,M,5.00,M,BKN,BKN,OVC,M,2200.00,2700.00,6000.00,M,-SN,M,M,M,M,M,M,30.20,KRTS 250235Z AUTO 00000KT 5SM -SN BKN022 BKN027 OVC060 M01/M04 A2966 RMK AO2,M
CXP,2021-01-25 02:35,-119.7326,39.1923,1431.00,35.60,21.20,55.41,70.00,4.00,0.00,29.66,M,10.00,M,OVC,M,M,M,6000.00,M,M,M,M,M,M,M,M,M,M,31.62,KCXP 250235Z AUTO 07004KT 10SM OVC060 02/M06 A2966 RMK AO2,M
TMT,2021-01-25 02:35,-117.1971,39.4643,1749.34,10.40,8.20,90.61,0.00,0.00,0.00,29.68,M,0.25,M,M,M,M,M,M,M,M,M,FZFG,M,M,M,M,M,M,10.40,KTMT 250235Z AUTO 00000KT 1/4SM FZFG M12/M13 A2968 RMK AO2 T11201132,M
05U,2021-01-25 02:50,-116.0051,39.6042,1811.23,12.20,8.60,85.17,0.00,0.00,0.00,29.66,M,10.00,M,M,M,M,M,M,M,M,M,M,M,M,M,M,M,M,12.20,K05U 250250Z AUTO 00000KT 10SM M11/M13 A2966 RMK A01,M
ELY,2021-01-25 02:53,-114.8453,39.2950,1909.00,26.10,19.00,74.16,M,3.00,0.00,29.64,1005.90,10.00,M,SCT,M,M,M,6500.00,M,M,M,M,M,M,M,M,M,M,21.94,KELY 250253Z AUTO VRB03KT 10SM SCT065 M03/M07 A2964 RMK AO2 SLP059 T10331072 58000,M
DRA,2021-01-25 02:53,-116.0278,36.6206,1009.00,44.00,16.00,31.85,180.00,8.00,0.00,29.69,1005.30,10.00,M,CLR,M,M,M,M,M,M,M,M,M,M,M,M,M,M,39.02,KDRA 250253Z AUTO 18008KT 10SM CLR 07/M09 A2969 RMK AO2 SLP053 T00671089 57001,M
LOL,2021-01-25 02:53,-118.5701,40.0684,1192.43,34.00,28.00,78.43,20.00,3.00,0.00,29.67,1006.50,10.00,M,FEW,SCT,OVC,M,3600.00,6000.00,9000.00,M,M,M,M,M,M,M,M,30.97,KLOL 250253Z AUTO 02003KT 10SM FEW036 SCT060 OVC090 01/M02 A2967 RMK AO2 SLP065 T00111022 57005,M
VGT,2021-01-25 02:53,-115.1933,36.2111,667.00,51.00,15.10,23.54,190.00,7.00,0.00,29.66,1006.50,10.00,M,CLR,M,M,M,M,M,M,M,M,M,M,M,M,M,M,51.10,KVGT 250253Z 19007KT 10SM CLR 11/M09 A2966 RMK AO2 SLP065 T01061094 51005,M
P68,2021-01-25 02:53,-116.0056,39.6014,1993.00,12.00,9.00,87.48,0.00,0.00,0.00,29.64,1007.80,M,M,M,M,M,M,M,M,M,M,M,M,M,M,M,M,M,12.00,KP68 250253Z AUTO 00000KT M11/M13 A2964 RMK AO1 SLP078 T11111128 58003,M
MEV,2021-01-25 02:55,-119.7500,38.9963,1441.42,32.00,24.80,74.44,50.00,5.00,0.00,29.64,M,10.00,M,BKN,OVC,M,M,6000.00,7500.00,M,M,M,M,M,M,M,M,M,26.40,KMEV 250255Z AUTO 05005KT 10SM BKN060 OVC075 00/M04 A2964 RMK AO2,M
BAM,2021-01-25 02:55,-116.8743,40.5990,1382.36,19.40,19.40,100.00,120.00,5.00,0.00,29.72,M,10.00,M,SCT,M,M,M,900.00,M,M,M,M,M,M,M,M,M,M,11.43,KBAM 250255Z AUTO 12005KT 10SM SCT009 M07/M07 A2972 RMK AO1,M
TMT,2021-01-25 02:55,-117.1971,39.4643,1749.34,9.50,7.70,92.22,210.00,4.00,0.00,29.68,M,2.00,M,M,M,M,M,M,M,M,M,BR,M,M,M,M,M,M,1.15,KTMT 250255Z AUTO 21004KT 2SM BR M12/M13 A2968 RMK AO2 T11251135,M
BVU,2021-01-25 02:55,-114.8611,35.9475,671.00,46.40,32.00,57.00,170.00,6.00,0.00,29.74,M,10.00,M,CLR,M,M,M,M,M,M,M,M,M,M,M,M,M,M,42.87,KBVU 250255Z AUTO 17006KT 10SM CLR 08/00 A2974 RMK AO2,M
CXP,2021-01-25 02:55,-119.7326,39.1923,1431.00,35.60,21.20,55.41,30.00,3.00,0.00,29.65,M,10.00,M,FEW,SCT,OVC,M,4000.00,5000.00,6000.00,M,M,M,M,M,M,M,M,32.80,KCXP 250255Z AUTO 03003KT 10SM FEW040 SCT050 OVC060 02/M06 A2965 RMK AO2,M
RNO,2021-01-25 02:55,-119.7711,39.4839,1341.00,35.00,24.10,63.86,10.00,5.00,0.00,29.65,1005.20,10.00,M,OVC,M,M,M,3500.00,M,M,M,M,M,M,M,M,M,M,30.08,KRNO 250255Z 01005KT 10SM OVC035 02/M04 A2965 RMK AO2 SLP052 T00171044 58002 $,M
RTS,2021-01-25 02:55,-119.8764,39.6682,1539.00,30.20,24.80,80.07,0.00,0.00,0.00,29.65,M,10.00,M,FEW,SCT,BKN,M,2100.00,3700.00,4900.00,M,M,M,M,M,M,M,M,30.20,KRTS 250255Z AUTO 00000KT 10SM FEW021 SCT037 BKN049 M01/M04 A2965 RMK AO2,M
HTH,2021-01-25 02:55,-118.6315,38.5448,1282.89,37.40,26.60,64.70,140.00,12.00,0.00,29.67,M,10.00,M,FEW,SCT,OVC,M,3000.00,3700.00,5000.00,M,M,M,M,M,M,M,M,28.87,KHTH 250255Z AUTO 14012KT 10SM FEW030 SCT037 OVC050 03/M03 A2967 RMK A01,M
NFL,2021-01-25 02:56,-118.7010,39.4166,1199.00,33.00,28.00,81.30,340.00,5.00,0.00,29.66,1002.80,10.00,M,BKN,OVC,M,M,6500.00,9000.00,M,M,M,M,M,M,M,M,M,27.70,KNFL 250256Z AUTO 34005KT 10SM BKN065 OVC090 01/M02 A2966 RMK AO2 SLP028 T00061022 56004,M
HND,2021-01-25 02:56,-115.1344,35.9729,742.79,48.00,23.00,37.06,220.00,12.00,0.00,29.73,1009.40,10.00,M,CLR,M,M,M,M,M,M,M,M,M,M,M,M,M,M,42.37,KHND 250256Z 22012KT 10SM CLR 09/M05 A2973 RMK AO2 SLP094 T00891050 50004,M
EKO,2021-01-25 02:56,-115.7860,40.8242,1367.00,21.00,17.10,84.62,200.00,5.00,0.00,29.67,1009.10,10.00,M,OVC,M,M,M,700.00,M,M,M,M,M,M,M,M,M,M,13.33,KEKO 250256Z AUTO 20005KT 10SM OVC007 M06/M08 A2967 RMK AO2 SLP091 T10611083 57004,M
TPH,2021-01-25 02:56,-117.0904,38.0505,1654.00,27.00,25.00,92.05,360.00,3.00,0.00,29.65,1006.60,10.00,M,CLR,M,M,M,M,M,M,M,M,M,M,M,M,M,M,22.97,KTPH 250256Z AUTO 36003KT 10SM CLR M03/M04 A2965 RMK AO2 SLP066 T10281039 56007,M
LAS,2021-01-25 02:56,-115.1634,36.0719,663.00,50.00,21.00,31.60,210.00,5.00,0.00,29.71,1006.10,10.00,M,CLR,M,M,M,M,M,M,M,M,M,M,M,M,M,M,50.00,KLAS 250256Z 21005KT 10SM CLR 10/M06 A2971 RMK AO2 SLP061 T01001061 50004,M
WMC,2021-01-25 02:56,-117.8072,40.9019,1315.00,27.00,21.00,77.80,180.00,13.00,0.00,29.66,1006.70,10.00,M,CLR,M,M,M,M,M,M,M,M,M,M,M,M,M,M,15.16,KWMC 250256Z AUTO 18013KT 10SM CLR M03/M06 A2966 RMK AO2 SLP067 T10281061 56008 $,M
INS,2021-01-25 02:58,-115.6733,36.5872,955.00,45.30,14.20,28.13,210.00,6.00,0.00,29.67,1004.90,10.00,M,CLR,M,M,M,M,M,M,M,M,M,M,M,M,M,M,41.55,KINS 250258Z AUTO 21006KT 10SM CLR 07/M10 A2967 RMK AO2 SLP049 T00741099 53003 $,M
LSV,2021-01-25 02:58,-115.0343,36.2362,570.00,49.00,18.90,30.11,190.00,9.00,0.00,29.70,1006.20,10.00,M,CLR,M,M,M,M,M,M,M,M,M,M,M,M,M,M,44.53,KLSV 250258Z AUTO 19009KT 10SM CLR 09/M07 A2970 RMK AO2 SLP062 T00941073 53003 $,M
05U,2021-01-25 03:10,-116.0051,39.6042,1811.23,12.20,8.60,85.17,0.00,0.00,0.00,29.66,M,10.00,M,M,M,M,M,M,M,M,M,M,M,M,M,M,M,M,12.20,K05U 250310Z AUTO 00000KT 10SM M11/M13 A2966 RMK A01,M
BAM,2021-01-25 03:15,-116.8743,40.5990,1382.36,23.00,23.00,100.00,120.00,4.00,0.00,29.71,M,10.00,M,OVC,M,M,M,900.00,M,M,M,M,M,M,M,M,M,M,16.91,KBAM 250315Z AUTO 12004KT 10SM OVC009 M05/M05 A2971 RMK AO1,M
BVU,2021-01-25 03:15,-114.8611,35.9475,671.00,46.40,32.00,57.00,170.00,7.00,0.00,29.74,M,10.00,M,CLR,M,M,M,M,M,M,M,M,M,M,M,M,M,M,42.33,KBVU 250315Z AUTO 17007KT 10SM CLR 08/00 A2974 RMK AO2,M
HTH,2021-01-25 03:15,-118.6315,38.5448,1282.89,37.40,26.60,64.70,150.00,12.00,0.00,29.67,M,10.00,M,SCT,BKN,OVC,M,3800.00,4300.00,5000.00,M,M,M,M,M,M,M,M,28.87,KHTH 250315Z AUTO 15012KT 10SM SCT038 BKN043 OVC050 03/M03 A2967 RMK A01,M
MEV,2021-01-25 03:15,-119.7500,38.9963,1441.42,32.00,24.80,74.44,80.00,5.00,0.00,29.64,M,10.00,M,OVC,M,M,M,6000.00,M,M,M,M,M,M,M,M,M,M,26.40,KMEV 250315Z AUTO 08005KT 10SM OVC060 00/M04 A2964 RMK AO2,M
RTS,2021-01-25 03:15,-119.8764,39.6682,1539.00,30.20,24.80,80.07,0.00,0.00,0.00,29.65,M,10.00,M,FEW,SCT,BKN,M,2700.00,3800.00,4800.00,M,M,M,M,M,M,M,M,30.20,KRTS 250315Z AUTO 00000KT 10SM FEW027 SCT038 BKN048 M01/M04 A2965 RMK AO2,M
CXP,2021-01-25 03:15,-119.7326,39.1923,1431.00,35.60,21.20,55.41,0.00,0.00,0.00,29.65,M,10.00,M,FEW,BKN,OVC,M,4200.00,4900.00,6000.00,M,M,M,M,M,M,M,M,35.60,KCXP 250315Z AUTO 00000KT 10SM FEW042 BKN049 OVC060 02/M06 A2965 RMK AO2,M
TMT,2021-01-25 03:15,-117.1971,39.4643,1749.34,12.40,10.90,93.57,230.00,3.00,0.00,29.68,M,0.25,M,M,M,M,M,M,M,M,M,FZFG,M,M,M,M,M,M,6.28,KTMT 250315Z AUTO 23003KT 1/4SM FZFG M11/M12 A2968 RMK AO2 T11091117,M
05U,2021-01-25 03:30,-116.0051,39.6042,1811.23,12.20,8.60,85.17,0.00,0.00,0.00,29.66,M,10.00,M,M,M,M,M,M,M,M,M,M,M,M,M,M,M,M,12.20,K05U 250330Z AUTO 00000KT 10SM M11/M13 A2966 RMK A01,M
HTH,2021-01-25 03:35,-118.6315,38.5448,1282.89,35.60,28.40,74.80,140.00,13.00,0.00,29.67,M,10.00,M,FEW,BKN,OVC,M,2900.00,3700.00,4300.00,M,M,M,M,M,M,M,M,26.18,KHTH 250335Z AUTO 14013KT 10SM FEW029 BKN037 OVC043 02/M02 A2967 RMK A01,M
RTS,2021-01-25 03:35,-119.8764,39.6682,1539.00,30.20,24.80,80.07,340.00,3.00,0.00,29.64,M,10.00,M,FEW,BKN,OVC,M,2100.00,3600.00,4800.00,M,M,M,M,M,M,M,M,26.63,KRTS 250335Z AUTO 34003KT 10SM FEW021 BKN036 OVC048 M01/M04 A2964 RMK AO2,M
TMT,2021-01-25 03:35,-117.1971,39.4643,1749.34,12.00,10.00,91.49,250.00,3.00,0.00,29.67,M,1.00,M,M,M,M,M,M,M,M,M,BR,M,M,M,M,M,M,5.82,KTMT 250335Z AUTO 25003KT 1SM BR M11/M12 A2967 RMK AO2 T11111122,M
BVU,2021-01-25 03:35,-114.8611,35.9475,671.00,44.60,26.60,48.96,170.00,5.00,0.00,29.74,M,10.00,M,CLR,M,M,M,M,M,M,M,M,M,M,M,M,M,M,41.36,KBVU 250335Z AUTO 17005KT 10SM CLR 07/M03 A2974 RMK AO2,M
MEV,2021-01-25 03:35,-119.7500,38.9963,1441.42,32.00,24.80,74.44,100.00,4.00,0.00,29.63,M,10.00,M,BKN,OVC,M,M,5500.00,6500.00,M,M,M,M,M,M,M,M,M,27.42,KMEV 250335Z AUTO 10004KT 10SM BKN055 OVC065 M00/M04 A2963 RMK AO2,M
CXP,2021-01-25 03:35,-119.7326,39.1923,1431.00,35.60,21.20,55.41,0.00,0.00,0.00,29.64,M,10.00,M,FEW,OVC,M,M,4500.00,5500.00,M,M,M,M,M,M,M,M,M,35.60,KCXP 250335Z AUTO 00000KT 10SM FEW045 OVC055 02/M06 A2964 RMK AO2,M
BAM,2021-01-25 03:35,-116.8743,40.5990,1382.36,24.80,24.80,100.00,110.00,3.00,0.00,29.71,M,10.00,M,OVC,M,M,M,900.00,M,M,M,M,M,M,M,M,M,M,20.46,KBAM 250335Z AUTO 11003KT 10SM OVC009 M04/M04 A2971 RMK AO1,M
05U,2021-01-25 03:50,-116.0051,39.6042,1811.23,14.00,10.40,85.28,0.00,0.00,0.00,29.66,M,10.00,M,M,M,M,M,M,M,M,M,M,M,M,M,M,M,M,14.00,K05U 250350Z AUTO 00000KT 10SM M10/M12 A2966 RMK A01,M
VGT,2021-01-25 03:53,-115.1933,36.2111,667.00,50.00,19.90,30.16,180.00,7.00,0.00,29.66,1006.40,10.00,M,CLR,M,M,M,M,M,M,M,M,M,M,M,M,M,M,50.00,KVGT 250353Z AUTO 18007KT 10SM CLR 10/M07 A2966 RMK AO2 SLP064 T01001067,M
P68,2021-01-25 03:53,-116.0056,39.6014,1993.00,12.90,10.00,87.92,0.00,0.00,0.00,29.63,1007.90,M,M,M,M,M,M,M,M,M,M,M,M,M,M,M,M,M,12.90,KP68 250353Z AUTO 00000KT M11/M12 A2963 RMK AO1 SLP079 T11061122,M
LOL,2021-01-25 03:53,-118.5701,40.0684,1192.43,33.00,28.00,81.30,0.00,0.00,T,29.66,1006.50,4.00,M,OVC,M,M,M,3100.00,M,M,M,-SN,M,M,M,M,M,M,33.10,KLOL 250353Z AUTO 00000KT 4SM -SN OVC031 01/M02 A2966 RMK AO2 SNB44 SLP065 P0000 T00061022,M
ELY,2021-01-25 03:53,-114.8453,39.2950,1909.00,19.90,15.10,81.30,230.00,6.00,0.00,29.63,1005.90,10.00,M,FEW,FEW,M,M,5000.00,7000.00,M,M,M,M,M,M,M,M,M,10.96,KELY 250353Z AUTO 23006KT 10SM FEW050 FEW070 M07/M09 A2963 RMK AO2 SLP059 T10671094,M
DRA,2021-01-25 03:53,-116.0278,36.6206,1009.00,44.00,19.00,36.25,170.00,8.00,0.00,29.67,1004.20,10.00,M,CLR,M,M,M,M,M,M,M,M,M,M,M,M,M,M,39.02,KDRA 250353Z AUTO 17008KT 10SM CLR 07/M07 A2967 RMK AO2 SLP042 T00671072,M
EKO,2021-01-25 03:54,-115.7860,40.8242,1367.00,19.40,17.60,92.57,210.00,4.08,M,29.67,M,10.00,M,OVC,M,M,M,400.00,M,M,M,M,M,M,M,M,M,M,12.59,SPECI KEKO 250354Z 21004KT 10SM OVC004 M07/M08 A2967 RMK AO2 FIBI,M
HTH,2021-01-25 03:55,-118.6315,38.5448,1282.89,35.60,28.40,74.80,140.00,12.00,0.00,29.67,M,10.00,M,FEW,BKN,OVC,M,3700.00,4600.00,5500.00,M,M,M,M,M,M,M,M,26.58,KHTH 250355Z AUTO 14012KT 10SM FEW037 BKN046 OVC055 02/M02 A2967 RMK A01,M
RNO,2021-01-25 03:55,-119.7711,39.4839,1341.00,33.00,28.00,81.30,50.00,6.00,T,29.64,1005.10,8.00,M,OVC,M,M,M,3500.00,M,M,M,-SN,M,M,M,M,M,M,26.86,KRNO 250355Z 05006KT 8SM -SN OVC035 01/M02 A2964 RMK AO2 SNB42 SLP051 P0000 T00061022 $,M
BVU,2021-01-25 03:55,-114.8611,35.9475,671.00,44.60,23.00,42.14,0.00,0.00,0.00,29.74,M,10.00,M,CLR,M,M,M,M,M,M,M,M,M,M,M,M,M,M,44.60,KBVU 250355Z AUTO 00000KT 10SM CLR 07/M05 A2974 RMK AO2,M
TMT,2021-01-25 03:55,-117.1971,39.4643,1749.34,10.60,8.60,91.43,0.00,0.00,0.00,29.67,M,0.75,M,M,M,M,M,M,M,M,M,BR,M,M,M,M,M,M,10.60,KTMT 250355Z AUTO 00000KT 3/4SM BR M12/M13 A2967 RMK AO2 T11191130,M
BAM,2021-01-25 03:55,-116.8743,40.5990,1382.36,24.80,24.80,100.00,0.00,0.00,0.00,29.71,M,10.00,M,OVC,M,M,M,700.00,M,M,M,M,M,M,M,M,M,M,24.80,KBAM 250355Z AUTO 00000KT 10SM OVC007 M04/M04 A2971 RMK AO1,M
CXP,2021-01-25 03:55,-119.7326,39.1923,1431.00,35.60,21.20,55.41,0.00,0.00,0.00,29.64,M,10.00,M,OVC,M,M,M,5500.00,M,M,M,M,M,M,M,M,M,M,35.60,KCXP 250355Z AUTO 00000KT 10SM OVC055 02/M06 A2964 RMK AO2,M
RTS,2021-01-25 03:55,-119.8764,39.6682,1539.00,30.20,23.00,74.26,360.00,5.00,0.00,29.64,M,10.00,M,FEW,SCT,OVC,M,2500.00,3800.00,4900.00,M,M,M,M,M,M,M,M,24.26,KRTS 250355Z AUTO 36005KT 10SM FEW025 SCT038 OVC049 M01/M05 A2964 RMK AO2,M
MEV,2021-01-25 03:55,-119.7500,38.9963,1441.42,32.00,23.00,69.04,110.00,5.00,0.00,29.63,M,10.00,M,OVC,M,M,M,5500.00,M,M,M,M,M,M,M,M,M,M,26.40,KMEV 250355Z AUTO 11005KT 10SM OVC055 M00/M05 A2963 RMK AO2,M
TPH,2021-01-25 03:56,-117.0904,38.0505,1654.00,27.00,24.10,88.65,20.00,4.00,0.00,29.64,1006.20,10.00,M,CLR,M,M,M,M,M,M,M,M,M,M,M,M,M,M,21.58,KTPH 250356Z AUTO 02004KT 10SM CLR M03/M04 A2964 RMK AO2 SLP062 T10281044,M
EKO,2021-01-25 03:56,-115.7860,40.8242,1367.00,21.00,18.00,87.97,250.00,3.00,0.00,29.67,1008.60,10.00,M,OVC,M,M,M,400.00,M,M,M,M,M,M,M,M,M,M,16.11,KEKO 250356Z AUTO 25003KT 10SM OVC004 M06/M08 A2967 RMK AO2 SLP086 T10611078,M
WMC,2021-01-25 03:56,-117.8072,40.9019,1315.00,24.10,19.90,83.75,130.00,9.00,0.00,29.66,1006.70,10.00,M,FEW,FEW,M,M,4000.00,12000.00,M,M,M,M,M,M,M,M,M,13.69,KWMC 250356Z AUTO 13009KT 10SM FEW040 FEW120 M04/M07 A2966 RMK AO2 SLP067 T10441067 $,M
HND,2021-01-25 03:56,-115.1344,35.9729,742.79,45.00,23.00,41.50,180.00,10.00,0.00,29.73,1009.40,10.00,M,CLR,M,M,M,M,M,M,M,M,M,M,M,M,M,M,39.27,KHND 250356Z 18010KT 10SM CLR 07/M05 A2973 RMK AO2 SLP094 T00721050,M
LAS,2021-01-25 03:56,-115.1634,36.0719,663.00,49.00,21.90,34.20,180.00,6.00,0.00,29.71,1006.10,10.00,M,FEW,FEW,M,M,8000.00,14000.00,M,M,M,M,M,M,M,M,M,45.88,KLAS 250356Z 18006KT 10SM FEW080 FEW140 09/M06 A2971 RMK AO2 SLP061 T00941056,M
NFL,2021-01-25 03:56,-118.7010,39.4166,1199.00,33.00,28.90,84.36,0.00,0.00,T,29.67,1002.90,6.00,M,OVC,M,M,M,3500.00,M,M,M,-SN BR,M,M,M,M,M,M,33.10,KNFL 250356Z AUTO 00000KT 6SM -SN BR OVC035 01/M02 A2967 RMK AO2 SNB53 SLP029 P0000 T00061017,M
LOL,2021-01-25 03:57,-118.5701,40.0684,1192.43,33.00,28.00,81.30,140.00,3.00,T,29.66,M,2.50,M,OVC,M,M,M,2900.00,M,M,M,-SN,M,M,M,M,M,M,29.95,KLOL 250357Z AUTO 14003KT 2 1/2SM -SN OVC029 01/M02 A2966 RMK AO2 P0000 T00061022,M
LSV,2021-01-25 03:58,-115.0343,36.2362,570.00,48.60,23.50,37.00,180.00,9.00,0.00,29.70,1005.90,10.00,M,CLR,M,M,M,M,M,M,M,M,M,M,M,M,M,M,44.15,KLSV 250358Z AUTO 18009KT 10SM CLR 09/M05 A2970 RMK AO2 SLP059 T00921047 $,M
INS,2021-01-25 03:58,-115.6733,36.5872,955.00,38.30,13.60,35.89,50.00,5.00,0.00,29.66,1004.60,10.00,M,FEW,M,M,M,18000.00,M,M,M,M,M,M,M,M,M,M,33.88,KINS 250358Z AUTO 05005KT 10SM FEW180 04/M10 A2966 RMK AO2 SLP046 T00351102 $,M
LOL,2021-01-25 04:08,-118.5701,40.0684,1192.43,32.00,28.00,84.98,140.00,3.00,T,29.66,M,1.75,M,OVC,M,M,M,2500.00,M,M,M,-SN BR,M,M,M,M,M,M,28.69,KLOL 250408Z AUTO 14003KT 1 3/4SM -SN BR OVC025 00/M02 A2966 RMK AO2 P0000 T00001022,M
05U,2021-01-25 04:10,-116.0051,39.6042,1811.23,10.40,6.80,85.05,0.00,0.00,0.00,29.66,M,10.00,M,M,M,M,M,M,M,M,M,M,M,M,M,M,M,M,10.40,K05U 250410Z AUTO 00000KT 10SM M12/M14 A2966 RMK A01,M
RTS,2021-01-25 04:15,-119.8764,39.6682,1539.00,30.20,23.00,74.26,0.00,0.00,0.00,29.64,M,10.00,M,FEW,BKN,OVC,M,3700.00,4700.00,5500.00,M,M,M,M,M,M,M,M,30.20,KRTS 250415Z AUTO 00000KT 10SM FEW037 BKN047 OVC055 M01/M05 A2964 RMK AO2,M
HTH,2021-01-25 04:15,-118.6315,38.5448,1282.89,35.60,30.20,80.51,130.00,9.00,0.00,29.67,M,10.00,14.00,FEW,SCT,OVC,M,3600.00,4700.00,5500.00,M,M,M,M,M,M,M,M,27.99,KHTH 250415Z AUTO 13009G14KT 10SM FEW036 SCT047 OVC055 02/M01 A2967 RMK A01,M
MEV,2021-01-25 04:15,-119.7500,38.9963,1441.42,30.20,23.00,74.26,90.00,4.00,0.00,29.62,M,10.00,M,OVC,M,M,M,6000.00,M,M,M,M,M,M,M,M,M,M,25.32,KMEV 250415Z AUTO 09004KT 10SM OVC060 M01/M05 A2962 RMK AO2,M
BVU,2021-01-25 04:15,-114.8611,35.9475,671.00,44.60,26.60,48.96,0.00,0.00,0.00,29.74,M,10.00,M,FEW,M,M,M,8000.00,M,M,M,M,M,M,M,M,M,M,44.60,KBVU 250415Z AUTO 00000KT 10SM FEW080 07/M03 A2974 RMK AO2,M
CXP,2021-01-25 04:15,-119.7326,39.1923,1431.00,33.80,21.20,59.53,0.00,0.00,0.00,29.64,M,10.00,M,BKN,OVC,M,M,5500.00,6500.00,M,M,M,M,M,M,M,M,M,33.80,KCXP 250415Z AUTO 00000KT 10SM BKN055 OVC065 01/M06 A2964 RMK AO2,M
TMT,2021-01-25 04:15,-117.1971,39.4643,1749.34,11.30,9.50,92.29,0.00,0.00,0.00,29.66,M,0.50,M,M,M,M,M,M,M,M,M,FZFG,M,M,M,M,M,M,11.30,KTMT 250415Z AUTO 00000KT 1/2SM FZFG M11/M12 A2966 RMK AO2 T11151125,M
BAM,2021-01-25 04:15,-116.8743,40.5990,1382.36,24.80,24.80,100.00,0.00,0.00,0.00,29.69,M,10.00,M,OVC,M,M,M,900.00,M,M,M,M,M,M,M,M,M,M,24.80,KBAM 250415Z AUTO 00000KT 10SM OVC009 M04/M04 A2969 RMK AO1,M
LOL,2021-01-25 04:16,-118.5701,40.0684,1192.43,30.90,28.90,92.18,140.00,4.00,T,29.66,M,2.00,M,OVC,M,M,M,2300.00,M,M,M,-SN BR,M,M,M,M,M,M,26.14,KLOL 250416Z AUTO 14004KT 2SM -SN BR OVC023 M01/M02 A2966 RMK AO2 P0000 T10061017,M
LOL,2021-01-25 04:25,-118.5701,40.0684,1192.43,30.90,28.90,92.18,120.00,3.00,T,29.66,M,1.75,M,OVC,M,M,M,2500.00,M,M,M,-SN BR,M,M,M,M,M,M,27.43,KLOL 250425Z AUTO 12003KT 1 3/4SM -SN BR OVC025 M01/M02 A2966 RMK AO2 P0000 T10061017,M
LOL,2021-01-25 04:28,-118.5701,40.0684,1192.43,30.90,28.90,92.18,120.00,3.00,T,29.66,M,2.00,M,OVC,M,M,M,3000.00,M,M,M,-SN BR,M,M,M,M,M,M,27.43,KLOL 250428Z AUTO 12003KT 2SM -SN BR OVC030 M01/M02 A2966 RMK AO2 P0000 T10061017,M
05U,2021-01-25 04:30,-116.0051,39.6042,1811.23,10.40,6.80,85.05,0.00,0.00,0.00,29.66,M,10.00,M,M,M,M,M,M,M,M,M,M,M,M,M,M,M,M,10.40,K05U 250430Z AUTO 00000KT 10SM M12/M14 A2966 RMK A01,M
BVU,2021-01-25 04:35,-114.8611,35.9475,671.00,44.60,24.80,45.44,M,4.00,0.00,29.75,M,10.00,M,FEW,M,M,M,8500.00,M,M,M,M,M,M,M,M,M,M,42.13,KBVU 250435Z AUTO VRB04KT 10SM FEW085 07/M04 A2975 RMK AO2,M
HTH,2021-01-25 04:35,-118.6315,38.5448,1282.89,35.60,30.20,80.51,120.00,7.00,0.00,29.67,M,10.00,M,BKN,OVC,M,M,4500.00,5500.00,M,M,M,M,M,M,M,M,M,29.17,KHTH 250435Z AUTO 12007KT 10SM BKN045 OVC055 02/M01 A2967 RMK A01,M
TMT,2021-01-25 04:35,-117.1971,39.4643,1749.34,12.20,10.40,92.32,0.00,0.00,0.00,29.66,M,1.00,M,M,M,M,M,M,M,M,M,BR,M,M,M,M,M,M,12.20,KTMT 250435Z AUTO 00000KT 1SM BR M11/M12 A2966 RMK AO2 T11101120,M
MEV,2021-01-25 04:35,-119.7500,38.9963,1441.42,32.00,23.00,69.04,100.00,5.00,0.00,29.62,M,10.00,M,OVC,M,M,M,6000.00,M,M,M,M,M,M,M,M,M,M,26.40,KMEV 250435Z AUTO 10005KT 10SM OVC060 M00/M05 A2962 RMK AO2,M
CXP,2021-01-25 04:35,-119.7326,39.1923,1431.00,33.80,21.20,59.53,60.00,5.00,0.00,29.63,M,10.00,M,FEW,OVC,M,M,4900.00,6000.00,M,M,M,M,M,M,M,M,M,28.53,KCXP 250435Z AUTO 06005KT 10SM FEW049 OVC060 01/M06 A2963 RMK AO2,M
BAM,2021-01-25 04:35,-116.8743,40.5990,1382.36,24.80,24.80,100.00,0.00,0.00,0.00,29.69,M,10.00,M,OVC,M,M,M,900.00,M,M,M,M,M,M,M,M,M,M,24.80,KBAM 250435Z AUTO 00000KT 10SM OVC009 M04/M04 A2969 RMK AO1,M
RTS,2021-01-25 04:35,-119.8764,39.6682,1539.00,30.20,23.00,74.26,0.00,0.00,0.00,29.63,M,10.00,M,SCT,OVC,M,M,3800.00,4900.00,M,M,M,M,M,M,M,M,M,30.20,KRTS 250435Z AUTO 00000KT 10SM SCT038 OVC049 M01/M05 A2963 RMK AO2,M
LOL,2021-01-25 04:39,-118.5701,40.0684,1192.43,32.00,28.90,88.17,90.00,4.00,T,29.66,M,3.00,M,FEW,FEW,OVC,M,800.00,1400.00,4200.00,M,-SN BR,M,M,M,M,M,M,27.42,KLOL 250439Z AUTO 09004KT 3SM -SN BR FEW008 FEW014 OVC042 00/M02 A2966 RMK AO2 P0000 T00001017,M
LOL,2021-01-25 04:50,-118.5701,40.0684,1192.43,30.20,28.40,92.92,90.00,3.00,T,29.66,M,4.00,M,BKN,BKN,OVC,M,700.00,1200.00,4800.00,M,-SN BR,M,M,M,M,M,M,26.63,KLOL 250450Z AUTO 09003KT 4SM -SN BR BKN007 BKN012 OVC048 M01/M02 A2966 RMK AO2 P0000,M
05U,2021-01-25 04:50,-116.0051,39.6042,1811.23,12.20,8.60,85.17,0.00,0.00,0.00,29.66,M,10.00,M,M,M,M,M,M,M,M,M,M,M,M,M,M,M,M,12.20,K05U 250450Z AUTO 00000KT 10SM M11/M13 A2966 RMK A01,M
LOL,2021-01-25 04:53,-118.5701,40.0684,1192.43,30.90,28.90,92.18,90.00,3.00,T,29.66,1006.20,5.00,M,BKN,BKN,OVC,M,700.00,1200.00,5000.00,M,-SN BR,M,M,M,M,M,M,27.43,KLOL 250453Z AUTO 09003KT 5SM -SN BR BKN007 BKN012 OVC050 M01/M02 A2966 RMK AO2 SLP062 P0000 T10061017,M
DRA,2021-01-25 04:53,-116.0278,36.6206,1009.00,45.00,21.00,38.14,190.00,17.00,0.00,29.65,1003.10,10.00,27.00,CLR,M,M,M,M,M,M,M,M,M,M,M,27.00,200.00,2021-01-25 04:51,37.11,KDRA 250453Z AUTO 19017G27KT 10SM CLR 07/M06 A2965 RMK AO2 PK WND 20027/0451 SLP031 T00721061,M
P68,2021-01-25 04:53,-116.0056,39.6014,1993.00,15.10,10.90,83.11,0.00,0.00,0.00,29.63,1006.60,M,M,M,M,M,M,M,M,M,M,M,M,M,M,M,M,M,15.10,KP68 250453Z AUTO 00000KT M09/M12 A2963 RMK AO1 SLP066 T10941117,M
ELY,2021-01-25 04:53,-114.8453,39.2950,1909.00,25.00,19.00,77.62,200.00,9.00,0.00,29.63,1005.00,10.00,M,FEW,M,M,M,4200.00,M,M,M,M,M,M,M,M,M,M,14.81,KELY 250453Z AUTO 20009KT 10SM FEW042 M04/M07 A2963 RMK AO2 SLP050 T10391072,M
VGT,2021-01-25 04:53,-115.1933,36.2111,667.00,49.00,21.00,32.93,180.00,8.00,0.00,29.66,1006.00,10.00,M,CLR,M,M,M,M,M,M,M,M,M,M,M,M,M,M,44.93,KVGT 250453Z AUTO 18008KT 10SM CLR 09/M06 A2966 RMK AO2 SLP060 T00941061,M
MEV,2021-01-25 04:55,-119.7500,38.9963,1441.42,32.00,24.80,74.44,90.00,5.00,0.00,29.62,M,10.00,M,OVC,M,M,M,5500.00,M,M,M,M,M,M,M,M,M,M,26.40,KMEV 250455Z AUTO 09005KT 10SM OVC055 M00/M04 A2962 RMK AO2,M
BAM,2021-01-25 04:55,-116.8743,40.5990,1382.36,23.00,23.00,100.00,60.00,6.00,0.00,29.69,M,10.00,M,SCT,BKN,M,M,900.00,12000.00,M,M,M,M,M,M,M,M,M,14.69,KBAM 250455Z AUTO 06006KT 10SM SCT009 BKN120 M05/M05 A2969 RMK AO1,M
RNO,2021-01-25 04:55,-119.7711,39.4839,1341.00,33.00,28.90,84.36,0.00,0.00,T,29.63,1004.40,6.00,M,SCT,OVC,M,M,2000.00,4000.00,M,M,-SN BR,M,M,M,M,M,M,33.10,KRNO 250455Z 00000KT 6SM -SN BR SCT020 OVC040 01/M02 A2963 RMK AO2 SLP044 P0000 T00061017 $,M
TMT,2021-01-25 04:55,-117.1971,39.4643,1749.34,12.90,11.30,93.17,0.00,0.00,0.00,29.66,M,3.00,M,M,M,M,M,M,M,M,M,BR,M,M,M,M,M,M,12.90,KTMT 250455Z AUTO 00000KT 3SM BR M11/M11 A2966 RMK AO2 T11061115,M
RTS,2021-01-25 04:55,-119.8764,39.6682,1539.00,30.20,24.80,80.07,0.00,0.00,0.00,29.63,M,10.00,M,BKN,BKN,OVC,M,3800.00,4400.00,5000.00,M,M,M,M,M,M,M,M,30.20,KRTS 250455Z AUTO 00000KT 10SM BKN038 BKN044 OVC050 M01/M04 A2963 RMK AO2,M
CXP,2021-01-25 04:55,-119.7326,39.1923,1431.00,35.60,23.00,59.79,60.00,6.00,0.00,29.63,M,10.00,M,FEW,BKN,OVC,M,4900.00,6000.00,7500.00,M,M,M,M,M,M,M,M,29.87,KCXP 250455Z AUTO 06006KT 10SM FEW049 BKN060 OVC075 02/M05 A2963 RMK AO2,M
HTH,2021-01-25 04:55,-118.6315,38.5448,1282.89,33.80,30.20,86.49,120.00,7.00,0.00,29.67,M,10.00,M,BKN,OVC,M,M,4700.00,5500.00,M,M,M,M,M,M,M,M,M,26.97,KHTH 250455Z AUTO 12007KT 10SM BKN047 OVC055 01/M01 A2967 RMK A01,M
BVU,2021-01-25 04:55,-114.8611,35.9475,671.00,44.60,26.60,48.96,170.00,6.00,0.00,29.74,M,10.00,M,FEW,FEW,M,M,6500.00,9000.00,M,M,M,M,M,M,M,M,M,40.71,KBVU 250455Z AUTO 17006KT 10SM FEW065 FEW090 07/M03 A2974 RMK AO2,M
NFL,2021-01-25 04:56,-118.7010,39.4166,1199.00,33.00,28.90,84.36,70.00,4.00,T,29.66,1002.60,10.00,M,OVC,M,M,M,5000.00,M,M,M,M,M,M,M,M,M,M,28.70,KNFL 250456Z AUTO 07004KT 10SM OVC050 01/M02 A2966 RMK AO2 SNE25 SLP026 P0000 T00061017,M
LAS,2021-01-25 04:56,-115.1634,36.0719,663.00,47.00,21.90,36.87,180.00,7.00,0.00,29.70,1005.90,10.00,M,FEW,FEW,M,M,8000.00,14000.00,M,M,M,M,M,M,M,M,M,42.94,KLAS 250456Z 18007KT 10SM FEW080 FEW140 08/M06 A2970 RMK AO2 SLP059 T00831056,M
HND,2021-01-25 04:56,-115.1344,35.9729,742.79,46.00,21.90,38.15,180.00,12.00,0.00,29.73,1008.80,10.00,M,CLR,M,M,M,M,M,M,M,M,M,M,M,M,M,M,39.82,KHND 250456Z AUTO 18012KT 10SM CLR 08/M06 A2973 RMK AO2 SLP088 T00781056,M
WMC,2021-01-25 04:56,-117.8072,40.9019,1315.00,25.00,19.90,80.66,70.00,8.00,0.00,29.65,1006.40,10.00,M,OVC,M,M,M,3900.00,M,M,M,M,M,M,M,M,M,M,15.49,KWMC 250456Z AUTO 07008KT 10SM OVC039 M04/M07 A2965 RMK AO2 SLP064 T10391067 $,M
EKO,2021-01-25 04:56,-115.7860,40.8242,1367.00,21.00,19.00,91.83,210.00,5.00,0.00,29.67,1008.70,10.00,M,OVC,M,M,M,300.00,M,M,M,M,M,M,M,M,M,M,13.33,KEKO 250456Z AUTO 21005KT 10SM OVC003 M06/M07 A2967 RMK AO2 SLP087 T10611072,M
TPH,2021-01-25 04:56,-117.0904,38.0505,1654.00,25.00,23.00,91.97,340.00,5.00,0.00,29.64,1005.60,10.00,M,BKN,M,M,M,6500.00,M,M,M,M,M,M,M,M,M,M,18.08,KTPH 250456Z AUTO 34005KT 10SM BKN065 M04/M05 A2964 RMK AO2 SLP056 T10391050,M
LSV,2021-01-25 04:58,-115.0343,36.2362,570.00,48.70,23.00,36.10,190.00,12.00,0.00,29.69,1005.40,10.00,M,FEW,M,M,M,20000.00,M,M,M,M,M,M,M,M,M,M,43.26,KLSV 250458Z AUTO 19012KT 10SM FEW200 09/M05 A2969 RMK AO2 SLP054 T00931050 $,M
INS,2021-01-25 04:58,-115.6733,36.5872,955.00,38.00,12.90,35.08,150.00,6.00,0.00,29.65,1004.00,10.00,M,CLR,M,M,M,M,M,M,M,M,M,M,M,M,M,M,32.88,KINS 250458Z AUTO 15006KT 10SM CLR 03/M11 A2965 RMK AO2 SLP040 T00341106 $,M
05U,2021-01-25 05:10,-116.0051,39.6042,1811.23,14.00,10.40,85.28,0.00,0.00,0.00,29.66,M,10.00,M,M,M,M,M,M,M,M,M,M,M,M,M,M,M,M,14.00,K05U 250510Z AUTO 00000KT 10SM M10/M12 A2966 RMK A01,M
LOL,2021-01-25 05:12,-118.5701,40.0684,1192.43,32.00,28.90,88.17,100.00,4.00,T,29.66,M,4.00,M,SCT,OVC,M,M,700.00,4300.00,M,M,-SN BR,M,M,M,M,M,M,27.42,KLOL 250512Z AUTO 10004KT 4SM -SN BR SCT007 OVC043 00/M02 A2966 RMK AO2 P0000 T00001017,M
BVU,2021-01-25 05:15,-114.8611,35.9475,671.00,44.60,28.40,52.72,190.00,9.00,0.00,29.74,M,10.00,M,BKN,M,M,M,7000.00,M,M,M,M,M,M,M,M,M,M,39.18,KBVU 250515Z AUTO 19009KT 10SM BKN070 07/M02 A2974 RMK AO2,M
RTS,2021-01-25 05:15,-119.8764,39.6682,1539.00,28.40,24.80,86.18,0.00,0.00,0.00,29.63,M,10.00,M,BKN,OVC,M,M,3700.00,4600.00,M,M,M,M,M,M,M,M,M,28.40,KRTS 250515Z AUTO 00000KT 10SM BKN037 OVC046 M02/M04 A2963 RMK AO2,M
TMT,2021-01-25 05:15,-117.1971,39.4643,1749.34,13.60,12.20,94.02,0.00,0.00,0.00,29.66,M,0.25,M,M,M,M,M,M,M,M,M,FZFG,M,M,M,M,M,M,13.60,KTMT 250515Z AUTO 00000KT 1/4SM FZFG M10/M11 A2966 RMK AO2 T11021110,M
HTH,2021-01-25 05:15,-118.6315,38.5448,1282.89,33.80,28.40,80.36,110.00,7.00,0.00,29.67,M,10.00,M,SCT,BKN,OVC,M,3000.00,3800.00,4800.00,M,M,M,M,M,M,M,M,26.97,KHTH 250515Z AUTO 11007KT 10SM SCT030 BKN038 OVC048 01/M02 A2967 RMK A01,M
CXP,2021-01-25 05:15,-119.7326,39.1923,1431.00,33.80,23.00,64.23,70.00,7.00,0.00,29.63,M,10.00,M,OVC,M,M,M,7000.00,M,M,M,M,M,M,M,M,M,M,26.97,KCXP 250515Z AUTO 07007KT 10SM OVC070 01/M05 A2963 RMK AO2,M
BAM,2021-01-25 05:15,-116.8743,40.5990,1382.36,23.00,23.00,100.00,100.00,3.00,0.00,29.68,M,10.00,M,BKN,BKN,M,M,700.00,12000.00,M,M,M,M,M,M,M,M,M,18.40,KBAM 250515Z AUTO 10003KT 10SM BKN007 BKN120 M05/M05 A2968 RMK AO1,M
MEV,2021-01-25 05:15,-119.7500,38.9963,1441.42,32.00,23.00,69.04,70.00,6.00,0.00,29.61,M,10.00,M,BKN,OVC,M,M,5000.00,6000.00,M,M,M,M,M,M,M,M,M,25.53,KMEV 250515Z AUTO 07006KT 10SM BKN050 OVC060 M00/M05 A2961 RMK AO2,M
05U,2021-01-25 05:30,-116.0051,39.6042,1811.23,14.00,12.20,92.38,0.00,0.00,0.00,29.65,M,10.00,M,M,M,M,M,M,M,M,M,M,M,M,M,M,M,M,14.00,K05U 250530Z AUTO 00000KT 10SM M10/M11 A2965 RMK A01,M
BVU,2021-01-25 05:35,-114.8611,35.9475,671.00,46.40,26.60,45.73,190.00,8.00,0.00,29.74,M,10.00,14.00,BKN,OVC,M,M,6500.00,7500.00,M,M,M,M,M,M,M,M,M,41.85,KBVU 250535Z AUTO 19008G14KT 10SM BKN065 OVC075 08/M03 A2974 RMK AO2,M
TMT,2021-01-25 05:35,-117.1971,39.4643,1749.34,14.40,12.90,93.62,0.00,0.00,0.00,29.65,M,0.50,M,M,M,M,M,M,M,M,M,FZFG,M,M,M,M,M,M,14.40,KTMT 250535Z AUTO 00000KT 1/2SM FZFG M10/M11 A2965 RMK AO2 T10981106,M
CXP,2021-01-25 05:35,-119.7326,39.1923,1431.00,33.80,23.00,64.23,80.00,9.00,0.00,29.62,M,10.00,M,OVC,M,M,M,6500.00,M,M,M,M,M,M,M,M,M,M,25.75,KCXP 250535Z AUTO 08009KT 10SM OVC065 01/M05 A2962 RMK AO2,M
RTS,2021-01-25 05:35,-119.8764,39.6682,1539.00,28.40,24.80,86.18,90.00,4.00,0.00,29.62,M,10.00,M,SCT,SCT,OVC,M,3600.00,4300.00,8000.00,M,M,M,M,M,M,M,M,23.22,KRTS 250535Z AUTO 09004KT 10SM SCT036 SCT043 OVC080 M02/M04 A2962 RMK AO2,M
BAM,2021-01-25 05:35,-116.8743,40.5990,1382.36,21.20,21.20,100.00,140.00,3.00,0.00,29.68,M,10.00,M,SCT,SCT,M,M,700.00,12000.00,M,M,M,M,M,M,M,M,M,16.34,KBAM 250535Z AUTO 14003KT 10SM SCT007 SCT120 M06/M06 A2968 RMK AO1,M
MEV,2021-01-25 05:35,-119.7500,38.9963,1441.42,32.00,24.80,74.44,60.00,5.00,0.00,29.60,M,10.00,M,OVC,M,M,M,5500.00,M,M,M,M,M,M,M,M,M,M,26.40,KMEV 250535Z AUTO 06005KT 10SM OVC055 M00/M04 A2960 RMK AO2,M
HTH,2021-01-25 05:35,-118.6315,38.5448,1282.89,33.80,28.40,80.36,150.00,4.00,0.00,29.66,M,10.00,M,SCT,OVC,M,M,2400.00,2900.00,M,M,M,M,M,M,M,M,M,29.52,KHTH 250535Z AUTO 15004KT 10SM SCT024 OVC029 01/M02 A2966 RMK A01,M
LOL,2021-01-25 05:43,-118.5701,40.0684,1192.43,30.90,28.90,92.18,80.00,3.00,T,29.65,M,2.50,M,OVC,M,M,M,3900.00,M,M,M,-SN BR,M,M,M,M,M,M,27.43,KLOL 250543Z AUTO 08003KT 2 1/2SM -SN BR OVC039 M01/M02 A2965 RMK AO2 P0000 T10061017,M
05U,2021-01-25 05:50,-116.0051,39.6042,1811.23,12.20,8.60,85.17,0.00,0.00,0.00,29.65,M,10.00,M,M,M,M,M,M,M,M,M,M,M,M,M,M,M,M,12.20,K05U 250550Z AUTO 00000KT 10SM M11/M13 A2965 RMK A01,M
DRA,2021-01-25 05:53,-116.0278,36.6206,1009.00,43.00,24.10,46.91,190.00,12.00,0.00,29.66,1002.80,10.00,25.00,FEW,M,M,M,6000.00,M,M,M,M,M,M,M,29.00,200.00,2021-01-25 05:14,36.00,KDRA 250553Z AUTO 19012G25KT 10SM FEW060 06/M04 A2966 RMK AO2 PK WND 20029/0514 SLP028 T00611044 10100 20061 55010,M
LOL,2021-01-25 05:53,-118.5701,40.0684,1192.43,30.90,28.90,92.18,0.00,0.00,T,29.65,1005.70,3.00,M,SCT,OVC,M,M,1400.00,4100.00,M,M,-SN BR,M,M,M,M,M,M,30.90,KLOL 250553Z AUTO 00000KT 3SM -SN BR SCT014 OVC041 M01/M02 A2965 RMK AO2 SLP057 P0000 60000 T10061017 10050 21006 58005,M
P68,2021-01-25 05:53,-116.0056,39.6014,1993.00,14.00,10.00,83.77,120.00,3.00,0.00,29.62,1005.60,M,M,M,M,M,M,M,M,M,M,M,M,M,M,M,M,M,8.11,KP68 250553Z AUTO 12003KT M10/M12 A2962 RMK AO1 SLP056 T11001122 10000 21117 58004,M
VGT,2021-01-25 05:53,-115.1933,36.2111,667.00,50.00,25.00,37.39,190.00,10.00,0.00,29.65,1005.70,10.00,M,CLR,M,M,M,M,M,M,M,M,M,M,M,M,M,M,50.00,KVGT 250553Z AUTO 19010KT 10SM CLR 10/M04 A2965 RMK AO2 SLP057 T01001039 10139 20094 58004,M
ELY,2021-01-25 05:53,-114.8453,39.2950,1909.00,21.90,18.00,84.68,200.00,5.00,0.00,29.63,1004.80,10.00,M,FEW,OVC,M,M,4800.00,7500.00,M,M,M,M,M,M,M,M,M,14.40,KELY 250553Z AUTO 20005KT 10SM FEW048 OVC075 M06/M08 A2963 RMK AO2 SLP048 T10561078 10011 21072 56003,M
MEV,2021-01-25 05:55,-119.7500,38.9963,1441.42,32.00,24.80,74.44,70.00,6.00,0.00,29.60,M,10.00,M,BKN,OVC,M,M,4900.00,5500.00,M,M,M,M,M,M,M,M,M,25.53,KMEV 250555Z AUTO 07006KT 10SM BKN049 OVC055 M00/M04 A2960 RMK AO2,M
RTS,2021-01-25 05:55,-119.8764,39.6682,1539.00,28.40,24.80,86.18,100.00,4.00,0.00,29.62,M,10.00,M,SCT,BKN,OVC,M,3400.00,5500.00,7500.00,M,M,M,M,M,M,M,M,23.22,KRTS 250555Z AUTO 10004KT 10SM SCT034 BKN055 OVC075 M02/M04 A2962 RMK AO2,M
BAM,2021-01-25 05:55,-116.8743,40.5990,1382.36,21.20,21.20,100.00,110.00,3.00,0.00,29.68,M,10.00,M,SCT,BKN,BKN,M,100.00,700.00,12000.00,M,M,M,M,M,M,M,M,16.34,KBAM 250555Z AUTO 11003KT 10SM SCT001 BKN007 BKN120 M06/M06 A2968 RMK AO1,M
HTH,2021-01-25 05:55,-118.6315,38.5448,1282.89,33.80,30.20,86.49,140.00,3.00,0.00,29.65,M,10.00,M,BKN,BKN,OVC,M,2500.00,3000.00,7500.00,M,M,M,M,M,M,M,M,30.75,KHTH 250555Z AUTO 14003KT 10SM BKN025 BKN030 OVC075 01/M01 A2965 RMK A01,M
RNO,2021-01-25 05:55,-119.7711,39.4839,1341.00,32.00,28.90,88.17,40.00,4.00,T,29.62,1003.80,5.00,M,SCT,OVC,M,M,2000.00,3500.00,M,M,-SN BR,M,M,M,M,M,M,27.42,KRNO 250555Z 04004KT 5SM -SN BR SCT020 OVC035 00/M02 A2962 RMK AO2 SLP038 P0000 60000 T00001017 10044 20000 58009 $,M
CXP,2021-01-25 05:55,-119.7326,39.1923,1431.00,33.80,23.00,64.23,80.00,8.00,0.00,29.62,M,10.00,M,OVC,M,M,M,6000.00,M,M,M,M,M,M,M,M,M,M,26.33,KCXP 250555Z AUTO 08008KT 10SM OVC060 01/M05 A2962 RMK AO2,M
BVU,2021-01-25 05:55,-114.8611,35.9475,671.00,46.40,24.80,42.44,220.00,4.00,0.00,29.74,M,10.00,M,OVC,M,M,M,6000.00,M,M,M,M,M,M,M,M,M,M,44.24,KBVU 250555Z AUTO 22004KT 10SM OVC060 08/M04 A2974 RMK AO2,M
TMT,2021-01-25 05:55,-117.1971,39.4643,1749.34,14.40,12.70,92.80,0.00,0.00,0.00,29.65,M,0.75,M,M,M,M,M,M,M,M,M,BR,M,M,M,M,M,M,14.40,KTMT 250555Z AUTO 00000KT 3/4SM BR M10/M11 A2965 RMK AO2 T10981107 11053 21125,M
HND,2021-01-25 05:56,-115.1344,35.9729,742.79,46.00,28.00,49.18,200.00,18.00,0.00,29.72,1008.20,10.00,M,FEW,M,M,M,8000.00,M,M,M,M,M,M,M,M,M,M,38.18,KHND 250556Z AUTO 20018KT 10SM FEW080 08/M02 A2972 RMK AO2 SLP082 T00781022 10122 20061 58004,M
TPH,2021-01-25 05:56,-117.0904,38.0505,1654.00,27.00,21.00,77.80,90.00,3.00,0.00,29.64,1004.80,10.00,M,OVC,M,M,M,7000.00,M,M,M,M,M,M,M,M,M,M,22.97,KTPH 250556Z AUTO 09003KT 10SM OVC070 M03/M06 A2964 RMK AO2 SLP048 T10281061 10011 21039 56004,M
NFL,2021-01-25 05:56,-118.7010,39.4166,1199.00,33.00,30.00,88.23,130.00,5.00,T,29.64,1002.20,10.00,M,OVC,M,M,M,6000.00,M,M,M,M,M,M,M,M,M,M,27.70,KNFL 250556Z AUTO 13005KT 10SM OVC060 01/M01 A2964 RMK AO2 SNB0459E15 SLP022 P0000 60000 T00061011 10044 20000 58006,M
LAS,2021-01-25 05:56,-115.1634,36.0719,663.00,48.00,26.10,42.17,210.00,9.00,0.00,29.70,1005.50,10.00,16.00,FEW,FEW,BKN,M,8000.00,14000.00,20000.00,M,M,M,M,M,M,M,M,43.41,KLAS 250556Z 21009G16KT 10SM FEW080 FEW140 BKN200 09/M03 A2970 RMK AO2 SLP055 T00891033 10133 20083 58003,M
WMC,2021-01-25 05:56,-117.8072,40.9019,1315.00,24.10,19.90,83.75,90.00,3.00,0.00,29.64,1006.00,10.00,M,BKN,OVC,M,M,3800.00,5000.00,M,M,M,M,M,M,M,M,M,19.66,KWMC 250556Z AUTO 09003KT 10SM BKN038 OVC050 M04/M07 A2964 RMK AO2 SLP060 T10441067 11017 21044 58004 $,M
EKO,2021-01-25 05:56,-115.7860,40.8242,1367.00,19.90,18.00,92.19,0.00,0.00,0.00,29.66,1008.40,9.00,M,OVC,M,M,M,300.00,M,M,M,M,M,M,M,M,M,M,19.90,KEKO 250556Z AUTO 00000KT 9SM OVC003 M07/M08 A2966 RMK AO2 SLP084 T10671078 11033 21078 58004,M
LOL,2021-01-25 05:56,-118.5701,40.0684,1192.43,30.90,28.90,92.18,0.00,0.00,T,29.65,M,2.50,M,BKN,OVC,M,M,1400.00,3900.00,M,M,-SN BR,M,M,M,M,M,M,30.90,KLOL 250556Z AUTO 00000KT 2 1/2SM -SN BR BKN014 OVC039 M01/M02 A2965 RMK AO2 P0000 T10061017,M
LSV,2021-01-25 05:58,-115.0343,36.2362,570.00,49.00,23.90,36.93,180.00,14.00,0.00,29.69,1005.20,10.00,M,FEW,M,M,M,21000.00,M,M,M,M,M,M,M,M,M,M,43.20,KLSV 250558Z AUTO 18014KT 10SM FEW210 10/M04 A2969 RMK AO2 SLP052 T00951045 10131 20091 58002 $,M
INS,2021-01-25 05:58,-115.6733,36.5872,955.00,39.20,16.30,38.98,270.00,3.00,0.00,29.64,1003.00,10.00,M,CLR,M,M,M,M,M,M,M,M,M,M,M,M,M,M,36.92,KINS 250558Z AUTO 27003KT 10SM CLR 04/M09 A2964 RMK AO2 SLP030 T00401087 10108 20024 56010 $,M
05U,2021-01-25 06:10,-116.0051,39.6042,1811.23,12.20,8.60,85.17,0.00,0.00,0.00,29.65,M,10.00,M,M,M,M,M,M,M,M,M,M,M,M,M,M,M,M,12.20,K05U 250610Z AUTO 00000KT 10SM M11/M13 A2965 RMK A01,M
BVU,2021-01-25 06:15,-114.8611,35.9475,671.00,46.40,30.20,53.00,220.00,7.00,0.00,29.74,M,10.00,14.00,SCT,OVC,M,M,6000.00,8000.00,M,M,M,M,M,M,M,M,M,42.33,KBVU 250615Z AUTO 22007G14KT 10SM SCT060 OVC080 08/M01 A2974 RMK AO2,M
RTS,2021-01-25 06:15,-119.8764,39.6682,1539.00,28.40,26.60,92.86,130.00,6.00,0.00,29.61,M,10.00,M,FEW,OVC,M,M,3300.00,5500.00,M,M,M,M,M,M,M,M,M,21.19,KRTS 250615Z AUTO 13006KT 10SM FEW033 OVC055 M02/M03 A2961 RMK AO2,M
HTH,2021-01-25 06:15,-118.6315,38.5448,1282.89,33.80,30.20,86.49,150.00,3.00,0.00,29.65,M,10.00,M,FEW,OVC,M,M,2200.00,3200.00,M,M,M,M,M,M,M,M,M,30.75,KHTH 250615Z AUTO 15003KT 10SM FEW022 OVC032 01/M01 A2965 RMK A01,M
BAM,2021-01-25 06:15,-116.8743,40.5990,1382.36,23.00,23.00,100.00,20.00,5.00,0.00,29.68,M,10.00,M,SCT,SCT,M,M,700.00,12000.00,M,M,M,M,M,M,M,M,M,15.71,KBAM 250615Z AUTO 02005KT 10SM SCT007 SCT120 M05/M05 A2968 RMK AO1,M
TMT,2021-01-25 06:15,-117.1971,39.4643,1749.34,13.80,12.20,93.19,0.00,0.00,0.00,29.64,M,0.50,M,M,M,M,M,M,M,M,M,FZFG,M,M,M,M,M,M,13.80,KTMT 250615Z AUTO 00000KT 1/2SM FZFG M10/M11 A2964 RMK AO2 T11011110,M
CXP,2021-01-25 06:15,-119.7326,39.1923,1431.00,33.80,24.80,69.25,80.00,10.00,0.00,29.61,M,10.00,M,BKN,OVC,M,M,5500.00,6500.00,M,M,M,M,M,M,M,M,M,25.23,KCXP 250615Z AUTO 08010KT 10SM BKN055 OVC065 01/M04 A2961 RMK AO2,M
MEV,2021-01-25 06:15,-119.7500,38.9963,1441.42,32.00,23.00,69.04,80.00,4.00,0.00,29.60,M,10.00,M,BKN,OVC,M,M,4400.00,5000.00,M,M,M,M,M,M,M,M,M,27.42,KMEV 250615Z AUTO 08004KT 10SM BKN044 OVC050 M00/M05 A2960 RMK AO2,M
LOL,2021-01-25 06:19,-118.5701,40.0684,1192.43,30.90,30.00,96.41,0.00,0.00,T,29.65,M,1.75,M,OVC,M,M,M,1500.00,M,M,M,-SN BR,M,M,M,M,M,M,30.90,KLOL 250619Z AUTO 00000KT 1 3/4SM -SN BR OVC015 M01/M01 A2965 RMK AO2 P0000 T10061011,M
INS,2021-01-25 06:23,-115.6733,36.5872,955.00,39.20,15.80,38.15,0.00,0.00,0.00,29.65,1003.30,10.00,M,BKN,M,M,M,8000.00,M,M,M,M,M,M,M,M,M,M,39.20,KINS 250623Z AUTO 00000KT 10SM BKN080 04/M09 A2965 RMK AO2 SLP033 $,M
LOL,2021-01-25 06:28,-118.5701,40.0684,1192.43,30.90,30.00,96.41,0.00,0.00,T,29.64,M,1.25,M,FEW,OVC,M,M,300.00,1500.00,M,M,-SN BR,M,M,M,M,M,M,30.90,KLOL 250628Z AUTO 00000KT 1 1/4SM -SN BR FEW003 OVC015 M01/M01 A2964 RMK AO2 P0000 T10061011,M
05U,2021-01-25 06:30,-116.0051,39.6042,1811.23,12.20,8.60,85.17,0.00,0.00,0.00,29.64,M,10.00,M,M,M,M,M,M,M,M,M,M,M,M,M,M,M,M,12.20,K05U 250630Z AUTO 00000KT 10SM M11/M13 A2964 RMK A01,M
HTH,2021-01-25 06:35,-118.6315,38.5448,1282.89,33.80,30.20,86.49,200.00,3.00,0.00,29.64,M,10.00,M,SCT,OVC,M,M,3300.00,5000.00,M,M,M,M,M,M,M,M,M,30.75,KHTH 250635Z AUTO 20003KT 10SM SCT033 OVC050 01/M01 A2964 RMK A01,M
BAM,2021-01-25 06:35,-116.8743,40.5990,1382.36,23.00,23.00,100.00,40.00,8.00,0.00,29.68,M,10.00,M,BKN,BKN,M,M,700.00,12000.00,M,M,M,M,M,M,M,M,M,13.03,KBAM 250635Z AUTO 04008KT 10SM BKN007 BKN120 M05/M05 A2968 RMK AO1,M
RTS,2021-01-25 06:35,-119.8764,39.6682,1539.00,28.40,26.60,92.86,130.00,5.00,0.00,29.61,M,10.00,M,SCT,BKN,OVC,M,1900.00,5500.00,8500.00,M,-UP,M,M,M,M,M,M,22.12,KRTS 250635Z AUTO 13005KT 10SM -UP SCT019 BKN055 OVC085 M02/M03 A2961 RMK AO2,M
TMT,2021-01-25 06:35,-117.1971,39.4643,1749.34,13.60,12.00,93.19,0.00,0.00,0.00,29.64,M,7.00,M,M,M,M,M,M,M,M,M,M,M,M,M,M,M,M,13.60,KTMT 250635Z AUTO 00000KT 7SM M10/M11 A2964 RMK AO2 T11021111,M
BVU,2021-01-25 06:35,-114.8611,35.9475,671.00,46.40,32.00,57.00,150.00,7.00,0.00,29.74,M,10.00,M,BKN,OVC,M,M,7500.00,8500.00,M,M,M,M,M,M,M,M,M,42.33,KBVU 250635Z AUTO 15007KT 10SM BKN075 OVC085 08/00 A2974 RMK AO2,M
CXP,2021-01-25 06:35,-119.7326,39.1923,1431.00,32.00,24.80,74.44,90.00,10.00,0.00,29.61,M,10.00,M,OVC,M,M,M,5500.00,M,M,M,M,M,M,M,M,M,M,22.97,KCXP 250635Z AUTO 09010KT 10SM OVC055 00/M04 A2961 RMK AO2,M
MEV,2021-01-25 06:35,-119.7500,38.9963,1441.42,30.20,23.00,74.26,110.00,4.00,0.00,29.59,M,10.00,M,FEW,SCT,BKN,M,4000.00,4800.00,6000.00,M,M,M,M,M,M,M,M,25.32,KMEV 250635Z AUTO 11004KT 10SM FEW040 SCT048 BKN060 M01/M05 A2959 RMK AO2,M
LOL,2021-01-25 06:36,-118.5701,40.0684,1192.43,30.90,30.00,96.41,0.00,0.00,T,29.64,M,1.25,M,SCT,OVC,M,M,500.00,1200.00,M,M,-SN BR,M,M,M,M,M,M,30.90,KLOL 250636Z AUTO 00000KT 1 1/4SM -SN BR SCT005 OVC012 M01/M01 A2964 RMK AO2 P0000 T10061011,M
LOL,2021-01-25 06:49,-118.5701,40.0684,1192.43,30.20,30.20,100.00,0.00,0.00,T,29.64,M,1.25,M,BKN,OVC,M,M,500.00,1100.00,M,M,-SN BR,M,M,M,M,M,M,30.20,KLOL 250649Z AUTO 00000KT 1 1/4SM -SN BR BKN005 OVC011 M01/M01 A2964 RMK AO2 P0000,M
05U,2021-01-25 06:50,-116.0051,39.6042,1811.23,12.20,8.60,85.17,0.00,0.00,0.00,29.64,M,10.00,M,M,M,M,M,M,M,M,M,M,M,M,M,M,M,M,12.20,K05U 250650Z AUTO 00000KT 10SM M11/M13 A2964 RMK A01,M
DRA,2021-01-25 06:53,-116.0278,36.6206,1009.00,42.00,24.10,48.56,200.00,18.00,0.00,29.64,1002.40,10.00,25.00,CLR,M,M,M,M,M,M,M,M,M,M,M,26.00,200.00,2021-01-25 06:24,33.04,KDRA 250653Z AUTO 20018G25KT 10SM CLR 06/M04 A2964 RMK AO2 PK WND 20026/0624 SLP024 T00561044,M
ELY,2021-01-25 06:53,-114.8453,39.2950,1909.00,24.10,19.00,80.59,220.00,10.00,0.00,29.61,1003.70,10.00,M,SCT,M,M,M,7500.00,M,M,M,M,M,M,M,M,M,M,13.06,KELY 250653Z AUTO 22010KT 10SM SCT075 M04/M07 A2961 RMK AO2 SLP037 T10441072,M
VGT,2021-01-25 06:53,-115.1933,36.2111,667.00,49.00,27.00,42.32,200.00,12.00,0.00,29.65,1005.70,10.00,M,CLR,M,M,M,M,M,M,M,M,M,M,M,M,M,M,43.51,KVGT 250653Z AUTO 20012KT 10SM CLR 09/M03 A2965 RMK AO2 SLP057 T00941028,M
P68,2021-01-25 06:53,-116.0056,39.6014,1993.00,14.00,10.00,83.77,0.00,0.00,0.00,29.62,1005.30,M,M,M,M,M,M,M,M,M,M,M,M,M,M,M,M,M,14.00,KP68 250653Z AUTO 00000KT M10/M12 A2962 RMK AO1 SLP053 T11001122,M
LOL,2021-01-25 06:53,-118.5701,40.0684,1192.43,30.00,28.90,95.61,0.00,0.00,T,29.64,1005.30,1.25,M,BKN,OVC,M,M,500.00,1100.00,M,M,-SN BR,M,M,M,M,M,M,30.00,KLOL 250653Z AUTO 00000KT 1 1/4SM -SN BR BKN005 OVC011 M01/M02 A2964 RMK AO2 SLP053 P0000 T10111017,M
BVU,2021-01-25 06:55,-114.8611,35.9475,671.00,46.40,35.60,65.83,160.00,9.00,0.00,29.74,M,10.00,15.00,BKN,M,M,M,8000.00,M,M,M,M,M,M,M,M,M,M,41.42,KBVU 250655Z AUTO 16009G15KT 10SM BKN080 08/02 A2974 RMK AO2,M
RTS,2021-01-25 06:55,-119.8764,39.6682,1539.00,28.40,26.60,92.86,80.00,4.00,0.00,29.61,M,6.00,M,OVC,M,M,M,2000.00,M,M,M,-SN,M,M,M,M,M,M,23.22,KRTS 250655Z AUTO 08004KT 6SM -SN OVC020 M02/M03 A2961 RMK AO2,M
MEV,2021-01-25 06:55,-119.7500,38.9963,1441.42,32.00,23.00,69.04,0.00,0.00,0.00,29.59,M,10.00,M,BKN,BKN,OVC,M,5500.00,6500.00,7500.00,M,M,M,M,M,M,M,M,32.00,KMEV 250655Z AUTO 00000KT 10SM BKN055 BKN065 OVC075 M00/M05 A2959 RMK AO2,M
HTH,2021-01-25 06:55,-118.6315,38.5448,1282.89,33.80,30.20,86.49,0.00,0.00,0.00,29.63,M,10.00,M,BKN,OVC,M,M,4200.00,5000.00,M,M,M,M,M,M,M,M,M,33.80,KHTH 250655Z AUTO 00000KT 10SM BKN042 OVC050 01/M01 A2963 RMK A01,M
BAM,2021-01-25 06:55,-116.8743,40.5990,1382.36,21.20,21.20,100.00,80.00,5.00,0.00,29.67,M,7.00,M,SCT,SCT,BKN,M,100.00,700.00,12000.00,M,M,M,M,M,M,M,M,13.57,KBAM 250655Z AUTO 08005KT 7SM SCT001 SCT007 BKN120 M06/M06 A2967 RMK AO1,M
CXP,2021-01-25 06:55,-119.7326,39.1923,1431.00,32.00,26.60,80.22,70.00,7.00,0.00,29.61,M,10.00,M,BKN,OVC,M,M,5500.00,7000.00,M,M,M,M,M,M,M,M,M,24.78,KCXP 250655Z AUTO 07007KT 10SM BKN055 OVC070 00/M03 A2961 RMK AO2,M
TMT,2021-01-25 06:55,-117.1971,39.4643,1749.34,13.60,12.00,93.19,0.00,0.00,0.00,29.64,M,7.00,M,M,M,M,M,M,M,M,M,M,M,M,M,M,M,M,13.60,KTMT 250655Z AUTO 00000KT 7SM M10/M11 A2964 RMK AO2 T11021111,M
RNO,2021-01-25 06:55,-119.7711,39.4839,1341.00,32.00,30.00,92.22,20.00,4.00,T,29.60,1002.90,4.00,M,SCT,OVC,M,M,2000.00,3500.00,M,M,-SN BR,M,M,M,M,M,M,27.42,KRNO 250655Z 02004KT 4SM -SN BR SCT020 OVC035 00/M01 A2960 RMK AO2 SLP029 P0000 T00001011 $,M
NFL,2021-01-25 06:56,-118.7010,39.4166,1199.00,32.00,30.00,92.22,140.00,9.00,T,29.63,1001.70,7.00,M,OVC,M,M,M,5000.00,M,M,M,M,M,M,M,M,M,M,23.51,KNFL 250656Z AUTO 14009KT 7SM OVC050 00/M01 A2963 RMK AO2 SNB23E41 SLP017 P0000 T00001011,M
HND,2021-01-25 06:56,-115.1344,35.9729,742.79,46.00,28.00,49.18,190.00,12.00,0.00,29.73,1008.30,10.00,M,BKN,BKN,M,M,6000.00,7500.00,M,M,M,M,M,M,M,M,M,39.82,KHND 250656Z AUTO 19012KT 10SM BKN060 BKN075 08/M02 A2973 RMK AO2 SLP083 T00781022,M
EKO,2021-01-25 06:56,-115.7860,40.8242,1367.00,19.90,17.10,88.68,0.00,0.00,0.00,29.66,1008.10,7.00,M,OVC,M,M,M,200.00,M,M,M,M,M,M,M,M,M,M,19.90,KEKO 250656Z AUTO 00000KT 7SM OVC002 M07/M08 A2966 RMK AO2 SLP081 T10671083,M
TPH,2021-01-25 06:56,-117.0904,38.0505,1654.00,27.00,21.00,77.80,100.00,3.00,0.00,29.62,1004.50,10.00,M,BKN,OVC,M,M,6000.00,8000.00,M,M,M,M,M,M,M,M,M,22.97,KTPH 250656Z AUTO 10003KT 10SM BKN060 OVC080 M03/M06 A2962 RMK AO2 SLP045 T10281061,M
LAS,2021-01-25 06:56,-115.1634,36.0719,663.00,48.00,27.00,43.77,180.00,8.00,0.00,29.70,1005.40,10.00,M,SCT,SCT,OVC,M,8000.00,14000.00,17000.00,M,M,M,M,M,M,M,M,43.82,KLAS 250656Z 18008KT 10SM SCT080 SCT140 OVC170 09/M03 A2970 RMK AO2 SLP054 TOPS OF MTNS OBSCURED DSNT W T00891028,M
WMC,2021-01-25 06:56,-117.8072,40.9019,1315.00,26.10,19.90,77.06,80.00,6.00,T,29.64,1005.40,9.00,M,BKN,OVC,M,M,4500.00,5500.00,M,M,-SN,M,M,M,M,M,M,18.42,KWMC 250656Z AUTO 08006KT 9SM -SN BKN045 OVC055 M03/M07 A2964 RMK AO2 SNB39 SLP054 P0000 T10331067 $,M
LSV,2021-01-25 06:58,-115.0343,36.2362,570.00,48.70,28.40,45.16,170.00,14.00,0.00,29.69,1005.20,10.00,M,BKN,M,M,M,8500.00,M,M,M,M,M,M,M,M,M,M,42.69,KLSV 250658Z AUTO 17014KT 10SM BKN085 09/M02 A2969 RMK AO2 SLP052 T00931020 $,M
INS,2021-01-25 06:58,-115.6733,36.5872,955.00,36.50,13.80,38.86,30.00,5.00,0.00,29.64,1003.00,10.00,M,SCT,M,M,M,7500.00,M,M,M,M,M,M,M,M,M,M,31.74,KINS 250658Z AUTO 03005KT 10SM SCT075 03/M10 A2964 RMK AO2 SLP030 T00251101 $,M
05U,2021-01-25 07:10,-116.0051,39.6042,1811.23,12.20,8.60,85.17,0.00,0.00,0.00,29.63,M,10.00,M,M,M,M,M,M,M,M,M,M,M,M,M,M,M,M,12.20,K05U 250710Z AUTO 00000KT 10SM M11/M13 A2963 RMK A01,M
CXP,2021-01-25 07:15,-119.7326,39.1923,1431.00,33.80,24.80,69.25,50.00,6.00,0.00,29.61,M,10.00,11.00,BKN,OVC,M,M,5500.00,7000.00,M,M,M,M,M,M,M,M,M,27.70,KCXP 250715Z AUTO 05006G11KT 10SM BKN055 OVC070 01/M04 A2961 RMK AO2,M
RTS,2021-01-25 07:15,-119.8764,39.6682,1539.00,28.40,26.60,92.86,0.00,0.00,0.00,29.60,M,5.00,M,OVC,M,M,M,2200.00,M,M,M,-SN,M,M,M,M,M,M,28.40,KRTS 250715Z AUTO 00000KT 5SM -SN OVC022 M02/M03 A2960 RMK AO2,M
BVU,2021-01-25 07:15,-114.8611,35.9475,671.00,44.60,35.60,70.48,M,5.00,0.00,29.74,M,10.00,M,SCT,BKN,M,M,6000.00,8000.00,M,M,M,M,M,M,M,M,M,41.36,KBVU 250715Z AUTO VRB05KT 10SM SCT060 BKN080 07/02 A2974 RMK AO2,M
MEV,2021-01-25 07:15,-119.7500,38.9963,1441.42,30.20,24.80,80.07,M,3.00,0.00,29.59,M,10.00,M,BKN,OVC,M,M,5500.00,6500.00,M,M,M,M,M,M,M,M,M,26.63,KMEV 250715Z AUTO VRB03KT 10SM BKN055 OVC065 M01/M04 A2959 RMK AO2,M
BAM,2021-01-25 07:15,-116.8743,40.5990,1382.36,21.20,21.20,100.00,90.00,5.00,0.00,29.67,M,7.00,M,SCT,BKN,BKN,M,100.00,700.00,12000.00,M,M,M,M,M,M,M,M,13.57,KBAM 250715Z AUTO 09005KT 7SM SCT001 BKN007 BKN120 M06/M06 A2967 RMK AO1,M
TMT,2021-01-25 07:15,-117.1971,39.4643,1749.34,14.90,13.60,94.47,0.00,0.00,0.00,29.63,M,10.00,M,M,M,M,M,M,M,M,M,M,M,M,M,M,M,M,14.90,KTMT 250715Z AUTO 00000KT 10SM M09/M10 A2963 RMK AO2 T10951102,M
HTH,2021-01-25 07:15,-118.6315,38.5448,1282.89,33.80,30.20,86.49,280.00,3.00,0.00,29.62,M,10.00,M,FEW,SCT,OVC,M,3500.00,4100.00,5500.00,M,M,M,M,M,M,M,M,30.75,KHTH 250715Z AUTO 28003KT 10SM FEW035 SCT041 OVC055 01/M01 A2962 RMK A01,M
RNO,2021-01-25 07:27,-119.7711,39.4839,1341.00,32.00,30.00,92.22,0.00,0.00,T,29.60,M,2.00,M,FEW,BKN,OVC,M,800.00,1300.00,3200.00,M,-SN BR,M,M,M,M,M,M,32.00,KRNO 250727Z 00000KT 2SM -SN BR FEW008 BKN013 OVC032 00/M01 A2960 RMK AO2 P0000 T00001011 $,M
05U,2021-01-25 07:30,-116.0051,39.6042,1811.23,12.20,8.60,85.17,0.00,0.00,0.00,29.63,M,10.00,M,M,M,M,M,M,M,M,M,M,M,M,M,M,M,M,12.20,K05U 250730Z AUTO 00000KT 10SM M11/M13 A2963 RMK A01,M
NFL,2021-01-25 07:34,-118.7010,39.4166,1199.00,32.00,30.00,92.22,140.00,7.00,T,29.62,M,1.75,M,OVC,M,M,M,3400.00,M,M,M,-SN BR,M,M,M,M,M,M,24.78,KNFL 250734Z AUTO 14007KT 1 3/4SM -SN BR OVC034 00/M01 A2962 RMK AO2 SNB21 P0000 T00001011,M
BAM,2021-01-25 07:35,-116.8743,40.5990,1382.36,21.20,21.20,100.00,100.00,4.00,0.00,29.67,M,10.00,M,BKN,BKN,M,M,500.00,11000.00,M,M,M,M,M,M,M,M,M,14.81,KBAM 250735Z AUTO 10004KT 10SM BKN005 BKN110 M06/M06 A2967 RMK AO1,M
CXP,2021-01-25 07:35,-119.7326,39.1923,1431.00,32.00,24.80,74.44,M,4.00,0.00,29.60,M,10.00,M,SCT,OVC,M,M,4600.00,5000.00,M,M,M,M,M,M,M,M,M,27.42,KCXP 250735Z AUTO VRB04KT 10SM SCT046 OVC050 00/M04 A2960 RMK AO2,M
BVU,2021-01-25 07:35,-114.8611,35.9475,671.00,44.60,35.60,70.48,170.00,11.00,0.00,29.73,M,10.00,M,BKN,OVC,M,M,6000.00,6500.00,M,M,M,M,M,M,M,M,M,38.39,KBVU 250735Z AUTO 17011KT 10SM BKN060 OVC065 07/02 A2973 RMK AO2,M
TMT,2021-01-25 07:35,-117.1971,39.4643,1749.34,14.70,13.10,93.22,0.00,0.00,0.00,29.62,M,1.00,M,M,M,M,M,M,M,M,M,BR,M,M,M,M,M,M,14.70,KTMT 250735Z AUTO 00000KT 1SM BR M10/M10 A2962 RMK AO2 T10961105,M
HTH,2021-01-25 07:35,-118.6315,38.5448,1282.89,33.80,30.20,86.49,0.00,0.00,0.00,29.61,M,10.00,M,SCT,OVC,M,M,5500.00,7500.00,M,M,M,M,M,M,M,M,M,33.80,KHTH 250735Z AUTO 00000KT 10SM SCT055 OVC075 01/M01 A2961 RMK A01,M
RTS,2021-01-25 07:35,-119.8764,39.6682,1539.00,28.40,26.60,92.86,10.00,3.00,0.00,29.60,M,2.50,M,FEW,BKN,BKN,M,1000.00,2200.00,4500.00,M,-SN,M,M,M,M,M,M,24.57,KRTS 250735Z AUTO 01003KT 2 1/2SM -SN FEW010 BKN022 BKN045 M02/M03 A2960 RMK AO2,M
MEV,2021-01-25 07:35,-119.7500,38.9963,1441.42,30.20,24.80,80.07,0.00,0.00,0.00,29.58,M,10.00,M,FEW,SCT,BKN,M,2800.00,3600.00,4500.00,M,M,M,M,M,M,M,M,30.20,KMEV 250735Z AUTO 00000KT 10SM FEW028 SCT036 BKN045 M01/M04 A2958 RMK AO2,M
NFL,2021-01-25 07:44,-118.7010,39.4166,1199.00,32.00,30.00,92.22,140.00,9.00,T,29.61,M,1.50,M,OVC,M,M,M,2400.00,M,M,M,-SN BR,M,M,M,M,M,M,23.51,KNFL 250744Z AUTO 14009KT 1 1/2SM -SN BR OVC024 00/M01 A2961 RMK AO2 SNB21 P0000 T00001011,M
RNO,2021-01-25 07:46,-119.7711,39.4839,1341.00,30.90,30.00,96.41,20.00,4.00,0.02,29.59,M,2.00,M,FEW,OVC,M,M,800.00,1500.00,M,M,-SN BR,M,M,M,M,M,M,26.14,KRNO 250746Z 02004KT 2SM -SN BR FEW008 OVC015 M01/M01 A2959 RMK AO2 P0002 T10061011 $,M
05U,2021-01-25 07:50,-116.0051,39.6042,1811.23,12.20,8.60,85.17,0.00,0.00,0.00,29.62,M,10.00,M,M,M,M,M,M,M,M,M,M,M,M,M,M,M,M,12.20,K05U 250750Z AUTO 00000KT 10SM M11/M13 A2962 RMK A01,M
LOL,2021-01-25 07:53,-118.5701,40.0684,1192.43,30.90,30.00,96.41,0.00,0.00,0.03,29.62,1004.60,1.25,M,SCT,OVC,M,M,400.00,900.00,M,M,-SN BR,M,M,M,M,M,M,30.90,KLOL 250753Z AUTO 00000KT 1 1/4SM -SN BR SCT004 OVC009 M01/M01 A2962 RMK AO2 SLP046 P0003 T10061011 400561094,M
VGT,2021-01-25 07:53,-115.1933,36.2111,667.00,50.00,27.00,40.62,200.00,13.00,0.00,29.64,1005.10,10.00,M,OVC,M,M,M,8000.00,M,M,M,M,M,M,M,M,M,M,50.00,KVGT 250753Z AUTO 20013KT 10SM OVC080 10/M03 A2964 RMK AO2 SLP051 T01001028 401440044,M
ELY,2021-01-25 07:53,-114.8453,39.2950,1909.00,25.00,21.00,84.53,210.00,10.00,T,29.61,1002.90,9.00,M,SCT,BKN,OVC,M,3000.00,5000.00,8000.00,M,-SN,M,M,M,M,M,M,14.19,KELY 250753Z AUTO 21010KT 9SM -SN SCT030 BKN050 OVC080 M04/M06 A2961 RMK AO2 SNB52 SLP029 P0000 T10391061 400221072,M
P68,2021-01-25 07:53,-116.0056,39.6014,1993.00,12.90,10.00,87.92,230.00,4.00,0.00,29.60,1004.60,M,M,M,M,M,M,M,M,M,M,M,M,M,M,M,M,M,5.12,KP68 250753Z AUTO 23004KT M11/M12 A2960 RMK AO1 SLP046 T11061122 400001117,M
DRA,2021-01-25 07:53,-116.0278,36.6206,1009.00,42.00,23.00,46.37,190.00,11.00,0.00,29.64,1002.20,10.00,19.00,CLR,M,M,M,M,M,M,M,M,M,M,M,31.00,190.00,2021-01-25 07:30,35.23,KDRA 250753Z AUTO 19011G19KT 10SM CLR 06/M05 A2964 RMK AO2 PK WND 19031/0730 SLP022 T00561050 401061039,M
BVU,2021-01-25 07:55,-114.8611,35.9475,671.00,44.60,35.60,70.48,180.00,9.00,0.00,29.73,M,10.00,M,OVC,M,M,M,6000.00,M,M,M,M,M,M,M,M,M,M,39.18,KBVU 250755Z AUTO 18009KT 10SM OVC060 07/02 A2973 RMK AO2,M
RTS,2021-01-25 07:55,-119.8764,39.6682,1539.00,28.40,26.60,92.86,0.00,0.00,0.00,29.59,M,4.00,M,FEW,FEW,SCT,M,2800.00,3400.00,4400.00,M,-SN,M,M,M,M,M,M,28.40,KRTS 250755Z AUTO 00000KT 4SM -SN FEW028 FEW034 SCT044 M02/M03 A2959 RMK AO2,M
BAM,2021-01-25 07:55,-116.8743,40.5990,1382.36,21.20,21.20,100.00,130.00,4.00,0.00,29.66,M,10.00,M,OVC,M,M,M,500.00,M,M,M,M,M,M,M,M,M,M,14.81,KBAM 250755Z AUTO 13004KT 10SM OVC005 M06/M06 A2966 RMK AO1,M
TMT,2021-01-25 07:55,-117.1971,39.4643,1749.34,14.70,13.30,94.05,0.00,0.00,0.00,29.61,M,2.00,M,M,M,M,M,M,M,M,M,BR,M,M,M,M,M,M,14.70,KTMT 250755Z AUTO 00000KT 2SM BR M10/M10 A2961 RMK AO2 T10961104 410361146,M
CXP,2021-01-25 07:55,-119.7326,39.1923,1431.00,32.00,26.60,80.22,90.00,6.00,0.00,29.59,M,10.00,M,OVC,M,M,M,5000.00,M,M,M,M,M,M,M,M,M,M,25.53,KCXP 250755Z AUTO 09006KT 10SM OVC050 M00/M03 A2959 RMK AO2,M
MEV,2021-01-25 07:55,-119.7500,38.9963,1441.42,30.20,24.80,80.07,0.00,0.00,0.00,29.57,M,10.00,M,FEW,BKN,OVC,M,2800.00,4000.00,4700.00,M,M,M,M,M,M,M,M,30.20,KMEV 250755Z AUTO 00000KT 10SM FEW028 BKN040 OVC047 M01/M04 A2957 RMK AO2,M
RNO,2021-01-25 07:55,-119.7711,39.4839,1341.00,30.90,30.00,96.41,40.00,3.00,0.02,29.59,1002.10,2.00,M,OVC,M,M,M,1300.00,M,M,M,-SN BR,M,M,M,M,M,M,27.43,KRNO 250755Z 04003KT 2SM R16R/5500VP6000FT -SN BR OVC013 M01/M01 A2959 RMK AO2 SLP021 P0002 T10061011 400671056 $,M
HTH,2021-01-25 07:55,-118.6315,38.5448,1282.89,32.00,30.20,92.97,310.00,4.00,0.00,29.60,M,10.00,M,BKN,OVC,M,M,7500.00,9000.00,M,M,M,M,M,M,M,M,M,27.42,KHTH 250755Z AUTO 31004KT 10SM BKN075 OVC090 00/M01 A2960 RMK A01,M
WMC,2021-01-25 07:56,-117.8072,40.9019,1315.00,25.00,21.00,84.53,80.00,6.00,T,29.62,1004.70,9.00,M,BKN,BKN,OVC,M,3900.00,4800.00,6000.00,M,-SN,M,M,M,M,M,M,17.10,KWMC 250756Z AUTO 08006KT 9SM -SN BKN039 BKN048 OVC060 M04/M06 A2962 RMK AO2 SLP047 P0000 T10391061 400111139 $,M
HND,2021-01-25 07:56,-115.1344,35.9729,742.79,46.00,27.00,47.20,200.00,10.00,0.00,29.71,1007.80,10.00,M,OVC,M,M,M,7500.00,M,M,M,M,M,M,M,M,M,M,40.52,KHND 250756Z AUTO 20010KT 10SM OVC075 08/M03 A2971 RMK AO2 SLP078 T00781028 401331011,M
NFL,2021-01-25 07:56,-118.7010,39.4166,1199.00,32.00,30.00,92.22,140.00,6.00,T,29.61,1001.10,1.75,M,OVC,M,M,M,2000.00,M,M,M,-SN BR,M,M,M,M,M,M,25.53,KNFL 250756Z AUTO 14006KT 1 3/4SM -SN BR OVC020 00/M01 A2961 RMK AO2 SNB21 SLP011 P0000 T00001011 400441044,M
TPH,2021-01-25 07:56,-117.0904,38.0505,1654.00,28.00,21.00,74.67,120.00,6.00,0.00,29.61,1003.50,10.00,M,OVC,M,M,M,4800.00,M,M,M,M,M,M,M,M,M,M,20.71,KTPH 250756Z AUTO 12006KT 10SM OVC048 M02/M06 A2961 RMK AO2 SLP035 T10221061 400221078,M
LAS,2021-01-25 07:56,-115.1634,36.0719,663.00,48.00,27.00,43.77,170.00,8.00,0.00,29.68,1004.80,10.00,M,OVC,M,M,M,8000.00,M,M,M,M,M,M,M,M,M,M,43.82,KLAS 250756Z 17008KT 10SM OVC080 09/M03 A2968 RMK AO2 SLP048 TOPS OF MTNS OBSCURED DSNT W T00891028 401390022,M
EKO,2021-01-25 07:56,-115.7860,40.8242,1367.00,19.90,18.00,92.19,0.00,0.00,0.00,29.64,1007.10,4.00,M,OVC,M,M,M,200.00,M,M,M,BR,T,M,M,M,M,M,19.90,KEKO 250756Z AUTO 00000KT 4SM BR OVC002 M07/M08 A2964 RMK AO2 SLP071 I1000 T10671078 410221083,M
LSV,2021-01-25 07:58,-115.0343,36.2362,570.00,49.00,29.70,47.27,180.00,12.00,0.00,29.68,1004.70,10.00,M,OVC,M,M,M,8500.00,M,M,M,M,M,M,M,M,M,M,43.51,KLSV 250758Z AUTO 18012KT 10SM OVC085 09/M01 A2968 RMK AO2 SLP047 T00941013 401421006 $,M
INS,2021-01-25 07:58,-115.6733,36.5872,955.00,36.00,14.50,40.88,10.00,6.00,0.00,29.62,1002.30,10.00,M,CLR,M,M,M,M,M,M,M,M,M,M,M,M,M,M,30.35,KINS 250758Z AUTO 01006KT 10SM CLR 02/M10 A2962 RMK AO2 SLP023 T00221097 401121057 $,M
ELY,2021-01-25 08:03,-114.8453,39.2950,1909.00,25.00,21.00,84.53,220.00,8.00,T,29.60,M,2.50,M,BKN,OVC,M,M,2200.00,8000.00,M,M,-SN BR,M,M,M,M,M,M,15.49,KELY 250803Z AUTO 22008KT 2 1/2SM -SN BR BKN022 OVC080 M04/M06 A2960 RMK AO2 P0000 T10391061,M
RNO,2021-01-25 08:04,-119.7711,39.4839,1341.00,30.90,30.00,96.41,50.00,4.00,0.01,29.58,M,1.00,M,VV ,M,M,M,1100.00,M,M,M,-SN BR,M,M,M,M,M,M,26.14,KRNO 250804Z 05004KT 1SM R16R/4500VP6000FT -SN BR VV011 M01/M01 A2958 RMK AO2 P0001 T10061011 $,M
05U,2021-01-25 08:10,-116.0051,39.6042,1811.23,14.00,10.40,85.28,0.00,0.00,0.00,29.61,M,10.00,M,M,M,M,M,M,M,M,M,M,M,M,M,M,M,M,14.00,K05U 250810Z AUTO 00000KT 10SM M10/M12 A2961 RMK A01,M
RNO,2021-01-25 08:11,-119.7711,39.4839,1341.00,30.90,30.00,96.41,50.00,4.00,0.02,29.58,M,1.00,M,FEW,OVC,M,M,500.00,1000.00,M,M,-SN BR,M,M,M,M,M,M,26.14,KRNO 250811Z 05004KT 1SM R16R/5000VP6000FT -SN BR FEW005 OVC010 M01/M01 A2958 RMK AO2 P0002 T10061011 $,M
EKO,2021-01-25 08:12,-115.7860,40.8242,1367.00,19.90,17.10,88.68,270.00,3.00,0.00,29.63,M,4.00,M,OVC,M,M,M,100.00,M,M,M,BR,M,M,M,M,M,M,14.86,KEKO 250812Z AUTO 27003KT 4SM BR OVC001 M07/M08 A2963 RMK AO2 T10671083,M
TMT,2021-01-25 08:15,-117.1971,39.4643,1749.34,14.90,13.30,93.23,310.00,3.00,0.00,29.61,M,7.00,M,M,M,M,M,M,M,M,M,M,M,M,M,M,M,M,9.14,KTMT 250815Z AUTO 31003KT 7SM M09/M10 A2961 RMK AO2 T10951104,M
BAM,2021-01-25 08:15,-116.8743,40.5990,1382.36,23.00,23.00,100.00,130.00,4.00,0.00,29.65,M,10.00,M,OVC,M,M,M,500.00,M,M,M,M,M,M,M,M,M,M,16.91,KBAM 250815Z AUTO 13004KT 10SM OVC005 M05/M05 A2965 RMK AO1,M
CXP,2021-01-25 08:15,-119.7326,39.1923,1431.00,32.00,26.60,80.22,90.00,4.00,0.00,29.58,M,10.00,M,BKN,OVC,M,M,5000.00,5500.00,M,M,M,M,M,M,M,M,M,27.42,KCXP 250815Z AUTO 09004KT 10SM BKN050 OVC055 M00/M03 A2958 RMK AO2,M
HTH,2021-01-25 08:15,-118.6315,38.5448,1282.89,32.00,32.00,100.00,0.00,0.00,0.00,29.60,M,10.00,M,BKN,BKN,OVC,M,7500.00,9000.00,12000.00,M,M,M,M,M,M,M,M,32.00,KHTH 250815Z AUTO 00000KT 10SM BKN075 BKN090 OVC120 00/M00 A2960 RMK A01,M
RTS,2021-01-25 08:15,-119.8764,39.6682,1539.00,26.60,26.60,100.00,0.00,0.00,0.00,29.58,M,4.00,M,FEW,SCT,BKN,M,300.00,3700.00,6000.00,M,-SN,M,M,M,M,M,M,26.60,KRTS 250815Z AUTO 00000KT 4SM -SN FEW003 SCT037 BKN060 M03/M03 A2958 RMK AO2,M
MEV,2021-01-25 08:15,-119.7500,38.9963,1441.42,28.40,24.80,86.18,0.00,0.00,0.00,29.57,M,10.00,M,FEW,SCT,BKN,M,2500.00,3200.00,3900.00,M,M,M,M,M,M,M,M,28.40,KMEV 250815Z AUTO 00000KT 10SM FEW025 SCT032 BKN039 M02/M04 A2957 RMK AO2,M
BVU,2021-01-25 08:15,-114.8611,35.9475,671.00,44.60,35.60,70.48,170.00,10.00,0.00,29.72,M,10.00,M,OVC,M,M,M,6000.00,M,M,M,M,M,M,M,M,M,M,38.77,KBVU 250815Z AUTO 17010KT 10SM OVC060 07/02 A2972 RMK AO2,M
ELY,2021-01-25 08:16,-114.8453,39.2950,1909.00,25.00,21.90,87.81,210.00,8.00,T,29.60,M,1.50,M,OVC,M,M,M,2300.00,M,M,M,-SN BR,M,M,M,M,M,M,15.49,KELY 250816Z AUTO 21008KT 1 1/2SM -SN BR OVC023 M04/M06 A2960 RMK AO2 P0000 T10391056,M
ELY,2021-01-25 08:24,-114.8453,39.2950,1909.00,25.00,21.90,87.81,200.00,6.00,0.01,29.60,M,1.25,M,OVC,M,M,M,1700.00,M,M,M,-SN BR,M,M,M,M,M,M,17.10,KELY 250824Z AUTO 20006KT 1 1/4SM -SN BR OVC017 M04/M06 A2960 RMK AO2 P0001 T10391056,M
RNO,2021-01-25 08:25,-119.7711,39.4839,1341.00,30.90,30.00,96.41,50.00,3.00,0.03,29.57,M,1.00,M,FEW,OVC,M,M,400.00,900.00,M,M,-SN BR,M,M,M,M,M,M,27.43,KRNO 250825Z 05003KT 1SM R16R/6000VP6000FT -SN BR FEW004 OVC009 M01/M01 A2957 RMK AO2 P0003 T10061011 $,M
EKO,2021-01-25 08:26,-115.7860,40.8242,1367.00,19.90,18.00,92.19,260.00,3.00,0.00,29.63,M,1.75,M,OVC,M,M,M,100.00,M,M,M,BR,M,M,M,M,M,M,14.86,KEKO 250826Z AUTO 26003KT 1 3/4SM BR OVC001 M07/M08 A2963 RMK AO2 T10671078,M
NFL,2021-01-25 08:26,-118.7010,39.4166,1199.00,32.00,30.00,92.22,140.00,5.00,T,29.60,M,2.00,M,OVC,M,M,M,2400.00,M,M,M,-SN BR,M,M,M,M,M,M,26.40,KNFL 250826Z AUTO 14005KT 2SM -SN BR OVC024 00/M01 A2960 RMK AO2 P0000 T00001011,M
05U,2021-01-25 08:30,-116.0051,39.6042,1811.23,15.80,12.20,85.40,0.00,0.00,0.00,29.60,M,10.00,M,M,M,M,M,M,M,M,M,M,M,M,M,M,M,M,15.80,K05U 250830Z AUTO 00000KT 10SM M09/M11 A2960 RMK A01,M
ELY,2021-01-25 08:31,-114.8453,39.2950,1909.00,25.00,21.90,87.81,200.00,5.00,0.01,29.59,M,2.00,M,OVC,M,M,M,1900.00,M,M,M,-SN BR,M,M,M,M,M,M,18.08,KELY 250831Z AUTO 20005KT 2SM -SN BR OVC019 M04/M06 A2959 RMK AO2 P0001 T10391056,M
RNO,2021-01-25 08:32,-119.7711,39.4839,1341.00,30.90,30.00,96.41,0.00,0.00,0.04,29.58,M,1.00,M,SCT,BKN,OVC,M,400.00,1100.00,3600.00,M,-SN BR,M,M,M,M,M,M,30.90,KRNO 250832Z 00000KT 1SM R16R/P6000FT -SN BR SCT004 BKN011 OVC036 M01/M01 A2958 RMK AO2 P0004 T10061011 $,M
MEV,2021-01-25 08:35,-119.7500,38.9963,1441.42,28.40,24.80,86.18,0.00,0.00,0.00,29.56,M,10.00,M,FEW,SCT,BKN,M,2500.00,3400.00,4900.00,M,M,M,M,M,M,M,M,28.40,KMEV 250835Z AUTO 00000KT 10SM FEW025 SCT034 BKN049 M02/M04 A2956 RMK AO2,M
HTH,2021-01-25 08:35,-118.6315,38.5448,1282.89,32.00,32.00,100.00,0.00,0.00,0.00,29.59,M,10.00,M,SCT,OVC,M,M,8000.00,11000.00,M,M,M,M,M,M,M,M,M,32.00,KHTH 250835Z AUTO 00000KT 10SM SCT080 OVC110 M00/M00 A2959 RMK A01,M
TMT,2021-01-25 08:35,-117.1971,39.4643,1749.34,15.10,13.80,94.47,0.00,0.00,0.00,29.60,M,10.00,M,M,M,M,M,M,M,M,M,M,M,M,M,M,M,M,15.10,KTMT 250835Z AUTO 00000KT 10SM M09/M10 A2960 RMK AO2 T10941101,M
RTS,2021-01-25 08:35,-119.8764,39.6682,1539.00,26.60,26.60,100.00,0.00,0.00,0.00,29.58,M,9.00,M,SCT,BKN,OVC,M,1700.00,3600.00,7000.00,M,-SN,M,M,M,M,M,M,26.60,KRTS 250835Z AUTO 00000KT 9SM -SN SCT017 BKN036 OVC070 M03/M03 A2958 RMK AO2,M
BVU,2021-01-25 08:35,-114.8611,35.9475,671.00,44.60,35.60,70.48,170.00,12.00,0.00,29.71,M,10.00,18.00,FEW,OVC,M,M,4300.00,5500.00,M,M,M,M,M,M,M,M,M,38.04,KBVU 250835Z AUTO 17012G18KT 10SM FEW043 OVC055 07/02 A2971 RMK AO2,M
BAM,2021-01-25 08:35,-116.8743,40.5990,1382.36,23.00,23.00,100.00,0.00,0.00,0.00,29.65,M,10.00,M,OVC,M,M,M,500.00,M,M,M,M,M,M,M,M,M,M,23.00,KBAM 250835Z AUTO 00000KT 10SM OVC005 M05/M05 A2965 RMK AO1,M
CXP,2021-01-25 08:35,-119.7326,39.1923,1431.00,30.20,26.60,86.28,90.00,7.00,0.00,29.58,M,10.00,M,OVC,M,M,M,4800.00,M,M,M,M,M,M,M,M,M,M,22.59,KCXP 250835Z AUTO 09007KT 10SM OVC048 M01/M03 A2958 RMK AO2,M
NFL,2021-01-25 08:39,-118.7010,39.4166,1199.00,32.00,30.00,92.22,140.00,6.00,T,29.59,M,1.50,M,OVC,M,M,M,2000.00,M,M,M,-SN BR,M,M,M,M,M,M,25.53,KNFL 250839Z AUTO 14006KT 1 1/2SM -SN BR OVC020 00/M01 A2959 RMK AO2 P0000 T00001011,M
ELY,2021-01-25 08:41,-114.8453,39.2950,1909.00,24.10,21.00,87.76,220.00,7.00,0.01,29.59,M,3.00,M,BKN,OVC,M,M,1900.00,7000.00,M,M,-SN BR,M,M,M,M,M,M,15.15,KELY 250841Z AUTO 22007KT 3SM -SN BR BKN019 OVC070 M04/M06 A2959 RMK AO2 P0001 T10441061,M
EKO,2021-01-25 08:43,-115.7860,40.8242,1367.00,19.90,18.00,92.19,0.00,0.00,0.00,29.62,M,2.50,M,OVC,M,M,M,100.00,M,M,M,BR,M,M,M,M,M,M,19.90,KEKO 250843Z AUTO 00000KT 2 1/2SM BR OVC001 M07/M08 A2962 RMK AO2 VIS 2V3 T10671078,M
LOL,2021-01-25 08:48,-118.5701,40.0684,1192.43,30.20,28.40,92.92,0.00,0.00,0.02,29.60,M,1.25,M,BKN,OVC,M,M,400.00,800.00,M,M,-SN BR,M,M,M,M,M,M,30.20,KLOL 250848Z AUTO 00000KT 1 1/4SM -SN BR BKN004 OVC008 M01/M02 A2960 RMK AO2 P0002,M
05U,2021-01-25 08:50,-116.0051,39.6042,1811.23,17.60,14.00,85.51,0.00,0.00,0.00,29.60,M,10.00,M,M,M,M,M,M,M,M,M,M,M,M,M,M,M,M,17.60,K05U 250850Z AUTO 00000KT 10SM M08/M10 A2960 RMK A01,M
ELY,2021-01-25 08:53,-114.8453,39.2950,1909.00,25.00,19.90,80.66,200.00,8.00,0.01,29.59,1002.10,9.00,M,SCT,BKN,OVC,M,2300.00,3900.00,8500.00,M,M,M,M,M,M,M,M,15.49,KELY 250853Z AUTO 20008KT 9SM SCT023 BKN039 OVC085 M04/M07 A2959 RMK AO2 SNE52 SLP021 P0001 60001 T10391067 57009,M
LOL,2021-01-25 08:53,-118.5701,40.0684,1192.43,30.90,30.00,96.41,0.00,0.00,0.02,29.60,1003.70,1.00,M,BKN,OVC,M,M,400.00,900.00,M,M,-SN BR,M,M,M,M,M,M,30.90,KLOL 250853Z AUTO 00000KT 1SM -SN BR BKN004 OVC009 M01/M01 A2960 RMK AO2 SLP037 P0002 60005 T10061011 56012,M
P68,2021-01-25 08:53,-116.0056,39.6014,1993.00,18.00,15.10,88.20,0.00,0.00,0.00,29.57,1002.80,M,M,M,M,M,M,M,M,M,M,M,M,M,M,M,M,M,18.00,KP68 250853Z AUTO 00000KT M08/M09 A2957 RMK AO1 SLP028 T10781094 58015,M
VGT,2021-01-25 08:53,-115.1933,36.2111,667.00,50.00,27.00,40.62,190.00,10.00,0.00,29.63,1004.50,10.00,M,BKN,OVC,M,M,6500.00,8000.00,M,M,M,M,M,M,M,M,M,50.00,KVGT 250853Z AUTO 19010KT 10SM BKN065 OVC080 10/M03 A2963 RMK AO2 SLP045 T01001028 58008,M
DRA,2021-01-25 08:53,-116.0278,36.6206,1009.00,42.00,24.10,48.56,160.00,9.00,0.00,29.62,1001.30,10.00,M,BKN,BKN,M,M,6000.00,12000.00,M,M,M,M,M,M,M,M,M,36.07,KDRA 250853Z AUTO 16009KT 10SM BKN060 BKN120 06/M04 A2962 RMK AO2 SLP013 T00561044 58013,M
EKO,2021-01-25 08:54,-115.7860,40.8242,1367.00,19.40,17.60,92.57,0.00,0.00,M,29.62,M,1.50,M,OVC,M,M,M,98.00,M,M,M,BR,M,M,M,M,M,M,19.40,SPECI KEKO 250854Z 00000KT 1 1/2SM BR OVC001 M07/M08 A2962 RMK AO2 FIBI,M
RNO,2021-01-25 08:55,-119.7711,39.4839,1341.00,30.90,30.00,96.41,40.00,4.00,0.04,29.57,1001.20,1.00,M,BKN,BKN,OVC,M,400.00,1000.00,2600.00,M,-SN BR,M,M,M,M,M,M,26.14,KRNO 250855Z 04004KT 1SM R16R/P6000FT -SN BR BKN004 BKN010 OVC026 M01/M01 A2957 RMK AO2 SLP012 P0004 60006 T10061011 58014 $,M
CXP,2021-01-25 08:55,-119.7326,39.1923,1431.00,30.20,26.60,86.28,90.00,6.00,0.00,29.57,M,10.00,M,SCT,BKN,OVC,M,4200.00,4900.00,6000.00,M,M,M,M,M,M,M,M,23.36,KCXP 250855Z AUTO 09006KT 10SM SCT042 BKN049 OVC060 M01/M03 A2957 RMK AO2,M
BVU,2021-01-25 08:55,-114.8611,35.9475,671.00,46.40,33.80,61.28,170.00,10.00,0.00,29.71,M,10.00,19.00,FEW,SCT,BKN,M,2700.00,3500.00,4700.00,M,M,M,M,M,M,M,M,41.03,KBVU 250855Z AUTO 17010G19KT 10SM FEW027 SCT035 BKN047 08/01 A2971 RMK AO2,M
HTH,2021-01-25 08:55,-118.6315,38.5448,1282.89,32.00,32.00,100.00,0.00,0.00,0.00,29.58,M,10.00,M,BKN,BKN,OVC,M,7500.00,8500.00,11000.00,M,M,M,M,M,M,M,M,32.00,KHTH 250855Z AUTO 00000KT 10SM BKN075 BKN085 OVC110 00/M00 A2958 RMK A01,M
BAM,2021-01-25 08:55,-116.8743,40.5990,1382.36,23.00,23.00,100.00,90.00,3.00,0.00,29.64,M,10.00,M,OVC,M,M,M,500.00,M,M,M,M,M,M,M,M,M,M,18.40,KBAM 250855Z AUTO 09003KT 10SM OVC005 M05/M05 A2964 RMK AO1,M
TMT,2021-01-25 08:55,-117.1971,39.4643,1749.34,15.40,14.00,94.07,0.00,0.00,0.00,29.59,M,10.00,M,M,M,M,M,M,M,M,M,M,M,M,M,M,M,M,15.40,KTMT 250855Z AUTO 00000KT 10SM M09/M10 A2959 RMK AO2 T10921100,M
RTS,2021-01-25 08:55,-119.8764,39.6682,1539.00,26.60,26.60,100.00,0.00,0.00,0.00,29.57,M,3.00,M,SCT,BKN,OVC,M,300.00,1700.00,3700.00,M,-SN,M,M,M,M,M,M,26.60,KRTS 250855Z AUTO 00000KT 3SM -SN SCT003 BKN017 OVC037 M03/M03 A2957 RMK AO2,M
MEV,2021-01-25 08:55,-119.7500,38.9963,1441.42,28.40,24.80,86.18,50.00,4.00,0.00,29.55,M,10.00,M,FEW,OVC,M,M,3800.00,5500.00,M,M,M,M,M,M,M,M,M,23.22,KMEV 250855Z AUTO 05004KT 10SM FEW038 OVC055 M02/M04 A2955 RMK AO2,M
LAS,2021-01-25 08:56,-115.1634,36.0719,663.00,47.00,28.00,47.54,180.00,9.00,0.00,29.67,1004.20,10.00,M,FEW,FEW,BKN,OVC,6000.00,8000.00,17000.00,22000.00,M,M,M,M,M,M,M,42.04,KLAS 250856Z 18009KT 10SM FEW060 FEW080 BKN170 OVC220 08/M02 A2967 RMK AO2 SLP042 TOPS OF MTNS OBSCURED DSNT W T00831022 58010,M
EKO,2021-01-25 08:56,-115.7860,40.8242,1367.00,19.90,17.10,88.68,0.00,0.00,0.00,29.62,1006.60,1.50,M,OVC,M,M,M,100.00,M,M,M,BR,M,T,M,M,M,M,19.90,KEKO 250856Z AUTO 00000KT 1 1/2SM BR OVC001 M07/M08 A2962 RMK AO2 SLP066 I3000 T10671083 58011,M
TPH,2021-01-25 08:56,-117.0904,38.0505,1654.00,28.00,21.00,74.67,130.00,5.00,0.00,29.59,1002.70,10.00,M,OVC,M,M,M,4600.00,M,M,M,M,M,M,M,M,M,M,21.64,KTPH 250856Z AUTO 13005KT 10SM OVC046 M02/M06 A2959 RMK AO2 SLP027 T10221061 58014,M
WMC,2021-01-25 08:56,-117.8072,40.9019,1315.00,25.00,21.00,84.53,70.00,8.00,T,29.61,1004.00,9.00,M,FEW,OVC,M,M,1600.00,4100.00,M,M,-SN,M,M,M,M,M,M,15.49,KWMC 250856Z AUTO 07008KT 9SM -SN FEW016 OVC041 M04/M06 A2961 RMK AO2 SNE06B26 SLP040 P0000 60000 T10391061 58011 $,M
NFL,2021-01-25 08:56,-118.7010,39.4166,1199.00,32.00,30.00,92.22,130.00,6.00,T,29.59,1000.50,1.25,M,OVC,M,M,M,1800.00,M,M,M,-SN BR,M,M,M,M,M,M,25.53,KNFL 250856Z AUTO 13006KT 1 1/4SM -SN BR OVC018 00/M01 A2959 RMK AO2 SLP005 P0000 60000 T00001011 58017,M
HND,2021-01-25 08:56,-115.1344,35.9729,742.79,45.00,30.00,55.43,200.00,15.00,T,29.69,1006.90,10.00,M,FEW,SCT,M,M,5500.00,7500.00,M,M,M,M,M,M,M,M,M,37.63,KHND 250856Z AUTO 20015KT 10SM FEW055 SCT075 07/M01 A2969 RMK AO2 RAB38E52 SLP069 P0000 60000 T00721011 58010,M
LSV,2021-01-25 08:58,-115.0343,36.2362,570.00,48.40,29.70,48.17,180.00,14.00,0.00,29.66,1004.00,10.00,M,BKN,M,M,M,8500.00,M,M,M,M,M,M,M,M,M,M,42.30,KLSV 250858Z AUTO 18014KT 10SM BKN085 09/M01 A2966 RMK AO2 SLP040 T00911013 58009 $,M
INS,2021-01-25 08:58,-115.6733,36.5872,955.00,37.40,16.90,42.93,0.00,0.00,0.00,29.61,1001.50,10.00,M,CLR,M,M,M,M,M,M,M,M,M,M,M,M,M,M,37.40,KINS 250858Z AUTO 00000KT 10SM CLR 03/M08 A2961 RMK AO2 SLP015 T00301084 57012 $,M
RNO,2021-01-25 09:00,-119.7711,39.4839,1341.00,30.90,30.00,96.41,30.00,4.00,T,29.57,M,1.00,M,SCT,BKN,OVC,M,400.00,1000.00,2500.00,M,-SN BR,M,M,M,M,M,M,26.14,KRNO 250900Z 03004KT 1SM R16R/P6000FT -SN BR SCT004 BKN010 OVC025 M01/M01 A2957 RMK AO2 SFC VIS 1 3/4 P0000 T10061011 $,M
RNO,2021-01-25 09:09,-119.7711,39.4839,1341.00,30.00,28.90,95.61,30.00,7.00,T,29.56,M,2.00,M,SCT,BKN,OVC,M,700.00,1000.00,2500.00,M,-SN BR,M,M,M,M,M,M,22.34,KRNO 250909Z 03007KT 2SM -SN BR SCT007 BKN010 OVC025 M01/M02 A2956 RMK AO2 P0000 T10111017 $,M
05U,2021-01-25 09:10,-116.0051,39.6042,1811.23,17.60,14.00,85.51,0.00,0.00,0.00,29.60,M,10.00,M,M,M,M,M,M,M,M,M,M,M,M,M,M,M,M,17.60,K05U 250910Z AUTO 00000KT 10SM M08/M10 A2960 RMK A01,M
EKO,2021-01-25 09:10,-115.7860,40.8242,1367.00,19.90,18.00,92.19,0.00,0.00,0.00,29.62,M,3.00,M,OVC,M,M,M,100.00,M,M,M,BR,M,M,M,M,M,M,19.90,KEKO 250910Z AUTO 00000KT 3SM BR OVC001 M07/M08 A2962 RMK AO2 T10671078,M
TPH,2021-01-25 09:13,-117.0904,38.0505,1654.00,27.00,23.00,84.66,180.00,7.00,T,29.59,M,1.75,M,OVC,M,M,M,3000.00,M,M,M,-SN BR,M,M,M,M,M,M,18.68,KTPH 250913Z AUTO 18007KT 1 3/4SM -SN BR OVC030 M03/M05 A2959 RMK AO2 SNB06 P0000 T10281050,M
MEV,2021-01-25 09:15,-119.7500,38.9963,1441.42,28.40,24.80,86.18,0.00,0.00,0.00,29.55,M,10.00,M,FEW,BKN,OVC,M,4000.00,5000.00,6000.00,M,M,M,M,M,M,M,M,28.40,KMEV 250915Z AUTO 00000KT 10SM FEW040 BKN050 OVC060 M02/M04 A2955 RMK AO2,M
BVU,2021-01-25 09:15,-114.8611,35.9475,671.00,46.40,35.60,65.83,180.00,11.00,0.00,29.70,M,10.00,18.00,FEW,FEW,OVC,M,3700.00,4600.00,5000.00,M,M,M,M,M,M,M,M,40.66,KBVU 250915Z AUTO 18011G18KT 10SM FEW037 FEW046 OVC050 08/02 A2970 RMK AO2,M
RTS,2021-01-25 09:15,-119.8764,39.6682,1539.00,26.60,26.60,100.00,0.00,0.00,0.00,29.57,M,5.00,M,FEW,SCT,BKN,M,500.00,1200.00,2300.00,M,-SN,M,M,M,M,M,M,26.60,KRTS 250915Z AUTO 00000KT 5SM -SN FEW005 SCT012 BKN023 M03/M03 A2957 RMK AO2,M
BAM,2021-01-25 09:15,-116.8743,40.5990,1382.36,24.80,24.80,100.00,50.00,6.00,0.00,29.64,M,10.00,M,OVC,M,M,M,500.00,M,M,M,M,M,M,M,M,M,M,16.86,KBAM 250915Z AUTO 05006KT 10SM OVC005 M04/M04 A2964 RMK AO1,M
HTH,2021-01-25 09:15,-118.6315,38.5448,1282.89,32.00,32.00,100.00,0.00,0.00,0.00,29.58,M,10.00,M,OVC,M,M,M,7500.00,M,M,M,M,M,M,M,M,M,M,32.00,KHTH 250915Z AUTO 00000KT 10SM OVC075 M00/M00 A2958 RMK A01,M
TMT,2021-01-25 09:15,-117.1971,39.4643,1749.34,14.90,13.60,94.47,0.00,0.00,0.00,29.59,M,10.00,M,M,M,M,M,M,M,M,M,M,M,M,M,M,M,M,14.90,KTMT 250915Z AUTO 00000KT 10SM M09/M10 A2959 RMK AO2 T10951102,M
CXP,2021-01-25 09:15,-119.7326,39.1923,1431.00,30.20,26.60,86.28,90.00,7.00,0.00,29.56,M,10.00,M,OVC,M,M,M,3900.00,M,M,M,M,M,M,M,M,M,M,22.59,KCXP 250915Z AUTO 09007KT 10SM OVC039 M01/M03 A2956 RMK AO2,M
TPH,2021-01-25 09:20,-117.0904,38.0505,1654.00,26.10,25.00,95.53,190.00,4.00,T,29.59,M,1.25,M,OVC,M,M,M,2400.00,M,M,M,-SN BR,M,M,M,M,M,M,20.53,KTPH 250920Z AUTO 19004KT 1 1/4SM -SN BR OVC024 M03/M04 A2959 RMK AO2 SNB06 P0000 T10331039,M
RNO,2021-01-25 09:21,-119.7711,39.4839,1341.00,30.00,28.90,95.61,20.00,4.00,0.01,29.56,M,2.00,M,BKN,OVC,M,M,900.00,2300.00,M,M,-SN BR,M,M,M,M,M,M,25.08,KRNO 250921Z 02004KT 2SM -SN BR BKN009 OVC023 M01/M02 A2956 RMK AO2 P0001 T10111017 $,M
WMC,2021-01-25 09:25,-117.8072,40.9019,1315.00,25.00,19.90,80.66,60.00,9.00,T,29.61,M,10.00,M,BKN,OVC,M,M,1500.00,4000.00,M,M,M,M,M,M,M,M,M,14.81,KWMC 250925Z AUTO 06009KT 10SM BKN015 OVC040 M04/M07 A2961 RMK AO2 SNE12 P0000 T10391067 $,M
05U,2021-01-25 09:30,-116.0051,39.6042,1811.23,15.80,12.20,85.40,0.00,0.00,0.00,29.59,M,10.00,M,M,M,M,M,M,M,M,M,M,M,M,M,M,M,M,15.80,K05U 250930Z AUTO 00000KT 10SM M09/M11 A2959 RMK A01,M
RNO,2021-01-25 09:31,-119.7711,39.4839,1341.00,30.00,28.90,95.61,30.00,5.00,0.01,29.56,M,2.00,M,SCT,OVC,M,M,900.00,3500.00,M,M,-SN BR,M,M,M,M,M,M,24.02,KRNO 250931Z 03005KT 2SM -SN BR SCT009 OVC035 M01/M02 A2956 RMK AO2 SFC VIS 2 1/2 P0001 T10111017 $,M
RTS,2021-01-25 09:35,-119.8764,39.6682,1539.00,26.60,26.60,100.00,0.00,0.00,0.00,29.56,M,2.50,M,FEW,BKN,OVC,M,700.00,1300.00,3000.00,M,-SN,M,M,M,M,M,M,26.60,KRTS 250935Z AUTO 00000KT 2 1/2SM -SN FEW007 BKN013 OVC030 M03/M03 A2956 RMK AO2,M
BVU,2021-01-25 09:35,-114.8611,35.9475,671.00,44.60,35.60,70.48,180.00,10.00,0.00,29.70,M,10.00,M,BKN,OVC,M,M,5000.00,6500.00,M,M,M,M,M,M,M,M,M,38.77,KBVU 250935Z AUTO 18010KT 10SM BKN050 OVC065 07/02 A2970 RMK AO2,M
CXP,2021-01-25 09:35,-119.7326,39.1923,1431.00,30.20,26.60,86.28,60.00,7.00,0.00,29.57,M,10.00,M,BKN,OVC,M,M,4000.00,10000.00,M,M,M,M,M,M,M,M,M,22.59,KCXP 250935Z AUTO 06007KT 10SM BKN040 OVC100 M01/M03 A2957 RMK AO2,M
MEV,2021-01-25 09:35,-119.7500,38.9963,1441.42,28.40,24.80,86.18,320.00,3.00,0.00,29.55,M,10.00,M,FEW,BKN,OVC,M,3800.00,5000.00,5500.00,M,M,M,M,M,M,M,M,24.57,KMEV 250935Z AUTO 32003KT 10SM FEW038 BKN050 OVC055 M02/M04 A2955 RMK AO2,M
BAM,2021-01-25 09:35,-116.8743,40.5990,1382.36,23.00,23.00,100.00,50.00,5.00,0.00,29.64,M,10.00,M,OVC,M,M,M,500.00,M,M,M,M,M,M,M,M,M,M,15.71,KBAM 250935Z AUTO 05005KT 10SM OVC005 M05/M05 A2964 RMK AO1,M
HTH,2021-01-25 09:35,-118.6315,38.5448,1282.89,32.00,32.00,100.00,0.00,0.00,0.00,29.58,M,10.00,M,BKN,OVC,M,M,7500.00,9500.00,M,M,M,M,M,M,M,M,M,32.00,KHTH 250935Z AUTO 00000KT 10SM BKN075 OVC095 M00/M00 A2958 RMK A01,M
TMT,2021-01-25 09:35,-117.1971,39.4643,1749.34,14.70,13.30,94.05,0.00,0.00,0.00,29.58,M,10.00,M,M,M,M,M,M,M,M,M,M,M,M,M,M,M,M,14.70,KTMT 250935Z AUTO 00000KT 10SM M10/M10 A2958 RMK AO2 T10961104,M
WMC,2021-01-25 09:36,-117.8072,40.9019,1315.00,25.00,19.90,80.66,60.00,10.00,T,29.61,M,10.00,M,OVC,M,M,M,1400.00,M,M,M,M,M,M,M,M,M,M,14.19,KWMC 250936Z AUTO 06010KT 10SM OVC014 M04/M07 A2961 RMK AO2 SNE12 P0000 T10391067 $,M
TPH,2021-01-25 09:37,-117.0904,38.0505,1654.00,26.10,25.00,95.53,0.00,0.00,T,29.59,M,2.50,M,OVC,M,M,M,2600.00,M,M,M,-SN BR,M,M,M,M,M,M,26.10,KTPH 250937Z AUTO 00000KT 2 1/2SM -SN BR OVC026 M03/M04 A2959 RMK AO2 SNB06 P0000 T10331039,M
05U,2021-01-25 09:50,-116.0051,39.6042,1811.23,15.80,12.20,85.40,0.00,0.00,0.00,29.59,M,10.00,M,M,M,M,M,M,M,M,M,M,M,M,M,M,M,M,15.80,K05U 250950Z AUTO 00000KT 10SM M09/M11 A2959 RMK A01,M
EKO,2021-01-25 09:52,-115.7860,40.8242,1367.00,19.40,17.60,92.57,0.00,0.00,0.00,29.62,M,7.00,M,OVC,M,M,M,200.00,M,M,M,M,M,M,M,M,M,M,19.40,KEKO 250952Z AUTO 00000KT 7SM OVC002 M07/M08 A2962 RMK AO2,M
DRA,2021-01-25 09:53,-116.0278,36.6206,1009.00,42.00,26.10,52.78,210.00,10.00,0.00,29.60,1000.80,10.00,M,BKN,OVC,M,M,6000.00,12000.00,M,M,M,M,M,M,M,M,M,35.63,KDRA 250953Z AUTO 21010KT 10SM BKN060 OVC120 06/M03 A2960 RMK AO2 SLP008 T00561033,M
ELY,2021-01-25 09:53,-114.8453,39.2950,1909.00,25.00,19.00,77.62,210.00,8.00,0.00,29.59,1001.90,10.00,M,BKN,BKN,M,M,4300.00,8500.00,M,M,M,M,M,M,M,M,M,15.49,KELY 250953Z AUTO 21008KT 10SM BKN043 BKN085 M04/M07 A2959 RMK AO2 SLP019 T10391072,M
P68,2021-01-25 09:53,-116.0056,39.6014,1993.00,17.10,12.90,83.25,0.00,0.00,0.00,29.56,1002.60,M,M,M,M,M,M,M,M,M,M,M,M,M,M,M,M,M,17.10,KP68 250953Z AUTO 00000KT M08/M11 A2956 RMK AO1 SLP026 T10831106,M
VGT,2021-01-25 09:53,-115.1933,36.2111,667.00,47.00,30.00,51.58,190.00,16.00,0.00,29.62,1004.40,10.00,22.00,FEW,SCT,OVC,M,4400.00,6000.00,8000.00,M,M,M,M,M,M,M,M,39.84,KVGT 250953Z AUTO 19016G22KT 10SM FEW044 SCT060 OVC080 08/M01 A2962 RMK AO2 SLP044 T00831011,M
LOL,2021-01-25 09:53,-118.5701,40.0684,1192.43,30.90,30.00,96.41,0.00,0.00,0.03,29.59,1003.10,1.25,M,FEW,OVC,M,M,400.00,1300.00,M,M,-SN BR,M,M,M,M,M,M,30.90,KLOL 250953Z AUTO 00000KT 1 1/4SM -SN BR FEW004 OVC013 M01/M01 A2959 RMK AO2 SLP031 P0003 T10061011,M
BAM,2021-01-25 09:55,-116.8743,40.5990,1382.36,23.00,23.00,100.00,90.00,5.00,0.00,29.64,M,10.00,M,OVC,M,M,M,500.00,M,M,M,M,M,M,M,M,M,M,15.71,KBAM 250955Z AUTO 09005KT 10SM OVC005 M05/M05 A2964 RMK AO1,M
MEV,2021-01-25 09:55,-119.7500,38.9963,1441.42,28.40,24.80,86.18,40.00,3.00,0.00,29.55,M,10.00,M,FEW,BKN,OVC,M,4200.00,5000.00,5500.00,M,M,M,M,M,M,M,M,24.57,KMEV 250955Z AUTO 04003KT 10SM FEW042 BKN050 OVC055 M02/M04 A2955 RMK AO2,M
RTS,2021-01-25 09:55,-119.8764,39.6682,1539.00,26.60,26.60,100.00,0.00,0.00,0.00,29.56,M,4.00,M,BKN,OVC,M,M,900.00,1500.00,M,M,-SN,M,M,M,M,M,M,26.60,KRTS 250955Z AUTO 00000KT 4SM -SN BKN009 OVC015 M03/M03 A2956 RMK AO2,M
CXP,2021-01-25 09:55,-119.7326,39.1923,1431.00,30.20,26.60,86.28,0.00,0.00,0.00,29.57,M,10.00,M,FEW,SCT,OVC,M,600.00,3900.00,4700.00,M,M,M,M,M,M,M,M,30.20,KCXP 250955Z AUTO 00000KT 10SM FEW006 SCT039 OVC047 M01/M03 A2957 RMK AO2,M
RNO,2021-01-25 09:55,-119.7711,39.4839,1341.00,30.00,28.90,95.61,20.00,5.00,0.01,29.56,1000.60,2.50,M,FEW,BKN,OVC,M,2900.00,3700.00,4900.00,M,-SN BR,M,M,M,M,M,M,24.02,KRNO 250955Z 02005KT 2 1/2SM -SN BR FEW029 BKN037 OVC049 M01/M02 A2956 RMK AO2 SLP006 SNINCR 1/2 P0001 T10111017 $,M
TMT,2021-01-25 09:55,-117.1971,39.4643,1749.34,14.40,12.90,93.62,0.00,0.00,0.00,29.58,M,10.00,M,M,M,M,M,M,M,M,M,M,M,M,M,M,M,M,14.40,KTMT 250955Z AUTO 00000KT 10SM M10/M11 A2958 RMK AO2 T10981106,M
BVU,2021-01-25 09:55,-114.8611,35.9475,671.00,44.60,35.60,70.48,170.00,10.00,0.00,29.70,M,10.00,M,SCT,SCT,OVC,M,4200.00,4800.00,5500.00,M,M,M,M,M,M,M,M,38.77,KBVU 250955Z AUTO 17010KT 10SM SCT042 SCT048 OVC055 07/02 A2970 RMK AO2,M
HTH,2021-01-25 09:55,-118.6315,38.5448,1282.89,32.00,32.00,100.00,0.00,0.00,0.00,29.57,M,10.00,M,FEW,OVC,M,M,2100.00,7000.00,M,M,M,M,M,M,M,M,M,32.00,KHTH 250955Z AUTO 00000KT 10SM FEW021 OVC070 M00/00 A2957 RMK A01,M
LAS,2021-01-25 09:56,-115.1634,36.0719,663.00,45.00,34.00,65.13,210.00,9.00,T,29.67,1004.50,9.00,M,FEW,BKN,OVC,M,2000.00,4800.00,5500.00,M,M,M,M,M,31.00,190.00,2021-01-25 09:27,39.68,KLAS 250956Z 21009KT 9SM FEW020 BKN048 OVC055 07/01 A2967 RMK AO2 PK WND 19031/0927 RAB29E41 SLP045 CIG LWR W SHSN DSNT SW-NW MTNS OBSCURED DSNT SW-NW P0000 T00720011,M
TPH,2021-01-25 09:56,-117.0904,38.0505,1654.00,26.10,25.00,95.53,0.00,0.00,T,29.58,1002.70,2.00,M,OVC,M,M,M,2400.00,M,M,M,-SN BR,M,M,M,M,M,M,26.10,KTPH 250956Z AUTO 00000KT 2SM -SN BR OVC024 M03/M04 A2958 RMK AO2 SNB06 SLP027 P0000 T10331039,M
WMC,2021-01-25 09:56,-117.8072,40.9019,1315.00,25.00,19.90,80.66,60.00,8.00,T,29.60,1003.90,9.00,M,OVC,M,M,M,1500.00,M,M,M,-SN,M,M,M,M,M,M,15.49,KWMC 250956Z AUTO 06008KT 9SM -SN OVC015 M04/M07 A2960 RMK AO2 SNE12B52 SLP039 P0000 T10391067 $,M
HND,2021-01-25 09:56,-115.1344,35.9729,742.79,43.00,33.00,67.82,220.00,19.00,T,29.69,1006.80,10.00,22.00,FEW,OVC,M,M,3200.00,4400.00,M,M,-RA,M,M,M,M,M,M,33.98,KHND 250956Z AUTO 22019G22KT 10SM -RA FEW032 OVC044 06/01 A2969 RMK AO2 RAB13 SLP068 P0000 T00610006,M
EKO,2021-01-25 09:56,-115.7860,40.8242,1367.00,19.90,17.10,88.68,230.00,3.00,0.00,29.62,1006.10,6.00,M,OVC,M,M,M,200.00,M,M,M,BR,M,M,M,M,M,M,14.86,KEKO 250956Z AUTO 23003KT 6SM BR OVC002 M07/M08 A2962 RMK AO2 SLP061 T10671083,M
NFL,2021-01-25 09:56,-118.7010,39.4166,1199.00,30.90,30.00,96.41,M,M,T,29.57,1000.10,1.25,M,OVC,M,M,M,1500.00,M,M,M,-SN BR,M,M,M,M,M,M,M,KNFL 250956Z AUTO 1 1/4SM -SN BR OVC015 M01/M01 A2957 RMK AO2 SLP001 P0000 T10061011,M
INS,2021-01-25 10:03,-115.6733,36.5872,955.00,35.60,15.80,43.95,320.00,6.00,0.00,29.59,1000.80,10.00,M,BKN,M,M,M,7000.00,M,M,M,M,M,M,M,M,M,M,29.87,KINS 251003Z AUTO 32006KT 10SM BKN070 02/M09 A2959 RMK AO2 SLP008 $,M
TPH,2021-01-25 10:04,-117.0904,38.0505,1654.00,26.10,25.00,95.53,0.00,0.00,T,29.58,M,1.25,M,OVC,M,M,M,1800.00,M,M,M,-SN BR,M,M,M,M,M,M,26.10,KTPH 251004Z AUTO 00000KT 1 1/4SM -SN BR OVC018 M03/M04 A2958 RMK AO2 P0000 T10331039,M
LSV,2021-01-25 10:06,-115.0343,36.2362,570.00,48.20,32.00,53.27,190.00,13.00,0.00,29.67,1004.20,10.00,M,SCT,M,M,M,5500.00,M,M,M,-RA,M,M,M,M,M,M,42.32,KLSV 251006Z AUTO 19013KT 10SM -RA SCT055 09/00 A2967 RMK AO2 RAB06 SLP042 $,M
LOL,2021-01-25 10:07,-118.5701,40.0684,1192.43,30.90,30.00,96.41,0.00,0.00,T,29.58,M,1.25,M,FEW,OVC,M,M,400.00,1500.00,M,M,-SN BR,M,M,M,M,M,M,30.90,KLOL 251007Z AUTO 00000KT 1 1/4SM -SN BR FEW004 OVC015 M01/M01 A2958 RMK AO2 P0000 T10061011,M
05U,2021-01-25 10:10,-116.0051,39.6042,1811.23,15.80,12.20,85.40,0.00,0.00,0.00,29.59,M,10.00,M,M,M,M,M,M,M,M,M,M,M,M,M,M,M,M,15.80,K05U 251010Z AUTO 00000KT 10SM M09/M11 A2959 RMK A01,M
BAM,2021-01-25 10:15,-116.8743,40.5990,1382.36,23.00,23.00,100.00,80.00,4.00,0.00,29.64,M,10.00,M,OVC,M,M,M,500.00,M,M,M,M,M,M,M,M,M,M,16.91,KBAM 251015Z AUTO 08004KT 10SM OVC005 M05/M05 A2964 RMK AO1,M
CXP,2021-01-25 10:15,-119.7326,39.1923,1431.00,30.20,26.60,86.28,80.00,7.00,0.00,29.56,M,10.00,M,SCT,BKN,OVC,M,3800.00,4500.00,5000.00,M,M,M,M,M,M,M,M,22.59,KCXP 251015Z AUTO 08007KT 10SM SCT038 BKN045 OVC050 M01/M03 A2956 RMK AO2,M
HTH,2021-01-25 10:15,-118.6315,38.5448,1282.89,32.00,32.00,100.00,240.00,4.00,0.00,29.57,M,10.00,M,OVC,M,M,M,7000.00,M,M,M,M,M,M,M,M,M,M,27.42,KHTH 251015Z AUTO 24004KT 10SM OVC070 M00/M00 A2957 RMK A01,M
TMT,2021-01-25 10:15,-117.1971,39.4643,1749.34,14.90,13.60,94.47,0.00,0.00,0.00,29.58,M,10.00,M,M,M,M,M,M,M,M,M,M,M,M,M,M,M,M,14.90,KTMT 251015Z AUTO 00000KT 10SM M09/M10 A2958 RMK AO2 T10951102,M
BVU,2021-01-25 10:15,-114.8611,35.9475,671.00,44.60,35.60,70.48,160.00,9.00,0.00,29.70,M,10.00,M,SCT,BKN,OVC,M,3100.00,3800.00,4500.00,M,M,M,M,M,M,M,M,39.18,KBVU 251015Z AUTO 16009KT 10SM SCT031 BKN038 OVC045 07/02 A2970 RMK AO2,M
RTS,2021-01-25 10:15,-119.8764,39.6682,1539.00,26.60,26.60,100.00,0.00,0.00,0.00,29.56,M,7.00,M,OVC,M,M,M,900.00,M,M,M,-SN,M,M,M,M,M,M,26.60,KRTS 251015Z AUTO 00000KT 7SM -SN OVC009 M03/M03 A2956 RMK AO2,M
MEV,2021-01-25 10:15,-119.7500,38.9963,1441.42,28.40,26.60,92.86,350.00,4.00,0.00,29.55,M,10.00,M,FEW,BKN,OVC,M,3900.00,4700.00,5500.00,M,M,M,M,M,M,M,M,23.22,KMEV 251015Z AUTO 35004KT 10SM FEW039 BKN047 OVC055 M02/M03 A2955 RMK AO2,M
TPH,2021-01-25 10:17,-117.0904,38.0505,1654.00,26.10,26.10,100.00,0.00,0.00,0.01,29.58,M,1.00,M,VV ,M,M,M,1200.00,M,M,M,-SN BR,M,M,M,M,M,M,26.10,KTPH 251017Z AUTO 00000KT 1SM -SN BR VV012 M03/M03 A2958 RMK AO2 P0001 T10331033,M
RNO,2021-01-25 10:20,-119.7711,39.4839,1341.00,30.00,28.90,95.61,40.00,7.00,T,29.55,M,2.50,M,SCT,BKN,OVC,M,1900.00,2800.00,3900.00,M,-SN BR,M,M,M,M,M,M,22.34,KRNO 251020Z 04007KT 2 1/2SM -SN BR SCT019 BKN028 OVC039 M01/M02 A2955 RMK AO2 P0000 T10111017 $,M
NFL,2021-01-25 10:22,-118.7010,39.4166,1199.00,30.90,30.00,96.41,M,M,T,29.57,M,3.00,M,OVC,M,M,M,2800.00,M,M,M,-SN BR,M,M,M,M,M,M,M,KNFL 251022Z AUTO 3SM -SN BR OVC028 M01/M01 A2957 RMK AO2 P0000 T10061011,M
TPH,2021-01-25 10:24,-117.0904,38.0505,1654.00,26.10,26.10,100.00,210.00,3.00,0.01,29.58,M,0.75,M,VV ,M,M,M,1000.00,M,M,M,-SN BR,M,M,M,M,M,M,21.94,KTPH 251024Z AUTO 21003KT 3/4SM -SN BR VV010 M03/M03 A2958 RMK AO2 P0001 T10331033,M
LOL,2021-01-25 10:26,-118.5701,40.0684,1192.43,30.90,30.00,96.41,290.00,3.00,0.01,29.58,M,0.75,M,SCT,OVC,M,M,300.00,1300.00,M,M,-SN BR,M,M,M,M,M,M,27.43,KLOL 251026Z AUTO 29003KT 3/4SM -SN BR SCT003 OVC013 M01/M01 A2958 RMK AO2 P0001 T10061011,M
NFL,2021-01-25 10:29,-118.7010,39.4166,1199.00,30.90,30.00,96.41,M,M,T,29.57,M,7.00,M,OVC,M,M,M,3700.00,M,M,M,M,M,M,M,M,M,M,M,KNFL 251029Z AUTO 7SM OVC037 M01/M01 A2957 RMK AO2 SNE27 P0000 T10061011,M
05U,2021-01-25 10:30,-116.0051,39.6042,1811.23,14.00,10.40,85.28,0.00,0.00,0.00,29.58,M,10.00,M,M,M,M,M,M,M,M,M,M,M,M,M,M,M,M,14.00,K05U 251030Z AUTO 00000KT 10SM M10/M12 A2958 RMK A01,M
EKO,2021-01-25 10:31,-115.7860,40.8242,1367.00,19.90,18.00,92.19,0.00,0.00,0.00,29.62,M,4.00,M,OVC,M,M,M,100.00,M,M,M,BR,M,M,M,M,M,M,19.90,KEKO 251031Z AUTO 00000KT 4SM BR OVC001 M07/M08 A2962 RMK AO2 T10671078,M
INS,2021-01-25 10:33,-115.6733,36.5872,955.00,35.60,15.80,43.95,240.00,5.00,0.00,29.58,1000.70,10.00,M,SCT,SCT,M,M,7000.00,9000.00,M,M,M,M,M,M,M,M,M,30.67,KINS 251033Z AUTO 24005KT 10SM SCT070 SCT090 02/M09 A2958 RMK AO2 SLP007 $,M
TPH,2021-01-25 10:34,-117.0904,38.0505,1654.00,26.10,26.10,100.00,0.00,0.00,0.02,29.57,M,0.75,M,VV ,M,M,M,900.00,M,M,M,-SN BR,M,M,M,M,M,M,26.10,KTPH 251034Z AUTO 00000KT 3/4SM -SN BR VV009 M03/M03 A2957 RMK AO2 P0002 T10331033,M
BVU,2021-01-25 10:35,-114.8611,35.9475,671.00,44.60,35.60,70.48,160.00,11.00,0.00,29.69,M,10.00,M,FEW,SCT,BKN,M,3100.00,3800.00,4700.00,M,M,M,M,M,M,M,M,38.39,KBVU 251035Z AUTO 16011KT 10SM FEW031 SCT038 BKN047 07/02 A2969 RMK AO2,M
MEV,2021-01-25 10:35,-119.7500,38.9963,1441.42,28.40,26.60,92.86,350.00,4.00,0.00,29.55,M,10.00,M,BKN,OVC,M,M,4000.00,4700.00,M,M,M,M,M,M,M,M,M,23.22,KMEV 251035Z AUTO 35004KT 10SM BKN040 OVC047 M02/M03 A2955 RMK AO2,M
BAM,2021-01-25 10:35,-116.8743,40.5990,1382.36,23.00,23.00,100.00,100.00,3.00,0.00,29.63,M,10.00,M,OVC,M,M,M,500.00,M,M,M,M,M,M,M,M,M,M,18.40,KBAM 251035Z AUTO 10003KT 10SM OVC005 M05/M05 A2963 RMK AO1,M
HTH,2021-01-25 10:35,-118.6315,38.5448,1282.89,32.00,32.00,100.00,240.00,3.00,0.00,29.57,M,10.00,M,OVC,M,M,M,7000.00,M,M,M,M,M,M,M,M,M,M,28.69,KHTH 251035Z AUTO 24003KT 10SM OVC070 M00/M00 A2957 RMK A01,M
CXP,2021-01-25 10:35,-119.7326,39.1923,1431.00,30.20,26.60,86.28,50.00,4.00,0.00,29.56,M,10.00,M,FEW,SCT,OVC,M,3300.00,4100.00,5000.00,M,M,M,M,M,M,M,M,25.32,KCXP 251035Z AUTO 05004KT 10SM FEW033 SCT041 OVC050 M01/M03 A2956 RMK AO2,M
TMT,2021-01-25 10:35,-117.1971,39.4643,1749.34,15.80,14.50,94.49,0.00,0.00,0.00,29.58,M,10.00,M,M,M,M,M,M,M,M,M,M,M,M,M,M,M,M,15.80,KTMT 251035Z AUTO 00000KT 10SM M09/M10 A2958 RMK AO2 T10901097,M
RTS,2021-01-25 10:35,-119.8764,39.6682,1539.00,26.60,26.60,100.00,0.00,0.00,0.00,29.56,M,10.00,M,OVC,M,M,M,1000.00,M,M,M,-UP,M,M,M,M,M,M,26.60,KRTS 251035Z AUTO 00000KT 10SM -UP OVC010 M03/M03 A2956 RMK AO2,M
LSV,2021-01-25 10:36,-115.0343,36.2362,570.00,46.40,35.60,65.83,200.00,15.00,0.00,29.66,1003.90,10.00,M,FEW,M,M,M,3600.00,M,M,M,M,M,M,M,M,M,M,39.45,KLSV 251036Z AUTO 20015KT 10SM FEW036 08/02 A2966 RMK AO2 RAB06E36 SLP039 $,M
LSV,2021-01-25 10:37,-115.0343,36.2362,570.00,46.40,35.60,65.83,200.00,16.00,0.00,29.66,1003.90,10.00,M,FEW,FEW,M,M,3000.00,3800.00,M,M,-RA,M,M,M,M,M,M,39.19,KLSV 251037Z AUTO 20016KT 10SM -RA FEW030 FEW038 08/02 A2966 RMK AO2 RAB06E36RAB37 SLP039 $,M
LOL,2021-01-25 10:38,-118.5701,40.0684,1192.43,30.90,30.00,96.41,310.00,3.00,0.02,29.58,M,1.00,M,BKN,OVC,M,M,400.00,1100.00,M,M,-SN BR,M,M,M,M,M,M,27.43,KLOL 251038Z AUTO 31003KT 1SM -SN BR BKN004 OVC011 M01/M01 A2958 RMK AO2 P0002 T10061011,M
TPH,2021-01-25 10:42,-117.0904,38.0505,1654.00,26.10,26.10,100.00,0.00,0.00,0.03,29.57,M,1.00,M,VV ,M,M,M,1100.00,M,M,M,-SN BR,M,M,M,M,M,M,26.10,KTPH 251042Z AUTO 00000KT 1SM -SN BR VV011 M03/M03 A2957 RMK AO2 P0003 T10331033,M
LSV,2021-01-25 10:46,-115.0343,36.2362,570.00,46.40,37.40,70.68,210.00,14.00,0.00,29.66,1003.90,10.00,M,CLR,M,M,M,M,M,M,M,M,M,M,M,M,M,M,39.72,KLSV 251046Z AUTO 21014KT 10SM CLR 08/03 A2966 RMK AO2 RAB06E36RAB37E46 SLP039 $,M
05U,2021-01-25 10:50,-116.0051,39.6042,1811.23,14.00,10.40,85.28,0.00,0.00,0.00,29.58,M,10.00,M,M,M,M,M,M,M,M,M,M,M,M,M,M,M,M,14.00,K05U 251050Z AUTO 00000KT 10SM M10/M12 A2958 RMK A01,M
LOL,2021-01-25 10:53,-118.5701,40.0684,1192.43,30.90,30.00,96.41,320.00,4.00,0.03,29.57,1002.20,1.00,M,BKN,OVC,M,M,400.00,1100.00,M,M,-SN BR,M,M,M,M,M,M,26.14,KLOL 251053Z AUTO 32004KT 1SM -SN BR BKN004 OVC011 M01/M01 A2957 RMK AO2 SLP022 P0003 T10061011,M
VGT,2021-01-25 10:53,-115.1933,36.2111,667.00,46.00,32.00,57.87,190.00,14.00,T,29.61,1004.30,10.00,22.00,BKN,BKN,OVC,M,4300.00,6000.00,7000.00,M,M,M,M,M,30.00,180.00,2021-01-25 10:09,39.21,KVGT 251053Z AUTO 19014G22KT 10SM BKN043 BKN060 OVC070 08/00 A2961 RMK AO2 PK WND 18030/1009 RAB23E24 SLP043 P0000 T00780000,M
ELY,2021-01-25 10:53,-114.8453,39.2950,1909.00,24.10,18.00,77.21,200.00,9.00,0.00,29.57,1001.70,10.00,M,FEW,SCT,OVC,M,4100.00,5500.00,8500.00,M,M,M,M,M,M,M,M,13.69,KELY 251053Z AUTO 20009KT 10SM FEW041 SCT055 OVC085 M04/M08 A2957 RMK AO2 SLP017 T10441078,M
P68,2021-01-25 10:53,-116.0056,39.6014,1993.00,14.00,10.90,87.20,M,3.00,0.00,29.55,1002.40,M,M,M,M,M,M,M,M,M,M,M,M,M,M,M,M,M,8.11,KP68 251053Z AUTO VRB03KT M10/M12 A2955 RMK AO1 SLP024 T11001117,M
DRA,2021-01-25 10:53,-116.0278,36.6206,1009.00,38.00,33.00,82.66,190.00,6.00,0.00,29.60,1001.00,10.00,M,OVC,M,M,M,3700.00,M,M,M,M,M,M,M,M,M,M,32.64,KDRA 251053Z AUTO 19006KT 10SM OVC037 03/01 A2960 RMK AO2 SLP010 T00330006,M
RTS,2021-01-25 10:55,-119.8764,39.6682,1539.00,26.60,26.60,100.00,0.00,0.00,0.00,29.55,M,8.00,M,OVC,M,M,M,1300.00,M,M,M,-SN,M,M,M,M,M,M,26.60,KRTS 251055Z AUTO 00000KT 8SM -SN OVC013 M03/M03 A2955 RMK AO2,M
RNO,2021-01-25 10:55,-119.7711,39.4839,1341.00,30.00,28.90,95.61,10.00,6.00,0.01,29.55,1000.60,2.50,M,FEW,OVC,M,M,800.00,2600.00,M,M,-SN BR,M,M,M,M,M,M,23.12,KRNO 251055Z 01006KT 2 1/2SM -SN BR FEW008 OVC026 M01/M02 A2955 RMK AO2 SLP006 P0001 T10111017 $,M
TMT,2021-01-25 10:55,-117.1971,39.4643,1749.34,16.50,15.10,94.10,0.00,0.00,0.00,29.57,M,10.00,M,M,M,M,M,M,M,M,M,M,M,M,M,M,M,M,16.50,KTMT 251055Z AUTO 00000KT 10SM M09/M09 A2957 RMK AO2 T10861094,M
HTH,2021-01-25 10:55,-118.6315,38.5448,1282.89,32.00,32.00,100.00,0.00,0.00,0.00,29.57,M,10.00,M,BKN,OVC,M,M,6000.00,7000.00,M,M,M,M,M,M,M,M,M,32.00,KHTH 251055Z AUTO 00000KT 10SM BKN060 OVC070 M00/00 A2957 RMK A01,M
BVU,2021-01-25 10:55,-114.8611,35.9475,671.00,44.60,35.60,70.48,160.00,12.00,0.00,29.68,M,10.00,M,BKN,OVC,M,M,4500.00,5000.00,M,M,M,M,M,M,M,M,M,38.04,KBVU 251055Z AUTO 16012KT 10SM BKN045 OVC050 07/02 A2968 RMK AO2,M
MEV,2021-01-25 10:55,-119.7500,38.9963,1441.42,28.40,26.60,92.86,350.00,5.00,0.00,29.55,M,10.00,M,OVC,M,M,M,4100.00,M,M,M,M,M,M,M,M,M,M,22.12,KMEV 251055Z AUTO 35005KT 10SM OVC041 M02/M03 A2955 RMK AO2,M
BAM,2021-01-25 10:55,-116.8743,40.5990,1382.36,23.00,23.00,100.00,80.00,4.00,0.00,29.63,M,10.00,M,OVC,M,M,M,500.00,M,M,M,M,M,M,M,M,M,M,16.91,KBAM 251055Z AUTO 08004KT 10SM OVC005 M05/M05 A2963 RMK AO1,M
CXP,2021-01-25 10:55,-119.7326,39.1923,1431.00,30.20,26.60,86.28,0.00,0.00,0.00,29.56,M,10.00,M,SCT,BKN,OVC,M,700.00,2400.00,5500.00,M,M,M,M,M,M,M,M,30.20,KCXP 251055Z AUTO 00000KT 10SM SCT007 BKN024 OVC055 M01/M03 A2956 RMK AO2,M
NFL,2021-01-25 10:56,-118.7010,39.4166,1199.00,30.90,28.90,92.18,M,M,T,29.56,999.70,10.00,M,OVC,M,M,M,5000.00,M,M,M,M,M,M,M,M,M,M,M,KNFL 251056Z AUTO 10SM OVC050 M01/M02 A2956 RMK AO2 SNE27 SLP997 P0000 T10061017,M
EKO,2021-01-25 10:56,-115.7860,40.8242,1367.00,19.90,18.00,92.19,0.00,0.00,0.00,29.61,1005.70,5.00,M,OVC,M,M,M,100.00,M,M,M,BR,M,M,M,M,M,M,19.90,KEKO 251056Z AUTO 00000KT 5SM BR OVC001 M07/M08 A2961 RMK AO2 SLP057 T10671078,M
LAS,2021-01-25 10:56,-115.1634,36.0719,663.00,43.00,35.00,73.45,200.00,11.00,T,29.66,1004.00,9.00,18.00,FEW,BKN,OVC,M,3000.00,4800.00,6000.00,M,M,M,M,M,M,M,M,36.37,KLAS 251056Z 20011G18KT 9SM FEW030 BKN048 OVC060 06/02 A2966 RMK AO2 RAB0959E15B35E53 SLP040 VIS LWR W-NW VCSH CIG LWR SW-NW MTNS OBSCURED DSNT SW-NW P0000 T00610017,M
TPH,2021-01-25 10:56,-117.0904,38.0505,1654.00,26.10,26.10,100.00,0.00,0.00,0.03,29.56,1001.80,1.00,M,VV ,M,M,M,1200.00,M,M,M,-SN BR,M,M,M,M,M,M,26.10,KTPH 251056Z AUTO 00000KT 1SM -SN BR VV012 M03/M03 A2956 RMK AO2 SLP018 P0003 T10331033,M
WMC,2021-01-25 10:56,-117.8072,40.9019,1315.00,25.00,19.00,77.62,70.00,10.00,T,29.60,1003.80,9.00,M,OVC,M,M,M,1700.00,M,M,M,-SN,M,M,M,M,M,M,14.19,KWMC 251056Z AUTO 07010KT 9SM -SN OVC017 M04/M07 A2960 RMK AO2 SLP038 P0000 T10391072 $,M
HND,2021-01-25 10:56,-115.1344,35.9729,742.79,41.00,35.00,79.34,210.00,17.00,T,29.68,1006.60,10.00,M,FEW,BKN,OVC,M,2800.00,3400.00,4500.00,M,-RA,M,M,M,M,M,M,31.87,KHND 251056Z AUTO 21017KT 10SM -RA FEW028 BKN034 OVC045 05/02 A2968 RMK AO2 SLP066 P0000 T00500017,M
LSV,2021-01-25 10:58,-115.0343,36.2362,570.00,45.00,36.70,72.23,210.00,19.00,T,29.65,1003.70,10.00,23.00,CLR,M,M,M,M,M,M,M,M,M,M,M,M,M,M,36.76,KLSV 251058Z AUTO 21019G23KT 10SM CLR 07/03 A2965 RMK AO2 RAB06E36RAB37E46 SLP037 P0000 T00730026 $,M
INS,2021-01-25 10:58,-115.6733,36.5872,955.00,37.00,17.40,44.74,300.00,4.00,0.00,29.58,1000.50,10.00,M,SCT,M,M,M,6000.00,M,M,M,M,M,M,M,M,M,M,33.14,KINS 251058Z AUTO 30004KT 10SM SCT060 03/M08 A2958 RMK AO2 SLP005 T00271081 $,M
LOL,2021-01-25 11:01,-118.5701,40.0684,1192.43,30.90,30.00,96.41,320.00,4.00,T,29.57,M,1.00,M,SCT,OVC,M,M,400.00,1100.00,M,M,-SN BR,M,M,M,M,M,M,26.14,KLOL 251101Z AUTO 32004KT 1SM -SN BR SCT004 OVC011 M01/M01 A2957 RMK AO2 P0000 T10061011,M
INS,2021-01-25 11:03,-115.6733,36.5872,955.00,37.40,17.60,44.25,320.00,3.00,0.00,29.58,1000.50,10.00,M,BKN,M,M,M,5500.00,M,M,M,M,M,M,M,M,M,M,34.86,KINS 251103Z AUTO 32003KT 10SM BKN055 03/M08 A2958 RMK AO2 SLP005 $,M
EKO,2021-01-25 11:05,-115.7860,40.8242,1367.00,19.90,18.00,92.19,260.00,3.00,0.00,29.61,M,6.00,M,OVC,M,M,M,200.00,M,M,M,BR,M,M,M,M,M,M,14.86,KEKO 251105Z AUTO 26003KT 6SM BR OVC002 M07/M08 A2961 RMK AO2 T10671078,M
05U,2021-01-25 11:10,-116.0051,39.6042,1811.23,14.00,10.40,85.28,0.00,0.00,0.00,29.57,M,10.00,M,M,M,M,M,M,M,M,M,M,M,M,M,M,M,M,14.00,K05U 251110Z AUTO 00000KT 10SM M10/M12 A2957 RMK A01,M
BAM,2021-01-25 11:15,-116.8743,40.5990,1382.36,23.00,23.00,100.00,90.00,4.00,0.00,29.62,M,10.00,M,OVC,M,M,M,500.00,M,M,M,M,M,M,M,M,M,M,16.91,KBAM 251115Z AUTO 09004KT 10SM OVC005 M05/M05 A2962 RMK AO1,M
BVU,2021-01-25 11:15,-114.8611,35.9475,671.00,44.60,33.80,65.61,180.00,10.00,0.00,29.68,M,10.00,15.00,BKN,OVC,M,M,3400.00,4500.00,M,M,M,M,M,M,M,M,M,38.77,KBVU 251115Z AUTO 18010G15KT 10SM BKN034 OVC045 07/01 A2968 RMK AO2,M
TMT,2021-01-25 11:15,-117.1971,39.4643,1749.34,17.10,15.80,94.52,0.00,0.00,0.00,29.56,M,4.00,M,M,M,M,M,M,M,M,M,-SN,M,M,M,M,M,M,17.10,KTMT 251115Z AUTO 00000KT 4SM -SN M08/M09 A2956 RMK AO2 LTG DSNT SW T10831090,M
RTS,2021-01-25 11:15,-119.8764,39.6682,1539.00,26.60,26.60,100.00,300.00,3.00,0.00,29.55,M,1.50,M,BKN,OVC,M,M,300.00,1300.00,M,M,-SN,M,M,M,M,M,M,22.52,KRTS 251115Z AUTO 30003KT 1 1/2SM -SN BKN003 OVC013 M03/M03 A2955 RMK AO2,M
MEV,2021-01-25 11:15,-119.7500,38.9963,1441.42,28.40,26.60,92.86,20.00,4.00,0.00,29.54,M,8.00,M,FEW,SCT,BKN,M,2000.00,2800.00,3900.00,M,-SN,M,M,M,M,M,M,23.22,KMEV 251115Z AUTO 02004KT 8SM -SN FEW020 SCT028 BKN039 M02/M03 A2954 RMK AO2,M
CXP,2021-01-25 11:15,-119.7326,39.1923,1431.00,28.40,26.60,92.86,80.00,4.00,0.00,29.56,M,9.00,M,SCT,BKN,OVC,M,600.00,3800.00,5000.00,M,-SN,M,M,M,M,M,M,23.22,KCXP 251115Z AUTO 08004KT 9SM -SN SCT006 BKN038 OVC050 M02/M03 A2956 RMK AO2,M
HTH,2021-01-25 11:15,-118.6315,38.5448,1282.89,32.00,32.00,100.00,0.00,0.00,0.00,29.56,M,10.00,M,SCT,BKN,OVC,M,3500.00,4200.00,6000.00,M,M,M,M,M,M,M,M,32.00,KHTH 251115Z AUTO 00000KT 10SM SCT035 BKN042 OVC060 00/00 A2956 RMK A01,M
TPH,2021-01-25 11:21,-117.0904,38.0505,1654.00,26.10,25.00,95.53,110.00,4.00,0.02,29.55,M,0.75,M,VV ,M,M,M,1200.00,M,M,M,-SN BR,M,M,M,M,M,M,20.53,KTPH 251121Z AUTO 11004KT 3/4SM -SN BR VV012 M03/M04 A2955 RMK AO2 P0002 T10331039,M
INS,2021-01-25 11:23,-115.6733,36.5872,955.00,37.40,19.40,47.80,320.00,8.00,0.00,29.58,1000.50,10.00,M,SCT,M,M,M,5500.00,M,M,M,M,M,M,M,M,M,M,30.76,KINS 251123Z AUTO 32008KT 10SM SCT055 03/M07 A2958 RMK AO2 SLP005 $,M
LOL,2021-01-25 11:24,-118.5701,40.0684,1192.43,30.90,30.00,96.41,0.00,0.00,0.01,29.56,M,1.25,M,BKN,OVC,M,M,600.00,1300.00,M,M,-SN BR,M,M,M,M,M,M,30.90,KLOL 251124Z AUTO 00000KT 1 1/4SM -SN BR BKN006 OVC013 M01/M01 A2956 RMK AO2 P0001 T10061011,M
HND,2021-01-25 11:24,-115.1344,35.9729,742.79,39.20,35.60,86.79,180.00,14.00,T,29.66,M,10.00,M,BKN,OVC,M,M,2800.00,3400.00,M,M,-RA,M,M,M,M,M,M,30.44,KHND 251124Z AUTO 18014KT 10SM -RA BKN028 OVC034 04/02 A2966 RMK AO2 P0000,M
05U,2021-01-25 11:30,-116.0051,39.6042,1811.23,14.00,12.20,92.38,0.00,0.00,0.00,29.57,M,10.00,M,M,M,M,M,M,M,M,M,M,M,M,M,M,M,M,14.00,K05U 251130Z AUTO 00000KT 10SM M10/M11 A2957 RMK A01,M
INS,2021-01-25 11:30,-115.6733,36.5872,955.00,37.40,17.60,44.25,280.00,5.00,0.00,29.58,1000.50,10.00,M,SCT,M,M,M,5500.00,M,M,M,-UP,M,M,M,M,M,M,32.81,KINS 251130Z AUTO 28005KT 10SM -UP SCT055 03/M08 A2958 RMK AO2 UPB30 SLP005 $,M
LSV,2021-01-25 11:32,-115.0343,36.2362,570.00,44.60,35.60,70.48,180.00,11.00,0.00,29.64,1003.30,10.00,M,FEW,M,M,M,6000.00,M,M,M,-RA,M,M,M,M,M,M,38.39,KLSV 251132Z AUTO 18011KT 10SM -RA FEW060 07/02 A2964 RMK AO2 RAB32 SLP033 $,M
HTH,2021-01-25 11:35,-118.6315,38.5448,1282.89,32.00,32.00,100.00,0.00,0.00,0.00,29.56,M,9.00,M,BKN,OVC,M,M,3000.00,3600.00,M,M,M,M,M,M,M,M,M,32.00,KHTH 251135Z AUTO 00000KT 9SM BKN030 OVC036 00/00 A2956 RMK A01,M
RTS,2021-01-25 11:35,-119.8764,39.6682,1539.00,26.60,26.60,100.00,340.00,5.00,0.00,29.55,M,0.50,M,OVC,M,M,M,200.00,M,M,M,-SN,M,M,M,M,M,M,19.98,KRTS 251135Z AUTO 34005KT 1/2SM -SN OVC002 M03/M03 A2955 RMK AO2,M
MEV,2021-01-25 11:35,-119.7500,38.9963,1441.42,28.40,26.60,92.86,330.00,4.00,0.00,29.54,M,5.00,M,FEW,SCT,BKN,M,500.00,1700.00,2600.00,M,-SN BR,M,M,M,M,M,M,23.22,KMEV 251135Z AUTO 33004KT 5SM -SN BR FEW005 SCT017 BKN026 M02/M03 A2954 RMK AO2,M
TMT,2021-01-25 11:35,-117.1971,39.4643,1749.34,17.40,16.30,95.35,0.00,0.00,0.00,29.55,M,2.50,M,M,M,M,M,M,M,M,M,-SN,M,M,M,M,M,M,17.40,KTMT 251135Z AUTO 00000KT 2 1/2SM -SN M08/M09 A2955 RMK AO2 T10811087,M
BAM,2021-01-25 11:35,-116.8743,40.5990,1382.36,23.00,23.00,100.00,50.00,6.00,0.00,29.61,M,10.00,M,OVC,M,M,M,500.00,M,M,M,M,M,M,M,M,M,M,14.69,KBAM 251135Z AUTO 05006KT 10SM OVC005 M05/M05 A2961 RMK AO1,M
CXP,2021-01-25 11:35,-119.7326,39.1923,1431.00,28.40,26.60,92.86,70.00,4.00,0.00,29.55,M,10.00,M,FEW,BKN,OVC,M,3200.00,4200.00,5000.00,M,M,M,M,M,M,M,M,23.22,KCXP 251135Z AUTO 07004KT 10SM FEW032 BKN042 OVC050 M02/M03 A2955 RMK AO2,M
BVU,2021-01-25 11:35,-114.8611,35.9475,671.00,44.60,33.80,65.61,230.00,13.00,0.00,29.68,M,10.00,M,BKN,OVC,M,M,2700.00,3400.00,M,M,M,M,M,M,M,M,M,37.71,KBVU 251135Z AUTO 23013KT 10SM BKN027 OVC034 07/01 A2968 RMK AO2,M
RNO,2021-01-25 11:36,-119.7711,39.4839,1341.00,30.00,28.90,95.61,360.00,5.00,0.02,29.54,M,2.50,M,BKN,OVC,M,M,1400.00,2000.00,M,M,-SN BR,M,M,M,M,M,M,24.02,KRNO 251136Z 36005KT 2 1/2SM -SN BR BKN014 OVC020 M01/M02 A2954 RMK AO2 P0002 T10111017 $,M
NFL,2021-01-25 11:38,-118.7010,39.4166,1199.00,30.90,28.90,92.18,110.00,5.00,0.00,29.55,M,9.00,M,SCT,OVC,M,M,300.00,6000.00,M,M,M,M,M,M,M,M,M,25.09,KNFL 251138Z AUTO 11005KT 9SM SCT003 OVC060 M01/M02 A2955 RMK AO2 T10061017,M
LSV,2021-01-25 11:42,-115.0343,36.2362,570.00,44.60,37.40,75.68,180.00,13.00,0.00,29.64,1003.30,10.00,M,BKN,M,M,M,6500.00,M,M,M,M,M,M,M,M,M,M,37.71,KLSV 251142Z AUTO 18013KT 10SM BKN065 07/03 A2964 RMK AO2 RAB32E42 SLP033 $,M
RNO,2021-01-25 11:45,-119.7711,39.4839,1341.00,30.00,28.90,95.61,340.00,5.00,0.02,29.54,M,2.50,M,SCT,BKN,OVC,M,500.00,1400.00,2000.00,M,-SN BR,M,M,M,M,M,M,24.02,KRNO 251145Z 34005KT 2 1/2SM -SN BR SCT005 BKN014 OVC020 M01/M02 A2954 RMK AO2 P0002 T10111017 $,M
NFL,2021-01-25 11:47,-118.7010,39.4166,1199.00,30.90,28.90,92.18,120.00,5.00,0.00,29.54,M,9.00,21.00,BKN,OVC,M,M,300.00,5500.00,M,M,M,M,M,M,M,M,M,25.09,KNFL 251147Z AUTO 12005G21KT 9SM BKN003 OVC055 M01/M02 A2954 RMK AO2 T10061017,M
05U,2021-01-25 11:50,-116.0051,39.6042,1811.23,15.80,12.20,85.40,0.00,0.00,0.00,29.56,M,10.00,M,M,M,M,M,M,M,M,M,M,M,M,M,M,M,M,15.80,K05U 251150Z AUTO 00000KT 10SM M09/M11 A2956 RMK A01,M
P68,2021-01-25 11:53,-116.0056,39.6014,1993.00,16.00,12.90,87.32,0.00,0.00,0.00,29.54,1001.80,M,M,M,M,M,M,M,M,M,M,M,M,M,M,M,M,M,16.00,KP68 251153Z AUTO 00000KT M09/M11 A2954 RMK AO1 SLP018 T10891106 11078 21117 58008,M
VGT,2021-01-25 11:53,-115.1933,36.2111,667.00,45.00,33.00,62.83,180.00,9.00,0.00,29.60,1003.50,10.00,M,BKN,OVC,M,M,6500.00,8000.00,M,M,M,M,M,M,M,M,M,39.68,KVGT 251153Z AUTO 18009KT 10SM BKN065 OVC080 07/01 A2960 RMK AO2 SLP035 60000 T00720006 10100 20072 58009,M
LOL,2021-01-25 11:53,-118.5701,40.0684,1192.43,30.90,30.00,96.41,0.00,0.00,0.03,29.55,1001.60,1.25,M,BKN,BKN,OVC,M,700.00,1200.00,2300.00,M,-SN BR,M,M,M,M,M,M,30.90,KLOL 251153Z AUTO 00000KT 1 1/4SM -SN BR BKN007 BKN012 OVC023 M01/M01 A2955 RMK AO2 SLP016 P0003 60014 70014 T10061011 11006 21011 58009,M
DRA,2021-01-25 11:53,-116.0278,36.6206,1009.00,38.00,32.00,79.08,150.00,7.00,0.00,29.57,1000.00,10.00,M,BKN,OVC,M,M,3900.00,6000.00,M,M,M,M,M,M,M,M,M,31.97,KDRA 251153Z AUTO 15007KT 10SM BKN039 OVC060 03/00 A2957 RMK AO2 SLP000 T00330000 10061 20033 58014,M
ELY,2021-01-25 11:53,-114.8453,39.2950,1909.00,25.00,19.00,77.62,220.00,7.00,T,29.55,1000.60,5.00,M,OVC,M,M,M,4200.00,M,M,M,-SN,M,M,M,M,M,M,16.25,KELY 251153Z AUTO 22007KT 5SM -SN OVC042 M04/M07 A2955 RMK AO2 SNB32 SLP006 P0000 60001 70001 T10391072 11039 21056 58012,M
TMT,2021-01-25 11:55,-117.1971,39.4643,1749.34,18.00,16.70,94.54,0.00,0.00,0.00,29.55,M,2.50,M,M,M,M,M,M,M,M,M,-SN,M,M,M,M,M,M,18.00,KTMT 251155Z AUTO 00000KT 2 1/2SM -SN M08/M08 A2955 RMK AO2 T10781085 11078 21103,M
BAM,2021-01-25 11:55,-116.8743,40.5990,1382.36,23.00,23.00,100.00,50.00,8.00,0.00,29.61,M,10.00,M,OVC,M,M,M,500.00,M,M,M,M,M,M,M,M,M,M,13.03,KBAM 251155Z AUTO 05008KT 10SM OVC005 M05/M05 A2961 RMK AO1,M
RTS,2021-01-25 11:55,-119.8764,39.6682,1539.00,26.60,23.00,86.07,350.00,11.00,0.03,29.55,M,0.75,M,OVC,M,M,M,200.00,M,M,M,-SN,M,M,M,M,M,M,15.64,KRTS 251155Z AUTO 35011KT 3/4SM -SN OVC002 M03/M05 A2955 RMK AO2 P0003,M
BVU,2021-01-25 11:55,-114.8611,35.9475,671.00,42.80,33.80,70.28,230.00,11.00,0.00,29.67,M,10.00,M,BKN,OVC,M,M,2700.00,3200.00,M,M,M,M,M,M,M,M,M,36.11,KBVU 251155Z AUTO 23011KT 10SM BKN027 OVC032 06/01 A2967 RMK AO2,M
CXP,2021-01-25 11:55,-119.7326,39.1923,1431.00,30.20,28.40,92.92,0.00,0.00,0.00,29.55,M,10.00,M,BKN,BKN,OVC,M,600.00,1200.00,4100.00,M,M,M,M,M,M,M,M,30.20,KCXP 251155Z AUTO 00000KT 10SM BKN006 BKN012 OVC041 M01/M02 A2955 RMK AO2,M
HTH,2021-01-25 11:55,-118.6315,38.5448,1282.89,32.00,32.00,100.00,0.00,0.00,0.00,29.55,M,1.75,M,BKN,BKN,OVC,M,300.00,600.00,2000.00,M,BR,M,M,M,M,M,M,32.00,KHTH 251155Z AUTO 00000KT 1 3/4SM BR BKN003 BKN006 OVC020 M00/M00 A2955 RMK A01,M
MEV,2021-01-25 11:55,-119.7500,38.9963,1441.42,28.40,26.60,92.86,0.00,0.00,0.00,29.54,M,10.00,M,FEW,SCT,OVC,M,600.00,2600.00,4200.00,M,M,M,M,M,M,M,M,28.40,KMEV 251155Z AUTO 00000KT 10SM FEW006 SCT026 OVC042 M02/M03 A2954 RMK AO2,M
RNO,2021-01-25 11:55,-119.7711,39.4839,1341.00,30.00,28.00,92.15,360.00,5.00,0.02,29.54,1000.40,2.50,M,BKN,BKN,OVC,M,700.00,1200.00,1700.00,M,-SN BR,M,M,M,M,M,M,24.02,KRNO 251155Z 36005KT 2 1/2SM -SN BR BKN007 BKN012 OVC017 M01/M02 A2954 RMK AO2 SLP004 4/002 P0002 60010 70010 T10111022 10006 21011 56005 $,2
NFL,2021-01-25 11:56,-118.7010,39.4166,1199.00,30.90,28.90,92.18,110.00,4.00,0.00,29.54,999.20,9.00,M,BKN,OVC,M,M,300.00,5000.00,M,M,M,M,M,M,M,M,M,26.14,KNFL 251156Z AUTO 11004KT 9SM BKN003 OVC050 M01/M02 A2954 RMK AO2 SLP992 60000 T10061017 10006 21006 58013,M
LAS,2021-01-25 11:56,-115.1634,36.0719,663.00,42.00,34.00,72.78,170.00,8.00,0.00,29.64,1003.30,10.00,16.00,FEW,FEW,OVC,M,3000.00,7500.00,10000.00,M,M,M,M,M,M,M,M,36.55,KLAS 251156Z 17008G16KT 10SM FEW030 FEW075 OVC100 06/01 A2964 RMK AO2 SLP033 VIS LWR W-NW CIG LWR W-NW SHSN OBSCURING MTNS W-N 60000 T00560011 10089 20056 58009,M
TPH,2021-01-25 11:56,-117.0904,38.0505,1654.00,26.10,26.10,100.00,120.00,3.00,0.04,29.54,1001.20,1.00,M,VV ,M,M,M,1100.00,M,M,M,-SN BR,M,M,M,M,M,M,21.94,KTPH 251156Z AUTO 12003KT 1SM -SN BR VV011 M03/M03 A2954 RMK AO2 SLP012 P0004 60007 70007 T10331033 11022 21033 58014,M
HND,2021-01-25 11:56,-115.1344,35.9729,742.79,41.00,34.00,75.94,180.00,19.00,T,29.65,1005.80,10.00,28.00,FEW,SCT,BKN,M,3700.00,4800.00,7000.00,M,-RA,M,M,M,28.00,180.00,2021-01-25 11:51,31.34,KHND 251156Z AUTO 18019G28KT 10SM -RA FEW037 SCT048 BKN070 05/01 A2965 RMK AO2 PK WND 18028/1151 SLP058 P0000 60000 T00500011 10078 20044 58011,M
WMC,2021-01-25 11:56,-117.8072,40.9019,1315.00,25.00,19.00,77.62,50.00,11.00,T,29.58,1003.40,10.00,M,BKN,OVC,M,M,1500.00,2500.00,M,M,M,M,M,M,M,M,M,13.62,KWMC 251156Z AUTO 05011KT 10SM BKN015 OVC025 M04/M07 A2958 RMK AO2 SNE01 SLP034 P0000 60000 T10391072 11033 21044 58008 $,M
EKO,2021-01-25 11:56,-115.7860,40.8242,1367.00,19.90,18.00,92.19,0.00,0.00,0.00,29.60,1005.40,7.00,M,OVC,M,M,M,200.00,M,M,M,M,M,M,T,M,M,M,19.90,KEKO 251156Z AUTO 00000KT 7SM OVC002 M07/M08 A2960 RMK AO2 SLP054 I6000 T10671078 11067 21072 58007,M
RNO,2021-01-25 11:57,-119.7711,39.4839,1341.00,30.00,28.90,95.61,350.00,5.00,T,29.54,M,1.75,M,BKN,OVC,M,M,900.00,1700.00,M,M,-SN BR,M,M,M,M,M,M,24.02,KRNO 251157Z 35005KT 1 3/4SM R16R/6000VP6000FT -SN BR BKN009 OVC017 M01/M02 A2954 RMK AO2 TWR VIS 2 1/2 P0000 T10111017 $,M
INS,2021-01-25 11:58,-115.6733,36.5872,955.00,38.00,25.90,61.14,30.00,5.00,T,29.57,1000.10,10.00,M,FEW,M,M,M,1800.00,M,M,M,-RA,M,M,M,M,M,M,33.64,KINS 251158Z AUTO 03005KT 10SM -RA FEW018 03/M03 A2957 RMK AO2 UPB30E38RAB38 SLP001 P0000 60000 T00341034 10042 20012 57012 $,M
LSV,2021-01-25 11:58,-115.0343,36.2362,570.00,44.00,37.40,77.72,190.00,10.00,T,29.64,1003.30,10.00,M,SCT,M,M,M,6500.00,M,M,M,M,M,M,M,M,M,M,37.89,KLSV 251158Z AUTO 19010KT 10SM SCT065 07/03 A2964 RMK AO2 RAB32E42 SLP033 P0000 60000 T00660030 10096 20066 58007 $,M
INS,2021-01-25 11:59,-115.6733,36.5872,955.00,37.40,26.60,64.70,20.00,6.00,0.00,29.57,1000.10,10.00,M,FEW,M,M,M,1800.00,M,M,M,M,M,M,M,M,M,M,32.03,KINS 251159Z AUTO 02006KT 10SM FEW018 03/M03 A2957 RMK AO2 RAE59 SLP001 $,M
LOL,2021-01-25 12:02,-118.5701,40.0684,1192.43,30.90,30.00,96.41,0.00,0.00,T,29.55,M,1.25,M,SCT,BKN,OVC,M,700.00,1300.00,2300.00,M,-SN BR,M,M,M,M,M,M,30.90,KLOL 251202Z AUTO 00000KT 1 1/4SM -SN BR SCT007 BKN013 OVC023 M01/M01 A2955 RMK AO2 P0000 T10061011,M
TPH,2021-01-25 12:04,-117.0904,38.0505,1654.00,26.10,26.10,100.00,110.00,6.00,0.01,29.54,M,0.75,M,VV ,M,M,M,1000.00,M,M,M,-SN BR,M,M,M,M,M,M,18.42,KTPH 251204Z AUTO 11006KT 3/4SM -SN BR VV010 M03/M03 A2954 RMK AO2 P0001 T10331033,M
05U,2021-01-25 12:10,-116.0051,39.6042,1811.23,15.80,12.20,85.40,0.00,0.00,0.00,29.56,M,10.00,M,M,M,M,M,M,M,M,M,M,M,M,M,M,M,M,15.80,K05U 251210Z AUTO 00000KT 10SM M09/M11 A2956 RMK A01,M
RNO,2021-01-25 12:14,-119.7711,39.4839,1341.00,30.00,28.90,95.61,350.00,4.00,0.01,29.54,M,2.00,M,SCT,BKN,OVC,M,900.00,1300.00,3300.00,M,-SN BR,M,M,M,M,M,M,25.08,KRNO 251214Z 35004KT 2SM -SN BR SCT009 BKN013 OVC033 M01/M02 A2954 RMK AO2 P0001 T10111017 $,M
BAM,2021-01-25 12:15,-116.8743,40.5990,1382.36,23.00,23.00,100.00,40.00,9.00,0.00,29.60,M,10.00,M,OVC,M,M,M,500.00,M,M,M,M,M,M,M,M,M,M,12.32,KBAM 251215Z AUTO 04009KT 10SM OVC005 M05/M05 A2960 RMK AO1,M
RTS,2021-01-25 12:15,-119.8764,39.6682,1539.00,24.80,21.20,85.96,340.00,13.00,0.00,29.55,M,2.50,19.00,BKN,BKN,OVC,M,300.00,1000.00,1900.00,M,-SN,M,M,M,M,M,M,12.34,KRTS 251215Z AUTO 34013G19KT 2 1/2SM -SN BKN003 BKN010 OVC019 M04/M06 A2955 RMK AO2,M
TMT,2021-01-25 12:15,-117.1971,39.4643,1749.34,18.10,17.10,95.78,0.00,0.00,0.00,29.54,M,2.00,M,M,M,M,M,M,M,M,M,-SN,M,M,M,M,M,M,18.10,KTMT 251215Z AUTO 00000KT 2SM -SN M08/M08 A2954 RMK AO2 T10771083,M
HTH,2021-01-25 12:15,-118.6315,38.5448,1282.89,32.00,32.00,100.00,0.00,0.00,0.00,29.55,M,6.00,M,FEW,BKN,OVC,M,300.00,1700.00,8000.00,M,BR,M,M,M,M,M,M,32.00,KHTH 251215Z AUTO 00000KT 6SM BR FEW003 BKN017 OVC080 M00/M00 A2955 RMK A01,M
BVU,2021-01-25 12:15,-114.8611,35.9475,671.00,42.80,35.60,75.50,230.00,8.00,0.00,29.66,M,10.00,M,SCT,OVC,M,M,2700.00,3200.00,M,M,M,M,M,M,M,M,M,37.42,KBVU 251215Z AUTO 23008KT 10SM SCT027 OVC032 06/02 A2966 RMK AO2,M
CXP,2021-01-25 12:15,-119.7326,39.1923,1431.00,30.20,28.40,92.92,80.00,4.00,0.00,29.55,M,2.50,M,BKN,BKN,BKN,M,500.00,1200.00,2500.00,M,-SN,M,M,M,M,M,M,25.32,KCXP 251215Z AUTO 08004KT 2 1/2SM -SN BKN005 BKN012 BKN025 M01/M02 A2955 RMK AO2,M
MEV,2021-01-25 12:15,-119.7500,38.9963,1441.42,28.40,26.60,92.86,90.00,7.00,0.00,29.53,M,5.00,M,FEW,SCT,BKN,M,300.00,2200.00,4400.00,M,-SN BR,M,M,M,M,M,M,20.39,KMEV 251215Z AUTO 09007KT 5SM -SN BR FEW003 SCT022 BKN044 M02/M03 A2953 RMK AO2,M
TPH,2021-01-25 12:23,-117.0904,38.0505,1654.00,26.10,26.10,100.00,120.00,6.00,0.02,29.53,M,1.25,M,OVC,M,M,M,1300.00,M,M,M,-SN BR,M,M,M,M,M,M,18.42,KTPH 251223Z AUTO 12006KT 1 1/4SM -SN BR OVC013 M03/M03 A2953 RMK AO2 P0002 T10331033,M
NFL,2021-01-25 12:27,-118.7010,39.4166,1199.00,30.00,28.00,92.15,130.00,5.00,0.00,29.54,M,10.00,M,SCT,SCT,OVC,M,300.00,6000.00,10000.00,M,M,M,M,M,M,M,M,24.02,KNFL 251227Z AUTO 13005KT 10SM SCT003 SCT060 OVC100 M01/M02 A2954 RMK AO2 T10111022,M
RNO,2021-01-25 12:30,-119.7711,39.4839,1341.00,30.00,28.00,92.15,360.00,6.00,0.01,29.54,M,2.00,M,FEW,BKN,OVC,M,1000.00,1500.00,4200.00,M,-SN BR,M,M,M,M,M,M,23.12,KRNO 251230Z 36006KT 2SM -SN BR FEW010 BKN015 OVC042 M01/M02 A2954 RMK AO2 P0001 T10111022 $,M
05U,2021-01-25 12:30,-116.0051,39.6042,1811.23,15.80,14.00,92.44,0.00,0.00,0.00,29.56,M,10.00,M,M,M,M,M,M,M,M,M,M,M,M,M,M,M,M,15.80,K05U 251230Z AUTO 00000KT 10SM M09/M10 A2956 RMK A01,M
HTH,2021-01-25 12:35,-118.6315,38.5448,1282.89,32.00,32.00,100.00,0.00,0.00,0.00,29.54,M,10.00,M,SCT,BKN,OVC,M,1900.00,8000.00,11000.00,M,M,M,M,M,M,M,M,32.00,KHTH 251235Z AUTO 00000KT 10SM SCT019 BKN080 OVC110 M00/M00 A2954 RMK A01,M
BVU,2021-01-25 12:35,-114.8611,35.9475,671.00,42.80,35.60,75.50,180.00,4.00,0.00,29.66,M,10.00,10.00,OVC,M,M,M,3000.00,M,M,M,M,M,M,M,M,M,M,40.03,KBVU 251235Z AUTO 18004G10KT 10SM OVC030 06/02 A2966 RMK AO2,M
BAM,2021-01-25 12:35,-116.8743,40.5990,1382.36,23.00,23.00,100.00,60.00,8.00,0.00,29.60,M,10.00,M,OVC,M,M,M,500.00,M,M,M,M,M,M,M,M,M,M,13.03,KBAM 251235Z AUTO 06008KT 10SM OVC005 M05/M05 A2960 RMK AO1,M
CXP,2021-01-25 12:35,-119.7326,39.1923,1431.00,30.20,28.40,92.92,0.00,0.00,0.00,29.55,M,3.00,M,FEW,BKN,M,M,400.00,2700.00,M,M,-SN,M,M,M,M,M,M,30.20,KCXP 251235Z AUTO 00000KT 3SM -SN FEW004 BKN027 M01/M02 A2955 RMK AO2,M
TMT,2021-01-25 12:35,-117.1971,39.4643,1749.34,18.10,16.70,94.14,0.00,0.00,0.01,29.54,M,2.00,M,M,M,M,M,M,M,M,M,-SN,M,M,M,M,M,M,18.10,KTMT 251235Z AUTO 00000KT 2SM -SN M08/M08 A2954 RMK AO2 P0001 T10771085,M
RTS,2021-01-25 12:35,-119.8764,39.6682,1539.00,24.80,21.20,85.96,350.00,16.00,0.00,29.55,M,2.00,M,SCT,OVC,M,M,300.00,2000.00,M,M,+UP,M,M,M,M,M,M,11.03,KRTS 251235Z AUTO 35016KT 2SM +UP SCT003 OVC020 M04/M06 A2955 RMK AO2,M
MEV,2021-01-25 12:35,-119.7500,38.9963,1441.42,26.60,24.80,92.80,90.00,7.00,0.00,29.53,M,10.00,M,SCT,SCT,BKN,M,4100.00,5500.00,6500.00,M,M,M,M,M,M,M,M,18.20,KMEV 251235Z AUTO 09007KT 10SM SCT041 SCT055 BKN065 M03/M04 A2953 RMK AO2,M
TPH,2021-01-25 12:37,-117.0904,38.0505,1654.00,26.10,26.10,100.00,120.00,5.00,0.02,29.53,M,1.50,M,OVC,M,M,M,1700.00,M,M,M,-SN BR,M,M,M,M,M,M,19.39,KTPH 251237Z AUTO 12005KT 1 1/2SM -SN BR OVC017 M03/M03 A2953 RMK AO2 P0002 T10331033,M
05U,2021-01-25 12:50,-116.0051,39.6042,1811.23,15.80,14.00,92.44,0.00,0.00,0.00,29.56,M,10.00,M,M,M,M,M,M,M,M,M,M,M,M,M,M,M,M,15.80,K05U 251250Z AUTO 00000KT 10SM M09/M10 A2956 RMK A01,M
RNO,2021-01-25 12:51,-119.7711,39.4839,1341.00,28.40,24.80,86.18,350.00,13.00,0.01,29.55,M,2.00,M,FEW,BKN,OVC,M,900.00,1700.00,4500.00,M,-SN BR,M,M,M,M,M,M,16.96,KRNO 251251Z 35013KT 2SM -SN BR FEW009 BKN017 OVC045 M02/M04 A2955 RMK AO2 P0001 $,M
LOL,2021-01-25 12:53,-118.5701,40.0684,1192.43,30.90,30.00,96.41,20.00,4.00,0.04,29.55,1001.90,1.00,M,OVC,M,M,M,1300.00,M,M,M,-SN BR,M,M,M,M,M,M,26.14,KLOL 251253Z AUTO 02004KT 1SM -SN BR OVC013 M01/M01 A2955 RMK AO2 SLP019 P0004 T10061011,M
ELY,2021-01-25 12:53,-114.8453,39.2950,1909.00,23.00,18.00,80.85,200.00,8.00,T,29.54,1001.60,10.00,M,SCT,M,M,M,8500.00,M,M,M,M,M,M,M,M,M,M,13.03,KELY 251253Z AUTO 20008KT 10SM SCT085 M05/M08 A2954 RMK AO2 SNE01 SLP016 P0000 T10501078,M
P68,2021-01-25 12:53,-116.0056,39.6014,1993.00,17.10,14.00,87.38,0.00,0.00,0.00,29.53,1002.80,M,M,M,M,M,M,M,M,M,M,M,M,M,M,M,M,M,17.10,KP68 251253Z AUTO 00000KT M08/M10 A2953 RMK AO1 SLP028 T10831100,M
VGT,2021-01-25 12:53,-115.1933,36.2111,667.00,45.00,32.00,60.11,180.00,16.00,0.00,29.57,1002.80,10.00,20.00,BKN,OVC,M,M,9500.00,11000.00,M,M,M,M,M,M,M,M,M,37.36,KVGT 251253Z AUTO 18016G20KT 10SM BKN095 OVC110 07/00 A2957 RMK AO2 SLP028 T00720000,M
DRA,2021-01-25 12:53,-116.0278,36.6206,1009.00,37.00,32.00,81.93,110.00,5.00,0.00,29.55,999.60,10.00,M,SCT,OVC,M,M,2800.00,3400.00,M,M,M,M,M,M,M,M,M,32.33,KDRA 251253Z AUTO 11005KT 10SM SCT028 OVC034 03/00 A2955 RMK AO2 SLP996 T00280000,M
TPH,2021-01-25 12:54,-117.0904,38.0505,1654.00,26.60,26.60,100.00,120.00,5.00,0.03,29.53,M,2.00,M,OVC,M,M,M,2000.00,M,M,M,-SN BR,M,M,M,M,M,M,19.98,KTPH 251254Z AUTO 12005KT 2SM -SN BR OVC020 M03/M03 A2953 RMK AO2 P0003,M
BAM,2021-01-25 12:55,-116.8743,40.5990,1382.36,23.00,23.00,100.00,50.00,6.00,0.00,29.60,M,10.00,M,BKN,M,M,M,500.00,M,M,M,M,M,M,M,M,M,M,14.69,KBAM 251255Z AUTO 05006KT 10SM BKN005 M05/M05 A2960 RMK AO1,M
MEV,2021-01-25 12:55,-119.7500,38.9963,1441.42,24.80,23.00,92.74,70.00,6.00,0.00,29.54,M,10.00,M,SCT,BKN,BKN,M,3500.00,4200.00,5000.00,M,M,M,M,M,M,M,M,16.86,KMEV 251255Z AUTO 07006KT 10SM SCT035 BKN042 BKN050 M04/M05 A2954 RMK AO2,M
HTH,2021-01-25 12:55,-118.6315,38.5448,1282.89,30.20,30.20,100.00,0.00,0.00,0.00,29.54,M,10.00,M,BKN,OVC,M,M,7500.00,11000.00,M,M,M,M,M,M,M,M,M,30.20,KHTH 251255Z AUTO 00000KT 10SM BKN075 OVC110 M01/M01 A2954 RMK A01,M
RNO,2021-01-25 12:55,-119.7711,39.4839,1341.00,28.00,24.10,85.08,360.00,13.00,0.01,29.55,1000.90,2.00,M,FEW,BKN,OVC,M,900.00,2300.00,4700.00,M,-SN BR,M,M,M,M,M,M,16.44,KRNO 251255Z 36013KT 2SM -SN BR FEW009 BKN023 OVC047 M02/M04 A2955 RMK AO2 SLP009 P0001 T10221044 $,M
TMT,2021-01-25 12:55,-117.1971,39.4643,1749.34,17.80,16.70,95.36,0.00,0.00,0.01,29.54,M,2.50,M,M,M,M,M,M,M,M,M,-SN,M,M,M,M,M,M,17.80,KTMT 251255Z AUTO 00000KT 2 1/2SM -SN M08/M08 A2954 RMK AO2 P0001 T10791085,M
BVU,2021-01-25 12:55,-114.8611,35.9475,671.00,42.80,35.60,75.50,170.00,8.00,0.00,29.65,M,10.00,M,OVC,M,M,M,3100.00,M,M,M,M,M,M,M,M,M,M,37.42,KBVU 251255Z AUTO 17008KT 10SM OVC031 06/02 A2965 RMK AO2,M
RTS,2021-01-25 12:55,-119.8764,39.6682,1539.00,24.80,19.40,79.62,350.00,17.00,0.03,29.55,M,10.00,M,FEW,OVC,M,M,300.00,2200.00,M,M,-UP,M,M,M,M,M,M,10.64,KRTS 251255Z AUTO 35017KT 10SM -UP FEW003 OVC022 M04/M07 A2955 RMK AO2 P0003,M
CXP,2021-01-25 12:55,-119.7326,39.1923,1431.00,30.20,28.40,92.92,0.00,0.00,0.00,29.55,M,2.50,M,BKN,BKN,OVC,M,400.00,2100.00,2800.00,M,-SN,M,M,M,M,M,M,30.20,KCXP 251255Z AUTO 00000KT 2 1/2SM -SN BKN004 BKN021 OVC028 M01/M02 A2955 RMK AO2,M
LAS,2021-01-25 12:56,-115.1634,36.0719,663.00,41.00,34.00,75.94,190.00,9.00,0.00,29.62,1002.70,10.00,21.00,FEW,SCT,OVC,M,3000.00,5500.00,7000.00,M,M,M,M,M,27.00,190.00,2021-01-25 12:30,34.70,KLAS 251256Z 19009G21KT 10SM FEW030 SCT055 OVC070 05/01 A2962 RMK AO2 PK WND 19027/1230 SLP027 SHSN DSNT S AND W T00500011,M
TPH,2021-01-25 12:56,-117.0904,38.0505,1654.00,26.10,26.10,100.00,120.00,5.00,0.03,29.52,1001.00,2.00,M,FEW,OVC,M,M,1600.00,2000.00,M,M,-SN BR,M,M,M,M,M,M,19.39,KTPH 251256Z AUTO 12005KT 2SM -SN BR FEW016 OVC020 M03/M03 A2952 RMK AO2 SLP010 P0003 T10331033,M
NFL,2021-01-25 12:56,-118.7010,39.4166,1199.00,30.00,28.90,95.61,120.00,3.00,0.00,29.54,999.20,10.00,M,FEW,SCT,OVC,M,400.00,2000.00,9000.00,M,M,M,M,M,M,M,M,26.40,KNFL 251256Z AUTO 12003KT 10SM FEW004 SCT020 OVC090 M01/M02 A2954 RMK AO2 SLP992 T10111017,M
EKO,2021-01-25 12:56,-115.7860,40.8242,1367.00,19.90,17.10,88.68,80.00,4.00,0.00,29.59,1005.40,10.00,M,OVC,M,M,M,400.00,M,M,M,M,M,M,M,M,M,M,13.29,KEKO 251256Z AUTO 08004KT 10SM OVC004 M07/M08 A2959 RMK AO2 SLP054 T10671083,M
WMC,2021-01-25 12:56,-117.8072,40.9019,1315.00,25.00,18.00,74.36,50.00,11.00,0.00,29.58,1003.40,10.00,M,BKN,OVC,M,M,1800.00,4400.00,M,M,M,M,M,M,M,M,M,13.62,KWMC 251256Z AUTO 05011KT 10SM BKN018 OVC044 M04/M08 A2958 RMK AO2 SLP034 T10391078 $,M
HND,2021-01-25 12:56,-115.1344,35.9729,742.79,39.00,35.00,85.76,160.00,9.00,T,29.64,1005.80,10.00,M,BKN,OVC,M,M,3300.00,4100.00,M,M,-RA,M,M,M,M,M,M,32.22,KHND 251256Z AUTO 16009KT 10SM -RA BKN033 OVC041 04/02 A2964 RMK AO2 SLP058 P0000 T00390017,M
INS,2021-01-25 12:58,-115.6733,36.5872,955.00,37.20,32.50,82.94,0.00,0.00,T,29.55,999.60,10.00,M,CLR,M,M,M,M,M,M,M,M,M,M,M,M,M,M,37.20,KINS 251258Z AUTO 00000KT 10SM CLR 03/00 A2955 RMK AO2 RAE1159 SLP996 P0000 T00290003 $,M
LSV,2021-01-25 12:58,-115.0343,36.2362,570.00,44.40,35.00,69.07,170.00,18.00,0.00,29.61,1002.40,10.00,23.00,SCT,BKN,M,M,6500.00,8500.00,M,M,M,M,M,M,M,M,M,36.07,KLSV 251258Z AUTO 17018G23KT 10SM SCT065 BKN085 07/02 A2961 RMK AO2 SLP024 T00690016 $,M
RNO,2021-01-25 12:59,-119.7711,39.4839,1341.00,28.00,24.10,85.08,360.00,12.00,T,29.55,M,5.00,M,FEW,BKN,OVC,M,900.00,3600.00,4700.00,M,UP BR,M,M,M,M,M,M,16.91,KRNO 251259Z 36012KT 5SM UP BR FEW009 BKN036 OVC047 M02/M04 A2955 RMK AO2 UPB58SNE58 P0000 T10221044 $,M
DRA,2021-01-25 13:00,-116.0278,36.6206,1009.00,37.00,32.00,81.93,120.00,6.00,0.00,29.55,M,10.00,M,BKN,BKN,OVC,M,2500.00,3000.00,3400.00,M,M,M,M,M,M,M,M,31.55,KDRA 251300Z AUTO 12006KT 10SM BKN025 BKN030 OVC034 03/00 A2955 RMK AO2 T00280000,M
LOL,2021-01-25 13:01,-118.5701,40.0684,1192.43,32.00,30.00,92.22,20.00,4.00,0.01,29.55,M,0.75,M,OVC,M,M,M,1300.00,M,M,M,-SN BR,M,M,M,M,M,M,27.42,KLOL 251301Z AUTO 02004KT 3/4SM -SN BR OVC013 00/M01 A2955 RMK AO2 P0001 T00001011,M
NFL,2021-01-25 13:03,-118.7010,39.4166,1199.00,30.00,28.00,92.15,0.00,0.00,0.00,29.54,M,10.00,M,FEW,BKN,OVC,M,400.00,2000.00,9000.00,M,M,M,M,M,M,M,M,30.00,KNFL 251303Z AUTO 00000KT 10SM FEW004 BKN020 OVC090 M01/M02 A2954 RMK AO2 T10111022,M
INS,2021-01-25 13:06,-115.6733,36.5872,955.00,37.40,32.00,80.65,250.00,5.00,0.00,29.55,999.60,10.00,M,FEW,M,M,M,2600.00,M,M,M,-RA,M,M,M,M,M,M,32.81,KINS 251306Z AUTO 25005KT 10SM -RA FEW026 03/00 A2955 RMK AO2 RAB06 SLP996 $,M
DRA,2021-01-25 13:08,-116.0278,36.6206,1009.00,37.00,32.00,81.93,120.00,9.00,0.00,29.55,M,10.00,M,SCT,OVC,M,M,2700.00,3800.00,M,M,M,M,M,M,M,M,M,29.73,KDRA 251308Z AUTO 12009KT 10SM SCT027 OVC038 03/00 A2955 RMK AO2 T00280000,M
TPH,2021-01-25 13:09,-117.0904,38.0505,1654.00,26.10,25.00,95.53,110.00,5.00,T,29.52,M,3.00,M,BKN,M,M,M,3200.00,M,M,M,-SN BR,M,M,M,M,M,M,19.39,KTPH 251309Z AUTO 11005KT 3SM -SN BR BKN032 M03/M04 A2952 RMK AO2 P0000 T10331039,M
05U,2021-01-25 13:10,-116.0051,39.6042,1811.23,15.80,14.00,92.44,0.00,0.00,0.00,29.56,M,10.00,M,M,M,M,M,M,M,M,M,M,M,M,M,M,M,M,15.80,K05U 251310Z AUTO 00000KT 10SM M09/M10 A2956 RMK A01,M
WMC,2021-01-25 13:12,-117.8072,40.9019,1315.00,25.00,18.00,74.36,50.00,11.00,0.00,29.58,M,10.00,M,SCT,SCT,OVC,M,1800.00,3700.00,4400.00,M,M,M,M,M,M,M,M,13.62,KWMC 251312Z AUTO 05011KT 10SM SCT018 SCT037 OVC044 M04/M08 A2958 RMK AO2 T10391078 $,M
INS,2021-01-25 13:12,-115.6733,36.5872,955.00,37.40,32.00,80.65,230.00,8.00,0.00,29.55,999.60,10.00,M,SCT,M,M,M,2500.00,M,M,M,M,M,M,M,M,M,M,30.76,KINS 251312Z AUTO 23008KT 10SM SCT025 03/00 A2955 RMK AO2 RAB06E12 SLP996 $,M
LSV,2021-01-25 13:14,-115.0343,36.2362,570.00,44.60,33.80,65.61,170.00,16.00,0.00,29.61,1002.40,10.00,M,FEW,M,M,M,6500.00,M,M,M,-RA,M,M,M,M,M,M,36.84,KLSV 251314Z AUTO 17016KT 10SM -RA FEW065 07/01 A2961 RMK AO2 RAB14 SLP024 $,M
RTS,2021-01-25 13:15,-119.8764,39.6682,1539.00,24.80,19.40,79.62,350.00,15.00,0.00,29.56,M,10.00,25.00,BKN,OVC,M,M,2400.00,2800.00,M,M,M,M,M,M,M,M,M,11.45,KRTS 251315Z AUTO 35015G25KT 10SM BKN024 OVC028 M04/M07 A2956 RMK AO2,M
TMT,2021-01-25 13:15,-117.1971,39.4643,1749.34,18.30,17.20,95.37,0.00,0.00,0.00,29.54,M,2.00,M,M,M,M,M,M,M,M,M,-SN,M,M,M,M,M,M,18.30,KTMT 251315Z AUTO 00000KT 2SM -SN M08/M08 A2954 RMK AO2 T10761082,M
CXP,2021-01-25 13:15,-119.7326,39.1923,1431.00,28.40,26.60,92.86,0.00,0.00,0.00,29.55,M,8.00,M,BKN,BKN,OVC,M,400.00,4300.00,5000.00,M,-SN,M,M,M,M,M,M,28.40,KCXP 251315Z AUTO 00000KT 8SM -SN BKN004 BKN043 OVC050 M02/M03 A2955 RMK AO2,M
HTH,2021-01-25 13:15,-118.6315,38.5448,1282.89,30.20,30.20,100.00,330.00,3.00,0.00,29.54,M,10.00,M,OVC,M,M,M,7000.00,M,M,M,M,M,M,M,M,M,M,26.63,KHTH 251315Z AUTO 33003KT 10SM OVC070 M01/M01 A2954 RMK A01,M
MEV,2021-01-25 13:15,-119.7500,38.9963,1441.42,23.00,21.20,92.69,160.00,4.00,0.00,29.54,M,10.00,M,FEW,BKN,M,M,3900.00,4900.00,M,M,M,M,M,M,M,M,M,16.91,KMEV 251315Z AUTO 16004KT 10SM FEW039 BKN049 M05/M06 A2954 RMK AO2,M
BAM,2021-01-25 13:15,-116.8743,40.5990,1382.36,21.20,21.20,100.00,100.00,3.00,0.00,29.60,M,7.00,M,BKN,M,M,M,300.00,M,M,M,M,M,M,M,M,M,M,16.34,KBAM 251315Z AUTO 10003KT 7SM BKN003 M06/M06 A2960 RMK AO1,M
INS,2021-01-25 13:15,-115.6733,36.5872,955.00,37.40,32.00,80.65,220.00,7.00,0.00,29.55,999.60,10.00,M,SCT,M,M,M,2500.00,M,M,M,-RA,M,M,M,M,M,M,31.36,KINS 251315Z AUTO 22007KT 10SM -RA SCT025 03/00 A2955 RMK AO2 RAB06E12RAB15 SLP996 $,M
BVU,2021-01-25 13:15,-114.8611,35.9475,671.00,42.80,35.60,75.50,170.00,8.00,0.00,29.65,M,10.00,14.00,OVC,M,M,M,3100.00,M,M,M,M,M,M,M,M,M,M,37.42,KBVU 251315Z AUTO 17008G14KT 10SM OVC031 06/02 A2965 RMK AO2,M
INS,2021-01-25 13:20,-115.6733,36.5872,955.00,37.40,32.00,80.65,220.00,7.00,0.00,29.55,999.60,10.00,M,SCT,BKN,M,M,2000.00,2500.00,M,M,-RA,M,M,M,M,M,M,31.36,KINS 251320Z AUTO 22007KT 10SM -RA SCT020 BKN025 03/00 A2955 RMK AO2 RAB06E12RAB15 BKN V SCT SLP996 $,M
DRA,2021-01-25 13:21,-116.0278,36.6206,1009.00,37.00,33.00,85.64,120.00,7.00,0.00,29.55,M,10.00,M,BKN,OVC,M,M,2700.00,3900.00,M,M,M,M,M,M,M,M,M,30.87,KDRA 251321Z AUTO 12007KT 10SM BKN027 OVC039 03/01 A2955 RMK AO2 T00280006,M
LSV,2021-01-25 13:24,-115.0343,36.2362,570.00,44.60,35.60,70.48,170.00,16.00,0.00,29.60,1002.10,10.00,M,CLR,M,M,M,M,M,M,M,M,M,M,M,M,M,M,36.84,KLSV 251324Z AUTO 17016KT 10SM CLR 07/02 A2960 RMK AO2 RAB14E24 SLP021 $,M
INS,2021-01-25 13:25,-115.6733,36.5872,955.00,37.40,32.00,80.65,230.00,6.00,0.00,29.55,999.60,10.00,M,BKN,BKN,M,M,1900.00,2500.00,M,M,-RA,M,M,M,M,M,M,32.03,KINS 251325Z AUTO 23006KT 10SM -RA BKN019 BKN025 03/00 A2955 RMK AO2 RAB06E12RAB15 SLP996 $,M
EKO,2021-01-25 13:29,-115.7860,40.8242,1367.00,19.90,17.10,88.68,60.00,5.00,0.00,29.60,M,10.00,M,OVC,M,M,M,500.00,M,M,M,M,M,M,M,M,M,M,12.03,KEKO 251329Z AUTO 06005KT 10SM OVC005 M07/M08 A2960 RMK AO2 T10671083,M
05U,2021-01-25 13:30,-116.0051,39.6042,1811.23,15.80,14.00,92.44,0.00,0.00,0.00,29.56,M,10.00,M,M,M,M,M,M,M,M,M,M,M,M,M,M,M,M,15.80,K05U 251330Z AUTO 00000KT 10SM M09/M10 A2956 RMK A01,M
DRA,2021-01-25 13:33,-116.0278,36.6206,1009.00,36.00,33.00,89.09,150.00,10.00,0.00,29.55,M,10.00,M,FEW,BKN,OVC,M,900.00,2700.00,3900.00,M,M,M,M,M,M,M,M,27.98,KDRA 251333Z AUTO 15010KT 10SM FEW009 BKN027 OVC039 02/01 A2955 RMK AO2 T00220006,M
BVU,2021-01-25 13:35,-114.8611,35.9475,671.00,42.80,35.60,75.50,160.00,12.00,0.00,29.64,M,10.00,M,BKN,OVC,M,M,3200.00,4400.00,M,M,M,M,M,M,M,M,M,35.75,KBVU 251335Z AUTO 16012KT 10SM BKN032 OVC044 06/02 A2964 RMK AO2,M
TMT,2021-01-25 13:35,-117.1971,39.4643,1749.34,18.90,18.00,96.21,0.00,0.00,0.01,29.54,M,1.75,M,M,M,M,M,M,M,M,M,-SN,M,M,M,M,M,M,18.90,KTMT 251335Z AUTO 00000KT 1 3/4SM -SN M07/M08 A2954 RMK AO2 P0001 T10731078,M
CXP,2021-01-25 13:35,-119.7326,39.1923,1431.00,28.40,26.60,92.86,0.00,0.00,0.00,29.55,M,10.00,M,FEW,BKN,OVC,M,4600.00,5500.00,6500.00,M,M,M,M,M,M,M,M,28.40,KCXP 251335Z AUTO 00000KT 10SM FEW046 BKN055 OVC065 M02/M03 A2955 RMK AO2,M
RTS,2021-01-25 13:35,-119.8764,39.6682,1539.00,24.80,19.40,79.62,350.00,13.00,0.00,29.56,M,9.00,21.00,OVC,M,M,M,2800.00,M,M,M,-UP,M,M,M,M,M,M,12.34,KRTS 251335Z AUTO 35013G21KT 9SM -UP OVC028 M04/M07 A2956 RMK AO2,M
BAM,2021-01-25 13:35,-116.8743,40.5990,1382.36,21.20,21.20,100.00,90.00,3.00,0.00,29.60,M,2.00,M,OVC,M,M,M,300.00,M,M,M,M,M,M,M,M,M,M,16.34,KBAM 251335Z AUTO 09003KT 2SM OVC003 M06/M06 A2960 RMK AO1,M
LOL,2021-01-25 13:35,-118.5701,40.0684,1192.43,30.90,30.00,96.41,20.00,5.00,0.04,29.56,M,0.50,M,VV ,M,M,M,800.00,M,M,M,SN FZFG,M,M,M,M,M,M,25.09,KLOL 251335Z AUTO 02005KT 1/2SM SN FZFG VV008 M01/M01 A2956 RMK AO2 P0004 T10061011,M
MEV,2021-01-25 13:35,-119.7500,38.9963,1441.42,23.00,21.20,92.69,0.00,0.00,0.00,29.55,M,10.00,M,FEW,FEW,M,M,5000.00,5500.00,M,M,M,M,M,M,M,M,M,23.00,KMEV 251335Z AUTO 00000KT 10SM FEW050 FEW055 M05/M06 A2955 RMK AO2,M
HTH,2021-01-25 13:35,-118.6315,38.5448,1282.89,30.20,30.20,100.00,0.00,0.00,0.00,29.54,M,10.00,M,FEW,BKN,OVC,M,4800.00,7000.00,7500.00,M,M,M,M,M,M,M,M,30.20,KHTH 251335Z AUTO 00000KT 10SM FEW048 BKN070 OVC075 M01/M01 A2954 RMK A01,M
LSV,2021-01-25 13:39,-115.0343,36.2362,570.00,44.60,35.60,70.48,160.00,17.00,0.00,29.60,1002.10,10.00,M,FEW,M,M,M,6000.00,M,M,M,-RA,M,M,M,M,M,M,36.58,KLSV 251339Z AUTO 16017KT 10SM -RA FEW060 07/02 A2960 RMK AO2 RAB14E24RAB39 SLP021 $,M
LSV,2021-01-25 13:45,-115.0343,36.2362,570.00,44.60,35.60,70.48,170.00,16.00,0.00,29.60,1002.10,10.00,M,FEW,SCT,M,M,4700.00,5500.00,M,M,M,M,M,M,M,M,M,36.84,KLSV 251345Z AUTO 17016KT 10SM FEW047 SCT055 07/02 A2960 RMK AO2 RAB14E24RAB39E45 SLP021 $,M
05U,2021-01-25 13:50,-116.0051,39.6042,1811.23,15.80,14.00,92.44,0.00,0.00,0.00,29.56,M,10.00,M,M,M,M,M,M,M,M,M,M,M,M,M,M,M,M,15.80,K05U 251350Z AUTO 00000KT 10SM M09/M10 A2956 RMK A01,M
INS,2021-01-25 13:52,-115.6733,36.5872,955.00,35.60,33.80,93.08,0.00,0.00,0.00,29.55,999.90,10.00,M,SCT,BKN,M,M,1900.00,2600.00,M,M,M,M,M,M,M,M,M,35.60,KINS 251352Z AUTO 00000KT 10SM SCT019 BKN026 02/01 A2955 RMK AO2 RAB06E12RAB15E50DZB50E52 SLP999 $,M
LOL,2021-01-25 13:53,-118.5701,40.0684,1192.43,30.90,28.90,92.18,30.00,10.00,0.05,29.56,1002.20,0.75,M,VV ,M,M,M,800.00,M,M,M,-SN BR,M,M,M,M,M,M,21.59,KLOL 251353Z AUTO 03010KT 3/4SM -SN BR VV008 M01/M02 A2956 RMK AO2 SLP022 P0005 T10061017,M
ELY,2021-01-25 13:53,-114.8453,39.2950,1909.00,21.00,16.00,80.69,220.00,7.00,0.00,29.54,1001.70,10.00,M,SCT,BKN,M,M,4800.00,11000.00,M,M,M,M,M,M,M,M,M,11.37,KELY 251353Z AUTO 22007KT 10SM SCT048 BKN110 M06/M09 A2954 RMK AO2 SLP017 T10611089,M
DRA,2021-01-25 13:53,-116.0278,36.6206,1009.00,36.00,33.00,89.09,110.00,8.00,0.00,29.54,999.40,10.00,M,FEW,OVC,M,M,900.00,2500.00,M,M,M,M,M,M,M,M,M,29.04,KDRA 251353Z AUTO 11008KT 10SM FEW009 OVC025 02/01 A2954 RMK AO2 SLP994 T00220006,M
VGT,2021-01-25 13:53,-115.1933,36.2111,667.00,44.00,32.00,62.21,170.00,13.00,0.00,29.56,1002.60,10.00,M,SCT,OVC,M,M,5500.00,7500.00,M,M,M,M,M,M,M,M,M,37.07,KVGT 251353Z 17013KT 10SM SCT055 OVC075 07/00 A2956 RMK AO2 SLP026 T00670000,M
P68,2021-01-25 13:53,-116.0056,39.6014,1993.00,17.10,14.00,87.38,0.00,0.00,0.00,29.54,1003.60,M,M,M,M,M,M,M,M,M,M,M,M,M,M,M,M,M,17.10,KP68 251353Z AUTO 00000KT M08/M10 A2954 RMK AO1 SLP036 T10831100,M
HTH,2021-01-25 13:55,-118.6315,38.5448,1282.89,30.20,30.20,100.00,0.00,0.00,0.00,29.54,M,9.00,M,BKN,BKN,OVC,M,200.00,4700.00,6500.00,M,M,M,M,M,M,M,M,30.20,KHTH 251355Z AUTO 00000KT 9SM BKN002 BKN047 OVC065 M01/M01 A2954 RMK A01,M
CXP,2021-01-25 13:55,-119.7326,39.1923,1431.00,24.80,23.00,92.74,350.00,5.00,0.00,29.56,M,10.00,M,FEW,OVC,M,M,3800.00,6000.00,M,M,M,M,M,M,M,M,M,17.84,KCXP 251355Z AUTO 35005KT 10SM FEW038 OVC060 M04/M05 A2956 RMK AO2,M
RTS,2021-01-25 13:55,-119.8764,39.6682,1539.00,24.80,19.40,79.62,320.00,10.00,0.00,29.57,M,7.00,M,OVC,M,M,M,3200.00,M,M,M,-UP,M,M,M,M,M,M,13.94,KRTS 251355Z AUTO 32010KT 7SM -UP OVC032 M04/M07 A2957 RMK AO2,M
RNO,2021-01-25 13:55,-119.7711,39.4839,1341.00,28.90,21.00,71.96,340.00,12.00,T,29.57,1001.70,10.00,18.00,FEW,OVC,M,M,900.00,3400.00,M,M,M,M,M,M,M,M,M,18.06,KRNO 251355Z 34012G18KT 10SM FEW009 OVC034 M02/M06 A2957 RMK AO2 UPB1258E03SNE1258B03E12 SLP017 P0000 T10171061 $,M
MEV,2021-01-25 13:55,-119.7500,38.9963,1441.42,23.00,21.20,92.69,120.00,5.00,0.00,29.54,M,10.00,M,CLR,M,M,M,M,M,M,M,M,M,M,M,M,M,M,15.71,KMEV 251355Z AUTO 12005KT 10SM CLR M05/M06 A2954 RMK AO2,M
BAM,2021-01-25 13:55,-116.8743,40.5990,1382.36,21.20,21.20,100.00,0.00,0.00,0.00,29.61,M,0.75,M,OVC,M,M,M,300.00,M,M,M,M,M,M,M,M,M,M,21.20,KBAM 251355Z AUTO 00000KT 3/4SM OVC003 M06/M06 A2961 RMK AO1,M
BVU,2021-01-25 13:55,-114.8611,35.9475,671.00,42.80,35.60,75.50,150.00,11.00,0.00,29.64,M,10.00,M,BKN,OVC,M,M,3400.00,4300.00,M,M,M,M,M,M,M,M,M,36.11,KBVU 251355Z AUTO 15011KT 10SM BKN034 OVC043 06/02 A2964 RMK AO2,M
TMT,2021-01-25 13:55,-117.1971,39.4643,1749.34,18.50,17.60,96.20,0.00,0.00,0.01,29.54,M,2.00,M,M,M,M,M,M,M,M,M,-SN,M,M,M,M,M,M,18.50,KTMT 251355Z AUTO 00000KT 2SM -SN M07/M08 A2954 RMK AO2 P0001 T10751080,M
NFL,2021-01-25 13:56,-118.7010,39.4166,1199.00,30.00,27.00,88.44,0.00,0.00,0.00,29.55,999.30,10.00,M,OVC,M,M,M,1900.00,M,M,M,M,M,M,M,M,M,M,30.00,KNFL 251356Z AUTO 00000KT 10SM OVC019 M01/M03 A2955 RMK AO2 SLP993 T10111028,M
LAS,2021-01-25 13:56,-115.1634,36.0719,663.00,41.00,34.00,75.94,150.00,5.00,0.00,29.61,1002.60,10.00,M,FEW,SCT,OVC,M,4000.00,6000.00,7500.00,M,M,M,M,M,M,M,M,37.08,KLAS 251356Z 15005KT 10SM FEW040 SCT060 OVC075 05/01 A2961 RMK AO2 SLP026 VIRGA DSNT W T00500011,M
TPH,2021-01-25 13:56,-117.0904,38.0505,1654.00,24.10,23.00,95.49,110.00,3.00,T,29.52,1001.10,5.00,M,OVC,M,M,M,3900.00,M,M,M,-SN BR,M,M,M,M,M,M,19.66,KTPH 251356Z AUTO 11003KT 5SM -SN BR OVC039 M04/M05 A2952 RMK AO2 SLP011 P0000 T10441050,M
EKO,2021-01-25 13:56,-115.7860,40.8242,1367.00,19.00,15.10,84.49,50.00,6.00,0.00,29.60,1006.10,10.00,M,BKN,M,M,M,500.00,M,M,M,M,M,M,M,M,M,M,9.87,KEKO 251356Z AUTO 05006KT 10SM BKN005 M07/M09 A2960 RMK AO2 SLP061 T10721094,M
WMC,2021-01-25 13:56,-117.8072,40.9019,1315.00,24.10,18.00,77.21,50.00,12.00,0.00,29.59,1003.80,10.00,M,SCT,OVC,M,M,2100.00,4300.00,M,M,M,M,M,M,M,M,M,11.95,KWMC 251356Z AUTO 05012KT 10SM SCT021 OVC043 M04/M08 A2959 RMK AO2 SLP038 T10441078 $,M
HND,2021-01-25 13:56,-115.1344,35.9729,742.79,40.00,35.00,82.80,230.00,5.00,T,29.62,1005.10,10.00,M,BKN,OVC,M,M,4600.00,7500.00,M,M,M,M,M,M,M,M,M,35.78,KHND 251356Z 23005KT 10SM BKN046 OVC075 04/02 A2962 RMK AO2 RAE34 SLP051 P0000 T00440017,M
LSV,2021-01-25 13:58,-115.0343,36.2362,570.00,44.60,35.60,70.48,150.00,6.00,0.00,29.64,M,10.00,M,BKN,M,M,M,2000.00,M,M,M,M,M,M,M,M,M,M,40.71,KLSV 251358Z COR AUTO 15006KT 10SM BKN020 07/02 A2964 RMK AO2 RAB14E24RAB39E45 SLPNO P//// $ COR 1423,M
INS,2021-01-25 13:58,-115.6733,36.5872,955.00,36.00,33.80,91.62,0.00,0.00,T,29.55,999.90,10.00,M,SCT,BKN,M,M,2100.00,2800.00,M,M,M,M,M,M,M,M,M,36.00,KINS 251358Z AUTO 00000KT 10SM SCT021 BKN028 02/01 A2955 RMK AO2 RAB06E12RAB15E50DZB50E52 SLP999 P0000 T00220010 $,M
05U,2021-01-25 14:10,-116.0051,39.6042,1811.23,15.80,12.20,85.40,0.00,0.00,0.00,29.56,M,10.00,M,M,M,M,M,M,M,M,M,M,M,M,M,M,M,M,15.80,K05U 251410Z AUTO 00000KT 10SM M09/M11 A2956 RMK A01,M
EKO,2021-01-25 14:13,-115.7860,40.8242,1367.00,18.00,14.00,84.05,60.00,4.00,0.00,29.60,M,10.00,M,SCT,BKN,M,M,500.00,12000.00,M,M,M,M,M,M,M,M,M,11.07,KEKO 251413Z AUTO 06004KT 10SM SCT005 BKN120 M08/M10 A2960 RMK AO2 T10781100,M
LOL,2021-01-25 14:15,-118.5701,40.0684,1192.43,30.00,28.90,95.61,40.00,10.00,0.01,29.56,M,0.75,M,VV ,M,M,M,1000.00,M,M,M,-SN BR,M,M,M,M,M,M,20.46,KLOL 251415Z AUTO 04010KT 3/4SM -SN BR VV010 M01/M02 A2956 RMK AO2 P0001 T10111017,M
RTS,2021-01-25 14:15,-119.8764,39.6682,1539.00,24.80,19.40,79.62,310.00,10.00,0.00,29.58,M,8.00,16.00,OVC,M,M,M,3300.00,M,M,M,-UP,M,M,M,M,M,M,13.94,KRTS 251415Z AUTO 31010G16KT 8SM -UP OVC033 M04/M07 A2958 RMK AO2,M
HTH,2021-01-25 14:15,-118.6315,38.5448,1282.89,30.20,30.20,100.00,0.00,0.00,0.00,29.54,M,10.00,M,BKN,OVC,M,M,200.00,10000.00,M,M,M,M,M,M,M,M,M,30.20,KHTH 251415Z AUTO 00000KT 10SM BKN002 OVC100 M01/M01 A2954 RMK A01,M
TMT,2021-01-25 14:15,-117.1971,39.4643,1749.34,18.50,17.60,96.20,0.00,0.00,0.00,29.54,M,2.00,M,M,M,M,M,M,M,M,M,-SN,M,M,M,M,M,M,18.50,KTMT 251415Z AUTO 00000KT 2SM -SN M07/M08 A2954 RMK AO2 T10751080,M
CXP,2021-01-25 14:15,-119.7326,39.1923,1431.00,26.60,24.80,92.80,0.00,0.00,0.00,29.57,M,10.00,M,FEW,OVC,M,M,2700.00,6000.00,M,M,M,M,M,M,M,M,M,26.60,KCXP 251415Z AUTO 00000KT 10SM FEW027 OVC060 M03/M04 A2957 RMK AO2,M
BVU,2021-01-25 14:15,-114.8611,35.9475,671.00,42.80,35.60,75.50,150.00,12.00,0.00,29.63,M,10.00,21.00,OVC,M,M,M,3500.00,M,M,M,M,M,M,M,M,M,M,35.75,KBVU 251415Z AUTO 15012G21KT 10SM OVC035 06/02 A2963 RMK AO2,M
MEV,2021-01-25 14:15,-119.7500,38.9963,1441.42,21.20,19.40,92.63,M,5.00,0.00,29.55,M,10.00,M,CLR,M,M,M,M,M,M,M,M,M,M,M,M,M,M,13.57,KMEV 251415Z AUTO VRB05KT 10SM CLR M06/M07 A2955 RMK AO2,M
BAM,2021-01-25 14:15,-116.8743,40.5990,1382.36,21.20,21.20,100.00,0.00,0.00,0.00,29.61,M,0.75,M,OVC,M,M,M,300.00,M,M,M,M,M,M,M,M,M,M,21.20,KBAM 251415Z AUTO 00000KT 3/4SM OVC003 M06/M06 A2961 RMK AO1,M
INS,2021-01-25 14:23,-115.6733,36.5872,955.00,35.60,35.60,100.00,0.00,0.00,0.00,29.55,999.90,10.00,M,BKN,BKN,M,M,1500.00,3000.00,M,M,M,M,M,M,M,M,M,35.60,KINS 251423Z AUTO 00000KT 10SM BKN015 BKN030 02/02 A2955 RMK AO2 BKN015 V SCT SLP999 $,M
INS,2021-01-25 14:28,-115.6733,36.5872,955.00,35.60,35.60,100.00,0.00,0.00,0.00,29.55,999.90,10.00,M,BKN,BKN,BKN,M,1500.00,2500.00,3200.00,M,-DZ,M,M,M,M,M,M,35.60,KINS 251428Z AUTO 00000KT 10SM -DZ BKN015 BKN025 BKN032 02/02 A2955 RMK AO2 DZB28 BKN015 V SCT SLP999 $,M
05U,2021-01-25 14:30,-116.0051,39.6042,1811.23,15.80,12.20,85.40,0.00,0.00,0.00,29.57,M,10.00,M,M,M,M,M,M,M,M,M,M,M,M,M,M,M,M,15.80,K05U 251430Z AUTO 00000KT 10SM M09/M11 A2957 RMK A01,M
TMT,2021-01-25 14:35,-117.1971,39.4643,1749.34,18.90,17.80,95.39,0.00,0.00,0.00,29.54,M,4.00,M,M,M,M,M,M,M,M,M,-SN,M,M,M,M,M,M,18.90,KTMT 251435Z AUTO 00000KT 4SM -SN M07/M08 A2954 RMK AO2 T10731079,M
HTH,2021-01-25 14:35,-118.6315,38.5448,1282.89,30.20,30.20,100.00,0.00,0.00,0.00,29.55,M,10.00,M,FEW,OVC,M,M,7500.00,10000.00,M,M,M,M,M,M,M,M,M,30.20,KHTH 251435Z AUTO 00000KT 10SM FEW075 OVC100 M01/M01 A2955 RMK A01,M
RTS,2021-01-25 14:35,-119.8764,39.6682,1539.00,24.80,19.40,79.62,310.00,12.00,0.00,29.59,M,6.00,18.00,FEW,SCT,OVC,M,1900.00,2600.00,3300.00,M,-UP,M,M,M,M,M,M,12.84,KRTS 251435Z AUTO 31012G18KT 6SM -UP FEW019 SCT026 OVC033 M04/M07 A2959 RMK AO2,M
MEV,2021-01-25 14:35,-119.7500,38.9963,1441.42,21.20,19.40,92.63,110.00,5.00,0.00,29.56,M,10.00,M,SCT,M,M,M,7000.00,M,M,M,M,M,M,M,M,M,M,13.57,KMEV 251435Z AUTO 11005KT 10SM SCT070 M06/M07 A2956 RMK AO2,M
BAM,2021-01-25 14:35,-116.8743,40.5990,1382.36,19.40,19.40,100.00,50.00,3.00,0.00,29.61,M,5.00,M,BKN,BKN,OVC,M,300.00,4200.00,7000.00,M,M,M,M,M,M,M,M,14.28,KBAM 251435Z AUTO 05003KT 5SM BKN003 BKN042 OVC070 M07/M07 A2961 RMK AO1,M
BVU,2021-01-25 14:35,-114.8611,35.9475,671.00,42.80,35.60,75.50,160.00,15.00,0.00,29.64,M,10.00,M,BKN,OVC,M,M,3100.00,3700.00,M,M,M,M,M,M,M,M,M,34.78,KBVU 251435Z AUTO 16015KT 10SM BKN031 OVC037 06/02 A2964 RMK AO2,M
CXP,2021-01-25 14:35,-119.7326,39.1923,1431.00,28.40,24.80,86.18,M,3.00,0.00,29.57,M,10.00,M,FEW,BKN,OVC,M,2400.00,3000.00,6000.00,M,M,M,M,M,M,M,M,24.57,KCXP 251435Z AUTO VRB03KT 10SM FEW024 BKN030 OVC060 M02/M04 A2957 RMK AO2,M
NFL,2021-01-25 14:40,-118.7010,39.4166,1199.00,30.90,27.00,85.26,160.00,5.00,T,29.55,M,10.00,M,BKN,BKN,OVC,M,1800.00,2800.00,6000.00,M,-SN,M,M,M,M,M,M,25.09,KNFL 251440Z 16005KT 10SM -SN BKN018 BKN028 OVC060 M01/M03 A2955 RMK AO2 SNB40 P0000 T10061028,M
LOL,2021-01-25 14:46,-118.5701,40.0684,1192.43,28.90,27.00,92.49,40.00,12.00,0.02,29.57,M,1.00,M,VV ,M,M,M,1100.00,M,M,M,-SN BR,M,M,M,M,M,M,18.06,KLOL 251446Z AUTO 04012KT 1SM -SN BR VV011 M02/M03 A2957 RMK AO2 P0002 T10171028,M
INS,2021-01-25 14:49,-115.6733,36.5872,955.00,35.60,35.60,100.00,310.00,4.00,0.00,29.55,999.90,10.00,M,BKN,M,M,M,1300.00,M,M,M,-RA,M,M,M,M,M,M,31.62,KINS 251449Z AUTO 31004KT 10SM -RA BKN013 02/02 A2955 RMK AO2 DZB28E36RAB36 SLP999 $,M
05U,2021-01-25 14:50,-116.0051,39.6042,1811.23,15.80,12.20,85.40,0.00,0.00,0.00,29.57,M,10.00,M,M,M,M,M,M,M,M,M,M,M,M,M,M,M,M,15.80,K05U 251450Z AUTO 00000KT 10SM M09/M11 A2957 RMK A01,M
ELY,2021-01-25 14:53,-114.8453,39.2950,1909.00,19.00,17.10,92.15,40.00,5.00,0.00,29.55,1002.60,10.00,M,SCT,BKN,OVC,M,3800.00,5000.00,7000.00,M,M,M,M,M,M,M,M,10.96,KELY 251453Z AUTO 04005KT 10SM SCT038 BKN050 OVC070 M07/M08 A2955 RMK AO2 SLP026 60000 T10721083 55001,M
P68,2021-01-25 14:53,-116.0056,39.6014,1993.00,16.00,12.90,87.32,0.00,0.00,0.00,29.54,1004.70,M,M,M,M,M,M,M,M,M,M,M,M,M,M,M,M,M,16.00,KP68 251453Z AUTO 00000KT M09/M11 A2954 RMK AO1 SLP047 T10891106 55000,M
VGT,2021-01-25 14:53,-115.1933,36.2111,667.00,44.00,32.00,62.21,150.00,7.00,0.00,29.57,1003.20,10.00,M,FEW,BKN,OVC,M,2700.00,3800.00,8000.00,M,M,M,M,M,M,M,M,39.53,KVGT 251453Z 15007KT 10SM FEW027 BKN038 OVC080 07/00 A2957 RMK AO2 SLP032 T00670000 55007,M
DRA,2021-01-25 14:53,-116.0278,36.6206,1009.00,37.00,33.00,85.64,120.00,7.00,0.00,29.55,999.60,10.00,M,BKN,OVC,M,M,2500.00,3300.00,M,M,M,M,M,M,M,M,M,30.87,KDRA 251453Z AUTO 12007KT 10SM BKN025 OVC033 03/01 A2955 RMK AO2 SLP996 T00280006 55007,M
LOL,2021-01-25 14:53,-118.5701,40.0684,1192.43,28.90,27.00,92.49,40.00,12.00,0.02,29.57,1002.70,1.50,M,OVC,M,M,M,1300.00,M,M,M,-SN BR,M,M,M,M,M,M,18.06,KLOL 251453Z AUTO 04012KT 1 1/2SM -SN BR OVC013 M02/M03 A2957 RMK AO2 SLP027 P0002 60011 T10171028 53004,M
RTS,2021-01-25 14:55,-119.8764,39.6682,1539.00,23.00,19.40,85.85,320.00,11.00,0.01,29.60,M,4.00,M,OVC,M,M,M,2300.00,M,M,M,-UP,M,M,M,M,M,M,11.09,KRTS 251455Z AUTO 32011KT 4SM -UP OVC023 M05/M07 A2960 RMK AO2 P0001,M
TMT,2021-01-25 14:55,-117.1971,39.4643,1749.34,18.50,17.40,95.38,0.00,0.00,0.00,29.55,M,5.00,M,M,M,M,M,M,M,M,M,-SN,M,M,M,M,M,M,18.50,KTMT 251455Z AUTO 00000KT 5SM -SN M07/M08 A2955 RMK AO2 60002 T10751081,M
HTH,2021-01-25 14:55,-118.6315,38.5448,1282.89,30.20,30.20,100.00,0.00,0.00,0.00,29.55,M,10.00,M,OVC,M,M,M,10000.00,M,M,M,M,M,M,M,M,M,M,30.20,KHTH 251455Z AUTO 00000KT 10SM OVC100 M01/M01 A2955 RMK A01,M
BVU,2021-01-25 14:55,-114.8611,35.9475,671.00,42.80,35.60,75.50,170.00,10.00,0.00,29.65,M,10.00,17.00,BKN,OVC,M,M,2700.00,3300.00,M,M,M,M,M,M,M,M,M,36.51,KBVU 251455Z AUTO 17010G17KT 10SM BKN027 OVC033 06/02 A2965 RMK AO2,M
RNO,2021-01-25 14:55,-119.7711,39.4839,1341.00,28.00,21.90,77.57,310.00,11.00,T,29.59,1002.60,2.50,M,BKN,OVC,M,M,3000.00,3700.00,M,M,-SN,M,M,M,M,M,M,17.41,KRNO 251455Z 31011KT 2 1/2SM -SN BKN030 OVC037 M02/M06 A2959 RMK AO2 SNB39 SLP026 P0000 60001 T10221056 53013 $,M
MEV,2021-01-25 14:55,-119.7500,38.9963,1441.42,21.20,17.60,85.74,80.00,5.00,0.00,29.56,M,10.00,M,SCT,SCT,M,M,4500.00,7000.00,M,M,M,M,M,M,M,M,M,13.57,KMEV 251455Z AUTO 08005KT 10SM SCT045 SCT070 M06/M08 A2956 RMK AO2,M
CXP,2021-01-25 14:55,-119.7326,39.1923,1431.00,28.40,24.80,86.18,190.00,5.00,0.00,29.58,M,10.00,M,BKN,OVC,M,M,2800.00,4100.00,M,M,M,M,M,M,M,M,M,22.12,KCXP 251455Z AUTO 19005KT 10SM BKN028 OVC041 M02/M04 A2958 RMK AO2,M
BAM,2021-01-25 14:55,-116.8743,40.5990,1382.36,19.40,19.40,100.00,30.00,5.00,0.00,29.61,M,10.00,M,SCT,BKN,OVC,M,300.00,6000.00,7000.00,M,M,M,M,M,M,M,M,11.43,KBAM 251455Z AUTO 03005KT 10SM SCT003 BKN060 OVC070 M07/M07 A2961 RMK AO1,M
NFL,2021-01-25 14:56,-118.7010,39.4166,1199.00,30.00,27.00,88.44,170.00,6.00,T,29.56,999.60,5.00,M,BKN,BKN,OVC,M,1800.00,2800.00,6000.00,M,-SN BR,M,M,M,M,M,M,23.12,KNFL 251456Z 17006KT 5SM -SN BR BKN018 BKN028 OVC060 M01/M03 A2956 RMK AO2 SNB40 SLP996 IRLSR// P0000 60000 T10111028 53004,M
HND,2021-01-25 14:56,-115.1344,35.9729,742.79,40.00,34.00,79.25,160.00,17.00,0.00,29.62,1005.00,10.00,21.00,FEW,OVC,M,M,4700.00,6000.00,M,M,M,M,M,M,M,M,M,30.42,KHND 251456Z 16017G21KT 10SM FEW047 OVC060 04/01 A2962 RMK AO2 SLP050 60000 T00440011 56011,M
WMC,2021-01-25 14:56,-117.8072,40.9019,1315.00,25.00,19.00,77.62,50.00,11.00,0.00,29.59,1004.10,10.00,M,OVC,M,M,M,5000.00,M,M,M,M,M,M,M,M,M,M,13.62,KWMC 251456Z AUTO 05011KT 10SM OVC050 M04/M07 A2959 RMK AO2 SLP041 T10391072 53004 $,M
TPH,2021-01-25 14:56,-117.0904,38.0505,1654.00,21.90,21.90,100.00,350.00,3.00,T,29.52,1001.50,5.00,M,BKN,OVC,M,M,1800.00,3600.00,M,M,-SN BR,M,M,M,M,M,M,17.14,KTPH 251456Z AUTO 35003KT 5SM -SN BR BKN018 OVC036 M06/M06 A2952 RMK AO2 SNE04B48 SLP015 P0000 60003 T10561056 58003,M
EKO,2021-01-25 14:56,-115.7860,40.8242,1367.00,16.00,10.90,79.92,40.00,4.00,0.00,29.60,1006.60,10.00,M,CLR,M,M,M,M,M,M,M,M,M,M,M,M,M,M,8.74,KEKO 251456Z AUTO 04004KT 10SM CLR M09/M12 A2960 RMK AO2 SLP066 T10891117 53002,M
LAS,2021-01-25 14:56,-115.1634,36.0719,663.00,42.00,34.00,72.78,180.00,9.00,0.00,29.60,1002.30,10.00,17.00,FEW,SCT,OVC,M,3000.00,5000.00,7500.00,M,M,M,M,M,M,M,M,36.07,KLAS 251456Z 18009G17KT 10SM FEW030 SCT050 OVC075 06/01 A2960 RMK AO2 SLP023 T00560011 56011,M
INS,2021-01-25 14:58,-115.6733,36.5872,955.00,36.00,35.00,95.73,300.00,4.00,T,29.54,999.50,10.00,M,BKN,BKN,M,M,1300.00,2100.00,M,M,-RA,M,M,M,M,M,M,32.09,KINS 251458Z AUTO 30004KT 10SM -RA BKN013 BKN021 02/02 A2954 RMK AO2 DZB28E36RAB36 SLP995 P0000 60000 T00220016 56008 $,M
LSV,2021-01-25 14:58,-115.0343,36.2362,570.00,44.00,35.40,71.27,120.00,12.00,0.00,29.64,1003.90,10.00,M,BKN,OVC,M,M,2000.00,4000.00,M,M,M,M,M,M,M,M,M,37.40,KLSV 251458Z 12012KT 10SM BKN020 OVC040 07/02 A2964 RMK AO2A SLP039 T00670019 $,M
LOL,2021-01-25 15:02,-118.5701,40.0684,1192.43,28.90,27.00,92.49,40.00,12.00,T,29.57,M,2.50,M,OVC,M,M,M,1700.00,M,M,M,-SN BR,M,M,M,M,M,M,18.06,KLOL 251502Z AUTO 04012KT 2 1/2SM -SN BR OVC017 M02/M03 A2957 RMK AO2 P0000 T10171028,M
INS,2021-01-25 15:04,-115.6733,36.5872,955.00,35.60,35.60,100.00,310.00,5.00,0.00,29.54,999.50,10.00,M,BKN,M,M,M,1300.00,M,M,M,M,M,M,M,M,M,M,30.67,KINS 251504Z AUTO 31005KT 10SM BKN013 02/02 A2954 RMK AO2 RAE04 SLP995 $,M
RNO,2021-01-25 15:08,-119.7711,39.4839,1341.00,27.00,21.90,80.83,330.00,11.00,T,29.60,M,2.00,M,OVC,M,M,M,2500.00,M,M,M,-SN,M,M,M,M,M,M,16.15,KRNO 251508Z 33011KT 2SM -SN OVC025 M03/M06 A2960 RMK AO2 P0000 T10281056 $,M
05U,2021-01-25 15:10,-116.0051,39.6042,1811.23,15.80,12.20,85.40,0.00,0.00,0.00,29.57,M,10.00,M,M,M,M,M,M,M,M,M,M,M,M,M,M,M,M,15.80,K05U 251510Z AUTO 00000KT 10SM M09/M11 A2957 RMK A01,M
TMT,2021-01-25 15:15,-117.1971,39.4643,1749.34,18.00,16.70,94.54,0.00,0.00,0.00,29.54,M,3.00,M,M,M,M,M,M,M,M,M,-SN,M,M,M,M,M,M,18.00,KTMT 251515Z AUTO 00000KT 3SM -SN M08/M08 A2954 RMK AO2 T10781085,M
MEV,2021-01-25 15:15,-119.7500,38.9963,1441.42,23.00,21.20,92.69,30.00,4.00,0.00,29.57,M,10.00,M,SCT,SCT,OVC,M,4500.00,5000.00,7000.00,M,M,M,M,M,M,M,M,16.91,KMEV 251515Z AUTO 03004KT 10SM SCT045 SCT050 OVC070 M05/M06 A2957 RMK AO2,M
RTS,2021-01-25 15:15,-119.8764,39.6682,1539.00,23.00,19.40,85.85,330.00,9.00,0.00,29.60,M,1.75,14.00,OVC,M,M,M,2200.00,M,M,M,-SN,M,M,M,M,M,M,12.32,KRTS 251515Z AUTO 33009G14KT 1 3/4SM -SN OVC022 M05/M07 A2960 RMK AO2,M
CXP,2021-01-25 15:15,-119.7326,39.1923,1431.00,28.40,21.20,74.08,0.00,0.00,0.00,29.58,M,9.00,M,BKN,OVC,M,M,3100.00,4100.00,M,M,-UP,M,M,M,M,M,M,28.40,KCXP 251515Z AUTO 00000KT 9SM -UP BKN031 OVC041 M02/M06 A2958 RMK AO2,M
BVU,2021-01-25 15:15,-114.8611,35.9475,671.00,42.80,35.60,75.50,180.00,11.00,0.00,29.64,M,10.00,M,BKN,BKN,OVC,M,2600.00,3200.00,4300.00,M,M,M,M,M,M,M,M,36.11,KBVU 251515Z AUTO 18011KT 10SM BKN026 BKN032 OVC043 06/02 A2964 RMK AO2,M
HTH,2021-01-25 15:15,-118.6315,38.5448,1282.89,30.20,30.20,100.00,0.00,0.00,0.00,29.55,M,6.00,M,SCT,OVC,M,M,700.00,10000.00,M,M,BR,M,M,M,M,M,M,30.20,KHTH 251515Z AUTO 00000KT 6SM BR SCT007 OVC100 M01/M01 A2955 RMK A01,M
BAM,2021-01-25 15:15,-116.8743,40.5990,1382.36,19.40,19.40,100.00,50.00,4.00,0.00,29.61,M,10.00,M,SCT,OVC,M,M,300.00,6000.00,M,M,M,M,M,M,M,M,M,12.71,KBAM 251515Z AUTO 05004KT 10SM SCT003 OVC060 M07/M07 A2961 RMK AO1,M
INS,2021-01-25 15:16,-115.6733,36.5872,955.00,35.60,35.60,100.00,300.00,3.00,0.00,29.54,999.50,10.00,M,BKN,M,M,M,1300.00,M,M,M,-RA,M,M,M,M,M,M,32.80,KINS 251516Z AUTO 30003KT 10SM -RA BKN013 02/02 A2954 RMK AO2 RAE04RAB16 SLP995 $,M
RNO,2021-01-25 15:20,-119.7711,39.4839,1341.00,27.00,23.00,84.66,330.00,9.00,T,29.60,M,1.50,M,OVC,M,M,M,2000.00,M,M,M,-SN BR,M,M,M,M,M,M,17.30,KRNO 251520Z 33009KT 1 1/2SM -SN BR OVC020 M03/M05 A2960 RMK AO2 P0000 T10281050 $,M
LOL,2021-01-25 15:29,-118.5701,40.0684,1192.43,28.90,26.10,89.12,30.00,14.00,T,29.57,M,2.50,M,SCT,OVC,M,M,3000.00,4000.00,M,M,-SN BR,M,M,M,M,M,M,17.17,KLOL 251529Z AUTO 03014KT 2 1/2SM -SN BR SCT030 OVC040 M02/M03 A2957 RMK AO2 P0000 T10171033,M
05U,2021-01-25 15:30,-116.0051,39.6042,1811.23,15.80,14.00,92.44,0.00,0.00,0.00,29.56,M,10.00,M,M,M,M,M,M,M,M,M,M,M,M,M,M,M,M,15.80,K05U 251530Z AUTO 00000KT 10SM M09/M10 A2956 RMK A01,M
EKO,2021-01-25 15:34,-115.7860,40.8242,1367.00,17.10,12.90,83.25,60.00,4.00,0.00,29.60,M,10.00,M,SCT,M,M,M,700.00,M,M,M,M,M,M,M,M,M,M,10.02,KEKO 251534Z AUTO 06004KT 10SM SCT007 M08/M11 A2960 RMK AO2 T10831106,M
HTH,2021-01-25 15:35,-118.6315,38.5448,1282.89,30.20,30.20,100.00,250.00,3.00,0.00,29.56,M,8.00,M,SCT,BKN,OVC,M,600.00,900.00,10000.00,M,M,M,M,M,M,M,M,26.63,KHTH 251535Z AUTO 25003KT 8SM SCT006 BKN009 OVC100 M01/M01 A2956 RMK A01,M
RTS,2021-01-25 15:35,-119.8764,39.6682,1539.00,23.00,19.40,85.85,330.00,9.00,0.00,29.61,M,1.25,15.00,FEW,BKN,M,M,1100.00,2200.00,M,M,-SN,M,M,M,M,M,M,12.32,KRTS 251535Z AUTO 33009G15KT 1 1/4SM -SN FEW011 BKN022 M05/M07 A2961 RMK AO2,M
MEV,2021-01-25 15:35,-119.7500,38.9963,1441.42,24.80,23.00,92.74,10.00,5.00,0.00,29.58,M,10.00,M,SCT,OVC,M,M,5000.00,7000.00,M,M,M,M,M,M,M,M,M,17.84,KMEV 251535Z AUTO 01005KT 10SM SCT050 OVC070 M04/M05 A2958 RMK AO2,M
BAM,2021-01-25 15:35,-116.8743,40.5990,1382.36,19.40,19.40,100.00,30.00,3.00,0.00,29.61,M,1.75,M,OVC,M,M,M,300.00,M,M,M,M,M,M,M,M,M,M,14.28,KBAM 251535Z AUTO 03003KT 1 3/4SM OVC003 M07/M07 A2961 RMK AO1,M
CXP,2021-01-25 15:35,-119.7326,39.1923,1431.00,28.40,24.80,86.18,0.00,0.00,0.00,29.59,M,10.00,M,OVC,M,M,M,3200.00,M,M,M,M,M,M,M,M,M,M,28.40,KCXP 251535Z AUTO 00000KT 10SM OVC032 M02/M04 A2959 RMK AO2,M
TMT,2021-01-25 15:35,-117.1971,39.4643,1749.34,17.10,15.60,93.70,0.00,0.00,0.00,29.54,M,5.00,M,M,M,M,M,M,M,M,M,-SN,M,M,M,M,M,M,17.10,KTMT 251535Z AUTO 00000KT 5SM -SN M08/M09 A2954 RMK AO2 T10831091,M
BVU,2021-01-25 15:35,-114.8611,35.9475,671.00,42.80,35.60,75.50,170.00,7.00,0.00,29.64,M,10.00,13.00,SCT,OVC,M,M,2800.00,4800.00,M,M,M,M,M,M,M,M,M,37.94,KBVU 251535Z AUTO 17007G13KT 10SM SCT028 OVC048 06/02 A2964 RMK AO2,M
LOL,2021-01-25 15:37,-118.5701,40.0684,1192.43,28.90,26.10,89.12,40.00,13.00,T,29.57,M,3.00,M,SCT,OVC,M,M,2900.00,4700.00,M,M,-SN BR,M,M,M,M,M,M,17.60,KLOL 251537Z AUTO 04013KT 3SM -SN BR SCT029 OVC047 M02/M03 A2957 RMK AO2 P0000 T10171033,M
INS,2021-01-25 15:39,-115.6733,36.5872,955.00,35.60,35.60,100.00,300.00,5.00,0.00,29.54,999.70,10.00,M,BKN,M,M,M,1300.00,M,M,M,M,M,M,M,M,M,M,30.67,KINS 251539Z AUTO 30005KT 10SM BKN013 02/02 A2954 RMK AO2 RAE04RAB16E37DZB37E39 SLP997 $,M
LSV,2021-01-25 15:40,-115.0343,36.2362,570.00,44.60,37.40,75.68,160.00,13.00,0.00,29.60,1002.20,10.00,M,OVC,M,M,M,8500.00,M,M,M,M,M,M,M,M,M,M,37.71,KLSV 251540Z AUTO 16013KT 10SM OVC085 07/03 A2960 RMK AO2 SLP022 $,M
WMC,2021-01-25 15:43,-117.8072,40.9019,1315.00,25.00,18.00,74.36,50.00,10.00,0.00,29.60,M,10.00,M,BKN,OVC,M,M,2900.00,5000.00,M,M,M,M,M,M,M,M,M,14.19,KWMC 251543Z AUTO 05010KT 10SM BKN029 OVC050 M04/M08 A2960 RMK AO2 T10391078 $,M
EKO,2021-01-25 15:43,-115.7860,40.8242,1367.00,17.10,12.90,83.25,70.00,3.00,0.00,29.60,M,10.00,M,BKN,M,M,M,700.00,M,M,M,M,M,M,M,M,M,M,11.66,KEKO 251543Z AUTO 07003KT 10SM BKN007 M08/M11 A2960 RMK AO2 T10831106,M
RNO,2021-01-25 15:44,-119.7711,39.4839,1341.00,27.00,23.00,84.66,330.00,8.00,0.01,29.62,M,1.00,M,OVC,M,M,M,1600.00,M,M,M,-SN BR,M,M,M,M,M,M,17.95,KRNO 251544Z 33008KT 1SM R16R/4500V5500FT -SN BR OVC016 M03/M05 A2962 RMK AO2 TWR VIS 1 1/2 P0001 T10281050 $,M
INS,2021-01-25 15:46,-115.6733,36.5872,955.00,35.60,35.60,100.00,300.00,6.00,0.00,29.54,1000.00,10.00,M,OVC,M,M,M,1300.00,M,M,M,-RA,M,M,M,M,M,M,29.87,KINS 251546Z AUTO 30006KT 10SM -RA OVC013 02/02 A2954 RMK AO2 RAE04RAB16E37DZB37E39RAB46 OVC V BKN SLP000 $,M
05U,2021-01-25 15:50,-116.0051,39.6042,1811.23,17.60,14.00,85.51,0.00,0.00,0.00,29.56,M,9.00,M,M,M,M,M,M,M,M,M,M,M,M,M,M,M,M,17.60,K05U 251550Z AUTO 00000KT 9SM M08/M10 A2956 RMK A01,M
WMC,2021-01-25 15:51,-117.8072,40.9019,1315.00,24.80,19.40,79.62,60.00,8.00,0.00,29.60,M,10.00,M,BKN,OVC,M,M,3100.00,5000.00,M,M,M,M,M,M,M,M,M,15.24,KWMC 251551Z AUTO 06008KT 10SM BKN031 OVC050 M04/M07 A2960 RMK AO2 $,M
EKO,2021-01-25 15:52,-115.7860,40.8242,1367.00,17.60,14.00,85.51,0.00,0.00,0.00,29.60,M,10.00,M,SCT,M,M,M,700.00,M,M,M,M,M,M,M,M,M,M,17.60,KEKO 251552Z AUTO 00000KT 10SM SCT007 M08/M10 A2960 RMK AO2,M
VGT,2021-01-25 15:53,-115.1933,36.2111,667.00,44.00,33.00,65.02,100.00,4.00,0.00,29.56,1002.90,10.00,M,BKN,BKN,OVC,M,2300.00,3000.00,4200.00,M,M,M,M,M,M,M,M,41.55,KVGT 251553Z 10004KT 10SM BKN023 BKN030 OVC042 07/01 A2956 RMK AO2 SLP029 T00670006,M
DRA,2021-01-25 15:53,-116.0278,36.6206,1009.00,36.00,33.00,89.09,M,4.00,0.00,29.54,999.40,10.00,M,BKN,BKN,OVC,M,2500.00,3000.00,4000.00,M,M,M,M,M,M,M,M,32.09,KDRA 251553Z AUTO VRB04KT 10SM BKN025 BKN030 OVC040 02/01 A2954 RMK AO2 SLP994 T00220006 $,M
TPH,2021-01-25 15:53,-117.0904,38.0505,1654.00,23.00,23.00,100.00,350.00,4.00,T,29.51,M,2.50,M,OVC,M,M,M,2000.00,M,M,M,-SN BR,M,M,M,M,M,M,16.91,KTPH 251553Z AUTO 35004KT 2 1/2SM -SN BR OVC020 M05/M05 A2951 RMK AO2 P0000,M
LOL,2021-01-25 15:53,-118.5701,40.0684,1192.43,28.90,26.10,89.12,40.00,15.00,T,29.57,1002.90,3.00,M,FEW,OVC,M,M,3300.00,4700.00,M,M,-SN BR,M,M,M,M,M,M,16.76,KLOL 251553Z AUTO 04015KT 3SM -SN BR FEW033 OVC047 M02/M03 A2957 RMK AO2 SLP029 P0000 T10171033,M
ELY,2021-01-25 15:53,-114.8453,39.2950,1909.00,19.00,16.00,87.87,350.00,6.00,0.00,29.54,1003.50,7.00,M,FEW,OVC,M,M,3000.00,3900.00,M,M,M,M,M,M,M,M,M,9.87,KELY 251553Z AUTO 35006KT 7SM FEW030 OVC039 M07/M09 A2954 RMK AO2 SLP035 T10721089,M
P68,2021-01-25 15:53,-116.0056,39.6014,1993.00,18.00,15.10,88.20,0.00,0.00,0.00,29.54,1003.90,M,M,M,M,M,M,M,M,M,M,M,M,M,M,M,M,M,18.00,KP68 251553Z AUTO 00000KT M08/M09 A2954 RMK AO1 SLP039 T10781094,M
CXP,2021-01-25 15:55,-119.7326,39.1923,1431.00,28.40,24.80,86.18,0.00,0.00,0.00,29.59,M,9.00,M,FEW,FEW,OVC,M,2300.00,2800.00,3400.00,M,-UP,M,M,M,M,M,M,28.40,KCXP 251555Z AUTO 00000KT 9SM -UP FEW023 FEW028 OVC034 M02/M04 A2959 RMK AO2,M
TMT,2021-01-25 15:55,-117.1971,39.4643,1749.34,18.00,16.70,94.54,0.00,0.00,0.00,29.55,M,3.00,M,M,M,M,M,M,M,M,M,-SN,M,M,M,M,M,M,18.00,KTMT 251555Z AUTO 00000KT 3SM -SN M08/M08 A2955 RMK AO2 T10781085,M
RTS,2021-01-25 15:55,-119.8764,39.6682,1539.00,23.00,19.40,85.85,330.00,11.00,0.00,29.61,M,2.00,M,CLR,M,M,M,M,M,M,M,-SN,M,M,M,M,M,M,11.09,KRTS 251555Z AUTO 33011KT 2SM -SN CLR M05/M07 A2961 RMK AO2,M
RNO,2021-01-25 15:55,-119.7711,39.4839,1341.00,26.10,23.00,87.87,320.00,5.00,0.01,29.61,1003.80,1.00,M,OVC,M,M,M,1600.00,M,M,M,-SN BR,M,M,M,M,M,M,19.39,KRNO 251555Z 32005KT 1SM R16R/4500V6000FT -SN BR OVC016 M03/M05 A2961 RMK AO2 SLP038 P0001 T10331050 $,M
BAM,2021-01-25 15:55,-116.8743,40.5990,1382.36,21.20,21.20,100.00,0.00,0.00,0.00,29.61,M,1.00,M,OVC,M,M,M,300.00,M,M,M,M,M,M,M,M,M,M,21.20,KBAM 251555Z AUTO 00000KT 1SM OVC003 M06/M06 A2961 RMK AO1,M
MEV,2021-01-25 15:55,-119.7500,38.9963,1441.42,26.60,23.00,86.07,10.00,10.00,0.00,29.58,M,8.00,M,FEW,SCT,OVC,M,4300.00,5000.00,7000.00,M,UP,M,M,M,M,M,M,16.20,KMEV 251555Z AUTO 01010KT 8SM UP FEW043 SCT050 OVC070 M03/M05 A2958 RMK AO2,M
HTH,2021-01-25 15:55,-118.6315,38.5448,1282.89,30.20,30.20,100.00,0.00,0.00,0.00,29.56,M,8.00,M,FEW,BKN,OVC,M,400.00,1200.00,1800.00,M,M,M,M,M,M,M,M,30.20,KHTH 251555Z AUTO 00000KT 8SM FEW004 BKN012 OVC018 M01/M01 A2956 RMK A01,M
BVU,2021-01-25 15:55,-114.8611,35.9475,671.00,42.80,35.60,75.50,160.00,8.00,0.00,29.64,M,10.00,M,FEW,BKN,OVC,M,1700.00,5000.00,6000.00,M,M,M,M,M,M,M,M,37.42,KBVU 251555Z AUTO 16008KT 10SM FEW017 BKN050 OVC060 06/02 A2964 RMK AO2,M
TPH,2021-01-25 15:56,-117.0904,38.0505,1654.00,24.10,23.00,95.49,340.00,4.00,T,29.51,1001.10,2.50,M,BKN,OVC,M,M,2000.00,3100.00,M,M,-SN BR,M,M,M,M,M,M,18.19,KTPH 251556Z AUTO 34004KT 2 1/2SM -SN BR BKN020 OVC031 M04/M05 A2951 RMK AO2 SLP011 P0000 T10441050,M
WMC,2021-01-25 15:56,-117.8072,40.9019,1315.00,25.00,19.00,77.62,50.00,9.00,0.00,29.60,1004.50,10.00,M,OVC,M,M,M,3100.00,M,M,M,M,M,M,M,M,M,M,14.81,KWMC 251556Z AUTO 05009KT 10SM OVC031 M04/M07 A2960 RMK AO2 SLP045 T10391072 $,M
LAS,2021-01-25 15:56,-115.1634,36.0719,663.00,43.00,34.00,70.30,180.00,6.00,0.00,29.59,1002.00,10.00,M,FEW,SCT,OVC,M,3000.00,5000.00,7500.00,M,M,M,M,M,M,M,M,38.78,KLAS 251556Z 18006KT 10SM FEW030 SCT050 OVC075 06/01 A2959 RMK AO2 SLP020 T00610011,M
NFL,2021-01-25 15:56,-118.7010,39.4166,1199.00,30.00,28.90,95.61,140.00,3.00,T,29.56,999.70,5.00,M,BKN,OVC,M,M,1700.00,2600.00,M,M,-SN BR,M,M,M,M,M,M,26.40,KNFL 251556Z 14003KT 5SM -SN BR BKN017 OVC026 M01/M02 A2956 RMK AO2 SLP997 IRSLR// P0000 T10111017,M
EKO,2021-01-25 15:56,-115.7860,40.8242,1367.00,17.10,14.00,87.38,0.00,0.00,0.00,29.60,1006.30,10.00,M,SCT,M,M,M,700.00,M,M,M,M,M,M,M,M,M,M,17.10,KEKO 251556Z AUTO 00000KT 10SM SCT007 M08/M10 A2960 RMK AO2 SLP063 T10831100,M
HND,2021-01-25 15:56,-115.1344,35.9729,742.79,42.00,34.00,72.78,170.00,13.00,T,29.61,1004.60,10.00,M,OVC,M,M,M,6500.00,M,M,M,M,M,M,M,M,M,M,34.51,KHND 251556Z 17013KT 10SM OVC065 06/01 A2961 RMK AO2 RAB36E48 SLP046 P0000 T00560011,M
INS,2021-01-25 15:58,-115.6733,36.5872,955.00,36.00,35.80,99.21,290.00,5.00,T,29.54,1000.00,10.00,M,OVC,M,M,M,1100.00,M,M,M,-RA,M,M,M,M,M,M,31.15,KINS 251558Z AUTO 29005KT 10SM -RA OVC011 02/02 A2954 RMK AO2 RAE04RAB16E37DZB37E39RAB46 SLP000 P0000 T00220021 $,M
LSV,2021-01-25 15:58,-115.0343,36.2362,570.00,44.60,36.50,73.04,170.00,14.00,0.00,29.60,1002.20,10.00,M,BKN,M,M,M,9000.00,M,M,M,M,M,M,M,M,M,M,37.40,KLSV 251558Z AUTO 17014KT 10SM BKN090 07/03 A2960 RMK AO2 SLP022 T00700025 $,M
ELY,2021-01-25 16:01,-114.8453,39.2950,1909.00,19.00,16.00,87.87,350.00,5.00,T,29.54,M,1.75,M,SCT,BKN,OVC,M,2400.00,3200.00,3900.00,M,-SN BR,M,M,M,M,M,M,10.96,KELY 251601Z AUTO 35005KT 1 3/4SM -SN BR SCT024 BKN032 OVC039 M07/M09 A2954 RMK AO2 SNB1554 P0000 T10721089,M
ELY,2021-01-25 16:08,-114.8453,39.2950,1909.00,19.00,16.00,87.87,350.00,6.00,T,29.54,M,1.50,M,BKN,BKN,OVC,M,2400.00,3200.00,4000.00,M,-SN BR,M,M,M,M,M,M,9.87,KELY 251608Z AUTO 35006KT 1 1/2SM -SN BR BKN024 BKN032 OVC040 M07/M09 A2954 RMK AO2 SNB1554 P0000 T10721089,M
05U,2021-01-25 16:10,-116.0051,39.6042,1811.23,17.60,14.00,85.51,0.00,0.00,0.00,29.56,M,10.00,M,M,M,M,M,M,M,M,M,M,M,M,M,M,M,M,17.60,K05U 251610Z AUTO 00000KT 10SM M08/M10 A2956 RMK A01,M
TMT,2021-01-25 16:10,-117.1971,39.4643,1749.34,18.70,17.80,96.21,0.00,0.00,0.00,29.55,M,2.00,M,M,M,M,M,M,M,M,M,-SN,M,M,M,M,M,M,18.70,KTMT 251610Z AUTO 00000KT 2SM -SN M07/M08 A2955 RMK AO2 T10741079,M
TPH,2021-01-25 16:11,-117.0904,38.0505,1654.00,24.10,24.10,100.00,350.00,5.00,T,29.52,M,3.00,M,BKN,OVC,M,M,2000.00,3700.00,M,M,-SN BR,M,M,M,M,M,M,17.01,KTPH 251611Z AUTO 35005KT 3SM -SN BR BKN020 OVC037 M04/M04 A2952 RMK AO2 P0000 T10441044,M
INS,2021-01-25 16:13,-115.6733,36.5872,955.00,35.60,35.60,100.00,300.00,4.00,0.00,29.54,1000.00,10.00,M,SCT,OVC,M,M,1100.00,2000.00,M,M,-RA,M,M,M,M,M,M,31.62,KINS 251613Z AUTO 30004KT 10SM -RA SCT011 OVC020 02/02 A2954 RMK AO2 SLP000 $,M
BVU,2021-01-25 16:15,-114.8611,35.9475,671.00,42.80,37.40,81.07,190.00,8.00,0.00,29.64,M,10.00,M,BKN,BKN,OVC,M,1600.00,2800.00,5500.00,M,M,M,M,M,M,M,M,37.42,KBVU 251615Z AUTO 19008KT 10SM BKN016 BKN028 OVC055 06/03 A2964 RMK AO2,M
CXP,2021-01-25 16:15,-119.7326,39.1923,1431.00,28.40,23.00,79.92,170.00,5.00,0.00,29.59,M,10.00,M,FEW,OVC,M,M,2300.00,3700.00,M,M,M,M,M,M,M,M,M,22.12,KCXP 251615Z AUTO 17005KT 10SM FEW023 OVC037 M02/M05 A2959 RMK AO2,M
MEV,2021-01-25 16:15,-119.7500,38.9963,1441.42,26.60,23.00,86.07,360.00,15.00,0.00,29.58,M,1.00,21.00,BKN,OVC,M,M,300.00,4300.00,M,M,-SN BR,M,M,M,M,M,M,13.78,KMEV 251615Z AUTO 36015G21KT 1SM -SN BR BKN003 OVC043 M03/M05 A2958 RMK AO2,M
RTS,2021-01-25 16:15,-119.8764,39.6682,1539.00,24.80,17.60,73.70,330.00,8.00,0.00,29.62,M,6.00,14.00,FEW,FEW,M,M,2800.00,3400.00,M,M,-UP,M,M,M,M,M,M,15.24,KRTS 251615Z AUTO 33008G14KT 6SM -UP FEW028 FEW034 M04/M08 A2962 RMK AO2,M
BAM,2021-01-25 16:15,-116.8743,40.5990,1382.36,21.20,21.20,100.00,30.00,4.00,0.00,29.61,M,10.00,M,BKN,M,M,M,6000.00,M,M,M,M,M,M,M,M,M,M,14.81,KBAM 251615Z AUTO 03004KT 10SM BKN060 M06/M06 A2961 RMK AO1,M
HTH,2021-01-25 16:15,-118.6315,38.5448,1282.89,30.20,32.00,M,330.00,3.00,0.00,29.57,M,10.00,M,BKN,BKN,OVC,M,1000.00,1300.00,2400.00,M,M,M,M,M,M,M,M,M,KHTH 251615Z AUTO 33003KT 10SM BKN010 BKN013 OVC024 M01/M00 A2957 RMK A01,M
DRA,2021-01-25 16:15,-116.0278,36.6206,1009.00,36.00,33.00,89.09,120.00,7.00,0.00,29.54,M,10.00,M,FEW,SCT,OVC,M,2200.00,2900.00,4200.00,M,M,M,M,M,M,M,M,29.65,KDRA 251615Z AUTO 12007KT 10SM FEW022 SCT029 OVC042 02/01 A2954 RMK AO2 T00220006 $,M
ELY,2021-01-25 16:16,-114.8453,39.2950,1909.00,19.40,15.80,85.63,20.00,5.00,0.00,29.54,M,3.00,M,BKN,OVC,M,M,2800.00,4000.00,M,M,-SN BR,M,M,M,M,M,M,11.43,KELY 251616Z AUTO 02005KT 3SM -SN BR BKN028 OVC040 M07/M09 A2954,M
ELY,2021-01-25 16:20,-114.8453,39.2950,1909.00,19.00,16.00,87.87,360.00,5.00,T,29.54,M,3.00,M,FEW,BKN,OVC,M,500.00,3000.00,3900.00,M,-SN BR,M,M,M,M,M,M,10.96,KELY 251620Z AUTO 36005KT 3SM -SN BR FEW005 BKN030 OVC039 M07/M09 A2954 RMK AO2 SNB1554 P0000 T10721089,M
EKO,2021-01-25 16:23,-115.7860,40.8242,1367.00,17.10,12.90,83.25,220.00,4.00,0.00,29.60,M,8.00,M,BKN,M,M,M,400.00,M,M,M,M,M,M,M,M,M,M,10.02,KEKO 251623Z AUTO 22004KT 8SM BKN004 M08/M11 A2960 RMK AO2 T10831106,M
TPH,2021-01-25 16:27,-117.0904,38.0505,1654.00,25.00,25.00,100.00,340.00,5.00,T,29.51,M,2.50,M,SCT,OVC,M,M,2200.00,3300.00,M,M,-SN BR,M,M,M,M,M,M,18.08,KTPH 251627Z AUTO 34005KT 2 1/2SM -SN BR SCT022 OVC033 M04/M04 A2951 RMK AO2 P0000 T10391039,M
INS,2021-01-25 16:28,-115.6733,36.5872,955.00,35.60,35.60,100.00,310.00,4.00,0.00,29.54,1000.00,10.00,M,SCT,BKN,M,M,1300.00,1900.00,M,M,-RA,M,M,M,M,M,M,31.62,KINS 251628Z AUTO 31004KT 10SM -RA SCT013 BKN019 02/02 A2954 RMK AO2 SLP000 $,M
LOL,2021-01-25 16:28,-118.5701,40.0684,1192.43,28.90,26.10,89.12,40.00,13.00,T,29.58,M,2.00,M,BKN,OVC,M,M,4100.00,5500.00,M,M,-SN BR,M,M,M,M,M,M,17.60,KLOL 251628Z AUTO 04013KT 2SM -SN BR BKN041 OVC055 M02/M03 A2958 RMK AO2 P0000 T10171033,M
05U,2021-01-25 16:30,-116.0051,39.6042,1811.23,19.40,15.80,85.63,0.00,0.00,0.00,29.56,M,10.00,M,M,M,M,M,M,M,M,M,M,M,M,M,M,M,M,19.40,K05U 251630Z AUTO 00000KT 10SM M07/M09 A2956 RMK A01,M
INS,2021-01-25 16:33,-115.6733,36.5872,955.00,35.60,35.60,100.00,300.00,4.00,0.00,29.54,1000.00,10.00,M,SCT,BKN,BKN,M,1300.00,1900.00,5000.00,M,M,M,M,M,M,M,M,31.62,KINS 251633Z AUTO 30004KT 10SM SCT013 BKN019 BKN050 02/02 A2954 RMK AO2 RAE30DZB30E33 SLP000 $,M
BVU,2021-01-25 16:35,-114.8611,35.9475,671.00,42.80,37.40,81.07,180.00,8.00,0.00,29.63,M,10.00,M,BKN,BKN,OVC,M,1500.00,2000.00,5500.00,M,M,M,M,M,M,M,M,37.42,KBVU 251635Z AUTO 18008KT 10SM BKN015 BKN020 OVC055 06/03 A2963 RMK AO2,M
TPH,2021-01-25 16:35,-117.0904,38.0505,1654.00,26.10,25.00,95.53,340.00,5.00,T,29.51,M,1.75,M,BKN,OVC,M,M,2600.00,3300.00,M,M,-SN BR,M,M,M,M,M,M,19.39,KTPH 251635Z AUTO 34005KT 1 3/4SM -SN BR BKN026 OVC033 M03/M04 A2951 RMK AO2 P0000 T10331039,M
CXP,2021-01-25 16:35,-119.7326,39.1923,1431.00,28.40,21.20,74.08,360.00,10.00,0.00,29.60,M,10.00,18.00,FEW,OVC,M,M,2300.00,4200.00,M,M,M,M,M,M,M,M,M,18.45,KCXP 251635Z AUTO 36010G18KT 10SM FEW023 OVC042 M02/M06 A2960 RMK AO2,M
HTH,2021-01-25 16:35,-118.6315,38.5448,1282.89,32.00,32.00,100.00,0.00,0.00,0.00,29.57,M,9.00,M,SCT,BKN,OVC,M,700.00,1100.00,3900.00,M,M,M,M,M,M,M,M,32.00,KHTH 251635Z AUTO 00000KT 9SM SCT007 BKN011 OVC039 M00/M00 A2957 RMK A01,M
BAM,2021-01-25 16:35,-116.8743,40.5990,1382.36,23.00,23.00,100.00,20.00,5.00,0.00,29.61,M,10.00,M,SCT,SCT,M,M,6000.00,11000.00,M,M,M,M,M,M,M,M,M,15.71,KBAM 251635Z AUTO 02005KT 10SM SCT060 SCT110 M05/M05 A2961 RMK AO1,M
MEV,2021-01-25 16:35,-119.7500,38.9963,1441.42,26.60,23.00,86.07,350.00,12.00,0.00,29.59,M,4.00,18.00,FEW,FEW,SCT,M,300.00,700.00,3500.00,M,-SN BR,M,M,M,M,M,M,15.13,KMEV 251635Z AUTO 35012G18KT 4SM -SN BR FEW003 FEW007 SCT035 M03/M05 A2959 RMK AO2,M
TMT,2021-01-25 16:35,-117.1971,39.4643,1749.34,19.40,18.50,96.22,0.00,0.00,0.01,29.55,M,0.75,M,M,M,M,M,M,M,M,M,-SN,M,M,M,M,M,M,19.40,KTMT 251635Z AUTO 00000KT 3/4SM -SN M07/M07 A2955 RMK AO2 P0001 T10701075,M
RTS,2021-01-25 16:35,-119.8764,39.6682,1539.00,24.80,17.60,73.70,320.00,9.00,0.00,29.62,M,9.00,15.00,FEW,M,M,M,3000.00,M,M,M,-UP,M,M,M,M,M,M,14.56,KRTS 251635Z AUTO 32009G15KT 9SM -UP FEW030 M04/M08 A2962 RMK AO2,M
ELY,2021-01-25 16:41,-114.8453,39.2950,1909.00,19.00,15.10,84.49,360.00,6.00,T,29.54,M,5.00,M,FEW,BKN,OVC,M,700.00,2600.00,4300.00,M,-SN BR,M,M,M,M,M,M,9.87,KELY 251641Z AUTO 36006KT 5SM -SN BR FEW007 BKN026 OVC043 M07/M09 A2954 RMK AO2 SNB1554 P0000 T10721094,M
LOL,2021-01-25 16:42,-118.5701,40.0684,1192.43,28.90,26.10,89.12,40.00,14.00,T,29.58,M,1.25,M,FEW,OVC,M,M,2800.00,3700.00,M,M,-SN BR,M,M,M,M,M,M,17.17,KLOL 251642Z AUTO 04014KT 1 1/4SM -SN BR FEW028 OVC037 M02/M03 A2958 RMK AO2 P0000 T10171033,M
INS,2021-01-25 16:48,-115.6733,36.5872,955.00,35.60,35.60,100.00,290.00,3.00,0.00,29.53,999.60,10.00,M,BKN,BKN,M,M,1200.00,5500.00,M,M,M,M,M,M,M,M,M,32.80,KINS 251648Z AUTO 29003KT 10SM BKN012 BKN055 02/02 A2953 RMK AO2 RAE30DZB30E33 SLP996 $,M
05U,2021-01-25 16:50,-116.0051,39.6042,1811.23,19.40,15.80,85.63,0.00,0.00,0.00,29.56,M,10.00,M,M,M,M,M,M,M,M,M,M,M,M,M,M,M,M,19.40,K05U 251650Z AUTO 00000KT 10SM M07/M09 A2956 RMK A01,M
LOL,2021-01-25 16:51,-118.5701,40.0684,1192.43,28.40,26.60,92.86,40.00,13.00,T,29.58,M,1.25,M,BKN,OVC,M,M,2300.00,3600.00,M,M,-SN BR,M,M,M,M,M,M,16.96,KLOL 251651Z AUTO 04013KT 1 1/4SM -SN BR BKN023 OVC036 M02/M03 A2958 RMK AO2 P0000,M
P68,2021-01-25 16:53,-116.0056,39.6014,1993.00,19.90,16.00,84.55,0.00,0.00,0.00,29.54,1003.30,M,M,M,M,M,M,M,M,M,M,M,M,M,M,M,M,M,19.90,KP68 251653Z AUTO 00000KT M07/M09 A2954 RMK AO1 SLP033 T10671089,M
LOL,2021-01-25 16:53,-118.5701,40.0684,1192.43,28.90,26.10,89.12,40.00,15.00,T,29.58,1003.30,1.25,M,BKN,OVC,M,M,2100.00,3800.00,M,M,-SN BR,M,M,M,M,M,M,16.76,KLOL 251653Z AUTO 04015KT 1 1/4SM -SN BR BKN021 OVC038 M02/M03 A2958 RMK AO2 SLP033 P0000 T10171033,M
DRA,2021-01-25 16:53,-116.0278,36.6206,1009.00,38.00,33.00,82.66,120.00,6.00,0.00,29.54,999.00,10.00,M,OVC,M,M,M,4200.00,M,M,M,M,M,M,M,M,M,M,32.64,KDRA 251653Z AUTO 12006KT 10SM OVC042 03/01 A2954 RMK AO2 SLP990 T00330006,M
VGT,2021-01-25 16:53,-115.1933,36.2111,667.00,45.00,33.00,62.83,120.00,4.00,T,29.55,1002.50,10.00,M,BKN,OVC,M,M,2600.00,4500.00,M,M,M,M,M,M,M,M,M,42.60,KVGT 251653Z 12004KT 10SM BKN026 OVC045 07/01 A2955 RMK AO2 RAB1554E03 SLP025 P0000 T00720006,M
ELY,2021-01-25 16:53,-114.8453,39.2950,1909.00,19.00,16.00,87.87,10.00,7.00,T,29.54,1002.70,10.00,M,SCT,BKN,BKN,M,700.00,2400.00,3800.00,M,M,M,M,M,M,M,M,8.93,KELY 251653Z AUTO 01007KT 10SM SCT007 BKN024 BKN038 M07/M09 A2954 RMK AO2 SNB1554E45 SLP027 P0000 T10721089,M
RTS,2021-01-25 16:55,-119.8764,39.6682,1539.00,24.80,17.60,73.70,330.00,10.00,0.00,29.62,M,10.00,M,SCT,BKN,M,M,3000.00,3600.00,M,M,M,M,M,M,M,M,M,13.94,KRTS 251655Z AUTO 33010KT 10SM SCT030 BKN036 M04/M08 A2962 RMK AO2,M
RNO,2021-01-25 16:55,-119.7711,39.4839,1341.00,27.00,23.00,84.66,320.00,8.00,0.01,29.62,1004.10,1.00,M,OVC,M,M,M,2000.00,M,M,M,-SN BR,M,M,M,M,M,M,17.95,KRNO 251655Z 32008KT 1SM R16R/P6000FT -SN BR OVC020 M03/M05 A2962 RMK AO2 TWR VIS 2 SLP041 P0001 T10281050 $,M
CXP,2021-01-25 16:55,-119.7326,39.1923,1431.00,30.20,21.20,68.83,M,4.00,0.00,29.61,M,10.00,11.00,OVC,M,M,M,4800.00,M,M,M,M,M,M,M,M,M,M,25.32,KCXP 251655Z AUTO VRB04G11KT 10SM OVC048 M01/M06 A2961 RMK AO2,M
HTH,2021-01-25 16:55,-118.6315,38.5448,1282.89,32.00,32.00,100.00,340.00,5.00,0.00,29.57,M,10.00,M,BKN,OVC,M,M,900.00,1300.00,M,M,M,M,M,M,M,M,M,26.40,KHTH 251655Z AUTO 34005KT 10SM BKN009 OVC013 M00/M00 A2957 RMK A01,M
MEV,2021-01-25 16:55,-119.7500,38.9963,1441.42,26.60,23.00,86.07,360.00,11.00,0.00,29.60,M,3.00,18.00,FEW,M,M,M,3400.00,M,M,M,-SN HZ,M,M,M,M,M,M,15.64,KMEV 251655Z AUTO 36011G18KT 3SM -SN HZ FEW034 M03/M05 A2960 RMK AO2,M
BAM,2021-01-25 16:55,-116.8743,40.5990,1382.36,23.00,23.00,100.00,10.00,5.00,0.00,29.61,M,10.00,M,SCT,M,M,M,4600.00,M,M,M,M,M,M,M,M,M,M,15.71,KBAM 251655Z AUTO 01005KT 10SM SCT046 M05/M05 A2961 RMK AO1,M
TMT,2021-01-25 16:55,-117.1971,39.4643,1749.34,19.40,18.50,96.22,0.00,0.00,0.01,29.55,M,0.75,M,M,M,M,M,M,M,M,M,-SN,M,M,M,M,M,M,19.40,KTMT 251655Z AUTO 00000KT 3/4SM -SN M07/M07 A2955 RMK AO2 P0001 T10701075,M
BVU,2021-01-25 16:55,-114.8611,35.9475,671.00,42.80,35.60,75.50,180.00,13.00,0.00,29.62,M,10.00,M,SCT,BKN,BKN,M,1500.00,1900.00,5500.00,M,M,M,M,M,M,M,M,35.40,KBVU 251655Z AUTO 18013KT 10SM SCT015 BKN019 BKN055 06/02 A2962 RMK AO2,M
NFL,2021-01-25 16:56,-118.7010,39.4166,1199.00,30.90,28.00,88.84,140.00,8.00,T,29.57,1000.00,4.00,M,BKN,OVC,M,M,1400.00,2000.00,M,M,BR,M,M,M,M,M,M,22.76,KNFL 251656Z 14008KT 4SM BR BKN014 OVC020 M01/M02 A2957 RMK AO2 SNE20 SLP000 IRSLR// P0000 T10061022,M
WMC,2021-01-25 16:56,-117.8072,40.9019,1315.00,26.10,19.90,77.06,50.00,9.00,0.00,29.60,1004.50,10.00,M,BKN,OVC,M,M,2900.00,3400.00,M,M,M,M,M,M,M,M,M,16.18,KWMC 251656Z AUTO 05009KT 10SM BKN029 OVC034 M03/M07 A2960 RMK AO2 SLP045 T10331067 $,M
EKO,2021-01-25 16:56,-115.7860,40.8242,1367.00,19.00,15.10,84.49,260.00,4.00,0.00,29.60,1006.20,10.00,M,OVC,M,M,M,400.00,M,M,M,M,M,M,M,M,M,M,12.24,KEKO 251656Z AUTO 26004KT 10SM OVC004 M07/M09 A2960 RMK AO2 SLP062 T10721094,M
TPH,2021-01-25 16:56,-117.0904,38.0505,1654.00,27.00,26.10,96.35,340.00,5.00,T,29.51,1000.90,1.50,M,BKN,OVC,M,M,2500.00,3000.00,M,M,-SN BR,M,M,M,M,M,M,20.46,KTPH 251656Z AUTO 34005KT 1 1/2SM -SN BR BKN025 OVC030 M03/M03 A2951 RMK AO2 SLP009 P0000 T10281033,M
HND,2021-01-25 16:56,-115.1344,35.9729,742.79,43.00,34.00,70.30,160.00,17.00,0.00,29.59,1004.10,10.00,M,FEW,OVC,M,M,1300.00,7500.00,M,M,M,M,M,M,M,M,M,34.49,KHND 251656Z 16017KT 10SM FEW013 OVC075 06/01 A2959 RMK AO2 SLP041 T00610011,M
LAS,2021-01-25 16:56,-115.1634,36.0719,663.00,44.00,34.00,67.41,180.00,7.00,0.00,29.58,1001.60,10.00,M,FEW,SCT,BKN,OVC,3000.00,5000.00,7500.00,13000.00,M,M,M,M,M,M,M,39.53,KLAS 251656Z 18007KT 10SM FEW030 SCT050 BKN075 OVC130 07/01 A2958 RMK AO2 SLP016 VIRGA DSNT SW-NW T00670011,M
INS,2021-01-25 16:58,-115.6733,36.5872,955.00,36.30,35.60,97.27,0.00,0.00,T,29.53,999.60,10.00,M,SCT,BKN,BKN,M,1000.00,1600.00,5500.00,M,M,M,M,M,M,M,M,36.30,KINS 251658Z AUTO 00000KT 10SM SCT010 BKN016 BKN055 02/02 A2953 RMK AO2 RAE30DZB30E33 SLP996 P0000 T00240020 $,M
LSV,2021-01-25 16:58,-115.0343,36.2362,570.00,45.00,36.30,71.10,150.00,10.00,0.00,29.59,1001.90,10.00,M,BKN,M,M,M,7500.00,M,M,M,M,M,M,M,M,M,M,39.40,KLSV 251658Z AUTO 15010KT 10SM BKN075 07/02 A2959 RMK AO2 SLP019 T00730024 $,M
RNO,2021-01-25 17:00,-119.7711,39.4839,1341.00,27.00,21.90,80.83,320.00,8.00,T,29.62,M,2.00,M,OVC,M,M,M,2500.00,M,M,M,-SN,M,M,M,M,M,M,17.95,KRNO 251700Z 32008KT 2SM -SN OVC025 M03/M06 A2962 RMK AO2 P0000 T10281056 $,M
WMC,2021-01-25 17:04,-117.8072,40.9019,1315.00,26.10,19.90,77.06,40.00,9.00,0.00,29.60,M,10.00,M,BKN,OVC,M,M,3100.00,4100.00,M,M,M,M,M,M,M,M,M,16.18,KWMC 251704Z AUTO 04009KT 10SM BKN031 OVC041 M03/M07 A2960 RMK AO2 T10331067 $,M
05U,2021-01-25 17:10,-116.0051,39.6042,1811.23,21.20,15.80,79.31,0.00,0.00,0.00,29.56,M,10.00,M,M,M,M,M,M,M,M,M,M,M,M,M,M,M,M,21.20,K05U 251710Z AUTO 00000KT 10SM M06/M09 A2956 RMK A01,M
ELY,2021-01-25 17:13,-114.8453,39.2950,1909.00,19.90,16.00,84.55,20.00,6.00,0.01,29.54,M,10.00,M,SCT,BKN,M,M,600.00,1400.00,M,M,M,M,M,M,M,M,M,10.96,KELY 251713Z AUTO 02006KT 10SM SCT006 BKN014 M07/M09 A2954 RMK AO2 P0001 T10671089,M
CXP,2021-01-25 17:15,-119.7326,39.1923,1431.00,30.20,21.20,68.83,M,4.00,0.00,29.62,M,10.00,M,SCT,OVC,M,M,4100.00,4900.00,M,M,M,M,M,M,M,M,M,25.32,KCXP 251715Z AUTO VRB04KT 10SM SCT041 OVC049 M01/M06 A2962 RMK AO2,M
TMT,2021-01-25 17:15,-117.1971,39.4643,1749.34,19.40,18.50,96.22,0.00,0.00,0.00,29.55,M,1.50,M,M,M,M,M,M,M,M,M,-SN,M,M,M,M,M,M,19.40,KTMT 251715Z AUTO 00000KT 1 1/2SM -SN M07/M07 A2955 RMK AO2 T10701075,M
HTH,2021-01-25 17:15,-118.6315,38.5448,1282.89,32.00,32.00,100.00,330.00,8.00,0.00,29.57,M,10.00,M,SCT,OVC,M,M,1200.00,1900.00,M,M,M,M,M,M,M,M,M,24.11,KHTH 251715Z AUTO 33008KT 10SM SCT012 OVC019 M00/00 A2957 RMK A01,M
BVU,2021-01-25 17:15,-114.8611,35.9475,671.00,42.80,37.40,81.07,180.00,9.00,0.00,29.62,M,10.00,15.00,SCT,BKN,OVC,M,1600.00,2400.00,6500.00,M,-UP,M,M,M,M,M,M,36.94,KBVU 251715Z AUTO 18009G15KT 10SM -UP SCT016 BKN024 OVC065 06/03 A2962 RMK AO2,M
BAM,2021-01-25 17:15,-116.8743,40.5990,1382.36,23.00,23.00,100.00,360.00,5.00,0.00,29.62,M,10.00,M,OVC,M,M,M,4400.00,M,M,M,M,M,M,M,M,M,M,15.71,KBAM 251715Z AUTO 36005KT 10SM OVC044 M05/M05 A2962 RMK AO1,M
MEV,2021-01-25 17:15,-119.7500,38.9963,1441.42,28.40,23.00,79.92,360.00,13.00,0.00,29.60,M,5.00,M,BKN,BKN,BKN,M,3300.00,4000.00,4600.00,M,-SN HZ,M,M,M,M,M,M,16.96,KMEV 251715Z AUTO 36013KT 5SM -SN HZ BKN033 BKN040 BKN046 M02/M05 A2960 RMK AO2,M
RTS,2021-01-25 17:15,-119.8764,39.6682,1539.00,24.80,17.60,73.70,350.00,8.00,0.00,29.63,M,10.00,M,FEW,BKN,BKN,M,2600.00,3300.00,3900.00,M,M,M,M,M,M,M,M,15.24,KRTS 251715Z AUTO 35008KT 10SM FEW026 BKN033 BKN039 M04/M08 A2963 RMK AO2,M
RNO,2021-01-25 17:16,-119.7711,39.4839,1341.00,27.00,21.90,80.83,330.00,8.00,T,29.63,M,3.00,M,BKN,OVC,M,M,2600.00,3800.00,M,M,-SN,M,M,M,M,M,M,17.95,KRNO 251716Z 33008KT 3SM -SN BKN026 OVC038 M03/M06 A2963 RMK AO2 P0000 T10281056 $,M
LSV,2021-01-25 17:20,-115.0343,36.2362,570.00,44.60,37.40,75.68,130.00,5.00,0.00,29.59,1001.90,10.00,M,SCT,BKN,BKN,M,2700.00,4800.00,7500.00,M,M,M,M,M,M,M,M,41.36,KLSV 251720Z AUTO 13005KT 10SM SCT027 BKN048 BKN075 07/03 A2959 RMK AO2 SLP019 $,M
EKO,2021-01-25 17:21,-115.7860,40.8242,1367.00,19.90,17.10,88.68,0.00,0.00,0.00,29.60,M,10.00,M,SCT,M,M,M,400.00,M,M,M,M,M,M,M,M,M,M,19.90,KEKO 251721Z AUTO 00000KT 10SM SCT004 M07/M08 A2960 RMK AO2 T10671083,M
LSV,2021-01-25 17:24,-115.0343,36.2362,570.00,44.60,37.40,75.68,120.00,8.00,0.00,29.59,1001.90,10.00,M,BKN,BKN,BKN,M,2700.00,4700.00,7000.00,M,M,M,M,M,M,M,M,39.63,KLSV 251724Z 12008KT 10SM BKN027 BKN047 BKN070 07/03 A2959 RMK AO2A CIG 027V075 BKN027 V SCT SLP019 $,M
DRA,2021-01-25 17:25,-116.0278,36.6206,1009.00,39.00,33.00,79.17,0.00,0.00,0.00,29.53,M,10.00,M,SCT,BKN,OVC,M,2100.00,2700.00,4500.00,M,M,M,M,M,M,M,M,39.00,KDRA 251725Z AUTO 00000KT 10SM SCT021 BKN027 OVC045 04/01 A2953 RMK AO2 T00390006 $,M
05U,2021-01-25 17:30,-116.0051,39.6042,1811.23,23.00,17.60,79.47,0.00,0.00,0.00,29.56,M,9.00,M,M,M,M,M,M,M,M,M,M,M,M,M,M,M,M,23.00,K05U 251730Z AUTO 00000KT 9SM M05/M08 A2956 RMK A01,M
ELY,2021-01-25 17:32,-114.8453,39.2950,1909.00,19.90,16.00,84.55,30.00,10.00,0.01,29.53,M,10.00,M,FEW,SCT,BKN,M,600.00,1200.00,7000.00,M,M,M,M,M,M,M,M,7.79,KELY 251732Z AUTO 03010KT 10SM FEW006 SCT012 BKN070 M07/M09 A2953 RMK AO2 P0001 T10671089,M
TPH,2021-01-25 17:33,-117.0904,38.0505,1654.00,28.00,26.10,92.46,360.00,5.00,T,29.51,M,2.50,M,BKN,BKN,OVC,M,2300.00,2900.00,3700.00,M,-SN BR,M,M,M,M,M,M,21.64,KTPH 251733Z AUTO 36005KT 2 1/2SM -SN BR BKN023 BKN029 OVC037 M02/M03 A2951 RMK AO2 P0000 T10221033,M
BVU,2021-01-25 17:35,-114.8611,35.9475,671.00,42.80,37.40,81.07,160.00,12.00,0.00,29.62,M,10.00,M,BKN,BKN,OVC,M,1600.00,2400.00,2900.00,M,M,M,M,M,M,M,M,35.75,KBVU 251735Z AUTO 16012KT 10SM BKN016 BKN024 OVC029 06/03 A2962 RMK AO2,M
BAM,2021-01-25 17:35,-116.8743,40.5990,1382.36,24.80,24.80,100.00,340.00,4.00,0.00,29.63,M,10.00,M,OVC,M,M,M,4400.00,M,M,M,M,M,M,M,M,M,M,19.01,KBAM 251735Z AUTO 34004KT 10SM OVC044 M04/M04 A2963 RMK AO1,M
RTS,2021-01-25 17:35,-119.8764,39.6682,1539.00,24.80,17.60,73.70,350.00,10.00,0.00,29.63,M,10.00,M,FEW,SCT,BKN,M,1900.00,2600.00,3300.00,M,M,M,M,M,M,M,M,13.94,KRTS 251735Z AUTO 35010KT 10SM FEW019 SCT026 BKN033 M04/M08 A2963 RMK AO2,M
TMT,2021-01-25 17:35,-117.1971,39.4643,1749.34,19.90,18.90,95.82,0.00,0.00,0.00,29.55,M,2.00,M,M,M,M,M,M,M,M,M,-SN,M,M,M,M,M,M,19.90,KTMT 251735Z AUTO 00000KT 2SM -SN M07/M07 A2955 RMK AO2 T10671073,M
MEV,2021-01-25 17:35,-119.7500,38.9963,1441.42,28.40,23.00,79.92,360.00,11.00,0.00,29.61,M,9.00,18.00,SCT,BKN,M,M,3600.00,4200.00,M,M,UP,M,M,M,M,M,M,17.92,KMEV 251735Z AUTO 36011G18KT 9SM UP SCT036 BKN042 M02/M05 A2961 RMK AO2,M
HTH,2021-01-25 17:35,-118.6315,38.5448,1282.89,32.00,32.00,100.00,350.00,11.00,0.00,29.58,M,10.00,M,SCT,M,M,M,2000.00,M,M,M,M,M,M,M,M,M,M,22.47,KHTH 251735Z AUTO 35011KT 10SM SCT020 00/00 A2958 RMK A01,M
CXP,2021-01-25 17:35,-119.7326,39.1923,1431.00,30.20,19.40,63.75,360.00,7.00,0.00,29.62,M,10.00,13.00,FEW,OVC,M,M,4100.00,5000.00,M,M,M,M,M,M,M,M,M,22.59,KCXP 251735Z AUTO 36007G13KT 10SM FEW041 OVC050 M01/M07 A2962 RMK AO2,M
INS,2021-01-25 17:43,-115.6733,36.5872,955.00,39.20,33.80,80.79,180.00,4.00,0.00,29.53,999.40,10.00,M,SCT,BKN,BKN,M,1700.00,2300.00,6500.00,M,M,M,M,M,M,M,M,35.83,KINS 251743Z AUTO 18004KT 10SM SCT017 BKN023 BKN065 04/01 A2953 RMK AO2 SLP994 $,M
HND,2021-01-25 17:44,-115.1344,35.9729,742.79,39.20,35.60,86.79,140.00,8.00,0.01,29.59,M,6.00,M,SCT,BKN,M,M,2000.00,2700.00,M,M,-RA BR,M,M,M,M,M,M,32.98,KHND 251744Z 14008KT 6SM -RA BR SCT020 BKN027 04/02 A2959 RMK AO2 RAB27 P0001,M
INS,2021-01-25 17:48,-115.6733,36.5872,955.00,39.20,33.80,80.79,200.00,4.00,0.00,29.53,999.40,10.00,M,SCT,SCT,BKN,BKN,1700.00,2300.00,4600.00,6500.00,M,M,M,M,M,M,M,35.83,KINS 251748Z AUTO 20004KT 10SM SCT017 SCT023 BKN046 BKN065 04/01 A2953 RMK AO2 SLP994 $,M
05U,2021-01-25 17:50,-116.0051,39.6042,1811.23,23.00,17.60,79.47,20.00,4.00,0.00,29.56,M,6.00,M,M,M,M,M,M,M,M,M,HZ,M,M,M,M,M,M,16.91,K05U 251750Z AUTO 02004KT 6SM HZ M05/M08 A2956 RMK A01,M
NFL,2021-01-25 17:52,-118.7010,39.4166,1199.00,30.20,28.40,92.92,140.00,7.00,T,29.59,M,1.00,M,OVC,M,M,M,1000.00,M,M,M,-SN,M,M,M,M,M,M,22.59,KNFL 251752Z 14007KT 1SM -SN OVC010 M01/M02 A2959 RMK AO2 SNB46 IRSLR// P0000,M
DRA,2021-01-25 17:53,-116.0278,36.6206,1009.00,39.00,33.00,79.17,120.00,7.00,0.00,29.54,999.20,10.00,M,OVC,M,M,M,1900.00,M,M,M,M,M,M,M,M,M,M,33.31,KDRA 251753Z AUTO 12007KT 10SM OVC019 04/01 A2954 RMK AO2 SLP992 T00390006 10044 20022 56004 $,M
P68,2021-01-25 17:53,-116.0056,39.6014,1993.00,21.90,17.10,81.46,20.00,5.00,0.00,29.54,1003.40,M,M,M,M,M,M,M,M,M,M,M,M,M,M,M,M,M,14.40,KP68 251753Z AUTO 02005KT M06/M08 A2954 RMK AO1 SLP034 T10561083 11050 21089 55001,M
ELY,2021-01-25 17:53,-114.8453,39.2950,1909.00,21.00,17.10,84.62,30.00,9.00,0.01,29.53,1002.50,10.00,M,BKN,OVC,M,M,6000.00,7500.00,M,M,M,M,M,M,M,M,M,9.84,KELY 251753Z AUTO 03009KT 10SM BKN060 OVC075 M06/M08 A2953 RMK AO2 SLP025 P0001 60001 T10611083 11039 21072 58003,M
VGT,2021-01-25 17:53,-115.1933,36.2111,667.00,46.00,34.00,62.71,160.00,13.00,T,29.54,1002.10,10.00,M,SCT,BKN,OVC,M,2600.00,3100.00,4100.00,M,-RA,M,M,M,M,M,M,39.50,KVGT 251753Z 16013KT 10SM -RA SCT026 BKN031 OVC041 08/01 A2954 RMK AO2 RAB50 SLP021 P0000 60000 T00780011 10078 20061 56009,M
LOL,2021-01-25 17:53,-118.5701,40.0684,1192.43,30.90,27.00,85.26,40.00,14.00,T,29.60,1003.80,2.00,M,SCT,OVC,M,M,2500.00,3400.00,M,M,-SN BR,M,M,M,M,M,M,19.74,KLOL 251753Z AUTO 04014KT 2SM -SN BR SCT025 OVC034 M01/M03 A2960 RMK AO2 SLP038 P0000 60011 T10061028 10000 21017 53005,M
HTH,2021-01-25 17:55,-118.6315,38.5448,1282.89,33.80,28.40,80.36,360.00,18.00,0.00,29.58,M,10.00,M,CLR,M,M,M,M,M,M,M,M,M,M,M,M,M,M,22.12,KHTH 251755Z AUTO 36018KT 10SM CLR 01/M02 A2958 RMK A01,M
TMT,2021-01-25 17:55,-117.1971,39.4643,1749.34,21.00,20.30,97.07,0.00,0.00,0.00,29.56,M,2.50,M,M,M,M,M,M,M,M,M,-SN,M,M,M,M,M,M,21.00,KTMT 251755Z AUTO 00000KT 2 1/2SM -SN M06/M06 A2956 RMK AO2 60003 T10611065 11061 21083,M
RTS,2021-01-25 17:55,-119.8764,39.6682,1539.00,24.80,17.60,73.70,340.00,11.00,0.00,29.64,M,10.00,M,SCT,SCT,M,M,2600.00,3100.00,M,M,M,M,M,M,M,M,M,13.37,KRTS 251755Z AUTO 34011KT 10SM SCT026 SCT031 M04/M08 A2964 RMK AO2,M
CXP,2021-01-25 17:55,-119.7326,39.1923,1431.00,30.20,19.40,63.75,360.00,7.00,0.00,29.63,M,10.00,12.00,OVC,M,M,M,5000.00,M,M,M,M,M,M,M,M,M,M,22.59,KCXP 251755Z AUTO 36007G12KT 10SM OVC050 M01/M07 A2963 RMK AO2,M
BVU,2021-01-25 17:55,-114.8611,35.9475,671.00,42.80,37.40,81.07,160.00,15.00,0.00,29.61,M,10.00,M,BKN,BKN,OVC,M,1700.00,2200.00,2800.00,M,M,M,M,M,M,M,M,34.78,KBVU 251755Z AUTO 16015KT 10SM BKN017 BKN022 OVC028 06/03 A2961 RMK AO2,M
RNO,2021-01-25 17:55,-119.7711,39.4839,1341.00,27.00,21.90,80.83,320.00,10.00,T,29.65,1005.00,3.00,M,OVC,M,M,M,2800.00,M,M,M,-SN,M,M,M,M,M,M,16.70,KRNO 251755Z 32010KT 3SM -SN OVC028 M03/M06 A2965 RMK AO2 SLP050 4/002 933002 P0000 60003 T10281056 11011 21033 53017 $,2
BAM,2021-01-25 17:55,-116.8743,40.5990,1382.36,26.60,26.60,100.00,0.00,0.00,0.00,29.62,M,10.00,M,SCT,OVC,M,M,700.00,4400.00,M,M,M,M,M,M,M,M,M,26.60,KBAM 251755Z AUTO 00000KT 10SM SCT007 OVC044 M03/M03 A2962 RMK AO1,M
MEV,2021-01-25 17:55,-119.7500,38.9963,1441.42,28.40,21.20,74.08,350.00,16.00,0.00,29.61,M,9.00,M,SCT,BKN,M,M,3500.00,4200.00,M,M,UP,M,M,M,M,M,M,15.73,KMEV 251755Z AUTO 35016KT 9SM UP SCT035 BKN042 M02/M06 A2961 RMK AO2,M
LSV,2021-01-25 17:55,-115.0343,36.2362,570.00,44.60,39.20,81.20,140.00,8.00,0.00,29.59,1001.90,10.00,M,OVC,M,M,M,2400.00,M,M,M,-RA,M,M,M,M,M,M,39.63,KLSV 251755Z AUTO 14008KT 10SM -RA OVC024 07/04 A2959 RMK AO2 RAB55 SLP019 $,M
HND,2021-01-25 17:56,-115.1344,35.9729,742.79,40.00,37.00,89.27,160.00,9.00,0.04,29.59,1004.20,5.00,17.00,BKN,OVC,M,M,2000.00,2700.00,M,M,-RA BR,M,M,M,M,M,M,33.34,KHND 251756Z 16009G17KT 5SM -RA BR BKN020 OVC027 04/03 A2959 RMK AO2 RAB27 SLP042 P0004 60004 T00440028 10061 20039 56008,M
EKO,2021-01-25 17:56,-115.7860,40.8242,1367.00,23.00,16.00,74.15,0.00,0.00,0.00,29.59,1005.50,10.00,M,CLR,M,M,M,M,M,M,M,M,M,M,M,M,M,M,23.00,KEKO 251756Z AUTO 00000KT 10SM CLR M05/M09 A2959 RMK AO2 SLP055 T10501089 11050 21089 58001,M
LAS,2021-01-25 17:56,-115.1634,36.0719,663.00,43.00,35.00,73.45,170.00,5.00,T,29.59,1001.70,10.00,M,FEW,BKN,OVC,M,3000.00,4500.00,7000.00,M,-RA,M,M,M,M,M,M,39.46,KLAS 251756Z 17005KT 10SM -RA FEW030 BKN045 OVC070 06/02 A2959 RMK AO2 RAB53 SLP017 P0000 60000 T00610017 10067 20050 55006,M
NFL,2021-01-25 17:56,-118.7010,39.4166,1199.00,30.00,28.00,92.15,140.00,8.00,T,29.59,1000.70,1.00,M,OVC,M,M,M,1000.00,M,M,M,-SN,M,M,M,M,M,M,21.65,KNFL 251756Z 14008KT 1SM -SN OVC010 M01/M02 A2959 RMK AO2 SNB46 SLP007 IRSLR// P0000 60000 T10111022 11006 21011 51010,M
WMC,2021-01-25 17:56,-117.8072,40.9019,1315.00,28.00,21.00,74.67,30.00,10.00,0.00,29.61,1004.70,10.00,M,BKN,OVC,M,M,2900.00,4500.00,M,M,M,M,M,M,M,M,M,17.95,KWMC 251756Z AUTO 03010KT 10SM BKN029 OVC045 M02/M06 A2961 RMK AO2 SLP047 T10221061 11022 21044 53003 $,M
TPH,2021-01-25 17:56,-117.0904,38.0505,1654.00,28.00,27.00,95.97,10.00,7.00,T,29.51,1000.50,2.50,M,BKN,OVC,M,M,2900.00,3700.00,M,M,-SN BR,M,M,M,M,M,M,19.90,KTPH 251756Z AUTO 01007KT 2 1/2SM -SN BR BKN029 OVC037 M02/M03 A2951 RMK AO2 SLP005 P0000 60003 T10221028 11022 21056 55000,M
INS,2021-01-25 17:58,-115.6733,36.5872,955.00,40.30,33.60,76.79,190.00,3.00,0.00,29.52,998.80,10.00,M,SCT,SCT,BKN,BKN,2000.00,2500.00,4600.00,6500.00,M,M,M,M,M,M,M,38.18,KINS 251758Z AUTO 19003KT 10SM SCT020 SCT025 BKN046 BKN065 05/01 A2952 RMK AO2 SLP988 60000 T00460009 10046 20021 57006 $,M
LSV,2021-01-25 17:58,-115.0343,36.2362,570.00,45.00,40.00,81.88,130.00,8.00,0.02,29.59,1001.90,10.00,M,OVC,M,M,M,2400.00,M,M,M,-RA,M,M,M,M,M,M,40.25,KLSV 251758Z COR 13008KT 10SM -RA OVC024 07/04 A2959 RMK AO2 RAB55 SLP019 P0002 6//// T00730044 10074 20065 $ COR 1829,M
TPH,2021-01-25 18:03,-117.0904,38.0505,1654.00,28.90,27.00,92.49,360.00,6.00,T,29.51,M,2.50,M,OVC,M,M,M,3000.00,M,M,M,-SN BR,M,M,M,M,M,M,21.80,KTPH 251803Z AUTO 36006KT 2 1/2SM -SN BR OVC030 M02/M03 A2951 RMK AO2 P0000 T10171028,M
INS,2021-01-25 18:03,-115.6733,36.5872,955.00,41.00,33.80,75.33,0.00,0.00,0.00,29.52,998.80,10.00,M,SCT,BKN,BKN,BKN,2000.00,2500.00,4600.00,6500.00,M,M,M,M,M,M,M,41.00,KINS 251803Z AUTO 00000KT 10SM SCT020 BKN025 BKN046 BKN065 05/01 A2952 RMK AO2 BKN025 V SCT SLP988 $,M
WMC,2021-01-25 18:04,-117.8072,40.9019,1315.00,28.90,21.00,71.96,10.00,8.00,0.00,29.61,M,10.00,M,SCT,OVC,M,M,2900.00,4700.00,M,M,M,M,M,M,M,M,M,20.29,KWMC 251804Z AUTO 01008KT 10SM SCT029 OVC047 M02/M06 A2961 RMK AO2 T10171061 $,M
05U,2021-01-25 18:10,-116.0051,39.6042,1811.23,23.00,15.80,73.51,360.00,5.00,0.00,29.56,M,9.00,M,M,M,M,M,M,M,M,M,M,M,M,M,M,M,M,15.71,K05U 251810Z AUTO 36005KT 9SM M05/M09 A2956 RMK A01,M
LOL,2021-01-25 18:13,-118.5701,40.0684,1192.43,30.90,27.00,85.26,40.00,15.00,T,29.60,M,3.00,M,OVC,M,M,M,3600.00,M,M,M,-SN BR,M,M,M,M,M,M,19.35,KLOL 251813Z AUTO 04015KT 3SM -SN BR OVC036 M01/M03 A2960 RMK AO2 P0000 T10061028,M
LSV,2021-01-25 18:14,-115.0343,36.2362,570.00,44.60,41.00,87.09,110.00,7.00,0.00,29.58,1001.50,9.00,M,SCT,M,M,M,2200.00,M,M,M,-RA,M,M,M,M,M,M,40.14,KLSV 251814Z AUTO 11007KT 9SM -RA SCT022 07/05 A2958 RMK AO2 SLP015 $,M
CXP,2021-01-25 18:15,-119.7326,39.1923,1431.00,30.20,17.60,59.01,M,5.00,0.00,29.63,M,10.00,13.00,FEW,OVC,M,M,2900.00,5500.00,M,M,M,M,M,M,M,M,M,24.26,KCXP 251815Z AUTO VRB05G13KT 10SM FEW029 OVC055 M01/M08 A2963 RMK AO2,M
HTH,2021-01-25 18:15,-118.6315,38.5448,1282.89,32.00,26.60,80.22,360.00,18.00,0.00,29.58,M,10.00,M,CLR,M,M,M,M,M,M,M,M,M,M,M,M,M,M,19.75,KHTH 251815Z AUTO 36018KT 10SM CLR 00/M03 A2958 RMK A01,M
RTS,2021-01-25 18:15,-119.8764,39.6682,1539.00,24.80,17.60,73.70,340.00,9.00,0.00,29.65,M,10.00,M,FEW,M,M,M,3100.00,M,M,M,M,M,M,M,M,M,M,14.56,KRTS 251815Z AUTO 34009KT 10SM FEW031 M04/M08 A2965 RMK AO2,M
TMT,2021-01-25 18:15,-117.1971,39.4643,1749.34,21.70,21.00,97.08,0.00,0.00,0.00,29.56,M,3.00,M,M,M,M,M,M,M,M,M,-SN,M,M,M,M,M,M,21.70,KTMT 251815Z AUTO 00000KT 3SM -SN M06/M06 A2956 RMK AO2 T10571061,M
BVU,2021-01-25 18:15,-114.8611,35.9475,671.00,41.00,35.60,80.93,150.00,11.00,0.00,29.60,M,10.00,17.00,SCT,BKN,OVC,M,1700.00,3200.00,5500.00,M,M,M,M,M,M,M,M,33.84,KBVU 251815Z AUTO 15011G17KT 10SM SCT017 BKN032 OVC055 05/02 A2960 RMK AO2,M
MEV,2021-01-25 18:15,-119.7500,38.9963,1441.42,28.40,21.20,74.08,360.00,15.00,0.00,29.62,M,5.00,M,BKN,M,M,M,3800.00,M,M,M,-SN HZ,M,M,M,M,M,M,16.11,KMEV 251815Z AUTO 36015KT 5SM -SN HZ BKN038 M02/M06 A2962 RMK AO2,M
BAM,2021-01-25 18:15,-116.8743,40.5990,1382.36,26.60,26.60,100.00,300.00,3.00,0.00,29.63,M,10.00,M,BKN,OVC,M,M,700.00,4400.00,M,M,M,M,M,M,M,M,M,22.52,KBAM 251815Z AUTO 30003KT 10SM BKN007 OVC044 M03/M03 A2963 RMK AO1,M
INS,2021-01-25 18:18,-115.6733,36.5872,955.00,39.20,35.60,86.79,110.00,14.00,0.00,29.52,999.10,10.00,21.00,FEW,SCT,BKN,M,1400.00,1900.00,2600.00,M,M,M,M,M,M,M,M,30.44,KINS 251818Z AUTO 11014G21KT 10SM FEW014 SCT019 BKN026 04/02 A2952 RMK AO2 SLP991 $,M
RNO,2021-01-25 18:22,-119.7711,39.4839,1341.00,27.00,21.90,80.83,320.00,9.00,T,29.65,M,2.00,M,OVC,M,M,M,2200.00,M,M,M,-SN,M,M,M,M,M,M,17.30,KRNO 251822Z 32009KT 2SM -SN OVC022 M03/M06 A2965 RMK AO2 P0000 T10281056 $,M
TPH,2021-01-25 18:23,-117.0904,38.0505,1654.00,30.00,27.00,88.44,10.00,5.00,T,29.51,M,2.50,M,BKN,OVC,M,M,2900.00,3500.00,M,M,-SN BR,M,M,M,M,M,M,24.02,KTPH 251823Z AUTO 01005KT 2 1/2SM -SN BR BKN029 OVC035 M01/M03 A2951 RMK AO2 P0000 T10111028,M
LAS,2021-01-25 18:26,-115.1634,36.0719,663.00,42.00,38.00,84.93,170.00,5.00,0.02,29.57,M,10.00,M,OVC,M,M,M,2500.00,M,M,M,-RA,M,M,M,M,M,M,38.39,KLAS 251826Z 17005KT 10SM -RA OVC025 06/03 A2957 RMK AO2 P0002 T00560033,M
INS,2021-01-25 18:28,-115.6733,36.5872,955.00,39.20,33.80,80.79,130.00,15.00,0.00,29.51,998.70,10.00,M,SCT,SCT,BKN,BKN,2200.00,2800.00,13000.00,17000.00,M,M,M,M,M,M,M,30.11,KINS 251828Z AUTO 13015KT 10SM SCT022 SCT028 BKN130 BKN170 04/01 A2951 RMK AO2 SLP987 $,M
05U,2021-01-25 18:30,-116.0051,39.6042,1811.23,23.00,15.80,73.51,0.00,0.00,0.00,29.56,M,5.00,M,M,M,M,M,M,M,M,M,HZ,M,M,M,M,M,M,23.00,K05U 251830Z AUTO 00000KT 5SM HZ M05/M09 A2956 RMK A01,M
VGT,2021-01-25 18:30,-115.1933,36.2111,667.00,42.00,34.00,72.78,180.00,12.00,0.03,29.54,M,2.50,21.00,BKN,M,M,M,2600.00,M,M,M,+RA,M,M,M,M,M,M,34.86,KVGT 251830Z 18012G21KT 2 1/2SM +RA BKN026 06/01 A2954 RMK AO2 VIS 1 1/4V5 P0003 T00560011,M
TMT,2021-01-25 18:35,-117.1971,39.4643,1749.34,21.60,20.70,96.26,0.00,0.00,0.00,29.55,M,4.00,M,M,M,M,M,M,M,M,M,-SN,M,M,M,M,M,M,21.60,KTMT 251835Z AUTO 00000KT 4SM -SN M06/M06 A2955 RMK AO2 T10581063,M
MEV,2021-01-25 18:35,-119.7500,38.9963,1441.42,28.40,21.20,74.08,360.00,15.00,0.00,29.61,M,8.00,21.00,BKN,BKN,M,M,3400.00,4000.00,M,M,-SN,M,M,M,M,M,M,16.11,KMEV 251835Z AUTO 36015G21KT 8SM -SN BKN034 BKN040 M02/M06 A2961 RMK AO2,M
HTH,2021-01-25 18:35,-118.6315,38.5448,1282.89,32.00,26.60,80.22,360.00,18.00,0.00,29.59,M,10.00,24.00,CLR,M,M,M,M,M,M,M,M,M,M,M,M,M,M,19.75,KHTH 251835Z AUTO 36018G24KT 10SM CLR 00/M03 A2959 RMK A01,M
BAM,2021-01-25 18:35,-116.8743,40.5990,1382.36,26.60,26.60,100.00,320.00,4.00,0.00,29.62,M,10.00,M,OVC,M,M,M,700.00,M,M,M,M,M,M,M,M,M,M,21.11,KBAM 251835Z AUTO 32004KT 10SM OVC007 M03/M03 A2962 RMK AO1,M
TPH,2021-01-25 18:35,-117.0904,38.0505,1654.00,30.00,27.00,88.44,10.00,6.00,T,29.51,M,3.00,M,FEW,BKN,OVC,M,600.00,2900.00,3500.00,M,-SN BR,M,M,M,M,M,M,23.12,KTPH 251835Z AUTO 01006KT 3SM -SN BR FEW006 BKN029 OVC035 M01/M03 A2951 RMK AO2 P0000 T10111028,M
BVU,2021-01-25 18:35,-114.8611,35.9475,671.00,42.80,37.40,81.07,140.00,11.00,0.00,29.59,M,10.00,M,FEW,SCT,BKN,M,1800.00,3600.00,4500.00,M,M,M,M,M,M,M,M,36.11,KBVU 251835Z AUTO 14011KT 10SM FEW018 SCT036 BKN045 06/03 A2959 RMK AO2,M
RTS,2021-01-25 18:35,-119.8764,39.6682,1539.00,24.80,17.60,73.70,340.00,10.00,0.00,29.65,M,10.00,M,FEW,SCT,BKN,M,2000.00,2700.00,3200.00,M,-UP,M,M,M,M,M,M,13.94,KRTS 251835Z AUTO 34010KT 10SM -UP FEW020 SCT027 BKN032 M04/M08 A2965 RMK AO2,M
ELY,2021-01-25 18:35,-114.8453,39.2950,1909.00,23.00,19.00,84.39,30.00,7.00,T,29.53,M,2.50,M,FEW,BKN,OVC,M,700.00,3400.00,4800.00,M,-SN BR,M,M,M,M,M,M,13.81,KELY 251835Z AUTO 03007KT 2 1/2SM -SN BR FEW007 BKN034 OVC048 M05/M07 A2953 RMK AO2 SNB25 P0000 T10501072,M
CXP,2021-01-25 18:35,-119.7326,39.1923,1431.00,30.20,19.40,63.75,330.00,14.00,0.00,29.63,M,10.00,M,FEW,BKN,OVC,M,3100.00,5500.00,8500.00,M,M,M,M,M,M,M,M,18.84,KCXP 251835Z AUTO 33014KT 10SM FEW031 BKN055 OVC085 M01/M07 A2963 RMK AO2,M
INS,2021-01-25 18:38,-115.6733,36.5872,955.00,39.20,33.80,80.79,130.00,16.00,0.00,29.50,998.40,10.00,M,FEW,BKN,BKN,BKN,2600.00,4100.00,13000.00,20000.00,M,M,M,M,M,M,M,29.80,KINS 251838Z AUTO 13016KT 10SM FEW026 BKN041 BKN130 BKN200 04/01 A2950 RMK AO2 SLP984 $,M
VGT,2021-01-25 18:39,-115.1933,36.2111,667.00,42.00,35.00,76.04,150.00,9.00,0.07,29.53,M,1.75,M,FEW,OVC,M,M,1500.00,2200.00,M,M,RA,M,M,M,M,M,M,36.07,KVGT 251839Z 15009KT 1 3/4SM RA FEW015 OVC022 06/02 A2953 RMK AO2 P0007 T00560017,M
DRA,2021-01-25 18:42,-116.0278,36.6206,1009.00,39.00,33.00,79.17,130.00,8.00,0.00,29.52,M,10.00,M,OVC,M,M,M,3000.00,M,M,M,M,M,M,M,M,M,M,32.74,KDRA 251842Z AUTO 13008KT 10SM OVC030 04/01 A2952 RMK AO2 T00390006,M
ELY,2021-01-25 18:46,-114.8453,39.2950,1909.00,23.00,19.00,84.39,20.00,9.00,T,29.52,M,3.00,M,SCT,BKN,OVC,M,700.00,3000.00,4900.00,M,-SN BR,M,M,M,M,M,M,12.32,KELY 251846Z AUTO 02009KT 3SM -SN BR SCT007 BKN030 OVC049 M05/M07 A2952 RMK AO2 SNB25 P0000 T10501072,M
RNO,2021-01-25 18:46,-119.7711,39.4839,1341.00,27.00,23.00,84.66,330.00,10.00,T,29.66,M,1.00,M,OVC,M,M,M,1500.00,M,M,M,-SN BR,M,M,M,M,M,M,16.70,KRNO 251846Z 33010KT 1SM R16R/6000VP6000FT -SN BR OVC015 M03/M05 A2966 RMK AO2 P0000 T10281050 $,M
VGT,2021-01-25 18:48,-115.1933,36.2111,667.00,42.80,35.60,75.50,100.00,7.00,0.10,29.53,M,2.00,M,SCT,OVC,M,M,1300.00,2000.00,M,M,RA,M,M,M,M,M,M,37.94,KVGT 251848Z 10007KT 2SM RA SCT013 OVC020 06/02 A2953 RMK AO2 P0010,M
05U,2021-01-25 18:50,-116.0051,39.6042,1811.23,24.80,15.80,68.18,10.00,5.00,0.00,29.55,M,10.00,M,M,M,M,M,M,M,M,M,M,M,M,M,M,M,M,17.84,K05U 251850Z AUTO 01005KT 10SM M04/M09 A2955 RMK A01,M
LSV,2021-01-25 18:50,-115.0343,36.2362,570.00,42.80,42.80,100.00,120.00,4.00,0.00,29.57,1001.20,4.00,M,SCT,M,M,M,1900.00,M,M,M,-RA BR,M,M,M,M,M,M,40.03,KLSV 251850Z 12004KT 4SM -RA BR SCT019 06/06 A2957 RMK AO2A SLP012 $,M
TPH,2021-01-25 18:51,-117.0904,38.0505,1654.00,30.20,26.60,86.28,20.00,6.00,T,29.50,M,1.75,M,BKN,OVC,M,M,2500.00,3100.00,M,M,-SN BR,M,M,M,M,M,M,23.36,KTPH 251851Z AUTO 02006KT 1 3/4SM -SN BR BKN025 OVC031 M01/M03 A2950 RMK AO2 P0000,M
LOL,2021-01-25 18:51,-118.5701,40.0684,1192.43,30.20,26.60,86.28,30.00,11.00,T,29.60,M,2.50,M,OVC,M,M,M,3500.00,M,M,M,-SN BR,M,M,M,M,M,M,20.19,KLOL 251851Z AUTO 03011KT 2 1/2SM -SN BR OVC035 M01/M03 A2960 RMK AO2 P0000,M
LSV,2021-01-25 18:51,-115.0343,36.2362,570.00,42.80,42.80,100.00,120.00,6.00,0.00,29.57,1001.20,5.00,M,BKN,M,M,M,1900.00,M,M,M,-RA BR,M,M,M,M,M,M,38.54,KLSV 251851Z 12006KT 5SM -RA BR BKN019 06/06 A2957 RMK AO2A BKN V SCT SLP012 $,M
TPH,2021-01-25 18:52,-117.0904,38.0505,1654.00,30.00,27.00,88.44,20.00,6.00,T,29.50,1000.10,1.75,M,BKN,OVC,M,M,2500.00,3100.00,M,M,-SN BR,M,M,M,M,M,M,23.12,KTPH 251852Z AUTO 02006KT 1 3/4SM -SN BR BKN025 OVC031 M01/M03 A2950 RMK AO2 SLP001 P0000 T10111028,M
VGT,2021-01-25 18:53,-115.1933,36.2111,667.00,42.00,36.00,78.80,100.00,10.00,0.10,29.52,1001.60,2.50,M,SCT,OVC,M,M,1300.00,2200.00,M,M,-RA,M,M,M,M,M,M,35.63,KVGT 251853Z 10010KT 2 1/2SM -RA SCT013 OVC022 06/02 A2952 RMK AO2 SLP016 P0010 T00560022,M
ELY,2021-01-25 18:53,-114.8453,39.2950,1909.00,24.10,19.00,80.59,30.00,10.00,T,29.52,1001.40,2.50,M,SCT,BKN,OVC,M,700.00,2800.00,3700.00,M,-SN,M,M,M,M,M,M,13.06,KELY 251853Z AUTO 03010KT 2 1/2SM -SN SCT007 BKN028 OVC037 M04/M07 A2952 RMK AO2 SNB25 SLP014 P0000 T10441072,M
DRA,2021-01-25 18:53,-116.0278,36.6206,1009.00,39.00,32.00,75.75,130.00,7.00,0.00,29.52,998.60,10.00,M,BKN,OVC,M,M,3000.00,3700.00,M,M,M,M,M,M,M,M,M,33.31,KDRA 251853Z AUTO 13007KT 10SM BKN030 OVC037 04/00 A2952 RMK AO2 SLP986 T00390000,M
P68,2021-01-25 18:53,-116.0056,39.6014,1993.00,24.10,17.10,74.27,20.00,5.00,0.00,29.52,1002.50,M,M,M,M,M,M,M,M,M,M,M,M,M,M,M,M,M,17.01,KP68 251853Z AUTO 02005KT M04/M08 A2952 RMK AO1 SLP025 T10441083,M
LOL,2021-01-25 18:53,-118.5701,40.0684,1192.43,30.90,27.00,85.26,30.00,10.00,T,29.60,1004.00,3.00,M,OVC,M,M,M,3500.00,M,M,M,-SN BR,M,M,M,M,M,M,21.59,KLOL 251853Z AUTO 03010KT 3SM -SN BR OVC035 M01/M03 A2960 RMK AO2 SLP040 P0000 T10061028,M
BVU,2021-01-25 18:55,-114.8611,35.9475,671.00,42.80,37.40,81.07,140.00,13.00,0.00,29.57,M,10.00,M,SCT,BKN,OVC,M,1400.00,1800.00,4500.00,M,M,M,M,M,M,M,M,35.40,KBVU 251855Z AUTO 14013KT 10SM SCT014 BKN018 OVC045 06/03 A2957 RMK AO2,M
TMT,2021-01-25 18:55,-117.1971,39.4643,1749.34,22.60,21.90,97.09,0.00,0.00,0.00,29.55,M,5.00,M,M,M,M,M,M,M,M,M,-SN,M,M,M,M,M,M,22.60,KTMT 251855Z AUTO 00000KT 5SM -SN M05/M06 A2955 RMK AO2 T10521056,M
HTH,2021-01-25 18:55,-118.6315,38.5448,1282.89,32.00,24.80,74.44,360.00,20.00,0.00,29.58,M,10.00,M,CLR,M,M,M,M,M,M,M,M,M,M,M,M,M,M,19.14,KHTH 251855Z AUTO 36020KT 10SM CLR 00/M04 A2958 RMK A01,M
CXP,2021-01-25 18:55,-119.7326,39.1923,1431.00,30.20,19.40,63.75,320.00,10.00,0.00,29.62,M,10.00,20.00,FEW,BKN,OVC,M,3400.00,5500.00,9000.00,M,M,M,M,M,M,M,M,20.71,KCXP 251855Z AUTO 32010G20KT 10SM FEW034 BKN055 OVC090 M01/M07 A2962 RMK AO2,M
RNO,2021-01-25 18:55,-119.7711,39.4839,1341.00,27.00,23.00,84.66,330.00,9.00,T,29.65,1005.20,1.00,M,OVC,M,M,M,1500.00,M,M,M,-SN BR,M,M,M,M,M,M,17.30,KRNO 251855Z 33009KT 1SM R16R/P6000FT -SN BR OVC015 M03/M05 A2965 RMK AO2 SLP052 P0000 T10281050 $,M
RTS,2021-01-25 18:55,-119.8764,39.6682,1539.00,24.80,17.60,73.70,340.00,12.00,0.00,29.65,M,10.00,M,FEW,SCT,M,M,1900.00,2600.00,M,M,-UP,M,M,M,M,M,M,12.84,KRTS 251855Z AUTO 34012KT 10SM -UP FEW019 SCT026 M04/M08 A2965 RMK AO2,M
BAM,2021-01-25 18:55,-116.8743,40.5990,1382.36,26.60,24.80,92.80,350.00,4.00,0.00,29.61,M,10.00,M,BKN,OVC,M,M,700.00,4300.00,M,M,M,M,M,M,M,M,M,21.11,KBAM 251855Z AUTO 35004KT 10SM BKN007 OVC043 M03/M04 A2961 RMK AO1,M
MEV,2021-01-25 18:55,-119.7500,38.9963,1441.42,30.20,21.20,68.83,360.00,14.00,0.00,29.61,M,10.00,20.00,SCT,BKN,BKN,M,3400.00,4000.00,5000.00,M,M,M,M,M,M,M,M,18.84,KMEV 251855Z AUTO 36014G20KT 10SM SCT034 BKN040 BKN050 M01/M06 A2961 RMK AO2,M
HND,2021-01-25 18:56,-115.1344,35.9729,742.79,36.00,34.00,92.35,240.00,11.00,0.06,29.58,1003.90,4.00,18.00,SCT,BKN,OVC,M,1000.00,1500.00,2400.00,M,RA BR,M,M,M,M,M,M,27.52,KHND 251856Z 24011G18KT 4SM RA BR SCT010 BKN015 OVC024 02/01 A2958 RMK AO2 WSHFT 1840 SLP039 P0006 T00220011,M
WMC,2021-01-25 18:56,-117.8072,40.9019,1315.00,30.00,21.00,68.81,10.00,8.00,0.00,29.61,1004.10,10.00,M,FEW,BKN,OVC,M,2300.00,3300.00,4000.00,M,M,M,M,M,M,M,M,21.65,KWMC 251856Z AUTO 01008KT 10SM FEW023 BKN033 OVC040 M01/M06 A2961 RMK AO2 SLP041 T10111061,M
LAS,2021-01-25 18:56,-115.1634,36.0719,663.00,41.00,37.00,85.54,180.00,8.00,0.04,29.56,1000.90,7.00,M,BKN,OVC,M,M,2000.00,2400.00,M,M,-RA,M,M,M,M,M,M,35.20,KLAS 251856Z 18008KT 7SM -RA BKN020 OVC024 05/03 A2956 RMK AO2 SLP009 P0004 T00500028,M
EKO,2021-01-25 18:56,-115.7860,40.8242,1367.00,27.00,18.00,68.45,0.00,0.00,0.00,29.57,1004.30,10.00,M,CLR,M,M,M,M,M,M,M,M,M,M,M,M,M,M,27.00,KEKO 251856Z AUTO 00000KT 10SM CLR M03/M08 A2957 RMK AO2 SLP043 T10281078,M
NFL,2021-01-25 18:56,-118.7010,39.4166,1199.00,30.00,27.00,88.44,310.00,11.00,T,29.60,1001.00,1.00,M,OVC,M,M,M,1000.00,M,M,M,-SN BR,M,M,M,M,M,M,19.94,KNFL 251856Z 31011KT 1SM -SN BR OVC010 M01/M03 A2960 RMK AO2 SLP010 SLR// P0000 T10111028,M
INS,2021-01-25 18:58,-115.6733,36.5872,955.00,39.60,34.50,81.79,120.00,14.00,0.00,29.49,998.20,10.00,19.00,BKN,BKN,BKN,M,4100.00,5000.00,14000.00,M,M,M,M,M,26.00,150.00,2021-01-25 18:32,30.96,KINS 251858Z AUTO 12014G19KT 10SM BKN041 BKN050 BKN140 04/01 A2949 RMK AO2 PK WND 15026/32 SLP982 T00420014 $,M
LSV,2021-01-25 18:58,-115.0343,36.2362,570.00,42.60,42.60,100.00,110.00,5.00,0.06,29.57,1001.20,5.00,M,BKN,M,M,M,2000.00,M,M,M,-RA BR,M,M,M,M,M,M,38.98,KLSV 251858Z COR 11005KT 5SM -RA BR BKN020 06/06 A2957 RMK AO2A TWR VIS 3200 BKN V SCT SLP012 P0006 T00590059 $ COR 1910,M
LSV,2021-01-25 19:00,-115.0343,36.2362,570.00,42.80,42.80,100.00,120.00,5.00,0.00,29.56,1000.80,5.00,M,BKN,M,M,M,1900.00,M,M,M,-RA BR,M,M,M,M,M,M,39.22,KLSV 251900Z AUTO 12005KT 5SM -RA BR BKN019 06/06 A2956 RMK AO2 SLP008 $,M
VGT,2021-01-25 19:00,-115.1933,36.2111,667.00,42.00,37.00,81.98,100.00,8.00,T,29.52,M,7.00,M,FEW,OVC,M,M,1300.00,2200.00,M,M,-RA,M,M,M,M,M,M,36.55,KVGT 251900Z 10008KT 7SM -RA FEW013 OVC022 06/03 A2952 RMK AO2 P0000 T00560028,M
LAS,2021-01-25 19:00,-115.1634,36.0719,663.00,41.00,37.00,85.54,190.00,10.00,0.02,29.56,M,4.00,17.00,FEW,BKN,OVC,M,1200.00,1700.00,2400.00,M,RA BR,M,M,M,M,M,M,34.25,KLAS 251900Z 19010G17KT 4SM RA BR FEW012 BKN017 OVC024 05/03 A2956 RMK AO2 P0002 T00500028,M
ELY,2021-01-25 19:01,-114.8453,39.2950,1909.00,24.10,19.90,83.75,30.00,10.00,T,29.52,M,1.25,M,SCT,BKN,OVC,M,700.00,2200.00,3300.00,M,-SN BR,M,M,M,M,M,M,13.06,KELY 251901Z AUTO 03010KT 1 1/4SM -SN BR SCT007 BKN022 OVC033 M04/M07 A2952 RMK AO2 P0000 T10441067,M
HND,2021-01-25 19:01,-115.1344,35.9729,742.79,37.40,33.80,86.69,220.00,9.00,0.01,29.57,M,4.00,M,BKN,BKN,OVC,M,1300.00,1800.00,2400.00,M,RA BR,M,M,M,M,M,M,30.23,KHND 251901Z 22009KT 4SM RA BR BKN013 BKN018 OVC024 03/01 A2957 RMK AO2 WSHFT 1843 P0001,M
RNO,2021-01-25 19:03,-119.7711,39.4839,1341.00,27.00,23.00,84.66,330.00,11.00,0.01,29.65,M,1.50,M,OVC,M,M,M,1600.00,M,M,M,-SN BR,M,M,M,M,M,M,16.15,KRNO 251903Z 33011KT 1 1/2SM R16R/6000VP6000FT -SN BR OVC016 M03/M05 A2965 RMK AO2 P0001 T10281050 $,M
LSV,2021-01-25 19:05,-115.0343,36.2362,570.00,42.80,42.80,100.00,70.00,5.00,0.00,29.56,1000.80,7.00,M,SCT,M,M,M,1800.00,M,M,M,-RA,M,M,M,M,M,M,39.22,KLSV 251905Z AUTO 07005KT 7SM -RA SCT018 06/06 A2956 RMK AO2 SLP008 $,M
05U,2021-01-25 19:10,-116.0051,39.6042,1811.23,24.80,15.80,68.18,20.00,5.00,0.00,29.54,M,10.00,M,M,M,M,M,M,M,M,M,M,M,M,M,M,M,M,17.84,K05U 251910Z AUTO 02005KT 10SM M04/M09 A2954 RMK A01,M
DRA,2021-01-25 19:13,-116.0278,36.6206,1009.00,39.00,35.00,85.76,30.00,3.00,T,29.51,M,10.00,M,SCT,BKN,OVC,M,1400.00,2700.00,3600.00,M,-RA,M,M,M,M,M,M,36.69,KDRA 251913Z AUTO 03003KT 10SM -RA SCT014 BKN027 OVC036 04/02 A2951 RMK AO2 RAB03 P0000 T00390017,M
HND,2021-01-25 19:14,-115.1344,35.9729,742.79,35.60,33.80,93.08,190.00,9.00,0.03,29.57,M,4.00,M,SCT,OVC,M,M,1100.00,1500.00,M,M,RA BR,M,M,M,M,M,M,27.99,KHND 251914Z 19009KT 4SM RA BR SCT011 OVC015 02/01 A2957 RMK AO2 WSHFT 1843 P0003,M
BVU,2021-01-25 19:15,-114.8611,35.9475,671.00,41.00,39.20,93.24,170.00,15.00,0.00,29.56,M,2.50,22.00,BKN,OVC,M,M,1300.00,2100.00,M,M,RA,M,M,M,M,M,M,32.45,KBVU 251915Z AUTO 17015G22KT 2 1/2SM RA BKN013 OVC021 05/04 A2956 RMK AO2,M
RTS,2021-01-25 19:15,-119.8764,39.6682,1539.00,24.80,17.60,73.70,340.00,8.00,0.00,29.65,M,3.00,13.00,FEW,FEW,M,M,1800.00,2600.00,M,M,-SN,M,M,M,M,M,M,15.24,KRTS 251915Z AUTO 34008G13KT 3SM -SN FEW018 FEW026 M04/M08 A2965 RMK AO2,M
MEV,2021-01-25 19:15,-119.7500,38.9963,1441.42,30.20,21.20,68.83,360.00,15.00,0.00,29.61,M,10.00,21.00,FEW,BKN,BKN,M,3900.00,4700.00,5500.00,M,M,M,M,M,M,M,M,18.45,KMEV 251915Z AUTO 36015G21KT 10SM FEW039 BKN047 BKN055 M01/M06 A2961 RMK AO2,M
TMT,2021-01-25 19:15,-117.1971,39.4643,1749.34,21.70,20.70,95.85,0.00,0.00,0.00,29.55,M,4.00,M,M,M,M,M,M,M,M,M,BR,M,M,M,M,M,M,21.70,KTMT 251915Z AUTO 00000KT 4SM BR M06/M06 A2955 RMK AO2 T10571063,M
CXP,2021-01-25 19:15,-119.7326,39.1923,1431.00,32.00,17.60,54.87,M,3.00,0.00,29.62,M,10.00,M,FEW,BKN,OVC,M,3300.00,5000.00,9000.00,M,M,M,M,M,M,M,M,28.69,KCXP 251915Z AUTO VRB03KT 10SM FEW033 BKN050 OVC090 00/M08 A2962 RMK AO2,M
BAM,2021-01-25 19:15,-116.8743,40.5990,1382.36,26.60,26.60,100.00,360.00,3.00,0.00,29.61,M,10.00,M,SCT,OVC,M,M,700.00,4300.00,M,M,M,M,M,M,M,M,M,22.52,KBAM 251915Z AUTO 36003KT 10SM SCT007 OVC043 M03/M03 A2961 RMK AO1,M
HTH,2021-01-25 19:15,-118.6315,38.5448,1282.89,33.80,23.00,64.23,360.00,21.00,0.00,29.58,M,10.00,27.00,CLR,M,M,M,M,M,M,M,M,M,M,M,M,M,M,21.25,KHTH 251915Z AUTO 36021G27KT 10SM CLR 01/M05 A2958 RMK A01,M
DRA,2021-01-25 19:17,-116.0278,36.6206,1009.00,39.00,35.00,85.76,0.00,0.00,T,29.51,M,10.00,M,BKN,OVC,M,M,1200.00,3600.00,M,M,-RA,M,M,M,M,M,M,39.00,KDRA 251917Z AUTO 00000KT 10SM -RA BKN012 OVC036 04/02 A2951 RMK AO2 RAB03 P0000 T00390017,M
ELY,2021-01-25 19:22,-114.8453,39.2950,1909.00,25.00,19.90,80.66,10.00,8.00,0.01,29.51,M,2.00,M,FEW,BKN,OVC,M,700.00,2600.00,3500.00,M,-SN,M,M,M,M,M,M,15.49,KELY 251922Z AUTO 01008KT 2SM -SN FEW007 BKN026 OVC035 M04/M07 A2951 RMK AO2 P0001 T10391067,M
RNO,2021-01-25 19:28,-119.7711,39.4839,1341.00,28.00,21.90,77.57,340.00,9.00,0.01,29.65,M,2.50,M,BKN,OVC,M,M,1800.00,3000.00,M,M,-SN,M,M,M,M,M,M,18.54,KRNO 251928Z 34009KT 2 1/2SM -SN BKN018 OVC030 M02/M06 A2965 RMK AO2 P0001 T10221056 $,M
05U,2021-01-25 19:30,-116.0051,39.6042,1811.23,24.80,17.60,73.70,20.00,5.00,0.00,29.53,M,9.00,M,M,M,M,M,M,M,M,M,M,M,M,M,M,M,M,17.84,K05U 251930Z AUTO 02005KT 9SM M04/M08 A2953 RMK A01,M
ELY,2021-01-25 19:31,-114.8453,39.2950,1909.00,26.10,21.00,80.75,20.00,9.00,0.01,29.50,M,7.00,M,SCT,BKN,OVC,M,800.00,2600.00,3300.00,M,M,M,M,M,M,M,M,16.18,KELY 251931Z AUTO 02009KT 7SM SCT008 BKN026 OVC033 M03/M06 A2950 RMK AO2 SNE30 P0001 T10331061,M
HND,2021-01-25 19:34,-115.1344,35.9729,742.79,37.40,35.60,93.14,160.00,7.00,0.04,29.55,M,9.00,M,FEW,SCT,BKN,M,900.00,1700.00,2200.00,M,-RA,M,M,M,M,M,M,31.36,KHND 251934Z 16007KT 9SM -RA FEW009 SCT017 BKN022 03/02 A2955 RMK AO2 WSHFT 1843 P0004,M
BVU,2021-01-25 19:35,-114.8611,35.9475,671.00,39.20,37.40,93.19,220.00,14.00,0.00,29.55,M,2.00,M,SCT,SCT,OVC,M,400.00,900.00,1500.00,M,-RA,M,M,M,M,M,M,30.44,KBVU 251935Z AUTO 22014KT 2SM -RA SCT004 SCT009 OVC015 04/03 A2955 RMK AO2,M
VGT,2021-01-25 19:35,-115.1933,36.2111,667.00,41.00,35.00,79.34,140.00,12.00,0.08,29.50,M,4.00,M,BKN,OVC,M,M,1300.00,2000.00,M,M,RA,M,M,M,M,M,M,33.46,KVGT 251935Z 14012KT 4SM RA BKN013 OVC020 05/02 A2950 RMK AO2 P0008 T00500017,M
TMT,2021-01-25 19:35,-117.1971,39.4643,1749.34,23.40,22.60,96.69,0.00,0.00,0.00,29.54,M,5.00,M,M,M,M,M,M,M,M,M,BR,M,M,M,M,M,M,23.40,KTMT 251935Z AUTO 00000KT 5SM BR M05/M05 A2954 RMK AO2 T10481052,M
BAM,2021-01-25 19:35,-116.8743,40.5990,1382.36,26.60,26.60,100.00,340.00,4.00,0.00,29.60,M,10.00,M,OVC,M,M,M,4500.00,M,M,M,M,M,M,M,M,M,M,21.11,KBAM 251935Z AUTO 34004KT 10SM OVC045 M03/M03 A2960 RMK AO1,M
RTS,2021-01-25 19:35,-119.8764,39.6682,1539.00,24.80,17.60,73.70,340.00,11.00,0.00,29.64,M,1.50,M,CLR,M,M,M,M,M,M,M,-SN,M,M,M,M,M,M,13.37,KRTS 251935Z AUTO 34011KT 1 1/2SM -SN CLR M04/M08 A2964 RMK AO2,M
HTH,2021-01-25 19:35,-118.6315,38.5448,1282.89,33.80,23.00,64.23,360.00,19.00,0.00,29.58,M,10.00,29.00,CLR,M,M,M,M,M,M,M,M,M,M,M,M,M,M,21.82,KHTH 251935Z AUTO 36019G29KT 10SM CLR 01/M05 A2958 RMK A01,M
CXP,2021-01-25 19:35,-119.7326,39.1923,1431.00,32.00,19.40,59.27,360.00,9.00,0.00,29.62,M,10.00,17.00,SCT,OVC,M,M,5000.00,5500.00,M,M,M,M,M,M,M,M,M,23.51,KCXP 251935Z AUTO 36009G17KT 10SM SCT050 OVC055 00/M07 A2962 RMK AO2,M
MEV,2021-01-25 19:35,-119.7500,38.9963,1441.42,30.20,21.20,68.83,350.00,17.00,0.00,29.61,M,10.00,M,FEW,BKN,OVC,M,3600.00,4800.00,5500.00,M,M,M,M,M,M,M,M,17.72,KMEV 251935Z AUTO 35017KT 10SM FEW036 BKN048 OVC055 M01/M06 A2961 RMK AO2,M
LSV,2021-01-25 19:36,-115.0343,36.2362,570.00,42.80,42.80,100.00,0.00,0.00,0.00,29.53,999.80,10.00,M,BKN,M,M,M,2000.00,M,M,M,-RA,M,M,M,M,M,M,42.80,KLSV 251936Z AUTO 00000KT 10SM -RA BKN020 06/06 A2953 RMK AO2 BKN V SCT SLP998 $,M
WMC,2021-01-25 19:37,-117.8072,40.9019,1315.00,30.90,21.90,68.91,30.00,7.00,0.00,29.60,M,10.00,M,BKN,OVC,M,M,2600.00,3400.00,M,M,M,M,M,M,M,M,M,23.44,KWMC 251937Z AUTO 03007KT 10SM BKN026 OVC034 M01/M06 A2960 RMK AO2 T10061056,M
INS,2021-01-25 19:38,-115.6733,36.5872,955.00,39.20,35.60,86.79,110.00,11.00,0.00,29.48,997.90,10.00,M,FEW,SCT,M,M,2400.00,4700.00,M,M,M,M,M,M,M,M,M,31.57,KINS 251938Z AUTO 11011KT 10SM FEW024 SCT047 04/02 A2948 RMK AO2 SLP979 $,M
LSV,2021-01-25 19:39,-115.0343,36.2362,570.00,42.80,42.80,100.00,210.00,3.00,0.00,29.53,999.80,9.00,M,BKN,BKN,M,M,1800.00,2300.00,M,M,-RA,M,M,M,M,M,M,41.03,KLSV 251939Z AUTO 21003KT 9SM -RA BKN018 BKN023 06/06 A2953 RMK AO2 CIG 018V022 BKN018 V SCT SLP998 $,M
DRA,2021-01-25 19:42,-116.0278,36.6206,1009.00,36.00,34.00,92.35,260.00,8.00,0.01,29.50,M,8.00,M,BKN,OVC,M,M,800.00,1300.00,M,M,UP,M,M,M,M,M,M,29.04,KDRA 251942Z AUTO 26008KT 8SM UP BKN008 OVC013 02/01 A2950 RMK AO2 RAB03E41UPB41 CIG 005V010 P0001 T00220011,M
INS,2021-01-25 19:43,-115.6733,36.5872,955.00,39.20,35.60,86.79,110.00,9.00,0.00,29.47,997.50,10.00,M,FEW,FEW,SCT,BKN,2000.00,2600.00,3500.00,4400.00,M,M,M,M,M,M,M,32.47,KINS 251943Z AUTO 11009KT 10SM FEW020 FEW026 SCT035 BKN044 04/02 A2947 RMK AO2 SLP975 $,M
LAS,2021-01-25 19:46,-115.1634,36.0719,663.00,38.00,36.00,92.78,170.00,9.00,0.08,29.52,M,10.00,M,FEW,BKN,OVC,M,2000.00,3200.00,7500.00,M,M,M,M,M,M,M,M,30.85,KLAS 251946Z 17009KT 10SM FEW020 BKN032 OVC075 03/02 A2952 RMK AO2 RAE45 P0008 T00330022,M
DRA,2021-01-25 19:47,-116.0278,36.6206,1009.00,34.00,33.00,96.46,260.00,6.00,0.01,29.50,M,1.75,M,BKN,OVC,M,M,600.00,1100.00,M,M,-SN BR,M,M,M,M,M,M,27.94,KDRA 251947Z AUTO 26006KT 1 3/4SM -SN BR BKN006 OVC011 01/01 A2950 RMK AO2 RAB03E41UPB41E43SNB43 P0001 T00110006,M
INS,2021-01-25 19:48,-115.6733,36.5872,955.00,39.20,35.60,86.79,120.00,7.00,0.00,29.47,997.50,10.00,M,FEW,FEW,SCT,M,2100.00,2900.00,3500.00,M,M,M,M,M,M,M,M,33.56,KINS 251948Z AUTO 12007KT 10SM FEW021 FEW029 SCT035 04/02 A2947 RMK AO2 SLP975 $,M
05U,2021-01-25 19:50,-116.0051,39.6042,1811.23,26.60,17.60,68.40,40.00,4.00,0.00,29.52,M,10.00,M,M,M,M,M,M,M,M,M,M,M,M,M,M,M,M,21.11,K05U 251950Z AUTO 04004KT 10SM M03/M08 A2952 RMK A01,M
DRA,2021-01-25 19:51,-116.0278,36.6206,1009.00,33.00,33.00,100.00,270.00,5.00,0.02,29.50,998.10,0.75,M,BKN,OVC,M,M,600.00,1100.00,M,M,-SN BR,M,M,M,M,M,M,27.70,KDRA 251951Z AUTO 27005KT 3/4SM -SN BR BKN006 OVC011 01/01 A2950 RMK AO2 RAB03E41UPB41E43SNB43 SLP981 P0002 T00060006,M
P68,2021-01-25 19:53,-116.0056,39.6014,1993.00,26.10,18.00,71.04,40.00,5.00,0.00,29.50,1001.20,M,M,M,M,M,M,M,M,M,M,M,M,M,M,M,M,M,19.39,KP68 251953Z AUTO 04005KT M03/M08 A2950 RMK AO1 SLP012 T10331078,M
VGT,2021-01-25 19:53,-115.1933,36.2111,667.00,40.00,34.00,79.25,170.00,9.00,0.09,29.48,1000.10,10.00,M,SCT,BKN,OVC,M,1300.00,3100.00,3800.00,M,-RA,M,M,M,M,M,M,33.34,KVGT 251953Z 17009KT 10SM -RA SCT013 BKN031 OVC038 04/01 A2948 RMK AO2 SLP001 P0009 T00440011,M
ELY,2021-01-25 19:53,-114.8453,39.2950,1909.00,25.00,21.00,84.53,30.00,10.00,0.01,29.49,999.90,2.00,M,FEW,BKN,OVC,M,800.00,2600.00,3500.00,M,-SN BR,M,M,M,M,M,M,14.19,KELY 251953Z AUTO 03010KT 2SM -SN BR FEW008 BKN026 OVC035 M04/M06 A2949 RMK AO2 SNE30B41 SLP999 P0001 T10391061,M
LOL,2021-01-25 19:53,-118.5701,40.0684,1192.43,32.00,28.00,84.98,30.00,8.00,T,29.60,1003.60,2.50,M,SCT,SCT,OVC,M,1600.00,3100.00,4300.00,M,-SN BR,M,M,M,M,M,M,24.11,KLOL 251953Z AUTO 03008KT 2 1/2SM -SN BR SCT016 SCT031 OVC043 00/M02 A2960 RMK AO2 SLP036 P0000 T00001022,M
BVU,2021-01-25 19:55,-114.8611,35.9475,671.00,39.20,37.40,93.19,190.00,8.00,0.00,29.54,M,4.00,14.00,FEW,SCT,BKN,M,400.00,1600.00,2200.00,M,-RA,M,M,M,M,M,M,32.98,KBVU 251955Z AUTO 19008G14KT 4SM -RA FEW004 SCT016 BKN022 04/03 A2954 RMK AO2,M
CXP,2021-01-25 19:55,-119.7326,39.1923,1431.00,32.00,19.40,59.27,360.00,9.00,0.00,29.61,M,10.00,20.00,BKN,OVC,M,M,5500.00,6500.00,M,M,M,M,M,M,M,M,M,23.51,KCXP 251955Z AUTO 36009G20KT 10SM BKN055 OVC065 00/M07 A2961 RMK AO2,M
RNO,2021-01-25 19:55,-119.7711,39.4839,1341.00,28.00,23.00,81.25,350.00,8.00,0.01,29.64,1004.60,3.00,M,BKN,OVC,M,M,1800.00,3200.00,M,M,-SN,M,M,M,M,M,M,19.19,KRNO 251955Z 35008KT 3SM -SN BKN018 OVC032 M02/M05 A2964 RMK AO2 SLP046 P0001 T10221050 $,M
BAM,2021-01-25 19:55,-116.8743,40.5990,1382.36,28.40,26.60,92.86,320.00,5.00,0.00,29.60,M,10.00,M,OVC,M,M,M,4500.00,M,M,M,M,M,M,M,M,M,M,22.12,KBAM 251955Z AUTO 32005KT 10SM OVC045 M02/M03 A2960 RMK AO1,M
TMT,2021-01-25 19:55,-117.1971,39.4643,1749.34,23.70,23.00,97.11,0.00,0.00,0.00,29.53,M,5.00,M,M,M,M,M,M,M,M,M,BR,M,M,M,M,M,M,23.70,KTMT 251955Z AUTO 00000KT 5SM BR M05/M05 A2953 RMK AO2 T10461050,M
HTH,2021-01-25 19:55,-118.6315,38.5448,1282.89,33.80,23.00,64.23,10.00,21.00,0.00,29.57,M,10.00,28.00,CLR,M,M,M,M,M,M,M,M,M,M,M,M,M,M,21.25,KHTH 251955Z AUTO 01021G28KT 10SM CLR 01/M05 A2957 RMK A01,M
RTS,2021-01-25 19:55,-119.8764,39.6682,1539.00,26.60,17.60,68.40,330.00,8.00,0.00,29.64,M,1.25,M,CLR,M,M,M,M,M,M,M,-SN,M,M,M,M,M,M,17.46,KRTS 251955Z AUTO 33008KT 1 1/4SM -SN CLR M03/M08 A2964 RMK AO2,M
MEV,2021-01-25 19:55,-119.7500,38.9963,1441.42,30.20,21.20,68.83,360.00,15.00,0.00,29.60,M,10.00,M,FEW,OVC,M,M,3700.00,4600.00,M,M,M,M,M,M,M,M,M,18.45,KMEV 251955Z AUTO 36015KT 10SM FEW037 OVC046 M01/M06 A2960 RMK AO2,M
WMC,2021-01-25 19:56,-117.8072,40.9019,1315.00,30.90,21.90,68.91,20.00,7.00,0.00,29.59,1003.60,10.00,M,FEW,BKN,OVC,M,1500.00,2500.00,6000.00,M,M,M,M,M,M,M,M,23.44,KWMC 251956Z AUTO 02007KT 10SM FEW015 BKN025 OVC060 M01/M06 A2959 RMK AO2 SLP036 T10061056,M
EKO,2021-01-25 19:56,-115.7860,40.8242,1367.00,32.00,19.00,58.27,0.00,0.00,0.00,29.53,1002.50,10.00,M,CLR,M,M,M,M,M,M,M,M,M,M,M,M,M,M,32.00,KEKO 251956Z AUTO 00000KT 10SM CLR 00/M07 A2953 RMK AO2 SLP025 T00001072,M
INS,2021-01-25 19:56,-115.6733,36.5872,955.00,39.20,35.60,86.79,110.00,9.00,0.00,29.47,997.50,10.00,M,FEW,SCT,SCT,M,1000.00,2400.00,3500.00,M,M,M,M,M,M,M,M,32.47,KINS 251956Z AUTO 11009KT 10SM FEW010 SCT024 SCT035 04/02 A2947 RMK AO2 SLP975 $,M
TPH,2021-01-25 19:56,-117.0904,38.0505,1654.00,30.00,28.00,92.15,10.00,5.00,0.01,29.48,999.20,1.50,M,BKN,OVC,M,M,1800.00,2600.00,M,M,-SN BR,M,M,M,M,M,M,24.02,KTPH 251956Z AUTO 01005KT 1 1/2SM -SN BR BKN018 OVC026 M01/M02 A2948 RMK AO2 SLP992 P0001 T10111022,M
NFL,2021-01-25 19:56,-118.7010,39.4166,1199.00,30.00,27.00,88.44,320.00,16.00,T,29.59,1000.70,1.00,M,BKN,OVC,M,M,1000.00,1500.00,M,M,-SN BR,M,M,M,M,M,M,17.81,KNFL 251956Z 32016KT 1SM -SN BR BKN010 OVC015 M01/M03 A2959 RMK AO2 SLP007 P0000 T10111028,M
LAS,2021-01-25 19:56,-115.1634,36.0719,663.00,39.00,36.00,88.87,170.00,4.00,0.08,29.52,999.60,10.00,M,SCT,SCT,M,M,3600.00,7500.00,M,M,M,M,M,M,M,M,M,35.59,KLAS 251956Z 17004KT 10SM SCT036 SCT075 04/02 A2952 RMK AO2 RAE45 SLP996 P0008 T00390022,M
HND,2021-01-25 19:56,-115.1344,35.9729,742.79,41.00,35.00,79.34,200.00,14.00,0.04,29.53,1001.80,9.00,M,FEW,BKN,M,M,3300.00,4500.00,M,M,M,M,M,M,M,M,M,32.76,KHND 251956Z 20014KT 9SM FEW033 BKN045 05/02 A2953 RMK AO2 WSHFT 1843 RAE44 SLP018 P0004 T00500017,M
INS,2021-01-25 19:58,-115.6733,36.5872,955.00,38.70,35.40,87.81,110.00,10.00,0.00,29.47,997.50,10.00,M,FEW,FEW,SCT,M,1000.00,2400.00,3500.00,M,M,M,M,M,M,M,M,31.37,KINS 251958Z AUTO 11010KT 10SM FEW010 FEW024 SCT035 04/02 A2947 RMK AO2 SLP975 T00370019 $,M
LSV,2021-01-25 19:58,-115.0343,36.2362,570.00,38.80,38.80,100.00,200.00,6.00,0.02,29.52,999.60,6.00,M,BKN,M,M,M,1600.00,M,M,M,-RA BR,M,M,M,M,M,M,33.72,KLSV 251958Z COR 20006KT 6SM -RA BR BKN016 04/04 A2952 RMK AO2A SLP996 P0002 T00380038 $ COR 2002,M
ELY,2021-01-25 19:59,-114.8453,39.2950,1909.00,25.00,21.00,84.53,30.00,11.00,T,29.49,M,1.25,M,FEW,BKN,OVC,M,800.00,2600.00,3700.00,M,-SN BR,M,M,M,M,M,M,13.62,KELY 251959Z AUTO 03011KT 1 1/4SM -SN BR FEW008 BKN026 OVC037 M04/M06 A2949 RMK AO2 P0000 T10391061,M
DRA,2021-01-25 19:59,-116.0278,36.6206,1009.00,32.00,32.00,100.00,260.00,6.00,0.04,29.49,M,0.25,M,BKN,OVC,M,M,600.00,1100.00,M,M,SN FG,M,M,M,M,M,M,25.53,KDRA 251959Z AUTO 26006KT 1/4SM SN FG BKN006 OVC011 00/00 A2949 RMK AO2 P0004 T00000000,M
INS,2021-01-25 20:03,-115.6733,36.5872,955.00,39.20,35.60,86.79,110.00,10.00,0.00,29.46,997.20,10.00,M,SCT,SCT,BKN,BKN,1000.00,2100.00,2800.00,3500.00,M,M,M,M,M,M,M,32.00,KINS 252003Z AUTO 11010KT 10SM SCT010 SCT021 BKN028 BKN035 04/02 A2946 RMK AO2 BKN028 V SCT SLP972 $,M
LOL,2021-01-25 20:04,-118.5701,40.0684,1192.43,32.00,28.00,84.98,30.00,6.00,T,29.59,M,1.25,M,FEW,BKN,OVC,M,1800.00,2900.00,4500.00,M,-SN BR,M,M,M,M,M,M,25.53,KLOL 252004Z AUTO 03006KT 1 1/4SM -SN BR FEW018 BKN029 OVC045 00/M02 A2959 RMK AO2 P0000 T00001022,M
DRA,2021-01-25 20:06,-116.0278,36.6206,1009.00,32.00,32.00,100.00,250.00,7.00,0.07,29.48,M,0.50,M,VV ,M,M,M,700.00,M,M,M,SN FG,M,M,M,M,M,M,24.78,KDRA 252006Z AUTO 25007KT 1/2SM SN FG VV007 00/00 A2948 RMK AO2 P0007 T00000000,M
INS,2021-01-25 20:08,-115.6733,36.5872,955.00,39.20,35.60,86.79,120.00,10.00,0.00,29.46,997.20,10.00,M,SCT,SCT,BKN,M,1000.00,2700.00,3500.00,M,M,M,M,M,M,M,M,32.00,KINS 252008Z AUTO 12010KT 10SM SCT010 SCT027 BKN035 04/02 A2946 RMK AO2 SLP972 $,M
TPH,2021-01-25 20:08,-117.0904,38.0505,1654.00,30.00,27.00,88.44,360.00,6.00,T,29.47,M,2.50,M,BKN,BKN,OVC,M,2200.00,2800.00,3600.00,M,-SN BR,M,M,M,M,M,M,23.12,KTPH 252008Z AUTO 36006KT 2 1/2SM -SN BR BKN022 BKN028 OVC036 M01/M03 A2947 RMK AO2 P0000 T10111028,M
05U,2021-01-25 20:10,-116.0051,39.6042,1811.23,26.60,17.60,68.40,50.00,4.00,0.00,29.51,M,10.00,M,M,M,M,M,M,M,M,M,M,M,M,M,M,M,M,21.11,K05U 252010Z AUTO 05004KT 10SM M03/M08 A2951 RMK A01,M
ELY,2021-01-25 20:12,-114.8453,39.2950,1909.00,27.00,21.90,80.83,10.00,10.00,T,29.48,M,2.00,M,BKN,OVC,M,M,2900.00,3800.00,M,M,-SN,M,M,M,M,M,M,16.70,KELY 252012Z AUTO 01010KT 2SM -SN BKN029 OVC038 M03/M06 A2948 RMK AO2 P0000 T10281056,M
LSV,2021-01-25 20:13,-115.0343,36.2362,570.00,39.20,39.20,100.00,140.00,4.00,0.00,29.51,999.30,9.00,M,SCT,SCT,M,M,1800.00,18000.00,M,M,-RA,M,M,M,M,M,M,35.83,KLSV 252013Z AUTO 14004KT 9SM -RA SCT018 SCT180 04/04 A2951 RMK AO2 SLP993 $,M
HTH,2021-01-25 20:15,-118.6315,38.5448,1282.89,33.80,23.00,64.23,360.00,22.00,0.00,29.56,M,10.00,28.00,CLR,M,M,M,M,M,M,M,M,M,M,M,M,M,M,20.99,KHTH 252015Z AUTO 36022G28KT 10SM CLR 01/M05 A2956 RMK A01,M
BAM,2021-01-25 20:15,-116.8743,40.5990,1382.36,28.40,24.80,86.18,310.00,5.00,0.00,29.59,M,10.00,M,SCT,OVC,M,M,700.00,4500.00,M,M,M,M,M,M,M,M,M,22.12,KBAM 252015Z AUTO 31005KT 10SM SCT007 OVC045 M02/M04 A2959 RMK AO1,M
MEV,2021-01-25 20:15,-119.7500,38.9963,1441.42,30.20,21.20,68.83,350.00,17.00,0.00,29.60,M,8.00,M,FEW,BKN,OVC,M,3900.00,4600.00,6000.00,M,UP,M,M,M,M,M,M,17.72,KMEV 252015Z AUTO 35017KT 8SM UP FEW039 BKN046 OVC060 M01/M06 A2960 RMK AO2,M
RTS,2021-01-25 20:15,-119.8764,39.6682,1539.00,26.60,17.60,68.40,340.00,11.00,0.00,29.63,M,2.00,M,CLR,M,M,M,M,M,M,M,-SN,M,M,M,M,M,M,15.64,KRTS 252015Z AUTO 34011KT 2SM -SN CLR M03/M08 A2963 RMK AO2,M
CXP,2021-01-25 20:15,-119.7326,39.1923,1431.00,32.00,19.40,59.27,360.00,15.00,0.00,29.61,M,10.00,23.00,FEW,BKN,OVC,M,5000.00,6500.00,9000.00,M,M,M,M,M,M,M,M,20.78,KCXP 252015Z AUTO 36015G23KT 10SM FEW050 BKN065 OVC090 00/M07 A2961 RMK AO2,M
BVU,2021-01-25 20:15,-114.8611,35.9475,671.00,41.00,37.40,86.89,180.00,6.00,0.00,29.53,M,10.00,M,SCT,BKN,BKN,M,3600.00,5500.00,10000.00,M,M,M,M,M,M,M,M,36.37,KBVU 252015Z AUTO 18006KT 10SM SCT036 BKN055 BKN100 05/03 A2953 RMK AO2,M
TPH,2021-01-25 20:15,-117.0904,38.0505,1654.00,30.00,28.00,92.15,360.00,5.00,T,29.47,M,5.00,M,BKN,OVC,M,M,2600.00,3500.00,M,M,-SN BR,M,M,M,M,M,M,24.02,KTPH 252015Z AUTO 36005KT 5SM -SN BR BKN026 OVC035 M01/M02 A2947 RMK AO2 P0000 T10111022,M
TMT,2021-01-25 20:15,-117.1971,39.4643,1749.34,24.60,23.70,96.31,0.00,0.00,0.00,29.52,M,5.00,M,M,M,M,M,M,M,M,M,-SN,M,M,M,M,M,M,24.60,KTMT 252015Z AUTO 00000KT 5SM -SN M04/M05 A2952 RMK AO2 T10411046,M
INS,2021-01-25 20:16,-115.6733,36.5872,955.00,39.20,35.60,86.79,120.00,9.00,0.00,29.46,997.20,10.00,M,FEW,SCT,SCT,SCT,1000.00,1500.00,2600.00,15000.00,M,M,M,M,M,M,M,32.47,KINS 252016Z AUTO 12009KT 10SM FEW010 SCT015 SCT026 SCT150 04/02 A2946 RMK AO2 SLP972 $,M
ELY,2021-01-25 20:17,-114.8453,39.2950,1909.00,26.10,21.00,80.75,20.00,9.00,T,29.48,M,3.00,M,FEW,BKN,OVC,M,900.00,3000.00,3700.00,M,-SN,M,M,M,M,M,M,16.18,KELY 252017Z AUTO 02009KT 3SM -SN FEW009 BKN030 OVC037 M03/M06 A2948 RMK AO2 P0000 T10331061,M
LOL,2021-01-25 20:19,-118.5701,40.0684,1192.43,32.00,28.90,88.17,20.00,7.00,T,29.59,M,0.75,M,FEW,BKN,OVC,M,1600.00,2100.00,3800.00,M,-SN BR,M,M,M,M,M,M,24.78,KLOL 252019Z AUTO 02007KT 3/4SM -SN BR FEW016 BKN021 OVC038 00/M02 A2959 RMK AO2 P0000 T00001017,M
LSV,2021-01-25 20:22,-115.0343,36.2362,570.00,39.20,39.20,100.00,150.00,4.00,0.00,29.51,999.30,10.00,M,SCT,SCT,M,M,1800.00,18000.00,M,M,M,M,M,M,M,M,M,35.83,KLSV 252022Z AUTO 15004KT 10SM SCT018 SCT180 04/04 A2951 RMK AO2 RAE22 SLP993 $,M
DRA,2021-01-25 20:25,-116.0278,36.6206,1009.00,32.00,32.00,100.00,260.00,7.00,0.10,29.47,M,0.50,M,VV ,M,M,M,500.00,M,M,M,SN FG,M,M,M,M,M,M,24.78,KDRA 252025Z AUTO 26007KT 1/2SM SN FG VV005 00/00 A2947 RMK AO2 P0010 T00000000,M
INS,2021-01-25 20:26,-115.6733,36.5872,955.00,37.40,35.60,93.14,100.00,11.00,0.00,29.45,996.90,10.00,M,SCT,M,M,M,1000.00,M,M,M,-RA,M,M,M,M,M,M,29.29,KINS 252026Z AUTO 10011KT 10SM -RA SCT010 03/02 A2945 RMK AO2 RAB26 SLP969 $,M
ELY,2021-01-25 20:27,-114.8453,39.2950,1909.00,27.00,21.00,77.80,20.00,12.00,T,29.47,M,5.00,M,BKN,OVC,M,M,2500.00,3300.00,M,M,HZ,M,M,M,M,M,M,15.64,KELY 252027Z AUTO 02012KT 5SM HZ BKN025 OVC033 M03/M06 A2947 RMK AO2 SNE22 P0000 T10281061,M
LSV,2021-01-25 20:27,-115.0343,36.2362,570.00,39.20,39.20,100.00,140.00,3.00,0.00,29.51,M,10.00,M,SCT,SCT,M,M,1800.00,18000.00,M,M,-RA,M,M,M,M,M,M,36.92,KLSV 252027Z 14003KT 10SM -RA SCT018 SCT180 04/04 A2951 RMK AO2A SLPNO,M
LOL,2021-01-25 20:30,-118.5701,40.0684,1192.43,32.00,28.90,88.17,10.00,7.00,T,29.59,M,0.75,M,FEW,BKN,OVC,M,600.00,1800.00,2800.00,M,-SN BR,M,M,M,M,M,M,24.78,KLOL 252030Z AUTO 01007KT 3/4SM -SN BR FEW006 BKN018 OVC028 00/M02 A2959 RMK AO2 P0000 T00001017,M
05U,2021-01-25 20:30,-116.0051,39.6042,1811.23,26.60,17.60,68.40,0.00,0.00,0.00,29.51,M,10.00,M,M,M,M,M,M,M,M,M,M,M,M,M,M,M,M,26.60,K05U 252030Z AUTO 00000KT 10SM M03/M08 A2951 RMK A01,M
TPH,2021-01-25 20:31,-117.0904,38.0505,1654.00,30.00,28.00,92.15,360.00,4.00,T,29.46,M,3.00,M,BKN,OVC,M,M,3000.00,3700.00,M,M,-SN BR,M,M,M,M,M,M,25.08,KTPH 252031Z AUTO 36004KT 3SM -SN BR BKN030 OVC037 M01/M02 A2946 RMK AO2 P0000 T10111022,M
TPH,2021-01-25 20:33,-117.0904,38.0505,1654.00,30.00,28.00,92.15,360.00,4.00,T,29.46,M,2.50,M,BKN,OVC,M,M,2700.00,3300.00,M,M,-SN BR,M,M,M,M,M,M,25.08,KTPH 252033Z AUTO 36004KT 2 1/2SM -SN BR BKN027 OVC033 M01/M02 A2946 RMK AO2 P0000 T10111022,M
MEV,2021-01-25 20:35,-119.7500,38.9963,1441.42,30.20,21.20,68.83,350.00,18.00,0.00,29.59,M,10.00,M,FEW,BKN,OVC,M,3700.00,5000.00,6000.00,M,UP,M,M,M,M,M,M,17.38,KMEV 252035Z AUTO 35018KT 10SM UP FEW037 BKN050 OVC060 M01/M06 A2959 RMK AO2,M
VGT,2021-01-25 20:35,-115.1933,36.2111,667.00,41.00,35.00,79.34,190.00,3.00,T,29.46,M,10.00,M,BKN,M,M,M,1400.00,M,M,M,M,M,M,M,M,M,M,38.98,KVGT 252035Z 19003KT 10SM BKN014 05/02 A2946 RMK AO2 RAE02 P0000 T00500017,M
BVU,2021-01-25 20:35,-114.8611,35.9475,671.00,41.00,37.40,86.89,220.00,8.00,0.00,29.52,M,10.00,M,SCT,BKN,BKN,M,1300.00,3700.00,5500.00,M,M,M,M,M,M,M,M,35.20,KBVU 252035Z AUTO 22008KT 10SM SCT013 BKN037 BKN055 05/03 A2952 RMK AO2,M
HTH,2021-01-25 20:35,-118.6315,38.5448,1282.89,33.80,23.00,64.23,360.00,23.00,0.00,29.56,M,10.00,29.00,FEW,FEW,M,M,3800.00,4400.00,M,M,M,M,M,M,M,M,M,20.73,KHTH 252035Z AUTO 36023G29KT 10SM FEW038 FEW044 01/M05 A2956 RMK A01,M
RTS,2021-01-25 20:35,-119.8764,39.6682,1539.00,26.60,17.60,68.40,330.00,9.00,0.00,29.62,M,2.50,M,CLR,M,M,M,M,M,M,M,-SN,M,M,M,M,M,M,16.80,KRTS 252035Z AUTO 33009KT 2 1/2SM -SN CLR M03/M08 A2962 RMK AO2,M
TMT,2021-01-25 20:35,-117.1971,39.4643,1749.34,24.80,24.10,97.12,60.00,3.00,0.00,29.52,M,10.00,M,M,M,M,M,M,M,M,M,M,M,M,M,M,M,M,20.46,KTMT 252035Z AUTO 06003KT 10SM M04/M04 A2952 RMK AO2 T10401044,M
LSV,2021-01-25 20:35,-115.0343,36.2362,570.00,39.20,M,M,80.00,4.00,0.00,29.50,998.90,10.00,M,FEW,SCT,M,M,2100.00,18000.00,M,M,M,M,M,M,M,M,M,M,KLSV 252035Z AUTO 08004KT 10SM FEW021 SCT180 04/ A2950 RMK AO2 RAE23 SLP989 $,M
CXP,2021-01-25 20:35,-119.7326,39.1923,1431.00,33.80,17.60,51.04,40.00,12.00,0.00,29.60,M,10.00,17.00,OVC,M,M,M,6000.00,M,M,M,M,M,M,M,M,M,M,24.29,KCXP 252035Z AUTO 04012G17KT 10SM OVC060 01/M08 A2960 RMK AO2,M
INS,2021-01-25 20:36,-115.6733,36.5872,955.00,37.40,35.60,93.14,120.00,9.00,0.00,29.45,996.90,9.00,M,FEW,FEW,SCT,BKN,1000.00,1500.00,2000.00,2700.00,-RA,M,M,M,M,M,M,30.23,KINS 252036Z AUTO 12009KT 9SM -RA FEW010 FEW015 SCT020 BKN027 03/02 A2945 RMK AO2 RAB26 SLP969 $,M
NFL,2021-01-25 20:39,-118.7010,39.4166,1199.00,30.00,26.10,85.21,310.00,15.00,T,29.59,M,2.00,M,BKN,OVC,M,M,1200.00,2000.00,M,M,-SN BR,M,M,M,M,M,M,18.19,KNFL 252039Z 31015KT 2SM -SN BR BKN012 OVC020 M01/M03 A2959 RMK AO2 P0000 T10111033,M
DRA,2021-01-25 20:39,-116.0278,36.6206,1009.00,32.00,32.00,100.00,250.00,7.00,0.14,29.47,M,0.50,M,VV ,M,M,M,300.00,M,M,M,SN FG,M,M,M,M,M,M,24.78,KDRA 252039Z AUTO 25007KT 1/2SM SN FG VV003 00/00 A2947 RMK AO2 P0014 T00000000,M
BAM,2021-01-25 20:40,-116.8743,40.5990,1382.36,28.40,24.80,86.18,320.00,4.00,0.00,29.58,M,10.00,M,SCT,OVC,M,M,700.00,4700.00,M,M,M,M,M,M,M,M,M,23.22,KBAM 252040Z AUTO 32004KT 10SM SCT007 OVC047 M02/M04 A2958 RMK AO1,M
ELY,2021-01-25 20:42,-114.8453,39.2950,1909.00,28.40,21.20,74.08,20.00,11.00,0.00,29.47,M,10.00,M,BKN,OVC,M,M,3300.00,4400.00,M,M,M,M,M,M,M,M,M,17.92,KELY 252042Z AUTO 02011KT 10SM BKN033 OVC044 M02/M06 A2947,M
INS,2021-01-25 20:43,-115.6733,36.5872,955.00,37.40,35.60,93.14,220.00,7.00,0.00,29.45,996.90,4.00,M,FEW,BKN,M,M,1000.00,2100.00,M,M,-RA,M,M,M,M,M,M,31.36,KINS 252043Z AUTO 22007KT 4SM -RA FEW010 BKN021 03/02 A2945 RMK AO2 RAB26 SLP969 $,M
VGT,2021-01-25 20:45,-115.1933,36.2111,667.00,42.00,36.00,78.80,170.00,4.00,T,29.45,M,10.00,M,SCT,M,M,M,1400.00,M,M,M,M,M,M,M,M,M,M,39.21,KVGT 252045Z 17004KT 10SM SCT014 06/02 A2945 RMK AO2 RAE02 P0000 T00560022,M
LOL,2021-01-25 20:46,-118.5701,40.0684,1192.43,32.00,28.90,88.17,360.00,5.00,T,29.58,M,1.25,M,BKN,OVC,M,M,1800.00,2700.00,M,M,-SN BR,M,M,M,M,M,M,26.40,KLOL 252046Z AUTO 36005KT 1 1/4SM -SN BR BKN018 OVC027 00/M02 A2958 RMK AO2 P0000 T00001017,M
WMC,2021-01-25 20:47,-117.8072,40.9019,1315.00,32.00,23.00,69.04,40.00,10.00,T,29.57,M,10.00,M,FEW,BKN,OVC,M,2200.00,3500.00,5500.00,M,M,M,M,M,M,M,M,22.97,KWMC 252047Z AUTO 04010KT 10SM FEW022 BKN035 OVC055 00/M05 A2957 RMK AO2 SNB14E29 P0000 T00001050,M
INS,2021-01-25 20:48,-115.6733,36.5872,955.00,37.40,35.60,93.14,230.00,9.00,0.00,29.45,996.90,4.00,M,FEW,BKN,M,M,1000.00,2100.00,M,M,-RA,M,M,M,M,M,M,30.23,KINS 252048Z AUTO 23009KT 4SM -RA FEW010 BKN021 03/02 A2945 RMK AO2 RAB26 SLP969 $,M
TPH,2021-01-25 20:49,-117.0904,38.0505,1654.00,30.00,27.00,88.44,360.00,4.00,T,29.46,M,1.25,M,BKN,BKN,OVC,M,1900.00,2600.00,3100.00,M,-SN BR,M,M,M,M,M,M,25.08,KTPH 252049Z AUTO 36004KT 1 1/4SM -SN BR BKN019 BKN026 OVC031 M01/M03 A2946 RMK AO2 P0000 T10111028,M
05U,2021-01-25 20:50,-116.0051,39.6042,1811.23,26.60,17.60,68.40,0.00,0.00,0.00,29.50,M,10.00,M,M,M,M,M,M,M,M,M,M,M,M,M,M,M,M,26.60,K05U 252050Z AUTO 00000KT 10SM M03/M08 A2950 RMK A01,M
RNO,2021-01-25 20:51,-119.7711,39.4839,1341.00,28.40,23.00,79.92,360.00,13.00,T,29.62,M,8.00,M,FEW,BKN,OVC,M,1800.00,2800.00,4500.00,M,M,M,M,M,M,M,M,16.96,KRNO 252051Z 36013KT 8SM FEW018 BKN028 OVC045 M02/M05 A2962 RMK AO2 SNE50 P0000 $,M
LOL,2021-01-25 20:51,-118.5701,40.0684,1192.43,32.00,28.40,86.39,360.00,4.00,T,29.58,M,3.00,M,BKN,OVC,M,M,1800.00,2500.00,M,M,-SN BR,M,M,M,M,M,M,27.42,KLOL 252051Z AUTO 36004KT 3SM -SN BR BKN018 OVC025 00/M02 A2958 RMK AO2 P0000,M
DRA,2021-01-25 20:51,-116.0278,36.6206,1009.00,32.00,32.00,100.00,240.00,11.00,0.16,29.46,M,0.50,M,FEW,OVC,M,M,200.00,600.00,M,M,SN FG,M,M,M,M,M,M,22.47,KDRA 252051Z AUTO 24011KT 1/2SM SN FG FEW002 OVC006 00/00 A2946 RMK AO2 P0016,M
ELY,2021-01-25 20:53,-114.8453,39.2950,1909.00,28.00,21.90,77.57,30.00,12.00,T,29.46,998.50,10.00,M,FEW,OVC,M,M,3500.00,4500.00,M,M,M,M,M,M,M,M,M,16.91,KELY 252053Z AUTO 03012KT 10SM FEW035 OVC045 M02/M06 A2946 RMK AO2 SNE22 SLP985 P0000 60001 T10221056 58019,M
LOL,2021-01-25 20:53,-118.5701,40.0684,1192.43,32.00,28.90,88.17,360.00,5.00,T,29.58,1003.20,4.00,M,BKN,OVC,M,M,1800.00,2500.00,M,M,-SN BR,M,M,M,M,M,M,26.40,KLOL 252053Z AUTO 36005KT 4SM -SN BR BKN018 OVC025 00/M02 A2958 RMK AO2 SLP032 P0000 60000 T00001017 58005,M
INS,2021-01-25 20:53,-115.6733,36.5872,955.00,37.40,35.60,93.14,230.00,9.00,0.00,29.45,996.90,4.00,M,FEW,OVC,M,M,1000.00,1900.00,M,M,-RA,M,M,M,M,M,M,30.23,KINS 252053Z AUTO 23009KT 4SM -RA FEW010 OVC019 03/02 A2945 RMK AO2 RAB26 SLP969 $,M
VGT,2021-01-25 20:53,-115.1933,36.2111,667.00,43.00,36.00,76.12,100.00,7.00,T,29.45,999.00,10.00,M,SCT,SCT,BKN,M,1200.00,1700.00,2700.00,M,M,M,M,M,M,M,M,38.19,KVGT 252053Z 10007KT 10SM SCT012 SCT017 BKN027 06/02 A2945 RMK AO2 RAE02 SLP990 P0000 60019 T00610022 58025,M
DRA,2021-01-25 20:53,-116.0278,36.6206,1009.00,32.00,32.00,100.00,240.00,11.00,0.16,29.46,997.10,0.75,M,FEW,OVC,M,M,200.00,600.00,M,M,-SN BR,M,M,M,M,M,M,22.47,KDRA 252053Z AUTO 24011KT 3/4SM -SN BR FEW002 OVC006 00/00 A2946 RMK AO2 SLP971 P0016 60018 T00000000 56017,M
RNO,2021-01-25 20:55,-119.7711,39.4839,1341.00,28.90,23.00,78.30,350.00,13.00,T,29.62,1004.10,8.00,M,FEW,BKN,OVC,M,1800.00,2800.00,4700.00,M,M,M,M,M,M,M,M,17.60,KRNO 252055Z 35013KT 8SM FEW018 BKN028 OVC047 M02/M05 A2962 RMK AO2 SNE50 SLP041 P0000 60001 T10171050 56009 $,M
RTS,2021-01-25 20:55,-119.8764,39.6682,1539.00,24.80,17.60,73.70,340.00,12.00,0.00,29.62,M,5.00,M,CLR,M,M,M,M,M,M,M,-SN,M,M,M,M,M,M,12.84,KRTS 252055Z AUTO 34012KT 5SM -SN CLR M04/M08 A2962 RMK AO2,M
TMT,2021-01-25 20:55,-117.1971,39.4643,1749.34,25.50,24.80,97.13,90.00,3.00,0.00,29.52,M,10.00,M,M,M,M,M,M,M,M,M,M,M,M,M,M,M,M,21.26,KTMT 252055Z AUTO 09003KT 10SM M04/M04 A2952 RMK AO2 T10361040,M
MEV,2021-01-25 20:55,-119.7500,38.9963,1441.42,30.20,21.20,68.83,360.00,18.00,0.00,29.59,M,10.00,M,SCT,OVC,M,M,5000.00,6500.00,M,M,M,M,M,M,M,M,M,17.38,KMEV 252055Z AUTO 36018KT 10SM SCT050 OVC065 M01/M06 A2959 RMK AO2,M
CXP,2021-01-25 20:55,-119.7326,39.1923,1431.00,32.00,17.60,54.87,340.00,8.00,0.00,29.60,M,10.00,14.00,OVC,M,M,M,6000.00,M,M,M,M,M,M,M,M,M,M,24.11,KCXP 252055Z AUTO 34008G14KT 10SM OVC060 00/M08 A2960 RMK AO2,M
BAM,2021-01-25 20:55,-116.8743,40.5990,1382.36,28.40,24.80,86.18,330.00,4.00,0.00,29.58,M,10.00,M,SCT,OVC,M,M,700.00,4700.00,M,M,M,M,M,M,M,M,M,23.22,KBAM 252055Z AUTO 33004KT 10SM SCT007 OVC047 M02/M04 A2958 RMK AO1,M
HTH,2021-01-25 20:55,-118.6315,38.5448,1282.89,33.80,23.00,64.23,10.00,27.00,0.00,29.55,M,10.00,M,CLR,M,M,M,M,M,M,M,M,M,M,M,M,M,M,19.80,KHTH 252055Z AUTO 01027KT 10SM CLR 01/M05 A2955 RMK A01,M
BVU,2021-01-25 20:55,-114.8611,35.9475,671.00,41.00,35.60,80.93,230.00,6.00,0.00,29.51,M,10.00,M,FEW,BKN,BKN,M,1300.00,2200.00,2900.00,M,M,M,M,M,M,M,M,36.37,KBVU 252055Z AUTO 23006KT 10SM FEW013 BKN022 BKN029 05/02 A2951 RMK AO2,M
WMC,2021-01-25 20:56,-117.8072,40.9019,1315.00,30.90,23.00,72.18,30.00,10.00,T,29.57,1003.00,10.00,M,FEW,BKN,OVC,M,2600.00,4500.00,7000.00,M,M,M,M,M,M,M,M,21.59,KWMC 252056Z AUTO 03010KT 10SM FEW026 BKN045 OVC070 M01/M05 A2957 RMK AO2 SNB14E29 SLP030 P0000 60000 T10061050 58011,M
NFL,2021-01-25 20:56,-118.7010,39.4166,1199.00,30.00,26.10,85.21,310.00,15.00,T,29.59,1000.50,3.00,M,BKN,OVC,M,M,1200.00,2000.00,M,M,-SN BR,M,M,M,M,M,M,18.19,KNFL 252056Z 31015KT 3SM -SN BR BKN012 OVC020 M01/M03 A2959 RMK AO2 SLP005 PIRSLR// P0000 60000 T10111033 58002,M
LAS,2021-01-25 20:56,-115.1634,36.0719,663.00,44.00,33.00,65.02,210.00,11.00,0.00,29.48,998.20,10.00,19.00,FEW,SCT,BKN,M,2100.00,3100.00,6000.00,M,M,M,M,M,M,M,M,37.76,KLAS 252056Z 21011G19KT 10SM FEW021 SCT031 BKN060 07/01 A2948 RMK AO2 SLP982 60012 T00670006 58033,M
EKO,2021-01-25 20:56,-115.7860,40.8242,1367.00,34.00,19.00,53.77,110.00,5.00,0.00,29.52,1001.80,10.00,M,FEW,FEW,M,M,2700.00,12000.00,M,M,M,M,M,M,M,M,M,28.77,KEKO 252056Z AUTO 11005KT 10SM FEW027 FEW120 01/M07 A2952 RMK AO2 SLP018 T00111072 56021,M
HND,2021-01-25 20:56,-115.1344,35.9729,742.79,40.00,30.90,69.96,210.00,22.00,0.00,29.49,1000.80,10.00,27.00,SCT,BKN,M,M,1500.00,4500.00,M,M,M,M,M,M,27.00,200.00,2021-01-25 20:54,29.16,KHND 252056Z 21022G27KT 10SM SCT015 BKN045 04/M01 A2949 RMK AO2 PK WND 20027/2054 SLP008 60010 T00441006 58031,M
TPH,2021-01-25 20:56,-117.0904,38.0505,1654.00,30.00,27.00,88.44,360.00,3.00,T,29.46,998.60,1.00,M,BKN,OVC,M,M,1700.00,2400.00,M,M,-SN BR,M,M,M,M,M,M,26.40,KTPH 252056Z AUTO 36003KT 1SM -SN BR BKN017 OVC024 M01/M03 A2946 RMK AO2 SLP986 P0000 60001 T10111028 58015,M
INS,2021-01-25 20:58,-115.6733,36.5872,955.00,37.40,35.20,91.67,220.00,7.00,0.01,29.45,996.90,4.00,M,BKN,M,M,M,1800.00,M,M,M,-RA,M,M,M,M,M,M,31.36,KINS 252058Z AUTO 22007KT 4SM -RA BKN018 03/02 A2945 RMK AO2 RAB26 SLP969 P0001 60001 T00300018 57024 $,M
LSV,2021-01-25 20:58,-115.0343,36.2362,570.00,41.00,M,M,0.00,0.00,0.03,29.50,998.90,10.00,M,FEW,M,M,M,19000.00,M,M,M,M,M,M,M,M,M,M,M,KLSV 252058Z AUTO 00000KT 10SM FEW190 05/ A2950 RMK AO2 RAE23 SLP989 P0003 60020 57029 $,M
INS,2021-01-25 20:59,-115.6733,36.5872,955.00,37.40,35.60,93.14,220.00,8.00,0.00,29.45,996.90,4.00,M,FEW,OVC,M,M,700.00,1800.00,M,M,-RA,M,M,M,M,M,M,30.76,KINS 252059Z AUTO 22008KT 4SM -RA FEW007 OVC018 03/02 A2945 RMK AO2 OVC V BKN SLP969 $,M
DRA,2021-01-25 21:02,-116.0278,36.6206,1009.00,32.00,32.00,100.00,240.00,11.00,0.02,29.46,M,1.00,M,FEW,OVC,M,M,200.00,600.00,M,M,-SN BR,M,M,M,M,M,M,22.47,KDRA 252102Z AUTO 24011KT 1SM -SN BR FEW002 OVC006 00/00 A2946 RMK AO2 P0002 T00000000,M
INS,2021-01-25 21:04,-115.6733,36.5872,955.00,35.60,33.80,93.08,220.00,6.00,0.00,29.45,997.10,2.25,M,SCT,OVC,M,M,700.00,1800.00,M,M,-SN,M,M,M,M,M,M,29.87,KINS 252104Z AUTO 22006KT 2 1/4SM -SN SCT007 OVC018 02/01 A2945 RMK AO2 VIS 2 1/4V4 RAE02SNB02 OVC V BKN SLP971 $,M
RNO,2021-01-25 21:06,-119.7711,39.4839,1341.00,28.90,21.90,74.76,360.00,12.00,0.00,29.62,M,10.00,M,FEW,BKN,OVC,M,1800.00,3300.00,4900.00,M,M,M,M,M,M,M,M,18.06,KRNO 252106Z 36012KT 10SM FEW018 BKN033 OVC049 M02/M06 A2962 RMK AO2 T10171056 $,M
LOL,2021-01-25 21:07,-118.5701,40.0684,1192.43,30.90,28.90,92.18,320.00,3.00,T,29.58,M,1.75,M,OVC,M,M,M,1800.00,M,M,M,-SN BR,M,M,M,M,M,M,27.43,KLOL 252107Z AUTO 32003KT 1 3/4SM -SN BR OVC018 M01/M02 A2958 RMK AO2 P0000 T10061017,M
DRA,2021-01-25 21:09,-116.0278,36.6206,1009.00,33.00,33.00,100.00,230.00,11.00,0.03,29.46,M,0.75,M,VV ,M,M,M,800.00,M,M,M,-SN BR,M,M,M,M,M,M,23.86,KDRA 252109Z AUTO 23011KT 3/4SM -SN BR VV008 01/01 A2946 RMK AO2 P0003 T00060006,M
INS,2021-01-25 21:09,-115.6733,36.5872,955.00,35.60,35.60,100.00,200.00,5.00,0.00,29.44,996.70,1.12,M,SCT,OVC,M,M,700.00,1800.00,M,M,-SN,M,M,M,M,M,M,30.67,KINS 252109Z AUTO 20005KT 1 1/8SM R08/6000FT -SN SCT007 OVC018 02/02 A2944 RMK AO2 VIS 1 1/8V3 RAE02SNB02 SLP967 $,M
05U,2021-01-25 21:10,-116.0051,39.6042,1811.23,28.40,19.40,68.61,0.00,0.00,0.00,29.50,M,10.00,M,M,M,M,M,M,M,M,M,M,M,M,M,M,M,M,28.40,K05U 252110Z AUTO 00000KT 10SM M02/M07 A2950 RMK A01,M
INS,2021-01-25 21:14,-115.6733,36.5872,955.00,35.60,35.60,100.00,200.00,5.00,0.00,29.45,997.10,1.88,M,FEW,OVC,M,M,700.00,1600.00,M,M,-SN,M,M,M,M,M,M,30.67,KINS 252114Z AUTO 20005KT 1 7/8SM -SN FEW007 OVC016 02/02 A2945 RMK AO2 VIS 1 1/8V2 RAE02SNB02 SLP971 $,M
TMT,2021-01-25 21:15,-117.1971,39.4643,1749.34,25.20,24.30,96.32,0.00,0.00,0.00,29.52,M,10.00,M,M,M,M,M,M,M,M,M,M,M,M,M,M,M,M,25.20,KTMT 252115Z AUTO 00000KT 10SM M04/M04 A2952 RMK AO2 T10381043,M
BVU,2021-01-25 21:15,-114.8611,35.9475,671.00,42.80,33.80,70.28,220.00,10.00,0.00,29.51,M,10.00,M,FEW,FEW,SCT,M,2000.00,2400.00,5500.00,M,M,M,M,M,M,M,M,36.51,KBVU 252115Z AUTO 22010KT 10SM FEW020 FEW024 SCT055 06/01 A2951 RMK AO2,M
BAM,2021-01-25 21:15,-116.8743,40.5990,1382.36,28.40,24.80,86.18,320.00,5.00,0.00,29.58,M,10.00,M,OVC,M,M,M,5000.00,M,M,M,M,M,M,M,M,M,M,22.12,KBAM 252115Z AUTO 32005KT 10SM OVC050 M02/M04 A2958 RMK AO1,M
RTS,2021-01-25 21:15,-119.8764,39.6682,1539.00,24.80,17.60,73.70,340.00,12.00,0.00,29.62,M,3.00,M,CLR,M,M,M,M,M,M,M,-SN,M,M,M,M,M,M,12.84,KRTS 252115Z AUTO 34012KT 3SM -SN CLR M04/M08 A2962 RMK AO2,M
CXP,2021-01-25 21:15,-119.7326,39.1923,1431.00,30.20,17.60,59.01,340.00,10.00,0.00,29.60,M,10.00,19.00,OVC,M,M,M,5500.00,M,M,M,M,M,M,M,M,M,M,20.71,KCXP 252115Z AUTO 34010G19KT 310V010 10SM OVC055 M01/M08 A2960 RMK AO2,M
MEV,2021-01-25 21:15,-119.7500,38.9963,1441.42,32.00,23.00,69.04,360.00,17.00,0.00,29.59,M,10.00,M,SCT,SCT,OVC,M,3300.00,5500.00,6500.00,M,M,M,M,M,M,M,M,20.08,KMEV 252115Z AUTO 36017KT 10SM SCT033 SCT055 OVC065 M00/M05 A2959 RMK AO2,M
HTH,2021-01-25 21:15,-118.6315,38.5448,1282.89,33.80,21.20,59.53,360.00,26.00,0.00,29.56,M,10.00,M,CLR,M,M,M,M,M,M,M,M,M,M,M,M,M,M,20.02,KHTH 252115Z AUTO 36026KT 10SM CLR 01/M06 A2956 RMK A01,M
INS,2021-01-25 21:19,-115.6733,36.5872,955.00,33.80,33.80,100.00,220.00,5.00,0.00,29.44,996.70,2.25,M,SCT,OVC,M,M,600.00,1400.00,M,M,-SN BR,M,M,M,M,M,M,28.53,KINS 252119Z AUTO 22005KT 2 1/4SM -SN BR SCT006 OVC014 01/01 A2944 RMK AO2 VIS 1 1/8V2 1/4 RAE02SNB02 SLP967 $,M
INS,2021-01-25 21:24,-115.6733,36.5872,955.00,33.80,33.80,100.00,230.00,5.00,0.00,29.44,996.70,1.88,M,FEW,OVC,M,M,600.00,1600.00,M,M,-SN BR,M,M,M,M,M,M,28.53,KINS 252124Z AUTO 23005KT 1 7/8SM -SN BR FEW006 OVC016 01/01 A2944 RMK AO2 RAE02SNB02 SLP967 $,M
LOL,2021-01-25 21:24,-118.5701,40.0684,1192.43,32.00,28.00,84.98,340.00,6.00,T,29.58,M,3.00,M,OVC,M,M,M,1800.00,M,M,M,-SN BR,M,M,M,M,M,M,25.53,KLOL 252124Z AUTO 34006KT 3SM -SN BR OVC018 00/M02 A2958 RMK AO2 P0000 T00001022,M
EKO,2021-01-25 21:24,-115.7860,40.8242,1367.00,32.00,21.00,63.45,210.00,6.00,0.00,29.52,M,10.00,M,BKN,OVC,M,M,2800.00,9000.00,M,M,M,M,M,M,M,M,M,25.53,KEKO 252124Z AUTO 21006KT 10SM BKN028 OVC090 00/M06 A2952 RMK AO2 T00001061,M
TPH,2021-01-25 21:27,-117.0904,38.0505,1654.00,30.00,26.10,85.21,350.00,4.00,0.01,29.46,M,1.00,M,FEW,OVC,M,M,600.00,1500.00,M,M,-SN BR,M,M,M,M,M,M,25.08,KTPH 252127Z AUTO 35004KT 1SM -SN BR FEW006 OVC015 M01/M03 A2946 RMK AO2 P0001 T10111033,M
INS,2021-01-25 21:29,-115.6733,36.5872,955.00,33.80,33.80,100.00,230.00,8.00,0.00,29.44,997.00,2.50,M,FEW,OVC,M,M,600.00,1600.00,M,M,-SN,M,M,M,M,M,M,26.33,KINS 252129Z AUTO 23008KT 2 1/2SM -SN FEW006 OVC016 01/01 A2944 RMK AO2 VIS 1 7/8V2 1/2 RAE02SNB02 SLP970 $,M
05U,2021-01-25 21:30,-116.0051,39.6042,1811.23,28.40,19.40,68.61,40.00,4.00,0.00,29.50,M,10.00,M,M,M,M,M,M,M,M,M,M,M,M,M,M,M,M,23.22,K05U 252130Z AUTO 04004KT 10SM M02/M07 A2950 RMK A01,M
ELY,2021-01-25 21:32,-114.8453,39.2950,1909.00,27.00,21.00,77.80,20.00,9.00,T,29.47,M,2.50,M,BKN,OVC,M,M,2600.00,3900.00,M,M,-SN,M,M,M,M,M,M,17.30,KELY 252132Z AUTO 02009KT 2 1/2SM -SN BKN026 OVC039 M03/M06 A2947 RMK AO2 SNB28 P0000 T10281061,M
INS,2021-01-25 21:34,-115.6733,36.5872,955.00,33.80,33.80,100.00,240.00,9.00,0.00,29.44,997.00,4.00,M,FEW,OVC,M,M,600.00,1600.00,M,M,-SN,M,M,M,M,M,M,25.75,KINS 252134Z AUTO 24009KT 4SM -SN FEW006 OVC016 01/01 A2944 RMK AO2 RAE02SNB02 SLP970 $,M
BVU,2021-01-25 21:35,-114.8611,35.9475,671.00,42.80,32.00,65.38,230.00,10.00,0.00,29.51,M,10.00,M,SCT,BKN,M,M,5500.00,7000.00,M,M,M,M,M,M,M,M,M,36.51,KBVU 252135Z AUTO 23010KT 10SM SCT055 BKN070 06/M00 A2951 RMK AO2,M
CXP,2021-01-25 21:35,-119.7326,39.1923,1431.00,30.20,17.60,59.01,330.00,9.00,0.00,29.61,M,10.00,20.00,BKN,OVC,M,M,5500.00,7000.00,M,M,M,M,M,M,M,M,M,21.28,KCXP 252135Z AUTO 33009G20KT 10SM BKN055 OVC070 M01/M08 A2961 RMK AO2,M
RTS,2021-01-25 21:35,-119.8764,39.6682,1539.00,24.80,17.60,73.70,350.00,13.00,0.00,29.62,M,2.50,M,CLR,M,M,M,M,M,M,M,-SN,M,M,M,M,M,M,12.34,KRTS 252135Z AUTO 35013KT 2 1/2SM -SN CLR M04/M08 A2962 RMK AO2,M
BAM,2021-01-25 21:35,-116.8743,40.5990,1382.36,28.40,24.80,86.18,330.00,4.00,0.00,29.58,M,10.00,M,OVC,M,M,M,5000.00,M,M,M,M,M,M,M,M,M,M,23.22,KBAM 252135Z AUTO 33004KT 10SM OVC050 M02/M04 A2958 RMK AO1,M
HTH,2021-01-25 21:35,-118.6315,38.5448,1282.89,33.80,21.20,59.53,10.00,23.00,0.00,29.56,M,10.00,31.00,CLR,M,M,M,M,M,M,M,M,M,M,M,M,M,M,20.73,KHTH 252135Z AUTO 01023G31KT 10SM CLR 01/M06 A2956 RMK A01,M
MEV,2021-01-25 21:35,-119.7500,38.9963,1441.42,30.20,21.20,68.83,350.00,14.00,0.00,29.60,M,10.00,20.00,FEW,OVC,M,M,3400.00,5500.00,M,M,M,M,M,M,M,M,M,18.84,KMEV 252135Z AUTO 35014G20KT 10SM FEW034 OVC055 M01/M06 A2960 RMK AO2,M
TMT,2021-01-25 21:35,-117.1971,39.4643,1749.34,25.20,24.10,95.52,0.00,0.00,0.00,29.52,M,10.00,M,M,M,M,M,M,M,M,M,M,M,M,M,M,M,M,25.20,KTMT 252135Z AUTO 00000KT 10SM M04/M04 A2952 RMK AO2 T10381044,M
DRA,2021-01-25 21:36,-116.0278,36.6206,1009.00,32.00,32.00,100.00,0.00,0.00,0.07,29.46,M,0.25,M,VV ,M,M,M,600.00,M,M,M,+SN FG,M,M,M,M,M,M,32.00,KDRA 252136Z AUTO 00000KT 1/4SM +SN FG VV006 00/00 A2946 RMK AO2 P0007 T00000000,M
VGT,2021-01-25 21:37,-115.1933,36.2111,667.00,43.00,36.00,76.12,M,4.00,0.00,29.44,M,10.00,M,SCT,M,M,M,1700.00,M,M,M,M,M,M,M,M,M,M,40.27,KVGT 252137Z VRB04KT 10SM SCT017 06/02 A2944 RMK AO2 T00610022,M
ELY,2021-01-25 21:38,-114.8453,39.2950,1909.00,26.10,21.90,83.89,20.00,10.00,T,29.47,M,1.25,M,BKN,OVC,M,M,2200.00,3900.00,M,M,-SN BR,M,M,M,M,M,M,15.57,KELY 252138Z AUTO 02010KT 1 1/4SM -SN BR BKN022 OVC039 M03/M06 A2947 RMK AO2 SNB28 P0000 T10331056,M
INS,2021-01-25 21:39,-115.6733,36.5872,955.00,33.80,33.80,100.00,230.00,8.00,0.00,29.44,997.00,6.00,M,FEW,OVC,M,M,600.00,1600.00,M,M,-RA,M,M,M,M,M,M,26.33,KINS 252139Z AUTO 23008KT 6SM -RA FEW006 OVC016 01/01 A2944 RMK AO2 RAE02SNB02E35RAB35 SLP970 $,M
TPH,2021-01-25 21:40,-117.0904,38.0505,1654.00,30.00,26.10,85.21,340.00,3.00,0.01,29.46,M,0.50,M,VV ,M,M,M,1300.00,M,M,M,SN FZFG,M,M,M,M,M,M,26.40,KTPH 252140Z AUTO 34003KT 1/2SM SN FZFG VV013 M01/M03 A2946 RMK AO2 P0001 T10111033,M
LSV,2021-01-25 21:40,-115.0343,36.2362,570.00,41.00,41.00,100.00,70.00,9.00,0.00,29.48,998.20,10.00,M,FEW,BKN,M,M,2100.00,3000.00,M,M,M,M,M,M,M,M,M,34.70,KLSV 252140Z AUTO 07009KT 10SM FEW021 BKN030 05/05 A2948 RMK AO2 SLP982 $,M
DRA,2021-01-25 21:44,-116.0278,36.6206,1009.00,32.00,32.00,100.00,0.00,0.00,0.09,29.46,M,0.25,M,VV ,M,M,M,500.00,M,M,M,+SN FG,M,M,M,M,M,M,32.00,KDRA 252144Z AUTO 00000KT 1/4SM +SN FG VV005 00/00 A2946 RMK AO2 P0009 T00000000,M
VGT,2021-01-25 21:46,-115.1933,36.2111,667.00,43.00,35.00,73.45,50.00,3.00,0.00,29.44,M,10.00,M,BKN,M,M,M,1700.00,M,M,M,M,M,M,M,M,M,M,41.26,KVGT 252146Z 05003KT 10SM BKN017 06/02 A2944 RMK AO2 T00610017,M
EKO,2021-01-25 21:49,-115.7860,40.8242,1367.00,30.90,21.00,66.34,220.00,6.00,0.00,29.52,M,10.00,M,FEW,BKN,OVC,M,2900.00,5500.00,7000.00,M,M,M,M,M,M,M,M,24.21,KEKO 252149Z AUTO 22006KT 10SM FEW029 BKN055 OVC070 M01/M06 A2952 RMK AO2 T10061061,M
ELY,2021-01-25 21:49,-114.8453,39.2950,1909.00,26.60,21.20,79.77,20.00,9.00,T,29.47,M,0.50,M,VV ,M,M,M,1500.00,M,M,M,SN FZFG,M,M,M,M,M,M,16.80,KELY 252149Z AUTO 02009KT 1/2SM SN FZFG VV015 M03/M06 A2947 RMK AO2 SNB28 P0000,M
05U,2021-01-25 21:50,-116.0051,39.6042,1811.23,28.40,19.40,68.61,0.00,0.00,0.00,29.50,M,10.00,M,M,M,M,M,M,M,M,M,M,M,M,M,M,M,M,28.40,K05U 252150Z AUTO 00000KT 10SM M02/M07 A2950 RMK A01,M
VGT,2021-01-25 21:53,-115.1933,36.2111,667.00,44.00,35.00,70.43,80.00,6.00,0.00,29.44,998.80,10.00,M,BKN,BKN,M,M,1700.00,3400.00,M,M,M,M,M,M,M,M,M,40.10,KVGT 252153Z 08006KT 10SM BKN017 BKN034 07/02 A2944 RMK AO2 SLP988 T00670017,M
ELY,2021-01-25 21:53,-114.8453,39.2950,1909.00,26.10,21.90,83.89,20.00,10.00,0.01,29.47,999.00,0.50,M,VV ,M,M,M,1400.00,M,M,M,SN FZFG,M,M,M,M,M,M,15.57,KELY 252153Z AUTO 02010KT 1/2SM SN FZFG VV014 M03/M06 A2947 RMK AO2 SNB28 SLP990 P0001 T10331056,M
DRA,2021-01-25 21:53,-116.0278,36.6206,1009.00,33.00,32.00,95.67,340.00,4.00,0.11,29.46,997.00,0.50,M,VV ,M,M,M,500.00,M,M,M,SN FG,M,M,M,M,M,M,28.70,KDRA 252153Z AUTO 34004KT 1/2SM SN FG VV005 01/00 A2946 RMK AO2 SLP970 P0011 T00060000,M
LOL,2021-01-25 21:53,-118.5701,40.0684,1192.43,32.00,27.00,81.55,10.00,9.00,T,29.59,1003.50,4.00,M,OVC,M,M,M,2100.00,M,M,M,-SN,M,M,M,M,M,M,23.51,KLOL 252153Z AUTO 01009KT 4SM -SN OVC021 00/M03 A2959 RMK AO2 SLP035 P0000 T00001028,M
TMT,2021-01-25 21:55,-117.1971,39.4643,1749.34,25.70,24.30,94.34,0.00,0.00,0.00,29.52,M,10.00,M,M,M,M,M,M,M,M,M,-SN,M,M,M,M,M,M,25.70,KTMT 252155Z AUTO 00000KT 10SM -SN M03/M04 A2952 RMK AO2 T10351043,M
MEV,2021-01-25 21:55,-119.7500,38.9963,1441.42,30.20,21.20,68.83,350.00,15.00,0.00,29.60,M,10.00,M,FEW,BKN,OVC,M,3500.00,5000.00,5500.00,M,M,M,M,M,M,M,M,18.45,KMEV 252155Z AUTO 35015KT 10SM FEW035 BKN050 OVC055 M01/M06 A2960 RMK AO2,M
RTS,2021-01-25 21:55,-119.8764,39.6682,1539.00,24.80,17.60,73.70,350.00,14.00,0.00,29.63,M,8.00,M,FEW,M,M,M,2800.00,M,M,M,-UP,M,M,M,M,M,M,11.88,KRTS 252155Z AUTO 35014KT 8SM -UP FEW028 M04/M08 A2963 RMK AO2,M
RNO,2021-01-25 21:55,-119.7711,39.4839,1341.00,28.90,21.90,74.76,10.00,13.00,T,29.63,1004.30,9.00,M,FEW,BKN,OVC,M,2200.00,3900.00,6500.00,M,-SN,M,M,M,M,M,M,17.60,KRNO 252155Z 01013KT 9SM -SN FEW022 BKN039 OVC065 M02/M06 A2963 RMK AO2 SNB53 SLP043 P0000 T10171056 $,M
BAM,2021-01-25 21:55,-116.8743,40.5990,1382.36,28.40,24.80,86.18,0.00,0.00,0.00,29.58,M,10.00,M,OVC,M,M,M,5000.00,M,M,M,M,M,M,M,M,M,M,28.40,KBAM 252155Z AUTO 00000KT 10SM OVC050 M02/M04 A2958 RMK AO1,M
HTH,2021-01-25 21:55,-118.6315,38.5448,1282.89,33.80,23.00,64.23,360.00,24.00,0.00,29.57,M,10.00,29.00,CLR,M,M,M,M,M,M,M,M,M,M,M,M,M,M,20.49,KHTH 252155Z AUTO 36024G29KT 10SM CLR 01/M05 A2957 RMK A01,M
BVU,2021-01-25 21:55,-114.8611,35.9475,671.00,42.80,30.20,60.79,230.00,17.00,0.00,29.51,M,10.00,M,SCT,SCT,BKN,M,3300.00,4200.00,5000.00,M,M,M,M,M,M,M,M,34.22,KBVU 252155Z AUTO 23017KT 10SM SCT033 SCT042 BKN050 06/M01 A2951 RMK AO2,M
CXP,2021-01-25 21:55,-119.7326,39.1923,1431.00,30.20,17.60,59.01,330.00,10.00,0.00,29.61,M,10.00,16.00,BKN,OVC,M,M,6000.00,7000.00,M,M,M,M,M,M,M,M,M,20.71,KCXP 252155Z AUTO 33010G16KT 290V020 10SM BKN060 OVC070 M01/M08 A2961 RMK AO2,M
LAS,2021-01-25 21:56,-115.1634,36.0719,663.00,43.00,30.00,59.83,210.00,12.00,0.00,29.48,998.40,10.00,23.00,FEW,SCT,SCT,OVC,2000.00,3400.00,5000.00,13000.00,M,M,M,M,M,M,M,36.00,KLAS 252156Z 21012G23KT 10SM FEW020 SCT034 SCT050 OVC130 06/M01 A2948 RMK AO2 SLP984 T00611011,M
EKO,2021-01-25 21:56,-115.7860,40.8242,1367.00,30.90,21.00,66.34,220.00,6.00,0.00,29.53,1002.20,10.00,M,FEW,OVC,M,M,3100.00,6000.00,M,M,M,M,M,M,M,M,M,24.21,KEKO 252156Z AUTO 22006KT 10SM FEW031 OVC060 M01/M06 A2953 RMK AO2 SLP022 T10061061,M
TPH,2021-01-25 21:56,-117.0904,38.0505,1654.00,28.90,26.10,89.12,310.00,3.00,0.02,29.46,998.90,0.25,M,BKN,OVC,M,M,1000.00,1500.00,M,M,SN FZFG,M,M,M,M,M,M,25.14,KTPH 252156Z AUTO 31003KT 1/4SM SN FZFG BKN010 OVC015 M02/M03 A2946 RMK AO2 SLP989 P0002 T10171033,M
NFL,2021-01-25 21:56,-118.7010,39.4166,1199.00,30.00,25.00,81.40,320.00,14.00,T,29.60,1000.90,6.00,M,BKN,OVC,M,M,1200.00,2300.00,M,M,-SN,M,M,M,M,M,M,18.58,KNFL 252156Z 32014KT 6SM -SN BKN012 OVC023 M01/M04 A2960 RMK AO2 SNE2058B27 SLP009 PIRSLR// P0000 T10111039,M
WMC,2021-01-25 21:56,-117.8072,40.9019,1315.00,32.00,23.00,69.04,10.00,12.00,0.00,29.58,1002.90,10.00,M,BKN,OVC,M,M,5500.00,7000.00,M,M,M,M,M,M,M,M,M,22.00,KWMC 252156Z AUTO 01012KT 10SM BKN055 OVC070 00/M05 A2958 RMK AO2 SLP029 T00001050,M
HND,2021-01-25 21:56,-115.1344,35.9729,742.79,40.00,28.90,64.49,220.00,17.00,0.00,29.50,1001.30,10.00,26.00,SCT,M,M,M,6000.00,M,M,M,M,M,M,M,26.00,220.00,2021-01-25 21:47,30.42,KHND 252156Z 22017G26KT 10SM SCT060 04/M02 A2950 RMK AO2 PK WND 22026/2147 SLP013 T00441017,M
INS,2021-01-25 21:58,-115.6733,36.5872,955.00,35.00,34.70,99.21,250.00,8.00,0.05,29.44,996.70,8.00,M,SCT,OVC,M,M,400.00,1900.00,M,M,-UP BR,M,M,M,M,M,M,27.69,KINS 252158Z AUTO 25008KT 8SM -UP BR SCT004 OVC019 02/02 A2944 RMK AO2 RAE02SNB02E35RAB35E43SNB43E53UPB53 SLP967 P0005 T00160015 $,M
LSV,2021-01-25 21:58,-115.0343,36.2362,570.00,42.00,42.00,100.00,180.00,10.00,0.00,29.48,998.20,10.00,15.00,OVC,M,M,M,3300.00,M,M,M,M,M,M,M,M,M,M,35.38,KLSV 252158Z AUTO 18010G15KT 10SM OVC033 06/06 A2948 RMK AO2 SLP982 T00550055 $,M
LOL,2021-01-25 21:58,-118.5701,40.0684,1192.43,32.00,28.00,84.98,30.00,8.00,T,29.59,M,1.75,M,BKN,BKN,OVC,M,2100.00,2900.00,3500.00,M,-SN BR,M,M,M,M,M,M,24.11,KLOL 252158Z AUTO 03008KT 1 3/4SM -SN BR BKN021 BKN029 OVC035 00/M02 A2959 RMK AO2 P0000 T00001022,M
VGT,2021-01-25 22:01,-115.1933,36.2111,667.00,44.00,35.00,70.43,70.00,6.00,0.00,29.44,M,10.00,M,SCT,SCT,BKN,M,1800.00,3400.00,4600.00,M,M,M,M,M,M,M,M,40.10,KVGT 252201Z 07006KT 10SM SCT018 SCT034 BKN046 07/02 A2944 RMK AO2 T00670017,M
INS,2021-01-25 22:03,-115.6733,36.5872,955.00,35.60,35.60,100.00,250.00,7.00,0.00,29.44,996.70,7.00,M,SCT,BKN,OVC,M,400.00,900.00,1700.00,M,-RA,M,M,M,M,M,M,29.17,KINS 252203Z AUTO 25007KT 7SM -RA SCT004 BKN009 OVC017 02/02 A2944 RMK AO2 UPE2158RAB2158 SLP967 $,M
INS,2021-01-25 22:08,-115.6733,36.5872,955.00,35.60,33.80,93.08,250.00,5.00,0.00,29.44,996.70,8.00,M,BKN,BKN,OVC,M,400.00,900.00,1700.00,M,-RA,M,M,M,M,M,M,30.67,KINS 252208Z AUTO 25005KT 8SM -RA BKN004 BKN009 OVC017 02/01 A2944 RMK AO2 UPE2158RAB2158 BKN004 V SCT SLP967 $,M
05U,2021-01-25 22:10,-116.0051,39.6042,1811.23,28.40,19.40,68.61,350.00,4.00,0.00,29.50,M,10.00,M,M,M,M,M,M,M,M,M,M,M,M,M,M,M,M,23.22,K05U 252210Z AUTO 35004KT 10SM M02/M07 A2950 RMK A01,M
LOL,2021-01-25 22:13,-118.5701,40.0684,1192.43,32.00,28.00,84.98,20.00,5.00,T,29.60,M,3.00,M,SCT,BKN,OVC,M,2100.00,2900.00,3400.00,M,-SN BR,M,M,M,M,M,M,26.40,KLOL 252213Z AUTO 02005KT 3SM -SN BR SCT021 BKN029 OVC034 00/M02 A2960 RMK AO2 P0000 T00001022,M
HTH,2021-01-25 22:15,-118.6315,38.5448,1282.89,33.80,23.00,64.23,360.00,24.00,0.00,29.57,M,10.00,M,CLR,M,M,M,M,M,M,M,M,M,M,M,M,M,M,20.49,KHTH 252215Z AUTO 36024KT 10SM CLR 01/M05 A2957 RMK A01,M
BAM,2021-01-25 22:15,-116.8743,40.5990,1382.36,28.40,24.80,86.18,0.00,0.00,0.00,29.58,M,10.00,M,OVC,M,M,M,5000.00,M,M,M,M,M,M,M,M,M,M,28.40,KBAM 252215Z AUTO 00000KT 10SM OVC050 M02/M04 A2958 RMK AO1,M
RTS,2021-01-25 22:15,-119.8764,39.6682,1539.00,24.80,17.60,73.70,350.00,14.00,0.00,29.63,M,4.00,M,FEW,M,M,M,2700.00,M,M,M,-UP,M,M,M,M,M,M,11.88,KRTS 252215Z AUTO 35014KT 4SM -UP FEW027 M04/M08 A2963 RMK AO2,M
MEV,2021-01-25 22:15,-119.7500,38.9963,1441.42,30.20,21.20,68.83,350.00,16.00,0.00,29.60,M,10.00,M,FEW,BKN,OVC,M,4000.00,5500.00,7500.00,M,M,M,M,M,M,M,M,18.07,KMEV 252215Z AUTO 35016KT 10SM FEW040 BKN055 OVC075 M01/M06 A2960 RMK AO2,M
TMT,2021-01-25 22:15,-117.1971,39.4643,1749.34,25.90,24.60,94.74,20.00,3.00,0.00,29.52,M,10.00,M,M,M,M,M,M,M,M,M,-SN,M,M,M,M,M,M,21.72,KTMT 252215Z AUTO 02003KT 10SM -SN M03/M04 A2952 RMK AO2 T10341041,M
CXP,2021-01-25 22:15,-119.7326,39.1923,1431.00,30.20,17.60,59.01,320.00,6.00,0.00,29.62,M,10.00,12.00,OVC,M,M,M,5500.00,M,M,M,M,M,M,M,M,M,M,23.36,KCXP 252215Z AUTO 32006G12KT 10SM OVC055 M01/M08 A2962 RMK AO2,M
BVU,2021-01-25 22:15,-114.8611,35.9475,671.00,41.00,30.20,65.16,230.00,13.00,0.00,29.51,M,10.00,18.00,BKN,BKN,M,M,3500.00,4200.00,M,M,M,M,M,M,M,M,M,33.10,KBVU 252215Z AUTO 23013G18KT 10SM BKN035 BKN042 05/M01 A2951 RMK AO2,M
TPH,2021-01-25 22:19,-117.0904,38.0505,1654.00,30.00,28.00,92.15,340.00,9.00,0.01,29.46,M,0.50,M,BKN,OVC,M,M,900.00,1500.00,M,M,SN FZFG,M,M,M,M,M,M,21.03,KTPH 252219Z AUTO 34009KT 1/2SM SN FZFG BKN009 OVC015 M01/M02 A2946 RMK AO2 P0001 T10111022,M
DRA,2021-01-25 22:22,-116.0278,36.6206,1009.00,33.00,32.00,95.67,250.00,7.00,0.03,29.46,M,0.75,M,BKN,OVC,M,M,300.00,700.00,M,M,-SN BR,M,M,M,M,M,M,26.12,KDRA 252222Z AUTO 25007KT 3/4SM -SN BR BKN003 OVC007 01/00 A2946 RMK AO2 P0003 T00060000,M
ELY,2021-01-25 22:24,-114.8453,39.2950,1909.00,26.10,23.00,87.87,30.00,8.00,0.02,29.47,M,1.00,M,FEW,OVC,M,M,600.00,1300.00,M,M,-SN BR,M,M,M,M,M,M,16.85,KELY 252224Z AUTO 03008KT 1SM -SN BR FEW006 OVC013 M03/M05 A2947 RMK AO2 P0002 T10331050,M
DRA,2021-01-25 22:29,-116.0278,36.6206,1009.00,33.00,32.00,95.67,250.00,7.00,0.04,29.46,M,1.00,M,BKN,OVC,M,M,500.00,900.00,M,M,-SN BR,M,M,M,M,M,M,26.12,KDRA 252229Z AUTO 25007KT 1SM -SN BR BKN005 OVC009 01/00 A2946 RMK AO2 P0004 T00060000,M
05U,2021-01-25 22:30,-116.0051,39.6042,1811.23,30.20,19.40,63.75,350.00,6.00,0.00,29.50,M,9.00,M,M,M,M,M,M,M,M,M,M,M,M,M,M,M,M,23.36,K05U 252230Z AUTO 35006KT 9SM M01/M07 A2950 RMK A01,M
NFL,2021-01-25 22:32,-118.7010,39.4166,1199.00,30.00,25.00,81.40,320.00,12.00,T,29.60,M,6.00,M,SCT,BKN,OVC,M,1500.00,2000.00,3000.00,M,-SN,M,M,M,M,M,M,19.46,KNFL 252232Z 32012KT 6SM -SN SCT015 BKN020 OVC030 M01/M04 A2960 RMK AO2 PIRSLR// P0000 T10111039,M
TMT,2021-01-25 22:35,-117.1971,39.4643,1749.34,25.70,24.10,93.55,350.00,3.00,0.00,29.52,M,10.00,M,M,M,M,M,M,M,M,M,-SN,M,M,M,M,M,M,21.49,KTMT 252235Z AUTO 35003KT 10SM -SN M03/M04 A2952 RMK AO2 T10351044,M
DRA,2021-01-25 22:35,-116.0278,36.6206,1009.00,33.00,32.00,95.67,250.00,6.00,0.04,29.46,M,1.00,M,SCT,OVC,M,M,500.00,1100.00,M,M,-SN BR,M,M,M,M,M,M,26.86,KDRA 252235Z AUTO 25006KT 1SM -SN BR SCT005 OVC011 01/00 A2946 RMK AO2 P0004 T00060000,M
MEV,2021-01-25 22:35,-119.7500,38.9963,1441.42,30.20,21.20,68.83,360.00,16.00,0.00,29.60,M,10.00,M,SCT,OVC,M,M,4600.00,5500.00,M,M,M,M,M,M,M,M,M,18.07,KMEV 252235Z AUTO 36016KT 10SM SCT046 OVC055 M01/M06 A2960 RMK AO2,M
BVU,2021-01-25 22:35,-114.8611,35.9475,671.00,41.00,30.20,65.16,220.00,9.00,0.00,29.51,M,10.00,15.00,SCT,BKN,OVC,M,2800.00,3500.00,4300.00,M,M,M,M,M,M,M,M,34.70,KBVU 252235Z AUTO 22009G15KT 10SM SCT028 BKN035 OVC043 05/M01 A2951 RMK AO2,M
CXP,2021-01-25 22:35,-119.7326,39.1923,1431.00,30.20,17.60,59.01,330.00,10.00,0.00,29.62,M,10.00,M,OVC,M,M,M,5500.00,M,M,M,M,M,M,M,M,M,M,20.71,KCXP 252235Z AUTO 33010KT 10SM OVC055 M01/M08 A2962 RMK AO2,M
RTS,2021-01-25 22:35,-119.8764,39.6682,1539.00,24.80,17.60,73.70,350.00,12.00,0.00,29.63,M,9.00,M,FEW,BKN,M,M,2000.00,2800.00,M,M,-UP,M,M,M,M,M,M,12.84,KRTS 252235Z AUTO 35012KT 9SM -UP FEW020 BKN028 M04/M08 A2963 RMK AO2,M
HTH,2021-01-25 22:35,-118.6315,38.5448,1282.89,33.80,23.00,64.23,360.00,19.00,0.00,29.58,M,10.00,25.00,CLR,M,M,M,M,M,M,M,M,M,M,M,M,M,M,21.82,KHTH 252235Z AUTO 36019G25KT 10SM CLR 01/M05 A2958 RMK A01,M
BAM,2021-01-25 22:35,-116.8743,40.5990,1382.36,30.20,23.00,74.26,0.00,0.00,0.00,29.59,M,10.00,M,OVC,M,M,M,5000.00,M,M,M,M,M,M,M,M,M,M,30.20,KBAM 252235Z AUTO 00000KT 10SM OVC050 M01/M05 A2959 RMK AO1,M
LSV,2021-01-25 22:39,-115.0343,36.2362,570.00,42.80,37.40,81.07,180.00,12.00,0.00,29.48,998.20,10.00,M,SCT,M,M,M,4100.00,M,M,M,M,M,M,M,M,M,M,35.75,KLSV 252239Z AUTO 18012KT 10SM SCT041 06/03 A2948 RMK AO2 SLP982 $,M
TPH,2021-01-25 22:41,-117.0904,38.0505,1654.00,30.00,27.00,88.44,360.00,6.00,0.02,29.46,M,1.00,M,FEW,OVC,M,M,600.00,1100.00,M,M,-SN BR,M,M,M,M,M,M,23.12,KTPH 252241Z AUTO 36006KT 1SM -SN BR FEW006 OVC011 M01/M03 A2946 RMK AO2 P0002 T10111028,M
ELY,2021-01-25 22:43,-114.8453,39.2950,1909.00,27.00,23.00,84.66,10.00,8.00,0.02,29.47,M,0.75,M,FEW,OVC,M,M,600.00,1300.00,M,M,-SN BR,M,M,M,M,M,M,17.95,KELY 252243Z AUTO 01008KT 3/4SM -SN BR FEW006 OVC013 M03/M05 A2947 RMK AO2 P0002 T10281050,M
TPH,2021-01-25 22:46,-117.0904,38.0505,1654.00,30.00,28.00,92.15,10.00,5.00,0.02,29.46,M,3.00,M,FEW,OVC,M,M,600.00,1300.00,M,M,-SN BR,M,M,M,M,M,M,24.02,KTPH 252246Z AUTO 01005KT 3SM -SN BR FEW006 OVC013 M01/M02 A2946 RMK AO2 P0002 T10111022,M
INS,2021-01-25 22:48,-115.6733,36.5872,955.00,35.60,35.60,100.00,290.00,7.00,0.00,29.45,997.10,6.00,M,BKN,OVC,M,M,500.00,1400.00,M,M,-SN,M,M,M,M,M,M,29.17,KINS 252248Z AUTO 29007KT 6SM -SN BKN005 OVC014 02/02 A2945 RMK AO2 UPE2158RAB2158E10SNB10E27RAB27E41SNB41 SLP971 $,M
DRA,2021-01-25 22:53,-116.0278,36.6206,1009.00,33.00,32.00,95.67,250.00,9.00,0.05,29.46,997.20,1.00,M,FEW,OVC,M,M,400.00,1300.00,M,M,-SN BR,M,M,M,M,M,M,24.88,KDRA 252253Z AUTO 25009KT 1SM -SN BR FEW004 OVC013 01/00 A2946 RMK AO2 SLP972 P0005 T00060000,M
VGT,2021-01-25 22:53,-115.1933,36.2111,667.00,45.00,30.00,55.43,170.00,15.00,0.00,29.43,998.30,10.00,M,FEW,OVC,M,M,3600.00,4700.00,M,M,M,M,M,M,M,M,M,37.63,KVGT 252253Z 17015KT 10SM FEW036 OVC047 07/M01 A2943 RMK AO2 SLP983 T00721011,M
LOL,2021-01-25 22:53,-118.5701,40.0684,1192.43,32.00,27.00,81.55,350.00,8.00,T,29.60,1003.90,5.00,M,BKN,OVC,M,M,2700.00,3300.00,M,M,-SN,M,M,M,M,M,M,24.11,KLOL 252253Z AUTO 35008KT 5SM -SN BKN027 OVC033 00/M03 A2960 RMK AO2 SLP039 P0000 T00001028,M
ELY,2021-01-25 22:53,-114.8453,39.2950,1909.00,26.10,21.90,83.89,20.00,10.00,0.02,29.46,999.10,1.25,M,SCT,OVC,M,M,600.00,1400.00,M,M,-SN BR,M,M,M,M,M,M,15.57,KELY 252253Z AUTO 02010KT 1 1/4SM -SN BR SCT006 OVC014 M03/M06 A2946 RMK AO2 SLP991 P0002 T10331056,M
P68,2021-01-25 22:53,-116.0056,39.6014,1993.00,28.00,21.00,74.67,20.00,8.00,0.00,29.47,1000.20,M,M,M,M,M,M,M,M,M,M,M,M,M,M,M,M,M,19.19,KP68 252253Z AUTO 02008KT M02/M06 A2947 RMK AO1 SLP002 T10221061,M
RNO,2021-01-25 22:55,-119.7711,39.4839,1341.00,28.90,23.00,78.30,40.00,11.00,T,29.63,1004.50,8.00,M,FEW,BKN,OVC,M,2200.00,3900.00,7000.00,M,-SN,M,M,M,M,M,M,18.55,KRNO 252255Z 04011KT 8SM -SN FEW022 BKN039 OVC070 M02/M05 A2963 RMK AO2 SLP045 P0000 T10171050 $,M
BVU,2021-01-25 22:55,-114.8611,35.9475,671.00,39.20,32.00,75.16,150.00,5.00,0.00,29.52,M,10.00,M,SCT,BKN,OVC,M,2800.00,3500.00,4300.00,M,M,M,M,M,M,M,M,34.95,KBVU 252255Z AUTO 15005KT 10SM SCT028 BKN035 OVC043 04/00 A2952 RMK AO2,M
CXP,2021-01-25 22:55,-119.7326,39.1923,1431.00,30.20,19.40,63.75,350.00,13.00,0.00,29.62,M,10.00,M,FEW,OVC,M,M,5000.00,6000.00,M,M,M,M,M,M,M,M,M,19.26,KCXP 252255Z AUTO 35013KT 10SM FEW050 OVC060 M01/M07 A2962 RMK AO2,M
05U,2021-01-25 22:55,-116.0051,39.6042,1811.23,28.40,21.20,74.08,40.00,6.00,0.00,29.50,M,3.00,M,M,M,M,M,M,M,M,M,HZ,M,M,M,M,M,M,21.19,K05U 252255Z AUTO 04006KT 3SM HZ M02/M06 A2950 RMK A01,M
BAM,2021-01-25 22:55,-116.8743,40.5990,1382.36,28.40,24.80,86.18,0.00,0.00,0.00,29.58,M,10.00,M,OVC,M,M,M,6000.00,M,M,M,M,M,M,M,M,M,M,28.40,KBAM 252255Z AUTO 00000KT 10SM OVC060 M02/M04 A2958 RMK AO1,M
TMT,2021-01-25 22:55,-117.1971,39.4643,1749.34,27.70,23.50,84.00,0.00,0.00,0.00,29.53,M,10.00,M,M,M,M,M,M,M,M,M,M,M,M,M,M,M,M,27.70,KTMT 252255Z AUTO 00000KT 10SM M02/M05 A2953 RMK AO2 T10241047,M
RTS,2021-01-25 22:55,-119.8764,39.6682,1539.00,24.80,17.60,73.70,350.00,14.00,0.00,29.63,M,10.00,M,BKN,M,M,M,2800.00,M,M,M,-UP,M,M,M,M,M,M,11.88,KRTS 252255Z AUTO 35014KT 10SM -UP BKN028 M04/M08 A2963 RMK AO2,M
MEV,2021-01-25 22:55,-119.7500,38.9963,1441.42,30.20,21.20,68.83,360.00,16.00,0.00,29.60,M,10.00,M,FEW,OVC,M,M,4700.00,5500.00,M,M,M,M,M,M,M,M,M,18.07,KMEV 252255Z AUTO 36016KT 10SM FEW047 OVC055 M01/M06 A2960 RMK AO2,M
HTH,2021-01-25 22:55,-118.6315,38.5448,1282.89,32.00,23.00,69.04,360.00,20.00,0.00,29.59,M,10.00,25.00,FEW,FEW,M,M,4600.00,5500.00,M,M,M,M,M,M,M,M,M,19.14,KHTH 252255Z AUTO 36020G25KT 10SM FEW046 FEW055 00/M05 A2959 RMK A01,M
HND,2021-01-25 22:56,-115.1344,35.9729,742.79,40.00,26.10,57.47,220.00,17.00,0.00,29.49,1001.10,10.00,21.00,BKN,M,M,M,6000.00,M,M,M,M,M,M,M,M,M,M,30.42,KHND 252256Z 22017G21KT 10SM BKN060 04/M03 A2949 RMK AO2 SLP011 T00441033,M
EKO,2021-01-25 22:56,-115.7860,40.8242,1367.00,30.90,21.00,66.34,200.00,6.00,0.00,29.52,1002.10,10.00,M,FEW,BKN,OVC,M,3200.00,5000.00,6000.00,M,M,M,M,M,M,M,M,24.21,KEKO 252256Z AUTO 20006KT 10SM FEW032 BKN050 OVC060 M01/M06 A2952 RMK AO2 SLP021 T10061061,M
LAS,2021-01-25 22:56,-115.1634,36.0719,663.00,42.00,28.00,57.08,210.00,9.00,0.00,29.48,998.30,10.00,M,FEW,FEW,SCT,OVC,2000.00,3400.00,6000.00,13000.00,M,M,M,M,M,M,M,36.07,KLAS 252256Z 21009KT 10SM FEW020 FEW034 SCT060 OVC130 06/M02 A2948 RMK AO2 SLP983 T00561022,M
NFL,2021-01-25 22:56,-118.7010,39.4166,1199.00,30.00,25.00,81.40,320.00,12.00,T,29.61,1001.10,6.00,M,SCT,BKN,OVC,M,1500.00,2000.00,3000.00,M,-SN,M,M,M,M,M,M,19.46,KNFL 252256Z 32012KT 6SM -SN SCT015 BKN020 OVC030 M01/M04 A2961 RMK AO2 SLP011 PIRSLR// P0000 T10111039,M
TPH,2021-01-25 22:56,-117.0904,38.0505,1654.00,30.00,26.10,85.21,340.00,14.00,0.02,29.46,998.80,4.00,M,BKN,OVC,M,M,1500.00,2400.00,M,M,-SN BR,M,M,M,M,M,M,18.58,KTPH 252256Z AUTO 34014KT 4SM -SN BR BKN015 OVC024 M01/M03 A2946 RMK AO2 SLP988 P0002 T10111033,M
WMC,2021-01-25 22:56,-117.8072,40.9019,1315.00,33.00,21.90,63.06,30.00,9.00,T,29.58,1003.10,10.00,M,BKN,OVC,M,M,6000.00,8000.00,M,M,M,M,M,M,M,M,M,24.88,KWMC 252256Z AUTO 03009KT 10SM BKN060 OVC080 01/M06 A2958 RMK AO2 SNB26E40 SLP031 P0000 T00061056,M
ELY,2021-01-25 22:57,-114.8453,39.2950,1909.00,26.10,21.90,83.89,10.00,10.00,T,29.46,M,2.00,M,FEW,OVC,M,M,600.00,1400.00,M,M,-SN BR,M,M,M,M,M,M,15.57,KELY 252257Z AUTO 01010KT 2SM -SN BR FEW006 OVC014 M03/M06 A2946 RMK AO2 P0000 T10331056,M
INS,2021-01-25 22:58,-115.6733,36.5872,955.00,34.50,34.50,100.00,260.00,6.00,0.02,29.44,996.70,8.00,M,SCT,OVC,M,M,500.00,1800.00,M,M,-SN BR,M,M,M,M,M,M,28.54,KINS 252258Z AUTO 26006KT 8SM -SN BR SCT005 OVC018 01/01 A2944 RMK AO2 UPE2158RAB2158E10SNB10E27RAB27E41SNB41 SLP967 P0002 T00140014 $,M
LSV,2021-01-25 22:58,-115.0343,36.2362,570.00,43.50,34.30,69.80,190.00,16.00,0.00,29.48,998.20,10.00,M,FEW,M,M,M,4400.00,M,M,M,M,M,M,M,M,M,M,35.41,KLSV 252258Z AUTO 19016KT 10SM FEW044 06/01 A2948 RMK AO2 SLP982 T00640013 $,M
ELY,2021-01-25 23:07,-114.8453,39.2950,1909.00,26.10,23.00,87.87,10.00,5.00,T,29.47,M,4.00,M,SCT,BKN,OVC,M,600.00,1300.00,4300.00,M,-SN BR,M,M,M,M,M,M,19.39,KELY 252307Z AUTO 01005KT 4SM -SN BR SCT006 BKN013 OVC043 M03/M05 A2947 RMK AO2 P0000 T10331050,M
05U,2021-01-25 23:10,-116.0051,39.6042,1811.23,28.40,21.20,74.08,0.00,0.00,0.00,29.50,M,2.50,M,M,M,M,M,M,M,M,M,HZ,M,M,M,M,M,M,28.40,K05U 252310Z AUTO 00000KT 2 1/2SM HZ M02/M06 A2950 RMK A01,M
INS,2021-01-25 23:13,-115.6733,36.5872,955.00,35.60,35.60,100.00,300.00,5.00,0.00,29.44,996.50,9.00,M,FEW,FEW,OVC,M,400.00,1000.00,2100.00,M,-SN,M,M,M,M,M,M,30.67,KINS 252313Z AUTO 30005KT 9SM -SN FEW004 FEW010 OVC021 02/02 A2944 RMK AO2 SNE05RAB05E06SNB06 SLP965 $,M
HTH,2021-01-25 23:15,-118.6315,38.5448,1282.89,32.00,23.00,69.04,10.00,19.00,0.00,29.59,M,10.00,M,FEW,FEW,FEW,M,3200.00,4700.00,5500.00,M,M,M,M,M,M,M,M,19.44,KHTH 252315Z AUTO 01019KT 10SM FEW032 FEW047 FEW055 00/M05 A2959 RMK A01,M
RTS,2021-01-25 23:15,-119.8764,39.6682,1539.00,24.80,17.60,73.70,350.00,12.00,0.00,29.63,M,10.00,M,BKN,M,M,M,2800.00,M,M,M,-UP,M,M,M,M,M,M,12.84,KRTS 252315Z AUTO 35012KT 10SM -UP BKN028 M04/M08 A2963 RMK AO2,M
MEV,2021-01-25 23:15,-119.7500,38.9963,1441.42,30.20,21.20,68.83,360.00,14.00,0.00,29.60,M,10.00,M,SCT,OVC,M,M,5500.00,7500.00,M,M,M,M,M,M,M,M,M,18.84,KMEV 252315Z AUTO 36014KT 10SM SCT055 OVC075 M01/M06 A2960 RMK AO2,M
TMT,2021-01-25 23:15,-117.1971,39.4643,1749.34,27.90,22.30,79.21,0.00,0.00,0.00,29.53,M,10.00,M,M,M,M,M,M,M,M,M,M,M,M,M,M,M,M,27.90,KTMT 252315Z AUTO 00000KT 10SM M02/M05 A2953 RMK AO2 T10231054,M
CXP,2021-01-25 23:15,-119.7326,39.1923,1431.00,30.20,17.60,59.01,330.00,8.00,0.00,29.62,M,10.00,14.00,OVC,M,M,M,6500.00,M,M,M,M,M,M,M,M,M,M,21.90,KCXP 252315Z AUTO 33008G14KT 10SM OVC065 M01/M08 A2962 RMK AO2,M
BAM,2021-01-25 23:15,-116.8743,40.5990,1382.36,30.20,23.00,74.26,0.00,0.00,0.00,29.58,M,10.00,M,OVC,M,M,M,6000.00,M,M,M,M,M,M,M,M,M,M,30.20,KBAM 252315Z AUTO 00000KT 10SM OVC060 M01/M05 A2958 RMK AO1,M
BVU,2021-01-25 23:15,-114.8611,35.9475,671.00,41.00,33.80,75.33,150.00,10.00,0.00,29.51,M,10.00,M,SCT,BKN,OVC,M,2800.00,4500.00,5500.00,M,M,M,M,M,M,M,M,34.25,KBVU 252315Z AUTO 15010KT 10SM SCT028 BKN045 OVC055 05/01 A2951 RMK AO2,M
DRA,2021-01-25 23:17,-116.0278,36.6206,1009.00,33.00,32.00,95.67,250.00,9.00,0.01,29.46,M,1.00,M,FEW,OVC,M,M,900.00,1500.00,M,M,-SN BR,M,M,M,M,M,M,24.88,KDRA 252317Z AUTO 25009KT 1SM -SN BR FEW009 OVC015 01/00 A2946 RMK AO2 P0001 T00060000,M
ELY,2021-01-25 23:17,-114.8453,39.2950,1909.00,27.00,23.00,84.66,20.00,7.00,T,29.46,M,9.00,M,SCT,BKN,OVC,M,1000.00,2200.00,6500.00,M,M,M,M,M,M,M,M,18.68,KELY 252317Z AUTO 02007KT 9SM SCT010 BKN022 OVC065 M03/M05 A2946 RMK AO2 SNE13 P0000 T10281050,M
TPH,2021-01-25 23:21,-117.0904,38.0505,1654.00,28.90,24.10,82.00,330.00,19.00,T,29.46,M,10.00,24.00,SCT,SCT,OVC,M,2500.00,3600.00,4900.00,M,M,M,M,M,M,M,M,15.34,KTPH 252321Z AUTO 33019G24KT 10SM SCT025 SCT036 OVC049 M02/M04 A2946 RMK AO2 SNE04 P0000 T10171044,M
ELY,2021-01-25 23:25,-114.8453,39.2950,1909.00,27.00,23.00,84.66,30.00,9.00,0.01,29.46,M,9.00,M,SCT,BKN,OVC,M,600.00,2200.00,4100.00,M,M,M,M,M,M,M,M,17.30,KELY 252325Z AUTO 03009KT 9SM SCT006 BKN022 OVC041 M03/M05 A2946 RMK AO2 SNE13 P0001 T10281050,M
DRA,2021-01-25 23:25,-116.0278,36.6206,1009.00,33.00,32.00,95.67,250.00,9.00,0.02,29.46,M,1.75,M,FEW,BKN,OVC,M,1200.00,2100.00,3400.00,M,-SN BR,M,M,M,M,M,M,24.88,KDRA 252325Z AUTO 25009KT 1 3/4SM -SN BR FEW012 BKN021 OVC034 01/00 A2946 RMK AO2 P0002 T00060000,M
DRA,2021-01-25 23:29,-116.0278,36.6206,1009.00,33.00,32.00,95.67,240.00,10.00,0.02,29.46,M,2.00,M,FEW,BKN,OVC,M,900.00,2500.00,3600.00,M,-SN BR,M,M,M,M,M,M,24.35,KDRA 252329Z AUTO 24010KT 2SM -SN BR FEW009 BKN025 OVC036 01/00 A2946 RMK AO2 P0002 T00060000,M
05U,2021-01-25 23:30,-116.0051,39.6042,1811.23,28.40,21.20,74.08,360.00,6.00,0.00,29.50,M,3.00,M,M,M,M,M,M,M,M,M,HZ,M,M,M,M,M,M,21.19,K05U 252330Z AUTO 36006KT 3SM HZ M02/M06 A2950 RMK A01,M
LOL,2021-01-25 23:32,-118.5701,40.0684,1192.43,32.00,27.00,81.55,60.00,3.00,T,29.60,M,2.50,M,BKN,OVC,M,M,3100.00,4000.00,M,M,-SN,M,M,M,M,M,M,28.69,KLOL 252332Z AUTO 06003KT 2 1/2SM -SN BKN031 OVC040 00/M03 A2960 RMK AO2 VIS 1 1/2V5 P0000 T00001028,M
TMT,2021-01-25 23:35,-117.1971,39.4643,1749.34,27.10,22.60,82.90,340.00,4.00,0.00,29.53,M,7.00,M,M,M,M,M,M,M,M,M,-SN,M,M,M,M,M,M,21.70,KTMT 252335Z AUTO 34004KT 7SM -SN M03/M05 A2953 RMK AO2 T10271052,M
MEV,2021-01-25 23:35,-119.7500,38.9963,1441.42,28.40,21.20,74.08,10.00,15.00,0.00,29.60,M,10.00,M,OVC,M,M,M,8000.00,M,M,M,M,M,M,M,M,M,M,16.11,KMEV 252335Z AUTO 01015KT 10SM OVC080 M02/M06 A2960 RMK AO2,M
BVU,2021-01-25 23:35,-114.8611,35.9475,671.00,41.00,33.80,75.33,160.00,11.00,0.00,29.52,M,10.00,M,FEW,OVC,M,M,4600.00,5500.00,M,M,M,M,M,M,M,M,M,33.84,KBVU 252335Z AUTO 16011KT 10SM FEW046 OVC055 05/01 A2952 RMK AO2,M
RTS,2021-01-25 23:35,-119.8764,39.6682,1539.00,24.80,17.60,73.70,350.00,13.00,0.00,29.64,M,10.00,M,OVC,M,M,M,2900.00,M,M,M,M,M,M,M,M,M,M,12.34,KRTS 252335Z AUTO 35013KT 10SM OVC029 M04/M08 A2964 RMK AO2,M
BAM,2021-01-25 23:35,-116.8743,40.5990,1382.36,30.20,23.00,74.26,0.00,0.00,0.00,29.58,M,10.00,M,OVC,M,M,M,6000.00,M,M,M,M,M,M,M,M,M,M,30.20,KBAM 252335Z AUTO 00000KT 10SM OVC060 M01/M05 A2958 RMK AO1,M
HTH,2021-01-25 23:35,-118.6315,38.5448,1282.89,32.00,21.20,63.99,360.00,16.00,0.00,29.60,M,10.00,24.00,SCT,SCT,M,M,3400.00,4600.00,M,M,M,M,M,M,M,M,M,20.42,KHTH 252335Z AUTO 36016G24KT 10SM SCT034 SCT046 M00/M06 A2960 RMK A01,M
CXP,2021-01-25 23:35,-119.7326,39.1923,1431.00,28.40,17.60,63.51,300.00,8.00,0.00,29.62,M,10.00,14.00,BKN,OVC,M,M,5500.00,7000.00,M,M,M,M,M,M,M,M,M,19.68,KCXP 252335Z AUTO 30008G14KT 10SM BKN055 OVC070 M02/M08 A2962 RMK AO2,M
ELY,2021-01-25 23:38,-114.8453,39.2950,1909.00,26.10,23.00,87.87,20.00,11.00,0.01,29.46,M,8.00,M,SCT,BKN,OVC,M,600.00,4000.00,4800.00,M,M,M,M,M,M,M,M,15.01,KELY 252338Z AUTO 02011KT 8SM SCT006 BKN040 OVC048 M03/M05 A2946 RMK AO2 SNE13 P0001 T10331050,M
TPH,2021-01-25 23:46,-117.0904,38.0505,1654.00,28.90,24.10,82.00,330.00,20.00,T,29.47,M,5.00,28.00,BKN,BKN,OVC,M,2500.00,3400.00,4600.00,M,-SN,M,M,M,28.00,340.00,2021-01-25 23:41,15.02,KTPH 252346Z AUTO 33020G28KT 5SM -SN BKN025 BKN034 OVC046 M02/M04 A2947 RMK AO2 PK WND 34028/2341 SNE04B35 P0000 T10171044,M
05U,2021-01-25 23:50,-116.0051,39.6042,1811.23,26.60,19.40,73.89,20.00,6.00,0.00,29.50,M,6.00,M,M,M,M,M,M,M,M,M,HZ,M,M,M,M,M,M,19.03,K05U 252350Z AUTO 02006KT 6SM HZ M03/M07 A2950 RMK A01,M
VGT,2021-01-25 23:53,-115.1933,36.2111,667.00,43.00,30.90,62.06,200.00,9.00,0.00,29.44,998.80,10.00,M,OVC,M,M,M,5000.00,M,M,M,M,M,M,M,M,M,M,37.19,KVGT 252353Z 20009KT 10SM OVC050 06/M01 A2944 RMK AO2 SLP988 60019 T00611006 10078 20044 55004,M
INS,2021-01-25 23:53,-115.6733,36.5872,955.00,33.80,33.80,100.00,230.00,5.00,0.00,29.45,997.10,3.00,M,SCT,OVC,M,M,200.00,2200.00,M,M,-SN BR,M,M,M,M,M,M,28.53,KINS 252353Z AUTO 23005KT 3SM -SN BR SCT002 OVC022 01/01 A2945 RMK AO2 VIS 2 RWY26 SNE05RAB05E06SNB06E21RAB21E31SNB31 SLP971 $,M
ELY,2021-01-25 23:53,-114.8453,39.2950,1909.00,26.10,21.90,83.89,20.00,10.00,0.01,29.46,998.80,2.00,M,FEW,BKN,OVC,M,600.00,3600.00,4700.00,M,-SN BR,M,M,M,M,M,M,15.57,KELY 252353Z AUTO 02010KT 2SM -SN BR FEW006 BKN036 OVC047 M03/M06 A2946 RMK AO2 SNE13B43 SLP988 P0001 60005 T10331056 11017 21061 58002,M
DRA,2021-01-25 23:53,-116.0278,36.6206,1009.00,33.00,32.00,95.67,270.00,9.00,0.02,29.46,997.20,2.00,M,FEW,OVC,M,M,500.00,2700.00,M,M,-SN BR,M,M,M,M,M,M,24.88,KDRA 252353Z AUTO 27009KT 2SM -SN BR FEW005 OVC027 01/00 A2946 RMK AO2 SLP972 P0002 60036 T00060000 10044 20000 50000,M
LOL,2021-01-25 23:53,-118.5701,40.0684,1192.43,30.90,28.00,88.84,0.00,0.00,T,29.61,1004.20,4.00,M,OVC,M,M,M,3300.00,M,M,M,-SN BR,M,M,M,M,M,M,30.90,KLOL 252353Z AUTO 00000KT 4SM -SN BR OVC033 M01/M02 A2961 RMK AO2 SLP042 P0000 60000 T10061022 10000 21006 51007,M
P68,2021-01-25 23:53,-116.0056,39.6014,1993.00,27.00,19.90,74.25,360.00,6.00,0.00,29.47,999.80,M,M,M,M,M,M,M,M,M,M,M,M,M,M,M,M,M,19.51,KP68 252353Z AUTO 36006KT M03/M07 A2947 RMK AO1 SLP998 T10281067 11011 21056 58001,M
TMT,2021-01-25 23:55,-117.1971,39.4643,1749.34,26.60,23.00,86.07,350.00,6.00,0.00,29.54,M,10.00,M,M,M,M,M,M,M,M,M,M,M,M,M,M,M,M,19.03,KTMT 252355Z AUTO 35006KT 10SM M03/M05 A2954 RMK AO2 T10301050 11018 21060,M
RNO,2021-01-25 23:55,-119.7711,39.4839,1341.00,28.00,21.00,74.67,40.00,12.00,T,29.64,1004.90,9.00,M,FEW,BKN,BKN,BKN,1600.00,3500.00,7500.00,13000.00,-SN,M,M,M,M,M,M,16.91,KRNO 252355Z 04012KT 9SM -SN FEW016 BKN035 BKN075 BKN130 M02/M06 A2964 RMK AO2 SLP049 VIS E 2 1/2 4/001 P0000 60001 T10221061 11017 21028 53006 $,1
MEV,2021-01-25 23:55,-119.7500,38.9963,1441.42,28.40,21.20,74.08,10.00,16.00,0.00,29.61,M,10.00,M,FEW,FEW,OVC,M,3700.00,4600.00,8000.00,M,M,M,M,M,M,M,M,15.73,KMEV 252355Z AUTO 01016KT 10SM FEW037 FEW046 OVC080 M02/M06 A2961 RMK AO2,M
HTH,2021-01-25 23:55,-118.6315,38.5448,1282.89,32.00,23.00,69.04,350.00,11.00,0.00,29.61,M,10.00,23.00,BKN,BKN,M,M,3400.00,4700.00,M,M,M,M,M,M,M,M,M,22.47,KHTH 252355Z AUTO 35011G23KT 10SM BKN034 BKN047 M00/M05 A2961 RMK A01,M
RTS,2021-01-25 23:55,-119.8764,39.6682,1539.00,24.80,15.80,68.18,350.00,12.00,0.00,29.64,M,10.00,M,BKN,OVC,M,M,3200.00,3800.00,M,M,M,M,M,M,M,M,M,12.84,KRTS 252355Z AUTO 35012KT 10SM BKN032 OVC038 M04/M09 A2964 RMK AO2,M
BVU,2021-01-25 23:55,-114.8611,35.9475,671.00,41.00,33.80,75.33,160.00,10.00,0.00,29.52,M,10.00,M,FEW,SCT,BKN,M,3100.00,4300.00,4900.00,M,M,M,M,M,M,M,M,34.25,KBVU 252355Z AUTO 16010KT 10SM FEW031 SCT043 BKN049 05/01 A2952 RMK AO2,M
BAM,2021-01-25 23:55,-116.8743,40.5990,1382.36,30.20,24.80,80.07,0.00,0.00,0.00,29.59,M,10.00,M,OVC,M,M,M,7000.00,M,M,M,M,M,M,M,M,M,M,30.20,KBAM 252355Z AUTO 00000KT 10SM OVC070 M01/M04 A2959 RMK AO1,M
CXP,2021-01-25 23:55,-119.7326,39.1923,1431.00,28.40,19.40,68.61,350.00,7.00,0.00,29.62,M,10.00,13.00,OVC,M,M,M,5500.00,M,M,M,M,M,M,M,M,M,M,20.39,KCXP 252355Z AUTO 35007G13KT 10SM OVC055 M02/M07 A2962 RMK AO2,M
LAS,2021-01-25 23:56,-115.1634,36.0719,663.00,41.00,27.00,57.15,220.00,9.00,0.00,29.49,998.70,10.00,19.00,FEW,BKN,BKN,OVC,2000.00,3400.00,6000.00,13000.00,M,M,M,M,28.00,200.00,2021-01-25 23:39,34.70,KLAS 252356Z 22009G19KT 10SM FEW020 BKN034 BKN060 OVC130 05/M03 A2949 RMK AO2 PK WND 20028/2339 SLP987 60012 T00501028 10072 20033 53001,M
HND,2021-01-25 23:56,-115.1344,35.9729,742.79,41.00,28.00,59.55,220.00,18.00,0.00,29.50,1001.20,10.00,24.00,SCT,M,M,M,6500.00,M,M,M,M,M,M,M,M,M,M,31.60,KHND 252356Z 22018G24KT 10SM SCT065 05/M02 A2950 RMK AO2 SLP012 60010 T00501022 10056 20022 51002,M
NFL,2021-01-25 23:56,-118.7010,39.4166,1199.00,30.00,25.00,81.40,320.00,7.00,T,29.61,1001.30,5.00,M,SCT,BKN,OVC,M,1500.00,2000.00,3000.00,M,-SN,M,M,M,M,M,M,22.34,KNFL 252356Z 32007KT 5SM -SN SCT015 BKN020 OVC030 M01/M04 A2961 RMK AO2 SLP013 PIRSLR// P0000 60000 T10111039 11006 21011 51008,M
EKO,2021-01-25 23:56,-115.7860,40.8242,1367.00,30.00,21.90,71.48,200.00,7.00,0.00,29.51,1002.00,10.00,M,BKN,OVC,M,M,3400.00,4300.00,M,M,M,M,M,M,M,M,M,22.34,KEKO 252356Z AUTO 20007KT 10SM BKN034 OVC043 M01/M06 A2951 RMK AO2 SLP020 T10111056 10011 21050 58002,M
TPH,2021-01-25 23:56,-117.0904,38.0505,1654.00,28.00,23.00,81.25,330.00,23.00,T,29.46,999.10,9.00,29.00,FEW,BKN,OVC,M,2700.00,3300.00,5500.00,M,M,M,M,M,29.00,330.00,2021-01-25 23:56,12.94,KTPH 252356Z AUTO 33023G29KT 9SM FEW027 BKN033 OVC055 M02/M05 A2946 RMK AO2 PK WND 33029/2356 SNE04B35E52 SLP991 P0000 60005 T10221050 11011 21022 51001,M
WMC,2021-01-25 23:56,-117.8072,40.9019,1315.00,32.00,24.10,72.30,10.00,8.00,0.01,29.59,1003.30,10.00,M,SCT,BKN,OVC,M,1900.00,3500.00,6000.00,M,M,M,M,M,M,M,M,24.11,KWMC 252356Z AUTO 01008KT 10SM SCT019 BKN035 OVC060 00/M04 A2959 RMK AO2 SLP033 P0001 60001 T00001044 10006 21022 53004,M
LSV,2021-01-25 23:58,-115.0343,36.2362,570.00,43.00,29.70,59.11,200.00,18.00,0.00,29.48,998.40,10.00,M,CLR,M,M,M,M,M,M,M,M,M,M,M,M,M,M,34.23,KLSV 252358Z AUTO 20018KT 10SM CLR 06/M01 A2948 RMK AO2 SLP984 60020 T00611013 10072 20037 55004 $,M
INS,2021-01-25 23:58,-115.6733,36.5872,955.00,33.60,33.40,99.20,240.00,4.00,0.02,29.45,997.10,3.00,M,BKN,M,M,M,200.00,M,M,M,-SN BR,M,M,M,M,M,M,29.29,KINS 252358Z AUTO 24004KT 3SM -SN BR BKN002 01/01 A2945 RMK AO2 VIS 1 1/2 RWY26 SNE05RAB05E06SNB06E21RAB21E31SNB31 BKN V SCT SLP971 P0002 60010 T00090008 10046 20009 55001 $,M
