station,valid,lon,lat,elevation,tmpf,dwpf,relh,drct,sknt,p01i,alti,mslp,vsby,gust,skyc1,skyc2,skyc3,skyc4,skyl1,skyl2,skyl3,skyl4,wxcodes,ice_accretion_1hr,ice_accretion_3hr,ice_accretion_6hr,peak_wind_gust,peak_wind_drct,peak_wind_time,feel,metar,snowdepth
CXP,2022-08-20 00:10,-119.7326,39.1923,1431.00,91.40,30.20,11.28,290.00,10.00,0.00,29.99,M,10.00,M,CLR,M,M,M,M,M,M,M,M,M,M,M,M,M,M,86.71,KCXP 200010Z AUTO 29010KT 10SM CLR 33/M01 A2999 RMK AO2,M
MEV,2022-08-20 00:15,-119.7500,38.9963,1441.42,91.40,32.00,12.14,300.00,11.00,0.00,29.98,M,10.00,17.00,CLR,M,M,M,M,M,M,M,M,M,M,M,M,M,M,86.91,KMEV 200015Z AUTO 30011G17KT 10SM CLR 33/00 A2998 RMK AO2,M
BVU,2022-08-20 00:15,-114.8611,35.9475,671.00,98.60,50.00,19.52,M,3.00,0.00,29.75,M,M,M,M,M,M,M,M,M,M,M,M,M,M,M,M,M,M,95.56,KBVU 200015Z AUTO VRB03KT 37/10 A2975 RMK AO2 PWINO TSNO,M
BAM,2022-08-20 00:15,-116.8743,40.5990,1382.36,86.00,44.60,23.59,340.00,10.00,0.00,29.98,M,10.00,M,CLR,M,M,M,M,M,M,M,M,M,M,M,M,M,M,83.07,KBAM 200015Z AUTO 34010KT 10SM CLR 30/07 A2998 RMK AO1,M
HTH,2022-08-20 00:15,-118.6315,38.5448,1282.89,91.40,32.00,12.14,330.00,9.00,0.00,29.94,M,10.00,15.00,CLR,M,M,M,M,M,M,M,M,M,M,M,M,M,M,86.91,KHTH 200015Z AUTO 33009G15KT 10SM CLR 33/00 A2994 RMK A01,M
RTS,2022-08-20 00:15,-119.8764,39.6682,1539.00,87.80,33.80,14.61,310.00,8.00,0.00,30.01,M,10.00,M,SCT,M,M,M,11000.00,M,M,M,M,M,M,M,M,M,M,84.10,KRTS 200015Z AUTO 31008KT 10SM SCT110 31/01 A3001 RMK AO2,M
TMT,2022-08-20 00:15,-117.1971,39.4643,1749.34,M,M,M,310.00,12.00,0.00,30.08,M,10.00,16.00,CLR,M,M,M,M,M,M,M,M,M,M,M,M,M,M,M,KTMT 200015Z AUTO 31012G16KT 10SM CLR A3008 RMK AO2 LTG DSNT NE,M
BVU,2022-08-20 00:35,-114.8611,35.9475,671.00,98.60,50.00,19.52,330.00,6.00,0.00,29.74,M,M,M,M,M,M,M,M,M,M,M,M,M,M,M,M,M,M,95.56,KBVU 200035Z AUTO 33006KT 37/10 A2974 RMK AO2 PWINO TSNO,M
CXP,2022-08-20 00:35,-119.7326,39.1923,1431.00,91.40,30.20,11.28,270.00,7.00,0.00,29.99,M,10.00,13.00,CLR,M,M,M,M,M,M,M,M,M,M,M,M,M,M,86.71,KCXP 200035Z AUTO 27007G13KT 10SM CLR 33/M01 A2999 RMK AO2,M
RTS,2022-08-20 00:35,-119.8764,39.6682,1539.00,89.60,32.00,12.84,310.00,7.00,0.00,30.01,M,10.00,14.00,SCT,M,M,M,11000.00,M,M,M,M,M,M,M,M,M,M,85.54,KRTS 200035Z AUTO 31007G14KT 290V350 10SM SCT110 32/00 A3001 RMK AO2,M
MEV,2022-08-20 00:35,-119.7500,38.9963,1441.42,89.60,32.00,12.84,290.00,13.00,0.00,29.98,M,10.00,M,CLR,M,M,M,M,M,M,M,M,M,M,M,M,M,M,85.54,KMEV 200035Z AUTO 29013KT 10SM CLR 32/00 A2998 RMK AO2,M
BAM,2022-08-20 00:35,-116.8743,40.5990,1382.36,86.00,44.60,23.59,340.00,9.00,0.00,29.97,M,10.00,M,CLR,M,M,M,M,M,M,M,M,M,M,M,M,M,M,83.07,KBAM 200035Z AUTO 34009KT 10SM CLR 30/07 A2997 RMK AO1,M
HTH,2022-08-20 00:35,-118.6315,38.5448,1282.89,91.40,32.00,12.14,340.00,11.00,0.00,29.93,M,10.00,M,CLR,M,M,M,M,M,M,M,M,M,M,M,M,M,M,86.91,KHTH 200035Z AUTO 34011KT 10SM CLR 33/00 A2993 RMK A01,M
TMT,2022-08-20 00:35,-117.1971,39.4643,1749.34,83.30,33.00,16.41,320.00,11.00,0.00,30.08,M,10.00,18.00,CLR,M,M,M,M,M,M,M,M,M,M,M,M,M,M,80.64,KTMT 200035Z AUTO 32011G18KT 10SM CLR 29/01 A3008 RMK AO2 T02850006,M
EKO,2022-08-20 00:44,-115.7860,40.8242,1367.00,71.00,48.00,43.83,340.00,10.00,0.00,30.02,M,10.00,M,SCT,M,M,M,10000.00,M,M,M,TS,M,M,M,M,M,M,71.10,KEKO 200044Z AUTO 34010KT 10SM TS SCT100 22/09 A3002 RMK AO2 LTG DSNT SW-N TSB38 T02170089,M
CXP,2022-08-20 00:50,-119.7326,39.1923,1431.00,89.60,32.00,12.84,250.00,7.00,0.00,29.99,M,10.00,14.00,CLR,M,M,M,M,M,M,M,M,M,M,M,M,M,M,85.54,KCXP 200050Z AUTO 25007G14KT 10SM CLR 32/M00 A2999 RMK AO2,M
DRA,2022-08-20 00:53,-116.0278,36.6206,1009.00,97.00,43.00,15.73,0.00,0.00,0.00,29.81,1004.00,10.00,M,FEW,M,M,M,12000.00,M,M,M,M,M,M,M,M,M,M,92.79,KDRA 200053Z AUTO 00000KT 10SM FEW120 36/06 A2981 RMK AO2 SLP040 T03610061,M
ELY,2022-08-20 00:53,-114.8453,39.2950,1909.00,81.00,43.00,26.08,20.00,9.00,0.00,30.07,1008.30,10.00,M,OVC,M,M,M,9500.00,M,M,M,M,M,M,M,M,M,M,79.54,KELY 200053Z AUTO 02009KT 10SM OVC095 27/06 A3007 RMK AO2 SLP083 T02720061,M
VGT,2022-08-20 00:53,-115.1933,36.2111,667.00,101.00,52.00,19.61,160.00,7.00,0.00,29.72,1004.80,10.00,M,CLR,M,M,M,M,M,M,M,M,M,M,M,M,M,M,98.48,KVGT 200053Z 16007KT 10SM CLR 38/11 A2972 RMK AO2 SLP048 T03830111,M
LOL,2022-08-20 00:53,-118.5701,40.0684,1192.43,93.00,37.00,14.09,300.00,11.00,0.00,29.91,1008.60,10.00,M,FEW,M,M,M,12000.00,M,M,M,M,M,M,M,M,M,M,88.63,KLOL 200053Z AUTO 30011KT 10SM FEW120 34/03 A2991 RMK AO2 SLP086 T03390028,M
P68,2022-08-20 00:53,-116.0056,39.6014,1993.00,83.00,35.00,18.01,310.00,11.00,0.00,30.04,1009.10,M,19.00,M,M,M,M,M,M,M,M,M,M,M,M,M,M,M,80.41,KP68 200053Z AUTO 31011G19KT 28/02 A3004 RMK AO1 SLP091 T02830017,M
RNO,2022-08-20 00:55,-119.7711,39.4839,1341.00,91.00,42.00,18.30,220.00,4.00,0.00,29.94,1008.10,10.00,M,FEW,M,M,M,11000.00,M,M,M,M,M,M,M,M,M,M,87.11,KRNO 200055Z 22004KT 10SM FEW110 33/06 A2994 RMK AO2 SLP081 T03280056,M
RTS,2022-08-20 00:55,-119.8764,39.6682,1539.00,87.80,30.20,12.64,340.00,8.00,0.00,30.01,M,10.00,M,SCT,M,M,M,12000.00,M,M,M,M,M,M,M,M,M,M,84.01,KRTS 200055Z AUTO 34008KT 10SM SCT120 31/M01 A3001 RMK AO2,M
MEV,2022-08-20 00:55,-119.7500,38.9963,1441.42,89.60,33.80,13.80,290.00,9.00,0.00,29.98,M,10.00,14.00,CLR,M,M,M,M,M,M,M,M,M,M,M,M,M,M,85.59,KMEV 200055Z AUTO 29009G14KT 10SM CLR 32/01 A2998 RMK AO2,M
BAM,2022-08-20 00:55,-116.8743,40.5990,1382.36,86.00,44.60,23.59,330.00,9.00,0.00,29.97,M,10.00,M,SCT,M,M,M,11000.00,M,M,M,M,M,M,M,M,M,M,83.07,KBAM 200055Z AUTO 33009KT 10SM SCT110 30/07 A2997 RMK AO1,M
HTH,2022-08-20 00:55,-118.6315,38.5448,1282.89,91.40,32.00,12.14,320.00,10.00,0.00,29.93,M,10.00,M,CLR,M,M,M,M,M,M,M,M,M,M,M,M,M,M,86.91,KHTH 200055Z AUTO 32010KT 10SM CLR 33/00 A2993 RMK A01,M
TMT,2022-08-20 00:55,-117.1971,39.4643,1749.34,M,M,M,280.00,10.00,0.00,30.08,M,10.00,M,CLR,M,M,M,M,M,M,M,M,M,M,M,M,M,M,M,KTMT 200055Z AUTO 28010KT 10SM CLR A3008 RMK AO2 LTG DSNT N,M
BVU,2022-08-20 00:55,-114.8611,35.9475,671.00,98.60,50.00,19.52,0.00,0.00,0.00,29.74,M,M,M,M,M,M,M,M,M,M,M,M,M,M,M,M,M,M,95.56,KBVU 200055Z AUTO 00000KT 37/10 A2974 RMK AO2 PWINO TSNO,M
WMC,2022-08-20 00:56,-117.8072,40.9019,1315.00,87.00,44.00,22.34,30.00,6.00,0.00,29.95,1009.60,10.00,M,FEW,M,M,M,11000.00,M,M,M,M,M,M,M,M,M,M,83.91,KWMC 200056Z AUTO 03006KT 10SM FEW110 31/07 A2995 RMK AO2 SLP096 T03060067,M
TPH,2022-08-20 00:56,-117.0904,38.0505,1654.00,88.00,32.00,13.51,350.00,13.00,0.00,30.02,1008.20,10.00,M,CLR,M,M,M,M,M,M,M,M,M,M,M,M,M,M,84.24,KTPH 200056Z AUTO 35013KT 10SM CLR 31/00 A3002 RMK AO2 SLP082 T03110000,M
NFL,2022-08-20 00:56,-118.7010,39.4166,1199.00,93.00,28.00,9.81,10.00,8.00,0.00,29.91,1010.20,10.00,M,FEW,M,M,M,8000.00,M,M,M,M,M,M,M,M,M,M,87.70,KNFL 200056Z 01008KT 10SM FEW080 34/M02 A2991 RMK AO2 SLP102 T03391022,M
LAS,2022-08-20 00:56,-115.1634,36.0719,663.00,100.00,51.00,19.49,120.00,4.00,0.00,29.73,1003.70,10.00,M,FEW,FEW,SCT,M,11000.00,16000.00,22000.00,M,M,M,M,M,M,M,M,97.28,KLAS 200056Z 12004KT 10SM FEW110 FEW160 SCT220 38/11 A2973 RMK AO2 SLP037 T03780106,M
EKO,2022-08-20 00:56,-115.7860,40.8242,1367.00,71.00,47.00,42.05,10.00,5.00,0.00,30.02,1013.20,10.00,M,FEW,M,M,M,10000.00,M,M,M,VCTS,M,M,M,M,M,M,71.10,KEKO 200056Z AUTO 01005KT 10SM VCTS FEW100 22/08 A3002 RMK AO2 LTG DSNT N AND NW TSB38E56 SLP132 T02170083,M
HND,2022-08-20 00:56,-115.1344,35.9729,742.79,97.00,54.00,23.75,M,3.00,0.00,29.78,1006.80,10.00,M,CLR,M,M,M,M,M,M,M,M,M,M,M,M,M,M,94.92,KHND 200056Z VRB03KT 10SM CLR 36/12 A2978 RMK AO2 SLP068 T03610122,M
LSV,2022-08-20 00:58,-115.0343,36.2362,570.00,101.50,54.00,20.80,0.00,0.00,0.00,29.69,1002.70,10.00,M,CLR,M,M,M,M,M,M,M,M,M,M,M,M,M,M,99.80,KLSV 200058Z AUTO 00000KT 10SM CLR 39/12 A2969 RMK AO2 SLP027 T03860123 $,M
INS,2022-08-20 00:58,-115.6733,36.5872,955.00,96.40,41.20,14.95,80.00,3.00,0.00,29.79,1003.40,10.00,M,CLR,M,M,M,M,M,M,M,M,M,M,M,M,M,M,92.03,KINS 200058Z AUTO 08003KT 10SM CLR 36/05 A2979 RMK AO2 SLP034 T03580051 $,M
CXP,2022-08-20 01:15,-119.7326,39.1923,1431.00,89.60,32.00,12.84,260.00,8.00,0.00,29.99,M,10.00,13.00,CLR,M,M,M,M,M,M,M,M,M,M,M,M,M,M,85.54,KCXP 200115Z AUTO 26008G13KT 230V290 10SM CLR 32/00 A2999 RMK AO2,M
BVU,2022-08-20 01:15,-114.8611,35.9475,671.00,98.60,50.00,19.52,M,3.00,0.00,29.73,M,M,M,M,M,M,M,M,M,M,M,M,M,M,M,M,M,M,95.56,KBVU 200115Z AUTO VRB03KT 37/10 A2973 RMK AO2 PWINO TSNO,M
RTS,2022-08-20 01:15,-119.8764,39.6682,1539.00,87.80,28.40,11.74,320.00,9.00,0.00,30.01,M,10.00,16.00,FEW,M,M,M,12000.00,M,M,M,M,M,M,M,M,M,M,83.84,KRTS 200115Z AUTO 32009G16KT 10SM FEW120 31/M02 A3001 RMK AO2,M
MEV,2022-08-20 01:15,-119.7500,38.9963,1441.42,87.80,35.60,15.70,280.00,8.00,0.00,29.97,M,10.00,M,CLR,M,M,M,M,M,M,M,M,M,M,M,M,M,M,84.12,KMEV 200115Z AUTO 28008KT 10SM CLR 31/02 A2997 RMK AO2,M
BAM,2022-08-20 01:15,-116.8743,40.5990,1382.36,84.20,44.60,24.99,340.00,7.00,0.00,29.97,M,10.00,M,SCT,M,M,M,11000.00,M,M,M,M,M,M,M,M,M,M,81.73,KBAM 200115Z AUTO 34007KT 10SM SCT110 29/07 A2997 RMK AO1,M
HTH,2022-08-20 01:15,-118.6315,38.5448,1282.89,91.40,32.00,12.14,340.00,11.00,0.00,29.92,M,10.00,M,CLR,M,M,M,M,M,M,M,M,M,M,M,M,M,M,86.91,KHTH 200115Z AUTO 34011KT 10SM CLR 33/00 A2992 RMK A01,M
TMT,2022-08-20 01:15,-117.1971,39.4643,1749.34,M,M,M,300.00,9.00,0.00,30.07,M,10.00,14.00,CLR,M,M,M,M,M,M,M,M,M,M,M,M,M,M,M,KTMT 200115Z AUTO 30009G14KT 10SM CLR A3007 RMK AO2,M
EKO,2022-08-20 01:34,-115.7860,40.8242,1367.00,66.00,49.00,54.01,M,3.00,0.00,30.05,M,10.00,M,BKN,M,M,M,8500.00,M,M,M,TS,M,M,M,M,M,M,66.00,KEKO 200134Z AUTO VRB03KT 10SM TS BKN085 19/09 A3005 RMK AO2 LTG DSNT S TSB28 T01890094,M
RTS,2022-08-20 01:35,-119.8764,39.6682,1539.00,87.80,32.00,13.59,320.00,9.00,0.00,30.01,M,10.00,M,CLR,M,M,M,M,M,M,M,M,M,M,M,M,M,M,84.08,KRTS 200135Z AUTO 32009KT 10SM CLR 31/M00 A3001 RMK AO2,M
CXP,2022-08-20 01:35,-119.7326,39.1923,1431.00,87.80,35.60,15.70,250.00,8.00,0.00,29.98,M,10.00,M,CLR,M,M,M,M,M,M,M,M,M,M,M,M,M,M,84.12,KCXP 200135Z AUTO 25008KT 220V280 10SM CLR 31/02 A2998 RMK AO2,M
TMT,2022-08-20 01:35,-117.1971,39.4643,1749.34,M,M,M,290.00,10.00,0.00,30.07,M,10.00,M,CLR,M,M,M,M,M,M,M,M,M,M,M,M,M,M,M,KTMT 200135Z AUTO 29010KT 10SM CLR A3007 RMK AO2,M
MEV,2022-08-20 01:35,-119.7500,38.9963,1441.42,87.80,37.40,16.86,280.00,8.00,0.00,29.97,M,10.00,M,CLR,M,M,M,M,M,M,M,M,M,M,M,M,M,M,84.16,KMEV 200135Z AUTO 28008KT 10SM CLR 31/03 A2997 RMK AO2,M
HTH,2022-08-20 01:35,-118.6315,38.5448,1282.89,91.40,33.80,13.05,320.00,13.00,0.00,29.92,M,10.00,M,CLR,M,M,M,M,M,M,M,M,M,M,M,M,M,M,87.13,KHTH 200135Z AUTO 32013KT 10SM CLR 33/01 A2992 RMK A01,M
BAM,2022-08-20 01:35,-116.8743,40.5990,1382.36,86.00,44.60,23.59,340.00,6.00,0.00,29.97,M,10.00,M,CLR,M,M,M,M,M,M,M,M,M,M,M,M,M,M,83.07,KBAM 200135Z AUTO 34006KT 10SM CLR 30/07 A2997 RMK AO1,M
BVU,2022-08-20 01:35,-114.8611,35.9475,671.00,98.60,50.00,19.52,300.00,3.00,0.00,29.73,M,M,M,M,M,M,M,M,M,M,M,M,M,M,M,M,M,M,95.56,KBVU 200135Z AUTO 30003KT 37/10 A2973 RMK AO2 PWINO TSNO,M
CXP,2022-08-20 01:50,-119.7326,39.1923,1431.00,87.80,37.40,16.86,270.00,8.00,0.00,29.99,M,10.00,M,CLR,M,M,M,M,M,M,M,M,M,M,M,M,M,M,84.16,KCXP 200150Z AUTO 27008KT 10SM CLR 31/03 A2999 RMK AO2,M
P68,2022-08-20 01:53,-116.0056,39.6014,1993.00,80.00,35.00,19.72,310.00,12.00,0.00,30.05,1009.60,M,21.00,M,M,M,M,M,M,M,M,M,M,M,M,M,M,M,78.74,KP68 200153Z AUTO 31012G21KT 27/02 A3005 RMK AO1 SLP096 T02670017,M
ELY,2022-08-20 01:53,-114.8453,39.2950,1909.00,77.00,43.00,29.74,20.00,7.00,0.00,30.07,1008.90,10.00,M,CLR,M,M,M,M,M,M,M,M,M,M,M,M,M,M,77.00,KELY 200153Z AUTO 02007KT 10SM CLR 25/06 A3007 RMK AO2 LTG DSNT N SLP089 T02500061,M
DRA,2022-08-20 01:53,-116.0278,36.6206,1009.00,97.00,42.00,15.20,10.00,3.00,0.00,29.80,1003.40,10.00,M,CLR,M,M,M,M,M,M,M,M,M,M,M,M,M,M,92.69,KDRA 200153Z AUTO 01003KT 10SM CLR 36/06 A2980 RMK AO2 SLP034 T03610056,M
LOL,2022-08-20 01:53,-118.5701,40.0684,1192.43,91.00,35.00,13.91,320.00,8.00,0.00,29.90,1008.70,10.00,M,CLR,M,M,M,M,M,M,M,M,M,M,M,M,M,M,86.81,KLOL 200153Z AUTO 32008KT 10SM CLR 33/02 A2990 RMK AO2 SLP087 T03280017,M
VGT,2022-08-20 01:53,-115.1933,36.2111,667.00,100.00,51.00,19.49,130.00,6.00,0.00,29.71,1004.70,10.00,M,CLR,M,M,M,M,M,M,M,M,M,M,M,M,M,M,97.28,KVGT 200153Z AUTO 13006KT 10SM CLR 38/11 A2971 RMK AO2 SLP047 T03780106,M
EKO,2022-08-20 01:54,-115.7860,40.8242,1367.00,62.60,53.60,72.38,50.00,9.00,T,30.04,M,10.00,18.00,BKN,OVC,M,M,8500.00,10000.00,M,M,-RA,M,M,M,M,M,M,62.60,KEKO 200154Z AUTO 05009G18KT 10SM -RA BKN085 OVC100 17/12 A3004 RMK AO2 RAB36 TSB28E51 P0000,M
RNO,2022-08-20 01:55,-119.7711,39.4839,1341.00,90.00,44.00,20.39,210.00,7.00,0.00,29.94,1007.90,10.00,M,FEW,M,M,M,11000.00,M,M,M,M,M,M,M,M,M,M,86.38,KRNO 200155Z 21007KT 10SM FEW110 32/07 A2994 RMK AO2 SLP079 HZ DSNT SW THRU NW T03220067,M
BVU,2022-08-20 01:55,-114.8611,35.9475,671.00,96.80,53.60,23.55,200.00,6.00,0.00,29.73,M,M,M,M,M,M,M,M,M,M,M,M,M,M,M,M,M,M,94.59,KBVU 200155Z AUTO 20006KT 36/12 A2973 RMK AO2 PWINO TSNO,M
RTS,2022-08-20 01:55,-119.8764,39.6682,1539.00,86.00,32.00,14.40,340.00,9.00,0.00,30.01,M,10.00,14.00,FEW,M,M,M,12000.00,M,M,M,M,M,M,M,M,M,M,82.64,KRTS 200155Z AUTO 34009G14KT 320V020 10SM FEW120 30/00 A3001 RMK AO2,M
MEV,2022-08-20 01:55,-119.7500,38.9963,1441.42,86.00,37.40,17.85,280.00,12.00,0.00,29.98,M,10.00,M,CLR,M,M,M,M,M,M,M,M,M,M,M,M,M,M,82.73,KMEV 200155Z AUTO 28012KT 10SM CLR 30/03 A2998 RMK AO2,M
BAM,2022-08-20 01:55,-116.8743,40.5990,1382.36,86.00,44.60,23.59,340.00,9.00,0.00,29.97,M,10.00,M,CLR,M,M,M,M,M,M,M,M,M,M,M,M,M,M,83.07,KBAM 200155Z AUTO 34009KT 10SM CLR 30/07 A2997 RMK AO1,M
HTH,2022-08-20 01:55,-118.6315,38.5448,1282.89,89.60,35.60,14.83,320.00,12.00,0.00,29.92,M,10.00,M,CLR,M,M,M,M,M,M,M,M,M,M,M,M,M,M,85.62,KHTH 200155Z AUTO 32012KT 10SM CLR 32/02 A2992 RMK A01,M
TMT,2022-08-20 01:55,-117.1971,39.4643,1749.34,M,M,M,310.00,8.00,0.00,30.07,M,10.00,M,CLR,M,M,M,M,M,M,M,M,M,M,M,M,M,M,M,KTMT 200155Z AUTO 31008KT 10SM CLR A3007 RMK AO2,M
EKO,2022-08-20 01:56,-115.7860,40.8242,1367.00,63.00,53.00,70.07,50.00,7.00,T,30.04,1014.30,10.00,M,BKN,OVC,M,M,8500.00,10000.00,M,M,-RA,M,M,M,M,M,M,63.00,KEKO 200156Z AUTO 05007KT 10SM -RA BKN085 OVC100 17/12 A3004 RMK AO2 RAB36 TSB28E51 SLP143 P0000 T01720117,M
WMC,2022-08-20 01:56,-117.8072,40.9019,1315.00,87.00,45.00,23.12,30.00,7.00,0.00,29.94,1009.00,10.00,M,FEW,M,M,M,12000.00,M,M,M,M,M,M,M,M,M,M,83.98,KWMC 200156Z AUTO 03007KT 10SM FEW120 31/07 A2994 RMK AO2 SLP090 T03060072,M
TPH,2022-08-20 01:56,-117.0904,38.0505,1654.00,85.00,34.00,16.16,340.00,6.00,0.00,30.01,1008.00,10.00,M,CLR,M,M,M,M,M,M,M,M,M,M,M,M,M,M,81.82,KTPH 200156Z AUTO 34006KT 10SM CLR 29/01 A3001 RMK AO2 SLP080 T02940011,M
HND,2022-08-20 01:56,-115.1344,35.9729,742.79,97.00,55.00,24.63,0.00,0.00,0.00,29.77,1006.50,10.00,M,CLR,M,M,M,M,M,M,M,M,M,M,M,M,M,M,95.23,KHND 200156Z 00000KT 10SM CLR 36/13 A2977 RMK AO2 SLP065 T03610128,M
NFL,2022-08-20 01:56,-118.7010,39.4166,1199.00,91.00,25.00,9.23,30.00,8.00,0.00,29.90,1010.00,10.00,M,FEW,M,M,M,8000.00,M,M,M,M,M,M,M,M,M,M,85.93,KNFL 200156Z 03008KT 10SM FEW080 33/M04 A2990 RMK AO2 SLP100 T03281039,M
LAS,2022-08-20 01:56,-115.1634,36.0719,663.00,99.00,52.00,20.77,200.00,5.00,0.00,29.73,1003.60,10.00,M,FEW,FEW,M,M,11000.00,22000.00,M,M,M,M,M,M,M,M,M,96.47,KLAS 200156Z 20005KT 10SM FEW110 FEW220 37/11 A2973 RMK AO2 SLP036 TCU DSNT E T03720111,M
INS,2022-08-20 01:58,-115.6733,36.5872,955.00,95.40,43.50,16.84,110.00,8.00,0.00,29.79,1003.50,10.00,M,FEW,M,M,M,14000.00,M,M,M,M,M,M,M,M,M,M,91.31,KINS 200158Z AUTO 11008KT 10SM FEW140 35/06 A2979 RMK AO2 SLP035 T03520064 $,M
LSV,2022-08-20 01:58,-115.0343,36.2362,570.00,98.60,55.40,23.81,110.00,4.00,0.00,29.69,1002.70,10.00,M,CLR,M,M,M,M,M,M,M,M,M,M,M,M,M,M,97.09,KLSV 200158Z AUTO 11004KT 10SM CLR 37/13 A2969 RMK AO2 SLP027 T03700130 $,M
BAM,2022-08-20 02:15,-116.8743,40.5990,1382.36,82.40,44.60,26.49,350.00,7.00,0.00,29.98,M,10.00,M,CLR,M,M,M,M,M,M,M,M,M,M,M,M,M,M,80.50,KBAM 200215Z AUTO 35007KT 10SM CLR 28/07 A2998 RMK AO1,M
HTH,2022-08-20 02:15,-118.6315,38.5448,1282.89,87.80,37.40,16.86,320.00,11.00,0.00,29.93,M,10.00,M,CLR,M,M,M,M,M,M,M,M,M,M,M,M,M,M,84.16,KHTH 200215Z AUTO 32011KT 10SM CLR 31/03 A2993 RMK A01,M
TMT,2022-08-20 02:15,-117.1971,39.4643,1749.34,M,M,M,310.00,8.00,0.00,30.08,M,10.00,M,CLR,M,M,M,M,M,M,M,M,M,M,M,M,M,M,M,KTMT 200215Z AUTO 31008KT 10SM CLR A3008 RMK AO2,M
BVU,2022-08-20 02:15,-114.8611,35.9475,671.00,96.80,53.60,23.55,240.00,5.00,0.00,29.74,M,M,M,M,M,M,M,M,M,M,M,M,M,M,M,M,M,M,94.59,KBVU 200215Z AUTO 24005KT 36/12 A2974 RMK AO2 PWINO TSNO,M
CXP,2022-08-20 02:15,-119.7326,39.1923,1431.00,86.00,39.20,19.15,280.00,9.00,0.00,29.99,M,10.00,19.00,CLR,M,M,M,M,M,M,M,M,M,M,M,M,M,M,82.79,KCXP 200215Z AUTO 28009G19KT 10SM CLR 30/04 A2999 RMK AO2,M
RTS,2022-08-20 02:15,-119.8764,39.6682,1539.00,84.20,35.60,17.61,360.00,4.00,0.00,30.02,M,10.00,M,FEW,M,M,M,12000.00,M,M,M,M,M,M,M,M,M,M,81.34,KRTS 200215Z AUTO 36004KT 10SM FEW120 29/02 A3002 RMK AO2,M
MEV,2022-08-20 02:15,-119.7500,38.9963,1441.42,84.20,37.40,18.91,280.00,12.00,0.00,29.98,M,10.00,18.00,CLR,M,M,M,M,M,M,M,M,M,M,M,M,M,M,81.38,KMEV 200215Z AUTO 28012G18KT 10SM CLR 29/03 A2998 RMK AO2,M
RTS,2022-08-20 02:35,-119.8764,39.6682,1539.00,82.40,35.60,18.67,350.00,8.00,0.00,30.03,M,10.00,M,CLR,M,M,M,M,M,M,M,M,M,M,M,M,M,M,80.08,KRTS 200235Z AUTO 35008KT 10SM CLR 28/02 A3003 RMK AO2,M
CXP,2022-08-20 02:35,-119.7326,39.1923,1431.00,84.20,37.40,18.91,290.00,10.00,0.00,29.99,M,10.00,15.00,CLR,M,M,M,M,M,M,M,M,M,M,M,M,M,M,81.38,KCXP 200235Z AUTO 29010G15KT 10SM CLR 29/03 A2999 RMK AO2,M
BAM,2022-08-20 02:35,-116.8743,40.5990,1382.36,80.60,44.60,28.08,340.00,5.00,0.00,29.98,M,10.00,M,CLR,M,M,M,M,M,M,M,M,M,M,M,M,M,M,79.42,KBAM 200235Z AUTO 34005KT 10SM CLR 27/07 A2998 RMK AO1,M
MEV,2022-08-20 02:35,-119.7500,38.9963,1441.42,82.40,35.60,18.67,280.00,13.00,0.00,29.98,M,10.00,M,CLR,M,M,M,M,M,M,M,M,M,M,M,M,M,M,80.08,KMEV 200235Z AUTO 28013KT 10SM CLR 28/02 A2998 RMK AO2,M
TMT,2022-08-20 02:35,-117.1971,39.4643,1749.34,M,M,M,310.00,8.00,0.00,30.08,M,10.00,M,CLR,M,M,M,M,M,M,M,M,M,M,M,M,M,M,M,KTMT 200235Z AUTO 31008KT 10SM CLR A3008 RMK AO2,M
HTH,2022-08-20 02:35,-118.6315,38.5448,1282.89,86.00,39.20,19.15,310.00,10.00,0.00,29.93,M,10.00,M,CLR,M,M,M,M,M,M,M,M,M,M,M,M,M,M,82.79,KHTH 200235Z AUTO 31010KT 10SM CLR 30/04 A2993 RMK A01,M
BVU,2022-08-20 02:35,-114.8611,35.9475,671.00,93.20,57.20,29.99,240.00,4.00,0.00,29.74,M,M,M,M,M,M,M,M,M,M,M,M,M,M,M,M,M,M,91.91,KBVU 200235Z AUTO 24004KT 34/14 A2974 RMK AO2 PWINO TSNO,M
LOL,2022-08-20 02:53,-118.5701,40.0684,1192.43,85.00,37.00,18.20,300.00,6.00,0.00,29.91,1008.90,10.00,M,CLR,M,M,M,M,M,M,M,M,M,M,M,M,M,M,81.88,KLOL 200253Z AUTO 30006KT 10SM CLR 29/03 A2991 RMK AO2 SLP089 T02940028 55003,M
ELY,2022-08-20 02:53,-114.8453,39.2950,1909.00,69.00,47.00,45.02,20.00,18.00,0.00,30.10,1010.10,10.00,30.00,FEW,M,M,M,10000.00,M,M,M,M,M,M,M,31.00,30.00,2022-08-20 02:37,69.10,KELY 200253Z AUTO 02018G30KT 10SM FEW100 21/08 A3010 RMK AO2 PK WND 03031/0237 SLP101 T02060083 53008,M
VGT,2022-08-20 02:53,-115.1933,36.2111,667.00,99.00,54.00,22.35,210.00,8.00,0.00,29.73,1005.10,10.00,M,CLR,M,M,M,M,M,M,M,M,M,M,M,M,M,M,97.06,KVGT 200253Z 21008KT 10SM CLR 37/12 A2973 RMK AO2 SLP051 T03720122 55001,M
DRA,2022-08-20 02:53,-116.0278,36.6206,1009.00,92.00,44.00,19.21,250.00,5.00,0.00,29.81,1004.00,10.00,M,CLR,M,M,M,M,M,M,M,M,M,M,M,M,M,M,88.09,KDRA 200253Z AUTO 25005KT 10SM CLR 33/07 A2981 RMK AO2 SLP040 T03330067 55002,M
P68,2022-08-20 02:53,-116.0056,39.6014,1993.00,72.00,43.00,35.16,340.00,10.00,0.00,30.07,1010.00,M,M,M,M,M,M,M,M,M,M,M,M,M,M,M,M,M,72.00,KP68 200253Z AUTO 34010KT 22/06 A3007 RMK AO1 SLP100 T02220061 53008,M
BVU,2022-08-20 02:55,-114.8611,35.9475,671.00,91.40,59.00,33.84,260.00,4.00,0.00,29.75,M,M,M,M,M,M,M,M,M,M,M,M,M,M,M,M,M,M,90.68,KBVU 200255Z AUTO 26004KT 33/15 A2975 RMK AO2 PWINO TSNO,M
MEV,2022-08-20 02:55,-119.7500,38.9963,1441.42,80.60,37.40,21.25,290.00,9.00,0.00,29.99,M,10.00,14.00,CLR,M,M,M,M,M,M,M,M,M,M,M,M,M,M,79.02,KMEV 200255Z AUTO 29009G14KT 10SM CLR 27/03 A2999 RMK AO2,M
BAM,2022-08-20 02:55,-116.8743,40.5990,1382.36,78.80,44.60,29.79,340.00,4.00,0.00,29.99,M,10.00,M,CLR,M,M,M,M,M,M,M,M,M,M,M,M,M,M,78.80,KBAM 200255Z AUTO 34004KT 10SM CLR 26/07 A2999 RMK AO1,M
HTH,2022-08-20 02:55,-118.6315,38.5448,1282.89,84.20,37.40,18.91,310.00,9.00,0.00,29.94,M,10.00,M,CLR,M,M,M,M,M,M,M,M,M,M,M,M,M,M,81.38,KHTH 200255Z AUTO 31009KT 10SM CLR 29/03 A2994 RMK A01,M
RNO,2022-08-20 02:55,-119.7711,39.4839,1341.00,86.00,44.00,23.14,280.00,12.00,0.00,29.96,1008.90,10.00,M,FEW,M,M,M,12000.00,M,M,M,M,M,M,M,M,M,M,83.04,KRNO 200255Z 28012KT 10SM FEW120 30/07 A2996 RMK AO2 SLP089 T03000067 53002,M
TMT,2022-08-20 02:55,-117.1971,39.4643,1749.34,71.60,35.00,26.18,310.00,9.00,0.00,30.09,M,10.00,M,CLR,M,M,M,M,M,M,M,M,M,M,M,M,M,M,71.60,KTMT 200255Z AUTO 31009KT 10SM CLR 22/02 A3009 RMK AO2 T02200017,M
CXP,2022-08-20 02:55,-119.7326,39.1923,1431.00,82.40,39.20,21.51,290.00,6.00,0.00,30.00,M,10.00,14.00,CLR,M,M,M,M,M,M,M,M,M,M,M,M,M,M,80.21,KCXP 200255Z AUTO 29006G14KT 10SM CLR 28/04 A3000 RMK AO2,M
RTS,2022-08-20 02:55,-119.8764,39.6682,1539.00,78.80,37.40,22.54,290.00,6.00,0.00,30.04,M,10.00,M,CLR,M,M,M,M,M,M,M,M,M,M,M,M,M,M,78.80,KRTS 200255Z AUTO 29006KT 10SM CLR 26/03 A3004 RMK AO2,M
WMC,2022-08-20 02:56,-117.8072,40.9019,1315.00,81.00,46.00,29.23,70.00,4.00,0.00,29.95,1009.40,10.00,M,BKN,M,M,M,11000.00,M,M,M,M,M,M,M,M,M,M,79.76,KWMC 200256Z AUTO 07004KT 10SM BKN110 27/08 A2995 RMK AO2 SLP094 T02720078 55002,M
HND,2022-08-20 02:56,-115.1344,35.9729,742.79,94.00,57.00,29.14,190.00,5.00,0.00,29.79,1006.80,10.00,M,CLR,M,M,M,M,M,M,M,M,M,M,M,M,M,M,92.58,KHND 200256Z 19005KT 10SM CLR 34/14 A2979 RMK AO2 SLP068 T03440139 55002,M
TPH,2022-08-20 02:56,-117.0904,38.0505,1654.00,81.00,36.00,19.85,330.00,7.00,0.00,30.02,1008.40,10.00,M,CLR,M,M,M,M,M,M,M,M,M,M,M,M,M,M,79.20,KTPH 200256Z AUTO 33007KT 10SM CLR 27/02 A3002 RMK AO2 SLP084 T02720022 55001,M
LAS,2022-08-20 02:56,-115.1634,36.0719,663.00,97.00,54.00,23.75,180.00,5.00,0.00,29.74,1004.00,10.00,M,FEW,FEW,M,M,11000.00,22000.00,M,M,M,M,M,M,M,M,M,94.92,KLAS 200256Z 18005KT 10SM FEW110 FEW220 36/12 A2974 RMK AO2 SLP040 T03610122 55003,M
NFL,2022-08-20 02:56,-118.7010,39.4166,1199.00,83.00,35.00,18.01,50.00,5.00,0.00,29.91,1010.20,10.00,M,FEW,M,M,M,8000.00,M,M,M,M,M,M,M,M,M,M,80.41,KNFL 200256Z 05005KT 10SM FEW080 28/02 A2991 RMK AO2 SLP102 T02830017 55005,M
EKO,2022-08-20 02:56,-115.7860,40.8242,1367.00,61.00,51.00,69.86,360.00,4.00,T,30.05,1014.20,10.00,M,BKN,M,M,M,10000.00,M,M,M,M,M,M,M,M,M,M,61.00,KEKO 200256Z AUTO 36004KT 10SM BKN100 16/11 A3005 RMK AO2 RAE13 SLP142 P0000 60000 T01610106 51011,M
LSV,2022-08-20 02:58,-115.0343,36.2362,570.00,96.30,54.70,24.89,190.00,4.00,0.00,29.70,1003.00,10.00,M,CLR,M,M,M,M,M,M,M,M,M,M,M,M,M,M,94.39,KLSV 200258Z AUTO 19004KT 10SM CLR 36/13 A2970 RMK AO2 SLP030 T03570126 55002 $,M
INS,2022-08-20 02:58,-115.6733,36.5872,955.00,92.00,43.70,18.92,120.00,6.00,0.00,29.80,1003.90,10.00,M,CLR,M,M,M,M,M,M,M,M,M,M,M,M,M,M,88.05,KINS 200258Z AUTO 12006KT 10SM CLR 33/07 A2980 RMK AO2 SLP039 T03330065 55001 $,M
CXP,2022-08-20 03:10,-119.7326,39.1923,1431.00,82.40,37.40,20.04,0.00,0.00,0.00,30.00,M,10.00,M,CLR,M,M,M,M,M,M,M,M,M,M,M,M,M,M,80.14,KCXP 200310Z AUTO 00000KT 10SM CLR 28/03 A3000 RMK AO2,M
HTH,2022-08-20 03:15,-118.6315,38.5448,1282.89,84.20,37.40,18.91,320.00,7.00,0.00,29.94,M,10.00,M,CLR,M,M,M,M,M,M,M,M,M,M,M,M,M,M,81.38,KHTH 200315Z AUTO 32007KT 10SM CLR 29/03 A2994 RMK A01,M
BAM,2022-08-20 03:15,-116.8743,40.5990,1382.36,77.00,44.60,31.62,340.00,5.00,0.00,29.99,M,10.00,M,CLR,M,M,M,M,M,M,M,M,M,M,M,M,M,M,77.00,KBAM 200315Z AUTO 34005KT 10SM CLR 25/07 A2999 RMK AO1,M
MEV,2022-08-20 03:15,-119.7500,38.9963,1441.42,78.80,37.40,22.54,310.00,9.00,0.00,30.00,M,10.00,14.00,CLR,M,M,M,M,M,M,M,M,M,M,M,M,M,M,78.80,KMEV 200315Z AUTO 31009G14KT 10SM CLR 26/03 A3000 RMK AO2,M
RTS,2022-08-20 03:15,-119.8764,39.6682,1539.00,77.00,37.40,23.93,290.00,6.00,0.00,30.05,M,10.00,M,CLR,M,M,M,M,M,M,M,M,M,M,M,M,M,M,77.00,KRTS 200315Z AUTO 29006KT 10SM CLR 25/03 A3005 RMK AO2,M
BVU,2022-08-20 03:15,-114.8611,35.9475,671.00,91.40,60.80,36.08,0.00,0.00,0.00,29.75,M,M,M,M,M,M,M,M,M,M,M,M,M,M,M,M,M,M,91.40,KBVU 200315Z AUTO 00000KT 33/16 A2975 RMK AO2 PWINO TSNO,M
TMT,2022-08-20 03:15,-117.1971,39.4643,1749.34,M,M,M,290.00,7.00,0.00,30.09,M,10.00,M,CLR,M,M,M,M,M,M,M,M,M,M,M,M,M,M,M,KTMT 200315Z AUTO 29007KT 10SM CLR A3009 RMK AO2,M
BAM,2022-08-20 03:35,-116.8743,40.5990,1382.36,75.20,44.60,33.57,330.00,4.00,0.00,29.99,M,10.00,M,CLR,M,M,M,M,M,M,M,M,M,M,M,M,M,M,75.20,KBAM 200335Z AUTO 33004KT 10SM CLR 24/07 A2999 RMK AO1,M
RTS,2022-08-20 03:35,-119.8764,39.6682,1539.00,77.00,37.40,23.93,280.00,8.00,0.00,30.05,M,10.00,M,CLR,M,M,M,M,M,M,M,M,M,M,M,M,M,M,77.00,KRTS 200335Z AUTO 28008KT 10SM CLR 25/03 A3005 RMK AO2,M
CXP,2022-08-20 03:35,-119.7326,39.1923,1431.00,78.80,39.20,24.19,0.00,0.00,0.00,30.01,M,10.00,M,CLR,M,M,M,M,M,M,M,M,M,M,M,M,M,M,78.80,KCXP 200335Z AUTO 00000KT 10SM CLR 26/04 A3001 RMK AO2,M
BVU,2022-08-20 03:35,-114.8611,35.9475,671.00,91.40,60.80,36.08,0.00,0.00,0.00,29.75,M,M,M,M,M,M,M,M,M,M,M,M,M,M,M,M,M,M,91.40,KBVU 200335Z AUTO 00000KT 33/16 A2975 RMK AO2 PWINO TSNO,M
TMT,2022-08-20 03:35,-117.1971,39.4643,1749.34,66.70,36.50,32.74,290.00,7.00,0.00,30.10,M,10.00,M,CLR,M,M,M,M,M,M,M,M,M,M,M,M,M,M,66.70,KTMT 200335Z AUTO 29007KT 10SM CLR 19/03 A3010 RMK AO2 LTG DSNT E T01930025,M
HTH,2022-08-20 03:35,-118.6315,38.5448,1282.89,82.40,37.40,20.04,320.00,8.00,0.00,29.95,M,10.00,M,CLR,M,M,M,M,M,M,M,M,M,M,M,M,M,M,80.14,KHTH 200335Z AUTO 32008KT 10SM CLR 28/03 A2995 RMK A01,M
MEV,2022-08-20 03:35,-119.7500,38.9963,1441.42,78.80,37.40,22.54,290.00,6.00,0.00,30.00,M,10.00,11.00,CLR,M,M,M,M,M,M,M,M,M,M,M,M,M,M,78.80,KMEV 200335Z AUTO 29006G11KT 10SM CLR 26/03 A3000 RMK AO2,M
LOL,2022-08-20 03:53,-118.5701,40.0684,1192.43,78.00,38.00,23.53,0.00,0.00,0.00,29.92,1009.00,10.00,M,CLR,M,M,M,M,M,M,M,M,M,M,M,M,M,M,78.10,KLOL 200353Z AUTO 00000KT 10SM CLR 26/03 A2992 RMK AO2 SLP090 T02560033,M
P68,2022-08-20 03:53,-116.0056,39.6014,1993.00,68.00,44.00,42.04,80.00,5.00,0.00,30.09,1010.70,M,M,M,M,M,M,M,M,M,M,M,M,M,M,M,M,M,68.00,KP68 200353Z AUTO 08005KT 20/07 A3009 RMK AO1 SLP107 T02000067,M
VGT,2022-08-20 03:53,-115.1933,36.2111,667.00,97.00,55.00,24.63,220.00,5.00,0.00,29.74,1005.80,10.00,M,CLR,M,M,M,M,M,M,M,M,M,M,M,M,M,M,95.23,KVGT 200353Z AUTO 22005KT 10SM CLR 36/13 A2974 RMK AO2 SLP058 T03610128,M
ELY,2022-08-20 03:53,-114.8453,39.2950,1909.00,66.00,48.00,52.22,30.00,10.00,0.00,30.11,1009.90,10.00,M,CLR,M,M,M,M,M,M,M,M,M,M,M,M,M,M,66.00,KELY 200353Z AUTO 03010KT 10SM CLR 19/09 A3011 RMK AO2 SLP099 T01890089,M
DRA,2022-08-20 03:53,-116.0278,36.6206,1009.00,87.00,44.00,22.34,40.00,5.00,0.00,29.83,1004.60,10.00,M,CLR,M,M,M,M,M,M,M,M,M,M,M,M,M,M,83.91,KDRA 200353Z AUTO 04005KT 10SM CLR 31/07 A2983 RMK AO2 SLP046 T03060067,M
TMT,2022-08-20 03:55,-117.1971,39.4643,1749.34,64.60,37.00,35.78,300.00,5.00,0.00,30.10,M,10.00,M,CLR,M,M,M,M,M,M,M,M,M,M,M,M,M,M,64.60,KTMT 200355Z AUTO 30005KT 10SM CLR 18/03 A3010 RMK AO2 LTG DSNT E T01810027,M
RNO,2022-08-20 03:55,-119.7711,39.4839,1341.00,84.00,41.00,21.90,300.00,12.00,0.00,29.98,1009.30,10.00,M,CLR,M,M,M,M,M,M,M,M,M,M,M,M,M,M,81.37,KRNO 200355Z 30012KT 10SM CLR 29/05 A2998 RMK AO2 SLP093 T02890050,M
HTH,2022-08-20 03:55,-118.6315,38.5448,1282.89,80.60,37.40,21.25,330.00,6.00,0.00,29.96,M,10.00,M,CLR,M,M,M,M,M,M,M,M,M,M,M,M,M,M,79.02,KHTH 200355Z AUTO 33006KT 10SM CLR 27/03 A2996 RMK A01,M
RTS,2022-08-20 03:55,-119.8764,39.6682,1539.00,73.40,37.40,26.98,270.00,7.00,0.00,30.06,M,10.00,M,CLR,M,M,M,M,M,M,M,M,M,M,M,M,M,M,73.40,KRTS 200355Z AUTO 27007KT 10SM CLR 23/03 A3006 RMK AO2,M
BAM,2022-08-20 03:55,-116.8743,40.5990,1382.36,75.20,44.60,33.57,310.00,3.00,0.00,30.00,M,10.00,M,CLR,M,M,M,M,M,M,M,M,M,M,M,M,M,M,75.20,KBAM 200355Z AUTO 31003KT 10SM CLR 24/07 A3000 RMK AO1,M
MEV,2022-08-20 03:55,-119.7500,38.9963,1441.42,77.00,35.60,22.28,310.00,6.00,0.00,30.01,M,10.00,11.00,CLR,M,M,M,M,M,M,M,M,M,M,M,M,M,M,77.00,KMEV 200355Z AUTO 31006G11KT 10SM CLR 25/02 A3001 RMK AO2,M
CXP,2022-08-20 03:55,-119.7326,39.1923,1431.00,80.60,39.20,22.81,0.00,0.00,0.00,30.02,M,10.00,M,CLR,M,M,M,M,M,M,M,M,M,M,M,M,M,M,79.10,KCXP 200355Z AUTO 00000KT 10SM CLR 27/04 A3002 RMK AO2,M
BVU,2022-08-20 03:55,-114.8611,35.9475,671.00,89.60,59.00,35.81,300.00,3.00,0.00,29.76,M,M,M,M,M,M,M,M,M,M,M,M,M,M,M,M,M,M,88.86,KBVU 200355Z AUTO 30003KT 32/15 A2976 RMK AO2 PWINO TSNO,M
LAS,2022-08-20 03:56,-115.1634,36.0719,663.00,96.00,54.00,24.42,200.00,4.00,0.00,29.76,1004.50,10.00,M,FEW,FEW,M,M,11000.00,22000.00,M,M,M,M,M,M,M,M,M,93.97,KLAS 200356Z 20004KT 10SM FEW110 FEW220 36/12 A2976 RMK AO2 SLP045 T03560122,M
HND,2022-08-20 03:56,-115.1344,35.9729,742.79,91.00,59.00,34.27,160.00,5.00,0.00,29.80,1007.40,10.00,M,CLR,M,M,M,M,M,M,M,M,M,M,M,M,M,M,90.27,KHND 200356Z AUTO 16005KT 10SM CLR 33/15 A2980 RMK AO2 SLP074 T03280150,M
TPH,2022-08-20 03:56,-117.0904,38.0505,1654.00,76.00,39.00,26.42,330.00,5.00,0.00,30.04,1008.80,10.00,M,CLR,M,M,M,M,M,M,M,M,M,M,M,M,M,M,75.90,KTPH 200356Z AUTO 33005KT 10SM CLR 24/04 A3004 RMK AO2 SLP088 T02440039,M
NFL,2022-08-20 03:56,-118.7010,39.4166,1199.00,79.00,36.00,21.19,60.00,6.00,0.00,29.93,1010.80,10.00,M,FEW,M,M,M,8000.00,M,M,M,M,M,M,M,M,M,M,79.00,KNFL 200356Z 06006KT 10SM FEW080 26/02 A2993 RMK AO2 SLP108 T02610022,M
EKO,2022-08-20 03:56,-115.7860,40.8242,1367.00,58.00,56.00,93.04,110.00,4.00,T,30.06,1014.40,10.00,M,FEW,M,M,M,11000.00,M,M,M,M,M,M,M,M,M,M,57.90,KEKO 200356Z AUTO 11004KT 10SM FEW110 14/13 A3006 RMK AO2 RAB18E32 SLP144 P0000 T01440133,M
WMC,2022-08-20 03:56,-117.8072,40.9019,1315.00,77.00,45.00,32.10,0.00,0.00,0.00,29.96,1009.30,10.00,M,CLR,M,M,M,M,M,M,M,M,M,M,M,M,M,M,77.00,KWMC 200356Z AUTO 00000KT 10SM CLR 25/07 A2996 RMK AO2 SLP093 T02500072,M
LSV,2022-08-20 03:58,-115.0343,36.2362,570.00,92.50,57.40,30.87,200.00,3.00,0.00,29.72,1003.60,10.00,M,CLR,M,M,M,M,M,M,M,M,M,M,M,M,M,M,91.25,KLSV 200358Z AUTO 20003KT 10SM CLR 34/14 A2972 RMK AO2 SLP036 T03360141 $,M
INS,2022-08-20 03:58,-115.6733,36.5872,955.00,89.00,44.00,20.97,100.00,10.00,0.00,29.82,1004.40,10.00,M,CLR,M,M,M,M,M,M,M,M,M,M,M,M,M,M,85.59,KINS 200358Z AUTO 10010KT 10SM CLR 32/07 A2982 RMK AO2 SLP044 T03170067 $,M
BVU,2022-08-20 04:15,-114.8611,35.9475,671.00,89.60,60.80,38.18,300.00,4.00,0.00,29.76,M,M,M,M,M,M,M,M,M,M,M,M,M,M,M,M,M,M,89.54,KBVU 200415Z AUTO 30004KT 32/16 A2976 RMK AO2 PWINO TSNO,M
TMT,2022-08-20 04:15,-117.1971,39.4643,1749.34,64.60,37.00,35.78,0.00,0.00,0.00,30.10,M,10.00,M,CLR,M,M,M,M,M,M,M,M,M,M,M,M,M,M,64.60,KTMT 200415Z AUTO 00000KT 10SM CLR 18/03 A3010 RMK AO2 T01810027,M
HTH,2022-08-20 04:15,-118.6315,38.5448,1282.89,82.40,37.40,20.04,350.00,4.00,0.00,29.97,M,10.00,M,CLR,M,M,M,M,M,M,M,M,M,M,M,M,M,M,80.14,KHTH 200415Z AUTO 35004KT 10SM CLR 28/03 A2997 RMK A01,M
BAM,2022-08-20 04:15,-116.8743,40.5990,1382.36,73.40,44.60,35.66,310.00,3.00,0.00,30.00,M,10.00,M,CLR,M,M,M,M,M,M,M,M,M,M,M,M,M,M,73.40,KBAM 200415Z AUTO 31003KT 10SM CLR 23/07 A3000 RMK AO1,M
MEV,2022-08-20 04:15,-119.7500,38.9963,1441.42,69.80,37.40,30.49,200.00,7.00,0.00,30.02,M,10.00,M,CLR,M,M,M,M,M,M,M,M,M,M,M,M,M,M,69.80,KMEV 200415Z AUTO 20007KT 160V230 10SM CLR 21/03 A3002 RMK AO2,M
RTS,2022-08-20 04:15,-119.8764,39.6682,1539.00,73.40,37.40,26.98,290.00,10.00,0.00,30.06,M,10.00,M,CLR,M,M,M,M,M,M,M,M,M,M,M,M,M,M,73.40,KRTS 200415Z AUTO 29010KT 10SM CLR 23/03 A3006 RMK AO2,M
CXP,2022-08-20 04:15,-119.7326,39.1923,1431.00,80.60,37.40,21.25,0.00,0.00,0.00,30.02,M,10.00,M,CLR,M,M,M,M,M,M,M,M,M,M,M,M,M,M,79.02,KCXP 200415Z AUTO 00000KT 10SM CLR 27/03 A3002 RMK AO2,M
TMT,2022-08-20 04:35,-117.1971,39.4643,1749.34,58.00,33.80,40.11,170.00,5.00,0.00,30.10,M,10.00,M,CLR,M,M,M,M,M,M,M,M,M,M,M,M,M,M,57.90,KTMT 200435Z AUTO 17005KT 10SM CLR 14/01 A3010 RMK AO2 T01440010,M
BAM,2022-08-20 04:35,-116.8743,40.5990,1382.36,73.40,44.60,35.66,20.00,5.00,0.00,30.00,M,10.00,M,CLR,M,M,M,M,M,M,M,M,M,M,M,M,M,M,73.40,KBAM 200435Z AUTO 02005KT 10SM CLR 23/07 A3000 RMK AO1,M
MEV,2022-08-20 04:35,-119.7500,38.9963,1441.42,69.80,37.40,30.49,110.00,7.00,0.00,30.02,M,10.00,M,CLR,M,M,M,M,M,M,M,M,M,M,M,M,M,M,69.80,KMEV 200435Z AUTO 11007KT 10SM CLR 21/03 A3002 RMK AO2,M
RTS,2022-08-20 04:35,-119.8764,39.6682,1539.00,71.60,37.40,28.68,270.00,7.00,0.00,30.06,M,10.00,M,CLR,M,M,M,M,M,M,M,M,M,M,M,M,M,M,71.60,KRTS 200435Z AUTO 27007KT 10SM CLR 22/03 A3006 RMK AO2,M
CXP,2022-08-20 04:35,-119.7326,39.1923,1431.00,73.40,41.00,31.05,110.00,3.00,0.00,30.03,M,10.00,M,CLR,M,M,M,M,M,M,M,M,M,M,M,M,M,M,73.40,KCXP 200435Z AUTO 11003KT 10SM CLR 23/05 A3003 RMK AO2,M
BVU,2022-08-20 04:35,-114.8611,35.9475,671.00,87.80,60.80,40.41,320.00,4.00,0.00,29.77,M,M,M,M,M,M,M,M,M,M,M,M,M,M,M,M,M,M,87.75,KBVU 200435Z AUTO 32004KT 31/16 A2977 RMK AO2 PWINO TSNO,M
HTH,2022-08-20 04:35,-118.6315,38.5448,1282.89,80.60,39.20,22.81,0.00,0.00,0.00,29.98,M,10.00,M,CLR,M,M,M,M,M,M,M,M,M,M,M,M,M,M,79.10,KHTH 200435Z AUTO 00000KT 10SM CLR 27/04 A2998 RMK A01,M
LOL,2022-08-20 04:53,-118.5701,40.0684,1192.43,71.00,43.00,36.25,80.00,7.00,0.00,29.93,1009.30,10.00,M,CLR,M,M,M,M,M,M,M,M,M,M,M,M,M,M,71.10,KLOL 200453Z AUTO 08007KT 10SM CLR 22/06 A2993 RMK AO2 SLP093 T02170061,M
ELY,2022-08-20 04:53,-114.8453,39.2950,1909.00,64.00,48.00,55.99,M,4.00,0.00,30.13,1010.00,10.00,M,CLR,M,M,M,M,M,M,M,M,M,M,M,M,M,M,64.00,KELY 200453Z AUTO VRB04KT 10SM CLR 18/09 A3013 RMK AO2 SLP100 T01780089,M
P68,2022-08-20 04:53,-116.0056,39.6014,1993.00,62.00,43.00,49.52,M,3.00,0.00,30.10,1011.10,M,M,M,M,M,M,M,M,M,M,M,M,M,M,M,M,M,62.10,KP68 200453Z AUTO VRB03KT 17/06 A3010 RMK AO1 SLP111 T01670061,M
DRA,2022-08-20 04:53,-116.0278,36.6206,1009.00,86.00,46.00,24.88,70.00,5.00,0.00,29.84,1005.00,10.00,M,CLR,M,M,M,M,M,M,M,M,M,M,M,M,M,M,83.19,KDRA 200453Z AUTO 07005KT 10SM CLR 30/08 A2984 RMK AO2 SLP050 T03000078,M
VGT,2022-08-20 04:53,-115.1933,36.2111,667.00,96.00,55.00,25.32,240.00,4.00,0.00,29.76,1006.10,10.00,M,CLR,M,M,M,M,M,M,M,M,M,M,M,M,M,M,94.27,KVGT 200453Z AUTO 24004KT 10SM CLR 36/13 A2976 RMK AO2 SLP061 T03560128,M
RTS,2022-08-20 04:55,-119.8764,39.6682,1539.00,73.40,37.40,26.98,300.00,7.00,0.00,30.07,M,10.00,M,CLR,M,M,M,M,M,M,M,M,M,M,M,M,M,M,73.40,KRTS 200455Z AUTO 30007KT 10SM CLR 23/03 A3007 RMK AO2,M
BVU,2022-08-20 04:55,-114.8611,35.9475,671.00,87.80,60.80,40.41,0.00,0.00,0.00,29.77,M,M,M,M,M,M,M,M,M,M,M,M,M,M,M,M,M,M,87.75,KBVU 200455Z AUTO 00000KT 31/16 A2977 RMK AO2 PWINO TSNO,M
MEV,2022-08-20 04:55,-119.7500,38.9963,1441.42,71.60,37.40,28.68,130.00,5.00,0.00,30.03,M,10.00,11.00,CLR,M,M,M,M,M,M,M,M,M,M,M,M,M,M,71.60,KMEV 200455Z AUTO 13005G11KT 10SM CLR 22/03 A3003 RMK AO2,M
BAM,2022-08-20 04:55,-116.8743,40.5990,1382.36,71.60,46.40,40.57,60.00,10.00,0.00,30.00,M,10.00,M,CLR,M,M,M,M,M,M,M,M,M,M,M,M,M,M,71.60,KBAM 200455Z AUTO 06010KT 10SM CLR 22/08 A3000 RMK AO1,M
HTH,2022-08-20 04:55,-118.6315,38.5448,1282.89,80.60,39.20,22.81,0.00,0.00,0.00,29.98,M,10.00,M,M,M,M,M,M,M,M,M,M,M,M,M,M,M,M,79.10,KHTH 200455Z AUTO 00000KT 10SM 27/04 A2998 RMK A01,M
TMT,2022-08-20 04:55,-117.1971,39.4643,1749.34,57.00,32.00,38.54,170.00,4.00,0.00,30.10,M,10.00,M,CLR,M,M,M,M,M,M,M,M,M,M,M,M,M,M,57.00,KTMT 200455Z AUTO 17004KT 10SM CLR 14/00 A3010 RMK AO2 T01390000,M
RNO,2022-08-20 04:55,-119.7711,39.4839,1341.00,81.00,42.00,25.19,310.00,5.00,0.00,30.00,1009.80,10.00,M,CLR,M,M,M,M,M,M,M,M,M,M,M,M,M,M,79.49,KRNO 200455Z 31005KT 10SM CLR 27/06 A3000 RMK AO2 SLP098 T02720056,M
CXP,2022-08-20 04:55,-119.7326,39.1923,1431.00,75.20,39.20,27.26,130.00,5.00,0.00,30.03,M,10.00,M,CLR,M,M,M,M,M,M,M,M,M,M,M,M,M,M,75.20,KCXP 200455Z AUTO 13005KT 10SM CLR 24/04 A3003 RMK AO2,M
NFL,2022-08-20 04:56,-118.7010,39.4166,1199.00,76.00,41.00,28.56,M,5.00,0.00,29.93,1010.80,10.00,M,CLR,M,M,M,M,M,M,M,M,M,M,M,M,M,M,75.90,KNFL 200456Z VRB05KT 10SM CLR 24/05 A2993 RMK AO2 SLP108 T02440050,M
EKO,2022-08-20 04:56,-115.7860,40.8242,1367.00,58.00,57.00,96.81,0.00,0.00,0.00,30.05,1013.70,10.00,M,CLR,M,M,M,M,M,M,M,M,M,M,M,M,M,M,57.90,KEKO 200456Z AUTO 00000KT 10SM CLR 14/14 A3005 RMK AO2 SLP137 T01440139,M
WMC,2022-08-20 04:56,-117.8072,40.9019,1315.00,75.00,46.00,35.64,40.00,3.00,0.00,29.96,1009.30,10.00,M,CLR,M,M,M,M,M,M,M,M,M,M,M,M,M,M,75.00,KWMC 200456Z AUTO 04003KT 10SM CLR 24/08 A2996 RMK AO2 SLP093 T02390078,M
TPH,2022-08-20 04:56,-117.0904,38.0505,1654.00,76.00,35.00,22.66,10.00,11.00,0.00,30.05,1008.80,10.00,M,CLR,M,M,M,M,M,M,M,M,M,M,M,M,M,M,75.90,KTPH 200456Z AUTO 01011KT 10SM CLR 24/02 A3005 RMK AO2 SLP088 T02440017,M
HND,2022-08-20 04:56,-115.1344,35.9729,742.79,89.00,59.00,36.37,200.00,8.00,0.00,29.81,1007.70,10.00,M,CLR,M,M,M,M,M,M,M,M,M,M,M,M,M,M,88.37,KHND 200456Z AUTO 20008KT 10SM CLR 32/15 A2981 RMK AO2 SLP077 T03170150,M
LAS,2022-08-20 04:56,-115.1634,36.0719,663.00,93.00,55.00,27.87,230.00,7.00,0.00,29.77,1004.80,10.00,M,FEW,FEW,M,M,11000.00,22000.00,M,M,M,M,M,M,M,M,M,91.03,KLAS 200456Z 23007KT 10SM FEW110 FEW220 34/13 A2977 RMK AO2 SLP048 T03390128,M
INS,2022-08-20 04:58,-115.6733,36.5872,955.00,86.40,44.20,22.94,100.00,5.00,0.00,29.83,1004.70,10.00,M,CLR,M,M,M,M,M,M,M,M,M,M,M,M,M,M,83.36,KINS 200458Z AUTO 10005KT 10SM CLR 30/07 A2983 RMK AO2 SLP047 T03020068 $,M
LSV,2022-08-20 04:58,-115.0343,36.2362,570.00,90.70,61.50,37.81,320.00,5.00,0.00,29.73,1003.90,10.00,M,CLR,M,M,M,M,M,M,M,M,M,M,M,M,M,M,90.97,KLSV 200458Z AUTO 32005KT 10SM CLR 33/16 A2973 RMK AO2 SLP039 T03260164 $,M
CXP,2022-08-20 05:10,-119.7326,39.1923,1431.00,71.60,39.20,30.77,0.00,0.00,0.00,30.04,M,10.00,M,CLR,M,M,M,M,M,M,M,M,M,M,M,M,M,M,71.60,KCXP 200510Z AUTO 00000KT 10SM CLR 22/04 A3004 RMK AO2,M
RTS,2022-08-20 05:15,-119.8764,39.6682,1539.00,71.60,37.40,28.68,300.00,6.00,0.00,30.06,M,10.00,M,CLR,M,M,M,M,M,M,M,M,M,M,M,M,M,M,71.60,KRTS 200515Z AUTO 30006KT 10SM CLR 22/03 A3006 RMK AO2,M
TMT,2022-08-20 05:15,-117.1971,39.4643,1749.34,57.40,33.40,40.19,170.00,4.00,0.00,30.10,M,10.00,M,CLR,M,M,M,M,M,M,M,M,M,M,M,M,M,M,57.40,KTMT 200515Z AUTO 17004KT 10SM CLR 14/01 A3010 RMK AO2 T01410008,M
BVU,2022-08-20 05:15,-114.8611,35.9475,671.00,89.60,60.80,38.18,90.00,4.00,0.00,29.77,M,M,M,M,M,M,M,M,M,M,M,M,M,M,M,M,M,M,89.54,KBVU 200515Z AUTO 09004KT 32/16 A2977 RMK AO2 PWINO TSNO,M
MEV,2022-08-20 05:15,-119.7500,38.9963,1441.42,68.00,41.00,37.32,230.00,4.00,0.00,30.03,M,10.00,M,CLR,M,M,M,M,M,M,M,M,M,M,M,M,M,M,68.00,KMEV 200515Z AUTO 23004KT 10SM CLR 20/05 A3003 RMK AO2,M
BAM,2022-08-20 05:15,-116.8743,40.5990,1382.36,69.80,46.40,43.13,100.00,9.00,0.00,30.00,M,10.00,M,CLR,M,M,M,M,M,M,M,M,M,M,M,M,M,M,69.80,KBAM 200515Z AUTO 10009KT 10SM CLR 21/08 A3000 RMK AO1,M
HTH,2022-08-20 05:15,-118.6315,38.5448,1282.89,80.60,44.60,28.08,0.00,0.00,0.00,29.98,M,10.00,M,M,M,M,M,M,M,M,M,M,M,M,M,M,M,M,79.42,KHTH 200515Z AUTO 00000KT 10SM 27/07 A2998 RMK A01,M
CXP,2022-08-20 05:35,-119.7326,39.1923,1431.00,73.40,39.20,28.96,0.00,0.00,0.00,30.04,M,10.00,M,CLR,M,M,M,M,M,M,M,M,M,M,M,M,M,M,73.40,KCXP 200535Z AUTO 00000KT 10SM CLR 23/04 A3004 RMK AO2,M
HTH,2022-08-20 05:35,-118.6315,38.5448,1282.89,77.00,41.00,27.53,0.00,0.00,0.00,29.98,M,10.00,M,CLR,M,M,M,M,M,M,M,M,M,M,M,M,M,M,77.00,KHTH 200535Z AUTO 00000KT 10SM CLR 25/05 A2998 RMK A01,M
BAM,2022-08-20 05:35,-116.8743,40.5990,1382.36,71.60,50.00,46.43,70.00,11.00,0.00,30.01,M,10.00,16.00,CLR,M,M,M,M,M,M,M,M,M,M,M,M,M,M,71.60,KBAM 200535Z AUTO 07011G16KT 10SM CLR 22/10 A3001 RMK AO1,M
MEV,2022-08-20 05:35,-119.7500,38.9963,1441.42,64.40,39.20,39.43,170.00,7.00,0.00,30.03,M,10.00,M,CLR,M,M,M,M,M,M,M,M,M,M,M,M,M,M,64.40,KMEV 200535Z AUTO 17007KT 10SM CLR 18/04 A3003 RMK AO2,M
RTS,2022-08-20 05:35,-119.8764,39.6682,1539.00,69.80,37.40,30.49,310.00,3.00,0.00,30.06,M,10.00,M,CLR,M,M,M,M,M,M,M,M,M,M,M,M,M,M,69.80,KRTS 200535Z AUTO 31003KT 10SM CLR 21/03 A3006 RMK AO2,M
TMT,2022-08-20 05:35,-117.1971,39.4643,1749.34,59.00,34.30,39.33,0.00,0.00,0.00,30.10,M,10.00,M,CLR,M,M,M,M,M,M,M,M,M,M,M,M,M,M,59.00,KTMT 200535Z AUTO 00000KT 10SM CLR 15/01 A3010 RMK AO2 T01500013,M
BVU,2022-08-20 05:35,-114.8611,35.9475,671.00,87.80,60.80,40.41,0.00,0.00,0.00,29.78,M,M,M,M,M,M,M,M,M,M,M,M,M,M,M,M,M,M,87.75,KBVU 200535Z AUTO 00000KT 31/16 A2978 RMK AO2 PWINO TSNO,M
CXP,2022-08-20 05:50,-119.7326,39.1923,1431.00,71.60,37.40,28.68,0.00,0.00,0.00,30.04,M,10.00,M,CLR,M,M,M,M,M,M,M,M,M,M,M,M,M,M,71.60,KCXP 200550Z AUTO 00000KT 10SM CLR 22/03 A3004 RMK AO2,M
DRA,2022-08-20 05:53,-116.0278,36.6206,1009.00,83.00,48.00,29.64,50.00,4.00,0.00,29.85,1005.00,10.00,M,CLR,M,M,M,M,M,M,M,M,M,M,M,M,M,M,81.11,KDRA 200553Z AUTO 05004KT 10SM CLR 28/09 A2985 RMK AO2 SLP050 T02830089 10378 20272 51010,M
VGT,2022-08-20 05:53,-115.1933,36.2111,667.00,94.00,57.00,29.14,270.00,4.00,0.00,29.76,1006.10,10.00,M,CLR,M,M,M,M,M,M,M,M,M,M,M,M,M,M,92.58,KVGT 200553Z AUTO 27004KT 10SM CLR 34/14 A2976 RMK AO2 SLP061 T03440139 10389 20344 50009,M
LOL,2022-08-20 05:53,-118.5701,40.0684,1192.43,66.00,45.00,46.62,150.00,3.00,0.00,29.93,1009.30,10.00,M,CLR,M,M,M,M,M,M,M,M,M,M,M,M,M,M,66.00,KLOL 200553Z AUTO 15003KT 10SM CLR 19/07 A2993 RMK AO2 SLP093 T01890072 10344 20189 51004,M
ELY,2022-08-20 05:53,-114.8453,39.2950,1909.00,63.00,50.00,62.49,20.00,9.00,0.00,30.14,1010.30,10.00,M,CLR,M,M,M,M,M,M,M,M,M,M,M,M,M,M,63.00,KELY 200553Z AUTO 02009KT 10SM CLR 17/10 A3014 RMK AO2 SLP103 T01720100 10278 20172 53013,M
P68,2022-08-20 05:53,-116.0056,39.6014,1993.00,64.00,45.00,49.99,80.00,3.00,0.00,30.11,1011.00,M,M,M,M,M,M,M,M,M,M,M,M,M,M,M,M,M,64.00,KP68 200553Z AUTO 08003KT 18/07 A3011 RMK AO1 SLP110 T01780072 10294 20167 51010,M
BVU,2022-08-20 05:55,-114.8611,35.9475,671.00,84.20,62.60,48.32,30.00,4.00,0.00,29.78,M,M,M,M,M,M,M,M,M,M,M,M,M,M,M,M,M,M,85.03,KBVU 200555Z AUTO 03004KT 29/17 A2978 RMK AO2 PWINO TSNO,M
RTS,2022-08-20 05:55,-119.8764,39.6682,1539.00,71.60,37.40,28.68,320.00,6.00,0.00,30.06,M,10.00,M,CLR,M,M,M,M,M,M,M,M,M,M,M,M,M,M,71.60,KRTS 200555Z AUTO 32006KT 10SM CLR 22/03 A3006 RMK AO2,M
MEV,2022-08-20 05:55,-119.7500,38.9963,1441.42,62.60,39.20,42.00,150.00,8.00,0.00,30.03,M,10.00,M,CLR,M,M,M,M,M,M,M,M,M,M,M,M,M,M,62.60,KMEV 200555Z AUTO 15008KT 10SM CLR 17/04 A3003 RMK AO2,M
BAM,2022-08-20 05:55,-116.8743,40.5990,1382.36,71.60,50.00,46.43,60.00,10.00,0.00,30.01,M,10.00,14.00,CLR,M,M,M,M,M,M,M,M,M,M,M,M,M,M,71.60,KBAM 200555Z AUTO 06010G14KT 10SM CLR 22/10 A3001 RMK AO1,M
HTH,2022-08-20 05:55,-118.6315,38.5448,1282.89,77.00,41.00,27.53,240.00,3.00,0.00,29.98,M,10.00,M,CLR,M,M,M,M,M,M,M,M,M,M,M,M,M,M,77.00,KHTH 200555Z AUTO 24003KT 10SM CLR 25/05 A2998 RMK A01,M
TMT,2022-08-20 05:55,-117.1971,39.4643,1749.34,59.00,34.50,39.65,250.00,3.00,0.00,30.10,M,10.00,M,CLR,M,M,M,M,M,M,M,M,M,M,M,M,M,M,59.00,KTMT 200555Z AUTO 25003KT 10SM CLR 15/01 A3010 RMK AO2 T01500014,M
RNO,2022-08-20 05:55,-119.7711,39.4839,1341.00,79.00,42.00,26.89,280.00,5.00,0.00,30.00,1009.80,10.00,M,CLR,M,M,M,M,M,M,M,M,M,M,M,M,M,M,79.00,KRNO 200555Z 28005KT 10SM CLR 26/06 A3000 RMK AO2 SLP098 T02610056 10333 20261 51012,M
TPH,2022-08-20 05:56,-117.0904,38.0505,1654.00,73.00,35.00,24.97,10.00,9.00,0.00,30.06,1009.20,10.00,M,CLR,M,M,M,M,M,M,M,M,M,M,M,M,M,M,73.00,KTPH 200556Z AUTO 01009KT 10SM CLR 23/02 A3006 RMK AO2 SLP092 T02280017 10317 20228 51009,M
NFL,2022-08-20 05:56,-118.7010,39.4166,1199.00,71.00,44.00,37.81,250.00,4.00,0.00,29.93,1011.00,10.00,M,CLR,M,M,M,M,M,M,M,M,M,M,M,M,M,M,71.10,KNFL 200556Z 25004KT 10SM CLR 22/07 A2993 RMK AO2 SLP110 T02170067 10344 20217 51007,M
EKO,2022-08-20 05:56,-115.7860,40.8242,1367.00,54.00,54.00,100.00,170.00,3.00,0.00,30.06,1013.60,10.00,M,BKN,M,M,M,11000.00,M,M,M,M,M,M,M,M,M,M,54.00,KEKO 200556Z AUTO 17003KT 10SM BKN110 12/12 A3006 RMK AO2 SLP136 60000 T01220122 10250 20122 51003,M
LAS,2022-08-20 05:56,-115.1634,36.0719,663.00,92.00,54.00,27.80,230.00,7.00,0.00,29.77,1004.80,10.00,M,FEW,M,M,M,22000.00,M,M,M,M,M,M,M,M,M,M,89.66,KLAS 200556Z 23007KT 10SM FEW220 33/12 A2977 RMK AO2 SLP048 T03330122 10378 20333 50008,M
WMC,2022-08-20 05:56,-117.8072,40.9019,1315.00,66.00,43.00,43.20,0.00,0.00,0.00,29.96,1009.60,10.00,M,CLR,M,M,M,M,M,M,M,M,M,M,M,M,M,M,66.00,KWMC 200556Z AUTO 00000KT 10SM CLR 19/06 A2996 RMK AO2 SLP096 T01890061 10311 20189 51003,M
HND,2022-08-20 05:56,-115.1344,35.9729,742.79,87.00,59.00,38.75,200.00,8.00,0.00,29.81,1007.80,10.00,M,CLR,M,M,M,M,M,M,M,M,M,M,M,M,M,M,86.47,KHND 200556Z AUTO 20008KT 10SM CLR 31/15 A2981 RMK AO2 SLP078 T03060150 10372 20306 51008,M
INS,2022-08-20 05:58,-115.6733,36.5872,955.00,82.40,44.00,25.99,0.00,0.00,0.00,29.84,1005.10,10.00,M,CLR,M,M,M,M,M,M,M,M,M,M,M,M,M,M,80.47,KINS 200558Z AUTO 00000KT 10SM CLR 28/07 A2984 RMK AO2 SLP051 T02800067 10363 20280 51011 $,M
LSV,2022-08-20 05:58,-115.0343,36.2362,570.00,88.00,64.60,45.91,60.00,4.00,0.00,29.74,1004.20,10.00,M,CLR,M,M,M,M,M,M,M,M,M,M,M,M,M,M,89.64,KLSV 200558Z AUTO 06004KT 10SM CLR 31/18 A2974 RMK AO2 SLP042 T03110181 10386 20311 52012 $,M
BVU,2022-08-20 06:15,-114.8611,35.9475,671.00,84.20,62.60,48.32,360.00,7.00,0.00,29.78,M,M,M,M,M,M,M,M,M,M,M,M,M,M,M,M,M,M,85.03,KBVU 200615Z AUTO 36007KT 29/17 A2978 RMK AO2 PWINO TSNO,M
TMT,2022-08-20 06:15,-117.1971,39.4643,1749.34,57.00,36.50,46.12,0.00,0.00,0.00,30.10,M,10.00,M,CLR,M,M,M,M,M,M,M,M,M,M,M,M,M,M,57.00,KTMT 200615Z AUTO 00000KT 10SM CLR 14/03 A3010 RMK AO2 T01390025,M
BAM,2022-08-20 06:15,-116.8743,40.5990,1382.36,69.80,50.00,49.37,80.00,8.00,0.00,30.01,M,10.00,M,CLR,M,M,M,M,M,M,M,M,M,M,M,M,M,M,69.80,KBAM 200615Z AUTO 08008KT 10SM CLR 21/10 A3001 RMK AO1,M
HTH,2022-08-20 06:15,-118.6315,38.5448,1282.89,75.20,41.00,29.23,160.00,3.00,0.00,29.98,M,10.00,M,CLR,M,M,M,M,M,M,M,M,M,M,M,M,M,M,75.20,KHTH 200615Z AUTO 16003KT 10SM CLR 24/05 A2998 RMK A01,M
MEV,2022-08-20 06:15,-119.7500,38.9963,1441.42,62.60,37.40,39.14,150.00,6.00,0.00,30.03,M,10.00,M,CLR,M,M,M,M,M,M,M,M,M,M,M,M,M,M,62.60,KMEV 200615Z AUTO 15006KT 10SM CLR 17/03 A3003 RMK AO2,M
RTS,2022-08-20 06:15,-119.8764,39.6682,1539.00,71.60,37.40,28.68,300.00,5.00,0.00,30.06,M,10.00,M,CLR,M,M,M,M,M,M,M,M,M,M,M,M,M,M,71.60,KRTS 200615Z AUTO 30005KT 10SM CLR 22/03 A3006 RMK AO2,M
CXP,2022-08-20 06:15,-119.7326,39.1923,1431.00,68.00,39.20,34.80,300.00,3.00,0.00,30.04,M,10.00,M,CLR,M,M,M,M,M,M,M,M,M,M,M,M,M,M,68.00,KCXP 200615Z AUTO 30003KT 10SM CLR 20/04 A3004 RMK AO2,M
CXP,2022-08-20 06:30,-119.7326,39.1923,1431.00,69.80,39.20,32.72,0.00,0.00,0.00,30.04,M,10.00,M,CLR,M,M,M,M,M,M,M,M,M,M,M,M,M,M,69.80,KCXP 200630Z AUTO 00000KT 10SM CLR 21/04 A3004 RMK AO2,M
HTH,2022-08-20 06:35,-118.6315,38.5448,1282.89,75.20,41.00,29.23,180.00,5.00,0.00,29.98,M,10.00,M,CLR,M,M,M,M,M,M,M,M,M,M,M,M,M,M,75.20,KHTH 200635Z AUTO 18005KT 10SM CLR 24/05 A2998 RMK A01,M
TMT,2022-08-20 06:35,-117.1971,39.4643,1749.34,57.20,37.20,47.07,250.00,6.00,0.00,30.10,M,10.00,M,CLR,M,M,M,M,M,M,M,M,M,M,M,M,M,M,57.20,KTMT 200635Z AUTO 25006KT 10SM CLR 14/03 A3010 RMK AO2 T01400029,M
MEV,2022-08-20 06:35,-119.7500,38.9963,1441.42,64.40,39.20,39.43,120.00,5.00,0.00,30.03,M,10.00,M,CLR,M,M,M,M,M,M,M,M,M,M,M,M,M,M,64.40,KMEV 200635Z AUTO 12005KT 10SM CLR 18/04 A3003 RMK AO2,M
BAM,2022-08-20 06:35,-116.8743,40.5990,1382.36,71.60,50.00,46.43,60.00,9.00,0.00,30.01,M,10.00,M,CLR,M,M,M,M,M,M,M,M,M,M,M,M,M,M,71.60,KBAM 200635Z AUTO 06009KT 10SM CLR 22/10 A3001 RMK AO1,M
RTS,2022-08-20 06:35,-119.8764,39.6682,1539.00,69.80,37.40,30.49,290.00,8.00,0.00,30.06,M,10.00,M,CLR,M,M,M,M,M,M,M,M,M,M,M,M,M,M,69.80,KRTS 200635Z AUTO 29008KT 10SM CLR 21/03 A3006 RMK AO2,M
BVU,2022-08-20 06:35,-114.8611,35.9475,671.00,86.00,60.80,42.80,360.00,8.00,0.00,29.78,M,M,M,M,M,M,M,M,M,M,M,M,M,M,M,M,M,M,86.05,KBVU 200635Z AUTO 36008KT 30/16 A2978 RMK AO2 PWINO TSNO,M
DRA,2022-08-20 06:53,-116.0278,36.6206,1009.00,81.00,49.00,32.60,0.00,0.00,0.00,29.85,1005.10,10.00,M,CLR,M,M,M,M,M,M,M,M,M,M,M,M,M,M,80.01,KDRA 200653Z AUTO 00000KT 10SM CLR 27/09 A2985 RMK AO2 SLP051 T02720094,M
ELY,2022-08-20 06:53,-114.8453,39.2950,1909.00,60.00,50.00,69.24,50.00,5.00,0.00,30.14,1010.30,10.00,M,CLR,M,M,M,M,M,M,M,M,M,M,M,M,M,M,60.10,KELY 200653Z AUTO 05005KT 10SM CLR 16/10 A3014 RMK AO2 SLP103 T01560100 402940111,M
LOL,2022-08-20 06:53,-118.5701,40.0684,1192.43,65.00,43.00,44.88,140.00,6.00,0.00,29.93,1009.40,10.00,M,CLR,M,M,M,M,M,M,M,M,M,M,M,M,M,M,64.90,KLOL 200653Z AUTO 14006KT 10SM CLR 18/06 A2993 RMK AO2 SLP094 T01830061,M
VGT,2022-08-20 06:53,-115.1933,36.2111,667.00,91.00,56.00,30.65,110.00,6.00,0.00,29.77,1006.60,10.00,M,CLR,M,M,M,M,M,M,M,M,M,M,M,M,M,M,89.27,KVGT 200653Z AUTO 11006KT 10SM CLR 33/13 A2977 RMK AO2 SLP066 T03280133,M
P68,2022-08-20 06:53,-116.0056,39.6014,1993.00,57.00,44.00,61.95,180.00,5.00,0.00,30.11,1011.10,M,M,M,M,M,M,M,M,M,M,M,M,M,M,M,M,M,57.00,KP68 200653Z AUTO 18005KT 14/07 A3011 RMK AO1 SLP111 T01390067,M
HTH,2022-08-20 06:55,-118.6315,38.5448,1282.89,77.00,35.60,22.28,210.00,4.00,0.00,29.98,M,10.00,M,CLR,M,M,M,M,M,M,M,M,M,M,M,M,M,M,77.00,KHTH 200655Z AUTO 21004KT 10SM CLR 25/02 A2998 RMK A01,M
RTS,2022-08-20 06:55,-119.8764,39.6682,1539.00,69.80,37.40,30.49,330.00,5.00,0.00,30.06,M,10.00,M,CLR,M,M,M,M,M,M,M,M,M,M,M,M,M,M,69.80,KRTS 200655Z AUTO 33005KT 10SM CLR 21/03 A3006 RMK AO2,M
BAM,2022-08-20 06:55,-116.8743,40.5990,1382.36,69.80,50.00,49.37,70.00,9.00,0.00,30.01,M,10.00,M,CLR,M,M,M,M,M,M,M,M,M,M,M,M,M,M,69.80,KBAM 200655Z AUTO 07009KT 10SM CLR 21/10 A3001 RMK AO1,M
MEV,2022-08-20 06:55,-119.7500,38.9963,1441.42,60.80,39.20,44.76,90.00,7.00,0.00,30.03,M,10.00,M,FEW,M,M,M,5000.00,M,M,M,M,M,M,M,M,M,M,60.80,KMEV 200655Z AUTO 09007KT 10SM FEW050 16/04 A3003 RMK AO2,M
BVU,2022-08-20 06:55,-114.8611,35.9475,671.00,86.00,59.00,40.14,20.00,4.00,0.00,29.78,M,M,M,M,M,M,M,M,M,M,M,M,M,M,M,M,M,M,85.47,KBVU 200655Z AUTO 02004KT 30/15 A2978 RMK AO2 PWINO TSNO,M
CXP,2022-08-20 06:55,-119.7326,39.1923,1431.00,68.00,37.40,32.43,0.00,0.00,0.00,30.04,M,10.00,M,CLR,M,M,M,M,M,M,M,M,M,M,M,M,M,M,68.00,KCXP 200655Z AUTO 00000KT 10SM CLR 20/03 A3004 RMK AO2,M
RNO,2022-08-20 06:55,-119.7711,39.4839,1341.00,76.00,43.00,30.85,M,3.00,0.00,30.01,1009.70,10.00,M,CLR,M,M,M,M,M,M,M,M,M,M,M,M,M,M,75.90,KRNO 200655Z VRB03KT 10SM CLR 24/06 A3001 RMK AO2 SLP097 T02440061,M
TMT,2022-08-20 06:55,-117.1971,39.4643,1749.34,58.00,37.60,46.29,0.00,0.00,0.00,30.10,M,10.00,M,CLR,M,M,M,M,M,M,M,M,M,M,M,M,M,M,58.10,KTMT 200655Z AUTO 00000KT 10SM CLR 15/03 A3010 RMK AO2 T01450031,M
WMC,2022-08-20 06:56,-117.8072,40.9019,1315.00,68.00,44.00,42.04,90.00,5.00,0.00,29.97,1009.80,10.00,M,CLR,M,M,M,M,M,M,M,M,M,M,M,M,M,M,68.00,KWMC 200656Z AUTO 09005KT 10SM CLR 20/07 A2997 RMK AO2 SLP098 T02000067 $,M
EKO,2022-08-20 06:56,-115.7860,40.8242,1367.00,61.00,54.00,77.72,100.00,4.00,0.00,30.06,1012.80,10.00,M,FEW,M,M,M,10000.00,M,M,M,M,M,M,M,M,M,M,61.00,KEKO 200656Z AUTO 10004KT 10SM FEW100 16/12 A3006 RMK AO2 SLP128 T01610122,M
LAS,2022-08-20 06:56,-115.1634,36.0719,663.00,89.00,55.00,31.49,110.00,4.00,0.00,29.78,1005.40,10.00,M,CLR,M,M,M,M,M,M,M,M,M,M,M,M,M,M,87.21,KLAS 200656Z 11004KT 10SM CLR 32/13 A2978 RMK AO2 SLP054 T03170128,M
HND,2022-08-20 06:56,-115.1344,35.9729,742.79,86.00,56.00,35.90,80.00,6.00,0.00,29.82,1008.00,10.00,M,CLR,M,M,M,M,M,M,M,M,M,M,M,M,M,M,84.66,KHND 200656Z AUTO 08006KT 10SM CLR 30/13 A2982 RMK AO2 SLP080 T03000133 403720244,M
TPH,2022-08-20 06:56,-117.0904,38.0505,1654.00,72.00,33.00,23.85,10.00,13.00,0.00,30.06,1009.00,10.00,M,CLR,M,M,M,M,M,M,M,M,M,M,M,M,M,M,72.00,KTPH 200656Z AUTO 01013KT 10SM CLR 22/01 A3006 RMK AO2 SLP090 T02220006,M
NFL,2022-08-20 06:56,-118.7010,39.4166,1199.00,68.00,42.00,38.94,170.00,7.00,0.00,29.94,1011.00,10.00,M,CLR,M,M,M,M,M,M,M,M,M,M,M,M,M,M,68.00,KNFL 200656Z AUTO 17007KT 10SM CLR 20/06 A2994 RMK AO2 SLP110 T02000056,M
INS,2022-08-20 06:58,-115.6733,36.5872,955.00,81.70,47.00,29.79,0.00,0.00,0.00,29.84,1005.10,10.00,M,CLR,M,M,M,M,M,M,M,M,M,M,M,M,M,M,80.26,KINS 200658Z AUTO 00000KT 10SM CLR 28/08 A2984 RMK AO2 SLP051 T02760084 $,M
LSV,2022-08-20 06:58,-115.0343,36.2362,570.00,85.50,63.50,47.83,40.00,8.00,0.00,29.75,1004.60,10.00,M,CLR,M,M,M,M,M,M,M,M,M,M,M,M,M,M,86.61,KLSV 200658Z AUTO 04008KT 10SM CLR 30/18 A2975 RMK AO2 SLP046 T02970175 $,M
CXP,2022-08-20 07:10,-119.7326,39.1923,1431.00,66.20,41.00,39.72,0.00,0.00,0.00,30.04,M,10.00,M,CLR,M,M,M,M,M,M,M,M,M,M,M,M,M,M,66.20,KCXP 200710Z AUTO 00000KT 10SM CLR 19/05 A3004 RMK AO2,M
MEV,2022-08-20 07:15,-119.7500,38.9963,1441.42,59.00,39.20,47.72,100.00,5.00,0.00,30.03,M,10.00,M,CLR,M,M,M,M,M,M,M,M,M,M,M,M,M,M,59.00,KMEV 200715Z AUTO 10005KT 10SM CLR 15/04 A3003 RMK AO2,M
RTS,2022-08-20 07:15,-119.8764,39.6682,1539.00,68.00,37.40,32.43,290.00,6.00,0.00,30.06,M,10.00,M,CLR,M,M,M,M,M,M,M,M,M,M,M,M,M,M,68.00,KRTS 200715Z AUTO 29006KT 10SM CLR 20/03 A3006 RMK AO2,M
BVU,2022-08-20 07:15,-114.8611,35.9475,671.00,84.20,60.80,45.34,0.00,0.00,0.00,29.78,M,M,M,M,M,M,M,M,M,M,M,M,M,M,M,M,M,M,84.43,KBVU 200715Z AUTO 00000KT 29/16 A2978 RMK AO2 PWINO TSNO,M
TMT,2022-08-20 07:15,-117.1971,39.4643,1749.34,56.50,37.40,48.66,190.00,3.00,0.00,30.10,M,10.00,M,CLR,M,M,M,M,M,M,M,M,M,M,M,M,M,M,56.50,KTMT 200715Z AUTO 19003KT 10SM CLR 14/03 A3010 RMK AO2 T01360030,M
HTH,2022-08-20 07:15,-118.6315,38.5448,1282.89,73.40,39.20,28.96,150.00,5.00,0.00,29.98,M,10.00,M,CLR,M,M,M,M,M,M,M,M,M,M,M,M,M,M,73.40,KHTH 200715Z AUTO 15005KT 10SM CLR 23/04 A2998 RMK A01,M
BAM,2022-08-20 07:15,-116.8743,40.5990,1382.36,69.80,50.00,49.37,70.00,7.00,0.00,30.00,M,10.00,M,CLR,M,M,M,M,M,M,M,M,M,M,M,M,M,M,69.80,KBAM 200715Z AUTO 07007KT 10SM CLR 21/10 A3000 RMK AO1,M
CXP,2022-08-20 07:35,-119.7326,39.1923,1431.00,66.20,37.40,34.51,0.00,0.00,0.00,30.05,M,10.00,M,CLR,M,M,M,M,M,M,M,M,M,M,M,M,M,M,66.20,KCXP 200735Z AUTO 00000KT 10SM CLR 19/03 A3005 RMK AO2,M
BVU,2022-08-20 07:35,-114.8611,35.9475,671.00,86.00,57.20,37.62,90.00,9.00,0.00,29.79,M,M,M,M,M,M,M,M,M,M,M,M,M,M,M,M,M,M,84.97,KBVU 200735Z AUTO 09009KT 30/14 A2979 RMK AO2 PWINO TSNO,M
TMT,2022-08-20 07:35,-117.1971,39.4643,1749.34,51.00,35.20,54.75,0.00,0.00,0.00,30.10,M,10.00,M,CLR,M,M,M,M,M,M,M,M,M,M,M,M,M,M,50.90,KTMT 200735Z AUTO 00000KT 10SM CLR 11/02 A3010 RMK AO2 T01050018,M
HTH,2022-08-20 07:35,-118.6315,38.5448,1282.89,73.40,37.40,26.98,0.00,0.00,0.00,29.98,M,10.00,M,CLR,M,M,M,M,M,M,M,M,M,M,M,M,M,M,73.40,KHTH 200735Z AUTO 00000KT 10SM CLR 23/03 A2998 RMK A01,M
BAM,2022-08-20 07:35,-116.8743,40.5990,1382.36,69.80,50.00,49.37,60.00,9.00,0.00,30.00,M,10.00,M,CLR,M,M,M,M,M,M,M,M,M,M,M,M,M,M,69.80,KBAM 200735Z AUTO 06009KT 10SM CLR 21/10 A3000 RMK AO1,M
MEV,2022-08-20 07:35,-119.7500,38.9963,1441.42,59.00,37.40,44.47,0.00,0.00,0.00,30.04,M,10.00,M,CLR,M,M,M,M,M,M,M,M,M,M,M,M,M,M,59.00,KMEV 200735Z AUTO 00000KT 10SM CLR 15/03 A3004 RMK AO2,M
RTS,2022-08-20 07:35,-119.8764,39.6682,1539.00,68.00,37.40,32.43,300.00,5.00,0.00,30.06,M,10.00,M,CLR,M,M,M,M,M,M,M,M,M,M,M,M,M,M,68.00,KRTS 200735Z AUTO 30005KT 10SM CLR 20/03 A3006 RMK AO2,M
CXP,2022-08-20 07:50,-119.7326,39.1923,1431.00,66.20,39.20,37.03,0.00,0.00,0.00,30.05,M,10.00,M,CLR,M,M,M,M,M,M,M,M,M,M,M,M,M,M,66.20,KCXP 200750Z AUTO 00000KT 10SM CLR 19/04 A3005 RMK AO2,M
P68,2022-08-20 07:53,-116.0056,39.6014,1993.00,55.00,42.00,61.69,230.00,3.00,0.00,30.10,1011.20,M,M,M,M,M,M,M,M,M,M,M,M,M,M,M,M,M,55.00,KP68 200753Z AUTO 23003KT 13/06 A3010 RMK AO1 SLP112 T01280056 403060106,M
ELY,2022-08-20 07:53,-114.8453,39.2950,1909.00,56.00,49.00,77.28,130.00,3.00,0.00,30.14,1010.40,10.00,M,CLR,M,M,M,M,M,M,M,M,M,M,M,M,M,M,55.90,KELY 200753Z AUTO 13003KT 10SM CLR 13/09 A3014 RMK AO2 SLP104 T01330094,M
VGT,2022-08-20 07:53,-115.1933,36.2111,667.00,89.00,57.00,33.85,90.00,4.00,0.00,29.77,1006.50,10.00,M,CLR,M,M,M,M,M,M,M,M,M,M,M,M,M,M,87.74,KVGT 200753Z AUTO 09004KT 10SM CLR 32/14 A2977 RMK AO2 SLP065 T03170139 403890261,M
LOL,2022-08-20 07:53,-118.5701,40.0684,1192.43,63.00,45.00,51.78,310.00,4.00,0.00,29.94,1009.70,10.00,M,CLR,M,M,M,M,M,M,M,M,M,M,M,M,M,M,63.00,KLOL 200753Z AUTO 31004KT 10SM CLR 17/07 A2994 RMK AO2 SLP097 T01720072 403440117,M
DRA,2022-08-20 07:53,-116.0278,36.6206,1009.00,79.00,48.00,33.66,20.00,4.00,0.00,29.85,1005.00,10.00,M,CLR,M,M,M,M,M,M,M,M,M,M,M,M,M,M,79.00,KDRA 200753Z AUTO 02004KT 10SM CLR 26/09 A2985 RMK AO2 SLP050 T02610089 403830217,M
HTH,2022-08-20 07:55,-118.6315,38.5448,1282.89,73.40,39.20,28.96,170.00,4.00,0.00,29.98,M,10.00,M,CLR,M,M,M,M,M,M,M,M,M,M,M,M,M,M,73.40,KHTH 200755Z AUTO 17004KT 10SM CLR 23/04 A2998 RMK A01,M
MEV,2022-08-20 07:55,-119.7500,38.9963,1441.42,57.20,37.40,47.44,140.00,3.00,0.00,30.04,M,10.00,M,CLR,M,M,M,M,M,M,M,M,M,M,M,M,M,M,57.20,KMEV 200755Z AUTO 14003KT 10SM CLR 14/03 A3004 RMK AO2,M
RTS,2022-08-20 07:55,-119.8764,39.6682,1539.00,66.20,37.40,34.51,290.00,6.00,0.00,30.06,M,10.00,M,CLR,M,M,M,M,M,M,M,M,M,M,M,M,M,M,66.20,KRTS 200755Z AUTO 29006KT 10SM CLR 19/03 A3006 RMK AO2,M
RNO,2022-08-20 07:55,-119.7711,39.4839,1341.00,70.00,46.00,42.20,190.00,4.00,0.00,30.01,1010.00,10.00,M,CLR,M,M,M,M,M,M,M,M,M,M,M,M,M,M,70.00,KRNO 200755Z 19004KT 10SM CLR 21/08 A3001 RMK AO2 SLP100 T02110078 403330150,M
BVU,2022-08-20 07:55,-114.8611,35.9475,671.00,89.60,51.80,27.56,110.00,6.00,0.00,29.79,M,M,M,M,M,M,M,M,M,M,M,M,M,M,M,M,M,M,87.00,KBVU 200755Z AUTO 11006KT 32/11 A2979 RMK AO2 PWINO TSNO,M
TMT,2022-08-20 07:55,-117.1971,39.4643,1749.34,51.40,35.20,53.75,160.00,3.00,0.00,30.10,M,10.00,M,CLR,M,M,M,M,M,M,M,M,M,M,M,M,M,M,51.40,KTMT 200755Z AUTO 16003KT 10SM CLR 11/02 A3010 RMK AO2 T01080018,M
BAM,2022-08-20 07:55,-116.8743,40.5990,1382.36,69.80,50.00,49.37,70.00,7.00,0.00,30.00,M,10.00,M,SCT,M,M,M,12000.00,M,M,M,M,M,M,M,M,M,M,69.80,KBAM 200755Z AUTO 07007KT 10SM SCT120 21/10 A3000 RMK AO1,M
EKO,2022-08-20 07:56,-115.7860,40.8242,1367.00,56.00,53.00,90.29,0.00,0.00,0.00,30.06,1013.20,10.00,M,SCT,M,M,M,11000.00,M,M,M,M,M,M,M,M,M,M,55.90,KEKO 200756Z AUTO 00000KT 10SM SCT110 13/12 A3006 RMK AO2 SLP132 T01330117 402670072,M
HND,2022-08-20 07:56,-115.1344,35.9729,742.79,84.00,57.00,39.83,180.00,3.00,0.00,29.81,1007.80,10.00,M,CLR,M,M,M,M,M,M,M,M,M,M,M,M,M,M,83.26,KHND 200756Z AUTO 18003KT 10SM CLR 29/14 A2981 RMK AO2 SLP078 T02890139,M
LAS,2022-08-20 07:56,-115.1634,36.0719,663.00,89.00,56.00,32.53,230.00,3.00,0.00,29.77,1005.00,10.00,M,CLR,M,M,M,M,M,M,M,M,M,M,M,M,M,M,87.44,KLAS 200756Z 23003KT 10SM CLR 32/13 A2977 RMK AO2 SLP050 T03170133 403780267,M
NFL,2022-08-20 07:56,-118.7010,39.4166,1199.00,68.00,40.00,35.76,210.00,6.00,0.00,29.94,1011.10,10.00,M,CLR,M,M,M,M,M,M,M,M,M,M,M,M,M,M,68.00,KNFL 200756Z AUTO 21006KT 10SM CLR 20/04 A2994 RMK AO2 SLP111 T02000044 403440144,M
TPH,2022-08-20 07:56,-117.0904,38.0505,1654.00,70.00,33.00,25.53,20.00,10.00,0.00,30.05,1008.80,10.00,M,BKN,M,M,M,11000.00,M,M,M,M,M,M,M,M,M,M,70.00,KTPH 200756Z AUTO 02010KT 10SM BKN110 21/01 A3005 RMK AO2 SLP088 T02110006 403220161,M
WMC,2022-08-20 07:56,-117.8072,40.9019,1315.00,66.00,44.00,45.05,100.00,4.00,0.00,29.97,1009.70,10.00,M,SCT,M,M,M,10000.00,M,M,M,M,M,M,M,M,M,M,66.00,KWMC 200756Z AUTO 10004KT 10SM SCT100 19/07 A2997 RMK AO2 SLP097 T01890067 403280100 $,M
INS,2022-08-20 07:58,-115.6733,36.5872,955.00,79.70,44.60,28.92,140.00,5.00,0.00,29.84,1004.90,10.00,M,FEW,M,M,M,15000.00,M,M,M,M,M,M,M,M,M,M,79.70,KINS 200758Z AUTO 14005KT 10SM FEW150 27/07 A2984 RMK AO2 SLP049 T02650070 403660230 $,M
LSV,2022-08-20 07:58,-115.0343,36.2362,570.00,85.50,56.80,37.68,70.00,9.00,0.00,29.75,1004.60,10.00,M,CLR,M,M,M,M,M,M,M,M,M,M,M,M,M,M,84.44,KLSV 200758Z AUTO 07009KT 10SM CLR 30/14 A2975 RMK AO2 SLP046 T02970138 404000241 $,M
CXP,2022-08-20 08:15,-119.7326,39.1923,1431.00,66.20,39.20,37.03,0.00,0.00,0.00,30.05,M,10.00,M,CLR,M,M,M,M,M,M,M,M,M,M,M,M,M,M,66.20,KCXP 200815Z AUTO 00000KT 10SM CLR 19/04 A3005 RMK AO2,M
BVU,2022-08-20 08:15,-114.8611,35.9475,671.00,87.80,59.00,37.90,180.00,5.00,0.00,29.79,M,M,10.00,M,M,M,M,M,M,M,M,M,M,M,M,M,M,M,87.12,KBVU 200815Z AUTO 18005G10KT 31/15 A2979 RMK AO2 PWINO TSNO,M
HTH,2022-08-20 08:15,-118.6315,38.5448,1282.89,73.40,35.60,25.13,230.00,5.00,0.00,29.98,M,10.00,M,CLR,M,M,M,M,M,M,M,M,M,M,M,M,M,M,73.40,KHTH 200815Z AUTO 23005KT 10SM CLR 23/02 A2998 RMK A01,M
BAM,2022-08-20 08:15,-116.8743,40.5990,1382.36,69.80,50.00,49.37,60.00,6.00,0.00,30.00,M,10.00,M,BKN,M,M,M,12000.00,M,M,M,M,M,M,M,M,M,M,69.80,KBAM 200815Z AUTO 06006KT 10SM BKN120 21/10 A3000 RMK AO1,M
MEV,2022-08-20 08:15,-119.7500,38.9963,1441.42,60.80,37.40,41.71,0.00,0.00,0.00,30.04,M,10.00,M,FEW,SCT,M,M,4500.00,5500.00,M,M,M,M,M,M,M,M,M,60.80,KMEV 200815Z AUTO 00000KT 10SM FEW045 SCT055 16/03 A3004 RMK AO2,M
TMT,2022-08-20 08:15,-117.1971,39.4643,1749.34,52.70,36.00,53.09,0.00,0.00,0.00,30.10,M,10.00,M,CLR,M,M,M,M,M,M,M,M,M,M,M,M,M,M,52.70,KTMT 200815Z AUTO 00000KT 10SM CLR 12/02 A3010 RMK AO2 T01150023,M
RTS,2022-08-20 08:15,-119.8764,39.6682,1539.00,69.80,37.40,30.49,360.00,3.00,0.00,30.06,M,10.00,M,CLR,M,M,M,M,M,M,M,M,M,M,M,M,M,M,69.80,KRTS 200815Z AUTO 36003KT 10SM CLR 21/03 A3006 RMK AO2,M
TMT,2022-08-20 08:35,-117.1971,39.4643,1749.34,51.00,35.60,55.22,0.00,0.00,0.00,30.10,M,10.00,M,CLR,M,M,M,M,M,M,M,M,M,M,M,M,M,M,51.10,KTMT 200835Z AUTO 00000KT 10SM CLR 11/02 A3010 RMK AO2 T01060020,M
BVU,2022-08-20 08:35,-114.8611,35.9475,671.00,87.80,60.80,40.41,160.00,6.00,0.00,29.80,M,M,13.00,M,M,M,M,M,M,M,M,M,M,M,M,M,M,M,87.75,KBVU 200835Z AUTO 16006G13KT 31/16 A2980 RMK AO2 PWINO TSNO,M
MEV,2022-08-20 08:35,-119.7500,38.9963,1441.42,59.00,37.40,44.47,30.00,3.00,0.00,30.03,M,10.00,M,FEW,FEW,M,M,4600.00,6000.00,M,M,M,M,M,M,M,M,M,59.00,KMEV 200835Z AUTO 03003KT 10SM FEW046 FEW060 15/03 A3003 RMK AO2,M
BAM,2022-08-20 08:35,-116.8743,40.5990,1382.36,69.80,50.00,49.37,60.00,8.00,0.00,30.00,M,10.00,M,BKN,M,M,M,12000.00,M,M,M,M,M,M,M,M,M,M,69.80,KBAM 200835Z AUTO 06008KT 10SM BKN120 21/10 A3000 RMK AO1,M
CXP,2022-08-20 08:35,-119.7326,39.1923,1431.00,62.60,39.20,42.00,0.00,0.00,0.00,30.05,M,10.00,M,CLR,M,M,M,M,M,M,M,M,M,M,M,M,M,M,62.60,KCXP 200835Z AUTO 00000KT 10SM CLR 17/04 A3005 RMK AO2,M
RTS,2022-08-20 08:35,-119.8764,39.6682,1539.00,66.20,37.40,34.51,340.00,5.00,0.00,30.06,M,10.00,M,CLR,M,M,M,M,M,M,M,M,M,M,M,M,M,M,66.20,KRTS 200835Z AUTO 34005KT 10SM CLR 19/03 A3006 RMK AO2,M
HTH,2022-08-20 08:35,-118.6315,38.5448,1282.89,71.60,35.60,26.71,160.00,4.00,0.00,29.98,M,10.00,M,CLR,M,M,M,M,M,M,M,M,M,M,M,M,M,M,71.60,KHTH 200835Z AUTO 16004KT 10SM CLR 22/02 A2998 RMK A01,M
DRA,2022-08-20 08:53,-116.0278,36.6206,1009.00,77.00,49.00,37.19,0.00,0.00,0.00,29.85,1005.00,10.00,M,CLR,M,M,M,M,M,M,M,M,M,M,M,M,M,M,77.00,KDRA 200853Z AUTO 00000KT 10SM CLR 25/09 A2985 RMK AO2 SLP050 T02500094 50000,M
ELY,2022-08-20 08:53,-114.8453,39.2950,1909.00,54.00,48.00,80.07,200.00,4.00,0.00,30.14,1010.60,10.00,M,FEW,M,M,M,10000.00,M,M,M,M,M,M,M,M,M,M,54.00,KELY 200853Z AUTO 20004KT 10SM FEW100 12/09 A3014 RMK AO2 SLP106 T01220089 58001,M
P68,2022-08-20 08:53,-116.0056,39.6014,1993.00,55.00,43.00,63.86,200.00,5.00,0.00,30.10,1010.50,M,M,M,M,M,M,M,M,M,M,M,M,M,M,M,M,M,55.00,KP68 200853Z AUTO 20005KT 13/06 A3010 RMK AO1 SLP105 T01280061 58002,M
VGT,2022-08-20 08:53,-115.1933,36.2111,667.00,89.00,56.00,32.53,160.00,3.00,0.00,29.78,1006.80,10.00,M,CLR,M,M,M,M,M,M,M,M,M,M,M,M,M,M,87.44,KVGT 200853Z AUTO 16003KT 10SM CLR 32/13 A2978 RMK AO2 SLP068 T03170133 51007,M
LOL,2022-08-20 08:53,-118.5701,40.0684,1192.43,59.00,46.00,61.98,120.00,6.00,0.00,29.93,1009.60,10.00,M,CLR,M,M,M,M,M,M,M,M,M,M,M,M,M,M,59.00,KLOL 200853Z AUTO 12006KT 10SM CLR 15/08 A2993 RMK AO2 SLP096 T01500078 50002,M
RTS,2022-08-20 08:55,-119.8764,39.6682,1539.00,64.40,39.20,39.43,340.00,6.00,0.00,30.06,M,10.00,M,CLR,M,M,M,M,M,M,M,M,M,M,M,M,M,M,64.40,KRTS 200855Z AUTO 34006KT 10SM CLR 18/04 A3006 RMK AO2,M
BVU,2022-08-20 08:55,-114.8611,35.9475,671.00,86.00,62.60,45.61,150.00,9.00,0.00,29.81,M,M,M,M,M,M,M,M,M,M,M,M,M,M,M,M,M,M,86.72,KBVU 200855Z AUTO 15009KT 30/17 A2981 RMK AO2 PWINO TSNO,M
MEV,2022-08-20 08:55,-119.7500,38.9963,1441.42,59.00,39.20,47.72,330.00,4.00,0.00,30.04,M,10.00,M,CLR,M,M,M,M,M,M,M,M,M,M,M,M,M,M,59.00,KMEV 200855Z AUTO 33004KT 10SM CLR 15/04 A3004 RMK AO2,M
TMT,2022-08-20 08:55,-117.1971,39.4643,1749.34,52.30,36.50,54.74,0.00,0.00,0.00,30.10,M,10.00,M,CLR,M,M,M,M,M,M,M,M,M,M,M,M,M,M,52.30,KTMT 200855Z AUTO 00000KT 10SM CLR 11/03 A3010 RMK AO2 T01130025,M
BAM,2022-08-20 08:55,-116.8743,40.5990,1382.36,69.80,50.00,49.37,60.00,9.00,0.00,30.00,M,10.00,M,SCT,M,M,M,11000.00,M,M,M,M,M,M,M,M,M,M,69.80,KBAM 200855Z AUTO 06009KT 10SM SCT110 21/10 A3000 RMK AO1,M
HTH,2022-08-20 08:55,-118.6315,38.5448,1282.89,71.60,35.60,26.71,140.00,6.00,0.00,29.98,M,10.00,M,CLR,M,M,M,M,M,M,M,M,M,M,M,M,M,M,71.60,KHTH 200855Z AUTO 14006KT 10SM CLR 22/02 A2998 RMK A01,M
RNO,2022-08-20 08:55,-119.7711,39.4839,1341.00,69.00,44.00,40.48,0.00,0.00,0.00,30.01,1010.00,10.00,M,CLR,M,M,M,M,M,M,M,M,M,M,M,M,M,M,69.10,KRNO 200855Z 00000KT 10SM CLR 21/07 A3001 RMK AO2 SLP100 T02060067 52002,M
CXP,2022-08-20 08:55,-119.7326,39.1923,1431.00,62.60,41.00,45.04,0.00,0.00,0.00,30.05,M,10.00,M,CLR,M,M,M,M,M,M,M,M,M,M,M,M,M,M,62.60,KCXP 200855Z AUTO 00000KT 10SM CLR 17/05 A3005 RMK AO2,M
EKO,2022-08-20 08:56,-115.7860,40.8242,1367.00,50.00,50.00,100.00,0.00,0.00,0.00,30.06,1013.70,10.00,M,FEW,M,M,M,8500.00,M,M,M,M,M,M,M,M,M,M,50.00,KEKO 200856Z AUTO 00000KT 10SM FEW085 10/10 A3006 RMK AO2 SLP137 T01000100 50001,M
WMC,2022-08-20 08:56,-117.8072,40.9019,1315.00,62.00,42.00,47.83,120.00,7.00,0.00,29.97,1009.80,10.00,M,CLR,M,M,M,M,M,M,M,M,M,M,M,M,M,M,62.10,KWMC 200856Z AUTO 12007KT 10SM CLR 17/06 A2997 RMK AO2 SLP098 T01670056 51003 $,M
NFL,2022-08-20 08:56,-118.7010,39.4166,1199.00,67.00,39.00,35.86,170.00,6.00,0.00,29.94,1011.00,10.00,M,CLR,M,M,M,M,M,M,M,M,M,M,M,M,M,M,66.90,KNFL 200856Z AUTO 17006KT 10SM CLR 19/04 A2994 RMK AO2 SLP110 T01940039 50001,M
TPH,2022-08-20 08:56,-117.0904,38.0505,1654.00,69.00,34.00,27.29,10.00,11.00,0.00,30.06,1009.10,10.00,M,BKN,M,M,M,11000.00,M,M,M,M,M,M,M,M,M,M,69.10,KTPH 200856Z AUTO 01011KT 10SM BKN110 21/01 A3006 RMK AO2 SLP091 T02060011 53001,M
LAS,2022-08-20 08:56,-115.1634,36.0719,663.00,88.00,56.00,33.68,70.00,3.00,0.00,29.78,1005.40,10.00,M,CLR,M,M,M,M,M,M,M,M,M,M,M,M,M,M,86.42,KLAS 200856Z 07003KT 10SM CLR 31/13 A2978 RMK AO2 SLP054 T03110133 51006,M
HND,2022-08-20 08:56,-115.1344,35.9729,742.79,83.00,57.00,41.27,170.00,4.00,0.00,29.82,1008.10,10.00,M,CLR,M,M,M,M,M,M,M,M,M,M,M,M,M,M,82.41,KHND 200856Z AUTO 17004KT 10SM CLR 28/14 A2982 RMK AO2 SLP081 T02830139 51004,M
LSV,2022-08-20 08:58,-115.0343,36.2362,570.00,86.40,57.00,36.88,80.00,11.00,0.00,29.76,1004.80,10.00,M,CLR,M,M,M,M,M,M,M,M,M,M,M,M,M,M,85.27,KLSV 200858Z AUTO 08011KT 10SM CLR 30/14 A2976 RMK AO2 SLP048 T03020139 50006 $,M
INS,2022-08-20 08:58,-115.6733,36.5872,955.00,78.30,46.00,31.94,0.00,0.00,0.00,29.84,1005.10,10.00,M,CLR,M,M,M,M,M,M,M,M,M,M,M,M,M,M,78.30,KINS 200858Z AUTO 00000KT 10SM CLR 26/08 A2984 RMK AO2 SLP051 T02570078 52002 $,M
CXP,2022-08-20 09:10,-119.7326,39.1923,1431.00,62.60,42.80,48.28,0.00,0.00,0.00,30.05,M,10.00,M,CLR,M,M,M,M,M,M,M,M,M,M,M,M,M,M,62.60,KCXP 200910Z AUTO 00000KT 10SM CLR 17/06 A3005 RMK AO2,M
MEV,2022-08-20 09:15,-119.7500,38.9963,1441.42,57.20,37.40,47.44,0.00,0.00,0.00,30.04,M,10.00,M,FEW,M,M,M,5000.00,M,M,M,M,M,M,M,M,M,M,57.20,KMEV 200915Z AUTO 00000KT 10SM FEW050 14/03 A3004 RMK AO2,M
BAM,2022-08-20 09:15,-116.8743,40.5990,1382.36,69.80,50.00,49.37,60.00,7.00,0.00,30.01,M,10.00,M,BKN,M,M,M,11000.00,M,M,M,M,M,M,M,M,M,M,69.80,KBAM 200915Z AUTO 06007KT 10SM BKN110 21/10 A3001 RMK AO1,M
HTH,2022-08-20 09:15,-118.6315,38.5448,1282.89,71.60,33.80,24.86,190.00,5.00,0.00,29.97,M,10.00,M,CLR,M,M,M,M,M,M,M,M,M,M,M,M,M,M,71.60,KHTH 200915Z AUTO 19005KT 10SM CLR 22/01 A2997 RMK A01,M
TMT,2022-08-20 09:15,-117.1971,39.4643,1749.34,54.00,37.00,52.26,0.00,0.00,0.00,30.10,M,10.00,M,CLR,M,M,M,M,M,M,M,M,M,M,M,M,M,M,54.10,KTMT 200915Z AUTO 00000KT 10SM CLR 12/03 A3010 RMK AO2 T01230028,M
BVU,2022-08-20 09:15,-114.8611,35.9475,671.00,84.20,64.40,51.47,160.00,9.00,0.00,29.80,M,M,15.00,M,M,M,M,M,M,M,M,M,M,M,M,M,M,M,85.71,KBVU 200915Z AUTO 16009G15KT 29/18 A2980 RMK AO2 PWINO TSNO,M
RTS,2022-08-20 09:15,-119.8764,39.6682,1539.00,62.60,39.20,42.00,350.00,7.00,0.00,30.06,M,10.00,M,CLR,M,M,M,M,M,M,M,M,M,M,M,M,M,M,62.60,KRTS 200915Z AUTO 35007KT 10SM CLR 17/04 A3006 RMK AO2,M
CXP,2022-08-20 09:30,-119.7326,39.1923,1431.00,60.80,41.00,48.00,0.00,0.00,0.00,30.04,M,10.00,M,CLR,M,M,M,M,M,M,M,M,M,M,M,M,M,M,60.80,KCXP 200930Z AUTO 00000KT 10SM CLR 16/05 A3004 RMK AO2,M
TMT,2022-08-20 09:35,-117.1971,39.4643,1749.34,47.30,34.20,60.18,0.00,0.00,0.00,30.10,M,10.00,M,CLR,M,M,M,M,M,M,M,M,M,M,M,M,M,M,47.30,KTMT 200935Z AUTO 00000KT 10SM CLR 09/01 A3010 RMK AO2 T00850012,M
MEV,2022-08-20 09:35,-119.7500,38.9963,1441.42,53.60,37.40,54.07,110.00,4.00,0.00,30.04,M,10.00,M,SCT,SCT,M,M,4900.00,5500.00,M,M,M,M,M,M,M,M,M,53.60,KMEV 200935Z AUTO 11004KT 10SM SCT049 SCT055 12/03 A3004 RMK AO2,M
BVU,2022-08-20 09:35,-114.8611,35.9475,671.00,84.20,64.40,51.47,130.00,9.00,0.00,29.81,M,M,M,M,M,M,M,M,M,M,M,M,M,M,M,M,M,M,85.71,KBVU 200935Z AUTO 13009KT 29/18 A2981 RMK AO2 PWINO TSNO,M
RTS,2022-08-20 09:35,-119.8764,39.6682,1539.00,62.60,39.20,42.00,340.00,7.00,0.00,30.06,M,10.00,M,CLR,M,M,M,M,M,M,M,M,M,M,M,M,M,M,62.60,KRTS 200935Z AUTO 34007KT 10SM CLR 17/04 A3006 RMK AO2,M
BAM,2022-08-20 09:35,-116.8743,40.5990,1382.36,68.00,50.00,52.51,60.00,8.00,0.00,30.00,M,10.00,M,BKN,M,M,M,11000.00,M,M,M,M,M,M,M,M,M,M,68.00,KBAM 200935Z AUTO 06008KT 10SM BKN110 20/10 A3000 RMK AO1,M
HTH,2022-08-20 09:35,-118.6315,38.5448,1282.89,69.80,37.40,30.49,0.00,0.00,0.00,29.98,M,10.00,M,CLR,M,M,M,M,M,M,M,M,M,M,M,M,M,M,69.80,KHTH 200935Z AUTO 00000KT 10SM CLR 21/03 A2998 RMK A01,M
CXP,2022-08-20 09:50,-119.7326,39.1923,1431.00,60.80,39.20,44.76,0.00,0.00,0.00,30.05,M,10.00,M,CLR,M,M,M,M,M,M,M,M,M,M,M,M,M,M,60.80,KCXP 200950Z AUTO 00000KT 10SM CLR 16/04 A3005 RMK AO2,M
ELY,2022-08-20 09:53,-114.8453,39.2950,1909.00,54.00,48.00,80.07,170.00,5.00,0.00,30.13,1010.20,10.00,M,BKN,M,M,M,10000.00,M,M,M,M,M,M,M,M,M,M,54.00,KELY 200953Z AUTO 17005KT 10SM BKN100 12/09 A3013 RMK AO2 SLP102 T01220089,M
VGT,2022-08-20 09:53,-115.1933,36.2111,667.00,87.00,55.00,33.55,60.00,4.00,0.00,29.78,1007.10,10.00,M,CLR,M,M,M,M,M,M,M,M,M,M,M,M,M,M,85.40,KVGT 200953Z AUTO 06004KT 10SM CLR 31/13 A2978 RMK AO2 SLP071 T03060128,M
P68,2022-08-20 09:53,-116.0056,39.6014,1993.00,54.00,42.00,63.98,180.00,5.00,0.00,30.10,1011.20,M,M,M,M,M,M,M,M,M,M,M,M,M,M,M,M,M,54.00,KP68 200953Z AUTO 18005KT 12/06 A3010 RMK AO1 SLP112 T01220056,M
LOL,2022-08-20 09:53,-118.5701,40.0684,1192.43,61.00,47.00,59.71,10.00,5.00,0.00,29.94,1009.50,10.00,M,CLR,M,M,M,M,M,M,M,M,M,M,M,M,M,M,61.00,KLOL 200953Z AUTO 01005KT 10SM CLR 16/08 A2994 RMK AO2 SLP095 T01610083,M
DRA,2022-08-20 09:53,-116.0278,36.6206,1009.00,78.00,48.00,34.67,60.00,5.00,0.00,29.85,1004.90,10.00,M,CLR,M,M,M,M,M,M,M,M,M,M,M,M,M,M,78.10,KDRA 200953Z AUTO 06005KT 10SM CLR 26/09 A2985 RMK AO2 SLP049 T02560089,M
MEV,2022-08-20 09:55,-119.7500,38.9963,1441.42,51.80,39.20,61.99,110.00,4.00,0.00,30.04,M,10.00,M,FEW,M,M,M,5000.00,M,M,M,M,M,M,M,M,M,M,51.80,KMEV 200955Z AUTO 11004KT 10SM FEW050 11/04 A3004 RMK AO2,M
BVU,2022-08-20 09:55,-114.8611,35.9475,671.00,84.20,64.40,51.47,140.00,10.00,0.00,29.81,M,M,M,M,M,M,M,M,M,M,M,M,M,M,M,M,M,M,85.71,KBVU 200955Z AUTO 14010KT 29/18 A2981 RMK AO2 PWINO TSNO,M
HTH,2022-08-20 09:55,-118.6315,38.5448,1282.89,68.00,37.40,32.43,0.00,0.00,0.00,29.98,M,10.00,M,CLR,M,M,M,M,M,M,M,M,M,M,M,M,M,M,68.00,KHTH 200955Z AUTO 00000KT 10SM CLR 20/03 A2998 RMK A01,M
RNO,2022-08-20 09:55,-119.7711,39.4839,1341.00,66.00,45.00,46.62,0.00,0.00,0.00,30.01,1010.10,10.00,M,CLR,M,M,M,M,M,M,M,M,M,M,M,M,M,M,66.00,KRNO 200955Z 00000KT 10SM CLR 19/07 A3001 RMK AO2 SLP101 T01890072,M
RTS,2022-08-20 09:55,-119.8764,39.6682,1539.00,60.80,39.20,44.76,350.00,7.00,0.00,30.06,M,10.00,M,CLR,M,M,M,M,M,M,M,M,M,M,M,M,M,M,60.80,KRTS 200955Z AUTO 35007KT 10SM CLR 16/04 A3006 RMK AO2,M
BAM,2022-08-20 09:55,-116.8743,40.5990,1382.36,68.00,50.00,52.51,60.00,8.00,0.00,30.01,M,10.00,M,SCT,M,M,M,11000.00,M,M,M,M,M,M,M,M,M,M,68.00,KBAM 200955Z AUTO 06008KT 10SM SCT110 20/10 A3001 RMK AO1,M
TMT,2022-08-20 09:55,-117.1971,39.4643,1749.34,48.20,35.60,61.52,0.00,0.00,0.00,30.10,M,10.00,M,CLR,M,M,M,M,M,M,M,M,M,M,M,M,M,M,48.20,KTMT 200955Z AUTO 00000KT 10SM CLR 09/02 A3010 RMK AO2 T00900020,M
TPH,2022-08-20 09:56,-117.0904,38.0505,1654.00,67.00,35.00,30.75,10.00,12.00,0.00,30.06,1009.30,10.00,M,CLR,M,M,M,M,M,M,M,M,M,M,M,M,M,M,66.90,KTPH 200956Z AUTO 01012KT 10SM CLR 19/02 A3006 RMK AO2 SLP093 T01940017,M
HND,2022-08-20 09:56,-115.1344,35.9729,742.79,83.00,60.00,46.12,170.00,11.00,0.00,29.82,1008.20,10.00,M,CLR,M,M,M,M,M,M,M,M,M,M,M,M,M,M,83.13,KHND 200956Z AUTO 17011KT 10SM CLR 28/16 A2982 RMK AO2 SLP082 T02830156,M
LAS,2022-08-20 09:56,-115.1634,36.0719,663.00,86.00,57.00,37.35,340.00,5.00,0.00,29.79,1005.50,10.00,M,CLR,M,M,M,M,M,M,M,M,M,M,M,M,M,M,84.92,KLAS 200956Z 34005KT 10SM CLR 30/14 A2979 RMK AO2 SLP055 T03000139,M
WMC,2022-08-20 09:56,-117.8072,40.9019,1315.00,61.00,42.00,49.73,M,4.00,0.00,29.98,1009.90,10.00,M,CLR,M,M,M,M,M,M,M,M,M,M,M,M,M,M,61.00,KWMC 200956Z AUTO VRB04KT 10SM CLR 16/06 A2998 RMK AO2 SLP099 T01610056 $,M
NFL,2022-08-20 09:56,-118.7010,39.4166,1199.00,66.00,38.00,35.44,150.00,9.00,0.00,29.94,1011.10,10.00,M,CLR,M,M,M,M,M,M,M,M,M,M,M,M,M,M,66.00,KNFL 200956Z AUTO 15009KT 10SM CLR 19/03 A2994 RMK AO2 SLP111 T01890033,M
EKO,2022-08-20 09:56,-115.7860,40.8242,1367.00,50.00,50.00,100.00,0.00,0.00,0.00,30.06,1013.70,10.00,M,CLR,M,M,M,M,M,M,M,M,M,M,M,M,M,M,50.00,KEKO 200956Z AUTO 00000KT 10SM CLR 10/10 A3006 RMK AO2 SLP137 T01000100 $,M
INS,2022-08-20 09:58,-115.6733,36.5872,955.00,74.70,46.60,36.82,250.00,3.00,0.00,29.85,1005.40,10.00,M,CLR,M,M,M,M,M,M,M,M,M,M,M,M,M,M,74.70,KINS 200958Z AUTO 25003KT 10SM CLR 24/08 A2985 RMK AO2 SLP054 T02370081 $,M
LSV,2022-08-20 09:58,-115.0343,36.2362,570.00,87.00,63.00,44.95,60.00,11.00,0.00,29.76,1004.80,10.00,M,CLR,M,M,M,M,M,M,M,M,M,M,M,M,M,M,87.76,KLSV 200958Z AUTO 06011KT 10SM CLR 31/17 A2976 RMK AO2 SLP048 T03050172 $,M
CXP,2022-08-20 10:10,-119.7326,39.1923,1431.00,60.80,37.40,41.71,300.00,3.00,0.00,30.05,M,10.00,M,CLR,M,M,M,M,M,M,M,M,M,M,M,M,M,M,60.80,KCXP 201010Z AUTO 30003KT 10SM CLR 16/03 A3005 RMK AO2,M
HTH,2022-08-20 10:15,-118.6315,38.5448,1282.89,68.00,35.60,30.20,230.00,5.00,0.00,29.98,M,10.00,M,CLR,M,M,M,M,M,M,M,M,M,M,M,M,M,M,68.00,KHTH 201015Z AUTO 23005KT 10SM CLR 20/02 A2998 RMK A01,M
BAM,2022-08-20 10:15,-116.8743,40.5990,1382.36,66.20,50.00,55.88,70.00,10.00,0.00,30.01,M,10.00,M,SCT,M,M,M,11000.00,M,M,M,M,M,M,M,M,M,M,66.20,KBAM 201015Z AUTO 07010KT 10SM SCT110 19/10 A3001 RMK AO1,M
MEV,2022-08-20 10:15,-119.7500,38.9963,1441.42,53.60,41.00,62.23,100.00,4.00,0.00,30.03,M,10.00,M,FEW,M,M,M,4900.00,M,M,M,M,M,M,M,M,M,M,53.60,KMEV 201015Z AUTO 10004KT 10SM FEW049 12/05 A3003 RMK AO2,M
RTS,2022-08-20 10:15,-119.8764,39.6682,1539.00,60.80,39.20,44.76,350.00,6.00,0.00,30.06,M,10.00,M,CLR,M,M,M,M,M,M,M,M,M,M,M,M,M,M,60.80,KRTS 201015Z AUTO 35006KT 10SM CLR 16/04 A3006 RMK AO2,M
TMT,2022-08-20 10:15,-117.1971,39.4643,1749.34,48.60,36.30,62.30,0.00,0.00,0.00,30.10,M,10.00,M,CLR,M,M,M,M,M,M,M,M,M,M,M,M,M,M,48.60,KTMT 201015Z AUTO 00000KT 10SM CLR 09/02 A3010 RMK AO2 T00920024,M
BVU,2022-08-20 10:15,-114.8611,35.9475,671.00,82.40,64.40,54.55,130.00,5.00,0.00,29.82,M,M,M,M,M,M,M,M,M,M,M,M,M,M,M,M,M,M,83.98,KBVU 201015Z AUTO 13005KT 28/18 A2982 RMK AO2 PWINO TSNO,M
BVU,2022-08-20 10:35,-114.8611,35.9475,671.00,82.40,64.40,54.55,160.00,9.00,0.00,29.82,M,M,M,M,M,M,M,M,M,M,M,M,M,M,M,M,M,M,83.98,KBVU 201035Z AUTO 16009KT 28/18 A2982 RMK AO2 PWINO TSNO,M
RTS,2022-08-20 10:35,-119.8764,39.6682,1539.00,59.00,39.20,47.72,360.00,6.00,0.00,30.07,M,10.00,M,CLR,M,M,M,M,M,M,M,M,M,M,M,M,M,M,59.00,KRTS 201035Z AUTO 36006KT 10SM CLR 15/04 A3007 RMK AO2,M
MEV,2022-08-20 10:35,-119.7500,38.9963,1441.42,53.60,37.40,54.07,100.00,6.00,0.00,30.04,M,10.00,M,SCT,SCT,M,M,4600.00,5000.00,M,M,M,M,M,M,M,M,M,53.60,KMEV 201035Z AUTO 10006KT 10SM SCT046 SCT050 12/03 A3004 RMK AO2,M
BAM,2022-08-20 10:35,-116.8743,40.5990,1382.36,62.60,48.20,59.26,70.00,8.00,0.00,30.01,M,10.00,M,SCT,M,M,M,12000.00,M,M,M,M,M,M,M,M,M,M,62.60,KBAM 201035Z AUTO 07008KT 10SM SCT120 17/09 A3001 RMK AO1,M
HTH,2022-08-20 10:35,-118.6315,38.5448,1282.89,69.80,37.40,30.49,250.00,5.00,0.00,29.98,M,10.00,M,CLR,M,M,M,M,M,M,M,M,M,M,M,M,M,M,69.80,KHTH 201035Z AUTO 25005KT 10SM CLR 21/03 A2998 RMK A01,M
TMT,2022-08-20 10:35,-117.1971,39.4643,1749.34,49.60,36.30,60.02,0.00,0.00,0.00,30.10,M,10.00,M,CLR,M,M,M,M,M,M,M,M,M,M,M,M,M,M,49.60,KTMT 201035Z AUTO 00000KT 10SM CLR 10/02 A3010 RMK AO2 T00980024,M
CXP,2022-08-20 10:35,-119.7326,39.1923,1431.00,60.80,39.20,44.76,0.00,0.00,0.00,30.05,M,10.00,M,CLR,M,M,M,M,M,M,M,M,M,M,M,M,M,M,60.80,KCXP 201035Z AUTO 00000KT 10SM CLR 16/04 A3005 RMK AO2,M
CXP,2022-08-20 10:50,-119.7326,39.1923,1431.00,59.00,41.00,51.18,0.00,0.00,0.00,30.05,M,10.00,M,CLR,M,M,M,M,M,M,M,M,M,M,M,M,M,M,59.00,KCXP 201050Z AUTO 00000KT 10SM CLR 15/05 A3005 RMK AO2,M
P68,2022-08-20 10:53,-116.0056,39.6014,1993.00,53.00,42.00,66.13,170.00,8.00,0.00,30.10,1010.60,M,M,M,M,M,M,M,M,M,M,M,M,M,M,M,M,M,53.10,KP68 201053Z AUTO 17008KT 12/06 A3010 RMK AO1 SLP106 T01170056,M
DRA,2022-08-20 10:53,-116.0278,36.6206,1009.00,79.00,48.00,33.66,0.00,0.00,0.00,29.86,1005.20,10.00,M,CLR,M,M,M,M,M,M,M,M,M,M,M,M,M,M,79.00,KDRA 201053Z AUTO 00000KT 10SM CLR 26/09 A2986 RMK AO2 SLP052 T02610089,M
VGT,2022-08-20 10:53,-115.1933,36.2111,667.00,86.00,61.00,43.10,80.00,7.00,0.00,29.80,1007.50,10.00,M,CLR,M,M,M,M,M,M,M,M,M,M,M,M,M,M,86.12,KVGT 201053Z AUTO 08007KT 10SM CLR 30/16 A2980 RMK AO2 SLP075 T03000161,M
ELY,2022-08-20 10:53,-114.8453,39.2950,1909.00,54.00,47.00,76.83,0.00,0.00,0.00,30.13,1010.10,10.00,M,CLR,M,M,M,M,M,M,M,M,M,M,M,M,M,M,54.00,KELY 201053Z AUTO 00000KT 10SM CLR 12/08 A3013 RMK AO2 SLP101 T01220083,M
LOL,2022-08-20 10:53,-118.5701,40.0684,1192.43,56.00,46.00,69.30,200.00,4.00,0.00,29.95,1010.00,10.00,M,CLR,M,M,M,M,M,M,M,M,M,M,M,M,M,M,55.90,KLOL 201053Z AUTO 20004KT 10SM CLR 13/08 A2995 RMK AO2 SLP100 T01330078,M
MEV,2022-08-20 10:55,-119.7500,38.9963,1441.42,53.60,37.40,54.07,200.00,3.00,0.00,30.04,M,10.00,M,FEW,FEW,M,M,4100.00,5000.00,M,M,M,M,M,M,M,M,M,53.60,KMEV 201055Z AUTO 20003KT 10SM FEW041 FEW050 12/03 A3004 RMK AO2,M
BVU,2022-08-20 10:55,-114.8611,35.9475,671.00,82.40,64.40,54.55,160.00,9.00,0.00,29.82,M,M,M,M,M,M,M,M,M,M,M,M,M,M,M,M,M,M,83.98,KBVU 201055Z AUTO 16009KT 28/18 A2982 RMK AO2 PWINO TSNO,M
RNO,2022-08-20 10:55,-119.7711,39.4839,1341.00,68.00,41.00,37.32,260.00,4.00,0.00,30.02,1010.10,10.00,M,CLR,M,M,M,M,M,M,M,M,M,M,M,M,M,M,68.00,KRNO 201055Z 26004KT 10SM CLR 20/05 A3002 RMK AO2 SLP101 T02000050,M
RTS,2022-08-20 10:55,-119.8764,39.6682,1539.00,59.00,39.20,47.72,340.00,7.00,0.00,30.07,M,10.00,M,CLR,M,M,M,M,M,M,M,M,M,M,M,M,M,M,59.00,KRTS 201055Z AUTO 34007KT 10SM CLR 15/04 A3007 RMK AO2,M
BAM,2022-08-20 10:55,-116.8743,40.5990,1382.36,60.80,46.40,59.01,100.00,5.00,0.00,30.01,M,10.00,M,CLR,M,M,M,M,M,M,M,M,M,M,M,M,M,M,60.80,KBAM 201055Z AUTO 10005KT 10SM CLR 16/08 A3001 RMK AO1,M
HTH,2022-08-20 10:55,-118.6315,38.5448,1282.89,69.80,39.20,32.72,260.00,4.00,0.00,29.99,M,10.00,M,CLR,M,M,M,M,M,M,M,M,M,M,M,M,M,M,69.80,KHTH 201055Z AUTO 26004KT 10SM CLR 21/04 A2999 RMK A01,M
TMT,2022-08-20 10:55,-117.1971,39.4643,1749.34,49.30,36.00,59.98,0.00,0.00,0.00,30.10,M,10.00,M,CLR,M,M,M,M,M,M,M,M,M,M,M,M,M,M,49.30,KTMT 201055Z AUTO 00000KT 10SM CLR 10/02 A3010 RMK AO2 T00960022,M
NFL,2022-08-20 10:56,-118.7010,39.4166,1199.00,65.00,39.00,38.44,170.00,4.00,0.00,29.95,1011.40,10.00,M,CLR,M,M,M,M,M,M,M,M,M,M,M,M,M,M,64.90,KNFL 201056Z AUTO 17004KT 10SM CLR 18/04 A2995 RMK AO2 SLP114 T01830039,M
HND,2022-08-20 10:56,-115.1344,35.9729,742.79,81.00,64.00,56.30,170.00,10.00,0.00,29.84,1008.60,10.00,M,CLR,M,M,M,M,M,M,M,M,M,M,M,M,M,M,82.54,KHND 201056Z AUTO 17010KT 10SM CLR 27/18 A2984 RMK AO2 SLP086 T02720178,M
EKO,2022-08-20 10:56,-115.7860,40.8242,1367.00,50.00,50.00,100.00,0.00,0.00,0.00,30.06,1013.70,10.00,M,CLR,M,M,M,M,M,M,M,M,M,M,M,M,M,M,50.00,KEKO 201056Z AUTO 00000KT 10SM CLR 10/10 A3006 RMK AO2 SLP137 T01000100 $,M
WMC,2022-08-20 10:56,-117.8072,40.9019,1315.00,58.00,42.00,55.55,0.00,0.00,0.00,29.98,1010.20,10.00,M,CLR,M,M,M,M,M,M,M,M,M,M,M,M,M,M,57.90,KWMC 201056Z AUTO 00000KT 10SM CLR 14/06 A2998 RMK AO2 SLP102 T01440056 $,M
TPH,2022-08-20 10:56,-117.0904,38.0505,1654.00,66.00,36.00,32.88,30.00,11.00,0.00,30.06,1009.40,10.00,M,BKN,M,M,M,11000.00,M,M,M,M,M,M,M,M,M,M,66.00,KTPH 201056Z AUTO 03011KT 10SM BKN110 19/02 A3006 RMK AO2 SLP094 T01890022,M
LAS,2022-08-20 10:56,-115.1634,36.0719,663.00,85.00,56.00,37.18,190.00,4.00,0.00,29.80,1006.00,10.00,M,CLR,M,M,M,M,M,M,M,M,M,M,M,M,M,M,83.74,KLAS 201056Z 19004KT 10SM CLR 29/13 A2980 RMK AO2 SLP060 T02940133,M
INS,2022-08-20 10:58,-115.6733,36.5872,955.00,77.40,47.50,34.82,0.00,0.00,0.00,29.86,1005.60,10.00,M,SCT,M,M,M,14000.00,M,M,M,M,M,M,M,M,M,M,77.40,KINS 201058Z AUTO 00000KT 10SM SCT140 25/09 A2986 RMK AO2 SLP056 T02520086 $,M
LSV,2022-08-20 10:58,-115.0343,36.2362,570.00,84.20,65.70,53.86,60.00,6.00,0.00,29.78,1005.60,10.00,M,CLR,M,M,M,M,M,M,M,M,M,M,M,M,M,M,86.27,KLSV 201058Z AUTO 06006KT 10SM CLR 29/19 A2978 RMK AO2 SLP056 T02900187 $,M
MEV,2022-08-20 11:15,-119.7500,38.9963,1441.42,51.80,37.40,57.77,170.00,5.00,0.00,30.04,M,10.00,M,FEW,FEW,FEW,M,4400.00,5000.00,7000.00,M,M,M,M,M,M,M,M,51.80,KMEV 201115Z AUTO 17005KT 10SM FEW044 FEW050 FEW070 11/03 A3004 RMK AO2,M
BAM,2022-08-20 11:15,-116.8743,40.5990,1382.36,59.00,46.40,62.92,100.00,5.00,0.00,30.02,M,10.00,M,CLR,M,M,M,M,M,M,M,M,M,M,M,M,M,M,59.00,KBAM 201115Z AUTO 10005KT 10SM CLR 15/08 A3002 RMK AO1,M
HTH,2022-08-20 11:15,-118.6315,38.5448,1282.89,69.80,41.00,35.09,260.00,4.00,0.00,29.99,M,10.00,M,SCT,M,M,M,12000.00,M,M,M,M,M,M,M,M,M,M,69.80,KHTH 201115Z AUTO 26004KT 10SM SCT120 21/05 A2999 RMK A01,M
CXP,2022-08-20 11:15,-119.7326,39.1923,1431.00,59.00,39.20,47.72,0.00,0.00,0.00,30.05,M,10.00,M,CLR,M,M,M,M,M,M,M,M,M,M,M,M,M,M,59.00,KCXP 201115Z AUTO 00000KT 10SM CLR 15/04 A3005 RMK AO2,M
TMT,2022-08-20 11:15,-117.1971,39.4643,1749.34,48.20,35.20,60.55,0.00,0.00,0.00,30.11,M,10.00,M,CLR,M,M,M,M,M,M,M,M,M,M,M,M,M,M,48.20,KTMT 201115Z AUTO 00000KT 10SM CLR 09/02 A3011 RMK AO2 T00900018,M
RTS,2022-08-20 11:15,-119.8764,39.6682,1539.00,59.00,39.20,47.72,350.00,7.00,0.00,30.07,M,10.00,M,CLR,M,M,M,M,M,M,M,M,M,M,M,M,M,M,59.00,KRTS 201115Z AUTO 35007KT 10SM CLR 15/04 A3007 RMK AO2,M
BVU,2022-08-20 11:15,-114.8611,35.9475,671.00,80.60,64.40,57.84,170.00,8.00,0.00,29.83,M,M,13.00,M,M,M,M,M,M,M,M,M,M,M,M,M,M,M,82.27,KBVU 201115Z AUTO 17008G13KT 27/18 A2983 RMK AO2 PWINO TSNO,M
BAM,2022-08-20 11:35,-116.8743,40.5990,1382.36,62.60,50.00,63.38,60.00,4.00,0.00,30.02,M,10.00,M,CLR,M,M,M,M,M,M,M,M,M,M,M,M,M,M,62.60,KBAM 201135Z AUTO 06004KT 10SM CLR 17/10 A3002 RMK AO1,M
BVU,2022-08-20 11:35,-114.8611,35.9475,671.00,80.60,64.40,57.84,0.00,0.00,0.00,29.83,M,M,M,M,M,M,M,M,M,M,M,M,M,M,M,M,M,M,82.27,KBVU 201135Z AUTO 00000KT 27/18 A2983 RMK AO2 PWINO TSNO,M
CXP,2022-08-20 11:35,-119.7326,39.1923,1431.00,57.20,42.80,58.52,0.00,0.00,0.00,30.06,M,10.00,M,CLR,M,M,M,M,M,M,M,M,M,M,M,M,M,M,57.20,KCXP 201135Z AUTO 00000KT 10SM CLR 14/06 A3006 RMK AO2,M
RTS,2022-08-20 11:35,-119.8764,39.6682,1539.00,57.20,39.20,50.91,350.00,7.00,0.00,30.07,M,10.00,M,CLR,M,M,M,M,M,M,M,M,M,M,M,M,M,M,57.20,KRTS 201135Z AUTO 35007KT 10SM CLR 14/04 A3007 RMK AO2,M
MEV,2022-08-20 11:35,-119.7500,38.9963,1441.42,50.00,37.40,61.76,150.00,4.00,0.00,30.04,M,10.00,M,CLR,M,M,M,M,M,M,M,M,M,M,M,M,M,M,50.00,KMEV 201135Z AUTO 15004KT 10SM CLR 10/03 A3004 RMK AO2,M
HTH,2022-08-20 11:35,-118.6315,38.5448,1282.89,68.00,41.00,37.32,240.00,4.00,0.00,29.99,M,10.00,M,SCT,M,M,M,12000.00,M,M,M,M,M,M,M,M,M,M,68.00,KHTH 201135Z AUTO 24004KT 10SM SCT120 20/05 A2999 RMK A01,M
TMT,2022-08-20 11:35,-117.1971,39.4643,1749.34,47.80,36.50,64.71,0.00,0.00,0.00,30.11,M,10.00,M,CLR,M,M,M,M,M,M,M,M,M,M,M,M,M,M,47.80,KTMT 201135Z AUTO 00000KT 10SM CLR 09/03 A3011 RMK AO2 T00880025,M
CXP,2022-08-20 11:50,-119.7326,39.1923,1431.00,57.20,41.00,54.60,0.00,0.00,0.00,30.06,M,10.00,M,CLR,M,M,M,M,M,M,M,M,M,M,M,M,M,M,57.20,KCXP 201150Z AUTO 00000KT 10SM CLR 14/05 A3006 RMK AO2,M
P68,2022-08-20 11:53,-116.0056,39.6014,1993.00,57.00,43.00,59.40,210.00,6.00,0.00,30.10,1010.50,M,M,M,M,M,M,M,M,M,M,M,M,M,M,M,M,M,57.00,KP68 201153Z AUTO 21006KT 14/06 A3010 RMK AO1 SLP105 T01390061 10183 20111 55000,M
ELY,2022-08-20 11:53,-114.8453,39.2950,1909.00,50.00,46.00,86.06,160.00,5.00,0.00,30.13,1010.80,10.00,M,CLR,M,M,M,M,M,M,M,M,M,M,M,M,M,M,50.00,KELY 201153Z AUTO 16005KT 10SM CLR 10/08 A3013 RMK AO2 SLP108 T01000078 10172 20100 56002,M
VGT,2022-08-20 11:53,-115.1933,36.2111,667.00,85.00,63.00,47.91,0.00,0.00,0.00,29.81,1007.90,10.00,M,CLR,M,M,M,M,M,M,M,M,M,M,M,M,M,M,85.83,KVGT 201153Z AUTO 00000KT 10SM CLR 29/17 A2981 RMK AO2 SLP079 T02940172 10344 20289 53010,M
LOL,2022-08-20 11:53,-118.5701,40.0684,1192.43,57.00,46.00,66.59,0.00,0.00,0.00,29.95,1010.10,10.00,M,CLR,M,M,M,M,M,M,M,M,M,M,M,M,M,M,57.00,KLOL 201153Z AUTO 00000KT 10SM CLR 14/08 A2995 RMK AO2 SLP101 T01390078 10200 20133 53005,M
DRA,2022-08-20 11:53,-116.0278,36.6206,1009.00,77.00,47.00,34.50,0.00,0.00,0.00,29.86,1005.50,10.00,M,CLR,M,M,M,M,M,M,M,M,M,M,M,M,M,M,77.00,KDRA 201153Z AUTO 00000KT 10SM CLR 25/08 A2986 RMK AO2 SLP055 T02500083 10289 20239 53005,M
BAM,2022-08-20 11:55,-116.8743,40.5990,1382.36,62.60,50.00,63.38,70.00,7.00,0.00,30.02,M,10.00,M,CLR,M,M,M,M,M,M,M,M,M,M,M,M,M,M,62.60,KBAM 201155Z AUTO 07007KT 10SM CLR 17/10 A3002 RMK AO1,M
RNO,2022-08-20 11:55,-119.7711,39.4839,1341.00,65.00,44.00,46.81,200.00,3.00,0.00,30.02,1010.50,10.00,M,CLR,M,M,M,M,M,M,M,M,M,M,M,M,M,M,64.90,KRNO 201155Z 20003KT 10SM CLR 18/07 A3002 RMK AO2 SLP105 T01830067 10261 20178 53003,M
BVU,2022-08-20 11:55,-114.8611,35.9475,671.00,80.60,64.40,57.84,110.00,6.00,0.00,29.83,M,M,M,M,M,M,M,M,M,M,M,M,M,M,M,M,M,M,82.27,KBVU 201155Z AUTO 11006KT 27/18 A2983 RMK AO2 PWINO TSNO,M
RTS,2022-08-20 11:55,-119.8764,39.6682,1539.00,57.20,39.20,50.91,350.00,5.00,0.00,30.07,M,10.00,M,CLR,M,M,M,M,M,M,M,M,M,M,M,M,M,M,57.20,KRTS 201155Z AUTO 35005KT 10SM CLR 14/04 A3007 RMK AO2,M
MEV,2022-08-20 11:55,-119.7500,38.9963,1441.42,50.00,37.40,61.76,90.00,6.00,0.00,30.05,M,10.00,M,CLR,M,M,M,M,M,M,M,M,M,M,M,M,M,M,50.00,KMEV 201155Z AUTO 09006KT 10SM CLR 10/03 A3005 RMK AO2,M
HTH,2022-08-20 11:55,-118.6315,38.5448,1282.89,68.00,39.20,34.80,260.00,4.00,0.00,30.00,M,10.00,M,FEW,M,M,M,12000.00,M,M,M,M,M,M,M,M,M,M,68.00,KHTH 201155Z AUTO 26004KT 10SM FEW120 20/04 A3000 RMK A01,M
TMT,2022-08-20 11:55,-117.1971,39.4643,1749.34,44.40,34.20,67.17,0.00,0.00,0.00,30.11,M,10.00,M,CLR,M,M,M,M,M,M,M,M,M,M,M,M,M,M,44.40,KTMT 201155Z AUTO 00000KT 10SM CLR 07/01 A3011 RMK AO2 T00690012 10148 20069,M
LAS,2022-08-20 11:56,-115.1634,36.0719,663.00,83.00,55.00,38.38,80.00,3.00,0.00,29.82,1006.50,10.00,M,CLR,M,M,M,M,M,M,M,M,M,M,M,M,M,M,82.03,KLAS 201156Z 08003KT 10SM CLR 28/13 A2982 RMK AO2 SLP065 T02830128 10333 20283 53010,M
WMC,2022-08-20 11:56,-117.8072,40.9019,1315.00,56.00,42.00,59.71,140.00,6.00,0.00,29.98,1010.60,10.00,M,CLR,M,M,M,M,M,M,M,M,M,M,M,M,M,M,55.90,KWMC 201156Z AUTO 14006KT 10SM CLR 13/06 A2998 RMK AO2 SLP106 T01330056 10217 20133 53003 $,M
HND,2022-08-20 11:56,-115.1344,35.9729,742.79,80.00,65.00,59.83,170.00,10.00,0.00,29.85,1009.10,10.00,M,CLR,M,M,M,M,M,M,M,M,M,M,M,M,M,M,81.91,KHND 201156Z AUTO 17010KT 10SM CLR 27/18 A2985 RMK AO2 SLP091 T02670183 10311 20267 53009,M
TPH,2022-08-20 11:56,-117.0904,38.0505,1654.00,65.00,36.00,34.17,20.00,14.00,0.00,30.07,1009.60,10.00,M,FEW,M,M,M,11000.00,M,M,M,M,M,M,M,M,M,M,64.90,KTPH 201156Z AUTO 02014KT 10SM FEW110 18/02 A3007 RMK AO2 SLP096 T01830022 10228 20178 53002,M
EKO,2022-08-20 11:56,-115.7860,40.8242,1367.00,49.00,49.00,100.00,250.00,3.00,0.00,30.07,1013.90,10.00,M,CLR,M,M,M,M,M,M,M,M,M,M,M,M,M,M,48.01,KEKO 201156Z AUTO 25003KT 10SM CLR 09/09 A3007 RMK AO2 SLP139 T00940094 10161 20089 53002 $,M
NFL,2022-08-20 11:56,-118.7010,39.4166,1199.00,64.00,40.00,41.09,170.00,4.00,0.00,29.95,1011.50,10.00,M,CLR,M,M,M,M,M,M,M,M,M,M,M,M,M,M,64.00,KNFL 201156Z AUTO 17004KT 10SM CLR 18/04 A2995 RMK AO2 SLP115 T01780044 10228 20172 51004,M
LSV,2022-08-20 11:58,-115.0343,36.2362,570.00,83.00,65.70,56.16,60.00,8.00,0.00,29.79,1006.00,10.00,M,CLR,M,M,M,M,M,M,M,M,M,M,M,M,M,M,84.95,KLSV 201158Z AUTO 06008KT 10SM CLR 28/19 A2979 RMK AO2 SLP060 T02830187 10310 20283 52011 $,M
INS,2022-08-20 11:58,-115.6733,36.5872,955.00,74.70,48.00,38.82,260.00,3.00,0.00,29.87,1006.10,10.00,M,FEW,M,M,M,14000.00,M,M,M,M,M,M,M,M,M,M,74.70,KINS 201158Z AUTO 26003KT 10SM FEW140 24/09 A2987 RMK AO2 SLP061 T02370089 10285 20231 52007 $,M
HTH,2022-08-20 12:15,-118.6315,38.5448,1282.89,66.20,39.20,37.03,200.00,4.00,0.00,30.00,M,10.00,M,CLR,M,M,M,M,M,M,M,M,M,M,M,M,M,M,66.20,KHTH 201215Z AUTO 20004KT 10SM CLR 19/04 A3000 RMK A01,M
TMT,2022-08-20 12:15,-117.1971,39.4643,1749.34,45.00,35.40,68.61,0.00,0.00,0.00,30.11,M,10.00,M,CLR,M,M,M,M,M,M,M,M,M,M,M,M,M,M,45.10,KTMT 201215Z AUTO 00000KT 10SM CLR 07/02 A3011 RMK AO2 T00730019,M
BAM,2022-08-20 12:15,-116.8743,40.5990,1382.36,62.60,50.00,63.38,80.00,6.00,0.00,30.02,M,10.00,M,CLR,M,M,M,M,M,M,M,M,M,M,M,M,M,M,62.60,KBAM 201215Z AUTO 08006KT 10SM CLR 17/10 A3002 RMK AO1,M
MEV,2022-08-20 12:15,-119.7500,38.9963,1441.42,51.80,39.20,61.99,90.00,4.00,0.00,30.05,M,10.00,M,CLR,M,M,M,M,M,M,M,M,M,M,M,M,M,M,51.80,KMEV 201215Z AUTO 09004KT 10SM CLR 11/04 A3005 RMK AO2,M
RTS,2022-08-20 12:15,-119.8764,39.6682,1539.00,57.20,39.20,50.91,360.00,6.00,0.00,30.07,M,10.00,M,CLR,M,M,M,M,M,M,M,M,M,M,M,M,M,M,57.20,KRTS 201215Z AUTO 36006KT 10SM CLR 14/04 A3007 RMK AO2,M
CXP,2022-08-20 12:15,-119.7326,39.1923,1431.00,57.20,39.20,50.91,320.00,4.00,0.00,30.06,M,10.00,M,CLR,M,M,M,M,M,M,M,M,M,M,M,M,M,M,57.20,KCXP 201215Z AUTO 32004KT 10SM CLR 14/04 A3006 RMK AO2,M
BVU,2022-08-20 12:15,-114.8611,35.9475,671.00,80.60,64.40,57.84,120.00,6.00,0.00,29.84,M,M,M,M,M,M,M,M,M,M,M,M,M,M,M,M,M,M,82.27,KBVU 201215Z AUTO 12006KT 27/18 A2984 RMK AO2 PWINO TSNO,M
HTH,2022-08-20 12:35,-118.6315,38.5448,1282.89,68.00,41.00,37.32,0.00,0.00,0.00,30.00,M,10.00,M,CLR,M,M,M,M,M,M,M,M,M,M,M,M,M,M,68.00,KHTH 201235Z AUTO 00000KT 10SM CLR 20/05 A3000 RMK A01,M
CXP,2022-08-20 12:35,-119.7326,39.1923,1431.00,57.20,37.40,47.44,0.00,0.00,0.00,30.06,M,10.00,M,CLR,M,M,M,M,M,M,M,M,M,M,M,M,M,M,57.20,KCXP 201235Z AUTO 00000KT 10SM CLR 14/03 A3006 RMK AO2,M
RTS,2022-08-20 12:35,-119.8764,39.6682,1539.00,57.20,39.20,50.91,360.00,6.00,0.00,30.07,M,10.00,M,CLR,M,M,M,M,M,M,M,M,M,M,M,M,M,M,57.20,KRTS 201235Z AUTO 36006KT 10SM CLR 14/04 A3007 RMK AO2,M
MEV,2022-08-20 12:35,-119.7500,38.9963,1441.42,50.00,39.20,66.27,0.00,0.00,0.00,30.05,M,10.00,M,CLR,M,M,M,M,M,M,M,M,M,M,M,M,M,M,50.00,KMEV 201235Z AUTO 00000KT 10SM CLR 10/04 A3005 RMK AO2,M
BAM,2022-08-20 12:35,-116.8743,40.5990,1382.36,60.80,48.20,63.15,120.00,4.00,0.00,30.03,M,10.00,M,CLR,M,M,M,M,M,M,M,M,M,M,M,M,M,M,60.80,KBAM 201235Z AUTO 12004KT 10SM CLR 16/09 A3003 RMK AO1,M
TMT,2022-08-20 12:35,-117.1971,39.4643,1749.34,47.30,35.40,63.13,0.00,0.00,0.00,30.12,M,10.00,M,CLR,M,M,M,M,M,M,M,M,M,M,M,M,M,M,47.30,KTMT 201235Z AUTO 00000KT 10SM CLR 09/02 A3012 RMK AO2 T00850019,M
BVU,2022-08-20 12:35,-114.8611,35.9475,671.00,80.60,64.40,57.84,120.00,5.00,0.00,29.85,M,M,M,M,M,M,M,M,M,M,M,M,M,M,M,M,M,M,82.27,KBVU 201235Z AUTO 12005KT 27/18 A2985 RMK AO2 PWINO TSNO,M
DRA,2022-08-20 12:53,-116.0278,36.6206,1009.00,73.00,46.00,38.11,0.00,0.00,0.00,29.89,1006.90,10.00,M,CLR,M,M,M,M,M,M,M,M,M,M,M,M,M,M,73.00,KDRA 201253Z AUTO 00000KT 10SM CLR 23/08 A2989 RMK AO2 SLP069 T02280078,M
ELY,2022-08-20 12:53,-114.8453,39.2950,1909.00,48.00,45.00,89.29,0.00,0.00,0.00,30.15,1011.80,10.00,M,FEW,M,M,M,12000.00,M,M,M,M,M,M,M,M,M,M,48.00,KELY 201253Z AUTO 00000KT 10SM FEW120 09/07 A3015 RMK AO2 SLP118 T00890072,M
VGT,2022-08-20 12:53,-115.1933,36.2111,667.00,83.00,64.00,52.93,90.00,6.00,0.00,29.84,1008.80,10.00,M,CLR,M,M,M,M,M,M,M,M,M,M,M,M,M,M,84.32,KVGT 201253Z 09006KT 10SM CLR 28/18 A2984 RMK AO2 SLP088 T02830178,M
LOL,2022-08-20 12:53,-118.5701,40.0684,1192.43,53.00,45.00,73.89,130.00,5.00,0.00,29.97,1011.00,10.00,M,CLR,M,M,M,M,M,M,M,M,M,M,M,M,M,M,53.10,KLOL 201253Z AUTO 13005KT 10SM CLR 12/07 A2997 RMK AO2 SLP110 T01170072,M
P68,2022-08-20 12:53,-116.0056,39.6014,1993.00,53.00,42.00,66.13,200.00,6.00,0.00,30.11,1011.50,M,M,M,M,M,M,M,M,M,M,M,M,M,M,M,M,M,53.10,KP68 201253Z AUTO 20006KT 12/06 A3011 RMK AO1 SLP115 T01170056,M
RTS,2022-08-20 12:55,-119.8764,39.6682,1539.00,57.20,39.20,50.91,20.00,4.00,0.00,30.08,M,10.00,M,CLR,M,M,M,M,M,M,M,M,M,M,M,M,M,M,57.20,KRTS 201255Z AUTO 02004KT 10SM CLR 14/04 A3008 RMK AO2,M
HTH,2022-08-20 12:55,-118.6315,38.5448,1282.89,68.00,41.00,37.32,190.00,3.00,0.00,30.01,M,10.00,M,CLR,M,M,M,M,M,M,M,M,M,M,M,M,M,M,68.00,KHTH 201255Z AUTO 19003KT 10SM CLR 20/05 A3001 RMK A01,M
BAM,2022-08-20 12:55,-116.8743,40.5990,1382.36,59.00,46.40,62.92,110.00,5.00,0.00,30.04,M,10.00,M,CLR,M,M,M,M,M,M,M,M,M,M,M,M,M,M,59.00,KBAM 201255Z AUTO 11005KT 10SM CLR 15/08 A3004 RMK AO1,M
MEV,2022-08-20 12:55,-119.7500,38.9963,1441.42,48.20,37.40,66.05,0.00,0.00,0.00,30.06,M,10.00,M,CLR,M,M,M,M,M,M,M,M,M,M,M,M,M,M,48.20,KMEV 201255Z AUTO 00000KT 10SM CLR 09/03 A3006 RMK AO2,M
TMT,2022-08-20 12:55,-117.1971,39.4643,1749.34,46.00,36.00,68.43,0.00,0.00,0.00,30.12,M,10.00,M,CLR,M,M,M,M,M,M,M,M,M,M,M,M,M,M,45.90,KTMT 201255Z AUTO 00000KT 10SM CLR 08/02 A3012 RMK AO2 T00770023,M
CXP,2022-08-20 12:55,-119.7326,39.1923,1431.00,57.20,41.00,54.60,0.00,0.00,0.00,30.07,M,10.00,M,CLR,M,M,M,M,M,M,M,M,M,M,M,M,M,M,57.20,KCXP 201255Z AUTO 00000KT 10SM CLR 14/05 A3007 RMK AO2,M
BVU,2022-08-20 12:55,-114.8611,35.9475,671.00,78.80,64.40,61.36,M,5.00,0.00,29.86,M,M,M,M,M,M,M,M,M,M,M,M,M,M,M,M,M,M,78.80,KBVU 201255Z AUTO VRB05KT 26/18 A2986 RMK AO2 PWINO TSNO,M
RNO,2022-08-20 12:55,-119.7711,39.4839,1341.00,66.00,42.00,41.73,M,3.00,0.00,30.03,1010.80,10.00,M,CLR,M,M,M,M,M,M,M,M,M,M,M,M,M,M,66.00,KRNO 201255Z VRB03KT 10SM CLR 19/06 A3003 RMK AO2 SLP108 T01890056,M
WMC,2022-08-20 12:56,-117.8072,40.9019,1315.00,55.00,41.00,59.13,0.00,0.00,0.00,30.01,1011.50,10.00,M,CLR,M,M,M,M,M,M,M,M,M,M,M,M,M,M,55.00,KWMC 201256Z AUTO 00000KT 10SM CLR 13/05 A3001 RMK AO2 SLP115 T01280050 $,M
EKO,2022-08-20 12:56,-115.7860,40.8242,1367.00,47.00,M,M,0.00,0.00,0.00,30.08,1015.20,10.00,M,CLR,M,M,M,M,M,M,M,M,M,M,M,M,M,M,M,KEKO 201256Z AUTO 00000KT 10SM CLR 08/ A3008 RMK AO2 SLP152 T0083 $,M
HND,2022-08-20 12:56,-115.1344,35.9729,742.79,79.00,64.00,60.11,180.00,9.00,0.00,29.87,1010.00,10.00,M,CLR,M,M,M,M,M,M,M,M,M,M,M,M,M,M,79.00,KHND 201256Z AUTO 18009KT 10SM CLR 26/18 A2987 RMK AO2 SLP100 T02610178,M
NFL,2022-08-20 12:56,-118.7010,39.4166,1199.00,63.00,39.00,41.09,160.00,6.00,0.00,29.97,1011.90,10.00,M,CLR,M,M,M,M,M,M,M,M,M,M,M,M,M,M,63.00,KNFL 201256Z AUTO 16006KT 10SM CLR 17/04 A2997 RMK AO2 SLP119 T01720039,M
LAS,2022-08-20 12:56,-115.1634,36.0719,663.00,82.00,60.00,47.49,0.00,0.00,0.00,29.84,1007.30,10.00,M,FEW,M,M,M,25000.00,M,M,M,M,M,M,M,M,M,M,82.40,KLAS 201256Z 00000KT 10SM FEW250 28/16 A2984 RMK AO2 SLP073 T02780156,M
TPH,2022-08-20 12:56,-117.0904,38.0505,1654.00,65.00,36.00,34.17,10.00,13.00,0.00,30.08,1010.10,10.00,M,CLR,M,M,M,M,M,M,M,M,M,M,M,M,M,M,64.90,KTPH 201256Z AUTO 01013KT 10SM CLR 18/02 A3008 RMK AO2 SLP101 T01830022,M
INS,2022-08-20 12:58,-115.6733,36.5872,955.00,76.00,51.00,41.86,140.00,3.00,0.00,29.89,1006.80,10.00,M,CLR,M,M,M,M,M,M,M,M,M,M,M,M,M,M,75.90,KINS 201258Z AUTO 14003KT 10SM CLR 24/11 A2989 RMK AO2 SLP068 T02440106 $,M
LSV,2022-08-20 12:58,-115.0343,36.2362,570.00,82.40,65.70,57.08,0.00,0.00,0.00,29.82,1007.00,10.00,M,CLR,M,M,M,M,M,M,M,M,M,M,M,M,M,M,84.44,KLSV 201258Z AUTO 00000KT 10SM CLR 28/19 A2982 RMK AO2 SLP070 T02800187 $,M
CXP,2022-08-20 13:10,-119.7326,39.1923,1431.00,55.40,39.20,54.34,0.00,0.00,0.00,30.07,M,10.00,M,CLR,M,M,M,M,M,M,M,M,M,M,M,M,M,M,55.40,KCXP 201310Z AUTO 00000KT 10SM CLR 13/04 A3007 RMK AO2,M
HTH,2022-08-20 13:15,-118.6315,38.5448,1282.89,64.40,41.00,42.28,0.00,0.00,0.00,30.02,M,10.00,M,CLR,M,M,M,M,M,M,M,M,M,M,M,M,M,M,64.40,KHTH 201315Z AUTO 00000KT 10SM CLR 18/05 A3002 RMK A01,M
BVU,2022-08-20 13:15,-114.8611,35.9475,671.00,80.60,64.40,57.84,110.00,7.00,0.00,29.87,M,M,M,M,M,M,M,M,M,M,M,M,M,M,M,M,M,M,82.27,KBVU 201315Z AUTO 11007KT 27/18 A2987 RMK AO2 PWINO TSNO,M
RTS,2022-08-20 13:15,-119.8764,39.6682,1539.00,53.60,39.20,58.02,0.00,0.00,0.00,30.09,M,10.00,M,CLR,M,M,M,M,M,M,M,M,M,M,M,M,M,M,53.60,KRTS 201315Z AUTO 00000KT 10SM CLR 12/04 A3009 RMK AO2,M
MEV,2022-08-20 13:15,-119.7500,38.9963,1441.42,50.00,37.40,61.76,0.00,0.00,0.00,30.07,M,10.00,M,CLR,M,M,M,M,M,M,M,M,M,M,M,M,M,M,50.00,KMEV 201315Z AUTO 00000KT 10SM CLR 10/03 A3007 RMK AO2,M
BAM,2022-08-20 13:15,-116.8743,40.5990,1382.36,59.00,46.40,62.92,0.00,0.00,0.00,30.04,M,10.00,M,CLR,M,M,M,M,M,M,M,M,M,M,M,M,M,M,59.00,KBAM 201315Z AUTO 00000KT 10SM CLR 15/08 A3004 RMK AO1,M
TMT,2022-08-20 13:15,-117.1971,39.4643,1749.34,45.30,36.30,70.56,0.00,0.00,0.00,30.13,M,10.00,M,CLR,M,M,M,M,M,M,M,M,M,M,M,M,M,M,45.30,KTMT 201315Z AUTO 00000KT 10SM CLR 07/02 A3013 RMK AO2 T00740024,M
CXP,2022-08-20 13:30,-119.7326,39.1923,1431.00,57.20,39.20,50.91,0.00,0.00,0.00,30.08,M,10.00,M,CLR,M,M,M,M,M,M,M,M,M,M,M,M,M,M,57.20,KCXP 201330Z AUTO 00000KT 10SM CLR 14/04 A3008 RMK AO2,M
RTS,2022-08-20 13:35,-119.8764,39.6682,1539.00,51.80,39.20,61.99,300.00,3.00,0.00,30.09,M,10.00,M,CLR,M,M,M,M,M,M,M,M,M,M,M,M,M,M,51.80,KRTS 201335Z AUTO 30003KT 10SM CLR 11/04 A3009 RMK AO2,M
BAM,2022-08-20 13:35,-116.8743,40.5990,1382.36,59.00,46.40,62.92,240.00,4.00,0.00,30.05,M,10.00,M,CLR,M,M,M,M,M,M,M,M,M,M,M,M,M,M,59.00,KBAM 201335Z AUTO 24004KT 10SM CLR 15/08 A3005 RMK AO1,M
HTH,2022-08-20 13:35,-118.6315,38.5448,1282.89,64.40,39.20,39.43,0.00,0.00,0.00,30.02,M,10.00,M,CLR,M,M,M,M,M,M,M,M,M,M,M,M,M,M,64.40,KHTH 201335Z AUTO 00000KT 10SM CLR 18/04 A3002 RMK A01,M
TMT,2022-08-20 13:35,-117.1971,39.4643,1749.34,48.00,37.00,65.51,170.00,3.00,0.00,30.13,M,10.00,M,CLR,M,M,M,M,M,M,M,M,M,M,M,M,M,M,46.98,KTMT 201335Z AUTO 17003KT 10SM CLR 09/03 A3013 RMK AO2 T00890028,M
BVU,2022-08-20 13:35,-114.8611,35.9475,671.00,80.60,64.40,57.84,130.00,5.00,0.00,29.88,M,M,M,M,M,M,M,M,M,M,M,M,M,M,M,M,M,M,82.27,KBVU 201335Z AUTO 13005KT 27/18 A2988 RMK AO2 PWINO TSNO,M
MEV,2022-08-20 13:35,-119.7500,38.9963,1441.42,50.00,37.40,61.76,0.00,0.00,0.00,30.07,M,10.00,M,CLR,M,M,M,M,M,M,M,M,M,M,M,M,M,M,50.00,KMEV 201335Z AUTO 00000KT 10SM CLR 10/03 A3007 RMK AO2,M
P68,2022-08-20 13:53,-116.0056,39.6014,1993.00,54.00,43.00,66.24,0.00,0.00,0.00,30.13,1012.50,M,M,M,M,M,M,M,M,M,M,M,M,M,M,M,M,M,54.00,KP68 201353Z AUTO 00000KT 12/06 A3013 RMK AO1 SLP125 T01220061,M
ELY,2022-08-20 13:53,-114.8453,39.2950,1909.00,50.00,47.00,89.04,260.00,3.00,0.00,30.17,1012.60,10.00,M,CLR,M,M,M,M,M,M,M,M,M,M,M,M,M,M,50.00,KELY 201353Z AUTO 26003KT 10SM CLR 10/08 A3017 RMK AO2 SLP126 T01000083,M
DRA,2022-08-20 13:53,-116.0278,36.6206,1009.00,77.00,50.00,38.74,0.00,0.00,0.00,29.92,1007.40,10.00,M,CLR,M,M,M,M,M,M,M,M,M,M,M,M,M,M,77.00,KDRA 201353Z AUTO 00000KT 10SM CLR 25/10 A2992 RMK AO2 SLP074 T02500100,M
VGT,2022-08-20 13:53,-115.1933,36.2111,667.00,83.00,65.00,54.62,30.00,4.00,0.00,29.86,1009.70,10.00,M,CLR,M,M,M,M,M,M,M,M,M,M,M,M,M,M,84.64,KVGT 201353Z 03004KT 10SM CLR 28/18 A2986 RMK AO2 SLP097 T02830183,M
LOL,2022-08-20 13:53,-118.5701,40.0684,1192.43,58.00,48.00,69.52,360.00,4.00,0.00,29.98,1011.30,10.00,M,CLR,M,M,M,M,M,M,M,M,M,M,M,M,M,M,57.90,KLOL 201353Z AUTO 36004KT 10SM CLR 14/09 A2998 RMK AO2 SLP113 T01440089,M
TMT,2022-08-20 13:55,-117.1971,39.4643,1749.34,48.40,38.30,67.91,0.00,0.00,0.00,30.14,M,10.00,M,CLR,M,M,M,M,M,M,M,M,M,M,M,M,M,M,48.40,KTMT 201355Z AUTO 00000KT 10SM CLR 09/04 A3014 RMK AO2 T00910035,M
HTH,2022-08-20 13:55,-118.6315,38.5448,1282.89,64.40,39.20,39.43,110.00,3.00,0.00,30.03,M,10.00,M,CLR,M,M,M,M,M,M,M,M,M,M,M,M,M,M,64.40,KHTH 201355Z AUTO 11003KT 10SM CLR 18/04 A3003 RMK A01,M
BVU,2022-08-20 13:55,-114.8611,35.9475,671.00,80.60,64.40,57.84,130.00,3.00,0.00,29.88,M,M,M,M,M,M,M,M,M,M,M,M,M,M,M,M,M,M,82.27,KBVU 201355Z AUTO 13003KT 27/18 A2988 RMK AO2 PWINO TSNO,M
RNO,2022-08-20 13:55,-119.7711,39.4839,1341.00,66.00,42.00,41.73,0.00,0.00,0.00,30.05,1011.40,10.00,M,CLR,M,M,M,M,M,M,M,M,M,M,M,M,M,M,66.00,KRNO 201355Z 00000KT 10SM CLR 19/06 A3005 RMK AO2 SLP114 T01890056,M
CXP,2022-08-20 13:55,-119.7326,39.1923,1431.00,59.00,39.20,47.72,0.00,0.00,0.00,30.09,M,10.00,M,CLR,M,M,M,M,M,M,M,M,M,M,M,M,M,M,59.00,KCXP 201355Z AUTO 00000KT 10SM CLR 15/04 A3009 RMK AO2,M
RTS,2022-08-20 13:55,-119.8764,39.6682,1539.00,55.40,39.20,54.34,330.00,4.00,0.00,30.09,M,10.00,M,CLR,M,M,M,M,M,M,M,M,M,M,M,M,M,M,55.40,KRTS 201355Z AUTO 33004KT 10SM CLR 13/04 A3009 RMK AO2,M
MEV,2022-08-20 13:55,-119.7500,38.9963,1441.42,50.00,37.40,61.76,120.00,3.00,0.00,30.07,M,10.00,M,CLR,M,M,M,M,M,M,M,M,M,M,M,M,M,M,50.00,KMEV 201355Z AUTO 12003KT 10SM CLR 10/03 A3007 RMK AO2,M
BAM,2022-08-20 13:55,-116.8743,40.5990,1382.36,60.80,48.20,63.15,0.00,0.00,0.00,30.05,M,10.00,M,CLR,M,M,M,M,M,M,M,M,M,M,M,M,M,M,60.80,KBAM 201355Z AUTO 00000KT 10SM CLR 16/09 A3005 RMK AO1,M
EKO,2022-08-20 13:56,-115.7860,40.8242,1367.00,50.00,50.00,100.00,0.00,0.00,0.00,30.09,1015.90,10.00,M,CLR,M,M,M,M,M,M,M,M,M,M,M,M,M,M,50.00,KEKO 201356Z AUTO 00000KT 10SM CLR 10/10 A3009 RMK AO2 SLP159 T01000100 $,M
LAS,2022-08-20 13:56,-115.1634,36.0719,663.00,82.00,60.00,47.49,70.00,3.00,0.00,29.87,1008.30,10.00,M,FEW,M,M,M,25000.00,M,M,M,M,M,M,M,M,M,M,82.40,KLAS 201356Z 07003KT 10SM FEW250 28/16 A2987 RMK AO2 SLP083 T02780156,M
TPH,2022-08-20 13:56,-117.0904,38.0505,1654.00,64.00,38.00,38.00,10.00,10.00,0.00,30.10,1011.10,10.00,M,FEW,M,M,M,11000.00,M,M,M,M,M,M,M,M,M,M,64.00,KTPH 201356Z AUTO 01010KT 10SM FEW110 18/03 A3010 RMK AO2 SLP111 T01780033,M
NFL,2022-08-20 13:56,-118.7010,39.4166,1199.00,65.00,41.00,41.55,160.00,4.00,0.00,29.98,1012.50,10.00,M,CLR,M,M,M,M,M,M,M,M,M,M,M,M,M,M,64.90,KNFL 201356Z AUTO 16004KT 10SM CLR 18/05 A2998 RMK AO2 SLP125 T01830050,M
HND,2022-08-20 13:56,-115.1344,35.9729,742.79,80.00,64.00,57.98,180.00,7.00,0.00,29.90,1010.80,10.00,M,CLR,M,M,M,M,M,M,M,M,M,M,M,M,M,M,81.71,KHND 201356Z 18007KT 10SM CLR 27/18 A2990 RMK AO2 SLP108 T02670178,M
WMC,2022-08-20 13:56,-117.8072,40.9019,1315.00,59.00,43.00,55.28,0.00,0.00,0.00,30.01,1011.50,10.00,M,CLR,M,M,M,M,M,M,M,M,M,M,M,M,M,M,59.00,KWMC 201356Z AUTO 00000KT 10SM CLR 15/06 A3001 RMK AO2 SLP115 T01500061 $,M
LSV,2022-08-20 13:58,-115.0343,36.2362,570.00,82.00,67.30,61.12,50.00,6.00,0.00,29.84,1007.70,10.00,M,CLR,M,M,M,M,M,M,M,M,M,M,M,M,M,M,84.64,KLSV 201358Z AUTO 05006KT 10SM CLR 28/20 A2984 RMK AO2 SLP077 T02780196 $,M
INS,2022-08-20 13:58,-115.6733,36.5872,955.00,76.60,61.20,58.96,120.00,12.00,0.00,29.91,1007.50,10.00,M,CLR,M,M,M,M,M,M,M,M,M,M,M,M,M,M,76.60,KINS 201358Z AUTO 12012KT 10SM CLR 25/16 A2991 RMK AO2 VIS 2 1/4 RWY08 SLP075 T02480162 $,M
MEV,2022-08-20 14:15,-119.7500,38.9963,1441.42,55.40,39.20,54.34,0.00,0.00,0.00,30.08,M,10.00,M,CLR,M,M,M,M,M,M,M,M,M,M,M,M,M,M,55.40,KMEV 201415Z AUTO 00000KT 10SM CLR 13/04 A3008 RMK AO2,M
TMT,2022-08-20 14:15,-117.1971,39.4643,1749.34,50.20,39.20,65.78,0.00,0.00,0.00,30.14,M,10.00,M,CLR,M,M,M,M,M,M,M,M,M,M,M,M,M,M,50.20,KTMT 201415Z AUTO 00000KT 10SM CLR 10/04 A3014 RMK AO2 T01010040,M
HTH,2022-08-20 14:15,-118.6315,38.5448,1282.89,64.40,41.00,42.28,0.00,0.00,0.00,30.03,M,10.00,M,CLR,M,M,M,M,M,M,M,M,M,M,M,M,M,M,64.40,KHTH 201415Z AUTO 00000KT 10SM CLR 18/05 A3003 RMK A01,M
BAM,2022-08-20 14:15,-116.8743,40.5990,1382.36,64.40,50.00,59.50,0.00,0.00,0.00,30.06,M,10.00,M,CLR,M,M,M,M,M,M,M,M,M,M,M,M,M,M,64.40,KBAM 201415Z AUTO 00000KT 10SM CLR 18/10 A3006 RMK AO1,M
RTS,2022-08-20 14:15,-119.8764,39.6682,1539.00,59.00,41.00,51.18,350.00,5.00,0.00,30.10,M,10.00,M,CLR,M,M,M,M,M,M,M,M,M,M,M,M,M,M,59.00,KRTS 201415Z AUTO 35005KT 10SM CLR 15/05 A3010 RMK AO2,M
CXP,2022-08-20 14:15,-119.7326,39.1923,1431.00,60.80,39.20,44.76,0.00,0.00,0.00,30.09,M,10.00,M,CLR,M,M,M,M,M,M,M,M,M,M,M,M,M,M,60.80,KCXP 201415Z AUTO 00000KT 10SM CLR 16/04 A3009 RMK AO2,M
BVU,2022-08-20 14:15,-114.8611,35.9475,671.00,82.40,64.40,54.55,140.00,4.00,0.00,29.88,M,M,M,M,M,M,M,M,M,M,M,M,M,M,M,M,M,M,83.98,KBVU 201415Z AUTO 14004KT 28/18 A2988 RMK AO2 PWINO TSNO,M
TMT,2022-08-20 14:35,-117.1971,39.4643,1749.34,54.00,40.00,59.22,0.00,0.00,0.00,30.15,M,10.00,M,CLR,M,M,M,M,M,M,M,M,M,M,M,M,M,M,54.00,KTMT 201435Z AUTO 00000KT 10SM CLR 12/05 A3015 RMK AO2 T01220045,M
BAM,2022-08-20 14:35,-116.8743,40.5990,1382.36,68.00,50.00,52.51,90.00,3.00,0.00,30.06,M,10.00,M,CLR,M,M,M,M,M,M,M,M,M,M,M,M,M,M,68.00,KBAM 201435Z AUTO 09003KT 10SM CLR 20/10 A3006 RMK AO1,M
HTH,2022-08-20 14:35,-118.6315,38.5448,1282.89,68.00,39.20,34.80,220.00,3.00,0.00,30.04,M,10.00,M,CLR,M,M,M,M,M,M,M,M,M,M,M,M,M,M,68.00,KHTH 201435Z AUTO 22003KT 10SM CLR 20/04 A3004 RMK A01,M
MEV,2022-08-20 14:35,-119.7500,38.9963,1441.42,59.00,41.00,51.18,0.00,0.00,0.00,30.08,M,10.00,M,CLR,M,M,M,M,M,M,M,M,M,M,M,M,M,M,59.00,KMEV 201435Z AUTO 00000KT 10SM CLR 15/05 A3008 RMK AO2,M
RTS,2022-08-20 14:35,-119.8764,39.6682,1539.00,62.60,39.20,42.00,0.00,0.00,0.00,30.10,M,10.00,M,CLR,M,M,M,M,M,M,M,M,M,M,M,M,M,M,62.60,KRTS 201435Z AUTO 00000KT 10SM CLR 17/04 A3010 RMK AO2,M
CXP,2022-08-20 14:35,-119.7326,39.1923,1431.00,62.60,39.20,42.00,0.00,0.00,0.00,30.09,M,10.00,M,CLR,M,M,M,M,M,M,M,M,M,M,M,M,M,M,62.60,KCXP 201435Z AUTO 00000KT 10SM CLR 17/04 A3009 RMK AO2,M
BVU,2022-08-20 14:35,-114.8611,35.9475,671.00,82.40,64.40,54.55,120.00,6.00,0.00,29.89,M,M,M,M,M,M,M,M,M,M,M,M,M,M,M,M,M,M,83.98,KBVU 201435Z AUTO 12006KT 28/18 A2989 RMK AO2 PWINO TSNO,M
CXP,2022-08-20 14:50,-119.7326,39.1923,1431.00,64.40,39.20,39.43,0.00,0.00,0.00,30.09,M,10.00,M,CLR,M,M,M,M,M,M,M,M,M,M,M,M,M,M,64.40,KCXP 201450Z AUTO 00000KT 10SM CLR 18/04 A3009 RMK AO2,M
DRA,2022-08-20 14:53,-116.0278,36.6206,1009.00,82.00,60.00,47.49,110.00,8.00,0.00,29.93,1008.00,10.00,M,CLR,M,M,M,M,M,M,M,M,M,M,M,M,M,M,82.40,KDRA 201453Z AUTO 11008KT 10SM CLR 28/16 A2993 RMK AO2 SLP080 T02780156 51021,M
P68,2022-08-20 14:53,-116.0056,39.6014,1993.00,62.00,45.00,53.45,0.00,0.00,0.00,30.14,1012.80,M,M,M,M,M,M,M,M,M,M,M,M,M,M,M,M,M,62.10,KP68 201453Z AUTO 00000KT 17/07 A3014 RMK AO1 SLP128 T01670072 51012,M
ELY,2022-08-20 14:53,-114.8453,39.2950,1909.00,59.00,49.00,69.12,340.00,3.00,0.00,30.18,1012.90,10.00,M,CLR,M,M,M,M,M,M,M,M,M,M,M,M,M,M,59.00,KELY 201453Z AUTO 34003KT 10SM CLR 15/09 A3018 RMK AO2 SLP129 T01500094 51013,M
LOL,2022-08-20 14:53,-118.5701,40.0684,1192.43,64.00,49.00,57.91,160.00,3.00,0.00,30.00,1011.70,10.00,M,CLR,M,M,M,M,M,M,M,M,M,M,M,M,M,M,64.00,KLOL 201453Z AUTO 16003KT 10SM CLR 18/09 A3000 RMK AO2 SLP117 T01780094 51014,M
VGT,2022-08-20 14:53,-115.1933,36.2111,667.00,85.00,65.00,51.21,70.00,5.00,0.00,29.88,1010.30,10.00,M,CLR,M,M,M,M,M,M,M,M,M,M,M,M,M,M,86.62,KVGT 201453Z 07005KT 10SM CLR 29/18 A2988 RMK AO2 SLP103 T02940183 51021,M
BVU,2022-08-20 14:55,-114.8611,35.9475,671.00,84.20,66.20,54.80,150.00,11.00,0.00,29.89,M,M,M,M,M,M,M,M,M,M,M,M,M,M,M,M,M,M,86.50,KBVU 201455Z AUTO 15011KT 29/19 A2989 RMK AO2 PWINO TSNO,M
RTS,2022-08-20 14:55,-119.8764,39.6682,1539.00,66.20,39.20,37.03,0.00,0.00,0.00,30.10,M,10.00,M,CLR,M,M,M,M,M,M,M,M,M,M,M,M,M,M,66.20,KRTS 201455Z AUTO 00000KT 10SM CLR 19/04 A3010 RMK AO2,M
MEV,2022-08-20 14:55,-119.7500,38.9963,1441.42,62.60,41.00,45.04,0.00,0.00,0.00,30.08,M,9.00,M,CLR,M,M,M,M,M,M,M,M,M,M,M,M,M,M,62.60,KMEV 201455Z AUTO 00000KT 9SM CLR 17/05 A3008 RMK AO2,M
BAM,2022-08-20 14:55,-116.8743,40.5990,1382.36,71.60,50.00,46.43,60.00,5.00,0.00,30.06,M,10.00,M,CLR,M,M,M,M,M,M,M,M,M,M,M,M,M,M,71.60,KBAM 201455Z AUTO 06005KT 10SM CLR 22/10 A3006 RMK AO1,M
HTH,2022-08-20 14:55,-118.6315,38.5448,1282.89,69.80,39.20,32.72,0.00,0.00,0.00,30.04,M,10.00,M,CLR,M,M,M,M,M,M,M,M,M,M,M,M,M,M,69.80,KHTH 201455Z AUTO 00000KT 10SM CLR 21/04 A3004 RMK A01,M
TMT,2022-08-20 14:55,-117.1971,39.4643,1749.34,59.20,41.00,50.82,230.00,5.00,0.00,30.15,M,10.00,M,CLR,M,M,M,M,M,M,M,M,M,M,M,M,M,M,59.20,KTMT 201455Z AUTO 23005KT 10SM CLR 15/05 A3015 RMK AO2 T01510050,M
RNO,2022-08-20 14:55,-119.7711,39.4839,1341.00,68.00,46.00,45.19,220.00,3.00,0.00,30.06,1011.90,10.00,M,CLR,M,M,M,M,M,M,M,M,M,M,M,M,M,M,68.00,KRNO 201455Z 22003KT 10SM CLR 20/08 A3006 RMK AO2 SLP119 T02000078 51010,M
HND,2022-08-20 14:56,-115.1344,35.9729,742.79,82.00,64.00,54.50,M,3.00,0.00,29.92,1011.60,10.00,M,CLR,M,M,M,M,M,M,M,M,M,M,M,M,M,M,83.47,KHND 201456Z VRB03KT 10SM CLR 28/18 A2992 RMK AO2 SLP116 T02780178 51022,M
WMC,2022-08-20 14:56,-117.8072,40.9019,1315.00,69.00,49.00,48.53,70.00,9.00,0.00,30.03,1011.70,10.00,M,CLR,M,M,M,M,M,M,M,M,M,M,M,M,M,M,69.10,KWMC 201456Z AUTO 07009KT 10SM CLR 21/09 A3003 RMK AO2 SLP117 T02060094 51014 $,M
NFL,2022-08-20 14:56,-118.7010,39.4166,1199.00,73.00,39.00,29.12,170.00,4.00,0.00,30.00,1012.90,10.00,M,CLR,M,M,M,M,M,M,M,M,M,M,M,M,M,M,73.00,KNFL 201456Z AUTO 17004KT 10SM CLR 23/04 A3000 RMK AO2 SLP129 T02280039 51014,M
TPH,2022-08-20 14:56,-117.0904,38.0505,1654.00,72.00,38.00,28.85,20.00,11.00,0.00,30.11,1011.10,10.00,M,FEW,M,M,M,10000.00,M,M,M,M,M,M,M,M,M,M,72.00,KTPH 201456Z AUTO 02011KT 10SM FEW100 22/03 A3011 RMK AO2 SLP111 T02220033 51013,M
EKO,2022-08-20 14:56,-115.7860,40.8242,1367.00,56.00,53.00,90.29,0.00,0.00,0.00,30.10,1015.80,10.00,M,CLR,M,M,M,M,M,M,M,M,M,M,M,M,M,M,55.90,KEKO 201456Z AUTO 00000KT 10SM CLR 13/12 A3010 RMK AO2 SLP158 T01330117 51009 $,M
LAS,2022-08-20 14:56,-115.1634,36.0719,663.00,84.00,62.00,47.78,70.00,5.00,0.00,29.88,1008.80,10.00,M,FEW,SCT,M,M,15000.00,25000.00,M,M,M,M,M,M,M,M,M,84.67,KLAS 201456Z 07005KT 10SM FEW150 SCT250 29/17 A2988 RMK AO2 SLP088 T02890167 51021,M
INS,2022-08-20 14:58,-115.6733,36.5872,955.00,79.30,62.20,55.87,100.00,10.00,0.00,29.93,1008.20,10.00,M,CLR,M,M,M,M,M,M,M,M,M,M,M,M,M,M,79.30,KINS 201458Z AUTO 10010KT 10SM CLR 26/17 A2993 RMK AO2 SLP082 T02630168 52020 $,M
LSV,2022-08-20 14:58,-115.0343,36.2362,570.00,85.60,65.30,50.78,120.00,5.00,0.00,29.86,1008.40,10.00,M,CLR,M,M,M,M,M,M,M,M,M,M,M,M,M,M,87.52,KLSV 201458Z AUTO 12005KT 10SM CLR 30/19 A2986 RMK AO2 SLP084 T02980185 52024 $,M
CXP,2022-08-20 15:15,-119.7326,39.1923,1431.00,66.20,39.20,37.03,0.00,0.00,0.00,30.10,M,10.00,M,CLR,M,M,M,M,M,M,M,M,M,M,M,M,M,M,66.20,KCXP 201515Z AUTO 00000KT 10SM CLR 19/04 A3010 RMK AO2,M
BVU,2022-08-20 15:15,-114.8611,35.9475,671.00,84.20,64.40,51.47,150.00,9.00,0.00,29.90,M,M,M,M,M,M,M,M,M,M,M,M,M,M,M,M,M,M,85.71,KBVU 201515Z AUTO 15009KT 29/18 A2990 RMK AO2 PWINO TSNO,M
RTS,2022-08-20 15:15,-119.8764,39.6682,1539.00,68.00,39.20,34.80,0.00,0.00,0.00,30.10,M,10.00,M,CLR,M,M,M,M,M,M,M,M,M,M,M,M,M,M,68.00,KRTS 201515Z AUTO 00000KT 10SM CLR 20/04 A3010 RMK AO2,M
MEV,2022-08-20 15:15,-119.7500,38.9963,1441.42,64.40,39.20,39.43,0.00,0.00,0.00,30.08,M,10.00,M,CLR,M,M,M,M,M,M,M,M,M,M,M,M,M,M,64.40,KMEV 201515Z AUTO 00000KT 10SM CLR 18/04 A3008 RMK AO2,M
BAM,2022-08-20 15:15,-116.8743,40.5990,1382.36,73.40,50.00,43.69,60.00,4.00,0.00,30.06,M,10.00,M,CLR,M,M,M,M,M,M,M,M,M,M,M,M,M,M,73.40,KBAM 201515Z AUTO 06004KT 10SM CLR 23/10 A3006 RMK AO1,M
HTH,2022-08-20 15:15,-118.6315,38.5448,1282.89,71.60,39.20,30.77,0.00,0.00,0.00,30.04,M,10.00,M,CLR,M,M,M,M,M,M,M,M,M,M,M,M,M,M,71.60,KHTH 201515Z AUTO 00000KT 10SM CLR 22/04 A3004 RMK A01,M
TMT,2022-08-20 15:15,-117.1971,39.4643,1749.34,62.20,42.30,48.03,0.00,0.00,0.00,30.15,M,10.00,M,CLR,M,M,M,M,M,M,M,M,M,M,M,M,M,M,62.20,KTMT 201515Z AUTO 00000KT 10SM CLR 17/06 A3015 RMK AO2 T01680057,M
CXP,2022-08-20 15:30,-119.7326,39.1923,1431.00,68.00,39.20,34.80,0.00,0.00,0.00,30.10,M,10.00,M,CLR,M,M,M,M,M,M,M,M,M,M,M,M,M,M,68.00,KCXP 201530Z AUTO 00000KT 10SM CLR 20/04 A3010 RMK AO2,M
TMT,2022-08-20 15:35,-117.1971,39.4643,1749.34,M,M,M,220.00,4.00,0.00,30.15,M,10.00,M,CLR,M,M,M,M,M,M,M,M,M,M,M,M,M,M,M,KTMT 201535Z AUTO 22004KT 10SM CLR A3015 RMK AO2,M
RTS,2022-08-20 15:35,-119.8764,39.6682,1539.00,69.80,41.00,35.09,0.00,0.00,0.00,30.10,M,10.00,M,CLR,M,M,M,M,M,M,M,M,M,M,M,M,M,M,69.80,KRTS 201535Z AUTO 00000KT 10SM CLR 21/05 A3010 RMK AO2,M
HTH,2022-08-20 15:35,-118.6315,38.5448,1282.89,71.60,39.20,30.77,0.00,0.00,0.00,30.04,M,10.00,M,CLR,M,M,M,M,M,M,M,M,M,M,M,M,M,M,71.60,KHTH 201535Z AUTO 00000KT 10SM CLR 22/04 A3004 RMK A01,M
BVU,2022-08-20 15:35,-114.8611,35.9475,671.00,84.20,66.20,54.80,0.00,0.00,0.00,29.91,M,M,M,M,M,M,M,M,M,M,M,M,M,M,M,M,M,M,86.50,KBVU 201535Z AUTO 00000KT 29/19 A2991 RMK AO2 PWINO TSNO,M
BAM,2022-08-20 15:35,-116.8743,40.5990,1382.36,73.40,50.00,43.69,30.00,7.00,0.00,30.06,M,10.00,M,CLR,M,M,M,M,M,M,M,M,M,M,M,M,M,M,73.40,KBAM 201535Z AUTO 03007KT 10SM CLR 23/10 A3006 RMK AO1,M
MEV,2022-08-20 15:35,-119.7500,38.9963,1441.42,68.00,41.00,37.32,0.00,0.00,0.00,30.09,M,10.00,M,CLR,M,M,M,M,M,M,M,M,M,M,M,M,M,M,68.00,KMEV 201535Z AUTO 00000KT 10SM CLR 20/05 A3009 RMK AO2,M
VGT,2022-08-20 15:53,-115.1933,36.2111,667.00,86.00,64.00,47.91,130.00,8.00,0.00,29.89,1010.70,10.00,M,CLR,M,M,M,M,M,M,M,M,M,M,M,M,M,M,87.31,KVGT 201553Z 13008KT 10SM CLR 30/18 A2989 RMK AO2 SLP107 T03000178,M
P68,2022-08-20 15:53,-116.0056,39.6014,1993.00,68.00,46.00,45.19,0.00,0.00,0.00,30.14,1012.50,M,M,M,M,M,M,M,M,M,M,M,M,M,M,M,M,M,68.00,KP68 201553Z AUTO 00000KT 20/08 A3014 RMK AO1 SLP125 T02000078,M
LOL,2022-08-20 15:53,-118.5701,40.0684,1192.43,74.00,48.00,39.87,0.00,0.00,0.00,30.00,1011.60,10.00,M,CLR,M,M,M,M,M,M,M,M,M,M,M,M,M,M,73.90,KLOL 201553Z AUTO 00000KT 10SM CLR 23/09 A3000 RMK AO2 SLP116 T02330089,M
DRA,2022-08-20 15:53,-116.0278,36.6206,1009.00,86.00,59.00,40.14,M,6.00,0.00,29.94,1008.40,10.00,M,CLR,M,M,M,M,M,M,M,M,M,M,M,M,M,M,85.47,KDRA 201553Z AUTO VRB06KT 10SM CLR 30/15 A2994 RMK AO2 SLP084 T03000150,M
ELY,2022-08-20 15:53,-114.8453,39.2950,1909.00,64.00,50.00,60.34,0.00,0.00,0.00,30.18,1012.60,10.00,M,CLR,M,M,M,M,M,M,M,M,M,M,M,M,M,M,64.00,KELY 201553Z AUTO 00000KT 10SM CLR 18/10 A3018 RMK AO2 SLP126 T01780100,M
RNO,2022-08-20 15:55,-119.7711,39.4839,1341.00,70.00,45.00,40.63,0.00,0.00,0.00,30.06,1012.10,10.00,M,CLR,M,M,M,M,M,M,M,M,M,M,M,M,M,M,70.00,KRNO 201555Z 00000KT 10SM CLR 21/07 A3006 RMK AO2 SLP121 T02110072,M
BVU,2022-08-20 15:55,-114.8611,35.9475,671.00,84.20,66.20,54.80,0.00,0.00,0.00,29.91,M,M,M,M,M,M,M,M,M,M,M,M,M,M,M,M,M,M,86.50,KBVU 201555Z AUTO 00000KT 29/19 A2991 RMK AO2 PWINO TSNO,M
CXP,2022-08-20 15:55,-119.7326,39.1923,1431.00,69.80,39.20,32.72,0.00,0.00,0.00,30.10,M,10.00,M,CLR,M,M,M,M,M,M,M,M,M,M,M,M,M,M,69.80,KCXP 201555Z AUTO 00000KT 10SM CLR 21/04 A3010 RMK AO2,M
RTS,2022-08-20 15:55,-119.8764,39.6682,1539.00,71.60,41.00,33.00,0.00,0.00,0.00,30.10,M,9.00,M,CLR,M,M,M,M,M,M,M,M,M,M,M,M,M,M,71.60,KRTS 201555Z AUTO 00000KT 9SM CLR 22/05 A3010 RMK AO2,M
MEV,2022-08-20 15:55,-119.7500,38.9963,1441.42,68.00,41.00,37.32,0.00,0.00,0.00,30.08,M,10.00,M,CLR,M,M,M,M,M,M,M,M,M,M,M,M,M,M,68.00,KMEV 201555Z AUTO 00000KT 10SM CLR 20/05 A3008 RMK AO2,M
BAM,2022-08-20 15:55,-116.8743,40.5990,1382.36,77.00,50.00,38.74,40.00,6.00,0.00,30.06,M,10.00,M,CLR,M,M,M,M,M,M,M,M,M,M,M,M,M,M,77.00,KBAM 201555Z AUTO 04006KT 10SM CLR 25/10 A3006 RMK AO1,M
HTH,2022-08-20 15:55,-118.6315,38.5448,1282.89,75.20,37.40,25.40,0.00,0.00,0.00,30.05,M,10.00,M,CLR,M,M,M,M,M,M,M,M,M,M,M,M,M,M,75.20,KHTH 201555Z AUTO 00000KT 10SM CLR 24/03 A3005 RMK A01,M
TMT,2022-08-20 15:55,-117.1971,39.4643,1749.34,M,M,M,230.00,4.00,0.00,30.15,M,10.00,M,CLR,M,M,M,M,M,M,M,M,M,M,M,M,M,M,M,KTMT 201555Z AUTO 23004KT 10SM CLR A3015 RMK AO2,M
NFL,2022-08-20 15:56,-118.7010,39.4166,1199.00,79.00,39.00,23.85,210.00,4.00,0.00,30.00,1013.00,10.00,M,CLR,M,M,M,M,M,M,M,M,M,M,M,M,M,M,79.00,KNFL 201556Z AUTO 21004KT 10SM CLR 26/04 A3000 RMK AO2 SLP130 T02610039,M
LAS,2022-08-20 15:56,-115.1634,36.0719,663.00,86.00,63.00,46.25,60.00,6.00,0.00,29.90,1009.40,10.00,M,FEW,FEW,M,M,15000.00,25000.00,M,M,M,M,M,M,M,M,M,86.88,KLAS 201556Z 06006KT 10SM FEW150 FEW250 30/17 A2990 RMK AO2 SLP094 T03000172,M
TPH,2022-08-20 15:56,-117.0904,38.0505,1654.00,78.00,37.00,22.71,10.00,4.00,0.00,30.12,1011.30,10.00,M,CLR,M,M,M,M,M,M,M,M,M,M,M,M,M,M,78.10,KTPH 201556Z AUTO 01004KT 10SM CLR 26/03 A3012 RMK AO2 SLP113 T02560028,M
WMC,2022-08-20 15:56,-117.8072,40.9019,1315.00,76.00,49.00,38.57,70.00,8.00,0.00,30.03,1011.60,10.00,M,CLR,M,M,M,M,M,M,M,M,M,M,M,M,M,M,75.90,KWMC 201556Z AUTO 07008KT 10SM CLR 24/09 A3003 RMK AO2 SLP116 T02440094 $,M
HND,2022-08-20 15:56,-115.1344,35.9729,742.79,85.00,65.00,51.21,210.00,7.00,0.00,29.93,1011.90,10.00,M,CLR,M,M,M,M,M,M,M,M,M,M,M,M,M,M,86.62,KHND 201556Z 21007KT 10SM CLR 29/18 A2993 RMK AO2 SLP119 T02940183,M
EKO,2022-08-20 15:56,-115.7860,40.8242,1367.00,62.00,51.00,67.19,0.00,0.00,0.00,30.10,1015.60,10.00,M,CLR,M,M,M,M,M,M,M,M,M,M,M,M,M,M,62.10,KEKO 201556Z AUTO 00000KT 10SM CLR 17/11 A3010 RMK AO2 SLP156 T01670106 $,M
INS,2022-08-20 15:58,-115.6733,36.5872,955.00,83.50,61.70,47.88,90.00,15.00,0.00,29.94,1008.50,10.00,M,CLR,M,M,M,M,M,M,M,M,M,M,M,M,M,M,84.10,KINS 201558Z AUTO 09015KT 10SM CLR 29/17 A2994 RMK AO2 SLP085 T02860165 $,M
LSV,2022-08-20 15:58,-115.0343,36.2362,570.00,88.30,66.00,47.74,120.00,8.00,0.00,29.87,1008.80,10.00,M,CLR,M,M,M,M,M,M,M,M,M,M,M,M,M,M,90.73,KLSV 201558Z AUTO 12008KT 10SM CLR 31/19 A2987 RMK AO2 SLP088 T03130189 $,M
BAM,2022-08-20 16:15,-116.8743,40.5990,1382.36,77.00,50.00,38.74,30.00,4.00,0.00,30.06,M,10.00,M,CLR,M,M,M,M,M,M,M,M,M,M,M,M,M,M,77.00,KBAM 201615Z AUTO 03004KT 10SM CLR 25/10 A3006 RMK AO1,M
RTS,2022-08-20 16:15,-119.8764,39.6682,1539.00,73.40,39.20,28.96,0.00,0.00,0.00,30.11,M,10.00,M,CLR,M,M,M,M,M,M,M,M,M,M,M,M,M,M,73.40,KRTS 201615Z AUTO 00000KT 10SM CLR 23/04 A3011 RMK AO2,M
HTH,2022-08-20 16:15,-118.6315,38.5448,1282.89,77.00,37.40,23.93,0.00,0.00,0.00,30.05,M,10.00,M,CLR,M,M,M,M,M,M,M,M,M,M,M,M,M,M,77.00,KHTH 201615Z AUTO 00000KT 10SM CLR 25/03 A3005 RMK A01,M
TMT,2022-08-20 16:15,-117.1971,39.4643,1749.34,M,M,M,220.00,5.00,0.00,30.14,M,10.00,M,CLR,M,M,M,M,M,M,M,M,M,M,M,M,M,M,M,KTMT 201615Z AUTO 22005KT 10SM CLR A3014 RMK AO2,M
MEV,2022-08-20 16:15,-119.7500,38.9963,1441.42,71.60,41.00,33.00,0.00,0.00,0.00,30.08,M,10.00,M,CLR,M,M,M,M,M,M,M,M,M,M,M,M,M,M,71.60,KMEV 201615Z AUTO 00000KT 10SM CLR 22/05 A3008 RMK AO2,M
BVU,2022-08-20 16:15,-114.8611,35.9475,671.00,86.00,66.20,51.72,150.00,7.00,0.00,29.91,M,M,14.00,M,M,M,M,M,M,M,M,M,M,M,M,M,M,M,88.39,KBVU 201615Z AUTO 15007G14KT 30/19 A2991 RMK AO2 PWINO TSNO,M
CXP,2022-08-20 16:15,-119.7326,39.1923,1431.00,71.60,39.20,30.77,0.00,0.00,0.00,30.10,M,10.00,M,CLR,M,M,M,M,M,M,M,M,M,M,M,M,M,M,71.60,KCXP 201615Z AUTO 00000KT 10SM CLR 22/04 A3010 RMK AO2,M
CXP,2022-08-20 16:30,-119.7326,39.1923,1431.00,73.40,39.20,28.96,0.00,0.00,0.00,30.10,M,10.00,M,CLR,M,M,M,M,M,M,M,M,M,M,M,M,M,M,73.40,KCXP 201630Z AUTO 00000KT 10SM CLR 23/04 A3010 RMK AO2,M
BVU,2022-08-20 16:35,-114.8611,35.9475,671.00,86.00,66.20,51.72,140.00,8.00,0.00,29.91,M,M,M,M,M,M,M,M,M,M,M,M,M,M,M,M,M,M,88.39,KBVU 201635Z AUTO 14008KT 30/19 A2991 RMK AO2 PWINO TSNO,M
TMT,2022-08-20 16:35,-117.1971,39.4643,1749.34,M,M,M,220.00,4.00,0.00,30.15,M,10.00,M,CLR,M,M,M,M,M,M,M,M,M,M,M,M,M,M,M,KTMT 201635Z AUTO 22004KT 10SM CLR A3015 RMK AO2,M
HTH,2022-08-20 16:35,-118.6315,38.5448,1282.89,78.80,37.40,22.54,330.00,4.00,0.00,30.05,M,10.00,M,CLR,M,M,M,M,M,M,M,M,M,M,M,M,M,M,78.80,KHTH 201635Z AUTO 33004KT 10SM CLR 26/03 A3005 RMK A01,M
BAM,2022-08-20 16:35,-116.8743,40.5990,1382.36,78.80,50.00,36.51,40.00,3.00,0.00,30.07,M,10.00,M,CLR,M,M,M,M,M,M,M,M,M,M,M,M,M,M,78.80,KBAM 201635Z AUTO 04003KT 10SM CLR 26/10 A3007 RMK AO1,M
MEV,2022-08-20 16:35,-119.7500,38.9963,1441.42,75.20,39.20,27.26,0.00,0.00,0.00,30.08,M,10.00,M,CLR,M,M,M,M,M,M,M,M,M,M,M,M,M,M,75.20,KMEV 201635Z AUTO 00000KT 10SM CLR 24/04 A3008 RMK AO2,M
RTS,2022-08-20 16:35,-119.8764,39.6682,1539.00,75.20,39.20,27.26,0.00,0.00,0.00,30.11,M,10.00,M,CLR,M,M,M,M,M,M,M,M,M,M,M,M,M,M,75.20,KRTS 201635Z AUTO 00000KT 10SM CLR 24/04 A3011 RMK AO2,M
LOL,2022-08-20 16:53,-118.5701,40.0684,1192.43,81.00,45.00,28.15,M,3.00,0.00,30.00,1011.80,10.00,M,CLR,M,M,M,M,M,M,M,M,M,M,M,M,M,M,79.68,KLOL 201653Z AUTO VRB03KT 10SM CLR 27/07 A3000 RMK AO2 SLP118 T02720072,M
P68,2022-08-20 16:53,-116.0056,39.6014,1993.00,76.00,43.00,30.85,0.00,0.00,0.00,30.13,1012.10,M,M,M,M,M,M,M,M,M,M,M,M,M,M,M,M,M,75.90,KP68 201653Z AUTO 00000KT 24/06 A3013 RMK AO1 SLP121 T02440061,M
VGT,2022-08-20 16:53,-115.1933,36.2111,667.00,89.00,64.00,43.42,130.00,7.00,0.00,29.90,1010.90,10.00,M,CLR,M,M,M,M,M,M,M,M,M,M,M,M,M,M,90.49,KVGT 201653Z 13007KT 10SM CLR 32/18 A2990 RMK AO2 SLP109 T03170178,M
ELY,2022-08-20 16:53,-114.8453,39.2950,1909.00,71.00,49.00,45.33,M,3.00,0.00,30.17,1011.60,10.00,M,CLR,M,M,M,M,M,M,M,M,M,M,M,M,M,M,71.10,KELY 201653Z AUTO VRB03KT 10SM CLR 22/09 A3017 RMK AO2 SLP116 T02170094,M
DRA,2022-08-20 16:53,-116.0278,36.6206,1009.00,89.00,60.00,37.83,130.00,12.00,0.00,29.95,1008.40,10.00,20.00,CLR,M,M,M,M,M,M,M,M,M,M,M,M,M,M,88.76,KDRA 201653Z AUTO 13012G20KT 10SM CLR 32/16 A2995 RMK AO2 SLP084 T03170156,M
TMT,2022-08-20 16:55,-117.1971,39.4643,1749.34,M,M,M,230.00,3.00,0.00,30.15,M,10.00,M,CLR,M,M,M,M,M,M,M,M,M,M,M,M,M,M,M,KTMT 201655Z AUTO 23003KT 10SM CLR A3015 RMK AO2,M
BVU,2022-08-20 16:55,-114.8611,35.9475,671.00,87.80,66.20,48.84,150.00,7.00,0.00,29.91,M,M,M,M,M,M,M,M,M,M,M,M,M,M,M,M,M,M,90.31,KBVU 201655Z AUTO 15007KT 31/19 A2991 RMK AO2 PWINO TSNO,M
CXP,2022-08-20 16:55,-119.7326,39.1923,1431.00,77.00,39.20,25.67,0.00,0.00,0.00,30.09,M,10.00,M,CLR,M,M,M,M,M,M,M,M,M,M,M,M,M,M,77.00,KCXP 201655Z AUTO 00000KT 10SM CLR 25/04 A3009 RMK AO2,M
RNO,2022-08-20 16:55,-119.7711,39.4839,1341.00,77.00,43.00,29.74,0.00,0.00,0.00,30.06,1011.80,10.00,M,CLR,M,M,M,M,M,M,M,M,M,M,M,M,M,M,77.00,KRNO 201655Z 00000KT 10SM CLR 25/06 A3006 RMK AO2 SLP118 T02500061,M
RTS,2022-08-20 16:55,-119.8764,39.6682,1539.00,77.00,39.20,25.67,0.00,0.00,0.00,30.11,M,10.00,M,CLR,M,M,M,M,M,M,M,M,M,M,M,M,M,M,77.00,KRTS 201655Z AUTO 00000KT 10SM CLR 25/04 A3011 RMK AO2,M
MEV,2022-08-20 16:55,-119.7500,38.9963,1441.42,77.00,39.20,25.67,0.00,0.00,0.00,30.08,M,10.00,M,CLR,M,M,M,M,M,M,M,M,M,M,M,M,M,M,77.00,KMEV 201655Z AUTO 00000KT 10SM CLR 25/04 A3008 RMK AO2,M
BAM,2022-08-20 16:55,-116.8743,40.5990,1382.36,78.80,48.20,34.13,70.00,3.00,0.00,30.06,M,10.00,M,CLR,M,M,M,M,M,M,M,M,M,M,M,M,M,M,78.80,KBAM 201655Z AUTO 07003KT 10SM CLR 26/09 A3006 RMK AO1,M
HTH,2022-08-20 16:55,-118.6315,38.5448,1282.89,80.60,35.60,19.79,M,4.00,0.00,30.04,M,10.00,M,CLR,M,M,M,M,M,M,M,M,M,M,M,M,M,M,78.94,KHTH 201655Z AUTO VRB04KT 10SM CLR 27/02 A3004 RMK A01,M
TPH,2022-08-20 16:56,-117.0904,38.0505,1654.00,81.00,38.00,21.39,0.00,0.00,0.00,30.12,1010.90,10.00,M,CLR,M,M,M,M,M,M,M,M,M,M,M,M,M,M,79.28,KTPH 201656Z AUTO 00000KT 10SM CLR 27/03 A3012 RMK AO2 SLP109 T02720033,M
EKO,2022-08-20 16:56,-115.7860,40.8242,1367.00,67.00,51.00,56.82,0.00,0.00,0.00,30.10,1014.90,10.00,M,CLR,M,M,M,M,M,M,M,M,M,M,M,M,M,M,66.90,KEKO 201656Z AUTO 00000KT 10SM CLR 19/11 A3010 RMK AO2 SLP149 T01940106 $,M
NFL,2022-08-20 16:56,-118.7010,39.4166,1199.00,83.00,40.00,21.75,250.00,5.00,0.00,30.01,1013.20,10.00,M,CLR,M,M,M,M,M,M,M,M,M,M,M,M,M,M,80.57,KNFL 201656Z AUTO 25005KT 10SM CLR 28/04 A3001 RMK AO2 SLP132 T02830044,M
LAS,2022-08-20 16:56,-115.1634,36.0719,663.00,88.00,63.00,43.40,120.00,3.00,0.00,29.90,1009.60,10.00,M,FEW,FEW,M,M,15000.00,20000.00,M,M,M,M,M,M,M,M,M,88.86,KLAS 201656Z 12003KT 10SM FEW150 FEW200 31/17 A2990 RMK AO2 SLP096 T03110172,M
WMC,2022-08-20 16:56,-117.8072,40.9019,1315.00,81.00,46.00,29.23,100.00,3.00,0.00,30.03,1011.50,10.00,M,CLR,M,M,M,M,M,M,M,M,M,M,M,M,M,M,79.76,KWMC 201656Z AUTO 10003KT 10SM CLR 27/08 A3003 RMK AO2 SLP115 T02720078 $,M
HND,2022-08-20 16:56,-115.1344,35.9729,742.79,88.00,65.00,46.39,210.00,5.00,0.00,29.94,1012.00,10.00,M,CLR,M,M,M,M,M,M,M,M,M,M,M,M,M,M,89.80,KHND 201656Z 21005KT 10SM CLR 31/18 A2994 RMK AO2 SLP120 T03110183,M
INS,2022-08-20 16:58,-115.6733,36.5872,955.00,87.30,60.00,39.77,100.00,18.00,0.00,29.94,1008.40,10.00,M,CLR,M,M,M,M,M,M,M,M,M,M,M,M,M,M,86.95,KINS 201658Z AUTO 10018KT 10SM CLR 31/16 A2994 RMK AO2 SLP084 T03070155 $,M
LSV,2022-08-20 16:58,-115.0343,36.2362,570.00,91.60,65.80,42.74,160.00,5.00,0.00,29.88,1009.10,10.00,M,CLR,M,M,M,M,M,M,M,M,M,M,M,M,M,M,94.25,KLSV 201658Z AUTO 16005KT 10SM CLR 33/19 A2988 RMK AO2 SLP091 T03310188 $,M
TMT,2022-08-20 17:15,-117.1971,39.4643,1749.34,M,M,M,250.00,3.00,0.00,30.14,M,10.00,M,CLR,M,M,M,M,M,M,M,M,M,M,M,M,M,M,M,KTMT 201715Z AUTO 25003KT 10SM CLR A3014 RMK AO2,M
BVU,2022-08-20 17:15,-114.8611,35.9475,671.00,87.80,66.20,48.84,140.00,7.00,0.00,29.91,M,M,M,M,M,M,M,M,M,M,M,M,M,M,M,M,M,M,90.31,KBVU 201715Z AUTO 14007KT 31/19 A2991 RMK AO2 PWINO TSNO,M
CXP,2022-08-20 17:15,-119.7326,39.1923,1431.00,78.80,39.20,24.19,270.00,3.00,0.00,30.09,M,10.00,M,CLR,M,M,M,M,M,M,M,M,M,M,M,M,M,M,78.80,KCXP 201715Z AUTO 27003KT 10SM CLR 26/04 A3009 RMK AO2,M
RTS,2022-08-20 17:15,-119.8764,39.6682,1539.00,78.80,39.20,24.19,M,4.00,0.00,30.11,M,10.00,M,CLR,M,M,M,M,M,M,M,M,M,M,M,M,M,M,78.80,KRTS 201715Z AUTO VRB04KT 10SM CLR 26/04 A3011 RMK AO2,M
MEV,2022-08-20 17:15,-119.7500,38.9963,1441.42,77.00,39.20,25.67,0.00,0.00,0.00,30.08,M,10.00,M,CLR,M,M,M,M,M,M,M,M,M,M,M,M,M,M,77.00,KMEV 201715Z AUTO 00000KT 10SM CLR 25/04 A3008 RMK AO2,M
BAM,2022-08-20 17:15,-116.8743,40.5990,1382.36,80.60,48.20,32.18,0.00,0.00,0.00,30.06,M,10.00,M,CLR,M,M,M,M,M,M,M,M,M,M,M,M,M,M,79.71,KBAM 201715Z AUTO 00000KT 10SM CLR 27/09 A3006 RMK AO1,M
HTH,2022-08-20 17:15,-118.6315,38.5448,1282.89,80.60,37.40,21.25,40.00,4.00,0.00,30.04,M,10.00,M,CLR,M,M,M,M,M,M,M,M,M,M,M,M,M,M,79.02,KHTH 201715Z AUTO 04004KT 10SM CLR 27/03 A3004 RMK A01,M
RTS,2022-08-20 17:35,-119.8764,39.6682,1539.00,80.60,39.20,22.81,M,4.00,0.00,30.11,M,10.00,M,CLR,M,M,M,M,M,M,M,M,M,M,M,M,M,M,79.10,KRTS 201735Z AUTO VRB04KT 10SM CLR 27/04 A3011 RMK AO2,M
CXP,2022-08-20 17:35,-119.7326,39.1923,1431.00,78.80,39.20,24.19,0.00,0.00,0.00,30.08,M,10.00,M,CLR,M,M,M,M,M,M,M,M,M,M,M,M,M,M,78.80,KCXP 201735Z AUTO 00000KT 10SM CLR 26/04 A3008 RMK AO2,M
BVU,2022-08-20 17:35,-114.8611,35.9475,671.00,89.60,66.20,46.14,130.00,8.00,0.00,29.91,M,M,M,M,M,M,M,M,M,M,M,M,M,M,M,M,M,M,92.27,KBVU 201735Z AUTO 13008KT 32/19 A2991 RMK AO2 PWINO TSNO,M
HTH,2022-08-20 17:35,-118.6315,38.5448,1282.89,82.40,37.40,20.04,0.00,0.00,0.00,30.04,M,10.00,M,CLR,M,M,M,M,M,M,M,M,M,M,M,M,M,M,80.14,KHTH 201735Z AUTO 00000KT 10SM CLR 28/03 A3004 RMK A01,M
BAM,2022-08-20 17:35,-116.8743,40.5990,1382.36,82.40,48.20,30.35,210.00,3.00,0.00,30.06,M,10.00,M,CLR,M,M,M,M,M,M,M,M,M,M,M,M,M,M,80.80,KBAM 201735Z AUTO 21003KT 10SM CLR 28/09 A3006 RMK AO1,M
MEV,2022-08-20 17:35,-119.7500,38.9963,1441.42,80.60,39.20,22.81,M,3.00,0.00,30.07,M,10.00,M,CLR,M,M,M,M,M,M,M,M,M,M,M,M,M,M,79.10,KMEV 201735Z AUTO VRB03KT 10SM CLR 27/04 A3007 RMK AO2,M
TMT,2022-08-20 17:35,-117.1971,39.4643,1749.34,M,M,M,260.00,4.00,0.00,30.14,M,10.00,M,CLR,M,M,M,M,M,M,M,M,M,M,M,M,M,M,M,KTMT 201735Z AUTO 26004KT 10SM CLR A3014 RMK AO2,M
P68,2022-08-20 17:53,-116.0056,39.6014,1993.00,80.00,43.00,26.85,100.00,5.00,0.00,30.12,1011.30,M,M,M,M,M,M,M,M,M,M,M,M,M,M,M,M,M,79.04,KP68 201753Z AUTO 10005KT 27/06 A3012 RMK AO1 SLP113 T02670061 10267 20100 58004,M
DRA,2022-08-20 17:53,-116.0278,36.6206,1009.00,91.00,58.00,32.94,120.00,11.00,0.00,29.94,1008.30,10.00,19.00,CLR,M,M,M,M,M,M,M,M,M,M,M,M,M,M,89.88,KDRA 201753Z AUTO 12011G19KT 10SM CLR 33/14 A2994 RMK AO2 SLP083 T03280144 10328 20228 50003,M
LOL,2022-08-20 17:53,-118.5701,40.0684,1192.43,85.00,45.00,24.81,M,4.00,0.00,30.00,1011.70,10.00,M,CLR,M,M,M,M,M,M,M,M,M,M,M,M,M,M,82.27,KLOL 201753Z AUTO VRB04KT 10SM CLR 29/07 A3000 RMK AO2 SLP117 T02940072 10294 20117 50001,M
ELY,2022-08-20 17:53,-114.8453,39.2950,1909.00,77.00,46.00,33.34,M,4.00,0.00,30.15,1010.50,10.00,M,FEW,FEW,M,M,8000.00,10000.00,M,M,M,M,M,M,M,M,M,77.00,KELY 201753Z AUTO VRB04KT 10SM FEW080 FEW100 25/08 A3015 RMK AO2 SLP105 T02500078 10256 20089 58008,M
VGT,2022-08-20 17:53,-115.1933,36.2111,667.00,91.00,64.00,40.90,80.00,5.00,0.00,29.90,1010.90,10.00,M,CLR,M,M,M,M,M,M,M,M,M,M,M,M,M,M,92.52,KVGT 201753Z 08005KT 10SM CLR 33/18 A2990 RMK AO2 SLP109 T03280178 10333 20278 51005,M
BAM,2022-08-20 17:55,-116.8743,40.5990,1382.36,84.20,48.20,28.63,0.00,0.00,0.00,30.05,M,10.00,M,CLR,M,M,M,M,M,M,M,M,M,M,M,M,M,M,82.04,KBAM 201755Z AUTO 00000KT 10SM CLR 29/09 A3005 RMK AO1,M
BVU,2022-08-20 17:55,-114.8611,35.9475,671.00,89.60,66.20,46.14,110.00,6.00,0.00,29.90,M,M,11.00,M,M,M,M,M,M,M,M,M,M,M,M,M,M,M,92.27,KBVU 201755Z AUTO 11006G11KT 32/19 A2990 RMK AO2 PWINO TSNO,M
RNO,2022-08-20 17:55,-119.7711,39.4839,1341.00,82.00,43.00,25.24,0.00,0.00,0.00,30.05,1011.20,10.00,M,FEW,M,M,M,9000.00,M,M,M,M,M,M,M,M,M,M,80.15,KRNO 201755Z 00000KT 10SM FEW090 28/06 A3005 RMK AO2 SLP112 T02780061 10278 20172 58001,M
CXP,2022-08-20 17:55,-119.7326,39.1923,1431.00,82.40,39.20,21.51,200.00,4.00,0.00,30.08,M,10.00,M,CLR,M,M,M,M,M,M,M,M,M,M,M,M,M,M,80.21,KCXP 201755Z AUTO 20004KT 10SM CLR 28/04 A3008 RMK AO2,M
RTS,2022-08-20 17:55,-119.8764,39.6682,1539.00,80.60,39.20,22.81,140.00,4.00,0.00,30.11,M,10.00,M,CLR,M,M,M,M,M,M,M,M,M,M,M,M,M,M,79.10,KRTS 201755Z AUTO 14004KT 10SM CLR 27/04 A3011 RMK AO2,M
TMT,2022-08-20 17:55,-117.1971,39.4643,1749.34,M,M,M,0.00,0.00,0.00,30.14,M,10.00,M,CLR,M,M,M,M,M,M,M,M,M,M,M,M,M,M,M,KTMT 201755Z AUTO 00000KT 10SM CLR A3014 RMK AO2,M
MEV,2022-08-20 17:55,-119.7500,38.9963,1441.42,82.40,41.00,23.07,260.00,4.00,0.00,30.07,M,10.00,M,CLR,M,M,M,M,M,M,M,M,M,M,M,M,M,M,80.29,KMEV 201755Z AUTO 26004KT 10SM CLR 28/05 A3007 RMK AO2,M
HTH,2022-08-20 17:55,-118.6315,38.5448,1282.89,84.20,35.60,17.61,M,4.00,0.00,30.04,M,10.00,M,CLR,M,M,M,M,M,M,M,M,M,M,M,M,M,M,81.34,KHTH 201755Z AUTO VRB04KT 10SM CLR 29/02 A3004 RMK A01,M
NFL,2022-08-20 17:56,-118.7010,39.4166,1199.00,86.00,41.00,20.54,240.00,4.00,0.00,30.01,1013.10,10.00,M,CLR,M,M,M,M,M,M,M,M,M,M,M,M,M,M,82.86,KNFL 201756Z AUTO 24004KT 10SM CLR 30/05 A3001 RMK AO2 SLP131 T03000050 10300 20172 50002,M
HND,2022-08-20 17:56,-115.1344,35.9729,742.79,90.00,65.00,43.55,210.00,5.00,0.00,29.94,1012.00,10.00,M,CLR,M,M,M,M,M,M,M,M,M,M,M,M,M,M,91.94,KHND 201756Z 21005KT 10SM CLR 32/18 A2994 RMK AO2 SLP120 T03220183 10328 20256 51005,M
WMC,2022-08-20 17:56,-117.8072,40.9019,1315.00,86.00,46.00,24.88,0.00,0.00,0.00,30.02,1011.50,10.00,M,CLR,M,M,M,M,M,M,M,M,M,M,M,M,M,M,83.19,KWMC 201756Z AUTO 00000KT 10SM CLR 30/08 A3002 RMK AO2 SLP115 T03000078 10300 20122 58001 $,M
EKO,2022-08-20 17:56,-115.7860,40.8242,1367.00,70.00,49.00,47.06,230.00,4.00,0.00,30.09,1014.90,10.00,M,CLR,M,M,M,M,M,M,M,M,M,M,M,M,M,M,70.00,KEKO 201756Z AUTO 23004KT 10SM CLR 21/09 A3009 RMK AO2 SLP149 T02110094 10217 20083 58002 $,M
TPH,2022-08-20 17:56,-117.0904,38.0505,1654.00,83.00,37.00,19.41,250.00,3.00,0.00,30.11,1010.90,10.00,M,CLR,M,M,M,M,M,M,M,M,M,M,M,M,M,M,80.46,KTPH 201756Z AUTO 25003KT 10SM CLR 28/03 A3011 RMK AO2 SLP109 T02830028 10289 20178 50000,M
LAS,2022-08-20 17:56,-115.1634,36.0719,663.00,90.00,63.00,40.75,M,3.00,0.00,29.90,1009.60,10.00,M,FEW,FEW,M,M,13000.00,20000.00,M,M,M,M,M,M,M,M,M,90.93,KLAS 201756Z VRB03KT 10SM FEW130 FEW200 32/17 A2990 RMK AO2 SLP096 T03220172 10328 20272 50007,M
LSV,2022-08-20 17:58,-115.0343,36.2362,570.00,94.30,66.20,39.85,160.00,4.00,0.00,29.88,1009.10,10.00,M,CLR,M,M,M,M,M,M,M,M,M,M,M,M,M,M,97.63,KLSV 201758Z AUTO 16004KT 10SM CLR 35/19 A2988 RMK AO2 SLP091 T03460190 10346 20274 50004 $,M
INS,2022-08-20 17:58,-115.6733,36.5872,955.00,89.80,56.80,32.88,100.00,14.00,0.00,29.94,1008.50,10.00,M,CLR,M,M,M,M,M,M,M,M,M,M,M,M,M,M,88.35,KINS 201758Z AUTO 10014KT 10SM CLR 32/14 A2994 RMK AO2 SLP085 T03210138 10321 20228 50002 $,M
BVU,2022-08-20 18:15,-114.8611,35.9475,671.00,91.40,64.40,40.96,150.00,9.00,0.00,29.90,M,M,M,M,M,M,M,M,M,M,M,M,M,M,M,M,M,M,93.19,KBVU 201815Z AUTO 15009KT 33/18 A2990 RMK AO2 PWINO TSNO,M
CXP,2022-08-20 18:15,-119.7326,39.1923,1431.00,84.20,39.20,20.29,0.00,0.00,0.00,30.08,M,10.00,M,CLR,M,M,M,M,M,M,M,M,M,M,M,M,M,M,81.44,KCXP 201815Z AUTO 00000KT 10SM CLR 29/04 A3008 RMK AO2,M
RTS,2022-08-20 18:15,-119.8764,39.6682,1539.00,82.40,37.40,20.04,M,4.00,0.00,30.10,M,10.00,M,CLR,M,M,M,M,M,M,M,M,M,M,M,M,M,M,80.14,KRTS 201815Z AUTO VRB04KT 10SM CLR 28/03 A3010 RMK AO2,M
MEV,2022-08-20 18:15,-119.7500,38.9963,1441.42,84.20,42.80,23.33,0.00,0.00,0.00,30.07,M,10.00,M,CLR,M,M,M,M,M,M,M,M,M,M,M,M,M,M,81.61,KMEV 201815Z AUTO 00000KT 10SM CLR 29/06 A3007 RMK AO2,M
BAM,2022-08-20 18:15,-116.8743,40.5990,1382.36,86.00,46.40,25.26,220.00,4.00,0.00,30.05,M,10.00,M,CLR,M,M,M,M,M,M,M,M,M,M,M,M,M,M,83.22,KBAM 201815Z AUTO 22004KT 10SM CLR 30/08 A3005 RMK AO1,M
HTH,2022-08-20 18:15,-118.6315,38.5448,1282.89,86.00,37.40,17.85,10.00,5.00,0.00,30.03,M,10.00,M,CLR,M,M,M,M,M,M,M,M,M,M,M,M,M,M,82.73,KHTH 201815Z AUTO 01005KT 10SM CLR 30/03 A3003 RMK A01,M
TMT,2022-08-20 18:15,-117.1971,39.4643,1749.34,M,M,M,320.00,3.00,0.00,30.13,M,10.00,M,CLR,M,M,M,M,M,M,M,M,M,M,M,M,M,M,M,KTMT 201815Z AUTO 32003KT 10SM CLR A3013 RMK AO2,M
BAM,2022-08-20 18:35,-116.8743,40.5990,1382.36,86.00,46.40,25.26,30.00,4.00,0.00,30.05,M,10.00,M,CLR,M,M,M,M,M,M,M,M,M,M,M,M,M,M,83.22,KBAM 201835Z AUTO 03004KT 10SM CLR 30/08 A3005 RMK AO1,M
HTH,2022-08-20 18:35,-118.6315,38.5448,1282.89,86.00,37.40,17.85,0.00,0.00,0.00,30.03,M,10.00,M,CLR,M,M,M,M,M,M,M,M,M,M,M,M,M,M,82.73,KHTH 201835Z AUTO 00000KT 10SM CLR 30/03 A3003 RMK A01,M
TMT,2022-08-20 18:35,-117.1971,39.4643,1749.34,M,M,M,0.00,0.00,0.00,30.13,M,10.00,M,CLR,M,M,M,M,M,M,M,M,M,M,M,M,M,M,M,KTMT 201835Z AUTO 00000KT 10SM CLR A3013 RMK AO2,M
BVU,2022-08-20 18:35,-114.8611,35.9475,671.00,91.40,64.40,40.96,120.00,7.00,0.00,29.89,M,M,M,M,M,M,M,M,M,M,M,M,M,M,M,M,M,M,93.19,KBVU 201835Z AUTO 12007KT 040V160 33/18 A2989 RMK AO2 PWINO TSNO,M
RTS,2022-08-20 18:35,-119.8764,39.6682,1539.00,82.40,37.40,20.04,M,4.00,0.00,30.10,M,10.00,M,CLR,M,M,M,M,M,M,M,M,M,M,M,M,M,M,80.14,KRTS 201835Z AUTO VRB04KT 10SM CLR 28/03 A3010 RMK AO2,M
CXP,2022-08-20 18:35,-119.7326,39.1923,1431.00,86.00,37.40,17.85,0.00,0.00,0.00,30.07,M,10.00,M,CLR,M,M,M,M,M,M,M,M,M,M,M,M,M,M,82.73,KCXP 201835Z AUTO 00000KT 10SM CLR 30/03 A3007 RMK AO2,M
MEV,2022-08-20 18:35,-119.7500,38.9963,1441.42,84.20,41.00,21.76,0.00,0.00,0.00,30.06,M,10.00,M,CLR,M,M,M,M,M,M,M,M,M,M,M,M,M,M,81.52,KMEV 201835Z AUTO 00000KT 10SM CLR 29/05 A3006 RMK AO2,M
DRA,2022-08-20 18:53,-116.0278,36.6206,1009.00,94.00,55.00,27.10,M,M,0.00,29.93,1007.80,10.00,M,CLR,M,M,M,M,M,M,M,M,M,M,M,M,M,M,91.95,KDRA 201853Z AUTO 10SM CLR 34/13 A2993 RMK AO2 SLP078 T03440128,M
LOL,2022-08-20 18:53,-118.5701,40.0684,1192.43,89.00,44.00,20.97,0.00,0.00,0.00,29.99,1011.10,10.00,M,CLR,M,M,M,M,M,M,M,M,M,M,M,M,M,M,85.59,KLOL 201853Z AUTO 00000KT 10SM CLR 32/07 A2999 RMK AO2 SLP111 T03170067,M
ELY,2022-08-20 18:53,-114.8453,39.2950,1909.00,80.00,44.00,28.01,10.00,8.00,0.00,30.14,1010.10,10.00,24.00,BKN,OVC,M,M,8500.00,11000.00,M,M,M,M,M,M,M,M,M,79.12,KELY 201853Z AUTO 01008G24KT 10SM BKN085 OVC110 27/07 A3014 RMK AO2 SLP101 T02670067,M
P68,2022-08-20 18:53,-116.0056,39.6014,1993.00,82.00,42.00,24.38,350.00,8.00,0.00,30.11,1011.20,M,M,M,M,M,M,M,M,M,M,M,M,M,M,M,M,M,80.09,KP68 201853Z AUTO 35008KT 28/06 A3011 RMK AO1 SLP112 T02780056,M
VGT,2022-08-20 18:53,-115.1933,36.2111,667.00,93.00,64.00,38.42,M,M,0.00,29.88,1010.30,10.00,M,CLR,M,M,M,M,M,M,M,M,M,M,M,M,M,M,94.74,KVGT 201853Z 10SM CLR 34/18 A2988 RMK AO2 SLP103 T03390178,M
BAM,2022-08-20 18:55,-116.8743,40.5990,1382.36,87.80,46.40,23.85,300.00,4.00,0.00,30.04,M,10.00,M,CLR,M,M,M,M,M,M,M,M,M,M,M,M,M,M,84.68,KBAM 201855Z AUTO 30004KT 10SM CLR 31/08 A3004 RMK AO1,M
HTH,2022-08-20 18:55,-118.6315,38.5448,1282.89,87.80,37.40,16.86,M,6.00,0.00,30.02,M,10.00,M,CLR,M,M,M,M,M,M,M,M,M,M,M,M,M,M,84.16,KHTH 201855Z AUTO VRB06KT 10SM CLR 31/03 A3002 RMK A01,M
BVU,2022-08-20 18:55,-114.8611,35.9475,671.00,91.40,64.40,40.96,130.00,5.00,0.00,29.89,M,M,13.00,M,M,M,M,M,M,M,M,M,M,M,M,M,M,M,93.19,KBVU 201855Z AUTO 13005G13KT 33/18 A2989 RMK AO2 PWINO TSNO,M
CXP,2022-08-20 18:55,-119.7326,39.1923,1431.00,87.80,35.60,15.70,230.00,5.00,0.00,30.07,M,9.00,M,CLR,M,M,M,M,M,M,M,M,M,M,M,M,M,M,84.12,KCXP 201855Z AUTO 23005KT 9SM CLR 31/02 A3007 RMK AO2,M
RNO,2022-08-20 18:55,-119.7711,39.4839,1341.00,88.00,43.00,20.82,50.00,4.00,0.00,30.03,1010.50,10.00,M,FEW,M,M,M,9000.00,M,M,M,M,M,M,M,M,M,M,84.58,KRNO 201855Z 05004KT 10SM FEW090 31/06 A3003 RMK AO2 SLP105 T03110061,M
RTS,2022-08-20 18:55,-119.8764,39.6682,1539.00,84.20,37.40,18.91,M,4.00,0.00,30.09,M,10.00,M,CLR,M,M,M,M,M,M,M,M,M,M,M,M,M,M,81.38,KRTS 201855Z AUTO VRB04KT 10SM CLR 29/03 A3009 RMK AO2,M
MEV,2022-08-20 18:55,-119.7500,38.9963,1441.42,86.00,39.20,19.15,M,3.00,0.00,30.06,M,9.00,M,CLR,M,M,M,M,M,M,M,M,M,M,M,M,M,M,82.79,KMEV 201855Z AUTO VRB03KT 9SM CLR 30/04 A3006 RMK AO2,M
TMT,2022-08-20 18:55,-117.1971,39.4643,1749.34,M,M,M,280.00,6.00,0.00,30.12,M,10.00,M,SCT,M,M,M,10000.00,M,M,M,M,M,M,M,M,M,M,M,KTMT 201855Z AUTO 28006KT 10SM SCT100 A3012 RMK AO2,M
NFL,2022-08-20 18:56,-118.7010,39.4166,1199.00,89.00,38.00,16.50,210.00,5.00,0.00,29.99,1012.80,10.00,M,FEW,M,M,M,8000.00,M,M,M,M,M,M,M,M,M,M,85.26,KNFL 201856Z COR 21005KT 10SM FEW080 32/03 A2999 RMK AO2 SLP128 T03170033,M
WMC,2022-08-20 18:56,-117.8072,40.9019,1315.00,91.00,46.00,21.24,330.00,8.00,0.00,30.01,1010.60,10.00,M,CLR,M,M,M,M,M,M,M,M,M,M,M,M,M,M,87.45,KWMC 201856Z AUTO 33008KT 10SM CLR 33/08 A3001 RMK AO2 SLP106 T03280078 $,M
LAS,2022-08-20 18:56,-115.1634,36.0719,663.00,93.00,63.00,37.10,M,4.00,0.00,29.89,1009.10,10.00,M,FEW,FEW,M,M,13000.00,20000.00,M,M,M,M,M,M,M,M,M,94.18,KLAS 201856Z VRB04KT 10SM FEW130 FEW200 34/17 A2989 RMK AO2 SLP091 CB DSNT W TCU DSNT N T03390172,M
EKO,2022-08-20 18:56,-115.7860,40.8242,1367.00,75.00,48.00,38.43,M,5.00,0.00,30.07,1013.20,10.00,M,CLR,M,M,M,M,M,M,M,M,M,M,M,M,M,M,75.00,KEKO 201856Z AUTO VRB05KT 10SM CLR 24/09 A3007 RMK AO2 SLP132 T02390089 $,M
TPH,2022-08-20 18:56,-117.0904,38.0505,1654.00,86.00,35.00,16.30,160.00,4.00,0.00,30.10,1010.40,10.00,M,CLR,M,M,M,M,M,M,M,M,M,M,M,M,M,M,82.68,KTPH 201856Z AUTO 16004KT 10SM CLR 30/02 A3010 RMK AO2 SLP104 T03000017,M
HND,2022-08-20 18:56,-115.1344,35.9729,742.79,94.00,65.00,38.56,M,3.00,0.00,29.92,1011.50,10.00,M,CLR,M,M,M,M,M,M,M,M,M,M,M,M,M,M,96.30,KHND 201856Z VRB03KT 10SM CLR 34/18 A2992 RMK AO2 SLP115 T03440183,M
LSV,2022-08-20 18:58,-115.0343,36.2362,570.00,98.20,65.80,34.87,250.00,4.00,0.00,29.86,1008.40,10.00,M,CLR,M,M,M,M,M,M,M,M,M,M,M,M,M,M,102.00,KLSV 201858Z AUTO 25004KT 10SM CLR 37/19 A2986 RMK AO2 SLP084 T03680188 $,M
INS,2022-08-20 18:58,-115.6733,36.5872,955.00,92.70,54.70,27.82,90.00,13.00,0.00,29.92,1007.70,10.00,M,CLR,M,M,M,M,M,M,M,M,M,M,M,M,M,M,90.64,KINS 201858Z AUTO 09013KT 10SM CLR 34/13 A2992 RMK AO2 SLP077 T03370126 $,M
CXP,2022-08-20 19:15,-119.7326,39.1923,1431.00,89.60,35.60,14.83,M,4.00,0.00,30.06,M,10.00,M,CLR,M,M,M,M,M,M,M,M,M,M,M,M,M,M,85.62,KCXP 201915Z AUTO VRB04KT 10SM CLR 32/02 A3006 RMK AO2,M
TMT,2022-08-20 19:15,-117.1971,39.4643,1749.34,M,M,M,350.00,7.00,0.00,30.12,M,10.00,M,BKN,M,M,M,10000.00,M,M,M,M,M,M,M,M,M,M,M,KTMT 201915Z AUTO 35007KT 10SM BKN100 A3012 RMK AO2,M
HTH,2022-08-20 19:15,-118.6315,38.5448,1282.89,89.60,35.60,14.83,340.00,8.00,0.00,30.01,M,10.00,M,CLR,M,M,M,M,M,M,M,M,M,M,M,M,M,M,85.62,KHTH 201915Z AUTO 34008KT 10SM CLR 32/02 A3001 RMK A01,M
BAM,2022-08-20 19:15,-116.8743,40.5990,1382.36,87.80,46.40,23.85,330.00,8.00,0.00,30.04,M,10.00,M,CLR,M,M,M,M,M,M,M,M,M,M,M,M,M,M,84.68,KBAM 201915Z AUTO 33008KT 300V020 10SM CLR 31/08 A3004 RMK AO1,M
MEV,2022-08-20 19:15,-119.7500,38.9963,1441.42,87.80,37.40,16.86,M,3.00,0.00,30.05,M,9.00,M,CLR,M,M,M,M,M,M,M,M,M,M,M,M,M,M,84.16,KMEV 201915Z AUTO VRB03KT 9SM CLR 31/03 A3005 RMK AO2,M
RTS,2022-08-20 19:15,-119.8764,39.6682,1539.00,86.00,35.60,16.63,M,6.00,0.00,30.09,M,10.00,M,CLR,M,M,M,M,M,M,M,M,M,M,M,M,M,M,82.69,KRTS 201915Z AUTO VRB06KT 10SM CLR 30/02 A3009 RMK AO2,M
BVU,2022-08-20 19:15,-114.8611,35.9475,671.00,93.20,62.60,36.35,150.00,8.00,0.00,29.89,M,M,M,M,M,M,M,M,M,M,M,M,M,M,M,M,M,M,94.20,KBVU 201915Z AUTO 15008KT 34/17 A2989 RMK AO2 PWINO TSNO,M
INS,2022-08-20 19:19,-115.6733,36.5872,955.00,93.20,55.40,28.10,80.00,14.00,0.00,29.92,1007.70,10.00,18.00,CLR,M,M,M,M,M,M,M,M,M,M,M,M,M,M,91.35,KINS 201919Z AUTO 08014G18KT 10SM CLR 34/13 A2992 RMK AO2 WSHFT 15 SLP077 $,M
HTH,2022-08-20 19:35,-118.6315,38.5448,1282.89,89.60,33.80,13.80,350.00,7.00,0.00,30.00,M,10.00,M,CLR,M,M,M,M,M,M,M,M,M,M,M,M,M,M,85.59,KHTH 201935Z AUTO 35007KT 320V040 10SM CLR 32/01 A3000 RMK A01,M
BAM,2022-08-20 19:35,-116.8743,40.5990,1382.36,89.60,46.40,22.53,250.00,3.00,0.00,30.03,M,10.00,M,CLR,M,M,M,M,M,M,M,M,M,M,M,M,M,M,86.24,KBAM 201935Z AUTO 25003KT 10SM CLR 32/08 A3003 RMK AO1,M
MEV,2022-08-20 19:35,-119.7500,38.9963,1441.42,87.80,37.40,16.86,310.00,4.00,0.00,30.04,M,8.00,M,CLR,M,M,M,M,M,M,M,M,M,M,M,M,M,M,84.16,KMEV 201935Z AUTO 31004KT 8SM CLR 31/03 A3004 RMK AO2,M
RTS,2022-08-20 19:35,-119.8764,39.6682,1539.00,86.00,37.40,17.85,M,5.00,0.00,30.09,M,10.00,M,CLR,M,M,M,M,M,M,M,M,M,M,M,M,M,M,82.73,KRTS 201935Z AUTO VRB05KT 10SM CLR 30/03 A3009 RMK AO2,M
CXP,2022-08-20 19:35,-119.7326,39.1923,1431.00,91.40,35.60,14.02,M,7.00,0.00,30.05,M,10.00,M,CLR,M,M,M,M,M,M,M,M,M,M,M,M,M,M,87.17,KCXP 201935Z AUTO VRB07KT 140V240 10SM CLR 33/02 A3005 RMK AO2,M
BVU,2022-08-20 19:35,-114.8611,35.9475,671.00,93.20,62.60,36.35,M,4.00,0.00,29.88,M,M,10.00,M,M,M,M,M,M,M,M,M,M,M,M,M,M,M,94.20,KBVU 201935Z AUTO VRB04G10KT 34/17 A2988 RMK AO2 PWINO TSNO,M
TMT,2022-08-20 19:35,-117.1971,39.4643,1749.34,M,M,M,320.00,7.00,0.00,30.12,M,10.00,M,BKN,M,M,M,11000.00,M,M,M,M,M,M,M,M,M,M,M,KTMT 201935Z AUTO 32007KT 10SM BKN110 A3012 RMK AO2,M
DRA,2022-08-20 19:53,-116.0278,36.6206,1009.00,97.00,51.00,21.35,M,3.00,0.00,29.91,1007.20,10.00,M,CLR,M,M,M,M,M,M,M,M,M,M,M,M,M,M,94.16,KDRA 201953Z AUTO VRB03KT 10SM CLR 36/11 A2991 RMK AO2 SLP072 T03610106,M
LOL,2022-08-20 19:53,-118.5701,40.0684,1192.43,92.00,43.00,18.42,M,M,0.00,29.97,1010.40,10.00,M,CLR,M,M,M,M,M,M,M,M,M,M,M,M,M,M,87.99,KLOL 201953Z AUTO 10SM CLR 33/06 A2997 RMK AO2 SLP104 T03330061,M
ELY,2022-08-20 19:53,-114.8453,39.2950,1909.00,80.00,40.00,23.82,330.00,11.00,0.00,30.13,1010.50,10.00,M,BKN,OVC,M,M,9000.00,11000.00,M,M,M,M,M,M,M,M,M,78.93,KELY 201953Z AUTO 33011KT 10SM BKN090 OVC110 27/04 A3013 RMK AO2 SLP105 T02670044,M
VGT,2022-08-20 19:53,-115.1933,36.2111,667.00,94.00,63.00,36.08,170.00,3.00,0.00,29.86,1009.70,10.00,M,CLR,M,M,M,M,M,M,M,M,M,M,M,M,M,M,95.19,KVGT 201953Z 17003KT 10SM CLR 34/17 A2986 RMK AO2 SLP097 T03440172,M
P68,2022-08-20 19:53,-116.0056,39.6014,1993.00,83.00,39.00,21.00,M,M,0.00,30.10,1010.90,M,M,M,M,M,M,M,M,M,M,M,M,M,M,M,M,M,80.53,KP68 201953Z AUTO 28/04 A3010 RMK AO1 SLP109 T02830039,M
RNO,2022-08-20 19:55,-119.7711,39.4839,1341.00,92.00,40.00,16.34,M,3.00,0.00,30.02,1010.00,10.00,M,FEW,M,M,M,9000.00,M,M,M,M,M,M,M,M,M,M,87.78,KRNO 201955Z VRB03KT 10SM FEW090 33/04 A3002 RMK AO2 SLP100 T03330044,M
RTS,2022-08-20 19:55,-119.8764,39.6682,1539.00,86.00,35.60,16.63,140.00,7.00,0.00,30.08,M,10.00,M,CLR,M,M,M,M,M,M,M,M,M,M,M,M,M,M,82.69,KRTS 201955Z AUTO 14007KT 10SM CLR 30/02 A3008 RMK AO2,M
MEV,2022-08-20 19:55,-119.7500,38.9963,1441.42,87.80,35.60,15.70,0.00,0.00,0.00,30.04,M,10.00,M,CLR,M,M,M,M,M,M,M,M,M,M,M,M,M,M,84.12,KMEV 201955Z AUTO 00000KT 10SM CLR 31/02 A3004 RMK AO2,M
BAM,2022-08-20 19:55,-116.8743,40.5990,1382.36,87.80,46.40,23.85,330.00,5.00,0.00,30.03,M,10.00,M,CLR,M,M,M,M,M,M,M,M,M,M,M,M,M,M,84.68,KBAM 201955Z AUTO 33005KT 10SM CLR 31/08 A3003 RMK AO1,M
HTH,2022-08-20 19:55,-118.6315,38.5448,1282.89,91.40,35.60,14.02,330.00,9.00,0.00,30.00,M,10.00,M,CLR,M,M,M,M,M,M,M,M,M,M,M,M,M,M,87.17,KHTH 201955Z AUTO 33009KT 10SM CLR 33/02 A3000 RMK A01,M
TMT,2022-08-20 19:55,-117.1971,39.4643,1749.34,M,M,M,300.00,12.00,0.00,30.12,M,10.00,16.00,BKN,M,M,M,11000.00,M,M,M,M,M,M,M,M,M,M,M,KTMT 201955Z AUTO 30012G16KT 10SM BKN110 A3012 RMK AO2,M
CXP,2022-08-20 19:55,-119.7326,39.1923,1431.00,89.60,35.60,14.83,M,4.00,0.00,30.05,M,9.00,M,CLR,M,M,M,M,M,M,M,M,M,M,M,M,M,M,85.62,KCXP 201955Z AUTO VRB04KT 9SM CLR 32/02 A3005 RMK AO2,M
BVU,2022-08-20 19:55,-114.8611,35.9475,671.00,95.00,62.60,34.39,M,5.00,0.00,29.87,M,M,11.00,M,M,M,M,M,M,M,M,M,M,M,M,M,M,M,96.22,KBVU 201955Z AUTO VRB05G11KT 35/17 A2987 RMK AO2 PWINO TSNO,M
NFL,2022-08-20 19:56,-118.7010,39.4166,1199.00,91.00,37.00,15.00,280.00,7.00,0.00,29.98,1012.30,10.00,M,FEW,M,M,M,8000.00,M,M,M,M,M,M,M,M,M,M,86.86,KNFL 201956Z 28007KT 240V300 10SM FEW080 33/03 A2998 RMK AO2 SLP123 T03280028,M
HND,2022-08-20 19:56,-115.1344,35.9729,742.79,96.00,64.00,34.92,200.00,5.00,0.00,29.91,1010.90,10.00,M,CLR,M,M,M,M,M,M,M,M,M,M,M,M,M,M,98.29,KHND 201956Z 20005KT 10SM CLR 36/18 A2991 RMK AO2 SLP109 T03560178,M
TPH,2022-08-20 19:56,-117.0904,38.0505,1654.00,89.00,36.00,15.31,200.00,8.00,0.00,30.09,1009.60,10.00,M,CLR,M,M,M,M,M,M,M,M,M,M,M,M,M,M,85.21,KTPH 201956Z AUTO 20008KT 10SM CLR 32/02 A3009 RMK AO2 SLP096 T03170022,M
LAS,2022-08-20 19:56,-115.1634,36.0719,663.00,94.00,63.00,36.08,M,3.00,0.00,29.87,1008.40,10.00,M,FEW,SCT,M,M,13000.00,20000.00,M,M,M,M,M,M,M,M,M,95.19,KLAS 201956Z VRB03KT 10SM FEW130 SCT200 34/17 A2987 RMK AO2 SLP084 TCU DSNT NW/ N/ AND E T03440172,M
EKO,2022-08-20 19:56,-115.7860,40.8242,1367.00,79.00,47.00,32.29,180.00,7.00,0.00,30.05,1012.50,10.00,M,CLR,M,M,M,M,M,M,M,M,M,M,M,M,M,M,79.00,KEKO 201956Z AUTO 18007KT 10SM CLR 26/08 A3005 RMK AO2 SLP125 T02610083 $,M
WMC,2022-08-20 19:56,-117.8072,40.9019,1315.00,93.00,45.00,19.21,280.00,11.00,0.00,30.00,1010.10,10.00,17.00,CLR,M,M,M,M,M,M,M,M,M,M,M,M,M,M,89.20,KWMC 201956Z AUTO 28011G17KT 10SM CLR 34/07 A3000 RMK AO2 SLP101 T03390072 $,M
LSV,2022-08-20 19:58,-115.0343,36.2362,570.00,99.00,65.00,32.88,0.00,0.00,0.00,29.84,1007.70,10.00,M,CLR,M,M,M,M,M,M,M,M,M,M,M,M,M,M,102.44,KLSV 201958Z AUTO 00000KT 10SM CLR 37/18 A2984 RMK AO2 SLP077 T03730183 $,M
INS,2022-08-20 19:58,-115.6733,36.5872,955.00,94.80,54.50,25.88,80.00,12.00,0.00,29.91,1007.30,10.00,16.00,CLR,M,M,M,M,M,M,M,M,M,M,M,M,M,M,92.75,KINS 201958Z AUTO 08012G16KT 10SM CLR 35/13 A2991 RMK AO2 SLP073 T03490125 $,M
CXP,2022-08-20 20:10,-119.7326,39.1923,1431.00,89.60,35.60,14.83,360.00,8.00,0.00,30.05,M,9.00,M,CLR,M,M,M,M,M,M,M,M,M,M,M,M,M,M,85.62,KCXP 202010Z AUTO 36008KT 330V030 9SM CLR 32/02 A3005 RMK AO2,M
BAM,2022-08-20 20:15,-116.8743,40.5990,1382.36,91.40,46.40,21.29,10.00,9.00,0.00,30.02,M,10.00,16.00,CLR,M,M,M,M,M,M,M,M,M,M,M,M,M,M,87.86,KBAM 202015Z AUTO 01009G16KT 10SM CLR 33/08 A3002 RMK AO1,M
TMT,2022-08-20 20:15,-117.1971,39.4643,1749.34,M,M,M,310.00,5.00,0.00,30.12,M,10.00,18.00,BKN,M,M,M,11000.00,M,M,M,M,M,M,M,M,M,M,M,KTMT 202015Z AUTO 31005G18KT 10SM BKN110 A3012 RMK AO2,M
BVU,2022-08-20 20:15,-114.8611,35.9475,671.00,96.80,62.60,32.54,120.00,7.00,0.00,29.86,M,M,M,M,M,M,M,M,M,M,M,M,M,M,M,M,M,M,98.28,KBVU 202015Z AUTO 12007KT 36/17 A2986 RMK AO2 PWINO TSNO,M
RTS,2022-08-20 20:15,-119.8764,39.6682,1539.00,87.80,33.80,14.61,140.00,7.00,0.00,30.08,M,10.00,M,CLR,M,M,M,M,M,M,M,M,M,M,M,M,M,M,84.10,KRTS 202015Z AUTO 14007KT 10SM CLR 31/01 A3008 RMK AO2,M
MEV,2022-08-20 20:15,-119.7500,38.9963,1441.42,89.60,35.60,14.83,M,4.00,0.00,30.04,M,10.00,M,CLR,M,M,M,M,M,M,M,M,M,M,M,M,M,M,85.62,KMEV 202015Z AUTO VRB04KT 10SM CLR 32/02 A3004 RMK AO2,M
HTH,2022-08-20 20:15,-118.6315,38.5448,1282.89,91.40,33.80,13.05,350.00,6.00,0.00,29.99,M,10.00,12.00,CLR,M,M,M,M,M,M,M,M,M,M,M,M,M,M,87.13,KHTH 202015Z AUTO 35006G12KT 10SM CLR 33/01 A2999 RMK A01,M
BVU,2022-08-20 20:35,-114.8611,35.9475,671.00,96.80,62.60,32.54,M,6.00,0.00,29.86,M,M,11.00,M,M,M,M,M,M,M,M,M,M,M,M,M,M,M,98.28,KBVU 202035Z AUTO VRB06G11KT 36/17 A2986 RMK AO2 PWINO TSNO,M
CXP,2022-08-20 20:35,-119.7326,39.1923,1431.00,91.40,33.80,13.05,0.00,0.00,0.00,30.04,M,10.00,M,CLR,M,M,M,M,M,M,M,M,M,M,M,M,M,M,87.13,KCXP 202035Z AUTO 00000KT 10SM CLR 33/01 A3004 RMK AO2,M
RTS,2022-08-20 20:35,-119.8764,39.6682,1539.00,87.80,33.80,14.61,M,5.00,0.00,30.07,M,10.00,M,CLR,M,M,M,M,M,M,M,M,M,M,M,M,M,M,84.10,KRTS 202035Z AUTO VRB05KT 10SM CLR 31/01 A3007 RMK AO2,M
MEV,2022-08-20 20:35,-119.7500,38.9963,1441.42,91.40,35.60,14.02,0.00,0.00,0.00,30.03,M,9.00,M,CLR,M,M,M,M,M,M,M,M,M,M,M,M,M,M,87.17,KMEV 202035Z AUTO 00000KT 9SM CLR 33/02 A3003 RMK AO2,M
BAM,2022-08-20 20:35,-116.8743,40.5990,1382.36,89.60,46.40,22.53,10.00,3.00,0.00,30.02,M,10.00,M,CLR,M,M,M,M,M,M,M,M,M,M,M,M,M,M,86.24,KBAM 202035Z AUTO 01003KT 10SM CLR 32/08 A3002 RMK AO1,M
HTH,2022-08-20 20:35,-118.6315,38.5448,1282.89,91.40,33.80,13.05,330.00,7.00,0.00,29.99,M,10.00,M,CLR,M,M,M,M,M,M,M,M,M,M,M,M,M,M,87.13,KHTH 202035Z AUTO 33007KT 10SM CLR 33/01 A2999 RMK A01,M
TMT,2022-08-20 20:35,-117.1971,39.4643,1749.34,86.50,37.60,17.71,340.00,7.00,0.00,30.11,M,10.00,M,BKN,M,M,M,11000.00,M,M,M,M,M,M,M,M,M,M,83.13,KTMT 202035Z AUTO 34007KT 10SM BKN110 30/03 A3011 RMK AO2 T03030031,M
P68,2022-08-20 20:53,-116.0056,39.6014,1993.00,84.00,41.00,21.90,360.00,8.00,0.00,30.10,1010.70,M,M,M,M,M,M,M,M,M,M,M,M,M,M,M,M,M,81.37,KP68 202053Z AUTO 36008KT 29/05 A3010 RMK AO1 SLP107 T02890050 56007,M
VGT,2022-08-20 20:53,-115.1933,36.2111,667.00,97.00,62.00,31.77,250.00,4.00,0.00,29.84,1009.10,10.00,M,CLR,M,M,M,M,M,M,M,M,M,M,M,M,M,M,98.24,KVGT 202053Z 25004KT 10SM CLR 36/17 A2984 RMK AO2 LTG DSNT N AND NE SLP091 T03610167 58016,M
LOL,2022-08-20 20:53,-118.5701,40.0684,1192.43,93.00,40.00,15.79,0.00,0.00,0.00,29.96,1010.30,10.00,M,CLR,M,M,M,M,M,M,M,M,M,M,M,M,M,M,88.78,KLOL 202053Z AUTO 00000KT 10SM CLR 34/04 A2996 RMK AO2 SLP103 T03390044 56013,M
DRA,2022-08-20 20:53,-116.0278,36.6206,1009.00,100.00,44.00,14.98,190.00,9.00,0.00,29.90,1006.60,10.00,17.00,CLR,M,M,M,M,M,M,M,M,M,M,M,M,M,M,95.84,KDRA 202053Z AUTO 19009G17KT 10SM CLR 38/07 A2990 RMK AO2 SLP066 T03780067 58014,M
ELY,2022-08-20 20:53,-114.8453,39.2950,1909.00,81.00,40.00,23.13,290.00,7.00,0.00,30.12,1010.00,10.00,M,FEW,SCT,M,M,9500.00,12000.00,M,M,M,M,M,M,M,M,M,79.37,KELY 202053Z AUTO 29007KT 260V330 10SM FEW095 SCT120 27/04 A3012 RMK AO2 SLP100 T02720044 58008,M
HTH,2022-08-20 20:55,-118.6315,38.5448,1282.89,93.20,33.80,12.34,340.00,8.00,0.00,29.98,M,10.00,14.00,CLR,M,M,M,M,M,M,M,M,M,M,M,M,M,M,88.55,KHTH 202055Z AUTO 34008G14KT 10SM CLR 34/01 A2998 RMK A01,M
RNO,2022-08-20 20:55,-119.7711,39.4839,1341.00,93.00,42.00,17.19,160.00,6.00,0.00,30.01,1009.70,10.00,M,FEW,M,M,M,10000.00,M,M,M,M,M,M,M,M,M,M,88.93,KRNO 202055Z 16006KT 10SM FEW100 34/06 A3001 RMK AO2 SLP097 T03390056 56014,M
TMT,2022-08-20 20:55,-117.1971,39.4643,1749.34,M,M,M,320.00,9.00,0.00,30.11,M,10.00,25.00,BKN,M,M,M,11000.00,M,M,M,M,M,M,M,M,M,M,M,KTMT 202055Z AUTO 32009G25KT 270V340 10SM BKN110 A3011 RMK AO2,M
BAM,2022-08-20 20:55,-116.8743,40.5990,1382.36,91.40,44.60,19.89,350.00,4.00,0.00,30.01,M,10.00,15.00,CLR,M,M,M,M,M,M,M,M,M,M,M,M,M,M,87.68,KBAM 202055Z AUTO 35004G15KT 10SM CLR 33/07 A3001 RMK AO1,M
MEV,2022-08-20 20:55,-119.7500,38.9963,1441.42,91.40,35.60,14.02,330.00,9.00,0.00,30.03,M,10.00,15.00,CLR,M,M,M,M,M,M,M,M,M,M,M,M,M,M,87.17,KMEV 202055Z AUTO 33009G15KT 280V010 10SM CLR 33/02 A3003 RMK AO2,M
BVU,2022-08-20 20:55,-114.8611,35.9475,671.00,96.80,64.40,34.66,M,4.00,0.00,29.85,M,M,15.00,M,M,M,M,M,M,M,M,M,M,M,M,M,M,M,99.37,KBVU 202055Z AUTO VRB04G15KT 36/18 A2985 RMK AO2 PWINO TSNO,M
CXP,2022-08-20 20:55,-119.7326,39.1923,1431.00,91.40,32.00,12.14,M,4.00,0.00,30.04,M,10.00,M,CLR,M,M,M,M,M,M,M,M,M,M,M,M,M,M,86.91,KCXP 202055Z AUTO VRB04KT 10SM CLR 33/00 A3004 RMK AO2,M
RTS,2022-08-20 20:55,-119.8764,39.6682,1539.00,89.60,32.00,12.84,M,4.00,0.00,30.07,M,10.00,11.00,CLR,M,M,M,M,M,M,M,M,M,M,M,M,M,M,85.54,KRTS 202055Z AUTO VRB04G11KT 10SM CLR 32/00 A3007 RMK AO2,M
LAS,2022-08-20 20:56,-115.1634,36.0719,663.00,97.00,62.00,31.77,M,M,0.00,29.85,1007.60,10.00,M,FEW,SCT,M,M,13000.00,20000.00,M,M,M,M,M,M,M,M,M,98.24,KLAS 202056Z 10SM FEW130 SCT200 36/17 A2985 RMK AO2 LTG DSNT N SLP076 CB DSNT N TCU DSNT NW AND E T03610167 58017,M
WMC,2022-08-20 20:56,-117.8072,40.9019,1315.00,94.00,41.00,16.02,290.00,10.00,0.00,29.99,1010.10,10.00,17.00,SCT,M,M,M,11000.00,M,M,M,M,M,M,M,M,M,M,89.68,KWMC 202056Z AUTO 29010G17KT 10SM SCT110 34/05 A2999 RMK AO2 SLP101 T03440050 56010 $,M
HND,2022-08-20 20:56,-115.1344,35.9729,742.79,98.00,64.00,32.85,160.00,8.00,0.00,29.88,1010.10,10.00,M,CLR,M,M,M,M,M,M,M,M,M,M,M,M,M,M,100.65,KHND 202056Z 16008KT 10SM CLR 37/18 A2988 RMK AO2 SLP101 T03670178 58016,M
TPH,2022-08-20 20:56,-117.0904,38.0505,1654.00,90.00,36.00,14.88,320.00,8.00,0.00,30.08,1009.30,10.00,M,CLR,M,M,M,M,M,M,M,M,M,M,M,M,M,M,85.97,KTPH 202056Z AUTO 32008KT 10SM CLR 32/02 A3008 RMK AO2 SLP093 T03220022 56010,M
NFL,2022-08-20 20:56,-118.7010,39.4166,1199.00,94.00,34.00,12.17,40.00,5.00,0.00,29.97,1011.90,10.00,M,FEW,M,M,M,9000.00,M,M,M,M,M,M,M,M,M,M,89.13,KNFL 202056Z 04005KT 10SM FEW090 34/01 A2997 RMK AO2 SLP119 T03440011 58012,M
EKO,2022-08-20 20:56,-115.7860,40.8242,1367.00,76.00,44.00,32.17,0.00,0.00,0.00,30.04,1013.00,10.00,M,BKN,OVC,M,M,8500.00,10000.00,M,M,M,M,M,M,M,M,M,75.90,KEKO 202056Z AUTO 00000KT 10SM BKN085 OVC100 24/07 A3004 RMK AO2 SLP130 T02440067 56015 $,M
INS,2022-08-20 20:58,-115.6733,36.5872,955.00,96.30,53.60,23.91,90.00,13.00,0.00,29.89,1006.60,10.00,M,CLR,M,M,M,M,M,M,M,M,M,M,M,M,M,M,94.07,KINS 202058Z AUTO 09013KT 10SM CLR 36/12 A2989 RMK AO2 SLP066 T03570120 57014 $,M
LSV,2022-08-20 20:58,-115.0343,36.2362,570.00,104.40,64.60,27.76,120.00,3.00,0.00,29.82,1006.90,10.00,M,CLR,M,M,M,M,M,M,M,M,M,M,M,M,M,M,108.64,KLSV 202058Z AUTO 12003KT 10SM CLR 40/18 A2982 RMK AO2 SLP069 T04020181 57018 $,M
LAS,2022-08-20 21:00,-115.1634,36.0719,663.00,98.00,63.00,31.71,80.00,6.00,0.00,29.85,M,10.00,M,FEW,SCT,M,M,13000.00,20000.00,M,M,M,M,M,M,M,M,M,100.03,KLAS 202100Z 08006KT 10SM FEW130 SCT200 37/17 A2985 RMK AO2 CB DSNT N TCU DSNT NW AND E T03670172,M
CXP,2022-08-20 21:10,-119.7326,39.1923,1431.00,93.20,32.00,11.48,M,5.00,0.00,30.03,M,9.00,M,CLR,M,M,M,M,M,M,M,M,M,M,M,M,M,M,88.31,KCXP 202110Z AUTO VRB05KT 9SM CLR 34/00 A3003 RMK AO2,M
MEV,2022-08-20 21:15,-119.7500,38.9963,1441.42,91.40,33.80,13.05,280.00,7.00,0.00,30.02,M,10.00,M,CLR,M,M,M,M,M,M,M,M,M,M,M,M,M,M,87.13,KMEV 202115Z AUTO 28007KT 10SM CLR 33/01 A3002 RMK AO2,M
BVU,2022-08-20 21:15,-114.8611,35.9475,671.00,96.80,62.60,32.54,0.00,0.00,0.00,29.84,M,M,12.00,M,M,M,M,M,M,M,M,M,M,M,M,M,M,M,98.28,KBVU 202115Z AUTO 00000G12KT 36/17 A2984 RMK AO2 PWINO TSNO,M
TMT,2022-08-20 21:15,-117.1971,39.4643,1749.34,M,M,M,330.00,7.00,0.00,30.11,M,10.00,M,SCT,M,M,M,12000.00,M,M,M,M,M,M,M,M,M,M,M,KTMT 202115Z AUTO 33007KT 10SM SCT120 A3011 RMK AO2,M
BAM,2022-08-20 21:15,-116.8743,40.5990,1382.36,89.60,42.80,19.64,350.00,11.00,0.00,30.01,M,10.00,14.00,SCT,M,M,M,12000.00,M,M,M,M,M,M,M,M,M,M,85.93,KBAM 202115Z AUTO 35011G14KT 300V010 10SM SCT120 32/06 A3001 RMK AO1,M
HTH,2022-08-20 21:15,-118.6315,38.5448,1282.89,93.20,33.80,12.34,10.00,7.00,0.00,29.97,M,10.00,13.00,CLR,M,M,M,M,M,M,M,M,M,M,M,M,M,M,88.55,KHTH 202115Z AUTO 01007G13KT 320V030 10SM CLR 34/01 A2997 RMK A01,M
RTS,2022-08-20 21:15,-119.8764,39.6682,1539.00,89.60,32.00,12.84,M,5.00,0.00,30.06,M,10.00,M,CLR,M,M,M,M,M,M,M,M,M,M,M,M,M,M,85.54,KRTS 202115Z AUTO VRB05KT 10SM CLR 32/00 A3006 RMK AO2,M
BVU,2022-08-20 21:35,-114.8611,35.9475,671.00,98.60,62.60,30.80,M,7.00,0.00,29.83,M,M,13.00,M,M,M,M,M,M,M,M,M,M,M,M,M,M,M,100.38,KBVU 202135Z AUTO VRB07G13KT 37/17 A2983 RMK AO2 PWINO TSNO,M
RTS,2022-08-20 21:35,-119.8764,39.6682,1539.00,89.60,32.00,12.84,M,6.00,0.00,30.06,M,10.00,M,CLR,M,M,M,M,M,M,M,M,M,M,M,M,M,M,85.54,KRTS 202135Z AUTO VRB06KT 10SM CLR 32/00 A3006 RMK AO2,M
MEV,2022-08-20 21:35,-119.7500,38.9963,1441.42,93.20,33.80,12.34,300.00,8.00,0.00,30.02,M,10.00,M,CLR,M,M,M,M,M,M,M,M,M,M,M,M,M,M,88.55,KMEV 202135Z AUTO 30008KT 240V310 10SM CLR 34/01 A3002 RMK AO2,M
BAM,2022-08-20 21:35,-116.8743,40.5990,1382.36,91.40,42.80,18.56,360.00,8.00,0.00,30.00,M,10.00,M,SCT,M,M,M,12000.00,M,M,M,M,M,M,M,M,M,M,87.52,KBAM 202135Z AUTO 36008KT 10SM SCT120 33/06 A3000 RMK AO1,M
HTH,2022-08-20 21:35,-118.6315,38.5448,1282.89,93.20,32.00,11.48,280.00,9.00,0.00,29.97,M,10.00,M,CLR,M,M,M,M,M,M,M,M,M,M,M,M,M,M,88.31,KHTH 202135Z AUTO 28009KT 250V310 10SM CLR 34/00 A2997 RMK A01,M
TMT,2022-08-20 21:35,-117.1971,39.4643,1749.34,M,M,M,350.00,13.00,0.00,30.11,M,10.00,M,BKN,M,M,M,11000.00,M,M,M,M,M,M,M,M,M,M,M,KTMT 202135Z AUTO 35013KT 10SM BKN110 A3011 RMK AO2,M
CXP,2022-08-20 21:35,-119.7326,39.1923,1431.00,95.00,24.80,8.08,260.00,7.00,0.00,30.03,M,10.00,13.00,CLR,M,M,M,M,M,M,M,M,M,M,M,M,M,M,88.91,KCXP 202135Z AUTO 26007G13KT 230V300 10SM CLR 35/M04 A3003 RMK AO2,M
VGT,2022-08-20 21:53,-115.1933,36.2111,667.00,100.00,61.00,27.90,220.00,4.00,0.00,29.81,1008.00,10.00,M,CLR,M,M,M,M,M,M,M,M,M,M,M,M,M,M,101.12,KVGT 202153Z 22004KT 10SM CLR 38/16 A2981 RMK AO2 LTG DSNT NW SLP080 T03780161,M
LOL,2022-08-20 21:53,-118.5701,40.0684,1192.43,97.00,40.00,13.96,150.00,8.00,0.00,29.94,1009.20,10.00,M,CLR,M,M,M,M,M,M,M,M,M,M,M,M,M,M,92.48,KLOL 202153Z AUTO 15008KT 10SM CLR 36/04 A2994 RMK AO2 SLP092 T03610044,M
DRA,2022-08-20 21:53,-116.0278,36.6206,1009.00,101.00,42.00,13.50,170.00,8.00,0.00,29.88,1005.80,10.00,23.00,CLR,M,M,M,M,M,M,M,M,M,M,M,M,M,M,96.42,KDRA 202153Z AUTO 17008G23KT 10SM CLR 38/06 A2988 RMK AO2 SLP058 T03830056,M
P68,2022-08-20 21:53,-116.0056,39.6014,1993.00,83.00,38.00,20.11,10.00,9.00,0.00,30.08,1010.30,M,M,M,M,M,M,M,M,M,M,M,M,M,M,M,M,M,80.49,KP68 202153Z AUTO 01009KT 28/03 A3008 RMK AO1 SLP103 T02830033,M
ELY,2022-08-20 21:53,-114.8453,39.2950,1909.00,84.00,43.00,23.66,20.00,18.00,0.00,30.11,1009.30,10.00,25.00,FEW,FEW,M,M,10000.00,12000.00,M,M,M,M,M,M,M,M,M,81.48,KELY 202153Z AUTO 02018G25KT 10SM FEW100 FEW120 29/06 A3011 RMK AO2 SLP093 T02890061,M
MEV,2022-08-20 21:55,-119.7500,38.9963,1441.42,93.20,33.80,12.34,300.00,11.00,0.00,30.01,M,10.00,M,CLR,M,M,M,M,M,M,M,M,M,M,M,M,M,M,88.55,KMEV 202155Z AUTO 30011KT 10SM CLR 34/01 A3001 RMK AO2,M
RTS,2022-08-20 21:55,-119.8764,39.6682,1539.00,91.40,33.80,13.05,200.00,8.00,0.00,30.05,M,10.00,M,CLR,M,M,M,M,M,M,M,M,M,M,M,M,M,M,87.13,KRTS 202155Z AUTO 20008KT 10SM CLR 33/01 A3005 RMK AO2,M
BVU,2022-08-20 21:55,-114.8611,35.9475,671.00,98.60,62.60,30.80,M,5.00,0.00,29.82,M,M,13.00,M,M,M,M,M,M,M,M,M,M,M,M,M,M,M,100.38,KBVU 202155Z AUTO VRB05G13KT 37/17 A2982 RMK AO2 PWINO TSNO,M
CXP,2022-08-20 21:55,-119.7326,39.1923,1431.00,93.20,23.00,7.92,0.00,0.00,0.00,30.02,M,10.00,M,CLR,M,M,M,M,M,M,M,M,M,M,M,M,M,M,87.42,KCXP 202155Z AUTO 00000KT 10SM CLR 34/M05 A3002 RMK AO2,M
HTH,2022-08-20 21:55,-118.6315,38.5448,1282.89,95.00,32.00,10.85,360.00,11.00,0.00,29.96,M,10.00,M,CLR,M,M,M,M,M,M,M,M,M,M,M,M,M,M,89.71,KHTH 202155Z AUTO 36011KT 320V030 10SM CLR 35/00 A2996 RMK A01,M
TMT,2022-08-20 21:55,-117.1971,39.4643,1749.34,M,M,M,10.00,4.00,0.00,30.11,M,10.00,21.00,BKN,M,M,M,11000.00,M,M,M,M,M,M,M,M,M,M,M,KTMT 202155Z AUTO 01004G21KT 10SM BKN110 A3011 RMK AO2,M
BAM,2022-08-20 21:55,-116.8743,40.5990,1382.36,89.60,42.80,19.64,330.00,10.00,0.00,30.00,M,10.00,M,SCT,M,M,M,12000.00,M,M,M,M,M,M,M,M,M,M,85.93,KBAM 202155Z AUTO 33010KT 10SM SCT120 32/06 A3000 RMK AO1,M
RNO,2022-08-20 21:55,-119.7711,39.4839,1341.00,96.00,38.00,13.27,230.00,7.00,0.00,29.98,1008.70,10.00,M,FEW,M,M,M,10000.00,M,M,M,M,M,M,M,M,M,M,91.49,KRNO 202155Z 23007KT 10SM FEW100 36/03 A2998 RMK AO2 SLP087 T03560033,M
TPH,2022-08-20 21:56,-117.0904,38.0505,1654.00,92.00,33.00,12.49,350.00,11.00,0.00,30.06,1008.70,10.00,14.00,CLR,M,M,M,M,M,M,M,M,M,M,M,M,M,M,87.44,KTPH 202156Z AUTO 35011G14KT 10SM CLR 33/01 A3006 RMK AO2 SLP087 T03330006,M
NFL,2022-08-20 21:56,-118.7010,39.4166,1199.00,96.00,33.00,10.97,300.00,9.00,0.00,29.95,1011.50,10.00,M,FEW,M,M,M,9000.00,M,M,M,M,M,M,M,M,M,M,90.76,KNFL 202156Z 30009KT 10SM FEW090 36/01 A2995 RMK AO2 SLP115 T03560006,M
EKO,2022-08-20 21:56,-115.7860,40.8242,1367.00,78.00,45.00,30.95,50.00,5.00,0.00,30.03,1012.40,10.00,M,FEW,FEW,M,M,9500.00,12000.00,M,M,M,M,M,M,M,M,M,78.10,KEKO 202156Z AUTO 05005KT 10SM FEW095 FEW120 26/07 A3003 RMK AO2 SLP124 T02560072 $,M
HND,2022-08-20 21:56,-115.1344,35.9729,742.79,100.00,64.00,31.01,0.00,0.00,0.00,29.86,1009.20,10.00,M,FEW,M,M,M,8000.00,M,M,M,M,M,M,M,M,M,M,102.91,KHND 202156Z 00000KT 10SM FEW080 38/18 A2986 RMK AO2 SLP092 T03780178,M
WMC,2022-08-20 21:56,-117.8072,40.9019,1315.00,95.00,40.00,14.84,320.00,10.00,0.00,29.98,1009.70,10.00,M,FEW,M,M,M,11000.00,M,M,M,M,M,M,M,M,M,M,90.61,KWMC 202156Z AUTO 32010KT 10SM FEW110 35/04 A2998 RMK AO2 SLP097 T03500044 $,M
LAS,2022-08-20 21:56,-115.1634,36.0719,663.00,99.00,62.00,29.90,90.00,8.00,0.00,29.83,1006.90,10.00,M,FEW,FEW,SCT,M,13000.00,16000.00,22000.00,M,M,M,M,M,M,M,M,100.56,KLAS 202156Z 09008KT 10SM FEW130 FEW160 SCT220 37/17 A2983 RMK AO2 SLP069 CB DSNT N AND DSNT E TCU DSNT S-SW T03720167,M
LSV,2022-08-20 21:58,-115.0343,36.2362,570.00,105.80,62.60,24.82,180.00,6.00,0.00,29.79,1005.70,10.00,M,CLR,M,M,M,M,M,M,M,M,M,M,M,M,M,M,108.90,KLSV 202158Z AUTO 18006KT 10SM CLR 41/17 A2979 RMK AO2 SLP057 T04100170 $,M
INS,2022-08-20 21:58,-115.6733,36.5872,955.00,98.60,47.70,17.91,130.00,18.00,0.00,29.87,1006.10,10.00,M,CLR,M,M,M,M,M,M,M,M,M,M,M,M,M,M,95.07,KINS 202158Z AUTO 13018KT 10SM CLR 37/09 A2987 RMK AO2 SLP061 T03700087 $,M
ELY,2022-08-20 22:07,-114.8453,39.2950,1909.00,81.00,44.00,28.08,40.00,18.00,0.00,30.11,M,10.00,27.00,FEW,SCT,M,M,10000.00,12000.00,M,M,M,M,M,M,27.00,20.00,2022-08-20 22:02,79.42,KELY 202207Z AUTO 04018G27KT 10SM FEW100 SCT120 27/07 A3011 RMK AO2 PK WND 02027/2202 WSHFT 2147 T02720067,M
INS,2022-08-20 22:10,-115.6733,36.5872,955.00,98.60,48.20,18.25,160.00,16.00,0.00,29.86,1005.60,10.00,24.00,CLR,M,M,M,M,M,M,M,M,M,M,M,M,M,M,95.17,KINS 202210Z AUTO 16016G24KT 10SM CLR 37/09 A2986 RMK AO2 WSHFT 2156 SLP056 $,M
MEV,2022-08-20 22:15,-119.7500,38.9963,1441.42,93.20,32.00,11.48,10.00,6.00,0.00,30.01,M,10.00,M,CLR,M,M,M,M,M,M,M,M,M,M,M,M,M,M,88.31,KMEV 202215Z AUTO 01006KT 10SM CLR 34/00 A3001 RMK AO2,M
RTS,2022-08-20 22:15,-119.8764,39.6682,1539.00,91.40,33.80,13.05,300.00,10.00,0.00,30.05,M,10.00,17.00,CLR,M,M,M,M,M,M,M,M,M,M,M,M,M,M,87.13,KRTS 202215Z AUTO 30010G17KT 10SM CLR 33/01 A3005 RMK AO2,M
BVU,2022-08-20 22:15,-114.8611,35.9475,671.00,98.60,60.80,28.90,130.00,9.00,0.00,29.81,M,M,16.00,M,M,M,M,M,M,M,M,M,M,M,M,M,M,M,99.39,KBVU 202215Z AUTO 13009G16KT 37/16 A2981 RMK AO2 PWINO TSNO,M
BAM,2022-08-20 22:15,-116.8743,40.5990,1382.36,91.40,42.80,18.56,360.00,7.00,0.00,30.00,M,10.00,M,SCT,M,M,M,12000.00,M,M,M,M,M,M,M,M,M,M,87.52,KBAM 202215Z AUTO 36007KT 10SM SCT120 33/06 A3000 RMK AO1,M
TMT,2022-08-20 22:15,-117.1971,39.4643,1749.34,M,M,M,10.00,3.00,0.00,30.10,M,10.00,M,BKN,M,M,M,11000.00,M,M,M,M,M,M,M,M,M,M,M,KTMT 202215Z AUTO 01003KT 10SM BKN110 A3010 RMK AO2 LTG DSNT SE,M
CXP,2022-08-20 22:15,-119.7326,39.1923,1431.00,93.20,24.80,8.54,M,5.00,0.00,30.02,M,10.00,M,CLR,M,M,M,M,M,M,M,M,M,M,M,M,M,M,87.56,KCXP 202215Z AUTO VRB05KT 10SM CLR 34/M04 A3002 RMK AO2,M
HTH,2022-08-20 22:15,-118.6315,38.5448,1282.89,93.20,30.20,10.67,340.00,9.00,0.00,29.96,M,10.00,M,CLR,M,M,M,M,M,M,M,M,M,M,M,M,M,M,88.09,KHTH 202215Z AUTO 34009KT 300V020 10SM CLR 34/M01 A2996 RMK A01,M
TMT,2022-08-20 22:35,-117.1971,39.4643,1749.34,M,M,M,40.00,7.00,0.00,30.09,M,10.00,17.00,SCT,M,M,M,12000.00,M,M,M,M,M,M,M,M,M,M,M,KTMT 202235Z AUTO 04007G17KT 350V090 10SM SCT120 A3009 RMK AO2 LTG DSNT SE,M
BVU,2022-08-20 22:35,-114.8611,35.9475,671.00,98.60,60.80,28.90,0.00,0.00,0.00,29.80,M,M,M,M,M,M,M,M,M,M,M,M,M,M,M,M,M,M,99.39,KBVU 202235Z AUTO 00000KT 37/16 A2980 RMK AO2 PWINO TSNO,M
CXP,2022-08-20 22:35,-119.7326,39.1923,1431.00,93.20,26.60,9.21,210.00,5.00,0.00,30.01,M,10.00,M,CLR,M,M,M,M,M,M,M,M,M,M,M,M,M,M,87.72,KCXP 202235Z AUTO 21005KT 10SM CLR 34/M03 A3001 RMK AO2,M
HTH,2022-08-20 22:35,-118.6315,38.5448,1282.89,95.00,32.00,10.85,330.00,10.00,0.00,29.95,M,10.00,17.00,CLR,M,M,M,M,M,M,M,M,M,M,M,M,M,M,89.71,KHTH 202235Z AUTO 33010G17KT 10SM CLR 35/M00 A2995 RMK A01,M
RTS,2022-08-20 22:35,-119.8764,39.6682,1539.00,89.60,32.00,12.84,M,4.00,0.00,30.04,M,10.00,M,CLR,M,M,M,M,M,M,M,M,M,M,M,M,M,M,85.54,KRTS 202235Z AUTO VRB04KT 10SM CLR 32/00 A3004 RMK AO2,M
MEV,2022-08-20 22:35,-119.7500,38.9963,1441.42,93.20,33.80,12.34,240.00,8.00,0.00,30.00,M,10.00,13.00,CLR,M,M,M,M,M,M,M,M,M,M,M,M,M,M,88.55,KMEV 202235Z AUTO 24008G13KT 10SM CLR 34/01 A3000 RMK AO2,M
BAM,2022-08-20 22:35,-116.8743,40.5990,1382.36,91.40,42.80,18.56,340.00,10.00,0.00,29.99,M,10.00,15.00,SCT,M,M,M,12000.00,M,M,M,M,M,M,M,M,M,M,87.52,KBAM 202235Z AUTO 34010G15KT 10SM SCT120 33/06 A2999 RMK AO1,M
VGT,2022-08-20 22:53,-115.1933,36.2111,667.00,99.00,56.00,23.95,270.00,16.00,0.00,29.80,1007.40,10.00,22.00,CLR,M,M,M,M,M,M,M,M,M,M,M,M,M,M,97.71,KVGT 202253Z 27016G22KT 10SM CLR 37/13 A2980 RMK AO2 LTG DSNT SW SLP074 T03720133,M
ELY,2022-08-20 22:53,-114.8453,39.2950,1909.00,81.00,43.00,26.08,50.00,14.00,0.00,30.10,1009.30,10.00,M,BKN,BKN,M,M,10000.00,12000.00,M,M,M,M,M,M,27.00,20.00,2022-08-20 22:02,79.54,KELY 202253Z AUTO 05014KT 10SM BKN100 BKN120 27/06 A3010 RMK AO2 PK WND 02027/2202 WSHFT 2147 SLP093 T02720061,M
P68,2022-08-20 22:53,-116.0056,39.6014,1993.00,84.00,38.00,19.41,360.00,14.00,0.00,30.08,1010.00,M,20.00,M,M,M,M,M,M,M,M,M,M,M,M,M,M,M,81.25,KP68 202253Z AUTO 36014G20KT 29/03 A3008 RMK AO1 SLP100 T02890033,M
LOL,2022-08-20 22:53,-118.5701,40.0684,1192.43,95.00,39.00,14.33,240.00,4.00,0.00,29.93,1009.20,10.00,M,CLR,M,M,M,M,M,M,M,M,M,M,M,M,M,M,90.55,KLOL 202253Z AUTO 24004KT 10SM CLR 35/04 A2993 RMK AO2 SLP092 T03500039,M
DRA,2022-08-20 22:53,-116.0278,36.6206,1009.00,102.00,40.00,12.00,250.00,7.00,0.00,29.85,1004.90,10.00,20.00,CLR,M,M,M,M,M,M,M,M,M,M,M,M,M,M,96.96,KDRA 202253Z AUTO 25007G20KT 220V290 10SM CLR 39/04 A2985 RMK AO2 SLP049 T03890044,M
TMT,2022-08-20 22:55,-117.1971,39.4643,1749.34,M,M,M,10.00,8.00,0.00,30.09,M,10.00,15.00,BKN,M,M,M,12000.00,M,M,M,M,M,M,M,M,M,M,M,KTMT 202255Z AUTO 01008G15KT 10SM BKN120 A3009 RMK AO2,M
HTH,2022-08-20 22:55,-118.6315,38.5448,1282.89,96.80,30.20,9.55,310.00,12.00,0.00,29.95,M,10.00,M,CLR,M,M,M,M,M,M,M,M,M,M,M,M,M,M,90.96,KHTH 202255Z AUTO 31012KT 10SM CLR 36/M01 A2995 RMK A01,M
BAM,2022-08-20 22:55,-116.8743,40.5990,1382.36,93.20,42.80,17.55,350.00,14.00,0.00,29.99,M,10.00,17.00,CLR,M,M,M,M,M,M,M,M,M,M,M,M,M,M,89.17,KBAM 202255Z AUTO 35014G17KT 10SM CLR 34/06 A2999 RMK AO1,M
MEV,2022-08-20 22:55,-119.7500,38.9963,1441.42,93.20,33.80,12.34,250.00,7.00,0.00,30.00,M,10.00,17.00,CLR,M,M,M,M,M,M,M,M,M,M,M,M,M,M,88.55,KMEV 202255Z AUTO 25007G17KT 10SM CLR 34/01 A3000 RMK AO2,M
RTS,2022-08-20 22:55,-119.8764,39.6682,1539.00,91.40,28.40,10.48,300.00,12.00,0.00,30.04,M,10.00,M,CLR,M,M,M,M,M,M,M,M,M,M,M,M,M,M,86.53,KRTS 202255Z AUTO 30012KT 10SM CLR 33/M02 A3004 RMK AO2,M
RNO,2022-08-20 22:55,-119.7711,39.4839,1341.00,95.00,39.00,14.33,60.00,8.00,0.00,29.97,1008.30,10.00,15.00,FEW,M,M,M,10000.00,M,M,M,M,M,M,M,M,M,M,90.55,KRNO 202255Z 06008G15KT 10SM FEW100 35/04 A2997 RMK AO2 SLP083 T03500039,M
CXP,2022-08-20 22:55,-119.7326,39.1923,1431.00,93.20,30.20,10.67,M,5.00,0.00,30.01,M,10.00,M,CLR,M,M,M,M,M,M,M,M,M,M,M,M,M,M,88.09,KCXP 202255Z AUTO VRB05KT 10SM CLR 34/M01 A3001 RMK AO2,M
BVU,2022-08-20 22:55,-114.8611,35.9475,671.00,100.40,60.80,27.37,M,5.00,0.00,29.79,M,M,12.00,M,M,M,M,M,M,M,M,M,M,M,M,M,M,M,101.47,KBVU 202255Z AUTO VRB05G12KT 38/16 A2979 RMK AO2 PWINO TSNO,M
WMC,2022-08-20 22:56,-117.8072,40.9019,1315.00,94.00,40.00,15.35,M,3.00,0.00,29.96,1009.40,10.00,M,CLR,M,M,M,M,M,M,M,M,M,M,M,M,M,M,89.60,KWMC 202256Z AUTO VRB03KT 10SM CLR 34/04 A2996 RMK AO2 SLP094 T03440044 $,M
NFL,2022-08-20 22:56,-118.7010,39.4166,1199.00,96.00,32.00,10.49,0.00,0.00,0.00,29.93,1010.90,10.00,M,FEW,M,M,M,9000.00,M,M,M,M,M,M,M,M,M,M,90.61,KNFL 202256Z 00000KT 10SM FEW090 36/00 A2993 RMK SLP109 T03560000,M
TPH,2022-08-20 22:56,-117.0904,38.0505,1654.00,91.00,33.00,12.85,280.00,9.00,0.00,30.05,1008.50,10.00,M,CLR,M,M,M,M,M,M,M,M,M,M,M,M,M,M,86.74,KTPH 202256Z AUTO 28009KT 10SM CLR 33/01 A3005 RMK AO2 SLP085 T03280006,M
LAS,2022-08-20 22:56,-115.1634,36.0719,663.00,97.00,61.00,30.56,0.00,0.00,0.00,29.80,1005.90,10.00,M,FEW,FEW,SCT,M,13000.00,16000.00,22000.00,M,M,M,M,M,M,M,M,97.66,KLAS 202256Z 00000KT 10SM FEW130 FEW160 SCT220 36/16 A2980 RMK AO2 LTG DSNT SW SLP059 CB DSNT NW AND N SH DSNT SW TCU DSNT NE-SE T03610161,M
EKO,2022-08-20 22:56,-115.7860,40.8242,1367.00,80.00,45.00,28.99,0.00,0.00,0.00,30.02,1011.80,10.00,M,FEW,M,M,M,9500.00,M,M,M,M,M,M,M,M,M,M,79.18,KEKO 202256Z AUTO 00000KT 10SM FEW095 27/07 A3002 RMK AO2 SLP118 T02670072 $,M
HND,2022-08-20 22:56,-115.1344,35.9729,742.79,98.00,62.00,30.72,360.00,3.00,0.00,29.84,1008.50,10.00,M,FEW,M,M,M,8500.00,M,M,M,M,M,M,M,M,M,M,99.51,KHND 202256Z 36003KT 10SM FEW085 37/17 A2984 RMK AO2 LTG DSNT S AND W SLP085 T03670167,M
INS,2022-08-20 22:58,-115.6733,36.5872,955.00,98.20,47.50,17.99,0.00,0.00,0.00,29.83,1004.60,10.00,M,CLR,M,M,M,M,M,M,M,M,M,M,M,M,M,M,94.63,KINS 202258Z AUTO 00000KT 10SM CLR 37/09 A2983 RMK AO2 SLP046 T03680086 $,M
LSV,2022-08-20 22:58,-115.0343,36.2362,570.00,104.40,61.30,24.71,170.00,3.00,0.00,29.76,1004.90,10.00,M,CLR,M,M,M,M,M,M,M,M,M,M,M,M,M,M,106.43,KLSV 202258Z AUTO 17003KT 10SM CLR 40/16 A2976 RMK AO2 SLP049 T04020163 $,M
HND,2022-08-20 23:08,-115.1344,35.9729,742.79,98.60,62.60,30.80,0.00,0.00,0.00,29.83,M,10.00,M,CLR,M,M,M,M,M,M,M,VCTS,M,M,M,M,M,M,100.38,KHND 202308Z 00000KT 10SM VCTS CLR 37/17 A2983 RMK AO2 LTG DSNT S AND W TSB02,M
LAS,2022-08-20 23:09,-115.1634,36.0719,663.00,98.00,61.00,29.55,300.00,8.00,0.00,29.80,M,10.00,M,SCT,SCT,SCT,M,12000.00,16000.00,22000.00,M,VCTS,M,M,M,M,M,M,98.92,KLAS 202309Z 30008KT 10SM VCTS SCT120CB SCT160 SCT220 37/16 A2980 RMK AO2 LTG DSNT SW TSE03 TS VC SW CB DSNT NW AND N SH DSNT SW TCU DSNT NE-SE T03670161,M
VGT,2022-08-20 23:10,-115.1933,36.2111,667.00,98.00,52.00,21.34,250.00,10.00,0.00,29.79,M,10.00,M,CLR,M,M,M,M,M,M,M,M,M,M,M,M,M,M,95.53,KVGT 202310Z 25010KT 10SM CLR 37/11 A2979 RMK AO2 WSHFT 2250 LTG DSNT S AND SW T03670111,M
BAM,2022-08-20 23:15,-116.8743,40.5990,1382.36,93.20,42.80,17.55,320.00,11.00,0.00,29.99,M,10.00,17.00,CLR,M,M,M,M,M,M,M,M,M,M,M,M,M,M,89.17,KBAM 202315Z AUTO 32011G17KT 10SM CLR 34/06 A2999 RMK AO1,M
HTH,2022-08-20 23:15,-118.6315,38.5448,1282.89,95.00,30.20,10.09,330.00,13.00,0.00,29.94,M,10.00,M,CLR,M,M,M,M,M,M,M,M,M,M,M,M,M,M,89.48,KHTH 202315Z AUTO 33013KT 10SM CLR 35/M01 A2994 RMK A01,M
BVU,2022-08-20 23:15,-114.8611,35.9475,671.00,100.40,60.80,27.37,180.00,8.00,0.00,29.79,M,M,M,M,M,M,M,M,M,M,M,M,M,M,M,M,M,M,101.47,KBVU 202315Z AUTO 18008KT 38/16 A2979 RMK AO2 PWINO TSNO,M
CXP,2022-08-20 23:15,-119.7326,39.1923,1431.00,93.20,30.20,10.67,0.00,0.00,0.00,30.01,M,10.00,M,CLR,M,M,M,M,M,M,M,M,M,M,M,M,M,M,88.09,KCXP 202315Z AUTO 00000KT 10SM CLR 34/M01 A3001 RMK AO2,M
RTS,2022-08-20 23:15,-119.8764,39.6682,1539.00,89.60,28.40,11.09,0.00,0.00,0.00,30.04,M,10.00,11.00,CLR,M,M,M,M,M,M,M,M,M,M,M,M,M,M,85.17,KRTS 202315Z AUTO 00000G11KT 10SM CLR 32/M02 A3004 RMK AO2,M
MEV,2022-08-20 23:15,-119.7500,38.9963,1441.42,93.20,33.80,12.34,260.00,10.00,0.00,30.00,M,10.00,M,CLR,M,M,M,M,M,M,M,M,M,M,M,M,M,M,88.55,KMEV 202315Z AUTO 26010KT 10SM CLR 34/01 A3000 RMK AO2,M
TMT,2022-08-20 23:15,-117.1971,39.4643,1749.34,M,M,M,20.00,5.00,0.00,30.09,M,10.00,M,BKN,M,M,M,11000.00,M,M,M,M,M,M,M,M,M,M,M,KTMT 202315Z AUTO 02005KT 10SM BKN110 A3009 RMK AO2,M
LAS,2022-08-20 23:24,-115.1634,36.0719,663.00,97.00,56.00,25.45,250.00,15.00,0.00,29.79,M,10.00,21.00,SCT,SCT,SCT,M,12000.00,16000.00,22000.00,M,M,M,M,M,M,M,M,95.53,KLAS 202324Z 25015G21KT 10SM SCT120 SCT160 SCT220 36/13 A2979 RMK AO2 LTG DSNT S AND SW TSE03 CB DSNT N SH DSNT SW TCU DSNT NE-SE T03610133,M
HND,2022-08-20 23:28,-115.1344,35.9729,742.79,96.80,53.60,23.55,280.00,17.00,0.00,29.83,M,10.00,22.00,BKN,BKN,M,M,8500.00,10000.00,M,M,VCTS,M,M,M,M,M,M,94.59,KHND 202328Z 28017G22KT 10SM VCTS BKN085 BKN100 36/12 A2983 RMK AO2 WSHFT 2314 LTG DSNT S-W TSB02E25B28,M
LAS,2022-08-20 23:32,-115.1634,36.0719,663.00,97.00,55.00,24.63,240.00,10.00,0.00,29.80,M,10.00,16.00,SCT,SCT,SCT,M,12000.00,16000.00,22000.00,M,M,M,M,M,M,M,M,95.23,KLAS 202332Z 24010G16KT 200V280 10SM SCT120 SCT160 SCT220 36/13 A2980 RMK AO2 WSHFT 2312 LTG DSNT SE-SW TSE03 CB DSNT N SH DSNT SW AND S TCU DSNT NE-SE T03610128,M
CXP,2022-08-20 23:35,-119.7326,39.1923,1431.00,95.00,28.40,9.38,220.00,7.00,0.00,30.00,M,10.00,13.00,CLR,M,M,M,M,M,M,M,M,M,M,M,M,M,M,89.27,KCXP 202335Z AUTO 22007G13KT 10SM CLR 35/M02 A3000 RMK AO2,M
RTS,2022-08-20 23:35,-119.8764,39.6682,1539.00,91.40,28.40,10.48,300.00,11.00,0.00,30.04,M,10.00,M,CLR,M,M,M,M,M,M,M,M,M,M,M,M,M,M,86.53,KRTS 202335Z AUTO 30011KT 10SM CLR 33/M02 A3004 RMK AO2,M
MEV,2022-08-20 23:35,-119.7500,38.9963,1441.42,93.20,33.80,12.34,290.00,10.00,0.00,30.00,M,10.00,16.00,CLR,M,M,M,M,M,M,M,M,M,M,M,M,M,M,88.55,KMEV 202335Z AUTO 29010G16KT 10SM CLR 34/01 A3000 RMK AO2,M
BAM,2022-08-20 23:35,-116.8743,40.5990,1382.36,91.40,41.00,17.32,330.00,11.00,0.00,29.98,M,10.00,15.00,CLR,M,M,M,M,M,M,M,M,M,M,M,M,M,M,87.40,KBAM 202335Z AUTO 33011G15KT 10SM CLR 33/05 A2998 RMK AO1,M
HTH,2022-08-20 23:35,-118.6315,38.5448,1282.89,95.00,30.20,10.09,360.00,9.00,0.00,29.94,M,10.00,15.00,CLR,M,M,M,M,M,M,M,M,M,M,M,M,M,M,89.48,KHTH 202335Z AUTO 36009G15KT 10SM CLR 35/M01 A2994 RMK A01,M
TMT,2022-08-20 23:35,-117.1971,39.4643,1749.34,85.80,37.60,18.11,340.00,10.00,0.00,30.09,M,10.00,19.00,SCT,M,M,M,11000.00,M,M,M,M,M,M,M,M,M,M,82.58,KTMT 202335Z AUTO 34010G19KT 10SM SCT110 30/03 A3009 RMK AO2 T02990031,M
BVU,2022-08-20 23:35,-114.8611,35.9475,671.00,98.60,60.80,28.90,170.00,10.00,0.00,29.80,M,M,M,M,M,M,M,M,M,M,M,M,M,M,M,M,M,M,99.39,KBVU 202335Z AUTO 17010KT 37/16 A2980 RMK AO2 PWINO TSNO,M
HND,2022-08-20 23:44,-115.1344,35.9729,742.79,93.20,51.80,24.63,270.00,17.00,0.00,29.83,M,9.00,22.00,SCT,SCT,M,M,9000.00,10000.00,M,M,TS,M,M,M,M,M,M,90.45,KHND 202344Z 27017G22KT 9SM TS SCT090 SCT100 34/11 A2983 RMK AO2 WSHFT 2314 LTG DSNT S AND SW TSB02E25B28E43B44,M
ELY,2022-08-20 23:50,-114.8453,39.2950,1909.00,82.40,42.80,24.72,50.00,15.00,0.00,30.10,M,10.00,22.00,FEW,M,M,M,10000.00,M,M,M,M,M,M,M,26.00,330.00,2022-08-20 23:33,80.39,KELY 202350Z AUTO 05015G22KT 10SM FEW100 28/06 A3010 RMK AO2 PK WND 33026/2333 WSHFT 2330,M
LAS,2022-08-20 23:52,-115.1634,36.0719,663.00,98.60,53.60,22.29,230.00,5.00,0.00,29.80,M,10.00,M,SCT,SCT,BKN,M,13000.00,16000.00,22000.00,M,VCTS,M,M,M,M,M,M,96.51,KLAS 202352Z 23005KT 10SM VCTS SCT130CB SCT160 BKN220 37/12 A2980 RMK AO2 WSHFT 2312 LTG DSNT SE-SW TSE03 TS VC S CB DSNT E-SE SH DSNT S-SW,M
DRA,2022-08-20 23:53,-116.0278,36.6206,1009.00,101.00,40.00,12.40,M,5.00,0.00,29.85,1005.00,10.00,17.00,CLR,M,M,M,M,M,M,M,M,M,M,M,M,M,M,96.01,KDRA 202353Z AUTO VRB05G17KT 10SM CLR 38/04 A2985 RMK AO2 SLP050 T03830044 10394 20328 56015,M
P68,2022-08-20 23:53,-116.0056,39.6014,1993.00,84.00,40.00,20.99,10.00,9.00,0.00,30.07,1009.50,M,M,M,M,M,M,M,M,M,M,M,M,M,M,M,M,M,81.33,KP68 202353Z AUTO 01009KT 29/04 A3007 RMK AO1 SLP095 T02890044 10306 20267 56008,M
VGT,2022-08-20 23:53,-115.1933,36.2111,667.00,99.00,52.00,20.77,240.00,13.00,0.00,29.78,1006.90,10.00,M,CLR,M,M,M,M,M,M,M,M,M,M,M,M,M,M,96.47,KVGT 202353Z 24013KT 10SM CLR 37/11 A2978 RMK AO2 WSHFT 2250 LTG DSNT SE AND S SLP069 T03720111 10378 20328 56021,M
ELY,2022-08-20 23:53,-114.8453,39.2950,1909.00,83.00,42.00,23.68,10.00,14.00,0.00,30.10,1009.40,10.00,22.00,FEW,M,M,M,10000.00,M,M,M,M,M,M,M,26.00,330.00,2022-08-20 23:33,80.68,KELY 202353Z AUTO 01014G22KT 10SM FEW100 28/06 A3010 RMK AO2 PK WND 33026/2333 WSHFT 2330 SLP094 T02830056 10294 20250 55003,M
LOL,2022-08-20 23:53,-118.5701,40.0684,1192.43,94.00,38.00,14.20,160.00,3.00,0.00,29.92,1008.80,10.00,M,CLR,M,M,M,M,M,M,M,M,M,M,M,M,M,M,89.48,KLOL 202353Z AUTO 16003KT 10SM CLR 34/03 A2992 RMK AO2 SLP088 T03440033 10361 20300 56013,M
TMT,2022-08-20 23:55,-117.1971,39.4643,1749.34,M,M,M,30.00,6.00,0.00,30.09,M,10.00,16.00,SCT,M,M,M,11000.00,M,M,M,M,M,M,M,M,M,M,M,KTMT 202355Z AUTO 03006G16KT 10SM SCT110 A3009 RMK AO2,M
RTS,2022-08-20 23:55,-119.8764,39.6682,1539.00,91.40,28.40,10.48,290.00,10.00,0.00,30.04,M,10.00,18.00,CLR,M,M,M,M,M,M,M,M,M,M,M,M,M,M,86.53,KRTS 202355Z AUTO 29010G18KT 260V320 10SM CLR 33/M02 A3004 RMK AO2,M
RNO,2022-08-20 23:55,-119.7711,39.4839,1341.00,95.00,39.00,14.33,120.00,5.00,0.00,29.96,1008.30,10.00,M,FEW,M,M,M,10000.00,M,M,M,M,M,M,M,M,M,M,90.55,KRNO 202355Z 12005KT 10SM FEW100 35/04 A2996 RMK AO2 SLP083 T03500039 10361 20283 56013,M
CXP,2022-08-20 23:55,-119.7326,39.1923,1431.00,95.00,30.20,10.09,M,6.00,0.00,30.01,M,10.00,11.00,CLR,M,M,M,M,M,M,M,M,M,M,M,M,M,M,89.48,KCXP 202355Z AUTO VRB06G11KT 10SM CLR 35/M01 A3001 RMK AO2,M
MEV,2022-08-20 23:55,-119.7500,38.9963,1441.42,93.20,33.80,12.34,260.00,8.00,0.00,30.00,M,10.00,13.00,CLR,M,M,M,M,M,M,M,M,M,M,M,M,M,M,88.55,KMEV 202355Z AUTO 26008G13KT 10SM CLR 34/01 A3000 RMK AO2,M
BAM,2022-08-20 23:55,-116.8743,40.5990,1382.36,93.20,42.80,17.55,330.00,10.00,0.00,29.98,M,10.00,17.00,CLR,M,M,M,M,M,M,M,M,M,M,M,M,M,M,89.17,KBAM 202355Z AUTO 33010G17KT 10SM CLR 34/06 A2998 RMK AO1,M
HTH,2022-08-20 23:55,-118.6315,38.5448,1282.89,95.00,30.20,10.09,320.00,9.00,0.00,29.94,M,10.00,14.00,CLR,M,M,M,M,M,M,M,M,M,M,M,M,M,M,89.48,KHTH 202355Z AUTO 32009G14KT 10SM CLR 35/M01 A2994 RMK A01,M
BVU,2022-08-20 23:55,-114.8611,35.9475,671.00,96.80,60.80,30.53,190.00,13.00,0.00,29.81,M,M,18.00,M,M,M,M,M,M,M,M,M,M,M,M,M,M,M,97.33,KBVU 202355Z AUTO 19013G18KT 36/16 A2981 RMK AO2 PWINO TSNO,M
HND,2022-08-20 23:56,-115.1344,35.9729,742.79,95.00,52.00,23.47,210.00,7.00,0.00,29.86,1009.60,6.00,19.00,FEW,M,M,M,10000.00,M,M,M,TS HZ,M,M,M,M,M,M,92.31,KHND 202356Z 21007G19KT 160V240 6SM TS HZ FEW100 35/11 A2986 RMK AO2 WSHFT 2314 LTG DSNT S AND SW TSB02E25B28E43B44 PRESRR SLP096 T03500111 10378 20322 55006,M
NFL,2022-08-20 23:56,-118.7010,39.4166,1199.00,96.00,32.00,10.49,20.00,5.00,0.00,29.93,1010.70,10.00,M,FEW,M,M,M,9000.00,M,M,M,M,M,M,M,M,M,M,90.61,KNFL 202356Z 02005KT 10SM FEW090 36/00 A2993 RMK AO2 SLP107 T03560000 10367 20300 56012,M
EKO,2022-08-20 23:56,-115.7860,40.8242,1367.00,80.00,44.00,28.01,120.00,6.00,0.00,30.01,1011.40,10.00,M,CLR,M,M,M,M,M,M,M,M,M,M,M,M,M,M,79.12,KEKO 202356Z AUTO 12006KT 10SM CLR 27/07 A3001 RMK AO2 SLP114 T02670067 10283 20211 57010 $,M
WMC,2022-08-20 23:56,-117.8072,40.9019,1315.00,94.00,41.00,16.02,0.00,0.00,0.00,29.96,1009.20,10.00,M,CLR,M,M,M,M,M,M,M,M,M,M,M,M,M,M,89.68,KWMC 202356Z AUTO 00000KT 10SM CLR 34/05 A2996 RMK AO2 SLP092 T03440050 10356 20300 56010 $,M
LAS,2022-08-20 23:56,-115.1634,36.0719,663.00,98.00,51.00,20.64,M,6.00,0.00,29.81,1006.20,10.00,M,SCT,SCT,BKN,M,13000.00,16000.00,22000.00,M,VCTS,M,M,M,M,M,M,95.30,KLAS 202356Z VRB06KT 10SM VCTS SCT130CB SCT160 BKN220 37/11 A2981 RMK AO2 WSHFT 2312 LTG DSNT SE-SW TSE03 SLP062 TS VC S CB DSNT E-SE SH DSNT S-SW T03670106 10378 20322 55007,M
TPH,2022-08-20 23:56,-117.0904,38.0505,1654.00,91.00,30.90,11.76,260.00,10.00,0.00,30.04,1008.40,10.00,14.00,CLR,M,M,M,M,M,M,M,M,M,M,M,M,M,M,86.48,KTPH 202356Z AUTO 26010G14KT 10SM CLR 33/M01 A3004 RMK AO2 SLP084 T03281006 10333 20283 56012,M
INS,2022-08-20 23:58,-115.6733,36.5872,955.00,100.00,42.00,13.92,320.00,10.00,0.00,29.84,1004.90,10.00,16.00,BKN,BKN,M,M,12000.00,16000.00,M,M,M,M,M,M,M,M,M,95.46,KINS 202358Z AUTO 32010G16KT 10SM BKN120 BKN160 38/06 A2984 RMK AO2 SLP049 T03770056 10377 20322 55017 $,M
LSV,2022-08-20 23:58,-115.0343,36.2362,570.00,100.20,56.80,23.86,280.00,5.00,0.00,29.76,1005.00,10.00,M,CLR,M,M,M,M,M,M,M,M,M,M,M,M,M,M,99.38,KLSV 202358Z AUTO 28005KT 10SM CLR 38/14 A2976 RMK AO2 SLP050 T03790138 10410 20347 55020 $,M
