station,valid,lon,lat,elevation,tmpf,dwpf,relh,drct,sknt,p01i,alti,mslp,vsby,gust,skyc1,skyc2,skyc3,skyc4,skyl1,skyl2,skyl3,skyl4,wxcodes,ice_accretion_1hr,ice_accretion_3hr,ice_accretion_6hr,peak_wind_gust,peak_wind_drct,peak_wind_time,feel,metar,snowdepth
INS,2023-05-20 00:00,-115.6733,36.5872,955.00,82.40,33.80,17.38,180.00,18.00,0.00,29.98,1010.80,10.00,31.00,FEW,FEW,BKN,OVC,6000.00,8000.00,9500.00,11000.00,M,M,M,M,M,M,M,80.03,KINS 200000Z AUTO 18018G31KT 10SM FEW060 FEW080 BKN095 OVC110 28/01 A2998 RMK AO2 RAE2358DZB2358E2359RAB2359E00 SLP108 $,M
INS,2023-05-20 00:04,-115.6733,36.5872,955.00,84.20,32.00,15.25,160.00,14.00,0.00,29.98,1010.80,10.00,31.00,FEW,BKN,OVC,M,8000.00,9500.00,12000.00,M,M,M,M,M,M,M,M,81.28,KINS 200004Z AUTO 16014G31KT 10SM FEW080 BKN095 OVC120 29/00 A2998 RMK AO2 WSHFT 2352 RAE2358DZB2358E2359RAB2359E00 SLP108 $,M
DRA,2023-05-20 00:06,-116.0278,36.6206,1009.00,87.00,39.00,18.35,120.00,24.00,0.00,29.99,M,10.00,35.00,CLR,M,M,M,M,M,M,M,M,M,M,M,35.00,130.00,2023-05-19 23:57,83.65,KDRA 200006Z AUTO 12024G35KT 10SM CLR 31/04 A2999 RMK AO2 PK WND 13035/2357 WSHFT 2349 T03060039,M
05U,2023-05-20 00:10,-116.0051,39.6042,1811.23,78.80,28.40,15.71,10.00,6.00,0.00,30.19,M,10.00,M,CLR,M,M,M,M,M,M,M,M,M,M,M,M,M,M,78.80,K05U 200010Z AUTO 01006KT 10SM CLR 26/M02 A3019 RMK A01,M
BVU,2023-05-20 00:15,-114.8611,35.9475,671.00,95.00,39.20,14.44,120.00,4.00,0.00,29.89,M,10.00,11.00,FEW,M,M,M,12000.00,M,M,M,M,M,M,M,M,M,M,90.57,KBVU 200015Z AUTO 12004G11KT 10SM FEW120 35/04 A2989 RMK AO2,M
CXP,2023-05-20 00:15,-119.7326,39.1923,1431.00,86.00,26.60,11.55,280.00,12.00,0.00,30.10,M,10.00,M,CLR,M,M,M,M,M,M,M,M,M,M,M,M,M,M,82.39,KCXP 200015Z AUTO 28012KT 10SM CLR 30/M03 A3010 RMK AO2,M
RTS,2023-05-20 00:15,-119.8764,39.6682,1539.00,80.60,33.80,18.42,M,3.00,0.00,30.13,M,10.00,M,SCT,M,M,M,12000.00,M,M,M,M,M,M,M,M,M,M,78.88,KRTS 200015Z AUTO VRB03KT 10SM SCT120 27/01 A3013 RMK AO2,M
MEV,2023-05-20 00:15,-119.7500,38.9963,1441.42,82.40,41.00,23.07,280.00,11.00,0.00,30.09,M,10.00,17.00,CLR,M,M,M,M,M,M,M,M,M,M,M,M,M,M,80.29,KMEV 200015Z AUTO 28011G17KT 10SM CLR 28/05 A3009 RMK AO2,M
BAM,2023-05-20 00:15,-116.8743,40.5990,1382.36,82.40,35.60,18.67,0.00,0.00,0.00,30.11,M,10.00,M,CLR,M,M,M,M,M,M,M,M,M,M,M,M,M,M,80.08,KBAM 200015Z AUTO 00000KT 10SM CLR 28/02 A3011 RMK AO1,M
HTH,2023-05-20 00:15,-118.6315,38.5448,1282.89,87.80,19.40,8.06,300.00,11.00,0.00,30.04,M,10.00,M,CLR,M,M,M,M,M,M,M,M,M,M,M,M,M,M,83.23,KHTH 200015Z AUTO 30011KT 10SM CLR 31/M07 A3004 RMK A01,M
TMT,2023-05-20 00:15,-117.1971,39.4643,1749.34,79.70,30.20,16.41,30.00,9.00,0.00,30.16,M,10.00,M,CLR,M,M,M,M,M,M,M,M,M,M,M,M,M,M,79.70,KTMT 200015Z AUTO 03009KT 10SM CLR 27/M01 A3016 RMK AO2 LTG DSNT S AND W T02651010,M
10U,2023-05-20 00:15,-116.1876,41.9532,1637.00,77.00,37.40,23.93,M,6.00,0.00,30.18,M,10.00,M,CLR,M,M,M,M,M,M,M,M,M,M,M,M,M,M,77.00,K10U 200015Z AUTO VRB06KT 10SM CLR 25/03 A3018 RMK AO2,M
INS,2023-05-20 00:28,-115.6733,36.5872,955.00,84.20,33.80,16.39,190.00,14.00,0.00,29.98,1010.80,10.00,M,FEW,FEW,BKN,BKN,10000.00,12000.00,16000.00,19000.00,M,M,M,M,M,M,M,81.30,KINS 200028Z AUTO 19014KT 10SM FEW100 FEW120 BKN160 BKN190 29/01 A2998 RMK AO2 WSHFT 16 RAE2358DZB2358E2359RAB2359E00 SLP108 $,M
05U,2023-05-20 00:30,-116.0051,39.6042,1811.23,77.00,30.20,17.94,360.00,8.00,0.00,30.19,M,10.00,M,CLR,M,M,M,M,M,M,M,M,M,M,M,M,M,M,77.00,K05U 200030Z AUTO 36008KT 10SM CLR 25/M01 A3019 RMK A01,M
BVU,2023-05-20 00:35,-114.8611,35.9475,671.00,95.00,39.20,14.44,180.00,11.00,0.00,29.89,M,10.00,16.00,BKN,M,M,M,12000.00,M,M,M,M,M,M,M,M,M,M,90.57,KBVU 200035Z AUTO 18011G16KT 10SM BKN120 35/04 A2989 RMK AO2,M
CXP,2023-05-20 00:35,-119.7326,39.1923,1431.00,86.00,30.20,13.38,250.00,9.00,0.00,30.10,M,10.00,14.00,CLR,M,M,M,M,M,M,M,M,M,M,M,M,M,M,82.64,KCXP 200035Z AUTO 25009G14KT 10SM CLR 30/M01 A3010 RMK AO2,M
RTS,2023-05-20 00:35,-119.8764,39.6682,1539.00,78.80,33.80,19.55,20.00,3.00,0.00,30.13,M,10.00,M,SCT,M,M,M,12000.00,M,M,M,M,M,M,M,M,M,M,78.80,KRTS 200035Z AUTO 02003KT 10SM SCT120 26/01 A3013 RMK AO2,M
MEV,2023-05-20 00:35,-119.7500,38.9963,1441.42,82.40,41.00,23.07,270.00,12.00,0.00,30.10,M,10.00,19.00,CLR,M,M,M,M,M,M,M,M,M,M,M,M,M,M,80.29,KMEV 200035Z AUTO 27012G19KT 10SM CLR 28/05 A3010 RMK AO2,M
BAM,2023-05-20 00:35,-116.8743,40.5990,1382.36,86.00,35.60,16.63,60.00,6.00,0.00,30.11,M,10.00,M,CLR,M,M,M,M,M,M,M,M,M,M,M,M,M,M,82.69,KBAM 200035Z AUTO 06006KT 010V070 10SM CLR 30/02 A3011 RMK AO1,M
HTH,2023-05-20 00:35,-118.6315,38.5448,1282.89,87.80,24.80,10.12,300.00,11.00,0.00,30.04,M,10.00,M,CLR,M,M,M,M,M,M,M,M,M,M,M,M,M,M,83.56,KHTH 200035Z AUTO 30011KT 10SM CLR 31/M04 A3004 RMK A01,M
TMT,2023-05-20 00:35,-117.1971,39.4643,1749.34,79.30,31.80,17.74,360.00,10.00,0.00,30.17,M,10.00,M,CLR,M,M,M,M,M,M,M,M,M,M,M,M,M,M,79.30,KTMT 200035Z AUTO 36010KT 10SM CLR 26/00 A3017 RMK AO2 T02631001,M
10U,2023-05-20 00:35,-116.1876,41.9532,1637.00,77.00,37.40,23.93,340.00,7.00,0.00,30.18,M,10.00,M,FEW,M,M,M,9500.00,M,M,M,M,M,M,M,M,M,M,77.00,K10U 200035Z AUTO 34007KT 10SM FEW095 25/03 A3018 RMK AO2,M
LSV,2023-05-20 00:46,-115.0343,36.2362,570.00,93.20,39.20,15.27,260.00,30.00,0.00,29.84,1008.10,9.00,36.00,FEW,M,M,M,12000.00,M,M,M,SQ,M,M,M,M,M,M,88.92,KLSV 200046Z AUTO 26030G36KT 9SM SQ FEW120 34/04 A2984 RMK AO2 SLP081 $,M
05U,2023-05-20 00:50,-116.0051,39.6042,1811.23,77.00,32.00,19.30,360.00,8.00,0.00,30.19,M,10.00,M,CLR,M,M,M,M,M,M,M,M,M,M,M,M,M,M,77.00,K05U 200050Z AUTO 36008KT 10SM CLR 25/M00 A3019 RMK A01,M
HTH,2023-05-20 00:50,-118.6315,38.5448,1282.89,86.00,26.60,11.55,280.00,8.00,0.00,30.04,M,10.00,M,CLR,M,M,M,M,M,M,M,M,M,M,M,M,M,M,82.39,KHTH 200050Z AUTO 28008KT 10SM CLR 30/M03 A3004 RMK A01,M
P68,2023-05-20 00:53,-116.0056,39.6014,1993.00,77.00,30.90,18.46,10.00,10.00,0.00,30.16,1015.20,M,M,M,M,M,M,M,M,M,M,M,M,M,M,M,M,M,77.00,KP68 200053Z AUTO 01010KT 25/M01 A3016 RMK AO1 SLP152 T02501006,M
ELY,2023-05-20 00:53,-114.8453,39.2950,1909.00,74.00,34.00,23.19,360.00,11.00,0.00,30.18,1014.80,10.00,M,CLR,M,M,M,M,M,M,M,M,M,M,M,M,M,M,73.90,KELY 200053Z AUTO 36011KT 10SM CLR 23/01 A3018 RMK AO2 SLP148 T02330011,M
LOL,2023-05-20 00:53,-118.5701,40.0684,1192.43,86.00,39.00,19.01,50.00,9.00,0.00,30.03,1013.90,10.00,M,CLR,M,M,M,M,M,M,M,M,M,M,M,M,M,M,82.78,KLOL 200053Z AUTO 05009KT 10SM CLR 30/04 A3003 RMK AO2 SLP139 T03000039,M
DRA,2023-05-20 00:53,-116.0278,36.6206,1009.00,86.00,38.00,18.20,120.00,19.00,0.00,29.99,1011.10,10.00,31.00,FEW,M,M,M,11000.00,M,M,M,M,M,M,M,36.00,130.00,2023-05-20 00:19,82.74,KDRA 200053Z AUTO 12019G31KT 10SM FEW110 30/03 A2999 RMK AO2 PK WND 13036/0019 WSHFT 2349 SLP111 T03000033,M
VGT,2023-05-20 00:53,-115.1933,36.2111,667.00,91.00,42.00,18.30,290.00,29.00,0.00,29.89,1011.40,10.00,42.00,SCT,M,M,M,12000.00,M,M,M,M,M,M,M,42.00,300.00,2023-05-20 00:51,87.11,KVGT 200053Z 29029G42KT 10SM SCT120 33/06 A2989 RMK AO2 PK WND 30042/0051 LTG DSNT S AND W SLP114 T03280056,M
BVU,2023-05-20 00:55,-114.8611,35.9475,671.00,93.20,39.20,15.27,210.00,11.00,0.00,29.90,M,10.00,18.00,OVC,M,M,M,11000.00,M,M,M,M,M,M,M,M,M,M,88.92,KBVU 200055Z AUTO 21011G18KT 10SM OVC110 34/04 A2990 RMK AO2,M
CXP,2023-05-20 00:55,-119.7326,39.1923,1431.00,84.20,28.40,13.18,280.00,12.00,0.00,30.10,M,10.00,M,CLR,M,M,M,M,M,M,M,VCTS,M,M,M,M,M,M,81.25,KCXP 200055Z AUTO 28012KT 10SM VCTS CLR 29/M02 A3010 RMK AO2 LTG DSNT SE,M
RNO,2023-05-20 00:55,-119.7711,39.4839,1341.00,89.00,32.00,13.05,320.00,10.00,0.00,30.06,1012.50,10.00,M,BKN,M,M,M,11000.00,M,M,M,M,M,M,M,M,M,M,85.15,KRNO 200055Z 32010KT 10SM BKN110 32/00 A3006 RMK AO2 SLP125 CB DSNT N THRU NE AND SE THRU S T03170000 $,M
RTS,2023-05-20 00:55,-119.8764,39.6682,1539.00,77.00,39.20,25.67,270.00,9.00,0.00,30.13,M,10.00,M,CLR,M,M,M,M,M,M,M,M,M,M,M,M,M,M,77.00,KRTS 200055Z AUTO 27009KT 10SM CLR 25/04 A3013 RMK AO2,M
MEV,2023-05-20 00:55,-119.7500,38.9963,1441.42,82.40,44.60,26.49,280.00,13.00,0.00,30.10,M,10.00,M,CLR,M,M,M,M,M,M,M,VCTS,M,M,M,M,M,M,80.50,KMEV 200055Z AUTO 28013KT 10SM VCTS CLR 28/07 A3010 RMK AO2 LTG DSNT E,M
BAM,2023-05-20 00:55,-116.8743,40.5990,1382.36,82.40,33.80,17.38,90.00,5.00,0.00,30.10,M,10.00,M,CLR,M,M,M,M,M,M,M,M,M,M,M,M,M,M,80.03,KBAM 200055Z AUTO 09005KT 10SM CLR 28/01 A3010 RMK AO1,M
TMT,2023-05-20 00:55,-117.1971,39.4643,1749.34,76.80,32.20,19.58,360.00,7.00,0.00,30.17,M,10.00,M,CLR,M,M,M,M,M,M,M,M,M,M,M,M,M,M,76.80,KTMT 200055Z AUTO 36007KT 10SM CLR 25/00 A3017 RMK AO2 LTG DSNT S T02490001,M
10U,2023-05-20 00:55,-116.1876,41.9532,1637.00,75.20,37.40,25.40,10.00,4.00,0.00,30.17,M,10.00,M,CLR,M,M,M,M,M,M,M,M,M,M,M,M,M,M,75.20,K10U 200055Z AUTO 01004KT 10SM CLR 24/03 A3017 RMK AO2,M
INS,2023-05-20 00:55,-115.6733,36.5872,955.00,81.70,35.40,18.95,200.00,22.00,T,29.98,1010.90,10.00,27.00,SCT,M,M,M,19000.00,M,M,M,M,M,M,M,31.00,190.00,2023-05-19 23:54,79.62,KINS 200055Z AUTO 20022G27KT 10SM SCT190 28/02 A2998 RMK AO2 PK WND 19031/2354 RAE2358DZB2358E2359RAB2359E00 SLP109 P0000 T02760019 $,M
LSV,2023-05-20 00:55,-115.0343,36.2362,570.00,92.80,40.00,15.89,260.00,18.00,0.00,29.85,1008.40,9.00,36.00,FEW,M,M,M,12000.00,M,M,M,SQ,M,M,M,36.00,260.00,2023-05-20 00:45,88.60,KLSV 200055Z AUTO 26018G36KT 9SM SQ FEW120 34/04 A2985 RMK AO2 PK WND 26036/45 SLP084 T03380044 $,M
EKO,2023-05-20 00:56,-115.7860,40.8242,1367.00,80.00,34.00,18.88,60.00,4.00,0.00,30.14,1016.30,10.00,M,CLR,M,M,M,M,M,M,M,M,M,M,M,M,M,M,78.70,KEKO 200056Z AUTO 06004KT 10SM CLR 27/01 A3014 RMK AO2 SLP163 T02670011,M
WMC,2023-05-20 00:56,-117.8072,40.9019,1315.00,86.00,34.00,15.60,50.00,6.00,0.00,30.07,1014.00,10.00,M,CLR,M,M,M,M,M,M,M,M,M,M,M,M,M,M,82.66,KWMC 200056Z AUTO 05006KT 10SM CLR 30/01 A3007 RMK AO2 SLP140 T03000011,M
NFL,2023-05-20 00:56,-118.7010,39.4166,1199.00,90.00,28.00,10.78,350.00,11.00,0.00,30.02,1013.70,10.00,15.00,SCT,SCT,SCT,M,7000.00,10000.00,20000.00,M,M,M,M,M,M,M,M,85.43,KNFL 200056Z 35011G15KT 10SM SCT070 SCT100 SCT200 32/M02 A3002 RMK AO2 SLP137 CB DSNT ALQDS T03221022,M
TPH,2023-05-20 00:56,-117.0904,38.0505,1654.00,M,M,M,M,M,0.00,30.12,M,M,M,M,M,M,M,M,M,M,M,M,M,M,M,M,M,M,M,KTPH 200056Z AUTO A3012 RMK AO2 LTG DSNT NE SLPNO PWINO $,M
HND,2023-05-20 00:56,-115.1344,35.9729,742.79,93.00,42.00,17.19,20.00,8.00,0.00,29.93,1012.30,10.00,M,SCT,M,M,M,12000.00,M,M,M,VCTS,M,M,M,M,M,M,88.93,KHND 200056Z 02008KT 10SM VCTS SCT120 34/06 A2993 RMK AO2 LTG DSNT NW TSB51 SLP123 T03390056,M
LAS,2023-05-20 00:56,-115.1634,36.0719,663.00,91.00,40.00,16.80,310.00,16.00,0.00,29.91,1010.30,10.00,33.00,SCT,SCT,BKN,M,10000.00,12000.00,22000.00,M,M,M,M,M,33.00,310.00,2023-05-20 00:47,86.98,KLAS 200056Z 31016G33KT 10SM SCT100CB SCT120 BKN220 33/04 A2991 RMK AO2 PK WND 31033/0047 LTG DSNT S-NW SLP103 CB S-W-N AND DSNT NE MOV S T03280044,M
05U,2023-05-20 01:10,-116.0051,39.6042,1811.23,77.00,33.80,20.74,360.00,8.00,0.00,30.19,M,10.00,M,CLR,M,M,M,M,M,M,M,M,M,M,M,M,M,M,77.00,K05U 200110Z AUTO 36008KT 10SM CLR 25/01 A3019 RMK A01,M
HND,2023-05-20 01:12,-115.1344,35.9729,742.79,89.60,42.80,19.64,340.00,15.00,0.00,29.94,M,10.00,23.00,BKN,M,M,M,12000.00,M,M,M,M,M,M,M,M,M,M,85.93,KHND 200112Z 34015G23KT 10SM BKN120 32/06 A2994 RMK AO2 LTG DSNT SE TSE06,M
BVU,2023-05-20 01:15,-114.8611,35.9475,671.00,87.80,42.80,20.79,210.00,8.00,0.00,29.90,M,10.00,16.00,SCT,M,M,M,11000.00,M,M,M,M,M,M,M,M,M,M,84.40,KBVU 200115Z AUTO 21008G16KT 10SM SCT110 31/06 A2990 RMK AO2 LTG DSNT SE AND S,M
CXP,2023-05-20 01:15,-119.7326,39.1923,1431.00,84.20,37.40,18.91,260.00,11.00,0.00,30.10,M,10.00,17.00,CLR,M,M,M,M,M,M,M,M,M,M,M,M,M,M,81.38,KCXP 200115Z AUTO 26011G17KT 10SM CLR 29/03 A3010 RMK AO2 LTG DSNT N AND SE,M
RTS,2023-05-20 01:15,-119.8764,39.6682,1539.00,73.40,41.00,31.05,320.00,15.00,0.00,30.15,M,7.00,30.00,SCT,M,M,M,12000.00,M,M,M,-DZ,M,M,M,M,M,M,73.40,KRTS 200115Z AUTO 32015G30KT 280V030 7SM -DZ SCT120 23/05 A3015 RMK AO2,M
MEV,2023-05-20 01:15,-119.7500,38.9963,1441.42,78.80,46.40,31.90,280.00,10.00,0.00,30.10,M,10.00,17.00,CLR,M,M,M,M,M,M,M,M,M,M,M,M,M,M,78.80,KMEV 200115Z AUTO 28010G17KT 10SM CLR 26/08 A3010 RMK AO2 LTG DSNT E AND SE,M
BAM,2023-05-20 01:15,-116.8743,40.5990,1382.36,84.20,33.80,16.39,80.00,5.00,0.00,30.10,M,10.00,M,CLR,M,M,M,M,M,M,M,M,M,M,M,M,M,M,81.30,KBAM 200115Z AUTO 08005KT 10SM CLR 29/01 A3010 RMK AO1,M
HTH,2023-05-20 01:15,-118.6315,38.5448,1282.89,84.20,28.40,13.18,290.00,8.00,0.00,30.03,M,10.00,M,CLR,M,M,M,M,M,M,M,M,M,M,M,M,M,M,81.25,KHTH 200115Z AUTO 29008KT 10SM CLR 29/M02 A3003 RMK A01,M
10U,2023-05-20 01:15,-116.1876,41.9532,1637.00,75.20,37.40,25.40,60.00,5.00,0.00,30.17,M,10.00,M,CLR,M,M,M,M,M,M,M,M,M,M,M,M,M,M,75.20,K10U 200115Z AUTO 06005KT 10SM CLR 24/03 A3017 RMK AO2,M
TMT,2023-05-20 01:15,-117.1971,39.4643,1749.34,78.30,33.00,19.17,20.00,12.00,0.00,30.16,M,10.00,M,CLR,M,M,M,M,M,M,M,M,M,M,M,M,M,M,78.30,KTMT 200115Z AUTO 02012KT 10SM CLR 26/01 A3016 RMK AO2 LTG DSNT S T02570005,M
LAS,2023-05-20 01:27,-115.1634,36.0719,663.00,88.00,45.00,22.47,290.00,17.00,0.00,29.91,M,10.00,M,SCT,SCT,BKN,M,10000.00,12000.00,22000.00,M,TS,M,M,M,34.00,320.00,2023-05-20 00:58,84.72,KLAS 200127Z 29017KT 10SM TS SCT100CB SCT120 BKN220 31/07 A2991 RMK AO2 PK WND 32034/0058 LTG DSNT SE TSE23B27 OCNL LTGICCCCG SE-SW-W TS SE-SW-W MOV S CB DSNT NE T03110072,M
HND,2023-05-20 01:29,-115.1344,35.9729,742.79,87.80,44.60,22.27,320.00,18.00,0.00,29.94,M,10.00,24.00,BKN,M,M,M,12000.00,M,M,M,VCTS,M,M,M,M,M,M,84.53,KHND 200129Z 32018G24KT 10SM VCTS BKN120 31/07 A2994 RMK AO2 LTG DSNT SE TSE06B23,M
05U,2023-05-20 01:30,-116.0051,39.6042,1811.23,75.20,35.60,23.66,10.00,8.00,0.00,30.19,M,10.00,M,CLR,M,M,M,M,M,M,M,M,M,M,M,M,M,M,75.20,K05U 200130Z AUTO 01008KT 10SM CLR 24/02 A3019 RMK A01,M
BVU,2023-05-20 01:35,-114.8611,35.9475,671.00,87.80,44.60,22.27,280.00,6.00,0.00,29.91,M,10.00,15.00,CLR,M,M,M,M,M,M,M,M,M,M,M,M,M,M,84.53,KBVU 200135Z AUTO 28006G15KT 10SM CLR 31/07 A2991 RMK AO2,M
CXP,2023-05-20 01:35,-119.7326,39.1923,1431.00,82.40,41.00,23.07,260.00,9.00,0.00,30.10,M,10.00,15.00,CLR,M,M,M,M,M,M,M,M,M,M,M,M,M,M,80.29,KCXP 200135Z AUTO 26009G15KT 230V290 10SM CLR 28/05 A3010 RMK AO2,M
RTS,2023-05-20 01:35,-119.8764,39.6682,1539.00,73.40,37.40,26.98,40.00,8.00,0.00,30.14,M,6.00,23.00,FEW,FEW,SCT,M,400.00,4100.00,12000.00,M,-RA,M,M,M,M,M,M,73.40,KRTS 200135Z AUTO 04008G23KT 020V110 6SM -RA FEW004 FEW041 SCT120 23/03 A3014 RMK AO2,M
MEV,2023-05-20 01:35,-119.7500,38.9963,1441.42,78.80,46.40,31.90,270.00,11.00,0.00,30.10,M,10.00,M,CLR,M,M,M,M,M,M,M,M,M,M,M,M,M,M,78.80,KMEV 200135Z AUTO 27011KT 240V300 10SM CLR 26/08 A3010 RMK AO2,M
BAM,2023-05-20 01:35,-116.8743,40.5990,1382.36,82.40,33.80,17.38,0.00,0.00,0.00,30.10,M,10.00,M,CLR,M,M,M,M,M,M,M,M,M,M,M,M,M,M,80.03,KBAM 200135Z AUTO 00000KT 10SM CLR 28/01 A3010 RMK AO1,M
HTH,2023-05-20 01:35,-118.6315,38.5448,1282.89,84.20,26.60,12.23,290.00,9.00,0.00,30.04,M,10.00,M,CLR,M,M,M,M,M,M,M,M,M,M,M,M,M,M,81.13,KHTH 200135Z AUTO 29009KT 10SM CLR 29/M03 A3004 RMK A01,M
10U,2023-05-20 01:35,-116.1876,41.9532,1637.00,75.20,35.60,23.66,40.00,5.00,0.00,30.17,M,10.00,M,CLR,M,M,M,M,M,M,M,M,M,M,M,M,M,M,75.20,K10U 200135Z AUTO 04005KT 10SM CLR 24/02 A3017 RMK AO2,M
TMT,2023-05-20 01:35,-117.1971,39.4643,1749.34,77.20,33.00,20.04,20.00,11.00,0.00,30.16,M,10.00,M,CLR,M,M,M,M,M,M,M,M,M,M,M,M,M,M,77.20,KTMT 200135Z AUTO 02011KT 10SM CLR 25/01 A3016 RMK AO2 T02510006,M
05U,2023-05-20 01:50,-116.0051,39.6042,1811.23,73.40,39.20,28.96,360.00,6.00,0.00,30.19,M,10.00,M,CLR,M,M,M,M,M,M,M,M,M,M,M,M,M,M,73.40,K05U 200150Z AUTO 36006KT 10SM CLR 23/04 A3019 RMK A01,M
P68,2023-05-20 01:53,-116.0056,39.6014,1993.00,73.00,39.00,29.12,360.00,6.00,0.00,30.16,1014.90,M,M,M,M,M,M,M,M,M,M,M,M,M,M,M,M,M,73.00,KP68 200153Z AUTO 36006KT 23/04 A3016 RMK AO1 SLP149 T02280039,M
DRA,2023-05-20 01:53,-116.0278,36.6206,1009.00,86.00,37.00,17.57,110.00,10.00,0.00,29.96,1009.90,10.00,M,CLR,M,M,M,M,M,M,M,M,M,M,M,28.00,120.00,2023-05-20 01:01,82.72,KDRA 200153Z AUTO 11010KT 10SM CLR 30/03 A2996 RMK AO2 PK WND 12028/0101 SLP099 T03000028,M
VGT,2023-05-20 01:53,-115.1933,36.2111,667.00,89.00,43.00,20.11,270.00,10.00,0.00,29.90,1011.70,10.00,M,CLR,M,M,M,M,M,M,M,M,M,M,M,33.00,300.00,2023-05-20 00:55,85.51,KVGT 200153Z 27010KT 10SM CLR 32/06 A2990 RMK AO2 PK WND 30033/0055 LTG DSNT ALQDS SLP117 T03170061,M
LOL,2023-05-20 01:53,-118.5701,40.0684,1192.43,83.00,39.00,21.00,90.00,6.00,0.00,30.03,1013.60,10.00,M,CLR,M,M,M,M,M,M,M,M,M,M,M,M,M,M,80.53,KLOL 200153Z AUTO 09006KT 10SM CLR 28/04 A3003 RMK AO2 SLP136 T02830039,M
ELY,2023-05-20 01:53,-114.8453,39.2950,1909.00,72.00,35.00,25.83,40.00,11.00,0.00,30.18,1014.30,10.00,M,CLR,M,M,M,M,M,M,M,M,M,M,M,M,M,M,72.00,KELY 200153Z AUTO 04011KT 10SM CLR 22/02 A3018 RMK AO2 SLP143 T02220017,M
BVU,2023-05-20 01:55,-114.8611,35.9475,671.00,87.80,42.80,20.79,260.00,10.00,0.00,29.92,M,10.00,M,BKN,M,M,M,11000.00,M,M,M,M,M,M,M,M,M,M,84.40,KBVU 200155Z AUTO 26010KT 10SM BKN110 31/06 A2992 RMK AO2 LTG DSNT NE AND W,M
CXP,2023-05-20 01:55,-119.7326,39.1923,1431.00,80.60,41.00,24.46,270.00,8.00,0.00,30.10,M,10.00,13.00,CLR,M,M,M,M,M,M,M,M,M,M,M,M,M,M,79.20,KCXP 200155Z AUTO 27008G13KT 10SM CLR 27/05 A3010 RMK AO2,M
RNO,2023-05-20 01:55,-119.7711,39.4839,1341.00,85.00,37.00,18.20,290.00,10.00,0.00,30.07,1012.90,10.00,M,SCT,BKN,M,M,11000.00,20000.00,M,M,M,M,M,M,M,M,M,81.88,KRNO 200155Z 29010KT 10SM SCT110 BKN200 29/03 A3007 RMK AO2 SLP129 VIRGA CB DSNT ALQDS T02940028 $,M
RTS,2023-05-20 01:55,-119.8764,39.6682,1539.00,73.40,46.40,38.18,350.00,5.00,0.10,30.14,M,10.00,M,CLR,M,M,M,M,M,M,M,M,M,M,M,M,M,M,73.40,KRTS 200155Z AUTO 35005KT 10SM CLR 23/08 A3014 RMK AO2 P0010,M
MEV,2023-05-20 01:55,-119.7500,38.9963,1441.42,78.80,46.40,31.90,270.00,12.00,0.00,30.10,M,10.00,M,CLR,M,M,M,M,M,M,M,M,M,M,M,M,M,M,78.80,KMEV 200155Z AUTO 27012KT 10SM CLR 26/08 A3010 RMK AO2,M
BAM,2023-05-20 01:55,-116.8743,40.5990,1382.36,82.40,33.80,17.38,10.00,3.00,0.00,30.10,M,10.00,M,CLR,M,M,M,M,M,M,M,M,M,M,M,M,M,M,80.03,KBAM 200155Z AUTO 01003KT 10SM CLR 28/01 A3010 RMK AO1,M
HTH,2023-05-20 01:55,-118.6315,38.5448,1282.89,84.20,26.60,12.23,280.00,12.00,0.00,30.03,M,10.00,M,CLR,M,M,M,M,M,M,M,M,M,M,M,M,M,M,81.13,KHTH 200155Z AUTO 28012KT 10SM CLR 29/M03 A3003 RMK A01,M
10U,2023-05-20 01:55,-116.1876,41.9532,1637.00,73.40,39.20,28.96,30.00,7.00,0.00,30.17,M,10.00,M,CLR,M,M,M,M,M,M,M,M,M,M,M,M,M,M,73.40,K10U 200155Z AUTO 03007KT 10SM CLR 23/04 A3017 RMK AO2,M
INS,2023-05-20 01:55,-115.6733,36.5872,955.00,84.60,33.40,15.93,200.00,4.00,0.00,29.97,1010.20,10.00,M,CLR,M,M,M,M,M,M,M,M,M,M,M,29.00,190.00,2023-05-20 01:00,81.59,KINS 200155Z AUTO 20004KT 10SM CLR 29/01 A2997 RMK AO2 PK WND 19029/00 SLP102 T02920008 $,M
LSV,2023-05-20 01:55,-115.0343,36.2362,570.00,87.80,43.00,20.95,280.00,20.00,0.00,29.86,1008.80,10.00,26.00,CLR,M,M,M,M,M,M,M,M,M,M,M,31.00,270.00,2023-05-20 01:12,84.41,KLSV 200155Z AUTO 28020G26KT 10SM CLR 31/06 A2986 RMK AO2 PK WND 27031/12 SLP088 T03100061 $,M
TMT,2023-05-20 01:55,-117.1971,39.4643,1749.34,77.00,33.00,20.01,20.00,10.00,0.00,30.17,M,10.00,15.00,CLR,M,M,M,M,M,M,M,M,M,M,M,M,M,M,77.00,KTMT 200155Z AUTO 02010G15KT 10SM CLR 25/01 A3017 RMK AO2 T02500005,M
WMC,2023-05-20 01:56,-117.8072,40.9019,1315.00,83.00,37.00,19.41,30.00,7.00,0.00,30.07,1014.10,10.00,M,CLR,M,M,M,M,M,M,M,M,M,M,M,M,M,M,80.46,KWMC 200156Z AUTO 03007KT 10SM CLR 28/03 A3007 RMK AO2 SLP141 T02830028,M
NFL,2023-05-20 01:56,-118.7010,39.4166,1199.00,88.00,30.00,12.46,40.00,5.00,0.00,30.02,1013.50,10.00,M,SCT,SCT,SCT,M,7000.00,10000.00,20000.00,M,M,M,M,M,M,M,M,84.13,KNFL 200156Z 04005KT 10SM SCT070 SCT100 SCT200 31/M01 A3002 RMK AO2 SLP135 CB DSNT NW T03111011,M
TPH,2023-05-20 01:56,-117.0904,38.0505,1654.00,M,M,M,M,M,0.00,30.12,M,M,M,M,M,M,M,M,M,M,M,M,M,M,M,M,M,M,M,KTPH 200156Z AUTO A3012 RMK AO2 SLPNO PWINO $,M
LAS,2023-05-20 01:56,-115.1634,36.0719,663.00,87.00,43.00,21.42,270.00,11.00,0.00,29.91,1010.30,10.00,23.00,SCT,SCT,BKN,M,10000.00,12000.00,20000.00,M,TS,M,M,M,34.00,320.00,2023-05-20 00:58,83.84,KLAS 200156Z 27011G23KT 10SM TS SCT100CB SCT120 BKN200 31/06 A2991 RMK AO2 PK WND 32034/0058 LTG DSNT E-SW TSE23B27 SLP103 OCNL LTGICCCCG SE-SW-W TS SE-SW-W MOV S CB DSNT N -E VCSH SE-SW AND DSNT N T03060061,M
EKO,2023-05-20 01:56,-115.7860,40.8242,1367.00,78.00,35.00,21.07,M,4.00,0.00,30.13,1015.70,10.00,M,CLR,M,M,M,M,M,M,M,M,M,M,M,M,M,M,78.10,KEKO 200156Z AUTO VRB04KT 10SM CLR 26/02 A3013 RMK AO2 SLP157 T02560017,M
HND,2023-05-20 01:56,-115.1344,35.9729,742.79,85.00,47.00,26.66,260.00,14.00,0.00,29.95,1013.20,10.00,19.00,SCT,M,M,M,12000.00,M,M,M,VCTS,M,M,M,29.00,310.00,2023-05-20 01:35,82.42,KHND 200156Z 26014G19KT 10SM VCTS SCT120 29/08 A2995 RMK AO2 PK WND 31029/0135 WSHFT 0139 LTG DSNT ALQDS TSE06B23 SLP132 T02940083,M
HND,2023-05-20 02:03,-115.1344,35.9729,742.79,84.20,46.40,26.76,290.00,12.00,0.00,29.96,M,10.00,M,BKN,M,M,M,11000.00,M,M,M,VCTS,M,M,M,M,M,M,81.87,KHND 200203Z 29012KT 10SM VCTS BKN110 29/08 A2996 RMK AO2 WSHFT 0143 LTG DSNT NE-S,M
05U,2023-05-20 02:10,-116.0051,39.6042,1811.23,71.60,41.00,33.00,360.00,4.00,0.00,30.19,M,10.00,M,CLR,M,M,M,M,M,M,M,M,M,M,M,M,M,M,71.60,K05U 200210Z AUTO 36004KT 10SM CLR 22/05 A3019 RMK A01,M
BVU,2023-05-20 02:15,-114.8611,35.9475,671.00,84.20,48.20,28.63,250.00,10.00,0.00,29.93,M,10.00,M,FEW,SCT,BKN,M,4300.00,6500.00,11000.00,M,VCTS,M,M,M,M,M,M,82.04,KBVU 200215Z AUTO 25010KT 10SM VCTS FEW043 SCT065 BKN110 29/09 A2993 RMK AO2 LTG DSNT SW,M
CXP,2023-05-20 02:15,-119.7326,39.1923,1431.00,80.60,41.00,24.46,270.00,5.00,0.00,30.11,M,10.00,10.00,CLR,M,M,M,M,M,M,M,M,M,M,M,M,M,M,79.20,KCXP 200215Z AUTO 27005G10KT 10SM CLR 27/05 A3011 RMK AO2,M
RTS,2023-05-20 02:15,-119.8764,39.6682,1539.00,73.40,53.60,49.90,350.00,6.00,0.00,30.14,M,10.00,M,CLR,M,M,M,M,M,M,M,M,M,M,M,M,M,M,73.40,KRTS 200215Z AUTO 35006KT 10SM CLR 23/12 A3014 RMK AO2,M
MEV,2023-05-20 02:15,-119.7500,38.9963,1441.42,77.00,46.40,33.85,270.00,11.00,0.00,30.10,M,10.00,M,CLR,M,M,M,M,M,M,M,M,M,M,M,M,M,M,77.00,KMEV 200215Z AUTO 27011KT 10SM CLR 25/08 A3010 RMK AO2,M
BAM,2023-05-20 02:15,-116.8743,40.5990,1382.36,80.60,35.60,19.79,50.00,4.00,0.00,30.10,M,10.00,M,CLR,M,M,M,M,M,M,M,M,M,M,M,M,M,M,78.94,KBAM 200215Z AUTO 05004KT 10SM CLR 27/02 A3010 RMK AO1,M
HTH,2023-05-20 02:15,-118.6315,38.5448,1282.89,82.40,24.80,12.03,290.00,11.00,0.00,30.04,M,10.00,20.00,CLR,M,M,M,M,M,M,M,M,M,M,M,M,M,M,79.79,KHTH 200215Z AUTO 29011G20KT 10SM CLR 28/M04 A3004 RMK A01,M
TMT,2023-05-20 02:15,-117.1971,39.4643,1749.34,75.70,32.00,20.15,20.00,6.00,0.00,30.18,M,10.00,M,CLR,M,M,M,M,M,M,M,M,M,M,M,M,M,M,75.70,KTMT 200215Z AUTO 02006KT 10SM CLR 24/00 A3018 RMK AO2 T02430000,M
10U,2023-05-20 02:15,-116.1876,41.9532,1637.00,71.60,41.00,33.00,40.00,6.00,0.00,30.17,M,10.00,M,CLR,M,M,M,M,M,M,M,M,M,M,M,M,M,M,71.60,K10U 200215Z AUTO 04006KT 10SM CLR 22/05 A3017 RMK AO2,M
HND,2023-05-20 02:20,-115.1344,35.9729,742.79,86.00,42.80,22.02,250.00,12.00,0.00,29.97,M,10.00,22.00,BKN,M,M,M,11000.00,M,M,M,M,M,M,M,M,M,M,82.95,KHND 200220Z 25012G22KT 10SM BKN110 30/06 A2997 RMK AO2 WSHFT 0143 LTG DSNT SE-SW TSE14,M
05U,2023-05-20 02:30,-116.0051,39.6042,1811.23,68.00,42.80,40.00,M,M,0.00,30.20,M,9.00,M,CLR,M,M,M,M,M,M,M,M,M,M,M,M,M,M,68.00,K05U 200230Z AUTO 9SM CLR 20/06 A3020 RMK A01,M
BVU,2023-05-20 02:35,-114.8611,35.9475,671.00,84.20,48.20,28.63,250.00,8.00,0.00,29.94,M,10.00,M,FEW,M,M,M,12000.00,M,M,M,M,M,M,M,M,M,M,82.04,KBVU 200235Z AUTO 25008KT 10SM FEW120 29/09 A2994 RMK AO2,M
CXP,2023-05-20 02:35,-119.7326,39.1923,1431.00,78.80,41.00,25.95,0.00,0.00,0.00,30.12,M,10.00,M,SCT,M,M,M,12000.00,M,M,M,M,M,M,M,M,M,M,78.80,KCXP 200235Z AUTO 00000KT 10SM SCT120 26/05 A3012 RMK AO2,M
RTS,2023-05-20 02:35,-119.8764,39.6682,1539.00,71.60,50.00,46.43,340.00,8.00,0.00,30.14,M,10.00,13.00,CLR,M,M,M,M,M,M,M,M,M,M,M,M,M,M,71.60,KRTS 200235Z AUTO 34008G13KT 10SM CLR 22/10 A3014 RMK AO2,M
MEV,2023-05-20 02:35,-119.7500,38.9963,1441.42,75.20,46.40,35.94,260.00,9.00,0.00,30.10,M,10.00,M,CLR,M,M,M,M,M,M,M,M,M,M,M,M,M,M,75.20,KMEV 200235Z AUTO 26009KT 10SM CLR 24/08 A3010 RMK AO2,M
BAM,2023-05-20 02:35,-116.8743,40.5990,1382.36,78.80,35.60,21.00,40.00,5.00,0.00,30.10,M,10.00,M,CLR,M,M,M,M,M,M,M,M,M,M,M,M,M,M,78.80,KBAM 200235Z AUTO 04005KT 10SM CLR 26/02 A3010 RMK AO1,M
HTH,2023-05-20 02:35,-118.6315,38.5448,1282.89,82.40,28.40,13.96,270.00,11.00,0.00,30.06,M,10.00,19.00,CLR,M,M,M,M,M,M,M,M,M,M,M,M,M,M,79.94,KHTH 200235Z AUTO 27011G19KT 220V300 10SM CLR 28/M02 A3006 RMK A01,M
10U,2023-05-20 02:35,-116.1876,41.9532,1637.00,68.00,41.00,37.32,50.00,7.00,0.00,30.17,M,10.00,M,CLR,M,M,M,M,M,M,M,M,M,M,M,M,M,M,68.00,K10U 200235Z AUTO 05007KT 10SM CLR 20/05 A3017 RMK AO2,M
05U,2023-05-20 02:50,-116.0051,39.6042,1811.23,62.60,42.80,48.28,10.00,5.00,0.00,30.20,M,10.00,M,CLR,M,M,M,M,M,M,M,M,M,M,M,M,M,M,62.60,K05U 200250Z AUTO 01005KT 10SM CLR 17/06 A3020 RMK A01,M
ELY,2023-05-20 02:53,-114.8453,39.2950,1909.00,64.00,34.00,32.56,350.00,5.00,0.00,30.21,1015.20,10.00,M,CLR,M,M,M,M,M,M,M,M,M,M,M,M,M,M,64.00,KELY 200253Z AUTO 35005KT 10SM CLR 18/01 A3021 RMK AO2 SLP152 T01780011 53005,M
VGT,2023-05-20 02:53,-115.1933,36.2111,667.00,88.00,41.00,19.28,260.00,6.00,0.00,29.92,1012.10,10.00,M,CLR,M,M,M,M,M,M,M,M,M,M,M,M,M,M,84.46,KVGT 200253Z 26006KT 10SM CLR 31/05 A2992 RMK AO2 LTG DSNT E SLP121 T03110050 53010,M
LOL,2023-05-20 02:53,-118.5701,40.0684,1192.43,78.00,41.00,26.55,270.00,3.00,0.00,30.04,1013.60,10.00,M,CLR,M,M,M,M,M,M,M,M,M,M,M,M,M,M,78.10,KLOL 200253Z AUTO 27003KT 10SM CLR 26/05 A3004 RMK AO2 SLP136 T02560050 53000,M
P68,2023-05-20 02:53,-116.0056,39.6014,1993.00,63.00,42.00,46.34,340.00,5.00,0.00,30.18,1015.60,M,M,M,M,M,M,M,M,M,M,M,M,M,M,M,M,M,63.00,KP68 200253Z AUTO 34005KT 17/06 A3018 RMK AO1 SLP156 T01720056 53004,M
DRA,2023-05-20 02:53,-116.0278,36.6206,1009.00,84.00,35.00,17.38,110.00,8.00,0.00,29.98,1010.30,10.00,M,CLR,M,M,M,M,M,M,M,M,M,M,M,M,M,M,81.18,KDRA 200253Z AUTO 11008KT 10SM CLR 29/02 A2998 RMK AO2 SLP103 T02890017 55003,M
BVU,2023-05-20 02:55,-114.8611,35.9475,671.00,82.40,50.00,32.46,190.00,6.00,0.00,29.95,M,10.00,M,FEW,M,M,M,12000.00,M,M,M,M,M,M,M,M,M,M,80.99,KBVU 200255Z AUTO 19006KT 10SM FEW120 28/10 A2995 RMK AO2 LTG DSNT NE-SE,M
CXP,2023-05-20 02:55,-119.7326,39.1923,1431.00,78.80,41.00,25.95,250.00,4.00,0.00,30.12,M,10.00,M,FEW,M,M,M,12000.00,M,M,M,M,M,M,M,M,M,M,78.80,KCXP 200255Z AUTO 25004KT 10SM FEW120 26/05 A3012 RMK AO2 LTG DSNT E,M
RNO,2023-05-20 02:55,-119.7711,39.4839,1341.00,82.00,43.00,25.24,280.00,11.00,0.00,30.08,1013.10,10.00,M,SCT,BKN,M,M,10000.00,20000.00,M,M,M,M,M,M,M,M,M,80.15,KRNO 200255Z 28011KT 10SM SCT100 BKN200 28/06 A3008 RMK AO2 LTG DSNT SE SLP131 VIRGA DSNT NE THRU SE CB DSNT NE T02780061 53006 $,M
RTS,2023-05-20 02:55,-119.8764,39.6682,1539.00,69.80,53.60,56.38,320.00,7.00,0.00,30.14,M,10.00,M,CLR,M,M,M,M,M,M,M,M,M,M,M,M,M,M,69.80,KRTS 200255Z AUTO 32007KT 10SM CLR 21/12 A3014 RMK AO2,M
MEV,2023-05-20 02:55,-119.7500,38.9963,1441.42,73.40,44.60,35.66,0.00,0.00,0.00,30.11,M,10.00,M,CLR,M,M,M,M,M,M,M,M,M,M,M,M,M,M,73.40,KMEV 200255Z AUTO 00000KT 10SM CLR 23/07 A3011 RMK AO2 LTG DSNT E,M
BAM,2023-05-20 02:55,-116.8743,40.5990,1382.36,78.80,41.00,25.95,40.00,5.00,0.00,30.11,M,10.00,M,SCT,M,M,M,10000.00,M,M,M,M,M,M,M,M,M,M,78.80,KBAM 200255Z AUTO 04005KT 10SM SCT100 26/05 A3011 RMK AO1,M
HTH,2023-05-20 02:55,-118.6315,38.5448,1282.89,80.60,28.40,14.81,M,5.00,0.00,30.07,M,10.00,13.00,CLR,M,M,M,M,M,M,M,M,M,M,M,M,M,M,78.72,KHTH 200255Z AUTO VRB05G13KT 10SM CLR 27/M02 A3007 RMK A01,M
TMT,2023-05-20 02:55,-117.1971,39.4643,1749.34,70.30,35.40,27.69,10.00,5.00,0.00,30.18,M,10.00,M,CLR,M,M,M,M,M,M,M,M,M,M,M,M,M,M,70.30,KTMT 200255Z AUTO 01005KT 10SM CLR 21/02 A3018 RMK AO2 T02130019,M
10U,2023-05-20 02:55,-116.1876,41.9532,1637.00,66.20,41.00,39.72,40.00,5.00,0.00,30.18,M,10.00,M,CLR,M,M,M,M,M,M,M,M,M,M,M,M,M,M,66.20,K10U 200255Z AUTO 04005KT 10SM CLR 19/05 A3018 RMK AO2,M
INS,2023-05-20 02:55,-115.6733,36.5872,955.00,79.00,39.00,23.85,0.00,0.00,0.00,29.99,1011.10,10.00,M,CLR,M,M,M,M,M,M,M,M,M,M,M,M,M,M,79.00,KINS 200255Z AUTO 00000KT 10SM CLR 26/04 A2999 RMK AO2 SLP111 60000 T02610039 55003 $,M
LSV,2023-05-20 02:55,-115.0343,36.2362,570.00,85.60,41.20,20.97,260.00,6.00,0.00,29.89,1009.80,10.00,M,CLR,M,M,M,M,M,M,M,M,M,M,M,M,M,M,82.56,KLSV 200255Z AUTO 26006KT 10SM CLR 30/05 A2989 RMK AO2 LTG DSNT E SLP098 T02980051 53012 $,M
EKO,2023-05-20 02:56,-115.7860,40.8242,1367.00,73.00,39.00,29.12,90.00,4.00,0.00,30.14,1016.30,10.00,M,CLR,M,M,M,M,M,M,M,M,M,M,M,M,M,M,73.00,KEKO 200256Z AUTO 09004KT 10SM CLR 23/04 A3014 RMK AO2 SLP163 T02280039 55000,M
WMC,2023-05-20 02:56,-117.8072,40.9019,1315.00,77.00,39.00,25.47,50.00,7.00,0.00,30.08,1014.10,10.00,M,CLR,M,M,M,M,M,M,M,M,M,M,M,M,M,M,77.00,KWMC 200256Z AUTO 05007KT 10SM CLR 25/04 A3008 RMK AO2 SLP141 T02500039 55001,M
TPH,2023-05-20 02:56,-117.0904,38.0505,1654.00,M,M,M,M,M,0.00,30.14,M,M,M,M,M,M,M,M,M,M,M,M,M,M,M,M,M,M,M,KTPH 200256Z AUTO A3014 RMK AO2 SLPNO 53006 PWINO $,M
NFL,2023-05-20 02:56,-118.7010,39.4166,1199.00,81.00,38.00,21.39,40.00,8.00,0.00,30.03,1013.90,10.00,M,SCT,SCT,SCT,M,7000.00,10000.00,20000.00,M,M,M,M,M,M,M,M,79.28,KNFL 200256Z 04008KT 10SM SCT070 SCT100 SCT200 27/03 A3003 RMK AO2 SLP139 CB DSNT NW T02720033 53000,M
HND,2023-05-20 02:56,-115.1344,35.9729,742.79,84.00,44.00,24.68,170.00,9.00,0.00,29.97,1013.80,10.00,M,CLR,M,M,M,M,M,M,M,M,M,M,M,M,M,M,81.55,KHND 200256Z 17009KT 10SM CLR 29/07 A2997 RMK AO2 WSHFT 0143 LTG DSNT NE AND E TSE14 SLP138 T02890067 53015,M
LAS,2023-05-20 02:56,-115.1634,36.0719,663.00,86.00,42.00,21.43,210.00,7.00,0.00,29.94,1011.40,10.00,M,SCT,SCT,BKN,M,10000.00,12000.00,20000.00,M,TS,M,M,M,M,M,M,82.92,KLAS 200256Z 21007KT 10SM TS SCT100CB SCT120 BKN200 30/06 A2994 RMK AO2 LTG DSNT E SLP114 OCNL LTGICCCCG E-SE-SW TS E-SE-SW MOV S CB DSNT N-E VCSH SE-SW AND DSNT N T03000056 53015,M
05U,2023-05-20 03:10,-116.0051,39.6042,1811.23,60.80,41.00,48.00,10.00,3.00,0.00,30.21,M,10.00,M,CLR,M,M,M,M,M,M,M,M,M,M,M,M,M,M,60.80,K05U 200310Z AUTO 01003KT 10SM CLR 16/05 A3021 RMK A01,M
BVU,2023-05-20 03:15,-114.8611,35.9475,671.00,80.60,50.00,34.41,160.00,4.00,0.00,29.98,M,10.00,13.00,SCT,M,M,M,11000.00,M,M,M,M,M,M,M,M,M,M,79.88,KBVU 200315Z AUTO 16004G13KT 10SM SCT110 27/10 A2998 RMK AO2 LTG DSNT N AND SE,M
CXP,2023-05-20 03:15,-119.7326,39.1923,1431.00,77.00,42.80,29.51,230.00,4.00,0.00,30.12,M,10.00,M,SCT,M,M,M,12000.00,M,M,M,M,M,M,M,M,M,M,77.00,KCXP 200315Z AUTO 23004KT 10SM SCT120 25/06 A3012 RMK AO2,M
RTS,2023-05-20 03:15,-119.8764,39.6682,1539.00,66.20,51.80,59.74,280.00,6.00,0.00,30.15,M,10.00,M,CLR,M,M,M,M,M,M,M,M,M,M,M,M,M,M,66.20,KRTS 200315Z AUTO 28006KT 10SM CLR 19/11 A3015 RMK AO2,M
MEV,2023-05-20 03:15,-119.7500,38.9963,1441.42,66.20,48.20,52.25,130.00,4.00,0.00,30.12,M,10.00,M,CLR,M,M,M,M,M,M,M,M,M,M,M,M,M,M,66.20,KMEV 200315Z AUTO 13004KT 10SM CLR 19/09 A3012 RMK AO2,M
BAM,2023-05-20 03:15,-116.8743,40.5990,1382.36,73.40,42.80,33.29,50.00,5.00,0.00,30.11,M,10.00,M,CLR,M,M,M,M,M,M,M,M,M,M,M,M,M,M,73.40,KBAM 200315Z AUTO 05005KT 10SM CLR 23/06 A3011 RMK AO1,M
HTH,2023-05-20 03:15,-118.6315,38.5448,1282.89,82.40,28.40,13.96,260.00,7.00,0.00,30.07,M,10.00,15.00,CLR,M,M,M,M,M,M,M,M,M,M,M,M,M,M,79.94,KHTH 200315Z AUTO 26007G15KT 190V290 10SM CLR 28/M02 A3007 RMK A01,M
TMT,2023-05-20 03:15,-117.1971,39.4643,1749.34,67.80,35.60,30.41,40.00,5.00,0.00,30.19,M,10.00,M,CLR,M,M,M,M,M,M,M,M,M,M,M,M,M,M,67.80,KTMT 200315Z AUTO 04005KT 10SM CLR 20/02 A3019 RMK AO2 T01990020,M
10U,2023-05-20 03:15,-116.1876,41.9532,1637.00,64.40,41.00,42.28,30.00,3.00,0.00,30.18,M,10.00,M,CLR,M,M,M,M,M,M,M,M,M,M,M,M,M,M,64.40,K10U 200315Z AUTO 03003KT 10SM CLR 18/05 A3018 RMK AO2,M
05U,2023-05-20 03:30,-116.0051,39.6042,1811.23,59.00,39.20,47.72,M,5.00,0.00,30.21,M,10.00,10.00,CLR,M,M,M,M,M,M,M,M,M,M,M,M,M,M,59.00,K05U 200330Z AUTO VRB05G10KT 10SM CLR 15/04 A3021 RMK A01,M
LAS,2023-05-20 03:31,-115.1634,36.0719,663.00,86.00,42.00,21.43,160.00,4.00,0.00,29.95,M,10.00,M,FEW,SCT,BKN,M,10000.00,12000.00,20000.00,M,M,M,M,M,M,M,M,82.92,KLAS 200331Z 16004KT 10SM FEW100 SCT120 BKN200 30/06 A2995 RMK AO2 TSE31 TS MOV S T03000056,M
BVU,2023-05-20 03:35,-114.8611,35.9475,671.00,82.40,48.20,30.35,240.00,12.00,0.00,29.96,M,10.00,M,FEW,SCT,BKN,M,1900.00,3600.00,5500.00,M,M,M,M,M,M,M,M,80.80,KBVU 200335Z AUTO 24012KT 10SM FEW019 SCT036 BKN055 28/09 A2996 RMK AO2,M
CXP,2023-05-20 03:35,-119.7326,39.1923,1431.00,75.20,44.60,33.57,0.00,0.00,0.00,30.13,M,10.00,M,OVC,M,M,M,12000.00,M,M,M,M,M,M,M,M,M,M,75.20,KCXP 200335Z AUTO 00000KT 10SM OVC120 24/07 A3013 RMK AO2,M
RTS,2023-05-20 03:35,-119.8764,39.6682,1539.00,66.20,48.20,52.25,280.00,9.00,0.00,30.15,M,10.00,M,CLR,M,M,M,M,M,M,M,M,M,M,M,M,M,M,66.20,KRTS 200335Z AUTO 28009KT 10SM CLR 19/09 A3015 RMK AO2,M
MEV,2023-05-20 03:35,-119.7500,38.9963,1441.42,66.20,48.20,52.25,70.00,5.00,0.00,30.12,M,10.00,M,CLR,M,M,M,M,M,M,M,M,M,M,M,M,M,M,66.20,KMEV 200335Z AUTO 07005KT 10SM CLR 19/09 A3012 RMK AO2,M
BAM,2023-05-20 03:35,-116.8743,40.5990,1382.36,71.60,41.00,33.00,60.00,5.00,0.00,30.12,M,10.00,M,CLR,M,M,M,M,M,M,M,M,M,M,M,M,M,M,71.60,KBAM 200335Z AUTO 06005KT 10SM CLR 22/05 A3012 RMK AO1,M
HTH,2023-05-20 03:35,-118.6315,38.5448,1282.89,78.80,28.40,15.71,250.00,6.00,0.00,30.07,M,10.00,M,CLR,M,M,M,M,M,M,M,M,M,M,M,M,M,M,78.80,KHTH 200335Z AUTO 25006KT 10SM CLR 26/M02 A3007 RMK A01,M
TMT,2023-05-20 03:35,-117.1971,39.4643,1749.34,62.60,36.00,37.03,0.00,0.00,0.00,30.19,M,10.00,M,CLR,M,M,M,M,M,M,M,M,M,M,M,M,M,M,62.60,KTMT 200335Z AUTO 00000KT 10SM CLR 17/02 A3019 RMK AO2 T01700022,M
10U,2023-05-20 03:35,-116.1876,41.9532,1637.00,60.80,41.00,48.00,M,3.00,0.00,30.19,M,10.00,M,CLR,M,M,M,M,M,M,M,M,M,M,M,M,M,M,60.80,K10U 200335Z AUTO VRB03KT 10SM CLR 16/05 A3019 RMK AO2,M
05U,2023-05-20 03:50,-116.0051,39.6042,1811.23,60.80,37.40,41.71,360.00,3.00,0.00,30.22,M,10.00,M,CLR,M,M,M,M,M,M,M,M,M,M,M,M,M,M,60.80,K05U 200350Z AUTO 36003KT 10SM CLR 16/03 A3022 RMK A01,M
DRA,2023-05-20 03:53,-116.0278,36.6206,1009.00,81.00,37.00,20.65,110.00,12.00,0.00,30.00,1010.90,10.00,M,CLR,M,M,M,M,M,M,M,M,M,M,M,M,M,M,79.24,KDRA 200353Z AUTO 11012KT 10SM CLR 27/03 A3000 RMK AO2 SLP109 T02720028,M
ELY,2023-05-20 03:53,-114.8453,39.2950,1909.00,57.00,32.00,38.54,0.00,0.00,0.00,30.23,1016.10,10.00,M,CLR,M,M,M,M,M,M,M,M,M,M,M,M,M,M,57.00,KELY 200353Z AUTO 00000KT 10SM CLR 14/00 A3023 RMK AO2 SLP161 T01390000,M
LOL,2023-05-20 03:53,-118.5701,40.0684,1192.43,73.00,39.00,29.12,20.00,4.00,0.00,30.05,1013.90,10.00,M,CLR,M,M,M,M,M,M,M,M,M,M,M,M,M,M,73.00,KLOL 200353Z AUTO 02004KT 10SM CLR 23/04 A3005 RMK AO2 SLP139 T02280039,M
P68,2023-05-20 03:53,-116.0056,39.6014,1993.00,61.00,38.00,42.24,340.00,3.00,0.00,30.20,1015.90,M,M,M,M,M,M,M,M,M,M,M,M,M,M,M,M,M,61.00,KP68 200353Z AUTO 34003KT 16/03 A3020 RMK AO1 SLP159 T01610033,M
VGT,2023-05-20 03:53,-115.1933,36.2111,667.00,86.00,40.00,19.68,60.00,3.00,0.00,29.95,1013.30,10.00,M,CLR,M,M,M,M,M,M,M,M,M,M,M,M,M,M,82.81,KVGT 200353Z AUTO 06003KT 10SM CLR 30/04 A2995 RMK AO2 SLP133 T03000044,M
BVU,2023-05-20 03:55,-114.8611,35.9475,671.00,82.40,46.40,28.36,200.00,9.00,0.00,29.97,M,10.00,M,FEW,SCT,BKN,M,1700.00,4100.00,6500.00,M,M,M,M,M,M,M,M,80.64,KBVU 200355Z AUTO 20009KT 10SM FEW017 SCT041 BKN065 28/08 A2997 RMK AO2,M
CXP,2023-05-20 03:55,-119.7326,39.1923,1431.00,73.40,44.60,35.66,0.00,0.00,0.00,30.13,M,10.00,M,SCT,M,M,M,12000.00,M,M,M,M,M,M,M,M,M,M,73.40,KCXP 200355Z AUTO 00000KT 10SM SCT120 23/07 A3013 RMK AO2,M
RNO,2023-05-20 03:55,-119.7711,39.4839,1341.00,78.00,46.00,32.15,290.00,13.00,0.00,30.09,1013.60,10.00,M,FEW,SCT,M,M,10000.00,20000.00,M,M,M,M,M,M,M,M,M,78.10,KRNO 200355Z 29013KT 10SM FEW100 SCT200 26/08 A3009 RMK AO2 SLP136 T02560078 $,M
RTS,2023-05-20 03:55,-119.8764,39.6682,1539.00,66.20,48.20,52.25,280.00,10.00,0.00,30.16,M,10.00,M,CLR,M,M,M,M,M,M,M,M,M,M,M,M,M,M,66.20,KRTS 200355Z AUTO 28010KT 10SM CLR 19/09 A3016 RMK AO2,M
MEV,2023-05-20 03:55,-119.7500,38.9963,1441.42,62.60,46.40,55.37,40.00,4.00,0.00,30.12,M,10.00,M,CLR,M,M,M,M,M,M,M,M,M,M,M,M,M,M,62.60,KMEV 200355Z AUTO 04004KT 10SM CLR 17/08 A3012 RMK AO2,M
BAM,2023-05-20 03:55,-116.8743,40.5990,1382.36,68.00,41.00,37.32,60.00,6.00,0.00,30.12,M,10.00,M,CLR,M,M,M,M,M,M,M,M,M,M,M,M,M,M,68.00,KBAM 200355Z AUTO 06006KT 10SM CLR 20/05 A3012 RMK AO1,M
HTH,2023-05-20 03:55,-118.6315,38.5448,1282.89,78.80,28.40,15.71,270.00,7.00,0.00,30.07,M,10.00,M,CLR,M,M,M,M,M,M,M,M,M,M,M,M,M,M,78.80,KHTH 200355Z AUTO 27007KT 10SM CLR 26/M02 A3007 RMK A01,M
TMT,2023-05-20 03:55,-117.1971,39.4643,1749.34,61.20,36.00,38.91,0.00,0.00,0.00,30.20,M,10.00,M,CLR,M,M,M,M,M,M,M,M,M,M,M,M,M,M,61.20,KTMT 200355Z AUTO 00000KT 10SM CLR 16/02 A3020 RMK AO2 T01620022,M
10U,2023-05-20 03:55,-116.1876,41.9532,1637.00,64.40,39.20,39.43,M,3.00,0.00,30.20,M,10.00,M,FEW,FEW,BKN,M,4000.00,4600.00,5000.00,M,M,M,M,M,M,M,M,64.40,K10U 200355Z AUTO VRB03KT 10SM FEW040 FEW046 BKN050 18/04 A3020 RMK AO2,M
INS,2023-05-20 03:55,-115.6733,36.5872,955.00,78.40,37.60,23.02,230.00,5.00,0.00,30.01,1011.60,10.00,M,CLR,M,M,M,M,M,M,M,M,M,M,M,M,M,M,78.40,KINS 200355Z AUTO 23005KT 10SM CLR 26/03 A3001 RMK AO2 SLP116 T02580031 $,M
LSV,2023-05-20 03:55,-115.0343,36.2362,570.00,85.80,43.70,22.94,50.00,11.00,0.00,29.92,1010.70,10.00,M,OVC,M,M,M,12000.00,M,M,M,M,M,M,M,M,M,M,82.86,KLSV 200355Z AUTO 05011KT 10SM OVC120 30/07 A2992 RMK AO2 SLP107 T02990065 $,M
TPH,2023-05-20 03:56,-117.0904,38.0505,1654.00,M,M,M,M,M,0.00,30.14,M,M,M,M,M,M,M,M,M,M,M,M,M,M,M,M,M,M,M,KTPH 200356Z AUTO A3014 RMK AO2 SLPNO PWINO $,M
LAS,2023-05-20 03:56,-115.1634,36.0719,663.00,85.00,43.00,22.98,210.00,8.00,0.00,29.97,1012.50,10.00,M,FEW,SCT,BKN,M,10000.00,12000.00,20000.00,M,M,M,M,M,M,M,M,82.13,KLAS 200356Z 21008KT 170V230 10SM FEW100 SCT120 BKN200 29/06 A2997 RMK AO2 TSE31 PRESRR SLP125 TS MOV S T02940061,M
EKO,2023-05-20 03:56,-115.7860,40.8242,1367.00,67.00,42.00,40.45,0.00,0.00,0.00,30.16,1016.80,10.00,M,CLR,M,M,M,M,M,M,M,M,M,M,M,M,M,M,66.90,KEKO 200356Z AUTO 00000KT 10SM CLR 19/06 A3016 RMK AO2 SLP168 T01940056,M
WMC,2023-05-20 03:56,-117.8072,40.9019,1315.00,74.00,38.00,27.06,50.00,6.00,0.00,30.10,1014.40,10.00,M,CLR,M,M,M,M,M,M,M,M,M,M,M,M,M,M,73.90,KWMC 200356Z AUTO 05006KT 10SM CLR 23/03 A3010 RMK AO2 SLP144 T02330033,M
NFL,2023-05-20 03:56,-118.7010,39.4166,1199.00,76.00,42.00,29.80,40.00,6.00,0.00,30.04,1014.20,10.00,M,FEW,SCT,SCT,M,7000.00,10000.00,20000.00,M,M,M,M,M,M,M,M,75.90,KNFL 200356Z 04006KT 10SM FEW070 SCT100 SCT200 24/06 A3004 RMK AO2 SLP142 T02440056,M
HND,2023-05-20 03:56,-115.1344,35.9729,742.79,83.00,47.00,28.43,210.00,10.00,0.00,30.01,1014.90,10.00,M,SCT,M,M,M,11000.00,M,M,M,M,M,M,M,M,M,M,81.01,KHND 200356Z AUTO 21010KT 10SM SCT110 28/08 A3001 RMK AO2 SLP149 T02830083,M
05U,2023-05-20 04:10,-116.0051,39.6042,1811.23,60.80,37.40,41.71,0.00,0.00,0.00,30.23,M,10.00,M,CLR,M,M,M,M,M,M,M,M,M,M,M,M,M,M,60.80,K05U 200410Z AUTO 00000KT 10SM CLR 16/03 A3023 RMK A01,M
BVU,2023-05-20 04:15,-114.8611,35.9475,671.00,80.60,46.40,30.07,260.00,4.00,0.00,29.98,M,10.00,M,BKN,M,M,M,11000.00,M,M,M,M,M,M,M,M,M,M,79.56,KBVU 200415Z AUTO 26004KT 10SM BKN110 27/08 A2998 RMK AO2 LTG DSNT SE,M
CXP,2023-05-20 04:15,-119.7326,39.1923,1431.00,71.60,44.60,37.89,80.00,3.00,0.00,30.14,M,10.00,M,CLR,M,M,M,M,M,M,M,M,M,M,M,M,M,M,71.60,KCXP 200415Z AUTO 08003KT 10SM CLR 22/07 A3014 RMK AO2,M
RTS,2023-05-20 04:15,-119.8764,39.6682,1539.00,66.20,46.40,48.83,280.00,9.00,0.00,30.16,M,10.00,14.00,CLR,M,M,M,M,M,M,M,M,M,M,M,M,M,M,66.20,KRTS 200415Z AUTO 28009G14KT 10SM CLR 19/08 A3016 RMK AO2,M
MEV,2023-05-20 04:15,-119.7500,38.9963,1441.42,60.80,46.40,59.01,60.00,7.00,0.00,30.13,M,10.00,M,CLR,M,M,M,M,M,M,M,M,M,M,M,M,M,M,60.80,KMEV 200415Z AUTO 06007KT 10SM CLR 16/08 A3013 RMK AO2,M
BAM,2023-05-20 04:15,-116.8743,40.5990,1382.36,66.20,39.20,37.03,70.00,5.00,0.00,30.12,M,10.00,M,CLR,M,M,M,M,M,M,M,M,M,M,M,M,M,M,66.20,KBAM 200415Z AUTO 07005KT 10SM CLR 19/04 A3012 RMK AO1,M
HTH,2023-05-20 04:15,-118.6315,38.5448,1282.89,75.20,30.20,19.05,250.00,6.00,0.00,30.08,M,10.00,M,M,M,M,M,M,M,M,M,M,M,M,M,M,M,M,75.20,KHTH 200415Z AUTO 25006KT 10SM 24/M01 A3008 RMK A01,M
TMT,2023-05-20 04:15,-117.1971,39.4643,1749.34,55.40,33.40,43.20,0.00,0.00,0.00,30.21,M,10.00,M,CLR,M,M,M,M,M,M,M,M,M,M,M,M,M,M,55.40,KTMT 200415Z AUTO 00000KT 10SM CLR 13/01 A3021 RMK AO2 T01300008,M
10U,2023-05-20 04:15,-116.1876,41.9532,1637.00,64.40,39.20,39.43,M,5.00,0.00,30.21,M,10.00,12.00,FEW,SCT,BKN,M,4300.00,4900.00,5500.00,M,M,M,M,M,M,M,M,64.40,K10U 200415Z AUTO VRB05G12KT 10SM FEW043 SCT049 BKN055 18/04 A3021 RMK AO2,M
05U,2023-05-20 04:30,-116.0051,39.6042,1811.23,55.40,37.40,50.64,0.00,0.00,0.00,30.24,M,10.00,M,CLR,M,M,M,M,M,M,M,M,M,M,M,M,M,M,55.40,K05U 200430Z AUTO 00000KT 10SM CLR 13/03 A3024 RMK A01,M
HTH,2023-05-20 04:30,-118.6315,38.5448,1282.89,73.40,32.00,21.76,210.00,5.00,0.00,30.08,M,10.00,M,CLR,M,M,M,M,M,M,M,M,M,M,M,M,M,M,73.40,KHTH 200430Z AUTO 21005KT 10SM CLR 23/M00 A3008 RMK A01,M
BVU,2023-05-20 04:35,-114.8611,35.9475,671.00,80.60,46.40,30.07,250.00,4.00,0.00,29.99,M,10.00,M,FEW,M,M,M,11000.00,M,M,M,M,M,M,M,M,M,M,79.56,KBVU 200435Z AUTO 25004KT 10SM FEW110 27/08 A2999 RMK AO2,M
CXP,2023-05-20 04:35,-119.7326,39.1923,1431.00,69.80,44.60,40.29,0.00,0.00,0.00,30.15,M,10.00,M,CLR,M,M,M,M,M,M,M,M,M,M,M,M,M,M,69.80,KCXP 200435Z AUTO 00000KT 10SM CLR 21/07 A3015 RMK AO2,M
RTS,2023-05-20 04:35,-119.8764,39.6682,1539.00,64.40,46.40,51.98,310.00,5.00,0.00,30.18,M,10.00,10.00,CLR,M,M,M,M,M,M,M,M,M,M,M,M,M,M,64.40,KRTS 200435Z AUTO 31005G10KT 10SM CLR 18/08 A3018 RMK AO2,M
MEV,2023-05-20 04:35,-119.7500,38.9963,1441.42,62.60,46.40,55.37,180.00,6.00,0.00,30.14,M,10.00,M,CLR,M,M,M,M,M,M,M,M,M,M,M,M,M,M,62.60,KMEV 200435Z AUTO 18006KT 10SM CLR 17/08 A3014 RMK AO2,M
BAM,2023-05-20 04:35,-116.8743,40.5990,1382.36,64.40,37.40,36.74,140.00,3.00,0.00,30.13,M,10.00,M,CLR,M,M,M,M,M,M,M,M,M,M,M,M,M,M,64.40,KBAM 200435Z AUTO 14003KT 10SM CLR 18/03 A3013 RMK AO1,M
TMT,2023-05-20 04:35,-117.1971,39.4643,1749.34,57.40,33.60,40.51,0.00,0.00,0.00,30.21,M,10.00,M,CLR,M,M,M,M,M,M,M,M,M,M,M,M,M,M,57.40,KTMT 200435Z AUTO 00000KT 10SM CLR 14/01 A3021 RMK AO2 T01410009,M
10U,2023-05-20 04:35,-116.1876,41.9532,1637.00,62.60,39.20,42.00,0.00,0.00,0.00,30.22,M,10.00,M,FEW,BKN,OVC,M,4700.00,6000.00,7500.00,M,M,M,M,M,M,M,M,62.60,K10U 200435Z AUTO 00000KT 10SM FEW047 BKN060 OVC075 17/04 A3022 RMK AO2,M
VGT,2023-05-20 04:37,-115.1933,36.2111,667.00,85.00,45.00,24.81,210.00,14.00,0.00,29.95,M,10.00,M,CLR,M,M,M,M,M,M,M,M,M,M,M,M,M,M,82.27,KVGT 200437Z AUTO 21014KT 10SM CLR 29/07 A2995 RMK AO2 WSHFT 0417 T02940072,M
05U,2023-05-20 04:50,-116.0051,39.6042,1811.23,51.80,37.40,57.77,M,M,0.00,30.24,M,10.00,M,CLR,M,M,M,M,M,M,M,M,M,M,M,M,M,M,51.80,K05U 200450Z AUTO 10SM CLR 11/03 A3024 RMK A01,M
P68,2023-05-20 04:53,-116.0056,39.6014,1993.00,53.00,37.00,54.21,200.00,5.00,0.00,30.22,1017.10,M,M,M,M,M,M,M,M,M,M,M,M,M,M,M,M,M,53.10,KP68 200453Z AUTO 20005KT 12/03 A3022 RMK AO1 SLP171 T01170028,M
ELY,2023-05-20 04:53,-114.8453,39.2950,1909.00,58.00,30.00,34.41,360.00,8.00,0.00,30.26,1016.50,10.00,M,CLR,M,M,M,M,M,M,M,M,M,M,M,M,M,M,57.90,KELY 200453Z AUTO 36008KT 10SM CLR 14/M01 A3026 RMK AO2 SLP165 T01441011,M
VGT,2023-05-20 04:53,-115.1933,36.2111,667.00,85.00,45.00,24.81,230.00,7.00,0.00,29.97,1013.80,10.00,M,CLR,M,M,M,M,M,M,M,M,M,M,M,M,M,M,82.27,KVGT 200453Z AUTO 23007KT 10SM CLR 29/07 A2997 RMK AO2 WSHFT 0417 SLP138 T02940072,M
LOL,2023-05-20 04:53,-118.5701,40.0684,1192.43,64.00,37.00,36.68,60.00,7.00,0.00,30.07,1014.60,10.00,M,CLR,M,M,M,M,M,M,M,M,M,M,M,M,M,M,64.00,KLOL 200453Z AUTO 06007KT 10SM CLR 18/03 A3007 RMK AO2 SLP146 T01780028,M
DRA,2023-05-20 04:53,-116.0278,36.6206,1009.00,80.00,38.00,22.03,100.00,13.00,0.00,30.02,1011.40,10.00,M,CLR,M,M,M,M,M,M,M,M,M,M,M,M,M,M,78.85,KDRA 200453Z AUTO 10013KT 10SM CLR 27/03 A3002 RMK AO2 SLP114 T02670033,M
BVU,2023-05-20 04:55,-114.8611,35.9475,671.00,80.60,48.20,32.18,300.00,5.00,0.00,29.99,M,10.00,M,CLR,M,M,M,M,M,M,M,M,M,M,M,M,M,M,79.71,KBVU 200455Z AUTO 30005KT 10SM CLR 27/09 A2999 RMK AO2 LTG DSNT S,M
CXP,2023-05-20 04:55,-119.7326,39.1923,1431.00,69.80,42.80,37.61,320.00,4.00,0.00,30.16,M,10.00,M,CLR,M,M,M,M,M,M,M,M,M,M,M,M,M,M,69.80,KCXP 200455Z AUTO 32004KT 10SM CLR 21/06 A3016 RMK AO2,M
RNO,2023-05-20 04:55,-119.7711,39.4839,1341.00,77.00,43.00,29.74,350.00,9.00,0.00,30.12,1014.40,10.00,M,SCT,M,M,M,12000.00,M,M,M,M,M,M,M,M,M,M,77.00,KRNO 200455Z 35009KT 10SM SCT120 25/06 A3012 RMK AO2 SLP144 T02500061,M
RTS,2023-05-20 04:55,-119.8764,39.6682,1539.00,66.20,44.60,45.60,280.00,8.00,0.00,30.18,M,10.00,M,FEW,M,M,M,12000.00,M,M,M,M,M,M,M,M,M,M,66.20,KRTS 200455Z AUTO 28008KT 10SM FEW120 19/07 A3018 RMK AO2,M
MEV,2023-05-20 04:55,-119.7500,38.9963,1441.42,59.00,46.40,62.92,160.00,6.00,0.00,30.14,M,10.00,M,CLR,M,M,M,M,M,M,M,M,M,M,M,M,M,M,59.00,KMEV 200455Z AUTO 16006KT 10SM CLR 15/08 A3014 RMK AO2,M
BAM,2023-05-20 04:55,-116.8743,40.5990,1382.36,62.60,37.40,39.14,270.00,4.00,0.00,30.14,M,10.00,M,CLR,M,M,M,M,M,M,M,M,M,M,M,M,M,M,62.60,KBAM 200455Z AUTO 27004KT 10SM CLR 17/03 A3014 RMK AO1,M
HTH,2023-05-20 04:55,-118.6315,38.5448,1282.89,71.60,33.80,24.86,220.00,5.00,0.00,30.09,M,10.00,M,CLR,M,M,M,M,M,M,M,M,M,M,M,M,M,M,71.60,KHTH 200455Z AUTO 22005KT 10SM CLR 22/01 A3009 RMK A01,M
TMT,2023-05-20 04:55,-117.1971,39.4643,1749.34,54.70,37.00,51.13,260.00,4.00,0.00,30.22,M,10.00,M,CLR,M,M,M,M,M,M,M,M,M,M,M,M,M,M,54.70,KTMT 200455Z AUTO 26004KT 10SM CLR 13/03 A3022 RMK AO2 T01260028,M
10U,2023-05-20 04:55,-116.1876,41.9532,1637.00,59.00,39.20,47.72,0.00,0.00,0.00,30.22,M,10.00,M,SCT,SCT,BKN,M,4700.00,5500.00,6500.00,M,M,M,M,M,M,M,M,59.00,K10U 200455Z AUTO 00000KT 10SM SCT047 SCT055 BKN065 15/04 A3022 RMK AO2,M
INS,2023-05-20 04:55,-115.6733,36.5872,955.00,73.00,39.60,29.91,270.00,5.00,0.00,30.02,1012.00,10.00,M,CLR,M,M,M,M,M,M,M,M,M,M,M,M,M,M,72.90,KINS 200455Z AUTO 27005KT 10SM CLR 23/04 A3002 RMK AO2 SLP120 T02270042 $,M
LSV,2023-05-20 04:55,-115.0343,36.2362,570.00,86.40,43.00,21.91,210.00,6.00,0.00,29.92,1010.70,10.00,M,CLR,M,M,M,M,M,M,M,M,M,M,M,M,M,M,83.28,KLSV 200455Z AUTO 21006KT 10SM CLR 30/06 A2992 RMK AO2 SLP107 T03020061 $,M
NFL,2023-05-20 04:56,-118.7010,39.4166,1199.00,68.00,43.00,40.31,360.00,5.00,0.00,30.06,1014.60,10.00,M,SCT,SCT,M,M,10000.00,20000.00,M,M,M,M,M,M,M,M,M,68.00,KNFL 200456Z 36005KT 10SM SCT100 SCT200 20/06 A3006 RMK AO2 SLP146 T02000061,M
TPH,2023-05-20 04:56,-117.0904,38.0505,1654.00,M,M,M,M,M,0.00,30.17,M,M,M,M,M,M,M,M,M,M,M,M,M,M,M,M,M,M,M,KTPH 200456Z AUTO A3017 RMK AO2 SLPNO PWINO $,M
LAS,2023-05-20 04:56,-115.1634,36.0719,663.00,83.00,46.00,27.48,200.00,10.00,0.00,29.96,1012.00,10.00,15.00,FEW,SCT,BKN,M,10000.00,12000.00,20000.00,M,M,M,M,M,M,M,M,80.94,KLAS 200456Z 20010G15KT 10SM FEW100 SCT120 BKN200 28/08 A2996 RMK AO2 PRESFR SLP120 T02830078,M
EKO,2023-05-20 04:56,-115.7860,40.8242,1367.00,63.00,42.00,46.34,0.00,0.00,0.00,30.18,1017.30,9.00,M,CLR,M,M,M,M,M,M,M,M,M,M,M,M,M,M,63.00,KEKO 200456Z AUTO 00000KT 9SM CLR 17/06 A3018 RMK AO2 SLP173 T01720056,M
WMC,2023-05-20 04:56,-117.8072,40.9019,1315.00,63.00,40.00,42.56,0.00,0.00,0.00,30.11,1015.30,10.00,M,CLR,M,M,M,M,M,M,M,M,M,M,M,M,M,M,63.00,KWMC 200456Z AUTO 00000KT 10SM CLR 17/04 A3011 RMK AO2 SLP153 T01720044,M
HND,2023-05-20 04:56,-115.1344,35.9729,742.79,81.00,49.00,32.60,180.00,4.00,0.01,30.03,1015.80,7.00,M,FEW,OVC,M,M,4600.00,12000.00,M,M,RA,M,M,M,M,M,M,80.01,KHND 200456Z AUTO 18004KT 7SM RA FEW046 OVC120 27/09 A3003 RMK AO2 RAB56 SLP158 P0001 T02720094,M
05U,2023-05-20 05:10,-116.0051,39.6042,1811.23,51.80,35.60,53.81,10.00,3.00,0.00,30.25,M,10.00,M,CLR,M,M,M,M,M,M,M,M,M,M,M,M,M,M,51.80,K05U 200510Z AUTO 01003KT 10SM CLR 11/02 A3025 RMK A01,M
BVU,2023-05-20 05:15,-114.8611,35.9475,671.00,80.60,44.60,28.08,M,5.00,0.00,30.00,M,10.00,M,CLR,M,M,M,M,M,M,M,M,M,M,M,M,M,M,79.42,KBVU 200515Z AUTO VRB05KT 10SM CLR 27/07 A3000 RMK AO2,M
CXP,2023-05-20 05:15,-119.7326,39.1923,1431.00,68.00,42.80,40.00,0.00,0.00,0.00,30.16,M,10.00,M,CLR,M,M,M,M,M,M,M,M,M,M,M,M,M,M,68.00,KCXP 200515Z AUTO 00000KT 10SM CLR 20/06 A3016 RMK AO2,M
RTS,2023-05-20 05:15,-119.8764,39.6682,1539.00,64.40,46.40,51.98,310.00,4.00,0.00,30.19,M,10.00,10.00,BKN,M,M,M,12000.00,M,M,M,M,M,M,M,M,M,M,64.40,KRTS 200515Z AUTO 31004G10KT 10SM BKN120 18/08 A3019 RMK AO2,M
MEV,2023-05-20 05:15,-119.7500,38.9963,1441.42,59.00,46.40,62.92,130.00,6.00,0.00,30.15,M,10.00,M,FEW,M,M,M,5000.00,M,M,M,M,M,M,M,M,M,M,59.00,KMEV 200515Z AUTO 13006KT 10SM FEW050 15/08 A3015 RMK AO2,M
BAM,2023-05-20 05:15,-116.8743,40.5990,1382.36,64.40,39.20,39.43,270.00,3.00,0.00,30.15,M,10.00,M,CLR,M,M,M,M,M,M,M,M,M,M,M,M,M,M,64.40,KBAM 200515Z AUTO 27003KT 10SM CLR 18/04 A3015 RMK AO1,M
HTH,2023-05-20 05:15,-118.6315,38.5448,1282.89,69.80,35.60,28.39,120.00,4.00,0.00,30.10,M,10.00,M,CLR,M,M,M,M,M,M,M,M,M,M,M,M,M,M,69.80,KHTH 200515Z AUTO 12004KT 10SM CLR 21/02 A3010 RMK A01,M
TMT,2023-05-20 05:15,-117.1971,39.4643,1749.34,54.30,37.60,53.12,300.00,3.00,0.00,30.22,M,10.00,M,CLR,M,M,M,M,M,M,M,M,M,M,M,M,M,M,54.30,KTMT 200515Z AUTO 30003KT 10SM CLR 12/03 A3022 RMK AO2 T01240031,M
10U,2023-05-20 05:15,-116.1876,41.9532,1637.00,55.40,41.00,58.27,230.00,3.00,0.00,30.22,M,10.00,M,FEW,SCT,BKN,M,3000.00,4400.00,5500.00,M,M,M,M,M,M,M,M,55.40,K10U 200515Z AUTO 23003KT 10SM FEW030 SCT044 BKN055 13/05 A3022 RMK AO2,M
05U,2023-05-20 05:30,-116.0051,39.6042,1811.23,51.80,35.60,53.81,360.00,5.00,0.00,30.25,M,10.00,M,CLR,M,M,M,M,M,M,M,M,M,M,M,M,M,M,51.80,K05U 200530Z AUTO 36005KT 10SM CLR 11/02 A3025 RMK A01,M
BVU,2023-05-20 05:35,-114.8611,35.9475,671.00,80.60,46.40,30.07,160.00,10.00,0.00,30.00,M,10.00,17.00,CLR,M,M,M,M,M,M,M,M,M,M,M,M,M,M,79.56,KBVU 200535Z AUTO 16010G17KT 10SM CLR 27/08 A3000 RMK AO2,M
CXP,2023-05-20 05:35,-119.7326,39.1923,1431.00,68.00,42.80,40.00,0.00,0.00,0.00,30.16,M,10.00,M,CLR,M,M,M,M,M,M,M,M,M,M,M,M,M,M,68.00,KCXP 200535Z AUTO 00000KT 10SM CLR 20/06 A3016 RMK AO2,M
RTS,2023-05-20 05:35,-119.8764,39.6682,1539.00,64.40,46.40,51.98,280.00,8.00,0.00,30.19,M,10.00,M,SCT,M,M,M,12000.00,M,M,M,M,M,M,M,M,M,M,64.40,KRTS 200535Z AUTO 28008KT 10SM SCT120 18/08 A3019 RMK AO2,M
MEV,2023-05-20 05:35,-119.7500,38.9963,1441.42,59.00,46.40,62.92,100.00,6.00,0.00,30.15,M,10.00,M,FEW,M,M,M,5500.00,M,M,M,M,M,M,M,M,M,M,59.00,KMEV 200535Z AUTO 10006KT 10SM FEW055 15/08 A3015 RMK AO2,M
BAM,2023-05-20 05:35,-116.8743,40.5990,1382.36,69.80,37.40,30.49,0.00,0.00,0.00,30.15,M,10.00,M,CLR,M,M,M,M,M,M,M,M,M,M,M,M,M,M,69.80,KBAM 200535Z AUTO 00000KT 10SM CLR 21/03 A3015 RMK AO1,M
HTH,2023-05-20 05:35,-118.6315,38.5448,1282.89,68.00,33.80,28.11,150.00,7.00,0.00,30.10,M,10.00,M,CLR,M,M,M,M,M,M,M,M,M,M,M,M,M,M,68.00,KHTH 200535Z AUTO 15007KT 10SM CLR 20/01 A3010 RMK A01,M
10U,2023-05-20 05:35,-116.1876,41.9532,1637.00,57.20,39.20,50.91,0.00,0.00,0.00,30.22,M,10.00,M,FEW,SCT,BKN,M,2600.00,4400.00,5500.00,M,M,M,M,M,M,M,M,57.20,K10U 200535Z AUTO 00000KT 10SM FEW026 SCT044 BKN055 14/04 A3022 RMK AO2,M
TMT,2023-05-20 05:35,-117.1971,39.4643,1749.34,53.00,37.00,54.00,0.00,0.00,0.00,30.22,M,10.00,M,CLR,M,M,M,M,M,M,M,M,M,M,M,M,M,M,53.10,KTMT 200535Z AUTO 00000KT 10SM CLR 12/03 A3022 RMK AO2 LTG DSNT N T01170027,M
05U,2023-05-20 05:50,-116.0051,39.6042,1811.23,51.80,35.60,53.81,0.00,0.00,0.00,30.26,M,10.00,M,CLR,M,M,M,M,M,M,M,M,M,M,M,M,M,M,51.80,K05U 200550Z AUTO 00000KT 10SM CLR 11/02 A3026 RMK A01,M
P68,2023-05-20 05:53,-116.0056,39.6014,1993.00,53.00,36.00,52.11,190.00,3.00,0.00,30.23,1017.10,M,M,M,M,M,M,M,M,M,M,M,M,M,M,M,M,M,53.10,KP68 200553Z AUTO 19003KT 12/02 A3023 RMK AO1 SLP171 T01170022 10261 20111 51016,M
ELY,2023-05-20 05:53,-114.8453,39.2950,1909.00,50.00,34.00,53.97,180.00,6.00,0.00,30.27,1017.50,10.00,M,CLR,M,M,M,M,M,M,M,M,M,M,M,M,M,M,50.00,KELY 200553Z AUTO 18006KT 10SM CLR 10/01 A3027 RMK AO2 SLP175 T01000011 10244 20100 51019,M
VGT,2023-05-20 05:53,-115.1933,36.2111,667.00,84.00,46.00,26.52,200.00,10.00,0.00,29.98,1014.30,10.00,15.00,CLR,M,M,M,M,M,M,M,M,M,M,M,M,M,M,81.69,KVGT 200553Z AUTO 20010G15KT 10SM CLR 29/08 A2998 RMK AO2 SLP143 T02890078 10361 20289 51021,M
LOL,2023-05-20 05:53,-118.5701,40.0684,1192.43,59.00,37.00,43.78,170.00,6.00,0.00,30.08,1015.10,10.00,M,CLR,M,M,M,M,M,M,M,M,M,M,M,M,M,M,59.00,KLOL 200553Z AUTO 17006KT 10SM CLR 15/03 A3008 RMK AO2 SLP151 T01500028 10311 20150 51011,M
DRA,2023-05-20 05:53,-116.0278,36.6206,1009.00,77.00,38.00,24.40,90.00,3.00,0.00,30.03,1011.90,10.00,M,CLR,M,M,M,M,M,M,M,M,M,M,M,M,M,M,77.00,KDRA 200553Z AUTO 09003KT 10SM CLR 25/03 A3003 RMK AO2 SLP119 T02500033 10322 20250 51017,M
BVU,2023-05-20 05:55,-114.8611,35.9475,671.00,80.60,46.40,30.07,220.00,8.00,0.00,30.01,M,10.00,M,CLR,M,M,M,M,M,M,M,M,M,M,M,M,M,M,79.56,KBVU 200555Z AUTO 22008KT 10SM CLR 27/08 A3001 RMK AO2,M
CXP,2023-05-20 05:55,-119.7326,39.1923,1431.00,64.40,44.60,48.55,0.00,0.00,0.00,30.17,M,10.00,M,CLR,M,M,M,M,M,M,M,M,M,M,M,M,M,M,64.40,KCXP 200555Z AUTO 00000KT 10SM CLR 18/07 A3017 RMK AO2,M
RTS,2023-05-20 05:55,-119.8764,39.6682,1539.00,62.60,46.40,55.37,310.00,5.00,0.00,30.19,M,10.00,M,CLR,M,M,M,M,M,M,M,M,M,M,M,M,M,M,62.60,KRTS 200555Z AUTO 31005KT 10SM CLR 17/08 A3019 RMK AO2,M
MEV,2023-05-20 05:55,-119.7500,38.9963,1441.42,55.40,46.40,71.64,110.00,6.00,0.00,30.16,M,10.00,M,FEW,M,M,M,5500.00,M,M,M,M,M,M,M,M,M,M,55.40,KMEV 200555Z AUTO 11006KT 10SM FEW055 13/08 A3016 RMK AO2,M
BAM,2023-05-20 05:55,-116.8743,40.5990,1382.36,60.80,37.40,41.71,0.00,0.00,0.00,30.15,M,10.00,M,CLR,M,M,M,M,M,M,M,M,M,M,M,M,M,M,60.80,KBAM 200555Z AUTO 00000KT 10SM CLR 16/03 A3015 RMK AO1,M
HTH,2023-05-20 05:55,-118.6315,38.5448,1282.89,69.80,33.80,26.43,170.00,8.00,0.00,30.10,M,10.00,M,CLR,M,M,M,M,M,M,M,M,M,M,M,M,M,M,69.80,KHTH 200555Z AUTO 17008KT 10SM CLR 21/01 A3010 RMK A01,M
10U,2023-05-20 05:55,-116.1876,41.9532,1637.00,62.60,37.40,39.14,180.00,4.00,0.00,30.23,M,10.00,M,FEW,FEW,SCT,M,2900.00,4000.00,5500.00,M,M,M,M,M,M,M,M,62.60,K10U 200555Z AUTO 18004KT 10SM FEW029 FEW040 SCT055 17/03 A3023 RMK AO2,M
LSV,2023-05-20 05:55,-115.0343,36.2362,570.00,82.00,42.80,25.05,280.00,3.00,0.00,29.96,1012.00,10.00,M,CLR,M,M,M,M,M,M,M,M,M,M,M,M,M,M,80.13,KLSV 200555Z AUTO 28003KT 10SM CLR 28/06 A2996 RMK AO2 SLP120 T02780060 10352 20278 52022 $,M
TMT,2023-05-20 05:55,-117.1971,39.4643,1749.34,52.20,36.00,54.08,0.00,0.00,0.00,30.22,M,10.00,M,CLR,M,M,M,M,M,M,M,M,M,M,M,M,M,M,52.20,KTMT 200555Z AUTO 00000KT 10SM CLR 11/02 A3022 RMK AO2 T01120023 10269 20108,M
INS,2023-05-20 05:55,-115.6733,36.5872,955.00,69.30,46.00,43.06,260.00,5.00,0.00,30.04,1012.80,10.00,M,CLR,M,M,M,M,M,M,M,M,M,M,M,M,M,M,69.30,KINS 200555Z AUTO 26005KT 10SM CLR 21/08 A3004 RMK AO2 SLP128 60000 T02070077 10292 20207 52016 $,M
RNO,2023-05-20 05:55,-119.7711,39.4839,1341.00,74.00,44.00,34.40,280.00,5.00,0.00,30.14,1014.60,10.00,M,SCT,M,M,M,10000.00,M,M,M,M,M,M,M,M,M,M,73.90,KRNO 200555Z 28005KT 10SM SCT100 23/07 A3014 RMK AO2 SLP146 T02330067 10317 20233 53017,M
WMC,2023-05-20 05:56,-117.8072,40.9019,1315.00,63.00,41.00,44.41,0.00,0.00,0.00,30.12,1015.30,10.00,M,CLR,M,M,M,M,M,M,M,M,M,M,M,M,M,M,63.00,KWMC 200556Z AUTO 00000KT 10SM CLR 17/05 A3012 RMK AO2 SLP153 T01720050 10300 20150 51010,M
TPH,2023-05-20 05:56,-117.0904,38.0505,1654.00,M,M,M,M,M,0.00,30.18,M,M,M,M,M,M,M,M,M,M,M,M,M,M,M,M,M,M,M,KTPH 200556Z AUTO A3018 RMK AO2 SLPNO 53012 PWINO $,M
LAS,2023-05-20 05:56,-115.1634,36.0719,663.00,82.00,46.00,28.30,220.00,10.00,0.00,29.99,1012.90,10.00,16.00,FEW,SCT,M,M,9000.00,15000.00,M,M,M,M,M,M,M,M,M,80.36,KLAS 200556Z 22010G16KT 10SM FEW090 SCT150 28/08 A2999 RMK AO2 SLP129 T02780078 10350 20278 51016,M
EKO,2023-05-20 05:56,-115.7860,40.8242,1367.00,61.00,42.00,49.73,90.00,4.00,0.00,30.19,1017.70,10.00,M,CLR,M,M,M,M,M,M,M,M,M,M,M,M,M,M,61.00,KEKO 200556Z AUTO 09004KT 10SM CLR 16/06 A3019 RMK AO2 SLP177 T01610056 10272 20161 51013,M
HND,2023-05-20 05:56,-115.1344,35.9729,742.79,76.00,53.00,45.06,170.00,14.00,0.01,30.02,1015.60,10.00,M,CLR,M,M,M,M,M,M,M,M,M,M,M,M,M,M,75.90,KHND 200556Z AUTO 17014KT 10SM CLR 24/12 A3002 RMK AO2 RAE18 SLP156 P0001 60002 T02440117 10350 20239 50016,M
05U,2023-05-20 06:10,-116.0051,39.6042,1811.23,50.00,35.60,57.52,10.00,5.00,0.00,30.26,M,9.00,M,CLR,M,M,M,M,M,M,M,M,M,M,M,M,M,M,50.00,K05U 200610Z AUTO 01005KT 9SM CLR 10/02 A3026 RMK A01,M
BVU,2023-05-20 06:15,-114.8611,35.9475,671.00,77.00,50.00,38.74,230.00,8.00,0.00,30.02,M,10.00,M,CLR,M,M,M,M,M,M,M,M,M,M,M,M,M,M,77.00,KBVU 200615Z AUTO 23008KT 10SM CLR 25/10 A3002 RMK AO2,M
CXP,2023-05-20 06:15,-119.7326,39.1923,1431.00,64.40,42.80,45.32,300.00,4.00,0.00,30.17,M,10.00,M,CLR,M,M,M,M,M,M,M,M,M,M,M,M,M,M,64.40,KCXP 200615Z AUTO 30004KT 10SM CLR 18/06 A3017 RMK AO2,M
RTS,2023-05-20 06:15,-119.8764,39.6682,1539.00,59.00,48.20,67.33,330.00,6.00,0.00,30.19,M,10.00,M,BKN,M,M,M,12000.00,M,M,M,M,M,M,M,M,M,M,59.00,KRTS 200615Z AUTO 33006KT 10SM BKN120 15/09 A3019 RMK AO2,M
MEV,2023-05-20 06:15,-119.7500,38.9963,1441.42,55.40,44.60,66.91,120.00,5.00,0.00,30.16,M,10.00,M,FEW,FEW,M,M,4700.00,6000.00,M,M,M,M,M,M,M,M,M,55.40,KMEV 200615Z AUTO 12005KT 10SM FEW047 FEW060 13/07 A3016 RMK AO2,M
BAM,2023-05-20 06:15,-116.8743,40.5990,1382.36,68.00,37.40,32.43,0.00,0.00,0.00,30.15,M,10.00,M,CLR,M,M,M,M,M,M,M,M,M,M,M,M,M,M,68.00,KBAM 200615Z AUTO 00000KT 10SM CLR 20/03 A3015 RMK AO1,M
HTH,2023-05-20 06:15,-118.6315,38.5448,1282.89,68.00,35.60,30.20,210.00,5.00,0.00,30.10,M,10.00,M,CLR,M,M,M,M,M,M,M,M,M,M,M,M,M,M,68.00,KHTH 200615Z AUTO 21005KT 10SM CLR 20/02 A3010 RMK A01,M
TMT,2023-05-20 06:15,-117.1971,39.4643,1749.34,49.60,34.70,56.33,210.00,7.00,0.00,30.22,M,10.00,M,CLR,M,M,M,M,M,M,M,M,M,M,M,M,M,M,46.23,KTMT 200615Z AUTO 21007KT 10SM CLR 10/02 A3022 RMK AO2 T00980015,M
10U,2023-05-20 06:15,-116.1876,41.9532,1637.00,60.80,37.40,41.71,110.00,5.00,0.00,30.23,M,10.00,M,FEW,FEW,SCT,M,3900.00,4900.00,5500.00,M,M,M,M,M,M,M,M,60.80,K10U 200615Z AUTO 11005KT 10SM FEW039 FEW049 SCT055 16/03 A3023 RMK AO2,M
05U,2023-05-20 06:30,-116.0051,39.6042,1811.23,50.00,35.60,57.52,M,M,0.00,30.26,M,10.00,M,CLR,M,M,M,M,M,M,M,M,M,M,M,M,M,M,50.00,K05U 200630Z AUTO 10SM CLR 10/02 A3026 RMK A01,M
BVU,2023-05-20 06:35,-114.8611,35.9475,671.00,75.20,50.00,41.14,240.00,7.00,0.00,30.02,M,10.00,12.00,CLR,M,M,M,M,M,M,M,M,M,M,M,M,M,M,75.20,KBVU 200635Z AUTO 24007G12KT 10SM CLR 24/10 A3002 RMK AO2,M
CXP,2023-05-20 06:35,-119.7326,39.1923,1431.00,64.40,44.60,48.55,0.00,0.00,0.00,30.17,M,10.00,M,CLR,M,M,M,M,M,M,M,M,M,M,M,M,M,M,64.40,KCXP 200635Z AUTO 00000KT 10SM CLR 18/07 A3017 RMK AO2,M
RTS,2023-05-20 06:35,-119.8764,39.6682,1539.00,59.00,48.20,67.33,350.00,6.00,0.00,30.19,M,10.00,M,SCT,M,M,M,12000.00,M,M,M,M,M,M,M,M,M,M,59.00,KRTS 200635Z AUTO 35006KT 10SM SCT120 15/09 A3019 RMK AO2,M
MEV,2023-05-20 06:35,-119.7500,38.9963,1441.42,53.60,44.60,71.45,120.00,8.00,0.00,30.16,M,10.00,M,FEW,M,M,M,6000.00,M,M,M,M,M,M,M,M,M,M,53.60,KMEV 200635Z AUTO 12008KT 10SM FEW060 12/07 A3016 RMK AO2,M
BAM,2023-05-20 06:35,-116.8743,40.5990,1382.36,64.40,37.40,36.74,40.00,3.00,0.00,30.16,M,10.00,M,CLR,M,M,M,M,M,M,M,M,M,M,M,M,M,M,64.40,KBAM 200635Z AUTO 04003KT 10SM CLR 18/03 A3016 RMK AO1,M
HTH,2023-05-20 06:35,-118.6315,38.5448,1282.89,68.00,35.60,30.20,260.00,5.00,0.00,30.11,M,10.00,M,CLR,M,M,M,M,M,M,M,M,M,M,M,M,M,M,68.00,KHTH 200635Z AUTO 26005KT 10SM CLR 20/02 A3011 RMK A01,M
TMT,2023-05-20 06:35,-117.1971,39.4643,1749.34,51.40,35.40,54.18,220.00,5.00,0.00,30.24,M,10.00,M,CLR,M,M,M,M,M,M,M,M,M,M,M,M,M,M,51.40,KTMT 200635Z AUTO 22005KT 10SM CLR 11/02 A3024 RMK AO2 T01080019,M
10U,2023-05-20 06:35,-116.1876,41.9532,1637.00,59.00,37.40,44.47,100.00,7.00,0.00,30.22,M,10.00,M,FEW,FEW,SCT,M,3200.00,4000.00,5500.00,M,M,M,M,M,M,M,M,59.00,K10U 200635Z AUTO 10007KT 10SM FEW032 FEW040 SCT055 15/03 A3022 RMK AO2,M
05U,2023-05-20 06:50,-116.0051,39.6042,1811.23,48.20,35.60,61.52,M,5.00,0.00,30.26,M,10.00,M,CLR,M,M,M,M,M,M,M,M,M,M,M,M,M,M,45.63,K05U 200650Z AUTO VRB05KT 10SM CLR 09/02 A3026 RMK A01,M
P68,2023-05-20 06:53,-116.0056,39.6014,1993.00,50.00,36.00,58.44,210.00,4.00,0.00,30.24,1017.40,M,M,M,M,M,M,M,M,M,M,M,M,M,M,M,M,M,50.00,KP68 200653Z AUTO 21004KT 10/02 A3024 RMK AO1 SLP174 T01000022,M
ELY,2023-05-20 06:53,-114.8453,39.2950,1909.00,47.00,34.00,60.61,170.00,7.00,0.00,30.28,1017.60,10.00,M,CLR,M,M,M,M,M,M,M,M,M,M,M,M,M,M,42.94,KELY 200653Z AUTO 17007KT 10SM CLR 08/01 A3028 RMK AO2 SLP176 T00830011,M
VGT,2023-05-20 06:53,-115.1933,36.2111,667.00,82.00,46.00,28.30,160.00,7.00,0.00,30.00,1014.80,10.00,M,CLR,M,M,M,M,M,M,M,M,M,M,M,M,M,M,80.36,KVGT 200653Z AUTO 16007KT 10SM CLR 28/08 A3000 RMK AO2 SLP148 T02780078,M
DRA,2023-05-20 06:53,-116.0278,36.6206,1009.00,75.00,38.00,26.08,40.00,6.00,0.00,30.04,1012.10,10.00,M,CLR,M,M,M,M,M,M,M,M,M,M,M,M,M,M,75.00,KDRA 200653Z AUTO 04006KT 10SM CLR 24/03 A3004 RMK AO2 SLP121 T02390033,M
LOL,2023-05-20 06:53,-118.5701,40.0684,1192.43,59.00,38.00,45.36,170.00,3.00,0.00,30.08,1015.00,10.00,M,CLR,M,M,M,M,M,M,M,M,M,M,M,M,M,M,59.00,KLOL 200653Z AUTO 17003KT 10SM CLR 15/03 A3008 RMK AO2 SLP150 T01500033,M
BVU,2023-05-20 06:55,-114.8611,35.9475,671.00,75.20,50.00,41.14,240.00,8.00,0.00,30.03,M,10.00,M,CLR,M,M,M,M,M,M,M,M,M,M,M,M,M,M,75.20,KBVU 200655Z AUTO 24008KT 10SM CLR 24/10 A3003 RMK AO2,M
CXP,2023-05-20 06:55,-119.7326,39.1923,1431.00,62.60,42.80,48.28,0.00,0.00,0.00,30.17,M,10.00,M,CLR,M,M,M,M,M,M,M,M,M,M,M,M,M,M,62.60,KCXP 200655Z AUTO 00000KT 10SM CLR 17/06 A3017 RMK AO2,M
RNO,2023-05-20 06:55,-119.7711,39.4839,1341.00,71.00,43.00,36.25,280.00,6.00,0.00,30.14,1014.80,10.00,M,FEW,M,M,M,12000.00,M,M,M,M,M,M,M,M,M,M,71.10,KRNO 200655Z 28006KT 10SM FEW120 22/06 A3014 RMK AO2 SLP148 T02170061,M
RTS,2023-05-20 06:55,-119.8764,39.6682,1539.00,59.00,48.20,67.33,330.00,6.00,0.00,30.19,M,10.00,M,FEW,M,M,M,12000.00,M,M,M,M,M,M,M,M,M,M,59.00,KRTS 200655Z AUTO 33006KT 10SM FEW120 15/09 A3019 RMK AO2,M
MEV,2023-05-20 06:55,-119.7500,38.9963,1441.42,53.60,44.60,71.45,90.00,6.00,0.00,30.16,M,10.00,M,FEW,M,M,M,5500.00,M,M,M,M,M,M,M,M,M,M,53.60,KMEV 200655Z AUTO 09006KT 10SM FEW055 12/07 A3016 RMK AO2,M
BAM,2023-05-20 06:55,-116.8743,40.5990,1382.36,66.20,37.40,34.51,70.00,4.00,0.00,30.15,M,10.00,M,CLR,M,M,M,M,M,M,M,M,M,M,M,M,M,M,66.20,KBAM 200655Z AUTO 07004KT 10SM CLR 19/03 A3015 RMK AO1,M
HTH,2023-05-20 06:55,-118.6315,38.5448,1282.89,68.00,35.60,30.20,240.00,6.00,0.00,30.10,M,10.00,M,CLR,M,M,M,M,M,M,M,M,M,M,M,M,M,M,68.00,KHTH 200655Z AUTO 24006KT 10SM CLR 20/02 A3010 RMK A01,M
TMT,2023-05-20 06:55,-117.1971,39.4643,1749.34,48.70,34.70,58.25,210.00,4.00,0.00,30.24,M,10.00,M,CLR,M,M,M,M,M,M,M,M,M,M,M,M,M,M,46.92,KTMT 200655Z AUTO 21004KT 10SM CLR 09/02 A3024 RMK AO2 LTG DSNT N T00930015,M
10U,2023-05-20 06:55,-116.1876,41.9532,1637.00,59.00,37.40,44.47,110.00,8.00,0.00,30.22,M,10.00,M,FEW,SCT,BKN,M,3800.00,4600.00,7500.00,M,M,M,M,M,M,M,M,59.00,K10U 200655Z AUTO 11008KT 10SM FEW038 SCT046 BKN075 15/03 A3022 RMK AO2,M
INS,2023-05-20 06:55,-115.6733,36.5872,955.00,68.40,44.40,41.95,240.00,3.00,0.00,30.03,1012.50,10.00,M,CLR,M,M,M,M,M,M,M,M,M,M,M,M,M,M,68.40,KINS 200655Z AUTO 24003KT 10SM CLR 20/07 A3003 RMK AO2 SLP125 T02020069 $,M
LSV,2023-05-20 06:55,-115.0343,36.2362,570.00,81.50,46.20,28.98,110.00,14.00,0.00,29.96,1012.00,10.00,M,CLR,M,M,M,M,M,M,M,M,M,M,M,M,M,M,80.07,KLSV 200655Z AUTO 11014KT 10SM CLR 28/08 A2996 RMK AO2 SLP120 T02750079 $,M
WMC,2023-05-20 06:56,-117.8072,40.9019,1315.00,59.00,39.00,47.35,150.00,3.00,0.00,30.12,1015.40,10.00,M,CLR,M,M,M,M,M,M,M,M,M,M,M,M,M,M,59.00,KWMC 200656Z AUTO 15003KT 10SM CLR 15/04 A3012 RMK AO2 SLP154 T01500039,M
TPH,2023-05-20 06:56,-117.0904,38.0505,1654.00,M,M,M,M,M,0.00,30.19,M,M,M,M,M,M,M,M,M,M,M,M,M,M,M,M,M,M,M,KTPH 200656Z AUTO A3019 RMK AO2 SLPNO PWINO $,M
LAS,2023-05-20 06:56,-115.1634,36.0719,663.00,79.00,48.00,33.66,160.00,6.00,0.00,30.01,1013.60,10.00,M,BKN,M,M,M,20000.00,M,M,M,M,M,M,M,M,M,M,79.00,KLAS 200656Z 16006KT 10SM BKN200 26/09 A3001 RMK AO2 SLP136 T02610089,M
EKO,2023-05-20 06:56,-115.7860,40.8242,1367.00,59.00,42.00,53.40,70.00,5.00,0.00,30.20,1017.90,10.00,M,SCT,M,M,M,10000.00,M,M,M,M,M,M,M,M,M,M,59.00,KEKO 200656Z AUTO 07005KT 10SM SCT100 15/06 A3020 RMK AO2 SLP179 T01500056,M
HND,2023-05-20 06:56,-115.1344,35.9729,742.79,75.00,51.00,43.14,180.00,10.00,0.00,30.04,1016.20,10.00,M,CLR,M,M,M,M,M,M,M,M,M,M,M,M,M,M,75.00,KHND 200656Z AUTO 18010KT 10SM CLR 24/11 A3004 RMK AO2 SLP162 T02390106 403560222,M
05U,2023-05-20 07:10,-116.0051,39.6042,1811.23,50.00,35.60,57.52,M,4.00,0.00,30.26,M,10.00,M,CLR,M,M,M,M,M,M,M,M,M,M,M,M,M,M,50.00,K05U 200710Z AUTO VRB04KT 10SM CLR 10/02 A3026 RMK A01,M
BVU,2023-05-20 07:15,-114.8611,35.9475,671.00,75.20,50.00,41.14,250.00,5.00,0.00,30.03,M,10.00,10.00,CLR,M,M,M,M,M,M,M,M,M,M,M,M,M,M,75.20,KBVU 200715Z AUTO 25005G10KT 10SM CLR 24/10 A3003 RMK AO2,M
CXP,2023-05-20 07:15,-119.7326,39.1923,1431.00,60.80,44.60,55.12,0.00,0.00,0.00,30.18,M,10.00,M,CLR,M,M,M,M,M,M,M,M,M,M,M,M,M,M,60.80,KCXP 200715Z AUTO 00000KT 10SM CLR 16/07 A3018 RMK AO2,M
RTS,2023-05-20 07:15,-119.8764,39.6682,1539.00,57.20,46.40,67.12,350.00,6.00,0.00,30.20,M,10.00,M,CLR,M,M,M,M,M,M,M,M,M,M,M,M,M,M,57.20,KRTS 200715Z AUTO 35006KT 10SM CLR 14/08 A3020 RMK AO2,M
MEV,2023-05-20 07:15,-119.7500,38.9963,1441.42,55.40,44.60,66.91,0.00,0.00,0.00,30.17,M,10.00,M,FEW,SCT,M,M,4100.00,5500.00,M,M,M,M,M,M,M,M,M,55.40,KMEV 200715Z AUTO 00000KT 10SM FEW041 SCT055 13/07 A3017 RMK AO2,M
BAM,2023-05-20 07:15,-116.8743,40.5990,1382.36,62.60,37.40,39.14,60.00,4.00,0.00,30.15,M,10.00,M,CLR,M,M,M,M,M,M,M,M,M,M,M,M,M,M,62.60,KBAM 200715Z AUTO 06004KT 10SM CLR 17/03 A3015 RMK AO1,M
HTH,2023-05-20 07:15,-118.6315,38.5448,1282.89,68.00,35.60,30.20,80.00,5.00,0.00,30.11,M,10.00,M,CLR,M,M,M,M,M,M,M,M,M,M,M,M,M,M,68.00,KHTH 200715Z AUTO 08005KT 10SM CLR 20/02 A3011 RMK A01,M
TMT,2023-05-20 07:15,-117.1971,39.4643,1749.34,48.20,38.30,68.42,230.00,5.00,0.00,30.24,M,10.00,M,CLR,M,M,M,M,M,M,M,M,M,M,M,M,M,M,45.63,KTMT 200715Z AUTO 23005KT 10SM CLR 09/04 A3024 RMK AO2 T00900035,M
10U,2023-05-20 07:15,-116.1876,41.9532,1637.00,57.20,37.40,47.44,130.00,9.00,0.00,30.22,M,10.00,M,FEW,SCT,BKN,M,2800.00,3500.00,7500.00,M,M,M,M,M,M,M,M,57.20,K10U 200715Z AUTO 13009KT 10SM FEW028 SCT035 BKN075 14/03 A3022 RMK AO2,M
05U,2023-05-20 07:30,-116.0051,39.6042,1811.23,50.00,35.60,57.52,20.00,3.00,0.00,30.26,M,10.00,M,CLR,M,M,M,M,M,M,M,M,M,M,M,M,M,M,50.00,K05U 200730Z AUTO 02003KT 10SM CLR 10/02 A3026 RMK A01,M
BVU,2023-05-20 07:35,-114.8611,35.9475,671.00,75.20,50.00,41.14,230.00,5.00,0.00,30.04,M,10.00,M,CLR,M,M,M,M,M,M,M,M,M,M,M,M,M,M,75.20,KBVU 200735Z AUTO 23005KT 10SM CLR 24/10 A3004 RMK AO2,M
CXP,2023-05-20 07:35,-119.7326,39.1923,1431.00,60.80,44.60,55.12,0.00,0.00,0.00,30.18,M,10.00,M,CLR,M,M,M,M,M,M,M,M,M,M,M,M,M,M,60.80,KCXP 200735Z AUTO 00000KT 10SM CLR 16/07 A3018 RMK AO2,M
RTS,2023-05-20 07:35,-119.8764,39.6682,1539.00,59.00,44.60,58.77,330.00,6.00,0.00,30.20,M,10.00,M,CLR,M,M,M,M,M,M,M,M,M,M,M,M,M,M,59.00,KRTS 200735Z AUTO 33006KT 10SM CLR 15/07 A3020 RMK AO2,M
MEV,2023-05-20 07:35,-119.7500,38.9963,1441.42,55.40,44.60,66.91,0.00,0.00,0.00,30.17,M,10.00,M,FEW,FEW,M,M,4300.00,5500.00,M,M,M,M,M,M,M,M,M,55.40,KMEV 200735Z AUTO 00000KT 10SM FEW043 FEW055 13/07 A3017 RMK AO2,M
BAM,2023-05-20 07:35,-116.8743,40.5990,1382.36,59.00,35.60,41.42,0.00,0.00,0.00,30.16,M,10.00,M,CLR,M,M,M,M,M,M,M,M,M,M,M,M,M,M,59.00,KBAM 200735Z AUTO 00000KT 10SM CLR 15/02 A3016 RMK AO1,M
HTH,2023-05-20 07:35,-118.6315,38.5448,1282.89,64.40,35.60,34.22,140.00,5.00,0.00,30.11,M,10.00,M,CLR,M,M,M,M,M,M,M,M,M,M,M,M,M,M,64.40,KHTH 200735Z AUTO 14005KT 10SM CLR 18/02 A3011 RMK A01,M
TMT,2023-05-20 07:35,-117.1971,39.4643,1749.34,47.30,38.50,71.33,240.00,3.00,0.00,30.24,M,10.00,M,CLR,M,M,M,M,M,M,M,M,M,M,M,M,M,M,46.18,KTMT 200735Z AUTO 24003KT 10SM CLR 09/04 A3024 RMK AO2 T00850036,M
10U,2023-05-20 07:35,-116.1876,41.9532,1637.00,55.40,37.40,50.64,110.00,7.00,0.00,30.22,M,10.00,M,FEW,FEW,SCT,M,2800.00,3400.00,7000.00,M,M,M,M,M,M,M,M,55.40,K10U 200735Z AUTO 11007KT 10SM FEW028 FEW034 SCT070 13/03 A3022 RMK AO2,M
05U,2023-05-20 07:50,-116.0051,39.6042,1811.23,48.20,35.60,61.52,0.00,0.00,0.00,30.26,M,10.00,M,CLR,M,M,M,M,M,M,M,M,M,M,M,M,M,M,48.20,K05U 200750Z AUTO 00000KT 10SM CLR 09/02 A3026 RMK A01,M
LOL,2023-05-20 07:53,-118.5701,40.0684,1192.43,57.00,37.00,47.04,160.00,4.00,0.00,30.08,1015.10,10.00,M,CLR,M,M,M,M,M,M,M,M,M,M,M,M,M,M,57.00,KLOL 200753Z AUTO 16004KT 10SM CLR 14/03 A3008 RMK AO2 SLP151 T01390028 403110083,M
DRA,2023-05-20 07:53,-116.0278,36.6206,1009.00,72.00,38.00,28.85,90.00,4.00,0.00,30.04,1012.30,10.00,M,CLR,M,M,M,M,M,M,M,M,M,M,M,M,M,M,72.00,KDRA 200753Z AUTO 09004KT 10SM CLR 22/03 A3004 RMK AO2 SLP123 T02220033 403390167,M
ELY,2023-05-20 07:53,-114.8453,39.2950,1909.00,46.00,35.00,65.52,180.00,8.00,0.00,30.28,1017.70,10.00,M,CLR,M,M,M,M,M,M,M,M,M,M,M,M,M,M,41.36,KELY 200753Z AUTO 18008KT 10SM CLR 08/02 A3028 RMK AO2 SLP177 T00780017 402440028,M
P68,2023-05-20 07:53,-116.0056,39.6014,1993.00,51.00,35.00,54.13,130.00,3.00,0.00,30.24,1016.90,M,M,M,M,M,M,M,M,M,M,M,M,M,M,M,M,M,51.10,KP68 200753Z AUTO 13003KT 11/02 A3024 RMK AO1 SLP169 T01060017 402670044,M
VGT,2023-05-20 07:53,-115.1933,36.2111,667.00,80.00,47.00,31.15,130.00,9.00,0.00,30.01,1015.40,10.00,M,CLR,M,M,M,M,M,M,M,M,M,M,M,M,M,M,79.33,KVGT 200753Z AUTO 13009KT 10SM CLR 27/08 A3001 RMK AO2 SLP154 T02670083 403610239,M
BVU,2023-05-20 07:55,-114.8611,35.9475,671.00,73.40,50.00,43.69,250.00,6.00,0.00,30.04,M,10.00,M,CLR,M,M,M,M,M,M,M,M,M,M,M,M,M,M,73.40,KBVU 200755Z AUTO 25006KT 10SM CLR 23/10 A3004 RMK AO2,M
CXP,2023-05-20 07:55,-119.7326,39.1923,1431.00,60.80,44.60,55.12,20.00,3.00,0.00,30.18,M,10.00,M,CLR,M,M,M,M,M,M,M,M,M,M,M,M,M,M,60.80,KCXP 200755Z AUTO 02003KT 10SM CLR 16/07 A3018 RMK AO2,M
RTS,2023-05-20 07:55,-119.8764,39.6682,1539.00,57.20,44.60,62.69,340.00,6.00,0.00,30.20,M,10.00,M,CLR,M,M,M,M,M,M,M,M,M,M,M,M,M,M,57.20,KRTS 200755Z AUTO 34006KT 10SM CLR 14/07 A3020 RMK AO2,M
MEV,2023-05-20 07:55,-119.7500,38.9963,1441.42,51.80,42.80,71.26,70.00,4.00,0.00,30.17,M,10.00,M,FEW,M,M,M,5000.00,M,M,M,M,M,M,M,M,M,M,51.80,KMEV 200755Z AUTO 07004KT 10SM FEW050 11/06 A3017 RMK AO2,M
BAM,2023-05-20 07:55,-116.8743,40.5990,1382.36,55.40,35.60,47.16,60.00,3.00,0.00,30.16,M,10.00,M,CLR,M,M,M,M,M,M,M,M,M,M,M,M,M,M,55.40,KBAM 200755Z AUTO 06003KT 10SM CLR 13/02 A3016 RMK AO1,M
HTH,2023-05-20 07:55,-118.6315,38.5448,1282.89,66.20,37.40,34.51,0.00,0.00,0.00,30.11,M,10.00,M,CLR,M,M,M,M,M,M,M,M,M,M,M,M,M,M,66.20,KHTH 200755Z AUTO 00000KT 10SM CLR 19/03 A3011 RMK A01,M
10U,2023-05-20 07:55,-116.1876,41.9532,1637.00,50.00,37.40,61.76,80.00,3.00,0.00,30.22,M,10.00,M,FEW,SCT,SCT,M,2800.00,3400.00,7000.00,M,M,M,M,M,M,M,M,50.00,K10U 200755Z AUTO 08003KT 10SM FEW028 SCT034 SCT070 10/03 A3022 RMK AO2,M
INS,2023-05-20 07:55,-115.6733,36.5872,955.00,65.30,42.80,43.92,0.00,0.00,0.00,30.05,1013.20,10.00,M,CLR,M,M,M,M,M,M,M,M,M,M,M,M,M,M,65.30,KINS 200755Z AUTO 00000KT 10SM CLR 19/06 A3005 RMK AO2 SLP132 T01850060 403280182 $,M
LSV,2023-05-20 07:55,-115.0343,36.2362,570.00,80.00,47.30,31.83,120.00,9.00,0.00,29.98,1012.70,10.00,M,CLR,M,M,M,M,M,M,M,M,M,M,M,M,M,M,79.90,KLSV 200755Z AUTO 12009KT 10SM CLR 27/09 A2998 RMK AO2 SLP127 T02660085 403720230 $,M
RNO,2023-05-20 07:55,-119.7711,39.4839,1341.00,69.00,44.00,40.48,280.00,5.00,0.00,30.15,1015.10,10.00,M,FEW,M,M,M,12000.00,M,M,M,M,M,M,M,M,M,M,69.10,KRNO 200755Z 28005KT 10SM FEW120 21/07 A3015 RMK AO2 SLP151 T02060067 403220122,M
TMT,2023-05-20 07:55,-117.1971,39.4643,1749.34,47.00,38.00,71.29,240.00,4.00,0.00,30.24,M,10.00,M,CLR,M,M,M,M,M,M,M,M,M,M,M,M,M,M,44.82,KTMT 200755Z AUTO 24004KT 10SM CLR 08/03 A3024 RMK AO2 T00830034,M
TPH,2023-05-20 07:56,-117.0904,38.0505,1654.00,M,M,M,M,M,0.00,30.19,M,M,M,M,M,M,M,M,M,M,M,M,M,M,M,M,M,M,M,KTPH 200756Z AUTO A3019 RMK AO2 SLPNO PWINO $,M
WMC,2023-05-20 07:56,-117.8072,40.9019,1315.00,58.00,39.00,49.26,120.00,7.00,0.00,30.12,1015.60,10.00,M,CLR,M,M,M,M,M,M,M,M,M,M,M,M,M,M,57.90,KWMC 200756Z AUTO 12007KT 10SM CLR 14/04 A3012 RMK AO2 SLP156 T01440039 403110094,M
EKO,2023-05-20 07:56,-115.7860,40.8242,1367.00,56.00,42.00,59.71,340.00,5.00,0.00,30.20,1018.10,10.00,M,CLR,M,M,M,M,M,M,M,M,M,M,M,M,M,M,55.90,KEKO 200756Z AUTO 34005KT 10SM CLR 13/06 A3020 RMK AO2 SLP181 T01330056 402780067,M
HND,2023-05-20 07:56,-115.1344,35.9729,742.79,74.00,51.00,44.76,180.00,7.00,0.00,30.07,1017.00,10.00,M,CLR,M,M,M,M,M,M,M,M,M,M,M,M,M,M,73.90,KHND 200756Z AUTO 18007KT 10SM CLR 23/11 A3007 RMK AO2 SLP170 T02330106,M
LAS,2023-05-20 07:56,-115.1634,36.0719,663.00,78.00,47.00,33.26,170.00,7.00,0.00,30.02,1014.20,10.00,M,FEW,BKN,M,M,12000.00,20000.00,M,M,M,M,M,M,M,M,M,78.10,KLAS 200756Z 17007KT 10SM FEW120 BKN200 26/08 A3002 RMK AO2 SLP142 T02560083 403560239,M
05U,2023-05-20 08:10,-116.0051,39.6042,1811.23,50.00,33.80,53.54,M,3.00,0.00,30.26,M,10.00,M,CLR,M,M,M,M,M,M,M,M,M,M,M,M,M,M,50.00,K05U 200810Z AUTO VRB03KT 10SM CLR 10/01 A3026 RMK A01,M
BVU,2023-05-20 08:15,-114.8611,35.9475,671.00,73.40,51.80,46.71,230.00,6.00,0.00,30.03,M,10.00,M,FEW,FEW,M,M,4200.00,5000.00,M,M,M,M,M,M,M,M,M,73.40,KBVU 200815Z AUTO 23006KT 10SM FEW042 FEW050 23/11 A3003 RMK AO2,M
CXP,2023-05-20 08:15,-119.7326,39.1923,1431.00,60.80,44.60,55.12,0.00,0.00,0.00,30.18,M,10.00,M,CLR,M,M,M,M,M,M,M,M,M,M,M,M,M,M,60.80,KCXP 200815Z AUTO 00000KT 10SM CLR 16/07 A3018 RMK AO2,M
RTS,2023-05-20 08:15,-119.8764,39.6682,1539.00,55.40,46.40,71.64,340.00,7.00,0.00,30.20,M,10.00,M,CLR,M,M,M,M,M,M,M,M,M,M,M,M,M,M,55.40,KRTS 200815Z AUTO 34007KT 10SM CLR 13/08 A3020 RMK AO2,M
MEV,2023-05-20 08:15,-119.7500,38.9963,1441.42,53.60,44.60,71.45,0.00,0.00,0.00,30.17,M,10.00,M,FEW,FEW,M,M,5000.00,5500.00,M,M,M,M,M,M,M,M,M,53.60,KMEV 200815Z AUTO 00000KT 10SM FEW050 FEW055 12/07 A3017 RMK AO2,M
BAM,2023-05-20 08:15,-116.8743,40.5990,1382.36,55.40,35.60,47.16,70.00,5.00,0.00,30.16,M,10.00,M,CLR,M,M,M,M,M,M,M,M,M,M,M,M,M,M,55.40,KBAM 200815Z AUTO 07005KT 10SM CLR 13/02 A3016 RMK AO1,M
HTH,2023-05-20 08:15,-118.6315,38.5448,1282.89,64.40,37.40,36.74,220.00,5.00,0.00,30.10,M,10.00,M,CLR,M,M,M,M,M,M,M,M,M,M,M,M,M,M,64.40,KHTH 200815Z AUTO 22005KT 10SM CLR 18/03 A3010 RMK A01,M
TMT,2023-05-20 08:15,-117.1971,39.4643,1749.34,46.20,37.60,71.78,210.00,4.00,0.00,30.24,M,10.00,M,CLR,M,M,M,M,M,M,M,M,M,M,M,M,M,M,44.00,KTMT 200815Z AUTO 21004KT 10SM CLR 08/03 A3024 RMK AO2 T00790031,M
10U,2023-05-20 08:15,-116.1876,41.9532,1637.00,50.00,37.40,61.76,90.00,6.00,0.00,30.22,M,10.00,M,FEW,SCT,SCT,M,2700.00,3200.00,7000.00,M,M,M,M,M,M,M,M,50.00,K10U 200815Z AUTO 09006KT 10SM FEW027 SCT032 SCT070 10/03 A3022 RMK AO2,M
05U,2023-05-20 08:30,-116.0051,39.6042,1811.23,48.20,33.80,57.26,10.00,3.00,0.00,30.26,M,10.00,M,CLR,M,M,M,M,M,M,M,M,M,M,M,M,M,M,47.21,K05U 200830Z AUTO 01003KT 10SM CLR 09/01 A3026 RMK A01,M
BVU,2023-05-20 08:35,-114.8611,35.9475,671.00,75.20,50.00,41.14,M,3.00,0.00,30.03,M,10.00,11.00,FEW,FEW,SCT,M,2200.00,4300.00,12000.00,M,M,M,M,M,M,M,M,75.20,KBVU 200835Z AUTO VRB03G11KT 10SM FEW022 FEW043 SCT120 24/10 A3003 RMK AO2,M
CXP,2023-05-20 08:35,-119.7326,39.1923,1431.00,59.00,42.80,54.86,0.00,0.00,0.00,30.18,M,10.00,M,CLR,M,M,M,M,M,M,M,M,M,M,M,M,M,M,59.00,KCXP 200835Z AUTO 00000KT 10SM CLR 15/06 A3018 RMK AO2,M
RTS,2023-05-20 08:35,-119.8764,39.6682,1539.00,55.40,44.60,66.91,330.00,8.00,0.00,30.20,M,10.00,M,CLR,M,M,M,M,M,M,M,M,M,M,M,M,M,M,55.40,KRTS 200835Z AUTO 33008KT 10SM CLR 13/07 A3020 RMK AO2,M
MEV,2023-05-20 08:35,-119.7500,38.9963,1441.42,53.60,44.60,71.45,150.00,6.00,0.00,30.17,M,10.00,M,FEW,FEW,SCT,M,3400.00,4000.00,4500.00,M,M,M,M,M,M,M,M,53.60,KMEV 200835Z AUTO 15006KT 10SM FEW034 FEW040 SCT045 12/07 A3017 RMK AO2,M
BAM,2023-05-20 08:35,-116.8743,40.5990,1382.36,55.40,37.40,50.64,80.00,6.00,0.00,30.16,M,10.00,M,CLR,M,M,M,M,M,M,M,M,M,M,M,M,M,M,55.40,KBAM 200835Z AUTO 08006KT 10SM CLR 13/03 A3016 RMK AO1,M
HTH,2023-05-20 08:35,-118.6315,38.5448,1282.89,62.60,37.40,39.14,0.00,0.00,0.00,30.11,M,10.00,M,CLR,M,M,M,M,M,M,M,M,M,M,M,M,M,M,62.60,KHTH 200835Z AUTO 00000KT 10SM CLR 17/03 A3011 RMK A01,M
TMT,2023-05-20 08:35,-117.1971,39.4643,1749.34,43.50,35.60,73.51,0.00,0.00,0.00,30.24,M,10.00,M,CLR,M,M,M,M,M,M,M,M,M,M,M,M,M,M,43.50,KTMT 200835Z AUTO 00000KT 10SM CLR 06/02 A3024 RMK AO2 T00640020,M
10U,2023-05-20 08:35,-116.1876,41.9532,1637.00,51.80,39.20,61.99,100.00,8.00,0.00,30.22,M,10.00,M,FEW,SCT,M,M,3000.00,3600.00,M,M,M,M,M,M,M,M,M,51.80,K10U 200835Z AUTO 10008KT 10SM FEW030 SCT036 11/04 A3022 RMK AO2,M
05U,2023-05-20 08:50,-116.0051,39.6042,1811.23,46.40,33.80,61.28,0.00,0.00,0.00,30.27,M,10.00,M,CLR,M,M,M,M,M,M,M,M,M,M,M,M,M,M,46.40,K05U 200850Z AUTO 00000KT 10SM CLR 08/01 A3027 RMK A01,M
P68,2023-05-20 08:53,-116.0056,39.6014,1993.00,47.00,34.00,60.61,0.00,0.00,0.00,30.24,1017.40,M,M,M,M,M,M,M,M,M,M,M,M,M,M,M,M,M,46.90,KP68 200853Z AUTO 00000KT 08/01 A3024 RMK AO1 SLP174 T00830011 51002,M
DRA,2023-05-20 08:53,-116.0278,36.6206,1009.00,70.00,38.00,30.88,120.00,6.00,0.00,30.05,1012.60,10.00,M,CLR,M,M,M,M,M,M,M,M,M,M,M,M,M,M,70.00,KDRA 200853Z AUTO 12006KT 10SM CLR 21/03 A3005 RMK AO2 SLP126 T02110033 52006,M
LOL,2023-05-20 08:53,-118.5701,40.0684,1192.43,55.00,38.00,52.40,0.00,0.00,0.00,30.09,1015.50,10.00,M,CLR,M,M,M,M,M,M,M,M,M,M,M,M,M,M,55.00,KLOL 200853Z AUTO 00000KT 10SM CLR 13/03 A3009 RMK AO2 SLP155 T01280033 52003,M
ELY,2023-05-20 08:53,-114.8453,39.2950,1909.00,44.00,33.00,65.02,0.00,0.00,0.00,30.28,1017.80,10.00,M,FEW,M,M,M,9500.00,M,M,M,M,M,M,M,M,M,M,44.10,KELY 200853Z AUTO 00000KT 10SM FEW095 07/01 A3028 RMK AO2 SLP178 T00670006 53002,M
VGT,2023-05-20 08:53,-115.1933,36.2111,667.00,80.00,47.00,31.15,150.00,5.00,0.00,30.03,1015.80,10.00,M,CLR,M,M,M,M,M,M,M,M,M,M,M,M,M,M,79.33,KVGT 200853Z AUTO 15005KT 10SM CLR 27/08 A3003 RMK AO2 SLP158 T02670083 52014,M
BVU,2023-05-20 08:55,-114.8611,35.9475,671.00,75.20,50.00,41.14,0.00,0.00,0.00,30.04,M,10.00,M,CLR,M,M,M,M,M,M,M,M,M,M,M,M,M,M,75.20,KBVU 200855Z AUTO 00000KT 10SM CLR 24/10 A3004 RMK AO2,M
CXP,2023-05-20 08:55,-119.7326,39.1923,1431.00,59.00,42.80,54.86,0.00,0.00,0.00,30.18,M,10.00,M,CLR,M,M,M,M,M,M,M,M,M,M,M,M,M,M,59.00,KCXP 200855Z AUTO 00000KT 10SM CLR 15/06 A3018 RMK AO2,M
RNO,2023-05-20 08:55,-119.7711,39.4839,1341.00,66.00,43.00,43.20,290.00,6.00,0.00,30.15,1015.20,10.00,M,FEW,M,M,M,12000.00,M,M,M,M,M,M,M,M,M,M,66.00,KRNO 200855Z 29006KT 10SM FEW120 19/06 A3015 RMK AO2 SLP152 T01890061 51005,M
RTS,2023-05-20 08:55,-119.8764,39.6682,1539.00,53.60,44.60,71.45,330.00,6.00,0.00,30.20,M,10.00,M,CLR,M,M,M,M,M,M,M,M,M,M,M,M,M,M,53.60,KRTS 200855Z AUTO 33006KT 10SM CLR 12/07 A3020 RMK AO2,M
MEV,2023-05-20 08:55,-119.7500,38.9963,1441.42,51.80,44.60,76.34,110.00,8.00,0.00,30.17,M,10.00,M,FEW,SCT,SCT,M,3000.00,3400.00,4400.00,M,M,M,M,M,M,M,M,51.80,KMEV 200855Z AUTO 11008KT 10SM FEW030 SCT034 SCT044 11/07 A3017 RMK AO2,M
BAM,2023-05-20 08:55,-116.8743,40.5990,1382.36,53.60,37.40,54.07,50.00,6.00,0.00,30.16,M,10.00,M,CLR,M,M,M,M,M,M,M,M,M,M,M,M,M,M,53.60,KBAM 200855Z AUTO 05006KT 10SM CLR 12/03 A3016 RMK AO1,M
HTH,2023-05-20 08:55,-118.6315,38.5448,1282.89,64.40,35.60,34.22,0.00,0.00,0.00,30.11,M,10.00,M,CLR,M,M,M,M,M,M,M,M,M,M,M,M,M,M,64.40,KHTH 200855Z AUTO 00000KT 10SM CLR 18/02 A3011 RMK A01,M
TMT,2023-05-20 08:55,-117.1971,39.4643,1749.34,41.70,33.40,72.16,180.00,3.00,0.00,30.24,M,10.00,M,CLR,M,M,M,M,M,M,M,M,M,M,M,M,M,M,39.78,KTMT 200855Z AUTO 18003KT 10SM CLR 05/01 A3024 RMK AO2 T00540008,M
10U,2023-05-20 08:55,-116.1876,41.9532,1637.00,51.80,37.40,57.77,90.00,7.00,0.00,30.22,M,10.00,M,FEW,FEW,M,M,2800.00,3600.00,M,M,M,M,M,M,M,M,M,51.80,K10U 200855Z AUTO 09007KT 10SM FEW028 FEW036 11/03 A3022 RMK AO2,M
INS,2023-05-20 08:55,-115.6733,36.5872,955.00,66.20,43.00,42.90,150.00,3.00,0.00,30.06,1013.30,10.00,M,OVC,M,M,M,12000.00,M,M,M,M,M,M,M,M,M,M,66.20,KINS 200855Z AUTO 15003KT 10SM OVC120 19/06 A3006 RMK AO2 SLP133 T01900061 53008 $,M
LSV,2023-05-20 08:55,-115.0343,36.2362,570.00,79.00,48.20,33.91,150.00,7.00,0.00,30.00,1013.30,10.00,M,OVC,M,M,M,12000.00,M,M,M,M,M,M,M,M,M,M,79.00,KLSV 200855Z AUTO 15007KT 10SM OVC120 26/09 A3000 RMK AO2 SLP133 T02610090 52013 $,M
EKO,2023-05-20 08:56,-115.7860,40.8242,1367.00,52.00,43.00,71.28,0.00,0.00,0.00,30.20,1018.30,10.00,M,CLR,M,M,M,M,M,M,M,M,M,M,M,M,M,M,52.00,KEKO 200856Z AUTO 00000KT 10SM CLR 11/06 A3020 RMK AO2 SLP183 T01110061 51005,M
WMC,2023-05-20 08:56,-117.8072,40.9019,1315.00,60.00,41.00,49.21,70.00,6.00,0.00,30.13,1015.50,10.00,M,CLR,M,M,M,M,M,M,M,M,M,M,M,M,M,M,60.10,KWMC 200856Z AUTO 07006KT 10SM CLR 16/05 A3013 RMK AO2 SLP155 T01560050 53004,M
HND,2023-05-20 08:56,-115.1344,35.9729,742.79,73.00,52.00,47.69,200.00,3.00,0.00,30.07,1017.20,10.00,M,SCT,M,M,M,12000.00,M,M,M,M,M,M,M,M,M,M,73.00,KHND 200856Z AUTO 20003KT 10SM SCT120 23/11 A3007 RMK AO2 SLP172 T02280111 51015,M
TPH,2023-05-20 08:56,-117.0904,38.0505,1654.00,M,M,M,M,M,0.00,30.18,M,M,M,M,M,M,M,M,M,M,M,M,M,M,M,M,M,M,M,KTPH 200856Z AUTO A3018 RMK AO2 SLPNO 50000 PWINO $,M
LAS,2023-05-20 08:56,-115.1634,36.0719,663.00,78.00,49.00,35.86,160.00,7.00,0.00,30.04,1014.40,10.00,M,SCT,BKN,M,M,12000.00,15000.00,M,M,M,M,M,M,M,M,M,78.10,KLAS 200856Z 16007KT 10SM SCT120 BKN150 26/09 A3004 RMK AO2 SLP144 T02560094 51015,M
05U,2023-05-20 09:10,-116.0051,39.6042,1811.23,44.60,33.80,65.61,0.00,0.00,0.00,30.27,M,10.00,M,CLR,M,M,M,M,M,M,M,M,M,M,M,M,M,M,44.60,K05U 200910Z AUTO 00000KT 10SM CLR 07/01 A3027 RMK A01,M
BVU,2023-05-20 09:15,-114.8611,35.9475,671.00,77.00,50.00,38.74,100.00,5.00,0.00,30.04,M,10.00,M,CLR,M,M,M,M,M,M,M,M,M,M,M,M,M,M,77.00,KBVU 200915Z AUTO 10005KT 10SM CLR 25/10 A3004 RMK AO2,M
CXP,2023-05-20 09:15,-119.7326,39.1923,1431.00,59.00,44.60,58.77,0.00,0.00,0.00,30.19,M,10.00,M,CLR,M,M,M,M,M,M,M,M,M,M,M,M,M,M,59.00,KCXP 200915Z AUTO 00000KT 10SM CLR 15/07 A3019 RMK AO2,M
RTS,2023-05-20 09:15,-119.8764,39.6682,1539.00,53.60,46.40,76.50,340.00,8.00,0.00,30.20,M,10.00,M,CLR,M,M,M,M,M,M,M,M,M,M,M,M,M,M,53.60,KRTS 200915Z AUTO 34008KT 10SM CLR 12/08 A3020 RMK AO2,M
MEV,2023-05-20 09:15,-119.7500,38.9963,1441.42,50.00,42.80,76.18,130.00,4.00,0.00,30.18,M,10.00,M,FEW,SCT,BKN,M,2900.00,3500.00,4800.00,M,M,M,M,M,M,M,M,50.00,KMEV 200915Z AUTO 13004KT 10SM FEW029 SCT035 BKN048 10/06 A3018 RMK AO2,M
BAM,2023-05-20 09:15,-116.8743,40.5990,1382.36,55.40,37.40,50.64,70.00,7.00,0.00,30.16,M,10.00,M,CLR,M,M,M,M,M,M,M,M,M,M,M,M,M,M,55.40,KBAM 200915Z AUTO 07007KT 10SM CLR 13/03 A3016 RMK AO1,M
HTH,2023-05-20 09:15,-118.6315,38.5448,1282.89,62.60,37.40,39.14,0.00,0.00,0.00,30.11,M,10.00,M,CLR,M,M,M,M,M,M,M,M,M,M,M,M,M,M,62.60,KHTH 200915Z AUTO 00000KT 10SM CLR 17/03 A3011 RMK A01,M
TMT,2023-05-20 09:15,-117.1971,39.4643,1749.34,39.70,32.00,73.71,0.00,0.00,0.00,30.24,M,10.00,M,CLR,M,M,M,M,M,M,M,M,M,M,M,M,M,M,39.70,KTMT 200915Z AUTO 00000KT 10SM CLR 04/00 A3024 RMK AO2 T00430000,M
10U,2023-05-20 09:15,-116.1876,41.9532,1637.00,53.60,37.40,54.07,60.00,6.00,0.00,30.22,M,10.00,M,FEW,FEW,SCT,M,2200.00,2700.00,3600.00,M,M,M,M,M,M,M,M,53.60,K10U 200915Z AUTO 06006KT 10SM FEW022 FEW027 SCT036 12/03 A3022 RMK AO2,M
05U,2023-05-20 09:30,-116.0051,39.6042,1811.23,46.40,33.80,61.28,360.00,3.00,0.00,30.26,M,10.00,M,CLR,M,M,M,M,M,M,M,M,M,M,M,M,M,M,45.15,K05U 200930Z AUTO 36003KT 10SM CLR 08/01 A3026 RMK A01,M
BVU,2023-05-20 09:35,-114.8611,35.9475,671.00,75.20,50.00,41.14,120.00,5.00,0.00,30.04,M,10.00,M,CLR,M,M,M,M,M,M,M,M,M,M,M,M,M,M,75.20,KBVU 200935Z AUTO 12005KT 10SM CLR 24/10 A3004 RMK AO2,M
CXP,2023-05-20 09:35,-119.7326,39.1923,1431.00,59.00,42.80,54.86,0.00,0.00,0.00,30.19,M,10.00,M,CLR,M,M,M,M,M,M,M,M,M,M,M,M,M,M,59.00,KCXP 200935Z AUTO 00000KT 10SM CLR 15/06 A3019 RMK AO2,M
RTS,2023-05-20 09:35,-119.8764,39.6682,1539.00,53.60,44.60,71.45,340.00,7.00,0.00,30.20,M,10.00,M,CLR,M,M,M,M,M,M,M,M,M,M,M,M,M,M,53.60,KRTS 200935Z AUTO 34007KT 10SM CLR 12/07 A3020 RMK AO2,M
MEV,2023-05-20 09:35,-119.7500,38.9963,1441.42,50.00,42.80,76.18,0.00,0.00,0.00,30.18,M,10.00,M,FEW,SCT,SCT,M,3300.00,4300.00,5500.00,M,M,M,M,M,M,M,M,50.00,KMEV 200935Z AUTO 00000KT 10SM FEW033 SCT043 SCT055 10/06 A3018 RMK AO2,M
BAM,2023-05-20 09:35,-116.8743,40.5990,1382.36,59.00,39.20,47.72,70.00,6.00,0.00,30.16,M,10.00,M,CLR,M,M,M,M,M,M,M,M,M,M,M,M,M,M,59.00,KBAM 200935Z AUTO 07006KT 10SM CLR 15/04 A3016 RMK AO1,M
HTH,2023-05-20 09:35,-118.6315,38.5448,1282.89,62.60,37.40,39.14,0.00,0.00,0.00,30.12,M,10.00,M,CLR,M,M,M,M,M,M,M,M,M,M,M,M,M,M,62.60,KHTH 200935Z AUTO 00000KT 10SM CLR 17/03 A3012 RMK A01,M
TMT,2023-05-20 09:35,-117.1971,39.4643,1749.34,42.00,32.40,68.26,0.00,0.00,0.00,30.24,M,10.00,M,CLR,M,M,M,M,M,M,M,M,M,M,M,M,M,M,42.10,KTMT 200935Z AUTO 00000KT 10SM CLR 06/00 A3024 RMK AO2 T00560002,M
10U,2023-05-20 09:35,-116.1876,41.9532,1637.00,48.20,37.40,66.05,0.00,0.00,0.00,30.23,M,10.00,M,FEW,SCT,SCT,M,2300.00,3800.00,4700.00,M,M,M,M,M,M,M,M,48.20,K10U 200935Z AUTO 00000KT 10SM FEW023 SCT038 SCT047 09/03 A3023 RMK AO2,M
05U,2023-05-20 09:50,-116.0051,39.6042,1811.23,44.60,33.80,65.61,0.00,0.00,0.00,30.26,M,10.00,M,CLR,M,M,M,M,M,M,M,M,M,M,M,M,M,M,44.60,K05U 200950Z AUTO 00000KT 10SM CLR 07/01 A3026 RMK A01,M
ELY,2023-05-20 09:53,-114.8453,39.2950,1909.00,42.00,34.00,72.78,180.00,7.00,0.00,30.28,1017.60,10.00,M,CLR,M,M,M,M,M,M,M,M,M,M,M,M,M,M,37.09,KELY 200953Z AUTO 18007KT 10SM CLR 06/01 A3028 RMK AO2 SLP176 T00560011,M
LOL,2023-05-20 09:53,-118.5701,40.0684,1192.43,55.00,37.00,50.58,320.00,3.00,0.00,30.09,1015.30,10.00,M,CLR,M,M,M,M,M,M,M,M,M,M,M,M,M,M,55.00,KLOL 200953Z AUTO 32003KT 10SM CLR 13/03 A3009 RMK AO2 SLP153 T01280028,M
P68,2023-05-20 09:53,-116.0056,39.6014,1993.00,45.00,33.00,62.83,210.00,4.00,0.00,30.23,1017.40,M,M,M,M,M,M,M,M,M,M,M,M,M,M,M,M,M,42.60,KP68 200953Z AUTO 21004KT 07/01 A3023 RMK AO1 SLP174 T00720006,M
DRA,2023-05-20 09:53,-116.0278,36.6206,1009.00,68.00,38.00,33.07,330.00,8.00,0.00,30.06,1013.20,10.00,M,CLR,M,M,M,M,M,M,M,M,M,M,M,M,M,M,68.00,KDRA 200953Z AUTO 33008KT 10SM CLR 20/03 A3006 RMK AO2 SLP132 T02000033,M
VGT,2023-05-20 09:53,-115.1933,36.2111,667.00,78.00,48.00,34.67,110.00,6.00,0.00,30.02,1015.60,10.00,M,FEW,M,M,M,12000.00,M,M,M,M,M,M,M,M,M,M,78.10,KVGT 200953Z AUTO 11006KT 10SM FEW120 26/09 A3002 RMK AO2 SLP156 T02560089,M
BVU,2023-05-20 09:55,-114.8611,35.9475,671.00,75.20,50.00,41.14,100.00,7.00,0.00,30.04,M,10.00,M,CLR,M,M,M,M,M,M,M,M,M,M,M,M,M,M,75.20,KBVU 200955Z AUTO 10007KT 10SM CLR 24/10 A3004 RMK AO2,M
CXP,2023-05-20 09:55,-119.7326,39.1923,1431.00,57.20,44.60,62.69,0.00,0.00,0.00,30.19,M,3.00,M,CLR,M,M,M,M,M,M,M,HZ,M,M,M,M,M,M,57.20,KCXP 200955Z AUTO 00000KT 3SM HZ CLR 14/07 A3019 RMK AO2,M
RNO,2023-05-20 09:55,-119.7711,39.4839,1341.00,64.00,43.00,46.32,270.00,7.00,0.00,30.15,1015.30,10.00,M,FEW,M,M,M,12000.00,M,M,M,M,M,M,M,M,M,M,64.00,KRNO 200955Z 27007KT 10SM FEW120 18/06 A3015 RMK AO2 SLP153 T01780061,M
RTS,2023-05-20 09:55,-119.8764,39.6682,1539.00,51.80,46.40,81.74,350.00,8.00,0.00,30.20,M,10.00,M,CLR,M,M,M,M,M,M,M,M,M,M,M,M,M,M,51.80,KRTS 200955Z AUTO 35008KT 10SM CLR 11/08 A3020 RMK AO2,M
MEV,2023-05-20 09:55,-119.7500,38.9963,1441.42,51.80,42.80,71.26,0.00,0.00,0.00,30.17,M,10.00,M,FEW,SCT,SCT,M,3000.00,3800.00,4500.00,M,M,M,M,M,M,M,M,51.80,KMEV 200955Z AUTO 00000KT 10SM FEW030 SCT038 SCT045 11/06 A3017 RMK AO2,M
BAM,2023-05-20 09:55,-116.8743,40.5990,1382.36,59.00,39.20,47.72,50.00,8.00,0.00,30.15,M,10.00,M,CLR,M,M,M,M,M,M,M,M,M,M,M,M,M,M,59.00,KBAM 200955Z AUTO 05008KT 10SM CLR 15/04 A3015 RMK AO1,M
HTH,2023-05-20 09:55,-118.6315,38.5448,1282.89,62.60,35.60,36.45,260.00,6.00,0.00,30.12,M,10.00,M,CLR,M,M,M,M,M,M,M,M,M,M,M,M,M,M,62.60,KHTH 200955Z AUTO 26006KT 10SM CLR 17/02 A3012 RMK A01,M
TMT,2023-05-20 09:55,-117.1971,39.4643,1749.34,39.70,31.80,73.12,0.00,0.00,0.00,30.24,M,10.00,M,CLR,M,M,M,M,M,M,M,M,M,M,M,M,M,M,39.70,KTMT 200955Z AUTO 00000KT 10SM CLR 04/00 A3024 RMK AO2 T00431001,M
10U,2023-05-20 09:55,-116.1876,41.9532,1637.00,46.40,37.40,70.68,0.00,0.00,0.00,30.23,M,10.00,M,CLR,M,M,M,M,M,M,M,M,M,M,M,M,M,M,46.40,K10U 200955Z AUTO 00000KT 10SM CLR 08/03 A3023 RMK AO2,M
INS,2023-05-20 09:55,-115.6733,36.5872,955.00,66.60,41.50,39.93,220.00,4.00,0.00,30.06,1013.30,10.00,M,FEW,M,M,M,13000.00,M,M,M,M,M,M,M,M,M,M,66.60,KINS 200955Z AUTO 22004KT 10SM FEW130 19/05 A3006 RMK AO2 SLP133 T01920053 $,M
LSV,2023-05-20 09:55,-115.0343,36.2362,570.00,77.70,50.00,37.86,130.00,3.00,0.00,29.99,1013.00,10.00,M,FEW,M,M,M,15000.00,M,M,M,M,M,M,M,M,M,M,77.70,KLSV 200955Z AUTO 13003KT 10SM FEW150 25/10 A2999 RMK AO2 SLP130 T02540100 $,M
TPH,2023-05-20 09:56,-117.0904,38.0505,1654.00,M,M,M,M,M,0.00,30.18,M,M,M,M,M,M,M,M,M,M,M,M,M,M,M,M,M,M,M,KTPH 200956Z AUTO A3018 RMK AO2 SLPNO PWINO $,M
LAS,2023-05-20 09:56,-115.1634,36.0719,663.00,77.00,50.00,38.74,170.00,5.00,0.00,30.02,1013.90,10.00,M,FEW,BKN,M,M,6500.00,12000.00,M,M,M,M,M,M,M,M,M,77.00,KLAS 200956Z 17005KT 10SM FEW065 BKN120 25/10 A3002 RMK AO2 SLP139 VCSH T02500100,M
EKO,2023-05-20 09:56,-115.7860,40.8242,1367.00,48.00,42.00,79.91,200.00,3.00,0.00,30.20,1018.70,10.00,M,CLR,M,M,M,M,M,M,M,M,M,M,M,M,M,M,46.98,KEKO 200956Z AUTO 20003KT 10SM CLR 09/06 A3020 RMK AO2 SLP187 T00890056,M
WMC,2023-05-20 09:56,-117.8072,40.9019,1315.00,53.00,40.00,60.73,80.00,4.00,0.00,30.13,1016.00,10.00,M,CLR,M,M,M,M,M,M,M,M,M,M,M,M,M,M,53.10,KWMC 200956Z AUTO 08004KT 10SM CLR 12/04 A3013 RMK AO2 SLP160 T01170044,M
HND,2023-05-20 09:56,-115.1344,35.9729,742.79,74.00,51.00,44.76,0.00,0.00,0.00,30.07,1017.00,5.00,M,FEW,M,M,M,12000.00,M,M,M,HZ,M,M,M,M,M,M,73.90,KHND 200956Z AUTO 00000KT 5SM HZ FEW120 23/11 A3007 RMK AO2 SLP170 T02330106,M
05U,2023-05-20 10:10,-116.0051,39.6042,1811.23,44.60,33.80,65.61,0.00,0.00,0.00,30.26,M,10.00,M,CLR,M,M,M,M,M,M,M,M,M,M,M,M,M,M,44.60,K05U 201010Z AUTO 00000KT 10SM CLR 07/01 A3026 RMK A01,M
BVU,2023-05-20 10:15,-114.8611,35.9475,671.00,73.40,50.00,43.69,100.00,6.00,0.00,30.04,M,10.00,M,CLR,M,M,M,M,M,M,M,M,M,M,M,M,M,M,73.40,KBVU 201015Z AUTO 10006KT 10SM CLR 23/10 A3004 RMK AO2,M
CXP,2023-05-20 10:15,-119.7326,39.1923,1431.00,57.20,44.60,62.69,0.00,0.00,0.00,30.18,M,0.25,M,VV ,M,M,M,200.00,M,M,M,-RA HZ,M,M,M,M,M,M,57.20,KCXP 201015Z AUTO 00000KT 1/4SM -RA HZ VV002 14/07 A3018 RMK AO2,M
RTS,2023-05-20 10:15,-119.8764,39.6682,1539.00,51.80,44.60,76.34,350.00,7.00,0.00,30.19,M,10.00,M,CLR,M,M,M,M,M,M,M,M,M,M,M,M,M,M,51.80,KRTS 201015Z AUTO 35007KT 10SM CLR 11/07 A3019 RMK AO2,M
MEV,2023-05-20 10:15,-119.7500,38.9963,1441.42,48.20,41.00,76.01,0.00,0.00,0.00,30.17,M,10.00,M,FEW,SCT,SCT,M,3100.00,3900.00,5000.00,M,M,M,M,M,M,M,M,48.20,KMEV 201015Z AUTO 00000KT 10SM FEW031 SCT039 SCT050 09/05 A3017 RMK AO2,M
BAM,2023-05-20 10:15,-116.8743,40.5990,1382.36,60.80,39.20,44.76,160.00,3.00,0.00,30.16,M,10.00,M,CLR,M,M,M,M,M,M,M,M,M,M,M,M,M,M,60.80,KBAM 201015Z AUTO 16003KT 10SM CLR 16/04 A3016 RMK AO1,M
HTH,2023-05-20 10:15,-118.6315,38.5448,1282.89,60.80,35.60,38.85,0.00,0.00,0.00,30.11,M,10.00,M,CLR,M,M,M,M,M,M,M,M,M,M,M,M,M,M,60.80,KHTH 201015Z AUTO 00000KT 10SM CLR 16/02 A3011 RMK A01,M
TMT,2023-05-20 10:15,-117.1971,39.4643,1749.34,41.50,34.30,75.38,0.00,0.00,0.00,30.23,M,10.00,M,CLR,M,M,M,M,M,M,M,M,M,M,M,M,M,M,41.50,KTMT 201015Z AUTO 00000KT 10SM CLR 05/01 A3023 RMK AO2 T00530013,M
10U,2023-05-20 10:15,-116.1876,41.9532,1637.00,42.80,37.40,81.07,0.00,0.00,0.00,30.23,M,10.00,M,CLR,M,M,M,M,M,M,M,M,M,M,M,M,M,M,42.80,K10U 201015Z AUTO 00000KT 10SM CLR 06/03 A3023 RMK AO2,M
05U,2023-05-20 10:30,-116.0051,39.6042,1811.23,44.60,33.80,65.61,0.00,0.00,0.00,30.26,M,10.00,M,CLR,M,M,M,M,M,M,M,M,M,M,M,M,M,M,44.60,K05U 201030Z AUTO 00000KT 10SM CLR 07/01 A3026 RMK A01,M
CXP,2023-05-20 10:35,-119.7326,39.1923,1431.00,55.40,42.80,62.46,0.00,0.00,0.00,30.18,M,10.00,M,CLR,M,M,M,M,M,M,M,M,M,M,M,M,M,M,55.40,KCXP 201035Z AUTO 00000KT 10SM CLR 13/06 A3018 RMK AO2,M
RTS,2023-05-20 10:35,-119.8764,39.6682,1539.00,51.80,44.60,76.34,350.00,6.00,0.00,30.19,M,10.00,M,CLR,M,M,M,M,M,M,M,M,M,M,M,M,M,M,51.80,KRTS 201035Z AUTO 35006KT 10SM CLR 11/07 A3019 RMK AO2,M
MEV,2023-05-20 10:35,-119.7500,38.9963,1441.42,48.20,42.80,81.47,0.00,0.00,0.00,30.17,M,10.00,M,FEW,SCT,SCT,M,3400.00,4200.00,5000.00,M,M,M,M,M,M,M,M,48.20,KMEV 201035Z AUTO 00000KT 10SM FEW034 SCT042 SCT050 09/06 A3017 RMK AO2,M
BAM,2023-05-20 10:35,-116.8743,40.5990,1382.36,59.00,41.00,51.18,10.00,6.00,0.00,30.17,M,10.00,M,CLR,M,M,M,M,M,M,M,M,M,M,M,M,M,M,59.00,KBAM 201035Z AUTO 01006KT 10SM CLR 15/05 A3017 RMK AO1,M
HTH,2023-05-20 10:35,-118.6315,38.5448,1282.89,60.80,35.60,38.85,210.00,3.00,0.00,30.11,M,10.00,M,SCT,M,M,M,12000.00,M,M,M,M,M,M,M,M,M,M,60.80,KHTH 201035Z AUTO 21003KT 10SM SCT120 16/02 A3011 RMK A01,M
TMT,2023-05-20 10:35,-117.1971,39.4643,1749.34,40.60,33.60,75.90,230.00,3.00,0.00,30.24,M,10.00,M,CLR,M,M,M,M,M,M,M,M,M,M,M,M,M,M,38.52,KTMT 201035Z AUTO 23003KT 10SM CLR 05/01 A3024 RMK AO2 T00480009,M
10U,2023-05-20 10:35,-116.1876,41.9532,1637.00,42.80,37.40,81.07,0.00,0.00,0.00,30.23,M,10.00,M,FEW,FEW,SCT,M,2600.00,3200.00,4000.00,M,M,M,M,M,M,M,M,42.80,K10U 201035Z AUTO 00000KT 10SM FEW026 FEW032 SCT040 06/03 A3023 RMK AO2,M
BVU,2023-05-20 10:35,-114.8611,35.9475,671.00,73.40,50.00,43.69,110.00,8.00,0.00,30.04,M,10.00,M,CLR,M,M,M,M,M,M,M,M,M,M,M,M,M,M,73.40,KBVU 201035Z AUTO 11008KT 10SM CLR 23/10 A3004 RMK AO2,M
05U,2023-05-20 10:50,-116.0051,39.6042,1811.23,44.60,33.80,65.61,360.00,4.00,0.00,30.26,M,10.00,M,CLR,M,M,M,M,M,M,M,M,M,M,M,M,M,M,42.13,K05U 201050Z AUTO 36004KT 10SM CLR 07/01 A3026 RMK A01,M
P68,2023-05-20 10:53,-116.0056,39.6014,1993.00,46.00,34.00,62.71,190.00,4.00,0.00,30.23,1016.80,M,M,M,M,M,M,M,M,M,M,M,M,M,M,M,M,M,43.77,KP68 201053Z AUTO 19004KT 08/01 A3023 RMK AO1 SLP168 T00780011,M
VGT,2023-05-20 10:53,-115.1933,36.2111,667.00,78.00,50.00,37.36,150.00,9.00,T,30.01,1015.30,10.00,M,FEW,FEW,M,M,4500.00,9500.00,M,M,-RA,M,M,M,M,M,M,78.10,KVGT 201053Z AUTO 15009KT 10SM -RA FEW045 FEW095 26/10 A3001 RMK AO2 RAB46 SLP153 P0000 T02560100,M
LOL,2023-05-20 10:53,-118.5701,40.0684,1192.43,50.00,36.00,58.44,100.00,4.00,0.00,30.10,1016.10,10.00,M,CLR,M,M,M,M,M,M,M,M,M,M,M,M,M,M,50.00,KLOL 201053Z AUTO 10004KT 10SM CLR 10/02 A3010 RMK AO2 SLP161 T01000022,M
ELY,2023-05-20 10:53,-114.8453,39.2950,1909.00,41.00,33.00,73.25,180.00,6.00,0.00,30.28,1017.70,10.00,M,CLR,M,M,M,M,M,M,M,M,M,M,M,M,M,M,36.37,KELY 201053Z AUTO 18006KT 10SM CLR 05/01 A3028 RMK AO2 SLP177 T00500006,M
DRA,2023-05-20 10:53,-116.0278,36.6206,1009.00,69.00,40.00,34.43,60.00,4.00,0.00,30.08,1013.70,10.00,M,CLR,M,M,M,M,M,M,M,M,M,M,M,M,M,M,69.10,KDRA 201053Z AUTO 06004KT 10SM CLR 21/04 A3008 RMK AO2 SLP137 T02060044,M
CXP,2023-05-20 10:55,-119.7326,39.1923,1431.00,55.40,42.80,62.46,0.00,0.00,0.00,30.18,M,10.00,M,CLR,M,M,M,M,M,M,M,M,M,M,M,M,M,M,55.40,KCXP 201055Z AUTO 00000KT 10SM CLR 13/06 A3018 RMK AO2,M
RTS,2023-05-20 10:55,-119.8764,39.6682,1539.00,50.00,42.80,76.18,340.00,7.00,0.00,30.19,M,10.00,M,CLR,M,M,M,M,M,M,M,M,M,M,M,M,M,M,50.00,KRTS 201055Z AUTO 34007KT 10SM CLR 10/06 A3019 RMK AO2,M
MEV,2023-05-20 10:55,-119.7500,38.9963,1441.42,46.40,41.00,81.34,110.00,5.00,0.00,30.17,M,10.00,M,FEW,SCT,BKN,M,2900.00,3400.00,4200.00,M,M,M,M,M,M,M,M,43.50,KMEV 201055Z AUTO 11005KT 10SM FEW029 SCT034 BKN042 08/05 A3017 RMK AO2,M
BAM,2023-05-20 10:55,-116.8743,40.5990,1382.36,59.00,42.80,54.86,20.00,5.00,0.00,30.17,M,10.00,M,CLR,M,M,M,M,M,M,M,M,M,M,M,M,M,M,59.00,KBAM 201055Z AUTO 02005KT 10SM CLR 15/06 A3017 RMK AO1,M
HTH,2023-05-20 10:55,-118.6315,38.5448,1282.89,60.80,37.40,41.71,240.00,3.00,0.00,30.11,M,10.00,M,FEW,M,M,M,12000.00,M,M,M,M,M,M,M,M,M,M,60.80,KHTH 201055Z AUTO 24003KT 10SM FEW120 16/03 A3011 RMK A01,M
TMT,2023-05-20 10:55,-117.1971,39.4643,1749.34,36.50,31.50,81.89,140.00,5.00,0.00,30.24,M,10.00,M,CLR,M,M,M,M,M,M,M,M,M,M,M,M,M,M,31.74,KTMT 201055Z AUTO 14005KT 10SM CLR 03/00 A3024 RMK AO2 T00251003,M
10U,2023-05-20 10:55,-116.1876,41.9532,1637.00,46.40,37.40,70.68,M,3.00,0.00,30.23,M,10.00,M,FEW,BKN,BKN,M,2700.00,3400.00,4000.00,M,M,M,M,M,M,M,M,45.15,K10U 201055Z AUTO VRB03KT 10SM FEW027 BKN034 BKN040 08/03 A3023 RMK AO2,M
BVU,2023-05-20 10:55,-114.8611,35.9475,671.00,73.40,50.00,43.69,110.00,8.00,0.00,30.04,M,10.00,M,CLR,M,M,M,M,M,M,M,M,M,M,M,M,M,M,73.40,KBVU 201055Z AUTO 11008KT 10SM CLR 23/10 A3004 RMK AO2,M
INS,2023-05-20 10:55,-115.6733,36.5872,955.00,63.70,42.40,45.74,270.00,9.00,0.00,30.07,1014.00,10.00,M,CLR,M,M,M,M,M,M,M,M,M,M,M,M,M,M,63.70,KINS 201055Z AUTO 27009KT 10SM CLR 18/06 A3007 RMK AO2 SLP140 T01760058 $,M
RNO,2023-05-20 10:55,-119.7711,39.4839,1341.00,63.00,42.00,46.34,230.00,4.00,0.00,30.15,1015.30,10.00,M,CLR,M,M,M,M,M,M,M,M,M,M,M,M,M,M,63.00,KRNO 201055Z 23004KT 10SM CLR 17/06 A3015 RMK AO2 SLP153 T01720056,M
LSV,2023-05-20 10:55,-115.0343,36.2362,570.00,76.00,51.00,41.86,10.00,4.00,0.00,29.99,1013.10,10.00,M,BKN,M,M,M,15000.00,M,M,M,M,M,M,M,M,M,M,75.90,KLSV 201055Z AUTO 01004KT 10SM BKN150 24/11 A2999 RMK AO2 SLP131 T02440106 $,M
EKO,2023-05-20 10:56,-115.7860,40.8242,1367.00,51.00,41.00,68.23,0.00,0.00,0.00,30.21,1018.60,10.00,M,CLR,M,M,M,M,M,M,M,M,M,M,M,M,M,M,51.10,KEKO 201056Z AUTO 00000KT 10SM CLR 11/05 A3021 RMK AO2 SLP186 T01060050,M
HND,2023-05-20 10:56,-115.1344,35.9729,742.79,73.00,50.00,44.29,170.00,7.00,0.00,30.06,1016.80,10.00,M,CLR,M,M,M,M,M,M,M,M,M,M,M,M,M,M,73.00,KHND 201056Z AUTO 17007KT 10SM CLR 23/10 A3006 RMK AO2 SLP168 T02280100,M
TPH,2023-05-20 10:56,-117.0904,38.0505,1654.00,M,M,M,M,M,0.00,30.19,M,M,M,M,M,M,M,M,M,M,M,M,M,M,M,M,M,M,M,KTPH 201056Z AUTO A3019 RMK AO2 SLPNO PWINO $,M
LAS,2023-05-20 10:56,-115.1634,36.0719,663.00,76.00,50.00,40.19,140.00,3.00,0.00,30.03,1014.40,10.00,M,FEW,SCT,SCT,M,7000.00,12000.00,15000.00,M,M,M,M,M,M,M,M,75.90,KLAS 201056Z 14003KT 10SM FEW070 SCT120 SCT150 24/10 A3003 RMK AO2 SLP144 VCSH T02440100,M
WMC,2023-05-20 10:56,-117.8072,40.9019,1315.00,55.00,40.00,56.66,30.00,3.00,0.00,30.13,1015.80,10.00,M,CLR,M,M,M,M,M,M,M,M,M,M,M,M,M,M,55.00,KWMC 201056Z AUTO 03003KT 10SM CLR 13/04 A3013 RMK AO2 SLP158 T01280044,M
05U,2023-05-20 11:10,-116.0051,39.6042,1811.23,42.80,33.80,70.28,360.00,4.00,0.00,30.26,M,10.00,M,CLR,M,M,M,M,M,M,M,M,M,M,M,M,M,M,40.03,K05U 201110Z AUTO 36004KT 10SM CLR 06/01 A3026 RMK A01,M
BVU,2023-05-20 11:15,-114.8611,35.9475,671.00,73.40,50.00,43.69,120.00,8.00,0.00,30.04,M,10.00,M,CLR,M,M,M,M,M,M,M,M,M,M,M,M,M,M,73.40,KBVU 201115Z AUTO 12008KT 10SM CLR 23/10 A3004 RMK AO2,M
CXP,2023-05-20 11:15,-119.7326,39.1923,1431.00,57.20,42.80,58.52,0.00,0.00,0.00,30.18,M,10.00,M,CLR,M,M,M,M,M,M,M,M,M,M,M,M,M,M,57.20,KCXP 201115Z AUTO 00000KT 10SM CLR 14/06 A3018 RMK AO2,M
RTS,2023-05-20 11:15,-119.8764,39.6682,1539.00,50.00,42.80,76.18,340.00,6.00,0.00,30.19,M,10.00,M,CLR,M,M,M,M,M,M,M,M,M,M,M,M,M,M,50.00,KRTS 201115Z AUTO 34006KT 10SM CLR 10/06 A3019 RMK AO2,M
MEV,2023-05-20 11:15,-119.7500,38.9963,1441.42,46.40,42.80,87.19,120.00,6.00,0.00,30.17,M,10.00,M,SCT,SCT,M,M,3300.00,4300.00,M,M,M,M,M,M,M,M,M,42.87,KMEV 201115Z AUTO 12006KT 10SM SCT033 SCT043 08/06 A3017 RMK AO2,M
BAM,2023-05-20 11:15,-116.8743,40.5990,1382.36,59.00,41.00,51.18,20.00,5.00,0.00,30.17,M,10.00,M,CLR,M,M,M,M,M,M,M,M,M,M,M,M,M,M,59.00,KBAM 201115Z AUTO 02005KT 10SM CLR 15/05 A3017 RMK AO1,M
HTH,2023-05-20 11:15,-118.6315,38.5448,1282.89,62.60,35.60,36.45,280.00,6.00,0.00,30.12,M,10.00,M,CLR,M,M,M,M,M,M,M,M,M,M,M,M,M,M,62.60,KHTH 201115Z AUTO 28006KT 10SM CLR 17/02 A3012 RMK A01,M
TMT,2023-05-20 11:15,-117.1971,39.4643,1749.34,38.70,32.00,76.64,0.00,0.00,0.00,30.24,M,10.00,M,CLR,M,M,M,M,M,M,M,M,M,M,M,M,M,M,38.70,KTMT 201115Z AUTO 00000KT 10SM CLR 04/00 A3024 RMK AO2 T00370000,M
10U,2023-05-20 11:15,-116.1876,41.9532,1637.00,50.00,37.40,61.76,140.00,4.00,0.00,30.23,M,10.00,M,FEW,BKN,BKN,M,2700.00,3200.00,4000.00,M,M,M,M,M,M,M,M,50.00,K10U 201115Z AUTO 14004KT 10SM FEW027 BKN032 BKN040 10/03 A3023 RMK AO2,M
05U,2023-05-20 11:30,-116.0051,39.6042,1811.23,41.00,32.00,70.08,360.00,4.00,0.00,30.26,M,10.00,M,CLR,M,M,M,M,M,M,M,M,M,M,M,M,M,M,37.93,K05U 201130Z AUTO 36004KT 10SM CLR 05/00 A3026 RMK A01,M
BVU,2023-05-20 11:35,-114.8611,35.9475,671.00,73.40,51.80,46.71,140.00,8.00,0.00,30.04,M,10.00,M,CLR,M,M,M,M,M,M,M,M,M,M,M,M,M,M,73.40,KBVU 201135Z AUTO 14008KT 10SM CLR 23/11 A3004 RMK AO2,M
CXP,2023-05-20 11:35,-119.7326,39.1923,1431.00,57.20,44.60,62.69,290.00,3.00,0.00,30.18,M,10.00,M,CLR,M,M,M,M,M,M,M,M,M,M,M,M,M,M,57.20,KCXP 201135Z AUTO 29003KT 10SM CLR 14/07 A3018 RMK AO2,M
RTS,2023-05-20 11:35,-119.8764,39.6682,1539.00,51.80,42.80,71.26,340.00,4.00,0.00,30.19,M,10.00,M,CLR,M,M,M,M,M,M,M,M,M,M,M,M,M,M,51.80,KRTS 201135Z AUTO 34004KT 10SM CLR 11/06 A3019 RMK AO2,M
MEV,2023-05-20 11:35,-119.7500,38.9963,1441.42,46.40,41.00,81.34,110.00,4.00,0.00,30.18,M,10.00,M,FEW,SCT,M,M,3600.00,4200.00,M,M,M,M,M,M,M,M,M,44.24,KMEV 201135Z AUTO 11004KT 10SM FEW036 SCT042 08/05 A3018 RMK AO2,M
BAM,2023-05-20 11:35,-116.8743,40.5990,1382.36,57.20,41.00,54.60,10.00,4.00,0.00,30.17,M,10.00,M,CLR,M,M,M,M,M,M,M,M,M,M,M,M,M,M,57.20,KBAM 201135Z AUTO 01004KT 10SM CLR 14/05 A3017 RMK AO1,M
HTH,2023-05-20 11:35,-118.6315,38.5448,1282.89,60.80,35.60,38.85,270.00,4.00,0.00,30.12,M,10.00,M,CLR,M,M,M,M,M,M,M,M,M,M,M,M,M,M,60.80,KHTH 201135Z AUTO 27004KT 10SM CLR 16/02 A3012 RMK A01,M
TMT,2023-05-20 11:35,-117.1971,39.4643,1749.34,37.40,32.00,80.65,300.00,3.00,0.00,30.24,M,10.00,M,CLR,M,M,M,M,M,M,M,M,M,M,M,M,M,M,34.86,KTMT 201135Z AUTO 30003KT 10SM CLR 03/00 A3024 RMK AO2 T00300000,M
10U,2023-05-20 11:35,-116.1876,41.9532,1637.00,48.20,37.40,66.05,90.00,5.00,0.00,30.23,M,10.00,M,FEW,SCT,BKN,M,2700.00,3100.00,6500.00,M,M,M,M,M,M,M,M,45.63,K10U 201135Z AUTO 09005KT 10SM FEW027 SCT031 BKN065 09/03 A3023 RMK AO2,M
05U,2023-05-20 11:50,-116.0051,39.6042,1811.23,41.00,32.00,70.08,0.00,0.00,0.00,30.26,M,10.00,M,CLR,M,M,M,M,M,M,M,M,M,M,M,M,M,M,41.00,K05U 201150Z AUTO 00000KT 10SM CLR 05/00 A3026 RMK A01,M
ELY,2023-05-20 11:53,-114.8453,39.2950,1909.00,40.00,34.00,79.25,180.00,9.00,0.00,30.28,1017.90,10.00,M,CLR,M,M,M,M,M,M,M,M,M,M,M,M,M,M,33.34,KELY 201153Z AUTO 18009KT 10SM CLR 04/01 A3028 RMK AO2 SLP179 T00440011 10100 20044 56001,M
P68,2023-05-20 11:53,-116.0056,39.6014,1993.00,43.00,33.00,67.82,0.00,0.00,0.00,30.23,1017.20,M,M,M,M,M,M,M,M,M,M,M,M,M,M,M,M,M,43.00,KP68 201153Z AUTO 00000KT 06/01 A3023 RMK AO1 SLP172 T00610006 10117 20050 56003,M
VGT,2023-05-20 11:53,-115.1933,36.2111,667.00,76.00,50.00,40.19,90.00,8.00,T,30.03,1015.80,10.00,M,CLR,M,M,M,M,M,M,M,M,M,M,M,M,M,M,75.90,KVGT 201153Z AUTO 09008KT 10SM CLR 24/10 A3003 RMK AO2 RAE1057 SLP158 P0000 60000 T02440100 10289 20244 53000,M
DRA,2023-05-20 11:53,-116.0278,36.6206,1009.00,67.00,42.00,40.45,90.00,4.00,0.00,30.08,1013.90,10.00,M,CLR,M,M,M,M,M,M,M,M,M,M,M,M,M,M,66.90,KDRA 201153Z AUTO 09004KT 10SM CLR 19/06 A3008 RMK AO2 SLP139 T01940056 10256 20194 51009,M
LOL,2023-05-20 11:53,-118.5701,40.0684,1192.43,49.00,35.00,58.75,0.00,0.00,0.00,30.10,1016.20,10.00,M,CLR,M,M,M,M,M,M,M,M,M,M,M,M,M,M,48.90,KLOL 201153Z AUTO 00000KT 10SM CLR 09/02 A3010 RMK AO2 SLP162 T00940017 10167 20094 51003,M
BVU,2023-05-20 11:55,-114.8611,35.9475,671.00,73.40,51.80,46.71,130.00,4.00,0.00,30.04,M,10.00,M,CLR,M,M,M,M,M,M,M,M,M,M,M,M,M,M,73.40,KBVU 201155Z AUTO 13004KT 10SM CLR 23/11 A3004 RMK AO2,M
CXP,2023-05-20 11:55,-119.7326,39.1923,1431.00,53.60,42.80,66.70,0.00,0.00,0.00,30.19,M,10.00,M,CLR,M,M,M,M,M,M,M,M,M,M,M,M,M,M,53.60,KCXP 201155Z AUTO 00000KT 10SM CLR 12/06 A3019 RMK AO2,M
RTS,2023-05-20 11:55,-119.8764,39.6682,1539.00,50.00,42.80,76.18,340.00,6.00,0.00,30.19,M,10.00,M,CLR,M,M,M,M,M,M,M,M,M,M,M,M,M,M,50.00,KRTS 201155Z AUTO 34006KT 10SM CLR 10/06 A3019 RMK AO2,M
MEV,2023-05-20 11:55,-119.7500,38.9963,1441.42,46.40,42.80,87.19,130.00,6.00,0.00,30.17,M,10.00,M,FEW,FEW,FEW,M,3100.00,3700.00,4200.00,M,M,M,M,M,M,M,M,42.87,KMEV 201155Z AUTO 13006KT 10SM FEW031 FEW037 FEW042 08/06 A3017 RMK AO2,M
BAM,2023-05-20 11:55,-116.8743,40.5990,1382.36,53.60,41.00,62.23,30.00,6.00,0.00,30.18,M,10.00,M,CLR,M,M,M,M,M,M,M,M,M,M,M,M,M,M,53.60,KBAM 201155Z AUTO 03006KT 10SM CLR 12/05 A3018 RMK AO1,M
HTH,2023-05-20 11:55,-118.6315,38.5448,1282.89,59.00,35.60,41.42,210.00,4.00,0.00,30.12,M,10.00,M,CLR,M,M,M,M,M,M,M,M,M,M,M,M,M,M,59.00,KHTH 201155Z AUTO 21004KT 10SM CLR 15/02 A3012 RMK A01,M
TMT,2023-05-20 11:55,-117.1971,39.4643,1749.34,35.80,30.90,82.17,0.00,0.00,0.00,30.24,M,10.00,M,CLR,M,M,M,M,M,M,M,M,M,M,M,M,M,M,35.80,KTMT 201155Z AUTO 00000KT 10SM CLR 02/M01 A3024 RMK AO2 7//// T00211006 10109 20021,M
10U,2023-05-20 11:55,-116.1876,41.9532,1637.00,50.00,37.40,61.76,110.00,8.00,0.00,30.23,M,10.00,M,FEW,FEW,BKN,M,3300.00,3900.00,7000.00,M,M,M,M,M,M,M,M,50.00,K10U 201155Z AUTO 11008KT 10SM FEW033 FEW039 BKN070 10/03 A3023 RMK AO2,M
INS,2023-05-20 11:55,-115.6733,36.5872,955.00,63.00,42.60,47.07,280.00,8.00,0.00,30.08,1014.70,10.00,M,FEW,M,M,M,13000.00,M,M,M,M,M,M,M,M,M,M,63.10,KINS 201155Z AUTO 28008KT 10SM FEW130 17/06 A3008 RMK AO2 SLP147 70018 T01730059 10212 20173 53006 $,M
LSV,2023-05-20 11:55,-115.0343,36.2362,570.00,76.00,50.50,40.94,50.00,4.00,0.00,29.99,1013.10,10.00,M,BKN,BKN,M,M,14000.00,16000.00,M,M,M,M,M,M,M,M,M,75.90,KLSV 201155Z AUTO 05004KT 10SM BKN140 BKN160 24/10 A2999 RMK AO2 SLP131 T02440103 10283 20242 55001 $,M
RNO,2023-05-20 11:55,-119.7711,39.4839,1341.00,62.00,42.00,47.83,250.00,6.00,0.00,30.15,1015.50,10.00,M,CLR,M,M,M,M,M,M,M,M,M,M,M,M,M,M,62.10,KRNO 201155Z 25006KT 10SM CLR 17/06 A3015 RMK AO2 SLP155 T01670056 10233 20161 55000,M
HND,2023-05-20 11:56,-115.1344,35.9729,742.79,71.00,52.00,50.86,200.00,9.00,0.00,30.06,1016.80,10.00,M,CLR,M,M,M,M,M,M,M,M,M,M,M,M,M,M,71.10,KHND 201156Z AUTO 20009KT 10SM CLR 22/11 A3006 RMK AO2 SLP168 70002 T02170111 10250 20217 58003,M
TPH,2023-05-20 11:56,-117.0904,38.0505,1654.00,M,M,M,M,M,0.00,30.20,M,M,M,M,M,M,M,M,M,M,M,M,M,M,M,M,M,M,M,KTPH 201156Z AUTO A3020 RMK AO2 SLPNO 53006 PWINO $,M
LAS,2023-05-20 11:56,-115.1634,36.0719,663.00,75.00,51.00,43.14,160.00,6.00,0.00,30.03,1014.20,10.00,M,FEW,BKN,M,M,10000.00,15000.00,M,M,M,M,M,M,M,M,M,75.00,KLAS 201156Z 16006KT 10SM FEW100 BKN150 24/11 A3003 RMK AO2 SLP142 T02390106 10278 20239 56003,M
EKO,2023-05-20 11:56,-115.7860,40.8242,1367.00,47.00,40.00,76.48,120.00,3.00,0.00,30.21,1018.80,10.00,M,CLR,M,M,M,M,M,M,M,M,M,M,M,M,M,M,45.72,KEKO 201156Z AUTO 12003KT 10SM CLR 08/04 A3021 RMK AO2 SLP188 T00830044 10161 20083 53001,M
WMC,2023-05-20 11:56,-117.8072,40.9019,1315.00,47.00,38.00,70.73,170.00,4.00,0.00,30.14,1016.70,10.00,M,CLR,M,M,M,M,M,M,M,M,M,M,M,M,M,M,44.82,KWMC 201156Z AUTO 17004KT 10SM CLR 08/03 A3014 RMK AO2 SLP167 T00830033 10178 20078 53003,M
05U,2023-05-20 12:10,-116.0051,39.6042,1811.23,41.00,32.00,70.08,360.00,5.00,0.00,30.26,M,10.00,M,CLR,M,M,M,M,M,M,M,M,M,M,M,M,M,M,37.08,K05U 201210Z AUTO 36005KT 10SM CLR 05/00 A3026 RMK A01,M
BVU,2023-05-20 12:15,-114.8611,35.9475,671.00,71.60,51.80,49.64,0.00,0.00,0.00,30.05,M,10.00,M,FEW,FEW,M,M,1900.00,2700.00,M,M,M,M,M,M,M,M,M,71.60,KBVU 201215Z AUTO 00000KT 10SM FEW019 FEW027 22/11 A3005 RMK AO2,M
CXP,2023-05-20 12:15,-119.7326,39.1923,1431.00,55.40,42.80,62.46,0.00,0.00,0.00,30.19,M,10.00,M,CLR,M,M,M,M,M,M,M,M,M,M,M,M,M,M,55.40,KCXP 201215Z AUTO 00000KT 10SM CLR 13/06 A3019 RMK AO2,M
RTS,2023-05-20 12:15,-119.8764,39.6682,1539.00,48.20,42.80,81.47,340.00,7.00,0.00,30.19,M,10.00,M,CLR,M,M,M,M,M,M,M,M,M,M,M,M,M,M,44.53,KRTS 201215Z AUTO 34007KT 10SM CLR 09/06 A3019 RMK AO2,M
MEV,2023-05-20 12:15,-119.7500,38.9963,1441.42,46.40,41.00,81.34,0.00,0.00,0.00,30.18,M,10.00,M,CLR,M,M,M,M,M,M,M,M,M,M,M,M,M,M,46.40,KMEV 201215Z AUTO 00000KT 10SM CLR 08/05 A3018 RMK AO2,M
BAM,2023-05-20 12:15,-116.8743,40.5990,1382.36,51.80,41.00,66.48,20.00,3.00,0.00,30.18,M,10.00,M,CLR,M,M,M,M,M,M,M,M,M,M,M,M,M,M,51.80,KBAM 201215Z AUTO 02003KT 10SM CLR 11/05 A3018 RMK AO1,M
HTH,2023-05-20 12:15,-118.6315,38.5448,1282.89,59.00,35.60,41.42,230.00,4.00,0.00,30.13,M,10.00,M,CLR,M,M,M,M,M,M,M,M,M,M,M,M,M,M,59.00,KHTH 201215Z AUTO 23004KT 10SM CLR 15/02 A3013 RMK A01,M
TMT,2023-05-20 12:15,-117.1971,39.4643,1749.34,33.80,29.50,84.06,150.00,3.00,0.00,30.24,M,10.00,M,CLR,M,M,M,M,M,M,M,M,M,M,M,M,M,M,30.75,KTMT 201215Z AUTO 15003KT 10SM CLR 01/M01 A3024 RMK AO2 T00101014,M
10U,2023-05-20 12:15,-116.1876,41.9532,1637.00,44.60,37.40,75.68,M,4.00,0.00,30.23,M,10.00,M,CLR,M,M,M,M,M,M,M,M,M,M,M,M,M,M,42.13,K10U 201215Z AUTO VRB04KT 10SM CLR 07/03 A3023 RMK AO2,M
05U,2023-05-20 12:30,-116.0051,39.6042,1811.23,41.00,32.00,70.08,360.00,5.00,0.00,30.26,M,10.00,M,CLR,M,M,M,M,M,M,M,M,M,M,M,M,M,M,37.08,K05U 201230Z AUTO 36005KT 10SM CLR 05/00 A3026 RMK A01,M
BVU,2023-05-20 12:35,-114.8611,35.9475,671.00,68.00,51.80,56.13,20.00,4.00,0.00,30.05,M,10.00,M,FEW,FEW,M,M,2100.00,2800.00,M,M,M,M,M,M,M,M,M,68.00,KBVU 201235Z AUTO 02004KT 10SM FEW021 FEW028 20/11 A3005 RMK AO2,M
CXP,2023-05-20 12:35,-119.7326,39.1923,1431.00,57.20,42.80,58.52,M,3.00,0.00,30.19,M,10.00,M,CLR,M,M,M,M,M,M,M,M,M,M,M,M,M,M,57.20,KCXP 201235Z AUTO VRB03KT 10SM CLR 14/06 A3019 RMK AO2,M
RTS,2023-05-20 12:35,-119.8764,39.6682,1539.00,48.20,42.80,81.47,320.00,5.00,0.00,30.20,M,10.00,M,CLR,M,M,M,M,M,M,M,M,M,M,M,M,M,M,45.63,KRTS 201235Z AUTO 32005KT 10SM CLR 09/06 A3020 RMK AO2,M
MEV,2023-05-20 12:35,-119.7500,38.9963,1441.42,46.40,41.00,81.34,0.00,0.00,0.00,30.18,M,10.00,M,CLR,M,M,M,M,M,M,M,M,M,M,M,M,M,M,46.40,KMEV 201235Z AUTO 00000KT 10SM CLR 08/05 A3018 RMK AO2,M
BAM,2023-05-20 12:35,-116.8743,40.5990,1382.36,51.80,41.00,66.48,30.00,5.00,0.00,30.17,M,10.00,M,CLR,M,M,M,M,M,M,M,M,M,M,M,M,M,M,51.80,KBAM 201235Z AUTO 03005KT 10SM CLR 11/05 A3017 RMK AO1,M
HTH,2023-05-20 12:35,-118.6315,38.5448,1282.89,59.00,35.60,41.42,250.00,5.00,0.00,30.13,M,10.00,M,CLR,M,M,M,M,M,M,M,M,M,M,M,M,M,M,59.00,KHTH 201235Z AUTO 25005KT 10SM CLR 15/02 A3013 RMK A01,M
TMT,2023-05-20 12:35,-117.1971,39.4643,1749.34,33.40,28.90,83.35,0.00,0.00,0.00,30.24,M,10.00,M,CLR,M,M,M,M,M,M,M,M,M,M,M,M,M,M,33.40,KTMT 201235Z AUTO 00000KT 10SM CLR 01/M02 A3024 RMK AO2 T00081017,M
10U,2023-05-20 12:35,-116.1876,41.9532,1637.00,42.80,39.20,86.99,0.00,0.00,0.00,30.23,M,10.00,M,CLR,M,M,M,M,M,M,M,M,M,M,M,M,M,M,42.80,K10U 201235Z AUTO 00000KT 10SM CLR 06/04 A3023 RMK AO2,M
05U,2023-05-20 12:50,-116.0051,39.6042,1811.23,42.80,32.00,65.38,360.00,4.00,0.00,30.27,M,10.00,M,CLR,M,M,M,M,M,M,M,M,M,M,M,M,M,M,40.03,K05U 201250Z AUTO 36004KT 10SM CLR 06/00 A3027 RMK A01,M
DRA,2023-05-20 12:53,-116.0278,36.6206,1009.00,63.00,41.00,44.41,330.00,6.00,0.00,30.09,1014.60,10.00,M,CLR,M,M,M,M,M,M,M,M,M,M,M,M,M,M,63.00,KDRA 201253Z AUTO 33006KT 10SM CLR 17/05 A3009 RMK AO2 SLP146 T01720050,M
ELY,2023-05-20 12:53,-114.8453,39.2950,1909.00,39.00,34.00,82.08,180.00,7.00,0.00,30.29,1018.60,10.00,M,CLR,M,M,M,M,M,M,M,M,M,M,M,M,M,M,33.31,KELY 201253Z AUTO 18007KT 10SM CLR 04/01 A3029 RMK AO2 SLP186 T00390011,M
P68,2023-05-20 12:53,-116.0056,39.6014,1993.00,43.00,33.00,67.82,180.00,3.00,0.00,30.24,1017.80,M,M,M,M,M,M,M,M,M,M,M,M,M,M,M,M,M,41.26,KP68 201253Z AUTO 18003KT 06/01 A3024 RMK AO1 SLP178 T00610006,M
VGT,2023-05-20 12:53,-115.1933,36.2111,667.00,75.00,51.00,43.14,90.00,3.00,0.00,30.05,1016.70,10.00,M,CLR,M,M,M,M,M,M,M,M,M,M,M,M,M,M,75.00,KVGT 201253Z AUTO 09003KT 10SM CLR 24/11 A3005 RMK AO2 SLP167 T02390106,M
LOL,2023-05-20 12:53,-118.5701,40.0684,1192.43,46.00,35.00,65.52,170.00,3.00,0.00,30.11,1016.60,10.00,M,CLR,M,M,M,M,M,M,M,M,M,M,M,M,M,M,44.69,KLOL 201253Z AUTO 17003KT 10SM CLR 08/02 A3011 RMK AO2 SLP166 T00780017,M
BVU,2023-05-20 12:55,-114.8611,35.9475,671.00,71.60,51.80,49.64,60.00,5.00,0.00,30.06,M,10.00,M,CLR,M,M,M,M,M,M,M,M,M,M,M,M,M,M,71.60,KBVU 201255Z AUTO 06005KT 10SM CLR 22/11 A3006 RMK AO2,M
CXP,2023-05-20 12:55,-119.7326,39.1923,1431.00,55.40,42.80,62.46,290.00,4.00,0.00,30.20,M,10.00,M,CLR,M,M,M,M,M,M,M,M,M,M,M,M,M,M,55.40,KCXP 201255Z AUTO 29004KT 10SM CLR 13/06 A3020 RMK AO2,M
RTS,2023-05-20 12:55,-119.8764,39.6682,1539.00,48.20,42.80,81.47,340.00,5.00,0.00,30.20,M,10.00,M,CLR,M,M,M,M,M,M,M,M,M,M,M,M,M,M,45.63,KRTS 201255Z AUTO 34005KT 10SM CLR 09/06 A3020 RMK AO2,M
MEV,2023-05-20 12:55,-119.7500,38.9963,1441.42,46.40,41.00,81.34,0.00,0.00,0.00,30.18,M,10.00,M,CLR,M,M,M,M,M,M,M,M,M,M,M,M,M,M,46.40,KMEV 201255Z AUTO 00000KT 10SM CLR 08/05 A3018 RMK AO2,M
BAM,2023-05-20 12:55,-116.8743,40.5990,1382.36,55.40,42.80,62.46,10.00,4.00,0.00,30.18,M,10.00,M,CLR,M,M,M,M,M,M,M,M,M,M,M,M,M,M,55.40,KBAM 201255Z AUTO 01004KT 10SM CLR 13/06 A3018 RMK AO1,M
HTH,2023-05-20 12:55,-118.6315,38.5448,1282.89,59.00,35.60,41.42,250.00,5.00,0.00,30.14,M,10.00,M,CLR,M,M,M,M,M,M,M,M,M,M,M,M,M,M,59.00,KHTH 201255Z AUTO 25005KT 10SM CLR 15/02 A3014 RMK A01,M
TMT,2023-05-20 12:55,-117.1971,39.4643,1749.34,35.80,30.70,81.51,0.00,0.00,0.00,30.25,M,10.00,M,CLR,M,M,M,M,M,M,M,M,M,M,M,M,M,M,35.80,KTMT 201255Z AUTO 00000KT 10SM CLR 02/M01 A3025 RMK AO2 T00211007,M
10U,2023-05-20 12:55,-116.1876,41.9532,1637.00,42.80,37.40,81.07,0.00,0.00,0.00,30.24,M,10.00,M,CLR,M,M,M,M,M,M,M,M,M,M,M,M,M,M,42.80,K10U 201255Z AUTO 00000KT 10SM CLR 06/03 A3024 RMK AO2,M
LSV,2023-05-20 12:55,-115.0343,36.2362,570.00,74.00,51.40,44.95,60.00,4.00,0.00,30.02,1014.30,10.00,M,CLR,M,M,M,M,M,M,M,M,M,M,M,M,M,M,74.10,KLSV 201255Z AUTO 06004KT 10SM CLR 23/11 A3002 RMK AO2 SLP143 T02340108 $,M
RNO,2023-05-20 12:55,-119.7711,39.4839,1341.00,60.00,42.00,51.35,250.00,4.00,0.00,30.16,1015.80,10.00,M,FEW,M,M,M,22000.00,M,M,M,M,M,M,M,M,M,M,60.10,KRNO 201255Z 25004KT 10SM FEW220 16/06 A3016 RMK AO2 SLP158 T01560056,M
INS,2023-05-20 12:55,-115.6733,36.5872,955.00,65.00,42.00,43.05,0.00,0.00,0.00,30.09,1014.90,10.00,M,BKN,M,M,M,14000.00,M,M,M,M,M,M,M,M,M,M,65.10,KINS 201255Z AUTO 00000KT 10SM BKN140 18/06 A3009 RMK AO2 SLP149 T01840056 $,M
EKO,2023-05-20 12:56,-115.7860,40.8242,1367.00,47.00,41.00,79.82,0.00,0.00,0.00,30.22,1019.30,10.00,M,CLR,M,M,M,M,M,M,M,M,M,M,M,M,M,M,46.90,KEKO 201256Z AUTO 00000KT 10SM CLR 08/05 A3022 RMK AO2 SLP193 T00830050,M
TPH,2023-05-20 12:56,-117.0904,38.0505,1654.00,M,M,M,M,M,0.00,30.22,M,M,M,M,M,M,M,M,M,M,M,M,M,M,M,M,M,M,M,KTPH 201256Z AUTO A3022 RMK AO2 SLPNO PWINO $,M
WMC,2023-05-20 12:56,-117.8072,40.9019,1315.00,46.00,38.00,73.18,150.00,4.00,0.00,30.15,1017.20,10.00,M,CLR,M,M,M,M,M,M,M,M,M,M,M,M,M,M,43.77,KWMC 201256Z AUTO 15004KT 10SM CLR 08/03 A3015 RMK AO2 SLP172 T00780033,M
HND,2023-05-20 12:56,-115.1344,35.9729,742.79,72.00,51.00,47.72,210.00,6.00,0.00,30.08,1017.50,10.00,M,CLR,M,M,M,M,M,M,M,M,M,M,M,M,M,M,72.00,KHND 201256Z 21006KT 10SM CLR 22/11 A3008 RMK AO2 SLP175 T02220106,M
LAS,2023-05-20 12:56,-115.1634,36.0719,663.00,75.00,51.00,43.14,150.00,4.00,0.00,30.05,1015.10,10.00,M,FEW,BKN,M,M,10000.00,15000.00,M,M,M,M,M,M,M,M,M,75.00,KLAS 201256Z 15004KT 10SM FEW100 BKN150 24/11 A3005 RMK AO2 SLP151 T02390106,M
05U,2023-05-20 13:10,-116.0051,39.6042,1811.23,44.60,33.80,65.61,360.00,4.00,0.00,30.28,M,10.00,M,CLR,M,M,M,M,M,M,M,M,M,M,M,M,M,M,42.13,K05U 201310Z AUTO 36004KT 10SM CLR 07/01 A3028 RMK A01,M
BVU,2023-05-20 13:15,-114.8611,35.9475,671.00,71.60,51.80,49.64,60.00,5.00,0.00,30.06,M,10.00,M,CLR,M,M,M,M,M,M,M,M,M,M,M,M,M,M,71.60,KBVU 201315Z AUTO 06005KT 10SM CLR 22/11 A3006 RMK AO2,M
CXP,2023-05-20 13:15,-119.7326,39.1923,1431.00,55.40,44.60,66.91,0.00,0.00,0.00,30.20,M,10.00,M,CLR,M,M,M,M,M,M,M,M,M,M,M,M,M,M,55.40,KCXP 201315Z AUTO 00000KT 10SM CLR 13/07 A3020 RMK AO2,M
RTS,2023-05-20 13:15,-119.8764,39.6682,1539.00,48.20,42.80,81.47,360.00,3.00,0.00,30.20,M,10.00,M,CLR,M,M,M,M,M,M,M,M,M,M,M,M,M,M,47.21,KRTS 201315Z AUTO 36003KT 10SM CLR 09/06 A3020 RMK AO2,M
MEV,2023-05-20 13:15,-119.7500,38.9963,1441.42,46.40,42.80,87.19,0.00,0.00,0.00,30.19,M,10.00,M,CLR,M,M,M,M,M,M,M,M,M,M,M,M,M,M,46.40,KMEV 201315Z AUTO 00000KT 10SM CLR 08/06 A3019 RMK AO2,M
BAM,2023-05-20 13:15,-116.8743,40.5990,1382.36,51.80,39.20,61.99,50.00,3.00,0.00,30.18,M,10.00,M,CLR,M,M,M,M,M,M,M,M,M,M,M,M,M,M,51.80,KBAM 201315Z AUTO 05003KT 10SM CLR 11/04 A3018 RMK AO1,M
HTH,2023-05-20 13:15,-118.6315,38.5448,1282.89,60.80,35.60,38.85,0.00,0.00,0.00,30.15,M,10.00,M,CLR,M,M,M,M,M,M,M,M,M,M,M,M,M,M,60.80,KHTH 201315Z AUTO 00000KT 10SM CLR 16/02 A3015 RMK A01,M
TMT,2023-05-20 13:15,-117.1971,39.4643,1749.34,39.00,32.70,77.91,0.00,0.00,0.00,30.25,M,10.00,M,CLR,M,M,M,M,M,M,M,M,M,M,M,M,M,M,39.00,KTMT 201315Z AUTO 00000KT 10SM CLR 04/00 A3025 RMK AO2 T00390004,M
10U,2023-05-20 13:15,-116.1876,41.9532,1637.00,46.40,42.80,87.19,0.00,0.00,0.00,30.24,M,10.00,M,CLR,M,M,M,M,M,M,M,M,M,M,M,M,M,M,46.40,K10U 201315Z AUTO 00000KT 10SM CLR 08/06 A3024 RMK AO2,M
05U,2023-05-20 13:30,-116.0051,39.6042,1811.23,46.40,35.60,65.83,0.00,0.00,0.00,30.28,M,9.00,M,CLR,M,M,M,M,M,M,M,M,M,M,M,M,M,M,46.40,K05U 201330Z AUTO 00000KT 9SM CLR 08/02 A3028 RMK A01,M
BVU,2023-05-20 13:35,-114.8611,35.9475,671.00,71.60,51.80,49.64,50.00,5.00,0.00,30.07,M,10.00,M,CLR,M,M,M,M,M,M,M,M,M,M,M,M,M,M,71.60,KBVU 201335Z AUTO 05005KT 10SM CLR 22/11 A3007 RMK AO2,M
CXP,2023-05-20 13:35,-119.7326,39.1923,1431.00,57.20,42.80,58.52,0.00,0.00,0.00,30.21,M,10.00,M,CLR,M,M,M,M,M,M,M,M,M,M,M,M,M,M,57.20,KCXP 201335Z AUTO 00000KT 10SM CLR 14/06 A3021 RMK AO2,M
RTS,2023-05-20 13:35,-119.8764,39.6682,1539.00,51.80,42.80,71.26,360.00,3.00,0.00,30.21,M,10.00,M,CLR,M,M,M,M,M,M,M,M,M,M,M,M,M,M,51.80,KRTS 201335Z AUTO 36003KT 10SM CLR 11/06 A3021 RMK AO2,M
MEV,2023-05-20 13:35,-119.7500,38.9963,1441.42,48.20,42.80,81.47,0.00,0.00,0.00,30.19,M,10.00,M,CLR,M,M,M,M,M,M,M,M,M,M,M,M,M,M,48.20,KMEV 201335Z AUTO 00000KT 10SM CLR 09/06 A3019 RMK AO2,M
BAM,2023-05-20 13:35,-116.8743,40.5990,1382.36,53.60,39.20,58.02,360.00,4.00,0.00,30.19,M,10.00,M,CLR,M,M,M,M,M,M,M,M,M,M,M,M,M,M,53.60,KBAM 201335Z AUTO 36004KT 10SM CLR 12/04 A3019 RMK AO1,M
HTH,2023-05-20 13:35,-118.6315,38.5448,1282.89,62.60,37.40,39.14,0.00,0.00,0.00,30.15,M,10.00,M,CLR,M,M,M,M,M,M,M,M,M,M,M,M,M,M,62.60,KHTH 201335Z AUTO 00000KT 10SM CLR 17/03 A3015 RMK A01,M
TMT,2023-05-20 13:35,-117.1971,39.4643,1749.34,42.30,35.20,75.76,0.00,0.00,0.00,30.25,M,10.00,M,CLR,M,M,M,M,M,M,M,M,M,M,M,M,M,M,42.30,KTMT 201335Z AUTO 00000KT 10SM CLR 06/02 A3025 RMK AO2 T00570018,M
10U,2023-05-20 13:35,-116.1876,41.9532,1637.00,50.00,42.80,76.18,0.00,0.00,0.00,30.25,M,10.00,M,CLR,M,M,M,M,M,M,M,M,M,M,M,M,M,M,50.00,K10U 201335Z AUTO 00000KT 10SM CLR 10/06 A3025 RMK AO2,M
05U,2023-05-20 13:50,-116.0051,39.6042,1811.23,51.80,35.60,53.81,0.00,0.00,0.00,30.29,M,10.00,M,CLR,M,M,M,M,M,M,M,M,M,M,M,M,M,M,51.80,K05U 201350Z AUTO 00000KT 10SM CLR 11/02 A3029 RMK A01,M
P68,2023-05-20 13:53,-116.0056,39.6014,1993.00,50.00,36.00,58.44,0.00,0.00,0.00,30.26,1018.10,M,M,M,M,M,M,M,M,M,M,M,M,M,M,M,M,M,50.00,KP68 201353Z AUTO 00000KT 10/02 A3026 RMK AO1 SLP181 T01000022,M
ELY,2023-05-20 13:53,-114.8453,39.2950,1909.00,47.00,37.00,68.27,180.00,6.00,0.00,30.30,1018.30,10.00,M,CLR,M,M,M,M,M,M,M,M,M,M,M,M,M,M,43.48,KELY 201353Z AUTO 18006KT 10SM CLR 08/03 A3030 RMK AO2 SLP183 T00830028,M
DRA,2023-05-20 13:53,-116.0278,36.6206,1009.00,68.00,42.00,38.94,0.00,0.00,0.00,30.11,1015.30,10.00,M,CLR,M,M,M,M,M,M,M,M,M,M,M,M,M,M,68.00,KDRA 201353Z AUTO 00000KT 10SM CLR 20/06 A3011 RMK AO2 SLP153 T02000056,M
LOL,2023-05-20 13:53,-118.5701,40.0684,1192.43,55.00,42.00,61.69,190.00,3.00,0.00,30.13,1016.90,10.00,M,CLR,M,M,M,M,M,M,M,M,M,M,M,M,M,M,55.00,KLOL 201353Z AUTO 19003KT 10SM CLR 13/06 A3013 RMK AO2 SLP169 T01280056,M
VGT,2023-05-20 13:53,-115.1933,36.2111,667.00,76.00,53.00,45.06,30.00,4.00,0.00,30.07,1017.60,10.00,M,CLR,M,M,M,M,M,M,M,M,M,M,M,M,M,M,75.90,KVGT 201353Z 03004KT 10SM CLR 24/12 A3007 RMK AO2 SLP176 T02440117,M
BVU,2023-05-20 13:55,-114.8611,35.9475,671.00,73.40,51.80,46.71,60.00,4.00,0.00,30.08,M,10.00,M,CLR,M,M,M,M,M,M,M,M,M,M,M,M,M,M,73.40,KBVU 201355Z AUTO 06004KT 10SM CLR 23/11 A3008 RMK AO2,M
CXP,2023-05-20 13:55,-119.7326,39.1923,1431.00,59.00,42.80,54.86,0.00,0.00,0.00,30.22,M,10.00,M,CLR,M,M,M,M,M,M,M,M,M,M,M,M,M,M,59.00,KCXP 201355Z AUTO 00000KT 10SM CLR 15/06 A3022 RMK AO2,M
RTS,2023-05-20 13:55,-119.8764,39.6682,1539.00,53.60,44.60,71.45,0.00,0.00,0.00,30.21,M,10.00,M,CLR,M,M,M,M,M,M,M,M,M,M,M,M,M,M,53.60,KRTS 201355Z AUTO 00000KT 10SM CLR 12/07 A3021 RMK AO2,M
MEV,2023-05-20 13:55,-119.7500,38.9963,1441.42,51.80,44.60,76.34,0.00,0.00,0.00,30.20,M,10.00,M,CLR,M,M,M,M,M,M,M,M,M,M,M,M,M,M,51.80,KMEV 201355Z AUTO 00000KT 10SM CLR 11/07 A3020 RMK AO2,M
BAM,2023-05-20 13:55,-116.8743,40.5990,1382.36,57.20,42.80,58.52,30.00,5.00,0.00,30.20,M,10.00,M,CLR,M,M,M,M,M,M,M,M,M,M,M,M,M,M,57.20,KBAM 201355Z AUTO 03005KT 10SM CLR 14/06 A3020 RMK AO1,M
HTH,2023-05-20 13:55,-118.6315,38.5448,1282.89,62.60,41.00,45.04,0.00,0.00,0.00,30.16,M,10.00,M,CLR,M,M,M,M,M,M,M,M,M,M,M,M,M,M,62.60,KHTH 201355Z AUTO 00000KT 10SM CLR 17/05 A3016 RMK A01,M
TMT,2023-05-20 13:55,-117.1971,39.4643,1749.34,45.00,36.30,71.10,0.00,0.00,0.00,30.27,M,10.00,M,CLR,M,M,M,M,M,M,M,M,M,M,M,M,M,M,45.10,KTMT 201355Z AUTO 00000KT 10SM CLR 07/02 A3027 RMK AO2 T00730024,M
10U,2023-05-20 13:55,-116.1876,41.9532,1637.00,53.60,41.00,62.23,0.00,0.00,0.00,30.25,M,10.00,M,CLR,M,M,M,M,M,M,M,M,M,M,M,M,M,M,53.60,K10U 201355Z AUTO 00000KT 10SM CLR 12/05 A3025 RMK AO2,M
LSV,2023-05-20 13:55,-115.0343,36.2362,570.00,76.80,52.00,42.00,0.00,0.00,0.00,30.04,1015.00,10.00,M,CLR,M,M,M,M,M,M,M,M,M,M,M,M,M,M,76.80,KLSV 201355Z AUTO 00000KT 10SM CLR 25/11 A3004 RMK AO2 SLP150 T02490111 $,M
RNO,2023-05-20 13:55,-119.7711,39.4839,1341.00,61.00,44.00,53.69,200.00,4.00,0.00,30.18,1016.70,10.00,M,FEW,M,M,M,25000.00,M,M,M,M,M,M,M,M,M,M,61.00,KRNO 201355Z 20004KT 10SM FEW250 16/07 A3018 RMK AO2 SLP167 T01610067,M
INS,2023-05-20 13:55,-115.6733,36.5872,955.00,66.40,44.00,44.09,130.00,3.00,0.00,30.12,1015.70,10.00,M,CLR,M,M,M,M,M,M,M,M,M,M,M,M,M,M,66.40,KINS 201355Z AUTO 13003KT 10SM CLR 19/07 A3012 RMK AO2 SLP157 T01910066 $,M
EKO,2023-05-20 13:56,-115.7860,40.8242,1367.00,53.00,43.00,68.46,0.00,0.00,0.00,30.24,1019.70,10.00,M,CLR,M,M,M,M,M,M,M,M,M,M,M,M,M,M,53.10,KEKO 201356Z AUTO 00000KT 10SM CLR 12/06 A3024 RMK AO2 SLP197 T01170061,M
HND,2023-05-20 13:56,-115.1344,35.9729,742.79,74.00,52.00,46.27,170.00,6.00,0.00,30.10,1018.40,10.00,M,CLR,M,M,M,M,M,M,M,M,M,M,M,M,M,M,73.90,KHND 201356Z 17006KT 10SM CLR 23/11 A3010 RMK AO2 SLP184 T02330111,M
TPH,2023-05-20 13:56,-117.0904,38.0505,1654.00,M,M,M,M,M,0.00,30.23,M,M,M,M,M,M,M,M,M,M,M,M,M,M,M,M,M,M,M,KTPH 201356Z AUTO A3023 RMK AO2 SLPNO PWINO $,M
LAS,2023-05-20 13:56,-115.1634,36.0719,663.00,75.00,52.00,44.59,60.00,7.00,0.00,30.07,1016.00,10.00,M,FEW,FEW,SCT,M,10000.00,15000.00,25000.00,M,M,M,M,M,M,M,M,75.00,KLAS 201356Z 06007KT 10SM FEW100 FEW150 SCT250 24/11 A3007 RMK AO2 SLP160 T02390111,M
WMC,2023-05-20 13:56,-117.8072,40.9019,1315.00,55.00,42.00,61.69,0.00,0.00,0.00,30.17,1017.60,10.00,M,CLR,M,M,M,M,M,M,M,M,M,M,M,M,M,M,55.00,KWMC 201356Z AUTO 00000KT 10SM CLR 13/06 A3017 RMK AO2 SLP176 T01280056,M
05U,2023-05-20 14:10,-116.0051,39.6042,1811.23,53.60,37.40,54.07,0.00,0.00,0.00,30.30,M,10.00,M,CLR,M,M,M,M,M,M,M,M,M,M,M,M,M,M,53.60,K05U 201410Z AUTO 00000KT 10SM CLR 12/03 A3030 RMK A01,M
BVU,2023-05-20 14:15,-114.8611,35.9475,671.00,75.20,51.80,43.97,70.00,4.00,0.00,30.09,M,10.00,M,CLR,M,M,M,M,M,M,M,M,M,M,M,M,M,M,75.20,KBVU 201415Z AUTO 07004KT 10SM CLR 24/11 A3009 RMK AO2,M
CXP,2023-05-20 14:15,-119.7326,39.1923,1431.00,59.00,42.80,54.86,0.00,0.00,0.00,30.22,M,10.00,M,CLR,M,M,M,M,M,M,M,M,M,M,M,M,M,M,59.00,KCXP 201415Z AUTO 00000KT 10SM CLR 15/06 A3022 RMK AO2,M
RTS,2023-05-20 14:15,-119.8764,39.6682,1539.00,57.20,46.40,67.12,0.00,0.00,0.00,30.22,M,10.00,M,CLR,M,M,M,M,M,M,M,M,M,M,M,M,M,M,57.20,KRTS 201415Z AUTO 00000KT 10SM CLR 14/08 A3022 RMK AO2,M
MEV,2023-05-20 14:15,-119.7500,38.9963,1441.42,57.20,46.40,67.12,0.00,0.00,0.00,30.21,M,10.00,M,CLR,M,M,M,M,M,M,M,M,M,M,M,M,M,M,57.20,KMEV 201415Z AUTO 00000KT 10SM CLR 14/08 A3021 RMK AO2,M
BAM,2023-05-20 14:15,-116.8743,40.5990,1382.36,59.00,42.80,54.86,10.00,4.00,0.00,30.20,M,10.00,M,CLR,M,M,M,M,M,M,M,M,M,M,M,M,M,M,59.00,KBAM 201415Z AUTO 01004KT 10SM CLR 15/06 A3020 RMK AO1,M
HTH,2023-05-20 14:15,-118.6315,38.5448,1282.89,64.40,37.40,36.74,0.00,0.00,0.00,30.17,M,10.00,M,CLR,M,M,M,M,M,M,M,M,M,M,M,M,M,M,64.40,KHTH 201415Z AUTO 00000KT 10SM CLR 18/03 A3017 RMK A01,M
10U,2023-05-20 14:15,-116.1876,41.9532,1637.00,55.40,42.80,62.46,40.00,3.00,0.00,30.25,M,10.00,M,CLR,M,M,M,M,M,M,M,M,M,M,M,M,M,M,55.40,K10U 201415Z AUTO 04003KT 10SM CLR 13/06 A3025 RMK AO2,M
TMT,2023-05-20 14:15,-117.1971,39.4643,1749.34,47.30,37.00,66.99,0.00,0.00,0.00,30.27,M,10.00,M,CLR,M,M,M,M,M,M,M,M,M,M,M,M,M,M,47.30,KTMT 201415Z AUTO 00000KT 10SM CLR 09/03 A3027 RMK AO2 T00850027,M
05U,2023-05-20 14:30,-116.0051,39.6042,1811.23,57.20,37.40,47.44,10.00,3.00,0.00,30.30,M,10.00,M,CLR,M,M,M,M,M,M,M,M,M,M,M,M,M,M,57.20,K05U 201430Z AUTO 01003KT 10SM CLR 14/03 A3030 RMK A01,M
BVU,2023-05-20 14:35,-114.8611,35.9475,671.00,75.20,50.00,41.14,0.00,0.00,0.00,30.10,M,10.00,M,CLR,M,M,M,M,M,M,M,M,M,M,M,M,M,M,75.20,KBVU 201435Z AUTO 00000KT 10SM CLR 24/10 A3010 RMK AO2,M
CXP,2023-05-20 14:35,-119.7326,39.1923,1431.00,60.80,42.80,51.45,0.00,0.00,0.00,30.22,M,10.00,M,CLR,M,M,M,M,M,M,M,M,M,M,M,M,M,M,60.80,KCXP 201435Z AUTO 00000KT 10SM CLR 16/06 A3022 RMK AO2,M
RTS,2023-05-20 14:35,-119.8764,39.6682,1539.00,59.00,44.60,58.77,0.00,0.00,0.00,30.22,M,10.00,M,CLR,M,M,M,M,M,M,M,M,M,M,M,M,M,M,59.00,KRTS 201435Z AUTO 00000KT 10SM CLR 15/07 A3022 RMK AO2,M
MEV,2023-05-20 14:35,-119.7500,38.9963,1441.42,59.00,46.40,62.92,0.00,0.00,0.00,30.21,M,10.00,M,CLR,M,M,M,M,M,M,M,M,M,M,M,M,M,M,59.00,KMEV 201435Z AUTO 00000KT 10SM CLR 15/08 A3021 RMK AO2,M
BAM,2023-05-20 14:35,-116.8743,40.5990,1382.36,62.60,42.80,48.28,10.00,5.00,0.00,30.20,M,10.00,M,CLR,M,M,M,M,M,M,M,M,M,M,M,M,M,M,62.60,KBAM 201435Z AUTO 01005KT 10SM CLR 17/06 A3020 RMK AO1,M
HTH,2023-05-20 14:35,-118.6315,38.5448,1282.89,66.20,39.20,37.03,0.00,0.00,0.00,30.17,M,10.00,M,CLR,M,M,M,M,M,M,M,M,M,M,M,M,M,M,66.20,KHTH 201435Z AUTO 00000KT 10SM CLR 19/04 A3017 RMK A01,M
TMT,2023-05-20 14:35,-117.1971,39.4643,1749.34,50.50,37.60,61.10,0.00,0.00,0.00,30.27,M,10.00,M,CLR,M,M,M,M,M,M,M,M,M,M,M,M,M,M,50.50,KTMT 201435Z AUTO 00000KT 10SM CLR 10/03 A3027 RMK AO2 T01030031,M
10U,2023-05-20 14:35,-116.1876,41.9532,1637.00,57.20,46.40,67.12,20.00,4.00,0.00,30.26,M,10.00,M,CLR,M,M,M,M,M,M,M,M,M,M,M,M,M,M,57.20,K10U 201435Z AUTO 02004KT 10SM CLR 14/08 A3026 RMK AO2,M
05U,2023-05-20 14:50,-116.0051,39.6042,1811.23,60.80,37.40,41.71,0.00,0.00,0.00,30.30,M,10.00,M,CLR,M,M,M,M,M,M,M,M,M,M,M,M,M,M,60.80,K05U 201450Z AUTO 00000KT 10SM CLR 16/03 A3030 RMK A01,M
P68,2023-05-20 14:53,-116.0056,39.6014,1993.00,59.00,37.00,43.78,0.00,0.00,0.00,30.27,1018.80,M,M,M,M,M,M,M,M,M,M,M,M,M,M,M,M,M,59.00,KP68 201453Z AUTO 00000KT 15/03 A3027 RMK AO1 SLP188 T01500028 51013,M
LOL,2023-05-20 14:53,-118.5701,40.0684,1192.43,68.00,42.00,38.94,0.00,0.00,0.00,30.14,1016.80,10.00,M,CLR,M,M,M,M,M,M,M,M,M,M,M,M,M,M,68.00,KLOL 201453Z AUTO 00000KT 10SM CLR 20/06 A3014 RMK AO2 SLP168 T02000056 52012,M
VGT,2023-05-20 14:53,-115.1933,36.2111,667.00,78.00,53.00,41.89,40.00,4.00,0.00,30.09,1018.20,10.00,M,CLR,M,M,M,M,M,M,M,M,M,M,M,M,M,M,78.10,KVGT 201453Z 04004KT 10SM CLR 26/12 A3009 RMK AO2 SLP182 T02560117 51019,M
DRA,2023-05-20 14:53,-116.0278,36.6206,1009.00,74.00,44.00,34.40,M,3.00,0.00,30.12,1015.30,10.00,M,CLR,M,M,M,M,M,M,M,M,M,M,M,M,M,M,73.90,KDRA 201453Z AUTO VRB03KT 10SM CLR 23/07 A3012 RMK AO2 SLP153 T02330067 51013,M
ELY,2023-05-20 14:53,-114.8453,39.2950,1909.00,56.00,38.00,50.71,200.00,3.00,0.00,30.32,1018.70,10.00,M,CLR,M,M,M,M,M,M,M,M,M,M,M,M,M,M,55.90,KELY 201453Z AUTO 20003KT 10SM CLR 13/03 A3032 RMK AO2 SLP187 T01330033 52010,M
BVU,2023-05-20 14:55,-114.8611,35.9475,671.00,77.00,50.00,38.74,110.00,5.00,0.00,30.10,M,10.00,M,CLR,M,M,M,M,M,M,M,M,M,M,M,M,M,M,77.00,KBVU 201455Z AUTO 11005KT 10SM CLR 25/10 A3010 RMK AO2,M
CXP,2023-05-20 14:55,-119.7326,39.1923,1431.00,62.60,42.80,48.28,260.00,3.00,0.00,30.22,M,10.00,M,CLR,M,M,M,M,M,M,M,M,M,M,M,M,M,M,62.60,KCXP 201455Z AUTO 26003KT 10SM CLR 17/06 A3022 RMK AO2,M
RTS,2023-05-20 14:55,-119.8764,39.6682,1539.00,60.80,44.60,55.12,0.00,0.00,0.00,30.22,M,10.00,M,CLR,M,M,M,M,M,M,M,M,M,M,M,M,M,M,60.80,KRTS 201455Z AUTO 00000KT 10SM CLR 16/07 A3022 RMK AO2,M
MEV,2023-05-20 14:55,-119.7500,38.9963,1441.42,60.80,46.40,59.01,0.00,0.00,0.00,30.21,M,10.00,M,CLR,M,M,M,M,M,M,M,M,M,M,M,M,M,M,60.80,KMEV 201455Z AUTO 00000KT 10SM CLR 16/08 A3021 RMK AO2,M
BAM,2023-05-20 14:55,-116.8743,40.5990,1382.36,64.40,42.80,45.32,40.00,5.00,0.00,30.21,M,10.00,M,CLR,M,M,M,M,M,M,M,M,M,M,M,M,M,M,64.40,KBAM 201455Z AUTO 04005KT 10SM CLR 18/06 A3021 RMK AO1,M
HTH,2023-05-20 14:55,-118.6315,38.5448,1282.89,68.00,39.20,34.80,0.00,0.00,0.00,30.17,M,10.00,M,CLR,M,M,M,M,M,M,M,M,M,M,M,M,M,M,68.00,KHTH 201455Z AUTO 00000KT 10SM CLR 20/04 A3017 RMK A01,M
TMT,2023-05-20 14:55,-117.1971,39.4643,1749.34,53.60,38.30,56.02,0.00,0.00,0.00,30.27,M,10.00,M,CLR,M,M,M,M,M,M,M,M,M,M,M,M,M,M,53.60,KTMT 201455Z AUTO 00000KT 10SM CLR 12/04 A3027 RMK AO2 T01200035,M
10U,2023-05-20 14:55,-116.1876,41.9532,1637.00,59.00,46.40,62.92,20.00,4.00,0.00,30.26,M,10.00,M,CLR,M,M,M,M,M,M,M,M,M,M,M,M,M,M,59.00,K10U 201455Z AUTO 02004KT 10SM CLR 15/08 A3026 RMK AO2,M
INS,2023-05-20 14:55,-115.6733,36.5872,955.00,70.50,42.30,36.02,0.00,0.00,0.00,30.13,1016.10,10.00,M,SCT,M,M,M,13000.00,M,M,M,M,M,M,M,M,M,M,70.50,KINS 201455Z AUTO 00000KT 10SM SCT130 21/06 A3013 RMK AO2 SLP161 T02140057 52015 $,M
LSV,2023-05-20 14:55,-115.0343,36.2362,570.00,78.00,51.80,39.94,100.00,9.00,0.00,30.05,1015.30,10.00,M,CLR,M,M,M,M,M,M,M,M,M,M,M,M,M,M,78.10,KLSV 201455Z AUTO 10009KT 10SM CLR 26/11 A3005 RMK AO2 SLP153 T02560110 52019 $,M
RNO,2023-05-20 14:55,-119.7711,39.4839,1341.00,65.00,44.00,46.81,280.00,3.00,0.00,30.19,1016.80,10.00,M,FEW,M,M,M,25000.00,M,M,M,M,M,M,M,M,M,M,64.90,KRNO 201455Z 28003KT 10SM FEW250 18/07 A3019 RMK AO2 SLP168 T01830067 51009,M
EKO,2023-05-20 14:56,-115.7860,40.8242,1367.00,58.00,43.00,57.51,0.00,0.00,0.00,30.25,1019.90,10.00,M,CLR,M,M,M,M,M,M,M,M,M,M,M,M,M,M,57.90,KEKO 201456Z AUTO 00000KT 10SM CLR 14/06 A3025 RMK AO2 SLP199 T01440061 51013,M
TPH,2023-05-20 14:56,-117.0904,38.0505,1654.00,M,M,M,M,M,0.00,30.24,M,M,M,M,M,M,M,M,M,M,M,M,M,M,M,M,M,M,M,KTPH 201456Z AUTO A3024 RMK AO2 SLPNO 51012 PWINO $,M
LAS,2023-05-20 14:56,-115.1634,36.0719,663.00,77.00,52.00,41.72,70.00,9.00,0.00,30.09,1016.70,10.00,M,FEW,FEW,SCT,M,10000.00,15000.00,25000.00,M,M,M,M,M,M,M,M,77.00,KLAS 201456Z 07009KT 10SM FEW100 FEW150 SCT250 25/11 A3009 RMK AO2 SLP167 T02500111 53021,M
WMC,2023-05-20 14:56,-117.8072,40.9019,1315.00,66.00,42.00,41.73,40.00,7.00,0.00,30.18,1017.40,10.00,M,CLR,M,M,M,M,M,M,M,M,M,M,M,M,M,M,66.00,KWMC 201456Z AUTO 04007KT 10SM CLR 19/06 A3018 RMK AO2 SLP174 T01890056 51012,M
HND,2023-05-20 14:56,-115.1344,35.9729,742.79,77.00,51.00,40.36,190.00,4.00,0.00,30.12,1019.00,10.00,M,CLR,M,M,M,M,M,M,M,M,M,M,M,M,M,M,77.00,KHND 201456Z 19004KT 10SM CLR 25/11 A3012 RMK AO2 SLP190 T02500106 51020,M
05U,2023-05-20 15:10,-116.0051,39.6042,1811.23,64.40,35.60,34.22,0.00,0.00,0.00,30.30,M,10.00,M,CLR,M,M,M,M,M,M,M,M,M,M,M,M,M,M,64.40,K05U 201510Z AUTO 00000KT 10SM CLR 18/02 A3030 RMK A01,M
BVU,2023-05-20 15:15,-114.8611,35.9475,671.00,77.00,50.00,38.74,100.00,8.00,0.00,30.10,M,10.00,M,CLR,M,M,M,M,M,M,M,M,M,M,M,M,M,M,77.00,KBVU 201515Z AUTO 10008KT 10SM CLR 25/10 A3010 RMK AO2,M
CXP,2023-05-20 15:15,-119.7326,39.1923,1431.00,64.40,42.80,45.32,0.00,0.00,0.00,30.22,M,10.00,M,CLR,M,M,M,M,M,M,M,M,M,M,M,M,M,M,64.40,KCXP 201515Z AUTO 00000KT 10SM CLR 18/06 A3022 RMK AO2,M
RTS,2023-05-20 15:15,-119.8764,39.6682,1539.00,62.60,46.40,55.37,0.00,0.00,0.00,30.23,M,10.00,M,CLR,M,M,M,M,M,M,M,M,M,M,M,M,M,M,62.60,KRTS 201515Z AUTO 00000KT 10SM CLR 17/08 A3023 RMK AO2,M
MEV,2023-05-20 15:15,-119.7500,38.9963,1441.42,64.40,44.60,48.55,190.00,4.00,0.00,30.20,M,10.00,M,CLR,M,M,M,M,M,M,M,M,M,M,M,M,M,M,64.40,KMEV 201515Z AUTO 19004KT 10SM CLR 18/07 A3020 RMK AO2,M
BAM,2023-05-20 15:15,-116.8743,40.5990,1382.36,66.20,44.60,45.60,70.00,4.00,0.00,30.21,M,10.00,M,CLR,M,M,M,M,M,M,M,M,M,M,M,M,M,M,66.20,KBAM 201515Z AUTO 07004KT 10SM CLR 19/07 A3021 RMK AO1,M
HTH,2023-05-20 15:15,-118.6315,38.5448,1282.89,69.80,39.20,32.72,0.00,0.00,0.00,30.17,M,10.00,M,CLR,M,M,M,M,M,M,M,M,M,M,M,M,M,M,69.80,KHTH 201515Z AUTO 00000KT 10SM CLR 21/04 A3017 RMK A01,M
10U,2023-05-20 15:15,-116.1876,41.9532,1637.00,60.80,44.60,55.12,0.00,0.00,0.00,30.26,M,10.00,M,CLR,M,M,M,M,M,M,M,M,M,M,M,M,M,M,60.80,K10U 201515Z AUTO 00000KT 10SM CLR 16/07 A3026 RMK AO2,M
TMT,2023-05-20 15:15,-117.1971,39.4643,1749.34,56.50,40.00,54.07,310.00,3.00,0.00,30.27,M,10.00,M,CLR,M,M,M,M,M,M,M,M,M,M,M,M,M,M,56.50,KTMT 201515Z AUTO 31003KT 10SM CLR 14/05 A3027 RMK AO2 T01360045,M
05U,2023-05-20 15:30,-116.0051,39.6042,1811.23,64.40,39.20,39.43,M,3.00,0.00,30.30,M,9.00,M,CLR,M,M,M,M,M,M,M,M,M,M,M,M,M,M,64.40,K05U 201530Z AUTO VRB03KT 9SM CLR 18/04 A3030 RMK A01,M
HTH,2023-05-20 15:30,-118.6315,38.5448,1282.89,69.80,37.40,30.49,0.00,0.00,0.00,30.17,M,10.00,M,CLR,M,M,M,M,M,M,M,M,M,M,M,M,M,M,69.80,KHTH 201530Z AUTO 00000KT 10SM CLR 21/03 A3017 RMK A01,M
BVU,2023-05-20 15:35,-114.8611,35.9475,671.00,78.80,50.00,36.51,100.00,7.00,0.00,30.10,M,10.00,M,CLR,M,M,M,M,M,M,M,M,M,M,M,M,M,M,78.80,KBVU 201535Z AUTO 10007KT 10SM CLR 26/10 A3010 RMK AO2,M
CXP,2023-05-20 15:35,-119.7326,39.1923,1431.00,66.20,42.80,42.57,0.00,0.00,0.00,30.22,M,10.00,M,CLR,M,M,M,M,M,M,M,M,M,M,M,M,M,M,66.20,KCXP 201535Z AUTO 00000KT 10SM CLR 19/06 A3022 RMK AO2,M
RTS,2023-05-20 15:35,-119.8764,39.6682,1539.00,64.40,44.60,48.55,0.00,0.00,0.00,30.22,M,10.00,M,CLR,M,M,M,M,M,M,M,M,M,M,M,M,M,M,64.40,KRTS 201535Z AUTO 00000KT 10SM CLR 18/07 A3022 RMK AO2,M
MEV,2023-05-20 15:35,-119.7500,38.9963,1441.42,62.60,44.60,51.72,M,3.00,0.00,30.20,M,10.00,M,CLR,M,M,M,M,M,M,M,M,M,M,M,M,M,M,62.60,KMEV 201535Z AUTO VRB03KT 10SM CLR 17/07 A3020 RMK AO2,M
BAM,2023-05-20 15:35,-116.8743,40.5990,1382.36,68.00,44.60,42.85,40.00,4.00,0.00,30.21,M,10.00,M,CLR,M,M,M,M,M,M,M,M,M,M,M,M,M,M,68.00,KBAM 201535Z AUTO 04004KT 10SM CLR 20/07 A3021 RMK AO1,M
TMT,2023-05-20 15:35,-117.1971,39.4643,1749.34,57.40,40.30,52.76,0.00,0.00,0.00,30.27,M,10.00,M,CLR,M,M,M,M,M,M,M,M,M,M,M,M,M,M,57.40,KTMT 201535Z AUTO 00000KT 10SM CLR 14/05 A3027 RMK AO2 T01410046,M
10U,2023-05-20 15:35,-116.1876,41.9532,1637.00,62.60,46.40,55.37,M,3.00,0.00,30.26,M,10.00,M,CLR,M,M,M,M,M,M,M,M,M,M,M,M,M,M,62.60,K10U 201535Z AUTO VRB03KT 10SM CLR 17/08 A3026 RMK AO2,M
05U,2023-05-20 15:50,-116.0051,39.6042,1811.23,68.00,37.40,32.43,360.00,4.00,0.00,30.30,M,10.00,M,CLR,M,M,M,M,M,M,M,M,M,M,M,M,M,M,68.00,K05U 201550Z AUTO 36004KT 10SM CLR 20/03 A3030 RMK A01,M
DRA,2023-05-20 15:53,-116.0278,36.6206,1009.00,78.00,43.00,28.68,0.00,0.00,0.00,30.13,1015.60,10.00,M,CLR,M,M,M,M,M,M,M,M,M,M,M,M,M,M,78.10,KDRA 201553Z AUTO 00000KT 10SM CLR 26/06 A3013 RMK AO2 SLP156 T02560061,M
VGT,2023-05-20 15:53,-115.1933,36.2111,667.00,80.00,52.00,37.67,0.00,0.00,0.00,30.09,1018.30,10.00,M,CLR,M,M,M,M,M,M,M,M,M,M,M,M,M,M,79.81,KVGT 201553Z 00000KT 10SM CLR 27/11 A3009 RMK AO2 SLP183 T02670111,M
P68,2023-05-20 15:53,-116.0056,39.6014,1993.00,66.00,38.00,35.44,350.00,4.00,0.00,30.27,1017.90,M,M,M,M,M,M,M,M,M,M,M,M,M,M,M,M,M,66.00,KP68 201553Z AUTO 35004KT 19/03 A3027 RMK AO1 SLP179 T01890033,M
ELY,2023-05-20 15:53,-114.8453,39.2950,1909.00,61.00,35.00,37.81,170.00,3.00,0.00,30.31,1018.80,10.00,M,CLR,M,M,M,M,M,M,M,M,M,M,M,M,M,M,61.00,KELY 201553Z AUTO 17003KT 10SM CLR 16/02 A3031 RMK AO2 SLP188 T01610017,M
LOL,2023-05-20 15:53,-118.5701,40.0684,1192.43,74.00,44.00,34.40,40.00,6.00,0.00,30.13,1016.60,10.00,M,CLR,M,M,M,M,M,M,M,M,M,M,M,M,M,M,73.90,KLOL 201553Z AUTO 04006KT 10SM CLR 23/07 A3013 RMK AO2 SLP166 T02330067,M
BVU,2023-05-20 15:55,-114.8611,35.9475,671.00,78.80,50.00,36.51,90.00,5.00,0.00,30.10,M,10.00,11.00,CLR,M,M,M,M,M,M,M,M,M,M,M,M,M,M,78.80,KBVU 201555Z AUTO 09005G11KT 10SM CLR 26/10 A3010 RMK AO2,M
CXP,2023-05-20 15:55,-119.7326,39.1923,1431.00,66.20,42.80,42.57,M,3.00,0.00,30.22,M,10.00,M,CLR,M,M,M,M,M,M,M,M,M,M,M,M,M,M,66.20,KCXP 201555Z AUTO VRB03KT 10SM CLR 19/06 A3022 RMK AO2,M
RNO,2023-05-20 15:55,-119.7711,39.4839,1341.00,70.00,43.00,37.64,0.00,0.00,0.00,30.19,1016.80,10.00,M,FEW,M,M,M,25000.00,M,M,M,M,M,M,M,M,M,M,70.00,KRNO 201555Z 00000KT 10SM FEW250 21/06 A3019 RMK AO2 SLP168 T02110061,M
RTS,2023-05-20 15:55,-119.8764,39.6682,1539.00,66.20,46.40,48.83,0.00,0.00,0.00,30.22,M,10.00,M,CLR,M,M,M,M,M,M,M,M,M,M,M,M,M,M,66.20,KRTS 201555Z AUTO 00000KT 10SM CLR 19/08 A3022 RMK AO2,M
MEV,2023-05-20 15:55,-119.7500,38.9963,1441.42,64.40,44.60,48.55,M,3.00,0.00,30.20,M,10.00,M,CLR,M,M,M,M,M,M,M,M,M,M,M,M,M,M,64.40,KMEV 201555Z AUTO VRB03KT 10SM CLR 18/07 A3020 RMK AO2,M
BAM,2023-05-20 15:55,-116.8743,40.5990,1382.36,69.80,44.60,40.29,10.00,6.00,0.00,30.21,M,10.00,M,CLR,M,M,M,M,M,M,M,M,M,M,M,M,M,M,69.80,KBAM 201555Z AUTO 01006KT 10SM CLR 21/07 A3021 RMK AO1,M
HTH,2023-05-20 15:55,-118.6315,38.5448,1282.89,71.60,35.60,26.71,0.00,0.00,0.00,30.17,M,10.00,M,CLR,M,M,M,M,M,M,M,M,M,M,M,M,M,M,71.60,KHTH 201555Z AUTO 00000KT 10SM CLR 22/02 A3017 RMK A01,M
10U,2023-05-20 15:55,-116.1876,41.9532,1637.00,64.40,46.40,51.98,30.00,3.00,0.00,30.26,M,10.00,M,CLR,M,M,M,M,M,M,M,M,M,M,M,M,M,M,64.40,K10U 201555Z AUTO 03003KT 10SM CLR 18/08 A3026 RMK AO2,M
TMT,2023-05-20 15:55,-117.1971,39.4643,1749.34,60.40,40.00,47.02,0.00,0.00,0.00,30.27,M,10.00,M,CLR,M,M,M,M,M,M,M,M,M,M,M,M,M,M,60.40,KTMT 201555Z AUTO 00000KT 10SM CLR 16/05 A3027 RMK AO2 T01580045,M
INS,2023-05-20 15:55,-115.6733,36.5872,955.00,76.80,47.00,34.99,0.00,0.00,0.00,30.13,1015.90,10.00,M,CLR,M,M,M,M,M,M,M,M,M,M,M,M,M,M,76.80,KINS 201555Z AUTO 00000KT 10SM CLR 25/08 A3013 RMK AO2 SLP159 T02490084 $,M
LSV,2023-05-20 15:55,-115.0343,36.2362,570.00,81.00,51.00,35.01,90.00,11.00,0.00,30.06,1015.70,10.00,M,CLR,M,M,M,M,M,M,M,M,M,M,M,M,M,M,80.27,KLSV 201555Z AUTO 09011KT 10SM CLR 27/11 A3006 RMK AO2 SLP157 T02730105 $,M
WMC,2023-05-20 15:56,-117.8072,40.9019,1315.00,71.00,45.00,39.13,70.00,8.00,0.00,30.18,1017.20,10.00,M,CLR,M,M,M,M,M,M,M,M,M,M,M,M,M,M,71.10,KWMC 201556Z AUTO 07008KT 10SM CLR 22/07 A3018 RMK AO2 SLP172 T02170072,M
NFL,2023-05-20 15:56,-118.7010,39.4166,1199.00,74.00,46.00,36.98,270.00,3.00,0.00,30.14,1017.20,10.00,M,FEW,M,M,M,25000.00,M,M,M,M,M,M,M,M,M,M,73.90,KNFL 201556Z 27003KT 10SM FEW250 23/08 A3014 RMK AO2 SLP172 T02330078,M
TPH,2023-05-20 15:56,-117.0904,38.0505,1654.00,M,M,M,M,M,0.00,30.25,M,M,M,M,M,M,M,M,M,M,M,M,M,M,M,M,M,M,M,KTPH 201556Z AUTO A3025 RMK AO2 SLPNO PWINO $,M
EKO,2023-05-20 15:56,-115.7860,40.8242,1367.00,66.00,42.00,41.73,0.00,0.00,0.00,30.25,1019.60,10.00,M,CLR,M,M,M,M,M,M,M,M,M,M,M,M,M,M,66.00,KEKO 201556Z AUTO 00000KT 10SM CLR 19/06 A3025 RMK AO2 SLP196 T01890056,M
HND,2023-05-20 15:56,-115.1344,35.9729,742.79,79.00,51.00,37.78,360.00,5.00,0.00,30.13,1019.20,10.00,M,CLR,M,M,M,M,M,M,M,M,M,M,M,M,M,M,79.00,KHND 201556Z 36005KT 10SM CLR 26/11 A3013 RMK AO2 SLP192 T02610106,M
LAS,2023-05-20 15:56,-115.1634,36.0719,663.00,79.00,51.00,37.78,80.00,5.00,0.00,30.10,1016.90,10.00,M,FEW,FEW,SCT,M,10000.00,15000.00,25000.00,M,M,M,M,M,M,M,M,79.00,KLAS 201556Z 08005KT 10SM FEW100 FEW150 SCT250 26/11 A3010 RMK AO2 SLP169 T02610106,M
05U,2023-05-20 16:10,-116.0051,39.6042,1811.23,69.80,37.40,30.49,10.00,4.00,0.00,30.29,M,9.00,M,CLR,M,M,M,M,M,M,M,M,M,M,M,M,M,M,69.80,K05U 201610Z AUTO 01004KT 9SM CLR 21/03 A3029 RMK A01,M
BVU,2023-05-20 16:15,-114.8611,35.9475,671.00,80.60,50.00,34.41,90.00,7.00,0.00,30.10,M,10.00,M,CLR,M,M,M,M,M,M,M,M,M,M,M,M,M,M,79.88,KBVU 201615Z AUTO 09007KT 10SM CLR 27/10 A3010 RMK AO2,M
CXP,2023-05-20 16:15,-119.7326,39.1923,1431.00,69.80,42.80,37.61,230.00,4.00,0.00,30.21,M,10.00,M,CLR,M,M,M,M,M,M,M,M,M,M,M,M,M,M,69.80,KCXP 201615Z AUTO 23004KT 10SM CLR 21/06 A3021 RMK AO2,M
RTS,2023-05-20 16:15,-119.8764,39.6682,1539.00,66.20,44.60,45.60,0.00,0.00,0.00,30.22,M,10.00,M,CLR,M,M,M,M,M,M,M,M,M,M,M,M,M,M,66.20,KRTS 201615Z AUTO 00000KT 10SM CLR 19/07 A3022 RMK AO2,M
MEV,2023-05-20 16:15,-119.7500,38.9963,1441.42,66.20,44.60,45.60,0.00,0.00,0.00,30.20,M,10.00,M,CLR,M,M,M,M,M,M,M,M,M,M,M,M,M,M,66.20,KMEV 201615Z AUTO 00000KT 10SM CLR 19/07 A3020 RMK AO2,M
BAM,2023-05-20 16:15,-116.8743,40.5990,1382.36,71.60,44.60,37.89,10.00,5.00,0.00,30.21,M,10.00,M,CLR,M,M,M,M,M,M,M,M,M,M,M,M,M,M,71.60,KBAM 201615Z AUTO 01005KT 10SM CLR 22/07 A3021 RMK AO1,M
HTH,2023-05-20 16:15,-118.6315,38.5448,1282.89,73.40,35.60,25.13,0.00,0.00,0.00,30.17,M,10.00,M,CLR,M,M,M,M,M,M,M,M,M,M,M,M,M,M,73.40,KHTH 201615Z AUTO 00000KT 10SM CLR 23/02 A3017 RMK A01,M
TMT,2023-05-20 16:15,-117.1971,39.4643,1749.34,63.30,39.60,41.62,0.00,0.00,0.00,30.27,M,10.00,M,CLR,M,M,M,M,M,M,M,M,M,M,M,M,M,M,63.30,KTMT 201615Z AUTO 00000KT 10SM CLR 17/04 A3027 RMK AO2 T01740042,M
10U,2023-05-20 16:15,-116.1876,41.9532,1637.00,68.00,46.40,45.88,0.00,0.00,0.00,30.26,M,10.00,M,CLR,M,M,M,M,M,M,M,M,M,M,M,M,M,M,68.00,K10U 201615Z AUTO 00000KT 10SM CLR 20/08 A3026 RMK AO2,M
05U,2023-05-20 16:30,-116.0051,39.6042,1811.23,71.60,37.40,28.68,20.00,5.00,0.00,30.29,M,10.00,M,CLR,M,M,M,M,M,M,M,M,M,M,M,M,M,M,71.60,K05U 201630Z AUTO 02005KT 10SM CLR 22/03 A3029 RMK A01,M
BVU,2023-05-20 16:35,-114.8611,35.9475,671.00,80.60,50.00,34.41,70.00,5.00,0.00,30.09,M,10.00,M,CLR,M,M,M,M,M,M,M,M,M,M,M,M,M,M,79.88,KBVU 201635Z AUTO 07005KT 10SM CLR 27/10 A3009 RMK AO2,M
CXP,2023-05-20 16:35,-119.7326,39.1923,1431.00,71.60,42.80,35.37,0.00,0.00,0.00,30.21,M,10.00,M,CLR,M,M,M,M,M,M,M,M,M,M,M,M,M,M,71.60,KCXP 201635Z AUTO 00000KT 10SM CLR 22/06 A3021 RMK AO2,M
RTS,2023-05-20 16:35,-119.8764,39.6682,1539.00,69.80,42.80,37.61,0.00,0.00,0.00,30.22,M,10.00,M,CLR,M,M,M,M,M,M,M,M,M,M,M,M,M,M,69.80,KRTS 201635Z AUTO 00000KT 10SM CLR 21/06 A3022 RMK AO2,M
MEV,2023-05-20 16:35,-119.7500,38.9963,1441.42,69.80,44.60,40.29,200.00,3.00,0.00,30.20,M,10.00,M,CLR,M,M,M,M,M,M,M,M,M,M,M,M,M,M,69.80,KMEV 201635Z AUTO 20003KT 10SM CLR 21/07 A3020 RMK AO2,M
BAM,2023-05-20 16:35,-116.8743,40.5990,1382.36,71.60,44.60,37.89,360.00,5.00,0.00,30.20,M,10.00,M,CLR,M,M,M,M,M,M,M,M,M,M,M,M,M,M,71.60,KBAM 201635Z AUTO 36005KT 10SM CLR 22/07 A3020 RMK AO1,M
HTH,2023-05-20 16:35,-118.6315,38.5448,1282.89,73.40,35.60,25.13,280.00,3.00,0.00,30.17,M,10.00,M,CLR,M,M,M,M,M,M,M,M,M,M,M,M,M,M,73.40,KHTH 201635Z AUTO 28003KT 10SM CLR 23/02 A3017 RMK A01,M
TMT,2023-05-20 16:35,-117.1971,39.4643,1749.34,66.40,37.80,34.81,230.00,3.00,0.00,30.26,M,10.00,M,CLR,M,M,M,M,M,M,M,M,M,M,M,M,M,M,66.40,KTMT 201635Z AUTO 23003KT 10SM CLR 19/03 A3026 RMK AO2 T01910032,M
10U,2023-05-20 16:35,-116.1876,41.9532,1637.00,71.60,41.00,33.00,0.00,0.00,0.00,30.25,M,10.00,M,CLR,M,M,M,M,M,M,M,M,M,M,M,M,M,M,71.60,K10U 201635Z AUTO 00000KT 10SM CLR 22/05 A3025 RMK AO2,M
05U,2023-05-20 16:50,-116.0051,39.6042,1811.23,73.40,35.60,25.13,M,4.00,0.00,30.29,M,10.00,M,CLR,M,M,M,M,M,M,M,M,M,M,M,M,M,M,73.40,K05U 201650Z AUTO VRB04KT 10SM CLR 23/02 A3029 RMK A01,M
LOL,2023-05-20 16:53,-118.5701,40.0684,1192.43,79.00,43.00,27.84,70.00,6.00,0.00,30.13,1016.60,10.00,M,CLR,M,M,M,M,M,M,M,M,M,M,M,M,M,M,79.00,KLOL 201653Z AUTO 07006KT 10SM CLR 26/06 A3013 RMK AO2 SLP166 T02610061,M
DRA,2023-05-20 16:53,-116.0278,36.6206,1009.00,82.00,44.00,26.33,270.00,6.00,0.00,30.12,1015.20,10.00,M,CLR,M,M,M,M,M,M,M,M,M,M,M,M,M,M,80.22,KDRA 201653Z AUTO 27006KT 10SM CLR 28/07 A3012 RMK AO2 SLP152 T02780067,M
VGT,2023-05-20 16:53,-115.1933,36.2111,667.00,82.00,51.00,34.25,M,4.00,0.00,30.09,1018.20,10.00,M,CLR,M,M,M,M,M,M,M,M,M,M,M,M,M,M,80.85,KVGT 201653Z VRB04KT 10SM CLR 28/11 A3009 RMK AO2 SLP182 T02780106,M
P68,2023-05-20 16:53,-116.0056,39.6014,1993.00,71.00,35.00,26.63,M,4.00,0.00,30.26,1018.10,M,M,M,M,M,M,M,M,M,M,M,M,M,M,M,M,M,71.10,KP68 201653Z AUTO VRB04KT 22/02 A3026 RMK AO1 SLP181 T02170017,M
ELY,2023-05-20 16:53,-114.8453,39.2950,1909.00,65.00,35.00,32.97,0.00,0.00,0.00,30.30,1017.70,10.00,M,CLR,M,M,M,M,M,M,M,M,M,M,M,M,M,M,64.90,KELY 201653Z AUTO 00000KT 10SM CLR 18/02 A3030 RMK AO2 SLP177 T01830017,M
BVU,2023-05-20 16:55,-114.8611,35.9475,671.00,80.60,50.00,34.41,M,5.00,0.00,30.09,M,10.00,M,CLR,M,M,M,M,M,M,M,M,M,M,M,M,M,M,79.88,KBVU 201655Z AUTO VRB05KT 10SM CLR 27/10 A3009 RMK AO2,M
CXP,2023-05-20 16:55,-119.7326,39.1923,1431.00,73.40,42.80,33.29,0.00,0.00,0.00,30.20,M,10.00,M,CLR,M,M,M,M,M,M,M,M,M,M,M,M,M,M,73.40,KCXP 201655Z AUTO 00000KT 10SM CLR 23/06 A3020 RMK AO2,M
RNO,2023-05-20 16:55,-119.7711,39.4839,1341.00,76.00,43.00,30.85,0.00,0.00,0.00,30.18,1016.00,10.00,M,FEW,M,M,M,25000.00,M,M,M,M,M,M,M,M,M,M,75.90,KRNO 201655Z 00000KT 10SM FEW250 24/06 A3018 RMK AO2 SLP160 T02440061,M
RTS,2023-05-20 16:55,-119.8764,39.6682,1539.00,71.60,42.80,35.37,0.00,0.00,0.00,30.22,M,10.00,M,CLR,M,M,M,M,M,M,M,M,M,M,M,M,M,M,71.60,KRTS 201655Z AUTO 00000KT 10SM CLR 22/06 A3022 RMK AO2,M
MEV,2023-05-20 16:55,-119.7500,38.9963,1441.42,71.60,44.60,37.89,0.00,0.00,0.00,30.19,M,10.00,M,CLR,M,M,M,M,M,M,M,M,M,M,M,M,M,M,71.60,KMEV 201655Z AUTO 00000KT 10SM CLR 22/07 A3019 RMK AO2,M
BAM,2023-05-20 16:55,-116.8743,40.5990,1382.36,75.20,42.80,31.34,30.00,5.00,0.00,30.20,M,10.00,M,CLR,M,M,M,M,M,M,M,M,M,M,M,M,M,M,75.20,KBAM 201655Z AUTO 03005KT 10SM CLR 24/06 A3020 RMK AO1,M
HTH,2023-05-20 16:55,-118.6315,38.5448,1282.89,75.20,35.60,23.66,M,4.00,0.00,30.16,M,10.00,M,CLR,M,M,M,M,M,M,M,M,M,M,M,M,M,M,75.20,KHTH 201655Z AUTO VRB04KT 10SM CLR 24/02 A3016 RMK A01,M
10U,2023-05-20 16:55,-116.1876,41.9532,1637.00,69.80,44.60,40.29,0.00,0.00,0.00,30.25,M,10.00,M,CLR,M,M,M,M,M,M,M,M,M,M,M,M,M,M,69.80,K10U 201655Z AUTO 00000KT 10SM CLR 21/07 A3025 RMK AO2,M
LSV,2023-05-20 16:55,-115.0343,36.2362,570.00,83.70,49.80,30.89,0.00,0.00,0.00,30.06,1015.50,10.00,M,FEW,SCT,M,M,15000.00,21000.00,M,M,M,M,M,M,M,M,M,81.85,KLSV 201655Z AUTO 00000KT 10SM FEW150 SCT210 29/10 A3006 RMK AO2 SLP155 T02870099 $,M
TMT,2023-05-20 16:55,-117.1971,39.4643,1749.34,67.60,37.00,32.24,340.00,3.00,0.00,30.26,M,10.00,M,CLR,M,M,M,M,M,M,M,M,M,M,M,M,M,M,67.60,KTMT 201655Z AUTO 34003KT 10SM CLR 20/03 A3026 RMK AO2 T01980027,M
INS,2023-05-20 16:55,-115.6733,36.5872,955.00,78.00,46.00,32.03,90.00,9.00,0.00,30.12,1015.70,10.00,M,SCT,BKN,M,M,13000.00,15000.00,M,M,M,M,M,M,M,M,M,78.10,KINS 201655Z AUTO 09009KT 10SM SCT130 BKN150 26/08 A3012 RMK AO2 SLP157 T02560077 $,M
EKO,2023-05-20 16:56,-115.7860,40.8242,1367.00,71.00,43.00,36.25,M,4.00,0.00,30.24,1019.20,10.00,M,CLR,M,M,M,M,M,M,M,M,M,M,M,M,M,M,71.10,KEKO 201656Z AUTO VRB04KT 10SM CLR 22/06 A3024 RMK AO2 SLP192 T02170061,M
NFL,2023-05-20 16:56,-118.7010,39.4166,1199.00,77.00,43.00,29.74,0.00,0.00,0.00,30.13,1016.90,10.00,M,FEW,M,M,M,25000.00,M,M,M,M,M,M,M,M,M,M,77.00,KNFL 201656Z 00000KT 10SM FEW250 25/06 A3013 RMK AO2 SLP169 T02500061,M
TPH,2023-05-20 16:56,-117.0904,38.0505,1654.00,M,M,M,M,M,0.00,30.24,M,M,M,M,M,M,M,M,M,M,M,M,M,M,M,M,M,M,M,KTPH 201656Z AUTO A3024 RMK AO2 SLPNO PWINO $,M
LAS,2023-05-20 16:56,-115.1634,36.0719,663.00,81.00,50.00,33.97,60.00,5.00,0.00,30.10,1016.80,10.00,M,FEW,SCT,M,M,10000.00,25000.00,M,M,M,M,M,M,M,M,M,80.12,KLAS 201656Z 06005KT 10SM FEW100 SCT250 27/10 A3010 RMK AO2 SLP168 T02720100,M
HND,2023-05-20 16:56,-115.1344,35.9729,742.79,82.00,51.00,34.25,360.00,8.00,0.00,30.12,1019.00,10.00,M,CLR,M,M,M,M,M,M,M,M,M,M,M,M,M,M,80.85,KHND 201656Z 36008KT 10SM CLR 28/11 A3012 RMK AO2 SLP190 T02780106,M
WMC,2023-05-20 16:56,-117.8072,40.9019,1315.00,76.00,44.00,32.17,70.00,7.00,0.00,30.16,1017.20,10.00,M,CLR,M,M,M,M,M,M,M,M,M,M,M,M,M,M,75.90,KWMC 201656Z AUTO 07007KT 10SM CLR 24/07 A3016 RMK AO2 SLP172 T02440067,M
05U,2023-05-20 17:10,-116.0051,39.6042,1811.23,75.20,35.60,23.66,20.00,6.00,0.00,30.29,M,10.00,M,CLR,M,M,M,M,M,M,M,M,M,M,M,M,M,M,75.20,K05U 201710Z AUTO 02006KT 10SM CLR 24/02 A3029 RMK A01,M
BVU,2023-05-20 17:15,-114.8611,35.9475,671.00,82.40,48.20,30.35,0.00,0.00,0.00,30.09,M,10.00,M,CLR,M,M,M,M,M,M,M,M,M,M,M,M,M,M,80.80,KBVU 201715Z AUTO 00000KT 10SM CLR 28/09 A3009 RMK AO2,M
CXP,2023-05-20 17:15,-119.7326,39.1923,1431.00,75.20,42.80,31.34,0.00,0.00,0.00,30.20,M,10.00,M,CLR,M,M,M,M,M,M,M,M,M,M,M,M,M,M,75.20,KCXP 201715Z AUTO 00000KT 10SM CLR 24/06 A3020 RMK AO2,M
RTS,2023-05-20 17:15,-119.8764,39.6682,1539.00,71.60,42.80,35.37,150.00,4.00,0.00,30.22,M,10.00,M,CLR,M,M,M,M,M,M,M,M,M,M,M,M,M,M,71.60,KRTS 201715Z AUTO 15004KT 10SM CLR 22/06 A3022 RMK AO2,M
MEV,2023-05-20 17:15,-119.7500,38.9963,1441.42,71.60,46.40,40.57,0.00,0.00,0.00,30.19,M,10.00,M,CLR,M,M,M,M,M,M,M,M,M,M,M,M,M,M,71.60,KMEV 201715Z AUTO 00000KT 10SM CLR 22/08 A3019 RMK AO2,M
BAM,2023-05-20 17:15,-116.8743,40.5990,1382.36,77.00,44.60,31.62,40.00,5.00,0.00,30.20,M,10.00,M,CLR,M,M,M,M,M,M,M,M,M,M,M,M,M,M,77.00,KBAM 201715Z AUTO 04005KT 10SM CLR 25/07 A3020 RMK AO1,M
HTH,2023-05-20 17:15,-118.6315,38.5448,1282.89,77.00,37.40,23.93,300.00,4.00,0.00,30.16,M,10.00,M,CLR,M,M,M,M,M,M,M,M,M,M,M,M,M,M,77.00,KHTH 201715Z AUTO 30004KT 10SM CLR 25/03 A3016 RMK A01,M
TMT,2023-05-20 17:15,-117.1971,39.4643,1749.34,69.40,37.80,31.40,0.00,0.00,0.00,30.26,M,10.00,M,CLR,M,M,M,M,M,M,M,M,M,M,M,M,M,M,69.40,KTMT 201715Z AUTO 00000KT 10SM CLR 21/03 A3026 RMK AO2 T02080032,M
10U,2023-05-20 17:15,-116.1876,41.9532,1637.00,71.60,42.80,35.37,0.00,0.00,0.00,30.25,M,10.00,M,CLR,M,M,M,M,M,M,M,M,M,M,M,M,M,M,71.60,K10U 201715Z AUTO 00000KT 10SM CLR 22/06 A3025 RMK AO2,M
05U,2023-05-20 17:30,-116.0051,39.6042,1811.23,77.00,33.80,20.74,M,5.00,0.00,30.28,M,10.00,M,CLR,M,M,M,M,M,M,M,M,M,M,M,M,M,M,77.00,K05U 201730Z AUTO VRB05KT 10SM CLR 25/01 A3028 RMK A01,M
BVU,2023-05-20 17:35,-114.8611,35.9475,671.00,82.40,48.20,30.35,M,3.00,0.00,30.09,M,10.00,11.00,CLR,M,M,M,M,M,M,M,M,M,M,M,M,M,M,80.80,KBVU 201735Z AUTO VRB03G11KT 10SM CLR 28/09 A3009 RMK AO2 LTG DSNT E,M
CXP,2023-05-20 17:35,-119.7326,39.1923,1431.00,77.00,42.80,29.51,0.00,0.00,0.00,30.19,M,10.00,M,CLR,M,M,M,M,M,M,M,M,M,M,M,M,M,M,77.00,KCXP 201735Z AUTO 00000KT 10SM CLR 25/06 A3019 RMK AO2,M
RTS,2023-05-20 17:35,-119.8764,39.6682,1539.00,73.40,44.60,35.66,40.00,4.00,0.00,30.22,M,10.00,M,CLR,M,M,M,M,M,M,M,M,M,M,M,M,M,M,73.40,KRTS 201735Z AUTO 04004KT 10SM CLR 23/07 A3022 RMK AO2,M
MEV,2023-05-20 17:35,-119.7500,38.9963,1441.42,73.40,42.80,33.29,0.00,0.00,0.00,30.18,M,10.00,M,CLR,M,M,M,M,M,M,M,M,M,M,M,M,M,M,73.40,KMEV 201735Z AUTO 00000KT 10SM CLR 23/06 A3018 RMK AO2,M
BAM,2023-05-20 17:35,-116.8743,40.5990,1382.36,78.80,42.80,27.81,340.00,3.00,0.00,30.20,M,10.00,M,CLR,M,M,M,M,M,M,M,M,M,M,M,M,M,M,78.80,KBAM 201735Z AUTO 34003KT 10SM CLR 26/06 A3020 RMK AO1,M
HTH,2023-05-20 17:35,-118.6315,38.5448,1282.89,77.00,37.40,23.93,350.00,5.00,0.00,30.16,M,10.00,M,CLR,M,M,M,M,M,M,M,M,M,M,M,M,M,M,77.00,KHTH 201735Z AUTO 35005KT 10SM CLR 25/03 A3016 RMK A01,M
TMT,2023-05-20 17:35,-117.1971,39.4643,1749.34,71.60,38.70,30.18,0.00,0.00,0.00,30.25,M,10.00,M,CLR,M,M,M,M,M,M,M,M,M,M,M,M,M,M,71.60,KTMT 201735Z AUTO 00000KT 10SM CLR 22/04 A3025 RMK AO2 T02200037,M
10U,2023-05-20 17:35,-116.1876,41.9532,1637.00,73.40,41.00,31.05,0.00,0.00,0.00,30.25,M,10.00,M,CLR,M,M,M,M,M,M,M,M,M,M,M,M,M,M,73.40,K10U 201735Z AUTO 00000KT 10SM CLR 23/05 A3025 RMK AO2,M
05U,2023-05-20 17:50,-116.0051,39.6042,1811.23,77.00,32.00,19.30,0.00,0.00,0.00,30.28,M,10.00,M,CLR,M,M,M,M,M,M,M,M,M,M,M,M,M,M,77.00,K05U 201750Z AUTO 00000KT 10SM CLR 25/00 A3028 RMK A01,M
P68,2023-05-20 17:53,-116.0056,39.6014,1993.00,74.00,30.90,20.47,0.00,0.00,0.00,30.25,1017.40,M,M,M,M,M,M,M,M,M,M,M,M,M,M,M,M,M,73.90,KP68 201753Z AUTO 00000KT 23/M01 A3025 RMK AO1 SLP174 T02331006 10239 20044 58006,M
ELY,2023-05-20 17:53,-114.8453,39.2950,1909.00,71.00,32.00,23.52,10.00,6.00,0.00,30.29,1017.60,10.00,M,CLR,M,M,M,M,M,M,M,M,M,M,M,M,M,M,71.10,KELY 201753Z AUTO 01006KT 10SM CLR 22/00 A3029 RMK AO2 SLP176 T02170000 10222 20033 58007,M
DRA,2023-05-20 17:53,-116.0278,36.6206,1009.00,84.00,44.00,24.68,200.00,6.00,0.00,30.11,1014.90,10.00,M,FEW,M,M,M,12000.00,M,M,M,M,M,M,M,M,M,M,81.55,KDRA 201753Z AUTO 20006KT 10SM FEW120 29/07 A3011 RMK AO2 SLP149 T02890067 10289 20172 58002,M
VGT,2023-05-20 17:53,-115.1933,36.2111,667.00,83.00,50.00,31.93,110.00,5.00,0.00,30.09,1018.00,10.00,M,CLR,M,M,M,M,M,M,M,M,M,M,M,M,M,M,81.32,KVGT 201753Z 11005KT 10SM CLR 28/10 A3009 RMK AO2 SLP180 T02830100 10294 20239 58001,M
LOL,2023-05-20 17:53,-118.5701,40.0684,1192.43,83.00,40.00,21.75,60.00,5.00,0.00,30.12,1016.60,10.00,M,CLR,M,M,M,M,M,M,M,M,M,M,M,M,M,M,80.57,KLOL 201753Z AUTO 06005KT 10SM CLR 28/04 A3012 RMK AO2 SLP166 T02830044 10283 20078 58004,M
BVU,2023-05-20 17:55,-114.8611,35.9475,671.00,84.20,48.20,28.63,M,6.00,0.00,30.09,M,10.00,M,CLR,M,M,M,M,M,M,M,M,M,M,M,M,M,M,82.04,KBVU 201755Z AUTO VRB06KT 050V110 10SM CLR 29/09 A3009 RMK AO2,M
CXP,2023-05-20 17:55,-119.7326,39.1923,1431.00,77.00,41.00,27.53,0.00,0.00,0.00,30.19,M,10.00,M,CLR,M,M,M,M,M,M,M,M,M,M,M,M,M,M,77.00,KCXP 201755Z AUTO 00000KT 10SM CLR 25/05 A3019 RMK AO2,M
RTS,2023-05-20 17:55,-119.8764,39.6682,1539.00,75.20,42.80,31.34,0.00,0.00,0.00,30.21,M,10.00,M,CLR,M,M,M,M,M,M,M,M,M,M,M,M,M,M,75.20,KRTS 201755Z AUTO 00000KT 10SM CLR 24/06 A3021 RMK AO2,M
MEV,2023-05-20 17:55,-119.7500,38.9963,1441.42,75.20,46.40,35.94,0.00,0.00,0.00,30.18,M,10.00,M,CLR,M,M,M,M,M,M,M,M,M,M,M,M,M,M,75.20,KMEV 201755Z AUTO 00000KT 10SM CLR 24/08 A3018 RMK AO2,M
BAM,2023-05-20 17:55,-116.8743,40.5990,1382.36,80.60,42.80,26.22,30.00,6.00,0.00,30.19,M,10.00,M,CLR,M,M,M,M,M,M,M,M,M,M,M,M,M,M,79.30,KBAM 201755Z AUTO 03006KT 10SM CLR 27/06 A3019 RMK AO1,M
HTH,2023-05-20 17:55,-118.6315,38.5448,1282.89,78.80,35.60,21.00,10.00,6.00,0.00,30.16,M,10.00,M,CLR,M,M,M,M,M,M,M,M,M,M,M,M,M,M,78.80,KHTH 201755Z AUTO 01006KT 10SM CLR 26/02 A3016 RMK A01,M
TMT,2023-05-20 17:55,-117.1971,39.4643,1749.34,73.60,39.20,28.76,360.00,3.00,0.00,30.25,M,10.00,M,CLR,M,M,M,M,M,M,M,M,M,M,M,M,M,M,73.60,KTMT 201755Z AUTO 36003KT 10SM CLR 23/04 A3025 RMK AO2 T02310040 10231 20007,M
10U,2023-05-20 17:55,-116.1876,41.9532,1637.00,75.20,33.80,22.02,0.00,0.00,0.00,30.24,M,10.00,10.00,CLR,M,M,M,M,M,M,M,M,M,M,M,M,M,M,75.20,K10U 201755Z AUTO 00000G10KT 10SM CLR 24/01 A3024 RMK AO2,M
INS,2023-05-20 17:55,-115.6733,36.5872,955.00,82.00,45.70,27.98,80.00,12.00,0.00,30.11,1015.40,10.00,M,FEW,M,M,M,15000.00,M,M,M,M,M,M,M,M,M,M,80.33,KINS 201755Z AUTO 08012KT 10SM FEW150 28/08 A3011 RMK AO2 SLP154 T02780076 10278 20171 57005 $,M
LSV,2023-05-20 17:55,-115.0343,36.2362,570.00,88.20,50.00,26.95,140.00,3.00,0.00,30.05,1015.20,10.00,M,CLR,M,M,M,M,M,M,M,M,M,M,M,M,M,M,85.45,KLSV 201755Z AUTO 14003KT 10SM CLR 31/10 A3005 RMK AO2 SLP152 T03120100 10312 20234 58001 $,M
RNO,2023-05-20 17:55,-119.7711,39.4839,1341.00,80.00,42.00,25.94,M,3.00,0.00,30.16,1015.60,10.00,M,FEW,FEW,M,M,9000.00,25000.00,M,M,M,M,M,M,M,M,M,78.99,KRNO 201755Z VRB03KT 10SM FEW090 FEW250 27/06 A3016 RMK AO2 SLP156 T02670056 10267 20156 58006,M
EKO,2023-05-20 17:56,-115.7860,40.8242,1367.00,77.00,39.00,25.47,30.00,3.00,0.00,30.23,1018.50,10.00,M,CLR,M,M,M,M,M,M,M,M,M,M,M,M,M,M,77.00,KEKO 201756Z AUTO 03003KT 10SM CLR 25/04 A3023 RMK AO2 SLP185 T02500039 10250 20072 58007,M
HND,2023-05-20 17:56,-115.1344,35.9729,742.79,84.00,50.00,30.82,30.00,8.00,0.00,30.12,1019.00,10.00,M,CLR,M,M,M,M,M,M,M,M,M,M,M,M,M,M,82.09,KHND 201756Z 03008KT 10SM CLR 29/10 A3012 RMK AO2 SLP190 T02890100 10289 20217 58001,M
TPH,2023-05-20 17:56,-117.0904,38.0505,1654.00,M,M,M,M,M,0.00,30.23,M,M,M,M,M,M,M,M,M,M,M,M,M,M,M,M,M,M,M,KTPH 201756Z AUTO A3023 RMK AO2 SLPNO 58003 PWINO $,M
LAS,2023-05-20 17:56,-115.1634,36.0719,663.00,84.00,50.00,30.82,60.00,9.00,0.00,30.10,1016.70,10.00,M,FEW,SCT,M,M,9000.00,25000.00,M,M,M,M,M,M,M,M,M,82.09,KLAS 201756Z 06009KT 10SM FEW090 SCT250 29/10 A3010 RMK AO2 SLP167 T02890100 10294 20233 50000,M
WMC,2023-05-20 17:56,-117.8072,40.9019,1315.00,81.00,42.00,25.19,50.00,7.00,0.00,30.16,1016.70,10.00,M,CLR,M,M,M,M,M,M,M,M,M,M,M,M,M,M,79.49,KWMC 201756Z AUTO 05007KT 020V080 10SM CLR 27/06 A3016 RMK AO2 SLP167 T02720056 10272 20072 58006,M
NFL,2023-05-20 17:56,-118.7010,39.4166,1199.00,81.00,42.00,25.19,230.00,4.00,0.00,30.13,1016.80,10.00,M,FEW,M,M,M,25000.00,M,M,M,M,M,M,M,M,M,M,79.49,KNFL 201756Z 23004KT 10SM FEW250 27/06 A3013 RMK AO2 SLP168 T02720056 10278 20122 58002,M
LAS,2023-05-20 18:10,-115.1634,36.0719,663.00,84.00,50.00,30.82,M,3.00,0.00,30.09,M,10.00,M,SCT,SCT,M,M,9000.00,25000.00,M,M,M,M,M,M,M,M,M,82.09,KLAS 201810Z VRB03KT 10SM SCT090 SCT250 29/10 A3009 RMK AO2 T02890100,M
05U,2023-05-20 18:10,-116.0051,39.6042,1811.23,77.00,33.80,20.74,20.00,6.00,0.00,30.28,M,10.00,M,CLR,M,M,M,M,M,M,M,M,M,M,M,M,M,M,77.00,K05U 201810Z AUTO 02006KT 10SM CLR 25/01 A3028 RMK A01,M
BVU,2023-05-20 18:15,-114.8611,35.9475,671.00,84.20,48.20,28.63,140.00,5.00,0.00,30.08,M,10.00,M,CLR,M,M,M,M,M,M,M,M,M,M,M,M,M,M,82.04,KBVU 201815Z AUTO 14005KT 10SM CLR 29/09 A3008 RMK AO2 LTG DSNT NE AND E,M
CXP,2023-05-20 18:15,-119.7326,39.1923,1431.00,78.80,39.20,24.19,0.00,0.00,0.00,30.19,M,10.00,M,CLR,M,M,M,M,M,M,M,M,M,M,M,M,M,M,78.80,KCXP 201815Z AUTO 00000KT 10SM CLR 26/04 A3019 RMK AO2,M
RTS,2023-05-20 18:15,-119.8764,39.6682,1539.00,75.20,42.80,31.34,210.00,4.00,0.00,30.21,M,10.00,M,CLR,M,M,M,M,M,M,M,M,M,M,M,M,M,M,75.20,KRTS 201815Z AUTO 21004KT 10SM CLR 24/06 A3021 RMK AO2,M
MEV,2023-05-20 18:15,-119.7500,38.9963,1441.42,77.00,44.60,31.62,320.00,4.00,0.00,30.18,M,10.00,M,CLR,M,M,M,M,M,M,M,M,M,M,M,M,M,M,77.00,KMEV 201815Z AUTO 32004KT 10SM CLR 25/07 A3018 RMK AO2,M
BAM,2023-05-20 18:15,-116.8743,40.5990,1382.36,82.40,41.00,23.07,20.00,3.00,0.00,30.19,M,10.00,M,CLR,M,M,M,M,M,M,M,M,M,M,M,M,M,M,80.29,KBAM 201815Z AUTO 02003KT 10SM CLR 28/05 A3019 RMK AO1,M
HTH,2023-05-20 18:15,-118.6315,38.5448,1282.89,78.80,35.60,21.00,330.00,6.00,0.00,30.15,M,10.00,M,CLR,M,M,M,M,M,M,M,M,M,M,M,M,M,M,78.80,KHTH 201815Z AUTO 33006KT 10SM CLR 26/02 A3015 RMK A01,M
10U,2023-05-20 18:15,-116.1876,41.9532,1637.00,75.20,35.60,23.66,140.00,6.00,0.00,30.24,M,10.00,M,CLR,M,M,M,M,M,M,M,M,M,M,M,M,M,M,75.20,K10U 201815Z AUTO 14006KT 10SM CLR 24/02 A3024 RMK AO2,M
TMT,2023-05-20 18:15,-117.1971,39.4643,1749.34,76.00,36.00,23.58,30.00,7.00,0.00,30.25,M,10.00,M,CLR,M,M,M,M,M,M,M,M,M,M,M,M,M,M,75.90,KTMT 201815Z AUTO 03007KT 10SM CLR 24/02 A3025 RMK AO2 LTG DSNT SE T02440023,M
05U,2023-05-20 18:30,-116.0051,39.6042,1811.23,77.00,32.00,19.30,20.00,8.00,0.00,30.28,M,10.00,M,CLR,M,M,M,M,M,M,M,M,M,M,M,M,M,M,77.00,K05U 201830Z AUTO 02008KT 360V070 10SM CLR 25/00 A3028 RMK A01,M
BVU,2023-05-20 18:35,-114.8611,35.9475,671.00,86.00,48.20,27.03,M,4.00,0.00,30.08,M,10.00,M,CLR,M,M,M,M,M,M,M,M,M,M,M,M,M,M,83.40,KBVU 201835Z AUTO VRB04KT 10SM CLR 30/09 A3008 RMK AO2,M
CXP,2023-05-20 18:35,-119.7326,39.1923,1431.00,80.60,39.20,22.81,70.00,5.00,0.00,30.18,M,10.00,M,CLR,M,M,M,M,M,M,M,M,M,M,M,M,M,M,79.10,KCXP 201835Z AUTO 07005KT 10SM CLR 27/04 A3018 RMK AO2,M
RTS,2023-05-20 18:35,-119.8764,39.6682,1539.00,75.20,41.00,29.23,M,3.00,0.00,30.21,M,10.00,M,CLR,M,M,M,M,M,M,M,M,M,M,M,M,M,M,75.20,KRTS 201835Z AUTO VRB03KT 10SM CLR 24/05 A3021 RMK AO2,M
MEV,2023-05-20 18:35,-119.7500,38.9963,1441.42,77.00,42.80,29.51,0.00,0.00,0.00,30.17,M,10.00,M,CLR,M,M,M,M,M,M,M,M,M,M,M,M,M,M,77.00,KMEV 201835Z AUTO 00000KT 10SM CLR 25/06 A3017 RMK AO2,M
BAM,2023-05-20 18:35,-116.8743,40.5990,1382.36,82.40,41.00,23.07,350.00,7.00,0.00,30.18,M,10.00,M,CLR,M,M,M,M,M,M,M,M,M,M,M,M,M,M,80.29,KBAM 201835Z AUTO 35007KT 340V040 10SM CLR 28/05 A3018 RMK AO1,M
HTH,2023-05-20 18:35,-118.6315,38.5448,1282.89,80.60,35.60,19.79,M,4.00,0.00,30.15,M,10.00,10.00,CLR,M,M,M,M,M,M,M,M,M,M,M,M,M,M,78.94,KHTH 201835Z AUTO VRB04G10KT 10SM CLR 27/02 A3015 RMK A01,M
TMT,2023-05-20 18:35,-117.1971,39.4643,1749.34,76.30,35.40,22.63,360.00,7.00,0.00,30.24,M,10.00,M,CLR,M,M,M,M,M,M,M,M,M,M,M,M,M,M,76.30,KTMT 201835Z AUTO 36007KT 10SM CLR 25/02 A3024 RMK AO2 T02460019,M
10U,2023-05-20 18:35,-116.1876,41.9532,1637.00,77.00,32.00,19.30,190.00,5.00,0.00,30.24,M,10.00,M,CLR,M,M,M,M,M,M,M,M,M,M,M,M,M,M,77.00,K10U 201835Z AUTO 19005KT 10SM CLR 25/M00 A3024 RMK AO2,M
05U,2023-05-20 18:50,-116.0051,39.6042,1811.23,77.00,30.20,17.94,M,5.00,0.00,30.27,M,10.00,10.00,CLR,M,M,M,M,M,M,M,M,M,M,M,M,M,M,77.00,K05U 201850Z AUTO VRB05G10KT 10SM CLR 25/M01 A3027 RMK A01,M
P68,2023-05-20 18:53,-116.0056,39.6014,1993.00,76.00,28.90,17.65,50.00,7.00,0.00,30.24,1017.20,M,M,M,M,M,M,M,M,M,M,M,M,M,M,M,M,M,75.90,KP68 201853Z AUTO 05007KT 24/M02 A3024 RMK AO1 SLP172 T02441017,M
ELY,2023-05-20 18:53,-114.8453,39.2950,1909.00,72.00,28.90,20.12,0.00,0.00,0.00,30.28,1017.50,10.00,M,CLR,M,M,M,M,M,M,M,M,M,M,M,M,M,M,72.00,KELY 201853Z AUTO 00000KT 10SM CLR 22/M02 A3028 RMK AO2 SLP175 T02221017,M
VGT,2023-05-20 18:53,-115.1933,36.2111,667.00,86.00,50.00,28.90,60.00,5.00,0.00,30.07,1017.50,10.00,M,CLR,M,M,M,M,M,M,M,M,M,M,M,M,M,M,83.62,KVGT 201853Z 06005KT 10SM CLR 30/10 A3007 RMK AO2 LTG DSNT W SLP175 T03000100,M
LOL,2023-05-20 18:53,-118.5701,40.0684,1192.43,86.00,39.00,19.01,40.00,7.00,0.00,30.11,1015.90,10.00,M,CLR,M,M,M,M,M,M,M,M,M,M,M,M,M,M,82.78,KLOL 201853Z AUTO 04007KT 10SM CLR 30/04 A3011 RMK AO2 SLP159 T03000039,M
DRA,2023-05-20 18:53,-116.0278,36.6206,1009.00,86.00,42.00,21.43,M,4.00,0.00,30.10,1014.40,10.00,M,CLR,M,M,M,M,M,M,M,M,M,M,M,M,M,M,82.92,KDRA 201853Z AUTO VRB04KT 10SM CLR 30/06 A3010 RMK AO2 SLP144 T03000056,M
BVU,2023-05-20 18:55,-114.8611,35.9475,671.00,86.00,48.20,27.03,60.00,9.00,0.00,30.07,M,10.00,M,CLR,M,M,M,M,M,M,M,M,M,M,M,M,M,M,83.40,KBVU 201855Z AUTO 06009KT 10SM CLR 30/09 A3007 RMK AO2,M
CXP,2023-05-20 18:55,-119.7326,39.1923,1431.00,80.60,39.20,22.81,0.00,0.00,0.00,30.18,M,10.00,M,CLR,M,M,M,M,M,M,M,M,M,M,M,M,M,M,79.10,KCXP 201855Z AUTO 00000KT 10SM CLR 27/04 A3018 RMK AO2,M
RTS,2023-05-20 18:55,-119.8764,39.6682,1539.00,77.00,39.20,25.67,0.00,0.00,0.00,30.20,M,10.00,M,CLR,M,M,M,M,M,M,M,M,M,M,M,M,M,M,77.00,KRTS 201855Z AUTO 00000KT 10SM CLR 25/04 A3020 RMK AO2,M
MEV,2023-05-20 18:55,-119.7500,38.9963,1441.42,78.80,41.00,25.95,0.00,0.00,0.00,30.17,M,10.00,M,CLR,M,M,M,M,M,M,M,M,M,M,M,M,M,M,78.80,KMEV 201855Z AUTO 00000KT 10SM CLR 26/05 A3017 RMK AO2,M
BAM,2023-05-20 18:55,-116.8743,40.5990,1382.36,82.40,37.40,20.04,10.00,6.00,0.00,30.18,M,10.00,M,CLR,M,M,M,M,M,M,M,M,M,M,M,M,M,M,80.14,KBAM 201855Z AUTO 01006KT 10SM CLR 28/03 A3018 RMK AO1,M
HTH,2023-05-20 18:55,-118.6315,38.5448,1282.89,82.40,35.60,18.67,320.00,5.00,0.00,30.14,M,10.00,M,CLR,M,M,M,M,M,M,M,M,M,M,M,M,M,M,80.08,KHTH 201855Z AUTO 32005KT 10SM CLR 28/02 A3014 RMK A01,M
10U,2023-05-20 18:55,-116.1876,41.9532,1637.00,77.00,28.40,16.67,M,3.00,0.00,30.23,M,10.00,M,CLR,M,M,M,M,M,M,M,M,M,M,M,M,M,M,77.00,K10U 201855Z AUTO VRB03KT 10SM CLR 25/M02 A3023 RMK AO2,M
INS,2023-05-20 18:55,-115.6733,36.5872,955.00,84.60,40.30,20.91,70.00,12.00,0.00,30.09,1014.50,10.00,20.00,CLR,M,M,M,M,M,M,M,M,M,M,M,M,M,M,81.78,KINS 201855Z AUTO 07012G20KT 10SM CLR 29/05 A3009 RMK AO2 SLP145 T02920046 $,M
LSV,2023-05-20 18:55,-115.0343,36.2362,570.00,91.00,50.40,25.05,60.00,8.00,0.00,30.03,1014.50,10.00,M,CLR,M,M,M,M,M,M,M,M,M,M,M,M,M,M,88.05,KLSV 201855Z AUTO 06008KT 10SM CLR 33/10 A3003 RMK AO2 SLP145 T03280102 $,M
TMT,2023-05-20 18:55,-117.1971,39.4643,1749.34,76.00,33.80,21.51,0.00,0.00,0.00,30.24,M,10.00,M,CLR,M,M,M,M,M,M,M,M,M,M,M,M,M,M,75.90,KTMT 201855Z AUTO 00000KT 10SM CLR 24/01 A3024 RMK AO2 LTG DSNT SE T02440010,M
RNO,2023-05-20 18:55,-119.7711,39.4839,1341.00,85.00,42.00,22.20,250.00,5.00,0.00,30.15,1014.80,10.00,M,FEW,M,M,M,9000.00,M,M,M,M,M,M,M,M,M,M,82.08,KRNO 201855Z 25005KT 10SM FEW090 29/06 A3015 RMK AO2 SLP148 TCU DSNT SE T02940056,M
WMC,2023-05-20 18:56,-117.8072,40.9019,1315.00,84.00,39.00,20.27,M,3.00,0.00,30.14,1016.20,10.00,M,CLR,M,M,M,M,M,M,M,M,M,M,M,M,M,M,81.29,KWMC 201856Z AUTO VRB03KT 10SM CLR 29/04 A3014 RMK AO2 SLP162 T02890039,M
NFL,2023-05-20 18:56,-118.7010,39.4166,1199.00,85.00,41.00,21.28,110.00,4.00,0.00,30.12,1016.50,10.00,M,FEW,M,M,M,6000.00,M,M,M,M,M,M,M,M,M,M,82.03,KNFL 201856Z 11004KT 10SM FEW060 29/05 A3012 RMK AO2 SLP165 T02940050,M
HND,2023-05-20 18:56,-115.1344,35.9729,742.79,87.00,52.00,30.05,50.00,8.00,0.00,30.10,1018.30,10.00,M,CLR,M,M,M,M,M,M,M,M,M,M,M,M,M,M,84.82,KHND 201856Z 05008KT 10SM CLR 31/11 A3010 RMK AO2 SLP183 T03060111,M
TPH,2023-05-20 18:56,-117.0904,38.0505,1654.00,M,M,M,M,M,0.00,30.21,M,M,M,M,M,M,M,M,M,M,M,M,M,M,M,M,M,M,M,KTPH 201856Z AUTO A3021 RMK AO2 SLPNO PWINO $,M
EKO,2023-05-20 18:56,-115.7860,40.8242,1367.00,79.00,35.00,20.45,70.00,4.00,0.00,30.21,1018.00,10.00,M,CLR,M,M,M,M,M,M,M,M,M,M,M,M,M,M,79.00,KEKO 201856Z AUTO 07004KT 10SM CLR 26/02 A3021 RMK AO2 SLP180 T02610017,M
LAS,2023-05-20 18:56,-115.1634,36.0719,663.00,84.00,49.00,29.58,0.00,0.00,0.00,30.08,1016.10,10.00,M,SCT,BKN,M,M,9000.00,25000.00,M,M,M,M,M,M,M,M,M,81.97,KLAS 201856Z 00000KT 10SM SCT090 BKN250 29/09 A3008 RMK AO2 LTG DSNT W SLP161 CB DSNT N AND W T02890094,M
05U,2023-05-20 19:10,-116.0051,39.6042,1811.23,77.00,28.40,16.67,M,5.00,0.00,30.27,M,10.00,10.00,CLR,M,M,M,M,M,M,M,M,M,M,M,M,M,M,77.00,K05U 201910Z AUTO VRB05G10KT 10SM CLR 25/M02 A3027 RMK A01,M
HTH,2023-05-20 19:10,-118.6315,38.5448,1282.89,82.40,35.60,18.67,310.00,6.00,0.00,30.14,M,10.00,M,CLR,M,M,M,M,M,M,M,M,M,M,M,M,M,M,80.08,KHTH 201910Z AUTO 31006KT 10SM CLR 28/02 A3014 RMK A01,M
BVU,2023-05-20 19:15,-114.8611,35.9475,671.00,86.00,46.40,25.26,M,3.00,0.00,30.06,M,10.00,M,CLR,M,M,M,M,M,M,M,M,M,M,M,M,M,M,83.22,KBVU 201915Z AUTO VRB03KT 10SM CLR 30/08 A3006 RMK AO2 LTG DSNT NE AND E,M
CXP,2023-05-20 19:15,-119.7326,39.1923,1431.00,82.40,39.20,21.51,0.00,0.00,0.00,30.17,M,10.00,M,CLR,M,M,M,M,M,M,M,M,M,M,M,M,M,M,80.21,KCXP 201915Z AUTO 00000KT 10SM CLR 28/04 A3017 RMK AO2 LTG DSNT E,M
RTS,2023-05-20 19:15,-119.8764,39.6682,1539.00,78.80,41.00,25.95,M,3.00,0.00,30.20,M,10.00,M,CLR,M,M,M,M,M,M,M,M,M,M,M,M,M,M,78.80,KRTS 201915Z AUTO VRB03KT 10SM CLR 26/05 A3020 RMK AO2,M
MEV,2023-05-20 19:15,-119.7500,38.9963,1441.42,80.60,39.20,22.81,M,4.00,0.00,30.16,M,10.00,M,CLR,M,M,M,M,M,M,M,M,M,M,M,M,M,M,79.10,KMEV 201915Z AUTO VRB04KT 10SM CLR 27/04 A3016 RMK AO2 LTG DSNT E,M
BAM,2023-05-20 19:15,-116.8743,40.5990,1382.36,82.40,35.60,18.67,350.00,10.00,0.00,30.17,M,10.00,M,CLR,M,M,M,M,M,M,M,M,M,M,M,M,M,M,80.08,KBAM 201915Z AUTO 35010KT 10SM CLR 28/02 A3017 RMK AO1,M
TMT,2023-05-20 19:15,-117.1971,39.4643,1749.34,78.30,34.30,20.27,320.00,6.00,0.00,30.24,M,10.00,M,CLR,M,M,M,M,M,M,M,M,M,M,M,M,M,M,78.30,KTMT 201915Z AUTO 32006KT 10SM CLR 26/01 A3024 RMK AO2 LTG DSNT SE T02570013,M
10U,2023-05-20 19:15,-116.1876,41.9532,1637.00,77.00,28.40,16.67,190.00,7.00,0.00,30.23,M,10.00,M,CLR,M,M,M,M,M,M,M,M,M,M,M,M,M,M,77.00,K10U 201915Z AUTO 19007KT 10SM CLR 25/M02 A3023 RMK AO2,M
05U,2023-05-20 19:30,-116.0051,39.6042,1811.23,78.80,26.60,14.59,360.00,7.00,0.00,30.27,M,10.00,M,CLR,M,M,M,M,M,M,M,M,M,M,M,M,M,M,78.80,K05U 201930Z AUTO 36007KT 330V030 10SM CLR 26/M03 A3027 RMK A01,M
BVU,2023-05-20 19:35,-114.8611,35.9475,671.00,87.80,46.40,23.85,100.00,6.00,0.00,30.05,M,10.00,M,CLR,M,M,M,M,M,M,M,M,M,M,M,M,M,M,84.68,KBVU 201935Z AUTO 10006KT 10SM CLR 31/08 A3005 RMK AO2 LTG DSNT NE AND E,M
CXP,2023-05-20 19:35,-119.7326,39.1923,1431.00,84.20,39.20,20.29,M,3.00,0.00,30.17,M,10.00,M,CLR,M,M,M,M,M,M,M,M,M,M,M,M,M,M,81.44,KCXP 201935Z AUTO VRB03KT 10SM CLR 29/04 A3017 RMK AO2,M
RTS,2023-05-20 19:35,-119.8764,39.6682,1539.00,78.80,39.20,24.19,0.00,0.00,0.00,30.20,M,10.00,M,CLR,M,M,M,M,M,M,M,M,M,M,M,M,M,M,78.80,KRTS 201935Z AUTO 00000KT 10SM CLR 26/04 A3020 RMK AO2,M
MEV,2023-05-20 19:35,-119.7500,38.9963,1441.42,80.60,39.20,22.81,330.00,6.00,0.00,30.16,M,10.00,M,CLR,M,M,M,M,M,M,M,M,M,M,M,M,M,M,79.10,KMEV 201935Z AUTO 33006KT 10SM CLR 27/04 A3016 RMK AO2,M
BAM,2023-05-20 19:35,-116.8743,40.5990,1382.36,86.00,33.80,15.48,20.00,8.00,0.00,30.17,M,10.00,M,CLR,M,M,M,M,M,M,M,M,M,M,M,M,M,M,82.66,KBAM 201935Z AUTO 02008KT 10SM CLR 30/01 A3017 RMK AO1,M
HTH,2023-05-20 19:35,-118.6315,38.5448,1282.89,84.20,35.60,17.61,300.00,7.00,0.00,30.12,M,10.00,M,CLR,M,M,M,M,M,M,M,M,M,M,M,M,M,M,81.34,KHTH 201935Z AUTO 30007KT 270V330 10SM CLR 29/02 A3012 RMK A01,M
TMT,2023-05-20 19:35,-117.1971,39.4643,1749.34,78.40,34.30,20.20,60.00,5.00,0.00,30.23,M,10.00,M,CLR,M,M,M,M,M,M,M,M,M,M,M,M,M,M,78.40,KTMT 201935Z AUTO 06005KT 10SM CLR 26/01 A3023 RMK AO2 T02580013,M
10U,2023-05-20 19:35,-116.1876,41.9532,1637.00,77.00,30.20,17.94,0.00,0.00,0.00,30.23,M,10.00,M,CLR,M,M,M,M,M,M,M,M,M,M,M,M,M,M,77.00,K10U 201935Z AUTO 00000KT 10SM CLR 25/M01 A3023 RMK AO2,M
05U,2023-05-20 19:50,-116.0051,39.6042,1811.23,78.80,26.60,14.59,20.00,5.00,0.00,30.27,M,10.00,12.00,CLR,M,M,M,M,M,M,M,M,M,M,M,M,M,M,78.80,K05U 201950Z AUTO 02005G12KT 10SM CLR 26/M03 A3027 RMK A01,M
P68,2023-05-20 19:53,-116.0056,39.6014,1993.00,78.00,26.10,14.62,M,4.00,0.00,30.23,1016.50,M,M,M,M,M,M,M,M,M,M,M,M,M,M,M,M,M,78.10,KP68 201953Z AUTO VRB04KT 26/M03 A3023 RMK AO1 SLP165 T02561033,M
ELY,2023-05-20 19:53,-114.8453,39.2950,1909.00,75.00,30.00,19.02,60.00,10.00,0.00,30.26,1016.60,10.00,18.00,CLR,M,M,M,M,M,M,M,M,M,M,M,M,M,M,75.00,KELY 201953Z AUTO 06010G18KT 10SM CLR 24/M01 A3026 RMK AO2 SLP166 T02391011,M
LOL,2023-05-20 19:53,-118.5701,40.0684,1192.43,88.00,36.00,15.85,M,4.00,0.00,30.10,1015.40,10.00,M,CLR,M,M,M,M,M,M,M,M,M,M,M,M,M,M,84.29,KLOL 201953Z AUTO VRB04KT 10SM CLR 31/02 A3010 RMK AO2 SLP154 T03110022,M
DRA,2023-05-20 19:53,-116.0278,36.6206,1009.00,89.00,44.00,20.97,M,5.00,0.00,30.08,1013.60,10.00,M,CLR,M,M,M,M,M,M,M,M,M,M,M,M,M,M,85.59,KDRA 201953Z AUTO VRB05KT 10SM CLR 32/07 A3008 RMK AO2 SLP136 T03170067,M
VGT,2023-05-20 19:53,-115.1933,36.2111,667.00,89.00,49.00,25.14,0.00,0.00,0.00,30.05,1016.50,10.00,M,CLR,M,M,M,M,M,M,M,M,M,M,M,M,M,M,86.09,KVGT 201953Z 00000KT 10SM CLR 32/09 A3005 RMK AO2 LTG DSNT W SLP165 T03170094,M
BVU,2023-05-20 19:55,-114.8611,35.9475,671.00,89.60,46.40,22.53,180.00,6.00,0.00,30.04,M,10.00,M,CLR,M,M,M,M,M,M,M,M,M,M,M,M,M,M,86.24,KBVU 201955Z AUTO 18006KT 10SM CLR 32/08 A3004 RMK AO2 LTG DSNT SW AND W,M
CXP,2023-05-20 19:55,-119.7326,39.1923,1431.00,86.00,37.40,17.85,M,4.00,0.00,30.16,M,10.00,M,CLR,M,M,M,M,M,M,M,M,M,M,M,M,M,M,82.73,KCXP 201955Z AUTO VRB04KT 10SM CLR 30/03 A3016 RMK AO2,M
RTS,2023-05-20 19:55,-119.8764,39.6682,1539.00,80.60,39.20,22.81,M,5.00,0.00,30.19,M,10.00,M,CLR,M,M,M,M,M,M,M,M,M,M,M,M,M,M,79.10,KRTS 201955Z AUTO VRB05KT 10SM CLR 27/04 A3019 RMK AO2,M
MEV,2023-05-20 19:55,-119.7500,38.9963,1441.42,82.40,41.00,23.07,50.00,6.00,0.00,30.15,M,10.00,M,CLR,M,M,M,M,M,M,M,M,M,M,M,M,M,M,80.29,KMEV 201955Z AUTO 05006KT 10SM CLR 28/05 A3015 RMK AO2,M
BAM,2023-05-20 19:55,-116.8743,40.5990,1382.36,86.00,33.80,15.48,60.00,7.00,0.00,30.17,M,10.00,M,CLR,M,M,M,M,M,M,M,M,M,M,M,M,M,M,82.66,KBAM 201955Z AUTO 06007KT 10SM CLR 30/01 A3017 RMK AO1,M
HTH,2023-05-20 19:55,-118.6315,38.5448,1282.89,84.20,35.60,17.61,M,6.00,0.00,30.12,M,10.00,M,CLR,M,M,M,M,M,M,M,M,M,M,M,M,M,M,81.34,KHTH 201955Z AUTO VRB06KT 10SM CLR 29/02 A3012 RMK A01,M
10U,2023-05-20 19:55,-116.1876,41.9532,1637.00,77.00,28.40,16.67,0.00,0.00,0.00,30.22,M,10.00,10.00,CLR,M,M,M,M,M,M,M,M,M,M,M,M,M,M,77.00,K10U 201955Z AUTO 00000G10KT 10SM CLR 25/M02 A3022 RMK AO2,M
LSV,2023-05-20 19:55,-115.0343,36.2362,570.00,90.00,47.30,22.94,160.00,4.00,0.00,30.01,1013.90,10.00,M,FEW,FEW,M,M,17000.00,20000.00,M,M,M,M,M,M,M,M,M,86.78,KLSV 201955Z AUTO 16004KT 10SM FEW170 FEW200 32/09 A3001 RMK AO2 LTG DSNT SW SLP139 T03230085 $,M
RNO,2023-05-20 19:55,-119.7711,39.4839,1341.00,87.00,42.00,20.70,M,4.00,0.00,30.13,1014.30,10.00,M,SCT,M,M,M,9000.00,M,M,M,M,M,M,M,M,M,M,83.79,KRNO 201955Z VRB04KT 10SM SCT090 31/06 A3013 RMK AO2 SLP143 CB DSNT S TCU DSNT ALQDS T03060056,M
TMT,2023-05-20 19:55,-117.1971,39.4643,1749.34,78.00,33.00,19.42,350.00,4.00,0.00,30.23,M,10.00,M,CLR,M,M,M,M,M,M,M,M,M,M,M,M,M,M,77.90,KTMT 201955Z AUTO 35004KT 10SM CLR 26/01 A3023 RMK AO2 T02550005,M
EKO,2023-05-20 19:56,-115.7860,40.8242,1367.00,81.00,37.00,20.65,M,M,0.00,30.20,1017.50,10.00,M,CLR,M,M,M,M,M,M,M,M,M,M,M,M,M,M,79.24,KEKO 201956Z AUTO 10SM CLR 27/03 A3020 RMK AO2 SLP175 T02720028,M
WMC,2023-05-20 19:56,-117.8072,40.9019,1315.00,87.00,37.00,16.97,290.00,6.00,0.00,30.13,1015.70,10.00,M,CLR,M,M,M,M,M,M,M,M,M,M,M,M,M,M,83.59,KWMC 201956Z AUTO 29006KT 10SM CLR 31/03 A3013 RMK AO2 SLP157 T03060028,M
TPH,2023-05-20 19:56,-117.0904,38.0505,1654.00,M,M,M,M,M,0.00,30.19,M,M,M,M,M,M,M,M,M,M,M,M,M,M,M,M,M,M,M,KTPH 201956Z AUTO A3019 RMK AO2 SLPNO PWINO $,M
NFL,2023-05-20 19:56,-118.7010,39.4166,1199.00,86.00,40.00,19.68,M,3.00,0.00,30.10,1016.10,10.00,M,SCT,M,M,M,6000.00,M,M,M,M,M,M,M,M,M,M,82.81,KNFL 201956Z VRB03KT 10SM SCT060 30/04 A3010 RMK AO2 SLP161 T03000044,M
LAS,2023-05-20 19:56,-115.1634,36.0719,663.00,88.00,49.00,26.03,70.00,5.00,0.00,30.06,1015.30,10.00,M,FEW,FEW,BKN,M,9000.00,15000.00,25000.00,M,M,M,M,M,M,M,M,85.13,KLAS 201956Z 07005KT 10SM FEW090 FEW150 BKN250 31/09 A3006 RMK AO2 LTG DSNT W AND NW SLP153 CB DSNT N AND W T03110094,M
HND,2023-05-20 19:56,-115.1344,35.9729,742.79,89.00,49.00,25.14,70.00,5.00,0.00,30.08,1017.60,10.00,M,CLR,M,M,M,M,M,M,M,M,M,M,M,M,M,M,86.09,KHND 201956Z 07005KT 10SM CLR 32/09 A3008 RMK AO2 LTG DSNT W AND NW SLP176 T03170094,M
05U,2023-05-20 20:10,-116.0051,39.6042,1811.23,78.80,30.20,16.90,10.00,7.00,0.00,30.26,M,10.00,M,CLR,M,M,M,M,M,M,M,M,M,M,M,M,M,M,78.80,K05U 202010Z AUTO 01007KT 10SM CLR 26/M01 A3026 RMK A01,M
BVU,2023-05-20 20:15,-114.8611,35.9475,671.00,87.80,44.60,22.27,110.00,5.00,0.00,30.03,M,10.00,M,CLR,M,M,M,M,M,M,M,M,M,M,M,M,M,M,84.53,KBVU 202015Z AUTO 11005KT 10SM CLR 31/07 A3003 RMK AO2,M
CXP,2023-05-20 20:15,-119.7326,39.1923,1431.00,84.20,39.20,20.29,M,5.00,0.00,30.15,M,10.00,M,SCT,M,M,M,10000.00,M,M,M,M,M,M,M,M,M,M,81.44,KCXP 202015Z AUTO VRB05KT 10SM SCT100 29/04 A3015 RMK AO2,M
RTS,2023-05-20 20:15,-119.8764,39.6682,1539.00,80.60,37.40,21.25,M,4.00,0.00,30.18,M,10.00,M,CLR,M,M,M,M,M,M,M,M,M,M,M,M,M,M,79.02,KRTS 202015Z AUTO VRB04KT 10SM CLR 27/03 A3018 RMK AO2,M
MEV,2023-05-20 20:15,-119.7500,38.9963,1441.42,84.20,41.00,21.76,280.00,6.00,0.00,30.14,M,10.00,M,CLR,M,M,M,M,M,M,M,M,M,M,M,M,M,M,81.52,KMEV 202015Z AUTO 28006KT 10SM CLR 29/05 A3014 RMK AO2,M
BAM,2023-05-20 20:15,-116.8743,40.5990,1382.36,86.00,33.80,15.48,10.00,7.00,0.00,30.16,M,10.00,M,CLR,M,M,M,M,M,M,M,M,M,M,M,M,M,M,82.66,KBAM 202015Z AUTO 01007KT 10SM CLR 30/01 A3016 RMK AO1,M
HTH,2023-05-20 20:15,-118.6315,38.5448,1282.89,86.00,33.80,15.48,300.00,10.00,0.00,30.11,M,10.00,M,CLR,M,M,M,M,M,M,M,M,M,M,M,M,M,M,82.66,KHTH 202015Z AUTO 30010KT 10SM CLR 30/01 A3011 RMK A01,M
TMT,2023-05-20 20:15,-117.1971,39.4643,1749.34,77.70,32.20,19.01,70.00,3.00,0.00,30.22,M,10.00,M,CLR,M,M,M,M,M,M,M,M,M,M,M,M,M,M,77.70,KTMT 202015Z AUTO 07003KT 10SM CLR 25/00 A3022 RMK AO2 LTG DSNT SW T02540001,M
10U,2023-05-20 20:15,-116.1876,41.9532,1637.00,78.80,32.00,18.18,M,4.00,0.00,30.22,M,10.00,M,CLR,M,M,M,M,M,M,M,M,M,M,M,M,M,M,78.80,K10U 202015Z AUTO VRB04KT 10SM CLR 26/00 A3022 RMK AO2,M
INS,2023-05-20 20:30,-115.6733,36.5872,955.00,87.80,37.40,16.86,50.00,10.00,0.00,30.05,1013.20,10.00,18.00,CLR,M,M,M,M,M,M,M,M,M,M,M,M,M,M,84.16,KINS 202030Z AUTO 05010G18KT 10SM CLR 31/03 A3005 RMK AO2 WSHFT 27 SLP132 $,M
05U,2023-05-20 20:30,-116.0051,39.6042,1811.23,78.80,30.20,16.90,M,3.00,0.00,30.25,M,10.00,M,CLR,M,M,M,M,M,M,M,M,M,M,M,M,M,M,78.80,K05U 202030Z AUTO VRB03KT 10SM CLR 26/M01 A3025 RMK A01,M
BVU,2023-05-20 20:35,-114.8611,35.9475,671.00,89.60,44.60,21.04,90.00,3.00,0.00,30.02,M,10.00,11.00,CLR,M,M,M,M,M,M,M,M,M,M,M,M,M,M,86.07,KBVU 202035Z AUTO 09003G11KT 10SM CLR 32/07 A3002 RMK AO2 LTG DSNT NE AND W,M
CXP,2023-05-20 20:35,-119.7326,39.1923,1431.00,84.20,35.60,17.61,90.00,6.00,0.00,30.15,M,10.00,12.00,BKN,M,M,M,10000.00,M,M,M,M,M,M,M,M,M,M,81.34,KCXP 202035Z AUTO 09006G12KT 10SM BKN100 29/02 A3015 RMK AO2,M
RTS,2023-05-20 20:35,-119.8764,39.6682,1539.00,82.40,35.60,18.67,M,6.00,0.00,30.18,M,10.00,11.00,CLR,M,M,M,M,M,M,M,M,M,M,M,M,M,M,80.08,KRTS 202035Z AUTO VRB06G11KT 10SM CLR 28/02 A3018 RMK AO2,M
MEV,2023-05-20 20:35,-119.7500,38.9963,1441.42,84.20,37.40,18.91,M,4.00,0.00,30.14,M,10.00,10.00,CLR,M,M,M,M,M,M,M,M,M,M,M,M,M,M,81.38,KMEV 202035Z AUTO VRB04G10KT 10SM CLR 29/03 A3014 RMK AO2,M
BAM,2023-05-20 20:35,-116.8743,40.5990,1382.36,86.00,32.00,14.40,350.00,4.00,0.00,30.15,M,10.00,M,CLR,M,M,M,M,M,M,M,M,M,M,M,M,M,M,82.64,KBAM 202035Z AUTO 35004KT 10SM CLR 30/00 A3015 RMK AO1,M
HTH,2023-05-20 20:35,-118.6315,38.5448,1282.89,87.80,32.00,13.59,320.00,8.00,0.00,30.10,M,10.00,M,CLR,M,M,M,M,M,M,M,M,M,M,M,M,M,M,84.08,KHTH 202035Z AUTO 32008KT 10SM CLR 31/00 A3010 RMK A01,M
TMT,2023-05-20 20:35,-117.1971,39.4643,1749.34,80.20,32.50,17.72,20.00,5.00,0.00,30.22,M,10.00,M,CLR,M,M,M,M,M,M,M,M,M,M,M,M,M,M,78.75,KTMT 202035Z AUTO 02005KT 10SM CLR 27/00 A3022 RMK AO2 LTG DSNT SE T02680003,M
10U,2023-05-20 20:35,-116.1876,41.9532,1637.00,78.80,30.20,16.90,50.00,7.00,0.00,30.22,M,10.00,M,CLR,M,M,M,M,M,M,M,M,M,M,M,M,M,M,78.80,K10U 202035Z AUTO 05007KT 10SM CLR 26/M01 A3022 RMK AO2,M
05U,2023-05-20 20:50,-116.0051,39.6042,1811.23,78.80,28.40,15.71,0.00,0.00,0.00,30.25,M,10.00,14.00,CLR,M,M,M,M,M,M,M,M,M,M,M,M,M,M,78.80,K05U 202050Z AUTO 00000G14KT 10SM CLR 26/M02 A3025 RMK A01,M
P68,2023-05-20 20:53,-116.0056,39.6014,1993.00,77.00,27.00,15.74,0.00,0.00,0.00,30.22,1016.50,M,M,M,M,M,M,M,M,M,M,M,M,M,M,M,M,M,77.00,KP68 202053Z AUTO 00000KT 25/M03 A3022 RMK AO1 SLP165 T02501028 58010,M
ELY,2023-05-20 20:53,-114.8453,39.2950,1909.00,76.00,28.00,17.01,30.00,7.00,0.00,30.24,1016.20,10.00,15.00,CLR,M,M,M,M,M,M,M,M,M,M,M,M,M,M,75.90,KELY 202053Z AUTO 03007G15KT 340V050 10SM CLR 24/M02 A3024 RMK AO2 SLP162 T02441022 58013,M
LOL,2023-05-20 20:53,-118.5701,40.0684,1192.43,89.00,34.00,14.14,90.00,9.00,0.00,30.07,1014.60,10.00,M,CLR,M,M,M,M,M,M,M,M,M,M,M,M,M,M,85.17,KLOL 202053Z AUTO 09009KT 10SM CLR 32/01 A3007 RMK AO2 SLP146 T03170011 58017,M
DRA,2023-05-20 20:53,-116.0278,36.6206,1009.00,91.00,44.00,19.76,230.00,13.00,0.00,30.05,1012.70,10.00,19.00,CLR,M,M,M,M,M,M,M,M,M,M,M,M,M,M,87.27,KDRA 202053Z AUTO 23013G19KT 10SM CLR 33/07 A3005 RMK AO2 SLP127 T03280067 58019,M
VGT,2023-05-20 20:53,-115.1933,36.2111,667.00,91.00,47.00,21.97,170.00,8.00,0.00,30.01,1015.30,10.00,M,CLR,M,M,M,M,M,M,M,M,M,M,M,M,M,M,87.55,KVGT 202053Z 17008KT 120V190 10SM CLR 33/08 A3001 RMK AO2 LTG DSNT SW AND W SLP153 T03280083 58024,M
BVU,2023-05-20 20:55,-114.8611,35.9475,671.00,89.60,42.80,19.64,260.00,5.00,0.00,30.01,M,10.00,12.00,CLR,M,M,M,M,M,M,M,M,M,M,M,M,M,M,85.93,KBVU 202055Z AUTO 26005G12KT 10SM CLR 32/06 A3001 RMK AO2,M
CXP,2023-05-20 20:55,-119.7326,39.1923,1431.00,87.80,37.40,16.86,M,6.00,0.00,30.15,M,10.00,11.00,FEW,M,M,M,10000.00,M,M,M,M,M,M,M,M,M,M,84.16,KCXP 202055Z AUTO VRB06G11KT 10SM FEW100 31/03 A3015 RMK AO2,M
RNO,2023-05-20 20:55,-119.7711,39.4839,1341.00,90.00,37.00,15.48,340.00,5.00,0.00,30.11,1013.50,10.00,M,FEW,BKN,BKN,M,9000.00,10000.00,15000.00,M,M,M,M,M,M,M,M,86.00,KRNO 202055Z 34005KT 10SM FEW090 BKN100CB BKN150 32/03 A3011 RMK AO2 SLP135 VIRGA CB N AND NE THRU SE AND W MOV NW CB DSNT SE THRU S TCU DSNT ALQDS T03220028 58017 $,M
RTS,2023-05-20 20:55,-119.8764,39.6682,1539.00,82.40,35.60,18.67,60.00,7.00,0.00,30.17,M,10.00,M,CLR,M,M,M,M,M,M,M,M,M,M,M,M,M,M,80.08,KRTS 202055Z AUTO 06007KT 10SM CLR 28/02 A3017 RMK AO2,M
MEV,2023-05-20 20:55,-119.7500,38.9963,1441.42,86.00,41.00,20.54,240.00,9.00,0.00,30.14,M,10.00,M,FEW,M,M,M,10000.00,M,M,M,M,M,M,M,M,M,M,82.86,KMEV 202055Z AUTO 24009KT 10SM FEW100 30/05 A3014 RMK AO2 LTG DSNT NE AND S,M
BAM,2023-05-20 20:55,-116.8743,40.5990,1382.36,87.80,32.00,13.59,20.00,7.00,0.00,30.15,M,10.00,M,CLR,M,M,M,M,M,M,M,M,M,M,M,M,M,M,84.08,KBAM 202055Z AUTO 02007KT 10SM CLR 31/00 A3015 RMK AO1,M
HTH,2023-05-20 20:55,-118.6315,38.5448,1282.89,86.00,30.20,13.38,290.00,5.00,0.00,30.10,M,10.00,13.00,CLR,M,M,M,M,M,M,M,M,M,M,M,M,M,M,82.64,KHTH 202055Z AUTO 29005G13KT 10SM CLR 30/M01 A3010 RMK A01,M
TMT,2023-05-20 20:55,-117.1971,39.4643,1749.34,80.00,32.50,17.78,330.00,4.00,0.00,30.21,M,10.00,M,CLR,M,M,M,M,M,M,M,M,M,M,M,M,M,M,78.65,KTMT 202055Z AUTO 33004KT 10SM CLR 27/00 A3021 RMK AO2 LTG DSNT SE T02670003,M
10U,2023-05-20 20:55,-116.1876,41.9532,1637.00,78.80,32.00,18.18,M,3.00,0.00,30.21,M,10.00,M,CLR,M,M,M,M,M,M,M,M,M,M,M,M,M,M,78.80,K10U 202055Z AUTO VRB03KT 10SM CLR 26/M00 A3021 RMK AO2,M
INS,2023-05-20 20:55,-115.6733,36.5872,955.00,89.00,37.00,15.92,110.00,10.00,0.00,30.04,1012.70,10.00,16.00,CLR,M,M,M,M,M,M,M,M,M,M,M,M,M,M,85.23,KINS 202055Z AUTO 11010G16KT 10SM CLR 32/03 A3004 RMK AO2 SLP127 T03170028 57022 $,M
LSV,2023-05-20 20:55,-115.0343,36.2362,570.00,95.00,44.80,17.92,0.00,0.00,0.00,29.98,1012.70,10.00,M,CLR,M,M,M,M,M,M,M,M,M,M,M,M,M,M,91.08,KLSV 202055Z AUTO 00000KT 10SM CLR 35/07 A2998 RMK AO2 SLP127 T03500071 57023 $,M
NFL,2023-05-20 20:56,-118.7010,39.4166,1199.00,89.00,36.00,15.31,M,5.00,0.00,30.08,1015.30,10.00,M,SCT,SCT,M,M,6000.00,12000.00,M,M,M,M,M,M,M,M,M,85.21,KNFL 202056Z VRB05KT 10SM SCT060 SCT120 32/02 A3008 RMK AO2 SLP153 TCU DSNT ALQDS T03170022 58016,M
HND,2023-05-20 20:56,-115.1344,35.9729,742.79,89.00,48.00,24.31,M,5.00,0.00,30.05,1016.50,10.00,M,CLR,M,M,M,M,M,M,M,M,M,M,M,M,M,M,85.97,KHND 202056Z VRB05KT 10SM CLR 32/09 A3005 RMK AO2 LTG DSNT W SLP165 T03170089 58022,M
TPH,2023-05-20 20:56,-117.0904,38.0505,1654.00,M,M,M,M,M,0.00,30.17,M,M,M,M,M,M,M,M,M,M,M,M,M,M,M,M,M,M,M,KTPH 202056Z AUTO A3017 RMK AO2 LTG DSNT NE SLPNO 57017 PWINO $,M
LAS,2023-05-20 20:56,-115.1634,36.0719,663.00,91.00,48.00,22.90,M,4.00,0.00,30.02,1013.90,10.00,M,FEW,FEW,BKN,M,9000.00,15000.00,22000.00,M,M,M,M,M,M,M,M,87.69,KLAS 202056Z VRB04KT 10SM FEW090 FEW150 BKN220 33/09 A3002 RMK AO2 LTG DSNT W SLP139 CB DSNT W-N T03280089 58024,M
EKO,2023-05-20 20:56,-115.7860,40.8242,1367.00,82.00,35.00,18.54,60.00,8.00,0.00,30.19,1017.30,10.00,16.00,CLR,M,M,M,M,M,M,M,M,M,M,M,M,M,M,79.80,KEKO 202056Z AUTO 06008G16KT 10SM CLR 28/02 A3019 RMK AO2 SLP173 T02780017 56013,M
WMC,2023-05-20 20:56,-117.8072,40.9019,1315.00,88.00,33.00,14.12,340.00,9.00,0.00,30.12,1014.90,10.00,M,CLR,M,M,M,M,M,M,M,M,M,M,M,M,M,M,84.25,KWMC 202056Z AUTO 34009KT 10SM CLR 31/01 A3012 RMK AO2 SLP149 T03110006 58013,M
05U,2023-05-20 21:10,-116.0051,39.6042,1811.23,80.60,28.40,14.81,10.00,3.00,0.00,30.24,M,9.00,10.00,CLR,M,M,M,M,M,M,M,M,M,M,M,M,M,M,78.72,K05U 202110Z AUTO 01003G10KT 9SM CLR 27/M02 A3024 RMK A01,M
BVU,2023-05-20 21:15,-114.8611,35.9475,671.00,91.40,42.80,18.56,M,6.00,0.00,30.00,M,10.00,13.00,CLR,M,M,M,M,M,M,M,M,M,M,M,M,M,M,87.52,KBVU 202115Z AUTO VRB06G13KT 10SM CLR 33/06 A3000 RMK AO2,M
CXP,2023-05-20 21:15,-119.7326,39.1923,1431.00,87.80,32.00,13.59,0.00,0.00,0.00,30.14,M,10.00,11.00,CLR,M,M,M,M,M,M,M,M,M,M,M,M,M,M,84.08,KCXP 202115Z AUTO 00000G11KT 10SM CLR 31/M00 A3014 RMK AO2 LTG DSNT N AND NW,M
RTS,2023-05-20 21:15,-119.8764,39.6682,1539.00,82.40,32.00,16.17,120.00,6.00,0.00,30.17,M,10.00,11.00,CLR,M,M,M,M,M,M,M,M,M,M,M,M,M,M,80.00,KRTS 202115Z AUTO 12006G11KT 10SM CLR 28/M00 A3017 RMK AO2,M
MEV,2023-05-20 21:15,-119.7500,38.9963,1441.42,86.00,42.80,22.02,290.00,10.00,0.00,30.13,M,10.00,17.00,CLR,M,M,M,M,M,M,M,M,M,M,M,M,M,M,82.95,KMEV 202115Z AUTO 29010G17KT 10SM CLR 30/06 A3013 RMK AO2,M
BAM,2023-05-20 21:15,-116.8743,40.5990,1382.36,86.00,32.00,14.40,40.00,6.00,0.00,30.15,M,10.00,M,CLR,M,M,M,M,M,M,M,M,M,M,M,M,M,M,82.64,KBAM 202115Z AUTO 04006KT 10SM CLR 30/00 A3015 RMK AO1,M
HTH,2023-05-20 21:15,-118.6315,38.5448,1282.89,87.80,32.00,13.59,310.00,11.00,0.00,30.09,M,10.00,M,CLR,M,M,M,M,M,M,M,M,M,M,M,M,M,M,84.08,KHTH 202115Z AUTO 31011KT 10SM CLR 31/00 A3009 RMK A01,M
TMT,2023-05-20 21:15,-117.1971,39.4643,1749.34,81.00,29.80,15.42,10.00,8.00,0.00,30.21,M,10.00,15.00,CLR,M,M,M,M,M,M,M,M,M,M,M,M,M,M,79.08,KTMT 202115Z AUTO 01008G15KT 10SM CLR 27/M01 A3021 RMK AO2 LTG DSNT S T02731012,M
10U,2023-05-20 21:15,-116.1876,41.9532,1637.00,78.80,33.80,19.55,30.00,8.00,0.00,30.21,M,10.00,M,CLR,M,M,M,M,M,M,M,M,M,M,M,M,M,M,78.80,K10U 202115Z AUTO 03008KT 340V070 10SM CLR 26/01 A3021 RMK AO2,M
05U,2023-05-20 21:30,-116.0051,39.6042,1811.23,80.60,24.80,12.76,M,6.00,0.00,30.24,M,10.00,M,CLR,M,M,M,M,M,M,M,M,M,M,M,M,M,M,78.94,K05U 202130Z AUTO VRB06KT 10SM CLR 27/M04 A3024 RMK A01,M
BVU,2023-05-20 21:35,-114.8611,35.9475,671.00,91.40,42.80,18.56,210.00,6.00,0.00,29.99,M,10.00,M,CLR,M,M,M,M,M,M,M,M,M,M,M,M,M,M,87.52,KBVU 202135Z AUTO 21006KT 10SM CLR 33/06 A2999 RMK AO2,M
CXP,2023-05-20 21:35,-119.7326,39.1923,1431.00,87.80,33.80,14.61,80.00,7.00,0.00,30.14,M,10.00,M,CLR,M,M,M,M,M,M,M,M,M,M,M,M,M,M,84.10,KCXP 202135Z AUTO 08007KT 10SM CLR 31/01 A3014 RMK AO2,M
RTS,2023-05-20 21:35,-119.8764,39.6682,1539.00,78.80,42.80,27.81,260.00,16.00,0.00,30.17,M,10.00,M,BKN,M,M,M,10000.00,M,M,M,M,M,M,M,M,M,M,78.80,KRTS 202135Z AUTO 26016KT 10SM BKN100 26/06 A3017 RMK AO2,M
MEV,2023-05-20 21:35,-119.7500,38.9963,1441.42,82.40,44.60,26.49,270.00,12.00,0.00,30.13,M,10.00,M,CLR,M,M,M,M,M,M,M,M,M,M,M,M,M,M,80.50,KMEV 202135Z AUTO 27012KT 10SM CLR 28/07 A3013 RMK AO2,M
BAM,2023-05-20 21:35,-116.8743,40.5990,1382.36,87.80,32.00,13.59,340.00,6.00,0.00,30.13,M,10.00,M,CLR,M,M,M,M,M,M,M,M,M,M,M,M,M,M,84.08,KBAM 202135Z AUTO 34006KT 10SM CLR 31/00 A3013 RMK AO1,M
HTH,2023-05-20 21:35,-118.6315,38.5448,1282.89,89.60,32.00,12.84,350.00,8.00,0.00,30.08,M,10.00,14.00,CLR,M,M,M,M,M,M,M,M,M,M,M,M,M,M,85.54,KHTH 202135Z AUTO 35008G14KT 10SM CLR 32/00 A3008 RMK A01,M
TMT,2023-05-20 21:35,-117.1971,39.4643,1749.34,80.20,30.40,16.28,30.00,12.00,0.00,30.19,M,10.00,16.00,CLR,M,M,M,M,M,M,M,M,M,M,M,M,M,M,78.69,KTMT 202135Z AUTO 03012G16KT 10SM CLR 27/M01 A3019 RMK AO2 T02681009,M
10U,2023-05-20 21:35,-116.1876,41.9532,1637.00,78.80,32.00,18.18,20.00,7.00,0.00,30.20,M,10.00,M,CLR,M,M,M,M,M,M,M,M,M,M,M,M,M,M,78.80,K10U 202135Z AUTO 02007KT 10SM CLR 26/00 A3020 RMK AO2,M
05U,2023-05-20 21:50,-116.0051,39.6042,1811.23,80.60,24.80,12.76,0.00,0.00,0.00,30.23,M,10.00,10.00,CLR,M,M,M,M,M,M,M,M,M,M,M,M,M,M,78.94,K05U 202150Z AUTO 00000G10KT 10SM CLR 27/M04 A3023 RMK A01,M
P68,2023-05-20 21:53,-116.0056,39.6014,1993.00,79.00,24.10,13.06,330.00,3.00,0.00,30.20,1015.80,M,M,M,M,M,M,M,M,M,M,M,M,M,M,M,M,M,79.00,KP68 202153Z AUTO 33003KT 26/M04 A3020 RMK AO1 SLP158 T02611044,M
DRA,2023-05-20 21:53,-116.0278,36.6206,1009.00,91.00,43.00,18.94,240.00,11.00,0.00,30.02,1011.70,10.00,19.00,SCT,M,M,M,10000.00,M,M,M,M,M,M,M,M,M,M,87.18,KDRA 202153Z AUTO 24011G19KT 10SM SCT100 33/06 A3002 RMK AO2 SLP117 T03280061,M
ELY,2023-05-20 21:53,-114.8453,39.2950,1909.00,77.00,28.00,16.40,20.00,10.00,0.00,30.22,1015.40,10.00,19.00,CLR,M,M,M,M,M,M,M,M,M,M,M,M,M,M,77.00,KELY 202153Z AUTO 02010G19KT 360V060 10SM CLR 25/M02 A3022 RMK AO2 SLP154 T02501022,M
VGT,2023-05-20 21:53,-115.1933,36.2111,667.00,92.00,48.00,22.26,110.00,6.00,0.00,29.98,1014.20,10.00,M,CLR,M,M,M,M,M,M,M,M,M,M,M,M,M,M,88.53,KVGT 202153Z 11006KT 10SM CLR 33/09 A2998 RMK AO2 SLP142 T03330089,M
LOL,2023-05-20 21:53,-118.5701,40.0684,1192.43,89.00,33.00,13.64,50.00,7.00,0.00,30.05,1013.80,10.00,14.00,CLR,M,M,M,M,M,M,M,M,M,M,M,M,M,M,85.16,KLOL 202153Z AUTO 05007G14KT 030V090 10SM CLR 32/01 A3005 RMK AO2 SLP138 T03170006,M
BVU,2023-05-20 21:55,-114.8611,35.9475,671.00,91.40,42.80,18.56,170.00,5.00,0.00,29.98,M,10.00,M,CLR,M,M,M,M,M,M,M,M,M,M,M,M,M,M,87.52,KBVU 202155Z AUTO 17005KT 10SM CLR 33/06 A2998 RMK AO2,M
CXP,2023-05-20 21:55,-119.7326,39.1923,1431.00,86.00,30.20,13.38,0.00,0.00,0.00,30.13,M,10.00,M,CLR,M,M,M,M,M,M,M,M,M,M,M,M,M,M,82.64,KCXP 202155Z AUTO 00000KT 10SM CLR 30/M01 A3013 RMK AO2,M
RNO,2023-05-20 21:55,-119.7711,39.4839,1341.00,85.00,39.00,19.69,150.00,5.00,0.00,30.10,1013.80,10.00,M,FEW,BKN,BKN,BKN,9500.00,11000.00,15000.00,20000.00,M,M,M,M,M,M,M,81.95,KRNO 202155Z 15005KT 10SM FEW095 BKN110CB BKN150 BKN200 29/04 A3010 RMK AO2 LTG DSNT NW SLP138 VIRGA CB ALQDS MOV NW SH DSNT W T02940039,M
RTS,2023-05-20 21:55,-119.8764,39.6682,1539.00,75.20,44.60,33.57,290.00,14.00,0.00,30.17,M,10.00,19.00,FEW,M,M,M,10000.00,M,M,M,M,M,M,M,M,M,M,75.20,KRTS 202155Z AUTO 29014G19KT 10SM FEW100 24/07 A3017 RMK AO2,M
MEV,2023-05-20 21:55,-119.7500,38.9963,1441.42,78.80,46.40,31.90,260.00,12.00,0.00,30.14,M,10.00,17.00,SCT,M,M,M,11000.00,M,M,M,M,M,M,M,M,M,M,78.80,KMEV 202155Z AUTO 26012G17KT 10SM SCT110 26/08 A3014 RMK AO2,M
BAM,2023-05-20 21:55,-116.8743,40.5990,1382.36,87.80,33.80,14.61,350.00,8.00,0.00,30.13,M,10.00,M,CLR,M,M,M,M,M,M,M,M,M,M,M,M,M,M,84.10,KBAM 202155Z AUTO 35008KT 10SM CLR 31/01 A3013 RMK AO1,M
HTH,2023-05-20 21:55,-118.6315,38.5448,1282.89,87.80,32.00,13.59,310.00,12.00,0.00,30.07,M,10.00,M,CLR,M,M,M,M,M,M,M,M,M,M,M,M,M,M,84.08,KHTH 202155Z AUTO 31012KT 10SM CLR 31/M00 A3007 RMK A01,M
10U,2023-05-20 21:55,-116.1876,41.9532,1637.00,78.80,32.00,18.18,30.00,5.00,0.00,30.19,M,10.00,10.00,CLR,M,M,M,M,M,M,M,M,M,M,M,M,M,M,78.80,K10U 202155Z AUTO 03005G10KT 10SM CLR 26/00 A3019 RMK AO2,M
INS,2023-05-20 21:55,-115.6733,36.5872,955.00,89.40,37.20,15.90,80.00,9.00,0.00,30.01,1011.60,10.00,21.00,CLR,M,M,M,M,M,M,M,M,M,M,M,M,M,M,85.49,KINS 202155Z AUTO 08009G21KT 10SM CLR 32/03 A3001 RMK AO2 SLP116 T03190029 $,M
TMT,2023-05-20 21:55,-117.1971,39.4643,1749.34,81.00,30.40,15.81,360.00,7.00,0.00,30.18,M,10.00,M,CLR,M,M,M,M,M,M,M,M,M,M,M,M,M,M,79.09,KTMT 202155Z AUTO 36007KT 10SM CLR 27/M01 A3018 RMK AO2 T02731009,M
LSV,2023-05-20 21:55,-115.0343,36.2362,570.00,96.00,45.50,17.90,140.00,6.00,0.00,29.94,1011.30,10.00,M,CLR,M,M,M,M,M,M,M,M,M,M,M,M,M,M,92.04,KLSV 202155Z AUTO 14006KT 10SM CLR 36/08 A2994 RMK AO2 SLP113 T03550075 $,M
EKO,2023-05-20 21:56,-115.7860,40.8242,1367.00,82.00,28.00,13.92,80.00,11.00,0.00,30.16,1016.90,10.00,M,CLR,M,M,M,M,M,M,M,M,M,M,M,M,M,M,79.66,KEKO 202156Z AUTO 08011KT 10SM CLR 28/M02 A3016 RMK AO2 SLP169 T02781022,M
WMC,2023-05-20 21:56,-117.8072,40.9019,1315.00,90.00,28.00,10.78,360.00,9.00,0.00,30.10,1014.60,10.00,16.00,CLR,M,M,M,M,M,M,M,M,M,M,M,M,M,M,85.43,KWMC 202156Z AUTO 36009G16KT 10SM CLR 32/M02 A3010 RMK AO2 SLP146 T03221022,M
TPH,2023-05-20 21:56,-117.0904,38.0505,1654.00,M,M,M,M,M,0.00,30.14,M,M,M,M,M,M,M,M,M,M,M,M,M,M,M,M,M,M,M,KTPH 202156Z AUTO A3014 RMK AO2 SLPNO PWINO $,M
NFL,2023-05-20 21:56,-118.7010,39.4166,1199.00,90.00,35.00,14.36,M,3.00,0.00,30.05,1014.60,10.00,M,CLR,M,M,M,M,M,M,M,M,M,M,M,M,M,M,85.95,KNFL 202156Z AUTO VRB03KT 10SM CLR 32/02 A3005 RMK AO2 SLP146 T03220017,M
HND,2023-05-20 21:56,-115.1344,35.9729,742.79,91.00,47.00,21.97,40.00,3.00,0.00,30.02,1015.30,10.00,M,CLR,M,M,M,M,M,M,M,M,M,M,M,M,M,M,87.55,KHND 202156Z 04003KT 10SM CLR 33/08 A3002 RMK AO2 SLP153 T03280083,M
LAS,2023-05-20 21:56,-115.1634,36.0719,663.00,91.00,47.00,21.97,M,3.00,0.00,29.99,1012.90,10.00,M,FEW,FEW,BKN,M,9000.00,15000.00,22000.00,M,M,M,M,M,M,M,M,87.55,KLAS 202156Z VRB03KT 10SM FEW090 FEW150 BKN220 33/08 A2999 RMK AO2 SLP129 CB DSNT S-W-N T03280083,M
DRA,2023-05-20 21:58,-116.0278,36.6206,1009.00,90.00,42.00,18.88,220.00,12.00,0.00,30.02,M,10.00,24.00,BKN,M,M,M,10000.00,M,M,M,M,M,M,M,M,M,M,86.23,KDRA 202158Z AUTO 22012G24KT 10SM BKN100 32/06 A3002 RMK AO2 WSHFT 2141 T03220056,M
TPH,2023-05-20 22:08,-117.0904,38.0505,1654.00,M,M,M,M,M,0.00,30.13,M,M,M,M,M,M,M,M,M,M,M,VCTS,M,M,M,M,M,M,M,KTPH 202208Z AUTO VCTS A3013 RMK AO2 LTG DSNT N AND E PWINO $,M
05U,2023-05-20 22:10,-116.0051,39.6042,1811.23,80.60,28.40,14.81,20.00,4.00,0.00,30.22,M,10.00,10.00,CLR,M,M,M,M,M,M,M,M,M,M,M,M,M,M,78.72,K05U 202210Z AUTO 02004G10KT 10SM CLR 27/M02 A3022 RMK A01,M
LOL,2023-05-20 22:11,-118.5701,40.0684,1192.43,88.00,36.00,15.85,360.00,14.00,0.00,30.04,M,9.00,20.00,CLR,M,M,M,M,M,M,M,VCTS,M,M,M,M,M,M,84.29,KLOL 202211Z AUTO 36014G20KT 9SM VCTS CLR 31/02 A3004 RMK AO2 T03110022,M
BVU,2023-05-20 22:15,-114.8611,35.9475,671.00,91.40,42.80,18.56,70.00,6.00,0.00,29.96,M,10.00,18.00,CLR,M,M,M,M,M,M,M,M,M,M,M,M,M,M,87.52,KBVU 202215Z AUTO 07006G18KT 10SM CLR 33/06 A2996 RMK AO2,M
CXP,2023-05-20 22:15,-119.7326,39.1923,1431.00,82.40,37.40,20.04,280.00,10.00,0.00,30.13,M,10.00,M,BKN,M,M,M,11000.00,M,M,M,M,M,M,M,M,M,M,80.14,KCXP 202215Z AUTO 28010KT 10SM BKN110 28/03 A3013 RMK AO2 LTG DSNT S,M
RTS,2023-05-20 22:15,-119.8764,39.6682,1539.00,75.20,39.20,27.26,270.00,15.00,0.00,30.16,M,10.00,M,CLR,M,M,M,M,M,M,M,M,M,M,M,M,M,M,75.20,KRTS 202215Z AUTO 27015KT 10SM CLR 24/04 A3016 RMK AO2,M
MEV,2023-05-20 22:15,-119.7500,38.9963,1441.42,75.20,51.80,43.97,200.00,7.00,0.00,30.15,M,9.00,13.00,SCT,M,M,M,11000.00,M,M,M,-TSRA,M,M,M,M,M,M,75.20,KMEV 202215Z AUTO 20007G13KT 9SM -TSRA SCT110 24/11 A3015 RMK AO2 LTG DSNT ALQDS,M
BAM,2023-05-20 22:15,-116.8743,40.5990,1382.36,86.00,32.00,14.40,350.00,4.00,0.00,30.12,M,10.00,M,CLR,M,M,M,M,M,M,M,M,M,M,M,M,M,M,82.64,KBAM 202215Z AUTO 35004KT 10SM CLR 30/00 A3012 RMK AO1,M
HTH,2023-05-20 22:15,-118.6315,38.5448,1282.89,89.60,28.40,11.09,320.00,12.00,0.00,30.06,M,10.00,M,CLR,M,M,M,M,M,M,M,M,M,M,M,M,M,M,85.17,KHTH 202215Z AUTO 32012KT 10SM CLR 32/M02 A3006 RMK A01,M
TMT,2023-05-20 22:15,-117.1971,39.4643,1749.34,80.80,28.20,14.59,0.00,0.00,0.00,30.18,M,10.00,M,CLR,M,M,M,M,M,M,M,M,M,M,M,M,M,M,78.85,KTMT 202215Z AUTO 00000KT 10SM CLR 27/M02 A3018 RMK AO2 LTG DSNT SE T02711021,M
10U,2023-05-20 22:15,-116.1876,41.9532,1637.00,78.80,33.80,19.55,350.00,7.00,0.00,30.19,M,10.00,M,CLR,M,M,M,M,M,M,M,M,M,M,M,M,M,M,78.80,K10U 202215Z AUTO 35007KT 330V030 10SM CLR 26/01 A3019 RMK AO2,M
05U,2023-05-20 22:30,-116.0051,39.6042,1811.23,80.60,30.20,15.94,M,5.00,0.00,30.21,M,10.00,11.00,CLR,M,M,M,M,M,M,M,M,M,M,M,M,M,M,78.77,K05U 202230Z AUTO VRB05G11KT 10SM CLR 27/M01 A3021 RMK A01,M
HTH,2023-05-20 22:30,-118.6315,38.5448,1282.89,89.60,26.60,10.30,310.00,12.00,0.00,30.05,M,10.00,17.00,CLR,M,M,M,M,M,M,M,M,M,M,M,M,M,M,85.02,KHTH 202230Z AUTO 31012G17KT 10SM CLR 32/M03 A3005 RMK A01,M
BVU,2023-05-20 22:35,-114.8611,35.9475,671.00,93.20,41.00,16.37,60.00,4.00,0.00,29.95,M,10.00,M,CLR,M,M,M,M,M,M,M,M,M,M,M,M,M,M,89.03,KBVU 202235Z AUTO 06004KT 10SM CLR 34/05 A2995 RMK AO2,M
CXP,2023-05-20 22:35,-119.7326,39.1923,1431.00,80.60,39.20,22.81,280.00,10.00,0.00,30.14,M,10.00,M,OVC,M,M,M,10000.00,M,M,M,M,M,M,M,M,M,M,79.10,KCXP 202235Z AUTO 28010KT 10SM OVC100 27/04 A3014 RMK AO2 LTG DSNT N AND SW,M
RTS,2023-05-20 22:35,-119.8764,39.6682,1539.00,73.40,42.80,33.29,250.00,13.00,0.00,30.16,M,10.00,M,CLR,M,M,M,M,M,M,M,M,M,M,M,M,M,M,73.40,KRTS 202235Z AUTO 25013KT 10SM CLR 23/06 A3016 RMK AO2,M
MEV,2023-05-20 22:35,-119.7500,38.9963,1441.42,71.60,51.80,49.64,230.00,10.00,0.00,30.14,M,8.00,15.00,FEW,FEW,SCT,M,4200.00,5000.00,7500.00,M,VCTS RA,M,M,M,M,M,M,71.60,KMEV 202235Z AUTO 23010G15KT 8SM VCTS RA FEW042 FEW050 SCT075 22/11 A3014 RMK AO2 LTG DSNT NE,M
BAM,2023-05-20 22:35,-116.8743,40.5990,1382.36,87.80,32.00,13.59,320.00,7.00,0.00,30.11,M,10.00,M,CLR,M,M,M,M,M,M,M,M,M,M,M,M,M,M,84.08,KBAM 202235Z AUTO 32007KT 10SM CLR 31/00 A3011 RMK AO1,M
TMT,2023-05-20 22:35,-117.1971,39.4643,1749.34,81.00,28.90,14.92,350.00,6.00,0.00,30.16,M,10.00,16.00,CLR,M,M,M,M,M,M,M,M,M,M,M,M,M,M,78.99,KTMT 202235Z AUTO 35006G16KT 10SM CLR 27/M02 A3016 RMK AO2 LTG DSNT S T02721017,M
10U,2023-05-20 22:35,-116.1876,41.9532,1637.00,78.80,32.00,18.18,330.00,6.00,0.00,30.18,M,10.00,M,CLR,M,M,M,M,M,M,M,M,M,M,M,M,M,M,78.80,K10U 202235Z AUTO 33006KT 10SM CLR 26/M00 A3018 RMK AO2,M
05U,2023-05-20 22:50,-116.0051,39.6042,1811.23,80.60,30.20,15.94,350.00,8.00,0.00,30.19,M,10.00,M,CLR,M,M,M,M,M,M,M,M,M,M,M,M,M,M,78.77,K05U 202250Z AUTO 35008KT 320V020 10SM CLR 27/M01 A3019 RMK A01,M
HTH,2023-05-20 22:50,-118.6315,38.5448,1282.89,89.60,26.60,10.30,300.00,10.00,0.00,30.04,M,10.00,M,CLR,M,M,M,M,M,M,M,M,M,M,M,M,M,M,85.02,KHTH 202250Z AUTO 30010KT 10SM CLR 32/M03 A3004 RMK A01,M
TPH,2023-05-20 22:51,-117.0904,38.0505,1654.00,M,M,M,M,M,0.00,30.13,M,M,M,M,M,M,M,M,M,M,M,TS,M,M,M,M,M,M,M,KTPH 202251Z AUTO TS A3013 RMK AO2 LTG DSNT N-SE TSB45 PWINO $,M
P68,2023-05-20 22:53,-116.0056,39.6014,1993.00,80.00,30.00,16.07,350.00,10.00,0.00,30.16,1014.40,M,17.00,M,M,M,M,M,M,M,M,M,M,M,M,M,M,M,78.57,KP68 202253Z AUTO 35010G17KT 27/M01 A3016 RMK AO1 SLP144 T02671011,M
ELY,2023-05-20 22:53,-114.8453,39.2950,1909.00,78.00,21.00,11.81,M,M,0.00,30.20,1014.50,10.00,M,CLR,M,M,M,M,M,M,M,M,M,M,M,M,M,M,78.10,KELY 202253Z AUTO 10SM CLR 26/M06 A3020 RMK AO2 SLP145 T02561061,M
LOL,2023-05-20 22:53,-118.5701,40.0684,1192.43,86.00,34.00,15.60,300.00,13.00,0.00,30.03,1013.60,10.00,M,CLR,M,M,M,M,M,M,M,M,M,M,M,M,M,M,82.66,KLOL 202253Z AUTO 30013KT 10SM CLR 30/01 A3003 RMK AO2 SLP136 T03000011,M
DRA,2023-05-20 22:53,-116.0278,36.6206,1009.00,90.00,42.00,18.88,190.00,14.00,0.00,29.99,1010.80,10.00,23.00,BKN,M,M,M,12000.00,M,M,M,M,M,M,M,M,M,M,86.23,KDRA 202253Z AUTO 19014G23KT 10SM BKN120 32/06 A2999 RMK AO2 WSHFT 2141 SLP108 T03220056,M
VGT,2023-05-20 22:53,-115.1933,36.2111,667.00,93.00,47.00,20.64,M,3.00,0.00,29.94,1012.90,10.00,M,CLR,M,M,M,M,M,M,M,M,M,M,M,M,M,M,89.43,KVGT 202253Z VRB03KT 10SM CLR 34/08 A2994 RMK AO2 SLP129 T03390083,M
BVU,2023-05-20 22:55,-114.8611,35.9475,671.00,93.20,41.00,16.37,310.00,5.00,0.00,29.94,M,10.00,M,CLR,M,M,M,M,M,M,M,M,M,M,M,M,M,M,89.03,KBVU 202255Z AUTO 31005KT 10SM CLR 34/05 A2994 RMK AO2 LTG DSNT NE AND E,M
CXP,2023-05-20 22:55,-119.7326,39.1923,1431.00,78.80,51.80,39.02,200.00,14.00,0.00,30.14,M,7.00,26.00,OVC,M,M,M,10000.00,M,M,M,VCTS,M,M,M,M,M,M,78.80,KCXP 202255Z AUTO 20014G26KT 7SM VCTS OVC100 26/11 A3014 RMK AO2 LTG DSNT ALQDS,M
RNO,2023-05-20 22:55,-119.7711,39.4839,1341.00,81.00,45.00,28.15,280.00,17.00,T,30.09,1013.90,10.00,22.00,BKN,M,M,M,6000.00,M,M,M,-RA,M,M,M,M,M,M,79.68,KRNO 202255Z 28017G22KT 10SM -RA BKN060CB 27/07 A3009 RMK AO2 LTG DSNT SW AND W RAB32 SLP139 CB ALQDS P0000 T02720072 $,M
RTS,2023-05-20 22:55,-119.8764,39.6682,1539.00,75.20,41.00,29.23,210.00,8.00,0.00,30.17,M,10.00,M,SCT,M,M,M,11000.00,M,M,M,M,M,M,M,M,M,M,75.20,KRTS 202255Z AUTO 21008KT 10SM SCT110 24/05 A3017 RMK AO2,M
MEV,2023-05-20 22:55,-119.7500,38.9963,1441.42,73.40,46.40,38.18,180.00,9.00,0.00,30.13,M,10.00,M,FEW,M,M,M,5000.00,M,M,M,M,M,M,M,M,M,M,73.40,KMEV 202255Z AUTO 18009KT 10SM FEW050 23/08 A3013 RMK AO2 LTG DSNT NW,M
BAM,2023-05-20 22:55,-116.8743,40.5990,1382.36,87.80,33.80,14.61,10.00,3.00,0.00,30.10,M,10.00,8.00,CLR,M,M,M,M,M,M,M,M,M,M,M,M,M,M,84.10,KBAM 202255Z AUTO 01003G08KT 10SM CLR 31/01 A3010 RMK AO1,M
TMT,2023-05-20 22:55,-117.1971,39.4643,1749.34,82.00,29.30,14.73,20.00,6.00,0.00,30.16,M,10.00,15.00,CLR,M,M,M,M,M,M,M,M,M,M,M,M,M,M,79.61,KTMT 202255Z AUTO 02006G15KT 10SM CLR 28/M01 A3016 RMK AO2 LTG DSNT SE AND S T02771015,M
10U,2023-05-20 22:55,-116.1876,41.9532,1637.00,78.80,32.00,18.18,350.00,9.00,0.00,30.17,M,10.00,M,CLR,M,M,M,M,M,M,M,M,M,M,M,M,M,M,78.80,K10U 202255Z AUTO 35009KT 10SM CLR 26/M00 A3017 RMK AO2,M
INS,2023-05-20 22:55,-115.6733,36.5872,955.00,89.20,37.20,16.00,110.00,13.00,0.00,29.98,1010.80,10.00,20.00,CLR,M,M,M,M,M,M,M,M,M,M,M,M,M,M,85.32,KINS 202255Z AUTO 11013G20KT 10SM CLR 32/03 A2998 RMK AO2 LTG DSNT N SLP108 T03180029 $,M
LSV,2023-05-20 22:55,-115.0343,36.2362,570.00,95.40,43.50,16.84,210.00,5.00,0.00,29.91,1010.40,10.00,M,CLR,M,M,M,M,M,M,M,M,M,M,M,M,M,M,91.31,KLSV 202255Z AUTO 21005KT 10SM CLR 35/06 A2991 RMK AO2 SLP104 T03520064 $,M
EKO,2023-05-20 22:56,-115.7860,40.8242,1367.00,83.00,28.90,14.02,M,M,0.00,30.14,1015.70,10.00,M,CLR,M,M,M,M,M,M,M,M,M,M,M,M,M,M,80.30,KEKO 202256Z AUTO 10SM CLR 28/M02 A3014 RMK AO2 SLP157 T02831017,M
WMC,2023-05-20 22:56,-117.8072,40.9019,1315.00,90.00,30.00,11.70,30.00,9.00,0.00,30.07,1013.50,10.00,M,CLR,M,M,M,M,M,M,M,M,M,M,M,M,M,M,85.63,KWMC 202256Z AUTO 03009KT 10SM CLR 32/M01 A3007 RMK AO2 SLP135 T03221011,M
NFL,2023-05-20 22:56,-118.7010,39.4166,1199.00,91.00,36.00,14.42,M,M,0.00,30.02,1013.60,10.00,M,CLR,M,M,M,M,M,M,M,M,M,M,M,M,M,M,86.83,KNFL 202256Z AUTO 10SM CLR 33/02 A3002 RMK AO2 SLP136 T03280022,M
HND,2023-05-20 22:56,-115.1344,35.9729,742.79,93.00,45.00,19.21,M,6.00,0.00,29.98,1014.10,10.00,M,CLR,M,M,M,M,M,M,M,M,M,M,M,M,M,M,89.20,KHND 202256Z VRB06KT 10SM CLR 34/07 A2998 RMK AO2 LTG DSNT S SLP141 T03390072,M
TPH,2023-05-20 22:56,-117.0904,38.0505,1654.00,M,M,M,M,M,0.00,30.14,M,M,M,M,M,M,M,M,M,M,M,TS,M,M,M,M,M,M,M,KTPH 202256Z AUTO TS A3014 RMK AO2 LTG DSNT N-SE TSB45 SLPNO PWINO $,M
LAS,2023-05-20 22:56,-115.1634,36.0719,663.00,91.00,46.00,21.24,M,3.00,0.00,29.95,1011.60,10.00,M,FEW,FEW,BKN,M,9000.00,15000.00,20000.00,M,M,M,M,M,M,M,M,87.45,KLAS 202256Z VRB03KT 10SM FEW090 FEW150 BKN200 33/08 A2995 RMK AO2 LTG DSNT S SLP116 CB DSNT ALQDS T03280078,M
TPH,2023-05-20 23:05,-117.0904,38.0505,1654.00,M,M,M,M,M,0.00,30.15,M,M,M,M,M,M,M,M,M,M,M,M,M,M,M,M,M,M,M,KTPH 202305Z AUTO A3015 RMK AO2 LTG DSNT SE AND SW TSE04 PWINO $,M
05U,2023-05-20 23:10,-116.0051,39.6042,1811.23,80.60,32.00,17.14,360.00,11.00,0.00,30.19,M,9.00,M,CLR,M,M,M,M,M,M,M,M,M,M,M,M,M,M,78.82,K05U 202310Z AUTO 36011KT 9SM CLR 27/M00 A3019 RMK A01,M
BVU,2023-05-20 23:15,-114.8611,35.9475,671.00,93.20,41.00,16.37,M,4.00,0.00,29.93,M,10.00,M,FEW,M,M,M,11000.00,M,M,M,M,M,M,M,M,M,M,89.03,KBVU 202315Z AUTO VRB04KT 10SM FEW110 34/05 A2993 RMK AO2 LTG DSNT NE-SE,M
CXP,2023-05-20 23:15,-119.7326,39.1923,1431.00,71.60,44.60,37.89,190.00,16.00,0.00,30.15,M,5.00,22.00,FEW,BKN,M,M,2600.00,11000.00,M,M,VCTS RA HZ,M,M,M,M,M,M,71.60,KCXP 202315Z AUTO 19016G22KT 5SM VCTS RA HZ FEW026 BKN110 22/07 A3015 RMK AO2,M
RTS,2023-05-20 23:15,-119.8764,39.6682,1539.00,77.00,28.40,16.67,210.00,19.00,0.00,30.15,M,10.00,M,SCT,M,M,M,10000.00,M,M,M,M,M,M,M,M,M,M,77.00,KRTS 202315Z AUTO 21019KT 10SM SCT100 25/M02 A3015 RMK AO2,M
MEV,2023-05-20 23:15,-119.7500,38.9963,1441.42,71.60,48.20,43.42,170.00,4.00,0.00,30.13,M,10.00,11.00,CLR,M,M,M,M,M,M,M,M,M,M,M,M,M,M,71.60,KMEV 202315Z AUTO 17004G11KT 10SM CLR 22/09 A3013 RMK AO2 LTG DSNT SE,M
BAM,2023-05-20 23:15,-116.8743,40.5990,1382.36,87.80,32.00,13.59,30.00,4.00,0.00,30.09,M,10.00,M,CLR,M,M,M,M,M,M,M,M,M,M,M,M,M,M,84.08,KBAM 202315Z AUTO 03004KT 10SM CLR 31/00 A3009 RMK AO1,M
HTH,2023-05-20 23:15,-118.6315,38.5448,1282.89,89.60,28.40,11.09,340.00,7.00,0.00,30.03,M,10.00,17.00,CLR,M,M,M,M,M,M,M,M,M,M,M,M,M,M,85.17,KHTH 202315Z AUTO 34007G17KT 300V010 10SM CLR 32/M02 A3003 RMK A01,M
TMT,2023-05-20 23:15,-117.1971,39.4643,1749.34,82.20,29.50,14.70,340.00,11.00,0.00,30.15,M,10.00,15.00,CLR,M,M,M,M,M,M,M,M,M,M,M,M,M,M,79.82,KTMT 202315Z AUTO 34011G15KT 10SM CLR 28/M01 A3015 RMK AO2 T02791014,M
10U,2023-05-20 23:15,-116.1876,41.9532,1637.00,78.80,30.20,16.90,330.00,9.00,0.00,30.16,M,10.00,M,CLR,M,M,M,M,M,M,M,M,M,M,M,M,M,M,78.80,K10U 202315Z AUTO 33009KT 10SM CLR 26/M01 A3016 RMK AO2,M
TPH,2023-05-20 23:27,-117.0904,38.0505,1654.00,M,M,M,M,M,0.00,30.15,M,M,M,M,M,M,M,M,M,M,M,VCTS,M,M,M,M,M,M,M,KTPH 202327Z AUTO VCTS A3015 RMK AO2 LTG DSNT N AND S AND SW TSE04 PWINO $,M
INS,2023-05-20 23:27,-115.6733,36.5872,955.00,87.80,35.60,15.70,300.00,13.00,0.00,29.99,1011.10,10.00,17.00,FEW,M,M,M,21000.00,M,M,M,M,M,M,M,M,M,M,84.12,KINS 202327Z AUTO 30013G17KT 10SM FEW210 31/02 A2999 RMK AO2 WSHFT 25 SLP111 $,M
05U,2023-05-20 23:30,-116.0051,39.6042,1811.23,80.60,26.60,13.75,360.00,6.00,0.00,30.18,M,10.00,15.00,CLR,M,M,M,M,M,M,M,M,M,M,M,M,M,M,78.68,K05U 202330Z AUTO 36006G15KT 10SM CLR 27/M03 A3018 RMK A01,M
BVU,2023-05-20 23:35,-114.8611,35.9475,671.00,93.20,39.20,15.27,0.00,0.00,0.00,29.93,M,10.00,M,FEW,M,M,M,11000.00,M,M,M,M,M,M,M,M,M,M,88.92,KBVU 202335Z AUTO 00000KT 10SM FEW110 34/04 A2993 RMK AO2 LTG DSNT E AND SE AND W,M
CXP,2023-05-20 23:35,-119.7326,39.1923,1431.00,71.60,46.40,40.57,250.00,8.00,0.00,30.15,M,8.00,M,FEW,SCT,BKN,M,6000.00,7500.00,11000.00,M,-TSRA,M,M,M,M,M,M,71.60,KCXP 202335Z AUTO 25008KT 8SM -TSRA FEW060 SCT075 BKN110 22/08 A3015 RMK AO2 LTG DSNT E AND SE AND NW,M
RTS,2023-05-20 23:35,-119.8764,39.6682,1539.00,77.00,28.40,16.67,320.00,15.00,0.00,30.15,M,10.00,M,FEW,FEW,BKN,M,5500.00,7500.00,9500.00,M,M,M,M,M,M,M,M,77.00,KRTS 202335Z AUTO 32015KT 10SM FEW055 FEW075 BKN095 25/M02 A3015 RMK AO2,M
MEV,2023-05-20 23:35,-119.7500,38.9963,1441.42,69.80,53.60,56.38,80.00,4.00,0.00,30.14,M,10.00,M,CLR,M,M,M,M,M,M,M,M,M,M,M,M,M,M,69.80,KMEV 202335Z AUTO 08004KT 10SM CLR 21/12 A3014 RMK AO2 LTG DSNT NW,M
BAM,2023-05-20 23:35,-116.8743,40.5990,1382.36,87.80,33.80,14.61,350.00,7.00,0.00,30.08,M,10.00,M,CLR,M,M,M,M,M,M,M,M,M,M,M,M,M,M,84.10,KBAM 202335Z AUTO 35007KT 10SM CLR 31/01 A3008 RMK AO1,M
HTH,2023-05-20 23:35,-118.6315,38.5448,1282.89,89.60,28.40,11.09,300.00,10.00,0.00,30.02,M,10.00,16.00,CLR,M,M,M,M,M,M,M,M,M,M,M,M,M,M,85.17,KHTH 202335Z AUTO 30010G16KT 10SM CLR 32/M02 A3002 RMK A01,M
TMT,2023-05-20 23:35,-117.1971,39.4643,1749.34,82.20,28.90,14.35,20.00,13.00,0.00,30.14,M,10.00,22.00,CLR,M,M,M,M,M,M,M,M,M,M,M,M,M,M,79.81,KTMT 202335Z AUTO 02013G22KT 10SM CLR 28/M02 A3014 RMK AO2 T02791017,M
10U,2023-05-20 23:35,-116.1876,41.9532,1637.00,78.80,28.40,15.71,340.00,10.00,0.00,30.16,M,10.00,M,CLR,M,M,M,M,M,M,M,M,M,M,M,M,M,M,78.80,K10U 202335Z AUTO 34010KT 10SM CLR 26/M02 A3016 RMK AO2,M
INS,2023-05-20 23:48,-115.6733,36.5872,955.00,86.00,39.20,19.15,250.00,17.00,0.00,29.99,1011.30,10.00,M,FEW,BKN,M,M,11000.00,13000.00,M,M,M,M,M,M,M,M,M,82.79,KINS 202348Z AUTO 25017KT 10SM FEW110 BKN130 30/04 A2999 RMK AO2 WSHFT 41 SLP113 $,M
05U,2023-05-20 23:50,-116.0051,39.6042,1811.23,80.60,28.40,14.81,10.00,9.00,0.00,30.18,M,10.00,M,CLR,M,M,M,M,M,M,M,M,M,M,M,M,M,M,78.72,K05U 202350Z AUTO 01009KT 10SM CLR 27/M02 A3018 RMK A01,M
P68,2023-05-20 23:53,-116.0056,39.6014,1993.00,79.00,28.00,15.35,360.00,11.00,0.00,30.15,1014.40,M,14.00,M,M,M,M,M,M,M,M,M,M,M,M,M,M,M,79.00,KP68 202353Z AUTO 36011G14KT 26/M02 A3015 RMK AO1 SLP144 T02611022 10267 20233 56019,M
ELY,2023-05-20 23:53,-114.8453,39.2950,1909.00,77.00,21.90,12.72,50.00,10.00,0.00,30.18,1014.30,10.00,M,CLR,M,M,M,M,M,M,M,M,M,M,M,M,M,M,77.00,KELY 202353Z AUTO 05010KT 10SM CLR 25/M06 A3018 RMK AO2 SLP143 T02501056 10256 20211 56018,M
VGT,2023-05-20 23:53,-115.1933,36.2111,667.00,92.00,45.00,19.88,120.00,5.00,0.00,29.93,1012.50,10.00,M,CLR,M,M,M,M,M,M,M,M,M,M,M,M,M,M,88.17,KVGT 202353Z 12005KT 10SM CLR 33/07 A2993 RMK AO2 SLP125 T03330072 10339 20283 56027,M
LOL,2023-05-20 23:53,-118.5701,40.0684,1192.43,86.00,28.90,12.69,280.00,13.00,0.00,30.02,1013.30,10.00,M,CLR,M,M,M,M,M,M,M,M,M,M,M,M,M,M,82.58,KLOL 202353Z AUTO 28013KT 10SM CLR 30/M02 A3002 RMK AO2 LTG DSNT S SLP133 T03001017 10328 20278 56016,M
DRA,2023-05-20 23:53,-116.0278,36.6206,1009.00,73.00,60.00,63.96,40.00,16.00,0.07,30.03,1013.20,10.00,31.00,BKN,OVC,M,M,9000.00,11000.00,M,M,-RA,M,M,M,31.00,30.00,2023-05-20 23:53,73.00,KDRA 202353Z AUTO 04016G31KT 10SM -RA BKN090 OVC110 23/16 A3003 RMK AO2 PK WND 03031/2353 RAB08 PRESRR SLP132 P0007 60007 T02280156 10339 20222 55005,M
BVU,2023-05-20 23:55,-114.8611,35.9475,671.00,91.40,41.00,17.32,0.00,0.00,0.00,29.93,M,10.00,11.00,CLR,M,M,M,M,M,M,M,M,M,M,M,M,M,M,87.40,KBVU 202355Z AUTO 00000G11KT 10SM CLR 33/05 A2993 RMK AO2 LTG DSNT E,M
CXP,2023-05-20 23:55,-119.7326,39.1923,1431.00,73.40,41.00,31.05,260.00,7.00,0.01,30.14,M,10.00,17.00,FEW,SCT,M,M,7500.00,9500.00,M,M,M,M,M,M,M,M,M,73.40,KCXP 202355Z AUTO 26007G17KT 10SM FEW075 SCT095 23/05 A3014 RMK AO2 LTG DSNT NE AND NW P0001,M
RNO,2023-05-20 23:55,-119.7711,39.4839,1341.00,78.00,36.00,21.83,280.00,21.00,T,30.09,1014.10,10.00,26.00,BKN,M,M,M,6000.00,M,M,M,M,M,M,M,26.00,280.00,2023-05-20 23:55,78.10,KRNO 202355Z 28021G26KT 10SM BKN060CB 26/02 A3009 RMK AO2 PK WND 28026/2355 LTG DSNT ALQDS RAE2257 SLP141 VIRGA CB ALQDS P0000 60000 T02560022 10322 20256 56004 $,M
RTS,2023-05-20 23:55,-119.8764,39.6682,1539.00,75.20,30.20,19.05,230.00,14.00,0.00,30.16,M,10.00,19.00,BKN,M,M,M,9500.00,M,M,M,M,M,M,M,M,M,M,75.20,KRTS 202355Z AUTO 23014G19KT 210V290 10SM BKN095 24/M01 A3016 RMK AO2,M
MEV,2023-05-20 23:55,-119.7500,38.9963,1441.42,71.60,51.80,49.64,50.00,5.00,0.00,30.13,M,10.00,M,CLR,M,M,M,M,M,M,M,M,M,M,M,M,M,M,71.60,KMEV 202355Z AUTO 05005KT 10SM CLR 22/11 A3013 RMK AO2 LTG DSNT S AND NW,M
BAM,2023-05-20 23:55,-116.8743,40.5990,1382.36,87.80,33.80,14.61,0.00,0.00,0.00,30.08,M,10.00,M,CLR,M,M,M,M,M,M,M,M,M,M,M,M,M,M,84.10,KBAM 202355Z AUTO 00000KT 10SM CLR 31/01 A3008 RMK AO1,M
HTH,2023-05-20 23:55,-118.6315,38.5448,1282.89,89.60,26.60,10.30,330.00,9.00,0.00,30.02,M,10.00,M,CLR,M,M,M,M,M,M,M,M,M,M,M,M,M,M,85.02,KHTH 202355Z AUTO 33009KT 10SM CLR 32/M03 A3002 RMK A01,M
TMT,2023-05-20 23:55,-117.1971,39.4643,1749.34,81.50,30.00,15.35,350.00,9.00,0.00,30.14,M,10.00,M,CLR,M,M,M,M,M,M,M,M,M,M,M,M,M,M,79.35,KTMT 202355Z AUTO 35009KT 10SM CLR 28/M01 A3014 RMK AO2 T02751011 10281 20234,M
10U,2023-05-20 23:55,-116.1876,41.9532,1637.00,78.80,30.20,16.90,340.00,8.00,0.00,30.15,M,10.00,13.00,CLR,M,M,M,M,M,M,M,M,M,M,M,M,M,M,78.80,K10U 202355Z AUTO 34008G13KT 10SM CLR 26/M01 A3015 RMK AO2,M
INS,2023-05-20 23:55,-115.6733,36.5872,955.00,85.00,40.60,20.95,270.00,18.00,0.00,29.98,1011.10,10.00,M,FEW,BKN,M,M,11000.00,13000.00,M,M,M,M,M,M,M,M,M,82.01,KINS 202355Z AUTO 27018KT 10SM FEW110 BKN130 29/05 A2998 RMK AO2 SLP111 T02940048 10324 20277 55018 $,M
LSV,2023-05-20 23:55,-115.0343,36.2362,570.00,92.30,42.60,17.91,0.00,0.00,0.00,29.89,1009.80,10.00,M,CLR,M,M,M,M,M,M,M,M,M,M,M,M,M,M,88.33,KLSV 202355Z AUTO 00000KT 10SM CLR 34/06 A2989 RMK AO2 SLP098 T03350059 10356 20313 57028 $,M
EKO,2023-05-20 23:56,-115.7860,40.8242,1367.00,83.00,27.00,12.97,30.00,9.00,0.00,30.12,1015.50,10.00,16.00,CLR,M,M,M,M,M,M,M,M,M,M,M,M,M,M,80.28,KEKO 202356Z AUTO 03009G16KT 10SM CLR 28/M03 A3012 RMK AO2 SLP155 T02831028 10283 20244 56018,M
WMC,2023-05-20 23:56,-117.8072,40.9019,1315.00,89.00,34.00,14.14,40.00,9.00,0.00,30.06,1013.70,10.00,M,CLR,M,M,M,M,M,M,M,M,M,M,M,M,M,M,85.17,KWMC 202356Z AUTO 04009KT 10SM CLR 32/01 A3006 RMK AO2 SLP137 T03170011 10322 20278 56018,M
NFL,2023-05-20 23:56,-118.7010,39.4166,1199.00,90.00,32.00,12.68,340.00,6.00,0.00,30.01,1013.20,10.00,M,CLR,M,M,M,M,M,M,M,M,M,M,M,M,M,M,85.84,KNFL 202356Z AUTO 34006KT 10SM CLR 32/00 A3001 RMK AO2 SLP132 T03220000 10339 20272 56020,M
TPH,2023-05-20 23:56,-117.0904,38.0505,1654.00,M,M,M,M,M,0.00,30.15,M,M,M,M,M,M,M,M,M,M,M,VCTS,M,M,M,M,M,M,M,KTPH 202356Z AUTO VCTS A3015 RMK AO2 LTG DSNT N AND S TSE04 SLPNO 51006 PWINO $,M
LAS,2023-05-20 23:56,-115.1634,36.0719,663.00,90.00,47.00,22.67,230.00,15.00,0.00,29.93,1011.10,10.00,22.00,FEW,FEW,BKN,M,9000.00,15000.00,20000.00,M,M,M,M,M,M,M,M,86.65,KLAS 202356Z 23015G22KT 10SM FEW090TCU FEW150 BKN200 32/08 A2993 RMK AO2 SLP111 TCU OHD-NE-SE MOV S CB DSNT ALQDS T03220083 10339 20289 56028,M
HND,2023-05-20 23:56,-115.1344,35.9729,742.79,89.00,49.00,25.14,210.00,21.00,0.00,29.97,1013.70,10.00,27.00,SCT,M,M,M,10000.00,M,M,M,M,M,M,M,30.00,210.00,2023-05-20 23:34,86.09,KHND 202356Z 21021G27KT 10SM SCT100 32/09 A2997 RMK AO2 PK WND 21030/2334 SLP137 T03170094 10339 20289 56026,M
