station,valid,lon,lat,elevation,tmpf,dwpf,relh,drct,sknt,p01i,alti,mslp,vsby,gust,skyc1,skyc2,skyc3,skyc4,skyl1,skyl2,skyl3,skyl4,wxcodes,ice_accretion_1hr,ice_accretion_3hr,ice_accretion_6hr,peak_wind_gust,peak_wind_drct,peak_wind_time,feel,metar,snowdepth
RTS,2021-09-11 00:15,-119.8764,39.6682,1539.00,75.20,46.40,35.94,230.00,17.00,0.00,30.12,M,10.00,24.00,FEW,M,M,M,12000.00,M,M,M,M,M,M,M,M,M,M,75.20,KRTS 110015Z AUTO 23017G24KT 10SM FEW120 24/08 A3012 RMK AO2,M
BVU,2021-09-11 00:15,-114.8611,35.9475,671.00,98.60,48.20,18.25,320.00,10.00,0.00,29.88,M,10.00,17.00,FEW,M,M,M,12000.00,M,M,M,VCTS,M,M,M,M,M,M,95.17,KBVU 110015Z AUTO 32010G17KT 10SM VCTS FEW120 37/09 A2988 RMK AO2 LTG DSNT ALQDS,M
BAM,2021-09-11 00:15,-116.8743,40.5990,1382.36,73.40,53.60,49.90,340.00,9.00,0.00,30.08,M,10.00,M,SCT,SCT,BKN,M,3400.00,5500.00,10000.00,M,M,M,M,M,M,M,M,73.40,KBAM 110015Z AUTO 34009KT 10SM SCT034 SCT055 BKN100 23/12 A3008 RMK AO1,M
TMT,2021-09-11 00:15,-117.1971,39.4643,1749.34,76.00,46.80,35.41,300.00,7.00,0.00,30.13,M,10.00,M,CLR,M,M,M,M,M,M,M,M,M,M,M,M,M,M,76.10,KTMT 110015Z AUTO 30007KT 10SM CLR 25/08 A3013 RMK AO2 T02450082,M
CXP,2021-09-11 00:15,-119.7326,39.1923,1431.00,80.60,46.40,30.07,260.00,12.00,0.00,30.10,M,10.00,23.00,BKN,BKN,M,M,10000.00,12000.00,M,M,M,M,M,M,M,M,M,79.56,KCXP 110015Z AUTO 26012G23KT 10SM BKN100 BKN120 27/08 A3010 RMK AO2,M
MEV,2021-09-11 00:15,-119.7500,38.9963,1441.42,78.80,46.40,31.90,200.00,14.00,0.00,30.09,M,10.00,M,SCT,M,M,M,9000.00,M,M,M,M,M,M,M,M,M,M,78.80,KMEV 110015Z AUTO 20014KT 10SM SCT090 26/08 A3009 RMK AO2,M
HND,2021-09-11 00:28,-115.1344,35.9729,742.79,98.60,50.00,19.52,220.00,13.00,0.00,29.91,M,10.00,M,CLR,M,M,M,M,M,M,M,M,M,M,M,M,M,M,95.56,KHND 110028Z 22013KT 10SM CLR 37/10 A2991 RMK AO2 LTG DSNT S TSE22,M
TMT,2021-09-11 00:35,-117.1971,39.4643,1749.34,76.60,46.00,33.66,250.00,7.00,0.00,30.13,M,10.00,M,CLR,M,M,M,M,M,M,M,M,M,M,M,M,M,M,76.60,KTMT 110035Z AUTO 25007KT 10SM CLR 25/08 A3013 RMK AO2 T02480077,M
CXP,2021-09-11 00:35,-119.7326,39.1923,1431.00,78.80,48.20,34.13,280.00,11.00,0.00,30.10,M,10.00,20.00,BKN,BKN,M,M,10000.00,12000.00,M,M,M,M,M,M,M,M,M,78.80,KCXP 110035Z AUTO 28011G20KT 10SM BKN100 BKN120 26/09 A3010 RMK AO2,M
RTS,2021-09-11 00:35,-119.8764,39.6682,1539.00,75.20,46.40,35.94,250.00,19.00,0.00,30.12,M,10.00,26.00,CLR,M,M,M,M,M,M,M,M,M,M,M,M,M,M,75.20,KRTS 110035Z AUTO 25019G26KT 10SM CLR 24/08 A3012 RMK AO2,M
MEV,2021-09-11 00:35,-119.7500,38.9963,1441.42,78.80,48.20,34.13,220.00,8.00,0.00,30.09,M,10.00,M,BKN,BKN,M,M,8000.00,10000.00,M,M,M,M,M,M,M,M,M,78.80,KMEV 110035Z AUTO 22008KT 10SM BKN080 BKN100 26/09 A3009 RMK AO2,M
BAM,2021-09-11 00:35,-116.8743,40.5990,1382.36,75.20,53.60,46.98,340.00,14.00,0.00,30.08,M,10.00,M,SCT,SCT,SCT,M,5500.00,7500.00,9500.00,M,M,M,M,M,M,M,M,75.20,KBAM 110035Z AUTO 34014KT 10SM SCT055 SCT075 SCT095 24/12 A3008 RMK AO1,M
BVU,2021-09-11 00:35,-114.8611,35.9475,671.00,100.40,46.40,16.15,190.00,12.00,0.00,29.88,M,10.00,M,CLR,M,M,M,M,M,M,M,M,M,M,M,M,M,M,96.63,KBVU 110035Z AUTO 19012KT 10SM CLR 38/08 A2988 RMK AO2,M
LAS,2021-09-11 00:43,-115.1634,36.0719,663.00,96.00,55.00,25.32,60.00,4.00,0.00,29.88,M,10.00,M,FEW,SCT,BKN,M,8000.00,12000.00,18000.00,M,M,M,M,M,M,M,M,94.27,KLAS 110043Z 06004KT 10SM FEW080 SCT120 BKN180 36/13 A2988 RMK AO2 LTG DSNT NE TSE2357B2359E42 TS MOV NE CB DSNT N-NE AND SE T03560128,M
CXP,2021-09-11 00:50,-119.7326,39.1923,1431.00,78.80,46.40,31.90,250.00,12.00,0.00,30.10,M,10.00,20.00,FEW,BKN,M,M,10000.00,12000.00,M,M,M,M,M,M,M,M,M,78.80,KCXP 110050Z AUTO 25012G20KT 220V290 10SM FEW100 BKN120 26/08 A3010 RMK AO2,M
P68,2021-09-11 00:53,-116.0056,39.6014,1993.00,78.00,42.00,27.70,280.00,19.00,0.00,30.12,1011.40,M,27.00,M,M,M,M,M,M,M,M,M,M,M,M,30.00,270.00,2021-09-11 00:43,78.10,KP68 110053Z AUTO 28019G27KT 26/06 A3012 RMK AO1 PK WND 27030/0043 WSHFT 0035 SLP114 T02560056,M
VGT,2021-09-11 00:53,-115.1933,36.2111,667.00,95.00,58.00,29.09,100.00,7.00,0.00,29.87,1010.10,10.00,M,FEW,M,M,M,12000.00,M,M,M,M,M,M,M,M,M,M,94.08,KVGT 110053Z 10007KT 10SM FEW120 35/14 A2987 RMK AO2 LTG DSNT NE SLP101 T03500144,M
LOL,2021-09-11 00:53,-118.5701,40.0684,1192.43,83.00,52.00,34.39,310.00,14.00,0.00,30.03,1013.10,10.00,M,CLR,M,M,M,M,M,M,M,M,M,M,M,M,M,M,81.57,KLOL 110053Z AUTO 31014KT 10SM CLR 28/11 A3003 RMK AO2 SLP131 T02830111,M
DRA,2021-09-11 00:53,-116.0278,36.6206,1009.00,95.00,42.00,16.16,220.00,13.00,0.00,29.95,1008.90,10.00,23.00,BKN,M,M,M,11000.00,M,M,M,M,M,M,M,M,M,M,90.79,KDRA 110053Z AUTO 22013G23KT 10SM BKN110 35/06 A2995 RMK AO2 SLP089 T03500056,M
ELY,2021-09-11 00:53,-114.8453,39.2950,1909.00,78.00,40.00,25.44,200.00,11.00,0.00,30.17,1012.10,10.00,22.00,CLR,M,M,M,M,M,M,M,M,M,M,M,29.00,180.00,2021-09-11 00:15,78.10,KELY 110053Z AUTO 20011G22KT 10SM CLR 26/04 A3017 RMK AO2 PK WND 18029/0015 SLP121 T02560044,M
RNO,2021-09-11 00:55,-119.7711,39.4839,1341.00,79.00,48.00,33.66,250.00,12.00,0.00,30.08,1013.40,10.00,17.00,SCT,SCT,M,M,9500.00,15000.00,M,M,M,M,M,M,30.00,270.00,2021-09-11 00:10,79.00,KRNO 110055Z 25012G17KT 10SM SCT095 SCT150 26/09 A3008 RMK AO2 PK WND 27030/0010 SLP134 TCU DSNT SE T02610089,M
BVU,2021-09-11 00:55,-114.8611,35.9475,671.00,100.40,46.40,16.15,150.00,13.00,0.00,29.89,M,10.00,20.00,CLR,M,M,M,M,M,M,M,M,M,M,M,M,M,M,96.63,KBVU 110055Z AUTO 15013G20KT 10SM CLR 38/08 A2989 RMK AO2,M
RTS,2021-09-11 00:55,-119.8764,39.6682,1539.00,73.40,44.60,35.66,260.00,16.00,0.00,30.14,M,10.00,21.00,CLR,M,M,M,M,M,M,M,M,M,M,M,M,M,M,73.40,KRTS 110055Z AUTO 26016G21KT 10SM CLR 23/07 A3014 RMK AO2,M
TMT,2021-09-11 00:55,-117.1971,39.4643,1749.34,76.00,45.30,33.46,240.00,6.00,0.00,30.14,M,10.00,M,SCT,M,M,M,12000.00,M,M,M,M,M,M,M,M,M,M,76.10,KTMT 110055Z AUTO 24006KT 10SM SCT120 25/07 A3014 RMK AO2 T02450074,M
BAM,2021-09-11 00:55,-116.8743,40.5990,1382.36,73.40,51.80,46.71,330.00,12.00,0.00,30.08,M,10.00,16.00,SCT,M,M,M,12000.00,M,M,M,M,M,M,M,M,M,M,73.40,KBAM 110055Z AUTO 33012G16KT 10SM SCT120 23/11 A3008 RMK AO1,M
MEV,2021-09-11 00:55,-119.7500,38.9963,1441.42,78.80,46.40,31.90,210.00,12.00,0.00,30.10,M,10.00,M,SCT,BKN,BKN,M,8000.00,9000.00,12000.00,M,M,M,M,M,M,M,M,78.80,KMEV 110055Z AUTO 21012KT 10SM SCT080 BKN090 BKN120 26/08 A3010 RMK AO2,M
LAS,2021-09-11 00:56,-115.1634,36.0719,663.00,95.00,57.00,28.16,M,3.00,0.00,29.88,1008.90,10.00,M,FEW,SCT,BKN,M,8000.00,12000.00,18000.00,M,M,M,M,M,M,M,M,93.75,KLAS 110056Z VRB03KT 10SM FEW080 SCT120 BKN180 35/14 A2988 RMK AO2 LTG DSNT NE TSE2357B2359E42 SLP089 TS MOV NE CB DSNT N-NE AND SE T03500139,M
EKO,2021-09-11 00:56,-115.7860,40.8242,1367.00,71.00,55.00,56.77,280.00,5.00,0.04,30.10,1014.10,10.00,M,FEW,M,M,M,7000.00,M,M,M,M,M,M,M,M,M,M,71.10,KEKO 110056Z AUTO 28005KT 10SM FEW070 22/13 A3010 RMK AO2 LTG DSNT NE RAB2358E32 SLP141 P0004 T02170128,M
HND,2021-09-11 00:56,-115.1344,35.9729,742.79,97.00,52.00,22.07,220.00,12.00,0.00,29.92,1011.40,10.00,M,CLR,M,M,M,M,M,M,M,M,M,M,M,M,M,M,94.38,KHND 110056Z 22012KT 10SM CLR 36/11 A2992 RMK AO2 TSE22 SLP114 T03610111,M
TPH,2021-09-11 00:56,-117.0904,38.0505,1654.00,84.00,39.00,20.27,210.00,16.00,0.00,30.09,1011.20,10.00,23.00,CLR,M,M,M,M,M,M,M,M,M,M,M,27.00,210.00,2021-09-11 00:11,81.29,KTPH 110056Z AUTO 21016G23KT 10SM CLR 29/04 A3009 RMK AO2 PK WND 21027/0011 SLP112 T02890039,M
NFL,2021-09-11 00:56,-118.7010,39.4166,1199.00,81.00,55.00,40.83,320.00,11.00,T,30.02,1013.40,10.00,M,SCT,BKN,BKN,M,5500.00,8000.00,12000.00,M,M,M,M,M,M,M,M,80.73,KNFL 110056Z 32011KT 10SM SCT055 BKN080 BKN120 27/13 A3002 RMK AO2 RAB07E27 SLP134 WR// SH VC S-SW CB DSNT NE P0000 T02720128,M
WMC,2021-09-11 00:56,-117.8072,40.9019,1315.00,74.00,52.00,46.27,310.00,8.00,0.00,30.09,1014.30,10.00,M,CLR,M,M,M,M,M,M,M,M,M,M,M,M,M,M,73.90,KWMC 110056Z AUTO 31008KT 10SM CLR 23/11 A3009 RMK AO2 SLP143 T02330111 $,M
P68,2021-09-11 00:57,-116.0056,39.6014,1993.00,78.00,43.00,28.68,280.00,19.00,0.00,30.13,M,M,30.00,M,M,M,M,M,M,M,M,M,M,M,M,30.00,280.00,2021-09-11 00:55,78.10,KP68 110057Z AUTO 28019G30KT 26/06 A3013 RMK AO1 PK WND 28030/0055 WSHFT 0040 T02560061,M
LSV,2021-09-11 00:58,-115.0343,36.2362,570.00,96.40,53.60,23.84,0.00,0.00,0.00,29.85,1008.20,10.00,M,CLR,M,M,M,M,M,M,M,M,M,M,M,M,M,M,94.17,KLSV 110058Z AUTO 00000KT 10SM CLR 36/12 A2985 RMK AO2 SLP082 T03580120 $,M
INS,2021-09-11 00:58,-115.6733,36.5872,955.00,94.80,40.00,14.93,220.00,7.00,0.00,29.94,1009.00,10.00,M,CLR,M,M,M,M,M,M,M,M,M,M,M,M,M,M,90.43,KINS 110058Z AUTO 22007KT 10SM CLR 35/04 A2994 RMK AO2 SLP090 T03490044 $,M
TMT,2021-09-11 01:15,-117.1971,39.4643,1749.34,73.40,45.70,37.18,300.00,7.00,0.00,30.15,M,10.00,M,BKN,M,M,M,11000.00,M,M,M,M,M,M,M,M,M,M,73.40,KTMT 110115Z AUTO 30007KT 10SM BKN110 23/08 A3015 RMK AO2 T02300076,M
BAM,2021-09-11 01:15,-116.8743,40.5990,1382.36,75.20,51.80,43.97,330.00,9.00,0.00,30.09,M,10.00,M,SCT,M,M,M,12000.00,M,M,M,M,M,M,M,M,M,M,75.20,KBAM 110115Z AUTO 33009KT 10SM SCT120 24/11 A3009 RMK AO1,M
RTS,2021-09-11 01:15,-119.8764,39.6682,1539.00,73.40,42.80,33.29,240.00,16.00,0.00,30.14,M,10.00,23.00,CLR,M,M,M,M,M,M,M,M,M,M,M,M,M,M,73.40,KRTS 110115Z AUTO 24016G23KT 10SM CLR 23/06 A3014 RMK AO2,M
MEV,2021-09-11 01:15,-119.7500,38.9963,1441.42,77.00,46.40,33.85,240.00,8.00,0.00,30.10,M,10.00,14.00,FEW,FEW,SCT,M,8000.00,9000.00,12000.00,M,M,M,M,M,M,M,M,77.00,KMEV 110115Z AUTO 24008G14KT 10SM FEW080 FEW090 SCT120 25/08 A3010 RMK AO2,M
CXP,2021-09-11 01:15,-119.7326,39.1923,1431.00,77.00,46.40,33.85,260.00,14.00,0.00,30.10,M,10.00,24.00,FEW,M,M,M,12000.00,M,M,M,M,M,M,M,M,M,M,77.00,KCXP 110115Z AUTO 26014G24KT 10SM FEW120 25/08 A3010 RMK AO2,M
BVU,2021-09-11 01:15,-114.8611,35.9475,671.00,98.60,48.20,18.25,200.00,22.00,0.00,29.89,M,10.00,27.00,CLR,M,M,M,M,M,M,M,M,M,M,M,M,M,M,95.17,KBVU 110115Z AUTO 20022G27KT 10SM CLR 37/09 A2989 RMK AO2,M
CXP,2021-09-11 01:35,-119.7326,39.1923,1431.00,75.20,46.40,35.94,270.00,10.00,0.00,30.11,M,10.00,18.00,CLR,M,M,M,M,M,M,M,M,M,M,M,M,M,M,75.20,KCXP 110135Z AUTO 27010G18KT 10SM CLR 24/08 A3011 RMK AO2,M
MEV,2021-09-11 01:35,-119.7500,38.9963,1441.42,75.20,46.40,35.94,260.00,9.00,0.00,30.10,M,10.00,M,FEW,M,M,M,12000.00,M,M,M,M,M,M,M,M,M,M,75.20,KMEV 110135Z AUTO 26009KT 10SM FEW120 24/08 A3010 RMK AO2,M
BAM,2021-09-11 01:35,-116.8743,40.5990,1382.36,73.40,51.80,46.71,350.00,5.00,0.00,30.12,M,10.00,M,SCT,M,M,M,12000.00,M,M,M,M,M,M,M,M,M,M,73.40,KBAM 110135Z AUTO 35005KT 10SM SCT120 23/11 A3012 RMK AO1,M
BVU,2021-09-11 01:35,-114.8611,35.9475,671.00,96.80,44.60,16.83,180.00,14.00,0.00,29.89,M,10.00,20.00,CLR,M,M,M,M,M,M,M,M,M,M,M,M,M,M,92.79,KBVU 110135Z AUTO 18014G20KT 10SM CLR 36/07 A2989 RMK AO2,M
TMT,2021-09-11 01:35,-117.1971,39.4643,1749.34,71.40,47.00,41.94,360.00,7.00,0.00,30.15,M,10.00,M,BKN,M,M,M,10000.00,M,M,M,M,M,M,M,M,M,M,71.40,KTMT 110135Z AUTO 36007KT 10SM BKN100 22/08 A3015 RMK AO2 T02190084,M
RTS,2021-09-11 01:35,-119.8764,39.6682,1539.00,71.60,41.00,33.00,240.00,9.00,0.00,30.15,M,10.00,21.00,CLR,M,M,M,M,M,M,M,M,M,M,M,M,M,M,71.60,KRTS 110135Z AUTO 24009G21KT 10SM CLR 22/05 A3015 RMK AO2,M
VGT,2021-09-11 01:53,-115.1933,36.2111,667.00,94.00,56.00,28.00,300.00,4.00,0.00,29.87,1010.20,10.00,M,CLR,M,M,M,M,M,M,M,M,M,M,M,M,M,M,92.22,KVGT 110153Z 30004KT 10SM CLR 34/13 A2987 RMK AO2 SLP102 T03440133,M
LOL,2021-09-11 01:53,-118.5701,40.0684,1192.43,80.00,51.00,36.44,320.00,6.00,0.00,30.05,1013.90,10.00,M,BKN,OVC,M,M,8000.00,9500.00,M,M,M,M,M,M,M,M,M,79.72,KLOL 110153Z AUTO 32006KT 10SM BKN080 OVC095 27/11 A3005 RMK AO2 SLP139 T02670106,M
DRA,2021-09-11 01:53,-116.0278,36.6206,1009.00,92.00,46.00,20.65,210.00,13.00,0.00,29.96,1009.40,10.00,24.00,FEW,M,M,M,12000.00,M,M,M,M,M,M,M,26.00,190.00,2021-09-11 01:41,88.28,KDRA 110153Z AUTO 21013G24KT 10SM FEW120 33/08 A2996 RMK AO2 PK WND 19026/0141 SLP094 T03330078,M
P68,2021-09-11 01:53,-116.0056,39.6014,1993.00,74.00,45.00,35.60,50.00,9.00,0.00,30.16,1012.70,M,M,M,M,M,M,M,M,M,M,M,M,M,M,30.00,280.00,2021-09-11 00:55,73.90,KP68 110153Z AUTO 05009KT 23/07 A3016 RMK AO1 PK WND 28030/0055 WSHFT 0040 SLP127 T02330072,M
ELY,2021-09-11 01:53,-114.8453,39.2950,1909.00,72.00,47.00,40.79,160.00,18.00,0.00,30.18,1013.30,10.00,25.00,SCT,M,M,M,10000.00,M,M,M,M,M,M,M,26.00,150.00,2021-09-11 01:43,72.00,KELY 110153Z AUTO 16018G25KT 10SM SCT100 22/08 A3018 RMK AO2 PK WND 15026/0143 SLP133 T02220083,M
TMT,2021-09-11 01:55,-117.1971,39.4643,1749.34,70.50,47.70,44.23,10.00,7.00,0.00,30.15,M,10.00,M,BKN,M,M,M,9000.00,M,M,M,M,M,M,M,M,M,M,70.50,KTMT 110155Z AUTO 01007KT 10SM BKN090 21/09 A3015 RMK AO2 T02140087,M
BVU,2021-09-11 01:55,-114.8611,35.9475,671.00,96.80,46.40,18.02,190.00,11.00,0.00,29.89,M,10.00,M,CLR,M,M,M,M,M,M,M,M,M,M,M,M,M,M,93.05,KBVU 110155Z AUTO 19011KT 10SM CLR 36/08 A2989 RMK AO2,M
MEV,2021-09-11 01:55,-119.7500,38.9963,1441.42,73.40,46.40,38.18,260.00,8.00,0.00,30.11,M,10.00,M,CLR,M,M,M,M,M,M,M,M,M,M,M,M,M,M,73.40,KMEV 110155Z AUTO 26008KT 10SM CLR 23/08 A3011 RMK AO2,M
CXP,2021-09-11 01:55,-119.7326,39.1923,1431.00,73.40,46.40,38.18,260.00,11.00,0.00,30.11,M,10.00,21.00,CLR,M,M,M,M,M,M,M,M,M,M,M,M,M,M,73.40,KCXP 110155Z AUTO 26011G21KT 230V300 10SM CLR 23/08 A3011 RMK AO2,M
BAM,2021-09-11 01:55,-116.8743,40.5990,1382.36,73.40,50.00,43.69,0.00,0.00,0.00,30.12,M,10.00,M,CLR,M,M,M,M,M,M,M,M,M,M,M,M,M,M,73.40,KBAM 110155Z AUTO 00000KT 10SM CLR 23/10 A3012 RMK AO1,M
RTS,2021-09-11 01:55,-119.8764,39.6682,1539.00,71.60,41.00,33.00,240.00,12.00,0.00,30.15,M,10.00,18.00,CLR,M,M,M,M,M,M,M,M,M,M,M,M,M,M,71.60,KRTS 110155Z AUTO 24012G18KT 10SM CLR 22/05 A3015 RMK AO2,M
RNO,2021-09-11 01:55,-119.7711,39.4839,1341.00,77.00,48.00,35.95,270.00,13.00,0.00,30.08,1013.60,10.00,M,SCT,M,M,M,9500.00,M,M,M,M,M,M,M,M,M,M,77.00,KRNO 110155Z 27013KT 10SM SCT095 25/09 A3008 RMK AO2 SLP136 T02500089,M
HND,2021-09-11 01:56,-115.1344,35.9729,742.79,93.00,55.00,27.87,190.00,8.00,0.00,29.93,1011.80,10.00,M,CLR,M,M,M,M,M,M,M,M,M,M,M,M,M,M,91.03,KHND 110156Z 19008KT 10SM CLR 34/13 A2993 RMK AO2 SLP118 T03390128,M
WMC,2021-09-11 01:56,-117.8072,40.9019,1315.00,73.00,50.00,44.29,260.00,3.00,0.00,30.09,1014.40,10.00,M,SCT,M,M,M,9500.00,M,M,M,M,M,M,M,M,M,M,73.00,KWMC 110156Z AUTO 26003KT 10SM SCT095 23/10 A3009 RMK AO2 SLP144 T02280100 $,M
NFL,2021-09-11 01:56,-118.7010,39.4166,1199.00,79.00,52.00,39.06,350.00,7.00,0.00,30.04,1014.00,10.00,M,SCT,BKN,M,M,7000.00,11000.00,M,M,M,M,M,M,M,M,M,79.00,KNFL 110156Z 35007KT 10SM SCT070 BKN110 26/11 A3004 RMK AO2 SLP140 SH VC S T02610111,M
LAS,2021-09-11 01:56,-115.1634,36.0719,663.00,95.00,51.00,22.70,210.00,6.00,0.00,29.88,1008.90,10.00,M,FEW,SCT,BKN,M,8000.00,12000.00,18000.00,M,M,M,M,M,M,M,M,92.11,KLAS 110156Z 21006KT 10SM FEW080 SCT120 BKN180 35/11 A2988 RMK AO2 SLP089 CB DSNT N-NE AND SE T03500106,M
EKO,2021-09-11 01:56,-115.7860,40.8242,1367.00,70.00,53.00,54.98,20.00,4.00,0.00,30.12,1015.20,10.00,M,BKN,OVC,M,M,10000.00,12000.00,M,M,M,M,M,M,M,M,M,70.00,KEKO 110156Z AUTO 02004KT 10SM BKN100 OVC120 21/12 A3012 RMK AO2 SLP152 T02110117,M
TPH,2021-09-11 01:56,-117.0904,38.0505,1654.00,82.00,41.00,23.37,210.00,16.00,0.00,30.10,1011.90,10.00,M,CLR,M,M,M,M,M,M,M,M,M,M,M,28.00,220.00,2021-09-11 00:59,80.04,KTPH 110156Z AUTO 21016KT 10SM CLR 28/05 A3010 RMK AO2 PK WND 22028/0059 SLP119 T02780050,M
INS,2021-09-11 01:58,-115.6733,36.5872,955.00,93.00,46.00,19.95,220.00,18.00,0.00,29.94,1009.00,10.00,M,BKN,M,M,M,14000.00,M,M,M,M,M,M,M,M,M,M,89.31,KINS 110158Z AUTO 22018KT 10SM BKN140 34/08 A2994 RMK AO2 SLP090 T03390078 $,M
LSV,2021-09-11 01:58,-115.0343,36.2362,570.00,96.30,52.30,22.80,180.00,9.00,0.00,29.85,1008.20,10.00,M,SCT,M,M,M,14000.00,M,M,M,M,M,M,M,M,M,M,93.72,KLSV 110158Z AUTO 18009KT 10SM SCT140 36/11 A2985 RMK AO2 SLP082 T03570113 $,M
BAM,2021-09-11 02:15,-116.8743,40.5990,1382.36,73.40,51.80,46.71,330.00,8.00,0.00,30.11,M,10.00,M,SCT,BKN,M,M,9000.00,11000.00,M,M,M,M,M,M,M,M,M,73.40,KBAM 110215Z AUTO 33008KT 10SM SCT090 BKN110 23/11 A3011 RMK AO1,M
BVU,2021-09-11 02:15,-114.8611,35.9475,671.00,96.80,48.20,19.28,190.00,9.00,0.00,29.90,M,10.00,M,CLR,M,M,M,M,M,M,M,M,M,M,M,M,M,M,93.36,KBVU 110215Z AUTO 19009KT 10SM CLR 36/09 A2990 RMK AO2,M
CXP,2021-09-11 02:15,-119.7326,39.1923,1431.00,73.40,46.40,38.18,260.00,7.00,0.00,30.12,M,10.00,17.00,CLR,M,M,M,M,M,M,M,M,M,M,M,M,M,M,73.40,KCXP 110215Z AUTO 26007G17KT 10SM CLR 23/08 A3012 RMK AO2,M
RTS,2021-09-11 02:15,-119.8764,39.6682,1539.00,69.80,41.00,35.09,230.00,11.00,0.00,30.16,M,10.00,M,CLR,M,M,M,M,M,M,M,M,M,M,M,M,M,M,69.80,KRTS 110215Z AUTO 23011KT 10SM CLR 21/05 A3016 RMK AO2,M
MEV,2021-09-11 02:15,-119.7500,38.9963,1441.42,69.80,46.40,43.13,250.00,6.00,0.00,30.11,M,10.00,M,CLR,M,M,M,M,M,M,M,M,M,M,M,M,M,M,69.80,KMEV 110215Z AUTO 25006KT 10SM CLR 21/08 A3011 RMK AO2,M
TMT,2021-09-11 02:15,-117.1971,39.4643,1749.34,69.80,48.60,46.86,20.00,7.00,0.00,30.16,M,10.00,M,BKN,M,M,M,9000.00,M,M,M,M,M,M,M,M,M,M,69.80,KTMT 110215Z AUTO 02007KT 10SM BKN090 21/09 A3016 RMK AO2 LTG DSNT S T02100092,M
MEV,2021-09-11 02:35,-119.7500,38.9963,1441.42,68.00,46.40,45.88,0.00,0.00,0.00,30.12,M,10.00,M,CLR,M,M,M,M,M,M,M,M,M,M,M,M,M,M,68.00,KMEV 110235Z AUTO 00000KT 10SM CLR 20/08 A3012 RMK AO2,M
BVU,2021-09-11 02:35,-114.8611,35.9475,671.00,95.00,48.20,20.38,190.00,11.00,0.00,29.90,M,10.00,M,CLR,M,M,M,M,M,M,M,M,M,M,M,M,M,M,91.56,KBVU 110235Z AUTO 19011KT 10SM CLR 35/09 A2990 RMK AO2,M
TMT,2021-09-11 02:35,-117.1971,39.4643,1749.34,67.60,52.50,58.40,0.00,0.00,0.00,30.19,M,10.00,M,SCT,SCT,OVC,M,3300.00,5500.00,8000.00,M,RA,M,M,M,M,M,M,67.60,KTMT 110235Z AUTO 00000KT 10SM RA SCT033 SCT055 OVC080 20/11 A3019 RMK AO2 T01980114,M
BAM,2021-09-11 02:35,-116.8743,40.5990,1382.36,71.60,50.00,46.43,330.00,12.00,0.00,30.10,M,10.00,M,SCT,SCT,M,M,9000.00,11000.00,M,M,M,M,M,M,M,M,M,71.60,KBAM 110235Z AUTO 33012KT 10SM SCT090 SCT110 22/10 A3010 RMK AO1,M
RTS,2021-09-11 02:35,-119.8764,39.6682,1539.00,69.80,39.20,32.72,230.00,8.00,0.00,30.17,M,10.00,M,CLR,M,M,M,M,M,M,M,M,M,M,M,M,M,M,69.80,KRTS 110235Z AUTO 23008KT 10SM CLR 21/04 A3017 RMK AO2,M
CXP,2021-09-11 02:35,-119.7326,39.1923,1431.00,73.40,46.40,38.18,250.00,10.00,0.00,30.13,M,10.00,M,CLR,M,M,M,M,M,M,M,M,M,M,M,M,M,M,73.40,KCXP 110235Z AUTO 25010KT 10SM CLR 23/08 A3013 RMK AO2,M
LOL,2021-09-11 02:53,-118.5701,40.0684,1192.43,75.00,51.00,43.14,20.00,6.00,0.00,30.06,1014.40,10.00,M,CLR,M,M,M,M,M,M,M,M,M,M,M,M,M,M,75.00,KLOL 110253Z AUTO 02006KT 10SM CLR 24/11 A3006 RMK AO2 SLP144 T02390106 52014,M
DRA,2021-09-11 02:53,-116.0278,36.6206,1009.00,92.00,47.00,21.36,180.00,14.00,0.00,29.98,1009.80,10.00,19.00,CLR,M,M,M,M,M,M,M,M,M,M,M,M,M,M,88.39,KDRA 110253Z AUTO 18014G19KT 10SM CLR 33/08 A2998 RMK AO2 SLP098 T03330083 53007,M
ELY,2021-09-11 02:53,-114.8453,39.2950,1909.00,69.00,46.00,43.52,170.00,14.00,0.00,30.20,1013.80,10.00,M,SCT,M,M,M,12000.00,M,M,M,M,M,M,M,26.00,160.00,2021-09-11 02:06,69.10,KELY 110253Z AUTO 17014KT 10SM SCT120 21/08 A3020 RMK AO2 PK WND 16026/0206 SLP138 T02060078 53013,M
P68,2021-09-11 02:53,-116.0056,39.6014,1993.00,69.00,49.00,48.53,330.00,5.00,0.00,30.18,1013.20,M,M,M,M,M,M,M,M,M,M,M,M,M,M,M,M,M,69.10,KP68 110253Z AUTO 33005KT 21/09 A3018 RMK AO1 SLP132 T02060094 53015,M
VGT,2021-09-11 02:53,-115.1933,36.2111,667.00,94.00,55.00,27.10,260.00,3.00,0.00,29.89,1010.80,10.00,M,CLR,M,M,M,M,M,M,M,M,M,M,M,M,M,M,91.95,KVGT 110253Z 26003KT 10SM CLR 34/13 A2989 RMK AO2 SLP108 T03440128 53009,M
TMT,2021-09-11 02:55,-117.1971,39.4643,1749.34,62.80,57.20,81.92,0.00,0.00,0.01,30.20,M,10.00,M,SCT,BKN,OVC,M,6000.00,7000.00,9000.00,M,-DZ,M,M,M,M,M,M,62.80,KTMT 110255Z AUTO 00000KT 10SM -DZ SCT060 BKN070 OVC090 17/14 A3020 RMK AO2 P0001 60001 T01710140,M
RNO,2021-09-11 02:55,-119.7711,39.4839,1341.00,74.00,45.00,35.60,270.00,6.00,0.00,30.11,1014.60,10.00,M,FEW,M,M,M,9500.00,M,M,M,M,M,M,M,M,M,M,73.90,KRNO 110255Z 27006KT 10SM FEW095 23/07 A3011 RMK AO2 SLP146 T02330072 53014,M
BVU,2021-09-11 02:55,-114.8611,35.9475,671.00,95.00,46.40,19.04,200.00,7.00,0.00,29.91,M,10.00,M,CLR,M,M,M,M,M,M,M,M,M,M,M,M,M,M,91.29,KBVU 110255Z AUTO 20007KT 10SM CLR 35/08 A2991 RMK AO2,M
CXP,2021-09-11 02:55,-119.7326,39.1923,1431.00,73.40,48.20,40.85,290.00,7.00,0.00,30.13,M,10.00,M,CLR,M,M,M,M,M,M,M,M,M,M,M,M,M,M,73.40,KCXP 110255Z AUTO 29007KT 10SM CLR 23/09 A3013 RMK AO2,M
RTS,2021-09-11 02:55,-119.8764,39.6682,1539.00,68.00,39.20,34.80,240.00,9.00,0.00,30.17,M,10.00,M,SCT,M,M,M,8000.00,M,M,M,M,M,M,M,M,M,M,68.00,KRTS 110255Z AUTO 24009KT 10SM SCT080 20/04 A3017 RMK AO2,M
MEV,2021-09-11 02:55,-119.7500,38.9963,1441.42,68.00,46.40,45.88,0.00,0.00,0.00,30.13,M,10.00,M,CLR,M,M,M,M,M,M,M,M,M,M,M,M,M,M,68.00,KMEV 110255Z AUTO 00000KT 10SM CLR 20/08 A3013 RMK AO2,M
BAM,2021-09-11 02:55,-116.8743,40.5990,1382.36,71.60,50.00,46.43,340.00,11.00,0.00,30.11,M,10.00,M,CLR,M,M,M,M,M,M,M,M,M,M,M,M,M,M,71.60,KBAM 110255Z AUTO 34011KT 10SM CLR 22/10 A3011 RMK AO1,M
HND,2021-09-11 02:56,-115.1344,35.9729,742.79,90.00,55.00,30.61,220.00,9.00,0.00,29.95,1012.70,10.00,M,CLR,M,M,M,M,M,M,M,M,M,M,M,M,M,M,88.06,KHND 110256Z 22009KT 10SM CLR 32/13 A2995 RMK AO2 SLP127 T03220128 53014,M
WMC,2021-09-11 02:56,-117.8072,40.9019,1315.00,70.00,49.00,47.06,300.00,4.00,0.00,30.10,1014.90,10.00,M,OVC,M,M,M,9000.00,M,M,M,M,M,M,M,M,M,M,70.00,KWMC 110256Z AUTO 30004KT 10SM OVC090 21/09 A3010 RMK AO2 SLP149 T02110094 53008 $,M
TPH,2021-09-11 02:56,-117.0904,38.0505,1654.00,79.00,43.00,27.84,210.00,10.00,0.00,30.12,1012.10,10.00,M,CLR,M,M,M,M,M,M,M,M,M,M,M,M,M,M,79.00,KTPH 110256Z AUTO 21010KT 10SM CLR 26/06 A3012 RMK AO2 SLP121 T02610061 53009,M
LAS,2021-09-11 02:56,-115.1634,36.0719,663.00,93.00,52.00,24.97,200.00,4.00,0.00,29.91,1009.80,10.00,M,FEW,FEW,SCT,M,8000.00,12000.00,18000.00,M,M,M,M,M,M,M,M,90.29,KLAS 110256Z 20004KT 10SM FEW080 FEW120 SCT180 34/11 A2991 RMK AO2 SLP098 T03390111 53009,M
NFL,2021-09-11 02:56,-118.7010,39.4166,1199.00,74.00,51.00,44.76,350.00,7.00,0.00,30.06,1014.70,10.00,M,SCT,M,M,M,9000.00,M,M,M,M,M,M,M,M,M,M,73.90,KNFL 110256Z 35007KT 10SM SCT090 23/11 A3006 RMK AO2 SLP147 60000 T02330106 53017,M
EKO,2021-09-11 02:56,-115.7860,40.8242,1367.00,65.00,58.00,78.05,50.00,9.00,0.06,30.13,1015.50,10.00,M,FEW,SCT,SCT,M,6000.00,7500.00,11000.00,M,M,M,M,M,M,M,M,64.90,KEKO 110256Z AUTO 05009KT 10SM FEW060 SCT075 SCT110 18/14 A3013 RMK AO2 RAB34E50 SLP155 P0006 60010 T01830144 53011,M
INS,2021-09-11 02:58,-115.6733,36.5872,955.00,91.80,46.20,20.87,230.00,12.00,0.00,29.97,1009.90,10.00,M,SCT,BKN,M,M,13000.00,16000.00,M,M,M,M,M,M,M,M,M,88.21,KINS 110258Z AUTO 23012KT 10SM SCT130 BKN160 33/08 A2997 RMK AO2 SLP099 T03320079 53010 $,M
LSV,2021-09-11 02:58,-115.0343,36.2362,570.00,94.00,53.00,24.94,180.00,7.00,0.00,29.87,1008.80,10.00,M,FEW,SCT,M,M,13000.00,15000.00,M,M,M,M,M,M,M,M,M,91.61,KLSV 110258Z AUTO 18007KT 10SM FEW130 SCT150 35/12 A2987 RMK AO2 SLP088 T03450116 50008 $,M
CXP,2021-09-11 03:15,-119.7326,39.1923,1431.00,71.60,48.20,43.42,300.00,6.00,0.00,30.13,M,10.00,M,CLR,M,M,M,M,M,M,M,M,M,M,M,M,M,M,71.60,KCXP 110315Z AUTO 30006KT 10SM CLR 22/09 A3013 RMK AO2,M
BVU,2021-09-11 03:15,-114.8611,35.9475,671.00,93.20,46.40,20.13,190.00,6.00,0.00,29.92,M,10.00,M,CLR,M,M,M,M,M,M,M,M,M,M,M,M,M,M,89.55,KBVU 110315Z AUTO 19006KT 10SM CLR 34/08 A2992 RMK AO2,M
TMT,2021-09-11 03:15,-117.1971,39.4643,1749.34,62.00,56.30,81.28,0.00,0.00,0.00,30.21,M,10.00,M,SCT,SCT,OVC,M,6500.00,7500.00,9000.00,M,M,M,M,M,M,M,M,62.10,KTMT 110315Z AUTO 00000KT 10SM SCT065 SCT075 OVC090 17/14 A3021 RMK AO2 T01670135,M
RTS,2021-09-11 03:15,-119.8764,39.6682,1539.00,64.40,42.80,45.32,260.00,7.00,0.00,30.17,M,10.00,M,FEW,M,M,M,8000.00,M,M,M,M,M,M,M,M,M,M,64.40,KRTS 110315Z AUTO 26007KT 10SM FEW080 18/06 A3017 RMK AO2,M
MEV,2021-09-11 03:15,-119.7500,38.9963,1441.42,69.80,46.40,43.13,0.00,0.00,0.00,30.13,M,10.00,M,CLR,M,M,M,M,M,M,M,M,M,M,M,M,M,M,69.80,KMEV 110315Z AUTO 00000KT 10SM CLR 21/08 A3013 RMK AO2,M
BAM,2021-09-11 03:15,-116.8743,40.5990,1382.36,71.60,50.00,46.43,340.00,15.00,0.00,30.13,M,10.00,20.00,SCT,M,M,M,11000.00,M,M,M,M,M,M,M,M,M,M,71.60,KBAM 110315Z AUTO 34015G20KT 10SM SCT110 22/10 A3013 RMK AO1,M
CXP,2021-09-11 03:30,-119.7326,39.1923,1431.00,71.60,46.40,40.57,270.00,4.00,0.00,30.14,M,10.00,M,CLR,M,M,M,M,M,M,M,M,M,M,M,M,M,M,71.60,KCXP 110330Z AUTO 27004KT 10SM CLR 22/08 A3014 RMK AO2,M
RTS,2021-09-11 03:35,-119.8764,39.6682,1539.00,62.60,42.80,48.28,M,5.00,0.00,30.18,M,10.00,M,CLR,M,M,M,M,M,M,M,M,M,M,M,M,M,M,62.60,KRTS 110335Z AUTO VRB05KT 10SM CLR 17/06 A3018 RMK AO2,M
MEV,2021-09-11 03:35,-119.7500,38.9963,1441.42,68.00,46.40,45.88,0.00,0.00,0.00,30.13,M,10.00,M,CLR,M,M,M,M,M,M,M,M,M,M,M,M,M,M,68.00,KMEV 110335Z AUTO 00000KT 10SM CLR 20/08 A3013 RMK AO2,M
BAM,2021-09-11 03:35,-116.8743,40.5990,1382.36,69.80,51.80,52.77,330.00,12.00,0.00,30.15,M,10.00,18.00,CLR,M,M,M,M,M,M,M,M,M,M,M,M,M,M,69.80,KBAM 110335Z AUTO 33012G18KT 10SM CLR 21/11 A3015 RMK AO1,M
BVU,2021-09-11 03:35,-114.8611,35.9475,671.00,93.20,46.40,20.13,160.00,3.00,0.00,29.93,M,10.00,M,CLR,M,M,M,M,M,M,M,M,M,M,M,M,M,M,89.55,KBVU 110335Z AUTO 16003KT 10SM CLR 34/08 A2993 RMK AO2,M
TMT,2021-09-11 03:35,-117.1971,39.4643,1749.34,60.00,56.30,87.87,100.00,7.00,0.00,30.21,M,10.00,M,BKN,M,M,M,9000.00,M,M,M,M,M,M,M,M,M,M,59.90,KTMT 110335Z AUTO 10007KT 10SM BKN090 16/14 A3021 RMK AO2 T01550135,M
LOL,2021-09-11 03:53,-118.5701,40.0684,1192.43,72.00,51.00,47.72,10.00,5.00,0.00,30.09,1015.10,10.00,M,CLR,M,M,M,M,M,M,M,M,M,M,M,M,M,M,72.00,KLOL 110353Z AUTO 01005KT 10SM CLR 22/11 A3009 RMK AO2 SLP151 T02220106,M
DRA,2021-09-11 03:53,-116.0278,36.6206,1009.00,90.00,48.00,23.63,190.00,10.00,0.00,29.99,1009.80,10.00,M,CLR,M,M,M,M,M,M,M,M,M,M,M,M,M,M,86.78,KDRA 110353Z AUTO 19010KT 10SM CLR 32/09 A2999 RMK AO2 SLP098 T03220089,M
ELY,2021-09-11 03:53,-114.8453,39.2950,1909.00,68.00,45.00,43.51,170.00,10.00,T,30.21,1012.70,10.00,M,CLR,M,M,M,M,M,M,M,M,M,M,M,M,M,M,68.00,KELY 110353Z AUTO 17010KT 10SM CLR 20/07 A3021 RMK AO2 RAB07E19 SLP127 P0000 T02000072,M
P68,2021-09-11 03:53,-116.0056,39.6014,1993.00,69.00,49.00,48.53,M,3.00,0.00,30.20,1013.80,M,M,M,M,M,M,M,M,M,M,M,M,M,M,M,M,M,69.10,KP68 110353Z AUTO VRB03KT 21/09 A3020 RMK AO1 SLP138 T02060094,M
VGT,2021-09-11 03:53,-115.1933,36.2111,667.00,90.00,58.00,33.99,120.00,3.00,0.00,29.91,1011.60,10.00,M,CLR,M,M,M,M,M,M,M,M,M,M,M,M,M,M,88.89,KVGT 110353Z AUTO 12003KT 10SM CLR 32/14 A2991 RMK AO2 SLP116 T03220144,M
BVU,2021-09-11 03:55,-114.8611,35.9475,671.00,91.40,46.40,21.29,M,3.00,0.00,29.94,M,10.00,M,CLR,M,M,M,M,M,M,M,M,M,M,M,M,M,M,87.86,KBVU 110355Z AUTO VRB03KT 10SM CLR 33/08 A2994 RMK AO2,M
BAM,2021-09-11 03:55,-116.8743,40.5990,1382.36,69.80,51.80,52.77,330.00,12.00,0.00,30.17,M,10.00,M,SCT,SCT,M,M,7500.00,10000.00,M,M,M,M,M,M,M,M,M,69.80,KBAM 110355Z AUTO 33012KT 10SM SCT075 SCT100 21/11 A3017 RMK AO1,M
TMT,2021-09-11 03:55,-117.1971,39.4643,1749.34,60.30,56.30,86.63,320.00,3.00,0.00,30.22,M,10.00,M,SCT,BKN,M,M,10000.00,12000.00,M,M,M,M,M,M,M,M,M,60.30,KTMT 110355Z AUTO 32003KT 10SM SCT100 BKN120 16/14 A3022 RMK AO2 LTG DSNT S T01570135,M
RTS,2021-09-11 03:55,-119.8764,39.6682,1539.00,62.60,44.60,51.72,240.00,5.00,0.00,30.19,M,10.00,M,CLR,M,M,M,M,M,M,M,M,M,M,M,M,M,M,62.60,KRTS 110355Z AUTO 24005KT 10SM CLR 17/07 A3019 RMK AO2,M
CXP,2021-09-11 03:55,-119.7326,39.1923,1431.00,69.80,46.40,43.13,80.00,3.00,0.00,30.15,M,10.00,M,CLR,M,M,M,M,M,M,M,M,M,M,M,M,M,M,69.80,KCXP 110355Z AUTO 08003KT 10SM CLR 21/08 A3015 RMK AO2,M
MEV,2021-09-11 03:55,-119.7500,38.9963,1441.42,66.20,44.60,45.60,0.00,0.00,0.00,30.14,M,10.00,M,CLR,M,M,M,M,M,M,M,M,M,M,M,M,M,M,66.20,KMEV 110355Z AUTO 00000KT 10SM CLR 19/07 A3014 RMK AO2,M
RNO,2021-09-11 03:55,-119.7711,39.4839,1341.00,72.00,43.00,35.16,M,3.00,0.00,30.13,1015.60,10.00,M,FEW,M,M,M,9500.00,M,M,M,M,M,M,M,M,M,M,72.00,KRNO 110355Z VRB03KT 10SM FEW095 22/06 A3013 RMK AO2 SLP156 T02220061,M
EKO,2021-09-11 03:56,-115.7860,40.8242,1367.00,64.00,58.00,80.54,110.00,3.00,0.00,30.15,1015.50,10.00,M,CLR,M,M,M,M,M,M,M,M,M,M,M,M,M,M,64.00,KEKO 110356Z AUTO 11003KT 10SM CLR 18/14 A3015 RMK AO2 SLP155 T01780144,M
LAS,2021-09-11 03:56,-115.1634,36.0719,663.00,91.00,53.00,27.67,220.00,4.00,0.00,29.93,1010.60,10.00,M,FEW,FEW,SCT,M,8000.00,12000.00,22000.00,M,M,M,M,M,M,M,M,88.57,KLAS 110356Z 22004KT 10SM FEW080 FEW120 SCT220 33/12 A2993 RMK AO2 SLP106 T03280117,M
WMC,2021-09-11 03:56,-117.8072,40.9019,1315.00,67.00,49.00,52.35,170.00,4.00,0.00,30.12,1015.50,10.00,M,CLR,M,M,M,M,M,M,M,M,M,M,M,M,M,M,66.90,KWMC 110356Z AUTO 17004KT 10SM CLR 19/09 A3012 RMK AO2 LTG DSNT SE SLP155 T01940094 $,M
TPH,2021-09-11 03:56,-117.0904,38.0505,1654.00,78.00,43.00,28.68,210.00,7.00,0.00,30.14,1012.40,10.00,M,FEW,M,M,M,12000.00,M,M,M,M,M,M,M,M,M,M,78.10,KTPH 110356Z AUTO 21007KT 10SM FEW120 26/06 A3014 RMK AO2 LTG DSNT N SLP124 T02560061,M
HND,2021-09-11 03:56,-115.1344,35.9729,742.79,89.00,55.00,31.49,210.00,10.00,0.00,29.97,1013.30,10.00,M,CLR,M,M,M,M,M,M,M,M,M,M,M,M,M,M,87.21,KHND 110356Z AUTO 21010KT 10SM CLR 32/13 A2997 RMK AO2 SLP133 T03170128,M
NFL,2021-09-11 03:56,-118.7010,39.4166,1199.00,71.00,50.00,47.23,360.00,6.00,0.00,30.09,1015.50,10.00,M,SCT,M,M,M,10000.00,M,M,M,M,M,M,M,M,M,M,71.10,KNFL 110356Z 36006KT 10SM SCT100 22/10 A3009 RMK AO2 SLP155 T02170100,M
LSV,2021-09-11 03:58,-115.0343,36.2362,570.00,91.60,53.80,27.86,190.00,7.00,0.00,29.90,1009.80,10.00,M,CLR,M,M,M,M,M,M,M,M,M,M,M,M,M,M,89.32,KLSV 110358Z AUTO 19007KT 10SM CLR 33/12 A2990 RMK AO2 SLP098 T03310121 $,M
INS,2021-09-11 03:58,-115.6733,36.5872,955.00,91.40,46.00,20.89,230.00,9.00,0.00,29.98,1009.90,10.00,M,BKN,M,M,M,14000.00,M,M,M,M,M,M,M,M,M,M,87.81,KINS 110358Z AUTO 23009KT 10SM BKN140 33/08 A2998 RMK AO2 SLP099 T03300077 $,M
CXP,2021-09-11 04:15,-119.7326,39.1923,1431.00,66.20,46.40,48.83,M,3.00,0.00,30.15,M,10.00,M,FEW,M,M,M,7000.00,M,M,M,M,M,M,M,M,M,M,66.20,KCXP 110415Z AUTO VRB03KT 10SM FEW070 19/08 A3015 RMK AO2,M
BAM,2021-09-11 04:15,-116.8743,40.5990,1382.36,64.40,57.20,77.45,350.00,9.00,0.00,30.19,M,5.00,13.00,SCT,SCT,BKN,M,3200.00,4100.00,7000.00,M,M,M,M,M,M,M,M,64.40,KBAM 110415Z AUTO 35009G13KT 5SM SCT032 SCT041 BKN070 18/14 A3019 RMK AO1,M
BVU,2021-09-11 04:15,-114.8611,35.9475,671.00,89.60,48.20,24.11,310.00,4.00,0.00,29.94,M,10.00,M,CLR,M,M,M,M,M,M,M,M,M,M,M,M,M,M,86.44,KBVU 110415Z AUTO 31004KT 10SM CLR 32/09 A2994 RMK AO2,M
RTS,2021-09-11 04:15,-119.8764,39.6682,1539.00,60.80,44.60,55.12,250.00,6.00,0.00,30.19,M,10.00,M,CLR,M,M,M,M,M,M,M,M,M,M,M,M,M,M,60.80,KRTS 110415Z AUTO 25006KT 10SM CLR 16/07 A3019 RMK AO2,M
TMT,2021-09-11 04:15,-117.1971,39.4643,1749.34,60.00,56.00,86.62,200.00,13.00,0.00,30.24,M,10.00,M,SCT,BKN,OVC,M,6000.00,8000.00,11000.00,M,M,M,M,M,M,M,M,60.10,KTMT 110415Z AUTO 20013KT 10SM SCT060 BKN080 OVC110 16/13 A3024 RMK AO2 T01560134,M
MEV,2021-09-11 04:15,-119.7500,38.9963,1441.42,64.40,46.40,51.98,70.00,4.00,0.00,30.14,M,10.00,M,CLR,M,M,M,M,M,M,M,M,M,M,M,M,M,M,64.40,KMEV 110415Z AUTO 07004KT 10SM CLR 18/08 A3014 RMK AO2,M
BAM,2021-09-11 04:35,-116.8743,40.5990,1382.36,62.60,59.00,88.00,20.00,5.00,0.00,30.18,M,10.00,M,SCT,SCT,OVC,M,3200.00,3900.00,11000.00,M,M,M,M,M,M,M,M,62.60,KBAM 110435Z AUTO 02005KT 10SM SCT032 SCT039 OVC110 17/15 A3018 RMK AO1,M
BVU,2021-09-11 04:35,-114.8611,35.9475,671.00,87.80,48.20,25.52,310.00,4.00,0.00,29.94,M,10.00,M,CLR,M,M,M,M,M,M,M,M,M,M,M,M,M,M,84.87,KBVU 110435Z AUTO 31004KT 10SM CLR 31/09 A2994 RMK AO2,M
TMT,2021-09-11 04:35,-117.1971,39.4643,1749.34,59.00,56.70,92.06,260.00,13.00,0.03,30.25,M,10.00,M,BKN,OVC,M,M,6000.00,8000.00,M,M,-RA,M,M,M,M,M,M,59.00,KTMT 110435Z AUTO 26013KT 10SM -RA BKN060 OVC080 15/14 A3025 RMK AO2 P0003 T01500137,M
RTS,2021-09-11 04:35,-119.8764,39.6682,1539.00,59.00,44.60,58.77,290.00,7.00,0.00,30.19,M,10.00,M,CLR,M,M,M,M,M,M,M,M,M,M,M,M,M,M,59.00,KRTS 110435Z AUTO 29007KT 10SM CLR 15/07 A3019 RMK AO2,M
CXP,2021-09-11 04:35,-119.7326,39.1923,1431.00,68.00,46.40,45.88,0.00,0.00,0.00,30.16,M,10.00,M,FEW,M,M,M,7000.00,M,M,M,M,M,M,M,M,M,M,68.00,KCXP 110435Z AUTO 00000KT 10SM FEW070 20/08 A3016 RMK AO2,M
MEV,2021-09-11 04:35,-119.7500,38.9963,1441.42,66.20,46.40,48.83,0.00,0.00,0.00,30.14,M,10.00,M,CLR,M,M,M,M,M,M,M,M,M,M,M,M,M,M,66.20,KMEV 110435Z AUTO 00000KT 10SM CLR 19/08 A3014 RMK AO2,M
DRA,2021-09-11 04:53,-116.0278,36.6206,1009.00,89.00,46.00,22.54,170.00,10.00,0.00,30.00,1010.30,10.00,17.00,SCT,M,M,M,11000.00,M,M,M,M,M,M,M,M,M,M,85.76,KDRA 110453Z AUTO 17010G17KT 10SM SCT110 32/08 A3000 RMK AO2 SLP103 T03170078,M
P68,2021-09-11 04:53,-116.0056,39.6014,1993.00,66.00,51.00,58.62,130.00,4.00,0.00,30.23,1014.50,M,M,M,M,M,M,M,M,M,M,M,M,M,M,M,M,M,66.00,KP68 110453Z AUTO 13004KT 19/11 A3023 RMK AO1 SLP145 T01890106,M
LOL,2021-09-11 04:53,-118.5701,40.0684,1192.43,69.00,49.00,48.53,20.00,6.00,0.00,30.10,1015.60,10.00,M,SCT,M,M,M,9000.00,M,M,M,M,M,M,M,M,M,M,69.10,KLOL 110453Z AUTO 02006KT 10SM SCT090 21/09 A3010 RMK AO2 SLP156 T02060094,M
ELY,2021-09-11 04:53,-114.8453,39.2950,1909.00,65.00,45.00,48.44,210.00,13.00,0.00,30.22,1012.40,10.00,M,CLR,M,M,M,M,M,M,M,M,M,M,M,M,M,M,64.90,KELY 110453Z AUTO 21013KT 10SM CLR 18/07 A3022 RMK AO2 SLP124 T01830072,M
VGT,2021-09-11 04:53,-115.1933,36.2111,667.00,92.00,54.00,27.80,190.00,5.00,0.00,29.92,1011.50,10.00,M,CLR,M,M,M,M,M,M,M,M,M,M,M,M,M,M,89.66,KVGT 110453Z AUTO 19005KT 10SM CLR 33/12 A2992 RMK AO2 SLP115 T03330122,M
TMT,2021-09-11 04:55,-117.1971,39.4643,1749.34,59.20,55.60,87.84,110.00,7.00,0.06,30.24,M,10.00,M,SCT,BKN,OVC,M,3200.00,6000.00,11000.00,M,-RA,M,M,M,M,M,M,59.20,KTMT 110455Z AUTO 11007KT 10SM -RA SCT032 BKN060 OVC110 15/13 A3024 RMK AO2 LTG DSNT NE P0006 T01510131,M
BVU,2021-09-11 04:55,-114.8611,35.9475,671.00,89.60,48.20,24.11,0.00,0.00,0.00,29.94,M,10.00,M,CLR,M,M,M,M,M,M,M,M,M,M,M,M,M,M,86.44,KBVU 110455Z AUTO 00000KT 10SM CLR 32/09 A2994 RMK AO2,M
RNO,2021-09-11 04:55,-119.7711,39.4839,1341.00,69.00,43.00,38.82,0.00,0.00,0.00,30.14,1015.80,10.00,M,CLR,M,M,M,M,M,M,M,M,M,M,M,M,M,M,69.10,KRNO 110455Z 00000KT 10SM CLR 21/06 A3014 RMK AO2 SLP158 T02060061,M
BAM,2021-09-11 04:55,-116.8743,40.5990,1382.36,64.40,57.20,77.45,360.00,3.00,0.00,30.19,M,10.00,M,BKN,OVC,M,M,10000.00,11000.00,M,M,M,M,M,M,M,M,M,64.40,KBAM 110455Z AUTO 36003KT 10SM BKN100 OVC110 18/14 A3019 RMK AO1,M
MEV,2021-09-11 04:55,-119.7500,38.9963,1441.42,64.40,46.40,51.98,0.00,0.00,0.00,30.14,M,10.00,M,CLR,M,M,M,M,M,M,M,M,M,M,M,M,M,M,64.40,KMEV 110455Z AUTO 00000KT 10SM CLR 18/08 A3014 RMK AO2,M
CXP,2021-09-11 04:55,-119.7326,39.1923,1431.00,68.00,46.40,45.88,330.00,3.00,0.00,30.16,M,10.00,M,FEW,M,M,M,7000.00,M,M,M,M,M,M,M,M,M,M,68.00,KCXP 110455Z AUTO 33003KT 10SM FEW070 20/08 A3016 RMK AO2,M
RTS,2021-09-11 04:55,-119.8764,39.6682,1539.00,57.20,44.60,62.69,260.00,6.00,0.00,30.19,M,10.00,M,CLR,M,M,M,M,M,M,M,M,M,M,M,M,M,M,57.20,KRTS 110455Z AUTO 26006KT 10SM CLR 14/07 A3019 RMK AO2,M
NFL,2021-09-11 04:56,-118.7010,39.4166,1199.00,67.00,50.00,54.54,340.00,4.00,0.00,30.10,1016.00,10.00,M,FEW,M,M,M,10000.00,M,M,M,M,M,M,M,M,M,M,66.90,KNFL 110456Z 34004KT 10SM FEW100 19/10 A3010 RMK AO2 SLP160 T01940100,M
LAS,2021-09-11 04:56,-115.1634,36.0719,663.00,89.00,53.00,29.37,210.00,4.00,0.00,29.93,1010.60,10.00,M,FEW,FEW,SCT,M,8000.00,12000.00,25000.00,M,M,M,M,M,M,M,M,86.79,KLAS 110456Z 21004KT 10SM FEW080 FEW120 SCT250 32/12 A2993 RMK AO2 SLP106 T03170117,M
HND,2021-09-11 04:56,-115.1344,35.9729,742.79,86.00,55.00,34.74,200.00,7.00,0.00,29.98,1013.40,10.00,M,CLR,M,M,M,M,M,M,M,M,M,M,M,M,M,M,84.46,KHND 110456Z AUTO 20007KT 10SM CLR 30/13 A2998 RMK AO2 SLP134 T03000128,M
EKO,2021-09-11 04:56,-115.7860,40.8242,1367.00,63.00,57.00,80.76,0.00,0.00,0.00,30.19,1016.50,10.00,M,BKN,M,M,M,10000.00,M,M,M,M,M,M,M,M,M,M,63.00,KEKO 110456Z AUTO 00000KT 10SM BKN100 17/14 A3019 RMK AO2 LTG DSNT W SLP165 T01720139,M
TPH,2021-09-11 04:56,-117.0904,38.0505,1654.00,78.00,41.00,26.55,340.00,6.00,0.00,30.16,1012.50,10.00,M,BKN,OVC,M,M,9000.00,11000.00,M,M,M,M,M,M,M,M,M,78.10,KTPH 110456Z AUTO 34006KT 10SM BKN090 OVC110 26/05 A3016 RMK AO2 SLP125 T02560050,M
WMC,2021-09-11 04:56,-117.8072,40.9019,1315.00,63.00,49.00,59.98,180.00,4.00,0.00,30.13,1016.10,10.00,M,FEW,M,M,M,8500.00,M,M,M,M,M,M,M,M,M,M,63.00,KWMC 110456Z AUTO 18004KT 10SM FEW085 17/09 A3013 RMK AO2 SLP161 T01720094 $,M
INS,2021-09-11 04:58,-115.6733,36.5872,955.00,87.60,47.50,25.02,90.00,7.00,0.00,29.99,1010.20,10.00,M,BKN,BKN,M,M,13000.00,15000.00,M,M,M,M,M,M,M,M,M,84.63,KINS 110458Z AUTO 09007KT 10SM BKN130 BKN150 31/09 A2999 RMK AO2 SLP102 T03090086 $,M
LSV,2021-09-11 04:58,-115.0343,36.2362,570.00,89.80,53.20,28.84,200.00,9.00,0.00,29.90,1009.80,10.00,M,CLR,M,M,M,M,M,M,M,M,M,M,M,M,M,M,87.46,KLSV 110458Z AUTO 20009KT 10SM CLR 32/12 A2990 RMK AO2 SLP098 T03210118 $,M
BAM,2021-09-11 05:15,-116.8743,40.5990,1382.36,62.60,59.00,88.00,250.00,4.00,0.00,30.19,M,10.00,M,SCT,BKN,OVC,M,6000.00,7000.00,9000.00,M,M,M,M,M,M,M,M,62.60,KBAM 110515Z AUTO 25004KT 10SM SCT060 BKN070 OVC090 17/15 A3019 RMK AO1,M
TMT,2021-09-11 05:15,-117.1971,39.4643,1749.34,59.70,55.00,84.42,0.00,0.00,0.00,30.24,M,10.00,M,SCT,BKN,M,M,8500.00,11000.00,M,M,M,M,M,M,M,M,M,59.70,KTMT 110515Z AUTO 00000KT 10SM SCT085 BKN110 15/13 A3024 RMK AO2 T01540128,M
RTS,2021-09-11 05:15,-119.8764,39.6682,1539.00,57.20,44.60,62.69,320.00,7.00,0.00,30.19,M,10.00,M,CLR,M,M,M,M,M,M,M,M,M,M,M,M,M,M,57.20,KRTS 110515Z AUTO 32007KT 10SM CLR 14/07 A3019 RMK AO2,M
BVU,2021-09-11 05:15,-114.8611,35.9475,671.00,87.80,50.00,27.29,0.00,0.00,0.00,29.94,M,10.00,M,CLR,M,M,M,M,M,M,M,M,M,M,M,M,M,M,85.11,KBVU 110515Z AUTO 00000KT 10SM CLR 31/10 A2994 RMK AO2,M
CXP,2021-09-11 05:15,-119.7326,39.1923,1431.00,68.00,48.20,49.10,340.00,5.00,0.00,30.16,M,10.00,M,FEW,M,M,M,7000.00,M,M,M,M,M,M,M,M,M,M,68.00,KCXP 110515Z AUTO 34005KT 10SM FEW070 20/09 A3016 RMK AO2,M
MEV,2021-09-11 05:15,-119.7500,38.9963,1441.42,62.60,44.60,51.72,110.00,6.00,0.00,30.15,M,10.00,M,CLR,M,M,M,M,M,M,M,M,M,M,M,M,M,M,62.60,KMEV 110515Z AUTO 11006KT 10SM CLR 17/07 A3015 RMK AO2,M
MEV,2021-09-11 05:35,-119.7500,38.9963,1441.42,64.40,44.60,48.55,130.00,6.00,0.00,30.15,M,10.00,M,CLR,M,M,M,M,M,M,M,M,M,M,M,M,M,M,64.40,KMEV 110535Z AUTO 13006KT 10SM CLR 18/07 A3015 RMK AO2,M
TMT,2021-09-11 05:35,-117.1971,39.4643,1749.34,58.00,55.00,89.40,0.00,0.00,0.00,30.25,M,10.00,M,CLR,M,M,M,M,M,M,M,M,M,M,M,M,M,M,58.10,KTMT 110535Z AUTO 00000KT 10SM CLR 15/13 A3025 RMK AO2 T01450128,M
BAM,2021-09-11 05:35,-116.8743,40.5990,1382.36,62.60,60.80,93.83,300.00,3.00,0.00,30.20,M,7.00,M,SCT,BKN,OVC,M,4900.00,7000.00,9000.00,M,M,M,M,M,M,M,M,62.60,KBAM 110535Z AUTO 30003KT 7SM SCT049 BKN070 OVC090 17/16 A3020 RMK AO1,M
BVU,2021-09-11 05:35,-114.8611,35.9475,671.00,87.80,48.20,25.52,290.00,4.00,0.00,29.94,M,10.00,M,CLR,M,M,M,M,M,M,M,M,M,M,M,M,M,M,84.87,KBVU 110535Z AUTO 29004KT 10SM CLR 31/09 A2994 RMK AO2,M
RTS,2021-09-11 05:35,-119.8764,39.6682,1539.00,60.80,44.60,55.12,360.00,6.00,0.00,30.20,M,10.00,M,CLR,M,M,M,M,M,M,M,M,M,M,M,M,M,M,60.80,KRTS 110535Z AUTO 36006KT 10SM CLR 16/07 A3020 RMK AO2,M
CXP,2021-09-11 05:35,-119.7326,39.1923,1431.00,68.00,48.20,49.10,0.00,0.00,0.00,30.17,M,10.00,M,BKN,M,M,M,7000.00,M,M,M,M,M,M,M,M,M,M,68.00,KCXP 110535Z AUTO 00000KT 10SM BKN070 20/09 A3017 RMK AO2,M
DRA,2021-09-11 05:53,-116.0278,36.6206,1009.00,88.00,47.00,24.15,200.00,9.00,0.00,30.00,1010.10,10.00,M,FEW,M,M,M,10000.00,M,M,M,M,M,M,M,M,M,M,84.90,KDRA 110553Z AUTO 20009KT 10SM FEW100 31/08 A3000 RMK AO2 SLP101 T03110083 10361 20311 50007,M
ELY,2021-09-11 05:53,-114.8453,39.2950,1909.00,63.00,45.00,51.78,210.00,11.00,0.00,30.22,1012.50,10.00,M,CLR,M,M,M,M,M,M,M,M,M,M,M,M,M,M,63.00,KELY 110553Z AUTO 21011KT 10SM CLR 17/07 A3022 RMK AO2 SLP125 60000 T01720072 10278 20167 51006,M
LOL,2021-09-11 05:53,-118.5701,40.0684,1192.43,61.00,50.00,67.06,0.00,0.00,0.00,30.11,1016.90,10.00,M,FEW,M,M,M,9000.00,M,M,M,M,M,M,M,M,M,M,61.00,KLOL 110553Z AUTO 00000KT 10SM FEW090 16/10 A3011 RMK AO2 SLP169 T01610100 10294 20156 51015,M
P68,2021-09-11 05:53,-116.0056,39.6014,1993.00,63.00,55.00,75.11,0.00,0.00,0.00,30.23,1014.70,M,M,M,M,M,M,M,M,M,M,M,M,M,M,M,M,M,63.00,KP68 110553Z AUTO 00000KT 17/13 A3023 RMK AO1 SLP147 T01720128 10300 20172 51016,M
VGT,2021-09-11 05:53,-115.1933,36.2111,667.00,89.00,56.00,32.53,210.00,5.00,0.00,29.92,1011.60,10.00,M,CLR,M,M,M,M,M,M,M,M,M,M,M,M,M,M,87.44,KVGT 110553Z AUTO 21005KT 10SM CLR 32/13 A2992 RMK AO2 SLP116 T03170133 10372 20306 51008,M
BVU,2021-09-11 05:55,-114.8611,35.9475,671.00,87.80,50.00,27.29,300.00,4.00,0.00,29.95,M,10.00,M,CLR,M,M,M,M,M,M,M,M,M,M,M,M,M,M,85.11,KBVU 110555Z AUTO 30004KT 10SM CLR 31/10 A2995 RMK AO2,M
CXP,2021-09-11 05:55,-119.7326,39.1923,1431.00,68.00,46.40,45.88,0.00,0.00,0.00,30.17,M,10.00,M,OVC,M,M,M,7000.00,M,M,M,M,M,M,M,M,M,M,68.00,KCXP 110555Z AUTO 00000KT 10SM OVC070 20/08 A3017 RMK AO2,M
BAM,2021-09-11 05:55,-116.8743,40.5990,1382.36,62.60,62.60,100.00,140.00,5.00,0.00,30.19,M,10.00,M,SCT,SCT,OVC,M,5000.00,7000.00,10000.00,M,M,M,M,M,M,M,M,62.60,KBAM 110555Z AUTO 14005KT 10SM SCT050 SCT070 OVC100 17/17 A3019 RMK AO1,M
TMT,2021-09-11 05:55,-117.1971,39.4643,1749.34,57.60,55.40,92.35,0.00,0.00,0.00,30.25,M,10.00,M,SCT,M,M,M,11000.00,M,M,M,M,M,M,M,M,M,M,57.60,KTMT 110555Z AUTO 00000KT 10SM SCT110 14/13 A3025 RMK AO2 60007 T01420130 10254 20137,M
MEV,2021-09-11 05:55,-119.7500,38.9963,1441.42,64.40,46.40,51.98,130.00,7.00,0.00,30.15,M,10.00,M,FEW,M,M,M,7000.00,M,M,M,M,M,M,M,M,M,M,64.40,KMEV 110555Z AUTO 13007KT 10SM FEW070 18/08 A3015 RMK AO2,M
RTS,2021-09-11 05:55,-119.8764,39.6682,1539.00,59.00,44.60,58.77,360.00,5.00,0.00,30.21,M,10.00,M,CLR,M,M,M,M,M,M,M,M,M,M,M,M,M,M,59.00,KRTS 110555Z AUTO 36005KT 10SM CLR 15/07 A3021 RMK AO2,M
RNO,2021-09-11 05:55,-119.7711,39.4839,1341.00,68.00,43.00,40.31,280.00,4.00,0.00,30.15,1016.20,10.00,M,FEW,M,M,M,15000.00,M,M,M,M,M,M,M,M,M,M,68.00,KRNO 110555Z 28004KT 10SM FEW150 20/06 A3015 RMK AO2 SLP162 T02000061 10267 20200 51014,M
NFL,2021-09-11 05:56,-118.7010,39.4166,1199.00,64.00,50.00,60.34,350.00,3.00,0.00,30.10,1016.10,10.00,M,FEW,M,M,M,12000.00,M,M,M,M,M,M,M,M,M,M,64.00,KNFL 110556Z 35003KT 10SM FEW120 18/10 A3010 RMK AO2 SLP161 60000 T01780100 10289 20172 51014,M
HND,2021-09-11 05:56,-115.1344,35.9729,742.79,85.00,55.00,35.99,230.00,6.00,0.00,29.98,1013.50,10.00,M,CLR,M,M,M,M,M,M,M,M,M,M,M,M,M,M,83.56,KHND 110556Z AUTO 23006KT 10SM CLR 29/13 A2998 RMK AO2 SLP135 T02940128 10378 20283 51009,M
EKO,2021-09-11 05:56,-115.7860,40.8242,1367.00,58.00,55.00,90.04,230.00,9.00,0.00,30.21,1017.70,10.00,M,SCT,M,M,M,12000.00,M,M,M,M,M,M,M,M,M,M,57.90,KEKO 110556Z AUTO 23009KT 10SM SCT120 14/13 A3021 RMK AO2 SLP177 60010 T01440128 10233 20144 53023,M
TPH,2021-09-11 05:56,-117.0904,38.0505,1654.00,75.00,48.00,38.43,20.00,9.00,0.00,30.18,1012.70,10.00,M,BKN,M,M,M,8500.00,M,M,M,M,M,M,M,M,M,M,75.00,KTPH 110556Z AUTO 02009KT 10SM BKN085 24/09 A3018 RMK AO2 SLP127 T02390089 10306 20239 51016,M
WMC,2021-09-11 05:56,-117.8072,40.9019,1315.00,61.00,48.00,62.23,0.00,0.00,0.00,30.14,1017.00,10.00,M,CLR,M,M,M,M,M,M,M,M,M,M,M,M,M,M,61.00,KWMC 110556Z AUTO 00000KT 10SM CLR 16/09 A3014 RMK AO2 SLP170 T01610089 10244 20161 51010 $,M
LAS,2021-09-11 05:56,-115.1634,36.0719,663.00,88.00,53.00,30.41,210.00,4.00,0.00,29.94,1010.60,10.00,M,FEW,FEW,SCT,M,8000.00,12000.00,25000.00,M,M,M,M,M,M,M,M,85.80,KLAS 110556Z 21004KT 10SM FEW080 FEW120 SCT250 31/12 A2994 RMK AO2 SLP106 T03110117 10361 20311 51008,M
INS,2021-09-11 05:58,-115.6733,36.5872,955.00,86.20,47.30,25.96,90.00,3.00,0.00,29.99,1010.10,10.00,M,SCT,M,M,M,15000.00,M,M,M,M,M,M,M,M,M,M,83.46,KINS 110558Z AUTO 09003KT 10SM SCT150 30/09 A2999 RMK AO2 SLP101 T03010085 10355 20301 52007 $,M
LSV,2021-09-11 05:58,-115.0343,36.2362,570.00,89.40,52.00,27.94,190.00,9.00,0.00,29.90,1009.70,10.00,M,CLR,M,M,M,M,M,M,M,M,M,M,M,M,M,M,86.85,KLSV 110558Z AUTO 19009KT 10SM CLR 32/11 A2990 RMK AO2 SLP097 T03190111 10364 20315 51010 $,M
BVU,2021-09-11 06:15,-114.8611,35.9475,671.00,87.80,48.20,25.52,0.00,0.00,0.00,29.95,M,10.00,M,CLR,M,M,M,M,M,M,M,M,M,M,M,M,M,M,84.87,KBVU 110615Z AUTO 00000KT 10SM CLR 31/09 A2995 RMK AO2,M
CXP,2021-09-11 06:15,-119.7326,39.1923,1431.00,66.20,48.20,52.25,0.00,0.00,0.00,30.17,M,10.00,M,OVC,M,M,M,7000.00,M,M,M,M,M,M,M,M,M,M,66.20,KCXP 110615Z AUTO 00000KT 10SM OVC070 19/09 A3017 RMK AO2,M
RTS,2021-09-11 06:15,-119.8764,39.6682,1539.00,57.20,44.60,62.69,330.00,7.00,0.00,30.21,M,10.00,M,CLR,M,M,M,M,M,M,M,M,M,M,M,M,M,M,57.20,KRTS 110615Z AUTO 33007KT 10SM CLR 14/07 A3021 RMK AO2,M
MEV,2021-09-11 06:15,-119.7500,38.9963,1441.42,62.60,46.40,55.37,340.00,5.00,0.00,30.16,M,10.00,M,CLR,M,M,M,M,M,M,M,M,M,M,M,M,M,M,62.60,KMEV 110615Z AUTO 34005KT 10SM CLR 17/08 A3016 RMK AO2,M
BAM,2021-09-11 06:15,-116.8743,40.5990,1382.36,62.60,62.60,100.00,140.00,5.00,0.00,30.19,M,10.00,M,SCT,BKN,OVC,M,8000.00,9000.00,11000.00,M,M,M,M,M,M,M,M,62.60,KBAM 110615Z AUTO 14005KT 10SM SCT080 BKN090 OVC110 17/17 A3019 RMK AO1,M
TMT,2021-09-11 06:15,-117.1971,39.4643,1749.34,56.50,55.60,96.79,120.00,4.00,0.00,30.26,M,10.00,M,OVC,M,M,M,11000.00,M,M,M,M,M,M,M,M,M,M,56.50,KTMT 110615Z AUTO 12004KT 10SM OVC110 14/13 A3026 RMK AO2 T01360131,M
CXP,2021-09-11 06:35,-119.7326,39.1923,1431.00,66.20,48.20,52.25,0.00,0.00,0.00,30.17,M,10.00,M,OVC,M,M,M,7500.00,M,M,M,M,M,M,M,M,M,M,66.20,KCXP 110635Z AUTO 00000KT 10SM OVC075 19/09 A3017 RMK AO2,M
RTS,2021-09-11 06:35,-119.8764,39.6682,1539.00,53.60,44.60,71.45,330.00,6.00,0.00,30.20,M,10.00,M,CLR,M,M,M,M,M,M,M,M,M,M,M,M,M,M,53.60,KRTS 110635Z AUTO 33006KT 10SM CLR 12/07 A3020 RMK AO2,M
BAM,2021-09-11 06:35,-116.8743,40.5990,1382.36,62.60,62.60,100.00,110.00,5.00,0.00,30.19,M,10.00,M,BKN,OVC,M,M,8000.00,11000.00,M,M,M,M,M,M,M,M,M,62.60,KBAM 110635Z AUTO 11005KT 10SM BKN080 OVC110 17/17 A3019 RMK AO1,M
TMT,2021-09-11 06:35,-117.1971,39.4643,1749.34,56.80,55.80,96.45,120.00,4.00,0.00,30.25,M,10.00,M,OVC,M,M,M,11000.00,M,M,M,M,M,M,M,M,M,M,56.80,KTMT 110635Z AUTO 12004KT 10SM OVC110 14/13 A3025 RMK AO2 T01380132,M
MEV,2021-09-11 06:35,-119.7500,38.9963,1441.42,59.00,44.60,58.77,0.00,0.00,0.00,30.16,M,10.00,M,CLR,M,M,M,M,M,M,M,M,M,M,M,M,M,M,59.00,KMEV 110635Z AUTO 00000KT 10SM CLR 15/07 A3016 RMK AO2,M
BVU,2021-09-11 06:35,-114.8611,35.9475,671.00,84.20,53.60,34.97,0.00,0.00,0.00,29.95,M,10.00,M,CLR,M,M,M,M,M,M,M,M,M,M,M,M,M,M,82.76,KBVU 110635Z AUTO 00000KT 10SM CLR 29/12 A2995 RMK AO2,M
DRA,2021-09-11 06:53,-116.0278,36.6206,1009.00,87.00,48.00,25.90,190.00,9.00,0.00,30.01,1010.20,10.00,M,CLR,M,M,M,M,M,M,M,M,M,M,M,M,M,M,84.27,KDRA 110653Z AUTO 19009KT 10SM CLR 31/09 A3001 RMK AO2 SLP102 T03060089,M
LOL,2021-09-11 06:53,-118.5701,40.0684,1192.43,61.00,48.00,62.23,0.00,0.00,0.00,30.12,1017.10,10.00,M,BKN,M,M,M,8500.00,M,M,M,M,M,M,M,M,M,M,61.00,KLOL 110653Z AUTO 00000KT 10SM BKN085 16/09 A3012 RMK AO2 SLP171 T01610089,M
P68,2021-09-11 06:53,-116.0056,39.6014,1993.00,61.00,56.00,83.29,0.00,0.00,0.03,30.24,1015.30,M,M,M,M,M,M,M,M,M,M,M,M,M,M,M,M,M,61.00,KP68 110653Z AUTO 00000KT 16/13 A3024 RMK AO1 SLP153 P0003 T01610133,M
VGT,2021-09-11 06:53,-115.1933,36.2111,667.00,90.00,52.00,27.42,200.00,7.00,0.00,29.92,1011.70,10.00,M,CLR,M,M,M,M,M,M,M,M,M,M,M,M,M,M,87.40,KVGT 110653Z AUTO 20007KT 10SM CLR 32/11 A2992 RMK AO2 SLP117 T03220111,M
ELY,2021-09-11 06:53,-114.8453,39.2950,1909.00,65.00,45.00,48.44,200.00,9.00,0.00,30.24,1012.90,10.00,M,BKN,M,M,M,11000.00,M,M,M,M,M,M,M,M,M,M,64.90,KELY 110653Z AUTO 20009KT 10SM BKN110 18/07 A3024 RMK AO2 SLP129 T01830072,M
TMT,2021-09-11 06:55,-117.1971,39.4643,1749.34,57.20,56.00,95.41,0.00,0.00,0.00,30.25,M,10.00,M,OVC,M,M,M,12000.00,M,M,M,M,M,M,M,M,M,M,57.20,KTMT 110655Z AUTO 00000KT 10SM OVC120 14/13 A3025 RMK AO2 T01400133,M
RNO,2021-09-11 06:55,-119.7711,39.4839,1341.00,65.00,44.00,46.81,280.00,6.00,0.00,30.16,1016.30,10.00,M,FEW,M,M,M,12000.00,M,M,M,M,M,M,M,M,M,M,64.90,KRNO 110655Z 28006KT 10SM FEW120 18/07 A3016 RMK AO2 SLP163 T01830067,M
BVU,2021-09-11 06:55,-114.8611,35.9475,671.00,82.40,53.60,37.07,0.00,0.00,0.00,29.95,M,10.00,M,CLR,M,M,M,M,M,M,M,M,M,M,M,M,M,M,81.46,KBVU 110655Z AUTO 00000KT 10SM CLR 28/12 A2995 RMK AO2,M
BAM,2021-09-11 06:55,-116.8743,40.5990,1382.36,62.60,60.80,93.83,70.00,6.00,0.00,30.19,M,10.00,M,OVC,M,M,M,7500.00,M,M,M,M,M,M,M,M,M,M,62.60,KBAM 110655Z AUTO 07006KT 10SM OVC075 17/16 A3019 RMK AO1,M
MEV,2021-09-11 06:55,-119.7500,38.9963,1441.42,55.40,44.60,66.91,0.00,0.00,0.00,30.16,M,10.00,M,FEW,M,M,M,7000.00,M,M,M,M,M,M,M,M,M,M,55.40,KMEV 110655Z AUTO 00000KT 10SM FEW070 13/07 A3016 RMK AO2,M
RTS,2021-09-11 06:55,-119.8764,39.6682,1539.00,53.60,44.60,71.45,0.00,0.00,0.00,30.21,M,10.00,M,CLR,M,M,M,M,M,M,M,M,M,M,M,M,M,M,53.60,KRTS 110655Z AUTO 00000KT 10SM CLR 12/07 A3021 RMK AO2,M
CXP,2021-09-11 06:55,-119.7326,39.1923,1431.00,64.40,48.20,55.63,0.00,0.00,0.00,30.17,M,10.00,M,BKN,M,M,M,7500.00,M,M,M,M,M,M,M,M,M,M,64.40,KCXP 110655Z AUTO 00000KT 10SM BKN075 18/09 A3017 RMK AO2,M
HND,2021-09-11 06:56,-115.1344,35.9729,742.79,84.00,53.00,34.56,220.00,10.00,0.00,29.99,1013.70,10.00,M,FEW,M,M,M,11000.00,M,M,M,M,M,M,M,M,M,M,82.52,KHND 110656Z AUTO 22010KT 10SM FEW110 29/12 A2999 RMK AO2 SLP137 T02890117 403830267,M
TPH,2021-09-11 06:56,-117.0904,38.0505,1654.00,70.00,51.00,51.07,360.00,10.00,0.00,30.18,1013.10,10.00,M,CLR,M,M,M,M,M,M,M,M,M,M,M,M,M,M,70.00,KTPH 110656Z AUTO 36010KT 10SM CLR 21/11 A3018 RMK AO2 SLP131 T02110106,M
WMC,2021-09-11 06:56,-117.8072,40.9019,1315.00,60.00,50.00,69.24,170.00,3.00,0.00,30.15,1017.00,10.00,M,CLR,M,M,M,M,M,M,M,M,M,M,M,M,M,M,60.10,KWMC 110656Z AUTO 17003KT 10SM CLR 16/10 A3015 RMK AO2 SLP170 T01560100 $,M
LAS,2021-09-11 06:56,-115.1634,36.0719,663.00,89.00,51.00,27.29,200.00,7.00,0.00,29.95,1010.90,10.00,M,FEW,FEW,SCT,M,8000.00,12000.00,25000.00,M,M,M,M,M,M,M,M,86.42,KLAS 110656Z 20007KT 10SM FEW080 FEW120 SCT250 32/11 A2995 RMK AO2 SLP109 T03170106,M
EKO,2021-09-11 06:56,-115.7860,40.8242,1367.00,61.00,56.00,83.29,140.00,3.00,0.00,30.23,1018.30,10.00,M,SCT,BKN,OVC,M,6000.00,9500.00,11000.00,M,M,M,M,M,M,M,M,61.00,KEKO 110656Z AUTO 14003KT 10SM SCT060 BKN095 OVC110 16/13 A3023 RMK AO2 SLP183 T01610133,M
NFL,2021-09-11 06:56,-118.7010,39.4166,1199.00,63.00,49.00,59.98,330.00,6.00,0.00,30.11,1016.20,10.00,M,CLR,M,M,M,M,M,M,M,M,M,M,M,M,M,M,63.00,KNFL 110656Z 33006KT 10SM CLR 17/09 A3011 RMK AO2 SLP162 T01720094,M
INS,2021-09-11 06:58,-115.6733,36.5872,955.00,86.40,46.40,24.93,250.00,10.00,0.00,30.00,1010.30,10.00,M,CLR,M,M,M,M,M,M,M,M,M,M,M,M,M,M,83.54,KINS 110658Z AUTO 25010KT 10SM CLR 30/08 A3000 RMK AO2 SLP103 T03020080 $,M
LSV,2021-09-11 06:58,-115.0343,36.2362,570.00,88.00,51.60,28.78,200.00,9.00,0.00,29.91,1009.90,10.00,M,CLR,M,M,M,M,M,M,M,M,M,M,M,M,M,M,85.53,KLSV 110658Z AUTO 20009KT 10SM CLR 31/11 A2991 RMK AO2 SLP099 T03110109 $,M
MEV,2021-09-11 07:15,-119.7500,38.9963,1441.42,59.00,44.60,58.77,0.00,0.00,0.00,30.17,M,10.00,M,BKN,M,M,M,7000.00,M,M,M,M,M,M,M,M,M,M,59.00,KMEV 110715Z AUTO 00000KT 10SM BKN070 15/07 A3017 RMK AO2,M
BAM,2021-09-11 07:15,-116.8743,40.5990,1382.36,60.80,57.20,87.92,60.00,8.00,0.00,30.19,M,10.00,M,BKN,OVC,M,M,7500.00,8500.00,M,M,M,M,M,M,M,M,M,60.80,KBAM 110715Z AUTO 06008KT 10SM BKN075 OVC085 16/14 A3019 RMK AO1,M
RTS,2021-09-11 07:15,-119.8764,39.6682,1539.00,53.60,44.60,71.45,330.00,7.00,0.00,30.20,M,10.00,M,CLR,M,M,M,M,M,M,M,M,M,M,M,M,M,M,53.60,KRTS 110715Z AUTO 33007KT 10SM CLR 12/07 A3020 RMK AO2,M
CXP,2021-09-11 07:15,-119.7326,39.1923,1431.00,64.40,46.40,51.98,0.00,0.00,0.00,30.18,M,10.00,M,SCT,M,M,M,8000.00,M,M,M,M,M,M,M,M,M,M,64.40,KCXP 110715Z AUTO 00000KT 10SM SCT080 18/08 A3018 RMK AO2,M
TMT,2021-09-11 07:15,-117.1971,39.4643,1749.34,57.20,56.00,95.41,0.00,0.00,0.00,30.25,M,10.00,M,OVC,M,M,M,12000.00,M,M,M,M,M,M,M,M,M,M,57.20,KTMT 110715Z AUTO 00000KT 10SM OVC120 14/13 A3025 RMK AO2 T01400133,M
BVU,2021-09-11 07:15,-114.8611,35.9475,671.00,82.40,53.60,37.07,30.00,4.00,0.00,29.96,M,10.00,M,CLR,M,M,M,M,M,M,M,M,M,M,M,M,M,M,81.46,KBVU 110715Z AUTO 03004KT 10SM CLR 28/12 A2996 RMK AO2,M
BAM,2021-09-11 07:35,-116.8743,40.5990,1382.36,60.80,55.40,82.37,70.00,9.00,0.00,30.19,M,10.00,M,OVC,M,M,M,7500.00,M,M,M,M,M,M,M,M,M,M,60.80,KBAM 110735Z AUTO 07009KT 10SM OVC075 16/13 A3019 RMK AO1,M
TMT,2021-09-11 07:35,-117.1971,39.4643,1749.34,55.80,55.40,98.56,0.00,0.00,0.00,30.25,M,10.00,M,SCT,M,M,M,12000.00,M,M,M,M,M,M,M,M,M,M,55.80,KTMT 110735Z AUTO 00000KT 10SM SCT120 13/13 A3025 RMK AO2 T01320130,M
CXP,2021-09-11 07:35,-119.7326,39.1923,1431.00,68.00,46.40,45.88,320.00,7.00,0.00,30.18,M,10.00,M,FEW,M,M,M,8000.00,M,M,M,M,M,M,M,M,M,M,68.00,KCXP 110735Z AUTO 32007KT 10SM FEW080 20/08 A3018 RMK AO2,M
BVU,2021-09-11 07:35,-114.8611,35.9475,671.00,82.40,55.40,39.58,40.00,4.00,0.00,29.96,M,10.00,M,CLR,M,M,M,M,M,M,M,M,M,M,M,M,M,M,81.75,KBVU 110735Z AUTO 04004KT 10SM CLR 28/13 A2996 RMK AO2,M
MEV,2021-09-11 07:35,-119.7500,38.9963,1441.42,59.00,46.40,62.92,0.00,0.00,0.00,30.17,M,10.00,M,OVC,M,M,M,7000.00,M,M,M,M,M,M,M,M,M,M,59.00,KMEV 110735Z AUTO 00000KT 10SM OVC070 15/08 A3017 RMK AO2,M
RTS,2021-09-11 07:35,-119.8764,39.6682,1539.00,53.60,44.60,71.45,350.00,10.00,0.00,30.20,M,10.00,M,CLR,M,M,M,M,M,M,M,M,M,M,M,M,M,M,53.60,KRTS 110735Z AUTO 35010KT 10SM CLR 12/07 A3020 RMK AO2,M
P68,2021-09-11 07:53,-116.0056,39.6014,1993.00,59.00,56.00,89.44,210.00,4.00,0.01,30.24,1015.50,M,M,M,M,M,M,M,M,M,M,M,M,M,M,M,M,M,59.00,KP68 110753Z AUTO 21004KT 15/13 A3024 RMK AO1 SLP155 P0001 T01500133 403060144,M
ELY,2021-09-11 07:53,-114.8453,39.2950,1909.00,60.00,45.00,57.37,180.00,3.00,0.00,30.24,1013.80,10.00,M,BKN,BKN,M,M,9000.00,12000.00,M,M,M,M,M,M,M,M,M,60.10,KELY 110753Z AUTO 18003KT 10SM BKN090 BKN120 16/07 A3024 RMK AO2 SLP138 T01560072 402890106,M
LOL,2021-09-11 07:53,-118.5701,40.0684,1192.43,58.00,49.00,71.90,0.00,0.00,0.00,30.12,1017.00,10.00,M,SCT,M,M,M,8500.00,M,M,M,M,M,M,M,M,M,M,57.90,KLOL 110753Z AUTO 00000KT 10SM SCT085 14/09 A3012 RMK AO2 SLP170 T01440094 403000144,M
VGT,2021-09-11 07:53,-115.1933,36.2111,667.00,89.00,51.00,27.29,190.00,6.00,0.00,29.93,1012.00,10.00,M,CLR,M,M,M,M,M,M,M,M,M,M,M,M,M,M,86.42,KVGT 110753Z AUTO 19006KT 10SM CLR 32/11 A2993 RMK AO2 SLP120 T03170106 403890278,M
DRA,2021-09-11 07:53,-116.0278,36.6206,1009.00,84.00,48.00,28.60,190.00,7.00,0.00,30.02,1010.40,10.00,M,CLR,M,M,M,M,M,M,M,M,M,M,M,M,M,M,81.87,KDRA 110753Z AUTO 19007KT 10SM CLR 29/09 A3002 RMK AO2 SLP104 T02890089 403780211,M
RNO,2021-09-11 07:55,-119.7711,39.4839,1341.00,64.00,44.00,48.31,0.00,0.00,0.00,30.16,1016.60,10.00,M,FEW,M,M,M,12000.00,M,M,M,M,M,M,M,M,M,M,64.00,KRNO 110755Z 00000KT 10SM FEW120 18/07 A3016 RMK AO2 SLP166 T01780067 402780161,M
TMT,2021-09-11 07:55,-117.1971,39.4643,1749.34,56.50,55.80,97.50,0.00,0.00,0.00,30.25,M,10.00,M,SCT,M,M,M,12000.00,M,M,M,M,M,M,M,M,M,M,56.50,KTMT 110755Z AUTO 00000KT 10SM SCT120 14/13 A3025 RMK AO2 T01360132 402950101,M
BVU,2021-09-11 07:55,-114.8611,35.9475,671.00,84.20,51.80,32.73,60.00,4.00,0.00,29.96,M,10.00,M,FEW,M,M,M,10000.00,M,M,M,M,M,M,M,M,M,M,82.48,KBVU 110755Z AUTO 06004KT 10SM FEW100 29/11 A2996 RMK AO2,M
BAM,2021-09-11 07:55,-116.8743,40.5990,1382.36,60.80,55.40,82.37,80.00,8.00,0.00,30.19,M,10.00,M,OVC,M,M,M,7500.00,M,M,M,M,M,M,M,M,M,M,60.80,KBAM 110755Z AUTO 08008KT 10SM OVC075 16/13 A3019 RMK AO1,M
MEV,2021-09-11 07:55,-119.7500,38.9963,1441.42,59.00,44.60,58.77,0.00,0.00,0.00,30.17,M,10.00,M,OVC,M,M,M,7000.00,M,M,M,M,M,M,M,M,M,M,59.00,KMEV 110755Z AUTO 00000KT 10SM OVC070 15/07 A3017 RMK AO2,M
CXP,2021-09-11 07:55,-119.7326,39.1923,1431.00,68.00,46.40,45.88,320.00,4.00,0.00,30.18,M,10.00,M,SCT,SCT,M,M,7500.00,8500.00,M,M,M,M,M,M,M,M,M,68.00,KCXP 110755Z AUTO 32004KT 10SM SCT075 SCT085 20/08 A3018 RMK AO2,M
RTS,2021-09-11 07:55,-119.8764,39.6682,1539.00,57.20,44.60,62.69,360.00,6.00,0.00,30.21,M,10.00,M,CLR,M,M,M,M,M,M,M,M,M,M,M,M,M,M,57.20,KRTS 110755Z AUTO 36006KT 10SM CLR 14/07 A3021 RMK AO2,M
HND,2021-09-11 07:56,-115.1344,35.9729,742.79,84.00,52.00,33.19,240.00,8.00,0.00,29.99,1013.80,10.00,M,CLR,M,M,M,M,M,M,M,M,M,M,M,M,M,M,82.36,KHND 110756Z AUTO 24008KT 10SM CLR 29/11 A2999 RMK AO2 SLP138 T02890111,M
TPH,2021-09-11 07:56,-117.0904,38.0505,1654.00,69.00,50.00,50.56,340.00,8.00,0.00,30.18,1013.20,10.00,M,FEW,M,M,M,10000.00,M,M,M,M,M,M,M,M,M,M,69.10,KTPH 110756Z AUTO 34008KT 10SM FEW100 21/10 A3018 RMK AO2 SLP132 T02060100 403220144,M
EKO,2021-09-11 07:56,-115.7860,40.8242,1367.00,62.00,56.00,80.11,290.00,3.00,0.00,30.24,1018.70,10.00,M,BKN,OVC,M,M,7500.00,9000.00,M,M,M,M,M,M,M,M,M,62.10,KEKO 110756Z AUTO 29003KT 10SM BKN075 OVC090 17/13 A3024 RMK AO2 SLP187 T01670133 403110139,M
WMC,2021-09-11 07:56,-117.8072,40.9019,1315.00,58.00,47.00,66.70,190.00,4.00,0.00,30.15,1017.80,10.00,M,CLR,M,M,M,M,M,M,M,M,M,M,M,M,M,M,57.90,KWMC 110756Z AUTO 19004KT 10SM CLR 14/08 A3015 RMK AO2 SLP178 T01440083 402610139 $,M
NFL,2021-09-11 07:56,-118.7010,39.4166,1199.00,60.00,49.00,66.46,0.00,0.00,0.00,30.12,1016.50,10.00,M,CLR,M,M,M,M,M,M,M,M,M,M,M,M,M,M,60.10,KNFL 110756Z AUTO 00000KT 10SM CLR 16/09 A3012 RMK AO2 SLP165 T01560094 403060156,M
LAS,2021-09-11 07:56,-115.1634,36.0719,663.00,87.00,51.00,29.07,180.00,4.00,0.00,29.95,1011.20,10.00,M,FEW,SCT,M,M,10000.00,25000.00,M,M,M,M,M,M,M,M,M,84.67,KLAS 110756Z 18004KT 10SM FEW100 SCT250 31/11 A2995 RMK AO2 SLP112 T03060106 403890283,M
LSV,2021-09-11 07:58,-115.0343,36.2362,570.00,89.00,50.70,26.88,190.00,10.00,0.00,29.92,1010.30,10.00,M,CLR,M,M,M,M,M,M,M,M,M,M,M,M,M,M,86.35,KLSV 110758Z AUTO 19010KT 10SM CLR 32/10 A2992 RMK AO2 SLP103 T03170104 403910280 $,M
INS,2021-09-11 07:58,-115.6733,36.5872,955.00,84.60,47.00,26.92,210.00,3.00,0.00,30.00,1010.40,10.00,M,CLR,M,M,M,M,M,M,M,M,M,M,M,M,M,M,82.20,KINS 110758Z AUTO 21003KT 10SM CLR 29/08 A3000 RMK AO2 SLP104 T02920083 403690192 $,M
BAM,2021-09-11 08:15,-116.8743,40.5990,1382.36,62.60,55.40,77.29,90.00,9.00,0.00,30.19,M,10.00,M,OVC,M,M,M,7500.00,M,M,M,M,M,M,M,M,M,M,62.60,KBAM 110815Z AUTO 09009KT 10SM OVC075 17/13 A3019 RMK AO1,M
RTS,2021-09-11 08:15,-119.8764,39.6682,1539.00,57.20,44.60,62.69,350.00,3.00,0.00,30.21,M,10.00,M,CLR,M,M,M,M,M,M,M,M,M,M,M,M,M,M,57.20,KRTS 110815Z AUTO 35003KT 10SM CLR 14/07 A3021 RMK AO2,M
CXP,2021-09-11 08:15,-119.7326,39.1923,1431.00,62.60,46.40,55.37,0.00,0.00,0.00,30.17,M,10.00,M,SCT,BKN,M,M,7500.00,8500.00,M,M,M,M,M,M,M,M,M,62.60,KCXP 110815Z AUTO 00000KT 10SM SCT075 BKN085 17/08 A3017 RMK AO2,M
MEV,2021-09-11 08:15,-119.7500,38.9963,1441.42,59.00,44.60,58.77,0.00,0.00,0.00,30.17,M,10.00,M,OVC,M,M,M,7000.00,M,M,M,M,M,M,M,M,M,M,59.00,KMEV 110815Z AUTO 00000KT 10SM OVC070 15/07 A3017 RMK AO2,M
TMT,2021-09-11 08:15,-117.1971,39.4643,1749.34,54.00,53.80,98.91,70.00,3.00,0.00,30.25,M,7.00,M,SCT,M,M,M,11000.00,M,M,M,M,M,M,M,M,M,M,54.10,KTMT 110815Z AUTO 07003KT 7SM SCT110 12/12 A3025 RMK AO2 T01230121,M
BVU,2021-09-11 08:15,-114.8611,35.9475,671.00,82.40,53.60,37.07,0.00,0.00,0.00,29.96,M,10.00,M,FEW,M,M,M,10000.00,M,M,M,M,M,M,M,M,M,M,81.46,KBVU 110815Z AUTO 00000KT 10SM FEW100 28/12 A2996 RMK AO2,M
TMT,2021-09-11 08:35,-117.1971,39.4643,1749.34,54.00,54.00,100.00,0.00,0.00,0.00,30.26,M,7.00,M,BKN,M,M,M,11000.00,M,M,M,M,M,M,M,M,M,M,54.00,KTMT 110835Z AUTO 00000KT 7SM BKN110 12/12 A3026 RMK AO2 T01220122,M
CXP,2021-09-11 08:35,-119.7326,39.1923,1431.00,59.00,46.40,62.92,90.00,4.00,0.00,30.18,M,10.00,M,SCT,M,M,M,8500.00,M,M,M,M,M,M,M,M,M,M,59.00,KCXP 110835Z AUTO 09004KT 10SM SCT085 15/08 A3018 RMK AO2,M
BVU,2021-09-11 08:35,-114.8611,35.9475,671.00,82.40,51.80,34.69,0.00,0.00,0.00,29.96,M,10.00,M,CLR,M,M,M,M,M,M,M,M,M,M,M,M,M,M,81.20,KBVU 110835Z AUTO 00000KT 10SM CLR 28/11 A2996 RMK AO2,M
RTS,2021-09-11 08:35,-119.8764,39.6682,1539.00,53.60,44.60,71.45,350.00,6.00,0.00,30.21,M,10.00,M,CLR,M,M,M,M,M,M,M,M,M,M,M,M,M,M,53.60,KRTS 110835Z AUTO 35006KT 10SM CLR 12/07 A3021 RMK AO2,M
MEV,2021-09-11 08:35,-119.7500,38.9963,1441.42,57.20,44.60,62.69,0.00,0.00,0.00,30.17,M,10.00,M,BKN,BKN,M,M,7000.00,8000.00,M,M,M,M,M,M,M,M,M,57.20,KMEV 110835Z AUTO 00000KT 10SM BKN070 BKN080 14/07 A3017 RMK AO2,M
BAM,2021-09-11 08:35,-116.8743,40.5990,1382.36,60.80,55.40,82.37,70.00,10.00,0.00,30.19,M,10.00,M,OVC,M,M,M,7500.00,M,M,M,M,M,M,M,M,M,M,60.80,KBAM 110835Z AUTO 07010KT 10SM OVC075 16/13 A3019 RMK AO1,M
DRA,2021-09-11 08:53,-116.0278,36.6206,1009.00,85.00,48.00,27.79,190.00,12.00,0.00,30.01,1010.40,10.00,M,CLR,M,M,M,M,M,M,M,M,M,M,M,M,M,M,82.53,KDRA 110853Z AUTO 19012KT 10SM CLR 29/09 A3001 RMK AO2 SLP104 T02940089 50005,M
ELY,2021-09-11 08:53,-114.8453,39.2950,1909.00,59.00,44.00,57.66,130.00,6.00,0.00,30.25,1015.60,10.00,M,FEW,BKN,M,M,8000.00,11000.00,M,M,M,M,M,M,M,M,M,59.00,KELY 110853Z AUTO 13006KT 10SM FEW080 BKN110 15/07 A3025 RMK AO2 SLP156 T01500067 51007,M
VGT,2021-09-11 08:53,-115.1933,36.2111,667.00,88.00,52.00,29.21,210.00,5.00,0.00,29.93,1012.10,10.00,M,CLR,M,M,M,M,M,M,M,M,M,M,M,M,M,M,85.60,KVGT 110853Z AUTO 21005KT 10SM CLR 31/11 A2993 RMK AO2 SLP121 T03110111 50004,M
P68,2021-09-11 08:53,-116.0056,39.6014,1993.00,58.00,56.00,93.04,340.00,5.00,0.01,30.25,1015.90,M,M,M,M,M,M,M,M,M,M,M,M,M,M,M,M,M,57.90,KP68 110853Z AUTO 34005KT 14/13 A3025 RMK AO1 SLP159 P0001 60005 T01440133 52006,M
LOL,2021-09-11 08:53,-118.5701,40.0684,1192.43,58.00,48.00,69.52,130.00,3.00,0.00,30.12,1016.80,10.00,M,FEW,M,M,M,8000.00,M,M,M,M,M,M,M,M,M,M,57.90,KLOL 110853Z AUTO 13003KT 10SM FEW080 14/09 A3012 RMK AO2 SLP168 T01440089 50003,M
RNO,2021-09-11 08:55,-119.7711,39.4839,1341.00,63.00,45.00,51.78,250.00,5.00,0.00,30.16,1016.40,10.00,M,SCT,M,M,M,7000.00,M,M,M,M,M,M,M,M,M,M,63.00,KRNO 110855Z 25005KT 10SM SCT070 17/07 A3016 RMK AO2 SLP164 T01720072 51004,M
MEV,2021-09-11 08:55,-119.7500,38.9963,1441.42,57.20,46.40,67.12,120.00,5.00,0.00,30.17,M,10.00,M,BKN,BKN,M,M,7000.00,8000.00,M,M,M,M,M,M,M,M,M,57.20,KMEV 110855Z AUTO 12005KT 10SM BKN070 BKN080 14/08 A3017 RMK AO2,M
RTS,2021-09-11 08:55,-119.8764,39.6682,1539.00,51.80,44.60,76.34,340.00,4.00,0.00,30.21,M,10.00,M,CLR,M,M,M,M,M,M,M,M,M,M,M,M,M,M,51.80,KRTS 110855Z AUTO 34004KT 10SM CLR 11/07 A3021 RMK AO2,M
CXP,2021-09-11 08:55,-119.7326,39.1923,1431.00,60.80,46.40,59.01,70.00,5.00,0.00,30.18,M,10.00,M,CLR,M,M,M,M,M,M,M,M,M,M,M,M,M,M,60.80,KCXP 110855Z AUTO 07005KT 10SM CLR 16/08 A3018 RMK AO2,M
TMT,2021-09-11 08:55,-117.1971,39.4643,1749.34,53.80,53.80,100.00,0.00,0.00,0.00,30.26,M,5.00,M,SCT,M,M,M,11000.00,M,M,M,BR,M,M,M,M,M,M,53.80,KTMT 110855Z AUTO 00000KT 5SM BR SCT110 12/12 A3026 RMK AO2 T01210121,M
BVU,2021-09-11 08:55,-114.8611,35.9475,671.00,84.20,50.00,30.62,0.00,0.00,0.00,29.96,M,10.00,M,CLR,M,M,M,M,M,M,M,M,M,M,M,M,M,M,82.24,KBVU 110855Z AUTO 00000KT 10SM CLR 29/10 A2996 RMK AO2,M
BAM,2021-09-11 08:55,-116.8743,40.5990,1382.36,60.80,53.60,77.14,80.00,7.00,0.00,30.19,M,10.00,M,BKN,M,M,M,7500.00,M,M,M,M,M,M,M,M,M,M,60.80,KBAM 110855Z AUTO 08007KT 10SM BKN075 16/12 A3019 RMK AO1,M
HND,2021-09-11 08:56,-115.1344,35.9729,742.79,83.00,52.00,34.39,160.00,9.00,0.00,29.99,1014.20,10.00,M,CLR,M,M,M,M,M,M,M,M,M,M,M,M,M,M,81.57,KHND 110856Z AUTO 16009KT 10SM CLR 28/11 A2999 RMK AO2 SLP142 T02830111 50003,M
LAS,2021-09-11 08:56,-115.1634,36.0719,663.00,84.00,51.00,32.10,190.00,6.00,0.00,29.95,1011.20,10.00,M,FEW,FEW,M,M,12000.00,25000.00,M,M,M,M,M,M,M,M,M,82.23,KLAS 110856Z 19006KT 10SM FEW120 FEW250 29/11 A2995 RMK AO2 SLP112 T02890106 50004,M
NFL,2021-09-11 08:56,-118.7010,39.4166,1199.00,58.00,48.00,69.52,0.00,0.00,0.00,30.12,1016.50,10.00,M,CLR,M,M,M,M,M,M,M,M,M,M,M,M,M,M,57.90,KNFL 110856Z AUTO 00000KT 10SM CLR 14/09 A3012 RMK AO2 SLP165 T01440089 51005,M
EKO,2021-09-11 08:56,-115.7860,40.8242,1367.00,59.00,55.00,86.56,210.00,6.00,T,30.24,1019.50,10.00,M,BKN,OVC,M,M,7500.00,9000.00,M,M,-RA,M,M,M,M,M,M,59.00,KEKO 110856Z AUTO 21006KT 10SM -RA BKN075 OVC090 15/13 A3024 RMK AO2 RAB05 SLP195 P0000 60000 T01500128 51009,M
TPH,2021-09-11 08:56,-117.0904,38.0505,1654.00,67.00,49.00,52.35,360.00,5.00,0.00,30.18,1013.40,10.00,M,FEW,M,M,M,12000.00,M,M,M,M,M,M,M,M,M,M,66.90,KTPH 110856Z AUTO 36005KT 10SM FEW120 19/09 A3018 RMK AO2 SLP134 T01940094 51002,M
WMC,2021-09-11 08:56,-117.8072,40.9019,1315.00,54.00,45.00,71.50,250.00,6.00,0.00,30.16,1017.60,10.00,M,FEW,M,M,M,9000.00,M,M,M,M,M,M,M,M,M,M,54.00,KWMC 110856Z AUTO 25006KT 10SM FEW090 12/07 A3016 RMK AO2 SLP176 T01220072 51005 $,M
LSV,2021-09-11 08:58,-115.0343,36.2362,570.00,86.00,51.00,29.89,210.00,6.00,0.00,29.92,1010.40,10.00,M,CLR,M,M,M,M,M,M,M,M,M,M,M,M,M,M,83.74,KLSV 110858Z AUTO 21006KT 10SM CLR 30/11 A2992 RMK AO2 SLP104 T03000105 50005 $,M
INS,2021-09-11 08:58,-115.6733,36.5872,955.00,79.50,47.00,32.01,120.00,7.00,0.00,30.01,1010.80,10.00,M,CLR,M,M,M,M,M,M,M,M,M,M,M,M,M,M,79.50,KINS 110858Z AUTO 12007KT 10SM CLR 26/08 A3001 RMK AO2 SLP108 T02640084 52004 $,M
TMT,2021-09-11 09:15,-117.1971,39.4643,1749.34,52.70,52.70,100.00,0.00,0.00,0.00,30.26,M,5.00,M,CLR,M,M,M,M,M,M,M,BR,M,M,M,M,M,M,52.70,KTMT 110915Z AUTO 00000KT 5SM BR CLR 12/12 A3026 RMK AO2 T01150115,M
BVU,2021-09-11 09:15,-114.8611,35.9475,671.00,86.00,48.20,27.03,0.00,0.00,0.00,29.96,M,10.00,M,CLR,M,M,M,M,M,M,M,M,M,M,M,M,M,M,83.40,KBVU 110915Z AUTO 00000KT 10SM CLR 30/09 A2996 RMK AO2,M
RTS,2021-09-11 09:15,-119.8764,39.6682,1539.00,53.60,44.60,71.45,350.00,4.00,0.00,30.21,M,10.00,M,CLR,M,M,M,M,M,M,M,M,M,M,M,M,M,M,53.60,KRTS 110915Z AUTO 35004KT 10SM CLR 12/07 A3021 RMK AO2,M
CXP,2021-09-11 09:15,-119.7326,39.1923,1431.00,62.60,46.40,55.37,70.00,4.00,0.00,30.19,M,10.00,M,BKN,M,M,M,7500.00,M,M,M,M,M,M,M,M,M,M,62.60,KCXP 110915Z AUTO 07004KT 10SM BKN075 17/08 A3019 RMK AO2,M
MEV,2021-09-11 09:15,-119.7500,38.9963,1441.42,57.20,48.20,71.83,150.00,5.00,0.00,30.17,M,10.00,M,OVC,M,M,M,7500.00,M,M,M,M,M,M,M,M,M,M,57.20,KMEV 110915Z AUTO 15005KT 10SM OVC075 14/09 A3017 RMK AO2,M
BAM,2021-09-11 09:15,-116.8743,40.5990,1382.36,60.80,53.60,77.14,80.00,7.00,0.00,30.19,M,10.00,M,SCT,M,M,M,7500.00,M,M,M,M,M,M,M,M,M,M,60.80,KBAM 110915Z AUTO 08007KT 10SM SCT075 16/12 A3019 RMK AO1,M
MEV,2021-09-11 09:35,-119.7500,38.9963,1441.42,59.00,46.40,62.92,0.00,0.00,0.00,30.18,M,10.00,M,BKN,OVC,M,M,7000.00,8000.00,M,M,M,M,M,M,M,M,M,59.00,KMEV 110935Z AUTO 00000KT 10SM BKN070 OVC080 15/08 A3018 RMK AO2,M
RTS,2021-09-11 09:35,-119.8764,39.6682,1539.00,51.80,44.60,76.34,360.00,5.00,0.00,30.21,M,10.00,M,FEW,M,M,M,6000.00,M,M,M,M,M,M,M,M,M,M,51.80,KRTS 110935Z AUTO 36005KT 10SM FEW060 11/07 A3021 RMK AO2,M
CXP,2021-09-11 09:35,-119.7326,39.1923,1431.00,64.40,46.40,51.98,0.00,0.00,0.00,30.19,M,10.00,M,BKN,OVC,M,M,7000.00,8500.00,M,M,M,M,M,M,M,M,M,64.40,KCXP 110935Z AUTO 00000KT 10SM BKN070 OVC085 18/08 A3019 RMK AO2,M
BVU,2021-09-11 09:35,-114.8611,35.9475,671.00,84.20,50.00,30.62,0.00,0.00,0.00,29.96,M,10.00,M,CLR,M,M,M,M,M,M,M,M,M,M,M,M,M,M,82.24,KBVU 110935Z AUTO 00000KT 10SM CLR 29/10 A2996 RMK AO2,M
TMT,2021-09-11 09:35,-117.1971,39.4643,1749.34,51.80,51.80,100.00,0.00,0.00,0.00,30.26,M,5.00,M,CLR,M,M,M,M,M,M,M,BR,M,M,M,M,M,M,51.80,KTMT 110935Z AUTO 00000KT 5SM BR CLR 11/11 A3026 RMK AO2 T01100110,M
BAM,2021-09-11 09:35,-116.8743,40.5990,1382.36,59.00,53.60,82.25,110.00,4.00,0.00,30.19,M,10.00,M,SCT,M,M,M,7500.00,M,M,M,M,M,M,M,M,M,M,59.00,KBAM 110935Z AUTO 11004KT 10SM SCT075 15/12 A3019 RMK AO1,M
ELY,2021-09-11 09:53,-114.8453,39.2950,1909.00,56.00,44.00,64.47,200.00,6.00,0.00,30.26,1014.90,10.00,M,CLR,M,M,M,M,M,M,M,M,M,M,M,M,M,M,55.90,KELY 110953Z AUTO 20006KT 10SM CLR 13/07 A3026 RMK AO2 SLP149 T01330067,M
DRA,2021-09-11 09:53,-116.0278,36.6206,1009.00,83.00,48.00,29.64,200.00,11.00,0.00,30.01,1010.40,10.00,M,FEW,M,M,M,12000.00,M,M,M,M,M,M,M,M,M,M,81.11,KDRA 110953Z AUTO 20011KT 10SM FEW120 28/09 A3001 RMK AO2 SLP104 T02830089,M
VGT,2021-09-11 09:53,-115.1933,36.2111,667.00,86.00,52.00,31.13,190.00,8.00,0.00,29.93,1012.40,10.00,M,CLR,M,M,M,M,M,M,M,M,M,M,M,M,M,M,83.91,KVGT 110953Z AUTO 19008KT 10SM CLR 30/11 A2993 RMK AO2 SLP124 T03000111,M
P68,2021-09-11 09:53,-116.0056,39.6014,1993.00,58.00,55.00,90.04,50.00,6.00,0.00,30.26,1016.10,M,M,M,M,M,M,M,M,M,M,M,M,M,M,M,M,M,57.90,KP68 110953Z AUTO 05006KT 14/13 A3026 RMK AO1 SLP161 T01440128,M
LOL,2021-09-11 09:53,-118.5701,40.0684,1192.43,56.00,48.00,74.72,300.00,3.00,0.00,30.13,1017.10,10.00,M,CLR,M,M,M,M,M,M,M,M,M,M,M,M,M,M,55.90,KLOL 110953Z AUTO 30003KT 10SM CLR 13/09 A3013 RMK AO2 SLP171 T01330089,M
TMT,2021-09-11 09:55,-117.1971,39.4643,1749.34,50.20,50.20,100.00,0.00,0.00,0.00,30.26,M,0.50,M,BKN,M,M,M,200.00,M,M,M,FG,M,M,M,M,M,M,50.20,KTMT 110955Z AUTO 00000KT 1/2SM FG BKN002 10/10 A3026 RMK AO2 T01010101,M
BVU,2021-09-11 09:55,-114.8611,35.9475,671.00,84.20,51.80,32.73,0.00,0.00,0.00,29.96,M,10.00,M,CLR,M,M,M,M,M,M,M,M,M,M,M,M,M,M,82.48,KBVU 110955Z AUTO 00000KT 10SM CLR 29/11 A2996 RMK AO2,M
BAM,2021-09-11 09:55,-116.8743,40.5990,1382.36,57.20,53.60,87.74,130.00,5.00,0.00,30.19,M,10.00,M,CLR,M,M,M,M,M,M,M,M,M,M,M,M,M,M,57.20,KBAM 110955Z AUTO 13005KT 10SM CLR 14/12 A3019 RMK AO1,M
RNO,2021-09-11 09:55,-119.7711,39.4839,1341.00,63.00,45.00,51.78,270.00,4.00,0.00,30.18,1016.80,10.00,M,FEW,FEW,M,M,7500.00,9500.00,M,M,M,M,M,M,M,M,M,63.00,KRNO 110955Z 27004KT 10SM FEW075 FEW095 17/07 A3018 RMK AO2 SLP168 T01720072,M
CXP,2021-09-11 09:55,-119.7326,39.1923,1431.00,62.60,46.40,55.37,0.00,0.00,0.00,30.20,M,10.00,M,BKN,OVC,M,M,7500.00,8500.00,M,M,M,M,M,M,M,M,M,62.60,KCXP 110955Z AUTO 00000KT 10SM BKN075 OVC085 17/08 A3020 RMK AO2,M
RTS,2021-09-11 09:55,-119.8764,39.6682,1539.00,51.80,44.60,76.34,0.00,0.00,0.00,30.22,M,10.00,M,FEW,M,M,M,6000.00,M,M,M,M,M,M,M,M,M,M,51.80,KRTS 110955Z AUTO 00000KT 10SM FEW060 11/07 A3022 RMK AO2,M
MEV,2021-09-11 09:55,-119.7500,38.9963,1441.42,59.00,46.40,62.92,0.00,0.00,0.00,30.19,M,10.00,M,OVC,M,M,M,7000.00,M,M,M,M,M,M,M,M,M,M,59.00,KMEV 110955Z AUTO 00000KT 10SM OVC070 15/08 A3019 RMK AO2,M
NFL,2021-09-11 09:56,-118.7010,39.4166,1199.00,58.00,48.00,69.52,310.00,3.00,0.00,30.13,1016.80,10.00,M,CLR,M,M,M,M,M,M,M,M,M,M,M,M,M,M,57.90,KNFL 110956Z AUTO 31003KT 10SM CLR 14/09 A3013 RMK AO2 SLP168 T01440089,M
WMC,2021-09-11 09:56,-117.8072,40.9019,1315.00,53.00,46.00,76.75,0.00,0.00,0.00,30.16,1017.70,10.00,M,BKN,M,M,M,9000.00,M,M,M,M,M,M,M,M,M,M,53.10,KWMC 110956Z AUTO 00000KT 10SM BKN090 12/08 A3016 RMK AO2 SLP177 T01170078 $,M
HND,2021-09-11 09:56,-115.1344,35.9729,742.79,82.00,53.00,36.87,190.00,6.00,0.00,29.99,1014.30,10.00,M,CLR,M,M,M,M,M,M,M,M,M,M,M,M,M,M,81.11,KHND 110956Z AUTO 19006KT 10SM CLR 28/12 A2999 RMK AO2 SLP143 T02780117,M
TPH,2021-09-11 09:56,-117.0904,38.0505,1654.00,63.00,52.00,67.29,350.00,7.00,0.00,30.19,1014.00,10.00,M,CLR,M,M,M,M,M,M,M,M,M,M,M,M,M,M,63.00,KTPH 110956Z AUTO 35007KT 10SM CLR 17/11 A3019 RMK AO2 SLP140 T01720111,M
LAS,2021-09-11 09:56,-115.1634,36.0719,663.00,84.00,52.00,33.19,210.00,3.00,0.00,29.96,1011.70,10.00,M,FEW,FEW,M,M,12000.00,25000.00,M,M,M,M,M,M,M,M,M,82.36,KLAS 110956Z 21003KT 10SM FEW120 FEW250 29/11 A2996 RMK AO2 SLP117 T02890111,M
EKO,2021-09-11 09:56,-115.7860,40.8242,1367.00,58.00,55.00,90.04,330.00,7.00,0.05,30.22,1018.40,10.00,M,CLR,M,M,M,M,M,M,M,M,M,M,M,M,M,M,57.90,KEKO 110956Z AUTO 33007KT 10SM CLR 14/13 A3022 RMK AO2 RAE36 SLP184 P0005 T01440128,M
LSV,2021-09-11 09:58,-115.0343,36.2362,570.00,86.50,50.50,28.98,190.00,4.00,0.00,29.92,1010.70,10.00,M,CLR,M,M,M,M,M,M,M,M,M,M,M,M,M,M,84.09,KLSV 110958Z AUTO 19004KT 10SM CLR 30/10 A2992 RMK AO2 SLP107 T03030103 $,M
INS,2021-09-11 09:58,-115.6733,36.5872,955.00,79.20,46.00,30.89,60.00,3.00,0.00,30.01,1010.80,10.00,M,CLR,M,M,M,M,M,M,M,M,M,M,M,M,M,M,79.20,KINS 110958Z AUTO 06003KT 10SM CLR 26/08 A3001 RMK AO2 SLP108 T02620077 $,M
MEV,2021-09-11 10:15,-119.7500,38.9963,1441.42,59.00,46.40,62.92,0.00,0.00,0.00,30.18,M,10.00,M,OVC,M,M,M,7000.00,M,M,M,M,M,M,M,M,M,M,59.00,KMEV 111015Z AUTO 00000KT 10SM OVC070 15/08 A3018 RMK AO2,M
RTS,2021-09-11 10:15,-119.8764,39.6682,1539.00,51.80,44.60,76.34,120.00,4.00,0.00,30.22,M,10.00,M,CLR,M,M,M,M,M,M,M,M,M,M,M,M,M,M,51.80,KRTS 111015Z AUTO 12004KT 10SM CLR 11/07 A3022 RMK AO2,M
CXP,2021-09-11 10:15,-119.7326,39.1923,1431.00,62.60,46.40,55.37,210.00,3.00,0.00,30.20,M,10.00,M,FEW,SCT,M,M,8000.00,9000.00,M,M,M,M,M,M,M,M,M,62.60,KCXP 111015Z AUTO 21003KT 10SM FEW080 SCT090 17/08 A3020 RMK AO2,M
TMT,2021-09-11 10:15,-117.1971,39.4643,1749.34,48.60,48.60,100.00,0.00,0.00,0.00,30.26,M,0.25,M,OVC,M,M,M,200.00,M,M,M,FG,M,M,M,M,M,M,48.60,KTMT 111015Z AUTO 00000KT M1/4SM FG OVC002 09/09 A3026 RMK AO2 T00920092,M
BAM,2021-09-11 10:15,-116.8743,40.5990,1382.36,57.20,57.20,100.00,0.00,0.00,0.00,30.19,M,10.00,M,CLR,M,M,M,M,M,M,M,M,M,M,M,M,M,M,57.20,KBAM 111015Z AUTO 00000KT 10SM CLR 14/14 A3019 RMK AO1,M
BVU,2021-09-11 10:15,-114.8611,35.9475,671.00,80.60,53.60,39.30,90.00,4.00,0.00,29.96,M,10.00,M,CLR,M,M,M,M,M,M,M,M,M,M,M,M,M,M,80.29,KBVU 111015Z AUTO 09004KT 10SM CLR 27/12 A2996 RMK AO2,M
RTS,2021-09-11 10:35,-119.8764,39.6682,1539.00,50.00,44.60,81.61,0.00,0.00,0.00,30.22,M,10.00,M,CLR,M,M,M,M,M,M,M,M,M,M,M,M,M,M,50.00,KRTS 111035Z AUTO 00000KT 10SM CLR 10/07 A3022 RMK AO2,M
TMT,2021-09-11 10:35,-117.1971,39.4643,1749.34,47.00,47.00,100.00,190.00,3.00,0.00,30.27,M,0.25,M,OVC,M,M,M,200.00,M,M,M,FG,M,M,M,M,M,M,45.72,KTMT 111035Z AUTO 19003KT 1/4SM FG OVC002 08/08 A3027 RMK AO2 T00830083,M
BAM,2021-09-11 10:35,-116.8743,40.5990,1382.36,57.20,53.60,87.74,50.00,5.00,0.00,30.20,M,10.00,M,CLR,M,M,M,M,M,M,M,M,M,M,M,M,M,M,57.20,KBAM 111035Z AUTO 05005KT 10SM CLR 14/12 A3020 RMK AO1,M
MEV,2021-09-11 10:35,-119.7500,38.9963,1441.42,59.00,46.40,62.92,0.00,0.00,0.00,30.19,M,10.00,M,BKN,OVC,M,M,7000.00,9000.00,M,M,M,M,M,M,M,M,M,59.00,KMEV 111035Z AUTO 00000KT 10SM BKN070 OVC090 15/08 A3019 RMK AO2,M
CXP,2021-09-11 10:35,-119.7326,39.1923,1431.00,60.80,46.40,59.01,0.00,0.00,0.00,30.20,M,10.00,M,FEW,FEW,M,M,7000.00,8000.00,M,M,M,M,M,M,M,M,M,60.80,KCXP 111035Z AUTO 00000KT 10SM FEW070 FEW080 16/08 A3020 RMK AO2,M
BVU,2021-09-11 10:35,-114.8611,35.9475,671.00,77.00,55.40,47.25,0.00,0.00,0.00,29.96,M,10.00,M,CLR,M,M,M,M,M,M,M,M,M,M,M,M,M,M,77.00,KBVU 111035Z AUTO 00000KT 10SM CLR 25/13 A2996 RMK AO2,M
ELY,2021-09-11 10:53,-114.8453,39.2950,1909.00,56.00,45.00,66.72,180.00,7.00,0.00,30.26,1015.20,10.00,M,FEW,BKN,M,M,8000.00,11000.00,M,M,M,M,M,M,M,M,M,55.90,KELY 111053Z AUTO 18007KT 10SM FEW080 BKN110 13/07 A3026 RMK AO2 SLP152 T01330072,M
P68,2021-09-11 10:53,-116.0056,39.6014,1993.00,57.00,55.00,93.01,170.00,3.00,0.00,30.27,1016.40,M,M,M,M,M,M,M,M,M,M,M,M,M,M,M,M,M,57.00,KP68 111053Z AUTO 17003KT 14/13 A3027 RMK AO1 SLP164 T01390128,M
DRA,2021-09-11 10:53,-116.0278,36.6206,1009.00,81.00,48.00,31.52,170.00,3.00,0.00,30.02,1010.80,10.00,M,CLR,M,M,M,M,M,M,M,M,M,M,M,M,M,M,79.92,KDRA 111053Z AUTO 17003KT 10SM CLR 27/09 A3002 RMK AO2 SLP108 T02720089,M
LOL,2021-09-11 10:53,-118.5701,40.0684,1192.43,62.00,51.00,67.19,50.00,8.00,0.00,30.14,1016.90,10.00,M,SCT,M,M,M,7500.00,M,M,M,M,M,M,M,M,M,M,62.10,KLOL 111053Z AUTO 05008KT 10SM SCT075 17/11 A3014 RMK AO2 SLP169 T01670106,M
VGT,2021-09-11 10:53,-115.1933,36.2111,667.00,83.00,54.00,37.01,350.00,4.00,0.00,29.95,1012.80,10.00,M,CLR,M,M,M,M,M,M,M,M,M,M,M,M,M,M,81.87,KVGT 111053Z AUTO 35004KT 10SM CLR 28/12 A2995 RMK AO2 SLP128 T02830122,M
RTS,2021-09-11 10:55,-119.8764,39.6682,1539.00,50.00,42.80,76.18,310.00,3.00,0.00,30.22,M,10.00,M,CLR,M,M,M,M,M,M,M,M,M,M,M,M,M,M,50.00,KRTS 111055Z AUTO 31003KT 10SM CLR 10/06 A3022 RMK AO2,M
RNO,2021-09-11 10:55,-119.7711,39.4839,1341.00,61.00,45.00,55.57,300.00,3.00,0.00,30.18,1017.10,10.00,M,SCT,M,M,M,6000.00,M,M,M,M,M,M,M,M,M,M,61.00,KRNO 111055Z 30003KT 10SM SCT060 16/07 A3018 RMK AO2 SLP171 T01610072,M
TMT,2021-09-11 10:55,-117.1971,39.4643,1749.34,48.00,48.00,100.00,0.00,0.00,0.00,30.27,M,0.50,M,BKN,M,M,M,200.00,M,M,M,FG,M,M,M,M,M,M,48.00,KTMT 111055Z AUTO 00000KT 1/2SM FG BKN002 09/09 A3027 RMK AO2 T00890089,M
MEV,2021-09-11 10:55,-119.7500,38.9963,1441.42,57.20,46.40,67.12,0.00,0.00,0.00,30.19,M,10.00,M,BKN,OVC,M,M,6500.00,7500.00,M,M,M,M,M,M,M,M,M,57.20,KMEV 111055Z AUTO 00000KT 10SM BKN065 OVC075 14/08 A3019 RMK AO2,M
CXP,2021-09-11 10:55,-119.7326,39.1923,1431.00,62.60,44.60,51.72,350.00,6.00,0.00,30.20,M,10.00,M,BKN,BKN,M,M,7000.00,8000.00,M,M,M,M,M,M,M,M,M,62.60,KCXP 111055Z AUTO 35006KT 10SM BKN070 BKN080 17/07 A3020 RMK AO2,M
BVU,2021-09-11 10:55,-114.8611,35.9475,671.00,77.00,53.60,44.25,0.00,0.00,0.00,29.97,M,10.00,M,CLR,M,M,M,M,M,M,M,M,M,M,M,M,M,M,77.00,KBVU 111055Z AUTO 00000KT 10SM CLR 25/12 A2997 RMK AO2,M
BAM,2021-09-11 10:55,-116.8743,40.5990,1382.36,57.20,53.60,87.74,0.00,0.00,0.00,30.20,M,10.00,M,CLR,M,M,M,M,M,M,M,M,M,M,M,M,M,M,57.20,KBAM 111055Z AUTO 00000KT 10SM CLR 14/12 A3020 RMK AO1,M
HND,2021-09-11 10:56,-115.1344,35.9729,742.79,81.00,54.00,39.37,210.00,5.00,0.00,30.01,1014.40,10.00,M,CLR,M,M,M,M,M,M,M,M,M,M,M,M,M,M,80.59,KHND 111056Z AUTO 21005KT 10SM CLR 27/12 A3001 RMK AO2 SLP144 T02720122,M
NFL,2021-09-11 10:56,-118.7010,39.4166,1199.00,55.00,46.00,71.60,150.00,6.00,0.00,30.14,1017.00,10.00,M,CLR,M,M,M,M,M,M,M,M,M,M,M,M,M,M,55.00,KNFL 111056Z AUTO 15006KT 10SM CLR 13/08 A3014 RMK AO2 SLP170 T01280078,M
WMC,2021-09-11 10:56,-117.8072,40.9019,1315.00,52.00,45.00,76.94,0.00,0.00,0.00,30.17,1018.20,10.00,M,SCT,M,M,M,8500.00,M,M,M,M,M,M,M,M,M,M,52.00,KWMC 111056Z AUTO 00000KT 10SM SCT085 11/07 A3017 RMK AO2 SLP182 T01110072 $,M
EKO,2021-09-11 10:56,-115.7860,40.8242,1367.00,56.00,54.00,93.32,210.00,3.00,0.00,30.22,1018.50,10.00,M,SCT,M,M,M,11000.00,M,M,M,M,M,M,M,M,M,M,55.90,KEKO 111056Z AUTO 21003KT 10SM SCT110 13/12 A3022 RMK AO2 SLP185 T01330122,M
LAS,2021-09-11 10:56,-115.1634,36.0719,663.00,83.00,52.00,34.39,210.00,4.00,0.00,29.97,1011.70,10.00,M,FEW,FEW,M,M,12000.00,25000.00,M,M,M,M,M,M,M,M,M,81.57,KLAS 111056Z 21004KT 10SM FEW120 FEW250 28/11 A2997 RMK AO2 SLP117 T02830111,M
TPH,2021-09-11 10:56,-117.0904,38.0505,1654.00,62.00,53.00,72.33,10.00,12.00,0.00,30.19,1014.20,10.00,M,CLR,M,M,M,M,M,M,M,M,M,M,M,M,M,M,62.10,KTPH 111056Z AUTO 01012KT 10SM CLR 17/12 A3019 RMK AO2 SLP142 T01670117,M
INS,2021-09-11 10:58,-115.6733,36.5872,955.00,77.70,47.00,33.96,240.00,5.00,0.00,30.02,1011.10,10.00,M,CLR,M,M,M,M,M,M,M,M,M,M,M,M,M,M,77.70,KINS 111058Z AUTO 24005KT 10SM CLR 25/08 A3002 RMK AO2 SLP111 T02540084 $,M
LSV,2021-09-11 10:58,-115.0343,36.2362,570.00,84.00,51.00,31.87,90.00,3.00,0.00,29.94,1011.30,10.00,M,CLR,M,M,M,M,M,M,M,M,M,M,M,M,M,M,82.20,KLSV 111058Z AUTO 09003KT 10SM CLR 29/11 A2994 RMK AO2 SLP113 T02890105 $,M
BAM,2021-09-11 11:15,-116.8743,40.5990,1382.36,55.40,55.40,100.00,0.00,0.00,0.00,30.20,M,10.00,M,CLR,M,M,M,M,M,M,M,M,M,M,M,M,M,M,55.40,KBAM 111115Z AUTO 00000KT 10SM CLR 13/13 A3020 RMK AO1,M
RTS,2021-09-11 11:15,-119.8764,39.6682,1539.00,50.00,44.60,81.61,360.00,5.00,0.00,30.22,M,10.00,M,CLR,M,M,M,M,M,M,M,M,M,M,M,M,M,M,50.00,KRTS 111115Z AUTO 36005KT 10SM CLR 10/07 A3022 RMK AO2,M
TMT,2021-09-11 11:15,-117.1971,39.4643,1749.34,45.70,45.70,100.00,180.00,4.00,0.00,30.27,M,0.25,M,OVC,M,M,M,200.00,M,M,M,FG,M,M,M,M,M,M,43.42,KTMT 111115Z AUTO 18004KT M1/4SM FG OVC002 08/08 A3027 RMK AO2 T00760076,M
BVU,2021-09-11 11:15,-114.8611,35.9475,671.00,77.00,53.60,44.25,340.00,3.00,0.00,29.98,M,10.00,M,CLR,M,M,M,M,M,M,M,M,M,M,M,M,M,M,77.00,KBVU 111115Z AUTO 34003KT 10SM CLR 25/12 A2998 RMK AO2,M
CXP,2021-09-11 11:15,-119.7326,39.1923,1431.00,64.40,44.60,48.55,340.00,6.00,0.00,30.20,M,10.00,M,OVC,M,M,M,7000.00,M,M,M,M,M,M,M,M,M,M,64.40,KCXP 111115Z AUTO 34006KT 10SM OVC070 18/07 A3020 RMK AO2,M
MEV,2021-09-11 11:15,-119.7500,38.9963,1441.42,57.20,46.40,67.12,0.00,0.00,0.00,30.19,M,10.00,M,OVC,M,M,M,6500.00,M,M,M,M,M,M,M,M,M,M,57.20,KMEV 111115Z AUTO 00000KT 10SM OVC065 14/08 A3019 RMK AO2,M
MEV,2021-09-11 11:35,-119.7500,38.9963,1441.42,55.40,46.40,71.64,0.00,0.00,0.00,30.19,M,10.00,M,OVC,M,M,M,6500.00,M,M,M,M,M,M,M,M,M,M,55.40,KMEV 111135Z AUTO 00000KT 10SM OVC065 13/08 A3019 RMK AO2,M
TMT,2021-09-11 11:35,-117.1971,39.4643,1749.34,46.60,46.60,100.00,0.00,0.00,0.00,30.27,M,0.25,M,OVC,M,M,M,200.00,M,M,M,FG,M,M,M,M,M,M,46.60,KTMT 111135Z AUTO 00000KT 1/4SM FG OVC002 08/08 A3027 RMK AO2 T00810081,M
BVU,2021-09-11 11:35,-114.8611,35.9475,671.00,78.80,51.80,39.02,360.00,3.00,0.00,29.98,M,10.00,M,CLR,M,M,M,M,M,M,M,M,M,M,M,M,M,M,78.80,KBVU 111135Z AUTO 36003KT 10SM CLR 26/11 A2998 RMK AO2,M
CXP,2021-09-11 11:35,-119.7326,39.1923,1431.00,64.40,44.60,48.55,340.00,6.00,0.00,30.19,M,10.00,M,BKN,BKN,M,M,7000.00,8500.00,M,M,M,M,M,M,M,M,M,64.40,KCXP 111135Z AUTO 34006KT 10SM BKN070 BKN085 18/07 A3019 RMK AO2,M
RTS,2021-09-11 11:35,-119.8764,39.6682,1539.00,50.00,44.60,81.61,340.00,7.00,0.00,30.22,M,10.00,M,CLR,M,M,M,M,M,M,M,M,M,M,M,M,M,M,50.00,KRTS 111135Z AUTO 34007KT 10SM CLR 10/07 A3022 RMK AO2,M
BAM,2021-09-11 11:35,-116.8743,40.5990,1382.36,53.60,53.60,100.00,310.00,3.00,0.00,30.20,M,10.00,M,SCT,M,M,M,11000.00,M,M,M,M,M,M,M,M,M,M,53.60,KBAM 111135Z AUTO 31003KT 10SM SCT110 12/12 A3020 RMK AO1,M
LOL,2021-09-11 11:53,-118.5701,40.0684,1192.43,62.00,52.00,69.46,360.00,7.00,0.00,30.14,1016.90,10.00,M,CLR,M,M,M,M,M,M,M,M,M,M,M,M,M,M,62.10,KLOL 111153Z AUTO 36007KT 10SM CLR 17/11 A3014 RMK AO2 SLP169 70005 T01670111 10178 20128 51005,M
P68,2021-09-11 11:53,-116.0056,39.6014,1993.00,53.00,51.00,92.89,0.00,0.00,0.00,30.26,1016.30,M,M,M,M,M,M,M,M,M,M,M,M,M,M,M,M,M,53.10,KP68 111153Z AUTO 00000KT 12/11 A3026 RMK AO1 SLP163 60005 70005 T01170106 10172 20117 50002,M
VGT,2021-09-11 11:53,-115.1933,36.2111,667.00,82.00,55.00,39.52,250.00,3.00,0.00,29.95,1012.70,10.00,M,CLR,M,M,M,M,M,M,M,M,M,M,M,M,M,M,81.40,KVGT 111153Z AUTO 25003KT 10SM CLR 28/13 A2995 RMK AO2 SLP127 70011 T02780128 10328 20267 50006,M
DRA,2021-09-11 11:53,-116.0278,36.6206,1009.00,82.00,47.00,29.28,150.00,4.00,0.00,30.02,1010.90,10.00,M,CLR,M,M,M,M,M,M,M,M,M,M,M,M,M,M,80.43,KDRA 111153Z AUTO 15004KT 10SM CLR 28/08 A3002 RMK AO2 SLP109 T02780083 10311 20261 50003,M
ELY,2021-09-11 11:53,-114.8453,39.2950,1909.00,57.00,45.00,64.12,340.00,3.00,0.00,30.28,1015.20,10.00,M,FEW,FEW,OVC,M,5500.00,8000.00,10000.00,M,M,M,M,M,M,M,M,57.00,KELY 111153Z AUTO 34003KT 10SM FEW055 FEW080 OVC100 14/07 A3028 RMK AO2 SLP152 T01390072 10189 20117 53007,M
MEV,2021-09-11 11:55,-119.7500,38.9963,1441.42,55.40,46.40,71.64,0.00,0.00,0.00,30.18,M,10.00,M,BKN,OVC,M,M,6500.00,8000.00,M,M,M,M,M,M,M,M,M,55.40,KMEV 111155Z AUTO 00000KT 10SM BKN065 OVC080 13/08 A3018 RMK AO2,M
TMT,2021-09-11 11:55,-117.1971,39.4643,1749.34,46.20,46.20,100.00,0.00,0.00,0.00,30.27,M,0.50,M,OVC,M,M,M,200.00,M,M,M,FG,M,M,M,M,M,M,46.20,KTMT 111155Z AUTO 00000KT 1/2SM FG OVC002 08/08 A3027 RMK AO2 70007 T00790079 10142 20075,M
BVU,2021-09-11 11:55,-114.8611,35.9475,671.00,78.80,51.80,39.02,0.00,0.00,0.00,29.98,M,10.00,M,CLR,M,M,M,M,M,M,M,M,M,M,M,M,M,M,78.80,KBVU 111155Z AUTO 00000KT 10SM CLR 26/11 A2998 RMK AO2,M
CXP,2021-09-11 11:55,-119.7326,39.1923,1431.00,60.80,44.60,55.12,0.00,0.00,0.00,30.19,M,10.00,M,SCT,SCT,M,M,7000.00,7500.00,M,M,M,M,M,M,M,M,M,60.80,KCXP 111155Z AUTO 00000KT 10SM SCT070 SCT075 16/07 A3019 RMK AO2,M
RNO,2021-09-11 11:55,-119.7711,39.4839,1341.00,59.00,45.00,59.67,310.00,3.00,0.00,30.17,1017.00,10.00,M,FEW,M,M,M,6000.00,M,M,M,M,M,M,M,M,M,M,59.00,KRNO 111155Z 31003KT 10SM FEW060 15/07 A3017 RMK AO2 SLP170 70006 T01500072 10200 20150 50003,M
RTS,2021-09-11 11:55,-119.8764,39.6682,1539.00,48.20,42.80,81.47,340.00,4.00,0.00,30.22,M,10.00,M,CLR,M,M,M,M,M,M,M,M,M,M,M,M,M,M,46.34,KRTS 111155Z AUTO 34004KT 10SM CLR 09/06 A3022 RMK AO2,M
BAM,2021-09-11 11:55,-116.8743,40.5990,1382.36,53.60,53.60,100.00,0.00,0.00,0.00,30.20,M,10.00,M,BKN,M,M,M,11000.00,M,M,M,M,M,M,M,M,M,M,53.60,KBAM 111155Z AUTO 00000KT 10SM BKN110 12/12 A3020 RMK AO1,M
HND,2021-09-11 11:56,-115.1344,35.9729,742.79,80.00,54.00,40.54,200.00,9.00,0.00,30.01,1014.50,10.00,M,CLR,M,M,M,M,M,M,M,M,M,M,M,M,M,M,80.04,KHND 111156Z AUTO 20009KT 10SM CLR 27/12 A3001 RMK AO2 SLP145 70017 T02670122 10294 20261 51005,M
EKO,2021-09-11 11:56,-115.7860,40.8242,1367.00,56.00,55.00,96.78,0.00,0.00,0.00,30.23,1019.20,10.00,M,OVC,M,M,M,10000.00,M,M,M,M,M,M,M,M,M,M,55.90,KEKO 111156Z AUTO 00000KT 10SM OVC100 13/13 A3023 RMK AO2 SLP192 60005 70015 T01330128 10172 20128 55004,M
LAS,2021-09-11 11:56,-115.1634,36.0719,663.00,82.00,52.00,35.41,210.00,5.00,0.00,29.96,1011.70,10.00,M,FEW,FEW,M,M,12000.00,25000.00,M,M,M,M,M,M,M,M,M,80.97,KLAS 111156Z 21005KT 10SM FEW120 FEW250 28/11 A2996 RMK AO2 SLP117 70012 T02780111 10317 20278 50004,M
TPH,2021-09-11 11:56,-117.0904,38.0505,1654.00,60.00,51.00,72.13,360.00,9.00,0.00,30.19,1014.50,10.00,M,CLR,M,M,M,M,M,M,M,M,M,M,M,M,M,M,60.10,KTPH 111156Z AUTO 36009KT 10SM CLR 16/11 A3019 RMK AO2 SLP145 T01560106 10239 20150 50002,M
WMC,2021-09-11 11:56,-117.8072,40.9019,1315.00,55.00,49.00,79.85,30.00,4.00,0.00,30.17,1018.00,10.00,M,CLR,M,M,M,M,M,M,M,M,M,M,M,M,M,M,55.00,KWMC 111156Z AUTO 03004KT 10SM CLR 13/09 A3017 RMK AO2 SLP180 7//// T01280094 10172 20100 50005 $,M
NFL,2021-09-11 11:56,-118.7010,39.4166,1199.00,57.00,48.00,71.81,220.00,3.00,0.00,30.14,1017.00,10.00,M,CLR,M,M,M,M,M,M,M,M,M,M,M,M,M,M,57.00,KNFL 111156Z AUTO 22003KT 10SM CLR 14/09 A3014 RMK AO2 SLP170 T01390089 10183 20122 51005,M
LSV,2021-09-11 11:58,-115.0343,36.2362,570.00,85.00,51.00,30.99,190.00,10.00,0.00,29.93,1010.80,10.00,M,CLR,M,M,M,M,M,M,M,M,M,M,M,M,M,M,83.06,KLSV 111158Z AUTO 19010KT 10SM CLR 30/11 A2993 RMK AO2 SLP108 70002 T02950106 10318 20288 50005 $,M
INS,2021-09-11 11:58,-115.6733,36.5872,955.00,75.40,46.60,35.97,0.00,0.00,0.00,30.02,1011.30,10.00,M,CLR,M,M,M,M,M,M,M,M,M,M,M,M,M,M,75.40,KINS 111158Z AUTO 00000KT 10SM CLR 24/08 A3002 RMK AO2 SLP113 T02410081 10307 20241 52005 $,M
RTS,2021-09-11 12:15,-119.8764,39.6682,1539.00,48.20,42.80,81.47,350.00,4.00,0.00,30.22,M,10.00,M,CLR,M,M,M,M,M,M,M,M,M,M,M,M,M,M,46.34,KRTS 111215Z AUTO 35004KT 10SM CLR 09/06 A3022 RMK AO2,M
TMT,2021-09-11 12:15,-117.1971,39.4643,1749.34,45.00,45.00,100.00,0.00,0.00,0.00,30.27,M,1.50,M,SCT,M,M,M,200.00,M,M,M,BR,M,M,M,M,M,M,45.10,KTMT 111215Z AUTO 00000KT 1 1/2SM BR SCT002 07/07 A3027 RMK AO2 VIS 3/4V5 T00730073,M
BAM,2021-09-11 12:15,-116.8743,40.5990,1382.36,55.40,55.40,100.00,30.00,3.00,0.00,30.20,M,10.00,M,SCT,M,M,M,12000.00,M,M,M,M,M,M,M,M,M,M,55.40,KBAM 111215Z AUTO 03003KT 10SM SCT120 13/13 A3020 RMK AO1,M
MEV,2021-09-11 12:15,-119.7500,38.9963,1441.42,55.40,44.60,66.91,190.00,4.00,0.00,30.19,M,10.00,M,OVC,M,M,M,6500.00,M,M,M,M,M,M,M,M,M,M,55.40,KMEV 111215Z AUTO 19004KT 10SM OVC065 13/07 A3019 RMK AO2,M
CXP,2021-09-11 12:15,-119.7326,39.1923,1431.00,59.00,46.40,62.92,0.00,0.00,0.00,30.19,M,10.00,M,SCT,SCT,M,M,7000.00,8000.00,M,M,M,M,M,M,M,M,M,59.00,KCXP 111215Z AUTO 00000KT 10SM SCT070 SCT080 15/08 A3019 RMK AO2,M
BVU,2021-09-11 12:15,-114.8611,35.9475,671.00,77.00,55.40,47.25,20.00,4.00,0.00,29.98,M,10.00,M,CLR,M,M,M,M,M,M,M,M,M,M,M,M,M,M,77.00,KBVU 111215Z AUTO 02004KT 10SM CLR 25/13 A2998 RMK AO2,M
CXP,2021-09-11 12:35,-119.7326,39.1923,1431.00,59.00,44.60,58.77,0.00,0.00,0.00,30.19,M,10.00,M,BKN,M,M,M,7000.00,M,M,M,M,M,M,M,M,M,M,59.00,KCXP 111235Z AUTO 00000KT 10SM BKN070 15/07 A3019 RMK AO2,M
BAM,2021-09-11 12:35,-116.8743,40.5990,1382.36,51.80,51.80,100.00,190.00,3.00,0.00,30.21,M,10.00,M,CLR,M,M,M,M,M,M,M,M,M,M,M,M,M,M,51.80,KBAM 111235Z AUTO 19003KT 10SM CLR 11/11 A3021 RMK AO1,M
RTS,2021-09-11 12:35,-119.8764,39.6682,1539.00,48.20,42.80,81.47,0.00,0.00,0.00,30.22,M,10.00,M,CLR,M,M,M,M,M,M,M,M,M,M,M,M,M,M,48.20,KRTS 111235Z AUTO 00000KT 10SM CLR 09/06 A3022 RMK AO2,M
TMT,2021-09-11 12:35,-117.1971,39.4643,1749.34,45.50,45.50,100.00,240.00,3.00,0.00,30.27,M,0.50,M,BKN,M,M,M,200.00,M,M,M,FG,M,M,M,M,M,M,44.12,KTMT 111235Z AUTO 24003KT 1/2SM FG BKN002 08/08 A3027 RMK AO2 T00750075,M
BVU,2021-09-11 12:35,-114.8611,35.9475,671.00,77.00,51.80,41.42,10.00,4.00,0.00,29.98,M,10.00,M,CLR,M,M,M,M,M,M,M,M,M,M,M,M,M,M,77.00,KBVU 111235Z AUTO 01004KT 10SM CLR 25/11 A2998 RMK AO2,M
MEV,2021-09-11 12:35,-119.7500,38.9963,1441.42,53.60,46.40,76.50,160.00,5.00,0.00,30.19,M,10.00,M,OVC,M,M,M,6500.00,M,M,M,M,M,M,M,M,M,M,53.60,KMEV 111235Z AUTO 16005KT 10SM OVC065 12/08 A3019 RMK AO2,M
VGT,2021-09-11 12:53,-115.1933,36.2111,667.00,80.00,56.00,43.44,290.00,3.00,0.00,29.96,1013.50,10.00,M,CLR,M,M,M,M,M,M,M,M,M,M,M,M,M,M,80.29,KVGT 111253Z AUTO 29003KT 10SM CLR 27/13 A2996 RMK AO2 SLP135 T02670133,M
LOL,2021-09-11 12:53,-118.5701,40.0684,1192.43,60.00,52.00,74.57,40.00,7.00,0.00,30.14,1017.00,10.00,M,CLR,M,M,M,M,M,M,M,M,M,M,M,M,M,M,60.10,KLOL 111253Z AUTO 04007KT 10SM CLR 16/11 A3014 RMK AO2 SLP170 T01560111,M
ELY,2021-09-11 12:53,-114.8453,39.2950,1909.00,59.00,49.00,69.12,70.00,8.00,0.01,30.29,1015.80,10.00,M,BKN,OVC,M,M,7500.00,9500.00,M,M,M,M,M,M,M,M,M,59.00,KELY 111253Z AUTO 07008KT 10SM BKN075 OVC095 15/09 A3029 RMK AO2 RAB10E44 SLP158 P0001 T01500094,M
DRA,2021-09-11 12:53,-116.0278,36.6206,1009.00,79.00,46.00,31.21,M,4.00,0.00,30.03,1011.40,10.00,M,CLR,M,M,M,M,M,M,M,M,M,M,M,M,M,M,79.00,KDRA 111253Z AUTO VRB04KT 10SM CLR 26/08 A3003 RMK AO2 SLP114 T02610078,M
P68,2021-09-11 12:53,-116.0056,39.6014,1993.00,52.00,50.00,92.86,0.00,0.00,0.00,30.26,1017.50,M,M,M,M,M,M,M,M,M,M,M,M,M,M,M,M,M,52.00,KP68 111253Z AUTO 00000KT 11/10 A3026 RMK AO1 SLP175 T01110100,M
RNO,2021-09-11 12:55,-119.7711,39.4839,1341.00,58.00,45.00,62.07,300.00,3.00,0.00,30.18,1017.20,10.00,M,FEW,M,M,M,7000.00,M,M,M,M,M,M,M,M,M,M,57.90,KRNO 111255Z 30003KT 10SM FEW070 14/07 A3018 RMK AO2 SLP172 T01440072,M
BAM,2021-09-11 12:55,-116.8743,40.5990,1382.36,51.80,51.80,100.00,0.00,0.00,0.00,30.21,M,10.00,M,CLR,M,M,M,M,M,M,M,M,M,M,M,M,M,M,51.80,KBAM 111255Z AUTO 00000KT 10SM CLR 11/11 A3021 RMK AO1,M
MEV,2021-09-11 12:55,-119.7500,38.9963,1441.42,53.60,48.20,81.87,120.00,4.00,0.00,30.19,M,10.00,M,BKN,OVC,M,M,6000.00,7500.00,M,M,M,M,M,M,M,M,M,53.60,KMEV 111255Z AUTO 12004KT 10SM BKN060 OVC075 12/09 A3019 RMK AO2,M
TMT,2021-09-11 12:55,-117.1971,39.4643,1749.34,45.50,45.50,100.00,260.00,4.00,0.00,30.27,M,0.50,M,OVC,M,M,M,200.00,M,M,M,FG,M,M,M,M,M,M,43.18,KTMT 111255Z AUTO 26004KT 1/2SM FG OVC002 08/08 A3027 RMK AO2 T00750075,M
CXP,2021-09-11 12:55,-119.7326,39.1923,1431.00,57.20,46.40,67.12,0.00,0.00,0.00,30.20,M,10.00,M,OVC,M,M,M,7000.00,M,M,M,M,M,M,M,M,M,M,57.20,KCXP 111255Z AUTO 00000KT 10SM OVC070 14/08 A3020 RMK AO2,M
BVU,2021-09-11 12:55,-114.8611,35.9475,671.00,77.00,51.80,41.42,0.00,0.00,0.00,29.99,M,10.00,M,CLR,M,M,M,M,M,M,M,M,M,M,M,M,M,M,77.00,KBVU 111255Z AUTO 00000KT 10SM CLR 25/11 A2999 RMK AO2,M
RTS,2021-09-11 12:55,-119.8764,39.6682,1539.00,50.00,44.60,81.61,0.00,0.00,0.00,30.22,M,10.00,M,CLR,M,M,M,M,M,M,M,M,M,M,M,M,M,M,50.00,KRTS 111255Z AUTO 00000KT 10SM CLR 10/07 A3022 RMK AO2,M
HND,2021-09-11 12:56,-115.1344,35.9729,742.79,81.00,53.00,38.09,200.00,11.00,0.00,30.01,1014.70,10.00,M,CLR,M,M,M,M,M,M,M,M,M,M,M,M,M,M,80.47,KHND 111256Z AUTO 20011KT 10SM CLR 27/12 A3001 RMK AO2 SLP147 T02720117,M
EKO,2021-09-11 12:56,-115.7860,40.8242,1367.00,57.00,54.00,89.68,0.00,0.00,0.00,30.23,1019.50,10.00,M,BKN,M,M,M,10000.00,M,M,M,M,M,M,M,M,M,M,57.00,KEKO 111256Z AUTO 00000KT 10SM BKN100 14/12 A3023 RMK AO2 SLP195 T01390122,M
NFL,2021-09-11 12:56,-118.7010,39.4166,1199.00,52.00,45.00,76.94,170.00,4.00,0.00,30.13,1017.00,10.00,M,CLR,M,M,M,M,M,M,M,M,M,M,M,M,M,M,52.00,KNFL 111256Z AUTO 17004KT 10SM CLR 11/07 A3013 RMK AO2 SLP170 T01110072,M
LAS,2021-09-11 12:56,-115.1634,36.0719,663.00,83.00,52.00,34.39,210.00,6.00,0.00,29.98,1012.20,10.00,M,FEW,FEW,M,M,12000.00,25000.00,M,M,M,M,M,M,M,M,M,81.57,KLAS 111256Z 21006KT 10SM FEW120 FEW250 28/11 A2998 RMK AO2 SLP122 T02830111,M
TPH,2021-09-11 12:56,-117.0904,38.0505,1654.00,60.00,50.00,69.24,340.00,8.00,0.00,30.20,1015.40,10.00,M,CLR,M,M,M,M,M,M,M,M,M,M,M,M,M,M,60.10,KTPH 111256Z AUTO 34008KT 10SM CLR 16/10 A3020 RMK AO2 SLP154 T01560100,M
WMC,2021-09-11 12:56,-117.8072,40.9019,1315.00,49.00,45.00,86.33,0.00,0.00,0.00,30.18,1018.80,10.00,M,CLR,M,M,M,M,M,M,M,M,M,M,M,M,M,M,48.90,KWMC 111256Z AUTO 00000KT 10SM CLR 09/07 A3018 RMK AO2 SLP188 T00940072 $,M
LSV,2021-09-11 12:58,-115.0343,36.2362,570.00,84.60,51.40,31.84,0.00,0.00,0.00,29.95,1011.60,10.00,M,CLR,M,M,M,M,M,M,M,M,M,M,M,M,M,M,82.72,KLSV 111258Z AUTO 00000KT 10SM CLR 29/11 A2995 RMK AO2 SLP116 T02920108 $,M
INS,2021-09-11 12:58,-115.6733,36.5872,955.00,74.70,46.00,35.86,0.00,0.00,0.00,30.04,1012.10,10.00,M,CLR,M,M,M,M,M,M,M,M,M,M,M,M,M,M,74.70,KINS 111258Z AUTO 00000KT 10SM CLR 24/08 A3004 RMK AO2 SLP121 T02370077 $,M
MEV,2021-09-11 13:15,-119.7500,38.9963,1441.42,55.40,46.40,71.64,0.00,0.00,0.00,30.19,M,10.00,M,OVC,M,M,M,7000.00,M,M,M,M,M,M,M,M,M,M,55.40,KMEV 111315Z AUTO 00000KT 10SM OVC070 13/08 A3019 RMK AO2,M
CXP,2021-09-11 13:15,-119.7326,39.1923,1431.00,59.00,46.40,62.92,0.00,0.00,0.00,30.20,M,10.00,M,BKN,BKN,M,M,7000.00,8000.00,M,M,M,M,M,M,M,M,M,59.00,KCXP 111315Z AUTO 00000KT 10SM BKN070 BKN080 15/08 A3020 RMK AO2,M
RTS,2021-09-11 13:15,-119.8764,39.6682,1539.00,48.20,44.60,87.28,0.00,0.00,0.00,30.22,M,10.00,M,CLR,M,M,M,M,M,M,M,M,M,M,M,M,M,M,48.20,KRTS 111315Z AUTO 00000KT 10SM CLR 09/07 A3022 RMK AO2,M
TMT,2021-09-11 13:15,-117.1971,39.4643,1749.34,47.00,47.00,100.00,240.00,6.00,0.00,30.27,M,0.25,M,OVC,M,M,M,200.00,M,M,M,FG,M,M,M,M,M,M,43.72,KTMT 111315Z AUTO 24006KT 1/4SM FG OVC002 08/08 A3027 RMK AO2 T00840084,M
BVU,2021-09-11 13:15,-114.8611,35.9475,671.00,77.00,53.60,44.25,20.00,4.00,0.00,30.00,M,10.00,M,CLR,M,M,M,M,M,M,M,M,M,M,M,M,M,M,77.00,KBVU 111315Z AUTO 02004KT 10SM CLR 25/12 A3000 RMK AO2,M
BAM,2021-09-11 13:15,-116.8743,40.5990,1382.36,51.80,51.80,100.00,0.00,0.00,0.00,30.21,M,10.00,M,CLR,M,M,M,M,M,M,M,M,M,M,M,M,M,M,51.80,KBAM 111315Z AUTO 00000KT 10SM CLR 11/11 A3021 RMK AO1,M
BVU,2021-09-11 13:35,-114.8611,35.9475,671.00,78.80,53.60,41.69,0.00,0.00,0.00,30.00,M,10.00,M,CLR,M,M,M,M,M,M,M,M,M,M,M,M,M,M,78.80,KBVU 111335Z AUTO 00000KT 10SM CLR 26/12 A3000 RMK AO2,M
RTS,2021-09-11 13:35,-119.8764,39.6682,1539.00,46.40,42.80,87.19,350.00,5.00,0.00,30.22,M,10.00,M,CLR,M,M,M,M,M,M,M,M,M,M,M,M,M,M,43.50,KRTS 111335Z AUTO 35005KT 10SM CLR 08/06 A3022 RMK AO2,M
CXP,2021-09-11 13:35,-119.7326,39.1923,1431.00,57.20,44.60,62.69,0.00,0.00,0.00,30.20,M,10.00,M,SCT,SCT,M,M,7000.00,8000.00,M,M,M,M,M,M,M,M,M,57.20,KCXP 111335Z AUTO 00000KT 10SM SCT070 SCT080 14/07 A3020 RMK AO2,M
MEV,2021-09-11 13:35,-119.7500,38.9963,1441.42,53.60,46.40,76.50,0.00,0.00,0.00,30.19,M,10.00,M,BKN,BKN,M,M,7000.00,8000.00,M,M,M,M,M,M,M,M,M,53.60,KMEV 111335Z AUTO 00000KT 10SM BKN070 BKN080 12/08 A3019 RMK AO2,M
BAM,2021-09-11 13:35,-116.8743,40.5990,1382.36,53.60,53.60,100.00,0.00,0.00,0.00,30.21,M,10.00,M,CLR,M,M,M,M,M,M,M,M,M,M,M,M,M,M,53.60,KBAM 111335Z AUTO 00000KT 10SM CLR 12/12 A3021 RMK AO1,M
TMT,2021-09-11 13:35,-117.1971,39.4643,1749.34,48.20,48.20,100.00,220.00,3.00,0.00,30.28,M,0.50,M,OVC,M,M,M,200.00,M,M,M,FG,M,M,M,M,M,M,47.21,KTMT 111335Z AUTO 22003KT 1/2SM FG OVC002 09/09 A3028 RMK AO2 T00900090,M
VGT,2021-09-11 13:53,-115.1933,36.2111,667.00,79.00,56.00,45.04,270.00,5.00,0.00,29.98,1014.20,10.00,M,CLR,M,M,M,M,M,M,M,M,M,M,M,M,M,M,79.00,KVGT 111353Z 27005KT 10SM CLR 26/13 A2998 RMK AO2 SLP142 T02610133,M
P68,2021-09-11 13:53,-116.0056,39.6014,1993.00,50.00,48.00,92.80,0.00,0.00,0.00,30.27,1018.50,M,M,M,M,M,M,M,M,M,M,M,M,M,M,M,M,M,50.00,KP68 111353Z AUTO 00000KT 10/09 A3027 RMK AO1 SLP185 T01000089,M
DRA,2021-09-11 13:53,-116.0278,36.6206,1009.00,79.00,45.00,30.05,160.00,3.00,0.00,30.05,1012.10,10.00,M,CLR,M,M,M,M,M,M,M,M,M,M,M,M,M,M,79.00,KDRA 111353Z AUTO 16003KT 10SM CLR 26/07 A3005 RMK AO2 SLP121 T02610072,M
ELY,2021-09-11 13:53,-114.8453,39.2950,1909.00,57.00,52.00,83.33,40.00,9.00,0.01,30.28,1016.20,10.00,M,FEW,BKN,OVC,M,7000.00,9000.00,11000.00,M,M,M,M,M,M,M,M,57.00,KELY 111353Z AUTO 04009KT 10SM FEW070 BKN090 OVC110 14/11 A3028 RMK AO2 LTG DSNT S AND W RAB1256E49 SLP162 P0001 T01390111,M
LOL,2021-09-11 13:53,-118.5701,40.0684,1192.43,60.00,52.00,74.57,20.00,6.00,0.00,30.15,1017.50,10.00,M,CLR,M,M,M,M,M,M,M,M,M,M,M,M,M,M,60.10,KLOL 111353Z AUTO 02006KT 10SM CLR 16/11 A3015 RMK AO2 SLP175 T01560111,M
RTS,2021-09-11 13:55,-119.8764,39.6682,1539.00,48.20,44.60,87.28,350.00,5.00,0.00,30.23,M,10.00,M,CLR,M,M,M,M,M,M,M,M,M,M,M,M,M,M,45.63,KRTS 111355Z AUTO 35005KT 10SM CLR 09/07 A3023 RMK AO2,M
BVU,2021-09-11 13:55,-114.8611,35.9475,671.00,78.80,53.60,41.69,0.00,0.00,0.00,30.00,M,10.00,M,CLR,M,M,M,M,M,M,M,M,M,M,M,M,M,M,78.80,KBVU 111355Z AUTO 00000KT 10SM CLR 26/12 A3000 RMK AO2,M
CXP,2021-09-11 13:55,-119.7326,39.1923,1431.00,57.20,44.60,62.69,0.00,0.00,0.00,30.21,M,10.00,M,FEW,M,M,M,7000.00,M,M,M,M,M,M,M,M,M,M,57.20,KCXP 111355Z AUTO 00000KT 10SM FEW070 14/07 A3021 RMK AO2,M
MEV,2021-09-11 13:55,-119.7500,38.9963,1441.42,53.60,46.40,76.50,0.00,0.00,0.00,30.20,M,10.00,M,OVC,M,M,M,7000.00,M,M,M,M,M,M,M,M,M,M,53.60,KMEV 111355Z AUTO 00000KT 10SM OVC070 12/08 A3020 RMK AO2,M
BAM,2021-09-11 13:55,-116.8743,40.5990,1382.36,53.60,53.60,100.00,0.00,0.00,0.00,30.21,M,10.00,M,CLR,M,M,M,M,M,M,M,M,M,M,M,M,M,M,53.60,KBAM 111355Z AUTO 00000KT 10SM CLR 12/12 A3021 RMK AO1,M
TMT,2021-09-11 13:55,-117.1971,39.4643,1749.34,49.00,49.00,100.00,0.00,0.00,0.00,30.27,M,7.00,M,OVC,M,M,M,200.00,M,M,M,M,M,M,M,M,M,M,49.10,KTMT 111355Z AUTO 00000KT 7SM OVC002 10/10 A3027 RMK AO2 T00950095,M
RNO,2021-09-11 13:55,-119.7711,39.4839,1341.00,57.00,45.00,64.12,300.00,5.00,0.00,30.19,1017.90,10.00,M,FEW,M,M,M,7000.00,M,M,M,M,M,M,M,M,M,M,57.00,KRNO 111355Z 30005KT 10SM FEW070 14/07 A3019 RMK AO2 SLP179 T01390072,M
EKO,2021-09-11 13:56,-115.7860,40.8242,1367.00,54.00,52.00,92.92,0.00,0.00,0.00,30.24,1020.10,10.00,M,OVC,M,M,M,11000.00,M,M,M,M,M,M,M,M,M,M,54.00,KEKO 111356Z AUTO 00000KT 10SM OVC110 12/11 A3024 RMK AO2 SLP201 T01220111,M
HND,2021-09-11 13:56,-115.1344,35.9729,742.79,81.00,53.00,38.09,190.00,10.00,0.00,30.03,1015.50,10.00,M,CLR,M,M,M,M,M,M,M,M,M,M,M,M,M,M,80.47,KHND 111356Z 19010KT 10SM CLR 27/12 A3003 RMK AO2 SLP155 T02720117,M
WMC,2021-09-11 13:56,-117.8072,40.9019,1315.00,49.00,45.00,86.33,130.00,3.00,0.00,30.19,1019.30,10.00,M,OVC,M,M,M,7500.00,M,M,M,M,M,M,M,M,M,M,48.01,KWMC 111356Z AUTO 13003KT 10SM OVC075 09/07 A3019 RMK AO2 SLP193 T00940072 $,M
TPH,2021-09-11 13:56,-117.0904,38.0505,1654.00,58.00,49.00,71.90,360.00,9.00,0.00,30.21,1016.10,10.00,M,CLR,M,M,M,M,M,M,M,M,M,M,M,M,M,M,57.90,KTPH 111356Z AUTO 36009KT 10SM CLR 14/09 A3021 RMK AO2 SLP161 T01440094,M
LAS,2021-09-11 13:56,-115.1634,36.0719,663.00,82.00,52.00,35.41,190.00,4.00,0.00,30.00,1012.80,10.00,M,FEW,M,M,M,25000.00,M,M,M,M,M,M,M,M,M,M,80.97,KLAS 111356Z 19004KT 10SM FEW250 28/11 A3000 RMK AO2 SLP128 T02780111,M
NFL,2021-09-11 13:56,-118.7010,39.4166,1199.00,54.00,45.00,71.50,0.00,0.00,0.00,30.15,1017.30,10.00,M,CLR,M,M,M,M,M,M,M,M,M,M,M,M,M,M,54.00,KNFL 111356Z AUTO 00000KT 10SM CLR 12/07 A3015 RMK AO2 SLP173 T01220072,M
INS,2021-09-11 13:58,-115.6733,36.5872,955.00,73.60,46.40,37.92,0.00,0.00,0.00,30.06,1013.00,10.00,M,CLR,M,M,M,M,M,M,M,M,M,M,M,M,M,M,73.60,KINS 111358Z AUTO 00000KT 10SM CLR 23/08 A3006 RMK AO2 SLP130 T02310080 $,M
LSV,2021-09-11 13:58,-115.0343,36.2362,570.00,82.20,52.50,35.83,360.00,5.00,0.00,29.97,1012.30,10.00,M,CLR,M,M,M,M,M,M,M,M,M,M,M,M,M,M,81.16,KLSV 111358Z AUTO 36005KT 10SM CLR 28/11 A2997 RMK AO2 SLP123 T02790114 $,M
TMT,2021-09-11 14:15,-117.1971,39.4643,1749.34,48.70,48.70,100.00,0.00,0.00,0.00,30.28,M,10.00,M,OVC,M,M,M,200.00,M,M,M,M,M,M,M,M,M,M,48.70,KTMT 111415Z AUTO 00000KT 10SM OVC002 09/09 A3028 RMK AO2 T00930093,M
RTS,2021-09-11 14:15,-119.8764,39.6682,1539.00,46.40,42.80,87.19,340.00,4.00,0.00,30.23,M,10.00,M,CLR,M,M,M,M,M,M,M,M,M,M,M,M,M,M,44.24,KRTS 111415Z AUTO 34004KT 10SM CLR 08/06 A3023 RMK AO2,M
MEV,2021-09-11 14:15,-119.7500,38.9963,1441.42,55.40,46.40,71.64,0.00,0.00,0.00,30.20,M,10.00,M,BKN,OVC,M,M,6500.00,7500.00,M,M,M,M,M,M,M,M,M,55.40,KMEV 111415Z AUTO 00000KT 10SM BKN065 OVC075 13/08 A3020 RMK AO2,M
BAM,2021-09-11 14:15,-116.8743,40.5990,1382.36,53.60,53.60,100.00,0.00,0.00,0.00,30.21,M,10.00,M,CLR,M,M,M,M,M,M,M,M,M,M,M,M,M,M,53.60,KBAM 111415Z AUTO 00000KT 10SM CLR 12/12 A3021 RMK AO1,M
CXP,2021-09-11 14:15,-119.7326,39.1923,1431.00,59.00,46.40,62.92,0.00,0.00,0.00,30.21,M,10.00,M,SCT,M,M,M,7000.00,M,M,M,M,M,M,M,M,M,M,59.00,KCXP 111415Z AUTO 00000KT 10SM SCT070 15/08 A3021 RMK AO2,M
ELY,2021-09-11 14:32,-114.8453,39.2950,1909.00,57.00,53.00,86.77,120.00,5.00,0.06,30.33,M,2.50,M,SCT,BKN,OVC,M,7000.00,8000.00,10000.00,M,RA BR,M,M,M,M,M,M,57.00,KELY 111432Z AUTO 12005KT 2 1/2SM RA BR SCT070 BKN080 OVC100 14/12 A3033 RMK AO2 LTG DSNT SE AND S RAB1356E06B23 P0006 T01390117,M
MEV,2021-09-11 14:35,-119.7500,38.9963,1441.42,57.20,48.20,71.83,70.00,4.00,0.00,30.21,M,10.00,M,BKN,M,M,M,6500.00,M,M,M,M,M,M,M,M,M,M,57.20,KMEV 111435Z AUTO 07004KT 10SM BKN065 14/09 A3021 RMK AO2,M
TMT,2021-09-11 14:35,-117.1971,39.4643,1749.34,49.30,49.30,100.00,0.00,0.00,0.00,30.28,M,0.25,M,OVC,M,M,M,200.00,M,M,M,FG,M,M,M,M,M,M,49.30,KTMT 111435Z AUTO 00000KT M1/4SM FG OVC002 10/10 A3028 RMK AO2 LTG DSNT E T00960096,M
CXP,2021-09-11 14:35,-119.7326,39.1923,1431.00,59.00,46.40,62.92,0.00,0.00,0.00,30.22,M,10.00,M,FEW,M,M,M,7000.00,M,M,M,M,M,M,M,M,M,M,59.00,KCXP 111435Z AUTO 00000KT 10SM FEW070 15/08 A3022 RMK AO2,M
RTS,2021-09-11 14:35,-119.8764,39.6682,1539.00,50.00,44.60,81.61,340.00,5.00,0.00,30.24,M,10.00,M,CLR,M,M,M,M,M,M,M,M,M,M,M,M,M,M,50.00,KRTS 111435Z AUTO 34005KT 10SM CLR 10/07 A3024 RMK AO2,M
BVU,2021-09-11 14:35,-114.8611,35.9475,671.00,82.40,51.80,34.69,0.00,0.00,0.00,30.02,M,10.00,M,CLR,M,M,M,M,M,M,M,M,M,M,M,M,M,M,81.20,KBVU 111435Z AUTO 00000KT 10SM CLR 28/11 A3002 RMK AO2,M
BAM,2021-09-11 14:35,-116.8743,40.5990,1382.36,55.40,55.40,100.00,20.00,3.00,0.00,30.22,M,10.00,M,CLR,M,M,M,M,M,M,M,M,M,M,M,M,M,M,55.40,KBAM 111435Z AUTO 02003KT 10SM CLR 13/13 A3022 RMK AO1,M
ELY,2021-09-11 14:39,-114.8453,39.2950,1909.00,56.00,54.00,93.32,110.00,8.00,0.06,30.33,M,9.00,M,SCT,BKN,OVC,M,7000.00,8000.00,9500.00,M,-RA,M,M,M,M,M,M,55.90,KELY 111439Z AUTO 11008KT 9SM -RA SCT070 BKN080 OVC095 13/12 A3033 RMK AO2 LTG DSNT SE RAB1356E06B23 P0006 T01330122,M
LOL,2021-09-11 14:53,-118.5701,40.0684,1192.43,59.00,50.00,72.01,220.00,4.00,0.00,30.17,1018.60,10.00,M,CLR,M,M,M,M,M,M,M,M,M,M,M,M,M,M,59.00,KLOL 111453Z AUTO 22004KT 10SM CLR 15/10 A3017 RMK AO2 SLP186 T01500100 53008,M
VGT,2021-09-11 14:53,-115.1933,36.2111,667.00,82.00,56.00,40.83,0.00,0.00,0.00,30.00,1014.70,10.00,M,CLR,M,M,M,M,M,M,M,M,M,M,M,M,M,M,81.55,KVGT 111453Z 00000KT 10SM CLR 28/13 A3000 RMK AO2 SLP147 T02780133 51017,M
DRA,2021-09-11 14:53,-116.0278,36.6206,1009.00,85.00,46.00,25.77,180.00,8.00,0.00,30.06,1012.30,10.00,M,CLR,M,M,M,M,M,M,M,M,M,M,M,M,M,M,82.35,KDRA 111453Z AUTO 18008KT 10SM CLR 29/08 A3006 RMK AO2 SLP123 T02940078 53012,M
P68,2021-09-11 14:53,-116.0056,39.6014,1993.00,55.00,53.00,93.29,200.00,3.00,0.01,30.28,1018.80,M,M,M,M,M,M,M,M,M,M,M,M,M,M,M,M,M,55.00,KP68 111453Z AUTO 20003KT 13/12 A3028 RMK AO1 SLP188 P0001 60001 T01280117 53006,M
ELY,2021-09-11 14:53,-114.8453,39.2950,1909.00,57.00,54.00,89.68,140.00,5.00,0.06,30.32,1018.10,10.00,M,SCT,BKN,M,M,7500.00,9500.00,M,M,M,M,M,M,M,M,M,57.00,KELY 111453Z AUTO 14005KT 10SM SCT075 BKN095 14/12 A3032 RMK AO2 LTG DSNT SE RAB1356E06B23E44 SLP181 P0006 60008 T01390122 53013,M
BAM,2021-09-11 14:55,-116.8743,40.5990,1382.36,59.00,59.00,100.00,30.00,5.00,0.00,30.22,M,10.00,M,SCT,M,M,M,11000.00,M,M,M,M,M,M,M,M,M,M,59.00,KBAM 111455Z AUTO 03005KT 10SM SCT110 15/15 A3022 RMK AO1,M
RNO,2021-09-11 14:55,-119.7711,39.4839,1341.00,58.00,45.00,62.07,290.00,5.00,0.00,30.21,1018.60,10.00,M,FEW,M,M,M,7000.00,M,M,M,M,M,M,M,M,M,M,57.90,KRNO 111455Z 29005KT 10SM FEW070 14/07 A3021 RMK AO2 SLP186 T01440072 53010,M
MEV,2021-09-11 14:55,-119.7500,38.9963,1441.42,59.00,48.20,67.33,0.00,0.00,0.00,30.21,M,10.00,M,SCT,M,M,M,6500.00,M,M,M,M,M,M,M,M,M,M,59.00,KMEV 111455Z AUTO 00000KT 10SM SCT065 15/09 A3021 RMK AO2,M
RTS,2021-09-11 14:55,-119.8764,39.6682,1539.00,53.60,46.40,76.50,0.00,0.00,0.00,30.25,M,10.00,M,CLR,M,M,M,M,M,M,M,M,M,M,M,M,M,M,53.60,KRTS 111455Z AUTO 00000KT 10SM CLR 12/08 A3025 RMK AO2,M
CXP,2021-09-11 14:55,-119.7326,39.1923,1431.00,60.80,46.40,59.01,0.00,0.00,0.00,30.23,M,10.00,M,SCT,M,M,M,7000.00,M,M,M,M,M,M,M,M,M,M,60.80,KCXP 111455Z AUTO 00000KT 10SM SCT070 16/08 A3023 RMK AO2,M
BVU,2021-09-11 14:55,-114.8611,35.9475,671.00,84.20,50.00,30.62,0.00,0.00,0.00,30.02,M,10.00,M,CLR,M,M,M,M,M,M,M,M,M,M,M,M,M,M,82.24,KBVU 111455Z AUTO 00000KT 10SM CLR 29/10 A3002 RMK AO2,M
TMT,2021-09-11 14:55,-117.1971,39.4643,1749.34,50.40,50.40,100.00,0.00,0.00,0.00,30.29,M,0.25,M,OVC,M,M,M,200.00,M,M,M,FG,M,M,M,M,M,M,50.40,KTMT 111455Z AUTO 00000KT M1/4SM FG OVC002 10/10 A3029 RMK AO2 T01020102,M
HND,2021-09-11 14:56,-115.1344,35.9729,742.79,85.00,53.00,33.57,200.00,7.00,0.00,30.05,1016.00,10.00,M,CLR,M,M,M,M,M,M,M,M,M,M,M,M,M,M,83.21,KHND 111456Z 20007KT 10SM CLR 29/12 A3005 RMK AO2 SLP160 T02940117 53013,M
TPH,2021-09-11 14:56,-117.0904,38.0505,1654.00,65.00,49.00,56.12,10.00,7.00,0.00,30.23,1016.30,10.00,M,CLR,M,M,M,M,M,M,M,M,M,M,M,M,M,M,64.90,KTPH 111456Z AUTO 01007KT 10SM CLR 18/09 A3023 RMK AO2 SLP163 T01830094 53012,M
LAS,2021-09-11 14:56,-115.1634,36.0719,663.00,85.00,52.00,32.24,190.00,8.00,0.00,30.01,1013.40,10.00,M,FEW,M,M,M,25000.00,M,M,M,M,M,M,M,M,M,M,83.03,KLAS 111456Z 19008KT 10SM FEW250 29/11 A3001 RMK AO2 SLP134 T02940111 53016,M
EKO,2021-09-11 14:56,-115.7860,40.8242,1367.00,56.00,55.00,96.78,0.00,0.00,0.00,30.25,1020.80,10.00,M,SCT,M,M,M,10000.00,M,M,M,M,M,M,M,M,M,M,55.90,KEKO 111456Z AUTO 00000KT 10SM SCT100 13/13 A3025 RMK AO2 SLP208 T01330128 53005,M
WMC,2021-09-11 14:56,-117.8072,40.9019,1315.00,59.00,49.00,69.12,M,3.00,0.00,30.20,1019.20,10.00,M,BKN,M,M,M,7500.00,M,M,M,M,M,M,M,M,M,M,59.00,KWMC 111456Z AUTO VRB03KT 10SM BKN075 15/09 A3020 RMK AO2 SLP192 T01500094 53009 $,M
INS,2021-09-11 14:58,-115.6733,36.5872,955.00,77.50,47.00,33.93,80.00,3.00,0.00,30.07,1013.20,10.00,M,CLR,M,M,M,M,M,M,M,M,M,M,M,M,M,M,77.50,KINS 111458Z AUTO 08003KT 10SM CLR 25/08 A3007 RMK AO2 SLP132 T02530083 52014 $,M
LSV,2021-09-11 14:58,-115.0343,36.2362,570.00,85.50,53.80,33.79,60.00,5.00,0.00,29.99,1012.90,10.00,M,CLR,M,M,M,M,M,M,M,M,M,M,M,M,M,M,83.81,KLSV 111458Z AUTO 06005KT 10SM CLR 30/12 A2999 RMK AO2 SLP129 T02970121 52018 $,M
MEV,2021-09-11 15:15,-119.7500,38.9963,1441.42,62.60,48.20,59.26,0.00,0.00,0.00,30.21,M,10.00,M,SCT,M,M,M,6500.00,M,M,M,M,M,M,M,M,M,M,62.60,KMEV 111515Z AUTO 00000KT 10SM SCT065 17/09 A3021 RMK AO2,M
TMT,2021-09-11 15:15,-117.1971,39.4643,1749.34,51.30,51.30,100.00,0.00,0.00,0.00,30.29,M,0.25,M,OVC,M,M,M,200.00,M,M,M,FG,M,M,M,M,M,M,51.30,KTMT 111515Z AUTO 00000KT M1/4SM FG OVC002 11/11 A3029 RMK AO2 T01070107,M
RTS,2021-09-11 15:15,-119.8764,39.6682,1539.00,57.20,46.40,67.12,0.00,0.00,0.00,30.25,M,10.00,M,CLR,M,M,M,M,M,M,M,M,M,M,M,M,M,M,57.20,KRTS 111515Z AUTO 00000KT 10SM CLR 14/08 A3025 RMK AO2,M
BVU,2021-09-11 15:15,-114.8611,35.9475,671.00,86.00,51.80,30.90,110.00,4.00,0.00,30.02,M,10.00,M,CLR,M,M,M,M,M,M,M,M,M,M,M,M,M,M,83.87,KBVU 111515Z AUTO 11004KT 10SM CLR 30/11 A3002 RMK AO2,M
CXP,2021-09-11 15:15,-119.7326,39.1923,1431.00,62.60,46.40,55.37,0.00,0.00,0.00,30.23,M,10.00,M,FEW,M,M,M,7000.00,M,M,M,M,M,M,M,M,M,M,62.60,KCXP 111515Z AUTO 00000KT 10SM FEW070 17/08 A3023 RMK AO2,M
BAM,2021-09-11 15:15,-116.8743,40.5990,1382.36,60.80,57.20,87.92,30.00,5.00,0.00,30.22,M,10.00,M,SCT,M,M,M,11000.00,M,M,M,M,M,M,M,M,M,M,60.80,KBAM 111515Z AUTO 03005KT 10SM SCT110 16/14 A3022 RMK AO1,M
RTS,2021-09-11 15:35,-119.8764,39.6682,1539.00,59.00,46.40,62.92,0.00,0.00,0.00,30.25,M,10.00,M,CLR,M,M,M,M,M,M,M,M,M,M,M,M,M,M,59.00,KRTS 111535Z AUTO 00000KT 10SM CLR 15/08 A3025 RMK AO2,M
CXP,2021-09-11 15:35,-119.7326,39.1923,1431.00,64.40,46.40,51.98,0.00,0.00,0.00,30.23,M,10.00,M,CLR,M,M,M,M,M,M,M,M,M,M,M,M,M,M,64.40,KCXP 111535Z AUTO 00000KT 10SM CLR 18/08 A3023 RMK AO2,M
BVU,2021-09-11 15:35,-114.8611,35.9475,671.00,87.80,50.00,27.29,130.00,4.00,0.00,30.02,M,10.00,M,CLR,M,M,M,M,M,M,M,M,M,M,M,M,M,M,85.11,KBVU 111535Z AUTO 13004KT 10SM CLR 31/10 A3002 RMK AO2,M
BAM,2021-09-11 15:35,-116.8743,40.5990,1382.36,64.40,57.20,77.45,70.00,6.00,0.00,30.23,M,10.00,M,CLR,M,M,M,M,M,M,M,M,M,M,M,M,M,M,64.40,KBAM 111535Z AUTO 07006KT 10SM CLR 18/14 A3023 RMK AO1,M
MEV,2021-09-11 15:35,-119.7500,38.9963,1441.42,64.40,48.20,55.63,0.00,0.00,0.00,30.21,M,10.00,M,FEW,M,M,M,6500.00,M,M,M,M,M,M,M,M,M,M,64.40,KMEV 111535Z AUTO 00000KT 10SM FEW065 18/09 A3021 RMK AO2,M
TMT,2021-09-11 15:35,-117.1971,39.4643,1749.34,53.00,53.00,100.00,0.00,0.00,0.00,30.29,M,0.50,M,OVC,M,M,M,200.00,M,M,M,FG,M,M,M,M,M,M,52.90,KTMT 111535Z AUTO 00000KT 1/2SM FG OVC002 12/12 A3029 RMK AO2 T01160116,M
P68,2021-09-11 15:53,-116.0056,39.6014,1993.00,62.00,53.00,72.33,0.00,0.00,0.00,30.28,1017.90,M,M,M,M,M,M,M,M,M,M,M,M,M,M,M,M,M,62.10,KP68 111553Z AUTO 00000KT 17/12 A3028 RMK AO1 SLP179 T01670117,M
LOL,2021-09-11 15:53,-118.5701,40.0684,1192.43,68.00,54.00,60.86,40.00,10.00,0.00,30.17,1018.40,10.00,M,CLR,M,M,M,M,M,M,M,M,M,M,M,M,M,M,68.00,KLOL 111553Z AUTO 04010KT 10SM CLR 20/12 A3017 RMK AO2 SLP184 T02000122,M
DRA,2021-09-11 15:53,-116.0278,36.6206,1009.00,89.00,46.00,22.54,180.00,11.00,0.00,30.07,1012.50,10.00,M,CLR,M,M,M,M,M,M,M,M,M,M,M,M,M,M,85.76,KDRA 111553Z AUTO 18011KT 10SM CLR 32/08 A3007 RMK AO2 SLP125 T03170078,M
ELY,2021-09-11 15:53,-114.8453,39.2950,1909.00,59.00,53.00,80.75,220.00,8.00,0.00,30.30,1017.10,10.00,M,BKN,M,M,M,9000.00,M,M,M,M,M,M,M,M,M,M,59.00,KELY 111553Z AUTO 22008KT 10SM BKN090 15/12 A3030 RMK AO2 SLP171 T01500117,M
VGT,2021-09-11 15:53,-115.1933,36.2111,667.00,88.00,54.00,31.43,0.00,0.00,0.00,30.00,1014.80,10.00,M,CLR,M,M,M,M,M,M,M,M,M,M,M,M,M,M,85.98,KVGT 111553Z 00000KT 10SM CLR 31/12 A3000 RMK AO2 SLP148 T03110122,M
TMT,2021-09-11 15:55,-117.1971,39.4643,1749.34,53.80,53.80,100.00,0.00,0.00,0.00,30.29,M,2.00,M,OVC,M,M,M,200.00,M,M,M,BR,M,M,M,M,M,M,53.80,KTMT 111555Z AUTO 00000KT 2SM BR OVC002 12/12 A3029 RMK AO2 T01210121,M
MEV,2021-09-11 15:55,-119.7500,38.9963,1441.42,64.40,48.20,55.63,0.00,0.00,0.00,30.21,M,10.00,M,CLR,M,M,M,M,M,M,M,M,M,M,M,M,M,M,64.40,KMEV 111555Z AUTO 00000KT 10SM CLR 18/09 A3021 RMK AO2,M
RNO,2021-09-11 15:55,-119.7711,39.4839,1341.00,63.00,45.00,51.78,0.00,0.00,0.00,30.21,1018.40,10.00,M,FEW,M,M,M,7000.00,M,M,M,M,M,M,M,M,M,M,63.00,KRNO 111555Z 00000KT 10SM FEW070 17/07 A3021 RMK AO2 SLP184 T01720072,M
CXP,2021-09-11 15:55,-119.7326,39.1923,1431.00,66.20,46.40,48.83,0.00,0.00,0.00,30.22,M,10.00,M,CLR,M,M,M,M,M,M,M,M,M,M,M,M,M,M,66.20,KCXP 111555Z AUTO 00000KT 10SM CLR 19/08 A3022 RMK AO2,M
RTS,2021-09-11 15:55,-119.8764,39.6682,1539.00,60.80,46.40,59.01,0.00,0.00,0.00,30.24,M,10.00,M,CLR,M,M,M,M,M,M,M,M,M,M,M,M,M,M,60.80,KRTS 111555Z AUTO 00000KT 10SM CLR 16/08 A3024 RMK AO2,M
BVU,2021-09-11 15:55,-114.8611,35.9475,671.00,89.60,50.00,25.79,0.00,0.00,0.00,30.02,M,10.00,M,CLR,M,M,M,M,M,M,M,M,M,M,M,M,M,M,86.70,KBVU 111555Z AUTO 00000KT 10SM CLR 32/10 A3002 RMK AO2,M
BAM,2021-09-11 15:55,-116.8743,40.5990,1382.36,66.20,59.00,77.60,40.00,8.00,0.00,30.23,M,10.00,M,CLR,M,M,M,M,M,M,M,M,M,M,M,M,M,M,66.20,KBAM 111555Z AUTO 04008KT 10SM CLR 19/15 A3023 RMK AO1,M
TPH,2021-09-11 15:56,-117.0904,38.0505,1654.00,71.00,48.00,43.83,40.00,4.00,0.00,30.23,1015.50,10.00,M,CLR,M,M,M,M,M,M,M,M,M,M,M,M,M,M,71.10,KTPH 111556Z AUTO 04004KT 10SM CLR 22/09 A3023 RMK AO2 SLP155 T02170089,M
EKO,2021-09-11 15:56,-115.7860,40.8242,1367.00,62.00,56.00,80.11,0.00,0.00,0.00,30.25,1020.40,10.00,M,CLR,M,M,M,M,M,M,M,M,M,M,M,M,M,M,62.10,KEKO 111556Z AUTO 00000KT 10SM CLR 17/13 A3025 RMK AO2 SLP204 T01670133,M
LAS,2021-09-11 15:56,-115.1634,36.0719,663.00,89.00,52.00,28.21,180.00,7.00,0.00,30.02,1013.40,10.00,M,FEW,FEW,M,M,14000.00,25000.00,M,M,M,M,M,M,M,M,M,86.58,KLAS 111556Z 18007KT 10SM FEW140 FEW250 32/11 A3002 RMK AO2 SLP134 T03170111,M
HND,2021-09-11 15:56,-115.1344,35.9729,742.79,89.00,52.00,28.21,190.00,9.00,0.00,30.05,1016.00,10.00,M,CLR,M,M,M,M,M,M,M,M,M,M,M,M,M,M,86.58,KHND 111556Z 19009KT 10SM CLR 32/11 A3005 RMK AO2 SLP160 T03170111,M
NFL,2021-09-11 15:56,-118.7010,39.4166,1199.00,69.00,48.00,46.92,300.00,4.00,0.00,30.17,1018.10,10.00,M,FEW,FEW,M,M,6000.00,10000.00,M,M,M,M,M,M,M,M,M,69.10,KNFL 111556Z 30004KT 10SM FEW060 FEW100 21/09 A3017 RMK AO2 SLP181 T02060089,M
WMC,2021-09-11 15:56,-117.8072,40.9019,1315.00,64.00,49.00,57.91,30.00,6.00,0.00,30.21,1019.10,10.00,M,BKN,M,M,M,7500.00,M,M,M,M,M,M,M,M,M,M,64.00,KWMC 111556Z AUTO 03006KT 10SM BKN075 18/09 A3021 RMK AO2 SLP191 T01780094 $,M
LSV,2021-09-11 15:58,-115.0343,36.2362,570.00,90.00,51.40,26.82,0.00,0.00,0.00,29.99,1012.90,10.00,M,CLR,M,M,M,M,M,M,M,M,M,M,M,M,M,M,87.29,KLSV 111558Z AUTO 00000KT 10SM CLR 32/11 A2999 RMK AO2 SLP129 T03220108 $,M
INS,2021-09-11 15:58,-115.6733,36.5872,955.00,82.60,47.00,28.93,90.00,4.00,0.00,30.07,1013.00,10.00,M,CLR,M,M,M,M,M,M,M,M,M,M,M,M,M,M,80.83,KINS 111558Z AUTO 09004KT 10SM CLR 28/08 A3007 RMK AO2 SLP130 T02810084 $,M
CXP,2021-09-11 16:15,-119.7326,39.1923,1431.00,66.20,46.40,48.83,0.00,0.00,0.00,30.22,M,10.00,M,CLR,M,M,M,M,M,M,M,M,M,M,M,M,M,M,66.20,KCXP 111615Z AUTO 00000KT 10SM CLR 19/08 A3022 RMK AO2,M
RTS,2021-09-11 16:15,-119.8764,39.6682,1539.00,62.60,46.40,55.37,0.00,0.00,0.00,30.25,M,10.00,M,CLR,M,M,M,M,M,M,M,M,M,M,M,M,M,M,62.60,KRTS 111615Z AUTO 00000KT 10SM CLR 17/08 A3025 RMK AO2,M
BAM,2021-09-11 16:15,-116.8743,40.5990,1382.36,66.20,57.20,72.74,20.00,8.00,0.00,30.23,M,10.00,M,SCT,M,M,M,11000.00,M,M,M,M,M,M,M,M,M,M,66.20,KBAM 111615Z AUTO 02008KT 10SM SCT110 19/14 A3023 RMK AO1,M
MEV,2021-09-11 16:15,-119.7500,38.9963,1441.42,66.20,48.20,52.25,0.00,0.00,0.00,30.21,M,10.00,M,CLR,M,M,M,M,M,M,M,M,M,M,M,M,M,M,66.20,KMEV 111615Z AUTO 00000KT 10SM CLR 19/09 A3021 RMK AO2,M
TMT,2021-09-11 16:15,-117.1971,39.4643,1749.34,55.40,54.70,97.49,0.00,0.00,0.00,30.29,M,5.00,M,OVC,M,M,M,200.00,M,M,M,BR,M,M,M,M,M,M,55.40,KTMT 111615Z AUTO 00000KT 5SM BR OVC002 13/13 A3029 RMK AO2 LTG DSNT SE T01300126,M
BVU,2021-09-11 16:15,-114.8611,35.9475,671.00,89.60,50.00,25.79,150.00,3.00,0.00,30.03,M,10.00,M,CLR,M,M,M,M,M,M,M,M,M,M,M,M,M,M,86.70,KBVU 111615Z AUTO 15003KT 10SM CLR 32/10 A3003 RMK AO2 LTG DSNT NE,M
RTS,2021-09-11 16:35,-119.8764,39.6682,1539.00,64.40,46.40,51.98,0.00,0.00,0.00,30.25,M,10.00,M,CLR,M,M,M,M,M,M,M,M,M,M,M,M,M,M,64.40,KRTS 111635Z AUTO 00000KT 10SM CLR 18/08 A3025 RMK AO2,M
BVU,2021-09-11 16:35,-114.8611,35.9475,671.00,91.40,50.00,24.37,M,5.00,0.00,30.03,M,10.00,M,CLR,M,M,M,M,M,M,M,M,M,M,M,M,M,M,88.36,KBVU 111635Z AUTO VRB05KT 10SM CLR 33/10 A3003 RMK AO2,M
MEV,2021-09-11 16:35,-119.7500,38.9963,1441.42,68.00,48.20,49.10,0.00,0.00,0.00,30.21,M,10.00,M,CLR,M,M,M,M,M,M,M,M,M,M,M,M,M,M,68.00,KMEV 111635Z AUTO 00000KT 10SM CLR 20/09 A3021 RMK AO2,M
TMT,2021-09-11 16:35,-117.1971,39.4643,1749.34,58.00,56.00,93.71,0.00,0.00,0.00,30.28,M,10.00,M,BKN,M,M,M,400.00,M,M,M,M,M,M,M,M,M,M,57.90,KTMT 111635Z AUTO 00000KT 10SM BKN004 14/13 A3028 RMK AO2 LTG DSNT SE T01440134,M
BAM,2021-09-11 16:35,-116.8743,40.5990,1382.36,68.00,59.00,72.92,40.00,6.00,0.00,30.23,M,10.00,M,SCT,M,M,M,11000.00,M,M,M,M,M,M,M,M,M,M,68.00,KBAM 111635Z AUTO 04006KT 10SM SCT110 20/15 A3023 RMK AO1,M
CXP,2021-09-11 16:35,-119.7326,39.1923,1431.00,71.60,44.60,37.89,0.00,0.00,0.00,30.22,M,10.00,M,CLR,M,M,M,M,M,M,M,M,M,M,M,M,M,M,71.60,KCXP 111635Z AUTO 00000KT 10SM CLR 22/07 A3022 RMK AO2,M
VGT,2021-09-11 16:53,-115.1933,36.2111,667.00,89.00,54.00,30.36,0.00,0.00,0.00,30.01,1014.90,10.00,M,CLR,M,M,M,M,M,M,M,M,M,M,M,M,M,M,86.98,KVGT 111653Z 00000KT 10SM CLR 32/12 A3001 RMK AO2 SLP149 T03170122,M
LOL,2021-09-11 16:53,-118.5701,40.0684,1192.43,73.00,53.00,49.66,40.00,8.00,0.00,30.18,1018.30,10.00,M,FEW,M,M,M,8000.00,M,M,M,M,M,M,M,M,M,M,73.00,KLOL 111653Z AUTO 04008KT 10SM FEW080 23/12 A3018 RMK AO2 SLP183 T02280117,M
P68,2021-09-11 16:53,-116.0056,39.6014,1993.00,66.00,54.00,65.21,M,3.00,0.00,30.28,1018.00,M,M,M,M,M,M,M,M,M,M,M,M,M,M,M,M,M,66.00,KP68 111653Z AUTO VRB03KT 19/12 A3028 RMK AO1 SLP180 T01890122,M
DRA,2021-09-11 16:53,-116.0278,36.6206,1009.00,90.00,43.00,19.55,220.00,15.00,0.00,30.08,1012.80,10.00,22.00,CLR,M,M,M,M,M,M,M,M,M,M,M,M,M,M,86.29,KDRA 111653Z AUTO 22015G22KT 10SM CLR 32/06 A3008 RMK AO2 SLP128 T03220061,M
ELY,2021-09-11 16:53,-114.8453,39.2950,1909.00,64.00,54.00,69.92,170.00,5.00,0.00,30.31,1017.40,10.00,M,BKN,M,M,M,8000.00,M,M,M,M,M,M,M,M,M,M,64.00,KELY 111653Z AUTO 17005KT 10SM BKN080 18/12 A3031 RMK AO2 SLP174 T01780122,M
MEV,2021-09-11 16:55,-119.7500,38.9963,1441.42,69.80,48.20,46.16,0.00,0.00,0.00,30.21,M,10.00,M,CLR,M,M,M,M,M,M,M,M,M,M,M,M,M,M,69.80,KMEV 111655Z AUTO 00000KT 10SM CLR 21/09 A3021 RMK AO2,M
CXP,2021-09-11 16:55,-119.7326,39.1923,1431.00,73.40,46.40,38.18,0.00,0.00,0.00,30.22,M,10.00,M,CLR,M,M,M,M,M,M,M,M,M,M,M,M,M,M,73.40,KCXP 111655Z AUTO 00000KT 10SM CLR 23/08 A3022 RMK AO2,M
RTS,2021-09-11 16:55,-119.8764,39.6682,1539.00,66.20,44.60,45.60,0.00,0.00,0.00,30.24,M,10.00,M,CLR,M,M,M,M,M,M,M,M,M,M,M,M,M,M,66.20,KRTS 111655Z AUTO 00000KT 10SM CLR 19/07 A3024 RMK AO2,M
BAM,2021-09-11 16:55,-116.8743,40.5990,1382.36,68.00,59.00,72.92,10.00,6.00,0.00,30.23,M,10.00,M,CLR,M,M,M,M,M,M,M,M,M,M,M,M,M,M,68.00,KBAM 111655Z AUTO 01006KT 10SM CLR 20/15 A3023 RMK AO1,M
BVU,2021-09-11 16:55,-114.8611,35.9475,671.00,93.20,48.20,21.54,M,4.00,0.00,30.03,M,10.00,M,CLR,M,M,M,M,M,M,M,M,M,M,M,M,M,M,89.80,KBVU 111655Z AUTO VRB04KT 10SM CLR 34/09 A3003 RMK AO2,M
RNO,2021-09-11 16:55,-119.7711,39.4839,1341.00,69.00,46.00,43.52,0.00,0.00,0.00,30.21,1018.10,10.00,M,FEW,M,M,M,7000.00,M,M,M,M,M,M,M,M,M,M,69.10,KRNO 111655Z 00000KT 10SM FEW070 21/08 A3021 RMK AO2 SLP181 T02060078,M
TMT,2021-09-11 16:55,-117.1971,39.4643,1749.34,60.00,56.70,89.15,0.00,0.00,0.00,30.29,M,10.00,M,SCT,M,M,M,400.00,M,M,M,M,M,M,M,M,M,M,59.90,KTMT 111655Z AUTO 00000KT 10SM SCT004 16/14 A3029 RMK AO2 T01550137,M
HND,2021-09-11 16:56,-115.1344,35.9729,742.79,92.00,52.00,25.84,210.00,10.00,0.00,30.06,1016.20,10.00,M,CLR,M,M,M,M,M,M,M,M,M,M,M,M,M,M,89.21,KHND 111656Z 21010KT 10SM CLR 33/11 A3006 RMK AO2 SLP162 T03330111,M
LAS,2021-09-11 16:56,-115.1634,36.0719,663.00,93.00,51.00,24.15,180.00,6.00,0.00,30.02,1013.70,10.00,M,FEW,M,M,M,14000.00,M,M,M,M,M,M,M,M,M,M,90.11,KLAS 111656Z 18006KT 10SM FEW140 34/11 A3002 RMK AO2 SLP137 T03390106,M
TPH,2021-09-11 16:56,-117.0904,38.0505,1654.00,72.00,47.00,40.79,160.00,3.00,0.00,30.24,1015.80,10.00,M,CLR,M,M,M,M,M,M,M,M,M,M,M,M,M,M,72.00,KTPH 111656Z AUTO 16003KT 10SM CLR 22/08 A3024 RMK AO2 SLP158 T02220083,M
NFL,2021-09-11 16:56,-118.7010,39.4166,1199.00,73.00,48.00,41.10,0.00,0.00,0.00,30.18,1018.30,10.00,M,FEW,M,M,M,6000.00,M,M,M,M,M,M,M,M,M,M,73.00,KNFL 111656Z 00000KT 10SM FEW060 23/09 A3018 RMK AO2 SLP183 T02280089,M
WMC,2021-09-11 16:56,-117.8072,40.9019,1315.00,70.00,52.00,52.80,40.00,9.00,0.00,30.21,1019.20,10.00,M,SCT,M,M,M,8000.00,M,M,M,M,M,M,M,M,M,M,70.00,KWMC 111656Z AUTO 04009KT 10SM SCT080 21/11 A3021 RMK AO2 SLP192 T02110111 $,M
EKO,2021-09-11 16:56,-115.7860,40.8242,1367.00,66.00,54.00,65.21,0.00,0.00,0.00,30.26,1020.30,10.00,M,SCT,M,M,M,10000.00,M,M,M,M,M,M,M,M,M,M,66.00,KEKO 111656Z AUTO 00000KT 10SM SCT100 19/12 A3026 RMK AO2 SLP203 T01890122,M
INS,2021-09-11 16:58,-115.6733,36.5872,955.00,87.60,47.50,25.02,110.00,7.00,0.00,30.07,1012.80,10.00,M,CLR,M,M,M,M,M,M,M,M,M,M,M,M,M,M,84.63,KINS 111658Z AUTO 11007KT 10SM CLR 31/09 A3007 RMK AO2 SLP128 T03090086 $,M
LSV,2021-09-11 16:58,-115.0343,36.2362,570.00,92.70,51.60,24.83,200.00,4.00,0.00,30.00,1013.20,10.00,M,CLR,M,M,M,M,M,M,M,M,M,M,M,M,M,M,89.91,KLSV 111658Z AUTO 20004KT 10SM CLR 34/11 A3000 RMK AO2 SLP132 T03370109 $,M
MEV,2021-09-11 17:15,-119.7500,38.9963,1441.42,71.60,46.40,40.57,0.00,0.00,0.00,30.21,M,10.00,M,CLR,M,M,M,M,M,M,M,M,M,M,M,M,M,M,71.60,KMEV 111715Z AUTO 00000KT 10SM CLR 22/08 A3021 RMK AO2,M
BVU,2021-09-11 17:15,-114.8611,35.9475,671.00,93.20,48.20,21.54,160.00,6.00,0.00,30.03,M,10.00,M,CLR,M,M,M,M,M,M,M,M,M,M,M,M,M,M,89.80,KBVU 111715Z AUTO 16006KT 10SM CLR 34/09 A3003 RMK AO2,M
BAM,2021-09-11 17:15,-116.8743,40.5990,1382.36,69.80,59.00,68.55,40.00,5.00,0.00,30.23,M,10.00,M,CLR,M,M,M,M,M,M,M,M,M,M,M,M,M,M,69.80,KBAM 111715Z AUTO 04005KT 10SM CLR 21/15 A3023 RMK AO1,M
TMT,2021-09-11 17:15,-117.1971,39.4643,1749.34,61.70,57.60,86.39,0.00,0.00,0.00,30.28,M,10.00,M,CLR,M,M,M,M,M,M,M,M,M,M,M,M,M,M,61.70,KTMT 111715Z AUTO 00000KT 10SM CLR 17/14 A3028 RMK AO2 T01650142,M
RTS,2021-09-11 17:15,-119.8764,39.6682,1539.00,68.00,42.80,40.00,M,4.00,0.00,30.24,M,10.00,M,CLR,M,M,M,M,M,M,M,M,M,M,M,M,M,M,68.00,KRTS 111715Z AUTO VRB04KT 10SM CLR 20/06 A3024 RMK AO2,M
CXP,2021-09-11 17:15,-119.7326,39.1923,1431.00,73.40,46.40,38.18,0.00,0.00,0.00,30.22,M,10.00,M,CLR,M,M,M,M,M,M,M,M,M,M,M,M,M,M,73.40,KCXP 111715Z AUTO 00000KT 10SM CLR 23/08 A3022 RMK AO2,M
BVU,2021-09-11 17:35,-114.8611,35.9475,671.00,95.00,48.20,20.38,240.00,4.00,0.00,30.03,M,10.00,M,CLR,M,M,M,M,M,M,M,M,M,M,M,M,M,M,91.56,KBVU 111735Z AUTO 24004KT 10SM CLR 35/09 A3003 RMK AO2,M
CXP,2021-09-11 17:35,-119.7326,39.1923,1431.00,77.00,46.40,33.85,M,3.00,0.00,30.22,M,10.00,M,CLR,M,M,M,M,M,M,M,M,M,M,M,M,M,M,77.00,KCXP 111735Z AUTO VRB03KT 10SM CLR 25/08 A3022 RMK AO2,M
TMT,2021-09-11 17:35,-117.1971,39.4643,1749.34,63.30,57.20,80.49,0.00,0.00,0.00,30.29,M,10.00,M,CLR,M,M,M,M,M,M,M,M,M,M,M,M,M,M,63.30,KTMT 111735Z AUTO 00000KT 10SM CLR 17/14 A3029 RMK AO2 T01740140,M
BAM,2021-09-11 17:35,-116.8743,40.5990,1382.36,71.60,59.00,64.48,30.00,7.00,0.00,30.23,M,10.00,M,CLR,M,M,M,M,M,M,M,M,M,M,M,M,M,M,71.60,KBAM 111735Z AUTO 03007KT 10SM CLR 22/15 A3023 RMK AO1,M
MEV,2021-09-11 17:35,-119.7500,38.9963,1441.42,73.40,48.20,40.85,M,5.00,0.00,30.20,M,10.00,M,CLR,M,M,M,M,M,M,M,M,M,M,M,M,M,M,73.40,KMEV 111735Z AUTO VRB05KT 10SM CLR 23/09 A3020 RMK AO2,M
RTS,2021-09-11 17:35,-119.8764,39.6682,1539.00,69.80,42.80,37.61,0.00,0.00,0.00,30.24,M,10.00,M,CLR,M,M,M,M,M,M,M,M,M,M,M,M,M,M,69.80,KRTS 111735Z AUTO 00000KT 10SM CLR 21/06 A3024 RMK AO2,M
VGT,2021-09-11 17:53,-115.1933,36.2111,667.00,96.00,52.00,22.69,130.00,8.00,0.00,30.00,1014.50,10.00,M,CLR,M,M,M,M,M,M,M,M,M,M,M,M,M,M,93.44,KVGT 111753Z 13008KT 10SM CLR 36/11 A3000 RMK AO2 SLP145 T03560111 10356 20250 50001,M
DRA,2021-09-11 17:53,-116.0278,36.6206,1009.00,92.00,43.00,18.42,210.00,10.00,0.00,30.08,1012.90,10.00,22.00,CLR,M,M,M,M,M,M,M,M,M,M,M,M,M,M,87.99,KDRA 111753Z AUTO 21010G22KT 10SM CLR 33/06 A3008 RMK AO2 SLP129 T03330061 10333 20250 51006,M
ELY,2021-09-11 17:53,-114.8453,39.2950,1909.00,67.00,55.00,65.56,160.00,6.00,0.00,30.30,1017.10,10.00,M,BKN,BKN,M,M,7500.00,9000.00,M,M,M,M,M,M,M,M,M,66.90,KELY 111753Z AUTO 16006KT 10SM BKN075 BKN090 19/13 A3030 RMK AO2 SLP171 60008 T01940128 10194 20133 56005,M
P68,2021-09-11 17:53,-116.0056,39.6014,1993.00,70.00,52.00,52.80,30.00,4.00,0.00,30.27,1017.50,M,M,M,M,M,M,M,M,M,M,M,M,M,M,M,M,M,70.00,KP68 111753Z AUTO 03004KT 21/11 A3027 RMK AO1 SLP175 60001 T02110111 10211 20094 58002,M
LOL,2021-09-11 17:53,-118.5701,40.0684,1192.43,79.00,50.00,36.27,M,5.00,0.00,30.17,1018.40,10.00,M,CLR,M,M,M,M,M,M,M,M,M,M,M,M,M,M,79.00,KLOL 111753Z AUTO VRB05KT 10SM CLR 26/10 A3017 RMK AO2 SLP184 T02610100 10261 20139 50001,M
RTS,2021-09-11 17:55,-119.8764,39.6682,1539.00,71.60,42.80,35.37,M,3.00,0.00,30.24,M,10.00,M,CLR,M,M,M,M,M,M,M,M,M,M,M,M,M,M,71.60,KRTS 111755Z AUTO VRB03KT 10SM CLR 22/06 A3024 RMK AO2,M
CXP,2021-09-11 17:55,-119.7326,39.1923,1431.00,77.00,46.40,33.85,0.00,0.00,0.00,30.21,M,10.00,M,CLR,M,M,M,M,M,M,M,M,M,M,M,M,M,M,77.00,KCXP 111755Z AUTO 00000KT 10SM CLR 25/08 A3021 RMK AO2,M
BVU,2021-09-11 17:55,-114.8611,35.9475,671.00,95.00,48.20,20.38,0.00,0.00,0.00,30.02,M,10.00,10.00,CLR,M,M,M,M,M,M,M,M,M,M,M,M,M,M,91.56,KBVU 111755Z AUTO 00000G10KT 10SM CLR 35/09 A3002 RMK AO2,M
TMT,2021-09-11 17:55,-117.1971,39.4643,1749.34,65.50,57.40,75.07,330.00,3.00,0.00,30.28,M,10.00,M,CLR,M,M,M,M,M,M,M,M,M,M,M,M,M,M,65.50,KTMT 111755Z AUTO 33003KT 10SM CLR 19/14 A3028 RMK AO2 LTG DSNT E T01860141 10186 20070,M
MEV,2021-09-11 17:55,-119.7500,38.9963,1441.42,75.20,48.20,38.46,300.00,5.00,0.00,30.20,M,10.00,M,CLR,M,M,M,M,M,M,M,M,M,M,M,M,M,M,75.20,KMEV 111755Z AUTO 30005KT 10SM CLR 24/09 A3020 RMK AO2,M
BAM,2021-09-11 17:55,-116.8743,40.5990,1382.36,73.40,59.00,60.67,40.00,5.00,0.00,30.23,M,10.00,M,SCT,M,M,M,11000.00,M,M,M,M,M,M,M,M,M,M,73.40,KBAM 111755Z AUTO 04005KT 10SM SCT110 23/15 A3023 RMK AO1,M
RNO,2021-09-11 17:55,-119.7711,39.4839,1341.00,74.00,46.00,36.98,0.00,0.00,0.00,30.20,1017.50,10.00,M,FEW,M,M,M,7000.00,M,M,M,M,M,M,M,M,M,M,73.90,KRNO 111755Z 00000KT 10SM FEW070 23/08 A3020 RMK AO2 SLP175 T02330078 10233 20139 58004,M
EKO,2021-09-11 17:56,-115.7860,40.8242,1367.00,72.00,53.00,51.37,340.00,3.00,0.00,30.25,1020.00,10.00,M,SCT,M,M,M,10000.00,M,M,M,M,M,M,M,M,M,M,72.00,KEKO 111756Z AUTO 34003KT 10SM SCT100 22/12 A3025 RMK AO2 SLP200 T02220117 10222 20117 50000,M
NFL,2021-09-11 17:56,-118.7010,39.4166,1199.00,78.00,47.00,33.26,M,4.00,0.00,30.17,1018.10,10.00,M,FEW,M,M,M,7000.00,M,M,M,M,M,M,M,M,M,M,78.10,KNFL 111756Z VRB04KT 10SM FEW070 26/08 A3017 RMK AO2 SLP181 T02560083 10256 20111 50002,M
TPH,2021-09-11 17:56,-117.0904,38.0505,1654.00,77.00,45.00,32.10,M,M,0.00,30.24,1015.70,10.00,M,CLR,M,M,M,M,M,M,M,M,M,M,M,M,M,M,77.00,KTPH 111756Z AUTO 10SM CLR 25/07 A3024 RMK AO2 SLP157 T02500072 10256 20139 53002,M
HND,2021-09-11 17:56,-115.1344,35.9729,742.79,95.00,51.00,22.70,220.00,8.00,0.00,30.06,1016.10,10.00,M,CLR,M,M,M,M,M,M,M,M,M,M,M,M,M,M,92.11,KHND 111756Z 22008KT 10SM CLR 35/11 A3006 RMK AO2 SLP161 T03500106 10350 20267 50002,M
LAS,2021-09-11 17:56,-115.1634,36.0719,663.00,96.00,48.00,19.55,190.00,9.00,0.00,30.02,1013.40,10.00,15.00,FEW,M,M,M,14000.00,M,M,M,M,M,M,M,M,M,M,92.62,KLAS 111756Z 19009G15KT 10SM FEW140 36/09 A3002 RMK AO2 SLP134 T03560089 10361 20272 50001,M
WMC,2021-09-11 17:56,-117.8072,40.9019,1315.00,76.00,50.00,40.19,20.00,5.00,0.00,30.20,1018.60,10.00,M,CLR,M,M,M,M,M,M,M,M,M,M,M,M,M,M,75.90,KWMC 111756Z AUTO 02005KT 10SM CLR 24/10 A3020 RMK AO2 SLP186 T02440100 10244 20083 58000 $,M
LSV,2021-09-11 17:58,-115.0343,36.2362,570.00,96.30,50.00,20.94,180.00,9.00,0.00,29.99,1012.80,10.00,M,CLR,M,M,M,M,M,M,M,M,M,M,M,M,M,M,93.20,KLSV 111758Z AUTO 18009KT 10SM CLR 36/10 A2999 RMK AO2 SLP128 T03570100 10357 20277 50000 $,M
INS,2021-09-11 17:58,-115.6733,36.5872,955.00,91.00,44.40,19.98,80.00,6.00,0.00,30.07,1012.70,10.00,M,CLR,M,M,M,M,M,M,M,M,M,M,M,M,M,M,87.30,KINS 111758Z AUTO 08006KT 10SM CLR 33/07 A3007 RMK AO2 SLP127 T03280069 10328 20225 50000 $,M
CXP,2021-09-11 18:10,-119.7326,39.1923,1431.00,77.00,44.60,31.62,M,3.00,0.00,30.21,M,10.00,M,CLR,M,M,M,M,M,M,M,M,M,M,M,M,M,M,77.00,KCXP 111810Z AUTO VRB03KT 10SM CLR 25/07 A3021 RMK AO2,M
TMT,2021-09-11 18:15,-117.1971,39.4643,1749.34,67.30,56.70,68.77,0.00,0.00,0.00,30.28,M,10.00,M,CLR,M,M,M,M,M,M,M,M,M,M,M,M,M,M,67.30,KTMT 111815Z AUTO 00000KT 10SM CLR 20/14 A3028 RMK AO2 T01960137,M
BAM,2021-09-11 18:15,-116.8743,40.5990,1382.36,73.40,57.20,56.88,40.00,4.00,0.00,30.23,M,10.00,M,SCT,M,M,M,11000.00,M,M,M,M,M,M,M,M,M,M,73.40,KBAM 111815Z AUTO 04004KT 10SM SCT110 23/14 A3023 RMK AO1,M
RTS,2021-09-11 18:15,-119.8764,39.6682,1539.00,73.40,44.60,35.66,130.00,7.00,0.00,30.24,M,10.00,M,CLR,M,M,M,M,M,M,M,M,M,M,M,M,M,M,73.40,KRTS 111815Z AUTO 13007KT 10SM CLR 23/07 A3024 RMK AO2,M
BVU,2021-09-11 18:15,-114.8611,35.9475,671.00,96.80,48.20,19.28,M,4.00,0.00,30.02,M,10.00,10.00,CLR,M,M,M,M,M,M,M,M,M,M,M,M,M,M,93.36,KBVU 111815Z AUTO VRB04G10KT 10SM CLR 36/09 A3002 RMK AO2,M
MEV,2021-09-11 18:15,-119.7500,38.9963,1441.42,75.20,46.40,35.94,260.00,4.00,0.00,30.19,M,10.00,M,CLR,M,M,M,M,M,M,M,M,M,M,M,M,M,M,75.20,KMEV 111815Z AUTO 26004KT 10SM CLR 24/08 A3019 RMK AO2,M
CXP,2021-09-11 18:35,-119.7326,39.1923,1431.00,80.60,42.80,26.22,140.00,5.00,0.00,30.20,M,10.00,M,CLR,M,M,M,M,M,M,M,M,M,M,M,M,M,M,79.30,KCXP 111835Z AUTO 14005KT 10SM CLR 27/06 A3020 RMK AO2,M
BAM,2021-09-11 18:35,-116.8743,40.5990,1382.36,77.00,55.40,47.25,0.00,0.00,0.00,30.22,M,10.00,M,SCT,M,M,M,10000.00,M,M,M,M,M,M,M,M,M,M,77.00,KBAM 111835Z AUTO 00000KT 10SM SCT100 25/13 A3022 RMK AO1,M
MEV,2021-09-11 18:35,-119.7500,38.9963,1441.42,78.80,46.40,31.90,0.00,0.00,0.00,30.18,M,10.00,M,CLR,M,M,M,M,M,M,M,M,M,M,M,M,M,M,78.80,KMEV 111835Z AUTO 00000KT 10SM CLR 26/08 A3018 RMK AO2,M
RTS,2021-09-11 18:35,-119.8764,39.6682,1539.00,73.40,44.60,35.66,M,4.00,0.00,30.23,M,10.00,M,CLR,M,M,M,M,M,M,M,M,M,M,M,M,M,M,73.40,KRTS 111835Z AUTO VRB04KT 10SM CLR 23/07 A3023 RMK AO2,M
BVU,2021-09-11 18:35,-114.8611,35.9475,671.00,95.00,50.00,21.79,0.00,0.00,0.00,30.01,M,10.00,M,CLR,M,M,M,M,M,M,M,M,M,M,M,M,M,M,91.89,KBVU 111835Z AUTO 00000KT 10SM CLR 35/10 A3001 RMK AO2,M
TMT,2021-09-11 18:35,-117.1971,39.4643,1749.34,69.00,56.30,63.71,230.00,3.00,0.00,30.27,M,10.00,M,CLR,M,M,M,M,M,M,M,M,M,M,M,M,M,M,69.10,KTMT 111835Z AUTO 23003KT 10SM CLR 21/14 A3027 RMK AO2 T02060135,M
LOL,2021-09-11 18:53,-118.5701,40.0684,1192.43,81.00,47.00,30.24,M,4.00,0.00,30.15,1017.50,10.00,M,CLR,M,M,M,M,M,M,M,M,M,M,M,M,M,M,79.83,KLOL 111853Z AUTO VRB04KT 10SM CLR 27/08 A3015 RMK AO2 SLP175 T02720083,M
VGT,2021-09-11 18:53,-115.1933,36.2111,667.00,99.00,50.00,19.28,110.00,7.00,0.00,29.97,1013.50,10.00,M,CLR,M,M,M,M,M,M,M,M,M,M,M,M,M,M,95.97,KVGT 111853Z 11007KT 080V140 10SM CLR 37/10 A2997 RMK AO2 SLP135 T03720100,M
P68,2021-09-11 18:53,-116.0056,39.6014,1993.00,74.00,53.00,48.18,M,5.00,0.00,30.25,1016.30,M,M,M,M,M,M,M,M,M,M,M,M,M,M,M,M,M,73.90,KP68 111853Z AUTO VRB05KT 23/12 A3025 RMK AO1 SLP163 T02330117,M
DRA,2021-09-11 18:53,-116.0278,36.6206,1009.00,95.00,42.00,16.16,190.00,12.00,0.00,30.06,1012.00,10.00,24.00,CLR,M,M,M,M,M,M,M,M,M,M,M,26.00,200.00,2021-09-11 18:20,90.79,KDRA 111853Z AUTO 19012G24KT 10SM CLR 35/06 A3006 RMK AO2 PK WND 20026/1820 SLP120 T03500056,M
ELY,2021-09-11 18:53,-114.8453,39.2950,1909.00,72.00,55.00,55.06,M,3.00,T,30.28,1015.30,10.00,M,CLR,M,M,M,M,M,M,M,M,M,M,M,M,M,M,72.00,KELY 111853Z AUTO VRB03KT 10SM CLR 22/13 A3028 RMK AO2 RAB11E20 SLP153 P0000 T02220128,M
MEV,2021-09-11 18:55,-119.7500,38.9963,1441.42,78.80,44.60,29.79,0.00,0.00,0.00,30.18,M,10.00,M,CLR,M,M,M,M,M,M,M,M,M,M,M,M,M,M,78.80,KMEV 111855Z AUTO 00000KT 10SM CLR 26/07 A3018 RMK AO2,M
CXP,2021-09-11 18:55,-119.7326,39.1923,1431.00,82.40,42.80,24.72,M,5.00,0.00,30.19,M,10.00,M,CLR,M,M,M,M,M,M,M,M,M,M,M,M,M,M,80.39,KCXP 111855Z AUTO VRB05KT 10SM CLR 28/06 A3019 RMK AO2,M
BVU,2021-09-11 18:55,-114.8611,35.9475,671.00,96.80,48.20,19.28,150.00,10.00,0.00,30.00,M,10.00,M,CLR,M,M,M,M,M,M,M,M,M,M,M,M,M,M,93.36,KBVU 111855Z AUTO 15010KT 10SM CLR 36/09 A3000 RMK AO2,M
BAM,2021-09-11 18:55,-116.8743,40.5990,1382.36,77.00,53.60,44.25,0.00,0.00,0.00,30.21,M,10.00,M,SCT,BKN,M,M,8000.00,11000.00,M,M,M,M,M,M,M,M,M,77.00,KBAM 111855Z AUTO 00000KT 10SM SCT080 BKN110 25/12 A3021 RMK AO1,M
TMT,2021-09-11 18:55,-117.1971,39.4643,1749.34,71.40,55.80,57.85,0.00,0.00,0.00,30.26,M,10.00,M,CLR,M,M,M,M,M,M,M,M,M,M,M,M,M,M,71.40,KTMT 111855Z AUTO 00000KT 10SM CLR 22/13 A3026 RMK AO2 LTG DSNT E T02190132,M
RTS,2021-09-11 18:55,-119.8764,39.6682,1539.00,75.20,44.60,33.57,120.00,8.00,0.00,30.22,M,10.00,M,CLR,M,M,M,M,M,M,M,M,M,M,M,M,M,M,75.20,KRTS 111855Z AUTO 12008KT 080V170 10SM CLR 24/07 A3022 RMK AO2,M
RNO,2021-09-11 18:55,-119.7711,39.4839,1341.00,77.00,45.00,32.10,0.00,0.00,0.00,30.17,1016.70,10.00,M,FEW,M,M,M,7000.00,M,M,M,M,M,M,M,M,M,M,77.00,KRNO 111855Z 00000KT 10SM FEW070 25/07 A3017 RMK AO2 SLP167 T02500072,M
WMC,2021-09-11 18:56,-117.8072,40.9019,1315.00,80.00,45.00,28.99,0.00,0.00,0.00,30.18,1017.90,10.00,M,CLR,M,M,M,M,M,M,M,M,M,M,M,M,M,M,79.18,KWMC 111856Z AUTO 00000KT 10SM CLR 27/07 A3018 RMK AO2 SLP179 T02670072 $,M
LAS,2021-09-11 18:56,-115.1634,36.0719,663.00,97.00,47.00,18.25,190.00,7.00,0.00,30.00,1012.80,10.00,16.00,FEW,M,M,M,14000.00,M,M,M,M,M,M,M,M,M,M,93.33,KLAS 111856Z 19007G16KT 150V230 10SM FEW140 36/08 A3000 RMK AO2 SLP128 T03610083,M
HND,2021-09-11 18:56,-115.1344,35.9729,742.79,97.00,50.00,20.49,220.00,10.00,0.00,30.03,1015.20,10.00,M,CLR,M,M,M,M,M,M,M,M,M,M,M,M,M,M,93.91,KHND 111856Z 22010KT 10SM CLR 36/10 A3003 RMK AO2 SLP152 T03610100,M
EKO,2021-09-11 18:56,-115.7860,40.8242,1367.00,75.00,50.00,41.41,0.00,0.00,0.00,30.23,1018.70,10.00,M,CLR,M,M,M,M,M,M,M,M,M,M,M,M,M,M,75.00,KEKO 111856Z AUTO 00000KT 10SM CLR 24/10 A3023 RMK AO2 SLP187 T02390100,M
TPH,2021-09-11 18:56,-117.0904,38.0505,1654.00,80.00,43.00,26.85,M,6.00,0.00,30.22,1015.30,10.00,M,FEW,M,M,M,8000.00,M,M,M,M,M,M,M,M,M,M,79.04,KTPH 111856Z AUTO VRB06KT 10SM FEW080 27/06 A3022 RMK AO2 SLP153 T02670061,M
NFL,2021-09-11 18:56,-118.7010,39.4166,1199.00,80.00,48.00,32.46,M,6.00,0.00,30.15,1017.50,10.00,M,FEW,M,M,M,7000.00,M,M,M,M,M,M,M,M,M,M,79.42,KNFL 111856Z VRB06KT 10SM FEW070 27/09 A3015 RMK AO2 SLP175 T02670089,M
LSV,2021-09-11 18:58,-115.0343,36.2362,570.00,97.70,49.80,19.91,160.00,6.00,0.00,29.97,1012.10,10.00,M,CLR,M,M,M,M,M,M,M,M,M,M,M,M,M,M,94.59,KLSV 111858Z AUTO 16006KT 10SM CLR 37/10 A2997 RMK AO2 SLP121 T03650099 $,M
INS,2021-09-11 18:58,-115.6733,36.5872,955.00,93.00,43.20,17.93,90.00,8.00,0.00,30.04,1011.70,10.00,M,FEW,M,M,M,20000.00,M,M,M,M,M,M,M,M,M,M,89.02,KINS 111858Z AUTO 09008KT 10SM FEW200 34/06 A3004 RMK AO2 SLP117 T03390062 $,M
BAM,2021-09-11 19:15,-116.8743,40.5990,1382.36,78.80,53.60,41.69,350.00,3.00,0.00,30.20,M,10.00,M,SCT,M,M,M,9000.00,M,M,M,M,M,M,M,M,M,M,78.80,KBAM 111915Z AUTO 35003KT 10SM SCT090 26/12 A3020 RMK AO1,M
TMT,2021-09-11 19:15,-117.1971,39.4643,1749.34,74.50,52.00,45.35,0.00,0.00,0.00,30.25,M,10.00,M,CLR,M,M,M,M,M,M,M,M,M,M,M,M,M,M,74.50,KTMT 111915Z AUTO 00000KT 10SM CLR 24/11 A3025 RMK AO2 T02360111,M
BVU,2021-09-11 19:15,-114.8611,35.9475,671.00,96.80,50.00,20.62,0.00,0.00,0.00,29.99,M,10.00,15.00,CLR,M,M,M,M,M,M,M,M,M,M,M,M,M,M,93.71,KBVU 111915Z AUTO 00000G15KT 10SM CLR 36/10 A2999 RMK AO2,M
CXP,2021-09-11 19:15,-119.7326,39.1923,1431.00,82.40,42.80,24.72,M,3.00,0.00,30.18,M,10.00,10.00,CLR,M,M,M,M,M,M,M,M,M,M,M,M,M,M,80.39,KCXP 111915Z AUTO VRB03G10KT 10SM CLR 28/06 A3018 RMK AO2,M
MEV,2021-09-11 19:15,-119.7500,38.9963,1441.42,80.60,44.60,28.08,330.00,5.00,0.00,30.17,M,10.00,M,CLR,M,M,M,M,M,M,M,M,M,M,M,M,M,M,79.42,KMEV 111915Z AUTO 33005KT 10SM CLR 27/07 A3017 RMK AO2,M
RTS,2021-09-11 19:15,-119.8764,39.6682,1539.00,75.20,42.80,31.34,M,5.00,0.00,30.22,M,10.00,14.00,CLR,M,M,M,M,M,M,M,M,M,M,M,M,M,M,75.20,KRTS 111915Z AUTO VRB05G14KT 10SM CLR 24/06 A3022 RMK AO2,M
INS,2021-09-11 19:18,-115.6733,36.5872,955.00,93.20,44.60,18.80,100.00,13.00,0.00,30.03,1011.30,10.00,17.00,FEW,FEW,M,M,18000.00,21000.00,M,M,M,M,M,M,M,M,M,89.34,KINS 111918Z AUTO 10013G17KT 10SM FEW180 FEW210 34/07 A3003 RMK AO2 WSHFT 17 SLP113 $,M
LSV,2021-09-11 19:22,-115.0343,36.2362,570.00,100.40,48.20,17.28,170.00,11.00,0.00,29.95,1011.30,10.00,15.00,FEW,FEW,M,M,17000.00,19000.00,M,M,M,M,M,M,M,M,M,97.00,KLSV 111922Z AUTO 17011G15KT 10SM FEW170 FEW190 38/09 A2995 RMK AO2 WSHFT 15 SLP113 $,M
LSV,2021-09-11 19:35,-115.0343,36.2362,570.00,100.40,46.40,16.15,160.00,14.00,0.00,29.94,1011.00,10.00,21.00,FEW,FEW,M,M,17000.00,19000.00,M,M,M,M,M,M,M,M,M,96.63,KLSV 111935Z AUTO 16014G21KT 10SM FEW170 FEW190 38/08 A2994 RMK AO2 WSHFT 32 SLP110 $,M
BVU,2021-09-11 19:35,-114.8611,35.9475,671.00,96.80,50.00,20.62,M,5.00,0.00,29.98,M,10.00,M,CLR,M,M,M,M,M,M,M,M,M,M,M,M,M,M,93.71,KBVU 111935Z AUTO VRB05KT 10SM CLR 36/10 A2998 RMK AO2,M
RTS,2021-09-11 19:35,-119.8764,39.6682,1539.00,77.00,42.80,29.51,M,6.00,0.00,30.20,M,10.00,M,CLR,M,M,M,M,M,M,M,M,M,M,M,M,M,M,77.00,KRTS 111935Z AUTO VRB06KT 10SM CLR 25/06 A3020 RMK AO2,M
TMT,2021-09-11 19:35,-117.1971,39.4643,1749.34,76.60,46.00,33.79,220.00,4.00,0.00,30.24,M,10.00,M,CLR,M,M,M,M,M,M,M,M,M,M,M,M,M,M,76.60,KTMT 111935Z AUTO 22004KT 10SM CLR 25/08 A3024 RMK AO2 T02480078,M
BAM,2021-09-11 19:35,-116.8743,40.5990,1382.36,80.60,50.00,34.41,0.00,0.00,0.00,30.19,M,10.00,M,CLR,M,M,M,M,M,M,M,M,M,M,M,M,M,M,79.88,KBAM 111935Z AUTO 00000KT 10SM CLR 27/10 A3019 RMK AO1,M
CXP,2021-09-11 19:35,-119.7326,39.1923,1431.00,82.40,42.80,24.72,M,3.00,0.00,30.17,M,10.00,11.00,CLR,M,M,M,M,M,M,M,M,M,M,M,M,M,M,80.39,KCXP 111935Z AUTO VRB03G11KT 10SM CLR 28/06 A3017 RMK AO2,M
MEV,2021-09-11 19:35,-119.7500,38.9963,1441.42,80.60,42.80,26.22,330.00,5.00,0.00,30.16,M,10.00,M,CLR,M,M,M,M,M,M,M,M,M,M,M,M,M,M,79.30,KMEV 111935Z AUTO 33005KT 10SM CLR 27/06 A3016 RMK AO2,M
LSV,2021-09-11 19:41,-115.0343,36.2362,570.00,100.40,46.40,16.15,200.00,17.00,0.00,29.94,1011.00,10.00,23.00,CLR,M,M,M,M,M,M,M,M,M,M,M,M,M,M,96.63,KLSV 111941Z AUTO 20017G23KT 10SM CLR 38/08 A2994 RMK AO2 WSHFT 35 SLP110 $,M
LOL,2021-09-11 19:53,-118.5701,40.0684,1192.43,84.00,49.00,29.58,130.00,7.00,0.00,30.13,1016.60,10.00,M,CLR,M,M,M,M,M,M,M,M,M,M,M,M,M,M,81.97,KLOL 111953Z AUTO 13007KT 10SM CLR 29/09 A3013 RMK AO2 SLP166 T02890094,M
ELY,2021-09-11 19:53,-114.8453,39.2950,1909.00,75.00,47.00,36.87,230.00,14.00,0.00,30.26,1014.70,10.00,M,SCT,BKN,M,M,7000.00,12000.00,M,M,M,M,M,M,M,M,M,75.00,KELY 111953Z AUTO 23014KT 10SM SCT070 BKN120 24/08 A3026 RMK AO2 LTG DSNT ALQDS SLP147 T02390083,M
P68,2021-09-11 19:53,-116.0056,39.6014,1993.00,79.00,49.00,34.81,M,4.00,0.00,30.21,1014.80,M,M,M,M,M,M,M,M,M,M,M,M,M,M,M,M,M,79.00,KP68 111953Z AUTO VRB04KT 26/09 A3021 RMK AO1 SLP148 T02610094,M
VGT,2021-09-11 19:53,-115.1933,36.2111,667.00,101.00,47.00,16.21,190.00,17.00,0.00,29.95,1012.50,10.00,23.00,CLR,M,M,M,M,M,M,M,M,M,M,M,M,M,M,97.23,KVGT 111953Z 19017G23KT 10SM CLR 38/08 A2995 RMK AO2 SLP125 T03830083,M
DRA,2021-09-11 19:53,-116.0278,36.6206,1009.00,96.00,39.00,13.85,210.00,15.00,0.00,30.04,1011.30,10.00,29.00,CLR,M,M,M,M,M,M,M,M,M,M,M,34.00,210.00,2021-09-11 19:31,91.57,KDRA 111953Z AUTO 21015G29KT 10SM CLR 36/04 A3004 RMK AO2 PK WND 21034/1931 SLP113 T03560039,M
TMT,2021-09-11 19:55,-117.1971,39.4643,1749.34,76.50,44.80,32.39,0.00,0.00,0.00,30.24,M,10.00,M,SCT,M,M,M,12000.00,M,M,M,M,M,M,M,M,M,M,76.50,KTMT 111955Z AUTO 00000KT 10SM SCT120 25/07 A3024 RMK AO2 T02470071,M
RTS,2021-09-11 19:55,-119.8764,39.6682,1539.00,77.00,42.80,29.51,M,5.00,0.00,30.19,M,10.00,11.00,CLR,M,M,M,M,M,M,M,M,M,M,M,M,M,M,77.00,KRTS 111955Z AUTO VRB05G11KT 10SM CLR 25/06 A3019 RMK AO2,M
RNO,2021-09-11 19:55,-119.7711,39.4839,1341.00,81.00,45.00,28.15,0.00,0.00,0.00,30.14,1015.30,10.00,M,FEW,M,M,M,7000.00,M,M,M,M,M,M,M,M,M,M,79.68,KRNO 111955Z 00000KT 10SM FEW070 27/07 A3014 RMK AO2 SLP153 T02720072,M
CXP,2021-09-11 19:55,-119.7326,39.1923,1431.00,82.40,41.00,23.07,M,4.00,0.00,30.16,M,10.00,M,CLR,M,M,M,M,M,M,M,M,M,M,M,M,M,M,80.29,KCXP 111955Z AUTO VRB04KT 10SM CLR 28/05 A3016 RMK AO2,M
BVU,2021-09-11 19:55,-114.8611,35.9475,671.00,98.60,48.20,18.25,160.00,11.00,0.00,29.97,M,10.00,17.00,CLR,M,M,M,M,M,M,M,M,M,M,M,M,M,M,95.17,KBVU 111955Z AUTO 16011G17KT 10SM CLR 37/09 A2997 RMK AO2,M
BAM,2021-09-11 19:55,-116.8743,40.5990,1382.36,80.60,46.40,30.07,300.00,3.00,0.00,30.19,M,10.00,M,CLR,M,M,M,M,M,M,M,M,M,M,M,M,M,M,79.56,KBAM 111955Z AUTO 30003KT 10SM CLR 27/08 A3019 RMK AO1,M
MEV,2021-09-11 19:55,-119.7500,38.9963,1441.42,80.60,42.80,26.22,240.00,4.00,0.00,30.15,M,10.00,M,CLR,M,M,M,M,M,M,M,M,M,M,M,M,M,M,79.30,KMEV 111955Z AUTO 24004KT 10SM CLR 27/06 A3015 RMK AO2,M
TPH,2021-09-11 19:56,-117.0904,38.0505,1654.00,82.00,42.00,24.38,200.00,11.00,0.00,30.20,1014.30,10.00,16.00,SCT,M,M,M,8000.00,M,M,M,M,M,M,M,M,M,M,80.09,KTPH 111956Z AUTO 20011G16KT 10SM SCT080 28/06 A3020 RMK AO2 SLP143 T02780056,M
LAS,2021-09-11 19:56,-115.1634,36.0719,663.00,99.00,48.00,17.90,180.00,11.00,0.00,29.97,1011.80,10.00,18.00,FEW,M,M,M,14000.00,M,M,M,M,M,M,M,M,M,M,95.54,KLAS 111956Z 18011G18KT 10SM FEW140 37/09 A2997 RMK AO2 SLP118 T03720089,M
EKO,2021-09-11 19:56,-115.7860,40.8242,1367.00,78.00,45.00,30.95,260.00,4.00,0.00,30.20,1017.40,10.00,M,SCT,M,M,M,11000.00,M,M,M,M,M,M,M,M,M,M,78.10,KEKO 111956Z AUTO 26004KT 10SM SCT110 26/07 A3020 RMK AO2 SLP174 T02560072,M
HND,2021-09-11 19:56,-115.1344,35.9729,742.79,99.00,48.00,17.90,240.00,11.00,0.00,30.01,1014.20,10.00,M,CLR,M,M,M,M,M,M,M,M,M,M,M,M,M,M,95.54,KHND 111956Z 24011KT 10SM CLR 37/09 A3001 RMK AO2 SLP142 T03720089,M
WMC,2021-09-11 19:56,-117.8072,40.9019,1315.00,84.00,45.00,25.54,M,6.00,0.00,30.16,1016.80,10.00,M,CLR,M,M,M,M,M,M,M,M,M,M,M,M,M,M,81.61,KWMC 111956Z AUTO VRB06KT 10SM CLR 29/07 A3016 RMK AO2 SLP168 T02890072 $,M
NFL,2021-09-11 19:56,-118.7010,39.4166,1199.00,82.00,49.00,31.56,M,4.00,0.00,30.12,1016.60,10.00,M,FEW,M,M,M,7000.00,M,M,M,M,M,M,M,M,M,M,80.61,KNFL 111956Z VRB04KT 10SM FEW070 28/09 A3012 RMK AO2 SLP166 T02780094,M
LSV,2021-09-11 19:58,-115.0343,36.2362,570.00,101.00,46.40,15.91,210.00,14.00,0.00,29.93,1010.60,10.00,19.00,CLR,M,M,M,M,M,M,M,M,M,M,M,M,M,M,97.13,KLSV 111958Z AUTO 21014G19KT 10SM CLR 38/08 A2993 RMK AO2 SLP106 T03830080 $,M
INS,2021-09-11 19:58,-115.6733,36.5872,955.00,93.60,40.60,15.92,220.00,12.00,0.00,30.02,1011.00,10.00,20.00,FEW,FEW,SCT,BKN,10000.00,14000.00,18000.00,24000.00,M,M,M,M,M,M,M,89.37,KINS 111958Z AUTO 22012G20KT 10SM FEW100 FEW140 SCT180 BKN240 34/05 A3002 RMK AO2 SLP110 T03420048 $,M
INS,2021-09-11 19:59,-115.6733,36.5872,955.00,93.20,41.00,16.37,180.00,10.00,0.00,30.02,1011.00,10.00,20.00,FEW,FEW,SCT,SCT,10000.00,14000.00,18000.00,24000.00,M,M,M,M,M,M,M,89.03,KINS 111959Z AUTO 18010G20KT 10SM FEW100 FEW140 SCT180 SCT240 34/05 A3002 RMK AO2 WSHFT 56 SLP110 $,M
LSV,2021-09-11 20:14,-115.0343,36.2362,570.00,100.40,46.40,16.15,220.00,12.00,0.00,29.92,1010.30,10.00,20.00,FEW,M,M,M,18000.00,M,M,M,M,M,M,M,M,M,M,96.63,KLSV 112014Z AUTO 22012G20KT 10SM FEW180 38/08 A2992 RMK AO2 WSHFT 12 SLP103 $,M
BVU,2021-09-11 20:15,-114.8611,35.9475,671.00,98.60,50.00,19.52,M,4.00,0.00,29.96,M,10.00,13.00,CLR,M,M,M,M,M,M,M,M,M,M,M,M,M,M,95.56,KBVU 112015Z AUTO VRB04G13KT 10SM CLR 37/10 A2996 RMK AO2,M
MEV,2021-09-11 20:15,-119.7500,38.9963,1441.42,82.40,42.80,24.72,M,6.00,0.00,30.15,M,10.00,M,CLR,M,M,M,M,M,M,M,M,M,M,M,M,M,M,80.39,KMEV 112015Z AUTO VRB06KT 10SM CLR 28/06 A3015 RMK AO2,M
BAM,2021-09-11 20:15,-116.8743,40.5990,1382.36,82.40,46.40,28.36,0.00,0.00,0.00,30.18,M,10.00,M,CLR,M,M,M,M,M,M,M,M,M,M,M,M,M,M,80.64,KBAM 112015Z AUTO 00000KT 10SM CLR 28/08 A3018 RMK AO1,M
RTS,2021-09-11 20:15,-119.8764,39.6682,1539.00,77.00,41.00,27.53,M,5.00,0.00,30.19,M,10.00,12.00,SCT,M,M,M,8000.00,M,M,M,M,M,M,M,M,M,M,77.00,KRTS 112015Z AUTO VRB05G12KT 10SM SCT080 25/05 A3019 RMK AO2,M
TMT,2021-09-11 20:15,-117.1971,39.4643,1749.34,78.00,44.00,30.11,10.00,3.00,0.00,30.22,M,10.00,M,SCT,M,M,M,12000.00,M,M,M,M,M,M,M,M,M,M,77.90,KTMT 112015Z AUTO 01003KT 10SM SCT120 26/07 A3022 RMK AO2 T02550067,M
CXP,2021-09-11 20:15,-119.7326,39.1923,1431.00,82.40,41.00,23.07,0.00,0.00,0.00,30.16,M,10.00,M,FEW,M,M,M,8500.00,M,M,M,M,M,M,M,M,M,M,80.29,KCXP 112015Z AUTO 00000KT 10SM FEW085 28/05 A3016 RMK AO2,M
MEV,2021-09-11 20:35,-119.7500,38.9963,1441.42,82.40,42.80,24.72,M,4.00,0.00,30.14,M,10.00,M,FEW,M,M,M,9500.00,M,M,M,M,M,M,M,M,M,M,80.39,KMEV 112035Z AUTO VRB04KT 10SM FEW095 28/06 A3014 RMK AO2,M
CXP,2021-09-11 20:35,-119.7326,39.1923,1431.00,86.00,41.00,20.54,0.00,0.00,0.00,30.16,M,9.00,M,CLR,M,M,M,M,M,M,M,M,M,M,M,M,M,M,82.86,KCXP 112035Z AUTO 00000KT 9SM CLR 30/05 A3016 RMK AO2,M
BVU,2021-09-11 20:35,-114.8611,35.9475,671.00,100.40,50.00,18.48,110.00,11.00,0.00,29.95,M,10.00,18.00,FEW,M,M,M,11000.00,M,M,M,M,M,M,M,M,M,M,97.42,KBVU 112035Z AUTO 11011G18KT 10SM FEW110 38/10 A2995 RMK AO2,M
BAM,2021-09-11 20:35,-116.8743,40.5990,1382.36,82.40,50.00,32.46,300.00,4.00,0.00,30.17,M,10.00,M,CLR,M,M,M,M,M,M,M,M,M,M,M,M,M,M,80.99,KBAM 112035Z AUTO 30004KT 10SM CLR 28/10 A3017 RMK AO1,M
TMT,2021-09-11 20:35,-117.1971,39.4643,1749.34,79.30,44.00,28.75,290.00,7.00,0.00,30.22,M,10.00,M,CLR,M,M,M,M,M,M,M,M,M,M,M,M,M,M,79.30,KTMT 112035Z AUTO 29007KT 10SM CLR 26/07 A3022 RMK AO2 T02630067,M
RTS,2021-09-11 20:35,-119.8764,39.6682,1539.00,77.00,41.00,27.53,120.00,5.00,0.00,30.19,M,10.00,11.00,FEW,M,M,M,8000.00,M,M,M,M,M,M,M,M,M,M,77.00,KRTS 112035Z AUTO 12005G11KT 10SM FEW080 25/05 A3019 RMK AO2,M
DRA,2021-09-11 20:53,-116.0278,36.6206,1009.00,97.00,40.00,13.96,210.00,20.00,0.00,30.03,1010.80,10.00,30.00,CLR,M,M,M,M,M,M,M,M,M,M,M,31.00,200.00,2021-09-11 20:07,92.48,KDRA 112053Z AUTO 21020G30KT 10SM CLR 36/04 A3003 RMK AO2 PK WND 20031/2007 SLP108 T03610044 56018,M
P68,2021-09-11 20:53,-116.0056,39.6014,1993.00,71.00,51.00,49.20,330.00,11.00,0.00,30.22,1015.90,M,M,M,M,M,M,M,M,M,M,M,M,M,M,M,M,M,71.10,KP68 112053Z AUTO 33011KT 22/11 A3022 RMK AO1 SLP159 T02170106 55016,M
ELY,2021-09-11 20:53,-114.8453,39.2950,1909.00,77.00,48.00,35.95,230.00,10.00,0.00,30.23,1013.90,10.00,M,SCT,M,M,M,12000.00,M,M,M,M,M,M,M,M,M,M,77.00,KELY 112053Z AUTO 23010KT 10SM SCT120 25/09 A3023 RMK AO2 LTG DSNT N-E SLP139 60000 T02500089 56020,M
LOL,2021-09-11 20:53,-118.5701,40.0684,1192.43,85.00,47.00,26.66,M,5.00,0.00,30.10,1015.80,10.00,M,CLR,M,M,M,M,M,M,M,M,M,M,M,M,M,M,82.42,KLOL 112053Z AUTO VRB05KT 10SM CLR 29/08 A3010 RMK AO2 SLP158 T02940083 58021,M
VGT,2021-09-11 20:53,-115.1933,36.2111,667.00,103.00,44.00,13.73,190.00,17.00,0.00,29.92,1011.70,10.00,27.00,CLR,M,M,M,M,M,M,M,M,M,M,M,27.00,220.00,2021-09-11 20:49,98.66,KVGT 112053Z 19017G27KT 10SM CLR 39/07 A2992 RMK AO2 PK WND 22027/2049 SLP117 T03940067 56025,M
TMT,2021-09-11 20:55,-117.1971,39.4643,1749.34,78.60,43.70,28.98,190.00,3.00,0.00,30.22,M,10.00,M,CLR,M,M,M,M,M,M,M,M,M,M,M,M,M,M,78.60,KTMT 112055Z AUTO 19003KT 10SM CLR 26/07 A3022 RMK AO2 T02590065,M
RNO,2021-09-11 20:55,-119.7711,39.4839,1341.00,83.00,44.00,25.57,0.00,0.00,0.00,30.13,1014.80,10.00,M,SCT,M,M,M,8000.00,M,M,M,M,M,M,M,M,M,M,80.80,KRNO 112055Z 00000KT 10SM SCT080 28/07 A3013 RMK AO2 SLP148 T02830067 56021,M
MEV,2021-09-11 20:55,-119.7500,38.9963,1441.42,82.40,42.80,24.72,M,5.00,0.00,30.14,M,10.00,M,CLR,M,M,M,M,M,M,M,M,M,M,M,M,M,M,80.39,KMEV 112055Z AUTO VRB05KT 10SM CLR 28/06 A3014 RMK AO2,M
BAM,2021-09-11 20:55,-116.8743,40.5990,1382.36,82.40,50.00,32.46,0.00,0.00,0.00,30.16,M,10.00,M,CLR,M,M,M,M,M,M,M,M,M,M,M,M,M,M,80.99,KBAM 112055Z AUTO 00000KT 10SM CLR 28/10 A3016 RMK AO1,M
BVU,2021-09-11 20:55,-114.8611,35.9475,671.00,100.40,50.00,18.48,140.00,13.00,0.00,29.94,M,10.00,20.00,CLR,M,M,M,M,M,M,M,M,M,M,M,M,M,M,97.42,KBVU 112055Z AUTO 14013G20KT 10SM CLR 38/10 A2994 RMK AO2,M
CXP,2021-09-11 20:55,-119.7326,39.1923,1431.00,84.20,39.20,20.29,0.00,0.00,0.00,30.15,M,10.00,12.00,CLR,M,M,M,M,M,M,M,M,M,M,M,M,M,M,81.44,KCXP 112055Z AUTO 00000G12KT 10SM CLR 29/04 A3015 RMK AO2,M
RTS,2021-09-11 20:55,-119.8764,39.6682,1539.00,78.80,41.00,25.95,150.00,6.00,0.00,30.18,M,10.00,M,CLR,M,M,M,M,M,M,M,M,M,M,M,M,M,M,78.80,KRTS 112055Z AUTO 15006KT 10SM CLR 26/05 A3018 RMK AO2,M
TPH,2021-09-11 20:56,-117.0904,38.0505,1654.00,83.00,38.00,20.11,90.00,3.00,0.00,30.18,1013.80,10.00,M,CLR,M,M,M,M,M,M,M,M,M,M,M,M,M,M,80.49,KTPH 112056Z AUTO 09003KT 10SM CLR 28/03 A3018 RMK AO2 SLP138 T02830033 58017,M
LAS,2021-09-11 20:56,-115.1634,36.0719,663.00,100.00,46.00,16.10,230.00,6.00,0.00,29.95,1011.00,10.00,21.00,FEW,M,M,M,14000.00,M,M,M,M,M,M,M,M,M,M,96.16,KLAS 112056Z 23006G21KT 10SM FEW140 38/08 A2995 RMK AO2 SLP110 T03780078 58022,M
HND,2021-09-11 20:56,-115.1344,35.9729,742.79,100.00,50.00,18.71,250.00,10.00,0.00,29.99,1013.50,10.00,15.00,CLR,M,M,M,M,M,M,M,M,M,M,M,M,M,M,97.00,KHND 112056Z 25010G15KT 10SM CLR 38/10 A2999 RMK AO2 SLP135 T03780100 56023,M
NFL,2021-09-11 20:56,-118.7010,39.4166,1199.00,84.00,47.00,27.44,320.00,3.00,0.00,30.10,1015.90,10.00,M,FEW,M,M,M,7000.00,M,M,M,M,M,M,M,M,M,M,81.77,KNFL 112056Z 32003KT 10SM FEW070 29/08 A3010 RMK AO2 SLP159 T02890083 58022,M
EKO,2021-09-11 20:56,-115.7860,40.8242,1367.00,81.00,44.00,27.20,M,6.00,0.00,30.18,1016.50,10.00,M,FEW,M,M,M,8000.00,M,M,M,M,M,M,M,M,M,M,79.62,KEKO 112056Z AUTO VRB06KT 10SM FEW080 27/07 A3018 RMK AO2 LTG DSNT S SLP165 T02720067 58022,M
WMC,2021-09-11 20:56,-117.8072,40.9019,1315.00,84.00,45.00,25.54,M,4.00,0.00,30.14,1016.30,10.00,M,SCT,M,M,M,8000.00,M,M,M,M,M,M,M,M,M,M,81.61,KWMC 112056Z AUTO VRB04KT 10SM SCT080 29/07 A3014 RMK AO2 SLP163 T02890072 58020 $,M
P68,2021-09-11 20:57,-116.0056,39.6014,1993.00,71.00,51.00,49.20,330.00,9.00,0.00,30.22,M,M,M,M,M,M,M,M,M,M,M,M,M,M,M,M,M,M,71.10,KP68 112057Z AUTO 33009KT 22/11 A3022 RMK AO1 WSHFT 2040 T02170106,M
INS,2021-09-11 20:58,-115.6733,36.5872,955.00,96.00,35.00,11.95,230.00,16.00,0.00,30.00,1010.40,10.00,24.00,CLR,M,M,M,M,M,M,M,M,M,M,M,M,M,M,90.90,KINS 112058Z AUTO 23016G24KT 10SM CLR 36/02 A3000 RMK AO2 SLP104 T03550017 57023 $,M
LSV,2021-09-11 20:58,-115.0343,36.2362,570.00,101.00,46.40,15.91,220.00,18.00,0.00,29.90,1009.70,10.00,22.00,CLR,M,M,M,M,M,M,M,M,M,M,M,26.00,210.00,2021-09-11 20:17,97.13,KLSV 112058Z AUTO 22018G22KT 10SM CLR 38/08 A2990 RMK AO2 PK WND 21026/17 SLP097 T03830080 57028 $,M
INS,2021-09-11 20:59,-115.6733,36.5872,955.00,96.80,35.60,11.86,200.00,13.00,0.00,30.00,1010.40,10.00,24.00,CLR,M,M,M,M,M,M,M,M,M,M,M,M,M,M,91.72,KINS 112059Z AUTO 20013G24KT 10SM CLR 36/02 A3000 RMK AO2 WSHFT 55 SLP104 $,M
INS,2021-09-11 21:03,-115.6733,36.5872,955.00,96.80,35.60,11.86,240.00,11.00,0.00,30.00,1010.40,10.00,24.00,CLR,M,M,M,M,M,M,M,M,M,M,M,M,M,M,91.72,KINS 112103Z AUTO 24011G24KT 10SM CLR 36/02 A3000 RMK AO2 WSHFT 01 SLP104 $,M
LSV,2021-09-11 21:04,-115.0343,36.2362,570.00,102.20,44.60,14.29,240.00,16.00,0.00,29.91,1010.00,10.00,24.00,CLR,M,M,M,M,M,M,M,M,M,M,M,M,M,M,98.07,KLSV 112104Z AUTO 24016G24KT 10SM CLR 39/07 A2991 RMK AO2 WSHFT 2053 SLP100 $,M
LSV,2021-09-11 21:11,-115.0343,36.2362,570.00,102.20,46.40,15.30,240.00,17.00,0.00,29.90,1009.70,10.00,25.00,CLR,M,M,M,M,M,M,M,M,M,M,M,M,M,M,98.43,KLSV 112111Z AUTO 24017G25KT 10SM CLR 39/08 A2990 RMK AO2 WSHFT 10 SLP097 $,M
BAM,2021-09-11 21:15,-116.8743,40.5990,1382.36,82.40,48.20,30.35,360.00,7.00,0.00,30.15,M,10.00,M,SCT,SCT,M,M,6500.00,9000.00,M,M,M,M,M,M,M,M,M,80.80,KBAM 112115Z AUTO 36007KT 10SM SCT065 SCT090 28/09 A3015 RMK AO1,M
BVU,2021-09-11 21:15,-114.8611,35.9475,671.00,100.40,48.20,17.28,160.00,10.00,0.00,29.93,M,10.00,M,CLR,M,M,M,M,M,M,M,M,M,M,M,M,M,M,97.00,KBVU 112115Z AUTO 16010KT 10SM CLR 38/09 A2993 RMK AO2,M
CXP,2021-09-11 21:15,-119.7326,39.1923,1431.00,87.80,39.20,18.09,0.00,0.00,0.00,30.15,M,10.00,M,CLR,M,M,M,M,M,M,M,M,M,M,M,M,M,M,84.22,KCXP 112115Z AUTO 00000KT 10SM CLR 31/04 A3015 RMK AO2,M
MEV,2021-09-11 21:15,-119.7500,38.9963,1441.42,82.40,42.80,24.72,0.00,0.00,0.00,30.13,M,10.00,10.00,CLR,M,M,M,M,M,M,M,M,M,M,M,M,M,M,80.39,KMEV 112115Z AUTO 00000G10KT 10SM CLR 28/06 A3013 RMK AO2,M
TMT,2021-09-11 21:15,-117.1971,39.4643,1749.34,81.00,43.70,26.78,240.00,6.00,0.00,30.21,M,10.00,M,CLR,M,M,M,M,M,M,M,M,M,M,M,M,M,M,79.59,KTMT 112115Z AUTO 24006KT 10SM CLR 27/07 A3021 RMK AO2 T02720065,M
RTS,2021-09-11 21:15,-119.8764,39.6682,1539.00,78.80,41.00,25.95,0.00,0.00,0.00,30.18,M,10.00,M,CLR,M,M,M,M,M,M,M,M,M,M,M,M,M,M,78.80,KRTS 112115Z AUTO 00000KT 10SM CLR 26/05 A3018 RMK AO2,M
LSV,2021-09-11 21:32,-115.0343,36.2362,570.00,102.20,46.40,15.30,250.00,15.00,0.00,29.89,1009.30,10.00,20.00,CLR,M,M,M,M,M,M,M,M,M,M,M,M,M,M,98.43,KLSV 112132Z AUTO 25015G20KT 10SM CLR 39/08 A2989 RMK AO2 WSHFT 25 SLP093 $,M
MEV,2021-09-11 21:35,-119.7500,38.9963,1441.42,86.00,41.00,20.54,M,5.00,0.00,30.13,M,10.00,M,CLR,M,M,M,M,M,M,M,M,M,M,M,M,M,M,82.86,KMEV 112135Z AUTO VRB05KT 10SM CLR 30/05 A3013 RMK AO2,M
BAM,2021-09-11 21:35,-116.8743,40.5990,1382.36,84.20,48.20,28.63,360.00,8.00,0.00,30.15,M,10.00,M,SCT,SCT,M,M,6500.00,9000.00,M,M,M,M,M,M,M,M,M,82.04,KBAM 112135Z AUTO 36008KT 10SM SCT065 SCT090 29/09 A3015 RMK AO1,M
RTS,2021-09-11 21:35,-119.8764,39.6682,1539.00,80.60,39.20,22.81,280.00,5.00,0.00,30.17,M,10.00,11.00,SCT,M,M,M,8500.00,M,M,M,M,M,M,M,M,M,M,79.10,KRTS 112135Z AUTO 28005G11KT 10SM SCT085 27/04 A3017 RMK AO2,M
TMT,2021-09-11 21:35,-117.1971,39.4643,1749.34,81.00,44.20,27.30,200.00,6.00,0.00,30.20,M,10.00,M,CLR,M,M,M,M,M,M,M,M,M,M,M,M,M,M,79.62,KTMT 112135Z AUTO 20006KT 10SM CLR 27/07 A3020 RMK AO2 T02720068,M
CXP,2021-09-11 21:35,-119.7326,39.1923,1431.00,84.20,39.20,20.29,M,5.00,0.00,30.14,M,10.00,11.00,FEW,M,M,M,9000.00,M,M,M,M,M,M,M,M,M,M,81.44,KCXP 112135Z AUTO VRB05G11KT 10SM FEW090 29/04 A3014 RMK AO2,M
DRA,2021-09-11 21:53,-116.0278,36.6206,1009.00,97.00,40.00,13.96,210.00,17.00,0.00,30.01,1010.30,10.00,27.00,CLR,M,M,M,M,M,M,M,M,M,M,M,34.00,210.00,2021-09-11 21:20,92.48,KDRA 112153Z AUTO 21017G27KT 10SM CLR 36/04 A3001 RMK AO2 PK WND 21034/2120 SLP103 T03610044,M
VGT,2021-09-11 21:53,-115.1933,36.2111,667.00,103.00,41.00,12.19,250.00,11.00,0.00,29.90,1010.90,10.00,21.00,CLR,M,M,M,M,M,M,M,M,M,M,M,M,M,M,98.00,KVGT 112153Z 25011G21KT 10SM CLR 39/05 A2990 RMK AO2 WSHFT 2135 SLP109 T03940050,M
LOL,2021-09-11 21:53,-118.5701,40.0684,1192.43,86.00,43.00,22.19,160.00,9.00,0.00,30.08,1015.10,10.00,M,CLR,M,M,M,M,M,M,M,M,M,M,M,M,M,M,82.97,KLOL 112153Z AUTO 16009KT 10SM CLR 30/06 A3008 RMK AO2 SLP151 T03000061,M
P68,2021-09-11 21:53,-116.0056,39.6014,1993.00,79.00,47.00,32.29,0.00,0.00,0.00,30.19,1013.90,M,M,M,M,M,M,M,M,M,M,M,M,M,M,M,M,M,79.00,KP68 112153Z AUTO 00000KT 26/08 A3019 RMK AO1 WSHFT 2040 SLP139 T02610083,M
ELY,2021-09-11 21:53,-114.8453,39.2950,1909.00,78.00,43.00,28.68,210.00,11.00,0.00,30.21,1013.30,10.00,17.00,SCT,M,M,M,10000.00,M,M,M,M,M,M,M,M,M,M,78.10,KELY 112153Z AUTO 21011G17KT 10SM SCT100 26/06 A3021 RMK AO2 LTG DSNT NW SLP133 T02560061,M
RTS,2021-09-11 21:55,-119.8764,39.6682,1539.00,80.60,39.20,22.81,M,5.00,0.00,30.17,M,10.00,12.00,SCT,M,M,M,9000.00,M,M,M,M,M,M,M,M,M,M,79.10,KRTS 112155Z AUTO VRB05G12KT 10SM SCT090 27/04 A3017 RMK AO2,M
RNO,2021-09-11 21:55,-119.7711,39.4839,1341.00,85.00,42.00,22.20,280.00,8.00,0.00,30.11,1014.00,10.00,M,SCT,M,M,M,9500.00,M,M,M,M,M,M,M,M,M,M,82.08,KRNO 112155Z 28008KT 10SM SCT095 29/06 A3011 RMK AO2 SLP140 T02940056,M
MEV,2021-09-11 21:55,-119.7500,38.9963,1441.42,84.20,41.00,21.76,300.00,7.00,0.00,30.12,M,10.00,13.00,CLR,M,M,M,M,M,M,M,M,M,M,M,M,M,M,81.52,KMEV 112155Z AUTO 30007G13KT 10SM CLR 29/05 A3012 RMK AO2,M
TMT,2021-09-11 21:55,-117.1971,39.4643,1749.34,80.40,46.00,29.81,270.00,4.00,0.00,30.19,M,10.00,M,CLR,M,M,M,M,M,M,M,M,M,M,M,M,M,M,79.42,KTMT 112155Z AUTO 27004KT 10SM CLR 27/08 A3019 RMK AO2 T02690078,M
CXP,2021-09-11 21:55,-119.7326,39.1923,1431.00,84.20,39.20,20.29,340.00,10.00,0.00,30.14,M,10.00,15.00,BKN,M,M,M,9000.00,M,M,M,M,M,M,M,M,M,M,81.44,KCXP 112155Z AUTO 34010G15KT 10SM BKN090 29/04 A3014 RMK AO2,M
BAM,2021-09-11 21:55,-116.8743,40.5990,1382.36,82.40,46.40,28.36,360.00,3.00,0.00,30.13,M,10.00,M,CLR,M,M,M,M,M,M,M,M,M,M,M,M,M,M,80.64,KBAM 112155Z AUTO 36003KT 10SM CLR 28/08 A3013 RMK AO1,M
BVU,2021-09-11 21:55,-114.8611,35.9475,671.00,100.40,48.20,17.28,M,5.00,0.00,29.92,M,10.00,11.00,CLR,M,M,M,M,M,M,M,M,M,M,M,M,M,M,97.00,KBVU 112155Z AUTO VRB05G11KT 10SM CLR 38/09 A2992 RMK AO2,M
TPH,2021-09-11 21:56,-117.0904,38.0505,1654.00,84.00,37.00,18.74,M,5.00,0.00,30.16,1013.30,10.00,M,FEW,M,M,M,10000.00,M,M,M,M,M,M,M,M,M,M,81.23,KTPH 112156Z AUTO VRB05KT 10SM FEW100 29/03 A3016 RMK AO2 SLP133 T02890028,M
LAS,2021-09-11 21:56,-115.1634,36.0719,663.00,100.00,43.00,14.36,200.00,9.00,0.00,29.92,1010.10,10.00,19.00,FEW,M,M,M,14000.00,M,M,M,M,M,M,M,M,M,M,95.68,KLAS 112156Z 20009G19KT 10SM FEW140 38/06 A2992 RMK AO2 SLP101 T03780061,M
EKO,2021-09-11 21:56,-115.7860,40.8242,1367.00,82.00,44.00,26.33,M,5.00,0.00,30.16,1015.80,10.00,M,SCT,M,M,M,8000.00,M,M,M,M,M,M,M,M,M,M,80.22,KEKO 112156Z AUTO VRB05KT 10SM SCT080 28/07 A3016 RMK AO2 SLP158 T02780067,M
WMC,2021-09-11 21:56,-117.8072,40.9019,1315.00,85.00,44.00,23.97,350.00,9.00,0.00,30.12,1015.60,10.00,M,CLR,M,M,M,M,M,M,M,M,M,M,M,M,M,M,82.20,KWMC 112156Z AUTO 35009KT 10SM CLR 29/07 A3012 RMK AO2 SLP156 T02940067 $,M
NFL,2021-09-11 21:56,-118.7010,39.4166,1199.00,87.00,44.00,22.34,M,4.00,0.00,30.08,1015.40,10.00,M,SCT,M,M,M,7000.00,M,M,M,M,M,M,M,M,M,M,83.91,KNFL 112156Z VRB04KT 10SM SCT070 31/07 A3008 RMK AO2 SLP154 T03060067,M
HND,2021-09-11 21:56,-115.1344,35.9729,742.79,100.00,46.00,16.10,240.00,13.00,0.00,29.96,1012.60,10.00,18.00,CLR,M,M,M,M,M,M,M,M,M,M,M,M,M,M,96.16,KHND 112156Z 24013G18KT 10SM CLR 38/08 A2996 RMK AO2 SLP126 T03780078,M
INS,2021-09-11 21:58,-115.6733,36.5872,955.00,96.60,35.60,11.93,230.00,14.00,0.00,29.98,1009.70,10.00,21.00,CLR,M,M,M,M,M,M,M,M,M,M,M,M,M,M,91.56,KINS 112158Z AUTO 23014G21KT 10SM CLR 36/02 A2998 RMK AO2 SLP097 T03590020 $,M
LSV,2021-09-11 21:58,-115.0343,36.2362,570.00,102.00,43.70,13.89,230.00,13.00,0.00,29.88,1008.90,10.00,18.00,CLR,M,M,M,M,M,M,M,M,M,M,M,M,M,M,97.72,KLSV 112158Z AUTO 23013G18KT 10SM CLR 39/07 A2988 RMK AO2 SLP089 T03890065 $,M
VGT,2021-09-11 22:00,-115.1933,36.2111,667.00,103.00,41.00,12.19,210.00,13.00,0.00,29.90,M,10.00,19.00,CLR,M,M,M,M,M,M,M,M,M,M,M,M,M,M,98.00,KVGT 112200Z 21013G19KT 10SM CLR 39/05 A2990 RMK AO2 WSHFT 2140 T03940050,M
TMT,2021-09-11 22:15,-117.1971,39.4643,1749.34,80.40,46.00,29.70,350.00,6.00,0.00,30.18,M,10.00,M,CLR,M,M,M,M,M,M,M,M,M,M,M,M,M,M,79.41,KTMT 112215Z AUTO 35006KT 10SM CLR 27/08 A3018 RMK AO2 T02690077,M
CXP,2021-09-11 22:15,-119.7326,39.1923,1431.00,86.00,39.20,19.15,250.00,7.00,0.00,30.13,M,10.00,M,BKN,M,M,M,9000.00,M,M,M,M,M,M,M,M,M,M,82.79,KCXP 112215Z AUTO 25007KT 220V280 10SM BKN090 30/04 A3013 RMK AO2,M
BVU,2021-09-11 22:15,-114.8611,35.9475,671.00,100.40,48.20,17.28,120.00,6.00,0.00,29.91,M,10.00,M,FEW,M,M,M,12000.00,M,M,M,M,M,M,M,M,M,M,97.00,KBVU 112215Z AUTO 12006KT 10SM FEW120 38/09 A2991 RMK AO2,M
RTS,2021-09-11 22:15,-119.8764,39.6682,1539.00,78.80,39.20,24.19,M,6.00,0.00,30.16,M,10.00,M,SCT,M,M,M,9000.00,M,M,M,M,M,M,M,M,M,M,78.80,KRTS 112215Z AUTO VRB06KT 10SM SCT090 26/04 A3016 RMK AO2,M
BAM,2021-09-11 22:15,-116.8743,40.5990,1382.36,82.40,46.40,28.36,320.00,5.00,0.00,30.13,M,10.00,M,SCT,SCT,M,M,8000.00,10000.00,M,M,M,M,M,M,M,M,M,80.64,KBAM 112215Z AUTO 32005KT 10SM SCT080 SCT100 28/08 A3013 RMK AO1,M
MEV,2021-09-11 22:15,-119.7500,38.9963,1441.42,84.20,41.00,21.76,M,5.00,0.00,30.12,M,10.00,12.00,CLR,M,M,M,M,M,M,M,M,M,M,M,M,M,M,81.52,KMEV 112215Z AUTO VRB05G12KT 10SM CLR 29/05 A3012 RMK AO2,M
INS,2021-09-11 22:32,-115.6733,36.5872,955.00,96.80,37.40,12.73,260.00,13.00,0.00,29.97,1009.40,10.00,18.00,CLR,M,M,M,M,M,M,M,M,M,M,M,M,M,M,92.04,KINS 112232Z AUTO 26013G18KT 10SM CLR 36/03 A2997 RMK AO2 WSHFT 25 SLP094 $,M
CXP,2021-09-11 22:35,-119.7326,39.1923,1431.00,86.00,39.20,19.15,290.00,8.00,0.00,30.12,M,10.00,13.00,SCT,M,M,M,9000.00,M,M,M,M,M,M,M,M,M,M,82.79,KCXP 112235Z AUTO 29008G13KT 10SM SCT090 30/04 A3012 RMK AO2,M
BAM,2021-09-11 22:35,-116.8743,40.5990,1382.36,80.60,46.40,30.07,0.00,0.00,0.00,30.13,M,10.00,M,SCT,SCT,M,M,8000.00,9000.00,M,M,M,M,M,M,M,M,M,79.56,KBAM 112235Z AUTO 00000KT 10SM SCT080 SCT090 27/08 A3013 RMK AO1,M
BVU,2021-09-11 22:35,-114.8611,35.9475,671.00,100.40,46.40,16.15,M,5.00,0.00,29.90,M,10.00,M,SCT,M,M,M,12000.00,M,M,M,M,M,M,M,M,M,M,96.63,KBVU 112235Z AUTO VRB05KT 10SM SCT120 38/08 A2990 RMK AO2,M
MEV,2021-09-11 22:35,-119.7500,38.9963,1441.42,86.00,41.00,20.54,310.00,12.00,0.00,30.11,M,10.00,M,CLR,M,M,M,M,M,M,M,M,M,M,M,M,M,M,82.86,KMEV 112235Z AUTO 31012KT 10SM CLR 30/05 A3011 RMK AO2,M
TMT,2021-09-11 22:35,-117.1971,39.4643,1749.34,81.00,45.30,28.47,300.00,5.00,0.00,30.18,M,10.00,M,CLR,M,M,M,M,M,M,M,M,M,M,M,M,M,M,79.70,KTMT 112235Z AUTO 30005KT 10SM CLR 27/07 A3018 RMK AO2 T02720074,M
RTS,2021-09-11 22:35,-119.8764,39.6682,1539.00,80.60,37.40,21.25,290.00,7.00,0.00,30.16,M,10.00,15.00,FEW,M,M,M,9000.00,M,M,M,M,M,M,M,M,M,M,79.02,KRTS 112235Z AUTO 29007G15KT 10SM FEW090 27/03 A3016 RMK AO2,M
INS,2021-09-11 22:45,-115.6733,36.5872,955.00,96.80,39.20,13.66,240.00,20.00,0.00,29.96,1009.10,10.00,23.00,CLR,M,M,M,M,M,M,M,M,M,M,M,M,M,M,92.23,KINS 112245Z AUTO 24020G23KT 10SM CLR 36/04 A2996 RMK AO2 WSHFT 41 SLP091 $,M
LOL,2021-09-11 22:53,-118.5701,40.0684,1192.43,86.00,38.00,18.20,M,3.00,0.00,30.07,1014.20,10.00,M,CLR,M,M,M,M,M,M,M,M,M,M,M,M,M,M,82.74,KLOL 112253Z AUTO VRB03KT 10SM CLR 30/03 A3007 RMK AO2 SLP142 T03000033,M
P68,2021-09-11 22:53,-116.0056,39.6014,1993.00,78.00,44.00,29.91,0.00,0.00,0.00,30.17,1013.50,M,M,M,M,M,M,M,M,M,M,M,M,M,M,M,M,M,78.10,KP68 112253Z AUTO 00000KT 26/07 A3017 RMK AO1 SLP135 T02560067,M
VGT,2021-09-11 22:53,-115.1933,36.2111,667.00,103.00,38.00,10.80,210.00,14.00,0.00,29.88,1010.50,10.00,20.00,CLR,M,M,M,M,M,M,M,M,M,M,M,M,M,M,97.33,KVGT 112253Z 21014G20KT 10SM CLR 39/03 A2988 RMK AO2 WSHFT 2140 SLP105 T03940033,M
DRA,2021-09-11 22:53,-116.0278,36.6206,1009.00,96.00,42.00,15.62,190.00,17.00,0.00,29.99,1009.80,10.00,29.00,CLR,M,M,M,M,M,M,M,M,M,M,M,31.00,230.00,2021-09-11 22:31,91.83,KDRA 112253Z AUTO 19017G29KT 10SM CLR 36/06 A2999 RMK AO2 PK WND 23031/2231 SLP098 T03560056,M
ELY,2021-09-11 22:53,-114.8453,39.2950,1909.00,80.00,40.00,23.82,210.00,14.00,0.00,30.19,1012.40,10.00,21.00,SCT,BKN,M,M,10000.00,12000.00,M,M,M,M,M,M,M,M,M,78.93,KELY 112253Z AUTO 21014G21KT 10SM SCT100 BKN120 27/04 A3019 RMK AO2 SLP124 T02670044,M
CXP,2021-09-11 22:55,-119.7326,39.1923,1431.00,86.00,39.20,19.15,290.00,14.00,0.00,30.12,M,10.00,21.00,FEW,M,M,M,9000.00,M,M,M,M,M,M,M,M,M,M,82.79,KCXP 112255Z AUTO 29014G21KT 10SM FEW090 30/04 A3012 RMK AO2,M
BVU,2021-09-11 22:55,-114.8611,35.9475,671.00,102.20,44.60,14.29,230.00,14.00,0.00,29.89,M,10.00,M,FEW,M,M,M,12000.00,M,M,M,M,M,M,M,M,M,M,98.07,KBVU 112255Z AUTO 23014KT 10SM FEW120 39/07 A2989 RMK AO2,M
RNO,2021-09-11 22:55,-119.7711,39.4839,1341.00,86.00,40.00,19.68,M,3.00,0.00,30.09,1013.40,10.00,M,SCT,M,M,M,10000.00,M,M,M,M,M,M,M,M,M,M,82.81,KRNO 112255Z VRB03KT 10SM SCT100 30/04 A3009 RMK AO2 SLP134 HZ DSNT SE THRU SW AND W T03000044,M
TMT,2021-09-11 22:55,-117.1971,39.4643,1749.34,80.00,45.00,28.99,310.00,3.00,0.00,30.18,M,10.00,M,CLR,M,M,M,M,M,M,M,M,M,M,M,M,M,M,79.18,KTMT 112255Z AUTO 31003KT 10SM CLR 27/07 A3018 RMK AO2 T02670072,M
RTS,2021-09-11 22:55,-119.8764,39.6682,1539.00,80.60,37.40,21.25,350.00,7.00,0.00,30.15,M,10.00,17.00,CLR,M,M,M,M,M,M,M,M,M,M,M,M,M,M,79.02,KRTS 112255Z AUTO 35007G17KT 10SM CLR 27/03 A3015 RMK AO2,M
BAM,2021-09-11 22:55,-116.8743,40.5990,1382.36,82.40,46.40,28.36,240.00,4.00,0.00,30.12,M,10.00,M,SCT,BKN,M,M,8000.00,10000.00,M,M,M,M,M,M,M,M,M,80.64,KBAM 112255Z AUTO 24004KT 10SM SCT080 BKN100 28/08 A3012 RMK AO1,M
MEV,2021-09-11 22:55,-119.7500,38.9963,1441.42,84.20,41.00,21.76,310.00,11.00,0.00,30.11,M,10.00,M,CLR,M,M,M,M,M,M,M,M,M,M,M,M,M,M,81.52,KMEV 112255Z AUTO 31011KT 10SM CLR 29/05 A3011 RMK AO2,M
WMC,2021-09-11 22:56,-117.8072,40.9019,1315.00,83.00,42.00,23.68,330.00,6.00,0.00,30.10,1015.20,10.00,M,BKN,M,M,M,10000.00,M,M,M,M,M,M,M,M,M,M,80.68,KWMC 112256Z AUTO 33006KT 10SM BKN100 28/06 A3010 RMK AO2 SLP152 T02830056 $,M
HND,2021-09-11 22:56,-115.1344,35.9729,742.79,102.00,43.00,13.52,230.00,13.00,0.00,29.94,1011.90,10.00,22.00,CLR,M,M,M,M,M,M,M,M,M,M,M,M,M,M,97.60,KHND 112256Z 23013G22KT 10SM CLR 39/06 A2994 RMK AO2 SLP119 T03890061,M
NFL,2021-09-11 22:56,-118.7010,39.4166,1199.00,88.00,41.00,19.28,M,4.00,0.00,30.06,1014.80,10.00,M,SCT,M,M,M,8000.00,M,M,M,M,M,M,M,M,M,M,84.46,KNFL 112256Z VRB04KT 10SM SCT080 31/05 A3006 RMK AO2 SLP148 T03110050,M
EKO,2021-09-11 22:56,-115.7860,40.8242,1367.00,83.00,43.00,24.51,M,4.00,0.00,30.14,1015.10,10.00,M,BKN,M,M,M,8000.00,M,M,M,M,M,M,M,M,M,M,80.73,KEKO 112256Z AUTO VRB04KT 10SM BKN080 28/06 A3014 RMK AO2 SLP151 T02830061,M
LAS,2021-09-11 22:56,-115.1634,36.0719,663.00,101.00,42.00,13.50,200.00,9.00,0.00,29.91,1009.60,10.00,19.00,FEW,M,M,M,14000.00,M,M,M,M,M,M,M,M,M,M,96.42,KLAS 112256Z 20009G19KT 10SM FEW140 38/06 A2991 RMK AO2 SLP096 T03830056,M
TPH,2021-09-11 22:56,-117.0904,38.0505,1654.00,85.00,35.00,16.88,M,3.00,0.00,30.14,1012.60,10.00,M,SCT,M,M,M,10000.00,M,M,M,M,M,M,M,M,M,M,81.84,KTPH 112256Z AUTO VRB03KT 10SM SCT100 29/02 A3014 RMK AO2 SLP126 T02940017,M
INS,2021-09-11 22:58,-115.6733,36.5872,955.00,96.00,37.20,12.91,250.00,12.00,0.00,29.96,1009.10,10.00,M,CLR,M,M,M,M,M,M,M,M,M,M,M,26.00,260.00,2021-09-11 22:35,91.43,KINS 112258Z AUTO 25012KT 10SM CLR 36/03 A2996 RMK AO2 PK WND 26026/35 SLP091 T03560029 $,M
LSV,2021-09-11 22:58,-115.0343,36.2362,570.00,102.20,40.00,11.92,230.00,8.00,0.00,29.86,1008.30,10.00,17.00,CLR,M,M,M,M,M,M,M,M,M,M,M,M,M,M,97.14,KLSV 112258Z AUTO 23008G17KT 10SM CLR 39/04 A2986 RMK AO2 SLP083 T03900044 $,M
BVU,2021-09-11 23:15,-114.8611,35.9475,671.00,102.20,41.00,12.44,M,8.00,0.00,29.88,M,10.00,14.00,FEW,M,M,M,12000.00,M,M,M,M,M,M,M,M,M,M,97.39,KBVU 112315Z AUTO VRB08G14KT 10SM FEW120 39/05 A2988 RMK AO2,M
TMT,2021-09-11 23:15,-117.1971,39.4643,1749.34,81.00,44.20,27.21,260.00,3.00,0.00,30.17,M,10.00,M,CLR,M,M,M,M,M,M,M,M,M,M,M,M,M,M,79.68,KTMT 112315Z AUTO 26003KT 10SM CLR 27/07 A3017 RMK AO2 T02730068,M
MEV,2021-09-11 23:15,-119.7500,38.9963,1441.42,86.00,41.00,20.54,290.00,7.00,0.00,30.11,M,10.00,15.00,CLR,M,M,M,M,M,M,M,M,M,M,M,M,M,M,82.86,KMEV 112315Z AUTO 29007G15KT 10SM CLR 30/05 A3011 RMK AO2,M
BAM,2021-09-11 23:15,-116.8743,40.5990,1382.36,82.40,46.40,28.36,60.00,3.00,0.00,30.12,M,10.00,M,SCT,BKN,M,M,8000.00,11000.00,M,M,M,M,M,M,M,M,M,80.64,KBAM 112315Z AUTO 06003KT 10SM SCT080 BKN110 28/08 A3012 RMK AO1,M
CXP,2021-09-11 23:15,-119.7326,39.1923,1431.00,86.00,39.20,19.15,270.00,13.00,0.00,30.12,M,10.00,M,CLR,M,M,M,M,M,M,M,M,M,M,M,M,M,M,82.79,KCXP 112315Z AUTO 27013KT 10SM CLR 30/04 A3012 RMK AO2,M
RTS,2021-09-11 23:15,-119.8764,39.6682,1539.00,80.60,37.40,21.25,M,4.00,0.00,30.15,M,10.00,13.00,CLR,M,M,M,M,M,M,M,M,M,M,M,M,M,M,79.02,KRTS 112315Z AUTO VRB04G13KT 10SM CLR 27/03 A3015 RMK AO2,M
LSV,2021-09-11 23:18,-115.0343,36.2362,570.00,102.20,41.00,12.44,220.00,15.00,0.00,29.86,1008.30,10.00,M,CLR,M,M,M,M,M,M,M,M,M,M,M,M,M,M,97.39,KLSV 112318Z AUTO 22015KT 10SM CLR 39/05 A2986 RMK AO2 WSHFT 12 SLP083 $,M
BVU,2021-09-11 23:35,-114.8611,35.9475,671.00,102.20,46.40,15.30,230.00,10.00,0.00,29.88,M,10.00,M,FEW,M,M,M,12000.00,M,M,M,M,M,M,M,M,M,M,98.43,KBVU 112335Z AUTO 23010KT 160V260 10SM FEW120 39/08 A2988 RMK AO2,M
INS,2021-09-11 23:35,-115.6733,36.5872,955.00,95.00,39.20,14.44,230.00,18.00,0.00,29.95,1008.90,10.00,24.00,CLR,M,M,M,M,M,M,M,M,M,M,M,M,M,M,90.57,KINS 112335Z AUTO 23018G24KT 10SM CLR 35/04 A2995 RMK AO2 WSHFT 20 SLP089 $,M
CXP,2021-09-11 23:35,-119.7326,39.1923,1431.00,86.00,39.20,19.15,260.00,10.00,0.00,30.12,M,10.00,15.00,CLR,M,M,M,M,M,M,M,M,M,M,M,M,M,M,82.79,KCXP 112335Z AUTO 26010G15KT 230V290 10SM CLR 30/04 A3012 RMK AO2,M
RTS,2021-09-11 23:35,-119.8764,39.6682,1539.00,80.60,35.60,19.79,310.00,15.00,0.00,30.15,M,10.00,M,FEW,M,M,M,9500.00,M,M,M,M,M,M,M,M,M,M,78.94,KRTS 112335Z AUTO 31015KT 10SM FEW095 27/02 A3015 RMK AO2,M
MEV,2021-09-11 23:35,-119.7500,38.9963,1441.42,84.20,41.00,21.76,290.00,12.00,0.00,30.11,M,10.00,19.00,CLR,M,M,M,M,M,M,M,M,M,M,M,M,M,M,81.52,KMEV 112335Z AUTO 29012G19KT 260V340 10SM CLR 29/05 A3011 RMK AO2,M
BAM,2021-09-11 23:35,-116.8743,40.5990,1382.36,84.20,44.60,24.99,310.00,5.00,0.00,30.11,M,10.00,M,SCT,M,M,M,8000.00,M,M,M,M,M,M,M,M,M,M,81.73,KBAM 112335Z AUTO 31005KT 10SM SCT080 29/07 A3011 RMK AO1,M
TMT,2021-09-11 23:35,-117.1971,39.4643,1749.34,80.80,44.00,27.37,310.00,6.00,0.00,30.16,M,10.00,M,CLR,M,M,M,M,M,M,M,M,M,M,M,M,M,M,79.50,KTMT 112335Z AUTO 31006KT 10SM CLR 27/07 A3016 RMK AO2 T02710067,M
VGT,2021-09-11 23:53,-115.1933,36.2111,667.00,102.00,41.00,12.52,260.00,13.00,0.00,29.87,1010.00,10.00,18.00,CLR,M,M,M,M,M,M,M,M,M,M,M,M,M,M,97.21,KVGT 112353Z 26013G18KT 10SM CLR 39/05 A2987 RMK AO2 SLP100 T03890050 10400 20356 56017,M
P68,2021-09-11 23:53,-116.0056,39.6014,1993.00,74.00,51.00,44.76,360.00,12.00,0.00,30.17,1014.50,M,M,M,M,M,M,M,M,M,M,M,M,M,M,M,M,M,73.90,KP68 112353Z AUTO 36012KT 23/11 A3017 RMK AO1 SLP145 T02330106 10267 20211 55013,M
DRA,2021-09-11 23:53,-116.0278,36.6206,1009.00,95.00,42.00,16.16,220.00,11.00,0.00,29.98,1009.40,10.00,23.00,CLR,M,M,M,M,M,M,M,M,M,M,M,30.00,200.00,2021-09-11 22:56,90.79,KDRA 112353Z AUTO 22011G23KT 10SM CLR 35/06 A2998 RMK AO2 PK WND 20030/2256 SLP094 T03500056 10361 20333 56014,M
LOL,2021-09-11 23:53,-118.5701,40.0684,1192.43,88.00,40.00,18.47,50.00,3.00,0.00,30.05,1013.70,10.00,M,CLR,M,M,M,M,M,M,M,M,M,M,M,M,M,M,84.41,KLOL 112353Z AUTO 05003KT 10SM CLR 31/04 A3005 RMK AO2 SLP137 T03110044 10317 20261 56015,M
ELY,2021-09-11 23:53,-114.8453,39.2950,1909.00,81.00,43.00,26.08,180.00,11.00,0.00,30.18,1011.90,10.00,M,BKN,M,M,M,11000.00,M,M,M,M,M,M,M,M,M,M,79.54,KELY 112353Z AUTO 18011KT 10SM BKN110 27/06 A3018 RMK AO2 SLP119 60000 T02720061 10278 20194 56014,M
RNO,2021-09-11 23:55,-119.7711,39.4839,1341.00,84.00,40.00,20.99,220.00,5.00,0.00,30.09,1013.60,10.00,M,FEW,SCT,SCT,M,9000.00,10000.00,20000.00,M,M,M,M,M,M,M,M,81.33,KRNO 112355Z 22005KT 10SM FEW090 SCT100 SCT200 29/04 A3009 RMK AO2 SLP136 FU ALF DSNT S HZ DSNT SW AND W T02890044 10311 20233 56012,M
BVU,2021-09-11 23:55,-114.8611,35.9475,671.00,102.20,39.20,11.60,240.00,14.00,0.00,29.88,M,10.00,24.00,FEW,M,M,M,12000.00,M,M,M,M,M,M,M,M,M,M,96.99,KBVU 112355Z AUTO 24014G24KT 10SM FEW120 39/04 A2988 RMK AO2,M
CXP,2021-09-11 23:55,-119.7326,39.1923,1431.00,86.00,39.20,19.15,300.00,10.00,0.00,30.12,M,10.00,17.00,CLR,M,M,M,M,M,M,M,M,M,M,M,M,M,M,82.79,KCXP 112355Z AUTO 30010G17KT 10SM CLR 30/04 A3012 RMK AO2,M
MEV,2021-09-11 23:55,-119.7500,38.9963,1441.42,84.20,41.00,21.76,290.00,8.00,0.00,30.11,M,10.00,15.00,CLR,M,M,M,M,M,M,M,M,M,M,M,M,M,M,81.52,KMEV 112355Z AUTO 29008G15KT 260V320 10SM CLR 29/05 A3011 RMK AO2,M
RTS,2021-09-11 23:55,-119.8764,39.6682,1539.00,82.40,35.60,18.67,310.00,12.00,0.00,30.15,M,10.00,20.00,FEW,M,M,M,9500.00,M,M,M,M,M,M,M,M,M,M,80.08,KRTS 112355Z AUTO 31012G20KT 10SM FEW095 28/02 A3015 RMK AO2,M
BAM,2021-09-11 23:55,-116.8743,40.5990,1382.36,84.20,44.60,24.99,300.00,4.00,0.00,30.11,M,10.00,M,CLR,M,M,M,M,M,M,M,M,M,M,M,M,M,M,81.73,KBAM 112355Z AUTO 30004KT 10SM CLR 29/07 A3011 RMK AO1,M
TMT,2021-09-11 23:55,-117.1971,39.4643,1749.34,81.00,45.30,28.47,310.00,6.00,0.00,30.17,M,10.00,M,CLR,M,M,M,M,M,M,M,M,M,M,M,M,M,M,79.70,KTMT 112355Z AUTO 31006KT 10SM CLR 27/07 A3017 RMK AO2 T02720074 10276 20188,M
NFL,2021-09-11 23:56,-118.7010,39.4166,1199.00,87.00,39.00,18.35,30.00,3.00,0.00,30.05,1014.40,10.00,M,FEW,M,M,M,8000.00,M,M,M,M,M,M,M,M,M,M,83.65,KNFL 112356Z 03003KT 10SM FEW080 31/04 A3005 RMK AO2 SLP144 T03060039 10317 20250 56015,M
EKO,2021-09-11 23:56,-115.7860,40.8242,1367.00,82.00,42.00,24.38,0.00,0.00,0.00,30.13,1015.00,10.00,M,CLR,M,M,M,M,M,M,M,M,M,M,M,M,M,M,80.09,KEKO 112356Z AUTO 00000KT 10SM CLR 28/06 A3013 RMK AO2 SLP150 T02780056 10289 20217 56014,M
HND,2021-09-11 23:56,-115.1344,35.9729,742.79,100.00,45.00,15.50,270.00,11.00,0.00,29.93,1011.70,10.00,18.00,CLR,M,M,M,M,M,M,M,M,M,M,M,M,M,M,95.99,KHND 112356Z 27011G18KT 10SM CLR 38/07 A2993 RMK AO2 SLP117 T03780072 10389 20350 56018,M
TPH,2021-09-11 23:56,-117.0904,38.0505,1654.00,85.00,35.00,16.88,0.00,0.00,0.00,30.13,1012.50,10.00,M,FEW,M,M,M,11000.00,M,M,M,M,M,M,M,M,M,M,81.84,KTPH 112356Z AUTO 00000KT 10SM FEW110 29/02 A3013 RMK AO2 SLP125 T02940017 10306 20250 56014,M
WMC,2021-09-11 23:56,-117.8072,40.9019,1315.00,86.00,43.00,22.19,M,3.00,0.00,30.09,1014.50,10.00,M,OVC,M,M,M,9500.00,M,M,M,M,M,M,M,M,M,M,82.97,KWMC 112356Z AUTO VRB03KT 10SM OVC095 30/06 A3009 RMK AO2 SLP145 T03000061 10300 20244 56013 $,M
LAS,2021-09-11 23:56,-115.1634,36.0719,663.00,101.00,42.00,13.50,240.00,11.00,0.00,29.89,1009.20,10.00,19.00,FEW,M,M,M,14000.00,M,M,M,M,M,M,M,27.00,240.00,2021-09-11 23:37,96.42,KLAS 112356Z 24011G19KT 10SM FEW140 38/06 A2989 RMK AO2 PK WND 24027/2337 SLP092 T03830056 10389 20350 56017,M
INS,2021-09-11 23:58,-115.6733,36.5872,955.00,95.00,40.00,14.96,260.00,18.00,0.00,29.95,1008.90,10.00,M,CLR,M,M,M,M,M,M,M,M,M,M,M,M,M,M,90.63,KINS 112358Z AUTO 26018KT 10SM CLR 35/05 A2995 RMK AO2 SLP089 T03500045 10360 20327 57013 $,M
LSV,2021-09-11 23:58,-115.0343,36.2362,570.00,102.40,40.00,11.95,230.00,12.00,0.00,29.85,1008.00,10.00,M,CLR,M,M,M,M,M,M,M,M,M,M,M,M,M,M,97.36,KLSV 112358Z AUTO 23012KT 10SM CLR 39/05 A2985 RMK AO2 SLP080 T03910045 10394 20357 57017 $,M
