station,valid,lon,lat,elevation,tmpf,dwpf,relh,drct,sknt,p01i,alti,mslp,vsby,gust,skyc1,skyc2,skyc3,skyc4,skyl1,skyl2,skyl3,skyl4,wxcodes,ice_accretion_1hr,ice_accretion_3hr,ice_accretion_6hr,peak_wind_gust,peak_wind_drct,peak_wind_time,feel,metar,snowdepth
05U,2022-04-22 00:10,-116.0051,39.6042,1811.23,51.80,26.60,37.38,340.00,15.00,0.00,29.77,M,10.00,21.00,M,M,M,M,M,M,M,M,M,M,M,M,M,M,M,51.80,K05U 220010Z AUTO 34015G21KT 10SM 11/M03 A2977 RMK A01,M
TPH,2022-04-22 00:14,-117.0904,38.0505,1654.00,59.00,23.00,24.76,270.00,10.00,0.00,29.73,M,10.00,20.00,SCT,M,M,M,9500.00,M,M,M,M,M,M,M,29.00,250.00,2022-04-21 23:59,59.00,KTPH 220014Z AUTO 27010G20KT 10SM SCT095 15/M05 A2973 RMK AO2 PK WND 25029/2359 WSHFT 2354 T01501050 $,M
CXP,2022-04-22 00:15,-119.7326,39.1923,1431.00,42.80,33.80,70.28,210.00,7.00,0.00,29.87,M,3.00,16.00,FEW,SCT,BKN,M,400.00,2400.00,4100.00,M,HZ,M,M,M,M,M,M,37.94,KCXP 220015Z AUTO 21007G16KT 180V260 3SM HZ FEW004 SCT024 BKN041 06/01 A2987 RMK AO2,M
MEV,2022-04-22 00:15,-119.7500,38.9963,1441.42,41.00,37.40,86.89,150.00,13.00,0.00,29.86,M,10.00,M,CLR,M,M,M,M,M,M,M,-RA,M,M,M,M,M,M,33.10,KMEV 220015Z AUTO 15013KT 10SM -RA CLR 05/03 A2986 RMK AO2,M
RTS,2022-04-22 00:15,-119.8764,39.6682,1539.00,41.00,30.20,65.16,260.00,13.00,0.00,29.85,M,10.00,M,BKN,BKN,BKN,M,3200.00,4300.00,4900.00,M,M,M,M,M,M,M,M,33.10,KRTS 220015Z AUTO 26013KT 10SM BKN032 BKN043 BKN049 05/M01 A2985 RMK AO2,M
BVU,2022-04-22 00:15,-114.8611,35.9475,671.00,84.20,14.00,7.16,220.00,19.00,0.00,29.73,M,10.00,30.00,CLR,M,M,M,M,M,M,M,M,M,M,M,M,M,M,80.44,KBVU 220015Z AUTO 22019G30KT 10SM CLR 29/M10 A2973 RMK AO2,M
BAM,2022-04-22 00:15,-116.8743,40.5990,1382.36,44.60,37.40,75.68,0.00,0.00,0.00,29.86,M,10.00,M,SCT,BKN,OVC,M,3400.00,4300.00,7000.00,M,M,M,M,M,M,M,M,44.60,KBAM 220015Z AUTO 00000KT 10SM SCT034 BKN043 OVC070 07/03 A2986 RMK AO1,M
TMT,2022-04-22 00:15,-117.1971,39.4643,1749.34,38.50,35.80,89.91,10.00,5.00,0.00,29.87,M,10.00,M,OVC,M,M,M,1600.00,M,M,M,-RA,M,M,M,M,M,M,34.11,KTMT 220015Z AUTO 01005KT 10SM -RA OVC016 04/02 A2987 RMK AO2 T00360021,M
HTH,2022-04-22 00:15,-118.6315,38.5448,1282.89,60.80,14.00,15.78,230.00,10.00,0.00,29.77,M,10.00,M,SCT,M,M,M,9000.00,M,M,M,M,M,M,M,M,M,M,60.80,KHTH 220015Z AUTO 23010KT 190V250 10SM SCT090 16/M10 A2977 RMK A01,M
05U,2022-04-22 00:35,-116.0051,39.6042,1811.23,48.20,32.00,53.27,290.00,14.00,0.00,29.82,M,10.00,M,M,M,M,M,M,M,M,M,M,M,M,M,M,M,M,42.04,K05U 220035Z AUTO 29014KT 10SM 09/M00 A2982 RMK A01,M
TMT,2022-04-22 00:35,-117.1971,39.4643,1749.34,38.00,35.60,91.32,60.00,6.00,0.01,29.86,M,10.00,M,SCT,BKN,OVC,M,1600.00,2800.00,3500.00,M,-RA,M,M,M,M,M,M,32.64,KTMT 220035Z AUTO 06006KT 10SM -RA SCT016 BKN028 OVC035 03/02 A2986 RMK AO2 P0001 T00330020,M
BVU,2022-04-22 00:35,-114.8611,35.9475,671.00,82.40,14.00,7.58,240.00,24.00,0.00,29.73,M,10.00,M,CLR,M,M,M,M,M,M,M,M,M,M,M,M,M,M,79.20,KBVU 220035Z AUTO 24024KT 10SM CLR 28/M10 A2973 RMK AO2,M
RTS,2022-04-22 00:35,-119.8764,39.6682,1539.00,42.80,30.20,60.79,240.00,10.00,0.00,29.86,M,10.00,M,SCT,SCT,BKN,M,3300.00,4200.00,4800.00,M,M,M,M,M,M,M,M,36.51,KRTS 220035Z AUTO 24010KT 10SM SCT033 SCT042 BKN048 06/M01 A2986 RMK AO2,M
MEV,2022-04-22 00:35,-119.7500,38.9963,1441.42,41.00,37.40,86.89,160.00,9.00,0.00,29.86,M,10.00,M,FEW,FEW,SCT,M,2900.00,4500.00,5000.00,M,M,M,M,M,M,M,M,34.70,KMEV 220035Z AUTO 16009KT 10SM FEW029 FEW045 SCT050 05/03 A2986 RMK AO2,M
BAM,2022-04-22 00:35,-116.8743,40.5990,1382.36,44.60,37.40,75.68,0.00,0.00,0.00,29.86,M,7.00,M,BKN,BKN,OVC,M,2600.00,3100.00,3600.00,M,M,M,M,M,M,M,M,44.60,KBAM 220035Z AUTO 00000KT 7SM BKN026 BKN031 OVC036 07/03 A2986 RMK AO1,M
HTH,2022-04-22 00:35,-118.6315,38.5448,1282.89,60.80,14.00,15.78,250.00,13.00,0.00,29.76,M,10.00,21.00,FEW,SCT,M,M,8000.00,9000.00,M,M,M,M,M,M,M,M,M,60.80,KHTH 220035Z AUTO 25013G21KT 10SM FEW080 SCT090 16/M10 A2976 RMK A01,M
CXP,2022-04-22 00:35,-119.7326,39.1923,1431.00,41.00,35.60,80.93,250.00,6.00,0.00,29.87,M,4.00,11.00,SCT,SCT,SCT,M,2200.00,2900.00,4500.00,M,-RA,M,M,M,M,M,M,36.37,KCXP 220035Z AUTO 25006G11KT 4SM -RA SCT022 SCT029 SCT045 05/02 A2987 RMK AO2,M
LOL,2022-04-22 00:53,-118.5701,40.0684,1192.43,47.00,32.00,55.94,60.00,5.00,0.01,29.82,1009.60,10.00,M,SCT,SCT,OVC,M,4100.00,7000.00,9500.00,M,M,M,M,M,M,M,M,44.09,KLOL 220053Z AUTO 06005KT 10SM SCT041 SCT070 OVC095 08/00 A2982 RMK AO2 RAE46 SLP096 P0001 T00830000,M
ELY,2022-04-22 00:53,-114.8453,39.2950,1909.00,58.00,17.10,20.03,210.00,17.00,0.00,29.72,999.70,10.00,25.00,OVC,M,M,M,10000.00,M,M,M,M,M,M,M,39.00,180.00,2022-04-22 00:03,57.90,KELY 220053Z AUTO 21017G25KT 10SM OVC100 14/M08 A2972 RMK AO2 PK WND 18039/0003 SLP997 T01441083,M
P68,2022-04-22 00:53,-116.0056,39.6014,1993.00,43.00,36.00,76.12,290.00,10.00,0.00,29.82,1006.90,M,24.00,M,M,M,M,M,M,M,M,M,M,M,M,M,M,M,36.76,KP68 220053Z AUTO 29010G24KT 06/02 A2982 RMK AO1 SLP069 T00610022,M
DRA,2022-04-22 00:53,-116.0278,36.6206,1009.00,70.00,26.10,19.19,200.00,26.00,0.00,29.73,1003.00,10.00,47.00,CLR,M,M,M,M,M,M,M,M,M,M,M,47.00,210.00,2022-04-22 00:46,70.00,KDRA 220053Z AUTO 20026G47KT 10SM CLR 21/M03 A2973 RMK AO2 PK WND 21047/0046 SLP030 T02111033,M
VGT,2022-04-22 00:53,-115.1933,36.2111,667.00,80.00,23.00,12.03,200.00,22.00,0.00,29.70,1005.50,10.00,30.00,CLR,M,M,M,M,M,M,M,M,M,M,M,43.00,230.00,2022-04-21 23:56,78.29,KVGT 220053Z 20022G30KT 10SM CLR 27/M05 A2970 RMK AO2 PK WND 23043/2356 SLP055 T02671050,M
BAM,2022-04-22 00:55,-116.8743,40.5990,1382.36,44.60,37.40,75.68,130.00,3.00,0.00,29.86,M,10.00,M,SCT,BKN,OVC,M,2200.00,2600.00,6000.00,M,M,M,M,M,M,M,M,43.09,KBAM 220055Z AUTO 13003KT 10SM SCT022 BKN026 OVC060 07/03 A2986 RMK AO1,M
TMT,2022-04-22 00:55,-117.1971,39.4643,1749.34,37.60,35.80,93.14,70.00,5.00,0.01,29.85,M,10.00,M,SCT,SCT,OVC,M,2900.00,3500.00,5500.00,M,-DZ,M,M,M,M,M,M,33.05,KTMT 220055Z AUTO 07005KT 10SM -DZ SCT029 SCT035 OVC055 03/02 A2985 RMK AO2 P0001 T00310021,M
BVU,2022-04-22 00:55,-114.8611,35.9475,671.00,82.40,12.20,7.01,230.00,20.00,0.00,29.72,M,10.00,28.00,CLR,M,M,M,M,M,M,M,M,M,M,M,M,M,M,79.13,KBVU 220055Z AUTO 23020G28KT 10SM CLR 28/M11 A2972 RMK AO2,M
CXP,2022-04-22 00:55,-119.7326,39.1923,1431.00,41.00,35.60,80.93,M,6.00,0.00,29.86,M,10.00,M,BKN,BKN,BKN,M,2000.00,2500.00,3900.00,M,M,M,M,M,M,M,M,36.37,KCXP 220055Z AUTO VRB06KT 10SM BKN020 BKN025 BKN039 05/02 A2986 RMK AO2,M
RNO,2022-04-22 00:55,-119.7711,39.4839,1341.00,46.00,30.90,55.36,300.00,7.00,0.00,29.83,1008.80,10.00,M,BKN,BKN,M,M,6000.00,12000.00,M,M,M,M,M,M,M,M,M,41.84,KRNO 220055Z 30007KT 10SM BKN060 BKN120 08/M01 A2983 RMK AO2 SLP088 MTN TOPS OBSCD SW THRU NW T00781006,M
RTS,2022-04-22 00:55,-119.8764,39.6682,1539.00,41.00,28.40,60.54,240.00,10.00,0.00,29.85,M,10.00,M,FEW,BKN,OVC,M,3300.00,4300.00,5500.00,M,M,M,M,M,M,M,M,34.25,KRTS 220055Z AUTO 24010KT 10SM FEW033 BKN043 OVC055 05/M02 A2985 RMK AO2,M
05U,2022-04-22 00:55,-116.0051,39.6042,1811.23,42.80,35.60,75.50,290.00,11.00,0.00,29.85,M,5.00,16.00,M,M,M,M,M,M,M,M,HZ,M,M,M,M,M,M,36.11,K05U 220055Z AUTO 29011G16KT 5SM HZ 06/02 A2985 RMK A01,M
MEV,2022-04-22 00:55,-119.7500,38.9963,1441.42,41.00,35.60,80.93,190.00,9.00,0.00,29.86,M,10.00,M,SCT,SCT,BKN,M,1400.00,2000.00,4800.00,M,-RA,M,M,M,M,M,M,34.70,KMEV 220055Z AUTO 19009KT 10SM -RA SCT014 SCT020 BKN048 05/02 A2986 RMK AO2,M
HTH,2022-04-22 00:55,-118.6315,38.5448,1282.89,60.80,14.00,15.78,250.00,14.00,0.00,29.76,M,10.00,20.00,CLR,M,M,M,M,M,M,M,M,M,M,M,M,M,M,60.80,KHTH 220055Z AUTO 25014G20KT 10SM CLR 16/M10 A2976 RMK A01,M
NFL,2022-04-22 00:56,-118.7010,39.4166,1199.00,51.00,30.90,45.73,30.00,10.00,0.00,29.80,1007.10,10.00,M,SCT,BKN,BKN,M,6000.00,10000.00,25000.00,M,M,M,M,M,M,M,M,51.10,KNFL 220056Z 03010KT 10SM SCT060 BKN100 BKN250 11/M01 A2980 RMK AO2 SLP071 SH VC N-NE T01061006,M
EKO,2022-04-22 00:56,-115.7860,40.8242,1367.00,47.00,28.90,49.32,300.00,15.00,0.00,29.80,1008.60,10.00,22.00,SCT,OVC,M,M,4600.00,11000.00,M,M,M,M,M,M,M,M,M,40.10,KEKO 220056Z AUTO 30015G22KT 10SM SCT046 OVC110 08/M02 A2980 RMK AO2 SLP086 T00831017,M
HND,2022-04-22 00:56,-115.1344,35.9729,742.79,79.00,25.00,13.56,230.00,16.00,0.00,29.75,1006.90,10.00,25.00,CLR,M,M,M,M,M,M,M,M,M,M,M,30.00,240.00,2022-04-22 00:29,79.00,KHND 220056Z 23016G25KT 10SM CLR 26/M04 A2975 RMK AO2 PK WND 24030/0029 SLP069 T02611039,M
TPH,2022-04-22 00:56,-117.0904,38.0505,1654.00,57.00,21.90,25.40,330.00,17.00,T,29.73,1003.70,10.00,22.00,FEW,OVC,M,M,6000.00,9000.00,M,M,-RA,M,M,M,29.00,250.00,2022-04-21 23:59,57.00,KTPH 220056Z AUTO 33017G22KT 10SM -RA FEW060 OVC090 14/M06 A2973 RMK AO2 PK WND 25029/2359 WSHFT 2354 RAB54 SLP037 P0000 T01391056 $,M
LAS,2022-04-22 00:56,-115.1634,36.0719,663.00,79.00,25.00,13.56,200.00,10.00,0.00,29.72,1004.50,10.00,27.00,FEW,FEW,M,M,16000.00,25000.00,M,M,M,M,M,M,33.00,210.00,2022-04-22 00:13,79.00,KLAS 220056Z 20010G27KT 10SM FEW160 FEW250 26/M04 A2972 RMK AO2 PK WND 21033/0013 SLP045 ACSL DSNT NW-NE AND E T02611039,M
WMC,2022-04-22 00:56,-117.8072,40.9019,1315.00,48.00,35.00,60.76,150.00,9.00,0.00,29.82,1008.40,10.00,M,BKN,M,M,M,10000.00,M,M,M,M,M,M,M,M,M,M,43.41,KWMC 220056Z AUTO 15009KT 10SM BKN100 09/02 A2982 RMK AO2 SLP084 T00890017,M
INS,2022-04-22 00:58,-115.6733,36.5872,955.00,73.20,10.90,8.96,220.00,18.00,0.00,29.70,1002.10,10.00,36.00,FEW,M,M,M,19000.00,M,M,M,M,M,M,M,40.00,220.00,2022-04-22 00:20,73.20,KINS 220058Z AUTO 22018G36KT 10SM FEW190 23/M12 A2970 RMK AO2 PK WND 22040/20 SLP021 T02291117 $,M
LSV,2022-04-22 00:58,-115.0343,36.2362,570.00,82.60,22.60,10.90,220.00,22.00,0.00,29.69,1003.60,10.00,28.00,CLR,M,M,M,M,M,M,M,M,M,M,M,29.00,220.00,2022-04-21 23:59,79.77,KLSV 220058Z AUTO 22022G28KT 10SM CLR 28/M05 A2969 RMK AO2 PK WND 22029/2359 SLP036 T02811052 $,M
05U,2022-04-22 01:10,-116.0051,39.6042,1811.23,41.00,35.60,80.93,320.00,9.00,0.00,29.86,M,6.00,M,M,M,M,M,M,M,M,M,HZ,M,M,M,M,M,M,34.70,K05U 220110Z AUTO 32009KT 6SM HZ 05/02 A2986 RMK A01,M
TMT,2022-04-22 01:15,-117.1971,39.4643,1749.34,37.60,36.00,93.88,60.00,7.00,0.00,29.84,M,10.00,M,OVC,M,M,M,5500.00,M,M,M,M,M,M,M,M,M,M,31.61,KTMT 220115Z AUTO 06007KT 10SM OVC055 03/02 A2984 RMK AO2 T00310022,M
MEV,2022-04-22 01:15,-119.7500,38.9963,1441.42,39.20,35.60,86.79,180.00,7.00,0.00,29.86,M,10.00,12.00,BKN,BKN,BKN,M,1500.00,1900.00,2600.00,M,M,M,M,M,M,M,M,33.56,KMEV 220115Z AUTO 18007G12KT 10SM BKN015 BKN019 BKN026 04/02 A2986 RMK AO2,M
BAM,2022-04-22 01:15,-116.8743,40.5990,1382.36,44.60,37.40,75.68,0.00,0.00,0.00,29.86,M,7.00,M,BKN,BKN,OVC,M,2400.00,3500.00,6000.00,M,M,M,M,M,M,M,M,44.60,KBAM 220115Z AUTO 00000KT 7SM BKN024 BKN035 OVC060 07/03 A2986 RMK AO1,M
HTH,2022-04-22 01:15,-118.6315,38.5448,1282.89,59.00,15.80,18.20,210.00,13.00,0.00,29.77,M,10.00,22.00,CLR,M,M,M,M,M,M,M,M,M,M,M,M,M,M,59.00,KHTH 220115Z AUTO 21013G22KT 10SM CLR 15/M09 A2977 RMK A01,M
RTS,2022-04-22 01:15,-119.8764,39.6682,1539.00,41.00,28.40,60.54,230.00,7.00,0.00,29.85,M,10.00,15.00,BKN,BKN,BKN,M,4000.00,5000.00,6500.00,M,M,M,M,M,M,M,M,35.75,KRTS 220115Z AUTO 23007G15KT 10SM BKN040 BKN050 BKN065 05/M02 A2985 RMK AO2,M
CXP,2022-04-22 01:15,-119.7326,39.1923,1431.00,41.00,35.60,80.93,240.00,4.00,0.00,29.86,M,9.00,M,SCT,OVC,M,M,1600.00,2100.00,M,M,M,M,M,M,M,M,M,37.93,KCXP 220115Z AUTO 24004KT 9SM SCT016 OVC021 05/02 A2986 RMK AO2,M
BVU,2022-04-22 01:15,-114.8611,35.9475,671.00,80.60,17.60,9.40,230.00,17.00,0.00,29.72,M,10.00,22.00,CLR,M,M,M,M,M,M,M,M,M,M,M,M,M,M,78.45,KBVU 220115Z AUTO 23017G22KT 10SM CLR 27/M08 A2972 RMK AO2,M
05U,2022-04-22 01:30,-116.0051,39.6042,1811.23,39.20,35.60,86.79,320.00,7.00,0.00,29.85,M,9.00,12.00,M,M,M,M,M,M,M,M,M,M,M,M,M,M,M,33.56,K05U 220130Z AUTO 32007G12KT 9SM 04/02 A2985 RMK A01,M
HTH,2022-04-22 01:35,-118.6315,38.5448,1282.89,57.20,14.00,17.95,200.00,14.00,0.00,29.77,M,10.00,M,CLR,M,M,M,M,M,M,M,M,M,M,M,M,M,M,57.20,KHTH 220135Z AUTO 20014KT 10SM CLR 14/M10 A2977 RMK A01,M
BVU,2022-04-22 01:35,-114.8611,35.9475,671.00,80.60,17.60,9.40,220.00,14.00,0.00,29.72,M,10.00,M,CLR,M,M,M,M,M,M,M,M,M,M,M,M,M,M,78.45,KBVU 220135Z AUTO 22014KT 10SM CLR 27/M08 A2972 RMK AO2,M
RTS,2022-04-22 01:35,-119.8764,39.6682,1539.00,41.00,28.40,60.54,260.00,8.00,0.00,29.85,M,10.00,M,FEW,SCT,SCT,M,3700.00,5000.00,6000.00,M,M,M,M,M,M,M,M,35.20,KRTS 220135Z AUTO 26008KT 230V290 10SM FEW037 SCT050 SCT060 05/M02 A2985 RMK AO2,M
CXP,2022-04-22 01:35,-119.7326,39.1923,1431.00,41.00,35.60,80.93,210.00,7.00,0.00,29.86,M,10.00,12.00,FEW,OVC,M,M,1600.00,2300.00,M,M,M,M,M,M,M,M,M,35.75,KCXP 220135Z AUTO 21007G12KT 10SM FEW016 OVC023 05/02 A2986 RMK AO2,M
TMT,2022-04-22 01:35,-117.1971,39.4643,1749.34,37.80,36.00,93.52,50.00,7.00,0.00,29.82,M,10.00,M,SCT,BKN,OVC,M,4000.00,5000.00,8500.00,M,M,M,M,M,M,M,M,31.85,KTMT 220135Z AUTO 05007KT 10SM SCT040 BKN050 OVC085 03/02 A2982 RMK AO2 T00320023,M
MEV,2022-04-22 01:35,-119.7500,38.9963,1441.42,41.00,35.60,80.93,220.00,8.00,0.00,29.85,M,10.00,M,BKN,BKN,BKN,M,1600.00,2300.00,3000.00,M,-RA,M,M,M,M,M,M,35.20,KMEV 220135Z AUTO 22008KT 10SM -RA BKN016 BKN023 BKN030 05/02 A2985 RMK AO2,M
BAM,2022-04-22 01:35,-116.8743,40.5990,1382.36,42.80,39.20,86.99,70.00,3.00,0.00,29.85,M,7.00,M,BKN,OVC,M,M,2600.00,3300.00,M,M,M,M,M,M,M,M,M,41.03,KBAM 220135Z AUTO 07003KT 7SM BKN026 OVC033 06/04 A2985 RMK AO1,M
CXP,2022-04-22 01:50,-119.7326,39.1923,1431.00,41.00,35.60,80.93,220.00,6.00,0.00,29.86,M,10.00,12.00,OVC,M,M,M,2300.00,M,M,M,M,M,M,M,M,M,M,36.37,KCXP 220150Z AUTO 22006G12KT 10SM OVC023 05/02 A2986 RMK AO2,M
05U,2022-04-22 01:50,-116.0051,39.6042,1811.23,39.20,35.60,86.79,330.00,10.00,0.00,29.85,M,3.00,M,M,M,M,M,M,M,M,M,BR,M,M,M,M,M,M,32.00,K05U 220150Z AUTO 33010KT 3SM BR 04/02 A2985 RMK A01,M
DRA,2022-04-22 01:53,-116.0278,36.6206,1009.00,67.00,26.10,21.35,190.00,22.00,0.00,29.73,1003.40,10.00,35.00,CLR,M,M,M,M,M,M,M,M,M,M,M,44.00,180.00,2022-04-22 01:05,66.90,KDRA 220153Z AUTO 19022G35KT 10SM CLR 19/M03 A2973 RMK AO2 PK WND 18044/0105 SLP034 T01941033,M
VGT,2022-04-22 01:53,-115.1933,36.2111,667.00,78.00,24.10,13.45,200.00,18.00,0.00,29.70,1005.40,10.00,25.00,CLR,M,M,M,M,M,M,M,M,M,M,M,31.00,210.00,2022-04-22 01:14,78.10,KVGT 220153Z 20018G25KT 10SM CLR 26/M04 A2970 RMK AO2 PK WND 21031/0114 SLP054 T02561044,M
LOL,2022-04-22 01:53,-118.5701,40.0684,1192.43,47.00,34.00,60.61,80.00,5.00,T,29.81,1008.90,10.00,M,OVC,M,M,M,6500.00,M,M,M,M,M,M,M,M,M,M,44.09,KLOL 220153Z AUTO 08005KT 10SM OVC065 08/01 A2981 RMK AO2 RAB28E51 SLP089 P0000 T00830011,M
P68,2022-04-22 01:53,-116.0056,39.6014,1993.00,39.00,35.00,85.76,330.00,9.00,0.02,29.83,1007.60,M,M,M,M,M,M,M,M,M,M,M,M,M,M,M,M,M,32.22,KP68 220153Z AUTO 33009KT 04/02 A2983 RMK AO1 SLP076 P0002 T00390017,M
ELY,2022-04-22 01:53,-114.8453,39.2950,1909.00,57.00,18.00,21.51,180.00,20.00,0.00,29.72,999.50,10.00,36.00,FEW,OVC,M,M,7000.00,9000.00,M,M,M,M,M,M,36.00,170.00,2022-04-22 01:49,57.00,KELY 220153Z AUTO 18020G36KT 10SM FEW070 OVC090 14/M08 A2972 RMK AO2 PK WND 17036/0149 SLP995 T01391078,M
RNO,2022-04-22 01:55,-119.7711,39.4839,1341.00,45.00,30.90,57.50,160.00,3.00,T,29.83,1009.10,10.00,M,BKN,BKN,M,M,4000.00,6000.00,M,M,M,M,M,M,M,M,M,43.55,KRNO 220155Z 16003KT 10SM BKN040 BKN060 07/M01 A2983 RMK AO2 RAB37E47 SLP091 MTNS OBSCD DSNT SW THRU NW P0000 T00721006,M
BAM,2022-04-22 01:55,-116.8743,40.5990,1382.36,42.80,39.20,86.99,360.00,4.00,0.00,29.86,M,10.00,M,BKN,OVC,M,M,2000.00,3300.00,M,M,M,M,M,M,M,M,M,40.03,KBAM 220155Z AUTO 36004KT 10SM BKN020 OVC033 06/04 A2986 RMK AO1,M
HTH,2022-04-22 01:55,-118.6315,38.5448,1282.89,55.40,17.60,22.41,180.00,18.00,0.00,29.76,M,10.00,24.00,SCT,M,M,M,12000.00,M,M,M,M,M,M,M,M,M,M,55.40,KHTH 220155Z AUTO 18018G24KT 10SM SCT120 13/M08 A2976 RMK A01,M
RTS,2022-04-22 01:55,-119.8764,39.6682,1539.00,41.00,28.40,60.54,280.00,4.00,0.00,29.84,M,10.00,M,FEW,FEW,BKN,M,3600.00,4200.00,4700.00,M,M,M,M,M,M,M,M,37.93,KRTS 220155Z AUTO 28004KT 10SM FEW036 FEW042 BKN047 05/M02 A2984 RMK AO2,M
BVU,2022-04-22 01:55,-114.8611,35.9475,671.00,78.80,21.20,11.64,180.00,19.00,0.00,29.72,M,10.00,25.00,CLR,M,M,M,M,M,M,M,M,M,M,M,M,M,M,78.80,KBVU 220155Z AUTO 18019G25KT 10SM CLR 26/M06 A2972 RMK AO2,M
MEV,2022-04-22 01:55,-119.7500,38.9963,1441.42,39.20,35.60,86.79,190.00,5.00,0.00,29.85,M,10.00,11.00,SCT,SCT,BKN,M,1700.00,2200.00,5000.00,M,-RA,M,M,M,M,M,M,34.95,KMEV 220155Z AUTO 19005G11KT 10SM -RA SCT017 SCT022 BKN050 04/02 A2985 RMK AO2,M
TMT,2022-04-22 01:55,-117.1971,39.4643,1749.34,38.30,36.00,91.70,20.00,5.00,0.00,29.83,M,10.00,M,OVC,M,M,M,7500.00,M,M,M,M,M,M,M,M,M,M,33.88,KTMT 220155Z AUTO 02005KT 10SM OVC075 04/02 A2983 RMK AO2 T00350023,M
NFL,2022-04-22 01:56,-118.7010,39.4166,1199.00,49.00,33.00,54.24,40.00,9.00,0.00,29.81,1007.20,10.00,16.00,SCT,BKN,OVC,M,6000.00,10000.00,15000.00,M,M,M,M,M,M,M,M,44.53,KNFL 220156Z 04009G16KT 10SM SCT060 BKN100 OVC150 09/01 A2981 RMK AO2 SLP072 SH DSNT N-NE T00940006,M
WMC,2022-04-22 01:56,-117.8072,40.9019,1315.00,47.00,36.00,65.63,190.00,8.00,0.00,29.81,1008.30,10.00,M,SCT,BKN,M,M,6000.00,9000.00,M,M,M,M,M,M,M,M,M,42.47,KWMC 220156Z AUTO 19008KT 10SM SCT060 BKN090 08/02 A2981 RMK AO2 SLP083 T00830022,M
EKO,2022-04-22 01:56,-115.7860,40.8242,1367.00,42.00,32.00,67.17,280.00,8.00,0.00,29.83,1009.90,10.00,M,OVC,M,M,M,3200.00,M,M,M,M,M,M,M,M,M,M,36.55,KEKO 220156Z AUTO 28008KT 10SM OVC032 06/00 A2983 RMK AO2 SLP099 T00560000,M
HND,2022-04-22 01:56,-115.1344,35.9729,742.79,76.00,26.10,15.73,230.00,16.00,0.00,29.74,1006.70,10.00,22.00,CLR,M,M,M,M,M,M,M,M,M,M,M,27.00,220.00,2022-04-22 01:03,75.90,KHND 220156Z 23016G22KT 10SM CLR 24/M03 A2974 RMK AO2 PK WND 22027/0103 SLP067 T02441033,M
TPH,2022-04-22 01:56,-117.0904,38.0505,1654.00,56.00,21.00,25.45,10.00,14.00,T,29.73,1003.60,10.00,M,BKN,OVC,M,M,9500.00,11000.00,M,M,M,M,M,M,M,M,M,55.90,KTPH 220156Z AUTO 01014KT 10SM BKN095 OVC110 13/M06 A2973 RMK AO2 RAE03 SLP036 P0000 T01331061 $,M
LAS,2022-04-22 01:56,-115.1634,36.0719,663.00,76.00,24.10,14.47,230.00,16.00,0.00,29.70,1004.00,10.00,29.00,FEW,FEW,M,M,16000.00,25000.00,M,M,M,M,M,M,34.00,210.00,2022-04-22 01:07,75.90,KLAS 220156Z 23016G29KT 10SM FEW160 FEW250 24/M04 A2970 RMK AO2 PK WND 21034/0107 SLP040 ACSL DSNT NW-NE AND E T02441044,M
LSV,2022-04-22 01:58,-115.0343,36.2362,570.00,79.30,26.10,14.05,220.00,17.00,0.00,29.68,1003.20,10.00,M,CLR,M,M,M,M,M,M,M,M,M,M,M,31.00,220.00,2022-04-22 01:32,79.30,KLSV 220158Z AUTO 22017KT 10SM CLR 26/M03 A2968 RMK AO2 PK WND 22031/32 SLP032 T02631033 $,M
INS,2022-04-22 01:58,-115.6733,36.5872,955.00,71.00,11.50,9.95,230.00,21.00,0.00,29.70,1002.10,10.00,34.00,CLR,M,M,M,M,M,M,M,M,M,M,M,45.00,220.00,2022-04-22 01:25,70.90,KINS 220158Z AUTO 23021G34KT 10SM CLR 22/M11 A2970 RMK AO2 PK WND 22045/25 SLP021 T02161114 $,M
HTH,2022-04-22 02:15,-118.6315,38.5448,1282.89,55.40,17.60,22.41,200.00,12.00,0.00,29.76,M,10.00,18.00,SCT,M,M,M,11000.00,M,M,M,M,M,M,M,M,M,M,55.40,KHTH 220215Z AUTO 20012G18KT 10SM SCT110 13/M08 A2976 RMK A01,M
TMT,2022-04-22 02:15,-117.1971,39.4643,1749.34,38.50,36.70,93.17,360.00,8.00,0.00,29.83,M,10.00,M,SCT,OVC,M,M,7500.00,8000.00,M,M,M,M,M,M,M,M,M,32.12,KTMT 220215Z AUTO 36008KT 10SM SCT075 OVC080 04/03 A2983 RMK AO2 T00360026,M
BVU,2022-04-22 02:15,-114.8611,35.9475,671.00,77.00,21.20,12.35,180.00,20.00,0.00,29.71,M,10.00,28.00,CLR,M,M,M,M,M,M,M,M,M,M,M,M,M,M,77.00,KBVU 220215Z AUTO 18020G28KT 10SM CLR 25/M06 A2971 RMK AO2,M
CXP,2022-04-22 02:15,-119.7326,39.1923,1431.00,41.00,35.60,80.93,M,4.00,0.00,29.85,M,10.00,M,FEW,SCT,BKN,M,1600.00,2200.00,2600.00,M,M,M,M,M,M,M,M,37.93,KCXP 220215Z AUTO VRB04KT 10SM FEW016 SCT022 BKN026 05/02 A2985 RMK AO2,M
RTS,2022-04-22 02:15,-119.8764,39.6682,1539.00,41.00,28.40,60.54,240.00,6.00,0.00,29.84,M,10.00,M,FEW,BKN,OVC,M,4100.00,4800.00,5500.00,M,M,M,M,M,M,M,M,36.37,KRTS 220215Z AUTO 24006KT 10SM FEW041 BKN048 OVC055 05/M02 A2984 RMK AO2,M
05U,2022-04-22 02:15,-116.0051,39.6042,1811.23,39.20,35.60,86.79,320.00,8.00,0.00,29.85,M,4.00,M,M,M,M,M,M,M,M,M,BR,M,M,M,M,M,M,32.98,K05U 220215Z AUTO 32008KT 4SM BR 04/02 A2985 RMK A01,M
MEV,2022-04-22 02:15,-119.7500,38.9963,1441.42,41.00,35.60,80.93,0.00,0.00,0.00,29.84,M,10.00,M,FEW,FEW,SCT,M,1500.00,2700.00,5000.00,M,M,M,M,M,M,M,M,41.00,KMEV 220215Z AUTO 00000KT 10SM FEW015 FEW027 SCT050 05/02 A2984 RMK AO2,M
BAM,2022-04-22 02:15,-116.8743,40.5990,1382.36,41.00,41.00,100.00,10.00,6.00,0.00,29.86,M,7.00,M,SCT,OVC,M,M,1300.00,2000.00,M,M,M,M,M,M,M,M,M,36.37,KBAM 220215Z AUTO 01006KT 7SM SCT013 OVC020 05/05 A2986 RMK AO1,M
EKO,2022-04-22 02:19,-115.7860,40.8242,1367.00,40.00,34.00,79.25,250.00,7.00,T,29.84,M,10.00,M,BKN,OVC,M,M,2600.00,3300.00,M,M,-RA,M,M,M,M,M,M,34.41,KEKO 220219Z AUTO 25007KT 10SM -RA BKN026 OVC033 04/01 A2984 RMK AO2 RAB13 P0000 T00440011,M
CXP,2022-04-22 02:30,-119.7326,39.1923,1431.00,41.00,35.60,80.93,M,5.00,0.00,29.85,M,10.00,10.00,SCT,BKN,OVC,M,2500.00,3500.00,10000.00,M,M,M,M,M,M,M,M,37.08,KCXP 220230Z AUTO VRB05G10KT 10SM SCT025 BKN035 OVC100 05/02 A2985 RMK AO2,M
RTS,2022-04-22 02:35,-119.8764,39.6682,1539.00,39.20,28.40,64.93,240.00,4.00,0.00,29.84,M,10.00,M,FEW,OVC,M,M,3300.00,4500.00,M,M,M,M,M,M,M,M,M,35.83,KRTS 220235Z AUTO 24004KT 10SM FEW033 OVC045 04/M02 A2984 RMK AO2,M
BVU,2022-04-22 02:35,-114.8611,35.9475,671.00,77.00,23.00,13.32,180.00,18.00,0.00,29.71,M,10.00,24.00,CLR,M,M,M,M,M,M,M,M,M,M,M,M,M,M,77.00,KBVU 220235Z AUTO 18018G24KT 10SM CLR 25/M05 A2971 RMK AO2,M
05U,2022-04-22 02:35,-116.0051,39.6042,1811.23,39.20,35.60,86.79,330.00,8.00,0.00,29.85,M,3.00,M,M,M,M,M,M,M,M,M,BR,M,M,M,M,M,M,32.98,K05U 220235Z AUTO 33008KT 3SM BR 04/02 A2985 RMK A01,M
TMT,2022-04-22 02:35,-117.1971,39.4643,1749.34,38.50,36.70,93.17,30.00,5.00,0.00,29.82,M,10.00,M,BKN,OVC,M,M,7000.00,8500.00,M,M,M,M,M,M,M,M,M,34.11,KTMT 220235Z AUTO 03005KT 10SM BKN070 OVC085 04/03 A2982 RMK AO2 T00360026,M
BAM,2022-04-22 02:35,-116.8743,40.5990,1382.36,41.00,41.00,100.00,340.00,10.00,0.00,29.86,M,10.00,M,OVC,M,M,M,1900.00,M,M,M,M,M,M,M,M,M,M,34.25,KBAM 220235Z AUTO 34010KT 10SM OVC019 05/05 A2986 RMK AO1,M
HTH,2022-04-22 02:35,-118.6315,38.5448,1282.89,55.40,19.40,24.21,270.00,15.00,0.00,29.77,M,10.00,M,SCT,SCT,M,M,9500.00,12000.00,M,M,M,M,M,M,M,M,M,55.40,KHTH 220235Z AUTO 27015KT 230V290 10SM SCT095 SCT120 13/M07 A2977 RMK A01,M
MEV,2022-04-22 02:35,-119.7500,38.9963,1441.42,39.20,33.80,80.79,0.00,0.00,0.00,29.83,M,10.00,M,FEW,SCT,SCT,M,2700.00,5000.00,6000.00,M,M,M,M,M,M,M,M,39.20,KMEV 220235Z AUTO 00000KT 10SM FEW027 SCT050 SCT060 04/01 A2983 RMK AO2,M
CXP,2022-04-22 02:50,-119.7326,39.1923,1431.00,39.20,35.60,86.79,240.00,3.00,0.00,29.85,M,9.00,M,SCT,SCT,BKN,M,2500.00,3500.00,4400.00,M,-UP,M,M,M,M,M,M,36.92,KCXP 220250Z AUTO 24003KT 9SM -UP SCT025 SCT035 BKN044 04/02 A2985 RMK AO2,M
DRA,2022-04-22 02:53,-116.0278,36.6206,1009.00,65.00,32.00,29.12,180.00,20.00,0.00,29.74,1003.50,10.00,34.00,CLR,M,M,M,M,M,M,M,M,M,M,M,37.00,180.00,2022-04-22 02:14,64.90,KDRA 220253Z AUTO 18020G34KT 10SM CLR 18/00 A2974 RMK AO2 PK WND 18037/0214 SLP035 T01830000 53003,M
VGT,2022-04-22 02:53,-115.1933,36.2111,667.00,75.00,21.90,13.60,220.00,19.00,0.00,29.68,1005.00,10.00,31.00,CLR,M,M,M,M,M,M,M,M,M,M,M,31.00,220.00,2022-04-22 02:46,75.00,KVGT 220253Z 22019G31KT 10SM CLR 24/M06 A2968 RMK AO2 PK WND 22031/0246 SLP050 T02391056 58008,M
LOL,2022-04-22 02:53,-118.5701,40.0684,1192.43,43.00,34.00,70.30,310.00,7.00,0.01,29.84,1009.90,10.00,M,OVC,M,M,M,3800.00,M,M,M,-RA,M,M,M,M,M,M,38.19,KLOL 220253Z AUTO 31007KT 10SM -RA OVC038 06/01 A2984 RMK AO2 RAB22 SLP099 P0001 60002 T00610011 53002,M
P68,2022-04-22 02:53,-116.0056,39.6014,1993.00,38.00,35.00,89.53,360.00,9.00,0.02,29.83,1006.90,M,M,M,M,M,M,M,M,M,M,M,M,M,M,M,M,M,30.85,KP68 220253Z AUTO 36009KT 03/02 A2983 RMK AO1 SLP069 P0002 60004 T00330017 51027,M
ELY,2022-04-22 02:53,-114.8453,39.2950,1909.00,56.00,16.00,20.53,210.00,10.00,0.00,29.73,999.50,10.00,25.00,OVC,M,M,M,9000.00,M,M,M,M,M,M,M,36.00,190.00,2022-04-22 02:15,55.90,KELY 220253Z AUTO 21010G25KT 10SM OVC090 13/M09 A2973 RMK AO2 PK WND 19036/0215 SLP995 T01331089 51005,M
RTS,2022-04-22 02:55,-119.8764,39.6682,1539.00,39.20,28.40,64.93,280.00,5.00,0.00,29.84,M,10.00,M,BKN,OVC,M,M,3500.00,4500.00,M,M,M,M,M,M,M,M,M,34.95,KRTS 220255Z AUTO 28005KT 10SM BKN035 OVC045 04/M02 A2984 RMK AO2,M
RNO,2022-04-22 02:55,-119.7711,39.4839,1341.00,43.00,32.00,64.88,200.00,10.00,T,29.82,1009.00,10.00,M,SCT,BKN,BKN,M,3500.00,5000.00,10000.00,M,M,M,M,M,M,M,M,36.76,KRNO 220255Z 20010KT 10SM SCT035 BKN050 BKN100 06/00 A2982 RMK AO2 RAB08E17 SLP090 VIRGA DSNT W MTNS OBSCD DSNT SW THRU W MTN TOPS OBSCD DSNT SE AND NW P0000 60000 T00610000 58001,M
BAM,2022-04-22 02:55,-116.8743,40.5990,1382.36,41.00,41.00,100.00,350.00,9.00,0.00,29.85,M,10.00,M,OVC,M,M,M,2100.00,M,M,M,M,M,M,M,M,M,M,34.70,KBAM 220255Z AUTO 35009KT 10SM OVC021 05/05 A2985 RMK AO1,M
MEV,2022-04-22 02:55,-119.7500,38.9963,1441.42,39.20,33.80,80.79,150.00,5.00,0.00,29.83,M,10.00,M,FEW,SCT,BKN,M,4600.00,5500.00,6500.00,M,M,M,M,M,M,M,M,34.95,KMEV 220255Z AUTO 15005KT 10SM FEW046 SCT055 BKN065 04/01 A2983 RMK AO2,M
05U,2022-04-22 02:55,-116.0051,39.6042,1811.23,37.40,35.60,93.14,360.00,8.00,0.01,29.85,M,3.00,M,M,M,M,M,M,M,M,M,BR,M,M,M,M,M,M,30.76,K05U 220255Z AUTO 36008KT 3SM BR 03/02 A2985 RMK A01 P0001,M
BVU,2022-04-22 02:55,-114.8611,35.9475,671.00,77.00,23.00,13.32,210.00,15.00,0.00,29.72,M,10.00,25.00,CLR,M,M,M,M,M,M,M,M,M,M,M,M,M,M,77.00,KBVU 220255Z AUTO 21015G25KT 10SM CLR 25/M05 A2972 RMK AO2,M
TMT,2022-04-22 02:55,-117.1971,39.4643,1749.34,37.80,36.30,94.26,100.00,3.00,0.00,29.83,M,10.00,M,OVC,M,M,M,8500.00,M,M,M,M,M,M,M,M,M,M,35.32,KTMT 220255Z AUTO 10003KT 10SM OVC085 03/02 A2983 RMK AO2 60001 T00320024,M
HTH,2022-04-22 02:55,-118.6315,38.5448,1282.89,53.60,23.00,30.11,360.00,12.00,0.00,29.76,M,10.00,17.00,FEW,OVC,M,M,7500.00,9000.00,M,M,M,M,M,M,M,M,M,53.60,KHTH 220255Z AUTO 36012G17KT 10SM FEW075 OVC090 12/M05 A2976 RMK A01,M
LAS,2022-04-22 02:56,-115.1634,36.0719,663.00,74.00,24.10,15.47,230.00,21.00,0.00,29.70,1004.00,10.00,32.00,FEW,FEW,M,M,16000.00,25000.00,M,M,M,M,M,M,36.00,240.00,2022-04-22 02:34,73.90,KLAS 220256Z 23021G32KT 10SM FEW160 FEW250 23/M04 A2970 RMK AO2 PK WND 24036/0234 SLP040 T02331044 56009,M
WMC,2022-04-22 02:56,-117.8072,40.9019,1315.00,41.00,32.00,70.08,240.00,6.00,0.00,29.81,1008.50,10.00,M,CLR,M,M,M,M,M,M,M,M,M,M,M,M,M,M,36.37,KWMC 220256Z AUTO 24006KT 10SM CLR 05/00 A2981 RMK AO2 SLP085 T00500000 58004,M
HND,2022-04-22 02:56,-115.1344,35.9729,742.79,72.00,26.10,17.93,220.00,14.00,0.00,29.75,1007.20,10.00,22.00,CLR,M,M,M,M,M,M,M,M,M,M,M,M,M,M,72.00,KHND 220256Z 22014G22KT 10SM CLR 22/M03 A2975 RMK AO2 SLP072 T02221033 55005,M
TPH,2022-04-22 02:56,-117.0904,38.0505,1654.00,54.00,19.00,25.04,10.00,9.00,0.00,29.73,1003.30,10.00,M,OVC,M,M,M,10000.00,M,M,M,M,M,M,M,M,M,M,54.00,KTPH 220256Z AUTO 01009KT 10SM OVC100 12/M07 A2973 RMK AO2 SLP033 60000 T01221072 51003 $,M
NFL,2022-04-22 02:56,-118.7010,39.4166,1199.00,48.00,33.00,56.10,50.00,8.00,0.00,29.81,1007.10,10.00,M,SCT,BKN,OVC,M,6000.00,10000.00,15000.00,M,M,M,M,M,M,M,M,43.82,KNFL 220256Z 05008KT 10SM SCT060 BKN100 OVC150 09/01 A2981 RMK AO2 SLP071 SH DSNT N-NE T00890006 50003,M
EKO,2022-04-22 02:56,-115.7860,40.8242,1367.00,39.00,35.00,85.76,190.00,3.00,T,29.84,1009.80,10.00,M,OVC,M,M,M,2600.00,M,M,M,-RA,M,M,M,M,M,M,36.69,KEKO 220256Z AUTO 19003KT 10SM -RA OVC026 04/02 A2984 RMK AO2 RAB13 SLP098 P0000 60000 T00390017 51018,M
INS,2022-04-22 02:58,-115.6733,36.5872,955.00,69.00,14.40,12.02,230.00,18.00,0.00,29.70,1002.10,10.00,32.00,SCT,SCT,M,M,16000.00,18000.00,M,M,M,M,M,M,39.00,240.00,2022-04-22 02:57,69.10,KINS 220258Z AUTO 23018G32KT 10SM SCT160 SCT180 21/M10 A2970 RMK AO2 PK WND 24039/57 SLP021 T02061098 51003 $,M
LSV,2022-04-22 02:58,-115.0343,36.2362,570.00,77.00,22.30,12.94,240.00,19.00,0.00,29.69,1003.60,10.00,M,CLR,M,M,M,M,M,M,M,M,M,M,M,26.00,230.00,2022-04-22 02:08,77.00,KLSV 220258Z AUTO 24019KT 10SM CLR 25/M05 A2969 RMK AO2 PK WND 23026/08 SLP036 T02501054 55006 $,M
EKO,2022-04-22 03:12,-115.7860,40.8242,1367.00,39.00,36.00,88.87,200.00,5.00,0.01,29.84,M,10.00,M,OVC,M,M,M,3000.00,M,M,M,-RA,M,M,M,M,M,M,34.71,KEKO 220312Z AUTO 20005KT 10SM -RA OVC030 04/02 A2984 RMK AO2 P0001 T00390022,M
CXP,2022-04-22 03:15,-119.7326,39.1923,1431.00,39.20,32.00,75.16,240.00,5.00,0.00,29.85,M,10.00,10.00,FEW,SCT,OVC,M,4400.00,6000.00,7000.00,M,M,M,M,M,M,M,M,34.95,KCXP 220315Z AUTO 24005G10KT 10SM FEW044 SCT060 OVC070 04/00 A2985 RMK AO2,M
TMT,2022-04-22 03:15,-117.1971,39.4643,1749.34,37.40,36.00,95.00,0.00,0.00,0.00,29.83,M,10.00,M,SCT,OVC,M,M,7500.00,8500.00,M,M,M,M,M,M,M,M,M,37.40,KTMT 220315Z AUTO 00000KT 10SM SCT075 OVC085 03/02 A2983 RMK AO2 T00300023,M
MEV,2022-04-22 03:15,-119.7500,38.9963,1441.42,39.20,33.80,80.79,0.00,0.00,0.00,29.83,M,10.00,M,FEW,BKN,OVC,M,4800.00,5500.00,7000.00,M,M,M,M,M,M,M,M,39.20,KMEV 220315Z AUTO 00000KT 10SM FEW048 BKN055 OVC070 04/01 A2983 RMK AO2,M
05U,2022-04-22 03:15,-116.0051,39.6042,1811.23,37.40,35.60,93.14,10.00,6.00,0.00,29.86,M,5.00,M,M,M,M,M,M,M,M,M,BR,M,M,M,M,M,M,32.03,K05U 220315Z AUTO 01006KT 5SM BR 03/02 A2986 RMK A01,M
RTS,2022-04-22 03:15,-119.8764,39.6682,1539.00,39.20,28.40,64.93,310.00,6.00,0.00,29.84,M,10.00,M,OVC,M,M,M,3400.00,M,M,M,M,M,M,M,M,M,M,34.20,KRTS 220315Z AUTO 31006KT 10SM OVC034 04/M02 A2984 RMK AO2,M
HTH,2022-04-22 03:15,-118.6315,38.5448,1282.89,51.80,23.00,32.17,340.00,7.00,0.00,29.77,M,10.00,M,FEW,BKN,OVC,M,7500.00,9000.00,11000.00,M,M,M,M,M,M,M,M,51.80,KHTH 220315Z AUTO 34007KT 10SM FEW075 BKN090 OVC110 11/M05 A2977 RMK A01,M
BAM,2022-04-22 03:15,-116.8743,40.5990,1382.36,41.00,39.20,93.24,360.00,3.00,0.00,29.85,M,10.00,M,BKN,OVC,M,M,2500.00,4400.00,M,M,M,M,M,M,M,M,M,38.98,KBAM 220315Z AUTO 36003KT 10SM BKN025 OVC044 05/04 A2985 RMK AO1,M
BVU,2022-04-22 03:15,-114.8611,35.9475,671.00,73.40,23.00,15.03,230.00,15.00,0.00,29.73,M,10.00,20.00,CLR,M,M,M,M,M,M,M,M,M,M,M,M,M,M,73.40,KBVU 220315Z AUTO 23015G20KT 10SM CLR 23/M05 A2973 RMK AO2,M
05U,2022-04-22 03:30,-116.0051,39.6042,1811.23,35.60,35.60,100.00,50.00,8.00,0.00,29.86,M,3.00,M,M,M,M,M,M,M,M,M,BR,M,M,M,M,M,M,28.55,K05U 220330Z AUTO 05008KT 3SM BR 02/02 A2986 RMK A01,M
EKO,2022-04-22 03:34,-115.7860,40.8242,1367.00,39.00,36.00,88.87,190.00,5.00,0.02,29.84,M,8.00,M,FEW,OVC,M,M,1600.00,2600.00,M,M,-RA,M,M,M,M,M,M,34.71,KEKO 220334Z AUTO 19005KT 8SM -RA FEW016 OVC026 04/02 A2984 RMK AO2 P0002 T00390022,M
BAM,2022-04-22 03:35,-116.8743,40.5990,1382.36,41.00,41.00,100.00,90.00,3.00,0.00,29.84,M,10.00,M,SCT,OVC,M,M,2500.00,4400.00,M,M,M,M,M,M,M,M,M,38.98,KBAM 220335Z AUTO 09003KT 10SM SCT025 OVC044 05/05 A2984 RMK AO1,M
RTS,2022-04-22 03:35,-119.8764,39.6682,1539.00,39.20,28.40,64.93,300.00,3.00,0.00,29.85,M,10.00,M,OVC,M,M,M,3400.00,M,M,M,M,M,M,M,M,M,M,36.92,KRTS 220335Z AUTO 30003KT 10SM OVC034 04/M02 A2985 RMK AO2,M
TMT,2022-04-22 03:35,-117.1971,39.4643,1749.34,38.00,35.40,90.60,0.00,0.00,0.00,29.83,M,10.00,M,SCT,OVC,M,M,7500.00,8500.00,M,M,M,M,M,M,M,M,M,37.90,KTMT 220335Z AUTO 00000KT 10SM SCT075 OVC085 03/02 A2983 RMK AO2 T00330019,M
CXP,2022-04-22 03:35,-119.7326,39.1923,1431.00,39.20,32.00,75.16,0.00,0.00,0.00,29.83,M,10.00,M,FEW,BKN,OVC,M,4900.00,6000.00,7000.00,M,M,M,M,M,M,M,M,39.20,KCXP 220335Z AUTO 00000KT 10SM FEW049 BKN060 OVC070 04/00 A2983 RMK AO2,M
BVU,2022-04-22 03:35,-114.8611,35.9475,671.00,73.40,24.80,16.20,240.00,22.00,0.00,29.73,M,10.00,28.00,CLR,M,M,M,M,M,M,M,M,M,M,M,M,M,M,73.40,KBVU 220335Z AUTO 24022G28KT 10SM CLR 23/M04 A2973 RMK AO2,M
HTH,2022-04-22 03:35,-118.6315,38.5448,1282.89,51.80,23.00,32.17,0.00,0.00,0.00,29.79,M,10.00,M,OVC,M,M,M,10000.00,M,M,M,M,M,M,M,M,M,M,51.80,KHTH 220335Z AUTO 00000KT 10SM OVC100 11/M05 A2979 RMK A01,M
MEV,2022-04-22 03:35,-119.7500,38.9963,1441.42,39.20,33.80,80.79,0.00,0.00,0.00,29.83,M,10.00,M,FEW,SCT,BKN,M,4000.00,4800.00,5500.00,M,M,M,M,M,M,M,M,39.20,KMEV 220335Z AUTO 00000KT 10SM FEW040 SCT048 BKN055 04/01 A2983 RMK AO2,M
LAS,2022-04-22 03:41,-115.1634,36.0719,663.00,71.00,26.10,18.48,230.00,23.00,0.00,29.72,M,10.00,34.00,FEW,FEW,M,M,16000.00,25000.00,M,M,M,M,M,M,34.00,230.00,2022-04-22 03:40,71.10,KLAS 220341Z 23023G34KT 10SM FEW160 FEW250 22/M03 A2972 RMK AO2 PK WND 23034/0340 T02171033 $,M
ELY,2022-04-22 03:53,-114.8453,39.2950,1909.00,48.00,28.00,45.61,290.00,8.00,0.00,29.76,1001.70,10.00,M,FEW,OVC,M,M,5000.00,7500.00,M,M,M,M,M,M,M,M,M,43.82,KELY 220353Z AUTO 29008KT 10SM FEW050 OVC075 09/M02 A2976 RMK AO2 SLP017 T00891022,M
VGT,2022-04-22 03:53,-115.1933,36.2111,667.00,73.00,25.00,16.56,220.00,15.00,0.00,29.72,1006.40,10.00,25.00,CLR,M,M,M,M,M,M,M,M,M,M,M,33.00,230.00,2022-04-22 03:03,73.00,KVGT 220353Z AUTO 22015G25KT 10SM CLR 23/M04 A2972 RMK AO2 PK WND 23033/0303 SLP064 T02281039,M
DRA,2022-04-22 03:53,-116.0278,36.6206,1009.00,64.00,33.00,31.41,180.00,25.00,0.00,29.74,1003.40,10.00,34.00,CLR,M,M,M,M,M,M,M,M,M,M,M,37.00,190.00,2022-04-22 03:02,64.00,KDRA 220353Z AUTO 18025G34KT 10SM CLR 18/01 A2974 RMK AO2 PK WND 19037/0302 SLP034 T01780006,M
P68,2022-04-22 03:53,-116.0056,39.6014,1993.00,35.00,33.00,92.32,70.00,5.00,0.05,29.83,1007.30,M,M,M,M,M,M,M,M,M,M,M,M,M,M,M,M,M,30.08,KP68 220353Z AUTO 07005KT 02/01 A2983 RMK AO1 SLP073 P0005 T00170006,M
LOL,2022-04-22 03:53,-118.5701,40.0684,1192.43,40.00,35.00,82.80,290.00,5.00,T,29.83,1010.20,10.00,M,FEW,FEW,M,M,9000.00,11000.00,M,M,M,M,M,M,M,M,M,35.78,KLOL 220353Z AUTO 29005KT 10SM FEW090 FEW110 04/02 A2983 RMK AO2 RAE17 SLP102 P0000 T00440017,M
HTH,2022-04-22 03:55,-118.6315,38.5448,1282.89,51.80,23.00,32.17,160.00,9.00,0.00,29.78,M,10.00,17.00,OVC,M,M,M,10000.00,M,M,M,M,M,M,M,M,M,M,51.80,KHTH 220355Z AUTO 16009G17KT 10SM OVC100 11/M05 A2978 RMK A01,M
BVU,2022-04-22 03:55,-114.8611,35.9475,671.00,71.60,24.80,17.22,220.00,18.00,0.00,29.74,M,10.00,24.00,CLR,M,M,M,M,M,M,M,M,M,M,M,M,M,M,71.60,KBVU 220355Z AUTO 22018G24KT 10SM CLR 22/M04 A2974 RMK AO2,M
RNO,2022-04-22 03:55,-119.7711,39.4839,1341.00,41.00,33.00,73.25,120.00,5.00,0.00,29.82,1009.20,10.00,M,SCT,BKN,BKN,M,3000.00,5000.00,8000.00,M,M,M,M,M,M,M,M,37.08,KRNO 220355Z 12005KT 10SM SCT030 BKN050 BKN080 05/01 A2982 RMK AO2 SLP092 MTN TOPS OBSCD DSNT SW T00500006,M
CXP,2022-04-22 03:55,-119.7326,39.1923,1431.00,41.00,32.00,70.08,280.00,6.00,0.00,29.84,M,10.00,M,FEW,SCT,BKN,M,2700.00,4500.00,5500.00,M,M,M,M,M,M,M,M,36.37,KCXP 220355Z AUTO 28006KT 10SM FEW027 SCT045 BKN055 05/M00 A2984 RMK AO2,M
MEV,2022-04-22 03:55,-119.7500,38.9963,1441.42,39.20,32.00,75.16,0.00,0.00,0.00,29.83,M,10.00,M,FEW,BKN,OVC,M,3900.00,4800.00,6000.00,M,M,M,M,M,M,M,M,39.20,KMEV 220355Z AUTO 00000KT 10SM FEW039 BKN048 OVC060 04/M00 A2983 RMK AO2,M
05U,2022-04-22 03:55,-116.0051,39.6042,1811.23,33.80,33.80,100.00,0.00,0.00,0.04,29.85,M,3.00,M,M,M,M,M,M,M,M,M,BR,M,M,M,M,M,M,33.80,K05U 220355Z AUTO 00000KT 3SM BR 01/01 A2985 RMK A01 P0004,M
RTS,2022-04-22 03:55,-119.8764,39.6682,1539.00,37.40,28.40,69.67,M,4.00,0.00,29.84,M,10.00,M,BKN,BKN,OVC,M,3300.00,4100.00,5000.00,M,M,M,M,M,M,M,M,33.73,KRTS 220355Z AUTO VRB04KT 10SM BKN033 BKN041 OVC050 03/M02 A2984 RMK AO2,M
BAM,2022-04-22 03:55,-116.8743,40.5990,1382.36,41.00,41.00,100.00,110.00,6.00,0.00,29.84,M,10.00,M,OVC,M,M,M,4400.00,M,M,M,M,M,M,M,M,M,M,36.37,KBAM 220355Z AUTO 11006KT 10SM OVC044 05/05 A2984 RMK AO1,M
TMT,2022-04-22 03:55,-117.1971,39.4643,1749.34,38.00,35.20,89.89,0.00,0.00,0.00,29.83,M,10.00,M,BKN,OVC,M,M,7500.00,8500.00,M,M,M,M,M,M,M,M,M,37.90,KTMT 220355Z AUTO 00000KT 10SM BKN075 OVC085 03/02 A2983 RMK AO2 T00330018,M
NFL,2022-04-22 03:56,-118.7010,39.4166,1199.00,44.00,37.00,75.93,20.00,9.00,T,29.82,1007.60,8.00,M,OVC,M,M,M,5000.00,M,M,M,-RA,M,M,M,M,M,M,38.56,KNFL 220356Z 02009KT 8SM -RA OVC050 07/03 A2982 RMK AO2 RAB36 SLP076 P0000 T00670028,M
HND,2022-04-22 03:56,-115.1344,35.9729,742.79,69.00,28.00,21.40,200.00,17.00,0.00,29.77,1007.90,10.00,M,CLR,M,M,M,M,M,M,M,M,M,M,M,M,M,M,69.10,KHND 220356Z AUTO 20017KT 10SM CLR 21/M02 A2977 RMK AO2 SLP079 T02061022,M
EKO,2022-04-22 03:56,-115.7860,40.8242,1367.00,39.00,36.00,88.87,170.00,6.00,0.02,29.85,1009.80,10.00,M,OVC,M,M,M,2600.00,M,M,M,-RA,M,M,M,M,M,M,33.96,KEKO 220356Z AUTO 17006KT 10SM -RA OVC026 04/02 A2985 RMK AO2 SLP098 P0002 T00390022,M
WMC,2022-04-22 03:56,-117.8072,40.9019,1315.00,39.00,35.00,85.76,160.00,9.00,0.00,29.81,1009.50,10.00,M,FEW,FEW,BKN,M,7000.00,9500.00,11000.00,M,M,M,M,M,M,M,M,32.22,KWMC 220356Z AUTO 16009KT 10SM FEW070 FEW095 BKN110 04/02 A2981 RMK AO2 SLP095 T00390017,M
LAS,2022-04-22 03:56,-115.1634,36.0719,663.00,70.00,26.10,19.19,220.00,20.00,0.00,29.74,1005.10,10.00,33.00,FEW,FEW,M,M,16000.00,25000.00,M,M,M,M,M,M,34.00,230.00,2022-04-22 03:40,70.00,KLAS 220356Z 22020G33KT 10SM FEW160 FEW250 21/M03 A2974 RMK AO2 PK WND 23034/0340 SLP051 T02111033 $,M
TPH,2022-04-22 03:56,-117.0904,38.0505,1654.00,52.00,17.10,24.83,330.00,14.00,0.00,29.74,1003.40,10.00,19.00,OVC,M,M,M,9000.00,M,M,M,M,M,M,M,M,M,M,52.00,KTPH 220356Z AUTO 33014G19KT 10SM OVC090 11/M08 A2974 RMK AO2 SLP034 T01111083 $,M
LSV,2022-04-22 03:58,-115.0343,36.2362,570.00,74.00,26.40,16.91,240.00,17.00,0.00,29.72,1004.60,10.00,25.00,CLR,M,M,M,M,M,M,M,M,M,M,M,M,M,M,74.10,KLSV 220358Z AUTO 24017G25KT 10SM CLR 23/M03 A2972 RMK AO2 SLP046 T02341031 $,M
INS,2022-04-22 03:58,-115.6733,36.5872,955.00,66.70,20.50,16.99,230.00,26.00,0.00,29.71,1002.10,10.00,35.00,BKN,M,M,M,18000.00,M,M,M,M,M,M,M,43.00,230.00,2022-04-22 03:33,66.70,KINS 220358Z AUTO 23026G35KT 10SM BKN180 19/M06 A2971 RMK AO2 PK WND 23043/33 SLP021 T01931064 $,M
RTS,2022-04-22 04:15,-119.8764,39.6682,1539.00,39.20,26.60,60.29,220.00,11.00,0.00,29.84,M,10.00,M,SCT,BKN,OVC,M,4200.00,4800.00,7500.00,M,M,M,M,M,M,M,M,31.57,KRTS 220415Z AUTO 22011KT 10SM SCT042 BKN048 OVC075 04/M03 A2984 RMK AO2,M
BVU,2022-04-22 04:15,-114.8611,35.9475,671.00,69.80,26.60,19.72,220.00,14.00,0.00,29.75,M,10.00,20.00,CLR,M,M,M,M,M,M,M,M,M,M,M,M,M,M,69.80,KBVU 220415Z AUTO 22014G20KT 10SM CLR 21/M03 A2975 RMK AO2,M
CXP,2022-04-22 04:15,-119.7326,39.1923,1431.00,39.20,32.00,75.16,260.00,6.00,0.00,29.83,M,10.00,14.00,FEW,BKN,OVC,M,2900.00,3700.00,4400.00,M,M,M,M,M,M,M,M,34.20,KCXP 220415Z AUTO 26006G14KT 10SM FEW029 BKN037 OVC044 04/M00 A2983 RMK AO2,M
05U,2022-04-22 04:15,-116.0051,39.6042,1811.23,33.80,33.80,100.00,0.00,0.00,0.00,29.86,M,7.00,M,M,M,M,M,M,M,M,M,M,M,M,M,M,M,M,33.80,K05U 220415Z AUTO 00000KT 7SM 01/01 A2986 RMK A01,M
MEV,2022-04-22 04:15,-119.7500,38.9963,1441.42,37.40,32.00,80.65,210.00,4.00,0.00,29.83,M,10.00,M,BKN,BKN,OVC,M,4800.00,6000.00,6500.00,M,M,M,M,M,M,M,M,33.73,KMEV 220415Z AUTO 21004KT 10SM BKN048 BKN060 OVC065 03/00 A2983 RMK AO2,M
TMT,2022-04-22 04:15,-117.1971,39.4643,1749.34,37.40,35.60,93.14,0.00,0.00,0.00,29.83,M,10.00,M,OVC,M,M,M,7500.00,M,M,M,M,M,M,M,M,M,M,37.40,KTMT 220415Z AUTO 00000KT 10SM OVC075 03/02 A2983 RMK AO2 T00300020,M
HTH,2022-04-22 04:15,-118.6315,38.5448,1282.89,51.80,23.00,32.17,130.00,9.00,0.00,29.78,M,10.00,M,SCT,SCT,M,M,10000.00,12000.00,M,M,M,M,M,M,M,M,M,51.80,KHTH 220415Z AUTO 13009KT 10SM SCT100 SCT120 11/M05 A2978 RMK A01,M
BAM,2022-04-22 04:15,-116.8743,40.5990,1382.36,41.00,41.00,100.00,140.00,6.00,0.00,29.85,M,10.00,M,OVC,M,M,M,5000.00,M,M,M,M,M,M,M,M,M,M,36.37,KBAM 220415Z AUTO 14006KT 10SM OVC050 05/05 A2985 RMK AO1,M
EKO,2022-04-22 04:16,-115.7860,40.8242,1367.00,38.00,35.00,89.53,110.00,3.00,0.01,29.85,M,10.00,M,OVC,M,M,M,3000.00,M,M,M,-RA,M,M,M,M,M,M,35.43,KEKO 220416Z AUTO 11003KT 10SM -RA OVC030 03/02 A2985 RMK AO2 P0001 T00330017,M
05U,2022-04-22 04:30,-116.0051,39.6042,1811.23,33.80,33.80,100.00,0.00,0.00,0.00,29.86,M,3.00,M,M,M,M,M,M,M,M,M,BR,M,M,M,M,M,M,33.80,K05U 220430Z AUTO 00000KT 3SM BR 01/01 A2986 RMK A01,M
RTS,2022-04-22 04:35,-119.8764,39.6682,1539.00,39.20,26.60,60.29,M,3.00,0.00,29.85,M,10.00,10.00,BKN,OVC,M,M,4000.00,4500.00,M,M,M,M,M,M,M,M,M,36.92,KRTS 220435Z AUTO VRB03G10KT 10SM BKN040 OVC045 04/M03 A2985 RMK AO2,M
CXP,2022-04-22 04:35,-119.7326,39.1923,1431.00,39.20,32.00,75.16,250.00,4.00,0.00,29.84,M,10.00,10.00,FEW,SCT,BKN,M,3600.00,4500.00,5000.00,M,M,M,M,M,M,M,M,35.83,KCXP 220435Z AUTO 25004G10KT 10SM FEW036 SCT045 BKN050 04/M00 A2984 RMK AO2,M
HTH,2022-04-22 04:35,-118.6315,38.5448,1282.89,50.00,24.80,37.08,160.00,6.00,0.00,29.80,M,10.00,M,SCT,SCT,BKN,M,7000.00,9500.00,12000.00,M,M,M,M,M,M,M,M,50.00,KHTH 220435Z AUTO 16006KT 10SM SCT070 SCT095 BKN120 10/M04 A2980 RMK A01,M
BAM,2022-04-22 04:35,-116.8743,40.5990,1382.36,41.00,41.00,100.00,0.00,0.00,0.00,29.84,M,10.00,M,SCT,BKN,M,M,5000.00,7000.00,M,M,M,M,M,M,M,M,M,41.00,KBAM 220435Z AUTO 00000KT 10SM SCT050 BKN070 05/05 A2984 RMK AO1,M
BVU,2022-04-22 04:35,-114.8611,35.9475,671.00,69.80,26.60,19.72,220.00,16.00,0.00,29.74,M,10.00,M,CLR,M,M,M,M,M,M,M,M,M,M,M,M,M,M,69.80,KBVU 220435Z AUTO 22016KT 10SM CLR 21/M03 A2974 RMK AO2,M
TMT,2022-04-22 04:35,-117.1971,39.4643,1749.34,37.40,36.00,94.62,0.00,0.00,0.00,29.83,M,10.00,M,OVC,M,M,M,7500.00,M,M,M,M,M,M,M,M,M,M,37.40,KTMT 220435Z AUTO 00000KT 10SM OVC075 03/02 A2983 RMK AO2 T00300022,M
MEV,2022-04-22 04:35,-119.7500,38.9963,1441.42,37.40,33.80,86.69,190.00,3.00,0.00,29.84,M,10.00,M,FEW,BKN,OVC,M,3200.00,4400.00,5000.00,M,M,M,M,M,M,M,M,34.86,KMEV 220435Z AUTO 19003KT 10SM FEW032 BKN044 OVC050 03/01 A2984 RMK AO2,M
05U,2022-04-22 04:50,-116.0051,39.6042,1811.23,33.80,33.80,100.00,320.00,3.00,0.00,29.85,M,1.75,M,M,M,M,M,M,M,M,M,BR,M,M,M,M,M,M,30.75,K05U 220450Z AUTO 32003KT 1 3/4SM BR 01/01 A2985 RMK A01,M
EKO,2022-04-22 04:51,-115.7860,40.8242,1367.00,37.40,33.80,86.69,M,M,0.02,29.84,M,10.00,M,BKN,OVC,M,M,1200.00,4200.00,M,M,M,M,M,M,M,M,M,M,KEKO 220451Z AUTO 10SM BKN012 OVC042 03/01 A2984 RMK AO2 RAE41 P0002,M
LOL,2022-04-22 04:53,-118.5701,40.0684,1192.43,39.00,36.00,88.87,0.00,0.00,0.00,29.83,1009.80,10.00,M,SCT,SCT,M,M,6500.00,12000.00,M,M,M,M,M,M,M,M,M,39.00,KLOL 220453Z AUTO 00000KT 10SM SCT065 SCT120 04/02 A2983 RMK AO2 SLP098 T00390022,M
ELY,2022-04-22 04:53,-114.8453,39.2950,1909.00,46.00,30.90,55.36,300.00,14.00,T,29.77,1001.80,10.00,22.00,BKN,OVC,M,M,4200.00,6000.00,M,M,-RA,M,M,M,26.00,270.00,2022-04-22 04:38,39.21,KELY 220453Z AUTO 30014G22KT 10SM -RA BKN042 OVC060 08/M01 A2977 RMK AO2 PK WND 27026/0438 RAB27 SLP018 P0000 T00781006,M
VGT,2022-04-22 04:53,-115.1933,36.2111,667.00,71.00,27.00,19.18,200.00,18.00,0.00,29.72,1006.30,10.00,25.00,CLR,M,M,M,M,M,M,M,M,M,M,M,M,M,M,71.10,KVGT 220453Z AUTO 20018G25KT 10SM CLR 22/M03 A2972 RMK AO2 SLP063 T02171028,M
DRA,2022-04-22 04:53,-116.0278,36.6206,1009.00,61.00,34.00,36.19,210.00,28.00,0.00,29.74,1003.70,10.00,38.00,CLR,M,M,M,M,M,M,M,M,M,M,M,40.00,180.00,2022-04-22 04:40,61.00,KDRA 220453Z AUTO 21028G38KT 10SM CLR 16/01 A2974 RMK AO2 PK WND 18040/0440 SLP037 T01610011,M
P68,2022-04-22 04:53,-116.0056,39.6014,1993.00,33.00,32.00,95.67,330.00,4.00,0.03,29.83,1006.60,M,M,M,M,M,M,M,M,M,M,M,M,M,M,M,M,M,28.70,KP68 220453Z AUTO 33004KT 01/00 A2983 RMK AO1 SLP066 P0003 T00060000,M
TMT,2022-04-22 04:55,-117.1971,39.4643,1749.34,37.40,36.00,94.62,0.00,0.00,0.00,29.83,M,10.00,M,BKN,OVC,M,M,6000.00,7000.00,M,M,M,M,M,M,M,M,M,37.40,KTMT 220455Z AUTO 00000KT 10SM BKN060 OVC070 03/02 A2983 RMK AO2 T00300022,M
BVU,2022-04-22 04:55,-114.8611,35.9475,671.00,68.00,28.40,22.59,220.00,17.00,0.00,29.74,M,10.00,23.00,CLR,M,M,M,M,M,M,M,M,M,M,M,M,M,M,68.00,KBVU 220455Z AUTO 22017G23KT 10SM CLR 20/M02 A2974 RMK AO2,M
CXP,2022-04-22 04:55,-119.7326,39.1923,1431.00,41.00,30.20,65.16,0.00,0.00,0.00,29.85,M,10.00,M,FEW,SCT,BKN,M,4300.00,5500.00,6500.00,M,M,M,M,M,M,M,M,41.00,KCXP 220455Z AUTO 00000KT 10SM FEW043 SCT055 BKN065 05/M01 A2985 RMK AO2,M
RNO,2022-04-22 04:55,-119.7711,39.4839,1341.00,41.00,32.00,70.08,140.00,5.00,0.00,29.83,1009.40,10.00,M,SCT,BKN,BKN,M,3000.00,5000.00,8000.00,M,M,M,M,M,M,M,M,37.08,KRNO 220455Z 14005KT 10SM SCT030 BKN050 BKN080 05/00 A2983 RMK AO2 SLP094 MTN TOPS OBSCD DSNT SW T00500000,M
RTS,2022-04-22 04:55,-119.8764,39.6682,1539.00,37.40,28.40,69.67,0.00,0.00,0.00,29.85,M,10.00,M,FEW,OVC,M,M,3200.00,3800.00,M,M,M,M,M,M,M,M,M,37.40,KRTS 220455Z AUTO 00000KT 10SM FEW032 OVC038 03/M02 A2985 RMK AO2,M
MEV,2022-04-22 04:55,-119.7500,38.9963,1441.42,39.20,33.80,80.79,280.00,3.00,0.00,29.83,M,10.00,M,FEW,SCT,BKN,M,3000.00,3400.00,4000.00,M,M,M,M,M,M,M,M,36.92,KMEV 220455Z AUTO 28003KT 10SM FEW030 SCT034 BKN040 04/01 A2983 RMK AO2,M
BAM,2022-04-22 04:55,-116.8743,40.5990,1382.36,41.00,41.00,100.00,0.00,0.00,0.00,29.85,M,10.00,M,OVC,M,M,M,8500.00,M,M,M,M,M,M,M,M,M,M,41.00,KBAM 220455Z AUTO 00000KT 10SM OVC085 05/05 A2985 RMK AO1,M
HTH,2022-04-22 04:55,-118.6315,38.5448,1282.89,50.00,24.80,37.08,140.00,8.00,0.00,29.80,M,10.00,M,FEW,SCT,OVC,M,7000.00,8000.00,9000.00,M,M,M,M,M,M,M,M,50.00,KHTH 220455Z AUTO 14008KT 10SM FEW070 SCT080 OVC090 10/M04 A2980 RMK A01,M
WMC,2022-04-22 04:56,-117.8072,40.9019,1315.00,38.00,34.00,85.69,200.00,7.00,0.00,29.81,1009.50,10.00,M,BKN,M,M,M,10000.00,M,M,M,M,M,M,M,M,M,M,31.97,KWMC 220456Z AUTO 20007KT 10SM BKN100 03/01 A2981 RMK AO2 SLP095 T00330011,M
NFL,2022-04-22 04:56,-118.7010,39.4166,1199.00,43.00,38.00,82.04,10.00,6.00,T,29.83,1007.70,10.00,M,BKN,OVC,M,M,5000.00,7000.00,M,M,M,M,M,M,M,M,M,38.78,KNFL 220456Z 01006KT 10SM BKN050 OVC070 06/03 A2983 RMK AO2 RAE08 SLP077 P0000 T00610033,M
EKO,2022-04-22 04:56,-115.7860,40.8242,1367.00,36.00,33.00,89.09,M,M,0.02,29.84,1009.40,10.00,M,BKN,OVC,M,M,1200.00,4800.00,M,M,M,M,M,M,M,M,M,M,KEKO 220456Z AUTO 10SM BKN012 OVC048 02/01 A2984 RMK AO2 RAE41 SLP094 P0002 T00220006,M
LAS,2022-04-22 04:56,-115.1634,36.0719,663.00,69.00,24.10,18.21,220.00,12.00,0.00,29.74,1005.40,10.00,27.00,FEW,FEW,M,M,16000.00,25000.00,M,M,M,M,M,M,31.00,230.00,2022-04-22 04:01,69.10,KLAS 220456Z 22012G27KT 10SM FEW160 FEW250 21/M04 A2974 RMK AO2 PK WND 23031/0401 SLP054 T02061044 $,M
TPH,2022-04-22 04:56,-117.0904,38.0505,1654.00,49.00,23.00,35.83,310.00,15.00,0.00,29.75,1003.70,10.00,M,OVC,M,M,M,8500.00,M,M,M,M,M,M,M,M,M,M,42.69,KTPH 220456Z AUTO 31015KT 10SM OVC085 09/M05 A2975 RMK AO2 SLP037 T00941050 $,M
HND,2022-04-22 04:56,-115.1344,35.9729,742.79,66.00,30.00,25.85,210.00,20.00,0.00,29.76,1007.60,10.00,25.00,CLR,M,M,M,M,M,M,M,M,M,M,M,26.00,210.00,2022-04-22 04:46,66.00,KHND 220456Z AUTO 21020G25KT 10SM CLR 19/M01 A2976 RMK AO2 PK WND 21026/0446 SLP076 T01891011,M
LSV,2022-04-22 04:58,-115.0343,36.2362,570.00,72.30,28.90,19.91,230.00,18.00,0.00,29.71,1004.30,10.00,25.00,SCT,BKN,M,M,14000.00,18000.00,M,M,M,M,M,M,M,M,M,72.30,KLSV 220458Z AUTO 23018G25KT 10SM SCT140 BKN180 22/M02 A2971 RMK AO2 SLP043 T02241017 $,M
INS,2022-04-22 04:58,-115.6733,36.5872,955.00,67.00,14.50,12.94,210.00,23.00,0.00,29.69,1001.40,10.00,32.00,SCT,M,M,M,16000.00,M,M,M,M,M,M,M,41.00,210.00,2022-04-22 04:15,67.10,KINS 220458Z AUTO 21023G32KT 10SM SCT160 20/M10 A2969 RMK AO2 PK WND 21041/15 SLP014 T01951097 $,M
CXP,2022-04-22 05:15,-119.7326,39.1923,1431.00,41.00,30.20,65.16,0.00,0.00,0.00,29.84,M,10.00,M,FEW,OVC,M,M,4300.00,6000.00,M,M,M,M,M,M,M,M,M,41.00,KCXP 220515Z AUTO 00000KT 10SM FEW043 OVC060 05/M01 A2984 RMK AO2,M
BVU,2022-04-22 05:15,-114.8611,35.9475,671.00,68.00,28.40,22.59,230.00,16.00,0.00,29.74,M,10.00,23.00,CLR,M,M,M,M,M,M,M,M,M,M,M,M,M,M,68.00,KBVU 220515Z AUTO 23016G23KT 10SM CLR 20/M02 A2974 RMK AO2,M
TMT,2022-04-22 05:15,-117.1971,39.4643,1749.34,37.00,36.00,96.51,0.00,0.00,0.00,29.84,M,10.00,M,SCT,BKN,OVC,M,3100.00,3700.00,5000.00,M,M,M,M,M,M,M,M,36.90,KTMT 220515Z AUTO 00000KT 10SM SCT031 BKN037 OVC050 03/02 A2984 RMK AO2 T00270022,M
HTH,2022-04-22 05:15,-118.6315,38.5448,1282.89,50.00,24.80,37.08,170.00,9.00,0.00,29.80,M,10.00,M,SCT,SCT,OVC,M,6500.00,7500.00,9000.00,M,M,M,M,M,M,M,M,50.00,KHTH 220515Z AUTO 17009KT 10SM SCT065 SCT075 OVC090 10/M04 A2980 RMK A01,M
BAM,2022-04-22 05:15,-116.8743,40.5990,1382.36,39.20,39.20,100.00,80.00,4.00,0.00,29.84,M,10.00,M,OVC,M,M,M,8500.00,M,M,M,M,M,M,M,M,M,M,35.83,KBAM 220515Z AUTO 08004KT 10SM OVC085 04/04 A2984 RMK AO1,M
MEV,2022-04-22 05:15,-119.7500,38.9963,1441.42,37.40,32.00,80.65,0.00,0.00,0.00,29.84,M,10.00,M,FEW,SCT,OVC,M,3700.00,5000.00,7500.00,M,M,M,M,M,M,M,M,37.40,KMEV 220515Z AUTO 00000KT 10SM FEW037 SCT050 OVC075 03/00 A2984 RMK AO2,M
05U,2022-04-22 05:15,-116.0051,39.6042,1811.23,33.80,32.00,93.03,0.00,0.00,0.00,29.85,M,1.25,M,M,M,M,M,M,M,M,M,BR,M,M,M,M,M,M,33.80,K05U 220515Z AUTO 00000KT 1 1/4SM BR 01/00 A2985 RMK A01,M
RTS,2022-04-22 05:15,-119.8764,39.6682,1539.00,37.40,28.40,69.67,0.00,0.00,0.00,29.85,M,10.00,M,FEW,BKN,OVC,M,3200.00,4100.00,4700.00,M,M,M,M,M,M,M,M,37.40,KRTS 220515Z AUTO 00000KT 10SM FEW032 BKN041 OVC047 03/M02 A2985 RMK AO2,M
EKO,2022-04-22 05:33,-115.7860,40.8242,1367.00,37.00,33.00,85.64,70.00,6.00,T,29.83,M,10.00,M,SCT,OVC,M,M,700.00,1400.00,M,M,-RA,M,M,M,M,M,M,31.55,KEKO 220533Z AUTO 07006KT 10SM -RA SCT007 OVC014 03/01 A2983 RMK AO2 UPB21E25RAB25 P0000 T00280006,M
HTH,2022-04-22 05:35,-118.6315,38.5448,1282.89,50.00,26.60,39.95,340.00,9.00,0.00,29.80,M,10.00,16.00,OVC,M,M,M,7500.00,M,M,M,M,M,M,M,M,M,M,50.00,KHTH 220535Z AUTO 34009G16KT 10SM OVC075 10/M03 A2980 RMK A01,M
TMT,2022-04-22 05:35,-117.1971,39.4643,1749.34,37.00,36.00,96.51,0.00,0.00,0.00,29.83,M,10.00,M,SCT,BKN,OVC,M,2700.00,4100.00,4900.00,M,-DZ,M,M,M,M,M,M,36.90,KTMT 220535Z AUTO 00000KT 10SM -DZ SCT027 BKN041 OVC049 03/02 A2983 RMK AO2 T00270022,M
BVU,2022-04-22 05:35,-114.8611,35.9475,671.00,66.20,28.40,24.04,230.00,23.00,0.00,29.74,M,10.00,M,CLR,M,M,M,M,M,M,M,M,M,M,M,M,M,M,66.20,KBVU 220535Z AUTO 23023KT 10SM CLR 19/M02 A2974 RMK AO2,M
CXP,2022-04-22 05:35,-119.7326,39.1923,1431.00,39.20,28.40,64.93,0.00,0.00,0.00,29.86,M,10.00,M,SCT,SCT,OVC,M,4500.00,5000.00,6000.00,M,M,M,M,M,M,M,M,39.20,KCXP 220535Z AUTO 00000KT 10SM SCT045 SCT050 OVC060 04/M02 A2986 RMK AO2,M
RTS,2022-04-22 05:35,-119.8764,39.6682,1539.00,37.40,28.40,69.67,300.00,12.00,0.00,29.85,M,10.00,M,BKN,OVC,M,M,4600.00,5500.00,M,M,-DZ,M,M,M,M,M,M,28.87,KRTS 220535Z AUTO 30012KT 10SM -DZ BKN046 OVC055 03/M02 A2985 RMK AO2,M
05U,2022-04-22 05:35,-116.0051,39.6042,1811.23,33.80,33.80,100.00,0.00,0.00,0.00,29.85,M,1.50,M,M,M,M,M,M,M,M,M,BR,M,M,M,M,M,M,33.80,K05U 220535Z AUTO 00000KT 1 1/2SM BR 01/01 A2985 RMK A01,M
MEV,2022-04-22 05:35,-119.7500,38.9963,1441.42,39.20,32.00,75.16,230.00,4.00,0.00,29.84,M,10.00,M,BKN,OVC,M,M,6000.00,7500.00,M,M,M,M,M,M,M,M,M,35.83,KMEV 220535Z AUTO 23004KT 10SM BKN060 OVC075 04/M00 A2984 RMK AO2,M
BAM,2022-04-22 05:35,-116.8743,40.5990,1382.36,39.20,39.20,100.00,90.00,3.00,0.00,29.84,M,10.00,M,OVC,M,M,M,7500.00,M,M,M,M,M,M,M,M,M,M,36.92,KBAM 220535Z AUTO 09003KT 10SM OVC075 04/04 A2984 RMK AO1,M
EKO,2022-04-22 05:49,-115.7860,40.8242,1367.00,37.00,34.00,88.78,20.00,9.00,T,29.83,M,10.00,M,BKN,BKN,OVC,M,900.00,1400.00,2200.00,M,UP,M,M,M,M,M,M,29.73,KEKO 220549Z AUTO 02009KT 10SM UP BKN009 BKN014 OVC022 03/01 A2983 RMK AO2 UPB21E25B37RAB25E37 P0000 T00280011,M
ELY,2022-04-22 05:53,-114.8453,39.2950,1909.00,41.00,36.00,82.22,290.00,10.00,T,29.78,1002.30,10.00,23.00,OVC,M,M,M,4300.00,M,M,M,-RA,M,M,M,M,M,M,34.25,KELY 220553Z AUTO 29010G23KT 10SM -RA OVC043 05/02 A2978 RMK AO2 SLP023 P0000 60000 T00500022 10156 20050 51014,M
LOL,2022-04-22 05:53,-118.5701,40.0684,1192.43,39.00,35.00,85.76,0.00,0.00,0.00,29.82,1009.70,10.00,M,OVC,M,M,M,6000.00,M,M,M,M,M,M,M,M,M,M,39.00,KLOL 220553Z AUTO 00000KT 10SM OVC060 04/02 A2982 RMK AO2 SLP097 60002 T00390017 10089 20028 56003,M
DRA,2022-04-22 05:53,-116.0278,36.6206,1009.00,59.00,35.00,40.61,210.00,26.00,0.00,29.74,1003.60,10.00,36.00,FEW,M,M,M,11000.00,M,M,M,M,M,M,M,40.00,220.00,2022-04-22 05:42,59.00,KDRA 220553Z AUTO 21026G36KT 10SM FEW110 15/02 A2974 RMK AO2 PK WND 22040/0542 SLP036 T01500017 10222 20150 50001,M
VGT,2022-04-22 05:53,-115.1933,36.2111,667.00,70.00,26.10,19.19,230.00,19.00,0.00,29.69,1005.30,10.00,31.00,CLR,M,M,M,M,M,M,M,M,M,M,M,31.00,250.00,2022-04-22 05:33,70.00,KVGT 220553Z AUTO 23019G31KT 10SM CLR 21/M03 A2969 RMK AO2 PK WND 25031/0533 SLP053 T02111033 10278 20211 50003,M
P68,2022-04-22 05:53,-116.0056,39.6014,1993.00,33.00,30.90,91.51,350.00,3.00,0.07,29.82,1005.90,M,M,M,M,M,M,M,M,M,M,M,M,M,M,M,M,M,29.95,KP68 220553Z AUTO 35003KT 01/M01 A2982 RMK AO1 SLP059 P0007 60019 T00061006 10117 20006 58003,M
MEV,2022-04-22 05:55,-119.7500,38.9963,1441.42,37.40,33.80,86.69,30.00,4.00,0.00,29.85,M,10.00,M,SCT,BKN,OVC,M,3500.00,5500.00,6500.00,M,M,M,M,M,M,M,M,33.73,KMEV 220555Z AUTO 03004KT 10SM SCT035 BKN055 OVC065 03/01 A2985 RMK AO2,M
05U,2022-04-22 05:55,-116.0051,39.6042,1811.23,33.80,33.80,100.00,0.00,0.00,0.01,29.84,M,1.00,M,M,M,M,M,M,M,M,M,BR,M,M,M,M,M,M,33.80,K05U 220555Z AUTO 00000KT 1SM BR 01/01 A2984 RMK A01 P0001,M
RNO,2022-04-22 05:55,-119.7711,39.4839,1341.00,42.00,30.00,61.94,270.00,6.00,T,29.85,1009.70,10.00,M,BKN,OVC,M,M,3500.00,5000.00,M,M,-RA,M,M,M,M,M,M,37.69,KRNO 220555Z 27006KT 10SM -RA BKN035 OVC050 06/M01 A2985 RMK AO2 RAB41 SLP097 MTN TOPS OBSCD DSNT SW P0000 60000 T00561011 10083 20050 53009,M
TMT,2022-04-22 05:55,-117.1971,39.4643,1749.34,36.70,35.60,95.74,160.00,5.00,0.00,29.82,M,10.00,M,SCT,OVC,M,M,4100.00,4800.00,M,M,M,M,M,M,M,M,M,31.98,KTMT 220555Z AUTO 16005KT 10SM SCT041 OVC048 03/02 A2982 RMK AO2 60001 T00260020 10038 20026,M
RTS,2022-04-22 05:55,-119.8764,39.6682,1539.00,35.60,30.20,80.51,280.00,7.00,0.00,29.86,M,9.00,M,SCT,BKN,OVC,M,2000.00,2800.00,5500.00,M,-DZ,M,M,M,M,M,M,29.17,KRTS 220555Z AUTO 28007KT 9SM -DZ SCT020 BKN028 OVC055 02/M01 A2986 RMK AO2,M
CXP,2022-04-22 05:55,-119.7326,39.1923,1431.00,41.00,30.20,65.16,340.00,5.00,0.00,29.86,M,10.00,M,BKN,OVC,M,M,4700.00,6000.00,M,M,M,M,M,M,M,M,M,37.08,KCXP 220555Z AUTO 34005KT 10SM BKN047 OVC060 05/M01 A2986 RMK AO2,M
BVU,2022-04-22 05:55,-114.8611,35.9475,671.00,66.20,28.40,24.04,220.00,19.00,0.00,29.73,M,10.00,M,CLR,M,M,M,M,M,M,M,M,M,M,M,M,M,M,66.20,KBVU 220555Z AUTO 22019KT 10SM CLR 19/M02 A2973 RMK AO2,M
HTH,2022-04-22 05:55,-118.6315,38.5448,1282.89,48.20,28.40,46.02,330.00,11.00,0.00,29.81,M,10.00,M,FEW,OVC,M,M,5500.00,7500.00,M,M,M,M,M,M,M,M,M,42.94,KHTH 220555Z AUTO 33011KT 10SM FEW055 OVC075 09/M02 A2981 RMK A01,M
BAM,2022-04-22 05:55,-116.8743,40.5990,1382.36,39.20,39.20,100.00,50.00,6.00,0.00,29.83,M,10.00,M,SCT,SCT,M,M,7500.00,12000.00,M,M,M,M,M,M,M,M,M,34.20,KBAM 220555Z AUTO 05006KT 10SM SCT075 SCT120 04/04 A2983 RMK AO1,M
WMC,2022-04-22 05:56,-117.8072,40.9019,1315.00,39.00,34.00,82.08,170.00,3.00,0.00,29.81,1009.10,10.00,M,OVC,M,M,M,8000.00,M,M,M,M,M,M,M,M,M,M,36.69,KWMC 220556Z AUTO 17003KT 10SM OVC080 04/01 A2981 RMK AO2 SLP091 T00390011 10100 20028 51001,M
LAS,2022-04-22 05:56,-115.1634,36.0719,663.00,68.00,21.90,17.24,220.00,13.00,0.00,29.73,1004.80,10.00,25.00,SCT,BKN,BKN,M,14000.00,18000.00,25000.00,M,M,M,M,M,33.00,230.00,2022-04-22 05:18,68.00,KLAS 220556Z 22013G25KT 10SM SCT140 BKN180 BKN250 20/M06 A2973 RMK AO2 PK WND 23033/0518 SLP048 T02001056 10267 20200 $,M
EKO,2022-04-22 05:56,-115.7860,40.8242,1367.00,37.00,34.00,88.78,360.00,8.00,T,29.83,1008.70,10.00,M,BKN,OVC,M,M,900.00,1500.00,M,M,UP,M,M,M,M,M,M,30.27,KEKO 220556Z AUTO 36008KT 10SM UP BKN009 OVC015 03/01 A2983 RMK AO2 UPB21E25B37RAB25E37 SLP087 P0000 60004 T00280011 10106 20022 56007,M
HND,2022-04-22 05:56,-115.1344,35.9729,742.79,65.00,27.00,23.75,210.00,23.00,0.00,29.75,1007.20,10.00,28.00,CLR,M,M,M,M,M,M,M,M,M,M,M,28.00,210.00,2022-04-22 05:55,64.90,KHND 220556Z AUTO 21023G28KT 10SM CLR 18/M03 A2975 RMK AO2 PK WND 21028/0555 SLP072 T01831028 10267 20183 50001,M
TPH,2022-04-22 05:56,-117.0904,38.0505,1654.00,49.00,23.00,35.83,320.00,15.00,0.00,29.74,1003.00,10.00,M,OVC,M,M,M,7500.00,M,M,M,M,M,M,M,M,M,M,42.69,KTPH 220556Z AUTO 32015KT 10SM OVC075 09/M05 A2974 RMK AO2 SLP030 60000 T00941050 10178 20089 50003 $,M
NFL,2022-04-22 05:56,-118.7010,39.4166,1199.00,42.00,37.00,81.98,M,5.00,0.00,29.83,1007.80,10.00,M,SCT,BKN,OVC,M,3000.00,6000.00,8000.00,M,M,M,M,M,M,M,M,38.39,KNFL 220556Z VRB05KT 10SM SCT030 BKN060 OVC080 06/03 A2983 RMK AO2 SLP078 60000 T00560028 10117 20056 51007,M
LSV,2022-04-22 05:58,-115.0343,36.2362,570.00,69.60,22.80,16.95,190.00,12.00,0.00,29.70,1003.90,10.00,M,BKN,OVC,M,M,14000.00,18000.00,M,M,M,M,M,M,M,M,M,69.60,KLSV 220558Z AUTO 19012KT 10SM BKN140 OVC180 21/M05 A2970 RMK AO2 SLP039 T02091051 10292 20209 50004 $,M
INS,2022-04-22 05:58,-115.6733,36.5872,955.00,65.70,19.60,16.93,200.00,22.00,0.06,29.66,1000.20,10.00,35.00,SCT,M,M,M,16000.00,M,M,M,M,M,M,M,40.00,200.00,2022-04-22 05:27,65.70,KINS 220558Z AUTO 20022G35KT 10SM SCT160 19/M07 A2966 RMK AO2 PK WND 20040/27 SLP002 P0006 60006 T01871069 10246 20187 58013 $,M
05U,2022-04-22 06:10,-116.0051,39.6042,1811.23,32.00,32.00,100.00,0.00,0.00,0.00,29.84,M,0.75,M,M,M,M,M,M,M,M,M,BR,M,M,M,M,M,M,32.00,K05U 220610Z AUTO 00000KT 3/4SM BR 00/00 A2984 RMK A01,M
EKO,2022-04-22 06:14,-115.7860,40.8242,1367.00,36.00,33.00,89.09,10.00,6.00,0.01,29.83,M,6.00,M,SCT,OVC,M,M,900.00,1500.00,M,M,-RA BR,M,M,M,M,M,M,30.35,KEKO 220614Z AUTO 01006KT 6SM -RA BR SCT009 OVC015 02/01 A2983 RMK AO2 UPE03RAB03 P0001 T00220006,M
HTH,2022-04-22 06:15,-118.6315,38.5448,1282.89,48.20,28.40,46.02,330.00,9.00,0.00,29.81,M,10.00,15.00,SCT,BKN,OVC,M,6500.00,7500.00,9000.00,M,M,M,M,M,M,M,M,43.66,KHTH 220615Z AUTO 33009G15KT 10SM SCT065 BKN075 OVC090 09/M02 A2981 RMK A01,M
BVU,2022-04-22 06:15,-114.8611,35.9475,671.00,66.20,30.20,25.88,220.00,21.00,0.00,29.73,M,10.00,M,CLR,M,M,M,M,M,M,M,M,M,M,M,M,M,M,66.20,KBVU 220615Z AUTO 22021KT 10SM CLR 19/M01 A2973 RMK AO2,M
CXP,2022-04-22 06:15,-119.7326,39.1923,1431.00,39.20,30.20,69.88,M,3.00,0.00,29.86,M,10.00,10.00,FEW,BKN,OVC,M,3600.00,4600.00,7000.00,M,M,M,M,M,M,M,M,36.92,KCXP 220615Z AUTO VRB03G10KT 10SM FEW036 BKN046 OVC070 04/M01 A2986 RMK AO2,M
RTS,2022-04-22 06:15,-119.8764,39.6682,1539.00,35.60,28.40,74.80,290.00,5.00,0.00,29.86,M,10.00,M,SCT,BKN,OVC,M,2100.00,4800.00,5500.00,M,-RA,M,M,M,M,M,M,30.67,KRTS 220615Z AUTO 29005KT 10SM -RA SCT021 BKN048 OVC055 02/M02 A2986 RMK AO2,M
MEV,2022-04-22 06:15,-119.7500,38.9963,1441.42,37.40,33.80,86.69,0.00,0.00,0.00,29.86,M,10.00,M,BKN,OVC,M,M,3300.00,4100.00,M,M,M,M,M,M,M,M,M,37.40,KMEV 220615Z AUTO 00000KT 10SM BKN033 OVC041 03/01 A2986 RMK AO2,M
BAM,2022-04-22 06:15,-116.8743,40.5990,1382.36,37.40,37.40,100.00,60.00,6.00,0.00,29.82,M,10.00,M,SCT,M,M,M,12000.00,M,M,M,M,M,M,M,M,M,M,32.03,KBAM 220615Z AUTO 06006KT 10SM SCT120 03/03 A2982 RMK AO1,M
TMT,2022-04-22 06:15,-117.1971,39.4643,1749.34,36.50,35.60,96.50,170.00,4.00,0.00,29.81,M,10.00,M,SCT,BKN,OVC,M,2800.00,4600.00,7000.00,M,M,M,M,M,M,M,M,32.68,KTMT 220615Z AUTO 17004KT 10SM SCT028 BKN046 OVC070 03/02 A2981 RMK AO2 T00250020,M
CXP,2022-04-22 06:30,-119.7326,39.1923,1431.00,39.20,28.40,64.93,0.00,0.00,0.00,29.86,M,10.00,M,SCT,BKN,OVC,M,3700.00,6500.00,7500.00,M,M,M,M,M,M,M,M,39.20,KCXP 220630Z AUTO 00000KT 10SM SCT037 BKN065 OVC075 04/M02 A2986 RMK AO2,M
BVU,2022-04-22 06:35,-114.8611,35.9475,671.00,66.20,28.40,24.04,230.00,20.00,0.00,29.73,M,10.00,27.00,CLR,M,M,M,M,M,M,M,M,M,M,M,M,M,M,66.20,KBVU 220635Z AUTO 23020G27KT 10SM CLR 19/M02 A2973 RMK AO2,M
RTS,2022-04-22 06:35,-119.8764,39.6682,1539.00,35.60,30.20,80.51,270.00,6.00,0.00,29.87,M,10.00,M,SCT,BKN,OVC,M,3100.00,4000.00,5500.00,M,-DZ,M,M,M,M,M,M,29.87,KRTS 220635Z AUTO 27006KT 10SM -DZ SCT031 BKN040 OVC055 02/M01 A2987 RMK AO2,M
TMT,2022-04-22 06:35,-117.1971,39.4643,1749.34,37.00,35.60,94.99,250.00,4.00,0.00,29.82,M,10.00,M,BKN,OVC,M,M,2400.00,3000.00,M,M,M,M,M,M,M,M,M,33.14,KTMT 220635Z AUTO 25004KT 10SM BKN024 OVC030 03/02 A2982 RMK AO2 T00270020,M
HTH,2022-04-22 06:35,-118.6315,38.5448,1282.89,46.40,28.40,49.24,320.00,9.00,0.00,29.81,M,10.00,M,BKN,OVC,M,M,6500.00,7500.00,M,M,M,M,M,M,M,M,M,41.42,KHTH 220635Z AUTO 32009KT 10SM BKN065 OVC075 08/M02 A2981 RMK A01,M
BAM,2022-04-22 06:35,-116.8743,40.5990,1382.36,37.40,37.40,100.00,50.00,7.00,0.00,29.81,M,10.00,M,SCT,M,M,M,12000.00,M,M,M,M,M,M,M,M,M,M,31.36,KBAM 220635Z AUTO 05007KT 10SM SCT120 03/03 A2981 RMK AO1,M
MEV,2022-04-22 06:35,-119.7500,38.9963,1441.42,37.40,30.20,74.98,240.00,7.00,0.00,29.86,M,10.00,M,FEW,SCT,OVC,M,2800.00,3600.00,6000.00,M,M,M,M,M,M,M,M,31.36,KMEV 220635Z AUTO 24007KT 10SM FEW028 SCT036 OVC060 03/M01 A2986 RMK AO2,M
05U,2022-04-22 06:35,-116.0051,39.6042,1811.23,33.80,33.80,100.00,0.00,0.00,0.00,29.84,M,1.25,M,M,M,M,M,M,M,M,M,BR,M,M,M,M,M,M,33.80,K05U 220635Z AUTO 00000KT 1 1/4SM BR 01/01 A2984 RMK A01,M
VGT,2022-04-22 06:53,-115.1933,36.2111,667.00,69.00,26.10,19.79,220.00,16.00,0.00,29.71,1005.60,10.00,22.00,CLR,M,M,M,M,M,M,M,M,M,M,M,27.00,220.00,2022-04-22 05:59,69.10,KVGT 220653Z AUTO 22016G22KT 10SM CLR 21/M03 A2971 RMK AO2 PK WND 22027/0559 SLP056 T02061033,M
P68,2022-04-22 06:53,-116.0056,39.6014,1993.00,33.00,30.90,91.51,0.00,0.00,0.06,29.81,1005.60,M,M,M,M,M,M,M,M,M,M,M,M,M,M,M,M,M,33.10,KP68 220653Z AUTO 00000KT 01/M01 A2981 RMK AO1 SLP056 P0006 T00061006,M
LOL,2022-04-22 06:53,-118.5701,40.0684,1192.43,39.00,35.00,85.76,230.00,3.00,0.00,29.82,1009.60,10.00,M,OVC,M,M,M,6500.00,M,M,M,M,M,M,M,M,M,M,36.69,KLOL 220653Z AUTO 23003KT 10SM OVC065 04/02 A2982 RMK AO2 SLP096 T00390017,M
DRA,2022-04-22 06:53,-116.0278,36.6206,1009.00,58.00,33.00,39.00,180.00,22.00,0.00,29.75,1003.70,10.00,38.00,SCT,BKN,OVC,M,6500.00,8000.00,11000.00,M,M,M,M,M,38.00,180.00,2022-04-22 06:52,57.90,KDRA 220653Z AUTO 18022G38KT 10SM SCT065 BKN080 OVC110 14/01 A2975 RMK AO2 PK WND 18038/0652 SLP037 T01440006,M
ELY,2022-04-22 06:53,-114.8453,39.2950,1909.00,40.00,38.00,92.48,80.00,3.00,T,29.77,1002.20,10.00,M,OVC,M,M,M,4000.00,M,M,M,-RA,M,M,M,M,M,M,37.72,KELY 220653Z AUTO 08003KT 10SM -RA OVC040 04/03 A2977 RMK AO2 SLP022 P0000 T00440033,M
BVU,2022-04-22 06:55,-114.8611,35.9475,671.00,66.20,26.60,22.33,230.00,19.00,0.00,29.74,M,10.00,25.00,CLR,M,M,M,M,M,M,M,M,M,M,M,M,M,M,66.20,KBVU 220655Z AUTO 23019G25KT 10SM CLR 19/M03 A2974 RMK AO2,M
RTS,2022-04-22 06:55,-119.8764,39.6682,1539.00,33.80,30.20,86.49,300.00,7.00,0.00,29.87,M,8.00,M,FEW,BKN,OVC,M,400.00,2900.00,4900.00,M,-SN,M,M,M,M,M,M,26.97,KRTS 220655Z AUTO 30007KT 8SM -SN FEW004 BKN029 OVC049 01/M01 A2987 RMK AO2,M
HTH,2022-04-22 06:55,-118.6315,38.5448,1282.89,46.40,30.20,53.00,10.00,9.00,0.00,29.82,M,10.00,15.00,SCT,SCT,OVC,M,4900.00,6000.00,7000.00,M,M,M,M,M,M,M,M,41.42,KHTH 220655Z AUTO 01009G15KT 10SM SCT049 SCT060 OVC070 08/M01 A2982 RMK A01,M
RNO,2022-04-22 06:55,-119.7711,39.4839,1341.00,41.00,30.00,64.63,10.00,6.00,T,29.86,1009.60,10.00,M,SCT,BKN,BKN,M,3500.00,7000.00,10000.00,M,M,M,M,M,M,M,M,36.37,KRNO 220655Z 01006KT 10SM SCT035 BKN070 BKN100 05/M01 A2986 RMK AO2 RAE33 SLP096 MTN TOPS OBSCD DSNT SW THRU NW P0000 T00501011,M
05U,2022-04-22 06:55,-116.0051,39.6042,1811.23,33.80,33.80,100.00,0.00,0.00,0.02,29.83,M,2.00,M,M,M,M,M,M,M,M,M,BR,M,M,M,M,M,M,33.80,K05U 220655Z AUTO 00000KT 2SM BR 01/01 A2983 RMK A01 P0002,M
MEV,2022-04-22 06:55,-119.7500,38.9963,1441.42,37.40,28.40,69.67,270.00,10.00,0.00,29.85,M,10.00,M,BKN,OVC,M,M,6500.00,7500.00,M,M,M,M,M,M,M,M,M,29.74,KMEV 220655Z AUTO 27010KT 10SM BKN065 OVC075 03/M02 A2985 RMK AO2,M
BAM,2022-04-22 06:55,-116.8743,40.5990,1382.36,37.40,37.40,100.00,60.00,7.00,0.00,29.82,M,10.00,M,SCT,SCT,M,M,7000.00,11000.00,M,M,M,M,M,M,M,M,M,31.36,KBAM 220655Z AUTO 06007KT 10SM SCT070 SCT110 03/03 A2982 RMK AO1,M
TMT,2022-04-22 06:55,-117.1971,39.4643,1749.34,37.40,35.00,90.58,300.00,4.00,0.00,29.82,M,10.00,M,SCT,SCT,OVC,M,2000.00,2700.00,3800.00,M,-DZ,M,M,M,M,M,M,33.73,KTMT 220655Z AUTO 30004KT 10SM -DZ SCT020 SCT027 OVC038 03/02 A2982 RMK AO2 T00300016,M
CXP,2022-04-22 06:55,-119.7326,39.1923,1431.00,39.20,30.20,69.88,310.00,9.00,0.00,29.86,M,10.00,14.00,FEW,SCT,BKN,M,3600.00,4400.00,5500.00,M,M,M,M,M,M,M,M,32.47,KCXP 220655Z AUTO 31009G14KT 10SM FEW036 SCT044 BKN055 04/M01 A2986 RMK AO2,M
HND,2022-04-22 06:56,-115.1344,35.9729,742.79,63.00,30.00,28.70,200.00,21.00,0.00,29.77,1008.00,10.00,30.00,CLR,M,M,M,M,M,M,M,M,M,M,M,30.00,210.00,2022-04-22 06:51,63.00,KHND 220656Z AUTO 20021G30KT 10SM CLR 17/M01 A2977 RMK AO2 PK WND 21030/0651 SLP080 T01721011 402780167,M
WMC,2022-04-22 06:56,-117.8072,40.9019,1315.00,35.00,32.00,88.33,0.00,0.00,0.00,29.81,1009.20,10.00,M,FEW,SCT,M,M,8000.00,12000.00,M,M,M,M,M,M,M,M,M,35.10,KWMC 220656Z AUTO 00000KT 10SM FEW080 SCT120 02/00 A2981 RMK AO2 SLP092 T00170000,M
EKO,2022-04-22 06:56,-115.7860,40.8242,1367.00,35.00,32.00,88.33,70.00,4.00,0.07,29.83,1008.50,4.00,M,OVC,M,M,M,1600.00,M,M,M,-SN BR,M,M,M,M,M,M,31.04,KEKO 220656Z AUTO 07004KT 4SM -SN BR OVC016 02/00 A2983 RMK AO2 UPE03RAB03E37SNB37 SLP085 P0007 T00170000,M
LAS,2022-04-22 06:56,-115.1634,36.0719,663.00,66.00,24.10,20.26,190.00,12.00,0.00,29.73,1005.00,10.00,27.00,FEW,BKN,BKN,M,15000.00,17000.00,25000.00,M,M,M,M,M,30.00,200.00,2022-04-22 06:35,66.00,KLAS 220656Z 19012G27KT 10SM FEW150 BKN170 BKN250 19/M04 A2973 RMK AO2 PK WND 20030/0635 SLP050 T01891044 $,M
TPH,2022-04-22 06:56,-117.0904,38.0505,1654.00,47.00,27.00,45.62,310.00,11.00,0.00,29.76,1003.60,10.00,M,BKN,OVC,M,M,5000.00,7000.00,M,M,M,M,M,M,M,M,M,41.30,KTPH 220656Z AUTO 31011KT 10SM BKN050 OVC070 08/M03 A2976 RMK AO2 SLP036 T00831028 $,M
NFL,2022-04-22 06:56,-118.7010,39.4166,1199.00,43.00,37.00,79.19,250.00,7.00,0.00,29.84,1008.00,10.00,M,SCT,BKN,OVC,M,3000.00,6000.00,8000.00,M,M,M,M,M,M,M,M,38.19,KNFL 220656Z 25007KT 10SM SCT030 BKN060 OVC080 06/03 A2984 RMK AO2 SLP080 T00610028,M
LSV,2022-04-22 06:58,-115.0343,36.2362,570.00,69.00,25.20,19.06,180.00,10.00,0.00,29.70,1003.80,10.00,M,OVC,M,M,M,15000.00,M,M,M,M,M,M,M,M,M,M,69.10,KLSV 220658Z AUTO 18010KT 10SM OVC150 21/M04 A2970 RMK AO2 SLP038 T02061038 $,M
INS,2022-04-22 06:58,-115.6733,36.5872,955.00,62.60,24.30,23.01,210.00,28.00,0.06,29.67,1000.90,10.00,37.00,CLR,M,M,M,M,M,M,M,M,M,M,M,45.00,200.00,2022-04-22 06:48,62.60,KINS 220658Z AUTO 21028G37KT 10SM CLR 17/M04 A2967 RMK AO2 PK WND 20045/48 SLP009 P0006 T01701043 $,M
EKO,2022-04-22 07:05,-115.7860,40.8242,1367.00,35.00,32.00,88.33,50.00,5.00,0.01,29.83,M,4.00,M,FEW,OVC,M,M,400.00,1600.00,M,M,-SN BR,M,M,M,M,M,M,30.08,KEKO 220705Z AUTO 05005KT 4SM -SN BR FEW004 OVC016 02/00 A2983 RMK AO2 P0001 T00170000,M
05U,2022-04-22 07:10,-116.0051,39.6042,1811.23,33.80,33.80,100.00,0.00,0.00,0.00,29.83,M,3.00,M,M,M,M,M,M,M,M,M,BR,M,M,M,M,M,M,33.80,K05U 220710Z AUTO 00000KT 3SM BR 01/01 A2983 RMK A01,M
CXP,2022-04-22 07:10,-119.7326,39.1923,1431.00,39.20,28.40,64.93,310.00,9.00,0.00,29.86,M,10.00,M,FEW,SCT,OVC,M,4400.00,6000.00,7000.00,M,M,M,M,M,M,M,M,32.47,KCXP 220710Z AUTO 31009KT 10SM FEW044 SCT060 OVC070 04/M02 A2986 RMK AO2,M
TMT,2022-04-22 07:15,-117.1971,39.4643,1749.34,37.00,34.30,90.20,320.00,3.00,0.00,29.82,M,10.00,M,SCT,SCT,OVC,M,2000.00,2500.00,3800.00,M,DZ,M,M,M,M,M,M,34.29,KTMT 220715Z AUTO 32003KT 10SM DZ SCT020 SCT025 OVC038 03/01 A2982 RMK AO2 T00270013,M
BVU,2022-04-22 07:15,-114.8611,35.9475,671.00,66.20,24.80,20.72,250.00,24.00,0.00,29.74,M,10.00,32.00,CLR,M,M,M,M,M,M,M,M,M,M,M,M,M,M,66.20,KBVU 220715Z AUTO 25024G32KT 10SM CLR 19/M04 A2974 RMK AO2,M
RTS,2022-04-22 07:15,-119.8764,39.6682,1539.00,33.80,30.20,86.49,0.00,0.00,0.00,29.87,M,10.00,M,SCT,BKN,OVC,M,2900.00,4100.00,5000.00,M,M,M,M,M,M,M,M,33.80,KRTS 220715Z AUTO 00000KT 10SM SCT029 BKN041 OVC050 01/M01 A2987 RMK AO2,M
BAM,2022-04-22 07:15,-116.8743,40.5990,1382.36,37.40,37.40,100.00,60.00,6.00,0.00,29.82,M,10.00,M,BKN,M,M,M,7000.00,M,M,M,M,M,M,M,M,M,M,32.03,KBAM 220715Z AUTO 06006KT 10SM BKN070 03/03 A2982 RMK AO1,M
HTH,2022-04-22 07:15,-118.6315,38.5448,1282.89,44.60,33.80,65.61,310.00,10.00,0.00,29.83,M,10.00,M,BKN,BKN,OVC,M,4700.00,5500.00,7000.00,M,M,M,M,M,M,M,M,38.77,KHTH 220715Z AUTO 31010KT 10SM BKN047 BKN055 OVC070 07/01 A2983 RMK A01,M
MEV,2022-04-22 07:15,-119.7500,38.9963,1441.42,35.60,28.40,74.80,270.00,5.00,0.00,29.85,M,10.00,11.00,BKN,OVC,M,M,4600.00,7000.00,M,M,M,M,M,M,M,M,M,30.67,KMEV 220715Z AUTO 27005G11KT 10SM BKN046 OVC070 02/M02 A2985 RMK AO2,M
05U,2022-04-22 07:30,-116.0051,39.6042,1811.23,33.80,33.80,100.00,0.00,0.00,0.00,29.82,M,3.00,M,M,M,M,M,M,M,M,M,BR,M,M,M,M,M,M,33.80,K05U 220730Z AUTO 00000KT 3SM BR 01/01 A2982 RMK A01,M
CXP,2022-04-22 07:30,-119.7326,39.1923,1431.00,39.20,28.40,64.93,0.00,0.00,0.00,29.87,M,10.00,M,FEW,OVC,M,M,4500.00,7000.00,M,M,M,M,M,M,M,M,M,39.20,KCXP 220730Z AUTO 00000KT 10SM FEW045 OVC070 04/M02 A2987 RMK AO2,M
TMT,2022-04-22 07:35,-117.1971,39.4643,1749.34,35.60,33.40,91.60,270.00,5.00,0.00,29.83,M,4.00,M,SCT,BKN,OVC,M,1500.00,2000.00,2500.00,M,-RA,M,M,M,M,M,M,30.67,KTMT 220735Z AUTO 27005KT 4SM -RA SCT015 BKN020 OVC025 02/01 A2983 RMK AO2 T00200008,M
RTS,2022-04-22 07:35,-119.8764,39.6682,1539.00,33.80,32.00,93.03,290.00,5.00,0.00,29.87,M,10.00,M,FEW,OVC,M,M,4500.00,6000.00,M,M,M,M,M,M,M,M,M,28.53,KRTS 220735Z AUTO 29005KT 10SM FEW045 OVC060 01/M00 A2987 RMK AO2,M
BVU,2022-04-22 07:35,-114.8611,35.9475,671.00,64.40,23.00,20.46,240.00,25.00,0.00,29.75,M,10.00,M,CLR,M,M,M,M,M,M,M,M,M,M,M,M,M,M,64.40,KBVU 220735Z AUTO 24025KT 10SM CLR 18/M05 A2975 RMK AO2,M
HTH,2022-04-22 07:35,-118.6315,38.5448,1282.89,41.00,35.60,80.93,300.00,15.00,0.00,29.84,M,10.00,M,BKN,OVC,M,M,4000.00,4700.00,M,M,M,M,M,M,M,M,M,32.45,KHTH 220735Z AUTO 30015KT 10SM BKN040 OVC047 05/02 A2984 RMK A01,M
BAM,2022-04-22 07:35,-116.8743,40.5990,1382.36,37.40,37.40,100.00,50.00,5.00,0.00,29.82,M,10.00,M,OVC,M,M,M,7000.00,M,M,M,M,M,M,M,M,M,M,32.81,KBAM 220735Z AUTO 05005KT 10SM OVC070 03/03 A2982 RMK AO1,M
MEV,2022-04-22 07:35,-119.7500,38.9963,1441.42,35.60,28.40,74.80,240.00,5.00,0.00,29.86,M,10.00,M,FEW,SCT,BKN,M,4100.00,4700.00,5500.00,M,M,M,M,M,M,M,M,30.67,KMEV 220735Z AUTO 24005KT 10SM FEW041 SCT047 BKN055 02/M02 A2986 RMK AO2,M
TPH,2022-04-22 07:37,-117.0904,38.0505,1654.00,43.00,33.00,67.82,330.00,9.00,T,29.78,M,10.00,23.00,BKN,OVC,M,M,2800.00,4400.00,M,M,-RA,M,M,M,M,M,M,37.19,KTPH 220737Z AUTO 33009G23KT 10SM -RA BKN028 OVC044 06/01 A2978 RMK AO2 RAB24 P0000 T00610006 $,M
INS,2022-04-22 07:43,-115.6733,36.5872,955.00,60.80,28.40,29.06,230.00,23.00,0.00,29.71,1002.30,10.00,31.00,CLR,M,M,M,M,M,M,M,M,M,M,M,M,M,M,60.80,KINS 220743Z AUTO 23023G31KT 10SM CLR 16/M02 A2971 RMK AO2 SLP023 $,M
EKO,2022-04-22 07:47,-115.7860,40.8242,1367.00,35.00,33.00,92.32,80.00,6.00,0.02,29.81,M,10.00,M,FEW,FEW,OVC,M,200.00,600.00,3000.00,M,UP,M,M,M,M,M,M,29.26,KEKO 220747Z AUTO 08006KT 10SM UP FEW002 FEW006 OVC030 02/01 A2981 RMK AO2 RAB25E43UPB27SNE25 P0002 T00170006,M
TPH,2022-04-22 07:48,-117.0904,38.0505,1654.00,43.00,33.00,67.82,360.00,10.00,T,29.77,M,10.00,20.00,OVC,M,M,M,3600.00,M,M,M,-RA,M,M,M,M,M,M,36.76,KTPH 220748Z AUTO 36010G20KT 10SM -RA OVC036 06/01 A2977 RMK AO2 RAB24 P0000 T00610006 $,M
05U,2022-04-22 07:50,-116.0051,39.6042,1811.23,33.80,33.80,100.00,0.00,0.00,0.00,29.82,M,2.50,M,M,M,M,M,M,M,M,M,BR,M,M,M,M,M,M,33.80,K05U 220750Z AUTO 00000KT 2 1/2SM BR 01/01 A2982 RMK A01,M
VGT,2022-04-22 07:53,-115.1933,36.2111,667.00,65.00,33.00,30.44,210.00,10.00,0.00,29.73,1006.50,10.00,M,CLR,M,M,M,M,M,M,M,M,M,M,M,28.00,220.00,2022-04-22 06:56,64.90,KVGT 220753Z AUTO 21010KT 10SM CLR 18/01 A2973 RMK AO2 PK WND 22028/0656 SLP065 T01830006 402890183,M
P68,2022-04-22 07:53,-116.0056,39.6014,1993.00,33.00,32.00,95.67,190.00,3.00,0.02,29.79,1005.00,M,M,M,M,M,M,M,M,M,M,M,M,M,M,M,M,M,29.95,KP68 220753Z AUTO 19003KT 01/00 A2979 RMK AO1 SLP050 P0002 T00060000 401670006,M
DRA,2022-04-22 07:53,-116.0278,36.6206,1009.00,56.00,35.00,45.40,220.00,19.00,0.00,29.76,1004.00,10.00,31.00,SCT,OVC,M,M,7000.00,8500.00,M,M,M,M,M,M,37.00,240.00,2022-04-22 07:17,55.90,KDRA 220753Z AUTO 22019G31KT 10SM SCT070 OVC085 13/02 A2976 RMK AO2 PK WND 24037/0717 SLP040 T01330017 402440133,M
LOL,2022-04-22 07:53,-118.5701,40.0684,1192.43,40.00,35.00,82.80,170.00,7.00,T,29.83,1009.50,9.00,M,OVC,M,M,M,3900.00,M,M,M,-RA,M,M,M,M,M,M,34.41,KLOL 220753Z AUTO 17007KT 9SM -RA OVC039 04/02 A2983 RMK AO2 RAB47 SLP095 P0000 T00440017 401220028,M
ELY,2022-04-22 07:53,-114.8453,39.2950,1909.00,41.00,36.00,82.22,M,6.00,0.01,29.76,1001.40,10.00,M,FEW,BKN,OVC,M,3100.00,5500.00,7500.00,M,M,M,M,M,M,M,M,36.37,KELY 220753Z AUTO VRB06KT 10SM FEW031 BKN055 OVC075 05/02 A2976 RMK AO2 RAE36 SLP014 P0001 T00500022 401830039,M
RTS,2022-04-22 07:55,-119.8764,39.6682,1539.00,33.80,30.20,86.49,280.00,5.00,0.00,29.86,M,10.00,M,FEW,BKN,OVC,M,2100.00,6500.00,8500.00,M,M,M,M,M,M,M,M,28.53,KRTS 220755Z AUTO 28005KT 10SM FEW021 BKN065 OVC085 01/M01 A2986 RMK AO2,M
TMT,2022-04-22 07:55,-117.1971,39.4643,1749.34,34.50,33.30,95.32,270.00,7.00,0.01,29.83,M,5.00,M,BKN,OVC,M,M,1300.00,2000.00,M,M,RA,M,M,M,M,M,M,27.83,KTMT 220755Z AUTO 27007KT 5SM RA BKN013 OVC020 01/01 A2983 RMK AO2 P0001 T00140007 401441072,M
BVU,2022-04-22 07:55,-114.8611,35.9475,671.00,62.60,23.00,21.79,240.00,21.00,0.00,29.75,M,6.00,31.00,FEW,FEW,SCT,M,300.00,1500.00,11000.00,M,HZ,M,M,M,M,M,M,62.60,KBVU 220755Z AUTO 24021G31KT 6SM HZ FEW003 FEW015 SCT110 17/M05 A2975 RMK AO2,M
CXP,2022-04-22 07:55,-119.7326,39.1923,1431.00,37.40,28.40,69.67,0.00,0.00,0.00,29.87,M,10.00,M,SCT,OVC,M,M,4900.00,6000.00,M,M,M,M,M,M,M,M,M,37.40,KCXP 220755Z AUTO 00000KT 10SM SCT049 OVC060 03/M02 A2987 RMK AO2,M
RNO,2022-04-22 07:55,-119.7711,39.4839,1341.00,39.00,30.00,69.85,360.00,8.00,0.00,29.86,1010.20,10.00,M,SCT,BKN,OVC,M,2600.00,7000.00,10000.00,M,M,M,M,M,M,M,M,32.74,KRNO 220755Z 36008KT 10SM SCT026 BKN070 OVC100 04/M01 A2986 RMK AO2 SLP102 MTN TOPS OBSCD DSNT SW THRU NW T00391011 401060039,M
HTH,2022-04-22 07:55,-118.6315,38.5448,1282.89,41.00,35.60,80.93,310.00,9.00,0.00,29.84,M,10.00,16.00,SCT,BKN,OVC,M,2900.00,3800.00,4400.00,M,M,M,M,M,M,M,M,34.70,KHTH 220755Z AUTO 31009G16KT 10SM SCT029 BKN038 OVC044 05/02 A2984 RMK A01,M
BAM,2022-04-22 07:55,-116.8743,40.5990,1382.36,37.40,37.40,100.00,50.00,4.00,0.00,29.82,M,10.00,M,OVC,M,M,M,7000.00,M,M,M,M,M,M,M,M,M,M,33.73,KBAM 220755Z AUTO 05004KT 10SM OVC070 03/03 A2982 RMK AO1,M
MEV,2022-04-22 07:55,-119.7500,38.9963,1441.42,35.60,28.40,74.80,0.00,0.00,0.00,29.86,M,10.00,M,FEW,SCT,BKN,M,3900.00,5000.00,7500.00,M,M,M,M,M,M,M,M,35.60,KMEV 220755Z AUTO 00000KT 10SM FEW039 SCT050 BKN075 02/M02 A2986 RMK AO2,M
WMC,2022-04-22 07:56,-117.8072,40.9019,1315.00,36.00,32.00,85.23,0.00,0.00,0.00,29.80,1009.10,10.00,M,BKN,M,M,M,12000.00,M,M,M,M,M,M,M,M,M,M,36.00,KWMC 220756Z AUTO 00000KT 10SM BKN120 02/00 A2980 RMK AO2 SLP091 T00220000 401060011,M
TPH,2022-04-22 07:56,-117.0904,38.0505,1654.00,44.00,33.00,65.02,360.00,10.00,T,29.77,1004.00,10.00,M,BKN,OVC,M,M,3600.00,7000.00,M,M,M,M,M,M,M,M,M,38.14,KTPH 220756Z AUTO 36010KT 10SM BKN036 OVC070 07/01 A2977 RMK AO2 RAB24E52 SLP040 P0000 T00670006 401940033 $,M
EKO,2022-04-22 07:56,-115.7860,40.8242,1367.00,35.00,33.00,92.32,80.00,4.00,0.02,29.81,1008.00,10.00,M,SCT,OVC,M,M,400.00,3400.00,M,M,UP,M,M,M,M,M,M,31.04,KEKO 220756Z AUTO 08004KT 10SM UP SCT004 OVC034 02/01 A2981 RMK AO2 RAB25E43UPB27SNE25 SLP080 P0002 T00170006 401560000,M
HND,2022-04-22 07:56,-115.1344,35.9729,742.79,61.00,28.90,29.45,200.00,19.00,0.00,29.78,1008.30,10.00,26.00,CLR,M,M,M,M,M,M,M,M,M,M,M,29.00,200.00,2022-04-22 07:44,61.00,KHND 220756Z AUTO 20019G26KT 10SM CLR 16/M02 A2978 RMK AO2 PK WND 20029/0744 SLP083 T01611017,M
NFL,2022-04-22 07:56,-118.7010,39.4166,1199.00,42.00,37.00,81.98,260.00,7.00,0.00,29.84,1008.00,10.00,M,FEW,BKN,OVC,M,2800.00,4800.00,7000.00,M,M,M,M,M,M,M,M,37.09,KNFL 220756Z AUTO 26007KT 10SM FEW028 BKN048 OVC070 06/03 A2984 RMK AO2 SLP080 T00560028 401670056,M
LAS,2022-04-22 07:56,-115.1634,36.0719,663.00,64.00,28.00,25.54,190.00,11.00,0.00,29.74,1005.40,10.00,21.00,FEW,BKN,BKN,M,15000.00,18000.00,25000.00,M,M,M,M,M,29.00,170.00,2022-04-22 07:00,64.00,KLAS 220756Z 19011G21KT 10SM FEW150 BKN180 BKN250 18/M02 A2974 RMK AO2 PK WND 17029/0700 SLP054 T01781022 402830178 $,M
LSV,2022-04-22 07:58,-115.0343,36.2362,570.00,67.50,33.30,28.04,220.00,14.00,0.00,29.72,1004.50,10.00,19.00,OVC,M,M,M,16000.00,M,M,M,M,M,M,M,M,M,M,67.50,KLSV 220758Z AUTO 22014G19KT 10SM OVC160 20/01 A2972 RMK AO2 SLP045 T01970007 402990189 $,M
INS,2022-04-22 07:58,-115.6733,36.5872,955.00,59.50,29.70,32.10,230.00,27.00,0.01,29.70,1002.10,10.00,37.00,FEW,M,M,M,10000.00,M,M,M,M,M,M,M,43.00,210.00,2022-04-22 06:59,59.50,KINS 220758Z AUTO 23027G37KT 10SM FEW100 15/M01 A2970 RMK AO2 PK WND 21043/0659 SLP021 P0001 T01531013 402680136 $,M
CXP,2022-04-22 08:10,-119.7326,39.1923,1431.00,37.40,28.40,69.67,0.00,0.00,0.00,29.87,M,10.00,M,FEW,BKN,OVC,M,5000.00,6000.00,7500.00,M,M,M,M,M,M,M,M,37.40,KCXP 220810Z AUTO 00000KT 10SM FEW050 BKN060 OVC075 03/M02 A2987 RMK AO2,M
NFL,2022-04-22 08:10,-118.7010,39.4166,1199.00,42.00,37.00,81.98,300.00,8.00,0.00,29.84,M,10.00,M,BKN,BKN,OVC,M,2400.00,3300.00,4000.00,M,M,M,M,M,M,M,M,36.55,KNFL 220810Z AUTO 30008KT 10SM BKN024 BKN033 OVC040 06/03 A2984 RMK AO2 T00560028,M
05U,2022-04-22 08:10,-116.0051,39.6042,1811.23,33.80,33.80,100.00,0.00,0.00,0.00,29.81,M,4.00,M,M,M,M,M,M,M,M,M,BR,M,M,M,M,M,M,33.80,K05U 220810Z AUTO 00000KT 4SM BR 01/01 A2981 RMK A01,M
MEV,2022-04-22 08:15,-119.7500,38.9963,1441.42,35.60,28.40,74.80,90.00,4.00,0.00,29.86,M,10.00,M,FEW,BKN,OVC,M,4500.00,5500.00,7000.00,M,M,M,M,M,M,M,M,31.62,KMEV 220815Z AUTO 09004KT 10SM FEW045 BKN055 OVC070 02/M02 A2986 RMK AO2,M
BAM,2022-04-22 08:15,-116.8743,40.5990,1382.36,37.40,37.40,100.00,40.00,3.00,0.00,29.81,M,10.00,M,OVC,M,M,M,7000.00,M,M,M,M,M,M,M,M,M,M,34.86,KBAM 220815Z AUTO 04003KT 10SM OVC070 03/03 A2981 RMK AO1,M
HTH,2022-04-22 08:15,-118.6315,38.5448,1282.89,41.00,37.40,86.89,310.00,13.00,0.00,29.84,M,10.00,M,SCT,BKN,OVC,M,2300.00,2900.00,4300.00,M,M,M,M,M,M,M,M,33.10,KHTH 220815Z AUTO 31013KT 10SM SCT023 BKN029 OVC043 05/03 A2984 RMK A01,M
TMT,2022-04-22 08:15,-117.1971,39.4643,1749.34,33.00,32.20,97.22,280.00,3.00,0.01,29.82,M,3.00,M,OVC,M,M,M,1500.00,M,M,M,-SN,M,M,M,M,M,M,29.72,KTMT 220815Z AUTO 28003KT 3SM -SN OVC015 01/00 A2982 RMK AO2 P0001 T00050001,M
BVU,2022-04-22 08:15,-114.8611,35.9475,671.00,62.60,23.00,21.79,230.00,20.00,0.00,29.76,M,10.00,32.00,FEW,FEW,M,M,1500.00,12000.00,M,M,M,M,M,M,M,M,M,62.60,KBVU 220815Z AUTO 23020G32KT 10SM FEW015 FEW120 17/M05 A2976 RMK AO2,M
RTS,2022-04-22 08:15,-119.8764,39.6682,1539.00,33.80,30.20,86.49,0.00,0.00,0.00,29.87,M,10.00,M,FEW,BKN,BKN,M,6500.00,8000.00,9000.00,M,M,M,M,M,M,M,M,33.80,KRTS 220815Z AUTO 00000KT 10SM FEW065 BKN080 BKN090 01/M01 A2987 RMK AO2,M
INS,2022-04-22 08:25,-115.6733,36.5872,955.00,59.00,32.00,35.87,250.00,29.00,0.00,29.71,1002.30,10.00,37.00,FEW,SCT,M,M,2600.00,9500.00,M,M,-RA,M,M,M,M,M,M,59.00,KINS 220825Z AUTO 25029G37KT 10SM -RA FEW026 SCT095 15/M00 A2971 RMK AO2 RAB25 SLP023 $,M
05U,2022-04-22 08:30,-116.0051,39.6042,1811.23,33.80,33.80,100.00,0.00,0.00,0.00,29.80,M,2.50,M,M,M,M,M,M,M,M,M,BR,M,M,M,M,M,M,33.80,K05U 220830Z AUTO 00000KT 2 1/2SM BR 01/01 A2980 RMK A01,M
TMT,2022-04-22 08:35,-117.1971,39.4643,1749.34,33.30,32.50,96.84,0.00,0.00,0.02,29.81,M,7.00,M,SCT,OVC,M,M,900.00,1500.00,M,M,-SN,M,M,M,M,M,M,33.30,KTMT 220835Z AUTO 00000KT 7SM -SN SCT009 OVC015 01/00 A2981 RMK AO2 P0002 T00070003,M
HTH,2022-04-22 08:35,-118.6315,38.5448,1282.89,41.00,35.60,80.93,320.00,9.00,0.00,29.83,M,10.00,14.00,FEW,OVC,M,M,2200.00,3600.00,M,M,M,M,M,M,M,M,M,34.70,KHTH 220835Z AUTO 32009G14KT 10SM FEW022 OVC036 05/02 A2983 RMK A01,M
BAM,2022-04-22 08:35,-116.8743,40.5990,1382.36,37.40,37.40,100.00,330.00,3.00,0.00,29.82,M,10.00,M,OVC,M,M,M,7000.00,M,M,M,M,M,M,M,M,M,M,34.86,KBAM 220835Z AUTO 33003KT 10SM OVC070 03/03 A2982 RMK AO1,M
MEV,2022-04-22 08:35,-119.7500,38.9963,1441.42,35.60,28.40,74.80,M,5.00,0.00,29.86,M,10.00,M,BKN,OVC,M,M,6000.00,7000.00,M,M,M,M,M,M,M,M,M,30.67,KMEV 220835Z AUTO VRB05KT 10SM BKN060 OVC070 02/M02 A2986 RMK AO2,M
RTS,2022-04-22 08:35,-119.8764,39.6682,1539.00,32.00,30.20,92.97,0.00,0.00,0.00,29.86,M,10.00,M,BKN,OVC,M,M,7000.00,8000.00,M,M,M,M,M,M,M,M,M,32.00,KRTS 220835Z AUTO 00000KT 10SM BKN070 OVC080 00/M01 A2986 RMK AO2,M
INS,2022-04-22 08:35,-115.6733,36.5872,955.00,55.40,35.60,47.16,210.00,27.00,0.00,29.71,1002.50,10.00,37.00,BKN,BKN,M,M,4500.00,9500.00,M,M,-RA,M,M,M,M,M,M,55.40,KINS 220835Z AUTO 21027G37KT 10SM -RA BKN045 BKN095 13/02 A2971 RMK AO2 RAB25 SLP025 $,M
CXP,2022-04-22 08:35,-119.7326,39.1923,1431.00,37.40,28.40,69.67,0.00,0.00,0.00,29.86,M,10.00,M,BKN,OVC,M,M,6500.00,7500.00,M,M,M,M,M,M,M,M,M,37.40,KCXP 220835Z AUTO 00000KT 10SM BKN065 OVC075 03/M02 A2986 RMK AO2,M
BVU,2022-04-22 08:35,-114.8611,35.9475,671.00,62.60,24.80,23.50,240.00,20.00,0.00,29.74,M,10.00,29.00,CLR,M,M,M,M,M,M,M,M,M,M,M,M,M,M,62.60,KBVU 220835Z AUTO 24020G29KT 10SM CLR 17/M04 A2974 RMK AO2,M
EKO,2022-04-22 08:36,-115.7860,40.8242,1367.00,36.00,33.00,89.09,60.00,3.00,0.01,29.80,M,10.00,M,OVC,M,M,M,2800.00,M,M,M,UP,M,M,M,M,M,M,33.26,KEKO 220836Z AUTO 06003KT 10SM UP OVC028 02/01 A2980 RMK AO2 P0001 T00220006,M
INS,2022-04-22 08:36,-115.6733,36.5872,955.00,55.40,35.60,47.16,210.00,28.00,0.00,29.71,1002.50,10.00,37.00,BKN,BKN,M,M,4500.00,9500.00,M,M,-RA,M,M,M,M,M,M,55.40,KINS 220836Z AUTO 21028G37KT 10SM -RA BKN045 BKN095 13/02 A2971 RMK AO2 WSHFT 23 RAB25 SLP025 $,M
LOL,2022-04-22 08:40,-118.5701,40.0684,1192.43,40.00,36.00,85.81,310.00,4.00,0.03,29.84,M,4.00,M,FEW,SCT,OVC,M,1200.00,2200.00,2600.00,M,RA BR,M,M,M,M,M,M,36.65,KLOL 220840Z AUTO 31004KT 4SM RA BR FEW012 SCT022 OVC026 04/02 A2984 RMK AO2 P0003 T00440022,M
INS,2022-04-22 08:43,-115.6733,36.5872,955.00,55.40,33.80,43.90,190.00,21.00,0.00,29.67,1001.10,10.00,38.00,BKN,BKN,BKN,M,4700.00,8000.00,10000.00,M,-RA,M,M,M,M,M,M,55.40,KINS 220843Z AUTO 19021G38KT 10SM -RA BKN047 BKN080 BKN100 13/01 A2967 RMK AO2 RAB25 PRESFR SLP011 $,M
EKO,2022-04-22 08:47,-115.7860,40.8242,1367.00,36.00,33.00,89.09,80.00,3.00,0.01,29.80,M,10.00,M,SCT,OVC,M,M,400.00,2600.00,M,M,-RA,M,M,M,M,M,M,33.26,KEKO 220847Z AUTO 08003KT 10SM -RA SCT004 OVC026 02/01 A2980 RMK AO2 UPE43RAB43 P0001 T00220006,M
05U,2022-04-22 08:50,-116.0051,39.6042,1811.23,33.80,33.80,100.00,0.00,0.00,0.00,29.80,M,0.75,M,M,M,M,M,M,M,M,M,BR,M,M,M,M,M,M,33.80,K05U 220850Z AUTO 00000KT 3/4SM BR 01/01 A2980 RMK A01,M
ELY,2022-04-22 08:53,-114.8453,39.2950,1909.00,38.00,35.00,89.53,160.00,13.00,0.00,29.73,1000.80,10.00,M,FEW,BKN,OVC,M,4300.00,7500.00,9000.00,M,M,M,M,M,M,M,M,29.13,KELY 220853Z AUTO 16013KT 10SM FEW043 BKN075 OVC090 03/02 A2973 RMK AO2 SLP008 60001 T00330017 58012,M
INS,2022-04-22 08:53,-115.6733,36.5872,955.00,55.40,30.20,37.97,200.00,21.00,0.00,29.68,1001.20,10.00,28.00,BKN,OVC,M,M,4200.00,9000.00,M,M,M,M,M,M,M,M,M,55.40,KINS 220853Z AUTO 20021G28KT 10SM BKN042 OVC090 13/M01 A2968 RMK AO2 RAB25E53 SLP012 $,M
P68,2022-04-22 08:53,-116.0056,39.6014,1993.00,33.00,32.00,95.67,0.00,0.00,0.02,29.77,1004.40,M,M,M,M,M,M,M,M,M,M,M,M,M,M,M,M,M,33.10,KP68 220853Z AUTO 00000KT 01/00 A2977 RMK AO1 SLP044 P0002 60010 T00060000 58014,M
VGT,2022-04-22 08:53,-115.1933,36.2111,667.00,64.00,34.00,32.56,250.00,17.00,0.00,29.72,1006.10,10.00,M,CLR,M,M,M,M,M,M,M,M,M,M,M,26.00,230.00,2022-04-22 08:37,64.00,KVGT 220853Z AUTO 25017KT 10SM CLR 18/01 A2972 RMK AO2 PK WND 23026/0837 SLP061 T01780011 50007,M
LOL,2022-04-22 08:53,-118.5701,40.0684,1192.43,39.00,36.00,88.87,10.00,3.00,0.03,29.84,1010.10,8.00,M,FEW,BKN,OVC,M,1200.00,2200.00,3000.00,M,-RA,M,M,M,M,M,M,36.69,KLOL 220853Z AUTO 01003KT 8SM -RA FEW012 BKN022 OVC030 04/02 A2984 RMK AO2 SLP101 P0003 60003 T00390022 53003,M
DRA,2022-04-22 08:53,-116.0278,36.6206,1009.00,55.00,33.00,43.31,200.00,14.00,0.00,29.74,1003.40,10.00,26.00,SCT,BKN,OVC,M,5500.00,7000.00,10000.00,M,M,M,M,M,34.00,210.00,2022-04-22 08:02,55.00,KDRA 220853Z AUTO 20014G26KT 10SM SCT055 BKN070 OVC100 13/01 A2974 RMK AO2 PK WND 21034/0802 SLP034 T01280006 58001,M
HTH,2022-04-22 08:55,-118.6315,38.5448,1282.89,41.00,35.60,80.93,320.00,9.00,0.00,29.84,M,10.00,M,FEW,OVC,M,M,2600.00,3700.00,M,M,M,M,M,M,M,M,M,34.70,KHTH 220855Z AUTO 32009KT 10SM FEW026 OVC037 05/02 A2984 RMK A01,M
BVU,2022-04-22 08:55,-114.8611,35.9475,671.00,62.60,23.00,21.79,220.00,24.00,0.00,29.74,M,10.00,M,FEW,FEW,SCT,M,5000.00,7000.00,9000.00,M,M,M,M,M,M,M,M,62.60,KBVU 220855Z AUTO 22024KT 10SM FEW050 FEW070 SCT090 17/M05 A2974 RMK AO2,M
CXP,2022-04-22 08:55,-119.7326,39.1923,1431.00,37.40,28.40,69.67,260.00,4.00,0.00,29.87,M,10.00,M,OVC,M,M,M,7000.00,M,M,M,M,M,M,M,M,M,M,33.73,KCXP 220855Z AUTO 26004KT 10SM OVC070 03/M02 A2987 RMK AO2,M
RNO,2022-04-22 08:55,-119.7711,39.4839,1341.00,39.00,30.90,72.45,350.00,4.00,0.00,29.86,1009.80,10.00,M,FEW,SCT,BKN,M,2600.00,6000.00,11000.00,M,M,M,M,M,M,M,M,35.59,KRNO 220855Z 35004KT 10SM FEW026 SCT060 BKN110 04/M01 A2986 RMK AO2 SLP098 MT TOPS OBSCD DSNT SW THRU NW 60000 T00391006 50001,M
RTS,2022-04-22 08:55,-119.8764,39.6682,1539.00,32.00,28.40,86.39,0.00,0.00,0.00,29.86,M,10.00,M,SCT,BKN,OVC,M,7000.00,8000.00,9000.00,M,M,M,M,M,M,M,M,32.00,KRTS 220855Z AUTO 00000KT 10SM SCT070 BKN080 OVC090 00/M02 A2986 RMK AO2,M
MEV,2022-04-22 08:55,-119.7500,38.9963,1441.42,35.60,32.00,86.59,210.00,5.00,0.00,29.86,M,10.00,M,SCT,BKN,OVC,M,3200.00,5000.00,7000.00,M,M,M,M,M,M,M,M,30.67,KMEV 220855Z AUTO 21005KT 10SM SCT032 BKN050 OVC070 02/M00 A2986 RMK AO2,M
TMT,2022-04-22 08:55,-117.1971,39.4643,1749.34,32.20,32.00,99.20,0.00,0.00,0.03,29.81,M,1.75,M,BKN,OVC,M,M,500.00,1000.00,M,M,-SN,M,M,M,M,M,M,32.20,KTMT 220855Z AUTO 00000KT 1 3/4SM -SN BKN005 OVC010 00/00 A2981 RMK AO2 P0003 60004 T00010000,M
BAM,2022-04-22 08:55,-116.8743,40.5990,1382.36,37.40,37.40,100.00,300.00,4.00,0.00,29.81,M,10.00,M,OVC,M,M,M,7000.00,M,M,M,M,M,M,M,M,M,M,33.73,KBAM 220855Z AUTO 30004KT 10SM OVC070 03/03 A2981 RMK AO1,M
TPH,2022-04-22 08:56,-117.0904,38.0505,1654.00,40.00,33.00,76.44,320.00,16.00,0.00,29.78,1004.70,10.00,M,BKN,M,M,M,6000.00,M,M,M,M,M,M,M,28.00,330.00,2022-04-22 08:34,30.72,KTPH 220856Z AUTO 32016KT 10SM BKN060 04/01 A2978 RMK AO2 PK WND 33028/0834 SLP047 60000 T00440006 51010 $,M
LAS,2022-04-22 08:56,-115.1634,36.0719,663.00,62.00,32.00,32.13,230.00,14.00,0.00,29.73,1004.90,10.00,24.00,FEW,BKN,OVC,M,6000.00,16000.00,22000.00,M,M,M,M,M,M,M,M,62.10,KLAS 220856Z 23014G24KT 10SM FEW060 BKN160 OVC220 17/00 A2973 RMK AO2 SLP049 T01670000 50001 $,M
WMC,2022-04-22 08:56,-117.8072,40.9019,1315.00,36.00,33.00,89.09,0.00,0.00,0.00,29.81,1008.80,10.00,M,FEW,BKN,OVC,M,4600.00,9000.00,11000.00,M,M,M,M,M,M,M,M,36.00,KWMC 220856Z AUTO 00000KT 10SM FEW046 BKN090 OVC110 02/01 A2981 RMK AO2 SLP088 T00220006 55001,M
NFL,2022-04-22 08:56,-118.7010,39.4166,1199.00,37.00,34.00,88.78,340.00,11.00,T,29.85,1008.40,9.00,M,OVC,M,M,M,2000.00,M,M,M,UP,M,M,M,M,M,M,28.79,KNFL 220856Z AUTO 34011KT 9SM UP OVC020 03/01 A2985 RMK AO2 RAB12E30UPB30 SLP084 P0000 60000 T00280011 53005,M
HND,2022-04-22 08:56,-115.1344,35.9729,742.79,60.00,30.00,31.80,210.00,19.00,0.00,29.76,1007.60,10.00,28.00,CLR,M,M,M,M,M,M,M,M,M,M,M,29.00,210.00,2022-04-22 08:44,60.10,KHND 220856Z AUTO 21019G28KT 10SM CLR 16/M01 A2976 RMK AO2 PK WND 21029/0844 SLP076 T01561011 50003,M
EKO,2022-04-22 08:56,-115.7860,40.8242,1367.00,36.00,33.00,89.09,80.00,4.00,0.01,29.79,1007.40,10.00,M,SCT,OVC,M,M,500.00,2600.00,M,M,UP,M,M,M,M,M,M,32.09,KEKO 220856Z AUTO 08004KT 10SM UP SCT005 OVC026 02/01 A2979 RMK AO2 UPE43B53RAB43E53 SLP074 P0001 60010 T00220006 58012,M
LSV,2022-04-22 08:58,-115.0343,36.2362,570.00,65.70,29.80,25.90,190.00,11.00,0.00,29.71,1004.10,10.00,M,CLR,M,M,M,M,M,M,M,M,M,M,M,M,M,M,65.70,KLSV 220858Z AUTO 19011KT 10SM CLR 19/M01 A2971 RMK AO2 SLP041 T01871012 53001 $,M
INS,2022-04-22 08:58,-115.6733,36.5872,955.00,56.50,31.10,37.84,200.00,18.00,0.27,29.68,1001.20,10.00,26.00,SCT,BKN,OVC,M,4300.00,9000.00,11000.00,M,M,M,M,M,40.00,240.00,2022-04-22 08:21,56.50,KINS 220858Z AUTO 20018G26KT 10SM SCT043 BKN090 OVC110 14/M00 A2968 RMK AO2 PK WND 24040/21 RAB25E53 SLP012 P0027 60027 T01361005 50004 $,M
LOL,2022-04-22 09:03,-118.5701,40.0684,1192.43,39.00,37.00,92.45,0.00,0.00,T,29.83,M,10.00,M,FEW,OVC,M,M,1200.00,3000.00,M,M,-RA,M,M,M,M,M,M,39.00,KLOL 220903Z AUTO 00000KT 10SM -RA FEW012 OVC030 04/03 A2983 RMK AO2 P0000 T00390028,M
INS,2022-04-22 09:04,-115.6733,36.5872,955.00,57.20,30.20,35.57,240.00,15.00,0.00,29.69,1001.60,10.00,26.00,FEW,BKN,OVC,M,4100.00,9000.00,11000.00,M,M,M,M,M,M,M,M,57.20,KINS 220904Z AUTO 24015G26KT 10SM FEW041 BKN090 OVC110 14/M01 A2969 RMK AO2 WSHFT 0852 SLP016 $,M
INS,2022-04-22 09:09,-115.6733,36.5872,955.00,57.20,32.00,38.26,280.00,15.00,0.00,29.70,1001.90,10.00,19.00,FEW,SCT,OVC,M,2900.00,9000.00,11000.00,M,M,M,M,M,M,M,M,57.20,KINS 220909Z AUTO 28015G19KT 10SM FEW029 SCT090 OVC110 14/M00 A2970 RMK AO2 SLP019 $,M
05U,2022-04-22 09:10,-116.0051,39.6042,1811.23,33.80,33.80,100.00,0.00,0.00,0.00,29.79,M,0.50,M,M,M,M,M,M,M,M,M,BR,M,M,M,M,M,M,33.80,K05U 220910Z AUTO 00000KT 1/2SM BR 01/01 A2979 RMK A01,M
CXP,2022-04-22 09:10,-119.7326,39.1923,1431.00,37.40,28.40,69.67,0.00,0.00,0.00,29.86,M,10.00,M,FEW,OVC,M,M,5000.00,7500.00,M,M,M,M,M,M,M,M,M,37.40,KCXP 220910Z AUTO 00000KT 10SM FEW050 OVC075 03/M02 A2986 RMK AO2,M
EKO,2022-04-22 09:11,-115.7860,40.8242,1367.00,35.00,33.00,92.32,100.00,4.00,0.01,29.79,M,8.00,M,BKN,OVC,M,M,500.00,2400.00,M,M,-SN,M,M,M,M,M,M,31.04,KEKO 220911Z AUTO 10004KT 8SM -SN BKN005 OVC024 02/01 A2979 RMK AO2 UPE06RAB06E11SNB11 P0001 T00170006,M
LOL,2022-04-22 09:14,-118.5701,40.0684,1192.43,39.00,37.00,92.45,0.00,0.00,0.01,29.83,M,8.00,M,BKN,OVC,M,M,2500.00,3300.00,M,M,-RA,M,M,M,M,M,M,39.00,KLOL 220914Z AUTO 00000KT 8SM -RA BKN025 OVC033 04/03 A2983 RMK AO2 P0001 T00390028,M
RTS,2022-04-22 09:15,-119.8764,39.6682,1539.00,33.80,30.20,86.49,260.00,7.00,0.00,29.86,M,10.00,M,SCT,SCT,OVC,M,4000.00,7000.00,8500.00,M,M,M,M,M,M,M,M,26.97,KRTS 220915Z AUTO 26007KT 10SM SCT040 SCT070 OVC085 01/M01 A2986 RMK AO2,M
BVU,2022-04-22 09:15,-114.8611,35.9475,671.00,60.80,24.80,25.04,220.00,23.00,0.00,29.74,M,10.00,M,FEW,FEW,BKN,M,5500.00,7000.00,9000.00,M,M,M,M,M,M,M,M,60.80,KBVU 220915Z AUTO 22023KT 10SM FEW055 FEW070 BKN090 16/M04 A2974 RMK AO2,M
TMT,2022-04-22 09:15,-117.1971,39.4643,1749.34,32.00,32.00,100.00,180.00,3.00,0.01,29.81,M,1.50,M,OVC,M,M,M,1200.00,M,M,M,-SN,M,M,M,M,M,M,28.69,KTMT 220915Z AUTO 18003KT 1 1/2SM -SN OVC012 00/00 A2981 RMK AO2 P0001 T00000000,M
MEV,2022-04-22 09:15,-119.7500,38.9963,1441.42,35.60,32.00,86.59,200.00,4.00,0.00,29.86,M,10.00,M,SCT,BKN,OVC,M,2800.00,3500.00,4200.00,M,M,M,M,M,M,M,M,31.62,KMEV 220915Z AUTO 20004KT 10SM SCT028 BKN035 OVC042 02/M00 A2986 RMK AO2,M
HTH,2022-04-22 09:15,-118.6315,38.5448,1282.89,39.20,35.60,86.79,350.00,8.00,0.00,29.84,M,5.00,15.00,FEW,BKN,OVC,M,1600.00,2500.00,3800.00,M,HZ,M,M,M,M,M,M,32.98,KHTH 220915Z AUTO 35008G15KT 5SM HZ FEW016 BKN025 OVC038 04/02 A2984 RMK A01,M
BAM,2022-04-22 09:15,-116.8743,40.5990,1382.36,37.40,37.40,100.00,330.00,6.00,0.00,29.81,M,10.00,M,OVC,M,M,M,7000.00,M,M,M,M,M,M,M,M,M,M,32.03,KBAM 220915Z AUTO 33006KT 10SM OVC070 03/03 A2981 RMK AO1,M
INS,2022-04-22 09:16,-115.6733,36.5872,955.00,55.40,33.80,43.90,290.00,25.00,0.00,29.69,1001.60,10.00,M,BKN,M,M,M,11000.00,M,M,M,M,M,M,M,M,M,M,55.40,KINS 220916Z AUTO 29025KT 10SM BKN110 13/01 A2969 RMK AO2 WSHFT 04 SLP016 $,M
NFL,2022-04-22 09:21,-118.7010,39.4166,1199.00,36.00,34.00,92.35,350.00,6.00,T,29.85,M,10.00,M,FEW,SCT,OVC,M,1900.00,2500.00,3900.00,M,M,M,M,M,M,M,M,30.35,KNFL 220921Z AUTO 35006KT 10SM FEW019 SCT025 OVC039 02/01 A2985 RMK AO2 UPE19 P0000 T00220011,M
EKO,2022-04-22 09:26,-115.7860,40.8242,1367.00,35.00,33.00,92.32,0.00,0.00,0.02,29.78,M,8.00,M,SCT,OVC,M,M,500.00,2300.00,M,M,-RA,M,M,M,M,M,M,35.10,KEKO 220926Z AUTO 00000KT 8SM -RA SCT005 OVC023 02/01 A2978 RMK AO2 UPE06RAB06E11B23SNB11E23 P0002 T00170006,M
05U,2022-04-22 09:30,-116.0051,39.6042,1811.23,33.80,33.80,100.00,0.00,0.00,0.00,29.78,M,M,M,M,M,M,M,M,M,M,M,M,M,M,M,M,M,M,33.80,K05U 220930Z AUTO 00000KT 01/01 A2978 RMK A01,M
NFL,2022-04-22 09:34,-118.7010,39.4166,1199.00,37.00,34.00,88.78,20.00,4.00,T,29.84,M,4.00,M,BKN,OVC,M,M,2500.00,3300.00,M,M,RA BR,M,M,M,M,M,M,33.26,KNFL 220934Z AUTO 02004KT 4SM RA BR BKN025 OVC033 03/01 A2984 RMK AO2 UPE19RAB25 P0000 T00280011,M
BVU,2022-04-22 09:35,-114.8611,35.9475,671.00,60.80,24.80,25.04,230.00,19.00,0.00,29.74,M,10.00,25.00,FEW,FEW,FEW,M,6500.00,9500.00,12000.00,M,M,M,M,M,M,M,M,60.80,KBVU 220935Z AUTO 23019G25KT 10SM FEW065 FEW095 FEW120 16/M04 A2974 RMK AO2,M
TMT,2022-04-22 09:35,-117.1971,39.4643,1749.34,32.00,32.00,100.00,200.00,4.00,0.02,29.80,M,2.50,M,OVC,M,M,M,1200.00,M,M,M,-SN,M,M,M,M,M,M,27.42,KTMT 220935Z AUTO 20004KT 2 1/2SM -SN OVC012 00/00 A2980 RMK AO2 P0002 T00000000,M
CXP,2022-04-22 09:35,-119.7326,39.1923,1431.00,37.40,28.40,69.67,0.00,0.00,0.00,29.87,M,10.00,M,BKN,BKN,OVC,M,4300.00,5000.00,7000.00,M,M,M,M,M,M,M,M,37.40,KCXP 220935Z AUTO 00000KT 10SM BKN043 BKN050 OVC070 03/M02 A2987 RMK AO2,M
HTH,2022-04-22 09:35,-118.6315,38.5448,1282.89,41.00,37.40,86.89,350.00,9.00,0.00,29.83,M,9.00,M,FEW,SCT,OVC,M,1700.00,2800.00,3700.00,M,M,M,M,M,M,M,M,34.70,KHTH 220935Z AUTO 35009KT 9SM FEW017 SCT028 OVC037 05/03 A2983 RMK A01,M
BAM,2022-04-22 09:35,-116.8743,40.5990,1382.36,37.40,37.40,100.00,360.00,4.00,0.00,29.80,M,10.00,M,OVC,M,M,M,7000.00,M,M,M,M,M,M,M,M,M,M,33.73,KBAM 220935Z AUTO 36004KT 10SM OVC070 03/03 A2980 RMK AO1,M
MEV,2022-04-22 09:35,-119.7500,38.9963,1441.42,35.60,32.00,86.59,0.00,0.00,0.00,29.86,M,10.00,M,SCT,BKN,OVC,M,2800.00,3600.00,4100.00,M,M,M,M,M,M,M,M,35.60,KMEV 220935Z AUTO 00000KT 10SM SCT028 BKN036 OVC041 02/M00 A2986 RMK AO2,M
RTS,2022-04-22 09:35,-119.8764,39.6682,1539.00,33.80,28.40,80.36,280.00,6.00,0.00,29.86,M,10.00,M,FEW,BKN,OVC,M,3900.00,8500.00,10000.00,M,M,M,M,M,M,M,M,27.70,KRTS 220935Z AUTO 28006KT 10SM FEW039 BKN085 OVC100 01/M02 A2986 RMK AO2,M
LOL,2022-04-22 09:36,-118.5701,40.0684,1192.43,38.00,37.00,96.52,0.00,0.00,0.01,29.83,M,10.00,M,SCT,BKN,OVC,M,2700.00,5000.00,6000.00,M,M,M,M,M,M,M,M,37.90,KLOL 220936Z AUTO 00000KT 10SM SCT027 BKN050 OVC060 03/03 A2983 RMK AO2 RAE33 P0001 T00330028,M
05U,2022-04-22 09:50,-116.0051,39.6042,1811.23,32.00,32.00,100.00,0.00,0.00,0.00,29.78,M,1.75,M,M,M,M,M,M,M,M,M,BR,M,M,M,M,M,M,32.00,K05U 220950Z AUTO 00000KT 1 3/4SM BR 00/00 A2978 RMK A01,M
EKO,2022-04-22 09:51,-115.7860,40.8242,1367.00,35.60,33.80,93.08,40.00,3.00,0.02,29.78,M,10.00,M,FEW,OVC,M,M,900.00,3900.00,M,M,UP,M,M,M,M,M,M,32.80,KEKO 220951Z AUTO 04003KT 10SM UP FEW009 OVC039 02/01 A2978 RMK AO2 UPE06B27RAB06E11B23E27SNB11E23B38E48 P0002,M
LOL,2022-04-22 09:53,-118.5701,40.0684,1192.43,38.00,37.00,96.52,0.00,0.00,0.01,29.83,1009.80,10.00,M,SCT,BKN,OVC,M,2500.00,3800.00,6000.00,M,-RA,M,M,M,M,M,M,37.90,KLOL 220953Z AUTO 00000KT 10SM -RA SCT025 BKN038 OVC060 03/03 A2983 RMK AO2 RAE33B49 SLP098 P0001 T00330028,M
VGT,2022-04-22 09:53,-115.1933,36.2111,667.00,62.00,33.00,33.58,230.00,17.00,0.00,29.72,1006.30,10.00,27.00,FEW,M,M,M,11000.00,M,M,M,M,M,M,M,30.00,250.00,2022-04-22 09:43,62.10,KVGT 220953Z AUTO 23017G27KT 10SM FEW110 17/01 A2972 RMK AO2 PK WND 25030/0943 SLP063 T01670006,M
DRA,2022-04-22 09:53,-116.0278,36.6206,1009.00,53.00,36.00,52.11,200.00,22.00,0.00,29.71,1002.40,10.00,31.00,CLR,M,M,M,M,M,M,M,M,M,M,M,32.00,180.00,2022-04-22 09:43,53.10,KDRA 220953Z AUTO 20022G31KT 10SM CLR 12/02 A2971 RMK AO2 PK WND 18032/0943 SLP024 T01170022,M
P68,2022-04-22 09:53,-116.0056,39.6014,1993.00,33.00,32.00,95.67,250.00,3.00,0.04,29.75,1003.60,M,M,M,M,M,M,M,M,M,M,M,M,M,M,M,M,M,29.95,KP68 220953Z AUTO 25003KT 01/00 A2975 RMK AO1 SLP036 P0004 T00060000 $,M
ELY,2022-04-22 09:53,-114.8453,39.2950,1909.00,39.00,35.00,85.76,160.00,15.00,0.00,29.71,1000.30,10.00,23.00,FEW,BKN,OVC,M,2400.00,5000.00,7000.00,M,M,M,M,M,M,M,M,29.85,KELY 220953Z AUTO 16015G23KT 10SM FEW024 BKN050 OVC070 04/02 A2971 RMK AO2 SLP003 T00390017,M
HTH,2022-04-22 09:55,-118.6315,38.5448,1282.89,41.00,35.60,80.93,330.00,8.00,0.00,29.84,M,9.00,M,SCT,BKN,OVC,M,1500.00,2300.00,3700.00,M,M,M,M,M,M,M,M,35.20,KHTH 220955Z AUTO 33008KT 9SM SCT015 BKN023 OVC037 05/02 A2984 RMK A01,M
BVU,2022-04-22 09:55,-114.8611,35.9475,671.00,60.80,26.60,26.98,240.00,22.00,0.00,29.75,M,10.00,M,CLR,M,M,M,M,M,M,M,M,M,M,M,M,M,M,60.80,KBVU 220955Z AUTO 24022KT 10SM CLR 16/M03 A2975 RMK AO2,M
CXP,2022-04-22 09:55,-119.7326,39.1923,1431.00,37.40,28.40,69.67,220.00,5.00,0.00,29.87,M,10.00,11.00,SCT,BKN,OVC,M,4100.00,6000.00,7000.00,M,M,M,M,M,M,M,M,32.81,KCXP 220955Z AUTO 22005G11KT 10SM SCT041 BKN060 OVC070 03/M02 A2987 RMK AO2,M
RNO,2022-04-22 09:55,-119.7711,39.4839,1341.00,40.00,27.00,59.65,300.00,11.00,0.00,29.86,1009.60,10.00,M,SCT,BKN,M,M,3000.00,12000.00,M,M,M,M,M,M,M,M,M,32.45,KRNO 220955Z 30011KT 10SM SCT030 BKN120 04/M03 A2986 RMK AO2 SLP096 MTN TOPS OBSCD DSNT SW THRU NW T00441028,M
RTS,2022-04-22 09:55,-119.8764,39.6682,1539.00,33.80,28.40,80.36,290.00,5.00,0.00,29.86,M,10.00,M,OVC,M,M,M,9000.00,M,M,M,M,M,M,M,M,M,M,28.53,KRTS 220955Z AUTO 29005KT 10SM OVC090 01/M02 A2986 RMK AO2,M
MEV,2022-04-22 09:55,-119.7500,38.9963,1441.42,35.60,32.00,86.59,260.00,4.00,0.00,29.86,M,10.00,M,BKN,BKN,OVC,M,2800.00,3700.00,4500.00,M,M,M,M,M,M,M,M,31.62,KMEV 220955Z AUTO 26004KT 10SM BKN028 BKN037 OVC045 02/M00 A2986 RMK AO2,M
BAM,2022-04-22 09:55,-116.8743,40.5990,1382.36,37.40,37.40,100.00,360.00,5.00,0.00,29.80,M,10.00,M,SCT,BKN,OVC,M,4100.00,4700.00,6500.00,M,M,M,M,M,M,M,M,32.81,KBAM 220955Z AUTO 36005KT 10SM SCT041 BKN047 OVC065 03/03 A2980 RMK AO1,M
TMT,2022-04-22 09:55,-117.1971,39.4643,1749.34,32.00,32.00,100.00,200.00,4.00,0.02,29.81,M,3.00,M,SCT,OVC,M,M,500.00,1800.00,M,M,-SN,M,M,M,M,M,M,27.42,KTMT 220955Z AUTO 20004KT 3SM -SN SCT005 OVC018 00/00 A2981 RMK AO2 P0002 T00000000,M
WMC,2022-04-22 09:56,-117.8072,40.9019,1315.00,38.00,34.00,85.69,0.00,0.00,0.00,29.80,1008.40,10.00,M,OVC,M,M,M,9000.00,M,M,M,M,M,M,M,M,M,M,37.90,KWMC 220956Z AUTO 00000KT 10SM OVC090 03/01 A2980 RMK AO2 SLP084 T00330011,M
EKO,2022-04-22 09:56,-115.7860,40.8242,1367.00,36.00,33.00,89.09,70.00,4.00,0.02,29.78,1007.10,10.00,M,FEW,OVC,M,M,900.00,4400.00,M,M,UP,M,M,M,M,M,M,32.09,KEKO 220956Z AUTO 07004KT 10SM UP FEW009 OVC044 02/01 A2978 RMK AO2 UPE06B27RAB06E11B23E27SNB11E23B38E48 SLP071 P0002 T00220006,M
NFL,2022-04-22 09:56,-118.7010,39.4166,1199.00,37.00,35.00,92.76,50.00,5.00,0.01,29.84,1008.20,10.00,M,OVC,M,M,M,2900.00,M,M,M,UP,M,M,M,M,M,M,32.33,KNFL 220956Z AUTO 05005KT 10SM UP OVC029 03/02 A2984 RMK AO2 UPE19B50RAB25E50 SLP082 P0001 T00280017,M
LAS,2022-04-22 09:56,-115.1634,36.0719,663.00,59.00,34.00,38.87,230.00,11.00,0.00,29.74,1005.10,10.00,22.00,FEW,OVC,M,M,8000.00,14000.00,M,M,M,M,M,M,28.00,220.00,2022-04-22 09:13,59.00,KLAS 220956Z 23011G22KT 10SM FEW080 OVC140 15/01 A2974 RMK AO2 PK WND 22028/0913 SLP051 TOPS OF MTNS OBSCURED DSNT W T01500011 $,M
HND,2022-04-22 09:56,-115.1344,35.9729,742.79,58.00,34.00,40.43,230.00,18.00,0.00,29.76,1007.40,10.00,M,SCT,M,M,M,11000.00,M,M,M,M,M,M,M,27.00,220.00,2022-04-22 09:32,57.90,KHND 220956Z AUTO 23018KT 10SM SCT110 14/01 A2976 RMK AO2 PK WND 22027/0932 SLP074 T01440011,M
TPH,2022-04-22 09:56,-117.0904,38.0505,1654.00,38.00,33.00,82.66,10.00,14.00,T,29.77,1004.50,10.00,M,BKN,OVC,M,M,6500.00,8000.00,M,M,M,M,M,M,M,M,M,28.77,KTPH 220956Z AUTO 01014KT 10SM BKN065 OVC080 03/01 A2977 RMK AO2 RAB36E49 SLP045 P0000 T00330006 $,M
INS,2022-04-22 09:57,-115.6733,36.5872,955.00,55.40,32.00,40.84,220.00,16.00,0.00,29.69,1001.60,10.00,27.00,SCT,M,M,M,13000.00,M,M,M,M,M,M,M,M,M,M,55.40,KINS 220957Z AUTO 22016G27KT 10SM SCT130 13/M00 A2969 RMK AO2 WSHFT 42 SLP016 $,M
INS,2022-04-22 09:58,-115.6733,36.5872,955.00,55.00,31.10,39.96,220.00,15.00,0.00,29.69,1001.60,10.00,24.00,SCT,M,M,M,13000.00,M,M,M,M,M,M,M,36.00,290.00,2022-04-22 09:35,55.00,KINS 220958Z AUTO 22015G24KT 10SM SCT130 13/M00 A2969 RMK AO2 PK WND 29036/35 SLP016 T01281005 $,M
LSV,2022-04-22 09:58,-115.0343,36.2362,570.00,64.80,34.20,31.92,230.00,12.00,0.00,29.72,1004.50,10.00,M,CLR,M,M,M,M,M,M,M,M,M,M,M,M,M,M,64.80,KLSV 220958Z AUTO 23012KT 10SM CLR 18/01 A2972 RMK AO2 SLP045 T01820012 $,M
NFL,2022-04-22 10:06,-118.7010,39.4166,1199.00,37.00,34.00,88.78,70.00,8.00,T,29.84,M,10.00,M,OVC,M,M,M,3500.00,M,M,M,M,M,M,M,M,M,M,30.27,KNFL 221006Z AUTO 07008KT 10SM OVC035 03/01 A2984 RMK AO2 UPE0959 P0000 T00280011,M
INS,2022-04-22 10:06,-115.6733,36.5872,955.00,55.40,30.20,37.97,190.00,12.00,0.00,29.68,1001.20,10.00,24.00,BKN,M,M,M,14000.00,M,M,M,M,M,M,M,M,M,M,55.40,KINS 221006Z AUTO 19012G24KT 10SM BKN140 13/M01 A2968 RMK AO2 WSHFT 00 SLP012 $,M
05U,2022-04-22 10:10,-116.0051,39.6042,1811.23,33.80,33.80,100.00,0.00,0.00,0.00,29.78,M,2.00,M,OVC,M,M,M,200.00,M,M,M,BR,M,M,M,M,M,M,33.80,K05U 221010Z AUTO 00000KT 2SM BR OVC002 01/01 A2978 RMK A01,M
CXP,2022-04-22 10:10,-119.7326,39.1923,1431.00,37.40,28.40,69.67,220.00,6.00,0.00,29.87,M,10.00,M,FEW,SCT,OVC,M,4000.00,6000.00,7500.00,M,M,M,M,M,M,M,M,32.03,KCXP 221010Z AUTO 22006KT 10SM FEW040 SCT060 OVC075 03/M02 A2987 RMK AO2,M
LOL,2022-04-22 10:13,-118.5701,40.0684,1192.43,39.00,35.00,85.76,290.00,3.00,T,29.84,M,10.00,M,BKN,OVC,M,M,2500.00,4800.00,M,M,-RA,M,M,M,M,M,M,36.69,KLOL 221013Z AUTO 29003KT 10SM -RA BKN025 OVC048 04/02 A2984 RMK AO2 P0000 T00390017,M
RTS,2022-04-22 10:15,-119.8764,39.6682,1539.00,33.80,28.40,80.36,290.00,4.00,0.00,29.87,M,10.00,M,BKN,M,M,M,9500.00,M,M,M,M,M,M,M,M,M,M,29.52,KRTS 221015Z AUTO 29004KT 10SM BKN095 01/M02 A2987 RMK AO2,M
TMT,2022-04-22 10:15,-117.1971,39.4643,1749.34,32.00,32.00,100.00,190.00,4.00,0.00,29.80,M,4.00,M,OVC,M,M,M,2000.00,M,M,M,-SN,M,M,M,M,M,M,27.42,KTMT 221015Z AUTO 19004KT 4SM -SN OVC020 00/00 A2980 RMK AO2 T00000000,M
HTH,2022-04-22 10:15,-118.6315,38.5448,1282.89,39.20,35.60,86.79,360.00,12.00,0.00,29.84,M,6.00,M,BKN,OVC,M,M,1500.00,2200.00,M,M,BR,M,M,M,M,M,M,31.17,KHTH 221015Z AUTO 36012KT 6SM BR BKN015 OVC022 04/02 A2984 RMK A01,M
MEV,2022-04-22 10:15,-119.7500,38.9963,1441.42,33.80,32.00,93.03,250.00,4.00,0.00,29.86,M,10.00,M,FEW,SCT,BKN,M,2300.00,2900.00,7000.00,M,M,M,M,M,M,M,M,29.52,KMEV 221015Z AUTO 25004KT 10SM FEW023 SCT029 BKN070 01/M00 A2986 RMK AO2,M
BAM,2022-04-22 10:15,-116.8743,40.5990,1382.36,37.40,37.40,100.00,0.00,0.00,0.00,29.80,M,10.00,M,SCT,OVC,M,M,2500.00,3900.00,M,M,M,M,M,M,M,M,M,37.40,KBAM 221015Z AUTO 00000KT 10SM SCT025 OVC039 03/03 A2980 RMK AO1,M
BVU,2022-04-22 10:15,-114.8611,35.9475,671.00,60.80,28.40,29.06,250.00,16.00,0.00,29.74,M,10.00,23.00,SCT,BKN,M,M,9000.00,12000.00,M,M,M,M,M,M,M,M,M,60.80,KBVU 221015Z AUTO 25016G23KT 10SM SCT090 BKN120 16/M02 A2974 RMK AO2,M
LOL,2022-04-22 10:24,-118.5701,40.0684,1192.43,39.00,35.00,85.76,290.00,3.00,T,29.84,M,10.00,M,SCT,OVC,M,M,2500.00,4600.00,M,M,-RA,M,M,M,M,M,M,36.69,KLOL 221024Z AUTO 29003KT 10SM -RA SCT025 OVC046 04/02 A2984 RMK AO2 P0000 T00390017,M
05U,2022-04-22 10:30,-116.0051,39.6042,1811.23,33.80,33.80,100.00,0.00,0.00,0.00,29.78,M,1.75,M,BKN,BKN,OVC,M,200.00,600.00,1500.00,M,BR,M,M,M,M,M,M,33.80,K05U 221030Z AUTO 00000KT 1 3/4SM BR BKN002 BKN006 OVC015 01/01 A2978 RMK A01,M
MEV,2022-04-22 10:35,-119.7500,38.9963,1441.42,33.80,30.20,86.49,0.00,0.00,0.00,29.86,M,10.00,M,SCT,BKN,OVC,M,4900.00,6500.00,7500.00,M,M,M,M,M,M,M,M,33.80,KMEV 221035Z AUTO 00000KT 10SM SCT049 BKN065 OVC075 01/M01 A2986 RMK AO2,M
BVU,2022-04-22 10:35,-114.8611,35.9475,671.00,60.80,30.20,31.28,240.00,17.00,0.00,29.74,M,10.00,22.00,SCT,BKN,OVC,M,7500.00,9000.00,11000.00,M,M,M,M,M,M,M,M,60.80,KBVU 221035Z AUTO 24017G22KT 10SM SCT075 BKN090 OVC110 16/M01 A2974 RMK AO2,M
CXP,2022-04-22 10:35,-119.7326,39.1923,1431.00,35.60,28.40,74.80,210.00,4.00,0.00,29.87,M,10.00,M,FEW,BKN,OVC,M,3300.00,6500.00,11000.00,M,M,M,M,M,M,M,M,31.62,KCXP 221035Z AUTO 21004KT 10SM FEW033 BKN065 OVC110 02/M02 A2987 RMK AO2,M
HTH,2022-04-22 10:35,-118.6315,38.5448,1282.89,39.20,35.60,86.79,360.00,8.00,0.00,29.84,M,8.00,M,FEW,BKN,OVC,M,1600.00,2300.00,2800.00,M,M,M,M,M,M,M,M,32.98,KHTH 221035Z AUTO 36008KT 8SM FEW016 BKN023 OVC028 04/02 A2984 RMK A01,M
RTS,2022-04-22 10:35,-119.8764,39.6682,1539.00,32.00,28.40,86.39,320.00,5.00,0.00,29.87,M,10.00,M,FEW,BKN,M,M,2200.00,9000.00,M,M,M,M,M,M,M,M,M,26.40,KRTS 221035Z AUTO 32005KT 10SM FEW022 BKN090 00/M02 A2987 RMK AO2,M
BAM,2022-04-22 10:35,-116.8743,40.5990,1382.36,37.40,37.40,100.00,0.00,0.00,0.00,29.80,M,10.00,M,SCT,BKN,OVC,M,2500.00,4100.00,4800.00,M,M,M,M,M,M,M,M,37.40,KBAM 221035Z AUTO 00000KT 10SM SCT025 BKN041 OVC048 03/03 A2980 RMK AO1,M
TMT,2022-04-22 10:35,-117.1971,39.4643,1749.34,32.00,32.00,100.00,180.00,4.00,0.00,29.81,M,4.00,M,SCT,BKN,OVC,M,800.00,1600.00,2300.00,M,-SN,M,M,M,M,M,M,27.42,KTMT 221035Z AUTO 18004KT 4SM -SN SCT008 BKN016 OVC023 00/00 A2981 RMK AO2 T00000000,M
05U,2022-04-22 10:50,-116.0051,39.6042,1811.23,32.00,32.00,100.00,0.00,0.00,0.00,29.77,M,4.00,M,SCT,BKN,OVC,M,200.00,1400.00,2900.00,M,BR,M,M,M,M,M,M,32.00,K05U 221050Z AUTO 00000KT 4SM BR SCT002 BKN014 OVC029 00/00 A2977 RMK A01,M
ELY,2022-04-22 10:51,-114.8453,39.2950,1909.00,33.80,33.80,100.00,250.00,5.00,0.00,29.72,M,10.00,M,FEW,BKN,OVC,M,900.00,2500.00,4100.00,M,M,M,M,M,M,M,M,28.53,KELY 221051Z AUTO 25005KT 10SM FEW009 BKN025 OVC041 01/01 A2972,M
VGT,2022-04-22 10:53,-115.1933,36.2111,667.00,59.00,36.00,42.08,210.00,20.00,0.00,29.70,1005.60,10.00,26.00,CLR,M,M,M,M,M,M,M,M,M,M,M,34.00,200.00,2022-04-22 10:19,59.00,KVGT 221053Z AUTO 21020G26KT 10SM CLR 15/02 A2970 RMK AO2 PK WND 20034/1019 SLP056 T01500022,M
EKO,2022-04-22 10:53,-115.7860,40.8242,1367.00,35.60,33.80,93.08,0.00,0.00,T,29.78,M,10.00,M,BKN,OVC,M,M,700.00,6500.00,M,M,M,M,M,M,M,M,M,35.60,KEKO 221053Z AUTO 00000KT 10SM BKN007 OVC065 02/01 A2978 RMK AO2 UPE0957 P0000,M
P68,2022-04-22 10:53,-116.0056,39.6014,1993.00,33.00,30.90,91.51,10.00,3.00,0.03,29.75,1004.10,M,M,M,M,M,M,M,M,M,M,M,M,M,M,M,M,M,29.95,KP68 221053Z AUTO 01003KT 01/M01 A2975 RMK AO1 SLP041 P0003 T00061006 $,M
LOL,2022-04-22 10:53,-118.5701,40.0684,1192.43,39.00,36.00,88.87,130.00,3.00,0.01,29.83,1010.10,10.00,M,OVC,M,M,M,6000.00,M,M,M,M,M,M,M,M,M,M,36.69,KLOL 221053Z AUTO 13003KT 10SM OVC060 04/02 A2983 RMK AO2 RAE40 SLP101 P0001 T00390022,M
DRA,2022-04-22 10:53,-116.0278,36.6206,1009.00,52.00,36.00,54.26,210.00,22.00,0.00,29.70,1002.30,10.00,33.00,CLR,M,M,M,M,M,M,M,M,M,M,M,39.00,230.00,2022-04-22 10:31,52.00,KDRA 221053Z AUTO 21022G33KT 10SM CLR 11/02 A2970 RMK AO2 PK WND 23039/1031 SLP023 T01110022,M
ELY,2022-04-22 10:53,-114.8453,39.2950,1909.00,34.00,33.00,96.46,290.00,4.00,0.00,29.72,1001.20,10.00,M,FEW,BKN,OVC,M,900.00,1500.00,4300.00,M,M,M,M,M,M,M,M,29.76,KELY 221053Z AUTO 29004KT 10SM FEW009 BKN015 OVC043 01/01 A2972 RMK AO2 SLP012 T00110006,M
MEV,2022-04-22 10:55,-119.7500,38.9963,1441.42,32.00,30.20,92.97,0.00,0.00,0.00,29.87,M,10.00,M,SCT,BKN,BKN,M,4800.00,5500.00,7000.00,M,M,M,M,M,M,M,M,32.00,KMEV 221055Z AUTO 00000KT 10SM SCT048 BKN055 BKN070 00/M01 A2987 RMK AO2,M
TMT,2022-04-22 10:55,-117.1971,39.4643,1749.34,32.00,32.00,100.00,0.00,0.00,0.00,29.81,M,4.00,M,BKN,OVC,M,M,800.00,1500.00,M,M,-SN,M,M,M,M,M,M,32.00,KTMT 221055Z AUTO 00000KT 4SM -SN BKN008 OVC015 00/00 A2981 RMK AO2 T00000000,M
HTH,2022-04-22 10:55,-118.6315,38.5448,1282.89,39.20,33.80,80.79,10.00,11.00,0.03,29.85,M,8.00,17.00,FEW,BKN,OVC,M,1300.00,2600.00,3300.00,M,M,M,M,M,M,M,M,31.57,KHTH 221055Z AUTO 01011G17KT 8SM FEW013 BKN026 OVC033 04/01 A2985 RMK A01 P0003,M
BAM,2022-04-22 10:55,-116.8743,40.5990,1382.36,35.60,35.60,100.00,320.00,4.00,0.00,29.81,M,10.00,M,SCT,SCT,OVC,M,2700.00,4800.00,10000.00,M,M,M,M,M,M,M,M,31.62,KBAM 221055Z AUTO 32004KT 10SM SCT027 SCT048 OVC100 02/02 A2981 RMK AO1,M
BVU,2022-04-22 10:55,-114.8611,35.9475,671.00,59.00,32.00,35.87,240.00,16.00,0.00,29.74,M,10.00,25.00,SCT,OVC,M,M,7500.00,10000.00,M,M,M,M,M,M,M,M,M,59.00,KBVU 221055Z AUTO 24016G25KT 10SM SCT075 OVC100 15/00 A2974 RMK AO2,M
RTS,2022-04-22 10:55,-119.8764,39.6682,1539.00,32.00,28.40,86.39,300.00,6.00,0.00,29.87,M,10.00,M,SCT,BKN,OVC,M,2300.00,3200.00,9500.00,M,M,M,M,M,M,M,M,25.53,KRTS 221055Z AUTO 30006KT 10SM SCT023 BKN032 OVC095 00/M02 A2987 RMK AO2,M
RNO,2022-04-22 10:55,-119.7711,39.4839,1341.00,39.00,26.10,59.52,290.00,6.00,0.00,29.87,1010.20,10.00,M,SCT,OVC,M,M,3500.00,10000.00,M,M,M,M,M,M,M,M,M,33.96,KRNO 221055Z 29006KT 10SM SCT035 OVC100 04/M03 A2987 RMK AO2 SLP102 T00391033,M
CXP,2022-04-22 10:55,-119.7326,39.1923,1431.00,35.60,28.40,74.80,240.00,3.00,0.00,29.87,M,10.00,M,SCT,BKN,OVC,M,6500.00,10000.00,12000.00,M,M,M,M,M,M,M,M,32.80,KCXP 221055Z AUTO 24003KT 10SM SCT065 BKN100 OVC120 02/M02 A2987 RMK AO2,M
NFL,2022-04-22 10:56,-118.7010,39.4166,1199.00,38.00,35.00,89.53,0.00,0.00,T,29.86,1008.60,10.00,M,BKN,OVC,M,M,5500.00,7000.00,M,M,M,M,M,M,M,M,M,37.90,KNFL 221056Z AUTO 00000KT 10SM BKN055 OVC070 03/02 A2986 RMK AO2 UPE0959 SLP086 P0000 T00330017,M
WMC,2022-04-22 10:56,-117.8072,40.9019,1315.00,38.00,30.90,75.64,290.00,6.00,0.00,29.81,1009.00,10.00,M,OVC,M,M,M,9500.00,M,M,M,M,M,M,M,M,M,M,32.64,KWMC 221056Z AUTO 29006KT 10SM OVC095 03/M01 A2981 RMK AO2 SLP090 T00331006,M
HND,2022-04-22 10:56,-115.1344,35.9729,742.79,55.00,36.00,48.62,230.00,22.00,0.00,29.75,1007.30,10.00,30.00,CLR,M,M,M,M,M,M,M,M,M,M,M,30.00,230.00,2022-04-22 10:55,55.00,KHND 221056Z AUTO 23022G30KT 10SM CLR 13/02 A2975 RMK AO2 PK WND 23030/1055 SLP073 T01280022,M
TPH,2022-04-22 10:56,-117.0904,38.0505,1654.00,39.00,30.90,72.45,330.00,15.00,0.00,29.77,1004.10,10.00,M,SCT,OVC,M,M,7000.00,8500.00,M,M,M,M,M,M,M,M,M,29.85,KTPH 221056Z AUTO 33015KT 10SM SCT070 OVC085 04/M01 A2977 RMK AO2 SLP041 T00391006 $,M
LAS,2022-04-22 10:56,-115.1634,36.0719,663.00,57.00,35.00,43.63,220.00,16.00,0.00,29.74,1005.10,10.00,33.00,BKN,BKN,M,M,10000.00,14000.00,M,M,M,M,M,M,35.00,220.00,2022-04-22 10:46,57.00,KLAS 221056Z 22016G33KT 10SM BKN100 BKN140 14/02 A2974 RMK AO2 PK WND 22035/1046 SLP051 T01390017 $,M
EKO,2022-04-22 10:56,-115.7860,40.8242,1367.00,36.00,33.00,89.09,30.00,3.00,T,29.78,1007.50,10.00,M,BKN,OVC,M,M,700.00,6500.00,M,M,M,M,M,M,M,M,M,33.26,KEKO 221056Z AUTO 03003KT 10SM BKN007 OVC065 02/01 A2978 RMK AO2 UPE0957 SLP075 P0000 T00220006,M
LSV,2022-04-22 10:58,-115.0343,36.2362,570.00,62.60,35.20,35.88,210.00,17.00,0.00,29.70,1003.90,10.00,27.00,FEW,SCT,M,M,12000.00,20000.00,M,M,M,M,M,M,30.00,210.00,2022-04-22 10:40,62.60,KLSV 221058Z AUTO 21017G27KT 10SM FEW120 SCT200 17/02 A2970 RMK AO2 PK WND 21030/40 SLP039 T01700018 $,M
INS,2022-04-22 10:58,-115.6733,36.5872,955.00,56.00,28.00,33.83,230.00,19.00,0.00,29.67,1001.10,10.00,31.00,FEW,M,M,M,14000.00,M,M,M,M,M,M,M,34.00,220.00,2022-04-22 10:53,56.10,KINS 221058Z AUTO 23019G31KT 10SM FEW140 13/M02 A2967 RMK AO2 PK WND 22034/53 SLP011 T01341022 $,M
ELY,2022-04-22 11:07,-114.8453,39.2950,1909.00,34.00,33.00,96.46,M,3.00,0.00,29.72,M,10.00,M,BKN,OVC,M,M,1100.00,2400.00,M,M,M,M,M,M,M,M,M,30.97,KELY 221107Z AUTO VRB03KT 10SM BKN011 OVC024 01/01 A2972 RMK AO2 T00110006,M
05U,2022-04-22 11:10,-116.0051,39.6042,1811.23,32.00,32.00,100.00,0.00,0.00,0.00,29.78,M,1.25,M,OVC,M,M,M,200.00,M,M,M,BR,M,M,M,M,M,M,32.00,K05U 221110Z AUTO 00000KT 1 1/4SM BR OVC002 00/00 A2978 RMK A01,M
BAM,2022-04-22 11:15,-116.8743,40.5990,1382.36,35.60,35.60,100.00,320.00,4.00,0.00,29.81,M,10.00,M,SCT,SCT,BKN,M,2700.00,9000.00,12000.00,M,M,M,M,M,M,M,M,31.62,KBAM 221115Z AUTO 32004KT 10SM SCT027 SCT090 BKN120 02/02 A2981 RMK AO1,M
BVU,2022-04-22 11:15,-114.8611,35.9475,671.00,57.20,33.80,41.13,240.00,20.00,0.00,29.74,M,10.00,M,OVC,M,M,M,11000.00,M,M,M,M,M,M,M,M,M,M,57.20,KBVU 221115Z AUTO 24020KT 10SM OVC110 14/01 A2974 RMK AO2,M
CXP,2022-04-22 11:15,-119.7326,39.1923,1431.00,35.60,28.40,74.80,270.00,4.00,0.00,29.88,M,10.00,M,BKN,M,M,M,12000.00,M,M,M,M,M,M,M,M,M,M,31.62,KCXP 221115Z AUTO 27004KT 10SM BKN120 02/M02 A2988 RMK AO2,M
RTS,2022-04-22 11:15,-119.8764,39.6682,1539.00,33.80,28.40,80.36,290.00,5.00,0.00,29.88,M,10.00,M,BKN,BKN,OVC,M,2500.00,3000.00,3700.00,M,M,M,M,M,M,M,M,28.53,KRTS 221115Z AUTO 29005KT 10SM BKN025 BKN030 OVC037 01/M02 A2988 RMK AO2,M
MEV,2022-04-22 11:15,-119.7500,38.9963,1441.42,33.80,32.00,93.03,0.00,0.00,0.00,29.87,M,10.00,M,FEW,SCT,BKN,M,3800.00,4400.00,5500.00,M,M,M,M,M,M,M,M,33.80,KMEV 221115Z AUTO 00000KT 10SM FEW038 SCT044 BKN055 01/M00 A2987 RMK AO2,M
HTH,2022-04-22 11:15,-118.6315,38.5448,1282.89,41.00,33.80,75.33,360.00,7.00,0.00,29.85,M,10.00,M,FEW,SCT,OVC,M,1300.00,1900.00,2600.00,M,M,M,M,M,M,M,M,35.75,KHTH 221115Z AUTO 36007KT 10SM FEW013 SCT019 OVC026 05/01 A2985 RMK A01,M
ELY,2022-04-22 11:15,-114.8453,39.2950,1909.00,34.00,32.00,92.29,50.00,7.00,0.00,29.72,M,10.00,M,BKN,OVC,M,M,900.00,1500.00,M,M,M,M,M,M,M,M,M,27.22,KELY 221115Z AUTO 05007KT 030V090 10SM BKN009 OVC015 01/00 A2972 RMK AO2 CIG 007V011 T00110000,M
TMT,2022-04-22 11:15,-117.1971,39.4643,1749.34,32.00,32.00,100.00,0.00,0.00,0.01,29.81,M,1.50,M,BKN,OVC,M,M,400.00,1000.00,M,M,-SN,M,M,M,M,M,M,32.00,KTMT 221115Z AUTO 00000KT 1 1/2SM -SN BKN004 OVC010 00/00 A2981 RMK AO2 P0001 T00000000,M
ELY,2022-04-22 11:27,-114.8453,39.2950,1909.00,33.00,30.90,91.51,10.00,16.00,T,29.72,M,3.00,23.00,OVC,M,M,M,1100.00,M,M,M,-SN BR,M,M,M,M,M,M,21.85,KELY 221127Z AUTO 01016G23KT 3SM -SN BR OVC011 01/M01 A2972 RMK AO2 SNB19 P0000 T00061006,M
ELY,2022-04-22 11:30,-114.8453,39.2950,1909.00,32.00,32.00,100.00,10.00,15.00,T,29.72,M,1.75,23.00,OVC,M,M,M,1100.00,M,M,M,-SN BR,M,M,M,M,M,M,20.78,KELY 221130Z AUTO 01015G23KT 1 3/4SM -SN BR OVC011 00/00 A2972 RMK AO2 SNB19 P0000 T00000000,M
CXP,2022-04-22 11:35,-119.7326,39.1923,1431.00,33.80,28.40,80.36,0.00,0.00,0.00,29.88,M,10.00,M,SCT,M,M,M,12000.00,M,M,M,M,M,M,M,M,M,M,33.80,KCXP 221135Z AUTO 00000KT 10SM SCT120 01/M02 A2988 RMK AO2,M
RTS,2022-04-22 11:35,-119.8764,39.6682,1539.00,32.00,28.40,86.39,300.00,6.00,0.00,29.88,M,10.00,M,BKN,OVC,M,M,2600.00,3300.00,M,M,M,M,M,M,M,M,M,25.53,KRTS 221135Z AUTO 30006KT 10SM BKN026 OVC033 00/M02 A2988 RMK AO2,M
05U,2022-04-22 11:35,-116.0051,39.6042,1811.23,32.00,32.00,100.00,0.00,0.00,0.00,29.78,M,1.00,M,M,M,M,M,M,M,M,M,BR,M,M,M,M,M,M,32.00,K05U 221135Z AUTO 00000KT 1SM BR 00/00 A2978 RMK A01,M
MEV,2022-04-22 11:35,-119.7500,38.9963,1441.42,28.40,28.40,100.00,120.00,3.00,0.00,29.87,M,10.00,M,BKN,OVC,M,M,3500.00,4400.00,M,M,M,M,M,M,M,M,M,24.57,KMEV 221135Z AUTO 12003KT 10SM BKN035 OVC044 M02/M02 A2987 RMK AO2,M
BAM,2022-04-22 11:35,-116.8743,40.5990,1382.36,35.60,35.60,100.00,0.00,0.00,0.00,29.82,M,10.00,M,SCT,BKN,OVC,M,400.00,3200.00,11000.00,M,M,M,M,M,M,M,M,35.60,KBAM 221135Z AUTO 00000KT 10SM SCT004 BKN032 OVC110 02/02 A2982 RMK AO1,M
HTH,2022-04-22 11:35,-118.6315,38.5448,1282.89,41.00,33.80,75.33,360.00,12.00,0.00,29.85,M,10.00,M,BKN,BKN,OVC,M,2800.00,3800.00,5000.00,M,M,M,M,M,M,M,M,33.46,KHTH 221135Z AUTO 36012KT 10SM BKN028 BKN038 OVC050 05/01 A2985 RMK A01,M
TMT,2022-04-22 11:35,-117.1971,39.4643,1749.34,32.00,32.00,100.00,330.00,3.00,0.04,29.81,M,1.00,M,OVC,M,M,M,400.00,M,M,M,SN,M,M,M,M,M,M,28.69,KTMT 221135Z AUTO 33003KT 1SM SN OVC004 00/00 A2981 RMK AO2 P0004 T00000000,M
BVU,2022-04-22 11:35,-114.8611,35.9475,671.00,57.20,33.80,41.13,230.00,19.00,0.00,29.75,M,10.00,M,OVC,M,M,M,12000.00,M,M,M,M,M,M,M,M,M,M,57.20,KBVU 221135Z AUTO 23019KT 10SM OVC120 14/01 A2975 RMK AO2,M
ELY,2022-04-22 11:37,-114.8453,39.2950,1909.00,32.00,32.00,100.00,20.00,14.00,0.01,29.71,M,0.75,22.00,BKN,OVC,M,M,900.00,1300.00,M,M,-SN BR,M,M,M,M,M,M,21.16,KELY 221137Z AUTO 02014G22KT 3/4SM -SN BR BKN009 OVC013 00/00 A2971 RMK AO2 SNB19 P0001 T00000000,M
05U,2022-04-22 11:50,-116.0051,39.6042,1811.23,32.00,32.00,100.00,0.00,0.00,0.00,29.78,M,0.75,M,M,M,M,M,M,M,M,M,BR,M,M,M,M,M,M,32.00,K05U 221150Z AUTO 00000KT 3/4SM BR 00/00 A2978 RMK A01,M
CXP,2022-04-22 11:50,-119.7326,39.1923,1431.00,35.60,28.40,74.80,0.00,0.00,0.00,29.88,M,10.00,M,SCT,M,M,M,12000.00,M,M,M,M,M,M,M,M,M,M,35.60,KCXP 221150Z AUTO 00000KT 10SM SCT120 02/M02 A2988 RMK AO2,M
P68,2022-04-22 11:53,-116.0056,39.6014,1993.00,33.00,30.90,91.51,340.00,6.00,0.02,29.76,1004.50,M,M,M,M,M,M,M,M,M,M,M,M,M,M,M,M,M,26.86,KP68 221153Z AUTO 34006KT 01/M01 A2976 RMK AO1 SLP045 P0002 60019 70038 T00061006 10006 20006,M
ELY,2022-04-22 11:53,-114.8453,39.2950,1909.00,32.00,32.00,100.00,30.00,15.00,0.06,29.72,1001.60,0.75,20.00,BKN,OVC,M,M,800.00,1300.00,M,M,-SN BR,M,M,M,M,M,M,20.78,KELY 221153Z AUTO 03015G20KT 3/4SM -SN BR BKN008 OVC013 00/00 A2972 RMK AO2 SNB19 SLP016 P0006 60007 70007 T00000000 10050 20000 50001,M
VGT,2022-04-22 11:53,-115.1933,36.2111,667.00,57.00,36.00,45.22,220.00,18.00,0.00,29.70,1005.70,10.00,M,CLR,M,M,M,M,M,M,M,M,M,M,M,29.00,240.00,2022-04-22 11:34,57.00,KVGT 221153Z AUTO 22018KT 10SM CLR 14/02 A2970 RMK AO2 PK WND 24029/1134 SLP057 T01390022 10211 20139 58005,M
LOL,2022-04-22 11:53,-118.5701,40.0684,1192.43,38.00,37.00,96.52,140.00,4.00,0.00,29.85,1010.60,10.00,M,OVC,M,M,M,4400.00,M,M,M,M,M,M,M,M,M,M,34.31,KLOL 221153Z AUTO 14004KT 10SM OVC044 03/03 A2985 RMK AO2 SLP106 60005 70007 T00330028 10050 20033 53004,M
DRA,2022-04-22 11:53,-116.0278,36.6206,1009.00,51.00,33.00,49.98,210.00,19.00,0.00,29.69,1002.10,10.00,28.00,CLR,M,M,M,M,M,M,M,M,M,M,M,33.00,210.00,2022-04-22 11:24,51.10,KDRA 221153Z AUTO 21019G28KT 10SM CLR 11/01 A2969 RMK AO2 PK WND 21033/1124 SLP021 T01060006 10150 20106 56015,M
RNO,2022-04-22 11:55,-119.7711,39.4839,1341.00,39.00,26.10,59.52,300.00,10.00,0.00,29.87,1010.50,10.00,M,SCT,BKN,M,M,4500.00,10000.00,M,M,M,M,M,M,M,M,M,31.75,KRNO 221155Z 30010KT 10SM SCT045 BKN100 04/M03 A2987 RMK AO2 SLP105 60000 70017 T00391033 10056 20039 53005,M
RTS,2022-04-22 11:55,-119.8764,39.6682,1539.00,32.00,28.40,86.39,300.00,8.00,0.00,29.88,M,10.00,M,BKN,BKN,BKN,M,2500.00,3000.00,11000.00,M,M,M,M,M,M,M,M,24.11,KRTS 221155Z AUTO 30008KT 10SM BKN025 BKN030 BKN110 00/M02 A2988 RMK AO2,M
BVU,2022-04-22 11:55,-114.8611,35.9475,671.00,55.40,35.60,47.16,230.00,20.00,0.00,29.75,M,10.00,28.00,OVC,M,M,M,11000.00,M,M,M,M,M,M,M,M,M,M,55.40,KBVU 221155Z AUTO 23020G28KT 10SM OVC110 13/02 A2975 RMK AO2,M
MEV,2022-04-22 11:55,-119.7500,38.9963,1441.42,30.20,28.40,92.92,100.00,3.00,0.00,29.88,M,10.00,M,SCT,BKN,OVC,M,3300.00,4900.00,5500.00,M,M,M,M,M,M,M,M,26.63,KMEV 221155Z AUTO 10003KT 10SM SCT033 BKN049 OVC055 M01/M02 A2988 RMK AO2,M
BAM,2022-04-22 11:55,-116.8743,40.5990,1382.36,35.60,35.60,100.00,320.00,3.00,0.00,29.81,M,10.00,M,SCT,BKN,OVC,M,400.00,3200.00,6000.00,M,M,M,M,M,M,M,M,32.80,KBAM 221155Z AUTO 32003KT 10SM SCT004 BKN032 OVC060 02/02 A2981 RMK AO1,M
HTH,2022-04-22 11:55,-118.6315,38.5448,1282.89,41.00,32.00,70.08,M,5.00,0.00,29.86,M,10.00,M,FEW,SCT,BKN,M,3000.00,3900.00,5500.00,M,M,M,M,M,M,M,M,37.08,KHTH 221155Z AUTO VRB05KT 10SM FEW030 SCT039 BKN055 05/00 A2986 RMK A01,M
TMT,2022-04-22 11:55,-117.1971,39.4643,1749.34,32.00,32.00,100.00,0.00,0.00,0.08,29.81,M,1.00,M,BKN,OVC,M,M,400.00,900.00,M,M,SN,M,M,M,M,M,M,32.00,KTMT 221155Z AUTO 00000KT 1SM SN BKN004 OVC009 00/00 A2981 RMK AO2 P0008 60015 70020 T00000000 10030 20000,M
EKO,2022-04-22 11:56,-115.7860,40.8242,1367.00,35.00,33.00,92.32,230.00,4.00,0.00,29.78,1007.50,10.00,M,BKN,OVC,M,M,700.00,1300.00,M,M,M,M,M,M,M,M,M,31.04,KEKO 221156Z AUTO 23004KT 10SM BKN007 OVC013 02/01 A2978 RMK AO2 SLP075 60012 70016 T00170006 10028 20011 58002,M
HND,2022-04-22 11:56,-115.1344,35.9729,742.79,52.00,40.00,63.24,210.00,24.00,0.00,29.74,1007.30,10.00,36.00,OVC,M,M,M,10000.00,M,M,M,M,M,M,M,36.00,210.00,2022-04-22 11:47,52.00,KHND 221156Z AUTO 21024G36KT 10SM OVC100 11/04 A2974 RMK AO2 PK WND 21036/1147 SLP073 T01110044 10183 20111 58006,M
TPH,2022-04-22 11:56,-117.0904,38.0505,1654.00,38.00,30.90,75.64,360.00,10.00,0.00,29.76,1004.30,10.00,M,BKN,BKN,M,M,1900.00,7500.00,M,M,M,M,M,M,M,M,M,30.37,KTPH 221156Z AUTO 36010KT 10SM BKN019 BKN075 03/M01 A2976 RMK AO2 SLP043 60000 T00331006 10089 20033 57005 $,M
WMC,2022-04-22 11:56,-117.8072,40.9019,1315.00,37.00,30.00,75.56,240.00,5.00,0.00,29.81,1008.80,10.00,M,FEW,M,M,M,12000.00,M,M,M,M,M,M,M,M,M,M,32.33,KWMC 221156Z AUTO 24005KT 10SM FEW120 03/M01 A2981 RMK AO2 SLP088 70013 T00281011 10039 20011 50000,M
NFL,2022-04-22 11:56,-118.7010,39.4166,1199.00,38.00,35.00,89.53,100.00,4.00,0.00,29.86,1008.80,10.00,M,BKN,OVC,M,M,6500.00,9500.00,M,M,M,M,M,M,M,M,M,34.31,KNFL 221156Z AUTO 10004KT 10SM BKN065 OVC095 03/02 A2986 RMK AO2 SLP088 60001 70001 T00330017 10061 20022 53004,M
LAS,2022-04-22 11:56,-115.1634,36.0719,663.00,54.00,38.00,54.34,220.00,16.00,0.00,29.73,1005.00,10.00,36.00,FEW,BKN,M,M,9500.00,12000.00,M,M,M,M,M,M,36.00,230.00,2022-04-22 11:53,54.00,KLAS 221156Z 22016G36KT 10SM FEW095 BKN120 12/03 A2973 RMK AO2 PK WND 23036/1153 SLP050 VIRGA S T01220033 10200 20122 58001 $,M
INS,2022-04-22 11:58,-115.6733,36.5872,955.00,55.00,27.90,35.07,210.00,20.00,0.00,29.65,1000.40,10.00,35.00,FEW,FEW,M,M,14000.00,18000.00,M,M,M,M,M,M,39.00,210.00,2022-04-22 11:46,55.00,KINS 221158Z AUTO 21020G35KT 10SM FEW140 FEW180 13/M02 A2965 RMK AO2 PK WND 21039/46 SLP004 60027 70027 T01281023 10186 20128 58006 $,M
LSV,2022-04-22 11:58,-115.0343,36.2362,570.00,60.00,37.00,41.93,210.00,24.00,0.00,29.70,1003.90,10.00,28.00,BKN,M,M,M,11000.00,M,M,M,M,M,M,M,M,M,M,60.10,KLSV 221158Z AUTO 21024G28KT 10SM BKN110 16/03 A2970 RMK AO2 SLP039 T01560027 10212 20156 58001 $,M
ELY,2022-04-22 12:10,-114.8453,39.2950,1909.00,32.00,32.00,100.00,M,5.00,0.02,29.72,M,1.00,M,VV ,M,M,M,800.00,M,M,M,-SN BR,M,M,M,M,M,M,26.40,KELY 221210Z AUTO VRB05KT 1SM -SN BR VV008 00/00 A2972 RMK AO2 P0002 T00000000,M
05U,2022-04-22 12:10,-116.0051,39.6042,1811.23,32.00,32.00,100.00,0.00,0.00,0.00,29.78,M,0.75,M,M,M,M,M,M,M,M,M,BR,M,M,M,M,M,M,32.00,K05U 221210Z AUTO 00000KT 3/4SM BR 00/00 A2978 RMK A01,M
TMT,2022-04-22 12:15,-117.1971,39.4643,1749.34,32.00,32.00,100.00,0.00,0.00,0.02,29.81,M,1.00,M,OVC,M,M,M,600.00,M,M,M,SN,M,M,M,M,M,M,32.00,KTMT 221215Z AUTO 00000KT 1SM SN OVC006 00/00 A2981 RMK AO2 P0002 T00000000,M
BAM,2022-04-22 12:15,-116.8743,40.5990,1382.36,35.60,35.60,100.00,310.00,3.00,0.00,29.82,M,10.00,M,SCT,OVC,M,M,4200.00,5000.00,M,M,M,M,M,M,M,M,M,32.80,KBAM 221215Z AUTO 31003KT 10SM SCT042 OVC050 02/02 A2982 RMK AO1,M
HTH,2022-04-22 12:15,-118.6315,38.5448,1282.89,41.00,32.00,70.08,M,4.00,0.00,29.86,M,10.00,M,FEW,BKN,OVC,M,3400.00,4000.00,7500.00,M,M,M,M,M,M,M,M,37.93,KHTH 221215Z AUTO VRB04KT 10SM FEW034 BKN040 OVC075 05/00 A2986 RMK A01,M
MEV,2022-04-22 12:15,-119.7500,38.9963,1441.42,30.20,28.40,92.92,170.00,5.00,0.00,29.88,M,10.00,M,BKN,OVC,M,M,5000.00,5500.00,M,M,M,M,M,M,M,M,M,24.26,KMEV 221215Z AUTO 17005KT 10SM BKN050 OVC055 M01/M02 A2988 RMK AO2,M
RTS,2022-04-22 12:15,-119.8764,39.6682,1539.00,32.00,26.60,80.22,300.00,7.00,0.00,29.88,M,10.00,M,FEW,SCT,M,M,2900.00,11000.00,M,M,M,M,M,M,M,M,M,24.78,KRTS 221215Z AUTO 30007KT 10SM FEW029 SCT110 M00/M03 A2988 RMK AO2,M
CXP,2022-04-22 12:15,-119.7326,39.1923,1431.00,33.80,28.40,80.36,0.00,0.00,0.00,29.89,M,10.00,M,SCT,BKN,M,M,5000.00,12000.00,M,M,M,M,M,M,M,M,M,33.80,KCXP 221215Z AUTO 00000KT 10SM SCT050 BKN120 01/M02 A2989 RMK AO2,M
BVU,2022-04-22 12:15,-114.8611,35.9475,671.00,55.40,37.40,50.64,240.00,23.00,0.00,29.75,M,10.00,28.00,OVC,M,M,M,10000.00,M,M,M,M,M,M,M,M,M,M,55.40,KBVU 221215Z AUTO 24023G28KT 10SM OVC100 13/03 A2975 RMK AO2,M
TPH,2022-04-22 12:21,-117.0904,38.0505,1654.00,36.00,30.90,81.53,330.00,10.00,0.00,29.77,M,10.00,M,FEW,SCT,M,M,1000.00,1600.00,M,M,M,M,M,M,M,M,M,27.98,KTPH 221221Z AUTO 33010KT 10SM FEW010 SCT016 02/M01 A2977 RMK AO2 T00221006 $,M
TPH,2022-04-22 12:26,-117.0904,38.0505,1654.00,36.00,32.00,85.23,340.00,9.00,0.00,29.77,M,10.00,M,SCT,BKN,M,M,1000.00,1400.00,M,M,M,M,M,M,M,M,M,28.49,KTPH 221226Z AUTO 34009KT 10SM SCT010 BKN014 02/00 A2977 RMK AO2 T00220000 $,M
05U,2022-04-22 12:30,-116.0051,39.6042,1811.23,32.00,32.00,100.00,0.00,0.00,0.00,29.78,M,2.00,M,M,M,M,M,M,M,M,M,BR,M,M,M,M,M,M,32.00,K05U 221230Z AUTO 00000KT 2SM BR 00/00 A2978 RMK A01,M
ELY,2022-04-22 12:34,-114.8453,39.2950,1909.00,30.90,30.90,100.00,360.00,10.00,0.06,29.71,M,0.50,M,VV ,M,M,M,900.00,M,M,M,SN FZFG,M,M,M,M,M,M,21.59,KELY 221234Z AUTO 36010KT 1/2SM SN FZFG VV009 M01/M01 A2971 RMK AO2 P0006 T10061006,M
TMT,2022-04-22 12:35,-117.1971,39.4643,1749.34,32.00,32.00,100.00,320.00,4.00,0.06,29.81,M,0.75,M,OVC,M,M,M,400.00,M,M,M,SN,M,M,M,M,M,M,27.42,KTMT 221235Z AUTO 32004KT 3/4SM SN OVC004 00/00 A2981 RMK AO2 P0006 T00000000,M
MEV,2022-04-22 12:35,-119.7500,38.9963,1441.42,32.00,30.20,92.97,70.00,4.00,0.00,29.88,M,10.00,M,BKN,OVC,M,M,5000.00,5500.00,M,M,M,M,M,M,M,M,M,27.42,KMEV 221235Z AUTO 07004KT 10SM BKN050 OVC055 M00/M01 A2988 RMK AO2,M
BAM,2022-04-22 12:35,-116.8743,40.5990,1382.36,35.60,35.60,100.00,260.00,3.00,0.00,29.81,M,10.00,M,BKN,OVC,M,M,3000.00,4400.00,M,M,M,M,M,M,M,M,M,32.80,KBAM 221235Z AUTO 26003KT 10SM BKN030 OVC044 02/02 A2981 RMK AO1,M
HTH,2022-04-22 12:35,-118.6315,38.5448,1282.89,41.00,32.00,70.08,20.00,6.00,0.00,29.86,M,10.00,M,FEW,SCT,BKN,M,3600.00,4300.00,7000.00,M,M,M,M,M,M,M,M,36.37,KHTH 221235Z AUTO 02006KT 10SM FEW036 SCT043 BKN070 05/00 A2986 RMK A01,M
BVU,2022-04-22 12:35,-114.8611,35.9475,671.00,55.40,37.40,50.64,230.00,20.00,0.00,29.75,M,10.00,M,OVC,M,M,M,10000.00,M,M,M,M,M,M,M,M,M,M,55.40,KBVU 221235Z AUTO 23020KT 10SM OVC100 13/03 A2975 RMK AO2,M
CXP,2022-04-22 12:35,-119.7326,39.1923,1431.00,33.80,28.40,80.36,0.00,0.00,0.00,29.89,M,10.00,M,BKN,OVC,M,M,5000.00,6000.00,M,M,M,M,M,M,M,M,M,33.80,KCXP 221235Z AUTO 00000KT 10SM BKN050 OVC060 01/M02 A2989 RMK AO2,M
RTS,2022-04-22 12:35,-119.8764,39.6682,1539.00,32.00,26.60,80.22,290.00,8.00,0.00,29.89,M,10.00,M,BKN,M,M,M,10000.00,M,M,M,M,M,M,M,M,M,M,24.11,KRTS 221235Z AUTO 29008KT 10SM BKN100 M00/M03 A2989 RMK AO2,M
INS,2022-04-22 12:38,-115.6733,36.5872,955.00,55.40,28.40,35.28,0.00,0.00,0.00,29.69,1002.00,10.00,M,OVC,M,M,M,15000.00,M,M,M,M,M,M,M,M,M,M,55.40,KINS 221238Z AUTO 00000KT 10SM OVC150 13/M02 A2969 RMK AO2 SLP020 $,M
LOL,2022-04-22 12:40,-118.5701,40.0684,1192.43,38.00,36.00,92.78,170.00,5.00,T,29.86,M,9.00,M,SCT,OVC,M,M,2400.00,2900.00,M,M,-RA,M,M,M,M,M,M,33.40,KLOL 221240Z AUTO 17005KT 9SM -RA SCT024 OVC029 03/02 A2986 RMK AO2 RAB11 P0000 T00330022,M
TPH,2022-04-22 12:45,-117.0904,38.0505,1654.00,36.00,32.00,85.23,330.00,20.00,0.00,29.76,M,10.00,29.00,SCT,M,M,M,1000.00,M,M,M,M,M,M,M,29.00,330.00,2022-04-22 12:45,24.45,KTPH 221245Z AUTO 33020G29KT 10SM SCT010 02/00 A2976 RMK AO2 PK WND 33029/1245 T00220000 $,M
05U,2022-04-22 12:50,-116.0051,39.6042,1811.23,32.00,32.00,100.00,0.00,0.00,0.00,29.78,M,1.50,M,M,M,M,M,M,M,M,M,BR,M,M,M,M,M,M,32.00,K05U 221250Z AUTO 00000KT 1 1/2SM BR 00/00 A2978 RMK A01,M
VGT,2022-04-22 12:53,-115.1933,36.2111,667.00,58.00,35.00,42.24,240.00,17.00,0.00,29.70,1005.80,10.00,M,SCT,OVC,M,M,7500.00,10000.00,M,M,M,M,M,M,31.00,260.00,2022-04-22 12:31,57.90,KVGT 221253Z 24017KT 10SM SCT075 OVC100 14/02 A2970 RMK AO2 PK WND 26031/1231 SLP058 T01440017,M
DRA,2022-04-22 12:53,-116.0278,36.6206,1009.00,51.00,33.00,49.98,220.00,12.00,0.00,29.70,1002.70,10.00,20.00,SCT,M,M,M,7000.00,M,M,M,M,M,M,M,29.00,200.00,2022-04-22 12:15,51.10,KDRA 221253Z AUTO 22012G20KT 10SM SCT070 11/01 A2970 RMK AO2 PK WND 20029/1215 SLP027 T01060006,M
INS,2022-04-22 12:53,-115.6733,36.5872,955.00,53.60,28.40,37.67,230.00,9.00,0.00,29.69,1002.20,10.00,M,BKN,OVC,M,M,8000.00,15000.00,M,M,M,M,M,M,M,M,M,53.60,KINS 221253Z AUTO 23009KT 10SM BKN080 OVC150 12/M02 A2969 RMK AO2 SLP022 $,M
LOL,2022-04-22 12:53,-118.5701,40.0684,1192.43,38.00,36.00,92.78,0.00,0.00,T,29.87,1011.40,10.00,M,FEW,OVC,M,M,2400.00,3500.00,M,M,-RA,M,M,M,M,M,M,37.90,KLOL 221253Z AUTO 00000KT 10SM -RA FEW024 OVC035 03/02 A2987 RMK AO2 RAB11 SLP114 P0000 T00330022,M
ELY,2022-04-22 12:53,-114.8453,39.2950,1909.00,30.90,30.90,100.00,360.00,10.00,0.10,29.71,1001.60,0.75,M,VV ,M,M,M,700.00,M,M,M,-SN BR,M,M,M,M,M,M,21.59,KELY 221253Z AUTO 36010KT 3/4SM -SN BR VV007 M01/M01 A2971 RMK AO2 SLP016 P0010 T10061006,M
P68,2022-04-22 12:53,-116.0056,39.6014,1993.00,32.00,30.90,95.65,340.00,8.00,0.04,29.76,1005.70,M,M,M,M,M,M,M,M,M,M,M,M,M,M,M,M,M,24.11,KP68 221253Z AUTO 34008KT 00/M01 A2976 RMK AO1 SLP057 P0004 T00001006 $,M
TMT,2022-04-22 12:55,-117.1971,39.4643,1749.34,31.80,31.80,100.00,0.00,0.00,0.07,29.82,M,1.25,M,OVC,M,M,M,800.00,M,M,M,-SN,M,M,M,M,M,M,31.80,KTMT 221255Z AUTO 00000KT 1 1/4SM -SN OVC008 00/00 A2982 RMK AO2 P0007 T10011001,M
CXP,2022-04-22 12:55,-119.7326,39.1923,1431.00,33.80,28.40,80.36,0.00,0.00,0.00,29.90,M,10.00,M,SCT,BKN,OVC,M,4800.00,5500.00,12000.00,M,M,M,M,M,M,M,M,33.80,KCXP 221255Z AUTO 00000KT 10SM SCT048 BKN055 OVC120 01/M02 A2990 RMK AO2,M
MEV,2022-04-22 12:55,-119.7500,38.9963,1441.42,32.00,30.20,92.97,0.00,0.00,0.00,29.89,M,10.00,M,OVC,M,M,M,5000.00,M,M,M,M,M,M,M,M,M,M,32.00,KMEV 221255Z AUTO 00000KT 10SM OVC050 00/M01 A2989 RMK AO2,M
RTS,2022-04-22 12:55,-119.8764,39.6682,1539.00,32.00,26.60,80.22,310.00,8.00,0.00,29.89,M,10.00,M,SCT,OVC,M,M,8000.00,9500.00,M,M,M,M,M,M,M,M,M,24.11,KRTS 221255Z AUTO 31008KT 10SM SCT080 OVC095 M00/M03 A2989 RMK AO2,M
RNO,2022-04-22 12:55,-119.7711,39.4839,1341.00,38.00,26.10,62.14,320.00,6.00,0.00,29.89,1011.40,10.00,M,SCT,BKN,BKN,M,4500.00,8000.00,13000.00,M,M,M,M,M,M,M,M,32.64,KRNO 221255Z 32006KT 10SM SCT045 BKN080 BKN130 03/M03 A2989 RMK AO2 SLP114 MTN TOPS OBSCD DSNT SW T00331033,M
BVU,2022-04-22 12:55,-114.8611,35.9475,671.00,53.60,37.40,54.07,220.00,15.00,0.00,29.74,M,10.00,23.00,OVC,M,M,M,11000.00,M,M,M,M,M,M,M,M,M,M,53.60,KBVU 221255Z AUTO 22015G23KT 10SM OVC110 12/03 A2974 RMK AO2,M
HTH,2022-04-22 12:55,-118.6315,38.5448,1282.89,39.20,32.00,75.16,M,4.00,0.00,29.87,M,10.00,M,BKN,OVC,M,M,7000.00,9000.00,M,M,M,M,M,M,M,M,M,35.83,KHTH 221255Z AUTO VRB04KT 10SM BKN070 OVC090 04/00 A2987 RMK A01,M
BAM,2022-04-22 12:55,-116.8743,40.5990,1382.36,35.60,35.60,100.00,250.00,4.00,0.00,29.82,M,10.00,M,SCT,BKN,OVC,M,2800.00,3200.00,4000.00,M,M,M,M,M,M,M,M,31.62,KBAM 221255Z AUTO 25004KT 10SM SCT028 BKN032 OVC040 02/02 A2982 RMK AO1,M
EKO,2022-04-22 12:56,-115.7860,40.8242,1367.00,36.00,33.00,89.09,160.00,3.00,0.00,29.78,1007.70,10.00,M,OVC,M,M,M,700.00,M,M,M,M,M,M,M,M,M,M,33.26,KEKO 221256Z AUTO 16003KT 10SM OVC007 02/01 A2978 RMK AO2 SLP077 T00220006,M
LAS,2022-04-22 12:56,-115.1634,36.0719,663.00,54.00,37.00,52.45,210.00,14.00,0.00,29.69,1003.90,10.00,25.00,FEW,BKN,OVC,M,6000.00,10000.00,15000.00,M,M,M,M,M,37.00,220.00,2022-04-22 12:41,54.00,KLAS 221256Z 21014G25KT 10SM FEW060 BKN100 OVC150 12/03 A2969 RMK AO2 PK WND 22037/1241 PRESFR SLP039 VIRGA W-N T01220028 $,M
INS,2022-04-22 12:56,-115.6733,36.5872,955.00,53.60,28.40,37.67,280.00,10.00,0.00,29.69,1002.20,10.00,M,BKN,OVC,M,M,8000.00,15000.00,M,M,M,M,M,M,M,M,M,53.60,KINS 221256Z AUTO 28010KT 10SM BKN080 OVC150 12/M02 A2969 RMK AO2 WSHFT 54 SLP022 $,M
HND,2022-04-22 12:56,-115.1344,35.9729,742.79,51.00,39.00,63.12,220.00,20.00,T,29.73,1007.00,10.00,29.00,OVC,M,M,M,11000.00,M,M,M,M,M,M,M,36.00,220.00,2022-04-22 12:22,51.10,KHND 221256Z 22020G29KT 10SM OVC110 11/04 A2973 RMK AO2 PK WND 22036/1222 RAB01E14 SLP070 P0000 T01060039,M
NFL,2022-04-22 12:56,-118.7010,39.4166,1199.00,37.00,34.00,88.78,0.00,0.00,0.00,29.87,1009.10,10.00,M,FEW,SCT,M,M,2800.00,9500.00,M,M,M,M,M,M,M,M,M,37.00,KNFL 221256Z AUTO 00000KT 10SM FEW028 SCT095 03/01 A2987 RMK AO2 SLP091 T00280011,M
TPH,2022-04-22 12:56,-117.0904,38.0505,1654.00,36.00,30.90,81.53,330.00,20.00,0.00,29.77,1005.30,10.00,31.00,FEW,M,M,M,1000.00,M,M,M,M,M,M,M,31.00,330.00,2022-04-22 12:47,24.45,KTPH 221256Z AUTO 33020G31KT 10SM FEW010 02/M01 A2977 RMK AO2 PK WND 33031/1247 SLP053 T00221006 $,M
WMC,2022-04-22 12:56,-117.8072,40.9019,1315.00,36.00,28.90,75.15,0.00,0.00,0.00,29.83,1009.60,10.00,M,SCT,BKN,M,M,4900.00,12000.00,M,M,M,M,M,M,M,M,M,36.00,KWMC 221256Z AUTO 00000KT 10SM SCT049 BKN120 02/M02 A2983 RMK AO2 SLP096 T00221017,M
INS,2022-04-22 12:58,-115.6733,36.5872,955.00,54.30,28.60,37.02,320.00,8.00,0.00,29.69,1002.20,10.00,M,BKN,OVC,M,M,8000.00,15000.00,M,M,M,M,M,M,34.00,220.00,2022-04-22 12:03,54.30,KINS 221258Z AUTO 32008KT 10SM BKN080 OVC150 12/M02 A2969 RMK AO2 PK WND 22034/03 SLP022 T01241019 $,M
LSV,2022-04-22 12:58,-115.0343,36.2362,570.00,58.00,37.80,47.00,200.00,20.00,0.00,29.70,1004.10,10.00,M,FEW,M,M,M,9500.00,M,M,M,M,M,M,M,31.00,210.00,2022-04-22 11:59,57.90,KLSV 221258Z AUTO 20020KT 10SM FEW095 14/03 A2970 RMK AO2 PK WND 21031/1159 SLP041 T01440032 $,M
05U,2022-04-22 13:10,-116.0051,39.6042,1811.23,32.00,32.00,100.00,0.00,0.00,0.00,29.78,M,0.75,M,M,M,M,M,M,M,M,M,BR,M,M,M,M,M,M,32.00,K05U 221310Z AUTO 00000KT 3/4SM BR 00/00 A2978 RMK A01,M
HTH,2022-04-22 13:15,-118.6315,38.5448,1282.89,39.20,32.00,75.16,330.00,5.00,0.00,29.88,M,10.00,M,BKN,BKN,OVC,M,4100.00,6000.00,9000.00,M,M,M,M,M,M,M,M,34.95,KHTH 221315Z AUTO 33005KT 10SM BKN041 BKN060 OVC090 04/00 A2988 RMK A01,M
RTS,2022-04-22 13:15,-119.8764,39.6682,1539.00,32.00,26.60,80.22,310.00,7.00,0.00,29.90,M,10.00,M,BKN,M,M,M,9000.00,M,M,M,M,M,M,M,M,M,M,24.78,KRTS 221315Z AUTO 31007KT 10SM BKN090 M00/M03 A2990 RMK AO2,M
BVU,2022-04-22 13:15,-114.8611,35.9475,671.00,53.60,35.60,50.36,220.00,12.00,0.00,29.72,M,10.00,M,FEW,SCT,OVC,M,6500.00,8000.00,11000.00,M,M,M,M,M,M,M,M,53.60,KBVU 221315Z AUTO 22012KT 10SM FEW065 SCT080 OVC110 12/02 A2972 RMK AO2,M
CXP,2022-04-22 13:15,-119.7326,39.1923,1431.00,33.80,28.40,80.36,0.00,0.00,0.00,29.90,M,10.00,M,FEW,SCT,BKN,M,4200.00,4800.00,5500.00,M,M,M,M,M,M,M,M,33.80,KCXP 221315Z AUTO 00000KT 10SM FEW042 SCT048 BKN055 01/M02 A2990 RMK AO2,M
MEV,2022-04-22 13:15,-119.7500,38.9963,1441.42,30.20,28.40,92.92,150.00,3.00,0.00,29.89,M,10.00,M,BKN,M,M,M,5000.00,M,M,M,M,M,M,M,M,M,M,26.63,KMEV 221315Z AUTO 15003KT 10SM BKN050 M01/M02 A2989 RMK AO2,M
BAM,2022-04-22 13:15,-116.8743,40.5990,1382.36,35.60,35.60,100.00,260.00,3.00,0.00,29.83,M,10.00,M,SCT,OVC,M,M,3200.00,4200.00,M,M,M,M,M,M,M,M,M,32.80,KBAM 221315Z AUTO 26003KT 10SM SCT032 OVC042 02/02 A2983 RMK AO1,M
TMT,2022-04-22 13:15,-117.1971,39.4643,1749.34,31.80,31.80,100.00,0.00,0.00,0.01,29.83,M,0.75,M,OVC,M,M,M,1000.00,M,M,M,-SN,M,M,M,M,M,M,31.80,KTMT 221315Z AUTO 00000KT 3/4SM -SN OVC010 00/00 A2983 RMK AO2 P0001 T10011001,M
05U,2022-04-22 13:30,-116.0051,39.6042,1811.23,32.00,32.00,100.00,0.00,0.00,0.00,29.79,M,0.50,M,M,M,M,M,M,M,M,M,FG,M,M,M,M,M,M,32.00,K05U 221330Z AUTO 00000KT 1/2SM FG 00/00 A2979 RMK A01,M
HTH,2022-04-22 13:35,-118.6315,38.5448,1282.89,39.20,32.00,75.16,0.00,0.00,0.00,29.89,M,10.00,M,BKN,OVC,M,M,3900.00,4500.00,M,M,M,M,M,M,M,M,M,39.20,KHTH 221335Z AUTO 00000KT 10SM BKN039 OVC045 04/M00 A2989 RMK A01,M
BAM,2022-04-22 13:35,-116.8743,40.5990,1382.36,37.40,37.40,100.00,240.00,3.00,0.00,29.83,M,7.00,M,BKN,OVC,M,M,4600.00,6000.00,M,M,M,M,M,M,M,M,M,34.86,KBAM 221335Z AUTO 24003KT 7SM BKN046 OVC060 03/03 A2983 RMK AO1,M
BVU,2022-04-22 13:35,-114.8611,35.9475,671.00,55.40,35.60,47.16,220.00,15.00,0.00,29.74,M,10.00,M,FEW,SCT,M,M,8000.00,10000.00,M,M,M,M,M,M,M,M,M,55.40,KBVU 221335Z AUTO 22015KT 10SM FEW080 SCT100 13/02 A2974 RMK AO2,M
CXP,2022-04-22 13:35,-119.7326,39.1923,1431.00,35.60,26.60,69.46,0.00,0.00,0.00,29.91,M,10.00,M,FEW,FEW,BKN,M,4200.00,9000.00,12000.00,M,M,M,M,M,M,M,M,35.60,KCXP 221335Z AUTO 00000KT 10SM FEW042 FEW090 BKN120 02/M03 A2991 RMK AO2,M
RTS,2022-04-22 13:35,-119.8764,39.6682,1539.00,30.20,24.80,80.07,300.00,5.00,0.00,29.91,M,10.00,M,FEW,M,M,M,9000.00,M,M,M,M,M,M,M,M,M,M,24.26,KRTS 221335Z AUTO 30005KT 10SM FEW090 M01/M04 A2991 RMK AO2,M
MEV,2022-04-22 13:35,-119.7500,38.9963,1441.42,32.00,28.40,86.39,120.00,3.00,0.00,29.90,M,10.00,M,BKN,M,M,M,5500.00,M,M,M,M,M,M,M,M,M,M,28.69,KMEV 221335Z AUTO 12003KT 10SM BKN055 M00/M02 A2990 RMK AO2,M
05U,2022-04-22 13:35,-116.0051,39.6042,1811.23,32.00,32.00,100.00,0.00,0.00,0.00,29.79,M,0.50,M,M,M,M,M,M,M,M,M,FG,M,M,M,M,M,M,32.00,K05U 221335Z AUTO 00000KT 1/2SM FG 00/00 A2979 RMK A01,M
TMT,2022-04-22 13:35,-117.1971,39.4643,1749.34,31.80,31.80,100.00,0.00,0.00,0.01,29.84,M,1.25,M,OVC,M,M,M,500.00,M,M,M,-SN,M,M,M,M,M,M,31.80,KTMT 221335Z AUTO 00000KT 1 1/4SM -SN OVC005 00/00 A2984 RMK AO2 P0001 T10011001,M
TPH,2022-04-22 13:37,-117.0904,38.0505,1654.00,37.00,30.90,78.37,330.00,15.00,0.00,29.79,M,10.00,M,BKN,BKN,M,M,1700.00,6000.00,M,M,M,M,M,M,30.00,330.00,2022-04-22 13:05,27.26,KTPH 221337Z AUTO 33015KT 10SM BKN017 BKN060 03/M01 A2979 RMK AO2 PK WND 33030/1305 T00281006 $,M
ELY,2022-04-22 13:43,-114.8453,39.2950,1909.00,32.00,32.00,100.00,20.00,9.00,0.11,29.73,M,0.25,M,VV ,M,M,M,600.00,M,M,M,+SN FG,M,M,M,M,M,M,23.51,KELY 221343Z AUTO 02009KT 1/4SM +SN FG VV006 00/00 A2973 RMK AO2 P0011 T00000000,M
DRA,2022-04-22 13:53,-116.0278,36.6206,1009.00,50.00,35.00,56.39,240.00,15.00,0.00,29.74,1004.00,10.00,22.00,OVC,M,M,M,5000.00,M,M,M,M,M,M,M,M,M,M,50.00,KDRA 221353Z AUTO 24015G22KT 10SM OVC050 10/02 A2974 RMK AO2 SLP040 T01000017,M
ELY,2022-04-22 13:53,-114.8453,39.2950,1909.00,32.00,32.00,100.00,30.00,12.00,0.13,29.72,1002.10,0.25,M,VV ,M,M,M,600.00,M,M,M,+SN FG,M,M,M,M,M,M,22.00,KELY 221353Z AUTO 03012KT 1/4SM +SN FG VV006 00/00 A2972 RMK AO2 SLP021 P0013 T00000000,M
VGT,2022-04-22 13:53,-115.1933,36.2111,667.00,56.00,35.00,45.40,180.00,11.00,0.00,29.71,1006.20,10.00,M,CLR,M,M,M,M,M,M,M,M,M,M,M,M,M,M,55.90,KVGT 221353Z 18011KT 10SM CLR 13/02 A2971 RMK AO2 SLP062 T01330017,M
LOL,2022-04-22 13:53,-118.5701,40.0684,1192.43,38.00,36.00,92.78,140.00,3.00,T,29.89,1012.10,10.00,M,OVC,M,M,M,8000.00,M,M,M,M,M,M,M,M,M,M,35.43,KLOL 221353Z AUTO 14003KT 10SM OVC080 03/02 A2989 RMK AO2 RAE1256 SLP121 P0000 T00330022,M
INS,2022-04-22 13:53,-115.6733,36.5872,955.00,53.60,30.20,40.54,250.00,14.00,0.00,29.71,1002.90,10.00,M,BKN,OVC,M,M,7000.00,8500.00,M,M,-RA,M,M,M,M,M,M,53.60,KINS 221353Z AUTO 25014KT 10SM -RA BKN070 OVC085 12/M01 A2971 RMK AO2 RAB53 SLP029 $,M
HTH,2022-04-22 13:55,-118.6315,38.5448,1282.89,39.20,32.00,75.16,0.00,0.00,0.00,29.90,M,10.00,M,OVC,M,M,M,3800.00,M,M,M,M,M,M,M,M,M,M,39.20,KHTH 221355Z AUTO 00000KT 10SM OVC038 04/M00 A2990 RMK A01,M
RTS,2022-04-22 13:55,-119.8764,39.6682,1539.00,32.00,26.60,80.22,350.00,6.00,0.00,29.93,M,10.00,M,CLR,M,M,M,M,M,M,M,M,M,M,M,M,M,M,25.53,KRTS 221355Z AUTO 35006KT 10SM CLR M00/M03 A2993 RMK AO2,M
BVU,2022-04-22 13:55,-114.8611,35.9475,671.00,55.40,35.60,47.16,240.00,11.00,0.00,29.77,M,10.00,18.00,CLR,M,M,M,M,M,M,M,M,M,M,M,M,M,M,55.40,KBVU 221355Z AUTO 24011G18KT 10SM CLR 13/02 A2977 RMK AO2,M
MEV,2022-04-22 13:55,-119.7500,38.9963,1441.42,30.20,28.40,92.92,150.00,5.00,0.00,29.91,M,10.00,M,BKN,M,M,M,5500.00,M,M,M,M,M,M,M,M,M,M,24.26,KMEV 221355Z AUTO 15005KT 10SM BKN055 M01/M02 A2991 RMK AO2,M
BAM,2022-04-22 13:55,-116.8743,40.5990,1382.36,37.40,37.40,100.00,230.00,4.00,0.00,29.84,M,7.00,M,SCT,OVC,M,M,4900.00,5500.00,M,M,M,M,M,M,M,M,M,33.73,KBAM 221355Z AUTO 23004KT 7SM SCT049 OVC055 03/03 A2984 RMK AO1,M
TMT,2022-04-22 13:55,-117.1971,39.4643,1749.34,32.00,32.00,100.00,0.00,0.00,0.03,29.85,M,0.75,M,BKN,OVC,M,M,700.00,1200.00,M,M,-SN,M,M,M,M,M,M,32.00,KTMT 221355Z AUTO 00000KT 3/4SM -SN BKN007 OVC012 00/00 A2985 RMK AO2 P0003 T00000000,M
CXP,2022-04-22 13:55,-119.7326,39.1923,1431.00,35.60,26.60,69.46,240.00,3.00,0.00,29.91,M,10.00,M,SCT,BKN,M,M,9000.00,12000.00,M,M,M,M,M,M,M,M,M,32.80,KCXP 221355Z AUTO 24003KT 10SM SCT090 BKN120 02/M03 A2991 RMK AO2,M
RNO,2022-04-22 13:55,-119.7711,39.4839,1341.00,39.00,25.00,56.86,10.00,3.00,0.00,29.92,1012.40,10.00,M,SCT,SCT,BKN,BKN,4500.00,8000.00,13000.00,20000.00,M,M,M,M,M,M,M,36.69,KRNO 221355Z 01003KT 10SM SCT045 SCT080 BKN130 BKN200 04/M04 A2992 RMK AO2 SLP124 T00391039,M
EKO,2022-04-22 13:56,-115.7860,40.8242,1367.00,36.00,33.00,89.09,230.00,5.00,0.00,29.79,1008.80,10.00,M,OVC,M,M,M,800.00,M,M,M,M,M,M,M,M,M,M,31.15,KEKO 221356Z AUTO 23005KT 10SM OVC008 02/01 A2979 RMK AO2 SLP088 T00220006,M
LAS,2022-04-22 13:56,-115.1634,36.0719,663.00,54.00,37.00,52.45,200.00,15.00,0.00,29.72,1005.00,10.00,27.00,FEW,SCT,BKN,M,6000.00,10000.00,15000.00,M,M,M,M,M,27.00,190.00,2022-04-22 13:48,54.00,KLAS 221356Z 20015G27KT 10SM FEW060 SCT100 BKN150 12/03 A2972 RMK AO2 PK WND 19027/1348 SLP050 VIRGA DSNT NE AND W T01220028 $,M
TPH,2022-04-22 13:56,-117.0904,38.0505,1654.00,37.00,30.90,78.37,330.00,19.00,0.00,29.81,1006.80,10.00,26.00,SCT,M,M,M,1700.00,M,M,M,M,M,M,M,30.00,330.00,2022-04-22 13:05,26.05,KTPH 221356Z AUTO 33019G26KT 10SM SCT017 03/M01 A2981 RMK AO2 PK WND 33030/1305 SLP068 T00281006 $,M
HND,2022-04-22 13:56,-115.1344,35.9729,742.79,51.00,37.00,58.36,210.00,18.00,0.00,29.75,1007.70,10.00,24.00,CLR,M,M,M,M,M,M,M,M,M,M,M,30.00,220.00,2022-04-22 13:23,51.10,KHND 221356Z 21018G24KT 10SM CLR 11/03 A2975 RMK AO2 PK WND 22030/1323 SLP077 T01060028,M
NFL,2022-04-22 13:56,-118.7010,39.4166,1199.00,36.00,34.00,92.35,240.00,4.00,0.00,29.90,1009.80,10.00,M,CLR,M,M,M,M,M,M,M,M,M,M,M,M,M,M,32.09,KNFL 221356Z AUTO 24004KT 10SM CLR 02/01 A2990 RMK AO2 SLP098 T00220011,M
WMC,2022-04-22 13:56,-117.8072,40.9019,1315.00,38.00,30.00,72.93,M,3.00,0.00,29.85,1010.30,10.00,M,OVC,M,M,M,5500.00,M,M,M,M,M,M,M,M,M,M,35.43,KWMC 221356Z AUTO VRB03KT 10SM OVC055 03/M01 A2985 RMK AO2 SLP103 T00331011,M
LSV,2022-04-22 13:58,-115.0343,36.2362,570.00,57.70,37.60,46.96,190.00,17.00,0.00,29.71,1004.60,10.00,M,FEW,M,M,M,18000.00,M,M,M,M,M,M,M,M,M,M,57.70,KLSV 221358Z AUTO 19017KT 10SM FEW180 14/03 A2971 RMK AO2 SLP046 T01430031 $,M
INS,2022-04-22 13:58,-115.6733,36.5872,955.00,53.60,29.80,39.89,250.00,14.00,T,29.71,1002.90,10.00,M,BKN,OVC,M,M,7000.00,8500.00,M,M,-RA,M,M,M,M,M,M,53.60,KINS 221358Z AUTO 25014KT 10SM -RA BKN070 OVC085 12/M01 A2971 RMK AO2 RAB53 SLP029 P0000 T01201012 $,M
INS,2022-04-22 14:06,-115.6733,36.5872,955.00,53.60,33.80,46.88,250.00,9.00,0.00,29.72,1003.20,10.00,22.00,FEW,OVC,M,M,1400.00,7000.00,M,M,-RA,M,M,M,M,M,M,53.60,KINS 221406Z AUTO 25009G22KT 10SM -RA FEW014 OVC070 12/01 A2972 RMK AO2 SLP032 $,M
ELY,2022-04-22 14:08,-114.8453,39.2950,1909.00,32.00,32.00,100.00,30.00,11.00,0.02,29.73,M,0.50,M,VV ,M,M,M,600.00,M,M,M,SN FG,M,M,M,M,M,M,22.47,KELY 221408Z AUTO 03011KT 1/2SM SN FG VV006 00/00 A2973 RMK AO2 P0002 T00000000,M
MEV,2022-04-22 14:15,-119.7500,38.9963,1441.42,30.20,28.40,92.92,100.00,3.00,0.00,29.92,M,10.00,M,SCT,SCT,M,M,5500.00,6500.00,M,M,M,M,M,M,M,M,M,26.63,KMEV 221415Z AUTO 10003KT 10SM SCT055 SCT065 M01/M02 A2992 RMK AO2,M
BAM,2022-04-22 14:15,-116.8743,40.5990,1382.36,37.40,37.40,100.00,240.00,5.00,0.00,29.84,M,5.00,M,SCT,OVC,M,M,4900.00,5500.00,M,M,M,M,M,M,M,M,M,32.81,KBAM 221415Z AUTO 24005KT 5SM SCT049 OVC055 03/03 A2984 RMK AO1,M
HTH,2022-04-22 14:15,-118.6315,38.5448,1282.89,39.20,32.00,75.16,0.00,0.00,0.00,29.91,M,10.00,M,BKN,BKN,OVC,M,3900.00,4600.00,6000.00,M,M,M,M,M,M,M,M,39.20,KHTH 221415Z AUTO 00000KT 10SM BKN039 BKN046 OVC060 04/M00 A2991 RMK A01,M
TMT,2022-04-22 14:15,-117.1971,39.4643,1749.34,31.80,31.60,99.20,0.00,0.00,0.00,29.86,M,5.00,M,SCT,OVC,M,M,1200.00,1700.00,M,M,-SN,M,M,M,M,M,M,31.80,KTMT 221415Z AUTO 00000KT 5SM -SN SCT012 OVC017 00/00 A2986 RMK AO2 T10011002,M
BVU,2022-04-22 14:15,-114.8611,35.9475,671.00,55.40,35.60,47.16,250.00,12.00,0.00,29.78,M,10.00,M,CLR,M,M,M,M,M,M,M,M,M,M,M,M,M,M,55.40,KBVU 221415Z AUTO 25012KT 10SM CLR 13/02 A2978 RMK AO2,M
CXP,2022-04-22 14:15,-119.7326,39.1923,1431.00,35.60,28.40,74.80,0.00,0.00,0.00,29.92,M,10.00,M,FEW,M,M,M,11000.00,M,M,M,M,M,M,M,M,M,M,35.60,KCXP 221415Z AUTO 00000KT 10SM FEW110 02/M02 A2992 RMK AO2,M
EKO,2022-04-22 14:15,-115.7860,40.8242,1367.00,36.00,34.00,92.35,220.00,5.00,0.00,29.79,M,10.00,M,SCT,BKN,OVC,M,800.00,1800.00,9000.00,M,M,M,M,M,M,M,M,31.15,KEKO 221415Z AUTO 22005KT 10SM SCT008 BKN018 OVC090 02/01 A2979 RMK AO2 T00220011,M
RTS,2022-04-22 14:15,-119.8764,39.6682,1539.00,33.80,26.60,74.63,290.00,7.00,0.00,29.93,M,10.00,M,CLR,M,M,M,M,M,M,M,M,M,M,M,M,M,M,26.97,KRTS 221415Z AUTO 29007KT 10SM CLR 01/M03 A2993 RMK AO2,M
ELY,2022-04-22 14:19,-114.8453,39.2950,1909.00,32.00,32.00,100.00,360.00,13.00,0.03,29.73,M,0.25,21.00,VV ,M,M,M,600.00,M,M,M,+SN FG,M,M,M,M,M,M,21.57,KELY 221419Z AUTO 36013G21KT 1/4SM +SN FG VV006 00/00 A2973 RMK AO2 P0003 T00000000,M
INS,2022-04-22 14:22,-115.6733,36.5872,955.00,53.60,30.20,40.54,260.00,11.00,0.00,29.73,1003.60,10.00,M,FEW,BKN,M,M,4600.00,6500.00,M,M,M,M,M,M,M,M,M,53.60,KINS 221422Z AUTO 26011KT 10SM FEW046 BKN065 12/M01 A2973 RMK AO2 RAE16DZB16E17RAB17E22 SLP036 $,M
CXP,2022-04-22 14:30,-119.7326,39.1923,1431.00,35.60,28.40,74.80,0.00,0.00,0.00,29.93,M,10.00,M,FEW,M,M,M,11000.00,M,M,M,M,M,M,M,M,M,M,35.60,KCXP 221430Z AUTO 00000KT 10SM FEW110 02/M02 A2993 RMK AO2,M
HTH,2022-04-22 14:35,-118.6315,38.5448,1282.89,41.00,32.00,70.08,360.00,8.00,0.00,29.92,M,10.00,M,FEW,SCT,OVC,M,3800.00,4300.00,5500.00,M,M,M,M,M,M,M,M,35.20,KHTH 221435Z AUTO 36008KT 10SM FEW038 SCT043 OVC055 05/00 A2992 RMK A01,M
RTS,2022-04-22 14:35,-119.8764,39.6682,1539.00,35.60,24.80,64.46,300.00,9.00,0.00,29.94,M,10.00,M,CLR,M,M,M,M,M,M,M,M,M,M,M,M,M,M,27.99,KRTS 221435Z AUTO 30009KT 10SM CLR 02/M04 A2994 RMK AO2,M
TMT,2022-04-22 14:35,-117.1971,39.4643,1749.34,31.80,31.60,99.20,0.00,0.00,0.00,29.87,M,10.00,M,SCT,OVC,M,M,900.00,2000.00,M,M,M,M,M,M,M,M,M,31.80,KTMT 221435Z AUTO 00000KT 10SM SCT009 OVC020 00/00 A2987 RMK AO2 T10011002,M
BAM,2022-04-22 14:35,-116.8743,40.5990,1382.36,37.40,37.40,100.00,240.00,4.00,0.00,29.85,M,5.00,M,SCT,BKN,OVC,M,2300.00,4800.00,5000.00,M,M,M,M,M,M,M,M,33.73,KBAM 221435Z AUTO 24004KT 5SM SCT023 BKN048 OVC050 03/03 A2985 RMK AO1,M
MEV,2022-04-22 14:35,-119.7500,38.9963,1441.42,33.80,30.20,86.49,120.00,6.00,0.00,29.93,M,10.00,M,SCT,BKN,M,M,5500.00,6500.00,M,M,M,M,M,M,M,M,M,27.70,KMEV 221435Z AUTO 12006KT 10SM SCT055 BKN065 01/M01 A2993 RMK AO2,M
NFL,2022-04-22 14:35,-118.7010,39.4166,1199.00,39.00,36.00,88.87,200.00,4.00,0.00,29.91,M,10.00,M,SCT,SCT,SCT,BKN,5000.00,8000.00,12000.00,20000.00,M,M,M,M,M,M,M,35.59,KNFL 221435Z 20004KT 10SM SCT050 SCT080 SCT120 BKN200 04/02 A2991 RMK AO2 T00390022,M
BVU,2022-04-22 14:35,-114.8611,35.9475,671.00,57.20,33.80,41.13,250.00,12.00,0.00,29.78,M,10.00,20.00,FEW,M,M,M,5000.00,M,M,M,M,M,M,M,M,M,M,57.20,KBVU 221435Z AUTO 25012G20KT 10SM FEW050 14/01 A2978 RMK AO2,M
INS,2022-04-22 14:41,-115.6733,36.5872,955.00,53.60,30.20,40.54,280.00,16.00,0.00,29.74,1003.90,10.00,21.00,FEW,OVC,M,M,4700.00,6000.00,M,M,-RA,M,M,M,M,M,M,53.60,KINS 221441Z AUTO 28016G21KT 10SM -RA FEW047 OVC060 12/M01 A2974 RMK AO2 RAE16DZB16E17RAB17E22RAB41 SLP039 $,M
DRA,2022-04-22 14:53,-116.0278,36.6206,1009.00,49.00,36.00,60.88,230.00,11.00,0.00,29.76,1005.10,10.00,M,OVC,M,M,M,5000.00,M,M,M,M,M,M,M,28.00,230.00,2022-04-22 14:31,43.82,KDRA 221453Z AUTO 23011KT 10SM OVC050 09/02 A2976 RMK AO2 PK WND 23028/1431 SLP051 T00940022 53023 $,M
VGT,2022-04-22 14:53,-115.1933,36.2111,667.00,60.00,33.00,36.05,240.00,20.00,0.00,29.69,1005.60,10.00,31.00,SCT,M,M,M,9500.00,M,M,M,M,M,M,M,39.00,210.00,2022-04-22 14:37,60.10,KVGT 221453Z 24020G31KT 10SM SCT095 16/01 A2969 RMK AO2 PK WND 21039/1437 SLP056 T01560006 58002,M
LOL,2022-04-22 14:53,-118.5701,40.0684,1192.43,39.00,37.00,92.45,160.00,3.00,0.00,29.91,1013.00,10.00,M,BKN,M,M,M,9500.00,M,M,M,M,M,M,M,M,M,M,36.69,KLOL 221453Z AUTO 16003KT 10SM BKN095 04/03 A2991 RMK AO2 SLP130 60000 T00390028 53012,M
ELY,2022-04-22 14:53,-114.8453,39.2950,1909.00,30.90,30.90,100.00,20.00,18.00,0.08,29.74,1003.00,0.25,24.00,VV ,M,M,M,800.00,M,M,M,SN FZFG,M,M,M,M,M,M,18.30,KELY 221453Z AUTO 02018G24KT 1/4SM SN FZFG VV008 M01/M01 A2974 RMK AO2 SLP030 P0008 60031 T10061006 53006,M
HTH,2022-04-22 14:55,-118.6315,38.5448,1282.89,41.00,32.00,70.08,350.00,9.00,0.00,29.92,M,10.00,M,SCT,OVC,M,M,4500.00,5500.00,M,M,M,M,M,M,M,M,M,34.70,KHTH 221455Z AUTO 35009KT 10SM SCT045 OVC055 05/00 A2992 RMK A01,M
MEV,2022-04-22 14:55,-119.7500,38.9963,1441.42,35.60,30.20,80.51,160.00,4.00,0.00,29.93,M,10.00,M,BKN,M,M,M,5500.00,M,M,M,M,M,M,M,M,M,M,31.62,KMEV 221455Z AUTO 16004KT 10SM BKN055 02/M01 A2993 RMK AO2,M
RTS,2022-04-22 14:55,-119.8764,39.6682,1539.00,35.60,24.80,64.46,290.00,9.00,0.00,29.95,M,10.00,M,CLR,M,M,M,M,M,M,M,M,M,M,M,M,M,M,27.99,KRTS 221455Z AUTO 29009KT 10SM CLR 02/M04 A2995 RMK AO2,M
BVU,2022-04-22 14:55,-114.8611,35.9475,671.00,57.20,33.80,41.13,240.00,11.00,0.00,29.78,M,10.00,17.00,FEW,FEW,M,M,5000.00,9500.00,M,M,M,M,M,M,M,M,M,57.20,KBVU 221455Z AUTO 24011G17KT 10SM FEW050 FEW095 14/01 A2978 RMK AO2,M
CXP,2022-04-22 14:55,-119.7326,39.1923,1431.00,39.20,28.40,64.93,0.00,0.00,0.00,29.94,M,10.00,M,CLR,M,M,M,M,M,M,M,M,M,M,M,M,M,M,39.20,KCXP 221455Z AUTO 00000KT 10SM CLR 04/M02 A2994 RMK AO2,M
RNO,2022-04-22 14:55,-119.7711,39.4839,1341.00,41.00,25.00,52.61,350.00,7.00,0.00,29.94,1013.00,10.00,M,FEW,SCT,M,M,3500.00,11000.00,M,M,M,M,M,M,M,M,M,35.75,KRNO 221455Z 35007KT 10SM FEW035 SCT110 05/M04 A2994 RMK AO2 SLP130 T00501039 51019,M
TMT,2022-04-22 14:55,-117.1971,39.4643,1749.34,32.00,31.80,99.20,0.00,0.00,0.00,29.87,M,10.00,M,SCT,BKN,OVC,M,1100.00,3000.00,4400.00,M,M,M,M,M,M,M,M,32.00,KTMT 221455Z AUTO 00000KT 10SM SCT011 BKN030 OVC044 00/00 A2987 RMK AO2 60010 T00001001,M
BAM,2022-04-22 14:55,-116.8743,40.5990,1382.36,39.20,39.20,100.00,230.00,7.00,0.00,29.86,M,7.00,M,SCT,SCT,OVC,M,2200.00,3000.00,5000.00,M,M,M,M,M,M,M,M,33.56,KBAM 221455Z AUTO 23007KT 7SM SCT022 SCT030 OVC050 04/04 A2986 RMK AO1,M
LAS,2022-04-22 14:56,-115.1634,36.0719,663.00,56.00,34.00,43.46,230.00,11.00,0.00,29.73,1005.40,10.00,27.00,FEW,SCT,BKN,M,6000.00,8500.00,14000.00,M,M,M,M,M,30.00,190.00,2022-04-22 14:25,55.90,KLAS 221456Z 23011G27KT 10SM FEW060 SCT085 BKN140 13/01 A2973 RMK AO2 PK WND 19030/1425 SLP054 VIRGA DSNT NW T01330011 53002 $,M
EKO,2022-04-22 14:56,-115.7860,40.8242,1367.00,37.00,34.00,88.78,190.00,5.00,0.00,29.80,1009.20,10.00,M,FEW,BKN,M,M,400.00,1600.00,M,M,M,M,M,M,M,M,M,32.33,KEKO 221456Z AUTO 19005KT 10SM FEW004 BKN016 03/01 A2980 RMK AO2 SLP092 T00280011 53006,M
HND,2022-04-22 14:56,-115.1344,35.9729,742.79,55.00,36.00,48.62,220.00,21.00,0.00,29.75,1007.80,10.00,28.00,FEW,BKN,M,M,7500.00,10000.00,M,M,M,M,M,M,28.00,210.00,2022-04-22 14:51,55.00,KHND 221456Z 22021G28KT 10SM FEW075 BKN100 13/02 A2975 RMK AO2 PK WND 21028/1451 SLP078 60000 T01280022 53003,M
TPH,2022-04-22 14:56,-117.0904,38.0505,1654.00,40.00,27.00,59.65,330.00,23.00,T,29.83,1007.50,10.00,34.00,BKN,BKN,M,M,7500.00,12000.00,M,M,M,M,M,M,35.00,320.00,2022-04-22 14:34,28.93,KTPH 221456Z AUTO 33023G34KT 10SM BKN075 BKN120 04/M03 A2983 RMK AO2 PK WND 32035/1434 SNB1358E07 SLP075 P0000 60000 T00441028 53020 $,M
WMC,2022-04-22 14:56,-117.8072,40.9019,1315.00,39.00,30.90,72.45,240.00,6.00,T,29.88,1011.80,10.00,M,FEW,OVC,M,M,4000.00,5500.00,M,M,M,M,M,M,M,M,M,33.96,KWMC 221456Z AUTO 24006KT 10SM FEW040 OVC055 04/M01 A2988 RMK AO2 RAB39E49 SLP118 P0000 60000 T00391006 53023,M
NFL,2022-04-22 14:56,-118.7010,39.4166,1199.00,41.00,36.00,82.22,230.00,3.00,0.00,29.92,1010.50,10.00,M,SCT,SCT,SCT,BKN,5000.00,8000.00,12000.00,20000.00,M,M,M,M,M,M,M,38.98,KNFL 221456Z 23003KT 10SM SCT050 SCT080 SCT120 BKN200 05/02 A2992 RMK AO2 SLP105 T00500022 53017,M
LSV,2022-04-22 14:58,-115.0343,36.2362,570.00,59.00,37.00,43.78,190.00,19.00,0.00,29.71,1004.60,10.00,25.00,CLR,M,M,M,M,M,M,M,M,M,M,M,27.00,190.00,2022-04-22 14:33,59.00,KLSV 221458Z AUTO 19019G25KT 10SM CLR 15/03 A2971 RMK AO2 PK WND 19027/33 SLP046 T01500028 53003 $,M
INS,2022-04-22 14:58,-115.6733,36.5872,955.00,53.00,30.40,41.94,300.00,11.00,T,29.74,1004.10,10.00,M,BKN,OVC,M,M,5500.00,6500.00,M,M,-DZ,M,M,M,M,M,M,52.90,KINS 221458Z AUTO 30011KT 10SM -DZ BKN055 OVC065 12/M01 A2974 RMK AO2 RAE16DZB16E17RAB17E22RAB41E52DZB52 SLP041 P0000 60000 T01161009 52028 $,M
INS,2022-04-22 15:01,-115.6733,36.5872,955.00,53.60,32.00,43.61,310.00,14.00,0.00,29.75,1004.40,10.00,M,BKN,OVC,M,M,5500.00,6500.00,M,M,M,M,M,M,M,M,M,53.60,KINS 221501Z AUTO 31014KT 10SM BKN055 OVC065 12/M00 A2975 RMK AO2 DZE01 SLP044 $,M
INS,2022-04-22 15:03,-115.6733,36.5872,955.00,53.60,32.00,43.61,310.00,13.00,0.00,29.75,1004.40,10.00,M,OVC,M,M,M,5000.00,M,M,M,-DZ,M,M,M,M,M,M,53.60,KINS 221503Z AUTO 31013KT 10SM -DZ OVC050 12/00 A2975 RMK AO2 DZE01DZB03 SLP044 $,M
BVU,2022-04-22 15:15,-114.8611,35.9475,671.00,57.20,33.80,41.13,240.00,19.00,0.00,29.76,M,10.00,25.00,CLR,M,M,M,M,M,M,M,M,M,M,M,M,M,M,57.20,KBVU 221515Z AUTO 24019G25KT 10SM CLR 14/01 A2976 RMK AO2,M
HTH,2022-04-22 15:15,-118.6315,38.5448,1282.89,42.80,32.00,65.38,360.00,10.00,0.00,29.92,M,10.00,M,OVC,M,M,M,4900.00,M,M,M,M,M,M,M,M,M,M,36.51,KHTH 221515Z AUTO 36010KT 10SM OVC049 06/M00 A2992 RMK A01,M
BAM,2022-04-22 15:15,-116.8743,40.5990,1382.36,39.20,39.20,100.00,240.00,7.00,0.00,29.87,M,10.00,M,SCT,OVC,M,M,5000.00,6500.00,M,M,M,M,M,M,M,M,M,33.56,KBAM 221515Z AUTO 24007KT 10SM SCT050 OVC065 04/04 A2987 RMK AO1,M
MEV,2022-04-22 15:15,-119.7500,38.9963,1441.42,35.60,32.00,86.59,150.00,4.00,0.00,29.93,M,10.00,M,FEW,M,M,M,6000.00,M,M,M,M,M,M,M,M,M,M,31.62,KMEV 221515Z AUTO 15004KT 10SM FEW060 02/M00 A2993 RMK AO2,M
RTS,2022-04-22 15:15,-119.8764,39.6682,1539.00,35.60,24.80,64.46,270.00,13.00,0.00,29.94,M,10.00,M,CLR,M,M,M,M,M,M,M,M,M,M,M,M,M,M,26.18,KRTS 221515Z AUTO 27013KT 10SM CLR 02/M04 A2994 RMK AO2,M
CXP,2022-04-22 15:15,-119.7326,39.1923,1431.00,39.20,30.20,69.88,M,3.00,0.00,29.94,M,10.00,M,CLR,M,M,M,M,M,M,M,M,M,M,M,M,M,M,36.92,KCXP 221515Z AUTO VRB03KT 10SM CLR 04/M01 A2994 RMK AO2,M
TMT,2022-04-22 15:15,-117.1971,39.4643,1749.34,32.70,30.90,92.99,280.00,3.00,0.00,29.88,M,10.00,M,SCT,BKN,OVC,M,1400.00,3800.00,4400.00,M,M,M,M,M,M,M,M,29.49,KTMT 221515Z AUTO 28003KT 10SM SCT014 BKN038 OVC044 00/M01 A2988 RMK AO2 T00041006,M
LSV,2022-04-22 15:16,-115.0343,36.2362,570.00,60.80,35.60,38.85,220.00,23.00,0.00,29.71,1004.60,10.00,28.00,CLR,M,M,M,M,M,M,M,M,M,M,M,M,M,M,60.80,KLSV 221516Z AUTO 22023G28KT 10SM CLR 16/02 A2971 RMK AO2 WSHFT 06 SLP046 $,M
INS,2022-04-22 15:31,-115.6733,36.5872,955.00,48.20,39.20,70.88,10.00,17.00,0.00,29.77,1005.50,10.00,M,FEW,SCT,BKN,OVC,2500.00,3300.00,4800.00,5500.00,-RA,M,M,M,M,M,M,41.30,KINS 221531Z AUTO 01017KT 10SM -RA FEW025 SCT033 BKN048 OVC055 09/04 A2977 RMK AO2 WSHFT 18 DZE01DZB03E08RAB08 SLP055 $,M
BVU,2022-04-22 15:35,-114.8611,35.9475,671.00,57.20,32.00,38.26,240.00,19.00,0.00,29.77,M,10.00,M,SCT,M,M,M,9000.00,M,M,M,M,M,M,M,M,M,M,57.20,KBVU 221535Z AUTO 24019KT 10SM SCT090 14/00 A2977 RMK AO2,M
TMT,2022-04-22 15:35,-117.1971,39.4643,1749.34,33.00,30.90,92.25,300.00,4.00,0.01,29.89,M,5.00,M,SCT,BKN,OVC,M,2000.00,2500.00,3700.00,M,BR,M,M,M,M,M,M,28.47,KTMT 221535Z AUTO 30004KT 5SM BR SCT020 BKN025 OVC037 01/M01 A2989 RMK AO2 P0001 T00051006,M
MEV,2022-04-22 15:35,-119.7500,38.9963,1441.42,37.40,33.80,86.69,120.00,4.00,0.00,29.93,M,10.00,M,CLR,M,M,M,M,M,M,M,M,M,M,M,M,M,M,33.73,KMEV 221535Z AUTO 12004KT 10SM CLR 03/01 A2993 RMK AO2,M
BAM,2022-04-22 15:35,-116.8743,40.5990,1382.36,41.00,41.00,100.00,230.00,7.00,0.00,29.88,M,10.00,M,SCT,SCT,OVC,M,800.00,3100.00,6500.00,M,M,M,M,M,M,M,M,35.75,KBAM 221535Z AUTO 23007KT 10SM SCT008 SCT031 OVC065 05/05 A2988 RMK AO1,M
RTS,2022-04-22 15:35,-119.8764,39.6682,1539.00,37.40,24.80,60.04,300.00,10.00,0.00,29.95,M,10.00,M,CLR,M,M,M,M,M,M,M,M,M,M,M,M,M,M,29.74,KRTS 221535Z AUTO 30010KT 10SM CLR 03/M04 A2995 RMK AO2,M
HTH,2022-04-22 15:35,-118.6315,38.5448,1282.89,42.80,28.40,56.48,360.00,11.00,0.00,29.92,M,10.00,M,BKN,OVC,M,M,5000.00,5500.00,M,M,M,M,M,M,M,M,M,36.11,KHTH 221535Z AUTO 36011KT 10SM BKN050 OVC055 06/M02 A2992 RMK A01,M
CXP,2022-04-22 15:35,-119.7326,39.1923,1431.00,41.00,26.60,56.22,M,3.00,0.00,29.94,M,10.00,M,CLR,M,M,M,M,M,M,M,M,M,M,M,M,M,M,38.98,KCXP 221535Z AUTO VRB03KT 10SM CLR 05/M03 A2994 RMK AO2,M
INS,2022-04-22 15:41,-115.6733,36.5872,955.00,46.40,39.20,75.84,20.00,16.00,0.00,29.78,1005.90,10.00,M,SCT,BKN,BKN,OVC,2600.00,3300.00,4600.00,6000.00,-RA,M,M,M,M,M,M,39.19,KINS 221541Z AUTO 02016KT 10SM -RA SCT026 BKN033 BKN046 OVC060 08/04 A2978 RMK AO2 DZE01DZB03E08RAB08 SLP059 $,M
05U,2022-04-22 15:50,-116.0051,39.6042,1811.23,33.80,33.80,100.00,0.00,0.00,0.00,29.84,M,3.00,M,M,M,M,M,M,M,M,M,BR,M,M,M,M,M,M,33.80,K05U 221550Z AUTO 00000KT 3SM BR 01/01 A2984 RMK A01,M
INS,2022-04-22 15:51,-115.6733,36.5872,955.00,46.40,39.20,75.84,20.00,13.00,0.00,29.78,1005.90,10.00,M,FEW,SCT,BKN,OVC,2600.00,3200.00,4600.00,5500.00,-RA,M,M,M,M,M,M,40.02,KINS 221551Z AUTO 02013KT 10SM -RA FEW026 SCT032 BKN046 OVC055 08/04 A2978 RMK AO2 DZE01DZB03E08RAB08 SLP059 $,M
ELY,2022-04-22 15:51,-114.8453,39.2950,1909.00,30.20,30.20,100.00,10.00,22.00,0.05,29.75,M,0.50,M,SCT,OVC,M,M,400.00,800.00,M,M,-SN FZFG,M,M,M,33.00,360.00,2022-04-22 15:21,16.17,KELY 221551Z AUTO 01022KT 1/2SM -SN FZFG SCT004 OVC008 M01/M01 A2975 RMK AO2 PK WND 36033/1521 P0005,M
LOL,2022-04-22 15:53,-118.5701,40.0684,1192.43,42.00,37.00,81.98,0.00,0.00,0.00,29.92,1013.60,10.00,M,CLR,M,M,M,M,M,M,M,M,M,M,M,M,M,M,42.10,KLOL 221553Z AUTO 00000KT 10SM CLR 06/03 A2992 RMK AO2 SLP136 T00560028,M
DRA,2022-04-22 15:53,-116.0278,36.6206,1009.00,49.00,40.00,70.95,230.00,14.00,T,29.79,1006.00,10.00,M,OVC,M,M,M,4900.00,M,M,M,-RA,M,M,M,M,M,M,42.95,KDRA 221553Z AUTO 23014KT 10SM -RA OVC049 09/04 A2979 RMK AO2 RAB48 SLP060 P0000 T00940044 $,M
ELY,2022-04-22 15:53,-114.8453,39.2950,1909.00,30.90,30.90,100.00,10.00,21.00,0.05,29.75,1004.50,0.75,29.00,SCT,OVC,M,M,400.00,800.00,M,M,-SN BR,M,M,M,33.00,360.00,2022-04-22 15:21,17.39,KELY 221553Z AUTO 01021G29KT 3/4SM -SN BR SCT004 OVC008 M01/M01 A2975 RMK AO2 PK WND 36033/1521 SLP045 P0005 T10061006,M
P68,2022-04-22 15:53,-116.0056,39.6014,1993.00,33.00,30.90,91.51,330.00,5.00,0.00,29.81,1008.10,M,M,M,M,M,M,M,M,M,M,M,M,M,M,M,M,M,27.70,KP68 221553Z AUTO 33005KT 01/M01 A2981 RMK AO1 SLP081 T00061006,M
VGT,2022-04-22 15:53,-115.1933,36.2111,667.00,61.00,34.00,36.19,350.00,7.00,0.00,29.74,1007.40,10.00,M,CLR,M,M,M,M,M,M,M,M,M,M,M,35.00,250.00,2022-04-22 14:59,61.00,KVGT 221553Z 35007KT 10SM CLR 16/01 A2974 RMK AO2 PK WND 25035/1459 SLP074 T01610011,M
INS,2022-04-22 15:55,-115.6733,36.5872,955.00,46.40,39.20,75.84,20.00,12.00,0.00,29.79,1006.20,10.00,M,FEW,SCT,BKN,OVC,2600.00,3200.00,4800.00,5500.00,M,M,M,M,M,M,M,40.33,KINS 221555Z AUTO 02012KT 10SM FEW026 SCT032 BKN048 OVC055 08/04 A2979 RMK AO2 DZE01DZB03E08RAB08E55 SLP062 $,M
TMT,2022-04-22 15:55,-117.1971,39.4643,1749.34,32.50,31.10,94.51,290.00,6.00,0.01,29.90,M,3.00,M,BKN,OVC,M,M,2000.00,2800.00,M,M,-SN,M,M,M,M,M,M,26.13,KTMT 221555Z AUTO 29006KT 3SM -SN BKN020 OVC028 00/00 A2990 RMK AO2 P0001 T00031005,M
HTH,2022-04-22 15:55,-118.6315,38.5448,1282.89,44.60,28.40,52.72,350.00,12.00,0.00,29.93,M,10.00,M,BKN,BKN,M,M,5500.00,6500.00,M,M,M,M,M,M,M,M,M,38.04,KHTH 221555Z AUTO 35012KT 10SM BKN055 BKN065 07/M02 A2993 RMK A01,M
BAM,2022-04-22 15:55,-116.8743,40.5990,1382.36,41.00,41.00,100.00,240.00,8.00,0.00,29.88,M,10.00,M,SCT,BKN,OVC,M,800.00,1700.00,6500.00,M,M,M,M,M,M,M,M,35.20,KBAM 221555Z AUTO 24008KT 10SM SCT008 BKN017 OVC065 05/05 A2988 RMK AO1,M
MEV,2022-04-22 15:55,-119.7500,38.9963,1441.42,39.20,33.80,80.79,110.00,4.00,0.00,29.94,M,10.00,M,CLR,M,M,M,M,M,M,M,M,M,M,M,M,M,M,35.83,KMEV 221555Z AUTO 11004KT 10SM CLR 04/01 A2994 RMK AO2,M
RTS,2022-04-22 15:55,-119.8764,39.6682,1539.00,37.40,24.80,60.04,300.00,13.00,0.00,29.95,M,10.00,M,CLR,M,M,M,M,M,M,M,M,M,M,M,M,M,M,28.49,KRTS 221555Z AUTO 30013KT 10SM CLR 03/M04 A2995 RMK AO2,M
RNO,2022-04-22 15:55,-119.7711,39.4839,1341.00,43.00,24.10,46.91,340.00,12.00,0.00,29.94,1013.10,10.00,M,FEW,FEW,M,M,4000.00,10000.00,M,M,M,M,M,M,M,M,M,36.00,KRNO 221555Z 34012KT 10SM FEW040 FEW100 06/M04 A2994 RMK AO2 SLP131 T00611044,M
CXP,2022-04-22 15:55,-119.7326,39.1923,1431.00,41.00,24.80,52.17,0.00,0.00,0.00,29.94,M,10.00,M,CLR,M,M,M,M,M,M,M,M,M,M,M,M,M,M,41.00,KCXP 221555Z AUTO 00000KT 10SM CLR 05/M04 A2994 RMK AO2,M
BVU,2022-04-22 15:55,-114.8611,35.9475,671.00,59.00,32.00,35.87,230.00,20.00,0.00,29.76,M,10.00,28.00,FEW,M,M,M,9000.00,M,M,M,M,M,M,M,M,M,M,59.00,KBVU 221555Z AUTO 23020G28KT 10SM FEW090 15/00 A2976 RMK AO2,M
TPH,2022-04-22 15:56,-117.0904,38.0505,1654.00,41.00,28.00,59.55,330.00,20.00,0.00,29.85,1008.20,10.00,28.00,SCT,BKN,M,M,7500.00,11000.00,M,M,M,M,M,M,34.00,320.00,2022-04-22 15:00,31.09,KTPH 221556Z AUTO 33020G28KT 10SM SCT075 BKN110 05/M02 A2985 RMK AO2 PK WND 32034/1500 SLP082 T00501022,M
WMC,2022-04-22 15:56,-117.8072,40.9019,1315.00,42.00,30.90,64.24,270.00,9.00,T,29.90,1012.30,10.00,M,BKN,BKN,OVC,M,4600.00,6000.00,7000.00,M,M,M,M,M,M,M,M,36.07,KWMC 221556Z AUTO 27009KT 10SM BKN046 BKN060 OVC070 06/M01 A2990 RMK AO2 RAB08E24 SLP123 P0000 T00561006,M
HND,2022-04-22 15:56,-115.1344,35.9729,742.79,55.00,35.00,46.91,230.00,21.00,0.00,29.78,1008.90,10.00,27.00,OVC,M,M,M,9000.00,M,M,M,M,M,M,M,29.00,220.00,2022-04-22 15:44,55.00,KHND 221556Z 23021G27KT 10SM OVC090 13/02 A2978 RMK AO2 PK WND 22029/1544 SLP089 T01280017,M
LAS,2022-04-22 15:56,-115.1634,36.0719,663.00,58.00,35.00,42.24,240.00,15.00,0.00,29.77,1006.60,10.00,24.00,FEW,SCT,BKN,M,5500.00,10000.00,15000.00,M,M,M,M,M,28.00,260.00,2022-04-22 15:08,57.90,KLAS 221556Z 24015G24KT 10SM FEW055 SCT100 BKN150 14/02 A2977 RMK AO2 PK WND 26028/1508 SLP066 VIRGA DSNT W-N T01440017 $,M
NFL,2022-04-22 15:56,-118.7010,39.4166,1199.00,44.00,34.00,67.41,300.00,8.00,0.00,29.93,1010.70,10.00,M,SCT,SCT,SCT,M,5000.00,10000.00,18000.00,M,M,M,M,M,M,M,M,39.02,KNFL 221556Z 30008KT 10SM SCT050 SCT100 SCT180 07/01 A2993 RMK AO2 SLP107 T00670011,M
EKO,2022-04-22 15:56,-115.7860,40.8242,1367.00,39.00,35.00,85.76,240.00,6.00,0.00,29.81,1009.60,10.00,M,SCT,BKN,OVC,M,1300.00,2000.00,6000.00,M,M,M,M,M,M,M,M,33.96,KEKO 221556Z AUTO 24006KT 10SM SCT013 BKN020 OVC060 04/02 A2981 RMK AO2 SLP096 T00390017,M
LSV,2022-04-22 15:58,-115.0343,36.2362,570.00,63.50,34.70,34.08,310.00,5.00,0.00,29.73,1005.10,10.00,25.00,FEW,SCT,BKN,M,5000.00,12000.00,15000.00,M,M,M,M,M,32.00,220.00,2022-04-22 15:19,63.50,KLSV 221558Z 31005G25KT 10SM FEW050 SCT120 BKN150 18/02 A2973 RMK AO2A PK WND 22032/19 SLP051 T01750015 $,M
INS,2022-04-22 15:58,-115.6733,36.5872,955.00,46.60,39.70,76.75,30.00,13.00,T,29.79,1006.20,10.00,M,FEW,FEW,BKN,OVC,2600.00,3200.00,4800.00,5500.00,M,M,M,M,M,M,M,40.27,KINS 221558Z AUTO 03013KT 10SM FEW026 FEW032 BKN048 OVC055 08/04 A2979 RMK AO2 DZE01DZB03E08RAB08E55 SLP062 P0000 T00810043 $,M
05U,2022-04-22 16:10,-116.0051,39.6042,1811.23,33.80,33.80,100.00,0.00,0.00,0.00,29.84,M,1.75,M,VV ,M,M,M,700.00,M,M,M,BR,M,M,M,M,M,M,33.80,K05U 221610Z AUTO 00000KT 1 3/4SM BR VV007 01/01 A2984 RMK A01,M
ELY,2022-04-22 16:12,-114.8453,39.2950,1909.00,30.90,30.90,100.00,10.00,18.00,T,29.76,M,0.75,M,BKN,OVC,M,M,400.00,1200.00,M,M,-SN BR,M,M,M,27.00,360.00,2022-04-22 15:56,18.30,KELY 221612Z AUTO 01018KT 3/4SM -SN BR BKN004 OVC012 M01/M01 A2976 RMK AO2 PK WND 36027/1556 P0000 T10061006,M
BVU,2022-04-22 16:15,-114.8611,35.9475,671.00,59.00,32.00,35.87,230.00,24.00,0.00,29.78,M,10.00,33.00,CLR,M,M,M,M,M,M,M,M,M,M,M,M,M,M,59.00,KBVU 221615Z AUTO 23024G33KT 10SM CLR 15/00 A2978 RMK AO2,M
CXP,2022-04-22 16:15,-119.7326,39.1923,1431.00,42.80,23.00,45.14,M,5.00,0.00,29.95,M,10.00,M,CLR,M,M,M,M,M,M,M,M,M,M,M,M,M,M,39.22,KCXP 221615Z AUTO VRB05KT 10SM CLR 06/M05 A2995 RMK AO2,M
RTS,2022-04-22 16:15,-119.8764,39.6682,1539.00,37.40,23.00,55.68,300.00,14.00,0.00,29.96,M,10.00,M,FEW,M,M,M,2900.00,M,M,M,M,M,M,M,M,M,M,28.12,KRTS 221615Z AUTO 30014KT 10SM FEW029 03/M05 A2996 RMK AO2,M
MEV,2022-04-22 16:15,-119.7500,38.9963,1441.42,41.00,28.40,60.54,0.00,0.00,0.00,29.94,M,10.00,M,FEW,M,M,M,4900.00,M,M,M,M,M,M,M,M,M,M,41.00,KMEV 221615Z AUTO 00000KT 10SM FEW049 05/M02 A2994 RMK AO2,M
BAM,2022-04-22 16:15,-116.8743,40.5990,1382.36,41.00,37.40,86.89,240.00,9.00,0.00,29.89,M,10.00,M,SCT,BKN,OVC,M,1200.00,1800.00,2200.00,M,M,M,M,M,M,M,M,34.70,KBAM 221615Z AUTO 24009KT 10SM SCT012 BKN018 OVC022 05/03 A2989 RMK AO1,M
HTH,2022-04-22 16:15,-118.6315,38.5448,1282.89,44.60,28.40,52.72,350.00,7.00,0.00,29.93,M,10.00,15.00,BKN,BKN,M,M,5500.00,6500.00,M,M,M,M,M,M,M,M,M,40.14,KHTH 221615Z AUTO 35007G15KT 10SM BKN055 BKN065 07/M02 A2993 RMK A01,M
TMT,2022-04-22 16:15,-117.1971,39.4643,1749.34,32.00,31.10,96.43,270.00,6.00,0.00,29.91,M,1.00,M,OVC,M,M,M,1500.00,M,M,M,-SN,M,M,M,M,M,M,25.53,KTMT 221615Z AUTO 27006KT 1SM -SN OVC015 00/00 A2991 RMK AO2 T00001005,M
ELY,2022-04-22 16:20,-114.8453,39.2950,1909.00,30.90,30.90,100.00,10.00,16.00,T,29.76,M,1.00,24.00,BKN,OVC,M,M,400.00,1200.00,M,M,-SN BR,M,M,M,27.00,360.00,2022-04-22 15:56,18.98,KELY 221620Z AUTO 01016G24KT 1SM -SN BR BKN004 OVC012 M01/M01 A2976 RMK AO2 PK WND 36027/1556 P0000 T10061006,M
ELY,2022-04-22 16:29,-114.8453,39.2950,1909.00,30.90,30.90,100.00,10.00,16.00,0.01,29.77,M,1.00,23.00,BKN,OVC,M,M,500.00,1200.00,M,M,-SN BR,M,M,M,27.00,360.00,2022-04-22 15:56,18.98,KELY 221629Z AUTO 01016G23KT 1SM -SN BR BKN005 OVC012 M01/M01 A2977 RMK AO2 PK WND 36027/1556 P0001 T10061006,M
05U,2022-04-22 16:30,-116.0051,39.6042,1811.23,35.60,33.80,93.08,0.00,0.00,0.00,29.84,M,2.00,M,SCT,SCT,SCT,M,400.00,1400.00,1900.00,M,BR,M,M,M,M,M,M,35.60,K05U 221630Z AUTO 00000KT 2SM BR SCT004 SCT014 SCT019 02/01 A2984 RMK A01,M
DRA,2022-04-22 16:33,-116.0278,36.6206,1009.00,44.00,39.00,82.12,340.00,20.00,0.02,29.85,M,1.75,29.00,FEW,BKN,OVC,M,1700.00,3100.00,5000.00,M,RA,M,M,M,29.00,320.00,2022-04-22 16:33,35.21,KDRA 221633Z AUTO 34020G29KT 1 3/4SM RA FEW017 BKN031 OVC050 07/04 A2985 RMK AO2 PK WND 32029/1633 WSHFT 1619 VIS 1V5 PRESRR P0002 T00670039,M
CXP,2022-04-22 16:35,-119.7326,39.1923,1431.00,44.60,24.80,45.44,0.00,0.00,0.00,29.95,M,10.00,10.00,FEW,M,M,M,4000.00,M,M,M,M,M,M,M,M,M,M,44.60,KCXP 221635Z AUTO 00000G10KT 10SM FEW040 07/M04 A2995 RMK AO2,M
BVU,2022-04-22 16:35,-114.8611,35.9475,671.00,57.20,32.00,38.26,230.00,16.00,0.00,29.80,M,10.00,26.00,CLR,M,M,M,M,M,M,M,M,M,M,M,M,M,M,57.20,KBVU 221635Z AUTO 23016G26KT 10SM CLR 14/00 A2980 RMK AO2,M
RTS,2022-04-22 16:35,-119.8764,39.6682,1539.00,39.20,24.80,55.95,290.00,10.00,0.00,29.96,M,10.00,17.00,CLR,M,M,M,M,M,M,M,M,M,M,M,M,M,M,32.00,KRTS 221635Z AUTO 29010G17KT 10SM CLR 04/M04 A2996 RMK AO2,M
MEV,2022-04-22 16:35,-119.7500,38.9963,1441.42,41.00,28.40,60.54,360.00,3.00,0.00,29.94,M,10.00,M,BKN,M,M,M,4600.00,M,M,M,M,M,M,M,M,M,M,38.98,KMEV 221635Z AUTO 36003KT 10SM BKN046 05/M02 A2994 RMK AO2,M
BAM,2022-04-22 16:35,-116.8743,40.5990,1382.36,41.00,37.40,86.89,230.00,6.00,0.00,29.89,M,10.00,M,SCT,OVC,M,M,1300.00,2000.00,M,M,M,M,M,M,M,M,M,36.37,KBAM 221635Z AUTO 23006KT 10SM SCT013 OVC020 05/03 A2989 RMK AO1,M
HTH,2022-04-22 16:35,-118.6315,38.5448,1282.89,44.60,28.40,52.72,330.00,8.00,0.00,29.93,M,10.00,14.00,FEW,OVC,M,M,3700.00,5500.00,M,M,M,M,M,M,M,M,M,39.63,KHTH 221635Z AUTO 33008G14KT 10SM FEW037 OVC055 07/M02 A2993 RMK A01,M
TMT,2022-04-22 16:35,-117.1971,39.4643,1749.34,32.00,31.10,96.43,270.00,4.00,0.01,29.92,M,0.75,M,OVC,M,M,M,1300.00,M,M,M,-SN,M,M,M,M,M,M,27.42,KTMT 221635Z AUTO 27004KT 3/4SM -SN OVC013 00/00 A2992 RMK AO2 P0001 T00001005,M
INS,2022-04-22 16:43,-115.6733,36.5872,955.00,48.20,39.20,70.88,350.00,15.00,0.00,29.83,1007.60,10.00,20.00,FEW,OVC,M,M,3100.00,4800.00,M,M,M,M,M,M,M,M,M,41.78,KINS 221643Z AUTO 35015G20KT 10SM FEW031 OVC048 09/04 A2983 RMK AO2 SLP076 $,M
DRA,2022-04-22 16:44,-116.0278,36.6206,1009.00,43.00,39.00,85.66,320.00,4.00,0.07,29.85,M,2.50,27.00,FEW,BKN,OVC,M,2100.00,2600.00,3900.00,M,-RA BR,M,M,M,32.00,320.00,2022-04-22 16:34,40.27,KDRA 221644Z AUTO 32004G27KT 2 1/2SM -RA BR FEW021 BKN026 OVC039 06/04 A2985 RMK AO2 PK WND 32032/1634 WSHFT 1619 P0007 T00610039,M
INS,2022-04-22 16:44,-115.6733,36.5872,955.00,48.20,39.20,70.88,340.00,20.00,0.00,29.83,1007.60,10.00,26.00,FEW,OVC,M,M,3100.00,4800.00,M,M,M,M,M,M,M,M,M,40.66,KINS 221644Z AUTO 34020G26KT 10SM FEW031 OVC048 09/04 A2983 RMK AO2 WSHFT 33 SLP076 $,M
INS,2022-04-22 16:48,-115.6733,36.5872,955.00,48.20,37.40,66.05,330.00,26.00,0.00,29.82,1007.30,9.00,32.00,FEW,SCT,OVC,M,2600.00,3100.00,4700.00,M,-RA,M,M,M,M,M,M,39.58,KINS 221648Z AUTO 33026G32KT 9SM -RA FEW026 SCT031 OVC047 09/03 A2982 RMK AO2 RAB48 SLP073 $,M
DRA,2022-04-22 16:48,-116.0278,36.6206,1009.00,43.00,39.00,85.66,0.00,0.00,0.08,29.85,M,6.00,M,FEW,BKN,OVC,M,2400.00,3000.00,3900.00,M,-RA BR,M,M,M,32.00,320.00,2022-04-22 16:34,43.00,KDRA 221648Z AUTO 00000KT 6SM -RA BR FEW024 BKN030 OVC039 06/04 A2985 RMK AO2 PK WND 32032/1634 WSHFT 1619 P0008 T00610039,M
05U,2022-04-22 16:50,-116.0051,39.6042,1811.23,35.60,33.80,93.08,0.00,0.00,0.00,29.85,M,4.00,M,FEW,M,M,M,300.00,M,M,M,BR,M,M,M,M,M,M,35.60,K05U 221650Z AUTO 00000KT 4SM BR FEW003 02/01 A2985 RMK A01,M
INS,2022-04-22 16:50,-115.6733,36.5872,955.00,46.40,37.40,70.68,320.00,26.00,0.00,29.82,1007.30,8.00,32.00,FEW,FEW,SCT,OVC,400.00,2600.00,3100.00,4700.00,-RA,M,M,M,M,M,M,37.14,KINS 221650Z AUTO 32026G32KT 8SM -RA FEW004 FEW026 SCT031 OVC047 08/03 A2982 RMK AO2 RAB48 SLP073 $,M
ELY,2022-04-22 16:53,-114.8453,39.2950,1909.00,32.00,30.90,95.65,20.00,14.00,0.01,29.77,1005.60,1.25,M,BKN,OVC,M,M,700.00,1400.00,M,M,-SN BR,M,M,M,27.00,360.00,2022-04-22 15:56,21.16,KELY 221653Z AUTO 02014KT 1 1/4SM -SN BR BKN007 OVC014 00/M01 A2977 RMK AO2 PK WND 36027/1556 SLP056 P0001 T00001006,M
VGT,2022-04-22 16:53,-115.1933,36.2111,667.00,58.00,37.00,45.54,350.00,17.00,0.00,29.78,1008.90,10.00,26.00,FEW,M,M,M,5500.00,M,M,M,M,M,M,M,30.00,340.00,2022-04-22 16:22,57.90,KVGT 221653Z 35017G26KT 10SM FEW055 14/03 A2978 RMK AO2 PK WND 34030/1622 SLP089 T01440028,M
LOL,2022-04-22 16:53,-118.5701,40.0684,1192.43,43.00,32.00,64.88,0.00,0.00,0.00,29.93,1013.70,10.00,M,SCT,M,M,M,3600.00,M,M,M,M,M,M,M,M,M,M,43.00,KLOL 221653Z AUTO 00000KT 10SM SCT036 06/00 A2993 RMK AO2 SLP137 T00610000,M
DRA,2022-04-22 16:53,-116.0278,36.6206,1009.00,43.00,40.00,88.71,0.00,0.00,0.08,29.85,1008.70,9.00,M,FEW,BKN,OVC,M,2400.00,3000.00,3900.00,M,-RA,M,M,M,32.00,320.00,2022-04-22 16:34,43.00,KDRA 221653Z AUTO 00000KT 9SM -RA FEW024 BKN030 OVC039 06/04 A2985 RMK AO2 PK WND 32032/1634 WSHFT 1619 SLP087 P0008 T00610044,M
P68,2022-04-22 16:53,-116.0056,39.6014,1993.00,35.00,32.00,88.33,350.00,4.00,0.01,29.82,1008.20,M,M,M,M,M,M,M,M,M,M,M,M,M,M,M,M,M,31.04,KP68 221653Z AUTO 35004KT 02/00 A2982 RMK AO1 SLP082 P0001 T00170000,M
RTS,2022-04-22 16:55,-119.8764,39.6682,1539.00,39.20,24.80,55.95,290.00,13.00,0.00,29.97,M,10.00,M,SCT,M,M,M,3200.00,M,M,M,M,M,M,M,M,M,M,30.79,KRTS 221655Z AUTO 29013KT 10SM SCT032 04/M04 A2997 RMK AO2,M
RNO,2022-04-22 16:55,-119.7711,39.4839,1341.00,46.00,24.10,41.84,320.00,13.00,0.00,29.96,1013.40,10.00,19.00,SCT,M,M,M,4600.00,M,M,M,M,M,M,M,M,M,M,39.50,KRNO 221655Z 32013G19KT 10SM SCT046 08/M04 A2996 RMK AO2 SLP134 MTN TOPS OBSCD DSNT SW T00781044,M
MEV,2022-04-22 16:55,-119.7500,38.9963,1441.42,42.80,28.40,56.48,0.00,0.00,0.00,29.95,M,10.00,M,FEW,BKN,M,M,3700.00,4700.00,M,M,M,M,M,M,M,M,M,42.80,KMEV 221655Z AUTO 00000KT 10SM FEW037 BKN047 06/M02 A2995 RMK AO2,M
BAM,2022-04-22 16:55,-116.8743,40.5990,1382.36,42.80,33.80,70.28,330.00,8.00,0.00,29.89,M,10.00,M,SCT,BKN,OVC,M,1800.00,3000.00,3700.00,M,M,M,M,M,M,M,M,37.42,KBAM 221655Z AUTO 33008KT 10SM SCT018 BKN030 OVC037 06/01 A2989 RMK AO1,M
HTH,2022-04-22 16:55,-118.6315,38.5448,1282.89,44.60,26.60,48.96,360.00,7.00,0.00,29.93,M,10.00,14.00,FEW,SCT,BKN,M,3800.00,5000.00,6000.00,M,M,M,M,M,M,M,M,40.14,KHTH 221655Z AUTO 36007G14KT 10SM FEW038 SCT050 BKN060 07/M03 A2993 RMK A01,M
BVU,2022-04-22 16:55,-114.8611,35.9475,671.00,59.00,33.80,38.56,250.00,11.00,0.00,29.81,M,10.00,22.00,SCT,M,M,M,7000.00,M,M,M,M,M,M,M,M,M,M,59.00,KBVU 221655Z AUTO 25011G22KT 10SM SCT070 15/01 A2981 RMK AO2,M
CXP,2022-04-22 16:55,-119.7326,39.1923,1431.00,44.60,24.80,45.44,M,4.00,0.00,29.96,M,10.00,11.00,FEW,M,M,M,4200.00,M,M,M,M,M,M,M,M,M,M,42.13,KCXP 221655Z AUTO VRB04G11KT 10SM FEW042 07/M04 A2996 RMK AO2,M
TMT,2022-04-22 16:55,-117.1971,39.4643,1749.34,32.00,31.30,97.21,240.00,3.00,0.01,29.92,M,0.75,M,BKN,OVC,M,M,600.00,1300.00,M,M,-SN,M,M,M,M,M,M,28.69,KTMT 221655Z AUTO 24003KT 3/4SM -SN BKN006 OVC013 00/00 A2992 RMK AO2 P0001 T00001004,M
INS,2022-04-22 16:55,-115.6733,36.5872,955.00,44.60,37.40,75.68,310.00,25.00,0.00,29.84,1008.10,6.00,32.00,FEW,SCT,BKN,OVC,400.00,2600.00,3200.00,4700.00,RA,M,M,M,M,M,M,34.87,KINS 221655Z AUTO 31025G32KT 6SM RA FEW004 SCT026 BKN032 OVC047 07/03 A2984 RMK AO2 RAB48 PRESRR SLP081 $,M
LAS,2022-04-22 16:56,-115.1634,36.0719,663.00,58.00,34.00,40.43,270.00,18.00,0.00,29.81,1008.10,10.00,26.00,SCT,BKN,M,M,5500.00,7000.00,M,M,M,M,M,M,30.00,260.00,2022-04-22 16:18,57.90,KLAS 221656Z 27018G26KT 10SM SCT055 BKN070 14/01 A2981 RMK AO2 PK WND 26030/1618 SLP081 VIRGA DSNT W-N T01440011,M
EKO,2022-04-22 16:56,-115.7860,40.8242,1367.00,42.00,33.00,70.20,M,5.00,0.00,29.82,1009.70,10.00,M,FEW,SCT,OVC,M,1700.00,2200.00,2900.00,M,M,M,M,M,M,M,M,38.39,KEKO 221656Z AUTO VRB05KT 10SM FEW017 SCT022 OVC029 06/01 A2982 RMK AO2 SLP097 T00560006,M
HND,2022-04-22 16:56,-115.1344,35.9729,742.79,57.00,35.00,43.63,230.00,12.00,0.00,29.82,1010.30,10.00,M,FEW,BKN,OVC,M,4700.00,7000.00,10000.00,M,M,M,M,M,26.00,230.00,2022-04-22 15:58,57.00,KHND 221656Z 23012KT 10SM FEW047 BKN070 OVC100 14/02 A2982 RMK AO2 PK WND 23026/1558 SLP103 T01390017,M
WMC,2022-04-22 16:56,-117.8072,40.9019,1315.00,44.00,30.00,57.37,260.00,8.00,0.00,29.91,1012.60,10.00,M,BKN,BKN,OVC,M,6000.00,8000.00,9000.00,M,M,M,M,M,M,M,M,39.02,KWMC 221656Z AUTO 26008KT 10SM BKN060 BKN080 OVC090 07/M01 A2991 RMK AO2 SLP126 T00671011,M
NFL,2022-04-22 16:56,-118.7010,39.4166,1199.00,45.00,30.00,55.43,310.00,9.00,0.00,29.93,1010.90,10.00,M,SCT,SCT,M,M,5000.00,12000.00,M,M,M,M,M,M,M,M,M,39.68,KNFL 221656Z 31009KT 10SM SCT050 SCT120 07/M01 A2993 RMK AO2 SLP109 T00721011,M
TPH,2022-04-22 16:56,-117.0904,38.0505,1654.00,44.00,25.00,46.70,330.00,24.00,0.00,29.86,1008.70,10.00,35.00,CLR,M,M,M,M,M,M,M,M,M,M,M,36.00,330.00,2022-04-22 16:42,34.38,KTPH 221656Z AUTO 33024G35KT 10SM CLR 07/M04 A2986 RMK AO2 PK WND 33036/1642 SLP087 T00671039,M
ELY,2022-04-22 16:57,-114.8453,39.2950,1909.00,32.00,30.90,95.65,20.00,14.00,T,29.77,M,1.50,M,SCT,OVC,M,M,700.00,1600.00,M,M,-SN BR,M,M,M,M,M,M,21.16,KELY 221657Z AUTO 02014KT 1 1/2SM -SN BR SCT007 OVC016 00/M01 A2977 RMK AO2 P0000 T00001006,M
LSV,2022-04-22 16:58,-115.0343,36.2362,570.00,59.50,37.00,43.00,340.00,16.00,0.00,29.79,1007.40,10.00,M,FEW,BKN,M,M,5500.00,7000.00,M,M,M,M,M,M,M,M,M,59.50,KLSV 221658Z 34016KT 10SM FEW055 BKN070 15/03 A2979 RMK AO2A SLP074 T01530028 $,M
INS,2022-04-22 16:58,-115.6733,36.5872,955.00,44.00,37.60,77.74,300.00,24.00,0.06,29.84,1008.10,5.00,32.00,SCT,SCT,BKN,OVC,400.00,2600.00,3200.00,4700.00,RA,M,M,M,33.00,320.00,2022-04-22 16:46,34.38,KINS 221658Z AUTO 30024G32KT 5SM RA SCT004 SCT026 BKN032 OVC047 07/03 A2984 RMK AO2 PK WND 32033/46 RAB48 SLP081 P0006 T00670031 $,M
INS,2022-04-22 17:03,-115.6733,36.5872,955.00,42.80,39.20,86.99,290.00,21.00,0.00,29.85,1008.50,8.00,32.00,SCT,BKN,BKN,OVC,400.00,2700.00,3300.00,4700.00,RA,M,M,M,M,M,M,33.26,KINS 221703Z AUTO 29021G32KT 8SM RA SCT004 BKN027 BKN033 OVC047 06/04 A2985 RMK AO2 CIG 027V032 SLP085 $,M
INS,2022-04-22 17:08,-115.6733,36.5872,955.00,42.80,39.20,86.99,290.00,17.00,0.00,29.86,1008.80,8.00,26.00,SCT,BKN,OVC,M,400.00,3000.00,4700.00,M,RA,M,M,M,M,M,M,34.22,KINS 221708Z AUTO 29017G26KT 8SM RA SCT004 BKN030 OVC047 06/04 A2986 RMK AO2 SLP088 $,M
05U,2022-04-22 17:10,-116.0051,39.6042,1811.23,37.40,33.80,86.69,0.00,0.00,0.00,29.86,M,8.00,M,FEW,M,M,M,2200.00,M,M,M,M,M,M,M,M,M,M,37.40,K05U 221710Z AUTO 00000KT 8SM FEW022 03/01 A2986 RMK A01,M
LAS,2022-04-22 17:11,-115.1634,36.0719,663.00,58.00,38.00,47.18,330.00,8.00,0.00,29.82,M,10.00,18.00,OVC,M,M,M,5500.00,M,M,M,M,M,M,M,M,M,M,57.90,KLAS 221711Z 33008G18KT 10SM OVC055 14/03 A2982 RMK AO2 WSHFT 1651 T01440033,M
INS,2022-04-22 17:13,-115.6733,36.5872,955.00,42.80,39.20,86.99,280.00,18.00,0.00,29.86,1008.80,6.00,M,BKN,BKN,BKN,OVC,400.00,2800.00,3400.00,4700.00,RA,M,M,M,M,M,M,33.97,KINS 221713Z AUTO 28018KT 6SM RA BKN004 BKN028 BKN034 OVC047 06/04 A2986 RMK AO2 CIG 004V030 BKN004 V SCT SLP088 $,M
EKO,2022-04-22 17:14,-115.7860,40.8242,1367.00,43.00,28.90,57.21,320.00,10.00,0.00,29.82,M,10.00,M,FEW,BKN,OVC,M,2400.00,3000.00,3600.00,M,M,M,M,M,M,M,M,36.76,KEKO 221714Z AUTO 32010KT 10SM FEW024 BKN030 OVC036 06/M02 A2982 RMK AO2 T00611017,M
CXP,2022-04-22 17:15,-119.7326,39.1923,1431.00,46.40,24.80,42.44,330.00,9.00,0.00,29.97,M,10.00,M,SCT,SCT,M,M,4300.00,5000.00,M,M,M,M,M,M,M,M,M,41.42,KCXP 221715Z AUTO 33009KT 10SM SCT043 SCT050 08/M04 A2997 RMK AO2,M
RTS,2022-04-22 17:15,-119.8764,39.6682,1539.00,39.20,24.80,55.95,290.00,14.00,0.00,29.98,M,10.00,M,SCT,BKN,M,M,3300.00,5500.00,M,M,M,M,M,M,M,M,M,30.44,KRTS 221715Z AUTO 29014KT 10SM SCT033 BKN055 04/M04 A2998 RMK AO2,M
BVU,2022-04-22 17:15,-114.8611,35.9475,671.00,59.00,33.80,38.56,240.00,13.00,0.00,29.82,M,10.00,M,BKN,OVC,M,M,6000.00,7000.00,M,M,M,M,M,M,M,M,M,59.00,KBVU 221715Z AUTO 24013KT 10SM BKN060 OVC070 15/01 A2982 RMK AO2,M
TMT,2022-04-22 17:15,-117.1971,39.4643,1749.34,32.40,31.50,96.44,190.00,3.00,0.00,29.93,M,7.00,M,SCT,BKN,OVC,M,1100.00,1900.00,2900.00,M,M,M,M,M,M,M,M,29.15,KTMT 221715Z AUTO 19003KT 7SM SCT011 BKN019 OVC029 00/00 A2993 RMK AO2 T00021003,M
MEV,2022-04-22 17:15,-119.7500,38.9963,1441.42,42.80,28.40,56.48,350.00,5.00,0.00,29.95,M,10.00,M,BKN,M,M,M,4700.00,M,M,M,M,M,M,M,M,M,M,39.22,KMEV 221715Z AUTO 35005KT 10SM BKN047 06/M02 A2995 RMK AO2,M
BAM,2022-04-22 17:15,-116.8743,40.5990,1382.36,42.80,37.40,81.07,0.00,0.00,0.00,29.90,M,10.00,M,BKN,OVC,M,M,2800.00,3700.00,M,M,M,M,M,M,M,M,M,42.80,KBAM 221715Z AUTO 00000KT 10SM BKN028 OVC037 06/03 A2990 RMK AO1,M
HTH,2022-04-22 17:15,-118.6315,38.5448,1282.89,44.60,26.60,48.96,300.00,4.00,0.00,29.94,M,10.00,11.00,FEW,SCT,SCT,M,4300.00,5000.00,6000.00,M,M,M,M,M,M,M,M,42.13,KHTH 221715Z AUTO 30004G11KT 10SM FEW043 SCT050 SCT060 07/M03 A2994 RMK A01,M
INS,2022-04-22 17:18,-115.6733,36.5872,955.00,42.80,39.20,86.99,280.00,14.00,0.00,29.86,1008.80,4.00,M,BKN,OVC,M,M,400.00,4600.00,M,M,+RA,M,M,M,M,M,M,35.08,KINS 221718Z AUTO 28014KT 4SM +RA BKN004 OVC046 06/04 A2986 RMK AO2 CIG 004V030 BKN V SCT SLP088 $,M
INS,2022-04-22 17:28,-115.6733,36.5872,955.00,44.60,39.20,81.20,240.00,11.00,0.00,29.86,1008.80,6.00,M,BKN,OVC,M,M,400.00,2600.00,M,M,RA,M,M,M,M,M,M,38.39,KINS 221728Z AUTO 24011KT 6SM RA BKN004 OVC026 07/04 A2986 RMK AO2 SLP088 $,M
05U,2022-04-22 17:30,-116.0051,39.6042,1811.23,35.60,33.80,93.08,0.00,0.00,0.00,29.86,M,3.00,M,SCT,SCT,BKN,M,500.00,1500.00,1900.00,M,BR,M,M,M,M,M,M,35.60,K05U 221730Z AUTO 00000KT 3SM BR SCT005 SCT015 BKN019 02/01 A2986 RMK A01,M
HTH,2022-04-22 17:35,-118.6315,38.5448,1282.89,46.40,26.60,45.73,310.00,4.00,0.00,29.95,M,10.00,M,FEW,SCT,SCT,M,4600.00,5500.00,6500.00,M,M,M,M,M,M,M,M,44.24,KHTH 221735Z AUTO 31004KT 10SM FEW046 SCT055 SCT065 08/M03 A2995 RMK A01,M
TMT,2022-04-22 17:35,-117.1971,39.4643,1749.34,33.30,31.80,94.15,160.00,4.00,0.00,29.93,M,10.00,M,SCT,BKN,OVC,M,700.00,4300.00,6500.00,M,M,M,M,M,M,M,M,28.94,KTMT 221735Z AUTO 16004KT 10SM SCT007 BKN043 OVC065 01/00 A2993 RMK AO2 T00071001,M
CXP,2022-04-22 17:35,-119.7326,39.1923,1431.00,48.20,24.80,39.66,320.00,9.00,0.00,29.98,M,10.00,M,SCT,SCT,M,M,4100.00,5500.00,M,M,M,M,M,M,M,M,M,43.66,KCXP 221735Z AUTO 32009KT 10SM SCT041 SCT055 09/M04 A2998 RMK AO2,M
RTS,2022-04-22 17:35,-119.8764,39.6682,1539.00,41.00,24.80,52.17,320.00,10.00,0.00,29.99,M,10.00,17.00,SCT,SCT,BKN,M,3300.00,3900.00,4600.00,M,M,M,M,M,M,M,M,34.25,KRTS 221735Z AUTO 32010G17KT 10SM SCT033 SCT039 BKN046 05/M04 A2999 RMK AO2,M
BAM,2022-04-22 17:35,-116.8743,40.5990,1382.36,44.60,33.80,65.61,260.00,6.00,0.00,29.91,M,10.00,M,SCT,BKN,OVC,M,2300.00,4300.00,5000.00,M,M,M,M,M,M,M,M,40.71,KBAM 221735Z AUTO 26006KT 230V300 10SM SCT023 BKN043 OVC050 07/01 A2991 RMK AO1,M
BVU,2022-04-22 17:35,-114.8611,35.9475,671.00,60.80,33.80,36.16,260.00,11.00,0.00,29.83,M,10.00,21.00,BKN,OVC,M,M,6000.00,7000.00,M,M,M,M,M,M,M,M,M,60.80,KBVU 221735Z AUTO 26011G21KT 10SM BKN060 OVC070 16/01 A2983 RMK AO2,M
MEV,2022-04-22 17:35,-119.7500,38.9963,1441.42,42.80,28.40,56.48,0.00,0.00,0.00,29.96,M,10.00,M,SCT,BKN,M,M,3800.00,4700.00,M,M,M,M,M,M,M,M,M,42.80,KMEV 221735Z AUTO 00000KT 10SM SCT038 BKN047 06/M02 A2996 RMK AO2,M
INS,2022-04-22 17:38,-115.6733,36.5872,955.00,44.60,39.20,81.20,230.00,15.00,0.00,29.86,1008.80,10.00,M,SCT,BKN,BKN,OVC,400.00,2700.00,4400.00,5500.00,-RA,M,M,M,M,M,M,37.11,KINS 221738Z AUTO 23015KT 10SM -RA SCT004 BKN027 BKN044 OVC055 07/04 A2986 RMK AO2 CIG 004V027 SLP088 $,M
INS,2022-04-22 17:43,-115.6733,36.5872,955.00,44.60,39.20,81.20,220.00,11.00,0.00,29.86,1008.80,10.00,M,SCT,SCT,BKN,OVC,400.00,2400.00,4300.00,5500.00,-RA,M,M,M,M,M,M,38.39,KINS 221743Z AUTO 22011KT 10SM -RA SCT004 SCT024 BKN043 OVC055 07/04 A2986 RMK AO2 SLP088 $,M
INS,2022-04-22 17:44,-115.6733,36.5872,955.00,44.60,39.20,81.20,220.00,10.00,0.00,29.85,1008.50,10.00,M,SCT,SCT,BKN,OVC,400.00,2400.00,4300.00,5500.00,M,M,M,M,M,M,M,38.77,KINS 221744Z AUTO 22010KT 10SM SCT004 SCT024 BKN043 OVC055 07/04 A2985 RMK AO2 RAE43 SLP085 $,M
ELY,2022-04-22 17:45,-114.8453,39.2950,1909.00,33.00,30.90,91.51,20.00,12.00,0.01,29.79,M,1.75,M,FEW,OVC,M,M,700.00,3300.00,M,M,-SN BR,M,M,M,M,M,M,23.40,KELY 221745Z AUTO 02012KT 1 3/4SM -SN BR FEW007 OVC033 01/M01 A2979 RMK AO2 P0001 T00061006,M
05U,2022-04-22 17:50,-116.0051,39.6042,1811.23,37.40,33.80,86.69,350.00,9.00,0.00,29.86,M,7.00,14.00,FEW,SCT,M,M,500.00,1500.00,M,M,M,M,M,M,M,M,M,30.23,K05U 221750Z AUTO 35009G14KT 7SM FEW005 SCT015 03/01 A2986 RMK A01,M
DRA,2022-04-22 17:53,-116.0278,36.6206,1009.00,46.00,41.00,82.58,200.00,8.00,T,29.86,1008.90,10.00,M,FEW,SCT,OVC,M,5500.00,7000.00,9500.00,M,M,M,M,M,M,M,M,41.36,KDRA 221753Z AUTO 20008KT 10SM FEW055 SCT070 OVC095 08/05 A2986 RMK AO2 RAE09 SLP089 P0000 60008 T00780050 10106 20061 51030,M
ELY,2022-04-22 17:53,-114.8453,39.2950,1909.00,34.00,32.00,92.29,20.00,10.00,0.01,29.79,1006.70,2.00,M,FEW,BKN,OVC,M,700.00,2900.00,3500.00,M,-SN BR,M,M,M,M,M,M,25.48,KELY 221753Z AUTO 02010KT 2SM -SN BR FEW007 BKN029 OVC035 01/00 A2979 RMK AO2 SLP067 P0001 60038 T00110000 10011 21006 53012,M
P68,2022-04-22 17:53,-116.0056,39.6014,1993.00,38.00,33.00,82.66,350.00,13.00,0.00,29.86,1009.50,M,M,M,M,M,M,M,M,M,M,M,M,M,M,M,M,M,29.13,KP68 221753Z AUTO 35013KT 03/01 A2986 RMK AO1 SLP095 6//// T00330006 10033 20000,M
VGT,2022-04-22 17:53,-115.1933,36.2111,667.00,56.00,39.00,52.94,310.00,18.00,T,29.84,1010.90,10.00,28.00,SCT,OVC,M,M,4800.00,6500.00,M,M,-RA,M,M,M,28.00,330.00,2022-04-22 17:50,55.90,KVGT 221753Z 31018G28KT 10SM -RA SCT048 OVC065 13/04 A2984 RMK AO2 PK WND 33028/1750 RAB52 SLP109 P0000 60000 T01330039 10167 20133 53045,M
LOL,2022-04-22 17:53,-118.5701,40.0684,1192.43,50.00,30.90,47.64,330.00,8.00,0.00,29.93,1013.50,10.00,M,BKN,BKN,M,M,4900.00,5500.00,M,M,M,M,M,M,M,M,M,50.00,KLOL 221753Z AUTO 33008KT 10SM BKN049 BKN055 10/M01 A2993 RMK AO2 SLP135 60000 T01001006 10100 20028 51009,M
BAM,2022-04-22 17:55,-116.8743,40.5990,1382.36,44.60,32.00,61.03,330.00,11.00,0.00,29.91,M,10.00,14.00,SCT,BKN,OVC,M,3300.00,4300.00,5000.00,M,M,M,M,M,M,M,M,38.39,KBAM 221755Z AUTO 33011G14KT 10SM SCT033 BKN043 OVC050 07/00 A2991 RMK AO1,M
TMT,2022-04-22 17:55,-117.1971,39.4643,1749.34,33.60,31.80,93.02,150.00,6.00,0.00,29.93,M,10.00,M,BKN,BKN,OVC,M,700.00,2100.00,4900.00,M,M,M,M,M,M,M,M,27.46,KTMT 221755Z AUTO 15006KT 10SM BKN007 BKN021 OVC049 01/00 A2993 RMK AO2 60012 T00091001 10010 21001,M
HTH,2022-04-22 17:55,-118.6315,38.5448,1282.89,48.20,24.80,39.66,310.00,7.00,0.00,29.95,M,10.00,M,FEW,BKN,OVC,M,4700.00,6000.00,6500.00,M,M,M,M,M,M,M,M,44.53,KHTH 221755Z AUTO 31007KT 10SM FEW047 BKN060 OVC065 09/M04 A2995 RMK A01,M
MEV,2022-04-22 17:55,-119.7500,38.9963,1441.42,44.60,28.40,52.72,350.00,5.00,0.00,29.97,M,10.00,M,FEW,SCT,BKN,M,3800.00,4900.00,6000.00,M,M,M,M,M,M,M,M,41.36,KMEV 221755Z AUTO 35005KT 10SM FEW038 SCT049 BKN060 07/M02 A2997 RMK AO2,M
RTS,2022-04-22 17:55,-119.8764,39.6682,1539.00,41.00,26.60,56.22,310.00,7.00,0.00,30.00,M,10.00,13.00,SCT,BKN,M,M,3400.00,4600.00,M,M,M,M,M,M,M,M,M,35.75,KRTS 221755Z AUTO 31007G13KT 10SM SCT034 BKN046 05/M03 A3000 RMK AO2,M
LSV,2022-04-22 17:55,-115.0343,36.2362,570.00,59.00,37.40,44.47,290.00,19.00,0.00,29.83,1008.90,10.00,M,OVC,M,M,M,6000.00,M,M,M,-SHRA,M,M,M,M,M,M,59.00,KLSV 221755Z 29019KT 10SM -SHRA OVC060 15/03 A2983 RMK SLP089 RAB55 $,M
RNO,2022-04-22 17:55,-119.7711,39.4839,1341.00,48.00,23.00,37.06,340.00,14.00,0.00,29.99,1014.10,10.00,20.00,BKN,M,M,M,4800.00,M,M,M,M,M,M,M,M,M,M,41.79,KRNO 221755Z 34014G20KT 10SM BKN048 09/M05 A2999 RMK AO2 SLP141 MTN TOPS OBSCD DSNT SW T00891050 10089 20028 53014,M
CXP,2022-04-22 17:55,-119.7326,39.1923,1431.00,46.40,24.80,42.44,M,6.00,0.00,29.98,M,10.00,M,FEW,BKN,BKN,M,4000.00,5500.00,6500.00,M,M,M,M,M,M,M,M,42.87,KCXP 221755Z AUTO VRB06KT 10SM FEW040 BKN055 BKN065 08/M04 A2998 RMK AO2,M
BVU,2022-04-22 17:55,-114.8611,35.9475,671.00,59.00,33.80,38.56,230.00,11.00,0.00,29.84,M,10.00,M,BKN,OVC,M,M,5500.00,7000.00,M,M,M,M,M,M,M,M,M,59.00,KBVU 221755Z AUTO 23011KT 10SM BKN055 OVC070 15/01 A2984 RMK AO2,M
LAS,2022-04-22 17:56,-115.1634,36.0719,663.00,60.00,34.00,37.37,270.00,13.00,0.00,29.84,1009.20,10.00,22.00,FEW,BKN,OVC,M,4400.00,6000.00,10000.00,M,M,M,M,M,M,M,M,60.10,KLAS 221756Z 27013G22KT 10SM FEW044 BKN060 OVC100 16/01 A2984 RMK AO2 WSHFT 1651 SLP092 T01560011 10161 20117 51034,M
NFL,2022-04-22 17:56,-118.7010,39.4166,1199.00,49.00,28.00,44.10,290.00,12.00,0.00,29.95,1011.40,10.00,M,BKN,BKN,M,M,4500.00,10000.00,M,M,M,M,M,M,M,M,M,43.51,KNFL 221756Z 29012KT 10SM BKN045 BKN100 09/M02 A2995 RMK AO2 SLP114 T00941022 10094 20022 53010,M
TPH,2022-04-22 17:56,-117.0904,38.0505,1654.00,46.00,23.00,39.96,320.00,27.00,0.00,29.86,1008.60,10.00,37.00,CLR,M,M,M,M,M,M,M,M,M,M,M,37.00,320.00,2022-04-22 17:52,36.43,KTPH 221756Z AUTO 32027G37KT 10SM CLR 08/M05 A2986 RMK AO2 PK WND 32037/1752 SLP086 60000 T00781050 10083 20022 51010,M
WMC,2022-04-22 17:56,-117.8072,40.9019,1315.00,47.00,30.00,51.58,330.00,3.00,0.00,29.92,1012.60,10.00,M,BKN,OVC,M,M,4200.00,5000.00,M,M,M,M,M,M,M,M,M,45.72,KWMC 221756Z AUTO 33003KT 10SM BKN042 OVC050 08/M01 A2992 RMK AO2 SLP126 60000 T00831011 10089 20017 51010,M
HND,2022-04-22 17:56,-115.1344,35.9729,742.79,58.00,36.00,43.78,M,6.00,T,29.86,1011.50,10.00,M,FEW,OVC,M,M,3000.00,4900.00,M,M,-RA,M,M,M,M,M,M,57.90,KHND 221756Z VRB06KT 10SM -RA FEW030 OVC049 14/02 A2986 RMK AO2 RAB25 SLP115 P0000 60000 T01440022 10150 20100 53031,M
EKO,2022-04-22 17:56,-115.7860,40.8242,1367.00,45.00,28.00,51.08,M,M,0.00,29.82,1009.50,10.00,M,BKN,OVC,M,M,3300.00,4500.00,M,M,M,M,M,M,M,M,M,M,KEKO 221756Z AUTO 10SM BKN033 OVC045 07/M02 A2982 RMK AO2 SLP095 T00721022 10072 20017 51007,M
INS,2022-04-22 17:58,-115.6733,36.5872,955.00,46.40,38.80,74.67,230.00,14.00,0.05,29.86,1008.80,10.00,20.00,FEW,FEW,SCT,SCT,2500.00,4300.00,5000.00,6500.00,M,M,M,M,27.00,300.00,2022-04-22 17:00,39.72,KINS 221758Z AUTO 23014G20KT 10SM FEW025 FEW043 SCT050 SCT065 OVC080 08/04 A2986 RMK AO2 PK WND 30027/00 RAE43 SLP088 P0005 60011 T00800038 10128 20062 52035 $,M
LSV,2022-04-22 17:58,-115.0343,36.2362,570.00,59.20,39.60,48.13,300.00,23.00,T,29.83,1008.90,10.00,29.00,BKN,M,M,M,6000.00,M,M,M,-RA,M,M,M,M,M,M,59.20,KLSV 221758Z 30023G29KT 10SM -RA BKN060 15/04 A2983 RMK RAB55 SLP089 P0000 60000 T01510042 10175 20141 52037 $,M
ELY,2022-04-22 18:05,-114.8453,39.2950,1909.00,34.00,32.00,92.29,20.00,10.00,T,29.80,M,1.25,M,FEW,BKN,OVC,M,700.00,2600.00,3400.00,M,-SN BR,M,M,M,M,M,M,25.48,KELY 221805Z AUTO 02010KT 1 1/4SM -SN BR FEW007 BKN026 OVC034 01/00 A2980 RMK AO2 P0000 T00110000,M
05U,2022-04-22 18:10,-116.0051,39.6042,1811.23,39.20,33.80,80.79,350.00,8.00,0.00,29.87,M,10.00,14.00,FEW,SCT,SCT,M,1600.00,2200.00,2900.00,M,M,M,M,M,M,M,M,32.98,K05U 221810Z AUTO 35008G14KT 10SM FEW016 SCT022 SCT029 04/01 A2987 RMK A01,M
HTH,2022-04-22 18:15,-118.6315,38.5448,1282.89,46.40,24.80,42.44,330.00,8.00,0.00,29.96,M,10.00,16.00,BKN,OVC,M,M,4900.00,5500.00,M,M,M,M,M,M,M,M,M,41.85,KHTH 221815Z AUTO 33008G16KT 300V360 10SM BKN049 OVC055 08/M04 A2996 RMK A01,M
MEV,2022-04-22 18:15,-119.7500,38.9963,1441.42,44.60,26.60,48.96,330.00,7.00,0.00,29.98,M,10.00,M,SCT,BKN,BKN,M,4300.00,5000.00,6000.00,M,M,M,M,M,M,M,M,40.14,KMEV 221815Z AUTO 33007KT 300V360 10SM SCT043 BKN050 BKN060 07/M03 A2998 RMK AO2,M
BAM,2022-04-22 18:15,-116.8743,40.5990,1382.36,46.40,32.00,57.00,320.00,7.00,0.00,29.91,M,10.00,M,SCT,SCT,OVC,M,3700.00,4400.00,5000.00,M,M,M,M,M,M,M,M,42.33,KBAM 221815Z AUTO 32007KT 10SM SCT037 SCT044 OVC050 08/00 A2991 RMK AO1,M
RTS,2022-04-22 18:15,-119.8764,39.6682,1539.00,41.00,24.80,52.17,290.00,11.00,0.00,30.01,M,10.00,M,SCT,BKN,BKN,M,3600.00,4200.00,4800.00,M,M,M,M,M,M,M,M,33.84,KRTS 221815Z AUTO 29011KT 10SM SCT036 BKN042 BKN048 05/M04 A3001 RMK AO2,M
BVU,2022-04-22 18:15,-114.8611,35.9475,671.00,60.80,33.80,36.16,250.00,13.00,0.00,29.84,M,10.00,19.00,BKN,OVC,M,M,5500.00,6500.00,M,M,M,M,M,M,M,M,M,60.80,KBVU 221815Z AUTO 25013G19KT 10SM BKN055 OVC065 16/01 A2984 RMK AO2,M
TMT,2022-04-22 18:15,-117.1971,39.4643,1749.34,34.20,32.00,91.55,150.00,5.00,0.00,29.94,M,5.00,M,SCT,BKN,OVC,M,700.00,2500.00,3200.00,M,BR,M,M,M,M,M,M,29.01,KTMT 221815Z AUTO 15005KT 5SM BR SCT007 BKN025 OVC032 01/00 A2994 RMK AO2 T00120000,M
CXP,2022-04-22 18:15,-119.7326,39.1923,1431.00,46.40,24.80,42.44,330.00,11.00,0.00,30.00,M,10.00,M,FEW,SCT,BKN,M,4200.00,5500.00,6500.00,M,M,M,M,M,M,M,M,40.66,KCXP 221815Z AUTO 33011KT 10SM FEW042 SCT055 BKN065 08/M04 A3000 RMK AO2,M
ELY,2022-04-22 18:16,-114.8453,39.2950,1909.00,33.00,32.00,95.67,360.00,7.00,T,29.80,M,1.25,M,SCT,BKN,OVC,M,800.00,1400.00,2600.00,M,-SN BR,M,M,M,M,M,M,26.12,KELY 221816Z AUTO 36007KT 1 1/4SM -SN BR SCT008 BKN014 OVC026 01/00 A2980 RMK AO2 P0000 T00060000,M
VGT,2022-04-22 18:24,-115.1933,36.2111,667.00,52.00,43.00,71.28,290.00,17.00,0.07,29.88,M,2.00,32.00,SCT,BKN,OVC,M,3000.00,3400.00,5000.00,M,RA,M,M,M,32.00,300.00,2022-04-22 18:16,52.00,KVGT 221824Z 29017G32KT 2SM RA SCT030 BKN034 OVC050 11/06 A2988 RMK AO2 PK WND 30032/1816 PRESRR P0007 T01110061,M
LSV,2022-04-22 18:26,-115.0343,36.2362,570.00,51.80,42.80,71.26,300.00,21.00,0.00,29.85,1009.80,6.00,32.00,FEW,FEW,BKN,BKN,2000.00,2500.00,3700.00,4900.00,-RA,M,M,M,M,M,M,51.80,KLSV 221826Z 30021G32KT 6SM -RA FEW020 FEW025 BKN037 BKN049 11/06 A2985 RMK AO2A SLP098 $,M
ELY,2022-04-22 18:26,-114.8453,39.2950,1909.00,35.00,32.00,88.33,10.00,8.00,T,29.81,M,1.50,M,FEW,OVC,M,M,800.00,1400.00,M,M,-SN BR,M,M,M,M,M,M,27.93,KELY 221826Z AUTO 01008KT 1 1/2SM -SN BR FEW008 OVC014 02/00 A2981 RMK AO2 P0000 T00170000,M
LAS,2022-04-22 18:30,-115.1634,36.0719,663.00,54.00,43.00,66.24,330.00,21.00,T,29.87,M,10.00,27.00,FEW,OVC,M,M,4000.00,5000.00,M,M,-RA,M,M,M,27.00,320.00,2022-04-22 18:30,54.00,KLAS 221830Z 33021G27KT 10SM -RA FEW040 OVC050 12/06 A2987 RMK AO2 PK WND 32027/1830 WSHFT 1810 RAB28 VIS LWR W-N P0000 T01220061,M
05U,2022-04-22 18:30,-116.0051,39.6042,1811.23,41.00,33.80,75.33,340.00,11.00,0.00,29.88,M,10.00,M,FEW,SCT,SCT,M,1700.00,2100.00,2800.00,M,M,M,M,M,M,M,M,33.84,K05U 221830Z AUTO 34011KT 10SM FEW017 SCT021 SCT028 05/01 A2988 RMK A01,M
VGT,2022-04-22 18:33,-115.1933,36.2111,667.00,52.00,41.00,66.00,310.00,11.00,0.07,29.88,M,9.00,M,SCT,BKN,OVC,M,3200.00,5000.00,5500.00,M,-RA,M,M,M,32.00,300.00,2022-04-22 18:16,52.00,KVGT 221833Z 31011KT 9SM -RA SCT032 BKN050 OVC055 11/05 A2988 RMK AO2 PK WND 30032/1816 P0007 T01110050,M
INS,2022-04-22 18:33,-115.6733,36.5872,955.00,50.00,35.60,57.52,230.00,18.00,0.00,29.84,1007.90,10.00,M,FEW,OVC,M,M,8000.00,10000.00,M,M,M,M,M,M,M,M,M,50.00,KINS 221833Z AUTO 23018KT 10SM FEW080 OVC100 10/02 A2984 RMK AO2 SLP079 $,M
BAM,2022-04-22 18:35,-116.8743,40.5990,1382.36,48.20,33.80,57.26,330.00,11.00,0.00,29.91,M,10.00,19.00,BKN,OVC,M,M,4800.00,7000.00,M,M,M,M,M,M,M,M,M,42.94,KBAM 221835Z AUTO 33011G19KT 10SM BKN048 OVC070 09/01 A2991 RMK AO1,M
HTH,2022-04-22 18:35,-118.6315,38.5448,1282.89,48.20,23.00,36.78,340.00,12.00,0.00,29.96,M,10.00,M,BKN,OVC,M,M,5000.00,7500.00,M,M,M,M,M,M,M,M,M,42.62,KHTH 221835Z AUTO 34012KT 10SM BKN050 OVC075 09/M05 A2996 RMK A01,M
TMT,2022-04-22 18:35,-117.1971,39.4643,1749.34,35.00,32.20,89.04,140.00,3.00,0.00,29.94,M,7.00,M,BKN,BKN,OVC,M,2100.00,2700.00,3200.00,M,M,M,M,M,M,M,M,32.23,KTMT 221835Z AUTO 14003KT 7SM BKN021 BKN027 OVC032 02/00 A2994 RMK AO2 T00170001,M
MEV,2022-04-22 18:35,-119.7500,38.9963,1441.42,44.60,24.80,45.44,M,5.00,0.00,29.99,M,10.00,12.00,FEW,BKN,BKN,M,4300.00,5000.00,6000.00,M,M,M,M,M,M,M,M,41.36,KMEV 221835Z AUTO VRB05G12KT 10SM FEW043 BKN050 BKN060 07/M04 A2999 RMK AO2,M
RTS,2022-04-22 18:35,-119.8764,39.6682,1539.00,41.00,24.80,52.17,320.00,10.00,0.00,30.01,M,10.00,M,BKN,OVC,M,M,4000.00,4900.00,M,M,M,M,M,M,M,M,M,34.25,KRTS 221835Z AUTO 32010KT 10SM BKN040 OVC049 05/M04 A3001 RMK AO2,M
CXP,2022-04-22 18:35,-119.7326,39.1923,1431.00,48.20,23.00,36.78,M,4.00,0.00,30.00,M,10.00,13.00,BKN,M,M,M,6000.00,M,M,M,M,M,M,M,M,M,M,46.34,KCXP 221835Z AUTO VRB04G13KT 10SM BKN060 09/M05 A3000 RMK AO2,M
BVU,2022-04-22 18:35,-114.8611,35.9475,671.00,59.00,33.80,38.56,280.00,11.00,0.00,29.85,M,10.00,16.00,OVC,M,M,M,5000.00,M,M,M,M,M,M,M,M,M,M,59.00,KBVU 221835Z AUTO 28011G16KT 260V360 10SM OVC050 15/01 A2985 RMK AO2,M
ELY,2022-04-22 18:43,-114.8453,39.2950,1909.00,35.00,32.00,88.33,30.00,7.00,T,29.81,M,3.00,M,BKN,BKN,OVC,M,1400.00,3000.00,3900.00,M,-SN BR,M,M,M,M,M,M,28.56,KELY 221843Z AUTO 03007KT 3SM -SN BR BKN014 BKN030 OVC039 02/00 A2981 RMK AO2 P0000 T00170000,M
LSV,2022-04-22 18:44,-115.0343,36.2362,570.00,51.80,42.80,71.26,260.00,10.00,0.00,29.87,1010.50,4.00,21.00,FEW,BKN,M,M,1200.00,3900.00,M,M,RA,M,M,M,M,M,M,51.80,KLSV 221844Z 26010G21KT 4SM RA FEW012 BKN039 11/06 A2987 RMK AO2A PRESRR SLP105 $,M
ELY,2022-04-22 18:45,-114.8453,39.2950,1909.00,35.00,32.00,88.33,10.00,6.00,T,29.81,M,4.00,M,SCT,BKN,OVC,M,1300.00,3200.00,3900.00,M,-SN BR,M,M,M,M,M,M,29.26,KELY 221845Z AUTO 01006KT 4SM -SN BR SCT013 BKN032 OVC039 02/00 A2981 RMK AO2 P0000 T00170000,M
05U,2022-04-22 18:50,-116.0051,39.6042,1811.23,41.00,32.00,70.08,330.00,10.00,0.00,29.88,M,10.00,M,FEW,FEW,SCT,M,2700.00,3300.00,4000.00,M,M,M,M,M,M,M,M,34.25,K05U 221850Z AUTO 33010KT 10SM FEW027 FEW033 SCT040 05/M00 A2988 RMK A01,M
DRA,2022-04-22 18:53,-116.0278,36.6206,1009.00,51.00,40.00,65.38,220.00,12.00,0.00,29.87,1009.00,10.00,M,SCT,M,M,M,11000.00,M,M,M,M,M,M,M,M,M,M,51.10,KDRA 221853Z AUTO 22012KT 10SM SCT110 11/04 A2987 RMK AO2 SLP090 T01060044,M
P68,2022-04-22 18:53,-116.0056,39.6014,1993.00,41.00,32.00,70.08,330.00,11.00,0.00,29.85,1009.20,M,M,M,M,M,M,M,M,M,M,M,M,M,M,M,M,M,33.84,KP68 221853Z AUTO 33011KT 05/00 A2985 RMK AO1 SLP092 T00500000,M
LOL,2022-04-22 18:53,-118.5701,40.0684,1192.43,50.00,27.00,40.62,320.00,7.00,0.00,29.94,1013.60,10.00,M,BKN,BKN,M,M,6000.00,7500.00,M,M,M,M,M,M,M,M,M,50.00,KLOL 221853Z AUTO 32007KT 280V350 10SM BKN060 BKN075 10/M03 A2994 RMK AO2 SLP136 T01001028,M
VGT,2022-04-22 18:53,-115.1933,36.2111,667.00,54.00,42.00,63.98,260.00,9.00,0.07,29.87,1012.20,10.00,M,SCT,BKN,OVC,M,4800.00,6000.00,8000.00,M,-RA,M,M,M,32.00,300.00,2022-04-22 18:16,54.00,KVGT 221853Z 26009KT 10SM -RA SCT048 BKN060 OVC080 12/06 A2987 RMK AO2 PK WND 30032/1816 SLP122 P0007 T01220056,M
ELY,2022-04-22 18:53,-114.8453,39.2950,1909.00,37.00,33.00,85.64,20.00,7.00,T,29.81,1007.00,10.00,M,SCT,BKN,OVC,M,1300.00,3000.00,4000.00,M,M,M,M,M,M,M,M,30.87,KELY 221853Z AUTO 02007KT 10SM SCT013 BKN030 OVC040 03/01 A2981 RMK AO2 SNE46 SLP070 P0000 T00280006,M
BVU,2022-04-22 18:55,-114.8611,35.9475,671.00,51.80,42.80,71.26,340.00,22.00,0.00,29.88,M,4.00,30.00,FEW,BKN,OVC,M,4000.00,5000.00,5500.00,M,-RA,M,M,M,M,M,M,51.80,KBVU 221855Z AUTO 34022G30KT 4SM -RA FEW040 BKN050 OVC055 11/06 A2988 RMK AO2,M
CXP,2022-04-22 18:55,-119.7326,39.1923,1431.00,50.00,23.00,34.39,330.00,9.00,0.00,30.01,M,10.00,17.00,FEW,BKN,M,M,4700.00,6000.00,M,M,M,M,M,M,M,M,M,50.00,KCXP 221855Z AUTO 33009G17KT 300V360 10SM FEW047 BKN060 10/M05 A3001 RMK AO2,M
RNO,2022-04-22 18:55,-119.7711,39.4839,1341.00,50.00,23.00,34.39,340.00,12.00,0.00,30.00,1014.40,10.00,17.00,BKN,M,M,M,5500.00,M,M,M,M,M,M,M,M,M,M,50.00,KRNO 221855Z 34012G17KT 10SM BKN055 10/M05 A3000 RMK AO2 SLP144 T01001050,M
RTS,2022-04-22 18:55,-119.8764,39.6682,1539.00,42.80,24.80,48.67,300.00,7.00,0.00,30.01,M,10.00,13.00,FEW,BKN,M,M,3800.00,5000.00,M,M,M,M,M,M,M,M,M,37.94,KRTS 221855Z AUTO 30007G13KT 260V330 10SM FEW038 BKN050 06/M04 A3001 RMK AO2,M
MEV,2022-04-22 18:55,-119.7500,38.9963,1441.42,46.40,24.80,42.44,290.00,10.00,0.00,29.99,M,10.00,M,SCT,BKN,M,M,4800.00,5500.00,M,M,M,M,M,M,M,M,M,41.03,KMEV 221855Z AUTO 29010KT 10SM SCT048 BKN055 08/M04 A2999 RMK AO2,M
BAM,2022-04-22 18:55,-116.8743,40.5990,1382.36,46.40,32.00,57.00,320.00,9.00,0.00,29.92,M,10.00,M,SCT,OVC,M,M,3600.00,4600.00,M,M,M,M,M,M,M,M,M,41.42,KBAM 221855Z AUTO 32009KT 10SM SCT036 OVC046 08/00 A2992 RMK AO1,M
HTH,2022-04-22 18:55,-118.6315,38.5448,1282.89,50.00,23.00,34.39,330.00,10.00,0.00,29.96,M,10.00,19.00,FEW,BKN,M,M,5000.00,7000.00,M,M,M,M,M,M,M,M,M,50.00,KHTH 221855Z AUTO 33010G19KT 300V360 10SM FEW050 BKN070 10/M05 A2996 RMK A01,M
TMT,2022-04-22 18:55,-117.1971,39.4643,1749.34,37.00,32.00,81.93,180.00,4.00,0.00,29.95,M,10.00,M,BKN,BKN,OVC,M,1600.00,2400.00,4200.00,M,M,M,M,M,M,M,M,33.26,KTMT 221855Z AUTO 18004KT 10SM BKN016 BKN024 OVC042 03/00 A2995 RMK AO2 T00280000,M
HND,2022-04-22 18:56,-115.1344,35.9729,742.79,51.00,45.00,79.54,10.00,14.00,0.03,29.91,1013.60,10.00,M,OVC,M,M,M,4500.00,M,M,M,RA,M,M,M,M,M,M,51.10,KHND 221856Z 01014KT 10SM RA OVC045 11/07 A2991 RMK AO2 RAE11B32 SLP136 P0003 T01060072,M
LAS,2022-04-22 18:56,-115.1634,36.0719,663.00,54.00,38.00,54.34,320.00,16.00,T,29.89,1011.10,10.00,33.00,BKN,OVC,M,M,4500.00,5000.00,M,M,-RA,M,M,M,35.00,310.00,2022-04-22 18:43,54.00,KLAS 221856Z 32016G33KT 10SM -RA BKN045 OVC050 12/03 A2989 RMK AO2 PK WND 31035/1843 WSHFT 1810 RAB28 SLP111 VIS LWR NE BINOVC W P0000 T01220033,M
NFL,2022-04-22 18:56,-118.7010,39.4166,1199.00,50.00,24.10,36.01,300.00,8.00,0.00,29.97,1011.90,10.00,16.00,BKN,BKN,M,M,5000.00,10000.00,M,M,M,M,M,M,M,M,M,50.00,KNFL 221856Z 30008G16KT 250V320 10SM BKN050 BKN100 10/M04 A2997 RMK AO2 SLP119 T01001044,M
EKO,2022-04-22 18:56,-115.7860,40.8242,1367.00,48.00,30.00,49.49,320.00,13.00,0.00,29.83,1009.50,10.00,M,SCT,BKN,BKN,M,4100.00,6000.00,8500.00,M,M,M,M,M,M,M,M,42.07,KEKO 221856Z AUTO 32013KT 10SM SCT041 BKN060 BKN085 09/M01 A2983 RMK AO2 SLP095 T00891011,M
WMC,2022-04-22 18:56,-117.8072,40.9019,1315.00,49.00,28.90,45.75,280.00,10.00,0.00,29.92,1012.80,10.00,14.00,FEW,BKN,M,M,4500.00,6000.00,M,M,M,M,M,M,M,M,M,44.16,KWMC 221856Z AUTO 28010G14KT 10SM FEW045 BKN060 09/M02 A2992 RMK AO2 SLP128 T00941017,M
TPH,2022-04-22 18:56,-117.0904,38.0505,1654.00,50.00,23.00,34.39,320.00,20.00,0.00,29.88,1008.90,10.00,37.00,CLR,M,M,M,M,M,M,M,M,M,M,M,37.00,330.00,2022-04-22 18:43,50.00,KTPH 221856Z AUTO 32020G37KT 10SM CLR 10/M05 A2988 RMK AO2 PK WND 33037/1843 SLP089 T01001050,M
INS,2022-04-22 18:58,-115.6733,36.5872,955.00,51.80,33.80,50.08,230.00,17.00,0.00,29.85,1008.30,10.00,M,OVC,M,M,M,11000.00,M,M,M,M,M,M,M,33.00,220.00,2022-04-22 18:09,51.80,KINS 221858Z AUTO 23017KT 10SM OVC110 11/01 A2985 RMK AO2 PK WND 22033/09 SLP083 T01100010 $,M
LSV,2022-04-22 18:58,-115.0343,36.2362,570.00,51.40,44.80,78.07,230.00,10.00,0.05,29.87,1010.50,10.00,M,FEW,FEW,BKN,OVC,1000.00,1900.00,3900.00,5500.00,-RA,M,M,M,36.00,290.00,2022-04-22 18:01,51.40,KLSV 221858Z 23010KT 10SM -RA FEW010 FEW019 BKN039 OVC055 11/07 A2987 RMK AO2A PK WND 29036/01 SLP105 P0005 T01080071 $,M
LSV,2022-04-22 19:05,-115.0343,36.2362,570.00,51.80,46.40,81.74,240.00,10.00,0.00,29.87,1010.50,10.00,M,FEW,FEW,SCT,BKN,1000.00,1900.00,3700.00,5000.00,-RA,M,M,M,M,M,M,51.80,KLSV 221905Z 24010KT 10SM -RA FEW010 FEW019 SCT037 BKN050 BKN065 OVC075 11/08 A2987 RMK AO2A SLP105 $,M
05U,2022-04-22 19:10,-116.0051,39.6042,1811.23,42.80,32.00,65.38,330.00,8.00,0.00,29.88,M,10.00,15.00,SCT,SCT,SCT,M,2800.00,3700.00,4300.00,M,M,M,M,M,M,M,M,37.42,K05U 221910Z AUTO 33008G15KT 10SM SCT028 SCT037 SCT043 06/M00 A2988 RMK A01,M
CXP,2022-04-22 19:10,-119.7326,39.1923,1431.00,50.00,23.00,34.39,0.00,0.00,0.00,30.01,M,10.00,M,FEW,SCT,M,M,4700.00,5500.00,M,M,M,M,M,M,M,M,M,50.00,KCXP 221910Z AUTO 00000KT 10SM FEW047 SCT055 10/M05 A3001 RMK AO2,M
BAM,2022-04-22 19:15,-116.8743,40.5990,1382.36,46.40,32.00,57.00,320.00,6.00,0.00,29.91,M,10.00,M,SCT,OVC,M,M,4200.00,4800.00,M,M,M,M,M,M,M,M,M,42.87,KBAM 221915Z AUTO 32006KT 10SM SCT042 OVC048 08/00 A2991 RMK AO1,M
TMT,2022-04-22 19:15,-117.1971,39.4643,1749.34,35.00,31.80,88.32,140.00,8.00,0.00,29.95,M,10.00,M,SCT,BKN,OVC,M,1800.00,2300.00,4300.00,M,M,M,M,M,M,M,M,27.69,KTMT 221915Z AUTO 14008KT 10SM SCT018 BKN023 OVC043 02/00 A2995 RMK AO2 T00161001,M
BVU,2022-04-22 19:15,-114.8611,35.9475,671.00,51.80,42.80,71.26,320.00,18.00,0.00,29.89,M,7.00,26.00,FEW,BKN,BKN,M,3200.00,4800.00,6000.00,M,-RA,M,M,M,M,M,M,51.80,KBVU 221915Z AUTO 32018G26KT 7SM -RA FEW032 BKN048 BKN060 11/06 A2989 RMK AO2,M
MEV,2022-04-22 19:15,-119.7500,38.9963,1441.42,44.60,23.00,42.14,290.00,7.00,0.00,30.00,M,10.00,14.00,FEW,BKN,M,M,5000.00,6000.00,M,M,M,M,M,M,M,M,M,40.14,KMEV 221915Z AUTO 29007G14KT 10SM FEW050 BKN060 07/M05 A3000 RMK AO2,M
HTH,2022-04-22 19:15,-118.6315,38.5448,1282.89,50.00,23.00,34.39,340.00,9.00,0.00,29.97,M,10.00,18.00,BKN,M,M,M,7000.00,M,M,M,M,M,M,M,M,M,M,50.00,KHTH 221915Z AUTO 34009G18KT 10SM BKN070 10/M05 A2997 RMK A01,M
RTS,2022-04-22 19:15,-119.8764,39.6682,1539.00,42.80,26.60,52.45,300.00,10.00,0.00,30.01,M,10.00,15.00,FEW,SCT,M,M,3900.00,5000.00,M,M,M,M,M,M,M,M,M,36.51,KRTS 221915Z AUTO 30010G15KT 10SM FEW039 SCT050 06/M03 A3001 RMK AO2,M
LSV,2022-04-22 19:20,-115.0343,36.2362,570.00,53.60,46.40,76.50,260.00,7.00,0.00,29.87,1010.50,10.00,M,FEW,SCT,OVC,M,3900.00,5500.00,8000.00,M,M,M,M,M,M,M,M,53.60,KLSV 221920Z 26007KT 10SM FEW039 SCT055 OVC080 12/08 A2987 RMK RAE05E19 SLP105 $,M
05U,2022-04-22 19:30,-116.0051,39.6042,1811.23,42.80,30.20,60.79,330.00,10.00,0.00,29.88,M,10.00,M,SCT,BKN,BKN,M,3100.00,4000.00,4800.00,M,M,M,M,M,M,M,M,36.51,K05U 221930Z AUTO 33010KT 10SM SCT031 BKN040 BKN048 06/M01 A2988 RMK A01,M
RTS,2022-04-22 19:35,-119.8764,39.6682,1539.00,44.60,26.60,48.96,300.00,12.00,0.00,30.01,M,10.00,M,FEW,FEW,M,M,4000.00,4700.00,M,M,M,M,M,M,M,M,M,38.04,KRTS 221935Z AUTO 30012KT 260V320 10SM FEW040 FEW047 07/M03 A3001 RMK AO2,M
BVU,2022-04-22 19:35,-114.8611,35.9475,671.00,51.80,42.80,71.26,320.00,15.00,0.00,29.90,M,9.00,M,FEW,SCT,BKN,M,3300.00,4400.00,5000.00,M,-DZ,M,M,M,M,M,M,51.80,KBVU 221935Z AUTO 32015KT 9SM -DZ FEW033 SCT044 BKN050 11/06 A2990 RMK AO2,M
CXP,2022-04-22 19:35,-119.7326,39.1923,1431.00,48.20,21.20,34.09,340.00,6.00,0.00,30.01,M,10.00,M,BKN,BKN,M,M,5000.00,6000.00,M,M,M,M,M,M,M,M,M,45.04,KCXP 221935Z AUTO 34006KT 10SM BKN050 BKN060 09/M06 A3001 RMK AO2,M
MEV,2022-04-22 19:35,-119.7500,38.9963,1441.42,48.20,24.80,39.66,330.00,11.00,0.00,30.00,M,10.00,M,SCT,M,M,M,6000.00,M,M,M,M,M,M,M,M,M,M,42.94,KMEV 221935Z AUTO 33011KT 10SM SCT060 09/M04 A3000 RMK AO2,M
BAM,2022-04-22 19:35,-116.8743,40.5990,1382.36,46.40,32.00,57.00,300.00,4.00,0.00,29.91,M,10.00,M,SCT,BKN,OVC,M,3900.00,4800.00,6000.00,M,M,M,M,M,M,M,M,44.24,KBAM 221935Z AUTO 30004KT 10SM SCT039 BKN048 OVC060 08/00 A2991 RMK AO1,M
HTH,2022-04-22 19:35,-118.6315,38.5448,1282.89,51.80,23.00,32.17,330.00,12.00,0.00,29.97,M,10.00,20.00,SCT,SCT,M,M,7000.00,8000.00,M,M,M,M,M,M,M,M,M,51.80,KHTH 221935Z AUTO 33012G20KT 10SM SCT070 SCT080 11/M05 A2997 RMK A01,M
TMT,2022-04-22 19:35,-117.1971,39.4643,1749.34,35.80,32.00,85.91,190.00,4.00,0.00,29.95,M,10.00,M,BKN,BKN,OVC,M,1800.00,2300.00,4900.00,M,M,M,M,M,M,M,M,31.86,KTMT 221935Z AUTO 19004KT 10SM BKN018 BKN023 OVC049 02/00 A2995 RMK AO2 T00210000,M
05U,2022-04-22 19:50,-116.0051,39.6042,1811.23,42.80,28.40,56.48,320.00,12.00,0.00,29.88,M,10.00,M,BKN,BKN,OVC,M,3500.00,4600.00,5500.00,M,M,M,M,M,M,M,M,35.75,K05U 221950Z AUTO 32012KT 10SM BKN035 BKN046 OVC055 06/M02 A2988 RMK A01,M
P68,2022-04-22 19:53,-116.0056,39.6014,1993.00,43.00,30.00,59.83,330.00,12.00,0.00,29.86,1009.30,M,20.00,M,M,M,M,M,M,M,M,M,M,M,M,M,M,M,36.00,KP68 221953Z AUTO 33012G20KT 06/M01 A2986 RMK AO1 SLP093 T00611011,M
ELY,2022-04-22 19:53,-114.8453,39.2950,1909.00,37.00,32.00,81.93,30.00,7.00,T,29.83,1007.70,9.00,M,FEW,BKN,OVC,M,1900.00,3400.00,4400.00,M,M,M,M,M,M,M,M,30.87,KELY 221953Z AUTO 03007KT 9SM FEW019 BKN034 OVC044 03/00 A2983 RMK AO2 SNB29E52 SLP077 P0000 T00280000,M
VGT,2022-04-22 19:53,-115.1933,36.2111,667.00,58.00,40.00,51.02,210.00,10.00,T,29.85,1011.30,10.00,M,FEW,BKN,OVC,M,7000.00,9000.00,11000.00,M,M,M,M,M,M,M,M,57.90,KVGT 221953Z 21010KT 10SM FEW070 BKN090 OVC110 14/04 A2985 RMK AO2 RAE1854 SLP113 P0000 T01440044,M
LOL,2022-04-22 19:53,-118.5701,40.0684,1192.43,55.00,25.00,31.11,250.00,11.00,0.00,29.93,1012.90,10.00,M,SCT,M,M,M,9500.00,M,M,M,M,M,M,M,M,M,M,55.00,KLOL 221953Z AUTO 25011KT 10SM SCT095 13/M04 A2993 RMK AO2 SLP129 T01281039,M
DRA,2022-04-22 19:53,-116.0278,36.6206,1009.00,54.00,38.00,54.34,230.00,15.00,0.00,29.85,1008.60,10.00,M,CLR,M,M,M,M,M,M,M,M,M,M,M,M,M,M,54.00,KDRA 221953Z AUTO 23015KT 10SM CLR 12/03 A2985 RMK AO2 SLP086 T01220033,M
MEV,2022-04-22 19:55,-119.7500,38.9963,1441.42,46.40,24.80,42.44,340.00,7.00,0.00,30.00,M,10.00,12.00,BKN,BKN,M,M,5000.00,6000.00,M,M,M,M,M,M,M,M,M,42.33,KMEV 221955Z AUTO 34007G12KT 310V010 10SM BKN050 BKN060 08/M04 A3000 RMK AO2,M
HTH,2022-04-22 19:55,-118.6315,38.5448,1282.89,51.80,21.20,29.82,340.00,10.00,0.00,29.97,M,10.00,22.00,FEW,FEW,SCT,M,4300.00,5500.00,6500.00,M,M,M,M,M,M,M,M,51.80,KHTH 221955Z AUTO 34010G22KT 10SM FEW043 FEW055 SCT065 11/M06 A2997 RMK A01,M
BVU,2022-04-22 19:55,-114.8611,35.9475,671.00,53.60,39.20,58.02,320.00,9.00,0.00,29.89,M,10.00,M,BKN,BKN,BKN,M,5500.00,7000.00,8000.00,M,M,M,M,M,M,M,M,53.60,KBVU 221955Z AUTO 32009KT 10SM BKN055 BKN070 BKN080 12/04 A2989 RMK AO2,M
CXP,2022-04-22 19:55,-119.7326,39.1923,1431.00,50.00,21.20,31.87,M,5.00,0.00,30.00,M,10.00,10.00,BKN,BKN,M,M,5500.00,6500.00,M,M,M,M,M,M,M,M,M,50.00,KCXP 221955Z AUTO VRB05G10KT 10SM BKN055 BKN065 10/M06 A3000 RMK AO2,M
RNO,2022-04-22 19:55,-119.7711,39.4839,1341.00,49.00,21.90,34.20,340.00,8.00,0.00,30.00,1014.80,10.00,17.00,BKN,M,M,M,6000.00,M,M,M,M,M,M,M,M,M,M,44.93,KRNO 221955Z 34008G17KT 10SM BKN060 09/M06 A3000 RMK AO2 SLP148 T00941056,M
RTS,2022-04-22 19:55,-119.8764,39.6682,1539.00,44.60,24.80,45.44,300.00,9.00,0.00,30.01,M,10.00,15.00,FEW,SCT,M,M,4800.00,5500.00,M,M,M,M,M,M,M,M,M,39.18,KRTS 221955Z AUTO 30009G15KT 270V330 10SM FEW048 SCT055 07/M04 A3001 RMK AO2,M
TMT,2022-04-22 19:55,-117.1971,39.4643,1749.34,35.00,31.80,87.62,190.00,4.00,0.00,29.96,M,5.00,M,SCT,BKN,OVC,M,1600.00,2500.00,4900.00,M,-SN,M,M,M,M,M,M,31.04,KTMT 221955Z AUTO 19004KT 5SM -SN SCT016 BKN025 OVC049 02/00 A2996 RMK AO2 LTG DSNT NE T00171001,M
BAM,2022-04-22 19:55,-116.8743,40.5990,1382.36,48.20,32.00,53.27,320.00,10.00,0.00,29.91,M,10.00,M,BKN,OVC,M,M,4100.00,5000.00,M,M,M,M,M,M,M,M,M,43.28,KBAM 221955Z AUTO 32010KT 290V350 10SM BKN041 OVC050 09/00 A2991 RMK AO1,M
HND,2022-04-22 19:56,-115.1344,35.9729,742.79,55.00,39.00,54.70,0.00,0.00,0.02,29.89,1013.00,10.00,M,SCT,OVC,M,M,6000.00,7500.00,M,M,M,M,M,M,M,M,M,55.00,KHND 221956Z 00000KT 10SM SCT060 OVC075 13/04 A2989 RMK AO2 RAE38 SLP130 P0002 T01280039,M
EKO,2022-04-22 19:56,-115.7860,40.8242,1367.00,52.00,28.90,40.78,300.00,17.00,0.00,29.82,1008.80,10.00,23.00,FEW,BKN,M,M,4700.00,7500.00,M,M,M,M,M,M,M,M,M,52.00,KEKO 221956Z AUTO 30017G23KT 10SM FEW047 BKN075 11/M02 A2982 RMK AO2 SLP088 T01111017,M
TPH,2022-04-22 19:56,-117.0904,38.0505,1654.00,50.00,19.90,30.16,320.00,27.00,0.00,29.88,1009.50,10.00,38.00,FEW,M,M,M,5500.00,M,M,M,M,M,M,M,38.00,320.00,2022-04-22 19:54,50.00,KTPH 221956Z AUTO 32027G38KT 10SM FEW055 10/M07 A2988 RMK AO2 PK WND 32038/1954 SLP095 T01001067,M
LAS,2022-04-22 19:56,-115.1634,36.0719,663.00,60.00,36.00,40.46,260.00,12.00,T,29.87,1010.20,10.00,20.00,SCT,BKN,BKN,M,4800.00,6500.00,9500.00,M,M,M,M,M,M,M,M,60.10,KLAS 221956Z 26012G20KT 10SM SCT048 BKN065 BKN095 16/02 A2987 RMK AO2 RAE11 SLP102 P0000 T01560022,M
WMC,2022-04-22 19:56,-117.8072,40.9019,1315.00,49.00,32.00,51.89,340.00,14.00,0.00,29.92,1012.60,10.00,21.00,FEW,BKN,BKN,M,4200.00,5000.00,6000.00,M,M,M,M,M,M,M,M,42.95,KWMC 221956Z AUTO 34014G21KT 10SM FEW042 BKN050 BKN060 09/00 A2992 RMK AO2 SLP126 T00940000,M
NFL,2022-04-22 19:56,-118.7010,39.4166,1199.00,52.00,23.00,31.93,300.00,12.00,0.00,29.96,1011.70,10.00,17.00,BKN,BKN,M,M,6000.00,10000.00,M,M,M,M,M,M,M,M,M,52.00,KNFL 221956Z 30012G17KT 10SM BKN060 BKN100 11/M05 A2996 RMK AO2 SLP117 T01111050,M
LSV,2022-04-22 19:58,-115.0343,36.2362,570.00,54.70,47.30,76.03,200.00,7.00,T,29.85,1009.80,10.00,M,BKN,M,M,M,9500.00,M,M,M,M,M,M,M,M,M,M,54.70,KLSV 221958Z 20007KT 10SM BKN095 13/09 A2985 RMK AO2A RAE05 SLP098 P0000 T01260085 $,M
INS,2022-04-22 19:58,-115.6733,36.5872,955.00,56.50,36.00,46.04,260.00,16.00,0.00,29.84,1007.80,10.00,M,FEW,M,M,M,13000.00,M,M,M,M,M,M,M,M,M,M,56.50,KINS 221958Z AUTO 26016KT 10SM FEW130 14/02 A2984 RMK AO2 SLP078 T01360022 $,M
05U,2022-04-22 20:10,-116.0051,39.6042,1811.23,44.60,30.20,56.74,350.00,13.00,0.00,29.88,M,10.00,M,SCT,BKN,BKN,M,3600.00,4900.00,5500.00,M,M,M,M,M,M,M,M,37.71,K05U 222010Z AUTO 35013KT 310V020 10SM SCT036 BKN049 BKN055 07/M01 A2988 RMK A01,M
HTH,2022-04-22 20:15,-118.6315,38.5448,1282.89,51.80,23.00,32.17,320.00,13.00,0.00,29.97,M,10.00,25.00,FEW,FEW,FEW,M,2600.00,4200.00,6000.00,M,M,M,M,M,M,M,M,51.80,KHTH 222015Z AUTO 32013G25KT 10SM FEW026 FEW042 FEW060 11/M05 A2997 RMK A01,M
TMT,2022-04-22 20:15,-117.1971,39.4643,1749.34,37.20,32.20,81.95,150.00,4.00,0.00,29.96,M,10.00,M,SCT,BKN,OVC,M,2300.00,4400.00,4900.00,M,M,M,M,M,M,M,M,33.49,KTMT 222015Z AUTO 15004KT 10SM SCT023 BKN044 OVC049 03/00 A2996 RMK AO2 T00290001,M
BVU,2022-04-22 20:15,-114.8611,35.9475,671.00,57.20,39.20,50.91,300.00,7.00,0.00,29.88,M,10.00,M,FEW,BKN,OVC,M,5500.00,7000.00,9000.00,M,M,M,M,M,M,M,M,57.20,KBVU 222015Z AUTO 30007KT 10SM FEW055 BKN070 OVC090 14/04 A2988 RMK AO2,M
CXP,2022-04-22 20:15,-119.7326,39.1923,1431.00,48.20,19.40,31.57,M,5.00,0.00,30.00,M,10.00,15.00,BKN,OVC,M,M,5500.00,7000.00,M,M,M,M,M,M,M,M,M,45.63,KCXP 222015Z AUTO VRB05G15KT 10SM BKN055 OVC070 09/M07 A3000 RMK AO2,M
RTS,2022-04-22 20:15,-119.8764,39.6682,1539.00,44.60,24.80,45.44,320.00,9.00,0.00,30.02,M,10.00,15.00,FEW,BKN,BKN,M,4400.00,5000.00,5500.00,M,M,M,M,M,M,M,M,39.18,KRTS 222015Z AUTO 32009G15KT 10SM FEW044 BKN050 BKN055 07/M04 A3002 RMK AO2,M
MEV,2022-04-22 20:15,-119.7500,38.9963,1441.42,44.60,24.80,45.44,330.00,7.00,0.00,30.00,M,10.00,14.00,BKN,BKN,M,M,5000.00,6000.00,M,M,M,M,M,M,M,M,M,40.14,KMEV 222015Z AUTO 33007G14KT 270V350 10SM BKN050 BKN060 07/M04 A3000 RMK AO2,M
BAM,2022-04-22 20:15,-116.8743,40.5990,1382.36,50.00,32.00,49.81,320.00,9.00,0.00,29.90,M,10.00,M,BKN,BKN,OVC,M,4600.00,5500.00,6500.00,M,M,M,M,M,M,M,M,50.00,KBAM 222015Z AUTO 32009KT 10SM BKN046 BKN055 OVC065 10/00 A2990 RMK AO1,M
ELY,2022-04-22 20:15,-114.8453,39.2950,1909.00,37.00,30.90,78.37,20.00,8.00,0.00,29.84,M,10.00,M,SCT,BKN,OVC,M,2000.00,2500.00,4500.00,M,M,M,M,M,M,M,M,30.27,KELY 222015Z AUTO 02008KT 10SM SCT020 BKN025 OVC045 03/M01 A2984 RMK AO2 T00281006,M
05U,2022-04-22 20:30,-116.0051,39.6042,1811.23,42.80,30.20,60.79,360.00,9.00,0.00,29.90,M,8.00,16.00,BKN,BKN,BKN,M,3600.00,4400.00,5000.00,M,M,M,M,M,M,M,M,36.94,K05U 222030Z AUTO 36009G16KT 8SM BKN036 BKN044 BKN050 06/M01 A2990 RMK A01,M
BVU,2022-04-22 20:35,-114.8611,35.9475,671.00,59.00,35.60,41.42,260.00,7.00,0.00,29.87,M,10.00,12.00,FEW,SCT,SCT,M,7500.00,9000.00,11000.00,M,M,M,M,M,M,M,M,59.00,KBVU 222035Z AUTO 26007G12KT 10SM FEW075 SCT090 SCT110 15/02 A2987 RMK AO2,M
RTS,2022-04-22 20:35,-119.8764,39.6682,1539.00,46.40,24.80,42.44,290.00,12.00,0.00,30.02,M,10.00,20.00,BKN,BKN,M,M,4700.00,5500.00,M,M,M,M,M,M,M,M,M,40.33,KRTS 222035Z AUTO 29012G20KT 10SM BKN047 BKN055 08/M04 A3002 RMK AO2,M
HTH,2022-04-22 20:35,-118.6315,38.5448,1282.89,53.60,21.20,27.91,330.00,16.00,0.00,29.97,M,10.00,M,FEW,SCT,M,M,4900.00,6000.00,M,M,M,M,M,M,M,M,M,53.60,KHTH 222035Z AUTO 33016KT 10SM FEW049 SCT060 12/M06 A2997 RMK A01,M
TMT,2022-04-22 20:35,-117.1971,39.4643,1749.34,38.00,32.70,80.70,170.00,3.00,0.00,29.96,M,10.00,M,SCT,SCT,OVC,M,2500.00,3000.00,5000.00,M,M,M,M,M,M,M,M,35.66,KTMT 222035Z AUTO 17003KT 10SM SCT025 SCT030 OVC050 03/00 A2996 RMK AO2 T00340004,M
CXP,2022-04-22 20:35,-119.7326,39.1923,1431.00,50.00,19.40,29.52,300.00,8.00,0.00,30.00,M,10.00,13.00,BKN,BKN,M,M,6000.00,7000.00,M,M,M,M,M,M,M,M,M,50.00,KCXP 222035Z AUTO 30008G13KT 10SM BKN060 BKN070 10/M07 A3000 RMK AO2,M
MEV,2022-04-22 20:35,-119.7500,38.9963,1441.42,48.20,23.00,36.78,270.00,9.00,0.00,30.00,M,10.00,M,FEW,FEW,M,M,5000.00,5500.00,M,M,M,M,M,M,M,M,M,43.66,KMEV 222035Z AUTO 27009KT 10SM FEW050 FEW055 09/M05 A3000 RMK AO2,M
BAM,2022-04-22 20:35,-116.8743,40.5990,1382.36,50.00,32.00,49.81,280.00,10.00,0.00,29.90,M,10.00,M,BKN,OVC,M,M,4600.00,6500.00,M,M,M,M,M,M,M,M,M,50.00,KBAM 222035Z AUTO 28010KT 10SM BKN046 OVC065 10/00 A2990 RMK AO1,M
ELY,2022-04-22 20:41,-114.8453,39.2950,1909.00,37.40,30.20,74.98,10.00,8.00,0.00,29.84,M,10.00,M,SCT,BKN,OVC,M,2000.00,3000.00,4300.00,M,-SN,M,M,M,M,M,M,30.76,KELY 222041Z AUTO 01008KT 10SM -SN SCT020 BKN030 OVC043 03/M01 A2984,M
P68,2022-04-22 20:44,-116.0056,39.6014,1993.00,42.00,30.90,64.24,10.00,11.00,0.00,29.87,M,M,18.00,M,M,M,M,M,M,M,M,M,M,M,M,M,M,M,35.23,KP68 222044Z AUTO 01011G18KT 06/M01 A2987 RMK AO1 WSHFT 2027 T00561006,M
05U,2022-04-22 20:50,-116.0051,39.6042,1811.23,42.80,32.00,65.38,350.00,11.00,0.00,29.90,M,10.00,M,FEW,BKN,BKN,M,2600.00,3600.00,4200.00,M,M,M,M,M,M,M,M,36.11,K05U 222050Z AUTO 35011KT 10SM FEW026 BKN036 BKN042 06/00 A2990 RMK A01,M
LOL,2022-04-22 20:53,-118.5701,40.0684,1192.43,54.00,24.10,31.07,350.00,8.00,0.00,29.93,1013.10,10.00,15.00,BKN,BKN,M,M,7500.00,9000.00,M,M,M,M,M,M,M,M,M,54.00,KLOL 222053Z AUTO 35008G15KT 10SM BKN075 BKN090 12/M04 A2993 RMK AO2 SLP131 T01221044 58001,M
P68,2022-04-22 20:53,-116.0056,39.6014,1993.00,43.00,33.00,67.82,350.00,10.00,0.00,29.87,1009.70,M,M,M,M,M,M,M,M,M,M,M,M,M,M,M,M,M,36.76,KP68 222053Z AUTO 35010KT 06/01 A2987 RMK AO1 WSHFT 2027 SLP097 T00610006 53004,M
VGT,2022-04-22 20:53,-115.1933,36.2111,667.00,62.00,37.00,39.21,M,4.00,0.00,29.84,1011.20,10.00,M,FEW,M,M,M,12000.00,M,M,M,M,M,M,M,M,M,M,62.10,KVGT 222053Z VRB04KT 10SM FEW120 17/03 A2984 RMK AO2 SLP112 60007 T01670028 50002,M
ELY,2022-04-22 20:53,-114.8453,39.2950,1909.00,38.00,30.90,75.64,20.00,9.00,T,29.85,1008.60,9.00,M,FEW,BKN,OVC,M,2000.00,4500.00,6000.00,M,M,M,M,M,M,M,M,30.85,KELY 222053Z AUTO 02009KT 9SM FEW020 BKN045 OVC060 03/M01 A2985 RMK AO2 SNB40E49 SLP086 P0000 60000 T00331006 51015,M
DRA,2022-04-22 20:53,-116.0278,36.6206,1009.00,58.00,34.00,40.43,230.00,12.00,0.00,29.85,1008.30,10.00,24.00,CLR,M,M,M,M,M,M,M,M,M,M,M,M,M,M,57.90,KDRA 222053Z AUTO 23012G24KT 10SM CLR 14/01 A2985 RMK AO2 SLP083 T01440011 58002,M
MEV,2022-04-22 20:55,-119.7500,38.9963,1441.42,50.00,24.80,37.08,280.00,10.00,0.00,30.00,M,10.00,15.00,SCT,M,M,M,5500.00,M,M,M,M,M,M,M,M,M,M,50.00,KMEV 222055Z AUTO 28010G15KT 260V320 10SM SCT055 10/M04 A3000 RMK AO2,M
BVU,2022-04-22 20:55,-114.8611,35.9475,671.00,60.80,33.80,36.16,M,6.00,0.00,29.87,M,10.00,M,FEW,M,M,M,11000.00,M,M,M,M,M,M,M,M,M,M,60.80,KBVU 222055Z AUTO VRB06KT 10SM FEW110 16/01 A2987 RMK AO2,M
CXP,2022-04-22 20:55,-119.7326,39.1923,1431.00,51.80,21.20,29.82,320.00,8.00,0.00,30.00,M,10.00,14.00,BKN,BKN,M,M,6000.00,7500.00,M,M,M,M,M,M,M,M,M,51.80,KCXP 222055Z AUTO 32008G14KT 10SM BKN060 BKN075 11/M06 A3000 RMK AO2,M
RNO,2022-04-22 20:55,-119.7711,39.4839,1341.00,52.00,24.10,33.44,330.00,12.00,0.00,30.01,1014.70,10.00,M,BKN,M,M,M,7000.00,M,M,M,M,M,M,M,M,M,M,52.00,KRNO 222055Z 33012KT 10SM BKN070 11/M04 A3001 RMK AO2 SLP147 T01111044 51007,M
RTS,2022-04-22 20:55,-119.8764,39.6682,1539.00,44.60,23.00,42.14,310.00,9.00,0.00,30.02,M,10.00,19.00,SCT,BKN,M,M,4600.00,5500.00,M,M,M,M,M,M,M,M,M,39.18,KRTS 222055Z AUTO 31009G19KT 10SM SCT046 BKN055 07/M05 A3002 RMK AO2,M
TMT,2022-04-22 20:55,-117.1971,39.4643,1749.34,37.80,32.40,80.68,0.00,0.00,0.00,29.96,M,10.00,M,BKN,OVC,M,M,3200.00,5000.00,M,M,M,M,M,M,M,M,M,37.80,KTMT 222055Z AUTO 00000KT 10SM BKN032 OVC050 03/00 A2996 RMK AO2 60001 T00320002,M
BAM,2022-04-22 20:55,-116.8743,40.5990,1382.36,50.00,30.20,46.31,260.00,14.00,0.00,29.91,M,10.00,M,SCT,SCT,SCT,M,4500.00,5000.00,6500.00,M,M,M,M,M,M,M,M,50.00,KBAM 222055Z AUTO 26014KT 10SM SCT045 SCT050 SCT065 10/M01 A2991 RMK AO1,M
HTH,2022-04-22 20:55,-118.6315,38.5448,1282.89,51.80,21.20,29.82,310.00,7.00,0.00,29.97,M,10.00,16.00,FEW,FEW,M,M,6000.00,7500.00,M,M,M,M,M,M,M,M,M,51.80,KHTH 222055Z AUTO 31007G16KT 10SM FEW060 FEW075 11/M06 A2997 RMK A01,M
NFL,2022-04-22 20:56,-118.7010,39.4166,1199.00,55.00,23.00,28.61,290.00,12.00,0.00,29.96,1011.70,10.00,20.00,FEW,SCT,M,M,6000.00,8000.00,M,M,M,M,M,M,M,M,M,55.00,KNFL 222056Z 29012G20KT 240V310 10SM FEW060 SCT080 13/M05 A2996 RMK AO2 SLP117 T01281050 51003,M
TPH,2022-04-22 20:56,-117.0904,38.0505,1654.00,52.00,19.90,28.01,310.00,25.00,0.00,29.89,1010.00,10.00,35.00,CLR,M,M,M,M,M,M,M,M,M,M,M,46.00,330.00,2022-04-22 20:16,52.00,KTPH 222056Z AUTO 31025G35KT 10SM CLR 11/M07 A2989 RMK AO2 PK WND 33046/2016 SLP100 T01111067 51008 $,M
LAS,2022-04-22 20:56,-115.1634,36.0719,663.00,64.00,33.00,31.41,200.00,7.00,0.00,29.85,1009.60,10.00,M,FEW,FEW,M,M,10000.00,20000.00,M,M,M,M,M,M,M,M,M,64.00,KLAS 222056Z 20007KT 10SM FEW100 FEW200 18/01 A2985 RMK AO2 SLP096 60000 T01780006 50003,M
EKO,2022-04-22 20:56,-115.7860,40.8242,1367.00,44.00,30.00,57.37,300.00,22.00,T,29.85,1010.50,10.00,30.00,FEW,BKN,OVC,M,4400.00,6000.00,9000.00,M,M,M,M,M,33.00,290.00,2022-04-22 20:35,34.78,KEKO 222056Z AUTO 30022G30KT 10SM FEW044 BKN060 OVC090 07/M01 A2985 RMK AO2 PK WND 29033/2035 RAB39E54 SLP105 P0000 60000 T00671011 53007,M
HND,2022-04-22 20:56,-115.1344,35.9729,742.79,62.00,36.00,37.69,220.00,10.00,0.00,29.87,1012.10,10.00,M,BKN,M,M,M,10000.00,M,M,M,M,M,M,M,M,M,M,62.10,KHND 222056Z 22010KT 10SM BKN100 17/02 A2987 RMK AO2 SLP121 60005 T01670022 50006,M
WMC,2022-04-22 20:56,-117.8072,40.9019,1315.00,49.00,36.00,60.88,350.00,16.00,0.02,29.94,1013.50,10.00,24.00,SCT,M,M,M,10000.00,M,M,M,M,M,M,M,30.00,340.00,2022-04-22 20:14,42.45,KWMC 222056Z AUTO 35016G24KT 10SM SCT100 09/02 A2994 RMK AO2 PK WND 34030/2014 RAB02E35 SLP135 P0002 60002 T00940022 53008,M
INS,2022-04-22 20:58,-115.6733,36.5872,955.00,60.30,27.90,28.98,270.00,19.00,0.00,29.84,1007.80,10.00,M,CLR,M,M,M,M,M,M,M,M,M,M,M,M,M,M,60.30,KINS 222058Z AUTO 27019KT 10SM CLR 16/M02 A2984 RMK AO2 SLP078 T01571023 56007 $,M
LSV,2022-04-22 20:58,-115.0343,36.2362,570.00,61.30,43.00,50.94,190.00,4.00,0.00,29.84,1009.40,10.00,M,FEW,FEW,SCT,SCT,10000.00,14000.00,16000.00,19000.00,M,M,M,M,M,M,M,61.30,KLSV 222058Z 19004KT 10SM FEW100 FEW140 SCT160 SCT190 16/06 A2984 RMK AO2A SLP094 60005 T01630061 50005 $,M
05U,2022-04-22 21:10,-116.0051,39.6042,1811.23,42.80,32.00,65.38,30.00,10.00,0.00,29.90,M,8.00,17.00,FEW,SCT,BKN,M,2300.00,3000.00,3500.00,M,M,M,M,M,M,M,M,36.51,K05U 222110Z AUTO 03010G17KT 8SM FEW023 SCT030 BKN035 06/00 A2990 RMK A01,M
BAM,2022-04-22 21:15,-116.8743,40.5990,1382.36,48.20,30.20,49.53,250.00,9.00,0.00,29.91,M,10.00,M,BKN,M,M,M,9000.00,M,M,M,M,M,M,M,M,M,M,43.66,KBAM 222115Z AUTO 25009KT 10SM BKN090 09/M01 A2991 RMK AO1,M
CXP,2022-04-22 21:15,-119.7326,39.1923,1431.00,51.80,21.20,29.82,300.00,12.00,0.00,30.01,M,10.00,M,BKN,OVC,M,M,6000.00,7000.00,M,M,M,M,M,M,M,M,M,51.80,KCXP 222115Z AUTO 30012KT 10SM BKN060 OVC070 11/M06 A3001 RMK AO2,M
MEV,2022-04-22 21:15,-119.7500,38.9963,1441.42,50.00,23.00,34.39,280.00,13.00,0.00,30.01,M,10.00,20.00,SCT,M,M,M,5500.00,M,M,M,M,M,M,M,M,M,M,50.00,KMEV 222115Z AUTO 28013G20KT 10SM SCT055 10/M05 A3001 RMK AO2,M
RTS,2022-04-22 21:15,-119.8764,39.6682,1539.00,46.40,24.80,42.44,310.00,14.00,0.00,30.03,M,10.00,21.00,SCT,SCT,M,M,4900.00,6000.00,M,M,M,M,M,M,M,M,M,39.72,KRTS 222115Z AUTO 31014G21KT 10SM SCT049 SCT060 08/M04 A3003 RMK AO2,M
BVU,2022-04-22 21:15,-114.8611,35.9475,671.00,60.80,35.60,38.85,170.00,6.00,0.00,29.86,M,10.00,15.00,SCT,M,M,M,11000.00,M,M,M,M,M,M,M,M,M,M,60.80,KBVU 222115Z AUTO 17006G15KT 10SM SCT110 16/02 A2986 RMK AO2,M
HTH,2022-04-22 21:15,-118.6315,38.5448,1282.89,53.60,21.20,27.91,330.00,9.00,0.00,29.98,M,10.00,18.00,FEW,SCT,M,M,6500.00,8000.00,M,M,M,M,M,M,M,M,M,53.60,KHTH 222115Z AUTO 33009G18KT 310V010 10SM FEW065 SCT080 12/M06 A2998 RMK A01,M
TMT,2022-04-22 21:15,-117.1971,39.4643,1749.34,44.20,31.10,59.76,290.00,8.00,0.00,29.96,M,10.00,15.00,BKN,OVC,M,M,3600.00,5000.00,M,M,M,M,M,M,M,M,M,39.14,KTMT 222115Z AUTO 29008G15KT 10SM BKN036 OVC050 07/00 A2996 RMK AO2 T00681005,M
EKO,2022-04-22 21:24,-115.7860,40.8242,1367.00,47.00,30.00,51.58,280.00,16.00,0.00,29.85,M,10.00,M,FEW,SCT,M,M,7000.00,11000.00,M,M,VCTS,M,M,M,29.00,290.00,2022-04-22 21:04,39.84,KEKO 222124Z AUTO 28016KT 10SM VCTS FEW070 SCT110 08/M01 A2985 RMK AO2 PK WND 29029/2104 T00831011,M
05U,2022-04-22 21:30,-116.0051,39.6042,1811.23,37.40,32.00,80.65,20.00,8.00,0.00,29.91,M,2.00,15.00,FEW,FEW,SCT,M,300.00,2100.00,3600.00,M,HZ,M,M,M,M,M,M,30.76,K05U 222130Z AUTO 02008G15KT 2SM HZ FEW003 FEW021 SCT036 03/00 A2991 RMK A01 VIS 1 1/4V4,M
BVU,2022-04-22 21:35,-114.8611,35.9475,671.00,62.60,33.80,33.93,210.00,7.00,0.00,29.86,M,10.00,M,BKN,M,M,M,10000.00,M,M,M,M,M,M,M,M,M,M,62.60,KBVU 222135Z AUTO 21007KT 180V240 10SM BKN100 17/01 A2986 RMK AO2,M
TMT,2022-04-22 21:35,-117.1971,39.4643,1749.34,44.20,29.10,55.09,290.00,15.00,0.00,29.96,M,10.00,18.00,SCT,SCT,M,M,3800.00,5000.00,M,M,M,M,M,M,M,M,M,36.60,KTMT 222135Z AUTO 29015G18KT 10SM SCT038 SCT050 07/M02 A2996 RMK AO2 T00681016,M
HTH,2022-04-22 21:35,-118.6315,38.5448,1282.89,53.60,21.20,27.91,360.00,14.00,0.00,29.98,M,10.00,23.00,SCT,SCT,BKN,M,6500.00,8000.00,9500.00,M,M,M,M,M,M,M,M,53.60,KHTH 222135Z AUTO 36014G23KT 10SM SCT065 SCT080 BKN095 12/M06 A2998 RMK A01,M
BAM,2022-04-22 21:35,-116.8743,40.5990,1382.36,50.00,30.20,46.31,220.00,6.00,0.00,29.91,M,10.00,M,SCT,SCT,BKN,M,5500.00,10000.00,12000.00,M,M,M,M,M,M,M,M,50.00,KBAM 222135Z AUTO 22006KT 10SM SCT055 SCT100 BKN120 10/M01 A2991 RMK AO1,M
MEV,2022-04-22 21:35,-119.7500,38.9963,1441.42,51.80,26.60,37.38,270.00,16.00,0.00,30.02,M,10.00,M,SCT,M,M,M,6000.00,M,M,M,M,M,M,M,M,M,M,51.80,KMEV 222135Z AUTO 27016KT 10SM SCT060 11/M03 A3002 RMK AO2,M
RTS,2022-04-22 21:35,-119.8764,39.6682,1539.00,48.20,23.00,36.78,320.00,11.00,0.00,30.03,M,10.00,17.00,FEW,SCT,BKN,M,4900.00,5500.00,6500.00,M,M,M,M,M,M,M,M,42.94,KRTS 222135Z AUTO 32011G17KT 280V340 10SM FEW049 SCT055 BKN065 09/M05 A3003 RMK AO2,M
CXP,2022-04-22 21:35,-119.7326,39.1923,1431.00,50.00,19.40,29.52,250.00,9.00,0.00,30.02,M,9.00,18.00,BKN,OVC,M,M,6000.00,7000.00,M,M,M,M,M,M,M,M,M,50.00,KCXP 222135Z AUTO 25009G18KT 230V290 9SM BKN060 OVC070 10/M07 A3002 RMK AO2,M
EKO,2022-04-22 21:39,-115.7860,40.8242,1367.00,48.00,30.90,51.34,280.00,17.00,0.00,29.86,M,10.00,25.00,SCT,M,M,M,10000.00,M,M,M,M,M,M,M,29.00,290.00,2022-04-22 21:04,41.04,KEKO 222139Z AUTO 28017G25KT 10SM SCT100 09/M01 A2986 RMK AO2 PK WND 29029/2104 LTG DSNT S T00891006,M
05U,2022-04-22 21:50,-116.0051,39.6042,1811.23,41.00,32.00,70.08,330.00,9.00,0.00,29.92,M,10.00,M,FEW,FEW,SCT,M,300.00,3700.00,6000.00,M,M,M,M,M,M,M,M,34.70,K05U 222150Z AUTO 33009KT 10SM FEW003 FEW037 SCT060 05/00 A2992 RMK A01,M
VGT,2022-04-22 21:53,-115.1933,36.2111,667.00,66.00,33.00,29.29,150.00,8.00,0.00,29.82,1010.50,10.00,M,CLR,M,M,M,M,M,M,M,M,M,M,M,M,M,M,66.00,KVGT 222153Z 15008KT 10SM CLR 19/01 A2982 RMK AO2 SLP105 T01890006,M
ELY,2022-04-22 21:53,-114.8453,39.2950,1909.00,41.00,30.90,67.03,30.00,7.00,0.00,29.85,1008.30,10.00,M,SCT,SCT,BKN,M,2600.00,3400.00,4700.00,M,M,M,M,M,M,M,M,35.75,KELY 222153Z AUTO 03007KT 10SM SCT026 SCT034 BKN047 05/M01 A2985 RMK AO2 SLP083 T00501006,M
LOL,2022-04-22 21:53,-118.5701,40.0684,1192.43,52.00,28.00,39.30,10.00,20.00,T,29.95,1014.10,10.00,27.00,SCT,OVC,M,M,7000.00,9000.00,M,M,-RA,M,M,M,27.00,350.00,2022-04-22 21:50,52.00,KLOL 222153Z AUTO 01020G27KT 10SM -RA SCT070 OVC090 11/M02 A2995 RMK AO2 PK WND 35027/2150 RAB51 SLP141 P0000 T01111022,M
DRA,2022-04-22 21:53,-116.0278,36.6206,1009.00,62.00,34.00,34.81,230.00,17.00,0.00,29.85,1008.00,10.00,26.00,CLR,M,M,M,M,M,M,M,M,M,M,M,26.00,220.00,2022-04-22 21:45,62.10,KDRA 222153Z AUTO 23017G26KT 10SM CLR 17/01 A2985 RMK AO2 PK WND 22026/2145 SLP080 T01670011,M
P68,2022-04-22 21:53,-116.0056,39.6014,1993.00,42.00,33.00,70.20,340.00,8.00,0.04,29.89,1010.50,M,17.00,M,M,M,M,M,M,M,M,M,M,M,M,M,M,M,36.55,KP68 222153Z AUTO 34008G17KT 06/01 A2989 RMK AO1 SLP105 P0004 T00560006,M
TMT,2022-04-22 21:55,-117.1971,39.4643,1749.34,45.00,29.30,53.87,290.00,12.00,0.00,29.96,M,10.00,19.00,SCT,SCT,M,M,4400.00,6000.00,M,M,M,M,M,M,M,M,M,38.55,KTMT 222155Z AUTO 29012G19KT 10SM SCT044 SCT060 07/M01 A2996 RMK AO2 T00721015,M
RNO,2022-04-22 21:55,-119.7711,39.4839,1341.00,52.00,21.90,30.49,310.00,10.00,0.00,30.02,1015.00,10.00,M,BKN,M,M,M,7000.00,M,M,M,M,M,M,M,M,M,M,52.00,KRNO 222155Z 31010KT 10SM BKN070 11/M06 A3002 RMK AO2 SLP150 T01111056,M
CXP,2022-04-22 21:55,-119.7326,39.1923,1431.00,51.80,19.40,27.62,M,6.00,0.00,30.02,M,10.00,11.00,SCT,SCT,M,M,5500.00,7000.00,M,M,M,M,M,M,M,M,M,51.80,KCXP 222155Z AUTO VRB06G11KT 10SM SCT055 SCT070 11/M07 A3002 RMK AO2,M
RTS,2022-04-22 21:55,-119.8764,39.6682,1539.00,46.40,23.00,39.36,280.00,14.00,0.00,30.03,M,10.00,M,BKN,BKN,OVC,M,5000.00,5500.00,7500.00,M,M,M,M,M,M,M,M,39.72,KRTS 222155Z AUTO 28014KT 10SM BKN050 BKN055 OVC075 08/M05 A3003 RMK AO2,M
MEV,2022-04-22 21:55,-119.7500,38.9963,1441.42,51.80,24.80,34.69,290.00,15.00,0.00,30.01,M,10.00,22.00,SCT,M,M,M,6000.00,M,M,M,M,M,M,M,M,M,M,51.80,KMEV 222155Z AUTO 29015G22KT 10SM SCT060 11/M04 A3001 RMK AO2,M
BAM,2022-04-22 21:55,-116.8743,40.5990,1382.36,46.40,32.00,57.00,60.00,4.00,0.00,29.92,M,10.00,M,BKN,BKN,M,M,5000.00,5500.00,M,M,M,M,M,M,M,M,M,44.24,KBAM 222155Z AUTO 06004KT 10SM BKN050 BKN055 08/00 A2992 RMK AO1,M
HTH,2022-04-22 21:55,-118.6315,38.5448,1282.89,53.60,17.60,23.93,360.00,10.00,0.00,29.98,M,10.00,21.00,FEW,SCT,M,M,7000.00,9000.00,M,M,M,M,M,M,M,M,M,53.60,KHTH 222155Z AUTO 36010G21KT 10SM FEW070 SCT090 12/M08 A2998 RMK A01,M
BVU,2022-04-22 21:55,-114.8611,35.9475,671.00,64.40,32.00,29.63,220.00,11.00,0.00,29.85,M,10.00,M,FEW,M,M,M,10000.00,M,M,M,M,M,M,M,M,M,M,64.40,KBVU 222155Z AUTO 22011KT 10SM FEW100 18/00 A2985 RMK AO2,M
HND,2022-04-22 21:56,-115.1344,35.9729,742.79,66.00,28.00,23.82,230.00,9.00,0.00,29.86,1011.40,10.00,M,CLR,M,M,M,M,M,M,M,M,M,M,M,M,M,M,66.00,KHND 222156Z 23009KT 10SM CLR 19/M02 A2986 RMK AO2 SLP114 T01891022,M
LAS,2022-04-22 21:56,-115.1634,36.0719,663.00,66.00,28.00,23.82,M,4.00,0.00,29.83,1009.00,10.00,M,FEW,FEW,M,M,10000.00,20000.00,M,M,M,M,M,M,M,M,M,66.00,KLAS 222156Z VRB04KT 10SM FEW100 FEW200 19/M02 A2983 RMK AO2 SLP090 T01891022,M
EKO,2022-04-22 21:56,-115.7860,40.8242,1367.00,49.00,32.00,51.89,290.00,15.00,0.00,29.86,1010.40,10.00,27.00,FEW,FEW,M,M,9000.00,11000.00,M,M,M,M,M,M,29.00,290.00,2022-04-22 21:04,42.69,KEKO 222156Z AUTO 29015G27KT 10SM FEW090 FEW110 09/00 A2986 RMK AO2 PK WND 29029/2104 SLP104 T00940000,M
NFL,2022-04-22 21:56,-118.7010,39.4166,1199.00,55.00,21.00,26.29,310.00,8.00,0.00,29.96,1011.80,10.00,19.00,SCT,BKN,M,M,7000.00,10000.00,M,M,M,M,M,M,M,M,M,55.00,KNFL 222156Z 31008G19KT 260V340 10SM SCT070 BKN100 13/M06 A2996 RMK AO2 SLP118 T01281061,M
TPH,2022-04-22 21:56,-117.0904,38.0505,1654.00,52.00,18.00,25.82,310.00,23.00,0.00,29.91,1010.80,10.00,34.00,CLR,M,M,M,M,M,M,M,M,M,M,M,37.00,300.00,2022-04-22 21:01,52.00,KTPH 222156Z AUTO 31023G34KT 10SM CLR 11/M08 A2991 RMK AO2 PK WND 30037/2101 SLP108 T01111078 $,M
WMC,2022-04-22 21:56,-117.8072,40.9019,1315.00,50.00,32.00,49.81,270.00,13.00,0.00,29.94,1013.30,10.00,21.00,CLR,M,M,M,M,M,M,M,M,M,M,M,M,M,M,50.00,KWMC 222156Z AUTO 27013G21KT 10SM CLR 10/00 A2994 RMK AO2 WSHFT 2138 SLP133 T01000000,M
LSV,2022-04-22 21:58,-115.0343,36.2362,570.00,69.30,36.50,29.93,230.00,5.00,0.00,29.82,1008.30,10.00,M,CLR,M,M,M,M,M,M,M,M,M,M,M,M,M,M,69.30,KLSV 222158Z AUTO 23005KT 10SM CLR 21/03 A2982 RMK AO2 SLP083 T02070025 $,M
INS,2022-04-22 21:58,-115.6733,36.5872,955.00,62.40,26.10,24.98,270.00,24.00,0.00,29.82,1007.10,9.00,27.00,CLR,M,M,M,M,M,M,M,M,M,M,M,29.00,260.00,2022-04-22 21:54,62.40,KINS 222158Z AUTO 27024G27KT 9SM CLR 17/M03 A2982 RMK AO2 PK WND 26029/54 SLP071 T01691033 $,M
05U,2022-04-22 22:10,-116.0051,39.6042,1811.23,41.00,28.40,60.54,300.00,4.00,0.00,29.92,M,9.00,M,SCT,SCT,SCT,M,3700.00,5000.00,6000.00,M,M,M,M,M,M,M,M,37.93,K05U 222210Z AUTO 30004KT 9SM SCT037 SCT050 SCT060 05/M02 A2992 RMK A01,M
BVU,2022-04-22 22:15,-114.8611,35.9475,671.00,64.40,32.00,29.63,M,6.00,0.00,29.85,M,10.00,14.00,CLR,M,M,M,M,M,M,M,M,M,M,M,M,M,M,64.40,KBVU 222215Z AUTO VRB06G14KT 10SM CLR 18/M00 A2985 RMK AO2,M
TMT,2022-04-22 22:15,-117.1971,39.4643,1749.34,46.00,27.70,48.76,310.00,11.00,0.00,29.96,M,10.00,16.00,SCT,M,M,M,6000.00,M,M,M,M,M,M,M,M,M,M,40.03,KTMT 222215Z AUTO 31011G16KT 10SM SCT060 08/M02 A2996 RMK AO2 T00771024,M
CXP,2022-04-22 22:15,-119.7326,39.1923,1431.00,51.80,19.40,27.62,310.00,8.00,0.00,30.02,M,10.00,M,SCT,SCT,M,M,6000.00,8000.00,M,M,M,M,M,M,M,M,M,51.80,KCXP 222215Z AUTO 31008KT 10SM SCT060 SCT080 11/M07 A3002 RMK AO2,M
RTS,2022-04-22 22:15,-119.8764,39.6682,1539.00,46.40,21.20,36.48,300.00,11.00,0.00,30.03,M,10.00,19.00,BKN,OVC,M,M,5000.00,6500.00,M,M,M,M,M,M,M,M,M,40.66,KRTS 222215Z AUTO 30011G19KT 10SM BKN050 OVC065 08/M06 A3003 RMK AO2,M
MEV,2022-04-22 22:15,-119.7500,38.9963,1441.42,51.80,24.80,34.69,280.00,14.00,0.00,30.01,M,10.00,M,FEW,M,M,M,6000.00,M,M,M,M,M,M,M,M,M,M,51.80,KMEV 222215Z AUTO 28014KT 10SM FEW060 11/M04 A3001 RMK AO2,M
BAM,2022-04-22 22:15,-116.8743,40.5990,1382.36,48.20,33.80,57.26,290.00,22.00,0.00,29.92,M,10.00,M,OVC,M,M,M,4600.00,M,M,M,M,M,M,M,M,M,M,40.27,KBAM 222215Z AUTO 29022KT 10SM OVC046 09/01 A2992 RMK AO1,M
HTH,2022-04-22 22:15,-118.6315,38.5448,1282.89,53.60,17.60,23.93,350.00,10.00,0.00,29.98,M,10.00,19.00,CLR,M,M,M,M,M,M,M,M,M,M,M,M,M,M,53.60,KHTH 222215Z AUTO 35010G19KT 10SM CLR 12/M08 A2998 RMK A01,M
05U,2022-04-22 22:30,-116.0051,39.6042,1811.23,44.60,30.20,56.74,300.00,12.00,0.00,29.92,M,10.00,M,FEW,SCT,M,M,3700.00,4500.00,M,M,M,M,M,M,M,M,M,38.04,K05U 222230Z AUTO 30012KT 10SM FEW037 SCT045 07/M01 A2992 RMK A01,M
TMT,2022-04-22 22:35,-117.1971,39.4643,1749.34,45.00,27.90,50.87,290.00,10.00,0.00,29.97,M,10.00,M,SCT,M,M,M,5000.00,M,M,M,M,M,M,M,M,M,M,39.27,KTMT 222235Z AUTO 29010KT 10SM SCT050 07/M02 A2997 RMK AO2 T00721023,M
CXP,2022-04-22 22:35,-119.7326,39.1923,1431.00,53.60,19.40,25.85,310.00,11.00,0.00,30.02,M,10.00,17.00,SCT,M,M,M,6000.00,M,M,M,M,M,M,M,M,M,M,53.60,KCXP 222235Z AUTO 31011G17KT 10SM SCT060 12/M07 A3002 RMK AO2,M
RTS,2022-04-22 22:35,-119.8764,39.6682,1539.00,48.20,23.00,36.78,290.00,18.00,0.00,30.03,M,10.00,M,BKN,OVC,M,M,5000.00,6000.00,M,M,M,M,M,M,M,M,M,41.07,KRTS 222235Z AUTO 29018KT 10SM BKN050 OVC060 09/M05 A3003 RMK AO2,M
HTH,2022-04-22 22:35,-118.6315,38.5448,1282.89,55.40,17.60,22.41,360.00,16.00,0.00,29.97,M,10.00,M,CLR,M,M,M,M,M,M,M,M,M,M,M,M,M,M,55.40,KHTH 222235Z AUTO 36016KT 10SM CLR 13/M08 A2997 RMK A01,M
BVU,2022-04-22 22:35,-114.8611,35.9475,671.00,68.00,30.20,24.32,230.00,7.00,0.00,29.84,M,10.00,14.00,CLR,M,M,M,M,M,M,M,M,M,M,M,M,M,M,68.00,KBVU 222235Z AUTO 23007G14KT 10SM CLR 20/M01 A2984 RMK AO2,M
MEV,2022-04-22 22:35,-119.7500,38.9963,1441.42,51.80,23.00,32.17,270.00,13.00,0.00,30.01,M,10.00,19.00,CLR,M,M,M,M,M,M,M,M,M,M,M,M,M,M,51.80,KMEV 222235Z AUTO 27013G19KT 10SM CLR 11/M05 A3001 RMK AO2,M
BAM,2022-04-22 22:35,-116.8743,40.5990,1382.36,48.20,33.80,57.26,350.00,18.00,0.00,29.93,M,10.00,22.00,SCT,BKN,OVC,M,4100.00,4800.00,6500.00,M,M,M,M,M,M,M,M,41.07,KBAM 222235Z AUTO 35018G22KT 10SM SCT041 BKN048 OVC065 09/01 A2993 RMK AO1,M
05U,2022-04-22 22:50,-116.0051,39.6042,1811.23,48.20,30.20,49.53,310.00,13.00,0.00,29.92,M,10.00,22.00,FEW,M,M,M,4700.00,M,M,M,M,M,M,M,M,M,M,42.32,K05U 222250Z AUTO 31013G22KT 10SM FEW047 09/M01 A2992 RMK A01,M
LOL,2022-04-22 22:53,-118.5701,40.0684,1192.43,48.00,34.00,58.16,330.00,18.00,T,29.99,1015.60,10.00,25.00,FEW,BKN,OVC,M,4900.00,6000.00,7000.00,M,M,M,M,M,34.00,360.00,2022-04-22 22:09,40.81,KLOL 222253Z AUTO 33018G25KT 10SM FEW049 BKN060 OVC070 09/01 A2999 RMK AO2 PK WND 36034/2209 RAE46 SLP156 P0000 T00890011,M
ELY,2022-04-22 22:53,-114.8453,39.2950,1909.00,41.00,30.00,64.63,310.00,4.00,0.00,29.87,1009.50,10.00,M,BKN,BKN,OVC,M,3300.00,4300.00,7500.00,M,M,M,M,M,M,M,M,37.93,KELY 222253Z AUTO 31004KT 10SM BKN033 BKN043 OVC075 05/M01 A2987 RMK AO2 SLP095 T00501011,M
P68,2022-04-22 22:53,-116.0056,39.6014,1993.00,46.00,30.90,55.36,310.00,17.00,0.00,29.90,1010.10,M,23.00,M,M,M,M,M,M,M,M,M,M,M,M,27.00,340.00,2022-04-22 21:55,38.42,KP68 222253Z AUTO 31017G23KT 08/M01 A2990 RMK AO1 PK WND 34027/2155 SLP101 T00781006,M
DRA,2022-04-22 22:53,-116.0278,36.6206,1009.00,62.00,28.00,27.30,230.00,14.00,0.00,29.85,1008.30,10.00,21.00,CLR,M,M,M,M,M,M,M,M,M,M,M,M,M,M,62.10,KDRA 222253Z AUTO 23014G21KT 10SM CLR 17/M02 A2985 RMK AO2 SLP083 T01671022,M
VGT,2022-04-22 22:53,-115.1933,36.2111,667.00,69.00,28.90,22.21,230.00,10.00,0.00,29.81,1009.80,10.00,17.00,FEW,M,M,M,11000.00,M,M,M,M,M,M,M,M,M,M,69.10,KVGT 222253Z 23010G17KT 10SM FEW110 21/M02 A2981 RMK AO2 SLP098 T02061017,M
MEV,2022-04-22 22:55,-119.7500,38.9963,1441.42,51.80,23.00,32.17,280.00,16.00,0.00,30.02,M,10.00,21.00,FEW,M,M,M,6000.00,M,M,M,M,M,M,M,M,M,M,51.80,KMEV 222255Z AUTO 28016G21KT 10SM FEW060 11/M05 A3002 RMK AO2,M
BAM,2022-04-22 22:55,-116.8743,40.5990,1382.36,48.20,33.80,57.26,360.00,14.00,0.00,29.95,M,10.00,23.00,BKN,OVC,M,M,5500.00,7000.00,M,M,M,M,M,M,M,M,M,42.04,KBAM 222255Z AUTO 36014G23KT 10SM BKN055 OVC070 09/01 A2995 RMK AO1,M
HTH,2022-04-22 22:55,-118.6315,38.5448,1282.89,55.40,17.60,22.41,360.00,14.00,0.00,29.98,M,10.00,20.00,FEW,M,M,M,9000.00,M,M,M,M,M,M,M,M,M,M,55.40,KHTH 222255Z AUTO 36014G20KT 10SM FEW090 13/M08 A2998 RMK A01,M
TMT,2022-04-22 22:55,-117.1971,39.4643,1749.34,46.00,24.60,42.72,290.00,12.00,0.00,29.97,M,10.00,15.00,SCT,SCT,M,M,5000.00,6500.00,M,M,M,M,M,M,M,M,M,39.82,KTMT 222255Z AUTO 29012G15KT 10SM SCT050 SCT065 08/M04 A2997 RMK AO2 T00781041,M
RNO,2022-04-22 22:55,-119.7711,39.4839,1341.00,53.00,21.00,28.18,300.00,12.00,0.00,30.02,1015.20,10.00,16.00,BKN,M,M,M,7000.00,M,M,M,M,M,M,M,M,M,M,53.10,KRNO 222255Z 30012G16KT 10SM BKN070 12/M06 A3002 RMK AO2 SLP152 T01171061,M
RTS,2022-04-22 22:55,-119.8764,39.6682,1539.00,48.20,23.00,36.78,300.00,12.00,0.00,30.04,M,10.00,19.00,BKN,M,M,M,6000.00,M,M,M,M,M,M,M,M,M,M,42.62,KRTS 222255Z AUTO 30012G19KT 250V330 10SM BKN060 09/M05 A3004 RMK AO2,M
BVU,2022-04-22 22:55,-114.8611,35.9475,671.00,68.00,28.40,22.59,210.00,7.00,0.00,29.84,M,10.00,16.00,CLR,M,M,M,M,M,M,M,M,M,M,M,M,M,M,68.00,KBVU 222255Z AUTO 21007G16KT 10SM CLR 20/M02 A2984 RMK AO2,M
CXP,2022-04-22 22:55,-119.7326,39.1923,1431.00,53.60,19.40,25.85,320.00,8.00,0.00,30.02,M,10.00,16.00,FEW,FEW,M,M,6000.00,7500.00,M,M,M,M,M,M,M,M,M,53.60,KCXP 222255Z AUTO 32008G16KT 10SM FEW060 FEW075 12/M07 A3002 RMK AO2,M
INS,2022-04-22 22:55,-115.6733,36.5872,955.00,62.60,23.00,21.79,250.00,17.00,0.00,29.83,1007.40,10.00,23.00,CLR,M,M,M,M,M,M,M,M,M,M,M,M,M,M,62.60,KINS 222255Z AUTO 25017G23KT 10SM CLR 17/M05 A2983 RMK AO2 WSHFT 46 SLP074 $,M
HND,2022-04-22 22:56,-115.1344,35.9729,742.79,67.00,27.00,22.15,M,5.00,0.00,29.85,1011.20,10.00,M,FEW,M,M,M,9000.00,M,M,M,M,M,M,M,M,M,M,66.90,KHND 222256Z VRB05KT 10SM FEW090 19/M03 A2985 RMK AO2 SLP112 T01941028,M
WMC,2022-04-22 22:56,-117.8072,40.9019,1315.00,51.00,30.00,44.09,M,6.00,0.00,29.94,1013.00,10.00,M,FEW,SCT,M,M,6000.00,7500.00,M,M,M,M,M,M,M,M,M,51.10,KWMC 222256Z AUTO VRB06KT 10SM FEW060 SCT075 11/M01 A2994 RMK AO2 SLP130 T01061011,M
NFL,2022-04-22 22:56,-118.7010,39.4166,1199.00,56.00,19.00,23.37,330.00,8.00,0.00,29.97,1012.00,10.00,17.00,BKN,M,M,M,8000.00,M,M,M,M,M,M,M,M,M,M,55.90,KNFL 222256Z 33008G17KT 10SM BKN080 13/M07 A2997 RMK AO2 SLP120 SH VC N-NE T01331072,M
TPH,2022-04-22 22:56,-117.0904,38.0505,1654.00,52.00,19.00,26.95,M,M,0.00,29.93,1011.20,10.00,M,CLR,M,M,M,M,M,M,M,M,M,M,M,41.00,320.00,2022-04-22 22:09,52.00,KTPH 222256Z AUTO 10SM CLR 11/M07 A2993 RMK AO2 PK WND 32041/2209 SLP112 T01111072 $,M
LAS,2022-04-22 22:56,-115.1634,36.0719,663.00,67.00,27.00,22.15,240.00,8.00,0.00,29.82,1008.60,10.00,M,FEW,FEW,M,M,10000.00,20000.00,M,M,M,M,M,M,M,M,M,66.90,KLAS 222256Z 24008KT 10SM FEW100 FEW200 19/M03 A2982 RMK AO2 SLP086 T01941028,M
EKO,2022-04-22 22:56,-115.7860,40.8242,1367.00,51.00,28.00,40.63,290.00,17.00,0.00,29.87,1010.70,10.00,22.00,FEW,M,M,M,9000.00,M,M,M,M,M,M,M,26.00,310.00,2022-04-22 22:39,51.10,KEKO 222256Z AUTO 29017G22KT 10SM FEW090 11/M02 A2987 RMK AO2 PK WND 31026/2239 SLP107 T01061022,M
LSV,2022-04-22 22:58,-115.0343,36.2362,570.00,71.20,30.40,21.97,200.00,8.00,0.00,29.81,1008.10,10.00,M,CLR,M,M,M,M,M,M,M,M,M,M,M,M,M,M,71.20,KLSV 222258Z AUTO 20008KT 10SM CLR 22/M01 A2981 RMK AO2 SLP081 T02181009 $,M
INS,2022-04-22 22:58,-115.6733,36.5872,955.00,63.00,22.50,21.04,260.00,16.00,0.00,29.83,1007.40,10.00,23.00,CLR,M,M,M,M,M,M,M,M,M,M,M,31.00,260.00,2022-04-22 22:09,63.00,KINS 222258Z AUTO 26016G23KT 10SM CLR 17/M05 A2983 RMK AO2 PK WND 26031/09 SLP074 T01721053 $,M
05U,2022-04-22 23:10,-116.0051,39.6042,1811.23,46.40,30.20,53.00,300.00,11.00,0.00,29.93,M,10.00,20.00,SCT,BKN,M,M,6000.00,7000.00,M,M,M,M,M,M,M,M,M,40.66,K05U 222310Z AUTO 30011G20KT 10SM SCT060 BKN070 08/M01 A2993 RMK A01,M
RTS,2022-04-22 23:15,-119.8764,39.6682,1539.00,48.20,21.20,34.09,290.00,15.00,0.00,30.04,M,10.00,20.00,FEW,M,M,M,6500.00,M,M,M,M,M,M,M,M,M,M,41.78,KRTS 222315Z AUTO 29015G20KT 10SM FEW065 09/M06 A3004 RMK AO2,M
CXP,2022-04-22 23:15,-119.7326,39.1923,1431.00,51.80,17.60,25.56,250.00,10.00,0.00,30.02,M,10.00,M,BKN,BKN,M,M,6500.00,8000.00,M,M,M,M,M,M,M,M,M,51.80,KCXP 222315Z AUTO 25010KT 10SM BKN065 BKN080 11/M08 A3002 RMK AO2,M
BVU,2022-04-22 23:15,-114.8611,35.9475,671.00,68.00,26.60,20.98,220.00,10.00,0.00,29.84,M,10.00,M,CLR,M,M,M,M,M,M,M,M,M,M,M,M,M,M,68.00,KBVU 222315Z AUTO 22010KT 10SM CLR 20/M03 A2984 RMK AO2,M
TMT,2022-04-22 23:15,-117.1971,39.4643,1749.34,46.80,25.30,42.68,270.00,9.00,0.00,29.97,M,10.00,M,BKN,M,M,M,6500.00,M,M,M,M,M,M,M,M,M,M,41.92,KTMT 222315Z AUTO 27009KT 10SM BKN065 08/M04 A2997 RMK AO2 T00821037,M
MEV,2022-04-22 23:15,-119.7500,38.9963,1441.42,51.80,23.00,32.17,260.00,16.00,0.00,30.02,M,10.00,24.00,FEW,M,M,M,6000.00,M,M,M,M,M,M,M,M,M,M,51.80,KMEV 222315Z AUTO 26016G24KT 10SM FEW060 11/M05 A3002 RMK AO2,M
BAM,2022-04-22 23:15,-116.8743,40.5990,1382.36,50.00,32.00,49.81,340.00,12.00,0.00,29.95,M,10.00,20.00,BKN,OVC,M,M,5500.00,7000.00,M,M,M,M,M,M,M,M,M,50.00,KBAM 222315Z AUTO 34012G20KT 10SM BKN055 OVC070 10/00 A2995 RMK AO1,M
HTH,2022-04-22 23:15,-118.6315,38.5448,1282.89,55.40,17.60,22.41,350.00,13.00,0.00,29.97,M,10.00,21.00,FEW,M,M,M,8500.00,M,M,M,M,M,M,M,M,M,M,55.40,KHTH 222315Z AUTO 35013G21KT 10SM FEW085 13/M08 A2997 RMK A01,M
05U,2022-04-22 23:30,-116.0051,39.6042,1811.23,44.60,26.60,48.96,290.00,9.00,0.00,29.93,M,10.00,16.00,BKN,BKN,M,M,6000.00,7000.00,M,M,M,M,M,M,M,M,M,39.18,K05U 222330Z AUTO 29009G16KT 10SM BKN060 BKN070 07/M03 A2993 RMK A01,M
BVU,2022-04-22 23:35,-114.8611,35.9475,671.00,68.00,26.60,20.98,210.00,11.00,0.00,29.84,M,10.00,M,FEW,M,M,M,9000.00,M,M,M,M,M,M,M,M,M,M,68.00,KBVU 222335Z AUTO 21011KT 10SM FEW090 20/M03 A2984 RMK AO2,M
TMT,2022-04-22 23:35,-117.1971,39.4643,1749.34,47.30,26.60,44.20,310.00,12.00,0.00,29.97,M,10.00,16.00,BKN,BKN,M,M,6500.00,8000.00,M,M,M,M,M,M,M,M,M,41.47,KTMT 222335Z AUTO 31012G16KT 10SM BKN065 BKN080 09/M03 A2997 RMK AO2 T00851030,M
HTH,2022-04-22 23:35,-118.6315,38.5448,1282.89,55.40,17.60,22.41,350.00,6.00,0.00,29.98,M,10.00,17.00,SCT,M,M,M,8500.00,M,M,M,M,M,M,M,M,M,M,55.40,KHTH 222335Z AUTO 35006G17KT 10SM SCT085 13/M08 A2998 RMK A01,M
BAM,2022-04-22 23:35,-116.8743,40.5990,1382.36,48.20,32.00,53.27,340.00,13.00,0.00,29.96,M,10.00,M,SCT,SCT,OVC,M,5500.00,7000.00,9000.00,M,M,M,M,M,M,M,M,42.32,KBAM 222335Z AUTO 34013KT 10SM SCT055 SCT070 OVC090 09/00 A2996 RMK AO1,M
MEV,2022-04-22 23:35,-119.7500,38.9963,1441.42,51.80,23.00,32.17,270.00,14.00,0.00,30.03,M,10.00,M,CLR,M,M,M,M,M,M,M,M,M,M,M,M,M,M,51.80,KMEV 222335Z AUTO 27014KT 10SM CLR 11/M05 A3003 RMK AO2,M
RTS,2022-04-22 23:35,-119.8764,39.6682,1539.00,48.20,23.00,36.78,300.00,15.00,0.00,30.05,M,10.00,22.00,FEW,FEW,M,M,5000.00,7000.00,M,M,M,M,M,M,M,M,M,41.78,KRTS 222335Z AUTO 30015G22KT 10SM FEW050 FEW070 09/M05 A3005 RMK AO2,M
CXP,2022-04-22 23:35,-119.7326,39.1923,1431.00,53.60,19.40,25.85,260.00,10.00,0.00,30.03,M,10.00,16.00,BKN,BKN,M,M,6500.00,7500.00,M,M,M,M,M,M,M,M,M,53.60,KCXP 222335Z AUTO 26010G16KT 10SM BKN065 BKN075 12/M07 A3003 RMK AO2,M
05U,2022-04-22 23:50,-116.0051,39.6042,1811.23,46.40,26.60,45.73,280.00,12.00,0.00,29.94,M,10.00,M,FEW,SCT,M,M,4300.00,6000.00,M,M,M,M,M,M,M,M,M,40.33,K05U 222350Z AUTO 28012KT 10SM FEW043 SCT060 08/M03 A2994 RMK A01,M
P68,2022-04-22 23:53,-116.0056,39.6014,1993.00,47.00,28.00,47.54,310.00,15.00,0.00,29.92,1011.00,M,22.00,M,M,M,M,M,M,M,M,M,M,M,M,M,M,M,40.10,KP68 222353Z AUTO 31015G22KT 08/M02 A2992 RMK AO1 SLP110 60004 T00831022 10083 20028 53014,M
DRA,2022-04-22 23:53,-116.0278,36.6206,1009.00,63.00,26.10,24.46,230.00,13.00,0.00,29.85,1008.10,10.00,23.00,CLR,M,M,M,M,M,M,M,M,M,M,M,M,M,M,63.00,KDRA 222353Z AUTO 23013G23KT 10SM CLR 17/M03 A2985 RMK AO2 SLP081 T01721033 10178 20083 58001,M
ELY,2022-04-22 23:53,-114.8453,39.2950,1909.00,41.00,28.90,61.79,350.00,13.00,T,29.89,1010.40,10.00,25.00,FEW,BKN,OVC,M,3700.00,5500.00,7500.00,M,M,M,M,M,M,M,M,33.10,KELY 222353Z AUTO 35013G25KT 10SM FEW037 BKN055 OVC075 05/M02 A2989 RMK AO2 RAB23E33 SLP104 P0000 60000 T00501017 10061 20006 53013,M
VGT,2022-04-22 23:53,-115.1933,36.2111,667.00,71.00,19.90,14.24,310.00,8.00,0.00,29.82,1010.40,10.00,17.00,BKN,M,M,M,11000.00,M,M,M,M,M,M,M,M,M,M,71.10,KVGT 222353Z 31008G17KT 10SM BKN110 22/M07 A2982 RMK AO2 SLP104 60007 T02171067 10222 20106 55006,M
LOL,2022-04-22 23:53,-118.5701,40.0684,1192.43,53.00,28.00,37.74,300.00,19.00,0.00,29.99,1015.30,10.00,M,SCT,M,M,M,10000.00,M,M,M,M,M,M,M,27.00,310.00,2022-04-22 22:58,53.10,KLOL 222353Z AUTO 30019KT 10SM SCT100 12/M02 A2999 RMK AO2 PK WND 31027/2258 SLP153 60000 T01171022 10133 20078 51018,M
HTH,2022-04-22 23:55,-118.6315,38.5448,1282.89,55.40,15.80,20.73,360.00,16.00,0.00,29.98,M,10.00,M,FEW,M,M,M,9000.00,M,M,M,M,M,M,M,M,M,M,55.40,KHTH 222355Z AUTO 36016KT 10SM FEW090 13/M09 A2998 RMK A01,M
TMT,2022-04-22 23:55,-117.1971,39.4643,1749.34,47.30,25.70,42.58,290.00,11.00,0.00,29.97,M,10.00,15.00,SCT,BKN,M,M,6000.00,8000.00,M,M,M,M,M,M,M,M,M,41.80,KTMT 222355Z AUTO 29011G15KT 10SM SCT060 BKN080 09/M03 A2997 RMK AO2 60001 T00851035 10087 20011,M
BAM,2022-04-22 23:55,-116.8743,40.5990,1382.36,50.00,32.00,49.81,350.00,14.00,0.00,29.97,M,10.00,17.00,BKN,M,M,M,8000.00,M,M,M,M,M,M,M,M,M,M,50.00,KBAM 222355Z AUTO 35014G17KT 10SM BKN080 10/00 A2997 RMK AO1,M
MEV,2022-04-22 23:55,-119.7500,38.9963,1441.42,51.80,24.80,34.69,280.00,16.00,0.00,30.03,M,10.00,M,CLR,M,M,M,M,M,M,M,M,M,M,M,M,M,M,51.80,KMEV 222355Z AUTO 28016KT 10SM CLR 11/M04 A3003 RMK AO2,M
RTS,2022-04-22 23:55,-119.8764,39.6682,1539.00,48.20,23.00,36.78,290.00,13.00,0.00,30.05,M,10.00,20.00,FEW,FEW,M,M,5000.00,6500.00,M,M,M,M,M,M,M,M,M,42.32,KRTS 222355Z AUTO 29013G20KT 10SM FEW050 FEW065 09/M05 A3005 RMK AO2,M
RNO,2022-04-22 23:55,-119.7711,39.4839,1341.00,52.00,23.00,31.93,310.00,13.00,0.00,30.04,1015.70,10.00,19.00,BKN,M,M,M,7000.00,M,M,M,M,M,M,M,M,M,M,52.00,KRNO 222355Z 31013G19KT 10SM BKN070 11/M05 A3004 RMK AO2 SLP157 T01111050 10128 20089 53008,M
CXP,2022-04-22 23:55,-119.7326,39.1923,1431.00,53.60,19.40,25.85,300.00,9.00,0.00,30.04,M,10.00,17.00,FEW,M,M,M,7000.00,M,M,M,M,M,M,M,M,M,M,53.60,KCXP 222355Z AUTO 30009G17KT 10SM FEW070 12/M07 A3004 RMK AO2,M
BVU,2022-04-22 23:55,-114.8611,35.9475,671.00,68.00,24.80,19.47,210.00,11.00,0.00,29.84,M,10.00,17.00,FEW,M,M,M,9000.00,M,M,M,M,M,M,M,M,M,M,68.00,KBVU 222355Z AUTO 21011G17KT 10SM FEW090 20/M04 A2984 RMK AO2,M
LAS,2022-04-22 23:56,-115.1634,36.0719,663.00,68.00,25.00,19.63,0.00,0.00,0.00,29.83,1009.10,10.00,M,SCT,SCT,M,M,10000.00,20000.00,M,M,M,M,M,M,M,M,M,68.00,KLAS 222356Z 00000KT 10SM SCT100 SCT200 20/M04 A2983 RMK AO2 SLP091 60000 T02001039 10206 20117 55006,M
WMC,2022-04-22 23:56,-117.8072,40.9019,1315.00,45.00,33.00,62.83,310.00,18.00,0.00,29.99,1015.50,10.00,29.00,BKN,BKN,BKN,M,5000.00,6500.00,12000.00,M,M,M,M,M,31.00,320.00,2022-04-22 23:40,36.86,KWMC 222356Z AUTO 31018G29KT 10SM BKN050 BKN065 BKN120 07/01 A2999 RMK AO2 PK WND 32031/2340 SLP155 60002 T00720006 10128 20056 53014,M
EKO,2022-04-22 23:56,-115.7860,40.8242,1367.00,49.00,26.10,40.77,300.00,14.00,0.00,29.89,1011.80,10.00,21.00,SCT,M,M,M,11000.00,M,M,M,M,M,M,M,M,M,M,42.95,KEKO 222356Z AUTO 30014G21KT 10SM SCT110 09/M03 A2989 RMK AO2 SLP118 60000 T00941033 10117 20067 53013,M
NFL,2022-04-22 23:56,-118.7010,39.4166,1199.00,59.00,18.00,20.02,330.00,17.00,0.00,29.98,1012.40,10.00,25.00,BKN,M,M,M,8000.00,M,M,M,M,M,M,M,28.00,310.00,2022-04-22 23:39,59.00,KNFL 222356Z 33017G25KT 10SM BKN080 15/M08 A2998 RMK AO2 PK WND 31028/2339 SLP124 SH VC N-NE T01501078 10150 20089 53007,M
TPH,2022-04-22 23:56,-117.0904,38.0505,1654.00,52.00,16.00,23.68,M,M,0.00,29.94,1012.00,10.00,M,CLR,M,M,M,M,M,M,M,M,M,M,M,40.00,330.00,2022-04-22 23:16,52.00,KTPH 222356Z AUTO 10SM CLR 11/M09 A2994 RMK AO2 PK WND 33040/2316 SLP120 T01111089 10117 20078 53014 $,M
HND,2022-04-22 23:56,-115.1344,35.9729,742.79,65.00,26.10,22.88,0.00,0.00,0.00,29.86,1011.90,10.00,M,BKN,M,M,M,11000.00,M,M,M,M,M,M,M,M,M,M,64.90,KHND 222356Z 00000KT 10SM BKN110 18/M03 A2986 RMK AO2 SLP119 60005 T01831033 10200 20106 55004,M
LSV,2022-04-22 23:58,-115.0343,36.2362,570.00,71.40,30.60,22.00,30.00,24.00,0.00,29.83,1008.80,10.00,28.00,BKN,M,M,M,10000.00,M,M,M,M,M,M,M,M,M,M,71.40,KLSV 222358Z AUTO 03024G28KT 10SM BKN100 22/M01 A2983 RMK AO2 SLP088 60005 T02191008 10224 20105 55005 $,M
INS,2022-04-22 23:58,-115.6733,36.5872,955.00,63.00,22.60,21.06,270.00,20.00,0.00,29.84,1007.80,10.00,M,CLR,M,M,M,M,M,M,M,M,M,M,M,28.00,260.00,2022-04-22 23:24,63.10,KINS 222358Z AUTO 27020KT 10SM CLR 17/M05 A2984 RMK AO2 PK WND 26028/24 SLP078 T01731052 10177 20081 53003 $,M
