station,valid,lon,lat,elevation,tmpf,dwpf,relh,drct,sknt,p01i,alti,mslp,vsby,gust,skyc1,skyc2,skyc3,skyc4,skyl1,skyl2,skyl3,skyl4,wxcodes,ice_accretion_1hr,ice_accretion_3hr,ice_accretion_6hr,peak_wind_gust,peak_wind_drct,peak_wind_time,feel,metar,snowdepth
ELY,2023-08-02 00:01,-114.8453,39.2950,1909.00,60.00,55.00,83.53,0.00,0.00,0.15,30.32,M,1.25,M,FEW,BKN,OVC,M,3900.00,5000.00,8500.00,M,+TSRA,M,M,M,M,M,M,60.00,KELY 020001Z AUTO 00000KT 1 1/4SM +TSRA FEW039 BKN050 OVC085 16/13 A3032 RMK AO2 LTG DSNT SE AND S P0015 T01560128 $,M
ELY,2023-08-02 00:09,-114.8453,39.2950,1909.00,59.00,56.00,89.76,190.00,7.00,0.20,30.33,M,1.75,M,BKN,BKN,OVC,M,5000.00,7000.00,8500.00,M,TSRA BR,M,M,M,M,M,M,59.00,KELY 020009Z AUTO 19007KT 1 3/4SM TSRA BR BKN050 BKN070 OVC085 15/13 A3033 RMK AO2 LTG DSNT SE AND S P0020 T01500133 $,M
BAM,2023-08-02 00:10,-116.8743,40.5990,1382.36,91.40,42.80,18.56,90.00,4.00,0.00,30.07,M,10.00,M,CLR,M,M,M,M,M,M,M,M,M,M,M,M,M,M,87.52,KBAM 020010Z AUTO 09004KT 10SM CLR 33/06 A3007 RMK AO1,M
BVU,2023-08-02 00:15,-114.8611,35.9475,671.00,77.00,69.80,78.48,230.00,4.00,0.00,30.01,M,10.00,11.00,FEW,SCT,BKN,M,3700.00,4500.00,7000.00,M,TS,M,M,M,M,M,M,77.00,KBVU 020015Z AUTO 23004G11KT 10SM TS FEW037 SCT045 BKN070 25/21 A3001 RMK AO2 LTG DSNT ALQDS,M
CXP,2023-08-02 00:15,-119.7326,39.1923,1431.00,89.60,35.60,14.83,300.00,8.00,0.00,30.09,M,10.00,13.00,CLR,M,M,M,M,M,M,M,M,M,M,M,M,M,M,85.62,KCXP 020015Z AUTO 30008G13KT 10SM CLR 32/02 A3009 RMK AO2,M
RTS,2023-08-02 00:15,-119.8764,39.6682,1539.00,86.00,32.00,14.40,320.00,18.00,0.00,30.13,M,10.00,23.00,CLR,M,M,M,M,M,M,M,M,M,M,M,M,M,M,82.64,KRTS 020015Z AUTO 32018G23KT 10SM CLR 30/M00 A3013 RMK AO2,M
05U,2023-08-02 00:15,-116.0051,39.6042,1811.23,60.80,57.20,87.92,M,M,0.00,30.28,M,8.00,M,M,M,M,M,M,M,M,M,M,M,M,M,M,M,M,60.80,K05U 020015Z AUTO 8SM 16/14 A3028 RMK A01,M
MEV,2023-08-02 00:15,-119.7500,38.9963,1441.42,89.60,37.40,15.92,320.00,9.00,0.00,30.07,M,10.00,M,CLR,M,M,M,M,M,M,M,M,M,M,M,M,M,M,85.67,KMEV 020015Z AUTO 32009KT 10SM CLR 32/03 A3007 RMK AO2,M
HTH,2023-08-02 00:15,-118.6315,38.5448,1282.89,89.60,41.00,18.33,70.00,10.00,0.00,30.04,M,10.00,M,CLR,M,M,M,M,M,M,M,M,M,M,M,M,M,M,85.82,KHTH 020015Z AUTO 07010KT 10SM CLR 32/05 A3004 RMK A01,M
10U,2023-08-02 00:15,-116.1876,41.9532,1637.00,87.80,37.40,16.86,220.00,12.00,0.00,30.13,M,10.00,17.00,CLR,M,M,M,M,M,M,M,M,M,M,M,M,M,M,84.16,K10U 020015Z AUTO 22012G17KT 10SM CLR 31/03 A3013 RMK AO2,M
TMT,2023-08-02 00:15,-117.1971,39.4643,1749.34,81.00,34.00,18.33,210.00,8.00,0.00,30.18,M,M,M,BKN,M,M,M,11000.00,M,M,M,M,M,M,M,M,M,M,79.13,KTMT 020015Z AUTO 21008KT 180V240 BKN110 27/01 A3018 RMK AO2 T02720012 PWINO,M
ELY,2023-08-02 00:27,-114.8453,39.2950,1909.00,59.00,57.00,93.07,140.00,7.00,0.28,30.32,M,3.00,M,SCT,OVC,M,M,5500.00,8000.00,M,M,-RA BR,M,M,M,M,M,M,59.00,KELY 020027Z AUTO 14007KT 3SM -RA BR SCT055 OVC080 15/14 A3032 RMK AO2 LTG DSNT SE TSE22 P0028 T01500139 $,M
BAM,2023-08-02 00:30,-116.8743,40.5990,1382.36,91.40,42.80,18.56,140.00,8.00,0.00,30.07,M,10.00,M,CLR,M,M,M,M,M,M,M,M,M,M,M,M,M,M,87.52,KBAM 020030Z AUTO 14008KT 10SM CLR 33/06 A3007 RMK AO1,M
BVU,2023-08-02 00:35,-114.8611,35.9475,671.00,78.80,64.40,61.36,M,5.00,0.00,29.99,M,8.00,13.00,SCT,SCT,BKN,M,4700.00,6000.00,7500.00,M,-TSRA,M,M,M,M,M,M,78.80,KBVU 020035Z AUTO VRB05G13KT 8SM -TSRA SCT047 SCT060 BKN075 26/18 A2999 RMK AO2 LTG DSNT ALQDS,M
CXP,2023-08-02 00:35,-119.7326,39.1923,1431.00,89.60,35.60,14.83,320.00,8.00,0.00,30.09,M,10.00,M,CLR,M,M,M,M,M,M,M,M,M,M,M,M,M,M,85.62,KCXP 020035Z AUTO 32008KT 290V350 10SM CLR 32/02 A3009 RMK AO2,M
RTS,2023-08-02 00:35,-119.8764,39.6682,1539.00,86.00,30.20,13.38,330.00,16.00,0.00,30.13,M,10.00,22.00,CLR,M,M,M,M,M,M,M,M,M,M,M,M,M,M,82.64,KRTS 020035Z AUTO 33016G22KT 10SM CLR 30/M01 A3013 RMK AO2,M
05U,2023-08-02 00:35,-116.0051,39.6042,1811.23,64.40,59.00,82.62,M,M,0.00,30.27,M,10.00,M,M,M,M,M,M,M,M,M,M,M,M,M,M,M,M,64.40,K05U 020035Z AUTO 10SM 18/15 A3027 RMK A01,M
MEV,2023-08-02 00:35,-119.7500,38.9963,1441.42,87.80,37.40,16.86,280.00,12.00,0.00,30.07,M,10.00,M,CLR,M,M,M,M,M,M,M,M,M,M,M,M,M,M,84.16,KMEV 020035Z AUTO 28012KT 10SM CLR 31/03 A3007 RMK AO2,M
HTH,2023-08-02 00:35,-118.6315,38.5448,1282.89,89.60,41.00,18.33,80.00,9.00,0.00,30.04,M,10.00,M,CLR,M,M,M,M,M,M,M,M,M,M,M,M,M,M,85.82,KHTH 020035Z AUTO 08009KT 10SM CLR 32/05 A3004 RMK A01,M
10U,2023-08-02 00:35,-116.1876,41.9532,1637.00,86.00,35.60,16.63,210.00,10.00,0.00,30.13,M,10.00,M,CLR,M,M,M,M,M,M,M,M,M,M,M,M,M,M,82.69,K10U 020035Z AUTO 21010KT 10SM CLR 30/02 A3013 RMK AO2,M
TMT,2023-08-02 00:35,-117.1971,39.4643,1749.34,80.20,41.00,24.78,230.00,11.00,0.00,30.18,M,M,M,SCT,M,M,M,10000.00,M,M,M,M,M,M,M,M,M,M,78.98,KTMT 020035Z AUTO 23011KT SCT100 27/05 A3018 RMK AO2 T02680051 PWINO,M
LSV,2023-08-02 00:42,-115.0343,36.2362,570.00,91.40,60.80,36.08,50.00,11.00,0.00,29.93,1011.00,10.00,M,SCT,M,M,M,13000.00,M,M,M,M,M,M,M,M,M,M,91.40,KLSV 020042Z AUTO 05011KT 10SM SCT130 33/16 A2993 RMK AO2 WSHFT 28 LTG DSNT SE AND W SLP110 $,M
BAM,2023-08-02 00:50,-116.8743,40.5990,1382.36,89.60,42.80,19.64,110.00,10.00,0.00,30.07,M,10.00,M,SCT,M,M,M,12000.00,M,M,M,M,M,M,M,M,M,M,85.93,KBAM 020050Z AUTO 11010KT 10SM SCT120 32/06 A3007 RMK AO1,M
P68,2023-08-02 00:53,-116.0056,39.6014,1993.00,66.00,59.00,78.14,150.00,9.00,0.01,30.24,1016.30,M,M,M,M,M,M,M,M,M,M,M,M,M,M,M,M,M,66.00,KP68 020053Z AUTO 15009KT 19/15 A3024 RMK AO1 SLP163 P0001 T01890150,M
DRA,2023-08-02 00:53,-116.0278,36.6206,1009.00,91.00,53.00,27.57,120.00,11.00,0.00,30.01,1011.00,10.00,M,CLR,M,M,M,M,M,M,M,M,M,M,M,M,M,M,88.55,KDRA 020053Z AUTO 12011KT 10SM CLR 33/12 A3001 RMK AO2 SLP110 T03280117,M
ELY,2023-08-02 00:53,-114.8453,39.2950,1909.00,59.00,57.00,93.07,140.00,8.00,0.30,30.30,1018.00,7.00,M,OVC,M,M,M,9000.00,M,M,M,-RA,M,M,M,M,M,M,59.00,KELY 020053Z AUTO 14008KT 7SM -RA OVC090 15/14 A3030 RMK AO2 TSE22 SLP180 P0030 T01500139 $,M
VGT,2023-08-02 00:53,-115.1933,36.2111,667.00,93.00,60.00,33.36,130.00,10.00,0.00,29.97,1013.90,10.00,14.00,FEW,M,M,M,10000.00,M,M,M,M,M,M,M,M,M,M,92.76,KVGT 020053Z 13010G14KT 10SM FEW100 34/16 A2997 RMK AO2 LTG DSNT ALQDS SLP139 T03390156,M
LOL,2023-08-02 00:53,-118.5701,40.0684,1192.43,90.00,26.00,9.92,210.00,6.00,0.00,30.02,1012.40,10.00,M,FEW,M,M,M,12000.00,M,M,M,M,M,M,M,M,M,M,85.26,KLOL 020053Z AUTO 21006KT 10SM FEW120 32/M03 A3002 RMK AO2 SLP124 T03221033,M
BVU,2023-08-02 00:55,-114.8611,35.9475,671.00,78.80,66.20,65.33,50.00,7.00,0.00,29.98,M,10.00,M,FEW,SCT,BKN,M,4000.00,5000.00,6500.00,M,VCTS RA,M,M,M,M,M,M,78.80,KBVU 020055Z AUTO 05007KT 10SM VCTS RA FEW040 SCT050 BKN065 26/19 A2998 RMK AO2 LTG DSNT ALQDS,M
CXP,2023-08-02 00:55,-119.7326,39.1923,1431.00,89.60,35.60,14.83,290.00,8.00,0.00,30.08,M,10.00,14.00,CLR,M,M,M,M,M,M,M,M,M,M,M,M,M,M,85.62,KCXP 020055Z AUTO 29008G14KT 250V310 10SM CLR 32/02 A3008 RMK AO2,M
INS,2023-08-02 00:55,-115.6733,36.5872,955.00,86.70,51.60,29.99,0.00,0.00,0.00,30.01,1011.30,10.00,M,FEW,SCT,BKN,M,14000.00,18000.00,20000.00,M,M,M,M,M,M,M,M,84.42,KINS 020055Z AUTO 00000KT 10SM FEW140 SCT180 BKN200 30/11 A3001 RMK AO2 LTG DSNT SE AND NW SLP113 T03040109 $,M
RNO,2023-08-02 00:55,-119.7711,39.4839,1341.00,92.00,36.00,13.98,340.00,12.00,0.00,30.04,1011.20,10.00,18.00,FEW,FEW,SCT,M,12000.00,17000.00,25000.00,M,M,M,M,M,M,M,M,87.71,KRNO 020055Z 34012G18KT 10SM FEW120 FEW170 SCT250 33/02 A3004 RMK AO2 SLP112 T03330022,M
RTS,2023-08-02 00:55,-119.8764,39.6682,1539.00,84.20,32.00,15.25,320.00,14.00,0.00,30.13,M,10.00,M,CLR,M,M,M,M,M,M,M,M,M,M,M,M,M,M,81.28,KRTS 020055Z AUTO 32014KT 10SM CLR 29/M00 A3013 RMK AO2,M
05U,2023-08-02 00:55,-116.0051,39.6042,1811.23,66.20,59.00,77.60,M,M,0.00,30.26,M,10.00,M,M,M,M,M,M,M,M,M,M,M,M,M,M,M,M,66.20,K05U 020055Z AUTO 10SM 19/15 A3026 RMK A01,M
MEV,2023-08-02 00:55,-119.7500,38.9963,1441.42,87.80,39.20,18.09,260.00,12.00,0.00,30.07,M,10.00,M,CLR,M,M,M,M,M,M,M,M,M,M,M,M,M,M,84.22,KMEV 020055Z AUTO 26012KT 10SM CLR 31/04 A3007 RMK AO2,M
HTH,2023-08-02 00:55,-118.6315,38.5448,1282.89,89.60,39.20,17.09,90.00,9.00,0.00,30.04,M,10.00,M,FEW,M,M,M,12000.00,M,M,M,M,M,M,M,M,M,M,85.73,KHTH 020055Z AUTO 09009KT 10SM FEW120 32/04 A3004 RMK A01,M
TMT,2023-08-02 00:55,-117.1971,39.4643,1749.34,79.70,42.00,26.18,220.00,12.00,0.00,30.18,M,M,17.00,CLR,M,M,M,M,M,M,M,M,M,M,M,M,M,M,79.70,KTMT 020055Z AUTO 22012G17KT CLR 27/06 A3018 RMK AO2 T02650056 PWINO,M
10U,2023-08-02 00:55,-116.1876,41.9532,1637.00,86.00,37.40,17.85,190.00,9.00,0.00,30.13,M,10.00,M,CLR,M,M,M,M,M,M,M,M,M,M,M,M,M,M,82.73,K10U 020055Z AUTO 19009KT 10SM CLR 30/03 A3013 RMK AO2,M
LSV,2023-08-02 00:55,-115.0343,36.2362,570.00,91.60,60.80,35.86,30.00,11.00,0.00,29.93,1011.10,10.00,M,SCT,M,M,M,14000.00,M,M,M,M,M,M,M,M,M,M,91.61,KLSV 020055Z AUTO 03011KT 10SM SCT140 33/16 A2993 RMK AO2 LTG DSNT W SLP111 T03310160 $,M
EKO,2023-08-02 00:56,-115.7860,40.8242,1367.00,74.00,52.00,46.11,130.00,8.00,T,30.17,1016.50,10.00,M,SCT,OVC,M,M,8000.00,10000.00,M,M,M,M,M,M,M,M,M,74.00,KEKO 020056Z AUTO 13008KT 10SM SCT080 OVC100 23/11 A3017 RMK AO2 RAB15E44 SLP165 P0000 T02330111,M
WMC,2023-08-02 00:56,-117.8072,40.9019,1315.00,91.00,24.00,8.85,0.00,0.00,0.00,30.05,1013.00,10.00,M,CLR,M,M,M,M,M,M,M,M,M,M,M,M,M,M,85.86,KWMC 020056Z AUTO 00000KT 10SM CLR 33/M04 A3005 RMK AO2 SLP130 T03281044,M
NFL,2023-08-02 00:56,-118.7010,39.4166,1199.00,90.00,44.00,20.31,10.00,5.00,0.00,30.01,1013.30,10.00,M,SCT,BKN,BKN,OVC,8000.00,12000.00,18000.00,25000.00,M,M,M,M,M,M,M,86.37,KNFL 020056Z 01005KT 10SM SCT080 BKN120 BKN180 OVC250 32/07 A3001 RMK AO2 SLP133 SH VC NE T03220067,M
HND,2023-08-02 00:56,-115.1344,35.9729,742.79,86.00,63.00,46.25,140.00,6.00,0.00,30.02,1015.40,10.00,M,BKN,M,M,M,11000.00,M,M,M,M,M,M,M,M,M,M,86.88,KHND 020056Z 14006KT 10SM BKN110 30/17 A3002 RMK AO2 LTG DSNT ALQDS SLP154 T03000172,M
TPH,2023-08-02 00:56,-117.0904,38.0505,1654.00,81.00,44.00,27.09,210.00,5.00,T,30.16,1013.10,10.00,M,FEW,M,M,M,12000.00,M,M,M,M,M,M,M,M,M,M,79.61,KTPH 020056Z AUTO 21005KT 10SM FEW120 27/07 A3016 RMK AO2 RAB04E13 SLP131 P0000 T02720067,M
LAS,2023-08-02 00:56,-115.1634,36.0719,663.00,88.00,63.00,43.40,110.00,7.00,0.00,29.98,1012.60,10.00,M,FEW,SCT,BKN,M,9000.00,12000.00,20000.00,M,M,M,M,M,M,M,M,88.86,KLAS 020056Z 11007KT 10SM FEW090CB SCT120 BKN200 31/17 A2998 RMK AO2 LTG DSNT ALQDS SLP126 CB E-S-W AND DSNT N MOV N T03110172,M
VGT,2023-08-02 01:06,-115.1933,36.2111,667.00,92.00,60.00,34.42,130.00,10.00,0.00,29.97,M,10.00,17.00,FEW,SCT,M,M,6500.00,10000.00,M,M,VCTS,M,M,M,M,M,M,91.69,KVGT 020106Z 13010G17KT 10SM VCTS FEW065 SCT100 33/16 A2997 RMK AO2 LTG DSNT SW-N T03330156,M
BAM,2023-08-02 01:10,-116.8743,40.5990,1382.36,89.60,42.80,19.64,120.00,12.00,0.00,30.08,M,10.00,M,BKN,M,M,M,12000.00,M,M,M,M,M,M,M,M,M,M,85.93,KBAM 020110Z AUTO 12012KT 10SM BKN120 32/06 A3008 RMK AO1,M
BVU,2023-08-02 01:15,-114.8611,35.9475,671.00,78.80,66.20,65.33,270.00,5.00,0.00,29.99,M,10.00,M,FEW,SCT,M,M,6000.00,10000.00,M,M,M,M,M,M,M,M,M,78.80,KBVU 020115Z AUTO 27005KT 10SM FEW060 SCT100 26/19 A2999 RMK AO2 LTG DSNT S AND NW,M
CXP,2023-08-02 01:15,-119.7326,39.1923,1431.00,87.80,35.60,15.70,280.00,10.00,0.00,30.08,M,10.00,M,CLR,M,M,M,M,M,M,M,M,M,M,M,M,M,M,84.12,KCXP 020115Z AUTO 28010KT 10SM CLR 31/02 A3008 RMK AO2,M
RTS,2023-08-02 01:15,-119.8764,39.6682,1539.00,84.20,32.00,15.25,310.00,14.00,0.00,30.13,M,10.00,22.00,CLR,M,M,M,M,M,M,M,M,M,M,M,M,M,M,81.28,KRTS 020115Z AUTO 31014G22KT 10SM CLR 29/M00 A3013 RMK AO2,M
05U,2023-08-02 01:15,-116.0051,39.6042,1811.23,68.00,59.00,72.92,M,M,0.00,30.26,M,10.00,M,M,M,M,M,M,M,M,M,M,M,M,M,M,M,M,68.00,K05U 020115Z AUTO 10SM 20/15 A3026 RMK A01,M
MEV,2023-08-02 01:15,-119.7500,38.9963,1441.42,86.00,41.00,20.54,270.00,11.00,0.00,30.07,M,10.00,16.00,CLR,M,M,M,M,M,M,M,M,M,M,M,M,M,M,82.86,KMEV 020115Z AUTO 27011G16KT 10SM CLR 30/05 A3007 RMK AO2,M
HTH,2023-08-02 01:15,-118.6315,38.5448,1282.89,89.60,41.00,18.33,120.00,11.00,0.00,30.04,M,10.00,M,CLR,M,M,M,M,M,M,M,M,M,M,M,M,M,M,85.82,KHTH 020115Z AUTO 12011KT 090V150 10SM CLR 32/05 A3004 RMK A01,M
10U,2023-08-02 01:15,-116.1876,41.9532,1637.00,86.00,35.60,16.63,200.00,8.00,0.00,30.13,M,10.00,M,CLR,M,M,M,M,M,M,M,M,M,M,M,M,M,M,82.69,K10U 020115Z AUTO 20008KT 10SM CLR 30/02 A3013 RMK AO2,M
TMT,2023-08-02 01:15,-117.1971,39.4643,1749.34,78.80,43.00,28.02,210.00,11.00,0.00,30.19,M,M,M,CLR,M,M,M,M,M,M,M,M,M,M,M,M,M,M,78.80,KTMT 020115Z AUTO 21011KT CLR 26/06 A3019 RMK AO2 T02600062 PWINO,M
BAM,2023-08-02 01:30,-116.8743,40.5990,1382.36,87.80,42.80,20.79,130.00,10.00,0.00,30.08,M,10.00,M,OVC,M,M,M,11000.00,M,M,M,M,M,M,M,M,M,M,84.40,KBAM 020130Z AUTO 13010KT 10SM OVC110 31/06 A3008 RMK AO1,M
LAS,2023-08-02 01:33,-115.1634,36.0719,663.00,87.00,63.00,44.80,M,5.00,0.00,30.00,M,10.00,M,SCT,BKN,BKN,M,9000.00,11000.00,20000.00,M,TS,M,M,M,M,M,M,87.86,KLAS 020133Z VRB05KT 10SM TS SCT090CB BKN110 BKN200 31/17 A3000 RMK AO2 LTG DSNT ALQDS TSB33 OCNL LTGICCCCG SW-NW-N TS SW-NW-N MOV SE VCSH E AND SW-NW-N T03060172,M
INS,2023-08-02 01:34,-115.6733,36.5872,955.00,86.00,57.20,37.62,140.00,9.00,0.00,30.02,1011.80,10.00,M,FEW,OVC,M,M,8000.00,12000.00,M,M,VCTS -DZ,M,M,M,M,M,M,84.97,KINS 020134Z AUTO 14009KT 10SM VCTS -DZ FEW080 OVC120 30/14 A3002 RMK AO2 DZB34 SLP118 $,M
BVU,2023-08-02 01:35,-114.8611,35.9475,671.00,78.80,66.20,65.33,270.00,5.00,0.00,30.00,M,10.00,M,CLR,M,M,M,M,M,M,M,M,M,M,M,M,M,M,78.80,KBVU 020135Z AUTO 27005KT 10SM CLR 26/19 A3000 RMK AO2,M
CXP,2023-08-02 01:35,-119.7326,39.1923,1431.00,87.80,37.40,16.86,260.00,7.00,0.00,30.08,M,10.00,14.00,CLR,M,M,M,M,M,M,M,M,M,M,M,M,M,M,84.16,KCXP 020135Z AUTO 26007G14KT 230V290 10SM CLR 31/03 A3008 RMK AO2,M
RTS,2023-08-02 01:35,-119.8764,39.6682,1539.00,82.40,32.00,16.17,300.00,11.00,0.00,30.13,M,10.00,M,CLR,M,M,M,M,M,M,M,M,M,M,M,M,M,M,80.00,KRTS 020135Z AUTO 30011KT 10SM CLR 28/M00 A3013 RMK AO2,M
05U,2023-08-02 01:35,-116.0051,39.6042,1811.23,68.00,59.00,72.92,M,M,0.00,30.27,M,10.00,M,M,M,M,M,M,M,M,M,M,M,M,M,M,M,M,68.00,K05U 020135Z AUTO 10SM 20/15 A3027 RMK A01,M
MEV,2023-08-02 01:35,-119.7500,38.9963,1441.42,84.20,41.00,21.76,290.00,9.00,0.00,30.08,M,10.00,14.00,CLR,M,M,M,M,M,M,M,M,M,M,M,M,M,M,81.52,KMEV 020135Z AUTO 29009G14KT 260V320 10SM CLR 29/05 A3008 RMK AO2,M
HTH,2023-08-02 01:35,-118.6315,38.5448,1282.89,89.60,41.00,18.33,220.00,9.00,0.00,30.04,M,10.00,M,CLR,M,M,M,M,M,M,M,M,M,M,M,M,M,M,85.82,KHTH 020135Z AUTO 22009KT 10SM CLR 32/05 A3004 RMK A01,M
10U,2023-08-02 01:35,-116.1876,41.9532,1637.00,84.20,35.60,17.61,190.00,10.00,0.00,30.13,M,10.00,M,CLR,M,M,M,M,M,M,M,M,M,M,M,M,M,M,81.34,K10U 020135Z AUTO 19010KT 10SM CLR 29/02 A3013 RMK AO2,M
TMT,2023-08-02 01:35,-117.1971,39.4643,1749.34,77.70,46.40,33.08,220.00,10.00,0.00,30.19,M,M,M,CLR,M,M,M,M,M,M,M,M,M,M,M,M,M,M,77.70,KTMT 020135Z AUTO 22010KT CLR 25/08 A3019 RMK AO2 T02540080 PWINO,M
VGT,2023-08-02 01:44,-115.1933,36.2111,667.00,80.00,61.00,52.33,270.00,21.00,0.00,30.01,M,10.00,37.00,BKN,BKN,BKN,M,7000.00,9000.00,11000.00,M,TS,M,M,M,46.00,290.00,2023-08-02 01:30,81.03,KVGT 020144Z 27021G37KT 10SM TS BKN070 BKN090 BKN110 27/16 A3001 RMK AO2 PK WND 29046/0130 LTG DSNT N AND W TSB38 T02670161,M
INS,2023-08-02 01:46,-115.6733,36.5872,955.00,84.20,60.80,45.34,120.00,9.00,0.00,30.03,1012.10,10.00,M,FEW,OVC,M,M,6500.00,12000.00,M,M,M,M,M,M,M,M,M,84.43,KINS 020146Z AUTO 12009KT 10SM FEW065 OVC120 29/16 A3003 RMK AO2 LTG DSNT SE DZB34E46 SLP121 $,M
BAM,2023-08-02 01:50,-116.8743,40.5990,1382.36,87.80,44.60,22.27,190.00,12.00,0.00,30.09,M,10.00,18.00,OVC,M,M,M,11000.00,M,M,M,M,M,M,M,M,M,M,84.53,KBAM 020150Z AUTO 19012G18KT 10SM OVC110 31/07 A3009 RMK AO1,M
LOL,2023-08-02 01:51,-118.5701,40.0684,1192.43,87.80,37.40,16.86,260.00,11.00,0.00,30.02,M,10.00,M,CLR,M,M,M,M,M,M,M,M,M,M,M,M,M,M,84.16,KLOL 020151Z AUTO 26011KT 10SM CLR 31/03 A3002 RMK AO2 WSHFT 0131,M
P68,2023-08-02 01:53,-116.0056,39.6014,1993.00,67.00,60.00,78.22,250.00,3.00,0.00,30.24,1015.90,M,M,M,M,M,M,M,M,M,M,M,M,M,M,M,M,M,67.00,KP68 020153Z AUTO 25003KT 19/16 A3024 RMK AO1 SLP159 T01940156,M
DRA,2023-08-02 01:53,-116.0278,36.6206,1009.00,89.00,54.00,30.45,120.00,12.00,0.00,30.02,1011.20,10.00,M,CLR,M,M,M,M,M,M,M,M,M,M,M,M,M,M,86.89,KDRA 020153Z AUTO 12012KT 10SM CLR 32/12 A3002 RMK AO2 SLP112 T03170122,M
ELY,2023-08-02 01:53,-114.8453,39.2950,1909.00,61.00,57.00,86.67,220.00,5.00,T,30.28,1017.00,10.00,M,FEW,FEW,M,M,8000.00,9500.00,M,M,M,M,M,M,M,M,M,61.00,KELY 020153Z AUTO 22005KT 10SM FEW080 FEW095 16/14 A3028 RMK AO2 RAE43 SLP170 P0000 T01610139 $,M
VGT,2023-08-02 01:53,-115.1933,36.2111,667.00,82.00,59.00,45.66,270.00,19.00,0.00,30.02,1016.00,10.00,32.00,SCT,BKN,OVC,M,7000.00,8500.00,11000.00,M,TS,M,M,M,46.00,290.00,2023-08-02 01:30,82.15,KVGT 020153Z 27019G32KT 10SM TS SCT070 BKN085 OVC110 28/15 A3002 RMK AO2 PK WND 29046/0130 LTG DSNT N AND W TSB38 SLP160 T02780150,M
LOL,2023-08-02 01:53,-118.5701,40.0684,1192.43,88.00,37.00,16.49,260.00,8.00,0.00,30.02,1012.50,10.00,M,CLR,M,M,M,M,M,M,M,M,M,M,M,M,M,M,84.32,KLOL 020153Z AUTO 26008KT 10SM CLR 31/03 A3002 RMK AO2 WSHFT 0131 SLP125 T03110028,M
BVU,2023-08-02 01:55,-114.8611,35.9475,671.00,78.80,66.20,65.33,280.00,5.00,0.00,30.00,M,10.00,M,CLR,M,M,M,M,M,M,M,M,M,M,M,M,M,M,78.80,KBVU 020155Z AUTO 28005KT 10SM CLR 26/19 A3000 RMK AO2 LTG DSNT NW,M
CXP,2023-08-02 01:55,-119.7326,39.1923,1431.00,86.00,39.20,19.15,250.00,8.00,0.00,30.08,M,10.00,M,CLR,M,M,M,M,M,M,M,M,M,M,M,M,M,M,82.79,KCXP 020155Z AUTO 25008KT 10SM CLR 30/04 A3008 RMK AO2,M
INS,2023-08-02 01:55,-115.6733,36.5872,955.00,83.70,58.00,41.69,120.00,8.00,T,30.03,1012.10,10.00,M,FEW,OVC,M,M,6500.00,12000.00,M,M,M,M,M,M,M,M,M,83.25,KINS 020155Z AUTO 12008KT 10SM FEW065 OVC120 29/15 A3003 RMK AO2 DZB34E46 SLP121 P0000 T02870145 $,M
RNO,2023-08-02 01:55,-119.7711,39.4839,1341.00,88.00,35.00,15.23,340.00,14.00,0.00,30.05,1011.80,10.00,M,FEW,FEW,FEW,M,13000.00,17000.00,25000.00,M,M,M,M,M,M,M,M,84.28,KRNO 020155Z 34014KT 10SM FEW130 FEW170 FEW250 31/02 A3005 RMK AO2 SLP118 T03110017,M
LSV,2023-08-02 01:55,-115.0343,36.2362,570.00,89.80,58.50,34.95,230.00,16.00,0.00,29.97,1012.50,10.00,22.00,BKN,OVC,M,M,10000.00,13000.00,M,M,VCTS,M,M,M,M,M,M,88.89,KLSV 020155Z AUTO 23016G22KT 10SM VCTS BKN100 OVC130 32/15 A2997 RMK AO2 SLP125 T03210147 $,M
RTS,2023-08-02 01:55,-119.8764,39.6682,1539.00,80.60,33.80,18.42,300.00,17.00,0.00,30.13,M,10.00,M,CLR,M,M,M,M,M,M,M,M,M,M,M,M,M,M,78.88,KRTS 020155Z AUTO 30017KT 10SM CLR 27/01 A3013 RMK AO2,M
05U,2023-08-02 01:55,-116.0051,39.6042,1811.23,68.00,59.00,72.92,M,M,0.00,30.26,M,10.00,M,M,M,M,M,M,M,M,M,M,M,M,M,M,M,M,68.00,K05U 020155Z AUTO 10SM 20/15 A3026 RMK A01,M
MEV,2023-08-02 01:55,-119.7500,38.9963,1441.42,84.20,41.00,21.76,270.00,11.00,0.00,30.08,M,10.00,M,CLR,M,M,M,M,M,M,M,M,M,M,M,M,M,M,81.52,KMEV 020155Z AUTO 27011KT 10SM CLR 29/05 A3008 RMK AO2,M
HTH,2023-08-02 01:55,-118.6315,38.5448,1282.89,86.00,42.80,22.02,200.00,6.00,0.00,30.04,M,10.00,M,CLR,M,M,M,M,M,M,M,M,M,M,M,M,M,M,82.95,KHTH 020155Z AUTO 20006KT 10SM CLR 30/06 A3004 RMK A01,M
TMT,2023-08-02 01:55,-117.1971,39.4643,1749.34,77.40,44.60,31.20,210.00,10.00,0.00,30.19,M,M,M,SCT,M,M,M,12000.00,M,M,M,M,M,M,M,M,M,M,77.40,KTMT 020155Z AUTO 21010KT SCT120 25/07 A3019 RMK AO2 T02520070 PWINO,M
10U,2023-08-02 01:55,-116.1876,41.9532,1637.00,84.20,37.40,18.91,170.00,6.00,0.00,30.14,M,10.00,12.00,FEW,M,M,M,12000.00,M,M,M,M,M,M,M,M,M,M,81.38,K10U 020155Z AUTO 17006G12KT 10SM FEW120 29/03 A3014 RMK AO2,M
EKO,2023-08-02 01:56,-115.7860,40.8242,1367.00,73.00,53.00,49.48,150.00,14.00,T,30.18,1017.00,10.00,21.00,FEW,OVC,M,M,7500.00,10000.00,M,M,M,M,M,M,M,M,M,73.00,KEKO 020156Z AUTO 15014G21KT 10SM FEW075 OVC100 23/12 A3018 RMK AO2 RAB20E30 SLP170 P0000 T02280117,M
WMC,2023-08-02 01:56,-117.8072,40.9019,1315.00,89.00,26.00,10.24,60.00,3.00,0.00,30.05,1012.70,10.00,M,CLR,M,M,M,M,M,M,M,M,M,M,M,M,M,M,84.52,KWMC 020156Z AUTO 06003KT 10SM CLR 32/M03 A3005 RMK AO2 SLP127 T03171033,M
NFL,2023-08-02 01:56,-118.7010,39.4166,1199.00,92.00,39.00,15.73,50.00,6.00,0.00,30.01,1013.30,10.00,M,SCT,BKN,BKN,OVC,8000.00,12000.00,18000.00,25000.00,M,M,M,M,M,M,M,87.83,KNFL 020156Z 05006KT 10SM SCT080 BKN120 BKN180 OVC250 33/04 A3001 RMK AO2 SLP133 T03330039,M
HND,2023-08-02 01:56,-115.1344,35.9729,742.79,85.00,62.00,46.11,320.00,18.00,0.00,30.05,1016.50,10.00,M,BKN,OVC,M,M,9500.00,11000.00,M,M,M,M,M,M,M,M,M,85.55,KHND 020156Z 32018KT 10SM BKN095 OVC110 29/17 A3005 RMK AO2 LTG DSNT N AND NW SLP165 T02940167,M
TPH,2023-08-02 01:56,-117.0904,38.0505,1654.00,81.00,44.00,27.09,0.00,0.00,0.00,30.17,1013.50,10.00,M,BKN,M,M,M,12000.00,M,M,M,M,M,M,M,M,M,M,79.61,KTPH 020156Z AUTO 00000KT 10SM BKN120 27/07 A3017 RMK AO2 SLP135 T02720067,M
LAS,2023-08-02 01:56,-115.1634,36.0719,663.00,77.00,63.00,62.00,310.00,18.00,T,30.02,1014.40,8.00,31.00,SCT,BKN,BKN,M,9000.00,11000.00,20000.00,M,-TSRA,M,M,M,31.00,300.00,2023-08-02 01:49,77.00,KLAS 020156Z 31018G31KT 8SM -TSRA SCT090CB BKN110 BKN200 25/17 A3002 RMK AO2 PK WND 30031/0149 LTG DSNT N AND NW RAB48 TSB33 SLP144 OCNL LTGICCCCG SW-NW-N TS SW-NW-N MOV SE VCSH E AND SW-NW-N P0000 T02500172,M
LSV,2023-08-02 01:57,-115.0343,36.2362,570.00,89.60,57.20,33.56,240.00,16.00,0.00,29.97,1012.50,9.00,22.00,BKN,BKN,M,M,11000.00,13000.00,M,M,VCTS -RA,M,M,M,M,M,M,88.28,KLSV 020157Z AUTO 24016G22KT 9SM VCTS -RA BKN110 BKN130 32/14 A2997 RMK AO2 RAB57 SLP125 $,M
LAS,2023-08-02 01:58,-115.1634,36.0719,663.00,77.00,63.00,62.00,310.00,18.00,T,30.02,M,8.00,31.00,SCT,BKN,BKN,M,9000.00,11000.00,20000.00,M,-TSRA,M,M,M,M,M,M,77.00,KLAS 020158Z 31018G31KT 8SM -TSRA SCT090CB BKN110 BKN200 25/17 A3002 RMK AO2 LTG DSNT N AND NW OCNL LTGICCCCG SW-NW-N TS SW-NW-N MOV SE P0000 T02500172,M
LSV,2023-08-02 01:58,-115.0343,36.2362,570.00,89.60,59.00,35.81,240.00,16.00,0.00,29.97,1012.50,9.00,22.00,BKN,BKN,M,M,11000.00,13000.00,M,M,-TSRA,M,M,M,M,M,M,88.86,KLSV 020158Z AUTO 24016G22KT 9SM -TSRA BKN110 BKN130 32/15 A2997 RMK AO2 RAB57 TSB58 SLP125 $,M
LSV,2023-08-02 01:59,-115.0343,36.2362,570.00,89.60,59.00,35.81,240.00,16.00,0.00,29.97,1012.50,10.00,22.00,BKN,BKN,M,M,11000.00,13000.00,M,M,-TSRA,M,M,M,M,M,M,88.86,KLSV 020159Z AUTO 24016G22KT 10SM -TSRA BKN110 BKN130 32/15 A2997 RMK AO2 WSHFT 48 RAB57 TSB58 SLP125 $,M
VGT,2023-08-02 02:01,-115.1933,36.2111,667.00,80.00,64.00,58.17,120.00,14.00,T,30.04,M,1.75,29.00,FEW,BKN,OVC,M,2300.00,8000.00,11000.00,M,-TSRA,M,M,M,29.00,130.00,2023-08-02 02:01,81.62,KVGT 020201Z 12014G29KT 070V170 1 3/4SM -TSRA FEW023 BKN080 OVC110 27/18 A3004 RMK AO2 PK WND 13029/0201 WSHFT 0147 LTG DSNT W-N RAB0159 P0000 T02670178,M
VGT,2023-08-02 02:08,-115.1933,36.2111,667.00,80.00,61.00,52.33,M,5.00,0.14,30.01,M,0.75,29.00,FEW,BKN,OVC,M,2100.00,6500.00,11000.00,M,+TSRA,M,M,M,29.00,130.00,2023-08-02 02:01,81.03,KVGT 020208Z VRB05G29KT 3/4SM +TSRA FEW021 BKN065 OVC110 27/16 A3001 RMK AO2 PK WND 13029/0201 WSHFT 0147 LTG DSNT N AND NW RAB0159 P0014 T02670161,M
LSV,2023-08-02 02:09,-115.0343,36.2362,570.00,86.00,59.00,40.14,240.00,13.00,0.00,29.97,1012.60,10.00,M,SCT,BKN,M,M,8500.00,11000.00,M,M,TS,M,M,M,M,M,M,85.47,KLSV 020209Z AUTO 24013KT 10SM TS SCT085 BKN110 30/15 A2997 RMK AO2 RAB0157E07DZB07E09 TSB0158 SLP126 $,M
BAM,2023-08-02 02:10,-116.8743,40.5990,1382.36,84.20,46.40,26.76,160.00,11.00,0.00,30.11,M,10.00,16.00,OVC,M,M,M,11000.00,M,M,M,M,M,M,M,M,M,M,81.87,KBAM 020210Z AUTO 16011G16KT 10SM OVC110 29/08 A3011 RMK AO1,M
LSV,2023-08-02 02:12,-115.0343,36.2362,570.00,86.00,59.00,40.14,240.00,18.00,0.00,29.97,1012.60,10.00,21.00,FEW,BKN,M,M,8500.00,11000.00,M,M,TS -DZ,M,M,M,M,M,M,85.47,KLSV 020212Z AUTO 24018G21KT 10SM TS -DZ FEW085 BKN110 30/15 A2997 RMK AO2 RAB0157E07DZB07E09DZB12 TSB0158 SLP126 $,M
LSV,2023-08-02 02:13,-115.0343,36.2362,570.00,86.00,59.00,40.14,240.00,17.00,0.00,29.97,1012.60,10.00,21.00,FEW,BKN,M,M,8500.00,11000.00,M,M,VCTS -DZ,M,M,M,M,M,M,85.47,KLSV 020213Z AUTO 24017G21KT 10SM VCTS -DZ FEW085 BKN110 30/15 A2997 RMK AO2 RAB0157E07DZB07E09DZB12 TSB0158E13 SLP126 $,M
BVU,2023-08-02 02:15,-114.8611,35.9475,671.00,80.60,66.20,61.58,320.00,7.00,0.00,29.99,M,10.00,M,CLR,M,M,M,M,M,M,M,M,M,M,M,M,M,M,82.75,KBVU 020215Z AUTO 32007KT 10SM CLR 27/19 A2999 RMK AO2,M
CXP,2023-08-02 02:15,-119.7326,39.1923,1431.00,84.20,41.00,21.76,280.00,7.00,0.00,30.09,M,10.00,12.00,CLR,M,M,M,M,M,M,M,M,M,M,M,M,M,M,81.52,KCXP 020215Z AUTO 28007G12KT 10SM CLR 29/05 A3009 RMK AO2,M
RTS,2023-08-02 02:15,-119.8764,39.6682,1539.00,78.80,35.60,21.00,290.00,14.00,0.00,30.14,M,10.00,20.00,CLR,M,M,M,M,M,M,M,M,M,M,M,M,M,M,78.80,KRTS 020215Z AUTO 29014G20KT 10SM CLR 26/02 A3014 RMK AO2,M
05U,2023-08-02 02:15,-116.0051,39.6042,1811.23,68.00,59.00,72.92,M,M,0.00,30.26,M,10.00,M,M,M,M,M,M,M,M,M,M,M,M,M,M,M,M,68.00,K05U 020215Z AUTO 10SM 20/15 A3026 RMK A01,M
MEV,2023-08-02 02:15,-119.7500,38.9963,1441.42,82.40,42.80,24.72,280.00,10.00,0.00,30.08,M,10.00,M,CLR,M,M,M,M,M,M,M,M,M,M,M,M,M,M,80.39,KMEV 020215Z AUTO 28010KT 10SM CLR 28/06 A3008 RMK AO2,M
HTH,2023-08-02 02:15,-118.6315,38.5448,1282.89,86.00,42.80,22.02,210.00,6.00,0.00,30.04,M,10.00,M,FEW,M,M,M,12000.00,M,M,M,M,M,M,M,M,M,M,82.95,KHTH 020215Z AUTO 21006KT 10SM FEW120 30/06 A3004 RMK A01,M
10U,2023-08-02 02:15,-116.1876,41.9532,1637.00,78.80,44.60,29.79,120.00,15.00,0.00,30.14,M,10.00,22.00,CLR,M,M,M,M,M,M,M,M,M,M,M,M,M,M,78.80,K10U 020215Z AUTO 12015G22KT 10SM CLR 26/07 A3014 RMK AO2,M
TMT,2023-08-02 02:15,-117.1971,39.4643,1749.34,76.00,45.00,33.19,210.00,9.00,0.00,30.19,M,M,M,SCT,M,M,M,12000.00,M,M,M,M,M,M,M,M,M,M,76.00,KTMT 020215Z AUTO 21009KT SCT120 25/07 A3019 RMK AO2 T02450073 PWINO,M
VGT,2023-08-02 02:21,-115.1933,36.2111,667.00,78.00,64.00,62.12,0.00,0.00,0.24,30.00,M,1.75,M,SCT,BKN,OVC,M,4000.00,7000.00,11000.00,M,TSRA,M,M,M,29.00,130.00,2023-08-02 02:01,78.00,KVGT 020221Z 00000KT 1 3/4SM TSRA SCT040 BKN070 OVC110 26/18 A3000 RMK AO2 PK WND 13029/0201 WSHFT 0147 LTG DSNT N AND NE RAB0159 P0024 T02560178,M
LSV,2023-08-02 02:24,-115.0343,36.2362,570.00,84.20,60.80,45.34,260.00,14.00,0.00,29.96,1012.30,10.00,23.00,FEW,FEW,SCT,M,8500.00,11000.00,14000.00,M,M,M,M,M,M,M,M,84.43,KLSV 020224Z AUTO 26014G23KT 10SM FEW085 FEW110 SCT140 29/16 A2996 RMK AO2 LTG DSNT W-NW RAB0157E07DZB07E09DZB12E24 TSB0158E13 SLP123 $,M
INS,2023-08-02 02:27,-115.6733,36.5872,955.00,80.60,60.80,50.95,90.00,17.00,0.00,30.04,1012.70,10.00,M,OVC,M,M,M,12000.00,M,M,M,-DZ,M,M,M,M,M,M,81.46,KINS 020227Z AUTO 09017KT 10SM -DZ OVC120 27/16 A3004 RMK AO2 DZB27 SLP127 $,M
VGT,2023-08-02 02:28,-115.1933,36.2111,667.00,79.00,66.00,64.45,330.00,6.00,0.24,30.00,M,10.00,M,SCT,BKN,OVC,M,3800.00,8000.00,11000.00,M,-TSRA,M,M,M,29.00,130.00,2023-08-02 02:01,79.00,KVGT 020228Z 33006KT 10SM -TSRA SCT038 BKN080 OVC110 26/19 A3000 RMK AO2 PK WND 13029/0201 WSHFT 0147 LTG DSNT N RAB0159 P0024 T02610189,M
BAM,2023-08-02 02:30,-116.8743,40.5990,1382.36,82.40,46.40,28.36,120.00,7.00,0.00,30.11,M,10.00,M,OVC,M,M,M,11000.00,M,M,M,M,M,M,M,M,M,M,80.64,KBAM 020230Z AUTO 12007KT 10SM OVC110 28/08 A3011 RMK AO1,M
BVU,2023-08-02 02:35,-114.8611,35.9475,671.00,82.40,64.40,54.55,300.00,8.00,0.00,30.00,M,10.00,13.00,CLR,M,M,M,M,M,M,M,M,M,M,M,M,M,M,83.98,KBVU 020235Z AUTO 30008G13KT 10SM CLR 28/18 A3000 RMK AO2,M
CXP,2023-08-02 02:35,-119.7326,39.1923,1431.00,84.20,39.20,20.29,290.00,6.00,0.00,30.10,M,10.00,M,CLR,M,M,M,M,M,M,M,M,M,M,M,M,M,M,81.44,KCXP 020235Z AUTO 29006KT 10SM CLR 29/04 A3010 RMK AO2,M
VGT,2023-08-02 02:35,-115.1933,36.2111,667.00,81.00,66.00,60.37,320.00,10.00,0.24,29.99,M,10.00,M,FEW,BKN,OVC,M,3900.00,9000.00,11000.00,M,VCTS -RA,M,M,M,29.00,130.00,2023-08-02 02:01,83.11,KVGT 020235Z 32010KT 10SM VCTS -RA FEW039 BKN090 OVC110 27/19 A2999 RMK AO2 PK WND 13029/0201 WSHFT 0147 LTG DSNT N RAB0159 TSE29 P0024 T02720189,M
RTS,2023-08-02 02:35,-119.8764,39.6682,1539.00,77.00,37.40,23.93,300.00,11.00,0.00,30.14,M,10.00,18.00,CLR,M,M,M,M,M,M,M,M,M,M,M,M,M,M,77.00,KRTS 020235Z AUTO 30011G18KT 10SM CLR 25/03 A3014 RMK AO2,M
05U,2023-08-02 02:35,-116.0051,39.6042,1811.23,66.20,60.80,82.74,M,M,0.00,30.27,M,10.00,M,M,M,M,M,M,M,M,M,M,M,M,M,M,M,M,66.20,K05U 020235Z AUTO 10SM 19/16 A3027 RMK A01,M
MEV,2023-08-02 02:35,-119.7500,38.9963,1441.42,80.60,42.80,26.22,280.00,8.00,0.00,30.09,M,10.00,M,CLR,M,M,M,M,M,M,M,M,M,M,M,M,M,M,79.30,KMEV 020235Z AUTO 28008KT 10SM CLR 27/06 A3009 RMK AO2,M
HTH,2023-08-02 02:35,-118.6315,38.5448,1282.89,86.00,42.80,22.02,100.00,5.00,0.00,30.05,M,10.00,M,FEW,M,M,M,12000.00,M,M,M,M,M,M,M,M,M,M,82.95,KHTH 020235Z AUTO 10005KT 10SM FEW120 30/06 A3005 RMK A01,M
10U,2023-08-02 02:35,-116.1876,41.9532,1637.00,78.80,44.60,29.79,130.00,14.00,0.00,30.15,M,10.00,21.00,CLR,M,M,M,M,M,M,M,M,M,M,M,M,M,M,78.80,K10U 020235Z AUTO 13014G21KT 10SM CLR 26/07 A3015 RMK AO2,M
TMT,2023-08-02 02:35,-117.1971,39.4643,1749.34,75.40,45.50,34.51,220.00,8.00,0.00,30.19,M,M,M,SCT,M,M,M,12000.00,M,M,M,M,M,M,M,M,M,M,75.40,KTMT 020235Z AUTO 22008KT SCT120 24/08 A3019 RMK AO2 LTG DSNT SE T02410075 PWINO,M
LSV,2023-08-02 02:36,-115.0343,36.2362,570.00,84.20,64.40,51.47,300.00,11.00,0.00,29.95,1011.90,10.00,21.00,FEW,M,M,M,13000.00,M,M,M,M,M,M,M,M,M,M,85.71,KLSV 020236Z AUTO 30011G21KT 10SM FEW130 29/18 A2995 RMK AO2 WSHFT 23 LTG DSNT S RAB0157E07DZB07E09DZB12E24 TSB0158E13 SLP119 $,M
VGT,2023-08-02 02:48,-115.1933,36.2111,667.00,78.80,64.40,61.36,320.00,10.00,0.25,29.99,M,10.00,M,FEW,OVC,M,M,7500.00,10000.00,M,M,-RA,M,M,M,29.00,130.00,2023-08-02 02:01,78.80,KVGT 020248Z 32010KT 10SM -RA FEW075 OVC100 26/18 A2999 RMK AO2 PK WND 13029/0201 WSHFT 0147 LTG DSNT N RAB0159 TSE29 P0025,M
05U,2023-08-02 02:50,-116.0051,39.6042,1811.23,64.40,57.20,77.45,M,M,0.00,30.27,M,10.00,M,M,M,M,M,M,M,M,M,M,M,M,M,M,M,M,64.40,K05U 020250Z AUTO 10SM 18/14 A3027 RMK A01,M
BAM,2023-08-02 02:50,-116.8743,40.5990,1382.36,82.40,46.40,28.36,110.00,8.00,0.00,30.12,M,10.00,M,BKN,M,M,M,11000.00,M,M,M,M,M,M,M,M,M,M,80.64,KBAM 020250Z AUTO 11008KT 10SM BKN110 28/08 A3012 RMK AO1,M
P68,2023-08-02 02:53,-116.0056,39.6014,1993.00,64.00,58.00,80.83,170.00,7.00,0.00,30.24,1016.20,M,M,M,M,M,M,M,M,M,M,M,M,M,M,M,M,M,64.00,KP68 020253Z AUTO 17007KT 18/14 A3024 RMK AO1 SLP162 60001 T01780144 55004,M
DRA,2023-08-02 02:53,-116.0278,36.6206,1009.00,87.00,55.00,33.65,120.00,11.00,0.00,30.03,1011.60,10.00,M,CLR,M,M,M,M,M,M,M,M,M,M,M,M,M,M,85.31,KDRA 020253Z AUTO 12011KT 10SM CLR 31/13 A3003 RMK AO2 SLP116 T03060128 55000,M
ELY,2023-08-02 02:53,-114.8453,39.2950,1909.00,60.00,57.00,89.80,160.00,6.00,0.00,30.29,1017.10,10.00,M,FEW,M,M,M,11000.00,M,M,M,M,M,M,M,M,M,M,60.00,KELY 020253Z AUTO 16006KT 10SM FEW110 16/14 A3029 RMK AO2 SLP171 60030 T01560139 55006 $,M
VGT,2023-08-02 02:53,-115.1933,36.2111,667.00,79.00,67.00,66.72,320.00,10.00,0.25,29.98,1014.70,10.00,M,SCT,OVC,M,M,9000.00,11000.00,M,M,-RA,M,M,M,29.00,130.00,2023-08-02 02:01,79.00,KVGT 020253Z 32010KT 10SM -RA SCT090 OVC110 26/19 A2998 RMK AO2 PK WND 13029/0201 WSHFT 0147 RAB0159 TSE29 SLP147 P0025 60025 T02610194 50004,M
LOL,2023-08-02 02:53,-118.5701,40.0684,1192.43,88.00,35.00,15.23,170.00,4.00,0.00,30.02,1012.30,10.00,M,FEW,M,M,M,10000.00,M,M,M,M,M,M,M,M,M,M,84.28,KLOL 020253Z AUTO 17004KT 10SM FEW100 31/02 A3002 RMK AO2 SLP123 T03110017 53003,M
BVU,2023-08-02 02:55,-114.8611,35.9475,671.00,80.60,60.80,50.95,320.00,8.00,0.00,29.99,M,10.00,14.00,CLR,M,M,M,M,M,M,M,M,M,M,M,M,M,M,81.46,KBVU 020255Z AUTO 32008G14KT 10SM CLR 27/16 A2999 RMK AO2,M
CXP,2023-08-02 02:55,-119.7326,39.1923,1431.00,82.40,41.00,23.07,310.00,10.00,0.00,30.11,M,10.00,M,CLR,M,M,M,M,M,M,M,M,M,M,M,M,M,M,80.29,KCXP 020255Z AUTO 31010KT 10SM CLR 28/05 A3011 RMK AO2,M
INS,2023-08-02 02:55,-115.6733,36.5872,955.00,73.60,64.80,73.97,110.00,17.00,T,30.04,1012.80,10.00,M,OVC,M,M,M,9500.00,M,M,M,-RA,M,M,M,M,M,M,73.60,KINS 020255Z AUTO 11017KT 10SM -RA OVC095 23/18 A3004 RMK AO2 DZB27E48RAB48 SLP128 P0000 60000 T02310182 53006 $,M
RNO,2023-08-02 02:55,-119.7711,39.4839,1341.00,85.00,39.00,19.62,290.00,14.00,0.00,30.07,1012.40,10.00,M,FEW,FEW,FEW,M,11000.00,16000.00,25000.00,M,M,M,M,M,M,M,M,82.02,KRNO 020255Z 29014KT 10SM FEW110 FEW160 FEW250 29/04 A3007 RMK AO2 SLP124 T02940039 53005,M
RTS,2023-08-02 02:55,-119.8764,39.6682,1539.00,77.00,37.40,23.93,290.00,15.00,0.00,30.15,M,10.00,21.00,CLR,M,M,M,M,M,M,M,M,M,M,M,M,M,M,77.00,KRTS 020255Z AUTO 29015G21KT 10SM CLR 25/03 A3015 RMK AO2,M
MEV,2023-08-02 02:55,-119.7500,38.9963,1441.42,78.80,42.80,27.81,300.00,5.00,0.00,30.09,M,10.00,10.00,CLR,M,M,M,M,M,M,M,M,M,M,M,M,M,M,78.80,KMEV 020255Z AUTO 30005G10KT 10SM CLR 26/06 A3009 RMK AO2,M
HTH,2023-08-02 02:55,-118.6315,38.5448,1282.89,84.20,44.60,24.99,150.00,6.00,0.00,30.05,M,10.00,M,BKN,M,M,M,12000.00,M,M,M,M,M,M,M,M,M,M,81.73,KHTH 020255Z AUTO 15006KT 10SM BKN120 29/07 A3005 RMK A01,M
TMT,2023-08-02 02:55,-117.1971,39.4643,1749.34,74.30,44.80,34.86,220.00,6.00,0.00,30.19,M,M,M,SCT,M,M,M,12000.00,M,M,M,M,M,M,M,M,M,M,74.30,KTMT 020255Z AUTO 22006KT SCT120 24/07 A3019 RMK AO2 T02350071 PWINO,M
10U,2023-08-02 02:55,-116.1876,41.9532,1637.00,78.80,44.60,29.79,120.00,14.00,0.00,30.15,M,10.00,M,CLR,M,M,M,M,M,M,M,M,M,M,M,M,M,M,78.80,K10U 020255Z AUTO 12014KT 10SM CLR 26/07 A3015 RMK AO2,M
LSV,2023-08-02 02:55,-115.0343,36.2362,570.00,82.60,64.20,53.82,280.00,9.00,T,29.94,1011.70,10.00,M,SCT,SCT,M,M,14000.00,16000.00,M,M,M,M,M,M,M,M,M,84.10,KLSV 020255Z AUTO 28009KT 10SM SCT140 SCT160 28/18 A2994 RMK AO2 RAB0157E07DZB07E09DZB12E24 TSB0158E13 SLP117 P0000 60000 T02810179 50007 $,M
EKO,2023-08-02 02:56,-115.7860,40.8242,1367.00,69.00,57.00,65.57,270.00,10.00,0.00,30.19,1017.00,10.00,M,FEW,OVC,M,M,7000.00,10000.00,M,M,M,M,M,M,M,M,M,69.00,KEKO 020256Z AUTO 27010KT 10SM FEW070 OVC100 21/14 A3019 RMK AO2 SLP170 60000 T02060139 51008,M
WMC,2023-08-02 02:56,-117.8072,40.9019,1315.00,85.00,31.00,14.28,10.00,5.00,0.00,30.06,1012.80,10.00,M,CLR,M,M,M,M,M,M,M,M,M,M,M,M,M,M,81.87,KWMC 020256Z AUTO 01005KT 10SM CLR 29/M01 A3006 RMK AO2 SLP128 T02941006 53001,M
NFL,2023-08-02 02:56,-118.7010,39.4166,1199.00,87.00,42.00,20.68,10.00,5.00,0.00,30.02,1013.40,10.00,M,SCT,BKN,BKN,BKN,8000.00,12000.00,18000.00,25000.00,M,M,M,M,M,M,M,83.70,KNFL 020256Z 01005KT 10SM SCT080 BKN120 BKN180 BKN250 31/06 A3002 RMK AO2 SLP134 T03060056 55002,M
HND,2023-08-02 02:56,-115.1344,35.9729,742.79,81.00,58.00,45.51,0.00,0.00,0.00,30.04,1016.20,10.00,M,CLR,M,M,M,M,M,M,M,M,M,M,M,M,M,M,81.22,KHND 020256Z 00000KT 10SM CLR 27/14 A3004 RMK AO2 SLP162 T02720144 50007,M
TPH,2023-08-02 02:56,-117.0904,38.0505,1654.00,80.00,44.00,27.99,80.00,4.00,0.00,30.18,1013.50,10.00,M,OVC,M,M,M,11000.00,M,M,M,M,M,M,M,M,M,M,79.06,KTPH 020256Z AUTO 08004KT 10SM OVC110 27/07 A3018 RMK AO2 SLP135 60000 T02670067 53000,M
LAS,2023-08-02 02:56,-115.1634,36.0719,663.00,79.00,60.00,52.19,290.00,10.00,T,30.00,1013.70,10.00,M,SCT,BKN,BKN,M,9000.00,11000.00,20000.00,M,TS,M,M,M,M,M,M,79.00,KLAS 020256Z 29010KT 10SM TS SCT090CB BKN110 BKN200 26/16 A3000 RMK AO2 RAE07 SLP137 OCNL LTGICCCCG SW-NW-N TS SW-NW-N MOV SE P0000 60000 T02610156 50010,M
LAS,2023-08-02 03:03,-115.1634,36.0719,663.00,80.00,59.00,48.74,300.00,10.00,0.00,30.00,M,10.00,M,SCT,BKN,BKN,M,9000.00,11000.00,20000.00,M,M,M,M,M,M,M,M,80.68,KLAS 020303Z 30010KT 10SM SCT090 BKN110 BKN200 27/15 A3000 RMK AO2 TSE03 TS DSIPTD LTG DSNT N T02670150,M
BAM,2023-08-02 03:10,-116.8743,40.5990,1382.36,82.40,48.20,30.35,110.00,9.00,0.00,30.11,M,10.00,M,SCT,M,M,M,11000.00,M,M,M,M,M,M,M,M,M,M,80.80,KBAM 020310Z AUTO 11009KT 10SM SCT110 28/09 A3011 RMK AO1,M
INS,2023-08-02 03:13,-115.6733,36.5872,955.00,71.60,64.40,78.04,110.00,14.00,0.00,30.04,1013.00,10.00,M,SCT,BKN,M,M,7500.00,16000.00,M,M,M,M,M,M,M,M,M,71.60,KINS 020313Z AUTO 11014KT 10SM SCT075 BKN160 22/18 A3004 RMK AO2 RAE04DZB04E13 SLP130 $,M
BVU,2023-08-02 03:15,-114.8611,35.9475,671.00,80.60,62.60,54.30,340.00,10.00,0.00,29.99,M,10.00,M,CLR,M,M,M,M,M,M,M,M,M,M,M,M,M,M,81.84,KBVU 020315Z AUTO 34010KT 10SM CLR 27/17 A2999 RMK AO2,M
CXP,2023-08-02 03:15,-119.7326,39.1923,1431.00,82.40,41.00,23.07,300.00,7.00,0.00,30.11,M,10.00,M,CLR,M,M,M,M,M,M,M,M,M,M,M,M,M,M,80.29,KCXP 020315Z AUTO 30007KT 10SM CLR 28/05 A3011 RMK AO2,M
RTS,2023-08-02 03:15,-119.8764,39.6682,1539.00,75.20,37.40,25.40,290.00,11.00,0.00,30.16,M,10.00,M,CLR,M,M,M,M,M,M,M,M,M,M,M,M,M,M,75.20,KRTS 020315Z AUTO 29011KT 10SM CLR 24/03 A3016 RMK AO2,M
05U,2023-08-02 03:15,-116.0051,39.6042,1811.23,62.60,57.20,82.50,M,M,0.00,30.27,M,10.00,M,M,M,M,M,M,M,M,M,M,M,M,M,M,M,M,62.60,K05U 020315Z AUTO 10SM 17/14 A3027 RMK A01,M
MEV,2023-08-02 03:15,-119.7500,38.9963,1441.42,75.20,42.80,31.34,0.00,0.00,0.00,30.10,M,10.00,M,CLR,M,M,M,M,M,M,M,M,M,M,M,M,M,M,75.20,KMEV 020315Z AUTO 00000KT 10SM CLR 24/06 A3010 RMK AO2,M
HTH,2023-08-02 03:15,-118.6315,38.5448,1282.89,84.20,44.60,24.99,160.00,14.00,0.00,30.06,M,10.00,M,SCT,M,M,M,12000.00,M,M,M,M,M,M,M,M,M,M,81.73,KHTH 020315Z AUTO 16014KT 10SM SCT120 29/07 A3006 RMK A01,M
10U,2023-08-02 03:15,-116.1876,41.9532,1637.00,77.00,44.60,31.62,110.00,11.00,0.00,30.15,M,10.00,M,CLR,M,M,M,M,M,M,M,M,M,M,M,M,M,M,77.00,K10U 020315Z AUTO 11011KT 10SM CLR 25/07 A3015 RMK AO2,M
TMT,2023-08-02 03:15,-117.1971,39.4643,1749.34,71.60,46.80,41.19,190.00,4.00,0.00,30.20,M,M,M,CLR,M,M,M,M,M,M,M,M,M,M,M,M,M,M,71.60,KTMT 020315Z AUTO 19004KT CLR 22/08 A3020 RMK AO2 T02200082 PWINO,M
05U,2023-08-02 03:30,-116.0051,39.6042,1811.23,60.80,57.20,87.92,M,M,0.00,30.27,M,10.00,M,M,M,M,M,M,M,M,M,M,M,M,M,M,M,M,60.80,K05U 020330Z AUTO 10SM 16/14 A3027 RMK A01,M
BAM,2023-08-02 03:30,-116.8743,40.5990,1382.36,80.60,48.20,32.18,110.00,12.00,0.00,30.11,M,10.00,M,BKN,M,M,M,11000.00,M,M,M,M,M,M,M,M,M,M,79.71,KBAM 020330Z AUTO 11012KT 10SM BKN110 27/09 A3011 RMK AO1,M
BVU,2023-08-02 03:35,-114.8611,35.9475,671.00,82.40,60.80,48.05,10.00,4.00,0.00,30.00,M,10.00,11.00,CLR,M,M,M,M,M,M,M,M,M,M,M,M,M,M,82.90,KBVU 020335Z AUTO 01004G11KT 10SM CLR 28/16 A3000 RMK AO2,M
CXP,2023-08-02 03:35,-119.7326,39.1923,1431.00,80.60,39.20,22.81,300.00,7.00,0.00,30.11,M,10.00,M,CLR,M,M,M,M,M,M,M,M,M,M,M,M,M,M,79.10,KCXP 020335Z AUTO 30007KT 10SM CLR 27/04 A3011 RMK AO2,M
RTS,2023-08-02 03:35,-119.8764,39.6682,1539.00,73.40,37.40,26.98,300.00,10.00,0.00,30.16,M,10.00,16.00,CLR,M,M,M,M,M,M,M,M,M,M,M,M,M,M,73.40,KRTS 020335Z AUTO 30010G16KT 10SM CLR 23/03 A3016 RMK AO2,M
MEV,2023-08-02 03:35,-119.7500,38.9963,1441.42,71.60,46.40,40.57,60.00,5.00,0.00,30.11,M,10.00,M,CLR,M,M,M,M,M,M,M,M,M,M,M,M,M,M,71.60,KMEV 020335Z AUTO 06005KT 10SM CLR 22/08 A3011 RMK AO2,M
HTH,2023-08-02 03:35,-118.6315,38.5448,1282.89,84.20,42.80,23.33,170.00,14.00,0.00,30.07,M,10.00,M,FEW,FEW,BKN,M,7500.00,9000.00,11000.00,M,M,M,M,M,M,M,M,81.61,KHTH 020335Z AUTO 17014KT 10SM FEW075 FEW090 BKN110 29/06 A3007 RMK A01,M
10U,2023-08-02 03:35,-116.1876,41.9532,1637.00,77.00,44.60,31.62,120.00,10.00,0.00,30.16,M,10.00,16.00,SCT,M,M,M,12000.00,M,M,M,M,M,M,M,M,M,M,77.00,K10U 020335Z AUTO 12010G16KT 10SM SCT120 25/07 A3016 RMK AO2,M
TMT,2023-08-02 03:35,-117.1971,39.4643,1749.34,72.00,43.00,35.16,80.00,3.00,0.00,30.21,M,M,M,CLR,M,M,M,M,M,M,M,M,M,M,M,M,M,M,72.00,KTMT 020335Z AUTO 08003KT CLR 22/06 A3021 RMK AO2 T02230061 PWINO,M
BAM,2023-08-02 03:50,-116.8743,40.5990,1382.36,80.60,48.20,32.18,100.00,12.00,0.00,30.12,M,10.00,M,OVC,M,M,M,10000.00,M,M,M,M,M,M,M,M,M,M,79.71,KBAM 020350Z AUTO 10012KT 10SM OVC100 27/09 A3012 RMK AO1,M
P68,2023-08-02 03:53,-116.0056,39.6014,1993.00,63.00,56.00,77.89,140.00,7.00,0.00,30.25,1016.20,M,M,M,M,M,M,M,M,M,M,M,M,M,M,M,M,M,63.00,KP68 020353Z AUTO 14007KT 17/13 A3025 RMK AO1 SLP162 T01720133,M
DRA,2023-08-02 03:53,-116.0278,36.6206,1009.00,84.00,56.00,38.42,130.00,12.00,0.00,30.04,1012.10,10.00,M,CLR,M,M,M,M,M,M,M,M,M,M,M,M,M,M,83.05,KDRA 020353Z AUTO 13012KT 10SM CLR 29/13 A3004 RMK AO2 SLP121 T02890133,M
ELY,2023-08-02 03:53,-114.8453,39.2950,1909.00,59.00,57.00,93.07,210.00,6.00,0.00,30.31,1017.60,10.00,M,SCT,M,M,M,12000.00,M,M,M,M,M,M,M,M,M,M,59.00,KELY 020353Z AUTO 21006KT 10SM SCT120 15/14 A3031 RMK AO2 SLP176 T01500139 $,M
VGT,2023-08-02 03:53,-115.1933,36.2111,667.00,82.00,66.00,58.43,300.00,5.00,T,29.99,1014.90,10.00,M,CLR,M,M,M,M,M,M,M,M,M,M,M,M,M,M,84.15,KVGT 020353Z 30005KT 10SM CLR 28/19 A2999 RMK AO2 RAE06 SLP149 P0000 T02780189,M
LOL,2023-08-02 03:53,-118.5701,40.0684,1192.43,87.00,34.00,15.11,350.00,6.00,0.00,30.03,1012.10,10.00,M,CLR,M,M,M,M,M,M,M,M,M,M,M,M,M,M,83.45,KLOL 020353Z AUTO 35006KT 10SM CLR 31/01 A3003 RMK AO2 SLP121 T03060011,M
BVU,2023-08-02 03:55,-114.8611,35.9475,671.00,82.40,60.80,48.05,330.00,4.00,0.00,30.00,M,10.00,M,CLR,M,M,M,M,M,M,M,M,M,M,M,M,M,M,82.90,KBVU 020355Z AUTO 33004KT 10SM CLR 28/16 A3000 RMK AO2,M
CXP,2023-08-02 03:55,-119.7326,39.1923,1431.00,77.00,41.00,27.53,0.00,0.00,0.00,30.12,M,10.00,M,CLR,M,M,M,M,M,M,M,M,M,M,M,M,M,M,77.00,KCXP 020355Z AUTO 00000KT 10SM CLR 25/05 A3012 RMK AO2,M
INS,2023-08-02 03:55,-115.6733,36.5872,955.00,75.20,61.00,61.34,100.00,11.00,T,30.04,1012.80,10.00,M,BKN,M,M,M,15000.00,M,M,M,M,M,M,M,M,M,M,75.20,KINS 020355Z AUTO 10011KT 10SM BKN150 24/16 A3004 RMK AO2 RAE04DZB04E13 SLP128 P0000 T02400162 $,M
RNO,2023-08-02 03:55,-119.7711,39.4839,1341.00,81.00,41.00,24.14,310.00,11.00,0.00,30.10,1013.50,10.00,M,FEW,SCT,M,M,15000.00,25000.00,M,M,M,M,M,M,M,M,M,79.43,KRNO 020355Z 31011KT 10SM FEW150 SCT250 27/05 A3010 RMK AO2 SLP135 T02720050,M
LSV,2023-08-02 03:55,-115.0343,36.2362,570.00,82.20,65.00,56.07,190.00,8.00,0.00,29.96,1012.30,10.00,M,BKN,M,M,M,14000.00,M,M,M,M,M,M,M,M,M,M,83.99,KLSV 020355Z AUTO 19008KT 10SM BKN140 28/18 A2996 RMK AO2 SLP123 T02790183 $,M
RTS,2023-08-02 03:55,-119.8764,39.6682,1539.00,71.60,35.60,26.71,280.00,10.00,0.00,30.17,M,10.00,M,CLR,M,M,M,M,M,M,M,M,M,M,M,M,M,M,71.60,KRTS 020355Z AUTO 28010KT 10SM CLR 22/02 A3017 RMK AO2,M
05U,2023-08-02 03:55,-116.0051,39.6042,1811.23,62.60,55.40,77.29,M,M,0.00,30.28,M,10.00,M,M,M,M,M,M,M,M,M,M,M,M,M,M,M,M,62.60,K05U 020355Z AUTO 10SM 17/13 A3028 RMK A01,M
MEV,2023-08-02 03:55,-119.7500,38.9963,1441.42,69.80,44.60,40.29,70.00,5.00,0.00,30.11,M,10.00,M,CLR,M,M,M,M,M,M,M,M,M,M,M,M,M,M,69.80,KMEV 020355Z AUTO 07005KT 10SM CLR 21/07 A3011 RMK AO2,M
HTH,2023-08-02 03:55,-118.6315,38.5448,1282.89,80.60,46.40,30.07,270.00,18.00,0.00,30.08,M,10.00,M,FEW,BKN,OVC,M,6000.00,7500.00,11000.00,M,M,M,M,M,M,M,M,79.56,KHTH 020355Z AUTO 27018KT 10SM FEW060 BKN075 OVC110 27/08 A3008 RMK A01,M
TMT,2023-08-02 03:55,-117.1971,39.4643,1749.34,71.00,43.00,36.38,0.00,0.00,0.00,30.21,M,M,M,CLR,M,M,M,M,M,M,M,M,M,M,M,M,M,M,71.00,KTMT 020355Z AUTO 00000KT CLR 22/06 A3021 RMK AO2 T02170062 PWINO,M
10U,2023-08-02 03:55,-116.1876,41.9532,1637.00,77.00,44.60,31.62,130.00,11.00,0.00,30.17,M,10.00,19.00,SCT,BKN,M,M,10000.00,12000.00,M,M,M,M,M,M,M,M,M,77.00,K10U 020355Z AUTO 13011G19KT 10SM SCT100 BKN120 25/07 A3017 RMK AO2,M
EKO,2023-08-02 03:56,-115.7860,40.8242,1367.00,70.00,55.00,58.94,40.00,8.00,T,30.20,1016.70,10.00,M,CLR,M,M,M,M,M,M,M,M,M,M,M,M,M,M,70.00,KEKO 020356Z AUTO 04008KT 10SM CLR 21/13 A3020 RMK AO2 RAB03E14 SLP167 P0000 T02110128,M
WMC,2023-08-02 03:56,-117.8072,40.9019,1315.00,81.00,30.00,15.60,360.00,5.00,0.00,30.07,1012.80,10.00,M,CLR,M,M,M,M,M,M,M,M,M,M,M,M,M,M,79.02,KWMC 020356Z AUTO 36005KT 10SM CLR 27/M01 A3007 RMK AO2 SLP128 T02721011,M
NFL,2023-08-02 03:56,-118.7010,39.4166,1199.00,80.00,44.00,27.99,30.00,4.00,0.00,30.03,1013.80,10.00,M,SCT,SCT,BKN,BKN,8000.00,12000.00,18000.00,25000.00,M,M,M,M,M,M,M,79.06,KNFL 020356Z 03004KT 10SM SCT080 SCT120 BKN180 BKN250 27/07 A3003 RMK AO2 SLP138 T02670067,M
HND,2023-08-02 03:56,-115.1344,35.9729,742.79,81.00,58.00,45.51,190.00,6.00,0.00,30.05,1016.60,10.00,M,FEW,M,M,M,12000.00,M,M,M,M,M,M,M,M,M,M,81.22,KHND 020356Z AUTO 19006KT 10SM FEW120 27/14 A3005 RMK AO2 SLP166 T02720144,M
TPH,2023-08-02 03:56,-117.0904,38.0505,1654.00,76.00,49.00,38.59,80.00,16.00,0.00,30.20,1014.40,10.00,22.00,FEW,FEW,OVC,M,6500.00,8000.00,11000.00,M,M,M,M,M,M,M,M,76.00,KTPH 020356Z AUTO 08016G22KT 10SM FEW065 FEW080 OVC110 24/09 A3020 RMK AO2 LTG DSNT SE SLP144 T02440094,M
LAS,2023-08-02 03:56,-115.1634,36.0719,663.00,80.00,61.00,52.33,260.00,4.00,0.00,30.01,1014.00,10.00,M,SCT,BKN,BKN,M,9000.00,11000.00,20000.00,M,M,M,M,M,M,M,M,81.03,KLAS 020356Z 26004KT 10SM SCT090 BKN110 BKN200 27/16 A3001 RMK AO2 TSE03 SLP140 TS DSIPTD LTG DSNT N T02670161,M
BAM,2023-08-02 04:10,-116.8743,40.5990,1382.36,80.60,48.20,32.18,80.00,9.00,0.00,30.12,M,10.00,M,SCT,M,M,M,11000.00,M,M,M,M,M,M,M,M,M,M,79.71,KBAM 020410Z AUTO 08009KT 10SM SCT110 27/09 A3012 RMK AO1,M
BVU,2023-08-02 04:15,-114.8611,35.9475,671.00,78.80,62.60,57.60,360.00,4.00,0.00,30.01,M,10.00,M,CLR,M,M,M,M,M,M,M,M,M,M,M,M,M,M,78.80,KBVU 020415Z AUTO 36004KT 10SM CLR 26/17 A3001 RMK AO2 LTG DSNT SW AND NW,M
CXP,2023-08-02 04:15,-119.7326,39.1923,1431.00,78.80,41.00,25.95,350.00,6.00,0.00,30.14,M,10.00,M,CLR,M,M,M,M,M,M,M,M,M,M,M,M,M,M,78.80,KCXP 020415Z AUTO 35006KT 10SM CLR 26/05 A3014 RMK AO2,M
RTS,2023-08-02 04:15,-119.8764,39.6682,1539.00,71.60,37.40,28.68,310.00,10.00,0.00,30.18,M,10.00,M,CLR,M,M,M,M,M,M,M,M,M,M,M,M,M,M,71.60,KRTS 020415Z AUTO 31010KT 10SM CLR 22/03 A3018 RMK AO2,M
05U,2023-08-02 04:15,-116.0051,39.6042,1811.23,62.60,55.40,77.29,M,M,0.00,30.29,M,10.00,M,M,M,M,M,M,M,M,M,M,M,M,M,M,M,M,62.60,K05U 020415Z AUTO 10SM 17/13 A3029 RMK A01,M
MEV,2023-08-02 04:15,-119.7500,38.9963,1441.42,64.40,46.40,51.98,100.00,5.00,0.00,30.13,M,10.00,M,CLR,M,M,M,M,M,M,M,M,M,M,M,M,M,M,64.40,KMEV 020415Z AUTO 10005KT 10SM CLR 18/08 A3013 RMK AO2,M
HTH,2023-08-02 04:15,-118.6315,38.5448,1282.89,77.00,50.00,38.74,270.00,25.00,0.00,30.08,M,10.00,40.00,SCT,OVC,M,M,5500.00,7000.00,M,M,M,M,M,M,M,M,M,77.00,KHTH 020415Z AUTO 27025G40KT 10SM SCT055 OVC070 25/10 A3008 RMK A01,M
10U,2023-08-02 04:15,-116.1876,41.9532,1637.00,75.20,44.60,33.57,120.00,15.00,0.00,30.17,M,10.00,20.00,BKN,M,M,M,11000.00,M,M,M,M,M,M,M,M,M,M,75.20,K10U 020415Z AUTO 12015G20KT 10SM BKN110 24/07 A3017 RMK AO2,M
TMT,2023-08-02 04:15,-117.1971,39.4643,1749.34,70.00,43.00,37.64,60.00,3.00,0.00,30.22,M,M,M,CLR,M,M,M,M,M,M,M,M,M,M,M,M,M,M,70.00,KTMT 020415Z AUTO 06003KT CLR 21/06 A3022 RMK AO2 LTG DSNT S T02110061 PWINO,M
BAM,2023-08-02 04:30,-116.8743,40.5990,1382.36,78.80,48.20,34.13,70.00,9.00,0.00,30.13,M,10.00,M,SCT,M,M,M,12000.00,M,M,M,M,M,M,M,M,M,M,78.80,KBAM 020430Z AUTO 07009KT 10SM SCT120 26/09 A3013 RMK AO1,M
BVU,2023-08-02 04:35,-114.8611,35.9475,671.00,78.80,64.40,61.36,290.00,5.00,0.00,30.01,M,10.00,M,CLR,M,M,M,M,M,M,M,M,M,M,M,M,M,M,78.80,KBVU 020435Z AUTO 29005KT 10SM CLR 26/18 A3001 RMK AO2 LTG DSNT NW,M
CXP,2023-08-02 04:35,-119.7326,39.1923,1431.00,77.00,41.00,27.53,290.00,8.00,0.00,30.14,M,10.00,M,CLR,M,M,M,M,M,M,M,M,M,M,M,M,M,M,77.00,KCXP 020435Z AUTO 29008KT 10SM CLR 25/05 A3014 RMK AO2,M
RTS,2023-08-02 04:35,-119.8764,39.6682,1539.00,69.80,35.60,28.39,320.00,4.00,0.00,30.19,M,10.00,M,CLR,M,M,M,M,M,M,M,M,M,M,M,M,M,M,69.80,KRTS 020435Z AUTO 32004KT 10SM CLR 21/02 A3019 RMK AO2,M
05U,2023-08-02 04:35,-116.0051,39.6042,1811.23,62.60,53.60,72.38,M,M,0.00,30.29,M,10.00,M,M,M,M,M,M,M,M,M,M,M,M,M,M,M,M,62.60,K05U 020435Z AUTO 10SM 17/12 A3029 RMK A01,M
MEV,2023-08-02 04:35,-119.7500,38.9963,1441.42,66.20,46.40,48.83,80.00,4.00,0.00,30.13,M,10.00,M,CLR,M,M,M,M,M,M,M,M,M,M,M,M,M,M,66.20,KMEV 020435Z AUTO 08004KT 10SM CLR 19/08 A3013 RMK AO2,M
HTH,2023-08-02 04:35,-118.6315,38.5448,1282.89,75.20,50.00,41.14,320.00,22.00,0.00,30.09,M,8.00,M,FEW,SCT,BKN,M,900.00,5000.00,6000.00,M,M,M,M,M,M,M,M,75.20,KHTH 020435Z AUTO 32022KT 8SM FEW009 SCT050 BKN060 24/10 A3009 RMK A01,M
10U,2023-08-02 04:35,-116.1876,41.9532,1637.00,75.20,44.60,33.57,120.00,13.00,0.00,30.18,M,10.00,20.00,BKN,M,M,M,11000.00,M,M,M,M,M,M,M,M,M,M,75.20,K10U 020435Z AUTO 12013G20KT 10SM BKN110 24/07 A3018 RMK AO2,M
TMT,2023-08-02 04:35,-117.1971,39.4643,1749.34,69.30,43.70,39.60,0.00,0.00,0.00,30.22,M,M,M,CLR,M,M,M,M,M,M,M,M,M,M,M,M,M,M,69.30,KTMT 020435Z AUTO 00000KT CLR 21/07 A3022 RMK AO2 LTG DSNT S T02070065 PWINO,M
BAM,2023-08-02 04:50,-116.8743,40.5990,1382.36,78.80,48.20,34.13,70.00,8.00,0.00,30.13,M,10.00,M,CLR,M,M,M,M,M,M,M,M,M,M,M,M,M,M,78.80,KBAM 020450Z AUTO 07008KT 10SM CLR 26/09 A3013 RMK AO1,M
P68,2023-08-02 04:53,-116.0056,39.6014,1993.00,64.00,53.00,67.41,180.00,5.00,0.00,30.26,1016.40,M,M,M,M,M,M,M,M,M,M,M,M,M,M,M,M,M,64.00,KP68 020453Z AUTO 18005KT 18/12 A3026 RMK AO1 SLP164 T01780117,M
DRA,2023-08-02 04:53,-116.0278,36.6206,1009.00,82.00,58.00,44.05,110.00,11.00,0.00,30.06,1012.90,10.00,M,FEW,SCT,M,M,10000.00,12000.00,M,M,M,M,M,M,M,M,M,81.94,KDRA 020453Z AUTO 11011KT 10SM FEW100 SCT120 28/14 A3006 RMK AO2 SLP129 T02780144,M
ELY,2023-08-02 04:53,-114.8453,39.2950,1909.00,59.00,57.00,93.07,320.00,6.00,0.00,30.31,1017.00,10.00,M,CLR,M,M,M,M,M,M,M,M,M,M,M,M,M,M,59.00,KELY 020453Z AUTO 32006KT 10SM CLR 15/14 A3031 RMK AO2 SLP170 T01500139 $,M
VGT,2023-08-02 04:53,-115.1933,36.2111,667.00,81.00,67.00,62.49,140.00,3.00,0.00,30.01,1015.40,10.00,M,CLR,M,M,M,M,M,M,M,M,M,M,M,M,M,M,83.43,KVGT 020453Z AUTO 14003KT 10SM CLR 27/19 A3001 RMK AO2 SLP154 T02720194,M
LOL,2023-08-02 04:53,-118.5701,40.0684,1192.43,85.00,35.00,16.76,20.00,5.00,0.00,30.04,1012.20,10.00,M,CLR,M,M,M,M,M,M,M,M,M,M,M,M,M,M,81.91,KLOL 020453Z AUTO 02005KT 10SM CLR 29/02 A3004 RMK AO2 SLP122 T02940017,M
BVU,2023-08-02 04:55,-114.8611,35.9475,671.00,78.80,66.20,65.33,310.00,4.00,0.00,30.01,M,10.00,M,CLR,M,M,M,M,M,M,M,M,M,M,M,M,M,M,78.80,KBVU 020455Z AUTO 31004KT 10SM CLR 26/19 A3001 RMK AO2,M
CXP,2023-08-02 04:55,-119.7326,39.1923,1431.00,77.00,39.20,25.67,320.00,11.00,0.00,30.15,M,10.00,M,SCT,M,M,M,12000.00,M,M,M,M,M,M,M,M,M,M,77.00,KCXP 020455Z AUTO 32011KT 10SM SCT120 25/04 A3015 RMK AO2,M
INS,2023-08-02 04:55,-115.6733,36.5872,955.00,76.00,61.00,59.72,0.00,0.00,0.00,30.06,1013.70,10.00,M,OVC,M,M,M,14000.00,M,M,M,M,M,M,M,M,M,M,76.00,KINS 020455Z AUTO 00000KT 10SM OVC140 24/16 A3006 RMK AO2 SLP137 T02440161 $,M
RNO,2023-08-02 04:55,-119.7711,39.4839,1341.00,78.00,41.00,26.64,340.00,9.00,0.00,30.13,1014.40,10.00,M,SCT,M,M,M,25000.00,M,M,M,M,M,M,M,M,M,M,78.00,KRNO 020455Z 34009KT 10SM SCT250 26/05 A3013 RMK AO2 SLP144 T02560050,M
LSV,2023-08-02 04:55,-115.0343,36.2362,570.00,81.70,64.00,55.03,150.00,3.00,0.00,29.97,1012.50,10.00,M,SCT,M,M,M,16000.00,M,M,M,M,M,M,M,M,M,M,83.19,KLSV 020455Z AUTO 15003KT 10SM SCT160 28/18 A2997 RMK AO2 SLP125 T02760177 $,M
RTS,2023-08-02 04:55,-119.8764,39.6682,1539.00,68.00,35.60,30.20,330.00,7.00,0.00,30.19,M,10.00,M,CLR,M,M,M,M,M,M,M,M,M,M,M,M,M,M,68.00,KRTS 020455Z AUTO 33007KT 10SM CLR 20/02 A3019 RMK AO2,M
05U,2023-08-02 04:55,-116.0051,39.6042,1811.23,62.60,53.60,72.38,M,M,0.00,30.29,M,10.00,M,M,M,M,M,M,M,M,M,M,M,M,M,M,M,M,62.60,K05U 020455Z AUTO 10SM 17/12 A3029 RMK A01,M
MEV,2023-08-02 04:55,-119.7500,38.9963,1441.42,64.40,48.20,55.63,90.00,6.00,0.00,30.13,M,10.00,M,BKN,M,M,M,12000.00,M,M,M,M,M,M,M,M,M,M,64.40,KMEV 020455Z AUTO 09006KT 10SM BKN120 18/09 A3013 RMK AO2,M
HTH,2023-08-02 04:55,-118.6315,38.5448,1282.89,77.00,50.00,38.74,250.00,8.00,0.00,30.11,M,10.00,17.00,M,M,M,M,M,M,M,M,M,M,M,M,M,M,M,77.00,KHTH 020455Z AUTO 25008G17KT 10SM 25/10 A3011 RMK A01,M
TMT,2023-08-02 04:55,-117.1971,39.4643,1749.34,67.00,45.50,45.90,320.00,3.00,0.00,30.22,M,M,M,CLR,M,M,M,M,M,M,M,M,M,M,M,M,M,M,67.00,KTMT 020455Z AUTO 32003KT CLR 20/08 A3022 RMK AO2 T01950075 PWINO,M
10U,2023-08-02 04:55,-116.1876,41.9532,1637.00,75.20,44.60,33.57,120.00,13.00,0.00,30.18,M,10.00,18.00,SCT,M,M,M,11000.00,M,M,M,M,M,M,M,M,M,M,75.20,K10U 020455Z AUTO 12013G18KT 10SM SCT110 24/07 A3018 RMK AO2,M
EKO,2023-08-02 04:56,-115.7860,40.8242,1367.00,70.00,53.00,54.78,80.00,6.00,0.00,30.20,1016.50,10.00,M,BKN,M,M,M,10000.00,M,M,M,M,M,M,M,M,M,M,70.00,KEKO 020456Z AUTO 08006KT 10SM BKN100 21/12 A3020 RMK AO2 SLP165 T02110117,M
WMC,2023-08-02 04:56,-117.8072,40.9019,1315.00,81.00,31.00,16.25,360.00,3.00,0.00,30.08,1012.90,10.00,M,CLR,M,M,M,M,M,M,M,M,M,M,M,M,M,M,79.04,KWMC 020456Z AUTO 36003KT 10SM CLR 27/M01 A3008 RMK AO2 SLP129 T02721006,M
NFL,2023-08-02 04:56,-118.7010,39.4166,1199.00,75.00,43.00,31.79,40.00,4.00,0.00,30.04,1014.30,8.00,M,FEW,SCT,BKN,M,8000.00,12000.00,25000.00,M,M,M,M,M,M,M,M,75.00,KNFL 020456Z 04004KT 8SM FEW080 SCT120 BKN250 24/06 A3004 RMK AO2 SLP143 T02390061,M
HND,2023-08-02 04:56,-115.1344,35.9729,742.79,81.00,59.00,47.17,160.00,7.00,0.00,30.05,1016.50,10.00,M,SCT,M,M,M,12000.00,M,M,M,M,M,M,M,M,M,M,81.40,KHND 020456Z AUTO 16007KT 10SM SCT120 27/15 A3005 RMK AO2 SLP165 T02720150,M
TPH,2023-08-02 04:56,-117.0904,38.0505,1654.00,74.00,50.00,42.82,120.00,11.00,0.00,30.23,1015.70,10.00,M,SCT,OVC,M,M,8000.00,11000.00,M,M,M,M,M,M,26.00,80.00,2023-08-02 04:06,74.00,KTPH 020456Z AUTO 12011KT 10SM SCT080 OVC110 23/10 A3023 RMK AO2 PK WND 08026/0406 SLP157 T02330100,M
LAS,2023-08-02 04:56,-115.1634,36.0719,663.00,82.00,58.00,44.05,170.00,4.00,0.00,30.01,1013.70,10.00,M,FEW,OVC,M,M,10000.00,14000.00,M,M,M,M,M,M,M,M,M,81.94,KLAS 020456Z 17004KT 10SM FEW100 OVC140 28/14 A3001 RMK AO2 SLP137 T02780144,M
BAM,2023-08-02 05:10,-116.8743,40.5990,1382.36,78.80,48.20,34.13,70.00,11.00,0.00,30.13,M,10.00,17.00,CLR,M,M,M,M,M,M,M,M,M,M,M,M,M,M,78.80,KBAM 020510Z AUTO 07011G17KT 10SM CLR 26/09 A3013 RMK AO1,M
BVU,2023-08-02 05:15,-114.8611,35.9475,671.00,78.80,66.20,65.33,0.00,0.00,0.00,30.01,M,10.00,M,FEW,M,M,M,12000.00,M,M,M,M,M,M,M,M,M,M,78.80,KBVU 020515Z AUTO 00000KT 10SM FEW120 26/19 A3001 RMK AO2,M
CXP,2023-08-02 05:15,-119.7326,39.1923,1431.00,77.00,41.00,27.53,310.00,8.00,0.00,30.15,M,10.00,M,SCT,M,M,M,12000.00,M,M,M,M,M,M,M,M,M,M,77.00,KCXP 020515Z AUTO 31008KT 10SM SCT120 25/05 A3015 RMK AO2,M
RTS,2023-08-02 05:15,-119.8764,39.6682,1539.00,68.00,35.60,30.20,300.00,5.00,0.00,30.19,M,10.00,M,CLR,M,M,M,M,M,M,M,M,M,M,M,M,M,M,68.00,KRTS 020515Z AUTO 30005KT 10SM CLR 20/02 A3019 RMK AO2,M
05U,2023-08-02 05:15,-116.0051,39.6042,1811.23,64.40,51.80,63.60,M,M,0.00,30.28,M,10.00,M,M,M,M,M,M,M,M,M,M,M,M,M,M,M,M,64.40,K05U 020515Z AUTO 10SM 18/11 A3028 RMK A01,M
MEV,2023-08-02 05:15,-119.7500,38.9963,1441.42,66.20,46.40,48.83,0.00,0.00,0.00,30.14,M,10.00,M,BKN,M,M,M,12000.00,M,M,M,M,M,M,M,M,M,M,66.20,KMEV 020515Z AUTO 00000KT 10SM BKN120 19/08 A3014 RMK AO2,M
HTH,2023-08-02 05:15,-118.6315,38.5448,1282.89,71.60,59.00,64.48,0.00,0.00,0.00,30.11,M,7.00,10.00,M,M,M,M,M,M,M,M,M,M,M,M,M,M,M,71.60,KHTH 020515Z AUTO 00000G10KT 7SM 22/15 A3011 RMK A01,M
10U,2023-08-02 05:15,-116.1876,41.9532,1637.00,73.40,44.60,35.66,120.00,9.00,0.00,30.18,M,10.00,14.00,SCT,BKN,M,M,10000.00,12000.00,M,M,M,M,M,M,M,M,M,73.40,K10U 020515Z AUTO 12009G14KT 10SM SCT100 BKN120 23/07 A3018 RMK AO2,M
TMT,2023-08-02 05:15,-117.1971,39.4643,1749.34,68.00,44.00,41.88,320.00,4.00,0.00,30.22,M,M,M,CLR,M,M,M,M,M,M,M,M,M,M,M,M,M,M,68.00,KTMT 020515Z AUTO 32004KT CLR 20/07 A3022 RMK AO2 T02000066 PWINO,M
BAM,2023-08-02 05:30,-116.8743,40.5990,1382.36,77.00,50.00,38.74,80.00,8.00,0.00,30.13,M,10.00,M,SCT,M,M,M,12000.00,M,M,M,M,M,M,M,M,M,M,77.00,KBAM 020530Z AUTO 08008KT 10SM SCT120 25/10 A3013 RMK AO1,M
BVU,2023-08-02 05:35,-114.8611,35.9475,671.00,78.80,66.20,65.33,0.00,0.00,0.00,30.01,M,10.00,M,CLR,M,M,M,M,M,M,M,M,M,M,M,M,M,M,78.80,KBVU 020535Z AUTO 00000KT 10SM CLR 26/19 A3001 RMK AO2,M
CXP,2023-08-02 05:35,-119.7326,39.1923,1431.00,77.00,39.20,25.67,310.00,11.00,0.00,30.15,M,10.00,M,CLR,M,M,M,M,M,M,M,M,M,M,M,M,M,M,77.00,KCXP 020535Z AUTO 31011KT 10SM CLR 25/04 A3015 RMK AO2,M
RTS,2023-08-02 05:35,-119.8764,39.6682,1539.00,68.00,35.60,30.20,290.00,4.00,0.00,30.19,M,10.00,M,CLR,M,M,M,M,M,M,M,M,M,M,M,M,M,M,68.00,KRTS 020535Z AUTO 29004KT 10SM CLR 20/02 A3019 RMK AO2,M
05U,2023-08-02 05:35,-116.0051,39.6042,1811.23,64.40,51.80,63.60,M,M,0.00,30.28,M,10.00,M,M,M,M,M,M,M,M,M,M,M,M,M,M,M,M,64.40,K05U 020535Z AUTO 10SM 18/11 A3028 RMK A01,M
MEV,2023-08-02 05:35,-119.7500,38.9963,1441.42,66.20,42.80,42.57,130.00,3.00,0.00,30.14,M,10.00,M,SCT,M,M,M,12000.00,M,M,M,M,M,M,M,M,M,M,66.20,KMEV 020535Z AUTO 13003KT 10SM SCT120 19/06 A3014 RMK AO2,M
HTH,2023-08-02 05:35,-118.6315,38.5448,1282.89,73.40,57.20,56.88,220.00,4.00,0.00,30.11,M,10.00,M,FEW,SCT,BKN,M,2100.00,7500.00,9500.00,M,M,M,M,M,M,M,M,73.40,KHTH 020535Z AUTO 22004KT 10SM FEW021 SCT075 BKN095 23/14 A3011 RMK A01,M
10U,2023-08-02 05:35,-116.1876,41.9532,1637.00,75.20,44.60,33.57,100.00,6.00,0.00,30.18,M,10.00,15.00,OVC,M,M,M,11000.00,M,M,M,M,M,M,M,M,M,M,75.20,K10U 020535Z AUTO 10006G15KT 10SM OVC110 24/07 A3018 RMK AO2,M
TMT,2023-08-02 05:35,-117.1971,39.4643,1749.34,67.00,44.80,44.70,270.00,4.00,0.00,30.22,M,M,M,CLR,M,M,M,M,M,M,M,M,M,M,M,M,M,M,67.00,KTMT 020535Z AUTO 27004KT CLR 20/07 A3022 RMK AO2 T01950071 PWINO,M
BAM,2023-08-02 05:50,-116.8743,40.5990,1382.36,77.00,50.00,38.74,90.00,4.00,0.00,30.13,M,10.00,M,SCT,M,M,M,12000.00,M,M,M,M,M,M,M,M,M,M,77.00,KBAM 020550Z AUTO 09004KT 10SM SCT120 25/10 A3013 RMK AO1,M
P68,2023-08-02 05:53,-116.0056,39.6014,1993.00,63.00,51.00,64.85,170.00,5.00,0.00,30.25,1016.10,M,M,M,M,M,M,M,M,M,M,M,M,M,M,M,M,M,63.00,KP68 020553Z AUTO 17005KT 17/11 A3025 RMK AO1 SLP161 60001 T01720106 10200 20161 50001,M
DRA,2023-08-02 05:53,-116.0278,36.6206,1009.00,81.00,58.00,45.51,130.00,10.00,0.00,30.06,1012.70,10.00,M,CLR,M,M,M,M,M,M,M,M,M,M,M,M,M,M,81.22,KDRA 020553Z AUTO 13010KT 10SM CLR 27/14 A3006 RMK AO2 SLP127 T02720144 10333 20272 51009,M
ELY,2023-08-02 05:53,-114.8453,39.2950,1909.00,58.00,56.00,93.04,0.00,0.00,0.00,30.30,1016.60,10.00,M,CLR,M,M,M,M,M,M,M,M,M,M,M,M,M,M,58.00,KELY 020553Z AUTO 00000KT 10SM CLR 14/13 A3030 RMK AO2 SLP166 60030 T01440133 10161 20139 50003 $,M
VGT,2023-08-02 05:53,-115.1933,36.2111,667.00,81.00,68.00,64.69,80.00,4.00,0.00,30.00,1015.10,10.00,M,CLR,M,M,M,M,M,M,M,M,M,M,M,M,M,M,83.76,KVGT 020553Z AUTO 08004KT 10SM CLR 27/20 A3000 RMK AO2 SLP151 60025 T02720200 10350 20250 50006,M
LOL,2023-08-02 05:53,-118.5701,40.0684,1192.43,78.00,41.00,26.64,70.00,5.00,0.00,30.04,1012.50,10.00,M,CLR,M,M,M,M,M,M,M,M,M,M,M,M,M,M,78.00,KLOL 020553Z AUTO 07005KT 10SM CLR 26/05 A3004 RMK AO2 SLP125 T02560050 10333 20256 52005,M
BVU,2023-08-02 05:55,-114.8611,35.9475,671.00,78.80,66.20,65.33,0.00,0.00,0.00,30.00,M,10.00,M,CLR,M,M,M,M,M,M,M,M,M,M,M,M,M,M,78.80,KBVU 020555Z AUTO 00000KT 10SM CLR 26/19 A3000 RMK AO2,M
CXP,2023-08-02 05:55,-119.7326,39.1923,1431.00,75.20,39.20,27.26,M,5.00,0.00,30.15,M,10.00,M,CLR,M,M,M,M,M,M,M,M,M,M,M,M,M,M,75.20,KCXP 020555Z AUTO VRB05KT 10SM CLR 24/04 A3015 RMK AO2,M
INS,2023-08-02 05:55,-115.6733,36.5872,955.00,75.60,61.50,61.61,100.00,7.00,0.00,30.07,1014.00,10.00,M,OVC,M,M,M,13000.00,M,M,M,M,M,M,M,M,M,M,75.60,KINS 020555Z AUTO 10007KT 10SM OVC130 24/16 A3007 RMK AO2 SLP140 60000 T02420164 10315 20223 53007 $,M
RNO,2023-08-02 05:55,-119.7711,39.4839,1341.00,76.00,42.00,29.59,320.00,6.00,0.00,30.14,M,10.00,M,FEW,SCT,M,M,15000.00,25000.00,M,M,M,M,M,M,M,M,M,76.00,KRNO 020555Z 32006KT 10SM FEW150 SCT250 24/06 A3014 RMK AO2 SLPNO T02440056 10339 20244 51020,M
LSV,2023-08-02 05:55,-115.0343,36.2362,570.00,81.00,62.80,53.98,0.00,0.00,0.00,29.97,1012.50,10.00,M,OVC,M,M,M,15000.00,M,M,M,M,M,M,M,M,M,M,82.23,KLSV 020555Z AUTO 00000KT 10SM OVC150 27/17 A2997 RMK AO2 SLP125 60000 T02730171 10335 20271 51008 $,M
RTS,2023-08-02 05:55,-119.8764,39.6682,1539.00,69.80,35.60,28.39,290.00,7.00,0.00,30.19,M,10.00,M,CLR,M,M,M,M,M,M,M,M,M,M,M,M,M,M,69.80,KRTS 020555Z AUTO 29007KT 10SM CLR 21/02 A3019 RMK AO2,M
05U,2023-08-02 05:55,-116.0051,39.6042,1811.23,62.60,51.80,67.75,M,M,0.00,30.27,M,10.00,M,M,M,M,M,M,M,M,M,M,M,M,M,M,M,M,62.60,K05U 020555Z AUTO 10SM 17/11 A3027 RMK A01,M
MEV,2023-08-02 05:55,-119.7500,38.9963,1441.42,68.00,42.80,40.00,0.00,0.00,0.00,30.14,M,10.00,M,FEW,FEW,BKN,M,4100.00,6500.00,12000.00,M,M,M,M,M,M,M,M,68.00,KMEV 020555Z AUTO 00000KT 10SM FEW041 FEW065 BKN120 20/06 A3014 RMK AO2,M
HTH,2023-08-02 05:55,-118.6315,38.5448,1282.89,73.40,55.40,53.29,180.00,4.00,0.01,30.11,M,10.00,M,SCT,BKN,M,M,9500.00,11000.00,M,M,M,M,M,M,M,M,M,73.40,KHTH 020555Z AUTO 18004KT 10SM SCT095 BKN110 23/13 A3011 RMK A01 P0001,M
TMT,2023-08-02 05:55,-117.1971,39.4643,1749.34,66.60,44.60,44.98,330.00,5.00,0.00,30.22,M,M,M,SCT,M,M,M,12000.00,M,M,M,M,M,M,M,M,M,M,66.60,KTMT 020555Z AUTO 33005KT SCT120 19/07 A3022 RMK AO2 T01920070 10275 20188 PWINO,M
10U,2023-08-02 05:55,-116.1876,41.9532,1637.00,73.40,44.60,35.66,150.00,8.00,0.00,30.19,M,10.00,M,BKN,M,M,M,11000.00,M,M,M,M,M,M,M,M,M,M,73.40,K10U 020555Z AUTO 15008KT 10SM BKN110 23/07 A3019 RMK AO2,M
EKO,2023-08-02 05:56,-115.7860,40.8242,1367.00,69.00,53.00,56.69,100.00,5.00,0.00,30.22,1017.10,10.00,M,OVC,M,M,M,11000.00,M,M,M,M,M,M,M,M,M,M,69.00,KEKO 020556Z AUTO 10005KT 10SM OVC110 21/12 A3022 RMK AO2 SLP171 60000 T02060117 10267 20206 53009,M
WMC,2023-08-02 05:56,-117.8072,40.9019,1315.00,75.00,40.00,28.31,0.00,0.00,0.00,30.08,1012.80,10.00,M,CLR,M,M,M,M,M,M,M,M,M,M,M,M,M,M,75.00,KWMC 020556Z AUTO 00000KT 10SM CLR 24/04 A3008 RMK AO2 SLP128 T02390044 10339 20239 50005,M
NFL,2023-08-02 05:56,-118.7010,39.4166,1199.00,75.00,42.00,30.59,M,5.00,0.00,30.05,1014.40,10.00,M,SCT,BKN,M,M,12000.00,25000.00,M,M,M,M,M,M,M,M,M,75.00,KNFL 020556Z VRB05KT 10SM SCT120 BKN250 24/06 A3005 RMK AO2 SLP144 T02390056 10339 20233 51010,M
HND,2023-08-02 05:56,-115.1344,35.9729,742.79,81.00,60.00,48.88,200.00,5.00,0.00,30.05,1016.30,10.00,M,OVC,M,M,M,12000.00,M,M,M,M,M,M,M,M,M,M,81.60,KHND 020556Z AUTO 20005KT 10SM OVC120 27/16 A3005 RMK AO2 SLP163 T02720156 10317 20267 50002,M
TPH,2023-08-02 05:56,-117.0904,38.0505,1654.00,72.00,51.00,47.54,100.00,11.00,0.00,30.23,1015.10,10.00,M,SCT,M,M,M,11000.00,M,M,M,M,M,M,M,M,M,M,72.00,KTPH 020556Z AUTO 10011KT 10SM SCT110 22/11 A3023 RMK AO2 SLP151 60000 T02220106 10272 20222 50013,M
LAS,2023-08-02 05:56,-115.1634,36.0719,663.00,83.00,58.00,42.64,110.00,3.00,0.00,30.01,1013.60,10.00,M,FEW,BKN,OVC,M,11000.00,16000.00,25000.00,M,M,M,M,M,M,M,M,82.70,KLAS 020556Z 11003KT 10SM FEW110 BKN160 OVC250 28/14 A3001 RMK AO2 SLP136 60000 T02830144 10333 20250 51003,M
BAM,2023-08-02 06:10,-116.8743,40.5990,1382.36,77.00,50.00,38.74,50.00,10.00,0.00,30.14,M,10.00,15.00,CLR,M,M,M,M,M,M,M,M,M,M,M,M,M,M,77.00,KBAM 020610Z AUTO 05010G15KT 10SM CLR 25/10 A3014 RMK AO1,M
BVU,2023-08-02 06:15,-114.8611,35.9475,671.00,78.80,66.20,65.33,0.00,0.00,0.00,30.01,M,10.00,M,CLR,M,M,M,M,M,M,M,M,M,M,M,M,M,M,78.80,KBVU 020615Z AUTO 00000KT 10SM CLR 26/19 A3001 RMK AO2,M
CXP,2023-08-02 06:15,-119.7326,39.1923,1431.00,73.40,42.80,33.29,190.00,6.00,0.00,30.15,M,10.00,M,CLR,M,M,M,M,M,M,M,M,M,M,M,M,M,M,73.40,KCXP 020615Z AUTO 19006KT 10SM CLR 23/06 A3015 RMK AO2,M
RTS,2023-08-02 06:15,-119.8764,39.6682,1539.00,68.00,35.60,30.20,300.00,7.00,0.00,30.19,M,10.00,M,CLR,M,M,M,M,M,M,M,M,M,M,M,M,M,M,68.00,KRTS 020615Z AUTO 30007KT 10SM CLR 20/02 A3019 RMK AO2,M
05U,2023-08-02 06:15,-116.0051,39.6042,1811.23,62.60,51.80,67.75,M,M,0.00,30.27,M,10.00,M,M,M,M,M,M,M,M,M,M,M,M,M,M,M,M,62.60,K05U 020615Z AUTO 10SM 17/11 A3027 RMK A01,M
MEV,2023-08-02 06:15,-119.7500,38.9963,1441.42,62.60,42.80,48.28,0.00,0.00,0.00,30.14,M,10.00,M,BKN,M,M,M,12000.00,M,M,M,M,M,M,M,M,M,M,62.60,KMEV 020615Z AUTO 00000KT 10SM BKN120 17/06 A3014 RMK AO2,M
HTH,2023-08-02 06:15,-118.6315,38.5448,1282.89,75.20,51.80,43.97,190.00,8.00,0.00,30.10,M,10.00,M,SCT,M,M,M,12000.00,M,M,M,M,M,M,M,M,M,M,75.20,KHTH 020615Z AUTO 19008KT 10SM SCT120 24/11 A3010 RMK A01,M
10U,2023-08-02 06:15,-116.1876,41.9532,1637.00,75.20,44.60,33.57,110.00,12.00,0.00,30.18,M,10.00,M,CLR,M,M,M,M,M,M,M,M,M,M,M,M,M,M,75.20,K10U 020615Z AUTO 11012KT 10SM CLR 24/07 A3018 RMK AO2,M
TMT,2023-08-02 06:15,-117.1971,39.4643,1749.34,66.40,43.70,43.76,320.00,5.00,0.00,30.22,M,M,M,SCT,M,M,M,12000.00,M,M,M,M,M,M,M,M,M,M,66.40,KTMT 020615Z AUTO 32005KT SCT120 19/07 A3022 RMK AO2 T01910065 PWINO,M
CXP,2023-08-02 06:30,-119.7326,39.1923,1431.00,71.60,42.80,35.37,M,6.00,0.00,30.16,M,10.00,M,CLR,M,M,M,M,M,M,M,M,M,M,M,M,M,M,71.60,KCXP 020630Z AUTO VRB06KT 10SM CLR 22/06 A3016 RMK AO2,M
05U,2023-08-02 06:30,-116.0051,39.6042,1811.23,60.80,53.60,77.14,M,M,0.00,30.27,M,10.00,M,M,M,M,M,M,M,M,M,M,M,M,M,M,M,M,60.80,K05U 020630Z AUTO 10SM 16/12 A3027 RMK A01,M
HTH,2023-08-02 06:30,-118.6315,38.5448,1282.89,75.20,51.80,43.97,150.00,6.00,0.00,30.10,M,10.00,M,SCT,M,M,M,12000.00,M,M,M,M,M,M,M,M,M,M,75.20,KHTH 020630Z AUTO 15006KT 10SM SCT120 24/11 A3010 RMK A01,M
BAM,2023-08-02 06:30,-116.8743,40.5990,1382.36,77.00,50.00,38.74,80.00,10.00,0.00,30.14,M,10.00,M,CLR,M,M,M,M,M,M,M,M,M,M,M,M,M,M,77.00,KBAM 020630Z AUTO 08010KT 10SM CLR 25/10 A3014 RMK AO1,M
BVU,2023-08-02 06:35,-114.8611,35.9475,671.00,78.80,64.40,61.36,330.00,3.00,0.00,30.00,M,10.00,M,CLR,M,M,M,M,M,M,M,M,M,M,M,M,M,M,78.80,KBVU 020635Z AUTO 33003KT 10SM CLR 26/18 A3000 RMK AO2,M
RTS,2023-08-02 06:35,-119.8764,39.6682,1539.00,68.00,35.60,30.20,290.00,8.00,0.00,30.19,M,10.00,M,CLR,M,M,M,M,M,M,M,M,M,M,M,M,M,M,68.00,KRTS 020635Z AUTO 29008KT 10SM CLR 20/02 A3019 RMK AO2,M
MEV,2023-08-02 06:35,-119.7500,38.9963,1441.42,60.80,44.60,55.12,M,4.00,0.00,30.14,M,10.00,M,BKN,M,M,M,11000.00,M,M,M,M,M,M,M,M,M,M,60.80,KMEV 020635Z AUTO VRB04KT 10SM BKN110 16/07 A3014 RMK AO2,M
10U,2023-08-02 06:35,-116.1876,41.9532,1637.00,73.40,46.40,38.18,130.00,11.00,0.00,30.18,M,10.00,21.00,FEW,M,M,M,10000.00,M,M,M,M,M,M,M,M,M,M,73.40,K10U 020635Z AUTO 13011G21KT 10SM FEW100 23/08 A3018 RMK AO2,M
TMT,2023-08-02 06:35,-117.1971,39.4643,1749.34,65.70,44.00,45.35,330.00,5.00,0.00,30.22,M,M,M,SCT,M,M,M,12000.00,M,M,M,M,M,M,M,M,M,M,65.70,KTMT 020635Z AUTO 33005KT SCT120 19/07 A3022 RMK AO2 T01870067 PWINO,M
BAM,2023-08-02 06:50,-116.8743,40.5990,1382.36,77.00,48.20,36.22,80.00,10.00,0.00,30.14,M,10.00,M,CLR,M,M,M,M,M,M,M,M,M,M,M,M,M,M,77.00,KBAM 020650Z AUTO 08010KT 10SM CLR 25/09 A3014 RMK AO1,M
P68,2023-08-02 06:53,-116.0056,39.6014,1993.00,61.00,53.00,74.93,130.00,7.00,0.00,30.25,1016.30,M,M,M,M,M,M,M,M,M,M,M,M,M,M,M,M,M,61.00,KP68 020653Z AUTO 13007KT 16/12 A3025 RMK AO1 SLP163 T01610117,M
DRA,2023-08-02 06:53,-116.0278,36.6206,1009.00,80.00,59.00,48.74,120.00,11.00,0.00,30.06,1012.80,10.00,M,CLR,M,M,M,M,M,M,M,M,M,M,M,M,M,M,80.68,KDRA 020653Z AUTO 12011KT 10SM CLR 27/15 A3006 RMK AO2 SLP128 T02670150,M
ELY,2023-08-02 06:53,-114.8453,39.2950,1909.00,56.00,54.00,92.98,0.00,0.00,0.00,30.31,1016.80,8.00,M,CLR,M,M,M,M,M,M,M,M,M,M,M,M,M,M,56.00,KELY 020653Z AUTO 00000KT 8SM CLR 13/12 A3031 RMK AO2 SLP168 T01330122 $,M
VGT,2023-08-02 06:53,-115.1933,36.2111,667.00,82.00,66.00,58.43,0.00,0.00,0.00,30.00,1014.90,10.00,M,CLR,M,M,M,M,M,M,M,M,M,M,M,M,M,M,84.15,KVGT 020653Z AUTO 00000KT 10SM CLR 28/19 A3000 RMK AO2 SLP149 T02780189,M
LOL,2023-08-02 06:53,-118.5701,40.0684,1192.43,74.00,39.00,28.16,240.00,4.00,0.00,30.05,1012.90,10.00,M,CLR,M,M,M,M,M,M,M,M,M,M,M,M,M,M,74.00,KLOL 020653Z AUTO 24004KT 10SM CLR 23/04 A3005 RMK AO2 SLP129 T02330039,M
BVU,2023-08-02 06:55,-114.8611,35.9475,671.00,78.80,64.40,61.36,0.00,0.00,0.00,30.00,M,10.00,M,FEW,M,M,M,12000.00,M,M,M,M,M,M,M,M,M,M,78.80,KBVU 020655Z AUTO 00000KT 10SM FEW120 26/18 A3000 RMK AO2,M
CXP,2023-08-02 06:55,-119.7326,39.1923,1431.00,71.60,42.80,35.37,0.00,0.00,0.00,30.16,M,10.00,M,CLR,M,M,M,M,M,M,M,M,M,M,M,M,M,M,71.60,KCXP 020655Z AUTO 00000KT 10SM CLR 22/06 A3016 RMK AO2,M
INS,2023-08-02 06:55,-115.6733,36.5872,955.00,75.60,61.00,60.52,60.00,4.00,0.00,30.06,1013.30,10.00,M,OVC,M,M,M,13000.00,M,M,M,M,M,M,M,M,M,M,75.60,KINS 020655Z AUTO 06004KT 10SM OVC130 24/16 A3006 RMK AO2 SLP133 T02420162 $,M
RNO,2023-08-02 06:55,-119.7711,39.4839,1341.00,76.00,41.00,28.47,M,4.00,0.00,30.14,1014.30,10.00,M,FEW,SCT,M,M,15000.00,21000.00,M,M,M,M,M,M,M,M,M,76.00,KRNO 020655Z VRB04KT 10SM FEW150 SCT210 24/05 A3014 RMK AO2 SLP143 T02440050,M
LSV,2023-08-02 06:55,-115.0343,36.2362,570.00,80.80,62.60,53.95,0.00,0.00,0.00,29.96,1012.10,10.00,M,BKN,BKN,M,M,14000.00,16000.00,M,M,M,M,M,M,M,M,M,82.01,KLSV 020655Z AUTO 00000KT 10SM BKN140 BKN160 27/17 A2996 RMK AO2 SLP121 T02710170 $,M
RTS,2023-08-02 06:55,-119.8764,39.6682,1539.00,68.00,35.60,30.20,300.00,7.00,0.00,30.19,M,10.00,M,CLR,M,M,M,M,M,M,M,M,M,M,M,M,M,M,68.00,KRTS 020655Z AUTO 30007KT 10SM CLR 20/02 A3019 RMK AO2,M
05U,2023-08-02 06:55,-116.0051,39.6042,1811.23,60.80,53.60,77.14,M,M,0.00,30.28,M,10.00,M,M,M,M,M,M,M,M,M,M,M,M,M,M,M,M,60.80,K05U 020655Z AUTO 10SM 16/12 A3028 RMK A01,M
MEV,2023-08-02 06:55,-119.7500,38.9963,1441.42,60.80,44.60,55.12,110.00,5.00,0.00,30.15,M,10.00,M,BKN,M,M,M,10000.00,M,M,M,M,M,M,M,M,M,M,60.80,KMEV 020655Z AUTO 11005KT 10SM BKN100 16/07 A3015 RMK AO2,M
HTH,2023-08-02 06:55,-118.6315,38.5448,1282.89,73.40,55.40,53.29,180.00,5.00,0.00,30.10,M,10.00,M,CLR,M,M,M,M,M,M,M,M,M,M,M,M,M,M,73.40,KHTH 020655Z AUTO 18005KT 10SM CLR 23/13 A3010 RMK A01,M
TMT,2023-08-02 06:55,-117.1971,39.4643,1749.34,66.40,44.00,44.26,0.00,0.00,0.00,30.22,M,M,M,CLR,M,M,M,M,M,M,M,M,M,M,M,M,M,M,66.40,KTMT 020655Z AUTO 00000KT CLR 19/07 A3022 RMK AO2 LTG DSNT S T01910067 PWINO,M
10U,2023-08-02 06:55,-116.1876,41.9532,1637.00,71.60,46.40,40.57,110.00,9.00,0.00,30.19,M,10.00,M,FEW,SCT,M,M,8500.00,12000.00,M,M,M,M,M,M,M,M,M,71.60,K10U 020655Z AUTO 11009KT 10SM FEW085 SCT120 22/08 A3019 RMK AO2,M
EKO,2023-08-02 06:56,-115.7860,40.8242,1367.00,69.00,53.00,56.69,70.00,4.00,0.00,30.23,1017.40,10.00,M,FEW,M,M,M,11000.00,M,M,M,M,M,M,M,M,M,M,69.00,KEKO 020656Z AUTO 07004KT 10SM FEW110 21/12 A3023 RMK AO2 SLP174 T02060117,M
WMC,2023-08-02 06:56,-117.8072,40.9019,1315.00,69.00,38.00,32.08,120.00,6.00,0.00,30.08,1013.00,10.00,M,CLR,M,M,M,M,M,M,M,M,M,M,M,M,M,M,69.00,KWMC 020656Z AUTO 12006KT 10SM CLR 21/03 A3008 RMK AO2 SLP130 T02060033,M
NFL,2023-08-02 06:56,-118.7010,39.4166,1199.00,77.00,39.00,25.47,280.00,5.00,0.00,30.06,1014.60,10.00,M,CLR,M,M,M,M,M,M,M,M,M,M,M,M,M,M,77.00,KNFL 020656Z AUTO 28005KT 10SM CLR 25/04 A3006 RMK AO2 SLP146 T02500039,M
HND,2023-08-02 06:56,-115.1344,35.9729,742.79,80.00,61.00,52.33,190.00,4.00,0.00,30.04,1016.00,10.00,M,CLR,M,M,M,M,M,M,M,M,M,M,M,M,M,M,81.03,KHND 020656Z AUTO 19004KT 10SM CLR 27/16 A3004 RMK AO2 SLP160 T02670161 403330244,M
TPH,2023-08-02 06:56,-117.0904,38.0505,1654.00,70.00,51.00,50.89,310.00,3.00,0.00,30.22,1015.20,10.00,M,SCT,M,M,M,11000.00,M,M,M,M,M,M,M,M,M,M,70.00,KTPH 020656Z AUTO 31003KT 10SM SCT110 21/11 A3022 RMK AO2 SLP152 T02110106,M
LAS,2023-08-02 06:56,-115.1634,36.0719,663.00,83.00,59.00,44.20,0.00,0.00,0.00,30.00,1013.30,10.00,M,FEW,BKN,OVC,M,11000.00,16000.00,25000.00,M,M,M,M,M,M,M,M,82.94,KLAS 020656Z 00000KT 10SM FEW110 BKN160 OVC250 28/15 A3000 RMK AO2 SLP133 T02830150,M
BAM,2023-08-02 07:10,-116.8743,40.5990,1382.36,77.00,50.00,38.74,80.00,9.00,0.00,30.15,M,10.00,M,SCT,M,M,M,12000.00,M,M,M,M,M,M,M,M,M,M,77.00,KBAM 020710Z AUTO 08009KT 10SM SCT120 25/10 A3015 RMK AO1,M
BVU,2023-08-02 07:15,-114.8611,35.9475,671.00,78.80,64.40,61.36,320.00,4.00,0.00,29.99,M,10.00,M,FEW,M,M,M,12000.00,M,M,M,M,M,M,M,M,M,M,78.80,KBVU 020715Z AUTO 32004KT 10SM FEW120 26/18 A2999 RMK AO2,M
CXP,2023-08-02 07:15,-119.7326,39.1923,1431.00,71.60,42.80,35.37,330.00,6.00,0.00,30.16,M,10.00,M,CLR,M,M,M,M,M,M,M,M,M,M,M,M,M,M,71.60,KCXP 020715Z AUTO 33006KT 10SM CLR 22/06 A3016 RMK AO2,M
RTS,2023-08-02 07:15,-119.8764,39.6682,1539.00,68.00,35.60,30.20,290.00,5.00,0.00,30.19,M,10.00,M,CLR,M,M,M,M,M,M,M,M,M,M,M,M,M,M,68.00,KRTS 020715Z AUTO 29005KT 10SM CLR 20/02 A3019 RMK AO2,M
05U,2023-08-02 07:15,-116.0051,39.6042,1811.23,60.80,53.60,77.14,M,M,0.00,30.28,M,10.00,M,M,M,M,M,M,M,M,M,M,M,M,M,M,M,M,60.80,K05U 020715Z AUTO 10SM 16/12 A3028 RMK A01,M
MEV,2023-08-02 07:15,-119.7500,38.9963,1441.42,64.40,44.60,48.55,90.00,6.00,0.00,30.14,M,10.00,M,BKN,M,M,M,11000.00,M,M,M,M,M,M,M,M,M,M,64.40,KMEV 020715Z AUTO 09006KT 10SM BKN110 18/07 A3014 RMK AO2,M
HTH,2023-08-02 07:15,-118.6315,38.5448,1282.89,75.20,48.20,38.46,180.00,8.00,0.00,30.10,M,10.00,M,FEW,M,M,M,11000.00,M,M,M,M,M,M,M,M,M,M,75.20,KHTH 020715Z AUTO 18008KT 10SM FEW110 24/09 A3010 RMK A01,M
10U,2023-08-02 07:15,-116.1876,41.9532,1637.00,73.40,46.40,38.18,120.00,6.00,0.00,30.20,M,10.00,12.00,FEW,SCT,BKN,M,6000.00,7000.00,9000.00,M,M,M,M,M,M,M,M,73.40,K10U 020715Z AUTO 12006G12KT 10SM FEW060 SCT070 BKN090 23/08 A3020 RMK AO2,M
TMT,2023-08-02 07:15,-117.1971,39.4643,1749.34,63.00,43.50,48.90,130.00,3.00,0.00,30.22,M,M,M,SCT,M,M,M,12000.00,M,M,M,M,M,M,M,M,M,M,63.00,KTMT 020715Z AUTO 13003KT SCT120 17/06 A3022 RMK AO2 LTG DSNT S T01720064 PWINO,M
BAM,2023-08-02 07:30,-116.8743,40.5990,1382.36,75.20,50.00,41.14,80.00,12.00,0.00,30.14,M,10.00,15.00,BKN,M,M,M,11000.00,M,M,M,M,M,M,M,M,M,M,75.20,KBAM 020730Z AUTO 08012G15KT 10SM BKN110 24/10 A3014 RMK AO1,M
BVU,2023-08-02 07:35,-114.8611,35.9475,671.00,78.80,64.40,61.36,0.00,0.00,0.00,29.99,M,10.00,M,CLR,M,M,M,M,M,M,M,M,M,M,M,M,M,M,78.80,KBVU 020735Z AUTO 00000KT 10SM CLR 26/18 A2999 RMK AO2,M
CXP,2023-08-02 07:35,-119.7326,39.1923,1431.00,71.60,42.80,35.37,300.00,7.00,0.00,30.16,M,10.00,12.00,CLR,M,M,M,M,M,M,M,M,M,M,M,M,M,M,71.60,KCXP 020735Z AUTO 30007G12KT 10SM CLR 22/06 A3016 RMK AO2 LTG DSNT SE,M
RTS,2023-08-02 07:35,-119.8764,39.6682,1539.00,66.20,35.60,32.14,300.00,6.00,0.00,30.19,M,10.00,M,SCT,M,M,M,11000.00,M,M,M,M,M,M,M,M,M,M,66.20,KRTS 020735Z AUTO 30006KT 10SM SCT110 19/02 A3019 RMK AO2,M
05U,2023-08-02 07:35,-116.0051,39.6042,1811.23,62.60,51.80,67.75,M,M,0.00,30.28,M,10.00,M,M,M,M,M,M,M,M,M,M,M,M,M,M,M,M,62.60,K05U 020735Z AUTO 10SM 17/11 A3028 RMK A01,M
MEV,2023-08-02 07:35,-119.7500,38.9963,1441.42,62.60,42.80,48.28,210.00,4.00,0.00,30.15,M,10.00,M,BKN,M,M,M,11000.00,M,M,M,M,M,M,M,M,M,M,62.60,KMEV 020735Z AUTO 21004KT 10SM BKN110 17/06 A3015 RMK AO2,M
HTH,2023-08-02 07:35,-118.6315,38.5448,1282.89,73.40,50.00,43.69,150.00,7.00,0.00,30.10,M,10.00,M,CLR,M,M,M,M,M,M,M,M,M,M,M,M,M,M,73.40,KHTH 020735Z AUTO 15007KT 10SM CLR 23/10 A3010 RMK A01,M
10U,2023-08-02 07:35,-116.1876,41.9532,1637.00,73.40,46.40,38.18,130.00,15.00,0.00,30.19,M,10.00,21.00,FEW,SCT,BKN,M,4800.00,6000.00,7000.00,M,M,M,M,M,M,M,M,73.40,K10U 020735Z AUTO 13015G21KT 10SM FEW048 SCT060 BKN070 23/08 A3019 RMK AO2,M
TMT,2023-08-02 07:35,-117.1971,39.4643,1749.34,62.40,43.30,49.56,130.00,7.00,0.00,30.22,M,M,M,BKN,M,M,M,12000.00,M,M,M,M,M,M,M,M,M,M,62.40,KTMT 020735Z AUTO 13007KT BKN120 17/06 A3022 RMK AO2 LTG DSNT S T01690063 PWINO,M
BAM,2023-08-02 07:50,-116.8743,40.5990,1382.36,73.40,50.00,43.69,70.00,15.00,0.00,30.14,M,10.00,21.00,SCT,M,M,M,11000.00,M,M,M,M,M,M,M,M,M,M,73.40,KBAM 020750Z AUTO 07015G21KT 10SM SCT110 23/10 A3014 RMK AO1,M
P68,2023-08-02 07:53,-116.0056,39.6014,1993.00,63.00,53.00,69.82,170.00,4.00,0.00,30.26,1015.90,M,M,M,M,M,M,M,M,M,M,M,M,M,M,M,M,M,63.00,KP68 020753Z AUTO 17004KT 17/12 A3026 RMK AO1 SLP159 T01720117 402830161,M
DRA,2023-08-02 07:53,-116.0278,36.6206,1009.00,79.00,60.00,52.19,110.00,8.00,0.00,30.06,1012.60,10.00,M,FEW,BKN,M,M,10000.00,12000.00,M,M,M,M,M,M,M,M,M,79.00,KDRA 020753Z AUTO 11008KT 10SM FEW100 BKN120 26/16 A3006 RMK AO2 SLP126 T02610156 403330256,M
ELY,2023-08-02 07:53,-114.8453,39.2950,1909.00,57.00,55.00,93.01,0.00,0.00,0.00,30.31,1016.50,8.00,M,OVC,M,M,M,9000.00,M,M,M,M,M,M,M,M,M,M,57.00,KELY 020753Z AUTO 00000KT 8SM OVC090 14/13 A3031 RMK AO2 SLP165 T01390128 402720128 $,M
VGT,2023-08-02 07:53,-115.1933,36.2111,667.00,83.00,66.00,56.57,260.00,3.00,0.00,29.99,1014.50,10.00,M,CLR,M,M,M,M,M,M,M,M,M,M,M,M,M,M,85.17,KVGT 020753Z AUTO 26003KT 10SM CLR 28/19 A2999 RMK AO2 SLP145 T02830189 403560250,M
LOL,2023-08-02 07:53,-118.5701,40.0684,1192.43,72.00,33.00,23.75,0.00,0.00,0.00,30.05,1012.90,10.00,M,CLR,M,M,M,M,M,M,M,M,M,M,M,M,M,M,72.00,KLOL 020753Z AUTO 00000KT 10SM CLR 22/01 A3005 RMK AO2 SLP129 T02220006 403440133,M
BVU,2023-08-02 07:55,-114.8611,35.9475,671.00,78.80,64.40,61.36,0.00,0.00,0.00,29.99,M,10.00,M,CLR,M,M,M,M,M,M,M,M,M,M,M,M,M,M,78.80,KBVU 020755Z AUTO 00000KT 10SM CLR 26/18 A2999 RMK AO2 LTG DSNT N AND SW,M
CXP,2023-08-02 07:55,-119.7326,39.1923,1431.00,73.40,41.00,31.05,340.00,9.00,0.00,30.16,M,10.00,M,CLR,M,M,M,M,M,M,M,M,M,M,M,M,M,M,73.40,KCXP 020755Z AUTO 34009KT 10SM CLR 23/05 A3016 RMK AO2,M
INS,2023-08-02 07:55,-115.6733,36.5872,955.00,76.00,61.00,59.72,0.00,0.00,0.00,30.06,1013.30,10.00,M,OVC,M,M,M,11000.00,M,M,M,M,M,M,M,M,M,M,76.00,KINS 020755Z AUTO 00000KT 10SM OVC110 24/16 A3006 RMK AO2 SLP133 T02440161 403180223 $,M
RNO,2023-08-02 07:55,-119.7711,39.4839,1341.00,73.00,42.00,32.71,300.00,3.00,0.00,30.14,1014.20,10.00,M,FEW,SCT,M,M,15000.00,21000.00,M,M,M,M,M,M,M,M,M,73.00,KRNO 020755Z 30003KT 10SM FEW150 SCT210 23/06 A3014 RMK AO2 SLP142 T02280056 403500178,M
RTS,2023-08-02 07:55,-119.8764,39.6682,1539.00,66.20,35.60,32.14,300.00,5.00,0.00,30.19,M,10.00,M,SCT,M,M,M,11000.00,M,M,M,M,M,M,M,M,M,M,66.20,KRTS 020755Z AUTO 30005KT 10SM SCT110 19/02 A3019 RMK AO2,M
05U,2023-08-02 07:55,-116.0051,39.6042,1811.23,62.60,53.60,72.38,M,M,0.00,30.28,M,10.00,M,M,M,M,M,M,M,M,M,M,M,M,M,M,M,M,62.60,K05U 020755Z AUTO 10SM 17/12 A3028 RMK A01,M
MEV,2023-08-02 07:55,-119.7500,38.9963,1441.42,59.00,46.40,62.92,160.00,6.00,0.00,30.15,M,10.00,M,BKN,M,M,M,11000.00,M,M,M,M,M,M,M,M,M,M,59.00,KMEV 020755Z AUTO 16006KT 10SM BKN110 15/08 A3015 RMK AO2,M
HTH,2023-08-02 07:55,-118.6315,38.5448,1282.89,71.60,48.20,43.42,130.00,10.00,0.00,30.10,M,10.00,M,SCT,M,M,M,12000.00,M,M,M,M,M,M,M,M,M,M,71.60,KHTH 020755Z AUTO 13010KT 10SM SCT120 22/09 A3010 RMK A01,M
TMT,2023-08-02 07:55,-117.1971,39.4643,1749.34,63.70,43.70,48.08,130.00,5.00,0.00,30.22,M,M,M,SCT,M,M,M,12000.00,M,M,M,M,M,M,M,M,M,M,63.70,KTMT 020755Z AUTO 13005KT SCT120 18/07 A3022 RMK AO2 LTG DSNT S T01760065 PWINO,M
10U,2023-08-02 07:55,-116.1876,41.9532,1637.00,71.60,46.40,40.57,120.00,13.00,0.00,30.18,M,10.00,M,FEW,FEW,OVC,M,4000.00,4900.00,6500.00,M,M,M,M,M,M,M,M,71.60,K10U 020755Z AUTO 12013KT 10SM FEW040 FEW049 OVC065 22/08 A3018 RMK AO2,M
LSV,2023-08-02 07:55,-115.0343,36.2362,570.00,81.00,61.00,50.65,0.00,0.00,0.00,29.95,1011.60,10.00,M,SCT,M,M,M,16000.00,M,M,M,M,M,M,M,M,M,M,81.81,KLSV 020755Z AUTO 00000KT 10SM SCT160 27/16 A2995 RMK AO2 SLP116 T02730162 403520255 $,M
EKO,2023-08-02 07:56,-115.7860,40.8242,1367.00,68.00,53.00,58.67,40.00,7.00,0.00,30.22,1017.20,10.00,M,CLR,M,M,M,M,M,M,M,M,M,M,M,M,M,M,68.00,KEKO 020756Z AUTO 04007KT 10SM CLR 20/12 A3022 RMK AO2 SLP172 T02000117 403000172,M
WMC,2023-08-02 07:56,-117.8072,40.9019,1315.00,69.00,38.00,32.08,0.00,0.00,0.00,30.08,1012.90,10.00,M,CLR,M,M,M,M,M,M,M,M,M,M,M,M,M,M,69.00,KWMC 020756Z AUTO 00000KT 10SM CLR 21/03 A3008 RMK AO2 SLP129 T02060033 403390106,M
NFL,2023-08-02 07:56,-118.7010,39.4166,1199.00,72.00,40.00,31.32,250.00,3.00,0.00,30.05,1014.50,10.00,M,CLR,M,M,M,M,M,M,M,M,M,M,M,M,M,M,72.00,KNFL 020756Z AUTO 25003KT 10SM CLR 22/04 A3005 RMK AO2 SLP145 T02220044 403440133,M
HND,2023-08-02 07:56,-115.1344,35.9729,742.79,80.00,60.00,50.51,0.00,0.00,0.00,30.03,1015.80,10.00,M,BKN,M,M,M,12000.00,M,M,M,M,M,M,M,M,M,M,80.85,KHND 020756Z AUTO 00000KT 10SM BKN120 27/16 A3003 RMK AO2 SLP158 T02670156,M
TPH,2023-08-02 07:56,-117.0904,38.0505,1654.00,69.00,51.00,52.66,200.00,4.00,0.00,30.22,1014.90,10.00,M,FEW,M,M,M,10000.00,M,M,M,M,M,M,M,M,M,M,69.00,KTPH 020756Z AUTO 20004KT 10SM FEW100 21/11 A3022 RMK AO2 SLP149 T02060106 402940206,M
LAS,2023-08-02 07:56,-115.1634,36.0719,663.00,82.00,60.00,47.32,0.00,0.00,0.00,30.00,1013.10,10.00,M,SCT,BKN,OVC,M,12000.00,16000.00,25000.00,M,M,M,M,M,M,M,M,82.38,KLAS 020756Z 00000KT 10SM SCT120 BKN160 OVC250 28/16 A3000 RMK AO2 SLP131 T02780156 403440239,M
BAM,2023-08-02 08:10,-116.8743,40.5990,1382.36,73.40,51.80,46.71,60.00,12.00,0.00,30.14,M,10.00,18.00,BKN,M,M,M,11000.00,M,M,M,M,M,M,M,M,M,M,73.40,KBAM 020810Z AUTO 06012G18KT 10SM BKN110 23/11 A3014 RMK AO1,M
BVU,2023-08-02 08:15,-114.8611,35.9475,671.00,78.80,64.40,61.36,0.00,0.00,0.00,29.99,M,10.00,M,CLR,M,M,M,M,M,M,M,M,M,M,M,M,M,M,78.80,KBVU 020815Z AUTO 00000KT 10SM CLR 26/18 A2999 RMK AO2,M
CXP,2023-08-02 08:15,-119.7326,39.1923,1431.00,69.80,44.60,40.29,0.00,0.00,0.00,30.16,M,10.00,M,CLR,M,M,M,M,M,M,M,M,M,M,M,M,M,M,69.80,KCXP 020815Z AUTO 00000KT 10SM CLR 21/07 A3016 RMK AO2,M
RTS,2023-08-02 08:15,-119.8764,39.6682,1539.00,66.20,35.60,32.14,300.00,4.00,0.00,30.19,M,10.00,M,CLR,M,M,M,M,M,M,M,M,M,M,M,M,M,M,66.20,KRTS 020815Z AUTO 30004KT 10SM CLR 19/02 A3019 RMK AO2,M
05U,2023-08-02 08:15,-116.0051,39.6042,1811.23,60.80,53.60,77.14,M,M,0.00,30.29,M,10.00,M,M,M,M,M,M,M,M,M,M,M,M,M,M,M,M,60.80,K05U 020815Z AUTO 10SM 16/12 A3029 RMK A01,M
MEV,2023-08-02 08:15,-119.7500,38.9963,1441.42,59.00,44.60,58.77,120.00,4.00,0.00,30.15,M,10.00,M,CLR,M,M,M,M,M,M,M,M,M,M,M,M,M,M,59.00,KMEV 020815Z AUTO 12004KT 10SM CLR 15/07 A3015 RMK AO2,M
HTH,2023-08-02 08:15,-118.6315,38.5448,1282.89,71.60,48.20,43.42,130.00,11.00,0.00,30.10,M,10.00,M,BKN,M,M,M,12000.00,M,M,M,M,M,M,M,M,M,M,71.60,KHTH 020815Z AUTO 13011KT 10SM BKN120 22/09 A3010 RMK A01,M
10U,2023-08-02 08:15,-116.1876,41.9532,1637.00,71.60,46.40,40.57,140.00,9.00,0.00,30.18,M,10.00,M,FEW,BKN,BKN,M,5500.00,6500.00,7500.00,M,M,M,M,M,M,M,M,71.60,K10U 020815Z AUTO 14009KT 10SM FEW055 BKN065 BKN075 22/08 A3018 RMK AO2,M
TMT,2023-08-02 08:15,-117.1971,39.4643,1749.34,64.80,44.00,46.80,0.00,0.00,0.00,30.22,M,M,M,BKN,M,M,M,12000.00,M,M,M,M,M,M,M,M,M,M,64.80,KTMT 020815Z AUTO 00000KT BKN120 18/07 A3022 RMK AO2 T01820067 PWINO,M
05U,2023-08-02 08:30,-116.0051,39.6042,1811.23,60.80,53.60,77.14,M,M,0.00,30.29,M,10.00,M,M,M,M,M,M,M,M,M,M,M,M,M,M,M,M,60.80,K05U 020830Z AUTO 10SM 16/12 A3029 RMK A01,M
BAM,2023-08-02 08:30,-116.8743,40.5990,1382.36,73.40,51.80,46.71,60.00,14.00,0.00,30.14,M,10.00,M,OVC,M,M,M,11000.00,M,M,M,M,M,M,M,M,M,M,73.40,KBAM 020830Z AUTO 06014KT 10SM OVC110 23/11 A3014 RMK AO1,M
BVU,2023-08-02 08:35,-114.8611,35.9475,671.00,78.80,64.40,61.36,0.00,0.00,0.00,29.99,M,10.00,M,FEW,M,M,M,12000.00,M,M,M,M,M,M,M,M,M,M,78.80,KBVU 020835Z AUTO 00000KT 10SM FEW120 26/18 A2999 RMK AO2,M
CXP,2023-08-02 08:35,-119.7326,39.1923,1431.00,68.00,42.80,40.00,0.00,0.00,0.00,30.16,M,10.00,M,CLR,M,M,M,M,M,M,M,M,M,M,M,M,M,M,68.00,KCXP 020835Z AUTO 00000KT 10SM CLR 20/06 A3016 RMK AO2,M
RTS,2023-08-02 08:35,-119.8764,39.6682,1539.00,64.40,35.60,34.22,310.00,4.00,0.00,30.19,M,10.00,M,FEW,M,M,M,10000.00,M,M,M,M,M,M,M,M,M,M,64.40,KRTS 020835Z AUTO 31004KT 10SM FEW100 18/02 A3019 RMK AO2,M
MEV,2023-08-02 08:35,-119.7500,38.9963,1441.42,59.00,42.80,54.86,140.00,3.00,0.00,30.15,M,10.00,M,FEW,M,M,M,5000.00,M,M,M,M,M,M,M,M,M,M,59.00,KMEV 020835Z AUTO 14003KT 10SM FEW050 15/06 A3015 RMK AO2,M
HTH,2023-08-02 08:35,-118.6315,38.5448,1282.89,75.20,46.40,35.94,160.00,11.00,0.00,30.10,M,10.00,M,FEW,M,M,M,12000.00,M,M,M,M,M,M,M,M,M,M,75.20,KHTH 020835Z AUTO 16011KT 10SM FEW120 24/08 A3010 RMK A01,M
10U,2023-08-02 08:35,-116.1876,41.9532,1637.00,71.60,48.20,43.42,140.00,13.00,0.00,30.19,M,10.00,M,FEW,BKN,M,M,7500.00,12000.00,M,M,M,M,M,M,M,M,M,71.60,K10U 020835Z AUTO 14013KT 10SM FEW075 BKN120 22/09 A3019 RMK AO2,M
TMT,2023-08-02 08:35,-117.1971,39.4643,1749.34,65.50,44.00,45.67,290.00,5.00,0.00,30.21,M,M,M,SCT,BKN,M,M,9000.00,12000.00,M,M,M,M,M,M,M,M,M,65.50,KTMT 020835Z AUTO 29005KT SCT090 BKN120 19/07 A3021 RMK AO2 LTG DSNT S T01860066 PWINO,M
BAM,2023-08-02 08:50,-116.8743,40.5990,1382.36,73.40,51.80,46.71,70.00,10.00,0.00,30.15,M,10.00,M,OVC,M,M,M,11000.00,M,M,M,M,M,M,M,M,M,M,73.40,KBAM 020850Z AUTO 07010KT 10SM OVC110 23/11 A3015 RMK AO1,M
P68,2023-08-02 08:53,-116.0056,39.6014,1993.00,62.00,54.00,75.02,120.00,5.00,0.00,30.26,1016.10,M,M,M,M,M,M,M,M,M,M,M,M,M,M,M,M,M,62.00,KP68 020853Z AUTO 12005KT 17/12 A3026 RMK AO1 SLP161 T01670122 50003,M
DRA,2023-08-02 08:53,-116.0278,36.6206,1009.00,78.00,60.00,53.94,110.00,6.00,0.00,30.05,1012.40,10.00,M,SCT,BKN,M,M,10000.00,12000.00,M,M,M,M,M,M,M,M,M,78.00,KDRA 020853Z AUTO 11006KT 10SM SCT100 BKN120 26/16 A3005 RMK AO2 SLP124 T02560156 58003,M
ELY,2023-08-02 08:53,-114.8453,39.2950,1909.00,57.00,56.00,96.45,0.00,0.00,0.00,30.30,1016.50,6.00,M,OVC,M,M,M,10000.00,M,M,M,BR,M,M,M,M,M,M,57.00,KELY 020853Z AUTO 00000KT 6SM BR OVC100 14/13 A3030 RMK AO2 SLP165 T01390133 58000 $,M
VGT,2023-08-02 08:53,-115.1933,36.2111,667.00,82.00,68.00,62.62,0.00,0.00,0.00,29.98,1014.10,10.00,M,CLR,M,M,M,M,M,M,M,M,M,M,M,M,M,M,84.92,KVGT 020853Z AUTO 00000KT 10SM CLR 28/20 A2998 RMK AO2 SLP141 T02780200 58006,M
LOL,2023-08-02 08:53,-118.5701,40.0684,1192.43,63.00,34.00,33.72,0.00,0.00,0.00,30.05,1013.30,10.00,M,CLR,M,M,M,M,M,M,M,M,M,M,M,M,M,M,63.00,KLOL 020853Z AUTO 00000KT 10SM CLR 17/01 A3005 RMK AO2 SLP133 T01720011 50002,M
BVU,2023-08-02 08:55,-114.8611,35.9475,671.00,78.80,64.40,61.36,0.00,0.00,0.00,29.99,M,10.00,M,BKN,M,M,M,12000.00,M,M,M,M,M,M,M,M,M,M,78.80,KBVU 020855Z AUTO 00000KT 10SM BKN120 26/18 A2999 RMK AO2,M
CXP,2023-08-02 08:55,-119.7326,39.1923,1431.00,66.20,42.80,42.57,100.00,4.00,0.00,30.16,M,10.00,M,CLR,M,M,M,M,M,M,M,M,M,M,M,M,M,M,66.20,KCXP 020855Z AUTO 10004KT 10SM CLR 19/06 A3016 RMK AO2,M
INS,2023-08-02 08:55,-115.6733,36.5872,955.00,75.40,61.00,60.93,0.00,0.00,0.00,30.04,1012.70,10.00,M,BKN,OVC,M,M,11000.00,14000.00,M,M,M,M,M,M,M,M,M,75.40,KINS 020855Z AUTO 00000KT 10SM BKN110 OVC140 24/16 A3004 RMK AO2 SLP127 T02410161 57007 $,M
RNO,2023-08-02 08:55,-119.7711,39.4839,1341.00,72.00,42.00,33.84,0.00,0.00,0.00,30.14,1014.10,10.00,M,SCT,BKN,M,M,11000.00,18000.00,M,M,M,M,M,M,M,M,M,72.00,KRNO 020855Z 00000KT 10SM SCT110 BKN180 22/06 A3014 RMK AO2 SLP141 T02220056 51000,M
LSV,2023-08-02 08:55,-115.0343,36.2362,570.00,80.80,62.60,53.95,60.00,4.00,0.00,29.95,1011.70,10.00,M,BKN,M,M,M,13000.00,M,M,M,M,M,M,M,M,M,M,82.01,KLSV 020855Z AUTO 06004KT 10SM BKN130 27/17 A2995 RMK AO2 SLP117 T02710170 57006 $,M
RTS,2023-08-02 08:55,-119.8764,39.6682,1539.00,64.40,35.60,34.22,310.00,5.00,0.00,30.19,M,10.00,M,CLR,M,M,M,M,M,M,M,M,M,M,M,M,M,M,64.40,KRTS 020855Z AUTO 31005KT 10SM CLR 18/02 A3019 RMK AO2,M
05U,2023-08-02 08:55,-116.0051,39.6042,1811.23,60.80,53.60,77.14,M,M,0.00,30.28,M,10.00,M,M,M,M,M,M,M,M,M,M,M,M,M,M,M,M,60.80,K05U 020855Z AUTO 10SM 16/12 A3028 RMK A01,M
MEV,2023-08-02 08:55,-119.7500,38.9963,1441.42,57.20,42.80,58.52,0.00,0.00,0.00,30.15,M,10.00,M,FEW,M,M,M,5000.00,M,M,M,M,M,M,M,M,M,M,57.20,KMEV 020855Z AUTO 00000KT 10SM FEW050 14/06 A3015 RMK AO2,M
HTH,2023-08-02 08:55,-118.6315,38.5448,1282.89,75.20,46.40,35.94,150.00,10.00,0.00,30.10,M,10.00,M,CLR,M,M,M,M,M,M,M,M,M,M,M,M,M,M,75.20,KHTH 020855Z AUTO 15010KT 10SM CLR 24/08 A3010 RMK A01,M
TMT,2023-08-02 08:55,-117.1971,39.4643,1749.34,65.00,44.60,47.55,0.00,0.00,0.00,30.21,M,M,M,OVC,M,M,M,11000.00,M,M,M,M,M,M,M,M,M,M,65.00,KTMT 020855Z AUTO 00000KT OVC110 18/07 A3021 RMK AO2 LTG DSNT S T01830070 PWINO,M
10U,2023-08-02 08:55,-116.1876,41.9532,1637.00,69.80,48.20,46.16,150.00,11.00,0.00,30.19,M,10.00,M,BKN,M,M,M,12000.00,M,M,M,M,M,M,M,M,M,M,69.80,K10U 020855Z AUTO 15011KT 10SM BKN120 21/09 A3019 RMK AO2,M
EKO,2023-08-02 08:56,-115.7860,40.8242,1367.00,67.00,53.00,60.73,70.00,8.00,0.00,30.21,1017.00,10.00,M,OVC,M,M,M,10000.00,M,M,M,M,M,M,M,M,M,M,67.00,KEKO 020856Z AUTO 07008KT 10SM OVC100 19/12 A3021 RMK AO2 SLP170 T01940117 58000,M
WMC,2023-08-02 08:56,-117.8072,40.9019,1315.00,69.00,36.00,29.65,180.00,5.00,0.00,30.08,1012.80,10.00,M,FEW,M,M,M,12000.00,M,M,M,M,M,M,M,M,M,M,69.00,KWMC 020856Z AUTO 18005KT 10SM FEW120 21/02 A3008 RMK AO2 SLP128 T02060022 50000,M
NFL,2023-08-02 08:56,-118.7010,39.4166,1199.00,71.00,40.00,32.40,230.00,3.00,0.00,30.06,1014.80,10.00,M,CLR,M,M,M,M,M,M,M,M,M,M,M,M,M,M,71.00,KNFL 020856Z AUTO 23003KT 10SM CLR 22/04 A3006 RMK AO2 SLP148 T02170044 53003,M
HND,2023-08-02 08:56,-115.1344,35.9729,742.79,81.00,61.00,50.65,220.00,5.00,0.00,30.03,1015.50,10.00,M,BKN,M,M,M,12000.00,M,M,M,M,M,M,M,M,M,M,81.81,KHND 020856Z AUTO 22005KT 10SM BKN120 27/16 A3003 RMK AO2 SLP155 T02720161 56005,M
TPH,2023-08-02 08:56,-117.0904,38.0505,1654.00,68.00,52.00,56.55,210.00,3.00,0.00,30.21,1014.90,10.00,M,BKN,M,M,M,11000.00,M,M,M,M,M,M,M,M,M,M,68.00,KTPH 020856Z AUTO 21003KT 10SM BKN110 20/11 A3021 RMK AO2 SLP149 T02000111 58004,M
LAS,2023-08-02 08:56,-115.1634,36.0719,663.00,82.00,61.00,49.03,0.00,0.00,0.00,29.99,1012.70,10.00,M,SCT,OVC,M,M,12000.00,16000.00,M,M,M,M,M,M,M,M,M,82.62,KLAS 020856Z 00000KT 10SM SCT120 OVC160 28/16 A2999 RMK AO2 SLP127 T02780161 58006,M
BAM,2023-08-02 09:10,-116.8743,40.5990,1382.36,73.40,51.80,46.71,60.00,15.00,0.00,30.14,M,10.00,18.00,OVC,M,M,M,11000.00,M,M,M,M,M,M,M,M,M,M,73.40,KBAM 020910Z AUTO 06015G18KT 10SM OVC110 23/11 A3014 RMK AO1,M
BVU,2023-08-02 09:15,-114.8611,35.9475,671.00,77.00,64.40,65.12,0.00,0.00,0.00,29.99,M,10.00,M,SCT,M,M,M,12000.00,M,M,M,M,M,M,M,M,M,M,77.00,KBVU 020915Z AUTO 00000KT 10SM SCT120 25/18 A2999 RMK AO2,M
CXP,2023-08-02 09:15,-119.7326,39.1923,1431.00,66.20,42.80,42.57,100.00,3.00,0.00,30.16,M,10.00,M,CLR,M,M,M,M,M,M,M,M,M,M,M,M,M,M,66.20,KCXP 020915Z AUTO 10003KT 10SM CLR 19/06 A3016 RMK AO2,M
RTS,2023-08-02 09:15,-119.8764,39.6682,1539.00,62.60,35.60,36.45,330.00,5.00,0.00,30.18,M,10.00,M,FEW,M,M,M,10000.00,M,M,M,M,M,M,M,M,M,M,62.60,KRTS 020915Z AUTO 33005KT 10SM FEW100 17/02 A3018 RMK AO2,M
05U,2023-08-02 09:15,-116.0051,39.6042,1811.23,62.60,53.60,72.38,M,M,0.00,30.28,M,10.00,M,M,M,M,M,M,M,M,M,M,M,M,M,M,M,M,62.60,K05U 020915Z AUTO 10SM 17/12 A3028 RMK A01,M
MEV,2023-08-02 09:15,-119.7500,38.9963,1441.42,57.20,42.80,58.52,0.00,0.00,0.00,30.15,M,10.00,M,FEW,M,M,M,4800.00,M,M,M,M,M,M,M,M,M,M,57.20,KMEV 020915Z AUTO 00000KT 10SM FEW048 14/06 A3015 RMK AO2,M
HTH,2023-08-02 09:15,-118.6315,38.5448,1282.89,73.40,46.40,38.18,130.00,10.00,0.00,30.09,M,10.00,M,CLR,M,M,M,M,M,M,M,M,M,M,M,M,M,M,73.40,KHTH 020915Z AUTO 13010KT 10SM CLR 23/08 A3009 RMK A01,M
10U,2023-08-02 09:15,-116.1876,41.9532,1637.00,69.80,48.20,46.16,140.00,13.00,0.00,30.18,M,10.00,20.00,OVC,M,M,M,11000.00,M,M,M,M,M,M,M,M,M,M,69.80,K10U 020915Z AUTO 14013G20KT 10SM OVC110 21/09 A3018 RMK AO2,M
TMT,2023-08-02 09:15,-117.1971,39.4643,1749.34,64.80,44.40,47.52,0.00,0.00,0.00,30.21,M,M,M,OVC,M,M,M,11000.00,M,M,M,M,M,M,M,M,M,M,64.80,KTMT 020915Z AUTO 00000KT OVC110 18/07 A3021 RMK AO2 LTG DSNT S T01820069 PWINO,M
HTH,2023-08-02 09:30,-118.6315,38.5448,1282.89,73.40,44.60,35.66,180.00,9.00,0.00,30.08,M,10.00,M,CLR,M,M,M,M,M,M,M,M,M,M,M,M,M,M,73.40,KHTH 020930Z AUTO 18009KT 10SM CLR 23/07 A3008 RMK A01,M
BAM,2023-08-02 09:30,-116.8743,40.5990,1382.36,71.60,51.80,49.64,60.00,12.00,0.00,30.14,M,10.00,18.00,OVC,M,M,M,11000.00,M,M,M,M,M,M,M,M,M,M,71.60,KBAM 020930Z AUTO 06012G18KT 10SM OVC110 22/11 A3014 RMK AO1,M
BVU,2023-08-02 09:35,-114.8611,35.9475,671.00,77.00,66.20,69.33,10.00,3.00,0.00,29.98,M,10.00,M,BKN,M,M,M,11000.00,M,M,M,M,M,M,M,M,M,M,77.00,KBVU 020935Z AUTO 01003KT 10SM BKN110 25/19 A2998 RMK AO2,M
CXP,2023-08-02 09:35,-119.7326,39.1923,1431.00,66.20,42.80,42.57,0.00,0.00,0.00,30.16,M,10.00,M,CLR,M,M,M,M,M,M,M,M,M,M,M,M,M,M,66.20,KCXP 020935Z AUTO 00000KT 10SM CLR 19/06 A3016 RMK AO2,M
RTS,2023-08-02 09:35,-119.8764,39.6682,1539.00,64.40,35.60,34.22,290.00,4.00,0.00,30.18,M,10.00,M,CLR,M,M,M,M,M,M,M,M,M,M,M,M,M,M,64.40,KRTS 020935Z AUTO 29004KT 10SM CLR 18/02 A3018 RMK AO2,M
05U,2023-08-02 09:35,-116.0051,39.6042,1811.23,60.80,53.60,77.14,M,M,0.00,30.28,M,10.00,M,M,M,M,M,M,M,M,M,M,M,M,M,M,M,M,60.80,K05U 020935Z AUTO 10SM 16/12 A3028 RMK A01,M
MEV,2023-08-02 09:35,-119.7500,38.9963,1441.42,59.00,44.60,58.77,0.00,0.00,0.00,30.15,M,10.00,M,FEW,M,M,M,4600.00,M,M,M,M,M,M,M,M,M,M,59.00,KMEV 020935Z AUTO 00000KT 10SM FEW046 15/07 A3015 RMK AO2,M
10U,2023-08-02 09:35,-116.1876,41.9532,1637.00,69.80,48.20,46.16,140.00,15.00,0.00,30.17,M,10.00,20.00,BKN,OVC,M,M,10000.00,12000.00,M,M,M,M,M,M,M,M,M,69.80,K10U 020935Z AUTO 14015G20KT 10SM BKN100 OVC120 21/09 A3017 RMK AO2,M
TMT,2023-08-02 09:35,-117.1971,39.4643,1749.34,62.20,44.00,51.27,110.00,3.00,0.00,30.21,M,M,M,OVC,M,M,M,11000.00,M,M,M,M,M,M,M,M,M,M,62.20,KTMT 020935Z AUTO 11003KT OVC110 17/07 A3021 RMK AO2 T01680067 PWINO,M
BAM,2023-08-02 09:50,-116.8743,40.5990,1382.36,71.60,51.80,49.64,70.00,11.00,0.00,30.14,M,10.00,M,OVC,M,M,M,11000.00,M,M,M,M,M,M,M,M,M,M,71.60,KBAM 020950Z AUTO 07011KT 10SM OVC110 22/11 A3014 RMK AO1,M
P68,2023-08-02 09:53,-116.0056,39.6014,1993.00,60.00,55.00,83.53,160.00,4.00,0.00,30.25,1016.40,M,M,M,M,M,M,M,M,M,M,M,M,M,M,M,M,M,60.00,KP68 020953Z AUTO 16004KT 16/13 A3025 RMK AO1 SLP164 T01560128,M
DRA,2023-08-02 09:53,-116.0278,36.6206,1009.00,77.00,60.00,55.75,320.00,4.00,0.00,30.05,1012.40,10.00,M,FEW,BKN,M,M,10000.00,11000.00,M,M,M,M,M,M,M,M,M,77.00,KDRA 020953Z AUTO 32004KT 10SM FEW100 BKN110 25/16 A3005 RMK AO2 SLP124 T02500156,M
ELY,2023-08-02 09:53,-114.8453,39.2950,1909.00,57.00,55.00,93.01,300.00,5.00,0.00,30.28,1015.90,7.00,M,OVC,M,M,M,10000.00,M,M,M,M,M,M,M,M,M,M,57.00,KELY 020953Z AUTO 30005KT 7SM OVC100 14/13 A3028 RMK AO2 SLP159 T01390128 $,M
VGT,2023-08-02 09:53,-115.1933,36.2111,667.00,83.00,68.00,60.62,0.00,0.00,0.00,29.98,1014.10,10.00,M,OVC,M,M,M,10000.00,M,M,M,M,M,M,M,M,M,M,86.06,KVGT 020953Z AUTO 00000KT 10SM OVC100 28/20 A2998 RMK AO2 SLP141 T02830200,M
LOL,2023-08-02 09:53,-118.5701,40.0684,1192.43,69.00,36.00,29.65,20.00,7.00,0.00,30.04,1012.50,10.00,M,CLR,M,M,M,M,M,M,M,M,M,M,M,M,M,M,69.00,KLOL 020953Z AUTO 02007KT 10SM CLR 21/02 A3004 RMK AO2 SLP125 T02060022,M
BVU,2023-08-02 09:55,-114.8611,35.9475,671.00,77.00,66.20,69.33,310.00,5.00,0.00,29.98,M,10.00,M,OVC,M,M,M,10000.00,M,M,M,M,M,M,M,M,M,M,77.00,KBVU 020955Z AUTO 31005KT 10SM OVC100 25/19 A2998 RMK AO2,M
CXP,2023-08-02 09:55,-119.7326,39.1923,1431.00,66.20,42.80,42.57,320.00,6.00,0.00,30.15,M,10.00,M,CLR,M,M,M,M,M,M,M,M,M,M,M,M,M,M,66.20,KCXP 020955Z AUTO 32006KT 10SM CLR 19/06 A3015 RMK AO2,M
INS,2023-08-02 09:55,-115.6733,36.5872,955.00,76.00,61.00,59.72,0.00,0.00,0.00,30.04,1012.50,10.00,M,OVC,M,M,M,11000.00,M,M,M,VCTS,M,M,M,M,M,M,76.00,KINS 020955Z AUTO 00000KT 10SM VCTS OVC110 25/16 A3004 RMK AO2 SLP125 T02450162 $,M
RNO,2023-08-02 09:55,-119.7711,39.4839,1341.00,70.00,42.00,36.22,230.00,3.00,0.00,30.13,1013.90,10.00,M,FEW,BKN,M,M,11000.00,18000.00,M,M,M,M,M,M,M,M,M,70.00,KRNO 020955Z 23003KT 10SM FEW110 BKN180 21/06 A3013 RMK AO2 SLP139 T02110056,M
LSV,2023-08-02 09:55,-115.0343,36.2362,570.00,80.20,62.60,55.02,0.00,0.00,0.00,29.94,1011.40,10.00,M,BKN,M,M,M,12000.00,M,M,M,M,M,M,M,M,M,M,81.50,KLSV 020955Z AUTO 00000KT 10SM BKN120 27/17 A2994 RMK AO2 SLP114 T02680170 $,M
RTS,2023-08-02 09:55,-119.8764,39.6682,1539.00,64.40,35.60,34.22,300.00,4.00,0.00,30.18,M,10.00,M,SCT,M,M,M,10000.00,M,M,M,M,M,M,M,M,M,M,64.40,KRTS 020955Z AUTO 30004KT 10SM SCT100 18/02 A3018 RMK AO2,M
05U,2023-08-02 09:55,-116.0051,39.6042,1811.23,60.80,55.40,82.37,M,M,0.00,30.28,M,8.00,M,M,M,M,M,M,M,M,M,M,M,M,M,M,M,M,60.80,K05U 020955Z AUTO 8SM 16/13 A3028 RMK A01,M
MEV,2023-08-02 09:55,-119.7500,38.9963,1441.42,57.20,44.60,62.69,0.00,0.00,0.00,30.14,M,10.00,M,CLR,M,M,M,M,M,M,M,M,M,M,M,M,M,M,57.20,KMEV 020955Z AUTO 00000KT 10SM CLR 14/07 A3014 RMK AO2,M
HTH,2023-08-02 09:55,-118.6315,38.5448,1282.89,71.60,42.80,35.37,0.00,0.00,0.00,30.08,M,10.00,M,CLR,M,M,M,M,M,M,M,M,M,M,M,M,M,M,71.60,KHTH 020955Z AUTO 00000KT 10SM CLR 22/06 A3008 RMK A01,M
TMT,2023-08-02 09:55,-117.1971,39.4643,1749.34,63.50,43.50,48.05,160.00,4.00,0.00,30.21,M,M,M,OVC,M,M,M,11000.00,M,M,M,M,M,M,M,M,M,M,63.50,KTMT 020955Z AUTO 16004KT OVC110 18/06 A3021 RMK AO2 LTG DSNT S T01750064 PWINO,M
10U,2023-08-02 09:55,-116.1876,41.9532,1637.00,69.80,48.20,46.16,130.00,13.00,0.00,30.17,M,10.00,18.00,FEW,BKN,M,M,9500.00,12000.00,M,M,M,M,M,M,M,M,M,69.80,K10U 020955Z AUTO 13013G18KT 10SM FEW095 BKN120 21/09 A3017 RMK AO2,M
EKO,2023-08-02 09:56,-115.7860,40.8242,1367.00,66.00,52.00,60.60,90.00,3.00,0.00,30.20,1016.40,10.00,M,FEW,M,M,M,10000.00,M,M,M,M,M,M,M,M,M,M,66.00,KEKO 020956Z AUTO 09003KT 10SM FEW100 19/11 A3020 RMK AO2 SLP164 T01890111,M
WMC,2023-08-02 09:56,-117.8072,40.9019,1315.00,72.00,38.00,28.96,100.00,7.00,0.00,30.07,1012.30,10.00,M,SCT,M,M,M,11000.00,M,M,M,M,M,M,M,M,M,M,72.00,KWMC 020956Z AUTO 10007KT 10SM SCT110 22/03 A3007 RMK AO2 SLP123 T02220033,M
NFL,2023-08-02 09:56,-118.7010,39.4166,1199.00,68.00,40.00,35.90,210.00,5.00,0.00,30.05,1014.60,10.00,M,CLR,M,M,M,M,M,M,M,M,M,M,M,M,M,M,68.00,KNFL 020956Z AUTO 21005KT 10SM CLR 20/04 A3005 RMK AO2 SLP146 T02000044,M
HND,2023-08-02 09:56,-115.1344,35.9729,742.79,80.00,61.00,52.33,190.00,4.00,0.00,30.02,1015.30,10.00,M,OVC,M,M,M,10000.00,M,M,M,M,M,M,M,M,M,M,81.03,KHND 020956Z AUTO 19004KT 10SM OVC100 27/16 A3002 RMK AO2 SLP153 T02670161,M
TPH,2023-08-02 09:56,-117.0904,38.0505,1654.00,68.00,54.00,60.86,200.00,5.00,T,30.20,1014.30,10.00,M,OVC,M,M,M,10000.00,M,M,M,-RA,M,M,M,M,M,M,68.00,KTPH 020956Z AUTO 20005KT 10SM -RA OVC100 20/12 A3020 RMK AO2 RAB33 SLP143 P0000 T02000122,M
LAS,2023-08-02 09:56,-115.1634,36.0719,663.00,82.00,60.00,47.32,0.00,0.00,0.00,29.98,1012.60,10.00,M,BKN,OVC,M,M,11000.00,14000.00,M,M,M,M,M,M,M,M,M,82.38,KLAS 020956Z 00000KT 10SM BKN110 OVC140 28/16 A2998 RMK AO2 SLP126 T02780156,M
BAM,2023-08-02 10:10,-116.8743,40.5990,1382.36,71.60,53.60,53.03,70.00,12.00,0.00,30.13,M,10.00,M,OVC,M,M,M,12000.00,M,M,M,M,M,M,M,M,M,M,71.60,KBAM 021010Z AUTO 07012KT 10SM OVC120 22/12 A3013 RMK AO1,M
BVU,2023-08-02 10:15,-114.8611,35.9475,671.00,78.80,64.40,61.36,0.00,0.00,0.00,29.98,M,10.00,M,OVC,M,M,M,11000.00,M,M,M,M,M,M,M,M,M,M,78.80,KBVU 021015Z AUTO 00000KT 10SM OVC110 26/18 A2998 RMK AO2 LTG DSNT N,M
CXP,2023-08-02 10:15,-119.7326,39.1923,1431.00,66.20,42.80,42.57,0.00,0.00,0.00,30.15,M,10.00,M,CLR,M,M,M,M,M,M,M,M,M,M,M,M,M,M,66.20,KCXP 021015Z AUTO 00000KT 10SM CLR 19/06 A3015 RMK AO2 LTG DSNT SE,M
RTS,2023-08-02 10:15,-119.8764,39.6682,1539.00,62.60,35.60,36.45,330.00,5.00,0.00,30.17,M,10.00,M,SCT,M,M,M,10000.00,M,M,M,M,M,M,M,M,M,M,62.60,KRTS 021015Z AUTO 33005KT 10SM SCT100 17/02 A3017 RMK AO2,M
05U,2023-08-02 10:15,-116.0051,39.6042,1811.23,60.80,55.40,82.37,M,M,0.00,30.27,M,10.00,M,M,M,M,M,M,M,M,M,M,M,M,M,M,M,M,60.80,K05U 021015Z AUTO 10SM 16/13 A3027 RMK A01,M
MEV,2023-08-02 10:15,-119.7500,38.9963,1441.42,57.20,42.80,58.52,0.00,0.00,0.00,30.14,M,10.00,M,FEW,M,M,M,4300.00,M,M,M,M,M,M,M,M,M,M,57.20,KMEV 021015Z AUTO 00000KT 10SM FEW043 14/06 A3014 RMK AO2 LTG DSNT SE,M
HTH,2023-08-02 10:15,-118.6315,38.5448,1282.89,71.60,42.80,35.37,140.00,4.00,0.00,30.07,M,10.00,M,CLR,M,M,M,M,M,M,M,M,M,M,M,M,M,M,71.60,KHTH 021015Z AUTO 14004KT 10SM CLR 22/06 A3007 RMK A01,M
10U,2023-08-02 10:15,-116.1876,41.9532,1637.00,68.00,48.20,49.10,120.00,15.00,0.00,30.16,M,10.00,M,OVC,M,M,M,12000.00,M,M,M,M,M,M,M,M,M,M,68.00,K10U 021015Z AUTO 12015KT 10SM OVC120 20/09 A3016 RMK AO2 LTG DSNT S,M
TMT,2023-08-02 10:15,-117.1971,39.4643,1749.34,67.00,44.80,44.70,130.00,4.00,0.00,30.20,M,M,M,OVC,M,M,M,11000.00,M,M,M,M,M,M,M,M,M,M,67.00,KTMT 021015Z AUTO 13004KT OVC110 20/07 A3020 RMK AO2 LTG DSNT SE T01950071 PWINO,M
BAM,2023-08-02 10:30,-116.8743,40.5990,1382.36,71.60,53.60,53.03,60.00,11.00,0.00,30.13,M,10.00,16.00,BKN,M,M,M,12000.00,M,M,M,M,M,M,M,M,M,M,71.60,KBAM 021030Z AUTO 06011G16KT 10SM BKN120 22/12 A3013 RMK AO1,M
LAS,2023-08-02 10:34,-115.1634,36.0719,663.00,82.00,60.00,47.32,100.00,3.00,0.00,29.98,M,10.00,M,OVC,M,M,M,10000.00,M,M,M,TS,M,M,M,M,M,M,82.38,KLAS 021034Z 10003KT 10SM TS OVC100CB 28/16 A2998 RMK AO2 OCNL LTGIC NW TS NW VCSH T02780156,M
BVU,2023-08-02 10:35,-114.8611,35.9475,671.00,77.00,64.40,65.12,0.00,0.00,0.00,29.97,M,10.00,M,OVC,M,M,M,11000.00,M,M,M,M,M,M,M,M,M,M,77.00,KBVU 021035Z AUTO 00000KT 10SM OVC110 25/18 A2997 RMK AO2 LTG DSNT N AND NW,M
CXP,2023-08-02 10:35,-119.7326,39.1923,1431.00,64.40,42.80,45.32,0.00,0.00,0.00,30.14,M,10.00,M,CLR,M,M,M,M,M,M,M,M,M,M,M,M,M,M,64.40,KCXP 021035Z AUTO 00000KT 10SM CLR 18/06 A3014 RMK AO2,M
RTS,2023-08-02 10:35,-119.8764,39.6682,1539.00,62.60,35.60,36.45,310.00,6.00,0.00,30.17,M,10.00,M,CLR,M,M,M,M,M,M,M,M,M,M,M,M,M,M,62.60,KRTS 021035Z AUTO 31006KT 10SM CLR 17/02 A3017 RMK AO2,M
05U,2023-08-02 10:35,-116.0051,39.6042,1811.23,60.80,55.40,82.37,M,M,0.00,30.26,M,10.00,M,M,M,M,M,M,M,M,M,M,M,M,M,M,M,M,60.80,K05U 021035Z AUTO 10SM 16/13 A3026 RMK A01,M
MEV,2023-08-02 10:35,-119.7500,38.9963,1441.42,55.40,44.60,66.91,100.00,5.00,0.00,30.14,M,10.00,M,CLR,M,M,M,M,M,M,M,M,M,M,M,M,M,M,55.40,KMEV 021035Z AUTO 10005KT 10SM CLR 13/07 A3014 RMK AO2,M
HTH,2023-08-02 10:35,-118.6315,38.5448,1282.89,69.80,44.60,40.29,150.00,7.00,0.00,30.07,M,10.00,14.00,CLR,M,M,M,M,M,M,M,M,M,M,M,M,M,M,69.80,KHTH 021035Z AUTO 15007G14KT 10SM CLR 21/07 A3007 RMK A01,M
10U,2023-08-02 10:35,-116.1876,41.9532,1637.00,68.00,48.20,49.10,120.00,13.00,0.00,30.15,M,10.00,M,OVC,M,M,M,11000.00,M,M,M,M,M,M,M,M,M,M,68.00,K10U 021035Z AUTO 12013KT 10SM OVC110 20/09 A3015 RMK AO2,M
TMT,2023-08-02 10:35,-117.1971,39.4643,1749.34,66.20,45.00,46.30,130.00,4.00,0.00,30.20,M,M,M,SCT,M,M,M,11000.00,M,M,M,M,M,M,M,M,M,M,66.20,KTMT 021035Z AUTO 13004KT SCT110 19/07 A3020 RMK AO2 LTG DSNT S T01900072 PWINO,M
VGT,2023-08-02 10:37,-115.1933,36.2111,667.00,82.00,68.00,62.62,240.00,4.00,T,29.99,M,10.00,M,OVC,M,M,M,9500.00,M,M,M,-TSRA,M,M,M,M,M,M,84.92,KVGT 021037Z AUTO 24004KT 10SM -TSRA OVC095 28/20 A2999 RMK AO2 RAB0957E10B36 TSB31 P0000 T02780200,M
BAM,2023-08-02 10:50,-116.8743,40.5990,1382.36,71.60,51.80,49.64,90.00,9.00,0.00,30.13,M,10.00,M,BKN,M,M,M,11000.00,M,M,M,M,M,M,M,M,M,M,71.60,KBAM 021050Z AUTO 09009KT 10SM BKN110 22/11 A3013 RMK AO1,M
P68,2023-08-02 10:53,-116.0056,39.6014,1993.00,59.00,56.00,89.76,230.00,3.00,0.00,30.23,1017.10,M,M,M,M,M,M,M,M,M,M,M,M,M,M,M,M,M,59.00,KP68 021053Z AUTO 23003KT 15/13 A3023 RMK AO1 SLP171 T01500133,M
DRA,2023-08-02 10:53,-116.0278,36.6206,1009.00,76.00,61.00,59.72,150.00,4.00,0.00,30.06,1012.80,10.00,M,OVC,M,M,M,11000.00,M,M,M,M,M,M,M,M,M,M,76.00,KDRA 021053Z AUTO 15004KT 10SM OVC110 24/16 A3006 RMK AO2 SLP128 T02440161,M
ELY,2023-08-02 10:53,-114.8453,39.2950,1909.00,55.00,54.00,96.42,170.00,4.00,0.00,30.28,1016.20,6.00,M,BKN,M,M,M,10000.00,M,M,M,BR,M,M,M,M,M,M,55.00,KELY 021053Z AUTO 17004KT 6SM BR BKN100 13/12 A3028 RMK AO2 SLP162 T01280122 $,M
VGT,2023-08-02 10:53,-115.1933,36.2111,667.00,80.00,67.00,64.57,340.00,5.00,0.03,29.97,1013.90,6.00,M,FEW,OVC,M,M,7000.00,10000.00,M,M,TSRA,M,M,M,M,M,M,82.32,KVGT 021053Z AUTO 34005KT 6SM TSRA FEW070 OVC100 27/19 A2997 RMK AO2 RAB0957E10B36 TSB31 SLP139 P0003 T02670194,M
LOL,2023-08-02 10:53,-118.5701,40.0684,1192.43,63.00,39.00,41.09,70.00,9.00,0.00,30.04,1012.60,10.00,M,CLR,M,M,M,M,M,M,M,M,M,M,M,M,M,M,63.00,KLOL 021053Z AUTO 07009KT 10SM CLR 17/04 A3004 RMK AO2 SLP126 T01720039,M
LSV,2023-08-02 10:54,-115.0343,36.2362,570.00,78.80,62.60,57.60,0.00,0.00,0.00,29.95,1011.70,10.00,M,BKN,M,M,M,10000.00,M,M,M,TS,M,M,M,M,M,M,78.80,KLSV 021054Z AUTO 00000KT 10SM TS BKN100 26/17 A2995 RMK AO2 TSB54 SLP117 $,M
BVU,2023-08-02 10:55,-114.8611,35.9475,671.00,77.00,64.40,65.12,0.00,0.00,0.00,29.97,M,10.00,M,BKN,M,M,M,11000.00,M,M,M,M,M,M,M,M,M,M,77.00,KBVU 021055Z AUTO 00000KT 10SM BKN110 25/18 A2997 RMK AO2 LTG DSNT N AND NW,M
CXP,2023-08-02 10:55,-119.7326,39.1923,1431.00,64.40,42.80,45.32,0.00,0.00,0.00,30.14,M,10.00,M,CLR,M,M,M,M,M,M,M,M,M,M,M,M,M,M,64.40,KCXP 021055Z AUTO 00000KT 10SM CLR 18/06 A3014 RMK AO2,M
INS,2023-08-02 10:55,-115.6733,36.5872,955.00,74.70,61.00,62.37,0.00,0.00,0.00,30.05,1012.70,10.00,M,OVC,M,M,M,10000.00,M,M,M,VCTS,M,M,M,M,M,M,74.70,KINS 021055Z AUTO 00000KT 10SM VCTS OVC100 24/16 A3005 RMK AO2 SLP127 T02370162 $,M
RTS,2023-08-02 10:55,-119.8764,39.6682,1539.00,60.80,35.60,38.85,330.00,7.00,0.00,30.17,M,10.00,M,CLR,M,M,M,M,M,M,M,M,M,M,M,M,M,M,60.80,KRTS 021055Z AUTO 33007KT 10SM CLR 16/02 A3017 RMK AO2,M
05U,2023-08-02 10:55,-116.0051,39.6042,1811.23,59.00,55.40,87.83,M,M,0.00,30.26,M,10.00,M,M,M,M,M,M,M,M,M,M,M,M,M,M,M,M,59.00,K05U 021055Z AUTO 10SM 15/13 A3026 RMK A01,M
MEV,2023-08-02 10:55,-119.7500,38.9963,1441.42,55.40,44.60,66.91,140.00,5.00,0.00,30.14,M,10.00,M,CLR,M,M,M,M,M,M,M,M,M,M,M,M,M,M,55.40,KMEV 021055Z AUTO 14005KT 10SM CLR 13/07 A3014 RMK AO2,M
HTH,2023-08-02 10:55,-118.6315,38.5448,1282.89,69.80,44.60,40.29,180.00,5.00,0.00,30.07,M,10.00,M,CLR,M,M,M,M,M,M,M,M,M,M,M,M,M,M,69.80,KHTH 021055Z AUTO 18005KT 10SM CLR 21/07 A3007 RMK A01,M
TMT,2023-08-02 10:55,-117.1971,39.4643,1749.34,63.50,44.00,48.97,0.00,0.00,0.00,30.20,M,M,M,BKN,M,M,M,11000.00,M,M,M,M,M,M,M,M,M,M,63.50,KTMT 021055Z AUTO 00000KT BKN110 18/07 A3020 RMK AO2 LTG DSNT S T01750066 PWINO,M
RNO,2023-08-02 10:55,-119.7711,39.4839,1341.00,70.00,42.00,36.22,280.00,4.00,0.00,30.12,1013.60,10.00,M,SCT,M,M,M,21000.00,M,M,M,M,M,M,M,M,M,M,70.00,KRNO 021055Z COR 28004KT 10SM SCT210 21/06 A3012 RMK AO2 SLP136 T02110056,M
10U,2023-08-02 10:55,-116.1876,41.9532,1637.00,68.00,48.20,49.10,120.00,12.00,0.00,30.16,M,10.00,M,BKN,M,M,M,11000.00,M,M,M,M,M,M,M,M,M,M,68.00,K10U 021055Z AUTO 12012KT 10SM BKN110 20/09 A3016 RMK AO2,M
LSV,2023-08-02 10:55,-115.0343,36.2362,570.00,79.50,62.00,55.11,0.00,0.00,0.00,29.95,1011.70,10.00,M,BKN,M,M,M,10000.00,M,M,M,TS,M,M,M,M,M,M,79.50,KLSV 021055Z AUTO 00000KT 10SM TS BKN100 26/17 A2995 RMK AO2 TSB54 SLP117 T02640166 $,M
EKO,2023-08-02 10:56,-115.7860,40.8242,1367.00,61.00,52.00,72.22,250.00,5.00,0.00,30.17,1016.10,10.00,M,SCT,M,M,M,10000.00,M,M,M,M,M,M,M,M,M,M,61.00,KEKO 021056Z AUTO 25005KT 10SM SCT100 16/11 A3017 RMK AO2 SLP161 T01610111,M
WMC,2023-08-02 10:56,-117.8072,40.9019,1315.00,70.00,36.00,28.65,160.00,8.00,0.00,30.07,1012.30,10.00,M,CLR,M,M,M,M,M,M,M,M,M,M,M,M,M,M,70.00,KWMC 021056Z AUTO 16008KT 10SM CLR 21/02 A3007 RMK AO2 SLP123 T02110022,M
NFL,2023-08-02 10:56,-118.7010,39.4166,1199.00,68.00,39.00,34.53,240.00,3.00,0.00,30.05,1014.50,10.00,M,CLR,M,M,M,M,M,M,M,M,M,M,M,M,M,M,68.00,KNFL 021056Z AUTO 24003KT 10SM CLR 20/04 A3005 RMK AO2 SLP145 T02000039,M
HND,2023-08-02 10:56,-115.1344,35.9729,742.79,78.00,61.00,55.89,0.00,0.00,0.00,30.03,1015.40,10.00,M,FEW,M,M,M,11000.00,M,M,M,M,M,M,M,M,M,M,78.00,KHND 021056Z AUTO 00000KT 10SM FEW110 26/16 A3003 RMK AO2 LTG DSNT N AND NW SLP154 T02560161,M
TPH,2023-08-02 10:56,-117.0904,38.0505,1654.00,67.00,56.00,67.75,90.00,6.00,T,30.20,1014.50,10.00,M,OVC,M,M,M,9500.00,M,M,M,M,M,M,M,M,M,M,67.00,KTPH 021056Z AUTO 09006KT 10SM OVC095 19/13 A3020 RMK AO2 RAE24 SLP145 P0000 T01940133,M
LAS,2023-08-02 10:56,-115.1634,36.0719,663.00,82.00,60.00,47.32,0.00,0.00,0.00,29.98,1012.60,10.00,M,OVC,M,M,M,10000.00,M,M,M,TS,M,M,M,M,M,M,82.38,KLAS 021056Z 00000KT 10SM TS OVC100CB 28/16 A2998 RMK AO2 LTG DSNT N SLP126 OCNL LTGICCG NW-N TSB32 TS NW-N MOV N VCSH T02780156 $,M
LSV,2023-08-02 11:09,-115.0343,36.2362,570.00,80.60,62.60,54.30,290.00,3.00,0.00,29.94,1011.30,10.00,M,SCT,BKN,M,M,10000.00,12000.00,M,M,VCTS,M,M,M,M,M,M,81.84,KLSV 021109Z AUTO 29003KT 10SM VCTS SCT100 BKN120 27/17 A2994 RMK AO2 TSE09 SLP113 $,M
BAM,2023-08-02 11:10,-116.8743,40.5990,1382.36,71.60,51.80,49.64,90.00,8.00,0.00,30.13,M,5.00,M,OVC,M,M,M,12000.00,M,M,M,M,M,M,M,M,M,M,71.60,KBAM 021110Z AUTO 09008KT 5SM OVC120 22/11 A3013 RMK AO1,M
BVU,2023-08-02 11:15,-114.8611,35.9475,671.00,75.20,66.20,73.61,0.00,0.00,0.00,29.98,M,10.00,M,SCT,BKN,M,M,9000.00,11000.00,M,M,M,M,M,M,M,M,M,75.20,KBVU 021115Z AUTO 00000KT 10SM SCT090 BKN110 24/19 A2998 RMK AO2 LTG DSNT N AND NW,M
CXP,2023-08-02 11:15,-119.7326,39.1923,1431.00,64.40,42.80,45.32,0.00,0.00,0.00,30.14,M,10.00,M,CLR,M,M,M,M,M,M,M,M,M,M,M,M,M,M,64.40,KCXP 021115Z AUTO 00000KT 10SM CLR 18/06 A3014 RMK AO2,M
RTS,2023-08-02 11:15,-119.8764,39.6682,1539.00,60.80,35.60,38.85,340.00,5.00,0.00,30.17,M,10.00,M,FEW,M,M,M,10000.00,M,M,M,M,M,M,M,M,M,M,60.80,KRTS 021115Z AUTO 34005KT 10SM FEW100 16/02 A3017 RMK AO2,M
05U,2023-08-02 11:15,-116.0051,39.6042,1811.23,59.00,55.40,87.83,M,M,0.00,30.25,M,10.00,M,M,M,M,M,M,M,M,M,M,M,M,M,M,M,M,59.00,K05U 021115Z AUTO 10SM 15/13 A3025 RMK A01,M
MEV,2023-08-02 11:15,-119.7500,38.9963,1441.42,55.40,44.60,66.91,200.00,4.00,0.00,30.14,M,10.00,M,CLR,M,M,M,M,M,M,M,M,M,M,M,M,M,M,55.40,KMEV 021115Z AUTO 20004KT 10SM CLR 13/07 A3014 RMK AO2,M
HTH,2023-08-02 11:15,-118.6315,38.5448,1282.89,66.20,48.20,52.25,180.00,7.00,0.00,30.07,M,10.00,M,CLR,M,M,M,M,M,M,M,M,M,M,M,M,M,M,66.20,KHTH 021115Z AUTO 18007KT 10SM CLR 19/09 A3007 RMK A01,M
10U,2023-08-02 11:15,-116.1876,41.9532,1637.00,68.00,48.20,49.10,120.00,12.00,0.00,30.15,M,10.00,M,BKN,M,M,M,11000.00,M,M,M,M,M,M,M,M,M,M,68.00,K10U 021115Z AUTO 12012KT 10SM BKN110 20/09 A3015 RMK AO2,M
TMT,2023-08-02 11:15,-117.1971,39.4643,1749.34,62.60,44.00,50.55,0.00,0.00,0.00,30.20,M,M,M,BKN,M,M,M,11000.00,M,M,M,M,M,M,M,M,M,M,62.60,KTMT 021115Z AUTO 00000KT BKN110 17/07 A3020 RMK AO2 LTG DSNT S T01700066 PWINO,M
LAS,2023-08-02 11:16,-115.1634,36.0719,663.00,81.00,64.00,56.30,260.00,4.00,0.00,29.99,M,10.00,M,OVC,M,M,M,10000.00,M,M,M,M,M,M,M,M,M,M,82.54,KLAS 021116Z 26004KT 10SM OVC100 27/18 A2999 RMK AO2 LTG DSNT N AND NW TSE16 TS DSIPTD CB DSNT N T02720178 $,M
VGT,2023-08-02 11:17,-115.1933,36.2111,667.00,79.00,71.00,76.53,280.00,9.00,T,29.98,M,10.00,M,BKN,M,M,M,10000.00,M,M,M,VCTS,M,M,M,M,M,M,79.00,KVGT 021117Z AUTO 28009KT 10SM VCTS BKN100 26/22 A2998 RMK AO2 LTG DSNT N AND NW RAE09 TSE11 P0000 T02610217,M
LAS,2023-08-02 11:28,-115.1634,36.0719,663.00,80.00,65.00,60.24,270.00,4.00,0.00,29.99,M,10.00,M,BKN,OVC,M,M,11000.00,15000.00,M,M,VCTS,M,M,M,M,M,M,81.84,KLAS 021128Z 27004KT 10SM VCTS BKN110CB OVC150 27/18 A2999 RMK AO2 LTG DSNT N AND NW OCNL LTGICCG VC NW-N TSE16B27 TS VC NW-N T02670183 $,M
BAM,2023-08-02 11:30,-116.8743,40.5990,1382.36,71.60,51.80,49.64,80.00,10.00,0.00,30.13,M,10.00,M,BKN,M,M,M,12000.00,M,M,M,M,M,M,M,M,M,M,71.60,KBAM 021130Z AUTO 08010KT 10SM BKN120 22/11 A3013 RMK AO1,M
VGT,2023-08-02 11:31,-115.1933,36.2111,667.00,78.00,68.00,71.38,300.00,7.00,T,29.99,M,10.00,M,BKN,M,M,M,9500.00,M,M,M,TS,M,M,M,M,M,M,78.00,KVGT 021131Z AUTO 30007KT 10SM TS BKN095 26/20 A2999 RMK AO2 LTG DSNT N AND NW RAE09 TSE11B25 P0000 T02560200,M
BVU,2023-08-02 11:35,-114.8611,35.9475,671.00,77.00,66.20,69.33,0.00,0.00,0.00,29.98,M,10.00,M,BKN,OVC,M,M,10000.00,11000.00,M,M,M,M,M,M,M,M,M,77.00,KBVU 021135Z AUTO 00000KT 10SM BKN100 OVC110 25/19 A2998 RMK AO2 LTG DSNT N AND NW,M
CXP,2023-08-02 11:35,-119.7326,39.1923,1431.00,62.60,42.80,48.28,0.00,0.00,0.00,30.14,M,10.00,M,CLR,M,M,M,M,M,M,M,M,M,M,M,M,M,M,62.60,KCXP 021135Z AUTO 00000KT 10SM CLR 17/06 A3014 RMK AO2 LTG DSNT SE,M
RTS,2023-08-02 11:35,-119.8764,39.6682,1539.00,59.00,35.60,41.42,330.00,7.00,0.00,30.17,M,10.00,M,FEW,M,M,M,10000.00,M,M,M,M,M,M,M,M,M,M,59.00,KRTS 021135Z AUTO 33007KT 10SM FEW100 15/02 A3017 RMK AO2,M
05U,2023-08-02 11:35,-116.0051,39.6042,1811.23,57.20,55.40,93.69,M,M,0.00,30.25,M,10.00,M,M,M,M,M,M,M,M,M,M,M,M,M,M,M,M,57.20,K05U 021135Z AUTO 10SM 14/13 A3025 RMK A01,M
MEV,2023-08-02 11:35,-119.7500,38.9963,1441.42,53.60,44.60,71.45,160.00,3.00,0.00,30.14,M,10.00,M,CLR,M,M,M,M,M,M,M,M,M,M,M,M,M,M,53.60,KMEV 021135Z AUTO 16003KT 10SM CLR 12/07 A3014 RMK AO2 LTG DSNT SE,M
HTH,2023-08-02 11:35,-118.6315,38.5448,1282.89,68.00,44.60,42.85,170.00,5.00,0.00,30.08,M,10.00,M,CLR,M,M,M,M,M,M,M,M,M,M,M,M,M,M,68.00,KHTH 021135Z AUTO 17005KT 10SM CLR 20/07 A3008 RMK A01,M
10U,2023-08-02 11:35,-116.1876,41.9532,1637.00,68.00,48.20,49.10,150.00,7.00,0.00,30.16,M,10.00,15.00,OVC,M,M,M,11000.00,M,M,M,M,M,M,M,M,M,M,68.00,K10U 021135Z AUTO 15007G15KT 10SM OVC110 20/09 A3016 RMK AO2 LTG DSNT S,M
TMT,2023-08-02 11:35,-117.1971,39.4643,1749.34,61.00,44.00,53.49,60.00,5.00,0.00,30.20,M,M,M,BKN,M,M,M,11000.00,M,M,M,M,M,M,M,M,M,M,61.00,KTMT 021135Z AUTO 06005KT BKN110 16/07 A3020 RMK AO2 LTG DSNT SE AND S T01620067 PWINO,M
VGT,2023-08-02 11:46,-115.1933,36.2111,667.00,78.00,68.00,71.38,330.00,5.00,T,29.99,M,10.00,M,BKN,M,M,M,9000.00,M,M,M,VCTS,M,M,M,M,M,M,78.00,KVGT 021146Z AUTO 33005KT 10SM VCTS BKN090 26/20 A2999 RMK AO2 LTG DSNT N AND NE RAE09 TSE11B25E40 P0000 T02560200,M
BAM,2023-08-02 11:50,-116.8743,40.5990,1382.36,71.60,51.80,49.64,80.00,7.00,0.00,30.13,M,10.00,M,SCT,M,M,M,12000.00,M,M,M,M,M,M,M,M,M,M,71.60,KBAM 021150Z AUTO 08007KT 10SM SCT120 22/11 A3013 RMK AO1,M
P68,2023-08-02 11:53,-116.0056,39.6014,1993.00,60.00,54.00,80.53,170.00,4.00,0.00,30.23,1017.30,M,M,M,M,M,M,M,M,M,M,M,M,M,M,M,M,M,60.00,KP68 021153Z AUTO 17004KT 16/12 A3023 RMK AO1 SLP173 70008 T01560122 10178 20139 56007,M
DRA,2023-08-02 11:53,-116.0278,36.6206,1009.00,74.00,64.00,70.97,10.00,8.00,T,30.06,1012.80,10.00,M,BKN,OVC,M,M,9500.00,11000.00,M,M,M,M,M,M,M,M,M,74.00,KDRA 021153Z AUTO 01008KT 10SM BKN095 OVC110 23/18 A3006 RMK AO2 RAB13E32 SLP128 P0000 60000 T02330178 10272 20233 50003,M
ELY,2023-08-02 11:53,-114.8453,39.2950,1909.00,54.00,54.00,100.00,180.00,4.00,0.00,30.28,1018.10,6.00,M,BKN,M,M,M,10000.00,M,M,M,BR,M,M,M,M,M,M,54.00,KELY 021153Z AUTO 18004KT 6SM BR BKN100 12/12 A3028 RMK AO2 SLP181 70048 T01220122 10144 20122 56007 $,M
VGT,2023-08-02 11:53,-115.1933,36.2111,667.00,77.00,68.00,73.78,330.00,5.00,T,29.99,1014.50,10.00,M,BKN,OVC,M,M,9000.00,11000.00,M,M,VCTS,M,M,M,M,M,M,77.00,KVGT 021153Z AUTO 33005KT 10SM VCTS BKN090 OVC110 25/20 A2999 RMK AO2 LTG DSNT NW-NE RAE09 TSE11B25E40 SLP145 P0000 60003 70028 T02500200 10283 20250 53001,M
LOL,2023-08-02 11:53,-118.5701,40.0684,1192.43,66.00,35.00,31.60,60.00,6.00,0.00,30.04,1012.80,10.00,M,CLR,M,M,M,M,M,M,M,M,M,M,M,M,M,M,66.00,KLOL 021153Z AUTO 06006KT 10SM CLR 19/02 A3004 RMK AO2 SLP128 T01890017 10267 20161 55001,M
BVU,2023-08-02 11:55,-114.8611,35.9475,671.00,77.00,66.20,69.33,0.00,0.00,0.00,29.98,M,10.00,M,OVC,M,M,M,10000.00,M,M,M,M,M,M,M,M,M,M,77.00,KBVU 021155Z AUTO 00000KT 10SM OVC100 25/19 A2998 RMK AO2 LTG DSNT N,M
CXP,2023-08-02 11:55,-119.7326,39.1923,1431.00,62.60,42.80,48.28,0.00,0.00,0.00,30.15,M,10.00,M,CLR,M,M,M,M,M,M,M,M,M,M,M,M,M,M,62.60,KCXP 021155Z AUTO 00000KT 10SM CLR 17/06 A3015 RMK AO2,M
INS,2023-08-02 11:55,-115.6733,36.5872,955.00,76.60,59.00,54.52,170.00,3.00,0.00,30.06,1013.00,10.00,M,OVC,M,M,M,9000.00,M,M,M,M,M,M,M,M,M,M,76.60,KINS 021155Z AUTO 17003KT 10SM OVC090 25/15 A3006 RMK AO2 LTG DSNT E SLP130 70009 T02480151 10248 20234 53005 $,M
RNO,2023-08-02 11:55,-119.7711,39.4839,1341.00,68.00,42.00,38.79,0.00,0.00,0.00,30.12,1013.80,10.00,M,FEW,SCT,M,M,8000.00,25000.00,M,M,M,M,M,M,M,M,M,68.00,KRNO 021155Z 00000KT 10SM FEW080 SCT250 20/06 A3012 RMK AO2 SLP138 T02000056 10244 20200 55004,M
LSV,2023-08-02 11:55,-115.0343,36.2362,570.00,80.20,65.00,59.84,240.00,7.00,0.00,29.95,1011.70,10.00,M,BKN,M,M,M,10000.00,M,M,M,M,M,M,M,M,M,M,82.03,KLSV 021155Z AUTO 24007KT 10SM BKN100 27/18 A2995 RMK AO2 LTG DSNT W TSE09 SLP117 T02680184 10274 20264 53001 $,M
RTS,2023-08-02 11:55,-119.8764,39.6682,1539.00,59.00,35.60,41.42,340.00,6.00,0.00,30.17,M,10.00,M,CLR,M,M,M,M,M,M,M,M,M,M,M,M,M,M,59.00,KRTS 021155Z AUTO 34006KT 10SM CLR 15/02 A3017 RMK AO2,M
05U,2023-08-02 11:55,-116.0051,39.6042,1811.23,59.00,53.60,82.25,M,M,0.00,30.26,M,10.00,M,M,M,M,M,M,M,M,M,M,M,M,M,M,M,M,59.00,K05U 021155Z AUTO 10SM 15/12 A3026 RMK A01,M
MEV,2023-08-02 11:55,-119.7500,38.9963,1441.42,53.60,42.80,66.70,160.00,3.00,0.00,30.14,M,10.00,M,CLR,M,M,M,M,M,M,M,M,M,M,M,M,M,M,53.60,KMEV 021155Z AUTO 16003KT 10SM CLR 12/06 A3014 RMK AO2,M
HTH,2023-08-02 11:55,-118.6315,38.5448,1282.89,68.00,42.80,40.00,160.00,4.00,0.00,30.08,M,10.00,M,CLR,M,M,M,M,M,M,M,M,M,M,M,M,M,M,68.00,KHTH 021155Z AUTO 16004KT 10SM CLR 20/06 A3008 RMK A01,M
TMT,2023-08-02 11:55,-117.1971,39.4643,1749.34,61.00,44.40,54.31,0.00,0.00,0.00,30.21,M,M,M,BKN,M,M,M,11000.00,M,M,M,M,M,M,M,M,M,M,61.00,KTMT 021155Z AUTO 00000KT BKN110 16/07 A3021 RMK AO2 LTG DSNT SE AND S 7//// T01620069 10202 20160 PWINO,M
10U,2023-08-02 11:55,-116.1876,41.9532,1637.00,68.00,48.20,49.10,0.00,0.00,0.00,30.17,M,10.00,M,OVC,M,M,M,10000.00,M,M,M,M,M,M,M,M,M,M,68.00,K10U 021155Z AUTO 00000KT 10SM OVC100 20/09 A3017 RMK AO2,M
EKO,2023-08-02 11:56,-115.7860,40.8242,1367.00,61.00,52.00,72.22,80.00,3.00,0.00,30.17,1016.10,10.00,M,CLR,M,M,M,M,M,M,M,M,M,M,M,M,M,M,61.00,KEKO 021156Z AUTO 08003KT 10SM CLR 16/11 A3017 RMK AO2 SLP161 T01610111 10206 20161 56014,M
WMC,2023-08-02 11:56,-117.8072,40.9019,1315.00,68.00,41.00,37.32,90.00,5.00,0.00,30.08,1013.00,10.00,M,CLR,M,M,M,M,M,M,M,M,M,M,M,M,M,M,68.00,KWMC 021156Z AUTO 09005KT 10SM CLR 20/05 A3008 RMK AO2 SLP130 T02000050 10239 20194 53002,M
NFL,2023-08-02 11:56,-118.7010,39.4166,1199.00,66.00,38.00,35.58,0.00,0.00,0.00,30.05,1014.50,10.00,M,CLR,M,M,M,M,M,M,M,M,M,M,M,M,M,M,66.00,KNFL 021156Z AUTO 00000KT 10SM CLR 19/03 A3005 RMK AO2 SLP145 T01890033 10256 20172 56003,M
HND,2023-08-02 11:56,-115.1344,35.9729,742.79,79.00,61.00,54.08,170.00,3.00,0.00,30.03,1015.60,10.00,M,OVC,M,M,M,11000.00,M,M,M,M,M,M,M,M,M,M,79.00,KHND 021156Z AUTO 17003KT 10SM OVC110 26/16 A3003 RMK AO2 LTG DSNT N AND NW SLP156 T02610161 10272 20256 55000,M
TPH,2023-08-02 11:56,-117.0904,38.0505,1654.00,66.00,55.00,67.64,120.00,6.00,0.00,30.21,1015.10,10.00,M,OVC,M,M,M,10000.00,M,M,M,M,M,M,M,M,M,M,66.00,KTPH 021156Z AUTO 12006KT 10SM OVC100 19/13 A3021 RMK AO2 SLP151 60000 T01890128 10222 20189 55001,M
LAS,2023-08-02 11:56,-115.1634,36.0719,663.00,80.00,65.00,60.24,290.00,3.00,0.00,30.00,1013.00,10.00,M,SCT,OVC,M,M,11000.00,15000.00,M,M,VCTS,M,M,M,M,M,M,81.84,KLAS 021156Z 29003KT 10SM VCTS SCT110CB OVC150 27/18 A3000 RMK AO2 LTG DSNT NW-NE SLP130 OCNL LTGICCG VC NW-NE TSE16B27 TS VC NW-NE 70012 T02670183 10283 20267 53003 $,M
VGT,2023-08-02 12:07,-115.1933,36.2111,667.00,77.00,69.00,76.36,270.00,5.00,0.00,29.99,M,10.00,M,SCT,SCT,M,M,9000.00,11000.00,M,M,M,M,M,M,M,M,M,77.00,KVGT 021207Z AUTO 27005KT 10SM SCT090 SCT110 25/21 A2999 RMK AO2 LTG DSNT NW-NE T02500206,M
LAS,2023-08-02 12:09,-115.1634,36.0719,663.00,80.00,65.00,60.24,300.00,4.00,0.00,30.00,M,10.00,M,SCT,OVC,M,M,11000.00,15000.00,M,M,M,M,M,M,M,M,M,81.84,KLAS 021209Z 30004KT 10SM SCT110 OVC150 27/18 A3000 RMK AO2 LTG DSNT N AND NE TSE06 TS DSIPTD CB DSNT NW-NE T02670183 $,M
BAM,2023-08-02 12:10,-116.8743,40.5990,1382.36,71.60,51.80,49.64,80.00,6.00,0.00,30.13,M,10.00,M,BKN,M,M,M,12000.00,M,M,M,M,M,M,M,M,M,M,71.60,KBAM 021210Z AUTO 08006KT 10SM BKN120 22/11 A3013 RMK AO1,M
BVU,2023-08-02 12:15,-114.8611,35.9475,671.00,77.00,66.20,69.33,0.00,0.00,0.00,29.99,M,10.00,M,OVC,M,M,M,10000.00,M,M,M,M,M,M,M,M,M,M,77.00,KBVU 021215Z AUTO 00000KT 10SM OVC100 25/19 A2999 RMK AO2 LTG DSNT N,M
CXP,2023-08-02 12:15,-119.7326,39.1923,1431.00,62.60,42.80,48.28,0.00,0.00,0.00,30.15,M,10.00,M,CLR,M,M,M,M,M,M,M,M,M,M,M,M,M,M,62.60,KCXP 021215Z AUTO 00000KT 10SM CLR 17/06 A3015 RMK AO2,M
RTS,2023-08-02 12:15,-119.8764,39.6682,1539.00,59.00,35.60,41.42,360.00,5.00,0.00,30.17,M,10.00,M,CLR,M,M,M,M,M,M,M,M,M,M,M,M,M,M,59.00,KRTS 021215Z AUTO 36005KT 10SM CLR 15/02 A3017 RMK AO2,M
05U,2023-08-02 12:15,-116.0051,39.6042,1811.23,59.00,55.40,87.83,M,M,0.00,30.26,M,10.00,M,M,M,M,M,M,M,M,M,M,M,M,M,M,M,M,59.00,K05U 021215Z AUTO 10SM 15/13 A3026 RMK A01,M
MEV,2023-08-02 12:15,-119.7500,38.9963,1441.42,53.60,42.80,66.70,120.00,4.00,0.00,30.14,M,10.00,M,CLR,M,M,M,M,M,M,M,M,M,M,M,M,M,M,53.60,KMEV 021215Z AUTO 12004KT 10SM CLR 12/06 A3014 RMK AO2,M
HTH,2023-08-02 12:15,-118.6315,38.5448,1282.89,62.60,51.80,67.75,310.00,6.00,0.00,30.09,M,10.00,M,FEW,M,M,M,11000.00,M,M,M,M,M,M,M,M,M,M,62.60,KHTH 021215Z AUTO 31006KT 10SM FEW110 17/11 A3009 RMK A01,M
10U,2023-08-02 12:15,-116.1876,41.9532,1637.00,66.20,48.20,52.25,260.00,5.00,0.00,30.17,M,10.00,M,FEW,SCT,OVC,M,4700.00,7000.00,9000.00,M,M,M,M,M,M,M,M,66.20,K10U 021215Z AUTO 26005KT 10SM FEW047 SCT070 OVC090 19/09 A3017 RMK AO2,M
TMT,2023-08-02 12:15,-117.1971,39.4643,1749.34,60.80,45.50,57.04,0.00,0.00,0.00,30.21,M,M,M,BKN,M,M,M,11000.00,M,M,M,M,M,M,M,M,M,M,60.80,KTMT 021215Z AUTO 00000KT BKN110 16/08 A3021 RMK AO2 LTG DSNT SE AND S T01600075 PWINO,M
HTH,2023-08-02 12:30,-118.6315,38.5448,1282.89,62.60,50.00,63.38,0.00,0.00,0.00,30.09,M,10.00,M,FEW,M,M,M,11000.00,M,M,M,M,M,M,M,M,M,M,62.60,KHTH 021230Z AUTO 00000KT 10SM FEW110 17/10 A3009 RMK A01,M
BAM,2023-08-02 12:30,-116.8743,40.5990,1382.36,71.60,51.80,49.64,70.00,6.00,0.00,30.13,M,10.00,M,BKN,M,M,M,12000.00,M,M,M,M,M,M,M,M,M,M,71.60,KBAM 021230Z AUTO 07006KT 10SM BKN120 22/11 A3013 RMK AO1,M
BVU,2023-08-02 12:35,-114.8611,35.9475,671.00,77.00,68.00,73.78,0.00,0.00,0.00,29.99,M,10.00,M,FEW,FEW,OVC,M,4000.00,5500.00,11000.00,M,-DZ,M,M,M,M,M,M,77.00,KBVU 021235Z AUTO 00000KT 10SM -DZ FEW040 FEW055 OVC110 25/20 A2999 RMK AO2 LTG DSNT N AND NE,M
CXP,2023-08-02 12:35,-119.7326,39.1923,1431.00,60.80,44.60,55.12,0.00,0.00,0.00,30.15,M,10.00,M,CLR,M,M,M,M,M,M,M,M,M,M,M,M,M,M,60.80,KCXP 021235Z AUTO 00000KT 10SM CLR 16/07 A3015 RMK AO2,M
RTS,2023-08-02 12:35,-119.8764,39.6682,1539.00,57.20,33.80,41.13,340.00,5.00,0.00,30.17,M,10.00,M,CLR,M,M,M,M,M,M,M,M,M,M,M,M,M,M,57.20,KRTS 021235Z AUTO 34005KT 10SM CLR 14/01 A3017 RMK AO2,M
05U,2023-08-02 12:35,-116.0051,39.6042,1811.23,59.00,55.40,87.83,M,M,0.00,30.26,M,10.00,M,M,M,M,M,M,M,M,M,M,M,M,M,M,M,M,59.00,K05U 021235Z AUTO 10SM 15/13 A3026 RMK A01,M
MEV,2023-08-02 12:35,-119.7500,38.9963,1441.42,51.80,41.00,66.48,110.00,5.00,0.00,30.14,M,10.00,M,CLR,M,M,M,M,M,M,M,M,M,M,M,M,M,M,51.80,KMEV 021235Z AUTO 11005KT 10SM CLR 11/05 A3014 RMK AO2,M
10U,2023-08-02 12:35,-116.1876,41.9532,1637.00,66.20,48.20,52.25,0.00,0.00,0.00,30.17,M,10.00,M,SCT,BKN,OVC,M,4900.00,9000.00,12000.00,M,M,M,M,M,M,M,M,66.20,K10U 021235Z AUTO 00000KT 10SM SCT049 BKN090 OVC120 19/09 A3017 RMK AO2,M
TMT,2023-08-02 12:35,-117.1971,39.4643,1749.34,61.70,46.60,57.59,0.00,0.00,0.00,30.21,M,M,M,OVC,M,M,M,11000.00,M,M,M,M,M,M,M,M,M,M,61.70,KTMT 021235Z AUTO 00000KT OVC110 17/08 A3021 RMK AO2 T01650081 PWINO,M
INS,2023-08-02 12:41,-115.6733,36.5872,955.00,75.20,60.80,60.90,90.00,4.00,0.00,30.08,1013.90,10.00,M,FEW,OVC,M,M,5500.00,8500.00,M,M,-RA,M,M,M,M,M,M,75.20,KINS 021241Z AUTO 09004KT 10SM -RA FEW055 OVC085 24/16 A3008 RMK AO2 LTG DSNT NE RAB41 SLP139 $,M
05U,2023-08-02 12:50,-116.0051,39.6042,1811.23,60.80,53.60,77.14,M,M,0.00,30.26,M,10.00,M,M,M,M,M,M,M,M,M,M,M,M,M,M,M,M,60.80,K05U 021250Z AUTO 10SM 16/12 A3026 RMK A01,M
BAM,2023-08-02 12:50,-116.8743,40.5990,1382.36,71.60,51.80,49.64,80.00,6.00,0.00,30.13,M,10.00,M,SCT,M,M,M,11000.00,M,M,M,M,M,M,M,M,M,M,71.60,KBAM 021250Z AUTO 08006KT 10SM SCT110 22/11 A3013 RMK AO1,M
P68,2023-08-02 12:53,-116.0056,39.6014,1993.00,61.00,54.00,77.72,220.00,3.00,0.00,30.24,1016.90,M,M,M,M,M,M,M,M,M,M,M,M,M,M,M,M,M,61.00,KP68 021253Z AUTO 22003KT 16/12 A3024 RMK AO1 SLP169 T01610122,M
DRA,2023-08-02 12:53,-116.0278,36.6206,1009.00,74.00,61.00,63.85,70.00,12.00,T,30.08,1013.50,10.00,M,OVC,M,M,M,11000.00,M,M,M,-RA,M,M,M,M,M,M,74.00,KDRA 021253Z AUTO 07012KT 10SM -RA OVC110 23/16 A3008 RMK AO2 RAB40 SLP135 P0000 T02330161,M
ELY,2023-08-02 12:53,-114.8453,39.2950,1909.00,54.00,54.00,100.00,170.00,4.00,0.00,30.28,1018.40,6.00,M,OVC,M,M,M,9500.00,M,M,M,BR,M,M,M,M,M,M,54.00,KELY 021253Z AUTO 17004KT 6SM BR OVC095 12/12 A3028 RMK AO2 SLP184 T01220122 $,M
VGT,2023-08-02 12:53,-115.1933,36.2111,667.00,75.00,66.00,73.59,320.00,6.00,0.00,29.99,1014.70,10.00,M,FEW,BKN,M,M,9000.00,12000.00,M,M,M,M,M,M,M,M,M,75.00,KVGT 021253Z AUTO 32006KT 10SM FEW090 BKN120 24/19 A2999 RMK AO2 SLP147 T02390189,M
LOL,2023-08-02 12:53,-118.5701,40.0684,1192.43,59.00,37.00,43.78,200.00,3.00,0.00,30.06,1013.80,10.00,M,CLR,M,M,M,M,M,M,M,M,M,M,M,M,M,M,59.00,KLOL 021253Z AUTO 20003KT 10SM CLR 15/03 A3006 RMK AO2 SLP138 T01500028,M
BVU,2023-08-02 12:55,-114.8611,35.9475,671.00,77.00,68.00,73.78,0.00,0.00,0.00,30.00,M,10.00,M,OVC,M,M,M,11000.00,M,M,M,M,M,M,M,M,M,M,77.00,KBVU 021255Z AUTO 00000KT 10SM OVC110 25/20 A3000 RMK AO2 LTG DSNT ALQDS,M
CXP,2023-08-02 12:55,-119.7326,39.1923,1431.00,60.80,44.60,55.12,0.00,0.00,0.00,30.16,M,10.00,M,CLR,M,M,M,M,M,M,M,M,M,M,M,M,M,M,60.80,KCXP 021255Z AUTO 00000KT 10SM CLR 16/07 A3016 RMK AO2,M
RNO,2023-08-02 12:55,-119.7711,39.4839,1341.00,68.00,43.00,40.31,260.00,5.00,0.00,30.13,1014.10,10.00,M,SCT,SCT,M,M,10000.00,25000.00,M,M,M,M,M,M,M,M,M,68.00,KRNO 021255Z 26005KT 10SM SCT100 SCT250 20/06 A3013 RMK AO2 SLP141 T02000061,M
RTS,2023-08-02 12:55,-119.8764,39.6682,1539.00,57.20,33.80,41.13,340.00,6.00,0.00,30.18,M,10.00,M,CLR,M,M,M,M,M,M,M,M,M,M,M,M,M,M,57.20,KRTS 021255Z AUTO 34006KT 10SM CLR 14/01 A3018 RMK AO2,M
MEV,2023-08-02 12:55,-119.7500,38.9963,1441.42,51.80,41.00,66.48,120.00,4.00,0.00,30.15,M,10.00,M,CLR,M,M,M,M,M,M,M,M,M,M,M,M,M,M,51.80,KMEV 021255Z AUTO 12004KT 10SM CLR 11/05 A3015 RMK AO2,M
HTH,2023-08-02 12:55,-118.6315,38.5448,1282.89,64.40,50.00,59.50,350.00,5.00,0.00,30.10,M,10.00,M,CLR,M,M,M,M,M,M,M,M,M,M,M,M,M,M,64.40,KHTH 021255Z AUTO 35005KT 10SM CLR 18/10 A3010 RMK A01,M
TMT,2023-08-02 12:55,-117.1971,39.4643,1749.34,62.60,46.20,54.96,0.00,0.00,0.00,30.21,M,M,M,OVC,M,M,M,11000.00,M,M,M,M,M,M,M,M,M,M,62.60,KTMT 021255Z AUTO 00000KT OVC110 17/08 A3021 RMK AO2 LTG DSNT SE AND S T01700079 PWINO,M
10U,2023-08-02 12:55,-116.1876,41.9532,1637.00,66.20,46.40,48.83,0.00,0.00,0.00,30.17,M,10.00,M,SCT,OVC,M,M,9500.00,12000.00,M,M,M,M,M,M,M,M,M,66.20,K10U 021255Z AUTO 00000KT 10SM SCT095 OVC120 19/08 A3017 RMK AO2,M
INS,2023-08-02 12:55,-115.6733,36.5872,955.00,74.50,64.40,70.78,70.00,5.00,0.04,30.10,1014.50,8.00,M,FEW,OVC,M,M,300.00,8500.00,M,M,RA,M,M,M,M,M,M,74.50,KINS 021255Z AUTO 07005KT 8SM RA FEW003 OVC085 24/18 A3010 RMK AO2 LTG DSNT NE RAB41 PRESRR SLP145 P0004 T02360180 $,M
LSV,2023-08-02 12:55,-115.0343,36.2362,570.00,79.50,64.80,60.81,240.00,4.00,0.00,29.96,1012.10,10.00,M,FEW,BKN,BKN,M,9000.00,11000.00,14000.00,M,VCTS,M,M,M,M,M,M,79.50,KLSV 021255Z AUTO 24004KT 10SM VCTS FEW090 BKN110 BKN140 26/18 A2996 RMK AO2 SLP121 T02640182 $,M
EKO,2023-08-02 12:56,-115.7860,40.8242,1367.00,60.00,52.00,74.83,60.00,4.00,0.00,30.17,1016.90,10.00,M,CLR,M,M,M,M,M,M,M,M,M,M,M,M,M,M,60.00,KEKO 021256Z AUTO 06004KT 10SM CLR 16/11 A3017 RMK AO2 SLP169 T01560111,M
WMC,2023-08-02 12:56,-117.8072,40.9019,1315.00,62.00,43.00,49.69,150.00,7.00,0.00,30.08,1013.40,10.00,M,CLR,M,M,M,M,M,M,M,M,M,M,M,M,M,M,62.00,KWMC 021256Z AUTO 15007KT 10SM CLR 17/06 A3008 RMK AO2 SLP134 T01670061,M
NFL,2023-08-02 12:56,-118.7010,39.4166,1199.00,63.00,39.00,41.09,180.00,6.00,0.00,30.06,1014.90,10.00,M,CLR,M,M,M,M,M,M,M,M,M,M,M,M,M,M,63.00,KNFL 021256Z AUTO 18006KT 10SM CLR 17/04 A3006 RMK AO2 SLP149 T01720039,M
HND,2023-08-02 12:56,-115.1344,35.9729,742.79,79.00,62.00,56.03,0.00,0.00,0.00,30.04,1016.00,10.00,M,BKN,M,M,M,11000.00,M,M,M,M,M,M,M,M,M,M,79.00,KHND 021256Z 00000KT 10SM BKN110 26/17 A3004 RMK AO2 LTG DSNT SE AND S SLP160 T02610167,M
TPH,2023-08-02 12:56,-117.0904,38.0505,1654.00,65.00,56.00,72.62,0.00,0.00,0.00,30.21,1015.40,10.00,M,CLR,M,M,M,M,M,M,M,M,M,M,M,M,M,M,65.00,KTPH 021256Z AUTO 00000KT 10SM CLR 18/13 A3021 RMK AO2 SLP154 T01830133,M
LAS,2023-08-02 12:56,-115.1634,36.0719,663.00,80.00,65.00,60.24,0.00,0.00,0.00,30.00,1013.40,10.00,M,SCT,BKN,M,M,11000.00,15000.00,M,M,M,M,M,M,M,M,M,81.84,KLAS 021256Z 00000KT 10SM SCT110 BKN150 27/18 A3000 RMK AO2 LTG DSNT S SLP134 TSE06 VIRGA DSNT E-SE TCU DSNT SE T02670183 $,M
BAM,2023-08-02 13:10,-116.8743,40.5990,1382.36,71.60,51.80,49.64,100.00,5.00,0.00,30.13,M,10.00,M,CLR,M,M,M,M,M,M,M,M,M,M,M,M,M,M,71.60,KBAM 021310Z AUTO 10005KT 10SM CLR 22/11 A3013 RMK AO1,M
BVU,2023-08-02 13:15,-114.8611,35.9475,671.00,75.20,69.80,83.32,320.00,3.00,0.00,29.99,M,7.00,M,FEW,SCT,BKN,M,3700.00,4400.00,7000.00,M,-RA,M,M,M,M,M,M,75.20,KBVU 021315Z AUTO 32003KT 7SM -RA FEW037 SCT044 BKN070 24/21 A2999 RMK AO2 LTG DSNT NE AND SW,M
CXP,2023-08-02 13:15,-119.7326,39.1923,1431.00,60.80,42.80,51.45,0.00,0.00,0.00,30.16,M,10.00,M,CLR,M,M,M,M,M,M,M,M,M,M,M,M,M,M,60.80,KCXP 021315Z AUTO 00000KT 10SM CLR 16/06 A3016 RMK AO2,M
RTS,2023-08-02 13:15,-119.8764,39.6682,1539.00,55.40,35.60,47.16,340.00,7.00,0.00,30.18,M,10.00,M,CLR,M,M,M,M,M,M,M,M,M,M,M,M,M,M,55.40,KRTS 021315Z AUTO 34007KT 10SM CLR 13/02 A3018 RMK AO2,M
05U,2023-08-02 13:15,-116.0051,39.6042,1811.23,60.80,55.40,82.37,M,M,0.00,30.26,M,10.00,M,M,M,M,M,M,M,M,M,M,M,M,M,M,M,M,60.80,K05U 021315Z AUTO 10SM 16/13 A3026 RMK A01,M
MEV,2023-08-02 13:15,-119.7500,38.9963,1441.42,50.00,41.00,71.07,0.00,0.00,0.00,30.15,M,10.00,M,CLR,M,M,M,M,M,M,M,M,M,M,M,M,M,M,50.00,KMEV 021315Z AUTO 00000KT 10SM CLR 10/05 A3015 RMK AO2,M
HTH,2023-08-02 13:15,-118.6315,38.5448,1282.89,64.40,48.20,55.63,110.00,3.00,0.00,30.10,M,10.00,M,CLR,M,M,M,M,M,M,M,M,M,M,M,M,M,M,64.40,KHTH 021315Z AUTO 11003KT 10SM CLR 18/09 A3010 RMK A01,M
10U,2023-08-02 13:15,-116.1876,41.9532,1637.00,66.20,46.40,48.83,90.00,5.00,0.00,30.17,M,10.00,M,BKN,M,M,M,12000.00,M,M,M,M,M,M,M,M,M,M,66.20,K10U 021315Z AUTO 09005KT 10SM BKN120 19/08 A3017 RMK AO2,M
TMT,2023-08-02 13:15,-117.1971,39.4643,1749.34,62.00,46.80,57.42,320.00,3.00,0.00,30.22,M,M,M,OVC,M,M,M,12000.00,M,M,M,M,M,M,M,M,M,M,62.00,KTMT 021315Z AUTO 32003KT OVC120 17/08 A3022 RMK AO2 T01670082 PWINO,M
05U,2023-08-02 13:30,-116.0051,39.6042,1811.23,62.60,55.40,77.29,M,M,0.00,30.26,M,10.00,M,M,M,M,M,M,M,M,M,M,M,M,M,M,M,M,62.60,K05U 021330Z AUTO 10SM 17/13 A3026 RMK A01,M
BAM,2023-08-02 13:30,-116.8743,40.5990,1382.36,69.80,53.60,56.38,130.00,4.00,0.00,30.13,M,10.00,M,CLR,M,M,M,M,M,M,M,M,M,M,M,M,M,M,69.80,KBAM 021330Z AUTO 13004KT 10SM CLR 21/12 A3013 RMK AO1,M
BVU,2023-08-02 13:35,-114.8611,35.9475,671.00,75.20,69.80,83.32,0.00,0.00,0.00,30.00,M,10.00,M,FEW,FEW,OVC,M,4000.00,5000.00,11000.00,M,VCTS,M,M,M,M,M,M,75.20,KBVU 021335Z AUTO 00000KT 10SM VCTS FEW040 FEW050 OVC110 24/21 A3000 RMK AO2 LTG DSNT ALQDS,M
CXP,2023-08-02 13:35,-119.7326,39.1923,1431.00,60.80,44.60,55.12,0.00,0.00,0.00,30.16,M,10.00,M,CLR,M,M,M,M,M,M,M,M,M,M,M,M,M,M,60.80,KCXP 021335Z AUTO 00000KT 10SM CLR 16/07 A3016 RMK AO2,M
RTS,2023-08-02 13:35,-119.8764,39.6682,1539.00,55.40,35.60,47.16,340.00,8.00,0.00,30.18,M,10.00,M,CLR,M,M,M,M,M,M,M,M,M,M,M,M,M,M,55.40,KRTS 021335Z AUTO 34008KT 10SM CLR 13/02 A3018 RMK AO2,M
MEV,2023-08-02 13:35,-119.7500,38.9963,1441.42,51.80,42.80,71.26,0.00,0.00,0.00,30.15,M,8.00,M,CLR,M,M,M,M,M,M,M,M,M,M,M,M,M,M,51.80,KMEV 021335Z AUTO 00000KT 8SM CLR 11/06 A3015 RMK AO2,M
HTH,2023-08-02 13:35,-118.6315,38.5448,1282.89,64.40,50.00,59.50,100.00,3.00,0.00,30.11,M,10.00,M,FEW,M,M,M,11000.00,M,M,M,M,M,M,M,M,M,M,64.40,KHTH 021335Z AUTO 10003KT 10SM FEW110 18/10 A3011 RMK A01,M
10U,2023-08-02 13:35,-116.1876,41.9532,1637.00,64.40,48.20,55.63,140.00,4.00,0.00,30.18,M,10.00,M,FEW,M,M,M,12000.00,M,M,M,M,M,M,M,M,M,M,64.40,K10U 021335Z AUTO 14004KT 10SM FEW120 18/09 A3018 RMK AO2,M
TMT,2023-08-02 13:35,-117.1971,39.4643,1749.34,62.00,47.30,58.51,280.00,3.00,0.00,30.22,M,M,M,OVC,M,M,M,11000.00,M,M,M,M,M,M,M,M,M,M,62.00,KTMT 021335Z AUTO 28003KT OVC110 17/09 A3022 RMK AO2 T01670085 PWINO,M
NFL,2023-08-02 13:46,-118.7010,39.4166,1199.00,67.00,40.00,37.16,210.00,4.00,0.00,30.07,M,10.00,M,SCT,SCT,BKN,M,10000.00,15000.00,22000.00,M,M,M,M,M,M,M,M,67.00,KNFL 021346Z 21004KT 10SM SCT100 SCT150 BKN220 19/04 A3007 RMK AO2 T01940044,M
BAM,2023-08-02 13:50,-116.8743,40.5990,1382.36,68.00,53.60,59.97,120.00,3.00,0.00,30.13,M,10.00,M,CLR,M,M,M,M,M,M,M,M,M,M,M,M,M,M,68.00,KBAM 021350Z AUTO 12003KT 10SM CLR 20/12 A3013 RMK AO1,M
P68,2023-08-02 13:53,-116.0056,39.6014,1993.00,62.00,55.00,77.81,170.00,5.00,0.00,30.24,1016.50,M,M,M,M,M,M,M,M,M,M,M,M,M,M,M,M,M,62.00,KP68 021353Z AUTO 17005KT 17/13 A3024 RMK AO1 SLP165 T01670128,M
DRA,2023-08-02 13:53,-116.0278,36.6206,1009.00,74.00,60.00,61.62,50.00,10.00,T,30.09,1013.80,10.00,M,BKN,M,M,M,11000.00,M,M,M,M,M,M,M,M,M,M,74.00,KDRA 021353Z AUTO 05010KT 10SM BKN110 23/16 A3009 RMK AO2 RAE19 SLP138 P0000 T02330156,M
ELY,2023-08-02 13:53,-114.8453,39.2950,1909.00,56.00,55.00,96.43,190.00,8.00,0.00,30.28,1017.70,9.00,M,CLR,M,M,M,M,M,M,M,M,M,M,M,M,M,M,56.00,KELY 021353Z AUTO 19008KT 9SM CLR 13/13 A3028 RMK AO2 SLP177 T01330128 $,M
VGT,2023-08-02 13:53,-115.1933,36.2111,667.00,80.00,64.00,58.17,310.00,11.00,0.00,30.00,1015.20,10.00,M,OVC,M,M,M,10000.00,M,M,M,M,M,M,M,M,M,M,81.62,KVGT 021353Z 31011KT 10SM OVC100 27/18 A3000 RMK AO2 LTG DSNT SE SLP152 T02670178,M
LOL,2023-08-02 13:53,-118.5701,40.0684,1192.43,64.00,38.00,38.15,120.00,5.00,0.00,30.06,1013.80,10.00,M,CLR,M,M,M,M,M,M,M,M,M,M,M,M,M,M,64.00,KLOL 021353Z AUTO 12005KT 10SM CLR 18/03 A3006 RMK AO2 SLP138 T01780033,M
BVU,2023-08-02 13:55,-114.8611,35.9475,671.00,75.20,69.80,83.32,130.00,4.00,0.00,30.00,M,10.00,M,FEW,SCT,BKN,M,5000.00,7000.00,11000.00,M,VCTS,M,M,M,M,M,M,75.20,KBVU 021355Z AUTO 13004KT 10SM VCTS FEW050 SCT070 BKN110 24/21 A3000 RMK AO2 LTG DSNT ALQDS,M
CXP,2023-08-02 13:55,-119.7326,39.1923,1431.00,60.80,44.60,55.12,320.00,4.00,0.00,30.17,M,10.00,M,CLR,M,M,M,M,M,M,M,M,M,M,M,M,M,M,60.80,KCXP 021355Z AUTO 32004KT 10SM CLR 16/07 A3017 RMK AO2,M
INS,2023-08-02 13:55,-115.6733,36.5872,955.00,70.70,65.00,82.17,120.00,7.00,0.03,30.09,1014.50,10.00,M,OVC,M,M,M,9000.00,M,M,M,-DZ,M,M,M,M,M,M,70.70,KINS 021355Z AUTO 12007KT 10SM -DZ OVC090 22/18 A3009 RMK AO2 RAE47DZB47 SLP145 P0003 T02150183 $,M
RNO,2023-08-02 13:55,-119.7711,39.4839,1341.00,66.00,43.00,43.20,250.00,5.00,0.00,30.14,1014.90,10.00,M,FEW,SCT,SCT,M,10000.00,18000.00,25000.00,M,M,M,M,M,M,M,M,66.00,KRNO 021355Z 25005KT 10SM FEW100 SCT180 SCT250 19/06 A3014 RMK AO2 SLP149 T01890061,M
LSV,2023-08-02 13:55,-115.0343,36.2362,570.00,80.60,64.40,57.84,220.00,10.00,0.00,29.96,1012.10,10.00,M,FEW,FEW,M,M,12000.00,15000.00,M,M,M,M,M,M,M,M,M,82.27,KLSV 021355Z AUTO 22010KT 10SM FEW120 FEW150 27/18 A2996 RMK AO2 LTG DSNT NE-SE SLP121 T02700180 $,M
RTS,2023-08-02 13:55,-119.8764,39.6682,1539.00,55.40,35.60,47.16,350.00,7.00,0.00,30.18,M,10.00,M,CLR,M,M,M,M,M,M,M,M,M,M,M,M,M,M,55.40,KRTS 021355Z AUTO 35007KT 10SM CLR 13/02 A3018 RMK AO2,M
05U,2023-08-02 13:55,-116.0051,39.6042,1811.23,62.60,55.40,77.29,M,M,0.00,30.26,M,10.00,M,M,M,M,M,M,M,M,M,M,M,M,M,M,M,M,62.60,K05U 021355Z AUTO 10SM 17/13 A3026 RMK A01,M
MEV,2023-08-02 13:55,-119.7500,38.9963,1441.42,51.80,41.00,66.48,110.00,4.00,0.00,30.15,M,10.00,M,CLR,M,M,M,M,M,M,M,M,M,M,M,M,M,M,51.80,KMEV 021355Z AUTO 11004KT 10SM CLR 11/05 A3015 RMK AO2,M
HTH,2023-08-02 13:55,-118.6315,38.5448,1282.89,64.40,46.40,51.98,100.00,6.00,0.00,30.11,M,10.00,M,FEW,M,M,M,11000.00,M,M,M,M,M,M,M,M,M,M,64.40,KHTH 021355Z AUTO 10006KT 10SM FEW110 18/08 A3011 RMK A01,M
TMT,2023-08-02 13:55,-117.1971,39.4643,1749.34,62.40,47.70,58.57,200.00,4.00,0.00,30.22,M,M,M,OVC,M,M,M,12000.00,M,M,M,M,M,M,M,M,M,M,62.40,KTMT 021355Z AUTO 20004KT OVC120 17/09 A3022 RMK AO2 T01690087 PWINO,M
10U,2023-08-02 13:55,-116.1876,41.9532,1637.00,66.20,48.20,52.25,140.00,5.00,0.00,30.17,M,10.00,M,FEW,M,M,M,11000.00,M,M,M,M,M,M,M,M,M,M,66.20,K10U 021355Z AUTO 14005KT 10SM FEW110 19/09 A3017 RMK AO2,M
EKO,2023-08-02 13:56,-115.7860,40.8242,1367.00,63.00,52.00,67.29,70.00,5.00,0.00,30.19,1017.30,10.00,M,BKN,M,M,M,10000.00,M,M,M,M,M,M,M,M,M,M,63.00,KEKO 021356Z AUTO 07005KT 10SM BKN100 17/11 A3019 RMK AO2 SLP173 T01720111,M
WMC,2023-08-02 13:56,-117.8072,40.9019,1315.00,64.00,43.00,46.32,190.00,4.00,0.00,30.09,1013.70,10.00,M,CLR,M,M,M,M,M,M,M,M,M,M,M,M,M,M,64.00,KWMC 021356Z AUTO 19004KT 10SM CLR 18/06 A3009 RMK AO2 SLP137 T01780061,M
NFL,2023-08-02 13:56,-118.7010,39.4166,1199.00,67.00,39.00,35.74,200.00,4.00,0.00,30.07,1015.20,10.00,M,SCT,SCT,BKN,M,10000.00,15000.00,22000.00,M,M,M,M,M,M,M,M,67.00,KNFL 021356Z 20004KT 10SM SCT100 SCT150 BKN220 19/04 A3007 RMK AO2 SLP152 T01940039,M
HND,2023-08-02 13:56,-115.1344,35.9729,742.79,79.00,62.00,56.03,0.00,0.00,0.00,30.04,1016.30,10.00,M,SCT,M,M,M,11000.00,M,M,M,M,M,M,M,M,M,M,79.00,KHND 021356Z 00000KT 10SM SCT110 26/17 A3004 RMK AO2 LTG DSNT E-S SLP163 T02610167,M
TPH,2023-08-02 13:56,-117.0904,38.0505,1654.00,66.00,55.00,67.64,M,3.00,0.00,30.22,1015.40,10.00,M,FEW,BKN,M,M,9000.00,12000.00,M,M,M,M,M,M,M,M,M,66.00,KTPH 021356Z AUTO VRB03KT 10SM FEW090 BKN120 19/13 A3022 RMK AO2 SLP154 T01890128,M
LAS,2023-08-02 13:56,-115.1634,36.0719,663.00,81.00,62.00,52.48,320.00,5.00,0.00,30.01,1014.10,10.00,M,SCT,BKN,BKN,M,11000.00,15000.00,20000.00,M,M,M,M,M,M,M,M,82.04,KLAS 021356Z 32005KT 10SM SCT110 BKN150 BKN200 27/17 A3001 RMK AO2 LTG DSNT E AND S SLP141 VIRGA DSNT E-SE T02720167 $,M
05U,2023-08-02 14:10,-116.0051,39.6042,1811.23,62.60,55.40,77.29,M,M,0.00,30.26,M,10.00,M,M,M,M,M,M,M,M,M,M,M,M,M,M,M,M,62.60,K05U 021410Z AUTO 10SM 17/13 A3026 RMK A01,M
BAM,2023-08-02 14:10,-116.8743,40.5990,1382.36,68.00,53.60,59.97,140.00,4.00,0.00,30.13,M,10.00,M,CLR,M,M,M,M,M,M,M,M,M,M,M,M,M,M,68.00,KBAM 021410Z AUTO 14004KT 10SM CLR 20/12 A3013 RMK AO1,M
BVU,2023-08-02 14:15,-114.8611,35.9475,671.00,75.20,69.80,83.32,0.00,0.00,0.00,30.01,M,10.00,M,FEW,FEW,SCT,M,5500.00,7000.00,10000.00,M,VCTS,M,M,M,M,M,M,75.20,KBVU 021415Z AUTO 00000KT 10SM VCTS FEW055 FEW070 SCT100 24/21 A3001 RMK AO2 LTG DSNT ALQDS,M
CXP,2023-08-02 14:15,-119.7326,39.1923,1431.00,64.40,42.80,45.32,0.00,0.00,0.00,30.17,M,10.00,M,CLR,M,M,M,M,M,M,M,M,M,M,M,M,M,M,64.40,KCXP 021415Z AUTO 00000KT 10SM CLR 18/06 A3017 RMK AO2,M
RTS,2023-08-02 14:15,-119.8764,39.6682,1539.00,60.80,37.40,41.71,360.00,3.00,0.00,30.19,M,10.00,M,CLR,M,M,M,M,M,M,M,M,M,M,M,M,M,M,60.80,KRTS 021415Z AUTO 36003KT 10SM CLR 16/03 A3019 RMK AO2,M
MEV,2023-08-02 14:15,-119.7500,38.9963,1441.42,59.00,42.80,54.86,0.00,0.00,0.00,30.16,M,10.00,M,CLR,M,M,M,M,M,M,M,M,M,M,M,M,M,M,59.00,KMEV 021415Z AUTO 00000KT 10SM CLR 15/06 A3016 RMK AO2,M
HTH,2023-08-02 14:15,-118.6315,38.5448,1282.89,68.00,46.40,45.88,0.00,0.00,0.00,30.12,M,10.00,M,CLR,M,M,M,M,M,M,M,M,M,M,M,M,M,M,68.00,KHTH 021415Z AUTO 00000KT 10SM CLR 20/08 A3012 RMK A01,M
10U,2023-08-02 14:15,-116.1876,41.9532,1637.00,68.00,48.20,49.10,140.00,4.00,0.00,30.18,M,10.00,M,BKN,M,M,M,11000.00,M,M,M,M,M,M,M,M,M,M,68.00,K10U 021415Z AUTO 14004KT 10SM BKN110 20/09 A3018 RMK AO2,M
TMT,2023-08-02 14:15,-117.1971,39.4643,1749.34,62.20,47.70,58.98,210.00,3.00,0.00,30.22,M,M,M,OVC,M,M,M,12000.00,M,M,M,M,M,M,M,M,M,M,62.20,KTMT 021415Z AUTO 21003KT OVC120 17/09 A3022 RMK AO2 LTG DSNT SE T01680087 PWINO,M
BAM,2023-08-02 14:30,-116.8743,40.5990,1382.36,68.00,53.60,59.97,170.00,3.00,0.00,30.13,M,10.00,M,CLR,M,M,M,M,M,M,M,M,M,M,M,M,M,M,68.00,KBAM 021430Z AUTO 17003KT 10SM CLR 20/12 A3013 RMK AO1,M
BVU,2023-08-02 14:35,-114.8611,35.9475,671.00,77.00,68.00,73.78,0.00,0.00,0.00,30.03,M,9.00,M,FEW,SCT,BKN,M,4400.00,5500.00,11000.00,M,VCTS DZ,M,M,M,M,M,M,77.00,KBVU 021435Z AUTO 00000KT 9SM VCTS DZ FEW044 SCT055 BKN110 25/20 A3003 RMK AO2 LTG DSNT N-SE,M
CXP,2023-08-02 14:35,-119.7326,39.1923,1431.00,66.20,42.80,42.57,0.00,0.00,0.00,30.17,M,10.00,M,CLR,M,M,M,M,M,M,M,M,M,M,M,M,M,M,66.20,KCXP 021435Z AUTO 00000KT 10SM CLR 19/06 A3017 RMK AO2,M
RTS,2023-08-02 14:35,-119.8764,39.6682,1539.00,64.40,37.40,36.74,340.00,4.00,0.00,30.19,M,10.00,M,CLR,M,M,M,M,M,M,M,M,M,M,M,M,M,M,64.40,KRTS 021435Z AUTO 34004KT 10SM CLR 18/03 A3019 RMK AO2,M
05U,2023-08-02 14:35,-116.0051,39.6042,1811.23,68.00,53.60,59.97,M,M,0.00,30.26,M,10.00,M,M,M,M,M,M,M,M,M,M,M,M,M,M,M,M,68.00,K05U 021435Z AUTO 10SM 20/12 A3026 RMK A01,M
MEV,2023-08-02 14:35,-119.7500,38.9963,1441.42,60.80,44.60,55.12,0.00,0.00,0.00,30.16,M,10.00,M,CLR,M,M,M,M,M,M,M,M,M,M,M,M,M,M,60.80,KMEV 021435Z AUTO 00000KT 10SM CLR 16/07 A3016 RMK AO2,M
HTH,2023-08-02 14:35,-118.6315,38.5448,1282.89,69.80,44.60,40.29,0.00,0.00,0.00,30.12,M,10.00,M,CLR,M,M,M,M,M,M,M,M,M,M,M,M,M,M,69.80,KHTH 021435Z AUTO 00000KT 10SM CLR 21/07 A3012 RMK A01,M
TMT,2023-08-02 14:35,-117.1971,39.4643,1749.34,65.70,49.30,55.40,0.00,0.00,0.00,30.23,M,M,M,OVC,M,M,M,12000.00,M,M,M,M,M,M,M,M,M,M,65.70,KTMT 021435Z AUTO 00000KT OVC120 19/10 A3023 RMK AO2 T01870096 PWINO,M
10U,2023-08-02 14:35,-116.1876,41.9532,1637.00,68.00,48.20,49.10,130.00,7.00,0.00,30.18,M,10.00,M,BKN,M,M,M,11000.00,M,M,M,M,M,M,M,M,M,M,68.00,K10U 021435Z AUTO 13007KT 10SM BKN110 20/09 A3018 RMK AO2,M
BAM,2023-08-02 14:50,-116.8743,40.5990,1382.36,69.80,53.60,56.38,160.00,3.00,0.00,30.13,M,10.00,M,CLR,M,M,M,M,M,M,M,M,M,M,M,M,M,M,69.80,KBAM 021450Z AUTO 16003KT 10SM CLR 21/12 A3013 RMK AO1,M
P68,2023-08-02 14:53,-116.0056,39.6014,1993.00,66.00,54.00,65.21,150.00,5.00,0.00,30.24,1016.60,M,M,M,M,M,M,M,M,M,M,M,M,M,M,M,M,M,66.00,KP68 021453Z AUTO 15005KT 19/12 A3024 RMK AO1 SLP166 T01890122 51001,M
DRA,2023-08-02 14:53,-116.0278,36.6206,1009.00,73.00,60.00,63.73,40.00,12.00,0.00,30.11,1014.80,10.00,M,CLR,M,M,M,M,M,M,M,M,M,M,M,M,M,M,73.00,KDRA 021453Z AUTO 04012KT 10SM CLR 23/16 A3011 RMK AO2 SLP148 60000 T02280156 51015,M
ELY,2023-08-02 14:53,-114.8453,39.2950,1909.00,59.00,57.00,93.07,300.00,3.00,0.00,30.29,1017.80,9.00,M,SCT,M,M,M,10000.00,M,M,M,M,M,M,M,M,M,M,59.00,KELY 021453Z AUTO 30003KT 9SM SCT100 15/14 A3029 RMK AO2 SLP178 T01500139 53004 $,M
VGT,2023-08-02 14:53,-115.1933,36.2111,667.00,82.00,63.00,52.62,320.00,11.00,0.00,30.01,1015.80,10.00,M,CLR,M,M,M,M,M,M,M,M,M,M,M,M,M,M,83.17,KVGT 021453Z 32011KT 10SM CLR 28/17 A3001 RMK AO2 SLP158 T02780172 53009,M
LOL,2023-08-02 14:53,-118.5701,40.0684,1192.43,70.00,40.00,33.52,70.00,5.00,0.00,30.08,1014.10,10.00,M,CLR,M,M,M,M,M,M,M,M,M,M,M,M,M,M,70.00,KLOL 021453Z AUTO 07005KT 10SM CLR 21/04 A3008 RMK AO2 SLP141 T02110044 53011,M
BVU,2023-08-02 14:55,-114.8611,35.9475,671.00,77.00,69.80,78.48,0.00,0.00,0.00,30.04,M,10.00,M,FEW,FEW,M,M,5500.00,7000.00,M,M,VCTS,M,M,M,M,M,M,77.00,KBVU 021455Z AUTO 00000KT 10SM VCTS FEW055 FEW070 25/21 A3004 RMK AO2 LTG DSNT ALQDS,M
CXP,2023-08-02 14:55,-119.7326,39.1923,1431.00,68.00,42.80,40.00,0.00,0.00,0.00,30.17,M,10.00,M,CLR,M,M,M,M,M,M,M,M,M,M,M,M,M,M,68.00,KCXP 021455Z AUTO 00000KT 10SM CLR 20/06 A3017 RMK AO2,M
RNO,2023-08-02 14:55,-119.7711,39.4839,1341.00,70.00,43.00,37.64,260.00,5.00,0.00,30.15,1014.90,10.00,M,SCT,M,M,M,23000.00,M,M,M,M,M,M,M,M,M,M,70.00,KRNO 021455Z 26005KT 10SM SCT230 21/06 A3015 RMK AO2 SLP149 T02110061 51007,M
RTS,2023-08-02 14:55,-119.8764,39.6682,1539.00,66.20,35.60,32.14,10.00,3.00,0.00,30.19,M,10.00,M,CLR,M,M,M,M,M,M,M,M,M,M,M,M,M,M,66.20,KRTS 021455Z AUTO 01003KT 10SM CLR 19/02 A3019 RMK AO2,M
05U,2023-08-02 14:55,-116.0051,39.6042,1811.23,66.20,53.60,63.82,M,M,0.00,30.26,M,10.00,M,M,M,M,M,M,M,M,M,M,M,M,M,M,M,M,66.20,K05U 021455Z AUTO 10SM 19/12 A3026 RMK A01,M
MEV,2023-08-02 14:55,-119.7500,38.9963,1441.42,64.40,42.80,45.32,0.00,0.00,0.00,30.16,M,10.00,M,CLR,M,M,M,M,M,M,M,M,M,M,M,M,M,M,64.40,KMEV 021455Z AUTO 00000KT 10SM CLR 18/06 A3016 RMK AO2,M
HTH,2023-08-02 14:55,-118.6315,38.5448,1282.89,71.60,42.80,35.37,0.00,0.00,0.00,30.12,M,10.00,M,SCT,M,M,M,11000.00,M,M,M,M,M,M,M,M,M,M,71.60,KHTH 021455Z AUTO 00000KT 10SM SCT110 22/06 A3012 RMK A01,M
LSV,2023-08-02 14:55,-115.0343,36.2362,570.00,81.30,62.40,52.70,110.00,4.00,0.00,29.99,1013.30,10.00,M,FEW,M,M,M,14000.00,M,M,M,M,M,M,M,M,M,M,82.39,KLSV 021455Z AUTO 11004KT 10SM FEW140 27/17 A2999 RMK AO2 LTG DSNT NE-E SLP133 T02740169 53012 $,M
TMT,2023-08-02 14:55,-117.1971,39.4643,1749.34,67.00,50.00,54.35,0.00,0.00,0.00,30.23,M,M,M,SCT,M,M,M,12000.00,M,M,M,M,M,M,M,M,M,M,67.00,KTMT 021455Z AUTO 00000KT SCT120 20/10 A3023 RMK AO2 LTG DSNT SE T01950100 PWINO,M
10U,2023-08-02 14:55,-116.1876,41.9532,1637.00,68.00,48.20,49.10,110.00,7.00,0.00,30.18,M,10.00,M,OVC,M,M,M,11000.00,M,M,M,M,M,M,M,M,M,M,68.00,K10U 021455Z AUTO 11007KT 10SM OVC110 20/09 A3018 RMK AO2,M
INS,2023-08-02 14:55,-115.6733,36.5872,955.00,73.00,63.30,71.62,350.00,6.00,0.01,30.11,1015.60,10.00,M,FEW,SCT,BKN,M,7000.00,9500.00,12000.00,M,-DZ,M,M,M,M,M,M,73.00,KINS 021455Z AUTO 35006KT 10SM -DZ FEW070 SCT095 BKN120 23/17 A3011 RMK AO2 DZE07RAB07E32DZB32 SLP156 P0001 60008 T02270174 50015 $,M
EKO,2023-08-02 14:56,-115.7860,40.8242,1367.00,66.00,54.00,65.21,80.00,4.00,0.00,30.19,1017.60,10.00,M,OVC,M,M,M,11000.00,M,M,M,M,M,M,M,M,M,M,66.00,KEKO 021456Z AUTO 08004KT 10SM OVC110 19/12 A3019 RMK AO2 SLP176 T01890122 53008,M
WMC,2023-08-02 14:56,-117.8072,40.9019,1315.00,75.00,45.00,34.31,150.00,4.00,0.00,30.10,1013.70,10.00,M,CLR,M,M,M,M,M,M,M,M,M,M,M,M,M,M,75.00,KWMC 021456Z AUTO 15004KT 10SM CLR 24/07 A3010 RMK AO2 SLP137 T02390072 53005,M
NFL,2023-08-02 14:56,-118.7010,39.4166,1199.00,74.00,38.00,27.08,270.00,4.00,0.00,30.09,1015.60,10.00,M,FEW,SCT,SCT,SCT,8000.00,12000.00,18000.00,22000.00,M,M,M,M,M,M,M,74.00,KNFL 021456Z 27004KT 10SM FEW080 SCT120 SCT180 SCT220 23/03 A3009 RMK AO2 SLP156 T02330033 51011,M
HND,2023-08-02 14:56,-115.1344,35.9729,742.79,81.00,62.00,52.48,350.00,4.00,0.00,30.07,1017.20,10.00,M,CLR,M,M,M,M,M,M,M,M,M,M,M,M,M,M,82.04,KHND 021456Z 35004KT 10SM CLR 27/17 A3007 RMK AO2 LTG DSNT E-S SLP172 T02720167 53013,M
TPH,2023-08-02 14:56,-117.0904,38.0505,1654.00,66.00,57.00,72.72,160.00,10.00,0.00,30.24,1016.30,10.00,M,FEW,M,M,M,10000.00,M,M,M,M,M,M,M,M,M,M,66.00,KTPH 021456Z AUTO 16010KT 10SM FEW100 19/14 A3024 RMK AO2 SLP163 T01890139 53008,M
LAS,2023-08-02 14:56,-115.1634,36.0719,663.00,83.00,60.00,45.81,0.00,0.00,0.00,30.03,1014.70,10.00,M,FEW,BKN,BKN,M,11000.00,15000.00,24000.00,M,M,M,M,M,M,M,M,83.19,KLAS 021456Z 00000KT 10SM FEW110 BKN150 BKN240 28/16 A3003 RMK AO2 LTG DSNT SE SLP147 VIRGA DSNT SE CB DSNT E-SE T02830156 53012 $,M
INS,2023-08-02 15:04,-115.6733,36.5872,955.00,73.40,62.60,68.94,0.00,0.00,0.00,30.11,1015.60,10.00,M,FEW,FEW,SCT,M,7000.00,9500.00,12000.00,M,M,M,M,M,M,M,M,73.40,KINS 021504Z AUTO 00000KT 10SM FEW070 FEW095 SCT120 23/17 A3011 RMK AO2 DZE04 SLP156 $,M
05U,2023-08-02 15:10,-116.0051,39.6042,1811.23,66.20,53.60,63.82,M,M,0.00,30.26,M,10.00,M,M,M,M,M,M,M,M,M,M,M,M,M,M,M,M,66.20,K05U 021510Z AUTO 10SM 19/12 A3026 RMK A01,M
BAM,2023-08-02 15:10,-116.8743,40.5990,1382.36,73.40,53.60,49.90,0.00,0.00,0.00,30.14,M,10.00,M,CLR,M,M,M,M,M,M,M,M,M,M,M,M,M,M,73.40,KBAM 021510Z AUTO 00000KT 10SM CLR 23/12 A3014 RMK AO1,M
BVU,2023-08-02 15:15,-114.8611,35.9475,671.00,75.20,71.60,88.59,350.00,4.00,0.00,30.04,M,8.00,M,SCT,SCT,BKN,M,5500.00,7500.00,9000.00,M,-RA,M,M,M,M,M,M,75.20,KBVU 021515Z AUTO 35004KT 8SM -RA SCT055 SCT075 BKN090 24/22 A3004 RMK AO2 LTG DSNT NE-SE,M
CXP,2023-08-02 15:15,-119.7326,39.1923,1431.00,69.80,42.80,37.61,180.00,4.00,0.00,30.18,M,10.00,M,CLR,M,M,M,M,M,M,M,M,M,M,M,M,M,M,69.80,KCXP 021515Z AUTO 18004KT 10SM CLR 21/06 A3018 RMK AO2,M
RTS,2023-08-02 15:15,-119.8764,39.6682,1539.00,68.00,37.40,32.43,360.00,4.00,0.00,30.19,M,9.00,M,CLR,M,M,M,M,M,M,M,M,M,M,M,M,M,M,68.00,KRTS 021515Z AUTO 36004KT 9SM CLR 20/03 A3019 RMK AO2,M
MEV,2023-08-02 15:15,-119.7500,38.9963,1441.42,66.20,44.60,45.60,0.00,0.00,0.00,30.17,M,9.00,M,CLR,M,M,M,M,M,M,M,M,M,M,M,M,M,M,66.20,KMEV 021515Z AUTO 00000KT 9SM CLR 19/07 A3017 RMK AO2,M
HTH,2023-08-02 15:15,-118.6315,38.5448,1282.89,73.40,42.80,33.29,0.00,0.00,0.00,30.13,M,10.00,M,SCT,M,M,M,11000.00,M,M,M,M,M,M,M,M,M,M,73.40,KHTH 021515Z AUTO 00000KT 10SM SCT110 23/06 A3013 RMK A01,M
TMT,2023-08-02 15:15,-117.1971,39.4643,1749.34,68.00,50.00,52.51,230.00,5.00,0.00,30.24,M,M,M,CLR,M,M,M,M,M,M,M,M,M,M,M,M,M,M,68.00,KTMT 021515Z AUTO 23005KT CLR 20/10 A3024 RMK AO2 T02000099 PWINO,M
10U,2023-08-02 15:15,-116.1876,41.9532,1637.00,68.00,50.00,52.51,120.00,8.00,0.00,30.19,M,10.00,M,OVC,M,M,M,11000.00,M,M,M,M,M,M,M,M,M,M,68.00,K10U 021515Z AUTO 12008KT 10SM OVC110 20/10 A3019 RMK AO2,M
BAM,2023-08-02 15:30,-116.8743,40.5990,1382.36,77.00,53.60,44.25,40.00,4.00,0.00,30.13,M,10.00,M,SCT,M,M,M,12000.00,M,M,M,M,M,M,M,M,M,M,77.00,KBAM 021530Z AUTO 04004KT 10SM SCT120 25/12 A3013 RMK AO1,M
BVU,2023-08-02 15:35,-114.8611,35.9475,671.00,75.20,69.80,83.32,330.00,5.00,0.00,30.04,M,9.00,M,FEW,SCT,SCT,M,5500.00,6500.00,9000.00,M,VCTS RA,M,M,M,M,M,M,75.20,KBVU 021535Z AUTO 33005KT 9SM VCTS RA FEW055 SCT065 SCT090 24/21 A3004 RMK AO2 LTG DSNT NE-SE,M
CXP,2023-08-02 15:35,-119.7326,39.1923,1431.00,69.80,42.80,37.61,190.00,4.00,0.00,30.18,M,10.00,M,CLR,M,M,M,M,M,M,M,M,M,M,M,M,M,M,69.80,KCXP 021535Z AUTO 19004KT 10SM CLR 21/06 A3018 RMK AO2,M
RTS,2023-08-02 15:35,-119.8764,39.6682,1539.00,69.80,37.40,30.49,M,4.00,0.00,30.19,M,10.00,M,CLR,M,M,M,M,M,M,M,M,M,M,M,M,M,M,69.80,KRTS 021535Z AUTO VRB04KT 10SM CLR 21/03 A3019 RMK AO2,M
05U,2023-08-02 15:35,-116.0051,39.6042,1811.23,68.00,55.40,64.04,M,M,0.00,30.26,M,10.00,M,M,M,M,M,M,M,M,M,M,M,M,M,M,M,M,68.00,K05U 021535Z AUTO 10SM 20/13 A3026 RMK A01,M
MEV,2023-08-02 15:35,-119.7500,38.9963,1441.42,64.40,44.60,48.55,0.00,0.00,0.00,30.17,M,8.00,M,CLR,M,M,M,M,M,M,M,M,M,M,M,M,M,M,64.40,KMEV 021535Z AUTO 00000KT 8SM CLR 18/07 A3017 RMK AO2,M
HTH,2023-08-02 15:35,-118.6315,38.5448,1282.89,75.20,42.80,31.34,0.00,0.00,0.00,30.13,M,10.00,M,CLR,M,M,M,M,M,M,M,M,M,M,M,M,M,M,75.20,KHTH 021535Z AUTO 00000KT 10SM CLR 24/06 A3013 RMK A01,M
TMT,2023-08-02 15:35,-117.1971,39.4643,1749.34,69.00,50.50,51.69,0.00,0.00,0.00,30.24,M,M,M,CLR,M,M,M,M,M,M,M,M,M,M,M,M,M,M,69.00,KTMT 021535Z AUTO 00000KT CLR 21/10 A3024 RMK AO2 T02050103 PWINO,M
10U,2023-08-02 15:35,-116.1876,41.9532,1637.00,69.80,48.20,46.16,120.00,9.00,0.00,30.20,M,10.00,M,OVC,M,M,M,11000.00,M,M,M,M,M,M,M,M,M,M,69.80,K10U 021535Z AUTO 12009KT 10SM OVC110 21/09 A3020 RMK AO2,M
BAM,2023-08-02 15:50,-116.8743,40.5990,1382.36,78.80,51.80,39.02,60.00,4.00,0.00,30.14,M,10.00,M,BKN,M,M,M,12000.00,M,M,M,M,M,M,M,M,M,M,78.80,KBAM 021550Z AUTO 06004KT 10SM BKN120 26/11 A3014 RMK AO1,M
P68,2023-08-02 15:53,-116.0056,39.6014,1993.00,67.00,54.00,62.99,150.00,9.00,0.00,30.23,1016.50,M,M,M,M,M,M,M,M,M,M,M,M,M,M,M,M,M,67.00,KP68 021553Z AUTO 15009KT 19/12 A3023 RMK AO1 SLP165 T01940122,M
DRA,2023-08-02 15:53,-116.0278,36.6206,1009.00,77.00,60.00,55.75,40.00,14.00,0.00,30.12,1015.30,10.00,M,CLR,M,M,M,M,M,M,M,M,M,M,M,M,M,M,77.00,KDRA 021553Z AUTO 04014KT 10SM CLR 25/16 A3012 RMK AO2 SLP153 T02500156,M
ELY,2023-08-02 15:53,-114.8453,39.2950,1909.00,59.00,55.00,86.56,190.00,10.00,0.00,30.30,1018.60,10.00,M,BKN,OVC,M,M,6000.00,7500.00,M,M,M,M,M,M,M,M,M,59.00,KELY 021553Z AUTO 19010KT 10SM BKN060 OVC075 15/13 A3030 RMK AO2 SLP186 T01500128 $,M
VGT,2023-08-02 15:53,-115.1933,36.2111,667.00,84.00,64.00,51.08,20.00,7.00,0.00,30.04,1016.50,10.00,M,CLR,M,M,M,M,M,M,M,M,M,M,M,M,M,M,85.36,KVGT 021553Z 02007KT 10SM CLR 29/18 A3004 RMK AO2 LTG DSNT E SLP165 T02890178,M
LOL,2023-08-02 15:53,-118.5701,40.0684,1192.43,79.00,40.00,24.79,60.00,5.00,0.00,30.08,1013.70,10.00,M,CLR,M,M,M,M,M,M,M,M,M,M,M,M,M,M,79.00,KLOL 021553Z AUTO 06005KT 10SM CLR 26/04 A3008 RMK AO2 SLP137 T02610044,M
BVU,2023-08-02 15:55,-114.8611,35.9475,671.00,77.00,68.00,73.78,320.00,6.00,0.00,30.03,M,10.00,M,CLR,M,M,M,M,M,M,M,VCTS,M,M,M,M,M,M,77.00,KBVU 021555Z AUTO 32006KT 10SM VCTS CLR 25/20 A3003 RMK AO2 LTG DSNT ALQDS,M
CXP,2023-08-02 15:55,-119.7326,39.1923,1431.00,73.40,41.00,31.05,200.00,6.00,0.00,30.18,M,10.00,M,CLR,M,M,M,M,M,M,M,M,M,M,M,M,M,M,73.40,KCXP 021555Z AUTO 20006KT 10SM CLR 23/05 A3018 RMK AO2,M
RNO,2023-08-02 15:55,-119.7711,39.4839,1341.00,75.00,41.00,29.43,320.00,3.00,0.00,30.15,1015.00,10.00,M,SCT,M,M,M,23000.00,M,M,M,M,M,M,M,M,M,M,75.00,KRNO 021555Z 32003KT 10SM SCT230 24/05 A3015 RMK AO2 SLP150 T02390050,M
RTS,2023-08-02 15:55,-119.8764,39.6682,1539.00,71.60,35.60,26.71,0.00,0.00,0.00,30.19,M,10.00,M,CLR,M,M,M,M,M,M,M,M,M,M,M,M,M,M,71.60,KRTS 021555Z AUTO 00000KT 10SM CLR 22/02 A3019 RMK AO2,M
05U,2023-08-02 15:55,-116.0051,39.6042,1811.23,68.00,53.60,59.97,M,M,0.00,30.26,M,10.00,M,M,M,M,M,M,M,M,M,M,M,M,M,M,M,M,68.00,K05U 021555Z AUTO 10SM 20/12 A3026 RMK A01,M
MEV,2023-08-02 15:55,-119.7500,38.9963,1441.42,68.00,44.60,42.85,M,3.00,0.00,30.17,M,10.00,M,CLR,M,M,M,M,M,M,M,M,M,M,M,M,M,M,68.00,KMEV 021555Z AUTO VRB03KT 10SM CLR 20/07 A3017 RMK AO2,M
HTH,2023-08-02 15:55,-118.6315,38.5448,1282.89,77.00,42.80,29.51,0.00,0.00,0.00,30.13,M,10.00,M,CLR,M,M,M,M,M,M,M,M,M,M,M,M,M,M,77.00,KHTH 021555Z AUTO 00000KT 10SM CLR 25/06 A3013 RMK A01,M
INS,2023-08-02 15:55,-115.6733,36.5872,955.00,73.60,63.00,69.45,200.00,3.00,T,30.12,1015.70,10.00,M,BKN,M,M,M,12000.00,M,M,M,M,M,M,M,M,M,M,73.60,KINS 021555Z AUTO 20003KT 10SM BKN120 23/17 A3012 RMK AO2 DZE04 SLP157 P0000 T02310173 $,M
LSV,2023-08-02 15:55,-115.0343,36.2362,570.00,84.60,62.60,47.70,30.00,15.00,0.00,30.01,1013.90,10.00,M,CLR,M,M,M,M,M,M,M,M,M,M,M,M,M,M,85.40,KLSV 021555Z AUTO 03015KT 10SM CLR 29/17 A3001 RMK AO2 LTG DSNT E SLP139 T02920170 $,M
TMT,2023-08-02 15:55,-117.1971,39.4643,1749.34,69.80,49.60,48.64,230.00,4.00,0.00,30.24,M,M,M,CLR,M,M,M,M,M,M,M,M,M,M,M,M,M,M,69.80,KTMT 021555Z AUTO 23004KT CLR 21/10 A3024 RMK AO2 T02100098 PWINO,M
10U,2023-08-02 15:55,-116.1876,41.9532,1637.00,69.80,48.20,46.16,120.00,8.00,0.00,30.20,M,10.00,M,OVC,M,M,M,11000.00,M,M,M,M,M,M,M,M,M,M,69.80,K10U 021555Z AUTO 12008KT 10SM OVC110 21/09 A3020 RMK AO2,M
EKO,2023-08-02 15:56,-115.7860,40.8242,1367.00,71.00,53.00,52.95,M,3.00,0.00,30.19,1016.90,10.00,M,SCT,M,M,M,12000.00,M,M,M,M,M,M,M,M,M,M,71.00,KEKO 021556Z AUTO VRB03KT 10SM SCT120 22/12 A3019 RMK AO2 SLP169 T02170117,M
WMC,2023-08-02 15:56,-117.8072,40.9019,1315.00,79.00,41.00,25.78,0.00,0.00,0.00,30.11,1013.90,10.00,M,CLR,M,M,M,M,M,M,M,M,M,M,M,M,M,M,79.00,KWMC 021556Z AUTO 00000KT 10SM CLR 26/05 A3011 RMK AO2 SLP139 T02610050,M
NFL,2023-08-02 15:56,-118.7010,39.4166,1199.00,79.00,40.00,24.79,M,3.00,0.00,30.09,1015.70,10.00,M,FEW,SCT,SCT,M,8000.00,12000.00,18000.00,M,M,M,M,M,M,M,M,79.00,KNFL 021556Z VRB03KT 10SM FEW080 SCT120 SCT180 26/04 A3009 RMK AO2 SLP157 TCU DSNT NW T02610044,M
HND,2023-08-02 15:56,-115.1344,35.9729,742.79,81.00,63.00,54.36,70.00,4.00,0.00,30.08,1017.60,10.00,M,CLR,M,M,M,M,M,M,M,M,M,M,M,M,M,M,82.28,KHND 021556Z 07004KT 10SM CLR 27/17 A3008 RMK AO2 LTG DSNT E SLP176 T02720172,M
TPH,2023-08-02 15:56,-117.0904,38.0505,1654.00,71.00,54.00,54.92,120.00,9.00,0.00,30.24,1016.20,10.00,15.00,BKN,M,M,M,10000.00,M,M,M,M,M,M,M,M,M,M,71.00,KTPH 021556Z AUTO 12009G15KT 10SM BKN100 22/12 A3024 RMK AO2 SLP162 T02170122,M
LAS,2023-08-02 15:56,-115.1634,36.0719,663.00,83.00,61.00,47.47,20.00,15.00,0.00,30.04,1014.90,10.00,M,FEW,BKN,BKN,M,11000.00,15000.00,24000.00,M,M,M,M,M,M,M,M,83.46,KLAS 021556Z 02015KT 10SM FEW110 BKN150 BKN240 28/16 A3004 RMK AO2 LTG DSNT E SLP149 CB DSNT E TCU DSNT NW T02830161,M
BAM,2023-08-02 16:10,-116.8743,40.5990,1382.36,78.80,51.80,39.02,80.00,3.00,0.00,30.13,M,10.00,M,BKN,M,M,M,12000.00,M,M,M,M,M,M,M,M,M,M,78.80,KBAM 021610Z AUTO 08003KT 10SM BKN120 26/11 A3013 RMK AO1,M
BVU,2023-08-02 16:15,-114.8611,35.9475,671.00,78.80,66.20,65.33,310.00,4.00,0.00,30.03,M,10.00,M,CLR,M,M,M,M,M,M,M,VCTS,M,M,M,M,M,M,78.80,KBVU 021615Z AUTO 31004KT 10SM VCTS CLR 26/19 A3003 RMK AO2 LTG DSNT NE-SE,M
CXP,2023-08-02 16:15,-119.7326,39.1923,1431.00,73.40,42.80,33.29,0.00,0.00,0.00,30.17,M,10.00,M,CLR,M,M,M,M,M,M,M,M,M,M,M,M,M,M,73.40,KCXP 021615Z AUTO 00000KT 10SM CLR 23/06 A3017 RMK AO2,M
RTS,2023-08-02 16:15,-119.8764,39.6682,1539.00,73.40,35.60,25.13,0.00,0.00,0.00,30.19,M,10.00,M,CLR,M,M,M,M,M,M,M,M,M,M,M,M,M,M,73.40,KRTS 021615Z AUTO 00000KT 10SM CLR 23/02 A3019 RMK AO2,M
05U,2023-08-02 16:15,-116.0051,39.6042,1811.23,69.80,53.60,56.38,M,M,0.00,30.26,M,10.00,M,M,M,M,M,M,M,M,M,M,M,M,M,M,M,M,69.80,K05U 021615Z AUTO 10SM 21/12 A3026 RMK A01,M
MEV,2023-08-02 16:15,-119.7500,38.9963,1441.42,69.80,42.80,37.61,330.00,3.00,0.00,30.16,M,10.00,M,CLR,M,M,M,M,M,M,M,M,M,M,M,M,M,M,69.80,KMEV 021615Z AUTO 33003KT 10SM CLR 21/06 A3016 RMK AO2,M
HTH,2023-08-02 16:15,-118.6315,38.5448,1282.89,78.80,46.40,31.90,0.00,0.00,0.00,30.12,M,10.00,M,CLR,M,M,M,M,M,M,M,M,M,M,M,M,M,M,78.80,KHTH 021615Z AUTO 00000KT 10SM CLR 26/08 A3012 RMK A01,M
TMT,2023-08-02 16:15,-117.1971,39.4643,1749.34,69.80,49.00,47.56,240.00,5.00,0.00,30.24,M,M,M,CLR,M,M,M,M,M,M,M,M,M,M,M,M,M,M,69.80,KTMT 021615Z AUTO 24005KT CLR 21/10 A3024 RMK AO2 T02100095 PWINO,M
10U,2023-08-02 16:15,-116.1876,41.9532,1637.00,71.60,48.20,43.42,120.00,9.00,0.00,30.20,M,10.00,M,OVC,M,M,M,11000.00,M,M,M,M,M,M,M,M,M,M,71.60,K10U 021615Z AUTO 12009KT 10SM OVC110 22/09 A3020 RMK AO2,M
05U,2023-08-02 16:30,-116.0051,39.6042,1811.23,69.80,55.40,60.21,M,M,0.00,30.26,M,10.00,M,M,M,M,M,M,M,M,M,M,M,M,M,M,M,M,69.80,K05U 021630Z AUTO 10SM 21/13 A3026 RMK A01,M
BAM,2023-08-02 16:30,-116.8743,40.5990,1382.36,78.80,51.80,39.02,0.00,0.00,0.00,30.13,M,10.00,M,BKN,M,M,M,12000.00,M,M,M,M,M,M,M,M,M,M,78.80,KBAM 021630Z AUTO 00000KT 10SM BKN120 26/11 A3013 RMK AO1,M
BVU,2023-08-02 16:35,-114.8611,35.9475,671.00,80.60,66.20,61.58,120.00,7.00,0.00,30.05,M,10.00,M,CLR,M,M,M,M,M,M,M,M,M,M,M,M,M,M,82.75,KBVU 021635Z AUTO 12007KT 10SM CLR 27/19 A3005 RMK AO2 LTG DSNT NE-SE,M
CXP,2023-08-02 16:35,-119.7326,39.1923,1431.00,75.20,42.80,31.34,240.00,3.00,0.00,30.17,M,10.00,M,CLR,M,M,M,M,M,M,M,M,M,M,M,M,M,M,75.20,KCXP 021635Z AUTO 24003KT 10SM CLR 24/06 A3017 RMK AO2,M
RTS,2023-08-02 16:35,-119.8764,39.6682,1539.00,73.40,37.40,26.98,0.00,0.00,0.00,30.19,M,10.00,M,CLR,M,M,M,M,M,M,M,M,M,M,M,M,M,M,73.40,KRTS 021635Z AUTO 00000KT 10SM CLR 23/03 A3019 RMK AO2,M
MEV,2023-08-02 16:35,-119.7500,38.9963,1441.42,71.60,42.80,35.37,0.00,0.00,0.00,30.16,M,10.00,M,CLR,M,M,M,M,M,M,M,M,M,M,M,M,M,M,71.60,KMEV 021635Z AUTO 00000KT 10SM CLR 22/06 A3016 RMK AO2,M
HTH,2023-08-02 16:35,-118.6315,38.5448,1282.89,78.80,46.40,31.90,0.00,0.00,0.00,30.11,M,10.00,M,CLR,M,M,M,M,M,M,M,M,M,M,M,M,M,M,78.80,KHTH 021635Z AUTO 00000KT 10SM CLR 26/08 A3011 RMK A01,M
TMT,2023-08-02 16:35,-117.1971,39.4643,1749.34,71.20,49.00,45.35,230.00,5.00,0.00,30.23,M,M,M,CLR,M,M,M,M,M,M,M,M,M,M,M,M,M,M,71.20,KTMT 021635Z AUTO 23005KT CLR 22/10 A3023 RMK AO2 LTG DSNT SE T02180095 PWINO,M
10U,2023-08-02 16:35,-116.1876,41.9532,1637.00,71.60,48.20,43.42,120.00,11.00,0.00,30.20,M,10.00,M,SCT,M,M,M,12000.00,M,M,M,M,M,M,M,M,M,M,71.60,K10U 021635Z AUTO 12011KT 10SM SCT120 22/09 A3020 RMK AO2,M
BAM,2023-08-02 16:50,-116.8743,40.5990,1382.36,80.60,50.00,34.41,0.00,0.00,0.00,30.13,M,10.00,M,BKN,M,M,M,12000.00,M,M,M,M,M,M,M,M,M,M,79.88,KBAM 021650Z AUTO 00000KT 10SM BKN120 27/10 A3013 RMK AO1,M
P68,2023-08-02 16:53,-116.0056,39.6014,1993.00,70.00,54.00,56.82,100.00,5.00,0.00,30.23,1015.90,M,M,M,M,M,M,M,M,M,M,M,M,M,M,M,M,M,70.00,KP68 021653Z AUTO 10005KT 21/12 A3023 RMK AO1 SLP159 T02110122,M
DRA,2023-08-02 16:53,-116.0278,36.6206,1009.00,78.00,61.00,55.89,100.00,9.00,0.00,30.11,1015.00,10.00,M,CLR,M,M,M,M,M,M,M,M,M,M,M,M,M,M,78.00,KDRA 021653Z AUTO 10009KT 10SM CLR 26/16 A3011 RMK AO2 SLP150 T02560161,M
ELY,2023-08-02 16:53,-114.8453,39.2950,1909.00,60.00,54.00,80.53,170.00,12.00,T,30.30,1018.00,10.00,M,FEW,M,M,M,8000.00,M,M,M,M,M,M,M,M,M,M,60.00,KELY 021653Z AUTO 17012KT 10SM FEW080 16/12 A3030 RMK AO2 RAB1556E27 SLP180 P0000 T01560122 $,M
VGT,2023-08-02 16:53,-115.1933,36.2111,667.00,85.00,64.00,49.47,90.00,6.00,0.00,30.05,1016.80,10.00,M,CLR,M,M,M,M,M,M,M,M,M,M,M,M,M,M,86.33,KVGT 021653Z 09006KT 10SM CLR 29/18 A3005 RMK AO2 SLP168 T02940178,M
LOL,2023-08-02 16:53,-118.5701,40.0684,1192.43,83.00,36.00,18.60,0.00,0.00,0.00,30.07,1013.30,10.00,M,CLR,M,M,M,M,M,M,M,M,M,M,M,M,M,M,80.50,KLOL 021653Z AUTO 00000KT 10SM CLR 28/02 A3007 RMK AO2 SLP133 T02830022,M
BVU,2023-08-02 16:55,-114.8611,35.9475,671.00,78.80,66.20,65.33,110.00,5.00,0.00,30.07,M,10.00,M,CLR,M,M,M,M,M,M,M,M,M,M,M,M,M,M,78.80,KBVU 021655Z AUTO 11005KT 10SM CLR 26/19 A3007 RMK AO2 LTG DSNT E,M
CXP,2023-08-02 16:55,-119.7326,39.1923,1431.00,75.20,42.80,31.34,0.00,0.00,0.00,30.16,M,10.00,M,CLR,M,M,M,M,M,M,M,M,M,M,M,M,M,M,75.20,KCXP 021655Z AUTO 00000KT 10SM CLR 24/06 A3016 RMK AO2,M
RNO,2023-08-02 16:55,-119.7711,39.4839,1341.00,78.00,41.00,26.64,M,3.00,0.00,30.14,1014.60,10.00,M,SCT,M,M,M,23000.00,M,M,M,M,M,M,M,M,M,M,78.00,KRNO 021655Z VRB03KT 10SM SCT230 26/05 A3014 RMK AO2 SLP146 T02560050 $,M
RTS,2023-08-02 16:55,-119.8764,39.6682,1539.00,73.40,37.40,26.98,0.00,0.00,0.00,30.19,M,10.00,M,CLR,M,M,M,M,M,M,M,M,M,M,M,M,M,M,73.40,KRTS 021655Z AUTO 00000KT 10SM CLR 23/03 A3019 RMK AO2,M
05U,2023-08-02 16:55,-116.0051,39.6042,1811.23,71.60,53.60,53.03,M,M,0.00,30.26,M,10.00,M,M,M,M,M,M,M,M,M,M,M,M,M,M,M,M,71.60,K05U 021655Z AUTO 10SM 22/12 A3026 RMK A01,M
MEV,2023-08-02 16:55,-119.7500,38.9963,1441.42,75.20,41.00,29.23,0.00,0.00,0.00,30.15,M,10.00,M,CLR,M,M,M,M,M,M,M,M,M,M,M,M,M,M,75.20,KMEV 021655Z AUTO 00000KT 10SM CLR 24/05 A3015 RMK AO2,M
HTH,2023-08-02 16:55,-118.6315,38.5448,1282.89,80.60,46.40,30.07,320.00,5.00,0.00,30.11,M,10.00,M,CLR,M,M,M,M,M,M,M,M,M,M,M,M,M,M,79.56,KHTH 021655Z AUTO 32005KT 10SM CLR 27/08 A3011 RMK A01,M
INS,2023-08-02 16:55,-115.6733,36.5872,955.00,76.00,61.00,59.72,160.00,4.00,0.00,30.12,1015.70,10.00,M,BKN,BKN,M,M,12000.00,16000.00,M,M,M,M,M,M,M,M,M,76.00,KINS 021655Z AUTO 16004KT 10SM BKN120 BKN160 24/16 A3012 RMK AO2 SLP157 T02440161 $,M
LSV,2023-08-02 16:55,-115.0343,36.2362,570.00,85.00,63.00,47.76,10.00,12.00,0.00,30.02,1014.30,10.00,M,FEW,M,M,M,21000.00,M,M,M,M,M,M,M,M,M,M,85.92,KLSV 021655Z AUTO 01012KT 10SM FEW210 29/17 A3002 RMK AO2 SLP143 T02940172 $,M
TMT,2023-08-02 16:55,-117.1971,39.4643,1749.34,71.80,47.50,42.00,220.00,5.00,0.00,30.22,M,M,M,CLR,M,M,M,M,M,M,M,M,M,M,M,M,M,M,71.80,KTMT 021655Z AUTO 22005KT CLR 22/09 A3022 RMK AO2 T02210086 PWINO,M
10U,2023-08-02 16:55,-116.1876,41.9532,1637.00,73.40,48.20,40.85,120.00,10.00,0.00,30.20,M,10.00,M,CLR,M,M,M,M,M,M,M,M,M,M,M,M,M,M,73.40,K10U 021655Z AUTO 12010KT 10SM CLR 23/09 A3020 RMK AO2,M
EKO,2023-08-02 16:56,-115.7860,40.8242,1367.00,75.00,54.00,47.99,360.00,4.00,0.00,30.18,1016.40,10.00,M,CLR,M,M,M,M,M,M,M,M,M,M,M,M,M,M,75.00,KEKO 021656Z AUTO 36004KT 10SM CLR 24/12 A3018 RMK AO2 SLP164 T02390122,M
WMC,2023-08-02 16:56,-117.8072,40.9019,1315.00,84.00,43.00,23.66,M,3.00,0.00,30.10,1013.40,10.00,M,CLR,M,M,M,M,M,M,M,M,M,M,M,M,M,M,81.48,KWMC 021656Z AUTO VRB03KT 10SM CLR 29/06 A3010 RMK AO2 SLP134 T02890061,M
NFL,2023-08-02 16:56,-118.7010,39.4166,1199.00,83.00,34.00,17.18,M,3.00,0.00,30.08,1015.40,10.00,M,FEW,FEW,SCT,M,8000.00,12000.00,22000.00,M,M,M,M,M,M,M,M,80.45,KNFL 021656Z VRB03KT 10SM FEW080 FEW120 SCT220 28/01 A3008 RMK AO2 SLP154 T02830011,M
HND,2023-08-02 16:56,-115.1344,35.9729,742.79,83.00,62.00,49.17,30.00,6.00,0.00,30.10,1018.10,10.00,M,FEW,M,M,M,12000.00,M,M,M,M,M,M,M,M,M,M,83.75,KHND 021656Z 03006KT 10SM FEW120 28/17 A3010 RMK AO2 SLP181 T02830167,M
TPH,2023-08-02 16:56,-117.0904,38.0505,1654.00,72.00,53.00,51.18,130.00,6.00,0.00,30.23,1016.10,10.00,15.00,CLR,M,M,M,M,M,M,M,M,M,M,M,M,M,M,72.00,KTPH 021656Z AUTO 13006G15KT 10SM CLR 22/12 A3023 RMK AO2 SLP161 T02220117,M
LAS,2023-08-02 16:56,-115.1634,36.0719,663.00,85.00,62.00,46.11,20.00,12.00,0.00,30.06,1015.40,10.00,23.00,FEW,BKN,BKN,M,11000.00,15000.00,24000.00,M,M,M,M,M,M,M,M,85.55,KLAS 021656Z 02012G23KT 10SM FEW110 BKN150 BKN240 29/17 A3006 RMK AO2 SLP154 T02940167,M
BAM,2023-08-02 17:10,-116.8743,40.5990,1382.36,82.40,50.00,32.46,120.00,3.00,0.00,30.13,M,10.00,M,BKN,M,M,M,12000.00,M,M,M,M,M,M,M,M,M,M,80.99,KBAM 021710Z AUTO 12003KT 10SM BKN120 28/10 A3013 RMK AO1,M
BVU,2023-08-02 17:15,-114.8611,35.9475,671.00,80.60,66.20,61.58,0.00,0.00,0.00,30.07,M,10.00,M,FEW,M,M,M,12000.00,M,M,M,M,M,M,M,M,M,M,82.75,KBVU 021715Z AUTO 00000KT 10SM FEW120 27/19 A3007 RMK AO2,M
CXP,2023-08-02 17:15,-119.7326,39.1923,1431.00,78.80,41.00,25.95,0.00,0.00,0.00,30.16,M,10.00,M,CLR,M,M,M,M,M,M,M,M,M,M,M,M,M,M,78.80,KCXP 021715Z AUTO 00000KT 10SM CLR 26/05 A3016 RMK AO2,M
RTS,2023-08-02 17:15,-119.8764,39.6682,1539.00,77.00,37.40,23.93,M,3.00,0.00,30.18,M,10.00,M,CLR,M,M,M,M,M,M,M,M,M,M,M,M,M,M,77.00,KRTS 021715Z AUTO VRB03KT 10SM CLR 25/03 A3018 RMK AO2,M
05U,2023-08-02 17:15,-116.0051,39.6042,1811.23,75.20,53.60,46.98,M,M,0.00,30.25,M,10.00,M,M,M,M,M,M,M,M,M,M,M,M,M,M,M,M,75.20,K05U 021715Z AUTO 10SM 24/12 A3025 RMK A01,M
MEV,2023-08-02 17:15,-119.7500,38.9963,1441.42,77.00,41.00,27.53,0.00,0.00,0.00,30.15,M,10.00,M,CLR,M,M,M,M,M,M,M,M,M,M,M,M,M,M,77.00,KMEV 021715Z AUTO 00000KT 10SM CLR 25/05 A3015 RMK AO2,M
HTH,2023-08-02 17:15,-118.6315,38.5448,1282.89,80.60,46.40,30.07,0.00,0.00,0.00,30.11,M,10.00,M,CLR,M,M,M,M,M,M,M,M,M,M,M,M,M,M,79.56,KHTH 021715Z AUTO 00000KT 10SM CLR 27/08 A3011 RMK A01,M
TMT,2023-08-02 17:15,-117.1971,39.4643,1749.34,73.60,48.20,40.58,200.00,4.00,0.00,30.22,M,M,M,SCT,M,M,M,12000.00,M,M,M,M,M,M,M,M,M,M,73.60,KTMT 021715Z AUTO 20004KT SCT120 23/09 A3022 RMK AO2 T02310090 PWINO,M
10U,2023-08-02 17:15,-116.1876,41.9532,1637.00,77.00,48.20,36.22,120.00,9.00,0.00,30.19,M,10.00,14.00,FEW,M,M,M,12000.00,M,M,M,M,M,M,M,M,M,M,77.00,K10U 021715Z AUTO 12009G14KT 10SM FEW120 25/09 A3019 RMK AO2,M
VGT,2023-08-02 17:21,-115.1933,36.2111,667.00,80.00,67.00,64.57,330.00,10.00,0.01,30.05,M,10.00,M,FEW,FEW,BKN,M,5000.00,7500.00,11000.00,M,-RA,M,M,M,M,M,M,82.32,KVGT 021721Z 33010KT 10SM -RA FEW050 FEW075 BKN110 27/19 A3005 RMK AO2 WSHFT 1701 RAB00 P0001 T02670194,M
LAS,2023-08-02 17:28,-115.1634,36.0719,663.00,84.00,63.00,49.32,90.00,12.00,0.00,30.06,M,10.00,M,FEW,BKN,BKN,M,11000.00,15000.00,24000.00,M,M,M,M,M,M,M,M,84.99,KLAS 021728Z 09012KT 10SM FEW110 BKN150 BKN240 29/17 A3006 RMK AO2 WSHFT 1713 T02890172,M
CXP,2023-08-02 17:30,-119.7326,39.1923,1431.00,80.60,41.00,24.46,0.00,0.00,0.00,30.15,M,9.00,M,CLR,M,M,M,M,M,M,M,M,M,M,M,M,M,M,79.20,KCXP 021730Z AUTO 00000KT 9SM CLR 27/05 A3015 RMK AO2,M
BAM,2023-08-02 17:30,-116.8743,40.5990,1382.36,82.40,51.80,34.69,360.00,3.00,0.00,30.13,M,10.00,M,SCT,M,M,M,12000.00,M,M,M,M,M,M,M,M,M,M,81.20,KBAM 021730Z AUTO 36003KT 10SM SCT120 28/11 A3013 RMK AO1,M
BVU,2023-08-02 17:35,-114.8611,35.9475,671.00,80.60,66.20,61.58,120.00,3.00,0.00,30.06,M,10.00,M,FEW,M,M,M,12000.00,M,M,M,M,M,M,M,M,M,M,82.75,KBVU 021735Z AUTO 12003KT 10SM FEW120 27/19 A3006 RMK AO2,M
RTS,2023-08-02 17:35,-119.8764,39.6682,1539.00,77.00,37.40,23.93,160.00,6.00,0.00,30.17,M,10.00,M,CLR,M,M,M,M,M,M,M,M,M,M,M,M,M,M,77.00,KRTS 021735Z AUTO 16006KT 10SM CLR 25/03 A3017 RMK AO2,M
05U,2023-08-02 17:35,-116.0051,39.6042,1811.23,73.40,53.60,49.90,M,M,0.00,30.25,M,10.00,M,M,M,M,M,M,M,M,M,M,M,M,M,M,M,M,73.40,K05U 021735Z AUTO 10SM 23/12 A3025 RMK A01,M
MEV,2023-08-02 17:35,-119.7500,38.9963,1441.42,78.80,41.00,25.95,260.00,3.00,0.00,30.14,M,10.00,M,CLR,M,M,M,M,M,M,M,M,M,M,M,M,M,M,78.80,KMEV 021735Z AUTO 26003KT 10SM CLR 26/05 A3014 RMK AO2,M
HTH,2023-08-02 17:35,-118.6315,38.5448,1282.89,82.40,44.60,26.49,M,5.00,0.00,30.10,M,10.00,M,CLR,M,M,M,M,M,M,M,M,M,M,M,M,M,M,80.50,KHTH 021735Z AUTO VRB05KT 10SM CLR 28/07 A3010 RMK A01,M
10U,2023-08-02 17:35,-116.1876,41.9532,1637.00,78.80,46.40,31.90,0.00,0.00,0.00,30.19,M,10.00,10.00,CLR,M,M,M,M,M,M,M,M,M,M,M,M,M,M,78.80,K10U 021735Z AUTO 00000G10KT 10SM CLR 26/08 A3019 RMK AO2,M
TMT,2023-08-02 17:35,-117.1971,39.4643,1749.34,75.60,48.70,38.67,240.00,3.00,0.00,30.21,M,M,M,CLR,M,M,M,M,M,M,M,M,M,M,M,M,M,M,75.60,KTMT 021735Z AUTO 24003KT CLR 24/09 A3021 RMK AO2 T02420093 PWINO,M
LSV,2023-08-02 17:42,-115.0343,36.2362,570.00,86.00,60.80,42.80,30.00,10.00,0.00,30.03,1014.60,9.00,M,BKN,M,M,M,12000.00,M,M,M,DZ,M,M,M,M,M,M,86.05,KLSV 021742Z 03010KT 9SM DZ BKN120 30/16 A3003 RMK SLP146 $,M
LSV,2023-08-02 17:44,-115.0343,36.2362,570.00,84.20,60.80,45.34,30.00,11.00,0.00,30.03,1014.70,10.00,M,CLR,M,M,M,M,M,M,M,M,M,M,M,M,M,M,84.43,KLSV 021744Z AUTO 03011KT 10SM CLR 29/16 A3003 RMK AO2 SLP147 $,M
BAM,2023-08-02 17:50,-116.8743,40.5990,1382.36,82.40,51.80,34.69,330.00,7.00,0.00,30.12,M,10.00,M,CLR,M,M,M,M,M,M,M,M,M,M,M,M,M,M,81.20,KBAM 021750Z AUTO 33007KT 10SM CLR 28/11 A3012 RMK AO1,M
P68,2023-08-02 17:53,-116.0056,39.6014,1993.00,74.00,54.00,49.63,110.00,6.00,0.00,30.21,1014.80,M,M,M,M,M,M,M,M,M,M,M,M,M,M,M,M,M,74.00,KP68 021753Z AUTO 11006KT 23/12 A3021 RMK AO1 SLP148 T02330122 10233 20144 58007,M
DRA,2023-08-02 17:53,-116.0278,36.6206,1009.00,82.00,61.00,49.03,110.00,8.00,0.00,30.10,1014.30,10.00,M,CLR,M,M,M,M,M,M,M,M,M,M,M,M,M,M,82.62,KDRA 021753Z AUTO 11008KT 060V140 10SM CLR 28/16 A3010 RMK AO2 SLP143 60000 T02780161 10283 20222 58001,M
ELY,2023-08-02 17:53,-114.8453,39.2950,1909.00,63.00,52.00,67.29,190.00,12.00,0.00,30.28,1017.00,10.00,M,BKN,M,M,M,6500.00,M,M,M,M,M,M,M,M,M,M,63.00,KELY 021753Z AUTO 19012KT 10SM BKN065 17/11 A3028 RMK AO2 SLP170 60000 T01720111 10172 20122 58004 $,M
VGT,2023-08-02 17:53,-115.1933,36.2111,667.00,82.00,65.00,56.43,340.00,6.00,0.01,30.06,1017.20,10.00,M,CLR,M,M,M,M,M,M,M,M,M,M,M,M,M,M,83.80,KVGT 021753Z 34006KT 10SM CLR 28/18 A3006 RMK AO2 WSHFT 1701 RAB00E28 SLP172 P0001 60001 T02780183 10300 20233 51014,M
LOL,2023-08-02 17:53,-118.5701,40.0684,1192.43,85.00,37.00,18.14,170.00,7.00,0.00,30.06,1013.00,10.00,M,CLR,M,M,M,M,M,M,M,M,M,M,M,M,M,M,81.96,KLOL 021753Z AUTO 17007KT 10SM CLR 29/03 A3006 RMK AO2 SLP130 T02940028 10294 20150 58006,M
BVU,2023-08-02 17:55,-114.8611,35.9475,671.00,82.40,66.20,58.08,50.00,7.00,0.00,30.05,M,10.00,M,CLR,M,M,M,M,M,M,M,M,M,M,M,M,M,M,84.63,KBVU 021755Z AUTO 05007KT 10SM CLR 28/19 A3005 RMK AO2,M
CXP,2023-08-02 17:55,-119.7326,39.1923,1431.00,82.40,39.20,21.51,0.00,0.00,0.00,30.14,M,10.00,M,CLR,M,M,M,M,M,M,M,M,M,M,M,M,M,M,80.21,KCXP 021755Z AUTO 00000KT 10SM CLR 28/04 A3014 RMK AO2,M
RNO,2023-08-02 17:55,-119.7711,39.4839,1341.00,82.00,39.00,21.62,0.00,0.00,0.00,30.12,1013.80,10.00,M,FEW,M,M,M,23000.00,M,M,M,M,M,M,M,M,M,M,79.94,KRNO 021755Z 00000KT 10SM FEW230 28/04 A3012 RMK AO2 SLP138 T02780039 10283 20183 58008 $,M
RTS,2023-08-02 17:55,-119.8764,39.6682,1539.00,78.80,37.40,22.54,120.00,5.00,0.00,30.17,M,10.00,M,CLR,M,M,M,M,M,M,M,M,M,M,M,M,M,M,78.80,KRTS 021755Z AUTO 12005KT 10SM CLR 26/03 A3017 RMK AO2,M
05U,2023-08-02 17:55,-116.0051,39.6042,1811.23,77.00,53.60,44.25,M,M,0.00,30.24,M,10.00,M,M,M,M,M,M,M,M,M,M,M,M,M,M,M,M,77.00,K05U 021755Z AUTO 10SM 25/12 A3024 RMK A01,M
MEV,2023-08-02 17:55,-119.7500,38.9963,1441.42,78.80,41.00,25.95,0.00,0.00,0.00,30.13,M,10.00,M,CLR,M,M,M,M,M,M,M,M,M,M,M,M,M,M,78.80,KMEV 021755Z AUTO 00000KT 10SM CLR 26/05 A3013 RMK AO2,M
HTH,2023-08-02 17:55,-118.6315,38.5448,1282.89,82.40,44.60,26.49,10.00,6.00,0.00,30.10,M,10.00,M,CLR,M,M,M,M,M,M,M,M,M,M,M,M,M,M,80.50,KHTH 021755Z AUTO 01006KT 10SM CLR 28/07 A3010 RMK A01,M
INS,2023-08-02 17:55,-115.6733,36.5872,955.00,78.40,59.00,51.37,90.00,3.00,0.00,30.11,1015.20,10.00,M,BKN,OVC,M,M,12000.00,17000.00,M,M,M,M,M,M,M,M,M,78.40,KINS 021755Z AUTO 09003KT 10SM BKN120 OVC170 26/15 A3011 RMK AO2 SLP152 60008 T02580149 10259 20214 50000 $,M
LSV,2023-08-02 17:55,-115.0343,36.2362,570.00,84.40,62.00,47.00,20.00,12.00,0.00,30.02,1014.30,10.00,M,BKN,M,M,M,15000.00,M,M,M,M,M,M,M,M,M,M,85.00,KLSV 021755Z COR AUTO 02012KT 10SM BKN150 29/17 A3002 RMK AO2 SLP143 T02910166 10301 20260 50010 $ COR 1804,M
TMT,2023-08-02 17:55,-117.1971,39.4643,1749.34,76.60,47.50,35.76,220.00,4.00,0.00,30.21,M,M,M,CLR,M,M,M,M,M,M,M,M,M,M,M,M,M,M,76.60,KTMT 021755Z AUTO 22004KT CLR 25/09 A3021 RMK AO2 LTG DSNT NE T02480086 10248 20160 PWINO,M
10U,2023-08-02 17:55,-116.1876,41.9532,1637.00,80.60,44.60,28.08,M,3.00,0.00,30.18,M,10.00,10.00,CLR,M,M,M,M,M,M,M,M,M,M,M,M,M,M,79.42,K10U 021755Z AUTO VRB03G10KT 10SM CLR 27/07 A3018 RMK AO2,M
EKO,2023-08-02 17:56,-115.7860,40.8242,1367.00,80.00,53.00,39.21,60.00,7.00,0.00,30.16,1015.20,10.00,M,CLR,M,M,M,M,M,M,M,M,M,M,M,M,M,M,79.87,KEKO 021756Z AUTO 06007KT 020V090 10SM CLR 27/12 A3016 RMK AO2 SLP152 T02670117 10267 20156 58010,M
WMC,2023-08-02 17:56,-117.8072,40.9019,1315.00,86.00,42.00,21.35,0.00,0.00,0.00,30.09,1013.00,10.00,M,CLR,M,M,M,M,M,M,M,M,M,M,M,M,M,M,82.91,KWMC 021756Z AUTO 00000KT 10SM CLR 30/06 A3009 RMK AO2 SLP130 T03000056 10300 20167 58005,M
NFL,2023-08-02 17:56,-118.7010,39.4166,1199.00,86.00,35.00,16.23,0.00,0.00,0.00,30.07,1015.20,10.00,M,FEW,SCT,SCT,M,8000.00,12000.00,22000.00,M,M,M,M,M,M,M,M,82.68,KNFL 021756Z 00000KT 10SM FEW080 SCT120 SCT220 30/02 A3007 RMK AO2 SLP152 TCU DSNT E T03000017 10300 20172 58004,M
HND,2023-08-02 17:56,-115.1344,35.9729,742.79,82.00,63.00,52.62,50.00,10.00,T,30.09,1017.90,10.00,17.00,CLR,M,M,M,M,M,M,M,M,M,M,M,M,M,M,83.17,KHND 021756Z 05010G17KT 10SM CLR 28/17 A3009 RMK AO2 RAB25E39 SLP179 P0000 60000 T02780172 10283 20256 50006,M
TPH,2023-08-02 17:56,-117.0904,38.0505,1654.00,76.00,53.00,44.75,120.00,8.00,0.00,30.21,1015.30,10.00,16.00,CLR,M,M,M,M,M,M,M,M,M,M,M,M,M,M,76.00,KTPH 021756Z AUTO 12008G16KT 080V160 10SM CLR 24/12 A3021 RMK AO2 SLP153 T02440117 10244 20178 58007,M
LAS,2023-08-02 17:56,-115.1634,36.0719,663.00,84.00,62.00,47.61,90.00,11.00,0.00,30.06,1015.20,10.00,M,FEW,BKN,BKN,M,11000.00,15000.00,24000.00,M,M,M,M,M,M,M,M,84.64,KLAS 021756Z 09011KT 10SM FEW110 BKN150 BKN240 29/17 A3006 RMK AO2 WSHFT 1713 SLP152 T02890167 10294 20267 50007,M
BAM,2023-08-02 18:10,-116.8743,40.5990,1382.36,82.40,51.80,34.69,340.00,7.00,0.00,30.12,M,10.00,M,SCT,M,M,M,12000.00,M,M,M,M,M,M,M,M,M,M,81.20,KBAM 021810Z AUTO 34007KT 10SM SCT120 28/11 A3012 RMK AO1,M
LAS,2023-08-02 18:11,-115.1634,36.0719,663.00,85.00,61.00,44.50,90.00,11.00,0.00,30.05,M,10.00,M,CLR,M,M,M,M,M,M,M,M,M,M,M,M,M,M,85.21,KLAS 021811Z 09011KT 10SM CLR 29/16 A3005 RMK AO2 T02940161,M
BVU,2023-08-02 18:15,-114.8611,35.9475,671.00,82.40,66.20,58.08,30.00,13.00,0.00,30.04,M,10.00,M,FEW,FEW,M,M,7500.00,9000.00,M,M,-RA,M,M,M,M,M,M,84.63,KBVU 021815Z AUTO 03013KT 10SM -RA FEW075 FEW090 28/19 A3004 RMK AO2,M
CXP,2023-08-02 18:15,-119.7326,39.1923,1431.00,84.20,39.20,20.29,M,3.00,0.00,30.14,M,10.00,M,CLR,M,M,M,M,M,M,M,M,M,M,M,M,M,M,81.44,KCXP 021815Z AUTO VRB03KT 10SM CLR 29/04 A3014 RMK AO2,M
RTS,2023-08-02 18:15,-119.8764,39.6682,1539.00,78.80,35.60,21.00,M,5.00,0.00,30.17,M,10.00,M,CLR,M,M,M,M,M,M,M,M,M,M,M,M,M,M,78.80,KRTS 021815Z AUTO VRB05KT 10SM CLR 26/02 A3017 RMK AO2,M
05U,2023-08-02 18:15,-116.0051,39.6042,1811.23,77.00,53.60,44.25,M,M,0.00,30.23,M,10.00,M,M,M,M,M,M,M,M,M,M,M,M,M,M,M,M,77.00,K05U 021815Z AUTO 10SM 25/12 A3023 RMK A01,M
MEV,2023-08-02 18:15,-119.7500,38.9963,1441.42,80.60,41.00,24.46,320.00,7.00,0.00,30.13,M,10.00,M,CLR,M,M,M,M,M,M,M,M,M,M,M,M,M,M,79.20,KMEV 021815Z AUTO 32007KT 10SM CLR 27/05 A3013 RMK AO2,M
HTH,2023-08-02 18:15,-118.6315,38.5448,1282.89,84.20,44.60,24.99,M,5.00,0.00,30.09,M,10.00,11.00,CLR,M,M,M,M,M,M,M,M,M,M,M,M,M,M,81.73,KHTH 021815Z AUTO VRB05G11KT 10SM CLR 29/07 A3009 RMK A01,M
10U,2023-08-02 18:15,-116.1876,41.9532,1637.00,82.40,44.60,26.49,110.00,6.00,0.00,30.17,M,10.00,M,CLR,M,M,M,M,M,M,M,M,M,M,M,M,M,M,80.50,K10U 021815Z AUTO 11006KT 10SM CLR 28/07 A3017 RMK AO2,M
TMT,2023-08-02 18:15,-117.1971,39.4643,1749.34,77.50,44.80,31.34,270.00,3.00,0.00,30.21,M,M,M,CLR,M,M,M,M,M,M,M,M,M,M,M,M,M,M,77.50,KTMT 021815Z AUTO 27003KT CLR 25/07 A3021 RMK AO2 T02530071 PWINO,M
HTH,2023-08-02 18:30,-118.6315,38.5448,1282.89,84.20,42.80,23.33,M,6.00,0.00,30.09,M,10.00,M,CLR,M,M,M,M,M,M,M,M,M,M,M,M,M,M,81.61,KHTH 021830Z AUTO VRB06KT 10SM CLR 29/06 A3009 RMK A01,M
BAM,2023-08-02 18:30,-116.8743,40.5990,1382.36,80.60,51.80,36.79,330.00,5.00,0.00,30.12,M,10.00,M,CLR,M,M,M,M,M,M,M,M,M,M,M,M,M,M,80.08,KBAM 021830Z AUTO 33005KT 10SM CLR 27/11 A3012 RMK AO1,M
BVU,2023-08-02 18:35,-114.8611,35.9475,671.00,82.40,66.20,58.08,40.00,9.00,0.00,30.04,M,10.00,14.00,CLR,M,M,M,M,M,M,M,M,M,M,M,M,M,M,84.63,KBVU 021835Z AUTO 04009G14KT 10SM CLR 28/19 A3004 RMK AO2,M
CXP,2023-08-02 18:35,-119.7326,39.1923,1431.00,82.40,39.20,21.51,0.00,0.00,0.00,30.13,M,10.00,10.00,CLR,M,M,M,M,M,M,M,M,M,M,M,M,M,M,80.21,KCXP 021835Z AUTO 00000G10KT 10SM CLR 28/04 A3013 RMK AO2,M
RTS,2023-08-02 18:35,-119.8764,39.6682,1539.00,78.80,32.00,18.18,0.00,0.00,0.00,30.17,M,10.00,M,CLR,M,M,M,M,M,M,M,M,M,M,M,M,M,M,78.80,KRTS 021835Z AUTO 00000KT 10SM CLR 26/00 A3017 RMK AO2,M
05U,2023-08-02 18:35,-116.0051,39.6042,1811.23,78.80,51.80,39.02,M,M,0.00,30.22,M,10.00,M,M,M,M,M,M,M,M,M,M,M,M,M,M,M,M,78.80,K05U 021835Z AUTO 10SM 26/11 A3022 RMK A01,M
MEV,2023-08-02 18:35,-119.7500,38.9963,1441.42,80.60,37.40,21.25,M,3.00,0.00,30.12,M,10.00,M,CLR,M,M,M,M,M,M,M,M,M,M,M,M,M,M,79.02,KMEV 021835Z AUTO VRB03KT 10SM CLR 27/03 A3012 RMK AO2,M
10U,2023-08-02 18:35,-116.1876,41.9532,1637.00,82.40,44.60,26.49,M,4.00,0.00,30.17,M,10.00,M,CLR,M,M,M,M,M,M,M,M,M,M,M,M,M,M,80.50,K10U 021835Z AUTO VRB04KT 10SM CLR 28/07 A3017 RMK AO2,M
TMT,2023-08-02 18:35,-117.1971,39.4643,1749.34,78.30,43.00,28.49,220.00,3.00,0.00,30.20,M,M,M,CLR,M,M,M,M,M,M,M,M,M,M,M,M,M,M,78.30,KTMT 021835Z AUTO 22003KT CLR 26/06 A3020 RMK AO2 T02570062 PWINO,M
05U,2023-08-02 18:50,-116.0051,39.6042,1811.23,80.60,51.80,36.79,M,M,0.00,30.22,M,10.00,M,M,M,M,M,M,M,M,M,M,M,M,M,M,M,M,80.08,K05U 021850Z AUTO 10SM 27/11 A3022 RMK A01,M
BAM,2023-08-02 18:50,-116.8743,40.5990,1382.36,80.60,51.80,36.79,340.00,3.00,0.00,30.12,M,10.00,M,BKN,M,M,M,11000.00,M,M,M,M,M,M,M,M,M,M,80.08,KBAM 021850Z AUTO 34003KT 10SM BKN110 27/11 A3012 RMK AO1,M
P68,2023-08-02 18:53,-116.0056,39.6014,1993.00,76.00,51.00,41.57,140.00,4.00,0.00,30.19,1014.00,M,M,M,M,M,M,M,M,M,M,M,M,M,M,M,M,M,76.00,KP68 021853Z AUTO 14004KT 24/11 A3019 RMK AO1 SLP140 T02440106,M
DRA,2023-08-02 18:53,-116.0278,36.6206,1009.00,81.00,58.00,45.51,120.00,13.00,T,30.08,1013.60,10.00,M,FEW,BKN,M,M,8000.00,10000.00,M,M,M,M,M,M,M,M,M,81.22,KDRA 021853Z AUTO 12013KT 10SM FEW080 BKN100 27/14 A3008 RMK AO2 RAB32E44 SLP136 P0000 T02720144,M
ELY,2023-08-02 18:53,-114.8453,39.2950,1909.00,64.00,52.00,64.97,190.00,6.00,0.00,30.27,1017.00,10.00,M,OVC,M,M,M,6000.00,M,M,M,M,M,M,M,M,M,M,64.00,KELY 021853Z AUTO 19006KT 10SM OVC060 18/11 A3027 RMK AO2 SLP170 T01780111 $,M
VGT,2023-08-02 18:53,-115.1933,36.2111,667.00,85.00,63.00,47.76,0.00,0.00,0.00,30.04,1016.40,10.00,M,CLR,M,M,M,M,M,M,M,M,M,M,M,M,M,M,85.92,KVGT 021853Z 00000KT 10SM CLR 29/17 A3004 RMK AO2 SLP164 T02940172,M
LOL,2023-08-02 18:53,-118.5701,40.0684,1192.43,88.00,41.00,19.28,210.00,9.00,0.00,30.04,1012.60,10.00,M,CLR,M,M,M,M,M,M,M,M,M,M,M,M,M,M,84.46,KLOL 021853Z AUTO 21009KT 10SM CLR 31/05 A3004 RMK AO2 SLP126 T03110050,M
BVU,2023-08-02 18:55,-114.8611,35.9475,671.00,82.40,64.40,54.55,30.00,8.00,0.00,30.04,M,10.00,M,CLR,M,M,M,M,M,M,M,M,M,M,M,M,M,M,83.98,KBVU 021855Z AUTO 03008KT 10SM CLR 28/18 A3004 RMK AO2 LTG DSNT NE AND SE,M
CXP,2023-08-02 18:55,-119.7326,39.1923,1431.00,84.20,35.60,17.61,M,4.00,0.00,30.13,M,10.00,M,CLR,M,M,M,M,M,M,M,M,M,M,M,M,M,M,81.34,KCXP 021855Z AUTO VRB04KT 10SM CLR 29/02 A3013 RMK AO2,M
INS,2023-08-02 18:55,-115.6733,36.5872,955.00,80.60,58.50,46.94,60.00,6.00,0.00,30.10,1014.70,10.00,M,BKN,M,M,M,14000.00,M,M,M,M,M,M,M,M,M,M,81.02,KINS 021855Z AUTO 06006KT 10SM BKN140 27/15 A3010 RMK AO2 SLP147 T02700147 $,M
RNO,2023-08-02 18:55,-119.7711,39.4839,1341.00,87.00,38.00,17.70,0.00,0.00,0.00,30.11,1013.00,10.00,M,FEW,FEW,M,M,9500.00,23000.00,M,M,M,M,M,M,M,M,M,83.53,KRNO 021855Z 00000KT 10SM FEW095 FEW230 31/03 A3011 RMK AO2 SLP130 T03060033 $,M
LSV,2023-08-02 18:55,-115.0343,36.2362,570.00,88.00,62.00,41.90,20.00,12.00,0.00,30.01,1013.90,10.00,M,FEW,FEW,M,M,15000.00,17000.00,M,M,M,M,M,M,M,M,M,88.43,KLSV 021855Z AUTO 02012KT 10SM FEW150 FEW170 31/17 A3001 RMK AO2 SLP139 T03120167 $,M
RTS,2023-08-02 18:55,-119.8764,39.6682,1539.00,80.60,33.80,18.42,M,5.00,0.00,30.16,M,10.00,M,CLR,M,M,M,M,M,M,M,M,M,M,M,M,M,M,78.88,KRTS 021855Z AUTO VRB05KT 10SM CLR 27/01 A3016 RMK AO2,M
MEV,2023-08-02 18:55,-119.7500,38.9963,1441.42,82.40,37.40,20.04,M,3.00,0.00,30.11,M,10.00,M,CLR,M,M,M,M,M,M,M,M,M,M,M,M,M,M,80.14,KMEV 021855Z AUTO VRB03KT 10SM CLR 28/03 A3011 RMK AO2,M
HTH,2023-08-02 18:55,-118.6315,38.5448,1282.89,86.00,42.80,22.02,300.00,7.00,0.00,30.07,M,10.00,M,CLR,M,M,M,M,M,M,M,M,M,M,M,M,M,M,82.95,KHTH 021855Z AUTO 30007KT 10SM CLR 30/06 A3007 RMK A01,M
TMT,2023-08-02 18:55,-117.1971,39.4643,1749.34,78.80,42.60,27.60,270.00,3.00,0.00,30.19,M,M,M,CLR,M,M,M,M,M,M,M,M,M,M,M,M,M,M,78.80,KTMT 021855Z AUTO 27003KT CLR 26/06 A3019 RMK AO2 LTG DSNT NE T02600059 PWINO,M
10U,2023-08-02 18:55,-116.1876,41.9532,1637.00,80.60,44.60,28.08,M,6.00,0.00,30.17,M,10.00,17.00,FEW,M,M,M,8500.00,M,M,M,M,M,M,M,M,M,M,79.42,K10U 021855Z AUTO VRB06G17KT 10SM FEW085 27/07 A3017 RMK AO2 LTG DSNT E AND SW,M
EKO,2023-08-02 18:56,-115.7860,40.8242,1367.00,82.00,50.00,32.88,M,3.00,0.00,30.14,1014.40,10.00,M,CLR,M,M,M,M,M,M,M,M,M,M,M,M,M,M,80.73,KEKO 021856Z AUTO VRB03KT 10SM CLR 28/10 A3014 RMK AO2 LTG DSNT S AND SW SLP144 T02780100,M
WMC,2023-08-02 18:56,-117.8072,40.9019,1315.00,91.00,42.00,18.23,M,3.00,0.00,30.07,1012.60,10.00,M,CLR,M,M,M,M,M,M,M,M,M,M,M,M,M,M,87.11,KWMC 021856Z AUTO VRB03KT 10SM CLR 33/06 A3007 RMK AO2 SLP126 T03280056,M
NFL,2023-08-02 18:56,-118.7010,39.4166,1199.00,88.00,34.00,14.64,M,M,0.00,30.06,1014.70,10.00,M,SCT,SCT,SCT,M,8000.00,12000.00,22000.00,M,M,M,M,M,M,M,M,84.26,KNFL 021856Z COR 10SM SCT080 SCT120 SCT220 31/01 A3006 RMK AO2 SLP147 CB DSNT E-SE T03110011,M
HND,2023-08-02 18:56,-115.1344,35.9729,742.79,85.00,64.00,49.47,30.00,10.00,0.00,30.08,1017.50,10.00,M,CLR,M,M,M,M,M,M,M,M,M,M,M,M,M,M,86.33,KHND 021856Z 03010KT 10SM CLR 29/18 A3008 RMK AO2 SLP175 T02940178,M
TPH,2023-08-02 18:56,-117.0904,38.0505,1654.00,78.00,52.00,40.36,120.00,11.00,0.00,30.20,1014.70,10.00,18.00,CLR,M,M,M,M,M,M,M,M,M,M,M,M,M,M,78.00,KTPH 021856Z AUTO 12011G18KT 10SM CLR 26/11 A3020 RMK AO2 SLP147 T02560111,M
LAS,2023-08-02 18:56,-115.1634,36.0719,663.00,87.00,61.00,41.75,20.00,8.00,0.00,30.05,1014.90,10.00,17.00,FEW,SCT,BKN,M,10000.00,15000.00,25000.00,M,M,M,M,M,M,M,M,87.06,KLAS 021856Z 02008G17KT 10SM FEW100 SCT150 BKN250 31/16 A3005 RMK AO2 SLP149 T03060161,M
BAM,2023-08-02 19:10,-116.8743,40.5990,1382.36,80.60,51.80,36.79,0.00,0.00,0.00,30.11,M,10.00,M,SCT,M,M,M,11000.00,M,M,M,M,M,M,M,M,M,M,80.08,KBAM 021910Z AUTO 00000KT 10SM SCT110 27/11 A3011 RMK AO1,M
BVU,2023-08-02 19:15,-114.8611,35.9475,671.00,84.20,64.40,51.47,40.00,7.00,0.00,30.04,M,10.00,12.00,CLR,M,M,M,M,M,M,M,M,M,M,M,M,M,M,85.71,KBVU 021915Z AUTO 04007G12KT 10SM CLR 29/18 A3004 RMK AO2,M
CXP,2023-08-02 19:15,-119.7326,39.1923,1431.00,84.20,37.40,18.91,360.00,3.00,0.00,30.12,M,10.00,M,CLR,M,M,M,M,M,M,M,M,M,M,M,M,M,M,81.38,KCXP 021915Z AUTO 36003KT 10SM CLR 29/03 A3012 RMK AO2,M
RTS,2023-08-02 19:15,-119.8764,39.6682,1539.00,82.40,32.00,16.17,100.00,6.00,0.00,30.16,M,10.00,11.00,CLR,M,M,M,M,M,M,M,M,M,M,M,M,M,M,80.00,KRTS 021915Z AUTO 10006G11KT 10SM CLR 28/00 A3016 RMK AO2,M
05U,2023-08-02 19:15,-116.0051,39.6042,1811.23,80.60,48.20,32.18,M,M,0.00,30.21,M,10.00,M,M,M,M,M,M,M,M,M,M,M,M,M,M,M,M,79.71,K05U 021915Z AUTO 10SM 27/09 A3021 RMK A01,M
MEV,2023-08-02 19:15,-119.7500,38.9963,1441.42,84.20,37.40,18.91,M,3.00,0.00,30.11,M,10.00,M,CLR,M,M,M,M,M,M,M,M,M,M,M,M,M,M,81.38,KMEV 021915Z AUTO VRB03KT 10SM CLR 29/03 A3011 RMK AO2,M
HTH,2023-08-02 19:15,-118.6315,38.5448,1282.89,86.00,42.80,22.02,310.00,5.00,0.00,30.06,M,10.00,M,CLR,M,M,M,M,M,M,M,M,M,M,M,M,M,M,82.95,KHTH 021915Z AUTO 31005KT 10SM CLR 30/06 A3006 RMK A01,M
10U,2023-08-02 19:15,-116.1876,41.9532,1637.00,80.60,44.60,28.08,50.00,6.00,0.00,30.17,M,10.00,M,FEW,M,M,M,8500.00,M,M,M,M,M,M,M,M,M,M,79.42,K10U 021915Z AUTO 05006KT 10SM FEW085 27/07 A3017 RMK AO2,M
TMT,2023-08-02 19:15,-117.1971,39.4643,1749.34,80.00,44.00,27.99,270.00,6.00,0.00,30.19,M,M,M,CLR,M,M,M,M,M,M,M,M,M,M,M,M,M,M,79.06,KTMT 021915Z AUTO 27006KT CLR 27/07 A3019 RMK AO2 LTG DSNT S AND W T02660066 PWINO,M
INS,2023-08-02 19:18,-115.6733,36.5872,955.00,80.60,57.20,44.80,90.00,6.00,0.00,30.08,1014.00,10.00,M,FEW,BKN,OVC,M,7000.00,10000.00,14000.00,M,-DZ,M,M,M,M,M,M,80.81,KINS 021918Z AUTO 09006KT 10SM -DZ FEW070 BKN100 OVC140 27/14 A3008 RMK AO2 DZB18 SLP140 $,M
WMC,2023-08-02 19:29,-117.8072,40.9019,1315.00,92.00,40.00,16.35,140.00,7.00,0.00,30.06,M,10.00,M,CLR,M,M,M,M,M,M,M,VCTS,M,M,M,M,M,M,87.88,KWMC 021929Z AUTO 14007KT 10SM VCTS CLR 33/04 A3006 RMK AO2 T03330044,M
BAM,2023-08-02 19:30,-116.8743,40.5990,1382.36,82.40,50.00,32.46,0.00,0.00,0.00,30.10,M,10.00,M,SCT,M,M,M,11000.00,M,M,M,M,M,M,M,M,M,M,80.99,KBAM 021930Z AUTO 00000KT 10SM SCT110 28/10 A3010 RMK AO1,M
INS,2023-08-02 19:33,-115.6733,36.5872,955.00,80.60,57.20,44.80,70.00,9.00,0.00,30.06,1013.30,10.00,M,FEW,SCT,OVC,M,4700.00,8000.00,11000.00,M,M,M,M,M,M,M,M,80.81,KINS 021933Z AUTO 07009KT 10SM FEW047 SCT080 OVC110 27/14 A3006 RMK AO2 DZB18E33 PRESFR SLP133 $,M
BVU,2023-08-02 19:35,-114.8611,35.9475,671.00,86.00,64.40,48.58,40.00,10.00,0.00,30.04,M,10.00,M,CLR,M,M,M,M,M,M,M,M,M,M,M,M,M,M,87.49,KBVU 021935Z AUTO 04010KT 10SM CLR 30/18 A3004 RMK AO2,M
CXP,2023-08-02 19:35,-119.7326,39.1923,1431.00,84.20,35.60,17.61,M,3.00,0.00,30.11,M,10.00,M,CLR,M,M,M,M,M,M,M,M,M,M,M,M,M,M,81.34,KCXP 021935Z AUTO VRB03KT 10SM CLR 29/02 A3011 RMK AO2,M
RTS,2023-08-02 19:35,-119.8764,39.6682,1539.00,82.40,32.00,16.17,0.00,0.00,0.00,30.15,M,10.00,M,CLR,M,M,M,M,M,M,M,M,M,M,M,M,M,M,80.00,KRTS 021935Z AUTO 00000KT 10SM CLR 28/M00 A3015 RMK AO2,M
05U,2023-08-02 19:35,-116.0051,39.6042,1811.23,78.80,46.40,31.90,M,M,0.00,30.21,M,10.00,M,M,M,M,M,M,M,M,M,M,M,M,M,M,M,M,78.80,K05U 021935Z AUTO 10SM 26/08 A3021 RMK A01,M
MEV,2023-08-02 19:35,-119.7500,38.9963,1441.42,86.00,39.20,19.15,0.00,0.00,0.00,30.10,M,10.00,10.00,CLR,M,M,M,M,M,M,M,M,M,M,M,M,M,M,82.79,KMEV 021935Z AUTO 00000G10KT 10SM CLR 30/04 A3010 RMK AO2,M
HTH,2023-08-02 19:35,-118.6315,38.5448,1282.89,87.80,42.80,20.79,290.00,8.00,0.00,30.05,M,10.00,M,CLR,M,M,M,M,M,M,M,M,M,M,M,M,M,M,84.40,KHTH 021935Z AUTO 29008KT 10SM CLR 31/06 A3005 RMK A01,M
10U,2023-08-02 19:35,-116.1876,41.9532,1637.00,82.40,44.60,26.49,70.00,13.00,0.00,30.15,M,10.00,20.00,CLR,M,M,M,M,M,M,M,M,M,M,M,M,M,M,80.50,K10U 021935Z AUTO 07013G20KT 10SM CLR 28/07 A3015 RMK AO2,M
TMT,2023-08-02 19:35,-117.1971,39.4643,1749.34,82.00,44.40,26.63,280.00,7.00,0.00,30.18,M,M,M,CLR,M,M,M,M,M,M,M,M,M,M,M,M,M,M,80.24,KTMT 021935Z AUTO 28007KT CLR 28/07 A3018 RMK AO2 LTG DSNT E AND S T02770069 PWINO,M
WMC,2023-08-02 19:44,-117.8072,40.9019,1315.00,92.00,42.00,17.67,30.00,8.00,0.00,30.05,M,10.00,M,CLR,M,M,M,M,M,M,M,M,M,M,M,M,M,M,88.01,KWMC 021944Z AUTO 03008KT 10SM CLR 33/06 A3005 RMK AO2 T03330056,M
05U,2023-08-02 19:50,-116.0051,39.6042,1811.23,78.80,41.00,25.95,M,M,0.00,30.21,M,10.00,M,M,M,M,M,M,M,M,M,M,M,M,M,M,M,M,78.80,K05U 021950Z AUTO 10SM 26/05 A3021 RMK A01,M
BAM,2023-08-02 19:50,-116.8743,40.5990,1382.36,84.20,50.00,30.62,30.00,3.00,0.00,30.10,M,10.00,M,CLR,M,M,M,M,M,M,M,M,M,M,M,M,M,M,82.24,KBAM 021950Z AUTO 03003KT 10SM CLR 29/10 A3010 RMK AO1,M
P68,2023-08-02 19:53,-116.0056,39.6014,1993.00,78.00,40.00,25.62,0.00,0.00,0.00,30.18,1013.30,M,M,M,M,M,M,M,M,M,M,M,M,M,M,M,M,M,78.00,KP68 021953Z AUTO 00000KT 26/04 A3018 RMK AO1 SLP133 T02560044,M
DRA,2023-08-02 19:53,-116.0278,36.6206,1009.00,84.00,58.00,41.29,80.00,10.00,0.00,30.06,1012.90,10.00,M,CLR,M,M,M,M,M,M,M,M,M,M,M,M,M,M,83.50,KDRA 021953Z AUTO 08010KT 10SM CLR 29/14 A3006 RMK AO2 SLP129 T02890144,M
VGT,2023-08-02 19:53,-115.1933,36.2111,667.00,89.00,62.00,40.59,100.00,7.00,0.00,30.02,1015.70,10.00,M,CLR,M,M,M,M,M,M,M,M,M,M,M,M,M,M,89.43,KVGT 021953Z 10007KT 080V140 10SM CLR 32/17 A3002 RMK AO2 SLP157 T03170167,M
LOL,2023-08-02 19:53,-118.5701,40.0684,1192.43,90.00,42.00,18.81,210.00,9.00,0.00,30.02,1011.90,10.00,15.00,CLR,M,M,M,M,M,M,M,M,M,M,M,M,M,M,86.22,KLOL 021953Z AUTO 21009G15KT 10SM CLR 32/06 A3002 RMK AO2 SLP119 T03220056,M
BVU,2023-08-02 19:55,-114.8611,35.9475,671.00,86.00,64.40,48.58,60.00,11.00,0.00,30.04,M,10.00,M,CLR,M,M,M,M,M,M,M,M,M,M,M,M,M,M,87.49,KBVU 021955Z AUTO 06011KT 10SM CLR 30/18 A3004 RMK AO2,M
CXP,2023-08-02 19:55,-119.7326,39.1923,1431.00,87.80,37.40,16.86,170.00,5.00,0.00,30.11,M,10.00,M,CLR,M,M,M,M,M,M,M,M,M,M,M,M,M,M,84.16,KCXP 021955Z AUTO 17005KT 10SM CLR 31/03 A3011 RMK AO2,M
RNO,2023-08-02 19:55,-119.7711,39.4839,1341.00,89.00,35.00,14.76,M,4.00,0.00,30.08,1012.20,10.00,M,FEW,FEW,M,M,10000.00,19000.00,M,M,M,M,M,M,M,M,M,85.10,KRNO 021955Z VRB04KT 10SM FEW100 FEW190 32/02 A3008 RMK AO2 SLP122 T03170017 $,M
RTS,2023-08-02 19:55,-119.8764,39.6682,1539.00,82.40,32.00,16.17,M,5.00,0.00,30.14,M,10.00,11.00,CLR,M,M,M,M,M,M,M,M,M,M,M,M,M,M,80.00,KRTS 021955Z AUTO VRB05G11KT 10SM CLR 28/00 A3014 RMK AO2,M
MEV,2023-08-02 19:55,-119.7500,38.9963,1441.42,86.00,37.40,17.85,M,6.00,0.00,30.09,M,8.00,M,CLR,M,M,M,M,M,M,M,M,M,M,M,M,M,M,82.73,KMEV 021955Z AUTO VRB06KT 8SM CLR 30/03 A3009 RMK AO2,M
HTH,2023-08-02 19:55,-118.6315,38.5448,1282.89,89.60,42.80,19.64,M,5.00,0.00,30.05,M,10.00,11.00,CLR,M,M,M,M,M,M,M,M,M,M,M,M,M,M,85.93,KHTH 021955Z AUTO VRB05G11KT 10SM CLR 32/06 A3005 RMK A01,M
TMT,2023-08-02 19:55,-117.1971,39.4643,1749.34,80.60,43.50,26.93,0.00,0.00,0.00,30.18,M,M,M,CLR,M,M,M,M,M,M,M,VCTS,M,M,M,M,M,M,79.35,KTMT 021955Z AUTO 00000KT VCTS CLR 27/06 A3018 RMK AO2 LTG DSNT E AND W T02700064,M
10U,2023-08-02 19:55,-116.1876,41.9532,1637.00,82.40,44.60,26.49,60.00,11.00,0.00,30.16,M,10.00,17.00,CLR,M,M,M,M,M,M,M,M,M,M,M,M,M,M,80.50,K10U 021955Z AUTO 06011G17KT 10SM CLR 28/07 A3016 RMK AO2,M
INS,2023-08-02 19:55,-115.6733,36.5872,955.00,81.00,57.00,43.90,60.00,7.00,T,30.06,1013.30,10.00,M,SCT,BKN,BKN,M,12000.00,15000.00,18000.00,M,M,M,M,M,M,M,M,81.05,KINS 021955Z AUTO 06007KT 10SM SCT120 BKN150 BKN180 27/14 A3006 RMK AO2 DZB18E33 SLP133 P0000 T02720139 $,M
LSV,2023-08-02 19:55,-115.0343,36.2362,570.00,90.30,62.00,38.97,30.00,10.00,0.00,29.99,1013.10,10.00,15.00,FEW,M,M,M,16000.00,M,M,M,M,M,M,M,M,M,M,90.77,KLSV 021955Z AUTO 03010G15KT 10SM FEW160 32/17 A2999 RMK AO2 SLP131 T03240166 $,M
EKO,2023-08-02 19:56,-115.7860,40.8242,1367.00,85.00,49.00,28.75,M,5.00,0.00,30.12,1013.60,10.00,M,FEW,M,M,M,7500.00,M,M,M,M,M,M,M,M,M,M,82.71,KEKO 021956Z AUTO VRB05KT 10SM FEW075 29/09 A3012 RMK AO2 SLP136 T02940094,M
WMC,2023-08-02 19:56,-117.8072,40.9019,1315.00,93.00,41.00,16.48,M,3.00,0.00,30.05,1011.70,10.00,M,CLR,M,M,M,M,M,M,M,M,M,M,M,M,M,M,88.85,KWMC 021956Z AUTO VRB03KT 10SM CLR 34/05 A3005 RMK AO2 LTG DSNT S SLP117 T03390050,M
NFL,2023-08-02 19:56,-118.7010,39.4166,1199.00,89.00,40.00,17.96,M,3.00,0.00,30.03,1013.90,10.00,M,SCT,SCT,SCT,M,7000.00,15000.00,22000.00,M,M,M,M,M,M,M,M,85.26,KNFL 021956Z VRB03KT 10SM SCT070 SCT150 SCT220 32/04 A3003 RMK AO2 SLP139 CB DSNT E-SE T03170044,M
HND,2023-08-02 19:56,-115.1344,35.9729,742.79,88.00,63.00,43.40,60.00,7.00,0.00,30.07,1017.00,10.00,M,CLR,M,M,M,M,M,M,M,M,M,M,M,M,M,M,88.86,KHND 021956Z 06007KT 10SM CLR 31/17 A3007 RMK AO2 SLP170 T03110172,M
TPH,2023-08-02 19:56,-117.0904,38.0505,1654.00,82.00,49.00,31.68,190.00,5.00,0.00,30.17,1013.50,10.00,18.00,CLR,M,M,M,M,M,M,M,M,M,M,M,M,M,M,80.62,KTPH 021956Z AUTO 19005G18KT 10SM CLR 28/09 A3017 RMK AO2 SLP135 T02780094,M
LAS,2023-08-02 19:56,-115.1634,36.0719,663.00,88.00,61.00,40.44,90.00,6.00,0.00,30.03,1014.40,10.00,M,FEW,SCT,BKN,M,10000.00,15000.00,25000.00,M,M,M,M,M,M,M,M,88.02,KLAS 021956Z 09006KT 10SM FEW100 SCT150 BKN250 31/16 A3003 RMK AO2 SLP144 T03110161,M
05U,2023-08-02 20:10,-116.0051,39.6042,1811.23,78.80,41.00,25.95,M,M,0.00,30.21,M,10.00,M,M,M,M,M,M,M,M,M,M,M,M,M,M,M,M,78.80,K05U 022010Z AUTO 10SM 26/05 A3021 RMK A01,M
BAM,2023-08-02 20:10,-116.8743,40.5990,1382.36,86.00,46.40,25.26,0.00,0.00,0.00,30.10,M,10.00,M,CLR,M,M,M,M,M,M,M,M,M,M,M,M,M,M,83.22,KBAM 022010Z AUTO 00000KT 10SM CLR 30/08 A3010 RMK AO1,M
BVU,2023-08-02 20:15,-114.8611,35.9475,671.00,86.00,62.60,45.61,60.00,7.00,0.00,30.03,M,10.00,14.00,CLR,M,M,M,M,M,M,M,M,M,M,M,M,M,M,86.72,KBVU 022015Z AUTO 06007G14KT 10SM CLR 30/17 A3003 RMK AO2,M
CXP,2023-08-02 20:15,-119.7326,39.1923,1431.00,84.20,35.60,17.61,M,3.00,0.00,30.11,M,10.00,M,CLR,M,M,M,M,M,M,M,M,M,M,M,M,M,M,81.34,KCXP 022015Z AUTO VRB03KT 10SM CLR 29/02 A3011 RMK AO2,M
RTS,2023-08-02 20:15,-119.8764,39.6682,1539.00,84.20,32.00,15.25,M,4.00,0.00,30.14,M,10.00,M,CLR,M,M,M,M,M,M,M,M,M,M,M,M,M,M,81.28,KRTS 022015Z AUTO VRB04KT 10SM CLR 29/00 A3014 RMK AO2,M
MEV,2023-08-02 20:15,-119.7500,38.9963,1441.42,86.00,33.80,15.48,M,5.00,0.00,30.09,M,9.00,M,CLR,M,M,M,M,M,M,M,M,M,M,M,M,M,M,82.66,KMEV 022015Z AUTO VRB05KT 9SM CLR 30/01 A3009 RMK AO2,M
HTH,2023-08-02 20:15,-118.6315,38.5448,1282.89,91.40,41.00,17.32,10.00,8.00,0.00,30.03,M,10.00,M,CLR,M,M,M,M,M,M,M,M,M,M,M,M,M,M,87.40,KHTH 022015Z AUTO 01008KT 10SM CLR 33/05 A3003 RMK A01,M
10U,2023-08-02 20:15,-116.1876,41.9532,1637.00,82.40,44.60,26.49,40.00,11.00,0.00,30.16,M,10.00,16.00,CLR,M,M,M,M,M,M,M,M,M,M,M,M,M,M,80.50,K10U 022015Z AUTO 04011G16KT 10SM CLR 28/07 A3016 RMK AO2,M
TMT,2023-08-02 20:15,-117.1971,39.4643,1749.34,80.20,43.30,27.08,0.00,0.00,0.00,30.17,M,M,M,SCT,M,M,M,12000.00,M,M,M,VCTS,M,M,M,M,M,M,79.12,KTMT 022015Z AUTO 00000KT VCTS SCT120 27/06 A3017 RMK AO2 LTG DSNT NE THRU S T02680063,M
BAM,2023-08-02 20:30,-116.8743,40.5990,1382.36,87.80,50.00,27.29,120.00,10.00,0.00,30.10,M,10.00,M,CLR,M,M,M,M,M,M,M,M,M,M,M,M,M,M,85.11,KBAM 022030Z AUTO 12010KT 10SM CLR 31/10 A3010 RMK AO1,M
BVU,2023-08-02 20:35,-114.8611,35.9475,671.00,86.00,62.60,45.61,M,5.00,0.00,30.03,M,10.00,M,CLR,M,M,M,M,M,M,M,M,M,M,M,M,M,M,86.72,KBVU 022035Z AUTO VRB05KT 10SM CLR 30/17 A3003 RMK AO2,M
CXP,2023-08-02 20:35,-119.7326,39.1923,1431.00,87.80,33.80,14.61,M,5.00,0.00,30.10,M,10.00,M,CLR,M,M,M,M,M,M,M,M,M,M,M,M,M,M,84.10,KCXP 022035Z AUTO VRB05KT 10SM CLR 31/01 A3010 RMK AO2,M
RTS,2023-08-02 20:35,-119.8764,39.6682,1539.00,84.20,32.00,15.25,300.00,7.00,0.00,30.13,M,10.00,M,CLR,M,M,M,M,M,M,M,M,M,M,M,M,M,M,81.28,KRTS 022035Z AUTO 30007KT 270V330 10SM CLR 29/M00 A3013 RMK AO2,M
05U,2023-08-02 20:35,-116.0051,39.6042,1811.23,77.00,48.20,36.22,M,M,0.00,30.21,M,10.00,M,M,M,M,M,M,M,M,M,M,M,M,M,M,M,M,77.00,K05U 022035Z AUTO 10SM 25/09 A3021 RMK A01,M
MEV,2023-08-02 20:35,-119.7500,38.9963,1441.42,87.80,37.40,16.86,M,4.00,0.00,30.09,M,10.00,M,CLR,M,M,M,M,M,M,M,M,M,M,M,M,M,M,84.16,KMEV 022035Z AUTO VRB04KT 10SM CLR 31/03 A3009 RMK AO2,M
HTH,2023-08-02 20:35,-118.6315,38.5448,1282.89,89.60,41.00,18.33,250.00,6.00,0.00,30.03,M,10.00,13.00,CLR,M,M,M,M,M,M,M,M,M,M,M,M,M,M,85.82,KHTH 022035Z AUTO 25006G13KT 10SM CLR 32/05 A3003 RMK A01,M
10U,2023-08-02 20:35,-116.1876,41.9532,1637.00,82.40,44.60,26.49,60.00,7.00,0.00,30.15,M,10.00,13.00,CLR,M,M,M,M,M,M,M,M,M,M,M,M,M,M,80.50,K10U 022035Z AUTO 06007G13KT 030V090 10SM CLR 28/07 A3015 RMK AO2,M
TMT,2023-08-02 20:35,-117.1971,39.4643,1749.34,80.60,42.30,25.72,260.00,6.00,0.00,30.17,M,M,M,SCT,M,M,M,12000.00,M,M,M,TS,M,M,M,M,M,M,79.27,KTMT 022035Z AUTO 26006KT TS SCT120 27/06 A3017 RMK AO2 LTG DSNT E AND NW T02700057,M
LSV,2023-08-02 20:42,-115.0343,36.2362,570.00,91.40,60.80,36.08,60.00,10.00,0.00,29.98,1012.80,10.00,M,SCT,SCT,M,M,16000.00,18000.00,M,M,M,M,M,M,M,M,M,91.40,KLSV 022042Z AUTO 06010KT 10SM SCT160 SCT180 33/16 A2998 RMK AO2 WSHFT 39 SLP128 $,M
BAM,2023-08-02 20:50,-116.8743,40.5990,1382.36,86.00,50.00,28.90,120.00,7.00,0.00,30.09,M,10.00,M,CLR,M,M,M,M,M,M,M,M,M,M,M,M,M,M,83.62,KBAM 022050Z AUTO 12007KT 10SM CLR 30/10 A3009 RMK AO1,M
P68,2023-08-02 20:53,-116.0056,39.6014,1993.00,77.00,47.00,34.63,260.00,9.00,0.00,30.18,1013.40,M,17.00,M,M,M,M,M,M,M,M,M,M,M,M,M,M,M,77.00,KP68 022053Z AUTO 26009G17KT 25/08 A3018 RMK AO1 SLP134 T02500083 56010,M
DRA,2023-08-02 20:53,-116.0278,36.6206,1009.00,91.00,54.00,28.60,130.00,12.00,0.00,30.04,1012.10,10.00,16.00,CLR,M,M,M,M,M,M,M,M,M,M,M,M,M,M,88.78,KDRA 022053Z AUTO 13012G16KT 10SM CLR 33/12 A3004 RMK AO2 SLP121 60000 T03280122 56018,M
ELY,2023-08-02 20:53,-114.8453,39.2950,1909.00,65.00,53.00,65.09,150.00,8.00,0.00,30.25,1016.10,10.00,M,FEW,M,M,M,11000.00,M,M,M,M,M,M,M,M,M,M,65.00,KELY 022053Z AUTO 15008KT 10SM FEW110 18/12 A3025 RMK AO2 SLP161 T01830117 $,M
VGT,2023-08-02 20:53,-115.1933,36.2111,667.00,89.00,62.00,40.59,100.00,9.00,0.00,30.01,1015.10,10.00,17.00,CLR,M,M,M,M,M,M,M,M,M,M,M,M,M,M,89.43,KVGT 022053Z 10009G17KT 10SM CLR 32/17 A3001 RMK AO2 SLP151 T03170167 56017,M
LOL,2023-08-02 20:53,-118.5701,40.0684,1192.43,92.00,44.00,19.08,180.00,8.00,0.00,30.01,1011.70,10.00,M,CLR,M,M,M,M,M,M,M,M,M,M,M,M,M,M,88.17,KLOL 022053Z AUTO 18008KT 10SM CLR 33/07 A3001 RMK AO2 SLP117 T03330067 58015,M
BVU,2023-08-02 20:55,-114.8611,35.9475,671.00,87.80,62.60,43.07,50.00,9.00,0.00,30.01,M,10.00,M,CLR,M,M,M,M,M,M,M,M,M,M,M,M,M,M,88.48,KBVU 022055Z AUTO 05009KT 10SM CLR 31/17 A3001 RMK AO2,M
CXP,2023-08-02 20:55,-119.7326,39.1923,1431.00,87.80,33.80,14.61,M,4.00,0.00,30.10,M,10.00,M,CLR,M,M,M,M,M,M,M,M,M,M,M,M,M,M,84.10,KCXP 022055Z AUTO VRB04KT 10SM CLR 31/01 A3010 RMK AO2,M
INS,2023-08-02 20:55,-115.6733,36.5872,955.00,84.20,57.20,39.86,50.00,12.00,0.00,30.05,1012.80,10.00,M,BKN,BKN,M,M,17000.00,20000.00,M,M,M,M,M,M,M,M,M,83.47,KINS 022055Z AUTO 05012KT 10SM BKN170 BKN200 29/14 A3005 RMK AO2 SLP128 60000 T02900140 57018 $,M
RNO,2023-08-02 20:55,-119.7711,39.4839,1341.00,91.00,34.00,13.32,340.00,8.00,0.00,30.06,1011.40,10.00,M,FEW,SCT,M,M,10000.00,19000.00,M,M,M,M,M,M,M,M,M,86.79,KRNO 022055Z 34008KT 10SM FEW100 SCT190 33/01 A3006 RMK AO2 SLP114 T03280011 58018 $,M
RTS,2023-08-02 20:55,-119.8764,39.6682,1539.00,82.40,32.00,16.17,320.00,5.00,0.00,30.13,M,10.00,M,CLR,M,M,M,M,M,M,M,M,M,M,M,M,M,M,80.00,KRTS 022055Z AUTO 32005KT 10SM CLR 28/00 A3013 RMK AO2,M
05U,2023-08-02 20:55,-116.0051,39.6042,1811.23,77.00,46.40,33.85,M,M,0.00,30.20,M,10.00,M,M,M,M,M,M,M,M,M,M,M,M,M,M,M,M,77.00,K05U 022055Z AUTO 10SM 25/08 A3020 RMK A01,M
MEV,2023-08-02 20:55,-119.7500,38.9963,1441.42,87.80,35.60,15.70,290.00,6.00,0.00,30.08,M,10.00,13.00,CLR,M,M,M,M,M,M,M,M,M,M,M,M,M,M,84.12,KMEV 022055Z AUTO 29006G13KT 10SM CLR 31/02 A3008 RMK AO2,M
HTH,2023-08-02 20:55,-118.6315,38.5448,1282.89,91.40,39.20,16.15,130.00,7.00,0.00,30.02,M,10.00,M,CLR,M,M,M,M,M,M,M,M,M,M,M,M,M,M,87.30,KHTH 022055Z AUTO 13007KT 10SM CLR 33/04 A3002 RMK A01,M
TMT,2023-08-02 20:55,-117.1971,39.4643,1749.34,80.20,42.80,26.56,300.00,14.00,0.00,30.18,M,M,20.00,BKN,M,M,M,11000.00,M,M,M,VCTS,M,M,M,M,M,M,79.09,KTMT 022055Z AUTO 30014G20KT VCTS BKN110 27/06 A3018 RMK AO2 LTG DSNT ALQS T02680060,M
10U,2023-08-02 20:55,-116.1876,41.9532,1637.00,82.40,44.60,26.49,40.00,10.00,0.00,30.15,M,10.00,15.00,CLR,M,M,M,M,M,M,M,M,M,M,M,M,M,M,80.50,K10U 022055Z AUTO 04010G15KT 10SM CLR 28/07 A3015 RMK AO2,M
LSV,2023-08-02 20:55,-115.0343,36.2362,570.00,91.00,61.00,36.80,30.00,8.00,0.00,29.98,1012.80,10.00,16.00,FEW,FEW,SCT,BKN,10000.00,15000.00,18000.00,21000.00,M,M,M,M,M,M,M,91.06,KLSV 022055Z AUTO 03008G16KT 10SM FEW100 FEW150 SCT180 BKN210 33/16 A2998 RMK AO2 SLP128 T03270161 57015 $,M
EKO,2023-08-02 20:56,-115.7860,40.8242,1367.00,83.00,48.00,29.54,0.00,0.00,0.00,30.11,1013.50,10.00,M,CLR,M,M,M,M,M,M,M,M,M,M,M,M,M,M,81.18,KEKO 022056Z AUTO 00000KT 10SM CLR 28/09 A3011 RMK AO2 LTG DSNT SW-NW SLP135 T02830089 56014,M
WMC,2023-08-02 20:56,-117.8072,40.9019,1315.00,95.00,40.00,14.90,320.00,9.00,0.00,30.03,1011.00,10.00,15.00,CLR,M,M,M,M,M,M,M,M,M,M,M,M,M,M,90.62,KWMC 022056Z AUTO 32009G15KT 300V020 10SM CLR 35/04 A3003 RMK AO2 LTG DSNT N-SE SLP110 T03500044 58017,M
NFL,2023-08-02 20:56,-118.7010,39.4166,1199.00,93.00,39.00,15.24,230.00,8.00,0.00,30.02,1013.40,10.00,M,SCT,SCT,SCT,M,7000.00,15000.00,22000.00,M,M,M,M,M,M,M,M,88.73,KNFL 022056Z 23008KT 200V260 10SM SCT070 SCT150 SCT220 34/04 A3002 RMK AO2 SLP134 CB DSNT NE-SE T03390039 57018,M
HND,2023-08-02 20:56,-115.1344,35.9729,742.79,89.00,63.00,42.05,40.00,5.00,0.00,30.05,1016.00,10.00,M,CLR,M,M,M,M,M,M,M,M,M,M,M,M,M,M,89.89,KHND 022056Z 04005KT 10SM CLR 32/17 A3005 RMK AO2 SLP160 T03170172 58015,M
TPH,2023-08-02 20:56,-117.0904,38.0505,1654.00,86.00,48.00,26.82,160.00,9.00,0.00,30.15,1012.40,10.00,M,SCT,M,M,M,8000.00,M,M,M,M,M,M,M,M,M,M,83.38,KTPH 022056Z AUTO 16009KT 120V190 10SM SCT080 30/09 A3015 RMK AO2 LTG DSNT N SLP124 T03000089 58019,M
LAS,2023-08-02 20:56,-115.1634,36.0719,663.00,90.00,60.00,36.64,80.00,9.00,0.00,30.02,1013.70,10.00,M,FEW,SCT,BKN,M,10000.00,15000.00,25000.00,M,M,M,M,M,M,M,M,89.63,KLAS 022056Z 08009KT 040V110 10SM FEW100 SCT150 BKN250 32/16 A3002 RMK AO2 SLP137 T03220156 58013,M
BAM,2023-08-02 21:10,-116.8743,40.5990,1382.36,86.00,50.00,28.90,140.00,6.00,0.00,30.10,M,10.00,M,CLR,M,M,M,M,M,M,M,M,M,M,M,M,M,M,83.62,KBAM 022110Z AUTO 14006KT 10SM CLR 30/10 A3010 RMK AO1,M
BVU,2023-08-02 21:15,-114.8611,35.9475,671.00,89.60,62.60,40.69,60.00,5.00,0.00,30.01,M,10.00,11.00,CLR,M,M,M,M,M,M,M,M,M,M,M,M,M,M,90.32,KBVU 022115Z AUTO 06005G11KT 10SM CLR 32/17 A3001 RMK AO2,M
CXP,2023-08-02 21:15,-119.7326,39.1923,1431.00,89.60,33.80,13.80,250.00,9.00,0.00,30.09,M,10.00,M,CLR,M,M,M,M,M,M,M,M,M,M,M,M,M,M,85.59,KCXP 022115Z AUTO 25009KT 10SM CLR 32/01 A3009 RMK AO2,M
RTS,2023-08-02 21:15,-119.8764,39.6682,1539.00,84.20,32.00,15.25,M,6.00,0.00,30.13,M,10.00,M,CLR,M,M,M,M,M,M,M,M,M,M,M,M,M,M,81.28,KRTS 022115Z AUTO VRB06KT 10SM CLR 29/00 A3013 RMK AO2,M
05U,2023-08-02 21:15,-116.0051,39.6042,1811.23,69.80,53.60,56.38,M,M,0.00,30.23,M,10.00,M,M,M,M,M,M,M,M,M,M,M,M,M,M,M,M,69.80,K05U 022115Z AUTO 10SM 21/12 A3023 RMK A01,M
MEV,2023-08-02 21:15,-119.7500,38.9963,1441.42,87.80,37.40,16.86,M,3.00,0.00,30.08,M,9.00,M,CLR,M,M,M,M,M,M,M,M,M,M,M,M,M,M,84.16,KMEV 022115Z AUTO VRB03KT 9SM CLR 31/03 A3008 RMK AO2,M
HTH,2023-08-02 21:15,-118.6315,38.5448,1282.89,91.40,39.20,16.15,0.00,0.00,0.00,30.02,M,10.00,M,CLR,M,M,M,M,M,M,M,M,M,M,M,M,M,M,87.30,KHTH 022115Z AUTO 00000KT 10SM CLR 33/04 A3002 RMK A01,M
10U,2023-08-02 21:15,-116.1876,41.9532,1637.00,82.40,44.60,26.49,80.00,7.00,0.00,30.16,M,10.00,12.00,CLR,M,M,M,M,M,M,M,M,M,M,M,M,M,M,80.50,K10U 022115Z AUTO 08007G12KT 040V120 10SM CLR 28/07 A3016 RMK AO2,M
TMT,2023-08-02 21:15,-117.1971,39.4643,1749.34,77.00,47.70,35.55,320.00,11.00,0.00,30.18,M,M,19.00,OVC,M,M,M,11000.00,M,M,M,VCTS,M,M,M,M,M,M,77.00,KTMT 022115Z AUTO 32011G19KT VCTS OVC110 25/09 A3018 RMK AO2 LTG DSNT W T02510087,M
BAM,2023-08-02 21:30,-116.8743,40.5990,1382.36,86.00,48.20,27.03,50.00,4.00,0.00,30.10,M,10.00,M,CLR,M,M,M,M,M,M,M,M,M,M,M,M,M,M,83.40,KBAM 022130Z AUTO 05004KT 10SM CLR 30/09 A3010 RMK AO1,M
BVU,2023-08-02 21:35,-114.8611,35.9475,671.00,89.60,60.80,38.18,100.00,7.00,0.00,30.00,M,10.00,M,CLR,M,M,M,M,M,M,M,M,M,M,M,M,M,M,89.54,KBVU 022135Z AUTO 10007KT 060V140 10SM CLR 32/16 A3000 RMK AO2,M
CXP,2023-08-02 21:35,-119.7326,39.1923,1431.00,87.80,33.80,14.61,220.00,8.00,0.00,30.08,M,10.00,M,CLR,M,M,M,M,M,M,M,M,M,M,M,M,M,M,84.10,KCXP 022135Z AUTO 22008KT 10SM CLR 31/01 A3008 RMK AO2,M
RTS,2023-08-02 21:35,-119.8764,39.6682,1539.00,84.20,32.00,15.25,0.00,0.00,0.00,30.12,M,10.00,12.00,CLR,M,M,M,M,M,M,M,M,M,M,M,M,M,M,81.28,KRTS 022135Z AUTO 00000G12KT 10SM CLR 29/00 A3012 RMK AO2,M
05U,2023-08-02 21:35,-116.0051,39.6042,1811.23,66.20,55.40,68.15,M,M,0.00,30.24,M,8.00,M,M,M,M,M,M,M,M,M,M,M,M,M,M,M,M,66.20,K05U 022135Z AUTO 8SM 19/13 A3024 RMK A01,M
MEV,2023-08-02 21:35,-119.7500,38.9963,1441.42,87.80,39.20,18.09,M,5.00,0.00,30.07,M,10.00,11.00,CLR,M,M,M,M,M,M,M,M,M,M,M,M,M,M,84.22,KMEV 022135Z AUTO VRB05G11KT 10SM CLR 31/04 A3007 RMK AO2,M
HTH,2023-08-02 21:35,-118.6315,38.5448,1282.89,93.20,39.20,15.27,210.00,6.00,0.00,30.01,M,10.00,M,CLR,M,M,M,M,M,M,M,M,M,M,M,M,M,M,88.92,KHTH 022135Z AUTO 21006KT 10SM CLR 34/04 A3001 RMK A01,M
10U,2023-08-02 21:35,-116.1876,41.9532,1637.00,80.60,46.40,30.07,50.00,12.00,0.00,30.16,M,10.00,17.00,BKN,M,M,M,12000.00,M,M,M,M,M,M,M,M,M,M,79.56,K10U 022135Z AUTO 05012G17KT 10SM BKN120 27/08 A3016 RMK AO2,M
TMT,2023-08-02 21:35,-117.1971,39.4643,1749.34,77.40,45.30,32.04,320.00,12.00,0.00,30.18,M,M,19.00,OVC,M,M,M,11000.00,M,M,M,M,M,M,M,M,M,M,77.40,KTMT 022135Z AUTO 32012G19KT OVC110 25/07 A3018 RMK AO2 T02520074 PWINO,M
BAM,2023-08-02 21:50,-116.8743,40.5990,1382.36,86.00,46.40,25.26,20.00,3.00,0.00,30.10,M,10.00,M,SCT,M,M,M,12000.00,M,M,M,M,M,M,M,M,M,M,83.22,KBAM 022150Z AUTO 02003KT 10SM SCT120 30/08 A3010 RMK AO1,M
HTH,2023-08-02 21:50,-118.6315,38.5448,1282.89,91.40,37.40,15.05,330.00,5.00,0.00,30.00,M,10.00,M,CLR,M,M,M,M,M,M,M,M,M,M,M,M,M,M,87.23,KHTH 022150Z AUTO 33005KT 10SM CLR 33/03 A3000 RMK A01,M
P68,2023-08-02 21:53,-116.0056,39.6014,1993.00,66.00,55.00,67.64,90.00,12.00,0.00,30.22,1016.40,M,M,M,M,M,M,M,M,M,M,M,M,M,M,33.00,100.00,2023-08-02 21:13,66.00,KP68 022153Z AUTO 09012KT 19/13 A3022 RMK AO1 PK WND 10033/2113 SLP164 T01890128,M
DRA,2023-08-02 21:53,-116.0278,36.6206,1009.00,92.00,54.00,27.72,110.00,14.00,0.00,30.02,1011.20,10.00,26.00,CLR,M,M,M,M,M,M,M,M,M,M,M,26.00,130.00,2023-08-02 21:46,89.76,KDRA 022153Z AUTO 11014G26KT 10SM CLR 33/12 A3002 RMK AO2 PK WND 13026/2146 SLP112 T03330122,M
ELY,2023-08-02 21:53,-114.8453,39.2950,1909.00,69.00,53.00,56.69,180.00,7.00,0.00,30.23,1014.80,10.00,M,CLR,M,M,M,M,M,M,M,M,M,M,M,M,M,M,69.00,KELY 022153Z AUTO 18007KT 10SM CLR 21/12 A3023 RMK AO2 SLP148 T02060117 TSNO $,M
VGT,2023-08-02 21:53,-115.1933,36.2111,667.00,92.00,62.00,36.95,70.00,15.00,0.00,29.98,1014.10,10.00,23.00,CLR,M,M,M,M,M,M,M,M,M,M,M,M,M,M,92.58,KVGT 022153Z 07015G23KT 10SM CLR 33/17 A2998 RMK AO2 SLP141 T03330167,M
LOL,2023-08-02 21:53,-118.5701,40.0684,1192.43,93.00,42.00,17.13,120.00,6.00,0.00,29.99,1010.90,10.00,M,CLR,M,M,M,M,M,M,M,M,M,M,M,M,M,M,88.92,KLOL 022153Z AUTO 12006KT 10SM CLR 34/06 A2999 RMK AO2 SLP109 T03390056,M
BVU,2023-08-02 21:55,-114.8611,35.9475,671.00,89.60,60.80,38.18,90.00,9.00,0.00,29.99,M,10.00,M,CLR,M,M,M,M,M,M,M,M,M,M,M,M,M,M,89.54,KBVU 022155Z AUTO 09009KT 10SM CLR 32/16 A2999 RMK AO2,M
CXP,2023-08-02 21:55,-119.7326,39.1923,1431.00,87.80,33.80,14.61,M,6.00,0.00,30.08,M,10.00,M,CLR,M,M,M,M,M,M,M,M,M,M,M,M,M,M,84.10,KCXP 022155Z AUTO VRB06KT 10SM CLR 31/01 A3008 RMK AO2,M
RNO,2023-08-02 21:55,-119.7711,39.4839,1341.00,91.00,36.00,14.42,30.00,5.00,0.00,30.05,1011.10,10.00,M,FEW,SCT,M,M,10000.00,19000.00,M,M,M,M,M,M,M,M,M,86.83,KRNO 022155Z 03005KT 10SM FEW100 SCT190 33/02 A3005 RMK AO2 SLP111 T03280022 $,M
LSV,2023-08-02 21:55,-115.0343,36.2362,570.00,93.40,60.80,33.90,20.00,15.00,0.00,29.95,1011.70,10.00,M,CLR,M,M,M,M,M,M,M,M,M,M,M,M,M,M,93.54,KLSV 022155Z AUTO 02015KT 10SM CLR 34/16 A2995 RMK AO2 SLP117 T03410160 $,M
RTS,2023-08-02 21:55,-119.8764,39.6682,1539.00,84.20,33.80,16.39,0.00,0.00,0.00,30.11,M,10.00,10.00,CLR,M,M,M,M,M,M,M,M,M,M,M,M,M,M,81.30,KRTS 022155Z AUTO 00000G10KT 10SM CLR 29/01 A3011 RMK AO2,M
05U,2023-08-02 21:55,-116.0051,39.6042,1811.23,66.20,55.40,68.15,M,M,0.00,30.24,M,10.00,M,M,M,M,M,M,M,M,M,M,M,M,M,M,M,M,66.20,K05U 022155Z AUTO 10SM 19/13 A3024 RMK A01,M
MEV,2023-08-02 21:55,-119.7500,38.9963,1441.42,87.80,39.20,18.09,270.00,13.00,0.00,30.07,M,10.00,M,CLR,M,M,M,M,M,M,M,M,M,M,M,M,M,M,84.22,KMEV 022155Z AUTO 27013KT 10SM CLR 31/04 A3007 RMK AO2,M
10U,2023-08-02 21:55,-116.1876,41.9532,1637.00,80.60,46.40,30.07,60.00,10.00,0.00,30.15,M,10.00,18.00,BKN,M,M,M,12000.00,M,M,M,M,M,M,M,M,M,M,79.56,K10U 022155Z AUTO 06010G18KT 10SM BKN120 27/08 A3015 RMK AO2,M
TMT,2023-08-02 21:55,-117.1971,39.4643,1749.34,77.00,42.80,29.51,330.00,7.00,0.00,30.18,M,M,M,BKN,M,M,M,10000.00,M,M,M,M,M,M,M,M,M,M,77.00,KTMT 022155Z AUTO 33007KT BKN100 25/06 A3018 RMK AO2 LTG DSNT N T02510060 PWINO,M
INS,2023-08-02 21:55,-115.6733,36.5872,955.00,86.00,57.60,38.17,60.00,11.00,0.00,30.03,1012.10,10.00,M,SCT,M,M,M,18000.00,M,M,M,M,M,M,M,M,M,M,85.08,KINS 022155Z AUTO 06011KT 10SM SCT180 30/14 A3003 RMK AO2 SLP121 T03010142 $,M
EKO,2023-08-02 21:56,-115.7860,40.8242,1367.00,84.00,48.00,28.60,M,3.00,0.00,30.11,1013.30,10.00,M,FEW,SCT,M,M,9000.00,12000.00,M,M,M,M,M,M,M,M,M,81.87,KEKO 022156Z AUTO VRB03KT 10SM FEW090 SCT120 29/09 A3011 RMK AO2 LTG DSNT ALQDS SLP133 T02890089,M
WMC,2023-08-02 21:56,-117.8072,40.9019,1315.00,92.00,37.00,14.54,30.00,5.00,0.00,30.03,1010.90,10.00,M,CLR,M,M,M,M,M,M,M,M,M,M,M,M,M,M,87.74,KWMC 022156Z AUTO 03005KT 10SM CLR 33/03 A3003 RMK AO2 LTG DSNT S AND SW SLP109 T03330028,M
NFL,2023-08-02 21:56,-118.7010,39.4166,1199.00,94.00,38.00,14.21,M,M,0.00,30.00,1012.90,10.00,M,SCT,SCT,SCT,M,7000.00,15000.00,22000.00,M,M,M,M,M,M,M,M,89.58,KNFL 022156Z 10SM SCT070 SCT150 SCT220 34/03 A3000 RMK AO2 SLP129 CB DSNT NE-SE T03440033,M
HND,2023-08-02 21:56,-115.1344,35.9729,742.79,93.00,63.00,37.10,40.00,7.00,0.00,30.02,1015.00,10.00,M,CLR,M,M,M,M,M,M,M,M,M,M,M,M,M,M,94.18,KHND 022156Z 04007KT 360V070 10SM CLR 34/17 A3002 RMK AO2 SLP150 T03390172,M
TPH,2023-08-02 21:56,-117.0904,38.0505,1654.00,88.00,45.00,22.47,200.00,12.00,0.00,30.12,1011.20,10.00,20.00,SCT,M,M,M,10000.00,M,M,M,M,M,M,M,M,M,M,84.72,KTPH 022156Z AUTO 20012G20KT 10SM SCT100 31/07 A3012 RMK AO2 LTG DSNT N AND NE SLP112 T03110072,M
LAS,2023-08-02 21:56,-115.1634,36.0719,663.00,91.00,60.00,35.51,M,M,0.00,29.99,1012.70,10.00,M,FEW,FEW,SCT,M,10000.00,15000.00,25000.00,M,M,M,M,M,M,M,M,90.65,KLAS 022156Z 10SM FEW100 FEW150 SCT250 33/16 A2999 RMK AO2 SLP127 CB DSNT N-NE T03280156,M
LAS,2023-08-02 21:59,-115.1634,36.0719,663.00,91.00,60.00,35.51,100.00,8.00,0.00,29.99,M,10.00,M,FEW,FEW,SCT,M,10000.00,15000.00,25000.00,M,M,M,M,M,M,M,M,90.65,KLAS 022159Z 10008KT 10SM FEW100 FEW150 SCT250 33/16 A2999 RMK AO2 CB DSNT N-NE T03280156,M
EKO,2023-08-02 22:08,-115.7860,40.8242,1367.00,82.00,47.00,29.39,0.00,0.00,0.00,30.11,M,10.00,M,FEW,FEW,M,M,9000.00,12000.00,M,M,VCTS,M,M,M,M,M,M,80.44,KEKO 022208Z AUTO 00000KT 10SM VCTS FEW090 FEW120 28/08 A3011 RMK AO2 LTG DSNT ALQDS T02780083,M
BAM,2023-08-02 22:10,-116.8743,40.5990,1382.36,82.40,50.00,32.46,50.00,17.00,0.00,30.11,M,10.00,23.00,BKN,M,M,M,10000.00,M,M,M,M,M,M,M,M,M,M,80.99,KBAM 022210Z AUTO 05017G23KT 10SM BKN100 28/10 A3011 RMK AO1,M
BVU,2023-08-02 22:15,-114.8611,35.9475,671.00,91.40,62.60,38.45,M,6.00,0.00,29.98,M,10.00,13.00,CLR,M,M,M,M,M,M,M,M,M,M,M,M,M,M,92.23,KBVU 022215Z AUTO VRB06G13KT 10SM CLR 33/17 A2998 RMK AO2,M
CXP,2023-08-02 22:15,-119.7326,39.1923,1431.00,89.60,35.60,14.83,310.00,12.00,0.00,30.07,M,10.00,M,CLR,M,M,M,M,M,M,M,M,M,M,M,M,M,M,85.62,KCXP 022215Z AUTO 31012KT 10SM CLR 32/02 A3007 RMK AO2,M
RTS,2023-08-02 22:15,-119.8764,39.6682,1539.00,86.00,35.60,16.63,40.00,5.00,0.00,30.11,M,10.00,M,CLR,M,M,M,M,M,M,M,M,M,M,M,M,M,M,82.69,KRTS 022215Z AUTO 04005KT 10SM CLR 30/02 A3011 RMK AO2,M
05U,2023-08-02 22:15,-116.0051,39.6042,1811.23,66.20,53.60,63.82,M,M,0.00,30.23,M,10.00,M,M,M,M,M,M,M,M,M,M,M,M,M,M,M,M,66.20,K05U 022215Z AUTO 10SM 19/12 A3023 RMK A01,M
MEV,2023-08-02 22:15,-119.7500,38.9963,1441.42,86.00,41.00,20.54,280.00,12.00,0.00,30.07,M,10.00,19.00,CLR,M,M,M,M,M,M,M,M,M,M,M,M,M,M,82.86,KMEV 022215Z AUTO 28012G19KT 250V310 10SM CLR 30/05 A3007 RMK AO2,M
HTH,2023-08-02 22:15,-118.6315,38.5448,1282.89,95.00,37.40,13.46,350.00,6.00,0.00,29.99,M,10.00,12.00,CLR,M,M,M,M,M,M,M,M,M,M,M,M,M,M,90.46,KHTH 022215Z AUTO 35006G12KT 10SM CLR 35/03 A2999 RMK A01,M
10U,2023-08-02 22:15,-116.1876,41.9532,1637.00,80.60,46.40,30.07,50.00,10.00,0.00,30.15,M,10.00,16.00,FEW,M,M,M,12000.00,M,M,M,M,M,M,M,M,M,M,79.56,K10U 022215Z AUTO 05010G16KT 10SM FEW120 27/08 A3015 RMK AO2,M
TMT,2023-08-02 22:15,-117.1971,39.4643,1749.34,77.70,43.30,29.40,350.00,3.00,0.00,30.18,M,M,M,BKN,M,M,M,10000.00,M,M,M,M,M,M,M,M,M,M,77.70,KTMT 022215Z AUTO 35003KT BKN100 25/06 A3018 RMK AO2 LTG DSNT E THRU SW T02540063 PWINO,M
BAM,2023-08-02 22:30,-116.8743,40.5990,1382.36,78.80,51.80,39.02,60.00,17.00,0.00,30.11,M,10.00,25.00,SCT,SCT,OVC,M,3200.00,4400.00,10000.00,M,M,M,M,M,M,M,M,78.80,KBAM 022230Z AUTO 06017G25KT 10SM SCT032 SCT044 OVC100 26/11 A3011 RMK AO1,M
EKO,2023-08-02 22:33,-115.7860,40.8242,1367.00,80.00,50.00,35.10,320.00,18.00,0.00,30.12,M,10.00,27.00,OVC,M,M,M,8000.00,M,M,M,TS,M,M,M,27.00,300.00,2023-08-02 22:28,79.55,KEKO 022233Z AUTO 32018G27KT 10SM TS OVC080 27/10 A3012 RMK AO2 PK WND 30027/2228 WSHFT 2217 LTG DSNT ALQDS TSB33 T02670100,M
BVU,2023-08-02 22:35,-114.8611,35.9475,671.00,91.40,60.80,36.08,M,6.00,0.00,29.97,M,10.00,M,CLR,M,M,M,M,M,M,M,M,M,M,M,M,M,M,91.40,KBVU 022235Z AUTO VRB06KT 10SM CLR 33/16 A2997 RMK AO2,M
CXP,2023-08-02 22:35,-119.7326,39.1923,1431.00,89.60,37.40,15.92,290.00,7.00,0.00,30.07,M,10.00,14.00,CLR,M,M,M,M,M,M,M,M,M,M,M,M,M,M,85.67,KCXP 022235Z AUTO 29007G14KT 250V330 10SM CLR 32/03 A3007 RMK AO2,M
RTS,2023-08-02 22:35,-119.8764,39.6682,1539.00,86.00,32.00,14.40,M,5.00,0.00,30.10,M,10.00,M,CLR,M,M,M,M,M,M,M,M,M,M,M,M,M,M,82.64,KRTS 022235Z AUTO VRB05KT 10SM CLR 30/00 A3010 RMK AO2,M
05U,2023-08-02 22:35,-116.0051,39.6042,1811.23,68.00,51.80,56.13,M,M,0.00,30.25,M,10.00,M,M,M,M,M,M,M,M,M,M,M,M,M,M,M,M,68.00,K05U 022235Z AUTO 10SM 20/11 A3025 RMK A01,M
MEV,2023-08-02 22:35,-119.7500,38.9963,1441.42,87.80,41.00,19.40,280.00,14.00,0.00,30.06,M,10.00,21.00,CLR,M,M,M,M,M,M,M,M,M,M,M,M,M,M,84.30,KMEV 022235Z AUTO 28014G21KT 10SM CLR 31/05 A3006 RMK AO2,M
HTH,2023-08-02 22:35,-118.6315,38.5448,1282.89,93.20,37.40,14.23,M,5.00,0.00,29.98,M,10.00,M,CLR,M,M,M,M,M,M,M,M,M,M,M,M,M,M,88.83,KHTH 022235Z AUTO VRB05KT 10SM CLR 34/03 A2998 RMK A01,M
10U,2023-08-02 22:35,-116.1876,41.9532,1637.00,80.60,46.40,30.07,60.00,9.00,0.00,30.15,M,10.00,M,CLR,M,M,M,M,M,M,M,M,M,M,M,M,M,M,79.56,K10U 022235Z AUTO 06009KT 030V090 10SM CLR 27/08 A3015 RMK AO2,M
TMT,2023-08-02 22:35,-117.1971,39.4643,1749.34,74.00,51.40,45.10,140.00,8.00,0.00,30.19,M,M,M,BKN,M,M,M,10000.00,M,M,M,M,M,M,M,M,M,M,74.00,KTMT 022235Z AUTO 14008KT BKN100 23/11 A3019 RMK AO2 LTG DSNT E T02330108 PWINO,M
LSV,2023-08-02 22:36,-115.0343,36.2362,570.00,93.20,60.80,34.11,50.00,13.00,0.00,29.93,1011.00,10.00,19.00,CLR,M,M,M,M,M,M,M,M,M,M,M,M,M,M,93.32,KLSV 022236Z AUTO 05013G19KT 10SM CLR 34/16 A2993 RMK AO2 WSHFT 21 SLP110 $,M
BAM,2023-08-02 22:50,-116.8743,40.5990,1382.36,78.80,51.80,39.02,80.00,17.00,0.00,30.11,M,10.00,M,SCT,SCT,SCT,M,4000.00,5000.00,10000.00,M,M,M,M,M,M,M,M,78.80,KBAM 022250Z AUTO 08017KT 10SM SCT040 SCT050 SCT100 26/11 A3011 RMK AO1,M
P68,2023-08-02 22:53,-116.0056,39.6014,1993.00,67.00,51.00,56.41,0.00,0.00,0.00,30.23,1016.60,M,M,M,M,M,M,M,M,M,M,M,M,M,M,M,M,M,67.00,KP68 022253Z AUTO 00000KT 19/11 A3023 RMK AO1 SLP166 T01940106,M
DRA,2023-08-02 22:53,-116.0278,36.6206,1009.00,94.00,51.00,23.33,140.00,15.00,0.00,29.99,1010.10,10.00,21.00,CLR,M,M,M,M,M,M,M,M,M,M,M,26.00,150.00,2023-08-02 21:58,91.08,KDRA 022253Z AUTO 14015G21KT 10SM CLR 34/11 A2999 RMK AO2 PK WND 15026/2158 SLP101 T03440106,M
ELY,2023-08-02 22:53,-114.8453,39.2950,1909.00,69.00,54.00,58.80,240.00,10.00,0.00,30.21,1014.40,10.00,15.00,SCT,BKN,BKN,M,4000.00,4700.00,6500.00,M,M,M,M,M,M,M,M,69.00,KELY 022253Z AUTO 24010G15KT 10SM SCT040 BKN047 BKN065 21/12 A3021 RMK AO2 SLP144 T02060122 TSNO,M
VGT,2023-08-02 22:53,-115.1933,36.2111,667.00,92.00,62.00,36.95,100.00,10.00,0.00,29.95,1013.40,10.00,20.00,CLR,M,M,M,M,M,M,M,M,M,M,M,M,M,M,92.58,KVGT 022253Z 10010G20KT 10SM CLR 33/17 A2995 RMK AO2 SLP134 T03330167,M
LOL,2023-08-02 22:53,-118.5701,40.0684,1192.43,94.00,41.00,15.97,200.00,8.00,0.00,29.97,1010.20,10.00,15.00,CLR,M,M,M,M,M,M,M,M,M,M,M,M,M,M,89.77,KLOL 022253Z AUTO 20008G15KT 150V230 10SM CLR 34/05 A2997 RMK AO2 LTG DSNT NE SLP102 T03440050,M
EKO,2023-08-02 22:54,-115.7860,40.8242,1367.00,73.40,53.60,49.90,330.00,13.00,0.00,30.13,M,10.00,23.00,BKN,BKN,M,M,8000.00,12000.00,M,M,VCTS,M,M,M,28.00,320.00,2023-08-02 22:34,73.40,KEKO 022254Z AUTO 33013G23KT 10SM VCTS BKN080 BKN120 23/12 A3013 RMK AO2 PK WND 32028/2234 WSHFT 2217 LTG DSNT N AND NE AND S TSB33E48,M
BVU,2023-08-02 22:55,-114.8611,35.9475,671.00,91.40,59.00,33.84,M,6.00,0.00,29.96,M,10.00,11.00,CLR,M,M,M,M,M,M,M,M,M,M,M,M,M,M,90.68,KBVU 022255Z AUTO VRB06G11KT 10SM CLR 33/15 A2996 RMK AO2,M
CXP,2023-08-02 22:55,-119.7326,39.1923,1431.00,89.60,37.40,15.92,300.00,5.00,0.00,30.06,M,10.00,14.00,CLR,M,M,M,M,M,M,M,M,M,M,M,M,M,M,85.67,KCXP 022255Z AUTO 30005G14KT 10SM CLR 32/03 A3006 RMK AO2,M
INS,2023-08-02 22:55,-115.6733,36.5872,955.00,89.20,56.30,32.90,90.00,12.00,0.00,30.00,1010.90,10.00,M,CLR,M,M,M,M,M,M,M,M,M,M,M,M,M,M,87.64,KINS 022255Z AUTO 09012KT 10SM CLR 32/14 A3000 RMK AO2 SLP109 T03180135 $,M
RNO,2023-08-02 22:55,-119.7711,39.4839,1341.00,92.00,38.00,15.12,230.00,6.00,0.00,30.03,1010.40,10.00,M,FEW,SCT,M,M,12000.00,25000.00,M,M,M,M,M,M,M,M,M,87.78,KRNO 022255Z 23006KT 10SM FEW120 SCT250 33/03 A3003 RMK AO2 SLP104 T03330033,M
LSV,2023-08-02 22:55,-115.0343,36.2362,570.00,93.60,61.00,33.93,10.00,12.00,0.00,29.92,1010.70,10.00,18.00,CLR,M,M,M,M,M,M,M,M,M,M,M,M,M,M,93.85,KLSV 022255Z AUTO 01012G18KT 10SM CLR 34/16 A2992 RMK AO2 SLP107 T03420161 $,M
RTS,2023-08-02 22:55,-119.8764,39.6682,1539.00,87.80,35.60,15.70,280.00,11.00,0.00,30.10,M,10.00,20.00,CLR,M,M,M,M,M,M,M,M,M,M,M,M,M,M,84.12,KRTS 022255Z AUTO 28011G20KT 250V310 10SM CLR 31/02 A3010 RMK AO2,M
05U,2023-08-02 22:55,-116.0051,39.6042,1811.23,68.00,50.00,52.51,M,M,0.00,30.25,M,10.00,M,M,M,M,M,M,M,M,M,M,M,M,M,M,M,M,68.00,K05U 022255Z AUTO 10SM 20/10 A3025 RMK A01,M
MEV,2023-08-02 22:55,-119.7500,38.9963,1441.42,86.00,42.80,22.02,270.00,17.00,0.00,30.06,M,10.00,23.00,CLR,M,M,M,M,M,M,M,M,M,M,M,M,M,M,82.95,KMEV 022255Z AUTO 27017G23KT 10SM CLR 30/06 A3006 RMK AO2,M
HTH,2023-08-02 22:55,-118.6315,38.5448,1282.89,95.00,39.20,14.44,310.00,10.00,0.00,29.96,M,10.00,16.00,CLR,M,M,M,M,M,M,M,M,M,M,M,M,M,M,90.57,KHTH 022255Z AUTO 31010G16KT 10SM CLR 35/04 A2996 RMK A01,M
TMT,2023-08-02 22:55,-117.1971,39.4643,1749.34,78.30,47.00,33.17,100.00,7.00,0.00,30.18,M,M,M,SCT,M,M,M,9000.00,M,M,M,VCTS,M,M,M,M,M,M,78.30,KTMT 022255Z AUTO 10007KT VCTS SCT090 26/08 A3018 RMK AO2 LTG DSNT N T02570084,M
10U,2023-08-02 22:55,-116.1876,41.9532,1637.00,80.60,46.40,30.07,60.00,7.00,0.00,30.15,M,10.00,M,CLR,M,M,M,M,M,M,M,M,M,M,M,M,M,M,79.56,K10U 022255Z AUTO 06007KT 040V100 10SM CLR 27/08 A3015 RMK AO2,M
EKO,2023-08-02 22:56,-115.7860,40.8242,1367.00,72.00,54.00,53.09,320.00,13.00,T,30.13,1015.40,10.00,23.00,BKN,BKN,M,M,8000.00,12000.00,M,M,VCTS -RA,M,M,M,28.00,320.00,2023-08-02 22:34,72.00,KEKO 022256Z AUTO 32013G23KT 10SM VCTS -RA BKN080 BKN120 22/12 A3013 RMK AO2 PK WND 32028/2234 WSHFT 2217 LTG DSNT N AND NE AND S RAB56 TSB33E48 SLP154 P0000 T02220122,M
WMC,2023-08-02 22:56,-117.8072,40.9019,1315.00,81.00,53.00,37.95,150.00,10.00,T,30.05,1012.20,7.00,M,OVC,M,M,M,10000.00,M,M,M,-RA,M,M,M,M,M,M,80.46,KWMC 022256Z AUTO 15010KT 7SM -RA OVC100 27/12 A3005 RMK AO2 LTG DSNT S RAB50 SLP122 P0000 T02720117,M
NFL,2023-08-02 22:56,-118.7010,39.4166,1199.00,94.00,35.00,12.62,M,4.00,0.00,29.97,1012.20,10.00,15.00,CLR,M,M,M,M,M,M,M,M,M,M,M,M,M,M,89.36,KNFL 022256Z VRB04G15KT 10SM CLR 34/02 A2997 RMK AO2 SLP122 T03440017,M
HND,2023-08-02 22:56,-115.1344,35.9729,742.79,93.00,63.00,37.10,30.00,12.00,0.00,29.98,1013.90,10.00,M,CLR,M,M,M,M,M,M,M,M,M,M,M,M,M,M,94.18,KHND 022256Z 03012KT 10SM CLR 34/17 A2998 RMK AO2 SLP139 T03390172,M
TPH,2023-08-02 22:56,-117.0904,38.0505,1654.00,85.00,43.00,22.91,240.00,10.00,0.00,30.10,1011.00,10.00,M,BKN,M,M,M,11000.00,M,M,M,M,M,M,M,M,M,M,82.21,KTPH 022256Z AUTO 24010KT 10SM BKN110 29/06 A3010 RMK AO2 LTG DSNT N AND NE SLP110 T02940061,M
LAS,2023-08-02 22:56,-115.1634,36.0719,663.00,92.00,61.00,35.66,60.00,10.00,0.00,29.96,1011.80,10.00,M,FEW,FEW,SCT,M,10000.00,15000.00,25000.00,M,M,M,M,M,27.00,40.00,2023-08-02 22:36,92.12,KLAS 022256Z 06010KT 10SM FEW100 FEW150 SCT250 33/16 A2996 RMK AO2 PK WND 04027/2236 SLP118 CB DSNT N-NE T03330161,M
NFL,2023-08-02 22:58,-118.7010,39.4166,1199.00,94.00,36.00,13.13,300.00,5.00,0.00,29.97,M,10.00,15.00,SCT,SCT,SCT,SCT,7000.00,15000.00,18000.00,22000.00,M,M,M,M,M,M,M,89.49,KNFL 022258Z 30005G15KT 10SM SCT070 SCT150 SCT180 SCT220 34/02 A2997 RMK AO2 CB DSNT NE-SE T03440022,M
WMC,2023-08-02 23:06,-117.8072,40.9019,1315.00,74.00,58.00,57.37,90.00,17.00,0.03,30.05,M,6.00,27.00,FEW,OVC,M,M,7000.00,10000.00,M,M,-TSRA,M,M,M,27.00,80.00,2023-08-02 23:06,74.00,KWMC 022306Z AUTO 09017G27KT 6SM -TSRA FEW070 OVC100 23/14 A3005 RMK AO2 PK WND 08027/2306 LTG DSNT S TSB00 P0003 T02330144,M
EKO,2023-08-02 23:10,-115.7860,40.8242,1367.00,71.00,53.00,52.95,310.00,12.00,T,30.12,M,10.00,19.00,BKN,M,M,M,8000.00,M,M,M,M,M,M,M,M,M,M,71.00,KEKO 022310Z AUTO 31012G19KT 10SM BKN080 22/12 A3012 RMK AO2 LTG DSNT ALQDS RAE06 P0000 T02170117,M
BAM,2023-08-02 23:10,-116.8743,40.5990,1382.36,80.60,50.00,34.41,80.00,11.00,0.00,30.10,M,10.00,19.00,SCT,M,M,M,12000.00,M,M,M,M,M,M,M,M,M,M,79.88,KBAM 022310Z AUTO 08011G19KT 10SM SCT120 27/10 A3010 RMK AO1,M
BVU,2023-08-02 23:15,-114.8611,35.9475,671.00,93.20,57.20,29.99,120.00,7.00,0.00,29.95,M,10.00,M,CLR,M,M,M,M,M,M,M,M,M,M,M,M,M,M,91.91,KBVU 022315Z AUTO 12007KT 10SM CLR 34/14 A2995 RMK AO2,M
CXP,2023-08-02 23:15,-119.7326,39.1923,1431.00,89.60,41.00,18.33,240.00,10.00,0.00,30.06,M,10.00,19.00,CLR,M,M,M,M,M,M,M,M,M,M,M,M,M,M,85.82,KCXP 022315Z AUTO 24010G19KT 10SM CLR 32/05 A3006 RMK AO2,M
RTS,2023-08-02 23:15,-119.8764,39.6682,1539.00,87.80,35.60,15.70,300.00,13.00,0.00,30.09,M,10.00,23.00,CLR,M,M,M,M,M,M,M,M,M,M,M,M,M,M,84.12,KRTS 022315Z AUTO 30013G23KT 10SM CLR 31/02 A3009 RMK AO2,M
05U,2023-08-02 23:15,-116.0051,39.6042,1811.23,66.20,53.60,63.82,M,M,0.00,30.25,M,9.00,M,M,M,M,M,M,M,M,M,M,M,M,M,M,M,M,66.20,K05U 022315Z AUTO 9SM 19/12 A3025 RMK A01,M
MEV,2023-08-02 23:15,-119.7500,38.9963,1441.42,86.00,42.80,22.02,280.00,14.00,0.00,30.06,M,10.00,21.00,CLR,M,M,M,M,M,M,M,M,M,M,M,M,M,M,82.95,KMEV 022315Z AUTO 28014G21KT 10SM CLR 30/06 A3006 RMK AO2,M
HTH,2023-08-02 23:15,-118.6315,38.5448,1282.89,93.20,37.40,14.23,340.00,5.00,0.00,29.96,M,10.00,15.00,CLR,M,M,M,M,M,M,M,M,M,M,M,M,M,M,88.83,KHTH 022315Z AUTO 34005G15KT 10SM CLR 34/03 A2996 RMK A01,M
10U,2023-08-02 23:15,-116.1876,41.9532,1637.00,80.60,44.60,28.08,70.00,8.00,0.00,30.14,M,10.00,M,CLR,M,M,M,M,M,M,M,M,M,M,M,M,M,M,79.42,K10U 022315Z AUTO 07008KT 10SM CLR 27/07 A3014 RMK AO2,M
TMT,2023-08-02 23:15,-117.1971,39.4643,1749.34,77.00,48.20,36.22,80.00,13.00,0.00,30.18,M,M,20.00,CLR,M,M,M,M,M,M,M,M,M,M,M,M,M,M,77.00,KTMT 022315Z AUTO 08013G20KT CLR 25/09 A3018 RMK AO2 LTG DSNT ALQS T02500090 PWINO,M
WMC,2023-08-02 23:24,-117.8072,40.9019,1315.00,74.00,53.00,47.84,50.00,16.00,0.04,30.06,M,10.00,28.00,FEW,FEW,BKN,M,3600.00,9500.00,11000.00,M,TS,M,M,M,32.00,90.00,2023-08-02 23:07,74.00,KWMC 022324Z AUTO 05016G28KT 10SM TS FEW036 FEW095 BKN110 23/12 A3006 RMK AO2 PK WND 09032/2307 WSHFT 2304 LTG DSNT S RAE24 TSB00 P0004 T02330117,M
BAM,2023-08-02 23:30,-116.8743,40.5990,1382.36,80.60,46.40,30.07,80.00,8.00,0.00,30.10,M,10.00,M,SCT,M,M,M,11000.00,M,M,M,M,M,M,M,M,M,M,79.56,KBAM 022330Z AUTO 08008KT 10SM SCT110 27/08 A3010 RMK AO1,M
BVU,2023-08-02 23:35,-114.8611,35.9475,671.00,93.20,57.20,29.99,120.00,5.00,0.00,29.94,M,10.00,14.00,CLR,M,M,M,M,M,M,M,M,M,M,M,M,M,M,91.91,KBVU 022335Z AUTO 12005G14KT 10SM CLR 34/14 A2994 RMK AO2,M
CXP,2023-08-02 23:35,-119.7326,39.1923,1431.00,87.80,41.00,19.40,250.00,12.00,0.00,30.06,M,10.00,19.00,CLR,M,M,M,M,M,M,M,M,M,M,M,M,M,M,84.30,KCXP 022335Z AUTO 25012G19KT 10SM CLR 31/05 A3006 RMK AO2,M
RTS,2023-08-02 23:35,-119.8764,39.6682,1539.00,86.00,35.60,16.63,290.00,13.00,0.00,30.09,M,10.00,19.00,CLR,M,M,M,M,M,M,M,M,M,M,M,M,M,M,82.69,KRTS 022335Z AUTO 29013G19KT 10SM CLR 30/02 A3009 RMK AO2,M
05U,2023-08-02 23:35,-116.0051,39.6042,1811.23,64.40,57.20,77.45,M,M,0.00,30.26,M,7.00,M,M,M,M,M,M,M,M,M,M,M,M,M,M,M,M,64.40,K05U 022335Z AUTO 7SM 18/14 A3026 RMK A01,M
MEV,2023-08-02 23:35,-119.7500,38.9963,1441.42,86.00,44.60,23.59,270.00,17.00,0.00,30.05,M,10.00,24.00,CLR,M,M,M,M,M,M,M,M,M,M,M,M,M,M,83.07,KMEV 022335Z AUTO 27017G24KT 10SM CLR 30/07 A3005 RMK AO2,M
HTH,2023-08-02 23:35,-118.6315,38.5448,1282.89,93.20,35.60,13.25,30.00,7.00,0.00,29.96,M,10.00,M,CLR,M,M,M,M,M,M,M,M,M,M,M,M,M,M,88.76,KHTH 022335Z AUTO 03007KT 10SM CLR 34/02 A2996 RMK A01,M
10U,2023-08-02 23:35,-116.1876,41.9532,1637.00,80.60,44.60,28.08,70.00,10.00,0.00,30.14,M,10.00,M,CLR,M,M,M,M,M,M,M,M,M,M,M,M,M,M,79.42,K10U 022335Z AUTO 07010KT 10SM CLR 27/07 A3014 RMK AO2,M
TMT,2023-08-02 23:35,-117.1971,39.4643,1749.34,76.00,48.00,37.17,70.00,10.00,0.00,30.18,M,M,M,CLR,M,M,M,M,M,M,M,M,M,M,M,M,M,M,76.00,KTMT 022335Z AUTO 07010KT CLR 25/09 A3018 RMK AO2 LTG DSNT SE THRU W T02450088 PWINO,M
EKO,2023-08-02 23:40,-115.7860,40.8242,1367.00,68.00,56.00,65.45,150.00,6.00,0.02,30.14,M,9.00,M,FEW,BKN,OVC,M,2500.00,9000.00,11000.00,M,VCTS -RA,M,M,M,M,M,M,68.00,KEKO 022340Z AUTO 15006KT 9SM VCTS -RA FEW025 BKN090 OVC110 20/13 A3014 RMK AO2 LTG DSNT NE AND S RAE06B15 P0002 T02000133,M
BAM,2023-08-02 23:50,-116.8743,40.5990,1382.36,80.60,51.80,36.79,30.00,7.00,0.00,30.10,M,10.00,M,BKN,M,M,M,11000.00,M,M,M,M,M,M,M,M,M,M,80.08,KBAM 022350Z AUTO 03007KT 10SM BKN110 27/11 A3010 RMK AO1,M
P68,2023-08-02 23:53,-116.0056,39.6014,1993.00,63.00,59.00,86.77,190.00,6.00,0.04,30.23,1017.10,M,M,M,M,M,M,M,M,M,M,M,M,M,M,M,M,M,63.00,KP68 022353Z AUTO 19006KT 17/15 A3023 RMK AO1 SLP171 P0004 60004 T01720150 10261 20172 51016,M
DRA,2023-08-02 23:53,-116.0278,36.6206,1009.00,97.00,28.00,8.67,210.00,14.00,0.00,29.96,1009.20,10.00,25.00,CLR,M,M,M,M,M,M,M,M,M,M,M,M,M,M,90.87,KDRA 022353Z AUTO 21014G25KT 10SM CLR 36/M02 A2996 RMK AO2 SLP092 60000 T03611022 10367 20267 56025,M
ELY,2023-08-02 23:53,-114.8453,39.2950,1909.00,67.00,53.00,60.73,290.00,12.00,0.00,30.21,1014.70,10.00,M,OVC,M,M,M,6000.00,M,M,M,M,M,M,M,M,M,M,67.00,KELY 022353Z AUTO 29012KT 10SM OVC060 19/12 A3021 RMK AO2 SLP147 T01940117 10217 20156 56011 TSNO,M
VGT,2023-08-02 23:53,-115.1933,36.2111,667.00,94.00,62.00,34.72,70.00,13.00,0.00,29.93,1012.40,10.00,21.00,CLR,M,M,M,M,M,M,M,M,M,M,M,M,M,M,94.78,KVGT 022353Z 07013G21KT 10SM CLR 34/17 A2993 RMK AO2 SLP124 T03440167 10344 20278 58025,M
LOL,2023-08-02 23:53,-118.5701,40.0684,1192.43,93.00,39.00,15.24,180.00,5.00,0.00,29.95,1009.40,10.00,14.00,CLR,M,M,M,M,M,M,M,M,M,M,M,M,M,M,88.73,KLOL 022353Z AUTO 18005G14KT 10SM CLR 34/04 A2995 RMK AO2 LTG DSNT N AND NE SLP094 T03390039 10350 20294 58017,M
BVU,2023-08-02 23:55,-114.8611,35.9475,671.00,93.20,55.40,28.10,90.00,6.00,0.00,29.93,M,10.00,M,CLR,M,M,M,M,M,M,M,M,M,M,M,M,M,M,91.35,KBVU 022355Z AUTO 09006KT 10SM CLR 34/13 A2993 RMK AO2,M
CXP,2023-08-02 23:55,-119.7326,39.1923,1431.00,86.00,41.00,20.54,260.00,10.00,0.00,30.05,M,10.00,22.00,CLR,M,M,M,M,M,M,M,M,M,M,M,M,M,M,82.86,KCXP 022355Z AUTO 26010G22KT 240V300 10SM CLR 30/05 A3005 RMK AO2,M
INS,2023-08-02 23:55,-115.6733,36.5872,955.00,89.80,54.00,29.70,80.00,15.00,0.00,29.97,1009.90,10.00,M,CLR,M,M,M,M,M,M,M,M,M,M,M,M,M,M,87.63,KINS 022355Z AUTO 08015KT 10SM CLR 32/12 A2997 RMK AO2 SLP099 60000 T03210123 10322 20258 57024 $,M
RNO,2023-08-02 23:55,-119.7711,39.4839,1341.00,93.00,39.00,15.24,300.00,16.00,0.00,30.01,1009.60,10.00,21.00,FEW,BKN,M,M,12000.00,25000.00,M,M,M,M,M,M,M,M,M,88.73,KRNO 022355Z 30016G21KT 10SM FEW120 BKN250 34/04 A3001 RMK AO2 SLP096 T03390039 10344 20278 58016,M
LSV,2023-08-02 23:55,-115.0343,36.2362,570.00,93.00,60.30,33.72,20.00,15.00,0.00,29.90,1010.00,10.00,M,CLR,M,M,M,M,M,M,M,M,M,M,M,M,M,M,92.89,KLSV 022355Z AUTO 02015KT 10SM CLR 34/16 A2990 RMK AO2 SLP100 T03380157 10344 20290 57025 $,M
RTS,2023-08-02 23:55,-119.8764,39.6682,1539.00,86.00,37.40,17.85,270.00,13.00,0.00,30.09,M,10.00,20.00,CLR,M,M,M,M,M,M,M,M,M,M,M,M,M,M,82.73,KRTS 022355Z AUTO 27013G20KT 10SM CLR 30/03 A3009 RMK AO2,M
05U,2023-08-02 23:55,-116.0051,39.6042,1811.23,62.60,59.00,88.00,M,M,0.02,30.25,M,5.00,M,M,M,M,M,M,M,M,M,BR,M,M,M,M,M,M,62.60,K05U 022355Z AUTO 5SM BR 17/15 A3025 RMK A01 P0002,M
MEV,2023-08-02 23:55,-119.7500,38.9963,1441.42,86.00,44.60,23.59,260.00,16.00,0.00,30.05,M,10.00,M,CLR,M,M,M,M,M,M,M,M,M,M,M,M,M,M,83.07,KMEV 022355Z AUTO 26016KT 10SM CLR 30/07 A3005 RMK AO2,M
HTH,2023-08-02 23:55,-118.6315,38.5448,1282.89,91.40,39.20,16.15,330.00,7.00,0.00,29.95,M,10.00,12.00,CLR,M,M,M,M,M,M,M,M,M,M,M,M,M,M,87.30,KHTH 022355Z AUTO 33007G12KT 10SM CLR 33/04 A2995 RMK A01,M
TMT,2023-08-02 23:55,-117.1971,39.4643,1749.34,76.30,46.00,34.13,70.00,7.00,0.00,30.18,M,M,M,CLR,M,M,M,M,M,M,M,M,M,M,M,M,M,M,76.30,KTMT 022355Z AUTO 07007KT CLR 25/08 A3018 RMK AO2 T02460078 10280 20233 PWINO,M
10U,2023-08-02 23:55,-116.1876,41.9532,1637.00,78.80,44.60,29.79,60.00,9.00,0.00,30.14,M,10.00,M,SCT,M,M,M,12000.00,M,M,M,M,M,M,M,M,M,M,78.80,K10U 022355Z AUTO 06009KT 10SM SCT120 26/07 A3014 RMK AO2,M
EKO,2023-08-02 23:56,-115.7860,40.8242,1367.00,71.00,54.00,54.92,60.00,9.00,0.02,30.15,1016.30,10.00,16.00,FEW,BKN,OVC,M,5000.00,9500.00,12000.00,M,VCTS,M,M,M,M,M,M,71.00,KEKO 022356Z AUTO 06009G16KT 10SM VCTS FEW050 BKN095 OVC120 22/12 A3015 RMK AO2 LTG DSNT NE AND E RAE06B15E48 SLP163 P0002 60002 T02170122 10300 20194 51013,M
WMC,2023-08-02 23:56,-117.8072,40.9019,1315.00,78.00,52.00,40.36,50.00,17.00,0.04,30.04,1012.50,10.00,23.00,FEW,SCT,M,M,10000.00,12000.00,M,M,VCTS,M,M,M,32.00,90.00,2023-08-02 23:07,78.00,KWMC 022356Z AUTO 05017G23KT 10SM VCTS FEW100 SCT120 26/11 A3004 RMK AO2 PK WND 09032/2307 WSHFT 2304 LTG DSNT S RAE24 TSB00E52 SLP125 P0004 60004 T02560111 10356 20228 50003,M
NFL,2023-08-02 23:56,-118.7010,39.4166,1199.00,93.00,36.00,13.55,0.00,0.00,0.00,29.96,1011.70,10.00,M,SCT,SCT,BKN,BKN,7000.00,15000.00,18000.00,22000.00,M,M,M,M,M,M,M,88.59,KNFL 022356Z 00000KT 10SM SCT070 SCT150 BKN180 BKN220 34/02 A2996 RMK AO2 SLP117 CB DSNT NE-SE T03390022 10356 20300 57018,M
HND,2023-08-02 23:56,-115.1344,35.9729,742.79,94.00,62.00,34.72,30.00,14.00,0.00,29.96,1013.00,10.00,M,CLR,M,M,M,M,M,M,M,M,M,M,M,M,M,M,94.78,KHND 022356Z 03014KT 10SM CLR 34/17 A2996 RMK AO2 SLP130 T03440167 10344 20278 56027,M
TPH,2023-08-02 23:56,-117.0904,38.0505,1654.00,88.00,44.00,21.63,190.00,16.00,T,30.08,1010.10,10.00,23.00,SCT,M,M,M,11000.00,M,M,M,M,M,M,M,28.00,170.00,2023-08-02 23:38,84.65,KTPH 022356Z AUTO 19016G23KT 10SM SCT110 31/07 A3008 RMK AO2 PK WND 17028/2338 LTG DSNT NW-NE RAB05E20 SLP101 P0000 60000 T03110067 10311 20244 56019,M
LAS,2023-08-02 23:56,-115.1634,36.0719,663.00,93.00,60.00,33.36,50.00,9.00,0.00,29.93,1010.90,10.00,20.00,FEW,SCT,M,M,10000.00,25000.00,M,M,M,M,M,M,M,M,M,92.76,KLAS 022356Z 05009G20KT 10SM FEW100 SCT250 34/16 A2993 RMK AO2 SLP109 T03390156 10339 20289 57026,M
