station,valid,lon,lat,elevation,tmpf,dwpf,relh,drct,sknt,p01i,alti,mslp,vsby,gust,skyc1,skyc2,skyc3,skyc4,skyl1,skyl2,skyl3,skyl4,wxcodes,ice_accretion_1hr,ice_accretion_3hr,ice_accretion_6hr,peak_wind_gust,peak_wind_drct,peak_wind_time,feel,metar,snowdepth
05U,2023-08-24 00:10,-116.0051,39.6042,1811.23,82.40,33.80,17.38,M,M,0.00,30.15,M,10.00,M,M,M,M,M,M,M,M,M,M,M,M,M,M,M,M,80.03,K05U 240010Z AUTO 10SM 28/01 A3015 RMK A01,M
BVU,2023-08-24 00:15,-114.8611,35.9475,671.00,98.60,51.80,20.87,270.00,5.00,0.00,29.83,M,10.00,M,CLR,M,M,M,M,M,M,M,M,M,M,M,M,M,M,96.00,KBVU 240015Z AUTO 27005KT 10SM CLR 37/11 A2983 RMK AO2 LTG DSNT NE AND SE,M
CXP,2023-08-24 00:15,-119.7326,39.1923,1431.00,82.40,46.40,28.36,0.00,0.00,0.00,30.07,M,10.00,M,CLR,M,M,M,M,M,M,M,M,M,M,M,M,M,M,80.64,KCXP 240015Z AUTO 00000KT 10SM CLR 28/08 A3007 RMK AO2,M
RTS,2023-08-24 00:15,-119.8764,39.6682,1539.00,78.80,42.80,27.81,120.00,9.00,0.00,30.09,M,10.00,M,CLR,M,M,M,M,M,M,M,M,M,M,M,M,M,M,78.80,KRTS 240015Z AUTO 12009KT 10SM CLR 26/06 A3009 RMK AO2,M
MEV,2023-08-24 00:15,-119.7500,38.9963,1441.42,80.60,50.00,34.41,300.00,6.00,0.00,30.06,M,10.00,M,CLR,M,M,M,M,M,M,M,M,M,M,M,M,M,M,79.88,KMEV 240015Z AUTO 30006KT 10SM CLR 27/10 A3006 RMK AO2,M
HTH,2023-08-24 00:15,-118.6315,38.5448,1282.89,84.20,44.60,24.99,340.00,7.00,0.00,30.03,M,10.00,M,CLR,M,M,M,M,M,M,M,M,M,M,M,M,M,M,81.73,KHTH 240015Z AUTO 34007KT 300V010 10SM CLR 29/07 A3003 RMK A01,M
10U,2023-08-24 00:15,-116.1876,41.9532,1637.00,77.00,39.20,25.67,M,4.00,0.00,30.13,M,10.00,M,CLR,M,M,M,M,M,M,M,M,M,M,M,M,M,M,77.00,K10U 240015Z AUTO VRB04KT 10SM CLR 25/04 A3013 RMK AO2,M
BAM,2023-08-24 00:15,-116.8743,40.5990,1382.36,86.00,41.00,20.54,30.00,5.00,0.00,30.07,M,10.00,M,SCT,M,M,M,10000.00,M,M,M,M,M,M,M,M,M,M,82.86,KBAM 240015Z AUTO 03005KT 10SM SCT100 30/05 A3007 RMK AO1,M
TMT,2023-08-24 00:15,-117.1971,39.4643,1749.34,78.80,43.50,28.57,80.00,4.00,0.00,30.15,M,M,M,CLR,M,M,M,M,M,M,M,M,M,M,M,M,M,M,78.80,KTMT 240015Z AUTO 08004KT CLR 26/06 A3015 RMK AO2 T02600064 PWINO,M
05U,2023-08-24 00:35,-116.0051,39.6042,1811.23,82.40,35.60,18.67,M,M,0.00,30.15,M,10.00,M,M,M,M,M,M,M,M,M,M,M,M,M,M,M,M,80.08,K05U 240035Z AUTO 10SM 28/02 A3015 RMK A01,M
BVU,2023-08-24 00:35,-114.8611,35.9475,671.00,98.60,53.60,22.29,50.00,8.00,0.00,29.83,M,10.00,M,CLR,M,M,M,M,M,M,M,M,M,M,M,M,M,M,96.51,KBVU 240035Z AUTO 05008KT 10SM CLR 37/12 A2983 RMK AO2,M
CXP,2023-08-24 00:35,-119.7326,39.1923,1431.00,80.60,44.60,28.08,M,3.00,0.00,30.07,M,10.00,M,CLR,M,M,M,M,M,M,M,M,M,M,M,M,M,M,79.42,KCXP 240035Z AUTO VRB03KT 10SM CLR 27/07 A3007 RMK AO2,M
RTS,2023-08-24 00:35,-119.8764,39.6682,1539.00,78.80,42.80,27.81,M,5.00,0.00,30.09,M,10.00,M,FEW,M,M,M,8000.00,M,M,M,M,M,M,M,M,M,M,78.80,KRTS 240035Z AUTO VRB05KT 10SM FEW080 26/06 A3009 RMK AO2,M
MEV,2023-08-24 00:35,-119.7500,38.9963,1441.42,80.60,48.20,32.18,0.00,0.00,0.00,30.06,M,10.00,M,CLR,M,M,M,M,M,M,M,M,M,M,M,M,M,M,79.71,KMEV 240035Z AUTO 00000KT 10SM CLR 27/09 A3006 RMK AO2,M
HTH,2023-08-24 00:35,-118.6315,38.5448,1282.89,84.20,44.60,24.99,340.00,8.00,0.00,30.02,M,10.00,M,CLR,M,M,M,M,M,M,M,M,M,M,M,M,M,M,81.73,KHTH 240035Z AUTO 34008KT 10SM CLR 29/07 A3002 RMK A01,M
10U,2023-08-24 00:35,-116.1876,41.9532,1637.00,80.60,39.20,22.81,70.00,4.00,0.00,30.13,M,10.00,M,CLR,M,M,M,M,M,M,M,M,M,M,M,M,M,M,79.10,K10U 240035Z AUTO 07004KT 10SM CLR 27/04 A3013 RMK AO2,M
BAM,2023-08-24 00:35,-116.8743,40.5990,1382.36,86.00,41.00,20.54,0.00,0.00,0.00,30.06,M,10.00,M,SCT,M,M,M,10000.00,M,M,M,M,M,M,M,M,M,M,82.86,KBAM 240035Z AUTO 00000KT 10SM SCT100 30/05 A3006 RMK AO1,M
TMT,2023-08-24 00:35,-117.1971,39.4643,1749.34,78.80,42.30,27.28,260.00,5.00,0.00,30.14,M,M,M,CLR,M,M,M,M,M,M,M,M,M,M,M,M,M,M,78.80,KTMT 240035Z AUTO 26005KT CLR 26/06 A3014 RMK AO2 T02600057 PWINO,M
05U,2023-08-24 00:50,-116.0051,39.6042,1811.23,82.40,35.60,18.67,M,M,0.00,30.15,M,10.00,M,M,M,M,M,M,M,M,M,M,M,M,M,M,M,M,80.08,K05U 240050Z AUTO 10SM 28/02 A3015 RMK A01,M
P68,2023-08-24 00:53,-116.0056,39.6014,1993.00,81.00,37.00,20.65,230.00,8.00,0.00,30.13,1012.90,M,M,M,M,M,M,M,M,M,M,M,M,M,M,M,M,M,79.24,KP68 240053Z AUTO 23008KT 27/03 A3013 RMK AO1 SLP129 T02720028,M
DRA,2023-08-24 00:53,-116.0278,36.6206,1009.00,90.00,50.00,25.46,0.00,0.00,0.00,29.95,1009.40,10.00,M,CLR,M,M,M,M,M,M,M,M,M,M,M,M,M,M,87.06,KDRA 240053Z AUTO 00000KT 10SM CLR 32/10 A2995 RMK AO2 SLP094 T03220100,M
ELY,2023-08-24 00:53,-114.8453,39.2950,1909.00,78.00,41.00,26.64,240.00,7.00,0.00,30.17,1013.10,10.00,M,CLR,M,M,M,M,M,M,M,M,M,M,M,M,M,M,78.00,KELY 240053Z AUTO 24007KT 10SM CLR 26/05 A3017 RMK AO2 SLP131 T02560050,M
VGT,2023-08-24 00:53,-115.1933,36.2111,667.00,99.00,55.00,23.18,M,6.00,0.00,29.84,1008.90,10.00,M,CLR,M,M,M,M,M,M,M,M,M,M,M,M,M,M,97.39,KVGT 240053Z VRB06KT 10SM CLR 37/13 A2984 RMK AO2 SLP089 T03720128,M
LOL,2023-08-24 00:53,-118.5701,40.0684,1192.43,81.00,48.00,31.52,M,3.00,0.00,30.02,1013.50,10.00,M,CLR,M,M,M,M,M,M,M,M,M,M,M,M,M,M,79.92,KLOL 240053Z AUTO VRB03KT 10SM CLR 27/09 A3002 RMK AO2 SLP135 T02720089,M
BVU,2023-08-24 00:55,-114.8611,35.9475,671.00,98.60,53.60,22.29,40.00,7.00,0.00,29.83,M,10.00,M,FEW,M,M,M,12000.00,M,M,M,M,M,M,M,M,M,M,96.51,KBVU 240055Z AUTO 04007KT 10SM FEW120 37/12 A2983 RMK AO2,M
CXP,2023-08-24 00:55,-119.7326,39.1923,1431.00,80.60,44.60,28.08,0.00,0.00,0.00,30.07,M,10.00,M,CLR,M,M,M,M,M,M,M,M,M,M,M,M,M,M,79.42,KCXP 240055Z AUTO 00000KT 10SM CLR 27/07 A3007 RMK AO2,M
INS,2023-08-24 00:55,-115.6733,36.5872,955.00,92.30,52.30,25.80,0.00,0.00,0.00,29.92,1008.50,10.00,M,SCT,BKN,M,M,9000.00,12000.00,M,M,M,M,M,M,M,M,M,89.67,KINS 240055Z AUTO 00000KT 10SM SCT090 BKN120 34/11 A2992 RMK AO2 SLP085 T03350113 $,M
RNO,2023-08-24 00:55,-119.7711,39.4839,1341.00,84.00,46.00,26.52,M,4.00,0.00,30.03,1012.00,10.00,M,FEW,M,M,M,8500.00,M,M,M,M,M,M,M,M,M,M,81.69,KRNO 240055Z VRB04KT 10SM FEW085 29/08 A3003 RMK AO2 SLP120 T02890078,M
LSV,2023-08-24 00:55,-115.0343,36.2362,570.00,99.50,53.80,21.85,110.00,3.00,0.00,29.79,1006.20,10.00,M,CLR,M,M,M,M,M,M,M,M,M,M,M,M,M,M,97.54,KLSV 240055Z AUTO 11003KT 10SM CLR 38/12 A2979 RMK AO2 SLP062 T03750121 $,M
RTS,2023-08-24 00:55,-119.8764,39.6682,1539.00,78.80,42.80,27.81,150.00,5.00,0.00,30.09,M,10.00,M,FEW,M,M,M,8000.00,M,M,M,M,M,M,M,M,M,M,78.80,KRTS 240055Z AUTO 15005KT 10SM FEW080 26/06 A3009 RMK AO2,M
MEV,2023-08-24 00:55,-119.7500,38.9963,1441.42,80.60,48.20,32.18,320.00,7.00,0.00,30.05,M,10.00,M,CLR,M,M,M,M,M,M,M,M,M,M,M,M,M,M,79.71,KMEV 240055Z AUTO 32007KT 10SM CLR 27/09 A3005 RMK AO2,M
HTH,2023-08-24 00:55,-118.6315,38.5448,1282.89,84.20,42.80,23.33,340.00,7.00,0.00,30.02,M,10.00,M,CLR,M,M,M,M,M,M,M,M,M,M,M,M,M,M,81.61,KHTH 240055Z AUTO 34007KT 10SM CLR 29/06 A3002 RMK A01,M
BAM,2023-08-24 00:55,-116.8743,40.5990,1382.36,86.00,41.00,20.54,40.00,5.00,0.00,30.06,M,10.00,M,CLR,M,M,M,M,M,M,M,M,M,M,M,M,M,M,82.86,KBAM 240055Z AUTO 04005KT 10SM CLR 30/05 A3006 RMK AO1,M
TMT,2023-08-24 00:55,-117.1971,39.4643,1749.34,78.40,41.70,27.01,0.00,0.00,0.00,30.14,M,M,M,CLR,M,M,M,M,M,M,M,M,M,M,M,M,M,M,78.40,KTMT 240055Z AUTO 00000KT CLR 26/05 A3014 RMK AO2 T02580054 PWINO,M
10U,2023-08-24 00:55,-116.1876,41.9532,1637.00,78.80,41.00,25.95,50.00,6.00,0.00,30.12,M,10.00,M,FEW,M,M,M,10000.00,M,M,M,M,M,M,M,M,M,M,78.80,K10U 240055Z AUTO 05006KT 10SM FEW100 26/05 A3012 RMK AO2,M
EKO,2023-08-24 00:56,-115.7860,40.8242,1367.00,82.00,41.00,23.37,240.00,3.00,0.00,30.08,1013.70,10.00,M,CLR,M,M,M,M,M,M,M,M,M,M,M,M,M,M,80.04,KEKO 240056Z AUTO 24003KT 10SM CLR 28/05 A3008 RMK AO2 SLP137 T02780050,M
WMC,2023-08-24 00:56,-117.8072,40.9019,1315.00,82.00,44.00,26.23,230.00,5.00,0.00,30.04,1013.40,10.00,M,CLR,M,M,M,M,M,M,M,M,M,M,M,M,M,M,80.21,KWMC 240056Z AUTO 23005KT 10SM CLR 28/07 A3004 RMK AO2 SLP134 T02780067,M
NFL,2023-08-24 00:56,-118.7010,39.4166,1199.00,84.00,48.00,28.60,30.00,6.00,0.00,30.01,1013.20,10.00,M,FEW,M,M,M,7000.00,M,M,M,M,M,M,M,M,M,M,81.87,KNFL 240056Z 03006KT 10SM FEW070 29/09 A3001 RMK AO2 SLP132 T02890089,M
HND,2023-08-24 00:56,-115.1344,35.9729,742.79,98.00,57.00,25.69,290.00,4.00,0.00,29.88,1010.40,10.00,M,SCT,M,M,M,11000.00,M,M,M,M,M,M,M,M,M,M,97.02,KHND 240056Z 29004KT 10SM SCT110 37/14 A2988 RMK AO2 SLP104 T03670139,M
LAS,2023-08-24 00:56,-115.1634,36.0719,663.00,97.00,55.00,24.63,120.00,4.00,0.00,29.84,1007.70,10.00,M,FEW,FEW,SCT,M,10000.00,16000.00,22000.00,M,M,M,M,M,M,M,M,95.23,KLAS 240056Z 12004KT 10SM FEW100 FEW160 SCT220 36/13 A2984 RMK AO2 SLP077 CB DSNT NE-SE T03610128,M
HTH,2023-08-24 01:10,-118.6315,38.5448,1282.89,82.40,42.80,24.72,330.00,7.00,0.00,30.02,M,10.00,M,CLR,M,M,M,M,M,M,M,M,M,M,M,M,M,M,80.39,KHTH 240110Z AUTO 33007KT 10SM CLR 28/06 A3002 RMK A01,M
BVU,2023-08-24 01:15,-114.8611,35.9475,671.00,98.60,51.80,20.87,60.00,5.00,0.00,29.84,M,10.00,M,BKN,M,M,M,11000.00,M,M,M,M,M,M,M,M,M,M,96.00,KBVU 240115Z AUTO 06005KT 10SM BKN110 37/11 A2984 RMK AO2,M
CXP,2023-08-24 01:15,-119.7326,39.1923,1431.00,80.60,44.60,28.08,M,4.00,0.00,30.07,M,10.00,M,CLR,M,M,M,M,M,M,M,M,M,M,M,M,M,M,79.42,KCXP 240115Z AUTO VRB04KT 10SM CLR 27/07 A3007 RMK AO2,M
RTS,2023-08-24 01:15,-119.8764,39.6682,1539.00,78.80,42.80,27.81,170.00,6.00,0.00,30.09,M,10.00,M,CLR,M,M,M,M,M,M,M,M,M,M,M,M,M,M,78.80,KRTS 240115Z AUTO 17006KT 10SM CLR 26/06 A3009 RMK AO2,M
05U,2023-08-24 01:15,-116.0051,39.6042,1811.23,80.60,37.40,21.25,M,M,0.00,30.15,M,10.00,M,M,M,M,M,M,M,M,M,M,M,M,M,M,M,M,79.02,K05U 240115Z AUTO 10SM 27/03 A3015 RMK A01,M
MEV,2023-08-24 01:15,-119.7500,38.9963,1441.42,80.60,48.20,32.18,320.00,5.00,0.00,30.05,M,10.00,M,CLR,M,M,M,M,M,M,M,M,M,M,M,M,M,M,79.71,KMEV 240115Z AUTO 32005KT 10SM CLR 27/09 A3005 RMK AO2,M
10U,2023-08-24 01:15,-116.1876,41.9532,1637.00,78.80,39.20,24.19,100.00,4.00,0.00,30.12,M,10.00,M,FEW,M,M,M,10000.00,M,M,M,M,M,M,M,M,M,M,78.80,K10U 240115Z AUTO 10004KT 10SM FEW100 26/04 A3012 RMK AO2,M
BAM,2023-08-24 01:15,-116.8743,40.5990,1382.36,86.00,41.00,20.54,270.00,5.00,0.00,30.06,M,10.00,M,CLR,M,M,M,M,M,M,M,M,M,M,M,M,M,M,82.86,KBAM 240115Z AUTO 27005KT 10SM CLR 30/05 A3006 RMK AO1,M
TMT,2023-08-24 01:15,-117.1971,39.4643,1749.34,78.30,41.50,26.89,260.00,3.00,0.00,30.14,M,M,M,CLR,M,M,M,M,M,M,M,M,M,M,M,M,M,M,78.30,KTMT 240115Z AUTO 26003KT CLR 26/05 A3014 RMK AO2 T02570053 PWINO,M
05U,2023-08-24 01:30,-116.0051,39.6042,1811.23,80.60,39.20,22.81,M,M,0.00,30.16,M,10.00,M,M,M,M,M,M,M,M,M,M,M,M,M,M,M,M,79.10,K05U 240130Z AUTO 10SM 27/04 A3016 RMK A01,M
BVU,2023-08-24 01:35,-114.8611,35.9475,671.00,96.80,51.80,22.04,50.00,5.00,0.00,29.84,M,10.00,M,BKN,M,M,M,11000.00,M,M,M,M,M,M,M,M,M,M,94.12,KBVU 240135Z AUTO 05005KT 10SM BKN110 36/11 A2984 RMK AO2,M
CXP,2023-08-24 01:35,-119.7326,39.1923,1431.00,80.60,44.60,28.08,320.00,7.00,0.00,30.07,M,10.00,M,CLR,M,M,M,M,M,M,M,M,M,M,M,M,M,M,79.42,KCXP 240135Z AUTO 32007KT 10SM CLR 27/07 A3007 RMK AO2,M
RTS,2023-08-24 01:35,-119.8764,39.6682,1539.00,78.80,42.80,27.81,110.00,3.00,0.00,30.09,M,10.00,M,CLR,M,M,M,M,M,M,M,M,M,M,M,M,M,M,78.80,KRTS 240135Z AUTO 11003KT 10SM CLR 26/06 A3009 RMK AO2,M
MEV,2023-08-24 01:35,-119.7500,38.9963,1441.42,78.80,50.00,36.51,300.00,7.00,0.00,30.06,M,10.00,M,CLR,M,M,M,M,M,M,M,M,M,M,M,M,M,M,78.80,KMEV 240135Z AUTO 30007KT 10SM CLR 26/10 A3006 RMK AO2,M
HTH,2023-08-24 01:35,-118.6315,38.5448,1282.89,82.40,44.60,26.49,330.00,7.00,0.00,30.02,M,10.00,M,CLR,M,M,M,M,M,M,M,M,M,M,M,M,M,M,80.50,KHTH 240135Z AUTO 33007KT 10SM CLR 28/07 A3002 RMK A01,M
10U,2023-08-24 01:35,-116.1876,41.9532,1637.00,78.80,39.20,24.19,0.00,0.00,0.00,30.13,M,10.00,M,CLR,M,M,M,M,M,M,M,M,M,M,M,M,M,M,78.80,K10U 240135Z AUTO 00000KT 10SM CLR 26/04 A3013 RMK AO2,M
BAM,2023-08-24 01:35,-116.8743,40.5990,1382.36,86.00,37.40,17.85,150.00,3.00,0.00,30.06,M,10.00,M,CLR,M,M,M,M,M,M,M,M,M,M,M,M,M,M,82.73,KBAM 240135Z AUTO 15003KT 10SM CLR 30/03 A3006 RMK AO1,M
TMT,2023-08-24 01:35,-117.1971,39.4643,1749.34,77.00,41.70,28.29,0.00,0.00,0.00,30.14,M,M,M,CLR,M,M,M,M,M,M,M,M,M,M,M,M,M,M,77.00,KTMT 240135Z AUTO 00000KT CLR 25/05 A3014 RMK AO2 T02490054 PWINO,M
P68,2023-08-24 01:53,-116.0056,39.6014,1993.00,77.00,41.00,27.53,230.00,7.00,0.00,30.13,1013.20,M,M,M,M,M,M,M,M,M,M,M,M,M,M,M,M,M,77.00,KP68 240153Z AUTO 23007KT 25/05 A3013 RMK AO1 SLP132 T02500050,M
DRA,2023-08-24 01:53,-116.0278,36.6206,1009.00,88.00,48.00,25.17,290.00,6.00,0.00,29.96,1009.80,10.00,M,CLR,M,M,M,M,M,M,M,M,M,M,M,M,M,M,85.02,KDRA 240153Z AUTO 29006KT 10SM CLR 31/09 A2996 RMK AO2 SLP098 T03110089,M
ELY,2023-08-24 01:53,-114.8453,39.2950,1909.00,71.00,47.00,42.35,230.00,6.00,0.00,30.18,1014.30,10.00,M,CLR,M,M,M,M,M,M,M,M,M,M,M,M,M,M,71.00,KELY 240153Z AUTO 23006KT 10SM CLR 22/08 A3018 RMK AO2 SLP143 T02170083,M
VGT,2023-08-24 01:53,-115.1933,36.2111,667.00,98.00,55.00,23.89,170.00,3.00,0.00,29.84,1009.30,10.00,M,FEW,M,M,M,10000.00,M,M,M,M,M,M,M,M,M,M,96.31,KVGT 240153Z 17003KT 10SM FEW100 37/13 A2984 RMK AO2 SLP093 T03670128,M
LOL,2023-08-24 01:53,-118.5701,40.0684,1192.43,79.00,49.00,34.94,240.00,5.00,0.00,30.02,1013.50,10.00,M,CLR,M,M,M,M,M,M,M,M,M,M,M,M,M,M,79.00,KLOL 240153Z AUTO 24005KT 10SM CLR 26/09 A3002 RMK AO2 SLP135 T02610094,M
BVU,2023-08-24 01:55,-114.8611,35.9475,671.00,96.80,53.60,23.55,60.00,8.00,0.00,29.85,M,10.00,M,OVC,M,M,M,10000.00,M,M,M,M,M,M,M,M,M,M,94.59,KBVU 240155Z AUTO 06008KT 10SM OVC100 36/12 A2985 RMK AO2,M
CXP,2023-08-24 01:55,-119.7326,39.1923,1431.00,80.60,44.60,28.08,300.00,5.00,0.00,30.07,M,10.00,M,CLR,M,M,M,M,M,M,M,M,M,M,M,M,M,M,79.42,KCXP 240155Z AUTO 30005KT 10SM CLR 27/07 A3007 RMK AO2,M
INS,2023-08-24 01:55,-115.6733,36.5872,955.00,90.30,49.60,24.85,250.00,5.00,0.00,29.93,1009.00,10.00,M,FEW,SCT,M,M,9500.00,14000.00,M,M,M,M,M,M,M,M,M,87.27,KINS 240155Z AUTO 25005KT 10SM FEW095 SCT140 32/10 A2993 RMK AO2 SLP090 T03240098 $,M
RNO,2023-08-24 01:55,-119.7711,39.4839,1341.00,83.00,46.00,27.39,220.00,4.00,0.00,30.04,1012.20,10.00,M,FEW,M,M,M,8000.00,M,M,M,M,M,M,M,M,M,M,81.00,KRNO 240155Z 22004KT 10SM FEW080 28/08 A3004 RMK AO2 SLP122 T02830078,M
RTS,2023-08-24 01:55,-119.8764,39.6682,1539.00,77.00,42.80,29.51,0.00,0.00,0.00,30.09,M,10.00,M,CLR,M,M,M,M,M,M,M,M,M,M,M,M,M,M,77.00,KRTS 240155Z AUTO 00000KT 10SM CLR 25/06 A3009 RMK AO2,M
05U,2023-08-24 01:55,-116.0051,39.6042,1811.23,77.00,41.00,27.53,M,M,0.00,30.16,M,10.00,M,M,M,M,M,M,M,M,M,M,M,M,M,M,M,M,77.00,K05U 240155Z AUTO 10SM 25/05 A3016 RMK A01,M
MEV,2023-08-24 01:55,-119.7500,38.9963,1441.42,77.00,50.00,38.74,300.00,8.00,0.00,30.06,M,10.00,M,FEW,M,M,M,8500.00,M,M,M,M,M,M,M,M,M,M,77.00,KMEV 240155Z AUTO 30008KT 10SM FEW085 25/10 A3006 RMK AO2,M
BAM,2023-08-24 01:55,-116.8743,40.5990,1382.36,82.40,41.00,23.07,0.00,0.00,0.00,30.06,M,10.00,M,CLR,M,M,M,M,M,M,M,M,M,M,M,M,M,M,80.29,KBAM 240155Z AUTO 00000KT 10SM CLR 28/05 A3006 RMK AO1,M
HTH,2023-08-24 01:55,-118.6315,38.5448,1282.89,80.60,46.40,30.07,320.00,7.00,0.00,30.02,M,10.00,M,CLR,M,M,M,M,M,M,M,M,M,M,M,M,M,M,79.56,KHTH 240155Z AUTO 32007KT 10SM CLR 27/08 A3002 RMK A01,M
TMT,2023-08-24 01:55,-117.1971,39.4643,1749.34,76.30,44.00,31.63,0.00,0.00,0.00,30.15,M,M,M,CLR,M,M,M,M,M,M,M,M,M,M,M,M,M,M,76.30,KTMT 240155Z AUTO 00000KT CLR 25/07 A3015 RMK AO2 T02460067 PWINO,M
10U,2023-08-24 01:55,-116.1876,41.9532,1637.00,78.80,35.60,21.00,170.00,4.00,0.00,30.13,M,10.00,M,CLR,M,M,M,M,M,M,M,M,M,M,M,M,M,M,78.80,K10U 240155Z AUTO 17004KT 10SM CLR 26/02 A3013 RMK AO2,M
LSV,2023-08-24 01:55,-115.0343,36.2362,570.00,97.00,53.00,22.90,340.00,3.00,0.00,29.80,1006.50,10.00,M,CLR,M,M,M,M,M,M,M,M,M,M,M,M,M,M,94.64,KLSV 240155Z AUTO 34003KT 10SM CLR 36/12 A2980 RMK AO2 SLP065 T03620117 $,M
EKO,2023-08-24 01:56,-115.7860,40.8242,1367.00,82.00,41.00,23.37,310.00,3.00,0.00,30.09,1013.90,10.00,M,CLR,M,M,M,M,M,M,M,M,M,M,M,M,M,M,80.04,KEKO 240156Z AUTO 31003KT 10SM CLR 28/05 A3009 RMK AO2 SLP139 T02780050,M
WMC,2023-08-24 01:56,-117.8072,40.9019,1315.00,83.00,44.00,25.39,250.00,3.00,0.00,30.04,1013.30,10.00,M,CLR,M,M,M,M,M,M,M,M,M,M,M,M,M,M,80.86,KWMC 240156Z AUTO 25003KT 10SM CLR 28/07 A3004 RMK AO2 SLP133 T02830067,M
NFL,2023-08-24 01:56,-118.7010,39.4166,1199.00,82.00,52.00,35.41,340.00,7.00,0.00,30.01,1013.10,10.00,M,FEW,M,M,M,7000.00,M,M,M,M,M,M,M,M,M,M,80.97,KNFL 240156Z 34007KT 10SM FEW070 28/11 A3001 RMK AO2 SLP131 T02780111,M
HND,2023-08-24 01:56,-115.1344,35.9729,742.79,96.00,57.00,27.31,20.00,6.00,0.00,29.89,1010.80,10.00,M,BKN,M,M,M,10000.00,M,M,M,M,M,M,M,M,M,M,94.83,KHND 240156Z 02006KT 10SM BKN100 36/14 A2989 RMK AO2 SLP108 T03560139,M
LAS,2023-08-24 01:56,-115.1634,36.0719,663.00,97.00,54.00,23.75,M,6.00,0.00,29.85,1008.00,10.00,M,FEW,FEW,SCT,M,10000.00,16000.00,22000.00,M,M,M,M,M,M,M,M,94.92,KLAS 240156Z VRB06KT 10SM FEW100CB FEW160 SCT220 36/12 A2985 RMK AO2 SLP080 CB E-SE MOV N AND DSNT NE-SE T03610122,M
05U,2023-08-24 02:10,-116.0051,39.6042,1811.23,75.20,44.60,33.57,M,M,0.00,30.17,M,10.00,M,M,M,M,M,M,M,M,M,M,M,M,M,M,M,M,75.20,K05U 240210Z AUTO 10SM 24/07 A3017 RMK A01,M
BVU,2023-08-24 02:15,-114.8611,35.9475,671.00,95.00,57.20,28.37,110.00,12.00,0.00,29.86,M,10.00,M,OVC,M,M,M,10000.00,M,M,M,M,M,M,M,M,M,M,93.82,KBVU 240215Z AUTO 11012KT 10SM OVC100 35/14 A2986 RMK AO2,M
CXP,2023-08-24 02:15,-119.7326,39.1923,1431.00,78.80,44.60,29.79,280.00,6.00,0.00,30.07,M,10.00,M,CLR,M,M,M,M,M,M,M,M,M,M,M,M,M,M,78.80,KCXP 240215Z AUTO 28006KT 10SM CLR 26/07 A3007 RMK AO2,M
RTS,2023-08-24 02:15,-119.8764,39.6682,1539.00,77.00,42.80,29.51,250.00,5.00,0.00,30.10,M,10.00,M,CLR,M,M,M,M,M,M,M,M,M,M,M,M,M,M,77.00,KRTS 240215Z AUTO 25005KT 10SM CLR 25/06 A3010 RMK AO2,M
MEV,2023-08-24 02:15,-119.7500,38.9963,1441.42,75.20,50.00,41.14,290.00,7.00,0.00,30.06,M,10.00,M,CLR,M,M,M,M,M,M,M,M,M,M,M,M,M,M,75.20,KMEV 240215Z AUTO 29007KT 10SM CLR 24/10 A3006 RMK AO2,M
HTH,2023-08-24 02:15,-118.6315,38.5448,1282.89,78.80,50.00,36.51,310.00,6.00,0.00,30.02,M,10.00,M,CLR,M,M,M,M,M,M,M,M,M,M,M,M,M,M,78.80,KHTH 240215Z AUTO 31006KT 10SM CLR 26/10 A3002 RMK A01,M
10U,2023-08-24 02:15,-116.1876,41.9532,1637.00,75.20,37.40,25.40,0.00,0.00,0.00,30.13,M,10.00,M,CLR,M,M,M,M,M,M,M,M,M,M,M,M,M,M,75.20,K10U 240215Z AUTO 00000KT 10SM CLR 24/03 A3013 RMK AO2,M
BAM,2023-08-24 02:15,-116.8743,40.5990,1382.36,82.40,35.60,18.67,260.00,3.00,0.00,30.07,M,10.00,M,CLR,M,M,M,M,M,M,M,M,M,M,M,M,M,M,80.08,KBAM 240215Z AUTO 26003KT 10SM CLR 28/02 A3007 RMK AO1,M
TMT,2023-08-24 02:15,-117.1971,39.4643,1749.34,74.00,49.00,41.26,160.00,3.00,0.00,30.15,M,M,M,SCT,M,M,M,10000.00,M,M,M,M,M,M,M,M,M,M,74.00,KTMT 240215Z AUTO 16003KT SCT100 23/09 A3015 RMK AO2 T02330094 PWINO,M
BVU,2023-08-24 02:35,-114.8611,35.9475,671.00,93.20,55.40,28.10,90.00,9.00,0.00,29.87,M,10.00,M,FEW,FEW,SCT,M,5500.00,8000.00,10000.00,M,M,M,M,M,M,M,M,91.35,KBVU 240235Z AUTO 09009KT 10SM FEW055 FEW080 SCT100 34/13 A2987 RMK AO2,M
CXP,2023-08-24 02:35,-119.7326,39.1923,1431.00,77.00,46.40,33.85,250.00,4.00,0.00,30.08,M,10.00,M,CLR,M,M,M,M,M,M,M,M,M,M,M,M,M,M,77.00,KCXP 240235Z AUTO 25004KT 10SM CLR 25/08 A3008 RMK AO2,M
RTS,2023-08-24 02:35,-119.8764,39.6682,1539.00,75.20,44.60,33.57,310.00,5.00,0.00,30.10,M,10.00,M,CLR,M,M,M,M,M,M,M,M,M,M,M,M,M,M,75.20,KRTS 240235Z AUTO 31005KT 10SM CLR 24/07 A3010 RMK AO2,M
05U,2023-08-24 02:35,-116.0051,39.6042,1811.23,69.80,44.60,40.29,M,M,0.00,30.17,M,10.00,M,M,M,M,M,M,M,M,M,M,M,M,M,M,M,M,69.80,K05U 240235Z AUTO 10SM 21/07 A3017 RMK A01,M
MEV,2023-08-24 02:35,-119.7500,38.9963,1441.42,73.40,50.00,43.69,280.00,5.00,0.00,30.07,M,10.00,M,CLR,M,M,M,M,M,M,M,M,M,M,M,M,M,M,73.40,KMEV 240235Z AUTO 28005KT 10SM CLR 23/10 A3007 RMK AO2,M
BAM,2023-08-24 02:35,-116.8743,40.5990,1382.36,80.60,37.40,21.25,0.00,0.00,0.00,30.07,M,10.00,M,CLR,M,M,M,M,M,M,M,M,M,M,M,M,M,M,79.02,KBAM 240235Z AUTO 00000KT 10SM CLR 27/03 A3007 RMK AO1,M
HTH,2023-08-24 02:35,-118.6315,38.5448,1282.89,77.00,50.00,38.74,280.00,4.00,0.00,30.03,M,10.00,M,CLR,M,M,M,M,M,M,M,M,M,M,M,M,M,M,77.00,KHTH 240235Z AUTO 28004KT 10SM CLR 25/10 A3003 RMK A01,M
10U,2023-08-24 02:35,-116.1876,41.9532,1637.00,73.40,39.20,28.96,0.00,0.00,0.00,30.14,M,10.00,M,FEW,M,M,M,11000.00,M,M,M,M,M,M,M,M,M,M,73.40,K10U 240235Z AUTO 00000KT 10SM FEW110 23/04 A3014 RMK AO2,M
TMT,2023-08-24 02:35,-117.1971,39.4643,1749.34,69.00,50.40,51.50,170.00,5.00,0.00,30.16,M,M,M,CLR,M,M,M,M,M,M,M,M,M,M,M,M,M,M,69.00,KTMT 240235Z AUTO 17005KT CLR 21/10 A3016 RMK AO2 T02060102 PWINO,M
05U,2023-08-24 02:50,-116.0051,39.6042,1811.23,69.80,46.40,43.13,M,M,0.00,30.18,M,10.00,M,M,M,M,M,M,M,M,M,M,M,M,M,M,M,M,69.80,K05U 240250Z AUTO 10SM 21/08 A3018 RMK A01,M
P68,2023-08-24 02:53,-116.0056,39.6014,1993.00,70.00,46.00,42.20,170.00,5.00,0.00,30.16,1014.00,M,M,M,M,M,M,M,M,M,M,M,M,M,M,M,M,M,70.00,KP68 240253Z AUTO 17005KT 21/08 A3016 RMK AO1 SLP140 T02110078 53008,M
DRA,2023-08-24 02:53,-116.0278,36.6206,1009.00,83.00,52.00,34.28,300.00,5.00,0.00,29.97,1010.10,10.00,M,FEW,M,M,M,12000.00,M,M,M,M,M,M,M,M,M,M,81.64,KDRA 240253Z AUTO 30005KT 10SM FEW120 28/11 A2997 RMK AO2 SLP101 T02830111 53005,M
ELY,2023-08-24 02:53,-114.8453,39.2950,1909.00,64.00,49.00,58.13,160.00,5.00,0.00,30.20,1014.90,10.00,M,CLR,M,M,M,M,M,M,M,M,M,M,M,M,M,M,64.00,KELY 240253Z AUTO 16005KT 10SM CLR 18/09 A3020 RMK AO2 LTG DSNT E-S SLP149 T01780094 53007,M
VGT,2023-08-24 02:53,-115.1933,36.2111,667.00,96.00,57.00,27.31,80.00,6.00,0.00,29.86,1009.60,10.00,M,BKN,M,M,M,12000.00,M,M,M,M,M,M,M,M,M,M,94.83,KVGT 240253Z 08006KT 10SM BKN120 36/14 A2986 RMK AO2 SLP096 T03560139 53006,M
LOL,2023-08-24 02:53,-118.5701,40.0684,1192.43,76.00,50.00,40.05,0.00,0.00,0.00,30.03,1013.70,10.00,M,CLR,M,M,M,M,M,M,M,M,M,M,M,M,M,M,76.00,KLOL 240253Z AUTO 00000KT 10SM CLR 24/10 A3003 RMK AO2 SLP137 T02440100 55000,M
BVU,2023-08-24 02:55,-114.8611,35.9475,671.00,91.40,53.60,27.83,90.00,8.00,0.00,29.87,M,10.00,M,CLR,M,M,M,M,M,M,M,M,M,M,M,M,M,M,89.08,KBVU 240255Z AUTO 09008KT 10SM CLR 33/12 A2987 RMK AO2,M
CXP,2023-08-24 02:55,-119.7326,39.1923,1431.00,75.20,48.20,38.46,0.00,0.00,0.00,30.09,M,10.00,M,FEW,M,M,M,10000.00,M,M,M,M,M,M,M,M,M,M,75.20,KCXP 240255Z AUTO 00000KT 10SM FEW100 24/09 A3009 RMK AO2,M
INS,2023-08-24 02:55,-115.6733,36.5872,955.00,86.00,51.00,30.00,240.00,5.00,0.00,29.95,1009.70,10.00,M,SCT,M,M,M,13000.00,M,M,M,M,M,M,M,M,M,M,83.75,KINS 240255Z AUTO 24005KT 10SM SCT130 30/11 A2995 RMK AO2 SLP097 T03010106 53007 $,M
RNO,2023-08-24 02:55,-119.7711,39.4839,1341.00,80.00,48.00,32.57,210.00,5.00,0.00,30.05,1012.60,10.00,M,FEW,M,M,M,8000.00,M,M,M,M,M,M,M,M,M,M,79.37,KRNO 240255Z 21005KT 10SM FEW080 27/09 A3005 RMK AO2 SLP126 T02670089 53002,M
LSV,2023-08-24 02:55,-115.0343,36.2362,570.00,94.30,57.00,28.78,100.00,19.00,0.00,29.81,1006.80,10.00,25.00,BKN,OVC,M,M,12000.00,16000.00,M,M,M,M,M,M,M,M,M,93.00,KLSV 240255Z AUTO 10019G25KT 10SM BKN120 OVC160 35/14 A2981 RMK AO2 SLP068 T03460139 53007 $,M
RTS,2023-08-24 02:55,-119.8764,39.6682,1539.00,71.60,44.60,37.89,300.00,6.00,0.00,30.11,M,10.00,M,CLR,M,M,M,M,M,M,M,M,M,M,M,M,M,M,71.60,KRTS 240255Z AUTO 30006KT 10SM CLR 22/07 A3011 RMK AO2,M
MEV,2023-08-24 02:55,-119.7500,38.9963,1441.42,73.40,50.00,43.69,300.00,5.00,0.00,30.07,M,10.00,M,SCT,M,M,M,9500.00,M,M,M,M,M,M,M,M,M,M,73.40,KMEV 240255Z AUTO 30005KT 10SM SCT095 23/10 A3007 RMK AO2,M
BAM,2023-08-24 02:55,-116.8743,40.5990,1382.36,77.00,42.80,29.51,0.00,0.00,0.00,30.08,M,10.00,M,CLR,M,M,M,M,M,M,M,M,M,M,M,M,M,M,77.00,KBAM 240255Z AUTO 00000KT 10SM CLR 25/06 A3008 RMK AO1,M
HTH,2023-08-24 02:55,-118.6315,38.5448,1282.89,77.00,51.80,41.42,230.00,5.00,0.00,30.03,M,10.00,M,CLR,M,M,M,M,M,M,M,M,M,M,M,M,M,M,77.00,KHTH 240255Z AUTO 23005KT 10SM CLR 25/11 A3003 RMK A01,M
TMT,2023-08-24 02:55,-117.1971,39.4643,1749.34,66.00,48.60,53.41,180.00,4.00,0.00,30.16,M,M,M,CLR,M,M,M,M,M,M,M,M,M,M,M,M,M,M,66.00,KTMT 240255Z AUTO 18004KT CLR 19/09 A3016 RMK AO2 T01880092 PWINO,M
10U,2023-08-24 02:55,-116.1876,41.9532,1637.00,68.00,42.80,40.00,0.00,0.00,0.00,30.14,M,10.00,M,FEW,M,M,M,10000.00,M,M,M,M,M,M,M,M,M,M,68.00,K10U 240255Z AUTO 00000KT 10SM FEW100 20/06 A3014 RMK AO2,M
EKO,2023-08-24 02:56,-115.7860,40.8242,1367.00,73.00,47.00,39.58,320.00,7.00,0.00,30.10,1014.80,10.00,M,CLR,M,M,M,M,M,M,M,M,M,M,M,M,M,M,73.00,KEKO 240256Z AUTO 32007KT 10SM CLR 23/08 A3010 RMK AO2 SLP148 T02280083 53003,M
WMC,2023-08-24 02:56,-117.8072,40.9019,1315.00,76.00,48.00,37.17,30.00,4.00,0.00,30.06,1013.50,10.00,M,CLR,M,M,M,M,M,M,M,M,M,M,M,M,M,M,76.00,KWMC 240256Z AUTO 03004KT 10SM CLR 24/09 A3006 RMK AO2 SLP135 T02440089 53003,M
NFL,2023-08-24 02:56,-118.7010,39.4166,1199.00,74.00,57.00,55.34,30.00,8.00,0.00,30.02,1013.50,10.00,M,FEW,M,M,M,7000.00,M,M,M,M,M,M,M,M,M,M,74.00,KNFL 240256Z 03008KT 10SM FEW070 23/14 A3002 RMK AO2 SLP135 T02330139 55001,M
HND,2023-08-24 02:56,-115.1344,35.9729,742.79,94.00,58.00,30.11,100.00,15.00,0.00,29.91,1011.40,10.00,21.00,OVC,M,M,M,10000.00,M,M,M,TS,M,M,M,M,M,M,93.04,KHND 240256Z 10015G21KT 10SM TS OVC100 34/14 A2991 RMK AO2 TSB54 SLP114 T03440144 53009,M
LAS,2023-08-24 02:56,-115.1634,36.0719,663.00,93.00,56.00,28.90,80.00,14.00,0.00,29.87,1008.50,10.00,20.00,BKN,BKN,BKN,M,10000.00,16000.00,22000.00,M,VCTS,M,M,M,M,M,M,91.32,KLAS 240256Z 08014G20KT 10SM VCTS BKN100CB BKN160 BKN220 34/13 A2987 RMK AO2 SLP085 CB OHD-E-SE MOV N T03390133 53007,M
BVU,2023-08-24 03:15,-114.8611,35.9475,671.00,91.40,55.40,29.72,70.00,7.00,0.00,29.87,M,10.00,M,CLR,M,M,M,M,M,M,M,M,M,M,M,M,M,M,89.53,KBVU 240315Z AUTO 07007KT 10SM CLR 33/13 A2987 RMK AO2,M
CXP,2023-08-24 03:15,-119.7326,39.1923,1431.00,75.20,48.20,38.46,0.00,0.00,0.00,30.09,M,10.00,M,FEW,M,M,M,10000.00,M,M,M,M,M,M,M,M,M,M,75.20,KCXP 240315Z AUTO 00000KT 10SM FEW100 24/09 A3009 RMK AO2,M
RTS,2023-08-24 03:15,-119.8764,39.6682,1539.00,69.80,44.60,40.29,360.00,7.00,0.00,30.11,M,10.00,M,CLR,M,M,M,M,M,M,M,M,M,M,M,M,M,M,69.80,KRTS 240315Z AUTO 36007KT 10SM CLR 21/07 A3011 RMK AO2,M
LAS,2023-08-24 03:15,-115.1634,36.0719,663.00,93.00,56.00,28.90,140.00,10.00,0.00,29.88,M,10.00,21.00,BKN,BKN,BKN,M,10000.00,16000.00,22000.00,M,TS,M,M,M,M,M,M,91.32,KLAS 240315Z 14010G21KT 10SM TS BKN100CB BKN160 BKN220 34/13 A2988 RMK AO2 TSB09 OCNL LTGIC OHD-NE-SE TS OHD-NE-SE MOV N T03390133,M
05U,2023-08-24 03:15,-116.0051,39.6042,1811.23,69.80,46.40,43.13,M,M,0.00,30.19,M,10.00,M,M,M,M,M,M,M,M,M,M,M,M,M,M,M,M,69.80,K05U 240315Z AUTO 10SM 21/08 A3019 RMK A01,M
MEV,2023-08-24 03:15,-119.7500,38.9963,1441.42,69.80,51.80,52.77,0.00,0.00,0.00,30.08,M,10.00,M,OVC,M,M,M,9000.00,M,M,M,M,M,M,M,M,M,M,69.80,KMEV 240315Z AUTO 00000KT 10SM OVC090 21/11 A3008 RMK AO2,M
HTH,2023-08-24 03:15,-118.6315,38.5448,1282.89,75.20,50.00,41.14,230.00,6.00,0.00,30.04,M,10.00,M,CLR,M,M,M,M,M,M,M,M,M,M,M,M,M,M,75.20,KHTH 240315Z AUTO 23006KT 10SM CLR 24/10 A3004 RMK A01,M
10U,2023-08-24 03:15,-116.1876,41.9532,1637.00,64.40,41.00,42.28,0.00,0.00,0.00,30.15,M,10.00,M,CLR,M,M,M,M,M,M,M,M,M,M,M,M,M,M,64.40,K10U 240315Z AUTO 00000KT 10SM CLR 18/05 A3015 RMK AO2,M
BAM,2023-08-24 03:15,-116.8743,40.5990,1382.36,71.60,42.80,35.37,310.00,4.00,0.00,30.08,M,10.00,M,CLR,M,M,M,M,M,M,M,M,M,M,M,M,M,M,71.60,KBAM 240315Z AUTO 31004KT 10SM CLR 22/06 A3008 RMK AO1,M
TMT,2023-08-24 03:15,-117.1971,39.4643,1749.34,62.20,48.40,60.55,180.00,6.00,0.00,30.16,M,M,M,CLR,M,M,M,M,M,M,M,M,M,M,M,M,M,M,62.20,KTMT 240315Z AUTO 18006KT CLR 17/09 A3016 RMK AO2 T01680091 PWINO,M
VGT,2023-08-24 03:27,-115.1933,36.2111,667.00,93.00,58.00,31.06,90.00,8.00,0.00,29.87,M,10.00,M,SCT,BKN,M,M,10000.00,12000.00,M,M,VCTS,M,M,M,M,M,M,91.98,KVGT 240327Z 09008KT 10SM VCTS SCT100 BKN120 34/14 A2987 RMK AO2 T03390144,M
05U,2023-08-24 03:30,-116.0051,39.6042,1811.23,68.00,48.20,49.10,M,M,0.00,30.20,M,10.00,M,M,M,M,M,M,M,M,M,M,M,M,M,M,M,M,68.00,K05U 240330Z AUTO 10SM 20/09 A3020 RMK A01,M
BVU,2023-08-24 03:35,-114.8611,35.9475,671.00,89.60,55.40,31.45,110.00,6.00,0.00,29.88,M,10.00,M,CLR,M,M,M,M,M,M,M,M,M,M,M,M,M,M,87.78,KBVU 240335Z AUTO 11006KT 10SM CLR 32/13 A2988 RMK AO2,M
CXP,2023-08-24 03:35,-119.7326,39.1923,1431.00,73.40,50.00,43.69,300.00,3.00,0.00,30.09,M,10.00,M,CLR,M,M,M,M,M,M,M,M,M,M,M,M,M,M,73.40,KCXP 240335Z AUTO 30003KT 10SM CLR 23/10 A3009 RMK AO2,M
RTS,2023-08-24 03:35,-119.8764,39.6682,1539.00,69.80,46.40,43.13,340.00,5.00,0.00,30.12,M,10.00,M,CLR,M,M,M,M,M,M,M,M,M,M,M,M,M,M,69.80,KRTS 240335Z AUTO 34005KT 10SM CLR 21/08 A3012 RMK AO2,M
MEV,2023-08-24 03:35,-119.7500,38.9963,1441.42,68.00,55.40,64.04,80.00,4.00,0.00,30.08,M,10.00,M,FEW,OVC,M,M,8000.00,9000.00,M,M,M,M,M,M,M,M,M,68.00,KMEV 240335Z AUTO 08004KT 10SM FEW080 OVC090 20/13 A3008 RMK AO2,M
BAM,2023-08-24 03:35,-116.8743,40.5990,1382.36,73.40,41.00,31.05,330.00,8.00,0.00,30.09,M,10.00,M,CLR,M,M,M,M,M,M,M,M,M,M,M,M,M,M,73.40,KBAM 240335Z AUTO 33008KT 10SM CLR 23/05 A3009 RMK AO1,M
HTH,2023-08-24 03:35,-118.6315,38.5448,1282.89,73.40,48.20,40.85,220.00,7.00,0.00,30.04,M,10.00,M,CLR,M,M,M,M,M,M,M,M,M,M,M,M,M,M,73.40,KHTH 240335Z AUTO 22007KT 10SM CLR 23/09 A3004 RMK A01,M
10U,2023-08-24 03:35,-116.1876,41.9532,1637.00,64.40,41.00,42.28,0.00,0.00,0.00,30.15,M,10.00,M,CLR,M,M,M,M,M,M,M,M,M,M,M,M,M,M,64.40,K10U 240335Z AUTO 00000KT 10SM CLR 18/05 A3015 RMK AO2,M
TMT,2023-08-24 03:35,-117.1971,39.4643,1749.34,59.50,49.50,69.43,200.00,5.00,0.00,30.18,M,M,M,CLR,M,M,M,M,M,M,M,M,M,M,M,M,M,M,59.50,KTMT 240335Z AUTO 20005KT CLR 15/10 A3018 RMK AO2 T01530097 PWINO,M
LAS,2023-08-24 03:43,-115.1634,36.0719,663.00,83.00,64.00,52.76,20.00,19.00,0.15,29.91,M,10.00,24.00,BKN,BKN,BKN,M,10000.00,16000.00,22000.00,M,-TSRA,M,M,M,32.00,140.00,2023-08-24 03:25,84.41,KLAS 240343Z 02019G24KT 10SM -TSRA BKN100CB BKN160 BKN220 28/18 A2991 RMK AO2 PK WND 14032/0325 WSHFT 0323 RAB21 TSB09 OCNL LTGICCCCG OHD-N-E TS OHD-N-E MOV N P0015 T02830178,M
VGT,2023-08-24 03:49,-115.1933,36.2111,667.00,91.40,57.20,31.72,170.00,16.00,0.00,29.90,M,10.00,21.00,BKN,M,M,M,10000.00,M,M,M,TS,M,M,M,M,M,M,90.06,KVGT 240349Z 17016G21KT 10SM TS BKN100 33/14 A2990 RMK AO2 WSHFT 0335 TSB44 PRESRR,M
VGT,2023-08-24 03:50,-115.1933,36.2111,667.00,92.00,58.00,32.04,160.00,17.00,0.00,29.90,1011.10,10.00,23.00,BKN,M,M,M,10000.00,M,M,M,TS,M,M,M,M,M,M,90.94,KVGT 240350Z 16017G23KT 10SM TS BKN100 33/14 A2990 RMK AO2 WSHFT 0335 TSB44 SLP111 T03330144,M
05U,2023-08-24 03:50,-116.0051,39.6042,1811.23,66.20,48.20,52.25,M,M,0.00,30.20,M,10.00,M,M,M,M,M,M,M,M,M,M,M,M,M,M,M,M,66.20,K05U 240350Z AUTO 10SM 19/09 A3020 RMK A01,M
P68,2023-08-24 03:53,-116.0056,39.6014,1993.00,66.00,49.00,54.21,160.00,4.00,0.00,30.18,1014.60,M,M,M,M,M,M,M,M,M,M,M,M,M,M,M,M,M,66.00,KP68 240353Z AUTO 16004KT 19/09 A3018 RMK AO1 SLP146 T01890094,M
DRA,2023-08-24 03:53,-116.0278,36.6206,1009.00,82.00,54.00,38.11,50.00,4.00,0.00,29.98,1010.50,10.00,M,CLR,M,M,M,M,M,M,M,M,M,M,M,M,M,M,81.24,KDRA 240353Z AUTO 05004KT 10SM CLR 28/12 A2998 RMK AO2 SLP105 T02780122,M
ELY,2023-08-24 03:53,-114.8453,39.2950,1909.00,62.00,47.00,57.85,170.00,8.00,0.00,30.22,1014.90,10.00,M,CLR,M,M,M,M,M,M,M,M,M,M,M,M,M,M,62.00,KELY 240353Z AUTO 17008KT 10SM CLR 17/08 A3022 RMK AO2 LTG DSNT E SLP149 T01670083,M
LOL,2023-08-24 03:53,-118.5701,40.0684,1192.43,69.00,56.00,63.24,280.00,4.00,0.00,30.04,1014.20,10.00,M,CLR,M,M,M,M,M,M,M,M,M,M,M,M,M,M,69.00,KLOL 240353Z AUTO 28004KT 10SM CLR 21/13 A3004 RMK AO2 SLP142 T02060133,M
BVU,2023-08-24 03:55,-114.8611,35.9475,671.00,87.80,57.20,35.53,60.00,5.00,0.00,29.90,M,10.00,M,SCT,M,M,M,10000.00,M,M,M,M,M,M,M,M,M,M,86.58,KBVU 240355Z AUTO 06005KT 10SM SCT100 31/14 A2990 RMK AO2 LTG DSNT NW,M
CXP,2023-08-24 03:55,-119.7326,39.1923,1431.00,71.60,50.00,46.43,220.00,3.00,0.00,30.10,M,10.00,M,CLR,M,M,M,M,M,M,M,M,M,M,M,M,M,M,71.60,KCXP 240355Z AUTO 22003KT 10SM CLR 22/10 A3010 RMK AO2,M
INS,2023-08-24 03:55,-115.6733,36.5872,955.00,85.50,49.50,28.83,200.00,8.00,0.00,29.97,1010.10,10.00,M,SCT,M,M,M,12000.00,M,M,M,M,M,M,M,M,M,M,83.16,KINS 240355Z AUTO 20008KT 10SM SCT120 30/10 A2997 RMK AO2 SLP101 T02970097 $,M
RNO,2023-08-24 03:55,-119.7711,39.4839,1341.00,77.00,48.00,35.95,320.00,4.00,0.00,30.07,1013.30,10.00,M,FEW,M,M,M,8000.00,M,M,M,M,M,M,M,M,M,M,77.00,KRNO 240355Z 32004KT 10SM FEW080 25/09 A3007 RMK AO2 SLP133 T02500089,M
RTS,2023-08-24 03:55,-119.8764,39.6682,1539.00,68.00,46.40,45.88,320.00,6.00,0.00,30.13,M,10.00,M,CLR,M,M,M,M,M,M,M,M,M,M,M,M,M,M,68.00,KRTS 240355Z AUTO 32006KT 10SM CLR 20/08 A3013 RMK AO2,M
MEV,2023-08-24 03:55,-119.7500,38.9963,1441.42,64.40,55.40,72.56,120.00,4.00,0.00,30.09,M,10.00,M,FEW,BKN,M,M,8000.00,9000.00,M,M,M,M,M,M,M,M,M,64.40,KMEV 240355Z AUTO 12004KT 10SM FEW080 BKN090 18/13 A3009 RMK AO2,M
BAM,2023-08-24 03:55,-116.8743,40.5990,1382.36,69.80,41.00,35.09,0.00,0.00,0.00,30.09,M,10.00,M,CLR,M,M,M,M,M,M,M,M,M,M,M,M,M,M,69.80,KBAM 240355Z AUTO 00000KT 10SM CLR 21/05 A3009 RMK AO1,M
HTH,2023-08-24 03:55,-118.6315,38.5448,1282.89,73.40,50.00,43.69,220.00,6.00,0.00,30.05,M,10.00,M,CLR,M,M,M,M,M,M,M,M,M,M,M,M,M,M,73.40,KHTH 240355Z AUTO 22006KT 10SM CLR 23/10 A3005 RMK A01,M
TMT,2023-08-24 03:55,-117.1971,39.4643,1749.34,61.00,48.70,63.89,220.00,4.00,0.00,30.18,M,M,M,CLR,M,M,M,M,M,M,M,M,M,M,M,M,M,M,61.00,KTMT 240355Z AUTO 22004KT CLR 16/09 A3018 RMK AO2 T01610093 PWINO,M
10U,2023-08-24 03:55,-116.1876,41.9532,1637.00,64.40,41.00,42.28,0.00,0.00,0.00,30.16,M,10.00,M,CLR,M,M,M,M,M,M,M,M,M,M,M,M,M,M,64.40,K10U 240355Z AUTO 00000KT 10SM CLR 18/05 A3016 RMK AO2,M
LSV,2023-08-24 03:55,-115.0343,36.2362,570.00,91.60,56.70,30.96,80.00,10.00,0.00,29.85,1008.10,10.00,M,SCT,M,M,M,15000.00,M,M,M,M,M,M,M,M,M,M,90.10,KLSV 240355Z AUTO 08010KT 10SM SCT150 33/14 A2985 RMK AO2 LTG DSNT SW SLP081 T03310137 $,M
EKO,2023-08-24 03:56,-115.7860,40.8242,1367.00,69.00,48.00,47.09,80.00,3.00,0.00,30.12,1015.20,10.00,M,CLR,M,M,M,M,M,M,M,M,M,M,M,M,M,M,69.00,KEKO 240356Z AUTO 08003KT 10SM CLR 21/09 A3012 RMK AO2 SLP152 T02060089,M
WMC,2023-08-24 03:56,-117.8072,40.9019,1315.00,70.00,48.00,45.50,0.00,0.00,0.00,30.07,1014.10,10.00,M,CLR,M,M,M,M,M,M,M,M,M,M,M,M,M,M,70.00,KWMC 240356Z AUTO 00000KT 10SM CLR 21/09 A3007 RMK AO2 SLP141 T02110089,M
NFL,2023-08-24 03:56,-118.7010,39.4166,1199.00,70.00,57.00,63.37,30.00,6.00,0.00,30.03,1013.90,10.00,M,CLR,M,M,M,M,M,M,M,M,M,M,M,M,M,M,70.00,KNFL 240356Z 03006KT 10SM CLR 21/14 A3003 RMK AO2 SLP139 T02110139,M
HND,2023-08-24 03:56,-115.1344,35.9729,742.79,85.00,66.00,53.04,80.00,5.00,0.01,29.94,1012.60,10.00,M,FEW,BKN,OVC,M,6000.00,9500.00,11000.00,M,VCTS -RA,M,M,M,36.00,90.00,2023-08-24 02:58,87.24,KHND 240356Z AUTO 08005KT 10SM VCTS -RA FEW060 BKN095 OVC110 29/19 A2994 RMK AO2 PK WND 09036/0258 LTG DSNT N RAB0258E21B47 SLP126 P0001 T02940189,M
LAS,2023-08-24 03:56,-115.1634,36.0719,663.00,83.00,62.00,49.17,360.00,10.00,0.15,29.91,1010.20,10.00,M,BKN,BKN,BKN,M,10000.00,16000.00,22000.00,M,TS,M,M,M,32.00,140.00,2023-08-24 03:25,83.75,KLAS 240356Z 36010KT 10SM TS BKN100CB BKN160 BKN220 28/17 A2991 RMK AO2 PK WND 14032/0325 WSHFT 0323 RAB21E52 TSB09 SLP102 FRQ LTGICCCCG OHD-N-E TS OHD-N-E MOV N P0015 T02830167,M
VGT,2023-08-24 03:57,-115.1933,36.2111,667.00,90.00,58.00,34.11,160.00,17.00,0.00,29.90,M,10.00,25.00,BKN,BKN,M,M,10000.00,11000.00,M,M,TS,M,M,M,M,M,M,88.92,KVGT 240357Z 16017G25KT 10SM TS BKN100 BKN110 32/14 A2990 RMK AO2 WSHFT 0337 T03220144,M
LAS,2023-08-24 04:00,-115.1634,36.0719,663.00,82.00,65.00,56.43,360.00,12.00,0.00,29.91,M,10.00,M,FEW,BKN,BKN,M,5000.00,10000.00,11000.00,M,TS,M,M,M,M,M,M,83.80,KLAS 240400Z COR 36012KT 10SM TS FEW050 BKN100CB BKN110 28/18 A2991 RMK AO2 FRQ LTGICCCCG OHD-N-E TS OHD-N-E MOV N T02780183,M
HTH,2023-08-24 04:10,-118.6315,38.5448,1282.89,73.40,50.00,43.69,220.00,6.00,0.00,30.06,M,10.00,M,CLR,M,M,M,M,M,M,M,M,M,M,M,M,M,M,73.40,KHTH 240410Z AUTO 22006KT 10SM CLR 23/10 A3006 RMK A01,M
HND,2023-08-24 04:12,-115.1344,35.9729,742.79,84.20,64.40,51.47,M,3.00,T,29.95,M,10.00,M,FEW,BKN,M,M,6000.00,10000.00,M,M,M,M,M,M,M,M,M,85.71,KHND 240412Z AUTO VRB03KT 10SM FEW060 BKN100 29/18 A2995 RMK AO2 TSE06RAE03 P0000,M
BVU,2023-08-24 04:15,-114.8611,35.9475,671.00,89.60,55.40,31.45,60.00,6.00,0.00,29.90,M,10.00,M,BKN,M,M,M,11000.00,M,M,M,M,M,M,M,M,M,M,87.78,KBVU 240415Z AUTO 06006KT 10SM BKN110 32/13 A2990 RMK AO2,M
CXP,2023-08-24 04:15,-119.7326,39.1923,1431.00,71.60,50.00,46.43,0.00,0.00,0.00,30.11,M,10.00,M,CLR,M,M,M,M,M,M,M,M,M,M,M,M,M,M,71.60,KCXP 240415Z AUTO 00000KT 10SM CLR 22/10 A3011 RMK AO2,M
RTS,2023-08-24 04:15,-119.8764,39.6682,1539.00,66.20,46.40,48.83,280.00,5.00,0.00,30.13,M,10.00,M,CLR,M,M,M,M,M,M,M,M,M,M,M,M,M,M,66.20,KRTS 240415Z AUTO 28005KT 10SM CLR 19/08 A3013 RMK AO2,M
05U,2023-08-24 04:15,-116.0051,39.6042,1811.23,62.60,48.20,59.26,M,M,0.00,30.21,M,10.00,M,M,M,M,M,M,M,M,M,M,M,M,M,M,M,M,62.60,K05U 240415Z AUTO 10SM 17/09 A3021 RMK A01,M
MEV,2023-08-24 04:15,-119.7500,38.9963,1441.42,64.40,55.40,72.56,0.00,0.00,0.00,30.09,M,10.00,M,FEW,FEW,M,M,8000.00,9500.00,M,M,M,M,M,M,M,M,M,64.40,KMEV 240415Z AUTO 00000KT 10SM FEW080 FEW095 18/13 A3009 RMK AO2,M
10U,2023-08-24 04:15,-116.1876,41.9532,1637.00,64.40,42.80,45.32,120.00,7.00,0.00,30.16,M,10.00,M,CLR,M,M,M,M,M,M,M,M,M,M,M,M,M,M,64.40,K10U 240415Z AUTO 12007KT 10SM CLR 18/06 A3016 RMK AO2,M
BAM,2023-08-24 04:15,-116.8743,40.5990,1382.36,66.20,41.00,39.72,0.00,0.00,0.00,30.09,M,10.00,M,CLR,M,M,M,M,M,M,M,M,M,M,M,M,M,M,66.20,KBAM 240415Z AUTO 00000KT 10SM CLR 19/05 A3009 RMK AO1,M
TMT,2023-08-24 04:15,-117.1971,39.4643,1749.34,61.00,49.00,64.61,220.00,4.00,0.00,30.19,M,M,M,CLR,M,M,M,M,M,M,M,M,M,M,M,M,M,M,61.00,KTMT 240415Z AUTO 22004KT CLR 16/10 A3019 RMK AO2 T01620095 PWINO,M
VGT,2023-08-24 04:18,-115.1933,36.2111,667.00,87.00,60.00,40.29,90.00,5.00,T,29.91,M,10.00,M,FEW,M,M,M,10000.00,M,M,M,VCTS -RA,M,M,M,M,M,M,86.70,KVGT 240418Z AUTO 09005KT 10SM VCTS -RA FEW100 31/16 A2991 RMK AO2 WSHFT 0337 RAB07 TSE12 P0000 T03060156,M
HND,2023-08-24 04:19,-115.1344,35.9729,742.79,84.20,66.20,54.80,350.00,7.00,T,29.95,M,10.00,M,FEW,SCT,M,M,6500.00,10000.00,M,M,VCTS,M,M,M,M,M,M,86.50,KHND 240419Z AUTO 35007KT 10SM VCTS FEW065 SCT100 29/19 A2995 RMK AO2 TSE06B13RAE03 P0000,M
VGT,2023-08-24 04:29,-115.1933,36.2111,667.00,89.00,58.00,35.20,10.00,3.00,T,29.92,M,10.00,M,SCT,M,M,M,11000.00,M,M,M,TS,M,M,M,M,M,M,87.94,KVGT 240429Z AUTO 01003KT 10SM TS SCT110 32/14 A2992 RMK AO2 WSHFT 0337 RAB07E20 TSE12B23 P0000 T03170144,M
05U,2023-08-24 04:30,-116.0051,39.6042,1811.23,60.80,48.20,63.15,M,M,0.00,30.21,M,10.00,M,M,M,M,M,M,M,M,M,M,M,M,M,M,M,M,60.80,K05U 240430Z AUTO 10SM 16/09 A3021 RMK A01,M
BVU,2023-08-24 04:35,-114.8611,35.9475,671.00,87.80,57.20,35.53,0.00,0.00,0.00,29.90,M,10.00,M,FEW,M,M,M,11000.00,M,M,M,M,M,M,M,M,M,M,86.58,KBVU 240435Z AUTO 00000KT 10SM FEW110 31/14 A2990 RMK AO2,M
CXP,2023-08-24 04:35,-119.7326,39.1923,1431.00,71.60,50.00,46.43,0.00,0.00,0.00,30.11,M,10.00,M,CLR,M,M,M,M,M,M,M,M,M,M,M,M,M,M,71.60,KCXP 240435Z AUTO 00000KT 10SM CLR 22/10 A3011 RMK AO2,M
RTS,2023-08-24 04:35,-119.8764,39.6682,1539.00,66.20,48.20,52.25,290.00,6.00,0.00,30.13,M,10.00,M,CLR,M,M,M,M,M,M,M,M,M,M,M,M,M,M,66.20,KRTS 240435Z AUTO 29006KT 10SM CLR 19/09 A3013 RMK AO2,M
MEV,2023-08-24 04:35,-119.7500,38.9963,1441.42,62.60,55.40,77.29,170.00,4.00,0.00,30.10,M,10.00,M,FEW,M,M,M,8000.00,M,M,M,M,M,M,M,M,M,M,62.60,KMEV 240435Z AUTO 17004KT 10SM FEW080 17/13 A3010 RMK AO2,M
BAM,2023-08-24 04:35,-116.8743,40.5990,1382.36,69.80,42.80,37.61,130.00,3.00,0.00,30.10,M,10.00,M,CLR,M,M,M,M,M,M,M,M,M,M,M,M,M,M,69.80,KBAM 240435Z AUTO 13003KT 10SM CLR 21/06 A3010 RMK AO1,M
HTH,2023-08-24 04:35,-118.6315,38.5448,1282.89,71.60,50.00,46.43,220.00,6.00,0.00,30.06,M,10.00,M,CLR,M,M,M,M,M,M,M,M,M,M,M,M,M,M,71.60,KHTH 240435Z AUTO 22006KT 10SM CLR 22/10 A3006 RMK A01,M
10U,2023-08-24 04:35,-116.1876,41.9532,1637.00,62.60,42.80,48.28,310.00,4.00,0.00,30.17,M,10.00,10.00,CLR,M,M,M,M,M,M,M,M,M,M,M,M,M,M,62.60,K10U 240435Z AUTO 31004G10KT 10SM CLR 17/06 A3017 RMK AO2,M
TMT,2023-08-24 04:35,-117.1971,39.4643,1749.34,62.00,48.00,60.07,240.00,4.00,0.00,30.19,M,M,M,CLR,M,M,M,M,M,M,M,M,M,M,M,M,M,M,62.00,KTMT 240435Z AUTO 24004KT CLR 17/09 A3019 RMK AO2 T01660088 PWINO,M
LAS,2023-08-24 04:45,-115.1634,36.0719,663.00,85.00,65.00,51.22,60.00,11.00,0.02,29.91,M,10.00,M,FEW,FEW,BKN,M,2500.00,8000.00,10000.00,M,TS,M,M,M,29.00,30.00,2023-08-24 04:21,86.77,KLAS 240445Z 06011KT 10SM TS FEW025 FEW080CB BKN100 29/18 A2991 RMK AO2 PK WND 03029/0421 WSHFT 0425 RAB11E28 TSE12B13E38B39 FRQ LTGICCCCG OHD-N-E TS OHD-N-E MOV N P0002 T02940183,M
P68,2023-08-24 04:53,-116.0056,39.6014,1993.00,62.00,48.00,60.07,260.00,4.00,0.00,30.19,1014.50,M,M,M,M,M,M,M,M,M,M,M,M,M,M,M,M,M,62.00,KP68 240453Z AUTO 26004KT 17/09 A3019 RMK AO1 SLP145 T01670089,M
DRA,2023-08-24 04:53,-116.0278,36.6206,1009.00,79.00,58.00,48.59,130.00,3.00,0.00,29.99,1010.70,10.00,M,CLR,M,M,M,M,M,M,M,M,M,M,M,M,M,M,79.00,KDRA 240453Z AUTO 13003KT 10SM CLR 26/14 A2999 RMK AO2 SLP107 T02610144,M
ELY,2023-08-24 04:53,-114.8453,39.2950,1909.00,59.00,50.00,72.01,170.00,10.00,0.00,30.22,1014.80,10.00,M,FEW,M,M,M,12000.00,M,M,M,M,M,M,M,M,M,M,59.00,KELY 240453Z AUTO 17010KT 10SM FEW120 15/10 A3022 RMK AO2 SLP148 T01500100,M
VGT,2023-08-24 04:53,-115.1933,36.2111,667.00,85.00,62.00,46.11,20.00,4.00,0.05,29.91,1011.80,5.00,M,FEW,BKN,OVC,M,5500.00,9500.00,11000.00,M,RA,M,M,M,M,M,M,85.55,KVGT 240453Z AUTO 02004KT 5SM RA FEW055 BKN095 OVC110 29/17 A2991 RMK AO2 WSHFT 0337 RAB07E20B41 TSE12B23E48 SLP118 P0005 T02940167,M
LOL,2023-08-24 04:53,-118.5701,40.0684,1192.43,66.00,55.00,67.64,20.00,4.00,0.00,30.05,1014.30,10.00,M,CLR,M,M,M,M,M,M,M,M,M,M,M,M,M,M,66.00,KLOL 240453Z AUTO 02004KT 10SM CLR 19/13 A3005 RMK AO2 SLP143 T01890128,M
BVU,2023-08-24 04:55,-114.8611,35.9475,671.00,86.00,59.00,40.14,320.00,4.00,0.00,29.91,M,10.00,M,CLR,M,M,M,M,M,M,M,M,M,M,M,M,M,M,85.47,KBVU 240455Z AUTO 32004KT 10SM CLR 30/15 A2991 RMK AO2,M
CXP,2023-08-24 04:55,-119.7326,39.1923,1431.00,66.20,51.80,59.74,0.00,0.00,0.00,30.11,M,10.00,M,CLR,M,M,M,M,M,M,M,M,M,M,M,M,M,M,66.20,KCXP 240455Z AUTO 00000KT 10SM CLR 19/11 A3011 RMK AO2,M
INS,2023-08-24 04:55,-115.6733,36.5872,955.00,81.00,55.20,41.13,260.00,5.00,0.00,29.98,1010.60,10.00,M,CLR,M,M,M,M,M,M,M,M,M,M,M,M,M,M,80.76,KINS 240455Z AUTO 26005KT 10SM CLR 27/13 A2998 RMK AO2 SLP106 T02730129 $,M
RNO,2023-08-24 04:55,-119.7711,39.4839,1341.00,74.00,48.00,39.74,260.00,4.00,0.00,30.08,1013.60,10.00,M,CLR,M,M,M,M,M,M,M,M,M,M,M,M,M,M,74.00,KRNO 240455Z 26004KT 10SM CLR 23/09 A3008 RMK AO2 SLP136 T02330089,M
LSV,2023-08-24 04:55,-115.0343,36.2362,570.00,90.30,58.00,33.79,360.00,4.00,0.00,29.87,1008.60,10.00,M,FEW,SCT,SCT,M,9000.00,14000.00,16000.00,M,M,M,M,M,M,M,M,89.21,KLSV 240455Z AUTO 36004KT 10SM FEW090 SCT140 SCT160 32/15 A2987 RMK AO2 SLP086 T03240145 $,M
RTS,2023-08-24 04:55,-119.8764,39.6682,1539.00,66.20,46.40,48.83,20.00,3.00,0.00,30.14,M,10.00,M,CLR,M,M,M,M,M,M,M,M,M,M,M,M,M,M,66.20,KRTS 240455Z AUTO 02003KT 10SM CLR 19/08 A3014 RMK AO2,M
05U,2023-08-24 04:55,-116.0051,39.6042,1811.23,62.60,48.20,59.26,M,M,0.00,30.21,M,10.00,M,M,M,M,M,M,M,M,M,M,M,M,M,M,M,M,62.60,K05U 240455Z AUTO 10SM 17/09 A3021 RMK A01,M
MEV,2023-08-24 04:55,-119.7500,38.9963,1441.42,60.80,55.40,82.37,200.00,5.00,0.00,30.10,M,10.00,M,FEW,SCT,M,M,6000.00,9000.00,M,M,M,M,M,M,M,M,M,60.80,KMEV 240455Z AUTO 20005KT 10SM FEW060 SCT090 16/13 A3010 RMK AO2,M
HTH,2023-08-24 04:55,-118.6315,38.5448,1282.89,71.60,48.20,43.42,0.00,0.00,0.00,30.06,M,10.00,M,CLR,M,M,M,M,M,M,M,M,M,M,M,M,M,M,71.60,KHTH 240455Z AUTO 00000KT 10SM CLR 22/09 A3006 RMK A01,M
BAM,2023-08-24 04:55,-116.8743,40.5990,1382.36,68.00,41.00,37.32,0.00,0.00,0.00,30.10,M,10.00,M,CLR,M,M,M,M,M,M,M,M,M,M,M,M,M,M,68.00,KBAM 240455Z AUTO 00000KT 10SM CLR 20/05 A3010 RMK AO1,M
TMT,2023-08-24 04:55,-117.1971,39.4643,1749.34,61.00,47.50,61.08,250.00,4.00,0.00,30.19,M,M,M,CLR,M,M,M,M,M,M,M,M,M,M,M,M,M,M,61.00,KTMT 240455Z AUTO 25004KT CLR 16/09 A3019 RMK AO2 T01620086 PWINO,M
10U,2023-08-24 04:55,-116.1876,41.9532,1637.00,60.80,42.80,51.45,0.00,0.00,0.00,30.17,M,10.00,M,CLR,M,M,M,M,M,M,M,M,M,M,M,M,M,M,60.80,K10U 240455Z AUTO 00000KT 10SM CLR 16/06 A3017 RMK AO2,M
EKO,2023-08-24 04:56,-115.7860,40.8242,1367.00,68.00,47.00,46.93,40.00,4.00,0.00,30.12,1014.90,10.00,M,CLR,M,M,M,M,M,M,M,M,M,M,M,M,M,M,68.00,KEKO 240456Z AUTO 04004KT 10SM CLR 20/08 A3012 RMK AO2 SLP149 T02000083,M
WMC,2023-08-24 04:56,-117.8072,40.9019,1315.00,64.00,49.00,58.13,300.00,3.00,0.00,30.07,1014.30,10.00,M,CLR,M,M,M,M,M,M,M,M,M,M,M,M,M,M,64.00,KWMC 240456Z AUTO 30003KT 10SM CLR 18/09 A3007 RMK AO2 SLP143 T01780094,M
NFL,2023-08-24 04:56,-118.7010,39.4166,1199.00,67.00,59.00,75.48,30.00,6.00,0.00,30.03,1013.90,10.00,M,CLR,M,M,M,M,M,M,M,M,M,M,M,M,M,M,67.00,KNFL 240456Z 03006KT 10SM CLR 19/15 A3003 RMK AO2 SLP139 T01940150,M
LAS,2023-08-24 04:56,-115.1634,36.0719,663.00,85.00,65.00,51.22,10.00,8.00,0.02,29.92,1010.40,10.00,M,FEW,BKN,M,M,8000.00,10000.00,M,M,TS,M,M,M,29.00,30.00,2023-08-24 04:21,86.77,KLAS 240456Z 01008KT 330V050 10SM TS FEW080CB BKN100 29/18 A2992 RMK AO2 PK WND 03029/0421 WSHFT 0425 SLP104 FRQ LTGICCC N-E RAB11E28 TSE12B13 TS N-E MOV N P0002 T02940183,M
LAS,2023-08-24 05:06,-115.1634,36.0719,663.00,84.00,64.00,51.08,320.00,8.00,0.00,29.92,M,10.00,M,FEW,BKN,M,M,8000.00,10000.00,M,M,M,M,M,M,M,M,M,85.36,KLAS 240506Z 32008KT 10SM FEW080 BKN100 29/18 A2992 RMK AO2 TSE06 TS DSIPTD CB DSNT N T02890178,M
05U,2023-08-24 05:10,-116.0051,39.6042,1811.23,60.80,48.20,63.15,M,M,0.00,30.21,M,10.00,M,M,M,M,M,M,M,M,M,M,M,M,M,M,M,M,60.80,K05U 240510Z AUTO 10SM 16/09 A3021 RMK A01,M
BVU,2023-08-24 05:15,-114.8611,35.9475,671.00,87.80,59.00,37.90,0.00,0.00,0.00,29.91,M,10.00,M,CLR,M,M,M,M,M,M,M,M,M,M,M,M,M,M,87.12,KBVU 240515Z AUTO 00000KT 10SM CLR 31/15 A2991 RMK AO2,M
CXP,2023-08-24 05:15,-119.7326,39.1923,1431.00,68.00,51.80,56.13,0.00,0.00,0.00,30.11,M,10.00,M,BKN,M,M,M,10000.00,M,M,M,M,M,M,M,M,M,M,68.00,KCXP 240515Z AUTO 00000KT 10SM BKN100 20/11 A3011 RMK AO2,M
RTS,2023-08-24 05:15,-119.8764,39.6682,1539.00,66.20,46.40,48.83,250.00,4.00,0.00,30.14,M,10.00,M,CLR,M,M,M,M,M,M,M,M,M,M,M,M,M,M,66.20,KRTS 240515Z AUTO 25004KT 10SM CLR 19/08 A3014 RMK AO2,M
MEV,2023-08-24 05:15,-119.7500,38.9963,1441.42,62.60,55.40,77.29,0.00,0.00,0.00,30.10,M,10.00,M,BKN,M,M,M,9000.00,M,M,M,M,M,M,M,M,M,M,62.60,KMEV 240515Z AUTO 00000KT 10SM BKN090 17/13 A3010 RMK AO2,M
HTH,2023-08-24 05:15,-118.6315,38.5448,1282.89,71.60,50.00,46.43,210.00,5.00,0.00,30.06,M,10.00,M,CLR,M,M,M,M,M,M,M,M,M,M,M,M,M,M,71.60,KHTH 240515Z AUTO 21005KT 10SM CLR 22/10 A3006 RMK A01,M
10U,2023-08-24 05:15,-116.1876,41.9532,1637.00,59.00,42.80,54.86,0.00,0.00,0.00,30.17,M,10.00,M,CLR,M,M,M,M,M,M,M,M,M,M,M,M,M,M,59.00,K10U 240515Z AUTO 00000KT 10SM CLR 15/06 A3017 RMK AO2,M
BAM,2023-08-24 05:15,-116.8743,40.5990,1382.36,68.00,41.00,37.32,0.00,0.00,0.00,30.10,M,10.00,M,CLR,M,M,M,M,M,M,M,M,M,M,M,M,M,M,68.00,KBAM 240515Z AUTO 00000KT 10SM CLR 20/05 A3010 RMK AO1,M
TMT,2023-08-24 05:15,-117.1971,39.4643,1749.34,57.70,48.60,71.61,0.00,0.00,0.00,30.19,M,M,M,CLR,M,M,M,M,M,M,M,M,M,M,M,M,M,M,57.70,KTMT 240515Z AUTO 00000KT CLR 14/09 A3019 RMK AO2 LTG DSNT E T01430092 PWINO,M
BVU,2023-08-24 05:35,-114.8611,35.9475,671.00,86.00,59.00,40.14,70.00,5.00,0.00,29.91,M,10.00,M,CLR,M,M,M,M,M,M,M,M,M,M,M,M,M,M,85.47,KBVU 240535Z AUTO 07005KT 10SM CLR 30/15 A2991 RMK AO2,M
CXP,2023-08-24 05:35,-119.7326,39.1923,1431.00,68.00,51.80,56.13,0.00,0.00,0.00,30.12,M,10.00,M,BKN,M,M,M,10000.00,M,M,M,M,M,M,M,M,M,M,68.00,KCXP 240535Z AUTO 00000KT 10SM BKN100 20/11 A3012 RMK AO2,M
RTS,2023-08-24 05:35,-119.8764,39.6682,1539.00,64.40,46.40,51.98,10.00,3.00,0.00,30.14,M,10.00,M,CLR,M,M,M,M,M,M,M,M,M,M,M,M,M,M,64.40,KRTS 240535Z AUTO 01003KT 10SM CLR 18/08 A3014 RMK AO2,M
05U,2023-08-24 05:35,-116.0051,39.6042,1811.23,60.80,48.20,63.15,M,M,0.00,30.21,M,10.00,M,M,M,M,M,M,M,M,M,M,M,M,M,M,M,M,60.80,K05U 240535Z AUTO 10SM 16/09 A3021 RMK A01,M
MEV,2023-08-24 05:35,-119.7500,38.9963,1441.42,64.40,55.40,72.56,0.00,0.00,0.00,30.10,M,10.00,M,BKN,BKN,M,M,8500.00,11000.00,M,M,M,M,M,M,M,M,M,64.40,KMEV 240535Z AUTO 00000KT 10SM BKN085 BKN110 18/13 A3010 RMK AO2,M
HTH,2023-08-24 05:35,-118.6315,38.5448,1282.89,73.40,48.20,40.85,0.00,0.00,0.00,30.06,M,10.00,M,CLR,M,M,M,M,M,M,M,M,M,M,M,M,M,M,73.40,KHTH 240535Z AUTO 00000KT 10SM CLR 23/09 A3006 RMK A01,M
10U,2023-08-24 05:35,-116.1876,41.9532,1637.00,60.80,44.60,55.12,0.00,0.00,0.00,30.17,M,10.00,M,CLR,M,M,M,M,M,M,M,M,M,M,M,M,M,M,60.80,K10U 240535Z AUTO 00000KT 10SM CLR 16/07 A3017 RMK AO2,M
BAM,2023-08-24 05:35,-116.8743,40.5990,1382.36,60.80,41.00,48.00,130.00,4.00,0.00,30.10,M,10.00,M,CLR,M,M,M,M,M,M,M,M,M,M,M,M,M,M,60.80,KBAM 240535Z AUTO 13004KT 10SM CLR 16/05 A3010 RMK AO1,M
TMT,2023-08-24 05:35,-117.1971,39.4643,1749.34,56.00,48.70,76.43,230.00,3.00,0.00,30.19,M,M,M,CLR,M,M,M,M,M,M,M,M,M,M,M,M,M,M,56.00,KTMT 240535Z AUTO 23003KT CLR 13/09 A3019 RMK AO2 T01340093 PWINO,M
05U,2023-08-24 05:50,-116.0051,39.6042,1811.23,59.00,50.00,72.01,M,M,0.00,30.21,M,10.00,M,M,M,M,M,M,M,M,M,M,M,M,M,M,M,M,59.00,K05U 240550Z AUTO 10SM 15/10 A3021 RMK A01,M
P68,2023-08-24 05:53,-116.0056,39.6014,1993.00,58.00,50.00,74.64,0.00,0.00,0.00,30.18,1014.50,M,M,M,M,M,M,M,M,M,M,M,M,M,M,M,M,M,58.00,KP68 240553Z AUTO 00000KT 14/10 A3018 RMK AO1 SLP145 T01440100 10278 20144 50008,M
DRA,2023-08-24 05:53,-116.0278,36.6206,1009.00,78.00,58.00,50.22,120.00,3.00,0.00,29.99,1010.40,10.00,M,CLR,M,M,M,M,M,M,M,M,M,M,M,M,M,M,78.00,KDRA 240553Z AUTO 12003KT 10SM CLR 26/14 A2999 RMK AO2 SLP104 T02560144 10328 20250 50005,M
ELY,2023-08-24 05:53,-114.8453,39.2950,1909.00,58.00,50.00,74.64,180.00,10.00,0.00,30.22,1014.20,10.00,M,BKN,M,M,M,12000.00,M,M,M,M,M,M,M,M,M,M,58.00,KELY 240553Z AUTO 18010KT 10SM BKN120 14/10 A3022 RMK AO2 SLP142 T01440100 10261 20144 50006,M
VGT,2023-08-24 05:53,-115.1933,36.2111,667.00,86.00,64.00,47.91,100.00,10.00,T,29.92,1012.00,10.00,M,BKN,M,M,M,11000.00,M,M,M,M,M,M,M,M,M,M,87.31,KVGT 240553Z AUTO 10010KT 10SM BKN110 30/18 A2992 RMK AO2 RAE05 SLP120 P0000 60005 T03000178 10372 20294 51022,M
LOL,2023-08-24 05:53,-118.5701,40.0684,1192.43,63.00,55.00,75.11,310.00,5.00,0.00,30.04,1014.20,10.00,M,CLR,M,M,M,M,M,M,M,M,M,M,M,M,M,M,63.00,KLOL 240553Z AUTO 31005KT 10SM CLR 17/13 A3004 RMK AO2 SLP142 T01720128 10283 20172 50005,M
BVU,2023-08-24 05:55,-114.8611,35.9475,671.00,87.80,55.40,33.29,M,M,0.00,29.92,M,10.00,M,SCT,M,M,M,10000.00,M,M,M,M,M,M,M,M,M,M,86.11,KBVU 240555Z AUTO 4/66666705KT 10SM SCT100 31/13 A2992 RMK AO2,M
CXP,2023-08-24 05:55,-119.7326,39.1923,1431.00,66.20,51.80,59.74,0.00,0.00,0.00,30.12,M,10.00,M,OVC,M,M,M,9000.00,M,M,M,M,M,M,M,M,M,M,66.20,KCXP 240555Z AUTO 00000KT 10SM OVC090 19/11 A3012 RMK AO2,M
INS,2023-08-24 05:55,-115.6733,36.5872,955.00,82.80,55.20,38.79,100.00,4.00,0.00,29.99,1010.60,10.00,M,CLR,M,M,M,M,M,M,M,M,M,M,M,M,M,M,82.00,KINS 240555Z AUTO 10004KT 10SM CLR 28/13 A2999 RMK AO2 SLP106 T02820129 10339 20262 52011 $,M
RNO,2023-08-24 05:55,-119.7711,39.4839,1341.00,72.00,49.00,44.13,260.00,7.00,0.00,30.09,1013.50,10.00,M,CLR,M,M,M,M,M,M,M,M,M,M,M,M,M,M,72.00,KRNO 240555Z 26007KT 10SM CLR 22/09 A3009 RMK AO2 SLP135 T02220094 10289 20222 51012,M
RTS,2023-08-24 05:55,-119.8764,39.6682,1539.00,64.40,46.40,51.98,340.00,5.00,0.00,30.14,M,10.00,M,CLR,M,M,M,M,M,M,M,M,M,M,M,M,M,M,64.40,KRTS 240555Z AUTO 34005KT 10SM CLR 18/08 A3014 RMK AO2,M
MEV,2023-08-24 05:55,-119.7500,38.9963,1441.42,62.60,55.40,77.29,120.00,4.00,0.00,30.10,M,10.00,M,FEW,BKN,M,M,8000.00,10000.00,M,M,M,M,M,M,M,M,M,62.60,KMEV 240555Z AUTO 12004KT 10SM FEW080 BKN100 17/13 A3010 RMK AO2,M
HTH,2023-08-24 05:55,-118.6315,38.5448,1282.89,71.60,50.00,46.43,170.00,4.00,0.00,30.07,M,10.00,M,CLR,M,M,M,M,M,M,M,M,M,M,M,M,M,M,71.60,KHTH 240555Z AUTO 17004KT 10SM CLR 22/10 A3007 RMK A01,M
BAM,2023-08-24 05:55,-116.8743,40.5990,1382.36,60.80,41.00,48.00,0.00,0.00,0.00,30.10,M,10.00,M,CLR,M,M,M,M,M,M,M,M,M,M,M,M,M,M,60.80,KBAM 240555Z AUTO 00000KT 10SM CLR 16/05 A3010 RMK AO1,M
TMT,2023-08-24 05:55,-117.1971,39.4643,1749.34,56.30,49.00,76.46,230.00,5.00,0.00,30.19,M,M,M,BKN,M,M,M,11000.00,M,M,M,M,M,M,M,M,M,M,56.30,KTMT 240555Z AUTO 23005KT BKN110 14/10 A3019 RMK AO2 T01350095 10261 20127 PWINO,M
10U,2023-08-24 05:55,-116.1876,41.9532,1637.00,57.20,44.60,62.69,0.00,0.00,0.00,30.17,M,10.00,M,CLR,M,M,M,M,M,M,M,M,M,M,M,M,M,M,57.20,K10U 240555Z AUTO 00000KT 10SM CLR 14/07 A3017 RMK AO2,M
LSV,2023-08-24 05:55,-115.0343,36.2362,570.00,88.70,57.60,35.03,20.00,11.00,0.00,29.88,1009.10,10.00,M,CLR,M,M,M,M,M,M,M,M,M,M,M,M,M,M,87.53,KLSV 240555Z AUTO 02011KT 10SM CLR 32/14 A2988 RMK AO2 SLP091 T03150142 10385 20315 52022 $,M
EKO,2023-08-24 05:56,-115.7860,40.8242,1367.00,60.00,49.00,66.95,0.00,0.00,0.00,30.13,1015.50,10.00,M,CLR,M,M,M,M,M,M,M,M,M,M,M,M,M,M,60.00,KEKO 240556Z AUTO 00000KT 10SM CLR 16/09 A3013 RMK AO2 SLP155 T01560094 10289 20150 51008,M
WMC,2023-08-24 05:56,-117.8072,40.9019,1315.00,61.00,49.00,64.61,330.00,3.00,0.00,30.08,1014.20,10.00,M,CLR,M,M,M,M,M,M,M,M,M,M,M,M,M,M,61.00,KWMC 240556Z AUTO 33003KT 10SM CLR 16/09 A3008 RMK AO2 SLP142 T01610094 10300 20156 51006,M
NFL,2023-08-24 05:56,-118.7010,39.4166,1199.00,66.00,59.00,78.14,20.00,6.00,0.00,30.03,1013.90,10.00,M,CLR,M,M,M,M,M,M,M,M,M,M,M,M,M,M,66.00,KNFL 240556Z 02006KT 10SM CLR 19/15 A3003 RMK AO2 SLP139 T01890150 10294 20189 51004,M
LAS,2023-08-24 05:56,-115.1634,36.0719,663.00,83.00,65.00,54.63,290.00,3.00,0.00,29.93,1010.90,10.00,M,FEW,BKN,M,M,8000.00,10000.00,M,M,M,M,M,M,M,M,M,84.78,KLAS 240556Z 29003KT 10SM FEW080 BKN100 28/18 A2993 RMK AO2 TSE06 SLP109 60017 T02830183 10367 20272 51022,M
BVU,2023-08-24 06:15,-114.8611,35.9475,671.00,87.80,55.40,33.29,70.00,9.00,0.00,29.92,M,10.00,M,BKN,M,M,M,10000.00,M,M,M,M,M,M,M,M,M,M,86.11,KBVU 240615Z AUTO 07009KT 10SM BKN100 31/13 A2992 RMK AO2,M
CXP,2023-08-24 06:15,-119.7326,39.1923,1431.00,68.00,51.80,56.13,320.00,5.00,0.00,30.11,M,10.00,M,OVC,M,M,M,9500.00,M,M,M,M,M,M,M,M,M,M,68.00,KCXP 240615Z AUTO 32005KT 10SM OVC095 20/11 A3011 RMK AO2,M
RTS,2023-08-24 06:15,-119.8764,39.6682,1539.00,62.60,48.20,59.26,350.00,7.00,0.00,30.14,M,10.00,M,CLR,M,M,M,M,M,M,M,M,M,M,M,M,M,M,62.60,KRTS 240615Z AUTO 35007KT 10SM CLR 17/09 A3014 RMK AO2,M
05U,2023-08-24 06:15,-116.0051,39.6042,1811.23,59.00,48.20,67.33,M,M,0.00,30.21,M,10.00,M,M,M,M,M,M,M,M,M,M,M,M,M,M,M,M,59.00,K05U 240615Z AUTO 10SM 15/09 A3021 RMK A01,M
MEV,2023-08-24 06:15,-119.7500,38.9963,1441.42,60.80,55.40,82.37,0.00,0.00,0.00,30.11,M,10.00,M,FEW,SCT,M,M,7500.00,10000.00,M,M,M,M,M,M,M,M,M,60.80,KMEV 240615Z AUTO 00000KT 10SM FEW075 SCT100 16/13 A3011 RMK AO2,M
BAM,2023-08-24 06:15,-116.8743,40.5990,1382.36,59.00,41.00,51.18,90.00,3.00,0.00,30.11,M,10.00,M,CLR,M,M,M,M,M,M,M,M,M,M,M,M,M,M,59.00,KBAM 240615Z AUTO 09003KT 10SM CLR 15/05 A3011 RMK AO1,M
HTH,2023-08-24 06:15,-118.6315,38.5448,1282.89,71.60,51.80,49.64,190.00,4.00,0.00,30.07,M,10.00,M,CLR,M,M,M,M,M,M,M,M,M,M,M,M,M,M,71.60,KHTH 240615Z AUTO 19004KT 10SM CLR 22/11 A3007 RMK A01,M
TMT,2023-08-24 06:15,-117.1971,39.4643,1749.34,55.40,48.70,78.11,230.00,5.00,0.00,30.20,M,M,M,BKN,M,M,M,11000.00,M,M,M,M,M,M,M,M,M,M,55.40,KTMT 240615Z AUTO 23005KT BKN110 13/09 A3020 RMK AO2 T01300093 PWINO,M
10U,2023-08-24 06:15,-116.1876,41.9532,1637.00,57.20,46.40,67.12,250.00,4.00,0.00,30.17,M,10.00,M,CLR,M,M,M,M,M,M,M,M,M,M,M,M,M,M,57.20,K10U 240615Z AUTO 25004KT 10SM CLR 14/08 A3017 RMK AO2,M
BVU,2023-08-24 06:35,-114.8611,35.9475,671.00,87.80,55.40,33.29,80.00,5.00,0.00,29.93,M,10.00,M,SCT,M,M,M,10000.00,M,M,M,M,M,M,M,M,M,M,86.11,KBVU 240635Z AUTO 08005KT 10SM SCT100 31/13 A2993 RMK AO2,M
CXP,2023-08-24 06:35,-119.7326,39.1923,1431.00,66.20,53.60,63.82,90.00,4.00,0.00,30.12,M,10.00,M,BKN,M,M,M,9000.00,M,M,M,M,M,M,M,M,M,M,66.20,KCXP 240635Z AUTO 09004KT 10SM BKN090 19/12 A3012 RMK AO2,M
RTS,2023-08-24 06:35,-119.8764,39.6682,1539.00,62.60,48.20,59.26,340.00,8.00,0.00,30.14,M,10.00,M,CLR,M,M,M,M,M,M,M,M,M,M,M,M,M,M,62.60,KRTS 240635Z AUTO 34008KT 10SM CLR 17/09 A3014 RMK AO2,M
05U,2023-08-24 06:35,-116.0051,39.6042,1811.23,59.00,48.20,67.33,M,M,0.00,30.21,M,10.00,M,M,M,M,M,M,M,M,M,M,M,M,M,M,M,M,59.00,K05U 240635Z AUTO 10SM 15/09 A3021 RMK A01,M
MEV,2023-08-24 06:35,-119.7500,38.9963,1441.42,57.20,53.60,87.74,130.00,6.00,0.00,30.11,M,10.00,M,CLR,M,M,M,M,M,M,M,M,M,M,M,M,M,M,57.20,KMEV 240635Z AUTO 13006KT 10SM CLR 14/12 A3011 RMK AO2,M
BAM,2023-08-24 06:35,-116.8743,40.5990,1382.36,60.80,41.00,48.00,0.00,0.00,0.00,30.11,M,10.00,M,CLR,M,M,M,M,M,M,M,M,M,M,M,M,M,M,60.80,KBAM 240635Z AUTO 00000KT 10SM CLR 16/05 A3011 RMK AO1,M
HTH,2023-08-24 06:35,-118.6315,38.5448,1282.89,71.60,50.00,46.43,0.00,0.00,0.00,30.07,M,10.00,M,CLR,M,M,M,M,M,M,M,M,M,M,M,M,M,M,71.60,KHTH 240635Z AUTO 00000KT 10SM CLR 22/10 A3007 RMK A01,M
10U,2023-08-24 06:35,-116.1876,41.9532,1637.00,57.20,46.40,67.12,170.00,4.00,0.00,30.17,M,10.00,M,CLR,M,M,M,M,M,M,M,M,M,M,M,M,M,M,57.20,K10U 240635Z AUTO 17004KT 10SM CLR 14/08 A3017 RMK AO2,M
TMT,2023-08-24 06:35,-117.1971,39.4643,1749.34,56.00,48.20,75.01,220.00,4.00,0.00,30.20,M,M,M,SCT,M,M,M,11000.00,M,M,M,M,M,M,M,M,M,M,56.00,KTMT 240635Z AUTO 22004KT SCT110 13/09 A3020 RMK AO2 T01330090 PWINO,M
05U,2023-08-24 06:50,-116.0051,39.6042,1811.23,59.00,48.20,67.33,M,M,0.00,30.21,M,10.00,M,M,M,M,M,M,M,M,M,M,M,M,M,M,M,M,59.00,K05U 240650Z AUTO 10SM 15/09 A3021 RMK A01,M
P68,2023-08-24 06:53,-116.0056,39.6014,1993.00,60.00,48.00,64.49,180.00,4.00,0.00,30.18,1013.90,M,M,M,M,M,M,M,M,M,M,M,M,M,M,M,M,M,60.00,KP68 240653Z AUTO 18004KT 16/09 A3018 RMK AO1 SLP139 T01560089,M
DRA,2023-08-24 06:53,-116.0278,36.6206,1009.00,78.00,56.00,46.72,80.00,4.00,0.00,29.99,1010.60,10.00,M,FEW,M,M,M,11000.00,M,M,M,M,M,M,M,M,M,M,78.00,KDRA 240653Z AUTO 08004KT 10SM FEW110 26/13 A2999 RMK AO2 SLP106 T02560133,M
ELY,2023-08-24 06:53,-114.8453,39.2950,1909.00,56.00,49.00,77.29,180.00,10.00,0.00,30.23,1014.30,10.00,M,SCT,M,M,M,12000.00,M,M,M,M,M,M,M,M,M,M,56.00,KELY 240653Z AUTO 18010KT 10SM SCT120 13/09 A3023 RMK AO2 SLP143 T01330094,M
VGT,2023-08-24 06:53,-115.1933,36.2111,667.00,85.00,62.00,46.11,90.00,6.00,0.00,29.93,1012.30,10.00,M,CLR,M,M,M,M,M,M,M,M,M,M,M,M,M,M,85.55,KVGT 240653Z AUTO 09006KT 10SM CLR 29/17 A2993 RMK AO2 SLP123 T02940167,M
LOL,2023-08-24 06:53,-118.5701,40.0684,1192.43,59.00,53.00,80.46,90.00,4.00,0.00,30.05,1014.30,10.00,M,CLR,M,M,M,M,M,M,M,M,M,M,M,M,M,M,59.00,KLOL 240653Z AUTO 09004KT 10SM CLR 15/12 A3005 RMK AO2 SLP143 T01500117,M
BVU,2023-08-24 06:55,-114.8611,35.9475,671.00,86.00,57.20,37.62,0.00,0.00,0.00,29.92,M,10.00,M,SCT,M,M,M,11000.00,M,M,M,M,M,M,M,M,M,M,84.97,KBVU 240655Z AUTO 00000KT 10SM SCT110 30/14 A2992 RMK AO2,M
CXP,2023-08-24 06:55,-119.7326,39.1923,1431.00,64.40,53.60,67.95,90.00,3.00,0.00,30.12,M,10.00,M,SCT,M,M,M,8500.00,M,M,M,M,M,M,M,M,M,M,64.40,KCXP 240655Z AUTO 09003KT 10SM SCT085 18/12 A3012 RMK AO2,M
INS,2023-08-24 06:55,-115.6733,36.5872,955.00,78.30,58.00,49.72,340.00,3.00,0.00,29.99,1010.60,10.00,M,CLR,M,M,M,M,M,M,M,M,M,M,M,M,M,M,78.30,KINS 240655Z AUTO 34003KT 10SM CLR 26/15 A2999 RMK AO2 SLP106 T02570145 $,M
RNO,2023-08-24 06:55,-119.7711,39.4839,1341.00,70.00,49.00,47.24,260.00,7.00,0.00,30.09,1013.50,10.00,M,FEW,M,M,M,12000.00,M,M,M,M,M,M,M,M,M,M,70.00,KRNO 240655Z 26007KT 10SM FEW120 21/09 A3009 RMK AO2 SLP135 T02110094,M
LSV,2023-08-24 06:55,-115.0343,36.2362,570.00,86.70,57.20,36.79,10.00,11.00,0.00,29.88,1009.10,10.00,M,CLR,M,M,M,M,M,M,M,M,M,M,M,M,M,M,85.58,KLSV 240655Z AUTO 01011KT 10SM CLR 30/14 A2988 RMK AO2 SLP091 T03040140 $,M
RTS,2023-08-24 06:55,-119.8764,39.6682,1539.00,62.60,48.20,59.26,350.00,7.00,0.00,30.14,M,10.00,M,CLR,M,M,M,M,M,M,M,M,M,M,M,M,M,M,62.60,KRTS 240655Z AUTO 35007KT 10SM CLR 17/09 A3014 RMK AO2,M
MEV,2023-08-24 06:55,-119.7500,38.9963,1441.42,59.00,55.40,87.83,0.00,0.00,0.00,30.11,M,10.00,M,FEW,FEW,FEW,M,3600.00,6000.00,7000.00,M,M,M,M,M,M,M,M,59.00,KMEV 240655Z AUTO 00000KT 10SM FEW036 FEW060 FEW070 15/13 A3011 RMK AO2,M
BAM,2023-08-24 06:55,-116.8743,40.5990,1382.36,57.20,41.00,54.60,90.00,3.00,0.00,30.11,M,10.00,M,CLR,M,M,M,M,M,M,M,M,M,M,M,M,M,M,57.20,KBAM 240655Z AUTO 09003KT 10SM CLR 14/05 A3011 RMK AO1,M
HTH,2023-08-24 06:55,-118.6315,38.5448,1282.89,68.00,53.60,59.97,220.00,5.00,0.00,30.07,M,10.00,M,CLR,M,M,M,M,M,M,M,M,M,M,M,M,M,M,68.00,KHTH 240655Z AUTO 22005KT 10SM CLR 20/12 A3007 RMK A01,M
TMT,2023-08-24 06:55,-117.1971,39.4643,1749.34,51.60,47.50,85.83,0.00,0.00,0.00,30.19,M,M,M,M,M,M,M,M,M,M,M,M,M,M,M,M,M,M,51.60,KTMT 240655Z AUTO 00000KT 11/09 A3019 RMK AO2 T01090086 PWINO,M
10U,2023-08-24 06:55,-116.1876,41.9532,1637.00,57.20,46.40,67.12,0.00,0.00,0.00,30.17,M,10.00,M,CLR,M,M,M,M,M,M,M,M,M,M,M,M,M,M,57.20,K10U 240655Z AUTO 00000KT 10SM CLR 14/08 A3017 RMK AO2,M
EKO,2023-08-24 06:56,-115.7860,40.8242,1367.00,61.00,48.00,62.23,90.00,5.00,0.00,30.13,1015.20,10.00,M,CLR,M,M,M,M,M,M,M,M,M,M,M,M,M,M,61.00,KEKO 240656Z AUTO 09005KT 10SM CLR 16/09 A3013 RMK AO2 SLP152 T01610089,M
WMC,2023-08-24 06:56,-117.8072,40.9019,1315.00,58.00,49.00,71.91,140.00,5.00,0.00,30.08,1014.30,10.00,M,CLR,M,M,M,M,M,M,M,M,M,M,M,M,M,M,58.00,KWMC 240656Z AUTO 14005KT 10SM CLR 14/09 A3008 RMK AO2 SLP143 T01440094,M
NFL,2023-08-24 06:56,-118.7010,39.4166,1199.00,65.00,59.00,80.90,220.00,3.00,0.00,30.04,1014.10,10.00,M,CLR,M,M,M,M,M,M,M,M,M,M,M,M,M,M,65.00,KNFL 240656Z AUTO 22003KT 10SM CLR 18/15 A3004 RMK AO2 SLP141 T01830150,M
LAS,2023-08-24 06:56,-115.1634,36.0719,663.00,84.00,63.00,49.32,30.00,5.00,0.00,29.94,1010.90,10.00,M,SCT,M,M,M,10000.00,M,M,M,M,M,M,M,M,M,M,84.99,KLAS 240656Z 03005KT 10SM SCT100 29/17 A2994 RMK AO2 SLP109 T02890172,M
HTH,2023-08-24 07:10,-118.6315,38.5448,1282.89,68.00,51.80,56.13,200.00,6.00,0.00,30.07,M,10.00,M,CLR,M,M,M,M,M,M,M,M,M,M,M,M,M,M,68.00,KHTH 240710Z AUTO 20006KT 10SM CLR 20/11 A3007 RMK A01,M
BVU,2023-08-24 07:15,-114.8611,35.9475,671.00,84.20,57.20,39.86,0.00,0.00,0.00,29.92,M,10.00,M,CLR,M,M,M,M,M,M,M,M,M,M,M,M,M,M,83.47,KBVU 240715Z AUTO 00000KT 10SM CLR 29/14 A2992 RMK AO2,M
CXP,2023-08-24 07:15,-119.7326,39.1923,1431.00,64.40,53.60,67.95,0.00,0.00,0.00,30.12,M,10.00,M,CLR,M,M,M,M,M,M,M,M,M,M,M,M,M,M,64.40,KCXP 240715Z AUTO 00000KT 10SM CLR 18/12 A3012 RMK AO2,M
RTS,2023-08-24 07:15,-119.8764,39.6682,1539.00,60.80,48.20,63.15,340.00,8.00,0.00,30.14,M,10.00,M,FEW,M,M,M,10000.00,M,M,M,M,M,M,M,M,M,M,60.80,KRTS 240715Z AUTO 34008KT 10SM FEW100 16/09 A3014 RMK AO2,M
05U,2023-08-24 07:15,-116.0051,39.6042,1811.23,59.00,50.00,72.01,M,M,0.00,30.20,M,10.00,M,M,M,M,M,M,M,M,M,M,M,M,M,M,M,M,59.00,K05U 240715Z AUTO 10SM 15/10 A3020 RMK A01,M
MEV,2023-08-24 07:15,-119.7500,38.9963,1441.42,59.00,53.60,82.25,0.00,0.00,0.00,30.11,M,10.00,M,FEW,FEW,M,M,4900.00,5500.00,M,M,M,M,M,M,M,M,M,59.00,KMEV 240715Z AUTO 00000KT 10SM FEW049 FEW055 15/12 A3011 RMK AO2,M
BAM,2023-08-24 07:15,-116.8743,40.5990,1382.36,55.40,41.00,58.27,90.00,3.00,0.00,30.11,M,10.00,M,SCT,M,M,M,11000.00,M,M,M,M,M,M,M,M,M,M,55.40,KBAM 240715Z AUTO 09003KT 10SM SCT110 13/05 A3011 RMK AO1,M
10U,2023-08-24 07:15,-116.1876,41.9532,1637.00,59.00,46.40,62.92,130.00,4.00,0.00,30.17,M,10.00,M,CLR,M,M,M,M,M,M,M,M,M,M,M,M,M,M,59.00,K10U 240715Z AUTO 13004KT 10SM CLR 15/08 A3017 RMK AO2,M
TMT,2023-08-24 07:15,-117.1971,39.4643,1749.34,52.70,47.00,80.88,180.00,3.00,0.00,30.19,M,M,M,SCT,M,M,M,11000.00,M,M,M,M,M,M,M,M,M,M,52.70,KTMT 240715Z AUTO 18003KT SCT110 12/08 A3019 RMK AO2 T01150084 PWINO,M
05U,2023-08-24 07:30,-116.0051,39.6042,1811.23,60.80,50.00,67.54,M,M,0.00,30.21,M,10.00,M,M,M,M,M,M,M,M,M,M,M,M,M,M,M,M,60.80,K05U 240730Z AUTO 10SM 16/10 A3021 RMK A01,M
BVU,2023-08-24 07:35,-114.8611,35.9475,671.00,82.40,59.00,45.07,50.00,5.00,0.00,29.92,M,10.00,M,CLR,M,M,M,M,M,M,M,M,M,M,M,M,M,M,82.46,KBVU 240735Z AUTO 05005KT 10SM CLR 28/15 A2992 RMK AO2,M
CXP,2023-08-24 07:35,-119.7326,39.1923,1431.00,64.40,53.60,67.95,310.00,3.00,0.00,30.12,M,10.00,M,CLR,M,M,M,M,M,M,M,M,M,M,M,M,M,M,64.40,KCXP 240735Z AUTO 31003KT 10SM CLR 18/12 A3012 RMK AO2,M
RTS,2023-08-24 07:35,-119.8764,39.6682,1539.00,59.00,48.20,67.33,340.00,7.00,0.00,30.14,M,10.00,M,SCT,M,M,M,10000.00,M,M,M,M,M,M,M,M,M,M,59.00,KRTS 240735Z AUTO 34007KT 10SM SCT100 15/09 A3014 RMK AO2,M
MEV,2023-08-24 07:35,-119.7500,38.9963,1441.42,57.20,53.60,87.74,0.00,0.00,0.00,30.11,M,10.00,M,FEW,FEW,M,M,5000.00,6000.00,M,M,M,M,M,M,M,M,M,57.20,KMEV 240735Z AUTO 00000KT 10SM FEW050 FEW060 14/12 A3011 RMK AO2,M
BAM,2023-08-24 07:35,-116.8743,40.5990,1382.36,59.00,42.80,54.86,140.00,4.00,0.00,30.11,M,10.00,M,SCT,M,M,M,11000.00,M,M,M,M,M,M,M,M,M,M,59.00,KBAM 240735Z AUTO 14004KT 10SM SCT110 15/06 A3011 RMK AO1,M
HTH,2023-08-24 07:35,-118.6315,38.5448,1282.89,68.00,50.00,52.51,210.00,6.00,0.00,30.07,M,10.00,M,CLR,M,M,M,M,M,M,M,M,M,M,M,M,M,M,68.00,KHTH 240735Z AUTO 21006KT 10SM CLR 20/10 A3007 RMK A01,M
10U,2023-08-24 07:35,-116.1876,41.9532,1637.00,60.80,46.40,59.01,140.00,7.00,0.00,30.17,M,10.00,M,CLR,M,M,M,M,M,M,M,M,M,M,M,M,M,M,60.80,K10U 240735Z AUTO 14007KT 10SM CLR 16/08 A3017 RMK AO2,M
TMT,2023-08-24 07:35,-117.1971,39.4643,1749.34,52.30,47.00,82.08,250.00,3.00,0.00,30.20,M,M,M,SCT,M,M,M,11000.00,M,M,M,M,M,M,M,M,M,M,52.30,KTMT 240735Z AUTO 25003KT SCT110 11/08 A3020 RMK AO2 T01130083 PWINO,M
P68,2023-08-24 07:53,-116.0056,39.6014,1993.00,59.00,50.00,72.01,230.00,5.00,0.00,30.17,1013.40,M,M,M,M,M,M,M,M,M,M,M,M,M,M,M,M,M,59.00,KP68 240753Z AUTO 23005KT 15/10 A3017 RMK AO1 SLP134 T01500100 402780083,M
DRA,2023-08-24 07:53,-116.0278,36.6206,1009.00,73.00,57.00,57.23,300.00,4.00,0.00,29.99,1010.70,10.00,M,CLR,M,M,M,M,M,M,M,M,M,M,M,M,M,M,73.00,KDRA 240753Z AUTO 30004KT 10SM CLR 23/14 A2999 RMK AO2 SLP107 T02280139 403330183,M
ELY,2023-08-24 07:53,-114.8453,39.2950,1909.00,58.00,50.00,74.64,180.00,11.00,0.00,30.22,1013.80,10.00,M,SCT,M,M,M,11000.00,M,M,M,M,M,M,M,M,M,M,58.00,KELY 240753Z AUTO 18011KT 10SM SCT110 14/10 A3022 RMK AO2 SLP138 T01440100 402720067,M
VGT,2023-08-24 07:53,-115.1933,36.2111,667.00,84.00,62.00,47.61,110.00,4.00,0.00,29.93,1012.40,10.00,M,CLR,M,M,M,M,M,M,M,M,M,M,M,M,M,M,84.64,KVGT 240753Z AUTO 11004KT 10SM CLR 29/17 A2993 RMK AO2 SLP124 T02890167 403720267,M
LOL,2023-08-24 07:53,-118.5701,40.0684,1192.43,57.00,52.00,83.33,60.00,5.00,0.00,30.04,1014.20,10.00,M,CLR,M,M,M,M,M,M,M,M,M,M,M,M,M,M,57.00,KLOL 240753Z AUTO 06005KT 10SM CLR 14/11 A3004 RMK AO2 SLP142 T01390111 402830106,M
BVU,2023-08-24 07:55,-114.8611,35.9475,671.00,84.20,57.20,39.86,40.00,6.00,0.00,29.92,M,10.00,M,CLR,M,M,M,M,M,M,M,M,M,M,M,M,M,M,83.47,KBVU 240755Z AUTO 04006KT 10SM CLR 29/14 A2992 RMK AO2,M
CXP,2023-08-24 07:55,-119.7326,39.1923,1431.00,62.60,51.80,67.75,0.00,0.00,0.00,30.12,M,10.00,M,CLR,M,M,M,M,M,M,M,M,M,M,M,M,M,M,62.60,KCXP 240755Z AUTO 00000KT 10SM CLR 17/11 A3012 RMK AO2,M
INS,2023-08-24 07:55,-115.6733,36.5872,955.00,78.30,57.00,47.96,0.00,0.00,0.00,29.98,1010.30,10.00,M,CLR,M,M,M,M,M,M,M,M,M,M,M,M,M,M,78.30,KINS 240755Z AUTO 00000KT 10SM CLR 26/14 A2998 RMK AO2 SLP103 T02570138 403390177 $,M
RNO,2023-08-24 07:55,-119.7711,39.4839,1341.00,68.00,49.00,50.59,260.00,7.00,0.00,30.09,1013.50,10.00,M,FEW,M,M,M,10000.00,M,M,M,M,M,M,M,M,M,M,68.00,KRNO 240755Z 26007KT 10SM FEW100 20/09 A3009 RMK AO2 SLP135 T02000094 402940133,M
LSV,2023-08-24 07:55,-115.0343,36.2362,570.00,84.70,57.00,38.94,40.00,8.00,0.00,29.89,1009.40,10.00,M,CLR,M,M,M,M,M,M,M,M,M,M,M,M,M,M,83.83,KLSV 240755Z AUTO 04008KT 10SM CLR 29/14 A2989 RMK AO2 SLP094 T02930139 403970239 $,M
RTS,2023-08-24 07:55,-119.8764,39.6682,1539.00,60.80,48.20,63.15,350.00,6.00,0.00,30.14,M,10.00,M,FEW,M,M,M,10000.00,M,M,M,M,M,M,M,M,M,M,60.80,KRTS 240755Z AUTO 35006KT 10SM FEW100 16/09 A3014 RMK AO2,M
05U,2023-08-24 07:55,-116.0051,39.6042,1811.23,59.00,50.00,72.01,M,M,0.00,30.20,M,10.00,M,M,M,M,M,M,M,M,M,M,M,M,M,M,M,M,59.00,K05U 240755Z AUTO 10SM 15/10 A3020 RMK A01,M
MEV,2023-08-24 07:55,-119.7500,38.9963,1441.42,57.20,53.60,87.74,0.00,0.00,0.00,30.11,M,10.00,M,FEW,M,M,M,5000.00,M,M,M,M,M,M,M,M,M,M,57.20,KMEV 240755Z AUTO 00000KT 10SM FEW050 14/12 A3011 RMK AO2,M
HTH,2023-08-24 07:55,-118.6315,38.5448,1282.89,68.00,48.20,49.10,0.00,0.00,0.00,30.07,M,10.00,M,CLR,M,M,M,M,M,M,M,M,M,M,M,M,M,M,68.00,KHTH 240755Z AUTO 00000KT 10SM CLR 20/09 A3007 RMK A01,M
BAM,2023-08-24 07:55,-116.8743,40.5990,1382.36,59.00,42.80,54.86,160.00,3.00,0.00,30.11,M,10.00,M,CLR,M,M,M,M,M,M,M,M,M,M,M,M,M,M,59.00,KBAM 240755Z AUTO 16003KT 10SM CLR 15/06 A3011 RMK AO1,M
TMT,2023-08-24 07:55,-117.1971,39.4643,1749.34,50.50,46.60,86.42,0.00,0.00,0.00,30.19,M,M,M,M,M,M,M,M,M,M,M,M,M,M,M,M,M,M,50.50,KTMT 240755Z AUTO 00000KT 10/08 A3019 RMK AO2 T01030081 402620033 PWINO,M
10U,2023-08-24 07:55,-116.1876,41.9532,1637.00,60.80,46.40,59.01,0.00,0.00,0.00,30.17,M,10.00,M,CLR,M,M,M,M,M,M,M,M,M,M,M,M,M,M,60.80,K10U 240755Z AUTO 00000KT 10SM CLR 16/08 A3017 RMK AO2,M
EKO,2023-08-24 07:56,-115.7860,40.8242,1367.00,59.00,47.00,64.36,0.00,0.00,0.00,30.13,1015.00,10.00,M,CLR,M,M,M,M,M,M,M,M,M,M,M,M,M,M,59.00,KEKO 240756Z AUTO 00000KT 10SM CLR 15/08 A3013 RMK AO2 SLP150 T01500083 402890106,M
WMC,2023-08-24 07:56,-117.8072,40.9019,1315.00,57.00,50.00,77.38,140.00,6.00,0.00,30.08,1014.30,10.00,M,CLR,M,M,M,M,M,M,M,M,M,M,M,M,M,M,57.00,KWMC 240756Z AUTO 14006KT 10SM CLR 14/10 A3008 RMK AO2 SLP143 T01390100 403000094,M
NFL,2023-08-24 07:56,-118.7010,39.4166,1199.00,64.00,58.00,80.83,0.00,0.00,0.00,30.04,1014.00,10.00,M,CLR,M,M,M,M,M,M,M,M,M,M,M,M,M,M,64.00,KNFL 240756Z AUTO 00000KT 10SM CLR 18/14 A3004 RMK AO2 SLP140 T01780144 402940133,M
LAS,2023-08-24 07:56,-115.1634,36.0719,663.00,83.00,64.00,52.76,360.00,5.00,0.00,29.94,1011.00,10.00,M,FEW,M,M,M,10000.00,M,M,M,M,M,M,M,M,M,M,84.41,KLAS 240756Z 36005KT 10SM FEW100 28/18 A2994 RMK AO2 SLP110 T02830178 403670250,M
05U,2023-08-24 08:10,-116.0051,39.6042,1811.23,60.80,48.20,63.15,M,M,0.00,30.20,M,10.00,M,M,M,M,M,M,M,M,M,M,M,M,M,M,M,M,60.80,K05U 240810Z AUTO 10SM 16/09 A3020 RMK A01,M
BVU,2023-08-24 08:15,-114.8611,35.9475,671.00,84.20,57.20,39.86,60.00,4.00,0.00,29.92,M,10.00,M,CLR,M,M,M,M,M,M,M,M,M,M,M,M,M,M,83.47,KBVU 240815Z AUTO 06004KT 10SM CLR 29/14 A2992 RMK AO2,M
CXP,2023-08-24 08:15,-119.7326,39.1923,1431.00,62.60,53.60,72.38,0.00,0.00,0.00,30.12,M,10.00,M,CLR,M,M,M,M,M,M,M,M,M,M,M,M,M,M,62.60,KCXP 240815Z AUTO 00000KT 10SM CLR 17/12 A3012 RMK AO2,M
RTS,2023-08-24 08:15,-119.8764,39.6682,1539.00,59.00,48.20,67.33,340.00,6.00,0.00,30.13,M,10.00,M,CLR,M,M,M,M,M,M,M,M,M,M,M,M,M,M,59.00,KRTS 240815Z AUTO 34006KT 10SM CLR 15/09 A3013 RMK AO2,M
MEV,2023-08-24 08:15,-119.7500,38.9963,1441.42,55.40,51.80,87.65,90.00,4.00,0.00,30.11,M,10.00,M,CLR,M,M,M,M,M,M,M,M,M,M,M,M,M,M,55.40,KMEV 240815Z AUTO 09004KT 10SM CLR 13/11 A3011 RMK AO2,M
BAM,2023-08-24 08:15,-116.8743,40.5990,1382.36,60.80,42.80,51.45,0.00,0.00,0.00,30.10,M,10.00,M,SCT,M,M,M,11000.00,M,M,M,M,M,M,M,M,M,M,60.80,KBAM 240815Z AUTO 00000KT 10SM SCT110 16/06 A3010 RMK AO1,M
HTH,2023-08-24 08:15,-118.6315,38.5448,1282.89,66.20,50.00,55.88,210.00,3.00,0.00,30.07,M,10.00,M,CLR,M,M,M,M,M,M,M,M,M,M,M,M,M,M,66.20,KHTH 240815Z AUTO 21003KT 10SM CLR 19/10 A3007 RMK A01,M
10U,2023-08-24 08:15,-116.1876,41.9532,1637.00,55.40,44.60,66.91,0.00,0.00,0.00,30.17,M,10.00,M,CLR,M,M,M,M,M,M,M,M,M,M,M,M,M,M,55.40,K10U 240815Z AUTO 00000KT 10SM CLR 13/07 A3017 RMK AO2,M
TMT,2023-08-24 08:15,-117.1971,39.4643,1749.34,51.30,47.70,87.44,220.00,6.00,0.00,30.19,M,M,M,BKN,M,M,M,10000.00,M,M,M,M,M,M,M,M,M,M,51.30,KTMT 240815Z AUTO 22006KT BKN100 11/09 A3019 RMK AO2 T01070087 PWINO,M
BVU,2023-08-24 08:35,-114.8611,35.9475,671.00,84.20,59.00,42.52,40.00,5.00,0.00,29.92,M,10.00,M,CLR,M,M,M,M,M,M,M,M,M,M,M,M,M,M,83.92,KBVU 240835Z AUTO 04005KT 10SM CLR 29/15 A2992 RMK AO2,M
CXP,2023-08-24 08:35,-119.7326,39.1923,1431.00,62.60,53.60,72.38,0.00,0.00,0.00,30.12,M,10.00,M,CLR,M,M,M,M,M,M,M,M,M,M,M,M,M,M,62.60,KCXP 240835Z AUTO 00000KT 10SM CLR 17/12 A3012 RMK AO2,M
RTS,2023-08-24 08:35,-119.8764,39.6682,1539.00,59.00,48.20,67.33,350.00,6.00,0.00,30.13,M,10.00,M,CLR,M,M,M,M,M,M,M,M,M,M,M,M,M,M,59.00,KRTS 240835Z AUTO 35006KT 10SM CLR 15/09 A3013 RMK AO2,M
05U,2023-08-24 08:35,-116.0051,39.6042,1811.23,59.00,48.20,67.33,M,M,0.00,30.20,M,10.00,M,M,M,M,M,M,M,M,M,M,M,M,M,M,M,M,59.00,K05U 240835Z AUTO 10SM 15/09 A3020 RMK A01,M
MEV,2023-08-24 08:35,-119.7500,38.9963,1441.42,55.40,51.80,87.65,110.00,5.00,0.00,30.11,M,10.00,M,CLR,M,M,M,M,M,M,M,M,M,M,M,M,M,M,55.40,KMEV 240835Z AUTO 11005KT 10SM CLR 13/11 A3011 RMK AO2,M
BAM,2023-08-24 08:35,-116.8743,40.5990,1382.36,57.20,41.00,54.60,0.00,0.00,0.00,30.10,M,10.00,M,BKN,M,M,M,12000.00,M,M,M,M,M,M,M,M,M,M,57.20,KBAM 240835Z AUTO 00000KT 10SM BKN120 14/05 A3010 RMK AO1,M
HTH,2023-08-24 08:35,-118.6315,38.5448,1282.89,64.40,50.00,59.50,150.00,5.00,0.00,30.07,M,10.00,M,CLR,M,M,M,M,M,M,M,M,M,M,M,M,M,M,64.40,KHTH 240835Z AUTO 15005KT 10SM CLR 18/10 A3007 RMK A01,M
10U,2023-08-24 08:35,-116.1876,41.9532,1637.00,57.20,44.60,62.69,0.00,0.00,0.00,30.17,M,10.00,M,CLR,M,M,M,M,M,M,M,M,M,M,M,M,M,M,57.20,K10U 240835Z AUTO 00000KT 10SM CLR 14/07 A3017 RMK AO2,M
TMT,2023-08-24 08:35,-117.1971,39.4643,1749.34,49.50,46.60,89.69,200.00,3.00,0.00,30.19,M,M,M,M,M,M,M,M,M,M,M,M,M,M,M,M,M,M,48.69,KTMT 240835Z AUTO 20003KT 10/08 A3019 RMK AO2 T00970081 PWINO,M
P68,2023-08-24 08:53,-116.0056,39.6014,1993.00,58.00,47.00,66.71,200.00,4.00,0.00,30.18,1013.60,M,M,M,M,M,M,M,M,M,M,M,M,M,M,M,M,M,58.00,KP68 240853Z AUTO 20004KT 14/08 A3018 RMK AO1 SLP136 T01440083 55002,M
DRA,2023-08-24 08:53,-116.0278,36.6206,1009.00,73.00,57.00,57.23,0.00,0.00,0.00,29.99,1010.70,10.00,M,CLR,M,M,M,M,M,M,M,M,M,M,M,M,M,M,73.00,KDRA 240853Z AUTO 00000KT 10SM CLR 23/14 A2999 RMK AO2 SLP107 T02280139 50001,M
ELY,2023-08-24 08:53,-114.8453,39.2950,1909.00,57.00,49.00,74.55,170.00,10.00,0.00,30.22,1013.60,10.00,M,CLR,M,M,M,M,M,M,M,M,M,M,M,M,M,M,57.00,KELY 240853Z AUTO 17010KT 10SM CLR 14/09 A3022 RMK AO2 SLP136 T01390094 50000,M
VGT,2023-08-24 08:53,-115.1933,36.2111,667.00,84.00,60.00,44.35,0.00,0.00,0.00,29.93,1012.20,10.00,M,CLR,M,M,M,M,M,M,M,M,M,M,M,M,M,M,84.02,KVGT 240853Z AUTO 00000KT 10SM CLR 29/16 A2993 RMK AO2 SLP122 T02890156 50002,M
LOL,2023-08-24 08:53,-118.5701,40.0684,1192.43,56.00,51.00,83.26,40.00,3.00,0.00,30.04,1014.10,10.00,M,CLR,M,M,M,M,M,M,M,M,M,M,M,M,M,M,56.00,KLOL 240853Z AUTO 04003KT 10SM CLR 13/11 A3004 RMK AO2 SLP141 T01330106 58001,M
BVU,2023-08-24 08:55,-114.8611,35.9475,671.00,82.40,60.80,48.05,50.00,6.00,0.00,29.92,M,10.00,M,CLR,M,M,M,M,M,M,M,M,M,M,M,M,M,M,82.90,KBVU 240855Z AUTO 05006KT 10SM CLR 28/16 A2992 RMK AO2,M
CXP,2023-08-24 08:55,-119.7326,39.1923,1431.00,60.80,53.60,77.14,0.00,0.00,0.00,30.12,M,10.00,M,CLR,M,M,M,M,M,M,M,M,M,M,M,M,M,M,60.80,KCXP 240855Z AUTO 00000KT 10SM CLR 16/12 A3012 RMK AO2,M
INS,2023-08-24 08:55,-115.6733,36.5872,955.00,79.30,56.00,44.76,70.00,8.00,0.00,29.98,1010.30,10.00,M,CLR,M,M,M,M,M,M,M,M,M,M,M,M,M,M,79.30,KINS 240855Z AUTO 07008KT 10SM CLR 26/13 A2998 RMK AO2 SLP103 T02630134 57002 $,M
RNO,2023-08-24 08:55,-119.7711,39.4839,1341.00,67.00,49.00,52.37,250.00,3.00,0.00,30.09,1013.40,10.00,M,FEW,M,M,M,10000.00,M,M,M,M,M,M,M,M,M,M,67.00,KRNO 240855Z 25003KT 10SM FEW100 19/09 A3009 RMK AO2 SLP134 T01940094 53001,M
LSV,2023-08-24 08:55,-115.0343,36.2362,570.00,82.40,59.00,45.07,60.00,6.00,0.00,29.89,1009.30,10.00,M,CLR,M,M,M,M,M,M,M,M,M,M,M,M,M,M,82.46,KLSV 240855Z AUTO 06006KT 10SM CLR 28/15 A2989 RMK AO2 SLP093 T02800149 50001 $,M
RTS,2023-08-24 08:55,-119.8764,39.6682,1539.00,59.00,48.20,67.33,350.00,5.00,0.00,30.13,M,10.00,M,CLR,M,M,M,M,M,M,M,M,M,M,M,M,M,M,59.00,KRTS 240855Z AUTO 35005KT 10SM CLR 15/09 A3013 RMK AO2,M
05U,2023-08-24 08:55,-116.0051,39.6042,1811.23,57.20,48.20,71.83,M,M,0.00,30.20,M,10.00,M,M,M,M,M,M,M,M,M,M,M,M,M,M,M,M,57.20,K05U 240855Z AUTO 10SM 14/09 A3020 RMK A01,M
MEV,2023-08-24 08:55,-119.7500,38.9963,1441.42,55.40,51.80,87.65,110.00,6.00,0.00,30.11,M,10.00,M,FEW,FEW,M,M,4100.00,4800.00,M,M,M,M,M,M,M,M,M,55.40,KMEV 240855Z AUTO 11006KT 10SM FEW041 FEW048 13/11 A3011 RMK AO2,M
BAM,2023-08-24 08:55,-116.8743,40.5990,1382.36,57.20,42.80,58.52,0.00,0.00,0.00,30.11,M,10.00,M,SCT,M,M,M,12000.00,M,M,M,M,M,M,M,M,M,M,57.20,KBAM 240855Z AUTO 00000KT 10SM SCT120 14/06 A3011 RMK AO1,M
HTH,2023-08-24 08:55,-118.6315,38.5448,1282.89,64.40,48.20,55.63,160.00,9.00,0.00,30.07,M,10.00,M,CLR,M,M,M,M,M,M,M,M,M,M,M,M,M,M,64.40,KHTH 240855Z AUTO 16009KT 10SM CLR 18/09 A3007 RMK A01,M
TMT,2023-08-24 08:55,-117.1971,39.4643,1749.34,49.00,46.20,90.01,0.00,0.00,0.00,30.19,M,M,M,M,M,M,M,M,M,M,M,M,M,M,M,M,M,M,49.00,KTMT 240855Z AUTO 00000KT 10/08 A3019 RMK AO2 T00950079 PWINO,M
10U,2023-08-24 08:55,-116.1876,41.9532,1637.00,55.40,44.60,66.91,0.00,0.00,0.00,30.17,M,10.00,M,CLR,M,M,M,M,M,M,M,M,M,M,M,M,M,M,55.40,K10U 240855Z AUTO 00000KT 10SM CLR 13/07 A3017 RMK AO2,M
EKO,2023-08-24 08:56,-115.7860,40.8242,1367.00,54.00,47.00,77.12,0.00,0.00,0.00,30.13,1015.40,10.00,M,BKN,M,M,M,11000.00,M,M,M,M,M,M,M,M,M,M,54.00,KEKO 240856Z AUTO 00000KT 10SM BKN110 12/08 A3013 RMK AO2 SLP154 T01220083 52001,M
WMC,2023-08-24 08:56,-117.8072,40.9019,1315.00,56.00,49.00,77.29,0.00,0.00,0.00,30.08,1014.20,10.00,M,CLR,M,M,M,M,M,M,M,M,M,M,M,M,M,M,56.00,KWMC 240856Z AUTO 00000KT 10SM CLR 13/09 A3008 RMK AO2 SLP142 T01330094 51001,M
NFL,2023-08-24 08:56,-118.7010,39.4166,1199.00,61.00,57.00,86.67,0.00,0.00,0.00,30.04,1014.00,10.00,M,CLR,M,M,M,M,M,M,M,M,M,M,M,M,M,M,61.00,KNFL 240856Z AUTO 00000KT 10SM CLR 16/14 A3004 RMK AO2 SLP140 T01610139 51001,M
LAS,2023-08-24 08:56,-115.1634,36.0719,663.00,81.00,64.00,56.30,340.00,3.00,0.00,29.94,1010.90,10.00,M,FEW,M,M,M,10000.00,M,M,M,M,M,M,M,M,M,M,82.54,KLAS 240856Z 34003KT 10SM FEW100 27/18 A2994 RMK AO2 SLP109 T02720178 50002,M
05U,2023-08-24 09:10,-116.0051,39.6042,1811.23,57.20,48.20,71.83,M,M,0.00,30.21,M,10.00,M,M,M,M,M,M,M,M,M,M,M,M,M,M,M,M,57.20,K05U 240910Z AUTO 10SM 14/09 A3021 RMK A01,M
BVU,2023-08-24 09:15,-114.8611,35.9475,671.00,82.40,59.00,45.07,60.00,6.00,0.00,29.93,M,10.00,M,CLR,M,M,M,M,M,M,M,M,M,M,M,M,M,M,82.46,KBVU 240915Z AUTO 06006KT 10SM CLR 28/15 A2993 RMK AO2,M
CXP,2023-08-24 09:15,-119.7326,39.1923,1431.00,62.60,51.80,67.75,0.00,0.00,0.00,30.12,M,10.00,M,CLR,M,M,M,M,M,M,M,M,M,M,M,M,M,M,62.60,KCXP 240915Z AUTO 00000KT 10SM CLR 17/11 A3012 RMK AO2,M
RTS,2023-08-24 09:15,-119.8764,39.6682,1539.00,59.00,48.20,67.33,340.00,5.00,0.00,30.13,M,10.00,M,CLR,M,M,M,M,M,M,M,M,M,M,M,M,M,M,59.00,KRTS 240915Z AUTO 34005KT 10SM CLR 15/09 A3013 RMK AO2,M
MEV,2023-08-24 09:15,-119.7500,38.9963,1441.42,53.60,51.80,93.60,130.00,4.00,0.00,30.11,M,10.00,M,FEW,FEW,M,M,4100.00,4700.00,M,M,M,M,M,M,M,M,M,53.60,KMEV 240915Z AUTO 13004KT 10SM FEW041 FEW047 12/11 A3011 RMK AO2,M
HTH,2023-08-24 09:15,-118.6315,38.5448,1282.89,64.40,48.20,55.63,150.00,6.00,0.00,30.07,M,10.00,M,CLR,M,M,M,M,M,M,M,M,M,M,M,M,M,M,64.40,KHTH 240915Z AUTO 15006KT 10SM CLR 18/09 A3007 RMK A01,M
10U,2023-08-24 09:15,-116.1876,41.9532,1637.00,53.60,46.40,76.50,300.00,3.00,0.00,30.17,M,10.00,M,CLR,M,M,M,M,M,M,M,M,M,M,M,M,M,M,53.60,K10U 240915Z AUTO 30003KT 10SM CLR 12/08 A3017 RMK AO2,M
BAM,2023-08-24 09:15,-116.8743,40.5990,1382.36,53.60,41.00,62.23,220.00,3.00,0.00,30.11,M,10.00,M,CLR,M,M,M,M,M,M,M,M,M,M,M,M,M,M,53.60,KBAM 240915Z AUTO 22003KT 10SM CLR 12/05 A3011 RMK AO1,M
TMT,2023-08-24 09:15,-117.1971,39.4643,1749.34,50.00,46.20,86.72,0.00,0.00,0.00,30.19,M,M,M,M,M,M,M,M,M,M,M,M,M,M,M,M,M,M,50.00,KTMT 240915Z AUTO 00000KT 10/08 A3019 RMK AO2 T00990079 PWINO,M
05U,2023-08-24 09:30,-116.0051,39.6042,1811.23,55.40,48.20,76.66,M,M,0.00,30.21,M,10.00,M,M,M,M,M,M,M,M,M,M,M,M,M,M,M,M,55.40,K05U 240930Z AUTO 10SM 13/09 A3021 RMK A01,M
BVU,2023-08-24 09:35,-114.8611,35.9475,671.00,80.60,60.80,50.95,50.00,6.00,0.00,29.93,M,10.00,M,CLR,M,M,M,M,M,M,M,M,M,M,M,M,M,M,81.46,KBVU 240935Z AUTO 05006KT 10SM CLR 27/16 A2993 RMK AO2,M
CXP,2023-08-24 09:35,-119.7326,39.1923,1431.00,60.80,53.60,77.14,0.00,0.00,0.00,30.12,M,10.00,M,CLR,M,M,M,M,M,M,M,M,M,M,M,M,M,M,60.80,KCXP 240935Z AUTO 00000KT 10SM CLR 16/12 A3012 RMK AO2,M
RTS,2023-08-24 09:35,-119.8764,39.6682,1539.00,57.20,46.40,67.12,360.00,4.00,0.00,30.13,M,10.00,M,CLR,M,M,M,M,M,M,M,M,M,M,M,M,M,M,57.20,KRTS 240935Z AUTO 36004KT 10SM CLR 14/08 A3013 RMK AO2,M
MEV,2023-08-24 09:35,-119.7500,38.9963,1441.42,53.60,50.00,87.56,120.00,6.00,0.00,30.11,M,10.00,M,SCT,SCT,M,M,4300.00,4900.00,M,M,M,M,M,M,M,M,M,53.60,KMEV 240935Z AUTO 12006KT 10SM SCT043 SCT049 12/10 A3011 RMK AO2,M
HTH,2023-08-24 09:35,-118.6315,38.5448,1282.89,64.40,48.20,55.63,140.00,7.00,0.00,30.07,M,10.00,M,CLR,M,M,M,M,M,M,M,M,M,M,M,M,M,M,64.40,KHTH 240935Z AUTO 14007KT 10SM CLR 18/09 A3007 RMK A01,M
10U,2023-08-24 09:35,-116.1876,41.9532,1637.00,51.80,44.60,76.34,0.00,0.00,0.00,30.17,M,10.00,M,CLR,M,M,M,M,M,M,M,M,M,M,M,M,M,M,51.80,K10U 240935Z AUTO 00000KT 10SM CLR 11/07 A3017 RMK AO2,M
BAM,2023-08-24 09:35,-116.8743,40.5990,1382.36,51.80,39.20,61.99,210.00,3.00,0.00,30.11,M,10.00,M,CLR,M,M,M,M,M,M,M,M,M,M,M,M,M,M,51.80,KBAM 240935Z AUTO 21003KT 10SM CLR 11/04 A3011 RMK AO1,M
TMT,2023-08-24 09:35,-117.1971,39.4643,1749.34,48.20,45.00,88.62,130.00,3.00,0.00,30.20,M,M,M,M,M,M,M,M,M,M,M,M,M,M,M,M,M,M,47.21,KTMT 240935Z AUTO 13003KT 09/07 A3020 RMK AO2 T00900073 PWINO,M
05U,2023-08-24 09:50,-116.0051,39.6042,1811.23,53.60,50.00,87.56,M,M,0.00,30.21,M,10.00,M,M,M,M,M,M,M,M,M,M,M,M,M,M,M,M,53.60,K05U 240950Z AUTO 10SM 12/10 A3021 RMK A01,M
P68,2023-08-24 09:53,-116.0056,39.6014,1993.00,54.00,49.00,83.13,0.00,0.00,0.00,30.18,1014.40,M,M,M,M,M,M,M,M,M,M,M,M,M,M,M,M,M,54.00,KP68 240953Z AUTO 00000KT 12/09 A3018 RMK AO1 SLP144 T01220094,M
DRA,2023-08-24 09:53,-116.0278,36.6206,1009.00,73.00,59.00,61.50,360.00,3.00,0.00,29.99,1010.60,10.00,M,FEW,M,M,M,10000.00,M,M,M,M,M,M,M,M,M,M,73.00,KDRA 240953Z AUTO 36003KT 10SM FEW100 23/15 A2999 RMK AO2 SLP106 T02280150,M
ELY,2023-08-24 09:53,-114.8453,39.2950,1909.00,54.00,49.00,83.13,140.00,4.00,0.00,30.24,1014.00,10.00,M,FEW,BKN,M,M,8000.00,11000.00,M,M,M,M,M,M,M,M,M,54.00,KELY 240953Z AUTO 14004KT 10SM FEW080 BKN110 12/09 A3024 RMK AO2 SLP140 T01220094,M
VGT,2023-08-24 09:53,-115.1933,36.2111,667.00,81.00,67.00,62.49,0.00,0.00,0.00,29.94,1012.50,10.00,M,CLR,M,M,M,M,M,M,M,M,M,M,M,M,M,M,83.43,KVGT 240953Z AUTO 00000KT 10SM CLR 27/19 A2994 RMK AO2 SLP125 T02720194,M
LOL,2023-08-24 09:53,-118.5701,40.0684,1192.43,54.00,51.00,89.55,180.00,4.00,0.00,30.04,1014.00,10.00,M,CLR,M,M,M,M,M,M,M,M,M,M,M,M,M,M,54.00,KLOL 240953Z AUTO 18004KT 10SM CLR 12/11 A3004 RMK AO2 SLP140 T01220106,M
BVU,2023-08-24 09:55,-114.8611,35.9475,671.00,80.60,59.00,47.79,90.00,5.00,0.00,29.93,M,10.00,M,CLR,M,M,M,M,M,M,M,M,M,M,M,M,M,M,81.11,KBVU 240955Z AUTO 09005KT 10SM CLR 27/15 A2993 RMK AO2,M
CXP,2023-08-24 09:55,-119.7326,39.1923,1431.00,59.00,51.80,76.98,0.00,0.00,0.00,30.12,M,10.00,M,CLR,M,M,M,M,M,M,M,M,M,M,M,M,M,M,59.00,KCXP 240955Z AUTO 00000KT 10SM CLR 15/11 A3012 RMK AO2,M
INS,2023-08-24 09:55,-115.6733,36.5872,955.00,77.70,57.00,48.92,140.00,3.00,0.00,29.99,1010.60,10.00,M,CLR,M,M,M,M,M,M,M,M,M,M,M,M,M,M,77.70,KINS 240955Z AUTO 14003KT 10SM CLR 25/14 A2999 RMK AO2 SLP106 T02540139 $,M
RNO,2023-08-24 09:55,-119.7711,39.4839,1341.00,63.00,50.00,62.49,0.00,0.00,0.00,30.09,1013.60,10.00,M,CLR,M,M,M,M,M,M,M,M,M,M,M,M,M,M,63.00,KRNO 240955Z 00000KT 10SM CLR 17/10 A3009 RMK AO2 SLP136 T01720100,M
LSV,2023-08-24 09:55,-115.0343,36.2362,570.00,81.50,58.00,44.77,60.00,5.00,0.00,29.90,1009.80,10.00,M,CLR,M,M,M,M,M,M,M,M,M,M,M,M,M,M,81.58,KLSV 240955Z AUTO 06005KT 10SM CLR 28/15 A2990 RMK AO2 SLP098 T02750145 $,M
RTS,2023-08-24 09:55,-119.8764,39.6682,1539.00,53.60,46.40,76.50,330.00,5.00,0.00,30.13,M,10.00,M,CLR,M,M,M,M,M,M,M,M,M,M,M,M,M,M,53.60,KRTS 240955Z AUTO 33005KT 10SM CLR 12/08 A3013 RMK AO2,M
MEV,2023-08-24 09:55,-119.7500,38.9963,1441.42,53.60,51.80,93.60,0.00,0.00,0.00,30.11,M,10.00,M,FEW,FEW,M,M,4600.00,5500.00,M,M,M,M,M,M,M,M,M,53.60,KMEV 240955Z AUTO 00000KT 10SM FEW046 FEW055 12/11 A3011 RMK AO2,M
HTH,2023-08-24 09:55,-118.6315,38.5448,1282.89,62.60,48.20,59.26,150.00,6.00,0.00,30.07,M,10.00,M,CLR,M,M,M,M,M,M,M,M,M,M,M,M,M,M,62.60,KHTH 240955Z AUTO 15006KT 10SM CLR 17/09 A3007 RMK A01,M
BAM,2023-08-24 09:55,-116.8743,40.5990,1382.36,51.80,41.00,66.48,220.00,3.00,0.00,30.11,M,10.00,M,CLR,M,M,M,M,M,M,M,M,M,M,M,M,M,M,51.80,KBAM 240955Z AUTO 22003KT 10SM CLR 11/05 A3011 RMK AO1,M
TMT,2023-08-24 09:55,-117.1971,39.4643,1749.34,48.20,45.30,89.63,0.00,0.00,0.00,30.20,M,M,M,M,M,M,M,M,M,M,M,M,M,M,M,M,M,M,48.20,KTMT 240955Z AUTO 00000KT 09/07 A3020 RMK AO2 T00900074 PWINO,M
10U,2023-08-24 09:55,-116.1876,41.9532,1637.00,48.20,42.80,81.47,0.00,0.00,0.00,30.17,M,10.00,M,CLR,M,M,M,M,M,M,M,M,M,M,M,M,M,M,48.20,K10U 240955Z AUTO 00000KT 10SM CLR 09/06 A3017 RMK AO2,M
EKO,2023-08-24 09:56,-115.7860,40.8242,1367.00,53.00,47.00,80.00,0.00,0.00,0.00,30.14,1015.50,10.00,M,CLR,M,M,M,M,M,M,M,M,M,M,M,M,M,M,53.00,KEKO 240956Z AUTO 00000KT 10SM CLR 12/08 A3014 RMK AO2 SLP155 T01170083,M
WMC,2023-08-24 09:56,-117.8072,40.9019,1315.00,53.00,48.00,83.06,110.00,5.00,0.00,30.08,1014.40,10.00,M,CLR,M,M,M,M,M,M,M,M,M,M,M,M,M,M,53.00,KWMC 240956Z AUTO 11005KT 10SM CLR 12/09 A3008 RMK AO2 SLP144 T01170089,M
NFL,2023-08-24 09:56,-118.7010,39.4166,1199.00,60.00,57.00,89.80,0.00,0.00,0.00,30.04,1014.10,10.00,M,CLR,M,M,M,M,M,M,M,M,M,M,M,M,M,M,60.00,KNFL 240956Z AUTO 00000KT 10SM CLR 16/14 A3004 RMK AO2 SLP141 T01560139,M
LAS,2023-08-24 09:56,-115.1634,36.0719,663.00,81.00,64.00,56.30,0.00,0.00,0.00,29.95,1011.10,10.00,M,FEW,M,M,M,10000.00,M,M,M,M,M,M,M,M,M,M,82.54,KLAS 240956Z 00000KT 10SM FEW100 27/18 A2995 RMK AO2 SLP111 T02720178,M
BVU,2023-08-24 10:15,-114.8611,35.9475,671.00,78.80,60.80,54.05,0.00,0.00,0.00,29.94,M,10.00,M,CLR,M,M,M,M,M,M,M,M,M,M,M,M,M,M,78.80,KBVU 241015Z AUTO 00000KT 10SM CLR 26/16 A2994 RMK AO2,M
CXP,2023-08-24 10:15,-119.7326,39.1923,1431.00,59.00,53.60,82.25,0.00,0.00,0.00,30.13,M,10.00,M,CLR,M,M,M,M,M,M,M,M,M,M,M,M,M,M,59.00,KCXP 241015Z AUTO 00000KT 10SM CLR 15/12 A3013 RMK AO2,M
RTS,2023-08-24 10:15,-119.8764,39.6682,1539.00,55.40,48.20,76.66,340.00,4.00,0.00,30.13,M,10.00,M,CLR,M,M,M,M,M,M,M,M,M,M,M,M,M,M,55.40,KRTS 241015Z AUTO 34004KT 10SM CLR 13/09 A3013 RMK AO2,M
05U,2023-08-24 10:15,-116.0051,39.6042,1811.23,55.40,50.00,81.99,M,M,0.00,30.21,M,10.00,M,M,M,M,M,M,M,M,M,M,M,M,M,M,M,M,55.40,K05U 241015Z AUTO 10SM 13/10 A3021 RMK A01,M
MEV,2023-08-24 10:15,-119.7500,38.9963,1441.42,53.60,51.80,93.60,0.00,0.00,0.00,30.11,M,10.00,M,FEW,M,M,M,4700.00,M,M,M,M,M,M,M,M,M,M,53.60,KMEV 241015Z AUTO 00000KT 10SM FEW047 12/11 A3011 RMK AO2,M
HTH,2023-08-24 10:15,-118.6315,38.5448,1282.89,62.60,48.20,59.26,170.00,5.00,0.00,30.07,M,10.00,M,CLR,M,M,M,M,M,M,M,M,M,M,M,M,M,M,62.60,KHTH 241015Z AUTO 17005KT 10SM CLR 17/09 A3007 RMK A01,M
10U,2023-08-24 10:15,-116.1876,41.9532,1637.00,53.60,44.60,71.45,70.00,4.00,0.00,30.17,M,10.00,M,CLR,M,M,M,M,M,M,M,M,M,M,M,M,M,M,53.60,K10U 241015Z AUTO 07004KT 10SM CLR 12/07 A3017 RMK AO2,M
BAM,2023-08-24 10:15,-116.8743,40.5990,1382.36,51.80,39.20,61.99,220.00,3.00,0.00,30.11,M,10.00,M,CLR,M,M,M,M,M,M,M,M,M,M,M,M,M,M,51.80,KBAM 241015Z AUTO 22003KT 10SM CLR 11/04 A3011 RMK AO1,M
TMT,2023-08-24 10:15,-117.1971,39.4643,1749.34,48.70,45.50,88.64,0.00,0.00,0.00,30.19,M,M,M,M,M,M,M,M,M,M,M,M,M,M,M,M,M,M,48.70,KTMT 241015Z AUTO 00000KT 09/08 A3019 RMK AO2 T00930075 PWINO,M
05U,2023-08-24 10:30,-116.0051,39.6042,1811.23,55.40,50.00,81.99,M,M,0.00,30.22,M,10.00,M,M,M,M,M,M,M,M,M,M,M,M,M,M,M,M,55.40,K05U 241030Z AUTO 10SM 13/10 A3022 RMK A01,M
BVU,2023-08-24 10:35,-114.8611,35.9475,671.00,78.80,62.60,57.60,50.00,4.00,0.00,29.94,M,10.00,M,CLR,M,M,M,M,M,M,M,M,M,M,M,M,M,M,78.80,KBVU 241035Z AUTO 05004KT 10SM CLR 26/17 A2994 RMK AO2,M
CXP,2023-08-24 10:35,-119.7326,39.1923,1431.00,59.00,53.60,82.25,0.00,0.00,0.00,30.12,M,10.00,M,CLR,M,M,M,M,M,M,M,M,M,M,M,M,M,M,59.00,KCXP 241035Z AUTO 00000KT 10SM CLR 15/12 A3012 RMK AO2,M
RTS,2023-08-24 10:35,-119.8764,39.6682,1539.00,53.60,46.40,76.50,340.00,5.00,0.00,30.13,M,10.00,M,CLR,M,M,M,M,M,M,M,M,M,M,M,M,M,M,53.60,KRTS 241035Z AUTO 34005KT 10SM CLR 12/08 A3013 RMK AO2,M
MEV,2023-08-24 10:35,-119.7500,38.9963,1441.42,51.80,50.00,93.55,0.00,0.00,0.00,30.11,M,10.00,M,FEW,M,M,M,4700.00,M,M,M,M,M,M,M,M,M,M,51.80,KMEV 241035Z AUTO 00000KT 10SM FEW047 11/10 A3011 RMK AO2,M
BAM,2023-08-24 10:35,-116.8743,40.5990,1382.36,51.80,39.20,61.99,200.00,4.00,0.00,30.11,M,10.00,M,CLR,M,M,M,M,M,M,M,M,M,M,M,M,M,M,51.80,KBAM 241035Z AUTO 20004KT 10SM CLR 11/04 A3011 RMK AO1,M
HTH,2023-08-24 10:35,-118.6315,38.5448,1282.89,62.60,50.00,63.38,170.00,3.00,0.00,30.07,M,10.00,M,CLR,M,M,M,M,M,M,M,M,M,M,M,M,M,M,62.60,KHTH 241035Z AUTO 17003KT 10SM CLR 17/10 A3007 RMK A01,M
10U,2023-08-24 10:35,-116.1876,41.9532,1637.00,53.60,44.60,71.45,90.00,4.00,0.00,30.17,M,10.00,M,CLR,M,M,M,M,M,M,M,M,M,M,M,M,M,M,53.60,K10U 241035Z AUTO 09004KT 10SM CLR 12/07 A3017 RMK AO2,M
TMT,2023-08-24 10:35,-117.1971,39.4643,1749.34,45.30,43.00,91.60,0.00,0.00,0.00,30.20,M,M,M,M,M,M,M,M,M,M,M,M,M,M,M,M,M,M,45.30,KTMT 241035Z AUTO 00000KT 07/06 A3020 RMK AO2 T00740062 PWINO,M
P68,2023-08-24 10:53,-116.0056,39.6014,1993.00,56.00,50.00,80.23,0.00,0.00,0.00,30.18,1013.60,M,M,M,M,M,M,M,M,M,M,M,M,M,M,M,M,M,56.00,KP68 241053Z AUTO 00000KT 13/10 A3018 RMK AO1 SLP136 T01330100,M
DRA,2023-08-24 10:53,-116.0278,36.6206,1009.00,70.00,61.00,73.11,0.00,0.00,0.00,30.00,1010.80,10.00,M,CLR,M,M,M,M,M,M,M,M,M,M,M,M,M,M,70.00,KDRA 241053Z AUTO 00000KT 10SM CLR 21/16 A3000 RMK AO2 SLP108 T02110161,M
ELY,2023-08-24 10:53,-114.8453,39.2950,1909.00,54.00,50.00,86.29,180.00,9.00,0.00,30.23,1014.30,10.00,M,FEW,M,M,M,10000.00,M,M,M,M,M,M,M,M,M,M,54.00,KELY 241053Z AUTO 18009KT 10SM FEW100 12/10 A3023 RMK AO2 SLP143 T01220100,M
VGT,2023-08-24 10:53,-115.1933,36.2111,667.00,82.00,62.00,50.80,0.00,0.00,0.00,29.94,1012.50,10.00,M,CLR,M,M,M,M,M,M,M,M,M,M,M,M,M,M,82.89,KVGT 241053Z AUTO 00000KT 10SM CLR 28/17 A2994 RMK AO2 SLP125 T02780167,M
LOL,2023-08-24 10:53,-118.5701,40.0684,1192.43,53.00,49.00,86.23,190.00,3.00,0.00,30.03,1014.00,10.00,M,CLR,M,M,M,M,M,M,M,M,M,M,M,M,M,M,53.00,KLOL 241053Z AUTO 19003KT 10SM CLR 12/09 A3003 RMK AO2 SLP140 T01170094,M
BVU,2023-08-24 10:55,-114.8611,35.9475,671.00,78.80,60.80,54.05,50.00,6.00,0.00,29.93,M,10.00,M,CLR,M,M,M,M,M,M,M,M,M,M,M,M,M,M,78.80,KBVU 241055Z AUTO 05006KT 10SM CLR 26/16 A2993 RMK AO2,M
CXP,2023-08-24 10:55,-119.7326,39.1923,1431.00,57.20,51.80,82.12,340.00,4.00,0.00,30.12,M,10.00,M,CLR,M,M,M,M,M,M,M,M,M,M,M,M,M,M,57.20,KCXP 241055Z AUTO 34004KT 10SM CLR 14/11 A3012 RMK AO2,M
INS,2023-08-24 10:55,-115.6733,36.5872,955.00,74.00,59.00,59.46,220.00,3.00,0.00,29.99,1010.60,10.00,M,CLR,M,M,M,M,M,M,M,M,M,M,M,M,M,M,74.00,KINS 241055Z AUTO 22003KT 10SM CLR 23/15 A2999 RMK AO2 SLP106 T02340149 $,M
RNO,2023-08-24 10:55,-119.7711,39.4839,1341.00,64.00,49.00,58.13,260.00,3.00,0.00,30.09,1013.50,10.00,M,CLR,M,M,M,M,M,M,M,M,M,M,M,M,M,M,64.00,KRNO 241055Z 26003KT 10SM CLR 18/09 A3009 RMK AO2 SLP135 T01780094,M
LSV,2023-08-24 10:55,-115.0343,36.2362,570.00,82.00,58.00,44.05,50.00,7.00,0.00,29.90,1009.70,10.00,M,CLR,M,M,M,M,M,M,M,M,M,M,M,M,M,M,81.94,KLSV 241055Z AUTO 05007KT 10SM CLR 28/14 A2990 RMK AO2 SLP097 T02780144 $,M
RTS,2023-08-24 10:55,-119.8764,39.6682,1539.00,55.40,46.40,71.64,350.00,7.00,0.00,30.13,M,10.00,M,CLR,M,M,M,M,M,M,M,M,M,M,M,M,M,M,55.40,KRTS 241055Z AUTO 35007KT 10SM CLR 13/08 A3013 RMK AO2,M
05U,2023-08-24 10:55,-116.0051,39.6042,1811.23,57.20,50.00,76.82,M,M,0.00,30.20,M,10.00,M,M,M,M,M,M,M,M,M,M,M,M,M,M,M,M,57.20,K05U 241055Z AUTO 10SM 14/10 A3020 RMK A01,M
MEV,2023-08-24 10:55,-119.7500,38.9963,1441.42,51.80,50.00,93.55,110.00,4.00,0.00,30.11,M,10.00,M,FEW,FEW,M,M,4600.00,5000.00,M,M,M,M,M,M,M,M,M,51.80,KMEV 241055Z AUTO 11004KT 10SM FEW046 FEW050 11/10 A3011 RMK AO2,M
BAM,2023-08-24 10:55,-116.8743,40.5990,1382.36,50.00,37.40,61.76,0.00,0.00,0.00,30.11,M,10.00,M,CLR,M,M,M,M,M,M,M,M,M,M,M,M,M,M,50.00,KBAM 241055Z AUTO 00000KT 10SM CLR 10/03 A3011 RMK AO1,M
HTH,2023-08-24 10:55,-118.6315,38.5448,1282.89,60.80,48.20,63.15,110.00,5.00,0.00,30.07,M,10.00,M,CLR,M,M,M,M,M,M,M,M,M,M,M,M,M,M,60.80,KHTH 241055Z AUTO 11005KT 10SM CLR 16/09 A3007 RMK A01,M
TMT,2023-08-24 10:55,-117.1971,39.4643,1749.34,44.40,42.80,94.06,0.00,0.00,0.00,30.19,M,M,M,M,M,M,M,M,M,M,M,M,M,M,M,M,M,M,44.40,KTMT 241055Z AUTO 00000KT 07/06 A3019 RMK AO2 T00690060 PWINO,M
10U,2023-08-24 10:55,-116.1876,41.9532,1637.00,53.60,44.60,71.45,110.00,7.00,0.00,30.16,M,10.00,M,CLR,M,M,M,M,M,M,M,M,M,M,M,M,M,M,53.60,K10U 241055Z AUTO 11007KT 10SM CLR 12/07 A3016 RMK AO2,M
EKO,2023-08-24 10:56,-115.7860,40.8242,1367.00,51.00,47.00,86.12,0.00,0.00,0.00,30.14,1015.90,10.00,M,CLR,M,M,M,M,M,M,M,M,M,M,M,M,M,M,51.00,KEKO 241056Z AUTO 00000KT 10SM CLR 11/08 A3014 RMK AO2 SLP159 T01060083,M
WMC,2023-08-24 10:56,-117.8072,40.9019,1315.00,52.00,47.00,82.99,0.00,0.00,0.00,30.08,1014.60,10.00,M,CLR,M,M,M,M,M,M,M,M,M,M,M,M,M,M,52.00,KWMC 241056Z AUTO 00000KT 10SM CLR 11/08 A3008 RMK AO2 SLP146 T01110083,M
NFL,2023-08-24 10:56,-118.7010,39.4166,1199.00,61.00,57.00,86.67,0.00,0.00,0.00,30.04,1014.10,10.00,M,CLR,M,M,M,M,M,M,M,M,M,M,M,M,M,M,61.00,KNFL 241056Z AUTO 00000KT 10SM CLR 16/14 A3004 RMK AO2 SLP141 T01610139,M
LAS,2023-08-24 10:56,-115.1634,36.0719,663.00,80.00,64.00,58.17,280.00,3.00,0.00,29.95,1011.20,10.00,M,CLR,M,M,M,M,M,M,M,M,M,M,M,M,M,M,81.62,KLAS 241056Z 28003KT 10SM CLR 27/18 A2995 RMK AO2 SLP112 T02670178,M
05U,2023-08-24 11:10,-116.0051,39.6042,1811.23,57.20,51.80,82.12,M,M,0.00,30.21,M,10.00,M,M,M,M,M,M,M,M,M,M,M,M,M,M,M,M,57.20,K05U 241110Z AUTO 10SM 14/11 A3021 RMK A01,M
BVU,2023-08-24 11:15,-114.8611,35.9475,671.00,80.60,60.80,50.95,60.00,4.00,0.00,29.93,M,10.00,M,CLR,M,M,M,M,M,M,M,M,M,M,M,M,M,M,81.46,KBVU 241115Z AUTO 06004KT 10SM CLR 27/16 A2993 RMK AO2,M
CXP,2023-08-24 11:15,-119.7326,39.1923,1431.00,59.00,51.80,76.98,0.00,0.00,0.00,30.12,M,10.00,M,CLR,M,M,M,M,M,M,M,M,M,M,M,M,M,M,59.00,KCXP 241115Z AUTO 00000KT 10SM CLR 15/11 A3012 RMK AO2,M
RTS,2023-08-24 11:15,-119.8764,39.6682,1539.00,53.60,46.40,76.50,340.00,6.00,0.00,30.13,M,10.00,M,CLR,M,M,M,M,M,M,M,M,M,M,M,M,M,M,53.60,KRTS 241115Z AUTO 34006KT 10SM CLR 12/08 A3013 RMK AO2,M
MEV,2023-08-24 11:15,-119.7500,38.9963,1441.42,51.80,50.00,93.55,140.00,3.00,0.00,30.11,M,10.00,M,FEW,FEW,FEW,M,4400.00,5000.00,10000.00,M,M,M,M,M,M,M,M,51.80,KMEV 241115Z AUTO 14003KT 10SM FEW044 FEW050 FEW100 11/10 A3011 RMK AO2,M
BAM,2023-08-24 11:15,-116.8743,40.5990,1382.36,50.00,41.00,71.07,140.00,3.00,0.00,30.11,M,10.00,M,SCT,M,M,M,12000.00,M,M,M,M,M,M,M,M,M,M,50.00,KBAM 241115Z AUTO 14003KT 10SM SCT120 10/05 A3011 RMK AO1,M
HTH,2023-08-24 11:15,-118.6315,38.5448,1282.89,60.80,50.00,67.54,200.00,5.00,0.00,30.07,M,10.00,M,CLR,M,M,M,M,M,M,M,M,M,M,M,M,M,M,60.80,KHTH 241115Z AUTO 20005KT 10SM CLR 16/10 A3007 RMK A01,M
10U,2023-08-24 11:15,-116.1876,41.9532,1637.00,48.20,42.80,81.47,90.00,6.00,0.00,30.17,M,10.00,M,CLR,M,M,M,M,M,M,M,M,M,M,M,M,M,M,45.04,K10U 241115Z AUTO 09006KT 10SM CLR 09/06 A3017 RMK AO2,M
TMT,2023-08-24 11:15,-117.1971,39.4643,1749.34,43.00,42.00,96.23,0.00,0.00,0.00,30.19,M,M,M,M,M,M,M,M,M,M,M,M,M,M,M,M,M,M,43.00,KTMT 241115Z AUTO 00000KT 06/06 A3019 RMK AO2 T00620055 PWINO,M
BVU,2023-08-24 11:35,-114.8611,35.9475,671.00,78.80,60.80,54.05,40.00,5.00,0.00,29.94,M,10.00,M,CLR,M,M,M,M,M,M,M,M,M,M,M,M,M,M,78.80,KBVU 241135Z AUTO 04005KT 10SM CLR 26/16 A2994 RMK AO2,M
CXP,2023-08-24 11:35,-119.7326,39.1923,1431.00,59.00,51.80,76.98,0.00,0.00,0.00,30.12,M,10.00,M,CLR,M,M,M,M,M,M,M,M,M,M,M,M,M,M,59.00,KCXP 241135Z AUTO 00000KT 10SM CLR 15/11 A3012 RMK AO2,M
RTS,2023-08-24 11:35,-119.8764,39.6682,1539.00,55.40,46.40,71.64,360.00,4.00,0.00,30.13,M,10.00,M,CLR,M,M,M,M,M,M,M,M,M,M,M,M,M,M,55.40,KRTS 241135Z AUTO 36004KT 10SM CLR 13/08 A3013 RMK AO2,M
05U,2023-08-24 11:35,-116.0051,39.6042,1811.23,57.20,50.00,76.82,M,M,0.00,30.21,M,10.00,M,M,M,M,M,M,M,M,M,M,M,M,M,M,M,M,57.20,K05U 241135Z AUTO 10SM 14/10 A3021 RMK A01,M
MEV,2023-08-24 11:35,-119.7500,38.9963,1441.42,51.80,50.00,93.55,0.00,0.00,0.00,30.11,M,10.00,M,FEW,FEW,FEW,M,3900.00,4700.00,5500.00,M,M,M,M,M,M,M,M,51.80,KMEV 241135Z AUTO 00000KT 10SM FEW039 FEW047 FEW055 11/10 A3011 RMK AO2,M
HTH,2023-08-24 11:35,-118.6315,38.5448,1282.89,60.80,50.00,67.54,0.00,0.00,0.00,30.07,M,10.00,M,CLR,M,M,M,M,M,M,M,M,M,M,M,M,M,M,60.80,KHTH 241135Z AUTO 00000KT 10SM CLR 16/10 A3007 RMK A01,M
10U,2023-08-24 11:35,-116.1876,41.9532,1637.00,51.80,44.60,76.34,0.00,0.00,0.00,30.17,M,10.00,M,CLR,M,M,M,M,M,M,M,M,M,M,M,M,M,M,51.80,K10U 241135Z AUTO 00000KT 10SM CLR 11/07 A3017 RMK AO2,M
BAM,2023-08-24 11:35,-116.8743,40.5990,1382.36,50.00,41.00,71.07,140.00,3.00,0.00,30.12,M,10.00,M,SCT,M,M,M,12000.00,M,M,M,M,M,M,M,M,M,M,50.00,KBAM 241135Z AUTO 14003KT 10SM SCT120 10/05 A3012 RMK AO1,M
TMT,2023-08-24 11:35,-117.1971,39.4643,1749.34,43.00,42.00,96.23,0.00,0.00,0.00,30.20,M,M,M,M,M,M,M,M,M,M,M,M,M,M,M,M,M,M,43.00,KTMT 241135Z AUTO 00000KT 06/06 A3020 RMK AO2 T00620056 PWINO,M
P68,2023-08-24 11:53,-116.0056,39.6014,1993.00,55.00,49.00,80.15,200.00,7.00,0.00,30.19,1014.20,M,M,M,M,M,M,M,M,M,M,M,M,M,M,M,M,M,55.00,KP68 241153Z AUTO 20007KT 13/09 A3019 RMK AO1 SLP142 T01280094 10172 20122 52003,M
DRA,2023-08-24 11:53,-116.0278,36.6206,1009.00,72.00,60.00,65.92,0.00,0.00,0.00,30.00,1010.80,10.00,M,CLR,M,M,M,M,M,M,M,M,M,M,M,M,M,M,72.00,KDRA 241153Z AUTO 00000KT 10SM CLR 22/16 A3000 RMK AO2 SLP108 T02220156 10261 20211 53002,M
ELY,2023-08-24 11:53,-114.8453,39.2950,1909.00,53.00,49.00,86.23,150.00,8.00,0.00,30.23,1014.30,10.00,M,CLR,M,M,M,M,M,M,M,M,M,M,M,M,M,M,53.00,KELY 241153Z AUTO 15008KT 10SM CLR 12/09 A3023 RMK AO2 SLP143 T01170094 10150 20117 51002,M
VGT,2023-08-24 11:53,-115.1933,36.2111,667.00,80.00,62.00,54.22,0.00,0.00,0.00,29.95,1012.70,10.00,M,CLR,M,M,M,M,M,M,M,M,M,M,M,M,M,M,81.21,KVGT 241153Z AUTO 00000KT 10SM CLR 27/17 A2995 RMK AO2 SLP127 70005 T02670167 10311 20267 52004,M
LOL,2023-08-24 11:53,-118.5701,40.0684,1192.43,53.00,50.00,89.51,0.00,0.00,0.00,30.04,1013.90,10.00,M,CLR,M,M,M,M,M,M,M,M,M,M,M,M,M,M,53.00,KLOL 241153Z AUTO 00000KT 10SM CLR 12/10 A3004 RMK AO2 SLP139 T01170100 10172 20111 55001,M
BVU,2023-08-24 11:55,-114.8611,35.9475,671.00,78.80,60.80,54.05,50.00,4.00,0.00,29.94,M,10.00,M,CLR,M,M,M,M,M,M,M,M,M,M,M,M,M,M,78.80,KBVU 241155Z AUTO 05004KT 10SM CLR 26/16 A2994 RMK AO2,M
CXP,2023-08-24 11:55,-119.7326,39.1923,1431.00,55.40,51.80,87.65,0.00,0.00,0.00,30.12,M,10.00,M,CLR,M,M,M,M,M,M,M,M,M,M,M,M,M,M,55.40,KCXP 241155Z AUTO 00000KT 10SM CLR 13/11 A3012 RMK AO2,M
INS,2023-08-24 11:55,-115.6733,36.5872,955.00,74.00,57.70,56.75,0.00,0.00,0.00,30.00,1010.90,10.00,M,FEW,M,M,M,10000.00,M,M,M,M,M,M,M,M,M,M,74.00,KINS 241155Z AUTO 00000KT 10SM FEW100 23/14 A3000 RMK AO2 SLP109 T02330143 10284 20229 52006 $,M
RNO,2023-08-24 11:55,-119.7711,39.4839,1341.00,61.00,51.00,69.60,230.00,3.00,0.00,30.09,1013.80,10.00,M,CLR,M,M,M,M,M,M,M,M,M,M,M,M,M,M,61.00,KRNO 241155Z 23003KT 10SM CLR 16/11 A3009 RMK AO2 SLP138 T01610106 10222 20161 57000,M
LSV,2023-08-24 11:55,-115.0343,36.2362,570.00,81.30,58.00,45.06,30.00,7.00,0.00,29.91,1010.10,10.00,M,CLR,M,M,M,M,M,M,M,M,M,M,M,M,M,M,81.43,KLSV 241155Z AUTO 03007KT 10SM CLR 27/14 A2991 RMK AO2 SLP101 T02740144 10314 20274 52007 $,M
RTS,2023-08-24 11:55,-119.8764,39.6682,1539.00,55.40,46.40,71.64,0.00,0.00,0.00,30.13,M,10.00,M,CLR,M,M,M,M,M,M,M,M,M,M,M,M,M,M,55.40,KRTS 241155Z AUTO 00000KT 10SM CLR 13/08 A3013 RMK AO2,M
05U,2023-08-24 11:55,-116.0051,39.6042,1811.23,55.40,50.00,81.99,M,M,0.00,30.21,M,10.00,M,M,M,M,M,M,M,M,M,M,M,M,M,M,M,M,55.40,K05U 241155Z AUTO 10SM 13/10 A3021 RMK A01,M
MEV,2023-08-24 11:55,-119.7500,38.9963,1441.42,53.60,50.00,87.56,0.00,0.00,0.00,30.11,M,10.00,M,CLR,M,M,M,M,M,M,M,M,M,M,M,M,M,M,53.60,KMEV 241155Z AUTO 00000KT 10SM CLR 12/10 A3011 RMK AO2,M
BAM,2023-08-24 11:55,-116.8743,40.5990,1382.36,50.00,41.00,71.07,0.00,0.00,0.00,30.11,M,10.00,M,SCT,M,M,M,12000.00,M,M,M,M,M,M,M,M,M,M,50.00,KBAM 241155Z AUTO 00000KT 10SM SCT120 10/05 A3011 RMK AO1,M
HTH,2023-08-24 11:55,-118.6315,38.5448,1282.89,59.00,50.00,72.01,180.00,4.00,0.00,30.07,M,10.00,M,CLR,M,M,M,M,M,M,M,M,M,M,M,M,M,M,59.00,KHTH 241155Z AUTO 18004KT 10SM CLR 15/10 A3007 RMK A01,M
TMT,2023-08-24 11:55,-117.1971,39.4643,1749.34,44.00,42.00,92.61,0.00,0.00,0.00,30.19,M,M,M,M,M,M,M,M,M,M,M,M,M,M,M,M,M,M,44.00,KTMT 241155Z AUTO 00000KT 07/06 A3019 RMK AO2 T00660055 10133 20061 PWINO,M
10U,2023-08-24 11:55,-116.1876,41.9532,1637.00,51.80,44.60,76.34,0.00,0.00,0.00,30.16,M,10.00,M,CLR,M,M,M,M,M,M,M,M,M,M,M,M,M,M,51.80,K10U 241155Z AUTO 00000KT 10SM CLR 11/07 A3016 RMK AO2,M
EKO,2023-08-24 11:56,-115.7860,40.8242,1367.00,51.00,47.00,86.12,0.00,0.00,0.00,30.15,1016.20,10.00,M,CLR,M,M,M,M,M,M,M,M,M,M,M,M,M,M,51.00,KEKO 241156Z AUTO 00000KT 10SM CLR 11/08 A3015 RMK AO2 SLP162 T01060083 10172 20100 53005,M
WMC,2023-08-24 11:56,-117.8072,40.9019,1315.00,52.00,46.00,79.92,0.00,0.00,0.00,30.09,1014.60,10.00,M,CLR,M,M,M,M,M,M,M,M,M,M,M,M,M,M,52.00,KWMC 241156Z AUTO 00000KT 10SM CLR 11/08 A3009 RMK AO2 SLP146 T01110078 10167 20100 52002,M
NFL,2023-08-24 11:56,-118.7010,39.4166,1199.00,61.00,57.00,86.67,200.00,4.00,0.00,30.04,1014.00,10.00,M,CLR,M,M,M,M,M,M,M,M,M,M,M,M,M,M,61.00,KNFL 241156Z AUTO 20004KT 10SM CLR 16/14 A3004 RMK AO2 SLP140 T01610139 10194 20156 50000,M
LAS,2023-08-24 11:56,-115.1634,36.0719,663.00,81.00,60.00,48.88,0.00,0.00,0.00,29.95,1011.30,10.00,M,CLR,M,M,M,M,M,M,M,M,M,M,M,M,M,M,81.60,KLAS 241156Z 00000KT 10SM CLR 27/16 A2995 RMK AO2 SLP113 70017 T02720156 10294 20261 51004,M
05U,2023-08-24 12:10,-116.0051,39.6042,1811.23,53.60,48.20,81.87,M,M,0.00,30.21,M,10.00,M,M,M,M,M,M,M,M,M,M,M,M,M,M,M,M,53.60,K05U 241210Z AUTO 10SM 12/09 A3021 RMK A01,M
BVU,2023-08-24 12:15,-114.8611,35.9475,671.00,77.00,62.60,61.13,20.00,5.00,0.00,29.94,M,10.00,M,CLR,M,M,M,M,M,M,M,M,M,M,M,M,M,M,77.00,KBVU 241215Z AUTO 02005KT 10SM CLR 25/17 A2994 RMK AO2,M
CXP,2023-08-24 12:15,-119.7326,39.1923,1431.00,57.20,51.80,82.12,0.00,0.00,0.00,30.12,M,10.00,M,CLR,M,M,M,M,M,M,M,M,M,M,M,M,M,M,57.20,KCXP 241215Z AUTO 00000KT 10SM CLR 14/11 A3012 RMK AO2,M
RTS,2023-08-24 12:15,-119.8764,39.6682,1539.00,57.20,48.20,71.83,0.00,0.00,0.00,30.13,M,10.00,M,CLR,M,M,M,M,M,M,M,M,M,M,M,M,M,M,57.20,KRTS 241215Z AUTO 00000KT 10SM CLR 14/09 A3013 RMK AO2,M
MEV,2023-08-24 12:15,-119.7500,38.9963,1441.42,53.60,50.00,87.56,0.00,0.00,0.00,30.11,M,10.00,M,FEW,FEW,M,M,5000.00,6000.00,M,M,M,M,M,M,M,M,M,53.60,KMEV 241215Z AUTO 00000KT 10SM FEW050 FEW060 12/10 A3011 RMK AO2,M
BAM,2023-08-24 12:15,-116.8743,40.5990,1382.36,50.00,41.00,71.07,100.00,3.00,0.00,30.12,M,10.00,M,BKN,M,M,M,12000.00,M,M,M,M,M,M,M,M,M,M,50.00,KBAM 241215Z AUTO 10003KT 10SM BKN120 10/05 A3012 RMK AO1,M
HTH,2023-08-24 12:15,-118.6315,38.5448,1282.89,60.80,48.20,63.15,130.00,4.00,0.00,30.08,M,10.00,M,CLR,M,M,M,M,M,M,M,M,M,M,M,M,M,M,60.80,KHTH 241215Z AUTO 13004KT 10SM CLR 16/09 A3008 RMK A01,M
10U,2023-08-24 12:15,-116.1876,41.9532,1637.00,50.00,44.60,81.61,0.00,0.00,0.00,30.16,M,10.00,M,BKN,M,M,M,10000.00,M,M,M,M,M,M,M,M,M,M,50.00,K10U 241215Z AUTO 00000KT 10SM BKN100 10/07 A3016 RMK AO2,M
TMT,2023-08-24 12:15,-117.1971,39.4643,1749.34,46.40,43.70,90.24,0.00,0.00,0.00,30.19,M,M,M,M,M,M,M,M,M,M,M,M,M,M,M,M,M,M,46.40,KTMT 241215Z AUTO 00000KT 08/07 A3019 RMK AO2 T00800065 PWINO,M
BVU,2023-08-24 12:35,-114.8611,35.9475,671.00,77.00,62.60,61.13,20.00,5.00,0.00,29.95,M,10.00,M,SCT,M,M,M,11000.00,M,M,M,M,M,M,M,M,M,M,77.00,KBVU 241235Z AUTO 02005KT 10SM SCT110 25/17 A2995 RMK AO2,M
CXP,2023-08-24 12:35,-119.7326,39.1923,1431.00,57.20,51.80,82.12,0.00,0.00,0.00,30.13,M,10.00,M,CLR,M,M,M,M,M,M,M,M,M,M,M,M,M,M,57.20,KCXP 241235Z AUTO 00000KT 10SM CLR 14/11 A3013 RMK AO2,M
RTS,2023-08-24 12:35,-119.8764,39.6682,1539.00,51.80,46.40,81.74,0.00,0.00,0.00,30.13,M,10.00,M,CLR,M,M,M,M,M,M,M,M,M,M,M,M,M,M,51.80,KRTS 241235Z AUTO 00000KT 10SM CLR 11/08 A3013 RMK AO2,M
05U,2023-08-24 12:35,-116.0051,39.6042,1811.23,53.60,48.20,81.87,M,M,0.00,30.22,M,10.00,M,M,M,M,M,M,M,M,M,M,M,M,M,M,M,M,53.60,K05U 241235Z AUTO 10SM 12/09 A3022 RMK A01,M
MEV,2023-08-24 12:35,-119.7500,38.9963,1441.42,51.80,48.20,87.47,0.00,0.00,0.00,30.11,M,10.00,M,FEW,FEW,SCT,M,3700.00,5000.00,6000.00,M,M,M,M,M,M,M,M,51.80,KMEV 241235Z AUTO 00000KT 10SM FEW037 FEW050 SCT060 11/09 A3011 RMK AO2,M
BAM,2023-08-24 12:35,-116.8743,40.5990,1382.36,51.80,41.00,66.48,90.00,4.00,0.00,30.12,M,10.00,M,BKN,M,M,M,12000.00,M,M,M,M,M,M,M,M,M,M,51.80,KBAM 241235Z AUTO 09004KT 10SM BKN120 11/05 A3012 RMK AO1,M
HTH,2023-08-24 12:35,-118.6315,38.5448,1282.89,60.80,48.20,63.15,160.00,6.00,0.00,30.08,M,10.00,M,CLR,M,M,M,M,M,M,M,M,M,M,M,M,M,M,60.80,KHTH 241235Z AUTO 16006KT 10SM CLR 16/09 A3008 RMK A01,M
10U,2023-08-24 12:35,-116.1876,41.9532,1637.00,48.20,42.80,81.47,0.00,0.00,0.00,30.17,M,10.00,M,BKN,M,M,M,10000.00,M,M,M,M,M,M,M,M,M,M,48.20,K10U 241235Z AUTO 00000KT 10SM BKN100 09/06 A3017 RMK AO2,M
TMT,2023-08-24 12:35,-117.1971,39.4643,1749.34,46.80,44.40,91.30,0.00,0.00,0.00,30.20,M,M,M,M,M,M,M,M,M,M,M,M,M,M,M,M,M,M,46.80,KTMT 241235Z AUTO 00000KT 08/07 A3020 RMK AO2 T00820069 PWINO,M
05U,2023-08-24 12:50,-116.0051,39.6042,1811.23,51.80,48.20,87.47,M,M,0.00,30.22,M,10.00,M,M,M,M,M,M,M,M,M,M,M,M,M,M,M,M,51.80,K05U 241250Z AUTO 10SM 11/09 A3022 RMK A01,M
P68,2023-08-24 12:53,-116.0056,39.6014,1993.00,52.00,48.00,86.17,200.00,3.00,0.00,30.20,1014.90,M,M,M,M,M,M,M,M,M,M,M,M,M,M,M,M,M,52.00,KP68 241253Z AUTO 20003KT 11/09 A3020 RMK AO1 SLP149 T01110089,M
DRA,2023-08-24 12:53,-116.0278,36.6206,1009.00,71.00,60.00,68.20,0.00,0.00,0.00,30.01,1011.50,10.00,M,CLR,M,M,M,M,M,M,M,M,M,M,M,M,M,M,71.00,KDRA 241253Z AUTO 00000KT 10SM CLR 22/16 A3001 RMK AO2 SLP115 T02170156,M
ELY,2023-08-24 12:53,-114.8453,39.2950,1909.00,51.00,48.00,89.42,0.00,0.00,0.00,30.24,1014.80,10.00,M,SCT,M,M,M,10000.00,M,M,M,M,M,M,M,M,M,M,51.00,KELY 241253Z AUTO 00000KT 10SM SCT100 11/09 A3024 RMK AO2 SLP148 T01060089,M
VGT,2023-08-24 12:53,-115.1933,36.2111,667.00,81.00,60.00,48.88,140.00,3.00,0.00,29.96,1013.30,10.00,M,CLR,M,M,M,M,M,M,M,M,M,M,M,M,M,M,81.60,KVGT 241253Z AUTO 14003KT 10SM CLR 27/16 A2996 RMK AO2 SLP133 T02720156,M
LOL,2023-08-24 12:53,-118.5701,40.0684,1192.43,50.00,47.00,89.37,270.00,4.00,0.00,30.05,1014.50,10.00,M,CLR,M,M,M,M,M,M,M,M,M,M,M,M,M,M,50.00,KLOL 241253Z AUTO 27004KT 10SM CLR 10/08 A3005 RMK AO2 SLP145 T01000083,M
BVU,2023-08-24 12:55,-114.8611,35.9475,671.00,80.60,60.80,50.95,30.00,6.00,0.00,29.95,M,10.00,M,BKN,M,M,M,11000.00,M,M,M,M,M,M,M,M,M,M,81.46,KBVU 241255Z AUTO 03006KT 10SM BKN110 27/16 A2995 RMK AO2,M
CXP,2023-08-24 12:55,-119.7326,39.1923,1431.00,57.20,51.80,82.12,0.00,0.00,0.00,30.13,M,10.00,M,CLR,M,M,M,M,M,M,M,M,M,M,M,M,M,M,57.20,KCXP 241255Z AUTO 00000KT 10SM CLR 14/11 A3013 RMK AO2,M
INS,2023-08-24 12:55,-115.6733,36.5872,955.00,73.00,58.30,59.97,0.00,0.00,0.00,30.01,1011.30,10.00,M,CLR,M,M,M,M,M,M,M,M,M,M,M,M,M,M,73.00,KINS 241255Z AUTO 00000KT 10SM CLR 23/15 A3001 RMK AO2 SLP113 T02280146 $,M
RNO,2023-08-24 12:55,-119.7711,39.4839,1341.00,61.00,50.00,67.06,0.00,0.00,0.00,30.10,1013.80,10.00,M,FEW,M,M,M,8000.00,M,M,M,M,M,M,M,M,M,M,61.00,KRNO 241255Z 00000KT 10SM FEW080 16/10 A3010 RMK AO2 SLP138 T01610100,M
LSV,2023-08-24 12:55,-115.0343,36.2362,570.00,80.00,58.50,47.87,70.00,7.00,0.00,29.93,1010.90,10.00,M,CLR,M,M,M,M,M,M,M,M,M,M,M,M,M,M,80.61,KLSV 241255Z AUTO 07007KT 10SM CLR 27/15 A2993 RMK AO2 SLP109 T02660147 $,M
RTS,2023-08-24 12:55,-119.8764,39.6682,1539.00,51.80,46.40,81.74,0.00,0.00,0.00,30.13,M,10.00,M,CLR,M,M,M,M,M,M,M,M,M,M,M,M,M,M,51.80,KRTS 241255Z AUTO 00000KT 10SM CLR 11/08 A3013 RMK AO2,M
MEV,2023-08-24 12:55,-119.7500,38.9963,1441.42,50.00,48.20,93.50,150.00,4.00,0.00,30.12,M,10.00,M,FEW,FEW,FEW,M,3700.00,4500.00,5000.00,M,M,M,M,M,M,M,M,50.00,KMEV 241255Z AUTO 15004KT 10SM FEW037 FEW045 FEW050 10/09 A3012 RMK AO2,M
BAM,2023-08-24 12:55,-116.8743,40.5990,1382.36,50.00,41.00,71.07,0.00,0.00,0.00,30.13,M,10.00,M,BKN,M,M,M,12000.00,M,M,M,M,M,M,M,M,M,M,50.00,KBAM 241255Z AUTO 00000KT 10SM BKN120 10/05 A3013 RMK AO1,M
HTH,2023-08-24 12:55,-118.6315,38.5448,1282.89,60.80,48.20,63.15,160.00,6.00,0.00,30.08,M,10.00,M,CLR,M,M,M,M,M,M,M,M,M,M,M,M,M,M,60.80,KHTH 241255Z AUTO 16006KT 10SM CLR 16/09 A3008 RMK A01,M
TMT,2023-08-24 12:55,-117.1971,39.4643,1749.34,42.80,41.40,94.75,0.00,0.00,0.00,30.21,M,M,M,M,M,M,M,M,M,M,M,M,M,M,M,M,M,M,42.80,KTMT 241255Z AUTO 00000KT 06/05 A3021 RMK AO2 T00600052 PWINO,M
10U,2023-08-24 12:55,-116.1876,41.9532,1637.00,48.20,42.80,81.47,0.00,0.00,0.00,30.18,M,10.00,M,SCT,M,M,M,10000.00,M,M,M,M,M,M,M,M,M,M,48.20,K10U 241255Z AUTO 00000KT 10SM SCT100 09/06 A3018 RMK AO2,M
EKO,2023-08-24 12:56,-115.7860,40.8242,1367.00,52.00,46.00,79.92,80.00,4.00,0.00,30.16,1016.60,10.00,M,BKN,M,M,M,12000.00,M,M,M,M,M,M,M,M,M,M,52.00,KEKO 241256Z AUTO 08004KT 10SM BKN120 11/08 A3016 RMK AO2 SLP166 T01110078,M
WMC,2023-08-24 12:56,-117.8072,40.9019,1315.00,51.00,46.00,82.93,160.00,5.00,0.00,30.09,1015.00,10.00,M,CLR,M,M,M,M,M,M,M,M,M,M,M,M,M,M,51.00,KWMC 241256Z AUTO 16005KT 10SM CLR 11/08 A3009 RMK AO2 SLP150 T01060078,M
NFL,2023-08-24 12:56,-118.7010,39.4166,1199.00,60.00,56.00,86.61,150.00,5.00,0.00,30.05,1014.40,10.00,M,CLR,M,M,M,M,M,M,M,M,M,M,M,M,M,M,60.00,KNFL 241256Z AUTO 15005KT 10SM CLR 16/13 A3005 RMK AO2 SLP144 T01560133,M
LAS,2023-08-24 12:56,-115.1634,36.0719,663.00,79.00,63.00,58.04,350.00,5.00,0.00,29.97,1012.10,10.00,M,FEW,M,M,M,12000.00,M,M,M,M,M,M,M,M,M,M,79.00,KLAS 241256Z 35005KT 10SM FEW120 26/17 A2997 RMK AO2 SLP121 T02610172,M
HTH,2023-08-24 13:10,-118.6315,38.5448,1282.89,59.00,50.00,72.01,0.00,0.00,0.00,30.09,M,10.00,M,CLR,M,M,M,M,M,M,M,M,M,M,M,M,M,M,59.00,KHTH 241310Z AUTO 00000KT 10SM CLR 15/10 A3009 RMK A01,M
BVU,2023-08-24 13:15,-114.8611,35.9475,671.00,78.80,62.60,57.60,0.00,0.00,0.00,29.96,M,10.00,M,BKN,M,M,M,11000.00,M,M,M,M,M,M,M,M,M,M,78.80,KBVU 241315Z AUTO 00000KT 10SM BKN110 26/17 A2996 RMK AO2,M
CXP,2023-08-24 13:15,-119.7326,39.1923,1431.00,55.40,51.80,87.65,0.00,0.00,0.00,30.13,M,10.00,M,CLR,M,M,M,M,M,M,M,M,M,M,M,M,M,M,55.40,KCXP 241315Z AUTO 00000KT 10SM CLR 13/11 A3013 RMK AO2,M
RTS,2023-08-24 13:15,-119.8764,39.6682,1539.00,51.80,46.40,81.74,360.00,4.00,0.00,30.14,M,10.00,M,CLR,M,M,M,M,M,M,M,M,M,M,M,M,M,M,51.80,KRTS 241315Z AUTO 36004KT 10SM CLR 11/08 A3014 RMK AO2,M
05U,2023-08-24 13:15,-116.0051,39.6042,1811.23,51.80,48.20,87.47,M,M,0.00,30.23,M,10.00,M,M,M,M,M,M,M,M,M,M,M,M,M,M,M,M,51.80,K05U 241315Z AUTO 10SM 11/09 A3023 RMK A01,M
MEV,2023-08-24 13:15,-119.7500,38.9963,1441.42,50.00,48.20,93.50,220.00,4.00,0.00,30.12,M,10.00,M,CLR,M,M,M,M,M,M,M,M,M,M,M,M,M,M,50.00,KMEV 241315Z AUTO 22004KT 10SM CLR 10/09 A3012 RMK AO2,M
BAM,2023-08-24 13:15,-116.8743,40.5990,1382.36,51.80,41.00,66.48,0.00,0.00,0.00,30.14,M,10.00,M,BKN,M,M,M,12000.00,M,M,M,M,M,M,M,M,M,M,51.80,KBAM 241315Z AUTO 00000KT 10SM BKN120 11/05 A3014 RMK AO1,M
10U,2023-08-24 13:15,-116.1876,41.9532,1637.00,50.00,44.60,81.61,0.00,0.00,0.00,30.18,M,10.00,M,FEW,M,M,M,10000.00,M,M,M,M,M,M,M,M,M,M,50.00,K10U 241315Z AUTO 00000KT 10SM FEW100 10/07 A3018 RMK AO2,M
TMT,2023-08-24 13:15,-117.1971,39.4643,1749.34,42.00,40.30,93.64,170.00,3.00,0.00,30.21,M,M,M,M,M,M,M,M,M,M,M,M,M,M,M,M,M,M,40.12,KTMT 241315Z AUTO 17003KT 06/05 A3021 RMK AO2 T00560046 PWINO,M
05U,2023-08-24 13:30,-116.0051,39.6042,1811.23,50.00,48.20,93.50,M,M,0.00,30.23,M,10.00,M,M,M,M,M,M,M,M,M,M,M,M,M,M,M,M,50.00,K05U 241330Z AUTO 10SM 10/09 A3023 RMK A01,M
BVU,2023-08-24 13:35,-114.8611,35.9475,671.00,78.80,60.80,54.05,0.00,0.00,0.00,29.97,M,10.00,M,SCT,M,M,M,12000.00,M,M,M,M,M,M,M,M,M,M,78.80,KBVU 241335Z AUTO 00000KT 10SM SCT120 26/16 A2997 RMK AO2,M
CXP,2023-08-24 13:35,-119.7326,39.1923,1431.00,55.40,51.80,87.65,0.00,0.00,0.00,30.14,M,10.00,M,CLR,M,M,M,M,M,M,M,M,M,M,M,M,M,M,55.40,KCXP 241335Z AUTO 00000KT 10SM CLR 13/11 A3014 RMK AO2,M
RTS,2023-08-24 13:35,-119.8764,39.6682,1539.00,51.80,46.40,81.74,360.00,4.00,0.00,30.15,M,10.00,M,CLR,M,M,M,M,M,M,M,M,M,M,M,M,M,M,51.80,KRTS 241335Z AUTO 36004KT 10SM CLR 11/08 A3015 RMK AO2,M
MEV,2023-08-24 13:35,-119.7500,38.9963,1441.42,51.80,50.00,93.55,0.00,0.00,0.00,30.13,M,10.00,M,CLR,M,M,M,M,M,M,M,M,M,M,M,M,M,M,51.80,KMEV 241335Z AUTO 00000KT 10SM CLR 11/10 A3013 RMK AO2,M
BAM,2023-08-24 13:35,-116.8743,40.5990,1382.36,51.80,41.00,66.48,0.00,0.00,0.00,30.14,M,10.00,M,SCT,M,M,M,12000.00,M,M,M,M,M,M,M,M,M,M,51.80,KBAM 241335Z AUTO 00000KT 10SM SCT120 11/05 A3014 RMK AO1,M
HTH,2023-08-24 13:35,-118.6315,38.5448,1282.89,59.00,51.80,76.98,0.00,0.00,0.00,30.10,M,10.00,M,CLR,M,M,M,M,M,M,M,M,M,M,M,M,M,M,59.00,KHTH 241335Z AUTO 00000KT 10SM CLR 15/11 A3010 RMK A01,M
10U,2023-08-24 13:35,-116.1876,41.9532,1637.00,46.40,44.60,93.40,70.00,4.00,0.00,30.19,M,10.00,M,CLR,M,M,M,M,M,M,M,M,M,M,M,M,M,M,44.24,K10U 241335Z AUTO 07004KT 10SM CLR 08/07 A3019 RMK AO2,M
TMT,2023-08-24 13:35,-117.1971,39.4643,1749.34,42.30,41.00,95.11,0.00,0.00,0.00,30.22,M,M,M,M,M,M,M,M,M,M,M,M,M,M,M,M,M,M,42.30,KTMT 241335Z AUTO 00000KT 06/05 A3022 RMK AO2 T00570050 PWINO,M
NFL,2023-08-24 13:46,-118.7010,39.4166,1199.00,60.00,56.00,86.61,160.00,5.00,0.00,30.07,M,10.00,M,FEW,M,M,M,7000.00,M,M,M,M,M,M,M,M,M,M,60.00,KNFL 241346Z 16005KT 10SM FEW070 16/13 A3007 RMK AO2 T01560133,M
P68,2023-08-24 13:53,-116.0056,39.6014,1993.00,54.00,48.00,80.07,200.00,5.00,0.00,30.21,1015.60,M,M,M,M,M,M,M,M,M,M,M,M,M,M,M,M,M,54.00,KP68 241353Z AUTO 20005KT 12/09 A3021 RMK AO1 SLP156 T01220089,M
DRA,2023-08-24 13:53,-116.0278,36.6206,1009.00,71.00,60.00,68.20,290.00,3.00,0.00,30.04,1012.30,10.00,M,FEW,M,M,M,9000.00,M,M,M,M,M,M,M,M,M,M,71.00,KDRA 241353Z AUTO 29003KT 10SM FEW090 22/16 A3004 RMK AO2 SLP123 T02170156,M
ELY,2023-08-24 13:53,-114.8453,39.2950,1909.00,51.00,49.00,92.83,150.00,5.00,0.00,30.26,1016.40,10.00,M,CLR,M,M,M,M,M,M,M,M,M,M,M,M,M,M,51.00,KELY 241353Z AUTO 15005KT 10SM CLR 11/09 A3026 RMK AO2 SLP164 T01060094,M
VGT,2023-08-24 13:53,-115.1933,36.2111,667.00,81.00,62.00,52.48,0.00,0.00,0.00,29.98,1013.90,10.00,M,FEW,M,M,M,11000.00,M,M,M,M,M,M,M,M,M,M,82.04,KVGT 241353Z 00000KT 10SM FEW110 27/17 A2998 RMK AO2 SLP139 T02720167,M
LOL,2023-08-24 13:53,-118.5701,40.0684,1192.43,57.00,50.00,77.38,330.00,4.00,0.00,30.06,1014.90,10.00,M,CLR,M,M,M,M,M,M,M,M,M,M,M,M,M,M,57.00,KLOL 241353Z AUTO 33004KT 10SM CLR 14/10 A3006 RMK AO2 SLP149 T01390100,M
BVU,2023-08-24 13:55,-114.8611,35.9475,671.00,80.60,60.80,50.95,0.00,0.00,0.00,29.98,M,10.00,M,BKN,M,M,M,11000.00,M,M,M,M,M,M,M,M,M,M,81.46,KBVU 241355Z AUTO 00000KT 10SM BKN110 27/16 A2998 RMK AO2,M
CXP,2023-08-24 13:55,-119.7326,39.1923,1431.00,57.20,51.80,82.12,0.00,0.00,0.00,30.15,M,10.00,M,CLR,M,M,M,M,M,M,M,M,M,M,M,M,M,M,57.20,KCXP 241355Z AUTO 00000KT 10SM CLR 14/11 A3015 RMK AO2,M
INS,2023-08-24 13:55,-115.6733,36.5872,955.00,73.20,58.00,58.93,70.00,4.00,0.00,30.03,1012.00,10.00,M,CLR,M,M,M,M,M,M,M,M,M,M,M,M,M,M,73.20,KINS 241355Z AUTO 07004KT 10SM CLR 23/14 A3003 RMK AO2 SLP120 T02290144 $,M
RNO,2023-08-24 13:55,-119.7711,39.4839,1341.00,61.00,50.00,67.06,0.00,0.00,0.00,30.12,1014.90,10.00,M,FEW,M,M,M,8000.00,M,M,M,M,M,M,M,M,M,M,61.00,KRNO 241355Z 00000KT 10SM FEW080 16/10 A3012 RMK AO2 SLP149 T01610100,M
LSV,2023-08-24 13:55,-115.0343,36.2362,570.00,80.40,59.00,48.10,60.00,6.00,0.00,29.94,1011.20,10.00,M,FEW,M,M,M,11000.00,M,M,M,M,M,M,M,M,M,M,80.97,KLSV 241355Z AUTO 06006KT 10SM FEW110 27/15 A2994 RMK AO2 SLP112 T02690149 $,M
RTS,2023-08-24 13:55,-119.8764,39.6682,1539.00,53.60,46.40,76.50,360.00,4.00,0.00,30.15,M,10.00,M,CLR,M,M,M,M,M,M,M,M,M,M,M,M,M,M,53.60,KRTS 241355Z AUTO 36004KT 10SM CLR 12/08 A3015 RMK AO2,M
05U,2023-08-24 13:55,-116.0051,39.6042,1811.23,55.40,48.20,76.66,M,M,0.00,30.24,M,10.00,M,M,M,M,M,M,M,M,M,M,M,M,M,M,M,M,55.40,K05U 241355Z AUTO 10SM 13/09 A3024 RMK A01,M
MEV,2023-08-24 13:55,-119.7500,38.9963,1441.42,50.00,48.20,93.50,110.00,3.00,0.00,30.13,M,10.00,M,CLR,M,M,M,M,M,M,M,M,M,M,M,M,M,M,50.00,KMEV 241355Z AUTO 11003KT 10SM CLR 10/09 A3013 RMK AO2,M
HTH,2023-08-24 13:55,-118.6315,38.5448,1282.89,59.00,50.00,72.01,100.00,5.00,0.00,30.11,M,10.00,M,CLR,M,M,M,M,M,M,M,M,M,M,M,M,M,M,59.00,KHTH 241355Z AUTO 10005KT 10SM CLR 15/10 A3011 RMK A01,M
BAM,2023-08-24 13:55,-116.8743,40.5990,1382.36,51.80,42.80,71.26,0.00,0.00,0.00,30.14,M,10.00,M,CLR,M,M,M,M,M,M,M,M,M,M,M,M,M,M,51.80,KBAM 241355Z AUTO 00000KT 10SM CLR 11/06 A3014 RMK AO1,M
TMT,2023-08-24 13:55,-117.1971,39.4643,1749.34,44.80,43.30,94.43,0.00,0.00,0.00,30.22,M,M,M,M,M,M,M,M,M,M,M,M,M,M,M,M,M,M,44.80,KTMT 241355Z AUTO 00000KT 07/06 A3022 RMK AO2 T00710063 PWINO,M
10U,2023-08-24 13:55,-116.1876,41.9532,1637.00,50.00,44.60,81.61,0.00,0.00,0.00,30.19,M,10.00,M,CLR,M,M,M,M,M,M,M,M,M,M,M,M,M,M,50.00,K10U 241355Z AUTO 00000KT 10SM CLR 10/07 A3019 RMK AO2,M
EKO,2023-08-24 13:56,-115.7860,40.8242,1367.00,55.00,46.00,71.60,90.00,3.00,0.00,30.18,1016.90,10.00,M,CLR,M,M,M,M,M,M,M,M,M,M,M,M,M,M,55.00,KEKO 241356Z AUTO 09003KT 10SM CLR 13/08 A3018 RMK AO2 SLP169 T01280078,M
WMC,2023-08-24 13:56,-117.8072,40.9019,1315.00,52.00,48.00,86.17,190.00,6.00,0.00,30.10,1015.30,10.00,M,CLR,M,M,M,M,M,M,M,M,M,M,M,M,M,M,52.00,KWMC 241356Z AUTO 19006KT 10SM CLR 11/09 A3010 RMK AO2 SLP153 T01110089,M
NFL,2023-08-24 13:56,-118.7010,39.4166,1199.00,60.00,56.00,86.61,170.00,4.00,0.00,30.07,1015.00,10.00,M,FEW,M,M,M,7000.00,M,M,M,M,M,M,M,M,M,M,60.00,KNFL 241356Z 17004KT 10SM FEW070 16/13 A3007 RMK AO2 SLP150 T01560133,M
LAS,2023-08-24 13:56,-115.1634,36.0719,663.00,79.00,61.00,54.08,10.00,4.00,0.00,29.99,1012.80,10.00,M,SCT,SCT,M,M,11000.00,16000.00,M,M,M,M,M,M,M,M,M,79.00,KLAS 241356Z 01004KT 10SM SCT110 SCT160 26/16 A2999 RMK AO2 SLP128 ACC N-E-S T02610161,M
05U,2023-08-24 14:10,-116.0051,39.6042,1811.23,57.20,48.20,71.83,M,M,0.00,30.24,M,10.00,M,M,M,M,M,M,M,M,M,M,M,M,M,M,M,M,57.20,K05U 241410Z AUTO 10SM 14/09 A3024 RMK A01,M
BVU,2023-08-24 14:15,-114.8611,35.9475,671.00,80.60,60.80,50.95,0.00,0.00,0.00,29.98,M,10.00,M,SCT,M,M,M,11000.00,M,M,M,M,M,M,M,M,M,M,81.46,KBVU 241415Z AUTO 00000KT 10SM SCT110 27/16 A2998 RMK AO2,M
CXP,2023-08-24 14:15,-119.7326,39.1923,1431.00,59.00,51.80,76.98,0.00,0.00,0.00,30.14,M,10.00,M,CLR,M,M,M,M,M,M,M,M,M,M,M,M,M,M,59.00,KCXP 241415Z AUTO 00000KT 10SM CLR 15/11 A3014 RMK AO2,M
RTS,2023-08-24 14:15,-119.8764,39.6682,1539.00,55.40,48.20,76.66,0.00,0.00,0.00,30.16,M,10.00,M,CLR,M,M,M,M,M,M,M,M,M,M,M,M,M,M,55.40,KRTS 241415Z AUTO 00000KT 10SM CLR 13/09 A3016 RMK AO2,M
MEV,2023-08-24 14:15,-119.7500,38.9963,1441.42,55.40,51.80,87.65,0.00,0.00,0.00,30.14,M,10.00,M,CLR,M,M,M,M,M,M,M,M,M,M,M,M,M,M,55.40,KMEV 241415Z AUTO 00000KT 10SM CLR 13/11 A3014 RMK AO2,M
HTH,2023-08-24 14:15,-118.6315,38.5448,1282.89,62.60,48.20,59.26,140.00,5.00,0.00,30.11,M,10.00,M,CLR,M,M,M,M,M,M,M,M,M,M,M,M,M,M,62.60,KHTH 241415Z AUTO 14005KT 10SM CLR 17/09 A3011 RMK A01,M
10U,2023-08-24 14:15,-116.1876,41.9532,1637.00,53.60,46.40,76.50,100.00,3.00,0.00,30.19,M,10.00,M,CLR,M,M,M,M,M,M,M,M,M,M,M,M,M,M,53.60,K10U 241415Z AUTO 10003KT 10SM CLR 12/08 A3019 RMK AO2,M
BAM,2023-08-24 14:15,-116.8743,40.5990,1382.36,55.40,42.80,62.46,30.00,3.00,0.00,30.14,M,10.00,M,SCT,M,M,M,12000.00,M,M,M,M,M,M,M,M,M,M,55.40,KBAM 241415Z AUTO 03003KT 10SM SCT120 13/06 A3014 RMK AO1,M
TMT,2023-08-24 14:15,-117.1971,39.4643,1749.34,48.20,45.70,91.01,0.00,0.00,0.00,30.22,M,M,M,M,M,M,M,M,M,M,M,M,M,M,M,M,M,M,48.20,KTMT 241415Z AUTO 00000KT 09/08 A3022 RMK AO2 T00900076 PWINO,M
BVU,2023-08-24 14:35,-114.8611,35.9475,671.00,80.60,60.80,50.95,0.00,0.00,0.00,29.99,M,10.00,M,CLR,M,M,M,M,M,M,M,M,M,M,M,M,M,M,81.46,KBVU 241435Z AUTO 00000KT 10SM CLR 27/16 A2999 RMK AO2,M
CXP,2023-08-24 14:35,-119.7326,39.1923,1431.00,62.60,51.80,67.75,0.00,0.00,0.00,30.15,M,10.00,M,CLR,M,M,M,M,M,M,M,M,M,M,M,M,M,M,62.60,KCXP 241435Z AUTO 00000KT 10SM CLR 17/11 A3015 RMK AO2,M
RTS,2023-08-24 14:35,-119.8764,39.6682,1539.00,59.00,48.20,67.33,0.00,0.00,0.00,30.16,M,10.00,M,CLR,M,M,M,M,M,M,M,M,M,M,M,M,M,M,59.00,KRTS 241435Z AUTO 00000KT 10SM CLR 15/09 A3016 RMK AO2,M
05U,2023-08-24 14:35,-116.0051,39.6042,1811.23,60.80,48.20,63.15,M,M,0.00,30.25,M,10.00,M,M,M,M,M,M,M,M,M,M,M,M,M,M,M,M,60.80,K05U 241435Z AUTO 10SM 16/09 A3025 RMK A01,M
MEV,2023-08-24 14:35,-119.7500,38.9963,1441.42,57.20,53.60,87.74,0.00,0.00,0.00,30.14,M,10.00,M,CLR,M,M,M,M,M,M,M,M,M,M,M,M,M,M,57.20,KMEV 241435Z AUTO 00000KT 10SM CLR 14/12 A3014 RMK AO2,M
HTH,2023-08-24 14:35,-118.6315,38.5448,1282.89,66.20,48.20,52.25,180.00,4.00,0.00,30.11,M,10.00,M,CLR,M,M,M,M,M,M,M,M,M,M,M,M,M,M,66.20,KHTH 241435Z AUTO 18004KT 10SM CLR 19/09 A3011 RMK A01,M
10U,2023-08-24 14:35,-116.1876,41.9532,1637.00,55.40,46.40,71.64,0.00,0.00,0.00,30.20,M,10.00,M,CLR,M,M,M,M,M,M,M,M,M,M,M,M,M,M,55.40,K10U 241435Z AUTO 00000KT 10SM CLR 13/08 A3020 RMK AO2,M
BAM,2023-08-24 14:35,-116.8743,40.5990,1382.36,60.80,42.80,51.45,0.00,0.00,0.00,30.14,M,10.00,M,SCT,M,M,M,12000.00,M,M,M,M,M,M,M,M,M,M,60.80,KBAM 241435Z AUTO 00000KT 10SM SCT120 16/06 A3014 RMK AO1,M
TMT,2023-08-24 14:35,-117.1971,39.4643,1749.34,52.00,46.80,82.37,0.00,0.00,0.00,30.22,M,M,M,CLR,M,M,M,M,M,M,M,M,M,M,M,M,M,M,52.00,KTMT 241435Z AUTO 00000KT CLR 11/08 A3022 RMK AO2 T01110082 PWINO,M
05U,2023-08-24 14:50,-116.0051,39.6042,1811.23,66.20,48.20,52.25,M,M,0.00,30.25,M,10.00,M,M,M,M,M,M,M,M,M,M,M,M,M,M,M,M,66.20,K05U 241450Z AUTO 10SM 19/09 A3025 RMK A01,M
P68,2023-08-24 14:53,-116.0056,39.6014,1993.00,64.00,48.00,55.99,210.00,5.00,0.00,30.22,1015.60,M,M,M,M,M,M,M,M,M,M,M,M,M,M,M,M,M,64.00,KP68 241453Z AUTO 21005KT 18/09 A3022 RMK AO1 SLP156 T01780089 51009,M
DRA,2023-08-24 14:53,-116.0278,36.6206,1009.00,79.00,57.00,46.87,0.00,0.00,0.00,30.05,1012.60,10.00,M,CLR,M,M,M,M,M,M,M,M,M,M,M,M,M,M,79.00,KDRA 241453Z AUTO 00000KT 10SM CLR 26/14 A3005 RMK AO2 SLP126 T02610139 51015,M
ELY,2023-08-24 14:53,-114.8453,39.2950,1909.00,56.00,52.00,86.40,190.00,6.00,0.00,30.27,1017.00,10.00,M,CLR,M,M,M,M,M,M,M,M,M,M,M,M,M,M,56.00,KELY 241453Z AUTO 19006KT 10SM CLR 13/11 A3027 RMK AO2 SLP170 T01330111 51010,M
VGT,2023-08-24 14:53,-115.1933,36.2111,667.00,83.00,60.00,45.81,200.00,3.00,0.00,30.00,1014.40,10.00,M,CLR,M,M,M,M,M,M,M,M,M,M,M,M,M,M,83.19,KVGT 241453Z 20003KT 10SM CLR 28/16 A3000 RMK AO2 SLP144 T02830156 51016,M
LOL,2023-08-24 14:53,-118.5701,40.0684,1192.43,62.00,52.00,69.71,0.00,0.00,0.00,30.07,1015.10,10.00,M,CLR,M,M,M,M,M,M,M,M,M,M,M,M,M,M,62.00,KLOL 241453Z AUTO 00000KT 10SM CLR 17/11 A3007 RMK AO2 SLP151 T01670111 51011,M
BVU,2023-08-24 14:55,-114.8611,35.9475,671.00,82.40,60.80,48.05,0.00,0.00,0.00,29.99,M,10.00,M,CLR,M,M,M,M,M,M,M,M,M,M,M,M,M,M,82.90,KBVU 241455Z AUTO 00000KT 10SM CLR 28/16 A2999 RMK AO2,M
CXP,2023-08-24 14:55,-119.7326,39.1923,1431.00,62.60,51.80,67.75,0.00,0.00,0.00,30.15,M,10.00,M,CLR,M,M,M,M,M,M,M,M,M,M,M,M,M,M,62.60,KCXP 241455Z AUTO 00000KT 10SM CLR 17/11 A3015 RMK AO2,M
INS,2023-08-24 14:55,-115.6733,36.5872,955.00,76.50,57.60,52.02,100.00,5.00,0.00,30.04,1012.30,10.00,M,CLR,M,M,M,M,M,M,M,M,M,M,M,M,M,M,76.50,KINS 241455Z AUTO 10005KT 10SM CLR 25/14 A3004 RMK AO2 SLP123 T02470142 52014 $,M
RNO,2023-08-24 14:55,-119.7711,39.4839,1341.00,64.00,51.00,62.62,180.00,4.00,0.00,30.12,1014.90,10.00,M,CLR,M,M,M,M,M,M,M,M,M,M,M,M,M,M,64.00,KRNO 241455Z 18004KT 10SM CLR 18/11 A3012 RMK AO2 SLP149 T01780106 51009,M
LSV,2023-08-24 14:55,-115.0343,36.2362,570.00,84.40,60.00,43.78,40.00,10.00,0.00,29.96,1011.90,10.00,M,FEW,M,M,M,11000.00,M,M,M,M,M,M,M,M,M,M,84.36,KLSV 241455Z AUTO 04010KT 10SM FEW110 29/16 A2996 RMK AO2 SLP119 T02910156 52015 $,M
RTS,2023-08-24 14:55,-119.8764,39.6682,1539.00,59.00,48.20,67.33,0.00,0.00,0.00,30.16,M,10.00,M,CLR,M,M,M,M,M,M,M,M,M,M,M,M,M,M,59.00,KRTS 241455Z AUTO 00000KT 10SM CLR 15/09 A3016 RMK AO2,M
MEV,2023-08-24 14:55,-119.7500,38.9963,1441.42,59.00,53.60,82.25,0.00,0.00,0.00,30.14,M,10.00,M,CLR,M,M,M,M,M,M,M,M,M,M,M,M,M,M,59.00,KMEV 241455Z AUTO 00000KT 10SM CLR 15/12 A3014 RMK AO2,M
BAM,2023-08-24 14:55,-116.8743,40.5990,1382.36,62.60,44.60,51.72,0.00,0.00,0.00,30.14,M,10.00,M,SCT,M,M,M,12000.00,M,M,M,M,M,M,M,M,M,M,62.60,KBAM 241455Z AUTO 00000KT 10SM SCT120 17/07 A3014 RMK AO1,M
HTH,2023-08-24 14:55,-118.6315,38.5448,1282.89,68.00,48.20,49.10,210.00,3.00,0.00,30.11,M,10.00,M,CLR,M,M,M,M,M,M,M,M,M,M,M,M,M,M,68.00,KHTH 241455Z AUTO 21003KT 10SM CLR 20/09 A3011 RMK A01,M
TMT,2023-08-24 14:55,-117.1971,39.4643,1749.34,54.00,47.70,79.18,0.00,0.00,0.00,30.22,M,M,M,CLR,M,M,M,M,M,M,M,M,M,M,M,M,M,M,54.00,KTMT 241455Z AUTO 00000KT CLR 12/09 A3022 RMK AO2 T01230087 PWINO,M
10U,2023-08-24 14:55,-116.1876,41.9532,1637.00,59.00,48.20,67.33,0.00,0.00,0.00,30.20,M,10.00,M,CLR,M,M,M,M,M,M,M,M,M,M,M,M,M,M,59.00,K10U 241455Z AUTO 00000KT 10SM CLR 15/09 A3020 RMK AO2,M
EKO,2023-08-24 14:56,-115.7860,40.8242,1367.00,61.00,45.00,55.57,70.00,4.00,0.00,30.18,1017.40,10.00,M,CLR,M,M,M,M,M,M,M,M,M,M,M,M,M,M,61.00,KEKO 241456Z AUTO 07004KT 10SM CLR 16/07 A3018 RMK AO2 SLP174 T01610072 51010,M
WMC,2023-08-24 14:56,-117.8072,40.9019,1315.00,65.00,49.00,56.13,80.00,3.00,0.00,30.10,1014.90,10.00,M,CLR,M,M,M,M,M,M,M,M,M,M,M,M,M,M,65.00,KWMC 241456Z AUTO 08003KT 10SM CLR 18/09 A3010 RMK AO2 SLP149 T01830094 52005,M
NFL,2023-08-24 14:56,-118.7010,39.4166,1199.00,67.00,57.00,70.24,170.00,4.00,0.00,30.08,1015.30,10.00,M,FEW,M,M,M,7000.00,M,M,M,M,M,M,M,M,M,M,67.00,KNFL 241456Z 17004KT 10SM FEW070 19/14 A3008 RMK AO2 SLP153 T01940139 51013,M
LAS,2023-08-24 14:56,-115.1634,36.0719,663.00,83.00,61.00,47.47,360.00,4.00,0.00,30.01,1013.30,10.00,M,SCT,M,M,M,11000.00,M,M,M,M,M,M,M,M,M,M,83.46,KLAS 241456Z 36004KT 10SM SCT110 28/16 A3001 RMK AO2 SLP133 ACC ALQDS T02830161 51017,M
HND,2023-08-24 14:56,-115.1344,35.9729,742.79,82.00,61.00,49.03,320.00,4.00,0.00,30.04,1015.70,10.00,M,BKN,M,M,M,11000.00,M,M,M,M,M,M,M,M,M,M,82.62,KHND 241456Z AUTO 32004KT 10SM BKN110 28/16 A3004 RMK AO2 SLP157 T02780161 53016 TSNO,M
05U,2023-08-24 15:10,-116.0051,39.6042,1811.23,66.20,48.20,52.25,M,M,0.00,30.25,M,10.00,M,M,M,M,M,M,M,M,M,M,M,M,M,M,M,M,66.20,K05U 241510Z AUTO 10SM 19/09 A3025 RMK A01,M
BVU,2023-08-24 15:15,-114.8611,35.9475,671.00,84.20,60.80,45.34,0.00,0.00,0.00,29.99,M,10.00,M,CLR,M,M,M,M,M,M,M,M,M,M,M,M,M,M,84.43,KBVU 241515Z AUTO 00000KT 10SM CLR 29/16 A2999 RMK AO2,M
CXP,2023-08-24 15:15,-119.7326,39.1923,1431.00,64.40,51.80,63.60,0.00,0.00,0.00,30.15,M,10.00,M,CLR,M,M,M,M,M,M,M,M,M,M,M,M,M,M,64.40,KCXP 241515Z AUTO 00000KT 10SM CLR 18/11 A3015 RMK AO2,M
RTS,2023-08-24 15:15,-119.8764,39.6682,1539.00,62.60,50.00,63.38,0.00,0.00,0.00,30.16,M,10.00,M,CLR,M,M,M,M,M,M,M,M,M,M,M,M,M,M,62.60,KRTS 241515Z AUTO 00000KT 10SM CLR 17/10 A3016 RMK AO2,M
MEV,2023-08-24 15:15,-119.7500,38.9963,1441.42,60.80,53.60,77.14,0.00,0.00,0.00,30.14,M,10.00,M,CLR,M,M,M,M,M,M,M,M,M,M,M,M,M,M,60.80,KMEV 241515Z AUTO 00000KT 10SM CLR 16/12 A3014 RMK AO2,M
BAM,2023-08-24 15:15,-116.8743,40.5990,1382.36,64.40,44.60,48.55,0.00,0.00,0.00,30.15,M,10.00,M,SCT,M,M,M,12000.00,M,M,M,M,M,M,M,M,M,M,64.40,KBAM 241515Z AUTO 00000KT 10SM SCT120 18/07 A3015 RMK AO1,M
HTH,2023-08-24 15:15,-118.6315,38.5448,1282.89,69.80,48.20,46.16,0.00,0.00,0.00,30.12,M,10.00,M,CLR,M,M,M,M,M,M,M,M,M,M,M,M,M,M,69.80,KHTH 241515Z AUTO 00000KT 10SM CLR 21/09 A3012 RMK A01,M
10U,2023-08-24 15:15,-116.1876,41.9532,1637.00,62.60,48.20,59.26,40.00,4.00,0.00,30.20,M,10.00,M,CLR,M,M,M,M,M,M,M,M,M,M,M,M,M,M,62.60,K10U 241515Z AUTO 04004KT 10SM CLR 17/09 A3020 RMK AO2,M
TMT,2023-08-24 15:15,-117.1971,39.4643,1749.34,55.80,48.60,76.70,0.00,0.00,0.00,30.22,M,M,M,CLR,M,M,M,M,M,M,M,M,M,M,M,M,M,M,55.80,KTMT 241515Z AUTO 00000KT CLR 13/09 A3022 RMK AO2 T01320092 PWINO,M
BVU,2023-08-24 15:35,-114.8611,35.9475,671.00,84.20,60.80,45.34,0.00,0.00,0.00,30.00,M,10.00,M,CLR,M,M,M,M,M,M,M,M,M,M,M,M,M,M,84.43,KBVU 241535Z AUTO 00000KT 10SM CLR 29/16 A3000 RMK AO2,M
CXP,2023-08-24 15:35,-119.7326,39.1923,1431.00,66.20,51.80,59.74,M,4.00,0.00,30.16,M,10.00,M,CLR,M,M,M,M,M,M,M,M,M,M,M,M,M,M,66.20,KCXP 241535Z AUTO VRB04KT 10SM CLR 19/11 A3016 RMK AO2,M
RTS,2023-08-24 15:35,-119.8764,39.6682,1539.00,64.40,48.20,55.63,0.00,0.00,0.00,30.16,M,10.00,M,CLR,M,M,M,M,M,M,M,M,M,M,M,M,M,M,64.40,KRTS 241535Z AUTO 00000KT 10SM CLR 18/09 A3016 RMK AO2,M
05U,2023-08-24 15:35,-116.0051,39.6042,1811.23,69.80,48.20,46.16,M,M,0.00,30.25,M,10.00,M,M,M,M,M,M,M,M,M,M,M,M,M,M,M,M,69.80,K05U 241535Z AUTO 10SM 21/09 A3025 RMK A01,M
MEV,2023-08-24 15:35,-119.7500,38.9963,1441.42,62.60,53.60,72.38,0.00,0.00,0.00,30.15,M,10.00,M,CLR,M,M,M,M,M,M,M,M,M,M,M,M,M,M,62.60,KMEV 241535Z AUTO 00000KT 10SM CLR 17/12 A3015 RMK AO2,M
BAM,2023-08-24 15:35,-116.8743,40.5990,1382.36,68.00,48.20,49.10,40.00,6.00,0.00,30.13,M,10.00,M,SCT,M,M,M,12000.00,M,M,M,M,M,M,M,M,M,M,68.00,KBAM 241535Z AUTO 04006KT 10SM SCT120 20/09 A3013 RMK AO1,M
HTH,2023-08-24 15:35,-118.6315,38.5448,1282.89,69.80,48.20,46.16,0.00,0.00,0.00,30.12,M,10.00,M,CLR,M,M,M,M,M,M,M,M,M,M,M,M,M,M,69.80,KHTH 241535Z AUTO 00000KT 10SM CLR 21/09 A3012 RMK A01,M
10U,2023-08-24 15:35,-116.1876,41.9532,1637.00,62.60,48.20,59.26,30.00,3.00,0.00,30.20,M,10.00,M,FEW,M,M,M,11000.00,M,M,M,M,M,M,M,M,M,M,62.60,K10U 241535Z AUTO 03003KT 10SM FEW110 17/09 A3020 RMK AO2,M
TMT,2023-08-24 15:35,-117.1971,39.4643,1749.34,59.00,49.00,69.38,0.00,0.00,0.00,30.22,M,M,M,CLR,M,M,M,M,M,M,M,M,M,M,M,M,M,M,59.00,KTMT 241535Z AUTO 00000KT CLR 15/10 A3022 RMK AO2 T01490095 PWINO,M
05U,2023-08-24 15:50,-116.0051,39.6042,1811.23,69.80,46.40,43.13,M,M,0.00,30.25,M,10.00,M,M,M,M,M,M,M,M,M,M,M,M,M,M,M,M,69.80,K05U 241550Z AUTO 10SM 21/08 A3025 RMK A01,M
P68,2023-08-24 15:53,-116.0056,39.6014,1993.00,69.00,47.00,45.35,0.00,0.00,0.00,30.22,1015.50,M,M,M,M,M,M,M,M,M,M,M,M,M,M,M,M,M,69.00,KP68 241553Z AUTO 00000KT 21/08 A3022 RMK AO1 SLP155 T02060083,M
DRA,2023-08-24 15:53,-116.0278,36.6206,1009.00,81.00,58.00,45.51,0.00,0.00,0.00,30.05,1012.60,10.00,M,CLR,M,M,M,M,M,M,M,M,M,M,M,M,M,M,81.22,KDRA 241553Z AUTO 00000KT 10SM CLR 27/14 A3005 RMK AO2 SLP126 T02720144,M
ELY,2023-08-24 15:53,-114.8453,39.2950,1909.00,68.00,53.00,58.67,220.00,4.00,0.00,30.26,1015.70,10.00,M,CLR,M,M,M,M,M,M,M,M,M,M,M,M,M,M,68.00,KELY 241553Z AUTO 22004KT 10SM CLR 20/12 A3026 RMK AO2 SLP157 T02000117,M
VGT,2023-08-24 15:53,-115.1933,36.2111,667.00,86.00,60.00,41.60,90.00,5.00,0.00,30.00,1014.70,10.00,M,CLR,M,M,M,M,M,M,M,M,M,M,M,M,M,M,85.78,KVGT 241553Z 09005KT 10SM CLR 30/16 A3000 RMK AO2 SLP147 T03000156,M
LOL,2023-08-24 15:53,-118.5701,40.0684,1192.43,71.00,52.00,51.03,40.00,6.00,0.00,30.08,1015.10,10.00,M,CLR,M,M,M,M,M,M,M,M,M,M,M,M,M,M,71.00,KLOL 241553Z AUTO 04006KT 10SM CLR 22/11 A3008 RMK AO2 SLP151 T02170111,M
BVU,2023-08-24 15:55,-114.8611,35.9475,671.00,86.00,60.80,42.80,0.00,0.00,0.00,30.00,M,10.00,M,CLR,M,M,M,M,M,M,M,M,M,M,M,M,M,M,86.05,KBVU 241555Z AUTO 00000KT 10SM CLR 30/16 A3000 RMK AO2,M
CXP,2023-08-24 15:55,-119.7326,39.1923,1431.00,66.20,50.00,55.88,240.00,3.00,0.00,30.16,M,10.00,M,CLR,M,M,M,M,M,M,M,M,M,M,M,M,M,M,66.20,KCXP 241555Z AUTO 24003KT 10SM CLR 19/10 A3016 RMK AO2,M
INS,2023-08-24 15:55,-115.6733,36.5872,955.00,80.20,57.60,46.05,0.00,0.00,0.00,30.05,1012.70,10.00,M,CLR,M,M,M,M,M,M,M,M,M,M,M,M,M,M,80.60,KINS 241555Z AUTO 00000KT 10SM CLR 27/14 A3005 RMK AO2 SLP127 T02680142 $,M
RNO,2023-08-24 15:55,-119.7711,39.4839,1341.00,68.00,51.00,54.50,0.00,0.00,0.00,30.12,1014.80,10.00,M,CLR,M,M,M,M,M,M,M,M,M,M,M,M,M,M,68.00,KRNO 241555Z 00000KT 10SM CLR 20/11 A3012 RMK AO2 SLP148 T02000106,M
LSV,2023-08-24 15:55,-115.0343,36.2362,570.00,88.00,58.50,36.99,40.00,12.00,0.00,29.96,1011.90,10.00,M,CLR,M,M,M,M,M,M,M,M,M,M,M,M,M,M,87.15,KLSV 241555Z AUTO 04012KT 10SM CLR 31/15 A2996 RMK AO2 SLP119 T03110147 $,M
RTS,2023-08-24 15:55,-119.8764,39.6682,1539.00,66.20,48.20,52.25,0.00,0.00,0.00,30.16,M,10.00,M,CLR,M,M,M,M,M,M,M,M,M,M,M,M,M,M,66.20,KRTS 241555Z AUTO 00000KT 10SM CLR 19/09 A3016 RMK AO2,M
MEV,2023-08-24 15:55,-119.7500,38.9963,1441.42,62.60,51.80,67.75,0.00,0.00,0.00,30.14,M,10.00,M,CLR,M,M,M,M,M,M,M,M,M,M,M,M,M,M,62.60,KMEV 241555Z AUTO 00000KT 10SM CLR 17/11 A3014 RMK AO2,M
BAM,2023-08-24 15:55,-116.8743,40.5990,1382.36,71.60,44.60,37.89,60.00,10.00,0.00,30.13,M,10.00,M,CLR,M,M,M,M,M,M,M,M,M,M,M,M,M,M,71.60,KBAM 241555Z AUTO 06010KT 10SM CLR 22/07 A3013 RMK AO1,M
HTH,2023-08-24 15:55,-118.6315,38.5448,1282.89,71.60,48.20,43.42,0.00,0.00,0.00,30.12,M,10.00,M,CLR,M,M,M,M,M,M,M,M,M,M,M,M,M,M,71.60,KHTH 241555Z AUTO 00000KT 10SM CLR 22/09 A3012 RMK A01,M
10U,2023-08-24 15:55,-116.1876,41.9532,1637.00,64.40,48.20,55.63,0.00,0.00,0.00,30.20,M,10.00,M,CLR,M,M,M,M,M,M,M,M,M,M,M,M,M,M,64.40,K10U 241555Z AUTO 00000KT 10SM CLR 18/09 A3020 RMK AO2,M
TMT,2023-08-24 15:55,-117.1971,39.4643,1749.34,62.60,49.00,61.06,210.00,4.00,0.00,30.22,M,M,M,CLR,M,M,M,M,M,M,M,M,M,M,M,M,M,M,62.60,KTMT 241555Z AUTO 21004KT CLR 17/10 A3022 RMK AO2 T01700095 PWINO,M
EKO,2023-08-24 15:56,-115.7860,40.8242,1367.00,64.00,46.00,51.93,30.00,6.00,0.00,30.17,1017.00,10.00,M,FEW,SCT,OVC,M,7000.00,9500.00,11000.00,M,M,M,M,M,M,M,M,64.00,KEKO 241556Z AUTO 03006KT 10SM FEW070 SCT095 OVC110 18/08 A3017 RMK AO2 SLP170 T01780078,M
WMC,2023-08-24 15:56,-117.8072,40.9019,1315.00,70.00,49.00,47.24,60.00,10.00,0.00,30.11,1015.10,10.00,15.00,CLR,M,M,M,M,M,M,M,M,M,M,M,M,M,M,70.00,KWMC 241556Z AUTO 06010G15KT 10SM CLR 21/09 A3011 RMK AO2 SLP151 T02110094,M
NFL,2023-08-24 15:56,-118.7010,39.4166,1199.00,73.00,57.00,57.23,200.00,5.00,0.00,30.08,1015.50,10.00,M,FEW,M,M,M,18000.00,M,M,M,M,M,M,M,M,M,M,73.00,KNFL 241556Z 20005KT 10SM FEW180 23/14 A3008 RMK AO2 SLP155 T02280139,M
HND,2023-08-24 15:56,-115.1344,35.9729,742.79,84.00,61.00,45.96,30.00,5.00,0.00,30.04,1016.00,10.00,M,CLR,M,M,M,M,M,M,M,M,M,M,M,M,M,M,84.32,KHND 241556Z 03005KT 10SM CLR 29/16 A3004 RMK AO2 SLP160 T02890161,M
LAS,2023-08-24 15:56,-115.1634,36.0719,663.00,85.00,61.00,44.50,350.00,3.00,0.00,30.01,1013.80,10.00,M,FEW,FEW,M,M,12000.00,16000.00,M,M,M,M,M,M,M,M,M,85.21,KLAS 241556Z 35003KT 10SM FEW120 FEW160 29/16 A3001 RMK AO2 SLP138 ACC S-W-NW T02940161,M
BVU,2023-08-24 16:15,-114.8611,35.9475,671.00,86.00,59.00,40.14,0.00,0.00,0.00,30.00,M,10.00,M,CLR,M,M,M,M,M,M,M,M,M,M,M,M,M,M,85.47,KBVU 241615Z AUTO 00000KT 10SM CLR 30/15 A3000 RMK AO2,M
CXP,2023-08-24 16:15,-119.7326,39.1923,1431.00,68.00,51.80,56.13,0.00,0.00,0.00,30.15,M,10.00,M,CLR,M,M,M,M,M,M,M,M,M,M,M,M,M,M,68.00,KCXP 241615Z AUTO 00000KT 10SM CLR 20/11 A3015 RMK AO2,M
RTS,2023-08-24 16:15,-119.8764,39.6682,1539.00,68.00,48.20,49.10,160.00,4.00,0.00,30.16,M,10.00,M,CLR,M,M,M,M,M,M,M,M,M,M,M,M,M,M,68.00,KRTS 241615Z AUTO 16004KT 10SM CLR 20/09 A3016 RMK AO2,M
05U,2023-08-24 16:15,-116.0051,39.6042,1811.23,71.60,48.20,43.42,M,M,0.00,30.25,M,10.00,M,M,M,M,M,M,M,M,M,M,M,M,M,M,M,M,71.60,K05U 241615Z AUTO 10SM 22/09 A3025 RMK A01,M
MEV,2023-08-24 16:15,-119.7500,38.9963,1441.42,66.20,51.80,59.74,0.00,0.00,0.00,30.14,M,10.00,M,CLR,M,M,M,M,M,M,M,M,M,M,M,M,M,M,66.20,KMEV 241615Z AUTO 00000KT 10SM CLR 19/11 A3014 RMK AO2,M
BAM,2023-08-24 16:15,-116.8743,40.5990,1382.36,75.20,44.60,33.57,50.00,11.00,0.00,30.13,M,10.00,M,CLR,M,M,M,M,M,M,M,M,M,M,M,M,M,M,75.20,KBAM 241615Z AUTO 05011KT 10SM CLR 24/07 A3013 RMK AO1,M
HTH,2023-08-24 16:15,-118.6315,38.5448,1282.89,73.40,44.60,35.66,0.00,0.00,0.00,30.11,M,10.00,M,CLR,M,M,M,M,M,M,M,M,M,M,M,M,M,M,73.40,KHTH 241615Z AUTO 00000KT 10SM CLR 23/07 A3011 RMK A01,M
10U,2023-08-24 16:15,-116.1876,41.9532,1637.00,68.00,46.40,45.88,0.00,0.00,0.00,30.20,M,10.00,M,CLR,M,M,M,M,M,M,M,M,M,M,M,M,M,M,68.00,K10U 241615Z AUTO 00000KT 10SM CLR 20/08 A3020 RMK AO2,M
TMT,2023-08-24 16:15,-117.1971,39.4643,1749.34,65.30,49.30,56.17,240.00,3.00,0.00,30.22,M,M,M,CLR,M,M,M,M,M,M,M,M,M,M,M,M,M,M,65.30,KTMT 241615Z AUTO 24003KT CLR 19/10 A3022 RMK AO2 T01850096 PWINO,M
05U,2023-08-24 16:30,-116.0051,39.6042,1811.23,73.40,48.20,40.85,M,M,0.00,30.25,M,10.00,M,M,M,M,M,M,M,M,M,M,M,M,M,M,M,M,73.40,K05U 241630Z AUTO 10SM 23/09 A3025 RMK A01,M
BVU,2023-08-24 16:35,-114.8611,35.9475,671.00,87.80,59.00,37.90,0.00,0.00,0.00,30.00,M,10.00,M,CLR,M,M,M,M,M,M,M,M,M,M,M,M,M,M,87.12,KBVU 241635Z AUTO 00000KT 10SM CLR 31/15 A3000 RMK AO2,M
CXP,2023-08-24 16:35,-119.7326,39.1923,1431.00,69.80,50.00,49.37,0.00,0.00,0.00,30.15,M,10.00,M,CLR,M,M,M,M,M,M,M,M,M,M,M,M,M,M,69.80,KCXP 241635Z AUTO 00000KT 10SM CLR 21/10 A3015 RMK AO2,M
RTS,2023-08-24 16:35,-119.8764,39.6682,1539.00,69.80,48.20,46.16,0.00,0.00,0.00,30.16,M,10.00,M,CLR,M,M,M,M,M,M,M,M,M,M,M,M,M,M,69.80,KRTS 241635Z AUTO 00000KT 10SM CLR 21/09 A3016 RMK AO2,M
MEV,2023-08-24 16:35,-119.7500,38.9963,1441.42,68.00,51.80,56.13,0.00,0.00,0.00,30.14,M,10.00,M,CLR,M,M,M,M,M,M,M,M,M,M,M,M,M,M,68.00,KMEV 241635Z AUTO 00000KT 10SM CLR 20/11 A3014 RMK AO2,M
BAM,2023-08-24 16:35,-116.8743,40.5990,1382.36,77.00,44.60,31.62,30.00,11.00,0.00,30.13,M,10.00,M,SCT,M,M,M,12000.00,M,M,M,M,M,M,M,M,M,M,77.00,KBAM 241635Z AUTO 03011KT 10SM SCT120 25/07 A3013 RMK AO1,M
HTH,2023-08-24 16:35,-118.6315,38.5448,1282.89,75.20,44.60,33.57,0.00,0.00,0.00,30.11,M,10.00,M,CLR,M,M,M,M,M,M,M,M,M,M,M,M,M,M,75.20,KHTH 241635Z AUTO 00000KT 10SM CLR 24/07 A3011 RMK A01,M
10U,2023-08-24 16:35,-116.1876,41.9532,1637.00,69.80,46.40,43.13,0.00,0.00,0.00,30.20,M,10.00,M,CLR,M,M,M,M,M,M,M,M,M,M,M,M,M,M,69.80,K10U 241635Z AUTO 00000KT 10SM CLR 21/08 A3020 RMK AO2,M
TMT,2023-08-24 16:35,-117.1971,39.4643,1749.34,67.60,46.40,46.52,0.00,0.00,0.00,30.22,M,M,M,CLR,M,M,M,M,M,M,M,M,M,M,M,M,M,M,67.60,KTMT 241635Z AUTO 00000KT CLR 20/08 A3022 RMK AO2 T01980080 PWINO,M
P68,2023-08-24 16:53,-116.0056,39.6014,1993.00,74.00,49.00,41.26,150.00,14.00,0.00,30.22,1015.30,M,18.00,M,M,M,M,M,M,M,M,M,M,M,M,M,M,M,74.00,KP68 241653Z AUTO 15014G18KT 23/09 A3022 RMK AO1 SLP153 T02330094,M
DRA,2023-08-24 16:53,-116.0278,36.6206,1009.00,86.00,57.00,37.35,100.00,9.00,0.00,30.06,1012.70,10.00,16.00,CLR,M,M,M,M,M,M,M,M,M,M,M,M,M,M,84.92,KDRA 241653Z AUTO 10009G16KT 10SM CLR 30/14 A3006 RMK AO2 SLP127 T03000139,M
ELY,2023-08-24 16:53,-114.8453,39.2950,1909.00,73.00,54.00,51.33,M,4.00,0.00,30.27,1015.60,10.00,M,CLR,M,M,M,M,M,M,M,M,M,M,M,M,M,M,73.00,KELY 241653Z AUTO VRB04KT 10SM CLR 23/12 A3027 RMK AO2 SLP156 T02280122,M
VGT,2023-08-24 16:53,-115.1933,36.2111,667.00,88.00,60.00,39.03,130.00,8.00,0.00,30.00,1014.80,10.00,M,CLR,M,M,M,M,M,M,M,M,M,M,M,M,M,M,87.65,KVGT 241653Z 13008KT 10SM CLR 31/16 A3000 RMK AO2 SLP148 T03110156,M
LOL,2023-08-24 16:53,-118.5701,40.0684,1192.43,72.00,55.00,55.06,80.00,4.00,0.00,30.08,1015.30,10.00,M,CLR,M,M,M,M,M,M,M,M,M,M,M,M,M,M,72.00,KLOL 241653Z AUTO 08004KT 10SM CLR 22/13 A3008 RMK AO2 SLP153 T02220128,M
BVU,2023-08-24 16:55,-114.8611,35.9475,671.00,87.80,59.00,37.90,0.00,0.00,0.00,30.00,M,10.00,M,CLR,M,M,M,M,M,M,M,M,M,M,M,M,M,M,87.12,KBVU 241655Z AUTO 00000KT 10SM CLR 31/15 A3000 RMK AO2,M
CXP,2023-08-24 16:55,-119.7326,39.1923,1431.00,71.60,50.00,46.43,M,4.00,0.00,30.15,M,10.00,M,CLR,M,M,M,M,M,M,M,M,M,M,M,M,M,M,71.60,KCXP 241655Z AUTO VRB04KT 10SM CLR 22/10 A3015 RMK AO2,M
INS,2023-08-24 16:55,-115.6733,36.5872,955.00,86.00,55.00,34.74,100.00,14.00,0.00,30.04,1012.20,10.00,17.00,CLR,M,M,M,M,M,M,M,M,M,M,M,M,M,M,84.46,KINS 241655Z AUTO 10014G17KT 10SM CLR 30/13 A3004 RMK AO2 SLP122 T02990128 $,M
RNO,2023-08-24 16:55,-119.7711,39.4839,1341.00,74.00,50.00,42.82,0.00,0.00,0.00,30.12,1014.50,10.00,M,FEW,M,M,M,6500.00,M,M,M,M,M,M,M,M,M,M,74.00,KRNO 241655Z 00000KT 10SM FEW065 23/10 A3012 RMK AO2 SLP145 T02330100,M
LSV,2023-08-24 16:55,-115.0343,36.2362,570.00,90.50,59.00,34.81,50.00,5.00,0.00,29.96,1011.80,10.00,M,CLR,M,M,M,M,M,M,M,M,M,M,M,M,M,M,89.76,KLSV 241655Z AUTO 05005KT 10SM CLR 33/15 A2996 RMK AO2 SLP118 T03250150 $,M
RTS,2023-08-24 16:55,-119.8764,39.6682,1539.00,71.60,46.40,40.57,170.00,4.00,0.00,30.16,M,10.00,M,CLR,M,M,M,M,M,M,M,M,M,M,M,M,M,M,71.60,KRTS 241655Z AUTO 17004KT 10SM CLR 22/08 A3016 RMK AO2,M
05U,2023-08-24 16:55,-116.0051,39.6042,1811.23,77.00,50.00,38.74,M,M,0.00,30.25,M,10.00,M,M,M,M,M,M,M,M,M,M,M,M,M,M,M,M,77.00,K05U 241655Z AUTO 10SM 25/10 A3025 RMK A01,M
MEV,2023-08-24 16:55,-119.7500,38.9963,1441.42,69.80,51.80,52.77,0.00,0.00,0.00,30.14,M,10.00,M,CLR,M,M,M,M,M,M,M,M,M,M,M,M,M,M,69.80,KMEV 241655Z AUTO 00000KT 10SM CLR 21/11 A3014 RMK AO2,M
HTH,2023-08-24 16:55,-118.6315,38.5448,1282.89,75.20,46.40,35.94,310.00,4.00,0.00,30.11,M,10.00,M,CLR,M,M,M,M,M,M,M,M,M,M,M,M,M,M,75.20,KHTH 241655Z AUTO 31004KT 10SM CLR 24/08 A3011 RMK A01,M
BAM,2023-08-24 16:55,-116.8743,40.5990,1382.36,78.80,46.40,31.90,10.00,10.00,0.00,30.13,M,10.00,M,BKN,M,M,M,12000.00,M,M,M,M,M,M,M,M,M,M,78.80,KBAM 241655Z AUTO 01010KT 10SM BKN120 26/08 A3013 RMK AO1,M
TMT,2023-08-24 16:55,-117.1971,39.4643,1749.34,70.50,48.00,44.73,0.00,0.00,0.00,30.22,M,M,M,CLR,M,M,M,M,M,M,M,M,M,M,M,M,M,M,70.50,KTMT 241655Z AUTO 00000KT CLR 21/09 A3022 RMK AO2 T02140088 PWINO,M
10U,2023-08-24 16:55,-116.1876,41.9532,1637.00,71.60,46.40,40.57,0.00,0.00,0.00,30.20,M,10.00,M,CLR,M,M,M,M,M,M,M,M,M,M,M,M,M,M,71.60,K10U 241655Z AUTO 00000KT 10SM CLR 22/08 A3020 RMK AO2,M
EKO,2023-08-24 16:56,-115.7860,40.8242,1367.00,73.00,47.00,39.58,M,3.00,0.00,30.17,1016.30,10.00,M,CLR,M,M,M,M,M,M,M,M,M,M,M,M,M,M,73.00,KEKO 241656Z AUTO VRB03KT 10SM CLR 23/08 A3017 RMK AO2 SLP163 T02280083,M
WMC,2023-08-24 16:56,-117.8072,40.9019,1315.00,76.00,50.00,40.05,50.00,7.00,0.00,30.10,1015.00,10.00,M,CLR,M,M,M,M,M,M,M,M,M,M,M,M,M,M,76.00,KWMC 241656Z AUTO 05007KT 10SM CLR 24/10 A3010 RMK AO2 SLP150 T02440100,M
NFL,2023-08-24 16:56,-118.7010,39.4166,1199.00,76.00,53.00,44.75,M,3.00,0.00,30.09,1015.50,10.00,M,FEW,FEW,M,M,7000.00,18000.00,M,M,M,M,M,M,M,M,M,76.00,KNFL 241656Z VRB03KT 10SM FEW070 FEW180 24/12 A3009 RMK AO2 SLP155 T02440117,M
HND,2023-08-24 16:56,-115.1344,35.9729,742.79,87.00,62.00,43.25,M,3.00,0.00,30.05,1016.10,10.00,M,CLR,M,M,M,M,M,M,M,M,M,M,M,M,M,M,87.44,KHND 241656Z VRB03KT 10SM CLR 31/17 A3005 RMK AO2 SLP161 T03060167,M
LAS,2023-08-24 16:56,-115.1634,36.0719,663.00,87.00,60.00,40.29,50.00,5.00,0.00,30.01,1013.60,10.00,M,FEW,FEW,M,M,11000.00,16000.00,M,M,M,M,M,M,M,M,M,86.70,KLAS 241656Z 05005KT 10SM FEW110 FEW160 31/16 A3001 RMK AO2 SLP136 ACC DSNT S T03060156,M
05U,2023-08-24 17:10,-116.0051,39.6042,1811.23,77.00,50.00,38.74,M,M,0.00,30.25,M,10.00,M,M,M,M,M,M,M,M,M,M,M,M,M,M,M,M,77.00,K05U 241710Z AUTO 10SM 25/10 A3025 RMK A01,M
BVU,2023-08-24 17:15,-114.8611,35.9475,671.00,89.60,59.00,35.81,110.00,3.00,0.00,30.00,M,10.00,M,CLR,M,M,M,M,M,M,M,M,M,M,M,M,M,M,88.86,KBVU 241715Z AUTO 11003KT 10SM CLR 32/15 A3000 RMK AO2,M
CXP,2023-08-24 17:15,-119.7326,39.1923,1431.00,73.40,50.00,43.69,0.00,0.00,0.00,30.15,M,10.00,M,CLR,M,M,M,M,M,M,M,M,M,M,M,M,M,M,73.40,KCXP 241715Z AUTO 00000KT 10SM CLR 23/10 A3015 RMK AO2,M
RTS,2023-08-24 17:15,-119.8764,39.6682,1539.00,73.40,48.20,40.85,M,5.00,0.00,30.16,M,10.00,M,CLR,M,M,M,M,M,M,M,M,M,M,M,M,M,M,73.40,KRTS 241715Z AUTO VRB05KT 10SM CLR 23/09 A3016 RMK AO2,M
MEV,2023-08-24 17:15,-119.7500,38.9963,1441.42,71.60,51.80,49.64,0.00,0.00,0.00,30.13,M,10.00,M,CLR,M,M,M,M,M,M,M,M,M,M,M,M,M,M,71.60,KMEV 241715Z AUTO 00000KT 10SM CLR 22/11 A3013 RMK AO2,M
HTH,2023-08-24 17:15,-118.6315,38.5448,1282.89,77.00,46.40,33.85,290.00,5.00,0.00,30.11,M,10.00,M,CLR,M,M,M,M,M,M,M,M,M,M,M,M,M,M,77.00,KHTH 241715Z AUTO 29005KT 10SM CLR 25/08 A3011 RMK A01,M
10U,2023-08-24 17:15,-116.1876,41.9532,1637.00,75.20,44.60,33.57,0.00,0.00,0.00,30.19,M,10.00,M,CLR,M,M,M,M,M,M,M,M,M,M,M,M,M,M,75.20,K10U 241715Z AUTO 00000KT 10SM CLR 24/07 A3019 RMK AO2,M
BAM,2023-08-24 17:15,-116.8743,40.5990,1382.36,78.80,46.40,31.90,20.00,9.00,0.00,30.13,M,10.00,M,BKN,M,M,M,12000.00,M,M,M,M,M,M,M,M,M,M,78.80,KBAM 241715Z AUTO 02009KT 10SM BKN120 26/08 A3013 RMK AO1,M
TMT,2023-08-24 17:15,-117.1971,39.4643,1749.34,72.70,45.30,37.49,270.00,5.00,0.00,30.22,M,M,M,CLR,M,M,M,M,M,M,M,M,M,M,M,M,M,M,72.70,KTMT 241715Z AUTO 27005KT CLR 23/07 A3022 RMK AO2 T02260074 PWINO,M
BVU,2023-08-24 17:35,-114.8611,35.9475,671.00,89.60,59.00,35.81,M,4.00,0.00,30.00,M,10.00,M,CLR,M,M,M,M,M,M,M,M,M,M,M,M,M,M,88.86,KBVU 241735Z AUTO VRB04KT 10SM CLR 32/15 A3000 RMK AO2,M
CXP,2023-08-24 17:35,-119.7326,39.1923,1431.00,75.20,50.00,41.14,0.00,0.00,0.00,30.14,M,10.00,M,CLR,M,M,M,M,M,M,M,M,M,M,M,M,M,M,75.20,KCXP 241735Z AUTO 00000KT 10SM CLR 24/10 A3014 RMK AO2,M
RTS,2023-08-24 17:35,-119.8764,39.6682,1539.00,75.20,48.20,38.46,0.00,0.00,0.00,30.16,M,10.00,M,CLR,M,M,M,M,M,M,M,M,M,M,M,M,M,M,75.20,KRTS 241735Z AUTO 00000KT 10SM CLR 24/09 A3016 RMK AO2,M
05U,2023-08-24 17:35,-116.0051,39.6042,1811.23,78.80,48.20,34.13,M,M,0.00,30.25,M,10.00,M,M,M,M,M,M,M,M,M,M,M,M,M,M,M,M,78.80,K05U 241735Z AUTO 10SM 26/09 A3025 RMK A01,M
MEV,2023-08-24 17:35,-119.7500,38.9963,1441.42,73.40,50.00,43.69,M,4.00,0.00,30.12,M,10.00,M,CLR,M,M,M,M,M,M,M,M,M,M,M,M,M,M,73.40,KMEV 241735Z AUTO VRB04KT 10SM CLR 23/10 A3012 RMK AO2,M
HTH,2023-08-24 17:35,-118.6315,38.5448,1282.89,78.80,44.60,29.79,M,6.00,0.00,30.10,M,10.00,M,CLR,M,M,M,M,M,M,M,M,M,M,M,M,M,M,78.80,KHTH 241735Z AUTO VRB06KT 10SM CLR 26/07 A3010 RMK A01,M
10U,2023-08-24 17:35,-116.1876,41.9532,1637.00,77.00,42.80,29.51,0.00,0.00,0.00,30.19,M,10.00,M,CLR,M,M,M,M,M,M,M,M,M,M,M,M,M,M,77.00,K10U 241735Z AUTO 00000KT 10SM CLR 25/06 A3019 RMK AO2,M
BAM,2023-08-24 17:35,-116.8743,40.5990,1382.36,82.40,46.40,28.36,20.00,7.00,0.00,30.13,M,10.00,M,BKN,M,M,M,12000.00,M,M,M,M,M,M,M,M,M,M,80.64,KBAM 241735Z AUTO 02007KT 10SM BKN120 28/08 A3013 RMK AO1,M
TMT,2023-08-24 17:35,-117.1971,39.4643,1749.34,75.20,45.00,34.08,220.00,8.00,0.00,30.22,M,M,M,CLR,M,M,M,M,M,M,M,M,M,M,M,M,M,M,75.20,KTMT 241735Z AUTO 22008KT CLR 24/07 A3022 RMK AO2 T02400073 PWINO,M
ELY,2023-08-24 17:45,-114.8453,39.2950,1909.00,75.00,54.00,47.99,280.00,10.00,0.00,30.26,M,10.00,M,FEW,SCT,BKN,M,5000.00,6000.00,11000.00,M,VCTS,M,M,M,M,M,M,75.00,KELY 241745Z AUTO 28010KT 10SM VCTS FEW050 SCT060 BKN110 24/12 A3026 RMK AO2 T02390122,M
P68,2023-08-24 17:53,-116.0056,39.6014,1993.00,75.00,48.00,38.43,150.00,14.00,0.00,30.22,1015.50,M,M,M,M,M,M,M,M,M,M,M,M,M,M,M,M,M,75.00,KP68 241753Z AUTO 15014KT 24/09 A3022 RMK AO1 SLP155 T02390089 10244 20106 58001,M
DRA,2023-08-24 17:53,-116.0278,36.6206,1009.00,87.00,56.00,34.90,110.00,8.00,0.00,30.05,1012.60,10.00,M,CLR,M,M,M,M,M,M,M,M,M,M,M,M,M,M,85.54,KDRA 241753Z AUTO 11008KT 10SM CLR 31/13 A3005 RMK AO2 SLP126 T03060133 10311 20206 50002,M
ELY,2023-08-24 17:53,-114.8453,39.2950,1909.00,72.00,54.00,53.09,260.00,14.00,0.00,30.26,1015.50,10.00,20.00,FEW,SCT,OVC,M,5000.00,6000.00,10000.00,M,VCTS,M,M,M,M,M,M,72.00,KELY 241753Z AUTO 26014G20KT 10SM VCTS FEW050 SCT060 OVC100 22/12 A3026 RMK AO2 SLP155 T02220122 10250 20106 58002,M
VGT,2023-08-24 17:53,-115.1933,36.2111,667.00,90.00,59.00,35.36,140.00,5.00,0.00,30.00,1014.60,10.00,M,CLR,M,M,M,M,M,M,M,M,M,M,M,M,M,M,89.26,KVGT 241753Z 14005KT 10SM CLR 32/15 A3000 RMK AO2 SLP146 T03220150 10322 20267 50000,M
LOL,2023-08-24 17:53,-118.5701,40.0684,1192.43,76.00,53.00,44.75,M,3.00,0.00,30.08,1015.30,10.00,M,CLR,M,M,M,M,M,M,M,M,M,M,M,M,M,M,76.00,KLOL 241753Z AUTO VRB03KT 10SM CLR 24/12 A3008 RMK AO2 SLP153 T02440117 10250 20094 51003,M
BVU,2023-08-24 17:55,-114.8611,35.9475,671.00,91.40,57.20,31.72,200.00,5.00,0.00,29.99,M,10.00,M,CLR,M,M,M,M,M,M,M,M,M,M,M,M,M,M,90.06,KBVU 241755Z AUTO 20005KT 10SM CLR 33/14 A2999 RMK AO2,M
CXP,2023-08-24 17:55,-119.7326,39.1923,1431.00,77.00,48.20,36.22,0.00,0.00,0.00,30.14,M,10.00,M,CLR,M,M,M,M,M,M,M,M,M,M,M,M,M,M,77.00,KCXP 241755Z AUTO 00000KT 10SM CLR 25/09 A3014 RMK AO2,M
INS,2023-08-24 17:55,-115.6733,36.5872,955.00,87.30,54.70,32.97,110.00,10.00,0.00,30.04,1012.00,10.00,M,CLR,M,M,M,M,M,M,M,M,M,M,M,M,M,M,85.51,KINS 241755Z AUTO 11010KT 10SM CLR 31/13 A3004 RMK AO2 SLP120 T03070126 10307 20220 58001 $,M
RNO,2023-08-24 17:55,-119.7711,39.4839,1341.00,79.00,50.00,36.27,0.00,0.00,0.00,30.11,1013.80,10.00,M,FEW,M,M,M,6500.00,M,M,M,M,M,M,M,M,M,M,79.00,KRNO 241755Z 00000KT 10SM FEW065 26/10 A3011 RMK AO2 SLP138 T02610100 10261 20150 58004,M
LSV,2023-08-24 17:55,-115.0343,36.2362,570.00,94.00,59.00,31.21,90.00,4.00,0.00,29.96,1011.80,10.00,M,CLR,M,M,M,M,M,M,M,M,M,M,M,M,M,M,93.42,KLSV 241755Z AUTO 09004KT 10SM CLR 35/15 A2996 RMK AO2 SLP118 T03450149 10345 20262 50000 $,M
RTS,2023-08-24 17:55,-119.8764,39.6682,1539.00,75.20,46.40,35.94,M,4.00,0.00,30.15,M,10.00,M,CLR,M,M,M,M,M,M,M,M,M,M,M,M,M,M,75.20,KRTS 241755Z AUTO VRB04KT 10SM CLR 24/08 A3015 RMK AO2,M
05U,2023-08-24 17:55,-116.0051,39.6042,1811.23,77.00,48.20,36.22,M,M,0.00,30.25,M,10.00,M,M,M,M,M,M,M,M,M,M,M,M,M,M,M,M,77.00,K05U 241755Z AUTO 10SM 25/09 A3025 RMK A01,M
MEV,2023-08-24 17:55,-119.7500,38.9963,1441.42,75.20,48.20,38.46,M,3.00,0.00,30.12,M,10.00,M,CLR,M,M,M,M,M,M,M,M,M,M,M,M,M,M,75.20,KMEV 241755Z AUTO VRB03KT 10SM CLR 24/09 A3012 RMK AO2,M
HTH,2023-08-24 17:55,-118.6315,38.5448,1282.89,80.60,41.00,24.46,M,3.00,0.00,30.10,M,10.00,M,CLR,M,M,M,M,M,M,M,M,M,M,M,M,M,M,79.20,KHTH 241755Z AUTO VRB03KT 10SM CLR 27/05 A3010 RMK A01,M
10U,2023-08-24 17:55,-116.1876,41.9532,1637.00,78.80,42.80,27.81,360.00,5.00,0.00,30.19,M,10.00,M,CLR,M,M,M,M,M,M,M,M,M,M,M,M,M,M,78.80,K10U 241755Z AUTO 36005KT 10SM CLR 26/06 A3019 RMK AO2,M
EKO,2023-08-24 17:56,-115.7860,40.8242,1367.00,78.00,48.00,34.78,100.00,3.00,0.00,30.17,1016.40,10.00,M,CLR,M,M,M,M,M,M,M,M,M,M,M,M,M,M,78.00,KEKO 241756Z AUTO 10003KT 10SM CLR 26/09 A3017 RMK AO2 SLP164 T02560089 10261 20106 56005,M
WMC,2023-08-24 17:56,-117.8072,40.9019,1315.00,82.00,46.00,28.30,50.00,4.00,0.00,30.09,1014.40,10.00,M,CLR,M,M,M,M,M,M,M,M,M,M,M,M,M,M,80.36,KWMC 241756Z AUTO 05004KT 10SM CLR 28/08 A3009 RMK AO2 SLP144 T02780078 10278 20100 58004,M
NFL,2023-08-24 17:56,-118.7010,39.4166,1199.00,79.00,52.00,39.06,170.00,5.00,0.00,30.09,1015.50,10.00,M,SCT,M,M,M,7000.00,M,M,M,M,M,M,M,M,M,M,79.00,KNFL 241756Z 17005KT 10SM SCT070 26/11 A3009 RMK AO2 SLP155 T02610111 10261 20150 51002,M
HND,2023-08-24 17:56,-115.1344,35.9729,742.79,89.00,61.00,39.18,60.00,4.00,0.00,30.04,1015.90,10.00,M,CLR,M,M,M,M,M,M,M,M,M,M,M,M,M,M,89.01,KHND 241756Z 06004KT 10SM CLR 32/16 A3004 RMK AO2 SLP159 T03170161 10317 20233 58000,M
LAS,2023-08-24 17:56,-115.1634,36.0719,663.00,89.00,60.00,37.82,40.00,4.00,0.00,30.01,1013.50,10.00,M,FEW,FEW,M,M,11000.00,16000.00,M,M,M,M,M,M,M,M,M,88.63,KLAS 241756Z 04004KT 10SM FEW110 FEW160 32/16 A3001 RMK AO2 SLP135 ACC DSNT SW T03170156 10317 20256 50001,M
ELY,2023-08-24 18:07,-114.8453,39.2950,1909.00,67.00,49.00,52.37,250.00,17.00,T,30.26,M,8.00,24.00,FEW,BKN,OVC,M,7000.00,9000.00,11000.00,M,-TSRA,M,M,M,M,M,M,67.00,KELY 241807Z AUTO 25017G24KT 8SM -TSRA FEW070 BKN090 OVC110 19/09 A3026 RMK AO2 RAB01 TSB01 P0000 T01940094,M
05U,2023-08-24 18:10,-116.0051,39.6042,1811.23,78.80,48.20,34.13,M,M,0.00,30.25,M,10.00,M,M,M,M,M,M,M,M,M,M,M,M,M,M,M,M,78.80,K05U 241810Z AUTO 10SM 26/09 A3025 RMK A01,M
BVU,2023-08-24 18:15,-114.8611,35.9475,671.00,91.40,57.20,31.72,150.00,7.00,0.00,29.99,M,10.00,M,CLR,M,M,M,M,M,M,M,M,M,M,M,M,M,M,90.06,KBVU 241815Z AUTO 15007KT 10SM CLR 33/14 A2999 RMK AO2,M
CXP,2023-08-24 18:15,-119.7326,39.1923,1431.00,78.80,39.20,24.19,0.00,0.00,0.00,30.13,M,9.00,M,CLR,M,M,M,M,M,M,M,M,M,M,M,M,M,M,78.80,KCXP 241815Z AUTO 00000KT 9SM CLR 26/04 A3013 RMK AO2,M
RTS,2023-08-24 18:15,-119.8764,39.6682,1539.00,77.00,46.40,33.85,M,3.00,0.00,30.15,M,10.00,M,CLR,M,M,M,M,M,M,M,M,M,M,M,M,M,M,77.00,KRTS 241815Z AUTO VRB03KT 10SM CLR 25/08 A3015 RMK AO2,M
MEV,2023-08-24 18:15,-119.7500,38.9963,1441.42,77.00,48.20,36.22,290.00,5.00,0.00,30.12,M,10.00,M,CLR,M,M,M,M,M,M,M,M,M,M,M,M,M,M,77.00,KMEV 241815Z AUTO 29005KT 10SM CLR 25/09 A3012 RMK AO2,M
BAM,2023-08-24 18:15,-116.8743,40.5990,1382.36,86.00,44.60,23.59,120.00,9.00,0.00,30.12,M,10.00,M,SCT,M,M,M,11000.00,M,M,M,M,M,M,M,M,M,M,83.07,KBAM 241815Z AUTO 12009KT 10SM SCT110 30/07 A3012 RMK AO1,M
HTH,2023-08-24 18:15,-118.6315,38.5448,1282.89,82.40,39.20,21.51,M,5.00,0.00,30.09,M,10.00,M,CLR,M,M,M,M,M,M,M,M,M,M,M,M,M,M,80.21,KHTH 241815Z AUTO VRB05KT 10SM CLR 28/04 A3009 RMK A01,M
10U,2023-08-24 18:15,-116.1876,41.9532,1637.00,80.60,41.00,24.46,0.00,0.00,0.00,30.18,M,10.00,M,CLR,M,M,M,M,M,M,M,M,M,M,M,M,M,M,79.20,K10U 241815Z AUTO 00000KT 10SM CLR 27/05 A3018 RMK AO2,M
TMT,2023-08-24 18:15,-117.1971,39.4643,1749.34,78.30,35.20,21.01,240.00,18.00,0.00,30.21,M,M,22.00,CLR,M,M,M,M,M,M,M,M,M,M,M,M,M,M,78.30,KTMT 241815Z AUTO 24018G22KT CLR 26/02 A3021 RMK AO2 T02570018 PWINO,M
ELY,2023-08-24 18:22,-114.8453,39.2950,1909.00,63.00,52.00,67.29,280.00,17.00,0.01,30.27,M,8.00,M,FEW,OVC,M,M,7000.00,9500.00,M,M,-RA,M,M,M,M,M,M,63.00,KELY 241822Z AUTO 28017KT 8SM -RA FEW070 OVC095 17/11 A3027 RMK AO2 RAB01 TSB01E16 P0001 T01720111,M
ELY,2023-08-24 18:33,-114.8453,39.2950,1909.00,62.00,53.00,72.32,310.00,7.00,0.07,30.26,M,2.00,M,SCT,OVC,M,M,7000.00,9000.00,M,M,RA,M,M,M,M,M,M,62.00,KELY 241833Z AUTO 31007KT 2SM RA SCT070 OVC090 17/12 A3026 RMK AO2 RAB01 TSB01E16 P0007 T01670117,M
BVU,2023-08-24 18:35,-114.8611,35.9475,671.00,91.40,57.20,31.72,260.00,5.00,0.00,29.99,M,10.00,M,CLR,M,M,M,M,M,M,M,M,M,M,M,M,M,M,90.06,KBVU 241835Z AUTO 26005KT 10SM CLR 33/14 A2999 RMK AO2,M
CXP,2023-08-24 18:35,-119.7326,39.1923,1431.00,82.40,30.20,15.03,100.00,3.00,0.00,30.12,M,10.00,M,CLR,M,M,M,M,M,M,M,M,M,M,M,M,M,M,79.97,KCXP 241835Z AUTO 10003KT 10SM CLR 28/M01 A3012 RMK AO2,M
RTS,2023-08-24 18:35,-119.8764,39.6682,1539.00,77.00,44.60,31.62,130.00,6.00,0.00,30.15,M,10.00,M,CLR,M,M,M,M,M,M,M,M,M,M,M,M,M,M,77.00,KRTS 241835Z AUTO 13006KT 10SM CLR 25/07 A3015 RMK AO2,M
05U,2023-08-24 18:35,-116.0051,39.6042,1811.23,82.40,44.60,26.49,M,M,0.00,30.24,M,10.00,M,M,M,M,M,M,M,M,M,M,M,M,M,M,M,M,80.50,K05U 241835Z AUTO 10SM 28/07 A3024 RMK A01,M
MEV,2023-08-24 18:35,-119.7500,38.9963,1441.42,78.80,39.20,24.19,0.00,0.00,0.00,30.11,M,10.00,M,CLR,M,M,M,M,M,M,M,M,M,M,M,M,M,M,78.80,KMEV 241835Z AUTO 00000KT 10SM CLR 26/04 A3011 RMK AO2,M
BAM,2023-08-24 18:35,-116.8743,40.5990,1382.36,87.80,42.80,20.79,100.00,6.00,0.00,30.11,M,10.00,M,SCT,M,M,M,11000.00,M,M,M,M,M,M,M,M,M,M,84.40,KBAM 241835Z AUTO 10006KT 10SM SCT110 31/06 A3011 RMK AO1,M
HTH,2023-08-24 18:35,-118.6315,38.5448,1282.89,82.40,44.60,26.49,340.00,7.00,0.00,30.09,M,10.00,M,CLR,M,M,M,M,M,M,M,M,M,M,M,M,M,M,80.50,KHTH 241835Z AUTO 34007KT 10SM CLR 28/07 A3009 RMK A01,M
10U,2023-08-24 18:35,-116.1876,41.9532,1637.00,80.60,39.20,22.81,0.00,0.00,0.00,30.18,M,10.00,M,CLR,M,M,M,M,M,M,M,M,M,M,M,M,M,M,79.10,K10U 241835Z AUTO 00000KT 10SM CLR 27/04 A3018 RMK AO2,M
TMT,2023-08-24 18:35,-117.1971,39.4643,1749.34,78.40,38.70,24.04,250.00,15.00,0.00,30.22,M,M,20.00,CLR,M,M,M,M,M,M,M,M,M,M,M,M,M,M,78.40,KTMT 241835Z AUTO 25015G20KT CLR 26/04 A3022 RMK AO2 T02580037 PWINO,M
ELY,2023-08-24 18:42,-114.8453,39.2950,1909.00,65.00,57.00,75.30,290.00,7.00,0.09,30.26,M,10.00,M,FEW,OVC,M,M,7000.00,9000.00,M,M,-RA,M,M,M,M,M,M,65.00,KELY 241842Z AUTO 29007KT 10SM -RA FEW070 OVC090 18/14 A3026 RMK AO2 RAB01 TSB01E16 P0009 T01830139,M
05U,2023-08-24 18:50,-116.0051,39.6042,1811.23,82.40,44.60,26.49,M,M,0.00,30.23,M,10.00,M,M,M,M,M,M,M,M,M,M,M,M,M,M,M,M,80.50,K05U 241850Z AUTO 10SM 28/07 A3023 RMK A01,M
P68,2023-08-24 18:53,-116.0056,39.6014,1993.00,80.00,45.00,29.08,150.00,13.00,0.00,30.20,1014.20,M,20.00,M,M,M,M,M,M,M,M,M,M,M,M,M,M,M,79.13,KP68 241853Z AUTO 15013G20KT 27/07 A3020 RMK AO1 SLP142 T02670072,M
DRA,2023-08-24 18:53,-116.0278,36.6206,1009.00,90.00,57.00,32.91,220.00,9.00,0.00,30.04,1012.00,10.00,M,CLR,M,M,M,M,M,M,M,M,M,M,M,M,M,M,88.61,KDRA 241853Z AUTO 22009KT 10SM CLR 32/14 A3004 RMK AO2 SLP120 T03220139,M
ELY,2023-08-24 18:53,-114.8453,39.2950,1909.00,67.00,57.00,70.24,310.00,6.00,0.09,30.25,1016.10,10.00,M,SCT,OVC,M,M,7000.00,9000.00,M,M,M,M,M,M,M,M,M,67.00,KELY 241853Z AUTO 31006KT 10SM SCT070 OVC090 19/14 A3025 RMK AO2 LTG DSNT SE RAB01E50 TSB01E16 SLP161 P0009 T01940139,M
VGT,2023-08-24 18:53,-115.1933,36.2111,667.00,92.00,59.00,33.21,M,5.00,0.00,29.98,1014.00,10.00,M,CLR,M,M,M,M,M,M,M,M,M,M,M,M,M,M,91.30,KVGT 241853Z VRB05KT 10SM CLR 33/15 A2998 RMK AO2 SLP140 T03330150,M
LOL,2023-08-24 18:53,-118.5701,40.0684,1192.43,80.00,49.00,33.81,210.00,9.00,0.00,30.07,1015.00,10.00,M,CLR,M,M,M,M,M,M,M,M,M,M,M,M,M,M,79.46,KLOL 241853Z AUTO 21009KT 10SM CLR 27/09 A3007 RMK AO2 SLP150 T02670094,M
BVU,2023-08-24 18:55,-114.8611,35.9475,671.00,93.20,57.20,29.99,M,4.00,0.00,29.98,M,10.00,M,CLR,M,M,M,M,M,M,M,M,M,M,M,M,M,M,91.91,KBVU 241855Z AUTO VRB04KT 10SM CLR 34/14 A2998 RMK AO2,M
CXP,2023-08-24 18:55,-119.7326,39.1923,1431.00,82.40,33.80,17.38,M,3.00,0.00,30.12,M,10.00,M,CLR,M,M,M,M,M,M,M,M,M,M,M,M,M,M,80.03,KCXP 241855Z AUTO VRB03KT 10SM CLR 28/01 A3012 RMK AO2,M
INS,2023-08-24 18:55,-115.6733,36.5872,955.00,M,M,M,120.00,7.00,0.00,30.03,M,10.00,M,SCT,M,M,M,13000.00,M,M,M,M,M,M,M,M,M,M,M,KINS 241855Z AUTO 12007KT 10SM SCT130 M A3003 RMK AO2 SLPNO ALSTG ESTMD RVRNO VISNO RWY26 $,M
RNO,2023-08-24 18:55,-119.7711,39.4839,1341.00,84.00,44.00,24.58,210.00,5.00,0.00,30.09,1013.10,10.00,M,FEW,M,M,M,7000.00,M,M,M,M,M,M,M,M,M,M,81.54,KRNO 241855Z 21005KT 10SM FEW070 29/07 A3009 RMK AO2 SLP131 T02890067,M
LSV,2023-08-24 18:55,-115.0343,36.2362,570.00,100.40,59.00,25.67,100.00,6.00,0.00,29.94,1011.00,10.00,M,CLR,M,M,M,M,M,M,M,M,M,M,M,M,M,M,100.57,KLSV 241855Z AUTO 10006KT 10SM CLR 38/15 A2994 RMK AO2 SLP110 T03800151 $,M
RTS,2023-08-24 18:55,-119.8764,39.6682,1539.00,78.80,37.40,22.54,100.00,10.00,0.00,30.15,M,10.00,M,CLR,M,M,M,M,M,M,M,M,M,M,M,M,M,M,78.80,KRTS 241855Z AUTO 10010KT 070V140 10SM CLR 26/03 A3015 RMK AO2,M
MEV,2023-08-24 18:55,-119.7500,38.9963,1441.42,80.60,35.60,19.79,0.00,0.00,0.00,30.10,M,10.00,M,CLR,M,M,M,M,M,M,M,M,M,M,M,M,M,M,78.94,KMEV 241855Z AUTO 00000KT 10SM CLR 27/02 A3010 RMK AO2,M
HTH,2023-08-24 18:55,-118.6315,38.5448,1282.89,84.20,39.20,20.29,M,5.00,0.00,30.08,M,10.00,M,CLR,M,M,M,M,M,M,M,M,M,M,M,M,M,M,81.44,KHTH 241855Z AUTO VRB05KT 10SM CLR 29/04 A3008 RMK A01,M
BAM,2023-08-24 18:55,-116.8743,40.5990,1382.36,89.60,39.20,17.09,120.00,11.00,0.00,30.11,M,10.00,17.00,SCT,M,M,M,11000.00,M,M,M,M,M,M,M,M,M,M,85.73,KBAM 241855Z AUTO 12011G17KT 10SM SCT110 32/04 A3011 RMK AO1,M
TMT,2023-08-24 18:55,-117.1971,39.4643,1749.34,79.70,34.00,19.13,210.00,13.00,0.00,30.21,M,M,19.00,CLR,M,M,M,M,M,M,M,M,M,M,M,M,M,M,79.70,KTMT 241855Z AUTO 21013G19KT CLR 27/01 A3021 RMK AO2 T02650012 PWINO,M
10U,2023-08-24 18:55,-116.1876,41.9532,1637.00,82.40,37.40,20.04,M,3.00,0.00,30.18,M,10.00,M,FEW,M,M,M,11000.00,M,M,M,M,M,M,M,M,M,M,80.14,K10U 241855Z AUTO VRB03KT 10SM FEW110 28/03 A3018 RMK AO2,M
EKO,2023-08-24 18:56,-115.7860,40.8242,1367.00,82.00,49.00,31.68,0.00,0.00,0.00,30.15,1015.30,10.00,M,CLR,M,M,M,M,M,M,M,M,M,M,M,M,M,M,80.62,KEKO 241856Z AUTO 00000KT 10SM CLR 28/09 A3015 RMK AO2 SLP153 T02780094,M
WMC,2023-08-24 18:56,-117.8072,40.9019,1315.00,86.00,42.00,21.35,110.00,5.00,0.00,30.08,1013.90,10.00,M,CLR,M,M,M,M,M,M,M,M,M,M,M,M,M,M,82.91,KWMC 241856Z AUTO 11005KT 10SM CLR 30/06 A3008 RMK AO2 SLP139 T03000056,M
NFL,2023-08-24 18:56,-118.7010,39.4166,1199.00,82.00,51.00,34.12,200.00,7.00,0.00,30.08,1015.20,10.00,M,SCT,M,M,M,7000.00,M,M,M,M,M,M,M,M,M,M,80.84,KNFL 241856Z 20007KT 10SM SCT070 28/11 A3008 RMK AO2 SLP152 T02780106,M
HND,2023-08-24 18:56,-115.1344,35.9729,742.79,90.00,61.00,37.97,0.00,0.00,0.00,30.02,1015.30,10.00,M,CLR,M,M,M,M,M,M,M,M,M,M,M,M,M,M,90.03,KHND 241856Z 00000KT 10SM CLR 32/16 A3002 RMK AO2 SLP153 T03220161,M
LAS,2023-08-24 18:56,-115.1634,36.0719,663.00,91.00,60.00,35.51,M,4.00,0.00,29.99,1012.80,10.00,M,FEW,FEW,SCT,M,11000.00,16000.00,23000.00,M,M,M,M,M,M,M,M,90.65,KLAS 241856Z VRB04KT 10SM FEW110 FEW160 SCT230 33/16 A2999 RMK AO2 SLP128 ACC DSNT SW-W T03280156,M
BVU,2023-08-24 19:15,-114.8611,35.9475,671.00,93.20,57.20,29.99,0.00,0.00,0.00,29.97,M,10.00,M,CLR,M,M,M,M,M,M,M,M,M,M,M,M,M,M,91.91,KBVU 241915Z AUTO 00000KT 10SM CLR 34/14 A2997 RMK AO2,M
CXP,2023-08-24 19:15,-119.7326,39.1923,1431.00,84.20,33.80,16.39,0.00,0.00,0.00,30.11,M,9.00,M,CLR,M,M,M,M,M,M,M,M,M,M,M,M,M,M,81.30,KCXP 241915Z AUTO 00000KT 9SM CLR 29/01 A3011 RMK AO2,M
RTS,2023-08-24 19:15,-119.8764,39.6682,1539.00,80.60,32.00,17.14,130.00,7.00,0.00,30.14,M,10.00,M,CLR,M,M,M,M,M,M,M,M,M,M,M,M,M,M,78.82,KRTS 241915Z AUTO 13007KT 100V180 10SM CLR 27/00 A3014 RMK AO2,M
05U,2023-08-24 19:15,-116.0051,39.6042,1811.23,82.40,46.40,28.36,M,M,0.00,30.23,M,10.00,M,M,M,M,M,M,M,M,M,M,M,M,M,M,M,M,80.64,K05U 241915Z AUTO 10SM 28/08 A3023 RMK A01,M
MEV,2023-08-24 19:15,-119.7500,38.9963,1441.42,82.40,35.60,18.67,M,5.00,0.00,30.10,M,5.00,M,CLR,M,M,M,M,M,M,M,HZ,M,M,M,M,M,M,80.08,KMEV 241915Z AUTO VRB05KT 5SM HZ CLR 28/02 A3010 RMK AO2,M
BAM,2023-08-24 19:15,-116.8743,40.5990,1382.36,89.60,37.40,15.92,160.00,5.00,0.00,30.09,M,10.00,M,SCT,M,M,M,11000.00,M,M,M,M,M,M,M,M,M,M,85.67,KBAM 241915Z AUTO 16005KT 10SM SCT110 32/03 A3009 RMK AO1,M
HTH,2023-08-24 19:15,-118.6315,38.5448,1282.89,86.00,33.80,15.48,M,5.00,0.00,30.07,M,10.00,M,CLR,M,M,M,M,M,M,M,M,M,M,M,M,M,M,82.66,KHTH 241915Z AUTO VRB05KT 10SM CLR 30/01 A3007 RMK A01,M
TMT,2023-08-24 19:15,-117.1971,39.4643,1749.34,78.60,35.80,21.30,210.00,12.00,0.00,30.21,M,M,18.00,CLR,M,M,M,M,M,M,M,M,M,M,M,M,M,M,78.60,KTMT 241915Z AUTO 21012G18KT CLR 26/02 A3021 RMK AO2 T02590021 PWINO,M
10U,2023-08-24 19:15,-116.1876,41.9532,1637.00,84.20,35.60,17.61,180.00,8.00,0.00,30.17,M,10.00,M,FEW,FEW,M,M,9000.00,11000.00,M,M,M,M,M,M,M,M,M,81.34,K10U 241915Z AUTO 18008KT 150V210 10SM FEW090 FEW110 29/02 A3017 RMK AO2,M
05U,2023-08-24 19:30,-116.0051,39.6042,1811.23,80.60,44.60,28.08,M,M,0.00,30.22,M,10.00,M,M,M,M,M,M,M,M,M,M,M,M,M,M,M,M,79.42,K05U 241930Z AUTO 10SM 27/07 A3022 RMK A01,M
BVU,2023-08-24 19:35,-114.8611,35.9475,671.00,93.20,57.20,29.99,0.00,0.00,0.00,29.97,M,10.00,12.00,CLR,M,M,M,M,M,M,M,M,M,M,M,M,M,M,91.91,KBVU 241935Z AUTO 00000G12KT 10SM CLR 34/14 A2997 RMK AO2,M
CXP,2023-08-24 19:35,-119.7326,39.1923,1431.00,84.20,30.20,14.18,M,M,0.00,30.11,M,9.00,M,CLR,M,M,M,M,M,M,M,M,M,M,M,M,M,M,81.26,KCXP 241935Z AUTO 9SM CLR 29/M01 A3011 RMK AO2,M
RTS,2023-08-24 19:35,-119.8764,39.6682,1539.00,82.40,30.20,15.03,130.00,11.00,0.00,30.13,M,10.00,M,CLR,M,M,M,M,M,M,M,M,M,M,M,M,M,M,79.97,KRTS 241935Z AUTO 13011KT 10SM CLR 28/M01 A3013 RMK AO2,M
MEV,2023-08-24 19:35,-119.7500,38.9963,1441.42,82.40,37.40,20.04,190.00,4.00,0.00,30.09,M,10.00,M,CLR,M,M,M,M,M,M,M,M,M,M,M,M,M,M,80.14,KMEV 241935Z AUTO 19004KT 10SM CLR 28/03 A3009 RMK AO2,M
HTH,2023-08-24 19:35,-118.6315,38.5448,1282.89,86.00,33.80,15.48,50.00,6.00,0.00,30.07,M,10.00,M,CLR,M,M,M,M,M,M,M,M,M,M,M,M,M,M,82.66,KHTH 241935Z AUTO 05006KT 10SM CLR 30/01 A3007 RMK A01,M
10U,2023-08-24 19:35,-116.1876,41.9532,1637.00,84.20,35.60,17.61,200.00,7.00,0.00,30.17,M,10.00,13.00,FEW,M,M,M,11000.00,M,M,M,M,M,M,M,M,M,M,81.34,K10U 241935Z AUTO 20007G13KT 10SM FEW110 29/02 A3017 RMK AO2,M
BAM,2023-08-24 19:35,-116.8743,40.5990,1382.36,89.60,39.20,17.09,160.00,8.00,0.00,30.10,M,10.00,M,SCT,M,M,M,11000.00,M,M,M,M,M,M,M,M,M,M,85.73,KBAM 241935Z AUTO 16008KT 150V210 10SM SCT110 32/04 A3010 RMK AO1,M
TMT,2023-08-24 19:35,-117.1971,39.4643,1749.34,79.00,35.00,20.37,210.00,12.00,0.00,30.21,M,M,19.00,CLR,M,M,M,M,M,M,M,M,M,M,M,M,M,M,79.00,KTMT 241935Z AUTO 21012G19KT 200V260 CLR 26/02 A3021 RMK AO2 T02610017 PWINO,M
P68,2023-08-24 19:53,-116.0056,39.6014,1993.00,82.00,42.00,24.29,230.00,8.00,0.00,30.19,1013.80,M,19.00,M,M,M,M,M,M,M,M,M,M,M,M,M,M,M,80.09,KP68 241953Z AUTO 23008G19KT 28/06 A3019 RMK AO1 SLP138 T02780056,M
DRA,2023-08-24 19:53,-116.0278,36.6206,1009.00,92.00,56.00,29.81,M,6.00,0.00,30.03,1011.70,10.00,M,CLR,M,M,M,M,M,M,M,M,M,M,M,M,M,M,90.30,KDRA 241953Z AUTO VRB06KT 10SM CLR 33/13 A3003 RMK AO2 SLP117 T03330133,M
ELY,2023-08-24 19:53,-114.8453,39.2950,1909.00,76.00,53.00,44.75,350.00,3.00,0.00,30.24,1014.40,10.00,M,FEW,M,M,M,8000.00,M,M,M,M,M,M,M,M,M,M,76.00,KELY 241953Z AUTO 35003KT 10SM FEW080 24/12 A3024 RMK AO2 LTG DSNT NE SLP144 T02440117,M
VGT,2023-08-24 19:53,-115.1933,36.2111,667.00,94.00,59.00,31.21,140.00,9.00,0.00,29.96,1013.40,10.00,14.00,CLR,M,M,M,M,M,M,M,M,M,M,M,M,M,M,93.42,KVGT 241953Z 14009G14KT 10SM CLR 34/15 A2996 RMK AO2 SLP134 T03440150,M
LOL,2023-08-24 19:53,-118.5701,40.0684,1192.43,83.00,49.00,30.67,M,4.00,0.00,30.06,1014.60,10.00,M,CLR,M,M,M,M,M,M,M,M,M,M,M,M,M,M,81.28,KLOL 241953Z AUTO VRB04KT 10SM CLR 28/09 A3006 RMK AO2 SLP146 T02830094,M
BVU,2023-08-24 19:55,-114.8611,35.9475,671.00,95.00,57.20,28.37,230.00,6.00,0.00,29.97,M,10.00,11.00,CLR,M,M,M,M,M,M,M,M,M,M,M,M,M,M,93.82,KBVU 241955Z AUTO 23006G11KT 10SM CLR 35/14 A2997 RMK AO2,M
CXP,2023-08-24 19:55,-119.7326,39.1923,1431.00,87.80,26.60,10.91,M,5.00,0.00,30.10,M,10.00,13.00,CLR,M,M,M,M,M,M,M,M,M,M,M,M,M,M,83.69,KCXP 241955Z AUTO VRB05G13KT 10SM CLR 31/M03 A3010 RMK AO2,M
INS,2023-08-24 19:55,-115.6733,36.5872,955.00,89.00,54.50,31.01,160.00,6.00,0.00,30.01,1011.10,10.00,M,FEW,M,M,M,12000.00,M,M,M,M,M,M,M,M,M,M,87.00,KINS 241955Z AUTO 16006KT 10SM FEW120 32/13 A3001 RMK AO2 SLP111 T03170125 $,M
RTS,2023-08-24 19:55,-119.8764,39.6682,1539.00,80.60,30.20,15.94,M,6.00,0.00,30.13,M,10.00,14.00,FEW,M,M,M,10000.00,M,M,M,M,M,M,M,M,M,M,78.77,KRTS 241955Z AUTO VRB06G14KT 10SM FEW100 27/M01 A3013 RMK AO2,M
05U,2023-08-24 19:55,-116.0051,39.6042,1811.23,82.40,41.00,23.07,M,M,0.00,30.22,M,10.00,M,M,M,M,M,M,M,M,M,M,M,M,M,M,M,M,80.29,K05U 241955Z AUTO 10SM 28/05 A3022 RMK A01,M
MEV,2023-08-24 19:55,-119.7500,38.9963,1441.42,82.40,33.80,17.38,M,4.00,0.00,30.09,M,7.00,M,FEW,M,M,M,12000.00,M,M,M,M,M,M,M,M,M,M,80.03,KMEV 241955Z AUTO VRB04KT 7SM FEW120 28/01 A3009 RMK AO2,M
HTH,2023-08-24 19:55,-118.6315,38.5448,1282.89,86.00,41.00,20.54,320.00,10.00,0.00,30.06,M,10.00,M,FEW,M,M,M,12000.00,M,M,M,M,M,M,M,M,M,M,82.86,KHTH 241955Z AUTO 32010KT 10SM FEW120 30/05 A3006 RMK A01,M
RNO,2023-08-24 19:55,-119.7711,39.4839,1341.00,87.00,34.00,15.11,140.00,5.00,0.00,30.07,1012.30,10.00,16.00,FEW,M,M,M,8000.00,M,M,M,M,M,M,M,M,M,M,83.45,KRNO 241955Z COR 14005G16KT 10SM FEW080 31/01 A3007 RMK AO2 SLP123 T03060011,M
BAM,2023-08-24 19:55,-116.8743,40.5990,1382.36,87.80,39.20,18.09,160.00,6.00,0.00,30.09,M,10.00,M,BKN,M,M,M,11000.00,M,M,M,M,M,M,M,M,M,M,84.22,KBAM 241955Z AUTO 16006KT 140V200 10SM BKN110 31/04 A3009 RMK AO1,M
TMT,2023-08-24 19:55,-117.1971,39.4643,1749.34,79.50,33.30,18.72,250.00,11.00,0.00,30.21,M,M,18.00,CLR,M,M,M,M,M,M,M,M,M,M,M,M,M,M,79.50,KTMT 241955Z AUTO 25011G18KT CLR 26/01 A3021 RMK AO2 T02640007 PWINO,M
10U,2023-08-24 19:55,-116.1876,41.9532,1637.00,86.00,33.80,15.48,290.00,8.00,0.00,30.17,M,10.00,M,CLR,M,M,M,M,M,M,M,M,M,M,M,M,M,M,82.66,K10U 241955Z AUTO 29008KT 10SM CLR 30/01 A3017 RMK AO2,M
LSV,2023-08-24 19:55,-115.0343,36.2362,570.00,99.30,59.40,26.92,300.00,4.00,0.00,29.92,1010.40,10.00,M,FEW,FEW,FEW,M,14000.00,16000.00,20000.00,M,M,M,M,M,M,M,M,99.50,KLSV 241955Z AUTO 30004KT 10SM FEW140 FEW160 FEW200 37/15 A2992 RMK AO2 SLP104 T03740152 $,M
EKO,2023-08-24 19:56,-115.7860,40.8242,1367.00,80.00,51.00,36.42,300.00,4.00,0.00,30.14,1015.40,10.00,M,OVC,M,M,M,8500.00,M,M,M,M,M,M,M,M,M,M,79.65,KEKO 241956Z AUTO 30004KT 10SM OVC085 27/11 A3014 RMK AO2 SLP154 T02670106,M
WMC,2023-08-24 19:56,-117.8072,40.9019,1315.00,85.00,42.00,22.05,270.00,10.00,0.00,30.07,1013.60,10.00,M,FEW,M,M,M,11000.00,M,M,M,M,M,M,M,M,M,M,82.15,KWMC 241956Z AUTO 27010KT 10SM FEW110 29/06 A3007 RMK AO2 SLP136 T02940056,M
NFL,2023-08-24 19:56,-118.7010,39.4166,1199.00,86.00,47.00,25.83,M,5.00,0.00,30.06,1014.60,10.00,M,SCT,M,M,M,7000.00,M,M,M,M,M,M,M,M,M,M,83.28,KNFL 241956Z VRB05KT 10SM SCT070 30/08 A3006 RMK AO2 SLP146 T03000083,M
HND,2023-08-24 19:56,-115.1344,35.9729,742.79,92.00,59.00,33.21,130.00,7.00,0.00,30.01,1014.90,10.00,M,CLR,M,M,M,M,M,M,M,M,M,M,M,M,M,M,91.30,KHND 241956Z 13007KT 090V150 10SM CLR 33/15 A3001 RMK AO2 SLP149 T03330150,M
LAS,2023-08-24 19:56,-115.1634,36.0719,663.00,92.00,60.00,34.42,0.00,0.00,0.00,29.98,1012.20,10.00,M,FEW,FEW,SCT,M,11000.00,16000.00,23000.00,M,M,M,M,M,M,M,M,91.69,KLAS 241956Z 00000KT 10SM FEW110 FEW160 SCT230 33/16 A2998 RMK AO2 SLP122 ACC DSNT SW-W T03330156,M
05U,2023-08-24 20:10,-116.0051,39.6042,1811.23,80.60,42.80,26.22,M,M,0.00,30.22,M,10.00,M,M,M,M,M,M,M,M,M,M,M,M,M,M,M,M,79.30,K05U 242010Z AUTO 10SM 27/06 A3022 RMK A01,M
BVU,2023-08-24 20:15,-114.8611,35.9475,671.00,93.20,57.20,29.99,200.00,7.00,0.00,29.96,M,10.00,M,CLR,M,M,M,M,M,M,M,M,M,M,M,M,M,M,91.91,KBVU 242015Z AUTO 20007KT 10SM CLR 34/14 A2996 RMK AO2,M
CXP,2023-08-24 20:15,-119.7326,39.1923,1431.00,87.80,28.40,11.74,180.00,11.00,0.00,30.10,M,10.00,23.00,CLR,M,M,M,M,M,M,M,M,M,M,M,M,M,M,83.84,KCXP 242015Z AUTO 18011G23KT 10SM CLR 31/M02 A3010 RMK AO2,M
RTS,2023-08-24 20:15,-119.8764,39.6682,1539.00,82.40,30.20,15.03,140.00,7.00,0.00,30.13,M,10.00,24.00,FEW,M,M,M,10000.00,M,M,M,M,M,M,M,M,M,M,79.97,KRTS 242015Z AUTO 14007G24KT 10SM FEW100 28/M01 A3013 RMK AO2,M
MEV,2023-08-24 20:15,-119.7500,38.9963,1441.42,84.20,35.60,17.61,M,5.00,0.00,30.08,M,8.00,10.00,CLR,M,M,M,M,M,M,M,M,M,M,M,M,M,M,81.34,KMEV 242015Z AUTO VRB05G10KT 8SM CLR 29/02 A3008 RMK AO2,M
HTH,2023-08-24 20:15,-118.6315,38.5448,1282.89,84.20,39.20,20.29,350.00,10.00,0.00,30.06,M,10.00,M,FEW,M,M,M,12000.00,M,M,M,M,M,M,M,M,M,M,81.44,KHTH 242015Z AUTO 35010KT 10SM FEW120 29/04 A3006 RMK A01,M
10U,2023-08-24 20:15,-116.1876,41.9532,1637.00,86.00,33.80,15.48,240.00,7.00,0.00,30.16,M,10.00,14.00,FEW,M,M,M,11000.00,M,M,M,M,M,M,M,M,M,M,82.66,K10U 242015Z AUTO 24007G14KT 10SM FEW110 30/01 A3016 RMK AO2,M
BAM,2023-08-24 20:15,-116.8743,40.5990,1382.36,91.40,39.20,16.15,220.00,12.00,0.00,30.08,M,10.00,15.00,BKN,M,M,M,11000.00,M,M,M,M,M,M,M,M,M,M,87.30,KBAM 242015Z AUTO 22012G15KT 10SM BKN110 33/04 A3008 RMK AO1,M
TMT,2023-08-24 20:15,-117.1971,39.4643,1749.34,80.80,33.40,18.01,260.00,9.00,0.00,30.20,M,M,M,CLR,M,M,M,M,M,M,M,M,M,M,M,M,M,M,78.99,KTMT 242015Z AUTO 26009KT CLR 27/01 A3020 RMK AO2 T02710008 PWINO,M
INS,2023-08-24 20:28,-115.6733,36.5872,955.00,89.60,53.60,29.45,10.00,3.00,0.00,30.01,1011.10,10.00,M,FEW,FEW,FEW,BKN,3200.00,6500.00,8500.00,11000.00,-RA,M,M,M,M,M,M,87.36,KINS 242028Z AUTO 01003KT 10SM -RA FEW032 FEW065 FEW085 BKN110 BKN140 32/12 A3001 RMK AO2 LTG DSNT E RAB28 SLP111 $,M
BVU,2023-08-24 20:35,-114.8611,35.9475,671.00,93.20,57.20,29.99,200.00,6.00,0.00,29.96,M,10.00,M,CLR,M,M,M,M,M,M,M,M,M,M,M,M,M,M,91.91,KBVU 242035Z AUTO 20006KT 10SM CLR 34/14 A2996 RMK AO2,M
CXP,2023-08-24 20:35,-119.7326,39.1923,1431.00,87.80,30.20,12.64,M,6.00,0.00,30.09,M,10.00,15.00,CLR,M,M,M,M,M,M,M,M,M,M,M,M,M,M,84.01,KCXP 242035Z AUTO VRB06G15KT 10SM CLR 31/M01 A3009 RMK AO2,M
RTS,2023-08-24 20:35,-119.8764,39.6682,1539.00,80.60,30.20,15.94,300.00,7.00,0.00,30.12,M,10.00,M,FEW,M,M,M,11000.00,M,M,M,M,M,M,M,M,M,M,78.77,KRTS 242035Z AUTO 30007KT 10SM FEW110 27/M01 A3012 RMK AO2,M
05U,2023-08-24 20:35,-116.0051,39.6042,1811.23,84.20,41.00,21.76,M,M,0.00,30.21,M,10.00,M,M,M,M,M,M,M,M,M,M,M,M,M,M,M,M,81.52,K05U 242035Z AUTO 10SM 29/05 A3021 RMK A01,M
MEV,2023-08-24 20:35,-119.7500,38.9963,1441.42,86.00,39.20,19.15,200.00,13.00,0.00,30.08,M,10.00,20.00,CLR,M,M,M,M,M,M,M,M,M,M,M,M,M,M,82.79,KMEV 242035Z AUTO 20013G20KT 10SM CLR 30/04 A3008 RMK AO2,M
HTH,2023-08-24 20:35,-118.6315,38.5448,1282.89,86.00,35.60,16.63,360.00,6.00,0.00,30.05,M,10.00,13.00,FEW,M,M,M,11000.00,M,M,M,M,M,M,M,M,M,M,82.69,KHTH 242035Z AUTO 36006G13KT 10SM FEW110 30/02 A3005 RMK A01,M
10U,2023-08-24 20:35,-116.1876,41.9532,1637.00,86.00,33.80,15.48,300.00,7.00,0.00,30.16,M,10.00,15.00,SCT,M,M,M,11000.00,M,M,M,M,M,M,M,M,M,M,82.66,K10U 242035Z AUTO 30007G15KT 260V330 10SM SCT110 30/01 A3016 RMK AO2,M
BAM,2023-08-24 20:35,-116.8743,40.5990,1382.36,87.80,37.40,16.86,250.00,5.00,0.00,30.08,M,10.00,M,BKN,M,M,M,11000.00,M,M,M,M,M,M,M,M,M,M,84.16,KBAM 242035Z AUTO 25005KT 10SM BKN110 31/03 A3008 RMK AO1,M
TMT,2023-08-24 20:35,-117.1971,39.4643,1749.34,80.60,32.50,17.49,210.00,6.00,0.00,30.20,M,M,M,CLR,M,M,M,M,M,M,M,M,M,M,M,M,M,M,78.84,KTMT 242035Z AUTO 21006KT CLR 27/00 A3020 RMK AO2 T02700003 PWINO,M
INS,2023-08-24 20:38,-115.6733,36.5872,955.00,89.60,53.60,29.45,0.00,0.00,0.00,30.00,1010.80,10.00,M,BKN,BKN,M,M,11000.00,14000.00,M,M,M,M,M,M,M,M,M,87.36,KINS 242038Z AUTO 00000KT 10SM BKN110 BKN140 32/12 A3000 RMK AO2 RAB28E38 SLP108 $,M
05U,2023-08-24 20:50,-116.0051,39.6042,1811.23,84.20,41.00,21.76,M,M,0.00,30.21,M,10.00,M,M,M,M,M,M,M,M,M,M,M,M,M,M,M,M,81.52,K05U 242050Z AUTO 10SM 29/05 A3021 RMK A01,M
P68,2023-08-24 20:53,-116.0056,39.6014,1993.00,83.00,41.00,22.62,M,M,0.00,30.18,1013.20,M,M,M,M,M,M,M,M,M,M,M,M,M,M,M,M,M,80.69,KP68 242053Z AUTO 28/05 A3018 RMK AO1 SLP132 T02830050 56012,M
DRA,2023-08-24 20:53,-116.0278,36.6206,1009.00,94.00,54.00,26.05,210.00,8.00,0.00,30.01,1010.90,10.00,M,CLR,M,M,M,M,M,M,M,M,M,M,M,M,M,M,91.78,KDRA 242053Z AUTO 21008KT 10SM CLR 34/12 A3001 RMK AO2 SLP109 T03440122 58014,M
ELY,2023-08-24 20:53,-114.8453,39.2950,1909.00,78.00,51.00,38.90,M,4.00,0.00,30.23,1013.70,10.00,M,FEW,M,M,M,9500.00,M,M,M,M,M,M,M,M,M,M,78.00,KELY 242053Z AUTO VRB04KT 10SM FEW095 26/11 A3023 RMK AO2 SLP137 60009 T02560106 58009,M
VGT,2023-08-24 20:53,-115.1933,36.2111,667.00,95.00,59.00,30.26,180.00,5.00,0.00,29.94,1012.40,10.00,M,CLR,M,M,M,M,M,M,M,M,M,M,M,M,M,M,94.51,KVGT 242053Z 18005KT 10SM CLR 35/15 A2994 RMK AO2 SLP124 T03500150 58018,M
LOL,2023-08-24 20:53,-118.5701,40.0684,1192.43,85.00,50.00,29.85,190.00,9.00,0.00,30.05,1014.00,10.00,M,CLR,M,M,M,M,M,M,M,M,M,M,M,M,M,M,82.83,KLOL 242053Z AUTO 19009KT 10SM CLR 29/10 A3005 RMK AO2 SLP140 T02940100 58009,M
BVU,2023-08-24 20:55,-114.8611,35.9475,671.00,93.20,57.20,29.99,190.00,7.00,0.00,29.94,M,10.00,M,CLR,M,M,M,M,M,M,M,M,M,M,M,M,M,M,91.91,KBVU 242055Z AUTO 19007KT 10SM CLR 34/14 A2994 RMK AO2,M
CXP,2023-08-24 20:55,-119.7326,39.1923,1431.00,89.60,32.00,12.84,170.00,9.00,0.00,30.08,M,10.00,14.00,CLR,M,M,M,M,M,M,M,M,M,M,M,M,M,M,85.54,KCXP 242055Z AUTO 17009G14KT 10SM CLR 32/00 A3008 RMK AO2,M
INS,2023-08-24 20:55,-115.6733,36.5872,955.00,89.20,54.70,31.05,120.00,9.00,T,30.00,1010.80,10.00,M,SCT,BKN,BKN,M,8500.00,11000.00,13000.00,M,M,M,M,M,M,M,M,87.23,KINS 242055Z AUTO 12009KT 10SM SCT085 BKN110 BKN130 32/13 A3000 RMK AO2 RAB28E38 SLP108 P0000 60000 T03180126 57013 $,M
RNO,2023-08-24 20:55,-119.7711,39.4839,1341.00,88.00,31.00,12.97,210.00,5.00,0.00,30.06,1011.70,10.00,24.00,SCT,M,M,M,8000.00,M,M,M,M,M,M,M,M,M,M,84.23,KRNO 242055Z 21005G24KT 10SM SCT080 31/M01 A3006 RMK AO2 SLP117 T03111006 56016,M
LSV,2023-08-24 20:55,-115.0343,36.2362,570.00,100.00,59.00,25.98,150.00,5.00,0.00,29.90,1009.80,10.00,M,CLR,M,M,M,M,M,M,M,M,M,M,M,M,M,M,100.11,KLSV 242055Z AUTO 15005KT 10SM CLR 38/15 A2990 RMK AO2 SLP098 T03780149 57018 $,M
RTS,2023-08-24 20:55,-119.8764,39.6682,1539.00,82.40,28.40,13.96,160.00,7.00,0.00,30.12,M,10.00,14.00,SCT,M,M,M,11000.00,M,M,M,M,M,M,M,M,M,M,79.94,KRTS 242055Z AUTO 16007G14KT 100V220 10SM SCT110 28/M02 A3012 RMK AO2,M
MEV,2023-08-24 20:55,-119.7500,38.9963,1441.42,86.00,37.40,17.85,200.00,12.00,0.00,30.07,M,10.00,18.00,FEW,M,M,M,12000.00,M,M,M,M,M,M,M,M,M,M,82.73,KMEV 242055Z AUTO 20012G18KT 10SM FEW120 30/03 A3007 RMK AO2,M
HTH,2023-08-24 20:55,-118.6315,38.5448,1282.89,86.00,35.60,16.63,10.00,6.00,0.00,30.05,M,10.00,M,SCT,M,M,M,11000.00,M,M,M,M,M,M,M,M,M,M,82.69,KHTH 242055Z AUTO 01006KT 10SM SCT110 30/02 A3005 RMK A01,M
BAM,2023-08-24 20:55,-116.8743,40.5990,1382.36,91.40,35.60,14.02,230.00,11.00,0.00,30.08,M,10.00,21.00,BKN,M,M,M,11000.00,M,M,M,M,M,M,M,M,M,M,87.17,KBAM 242055Z AUTO 23011G21KT 10SM BKN110 33/02 A3008 RMK AO1,M
TMT,2023-08-24 20:55,-117.1971,39.4643,1749.34,81.50,33.30,17.54,230.00,7.00,0.00,30.19,M,M,M,CLR,M,M,M,M,M,M,M,M,M,M,M,M,M,M,79.43,KTMT 242055Z AUTO 23007KT CLR 28/01 A3019 RMK AO2 T02750007 PWINO,M
10U,2023-08-24 20:55,-116.1876,41.9532,1637.00,86.00,33.80,15.48,230.00,7.00,0.00,30.15,M,10.00,12.00,SCT,M,M,M,11000.00,M,M,M,M,M,M,M,M,M,M,82.66,K10U 242055Z AUTO 23007G12KT 10SM SCT110 30/01 A3015 RMK AO2,M
EKO,2023-08-24 20:56,-115.7860,40.8242,1367.00,84.00,48.00,28.60,M,4.00,0.00,30.13,1015.10,10.00,M,BKN,BKN,M,M,9500.00,12000.00,M,M,M,M,M,M,M,M,M,81.87,KEKO 242056Z AUTO VRB04KT 10SM BKN095 BKN120 29/09 A3013 RMK AO2 SLP151 T02890089 56011,M
WMC,2023-08-24 20:56,-117.8072,40.9019,1315.00,88.00,37.00,16.49,0.00,0.00,0.00,30.05,1013.10,10.00,M,SCT,M,M,M,11000.00,M,M,M,M,M,M,M,M,M,M,84.32,KWMC 242056Z AUTO 00000KT 10SM SCT110 31/03 A3005 RMK AO2 SLP131 T03110028 57011,M
NFL,2023-08-24 20:56,-118.7010,39.4166,1199.00,88.00,39.00,17.83,M,4.00,0.00,30.04,1014.10,10.00,M,SCT,M,M,M,7000.00,M,M,M,M,M,M,M,M,M,M,84.38,KNFL 242056Z VRB04KT 10SM SCT070 31/04 A3004 RMK AO2 SLP141 T03110039 58014,M
HND,2023-08-24 20:56,-115.1344,35.9729,742.79,95.00,56.00,27.16,150.00,9.00,0.00,29.98,1013.90,10.00,M,CLR,M,M,M,M,M,M,M,M,M,M,M,M,M,M,93.41,KHND 242056Z 15009KT 10SM CLR 35/13 A2998 RMK AO2 LTG DSNT SW SLP139 T03500133 58018,M
LAS,2023-08-24 20:56,-115.1634,36.0719,663.00,94.00,58.00,30.11,130.00,5.00,0.00,29.95,1011.20,10.00,15.00,FEW,FEW,SCT,M,11000.00,16000.00,23000.00,M,M,M,M,M,M,M,M,93.04,KLAS 242056Z 13005G15KT 10SM FEW110 FEW160 SCT230 34/14 A2995 RMK AO2 LTG DSNT SW SLP112 CB DSNT N AND SW-NW T03440144 58020,M
BVU,2023-08-24 21:15,-114.8611,35.9475,671.00,95.00,57.20,28.37,M,6.00,0.00,29.94,M,10.00,13.00,CLR,M,M,M,M,M,M,M,M,M,M,M,M,M,M,93.82,KBVU 242115Z AUTO VRB06G13KT 10SM CLR 35/14 A2994 RMK AO2,M
CXP,2023-08-24 21:15,-119.7326,39.1923,1431.00,89.60,33.80,13.80,180.00,7.00,0.00,30.08,M,10.00,21.00,SCT,M,M,M,12000.00,M,M,M,M,M,M,M,M,M,M,85.59,KCXP 242115Z AUTO 18007G21KT 10SM SCT120 32/01 A3008 RMK AO2,M
RTS,2023-08-24 21:15,-119.8764,39.6682,1539.00,84.20,24.80,11.35,220.00,11.00,0.00,30.11,M,10.00,21.00,SCT,M,M,M,12000.00,M,M,M,M,M,M,M,M,M,M,81.00,KRTS 242115Z AUTO 22011G21KT 10SM SCT120 29/M04 A3011 RMK AO2,M
05U,2023-08-24 21:15,-116.0051,39.6042,1811.23,86.00,42.80,22.02,M,M,0.00,30.20,M,10.00,M,M,M,M,M,M,M,M,M,M,M,M,M,M,M,M,82.95,K05U 242115Z AUTO 10SM 30/06 A3020 RMK A01,M
MEV,2023-08-24 21:15,-119.7500,38.9963,1441.42,86.00,37.40,17.85,220.00,12.00,0.00,30.07,M,10.00,21.00,FEW,M,M,M,12000.00,M,M,M,M,M,M,M,M,M,M,82.73,KMEV 242115Z AUTO 22012G21KT 10SM FEW120 30/03 A3007 RMK AO2,M
HTH,2023-08-24 21:15,-118.6315,38.5448,1282.89,87.80,35.60,15.70,160.00,8.00,0.00,30.04,M,10.00,M,SCT,M,M,M,11000.00,M,M,M,M,M,M,M,M,M,M,84.12,KHTH 242115Z AUTO 16008KT 10SM SCT110 31/02 A3004 RMK A01,M
10U,2023-08-24 21:15,-116.1876,41.9532,1637.00,84.20,33.80,16.39,M,4.00,0.00,30.15,M,10.00,M,BKN,M,M,M,11000.00,M,M,M,M,M,M,M,M,M,M,81.30,K10U 242115Z AUTO VRB04KT 10SM BKN110 29/01 A3015 RMK AO2,M
BAM,2023-08-24 21:15,-116.8743,40.5990,1382.36,91.40,33.80,13.05,240.00,12.00,0.00,30.07,M,10.00,M,SCT,M,M,M,12000.00,M,M,M,M,M,M,M,M,M,M,87.13,KBAM 242115Z AUTO 24012KT 10SM SCT120 33/01 A3007 RMK AO1,M
TMT,2023-08-24 21:15,-117.1971,39.4643,1749.34,83.00,35.40,18.16,210.00,11.00,0.00,30.18,M,M,17.00,CLR,M,M,M,M,M,M,M,M,M,M,M,M,M,M,80.48,KTMT 242115Z AUTO 21011G17KT CLR 28/02 A3018 RMK AO2 T02830019 PWINO,M
LAS,2023-08-24 21:29,-115.1634,36.0719,663.00,95.00,57.00,28.16,110.00,6.00,0.00,29.93,M,10.00,M,FEW,FEW,SCT,M,11000.00,16000.00,23000.00,M,M,M,M,M,M,M,M,93.75,KLAS 242129Z 11006KT 10SM FEW110 FEW160 SCT230 35/14 A2993 RMK AO2 LTG DSNT SW CB DSNT N AND SW-NW T03500139,M
05U,2023-08-24 21:30,-116.0051,39.6042,1811.23,86.00,39.20,19.15,M,M,0.00,30.20,M,10.00,M,M,M,M,M,M,M,M,M,M,M,M,M,M,M,M,82.79,K05U 242130Z AUTO 10SM 30/04 A3020 RMK A01,M
BVU,2023-08-24 21:35,-114.8611,35.9475,671.00,95.00,57.20,28.37,M,3.00,0.00,29.93,M,10.00,10.00,CLR,M,M,M,M,M,M,M,M,M,M,M,M,M,M,93.82,KBVU 242135Z AUTO VRB03G10KT 10SM CLR 35/14 A2993 RMK AO2,M
CXP,2023-08-24 21:35,-119.7326,39.1923,1431.00,89.60,35.60,14.83,200.00,10.00,0.00,30.07,M,10.00,19.00,BKN,M,M,M,11000.00,M,M,M,M,M,M,M,M,M,M,85.62,KCXP 242135Z AUTO 20010G19KT 10SM BKN110 32/02 A3007 RMK AO2,M
RTS,2023-08-24 21:35,-119.8764,39.6682,1539.00,84.20,24.80,11.35,180.00,10.00,0.00,30.10,M,10.00,17.00,FEW,M,M,M,12000.00,M,M,M,M,M,M,M,M,M,M,81.00,KRTS 242135Z AUTO 18010G17KT 10SM FEW120 29/M04 A3010 RMK AO2,M
MEV,2023-08-24 21:35,-119.7500,38.9963,1441.42,86.00,37.40,17.85,220.00,12.00,0.00,30.06,M,10.00,20.00,CLR,M,M,M,M,M,M,M,M,M,M,M,M,M,M,82.73,KMEV 242135Z AUTO 22012G20KT 10SM CLR 30/03 A3006 RMK AO2,M
HTH,2023-08-24 21:35,-118.6315,38.5448,1282.89,87.80,35.60,15.70,210.00,5.00,0.00,30.03,M,10.00,13.00,FEW,M,M,M,11000.00,M,M,M,M,M,M,M,M,M,M,84.12,KHTH 242135Z AUTO 21005G13KT 10SM FEW110 31/02 A3003 RMK A01,M
10U,2023-08-24 21:35,-116.1876,41.9532,1637.00,86.00,35.60,16.63,M,5.00,0.00,30.14,M,10.00,10.00,BKN,M,M,M,11000.00,M,M,M,M,M,M,M,M,M,M,82.69,K10U 242135Z AUTO VRB05G10KT 10SM BKN110 30/02 A3014 RMK AO2,M
BAM,2023-08-24 21:35,-116.8743,40.5990,1382.36,91.40,33.80,13.05,260.00,7.00,0.00,30.07,M,10.00,23.00,CLR,M,M,M,M,M,M,M,M,M,M,M,M,M,M,87.13,KBAM 242135Z AUTO 26007G23KT 10SM CLR 33/01 A3007 RMK AO1,M
TMT,2023-08-24 21:35,-117.1971,39.4643,1749.34,82.20,35.00,18.35,240.00,11.00,0.00,30.18,M,M,18.00,SCT,M,M,M,11000.00,M,M,M,M,M,M,M,M,M,M,79.93,KTMT 242135Z AUTO 24011G18KT SCT110 28/02 A3018 RMK AO2 T02790016 PWINO,M
05U,2023-08-24 21:50,-116.0051,39.6042,1811.23,86.00,39.20,19.15,M,M,0.00,30.19,M,10.00,M,M,M,M,M,M,M,M,M,M,M,M,M,M,M,M,82.79,K05U 242150Z AUTO 10SM 30/04 A3019 RMK A01,M
P68,2023-08-24 21:53,-116.0056,39.6014,1993.00,83.00,39.00,20.93,230.00,9.00,0.00,30.16,1013.00,M,M,M,M,M,M,M,M,M,M,M,M,M,M,M,M,M,80.60,KP68 242153Z AUTO 23009KT 28/04 A3016 RMK AO1 SLP130 T02830039,M
DRA,2023-08-24 21:53,-116.0278,36.6206,1009.00,94.00,54.00,26.05,210.00,14.00,0.00,29.99,1010.20,10.00,18.00,CLR,M,M,M,M,M,M,M,M,M,M,M,M,M,M,91.78,KDRA 242153Z AUTO 21014G18KT 10SM CLR 34/12 A2999 RMK AO2 SLP102 T03440122,M
ELY,2023-08-24 21:53,-114.8453,39.2950,1909.00,78.00,50.00,37.48,320.00,4.00,0.00,30.21,1013.50,10.00,M,FEW,M,M,M,11000.00,M,M,M,M,M,M,M,M,M,M,78.00,KELY 242153Z AUTO 32004KT 10SM FEW110 26/10 A3021 RMK AO2 SLP135 T02560100,M
VGT,2023-08-24 21:53,-115.1933,36.2111,667.00,97.00,59.00,28.46,150.00,8.00,0.00,29.91,1011.60,10.00,M,CLR,M,M,M,M,M,M,M,M,M,M,M,M,M,M,96.72,KVGT 242153Z 15008KT 10SM CLR 36/15 A2991 RMK AO2 LTG DSNT SW AND W SLP116 T03610150,M
LOL,2023-08-24 21:53,-118.5701,40.0684,1192.43,87.00,45.00,23.20,160.00,9.00,0.00,30.03,1013.10,10.00,M,CLR,M,M,M,M,M,M,M,M,M,M,M,M,M,M,83.90,KLOL 242153Z AUTO 16009KT 10SM CLR 31/07 A3003 RMK AO2 SLP131 T03060072,M
BVU,2023-08-24 21:55,-114.8611,35.9475,671.00,95.00,57.20,28.37,210.00,7.00,0.00,29.92,M,10.00,M,CLR,M,M,M,M,M,M,M,M,M,M,M,M,M,M,93.82,KBVU 242155Z AUTO 21007KT 10SM CLR 35/14 A2992 RMK AO2,M
CXP,2023-08-24 21:55,-119.7326,39.1923,1431.00,87.80,33.80,14.61,200.00,12.00,0.00,30.07,M,10.00,18.00,FEW,M,M,M,11000.00,M,M,M,M,M,M,M,M,M,M,84.10,KCXP 242155Z AUTO 20012G18KT 170V230 10SM FEW110 31/01 A3007 RMK AO2,M
INS,2023-08-24 21:55,-115.6733,36.5872,955.00,91.80,53.00,26.89,100.00,11.00,0.00,29.98,1010.10,10.00,M,SCT,M,M,M,10000.00,M,M,M,M,M,M,M,M,M,M,89.33,KINS 242155Z AUTO 10011KT 10SM SCT100 33/12 A2998 RMK AO2 SLP101 T03320116 $,M
RNO,2023-08-24 21:55,-119.7711,39.4839,1341.00,92.00,33.00,12.40,230.00,14.00,0.00,30.03,1010.80,10.00,23.00,SCT,M,M,M,12000.00,M,M,M,M,M,M,M,35.00,220.00,2023-08-24 21:45,87.50,KRNO 242155Z 23014G23KT 10SM SCT120 33/01 A3003 RMK AO2 PK WND 22035/2145 SLP108 T03330006,M
LSV,2023-08-24 21:55,-115.0343,36.2362,570.00,102.00,58.00,23.60,190.00,6.00,0.00,29.87,1008.70,10.00,M,CLR,M,M,M,M,M,M,M,M,M,M,M,M,M,M,101.92,KLSV 242155Z AUTO 19006KT 10SM CLR 39/15 A2987 RMK AO2 SLP087 T03880145 $,M
RTS,2023-08-24 21:55,-119.8764,39.6682,1539.00,84.20,26.60,12.23,250.00,15.00,0.00,30.10,M,10.00,23.00,FEW,M,M,M,12000.00,M,M,M,M,M,M,M,M,M,M,81.13,KRTS 242155Z AUTO 25015G23KT 10SM FEW120 29/M03 A3010 RMK AO2,M
MEV,2023-08-24 21:55,-119.7500,38.9963,1441.42,87.80,37.40,16.86,210.00,12.00,0.00,30.06,M,10.00,17.00,CLR,M,M,M,M,M,M,M,M,M,M,M,M,M,M,84.16,KMEV 242155Z AUTO 21012G17KT 10SM CLR 31/03 A3006 RMK AO2,M
HTH,2023-08-24 21:55,-118.6315,38.5448,1282.89,87.80,35.60,15.70,M,4.00,0.00,30.03,M,10.00,13.00,CLR,M,M,M,M,M,M,M,M,M,M,M,M,M,M,84.12,KHTH 242155Z AUTO VRB04G13KT 10SM CLR 31/02 A3003 RMK A01,M
BAM,2023-08-24 21:55,-116.8743,40.5990,1382.36,91.40,32.00,12.14,230.00,14.00,0.00,30.07,M,10.00,22.00,CLR,M,M,M,M,M,M,M,M,M,M,M,M,M,M,86.91,KBAM 242155Z AUTO 23014G22KT 10SM CLR 33/00 A3007 RMK AO1,M
TMT,2023-08-24 21:55,-117.1971,39.4643,1749.34,80.40,35.80,20.08,210.00,9.00,0.00,30.17,M,M,23.00,SCT,M,M,M,11000.00,M,M,M,M,M,M,M,M,M,M,78.83,KTMT 242155Z AUTO 21009G23KT SCT110 27/02 A3017 RMK AO2 T02690021 PWINO,M
10U,2023-08-24 21:55,-116.1876,41.9532,1637.00,86.00,35.60,16.63,M,4.00,0.00,30.13,M,10.00,10.00,BKN,M,M,M,11000.00,M,M,M,M,M,M,M,M,M,M,82.69,K10U 242155Z AUTO VRB04G10KT 10SM BKN110 30/02 A3013 RMK AO2,M
EKO,2023-08-24 21:56,-115.7860,40.8242,1367.00,86.00,45.00,23.95,230.00,8.00,0.00,30.11,1014.20,10.00,M,OVC,M,M,M,10000.00,M,M,M,M,M,M,M,M,M,M,83.10,KEKO 242156Z AUTO 23008KT 10SM OVC100 30/07 A3011 RMK AO2 SLP142 T03000072,M
WMC,2023-08-24 21:56,-117.8072,40.9019,1315.00,90.00,37.00,15.48,180.00,9.00,0.00,30.04,1012.60,10.00,20.00,FEW,M,M,M,11000.00,M,M,M,M,M,M,M,M,M,M,86.00,KWMC 242156Z AUTO 18009G20KT 10SM FEW110 32/03 A3004 RMK AO2 SLP126 T03220028,M
HND,2023-08-24 21:56,-115.1344,35.9729,742.79,96.00,58.00,28.31,M,5.00,0.00,29.96,1012.90,10.00,15.00,CLR,M,M,M,M,M,M,M,M,M,M,M,M,M,M,95.20,KHND 242156Z VRB05G15KT 10SM CLR 36/14 A2996 RMK AO2 LTG DSNT SW-NW SLP129 T03560144,M
LAS,2023-08-24 21:56,-115.1634,36.0719,663.00,96.00,56.00,26.34,M,5.00,0.00,29.92,1010.30,10.00,M,FEW,FEW,SCT,M,11000.00,16000.00,25000.00,M,M,M,M,M,M,M,M,94.48,KLAS 242156Z VRB05KT 10SM FEW110 FEW160 SCT250 36/13 A2992 RMK AO2 LTG DSNT SW AND W SLP103 CB DSNT ALQDS T03560133,M
NFL,2023-08-24 21:56,-118.7010,39.4166,1199.00,88.00,37.00,16.49,M,5.00,0.00,30.02,1013.40,10.00,M,SCT,M,M,M,7000.00,M,M,M,M,M,M,M,M,M,M,84.32,KNFL 242156Z VRB05KT 10SM SCT070 31/03 A3002 RMK AO2 SLP134 T03110028,M
BVU,2023-08-24 22:15,-114.8611,35.9475,671.00,96.80,55.40,25.15,120.00,7.00,0.00,29.90,M,10.00,M,CLR,M,M,M,M,M,M,M,M,M,M,M,M,M,M,95.14,KBVU 242215Z AUTO 12007KT 070V170 10SM CLR 36/13 A2990 RMK AO2,M
CXP,2023-08-24 22:15,-119.7326,39.1923,1431.00,89.60,35.60,14.83,200.00,10.00,0.00,30.06,M,10.00,M,CLR,M,M,M,M,M,M,M,M,M,M,M,M,M,M,85.62,KCXP 242215Z AUTO 20010KT 170V230 10SM CLR 32/02 A3006 RMK AO2,M
RTS,2023-08-24 22:15,-119.8764,39.6682,1539.00,82.40,28.40,13.96,230.00,9.00,0.00,30.09,M,10.00,22.00,FEW,M,M,M,12000.00,M,M,M,M,M,M,M,M,M,M,79.94,KRTS 242215Z AUTO 23009G22KT 10SM FEW120 28/M02 A3009 RMK AO2,M
05U,2023-08-24 22:15,-116.0051,39.6042,1811.23,84.20,41.00,21.76,M,M,0.00,30.19,M,10.00,M,M,M,M,M,M,M,M,M,M,M,M,M,M,M,M,81.52,K05U 242215Z AUTO 10SM 29/05 A3019 RMK A01,M
MEV,2023-08-24 22:15,-119.7500,38.9963,1441.42,82.40,41.00,23.07,200.00,13.00,0.00,30.06,M,10.00,19.00,CLR,M,M,M,M,M,M,M,M,M,M,M,M,M,M,80.29,KMEV 242215Z AUTO 20013G19KT 10SM CLR 28/05 A3006 RMK AO2,M
HTH,2023-08-24 22:15,-118.6315,38.5448,1282.89,87.80,35.60,15.70,150.00,8.00,0.00,30.02,M,10.00,M,CLR,M,M,M,M,M,M,M,M,M,M,M,M,M,M,84.12,KHTH 242215Z AUTO 15008KT 10SM CLR 31/02 A3002 RMK A01,M
10U,2023-08-24 22:15,-116.1876,41.9532,1637.00,86.00,35.60,16.63,60.00,8.00,0.00,30.12,M,10.00,M,SCT,M,M,M,11000.00,M,M,M,M,M,M,M,M,M,M,82.69,K10U 242215Z AUTO 06008KT 10SM SCT110 30/02 A3012 RMK AO2,M
BAM,2023-08-24 22:15,-116.8743,40.5990,1382.36,91.40,32.00,12.14,220.00,9.00,0.00,30.07,M,10.00,16.00,CLR,M,M,M,M,M,M,M,M,M,M,M,M,M,M,86.91,KBAM 242215Z AUTO 22009G16KT 10SM CLR 33/00 A3007 RMK AO1,M
TMT,2023-08-24 22:15,-117.1971,39.4643,1749.34,81.00,37.80,21.31,210.00,10.00,0.00,30.16,M,M,19.00,BKN,M,M,M,12000.00,M,M,M,M,M,M,M,M,M,M,79.27,KTMT 242215Z AUTO 21010G19KT BKN120 27/03 A3016 RMK AO2 T02730032 PWINO,M
INS,2023-08-24 22:19,-115.6733,36.5872,955.00,91.40,51.80,26.05,120.00,14.00,0.00,29.97,1009.70,10.00,M,FEW,SCT,M,M,11000.00,14000.00,M,M,M,M,M,M,M,M,M,88.69,KINS 242219Z AUTO 12014KT 10SM FEW110 SCT140 33/11 A2997 RMK AO2 WSHFT 07 LTG DSNT SE SLP097 $,M
05U,2023-08-24 22:30,-116.0051,39.6042,1811.23,84.20,39.20,20.29,M,M,0.00,30.19,M,10.00,M,M,M,M,M,M,M,M,M,M,M,M,M,M,M,M,81.44,K05U 242230Z AUTO 10SM 29/04 A3019 RMK A01,M
BVU,2023-08-24 22:35,-114.8611,35.9475,671.00,96.80,55.40,25.15,0.00,0.00,0.00,29.89,M,10.00,M,CLR,M,M,M,M,M,M,M,M,M,M,M,M,M,M,95.14,KBVU 242235Z AUTO 00000KT 10SM CLR 36/13 A2989 RMK AO2 LTG DSNT SW AND NW,M
CXP,2023-08-24 22:35,-119.7326,39.1923,1431.00,86.00,33.80,15.48,190.00,10.00,0.00,30.06,M,10.00,17.00,FEW,M,M,M,12000.00,M,M,M,M,M,M,M,M,M,M,82.66,KCXP 242235Z AUTO 19010G17KT 10SM FEW120 30/01 A3006 RMK AO2,M
RTS,2023-08-24 22:35,-119.8764,39.6682,1539.00,84.20,28.40,13.18,210.00,10.00,0.00,30.09,M,10.00,17.00,FEW,M,M,M,12000.00,M,M,M,M,M,M,M,M,M,M,81.25,KRTS 242235Z AUTO 21010G17KT 10SM FEW120 29/M02 A3009 RMK AO2,M
MEV,2023-08-24 22:35,-119.7500,38.9963,1441.42,80.60,42.80,26.22,200.00,14.00,0.00,30.06,M,10.00,M,SCT,M,M,M,12000.00,M,M,M,M,M,M,M,M,M,M,79.30,KMEV 242235Z AUTO 20014KT 10SM SCT120 27/06 A3006 RMK AO2,M
HTH,2023-08-24 22:35,-118.6315,38.5448,1282.89,87.80,35.60,15.70,170.00,7.00,0.00,30.01,M,10.00,13.00,SCT,M,M,M,12000.00,M,M,M,M,M,M,M,M,M,M,84.12,KHTH 242235Z AUTO 17007G13KT 10SM SCT120 31/02 A3001 RMK A01,M
10U,2023-08-24 22:35,-116.1876,41.9532,1637.00,87.80,35.60,15.70,M,4.00,0.00,30.12,M,10.00,13.00,BKN,M,M,M,11000.00,M,M,M,M,M,M,M,M,M,M,84.12,K10U 242235Z AUTO VRB04G13KT 10SM BKN110 31/02 A3012 RMK AO2,M
BAM,2023-08-24 22:35,-116.8743,40.5990,1382.36,91.40,32.00,12.14,260.00,11.00,0.00,30.06,M,10.00,19.00,CLR,M,M,M,M,M,M,M,M,M,M,M,M,M,M,86.91,KBAM 242235Z AUTO 26011G19KT 10SM CLR 33/00 A3006 RMK AO1,M
TMT,2023-08-24 22:35,-117.1971,39.4643,1749.34,81.30,40.00,23.00,210.00,8.00,0.00,30.16,M,M,18.00,BKN,M,M,M,12000.00,M,M,M,M,M,M,M,M,M,M,79.55,KTMT 242235Z AUTO 21008G18KT BKN120 27/05 A3016 RMK AO2 LTG DSNT S T02740045 PWINO,M
HND,2023-08-24 22:40,-115.1344,35.9729,742.79,95.00,57.20,28.37,M,6.00,0.00,29.95,M,10.00,M,CLR,M,M,M,M,M,M,M,VCTS,M,M,M,M,M,M,93.82,KHND 242240Z VRB06KT 10SM VCTS CLR 35/14 A2995 RMK AO2 LTG DSNT S-NW TSB34,M
VGT,2023-08-24 22:43,-115.1933,36.2111,667.00,97.00,56.00,25.55,160.00,7.00,0.00,29.90,M,10.00,M,CLR,M,M,M,M,M,M,M,VCTS,M,M,M,M,M,M,95.56,KVGT 242243Z 16007KT 10SM VCTS CLR 36/13 A2990 RMK AO2 LTG DSNT S-NW T03610133,M
P68,2023-08-24 22:53,-116.0056,39.6014,1993.00,82.00,39.00,21.62,180.00,9.00,0.00,30.15,1012.70,M,M,M,M,M,M,M,M,M,M,M,M,M,M,M,M,M,79.94,KP68 242253Z AUTO 18009KT 28/04 A3015 RMK AO1 SLP127 T02780039,M
DRA,2023-08-24 22:53,-116.0278,36.6206,1009.00,95.00,53.00,24.35,220.00,12.00,0.00,29.97,1009.60,10.00,18.00,FEW,M,M,M,9000.00,M,M,M,M,M,M,M,M,M,M,92.55,KDRA 242253Z AUTO 22012G18KT 10SM FEW090 35/12 A2997 RMK AO2 SLP096 T03500117,M
ELY,2023-08-24 22:53,-114.8453,39.2950,1909.00,78.00,49.00,36.11,0.00,0.00,0.00,30.20,1013.20,10.00,M,FEW,M,M,M,12000.00,M,M,M,M,M,M,M,M,M,M,78.00,KELY 242253Z AUTO 00000KT 10SM FEW120 26/09 A3020 RMK AO2 SLP132 T02560094,M
VGT,2023-08-24 22:53,-115.1933,36.2111,667.00,97.00,56.00,25.55,100.00,5.00,0.00,29.90,1011.10,10.00,M,CLR,M,M,M,M,M,M,M,VCTS,M,M,M,M,M,M,95.56,KVGT 242253Z 10005KT 10SM VCTS CLR 36/13 A2990 RMK AO2 LTG DSNT S-NW SLP111 T03610133,M
LOL,2023-08-24 22:53,-118.5701,40.0684,1192.43,89.00,35.00,14.76,190.00,9.00,0.00,30.00,1012.30,10.00,M,CLR,M,M,M,M,M,M,M,M,M,M,M,M,M,M,85.10,KLOL 242253Z AUTO 19009KT 10SM CLR 32/02 A3000 RMK AO2 SLP123 T03170017,M
BVU,2023-08-24 22:55,-114.8611,35.9475,671.00,96.80,55.40,25.15,M,6.00,0.00,29.90,M,10.00,M,CLR,M,M,M,M,M,M,M,M,M,M,M,M,M,M,95.14,KBVU 242255Z AUTO VRB06KT 10SM CLR 36/13 A2990 RMK AO2 LTG DSNT SW,M
CXP,2023-08-24 22:55,-119.7326,39.1923,1431.00,84.20,35.60,17.61,200.00,10.00,0.00,30.06,M,10.00,19.00,BKN,M,M,M,11000.00,M,M,M,M,M,M,M,M,M,M,81.34,KCXP 242255Z AUTO 20010G19KT 10SM BKN110 29/02 A3006 RMK AO2,M
INS,2023-08-24 22:55,-115.6733,36.5872,955.00,89.60,52.00,27.77,110.00,14.00,0.00,29.97,1009.90,10.00,M,BKN,BKN,M,M,11000.00,14000.00,M,M,M,M,M,M,M,M,M,87.03,KINS 242255Z AUTO 11014KT 10SM BKN110 BKN140 32/11 A2997 RMK AO2 LTG DSNT SE SLP099 T03200112 $,M
RNO,2023-08-24 22:55,-119.7711,39.4839,1341.00,89.00,35.00,14.76,190.00,6.00,0.00,30.01,1010.40,10.00,17.00,BKN,M,M,M,12000.00,M,M,M,M,M,M,M,M,M,M,85.10,KRNO 242255Z 19006G17KT 10SM BKN120 32/02 A3001 RMK AO2 SLP104 T03170017,M
LSV,2023-08-24 22:55,-115.0343,36.2362,570.00,99.30,58.30,25.88,200.00,4.00,0.00,29.85,1008.10,10.00,M,CLR,M,M,M,M,M,M,M,M,M,M,M,M,M,M,99.00,KLSV 242255Z AUTO 20004KT 10SM CLR 37/15 A2985 RMK AO2 LTG DSNT NW SLP081 T03740146 $,M
RTS,2023-08-24 22:55,-119.8764,39.6682,1539.00,84.20,30.20,14.18,M,6.00,0.00,30.08,M,10.00,15.00,SCT,M,M,M,11000.00,M,M,M,M,M,M,M,M,M,M,81.26,KRTS 242255Z AUTO VRB06G15KT 10SM SCT110 29/M01 A3008 RMK AO2,M
05U,2023-08-24 22:55,-116.0051,39.6042,1811.23,86.00,39.20,19.15,M,M,0.00,30.18,M,10.00,M,M,M,M,M,M,M,M,M,M,M,M,M,M,M,M,82.79,K05U 242255Z AUTO 10SM 30/04 A3018 RMK A01,M
MEV,2023-08-24 22:55,-119.7500,38.9963,1441.42,80.60,41.00,24.46,210.00,16.00,0.00,30.05,M,10.00,M,BKN,M,M,M,12000.00,M,M,M,M,M,M,M,M,M,M,79.20,KMEV 242255Z AUTO 21016KT 10SM BKN120 27/05 A3005 RMK AO2,M
HTH,2023-08-24 22:55,-118.6315,38.5448,1282.89,87.80,37.40,16.86,130.00,5.00,0.00,30.01,M,10.00,14.00,BKN,M,M,M,11000.00,M,M,M,M,M,M,M,M,M,M,84.16,KHTH 242255Z AUTO 13005G14KT 10SM BKN110 31/03 A3001 RMK A01,M
BAM,2023-08-24 22:55,-116.8743,40.5990,1382.36,91.40,32.00,12.14,200.00,8.00,0.00,30.06,M,10.00,19.00,CLR,M,M,M,M,M,M,M,M,M,M,M,M,M,M,86.91,KBAM 242255Z AUTO 20008G19KT 150V220 10SM CLR 33/00 A3006 RMK AO1,M
TMT,2023-08-24 22:55,-117.1971,39.4643,1749.34,82.40,40.00,22.19,190.00,7.00,0.00,30.15,M,M,M,BKN,M,M,M,12000.00,M,M,M,M,M,M,M,M,M,M,80.24,KTMT 242255Z AUTO 19007KT BKN120 28/04 A3015 RMK AO2 T02800044 PWINO,M
10U,2023-08-24 22:55,-116.1876,41.9532,1637.00,86.00,33.80,15.48,M,5.00,0.00,30.12,M,10.00,11.00,BKN,M,M,M,11000.00,M,M,M,M,M,M,M,M,M,M,82.66,K10U 242255Z AUTO VRB05G11KT 10SM BKN110 30/01 A3012 RMK AO2,M
EKO,2023-08-24 22:56,-115.7860,40.8242,1367.00,87.00,44.00,22.33,280.00,5.00,0.00,30.09,1013.80,10.00,M,CLR,M,M,M,M,M,M,M,M,M,M,M,M,M,M,83.82,KEKO 242256Z AUTO 28005KT 10SM CLR 31/07 A3009 RMK AO2 SLP138 T03060067,M
WMC,2023-08-24 22:56,-117.8072,40.9019,1315.00,91.00,34.00,13.32,M,6.00,0.00,30.02,1012.00,10.00,M,CLR,M,M,M,M,M,M,M,M,M,M,M,M,M,M,86.79,KWMC 242256Z AUTO VRB06KT 10SM CLR 33/01 A3002 RMK AO2 SLP120 T03280011,M
NFL,2023-08-24 22:56,-118.7010,39.4166,1199.00,90.00,38.00,16.10,M,5.00,0.00,29.99,1012.70,10.00,M,SCT,SCT,M,M,7000.00,12000.00,M,M,M,M,M,M,M,M,M,86.03,KNFL 242256Z VRB05KT 10SM SCT070 SCT120 32/03 A2999 RMK AO2 SLP127 T03220033,M
HND,2023-08-24 22:56,-115.1344,35.9729,742.79,95.00,58.00,29.20,190.00,14.00,0.00,29.95,1012.80,10.00,22.00,CLR,M,M,M,M,M,M,M,M,M,M,M,M,M,M,94.11,KHND 242256Z 19014G22KT 10SM CLR 35/14 A2995 RMK AO2 LTG DSNT S-NW TSB34E49 SLP128 T03500144,M
LAS,2023-08-24 22:56,-115.1634,36.0719,663.00,96.00,55.00,25.40,60.00,5.00,0.00,29.91,1010.00,10.00,M,FEW,SCT,BKN,M,11000.00,16000.00,22000.00,M,M,M,M,M,M,M,M,94.16,KLAS 242256Z 06005KT 10SM FEW110 SCT160 BKN220 36/13 A2991 RMK AO2 LTG DSNT S-NW SLP100 CB DSNT S-W-N T03560128,M
VGT,2023-08-24 23:04,-115.1933,36.2111,667.00,97.00,57.00,26.49,130.00,5.00,0.00,29.90,M,10.00,M,CLR,M,M,M,M,M,M,M,M,M,M,M,M,M,M,95.92,KVGT 242304Z 13005KT 10SM CLR 36/14 A2990 RMK AO2 LTG DSNT N AND S AND NW T03610139,M
LAS,2023-08-24 23:09,-115.1634,36.0719,663.00,95.00,55.00,26.19,90.00,5.00,0.00,29.91,M,10.00,M,FEW,SCT,BKN,M,11000.00,16000.00,22000.00,M,TS,M,M,M,M,M,M,93.10,KLAS 242309Z 09005KT 10SM TS FEW110CB SCT160 BKN220 35/13 A2991 RMK AO2 LTG DSNT N AND S AND NW TSE06B09 OCNL LTGICCG S-W-NW TS S-W-NW MOV N T03500128,M
05U,2023-08-24 23:10,-116.0051,39.6042,1811.23,82.40,39.20,21.51,M,M,0.00,30.18,M,10.00,M,M,M,M,M,M,M,M,M,M,M,M,M,M,M,M,80.21,K05U 242310Z AUTO 10SM 28/04 A3018 RMK A01,M
HND,2023-08-24 23:12,-115.1344,35.9729,742.79,91.40,60.80,36.08,200.00,17.00,0.00,29.96,M,10.00,23.00,CLR,M,M,M,M,M,M,M,TS,M,M,M,29.00,200.00,2023-08-24 23:01,91.40,KHND 242312Z 20017G23KT 10SM TS CLR 33/16 A2996 RMK AO2 PK WND 20029/2301 LTG DSNT S AND SW TSB06,M
BVU,2023-08-24 23:15,-114.8611,35.9475,671.00,96.80,55.40,25.15,150.00,7.00,0.00,29.90,M,10.00,M,CLR,M,M,M,M,M,M,M,VCTS,M,M,M,M,M,M,95.14,KBVU 242315Z AUTO 15007KT 110V170 10SM VCTS CLR 36/13 A2990 RMK AO2 LTG DSNT SW AND W,M
CXP,2023-08-24 23:15,-119.7326,39.1923,1431.00,84.20,37.40,18.91,180.00,10.00,0.00,30.06,M,10.00,17.00,OVC,M,M,M,11000.00,M,M,M,M,M,M,M,M,M,M,81.38,KCXP 242315Z AUTO 18010G17KT 10SM OVC110 29/03 A3006 RMK AO2,M
RTS,2023-08-24 23:15,-119.8764,39.6682,1539.00,84.20,30.20,14.18,200.00,10.00,0.00,30.08,M,10.00,19.00,SCT,M,M,M,11000.00,M,M,M,M,M,M,M,M,M,M,81.26,KRTS 242315Z AUTO 20010G19KT 10SM SCT110 29/M01 A3008 RMK AO2,M
MEV,2023-08-24 23:15,-119.7500,38.9963,1441.42,80.60,44.60,28.08,200.00,10.00,0.00,30.05,M,10.00,M,BKN,M,M,M,11000.00,M,M,M,M,M,M,M,M,M,M,79.42,KMEV 242315Z AUTO 20010KT 10SM BKN110 27/07 A3005 RMK AO2,M
HTH,2023-08-24 23:15,-118.6315,38.5448,1282.89,87.80,37.40,16.86,M,6.00,0.00,30.01,M,10.00,M,BKN,M,M,M,11000.00,M,M,M,M,M,M,M,M,M,M,84.16,KHTH 242315Z AUTO VRB06KT 10SM BKN110 31/03 A3001 RMK A01,M
10U,2023-08-24 23:15,-116.1876,41.9532,1637.00,86.00,32.00,14.40,190.00,6.00,0.00,30.12,M,10.00,M,FEW,M,M,M,11000.00,M,M,M,M,M,M,M,M,M,M,82.64,K10U 242315Z AUTO 19006KT 10SM FEW110 30/00 A3012 RMK AO2,M
BAM,2023-08-24 23:15,-116.8743,40.5990,1382.36,91.40,32.00,12.14,240.00,15.00,0.00,30.05,M,10.00,22.00,CLR,M,M,M,M,M,M,M,M,M,M,M,M,M,M,86.91,KBAM 242315Z AUTO 24015G22KT 10SM CLR 33/00 A3005 RMK AO1,M
TMT,2023-08-24 23:15,-117.1971,39.4643,1749.34,82.40,40.00,22.19,200.00,12.00,0.00,30.15,M,M,15.00,SCT,M,M,M,12000.00,M,M,M,M,M,M,M,M,M,M,80.24,KTMT 242315Z AUTO 20012G15KT SCT120 28/05 A3015 RMK AO2 T02800045 PWINO,M
VGT,2023-08-24 23:32,-115.1933,36.2111,667.00,96.00,57.00,27.31,0.00,0.00,0.00,29.90,M,10.00,M,CLR,M,M,M,M,M,M,M,VCTS,M,M,M,M,M,M,94.83,KVGT 242332Z 00000KT 10SM VCTS CLR 36/14 A2990 RMK AO2 LTG DSNT N AND S AND SW T03560139,M
LAS,2023-08-24 23:34,-115.1634,36.0719,663.00,89.00,62.00,40.59,190.00,15.00,T,29.92,M,10.00,26.00,FEW,SCT,BKN,M,11000.00,16000.00,22000.00,M,-TSRA,M,M,M,27.00,180.00,2023-08-24 23:18,89.43,KLAS 242334Z 19015G26KT 10SM -TSRA FEW110CB SCT160 BKN220 32/17 A2992 RMK AO2 PK WND 18027/2318 WSHFT 2314 LTG DSNT SW RAB33 TSE06B09 OCNL LTGICCG S-W-NW TS S-W-NW MOV N P0000 T03170167,M
BVU,2023-08-24 23:35,-114.8611,35.9475,671.00,95.00,55.40,26.58,150.00,5.00,0.00,29.90,M,10.00,M,CLR,M,M,M,M,M,M,M,M,M,M,M,M,M,M,93.22,KBVU 242335Z AUTO 15005KT 10SM CLR 35/13 A2990 RMK AO2,M
CXP,2023-08-24 23:35,-119.7326,39.1923,1431.00,82.40,39.20,21.51,190.00,9.00,0.00,30.07,M,10.00,15.00,OVC,M,M,M,11000.00,M,M,M,M,M,M,M,M,M,M,80.21,KCXP 242335Z AUTO 19009G15KT 10SM OVC110 28/04 A3007 RMK AO2,M
RTS,2023-08-24 23:35,-119.8764,39.6682,1539.00,82.40,32.00,16.17,190.00,10.00,0.00,30.07,M,9.00,21.00,BKN,M,M,M,11000.00,M,M,M,M,M,M,M,M,M,M,80.00,KRTS 242335Z AUTO 19010G21KT 9SM BKN110 28/M00 A3007 RMK AO2,M
05U,2023-08-24 23:35,-116.0051,39.6042,1811.23,82.40,39.20,21.51,M,M,0.00,30.18,M,10.00,M,M,M,M,M,M,M,M,M,M,M,M,M,M,M,M,80.21,K05U 242335Z AUTO 10SM 28/04 A3018 RMK A01,M
MEV,2023-08-24 23:35,-119.7500,38.9963,1441.42,80.60,44.60,28.08,200.00,9.00,0.00,30.05,M,10.00,M,BKN,M,M,M,12000.00,M,M,M,M,M,M,M,M,M,M,79.42,KMEV 242335Z AUTO 20009KT 10SM BKN120 27/07 A3005 RMK AO2,M
HTH,2023-08-24 23:35,-118.6315,38.5448,1282.89,87.80,41.00,19.40,270.00,14.00,0.00,30.00,M,10.00,20.00,SCT,M,M,M,11000.00,M,M,M,M,M,M,M,M,M,M,84.30,KHTH 242335Z AUTO 27014G20KT 10SM SCT110 31/05 A3000 RMK A01,M
10U,2023-08-24 23:35,-116.1876,41.9532,1637.00,84.20,32.00,15.25,140.00,7.00,0.00,30.11,M,10.00,M,CLR,M,M,M,M,M,M,M,M,M,M,M,M,M,M,81.28,K10U 242335Z AUTO 14007KT 10SM CLR 29/00 A3011 RMK AO2,M
BAM,2023-08-24 23:35,-116.8743,40.5990,1382.36,91.40,30.20,11.28,220.00,15.00,0.00,30.05,M,10.00,19.00,CLR,M,M,M,M,M,M,M,M,M,M,M,M,M,M,86.71,KBAM 242335Z AUTO 22015G19KT 10SM CLR 33/M01 A3005 RMK AO1,M
TMT,2023-08-24 23:35,-117.1971,39.4643,1749.34,82.60,39.40,21.54,210.00,9.00,0.00,30.15,M,M,16.00,CLR,M,M,M,M,M,M,M,M,M,M,M,M,M,M,80.35,KTMT 242335Z AUTO 21009G16KT CLR 28/04 A3015 RMK AO2 T02810041 PWINO,M
VGT,2023-08-24 23:48,-115.1933,36.2111,667.00,95.00,59.00,30.26,220.00,17.00,0.00,29.90,M,10.00,23.00,FEW,M,M,M,10000.00,M,M,M,TS,M,M,M,M,M,M,94.51,KVGT 242348Z 22017G23KT 10SM TS FEW100 35/15 A2990 RMK AO2 LTG DSNT N TSB42,M
05U,2023-08-24 23:50,-116.0051,39.6042,1811.23,82.40,39.20,21.51,M,M,0.00,30.18,M,10.00,M,M,M,M,M,M,M,M,M,M,M,M,M,M,M,M,80.21,K05U 242350Z AUTO 10SM 28/04 A3018 RMK A01,M
P68,2023-08-24 23:53,-116.0056,39.6014,1993.00,81.00,40.00,23.22,180.00,12.00,0.00,30.15,1012.80,M,M,M,M,M,M,M,M,M,M,M,M,M,M,M,M,M,79.38,KP68 242353Z AUTO 18012KT 27/04 A3015 RMK AO1 SLP128 T02720044 10289 20239 56008,M
DRA,2023-08-24 23:53,-116.0278,36.6206,1009.00,96.00,52.00,22.76,170.00,8.00,0.00,29.97,1009.50,10.00,15.00,BKN,M,M,M,9500.00,M,M,M,M,M,M,M,M,M,M,93.34,KDRA 242353Z AUTO 17008G15KT 10SM BKN095 36/11 A2997 RMK AO2 SLP095 T03560111 10356 20306 56012,M
ELY,2023-08-24 23:53,-114.8453,39.2950,1909.00,79.00,44.00,28.93,250.00,9.00,0.00,30.20,1013.20,10.00,M,FEW,M,M,M,11000.00,M,M,M,M,M,M,M,M,M,M,79.00,KELY 242353Z AUTO 25009KT 10SM FEW110 26/07 A3020 RMK AO2 SLP132 60009 T02610067 10272 20161 56008,M
VGT,2023-08-24 23:53,-115.1933,36.2111,667.00,92.00,62.00,36.95,190.00,11.00,0.00,29.90,1011.60,10.00,23.00,FEW,M,M,M,10000.00,M,M,M,TS,M,M,M,M,M,M,92.58,KVGT 242353Z 19011G23KT 10SM TS FEW100 33/17 A2990 RMK AO2 TSB42 SLP116 T03330167 10367 20322 55003,M
LOL,2023-08-24 23:53,-118.5701,40.0684,1192.43,87.00,37.00,17.02,150.00,8.00,0.00,29.99,1012.20,10.00,M,CLR,M,M,M,M,M,M,M,M,M,M,M,M,M,M,83.51,KLOL 242353Z AUTO 15008KT 10SM CLR 31/03 A2999 RMK AO2 SLP122 T03060028 10317 20250 56018,M
BVU,2023-08-24 23:55,-114.8611,35.9475,671.00,95.00,55.40,26.58,260.00,11.00,0.00,29.89,M,10.00,M,CLR,M,M,M,M,M,M,M,M,M,M,M,M,M,M,93.22,KBVU 242355Z AUTO 26011KT 10SM CLR 35/13 A2989 RMK AO2,M
CXP,2023-08-24 23:55,-119.7326,39.1923,1431.00,82.40,39.20,21.51,210.00,6.00,0.00,30.07,M,10.00,13.00,OVC,M,M,M,11000.00,M,M,M,M,M,M,M,M,M,M,80.21,KCXP 242355Z AUTO 21006G13KT 10SM OVC110 28/04 A3007 RMK AO2,M
RNO,2023-08-24 23:55,-119.7711,39.4839,1341.00,87.00,37.00,17.02,200.00,12.00,0.00,30.02,1011.10,10.00,20.00,BKN,M,M,M,12000.00,M,M,M,M,M,M,M,27.00,200.00,2023-08-24 23:24,83.51,KRNO 242355Z 20012G20KT 10SM BKN120 31/03 A3002 RMK AO2 PK WND 20027/2324 SLP111 T03060028 10333 20256 55011,M
RTS,2023-08-24 23:55,-119.8764,39.6682,1539.00,82.40,33.80,17.38,230.00,15.00,0.00,30.07,M,10.00,M,OVC,M,M,M,11000.00,M,M,M,M,M,M,M,M,M,M,80.03,KRTS 242355Z AUTO 23015KT 10SM OVC110 28/01 A3007 RMK AO2,M
MEV,2023-08-24 23:55,-119.7500,38.9963,1441.42,80.60,46.40,30.07,170.00,8.00,0.00,30.05,M,10.00,M,SCT,M,M,M,12000.00,M,M,M,M,M,M,M,M,M,M,79.56,KMEV 242355Z AUTO 17008KT 10SM SCT120 27/08 A3005 RMK AO2,M
HTH,2023-08-24 23:55,-118.6315,38.5448,1282.89,86.00,41.00,20.54,280.00,10.00,0.00,30.00,M,10.00,M,FEW,M,M,M,11000.00,M,M,M,M,M,M,M,M,M,M,82.86,KHTH 242355Z AUTO 28010KT 10SM FEW110 30/05 A3000 RMK A01,M
10U,2023-08-24 23:55,-116.1876,41.9532,1637.00,86.00,32.00,14.40,110.00,7.00,0.00,30.11,M,10.00,M,FEW,M,M,M,12000.00,M,M,M,M,M,M,M,M,M,M,82.64,K10U 242355Z AUTO 11007KT 10SM FEW120 30/00 A3011 RMK AO2,M
BAM,2023-08-24 23:55,-116.8743,40.5990,1382.36,89.60,30.20,11.94,230.00,12.00,0.00,30.06,M,10.00,19.00,CLR,M,M,M,M,M,M,M,M,M,M,M,M,M,M,85.34,KBAM 242355Z AUTO 23012G19KT 10SM CLR 32/M01 A3006 RMK AO1,M
TMT,2023-08-24 23:55,-117.1971,39.4643,1749.34,81.70,40.30,22.97,260.00,7.00,0.00,30.15,M,M,M,CLR,M,M,M,M,M,M,M,M,M,M,M,M,M,M,79.81,KTMT 242355Z AUTO 26007KT CLR 28/05 A3015 RMK AO2 T02760046 10286 20255 PWINO,M
INS,2023-08-24 23:55,-115.6733,36.5872,955.00,89.60,51.00,26.76,120.00,10.00,0.00,29.97,1009.90,10.00,M,SCT,M,M,M,14000.00,M,M,M,M,M,M,M,29.00,110.00,2023-08-24 22:57,86.86,KINS 242355Z AUTO 12010KT 10SM SCT140 32/11 A2997 RMK AO2 PK WND 11029/2257 SLP099 60000 T03200106 10333 20297 57010 $,M
LSV,2023-08-24 23:55,-115.0343,36.2362,570.00,99.30,55.00,22.97,210.00,6.00,0.00,29.85,1008.10,10.00,M,CLR,M,M,M,M,M,M,M,M,M,M,M,M,M,M,97.72,KLSV 242355Z AUTO 21006KT 10SM CLR 37/13 A2985 RMK AO2 SLP081 T03740127 10391 20346 56015 $,M
EKO,2023-08-24 23:56,-115.7860,40.8242,1367.00,87.00,44.00,22.33,200.00,6.00,0.00,30.09,1013.50,10.00,M,BKN,M,M,M,11000.00,M,M,M,M,M,M,M,M,M,M,83.82,KEKO 242356Z AUTO 20006KT 10SM BKN110 31/07 A3009 RMK AO2 SLP135 T03060067 10311 20256 56013,M
WMC,2023-08-24 23:56,-117.8072,40.9019,1315.00,90.00,29.00,11.23,200.00,12.00,0.00,30.02,1012.10,10.00,18.00,CLR,M,M,M,M,M,M,M,M,M,M,M,M,M,M,85.53,KWMC 242356Z AUTO 20012G18KT 10SM CLR 32/M02 A3002 RMK AO2 SLP121 T03221017 10328 20278 56009,M
NFL,2023-08-24 23:56,-118.7010,39.4166,1199.00,88.00,38.00,17.15,M,5.00,0.00,29.99,1012.50,10.00,M,SCT,BKN,BKN,M,7000.00,12000.00,25000.00,M,M,M,M,M,M,M,M,84.35,KNFL 242356Z VRB05KT 10SM SCT070 BKN120 BKN250 31/03 A2999 RMK AO2 SLP125 T03110033 10322 20261 56016,M
HND,2023-08-24 23:56,-115.1344,35.9729,742.79,89.00,56.00,32.75,260.00,8.00,0.00,29.96,1013.40,10.00,M,CLR,M,M,M,M,M,M,M,VCTS,M,M,M,29.00,200.00,2023-08-24 23:01,87.37,KHND 242356Z 26008KT 10SM VCTS CLR 32/13 A2996 RMK AO2 PK WND 20029/2301 LTG DSNT N AND NW TSB06 SLP134 T03170133 10367 20300 53000,M
LAS,2023-08-24 23:56,-115.1634,36.0719,663.00,86.00,65.00,49.61,250.00,5.00,0.02,29.92,1010.50,10.00,22.00,FEW,SCT,BKN,M,11000.00,16000.00,22000.00,M,-TSRA,M,M,M,27.00,180.00,2023-08-24 23:18,87.78,KLAS 242356Z 25005G22KT 10SM -TSRA FEW110CB SCT160 BKN220 30/18 A2992 RMK AO2 PK WND 18027/2318 WSHFT 2314 RAB33 TSE06B09 SLP105 OCNL LTGICCG OHD-S-W-NW TS OHD-S-W-NW MOV N P0002 60002 T03000183 10367 20278 55009,M
LAS,2023-08-24 23:59,-115.1634,36.0719,663.00,84.00,67.00,56.70,270.00,8.00,T,29.92,M,10.00,M,FEW,SCT,BKN,M,11000.00,16000.00,22000.00,M,TS,M,M,M,M,M,M,86.67,KLAS 242359Z 27008KT 10SM TS FEW110CB SCT160 BKN220 29/19 A2992 RMK AO2 RAE58 OCNL LTGICCG OHD-S-W-NW TS OHD-S-W-NW MOV N P0000 T02890194,M
