station,valid,lon,lat,elevation,tmpf,dwpf,relh,drct,sknt,p01i,alti,mslp,vsby,gust,skyc1,skyc2,skyc3,skyc4,skyl1,skyl2,skyl3,skyl4,wxcodes,ice_accretion_1hr,ice_accretion_3hr,ice_accretion_6hr,peak_wind_gust,peak_wind_drct,peak_wind_time,feel,metar,snowdepth
05U,2024-08-11 00:10,-116.0051,39.6042,1811.23,M,M,M,290.00,13.00,0.00,30.12,M,10.00,25.00,CLR,M,M,M,M,M,M,M,M,M,M,M,M,M,M,M,K05U 110010Z AUTO 29013G25KT 10SM CLR A3012 RMK A01,M
HTH,2024-08-11 00:10,-118.6315,38.5448,1282.89,98.60,21.20,6.22,10.00,10.00,0.00,29.98,M,10.00,M,CLR,M,M,M,M,M,M,M,M,M,M,M,M,M,M,91.61,KHTH 110010Z AUTO 01010KT 10SM CLR 37/M06 A2998 RMK A01,M
BVU,2024-08-11 00:15,-114.8611,35.9475,671.00,105.80,51.80,16.82,150.00,11.00,0.00,29.79,M,10.00,M,FEW,M,M,M,12000.00,M,M,M,M,M,M,M,M,M,M,103.57,KBVU 110015Z AUTO 15011KT 10SM FEW120 41/11 A2979 RMK AO2,M
CXP,2024-08-11 00:15,-119.7326,39.1923,1431.00,89.60,28.40,11.09,260.00,13.00,0.00,30.09,M,10.00,18.00,CLR,M,M,M,M,M,M,M,M,M,M,M,M,M,M,85.17,KCXP 110015Z AUTO 26013G18KT 10SM CLR 32/M02 A3009 RMK AO2,M
RTS,2024-08-11 00:15,-119.8764,39.6682,1539.00,91.40,15.80,6.16,250.00,17.00,0.00,30.11,M,10.00,M,CLR,M,M,M,M,M,M,M,M,M,M,M,M,M,M,85.68,KRTS 110015Z AUTO 25017KT 10SM CLR 33/M09 A3011 RMK AO2,M
MEV,2024-08-11 00:15,-119.7500,38.9963,1441.42,91.40,28.40,10.48,270.00,14.00,0.00,30.07,M,10.00,23.00,CLR,M,M,M,M,M,M,M,M,M,M,M,M,M,M,86.53,KMEV 110015Z AUTO 27014G23KT 10SM CLR 33/M02 A3007 RMK AO2,M
BAM,2024-08-11 00:15,-116.8743,40.5990,1382.36,95.00,30.20,10.09,260.00,12.00,0.00,30.02,M,10.00,19.00,CLR,M,M,M,M,M,M,M,M,M,M,M,M,M,M,89.48,KBAM 110015Z AUTO 26012G19KT 10SM CLR 35/M01 A3002 RMK AO1,M
10U,2024-08-11 00:15,-116.1876,41.9532,1637.00,87.80,32.00,13.59,330.00,12.00,0.00,30.06,M,10.00,M,CLR,M,M,M,M,M,M,M,M,M,M,M,M,M,M,84.08,K10U 110015Z AUTO 33012KT 10SM CLR 31/00 A3006 RMK AO2,M
TMT,2024-08-11 00:15,-117.1971,39.4643,1749.34,87.00,25.50,10.69,290.00,15.00,0.00,30.13,M,10.00,21.00,CLR,M,M,M,M,M,M,M,M,M,M,M,M,M,M,83.03,KTMT 110015Z AUTO 29015G21KT 10SM CLR 31/M04 A3013 RMK AO2 T03051036,M
05U,2024-08-11 00:30,-116.0051,39.6042,1811.23,M,M,M,300.00,15.00,0.00,30.12,M,10.00,25.00,CLR,M,M,M,M,M,M,M,M,M,M,M,M,M,M,M,K05U 110030Z AUTO 30015G25KT 10SM CLR A3012 RMK A01,M
BVU,2024-08-11 00:35,-114.8611,35.9475,671.00,104.00,53.60,18.95,150.00,12.00,0.00,29.79,M,10.00,17.00,CLR,M,M,M,M,M,M,M,M,M,M,M,M,M,M,102.31,KBVU 110035Z AUTO 15012G17KT 10SM CLR 40/12 A2979 RMK AO2,M
CXP,2024-08-11 00:35,-119.7326,39.1923,1431.00,89.60,26.60,10.30,250.00,12.00,0.00,30.10,M,10.00,20.00,CLR,M,M,M,M,M,M,M,M,M,M,M,M,M,M,85.02,KCXP 110035Z AUTO 25012G20KT 230V300 10SM CLR 32/M03 A3010 RMK AO2,M
RTS,2024-08-11 00:35,-119.8764,39.6682,1539.00,89.60,14.00,6.03,260.00,17.00,0.00,30.11,M,10.00,M,CLR,M,M,M,M,M,M,M,M,M,M,M,M,M,M,84.30,KRTS 110035Z AUTO 26017KT 10SM CLR 32/M10 A3011 RMK AO2,M
MEV,2024-08-11 00:35,-119.7500,38.9963,1441.42,91.40,28.40,10.48,260.00,14.00,0.00,30.07,M,10.00,21.00,CLR,M,M,M,M,M,M,M,M,M,M,M,M,M,M,86.53,KMEV 110035Z AUTO 26014G21KT 10SM CLR 33/M02 A3007 RMK AO2,M
BAM,2024-08-11 00:35,-116.8743,40.5990,1382.36,95.00,28.40,9.38,270.00,13.00,0.00,30.02,M,10.00,17.00,CLR,M,M,M,M,M,M,M,M,M,M,M,M,M,M,89.27,KBAM 110035Z AUTO 27013G17KT 10SM CLR 35/M02 A3002 RMK AO1,M
HTH,2024-08-11 00:35,-118.6315,38.5448,1282.89,98.60,21.20,6.22,350.00,16.00,0.00,29.97,M,10.00,M,CLR,M,M,M,M,M,M,M,M,M,M,M,M,M,M,91.61,KHTH 110035Z AUTO 35016KT 10SM CLR 37/M06 A2997 RMK A01,M
10U,2024-08-11 00:35,-116.1876,41.9532,1637.00,86.00,32.00,14.40,320.00,10.00,0.00,30.06,M,10.00,19.00,CLR,M,M,M,M,M,M,M,M,M,M,M,M,M,M,82.64,K10U 110035Z AUTO 32010G19KT 10SM CLR 30/M00 A3006 RMK AO2,M
TMT,2024-08-11 00:35,-117.1971,39.4643,1749.34,88.50,24.60,9.82,300.00,13.00,0.00,30.12,M,10.00,21.00,CLR,M,M,M,M,M,M,M,M,M,M,M,M,M,M,84.05,KTMT 110035Z AUTO 30013G21KT 10SM CLR 31/M04 A3012 RMK AO2 T03141041,M
HND,2024-08-11 00:46,-115.1344,35.9729,742.79,105.80,57.20,20.48,160.00,12.00,0.00,29.84,M,10.00,17.00,CLR,M,M,M,M,M,M,M,TS,M,M,M,M,M,M,105.80,KHND 110046Z 16012G17KT 10SM TS CLR 41/14 A2984 RMK AO2 LTG DSNT S TSB40,M
05U,2024-08-11 00:50,-116.0051,39.6042,1811.23,M,M,M,310.00,18.00,0.00,30.12,M,10.00,28.00,CLR,M,M,M,M,M,M,M,M,M,M,M,M,M,M,M,K05U 110050Z AUTO 31018G28KT 10SM CLR A3012 RMK A01,M
P68,2024-08-11 00:53,-116.0056,39.6014,1993.00,91.00,19.00,7.16,310.00,19.00,0.00,30.10,1009.90,M,27.00,M,M,M,M,M,M,M,M,M,M,M,M,29.00,270.00,2024-08-11 00:04,85.54,KP68 110053Z AUTO 31019G27KT 33/M07 A3010 RMK AO1 PK WND 27029/0004 SLP099 T03281072,M
DRA,2024-08-11 00:53,-116.0278,36.6206,1009.00,103.00,46.00,14.71,250.00,10.00,0.00,29.88,1005.70,10.00,M,CLR,M,M,M,M,M,M,M,M,M,M,M,M,M,M,99.14,KDRA 110053Z AUTO 25010KT 10SM CLR 39/08 A2988 RMK AO2 SLP057 T03940078,M
ELY,2024-08-11 00:53,-114.8453,39.2950,1909.00,90.00,34.00,13.74,250.00,11.00,0.00,30.10,1008.20,10.00,19.00,CLR,M,M,M,M,M,M,M,M,M,M,M,M,M,M,85.93,KELY 110053Z AUTO 25011G19KT 10SM CLR 32/01 A3010 RMK AO2 SLP082 T03220011,M
VGT,2024-08-11 00:53,-115.1933,36.2111,667.00,106.00,53.00,17.47,260.00,6.00,0.00,29.79,1007.00,10.00,M,CLR,M,M,M,M,M,M,M,M,M,M,M,M,M,M,104.21,KVGT 110053Z 26006KT 10SM CLR 41/12 A2979 RMK AO2 LTG DSNT S SLP070 T04110117,M
LOL,2024-08-11 00:53,-118.5701,40.0684,1192.43,97.00,33.00,10.63,260.00,16.00,0.00,29.96,1010.10,10.00,20.00,CLR,M,M,M,M,M,M,M,M,M,M,M,M,M,M,91.49,KLOL 110053Z AUTO 26016G20KT 10SM CLR 36/01 A2996 RMK AO2 SLP101 T03610006,M
BVU,2024-08-11 00:55,-114.8611,35.9475,671.00,104.00,53.60,18.95,160.00,14.00,0.00,29.79,M,10.00,20.00,CLR,M,M,M,M,M,M,M,M,M,M,M,M,M,M,102.31,KBVU 110055Z AUTO 16014G20KT 10SM CLR 40/12 A2979 RMK AO2 LTG DSNT SW AND W,M
CXP,2024-08-11 00:55,-119.7326,39.1923,1431.00,89.60,24.80,9.56,270.00,10.00,0.00,30.10,M,10.00,16.00,CLR,M,M,M,M,M,M,M,M,M,M,M,M,M,M,84.88,KCXP 110055Z AUTO 27010G16KT 10SM CLR 32/M04 A3010 RMK AO2,M
RNO,2024-08-11 00:55,-119.7711,39.4839,1341.00,93.00,25.00,8.67,270.00,14.00,0.00,30.04,1011.10,10.00,22.00,SCT,M,M,M,10000.00,M,M,M,M,M,M,M,33.00,270.00,2024-08-11 00:40,87.43,KRNO 110055Z 27014G22KT 10SM SCT100 34/M04 A3004 RMK AO2 PK WND 27033/0040 SLP111 ACSL OHD THRU S T03391039,M
RTS,2024-08-11 00:55,-119.8764,39.6682,1539.00,89.60,14.00,6.03,270.00,17.00,0.00,30.11,M,10.00,M,CLR,M,M,M,M,M,M,M,M,M,M,M,M,M,M,84.30,KRTS 110055Z AUTO 27017KT 10SM CLR 32/M10 A3011 RMK AO2,M
MEV,2024-08-11 00:55,-119.7500,38.9963,1441.42,89.60,26.60,10.30,290.00,11.00,0.00,30.07,M,10.00,21.00,CLR,M,M,M,M,M,M,M,M,M,M,M,M,M,M,85.02,KMEV 110055Z AUTO 29011G21KT 10SM CLR 32/M03 A3007 RMK AO2,M
BAM,2024-08-11 00:55,-116.8743,40.5990,1382.36,95.00,28.40,9.38,320.00,6.00,0.00,30.01,M,10.00,M,CLR,M,M,M,M,M,M,M,M,M,M,M,M,M,M,89.27,KBAM 110055Z AUTO 32006KT 10SM CLR 35/M02 A3001 RMK AO1,M
HTH,2024-08-11 00:55,-118.6315,38.5448,1282.89,98.60,21.20,6.22,350.00,14.00,0.00,29.97,M,10.00,M,CLR,M,M,M,M,M,M,M,M,M,M,M,M,M,M,91.61,KHTH 110055Z AUTO 35014KT 10SM CLR 37/M06 A2997 RMK A01,M
10U,2024-08-11 00:55,-116.1876,41.9532,1637.00,86.00,32.00,14.40,300.00,7.00,0.00,30.06,M,10.00,18.00,CLR,M,M,M,M,M,M,M,M,M,M,M,M,M,M,82.64,K10U 110055Z AUTO 30007G18KT 10SM CLR 30/M00 A3006 RMK AO2,M
TMT,2024-08-11 00:55,-117.1971,39.4643,1749.34,89.80,26.60,10.24,290.00,16.00,0.00,30.12,M,10.00,24.00,CLR,M,M,M,M,M,M,M,M,M,M,M,M,M,M,85.16,KTMT 110055Z AUTO 29016G24KT 10SM CLR 32/M03 A3012 RMK AO2 T03211030,M
INS,2024-08-11 00:55,-115.6733,36.5872,955.00,103.00,42.60,12.92,40.00,4.00,0.00,29.86,1004.80,10.00,M,CLR,M,M,M,M,M,M,M,M,M,M,M,M,M,M,98.48,KINS 110055Z AUTO 04004KT 10SM CLR 39/06 A2986 RMK AO2 SLP048 T03940059,M
LSV,2024-08-11 00:55,-115.0343,36.2362,570.00,107.00,49.50,14.91,320.00,7.00,0.00,29.73,1003.40,10.00,M,CLR,M,M,M,M,M,M,M,M,M,M,M,M,M,M,104.03,KLSV 110055Z AUTO 32007KT 10SM CLR 42/10 A2973 RMK AO2 LTG DSNT S SLP034 T04170097 $,M
EKO,2024-08-11 00:56,-115.7860,40.8242,1367.00,92.00,27.00,9.71,270.00,13.00,0.00,30.03,1010.90,10.00,26.00,CLR,M,M,M,M,M,M,M,M,M,M,M,27.00,270.00,2024-08-11 00:37,86.85,KEKO 110056Z AUTO 27013G26KT 10SM CLR 33/M03 A3003 RMK AO2 PK WND 27027/0037 SLP109 T03331028,M
WMC,2024-08-11 00:56,-117.8072,40.9019,1315.00,95.00,25.00,8.15,290.00,13.00,0.00,29.99,1010.10,10.00,M,CLR,M,M,M,M,M,M,M,M,M,M,M,M,M,M,88.93,KWMC 110056Z AUTO 29013KT 10SM CLR 35/M04 A2999 RMK AO2 SLP101 T03501039,M
HND,2024-08-11 00:56,-115.1344,35.9729,742.79,104.00,58.00,22.23,140.00,17.00,0.00,29.85,1008.60,10.00,22.00,CLR,M,M,M,M,M,M,M,TS,M,M,M,M,M,M,104.17,KHND 110056Z 14017G22KT 10SM TS CLR 40/14 A2985 RMK AO2 TSB40 SLP086 T04000144,M
TPH,2024-08-11 00:56,-117.0904,38.0505,1654.00,95.00,34.00,11.76,280.00,5.00,0.00,30.05,1007.70,10.00,M,CLR,M,M,M,M,M,M,M,M,M,M,M,M,M,M,90.00,KTPH 110056Z AUTO 28005KT 10SM CLR 35/01 A3005 RMK AO2 SLP077 T03500011,M
LAS,2024-08-11 00:56,-115.1634,36.0719,663.00,108.00,53.00,16.48,300.00,8.00,0.00,29.81,1005.80,10.00,M,FEW,FEW,SCT,M,11000.00,16000.00,23000.00,M,M,M,M,M,M,M,M,106.30,KLAS 110056Z 30008KT 10SM FEW110 FEW160 SCT230 42/12 A2981 RMK AO2 LTG DSNT SE AND S SLP058 CB DSNT NE AND DSNT S T04220117,M
NFL,2024-08-11 00:57,-118.7010,39.4166,1199.00,97.00,26.00,7.99,290.00,11.00,0.00,29.96,1011.80,10.00,M,CLR,M,M,M,M,M,M,M,M,M,M,M,M,M,M,90.67,KNFL 110057Z AUTO 29011KT 10SM CLR 36/M03 A2996 RMK AO2 SLP118 T03611033,M
HND,2024-08-11 01:07,-115.1344,35.9729,742.79,102.20,57.20,22.79,140.00,11.00,0.00,29.85,M,10.00,M,CLR,M,M,M,M,M,M,M,M,M,M,M,M,M,M,101.78,KHND 110107Z 14011KT 10SM CLR 39/14 A2985 RMK AO2 TSE01,M
05U,2024-08-11 01:10,-116.0051,39.6042,1811.23,M,M,M,300.00,12.00,0.00,30.13,M,10.00,23.00,CLR,M,M,M,M,M,M,M,M,M,M,M,M,M,M,M,K05U 110110Z AUTO 30012G23KT 10SM CLR A3013 RMK A01,M
BVU,2024-08-11 01:15,-114.8611,35.9475,671.00,104.00,53.60,18.95,170.00,10.00,0.00,29.80,M,10.00,M,CLR,M,M,M,M,M,M,M,M,M,M,M,M,M,M,102.31,KBVU 110115Z AUTO 17010KT 10SM CLR 40/12 A2980 RMK AO2,M
CXP,2024-08-11 01:15,-119.7326,39.1923,1431.00,87.80,21.20,8.70,280.00,12.00,0.00,30.10,M,10.00,M,CLR,M,M,M,M,M,M,M,M,M,M,M,M,M,M,83.33,KCXP 110115Z AUTO 28012KT 10SM CLR 31/M06 A3010 RMK AO2,M
RTS,2024-08-11 01:15,-119.8764,39.6682,1539.00,87.80,12.20,5.89,270.00,17.00,0.00,30.12,M,10.00,M,CLR,M,M,M,M,M,M,M,M,M,M,M,M,M,M,82.93,KRTS 110115Z AUTO 27017KT 10SM CLR 31/M11 A3012 RMK AO2,M
MEV,2024-08-11 01:15,-119.7500,38.9963,1441.42,89.60,26.60,10.30,260.00,16.00,0.00,30.07,M,10.00,21.00,CLR,M,M,M,M,M,M,M,M,M,M,M,M,M,M,85.02,KMEV 110115Z AUTO 26016G21KT 10SM CLR 32/M03 A3007 RMK AO2,M
BAM,2024-08-11 01:15,-116.8743,40.5990,1382.36,95.00,28.40,9.38,280.00,11.00,0.00,30.01,M,10.00,17.00,CLR,M,M,M,M,M,M,M,M,M,M,M,M,M,M,89.27,KBAM 110115Z AUTO 28011G17KT 10SM CLR 35/M02 A3001 RMK AO1,M
HTH,2024-08-11 01:15,-118.6315,38.5448,1282.89,96.80,28.40,8.87,320.00,11.00,0.00,29.97,M,10.00,17.00,CLR,M,M,M,M,M,M,M,M,M,M,M,M,M,M,90.75,KHTH 110115Z AUTO 32011G17KT 300V360 10SM CLR 36/M02 A2997 RMK A01,M
10U,2024-08-11 01:15,-116.1876,41.9532,1637.00,86.00,33.80,15.48,320.00,15.00,0.00,30.07,M,10.00,M,CLR,M,M,M,M,M,M,M,M,M,M,M,M,M,M,82.66,K10U 110115Z AUTO 32015KT 10SM CLR 30/01 A3007 RMK AO2,M
TMT,2024-08-11 01:15,-117.1971,39.4643,1749.34,88.70,25.70,10.21,310.00,14.00,0.00,30.12,M,10.00,19.00,CLR,M,M,M,M,M,M,M,M,M,M,M,M,M,M,84.28,KTMT 110115Z AUTO 31014G19KT 10SM CLR 32/M03 A3012 RMK AO2 T03151035,M
05U,2024-08-11 01:30,-116.0051,39.6042,1811.23,M,M,M,300.00,9.00,0.00,30.13,M,10.00,19.00,CLR,M,M,M,M,M,M,M,M,M,M,M,M,M,M,M,K05U 110130Z AUTO 30009G19KT 10SM CLR A3013 RMK A01,M
BVU,2024-08-11 01:35,-114.8611,35.9475,671.00,104.00,51.80,17.74,220.00,9.00,0.00,29.80,M,10.00,M,CLR,M,M,M,M,M,M,M,M,M,M,M,M,M,M,101.69,KBVU 110135Z AUTO 22009KT 10SM CLR 40/11 A2980 RMK AO2 LTG DSNT E AND S,M
CXP,2024-08-11 01:35,-119.7326,39.1923,1431.00,87.80,21.20,8.70,280.00,9.00,0.00,30.10,M,10.00,16.00,CLR,M,M,M,M,M,M,M,M,M,M,M,M,M,M,83.33,KCXP 110135Z AUTO 28009G16KT 10SM CLR 31/M06 A3010 RMK AO2,M
RTS,2024-08-11 01:35,-119.8764,39.6682,1539.00,87.80,12.20,5.89,280.00,13.00,0.00,30.12,M,10.00,20.00,CLR,M,M,M,M,M,M,M,M,M,M,M,M,M,M,82.93,KRTS 110135Z AUTO 28013G20KT 10SM CLR 31/M11 A3012 RMK AO2,M
MEV,2024-08-11 01:35,-119.7500,38.9963,1441.42,87.80,26.60,10.91,270.00,16.00,0.00,30.07,M,10.00,M,CLR,M,M,M,M,M,M,M,M,M,M,M,M,M,M,83.69,KMEV 110135Z AUTO 27016KT 10SM CLR 31/M03 A3007 RMK AO2,M
BAM,2024-08-11 01:35,-116.8743,40.5990,1382.36,93.20,28.40,9.91,320.00,6.00,0.00,30.02,M,10.00,10.00,CLR,M,M,M,M,M,M,M,M,M,M,M,M,M,M,87.89,KBAM 110135Z AUTO 32006G10KT 10SM CLR 34/M02 A3002 RMK AO1,M
HTH,2024-08-11 01:35,-118.6315,38.5448,1282.89,96.80,26.60,8.24,350.00,15.00,0.00,29.98,M,10.00,M,CLR,M,M,M,M,M,M,M,M,M,M,M,M,M,M,90.57,KHTH 110135Z AUTO 35015KT 10SM CLR 36/M03 A2998 RMK A01,M
10U,2024-08-11 01:35,-116.1876,41.9532,1637.00,84.20,33.80,16.39,320.00,12.00,0.00,30.07,M,10.00,M,CLR,M,M,M,M,M,M,M,M,M,M,M,M,M,M,81.30,K10U 110135Z AUTO 32012KT 10SM CLR 29/01 A3007 RMK AO2,M
TMT,2024-08-11 01:35,-117.1971,39.4643,1749.34,87.40,26.00,10.77,320.00,9.00,0.00,30.12,M,10.00,M,CLR,M,M,M,M,M,M,M,M,M,M,M,M,M,M,83.35,KTMT 110135Z AUTO 32009KT 10SM CLR 31/M03 A3012 RMK AO2 T03081034,M
05U,2024-08-11 01:50,-116.0051,39.6042,1811.23,M,M,M,310.00,14.00,0.00,30.14,M,10.00,20.00,CLR,M,M,M,M,M,M,M,M,M,M,M,M,M,M,M,K05U 110150Z AUTO 31014G20KT 10SM CLR A3014 RMK A01,M
P68,2024-08-11 01:53,-116.0056,39.6014,1993.00,84.00,19.00,8.94,320.00,11.00,0.00,30.11,1010.80,M,20.00,M,M,M,M,M,M,M,M,M,M,M,M,29.00,310.00,2024-08-11 01:03,80.52,KP68 110153Z AUTO 32011G20KT 29/M07 A3011 RMK AO1 PK WND 31029/0103 SLP108 T02891072,M
DRA,2024-08-11 01:53,-116.0278,36.6206,1009.00,102.00,46.00,15.16,230.00,9.00,0.00,29.89,1005.80,10.00,20.00,CLR,M,M,M,M,M,M,M,M,M,M,M,M,M,M,98.15,KDRA 110153Z AUTO 23009G20KT 10SM CLR 39/08 A2989 RMK AO2 SLP058 T03890078,M
ELY,2024-08-11 01:53,-114.8453,39.2950,1909.00,87.00,28.00,11.85,260.00,6.00,0.00,30.11,1008.00,10.00,M,CLR,M,M,M,M,M,M,M,M,M,M,M,M,M,M,83.22,KELY 110153Z AUTO 26006KT 10SM CLR 31/M02 A3011 RMK AO2 SLP080 T03061022,M
VGT,2024-08-11 01:53,-115.1933,36.2111,667.00,106.00,53.00,17.47,260.00,4.00,0.00,29.80,1007.20,10.00,M,CLR,M,M,M,M,M,M,M,M,M,M,M,M,M,M,104.21,KVGT 110153Z 26004KT 10SM CLR 41/12 A2980 RMK AO2 SLP072 T04110117,M
LOL,2024-08-11 01:53,-118.5701,40.0684,1192.43,94.00,29.00,9.91,270.00,14.00,0.00,29.96,1010.20,10.00,M,CLR,M,M,M,M,M,M,M,M,M,M,M,M,M,M,88.57,KLOL 110153Z AUTO 27014KT 10SM CLR 34/M02 A2996 RMK AO2 SLP102 T03441017,M
BVU,2024-08-11 01:55,-114.8611,35.9475,671.00,104.00,51.80,17.74,210.00,12.00,0.00,29.81,M,10.00,M,CLR,M,M,M,M,M,M,M,M,M,M,M,M,M,M,101.69,KBVU 110155Z AUTO 21012KT 10SM CLR 40/11 A2981 RMK AO2,M
CXP,2024-08-11 01:55,-119.7326,39.1923,1431.00,86.00,23.00,9.94,300.00,7.00,0.00,30.10,M,10.00,17.00,CLR,M,M,M,M,M,M,M,M,M,M,M,M,M,M,82.14,KCXP 110155Z AUTO 30007G17KT 220V320 10SM CLR 30/M05 A3010 RMK AO2,M
RNO,2024-08-11 01:55,-119.7711,39.4839,1341.00,91.00,22.00,8.14,270.00,15.00,0.00,30.05,1011.50,10.00,21.00,SCT,M,M,M,10000.00,M,M,M,M,M,M,M,30.00,280.00,2024-08-11 01:24,85.72,KRNO 110155Z 27015G21KT 10SM SCT100 33/M06 A3005 RMK AO2 PK WND 28030/0124 SLP115 ACSL OHD THRU S T03281056,M
RTS,2024-08-11 01:55,-119.8764,39.6682,1539.00,86.00,12.20,6.24,270.00,13.00,0.00,30.12,M,10.00,18.00,CLR,M,M,M,M,M,M,M,M,M,M,M,M,M,M,81.64,KRTS 110155Z AUTO 27013G18KT 10SM CLR 30/M11 A3012 RMK AO2,M
MEV,2024-08-11 01:55,-119.7500,38.9963,1441.42,87.80,26.60,10.91,270.00,12.00,0.00,30.08,M,10.00,23.00,CLR,M,M,M,M,M,M,M,M,M,M,M,M,M,M,83.69,KMEV 110155Z AUTO 27012G23KT 10SM CLR 31/M03 A3008 RMK AO2,M
BAM,2024-08-11 01:55,-116.8743,40.5990,1382.36,91.40,33.80,13.05,350.00,5.00,0.00,30.02,M,10.00,M,CLR,M,M,M,M,M,M,M,M,M,M,M,M,M,M,87.13,KBAM 110155Z AUTO 35005KT 10SM CLR 33/01 A3002 RMK AO1,M
HTH,2024-08-11 01:55,-118.6315,38.5448,1282.89,95.00,35.60,12.53,340.00,13.00,0.00,29.98,M,10.00,M,CLR,M,M,M,M,M,M,M,M,M,M,M,M,M,M,90.25,KHTH 110155Z AUTO 34013KT 10SM CLR 35/02 A2998 RMK A01,M
10U,2024-08-11 01:55,-116.1876,41.9532,1637.00,84.20,33.80,16.39,320.00,9.00,0.00,30.07,M,10.00,M,CLR,M,M,M,M,M,M,M,M,M,M,M,M,M,M,81.30,K10U 110155Z AUTO 32009KT 10SM CLR 29/01 A3007 RMK AO2,M
TMT,2024-08-11 01:55,-117.1971,39.4643,1749.34,86.00,25.70,11.13,320.00,13.00,0.00,30.13,M,10.00,M,CLR,M,M,M,M,M,M,M,M,M,M,M,M,M,M,82.32,KTMT 110155Z AUTO 32013KT 10SM CLR 30/M03 A3013 RMK AO2 T03001035,M
INS,2024-08-11 01:55,-115.6733,36.5872,955.00,102.00,47.30,15.92,90.00,8.00,0.00,29.87,1005.20,10.00,M,CLR,M,M,M,M,M,M,M,M,M,M,M,M,M,M,98.42,KINS 110155Z AUTO 09008KT 10SM CLR 39/09 A2987 RMK AO2 SLP052 T03890085,M
LSV,2024-08-11 01:55,-115.0343,36.2362,570.00,107.00,47.50,13.83,270.00,4.00,0.00,29.74,1003.70,10.00,M,CLR,M,M,M,M,M,M,M,M,M,M,M,M,M,M,103.44,KLSV 110155Z AUTO 27004KT 10SM CLR 42/09 A2974 RMK AO2 SLP037 T04160086 $,M
EKO,2024-08-11 01:56,-115.7860,40.8242,1367.00,89.00,25.00,9.82,280.00,14.00,0.00,30.04,1011.30,10.00,19.00,CLR,M,M,M,M,M,M,M,M,M,M,M,M,M,M,84.45,KEKO 110156Z AUTO 28014G19KT 10SM CLR 32/M04 A3004 RMK AO2 SLP113 T03171039,M
WMC,2024-08-11 01:56,-117.8072,40.9019,1315.00,92.00,25.00,8.94,290.00,12.00,0.00,30.00,1010.30,10.00,M,CLR,M,M,M,M,M,M,M,M,M,M,M,M,M,M,86.68,KWMC 110156Z AUTO 29012KT 10SM CLR 33/M04 A3000 RMK AO2 SLP103 T03331039,M
HND,2024-08-11 01:56,-115.1344,35.9729,742.79,104.00,56.00,20.68,180.00,8.00,0.00,29.85,1008.70,10.00,M,CLR,M,M,M,M,M,M,M,M,M,M,M,M,M,M,103.26,KHND 110156Z 18008KT 10SM CLR 40/13 A2985 RMK AO2 TSE01 SLP087 T04000133,M
TPH,2024-08-11 01:56,-117.0904,38.0505,1654.00,94.00,35.00,12.62,220.00,7.00,0.00,30.06,1007.90,10.00,M,CLR,M,M,M,M,M,M,M,M,M,M,M,M,M,M,89.36,KTPH 110156Z AUTO 22007KT 10SM CLR 34/02 A3006 RMK AO2 SLP079 T03440017,M
LAS,2024-08-11 01:56,-115.1634,36.0719,663.00,107.00,54.00,17.60,M,6.00,0.00,29.82,1006.20,10.00,M,FEW,FEW,SCT,M,11000.00,16000.00,23000.00,M,M,M,M,M,M,M,M,105.66,KLAS 110156Z VRB06KT 10SM FEW110 FEW160 SCT230 42/12 A2982 RMK AO2 SLP062 CB DSNT E-SE T04170122,M
NFL,2024-08-11 01:57,-118.7010,39.4166,1199.00,96.00,30.00,9.71,280.00,10.00,0.00,29.96,1011.80,10.00,M,CLR,M,M,M,M,M,M,M,M,M,M,M,M,M,M,90.27,KNFL 110157Z AUTO 28010KT 10SM CLR 36/M01 A2996 RMK AO2 SLP118 T03561011,M
05U,2024-08-11 02:10,-116.0051,39.6042,1811.23,M,M,M,320.00,10.00,0.00,30.14,M,10.00,15.00,CLR,M,M,M,M,M,M,M,M,M,M,M,M,M,M,M,K05U 110210Z AUTO 32010G15KT 10SM CLR A3014 RMK A01,M
BVU,2024-08-11 02:15,-114.8611,35.9475,671.00,104.00,51.80,17.74,180.00,11.00,0.00,29.81,M,10.00,M,CLR,M,M,M,M,M,M,M,M,M,M,M,M,M,M,101.69,KBVU 110215Z AUTO 18011KT 10SM CLR 40/11 A2981 RMK AO2,M
CXP,2024-08-11 02:15,-119.7326,39.1923,1431.00,86.00,23.00,9.94,280.00,7.00,0.00,30.11,M,10.00,14.00,CLR,M,M,M,M,M,M,M,M,M,M,M,M,M,M,82.14,KCXP 110215Z AUTO 28007G14KT 250V310 10SM CLR 30/M05 A3011 RMK AO2,M
RTS,2024-08-11 02:15,-119.8764,39.6682,1539.00,84.20,10.40,6.10,280.00,14.00,0.00,30.12,M,10.00,M,CLR,M,M,M,M,M,M,M,M,M,M,M,M,M,M,80.31,KRTS 110215Z AUTO 28014KT 10SM CLR 29/M12 A3012 RMK AO2,M
MEV,2024-08-11 02:15,-119.7500,38.9963,1441.42,86.00,23.00,9.94,260.00,12.00,0.00,30.08,M,10.00,20.00,CLR,M,M,M,M,M,M,M,M,M,M,M,M,M,M,82.14,KMEV 110215Z AUTO 26012G20KT 10SM CLR 30/M05 A3008 RMK AO2,M
BAM,2024-08-11 02:15,-116.8743,40.5990,1382.36,89.60,33.80,13.80,300.00,4.00,0.00,30.03,M,10.00,M,CLR,M,M,M,M,M,M,M,M,M,M,M,M,M,M,85.59,KBAM 110215Z AUTO 30004KT 10SM CLR 32/01 A3003 RMK AO1,M
HTH,2024-08-11 02:15,-118.6315,38.5448,1282.89,93.20,33.80,12.34,350.00,12.00,0.00,29.99,M,10.00,M,CLR,M,M,M,M,M,M,M,M,M,M,M,M,M,M,88.55,KHTH 110215Z AUTO 35012KT 10SM CLR 34/01 A2999 RMK A01,M
10U,2024-08-11 02:15,-116.1876,41.9532,1637.00,82.40,33.80,17.38,320.00,8.00,0.00,30.08,M,10.00,M,CLR,M,M,M,M,M,M,M,M,M,M,M,M,M,M,80.03,K10U 110215Z AUTO 32008KT 10SM CLR 28/01 A3008 RMK AO2,M
TMT,2024-08-11 02:15,-117.1971,39.4643,1749.34,84.40,26.00,11.86,310.00,12.00,0.00,30.13,M,10.00,17.00,CLR,M,M,M,M,M,M,M,M,M,M,M,M,M,M,81.23,KTMT 110215Z AUTO 31012G17KT 10SM CLR 29/M03 A3013 RMK AO2 T02911033,M
05U,2024-08-11 02:30,-116.0051,39.6042,1811.23,M,M,M,310.00,9.00,0.00,30.15,M,10.00,M,CLR,M,M,M,M,M,M,M,M,M,M,M,M,M,M,M,K05U 110230Z AUTO 31009KT 10SM CLR A3015 RMK A01,M
BVU,2024-08-11 02:35,-114.8611,35.9475,671.00,102.20,51.80,18.72,180.00,9.00,0.00,29.82,M,10.00,M,CLR,M,M,M,M,M,M,M,M,M,M,M,M,M,M,99.80,KBVU 110235Z AUTO 18009KT 10SM CLR 39/11 A2982 RMK AO2,M
CXP,2024-08-11 02:35,-119.7326,39.1923,1431.00,84.20,23.00,10.53,260.00,5.00,0.00,30.11,M,10.00,13.00,CLR,M,M,M,M,M,M,M,M,M,M,M,M,M,M,80.88,KCXP 110235Z AUTO 26005G13KT 10SM CLR 29/M05 A3011 RMK AO2,M
RTS,2024-08-11 02:35,-119.8764,39.6682,1539.00,82.40,14.00,7.58,290.00,10.00,0.00,30.13,M,10.00,15.00,CLR,M,M,M,M,M,M,M,M,M,M,M,M,M,M,79.20,KRTS 110235Z AUTO 29010G15KT 10SM CLR 28/M10 A3013 RMK AO2,M
MEV,2024-08-11 02:35,-119.7500,38.9963,1441.42,84.20,21.20,9.76,280.00,11.00,0.00,30.09,M,10.00,18.00,CLR,M,M,M,M,M,M,M,M,M,M,M,M,M,M,80.77,KMEV 110235Z AUTO 28011G18KT 10SM CLR 29/M06 A3009 RMK AO2,M
BAM,2024-08-11 02:35,-116.8743,40.5990,1382.36,89.60,32.00,12.84,340.00,8.00,0.00,30.03,M,10.00,M,CLR,M,M,M,M,M,M,M,M,M,M,M,M,M,M,85.54,KBAM 110235Z AUTO 34008KT 10SM CLR 32/00 A3003 RMK AO1,M
HTH,2024-08-11 02:35,-118.6315,38.5448,1282.89,91.40,37.40,15.05,350.00,11.00,0.00,29.99,M,10.00,17.00,CLR,M,M,M,M,M,M,M,M,M,M,M,M,M,M,87.23,KHTH 110235Z AUTO 35011G17KT 10SM CLR 33/03 A2999 RMK A01,M
10U,2024-08-11 02:35,-116.1876,41.9532,1637.00,78.80,33.80,19.55,320.00,5.00,0.00,30.08,M,10.00,M,CLR,M,M,M,M,M,M,M,M,M,M,M,M,M,M,78.80,K10U 110235Z AUTO 32005KT 10SM CLR 26/01 A3008 RMK AO2,M
TMT,2024-08-11 02:35,-117.1971,39.4643,1749.34,82.60,26.40,12.78,320.00,7.00,0.00,30.14,M,10.00,M,CLR,M,M,M,M,M,M,M,M,M,M,M,M,M,M,80.04,KTMT 110235Z AUTO 32007KT 10SM CLR 28/M03 A3014 RMK AO2 T02811031,M
05U,2024-08-11 02:50,-116.0051,39.6042,1811.23,M,M,M,320.00,6.00,0.00,30.16,M,10.00,M,CLR,M,M,M,M,M,M,M,M,M,M,M,M,M,M,M,K05U 110250Z AUTO 32006KT 10SM CLR A3016 RMK A01,M
P68,2024-08-11 02:53,-116.0056,39.6014,1993.00,80.00,19.00,10.19,330.00,6.00,0.00,30.13,1011.30,M,M,M,M,M,M,M,M,M,M,M,M,M,M,M,M,M,77.94,KP68 110253Z AUTO 33006KT 27/M07 A3013 RMK AO1 SLP113 T02671072 53012,M
DRA,2024-08-11 02:53,-116.0278,36.6206,1009.00,99.00,46.00,16.60,180.00,9.00,0.00,29.90,1006.30,10.00,M,CLR,M,M,M,M,M,M,M,M,M,M,M,M,M,M,95.17,KDRA 110253Z AUTO 18009KT 10SM CLR 37/08 A2990 RMK AO2 SLP063 T03720078 53001,M
ELY,2024-08-11 02:53,-114.8453,39.2950,1909.00,83.00,27.00,12.93,320.00,13.00,0.00,30.13,1008.70,10.00,M,CLR,M,M,M,M,M,M,M,M,M,M,M,M,M,M,80.35,KELY 110253Z AUTO 32013KT 10SM CLR 28/M03 A3013 RMK AO2 SLP087 T02831028 53005,M
VGT,2024-08-11 02:53,-115.1933,36.2111,667.00,105.00,53.00,18.00,220.00,3.00,0.00,29.81,1007.50,10.00,M,CLR,M,M,M,M,M,M,M,M,M,M,M,M,M,M,103.16,KVGT 110253Z 22003KT 10SM CLR 41/12 A2981 RMK AO2 SLP075 T04060117 55001,M
LOL,2024-08-11 02:53,-118.5701,40.0684,1192.43,88.00,24.00,9.73,290.00,8.00,0.00,29.97,1010.40,10.00,M,CLR,M,M,M,M,M,M,M,M,M,M,M,M,M,M,83.65,KLOL 110253Z AUTO 29008KT 10SM CLR 31/M04 A2997 RMK AO2 SLP104 T03111044 53001,M
BVU,2024-08-11 02:55,-114.8611,35.9475,671.00,100.40,51.80,19.76,180.00,9.00,0.00,29.82,M,10.00,M,CLR,M,M,M,M,M,M,M,M,M,M,M,M,M,M,97.90,KBVU 110255Z AUTO 18009KT 10SM CLR 38/11 A2982 RMK AO2,M
CXP,2024-08-11 02:55,-119.7326,39.1923,1431.00,82.40,21.20,10.34,0.00,0.00,0.00,30.11,M,10.00,M,CLR,M,M,M,M,M,M,M,M,M,M,M,M,M,M,79.55,KCXP 110255Z AUTO 00000KT 10SM CLR 28/M06 A3011 RMK AO2,M
RNO,2024-08-11 02:55,-119.7711,39.4839,1341.00,87.00,19.00,8.13,280.00,7.00,0.00,30.07,1012.10,10.00,16.00,SCT,M,M,M,10000.00,M,M,M,M,M,M,M,31.00,280.00,2024-08-11 02:01,82.63,KRNO 110255Z 28007G16KT 10SM SCT100 31/M07 A3007 RMK AO2 PK WND 28031/0201 SLP121 ACSL OHD THRU S T03061072 53008,M
RTS,2024-08-11 02:55,-119.8764,39.6682,1539.00,80.60,19.40,10.16,300.00,11.00,0.00,30.13,M,10.00,M,CLR,M,M,M,M,M,M,M,M,M,M,M,M,M,M,78.56,KRTS 110255Z AUTO 30011KT 10SM CLR 27/M07 A3013 RMK AO2,M
MEV,2024-08-11 02:55,-119.7500,38.9963,1441.42,82.40,21.20,10.34,270.00,12.00,0.00,30.09,M,10.00,18.00,CLR,M,M,M,M,M,M,M,M,M,M,M,M,M,M,79.55,KMEV 110255Z AUTO 27012G18KT 10SM CLR 28/M06 A3009 RMK AO2,M
HTH,2024-08-11 02:55,-118.6315,38.5448,1282.89,91.40,28.40,10.48,360.00,14.00,0.00,29.99,M,10.00,M,CLR,M,M,M,M,M,M,M,M,M,M,M,M,M,M,86.53,KHTH 110255Z AUTO 36014KT 10SM CLR 33/M02 A2999 RMK A01,M
10U,2024-08-11 02:55,-116.1876,41.9532,1637.00,75.20,32.00,20.49,300.00,7.00,0.00,30.08,M,10.00,M,CLR,M,M,M,M,M,M,M,M,M,M,M,M,M,M,75.20,K10U 110255Z AUTO 30007KT 10SM CLR 24/M00 A3008 RMK AO2,M
BAM,2024-08-11 02:55,-116.8743,40.5990,1382.36,84.20,35.60,17.61,330.00,5.00,0.00,30.03,M,10.00,M,CLR,M,M,M,M,M,M,M,M,M,M,M,M,M,M,81.34,KBAM 110255Z AUTO 33005KT 10SM CLR 29/02 A3003 RMK AO1,M
TMT,2024-08-11 02:55,-117.1971,39.4643,1749.34,79.00,26.00,14.13,320.00,5.00,0.00,30.15,M,10.00,M,CLR,M,M,M,M,M,M,M,M,M,M,M,M,M,M,79.00,KTMT 110255Z AUTO 32005KT 10SM CLR 26/M03 A3015 RMK AO2 T02621033,M
INS,2024-08-11 02:55,-115.6733,36.5872,955.00,100.00,45.70,15.92,0.00,0.00,0.00,29.88,1005.40,10.00,M,SCT,M,M,M,11000.00,M,M,M,M,M,M,M,M,M,M,96.11,KINS 110255Z AUTO 00000KT 10SM SCT110 38/08 A2988 RMK AO2 SLP054 T03780076 53001,M
LSV,2024-08-11 02:55,-115.0343,36.2362,570.00,104.70,49.50,15.95,0.00,0.00,0.00,29.75,1004.00,10.00,M,SCT,M,M,M,22000.00,M,M,M,M,M,M,M,M,M,M,101.71,KLSV 110255Z AUTO 00000KT 10SM SCT220 40/10 A2975 RMK AO2 SLP040 T04040097 53002 $,M
EKO,2024-08-11 02:56,-115.7860,40.8242,1367.00,84.00,25.00,11.52,300.00,7.00,0.00,30.06,1011.50,10.00,M,CLR,M,M,M,M,M,M,M,M,M,M,M,M,M,M,80.88,KEKO 110256Z AUTO 30007KT 10SM CLR 29/M04 A3006 RMK AO2 SLP115 T02891039 53007,M
WMC,2024-08-11 02:56,-117.8072,40.9019,1315.00,82.00,26.00,12.81,0.00,0.00,0.00,30.00,1010.30,10.00,M,CLR,M,M,M,M,M,M,M,M,M,M,M,M,M,M,79.61,KWMC 110256Z AUTO 00000KT 10SM CLR 28/M03 A3000 RMK AO2 SLP103 T02781033 53000,M
HND,2024-08-11 02:56,-115.1344,35.9729,742.79,102.00,57.00,22.77,210.00,13.00,0.00,29.87,1009.20,10.00,M,CLR,M,M,M,M,M,M,M,M,M,M,M,M,M,M,101.47,KHND 110256Z 21013KT 10SM CLR 39/14 A2987 RMK AO2 SLP092 T03890139 53004,M
TPH,2024-08-11 02:56,-117.0904,38.0505,1654.00,91.00,35.00,13.86,210.00,10.00,0.00,30.06,1008.20,10.00,M,CLR,M,M,M,M,M,M,M,M,M,M,M,M,M,M,86.81,KTPH 110256Z AUTO 21010KT 10SM CLR 33/02 A3006 RMK AO2 SLP082 T03280017 55000,M
LAS,2024-08-11 02:56,-115.1634,36.0719,663.00,106.00,55.00,18.80,190.00,9.00,0.00,29.83,1006.50,10.00,M,FEW,FEW,SCT,SCT,11000.00,13000.00,16000.00,23000.00,M,M,M,M,M,M,M,105.02,KLAS 110256Z 19009KT 10SM FEW110 FEW130 SCT160 SCT230 41/13 A2983 RMK AO2 SLP065 CB DSNT E FU FEW130 T04110128 53001,M
05U,2024-08-11 03:10,-116.0051,39.6042,1811.23,M,M,M,0.00,0.00,0.00,30.16,M,10.00,M,CLR,M,M,M,M,M,M,M,M,M,M,M,M,M,M,M,K05U 110310Z AUTO 00000KT 10SM CLR A3016 RMK A01,M
BVU,2024-08-11 03:15,-114.8611,35.9475,671.00,100.40,51.80,19.76,180.00,11.00,0.00,29.83,M,10.00,M,CLR,M,M,M,M,M,M,M,M,M,M,M,M,M,M,97.90,KBVU 110315Z AUTO 18011KT 10SM CLR 38/11 A2983 RMK AO2,M
CXP,2024-08-11 03:15,-119.7326,39.1923,1431.00,80.60,23.00,11.83,0.00,0.00,0.00,30.12,M,10.00,M,CLR,M,M,M,M,M,M,M,M,M,M,M,M,M,M,78.80,KCXP 110315Z AUTO 00000KT 10SM CLR 27/M05 A3012 RMK AO2,M
RTS,2024-08-11 03:15,-119.8764,39.6682,1539.00,78.80,19.40,10.78,280.00,11.00,0.00,30.13,M,10.00,M,CLR,M,M,M,M,M,M,M,M,M,M,M,M,M,M,78.80,KRTS 110315Z AUTO 28011KT 10SM CLR 26/M07 A3013 RMK AO2,M
MEV,2024-08-11 03:15,-119.7500,38.9963,1441.42,80.60,24.80,12.76,290.00,10.00,0.00,30.10,M,10.00,M,CLR,M,M,M,M,M,M,M,M,M,M,M,M,M,M,78.94,KMEV 110315Z AUTO 29010KT 10SM CLR 27/M04 A3010 RMK AO2,M
BAM,2024-08-11 03:15,-116.8743,40.5990,1382.36,80.60,33.80,18.42,350.00,5.00,0.00,30.04,M,10.00,M,CLR,M,M,M,M,M,M,M,M,M,M,M,M,M,M,78.88,KBAM 110315Z AUTO 35005KT 10SM CLR 27/01 A3004 RMK AO1,M
HTH,2024-08-11 03:15,-118.6315,38.5448,1282.89,89.60,30.20,11.94,350.00,13.00,0.00,30.00,M,10.00,M,CLR,M,M,M,M,M,M,M,M,M,M,M,M,M,M,85.34,KHTH 110315Z AUTO 35013KT 10SM CLR 32/M01 A3000 RMK A01,M
10U,2024-08-11 03:15,-116.1876,41.9532,1637.00,71.60,30.20,21.50,290.00,7.00,0.00,30.09,M,10.00,M,CLR,M,M,M,M,M,M,M,M,M,M,M,M,M,M,71.60,K10U 110315Z AUTO 29007KT 10SM CLR 22/M01 A3009 RMK AO2,M
TMT,2024-08-11 03:15,-117.1971,39.4643,1749.34,78.00,26.20,14.73,0.00,0.00,0.00,30.16,M,10.00,M,CLR,M,M,M,M,M,M,M,M,M,M,M,M,M,M,78.00,KTMT 110315Z AUTO 00000KT 10SM CLR 26/M03 A3016 RMK AO2 T02551032,M
BVU,2024-08-11 03:35,-114.8611,35.9475,671.00,100.40,51.80,19.76,180.00,14.00,0.00,29.84,M,10.00,M,CLR,M,M,M,M,M,M,M,M,M,M,M,M,M,M,97.90,KBVU 110335Z AUTO 18014KT 10SM CLR 38/11 A2984 RMK AO2,M
CXP,2024-08-11 03:35,-119.7326,39.1923,1431.00,77.00,24.80,14.37,0.00,0.00,0.00,30.12,M,10.00,M,CLR,M,M,M,M,M,M,M,M,M,M,M,M,M,M,77.00,KCXP 110335Z AUTO 00000KT 10SM CLR 25/M04 A3012 RMK AO2,M
RTS,2024-08-11 03:35,-119.8764,39.6682,1539.00,77.00,19.40,11.44,270.00,12.00,0.00,30.14,M,10.00,M,CLR,M,M,M,M,M,M,M,M,M,M,M,M,M,M,77.00,KRTS 110335Z AUTO 27012KT 10SM CLR 25/M07 A3014 RMK AO2,M
05U,2024-08-11 03:35,-116.0051,39.6042,1811.23,M,M,M,0.00,0.00,0.00,30.18,M,10.00,M,CLR,M,M,M,M,M,M,M,M,M,M,M,M,M,M,M,K05U 110335Z AUTO 00000KT 10SM CLR A3018 RMK A01,M
MEV,2024-08-11 03:35,-119.7500,38.9963,1441.42,80.60,24.80,12.76,280.00,11.00,0.00,30.10,M,10.00,M,CLR,M,M,M,M,M,M,M,M,M,M,M,M,M,M,78.94,KMEV 110335Z AUTO 28011KT 10SM CLR 27/M04 A3010 RMK AO2,M
BAM,2024-08-11 03:35,-116.8743,40.5990,1382.36,78.80,32.00,18.18,350.00,3.00,0.00,30.04,M,10.00,M,CLR,M,M,M,M,M,M,M,M,M,M,M,M,M,M,78.80,KBAM 110335Z AUTO 35003KT 10SM CLR 26/00 A3004 RMK AO1,M
HTH,2024-08-11 03:35,-118.6315,38.5448,1282.89,89.60,28.40,11.09,350.00,10.00,0.00,30.01,M,10.00,M,CLR,M,M,M,M,M,M,M,M,M,M,M,M,M,M,85.17,KHTH 110335Z AUTO 35010KT 10SM CLR 32/M02 A3001 RMK A01,M
10U,2024-08-11 03:35,-116.1876,41.9532,1637.00,71.60,32.00,23.13,300.00,6.00,0.00,30.09,M,10.00,M,CLR,M,M,M,M,M,M,M,M,M,M,M,M,M,M,71.60,K10U 110335Z AUTO 30006KT 10SM CLR 22/M00 A3009 RMK AO2,M
TMT,2024-08-11 03:35,-117.1971,39.4643,1749.34,68.50,27.00,20.97,110.00,3.00,0.00,30.16,M,10.00,M,CLR,M,M,M,M,M,M,M,M,M,M,M,M,M,M,68.50,KTMT 110335Z AUTO 11003KT 10SM CLR 20/M03 A3016 RMK AO2 T02031028,M
P68,2024-08-11 03:53,-116.0056,39.6014,1993.00,71.00,23.00,16.30,0.00,0.00,0.00,30.16,1012.30,M,M,M,M,M,M,M,M,M,M,M,M,M,M,M,M,M,71.00,KP68 110353Z AUTO 00000KT 22/M05 A3016 RMK AO1 SLP123 T02171050,M
DRA,2024-08-11 03:53,-116.0278,36.6206,1009.00,97.00,48.00,19.02,190.00,9.00,0.00,29.92,1006.90,10.00,M,CLR,M,M,M,M,M,M,M,M,M,M,M,M,M,M,93.52,KDRA 110353Z AUTO 19009KT 10SM CLR 36/09 A2992 RMK AO2 SLP069 T03610089,M
ELY,2024-08-11 03:53,-114.8453,39.2950,1909.00,74.00,23.00,14.73,M,3.00,0.00,30.17,1010.10,10.00,M,CLR,M,M,M,M,M,M,M,M,M,M,M,M,M,M,74.00,KELY 110353Z AUTO VRB03KT 10SM CLR 23/M05 A3017 RMK AO2 SLP101 T02331050,M
VGT,2024-08-11 03:53,-115.1933,36.2111,667.00,103.00,55.00,20.55,210.00,12.00,0.00,29.83,1008.30,10.00,M,CLR,M,M,M,M,M,M,M,M,M,M,M,M,M,M,101.76,KVGT 110353Z AUTO 21012KT 10SM CLR 39/13 A2983 RMK AO2 SLP083 T03940128,M
LOL,2024-08-11 03:53,-118.5701,40.0684,1192.43,82.00,25.00,12.29,330.00,5.00,0.00,29.99,1010.80,10.00,M,CLR,M,M,M,M,M,M,M,M,M,M,M,M,M,M,79.54,KLOL 110353Z AUTO 33005KT 10SM CLR 28/M04 A2999 RMK AO2 SLP108 T02781039,M
BVU,2024-08-11 03:55,-114.8611,35.9475,671.00,98.60,57.20,25.41,150.00,21.00,0.00,29.86,M,10.00,26.00,BKN,M,M,M,12000.00,M,M,M,M,M,M,M,M,M,M,97.76,KBVU 110355Z AUTO 15021G26KT 10SM BKN120 37/14 A2986 RMK AO2,M
CXP,2024-08-11 03:55,-119.7326,39.1923,1431.00,77.00,24.80,14.37,0.00,0.00,0.00,30.13,M,10.00,M,CLR,M,M,M,M,M,M,M,M,M,M,M,M,M,M,77.00,KCXP 110355Z AUTO 00000KT 10SM CLR 25/M04 A3013 RMK AO2,M
RNO,2024-08-11 03:55,-119.7711,39.4839,1341.00,84.00,20.00,9.33,320.00,11.00,0.00,30.08,1012.50,10.00,M,FEW,M,M,M,11000.00,M,M,M,M,M,M,M,M,M,M,80.57,KRNO 110355Z 32011KT 10SM FEW110 29/M07 A3008 RMK AO2 SLP125 ACSL NW T02891067,M
RTS,2024-08-11 03:55,-119.8764,39.6682,1539.00,75.20,21.20,13.11,260.00,10.00,0.00,30.15,M,10.00,M,CLR,M,M,M,M,M,M,M,M,M,M,M,M,M,M,75.20,KRTS 110355Z AUTO 26010KT 10SM CLR 24/M06 A3015 RMK AO2,M
05U,2024-08-11 03:55,-116.0051,39.6042,1811.23,M,M,M,0.00,0.00,0.00,30.19,M,10.00,M,CLR,M,M,M,M,M,M,M,M,M,M,M,M,M,M,M,K05U 110355Z AUTO 00000KT 10SM CLR A3019 RMK A01,M
MEV,2024-08-11 03:55,-119.7500,38.9963,1441.42,78.80,24.80,13.54,290.00,7.00,0.00,30.11,M,10.00,12.00,CLR,M,M,M,M,M,M,M,M,M,M,M,M,M,M,78.80,KMEV 110355Z AUTO 29007G12KT 10SM CLR 26/M04 A3011 RMK AO2,M
BAM,2024-08-11 03:55,-116.8743,40.5990,1382.36,77.00,32.00,19.30,340.00,5.00,0.00,30.05,M,10.00,M,CLR,M,M,M,M,M,M,M,M,M,M,M,M,M,M,77.00,KBAM 110355Z AUTO 34005KT 10SM CLR 25/00 A3005 RMK AO1,M
HTH,2024-08-11 03:55,-118.6315,38.5448,1282.89,89.60,26.60,10.30,360.00,9.00,0.00,30.03,M,10.00,M,CLR,M,M,M,M,M,M,M,M,M,M,M,M,M,M,85.02,KHTH 110355Z AUTO 36009KT 10SM CLR 32/M03 A3003 RMK A01,M
10U,2024-08-11 03:55,-116.1876,41.9532,1637.00,69.80,30.20,22.86,320.00,6.00,0.00,30.10,M,10.00,M,CLR,M,M,M,M,M,M,M,M,M,M,M,M,M,M,69.80,K10U 110355Z AUTO 32006KT 10SM CLR 21/M01 A3010 RMK AO2,M
TMT,2024-08-11 03:55,-117.1971,39.4643,1749.34,67.30,24.80,19.95,130.00,5.00,0.00,30.18,M,10.00,M,CLR,M,M,M,M,M,M,M,M,M,M,M,M,M,M,67.30,KTMT 110355Z AUTO 13005KT 10SM CLR 20/M04 A3018 RMK AO2 T01961040,M
INS,2024-08-11 03:55,-115.6733,36.5872,955.00,98.00,48.70,18.94,240.00,9.00,0.00,29.91,1006.30,10.00,M,CLR,M,M,M,M,M,M,M,M,M,M,M,M,M,M,94.66,KINS 110355Z AUTO 24009KT 10SM CLR 37/09 A2991 RMK AO2 SLP063 T03670093,M
LSV,2024-08-11 03:55,-115.0343,36.2362,570.00,104.00,50.40,16.84,190.00,8.00,0.00,29.78,1005.00,10.00,M,CLR,M,M,M,M,M,M,M,M,M,M,M,M,M,M,101.26,KLSV 110355Z AUTO 19008KT 10SM CLR 40/10 A2978 RMK AO2 SLP050 T03990102 $,M
EKO,2024-08-11 03:56,-115.7860,40.8242,1367.00,73.00,29.00,19.53,190.00,4.00,0.00,30.08,1012.60,10.00,M,CLR,M,M,M,M,M,M,M,M,M,M,M,M,M,M,73.00,KEKO 110356Z AUTO 19004KT 10SM CLR 23/M02 A3008 RMK AO2 SLP126 T02281017,M
WMC,2024-08-11 03:56,-117.8072,40.9019,1315.00,71.00,26.00,18.47,180.00,3.00,0.00,30.02,1011.10,10.00,M,CLR,M,M,M,M,M,M,M,M,M,M,M,M,M,M,71.00,KWMC 110356Z AUTO 18003KT 10SM CLR 22/M03 A3002 RMK AO2 SLP111 T02171033,M
HND,2024-08-11 03:56,-115.1344,35.9729,742.79,99.00,56.00,24.04,190.00,12.00,0.00,29.90,1010.10,10.00,M,CLR,M,M,M,M,M,M,M,M,M,M,M,M,M,M,97.74,KHND 110356Z AUTO 19012KT 10SM CLR 37/13 A2990 RMK AO2 SLP101 T03720133,M
TPH,2024-08-11 03:56,-117.0904,38.0505,1654.00,87.00,27.00,11.37,0.00,0.00,0.00,30.10,1009.30,10.00,M,CLR,M,M,M,M,M,M,M,M,M,M,M,M,M,M,83.14,KTPH 110356Z AUTO 00000KT 10SM CLR 31/M03 A3010 RMK AO2 SLP093 T03061028,M
LAS,2024-08-11 03:56,-115.1634,36.0719,663.00,104.00,54.00,19.23,200.00,11.00,0.00,29.86,1007.50,10.00,18.00,FEW,FEW,SCT,SCT,11000.00,14000.00,16000.00,23000.00,M,M,M,M,M,M,M,102.46,KLAS 110356Z 20011G18KT 10SM FEW110 FEW140 SCT160 SCT230 40/12 A2986 RMK AO2 SLP075 FU FEW140 T04000122,M
NFL,2024-08-11 03:57,-118.7010,39.4166,1199.00,85.00,26.00,11.63,280.00,9.00,0.00,30.01,1013.20,10.00,M,CLR,M,M,M,M,M,M,M,M,M,M,M,M,M,M,81.64,KNFL 110357Z AUTO 28009KT 10SM CLR 29/M03 A3001 RMK AO2 SLP132 T02941033,M
BVU,2024-08-11 04:15,-114.8611,35.9475,671.00,96.80,57.20,26.84,M,M,0.00,29.88,M,10.00,M,SCT,M,M,M,12000.00,M,M,M,M,M,M,M,M,M,M,95.77,KBVU 110415Z AUTO 15/16666715G21KT 10SM SCT120 36/14 A2988 RMK AO2 LTG DSNT E AND SE,M
CXP,2024-08-11 04:15,-119.7326,39.1923,1431.00,77.00,24.80,14.37,210.00,4.00,0.00,30.13,M,10.00,M,CLR,M,M,M,M,M,M,M,M,M,M,M,M,M,M,77.00,KCXP 110415Z AUTO 21004KT 10SM CLR 25/M04 A3013 RMK AO2,M
RTS,2024-08-11 04:15,-119.8764,39.6682,1539.00,73.40,21.20,13.93,0.00,0.00,0.00,30.16,M,10.00,M,CLR,M,M,M,M,M,M,M,M,M,M,M,M,M,M,73.40,KRTS 110415Z AUTO 00000KT 10SM CLR 23/M06 A3016 RMK AO2,M
05U,2024-08-11 04:15,-116.0051,39.6042,1811.23,M,M,M,0.00,0.00,0.00,30.19,M,10.00,M,CLR,M,M,M,M,M,M,M,M,M,M,M,M,M,M,M,K05U 110415Z AUTO 00000KT 10SM CLR A3019 RMK A01,M
MEV,2024-08-11 04:15,-119.7500,38.9963,1441.42,78.80,26.60,14.59,280.00,9.00,0.00,30.12,M,10.00,M,CLR,M,M,M,M,M,M,M,M,M,M,M,M,M,M,78.80,KMEV 110415Z AUTO 28009KT 10SM CLR 26/M03 A3012 RMK AO2,M
BAM,2024-08-11 04:15,-116.8743,40.5990,1382.36,77.00,32.00,19.30,340.00,5.00,0.00,30.06,M,10.00,M,CLR,M,M,M,M,M,M,M,M,M,M,M,M,M,M,77.00,KBAM 110415Z AUTO 34005KT 10SM CLR 25/00 A3006 RMK AO1,M
HTH,2024-08-11 04:15,-118.6315,38.5448,1282.89,87.80,26.60,10.91,330.00,8.00,0.00,30.04,M,10.00,14.00,CLR,M,M,M,M,M,M,M,M,M,M,M,M,M,M,83.69,KHTH 110415Z AUTO 33008G14KT 10SM CLR 31/M03 A3004 RMK A01,M
10U,2024-08-11 04:15,-116.1876,41.9532,1637.00,66.20,33.80,29.92,0.00,0.00,0.00,30.11,M,10.00,M,FEW,M,M,M,12000.00,M,M,M,M,M,M,M,M,M,M,66.20,K10U 110415Z AUTO 00000KT 10SM FEW120 19/01 A3011 RMK AO2,M
TMT,2024-08-11 04:15,-117.1971,39.4643,1749.34,64.40,25.30,22.52,100.00,4.00,0.00,30.18,M,10.00,M,CLR,M,M,M,M,M,M,M,M,M,M,M,M,M,M,64.40,KTMT 110415Z AUTO 10004KT 10SM CLR 18/M04 A3018 RMK AO2 T01801037,M
LAS,2024-08-11 04:24,-115.1634,36.0719,663.00,103.00,55.00,20.55,170.00,8.00,0.00,29.87,M,10.00,M,FEW,FEW,SCT,M,11000.00,16000.00,23000.00,M,M,M,M,M,M,M,M,101.76,KLAS 110424Z 17008KT 10SM FEW110 FEW160 SCT230 39/13 A2987 RMK AO2 FU FEW160 T03940128,M
LSV,2024-08-11 04:30,-115.0343,36.2362,570.00,104.00,51.80,17.74,180.00,27.00,0.00,29.80,1005.60,10.00,35.00,BKN,M,M,M,12000.00,M,M,M,SQ,M,M,M,M,M,M,101.69,KLSV 110430Z AUTO 18027G35KT 10SM SQ BKN120 40/11 A2980 RMK AO2 SLP056 $,M
BVU,2024-08-11 04:35,-114.8611,35.9475,671.00,95.00,59.00,30.26,170.00,13.00,0.00,29.90,M,10.00,21.00,CLR,M,M,M,M,M,M,M,M,M,M,M,M,M,M,94.51,KBVU 110435Z AUTO 17013G21KT 10SM CLR 35/15 A2990 RMK AO2,M
CXP,2024-08-11 04:35,-119.7326,39.1923,1431.00,75.20,24.80,15.25,210.00,4.00,0.00,30.13,M,10.00,M,CLR,M,M,M,M,M,M,M,M,M,M,M,M,M,M,75.20,KCXP 110435Z AUTO 21004KT 10SM CLR 24/M04 A3013 RMK AO2,M
RTS,2024-08-11 04:35,-119.8764,39.6682,1539.00,73.40,21.20,13.93,0.00,0.00,0.00,30.16,M,10.00,M,CLR,M,M,M,M,M,M,M,M,M,M,M,M,M,M,73.40,KRTS 110435Z AUTO 00000KT 10SM CLR 23/M06 A3016 RMK AO2,M
05U,2024-08-11 04:35,-116.0051,39.6042,1811.23,M,M,M,0.00,0.00,0.00,30.19,M,10.00,M,CLR,M,M,M,M,M,M,M,M,M,M,M,M,M,M,M,K05U 110435Z AUTO 00000KT 10SM CLR A3019 RMK A01,M
MEV,2024-08-11 04:35,-119.7500,38.9963,1441.42,77.00,28.40,16.67,310.00,4.00,0.00,30.12,M,10.00,13.00,CLR,M,M,M,M,M,M,M,M,M,M,M,M,M,M,77.00,KMEV 110435Z AUTO 31004G13KT 10SM CLR 25/M02 A3012 RMK AO2,M
BAM,2024-08-11 04:35,-116.8743,40.5990,1382.36,75.20,32.00,20.49,0.00,0.00,0.00,30.06,M,10.00,M,CLR,M,M,M,M,M,M,M,M,M,M,M,M,M,M,75.20,KBAM 110435Z AUTO 00000KT 10SM CLR 24/00 A3006 RMK AO1,M
HTH,2024-08-11 04:35,-118.6315,38.5448,1282.89,86.00,26.60,11.55,350.00,10.00,0.00,30.05,M,10.00,M,CLR,M,M,M,M,M,M,M,M,M,M,M,M,M,M,82.39,KHTH 110435Z AUTO 35010KT 10SM CLR 30/M03 A3005 RMK A01,M
10U,2024-08-11 04:35,-116.1876,41.9532,1637.00,64.40,33.80,31.85,0.00,0.00,0.00,30.11,M,10.00,M,BKN,M,M,M,12000.00,M,M,M,M,M,M,M,M,M,M,64.40,K10U 110435Z AUTO 00000KT 10SM BKN120 18/01 A3011 RMK AO2,M
TMT,2024-08-11 04:35,-117.1971,39.4643,1749.34,63.30,26.00,24.10,0.00,0.00,0.00,30.18,M,10.00,M,CLR,M,M,M,M,M,M,M,M,M,M,M,M,M,M,63.30,KTMT 110435Z AUTO 00000KT 10SM CLR 17/M03 A3018 RMK AO2 T01741034,M
05U,2024-08-11 04:50,-116.0051,39.6042,1811.23,M,M,M,0.00,0.00,0.00,30.19,M,8.00,M,CLR,M,M,M,M,M,M,M,M,M,M,M,M,M,M,M,K05U 110450Z AUTO 00000KT 8SM CLR A3019 RMK A01,M
P68,2024-08-11 04:53,-116.0056,39.6014,1993.00,66.00,24.00,20.18,170.00,7.00,0.00,30.17,1012.30,M,M,M,M,M,M,M,M,M,M,M,M,M,M,M,M,M,66.00,KP68 110453Z AUTO 17007KT 19/M04 A3017 RMK AO1 SLP123 T01891044,M
DRA,2024-08-11 04:53,-116.0278,36.6206,1009.00,95.00,49.00,21.00,170.00,10.00,0.00,29.93,1007.10,10.00,17.00,CLR,M,M,M,M,M,M,M,M,M,M,M,M,M,M,91.70,KDRA 110453Z AUTO 17010G17KT 10SM CLR 35/09 A2993 RMK AO2 SLP071 T03500094,M
ELY,2024-08-11 04:53,-114.8453,39.2950,1909.00,68.00,22.00,17.31,290.00,7.00,0.00,30.18,1010.60,10.00,M,CLR,M,M,M,M,M,M,M,M,M,M,M,M,M,M,68.00,KELY 110453Z AUTO 29007KT 10SM CLR 20/M06 A3018 RMK AO2 SLP106 T02001056,M
VGT,2024-08-11 04:53,-115.1933,36.2111,667.00,102.00,55.00,21.17,180.00,12.00,0.00,29.86,1009.10,10.00,20.00,SCT,M,M,M,12000.00,M,M,M,M,M,M,M,M,M,M,100.66,KVGT 110453Z AUTO 18012G20KT 10SM SCT120 39/13 A2986 RMK AO2 SLP091 T03890128,M
LOL,2024-08-11 04:53,-118.5701,40.0684,1192.43,79.00,24.00,13.01,280.00,3.00,0.00,30.01,1011.20,10.00,M,CLR,M,M,M,M,M,M,M,M,M,M,M,M,M,M,79.00,KLOL 110453Z AUTO 28003KT 10SM CLR 26/M04 A3001 RMK AO2 SLP112 T02611044,M
BVU,2024-08-11 04:55,-114.8611,35.9475,671.00,95.00,59.00,30.26,210.00,10.00,0.00,29.91,M,10.00,17.00,CLR,M,M,M,M,M,M,M,M,M,M,M,M,M,M,94.51,KBVU 110455Z AUTO 21010G17KT 10SM CLR 35/15 A2991 RMK AO2,M
CXP,2024-08-11 04:55,-119.7326,39.1923,1431.00,75.20,24.80,15.25,60.00,3.00,0.00,30.14,M,10.00,M,CLR,M,M,M,M,M,M,M,M,M,M,M,M,M,M,75.20,KCXP 110455Z AUTO 06003KT 10SM CLR 24/M04 A3014 RMK AO2,M
RNO,2024-08-11 04:55,-119.7711,39.4839,1341.00,81.00,26.00,13.24,300.00,12.00,0.00,30.09,1012.60,10.00,23.00,SCT,M,M,M,11000.00,M,M,M,M,M,M,M,M,M,M,78.94,KRNO 110455Z 30012G23KT 10SM SCT110 27/M03 A3009 RMK AO2 SLP126 T02721033,M
RTS,2024-08-11 04:55,-119.8764,39.6682,1539.00,75.20,23.00,14.15,310.00,6.00,0.00,30.16,M,10.00,M,CLR,M,M,M,M,M,M,M,M,M,M,M,M,M,M,75.20,KRTS 110455Z AUTO 31006KT 10SM CLR 24/M05 A3016 RMK AO2,M
MEV,2024-08-11 04:55,-119.7500,38.9963,1441.42,75.20,32.00,20.49,320.00,5.00,0.00,30.13,M,10.00,M,CLR,M,M,M,M,M,M,M,M,M,M,M,M,M,M,75.20,KMEV 110455Z AUTO 32005KT 10SM CLR 24/M00 A3013 RMK AO2,M
BAM,2024-08-11 04:55,-116.8743,40.5990,1382.36,71.60,30.20,21.50,0.00,0.00,0.00,30.07,M,10.00,M,CLR,M,M,M,M,M,M,M,M,M,M,M,M,M,M,71.60,KBAM 110455Z AUTO 00000KT 10SM CLR 22/M01 A3007 RMK AO1,M
HTH,2024-08-11 04:55,-118.6315,38.5448,1282.89,84.20,30.20,14.18,300.00,7.00,0.00,30.05,M,10.00,M,CLR,M,M,M,M,M,M,M,M,M,M,M,M,M,M,81.26,KHTH 110455Z AUTO 30007KT 10SM CLR 29/M01 A3005 RMK A01,M
10U,2024-08-11 04:55,-116.1876,41.9532,1637.00,62.60,33.80,33.93,0.00,0.00,0.00,30.12,M,10.00,M,SCT,M,M,M,12000.00,M,M,M,M,M,M,M,M,M,M,62.60,K10U 110455Z AUTO 00000KT 10SM SCT120 17/01 A3012 RMK AO2,M
TMT,2024-08-11 04:55,-117.1971,39.4643,1749.34,63.00,27.00,25.38,280.00,6.00,0.00,30.18,M,10.00,M,CLR,M,M,M,M,M,M,M,M,M,M,M,M,M,M,63.00,KTMT 110455Z AUTO 28006KT 10SM CLR 17/M03 A3018 RMK AO2 T01721028,M
INS,2024-08-11 04:55,-115.6733,36.5872,955.00,95.00,47.70,20.00,200.00,10.00,0.00,29.91,1006.30,10.00,M,CLR,M,M,M,M,M,M,M,M,M,M,M,M,M,M,91.48,KINS 110455Z AUTO 20010KT 10SM CLR 35/09 A2991 RMK AO2 SLP063 T03500087,M
LSV,2024-08-11 04:55,-115.0343,36.2362,570.00,98.40,57.60,25.93,180.00,21.00,0.00,29.81,1006.10,10.00,29.00,SCT,BKN,M,M,12000.00,18000.00,M,M,M,M,M,M,36.00,160.00,2024-08-11 04:28,97.70,KLSV 110455Z AUTO 18021G29KT 10SM SCT120 BKN180 37/14 A2981 RMK AO2 PK WND 16036/28 SLP061 T03690142 $,M
EKO,2024-08-11 04:56,-115.7860,40.8242,1367.00,72.00,25.00,17.13,290.00,4.00,0.00,30.09,1012.40,10.00,M,CLR,M,M,M,M,M,M,M,M,M,M,M,M,M,M,72.00,KEKO 110456Z AUTO 29004KT 10SM CLR 22/M04 A3009 RMK AO2 SLP124 T02221039,M
WMC,2024-08-11 04:56,-117.8072,40.9019,1315.00,68.00,27.00,21.33,0.00,0.00,0.00,30.03,1011.30,10.00,M,CLR,M,M,M,M,M,M,M,M,M,M,M,M,M,M,68.00,KWMC 110456Z AUTO 00000KT 10SM CLR 20/M03 A3003 RMK AO2 SLP113 T02001028,M
HND,2024-08-11 04:56,-115.1344,35.9729,742.79,94.00,61.00,33.51,160.00,20.00,0.00,29.91,1010.60,10.00,27.00,CLR,M,M,M,M,M,M,M,M,M,M,M,31.00,150.00,2024-08-11 04:27,94.29,KHND 110456Z AUTO 16020G27KT 10SM CLR 34/16 A2991 RMK AO2 PK WND 15031/0427 SLP106 T03440161,M
TPH,2024-08-11 04:56,-117.0904,38.0505,1654.00,82.00,25.00,12.29,300.00,5.00,0.00,30.12,1009.80,10.00,M,CLR,M,M,M,M,M,M,M,M,M,M,M,M,M,M,79.54,KTPH 110456Z AUTO 30005KT 10SM CLR 28/M04 A3012 RMK AO2 SLP098 T02781039,M
LAS,2024-08-11 04:56,-115.1634,36.0719,663.00,98.00,60.00,28.61,170.00,13.00,0.00,29.87,1008.10,10.00,24.00,FEW,FEW,SCT,M,11000.00,16000.00,23000.00,M,M,M,M,M,28.00,170.00,2024-08-11 04:32,98.31,KLAS 110456Z 17013G24KT 10SM FEW110 FEW160 SCT230 37/16 A2987 RMK AO2 PK WND 17028/0432 SLP081 FU FEW160 T03670156,M
NFL,2024-08-11 04:57,-118.7010,39.4166,1199.00,83.00,23.00,10.95,270.00,8.00,0.00,30.03,1013.80,10.00,M,CLR,M,M,M,M,M,M,M,M,M,M,M,M,M,M,80.07,KNFL 110457Z AUTO 27008KT 10SM CLR 28/M05 A3003 RMK AO2 SLP138 T02831050,M
05U,2024-08-11 05:10,-116.0051,39.6042,1811.23,M,M,M,0.00,0.00,0.00,30.19,M,10.00,M,CLR,M,M,M,M,M,M,M,M,M,M,M,M,M,M,M,K05U 110510Z AUTO 00000KT 10SM CLR A3019 RMK A01,M
BVU,2024-08-11 05:15,-114.8611,35.9475,671.00,95.00,59.00,30.26,230.00,9.00,0.00,29.91,M,10.00,M,CLR,M,M,M,M,M,M,M,M,M,M,M,M,M,M,94.51,KBVU 110515Z AUTO 23009KT 10SM CLR 35/15 A2991 RMK AO2,M
CXP,2024-08-11 05:15,-119.7326,39.1923,1431.00,73.40,24.80,16.20,0.00,0.00,0.00,30.14,M,10.00,M,CLR,M,M,M,M,M,M,M,M,M,M,M,M,M,M,73.40,KCXP 110515Z AUTO 00000KT 10SM CLR 23/M04 A3014 RMK AO2,M
RTS,2024-08-11 05:15,-119.8764,39.6682,1539.00,71.60,21.20,14.80,0.00,0.00,0.00,30.17,M,10.00,M,CLR,M,M,M,M,M,M,M,M,M,M,M,M,M,M,71.60,KRTS 110515Z AUTO 00000KT 10SM CLR 22/M06 A3017 RMK AO2,M
MEV,2024-08-11 05:15,-119.7500,38.9963,1441.42,75.20,32.00,20.49,20.00,4.00,0.00,30.13,M,10.00,11.00,CLR,M,M,M,M,M,M,M,M,M,M,M,M,M,M,75.20,KMEV 110515Z AUTO 02004G11KT 10SM CLR 24/M00 A3013 RMK AO2,M
BAM,2024-08-11 05:15,-116.8743,40.5990,1382.36,66.20,28.40,24.04,130.00,5.00,0.00,30.06,M,10.00,M,CLR,M,M,M,M,M,M,M,M,M,M,M,M,M,M,66.20,KBAM 110515Z AUTO 13005KT 10SM CLR 19/M02 A3006 RMK AO1,M
HTH,2024-08-11 05:15,-118.6315,38.5448,1282.89,84.20,35.60,17.61,310.00,9.00,0.00,30.06,M,10.00,16.00,CLR,M,M,M,M,M,M,M,M,M,M,M,M,M,M,81.34,KHTH 110515Z AUTO 31009G16KT 10SM CLR 29/02 A3006 RMK A01,M
10U,2024-08-11 05:15,-116.1876,41.9532,1637.00,64.40,33.80,31.85,0.00,0.00,0.00,30.12,M,10.00,M,FEW,M,M,M,12000.00,M,M,M,M,M,M,M,M,M,M,64.40,K10U 110515Z AUTO 00000KT 10SM FEW120 18/01 A3012 RMK AO2,M
TMT,2024-08-11 05:15,-117.1971,39.4643,1749.34,56.50,25.00,29.46,200.00,6.00,0.00,30.18,M,10.00,M,CLR,M,M,M,M,M,M,M,M,M,M,M,M,M,M,56.50,KTMT 110515Z AUTO 20006KT 10SM CLR 14/M04 A3018 RMK AO2 T01361038,M
05U,2024-08-11 05:30,-116.0051,39.6042,1811.23,M,M,M,0.00,0.00,0.00,30.19,M,10.00,M,CLR,M,M,M,M,M,M,M,M,M,M,M,M,M,M,M,K05U 110530Z AUTO 00000KT 10SM CLR A3019 RMK A01,M
BVU,2024-08-11 05:35,-114.8611,35.9475,671.00,93.20,59.00,31.99,M,5.00,0.00,29.91,M,10.00,12.00,CLR,M,M,M,M,M,M,M,M,M,M,M,M,M,M,92.57,KBVU 110535Z AUTO VRB05G12KT 10SM CLR 34/15 A2991 RMK AO2,M
CXP,2024-08-11 05:35,-119.7326,39.1923,1431.00,71.60,23.00,15.97,0.00,0.00,0.00,30.14,M,10.00,M,CLR,M,M,M,M,M,M,M,M,M,M,M,M,M,M,71.60,KCXP 110535Z AUTO 00000KT 10SM CLR 22/M05 A3014 RMK AO2,M
RTS,2024-08-11 05:35,-119.8764,39.6682,1539.00,71.60,21.20,14.80,0.00,0.00,0.00,30.17,M,10.00,M,CLR,M,M,M,M,M,M,M,M,M,M,M,M,M,M,71.60,KRTS 110535Z AUTO 00000KT 10SM CLR 22/M06 A3017 RMK AO2,M
MEV,2024-08-11 05:35,-119.7500,38.9963,1441.42,71.60,32.00,23.13,140.00,5.00,0.00,30.13,M,10.00,M,CLR,M,M,M,M,M,M,M,M,M,M,M,M,M,M,71.60,KMEV 110535Z AUTO 14005KT 10SM CLR 22/M00 A3013 RMK AO2,M
HTH,2024-08-11 05:35,-118.6315,38.5448,1282.89,82.40,37.40,20.04,320.00,7.00,0.00,30.06,M,10.00,12.00,CLR,M,M,M,M,M,M,M,M,M,M,M,M,M,M,80.14,KHTH 110535Z AUTO 32007G12KT 10SM CLR 28/03 A3006 RMK A01,M
10U,2024-08-11 05:35,-116.1876,41.9532,1637.00,62.60,37.40,39.14,0.00,0.00,0.00,30.13,M,10.00,M,CLR,M,M,M,M,M,M,M,M,M,M,M,M,M,M,62.60,K10U 110535Z AUTO 00000KT 10SM CLR 17/03 A3013 RMK AO2,M
BAM,2024-08-11 05:35,-116.8743,40.5990,1382.36,64.40,26.60,23.77,130.00,5.00,0.00,30.06,M,10.00,M,CLR,M,M,M,M,M,M,M,M,M,M,M,M,M,M,64.40,KBAM 110535Z AUTO 13005KT 10SM CLR 18/M03 A3006 RMK AO1,M
TMT,2024-08-11 05:35,-117.1971,39.4643,1749.34,60.30,25.70,26.46,210.00,8.00,0.00,30.18,M,10.00,M,CLR,M,M,M,M,M,M,M,M,M,M,M,M,M,M,60.30,KTMT 110535Z AUTO 21008KT 10SM CLR 16/M03 A3018 RMK AO2 T01571035,M
05U,2024-08-11 05:50,-116.0051,39.6042,1811.23,M,M,M,0.00,0.00,0.00,30.19,M,10.00,M,CLR,M,M,M,M,M,M,M,M,M,M,M,M,M,M,M,K05U 110550Z AUTO 00000KT 10SM CLR A3019 RMK A01,M
P68,2024-08-11 05:53,-116.0056,39.6014,1993.00,59.00,24.00,25.82,200.00,6.00,0.00,30.16,1012.50,M,M,M,M,M,M,M,M,M,M,M,M,M,M,M,M,M,59.00,KP68 110553Z AUTO 20006KT 15/M04 A3016 RMK AO1 SLP125 T01501044 10344 20150 50009,M
DRA,2024-08-11 05:53,-116.0278,36.6206,1009.00,95.00,50.00,21.79,190.00,10.00,0.00,29.93,1007.10,10.00,M,CLR,M,M,M,M,M,M,M,M,M,M,M,M,M,M,91.89,KDRA 110553Z AUTO 19010KT 10SM CLR 35/10 A2993 RMK AO2 SLP071 T03500100 10406 20344 51009,M
ELY,2024-08-11 05:53,-114.8453,39.2950,1909.00,67.00,22.00,17.92,300.00,4.00,0.00,30.19,1010.70,10.00,M,CLR,M,M,M,M,M,M,M,M,M,M,M,M,M,M,67.00,KELY 110553Z AUTO 30004KT 10SM CLR 19/M06 A3019 RMK AO2 SLP107 T01941056 10333 20189 51016,M
VGT,2024-08-11 05:53,-115.1933,36.2111,667.00,98.00,59.00,27.60,170.00,12.00,0.00,29.87,1009.60,10.00,20.00,CLR,M,M,M,M,M,M,M,M,M,M,M,M,M,M,97.84,KVGT 110553Z AUTO 17012G20KT 10SM CLR 37/15 A2987 RMK AO2 SLP096 T03670150 10417 20367 51019,M
LOL,2024-08-11 05:53,-118.5701,40.0684,1192.43,83.00,26.00,12.41,290.00,10.00,0.00,30.01,1011.10,10.00,M,CLR,M,M,M,M,M,M,M,M,M,M,M,M,M,M,80.27,KLOL 110553Z AUTO 29010KT 10SM CLR 28/M03 A3001 RMK AO2 SLP111 T02831033 10367 20239 51013,M
BVU,2024-08-11 05:55,-114.8611,35.9475,671.00,93.20,59.00,31.99,170.00,11.00,0.00,29.91,M,10.00,M,CLR,M,M,M,M,M,M,M,M,M,M,M,M,M,M,92.57,KBVU 110555Z AUTO 17011KT 10SM CLR 34/15 A2991 RMK AO2,M
CXP,2024-08-11 05:55,-119.7326,39.1923,1431.00,71.60,24.80,17.22,0.00,0.00,0.00,30.15,M,10.00,M,CLR,M,M,M,M,M,M,M,M,M,M,M,M,M,M,71.60,KCXP 110555Z AUTO 00000KT 10SM CLR 22/M04 A3015 RMK AO2,M
RNO,2024-08-11 05:55,-119.7711,39.4839,1341.00,79.00,27.00,14.73,310.00,12.00,0.00,30.10,1012.70,10.00,M,SCT,M,M,M,12000.00,M,M,M,M,M,M,M,M,M,M,79.00,KRNO 110555Z 31012KT 10SM SCT120 26/M03 A3010 RMK AO2 SLP127 T02611028 10350 20261 51011,M
RTS,2024-08-11 05:55,-119.8764,39.6682,1539.00,68.00,21.20,16.74,340.00,5.00,0.00,30.17,M,10.00,M,CLR,M,M,M,M,M,M,M,M,M,M,M,M,M,M,68.00,KRTS 110555Z AUTO 34005KT 10SM CLR 20/M06 A3017 RMK AO2,M
MEV,2024-08-11 05:55,-119.7500,38.9963,1441.42,71.60,30.20,21.50,60.00,4.00,0.00,30.14,M,10.00,M,CLR,M,M,M,M,M,M,M,M,M,M,M,M,M,M,71.60,KMEV 110555Z AUTO 06004KT 10SM CLR 22/M01 A3014 RMK AO2,M
BAM,2024-08-11 05:55,-116.8743,40.5990,1382.36,64.40,28.40,25.60,200.00,3.00,0.00,30.06,M,10.00,M,CLR,M,M,M,M,M,M,M,M,M,M,M,M,M,M,64.40,KBAM 110555Z AUTO 20003KT 10SM CLR 18/M02 A3006 RMK AO1,M
HTH,2024-08-11 05:55,-118.6315,38.5448,1282.89,82.40,28.40,13.96,320.00,10.00,0.00,30.06,M,10.00,M,CLR,M,M,M,M,M,M,M,M,M,M,M,M,M,M,79.94,KHTH 110555Z AUTO 32010KT 10SM CLR 28/M02 A3006 RMK A01,M
10U,2024-08-11 05:55,-116.1876,41.9532,1637.00,59.00,33.80,38.56,0.00,0.00,0.00,30.12,M,10.00,M,CLR,M,M,M,M,M,M,M,M,M,M,M,M,M,M,59.00,K10U 110555Z AUTO 00000KT 10SM CLR 15/01 A3012 RMK AO2,M
TMT,2024-08-11 05:55,-117.1971,39.4643,1749.34,62.20,24.80,23.83,230.00,8.00,0.00,30.18,M,10.00,M,CLR,M,M,M,M,M,M,M,M,M,M,M,M,M,M,62.20,KTMT 110555Z AUTO 23008KT 10SM CLR 17/M04 A3018 RMK AO2 T01681040 10324 20135,M
INS,2024-08-11 05:55,-115.6733,36.5872,955.00,93.40,48.70,21.81,70.00,4.00,0.00,29.91,1006.30,10.00,M,CLR,M,M,M,M,M,M,M,M,M,M,M,M,M,M,90.07,KINS 110555Z AUTO 07004KT 10SM CLR 34/09 A2991 RMK AO2 SLP063 T03410093 10397 20339 51010,M
LSV,2024-08-11 05:55,-115.0343,36.2362,570.00,97.50,58.00,27.04,180.00,16.00,0.00,29.82,1006.40,10.00,M,FEW,M,M,M,12000.00,M,M,M,M,M,M,M,31.00,170.00,2024-08-11 05:03,96.86,KLSV 110555Z AUTO 18016KT 10SM FEW120 36/14 A2982 RMK AO2 PK WND 17031/03 SLP064 T03640144 10420 20364 52022 $,M
EKO,2024-08-11 05:56,-115.7860,40.8242,1367.00,66.00,29.00,24.81,0.00,0.00,0.00,30.09,1012.40,10.00,M,CLR,M,M,M,M,M,M,M,M,M,M,M,M,M,M,66.00,KEKO 110556Z AUTO 00000KT 10SM CLR 19/M02 A3009 RMK AO2 SLP124 T01891017 10344 20183 51009,M
WMC,2024-08-11 05:56,-117.8072,40.9019,1315.00,64.00,27.00,24.51,0.00,0.00,0.00,30.03,1011.70,10.00,M,CLR,M,M,M,M,M,M,M,M,M,M,M,M,M,M,64.00,KWMC 110556Z AUTO 00000KT 10SM CLR 18/M03 A3003 RMK AO2 SLP117 T01781028 10356 20178 51009,M
HND,2024-08-11 05:56,-115.1344,35.9729,742.79,94.00,60.00,32.34,170.00,12.00,0.00,29.92,1010.90,10.00,21.00,CLR,M,M,M,M,M,M,M,M,M,M,M,27.00,170.00,2024-08-11 05:01,93.84,KHND 110556Z AUTO 17012G21KT 10SM CLR 34/16 A2992 RMK AO2 PK WND 17027/0501 SLP109 T03440156 10422 20344 51016,M
TPH,2024-08-11 05:56,-117.0904,38.0505,1654.00,82.00,23.00,11.31,300.00,13.00,0.00,30.13,1010.00,10.00,M,CLR,M,M,M,M,M,M,M,M,M,M,M,M,M,M,79.40,KTPH 110556Z AUTO 30013KT 10SM CLR 28/M05 A3013 RMK AO2 SLP100 T02781050 10367 20261 51019,M
LAS,2024-08-11 05:56,-115.1634,36.0719,663.00,97.00,59.00,28.46,180.00,9.00,0.00,29.88,1008.40,10.00,16.00,FEW,FEW,M,M,11000.00,23000.00,M,M,M,M,M,M,27.00,180.00,2024-08-11 05:11,96.72,KLAS 110556Z 18009G16KT 10SM FEW110 FEW230 36/15 A2988 RMK AO2 PK WND 18027/0511 SLP084 VIS LWR N-NE T03610150 10428 20361 51018,M
05U,2024-08-11 06:10,-116.0051,39.6042,1811.23,M,M,M,0.00,0.00,0.00,30.19,M,10.00,M,CLR,M,M,M,M,M,M,M,M,M,M,M,M,M,M,M,K05U 110610Z AUTO 00000KT 10SM CLR A3019 RMK A01,M
LSV,2024-08-11 06:13,-115.0343,36.2362,570.00,96.80,57.20,26.84,140.00,15.00,0.00,29.82,1006.40,10.00,M,CLR,M,M,M,M,M,M,M,M,M,M,M,M,M,M,95.77,KLSV 110613Z AUTO 14015KT 10SM CLR 36/14 A2982 RMK AO2 WSHFT 0558 SLP064 $,M
BVU,2024-08-11 06:15,-114.8611,35.9475,671.00,93.20,60.80,34.11,170.00,11.00,0.00,29.91,M,10.00,M,CLR,M,M,M,M,M,M,M,M,M,M,M,M,M,M,93.32,KBVU 110615Z AUTO 17011KT 10SM CLR 34/16 A2991 RMK AO2,M
CXP,2024-08-11 06:15,-119.7326,39.1923,1431.00,69.80,24.80,18.30,0.00,0.00,0.00,30.15,M,10.00,M,CLR,M,M,M,M,M,M,M,M,M,M,M,M,M,M,69.80,KCXP 110615Z AUTO 00000KT 10SM CLR 21/M04 A3015 RMK AO2,M
RTS,2024-08-11 06:15,-119.8764,39.6682,1539.00,62.60,23.00,21.79,310.00,7.00,0.00,30.17,M,10.00,M,CLR,M,M,M,M,M,M,M,M,M,M,M,M,M,M,62.60,KRTS 110615Z AUTO 31007KT 10SM CLR 17/M05 A3017 RMK AO2,M
MEV,2024-08-11 06:15,-119.7500,38.9963,1441.42,75.20,32.00,20.49,280.00,4.00,0.00,30.14,M,10.00,M,CLR,M,M,M,M,M,M,M,M,M,M,M,M,M,M,75.20,KMEV 110615Z AUTO 28004KT 10SM CLR 24/M00 A3014 RMK AO2,M
BAM,2024-08-11 06:15,-116.8743,40.5990,1382.36,62.60,28.40,27.27,160.00,7.00,0.00,30.06,M,10.00,M,CLR,M,M,M,M,M,M,M,M,M,M,M,M,M,M,62.60,KBAM 110615Z AUTO 16007KT 10SM CLR 17/M02 A3006 RMK AO1,M
HTH,2024-08-11 06:15,-118.6315,38.5448,1282.89,82.40,32.00,16.17,320.00,8.00,0.00,30.07,M,10.00,M,CLR,M,M,M,M,M,M,M,M,M,M,M,M,M,M,80.00,KHTH 110615Z AUTO 32008KT 10SM CLR 28/00 A3007 RMK A01,M
10U,2024-08-11 06:15,-116.1876,41.9532,1637.00,59.00,35.60,41.42,0.00,0.00,0.00,30.13,M,10.00,M,CLR,M,M,M,M,M,M,M,M,M,M,M,M,M,M,59.00,K10U 110615Z AUTO 00000KT 10SM CLR 15/02 A3013 RMK AO2,M
TMT,2024-08-11 06:15,-117.1971,39.4643,1749.34,57.70,29.00,33.27,210.00,5.00,0.00,30.18,M,10.00,M,CLR,M,M,M,M,M,M,M,M,M,M,M,M,M,M,57.70,KTMT 110615Z AUTO 21005KT 10SM CLR 14/M02 A3018 RMK AO2 T01431016,M
05U,2024-08-11 06:30,-116.0051,39.6042,1811.23,M,M,M,0.00,0.00,0.00,30.19,M,10.00,M,CLR,M,M,M,M,M,M,M,M,M,M,M,M,M,M,M,K05U 110630Z AUTO 00000KT 10SM CLR A3019 RMK A01,M
BVU,2024-08-11 06:35,-114.8611,35.9475,671.00,91.40,60.80,36.08,140.00,9.00,0.00,29.91,M,10.00,M,CLR,M,M,M,M,M,M,M,M,M,M,M,M,M,M,91.40,KBVU 110635Z AUTO 14009KT 10SM CLR 33/16 A2991 RMK AO2,M
CXP,2024-08-11 06:35,-119.7326,39.1923,1431.00,66.20,24.80,20.72,320.00,5.00,0.00,30.15,M,10.00,M,CLR,M,M,M,M,M,M,M,M,M,M,M,M,M,M,66.20,KCXP 110635Z AUTO 32005KT 10SM CLR 19/M04 A3015 RMK AO2,M
RTS,2024-08-11 06:35,-119.8764,39.6682,1539.00,66.20,23.00,19.22,290.00,7.00,0.00,30.17,M,10.00,M,CLR,M,M,M,M,M,M,M,M,M,M,M,M,M,M,66.20,KRTS 110635Z AUTO 29007KT 10SM CLR 19/M05 A3017 RMK AO2,M
MEV,2024-08-11 06:35,-119.7500,38.9963,1441.42,64.40,33.80,31.85,0.00,0.00,0.00,30.14,M,10.00,M,CLR,M,M,M,M,M,M,M,M,M,M,M,M,M,M,64.40,KMEV 110635Z AUTO 00000KT 10SM CLR 18/01 A3014 RMK AO2,M
BAM,2024-08-11 06:35,-116.8743,40.5990,1382.36,64.40,28.40,25.60,160.00,7.00,0.00,30.06,M,10.00,M,CLR,M,M,M,M,M,M,M,M,M,M,M,M,M,M,64.40,KBAM 110635Z AUTO 16007KT 10SM CLR 18/M02 A3006 RMK AO1,M
HTH,2024-08-11 06:35,-118.6315,38.5448,1282.89,M,M,M,M,M,0.00,M,M,M,M,M,M,M,M,M,M,M,M,M,M,M,M,M,M,M,M,KHTH 110635Z AUTO RMK A01,M
10U,2024-08-11 06:35,-116.1876,41.9532,1637.00,59.00,35.60,41.42,0.00,0.00,0.00,30.14,M,10.00,M,CLR,M,M,M,M,M,M,M,M,M,M,M,M,M,M,59.00,K10U 110635Z AUTO 00000KT 10SM CLR 15/02 A3014 RMK AO2,M
TMT,2024-08-11 06:35,-117.1971,39.4643,1749.34,57.20,30.00,35.29,230.00,4.00,0.00,30.18,M,10.00,M,CLR,M,M,M,M,M,M,M,M,M,M,M,M,M,M,57.20,KTMT 110635Z AUTO 23004KT 10SM CLR 14/M01 A3018 RMK AO2 T01401011,M
P68,2024-08-11 06:53,-116.0056,39.6014,1993.00,56.00,25.00,30.00,150.00,5.00,0.00,30.17,1012.50,M,M,M,M,M,M,M,M,M,M,M,M,M,M,M,M,M,56.00,KP68 110653Z AUTO 15005KT 13/M04 A3017 RMK AO1 SLP125 T01331039,M
DRA,2024-08-11 06:53,-116.0278,36.6206,1009.00,94.00,54.00,26.05,200.00,20.00,0.00,29.94,1007.20,10.00,33.00,CLR,M,M,M,M,M,M,M,M,M,M,M,35.00,200.00,2024-08-11 06:43,91.78,KDRA 110653Z AUTO 20020G33KT 10SM CLR 34/12 A2994 RMK AO2 PK WND 20035/0643 SLP072 T03440122,M
ELY,2024-08-11 06:53,-114.8453,39.2950,1909.00,64.00,26.00,23.51,200.00,5.00,0.00,30.20,1011.10,10.00,M,CLR,M,M,M,M,M,M,M,M,M,M,M,M,M,M,64.00,KELY 110653Z AUTO 20005KT 10SM CLR 18/M03 A3020 RMK AO2 SLP111 T01781033,M
VGT,2024-08-11 06:53,-115.1933,36.2111,667.00,97.00,59.00,28.46,150.00,10.00,0.00,29.89,1010.10,10.00,20.00,CLR,M,M,M,M,M,M,M,M,M,M,M,M,M,M,96.72,KVGT 110653Z AUTO 15010G20KT 10SM CLR 36/15 A2989 RMK AO2 SLP101 T03610150,M
LOL,2024-08-11 06:53,-118.5701,40.0684,1192.43,71.00,30.00,21.77,160.00,6.00,0.00,30.03,1012.00,10.00,M,CLR,M,M,M,M,M,M,M,M,M,M,M,M,M,M,71.00,KLOL 110653Z AUTO 16006KT 10SM CLR 22/M01 A3003 RMK AO2 SLP120 T02171011,M
BVU,2024-08-11 06:55,-114.8611,35.9475,671.00,91.40,60.80,36.08,180.00,9.00,0.00,29.92,M,10.00,M,CLR,M,M,M,M,M,M,M,M,M,M,M,M,M,M,91.40,KBVU 110655Z AUTO 18009KT 10SM CLR 33/16 A2992 RMK AO2,M
CXP,2024-08-11 06:55,-119.7326,39.1923,1431.00,68.00,24.80,19.47,0.00,0.00,0.00,30.16,M,10.00,M,CLR,M,M,M,M,M,M,M,M,M,M,M,M,M,M,68.00,KCXP 110655Z AUTO 00000KT 10SM CLR 20/M04 A3016 RMK AO2,M
RNO,2024-08-11 06:55,-119.7711,39.4839,1341.00,77.00,28.00,16.40,250.00,8.00,0.00,30.12,1013.40,10.00,M,SCT,M,M,M,12000.00,M,M,M,M,M,M,M,M,M,M,77.00,KRNO 110655Z 25008KT 10SM SCT120 25/M02 A3012 RMK AO2 SLP134 T02501022,M
RTS,2024-08-11 06:55,-119.8764,39.6682,1539.00,68.00,23.00,18.06,270.00,11.00,0.00,30.17,M,10.00,M,CLR,M,M,M,M,M,M,M,M,M,M,M,M,M,M,68.00,KRTS 110655Z AUTO 27011KT 10SM CLR 20/M05 A3017 RMK AO2,M
05U,2024-08-11 06:55,-116.0051,39.6042,1811.23,M,M,M,0.00,0.00,0.00,30.19,M,9.00,M,CLR,M,M,M,M,M,M,M,M,M,M,M,M,M,M,M,K05U 110655Z AUTO 00000KT 9SM CLR A3019 RMK A01,M
MEV,2024-08-11 06:55,-119.7500,38.9963,1441.42,60.80,35.60,38.85,0.00,0.00,0.00,30.15,M,10.00,M,CLR,M,M,M,M,M,M,M,M,M,M,M,M,M,M,60.80,KMEV 110655Z AUTO 00000KT 10SM CLR 16/02 A3015 RMK AO2,M
BAM,2024-08-11 06:55,-116.8743,40.5990,1382.36,66.20,28.40,24.04,210.00,5.00,0.00,30.07,M,10.00,M,CLR,M,M,M,M,M,M,M,M,M,M,M,M,M,M,66.20,KBAM 110655Z AUTO 21005KT 10SM CLR 19/M02 A3007 RMK AO1,M
HTH,2024-08-11 06:55,-118.6315,38.5448,1282.89,80.60,26.60,13.75,310.00,10.00,0.00,30.08,M,M,M,M,M,M,M,M,M,M,M,M,M,M,M,M,M,M,78.68,KHTH 110655Z AUTO 31010KT 27/M03 A3008 RMK A01,M
10U,2024-08-11 06:55,-116.1876,41.9532,1637.00,60.80,37.40,41.71,360.00,4.00,0.00,30.14,M,10.00,M,CLR,M,M,M,M,M,M,M,M,M,M,M,M,M,M,60.80,K10U 110655Z AUTO 36004KT 10SM CLR 16/03 A3014 RMK AO2,M
TMT,2024-08-11 06:55,-117.1971,39.4643,1749.34,55.40,29.30,36.60,220.00,4.00,0.00,30.19,M,10.00,M,CLR,M,M,M,M,M,M,M,M,M,M,M,M,M,M,55.40,KTMT 110655Z AUTO 22004KT 10SM CLR 13/M01 A3019 RMK AO2 T01301015,M
INS,2024-08-11 06:55,-115.6733,36.5872,955.00,91.20,57.20,31.92,130.00,17.00,0.00,29.93,1007.00,10.00,20.00,CLR,M,M,M,M,M,M,M,M,M,M,M,M,M,M,89.86,KINS 110655Z AUTO 13017G20KT 10SM CLR 33/14 A2993 RMK AO2 SLP070 T03290140,M
LSV,2024-08-11 06:55,-115.0343,36.2362,570.00,95.70,58.30,28.88,140.00,9.00,0.00,29.85,1007.40,10.00,M,CLR,M,M,M,M,M,M,M,M,M,M,M,M,M,M,94.99,KLSV 110655Z AUTO 14009KT 10SM CLR 35/15 A2985 RMK AO2 SLP074 T03540146 $,M
EKO,2024-08-11 06:56,-115.7860,40.8242,1367.00,64.00,27.00,24.51,0.00,0.00,0.00,30.09,1012.30,10.00,M,CLR,M,M,M,M,M,M,M,M,M,M,M,M,M,M,64.00,KEKO 110656Z AUTO 00000KT 10SM CLR 18/M03 A3009 RMK AO2 SLP123 T01781028,M
WMC,2024-08-11 06:56,-117.8072,40.9019,1315.00,63.00,26.00,24.35,0.00,0.00,0.00,30.04,1011.90,10.00,M,CLR,M,M,M,M,M,M,M,M,M,M,M,M,M,M,63.00,KWMC 110656Z AUTO 00000KT 10SM CLR 17/M03 A3004 RMK AO2 SLP119 T01721033,M
HND,2024-08-11 06:56,-115.1344,35.9729,742.79,92.00,61.00,35.66,170.00,15.00,0.00,29.94,1011.50,10.00,M,CLR,M,M,M,M,M,M,M,M,M,M,M,M,M,M,92.12,KHND 110656Z AUTO 17015KT 10SM CLR 33/16 A2994 RMK AO2 SLP115 T03330161 404220289,M
TPH,2024-08-11 06:56,-117.0904,38.0505,1654.00,79.00,23.00,12.47,300.00,9.00,0.00,30.13,1010.20,10.00,M,CLR,M,M,M,M,M,M,M,M,M,M,M,M,M,M,79.00,KTPH 110656Z AUTO 30009KT 10SM CLR 26/M05 A3013 RMK AO2 SLP102 T02611050,M
LAS,2024-08-11 06:56,-115.1634,36.0719,663.00,96.00,59.00,29.34,170.00,5.00,0.00,29.91,1009.40,10.00,M,FEW,FEW,M,M,11000.00,17000.00,M,M,M,M,M,M,M,M,M,95.61,KLAS 110656Z 17005KT 10SM FEW110 FEW170 36/15 A2991 RMK AO2 SLP094 T03560150,M
BVU,2024-08-11 07:15,-114.8611,35.9475,671.00,91.40,60.80,36.08,170.00,11.00,0.00,29.92,M,10.00,M,CLR,M,M,M,M,M,M,M,M,M,M,M,M,M,M,91.40,KBVU 110715Z AUTO 17011KT 10SM CLR 33/16 A2992 RMK AO2,M
CXP,2024-08-11 07:15,-119.7326,39.1923,1431.00,64.40,26.60,23.77,0.00,0.00,0.00,30.16,M,10.00,M,CLR,M,M,M,M,M,M,M,M,M,M,M,M,M,M,64.40,KCXP 110715Z AUTO 00000KT 10SM CLR 18/M03 A3016 RMK AO2,M
RTS,2024-08-11 07:15,-119.8764,39.6682,1539.00,68.00,23.00,18.06,250.00,9.00,0.00,30.17,M,10.00,M,CLR,M,M,M,M,M,M,M,M,M,M,M,M,M,M,68.00,KRTS 110715Z AUTO 25009KT 10SM CLR 20/M05 A3017 RMK AO2,M
05U,2024-08-11 07:15,-116.0051,39.6042,1811.23,M,M,M,0.00,0.00,0.00,30.19,M,10.00,M,CLR,M,M,M,M,M,M,M,M,M,M,M,M,M,M,M,K05U 110715Z AUTO 00000KT 10SM CLR A3019 RMK A01,M
MEV,2024-08-11 07:15,-119.7500,38.9963,1441.42,57.20,37.40,47.44,0.00,0.00,0.00,30.15,M,10.00,M,CLR,M,M,M,M,M,M,M,M,M,M,M,M,M,M,57.20,KMEV 110715Z AUTO 00000KT 10SM CLR 14/03 A3015 RMK AO2,M
BAM,2024-08-11 07:15,-116.8743,40.5990,1382.36,66.20,28.40,24.04,180.00,3.00,0.00,30.06,M,10.00,M,CLR,M,M,M,M,M,M,M,M,M,M,M,M,M,M,66.20,KBAM 110715Z AUTO 18003KT 10SM CLR 19/M02 A3006 RMK AO1,M
HTH,2024-08-11 07:15,-118.6315,38.5448,1282.89,80.60,24.80,12.76,310.00,9.00,0.00,30.08,M,10.00,M,M,M,M,M,M,M,M,M,M,M,M,M,M,M,M,78.94,KHTH 110715Z AUTO 31009KT 10SM 27/M04 A3008 RMK A01,M
10U,2024-08-11 07:15,-116.1876,41.9532,1637.00,60.80,39.20,44.76,0.00,0.00,0.00,30.14,M,10.00,M,CLR,M,M,M,M,M,M,M,M,M,M,M,M,M,M,60.80,K10U 110715Z AUTO 00000KT 10SM CLR 16/04 A3014 RMK AO2,M
TMT,2024-08-11 07:15,-117.1971,39.4643,1749.34,52.70,28.80,39.58,120.00,4.00,0.00,30.19,M,10.00,M,CLR,M,M,M,M,M,M,M,M,M,M,M,M,M,M,52.70,KTMT 110715Z AUTO 12004KT 10SM CLR 12/M02 A3019 RMK AO2 T01151018,M
05U,2024-08-11 07:30,-116.0051,39.6042,1811.23,M,M,M,0.00,0.00,0.00,30.20,M,10.00,M,CLR,M,M,M,M,M,M,M,M,M,M,M,M,M,M,M,K05U 110730Z AUTO 00000KT 10SM CLR A3020 RMK A01,M
BVU,2024-08-11 07:35,-114.8611,35.9475,671.00,91.40,60.80,36.08,180.00,8.00,0.00,29.91,M,10.00,15.00,CLR,M,M,M,M,M,M,M,M,M,M,M,M,M,M,91.40,KBVU 110735Z AUTO 18008G15KT 10SM CLR 33/16 A2991 RMK AO2,M
CXP,2024-08-11 07:35,-119.7326,39.1923,1431.00,66.20,24.80,20.72,0.00,0.00,0.00,30.16,M,10.00,M,CLR,M,M,M,M,M,M,M,M,M,M,M,M,M,M,66.20,KCXP 110735Z AUTO 00000KT 10SM CLR 19/M04 A3016 RMK AO2,M
RTS,2024-08-11 07:35,-119.8764,39.6682,1539.00,68.00,23.00,18.06,290.00,5.00,0.00,30.18,M,10.00,12.00,CLR,M,M,M,M,M,M,M,M,M,M,M,M,M,M,68.00,KRTS 110735Z AUTO 29005G12KT 10SM CLR 20/M05 A3018 RMK AO2,M
MEV,2024-08-11 07:35,-119.7500,38.9963,1441.42,55.40,32.00,40.84,0.00,0.00,0.00,30.15,M,10.00,M,CLR,M,M,M,M,M,M,M,M,M,M,M,M,M,M,55.40,KMEV 110735Z AUTO 00000KT 10SM CLR 13/00 A3015 RMK AO2,M
BAM,2024-08-11 07:35,-116.8743,40.5990,1382.36,64.40,28.40,25.60,200.00,3.00,0.00,30.06,M,10.00,M,CLR,M,M,M,M,M,M,M,M,M,M,M,M,M,M,64.40,KBAM 110735Z AUTO 20003KT 10SM CLR 18/M02 A3006 RMK AO1,M
HTH,2024-08-11 07:35,-118.6315,38.5448,1282.89,80.60,24.80,12.76,320.00,10.00,0.00,30.08,M,10.00,M,M,M,M,M,M,M,M,M,M,M,M,M,M,M,M,78.94,KHTH 110735Z AUTO 32010KT 10SM 27/M04 A3008 RMK A01,M
10U,2024-08-11 07:35,-116.1876,41.9532,1637.00,57.20,35.60,44.19,120.00,7.00,0.00,30.14,M,10.00,M,CLR,M,M,M,M,M,M,M,M,M,M,M,M,M,M,57.20,K10U 110735Z AUTO 12007KT 10SM CLR 14/02 A3014 RMK AO2,M
TMT,2024-08-11 07:35,-117.1971,39.4643,1749.34,50.00,24.30,36.31,0.00,0.00,0.00,30.19,M,10.00,M,CLR,M,M,M,M,M,M,M,M,M,M,M,M,M,M,50.00,KTMT 110735Z AUTO 00000KT 10SM CLR 10/M04 A3019 RMK AO2 T00991043,M
05U,2024-08-11 07:50,-116.0051,39.6042,1811.23,M,M,M,0.00,0.00,0.00,30.20,M,10.00,M,CLR,M,M,M,M,M,M,M,M,M,M,M,M,M,M,M,K05U 110750Z AUTO 00000KT 10SM CLR A3020 RMK A01,M
P68,2024-08-11 07:53,-116.0056,39.6014,1993.00,57.00,23.00,26.61,190.00,5.00,0.00,30.18,1012.60,M,M,M,M,M,M,M,M,M,M,M,M,M,M,M,M,M,57.00,KP68 110753Z AUTO 19005KT 14/M05 A3018 RMK AO1 SLP126 T01391050 403610122,M
DRA,2024-08-11 07:53,-116.0278,36.6206,1009.00,94.00,52.00,24.20,200.00,14.00,0.00,29.93,1006.90,10.00,24.00,CLR,M,M,M,M,M,M,M,M,M,M,M,34.00,200.00,2024-08-11 06:56,91.30,KDRA 110753Z AUTO 20014G24KT 10SM CLR 34/11 A2993 RMK AO2 PK WND 20034/0656 SLP069 T03440111 404110256,M
ELY,2024-08-11 07:53,-114.8453,39.2950,1909.00,59.00,28.00,30.48,170.00,12.00,0.00,30.20,1011.40,10.00,M,CLR,M,M,M,M,M,M,M,M,M,M,M,M,M,M,59.00,KELY 110753Z AUTO 17012KT 10SM CLR 15/M02 A3020 RMK AO2 SLP114 T01501022 403390111,M
VGT,2024-08-11 07:53,-115.1933,36.2111,667.00,95.00,60.00,31.36,130.00,14.00,0.00,29.88,1010.00,10.00,M,CLR,M,M,M,M,M,M,M,M,M,M,M,M,M,M,94.94,KVGT 110753Z AUTO 13014KT 10SM CLR 35/16 A2988 RMK AO2 SLP100 T03500156 404280311,M
LOL,2024-08-11 07:53,-118.5701,40.0684,1192.43,69.00,30.00,23.30,90.00,9.00,0.00,30.04,1012.30,10.00,M,CLR,M,M,M,M,M,M,M,M,M,M,M,M,M,M,69.00,KLOL 110753Z AUTO 09009KT 10SM CLR 21/M01 A3004 RMK AO2 SLP123 T02061011 403670128,M
BVU,2024-08-11 07:55,-114.8611,35.9475,671.00,91.40,60.80,36.08,M,6.00,0.00,29.91,M,10.00,M,CLR,M,M,M,M,M,M,M,M,M,M,M,M,M,M,91.40,KBVU 110755Z AUTO VRB06KT 10SM CLR 33/16 A2991 RMK AO2,M
CXP,2024-08-11 07:55,-119.7326,39.1923,1431.00,64.40,26.60,23.77,0.00,0.00,0.00,30.16,M,10.00,M,CLR,M,M,M,M,M,M,M,M,M,M,M,M,M,M,64.40,KCXP 110755Z AUTO 00000KT 10SM CLR 18/M03 A3016 RMK AO2,M
RNO,2024-08-11 07:55,-119.7711,39.4839,1341.00,71.00,27.00,19.25,190.00,4.00,0.00,30.13,1013.90,10.00,M,SCT,M,M,M,20000.00,M,M,M,M,M,M,M,M,M,M,71.00,KRNO 110755Z 19004KT 10SM SCT200 22/M03 A3013 RMK AO2 SLP139 T02171028 403720167,M
RTS,2024-08-11 07:55,-119.8764,39.6682,1539.00,64.40,24.80,22.06,290.00,8.00,0.00,30.18,M,10.00,M,CLR,M,M,M,M,M,M,M,M,M,M,M,M,M,M,64.40,KRTS 110755Z AUTO 29008KT 10SM CLR 18/M04 A3018 RMK AO2,M
MEV,2024-08-11 07:55,-119.7500,38.9963,1441.42,51.80,32.00,46.59,130.00,4.00,0.00,30.15,M,10.00,M,CLR,M,M,M,M,M,M,M,M,M,M,M,M,M,M,51.80,KMEV 110755Z AUTO 13004KT 10SM CLR 11/M00 A3015 RMK AO2,M
BAM,2024-08-11 07:55,-116.8743,40.5990,1382.36,64.40,28.40,25.60,0.00,0.00,0.00,30.07,M,10.00,M,CLR,M,M,M,M,M,M,M,M,M,M,M,M,M,M,64.40,KBAM 110755Z AUTO 00000KT 10SM CLR 18/M02 A3007 RMK AO1,M
HTH,2024-08-11 07:55,-118.6315,38.5448,1282.89,78.80,28.40,15.71,300.00,7.00,0.00,30.09,M,10.00,M,CLR,M,M,M,M,M,M,M,M,M,M,M,M,M,M,78.80,KHTH 110755Z AUTO 30007KT 10SM CLR 26/M02 A3009 RMK A01,M
10U,2024-08-11 07:55,-116.1876,41.9532,1637.00,55.40,35.60,47.16,0.00,0.00,0.00,30.15,M,10.00,M,CLR,M,M,M,M,M,M,M,M,M,M,M,M,M,M,55.40,K10U 110755Z AUTO 00000KT 10SM CLR 13/02 A3015 RMK AO2,M
TMT,2024-08-11 07:55,-117.1971,39.4643,1749.34,52.00,28.00,39.30,340.00,3.00,0.00,30.19,M,10.00,M,CLR,M,M,M,M,M,M,M,M,M,M,M,M,M,M,52.00,KTMT 110755Z AUTO 34003KT 10SM CLR 11/M02 A3019 RMK AO2 T01121022 403360065,M
INS,2024-08-11 07:55,-115.6733,36.5872,955.00,89.40,56.50,32.93,110.00,12.00,0.00,29.93,1006.90,10.00,M,CLR,M,M,M,M,M,M,M,M,M,M,M,M,M,M,87.88,KINS 110755Z AUTO 11012KT 10SM CLR 32/14 A2993 RMK AO2 SLP069 T03190136 404040261,M
LSV,2024-08-11 07:55,-115.0343,36.2362,570.00,94.60,59.00,30.64,140.00,14.00,0.00,29.84,1007.00,10.00,M,CLR,M,M,M,M,M,M,M,M,M,M,M,M,M,M,94.07,KLSV 110755Z AUTO 14014KT 10SM CLR 35/15 A2984 RMK AO2 SLP070 T03480151 404340305 $,M
EKO,2024-08-11 07:56,-115.7860,40.8242,1367.00,60.00,28.00,29.41,0.00,0.00,0.00,30.09,1012.70,10.00,M,CLR,M,M,M,M,M,M,M,M,M,M,M,M,M,M,60.00,KEKO 110756Z AUTO 00000KT 10SM CLR 16/M02 A3009 RMK AO2 SLP127 T01561022 403560100,M
WMC,2024-08-11 07:56,-117.8072,40.9019,1315.00,60.00,26.00,27.08,0.00,0.00,0.00,30.05,1012.00,10.00,M,CLR,M,M,M,M,M,M,M,M,M,M,M,M,M,M,60.00,KWMC 110756Z AUTO 00000KT 10SM CLR 16/M03 A3005 RMK AO2 SLP120 T01561033 403610150,M
HND,2024-08-11 07:56,-115.1344,35.9729,742.79,91.00,61.00,36.80,170.00,11.00,0.00,29.93,1011.30,10.00,M,FEW,M,M,M,12000.00,M,M,M,M,M,M,M,M,M,M,91.06,KHND 110756Z AUTO 17011KT 10SM FEW120 33/16 A2993 RMK AO2 SLP113 T03280161,M
TPH,2024-08-11 07:56,-117.0904,38.0505,1654.00,75.00,24.00,14.85,330.00,8.00,0.00,30.14,1010.50,10.00,M,CLR,M,M,M,M,M,M,M,M,M,M,M,M,M,M,75.00,KTPH 110756Z AUTO 33008KT 10SM CLR 24/M04 A3014 RMK AO2 SLP105 T02391044 403670194,M
LAS,2024-08-11 07:56,-115.1634,36.0719,663.00,95.00,59.00,30.26,150.00,5.00,0.00,29.90,1009.00,10.00,M,FEW,M,M,M,13000.00,M,M,M,M,M,M,M,M,M,M,94.51,KLAS 110756Z 15005KT 10SM FEW130 35/15 A2990 RMK AO2 SLP090 T03500150 404330317,M
05U,2024-08-11 08:10,-116.0051,39.6042,1811.23,M,M,M,0.00,0.00,0.00,30.20,M,10.00,M,CLR,M,M,M,M,M,M,M,M,M,M,M,M,M,M,M,K05U 110810Z AUTO 00000KT 10SM CLR A3020 RMK A01,M
BVU,2024-08-11 08:15,-114.8611,35.9475,671.00,91.40,60.80,36.08,170.00,8.00,0.00,29.90,M,10.00,14.00,CLR,M,M,M,M,M,M,M,M,M,M,M,M,M,M,91.40,KBVU 110815Z AUTO 17008G14KT 10SM CLR 33/16 A2990 RMK AO2,M
CXP,2024-08-11 08:15,-119.7326,39.1923,1431.00,62.60,24.80,23.50,0.00,0.00,0.00,30.16,M,10.00,M,CLR,M,M,M,M,M,M,M,M,M,M,M,M,M,M,62.60,KCXP 110815Z AUTO 00000KT 10SM CLR 17/M04 A3016 RMK AO2,M
RTS,2024-08-11 08:15,-119.8764,39.6682,1539.00,62.60,24.80,23.50,300.00,7.00,0.00,30.18,M,10.00,M,CLR,M,M,M,M,M,M,M,M,M,M,M,M,M,M,62.60,KRTS 110815Z AUTO 30007KT 10SM CLR 17/M04 A3018 RMK AO2,M
MEV,2024-08-11 08:15,-119.7500,38.9963,1441.42,51.80,32.00,46.59,140.00,4.00,0.00,30.15,M,10.00,M,CLR,M,M,M,M,M,M,M,M,M,M,M,M,M,M,51.80,KMEV 110815Z AUTO 14004KT 10SM CLR 11/M00 A3015 RMK AO2,M
BAM,2024-08-11 08:15,-116.8743,40.5990,1382.36,71.60,28.40,19.98,0.00,0.00,0.00,30.07,M,10.00,M,CLR,M,M,M,M,M,M,M,M,M,M,M,M,M,M,71.60,KBAM 110815Z AUTO 00000KT 10SM CLR 22/M02 A3007 RMK AO1,M
HTH,2024-08-11 08:15,-118.6315,38.5448,1282.89,77.00,35.60,22.28,300.00,6.00,0.00,30.08,M,10.00,M,CLR,M,M,M,M,M,M,M,M,M,M,M,M,M,M,77.00,KHTH 110815Z AUTO 30006KT 10SM CLR 25/02 A3008 RMK A01,M
10U,2024-08-11 08:15,-116.1876,41.9532,1637.00,59.00,37.40,44.47,0.00,0.00,0.00,30.15,M,10.00,M,SCT,SCT,M,M,7000.00,8000.00,M,M,M,M,M,M,M,M,M,59.00,K10U 110815Z AUTO 00000KT 10SM SCT070 SCT080 15/03 A3015 RMK AO2,M
TMT,2024-08-11 08:15,-117.1971,39.4643,1749.34,53.40,28.40,37.95,280.00,4.00,0.00,30.19,M,10.00,M,CLR,M,M,M,M,M,M,M,M,M,M,M,M,M,M,53.40,KTMT 110815Z AUTO 28004KT 10SM CLR 12/M02 A3019 RMK AO2 T01191020,M
05U,2024-08-11 08:30,-116.0051,39.6042,1811.23,M,M,M,0.00,0.00,0.00,30.20,M,10.00,M,CLR,M,M,M,M,M,M,M,M,M,M,M,M,M,M,M,K05U 110830Z AUTO 00000KT 10SM CLR A3020 RMK A01,M
BVU,2024-08-11 08:35,-114.8611,35.9475,671.00,91.40,60.80,36.08,150.00,13.00,0.00,29.90,M,10.00,18.00,CLR,M,M,M,M,M,M,M,M,M,M,M,M,M,M,91.40,KBVU 110835Z AUTO 15013G18KT 10SM CLR 33/16 A2990 RMK AO2,M
CXP,2024-08-11 08:35,-119.7326,39.1923,1431.00,62.60,23.00,21.79,0.00,0.00,0.00,30.16,M,10.00,M,CLR,M,M,M,M,M,M,M,M,M,M,M,M,M,M,62.60,KCXP 110835Z AUTO 00000KT 10SM CLR 17/M05 A3016 RMK AO2,M
RTS,2024-08-11 08:35,-119.8764,39.6682,1539.00,62.60,24.80,23.50,320.00,8.00,0.00,30.17,M,10.00,M,CLR,M,M,M,M,M,M,M,M,M,M,M,M,M,M,62.60,KRTS 110835Z AUTO 32008KT 10SM CLR 17/M04 A3017 RMK AO2,M
MEV,2024-08-11 08:35,-119.7500,38.9963,1441.42,55.40,32.00,40.84,0.00,0.00,0.00,30.15,M,10.00,M,CLR,M,M,M,M,M,M,M,M,M,M,M,M,M,M,55.40,KMEV 110835Z AUTO 00000KT 10SM CLR 13/M00 A3015 RMK AO2,M
BAM,2024-08-11 08:35,-116.8743,40.5990,1382.36,66.20,28.40,24.04,200.00,6.00,0.00,30.08,M,10.00,M,CLR,M,M,M,M,M,M,M,M,M,M,M,M,M,M,66.20,KBAM 110835Z AUTO 20006KT 10SM CLR 19/M02 A3008 RMK AO1,M
HTH,2024-08-11 08:35,-118.6315,38.5448,1282.89,77.00,33.80,20.74,260.00,7.00,0.00,30.09,M,10.00,M,CLR,M,M,M,M,M,M,M,M,M,M,M,M,M,M,77.00,KHTH 110835Z AUTO 26007KT 10SM CLR 25/01 A3009 RMK A01,M
10U,2024-08-11 08:35,-116.1876,41.9532,1637.00,57.20,37.40,47.44,0.00,0.00,0.00,30.15,M,10.00,M,FEW,SCT,M,M,7000.00,8000.00,M,M,M,M,M,M,M,M,M,57.20,K10U 110835Z AUTO 00000KT 10SM FEW070 SCT080 14/03 A3015 RMK AO2,M
TMT,2024-08-11 08:35,-117.1971,39.4643,1749.34,55.00,27.70,34.78,240.00,6.00,0.00,30.19,M,10.00,M,CLR,M,M,M,M,M,M,M,M,M,M,M,M,M,M,55.00,KTMT 110835Z AUTO 24006KT 10SM CLR 13/M02 A3019 RMK AO2 T01281024,M
P68,2024-08-11 08:53,-116.0056,39.6014,1993.00,57.00,22.00,25.51,180.00,7.00,0.00,30.18,1012.50,M,M,M,M,M,M,M,M,M,M,M,M,M,M,M,M,M,57.00,KP68 110853Z AUTO 18007KT 14/M06 A3018 RMK AO1 SLP125 T01391056 51004,M
DRA,2024-08-11 08:53,-116.0278,36.6206,1009.00,93.00,46.00,19.95,190.00,15.00,0.00,29.94,1007.10,10.00,M,CLR,M,M,M,M,M,M,M,M,M,M,M,M,M,M,89.31,KDRA 110853Z AUTO 19015KT 10SM CLR 34/08 A2994 RMK AO2 SLP071 T03390078 51002,M
ELY,2024-08-11 08:53,-114.8453,39.2950,1909.00,56.00,26.00,31.27,180.00,10.00,0.00,30.20,1011.90,10.00,M,CLR,M,M,M,M,M,M,M,M,M,M,M,M,M,M,56.00,KELY 110853Z AUTO 18010KT 10SM CLR 13/M03 A3020 RMK AO2 SLP119 T01331033 51003,M
VGT,2024-08-11 08:53,-115.1933,36.2111,667.00,92.00,61.00,35.66,120.00,8.00,0.00,29.88,1010.10,10.00,M,CLR,M,M,M,M,M,M,M,M,M,M,M,M,M,M,92.12,KVGT 110853Z AUTO 12008KT 10SM CLR 33/16 A2988 RMK AO2 SLP101 T03330161 51005,M
LOL,2024-08-11 08:53,-118.5701,40.0684,1192.43,64.00,28.00,25.54,250.00,3.00,0.00,30.03,1012.30,10.00,M,CLR,M,M,M,M,M,M,M,M,M,M,M,M,M,M,64.00,KLOL 110853Z AUTO 25003KT 10SM CLR 18/M02 A3003 RMK AO2 SLP123 T01781022 50005,M
BVU,2024-08-11 08:55,-114.8611,35.9475,671.00,91.40,60.80,36.08,150.00,13.00,0.00,29.90,M,10.00,M,CLR,M,M,M,M,M,M,M,M,M,M,M,M,M,M,91.40,KBVU 110855Z AUTO 15013KT 10SM CLR 33/16 A2990 RMK AO2,M
CXP,2024-08-11 08:55,-119.7326,39.1923,1431.00,60.80,23.00,23.23,30.00,3.00,0.00,30.15,M,10.00,M,CLR,M,M,M,M,M,M,M,M,M,M,M,M,M,M,60.80,KCXP 110855Z AUTO 03003KT 10SM CLR 16/M05 A3015 RMK AO2,M
RNO,2024-08-11 08:55,-119.7711,39.4839,1341.00,69.00,29.00,22.37,160.00,3.00,0.00,30.12,1013.70,10.00,M,SCT,M,M,M,20000.00,M,M,M,M,M,M,M,M,M,M,69.00,KRNO 110855Z 16003KT 10SM SCT200 21/M02 A3012 RMK AO2 SLP137 T02061017 50006,M
RTS,2024-08-11 08:55,-119.8764,39.6682,1539.00,62.60,23.00,21.79,330.00,8.00,0.00,30.18,M,10.00,M,CLR,M,M,M,M,M,M,M,M,M,M,M,M,M,M,62.60,KRTS 110855Z AUTO 33008KT 10SM CLR 17/M05 A3018 RMK AO2,M
05U,2024-08-11 08:55,-116.0051,39.6042,1811.23,M,M,M,0.00,0.00,0.00,30.20,M,10.00,M,CLR,M,M,M,M,M,M,M,M,M,M,M,M,M,M,M,K05U 110855Z AUTO 00000KT 10SM CLR A3020 RMK A01,M
MEV,2024-08-11 08:55,-119.7500,38.9963,1441.42,55.40,30.20,37.97,0.00,0.00,0.00,30.15,M,10.00,M,CLR,M,M,M,M,M,M,M,M,M,M,M,M,M,M,55.40,KMEV 110855Z AUTO 00000KT 10SM CLR 13/M01 A3015 RMK AO2,M
BAM,2024-08-11 08:55,-116.8743,40.5990,1382.36,60.80,28.40,29.06,70.00,4.00,0.00,30.08,M,10.00,M,CLR,M,M,M,M,M,M,M,M,M,M,M,M,M,M,60.80,KBAM 110855Z AUTO 07004KT 10SM CLR 16/M02 A3008 RMK AO1,M
HTH,2024-08-11 08:55,-118.6315,38.5448,1282.89,77.00,32.00,19.30,260.00,8.00,0.00,30.09,M,10.00,M,CLR,M,M,M,M,M,M,M,M,M,M,M,M,M,M,77.00,KHTH 110855Z AUTO 26008KT 10SM CLR 25/00 A3009 RMK A01,M
10U,2024-08-11 08:55,-116.1876,41.9532,1637.00,57.20,41.00,54.60,340.00,3.00,0.00,30.15,M,10.00,M,FEW,FEW,M,M,6000.00,7000.00,M,M,M,M,M,M,M,M,M,57.20,K10U 110855Z AUTO 34003KT 10SM FEW060 FEW070 14/05 A3015 RMK AO2,M
TMT,2024-08-11 08:55,-117.1971,39.4643,1749.34,46.20,24.40,42.05,0.00,0.00,0.00,30.19,M,10.00,M,CLR,M,M,M,M,M,M,M,M,M,M,M,M,M,M,46.20,KTMT 110855Z AUTO 00000KT 10SM CLR 08/M04 A3019 RMK AO2 T00791042,M
INS,2024-08-11 08:55,-115.6733,36.5872,955.00,88.30,57.20,34.97,120.00,11.00,0.00,29.93,1007.00,10.00,M,CLR,M,M,M,M,M,M,M,M,M,M,M,M,M,M,87.04,KINS 110855Z AUTO 12011KT 10SM CLR 31/14 A2993 RMK AO2 SLP070 T03130140 51005,M
LSV,2024-08-11 08:55,-115.0343,36.2362,570.00,93.70,59.40,31.95,140.00,13.00,0.00,29.84,1007.00,10.00,M,CLR,M,M,M,M,M,M,M,M,M,M,M,M,M,M,93.26,KLSV 110855Z AUTO 14013KT 10SM CLR 34/15 A2984 RMK AO2 SLP070 T03430152 50005 $,M
EKO,2024-08-11 08:56,-115.7860,40.8242,1367.00,63.00,29.00,27.56,50.00,3.00,0.00,30.10,1012.80,10.00,M,CLR,M,M,M,M,M,M,M,M,M,M,M,M,M,M,63.00,KEKO 110856Z AUTO 05003KT 10SM CLR 17/M02 A3010 RMK AO2 SLP128 T01721017 53004,M
WMC,2024-08-11 08:56,-117.8072,40.9019,1315.00,55.00,26.00,32.42,190.00,3.00,0.00,30.06,1012.70,10.00,M,CLR,M,M,M,M,M,M,M,M,M,M,M,M,M,M,55.00,KWMC 110856Z AUTO 19003KT 10SM CLR 13/M03 A3006 RMK AO2 SLP127 T01281033 53006,M
HND,2024-08-11 08:56,-115.1344,35.9729,742.79,91.00,61.00,36.80,180.00,10.00,0.00,29.93,1011.50,10.00,M,FEW,M,M,M,12000.00,M,M,M,M,M,M,M,M,M,M,91.06,KHND 110856Z AUTO 18010KT 10SM FEW120 33/16 A2993 RMK AO2 SLP115 T03280161 51005,M
TPH,2024-08-11 08:56,-117.0904,38.0505,1654.00,73.00,24.00,15.88,340.00,10.00,0.00,30.14,1010.40,10.00,M,CLR,M,M,M,M,M,M,M,M,M,M,M,M,M,M,73.00,KTPH 110856Z AUTO 34010KT 10SM CLR 23/M04 A3014 RMK AO2 SLP104 T02281044 51004,M
LAS,2024-08-11 08:56,-115.1634,36.0719,663.00,94.00,60.00,32.34,130.00,5.00,0.00,29.91,1009.10,10.00,M,CLR,M,M,M,M,M,M,M,M,M,M,M,M,M,M,93.84,KLAS 110856Z 13005KT 10SM CLR 34/16 A2991 RMK AO2 SLP091 T03440156 51006,M
BVU,2024-08-11 09:15,-114.8611,35.9475,671.00,89.60,60.80,38.18,150.00,15.00,0.00,29.90,M,10.00,M,CLR,M,M,M,M,M,M,M,M,M,M,M,M,M,M,89.54,KBVU 110915Z AUTO 15015KT 10SM CLR 32/16 A2990 RMK AO2,M
CXP,2024-08-11 09:15,-119.7326,39.1923,1431.00,62.60,23.00,21.79,0.00,0.00,0.00,30.15,M,10.00,M,CLR,M,M,M,M,M,M,M,M,M,M,M,M,M,M,62.60,KCXP 110915Z AUTO 00000KT 10SM CLR 17/M05 A3015 RMK AO2,M
RTS,2024-08-11 09:15,-119.8764,39.6682,1539.00,57.20,23.00,26.42,330.00,9.00,0.00,30.17,M,10.00,M,CLR,M,M,M,M,M,M,M,M,M,M,M,M,M,M,57.20,KRTS 110915Z AUTO 33009KT 10SM CLR 14/M05 A3017 RMK AO2,M
05U,2024-08-11 09:15,-116.0051,39.6042,1811.23,M,M,M,190.00,5.00,0.00,30.20,M,10.00,M,CLR,M,M,M,M,M,M,M,M,M,M,M,M,M,M,M,K05U 110915Z AUTO 19005KT 10SM CLR A3020 RMK A01,M
MEV,2024-08-11 09:15,-119.7500,38.9963,1441.42,55.40,30.20,37.97,200.00,8.00,0.00,30.15,M,10.00,M,CLR,M,M,M,M,M,M,M,M,M,M,M,M,M,M,55.40,KMEV 110915Z AUTO 20008KT 10SM CLR 13/M01 A3015 RMK AO2,M
BAM,2024-08-11 09:15,-116.8743,40.5990,1382.36,60.80,26.60,26.98,140.00,5.00,0.00,30.08,M,10.00,M,CLR,M,M,M,M,M,M,M,M,M,M,M,M,M,M,60.80,KBAM 110915Z AUTO 14005KT 10SM CLR 16/M03 A3008 RMK AO1,M
HTH,2024-08-11 09:15,-118.6315,38.5448,1282.89,75.20,30.20,19.05,250.00,7.00,0.00,30.09,M,10.00,M,CLR,M,M,M,M,M,M,M,M,M,M,M,M,M,M,75.20,KHTH 110915Z AUTO 25007KT 10SM CLR 24/M01 A3009 RMK A01,M
10U,2024-08-11 09:15,-116.1876,41.9532,1637.00,53.60,37.40,54.07,340.00,4.00,0.00,30.15,M,10.00,M,SCT,SCT,M,M,6500.00,7500.00,M,M,M,M,M,M,M,M,M,53.60,K10U 110915Z AUTO 34004KT 10SM SCT065 SCT075 12/03 A3015 RMK AO2,M
TMT,2024-08-11 09:15,-117.1971,39.4643,1749.34,46.20,24.00,41.35,0.00,0.00,0.00,30.19,M,10.00,M,CLR,M,M,M,M,M,M,M,M,M,M,M,M,M,M,46.20,KTMT 110915Z AUTO 00000KT 10SM CLR 08/M04 A3019 RMK AO2 T00791045,M
05U,2024-08-11 09:30,-116.0051,39.6042,1811.23,M,M,M,0.00,0.00,0.00,30.20,M,10.00,M,CLR,M,M,M,M,M,M,M,M,M,M,M,M,M,M,M,K05U 110930Z AUTO 00000KT 10SM CLR A3020 RMK A01,M
BVU,2024-08-11 09:35,-114.8611,35.9475,671.00,89.60,60.80,38.18,150.00,13.00,0.00,29.90,M,10.00,19.00,CLR,M,M,M,M,M,M,M,M,M,M,M,M,M,M,89.54,KBVU 110935Z AUTO 15013G19KT 10SM CLR 32/16 A2990 RMK AO2,M
CXP,2024-08-11 09:35,-119.7326,39.1923,1431.00,59.00,26.60,28.77,0.00,0.00,0.00,30.15,M,10.00,M,CLR,M,M,M,M,M,M,M,M,M,M,M,M,M,M,59.00,KCXP 110935Z AUTO 00000KT 10SM CLR 15/M03 A3015 RMK AO2,M
RTS,2024-08-11 09:35,-119.8764,39.6682,1539.00,55.40,21.20,26.13,350.00,5.00,0.00,30.17,M,10.00,M,CLR,M,M,M,M,M,M,M,M,M,M,M,M,M,M,55.40,KRTS 110935Z AUTO 35005KT 10SM CLR 13/M06 A3017 RMK AO2,M
MEV,2024-08-11 09:35,-119.7500,38.9963,1441.42,57.20,32.00,38.26,170.00,6.00,0.00,30.14,M,10.00,M,CLR,M,M,M,M,M,M,M,M,M,M,M,M,M,M,57.20,KMEV 110935Z AUTO 17006KT 10SM CLR 14/M00 A3014 RMK AO2,M
HTH,2024-08-11 09:35,-118.6315,38.5448,1282.89,73.40,30.20,20.23,230.00,5.00,0.00,30.09,M,10.00,M,CLR,M,M,M,M,M,M,M,M,M,M,M,M,M,M,73.40,KHTH 110935Z AUTO 23005KT 10SM CLR 23/M01 A3009 RMK A01,M
10U,2024-08-11 09:35,-116.1876,41.9532,1637.00,51.80,37.40,57.77,130.00,4.00,0.00,30.15,M,10.00,M,BKN,BKN,M,M,6000.00,6500.00,M,M,M,M,M,M,M,M,M,51.80,K10U 110935Z AUTO 13004KT 10SM BKN060 BKN065 11/03 A3015 RMK AO2,M
BAM,2024-08-11 09:35,-116.8743,40.5990,1382.36,59.00,26.60,28.77,150.00,6.00,0.00,30.08,M,10.00,M,CLR,M,M,M,M,M,M,M,M,M,M,M,M,M,M,59.00,KBAM 110935Z AUTO 15006KT 10SM CLR 15/M03 A3008 RMK AO1,M
TMT,2024-08-11 09:35,-117.1971,39.4643,1749.34,47.50,25.00,41.05,0.00,0.00,0.00,30.19,M,10.00,M,CLR,M,M,M,M,M,M,M,M,M,M,M,M,M,M,47.50,KTMT 110935Z AUTO 00000KT 10SM CLR 09/M04 A3019 RMK AO2 T00861038,M
05U,2024-08-11 09:50,-116.0051,39.6042,1811.23,M,M,M,0.00,0.00,0.00,30.20,M,10.00,M,CLR,M,M,M,M,M,M,M,M,M,M,M,M,M,M,M,K05U 110950Z AUTO 00000KT 10SM CLR A3020 RMK A01,M
P68,2024-08-11 09:53,-116.0056,39.6014,1993.00,55.00,24.00,29.83,180.00,7.00,0.00,30.18,1012.60,M,M,M,M,M,M,M,M,M,M,M,M,M,M,M,M,M,55.00,KP68 110953Z AUTO 18007KT 13/M04 A3018 RMK AO1 SLP126 T01281044,M
DRA,2024-08-11 09:53,-116.0278,36.6206,1009.00,90.00,42.00,18.81,160.00,8.00,0.00,29.94,1007.20,10.00,M,CLR,M,M,M,M,M,M,M,M,M,M,M,M,M,M,86.22,KDRA 110953Z AUTO 16008KT 10SM CLR 32/06 A2994 RMK AO2 SLP072 T03220056,M
ELY,2024-08-11 09:53,-114.8453,39.2950,1909.00,52.00,27.00,37.72,180.00,8.00,0.00,30.20,1012.40,10.00,M,CLR,M,M,M,M,M,M,M,M,M,M,M,M,M,M,52.00,KELY 110953Z AUTO 18008KT 10SM CLR 11/M03 A3020 RMK AO2 SLP124 T01111028,M
VGT,2024-08-11 09:53,-115.1933,36.2111,667.00,92.00,61.00,35.66,120.00,12.00,0.00,29.89,1010.20,10.00,M,CLR,M,M,M,M,M,M,M,M,M,M,M,M,M,M,92.12,KVGT 110953Z AUTO 12012KT 10SM CLR 33/16 A2989 RMK AO2 SLP102 T03330161,M
LOL,2024-08-11 09:53,-118.5701,40.0684,1192.43,60.00,29.00,30.64,260.00,5.00,0.00,30.03,1012.40,10.00,M,CLR,M,M,M,M,M,M,M,M,M,M,M,M,M,M,60.00,KLOL 110953Z AUTO 26005KT 10SM CLR 16/M02 A3003 RMK AO2 SLP124 T01561017,M
BVU,2024-08-11 09:55,-114.8611,35.9475,671.00,89.60,60.80,38.18,160.00,16.00,0.00,29.90,M,10.00,M,CLR,M,M,M,M,M,M,M,M,M,M,M,M,M,M,89.54,KBVU 110955Z AUTO 16016KT 10SM CLR 32/16 A2990 RMK AO2,M
CXP,2024-08-11 09:55,-119.7326,39.1923,1431.00,60.80,24.80,25.04,0.00,0.00,0.00,30.15,M,10.00,M,CLR,M,M,M,M,M,M,M,M,M,M,M,M,M,M,60.80,KCXP 110955Z AUTO 00000KT 10SM CLR 16/M04 A3015 RMK AO2,M
RNO,2024-08-11 09:55,-119.7711,39.4839,1341.00,66.00,31.00,26.92,130.00,3.00,0.00,30.13,1013.80,10.00,M,SCT,M,M,M,17000.00,M,M,M,M,M,M,M,M,M,M,66.00,KRNO 110955Z 13003KT 10SM SCT170 19/M01 A3013 RMK AO2 SLP138 T01891006,M
RTS,2024-08-11 09:55,-119.8764,39.6682,1539.00,55.40,21.20,26.13,350.00,9.00,0.00,30.17,M,10.00,M,CLR,M,M,M,M,M,M,M,M,M,M,M,M,M,M,55.40,KRTS 110955Z AUTO 35009KT 10SM CLR 13/M06 A3017 RMK AO2,M
MEV,2024-08-11 09:55,-119.7500,38.9963,1441.42,57.20,32.00,38.26,160.00,6.00,0.00,30.14,M,10.00,M,CLR,M,M,M,M,M,M,M,M,M,M,M,M,M,M,57.20,KMEV 110955Z AUTO 16006KT 10SM CLR 14/M00 A3014 RMK AO2,M
BAM,2024-08-11 09:55,-116.8743,40.5990,1382.36,55.40,28.40,35.28,0.00,0.00,0.00,30.08,M,10.00,M,CLR,M,M,M,M,M,M,M,M,M,M,M,M,M,M,55.40,KBAM 110955Z AUTO 00000KT 10SM CLR 13/M02 A3008 RMK AO1,M
HTH,2024-08-11 09:55,-118.6315,38.5448,1282.89,73.40,32.00,21.76,230.00,3.00,0.00,30.09,M,10.00,M,CLR,M,M,M,M,M,M,M,M,M,M,M,M,M,M,73.40,KHTH 110955Z AUTO 23003KT 10SM CLR 23/M00 A3009 RMK A01,M
10U,2024-08-11 09:55,-116.1876,41.9532,1637.00,53.60,37.40,54.07,360.00,5.00,0.00,30.14,M,10.00,M,OVC,M,M,M,6000.00,M,M,M,M,M,M,M,M,M,M,53.60,K10U 110955Z AUTO 36005KT 10SM OVC060 12/03 A3014 RMK AO2,M
TMT,2024-08-11 09:55,-117.1971,39.4643,1749.34,47.70,26.60,43.54,0.00,0.00,0.00,30.20,M,10.00,M,CLR,M,M,M,M,M,M,M,M,M,M,M,M,M,M,47.70,KTMT 110955Z AUTO 00000KT 10SM CLR 09/M03 A3020 RMK AO2 T00871030,M
INS,2024-08-11 09:55,-115.6733,36.5872,955.00,86.50,57.20,37.03,100.00,11.00,0.00,29.94,1007.50,10.00,M,CLR,M,M,M,M,M,M,M,M,M,M,M,M,M,M,85.41,KINS 110955Z AUTO 10011KT 10SM CLR 30/14 A2994 RMK AO2 SLP075 T03030140,M
LSV,2024-08-11 09:55,-115.0343,36.2362,570.00,93.20,59.70,32.80,140.00,17.00,0.00,29.84,1007.00,10.00,M,CLR,M,M,M,M,M,M,M,M,M,M,M,M,M,M,92.85,KLSV 110955Z AUTO 14017KT 10SM CLR 34/15 A2984 RMK AO2 SLP070 T03400154 $,M
EKO,2024-08-11 09:56,-115.7860,40.8242,1367.00,60.00,31.00,33.24,200.00,5.00,0.00,30.11,1013.20,10.00,M,CLR,M,M,M,M,M,M,M,M,M,M,M,M,M,M,60.00,KEKO 110956Z AUTO 20005KT 10SM CLR 16/M01 A3011 RMK AO2 SLP132 T01561006,M
WMC,2024-08-11 09:56,-117.8072,40.9019,1315.00,55.00,27.00,33.79,120.00,6.00,0.00,30.06,1012.80,10.00,M,CLR,M,M,M,M,M,M,M,M,M,M,M,M,M,M,55.00,KWMC 110956Z AUTO 12006KT 10SM CLR 13/M03 A3006 RMK AO2 SLP128 T01281028,M
HND,2024-08-11 09:56,-115.1344,35.9729,742.79,89.00,61.00,39.18,180.00,10.00,0.00,29.94,1011.60,10.00,M,CLR,M,M,M,M,M,M,M,M,M,M,M,M,M,M,89.01,KHND 110956Z AUTO 18010KT 10SM CLR 32/16 A2994 RMK AO2 SLP116 T03170161,M
TPH,2024-08-11 09:56,-117.0904,38.0505,1654.00,70.00,24.00,17.58,360.00,9.00,0.00,30.14,1010.80,10.00,M,CLR,M,M,M,M,M,M,M,M,M,M,M,M,M,M,70.00,KTPH 110956Z AUTO 36009KT 10SM CLR 21/M04 A3014 RMK AO2 SLP108 T02111044,M
LAS,2024-08-11 09:56,-115.1634,36.0719,663.00,94.00,59.00,31.21,180.00,5.00,0.00,29.91,1009.20,10.00,M,CLR,M,M,M,M,M,M,M,M,M,M,M,M,M,M,93.42,KLAS 110956Z 18005KT 10SM CLR 34/15 A2991 RMK AO2 SLP092 T03440150,M
05U,2024-08-11 10:10,-116.0051,39.6042,1811.23,M,M,M,0.00,0.00,0.00,30.20,M,10.00,M,CLR,M,M,M,M,M,M,M,M,M,M,M,M,M,M,M,K05U 111010Z AUTO 00000KT 10SM CLR A3020 RMK A01,M
BVU,2024-08-11 10:15,-114.8611,35.9475,671.00,89.60,60.80,38.18,160.00,13.00,0.00,29.91,M,10.00,M,CLR,M,M,M,M,M,M,M,M,M,M,M,M,M,M,89.54,KBVU 111015Z AUTO 16013KT 10SM CLR 32/16 A2991 RMK AO2,M
CXP,2024-08-11 10:15,-119.7326,39.1923,1431.00,62.60,24.80,23.50,280.00,3.00,0.00,30.16,M,10.00,M,CLR,M,M,M,M,M,M,M,M,M,M,M,M,M,M,62.60,KCXP 111015Z AUTO 28003KT 10SM CLR 17/M04 A3016 RMK AO2,M
RTS,2024-08-11 10:15,-119.8764,39.6682,1539.00,55.40,19.40,24.21,350.00,7.00,0.00,30.17,M,10.00,M,CLR,M,M,M,M,M,M,M,M,M,M,M,M,M,M,55.40,KRTS 111015Z AUTO 35007KT 10SM CLR 13/M07 A3017 RMK AO2,M
MEV,2024-08-11 10:15,-119.7500,38.9963,1441.42,59.00,32.00,35.87,0.00,0.00,0.00,30.14,M,10.00,M,CLR,M,M,M,M,M,M,M,M,M,M,M,M,M,M,59.00,KMEV 111015Z AUTO 00000KT 10SM CLR 15/M00 A3014 RMK AO2,M
BAM,2024-08-11 10:15,-116.8743,40.5990,1382.36,55.40,28.40,35.28,0.00,0.00,0.00,30.09,M,10.00,M,CLR,M,M,M,M,M,M,M,M,M,M,M,M,M,M,55.40,KBAM 111015Z AUTO 00000KT 10SM CLR 13/M02 A3009 RMK AO1,M
HTH,2024-08-11 10:15,-118.6315,38.5448,1282.89,73.40,30.20,20.23,0.00,0.00,0.00,30.09,M,10.00,M,CLR,M,M,M,M,M,M,M,M,M,M,M,M,M,M,73.40,KHTH 111015Z AUTO 00000KT 10SM CLR 23/M01 A3009 RMK A01,M
10U,2024-08-11 10:15,-116.1876,41.9532,1637.00,53.60,37.40,54.07,210.00,4.00,0.00,30.15,M,10.00,M,BKN,M,M,M,6000.00,M,M,M,M,M,M,M,M,M,M,53.60,K10U 111015Z AUTO 21004KT 10SM BKN060 12/03 A3015 RMK AO2,M
TMT,2024-08-11 10:15,-117.1971,39.4643,1749.34,49.00,28.40,44.66,250.00,3.00,0.00,30.20,M,10.00,M,CLR,M,M,M,M,M,M,M,M,M,M,M,M,M,M,48.12,KTMT 111015Z AUTO 25003KT 10SM CLR 10/M02 A3020 RMK AO2 T00951020,M
05U,2024-08-11 10:30,-116.0051,39.6042,1811.23,M,M,M,0.00,0.00,0.00,30.20,M,10.00,M,CLR,M,M,M,M,M,M,M,M,M,M,M,M,M,M,M,K05U 111030Z AUTO 00000KT 10SM CLR A3020 RMK A01,M
BVU,2024-08-11 10:35,-114.8611,35.9475,671.00,89.60,60.80,38.18,150.00,13.00,0.00,29.91,M,10.00,19.00,CLR,M,M,M,M,M,M,M,M,M,M,M,M,M,M,89.54,KBVU 111035Z AUTO 15013G19KT 10SM CLR 32/16 A2991 RMK AO2,M
CXP,2024-08-11 10:35,-119.7326,39.1923,1431.00,62.60,30.20,29.35,300.00,4.00,0.00,30.16,M,10.00,M,CLR,M,M,M,M,M,M,M,M,M,M,M,M,M,M,62.60,KCXP 111035Z AUTO 30004KT 10SM CLR 17/M01 A3016 RMK AO2,M
RTS,2024-08-11 10:35,-119.8764,39.6682,1539.00,57.20,21.20,24.49,350.00,8.00,0.00,30.17,M,10.00,M,CLR,M,M,M,M,M,M,M,M,M,M,M,M,M,M,57.20,KRTS 111035Z AUTO 35008KT 10SM CLR 14/M06 A3017 RMK AO2,M
MEV,2024-08-11 10:35,-119.7500,38.9963,1441.42,57.20,33.80,41.13,0.00,0.00,0.00,30.14,M,10.00,M,CLR,M,M,M,M,M,M,M,M,M,M,M,M,M,M,57.20,KMEV 111035Z AUTO 00000KT 10SM CLR 14/01 A3014 RMK AO2,M
HTH,2024-08-11 10:35,-118.6315,38.5448,1282.89,71.60,33.80,24.86,0.00,0.00,0.00,30.09,M,10.00,M,CLR,M,M,M,M,M,M,M,M,M,M,M,M,M,M,71.60,KHTH 111035Z AUTO 00000KT 10SM CLR 22/01 A3009 RMK A01,M
10U,2024-08-11 10:35,-116.1876,41.9532,1637.00,50.00,35.60,57.52,240.00,3.00,0.00,30.15,M,10.00,M,BKN,M,M,M,6000.00,M,M,M,M,M,M,M,M,M,M,50.00,K10U 111035Z AUTO 24003KT 10SM BKN060 10/02 A3015 RMK AO2,M
BAM,2024-08-11 10:35,-116.8743,40.5990,1382.36,53.60,26.60,34.98,240.00,4.00,0.00,30.09,M,10.00,M,CLR,M,M,M,M,M,M,M,M,M,M,M,M,M,M,53.60,KBAM 111035Z AUTO 24004KT 10SM CLR 12/M03 A3009 RMK AO1,M
TMT,2024-08-11 10:35,-117.1971,39.4643,1749.34,48.20,28.80,46.78,210.00,3.00,0.00,30.20,M,10.00,M,CLR,M,M,M,M,M,M,M,M,M,M,M,M,M,M,47.21,KTMT 111035Z AUTO 21003KT 10SM CLR 09/M02 A3020 RMK AO2 T00901018,M
P68,2024-08-11 10:53,-116.0056,39.6014,1993.00,56.00,23.00,27.59,170.00,9.00,0.00,30.18,1012.60,M,M,M,M,M,M,M,M,M,M,M,M,M,M,M,M,M,56.00,KP68 111053Z AUTO 17009KT 13/M05 A3018 RMK AO1 SLP126 T01331050,M
DRA,2024-08-11 10:53,-116.0278,36.6206,1009.00,88.00,44.00,21.63,90.00,4.00,0.00,29.95,1007.70,10.00,M,CLR,M,M,M,M,M,M,M,M,M,M,M,M,M,M,84.65,KDRA 111053Z AUTO 09004KT 10SM CLR 31/07 A2995 RMK AO2 SLP077 T03110067,M
ELY,2024-08-11 10:53,-114.8453,39.2950,1909.00,54.00,26.00,33.63,180.00,12.00,0.00,30.21,1012.20,10.00,M,SCT,M,M,M,12000.00,M,M,M,M,M,M,M,M,M,M,54.00,KELY 111053Z AUTO 18012KT 10SM SCT120 12/M03 A3021 RMK AO2 SLP122 T01221033,M
VGT,2024-08-11 10:53,-115.1933,36.2111,667.00,91.00,62.00,38.12,120.00,10.00,0.00,29.90,1010.50,10.00,M,CLR,M,M,M,M,M,M,M,M,M,M,M,M,M,M,91.51,KVGT 111053Z AUTO 12010KT 10SM CLR 33/17 A2990 RMK AO2 SLP105 T03280167,M
LOL,2024-08-11 10:53,-118.5701,40.0684,1192.43,58.00,31.00,35.70,M,3.00,0.00,30.04,1012.70,10.00,M,CLR,M,M,M,M,M,M,M,M,M,M,M,M,M,M,58.00,KLOL 111053Z AUTO VRB03KT 10SM CLR 14/M01 A3004 RMK AO2 SLP127 T01441006,M
BVU,2024-08-11 10:55,-114.8611,35.9475,671.00,89.60,60.80,38.18,170.00,9.00,0.00,29.92,M,10.00,17.00,CLR,M,M,M,M,M,M,M,M,M,M,M,M,M,M,89.54,KBVU 111055Z AUTO 17009G17KT 10SM CLR 32/16 A2992 RMK AO2,M
CXP,2024-08-11 10:55,-119.7326,39.1923,1431.00,62.60,30.20,29.35,0.00,0.00,0.00,30.16,M,10.00,M,CLR,M,M,M,M,M,M,M,M,M,M,M,M,M,M,62.60,KCXP 111055Z AUTO 00000KT 10SM CLR 17/M01 A3016 RMK AO2,M
RNO,2024-08-11 10:55,-119.7711,39.4839,1341.00,67.00,29.00,23.97,270.00,3.00,0.00,30.13,1013.80,10.00,M,FEW,M,M,M,20000.00,M,M,M,M,M,M,M,M,M,M,67.00,KRNO 111055Z 27003KT 10SM FEW200 19/M02 A3013 RMK AO2 SLP138 T01941017,M
RTS,2024-08-11 10:55,-119.8764,39.6682,1539.00,55.40,21.20,26.13,360.00,7.00,0.00,30.17,M,10.00,M,CLR,M,M,M,M,M,M,M,M,M,M,M,M,M,M,55.40,KRTS 111055Z AUTO 36007KT 10SM CLR 13/M06 A3017 RMK AO2,M
05U,2024-08-11 10:55,-116.0051,39.6042,1811.23,M,M,M,0.00,0.00,0.00,30.20,M,10.00,M,CLR,M,M,M,M,M,M,M,M,M,M,M,M,M,M,M,K05U 111055Z AUTO 00000KT 10SM CLR A3020 RMK A01,M
MEV,2024-08-11 10:55,-119.7500,38.9963,1441.42,55.40,33.80,43.90,330.00,3.00,0.00,30.14,M,10.00,M,CLR,M,M,M,M,M,M,M,M,M,M,M,M,M,M,55.40,KMEV 111055Z AUTO 33003KT 10SM CLR 13/01 A3014 RMK AO2,M
BAM,2024-08-11 10:55,-116.8743,40.5990,1382.36,55.40,28.40,35.28,250.00,6.00,0.00,30.08,M,10.00,M,CLR,M,M,M,M,M,M,M,M,M,M,M,M,M,M,55.40,KBAM 111055Z AUTO 25006KT 10SM CLR 13/M02 A3008 RMK AO1,M
HTH,2024-08-11 10:55,-118.6315,38.5448,1282.89,69.80,33.80,26.43,180.00,4.00,0.00,30.09,M,10.00,M,CLR,M,M,M,M,M,M,M,M,M,M,M,M,M,M,69.80,KHTH 111055Z AUTO 18004KT 10SM CLR 21/01 A3009 RMK A01,M
10U,2024-08-11 10:55,-116.1876,41.9532,1637.00,50.00,35.60,57.52,0.00,0.00,0.00,30.15,M,10.00,M,FEW,M,M,M,6000.00,M,M,M,M,M,M,M,M,M,M,50.00,K10U 111055Z AUTO 00000KT 10SM FEW060 10/02 A3015 RMK AO2,M
TMT,2024-08-11 10:55,-117.1971,39.4643,1749.34,42.80,24.60,48.27,140.00,5.00,0.00,30.20,M,10.00,M,CLR,M,M,M,M,M,M,M,M,M,M,M,M,M,M,39.22,KTMT 111055Z AUTO 14005KT 10SM CLR 06/M04 A3020 RMK AO2 T00601041,M
INS,2024-08-11 10:55,-115.6733,36.5872,955.00,85.30,58.00,39.60,100.00,11.00,0.00,29.95,1007.90,10.00,M,CLR,M,M,M,M,M,M,M,M,M,M,M,M,M,M,84.58,KINS 111055Z AUTO 10011KT 10SM CLR 30/15 A2995 RMK AO2 SLP079 T02960145,M
LSV,2024-08-11 10:55,-115.0343,36.2362,570.00,92.00,60.40,34.91,130.00,12.00,0.00,29.85,1007.40,10.00,M,CLR,M,M,M,M,M,M,M,M,M,M,M,M,M,M,91.86,KLSV 111055Z AUTO 13012KT 10SM CLR 33/16 A2985 RMK AO2 SLP074 T03340158 $,M
EKO,2024-08-11 10:56,-115.7860,40.8242,1367.00,59.00,29.00,31.76,0.00,0.00,0.00,30.12,1013.70,10.00,M,CLR,M,M,M,M,M,M,M,M,M,M,M,M,M,M,59.00,KEKO 111056Z AUTO 00000KT 10SM CLR 15/M02 A3012 RMK AO2 SLP137 T01501017,M
WMC,2024-08-11 10:56,-117.8072,40.9019,1315.00,50.00,27.00,40.62,170.00,4.00,0.00,30.06,1013.20,10.00,M,CLR,M,M,M,M,M,M,M,M,M,M,M,M,M,M,50.00,KWMC 111056Z AUTO 17004KT 10SM CLR 10/M03 A3006 RMK AO2 SLP132 T01001028,M
HND,2024-08-11 10:56,-115.1344,35.9729,742.79,88.00,61.00,40.44,160.00,6.00,0.00,29.95,1012.00,10.00,M,CLR,M,M,M,M,M,M,M,M,M,M,M,M,M,M,88.02,KHND 111056Z AUTO 16006KT 10SM CLR 31/16 A2995 RMK AO2 SLP120 T03110161,M
TPH,2024-08-11 10:56,-117.0904,38.0505,1654.00,66.00,23.00,19.35,320.00,5.00,0.00,30.15,1011.50,10.00,M,CLR,M,M,M,M,M,M,M,M,M,M,M,M,M,M,66.00,KTPH 111056Z AUTO 32005KT 10SM CLR 19/M05 A3015 RMK AO2 SLP115 T01891050,M
LAS,2024-08-11 10:56,-115.1634,36.0719,663.00,92.00,60.00,34.42,150.00,5.00,0.00,29.92,1009.60,10.00,M,CLR,M,M,M,M,M,M,M,M,M,M,M,M,M,M,91.69,KLAS 111056Z 15005KT 10SM CLR 33/16 A2992 RMK AO2 SLP096 T03330156,M
NFL,2024-08-11 10:57,-118.7010,39.4166,1199.00,67.00,27.00,22.08,150.00,7.00,0.00,30.05,1014.50,10.00,M,CLR,M,M,M,M,M,M,M,M,M,M,M,M,M,M,67.00,KNFL 111057Z AUTO 15007KT 10SM CLR 19/M03 A3005 RMK AO2 SLP145 T01941028,M
05U,2024-08-11 11:10,-116.0051,39.6042,1811.23,M,M,M,0.00,0.00,0.00,30.20,M,10.00,M,CLR,M,M,M,M,M,M,M,M,M,M,M,M,M,M,M,K05U 111110Z AUTO 00000KT 10SM CLR A3020 RMK A01,M
BVU,2024-08-11 11:15,-114.8611,35.9475,671.00,87.80,60.80,40.41,220.00,6.00,0.00,29.92,M,10.00,13.00,CLR,M,M,M,M,M,M,M,M,M,M,M,M,M,M,87.75,KBVU 111115Z AUTO 22006G13KT 10SM CLR 31/16 A2992 RMK AO2,M
CXP,2024-08-11 11:15,-119.7326,39.1923,1431.00,59.00,28.40,30.98,310.00,4.00,0.00,30.16,M,10.00,M,CLR,M,M,M,M,M,M,M,M,M,M,M,M,M,M,59.00,KCXP 111115Z AUTO 31004KT 10SM CLR 15/M02 A3016 RMK AO2,M
RTS,2024-08-11 11:15,-119.8764,39.6682,1539.00,57.20,21.20,24.49,350.00,5.00,0.00,30.17,M,10.00,M,CLR,M,M,M,M,M,M,M,M,M,M,M,M,M,M,57.20,KRTS 111115Z AUTO 35005KT 10SM CLR 14/M06 A3017 RMK AO2,M
MEV,2024-08-11 11:15,-119.7500,38.9963,1441.42,53.60,33.80,46.88,0.00,0.00,0.00,30.15,M,10.00,M,CLR,M,M,M,M,M,M,M,M,M,M,M,M,M,M,53.60,KMEV 111115Z AUTO 00000KT 10SM CLR 12/01 A3015 RMK AO2,M
BAM,2024-08-11 11:15,-116.8743,40.5990,1382.36,53.60,24.80,32.46,150.00,4.00,0.00,30.09,M,10.00,M,CLR,M,M,M,M,M,M,M,M,M,M,M,M,M,M,53.60,KBAM 111115Z AUTO 15004KT 10SM CLR 12/M04 A3009 RMK AO1,M
HTH,2024-08-11 11:15,-118.6315,38.5448,1282.89,71.60,33.80,24.86,0.00,0.00,0.00,30.09,M,10.00,M,CLR,M,M,M,M,M,M,M,M,M,M,M,M,M,M,71.60,KHTH 111115Z AUTO 00000KT 10SM CLR 22/01 A3009 RMK A01,M
10U,2024-08-11 11:15,-116.1876,41.9532,1637.00,50.00,35.60,57.52,0.00,0.00,0.00,30.15,M,10.00,M,CLR,M,M,M,M,M,M,M,M,M,M,M,M,M,M,50.00,K10U 111115Z AUTO 00000KT 10SM CLR 10/02 A3015 RMK AO2,M
TMT,2024-08-11 11:15,-117.1971,39.4643,1749.34,45.70,25.30,44.49,0.00,0.00,0.00,30.20,M,10.00,M,CLR,M,M,M,M,M,M,M,M,M,M,M,M,M,M,45.70,KTMT 111115Z AUTO 00000KT 10SM CLR 08/M04 A3020 RMK AO2 T00761037,M
05U,2024-08-11 11:30,-116.0051,39.6042,1811.23,M,M,M,190.00,6.00,0.00,30.20,M,10.00,M,CLR,M,M,M,M,M,M,M,M,M,M,M,M,M,M,M,K05U 111130Z AUTO 19006KT 10SM CLR A3020 RMK A01,M
BVU,2024-08-11 11:35,-114.8611,35.9475,671.00,87.80,60.80,40.41,0.00,0.00,0.00,29.93,M,10.00,M,CLR,M,M,M,M,M,M,M,M,M,M,M,M,M,M,87.75,KBVU 111135Z AUTO 00000KT 10SM CLR 31/16 A2993 RMK AO2,M
CXP,2024-08-11 11:35,-119.7326,39.1923,1431.00,59.00,26.60,28.77,0.00,0.00,0.00,30.16,M,10.00,M,CLR,M,M,M,M,M,M,M,M,M,M,M,M,M,M,59.00,KCXP 111135Z AUTO 00000KT 10SM CLR 15/M03 A3016 RMK AO2,M
RTS,2024-08-11 11:35,-119.8764,39.6682,1539.00,53.60,21.20,27.91,350.00,6.00,0.00,30.17,M,10.00,M,CLR,M,M,M,M,M,M,M,M,M,M,M,M,M,M,53.60,KRTS 111135Z AUTO 35006KT 10SM CLR 12/M06 A3017 RMK AO2,M
MEV,2024-08-11 11:35,-119.7500,38.9963,1441.42,46.40,32.00,57.00,0.00,0.00,0.00,30.15,M,10.00,M,CLR,M,M,M,M,M,M,M,M,M,M,M,M,M,M,46.40,KMEV 111135Z AUTO 00000KT 10SM CLR 08/M00 A3015 RMK AO2,M
BAM,2024-08-11 11:35,-116.8743,40.5990,1382.36,55.40,26.60,32.76,0.00,0.00,0.00,30.09,M,10.00,M,CLR,M,M,M,M,M,M,M,M,M,M,M,M,M,M,55.40,KBAM 111135Z AUTO 00000KT 10SM CLR 13/M03 A3009 RMK AO1,M
HTH,2024-08-11 11:35,-118.6315,38.5448,1282.89,69.80,33.80,26.43,190.00,3.00,0.00,30.09,M,10.00,M,CLR,M,M,M,M,M,M,M,M,M,M,M,M,M,M,69.80,KHTH 111135Z AUTO 19003KT 10SM CLR 21/01 A3009 RMK A01,M
10U,2024-08-11 11:35,-116.1876,41.9532,1637.00,50.00,35.60,57.52,0.00,0.00,0.00,30.15,M,10.00,M,CLR,M,M,M,M,M,M,M,M,M,M,M,M,M,M,50.00,K10U 111135Z AUTO 00000KT 10SM CLR 10/02 A3015 RMK AO2,M
TMT,2024-08-11 11:35,-117.1971,39.4643,1749.34,45.00,24.80,44.75,310.00,4.00,0.00,30.20,M,10.00,M,CLR,M,M,M,M,M,M,M,M,M,M,M,M,M,M,42.60,KTMT 111135Z AUTO 31004KT 10SM CLR 07/M04 A3020 RMK AO2 T00731040,M
RTS,2024-08-11 11:40,-119.8764,39.6682,1539.00,53.60,19.40,25.85,0.00,0.00,0.00,30.17,M,10.00,M,CLR,M,M,M,M,M,M,M,M,M,M,M,M,M,M,53.60,KRTS 111140Z AUTO 00000KT 10SM CLR 12/M07 A3017 RMK AO2,M
MEV,2024-08-11 11:45,-119.7500,38.9963,1441.42,46.40,33.80,61.28,100.00,6.00,0.00,30.14,M,10.00,M,CLR,M,M,M,M,M,M,M,M,M,M,M,M,M,M,42.87,KMEV 111145Z AUTO 10006KT 10SM CLR 08/01 A3014 RMK AO2,M
05U,2024-08-11 11:50,-116.0051,39.6042,1811.23,M,M,M,200.00,7.00,0.00,30.21,M,10.00,M,CLR,M,M,M,M,M,M,M,M,M,M,M,M,M,M,M,K05U 111150Z AUTO 20007KT 10SM CLR A3021 RMK A01,M
P68,2024-08-11 11:53,-116.0056,39.6014,1993.00,59.00,24.00,25.82,200.00,7.00,0.00,30.18,1012.40,M,M,M,M,M,M,M,M,M,M,M,M,M,M,M,M,M,59.00,KP68 111153Z AUTO 20007KT 15/M04 A3018 RMK AO1 SLP124 T01501044 10161 20111 53001,M
DRA,2024-08-11 11:53,-116.0278,36.6206,1009.00,83.00,42.00,23.51,30.00,6.00,0.00,29.96,1008.30,10.00,M,CLR,M,M,M,M,M,M,M,M,M,M,M,M,M,M,80.74,KDRA 111153Z AUTO 03006KT 10SM CLR 28/06 A2996 RMK AO2 SLP083 T02830056 10356 20278 53007,M
ELY,2024-08-11 11:53,-114.8453,39.2950,1909.00,54.00,27.00,35.05,180.00,7.00,0.00,30.22,1012.20,10.00,M,CLR,M,M,M,M,M,M,M,M,M,M,M,M,M,M,54.00,KELY 111153Z AUTO 18007KT 10SM CLR 12/M03 A3022 RMK AO2 SLP122 T01221028 10194 20111 53004,M
VGT,2024-08-11 11:53,-115.1933,36.2111,667.00,90.00,62.00,39.34,100.00,7.00,0.00,29.92,1011.30,10.00,M,CLR,M,M,M,M,M,M,M,M,M,M,M,M,M,M,90.46,KVGT 111153Z AUTO 10007KT 10SM CLR 32/17 A2992 RMK AO2 SLP113 T03220167 10367 20322 53010,M
LOL,2024-08-11 11:53,-118.5701,40.0684,1192.43,58.00,30.00,34.28,10.00,4.00,0.00,30.05,1013.10,10.00,M,CLR,M,M,M,M,M,M,M,M,M,M,M,M,M,M,58.00,KLOL 111153Z AUTO 01004KT 10SM CLR 14/M01 A3005 RMK AO2 SLP131 T01441011 10289 20139 53005,M
BVU,2024-08-11 11:55,-114.8611,35.9475,671.00,87.80,60.80,40.41,0.00,0.00,0.00,29.93,M,10.00,M,CLR,M,M,M,M,M,M,M,M,M,M,M,M,M,M,87.75,KBVU 111155Z AUTO 00000KT 10SM CLR 31/16 A2993 RMK AO2,M
CXP,2024-08-11 11:55,-119.7326,39.1923,1431.00,59.00,26.60,28.77,0.00,0.00,0.00,30.16,M,10.00,M,CLR,M,M,M,M,M,M,M,M,M,M,M,M,M,M,59.00,KCXP 111155Z AUTO 00000KT 10SM CLR 15/M03 A3016 RMK AO2,M
RNO,2024-08-11 11:55,-119.7711,39.4839,1341.00,65.00,26.00,22.71,260.00,4.00,0.00,30.13,1014.00,10.00,M,FEW,M,M,M,20000.00,M,M,M,M,M,M,M,M,M,M,65.00,KRNO 111155Z 26004KT 10SM FEW200 18/M03 A3013 RMK AO2 SLP140 T01831033 10267 20167 53002,M
BAM,2024-08-11 11:55,-116.8743,40.5990,1382.36,53.60,28.40,37.67,0.00,0.00,0.00,30.10,M,10.00,M,CLR,M,M,M,M,M,M,M,M,M,M,M,M,M,M,53.60,KBAM 111155Z AUTO 00000KT 10SM CLR 12/M02 A3010 RMK AO1,M
HTH,2024-08-11 11:55,-118.6315,38.5448,1282.89,69.80,35.60,28.39,220.00,3.00,0.00,30.09,M,10.00,M,CLR,M,M,M,M,M,M,M,M,M,M,M,M,M,M,69.80,KHTH 111155Z AUTO 22003KT 10SM CLR 21/02 A3009 RMK A01,M
10U,2024-08-11 11:55,-116.1876,41.9532,1637.00,53.60,37.40,54.07,130.00,7.00,0.00,30.16,M,10.00,M,CLR,M,M,M,M,M,M,M,M,M,M,M,M,M,M,53.60,K10U 111155Z AUTO 13007KT 10SM CLR 12/03 A3016 RMK AO2,M
TMT,2024-08-11 11:55,-117.1971,39.4643,1749.34,44.80,24.80,45.09,0.00,0.00,0.00,30.20,M,10.00,M,CLR,M,M,M,M,M,M,M,M,M,M,M,M,M,M,44.80,KTMT 111155Z AUTO 00000KT 10SM CLR 07/M04 A3020 RMK AO2 T00711040 10167 20059,M
INS,2024-08-11 11:55,-115.6733,36.5872,955.00,84.40,56.70,38.90,0.00,0.00,0.00,29.96,1008.20,10.00,M,CLR,M,M,M,M,M,M,M,M,M,M,M,M,M,M,83.52,KINS 111155Z AUTO 00000KT 10SM CLR 29/14 A2996 RMK AO2 SLP082 T02910137 10347 20291 52009,M
LSV,2024-08-11 11:55,-115.0343,36.2362,570.00,91.80,60.00,34.63,150.00,8.00,0.00,29.87,1008.10,10.00,M,CLR,M,M,M,M,M,M,M,M,M,M,M,M,M,M,91.48,KLSV 111155Z AUTO 15008KT 10SM CLR 33/16 A2987 RMK AO2 SLP081 T03320156 10364 20329 53010 $,M
EKO,2024-08-11 11:56,-115.7860,40.8242,1367.00,59.00,29.00,31.76,0.00,0.00,0.00,30.14,1014.20,10.00,M,CLR,M,M,M,M,M,M,M,M,M,M,M,M,M,M,59.00,KEKO 111156Z AUTO 00000KT 10SM CLR 15/M02 A3014 RMK AO2 SLP142 T01501017 10189 20133 53010,M
WMC,2024-08-11 11:56,-117.8072,40.9019,1315.00,52.00,26.00,36.19,140.00,5.00,0.00,30.07,1013.50,10.00,M,CLR,M,M,M,M,M,M,M,M,M,M,M,M,M,M,52.00,KWMC 111156Z AUTO 14005KT 10SM CLR 11/M03 A3007 RMK AO2 SLP135 T01111033 10206 20100 53006,M
HND,2024-08-11 11:56,-115.1344,35.9729,742.79,86.00,62.00,44.65,170.00,9.00,0.00,29.96,1012.40,10.00,M,CLR,M,M,M,M,M,M,M,M,M,M,M,M,M,M,86.48,KHND 111156Z AUTO 17009KT 10SM CLR 30/17 A2996 RMK AO2 SLP124 T03000167 10344 20300 53008,M
TPH,2024-08-11 11:56,-117.0904,38.0505,1654.00,65.00,24.00,20.89,350.00,6.00,0.00,30.16,1011.90,10.00,M,CLR,M,M,M,M,M,M,M,M,M,M,M,M,M,M,65.00,KTPH 111156Z AUTO 35006KT 10SM CLR 18/M04 A3016 RMK AO2 SLP119 T01831044 10278 20178 53005,M
LAS,2024-08-11 11:56,-115.1634,36.0719,663.00,91.00,61.00,36.80,160.00,8.00,0.00,29.93,1009.80,10.00,M,CLR,M,M,M,M,M,M,M,M,M,M,M,M,M,M,91.06,KLAS 111156Z 16008KT 10SM CLR 33/16 A2993 RMK AO2 SLP098 T03280161 10361 20328 53006,M
NFL,2024-08-11 11:57,-118.7010,39.4166,1199.00,64.00,27.00,24.51,M,5.00,0.00,30.06,1014.70,10.00,M,CLR,M,M,M,M,M,M,M,M,M,M,M,M,M,M,64.00,KNFL 111157Z AUTO VRB05KT 10SM CLR 18/M03 A3006 RMK AO2 SLP147 T01781028 10261 20172 53001,M
MEV,2024-08-11 12:10,-119.7500,38.9963,1441.42,44.60,32.00,61.03,0.00,0.00,0.00,30.15,M,10.00,M,CLR,M,M,M,M,M,M,M,M,M,M,M,M,M,M,44.60,KMEV 111210Z AUTO 00000KT 10SM CLR 07/00 A3015 RMK AO2,M
BVU,2024-08-11 12:15,-114.8611,35.9475,671.00,87.80,60.80,40.41,M,4.00,0.00,29.94,M,10.00,M,CLR,M,M,M,M,M,M,M,M,M,M,M,M,M,M,87.75,KBVU 111215Z AUTO VRB04KT 10SM CLR 31/16 A2994 RMK AO2,M
CXP,2024-08-11 12:15,-119.7326,39.1923,1431.00,53.60,30.20,40.54,0.00,0.00,0.00,30.16,M,10.00,M,CLR,M,M,M,M,M,M,M,M,M,M,M,M,M,M,53.60,KCXP 111215Z AUTO 00000KT 10SM CLR 12/M01 A3016 RMK AO2,M
05U,2024-08-11 12:15,-116.0051,39.6042,1811.23,M,M,M,210.00,8.00,0.00,30.21,M,10.00,M,CLR,M,M,M,M,M,M,M,M,M,M,M,M,M,M,M,K05U 111215Z AUTO 21008KT 10SM CLR A3021 RMK A01,M
BAM,2024-08-11 12:15,-116.8743,40.5990,1382.36,53.60,26.60,34.98,90.00,6.00,0.00,30.10,M,10.00,M,CLR,M,M,M,M,M,M,M,M,M,M,M,M,M,M,53.60,KBAM 111215Z AUTO 09006KT 10SM CLR 12/M03 A3010 RMK AO1,M
HTH,2024-08-11 12:15,-118.6315,38.5448,1282.89,69.80,32.00,24.59,190.00,3.00,0.00,30.10,M,10.00,M,CLR,M,M,M,M,M,M,M,M,M,M,M,M,M,M,69.80,KHTH 111215Z AUTO 19003KT 10SM CLR 21/M00 A3010 RMK A01,M
10U,2024-08-11 12:15,-116.1876,41.9532,1637.00,57.20,37.40,47.44,120.00,9.00,0.00,30.16,M,10.00,M,CLR,M,M,M,M,M,M,M,M,M,M,M,M,M,M,57.20,K10U 111215Z AUTO 12009KT 10SM CLR 14/03 A3016 RMK AO2,M
TMT,2024-08-11 12:15,-117.1971,39.4643,1749.34,47.00,25.50,42.71,250.00,3.00,0.00,30.20,M,10.00,M,CLR,M,M,M,M,M,M,M,M,M,M,M,M,M,M,45.84,KTMT 111215Z AUTO 25003KT 10SM CLR 08/M04 A3020 RMK AO2 T00841036,M
BVU,2024-08-11 12:35,-114.8611,35.9475,671.00,87.80,60.80,40.41,160.00,7.00,0.00,29.94,M,10.00,19.00,CLR,M,M,M,M,M,M,M,M,M,M,M,M,M,M,87.75,KBVU 111235Z AUTO 16007G19KT 10SM CLR 31/16 A2994 RMK AO2,M
CXP,2024-08-11 12:35,-119.7326,39.1923,1431.00,53.60,32.00,43.61,0.00,0.00,0.00,30.17,M,10.00,M,CLR,M,M,M,M,M,M,M,M,M,M,M,M,M,M,53.60,KCXP 111235Z AUTO 00000KT 10SM CLR 12/M00 A3017 RMK AO2,M
RTS,2024-08-11 12:35,-119.8764,39.6682,1539.00,53.60,19.40,25.85,340.00,5.00,0.00,30.18,M,10.00,M,CLR,M,M,M,M,M,M,M,M,M,M,M,M,M,M,53.60,KRTS 111235Z AUTO 34005KT 10SM CLR 12/M07 A3018 RMK AO2,M
05U,2024-08-11 12:35,-116.0051,39.6042,1811.23,M,M,M,0.00,0.00,0.00,30.21,M,10.00,M,CLR,M,M,M,M,M,M,M,M,M,M,M,M,M,M,M,K05U 111235Z AUTO 00000KT 10SM CLR A3021 RMK A01,M
MEV,2024-08-11 12:35,-119.7500,38.9963,1441.42,44.60,30.20,56.74,0.00,0.00,0.00,30.15,M,10.00,M,CLR,M,M,M,M,M,M,M,M,M,M,M,M,M,M,44.60,KMEV 111235Z AUTO 00000KT 10SM CLR 07/M01 A3015 RMK AO2,M
BAM,2024-08-11 12:35,-116.8743,40.5990,1382.36,53.60,28.40,37.67,70.00,3.00,0.00,30.10,M,10.00,M,CLR,M,M,M,M,M,M,M,M,M,M,M,M,M,M,53.60,KBAM 111235Z AUTO 07003KT 10SM CLR 12/M02 A3010 RMK AO1,M
HTH,2024-08-11 12:35,-118.6315,38.5448,1282.89,69.80,33.80,26.43,190.00,4.00,0.00,30.10,M,10.00,M,CLR,M,M,M,M,M,M,M,M,M,M,M,M,M,M,69.80,KHTH 111235Z AUTO 19004KT 10SM CLR 21/01 A3010 RMK A01,M
10U,2024-08-11 12:35,-116.1876,41.9532,1637.00,60.80,35.60,38.85,130.00,10.00,0.00,30.16,M,10.00,M,CLR,M,M,M,M,M,M,M,M,M,M,M,M,M,M,60.80,K10U 111235Z AUTO 13010KT 10SM CLR 16/02 A3016 RMK AO2,M
TMT,2024-08-11 12:35,-117.1971,39.4643,1749.34,48.00,27.50,44.68,240.00,3.00,0.00,30.21,M,10.00,M,CLR,M,M,M,M,M,M,M,M,M,M,M,M,M,M,46.98,KTMT 111235Z AUTO 24003KT 10SM CLR 09/M02 A3021 RMK AO2 T00891025,M
P68,2024-08-11 12:53,-116.0056,39.6014,1993.00,57.00,24.00,27.75,200.00,10.00,0.00,30.20,1013.40,M,M,M,M,M,M,M,M,M,M,M,M,M,M,M,M,M,57.00,KP68 111253Z AUTO 20010KT 14/M04 A3020 RMK AO1 SLP134 T01391044,M
DRA,2024-08-11 12:53,-116.0278,36.6206,1009.00,84.00,42.00,22.77,10.00,7.00,0.00,29.98,1009.00,10.00,M,CLR,M,M,M,M,M,M,M,M,M,M,M,M,M,M,81.42,KDRA 111253Z AUTO 01007KT 10SM CLR 29/06 A2998 RMK AO2 SLP090 T02890056,M
ELY,2024-08-11 12:53,-114.8453,39.2950,1909.00,53.00,26.00,34.88,170.00,7.00,0.00,30.23,1012.80,10.00,M,CLR,M,M,M,M,M,M,M,M,M,M,M,M,M,M,53.00,KELY 111253Z AUTO 17007KT 10SM CLR 12/M03 A3023 RMK AO2 SLP128 T01171033,M
VGT,2024-08-11 12:53,-115.1933,36.2111,667.00,89.00,62.00,40.59,100.00,10.00,0.00,29.94,1012.00,10.00,M,CLR,M,M,M,M,M,M,M,M,M,M,M,M,M,M,89.43,KVGT 111253Z 10010KT 10SM CLR 32/17 A2994 RMK AO2 SLP120 T03170167,M
LOL,2024-08-11 12:53,-118.5701,40.0684,1192.43,56.00,30.00,36.85,50.00,4.00,0.00,30.06,1013.50,10.00,M,CLR,M,M,M,M,M,M,M,M,M,M,M,M,M,M,56.00,KLOL 111253Z AUTO 05004KT 10SM CLR 13/M01 A3006 RMK AO2 SLP135 T01331011,M
BVU,2024-08-11 12:55,-114.8611,35.9475,671.00,87.80,60.80,40.41,150.00,15.00,0.00,29.95,M,10.00,22.00,CLR,M,M,M,M,M,M,M,M,M,M,M,M,M,M,87.75,KBVU 111255Z AUTO 15015G22KT 10SM CLR 31/16 A2995 RMK AO2,M
CXP,2024-08-11 12:55,-119.7326,39.1923,1431.00,53.60,30.20,40.54,0.00,0.00,0.00,30.17,M,10.00,M,CLR,M,M,M,M,M,M,M,M,M,M,M,M,M,M,53.60,KCXP 111255Z AUTO 00000KT 10SM CLR 12/M01 A3017 RMK AO2,M
RNO,2024-08-11 12:55,-119.7711,39.4839,1341.00,63.00,24.00,22.41,310.00,3.00,0.00,30.14,1014.70,10.00,M,FEW,M,M,M,20000.00,M,M,M,M,M,M,M,M,M,M,63.00,KRNO 111255Z 31003KT 10SM FEW200 17/M04 A3014 RMK AO2 SLP147 T01721044,M
RTS,2024-08-11 12:55,-119.8764,39.6682,1539.00,53.60,19.40,25.85,0.00,0.00,0.00,30.18,M,10.00,M,CLR,M,M,M,M,M,M,M,M,M,M,M,M,M,M,53.60,KRTS 111255Z AUTO 00000KT 10SM CLR 12/M07 A3018 RMK AO2,M
05U,2024-08-11 12:55,-116.0051,39.6042,1811.23,M,M,M,0.00,0.00,0.00,30.22,M,10.00,M,CLR,M,M,M,M,M,M,M,M,M,M,M,M,M,M,M,K05U 111255Z AUTO 00000KT 10SM CLR A3022 RMK A01,M
MEV,2024-08-11 12:55,-119.7500,38.9963,1441.42,46.40,33.80,61.28,0.00,0.00,0.00,30.16,M,10.00,M,CLR,M,M,M,M,M,M,M,M,M,M,M,M,M,M,46.40,KMEV 111255Z AUTO 00000KT 10SM CLR 08/01 A3016 RMK AO2,M
BAM,2024-08-11 12:55,-116.8743,40.5990,1382.36,55.40,30.20,37.97,0.00,0.00,0.00,30.11,M,10.00,M,CLR,M,M,M,M,M,M,M,M,M,M,M,M,M,M,55.40,KBAM 111255Z AUTO 00000KT 10SM CLR 13/M01 A3011 RMK AO1,M
HTH,2024-08-11 12:55,-118.6315,38.5448,1282.89,69.80,35.60,28.39,0.00,0.00,0.00,30.10,M,10.00,M,CLR,M,M,M,M,M,M,M,M,M,M,M,M,M,M,69.80,KHTH 111255Z AUTO 00000KT 10SM CLR 21/02 A3010 RMK A01,M
10U,2024-08-11 12:55,-116.1876,41.9532,1637.00,59.00,37.40,44.47,110.00,7.00,0.00,30.17,M,10.00,12.00,CLR,M,M,M,M,M,M,M,M,M,M,M,M,M,M,59.00,K10U 111255Z AUTO 11007G12KT 10SM CLR 15/03 A3017 RMK AO2,M
TMT,2024-08-11 12:55,-117.1971,39.4643,1749.34,47.00,26.80,45.07,150.00,3.00,0.00,30.21,M,10.00,M,CLR,M,M,M,M,M,M,M,M,M,M,M,M,M,M,45.84,KTMT 111255Z AUTO 15003KT 10SM CLR 08/M03 A3021 RMK AO2 T00841029,M
INS,2024-08-11 12:55,-115.6733,36.5872,955.00,84.00,57.60,40.70,0.00,0.00,0.00,29.98,1008.80,10.00,M,CLR,M,M,M,M,M,M,M,M,M,M,M,M,M,M,83.40,KINS 111255Z AUTO 00000KT 10SM CLR 29/14 A2998 RMK AO2 SLP088 T02880142,M
LSV,2024-08-11 12:55,-115.0343,36.2362,570.00,91.00,60.00,35.51,140.00,9.00,0.00,29.89,1008.80,10.00,M,CLR,M,M,M,M,M,M,M,M,M,M,M,M,M,M,90.65,KLSV 111255Z AUTO 14009KT 10SM CLR 33/16 A2989 RMK AO2 SLP088 T03270156 $,M
EKO,2024-08-11 12:56,-115.7860,40.8242,1367.00,60.00,33.00,36.03,80.00,4.00,0.00,30.15,1014.80,10.00,M,CLR,M,M,M,M,M,M,M,M,M,M,M,M,M,M,60.00,KEKO 111256Z AUTO 08004KT 10SM CLR 16/01 A3015 RMK AO2 SLP148 T01560006,M
WMC,2024-08-11 12:56,-117.8072,40.9019,1315.00,50.00,28.00,42.33,140.00,3.00,0.00,30.09,1014.10,10.00,M,CLR,M,M,M,M,M,M,M,M,M,M,M,M,M,M,50.00,KWMC 111256Z AUTO 14003KT 10SM CLR 10/M02 A3009 RMK AO2 SLP141 T01001022,M
HND,2024-08-11 12:56,-115.1344,35.9729,742.79,85.00,62.00,46.11,170.00,9.00,0.00,29.98,1013.20,10.00,M,CLR,M,M,M,M,M,M,M,M,M,M,M,M,M,M,85.55,KHND 111256Z 17009KT 10SM CLR 29/17 A2998 RMK AO2 SLP132 T02940167,M
TPH,2024-08-11 12:56,-117.0904,38.0505,1654.00,63.00,24.00,22.41,340.00,11.00,0.00,30.17,1012.80,10.00,M,CLR,M,M,M,M,M,M,M,M,M,M,M,M,M,M,63.00,KTPH 111256Z AUTO 34011KT 10SM CLR 17/M04 A3017 RMK AO2 SLP128 T01721044,M
LAS,2024-08-11 12:56,-115.1634,36.0719,663.00,90.00,61.00,37.97,150.00,7.00,0.00,29.95,1010.80,10.00,M,FEW,FEW,M,M,17000.00,25000.00,M,M,M,M,M,M,M,M,M,90.03,KLAS 111256Z 15007KT 10SM FEW170 FEW250 32/16 A2995 RMK AO2 SLP108 T03220161,M
NFL,2024-08-11 12:57,-118.7010,39.4166,1199.00,64.00,25.00,22.56,160.00,8.00,0.00,30.07,1015.00,10.00,M,CLR,M,M,M,M,M,M,M,M,M,M,M,M,M,M,64.00,KNFL 111257Z AUTO 16008KT 10SM CLR 18/M04 A3007 RMK AO2 SLP150 T01781039,M
05U,2024-08-11 13:10,-116.0051,39.6042,1811.23,M,M,M,200.00,9.00,0.00,30.22,M,10.00,M,CLR,M,M,M,M,M,M,M,M,M,M,M,M,M,M,M,K05U 111310Z AUTO 20009KT 10SM CLR A3022 RMK A01,M
BVU,2024-08-11 13:15,-114.8611,35.9475,671.00,87.80,60.80,40.41,150.00,14.00,0.00,29.95,M,10.00,20.00,CLR,M,M,M,M,M,M,M,M,M,M,M,M,M,M,87.75,KBVU 111315Z AUTO 15014G20KT 10SM CLR 31/16 A2995 RMK AO2,M
CXP,2024-08-11 13:15,-119.7326,39.1923,1431.00,53.60,30.20,40.54,0.00,0.00,0.00,30.17,M,10.00,M,CLR,M,M,M,M,M,M,M,M,M,M,M,M,M,M,53.60,KCXP 111315Z AUTO 00000KT 10SM CLR 12/M01 A3017 RMK AO2,M
RTS,2024-08-11 13:15,-119.8764,39.6682,1539.00,48.20,19.40,31.57,330.00,6.00,0.00,30.18,M,10.00,M,CLR,M,M,M,M,M,M,M,M,M,M,M,M,M,M,45.04,KRTS 111315Z AUTO 33006KT 10SM CLR 09/M07 A3018 RMK AO2,M
MEV,2024-08-11 13:15,-119.7500,38.9963,1441.42,44.60,32.00,61.03,0.00,0.00,0.00,30.15,M,10.00,M,CLR,M,M,M,M,M,M,M,M,M,M,M,M,M,M,44.60,KMEV 111315Z AUTO 00000KT 10SM CLR 07/M00 A3015 RMK AO2,M
BAM,2024-08-11 13:15,-116.8743,40.5990,1382.36,55.40,32.00,40.84,0.00,0.00,0.00,30.11,M,10.00,M,CLR,M,M,M,M,M,M,M,M,M,M,M,M,M,M,55.40,KBAM 111315Z AUTO 00000KT 10SM CLR 13/00 A3011 RMK AO1,M
HTH,2024-08-11 13:15,-118.6315,38.5448,1282.89,71.60,33.80,24.86,220.00,3.00,0.00,30.11,M,10.00,M,CLR,M,M,M,M,M,M,M,M,M,M,M,M,M,M,71.60,KHTH 111315Z AUTO 22003KT 10SM CLR 22/01 A3011 RMK A01,M
10U,2024-08-11 13:15,-116.1876,41.9532,1637.00,57.20,35.60,44.19,110.00,8.00,0.00,30.17,M,10.00,M,CLR,M,M,M,M,M,M,M,M,M,M,M,M,M,M,57.20,K10U 111315Z AUTO 11008KT 10SM CLR 14/02 A3017 RMK AO2,M
TMT,2024-08-11 13:15,-117.1971,39.4643,1749.34,45.50,24.00,42.46,0.00,0.00,0.00,30.21,M,10.00,M,CLR,M,M,M,M,M,M,M,M,M,M,M,M,M,M,45.50,KTMT 111315Z AUTO 00000KT 10SM CLR 08/M04 A3021 RMK AO2 T00751044,M
05U,2024-08-11 13:30,-116.0051,39.6042,1811.23,M,M,M,0.00,0.00,0.00,30.22,M,10.00,M,CLR,M,M,M,M,M,M,M,M,M,M,M,M,M,M,M,K05U 111330Z AUTO 00000KT 10SM CLR A3022 RMK A01,M
BVU,2024-08-11 13:35,-114.8611,35.9475,671.00,87.80,60.80,40.41,170.00,10.00,0.00,29.96,M,10.00,18.00,CLR,M,M,M,M,M,M,M,M,M,M,M,M,M,M,87.75,KBVU 111335Z AUTO 17010G18KT 10SM CLR 31/16 A2996 RMK AO2,M
CXP,2024-08-11 13:35,-119.7326,39.1923,1431.00,53.60,28.40,37.67,0.00,0.00,0.00,30.17,M,10.00,M,CLR,M,M,M,M,M,M,M,M,M,M,M,M,M,M,53.60,KCXP 111335Z AUTO 00000KT 10SM CLR 12/M02 A3017 RMK AO2,M
RTS,2024-08-11 13:35,-119.8764,39.6682,1539.00,51.80,23.00,32.17,310.00,5.00,0.00,30.18,M,10.00,M,CLR,M,M,M,M,M,M,M,M,M,M,M,M,M,M,51.80,KRTS 111335Z AUTO 31005KT 10SM CLR 11/M05 A3018 RMK AO2,M
MEV,2024-08-11 13:35,-119.7500,38.9963,1441.42,44.60,32.00,61.03,190.00,4.00,0.00,30.16,M,10.00,M,CLR,M,M,M,M,M,M,M,M,M,M,M,M,M,M,42.13,KMEV 111335Z AUTO 19004KT 10SM CLR 07/M00 A3016 RMK AO2,M
BAM,2024-08-11 13:35,-116.8743,40.5990,1382.36,55.40,32.00,40.84,0.00,0.00,0.00,30.12,M,10.00,M,CLR,M,M,M,M,M,M,M,M,M,M,M,M,M,M,55.40,KBAM 111335Z AUTO 00000KT 10SM CLR 13/00 A3012 RMK AO1,M
HTH,2024-08-11 13:35,-118.6315,38.5448,1282.89,69.80,35.60,28.39,180.00,4.00,0.00,30.11,M,10.00,M,CLR,M,M,M,M,M,M,M,M,M,M,M,M,M,M,69.80,KHTH 111335Z AUTO 18004KT 10SM CLR 21/02 A3011 RMK A01,M
10U,2024-08-11 13:35,-116.1876,41.9532,1637.00,55.40,37.40,50.64,120.00,6.00,0.00,30.17,M,10.00,M,CLR,M,M,M,M,M,M,M,M,M,M,M,M,M,M,55.40,K10U 111335Z AUTO 12006KT 10SM CLR 13/03 A3017 RMK AO2,M
TMT,2024-08-11 13:35,-117.1971,39.4643,1749.34,49.00,26.60,41.47,0.00,0.00,0.00,30.21,M,10.00,M,CLR,M,M,M,M,M,M,M,M,M,M,M,M,M,M,49.00,KTMT 111335Z AUTO 00000KT 10SM CLR 09/M03 A3021 RMK AO2 T00941030,M
P68,2024-08-11 13:53,-116.0056,39.6014,1993.00,58.00,25.00,27.91,220.00,3.00,0.00,30.20,1014.20,M,M,M,M,M,M,M,M,M,M,M,M,M,M,M,M,M,58.00,KP68 111353Z AUTO 22003KT 14/M04 A3020 RMK AO1 SLP142 T01441039,M
DRA,2024-08-11 13:53,-116.0278,36.6206,1009.00,83.00,43.00,24.44,30.00,3.00,0.00,30.01,1010.10,10.00,M,CLR,M,M,M,M,M,M,M,M,M,M,M,M,M,M,80.79,KDRA 111353Z AUTO 03003KT 10SM CLR 28/06 A3001 RMK AO2 SLP101 T02830061,M
ELY,2024-08-11 13:53,-114.8453,39.2950,1909.00,55.00,26.00,32.42,170.00,10.00,0.00,30.24,1013.30,10.00,M,CLR,M,M,M,M,M,M,M,M,M,M,M,M,M,M,55.00,KELY 111353Z AUTO 17010KT 10SM CLR 13/M03 A3024 RMK AO2 SLP133 T01281033,M
VGT,2024-08-11 13:53,-115.1933,36.2111,667.00,89.00,63.00,42.05,100.00,9.00,0.00,29.96,1012.70,10.00,M,CLR,M,M,M,M,M,M,M,M,M,M,M,M,M,M,89.89,KVGT 111353Z 10009KT 10SM CLR 32/17 A2996 RMK AO2 SLP127 T03170172,M
LOL,2024-08-11 13:53,-118.5701,40.0684,1192.43,56.00,29.00,35.38,30.00,5.00,0.00,30.07,1014.30,10.00,M,CLR,M,M,M,M,M,M,M,M,M,M,M,M,M,M,56.00,KLOL 111353Z AUTO 03005KT 10SM CLR 13/M02 A3007 RMK AO2 SLP143 T01331017,M
BVU,2024-08-11 13:55,-114.8611,35.9475,671.00,87.80,60.80,40.41,170.00,10.00,0.00,29.97,M,10.00,M,CLR,M,M,M,M,M,M,M,M,M,M,M,M,M,M,87.75,KBVU 111355Z AUTO 17010KT 10SM CLR 31/16 A2997 RMK AO2,M
CXP,2024-08-11 13:55,-119.7326,39.1923,1431.00,55.40,32.00,40.84,0.00,0.00,0.00,30.18,M,10.00,M,CLR,M,M,M,M,M,M,M,M,M,M,M,M,M,M,55.40,KCXP 111355Z AUTO 00000KT 10SM CLR 13/M00 A3018 RMK AO2,M
RNO,2024-08-11 13:55,-119.7711,39.4839,1341.00,64.00,26.00,23.51,M,3.00,0.00,30.15,1014.90,10.00,M,FEW,M,M,M,20000.00,M,M,M,M,M,M,M,M,M,M,64.00,KRNO 111355Z VRB03KT 10SM FEW200 18/M03 A3015 RMK AO2 SLP149 T01781033,M
RTS,2024-08-11 13:55,-119.8764,39.6682,1539.00,51.80,19.40,27.62,340.00,5.00,0.00,30.19,M,10.00,M,CLR,M,M,M,M,M,M,M,M,M,M,M,M,M,M,51.80,KRTS 111355Z AUTO 34005KT 10SM CLR 11/M07 A3019 RMK AO2,M
05U,2024-08-11 13:55,-116.0051,39.6042,1811.23,M,M,M,0.00,0.00,0.00,30.23,M,10.00,M,CLR,M,M,M,M,M,M,M,M,M,M,M,M,M,M,M,K05U 111355Z AUTO 00000KT 10SM CLR A3023 RMK A01,M
MEV,2024-08-11 13:55,-119.7500,38.9963,1441.42,48.20,33.80,57.26,70.00,4.00,0.00,30.16,M,10.00,M,CLR,M,M,M,M,M,M,M,M,M,M,M,M,M,M,46.34,KMEV 111355Z AUTO 07004KT 10SM CLR 09/01 A3016 RMK AO2,M
BAM,2024-08-11 13:55,-116.8743,40.5990,1382.36,59.00,32.00,35.87,0.00,0.00,0.00,30.13,M,10.00,M,CLR,M,M,M,M,M,M,M,M,M,M,M,M,M,M,59.00,KBAM 111355Z AUTO 00000KT 10SM CLR 15/00 A3013 RMK AO1,M
HTH,2024-08-11 13:55,-118.6315,38.5448,1282.89,71.60,35.60,26.71,0.00,0.00,0.00,30.11,M,10.00,M,CLR,M,M,M,M,M,M,M,M,M,M,M,M,M,M,71.60,KHTH 111355Z AUTO 00000KT 10SM CLR 22/02 A3011 RMK A01,M
10U,2024-08-11 13:55,-116.1876,41.9532,1637.00,59.00,37.40,44.47,80.00,4.00,0.00,30.17,M,10.00,M,CLR,M,M,M,M,M,M,M,M,M,M,M,M,M,M,59.00,K10U 111355Z AUTO 08004KT 10SM CLR 15/03 A3017 RMK AO2,M
TMT,2024-08-11 13:55,-117.1971,39.4643,1749.34,52.70,28.00,38.30,360.00,3.00,0.00,30.21,M,10.00,M,CLR,M,M,M,M,M,M,M,M,M,M,M,M,M,M,52.70,KTMT 111355Z AUTO 36003KT 10SM CLR 12/M02 A3021 RMK AO2 T01151023,M
INS,2024-08-11 13:55,-115.6733,36.5872,955.00,83.50,56.00,39.04,160.00,3.00,0.00,30.00,1009.50,10.00,M,CLR,M,M,M,M,M,M,M,M,M,M,M,M,M,M,82.67,KINS 111355Z AUTO 16003KT 10SM CLR 29/13 A3000 RMK AO2 SLP095 T02860133,M
LSV,2024-08-11 13:55,-115.0343,36.2362,570.00,91.00,61.00,36.80,140.00,8.00,0.00,29.92,1009.80,10.00,M,CLR,M,M,M,M,M,M,M,M,M,M,M,M,M,M,91.06,KLSV 111355Z AUTO 14008KT 10SM CLR 33/16 A2992 RMK AO2 SLP098 T03270161 $,M
EKO,2024-08-11 13:56,-115.7860,40.8242,1367.00,62.00,32.00,32.24,60.00,5.00,0.00,30.15,1014.90,10.00,M,CLR,M,M,M,M,M,M,M,M,M,M,M,M,M,M,62.00,KEKO 111356Z AUTO 06005KT 10SM CLR 17/00 A3015 RMK AO2 SLP149 T01670000,M
WMC,2024-08-11 13:56,-117.8072,40.9019,1315.00,55.00,26.00,32.42,120.00,4.00,0.00,30.10,1014.30,10.00,M,CLR,M,M,M,M,M,M,M,M,M,M,M,M,M,M,55.00,KWMC 111356Z AUTO 12004KT 10SM CLR 13/M03 A3010 RMK AO2 SLP143 T01281033,M
HND,2024-08-11 13:56,-115.1344,35.9729,742.79,87.00,63.00,44.80,180.00,10.00,0.00,30.00,1013.90,10.00,M,CLR,M,M,M,M,M,M,M,M,M,M,M,M,M,M,87.86,KHND 111356Z 18010KT 10SM CLR 31/17 A3000 RMK AO2 SLP139 T03060172,M
TPH,2024-08-11 13:56,-117.0904,38.0505,1654.00,66.00,24.00,20.18,350.00,7.00,0.00,30.18,1013.00,10.00,M,CLR,M,M,M,M,M,M,M,M,M,M,M,M,M,M,66.00,KTPH 111356Z AUTO 35007KT 10SM CLR 19/M04 A3018 RMK AO2 SLP130 T01891044,M
LAS,2024-08-11 13:56,-115.1634,36.0719,663.00,90.00,61.00,37.97,0.00,0.00,0.00,29.97,1011.50,10.00,M,FEW,FEW,M,M,17000.00,25000.00,M,M,M,M,M,M,M,M,M,90.03,KLAS 111356Z 00000KT 10SM FEW170 FEW250 32/16 A2997 RMK AO2 SLP115 T03220161,M
NFL,2024-08-11 13:57,-118.7010,39.4166,1199.00,67.00,25.00,20.32,170.00,6.00,0.00,30.08,1015.20,10.00,M,CLR,M,M,M,M,M,M,M,M,M,M,M,M,M,M,67.00,KNFL 111357Z AUTO 17006KT 10SM CLR 19/M04 A3008 RMK AO2 SLP152 T01941039,M
BVU,2024-08-11 14:15,-114.8611,35.9475,671.00,89.60,60.80,38.18,150.00,9.00,0.00,29.98,M,10.00,15.00,CLR,M,M,M,M,M,M,M,M,M,M,M,M,M,M,89.54,KBVU 111415Z AUTO 15009G15KT 10SM CLR 32/16 A2998 RMK AO2,M
CXP,2024-08-11 14:15,-119.7326,39.1923,1431.00,57.20,35.60,44.19,0.00,0.00,0.00,30.18,M,10.00,M,CLR,M,M,M,M,M,M,M,M,M,M,M,M,M,M,57.20,KCXP 111415Z AUTO 00000KT 10SM CLR 14/02 A3018 RMK AO2,M
RTS,2024-08-11 14:15,-119.8764,39.6682,1539.00,57.20,19.40,22.68,360.00,3.00,0.00,30.19,M,10.00,M,CLR,M,M,M,M,M,M,M,M,M,M,M,M,M,M,57.20,KRTS 111415Z AUTO 36003KT 10SM CLR 14/M07 A3019 RMK AO2,M
05U,2024-08-11 14:15,-116.0051,39.6042,1811.23,M,M,M,0.00,0.00,0.00,30.23,M,10.00,M,CLR,M,M,M,M,M,M,M,M,M,M,M,M,M,M,M,K05U 111415Z AUTO 00000KT 10SM CLR A3023 RMK A01,M
MEV,2024-08-11 14:15,-119.7500,38.9963,1441.42,55.40,30.20,37.97,100.00,4.00,0.00,30.16,M,10.00,M,CLR,M,M,M,M,M,M,M,M,M,M,M,M,M,M,55.40,KMEV 111415Z AUTO 10004KT 10SM CLR 13/M01 A3016 RMK AO2,M
BAM,2024-08-11 14:15,-116.8743,40.5990,1382.36,60.80,32.00,33.64,0.00,0.00,0.00,30.13,M,10.00,M,CLR,M,M,M,M,M,M,M,M,M,M,M,M,M,M,60.80,KBAM 111415Z AUTO 00000KT 10SM CLR 16/00 A3013 RMK AO1,M
HTH,2024-08-11 14:15,-118.6315,38.5448,1282.89,73.40,33.80,23.39,0.00,0.00,0.00,30.11,M,10.00,M,CLR,M,M,M,M,M,M,M,M,M,M,M,M,M,M,73.40,KHTH 111415Z AUTO 00000KT 10SM CLR 23/01 A3011 RMK A01,M
10U,2024-08-11 14:15,-116.1876,41.9532,1637.00,59.00,39.20,47.72,80.00,3.00,0.00,30.18,M,10.00,M,CLR,M,M,M,M,M,M,M,M,M,M,M,M,M,M,59.00,K10U 111415Z AUTO 08003KT 10SM CLR 15/04 A3018 RMK AO2,M
TMT,2024-08-11 14:15,-117.1971,39.4643,1749.34,53.20,30.20,41.14,330.00,3.00,0.00,30.21,M,10.00,M,CLR,M,M,M,M,M,M,M,M,M,M,M,M,M,M,53.20,KTMT 111415Z AUTO 33003KT 10SM CLR 12/M01 A3021 RMK AO2 T01181010,M
BVU,2024-08-11 14:35,-114.8611,35.9475,671.00,89.60,60.80,38.18,170.00,8.00,0.00,29.98,M,10.00,M,CLR,M,M,M,M,M,M,M,M,M,M,M,M,M,M,89.54,KBVU 111435Z AUTO 17008KT 10SM CLR 32/16 A2998 RMK AO2,M
CXP,2024-08-11 14:35,-119.7326,39.1923,1431.00,59.00,33.80,38.56,0.00,0.00,0.00,30.18,M,10.00,M,CLR,M,M,M,M,M,M,M,M,M,M,M,M,M,M,59.00,KCXP 111435Z AUTO 00000KT 10SM CLR 15/01 A3018 RMK AO2,M
RTS,2024-08-11 14:35,-119.8764,39.6682,1539.00,60.80,19.40,19.94,0.00,0.00,0.00,30.19,M,10.00,M,CLR,M,M,M,M,M,M,M,M,M,M,M,M,M,M,60.80,KRTS 111435Z AUTO 00000KT 10SM CLR 16/M07 A3019 RMK AO2,M
05U,2024-08-11 14:35,-116.0051,39.6042,1811.23,M,M,M,0.00,0.00,0.00,30.23,M,10.00,M,CLR,M,M,M,M,M,M,M,M,M,M,M,M,M,M,M,K05U 111435Z AUTO 00000KT 10SM CLR A3023 RMK A01,M
MEV,2024-08-11 14:35,-119.7500,38.9963,1441.42,60.80,30.20,31.28,0.00,0.00,0.00,30.16,M,10.00,M,CLR,M,M,M,M,M,M,M,M,M,M,M,M,M,M,60.80,KMEV 111435Z AUTO 00000KT 10SM CLR 16/M01 A3016 RMK AO2,M
HTH,2024-08-11 14:35,-118.6315,38.5448,1282.89,75.20,35.60,23.66,0.00,0.00,0.00,30.12,M,10.00,M,CLR,M,M,M,M,M,M,M,M,M,M,M,M,M,M,75.20,KHTH 111435Z AUTO 00000KT 10SM CLR 24/02 A3012 RMK A01,M
10U,2024-08-11 14:35,-116.1876,41.9532,1637.00,60.80,37.40,41.71,60.00,4.00,0.00,30.18,M,10.00,M,CLR,M,M,M,M,M,M,M,M,M,M,M,M,M,M,60.80,K10U 111435Z AUTO 06004KT 10SM CLR 16/03 A3018 RMK AO2,M
BAM,2024-08-11 14:35,-116.8743,40.5990,1382.36,64.40,32.00,29.63,0.00,0.00,0.00,30.13,M,10.00,M,CLR,M,M,M,M,M,M,M,M,M,M,M,M,M,M,64.40,KBAM 111435Z AUTO 00000KT 10SM CLR 18/00 A3013 RMK AO1,M
TMT,2024-08-11 14:35,-117.1971,39.4643,1749.34,56.00,29.00,35.38,0.00,0.00,0.00,30.22,M,10.00,M,CLR,M,M,M,M,M,M,M,M,M,M,M,M,M,M,56.00,KTMT 111435Z AUTO 00000KT 10SM CLR 13/M02 A3022 RMK AO2 T01341017,M
05U,2024-08-11 14:50,-116.0051,39.6042,1811.23,M,M,M,0.00,0.00,0.00,30.23,M,10.00,M,CLR,M,M,M,M,M,M,M,M,M,M,M,M,M,M,M,K05U 111450Z AUTO 00000KT 10SM CLR A3023 RMK A01,M
P68,2024-08-11 14:53,-116.0056,39.6014,1993.00,64.00,26.00,23.51,220.00,3.00,0.00,30.21,1014.10,M,M,M,M,M,M,M,M,M,M,M,M,M,M,M,M,M,64.00,KP68 111453Z AUTO 22003KT 18/M03 A3021 RMK AO1 SLP141 T01781033 51007,M
DRA,2024-08-11 14:53,-116.0278,36.6206,1009.00,90.00,50.00,25.46,310.00,6.00,0.00,30.03,1010.60,10.00,M,CLR,M,M,M,M,M,M,M,M,M,M,M,M,M,M,87.06,KDRA 111453Z AUTO 31006KT 10SM CLR 32/10 A3003 RMK AO2 SLP106 T03220100 51020,M
ELY,2024-08-11 14:53,-114.8453,39.2950,1909.00,70.00,42.00,36.22,200.00,15.00,0.00,30.24,1012.30,10.00,M,CLR,M,M,M,M,M,M,M,M,M,M,M,M,M,M,70.00,KELY 111453Z AUTO 20015KT 10SM CLR 21/06 A3024 RMK AO2 SLP123 T02110056 51007,M
VGT,2024-08-11 14:53,-115.1933,36.2111,667.00,91.00,63.00,39.49,120.00,9.00,0.00,29.97,1013.10,10.00,M,CLR,M,M,M,M,M,M,M,M,M,M,M,M,M,M,92.00,KVGT 111453Z 12009KT 10SM CLR 33/17 A2997 RMK AO2 SLP131 T03280172 51017,M
LOL,2024-08-11 14:53,-118.5701,40.0684,1192.43,65.00,37.00,35.42,0.00,0.00,0.00,30.08,1014.40,10.00,M,CLR,M,M,M,M,M,M,M,M,M,M,M,M,M,M,65.00,KLOL 111453Z AUTO 00000KT 10SM CLR 18/03 A3008 RMK AO2 SLP144 T01830028 52010,M
BVU,2024-08-11 14:55,-114.8611,35.9475,671.00,91.40,60.80,36.08,160.00,12.00,0.00,29.98,M,10.00,M,CLR,M,M,M,M,M,M,M,M,M,M,M,M,M,M,91.40,KBVU 111455Z AUTO 16012KT 10SM CLR 33/16 A2998 RMK AO2,M
CXP,2024-08-11 14:55,-119.7326,39.1923,1431.00,62.60,33.80,33.93,0.00,0.00,0.00,30.17,M,10.00,M,CLR,M,M,M,M,M,M,M,M,M,M,M,M,M,M,62.60,KCXP 111455Z AUTO 00000KT 10SM CLR 17/01 A3017 RMK AO2,M
RNO,2024-08-11 14:55,-119.7711,39.4839,1341.00,66.00,28.00,23.82,0.00,0.00,0.00,30.15,1015.10,10.00,M,FEW,M,M,M,20000.00,M,M,M,M,M,M,M,M,M,M,66.00,KRNO 111455Z 00000KT 10SM FEW200 19/M02 A3015 RMK AO2 SLP151 T01891022 50005,M
RTS,2024-08-11 14:55,-119.8764,39.6682,1539.00,62.60,21.20,20.20,0.00,0.00,0.00,30.19,M,10.00,M,CLR,M,M,M,M,M,M,M,M,M,M,M,M,M,M,62.60,KRTS 111455Z AUTO 00000KT 10SM CLR 17/M06 A3019 RMK AO2,M
MEV,2024-08-11 14:55,-119.7500,38.9963,1441.42,57.20,32.00,38.26,0.00,0.00,0.00,30.16,M,10.00,M,CLR,M,M,M,M,M,M,M,M,M,M,M,M,M,M,57.20,KMEV 111455Z AUTO 00000KT 10SM CLR 14/00 A3016 RMK AO2,M
BAM,2024-08-11 14:55,-116.8743,40.5990,1382.36,68.00,32.00,26.15,0.00,0.00,0.00,30.13,M,10.00,M,CLR,M,M,M,M,M,M,M,M,M,M,M,M,M,M,68.00,KBAM 111455Z AUTO 00000KT 10SM CLR 20/00 A3013 RMK AO1,M
HTH,2024-08-11 14:55,-118.6315,38.5448,1282.89,75.20,32.00,20.49,0.00,0.00,0.00,30.12,M,10.00,M,CLR,M,M,M,M,M,M,M,M,M,M,M,M,M,M,75.20,KHTH 111455Z AUTO 00000KT 10SM CLR 24/00 A3012 RMK A01,M
10U,2024-08-11 14:55,-116.1876,41.9532,1637.00,62.60,37.40,39.14,0.00,0.00,0.00,30.18,M,10.00,M,CLR,M,M,M,M,M,M,M,M,M,M,M,M,M,M,62.60,K10U 111455Z AUTO 00000KT 10SM CLR 17/03 A3018 RMK AO2,M
TMT,2024-08-11 14:55,-117.1971,39.4643,1749.34,56.30,31.60,38.89,0.00,0.00,0.00,30.22,M,10.00,M,CLR,M,M,M,M,M,M,M,M,M,M,M,M,M,M,56.30,KTMT 111455Z AUTO 00000KT 10SM CLR 14/00 A3022 RMK AO2 T01351002,M
INS,2024-08-11 14:55,-115.6733,36.5872,955.00,87.30,56.30,34.94,0.00,0.00,0.00,30.01,1009.90,10.00,M,CLR,M,M,M,M,M,M,M,M,M,M,M,M,M,M,85.89,KINS 111455Z AUTO 00000KT 10SM CLR 31/14 A3001 RMK AO2 SLP099 T03070135 52015,M
LSV,2024-08-11 14:55,-115.0343,36.2362,570.00,92.50,60.80,34.86,130.00,11.00,0.00,29.93,1010.20,10.00,M,CLR,M,M,M,M,M,M,M,M,M,M,M,M,M,M,92.57,KLSV 111455Z AUTO 13011KT 10SM CLR 34/16 A2993 RMK AO2 SLP102 T03360160 52018 $,M
EKO,2024-08-11 14:56,-115.7860,40.8242,1367.00,64.00,34.00,32.56,0.00,0.00,0.00,30.17,1015.60,9.00,M,CLR,M,M,M,M,M,M,M,M,M,M,M,M,M,M,64.00,KEKO 111456Z AUTO 00000KT 9SM CLR 18/01 A3017 RMK AO2 SLP156 T01780011 51008,M
WMC,2024-08-11 14:56,-117.8072,40.9019,1315.00,65.00,28.00,24.66,0.00,0.00,0.00,30.11,1014.60,10.00,M,CLR,M,M,M,M,M,M,M,M,M,M,M,M,M,M,65.00,KWMC 111456Z AUTO 00000KT 10SM CLR 18/M02 A3011 RMK AO2 SLP146 T01831022 51009,M
HND,2024-08-11 14:56,-115.1344,35.9729,742.79,90.00,62.00,39.34,170.00,9.00,0.00,30.01,1014.30,10.00,M,CLR,M,M,M,M,M,M,M,M,M,M,M,M,M,M,90.46,KHND 111456Z 17009KT 10SM CLR 32/17 A3001 RMK AO2 SLP143 T03220167 51017,M
TPH,2024-08-11 14:56,-117.0904,38.0505,1654.00,69.00,25.00,18.97,80.00,4.00,0.00,30.20,1013.50,10.00,M,CLR,M,M,M,M,M,M,M,M,M,M,M,M,M,M,69.00,KTPH 111456Z AUTO 08004KT 10SM CLR 21/M04 A3020 RMK AO2 SLP135 T02061039 53012,M
LAS,2024-08-11 14:56,-115.1634,36.0719,663.00,93.00,61.00,34.57,170.00,6.00,0.00,29.98,1011.80,10.00,M,FEW,FEW,SCT,M,12000.00,17000.00,25000.00,M,M,M,M,M,M,M,M,93.20,KLAS 111456Z 17006KT 10SM FEW120 FEW170 SCT250 34/16 A2998 RMK AO2 SLP118 T03390161 51018,M
05U,2024-08-11 15:10,-116.0051,39.6042,1811.23,M,M,M,0.00,0.00,0.00,30.23,M,10.00,M,CLR,M,M,M,M,M,M,M,M,M,M,M,M,M,M,M,K05U 111510Z AUTO 00000KT 10SM CLR A3023 RMK A01,M
BVU,2024-08-11 15:15,-114.8611,35.9475,671.00,91.40,60.80,36.08,160.00,13.00,0.00,29.98,M,10.00,M,CLR,M,M,M,M,M,M,M,M,M,M,M,M,M,M,91.40,KBVU 111515Z AUTO 16013KT 10SM CLR 33/16 A2998 RMK AO2,M
CXP,2024-08-11 15:15,-119.7326,39.1923,1431.00,64.40,35.60,34.22,0.00,0.00,0.00,30.17,M,10.00,M,CLR,M,M,M,M,M,M,M,M,M,M,M,M,M,M,64.40,KCXP 111515Z AUTO 00000KT 10SM CLR 18/02 A3017 RMK AO2,M
RTS,2024-08-11 15:15,-119.8764,39.6682,1539.00,66.20,17.60,15.27,0.00,0.00,0.00,30.19,M,10.00,M,CLR,M,M,M,M,M,M,M,M,M,M,M,M,M,M,66.20,KRTS 111515Z AUTO 00000KT 10SM CLR 19/M08 A3019 RMK AO2,M
MEV,2024-08-11 15:15,-119.7500,38.9963,1441.42,62.60,33.80,33.93,0.00,0.00,0.00,30.16,M,10.00,M,CLR,M,M,M,M,M,M,M,M,M,M,M,M,M,M,62.60,KMEV 111515Z AUTO 00000KT 10SM CLR 17/01 A3016 RMK AO2,M
HTH,2024-08-11 15:15,-118.6315,38.5448,1282.89,75.20,32.00,20.49,260.00,3.00,0.00,30.13,M,10.00,M,CLR,M,M,M,M,M,M,M,M,M,M,M,M,M,M,75.20,KHTH 111515Z AUTO 26003KT 10SM CLR 24/M00 A3013 RMK A01,M
10U,2024-08-11 15:15,-116.1876,41.9532,1637.00,66.20,39.20,37.03,40.00,3.00,0.00,30.18,M,10.00,M,CLR,M,M,M,M,M,M,M,M,M,M,M,M,M,M,66.20,K10U 111515Z AUTO 04003KT 10SM CLR 19/04 A3018 RMK AO2,M
BAM,2024-08-11 15:15,-116.8743,40.5990,1382.36,68.00,32.00,26.15,0.00,0.00,0.00,30.13,M,10.00,M,CLR,M,M,M,M,M,M,M,M,M,M,M,M,M,M,68.00,KBAM 111515Z AUTO 00000KT 10SM CLR 20/00 A3013 RMK AO1,M
TMT,2024-08-11 15:15,-117.1971,39.4643,1749.34,59.50,31.00,33.84,0.00,0.00,0.00,30.22,M,10.00,M,CLR,M,M,M,M,M,M,M,M,M,M,M,M,M,M,59.50,KTMT 111515Z AUTO 00000KT 10SM CLR 15/00 A3022 RMK AO2 T01531005,M
BVU,2024-08-11 15:35,-114.8611,35.9475,671.00,93.20,60.80,34.11,160.00,14.00,0.00,29.98,M,10.00,M,CLR,M,M,M,M,M,M,M,M,M,M,M,M,M,M,93.32,KBVU 111535Z AUTO 16014KT 10SM CLR 34/16 A2998 RMK AO2,M
CXP,2024-08-11 15:35,-119.7326,39.1923,1431.00,66.20,35.60,32.14,0.00,0.00,0.00,30.17,M,10.00,M,CLR,M,M,M,M,M,M,M,M,M,M,M,M,M,M,66.20,KCXP 111535Z AUTO 00000KT 10SM CLR 19/02 A3017 RMK AO2,M
RTS,2024-08-11 15:35,-119.8764,39.6682,1539.00,68.00,19.40,15.50,0.00,0.00,0.00,30.19,M,10.00,M,CLR,M,M,M,M,M,M,M,M,M,M,M,M,M,M,68.00,KRTS 111535Z AUTO 00000KT 10SM CLR 20/M07 A3019 RMK AO2,M
05U,2024-08-11 15:35,-116.0051,39.6042,1811.23,M,M,M,0.00,0.00,0.00,30.23,M,10.00,M,CLR,M,M,M,M,M,M,M,M,M,M,M,M,M,M,M,K05U 111535Z AUTO 00000KT 10SM CLR A3023 RMK A01,M
MEV,2024-08-11 15:35,-119.7500,38.9963,1441.42,64.40,32.00,29.63,0.00,0.00,0.00,30.16,M,10.00,M,CLR,M,M,M,M,M,M,M,M,M,M,M,M,M,M,64.40,KMEV 111535Z AUTO 00000KT 10SM CLR 18/M00 A3016 RMK AO2,M
BAM,2024-08-11 15:35,-116.8743,40.5990,1382.36,69.80,32.00,24.59,0.00,0.00,0.00,30.13,M,10.00,M,CLR,M,M,M,M,M,M,M,M,M,M,M,M,M,M,69.80,KBAM 111535Z AUTO 00000KT 10SM CLR 21/00 A3013 RMK AO1,M
HTH,2024-08-11 15:35,-118.6315,38.5448,1282.89,77.00,33.80,20.74,310.00,5.00,0.00,30.13,M,10.00,M,CLR,M,M,M,M,M,M,M,M,M,M,M,M,M,M,77.00,KHTH 111535Z AUTO 31005KT 10SM CLR 25/01 A3013 RMK A01,M
10U,2024-08-11 15:35,-116.1876,41.9532,1637.00,68.00,41.00,37.32,10.00,4.00,0.00,30.18,M,10.00,M,CLR,M,M,M,M,M,M,M,M,M,M,M,M,M,M,68.00,K10U 111535Z AUTO 01004KT 10SM CLR 20/05 A3018 RMK AO2,M
TMT,2024-08-11 15:35,-117.1971,39.4643,1749.34,64.00,32.00,30.05,0.00,0.00,0.00,30.22,M,10.00,M,CLR,M,M,M,M,M,M,M,M,M,M,M,M,M,M,64.00,KTMT 111535Z AUTO 00000KT 10SM CLR 18/00 A3022 RMK AO2 T01780000,M
CXP,2024-08-11 15:50,-119.7326,39.1923,1431.00,69.80,35.60,28.39,0.00,0.00,0.00,30.17,M,10.00,M,CLR,M,M,M,M,M,M,M,M,M,M,M,M,M,M,69.80,KCXP 111550Z AUTO 00000KT 10SM CLR 21/02 A3017 RMK AO2,M
P68,2024-08-11 15:53,-116.0056,39.6014,1993.00,73.00,25.00,16.56,250.00,3.00,0.00,30.20,1013.90,M,M,M,M,M,M,M,M,M,M,M,M,M,M,M,M,M,73.00,KP68 111553Z AUTO 25003KT 23/M04 A3020 RMK AO1 SLP139 T02281039,M
DRA,2024-08-11 15:53,-116.0278,36.6206,1009.00,94.00,47.00,20.09,M,M,0.00,30.03,1010.60,10.00,M,CLR,M,M,M,M,M,M,M,M,M,M,M,M,M,M,90.40,KDRA 111553Z AUTO 10SM CLR 34/08 A3003 RMK AO2 SLP106 T03440083,M
ELY,2024-08-11 15:53,-114.8453,39.2950,1909.00,75.00,49.00,39.90,190.00,10.00,0.00,30.24,1012.70,10.00,M,CLR,M,M,M,M,M,M,M,M,M,M,M,M,M,M,75.00,KELY 111553Z AUTO 19010KT 10SM CLR 24/09 A3024 RMK AO2 SLP127 T02390094,M
VGT,2024-08-11 15:53,-115.1933,36.2111,667.00,94.00,63.00,35.97,110.00,11.00,0.00,29.97,1013.10,10.00,M,CLR,M,M,M,M,M,M,M,M,M,M,M,M,M,M,95.30,KVGT 111553Z 11011KT 10SM CLR 34/17 A2997 RMK AO2 SLP131 T03440172,M
LOL,2024-08-11 15:53,-118.5701,40.0684,1192.43,75.00,31.00,19.81,0.00,0.00,0.00,30.08,1014.30,10.00,M,CLR,M,M,M,M,M,M,M,M,M,M,M,M,M,M,75.00,KLOL 111553Z AUTO 00000KT 10SM CLR 24/M01 A3008 RMK AO2 SLP143 T02391006,M
BVU,2024-08-11 15:55,-114.8611,35.9475,671.00,93.20,60.80,34.11,160.00,17.00,0.00,29.98,M,10.00,M,CLR,M,M,M,M,M,M,M,M,M,M,M,M,M,M,93.32,KBVU 111555Z AUTO 16017KT 10SM CLR 34/16 A2998 RMK AO2,M
RNO,2024-08-11 15:55,-119.7711,39.4839,1341.00,71.00,28.00,20.06,0.00,0.00,0.00,30.14,1014.80,10.00,M,FEW,M,M,M,18000.00,M,M,M,M,M,M,M,M,M,M,71.00,KRNO 111555Z 00000KT 10SM FEW180 22/M02 A3014 RMK AO2 SLP148 T02171022,M
RTS,2024-08-11 15:55,-119.8764,39.6682,1539.00,71.60,17.60,12.69,0.00,0.00,0.00,30.18,M,10.00,M,CLR,M,M,M,M,M,M,M,M,M,M,M,M,M,M,71.60,KRTS 111555Z AUTO 00000KT 10SM CLR 22/M08 A3018 RMK AO2,M
05U,2024-08-11 15:55,-116.0051,39.6042,1811.23,M,M,M,0.00,0.00,0.00,30.23,M,10.00,M,CLR,M,M,M,M,M,M,M,M,M,M,M,M,M,M,M,K05U 111555Z AUTO 00000KT 10SM CLR A3023 RMK A01,M
MEV,2024-08-11 15:55,-119.7500,38.9963,1441.42,66.20,37.40,34.51,0.00,0.00,0.00,30.16,M,10.00,M,CLR,M,M,M,M,M,M,M,M,M,M,M,M,M,M,66.20,KMEV 111555Z AUTO 00000KT 10SM CLR 19/03 A3016 RMK AO2,M
HTH,2024-08-11 15:55,-118.6315,38.5448,1282.89,77.00,30.20,17.94,310.00,4.00,0.00,30.12,M,10.00,M,CLR,M,M,M,M,M,M,M,M,M,M,M,M,M,M,77.00,KHTH 111555Z AUTO 31004KT 10SM CLR 25/M01 A3012 RMK A01,M
10U,2024-08-11 15:55,-116.1876,41.9532,1637.00,71.60,41.00,33.00,40.00,4.00,0.00,30.18,M,10.00,M,CLR,M,M,M,M,M,M,M,M,M,M,M,M,M,M,71.60,K10U 111555Z AUTO 04004KT 10SM CLR 22/05 A3018 RMK AO2,M
BAM,2024-08-11 15:55,-116.8743,40.5990,1382.36,71.60,32.00,23.13,0.00,0.00,0.00,30.13,M,10.00,M,CLR,M,M,M,M,M,M,M,M,M,M,M,M,M,M,71.60,KBAM 111555Z AUTO 00000KT 10SM CLR 22/00 A3013 RMK AO1,M
TMT,2024-08-11 15:55,-117.1971,39.4643,1749.34,69.80,32.40,24.99,0.00,0.00,0.00,30.22,M,10.00,M,CLR,M,M,M,M,M,M,M,M,M,M,M,M,M,M,69.80,KTMT 111555Z AUTO 00000KT 10SM CLR 21/00 A3022 RMK AO2 T02100002,M
INS,2024-08-11 15:55,-115.6733,36.5872,955.00,91.20,59.00,34.05,100.00,13.00,0.00,30.01,1009.80,10.00,M,CLR,M,M,M,M,M,M,M,M,M,M,M,M,M,M,90.47,KINS 111555Z AUTO 10013KT 10SM CLR 33/15 A3001 RMK AO2 SLP098 T03290149,M
LSV,2024-08-11 15:55,-115.0343,36.2362,570.00,95.00,60.30,31.70,140.00,8.00,0.00,29.93,1010.20,10.00,M,CLR,M,M,M,M,M,M,M,M,M,M,M,M,M,M,95.07,KLSV 111555Z AUTO 14008KT 10SM CLR 35/16 A2993 RMK AO2 SLP102 T03490157 $,M
EKO,2024-08-11 15:56,-115.7860,40.8242,1367.00,70.00,36.00,28.65,100.00,3.00,0.00,30.16,1015.70,10.00,M,CLR,M,M,M,M,M,M,M,M,M,M,M,M,M,M,70.00,KEKO 111556Z AUTO 10003KT 10SM CLR 21/02 A3016 RMK AO2 SLP157 T02110022,M
WMC,2024-08-11 15:56,-117.8072,40.9019,1315.00,74.00,28.00,18.12,0.00,0.00,0.00,30.10,1014.60,10.00,M,CLR,M,M,M,M,M,M,M,M,M,M,M,M,M,M,74.00,KWMC 111556Z AUTO 00000KT 10SM CLR 23/M02 A3010 RMK AO2 SLP146 T02331022,M
HND,2024-08-11 15:56,-115.1344,35.9729,742.79,94.00,62.00,34.72,160.00,11.00,0.00,30.02,1014.40,10.00,M,CLR,M,M,M,M,M,M,M,M,M,M,M,M,M,M,94.78,KHND 111556Z 16011KT 10SM CLR 34/17 A3002 RMK AO2 SLP144 T03440167,M
TPH,2024-08-11 15:56,-117.0904,38.0505,1654.00,74.00,26.00,16.69,0.00,0.00,0.00,30.20,1013.50,10.00,M,CLR,M,M,M,M,M,M,M,M,M,M,M,M,M,M,74.00,KTPH 111556Z AUTO 00000KT 10SM CLR 23/M03 A3020 RMK AO2 SLP135 T02331033,M
LAS,2024-08-11 15:56,-115.1634,36.0719,663.00,96.00,60.00,30.41,130.00,9.00,0.00,29.99,1011.90,10.00,M,FEW,FEW,SCT,M,12000.00,17000.00,25000.00,M,M,M,M,M,M,M,M,96.05,KLAS 111556Z 13009KT 10SM FEW120 FEW170 SCT250 36/16 A2999 RMK AO2 SLP119 T03560156,M
05U,2024-08-11 16:10,-116.0051,39.6042,1811.23,M,M,M,0.00,0.00,0.00,30.23,M,10.00,M,CLR,M,M,M,M,M,M,M,M,M,M,M,M,M,M,M,K05U 111610Z AUTO 00000KT 10SM CLR A3023 RMK A01,M
BVU,2024-08-11 16:15,-114.8611,35.9475,671.00,95.00,60.80,32.27,170.00,13.00,0.00,29.99,M,10.00,21.00,CLR,M,M,M,M,M,M,M,M,M,M,M,M,M,M,95.30,KBVU 111615Z AUTO 17013G21KT 10SM CLR 35/16 A2999 RMK AO2,M
CXP,2024-08-11 16:15,-119.7326,39.1923,1431.00,71.60,32.00,23.13,0.00,0.00,0.00,30.17,M,10.00,M,CLR,M,M,M,M,M,M,M,M,M,M,M,M,M,M,71.60,KCXP 111615Z AUTO 00000KT 10SM CLR 22/00 A3017 RMK AO2,M
RTS,2024-08-11 16:15,-119.8764,39.6682,1539.00,73.40,19.40,12.90,150.00,4.00,0.00,30.18,M,10.00,M,CLR,M,M,M,M,M,M,M,M,M,M,M,M,M,M,73.40,KRTS 111615Z AUTO 15004KT 10SM CLR 23/M07 A3018 RMK AO2,M
MEV,2024-08-11 16:15,-119.7500,38.9963,1441.42,68.00,33.80,28.11,0.00,0.00,0.00,30.16,M,10.00,M,CLR,M,M,M,M,M,M,M,M,M,M,M,M,M,M,68.00,KMEV 111615Z AUTO 00000KT 10SM CLR 20/01 A3016 RMK AO2,M
BAM,2024-08-11 16:15,-116.8743,40.5990,1382.36,73.40,32.00,21.76,0.00,0.00,0.00,30.13,M,10.00,M,CLR,M,M,M,M,M,M,M,M,M,M,M,M,M,M,73.40,KBAM 111615Z AUTO 00000KT 10SM CLR 23/00 A3013 RMK AO1,M
HTH,2024-08-11 16:15,-118.6315,38.5448,1282.89,78.80,32.00,18.18,M,3.00,0.00,30.12,M,10.00,M,CLR,M,M,M,M,M,M,M,M,M,M,M,M,M,M,78.80,KHTH 111615Z AUTO VRB03KT 10SM CLR 26/M00 A3012 RMK A01,M
10U,2024-08-11 16:15,-116.1876,41.9532,1637.00,73.40,41.00,31.05,40.00,4.00,0.00,30.18,M,10.00,M,CLR,M,M,M,M,M,M,M,M,M,M,M,M,M,M,73.40,K10U 111615Z AUTO 04004KT 10SM CLR 23/05 A3018 RMK AO2,M
TMT,2024-08-11 16:15,-117.1971,39.4643,1749.34,75.20,32.00,20.49,0.00,0.00,0.00,30.21,M,10.00,M,CLR,M,M,M,M,M,M,M,M,M,M,M,M,M,M,75.20,KTMT 111615Z AUTO 00000KT 10SM CLR 24/00 A3021 RMK AO2 T02401001,M
05U,2024-08-11 16:30,-116.0051,39.6042,1811.23,M,M,M,0.00,0.00,0.00,30.23,M,10.00,M,CLR,M,M,M,M,M,M,M,M,M,M,M,M,M,M,M,K05U 111630Z AUTO 00000KT 10SM CLR A3023 RMK A01,M
BVU,2024-08-11 16:35,-114.8611,35.9475,671.00,95.00,60.80,32.27,160.00,18.00,0.00,29.99,M,10.00,M,CLR,M,M,M,M,M,M,M,M,M,M,M,M,M,M,95.30,KBVU 111635Z AUTO 16018KT 10SM CLR 35/16 A2999 RMK AO2,M
CXP,2024-08-11 16:35,-119.7326,39.1923,1431.00,75.20,30.20,19.05,300.00,3.00,0.00,30.16,M,10.00,M,CLR,M,M,M,M,M,M,M,M,M,M,M,M,M,M,75.20,KCXP 111635Z AUTO 30003KT 10SM CLR 24/M01 A3016 RMK AO2,M
RTS,2024-08-11 16:35,-119.8764,39.6682,1539.00,75.20,19.40,12.14,150.00,4.00,0.00,30.17,M,10.00,M,CLR,M,M,M,M,M,M,M,M,M,M,M,M,M,M,75.20,KRTS 111635Z AUTO 15004KT 10SM CLR 24/M07 A3017 RMK AO2,M
MEV,2024-08-11 16:35,-119.7500,38.9963,1441.42,73.40,26.60,17.46,0.00,0.00,0.00,30.15,M,10.00,M,CLR,M,M,M,M,M,M,M,M,M,M,M,M,M,M,73.40,KMEV 111635Z AUTO 00000KT 10SM CLR 23/M03 A3015 RMK AO2,M
BAM,2024-08-11 16:35,-116.8743,40.5990,1382.36,75.20,33.80,22.02,0.00,0.00,0.00,30.13,M,10.00,M,CLR,M,M,M,M,M,M,M,M,M,M,M,M,M,M,75.20,KBAM 111635Z AUTO 00000KT 10SM CLR 24/01 A3013 RMK AO1,M
HTH,2024-08-11 16:35,-118.6315,38.5448,1282.89,80.60,35.60,19.79,0.00,0.00,0.00,30.12,M,10.00,M,CLR,M,M,M,M,M,M,M,M,M,M,M,M,M,M,78.94,KHTH 111635Z AUTO 00000KT 10SM CLR 27/02 A3012 RMK A01,M
10U,2024-08-11 16:35,-116.1876,41.9532,1637.00,75.20,41.00,29.23,M,5.00,0.00,30.17,M,10.00,M,CLR,M,M,M,M,M,M,M,M,M,M,M,M,M,M,75.20,K10U 111635Z AUTO VRB05KT 10SM CLR 24/05 A3017 RMK AO2,M
TMT,2024-08-11 16:35,-117.1971,39.4643,1749.34,80.00,27.50,14.55,210.00,6.00,0.00,30.21,M,10.00,M,CLR,M,M,M,M,M,M,M,M,M,M,M,M,M,M,78.38,KTMT 111635Z AUTO 21006KT 10SM CLR 27/M02 A3021 RMK AO2 T02671025,M
05U,2024-08-11 16:50,-116.0051,39.6042,1811.23,M,M,M,0.00,0.00,0.00,30.22,M,10.00,M,CLR,M,M,M,M,M,M,M,M,M,M,M,M,M,M,M,K05U 111650Z AUTO 00000KT 10SM CLR A3022 RMK A01,M
DRA,2024-08-11 16:53,-116.0278,36.6206,1009.00,97.00,45.00,16.98,220.00,19.00,0.00,30.03,1010.50,10.00,25.00,CLR,M,M,M,M,M,M,M,M,M,M,M,M,M,M,93.04,KDRA 111653Z AUTO 22019G25KT 10SM CLR 36/07 A3003 RMK AO2 SLP105 T03610072,M
ELY,2024-08-11 16:53,-114.8453,39.2950,1909.00,81.00,48.00,31.52,220.00,9.00,0.00,30.24,1012.50,10.00,M,CLR,M,M,M,M,M,M,M,M,M,M,M,M,M,M,79.92,KELY 111653Z AUTO 22009KT 10SM CLR 27/09 A3024 RMK AO2 SLP125 T02720089,M
VGT,2024-08-11 16:53,-115.1933,36.2111,667.00,97.00,62.00,31.66,110.00,11.00,0.00,29.98,1013.40,10.00,M,CLR,M,M,M,M,M,M,M,M,M,M,M,M,M,M,98.18,KVGT 111653Z 11011KT 10SM CLR 36/17 A2998 RMK AO2 SLP134 T03610167,M
LOL,2024-08-11 16:53,-118.5701,40.0684,1192.43,81.00,32.00,16.92,M,4.00,0.00,30.08,1014.00,10.00,M,CLR,M,M,M,M,M,M,M,M,M,M,M,M,M,M,79.07,KLOL 111653Z AUTO VRB04KT 10SM CLR 27/00 A3008 RMK AO2 SLP140 T02720000,M
BVU,2024-08-11 16:55,-114.8611,35.9475,671.00,96.80,60.80,30.53,160.00,22.00,0.00,29.99,M,10.00,M,FEW,M,M,M,12000.00,M,M,M,M,M,M,M,M,M,M,97.33,KBVU 111655Z AUTO 16022KT 10SM FEW120 36/16 A2999 RMK AO2,M
CXP,2024-08-11 16:55,-119.7326,39.1923,1431.00,77.00,28.40,16.67,0.00,0.00,0.00,30.16,M,10.00,M,CLR,M,M,M,M,M,M,M,M,M,M,M,M,M,M,77.00,KCXP 111655Z AUTO 00000KT 10SM CLR 25/M02 A3016 RMK AO2,M
RNO,2024-08-11 16:55,-119.7711,39.4839,1341.00,76.00,27.00,16.27,0.00,0.00,0.00,30.13,1014.30,10.00,M,FEW,M,M,M,18000.00,M,M,M,M,M,M,M,M,M,M,76.00,KRNO 111655Z 00000KT 10SM FEW180 24/M03 A3013 RMK AO2 SLP143 T02441028,M
RTS,2024-08-11 16:55,-119.8764,39.6682,1539.00,77.00,14.00,9.05,130.00,5.00,0.00,30.18,M,10.00,M,CLR,M,M,M,M,M,M,M,M,M,M,M,M,M,M,77.00,KRTS 111655Z AUTO 13005KT 10SM CLR 25/M10 A3018 RMK AO2,M
MEV,2024-08-11 16:55,-119.7500,38.9963,1441.42,75.20,24.80,15.25,0.00,0.00,0.00,30.15,M,10.00,M,CLR,M,M,M,M,M,M,M,M,M,M,M,M,M,M,75.20,KMEV 111655Z AUTO 00000KT 10SM CLR 24/M04 A3015 RMK AO2,M
BAM,2024-08-11 16:55,-116.8743,40.5990,1382.36,78.80,32.00,18.18,0.00,0.00,0.00,30.13,M,10.00,M,CLR,M,M,M,M,M,M,M,M,M,M,M,M,M,M,78.80,KBAM 111655Z AUTO 00000KT 10SM CLR 26/00 A3013 RMK AO1,M
HTH,2024-08-11 16:55,-118.6315,38.5448,1282.89,82.40,35.60,18.67,M,3.00,0.00,30.12,M,10.00,M,CLR,M,M,M,M,M,M,M,M,M,M,M,M,M,M,80.08,KHTH 111655Z AUTO VRB03KT 10SM CLR 28/02 A3012 RMK A01,M
10U,2024-08-11 16:55,-116.1876,41.9532,1637.00,78.80,41.00,25.95,M,4.00,0.00,30.17,M,10.00,M,CLR,M,M,M,M,M,M,M,M,M,M,M,M,M,M,78.80,K10U 111655Z AUTO VRB04KT 10SM CLR 26/05 A3017 RMK AO2,M
TMT,2024-08-11 16:55,-117.1971,39.4643,1749.34,81.00,27.50,14.08,240.00,4.00,0.00,30.21,M,10.00,M,CLR,M,M,M,M,M,M,M,M,M,M,M,M,M,M,78.97,KTMT 111655Z AUTO 24004KT 10SM CLR 27/M02 A3021 RMK AO2 T02721025,M
INS,2024-08-11 16:55,-115.6733,36.5872,955.00,94.00,57.00,29.05,100.00,13.00,0.00,30.02,1010.10,10.00,M,CLR,M,M,M,M,M,M,M,M,M,M,M,M,M,M,92.68,KINS 111655Z AUTO 10013KT 10SM CLR 35/14 A3002 RMK AO2 SLP101 T03450138,M
LSV,2024-08-11 16:55,-115.0343,36.2362,570.00,97.50,60.00,29.05,140.00,7.00,0.00,29.94,1010.60,10.00,15.00,CLR,M,M,M,M,M,M,M,M,M,M,M,M,M,M,97.74,KLSV 111655Z AUTO 14007G15KT 10SM CLR 36/16 A2994 RMK AO2 SLP106 T03640155 $,M
EKO,2024-08-11 16:56,-115.7860,40.8242,1367.00,75.00,39.00,27.23,120.00,3.00,0.00,30.16,1015.40,10.00,M,CLR,M,M,M,M,M,M,M,M,M,M,M,M,M,M,75.00,KEKO 111656Z AUTO 12003KT 10SM CLR 24/04 A3016 RMK AO2 SLP154 T02390039,M
WMC,2024-08-11 16:56,-117.8072,40.9019,1315.00,82.00,33.00,17.05,360.00,5.00,0.00,30.10,1014.10,10.00,M,CLR,M,M,M,M,M,M,M,M,M,M,M,M,M,M,79.75,KWMC 111656Z AUTO 36005KT 10SM CLR 28/01 A3010 RMK AO2 SLP141 T02780006,M
HND,2024-08-11 16:56,-115.1344,35.9729,742.79,96.00,63.00,33.82,150.00,14.00,0.00,30.03,1014.70,10.00,M,CLR,M,M,M,M,M,M,M,M,M,M,M,M,M,M,97.58,KHND 111656Z 15014KT 10SM CLR 36/17 A3003 RMK AO2 SLP147 T03560172,M
TPH,2024-08-11 16:56,-117.0904,38.0505,1654.00,81.00,27.00,13.80,M,3.00,0.00,30.21,1013.30,10.00,M,CLR,M,M,M,M,M,M,M,M,M,M,M,M,M,M,78.96,KTPH 111656Z AUTO VRB03KT 10SM CLR 27/M03 A3021 RMK AO2 SLP133 T02721028,M
LAS,2024-08-11 16:56,-115.1634,36.0719,663.00,98.00,61.00,29.64,160.00,8.00,0.00,30.00,1012.40,10.00,M,FEW,FEW,SCT,M,12000.00,17000.00,25000.00,M,M,M,M,M,M,M,M,98.80,KLAS 111656Z 16008KT 10SM FEW120 FEW170 SCT250 37/16 A3000 RMK AO2 SLP124 T03670161,M
BVU,2024-08-11 17:15,-114.8611,35.9475,671.00,95.00,60.80,32.27,150.00,18.00,0.00,29.99,M,10.00,24.00,FEW,M,M,M,12000.00,M,M,M,M,M,M,M,M,M,M,95.30,KBVU 111715Z AUTO 15018G24KT 10SM FEW120 35/16 A2999 RMK AO2,M
CXP,2024-08-11 17:15,-119.7326,39.1923,1431.00,80.60,26.60,13.75,290.00,3.00,0.00,30.15,M,10.00,M,CLR,M,M,M,M,M,M,M,M,M,M,M,M,M,M,78.68,KCXP 111715Z AUTO 29003KT 10SM CLR 27/M03 A3015 RMK AO2,M
RTS,2024-08-11 17:15,-119.8764,39.6682,1539.00,78.80,14.00,8.53,M,4.00,0.00,30.17,M,10.00,M,CLR,M,M,M,M,M,M,M,M,M,M,M,M,M,M,78.80,KRTS 111715Z AUTO VRB04KT 10SM CLR 26/M10 A3017 RMK AO2,M
05U,2024-08-11 17:15,-116.0051,39.6042,1811.23,M,M,M,0.00,0.00,0.00,30.22,M,10.00,M,CLR,M,M,M,M,M,M,M,M,M,M,M,M,M,M,M,K05U 111715Z AUTO 00000KT 10SM CLR A3022 RMK A01,M
MEV,2024-08-11 17:15,-119.7500,38.9963,1441.42,78.80,28.40,15.71,M,3.00,0.00,30.14,M,10.00,M,CLR,M,M,M,M,M,M,M,M,M,M,M,M,M,M,78.80,KMEV 111715Z AUTO VRB03KT 10SM CLR 26/M02 A3014 RMK AO2,M
BAM,2024-08-11 17:15,-116.8743,40.5990,1382.36,80.60,32.00,17.14,0.00,0.00,0.00,30.12,M,10.00,M,CLR,M,M,M,M,M,M,M,M,M,M,M,M,M,M,78.82,KBAM 111715Z AUTO 00000KT 10SM CLR 27/00 A3012 RMK AO1,M
HTH,2024-08-11 17:15,-118.6315,38.5448,1282.89,82.40,33.80,17.38,M,4.00,0.00,30.11,M,10.00,M,CLR,M,M,M,M,M,M,M,M,M,M,M,M,M,M,80.03,KHTH 111715Z AUTO VRB04KT 10SM CLR 28/01 A3011 RMK A01,M
10U,2024-08-11 17:15,-116.1876,41.9532,1637.00,82.40,35.60,18.67,M,5.00,0.00,30.17,M,10.00,M,CLR,M,M,M,M,M,M,M,M,M,M,M,M,M,M,80.08,K10U 111715Z AUTO VRB05KT 10SM CLR 28/02 A3017 RMK AO2,M
TMT,2024-08-11 17:15,-117.1971,39.4643,1749.34,84.00,24.80,11.43,260.00,8.00,0.00,30.21,M,10.00,M,CLR,M,M,M,M,M,M,M,M,M,M,M,M,M,M,80.86,KTMT 111715Z AUTO 26008KT 10SM CLR 29/M04 A3021 RMK AO2 T02891040,M
INS,2024-08-11 17:34,-115.6733,36.5872,955.00,96.80,57.20,26.84,120.00,10.00,0.00,30.01,1009.80,10.00,20.00,CLR,M,M,M,M,M,M,M,M,M,M,M,M,M,M,95.77,KINS 111734Z AUTO 12010G20KT 10SM CLR 36/14 A3001 RMK AO2 WSHFT 33 SLP098,M
BVU,2024-08-11 17:35,-114.8611,35.9475,671.00,96.80,60.80,30.53,170.00,17.00,0.00,29.99,M,10.00,25.00,CLR,M,M,M,M,M,M,M,M,M,M,M,M,M,M,97.33,KBVU 111735Z AUTO 17017G25KT 10SM CLR 36/16 A2999 RMK AO2,M
CXP,2024-08-11 17:35,-119.7326,39.1923,1431.00,82.40,23.00,11.16,0.00,0.00,0.00,30.14,M,10.00,M,CLR,M,M,M,M,M,M,M,M,M,M,M,M,M,M,79.67,KCXP 111735Z AUTO 00000KT 10SM CLR 28/M05 A3014 RMK AO2,M
RTS,2024-08-11 17:35,-119.8764,39.6682,1539.00,78.80,6.80,6.19,120.00,4.00,0.00,30.17,M,10.00,M,CLR,M,M,M,M,M,M,M,M,M,M,M,M,M,M,78.80,KRTS 111735Z AUTO 12004KT 10SM CLR 26/M14 A3017 RMK AO2,M
05U,2024-08-11 17:35,-116.0051,39.6042,1811.23,M,M,M,0.00,0.00,0.00,30.21,M,10.00,M,CLR,M,M,M,M,M,M,M,M,M,M,M,M,M,M,M,K05U 111735Z AUTO 00000KT 10SM CLR A3021 RMK A01,M
MEV,2024-08-11 17:35,-119.7500,38.9963,1441.42,80.60,28.40,14.81,0.00,0.00,0.00,30.13,M,10.00,M,CLR,M,M,M,M,M,M,M,M,M,M,M,M,M,M,78.72,KMEV 111735Z AUTO 00000KT 10SM CLR 27/M02 A3013 RMK AO2,M
BAM,2024-08-11 17:35,-116.8743,40.5990,1382.36,82.40,32.00,16.17,0.00,0.00,0.00,30.12,M,10.00,M,CLR,M,M,M,M,M,M,M,M,M,M,M,M,M,M,80.00,KBAM 111735Z AUTO 00000KT 10SM CLR 28/00 A3012 RMK AO1,M
HTH,2024-08-11 17:35,-118.6315,38.5448,1282.89,84.20,28.40,13.18,320.00,4.00,0.00,30.11,M,10.00,M,CLR,M,M,M,M,M,M,M,M,M,M,M,M,M,M,81.25,KHTH 111735Z AUTO 32004KT 10SM CLR 29/M02 A3011 RMK A01,M
10U,2024-08-11 17:35,-116.1876,41.9532,1637.00,82.40,26.60,12.97,M,3.00,0.00,30.16,M,10.00,11.00,CLR,M,M,M,M,M,M,M,M,M,M,M,M,M,M,79.92,K10U 111735Z AUTO VRB03G11KT 10SM CLR 28/M03 A3016 RMK AO2,M
LSV,2024-08-11 17:35,-115.0343,36.2362,570.00,98.60,59.00,27.10,140.00,12.00,0.00,29.93,1010.20,10.00,M,CLR,M,M,M,M,M,M,M,M,M,M,M,M,M,M,98.52,KLSV 111735Z AUTO 14012KT 10SM CLR 37/15 A2993 RMK AO2 WSHFT 31 SLP102 $,M
TMT,2024-08-11 17:35,-117.1971,39.4643,1749.34,84.00,22.50,10.38,250.00,5.00,0.00,30.20,M,10.00,M,CLR,M,M,M,M,M,M,M,M,M,M,M,M,M,M,80.71,KTMT 111735Z AUTO 25005KT 10SM CLR 29/M05 A3020 RMK AO2 T02891053,M
INS,2024-08-11 17:42,-115.6733,36.5872,955.00,96.80,55.40,25.15,90.00,16.00,0.00,30.01,1009.80,10.00,20.00,CLR,M,M,M,M,M,M,M,M,M,M,M,M,M,M,95.14,KINS 111742Z AUTO 09016G20KT 10SM CLR 36/13 A3001 RMK AO2 WSHFT 35 SLP098,M
LSV,2024-08-11 17:45,-115.0343,36.2362,570.00,100.40,59.00,25.67,140.00,13.00,0.00,29.93,1010.20,10.00,M,CLR,M,M,M,M,M,M,M,M,M,M,M,M,M,M,100.57,KLSV 111745Z AUTO 14013KT 10SM CLR 38/15 A2993 RMK AO2 WSHFT 40 SLP102 $,M
P68,2024-08-11 17:53,-116.0056,39.6014,1993.00,86.00,26.00,11.27,20.00,4.00,0.00,30.18,1013.00,M,M,M,M,M,M,M,M,M,M,M,M,M,M,M,M,M,82.35,KP68 111753Z AUTO 02004KT 30/M03 A3018 RMK AO1 SLP130 T03001033 10300 20128 58008,M
DRA,2024-08-11 17:53,-116.0278,36.6206,1009.00,98.00,47.00,17.77,220.00,18.00,0.00,30.03,1010.30,10.00,28.00,CLR,M,M,M,M,M,M,M,M,M,M,M,32.00,230.00,2024-08-11 17:35,94.34,KDRA 111753Z AUTO 22018G28KT 10SM CLR 37/08 A3003 RMK AO2 PK WND 23032/1735 SLP103 T03670083 10372 20278 58001,M
ELY,2024-08-11 17:53,-114.8453,39.2950,1909.00,86.00,47.00,25.83,140.00,8.00,0.00,30.22,1011.70,10.00,M,SCT,M,M,M,12000.00,M,M,M,M,M,M,M,M,M,M,83.28,KELY 111753Z AUTO 14008KT 10SM SCT120 30/08 A3022 RMK AO2 SLP117 T03000083 10300 20111 58005,M
VGT,2024-08-11 17:53,-115.1933,36.2111,667.00,99.00,62.00,29.79,110.00,11.00,0.00,29.96,1012.80,10.00,20.00,CLR,M,M,M,M,M,M,M,M,M,M,M,M,M,M,100.50,KVGT 111753Z 11011G20KT 090V160 10SM CLR 37/17 A2996 RMK AO2 SLP128 T03720167 10378 20311 58001,M
LOL,2024-08-11 17:53,-118.5701,40.0684,1192.43,85.00,31.00,14.28,M,3.00,0.00,30.07,1013.30,10.00,M,CLR,M,M,M,M,M,M,M,M,M,M,M,M,M,M,81.87,KLOL 111753Z AUTO VRB03KT 10SM CLR 29/M01 A3007 RMK AO2 SLP133 T02941006 10294 20117 58003,M
BVU,2024-08-11 17:55,-114.8611,35.9475,671.00,98.60,60.80,28.90,160.00,20.00,0.00,29.99,M,10.00,27.00,CLR,M,M,M,M,M,M,M,M,M,M,M,M,M,M,99.39,KBVU 111755Z AUTO 16020G27KT 10SM CLR 37/16 A2999 RMK AO2,M
CXP,2024-08-11 17:55,-119.7326,39.1923,1431.00,84.20,19.40,9.04,0.00,0.00,0.00,30.14,M,10.00,M,CLR,M,M,M,M,M,M,M,M,M,M,M,M,M,M,80.68,KCXP 111755Z AUTO 00000KT 10SM CLR 29/M07 A3014 RMK AO2,M
RNO,2024-08-11 17:55,-119.7711,39.4839,1341.00,84.00,21.00,9.74,280.00,4.00,0.00,30.11,1013.30,10.00,M,BKN,M,M,M,19000.00,M,M,M,M,M,M,M,M,M,M,80.63,KRNO 111755Z 28004KT 10SM BKN190 29/M06 A3011 RMK AO2 SLP133 T02891061 10289 20161 58010,M
RTS,2024-08-11 17:55,-119.8764,39.6682,1539.00,80.60,8.60,6.33,0.00,0.00,0.00,30.16,M,10.00,M,CLR,M,M,M,M,M,M,M,M,M,M,M,M,M,M,78.00,KRTS 111755Z AUTO 00000KT 10SM CLR 27/M13 A3016 RMK AO2,M
05U,2024-08-11 17:55,-116.0051,39.6042,1811.23,M,M,M,0.00,0.00,0.00,30.21,M,10.00,M,CLR,M,M,M,M,M,M,M,M,M,M,M,M,M,M,M,K05U 111755Z AUTO 00000KT 10SM CLR A3021 RMK A01,M
MEV,2024-08-11 17:55,-119.7500,38.9963,1441.42,84.20,28.40,13.18,0.00,0.00,0.00,30.13,M,10.00,M,CLR,M,M,M,M,M,M,M,M,M,M,M,M,M,M,81.25,KMEV 111755Z AUTO 00000KT 10SM CLR 29/M02 A3013 RMK AO2,M
HTH,2024-08-11 17:55,-118.6315,38.5448,1282.89,86.00,24.80,10.72,300.00,5.00,0.00,30.10,M,10.00,M,CLR,M,M,M,M,M,M,M,M,M,M,M,M,M,M,82.26,KHTH 111755Z AUTO 30005KT 10SM CLR 30/M04 A3010 RMK A01,M
10U,2024-08-11 17:55,-116.1876,41.9532,1637.00,84.20,30.20,14.18,M,4.00,0.00,30.15,M,10.00,M,CLR,M,M,M,M,M,M,M,M,M,M,M,M,M,M,81.26,K10U 111755Z AUTO VRB04KT 10SM CLR 29/M01 A3015 RMK AO2,M
BAM,2024-08-11 17:55,-116.8743,40.5990,1382.36,86.00,30.20,13.38,230.00,6.00,0.00,30.11,M,10.00,M,CLR,M,M,M,M,M,M,M,M,M,M,M,M,M,M,82.64,KBAM 111755Z AUTO 23006KT 10SM CLR 30/M01 A3011 RMK AO1,M
TMT,2024-08-11 17:55,-117.1971,39.4643,1749.34,85.30,24.40,10.78,240.00,9.00,0.00,30.20,M,10.00,M,CLR,M,M,M,M,M,M,M,M,M,M,M,M,M,M,81.74,KTMT 111755Z AUTO 24009KT 10SM CLR 30/M04 A3020 RMK AO2 T02961042 10298 20071,M
INS,2024-08-11 17:55,-115.6733,36.5872,955.00,96.80,56.00,25.70,110.00,11.00,0.00,30.01,1009.80,10.00,20.00,CLR,M,M,M,M,M,M,M,M,M,M,M,M,M,M,95.34,KINS 111755Z AUTO 11011G20KT 10SM CLR 36/13 A3001 RMK AO2 SLP098 T03600134 10361 20282 58001,M
LSV,2024-08-11 17:55,-115.0343,36.2362,570.00,100.20,59.00,25.82,160.00,14.00,0.00,29.92,1009.80,10.00,M,CLR,M,M,M,M,M,M,M,M,M,M,M,M,M,M,100.34,KLSV 111755Z AUTO 16014KT 10SM CLR 38/15 A2992 RMK AO2 SLP098 T03790150 10379 20324 58001 $,M
EKO,2024-08-11 17:56,-115.7860,40.8242,1367.00,82.00,37.00,19.99,0.00,0.00,0.00,30.14,1014.70,10.00,M,CLR,M,M,M,M,M,M,M,M,M,M,M,M,M,M,79.86,KEKO 111756Z AUTO 00000KT 10SM CLR 28/03 A3014 RMK AO2 SLP147 T02780028 10278 20150 58007,M
WMC,2024-08-11 17:56,-117.8072,40.9019,1315.00,86.00,31.00,13.83,300.00,4.00,0.00,30.08,1013.70,10.00,M,CLR,M,M,M,M,M,M,M,M,M,M,M,M,M,M,82.64,KWMC 111756Z AUTO 30004KT 10SM CLR 30/M01 A3008 RMK AO2 SLP137 T03001006 10300 20083 58006,M
HND,2024-08-11 17:56,-115.1344,35.9729,742.79,98.00,63.00,31.81,150.00,15.00,0.00,30.01,1014.20,10.00,24.00,CLR,M,M,M,M,M,M,M,M,M,M,M,M,M,M,99.91,KHND 111756Z 15015G24KT 10SM CLR 37/17 A3001 RMK AO2 SLP142 T03670172 10367 20294 58001,M
TPH,2024-08-11 17:56,-117.0904,38.0505,1654.00,85.00,23.00,10.26,0.00,0.00,0.00,30.19,1012.40,10.00,M,CLR,M,M,M,M,M,M,M,M,M,M,M,M,M,M,81.44,KTPH 111756Z AUTO 00000KT 10SM CLR 29/M05 A3019 RMK AO2 SLP124 T02941050 10300 20161 58002,M
LAS,2024-08-11 17:56,-115.1634,36.0719,663.00,100.00,61.00,27.90,150.00,11.00,0.00,29.98,1012.00,10.00,20.00,FEW,FEW,SCT,M,11000.00,17000.00,25000.00,M,M,M,M,M,M,M,M,101.12,KLAS 111756Z 15011G20KT 10SM FEW110 FEW170 SCT250 38/16 A2998 RMK AO2 SLP120 T03780161 10378 20322 50000,M
NFL,2024-08-11 17:57,-118.7010,39.4166,1199.00,88.00,18.00,7.54,200.00,4.00,0.00,30.07,1015.20,10.00,M,CLR,M,M,M,M,M,M,M,M,M,M,M,M,M,M,83.31,KNFL 111757Z AUTO 20004KT 10SM CLR 31/M08 A3007 RMK AO2 SLP152 T03111078 10317 20156 58005,M
BVU,2024-08-11 18:15,-114.8611,35.9475,671.00,98.60,60.80,28.90,160.00,21.00,0.00,29.98,M,10.00,26.00,CLR,M,M,M,M,M,M,M,M,M,M,M,M,M,M,99.39,KBVU 111815Z AUTO 16021G26KT 10SM CLR 37/16 A2998 RMK AO2,M
CXP,2024-08-11 18:15,-119.7326,39.1923,1431.00,84.20,21.20,9.76,M,3.00,0.00,30.14,M,10.00,M,CLR,M,M,M,M,M,M,M,M,M,M,M,M,M,M,80.77,KCXP 111815Z AUTO VRB03KT 10SM CLR 29/M06 A3014 RMK AO2,M
RTS,2024-08-11 18:15,-119.8764,39.6682,1539.00,82.40,6.80,5.50,0.00,0.00,0.00,30.16,M,10.00,M,CLR,M,M,M,M,M,M,M,M,M,M,M,M,M,M,78.95,KRTS 111815Z AUTO 00000KT 10SM CLR 28/M14 A3016 RMK AO2,M
05U,2024-08-11 18:15,-116.0051,39.6042,1811.23,M,M,M,0.00,0.00,0.00,30.20,M,10.00,M,CLR,M,M,M,M,M,M,M,M,M,M,M,M,M,M,M,K05U 111815Z AUTO 00000KT 10SM CLR A3020 RMK A01,M
MEV,2024-08-11 18:15,-119.7500,38.9963,1441.42,84.20,14.00,7.16,0.00,0.00,0.00,30.13,M,10.00,M,CLR,M,M,M,M,M,M,M,M,M,M,M,M,M,M,80.44,KMEV 111815Z AUTO 00000KT 10SM CLR 29/M10 A3013 RMK AO2,M
BAM,2024-08-11 18:15,-116.8743,40.5990,1382.36,87.80,30.20,12.64,230.00,4.00,0.00,30.11,M,10.00,M,CLR,M,M,M,M,M,M,M,M,M,M,M,M,M,M,84.01,KBAM 111815Z AUTO 23004KT 10SM CLR 31/M01 A3011 RMK AO1,M
HTH,2024-08-11 18:15,-118.6315,38.5448,1282.89,87.80,21.20,8.70,0.00,0.00,0.00,30.10,M,10.00,M,CLR,M,M,M,M,M,M,M,M,M,M,M,M,M,M,83.33,KHTH 111815Z AUTO 00000KT 10SM CLR 31/M06 A3010 RMK A01,M
10U,2024-08-11 18:15,-116.1876,41.9532,1637.00,86.00,30.20,13.38,40.00,5.00,0.00,30.15,M,10.00,M,CLR,M,M,M,M,M,M,M,M,M,M,M,M,M,M,82.64,K10U 111815Z AUTO 04005KT 10SM CLR 30/M01 A3015 RMK AO2,M
TMT,2024-08-11 18:15,-117.1971,39.4643,1749.34,86.00,28.60,12.54,230.00,12.00,0.00,30.20,M,10.00,17.00,CLR,M,M,M,M,M,M,M,M,M,M,M,M,M,M,82.56,KTMT 111815Z AUTO 23012G17KT 10SM CLR 30/M02 A3020 RMK AO2 T03011019,M
LSV,2024-08-11 18:28,-115.0343,36.2362,570.00,100.40,59.00,25.67,180.00,13.00,0.00,29.92,1009.80,10.00,23.00,CLR,M,M,M,M,M,M,M,M,M,M,M,M,M,M,100.57,KLSV 111828Z AUTO 18013G23KT 10SM CLR 38/15 A2992 RMK AO2 WSHFT 18 SLP098 $,M
LSV,2024-08-11 18:32,-115.0343,36.2362,570.00,100.40,59.00,25.67,140.00,12.00,0.00,29.91,1009.50,10.00,M,CLR,M,M,M,M,M,M,M,M,M,M,M,M,M,M,100.57,KLSV 111832Z AUTO 14012KT 10SM CLR 38/15 A2991 RMK AO2 WSHFT 28 SLP095 $,M
HTH,2024-08-11 18:35,-118.6315,38.5448,1282.89,87.80,19.40,8.06,M,4.00,0.00,30.09,M,10.00,10.00,CLR,M,M,M,M,M,M,M,M,M,M,M,M,M,M,83.23,KHTH 111835Z AUTO VRB04G10KT 10SM CLR 31/M07 A3009 RMK A01,M
BVU,2024-08-11 18:35,-114.8611,35.9475,671.00,98.60,60.80,28.90,150.00,21.00,0.00,29.97,M,10.00,26.00,CLR,M,M,M,M,M,M,M,M,M,M,M,M,M,M,99.39,KBVU 111835Z AUTO 15021G26KT 10SM CLR 37/16 A2997 RMK AO2,M
CXP,2024-08-11 18:35,-119.7326,39.1923,1431.00,86.00,17.60,7.90,300.00,7.00,0.00,30.14,M,10.00,M,CLR,M,M,M,M,M,M,M,M,M,M,M,M,M,M,81.85,KCXP 111835Z AUTO 30007KT 10SM CLR 30/M08 A3014 RMK AO2,M
RTS,2024-08-11 18:35,-119.8764,39.6682,1539.00,84.20,6.80,5.19,170.00,6.00,0.00,30.15,M,10.00,M,CLR,M,M,M,M,M,M,M,M,M,M,M,M,M,M,80.21,KRTS 111835Z AUTO 17006KT 10SM CLR 29/M14 A3015 RMK AO2,M
05U,2024-08-11 18:35,-116.0051,39.6042,1811.23,M,M,M,M,4.00,0.00,30.20,M,10.00,M,CLR,M,M,M,M,M,M,M,M,M,M,M,M,M,M,M,K05U 111835Z AUTO VRB04KT 10SM CLR A3020 RMK A01,M
MEV,2024-08-11 18:35,-119.7500,38.9963,1441.42,84.20,30.20,14.18,270.00,5.00,0.00,30.12,M,9.00,M,CLR,M,M,M,M,M,M,M,M,M,M,M,M,M,M,81.26,KMEV 111835Z AUTO 27005KT 9SM CLR 29/M01 A3012 RMK AO2,M
10U,2024-08-11 18:35,-116.1876,41.9532,1637.00,84.20,30.20,14.18,M,5.00,0.00,30.14,M,10.00,M,CLR,M,M,M,M,M,M,M,M,M,M,M,M,M,M,81.26,K10U 111835Z AUTO VRB05KT 10SM CLR 29/M01 A3014 RMK AO2,M
BAM,2024-08-11 18:35,-116.8743,40.5990,1382.36,89.60,28.40,11.09,220.00,8.00,0.00,30.10,M,10.00,M,CLR,M,M,M,M,M,M,M,M,M,M,M,M,M,M,85.17,KBAM 111835Z AUTO 22008KT 10SM CLR 32/M02 A3010 RMK AO1,M
TMT,2024-08-11 18:35,-117.1971,39.4643,1749.34,87.00,27.50,11.61,210.00,7.00,0.00,30.19,M,10.00,15.00,CLR,M,M,M,M,M,M,M,M,M,M,M,M,M,M,83.18,KTMT 111835Z AUTO 21007G15KT 10SM CLR 31/M02 A3019 RMK AO2 T03051025,M
P68,2024-08-11 18:53,-116.0056,39.6014,1993.00,88.00,26.00,10.57,180.00,8.00,0.00,30.16,1012.30,M,M,M,M,M,M,M,M,M,M,M,M,M,M,M,M,M,83.79,KP68 111853Z AUTO 18008KT 31/M03 A3016 RMK AO1 SLP123 T03111033,M
DRA,2024-08-11 18:53,-116.0278,36.6206,1009.00,99.00,51.00,20.01,180.00,14.00,0.00,30.03,1010.30,10.00,31.00,CLR,M,M,M,M,M,M,M,M,M,M,M,32.00,220.00,2024-08-11 18:13,96.21,KDRA 111853Z AUTO 18014G31KT 150V220 10SM CLR 37/11 A3003 RMK AO2 PK WND 22032/1813 SLP103 T03720106,M
ELY,2024-08-11 18:53,-114.8453,39.2950,1909.00,84.00,43.00,23.66,200.00,11.00,0.00,30.22,1012.10,10.00,19.00,SCT,M,M,M,12000.00,M,M,M,M,M,M,M,M,M,M,81.48,KELY 111853Z AUTO 20011G19KT 10SM SCT120 29/06 A3022 RMK AO2 SLP121 T02890061,M
VGT,2024-08-11 18:53,-115.1933,36.2111,667.00,102.00,62.00,27.21,160.00,16.00,0.00,29.94,1012.10,10.00,24.00,CLR,M,M,M,M,M,M,M,M,M,M,M,M,M,M,104.03,KVGT 111853Z 16016G24KT 10SM CLR 39/17 A2994 RMK AO2 SLP121 T03890167,M
LOL,2024-08-11 18:53,-118.5701,40.0684,1192.43,89.00,32.00,13.09,0.00,0.00,0.00,30.05,1012.80,10.00,M,CLR,M,M,M,M,M,M,M,M,M,M,M,M,M,M,85.07,KLOL 111853Z AUTO 00000KT 10SM CLR 32/00 A3005 RMK AO2 SLP128 T03170000,M
BVU,2024-08-11 18:55,-114.8611,35.9475,671.00,98.60,60.80,28.90,150.00,21.00,0.00,29.97,M,10.00,28.00,CLR,M,M,M,M,M,M,M,M,M,M,M,M,M,M,99.39,KBVU 111855Z AUTO 15021G28KT 10SM CLR 37/16 A2997 RMK AO2,M
CXP,2024-08-11 18:55,-119.7326,39.1923,1431.00,86.00,17.60,7.90,250.00,6.00,0.00,30.13,M,10.00,M,CLR,M,M,M,M,M,M,M,M,M,M,M,M,M,M,81.85,KCXP 111855Z AUTO 25006KT 10SM CLR 30/M08 A3013 RMK AO2,M
RNO,2024-08-11 18:55,-119.7711,39.4839,1341.00,88.00,20.00,8.21,0.00,0.00,0.00,30.10,1012.50,10.00,M,BKN,M,M,M,19000.00,M,M,M,M,M,M,M,M,M,M,83.41,KRNO 111855Z 00000KT 10SM BKN190 31/M07 A3010 RMK AO2 SLP125 T03111067,M
RTS,2024-08-11 18:55,-119.8764,39.6682,1539.00,86.00,6.80,4.90,240.00,12.00,0.00,30.14,M,10.00,M,CLR,M,M,M,M,M,M,M,M,M,M,M,M,M,M,81.49,KRTS 111855Z AUTO 24012KT 10SM CLR 30/M14 A3014 RMK AO2,M
05U,2024-08-11 18:55,-116.0051,39.6042,1811.23,M,M,M,210.00,9.00,0.00,30.18,M,10.00,M,CLR,M,M,M,M,M,M,M,M,M,M,M,M,M,M,M,K05U 111855Z AUTO 21009KT 10SM CLR A3018 RMK A01,M
MEV,2024-08-11 18:55,-119.7500,38.9963,1441.42,82.40,32.00,16.17,240.00,3.00,0.00,30.12,M,10.00,M,CLR,M,M,M,M,M,M,M,M,M,M,M,M,M,M,80.00,KMEV 111855Z AUTO 24003KT 10SM CLR 28/00 A3012 RMK AO2,M
BAM,2024-08-11 18:55,-116.8743,40.5990,1382.36,89.60,28.40,11.09,280.00,7.00,0.00,30.09,M,10.00,M,CLR,M,M,M,M,M,M,M,M,M,M,M,M,M,M,85.17,KBAM 111855Z AUTO 28007KT 10SM CLR 32/M02 A3009 RMK AO1,M
HTH,2024-08-11 18:55,-118.6315,38.5448,1282.89,89.60,19.40,7.61,0.00,0.00,0.00,30.07,M,10.00,10.00,CLR,M,M,M,M,M,M,M,M,M,M,M,M,M,M,84.54,KHTH 111855Z AUTO 00000G10KT 10SM CLR 32/M07 A3007 RMK A01,M
10U,2024-08-11 18:55,-116.1876,41.9532,1637.00,86.00,30.20,13.38,0.00,0.00,0.00,30.14,M,10.00,10.00,CLR,M,M,M,M,M,M,M,M,M,M,M,M,M,M,82.64,K10U 111855Z AUTO 00000G10KT 10SM CLR 30/M01 A3014 RMK AO2,M
TMT,2024-08-11 18:55,-117.1971,39.4643,1749.34,87.60,25.00,10.27,260.00,9.00,0.00,30.18,M,10.00,M,CLR,M,M,M,M,M,M,M,M,M,M,M,M,M,M,83.42,KTMT 111855Z AUTO 26009KT 10SM CLR 31/M04 A3018 RMK AO2 T03091039,M
INS,2024-08-11 18:55,-115.6733,36.5872,955.00,99.00,54.70,22.93,120.00,15.00,0.00,29.99,1009.10,10.00,23.00,CLR,M,M,M,M,M,M,M,M,M,M,M,29.00,90.00,2024-08-11 18:41,97.29,KINS 111855Z AUTO 12015G23KT 10SM CLR 37/13 A2999 RMK AO2 PK WND 09029/41 SLP091 T03720126,M
LSV,2024-08-11 18:55,-115.0343,36.2362,570.00,101.70,59.00,24.68,150.00,13.00,0.00,29.90,1009.10,10.00,M,CLR,M,M,M,M,M,M,M,M,M,M,M,M,M,M,102.05,KLSV 111855Z AUTO 15013KT 10SM CLR 39/15 A2990 RMK AO2 SLP091 T03870151 $,M
EKO,2024-08-11 18:56,-115.7860,40.8242,1367.00,87.00,29.00,12.35,230.00,8.00,0.00,30.13,1013.90,10.00,M,CLR,M,M,M,M,M,M,M,M,M,M,M,M,M,M,83.31,KEKO 111856Z AUTO 23008KT 10SM CLR 31/M02 A3013 RMK AO2 SLP139 T03061017,M
WMC,2024-08-11 18:56,-117.8072,40.9019,1315.00,90.00,30.00,11.70,0.00,0.00,0.00,30.07,1012.90,10.00,M,CLR,M,M,M,M,M,M,M,M,M,M,M,M,M,M,85.63,KWMC 111856Z AUTO 00000KT 10SM CLR 32/M01 A3007 RMK AO2 SLP129 T03221011,M
HND,2024-08-11 18:56,-115.1344,35.9729,742.79,101.00,62.00,28.04,150.00,20.00,0.00,29.99,1013.30,10.00,26.00,CLR,M,M,M,M,M,M,M,M,M,M,M,26.00,150.00,2024-08-11 18:53,102.85,KHND 111856Z 15020G26KT 10SM CLR 38/17 A2999 RMK AO2 PK WND 15026/1853 SLP133 T03830167,M
TPH,2024-08-11 18:56,-117.0904,38.0505,1654.00,87.00,23.00,9.63,M,4.00,0.00,30.18,1012.20,10.00,M,CLR,M,M,M,M,M,M,M,M,M,M,M,M,M,M,82.86,KTPH 111856Z AUTO VRB04KT 10SM CLR 31/M05 A3018 RMK AO2 SLP122 T03061050 $,M
LAS,2024-08-11 18:56,-115.1634,36.0719,663.00,103.00,61.00,25.49,150.00,13.00,0.00,29.96,1010.90,10.00,23.00,FEW,FEW,SCT,M,11000.00,17000.00,25000.00,M,M,M,M,M,27.00,140.00,2024-08-11 18:19,104.61,KLAS 111856Z 15013G23KT 10SM FEW110 FEW170 SCT250 39/16 A2996 RMK AO2 PK WND 14027/1819 SLP109 CB DSNT NE T03940161,M
BVU,2024-08-11 19:15,-114.8611,35.9475,671.00,98.60,60.80,28.90,160.00,23.00,0.00,29.95,M,10.00,28.00,CLR,M,M,M,M,M,M,M,M,M,M,M,M,M,M,99.39,KBVU 111915Z AUTO 16023G28KT 10SM CLR 37/16 A2995 RMK AO2,M
CXP,2024-08-11 19:15,-119.7326,39.1923,1431.00,86.00,17.60,7.90,M,5.00,0.00,30.13,M,10.00,12.00,CLR,M,M,M,M,M,M,M,M,M,M,M,M,M,M,81.85,KCXP 111915Z AUTO VRB05G12KT 10SM CLR 30/M08 A3013 RMK AO2,M
RTS,2024-08-11 19:15,-119.8764,39.6682,1539.00,86.00,8.60,5.31,230.00,9.00,0.00,30.14,M,10.00,17.00,CLR,M,M,M,M,M,M,M,M,M,M,M,M,M,M,81.53,KRTS 111915Z AUTO 23009G17KT 10SM CLR 30/M13 A3014 RMK AO2,M
05U,2024-08-11 19:15,-116.0051,39.6042,1811.23,M,M,M,260.00,9.00,0.00,30.18,M,10.00,M,CLR,M,M,M,M,M,M,M,M,M,M,M,M,M,M,M,K05U 111915Z AUTO 26009KT 10SM CLR A3018 RMK A01,M
MEV,2024-08-11 19:15,-119.7500,38.9963,1441.42,84.20,21.20,9.76,50.00,3.00,0.00,30.12,M,10.00,M,CLR,M,M,M,M,M,M,M,M,M,M,M,M,M,M,80.77,KMEV 111915Z AUTO 05003KT 10SM CLR 29/M06 A3012 RMK AO2,M
BAM,2024-08-11 19:15,-116.8743,40.5990,1382.36,91.40,26.60,9.74,240.00,10.00,0.00,30.09,M,10.00,17.00,CLR,M,M,M,M,M,M,M,M,M,M,M,M,M,M,86.36,KBAM 111915Z AUTO 24010G17KT 10SM CLR 33/M03 A3009 RMK AO1,M
HTH,2024-08-11 19:15,-118.6315,38.5448,1282.89,89.60,17.60,7.05,M,4.00,0.00,30.06,M,10.00,M,CLR,M,M,M,M,M,M,M,M,M,M,M,M,M,M,84.45,KHTH 111915Z AUTO VRB04KT 10SM CLR 32/M08 A3006 RMK A01,M
10U,2024-08-11 19:15,-116.1876,41.9532,1637.00,86.00,28.40,12.44,140.00,7.00,0.00,30.13,M,10.00,12.00,CLR,M,M,M,M,M,M,M,M,M,M,M,M,M,M,82.54,K10U 111915Z AUTO 14007G12KT 10SM CLR 30/M02 A3013 RMK AO2,M
TMT,2024-08-11 19:15,-117.1971,39.4643,1749.34,88.50,25.70,10.28,250.00,12.00,0.00,30.17,M,10.00,21.00,CLR,M,M,M,M,M,M,M,M,M,M,M,M,M,M,84.13,KTMT 111915Z AUTO 25012G21KT 230V290 10SM CLR 31/M03 A3017 RMK AO2 T03141035,M
LSV,2024-08-11 19:24,-115.0343,36.2362,570.00,102.20,59.00,24.32,180.00,13.00,0.00,29.89,1008.80,10.00,22.00,CLR,M,M,M,M,M,M,M,M,M,M,M,M,M,M,102.62,KLSV 111924Z AUTO 18013G22KT 10SM CLR 39/15 A2989 RMK AO2 WSHFT 16 SLP088 $,M
LAS,2024-08-11 19:34,-115.1634,36.0719,663.00,104.00,59.00,23.04,160.00,12.00,0.00,29.94,M,10.00,22.00,FEW,SCT,SCT,M,11000.00,17000.00,25000.00,M,M,M,M,M,M,M,M,104.68,KLAS 111934Z 16012G22KT 10SM FEW110 SCT170 SCT250 40/15 A2994 RMK AO2 CB DSNT NE AND SW AND NW T04000150,M
BVU,2024-08-11 19:35,-114.8611,35.9475,671.00,100.40,60.80,27.37,160.00,20.00,0.00,29.95,M,10.00,30.00,CLR,M,M,M,M,M,M,M,M,M,M,M,M,M,M,101.47,KBVU 111935Z AUTO 16020G30KT 10SM CLR 38/16 A2995 RMK AO2,M
CXP,2024-08-11 19:35,-119.7326,39.1923,1431.00,87.80,17.60,7.46,260.00,8.00,0.00,30.12,M,10.00,14.00,CLR,M,M,M,M,M,M,M,M,M,M,M,M,M,M,83.14,KCXP 111935Z AUTO 26008G14KT 10SM CLR 31/M08 A3012 RMK AO2,M
RTS,2024-08-11 19:35,-119.8764,39.6682,1539.00,87.80,8.60,5.02,210.00,17.00,0.00,30.13,M,10.00,M,CLR,M,M,M,M,M,M,M,M,M,M,M,M,M,M,82.82,KRTS 111935Z AUTO 21017KT 10SM CLR 31/M13 A3013 RMK AO2,M
05U,2024-08-11 19:35,-116.0051,39.6042,1811.23,M,M,M,310.00,8.00,0.00,30.17,M,10.00,17.00,CLR,M,M,M,M,M,M,M,M,M,M,M,M,M,M,M,K05U 111935Z AUTO 31008G17KT 270V330 10SM CLR A3017 RMK A01,M
MEV,2024-08-11 19:35,-119.7500,38.9963,1441.42,87.80,19.40,8.06,0.00,0.00,0.00,30.11,M,10.00,M,CLR,M,M,M,M,M,M,M,M,M,M,M,M,M,M,83.23,KMEV 111935Z AUTO 00000KT 10SM CLR 31/M07 A3011 RMK AO2,M
BAM,2024-08-11 19:35,-116.8743,40.5990,1382.36,93.20,26.60,9.21,250.00,9.00,0.00,30.08,M,10.00,M,CLR,M,M,M,M,M,M,M,M,M,M,M,M,M,M,87.72,KBAM 111935Z AUTO 25009KT 10SM CLR 34/M03 A3008 RMK AO1,M
HTH,2024-08-11 19:35,-118.6315,38.5448,1282.89,91.40,17.60,6.66,0.00,0.00,0.00,30.05,M,10.00,M,CLR,M,M,M,M,M,M,M,M,M,M,M,M,M,M,85.76,KHTH 111935Z AUTO 00000KT 10SM CLR 33/M08 A3005 RMK A01,M
10U,2024-08-11 19:35,-116.1876,41.9532,1637.00,87.80,28.40,11.74,240.00,7.00,0.00,30.12,M,10.00,14.00,CLR,M,M,M,M,M,M,M,M,M,M,M,M,M,M,83.84,K10U 111935Z AUTO 24007G14KT 170V300 10SM CLR 31/M02 A3012 RMK AO2,M
TMT,2024-08-11 19:35,-117.1971,39.4643,1749.34,88.70,25.50,10.13,260.00,9.00,0.00,30.16,M,10.00,20.00,CLR,M,M,M,M,M,M,M,M,M,M,M,M,M,M,84.26,KTMT 111935Z AUTO 26009G20KT 10SM CLR 32/M04 A3016 RMK AO2 T03151036,M
P68,2024-08-11 19:53,-116.0056,39.6014,1993.00,91.00,27.00,10.02,270.00,8.00,0.00,30.14,1011.30,M,15.00,M,M,M,M,M,M,M,M,M,M,M,M,M,M,M,86.10,KP68 111953Z AUTO 27008G15KT 33/M03 A3014 RMK AO1 SLP113 T03281028,M
DRA,2024-08-11 19:53,-116.0278,36.6206,1009.00,101.00,53.00,20.28,220.00,20.00,0.00,30.00,1009.30,10.00,30.00,CLR,M,M,M,M,M,M,M,M,M,M,M,32.00,230.00,2024-08-11 19:12,98.89,KDRA 111953Z AUTO 22020G30KT 10SM CLR 38/12 A3000 RMK AO2 PK WND 23032/1912 SLP093 T03830117,M
ELY,2024-08-11 19:53,-114.8453,39.2950,1909.00,84.00,44.00,24.58,M,5.00,0.00,30.20,1011.90,10.00,M,CLR,M,M,M,M,M,M,M,M,M,M,M,M,M,M,81.54,KELY 111953Z AUTO VRB05KT 10SM CLR 29/07 A3020 RMK AO2 SLP119 T02890067,M
VGT,2024-08-11 19:53,-115.1933,36.2111,667.00,99.00,61.00,28.75,260.00,10.00,0.00,29.93,1011.60,10.00,14.00,SCT,M,M,M,9500.00,M,M,M,M,M,M,M,M,M,M,99.96,KVGT 111953Z 26010G14KT 10SM SCT095 37/16 A2993 RMK AO2 LTG DSNT SW SLP116 T03720161,M
LOL,2024-08-11 19:53,-118.5701,40.0684,1192.43,89.00,28.00,11.12,M,M,0.00,30.03,1012.40,10.00,M,CLR,M,M,M,M,M,M,M,M,M,M,M,M,M,M,84.69,KLOL 111953Z AUTO 10SM CLR 32/M02 A3003 RMK AO2 SLP124 T03171022,M
BVU,2024-08-11 19:55,-114.8611,35.9475,671.00,100.40,60.80,27.37,140.00,24.00,0.00,29.94,M,10.00,M,CLR,M,M,M,M,M,M,M,M,M,M,M,M,M,M,101.47,KBVU 111955Z AUTO 14024KT 10SM CLR 38/16 A2994 RMK AO2,M
CXP,2024-08-11 19:55,-119.7326,39.1923,1431.00,87.80,17.60,7.46,210.00,8.00,0.00,30.12,M,10.00,M,CLR,M,M,M,M,M,M,M,M,M,M,M,M,M,M,83.14,KCXP 111955Z AUTO 21008KT 170V240 10SM CLR 31/M08 A3012 RMK AO2,M
RNO,2024-08-11 19:55,-119.7711,39.4839,1341.00,87.00,20.00,8.48,0.00,0.00,0.00,30.08,1012.50,10.00,M,BKN,M,M,M,18000.00,M,M,M,M,M,M,M,M,M,M,82.68,KRNO 111955Z 00000KT 10SM BKN180 31/M07 A3008 RMK AO2 SLP125 ACSL ALQDS T03061067,M
RTS,2024-08-11 19:55,-119.8764,39.6682,1539.00,87.80,10.40,5.44,220.00,16.00,0.00,30.13,M,10.00,22.00,CLR,M,M,M,M,M,M,M,M,M,M,M,M,M,M,82.88,KRTS 111955Z AUTO 22016G22KT 10SM CLR 31/M12 A3013 RMK AO2,M
05U,2024-08-11 19:55,-116.0051,39.6042,1811.23,M,M,M,0.00,0.00,0.00,30.16,M,10.00,11.00,CLR,M,M,M,M,M,M,M,M,M,M,M,M,M,M,M,K05U 111955Z AUTO 00000G11KT 10SM CLR A3016 RMK A01,M
MEV,2024-08-11 19:55,-119.7500,38.9963,1441.42,89.60,17.60,7.05,0.00,0.00,0.00,30.10,M,10.00,M,CLR,M,M,M,M,M,M,M,M,M,M,M,M,M,M,84.45,KMEV 111955Z AUTO 00000KT 10SM CLR 32/M08 A3010 RMK AO2,M
HTH,2024-08-11 19:55,-118.6315,38.5448,1282.89,91.40,17.60,6.66,0.00,0.00,0.00,30.04,M,10.00,M,CLR,M,M,M,M,M,M,M,M,M,M,M,M,M,M,85.76,KHTH 111955Z AUTO 00000KT 10SM CLR 33/M08 A3004 RMK A01,M
10U,2024-08-11 19:55,-116.1876,41.9532,1637.00,87.80,28.40,11.74,M,5.00,0.00,30.11,M,10.00,13.00,CLR,M,M,M,M,M,M,M,M,M,M,M,M,M,M,83.84,K10U 111955Z AUTO VRB05G13KT 10SM CLR 31/M02 A3011 RMK AO2,M
BAM,2024-08-11 19:55,-116.8743,40.5990,1382.36,93.20,26.60,9.21,250.00,7.00,0.00,30.07,M,10.00,18.00,CLR,M,M,M,M,M,M,M,M,M,M,M,M,M,M,87.72,KBAM 111955Z AUTO 25007G18KT 10SM CLR 34/M03 A3007 RMK AO1,M
TMT,2024-08-11 19:55,-117.1971,39.4643,1749.34,89.20,25.00,9.76,250.00,16.00,0.00,30.16,M,10.00,21.00,CLR,M,M,M,M,M,M,M,M,M,M,M,M,M,M,84.60,KTMT 111955Z AUTO 25016G21KT 10SM CLR 32/M04 A3016 RMK AO2 T03181039,M
INS,2024-08-11 19:55,-115.6733,36.5872,955.00,101.00,56.50,23.04,120.00,18.00,0.00,29.96,1008.00,10.00,24.00,CLR,M,M,M,M,M,M,M,M,M,M,M,31.00,90.00,2024-08-11 19:03,100.15,KINS 111955Z AUTO 12018G24KT 10SM CLR 38/14 A2996 RMK AO2 PK WND 09031/03 SLP080 T03840136,M
LSV,2024-08-11 19:55,-115.0343,36.2362,570.00,103.60,56.00,20.93,180.00,14.00,0.00,29.87,1008.10,10.00,21.00,FEW,M,M,M,17000.00,M,M,M,M,M,M,M,M,M,M,102.82,KLSV 111955Z AUTO 18014G21KT 10SM FEW170 40/13 A2987 RMK AO2 SLP081 T03980133 $,M
EKO,2024-08-11 19:56,-115.7860,40.8242,1367.00,91.00,30.00,11.33,190.00,5.00,0.00,30.09,1012.70,10.00,M,CLR,M,M,M,M,M,M,M,M,M,M,M,M,M,M,86.38,KEKO 111956Z AUTO 19005KT 10SM CLR 33/M01 A3009 RMK AO2 SLP127 T03281011,M
WMC,2024-08-11 19:56,-117.8072,40.9019,1315.00,95.00,29.00,9.61,240.00,8.00,0.00,30.04,1011.80,10.00,M,CLR,M,M,M,M,M,M,M,M,M,M,M,M,M,M,89.34,KWMC 111956Z AUTO 24008KT 200V280 10SM CLR 35/M02 A3004 RMK AO2 SLP118 T03501017 $,M
HND,2024-08-11 19:56,-115.1344,35.9729,742.79,102.00,61.00,26.27,160.00,19.00,0.00,29.97,1012.50,10.00,23.00,SCT,M,M,M,9000.00,M,M,M,M,M,M,M,29.00,150.00,2024-08-11 19:20,103.45,KHND 111956Z 16019G23KT 10SM SCT090 39/16 A2997 RMK AO2 PK WND 15029/1920 LTG DSNT SW SLP125 T03890161,M
TPH,2024-08-11 19:56,-117.0904,38.0505,1654.00,90.00,25.00,9.52,M,5.00,0.00,30.15,1011.40,10.00,M,CLR,M,M,M,M,M,M,M,M,M,M,M,M,M,M,85.19,KTPH 111956Z AUTO VRB05KT 10SM CLR 32/M04 A3015 RMK AO2 SLP114 T03221039 $,M
LAS,2024-08-11 19:56,-115.1634,36.0719,663.00,104.00,59.00,23.04,170.00,13.00,0.00,29.93,1009.90,10.00,25.00,FEW,FEW,SCT,BKN,9000.00,11000.00,17000.00,25000.00,M,M,M,M,29.00,130.00,2024-08-11 19:46,104.68,KLAS 111956Z 17013G25KT 10SM FEW090 FEW110CB SCT170 BKN250 40/15 A2993 RMK AO2 PK WND 13029/1946 LTG DSNT SW SLP099 CB DSNT NE-E AND SW AND NW T04000150,M
BVU,2024-08-11 20:15,-114.8611,35.9475,671.00,100.40,59.00,25.67,160.00,22.00,0.00,29.93,M,10.00,28.00,CLR,M,M,M,M,M,M,M,M,M,M,M,M,M,M,100.57,KBVU 112015Z AUTO 16022G28KT 10SM CLR 38/15 A2993 RMK AO2,M
CXP,2024-08-11 20:15,-119.7326,39.1923,1431.00,87.80,15.80,6.90,250.00,8.00,0.00,30.11,M,10.00,14.00,CLR,M,M,M,M,M,M,M,M,M,M,M,M,M,M,83.07,KCXP 112015Z AUTO 25008G14KT 10SM CLR 31/M09 A3011 RMK AO2,M
RTS,2024-08-11 20:15,-119.8764,39.6682,1539.00,87.80,10.40,5.44,240.00,14.00,0.00,30.12,M,10.00,23.00,CLR,M,M,M,M,M,M,M,M,M,M,M,M,M,M,82.88,KRTS 112015Z AUTO 24014G23KT 10SM CLR 31/M12 A3012 RMK AO2,M
05U,2024-08-11 20:15,-116.0051,39.6042,1811.23,M,M,M,260.00,7.00,0.00,30.16,M,10.00,15.00,CLR,M,M,M,M,M,M,M,M,M,M,M,M,M,M,M,K05U 112015Z AUTO 26007G15KT 230V300 10SM CLR A3016 RMK A01,M
MEV,2024-08-11 20:15,-119.7500,38.9963,1441.42,91.40,17.60,6.66,0.00,0.00,0.00,30.09,M,9.00,M,CLR,M,M,M,M,M,M,M,M,M,M,M,M,M,M,85.76,KMEV 112015Z AUTO 00000KT 9SM CLR 33/M08 A3009 RMK AO2,M
BAM,2024-08-11 20:15,-116.8743,40.5990,1382.36,91.40,26.60,9.74,260.00,6.00,0.00,30.06,M,10.00,M,CLR,M,M,M,M,M,M,M,M,M,M,M,M,M,M,86.36,KBAM 112015Z AUTO 26006KT 10SM CLR 33/M03 A3006 RMK AO1,M
HTH,2024-08-11 20:15,-118.6315,38.5448,1282.89,93.20,17.60,6.30,0.00,0.00,0.00,30.03,M,10.00,M,CLR,M,M,M,M,M,M,M,M,M,M,M,M,M,M,87.08,KHTH 112015Z AUTO 00000KT 10SM CLR 34/M08 A3003 RMK A01,M
10U,2024-08-11 20:15,-116.1876,41.9532,1637.00,87.80,26.60,10.91,M,4.00,0.00,30.11,M,10.00,15.00,CLR,M,M,M,M,M,M,M,M,M,M,M,M,M,M,83.69,K10U 112015Z AUTO VRB04G15KT 10SM CLR 31/M03 A3011 RMK AO2,M
TMT,2024-08-11 20:15,-117.1971,39.4643,1749.34,89.80,23.50,9.00,260.00,13.00,0.00,30.15,M,10.00,24.00,CLR,M,M,M,M,M,M,M,M,M,M,M,M,M,M,84.93,KTMT 112015Z AUTO 26013G24KT 10SM CLR 32/M05 A3015 RMK AO2 T03211047,M
BVU,2024-08-11 20:35,-114.8611,35.9475,671.00,100.40,59.00,25.67,160.00,23.00,0.00,29.92,M,9.00,M,CLR,M,M,M,M,M,M,M,M,M,M,M,M,M,M,100.57,KBVU 112035Z AUTO 16023KT 9SM CLR 38/15 A2992 RMK AO2,M
CXP,2024-08-11 20:35,-119.7326,39.1923,1431.00,89.60,15.80,6.52,240.00,11.00,0.00,30.11,M,10.00,18.00,CLR,M,M,M,M,M,M,M,M,M,M,M,M,M,M,84.37,KCXP 112035Z AUTO 24011G18KT 10SM CLR 32/M09 A3011 RMK AO2,M
RTS,2024-08-11 20:35,-119.8764,39.6682,1539.00,87.80,6.80,4.63,240.00,14.00,0.00,30.11,M,10.00,19.00,CLR,M,M,M,M,M,M,M,M,M,M,M,M,M,M,82.78,KRTS 112035Z AUTO 24014G19KT 10SM CLR 31/M14 A3011 RMK AO2,M
05U,2024-08-11 20:35,-116.0051,39.6042,1811.23,M,M,M,280.00,8.00,0.00,30.15,M,10.00,M,CLR,M,M,M,M,M,M,M,M,M,M,M,M,M,M,M,K05U 112035Z AUTO 28008KT 10SM CLR A3015 RMK A01,M
MEV,2024-08-11 20:35,-119.7500,38.9963,1441.42,93.20,17.60,6.30,210.00,9.00,0.00,30.09,M,8.00,M,CLR,M,M,M,M,M,M,M,M,M,M,M,M,M,M,87.08,KMEV 112035Z AUTO 21009KT 8SM CLR 34/M08 A3009 RMK AO2,M
BAM,2024-08-11 20:35,-116.8743,40.5990,1382.36,95.00,21.20,6.95,250.00,9.00,0.00,30.05,M,10.00,19.00,CLR,M,M,M,M,M,M,M,M,M,M,M,M,M,M,88.62,KBAM 112035Z AUTO 25009G19KT 10SM CLR 35/M06 A3005 RMK AO1,M
HTH,2024-08-11 20:35,-118.6315,38.5448,1282.89,93.20,17.60,6.30,M,6.00,0.00,30.02,M,10.00,11.00,CLR,M,M,M,M,M,M,M,M,M,M,M,M,M,M,87.08,KHTH 112035Z AUTO VRB06G11KT 10SM CLR 34/M08 A3002 RMK A01,M
10U,2024-08-11 20:35,-116.1876,41.9532,1637.00,89.60,24.80,9.56,210.00,8.00,0.00,30.10,M,10.00,15.00,CLR,M,M,M,M,M,M,M,M,M,M,M,M,M,M,84.88,K10U 112035Z AUTO 21008G15KT 10SM CLR 32/M04 A3010 RMK AO2,M
TMT,2024-08-11 20:35,-117.1971,39.4643,1749.34,90.00,21.70,8.29,270.00,16.00,0.00,30.14,M,10.00,22.00,CLR,M,M,M,M,M,M,M,M,M,M,M,M,M,M,84.96,KTMT 112035Z AUTO 27016G22KT 10SM CLR 32/M06 A3014 RMK AO2 T03231057,M
HND,2024-08-11 20:36,-115.1344,35.9729,742.79,100.40,60.80,27.37,230.00,17.00,0.00,29.96,M,10.00,24.00,BKN,M,M,M,9000.00,M,M,M,M,M,M,M,28.00,160.00,2024-08-11 20:00,101.47,KHND 112036Z 23017G24KT 10SM BKN090 38/16 A2996 RMK AO2 PK WND 16028/2000 WSHFT 2016,M
P68,2024-08-11 20:53,-116.0056,39.6014,1993.00,91.00,27.00,10.02,110.00,8.00,0.00,30.11,1010.30,M,M,M,M,M,M,M,M,M,M,M,M,M,M,M,M,M,86.10,KP68 112053Z AUTO 11008KT 33/M03 A3011 RMK AO1 SLP103 T03281028 58020,M
DRA,2024-08-11 20:53,-116.0278,36.6206,1009.00,102.00,52.00,18.97,200.00,18.00,0.00,29.98,1008.80,10.00,27.00,CLR,M,M,M,M,M,M,M,M,M,M,M,32.00,220.00,2024-08-11 20:12,99.65,KDRA 112053Z AUTO 20018G27KT 10SM CLR 39/11 A2998 RMK AO2 PK WND 22032/2012 SLP088 T03890111 58014,M
ELY,2024-08-11 20:53,-114.8453,39.2950,1909.00,88.00,43.00,20.82,190.00,10.00,0.00,30.17,1010.90,10.00,22.00,SCT,M,M,M,10000.00,M,M,M,M,M,M,M,M,M,M,84.58,KELY 112053Z AUTO 19010G22KT 10SM SCT100 31/06 A3017 RMK AO2 LTG DSNT N SLP109 T03110061 58015,M
VGT,2024-08-11 20:53,-115.1933,36.2111,667.00,98.00,62.00,30.71,270.00,9.00,0.00,29.91,1011.20,10.00,M,BKN,M,M,M,10000.00,M,M,M,M,M,M,M,M,M,M,99.34,KVGT 112053Z 27009KT 10SM BKN100 37/17 A2991 RMK AO2 SLP112 T03670167 56018,M
LOL,2024-08-11 20:53,-118.5701,40.0684,1192.43,95.00,26.00,8.49,170.00,9.00,0.00,30.00,1011.20,10.00,19.00,CLR,M,M,M,M,M,M,M,M,M,M,M,M,M,M,89.02,KLOL 112053Z AUTO 17009G19KT 140V200 10SM CLR 35/M03 A3000 RMK AO2 SLP112 T03501033 58022,M
BVU,2024-08-11 20:55,-114.8611,35.9475,671.00,102.20,57.20,22.79,160.00,21.00,0.00,29.92,M,10.00,29.00,CLR,M,M,M,M,M,M,M,M,M,M,M,M,M,M,101.78,KBVU 112055Z AUTO 16021G29KT 10SM CLR 39/14 A2992 RMK AO2,M
CXP,2024-08-11 20:55,-119.7326,39.1923,1431.00,89.60,14.00,6.03,240.00,14.00,0.00,30.10,M,10.00,19.00,CLR,M,M,M,M,M,M,M,M,M,M,M,M,M,M,84.30,KCXP 112055Z AUTO 24014G19KT 210V270 10SM CLR 32/M10 A3010 RMK AO2,M
RNO,2024-08-11 20:55,-119.7711,39.4839,1341.00,91.00,21.00,7.80,90.00,6.00,0.00,30.06,1011.40,10.00,M,SCT,BKN,M,M,15000.00,18000.00,M,M,M,M,M,M,M,M,M,85.66,KRNO 112055Z 09006KT 10SM SCT150 BKN180 33/M06 A3006 RMK AO2 SLP114 ACSL ALQDS T03281061 58017,M
RTS,2024-08-11 20:55,-119.8764,39.6682,1539.00,86.00,10.40,5.76,240.00,13.00,0.00,30.12,M,10.00,18.00,CLR,M,M,M,M,M,M,M,M,M,M,M,M,M,M,81.58,KRTS 112055Z AUTO 24013G18KT 10SM CLR 30/M12 A3012 RMK AO2,M
05U,2024-08-11 20:55,-116.0051,39.6042,1811.23,M,M,M,120.00,7.00,0.00,30.14,M,10.00,M,CLR,M,M,M,M,M,M,M,M,M,M,M,M,M,M,M,K05U 112055Z AUTO 12007KT 10SM CLR A3014 RMK A01,M
MEV,2024-08-11 20:55,-119.7500,38.9963,1441.42,93.20,14.00,5.38,M,5.00,0.00,30.08,M,10.00,M,CLR,M,M,M,M,M,M,M,M,M,M,M,M,M,M,86.90,KMEV 112055Z AUTO VRB05KT 10SM CLR 34/M10 A3008 RMK AO2,M
BAM,2024-08-11 20:55,-116.8743,40.5990,1382.36,96.80,21.20,6.57,270.00,10.00,0.00,30.04,M,10.00,16.00,CLR,M,M,M,M,M,M,M,M,M,M,M,M,M,M,90.11,KBAM 112055Z AUTO 27010G16KT 10SM CLR 36/M06 A3004 RMK AO1,M
HTH,2024-08-11 20:55,-118.6315,38.5448,1282.89,95.00,19.40,6.43,360.00,10.00,0.00,30.02,M,10.00,M,CLR,M,M,M,M,M,M,M,M,M,M,M,M,M,M,88.50,KHTH 112055Z AUTO 36010KT 10SM CLR 35/M07 A3002 RMK A01,M
10U,2024-08-11 20:55,-116.1876,41.9532,1637.00,87.80,24.80,10.12,M,5.00,0.00,30.09,M,10.00,14.00,CLR,M,M,M,M,M,M,M,M,M,M,M,M,M,M,83.56,K10U 112055Z AUTO VRB05G14KT 10SM CLR 31/M04 A3009 RMK AO2,M
TMT,2024-08-11 20:55,-117.1971,39.4643,1749.34,91.60,22.00,7.98,250.00,18.00,0.00,30.14,M,10.00,23.00,CLR,M,M,M,M,M,M,M,M,M,M,M,M,M,M,86.16,KTMT 112055Z AUTO 25018G23KT 10SM CLR 33/M06 A3014 RMK AO2 T03311056,M
INS,2024-08-11 20:55,-115.6733,36.5872,955.00,99.00,56.00,24.04,110.00,16.00,0.00,29.95,1007.80,10.00,24.00,OVC,M,M,M,10000.00,M,M,M,M,M,M,M,28.00,80.00,2024-08-11 20:17,97.74,KINS 112055Z AUTO 11016G24KT 10SM OVC100 37/13 A2995 RMK AO2 PK WND 08028/17 SLP078 T03730133 56018,M
LSV,2024-08-11 20:55,-115.0343,36.2362,570.00,102.20,55.00,21.05,170.00,17.00,0.00,29.85,1007.40,10.00,M,CLR,M,M,M,M,M,M,M,M,M,M,M,27.00,160.00,2024-08-11 20:05,100.88,KLSV 112055Z AUTO 17017KT 10SM CLR 39/13 A2985 RMK AO2 PK WND 16027/05 SLP074 T03900127 57024 $,M
EKO,2024-08-11 20:56,-115.7860,40.8242,1367.00,93.00,29.00,10.22,200.00,7.00,0.00,30.06,1011.20,10.00,M,CLR,M,M,M,M,M,M,M,M,M,M,M,M,M,M,87.80,KEKO 112056Z AUTO 20007KT 180V260 10SM CLR 34/M02 A3006 RMK AO2 SLP112 T03391017 58024,M
WMC,2024-08-11 20:56,-117.8072,40.9019,1315.00,95.00,23.00,7.49,260.00,10.00,0.00,30.02,1011.40,10.00,19.00,CLR,M,M,M,M,M,M,M,M,M,M,M,M,M,M,88.76,KWMC 112056Z AUTO 26010G19KT 10SM CLR 35/M05 A3002 RMK AO2 SLP114 T03501050 58020 $,M
HND,2024-08-11 20:56,-115.1344,35.9729,742.79,99.00,61.00,28.75,240.00,16.00,0.00,29.96,1012.40,10.00,M,FEW,M,M,M,9000.00,M,M,M,M,M,M,M,28.00,160.00,2024-08-11 20:00,99.96,KHND 112056Z 24016KT 10SM FEW090 37/16 A2996 RMK AO2 PK WND 16028/2000 WSHFT 2016 SLP124 T03720161 56016,M
TPH,2024-08-11 20:56,-117.0904,38.0505,1654.00,93.00,25.00,8.67,M,4.00,0.00,30.13,1010.50,10.00,M,CLR,M,M,M,M,M,M,M,M,M,M,M,M,M,M,87.43,KTPH 112056Z AUTO VRB04KT 10SM CLR 34/M04 A3013 RMK AO2 SLP105 T03391039 58018 $,M
LAS,2024-08-11 20:56,-115.1634,36.0719,663.00,103.00,59.00,23.74,210.00,13.00,0.00,29.92,1009.90,10.00,24.00,SCT,BKN,BKN,M,9000.00,12000.00,25000.00,M,M,M,M,M,M,M,M,103.53,KLAS 112056Z 21013G24KT 10SM SCT090 BKN120 BKN250 39/15 A2992 RMK AO2 SLP099 CB DSNT NE-E AND SW T03940150 56019,M
BVU,2024-08-11 21:15,-114.8611,35.9475,671.00,102.20,57.20,22.79,150.00,21.00,0.00,29.91,M,10.00,29.00,CLR,M,M,M,M,M,M,M,M,M,M,M,M,M,M,101.78,KBVU 112115Z AUTO 15021G29KT 10SM CLR 39/14 A2991 RMK AO2,M
CXP,2024-08-11 21:15,-119.7326,39.1923,1431.00,91.40,15.80,6.16,230.00,10.00,0.00,30.10,M,10.00,16.00,CLR,M,M,M,M,M,M,M,M,M,M,M,M,M,M,85.68,KCXP 112115Z AUTO 23010G16KT 10SM CLR 33/M09 A3010 RMK AO2,M
RTS,2024-08-11 21:15,-119.8764,39.6682,1539.00,87.80,8.60,5.02,240.00,13.00,0.00,30.11,M,10.00,19.00,CLR,M,M,M,M,M,M,M,M,M,M,M,M,M,M,82.82,KRTS 112115Z AUTO 24013G19KT 10SM CLR 31/M13 A3011 RMK AO2,M
05U,2024-08-11 21:15,-116.0051,39.6042,1811.23,M,M,M,0.00,0.00,0.00,30.13,M,10.00,M,CLR,M,M,M,M,M,M,M,M,M,M,M,M,M,M,M,K05U 112115Z AUTO 00000KT 10SM CLR A3013 RMK A01,M
MEV,2024-08-11 21:15,-119.7500,38.9963,1441.42,93.20,17.60,6.30,M,5.00,0.00,30.07,M,10.00,M,CLR,M,M,M,M,M,M,M,M,M,M,M,M,M,M,87.08,KMEV 112115Z AUTO VRB05KT 10SM CLR 34/M08 A3007 RMK AO2,M
BAM,2024-08-11 21:15,-116.8743,40.5990,1382.36,96.80,19.40,6.09,270.00,14.00,0.00,30.04,M,10.00,18.00,CLR,M,M,M,M,M,M,M,M,M,M,M,M,M,M,89.99,KBAM 112115Z AUTO 27014G18KT 10SM CLR 36/M07 A3004 RMK AO1,M
HTH,2024-08-11 21:15,-118.6315,38.5448,1282.89,95.00,19.40,6.43,340.00,9.00,0.00,30.01,M,10.00,14.00,CLR,M,M,M,M,M,M,M,M,M,M,M,M,M,M,88.50,KHTH 112115Z AUTO 34009G14KT 10SM CLR 35/M07 A3001 RMK A01,M
10U,2024-08-11 21:15,-116.1876,41.9532,1637.00,89.60,28.40,11.09,M,5.00,0.00,30.08,M,10.00,10.00,CLR,M,M,M,M,M,M,M,M,M,M,M,M,M,M,85.17,K10U 112115Z AUTO VRB05G10KT 10SM CLR 32/M02 A3008 RMK AO2,M
TMT,2024-08-11 21:15,-117.1971,39.4643,1749.34,91.40,20.50,7.54,270.00,17.00,0.00,30.13,M,10.00,24.00,CLR,M,M,M,M,M,M,M,M,M,M,M,M,M,M,85.92,KTMT 112115Z AUTO 27017G24KT 10SM CLR 33/M06 A3013 RMK AO2 T03301064,M
LSV,2024-08-11 21:34,-115.0343,36.2362,570.00,102.20,55.40,21.36,200.00,14.00,0.00,29.83,1006.70,10.00,21.00,FEW,M,M,M,10000.00,M,M,M,M,M,M,M,M,M,M,101.04,KLSV 112134Z AUTO 20014G21KT 10SM FEW100 39/13 A2983 RMK AO2 WSHFT 21 SLP067 $,M
BVU,2024-08-11 21:35,-114.8611,35.9475,671.00,100.40,57.20,24.06,160.00,20.00,0.00,29.90,M,10.00,28.00,CLR,M,M,M,M,M,M,M,M,M,M,M,M,M,M,99.77,KBVU 112135Z AUTO 16020G28KT 10SM CLR 38/14 A2990 RMK AO2,M
CXP,2024-08-11 21:35,-119.7326,39.1923,1431.00,91.40,15.80,6.16,230.00,10.00,0.00,30.10,M,10.00,18.00,CLR,M,M,M,M,M,M,M,M,M,M,M,M,M,M,85.68,KCXP 112135Z AUTO 23010G18KT 10SM CLR 33/M09 A3010 RMK AO2,M
RTS,2024-08-11 21:35,-119.8764,39.6682,1539.00,87.80,10.40,5.44,230.00,14.00,0.00,30.11,M,10.00,M,CLR,M,M,M,M,M,M,M,M,M,M,M,M,M,M,82.88,KRTS 112135Z AUTO 23014KT 10SM CLR 31/M12 A3011 RMK AO2,M
05U,2024-08-11 21:35,-116.0051,39.6042,1811.23,M,M,M,260.00,13.00,0.00,30.12,M,10.00,M,CLR,M,M,M,M,M,M,M,M,M,M,M,M,M,M,M,K05U 112135Z AUTO 26013KT 220V280 10SM CLR A3012 RMK A01,M
MEV,2024-08-11 21:35,-119.7500,38.9963,1441.42,93.20,14.00,5.38,260.00,8.00,0.00,30.07,M,9.00,14.00,CLR,M,M,M,M,M,M,M,M,M,M,M,M,M,M,86.90,KMEV 112135Z AUTO 26008G14KT 9SM CLR 34/M10 A3007 RMK AO2,M
BAM,2024-08-11 21:35,-116.8743,40.5990,1382.36,96.80,19.40,6.09,270.00,10.00,0.00,30.03,M,10.00,20.00,CLR,M,M,M,M,M,M,M,M,M,M,M,M,M,M,89.99,KBAM 112135Z AUTO 27010G20KT 10SM CLR 36/M07 A3003 RMK AO1,M
HTH,2024-08-11 21:35,-118.6315,38.5448,1282.89,95.00,19.40,6.43,330.00,11.00,0.00,30.00,M,10.00,M,CLR,M,M,M,M,M,M,M,M,M,M,M,M,M,M,88.50,KHTH 112135Z AUTO 33011KT 10SM CLR 35/M07 A3000 RMK A01,M
10U,2024-08-11 21:35,-116.1876,41.9532,1637.00,87.80,28.40,11.74,360.00,4.00,0.00,30.07,M,10.00,M,CLR,M,M,M,M,M,M,M,M,M,M,M,M,M,M,83.84,K10U 112135Z AUTO 36004KT 10SM CLR 31/M02 A3007 RMK AO2,M
TMT,2024-08-11 21:35,-117.1971,39.4643,1749.34,91.60,21.20,7.72,280.00,12.00,0.00,30.13,M,10.00,23.00,CLR,M,M,M,M,M,M,M,M,M,M,M,M,M,M,86.11,KTMT 112135Z AUTO 28012G23KT 10SM CLR 33/M06 A3013 RMK AO2 T03311060,M
CXP,2024-08-11 21:50,-119.7326,39.1923,1431.00,91.40,15.80,6.16,250.00,10.00,0.00,30.09,M,10.00,18.00,CLR,M,M,M,M,M,M,M,M,M,M,M,M,M,M,85.68,KCXP 112150Z AUTO 25010G18KT 210V290 10SM CLR 33/M09 A3009 RMK AO2,M
05U,2024-08-11 21:50,-116.0051,39.6042,1811.23,M,M,M,240.00,14.00,0.00,30.11,M,10.00,20.00,CLR,M,M,M,M,M,M,M,M,M,M,M,M,M,M,M,K05U 112150Z AUTO 24014G20KT 10SM CLR A3011 RMK A01,M
P68,2024-08-11 21:53,-116.0056,39.6014,1993.00,94.00,28.00,9.51,260.00,14.00,0.00,30.09,1009.40,M,22.00,M,M,M,M,M,M,M,M,M,M,M,M,M,M,M,88.46,KP68 112153Z AUTO 26014G22KT 34/M02 A3009 RMK AO1 SLP094 T03441022,M
DRA,2024-08-11 21:53,-116.0278,36.6206,1009.00,101.00,55.00,21.82,240.00,16.00,0.00,29.96,1008.00,10.00,27.00,CLR,M,M,M,M,M,M,M,M,M,M,M,30.00,200.00,2024-08-11 21:27,99.57,KDRA 112153Z AUTO 24016G27KT 10SM CLR 38/13 A2996 RMK AO2 PK WND 20030/2127 SLP080 T03830128,M
ELY,2024-08-11 21:53,-114.8453,39.2950,1909.00,90.00,37.00,15.48,190.00,19.00,0.00,30.14,1009.90,10.00,28.00,SCT,M,M,M,12000.00,M,M,M,M,M,M,M,31.00,190.00,2024-08-11 21:19,86.00,KELY 112153Z AUTO 19019G28KT 10SM SCT120 32/03 A3014 RMK AO2 PK WND 19031/2119 SLP099 T03220028,M
VGT,2024-08-11 21:53,-115.1933,36.2111,667.00,102.00,60.00,25.35,190.00,12.00,0.00,29.88,1010.10,10.00,21.00,CLR,M,M,M,M,M,M,M,M,M,M,M,M,M,M,102.90,KVGT 112153Z 19012G21KT 10SM CLR 39/16 A2988 RMK AO2 SLP101 T03890156,M
LOL,2024-08-11 21:53,-118.5701,40.0684,1192.43,94.00,21.00,7.10,M,6.00,0.00,29.98,1010.80,10.00,M,CLR,M,M,M,M,M,M,M,M,M,M,M,M,M,M,87.87,KLOL 112153Z AUTO VRB06KT 10SM CLR 34/M06 A2998 RMK AO2 SLP108 T03441061,M
BVU,2024-08-11 21:55,-114.8611,35.9475,671.00,100.40,57.20,24.06,160.00,24.00,0.00,29.89,M,10.00,29.00,CLR,M,M,M,M,M,M,M,M,M,M,M,M,M,M,99.77,KBVU 112155Z AUTO 16024G29KT 10SM CLR 38/14 A2989 RMK AO2,M
RNO,2024-08-11 21:55,-119.7711,39.4839,1341.00,92.00,21.00,7.56,140.00,6.00,0.00,30.04,1010.90,10.00,M,SCT,BKN,M,M,15000.00,18000.00,M,M,M,M,M,M,M,M,M,86.40,KRNO 112155Z 14006KT 10SM SCT150 BKN180 33/M06 A3004 RMK AO2 SLP109 ACSL ALQDS T03331061,M
RTS,2024-08-11 21:55,-119.8764,39.6682,1539.00,87.80,10.40,5.44,230.00,15.00,0.00,30.10,M,10.00,21.00,CLR,M,M,M,M,M,M,M,M,M,M,M,M,M,M,82.88,KRTS 112155Z AUTO 23015G21KT 10SM CLR 31/M12 A3010 RMK AO2,M
MEV,2024-08-11 21:55,-119.7500,38.9963,1441.42,91.40,17.60,6.66,260.00,16.00,0.00,30.07,M,10.00,M,CLR,M,M,M,M,M,M,M,M,M,M,M,M,M,M,85.76,KMEV 112155Z AUTO 26016KT 10SM CLR 33/M08 A3007 RMK AO2,M
BAM,2024-08-11 21:55,-116.8743,40.5990,1382.36,93.20,19.40,6.80,250.00,11.00,0.00,30.02,M,10.00,19.00,CLR,M,M,M,M,M,M,M,M,M,M,M,M,M,M,87.18,KBAM 112155Z AUTO 25011G19KT 10SM CLR 34/M07 A3002 RMK AO1,M
HTH,2024-08-11 21:55,-118.6315,38.5448,1282.89,96.80,17.60,5.63,350.00,10.00,0.00,29.99,M,10.00,M,CLR,M,M,M,M,M,M,M,M,M,M,M,M,M,M,89.88,KHTH 112155Z AUTO 35010KT 10SM CLR 36/M08 A2999 RMK A01,M
10U,2024-08-11 21:55,-116.1876,41.9532,1637.00,89.60,28.40,11.09,360.00,4.00,0.00,30.06,M,10.00,M,CLR,M,M,M,M,M,M,M,M,M,M,M,M,M,M,85.17,K10U 112155Z AUTO 36004KT 10SM CLR 32/M02 A3006 RMK AO2,M
TMT,2024-08-11 21:55,-117.1971,39.4643,1749.34,91.80,23.50,8.45,250.00,14.00,0.00,30.12,M,10.00,18.00,CLR,M,M,M,M,M,M,M,M,M,M,M,M,M,M,86.42,KTMT 112155Z AUTO 25014G18KT 10SM CLR 33/M05 A3012 RMK AO2 T03321047,M
INS,2024-08-11 21:55,-115.6733,36.5872,955.00,98.80,55.60,23.83,100.00,17.00,0.00,29.92,1006.80,10.00,22.00,FEW,BKN,M,M,10000.00,15000.00,M,M,M,M,M,M,27.00,100.00,2024-08-11 20:58,97.38,KINS 112155Z AUTO 10017G22KT 10SM FEW100 BKN150 37/13 A2992 RMK AO2 PK WND 10027/2058 SLP068 T03710131,M
LSV,2024-08-11 21:55,-115.0343,36.2362,570.00,104.40,55.20,19.85,230.00,12.00,0.00,29.83,1006.70,10.00,M,FEW,M,M,M,10000.00,M,M,M,M,M,M,M,26.00,150.00,2024-08-11 21:22,103.37,KLSV 112155Z AUTO 23012KT 10SM FEW100 40/13 A2983 RMK AO2 PK WND 15026/22 SLP067 T04020129 $,M
EKO,2024-08-11 21:56,-115.7860,40.8242,1367.00,95.00,26.00,8.49,210.00,11.00,0.00,30.03,1010.20,10.00,21.00,CLR,M,M,M,M,M,M,M,M,M,M,M,28.00,250.00,2024-08-11 21:24,89.02,KEKO 112156Z AUTO 21011G21KT 10SM CLR 35/M03 A3003 RMK AO2 PK WND 25028/2124 SLP102 T03501033,M
WMC,2024-08-11 21:56,-117.8072,40.9019,1315.00,95.00,23.00,7.49,240.00,11.00,0.00,30.00,1010.80,10.00,17.00,CLR,M,M,M,M,M,M,M,M,M,M,M,M,M,M,88.76,KWMC 112156Z AUTO 24011G17KT 10SM CLR 35/M05 A3000 RMK AO2 SLP108 T03501050 $,M
HND,2024-08-11 21:56,-115.1344,35.9729,742.79,100.00,60.00,26.92,220.00,10.00,0.00,29.93,1011.50,10.00,M,CLR,M,M,M,M,M,M,M,M,M,M,M,M,M,M,100.60,KHND 112156Z 22010KT 10SM CLR 38/16 A2993 RMK AO2 SLP115 T03780156,M
TPH,2024-08-11 21:56,-117.0904,38.0505,1654.00,93.00,31.00,11.09,M,4.00,0.00,30.11,1009.90,10.00,21.00,CLR,M,M,M,M,M,M,M,M,M,M,M,M,M,M,88.03,KTPH 112156Z AUTO VRB04G21KT 10SM CLR 34/M01 A3011 RMK AO2 SLP099 T03391006 $,M
LAS,2024-08-11 21:56,-115.1634,36.0719,663.00,102.00,58.00,23.60,170.00,10.00,0.00,29.90,1009.10,10.00,17.00,SCT,BKN,M,M,9000.00,25000.00,M,M,M,M,M,M,M,M,M,101.92,KLAS 112156Z 17010G17KT 10SM SCT090 BKN250 39/14 A2990 RMK AO2 SLP091 CB DSNT NW-N NE AND SE T03890144,M
BVU,2024-08-11 22:15,-114.8611,35.9475,671.00,102.20,59.00,24.32,160.00,21.00,0.00,29.88,M,10.00,27.00,CLR,M,M,M,M,M,M,M,M,M,M,M,M,M,M,102.62,KBVU 112215Z AUTO 16021G27KT 10SM CLR 39/15 A2988 RMK AO2,M
CXP,2024-08-11 22:15,-119.7326,39.1923,1431.00,89.60,19.40,7.61,270.00,11.00,0.00,30.09,M,10.00,18.00,CLR,M,M,M,M,M,M,M,M,M,M,M,M,M,M,84.54,KCXP 112215Z AUTO 27011G18KT 10SM CLR 32/M07 A3009 RMK AO2,M
RTS,2024-08-11 22:15,-119.8764,39.6682,1539.00,87.80,14.00,6.38,220.00,16.00,0.00,30.10,M,10.00,21.00,CLR,M,M,M,M,M,M,M,M,M,M,M,M,M,M,83.00,KRTS 112215Z AUTO 22016G21KT 10SM CLR 31/M10 A3010 RMK AO2,M
05U,2024-08-11 22:15,-116.0051,39.6042,1811.23,M,M,M,260.00,9.00,0.00,30.11,M,10.00,15.00,CLR,M,M,M,M,M,M,M,M,M,M,M,M,M,M,M,K05U 112215Z AUTO 26009G15KT 230V320 10SM CLR A3011 RMK A01,M
MEV,2024-08-11 22:15,-119.7500,38.9963,1441.42,89.60,19.40,7.61,270.00,10.00,0.00,30.07,M,10.00,17.00,CLR,M,M,M,M,M,M,M,M,M,M,M,M,M,M,84.54,KMEV 112215Z AUTO 27010G17KT 10SM CLR 32/M07 A3007 RMK AO2,M
BAM,2024-08-11 22:15,-116.8743,40.5990,1382.36,93.20,19.40,6.80,250.00,7.00,0.00,30.01,M,10.00,16.00,CLR,M,M,M,M,M,M,M,M,M,M,M,M,M,M,87.18,KBAM 112215Z AUTO 25007G16KT 10SM CLR 34/M07 A3001 RMK AO1,M
HTH,2024-08-11 22:15,-118.6315,38.5448,1282.89,96.80,17.60,5.63,310.00,9.00,0.00,29.99,M,10.00,M,CLR,M,M,M,M,M,M,M,M,M,M,M,M,M,M,89.88,KHTH 112215Z AUTO 31009KT 280V340 10SM CLR 36/M08 A2999 RMK A01,M
10U,2024-08-11 22:15,-116.1876,41.9532,1637.00,89.60,28.40,11.09,190.00,8.00,0.00,30.05,M,10.00,18.00,CLR,M,M,M,M,M,M,M,M,M,M,M,M,M,M,85.17,K10U 112215Z AUTO 19008G18KT 10SM CLR 32/M02 A3005 RMK AO2,M
TMT,2024-08-11 22:15,-117.1971,39.4643,1749.34,89.60,24.40,9.40,250.00,12.00,0.00,30.11,M,10.00,19.00,CLR,M,M,M,M,M,M,M,M,M,M,M,M,M,M,84.85,KTMT 112215Z AUTO 25012G19KT 10SM CLR 32/M04 A3011 RMK AO2 T03201042,M
LSV,2024-08-11 22:18,-115.0343,36.2362,570.00,104.00,55.40,20.24,190.00,15.00,0.00,29.82,1006.40,10.00,M,CLR,M,M,M,M,M,M,M,M,M,M,M,M,M,M,103.01,KLSV 112218Z AUTO 19015KT 10SM CLR 40/13 A2982 RMK AO2 WSHFT 10 SLP064 $,M
05U,2024-08-11 22:30,-116.0051,39.6042,1811.23,M,M,M,260.00,9.00,0.00,30.10,M,10.00,17.00,CLR,M,M,M,M,M,M,M,M,M,M,M,M,M,M,M,K05U 112230Z AUTO 26009G17KT 10SM CLR A3010 RMK A01,M
RNO,2024-08-11 22:34,-119.7711,39.4839,1341.00,94.00,21.00,7.10,280.00,17.00,0.00,30.03,M,10.00,22.00,SCT,BKN,M,M,14000.00,17000.00,M,M,M,M,M,M,26.00,260.00,2024-08-11 22:22,87.87,KRNO 112234Z 28017G22KT 10SM SCT140 BKN170 34/M06 A3003 RMK AO2 PK WND 26026/2222 WSHFT 2214 ACSL ALQDS T03441061,M
BVU,2024-08-11 22:35,-114.8611,35.9475,671.00,102.20,57.20,22.79,150.00,21.00,0.00,29.87,M,10.00,28.00,CLR,M,M,M,M,M,M,M,M,M,M,M,M,M,M,101.78,KBVU 112235Z AUTO 15021G28KT 10SM CLR 39/14 A2987 RMK AO2,M
CXP,2024-08-11 22:35,-119.7326,39.1923,1431.00,89.60,23.00,8.87,270.00,11.00,0.00,30.08,M,10.00,17.00,CLR,M,M,M,M,M,M,M,M,M,M,M,M,M,M,84.75,KCXP 112235Z AUTO 27011G17KT 10SM CLR 32/M05 A3008 RMK AO2,M
RTS,2024-08-11 22:35,-119.8764,39.6682,1539.00,87.80,14.00,6.38,230.00,15.00,0.00,30.09,M,10.00,M,CLR,M,M,M,M,M,M,M,M,M,M,M,M,M,M,83.00,KRTS 112235Z AUTO 23015KT 10SM CLR 31/M10 A3009 RMK AO2,M
MEV,2024-08-11 22:35,-119.7500,38.9963,1441.42,87.80,23.00,9.39,260.00,12.00,0.00,30.06,M,10.00,18.00,CLR,M,M,M,M,M,M,M,M,M,M,M,M,M,M,83.43,KMEV 112235Z AUTO 26012G18KT 10SM CLR 31/M05 A3006 RMK AO2,M
BAM,2024-08-11 22:35,-116.8743,40.5990,1382.36,95.00,17.60,5.96,270.00,11.00,0.00,30.01,M,10.00,16.00,CLR,M,M,M,M,M,M,M,M,M,M,M,M,M,M,88.39,KBAM 112235Z AUTO 27011G16KT 10SM CLR 35/M08 A3001 RMK AO1,M
HTH,2024-08-11 22:35,-118.6315,38.5448,1282.89,98.60,19.40,5.76,350.00,9.00,0.00,29.97,M,10.00,15.00,CLR,M,M,M,M,M,M,M,M,M,M,M,M,M,M,91.49,KHTH 112235Z AUTO 35009G15KT 10SM CLR 37/M07 A2997 RMK A01,M
10U,2024-08-11 22:35,-116.1876,41.9532,1637.00,89.60,26.60,10.30,290.00,7.00,0.00,30.05,M,10.00,M,CLR,M,M,M,M,M,M,M,M,M,M,M,M,M,M,85.02,K10U 112235Z AUTO 29007KT 10SM CLR 32/M03 A3005 RMK AO2,M
TMT,2024-08-11 22:35,-117.1971,39.4643,1749.34,91.80,24.30,8.74,270.00,11.00,0.00,30.11,M,10.00,20.00,CLR,M,M,M,M,M,M,M,M,M,M,M,M,M,M,86.47,KTMT 112235Z AUTO 27011G20KT 10SM CLR 33/M04 A3011 RMK AO2 T03321043,M
05U,2024-08-11 22:50,-116.0051,39.6042,1811.23,M,M,M,260.00,10.00,0.00,30.09,M,10.00,15.00,CLR,M,M,M,M,M,M,M,M,M,M,M,M,M,M,M,K05U 112250Z AUTO 26010G15KT 10SM CLR A3009 RMK A01,M
P68,2024-08-11 22:53,-116.0056,39.6014,1993.00,91.00,28.00,10.44,260.00,10.00,0.00,30.07,1008.90,M,16.00,M,M,M,M,M,M,M,M,M,M,M,M,M,M,M,86.19,KP68 112253Z AUTO 26010G16KT 33/M02 A3007 RMK AO1 SLP089 T03281022,M
DRA,2024-08-11 22:53,-116.0278,36.6206,1009.00,102.00,53.00,19.68,220.00,20.00,0.00,29.93,1007.40,10.00,26.00,CLR,M,M,M,M,M,M,M,M,M,M,M,30.00,230.00,2024-08-11 22:06,99.96,KDRA 112253Z AUTO 22020G26KT 10SM CLR 39/12 A2993 RMK AO2 PK WND 23030/2206 SLP074 T03890117,M
ELY,2024-08-11 22:53,-114.8453,39.2950,1909.00,90.00,36.00,14.88,230.00,9.00,0.00,30.12,1009.10,10.00,17.00,FEW,M,M,M,12000.00,M,M,M,M,M,M,M,30.00,230.00,2024-08-11 22:14,85.97,KELY 112253Z AUTO 23009G17KT 190V270 10SM FEW120 32/02 A3012 RMK AO2 PK WND 23030/2214 SLP091 T03220022,M
VGT,2024-08-11 22:53,-115.1933,36.2111,667.00,104.00,58.00,22.23,140.00,10.00,0.00,29.85,1009.10,10.00,20.00,CLR,M,M,M,M,M,M,M,M,M,M,M,M,M,M,104.17,KVGT 112253Z 14010G20KT 10SM CLR 40/14 A2985 RMK AO2 SLP091 T04000144,M
LOL,2024-08-11 22:53,-118.5701,40.0684,1192.43,95.00,16.00,5.56,250.00,6.00,0.00,29.95,1010.00,10.00,16.00,CLR,M,M,M,M,M,M,M,M,M,M,M,27.00,190.00,2024-08-11 22:12,88.30,KLOL 112253Z AUTO 25006G16KT 10SM CLR 35/M09 A2995 RMK AO2 PK WND 19027/2212 SLP100 T03501089,M
BVU,2024-08-11 22:55,-114.8611,35.9475,671.00,102.20,59.00,24.32,150.00,20.00,0.00,29.87,M,10.00,25.00,CLR,M,M,M,M,M,M,M,M,M,M,M,M,M,M,102.62,KBVU 112255Z AUTO 15020G25KT 10SM CLR 39/15 A2987 RMK AO2,M
CXP,2024-08-11 22:55,-119.7326,39.1923,1431.00,87.80,21.20,8.70,270.00,13.00,0.00,30.08,M,10.00,19.00,CLR,M,M,M,M,M,M,M,M,M,M,M,M,M,M,83.33,KCXP 112255Z AUTO 27013G19KT 10SM CLR 31/M06 A3008 RMK AO2,M
RNO,2024-08-11 22:55,-119.7711,39.4839,1341.00,93.00,22.00,7.64,280.00,11.00,0.00,30.02,1010.20,10.00,21.00,SCT,BKN,M,M,14000.00,17000.00,M,M,M,M,M,M,28.00,290.00,2024-08-11 22:40,87.20,KRNO 112255Z 28011G21KT 10SM SCT140 BKN170 34/M06 A3002 RMK AO2 PK WND 29028/2240 WSHFT 2214 SLP102 ACSL ALQDS T03391056,M
RTS,2024-08-11 22:55,-119.8764,39.6682,1539.00,89.60,15.80,6.52,230.00,15.00,0.00,30.09,M,10.00,M,BKN,M,M,M,12000.00,M,M,M,M,M,M,M,M,M,M,84.37,KRTS 112255Z AUTO 23015KT 10SM BKN120 32/M09 A3009 RMK AO2,M
MEV,2024-08-11 22:55,-119.7500,38.9963,1441.42,87.80,23.00,9.39,270.00,14.00,0.00,30.06,M,10.00,20.00,CLR,M,M,M,M,M,M,M,M,M,M,M,M,M,M,83.43,KMEV 112255Z AUTO 27014G20KT 10SM CLR 31/M05 A3006 RMK AO2,M
BAM,2024-08-11 22:55,-116.8743,40.5990,1382.36,96.80,19.40,6.09,250.00,11.00,0.00,30.00,M,10.00,16.00,CLR,M,M,M,M,M,M,M,M,M,M,M,M,M,M,89.99,KBAM 112255Z AUTO 25011G16KT 10SM CLR 36/M07 A3000 RMK AO1,M
HTH,2024-08-11 22:55,-118.6315,38.5448,1282.89,96.80,17.60,5.63,M,6.00,0.00,29.97,M,10.00,16.00,CLR,M,M,M,M,M,M,M,M,M,M,M,M,M,M,89.88,KHTH 112255Z AUTO VRB06G16KT 10SM CLR 36/M08 A2997 RMK A01,M
10U,2024-08-11 22:55,-116.1876,41.9532,1637.00,87.80,26.60,10.91,240.00,5.00,0.00,30.04,M,10.00,11.00,CLR,M,M,M,M,M,M,M,M,M,M,M,M,M,M,83.69,K10U 112255Z AUTO 24005G11KT 10SM CLR 31/M03 A3004 RMK AO2,M
LSV,2024-08-11 22:55,-115.0343,36.2362,570.00,105.00,54.30,18.88,200.00,11.00,0.00,29.81,1006.10,10.00,M,CLR,M,M,M,M,M,M,M,M,M,M,M,M,M,M,103.65,KLSV 112255Z AUTO 20011KT 10SM CLR 41/12 A2981 RMK AO2 SLP061 T04060124 $,M
TMT,2024-08-11 22:55,-117.1971,39.4643,1749.34,92.70,25.50,8.93,230.00,14.00,0.00,30.10,M,10.00,M,CLR,M,M,M,M,M,M,M,M,M,M,M,M,M,M,87.25,KTMT 112255Z AUTO 23014KT 10SM CLR 34/M04 A3010 RMK AO2 T03371036,M
INS,2024-08-11 22:55,-115.6733,36.5872,955.00,99.00,54.70,22.93,110.00,15.00,0.00,29.90,1006.20,10.00,22.00,BKN,M,M,M,10000.00,M,M,M,M,M,M,M,M,M,M,97.29,KINS 112255Z AUTO 11015G22KT 10SM BKN100 37/13 A2990 RMK AO2 SLP062 T03730126,M
EKO,2024-08-11 22:56,-115.7860,40.8242,1367.00,92.00,22.00,7.89,230.00,14.00,0.00,30.01,1010.00,10.00,24.00,CLR,M,M,M,M,M,M,M,M,M,M,M,30.00,260.00,2024-08-11 22:21,86.46,KEKO 112256Z AUTO 23014G24KT 10SM CLR 33/M06 A3001 RMK AO2 PK WND 26030/2221 SLP100 T03331056,M
WMC,2024-08-11 22:56,-117.8072,40.9019,1315.00,94.00,22.00,7.41,260.00,11.00,0.00,29.98,1010.40,10.00,M,CLR,M,M,M,M,M,M,M,M,M,M,M,M,M,M,87.94,KWMC 112256Z AUTO 26011KT 10SM CLR 34/M06 A2998 RMK AO2 SLP104 T03441056 $,M
HND,2024-08-11 22:56,-115.1344,35.9729,742.79,101.00,60.00,26.12,160.00,13.00,0.00,29.90,1010.40,10.00,20.00,SCT,M,M,M,10000.00,M,M,M,M,M,M,M,M,M,M,101.75,KHND 112256Z 16013G20KT 10SM SCT100 38/16 A2990 RMK AO2 SLP104 T03830156,M
TPH,2024-08-11 22:56,-117.0904,38.0505,1654.00,95.00,32.00,10.85,200.00,19.00,0.00,30.07,1008.90,10.00,26.00,CLR,M,M,M,M,M,M,M,M,M,M,M,26.00,200.00,2024-08-11 22:55,89.71,KTPH 112256Z AUTO 20019G26KT 10SM CLR 35/00 A3007 RMK AO2 PK WND 20026/2255 SLP089 T03500000 $,M
LAS,2024-08-11 22:56,-115.1634,36.0719,663.00,104.00,57.00,21.45,120.00,8.00,0.00,29.87,1008.20,10.00,14.00,FEW,SCT,M,M,10000.00,25000.00,M,M,M,M,M,M,M,M,M,103.70,KLAS 112256Z 12008G14KT 10SM FEW100 SCT250 40/14 A2987 RMK AO2 SLP082 CB DSNT NE-SE T04000139,M
LAS,2024-08-11 23:00,-115.1634,36.0719,663.00,104.00,57.00,21.45,M,6.00,0.00,29.87,M,10.00,M,FEW,SCT,M,M,10000.00,25000.00,M,M,M,M,M,M,M,M,M,103.70,KLAS 112300Z VRB06KT 10SM FEW100 SCT250 40/14 A2987 RMK AO2 CB DSNT NE-SE T04000139,M
05U,2024-08-11 23:10,-116.0051,39.6042,1811.23,M,M,M,0.00,0.00,0.00,30.09,M,10.00,M,CLR,M,M,M,M,M,M,M,M,M,M,M,M,M,M,M,K05U 112310Z AUTO 00000KT 10SM CLR A3009 RMK A01,M
INS,2024-08-11 23:13,-115.6733,36.5872,955.00,100.40,55.40,22.54,140.00,10.00,0.00,29.89,1005.80,10.00,22.00,OVC,M,M,M,10000.00,M,M,M,M,M,M,M,M,M,M,99.06,KINS 112313Z AUTO 14010G22KT 10SM OVC100 38/13 A2989 RMK AO2 WSHFT 11 SLP058,M
BVU,2024-08-11 23:15,-114.8611,35.9475,671.00,102.20,59.00,24.32,150.00,19.00,0.00,29.86,M,10.00,24.00,CLR,M,M,M,M,M,M,M,M,M,M,M,M,M,M,102.62,KBVU 112315Z AUTO 15019G24KT 10SM CLR 39/15 A2986 RMK AO2,M
CXP,2024-08-11 23:15,-119.7326,39.1923,1431.00,86.00,23.00,9.94,270.00,14.00,0.00,30.09,M,10.00,19.00,CLR,M,M,M,M,M,M,M,M,M,M,M,M,M,M,82.14,KCXP 112315Z AUTO 27014G19KT 10SM CLR 30/M05 A3009 RMK AO2,M
RTS,2024-08-11 23:15,-119.8764,39.6682,1539.00,87.80,17.60,7.46,230.00,16.00,0.00,30.09,M,10.00,M,BKN,M,M,M,12000.00,M,M,M,M,M,M,M,M,M,M,83.14,KRTS 112315Z AUTO 23016KT 10SM BKN120 31/M08 A3009 RMK AO2,M
MEV,2024-08-11 23:15,-119.7500,38.9963,1441.42,87.80,23.00,9.39,270.00,15.00,0.00,30.06,M,10.00,M,CLR,M,M,M,M,M,M,M,M,M,M,M,M,M,M,83.43,KMEV 112315Z AUTO 27015KT 10SM CLR 31/M05 A3006 RMK AO2,M
BAM,2024-08-11 23:15,-116.8743,40.5990,1382.36,96.80,21.20,6.57,250.00,9.00,0.00,30.00,M,10.00,16.00,CLR,M,M,M,M,M,M,M,M,M,M,M,M,M,M,90.11,KBAM 112315Z AUTO 25009G16KT 10SM CLR 36/M06 A3000 RMK AO1,M
HTH,2024-08-11 23:15,-118.6315,38.5448,1282.89,96.80,19.40,6.09,350.00,11.00,0.00,29.96,M,10.00,16.00,CLR,M,M,M,M,M,M,M,M,M,M,M,M,M,M,89.99,KHTH 112315Z AUTO 35011G16KT 10SM CLR 36/M07 A2996 RMK A01,M
10U,2024-08-11 23:15,-116.1876,41.9532,1637.00,87.80,24.80,10.12,220.00,10.00,0.00,30.04,M,10.00,24.00,CLR,M,M,M,M,M,M,M,M,M,M,M,M,M,M,83.56,K10U 112315Z AUTO 22010G24KT 10SM CLR 31/M04 A3004 RMK AO2,M
TMT,2024-08-11 23:15,-117.1971,39.4643,1749.34,91.40,24.00,8.74,260.00,11.00,0.00,30.09,M,10.00,18.00,CLR,M,M,M,M,M,M,M,M,M,M,M,M,M,M,86.15,KTMT 112315Z AUTO 26011G18KT 230V290 10SM CLR 33/M04 A3009 RMK AO2 T03301044,M
INS,2024-08-11 23:24,-115.6733,36.5872,955.00,100.40,55.40,22.54,110.00,17.00,0.00,29.89,1005.80,10.00,22.00,OVC,M,M,M,10000.00,M,M,M,M,M,M,M,M,M,M,99.06,KINS 112324Z AUTO 11017G22KT 10SM OVC100 38/13 A2989 RMK AO2 WSHFT 15 SLP058,M
EKO,2024-08-11 23:25,-115.7860,40.8242,1367.00,92.00,24.00,8.58,270.00,8.00,0.00,30.01,M,10.00,18.00,CLR,M,M,M,M,M,M,M,M,M,M,M,M,M,M,86.60,KEKO 112325Z AUTO 27008G18KT 10SM CLR 33/M04 A3001 RMK AO2 WSHFT 2305 T03331044,M
BVU,2024-08-11 23:35,-114.8611,35.9475,671.00,102.20,57.20,22.79,160.00,19.00,0.00,29.85,M,10.00,25.00,CLR,M,M,M,M,M,M,M,M,M,M,M,M,M,M,101.78,KBVU 112335Z AUTO 16019G25KT 10SM CLR 39/14 A2985 RMK AO2,M
CXP,2024-08-11 23:35,-119.7326,39.1923,1431.00,86.00,26.60,11.55,280.00,12.00,0.00,30.08,M,10.00,22.00,CLR,M,M,M,M,M,M,M,M,M,M,M,M,M,M,82.39,KCXP 112335Z AUTO 28012G22KT 10SM CLR 30/M03 A3008 RMK AO2,M
RTS,2024-08-11 23:35,-119.8764,39.6682,1539.00,89.60,19.40,7.61,230.00,17.00,0.00,30.09,M,10.00,26.00,SCT,M,M,M,12000.00,M,M,M,M,M,M,M,M,M,M,84.54,KRTS 112335Z AUTO 23017G26KT 10SM SCT120 32/M07 A3009 RMK AO2,M
05U,2024-08-11 23:35,-116.0051,39.6042,1811.23,M,M,M,0.00,0.00,0.00,30.08,M,10.00,M,CLR,M,M,M,M,M,M,M,M,M,M,M,M,M,M,M,K05U 112335Z AUTO 00000KT 10SM CLR A3008 RMK A01,M
MEV,2024-08-11 23:35,-119.7500,38.9963,1441.42,86.00,24.80,10.72,250.00,16.00,0.00,30.06,M,10.00,M,CLR,M,M,M,M,M,M,M,M,M,M,M,M,M,M,82.26,KMEV 112335Z AUTO 25016KT 10SM CLR 30/M04 A3006 RMK AO2,M
BAM,2024-08-11 23:35,-116.8743,40.5990,1382.36,96.80,19.40,6.09,260.00,12.00,0.00,29.99,M,10.00,16.00,CLR,M,M,M,M,M,M,M,M,M,M,M,M,M,M,89.99,KBAM 112335Z AUTO 26012G16KT 10SM CLR 36/M07 A2999 RMK AO1,M
HTH,2024-08-11 23:35,-118.6315,38.5448,1282.89,95.00,21.20,6.95,330.00,11.00,0.00,29.96,M,10.00,M,CLR,M,M,M,M,M,M,M,M,M,M,M,M,M,M,88.62,KHTH 112335Z AUTO 33011KT 10SM CLR 35/M06 A2996 RMK A01,M
10U,2024-08-11 23:35,-116.1876,41.9532,1637.00,87.80,24.80,10.12,0.00,0.00,0.00,30.04,M,10.00,11.00,CLR,M,M,M,M,M,M,M,M,M,M,M,M,M,M,83.56,K10U 112335Z AUTO 00000G11KT 10SM CLR 31/M04 A3004 RMK AO2,M
TMT,2024-08-11 23:35,-117.1971,39.4643,1749.34,91.80,26.00,9.38,230.00,15.00,0.00,30.09,M,10.00,19.00,CLR,M,M,M,M,M,M,M,M,M,M,M,M,M,M,86.61,KTMT 112335Z AUTO 23015G19KT 10SM CLR 33/M03 A3009 RMK AO2 T03321033,M
P68,2024-08-11 23:53,-116.0056,39.6014,1993.00,90.00,28.00,10.78,250.00,11.00,0.00,30.05,1008.30,M,M,M,M,M,M,M,M,M,M,M,M,M,M,M,M,M,85.43,KP68 112353Z AUTO 25011KT 32/M02 A3005 RMK AO1 SLP083 T03221022 10350 20294 56016,M
DRA,2024-08-11 23:53,-116.0278,36.6206,1009.00,101.00,52.00,19.55,230.00,17.00,0.00,29.91,1006.80,10.00,27.00,CLR,M,M,M,M,M,M,M,M,M,M,M,32.00,210.00,2024-08-11 22:59,98.59,KDRA 112353Z AUTO 23017G27KT 10SM CLR 38/11 A2991 RMK AO2 PK WND 21032/2259 SLP068 T03830111 10389 20367 56022,M
ELY,2024-08-11 23:53,-114.8453,39.2950,1909.00,91.00,35.00,13.86,200.00,14.00,0.00,30.10,1008.20,10.00,27.00,FEW,M,M,M,12000.00,M,M,M,M,M,M,M,29.00,190.00,2024-08-11 23:41,86.81,KELY 112353Z AUTO 20014G27KT 10SM FEW120 33/02 A3010 RMK AO2 PK WND 19029/2341 LTG DSNT SE SLP082 T03280017 10328 20283 56020,M
VGT,2024-08-11 23:53,-115.1933,36.2111,667.00,102.00,59.00,24.46,120.00,14.00,0.00,29.83,1008.30,10.00,M,CLR,M,M,M,M,M,M,M,M,M,M,M,M,M,M,102.39,KVGT 112353Z 12014KT 10SM CLR 39/15 A2983 RMK AO2 SLP083 T03890150 10406 20361 56026,M
LOL,2024-08-11 23:53,-118.5701,40.0684,1192.43,95.00,19.00,6.32,300.00,16.00,0.00,29.94,1009.30,10.00,23.00,CLR,M,M,M,M,M,M,M,M,M,M,M,M,M,M,88.47,KLOL 112353Z AUTO 30016G23KT 10SM CLR 35/M07 A2994 RMK AO2 SLP093 T03501072 10367 20294 56020,M
BVU,2024-08-11 23:55,-114.8611,35.9475,671.00,102.20,57.20,22.79,180.00,18.00,0.00,29.84,M,10.00,24.00,CLR,M,M,M,M,M,M,M,M,M,M,M,M,M,M,101.78,KBVU 112355Z AUTO 18018G24KT 10SM CLR 39/14 A2984 RMK AO2,M
CXP,2024-08-11 23:55,-119.7326,39.1923,1431.00,84.20,28.40,13.18,280.00,13.00,0.00,30.08,M,10.00,M,CLR,M,M,M,M,M,M,M,M,M,M,M,M,M,M,81.25,KCXP 112355Z AUTO 28013KT 10SM CLR 29/M02 A3008 RMK AO2,M
RNO,2024-08-11 23:55,-119.7711,39.4839,1341.00,91.00,25.00,9.23,250.00,12.00,0.00,30.02,1010.40,10.00,M,BKN,BKN,M,M,9000.00,15000.00,M,M,M,M,M,M,27.00,250.00,2024-08-11 23:41,85.93,KRNO 112355Z 25012KT 10SM BKN090 BKN150 33/M04 A3002 RMK AO2 PK WND 25027/2341 SLP104 ACSL ALQDS T03281039 10350 20289 56011,M
RTS,2024-08-11 23:55,-119.8764,39.6682,1539.00,86.00,23.00,9.94,220.00,14.00,0.00,30.09,M,10.00,20.00,FEW,M,M,M,12000.00,M,M,M,M,M,M,M,M,M,M,82.14,KRTS 112355Z AUTO 22014G20KT 10SM FEW120 30/M05 A3009 RMK AO2,M
05U,2024-08-11 23:55,-116.0051,39.6042,1811.23,M,M,M,250.00,9.00,0.00,30.08,M,10.00,M,CLR,M,M,M,M,M,M,M,M,M,M,M,M,M,M,M,K05U 112355Z AUTO 25009KT 10SM CLR A3008 RMK A01,M
MEV,2024-08-11 23:55,-119.7500,38.9963,1441.42,86.00,26.60,11.55,260.00,14.00,0.00,30.07,M,10.00,M,CLR,M,M,M,M,M,M,M,M,M,M,M,M,M,M,82.39,KMEV 112355Z AUTO 26014KT 10SM CLR 30/M03 A3007 RMK AO2,M
BAM,2024-08-11 23:55,-116.8743,40.5990,1382.36,95.00,19.40,6.43,260.00,9.00,0.00,29.99,M,10.00,M,CLR,M,M,M,M,M,M,M,M,M,M,M,M,M,M,88.50,KBAM 112355Z AUTO 26009KT 10SM CLR 35/M07 A2999 RMK AO1,M
HTH,2024-08-11 23:55,-118.6315,38.5448,1282.89,95.00,19.40,6.43,330.00,12.00,0.00,29.96,M,10.00,M,CLR,M,M,M,M,M,M,M,M,M,M,M,M,M,M,88.50,KHTH 112355Z AUTO 33012KT 10SM CLR 35/M07 A2996 RMK A01,M
10U,2024-08-11 23:55,-116.1876,41.9532,1637.00,89.60,23.00,8.87,M,4.00,0.00,30.03,M,10.00,14.00,CLR,M,M,M,M,M,M,M,M,M,M,M,M,M,M,84.75,K10U 112355Z AUTO VRB04G14KT 10SM CLR 32/M05 A3003 RMK AO2,M
TMT,2024-08-11 23:55,-117.1971,39.4643,1749.34,90.70,25.00,9.31,250.00,8.00,0.00,30.09,M,10.00,M,CLR,M,M,M,M,M,M,M,M,M,M,M,M,M,M,85.71,KTMT 112355Z AUTO 25008KT 10SM CLR 33/M04 A3009 RMK AO2 T03261039 10337 20295,M
INS,2024-08-11 23:55,-115.6733,36.5872,955.00,99.00,55.80,23.86,120.00,19.00,0.00,29.87,1005.20,10.00,26.00,FEW,M,M,M,10000.00,M,M,M,M,M,M,M,30.00,100.00,2024-08-11 23:49,97.67,KINS 112355Z AUTO 12019G26KT 10SM FEW100 37/13 A2987 RMK AO2 PK WND 10030/49 SLP052 T03720132 10390 20361 57023,M
LSV,2024-08-11 23:55,-115.0343,36.2362,570.00,104.40,55.20,19.85,170.00,16.00,0.00,29.78,1005.00,10.00,M,CLR,M,M,M,M,M,M,M,M,M,M,M,M,M,M,103.37,KLSV 112355Z AUTO 17016KT 10SM CLR 40/13 A2978 RMK AO2 SLP050 T04020129 10406 20380 57023 $,M
EKO,2024-08-11 23:56,-115.7860,40.8242,1367.00,93.00,21.00,7.33,270.00,13.00,0.00,30.00,1009.50,10.00,M,CLR,M,M,M,M,M,M,M,M,M,M,M,M,M,M,87.13,KEKO 112356Z AUTO 27013KT 10SM CLR 34/M06 A3000 RMK AO2 WSHFT 2305 SLP095 T03391061 10361 20278 56017,M
WMC,2024-08-11 23:56,-117.8072,40.9019,1315.00,93.00,18.00,6.45,240.00,9.00,0.00,29.97,1009.90,10.00,21.00,CLR,M,M,M,M,M,M,M,M,M,M,M,M,M,M,86.95,KWMC 112356Z AUTO 24009G21KT 10SM CLR 34/M08 A2997 RMK AO2 SLP099 T03391078 10361 20300 56015 $,M
HND,2024-08-11 23:56,-115.1344,35.9729,742.79,104.00,59.00,23.04,200.00,14.00,0.00,29.88,1009.60,10.00,25.00,SCT,M,M,M,10000.00,M,M,M,M,M,M,M,M,M,M,104.68,KHND 112356Z 20014G25KT 10SM SCT100 40/15 A2988 RMK AO2 LTG DSNT SW SLP096 T04000150 10406 20367 56025,M
TPH,2024-08-11 23:56,-117.0904,38.0505,1654.00,94.00,30.00,10.32,160.00,10.00,0.00,30.06,1008.70,10.00,M,CLR,M,M,M,M,M,M,M,M,M,M,M,M,M,M,88.68,KTPH 112356Z AUTO 16010KT 10SM CLR 34/M01 A3006 RMK AO2 SLP087 T03441011 10356 20294 56020 $,M
LAS,2024-08-11 23:56,-115.1634,36.0719,663.00,106.00,56.00,19.49,M,4.00,0.00,29.85,1007.30,10.00,M,FEW,SCT,M,M,10000.00,25000.00,M,M,M,M,M,M,M,M,M,105.46,KLAS 112356Z VRB04KT 10SM FEW100 SCT250 41/13 A2985 RMK AO2 SLP073 CB DSNT NW-NE AND E-SE T04110133 10411 20372 58024,M
