station,valid,lon,lat,elevation,tmpf,dwpf,relh,drct,sknt,p01i,alti,mslp,vsby,gust,skyc1,skyc2,skyc3,skyc4,skyl1,skyl2,skyl3,skyl4,wxcodes,ice_accretion_1hr,ice_accretion_3hr,ice_accretion_6hr,peak_wind_gust,peak_wind_drct,peak_wind_time,feel,metar,snowdepth
MEV,2022-08-19 00:15,-119.7500,38.9963,1441.42,87.80,39.20,18.09,270.00,12.00,0.00,30.11,M,10.00,18.00,CLR,M,M,M,M,M,M,M,M,M,M,M,M,M,M,84.22,KMEV 190015Z AUTO 27012G18KT 10SM CLR 31/04 A3011 RMK AO2,M
RTS,2022-08-19 00:15,-119.8764,39.6682,1539.00,78.80,44.60,29.79,160.00,8.00,0.00,30.17,M,10.00,M,BKN,M,M,M,11000.00,M,M,M,M,M,M,M,M,M,M,78.80,KRTS 190015Z AUTO 16008KT 10SM BKN110 26/07 A3017 RMK AO2,M
CXP,2022-08-19 00:15,-119.7326,39.1923,1431.00,80.60,46.40,30.07,80.00,13.00,0.00,30.15,M,10.00,M,FEW,M,M,M,10000.00,M,M,M,M,M,M,M,M,M,M,79.56,KCXP 190015Z AUTO 08013KT 10SM FEW100 27/08 A3015 RMK AO2,M
BVU,2022-08-19 00:15,-114.8611,35.9475,671.00,84.20,64.40,51.47,180.00,3.00,0.00,29.87,M,M,M,M,M,M,M,M,M,M,M,M,M,M,M,M,M,M,85.71,KBVU 190015Z AUTO 18003KT 29/18 A2987 RMK AO2 PWINO TSNO,M
HTH,2022-08-19 00:15,-118.6315,38.5448,1282.89,86.00,48.20,27.03,330.00,17.00,0.00,30.07,M,10.00,M,CLR,M,M,M,M,M,M,M,M,M,M,M,M,M,M,83.40,KHTH 190015Z AUTO 33017KT 10SM CLR 30/09 A3007 RMK A01,M
BAM,2022-08-19 00:15,-116.8743,40.5990,1382.36,89.60,44.60,21.04,170.00,5.00,0.00,30.06,M,10.00,M,CLR,M,M,M,M,M,M,M,M,M,M,M,M,M,M,86.07,KBAM 190015Z AUTO 17005KT 10SM CLR 32/07 A3006 RMK AO1,M
TMT,2022-08-19 00:15,-117.1971,39.4643,1749.34,M,M,M,300.00,13.00,0.00,30.18,M,10.00,18.00,CLR,M,M,M,M,M,M,M,M,M,M,M,M,M,M,M,KTMT 190015Z AUTO 30013G18KT 10SM CLR A3018 RMK AO2,M
CXP,2022-08-19 00:30,-119.7326,39.1923,1431.00,82.40,46.40,28.36,80.00,11.00,0.00,30.14,M,10.00,18.00,FEW,M,M,M,10000.00,M,M,M,M,M,M,M,M,M,M,80.64,KCXP 190030Z AUTO 08011G18KT 10SM FEW100 28/08 A3014 RMK AO2,M
TMT,2022-08-19 00:35,-117.1971,39.4643,1749.34,82.60,41.50,23.36,300.00,15.00,0.00,30.18,M,10.00,21.00,SCT,M,M,M,9500.00,M,M,M,M,M,M,M,M,M,M,80.45,KTMT 190035Z AUTO 30015G21KT 10SM SCT095 28/05 A3018 RMK AO2 T02810053,M
BVU,2022-08-19 00:35,-114.8611,35.9475,671.00,86.00,64.40,48.58,M,3.00,0.00,29.86,M,M,M,M,M,M,M,M,M,M,M,M,M,M,M,M,M,M,87.49,KBVU 190035Z AUTO VRB03KT 30/18 A2986 RMK AO2 PWINO TSNO,M
RTS,2022-08-19 00:35,-119.8764,39.6682,1539.00,77.00,46.40,33.85,140.00,8.00,0.00,30.17,M,10.00,M,BKN,M,M,M,11000.00,M,M,M,M,M,M,M,M,M,M,77.00,KRTS 190035Z AUTO 14008KT 10SM BKN110 25/08 A3017 RMK AO2,M
MEV,2022-08-19 00:35,-119.7500,38.9963,1441.42,87.80,39.20,18.09,300.00,13.00,0.00,30.12,M,10.00,M,CLR,M,M,M,M,M,M,M,M,M,M,M,M,M,M,84.22,KMEV 190035Z AUTO 30013KT 10SM CLR 31/04 A3012 RMK AO2,M
BAM,2022-08-19 00:35,-116.8743,40.5990,1382.36,89.60,41.00,18.33,220.00,8.00,0.00,30.06,M,10.00,M,CLR,M,M,M,M,M,M,M,M,M,M,M,M,M,M,85.82,KBAM 190035Z AUTO 22008KT 10SM CLR 32/05 A3006 RMK AO1,M
HTH,2022-08-19 00:35,-118.6315,38.5448,1282.89,86.00,44.60,23.59,350.00,13.00,0.00,30.07,M,10.00,M,CLR,M,M,M,M,M,M,M,M,M,M,M,M,M,M,83.07,KHTH 190035Z AUTO 35013KT 10SM CLR 30/07 A3007 RMK A01,M
P68,2022-08-19 00:53,-116.0056,39.6014,1993.00,73.00,47.00,39.43,10.00,15.00,0.00,30.17,1013.60,M,M,M,M,M,M,M,M,M,M,M,M,M,M,M,M,M,73.00,KP68 190053Z AUTO 01015KT 23/08 A3017 RMK AO1 SLP136 T02280083,M
VGT,2022-08-19 00:53,-115.1933,36.2111,667.00,97.00,61.00,30.56,M,M,0.00,29.84,1008.80,10.00,M,CLR,M,M,M,M,M,M,M,M,M,M,M,M,M,M,97.66,KVGT 190053Z 10SM CLR 36/16 A2984 RMK AO2 SLP088 T03610161,M
LOL,2022-08-19 00:53,-118.5701,40.0684,1192.43,79.00,54.00,42.03,260.00,6.00,0.00,30.09,1015.20,10.00,M,SCT,M,M,M,11000.00,M,M,M,M,M,M,M,M,M,M,79.00,KLOL 190053Z AUTO 26006KT 10SM SCT110 26/12 A3009 RMK AO2 SLP152 T02610122,M
ELY,2022-08-19 00:53,-114.8453,39.2950,1909.00,73.00,53.00,49.66,30.00,10.00,0.00,30.18,1012.80,10.00,M,CLR,M,M,M,M,M,M,M,M,M,M,M,M,M,M,73.00,KELY 190053Z AUTO 03010KT 10SM CLR 23/12 A3018 RMK AO2 LTG DSNT W SLP128 T02280117,M
DRA,2022-08-19 00:53,-116.0278,36.6206,1009.00,96.00,49.00,20.22,50.00,9.00,0.00,29.91,1006.80,10.00,M,SCT,M,M,M,11000.00,M,M,M,M,M,M,M,M,M,M,92.78,KDRA 190053Z AUTO 05009KT 10SM SCT110 36/09 A2991 RMK AO2 SLP068 T03560094,M
BVU,2022-08-19 00:55,-114.8611,35.9475,671.00,86.00,66.20,51.72,270.00,4.00,0.00,29.86,M,M,M,M,M,M,M,M,M,M,M,M,M,M,M,M,M,M,88.39,KBVU 190055Z AUTO 27004KT 30/19 A2986 RMK AO2 PWINO TSNO,M
TMT,2022-08-19 00:55,-117.1971,39.4643,1749.34,81.50,42.40,25.07,310.00,17.00,0.00,30.18,M,10.00,21.00,CLR,M,M,M,M,M,M,M,M,M,M,M,M,M,M,79.80,KTMT 190055Z AUTO 31017G21KT 10SM CLR 28/06 A3018 RMK AO2 LTG DSNT N T02750058,M
CXP,2022-08-19 00:55,-119.7326,39.1923,1431.00,82.40,46.40,28.36,40.00,5.00,0.00,30.14,M,10.00,10.00,CLR,M,M,M,M,M,M,M,M,M,M,M,M,M,M,80.64,KCXP 190055Z AUTO 04005G10KT 10SM CLR 28/08 A3014 RMK AO2,M
RTS,2022-08-19 00:55,-119.8764,39.6682,1539.00,77.00,46.40,33.85,120.00,9.00,0.00,30.16,M,10.00,M,SCT,M,M,M,11000.00,M,M,M,M,M,M,M,M,M,M,77.00,KRTS 190055Z AUTO 12009KT 10SM SCT110 25/08 A3016 RMK AO2,M
RNO,2022-08-19 00:55,-119.7711,39.4839,1341.00,79.00,52.00,39.06,350.00,4.00,0.00,30.11,1014.60,10.00,M,BKN,BKN,M,M,10000.00,16000.00,M,M,M,M,M,M,M,M,M,79.00,KRNO 190055Z 35004KT 10SM BKN100 BKN160 26/11 A3011 RMK AO2 SLP146 T02610111,M
MEV,2022-08-19 00:55,-119.7500,38.9963,1441.42,86.00,39.20,19.15,280.00,12.00,0.00,30.11,M,10.00,M,CLR,M,M,M,M,M,M,M,M,M,M,M,M,M,M,82.79,KMEV 190055Z AUTO 28012KT 10SM CLR 30/04 A3011 RMK AO2,M
BAM,2022-08-19 00:55,-116.8743,40.5990,1382.36,89.60,37.40,15.92,250.00,8.00,0.00,30.06,M,10.00,15.00,CLR,M,M,M,M,M,M,M,M,M,M,M,M,M,M,85.67,KBAM 190055Z AUTO 25008G15KT 10SM CLR 32/03 A3006 RMK AO1,M
HTH,2022-08-19 00:55,-118.6315,38.5448,1282.89,87.80,42.80,20.79,350.00,13.00,0.00,30.07,M,10.00,M,CLR,M,M,M,M,M,M,M,M,M,M,M,M,M,M,84.40,KHTH 190055Z AUTO 35013KT 10SM CLR 31/06 A3007 RMK A01,M
HND,2022-08-19 00:56,-115.1344,35.9729,742.79,95.00,62.00,33.79,350.00,4.00,0.00,29.88,1010.10,10.00,M,CLR,M,M,M,M,M,M,M,M,M,M,M,M,M,M,95.95,KHND 190056Z 35004KT 10SM CLR 35/17 A2988 RMK AO2 SLP101 T03500167,M
NFL,2022-08-19 00:56,-118.7010,39.4166,1199.00,82.00,46.00,28.30,350.00,7.00,0.00,30.07,1015.00,10.00,M,SCT,BKN,BKN,BKN,8000.00,12000.00,18000.00,25000.00,M,M,M,M,M,M,M,80.36,KNFL 190056Z 35007KT 10SM SCT080 BKN120 BKN180 BKN250 28/08 A3007 RMK AO2 SLP150 CB DSNT NE T02780078,M
EKO,2022-08-19 00:56,-115.7860,40.8242,1367.00,79.00,45.00,30.05,200.00,7.00,0.00,30.08,1013.10,10.00,M,CLR,M,M,M,M,M,M,M,M,M,M,M,M,M,M,79.00,KEKO 190056Z AUTO 20007KT 10SM CLR 26/07 A3008 RMK AO2 SLP131 T02610072,M
WMC,2022-08-19 00:56,-117.8072,40.9019,1315.00,87.00,48.00,25.90,250.00,17.00,0.00,30.04,1011.60,10.00,26.00,FEW,M,M,M,11000.00,M,M,M,M,M,M,M,26.00,250.00,2022-08-19 00:47,84.27,KWMC 190056Z AUTO 25017G26KT 10SM FEW110 31/09 A3004 RMK AO2 PK WND 25026/0047 LTG DSNT S AND NW SLP116 T03060089,M
LAS,2022-08-19 00:56,-115.1634,36.0719,663.00,96.00,61.00,31.41,0.00,0.00,0.00,29.85,1007.50,10.00,M,FEW,FEW,SCT,M,12000.00,16000.00,20000.00,M,M,M,M,M,M,M,M,96.64,KLAS 190056Z 00000KT 10SM FEW120 FEW160 SCT200 36/16 A2985 RMK AO2 SLP075 CB DSNT N-NE T03560161,M
TPH,2022-08-19 00:56,-117.0904,38.0505,1654.00,86.00,38.00,18.20,310.00,13.00,0.00,30.11,1011.60,10.00,20.00,CLR,M,M,M,M,M,M,M,M,M,M,M,26.00,350.00,2022-08-19 00:18,82.74,KTPH 190056Z AUTO 31013G20KT 10SM CLR 30/03 A3011 RMK AO2 PK WND 35026/0018 SLP116 T03000033,M
LSV,2022-08-19 00:58,-115.0343,36.2362,570.00,99.00,62.00,29.90,200.00,3.00,0.00,29.81,M,10.00,M,CLR,M,M,M,M,M,M,M,M,M,M,M,M,M,M,100.56,KLSV 190058Z 20003KT 10SM CLR 37/17 A2981 RMK AO2A SLPNO T03720167 $,M
INS,2022-08-19 00:58,-115.6733,36.5872,955.00,94.80,52.30,23.88,80.00,7.00,0.00,29.90,1007.10,10.00,M,FEW,M,M,M,11000.00,M,M,M,M,M,M,M,M,M,M,92.18,KINS 190058Z AUTO 08007KT 10SM FEW110 35/11 A2990 RMK AO2 SLP071 T03490113,M
BAM,2022-08-19 01:15,-116.8743,40.5990,1382.36,89.60,41.00,18.33,220.00,11.00,0.00,30.05,M,10.00,14.00,CLR,M,M,M,M,M,M,M,M,M,M,M,M,M,M,85.82,KBAM 190115Z AUTO 22011G14KT 10SM CLR 32/05 A3005 RMK AO1,M
HTH,2022-08-19 01:15,-118.6315,38.5448,1282.89,86.00,46.40,25.26,320.00,12.00,0.00,30.07,M,10.00,18.00,CLR,M,M,M,M,M,M,M,M,M,M,M,M,M,M,83.22,KHTH 190115Z AUTO 32012G18KT 10SM CLR 30/08 A3007 RMK A01,M
TMT,2022-08-19 01:15,-117.1971,39.4643,1749.34,79.50,47.00,32.01,310.00,17.00,0.00,30.18,M,10.00,23.00,CLR,M,M,M,M,M,M,M,M,M,M,M,M,M,M,79.50,KTMT 190115Z AUTO 31017G23KT 10SM CLR 26/08 A3018 RMK AO2 T02640084,M
BVU,2022-08-19 01:15,-114.8611,35.9475,671.00,86.00,66.20,51.72,0.00,0.00,0.00,29.86,M,M,M,M,M,M,M,M,M,M,M,M,M,M,M,M,M,M,88.39,KBVU 190115Z AUTO 00000KT 30/19 A2986 RMK AO2 PWINO TSNO,M
CXP,2022-08-19 01:15,-119.7326,39.1923,1431.00,82.40,46.40,28.36,90.00,8.00,0.00,30.14,M,10.00,M,CLR,M,M,M,M,M,M,M,M,M,M,M,M,M,M,80.64,KCXP 190115Z AUTO 09008KT 10SM CLR 28/08 A3014 RMK AO2,M
RTS,2022-08-19 01:15,-119.8764,39.6682,1539.00,78.80,46.40,31.90,M,5.00,0.00,30.17,M,10.00,11.00,SCT,SCT,M,M,9500.00,12000.00,M,M,M,M,M,M,M,M,M,78.80,KRTS 190115Z AUTO VRB05G11KT 10SM SCT095 SCT120 26/08 A3017 RMK AO2,M
MEV,2022-08-19 01:15,-119.7500,38.9963,1441.42,86.00,39.20,19.15,300.00,13.00,0.00,30.11,M,10.00,M,CLR,M,M,M,M,M,M,M,M,M,M,M,M,M,M,82.79,KMEV 190115Z AUTO 30013KT 10SM CLR 30/04 A3011 RMK AO2,M
WMC,2022-08-19 01:18,-117.8072,40.9019,1315.00,79.00,52.00,39.06,270.00,24.00,0.00,30.07,M,2.50,40.00,FEW,M,M,M,1200.00,M,M,M,VCTS HZ,M,M,M,44.00,260.00,2022-08-19 01:07,79.00,KWMC 190118Z AUTO 27024G40KT 2 1/2SM VCTS HZ FEW012 26/11 A3007 RMK AO2 PK WND 26044/0107 VIS 1 3/4V5 LTG DSNT W AND NW PRESRR T02610111,M
WMC,2022-08-19 01:25,-117.8072,40.9019,1315.00,77.00,55.00,46.57,270.00,17.00,0.00,30.07,M,6.00,40.00,CLR,M,M,M,M,M,M,M,VCTS HZ,M,M,M,44.00,260.00,2022-08-19 01:07,77.00,KWMC 190125Z AUTO 27017G40KT 6SM VCTS HZ CLR 25/13 A3007 RMK AO2 PK WND 26044/0107 LTG DSNT W-N T02500128,M
CXP,2022-08-19 01:30,-119.7326,39.1923,1431.00,82.40,46.40,28.36,80.00,8.00,0.00,30.13,M,10.00,M,CLR,M,M,M,M,M,M,M,M,M,M,M,M,M,M,80.64,KCXP 190130Z AUTO 08008KT 10SM CLR 28/08 A3013 RMK AO2,M
BAM,2022-08-19 01:35,-116.8743,40.5990,1382.36,87.80,42.80,20.79,220.00,8.00,0.00,30.06,M,10.00,M,CLR,M,M,M,M,M,M,M,M,M,M,M,M,M,M,84.40,KBAM 190135Z AUTO 22008KT 10SM CLR 31/06 A3006 RMK AO1,M
TMT,2022-08-19 01:35,-117.1971,39.4643,1749.34,78.80,45.30,30.60,300.00,15.00,0.00,30.19,M,10.00,19.00,CLR,M,M,M,M,M,M,M,M,M,M,M,M,M,M,78.80,KTMT 190135Z AUTO 30015G19KT 10SM CLR 26/07 A3019 RMK AO2 T02600074,M
BVU,2022-08-19 01:35,-114.8611,35.9475,671.00,86.00,68.00,55.04,0.00,0.00,0.00,29.86,M,M,M,M,M,M,M,M,M,M,M,M,M,M,M,M,M,M,89.41,KBVU 190135Z AUTO 00000KT 30/20 A2986 RMK AO2 PWINO TSNO,M
RTS,2022-08-19 01:35,-119.8764,39.6682,1539.00,78.80,44.60,29.79,0.00,0.00,0.00,30.16,M,10.00,M,FEW,BKN,M,M,9500.00,11000.00,M,M,M,M,M,M,M,M,M,78.80,KRTS 190135Z AUTO 00000KT 10SM FEW095 BKN110 26/07 A3016 RMK AO2,M
MEV,2022-08-19 01:35,-119.7500,38.9963,1441.42,84.20,39.20,20.29,300.00,13.00,0.00,30.11,M,10.00,M,CLR,M,M,M,M,M,M,M,M,M,M,M,M,M,M,81.44,KMEV 190135Z AUTO 30013KT 10SM CLR 29/04 A3011 RMK AO2,M
HTH,2022-08-19 01:35,-118.6315,38.5448,1282.89,84.20,46.40,26.76,320.00,12.00,0.00,30.07,M,10.00,M,FEW,M,M,M,12000.00,M,M,M,M,M,M,M,M,M,M,81.87,KHTH 190135Z AUTO 32012KT 10SM FEW120 29/08 A3007 RMK A01,M
ELY,2022-08-19 01:53,-114.8453,39.2950,1909.00,70.00,51.00,51.07,320.00,3.00,0.00,30.19,1013.50,10.00,M,BKN,M,M,M,11000.00,M,M,M,M,M,M,M,M,M,M,70.00,KELY 190153Z AUTO 32003KT 10SM BKN110 21/11 A3019 RMK AO2 SLP135 T02110106,M
DRA,2022-08-19 01:53,-116.0278,36.6206,1009.00,95.00,53.00,24.44,110.00,4.00,0.00,29.90,1006.60,10.00,M,FEW,M,M,M,11000.00,M,M,M,M,M,M,M,M,M,M,92.58,KDRA 190153Z AUTO 11004KT 10SM FEW110 35/12 A2990 RMK AO2 SLP066 T03500117,M
P68,2022-08-19 01:53,-116.0056,39.6014,1993.00,72.00,48.00,42.51,30.00,8.00,0.00,30.19,1014.40,M,M,M,M,M,M,M,M,M,M,M,M,M,M,M,M,M,72.00,KP68 190153Z AUTO 03008KT 22/09 A3019 RMK AO1 SLP144 T02220089,M
VGT,2022-08-19 01:53,-115.1933,36.2111,667.00,97.00,59.00,28.46,130.00,5.00,0.00,29.83,1008.70,10.00,M,CLR,M,M,M,M,M,M,M,M,M,M,M,M,M,M,96.72,KVGT 190153Z 13005KT 10SM CLR 36/15 A2983 RMK AO2 SLP087 T03610150,M
LOL,2022-08-19 01:53,-118.5701,40.0684,1192.43,80.00,50.00,34.98,0.00,0.00,0.00,30.06,1014.30,10.00,M,CLR,M,M,M,M,M,M,M,M,M,M,M,M,M,M,79.60,KLOL 190153Z AUTO 00000KT 10SM CLR 27/10 A3006 RMK AO2 SLP143 T02670100,M
HTH,2022-08-19 01:55,-118.6315,38.5448,1282.89,84.20,44.60,24.99,340.00,17.00,0.00,30.08,M,9.00,23.00,FEW,M,M,M,12000.00,M,M,M,M,M,M,M,M,M,M,81.73,KHTH 190155Z AUTO 34017G23KT 9SM FEW120 29/07 A3008 RMK A01,M
TMT,2022-08-19 01:55,-117.1971,39.4643,1749.34,75.70,41.50,29.31,310.00,11.00,0.00,30.19,M,10.00,18.00,CLR,M,M,M,M,M,M,M,M,M,M,M,M,M,M,75.70,KTMT 190155Z AUTO 31011G18KT 10SM CLR 24/05 A3019 RMK AO2 T02430053,M
BVU,2022-08-19 01:55,-114.8611,35.9475,671.00,86.00,66.20,51.72,170.00,4.00,0.00,29.86,M,M,M,M,M,M,M,M,M,M,M,M,M,M,M,M,M,M,88.39,KBVU 190155Z AUTO 17004KT 30/19 A2986 RMK AO2 PWINO TSNO,M
RNO,2022-08-19 01:55,-119.7711,39.4839,1341.00,79.00,54.00,42.03,340.00,5.00,0.00,30.11,1014.40,10.00,M,FEW,FEW,M,M,11000.00,16000.00,M,M,M,M,M,M,M,M,M,79.00,KRNO 190155Z 34005KT 10SM FEW110 FEW160 26/12 A3011 RMK AO2 SLP144 T02610122,M
RTS,2022-08-19 01:55,-119.8764,39.6682,1539.00,77.00,48.20,36.22,130.00,5.00,0.00,30.16,M,10.00,M,BKN,M,M,M,11000.00,M,M,M,M,M,M,M,M,M,M,77.00,KRTS 190155Z AUTO 13005KT 10SM BKN110 25/09 A3016 RMK AO2,M
CXP,2022-08-19 01:55,-119.7326,39.1923,1431.00,80.60,46.40,30.07,0.00,0.00,0.00,30.13,M,10.00,M,CLR,M,M,M,M,M,M,M,M,M,M,M,M,M,M,79.56,KCXP 190155Z AUTO 00000KT 10SM CLR 27/08 A3013 RMK AO2,M
MEV,2022-08-19 01:55,-119.7500,38.9963,1441.42,84.20,39.20,20.29,300.00,12.00,0.00,30.11,M,10.00,M,CLR,M,M,M,M,M,M,M,M,M,M,M,M,M,M,81.44,KMEV 190155Z AUTO 30012KT 10SM CLR 29/04 A3011 RMK AO2,M
BAM,2022-08-19 01:55,-116.8743,40.5990,1382.36,87.80,44.60,22.27,230.00,8.00,0.00,30.06,M,10.00,M,CLR,M,M,M,M,M,M,M,M,M,M,M,M,M,M,84.53,KBAM 190155Z AUTO 23008KT 10SM CLR 31/07 A3006 RMK AO1,M
HND,2022-08-19 01:56,-115.1344,35.9729,742.79,94.00,62.00,34.95,50.00,8.00,0.00,29.88,1010.30,10.00,M,CLR,M,M,M,M,M,M,M,M,M,M,M,M,M,M,94.72,KHND 190156Z 05008KT 10SM CLR 34/17 A2988 RMK AO2 SLP103 T03440167,M
EKO,2022-08-19 01:56,-115.7860,40.8242,1367.00,74.00,43.00,32.98,150.00,8.00,0.00,30.11,1014.60,10.00,27.00,SCT,BKN,M,M,9000.00,12000.00,M,M,M,M,M,M,38.00,130.00,2022-08-19 01:45,73.90,KEKO 190156Z AUTO 15008G27KT 10SM SCT090 BKN120 23/06 A3011 RMK AO2 PK WND 13038/0145 LTG DSNT S SLP146 T02330061,M
TPH,2022-08-19 01:56,-117.0904,38.0505,1654.00,84.00,32.00,15.35,340.00,14.00,0.00,30.12,1012.00,10.00,M,CLR,M,M,M,M,M,M,M,M,M,M,M,M,M,M,81.13,KTPH 190156Z AUTO 34014KT 10SM CLR 29/00 A3012 RMK AO2 SLP120 T02890000,M
LAS,2022-08-19 01:56,-115.1634,36.0719,663.00,95.00,61.00,32.50,80.00,8.00,0.00,29.85,1007.60,10.00,M,FEW,FEW,SCT,M,12000.00,16000.00,20000.00,M,M,M,M,M,M,M,M,95.40,KLAS 190156Z 08008KT 10SM FEW120 FEW160 SCT200 35/16 A2985 RMK AO2 SLP076 CB DSNT NE T03500161,M
NFL,2022-08-19 01:56,-118.7010,39.4166,1199.00,82.00,45.00,27.24,30.00,8.00,0.00,30.06,1014.80,10.00,M,SCT,BKN,BKN,BKN,8000.00,12000.00,18000.00,25000.00,M,M,M,M,M,M,M,80.28,KNFL 190156Z 03008KT 10SM SCT080 BKN120 BKN180 BKN250 28/07 A3006 RMK AO2 SLP148 CB DSNT W-NW T02780072,M
LSV,2022-08-19 01:56,-115.0343,36.2362,570.00,95.20,64.00,35.77,120.00,10.00,0.00,29.81,1006.70,10.00,M,BKN,M,M,M,16000.00,M,M,M,M,M,M,M,M,M,M,97.19,KLSV 190156Z 12010KT 10SM BKN160 35/18 A2981 RMK A02A SLP067 T03510177 $,M
WMC,2022-08-19 01:56,-117.8072,40.9019,1315.00,78.00,51.00,38.92,250.00,15.00,0.00,30.07,1013.60,10.00,33.00,FEW,SCT,M,M,9500.00,12000.00,M,M,VCTS,M,M,M,44.00,260.00,2022-08-19 01:07,78.10,KWMC 190156Z AUTO 25015G33KT 10SM VCTS FEW095 SCT120 26/11 A3007 RMK AO2 PK WND 26044/0107 LTG DSNT N AND NE SLP136 T02560106,M
INS,2022-08-19 01:58,-115.6733,36.5872,955.00,92.80,51.80,24.94,100.00,12.00,0.00,29.89,1006.80,10.00,M,FEW,M,M,M,13000.00,M,M,M,M,M,M,M,M,M,M,90.05,KINS 190158Z AUTO 10012KT 10SM FEW130 34/11 A2989 RMK AO2 SLP068 T03380110,M
EKO,2022-08-19 02:08,-115.7860,40.8242,1367.00,72.00,44.00,36.68,130.00,11.00,0.00,30.10,M,10.00,18.00,BKN,BKN,M,M,9000.00,11000.00,M,M,VCTS,M,M,M,M,M,M,72.00,KEKO 190208Z AUTO 13011G18KT 10SM VCTS BKN090 BKN110 22/07 A3010 RMK AO2 LTG DSNT S T02220067,M
BVU,2022-08-19 02:15,-114.8611,35.9475,671.00,86.00,64.40,48.58,0.00,0.00,0.00,29.87,M,M,M,M,M,M,M,M,M,M,M,M,M,M,M,M,M,M,87.49,KBVU 190215Z AUTO 00000KT 30/18 A2987 RMK AO2 PWINO TSNO,M
TMT,2022-08-19 02:15,-117.1971,39.4643,1749.34,M,M,M,320.00,5.00,0.00,30.20,M,10.00,M,CLR,M,M,M,M,M,M,M,M,M,M,M,M,M,M,M,KTMT 190215Z AUTO 32005KT 10SM CLR A3020 RMK AO2,M
CXP,2022-08-19 02:15,-119.7326,39.1923,1431.00,80.60,46.40,30.07,340.00,4.00,0.00,30.13,M,10.00,M,CLR,M,M,M,M,M,M,M,M,M,M,M,M,M,M,79.56,KCXP 190215Z AUTO 34004KT 10SM CLR 27/08 A3013 RMK AO2,M
BAM,2022-08-19 02:15,-116.8743,40.5990,1382.36,82.40,51.80,34.69,240.00,16.00,0.00,30.06,M,10.00,27.00,CLR,M,M,M,M,M,M,M,M,M,M,M,M,M,M,81.20,KBAM 190215Z AUTO 24016G27KT 10SM CLR 28/11 A3006 RMK AO1,M
MEV,2022-08-19 02:15,-119.7500,38.9963,1441.42,82.40,39.20,21.51,290.00,11.00,0.00,30.12,M,10.00,16.00,CLR,M,M,M,M,M,M,M,M,M,M,M,M,M,M,80.21,KMEV 190215Z AUTO 29011G16KT 10SM CLR 28/04 A3012 RMK AO2,M
RTS,2022-08-19 02:15,-119.8764,39.6682,1539.00,77.00,46.40,33.85,150.00,6.00,0.00,30.16,M,10.00,M,BKN,M,M,M,11000.00,M,M,M,M,M,M,M,M,M,M,77.00,KRTS 190215Z AUTO 15006KT 10SM BKN110 25/08 A3016 RMK AO2,M
HTH,2022-08-19 02:15,-118.6315,38.5448,1282.89,82.40,50.00,32.46,310.00,18.00,0.00,30.08,M,10.00,M,CLR,M,M,M,M,M,M,M,M,M,M,M,M,M,M,80.99,KHTH 190215Z AUTO 31018KT 10SM CLR 28/10 A3008 RMK A01,M
LSV,2022-08-19 02:17,-115.0343,36.2362,570.00,93.20,64.40,38.73,120.00,8.00,0.00,29.82,1007.10,10.00,M,FEW,SCT,M,M,12000.00,14000.00,M,M,M,M,M,M,M,M,M,95.20,KLSV 190217Z 12008KT 10SM FEW120CB SCT140 34/18 A2982 RMK A02A LTG DSNT NW-W SLP071 $,M
WMC,2022-08-19 02:19,-117.8072,40.9019,1315.00,79.00,51.00,37.78,230.00,8.00,0.00,30.08,M,10.00,16.00,FEW,M,M,M,10000.00,M,M,M,M,M,M,M,32.00,250.00,2022-08-19 01:59,79.00,KWMC 190219Z AUTO 23008G16KT 10SM FEW100 26/11 A3008 RMK AO2 PK WND 25032/0159 LTG DSNT NE T02610106,M
EKO,2022-08-19 02:28,-115.7860,40.8242,1367.00,62.00,53.00,72.33,180.00,18.00,T,30.13,M,10.00,32.00,OVC,M,M,M,8500.00,M,M,M,-TSRA,M,M,M,32.00,180.00,2022-08-19 02:25,62.10,KEKO 190228Z AUTO 18018G32KT 10SM -TSRA OVC085 17/12 A3013 RMK AO2 PK WND 18032/0225 LTG DSNT N AND SE AND S RAB21 TSB22 P0000 T01670117,M
RTS,2022-08-19 02:35,-119.8764,39.6682,1539.00,75.20,46.40,35.94,150.00,5.00,0.00,30.17,M,10.00,M,SCT,M,M,M,11000.00,M,M,M,M,M,M,M,M,M,M,75.20,KRTS 190235Z AUTO 15005KT 10SM SCT110 24/08 A3017 RMK AO2,M
BAM,2022-08-19 02:35,-116.8743,40.5990,1382.36,80.60,51.80,36.79,240.00,15.00,0.00,30.07,M,10.00,20.00,CLR,M,M,M,M,M,M,M,M,M,M,M,M,M,M,80.08,KBAM 190235Z AUTO 24015G20KT 10SM CLR 27/11 A3007 RMK AO1,M
HTH,2022-08-19 02:35,-118.6315,38.5448,1282.89,80.60,42.80,26.22,310.00,20.00,0.00,30.09,M,10.00,M,FEW,M,M,M,12000.00,M,M,M,M,M,M,M,M,M,M,79.30,KHTH 190235Z AUTO 31020KT 10SM FEW120 27/06 A3009 RMK A01,M
BVU,2022-08-19 02:35,-114.8611,35.9475,671.00,84.20,66.20,54.80,350.00,3.00,0.00,29.87,M,M,M,M,M,M,M,M,M,M,M,M,M,M,M,M,M,M,86.50,KBVU 190235Z AUTO 35003KT 29/19 A2987 RMK AO2 PWINO TSNO,M
TMT,2022-08-19 02:35,-117.1971,39.4643,1749.34,71.60,44.00,36.89,310.00,8.00,0.00,30.21,M,10.00,M,CLR,M,M,M,M,M,M,M,M,M,M,M,M,M,M,71.60,KTMT 190235Z AUTO 31008KT 10SM CLR 22/07 A3021 RMK AO2 T02200066,M
CXP,2022-08-19 02:35,-119.7326,39.1923,1431.00,78.80,46.40,31.90,0.00,0.00,0.00,30.14,M,10.00,M,CLR,M,M,M,M,M,M,M,M,M,M,M,M,M,M,78.80,KCXP 190235Z AUTO 00000KT 10SM CLR 26/08 A3014 RMK AO2,M
MEV,2022-08-19 02:35,-119.7500,38.9963,1441.42,80.60,41.00,24.46,300.00,6.00,0.00,30.13,M,10.00,M,CLR,M,M,M,M,M,M,M,M,M,M,M,M,M,M,79.20,KMEV 190235Z AUTO 30006KT 10SM CLR 27/05 A3013 RMK AO2,M
VGT,2022-08-19 02:53,-115.1933,36.2111,667.00,94.00,62.00,34.95,140.00,8.00,0.00,29.86,1009.60,10.00,M,FEW,M,M,M,12000.00,M,M,M,M,M,M,M,M,M,M,94.72,KVGT 190253Z 14008KT 10SM FEW120 34/17 A2986 RMK AO2 LTG DSNT W SLP096 T03440167 53007,M
P68,2022-08-19 02:53,-116.0056,39.6014,1993.00,69.00,48.00,46.92,30.00,4.00,0.00,30.21,1015.30,M,M,M,M,M,M,M,M,M,M,M,M,M,M,M,M,M,69.10,KP68 190253Z AUTO 03004KT 21/09 A3021 RMK AO1 SLP153 T02060089 53017,M
DRA,2022-08-19 02:53,-116.0278,36.6206,1009.00,92.00,46.00,20.65,30.00,17.00,0.00,29.94,1008.10,10.00,25.00,BKN,BKN,M,M,10000.00,11000.00,M,M,M,M,M,M,M,M,M,88.28,KDRA 190253Z AUTO 03017G25KT 10SM BKN100 BKN110 33/08 A2994 RMK AO2 SLP081 T03330078 53010,M
ELY,2022-08-19 02:53,-114.8453,39.2950,1909.00,68.00,54.00,60.86,M,3.00,T,30.22,1013.90,10.00,M,FEW,OVC,M,M,7500.00,10000.00,M,M,-RA,M,M,M,M,M,M,68.00,KELY 190253Z AUTO VRB03KT 10SM -RA FEW075 OVC100 20/12 A3022 RMK AO2 RAB46 SLP139 P0000 60000 T02000122 53005,M
LOL,2022-08-19 02:53,-118.5701,40.0684,1192.43,75.00,54.00,47.99,0.00,0.00,0.00,30.07,1014.80,10.00,M,CLR,M,M,M,M,M,M,M,M,M,M,M,M,M,M,75.00,KLOL 190253Z AUTO 00000KT 10SM CLR 24/12 A3007 RMK AO2 SLP148 T02390122 55006,M
CXP,2022-08-19 02:55,-119.7326,39.1923,1431.00,77.00,46.40,33.85,0.00,0.00,0.00,30.15,M,10.00,M,CLR,M,M,M,M,M,M,M,M,M,M,M,M,M,M,77.00,KCXP 190255Z AUTO 00000KT 10SM CLR 25/08 A3015 RMK AO2,M
BVU,2022-08-19 02:55,-114.8611,35.9475,671.00,84.20,68.00,58.32,340.00,3.00,0.00,29.88,M,M,M,M,M,M,M,M,M,M,M,M,M,M,M,M,M,M,87.40,KBVU 190255Z AUTO 34003KT 29/20 A2988 RMK AO2 PWINO TSNO,M
HTH,2022-08-19 02:55,-118.6315,38.5448,1282.89,80.60,44.60,28.08,310.00,13.00,0.00,30.10,M,10.00,M,CLR,M,M,M,M,M,M,M,M,M,M,M,M,M,M,79.42,KHTH 190255Z AUTO 31013KT 10SM CLR 27/07 A3010 RMK A01,M
TMT,2022-08-19 02:55,-117.1971,39.4643,1749.34,71.00,43.00,36.50,310.00,8.00,0.00,30.22,M,10.00,M,CLR,M,M,M,M,M,M,M,M,M,M,M,M,M,M,70.90,KTMT 190255Z AUTO 31008KT 10SM CLR 22/06 A3022 RMK AO2 T02160061,M
BAM,2022-08-19 02:55,-116.8743,40.5990,1382.36,80.60,51.80,36.79,240.00,8.00,0.00,30.09,M,10.00,M,CLR,M,M,M,M,M,M,M,M,M,M,M,M,M,M,80.08,KBAM 190255Z AUTO 24008KT 10SM CLR 27/11 A3009 RMK AO1,M
MEV,2022-08-19 02:55,-119.7500,38.9963,1441.42,78.80,41.00,25.95,350.00,6.00,0.00,30.13,M,10.00,M,CLR,M,M,M,M,M,M,M,M,M,M,M,M,M,M,78.80,KMEV 190255Z AUTO 35006KT 10SM CLR 26/05 A3013 RMK AO2,M
RTS,2022-08-19 02:55,-119.8764,39.6682,1539.00,73.40,48.20,40.85,130.00,3.00,0.00,30.18,M,10.00,M,FEW,M,M,M,11000.00,M,M,M,M,M,M,M,M,M,M,73.40,KRTS 190255Z AUTO 13003KT 10SM FEW110 23/09 A3018 RMK AO2,M
RNO,2022-08-19 02:55,-119.7711,39.4839,1341.00,77.00,55.00,46.57,220.00,4.00,0.00,30.12,1014.80,10.00,M,FEW,FEW,M,M,11000.00,25000.00,M,M,M,M,M,M,M,M,M,77.00,KRNO 190255Z 22004KT 10SM FEW110 FEW250 25/13 A3012 RMK AO2 SLP148 T02500128 55000,M
WMC,2022-08-19 02:56,-117.8072,40.9019,1315.00,76.00,52.00,43.28,290.00,5.00,0.00,30.09,1014.40,10.00,M,FEW,M,M,M,10000.00,M,M,M,M,M,M,M,32.00,250.00,2022-08-19 01:59,75.90,KWMC 190256Z AUTO 29005KT 10SM FEW100 24/11 A3009 RMK AO2 PK WND 25032/0159 LTG DSNT NE SLP144 T02440111 53016,M
LSV,2022-08-19 02:56,-115.0343,36.2362,570.00,93.20,64.40,38.73,130.00,6.00,0.00,29.82,1007.10,10.00,M,FEW,SCT,M,M,10000.00,14000.00,M,M,M,M,M,M,M,M,M,95.20,KLSV 190256Z 13006KT 10SM FEW100 SCT140 34/18 A2982 RMK LGT DSNT W SLP071 $,M
EKO,2022-08-19 02:56,-115.7860,40.8242,1367.00,59.00,53.00,80.75,180.00,19.00,T,30.15,1016.80,10.00,28.00,OVC,M,M,M,9000.00,M,M,M,-TSRA,M,M,M,36.00,180.00,2022-08-19 02:36,59.00,KEKO 190256Z AUTO 18019G28KT 10SM -TSRA OVC090 15/12 A3015 RMK AO2 PK WND 18036/0236 LTG DSNT N RAB21 TSB22 SLP168 P0000 60000 T01500117 53019,M
NFL,2022-08-19 02:56,-118.7010,39.4166,1199.00,79.00,47.00,32.29,20.00,6.00,0.00,30.08,1015.30,10.00,M,SCT,BKN,BKN,BKN,8000.00,12000.00,18000.00,25000.00,M,M,M,M,M,M,M,79.00,KNFL 190256Z 02006KT 10SM SCT080 BKN120 BKN180 BKN250 26/08 A3008 RMK AO2 SLP153 T02610083 55001,M
TPH,2022-08-19 02:56,-117.0904,38.0505,1654.00,81.00,34.00,18.33,330.00,9.00,0.00,30.14,1012.30,10.00,M,CLR,M,M,M,M,M,M,M,M,M,M,M,M,M,M,79.13,KTPH 190256Z AUTO 33009KT 10SM CLR 27/01 A3014 RMK AO2 SLP123 T02720011 53005,M
LAS,2022-08-19 02:56,-115.1634,36.0719,663.00,93.00,61.00,34.57,100.00,7.00,0.00,29.87,1008.40,10.00,M,FEW,FEW,SCT,M,12000.00,16000.00,20000.00,M,M,M,M,M,M,M,M,93.20,KLAS 190256Z 10007KT 10SM FEW120 FEW160 SCT200 34/16 A2987 RMK AO2 LTG DSNT NW SLP084 CB DSNT W-NW AND NE T03390161 53004,M
HND,2022-08-19 02:56,-115.1344,35.9729,742.79,92.00,58.00,32.03,90.00,4.00,0.00,29.91,1011.10,10.00,M,BKN,M,M,M,11000.00,M,M,M,M,M,M,M,M,M,M,90.80,KHND 190256Z 09004KT 10SM BKN110 33/14 A2991 RMK AO2 LTG DSNT NW SLP111 T03330144 53005,M
LSV,2022-08-19 02:58,-115.0343,36.2362,570.00,M,M,M,M,M,0.00,M,M,M,M,M,M,M,M,M,M,M,M,M,M,M,M,M,M,M,M,KLSV 190258Z AUTO M M M M M M RMK AO2 SLPNO RVRNO $,M
INS,2022-08-19 02:58,-115.6733,36.5872,955.00,91.00,52.20,26.85,170.00,9.00,0.00,29.91,1007.50,10.00,M,BKN,M,M,M,18000.00,M,M,M,M,M,M,M,M,M,M,88.29,KINS 190258Z AUTO 17009KT 10SM BKN180 33/11 A2991 RMK AO2 SLP075 T03270112 53002 FZRANO $,M
EKO,2022-08-19 03:03,-115.7860,40.8242,1367.00,61.00,52.00,72.22,160.00,17.00,T,30.16,M,10.00,28.00,FEW,OVC,M,M,6000.00,9500.00,M,M,-RA,M,M,M,M,M,M,61.00,KEKO 190303Z AUTO 16017G28KT 10SM -RA FEW060 OVC095 16/11 A3016 RMK AO2 LTG DSNT N TSE02 P0000 T01610111,M
VGT,2022-08-19 03:05,-115.1933,36.2111,667.00,94.00,61.00,33.62,150.00,6.00,0.00,29.86,M,10.00,M,SCT,M,M,M,11000.00,M,M,M,VCTS,M,M,M,M,M,M,94.18,KVGT 190305Z 15006KT 10SM VCTS SCT110 34/16 A2986 RMK AO2 LTG DSNT W T03440161,M
INS,2022-08-19 03:05,-115.6733,36.5872,955.00,91.40,53.60,27.83,300.00,6.00,0.00,29.92,1007.50,10.00,M,SCT,BKN,M,M,9000.00,12000.00,M,M,VCTS,M,M,M,M,M,M,89.08,KINS 190305Z 30006KT 10SM VCTS SCT090 BKN120CB 33/12 A2992 RMK SLP075 LTG DSNT NW,M
DRA,2022-08-19 03:10,-116.0278,36.6206,1009.00,87.00,53.00,31.30,100.00,15.00,0.00,29.93,M,10.00,29.00,SCT,M,M,M,10000.00,M,M,M,M,M,M,M,36.00,90.00,2022-08-19 02:59,85.01,KDRA 190310Z AUTO 10015G29KT 10SM SCT100 31/12 A2993 RMK AO2 PK WND 09036/0259 WSHFT 0253 T03060117,M
EKO,2022-08-19 03:13,-115.7860,40.8242,1367.00,59.00,52.00,77.55,150.00,22.00,T,30.18,M,10.00,32.00,FEW,FEW,OVC,M,6000.00,8000.00,9500.00,M,-TSRA,M,M,M,32.00,160.00,2022-08-19 03:10,59.00,KEKO 190313Z AUTO 15022G32KT 10SM -TSRA FEW060 FEW080 OVC095 15/11 A3018 RMK AO2 PK WND 16032/0310 LTG DSNT N AND SE TSE02B07 PRESRR P0000 T01500111,M
HTH,2022-08-19 03:15,-118.6315,38.5448,1282.89,80.60,42.80,26.22,310.00,11.00,0.00,30.11,M,10.00,M,M,M,M,M,M,M,M,M,M,M,M,M,M,M,M,79.30,KHTH 190315Z AUTO 31011KT 10SM 27/06 A3011 RMK A01,M
TMT,2022-08-19 03:15,-117.1971,39.4643,1749.34,71.60,41.20,33.26,290.00,9.00,0.00,30.22,M,7.00,M,CLR,M,M,M,M,M,M,M,M,M,M,M,M,M,M,71.60,KTMT 190315Z AUTO 29009KT 7SM CLR 22/05 A3022 RMK AO2 LTG DSNT NE AND SE T02200051,M
CXP,2022-08-19 03:15,-119.7326,39.1923,1431.00,77.00,46.40,33.85,0.00,0.00,0.00,30.16,M,10.00,M,CLR,M,M,M,M,M,M,M,M,M,M,M,M,M,M,77.00,KCXP 190315Z AUTO 00000KT 10SM CLR 25/08 A3016 RMK AO2,M
BVU,2022-08-19 03:15,-114.8611,35.9475,671.00,84.20,68.00,58.32,350.00,5.00,0.00,29.88,M,M,M,M,M,M,M,M,M,M,M,M,M,M,M,M,M,M,87.40,KBVU 190315Z AUTO 35005KT 29/20 A2988 RMK AO2 PWINO TSNO,M
BAM,2022-08-19 03:15,-116.8743,40.5990,1382.36,78.80,51.80,39.02,220.00,8.00,0.00,30.10,M,10.00,M,CLR,M,M,M,M,M,M,M,M,M,M,M,M,M,M,78.80,KBAM 190315Z AUTO 22008KT 10SM CLR 26/11 A3010 RMK AO1,M
RTS,2022-08-19 03:15,-119.8764,39.6682,1539.00,73.40,48.20,40.85,0.00,0.00,0.00,30.18,M,10.00,M,CLR,M,M,M,M,M,M,M,M,M,M,M,M,M,M,73.40,KRTS 190315Z AUTO 00000KT 10SM CLR 23/09 A3018 RMK AO2,M
MEV,2022-08-19 03:15,-119.7500,38.9963,1441.42,77.00,41.00,27.53,10.00,8.00,0.00,30.14,M,10.00,M,CLR,M,M,M,M,M,M,M,M,M,M,M,M,M,M,77.00,KMEV 190315Z AUTO 01008KT 10SM CLR 25/05 A3014 RMK AO2,M
VGT,2022-08-19 03:20,-115.1933,36.2111,667.00,94.00,63.00,36.08,190.00,5.00,0.00,29.87,M,10.00,M,SCT,M,M,M,12000.00,M,M,M,M,M,M,M,M,M,M,95.19,KVGT 190320Z 19005KT 10SM SCT120 34/17 A2987 RMK AO2 T03440172,M
BVU,2022-08-19 03:35,-114.8611,35.9475,671.00,84.20,66.20,54.80,330.00,3.00,0.00,29.88,M,M,M,M,M,M,M,M,M,M,M,M,M,M,M,M,M,M,86.50,KBVU 190335Z AUTO 33003KT 29/19 A2988 RMK AO2 PWINO TSNO,M
CXP,2022-08-19 03:35,-119.7326,39.1923,1431.00,75.20,48.20,38.46,0.00,0.00,0.00,30.16,M,10.00,M,CLR,M,M,M,M,M,M,M,M,M,M,M,M,M,M,75.20,KCXP 190335Z AUTO 00000KT 10SM CLR 24/09 A3016 RMK AO2,M
RTS,2022-08-19 03:35,-119.8764,39.6682,1539.00,69.80,50.00,49.37,0.00,0.00,0.00,30.19,M,10.00,M,CLR,M,M,M,M,M,M,M,M,M,M,M,M,M,M,69.80,KRTS 190335Z AUTO 00000KT 10SM CLR 21/10 A3019 RMK AO2,M
MEV,2022-08-19 03:35,-119.7500,38.9963,1441.42,78.80,39.20,24.19,10.00,7.00,0.00,30.14,M,10.00,M,CLR,M,M,M,M,M,M,M,M,M,M,M,M,M,M,78.80,KMEV 190335Z AUTO 01007KT 10SM CLR 26/04 A3014 RMK AO2,M
BAM,2022-08-19 03:35,-116.8743,40.5990,1382.36,77.00,51.80,41.42,230.00,6.00,0.00,30.11,M,10.00,M,CLR,M,M,M,M,M,M,M,M,M,M,M,M,M,M,77.00,KBAM 190335Z AUTO 23006KT 10SM CLR 25/11 A3011 RMK AO1,M
HTH,2022-08-19 03:35,-118.6315,38.5448,1282.89,80.60,42.80,26.22,310.00,9.00,0.00,30.12,M,10.00,15.00,M,M,M,M,M,M,M,M,M,M,M,M,M,M,M,79.30,KHTH 190335Z AUTO 31009G15KT 10SM 27/06 A3012 RMK A01,M
TMT,2022-08-19 03:35,-117.1971,39.4643,1749.34,69.60,41.00,35.33,310.00,7.00,0.00,30.23,M,10.00,M,CLR,M,M,M,M,M,M,M,M,M,M,M,M,M,M,69.60,KTMT 190335Z AUTO 31007KT 10SM CLR 21/05 A3023 RMK AO2 T02090050,M
EKO,2022-08-19 03:42,-115.7860,40.8242,1367.00,59.00,54.00,83.46,130.00,12.00,T,30.19,M,10.00,28.00,OVC,M,M,M,9500.00,M,M,M,VCTS -RA,M,M,M,32.00,160.00,2022-08-19 03:10,59.00,KEKO 190342Z AUTO 13012G28KT 10SM VCTS -RA OVC095 15/12 A3019 RMK AO2 PK WND 16032/0310 LTG DSNT N TSE02B07E36 P0000 T01500122,M
P68,2022-08-19 03:53,-116.0056,39.6014,1993.00,65.00,48.00,54.26,300.00,4.00,0.00,30.23,1016.10,M,M,M,M,M,M,M,M,M,M,M,M,M,M,M,M,M,64.90,KP68 190353Z AUTO 30004KT 18/09 A3023 RMK AO1 SLP161 T01830089,M
LOL,2022-08-19 03:53,-118.5701,40.0684,1192.43,72.00,56.00,56.89,70.00,5.00,0.00,30.09,1015.30,10.00,M,CLR,M,M,M,M,M,M,M,M,M,M,M,M,M,M,72.00,KLOL 190353Z AUTO 07005KT 10SM CLR 22/13 A3009 RMK AO2 SLP153 T02220133,M
DRA,2022-08-19 03:53,-116.0278,36.6206,1009.00,89.00,50.00,26.19,30.00,14.00,0.00,29.94,1008.10,10.00,21.00,OVC,M,M,M,11000.00,M,M,M,M,M,M,M,36.00,90.00,2022-08-19 02:59,86.25,KDRA 190353Z AUTO 03014G21KT 10SM OVC110 32/10 A2994 RMK AO2 PK WND 09036/0259 WSHFT 0253 SLP081 T03170100,M
ELY,2022-08-19 03:53,-114.8453,39.2950,1909.00,66.00,54.00,65.21,270.00,9.00,T,30.24,1013.90,10.00,M,SCT,BKN,OVC,M,7000.00,9000.00,10000.00,M,-RA,M,M,M,M,M,M,66.00,KELY 190353Z AUTO 27009KT 10SM -RA SCT070 BKN090 OVC100 19/12 A3024 RMK AO2 LTG DSNT S RAE0256B44 SLP139 P0000 T01890122,M
VGT,2022-08-19 03:53,-115.1933,36.2111,667.00,92.00,64.00,39.76,260.00,10.00,0.00,29.88,1010.50,10.00,M,FEW,BKN,M,M,7000.00,11000.00,M,M,M,M,M,M,M,M,M,93.51,KVGT 190353Z AUTO 26010KT 10SM FEW070 BKN110 33/18 A2988 RMK AO2 LTG DSNT W SLP105 T03330178,M
EKO,2022-08-19 03:53,-115.7860,40.8242,1367.00,60.80,53.60,77.14,90.00,13.00,0.01,30.18,M,10.00,22.00,OVC,M,M,M,9000.00,M,M,M,-RA,M,M,M,32.00,160.00,2022-08-19 03:10,60.80,KEKO 190353Z AUTO 09013G22KT 10SM -RA OVC090 16/12 A3018 RMK AO2 PK WND 16032/0310 LTG DSNT N TSE02B07E36 P0001,M
BVU,2022-08-19 03:55,-114.8611,35.9475,671.00,84.20,66.20,54.80,0.00,0.00,0.00,29.89,M,M,M,M,M,M,M,M,M,M,M,M,M,M,M,M,M,M,86.50,KBVU 190355Z AUTO 00000KT 29/19 A2989 RMK AO2 PWINO TSNO,M
TMT,2022-08-19 03:55,-117.1971,39.4643,1749.34,67.30,40.50,37.50,300.00,4.00,0.00,30.24,M,10.00,M,CLR,M,M,M,M,M,M,M,M,M,M,M,M,M,M,67.30,KTMT 190355Z AUTO 30004KT 10SM CLR 20/05 A3024 RMK AO2 T01960047,M
HTH,2022-08-19 03:55,-118.6315,38.5448,1282.89,78.80,42.80,27.81,320.00,5.00,0.00,30.12,M,10.00,M,CLR,M,M,M,M,M,M,M,M,M,M,M,M,M,M,78.80,KHTH 190355Z AUTO 32005KT 10SM CLR 26/06 A3012 RMK A01,M
BAM,2022-08-19 03:55,-116.8743,40.5990,1382.36,77.00,51.80,41.42,360.00,9.00,0.00,30.13,M,10.00,M,CLR,M,M,M,M,M,M,M,M,M,M,M,M,M,M,77.00,KBAM 190355Z AUTO 36009KT 340V040 10SM CLR 25/11 A3013 RMK AO1,M
MEV,2022-08-19 03:55,-119.7500,38.9963,1441.42,77.00,41.00,27.53,0.00,0.00,0.00,30.15,M,10.00,M,CLR,M,M,M,M,M,M,M,M,M,M,M,M,M,M,77.00,KMEV 190355Z AUTO 00000KT 10SM CLR 25/05 A3015 RMK AO2,M
RTS,2022-08-19 03:55,-119.8764,39.6682,1539.00,71.60,46.40,40.57,0.00,0.00,0.00,30.19,M,10.00,M,CLR,M,M,M,M,M,M,M,M,M,M,M,M,M,M,71.60,KRTS 190355Z AUTO 00000KT 10SM CLR 22/08 A3019 RMK AO2,M
RNO,2022-08-19 03:55,-119.7711,39.4839,1341.00,73.00,56.00,55.00,270.00,3.00,0.00,30.13,1015.50,10.00,M,FEW,M,M,M,10000.00,M,M,M,M,M,M,M,M,M,M,73.00,KRNO 190355Z 27003KT 10SM FEW100 23/13 A3013 RMK AO2 SLP155 T02280133,M
CXP,2022-08-19 03:55,-119.7326,39.1923,1431.00,75.20,48.20,38.46,0.00,0.00,0.00,30.17,M,10.00,M,CLR,M,M,M,M,M,M,M,M,M,M,M,M,M,M,75.20,KCXP 190355Z AUTO 00000KT 10SM CLR 24/09 A3017 RMK AO2,M
EKO,2022-08-19 03:56,-115.7860,40.8242,1367.00,60.00,54.00,80.25,90.00,14.00,0.02,30.18,1017.50,10.00,22.00,SCT,OVC,M,M,7500.00,9500.00,M,M,-RA,M,M,M,32.00,160.00,2022-08-19 03:10,60.10,KEKO 190356Z AUTO 09014G22KT 10SM -RA SCT075 OVC095 16/12 A3018 RMK AO2 PK WND 16032/0310 LTG DSNT N TSE02B07E36 SLP175 P0002 T01560122,M
LAS,2022-08-19 03:56,-115.1634,36.0719,663.00,89.00,65.00,44.80,10.00,3.00,T,29.90,1009.30,10.00,M,FEW,FEW,SCT,M,12000.00,16000.00,20000.00,M,-RA,M,M,M,M,M,M,90.97,KLAS 190356Z 01003KT 10SM -RA FEW120 FEW160 SCT200 32/18 A2990 RMK AO2 LTG DSNT W RAB39 SLP093 CB DSNT W-NW AND NE P0000 T03170183,M
NFL,2022-08-19 03:56,-118.7010,39.4166,1199.00,76.00,48.00,37.29,0.00,0.00,0.00,30.09,1015.60,10.00,M,SCT,BKN,BKN,M,8000.00,12000.00,25000.00,M,M,M,M,M,M,M,M,75.90,KNFL 190356Z 00000KT 10SM SCT080 BKN120 BKN250 24/09 A3009 RMK AO2 SLP156 T02440089,M
TPH,2022-08-19 03:56,-117.0904,38.0505,1654.00,77.00,40.00,26.38,350.00,8.00,0.00,30.15,1013.00,10.00,M,CLR,M,M,M,M,M,M,M,M,M,M,M,M,M,M,77.00,KTPH 190356Z AUTO 35008KT 10SM CLR 25/04 A3015 RMK AO2 SLP130 T02500044,M
WMC,2022-08-19 03:56,-117.8072,40.9019,1315.00,73.00,52.00,47.69,310.00,3.00,0.00,30.10,1014.80,10.00,M,CLR,M,M,M,M,M,M,M,M,M,M,M,M,M,M,73.00,KWMC 190356Z AUTO 31003KT 10SM CLR 23/11 A3010 RMK AO2 SLP148 T02280111,M
HND,2022-08-19 03:56,-115.1344,35.9729,742.79,91.00,59.00,34.27,0.00,0.00,0.00,29.93,1011.80,10.00,M,FEW,M,M,M,11000.00,M,M,M,M,M,M,M,M,M,M,90.27,KHND 190356Z AUTO 00000KT 10SM FEW110 33/15 A2993 RMK AO2 LTG DSNT NW SLP118 T03280150,M
LSV,2022-08-19 03:58,-115.0343,36.2362,570.00,89.60,66.20,46.14,30.00,7.00,0.00,29.86,M,10.00,M,FEW,SCT,M,M,12000.00,16000.00,M,M,M,M,M,M,M,M,M,92.27,KLSV 190358Z 03007KT 10SM FEW120 SCT160 32/19 A2986 RMK AO2A SLPNO WND DATA ESTMD ALSTG ESTMD $,M
CXP,2022-08-19 04:15,-119.7326,39.1923,1431.00,71.60,48.20,43.42,0.00,0.00,0.00,30.17,M,10.00,M,CLR,M,M,M,M,M,M,M,M,M,M,M,M,M,M,71.60,KCXP 190415Z AUTO 00000KT 10SM CLR 22/09 A3017 RMK AO2,M
TMT,2022-08-19 04:15,-117.1971,39.4643,1749.34,61.20,40.00,45.70,180.00,5.00,0.00,30.24,M,7.00,M,CLR,M,M,M,M,M,M,M,M,M,M,M,M,M,M,61.20,KTMT 190415Z AUTO 18005KT 7SM CLR 16/05 A3024 RMK AO2 T01620045,M
BVU,2022-08-19 04:15,-114.8611,35.9475,671.00,84.20,66.20,54.80,350.00,5.00,0.00,29.90,M,M,M,M,M,M,M,M,M,M,M,M,M,M,M,M,M,M,86.50,KBVU 190415Z AUTO 35005KT 29/19 A2990 RMK AO2 PWINO TSNO,M
HTH,2022-08-19 04:15,-118.6315,38.5448,1282.89,77.00,42.80,29.51,310.00,7.00,0.00,30.13,M,10.00,M,CLR,M,M,M,M,M,M,M,M,M,M,M,M,M,M,77.00,KHTH 190415Z AUTO 31007KT 10SM CLR 25/06 A3013 RMK A01,M
BAM,2022-08-19 04:15,-116.8743,40.5990,1382.36,77.00,50.00,38.74,350.00,5.00,0.00,30.13,M,10.00,M,CLR,M,M,M,M,M,M,M,M,M,M,M,M,M,M,77.00,KBAM 190415Z AUTO 35005KT 10SM CLR 25/10 A3013 RMK AO1,M
RTS,2022-08-19 04:15,-119.8764,39.6682,1539.00,69.80,46.40,43.13,250.00,3.00,0.00,30.19,M,10.00,M,CLR,M,M,M,M,M,M,M,M,M,M,M,M,M,M,69.80,KRTS 190415Z AUTO 25003KT 10SM CLR 21/08 A3019 RMK AO2,M
MEV,2022-08-19 04:15,-119.7500,38.9963,1441.42,73.40,41.00,31.05,0.00,0.00,0.00,30.16,M,10.00,M,CLR,M,M,M,M,M,M,M,M,M,M,M,M,M,M,73.40,KMEV 190415Z AUTO 00000KT 10SM CLR 23/05 A3016 RMK AO2,M
INS,2022-08-19 04:23,-115.6733,36.5872,955.00,89.60,53.60,29.45,300.00,13.00,0.00,29.92,1007.50,9.00,23.00,SCT,BKN,M,M,4000.00,8000.00,M,M,-TSRA,M,M,M,M,M,M,87.36,KINS 190423Z 30013G23KT 9SM -TSRA SCT040 BKN080CB 32/12 A2992 RMK SLP075,M
INS,2022-08-19 04:29,-115.6733,36.5872,955.00,91.40,66.20,43.61,290.00,17.00,0.00,29.89,M,8.00,32.00,SCT,BKN,M,M,3000.00,8000.00,M,M,-TSRA,M,M,M,M,M,M,94.29,KINS 190429Z COR 29017G32KT 8SM -TSRA SCT030 BKN80CB 33/19 A2989 RMK AO2A SLPNO TSB0426 WND DATA ESTMD ALSTG ESTMD $,M
BVU,2022-08-19 04:35,-114.8611,35.9475,671.00,84.20,68.00,58.32,360.00,4.00,0.00,29.91,M,M,M,M,M,M,M,M,M,M,M,M,M,M,M,M,M,M,87.40,KBVU 190435Z AUTO 36004KT 29/20 A2991 RMK AO2 PWINO TSNO,M
CXP,2022-08-19 04:35,-119.7326,39.1923,1431.00,71.60,48.20,43.42,0.00,0.00,0.00,30.17,M,10.00,M,CLR,M,M,M,M,M,M,M,M,M,M,M,M,M,M,71.60,KCXP 190435Z AUTO 00000KT 10SM CLR 22/09 A3017 RMK AO2,M
RTS,2022-08-19 04:35,-119.8764,39.6682,1539.00,64.40,48.20,55.63,340.00,5.00,0.00,30.20,M,10.00,M,CLR,M,M,M,M,M,M,M,M,M,M,M,M,M,M,64.40,KRTS 190435Z AUTO 34005KT 10SM CLR 18/09 A3020 RMK AO2,M
MEV,2022-08-19 04:35,-119.7500,38.9963,1441.42,68.00,39.20,34.80,0.00,0.00,0.00,30.16,M,10.00,M,CLR,M,M,M,M,M,M,M,M,M,M,M,M,M,M,68.00,KMEV 190435Z AUTO 00000KT 10SM CLR 20/04 A3016 RMK AO2,M
BAM,2022-08-19 04:35,-116.8743,40.5990,1382.36,75.20,50.00,41.14,340.00,11.00,0.00,30.14,M,10.00,M,CLR,M,M,M,M,M,M,M,M,M,M,M,M,M,M,75.20,KBAM 190435Z AUTO 34011KT 10SM CLR 24/10 A3014 RMK AO1,M
HTH,2022-08-19 04:35,-118.6315,38.5448,1282.89,75.20,44.60,33.57,320.00,6.00,0.00,30.13,M,10.00,M,CLR,M,M,M,M,M,M,M,M,M,M,M,M,M,M,75.20,KHTH 190435Z AUTO 32006KT 10SM CLR 24/07 A3013 RMK A01,M
TMT,2022-08-19 04:35,-117.1971,39.4643,1749.34,60.00,39.60,46.61,170.00,3.00,0.00,30.24,M,7.00,M,CLR,M,M,M,M,M,M,M,M,M,M,M,M,M,M,60.10,KTMT 190435Z AUTO 17003KT 7SM CLR 16/04 A3024 RMK AO2 T01560042,M
VGT,2022-08-19 04:53,-115.1933,36.2111,667.00,92.00,60.00,34.65,80.00,8.00,0.00,29.90,1011.10,10.00,M,SCT,SCT,M,M,8500.00,11000.00,M,M,M,M,M,M,M,M,M,91.63,KVGT 190453Z AUTO 08008KT 10SM SCT085 SCT110 33/16 A2990 RMK AO2 LTG DSNT S SLP111 T03330156,M
LOL,2022-08-19 04:53,-118.5701,40.0684,1192.43,69.00,57.00,65.35,330.00,3.00,0.00,30.09,1015.40,10.00,M,CLR,M,M,M,M,M,M,M,M,M,M,M,M,M,M,69.10,KLOL 190453Z AUTO 33003KT 10SM CLR 21/14 A3009 RMK AO2 SLP154 T02060139,M
ELY,2022-08-19 04:53,-114.8453,39.2950,1909.00,65.00,53.00,65.56,130.00,6.00,T,30.27,1014.40,10.00,M,BKN,M,M,M,11000.00,M,M,M,M,M,M,M,M,M,M,64.90,KELY 190453Z AUTO 13006KT 10SM BKN110 18/12 A3027 RMK AO2 RAE07 SLP144 P0000 T01830117,M
P68,2022-08-19 04:53,-116.0056,39.6014,1993.00,61.00,48.00,62.23,170.00,5.00,0.00,30.24,1016.80,M,M,M,M,M,M,M,M,M,M,M,M,M,M,M,M,M,61.00,KP68 190453Z AUTO 17005KT 16/09 A3024 RMK AO1 SLP168 T01610089,M
DRA,2022-08-19 04:53,-116.0278,36.6206,1009.00,88.00,50.00,27.12,300.00,16.00,0.00,29.96,1008.70,10.00,21.00,BKN,M,M,M,11000.00,M,M,M,M,M,M,M,33.00,60.00,2022-08-19 04:14,85.28,KDRA 190453Z AUTO 30016G21KT 10SM BKN110 31/10 A2996 RMK AO2 PK WND 06033/0414 PRESRR SLP087 T03110100,M
HND,2022-08-19 04:54,-115.1344,35.9729,742.79,87.80,62.60,43.07,230.00,9.00,T,29.95,M,10.00,M,FEW,SCT,BKN,M,7000.00,9500.00,12000.00,M,VCTS,M,M,M,M,M,M,88.48,KHND 190454Z AUTO 23009KT 10SM VCTS FEW070 SCT095 BKN120 31/17 A2995 RMK AO2 TSB48RAB11E26 P0000,M
CXP,2022-08-19 04:55,-119.7326,39.1923,1431.00,69.80,46.40,43.13,0.00,0.00,0.00,30.17,M,10.00,M,CLR,M,M,M,M,M,M,M,M,M,M,M,M,M,M,69.80,KCXP 190455Z AUTO 00000KT 10SM CLR 21/08 A3017 RMK AO2,M
BVU,2022-08-19 04:55,-114.8611,35.9475,671.00,84.20,66.20,54.80,360.00,6.00,0.00,29.91,M,M,M,M,M,M,M,M,M,M,M,M,M,M,M,M,M,M,86.50,KBVU 190455Z AUTO 36006KT 29/19 A2991 RMK AO2 PWINO TSNO,M
TMT,2022-08-19 04:55,-117.1971,39.4643,1749.34,57.40,40.50,53.17,170.00,5.00,0.00,30.25,M,10.00,M,CLR,M,M,M,M,M,M,M,M,M,M,M,M,M,M,57.40,KTMT 190455Z AUTO 17005KT 10SM CLR 14/05 A3025 RMK AO2 T01410047,M
HTH,2022-08-19 04:55,-118.6315,38.5448,1282.89,75.20,44.60,33.57,320.00,7.00,0.00,30.13,M,10.00,M,CLR,M,M,M,M,M,M,M,M,M,M,M,M,M,M,75.20,KHTH 190455Z AUTO 32007KT 10SM CLR 24/07 A3013 RMK A01,M
BAM,2022-08-19 04:55,-116.8743,40.5990,1382.36,73.40,50.00,43.69,340.00,6.00,0.00,30.15,M,10.00,M,CLR,M,M,M,M,M,M,M,M,M,M,M,M,M,M,73.40,KBAM 190455Z AUTO 34006KT 10SM CLR 23/10 A3015 RMK AO1,M
MEV,2022-08-19 04:55,-119.7500,38.9963,1441.42,66.20,42.80,42.57,80.00,5.00,0.00,30.16,M,10.00,M,CLR,M,M,M,M,M,M,M,M,M,M,M,M,M,M,66.20,KMEV 190455Z AUTO 08005KT 10SM CLR 19/06 A3016 RMK AO2,M
RTS,2022-08-19 04:55,-119.8764,39.6682,1539.00,66.20,50.00,55.88,0.00,0.00,0.00,30.20,M,10.00,M,CLR,M,M,M,M,M,M,M,M,M,M,M,M,M,M,66.20,KRTS 190455Z AUTO 00000KT 10SM CLR 19/10 A3020 RMK AO2,M
RNO,2022-08-19 04:55,-119.7711,39.4839,1341.00,71.00,55.00,56.77,280.00,4.00,0.00,30.14,1015.60,10.00,M,CLR,M,M,M,M,M,M,M,M,M,M,M,M,M,M,71.10,KRNO 190455Z 28004KT 10SM CLR 22/13 A3014 RMK AO2 SLP156 T02170128,M
HND,2022-08-19 04:56,-115.1344,35.9729,742.79,88.00,62.00,42.05,230.00,9.00,T,29.95,M,10.00,M,FEW,SCT,BKN,M,7000.00,9500.00,12000.00,M,VCTS,M,M,M,M,M,M,88.47,KHND 190456Z AUTO 23009KT 10SM VCTS FEW070 SCT095 BKN120 31/17 A2995 RMK AO2 TSB48RAB11E26 SLPNO P0000 T03110167,M
TPH,2022-08-19 04:56,-117.0904,38.0505,1654.00,77.00,39.00,25.47,360.00,12.00,0.00,30.17,1013.10,10.00,M,CLR,M,M,M,M,M,M,M,M,M,M,M,M,M,M,77.00,KTPH 190456Z AUTO 36012KT 10SM CLR 25/04 A3017 RMK AO2 SLP131 T02500039,M
NFL,2022-08-19 04:56,-118.7010,39.4166,1199.00,72.00,52.00,49.33,270.00,4.00,0.00,30.10,1016.00,10.00,M,FEW,SCT,BKN,M,8000.00,12000.00,25000.00,M,M,M,M,M,M,M,M,72.00,KNFL 190456Z 27004KT 10SM FEW080 SCT120 BKN250 22/11 A3010 RMK AO2 SLP160 T02220111,M
LAS,2022-08-19 04:56,-115.1634,36.0719,663.00,89.00,63.00,41.92,240.00,4.00,T,29.90,1009.40,9.00,17.00,FEW,SCT,OVC,M,5000.00,12000.00,15000.00,M,M,M,M,M,M,M,M,89.99,KLAS 190456Z 24004G17KT 9SM FEW050 SCT120 OVC150 32/17 A2990 RMK AO2 LTG DSNT S RAE0357B31E44 SLP094 VIS LWR S-W VCSH S-W CB DSNT S-W P0000 T03170172,M
WMC,2022-08-19 04:56,-117.8072,40.9019,1315.00,66.00,51.00,58.62,0.00,0.00,0.00,30.11,1015.60,10.00,M,CLR,M,M,M,M,M,M,M,M,M,M,M,M,M,M,66.00,KWMC 190456Z AUTO 00000KT 10SM CLR 19/11 A3011 RMK AO2 SLP156 T01890106,M
EKO,2022-08-19 04:56,-115.7860,40.8242,1367.00,59.00,55.00,86.56,250.00,3.00,0.03,30.17,1017.60,10.00,M,BKN,M,M,M,9000.00,M,M,M,M,M,M,M,M,M,M,59.00,KEKO 190456Z AUTO 25003KT 10SM BKN090 15/13 A3017 RMK AO2 RAE14 SLP176 P0003 T01500128,M
LSV,2022-08-19 04:58,-115.0343,36.2362,570.00,86.00,62.60,45.61,40.00,13.00,0.00,29.85,M,10.00,M,FEW,SCT,M,M,11000.00,15000.00,M,M,M,M,M,M,M,M,M,86.72,KLSV 190458Z 04013KT 10SM FEW110 SCT150 30/17 A2985 RMK AO2A SLPNO WND DATA ESTMD $,M
INS,2022-08-19 05:02,-115.6733,36.5872,955.00,M,M,M,M,M,0.00,29.98,M,M,M,M,M,M,M,M,M,M,M,M,M,M,M,M,M,M,M,KINS 190502Z AUTO M M M M M A2998 RMK AO2 TSB0423E02 PRESRR SLPNO ALSTG ESTMD RVRNO FZRANO VISNO RWY26 $,M
INS,2022-08-19 05:08,-115.6733,36.5872,955.00,84.20,51.80,32.73,110.00,12.00,0.00,29.96,M,M,M,M,M,M,M,M,M,M,M,M,M,M,M,M,M,M,82.48,KINS 190508Z 11012KT 29/11 A2996,M
INS,2022-08-19 05:09,-115.6733,36.5872,955.00,84.20,53.60,34.97,110.00,12.00,0.00,29.96,1009.20,10.00,M,M,M,M,M,M,M,M,M,-DZ,M,M,M,M,M,M,82.76,KINS 190509Z AUTO 11012KT 10SM -DZ M 29/12 A2996 RMK AO2 DZB09 TSB0423E02 SLP092 FZRANO $,M
HND,2022-08-19 05:09,-115.1344,35.9729,742.79,86.00,64.40,48.58,190.00,11.00,T,29.94,M,10.00,M,FEW,SCT,M,M,10000.00,12000.00,M,M,-RA,M,M,M,M,M,M,87.49,KHND 190509Z AUTO 19011KT 10SM -RA FEW100 SCT120 30/18 A2994 RMK AO2 LTG DSNT SE TSE03RAB05 P0000,M
MEV,2022-08-19 05:15,-119.7500,38.9963,1441.42,62.60,44.60,51.72,140.00,7.00,0.00,30.16,M,10.00,M,CLR,M,M,M,M,M,M,M,M,M,M,M,M,M,M,62.60,KMEV 190515Z AUTO 14007KT 120V180 10SM CLR 17/07 A3016 RMK AO2,M
HTH,2022-08-19 05:15,-118.6315,38.5448,1282.89,75.20,44.60,33.57,290.00,6.00,0.00,30.13,M,10.00,M,CLR,M,M,M,M,M,M,M,M,M,M,M,M,M,M,75.20,KHTH 190515Z AUTO 29006KT 10SM CLR 24/07 A3013 RMK A01,M
TMT,2022-08-19 05:15,-117.1971,39.4643,1749.34,57.20,39.20,50.91,200.00,5.00,0.00,30.24,M,10.00,M,CLR,M,M,M,M,M,M,M,M,M,M,M,M,M,M,57.20,KTMT 190515Z AUTO 20005KT 10SM CLR 14/04 A3024 RMK AO2 T01400040,M
BVU,2022-08-19 05:15,-114.8611,35.9475,671.00,84.20,66.20,54.80,0.00,0.00,0.00,29.92,M,M,M,M,M,M,M,M,M,M,M,M,M,M,M,M,M,M,86.50,KBVU 190515Z AUTO 00000KT 29/19 A2992 RMK AO2 PWINO TSNO,M
CXP,2022-08-19 05:15,-119.7326,39.1923,1431.00,68.00,46.40,45.88,0.00,0.00,0.00,30.18,M,10.00,M,CLR,M,M,M,M,M,M,M,M,M,M,M,M,M,M,68.00,KCXP 190515Z AUTO 00000KT 10SM CLR 20/08 A3018 RMK AO2,M
RTS,2022-08-19 05:15,-119.8764,39.6682,1539.00,64.40,50.00,59.50,0.00,0.00,0.00,30.20,M,10.00,M,CLR,M,M,M,M,M,M,M,M,M,M,M,M,M,M,64.40,KRTS 190515Z AUTO 00000KT 10SM CLR 18/10 A3020 RMK AO2,M
BAM,2022-08-19 05:15,-116.8743,40.5990,1382.36,71.60,50.00,46.43,320.00,4.00,0.00,30.14,M,10.00,M,CLR,M,M,M,M,M,M,M,M,M,M,M,M,M,M,71.60,KBAM 190515Z AUTO 32004KT 10SM CLR 22/10 A3014 RMK AO1,M
HND,2022-08-19 05:23,-115.1344,35.9729,742.79,86.00,64.40,48.58,140.00,12.00,T,29.93,M,10.00,M,FEW,BKN,M,M,10000.00,12000.00,M,M,-RA,M,M,M,M,M,M,87.49,KHND 190523Z AUTO 14012KT 10SM -RA FEW100 BKN120 30/18 A2993 RMK AO2 WSHFT 0503 LTG DSNT SE TSE03RAB05 P0000,M
DRA,2022-08-19 05:27,-116.0278,36.6206,1009.00,74.00,61.00,64.07,180.00,21.00,0.05,29.96,M,9.00,35.00,BKN,M,M,M,11000.00,M,M,M,-RA,M,M,M,35.00,220.00,2022-08-19 05:18,73.90,KDRA 190527Z AUTO 18021G35KT 9SM -RA BKN110 23/16 A2996 RMK AO2 PK WND 22035/0518 WSHFT 0510 RAB10 P0005 T02330161,M
INS,2022-08-19 05:29,-115.6733,36.5872,955.00,80.60,57.20,44.80,140.00,14.00,0.00,29.95,1009.00,10.00,M,M,M,M,M,M,M,M,M,VCTS,M,M,M,M,M,M,80.81,KINS 190529Z AUTO 14014KT 10SM VCTS M 27/14 A2995 RMK AO2 DZB09E29 TSB0429E02 SLP090 $,M
INS,2022-08-19 05:34,-115.6733,36.5872,955.00,80.60,59.00,47.79,100.00,16.00,0.00,29.98,1010.10,10.00,M,FEW,BKN,BKN,OVC,5500.00,9500.00,12000.00,15000.00,VCTS,M,M,M,M,M,M,81.11,KINS 190534Z AUTO 10016KT 10SM VCTS FEW055 BKN095 BKN120 OVC150 27/15 A2998 RMK AO2 WSHFT 30 DZB09E29 TSB0429E02 PRESRR SLP101 $,M
HTH,2022-08-19 05:35,-118.6315,38.5448,1282.89,75.20,48.20,38.46,310.00,5.00,0.00,30.13,M,10.00,M,CLR,M,M,M,M,M,M,M,M,M,M,M,M,M,M,75.20,KHTH 190535Z AUTO 31005KT 10SM CLR 24/09 A3013 RMK A01,M
TMT,2022-08-19 05:35,-117.1971,39.4643,1749.34,57.40,41.00,54.21,0.00,0.00,0.00,30.25,M,10.00,M,CLR,M,M,M,M,M,M,M,M,M,M,M,M,M,M,57.40,KTMT 190535Z AUTO 00000KT 10SM CLR 14/05 A3025 RMK AO2 T01410050,M
CXP,2022-08-19 05:35,-119.7326,39.1923,1431.00,68.00,48.20,49.10,0.00,0.00,0.00,30.17,M,10.00,M,CLR,M,M,M,M,M,M,M,M,M,M,M,M,M,M,68.00,KCXP 190535Z AUTO 00000KT 10SM CLR 20/09 A3017 RMK AO2,M
BVU,2022-08-19 05:35,-114.8611,35.9475,671.00,82.40,68.00,61.81,0.00,0.00,0.00,29.92,M,M,M,M,M,M,M,M,M,M,M,M,M,M,M,M,M,M,85.38,KBVU 190535Z AUTO 00000KT 28/20 A2992 RMK AO2 PWINO TSNO,M
DRA,2022-08-19 05:35,-116.0278,36.6206,1009.00,76.00,59.00,55.80,130.00,12.00,0.05,29.96,M,10.00,29.00,BKN,M,M,M,11000.00,M,M,M,M,M,M,M,35.00,220.00,2022-08-19 05:18,75.90,KDRA 190535Z AUTO 13012G29KT 10SM BKN110 24/15 A2996 RMK AO2 PK WND 22035/0518 WSHFT 0518 RAB10E35 P0005 T02440150,M
RTS,2022-08-19 05:35,-119.8764,39.6682,1539.00,62.60,50.00,63.38,360.00,5.00,0.00,30.20,M,10.00,M,CLR,M,M,M,M,M,M,M,M,M,M,M,M,M,M,62.60,KRTS 190535Z AUTO 36005KT 10SM CLR 17/10 A3020 RMK AO2,M
MEV,2022-08-19 05:35,-119.7500,38.9963,1441.42,62.60,42.80,48.28,100.00,7.00,0.00,30.16,M,10.00,M,CLR,M,M,M,M,M,M,M,M,M,M,M,M,M,M,62.60,KMEV 190535Z AUTO 10007KT 10SM CLR 17/06 A3016 RMK AO2,M
BAM,2022-08-19 05:35,-116.8743,40.5990,1382.36,69.80,51.80,52.77,320.00,5.00,0.00,30.13,M,10.00,M,CLR,M,M,M,M,M,M,M,M,M,M,M,M,M,M,69.80,KBAM 190535Z AUTO 32005KT 10SM CLR 21/11 A3013 RMK AO1,M
LAS,2022-08-19 05:38,-115.1634,36.0719,663.00,89.00,63.00,41.92,60.00,9.00,0.00,29.91,M,10.00,M,FEW,FEW,BKN,M,5000.00,11000.00,15000.00,M,M,M,M,M,M,M,M,89.99,KLAS 190538Z 06009KT 10SM FEW050 FEW110 BKN150 32/17 A2991 RMK AO2 WSHFT 0518 LTG DSNT SE AND S CB DSNT S-SW T03170172,M
INS,2022-08-19 05:39,-115.6733,36.5872,955.00,80.60,59.00,47.79,80.00,18.00,0.00,29.98,1010.10,10.00,25.00,FEW,SCT,BKN,OVC,6000.00,9500.00,12000.00,15000.00,VCTS,M,M,M,M,M,M,81.11,KINS 190539Z AUTO 08018G25KT 10SM VCTS FEW060 SCT095 BKN120 OVC150 27/15 A2998 RMK AO2 DZB09E29 SLP101 $,M
ELY,2022-08-19 05:53,-114.8453,39.2950,1909.00,61.00,56.00,83.29,180.00,8.00,T,30.25,1013.90,10.00,M,FEW,BKN,BKN,M,5500.00,10000.00,12000.00,M,M,M,M,M,M,M,M,61.00,KELY 190553Z AUTO 18008KT 10SM FEW055 BKN100 BKN120 16/13 A3025 RMK AO2 RAB35E53 SLP139 P0000 60000 T01610133 10239 20161 50009,M
LOL,2022-08-19 05:53,-118.5701,40.0684,1192.43,64.00,55.00,72.52,80.00,3.00,0.00,30.09,1015.60,10.00,M,CLR,M,M,M,M,M,M,M,M,M,M,M,M,M,M,64.00,KLOL 190553Z AUTO 08003KT 10SM CLR 18/13 A3009 RMK AO2 SLP156 T01780128 10272 20172 51007,M
DRA,2022-08-19 05:53,-116.0278,36.6206,1009.00,79.00,59.00,50.36,90.00,14.00,0.05,29.96,1009.30,10.00,22.00,BKN,M,M,M,12000.00,M,M,M,M,M,M,M,35.00,220.00,2022-08-19 05:18,79.00,KDRA 190553Z AUTO 09014G22KT 10SM BKN120 26/15 A2996 RMK AO2 PK WND 22035/0518 WSHFT 0539 RAB10E35 SLP093 P0005 60005 T02610150 10361 20233 53007,M
P68,2022-08-19 05:53,-116.0056,39.6014,1993.00,57.00,46.00,66.59,0.00,0.00,0.00,30.24,1017.10,M,M,M,M,M,M,M,M,M,M,M,M,M,M,M,M,M,57.00,KP68 190553Z AUTO 00000KT 14/08 A3024 RMK AO1 SLP171 T01390078 10250 20133 50008,M
VGT,2022-08-19 05:53,-115.1933,36.2111,667.00,92.00,58.00,32.03,70.00,12.00,0.00,29.90,1011.00,10.00,M,CLR,M,M,M,M,M,M,M,M,M,M,M,M,M,M,90.80,KVGT 190553Z AUTO 07012KT 10SM CLR 33/14 A2990 RMK AO2 LTG DSNT N AND NW SLP110 T03330144 10367 20328 51013,M
RTS,2022-08-19 05:55,-119.8764,39.6682,1539.00,62.60,50.00,63.38,350.00,8.00,0.00,30.20,M,10.00,M,CLR,M,M,M,M,M,M,M,M,M,M,M,M,M,M,62.60,KRTS 190555Z AUTO 35008KT 10SM CLR 17/10 A3020 RMK AO2,M
TMT,2022-08-19 05:55,-117.1971,39.4643,1749.34,57.40,40.00,52.35,0.00,0.00,0.00,30.24,M,10.00,M,CLR,M,M,M,M,M,M,M,M,M,M,M,M,M,M,57.40,KTMT 190555Z AUTO 00000KT 10SM CLR 14/05 A3024 RMK AO2 T01410045,M
RNO,2022-08-19 05:55,-119.7711,39.4839,1341.00,70.00,53.00,54.98,0.00,0.00,0.00,30.14,1015.40,10.00,M,CLR,M,M,M,M,M,M,M,M,M,M,M,M,M,M,70.00,KRNO 190555Z 00000KT 10SM CLR 21/12 A3014 RMK AO2 SLP154 T02110117 10267 20206 51007,M
CXP,2022-08-19 05:55,-119.7326,39.1923,1431.00,68.00,46.40,45.88,0.00,0.00,0.00,30.18,M,10.00,M,CLR,M,M,M,M,M,M,M,M,M,M,M,M,M,M,68.00,KCXP 190555Z AUTO 00000KT 10SM CLR 20/08 A3018 RMK AO2,M
BVU,2022-08-19 05:55,-114.8611,35.9475,671.00,84.20,66.20,54.80,160.00,4.00,0.00,29.91,M,M,M,M,M,M,M,M,M,M,M,M,M,M,M,M,M,M,86.50,KBVU 190555Z AUTO 16004KT 29/19 A2991 RMK AO2 PWINO TSNO,M
HTH,2022-08-19 05:55,-118.6315,38.5448,1282.89,73.40,44.60,35.66,250.00,4.00,0.00,30.13,M,10.00,M,CLR,M,M,M,M,M,M,M,M,M,M,M,M,M,M,73.40,KHTH 190555Z AUTO 25004KT 10SM CLR 23/07 A3013 RMK A01,M
BAM,2022-08-19 05:55,-116.8743,40.5990,1382.36,69.80,51.80,52.77,320.00,3.00,0.00,30.13,M,10.00,M,CLR,M,M,M,M,M,M,M,M,M,M,M,M,M,M,69.80,KBAM 190555Z AUTO 32003KT 10SM CLR 21/11 A3013 RMK AO1,M
MEV,2022-08-19 05:55,-119.7500,38.9963,1441.42,60.80,42.80,51.45,120.00,10.00,0.00,30.16,M,10.00,M,CLR,M,M,M,M,M,M,M,M,M,M,M,M,M,M,60.80,KMEV 190555Z AUTO 12010KT 10SM CLR 16/06 A3016 RMK AO2,M
HND,2022-08-19 05:56,-115.1344,35.9729,742.79,88.00,63.00,43.40,80.00,5.00,T,29.93,1011.80,10.00,M,FEW,M,M,M,9000.00,M,M,M,M,M,M,M,M,M,M,88.86,KHND 190556Z AUTO 08005KT 10SM FEW090 31/17 A2993 RMK AO2 WSHFT 0503 LTG DSNT N AND SE TSE03RAB05E28 SLP118 P0000 60000 T03110172 10356 20300 50001,M
NFL,2022-08-19 05:56,-118.7010,39.4166,1199.00,69.00,52.00,54.45,320.00,5.00,0.00,30.10,1016.00,10.00,M,FEW,SCT,BKN,M,8000.00,12000.00,25000.00,M,M,M,M,M,M,M,M,69.10,KNFL 190556Z 32005KT 10SM FEW080 SCT120 BKN250 21/11 A3010 RMK AO2 SLP160 T02060111 10306 20206 51007,M
WMC,2022-08-19 05:56,-117.8072,40.9019,1315.00,70.00,51.00,51.07,50.00,10.00,0.00,30.11,1014.70,10.00,M,CLR,M,M,M,M,M,M,M,M,M,M,M,M,M,M,70.00,KWMC 190556Z AUTO 05010KT 10SM CLR 21/11 A3011 RMK AO2 SLP147 T02110106 10328 20189 50004,M
LAS,2022-08-19 05:56,-115.1634,36.0719,663.00,89.00,64.00,43.42,60.00,10.00,0.00,29.91,1009.80,10.00,M,FEW,SCT,BKN,M,5000.00,11000.00,15000.00,M,M,M,M,M,M,M,M,90.49,KLAS 190556Z 06010KT 10SM FEW050 SCT110 BKN150 32/18 A2991 RMK AO2 WSHFT 0518 LTG DSNT N AND S AND NW SLP098 ACC N-NE AND DSNT W CB DSNT N AND S 60000 T03170178 10361 20311 51013,M
EKO,2022-08-19 05:56,-115.7860,40.8242,1367.00,54.00,54.00,100.00,210.00,4.00,0.00,30.17,1017.50,10.00,M,CLR,M,M,M,M,M,M,M,M,M,M,M,M,M,M,54.00,KEKO 190556Z AUTO 21004KT 10SM CLR 12/12 A3017 RMK AO2 SLP175 60005 T01220122 10278 20122 57004,M
TPH,2022-08-19 05:56,-117.0904,38.0505,1654.00,73.00,43.00,34.00,10.00,7.00,0.00,30.18,1013.60,10.00,M,CLR,M,M,M,M,M,M,M,M,M,M,M,M,M,M,73.00,KTPH 190556Z AUTO 01007KT 10SM CLR 23/06 A3018 RMK AO2 SLP136 T02280061 10311 20228 51012,M
DRA,2022-08-19 05:57,-116.0278,36.6206,1009.00,79.00,58.00,48.41,100.00,14.00,0.00,29.96,M,10.00,M,SCT,M,M,M,12000.00,M,M,M,M,M,M,M,M,M,M,79.00,KDRA 190557Z AUTO 10014KT 10SM SCT120 26/14 A2996 RMK AO2 WSHFT 0540 T02610144,M
INS,2022-08-19 05:58,-115.6733,36.5872,955.00,78.00,57.70,49.84,110.00,11.00,T,29.99,1010.40,10.00,15.00,BKN,OVC,M,M,13000.00,15000.00,M,M,M,M,M,M,M,M,M,77.90,KINS 190558Z AUTO 11011G15KT 10SM BKN130 OVC150 26/14 A2999 RMK AO2 DZB09E29 SLP104 P0000 6//// T02550143 10354 20255 $,M
LSV,2022-08-19 05:58,-115.0343,36.2362,570.00,86.00,64.40,48.58,30.00,14.00,0.00,29.88,M,10.00,M,FEW,SCT,BKN,M,11000.00,13000.00,15000.00,M,M,M,M,M,M,M,M,87.49,KLSV 190558Z 03014KT 10SM FEW110 SCT130 BKN150 30/18 A2988 RMK AO2A SLPNO WND DATA ESTMD 10378 20342 $,M
CXP,2022-08-19 06:15,-119.7326,39.1923,1431.00,68.00,48.20,49.10,0.00,0.00,0.00,30.18,M,10.00,M,CLR,M,M,M,M,M,M,M,M,M,M,M,M,M,M,68.00,KCXP 190615Z AUTO 00000KT 10SM CLR 20/09 A3018 RMK AO2,M
BVU,2022-08-19 06:15,-114.8611,35.9475,671.00,84.20,68.00,58.32,50.00,5.00,0.00,29.91,M,M,M,M,M,M,M,M,M,M,M,M,M,M,M,M,M,M,87.40,KBVU 190615Z AUTO 05005KT 29/20 A2991 RMK AO2 PWINO TSNO,M
RTS,2022-08-19 06:15,-119.8764,39.6682,1539.00,62.60,50.00,63.38,340.00,5.00,0.00,30.20,M,10.00,M,CLR,M,M,M,M,M,M,M,M,M,M,M,M,M,M,62.60,KRTS 190615Z AUTO 34005KT 10SM CLR 17/10 A3020 RMK AO2,M
MEV,2022-08-19 06:15,-119.7500,38.9963,1441.42,64.40,42.80,45.32,100.00,8.00,0.00,30.16,M,10.00,M,CLR,M,M,M,M,M,M,M,M,M,M,M,M,M,M,64.40,KMEV 190615Z AUTO 10008KT 10SM CLR 18/06 A3016 RMK AO2,M
BAM,2022-08-19 06:15,-116.8743,40.5990,1382.36,64.40,50.00,59.50,140.00,5.00,0.00,30.13,M,10.00,M,CLR,M,M,M,M,M,M,M,M,M,M,M,M,M,M,64.40,KBAM 190615Z AUTO 14005KT 10SM CLR 18/10 A3013 RMK AO1,M
HTH,2022-08-19 06:15,-118.6315,38.5448,1282.89,73.40,46.40,38.18,210.00,5.00,0.00,30.13,M,10.00,M,CLR,M,M,M,M,M,M,M,M,M,M,M,M,M,M,73.40,KHTH 190615Z AUTO 21005KT 10SM CLR 23/08 A3013 RMK A01,M
TMT,2022-08-19 06:15,-117.1971,39.4643,1749.34,58.00,40.60,52.42,0.00,0.00,0.00,30.24,M,10.00,M,CLR,M,M,M,M,M,M,M,M,M,M,M,M,M,M,57.90,KTMT 190615Z AUTO 00000KT 10SM CLR 14/05 A3024 RMK AO2 T01440048,M
VGT,2022-08-19 06:29,-115.1933,36.2111,667.00,79.00,67.00,66.49,350.00,11.00,0.03,29.93,M,10.00,28.00,FEW,BKN,BKN,M,3200.00,3900.00,7000.00,M,VCTS -RA,M,M,M,28.00,330.00,2022-08-19 06:21,79.00,KVGT 190629Z AUTO 35011G28KT 10SM VCTS -RA FEW032 BKN039 BKN070 26/19 A2993 RMK AO2 PK WND 33028/0621 WSHFT 0612 LTG DSNT N RAB14 P0003 T02610194,M
LSV,2022-08-19 06:30,-115.0343,36.2362,570.00,M,M,M,340.00,26.00,0.00,M,M,3.00,M,SCT,M,M,M,6000.00,M,M,M,TSRA,M,M,M,M,M,M,M,KLSV 190630Z 34026KT 3SM TSRA SCT060 RMK AO2A TSB30 SLPNO WND DATA ESTMD $,M
MEV,2022-08-19 06:35,-119.7500,38.9963,1441.42,60.80,42.80,51.45,120.00,7.00,0.00,30.16,M,10.00,M,CLR,M,M,M,M,M,M,M,M,M,M,M,M,M,M,60.80,KMEV 190635Z AUTO 12007KT 10SM CLR 16/06 A3016 RMK AO2,M
TMT,2022-08-19 06:35,-117.1971,39.4643,1749.34,58.00,41.70,54.70,240.00,6.00,0.00,30.24,M,10.00,M,SCT,M,M,M,11000.00,M,M,M,M,M,M,M,M,M,M,57.90,KTMT 190635Z AUTO 24006KT 10SM SCT110 14/05 A3024 RMK AO2 T01440054,M
RTS,2022-08-19 06:35,-119.8764,39.6682,1539.00,60.80,50.00,67.54,360.00,3.00,0.00,30.20,M,10.00,M,CLR,M,M,M,M,M,M,M,M,M,M,M,M,M,M,60.80,KRTS 190635Z AUTO 36003KT 10SM CLR 16/10 A3020 RMK AO2,M
BVU,2022-08-19 06:35,-114.8611,35.9475,671.00,82.40,68.00,61.81,40.00,5.00,0.00,29.91,M,M,M,M,M,M,M,M,M,M,M,M,M,M,M,M,M,M,85.38,KBVU 190635Z AUTO 04005KT 28/20 A2991 RMK AO2 PWINO TSNO,M
CXP,2022-08-19 06:35,-119.7326,39.1923,1431.00,64.40,46.40,51.98,280.00,3.00,0.00,30.18,M,10.00,M,CLR,M,M,M,M,M,M,M,M,M,M,M,M,M,M,64.40,KCXP 190635Z AUTO 28003KT 10SM CLR 18/08 A3018 RMK AO2,M
HTH,2022-08-19 06:35,-118.6315,38.5448,1282.89,73.40,44.60,35.66,0.00,0.00,0.00,30.14,M,10.00,M,CLR,M,M,M,M,M,M,M,M,M,M,M,M,M,M,73.40,KHTH 190635Z AUTO 00000KT 10SM CLR 23/07 A3014 RMK A01,M
BAM,2022-08-19 06:35,-116.8743,40.5990,1382.36,64.40,50.00,59.50,0.00,0.00,0.00,30.13,M,10.00,M,CLR,M,M,M,M,M,M,M,M,M,M,M,M,M,M,64.40,KBAM 190635Z AUTO 00000KT 10SM CLR 18/10 A3013 RMK AO1,M
VGT,2022-08-19 06:36,-115.1933,36.2111,667.00,80.00,67.00,64.14,350.00,13.00,0.03,29.92,M,10.00,22.00,SCT,SCT,SCT,M,4100.00,7000.00,9000.00,M,TS,M,M,M,28.00,330.00,2022-08-19 06:21,82.40,KVGT 190636Z AUTO 35013G22KT 10SM TS SCT041 SCT070 SCT090 27/19 A2992 RMK AO2 PK WND 33028/0621 WSHFT 0612 LTG DSNT N AND NE RAB14E36 TSB30 P0003 T02670194,M
LAS,2022-08-19 06:38,-115.1634,36.0719,663.00,89.00,59.00,36.37,20.00,16.00,0.00,29.93,M,10.00,M,FEW,BKN,BKN,M,6000.00,12000.00,15000.00,M,VCTS,M,M,M,M,M,M,88.37,KLAS 190638Z 02016KT 10SM VCTS FEW060 BKN120CB BKN150 32/15 A2993 RMK AO2 LTG DSNT N OCNL LTGIC VC N TSB35 TS VC N T03170150,M
LSV,2022-08-19 06:42,-115.0343,36.2362,570.00,86.00,62.60,45.61,320.00,35.00,0.00,29.89,1009.30,6.00,44.00,SCT,BKN,M,M,5000.00,12000.00,M,M,-TSRA,M,M,M,M,M,M,86.72,KLSV 190642Z 32035G44KT 6SM -TSRA SCT050 BKN120 30/17 A2989 RMK AO2A RAB42 TSB30 SLP093 $,M
LAS,2022-08-19 06:52,-115.1634,36.0719,663.00,84.20,62.60,48.32,340.00,12.00,0.00,29.95,M,10.00,M,FEW,SCT,BKN,BKN,5500.00,7000.00,12000.00,15000.00,TS,M,M,M,M,M,M,85.03,KLAS 190652Z 34012KT 10SM TS FEW055 SCT070 BKN120CB BKN150 29/17 A2995 RMK AO2 WSHFT 0638 LTG DSNT N AND NE FRQ LTGICCCCG N-NE TSB35 TS N-NE MOV S,M
P68,2022-08-19 06:53,-116.0056,39.6014,1993.00,55.00,46.00,71.60,220.00,4.00,0.00,30.23,1016.90,M,M,M,M,M,M,M,M,M,M,M,M,M,M,M,M,M,55.00,KP68 190653Z AUTO 22004KT 13/08 A3023 RMK AO1 SLP169 T01280078,M
LOL,2022-08-19 06:53,-118.5701,40.0684,1192.43,66.00,56.00,69.88,80.00,3.00,0.00,30.09,1015.40,10.00,M,CLR,M,M,M,M,M,M,M,M,M,M,M,M,M,M,66.00,KLOL 190653Z AUTO 08003KT 10SM CLR 19/13 A3009 RMK AO2 SLP154 T01890133,M
VGT,2022-08-19 06:53,-115.1933,36.2111,667.00,81.00,63.00,54.36,30.00,16.00,0.03,29.93,1012.00,10.00,26.00,FEW,FEW,M,M,3400.00,11000.00,M,M,VCTS,M,M,M,28.00,330.00,2022-08-19 06:21,82.28,KVGT 190653Z AUTO 03016G26KT 10SM VCTS FEW034 FEW110 27/17 A2993 RMK AO2 PK WND 33028/0621 WSHFT 0612 LTG DSNT NE AND E RAB14E36 TSB30E47 SLP120 P0003 T02720172,M
ELY,2022-08-19 06:53,-114.8453,39.2950,1909.00,60.00,56.00,85.99,150.00,8.00,0.00,30.24,1013.10,10.00,M,CLR,M,M,M,M,M,M,M,M,M,M,M,M,M,M,60.10,KELY 190653Z AUTO 15008KT 10SM CLR 16/13 A3024 RMK AO2 SLP131 T01560133 403000128,M
DRA,2022-08-19 06:53,-116.0278,36.6206,1009.00,77.00,61.00,57.77,110.00,16.00,0.00,29.96,1009.20,10.00,25.00,CLR,M,M,M,M,M,M,M,M,M,M,M,M,M,M,77.00,KDRA 190653Z AUTO 11016G25KT 10SM CLR 25/16 A2996 RMK AO2 WSHFT 0540 SLP092 T02500161,M
HTH,2022-08-19 06:55,-118.6315,38.5448,1282.89,73.40,46.40,38.18,230.00,4.00,0.00,30.13,M,10.00,M,CLR,M,M,M,M,M,M,M,M,M,M,M,M,M,M,73.40,KHTH 190655Z AUTO 23004KT 10SM CLR 23/08 A3013 RMK A01,M
TMT,2022-08-19 06:55,-117.1971,39.4643,1749.34,58.00,42.40,55.79,210.00,6.00,0.00,30.24,M,10.00,M,CLR,M,M,M,M,M,M,M,M,M,M,M,M,M,M,58.10,KTMT 190655Z AUTO 21006KT 10SM CLR 15/06 A3024 RMK AO2 T01450058,M
RTS,2022-08-19 06:55,-119.8764,39.6682,1539.00,60.80,50.00,67.54,340.00,4.00,0.00,30.20,M,10.00,M,CLR,M,M,M,M,M,M,M,M,M,M,M,M,M,M,60.80,KRTS 190655Z AUTO 34004KT 10SM CLR 16/10 A3020 RMK AO2,M
RNO,2022-08-19 06:55,-119.7711,39.4839,1341.00,68.00,51.00,54.70,0.00,0.00,0.00,30.15,1015.60,10.00,M,CLR,M,M,M,M,M,M,M,M,M,M,M,M,M,M,68.00,KRNO 190655Z 00000KT 10SM CLR 20/11 A3015 RMK AO2 SLP156 T02000106,M
BVU,2022-08-19 06:55,-114.8611,35.9475,671.00,82.40,68.00,61.81,20.00,8.00,0.00,29.91,M,M,M,M,M,M,M,M,M,M,M,M,M,M,M,M,M,M,85.38,KBVU 190655Z AUTO 02008KT 28/20 A2991 RMK AO2 PWINO TSNO,M
CXP,2022-08-19 06:55,-119.7326,39.1923,1431.00,66.20,48.20,52.25,300.00,3.00,0.00,30.18,M,10.00,M,CLR,M,M,M,M,M,M,M,M,M,M,M,M,M,M,66.20,KCXP 190655Z AUTO 30003KT 10SM CLR 19/09 A3018 RMK AO2,M
MEV,2022-08-19 06:55,-119.7500,38.9963,1441.42,59.00,42.80,54.86,160.00,4.00,0.00,30.17,M,10.00,M,CLR,M,M,M,M,M,M,M,M,M,M,M,M,M,M,59.00,KMEV 190655Z AUTO 16004KT 10SM CLR 15/06 A3017 RMK AO2,M
BAM,2022-08-19 06:55,-116.8743,40.5990,1382.36,62.60,51.80,67.75,260.00,3.00,0.00,30.13,M,10.00,M,CLR,M,M,M,M,M,M,M,M,M,M,M,M,M,M,62.60,KBAM 190655Z AUTO 26003KT 10SM CLR 17/11 A3013 RMK AO1,M
HND,2022-08-19 06:56,-115.1344,35.9729,742.79,78.00,67.00,68.49,20.00,11.00,0.15,29.98,1013.60,9.00,M,FEW,BKN,OVC,M,5000.00,9500.00,11000.00,M,+RA,M,M,M,M,M,M,78.10,KHND 190656Z AUTO 02011KT 9SM +RA FEW050 BKN095 OVC110 26/19 A2998 RMK AO2 LTG DSNT N AND NE RAB28 SLP136 P0015 T02560194 403720250,M
NFL,2022-08-19 06:56,-118.7010,39.4166,1199.00,65.00,51.00,60.90,M,5.00,0.00,30.10,1016.00,10.00,M,FEW,FEW,SCT,M,8000.00,12000.00,25000.00,M,M,M,M,M,M,M,M,64.90,KNFL 190656Z VRB05KT 10SM FEW080 FEW120 SCT250 18/11 A3010 RMK AO2 SLP160 T01830106,M
TPH,2022-08-19 06:56,-117.0904,38.0505,1654.00,71.00,42.00,35.02,350.00,8.00,0.00,30.19,1014.00,10.00,M,CLR,M,M,M,M,M,M,M,M,M,M,M,M,M,M,71.10,KTPH 190656Z AUTO 35008KT 10SM CLR 22/06 A3019 RMK AO2 SLP140 T02170056,M
EKO,2022-08-19 06:56,-115.7860,40.8242,1367.00,55.00,54.00,96.42,0.00,0.00,0.00,30.16,1017.30,10.00,M,CLR,M,M,M,M,M,M,M,M,M,M,M,M,M,M,55.00,KEKO 190656Z AUTO 00000KT 10SM CLR 13/12 A3016 RMK AO2 SLP173 T01280122,M
WMC,2022-08-19 06:56,-117.8072,40.9019,1315.00,67.00,50.00,54.54,290.00,6.00,0.00,30.11,1014.60,10.00,M,CLR,M,M,M,M,M,M,M,M,M,M,M,M,M,M,66.90,KWMC 190656Z AUTO 29006KT 10SM CLR 19/10 A3011 RMK AO2 SLP146 T01940100,M
LAS,2022-08-19 06:56,-115.1634,36.0719,663.00,85.00,63.00,47.91,340.00,11.00,0.00,29.95,1011.10,10.00,M,FEW,SCT,BKN,BKN,5500.00,7000.00,12000.00,15000.00,TS,M,M,M,M,M,M,85.83,KLAS 190656Z 34011KT 10SM TS FEW055 SCT070 BKN120CB BKN150 29/17 A2995 RMK AO2 WSHFT 0638 LTG DSNT N AND NE SLP111 FRQ LTGICCCCG N-NE TSB51 TS N-NE MOV S T02940172,M
LSV,2022-08-19 06:58,-115.0343,36.2362,570.00,73.60,66.60,78.75,110.00,13.00,0.00,29.92,1010.60,8.00,25.00,SCT,SCT,M,M,3100.00,6000.00,M,M,-TSRA,M,M,M,45.00,330.00,2022-08-19 06:42,73.60,KLSV 190658Z 11013G25KT 8SM -TSRA SCT031 SCT060 23/19 A2992 RMK PK WND 33045/0642 RAB0642 TSB0630 SLP106 P//// T02310192 404110228 $,M
INS,2022-08-19 06:58,-115.6733,36.5872,955.00,78.80,58.60,49.97,100.00,10.00,0.00,29.98,1009.90,10.00,M,SCT,SCT,M,M,15000.00,18000.00,M,M,M,M,M,M,M,M,M,78.80,KINS 190658Z AUTO 10010KT 10SM SCT150 SCT180 26/15 A2998 RMK AO2 SLP099 T02600148 $,M
BVU,2022-08-19 07:15,-114.8611,35.9475,671.00,86.00,59.00,40.14,350.00,19.00,0.00,29.92,M,M,24.00,M,M,M,M,M,M,M,M,M,M,M,M,M,M,M,85.47,KBVU 190715Z AUTO 35019G24KT 30/15 A2992 RMK AO2 PWINO TSNO,M
CXP,2022-08-19 07:15,-119.7326,39.1923,1431.00,64.40,48.20,55.63,0.00,0.00,0.00,30.18,M,10.00,M,CLR,M,M,M,M,M,M,M,M,M,M,M,M,M,M,64.40,KCXP 190715Z AUTO 00000KT 10SM CLR 18/09 A3018 RMK AO2,M
RTS,2022-08-19 07:15,-119.8764,39.6682,1539.00,60.80,50.00,67.54,350.00,5.00,0.00,30.20,M,10.00,M,CLR,M,M,M,M,M,M,M,M,M,M,M,M,M,M,60.80,KRTS 190715Z AUTO 35005KT 10SM CLR 16/10 A3020 RMK AO2,M
MEV,2022-08-19 07:15,-119.7500,38.9963,1441.42,60.80,42.80,51.45,0.00,0.00,0.00,30.17,M,10.00,M,CLR,M,M,M,M,M,M,M,M,M,M,M,M,M,M,60.80,KMEV 190715Z AUTO 00000KT 10SM CLR 16/06 A3017 RMK AO2,M
TMT,2022-08-19 07:15,-117.1971,39.4643,1749.34,56.50,41.40,56.87,220.00,7.00,0.00,30.24,M,10.00,M,CLR,M,M,M,M,M,M,M,M,M,M,M,M,M,M,56.50,KTMT 190715Z AUTO 22007KT 10SM CLR 14/05 A3024 RMK AO2 T01360052,M
BAM,2022-08-19 07:15,-116.8743,40.5990,1382.36,64.40,51.80,63.60,280.00,4.00,0.00,30.13,M,10.00,M,CLR,M,M,M,M,M,M,M,M,M,M,M,M,M,M,64.40,KBAM 190715Z AUTO 28004KT 10SM CLR 18/11 A3013 RMK AO1,M
HTH,2022-08-19 07:15,-118.6315,38.5448,1282.89,71.60,50.00,46.43,0.00,0.00,0.00,30.14,M,10.00,M,CLR,M,M,M,M,M,M,M,M,M,M,M,M,M,M,71.60,KHTH 190715Z AUTO 00000KT 10SM CLR 22/10 A3014 RMK A01,M
VGT,2022-08-19 07:21,-115.1933,36.2111,667.00,79.00,62.00,56.23,40.00,9.00,0.00,29.93,M,10.00,16.00,FEW,SCT,BKN,M,7000.00,9000.00,11000.00,M,M,M,M,M,M,M,M,79.00,KVGT 190721Z AUTO 04009G16KT 10SM FEW070 SCT090 BKN110 26/17 A2993 RMK AO2 LTG DSNT E AND SE T02610167,M
MEV,2022-08-19 07:35,-119.7500,38.9963,1441.42,57.20,42.80,58.52,140.00,7.00,0.00,30.17,M,10.00,M,CLR,M,M,M,M,M,M,M,M,M,M,M,M,M,M,57.20,KMEV 190735Z AUTO 14007KT 10SM CLR 14/06 A3017 RMK AO2,M
RTS,2022-08-19 07:35,-119.8764,39.6682,1539.00,60.80,50.00,67.54,360.00,3.00,0.00,30.20,M,10.00,M,CLR,M,M,M,M,M,M,M,M,M,M,M,M,M,M,60.80,KRTS 190735Z AUTO 36003KT 10SM CLR 16/10 A3020 RMK AO2,M
BVU,2022-08-19 07:35,-114.8611,35.9475,671.00,80.60,62.60,54.30,350.00,18.00,0.00,29.92,M,M,M,M,M,M,M,M,M,M,M,M,M,M,M,M,M,M,81.84,KBVU 190735Z AUTO 35018KT 27/17 A2992 RMK AO2 PWINO TSNO,M
TMT,2022-08-19 07:35,-117.1971,39.4643,1749.34,55.00,42.80,63.61,210.00,3.00,0.00,30.24,M,10.00,M,CLR,M,M,M,M,M,M,M,M,M,M,M,M,M,M,54.90,KTMT 190735Z AUTO 21003KT 10SM CLR 13/06 A3024 RMK AO2 T01270060,M
CXP,2022-08-19 07:35,-119.7326,39.1923,1431.00,62.60,48.20,59.26,0.00,0.00,0.00,30.18,M,10.00,M,CLR,M,M,M,M,M,M,M,M,M,M,M,M,M,M,62.60,KCXP 190735Z AUTO 00000KT 10SM CLR 17/09 A3018 RMK AO2,M
HTH,2022-08-19 07:35,-118.6315,38.5448,1282.89,71.60,48.20,43.42,110.00,3.00,0.00,30.14,M,10.00,M,CLR,M,M,M,M,M,M,M,M,M,M,M,M,M,M,71.60,KHTH 190735Z AUTO 11003KT 10SM CLR 22/09 A3014 RMK A01,M
BAM,2022-08-19 07:35,-116.8743,40.5990,1382.36,62.60,51.80,67.75,0.00,0.00,0.00,30.13,M,10.00,M,CLR,M,M,M,M,M,M,M,M,M,M,M,M,M,M,62.60,KBAM 190735Z AUTO 00000KT 10SM CLR 17/11 A3013 RMK AO1,M
ELY,2022-08-19 07:53,-114.8453,39.2950,1909.00,59.00,56.00,89.44,160.00,3.00,0.00,30.23,1012.80,10.00,M,CLR,M,M,M,M,M,M,M,M,M,M,M,M,M,M,59.00,KELY 190753Z AUTO 16003KT 10SM CLR 15/13 A3023 RMK AO2 SLP128 T01500133,M
P68,2022-08-19 07:53,-116.0056,39.6014,1993.00,55.00,45.00,68.93,150.00,6.00,0.00,30.22,1016.00,M,M,M,M,M,M,M,M,M,M,M,M,M,M,M,M,M,55.00,KP68 190753Z AUTO 15006KT 13/07 A3022 RMK AO1 SLP160 T01280072 402830117,M
LOL,2022-08-19 07:53,-118.5701,40.0684,1192.43,61.00,53.00,75.20,0.00,0.00,0.00,30.09,1015.40,10.00,M,CLR,M,M,M,M,M,M,M,M,M,M,M,M,M,M,61.00,KLOL 190753Z AUTO 00000KT 10SM CLR 16/12 A3009 RMK AO2 SLP154 T01610117 403000156,M
DRA,2022-08-19 07:53,-116.0278,36.6206,1009.00,77.00,60.00,55.95,210.00,6.00,0.00,29.98,1009.40,10.00,M,CLR,M,M,M,M,M,M,M,M,M,M,M,M,M,M,77.00,KDRA 190753Z AUTO 21006KT 10SM CLR 25/16 A2998 RMK AO2 SLP094 T02500156 403890233,M
VGT,2022-08-19 07:53,-115.1933,36.2111,667.00,79.00,62.00,56.23,0.00,0.00,0.00,29.93,1012.30,10.00,M,SCT,M,M,M,10000.00,M,M,M,M,M,M,M,M,M,M,79.00,KVGT 190753Z AUTO 00000KT 10SM SCT100 26/17 A2993 RMK AO2 LTG DSNT SE SLP123 T02610167 403830261,M
CXP,2022-08-19 07:55,-119.7326,39.1923,1431.00,62.60,48.20,59.26,0.00,0.00,0.00,30.18,M,10.00,M,CLR,M,M,M,M,M,M,M,M,M,M,M,M,M,M,62.60,KCXP 190755Z AUTO 00000KT 10SM CLR 17/09 A3018 RMK AO2,M
RTS,2022-08-19 07:55,-119.8764,39.6682,1539.00,60.80,50.00,67.54,0.00,0.00,0.00,30.20,M,10.00,M,CLR,M,M,M,M,M,M,M,M,M,M,M,M,M,M,60.80,KRTS 190755Z AUTO 00000KT 10SM CLR 16/10 A3020 RMK AO2,M
MEV,2022-08-19 07:55,-119.7500,38.9963,1441.42,55.40,42.80,62.46,150.00,4.00,0.00,30.17,M,10.00,M,CLR,M,M,M,M,M,M,M,M,M,M,M,M,M,M,55.40,KMEV 190755Z AUTO 15004KT 10SM CLR 13/06 A3017 RMK AO2,M
BAM,2022-08-19 07:55,-116.8743,40.5990,1382.36,60.80,51.80,72.20,0.00,0.00,0.00,30.12,M,10.00,M,CLR,M,M,M,M,M,M,M,M,M,M,M,M,M,M,60.80,KBAM 190755Z AUTO 00000KT 10SM CLR 16/11 A3012 RMK AO1,M
HTH,2022-08-19 07:55,-118.6315,38.5448,1282.89,71.60,48.20,43.42,0.00,0.00,0.00,30.13,M,10.00,M,CLR,M,M,M,M,M,M,M,M,M,M,M,M,M,M,71.60,KHTH 190755Z AUTO 00000KT 10SM CLR 22/09 A3013 RMK A01,M
TMT,2022-08-19 07:55,-117.1971,39.4643,1749.34,52.00,39.40,62.02,0.00,0.00,0.00,30.23,M,10.00,M,CLR,M,M,M,M,M,M,M,M,M,M,M,M,M,M,52.00,KTMT 190755Z AUTO 00000KT 10SM CLR 11/04 A3023 RMK AO2 T01110041,M
BVU,2022-08-19 07:55,-114.8611,35.9475,671.00,77.00,62.60,61.13,350.00,13.00,0.00,29.93,M,M,26.00,M,M,M,M,M,M,M,M,M,M,M,M,M,M,M,77.00,KBVU 190755Z AUTO 35013G26KT 25/17 A2993 RMK AO2 PWINO TSNO,M
RNO,2022-08-19 07:55,-119.7711,39.4839,1341.00,65.00,51.00,60.90,0.00,0.00,0.00,30.15,1015.50,10.00,M,CLR,M,M,M,M,M,M,M,M,M,M,M,M,M,M,64.90,KRNO 190755Z 00000KT 10SM CLR 18/11 A3015 RMK AO2 SLP155 T01830106 403000161,M
TPH,2022-08-19 07:56,-117.0904,38.0505,1654.00,70.00,45.00,40.63,50.00,9.00,0.00,30.18,1013.80,10.00,M,CLR,M,M,M,M,M,M,M,M,M,M,M,M,M,M,70.00,KTPH 190756Z AUTO 05009KT 10SM CLR 21/07 A3018 RMK AO2 SLP138 T02110072 403170172,M
LAS,2022-08-19 07:56,-115.1634,36.0719,663.00,81.00,60.00,49.06,280.00,5.00,0.00,29.94,1010.70,10.00,M,FEW,BKN,BKN,M,7000.00,12000.00,15000.00,M,TS,M,M,M,M,M,M,81.62,KLAS 190756Z 28005KT 10SM TS FEW070 BKN120CB BKN150 27/16 A2994 RMK AO2 LTG DSNT SE SLP107 OCNL LTGICCCCG NE-SE TS NE-SE MOV S VCSH NE T02720156 403830267,M
NFL,2022-08-19 07:56,-118.7010,39.4166,1199.00,66.00,51.00,58.62,190.00,6.00,0.00,30.09,1015.60,10.00,M,CLR,M,M,M,M,M,M,M,M,M,M,M,M,M,M,66.00,KNFL 190756Z AUTO 19006KT 10SM CLR 19/11 A3009 RMK AO2 SLP156 T01890106 403110167,M
HND,2022-08-19 07:56,-115.1344,35.9729,742.79,78.00,67.00,68.49,0.00,0.00,0.04,29.98,1013.50,10.00,M,BKN,M,M,M,11000.00,M,M,M,M,M,M,M,M,M,M,78.10,KHND 190756Z AUTO 00000KT 10SM BKN110 26/19 A2998 RMK AO2 LTG DSNT E RAE19 SLP135 P0004 T02560194,M
WMC,2022-08-19 07:56,-117.8072,40.9019,1315.00,62.00,50.00,64.50,0.00,0.00,0.00,30.10,1014.50,10.00,M,CLR,M,M,M,M,M,M,M,M,M,M,M,M,M,M,62.10,KWMC 190756Z AUTO 00000KT 10SM CLR 17/10 A3010 RMK AO2 SLP145 T01670100 403280161,M
EKO,2022-08-19 07:56,-115.7860,40.8242,1367.00,53.00,53.00,100.00,0.00,0.00,0.00,30.15,1016.90,10.00,M,CLR,M,M,M,M,M,M,M,M,M,M,M,M,M,M,53.10,KEKO 190756Z AUTO 00000KT 10SM CLR 12/12 A3015 RMK AO2 SLP169 T01170117 402780117,M
LSV,2022-08-19 07:56,-115.0343,36.2362,570.00,75.20,75.20,100.00,50.00,9.00,0.00,29.89,1009.60,10.00,M,BKN,M,M,M,16000.00,M,M,M,M,M,M,M,M,M,M,75.20,KLSV 190756Z COR 05009KT 10SM BKN160 24/24 A2989 RMK SLP096 60045 WND DATA ESTMD ALSTG/SLP096 ESTMD $ COR 0808,M
INS,2022-08-19 07:58,-115.6733,36.5872,955.00,78.40,58.30,50.09,80.00,4.00,0.00,29.99,1010.20,10.00,M,BKN,BKN,M,M,13000.00,17000.00,M,M,M,M,M,M,M,M,M,78.40,KINS 190758Z AUTO 08004KT 10SM BKN130 BKN170 26/15 A2999 RMK AO2 SLP102 T02580146 403590236 $,M
LAS,2022-08-19 08:10,-115.1634,36.0719,663.00,82.00,60.00,47.49,270.00,7.00,0.00,29.93,M,10.00,M,FEW,BKN,BKN,M,7000.00,12000.00,15000.00,M,M,M,M,M,M,M,M,82.40,KLAS 190810Z 27007KT 10SM FEW070 BKN120 BKN150 28/16 A2993 RMK AO2 TSE10 TS DSIPTD ACC NE-SE CB DSNT SE T02780156,M
HTH,2022-08-19 08:15,-118.6315,38.5448,1282.89,69.80,50.00,49.37,M,3.00,0.00,30.13,M,10.00,M,CLR,M,M,M,M,M,M,M,M,M,M,M,M,M,M,69.80,KHTH 190815Z AUTO VRB03KT 10SM CLR 21/10 A3013 RMK A01,M
TMT,2022-08-19 08:15,-117.1971,39.4643,1749.34,53.80,41.40,62.74,240.00,3.00,0.00,30.22,M,10.00,M,CLR,M,M,M,M,M,M,M,M,M,M,M,M,M,M,53.80,KTMT 190815Z AUTO 24003KT 10SM CLR 12/05 A3022 RMK AO2 T01210052,M
BAM,2022-08-19 08:15,-116.8743,40.5990,1382.36,59.00,50.00,72.01,50.00,3.00,0.00,30.12,M,10.00,M,CLR,M,M,M,M,M,M,M,M,M,M,M,M,M,M,59.00,KBAM 190815Z AUTO 05003KT 10SM CLR 15/10 A3012 RMK AO1,M
MEV,2022-08-19 08:15,-119.7500,38.9963,1441.42,55.40,41.00,58.27,130.00,6.00,0.00,30.16,M,10.00,M,FEW,M,M,M,5500.00,M,M,M,M,M,M,M,M,M,M,55.40,KMEV 190815Z AUTO 13006KT 10SM FEW055 13/05 A3016 RMK AO2,M
RTS,2022-08-19 08:15,-119.8764,39.6682,1539.00,59.00,48.20,67.33,0.00,0.00,0.00,30.19,M,10.00,M,CLR,M,M,M,M,M,M,M,M,M,M,M,M,M,M,59.00,KRTS 190815Z AUTO 00000KT 10SM CLR 15/09 A3019 RMK AO2,M
BVU,2022-08-19 08:15,-114.8611,35.9475,671.00,75.20,66.20,73.61,340.00,10.00,0.00,29.90,M,M,M,M,M,M,M,M,M,M,M,M,M,M,M,M,M,M,75.20,KBVU 190815Z AUTO 34010KT 24/19 A2990 RMK AO2 PWINO TSNO,M
CXP,2022-08-19 08:15,-119.7326,39.1923,1431.00,62.60,46.40,55.37,0.00,0.00,0.00,30.17,M,10.00,M,CLR,M,M,M,M,M,M,M,M,M,M,M,M,M,M,62.60,KCXP 190815Z AUTO 00000KT 10SM CLR 17/08 A3017 RMK AO2,M
MEV,2022-08-19 08:35,-119.7500,38.9963,1441.42,51.80,42.80,71.26,110.00,6.00,0.00,30.16,M,10.00,M,CLR,M,M,M,M,M,M,M,M,M,M,M,M,M,M,51.80,KMEV 190835Z AUTO 11006KT 10SM CLR 11/06 A3016 RMK AO2,M
BAM,2022-08-19 08:35,-116.8743,40.5990,1382.36,60.80,50.00,67.54,140.00,4.00,0.00,30.12,M,10.00,M,CLR,M,M,M,M,M,M,M,M,M,M,M,M,M,M,60.80,KBAM 190835Z AUTO 14004KT 10SM CLR 16/10 A3012 RMK AO1,M
HTH,2022-08-19 08:35,-118.6315,38.5448,1282.89,68.00,50.00,52.51,0.00,0.00,0.00,30.12,M,10.00,M,CLR,M,M,M,M,M,M,M,M,M,M,M,M,M,M,68.00,KHTH 190835Z AUTO 00000KT 10SM CLR 20/10 A3012 RMK A01,M
TMT,2022-08-19 08:35,-117.1971,39.4643,1749.34,50.50,40.30,67.89,0.00,0.00,0.00,30.22,M,10.00,M,CLR,M,M,M,M,M,M,M,M,M,M,M,M,M,M,50.50,KTMT 190835Z AUTO 00000KT 10SM CLR 10/05 A3022 RMK AO2 T01030046,M
BVU,2022-08-19 08:35,-114.8611,35.9475,671.00,78.80,62.60,57.60,30.00,5.00,0.00,29.90,M,M,M,M,M,M,M,M,M,M,M,M,M,M,M,M,M,M,78.80,KBVU 190835Z AUTO 03005KT 26/17 A2990 RMK AO2 PWINO TSNO,M
CXP,2022-08-19 08:35,-119.7326,39.1923,1431.00,60.80,46.40,59.01,0.00,0.00,0.00,30.17,M,10.00,M,CLR,M,M,M,M,M,M,M,M,M,M,M,M,M,M,60.80,KCXP 190835Z AUTO 00000KT 10SM CLR 16/08 A3017 RMK AO2,M
RTS,2022-08-19 08:35,-119.8764,39.6682,1539.00,59.00,48.20,67.33,30.00,6.00,0.00,30.19,M,10.00,M,CLR,M,M,M,M,M,M,M,M,M,M,M,M,M,M,59.00,KRTS 190835Z AUTO 03006KT 10SM CLR 15/09 A3019 RMK AO2,M
ELY,2022-08-19 08:53,-114.8453,39.2950,1909.00,59.00,55.00,86.56,300.00,4.00,0.00,30.20,1011.70,10.00,M,FEW,M,M,M,12000.00,M,M,M,M,M,M,M,M,M,M,59.00,KELY 190853Z AUTO 30004KT 10SM FEW120 15/13 A3020 RMK AO2 SLP117 T01500128 58014,M
P68,2022-08-19 08:53,-116.0056,39.6014,1993.00,52.00,45.00,76.94,170.00,6.00,0.00,30.20,1015.50,M,M,M,M,M,M,M,M,M,M,M,M,M,M,M,M,M,52.00,KP68 190853Z AUTO 17006KT 11/07 A3020 RMK AO1 SLP155 T01110072 58010,M
DRA,2022-08-19 08:53,-116.0278,36.6206,1009.00,76.00,61.00,59.92,140.00,14.00,0.00,29.98,1009.80,10.00,M,CLR,M,M,M,M,M,M,M,M,M,M,M,M,M,M,75.90,KDRA 190853Z AUTO 14014KT 10SM CLR 24/16 A2998 RMK AO2 SLP098 T02440161 53005,M
LOL,2022-08-19 08:53,-118.5701,40.0684,1192.43,59.00,52.00,77.55,110.00,4.00,0.00,30.07,1014.80,10.00,M,CLR,M,M,M,M,M,M,M,M,M,M,M,M,M,M,59.00,KLOL 190853Z AUTO 11004KT 10SM CLR 15/11 A3007 RMK AO2 SLP148 T01500111 58005,M
VGT,2022-08-19 08:53,-115.1933,36.2111,667.00,83.00,59.00,44.34,200.00,6.00,0.00,29.88,1010.50,10.00,M,CLR,M,M,M,M,M,M,M,M,M,M,M,M,M,M,82.86,KVGT 190853Z AUTO 20006KT 10SM CLR 28/15 A2988 RMK AO2 LTG DSNT SW SLP105 60003 T02830150 58006,M
HTH,2022-08-19 08:55,-118.6315,38.5448,1282.89,69.80,48.20,46.16,190.00,5.00,0.00,30.11,M,10.00,M,CLR,M,M,M,M,M,M,M,M,M,M,M,M,M,M,69.80,KHTH 190855Z AUTO 19005KT 10SM CLR 21/09 A3011 RMK A01,M
BVU,2022-08-19 08:55,-114.8611,35.9475,671.00,78.80,66.20,65.33,M,5.00,0.00,29.89,M,M,13.00,M,M,M,M,M,M,M,M,M,M,M,M,M,M,M,78.80,KBVU 190855Z AUTO VRB05G13KT 26/19 A2989 RMK AO2 PWINO TSNO,M
CXP,2022-08-19 08:55,-119.7326,39.1923,1431.00,59.00,46.40,62.92,0.00,0.00,0.00,30.16,M,10.00,M,CLR,M,M,M,M,M,M,M,M,M,M,M,M,M,M,59.00,KCXP 190855Z AUTO 00000KT 10SM CLR 15/08 A3016 RMK AO2,M
RNO,2022-08-19 08:55,-119.7711,39.4839,1341.00,64.00,51.00,62.85,0.00,0.00,0.00,30.13,1015.30,10.00,M,CLR,M,M,M,M,M,M,M,M,M,M,M,M,M,M,64.00,KRNO 190855Z 00000KT 10SM CLR 18/11 A3013 RMK AO2 SLP153 T01780106 58004,M
RTS,2022-08-19 08:55,-119.8764,39.6682,1539.00,59.00,50.00,72.01,340.00,4.00,0.00,30.18,M,10.00,M,CLR,M,M,M,M,M,M,M,M,M,M,M,M,M,M,59.00,KRTS 190855Z AUTO 34004KT 10SM CLR 15/10 A3018 RMK AO2,M
MEV,2022-08-19 08:55,-119.7500,38.9963,1441.42,53.60,42.80,66.70,100.00,6.00,0.00,30.15,M,10.00,M,FEW,SCT,M,M,4900.00,5500.00,M,M,M,M,M,M,M,M,M,53.60,KMEV 190855Z AUTO 10006KT 10SM FEW049 SCT055 12/06 A3015 RMK AO2,M
BAM,2022-08-19 08:55,-116.8743,40.5990,1382.36,59.00,51.80,76.98,210.00,6.00,0.00,30.11,M,10.00,M,CLR,M,M,M,M,M,M,M,M,M,M,M,M,M,M,59.00,KBAM 190855Z AUTO 21006KT 10SM CLR 15/11 A3011 RMK AO1,M
TMT,2022-08-19 08:55,-117.1971,39.4643,1749.34,53.60,43.00,67.21,240.00,3.00,0.00,30.22,M,10.00,M,CLR,M,M,M,M,M,M,M,M,M,M,M,M,M,M,53.60,KTMT 190855Z AUTO 24003KT 10SM CLR 12/06 A3022 RMK AO2 T01200061,M
LAS,2022-08-19 08:56,-115.1634,36.0719,663.00,81.00,60.00,49.06,240.00,11.00,T,29.90,1009.40,10.00,M,FEW,SCT,BKN,M,7000.00,12000.00,15000.00,M,M,M,M,M,M,M,M,81.62,KLAS 190856Z 24011KT 10SM FEW070 SCT120 BKN150 27/16 A2990 RMK AO2 LTG DSNT W RAB37E49 TSE10 SLP094 CB DSNT SW-W P0000 60000 T02720156 58004,M
NFL,2022-08-19 08:56,-118.7010,39.4166,1199.00,65.00,50.00,58.47,0.00,0.00,0.00,30.08,1015.30,10.00,M,CLR,M,M,M,M,M,M,M,M,M,M,M,M,M,M,64.90,KNFL 190856Z AUTO 00000KT 10SM CLR 18/10 A3008 RMK AO2 SLP153 T01830100 58006,M
TPH,2022-08-19 08:56,-117.0904,38.0505,1654.00,68.00,45.00,43.51,360.00,8.00,0.00,30.17,1013.00,10.00,M,CLR,M,M,M,M,M,M,M,M,M,M,M,M,M,M,68.00,KTPH 190856Z AUTO 36008KT 10SM CLR 20/07 A3017 RMK AO2 SLP130 T02000072 58003,M
HND,2022-08-19 08:56,-115.1344,35.9729,742.79,79.00,64.00,60.11,M,6.00,0.00,29.95,1012.50,10.00,M,FEW,M,M,M,11000.00,M,M,M,M,M,M,M,M,M,M,79.00,KHND 190856Z AUTO VRB06KT 10SM FEW110 26/18 A2995 RMK AO2 LTG DSNT W SLP125 60019 T02610178 50005,M
WMC,2022-08-19 08:56,-117.8072,40.9019,1315.00,57.00,47.00,68.90,0.00,0.00,0.00,30.09,1014.20,10.00,M,CLR,M,M,M,M,M,M,M,M,M,M,M,M,M,M,57.00,KWMC 190856Z AUTO 00000KT 10SM CLR 14/08 A3009 RMK AO2 SLP142 T01390083 58004,M
EKO,2022-08-19 08:56,-115.7860,40.8242,1367.00,53.00,53.00,100.00,80.00,5.00,0.00,30.14,1016.40,10.00,M,CLR,M,M,M,M,M,M,M,M,M,M,M,M,M,M,53.10,KEKO 190856Z AUTO 08005KT 10SM CLR 12/12 A3014 RMK AO2 SLP164 T01170117 58008,M
LSV,2022-08-19 08:58,-115.0343,36.2362,570.00,77.00,68.70,75.58,0.00,0.00,0.00,29.87,1008.70,10.00,M,SCT,OVC,M,M,17000.00,20000.00,M,M,M,M,M,M,M,M,M,77.00,KLSV 190858Z 00000KT 10SM SCT170 OVC200 25/20 A2987 RMK AO2A LTG DSNT SW SLP087 6//// T02500204 $,M
INS,2022-08-19 08:58,-115.6733,36.5872,955.00,77.70,58.00,50.90,60.00,3.00,0.00,29.97,1009.60,10.00,M,OVC,M,M,M,13000.00,M,M,M,M,M,M,M,M,M,M,77.70,KINS 190858Z AUTO 06003KT 10SM OVC130 25/15 A2997 RMK AO2 SLP096 T02540145 55006 $,M
RTS,2022-08-19 09:15,-119.8764,39.6682,1539.00,57.20,48.20,71.83,340.00,4.00,0.00,30.18,M,10.00,M,CLR,M,M,M,M,M,M,M,M,M,M,M,M,M,M,57.20,KRTS 190915Z AUTO 34004KT 10SM CLR 14/09 A3018 RMK AO2,M
BAM,2022-08-19 09:15,-116.8743,40.5990,1382.36,60.80,50.00,67.54,210.00,5.00,0.00,30.11,M,10.00,M,CLR,M,M,M,M,M,M,M,M,M,M,M,M,M,M,60.80,KBAM 190915Z AUTO 21005KT 10SM CLR 16/10 A3011 RMK AO1,M
HTH,2022-08-19 09:15,-118.6315,38.5448,1282.89,68.00,48.20,49.10,190.00,3.00,0.00,30.11,M,10.00,M,CLR,M,M,M,M,M,M,M,M,M,M,M,M,M,M,68.00,KHTH 190915Z AUTO 19003KT 10SM CLR 20/09 A3011 RMK A01,M
TMT,2022-08-19 09:15,-117.1971,39.4643,1749.34,52.70,42.00,66.59,220.00,4.00,0.00,30.21,M,10.00,M,CLR,M,M,M,M,M,M,M,M,M,M,M,M,M,M,52.70,KTMT 190915Z AUTO 22004KT 10SM CLR 12/06 A3021 RMK AO2 T01150055,M
BVU,2022-08-19 09:15,-114.8611,35.9475,671.00,77.00,66.20,69.33,260.00,7.00,0.00,29.88,M,M,M,M,M,M,M,M,M,M,M,M,M,M,M,M,M,M,77.00,KBVU 190915Z AUTO 26007KT 25/19 A2988 RMK AO2 PWINO TSNO,M
MEV,2022-08-19 09:15,-119.7500,38.9963,1441.42,51.80,42.80,71.26,120.00,4.00,0.00,30.15,M,10.00,M,FEW,SCT,M,M,4400.00,5500.00,M,M,M,M,M,M,M,M,M,51.80,KMEV 190915Z AUTO 12004KT 10SM FEW044 SCT055 11/06 A3015 RMK AO2,M
CXP,2022-08-19 09:15,-119.7326,39.1923,1431.00,60.80,46.40,59.01,0.00,0.00,0.00,30.16,M,10.00,M,CLR,M,M,M,M,M,M,M,M,M,M,M,M,M,M,60.80,KCXP 190915Z AUTO 00000KT 10SM CLR 16/08 A3016 RMK AO2,M
CXP,2022-08-19 09:35,-119.7326,39.1923,1431.00,57.20,46.40,67.12,0.00,0.00,0.00,30.16,M,10.00,M,CLR,M,M,M,M,M,M,M,M,M,M,M,M,M,M,57.20,KCXP 190935Z AUTO 00000KT 10SM CLR 14/08 A3016 RMK AO2,M
RTS,2022-08-19 09:35,-119.8764,39.6682,1539.00,55.40,48.20,76.66,320.00,6.00,0.00,30.17,M,10.00,M,CLR,M,M,M,M,M,M,M,M,M,M,M,M,M,M,55.40,KRTS 190935Z AUTO 32006KT 10SM CLR 13/09 A3017 RMK AO2,M
MEV,2022-08-19 09:35,-119.7500,38.9963,1441.42,53.60,41.00,62.23,0.00,0.00,0.00,30.15,M,10.00,M,FEW,SCT,M,M,4800.00,5500.00,M,M,M,M,M,M,M,M,M,53.60,KMEV 190935Z AUTO 00000KT 10SM FEW048 SCT055 12/05 A3015 RMK AO2,M
TMT,2022-08-19 09:35,-117.1971,39.4643,1749.34,48.00,38.00,67.87,160.00,3.00,0.00,30.21,M,10.00,M,CLR,M,M,M,M,M,M,M,M,M,M,M,M,M,M,46.98,KTMT 190935Z AUTO 16003KT 10SM CLR 09/03 A3021 RMK AO2 T00890033,M
BAM,2022-08-19 09:35,-116.8743,40.5990,1382.36,59.00,50.00,72.01,200.00,5.00,0.00,30.10,M,10.00,M,CLR,M,M,M,M,M,M,M,M,M,M,M,M,M,M,59.00,KBAM 190935Z AUTO 20005KT 10SM CLR 15/10 A3010 RMK AO1,M
HTH,2022-08-19 09:35,-118.6315,38.5448,1282.89,68.00,48.20,49.10,180.00,4.00,0.00,30.11,M,10.00,M,CLR,M,M,M,M,M,M,M,M,M,M,M,M,M,M,68.00,KHTH 190935Z AUTO 18004KT 10SM CLR 20/09 A3011 RMK A01,M
BVU,2022-08-19 09:35,-114.8611,35.9475,671.00,75.20,68.00,78.34,350.00,7.00,0.00,29.90,M,M,M,M,M,M,M,M,M,M,M,M,M,M,M,M,M,M,75.20,KBVU 190935Z AUTO 35007KT 24/20 A2990 RMK AO2 PWINO TSNO,M
DRA,2022-08-19 09:53,-116.0278,36.6206,1009.00,77.00,59.00,53.80,360.00,4.00,0.00,29.98,1009.60,10.00,M,CLR,M,M,M,M,M,M,M,M,M,M,M,M,M,M,77.00,KDRA 190953Z AUTO 36004KT 10SM CLR 25/15 A2998 RMK AO2 SLP096 T02500150,M
LOL,2022-08-19 09:53,-118.5701,40.0684,1192.43,58.00,53.00,84.00,0.00,0.00,0.00,30.07,1014.50,10.00,M,CLR,M,M,M,M,M,M,M,M,M,M,M,M,M,M,57.90,KLOL 190953Z AUTO 00000KT 10SM CLR 14/12 A3007 RMK AO2 SLP145 T01440117,M
P68,2022-08-19 09:53,-116.0056,39.6014,1993.00,55.00,46.00,71.60,200.00,9.00,0.00,30.17,1013.50,M,M,M,M,M,M,M,M,M,M,M,M,M,M,M,M,M,55.00,KP68 190953Z AUTO 20009KT 13/08 A3017 RMK AO1 SLP135 T01280078,M
VGT,2022-08-19 09:53,-115.1933,36.2111,667.00,81.00,61.00,50.65,360.00,5.00,0.00,29.88,1010.40,10.00,M,CLR,M,M,M,M,M,M,M,M,M,M,M,M,M,M,81.81,KVGT 190953Z AUTO 36005KT 10SM CLR 27/16 A2988 RMK AO2 SLP104 T02720161,M
ELY,2022-08-19 09:53,-114.8453,39.2950,1909.00,57.00,55.00,93.01,170.00,4.00,0.00,30.19,1012.00,10.00,M,CLR,M,M,M,M,M,M,M,M,M,M,M,M,M,M,57.00,KELY 190953Z AUTO 17004KT 10SM CLR 14/13 A3019 RMK AO2 SLP120 T01390128,M
HTH,2022-08-19 09:55,-118.6315,38.5448,1282.89,68.00,48.20,49.10,160.00,5.00,0.00,30.11,M,10.00,M,CLR,M,M,M,M,M,M,M,M,M,M,M,M,M,M,68.00,KHTH 190955Z AUTO 16005KT 10SM CLR 20/09 A3011 RMK A01,M
BAM,2022-08-19 09:55,-116.8743,40.5990,1382.36,59.00,50.00,72.01,0.00,0.00,0.00,30.10,M,10.00,M,CLR,M,M,M,M,M,M,M,M,M,M,M,M,M,M,59.00,KBAM 190955Z AUTO 00000KT 10SM CLR 15/10 A3010 RMK AO1,M
RTS,2022-08-19 09:55,-119.8764,39.6682,1539.00,55.40,48.20,76.66,350.00,4.00,0.00,30.17,M,10.00,M,CLR,M,M,M,M,M,M,M,M,M,M,M,M,M,M,55.40,KRTS 190955Z AUTO 35004KT 10SM CLR 13/09 A3017 RMK AO2,M
MEV,2022-08-19 09:55,-119.7500,38.9963,1441.42,53.60,41.00,62.23,0.00,0.00,0.00,30.15,M,10.00,M,FEW,SCT,M,M,5000.00,5500.00,M,M,M,M,M,M,M,M,M,53.60,KMEV 190955Z AUTO 00000KT 10SM FEW050 SCT055 12/05 A3015 RMK AO2,M
RNO,2022-08-19 09:55,-119.7711,39.4839,1341.00,63.00,47.00,55.64,0.00,0.00,0.00,30.12,1014.60,10.00,M,CLR,M,M,M,M,M,M,M,M,M,M,M,M,M,M,63.00,KRNO 190955Z 00000KT 10SM CLR 17/08 A3012 RMK AO2 SLP146 T01720083,M
BVU,2022-08-19 09:55,-114.8611,35.9475,671.00,78.80,64.40,61.36,340.00,3.00,0.00,29.90,M,M,M,M,M,M,M,M,M,M,M,M,M,M,M,M,M,M,78.80,KBVU 190955Z AUTO 34003KT 26/18 A2990 RMK AO2 PWINO TSNO,M
CXP,2022-08-19 09:55,-119.7326,39.1923,1431.00,57.20,46.40,67.12,0.00,0.00,0.00,30.16,M,10.00,M,CLR,M,M,M,M,M,M,M,M,M,M,M,M,M,M,57.20,KCXP 190955Z AUTO 00000KT 10SM CLR 14/08 A3016 RMK AO2,M
TMT,2022-08-19 09:55,-117.1971,39.4643,1749.34,47.00,37.60,69.91,0.00,0.00,0.00,30.21,M,10.00,M,CLR,M,M,M,M,M,M,M,M,M,M,M,M,M,M,46.90,KTMT 190955Z AUTO 00000KT 10SM CLR 08/03 A3021 RMK AO2 T00830031,M
HND,2022-08-19 09:56,-115.1344,35.9729,742.79,77.00,67.00,71.03,170.00,8.00,0.00,29.92,1011.60,10.00,M,CLR,M,M,M,M,M,M,M,M,M,M,M,M,M,M,77.00,KHND 190956Z AUTO 17008KT 10SM CLR 25/19 A2992 RMK AO2 SLP116 T02500194,M
NFL,2022-08-19 09:56,-118.7010,39.4166,1199.00,66.00,49.00,54.01,0.00,0.00,0.00,30.07,1015.10,10.00,M,CLR,M,M,M,M,M,M,M,M,M,M,M,M,M,M,66.00,KNFL 190956Z AUTO 00000KT 10SM CLR 19/09 A3007 RMK AO2 SLP151 T01890094,M
EKO,2022-08-19 09:56,-115.7860,40.8242,1367.00,52.00,52.00,100.00,0.00,0.00,0.00,30.13,1016.00,10.00,M,CLR,M,M,M,M,M,M,M,M,M,M,M,M,M,M,52.00,KEKO 190956Z AUTO 00000KT 10SM CLR 11/11 A3013 RMK AO2 SLP160 T01110111,M
TPH,2022-08-19 09:56,-117.0904,38.0505,1654.00,67.00,47.00,48.56,20.00,10.00,0.00,30.16,1012.90,10.00,M,CLR,M,M,M,M,M,M,M,M,M,M,M,M,M,M,66.90,KTPH 190956Z AUTO 02010KT 10SM CLR 19/08 A3016 RMK AO2 SLP129 T01940083,M
WMC,2022-08-19 09:56,-117.8072,40.9019,1315.00,55.00,46.00,71.60,0.00,0.00,0.00,30.09,1014.30,10.00,M,CLR,M,M,M,M,M,M,M,M,M,M,M,M,M,M,55.00,KWMC 190956Z AUTO 00000KT 10SM CLR 13/08 A3009 RMK AO2 SLP143 T01280078,M
LAS,2022-08-19 09:56,-115.1634,36.0719,663.00,83.00,59.00,44.34,260.00,9.00,0.00,29.88,1008.80,10.00,M,FEW,BKN,BKN,M,11000.00,16000.00,22000.00,M,M,M,M,M,M,M,M,82.86,KLAS 190956Z 26009KT 10SM FEW110 BKN160 BKN220 28/15 A2988 RMK AO2 SLP088 T02830150,M
LSV,2022-08-19 09:58,-115.0343,36.2362,570.00,76.60,67.60,73.74,0.00,0.00,0.00,29.87,1008.70,10.00,M,BKN,M,M,M,17000.00,M,M,M,M,M,M,M,M,M,M,76.60,KLSV 190958Z 00000KT 10SM BKN170 25/20 A2987 RMK AO2A SLP087 T02480198 $,M
INS,2022-08-19 09:58,-115.6733,36.5872,955.00,76.80,57.20,50.77,100.00,5.00,0.00,29.97,1009.60,10.00,M,BKN,M,M,M,13000.00,M,M,M,M,M,M,M,M,M,M,76.80,KINS 190958Z AUTO 10005KT 10SM BKN130 25/14 A2997 RMK AO2 SLP096 T02490140 $,M
CXP,2022-08-19 10:15,-119.7326,39.1923,1431.00,59.00,46.40,62.92,0.00,0.00,0.00,30.16,M,10.00,M,CLR,M,M,M,M,M,M,M,M,M,M,M,M,M,M,59.00,KCXP 191015Z AUTO 00000KT 10SM CLR 15/08 A3016 RMK AO2,M
RTS,2022-08-19 10:15,-119.8764,39.6682,1539.00,55.40,48.20,76.66,330.00,5.00,0.00,30.17,M,10.00,M,CLR,M,M,M,M,M,M,M,M,M,M,M,M,M,M,55.40,KRTS 191015Z AUTO 33005KT 10SM CLR 13/09 A3017 RMK AO2,M
MEV,2022-08-19 10:15,-119.7500,38.9963,1441.42,53.60,42.80,66.70,0.00,0.00,0.00,30.15,M,10.00,M,SCT,M,M,M,5500.00,M,M,M,M,M,M,M,M,M,M,53.60,KMEV 191015Z AUTO 00000KT 10SM SCT055 12/06 A3015 RMK AO2,M
BAM,2022-08-19 10:15,-116.8743,40.5990,1382.36,55.40,48.20,76.66,0.00,0.00,0.00,30.10,M,10.00,M,CLR,M,M,M,M,M,M,M,M,M,M,M,M,M,M,55.40,KBAM 191015Z AUTO 00000KT 10SM CLR 13/09 A3010 RMK AO1,M
TMT,2022-08-19 10:15,-117.1971,39.4643,1749.34,47.00,37.80,69.93,0.00,0.00,0.00,30.21,M,10.00,M,CLR,M,M,M,M,M,M,M,M,M,M,M,M,M,M,47.10,KTMT 191015Z AUTO 00000KT 10SM CLR 08/03 A3021 RMK AO2 T00840032,M
HTH,2022-08-19 10:15,-118.6315,38.5448,1282.89,66.20,48.20,52.25,180.00,5.00,0.00,30.11,M,10.00,M,CLR,M,M,M,M,M,M,M,M,M,M,M,M,M,M,66.20,KHTH 191015Z AUTO 18005KT 10SM CLR 19/09 A3011 RMK A01,M
BVU,2022-08-19 10:15,-114.8611,35.9475,671.00,77.00,66.20,69.33,20.00,6.00,0.00,29.90,M,M,M,M,M,M,M,M,M,M,M,M,M,M,M,M,M,M,77.00,KBVU 191015Z AUTO 02006KT 25/19 A2990 RMK AO2 PWINO TSNO,M
CXP,2022-08-19 10:35,-119.7326,39.1923,1431.00,55.40,46.40,71.64,0.00,0.00,0.00,30.15,M,10.00,M,CLR,M,M,M,M,M,M,M,M,M,M,M,M,M,M,55.40,KCXP 191035Z AUTO 00000KT 10SM CLR 13/08 A3015 RMK AO2,M
BVU,2022-08-19 10:35,-114.8611,35.9475,671.00,77.00,68.00,73.78,350.00,6.00,0.00,29.89,M,M,M,M,M,M,M,M,M,M,M,M,M,M,M,M,M,M,77.00,KBVU 191035Z AUTO 35006KT 25/20 A2989 RMK AO2 PWINO TSNO,M
RTS,2022-08-19 10:35,-119.8764,39.6682,1539.00,55.40,48.20,76.66,330.00,3.00,0.00,30.17,M,10.00,M,CLR,M,M,M,M,M,M,M,M,M,M,M,M,M,M,55.40,KRTS 191035Z AUTO 33003KT 10SM CLR 13/09 A3017 RMK AO2,M
MEV,2022-08-19 10:35,-119.7500,38.9963,1441.42,50.00,39.20,66.27,0.00,0.00,0.00,30.14,M,10.00,M,BKN,M,M,M,5500.00,M,M,M,M,M,M,M,M,M,M,50.00,KMEV 191035Z AUTO 00000KT 10SM BKN055 10/04 A3014 RMK AO2,M
BAM,2022-08-19 10:35,-116.8743,40.5990,1382.36,57.20,50.00,76.82,0.00,0.00,0.00,30.10,M,10.00,M,CLR,M,M,M,M,M,M,M,M,M,M,M,M,M,M,57.20,KBAM 191035Z AUTO 00000KT 10SM CLR 14/10 A3010 RMK AO1,M
HTH,2022-08-19 10:35,-118.6315,38.5448,1282.89,68.00,46.40,45.88,180.00,5.00,0.00,30.10,M,10.00,M,CLR,M,M,M,M,M,M,M,M,M,M,M,M,M,M,68.00,KHTH 191035Z AUTO 18005KT 10SM CLR 20/08 A3010 RMK A01,M
TMT,2022-08-19 10:35,-117.1971,39.4643,1749.34,45.50,37.00,71.99,150.00,3.00,0.00,30.21,M,10.00,M,CLR,M,M,M,M,M,M,M,M,M,M,M,M,M,M,44.12,KTMT 191035Z AUTO 15003KT 10SM CLR 08/03 A3021 RMK AO2 T00750028,M
VGT,2022-08-19 10:53,-115.1933,36.2111,667.00,81.00,62.00,52.66,40.00,4.00,0.00,29.87,1010.30,10.00,M,CLR,M,M,M,M,M,M,M,M,M,M,M,M,M,M,82.06,KVGT 191053Z AUTO 04004KT 10SM CLR 27/17 A2987 RMK AO2 SLP103 T02720167,M
P68,2022-08-19 10:53,-116.0056,39.6014,1993.00,55.00,46.00,71.60,180.00,6.00,0.00,30.18,1014.20,M,M,M,M,M,M,M,M,M,M,M,M,M,M,M,M,M,55.00,KP68 191053Z AUTO 18006KT 13/08 A3018 RMK AO1 SLP142 T01280078,M
ELY,2022-08-19 10:53,-114.8453,39.2950,1909.00,55.00,53.00,93.29,170.00,4.00,0.00,30.19,1013.60,10.00,M,CLR,M,M,M,M,M,M,M,M,M,M,M,M,M,M,55.00,KELY 191053Z AUTO 17004KT 10SM CLR 13/12 A3019 RMK AO2 SLP136 T01280117,M
LOL,2022-08-19 10:53,-118.5701,40.0684,1192.43,59.00,53.00,80.75,40.00,7.00,0.00,30.07,1014.70,10.00,M,CLR,M,M,M,M,M,M,M,M,M,M,M,M,M,M,59.00,KLOL 191053Z AUTO 04007KT 10SM CLR 15/12 A3007 RMK AO2 SLP147 T01500117,M
DRA,2022-08-19 10:53,-116.0278,36.6206,1009.00,74.00,62.00,66.61,90.00,3.00,0.00,29.98,1009.80,10.00,M,CLR,M,M,M,M,M,M,M,M,M,M,M,M,M,M,73.90,KDRA 191053Z AUTO 09003KT 10SM CLR 23/17 A2998 RMK AO2 SLP098 T02330167,M
RTS,2022-08-19 10:55,-119.8764,39.6682,1539.00,55.40,48.20,76.66,340.00,4.00,0.00,30.17,M,10.00,M,CLR,M,M,M,M,M,M,M,M,M,M,M,M,M,M,55.40,KRTS 191055Z AUTO 34004KT 10SM CLR 13/09 A3017 RMK AO2,M
MEV,2022-08-19 10:55,-119.7500,38.9963,1441.42,50.00,41.00,71.07,120.00,5.00,0.00,30.14,M,10.00,M,BKN,M,M,M,5500.00,M,M,M,M,M,M,M,M,M,M,50.00,KMEV 191055Z AUTO 12005KT 10SM BKN055 10/05 A3014 RMK AO2,M
HTH,2022-08-19 10:55,-118.6315,38.5448,1282.89,68.00,48.20,49.10,220.00,3.00,0.00,30.10,M,10.00,M,CLR,M,M,M,M,M,M,M,M,M,M,M,M,M,M,68.00,KHTH 191055Z AUTO 22003KT 10SM CLR 20/09 A3010 RMK A01,M
BAM,2022-08-19 10:55,-116.8743,40.5990,1382.36,55.40,48.20,76.66,120.00,3.00,0.00,30.10,M,10.00,M,CLR,M,M,M,M,M,M,M,M,M,M,M,M,M,M,55.40,KBAM 191055Z AUTO 12003KT 10SM CLR 13/09 A3010 RMK AO1,M
RNO,2022-08-19 10:55,-119.7711,39.4839,1341.00,62.00,47.00,57.43,0.00,0.00,0.00,30.13,1015.50,10.00,M,CLR,M,M,M,M,M,M,M,M,M,M,M,M,M,M,62.10,KRNO 191055Z 00000KT 10SM CLR 17/08 A3013 RMK AO2 SLP155 T01670083,M
TMT,2022-08-19 10:55,-117.1971,39.4643,1749.34,47.80,38.70,70.56,0.00,0.00,0.00,30.21,M,10.00,M,CLR,M,M,M,M,M,M,M,M,M,M,M,M,M,M,47.80,KTMT 191055Z AUTO 00000KT 10SM CLR 09/04 A3021 RMK AO2 T00880037,M
CXP,2022-08-19 10:55,-119.7326,39.1923,1431.00,57.20,44.60,62.69,300.00,4.00,0.00,30.15,M,10.00,M,CLR,M,M,M,M,M,M,M,M,M,M,M,M,M,M,57.20,KCXP 191055Z AUTO 30004KT 10SM CLR 14/07 A3015 RMK AO2,M
BVU,2022-08-19 10:55,-114.8611,35.9475,671.00,77.00,66.20,69.33,350.00,7.00,0.00,29.89,M,M,M,M,M,M,M,M,M,M,M,M,M,M,M,M,M,M,77.00,KBVU 191055Z AUTO 35007KT 25/19 A2989 RMK AO2 PWINO TSNO,M
NFL,2022-08-19 10:56,-118.7010,39.4166,1199.00,65.00,48.00,54.26,200.00,3.00,0.00,30.07,1015.00,10.00,M,CLR,M,M,M,M,M,M,M,M,M,M,M,M,M,M,64.90,KNFL 191056Z AUTO 20003KT 10SM CLR 18/09 A3007 RMK AO2 SLP150 T01830089,M
TPH,2022-08-19 10:56,-117.0904,38.0505,1654.00,64.00,47.00,53.72,330.00,7.00,0.00,30.16,1013.10,10.00,M,CLR,M,M,M,M,M,M,M,M,M,M,M,M,M,M,64.00,KTPH 191056Z AUTO 33007KT 10SM CLR 18/08 A3016 RMK AO2 SLP131 T01780083,M
WMC,2022-08-19 10:56,-117.8072,40.9019,1315.00,57.00,48.00,71.81,0.00,0.00,0.00,30.09,1013.90,10.00,M,FEW,M,M,M,7000.00,M,M,M,M,M,M,M,M,M,M,57.00,KWMC 191056Z AUTO 00000KT 10SM FEW070 14/09 A3009 RMK AO2 SLP139 T01390089,M
HND,2022-08-19 10:56,-115.1344,35.9729,742.79,78.00,66.00,66.39,60.00,4.00,0.00,29.92,1011.60,10.00,M,CLR,M,M,M,M,M,M,M,M,M,M,M,M,M,M,78.10,KHND 191056Z AUTO 06004KT 10SM CLR 26/19 A2992 RMK AO2 SLP116 T02560189,M
LAS,2022-08-19 10:56,-115.1634,36.0719,663.00,82.00,61.00,49.03,110.00,4.00,0.00,29.88,1009.00,10.00,M,FEW,BKN,OVC,M,11000.00,17000.00,22000.00,M,M,M,M,M,M,M,M,82.62,KLAS 191056Z 11004KT 10SM FEW110 BKN170 OVC220 28/16 A2988 RMK AO2 SLP090 T02780161,M
EKO,2022-08-19 10:56,-115.7860,40.8242,1367.00,49.00,M,M,0.00,0.00,0.00,30.13,1016.00,10.00,M,CLR,M,M,M,M,M,M,M,M,M,M,M,M,M,M,M,KEKO 191056Z AUTO 00000KT 10SM CLR 09/ A3013 RMK AO2 SLP160 T0094 $,M
LSV,2022-08-19 10:58,-115.0343,36.2362,570.00,77.70,70.30,78.00,70.00,5.00,0.00,29.86,1008.60,10.00,M,OVC,M,M,M,17000.00,M,M,M,M,M,M,M,M,M,M,77.70,KLSV 191058Z 07005KT 10SM OVC170 25/21 A2986 RMK AO2A SLP086 T02540213 $,M
INS,2022-08-19 10:58,-115.6733,36.5872,955.00,76.30,58.50,54.09,260.00,7.00,0.00,29.96,1009.20,10.00,M,CLR,M,M,M,M,M,M,M,M,M,M,M,M,M,M,76.30,KINS 191058Z AUTO 26007KT 10SM CLR 25/15 A2996 RMK AO2 SLP092 T02460147 $,M
HTH,2022-08-19 11:15,-118.6315,38.5448,1282.89,66.20,48.20,52.25,0.00,0.00,0.00,30.10,M,10.00,M,CLR,M,M,M,M,M,M,M,M,M,M,M,M,M,M,66.20,KHTH 191115Z AUTO 00000KT 10SM CLR 19/09 A3010 RMK A01,M
CXP,2022-08-19 11:15,-119.7326,39.1923,1431.00,59.00,44.60,58.77,320.00,5.00,0.00,30.15,M,10.00,M,CLR,M,M,M,M,M,M,M,M,M,M,M,M,M,M,59.00,KCXP 191115Z AUTO 32005KT 10SM CLR 15/07 A3015 RMK AO2,M
BVU,2022-08-19 11:15,-114.8611,35.9475,671.00,77.00,66.20,69.33,10.00,6.00,0.00,29.88,M,M,M,M,M,M,M,M,M,M,M,M,M,M,M,M,M,M,77.00,KBVU 191115Z AUTO 01006KT 25/19 A2988 RMK AO2 PWINO TSNO,M
TMT,2022-08-19 11:15,-117.1971,39.4643,1749.34,50.70,40.00,66.35,0.00,0.00,0.00,30.20,M,10.00,M,CLR,M,M,M,M,M,M,M,M,M,M,M,M,M,M,50.70,KTMT 191115Z AUTO 00000KT 10SM CLR 10/04 A3020 RMK AO2 T01040044,M
RTS,2022-08-19 11:15,-119.8764,39.6682,1539.00,55.40,50.00,81.99,0.00,0.00,0.00,30.16,M,10.00,M,CLR,M,M,M,M,M,M,M,M,M,M,M,M,M,M,55.40,KRTS 191115Z AUTO 00000KT 10SM CLR 13/10 A3016 RMK AO2,M
BAM,2022-08-19 11:15,-116.8743,40.5990,1382.36,57.20,48.20,71.83,110.00,3.00,0.00,30.10,M,10.00,M,CLR,M,M,M,M,M,M,M,M,M,M,M,M,M,M,57.20,KBAM 191115Z AUTO 11003KT 10SM CLR 14/09 A3010 RMK AO1,M
MEV,2022-08-19 11:15,-119.7500,38.9963,1441.42,51.80,41.00,66.48,0.00,0.00,0.00,30.14,M,10.00,M,SCT,M,M,M,5500.00,M,M,M,M,M,M,M,M,M,M,51.80,KMEV 191115Z AUTO 00000KT 10SM SCT055 11/05 A3014 RMK AO2,M
CXP,2022-08-19 11:30,-119.7326,39.1923,1431.00,57.20,44.60,62.69,320.00,3.00,0.00,30.15,M,10.00,M,CLR,M,M,M,M,M,M,M,M,M,M,M,M,M,M,57.20,KCXP 191130Z AUTO 32003KT 10SM CLR 14/07 A3015 RMK AO2,M
BAM,2022-08-19 11:35,-116.8743,40.5990,1382.36,55.40,48.20,76.66,80.00,3.00,0.00,30.10,M,10.00,M,CLR,M,M,M,M,M,M,M,M,M,M,M,M,M,M,55.40,KBAM 191135Z AUTO 08003KT 10SM CLR 13/09 A3010 RMK AO1,M
BVU,2022-08-19 11:35,-114.8611,35.9475,671.00,77.00,66.20,69.33,360.00,6.00,0.00,29.88,M,M,M,M,M,M,M,M,M,M,M,M,M,M,M,M,M,M,77.00,KBVU 191135Z AUTO 36006KT 25/19 A2988 RMK AO2 PWINO TSNO,M
RTS,2022-08-19 11:35,-119.8764,39.6682,1539.00,55.40,50.00,81.99,0.00,0.00,0.00,30.16,M,10.00,M,CLR,M,M,M,M,M,M,M,M,M,M,M,M,M,M,55.40,KRTS 191135Z AUTO 00000KT 10SM CLR 13/10 A3016 RMK AO2,M
MEV,2022-08-19 11:35,-119.7500,38.9963,1441.42,51.80,41.00,66.48,100.00,3.00,0.00,30.14,M,10.00,M,SCT,M,M,M,5500.00,M,M,M,M,M,M,M,M,M,M,51.80,KMEV 191135Z AUTO 10003KT 10SM SCT055 11/05 A3014 RMK AO2,M
HTH,2022-08-19 11:35,-118.6315,38.5448,1282.89,66.20,46.40,48.83,0.00,0.00,0.00,30.10,M,10.00,M,CLR,M,M,M,M,M,M,M,M,M,M,M,M,M,M,66.20,KHTH 191135Z AUTO 00000KT 10SM CLR 19/08 A3010 RMK A01,M
VGT,2022-08-19 11:53,-115.1933,36.2111,667.00,82.00,61.00,49.03,320.00,8.00,0.00,29.87,1010.10,10.00,M,CLR,M,M,M,M,M,M,M,M,M,M,M,M,M,M,82.62,KVGT 191153Z AUTO 32008KT 10SM CLR 28/16 A2987 RMK AO2 SLP101 60003 70003 T02780161 10333 20261 56004,M
ELY,2022-08-19 11:53,-114.8453,39.2950,1909.00,53.00,52.00,96.03,200.00,3.00,0.00,30.20,1014.00,10.00,M,BKN,M,M,M,11000.00,M,M,M,M,M,M,M,M,M,M,53.10,KELY 191153Z AUTO 20003KT 10SM BKN110 12/11 A3020 RMK AO2 SLP140 70004 T01170111 10161 20117 55001,M
DRA,2022-08-19 11:53,-116.0278,36.6206,1009.00,75.00,61.00,61.75,10.00,4.00,0.00,29.98,1009.70,10.00,M,CLR,M,M,M,M,M,M,M,M,M,M,M,M,M,M,75.00,KDRA 191153Z AUTO 01004KT 10SM CLR 24/16 A2998 RMK AO2 SLP097 70005 T02390161 10278 20228 58000,M
LOL,2022-08-19 11:53,-118.5701,40.0684,1192.43,58.00,52.00,80.67,70.00,6.00,0.00,30.06,1015.00,10.00,M,CLR,M,M,M,M,M,M,M,M,M,M,M,M,M,M,57.90,KLOL 191153Z AUTO 07006KT 10SM CLR 14/11 A3006 RMK AO2 SLP150 70004 T01440111 10194 20133 56003,M
P68,2022-08-19 11:53,-116.0056,39.6014,1993.00,55.00,47.00,74.08,180.00,9.00,0.00,30.18,1014.50,M,M,M,M,M,M,M,M,M,M,M,M,M,M,M,M,M,55.00,KP68 191153Z AUTO 18009KT 13/08 A3018 RMK AO1 SLP145 T01280083 10150 20106 56008,M
BAM,2022-08-19 11:55,-116.8743,40.5990,1382.36,55.40,48.20,76.66,80.00,3.00,0.00,30.10,M,10.00,M,CLR,M,M,M,M,M,M,M,M,M,M,M,M,M,M,55.40,KBAM 191155Z AUTO 08003KT 10SM CLR 13/09 A3010 RMK AO1,M
HTH,2022-08-19 11:55,-118.6315,38.5448,1282.89,66.20,48.20,52.25,0.00,0.00,0.00,30.09,M,10.00,M,CLR,M,M,M,M,M,M,M,M,M,M,M,M,M,M,66.20,KHTH 191155Z AUTO 00000KT 10SM CLR 19/09 A3009 RMK A01,M
TMT,2022-08-19 11:55,-117.1971,39.4643,1749.34,46.20,39.00,75.83,0.00,0.00,0.00,30.20,M,10.00,M,CLR,M,M,M,M,M,M,M,M,M,M,M,M,M,M,46.20,KTMT 191155Z AUTO 00000KT 10SM CLR 08/04 A3020 RMK AO2 70002 T00790039 10146 20071,M
CXP,2022-08-19 11:55,-119.7326,39.1923,1431.00,55.40,44.60,66.91,0.00,0.00,0.00,30.15,M,10.00,M,CLR,M,M,M,M,M,M,M,M,M,M,M,M,M,M,55.40,KCXP 191155Z AUTO 00000KT 10SM CLR 13/07 A3015 RMK AO2,M
RTS,2022-08-19 11:55,-119.8764,39.6682,1539.00,51.80,48.20,87.47,340.00,4.00,0.00,30.16,M,10.00,M,CLR,M,M,M,M,M,M,M,M,M,M,M,M,M,M,51.80,KRTS 191155Z AUTO 34004KT 10SM CLR 11/09 A3016 RMK AO2,M
RNO,2022-08-19 11:55,-119.7711,39.4839,1341.00,59.00,51.00,75.02,0.00,0.00,0.00,30.12,1015.20,10.00,M,CLR,M,M,M,M,M,M,M,M,M,M,M,M,M,M,59.00,KRNO 191155Z 00000KT 10SM CLR 15/11 A3012 RMK AO2 SLP152 70006 T01500106 10211 20150 56003,M
MEV,2022-08-19 11:55,-119.7500,38.9963,1441.42,51.80,42.80,71.26,0.00,0.00,0.00,30.14,M,10.00,M,SCT,M,M,M,5500.00,M,M,M,M,M,M,M,M,M,M,51.80,KMEV 191155Z AUTO 00000KT 10SM SCT055 11/06 A3014 RMK AO2,M
BVU,2022-08-19 11:55,-114.8611,35.9475,671.00,78.80,66.20,65.33,0.00,0.00,0.00,29.89,M,M,M,M,M,M,M,M,M,M,M,M,M,M,M,M,M,M,78.80,KBVU 191155Z AUTO 00000KT 26/19 A2989 RMK AO2 PWINO TSNO,M
LAS,2022-08-19 11:56,-115.1634,36.0719,663.00,81.00,60.00,49.06,340.00,3.00,0.00,29.89,1009.20,10.00,M,FEW,SCT,BKN,M,11000.00,17000.00,25000.00,M,M,M,M,M,M,M,M,81.62,KLAS 191156Z 34003KT 10SM FEW110 SCT170 BKN250 27/16 A2989 RMK AO2 SLP092 60000 T02720156 10317 20267 55004,M
HND,2022-08-19 11:56,-115.1344,35.9729,742.79,78.00,66.00,66.39,0.00,0.00,0.00,29.92,1011.80,10.00,M,CLR,M,M,M,M,M,M,M,M,M,M,M,M,M,M,78.10,KHND 191156Z AUTO 00000KT 10SM CLR 26/19 A2992 RMK AO2 SLP118 60019 7//// T02560189 10311 20250 55008,M
NFL,2022-08-19 11:56,-118.7010,39.4166,1199.00,62.00,48.00,59.86,210.00,4.00,0.00,30.07,1015.00,10.00,M,CLR,M,M,M,M,M,M,M,M,M,M,M,M,M,M,62.10,KNFL 191156Z AUTO 21004KT 10SM CLR 17/09 A3007 RMK AO2 SLP150 T01670089 10206 20167 56004,M
WMC,2022-08-19 11:56,-117.8072,40.9019,1315.00,52.00,44.00,74.35,160.00,3.00,0.00,30.08,1014.20,10.00,M,CLR,M,M,M,M,M,M,M,M,M,M,M,M,M,M,52.00,KWMC 191156Z AUTO 16003KT 10SM CLR 11/07 A3008 RMK AO2 SLP142 T01110067 10211 20106 56003,M
TPH,2022-08-19 11:56,-117.0904,38.0505,1654.00,63.00,47.00,55.64,10.00,5.00,0.00,30.16,1013.20,10.00,M,CLR,M,M,M,M,M,M,M,M,M,M,M,M,M,M,63.00,KTPH 191156Z AUTO 01005KT 10SM CLR 17/08 A3016 RMK AO2 SLP132 T01720083 10228 20167 57001,M
EKO,2022-08-19 11:56,-115.7860,40.8242,1367.00,49.00,49.00,100.00,0.00,0.00,0.00,30.12,1015.70,10.00,M,CLR,M,M,M,M,M,M,M,M,M,M,M,M,M,M,48.90,KEKO 191156Z AUTO 00000KT 10SM CLR 09/09 A3012 RMK AO2 SLP157 70005 T00940094 10161 20089 56005 $,M
LSV,2022-08-19 11:58,-115.0343,36.2362,570.00,77.20,72.00,84.02,180.00,5.00,0.00,29.86,1008.60,10.00,M,SCT,M,M,M,18000.00,M,M,M,M,M,M,M,M,M,M,77.20,KLSV 191158Z 18005KT 10SM SCT180 25/22 A2986 RMK AO2A SLP086 6//// 7//// T02510222 10305 20228 56005 $,M
INS,2022-08-19 11:58,-115.6733,36.5872,955.00,75.40,59.00,56.74,260.00,6.00,0.00,29.97,1009.60,10.00,M,SCT,M,M,M,15000.00,M,M,M,M,M,M,M,M,M,M,75.40,KINS 191158Z AUTO 26006KT 10SM SCT150 24/15 A2997 RMK AO2 SLP096 T02410150 10263 20238 55002 $,M
CXP,2022-08-19 12:10,-119.7326,39.1923,1431.00,55.40,44.60,66.91,0.00,0.00,0.00,30.15,M,10.00,M,CLR,M,M,M,M,M,M,M,M,M,M,M,M,M,M,55.40,KCXP 191210Z AUTO 00000KT 10SM CLR 13/07 A3015 RMK AO2,M
MEV,2022-08-19 12:15,-119.7500,38.9963,1441.42,51.80,41.00,66.48,70.00,4.00,0.00,30.14,M,10.00,M,FEW,M,M,M,5500.00,M,M,M,M,M,M,M,M,M,M,51.80,KMEV 191215Z AUTO 07004KT 10SM FEW055 11/05 A3014 RMK AO2,M
BAM,2022-08-19 12:15,-116.8743,40.5990,1382.36,53.60,46.40,76.50,0.00,0.00,0.00,30.11,M,10.00,M,CLR,M,M,M,M,M,M,M,M,M,M,M,M,M,M,53.60,KBAM 191215Z AUTO 00000KT 10SM CLR 12/08 A3011 RMK AO1,M
HTH,2022-08-19 12:15,-118.6315,38.5448,1282.89,64.40,48.20,55.63,220.00,3.00,0.00,30.10,M,10.00,M,CLR,M,M,M,M,M,M,M,M,M,M,M,M,M,M,64.40,KHTH 191215Z AUTO 22003KT 10SM CLR 18/09 A3010 RMK A01,M
TMT,2022-08-19 12:15,-117.1971,39.4643,1749.34,44.80,37.40,75.10,0.00,0.00,0.00,30.20,M,10.00,M,CLR,M,M,M,M,M,M,M,M,M,M,M,M,M,M,44.80,KTMT 191215Z AUTO 00000KT 10SM CLR 07/03 A3020 RMK AO2 T00710030,M
RTS,2022-08-19 12:15,-119.8764,39.6682,1539.00,53.60,46.40,76.50,310.00,4.00,0.00,30.16,M,10.00,M,CLR,M,M,M,M,M,M,M,M,M,M,M,M,M,M,53.60,KRTS 191215Z AUTO 31004KT 10SM CLR 12/08 A3016 RMK AO2,M
BVU,2022-08-19 12:15,-114.8611,35.9475,671.00,75.20,68.00,78.34,0.00,0.00,0.00,29.90,M,M,M,M,M,M,M,M,M,M,M,M,M,M,M,M,M,M,75.20,KBVU 191215Z AUTO 00000KT 24/20 A2990 RMK AO2 PWINO TSNO,M
BAM,2022-08-19 12:35,-116.8743,40.5990,1382.36,53.60,48.20,81.87,200.00,3.00,0.00,30.11,M,10.00,M,CLR,M,M,M,M,M,M,M,M,M,M,M,M,M,M,53.60,KBAM 191235Z AUTO 20003KT 10SM CLR 12/09 A3011 RMK AO1,M
MEV,2022-08-19 12:35,-119.7500,38.9963,1441.42,50.00,41.00,71.07,0.00,0.00,0.00,30.14,M,10.00,M,CLR,M,M,M,M,M,M,M,M,M,M,M,M,M,M,50.00,KMEV 191235Z AUTO 00000KT 10SM CLR 10/05 A3014 RMK AO2,M
BVU,2022-08-19 12:35,-114.8611,35.9475,671.00,75.20,66.20,73.61,0.00,0.00,0.00,29.90,M,M,M,M,M,M,M,M,M,M,M,M,M,M,M,M,M,M,75.20,KBVU 191235Z AUTO 00000KT 24/19 A2990 RMK AO2 PWINO TSNO,M
CXP,2022-08-19 12:35,-119.7326,39.1923,1431.00,53.60,46.40,76.50,0.00,0.00,0.00,30.15,M,10.00,M,CLR,M,M,M,M,M,M,M,M,M,M,M,M,M,M,53.60,KCXP 191235Z AUTO 00000KT 10SM CLR 12/08 A3015 RMK AO2,M
RTS,2022-08-19 12:35,-119.8764,39.6682,1539.00,53.60,46.40,76.50,300.00,4.00,0.00,30.16,M,10.00,M,CLR,M,M,M,M,M,M,M,M,M,M,M,M,M,M,53.60,KRTS 191235Z AUTO 30004KT 10SM CLR 12/08 A3016 RMK AO2,M
HTH,2022-08-19 12:35,-118.6315,38.5448,1282.89,64.40,48.20,55.63,240.00,5.00,0.00,30.10,M,10.00,M,CLR,M,M,M,M,M,M,M,M,M,M,M,M,M,M,64.40,KHTH 191235Z AUTO 24005KT 10SM CLR 18/09 A3010 RMK A01,M
TMT,2022-08-19 12:35,-117.1971,39.4643,1749.34,46.40,38.00,72.65,0.00,0.00,0.00,30.20,M,10.00,M,CLR,M,M,M,M,M,M,M,M,M,M,M,M,M,M,46.40,KTMT 191235Z AUTO 00000KT 10SM CLR 08/03 A3020 RMK AO2 T00800034,M
DRA,2022-08-19 12:53,-116.0278,36.6206,1009.00,71.00,62.00,73.22,270.00,4.00,0.00,29.97,1009.80,10.00,M,CLR,M,M,M,M,M,M,M,M,M,M,M,M,M,M,71.10,KDRA 191253Z AUTO 27004KT 10SM CLR 22/17 A2997 RMK AO2 SLP098 T02170167,M
LOL,2022-08-19 12:53,-118.5701,40.0684,1192.43,56.00,52.00,86.71,320.00,3.00,0.00,30.07,1015.00,10.00,M,CLR,M,M,M,M,M,M,M,M,M,M,M,M,M,M,55.90,KLOL 191253Z AUTO 32003KT 10SM CLR 13/11 A3007 RMK AO2 SLP150 T01330111,M
ELY,2022-08-19 12:53,-114.8453,39.2950,1909.00,53.00,52.00,96.03,180.00,8.00,0.00,30.20,1013.80,10.00,M,OVC,M,M,M,11000.00,M,M,M,M,M,M,M,M,M,M,53.10,KELY 191253Z AUTO 18008KT 10SM OVC110 12/11 A3020 RMK AO2 SLP138 T01170111,M
P68,2022-08-19 12:53,-116.0056,39.6014,1993.00,53.00,46.00,76.75,180.00,4.00,0.00,30.18,1015.10,M,M,M,M,M,M,M,M,M,M,M,M,M,M,M,M,M,53.10,KP68 191253Z AUTO 18004KT 12/08 A3018 RMK AO1 SLP151 T01170078,M
VGT,2022-08-19 12:53,-115.1933,36.2111,667.00,81.00,62.00,52.66,340.00,10.00,0.00,29.88,1010.70,10.00,M,CLR,M,M,M,M,M,M,M,M,M,M,M,M,M,M,82.06,KVGT 191253Z 34010KT 10SM CLR 27/17 A2988 RMK AO2 SLP107 T02720167,M
MEV,2022-08-19 12:55,-119.7500,38.9963,1441.42,51.80,42.80,71.26,0.00,0.00,0.00,30.14,M,10.00,M,CLR,M,M,M,M,M,M,M,M,M,M,M,M,M,M,51.80,KMEV 191255Z AUTO 00000KT 10SM CLR 11/06 A3014 RMK AO2,M
RTS,2022-08-19 12:55,-119.8764,39.6682,1539.00,50.00,46.40,87.37,350.00,5.00,0.00,30.16,M,10.00,M,CLR,M,M,M,M,M,M,M,M,M,M,M,M,M,M,50.00,KRTS 191255Z AUTO 35005KT 10SM CLR 10/08 A3016 RMK AO2,M
TMT,2022-08-19 12:55,-117.1971,39.4643,1749.34,46.80,38.00,71.56,0.00,0.00,0.00,30.20,M,10.00,M,CLR,M,M,M,M,M,M,M,M,M,M,M,M,M,M,46.80,KTMT 191255Z AUTO 00000KT 10SM CLR 08/03 A3020 RMK AO2 T00820034,M
CXP,2022-08-19 12:55,-119.7326,39.1923,1431.00,55.40,46.40,71.64,0.00,0.00,0.00,30.15,M,10.00,M,CLR,M,M,M,M,M,M,M,M,M,M,M,M,M,M,55.40,KCXP 191255Z AUTO 00000KT 10SM CLR 13/08 A3015 RMK AO2,M
RNO,2022-08-19 12:55,-119.7711,39.4839,1341.00,61.00,50.00,67.06,0.00,0.00,0.00,30.12,1015.10,10.00,M,CLR,M,M,M,M,M,M,M,M,M,M,M,M,M,M,61.00,KRNO 191255Z 00000KT 10SM CLR 16/10 A3012 RMK AO2 SLP151 T01610100,M
HTH,2022-08-19 12:55,-118.6315,38.5448,1282.89,64.40,48.20,55.63,230.00,4.00,0.00,30.10,M,10.00,M,CLR,M,M,M,M,M,M,M,M,M,M,M,M,M,M,64.40,KHTH 191255Z AUTO 23004KT 10SM CLR 18/09 A3010 RMK A01,M
BAM,2022-08-19 12:55,-116.8743,40.5990,1382.36,55.40,48.20,76.66,0.00,0.00,0.00,30.11,M,10.00,M,CLR,M,M,M,M,M,M,M,M,M,M,M,M,M,M,55.40,KBAM 191255Z AUTO 00000KT 10SM CLR 13/09 A3011 RMK AO1,M
BVU,2022-08-19 12:55,-114.8611,35.9475,671.00,75.20,66.20,73.61,20.00,5.00,0.00,29.90,M,M,M,M,M,M,M,M,M,M,M,M,M,M,M,M,M,M,75.20,KBVU 191255Z AUTO 02005KT 24/19 A2990 RMK AO2 PWINO TSNO,M
LAS,2022-08-19 12:56,-115.1634,36.0719,663.00,82.00,60.00,47.49,0.00,0.00,0.00,29.90,1009.60,10.00,M,FEW,BKN,BKN,M,11000.00,15000.00,20000.00,M,M,M,M,M,M,M,M,82.40,KLAS 191256Z 00000KT 10SM FEW110 BKN150 BKN200 28/16 A2990 RMK AO2 SLP096 T02780156,M
EKO,2022-08-19 12:56,-115.7860,40.8242,1367.00,45.00,M,M,250.00,3.00,0.00,30.13,1016.50,10.00,M,CLR,M,M,M,M,M,M,M,M,M,M,M,M,M,M,M,KEKO 191256Z AUTO 25003KT 10SM CLR 07/ A3013 RMK AO2 SLP165 T0072 $,M
WMC,2022-08-19 12:56,-117.8072,40.9019,1315.00,52.00,45.00,76.94,0.00,0.00,0.00,30.09,1014.60,10.00,M,BKN,M,M,M,11000.00,M,M,M,M,M,M,M,M,M,M,52.00,KWMC 191256Z AUTO 00000KT 10SM BKN110 11/07 A3009 RMK AO2 SLP146 T01110072,M
NFL,2022-08-19 12:56,-118.7010,39.4166,1199.00,59.00,47.00,64.12,140.00,4.00,0.00,30.07,1015.00,10.00,M,CLR,M,M,M,M,M,M,M,M,M,M,M,M,M,M,59.00,KNFL 191256Z AUTO 14004KT 10SM CLR 15/08 A3007 RMK AO2 SLP150 T01500083,M
TPH,2022-08-19 12:56,-117.0904,38.0505,1654.00,61.00,47.00,59.71,330.00,6.00,0.00,30.16,1013.50,10.00,M,CLR,M,M,M,M,M,M,M,M,M,M,M,M,M,M,61.00,KTPH 191256Z AUTO 33006KT 10SM CLR 16/08 A3016 RMK AO2 SLP135 T01610083,M
HND,2022-08-19 12:56,-115.1344,35.9729,742.79,76.00,66.00,71.41,90.00,4.00,0.00,29.93,1012.20,10.00,M,CLR,M,M,M,M,M,M,M,M,M,M,M,M,M,M,75.90,KHND 191256Z AUTO 09004KT 10SM CLR 24/19 A2993 RMK AO2 SLP122 T02440189,M
LSV,2022-08-19 12:58,-115.0343,36.2362,570.00,77.00,72.50,86.02,80.00,4.00,0.00,29.88,1009.30,10.00,M,CLR,M,M,M,M,M,M,M,M,M,M,M,M,M,M,77.00,KLSV 191258Z AUTO 08004KT 10SM CLR 25/23 A2988 RMK AO2 SLP093 T02500225 $,M
INS,2022-08-19 12:58,-115.6733,36.5872,955.00,73.60,59.70,61.79,350.00,4.00,0.00,29.97,1009.70,10.00,M,FEW,M,M,M,14000.00,M,M,M,M,M,M,M,M,M,M,73.60,KINS 191258Z AUTO 35004KT 10SM FEW140 23/15 A2997 RMK AO2 SLP097 T02310154 $,M
CXP,2022-08-19 13:15,-119.7326,39.1923,1431.00,53.60,46.40,76.50,0.00,0.00,0.00,30.15,M,10.00,M,CLR,M,M,M,M,M,M,M,M,M,M,M,M,M,M,53.60,KCXP 191315Z AUTO 00000KT 10SM CLR 12/08 A3015 RMK AO2,M
TMT,2022-08-19 13:15,-117.1971,39.4643,1749.34,46.00,38.00,73.76,0.00,0.00,0.00,30.21,M,10.00,M,CLR,M,M,M,M,M,M,M,M,M,M,M,M,M,M,46.00,KTMT 191315Z AUTO 00000KT 10SM CLR 08/03 A3021 RMK AO2 T00780034,M
RTS,2022-08-19 13:15,-119.8764,39.6682,1539.00,51.80,46.40,81.74,M,M,0.00,30.17,M,10.00,M,CLR,M,M,M,M,M,M,M,M,M,M,M,M,M,M,51.80,KRTS 191315Z AUTO 10SM CLR 11/08 A3017 RMK AO2,M
MEV,2022-08-19 13:15,-119.7500,38.9963,1441.42,46.40,39.20,75.84,0.00,0.00,0.00,30.14,M,10.00,M,CLR,M,M,M,M,M,M,M,M,M,M,M,M,M,M,46.40,KMEV 191315Z AUTO 00000KT 10SM CLR 08/04 A3014 RMK AO2,M
HTH,2022-08-19 13:15,-118.6315,38.5448,1282.89,66.20,48.20,52.25,0.00,0.00,0.00,30.10,M,10.00,M,CLR,M,M,M,M,M,M,M,M,M,M,M,M,M,M,66.20,KHTH 191315Z AUTO 00000KT 10SM CLR 19/09 A3010 RMK A01,M
BAM,2022-08-19 13:15,-116.8743,40.5990,1382.36,51.80,46.40,81.74,160.00,5.00,0.00,30.11,M,10.00,M,CLR,M,M,M,M,M,M,M,M,M,M,M,M,M,M,51.80,KBAM 191315Z AUTO 16005KT 10SM CLR 11/08 A3011 RMK AO1,M
BVU,2022-08-19 13:15,-114.8611,35.9475,671.00,77.00,66.20,69.33,20.00,5.00,0.00,29.90,M,M,M,M,M,M,M,M,M,M,M,M,M,M,M,M,M,M,77.00,KBVU 191315Z AUTO 02005KT 25/19 A2990 RMK AO2 PWINO TSNO,M
MEV,2022-08-19 13:35,-119.7500,38.9963,1441.42,46.40,39.20,75.84,130.00,3.00,0.00,30.15,M,10.00,M,CLR,M,M,M,M,M,M,M,M,M,M,M,M,M,M,45.15,KMEV 191335Z AUTO 13003KT 10SM CLR 08/04 A3015 RMK AO2,M
TMT,2022-08-19 13:35,-117.1971,39.4643,1749.34,49.60,41.40,73.26,240.00,4.00,0.00,30.21,M,10.00,M,CLR,M,M,M,M,M,M,M,M,M,M,M,M,M,M,47.97,KTMT 191335Z AUTO 24004KT 10SM CLR 10/05 A3021 RMK AO2 T00980052,M
BVU,2022-08-19 13:35,-114.8611,35.9475,671.00,77.00,66.20,69.33,20.00,5.00,0.00,29.90,M,M,M,M,M,M,M,M,M,M,M,M,M,M,M,M,M,M,77.00,KBVU 191335Z AUTO 02005KT 25/19 A2990 RMK AO2 PWINO TSNO,M
BAM,2022-08-19 13:35,-116.8743,40.5990,1382.36,51.80,46.40,81.74,0.00,0.00,0.00,30.12,M,10.00,M,CLR,M,M,M,M,M,M,M,M,M,M,M,M,M,M,51.80,KBAM 191335Z AUTO 00000KT 10SM CLR 11/08 A3012 RMK AO1,M
HTH,2022-08-19 13:35,-118.6315,38.5448,1282.89,66.20,48.20,52.25,0.00,0.00,0.00,30.10,M,10.00,M,CLR,M,M,M,M,M,M,M,M,M,M,M,M,M,M,66.20,KHTH 191335Z AUTO 00000KT 10SM CLR 19/09 A3010 RMK A01,M
RTS,2022-08-19 13:35,-119.8764,39.6682,1539.00,53.60,48.20,81.87,M,M,0.00,30.17,M,10.00,M,CLR,M,M,M,M,M,M,M,M,M,M,M,M,M,M,53.60,KRTS 191335Z AUTO 10SM CLR 12/09 A3017 RMK AO2,M
CXP,2022-08-19 13:35,-119.7326,39.1923,1431.00,53.60,46.40,76.50,0.00,0.00,0.00,30.16,M,10.00,M,CLR,M,M,M,M,M,M,M,M,M,M,M,M,M,M,53.60,KCXP 191335Z AUTO 00000KT 10SM CLR 12/08 A3016 RMK AO2,M
ELY,2022-08-19 13:53,-114.8453,39.2950,1909.00,53.00,52.00,96.03,200.00,7.00,0.00,30.21,1014.40,10.00,M,BKN,M,M,M,11000.00,M,M,M,M,M,M,M,M,M,M,53.10,KELY 191353Z AUTO 20007KT 10SM BKN110 12/11 A3021 RMK AO2 SLP144 T01170111,M
LOL,2022-08-19 13:53,-118.5701,40.0684,1192.43,55.00,51.00,86.66,170.00,6.00,0.00,30.07,1015.10,10.00,M,CLR,M,M,M,M,M,M,M,M,M,M,M,M,M,M,55.00,KLOL 191353Z AUTO 17006KT 10SM CLR 13/11 A3007 RMK AO2 SLP151 T01280106,M
P68,2022-08-19 13:53,-116.0056,39.6014,1993.00,54.00,45.00,71.50,160.00,6.00,0.00,30.19,1015.30,M,M,M,M,M,M,M,M,M,M,M,M,M,M,M,M,M,54.00,KP68 191353Z AUTO 16006KT 12/07 A3019 RMK AO1 SLP153 T01220072,M
DRA,2022-08-19 13:53,-116.0278,36.6206,1009.00,76.00,57.00,51.93,50.00,4.00,0.00,29.98,1009.70,10.00,M,CLR,M,M,M,M,M,M,M,M,M,M,M,M,M,M,75.90,KDRA 191353Z AUTO 05004KT 10SM CLR 24/14 A2998 RMK AO2 SLP097 T02440139,M
VGT,2022-08-19 13:53,-115.1933,36.2111,667.00,81.00,64.00,56.30,10.00,4.00,0.00,29.90,1011.40,10.00,M,CLR,M,M,M,M,M,M,M,M,M,M,M,M,M,M,82.54,KVGT 191353Z 01004KT 10SM CLR 27/18 A2990 RMK AO2 SLP114 T02720178,M
CXP,2022-08-19 13:55,-119.7326,39.1923,1431.00,55.40,44.60,66.91,0.00,0.00,0.00,30.16,M,10.00,M,CLR,M,M,M,M,M,M,M,M,M,M,M,M,M,M,55.40,KCXP 191355Z AUTO 00000KT 10SM CLR 13/07 A3016 RMK AO2,M
TMT,2022-08-19 13:55,-117.1971,39.4643,1749.34,49.80,41.40,72.72,0.00,0.00,0.00,30.21,M,10.00,M,CLR,M,M,M,M,M,M,M,M,M,M,M,M,M,M,49.80,KTMT 191355Z AUTO 00000KT 10SM CLR 10/05 A3021 RMK AO2 T00990052,M
HTH,2022-08-19 13:55,-118.6315,38.5448,1282.89,66.20,48.20,52.25,270.00,4.00,0.00,30.11,M,10.00,M,CLR,M,M,M,M,M,M,M,M,M,M,M,M,M,M,66.20,KHTH 191355Z AUTO 27004KT 10SM CLR 19/09 A3011 RMK A01,M
BAM,2022-08-19 13:55,-116.8743,40.5990,1382.36,55.40,48.20,76.66,0.00,0.00,0.00,30.12,M,10.00,M,CLR,M,M,M,M,M,M,M,M,M,M,M,M,M,M,55.40,KBAM 191355Z AUTO 00000KT 10SM CLR 13/09 A3012 RMK AO1,M
MEV,2022-08-19 13:55,-119.7500,38.9963,1441.42,48.20,41.00,76.01,120.00,5.00,0.00,30.15,M,10.00,M,CLR,M,M,M,M,M,M,M,M,M,M,M,M,M,M,45.63,KMEV 191355Z AUTO 12005KT 10SM CLR 09/05 A3015 RMK AO2,M
RTS,2022-08-19 13:55,-119.8764,39.6682,1539.00,51.80,48.20,87.47,M,M,0.00,30.17,M,10.00,M,CLR,M,M,M,M,M,M,M,M,M,M,M,M,M,M,51.80,KRTS 191355Z AUTO 10SM CLR 11/09 A3017 RMK AO2,M
RNO,2022-08-19 13:55,-119.7711,39.4839,1341.00,61.00,46.00,57.72,290.00,3.00,0.00,30.13,1015.30,10.00,M,CLR,M,M,M,M,M,M,M,M,M,M,M,M,M,M,61.00,KRNO 191355Z 29003KT 10SM CLR 16/08 A3013 RMK AO2 SLP153 HZ DSNT N T01610078,M
BVU,2022-08-19 13:55,-114.8611,35.9475,671.00,78.80,64.40,61.36,30.00,5.00,0.00,29.91,M,M,M,M,M,M,M,M,M,M,M,M,M,M,M,M,M,M,78.80,KBVU 191355Z AUTO 03005KT 26/18 A2991 RMK AO2 PWINO TSNO,M
TPH,2022-08-19 13:56,-117.0904,38.0505,1654.00,64.00,45.00,49.99,10.00,11.00,0.00,30.17,1013.80,10.00,M,CLR,M,M,M,M,M,M,M,M,M,M,M,M,M,M,64.00,KTPH 191356Z AUTO 01011KT 10SM CLR 18/07 A3017 RMK AO2 SLP138 T01780072,M
LAS,2022-08-19 13:56,-115.1634,36.0719,663.00,83.00,60.00,46.12,330.00,9.00,0.00,29.92,1010.10,10.00,M,FEW,BKN,BKN,M,12000.00,16000.00,22000.00,M,M,M,M,M,M,M,M,83.13,KLAS 191356Z 33009KT 10SM FEW120 BKN160 BKN220 28/16 A2992 RMK AO2 SLP101 T02830156,M
HND,2022-08-19 13:56,-115.1344,35.9729,742.79,79.00,65.00,62.03,0.00,0.00,0.00,29.95,1012.70,10.00,M,CLR,M,M,M,M,M,M,M,M,M,M,M,M,M,M,79.00,KHND 191356Z 00000KT 10SM CLR 26/18 A2995 RMK AO2 SLP127 T02610183,M
WMC,2022-08-19 13:56,-117.8072,40.9019,1315.00,59.00,48.00,66.83,0.00,0.00,0.00,30.09,1014.60,10.00,M,CLR,M,M,M,M,M,M,M,M,M,M,M,M,M,M,59.00,KWMC 191356Z AUTO 00000KT 10SM CLR 15/09 A3009 RMK AO2 SLP146 T01500089,M
NFL,2022-08-19 13:56,-118.7010,39.4166,1199.00,63.00,48.00,57.99,160.00,3.00,0.00,30.08,1015.30,10.00,M,CLR,M,M,M,M,M,M,M,M,M,M,M,M,M,M,63.00,KNFL 191356Z AUTO 16003KT 10SM CLR 17/09 A3008 RMK AO2 SLP153 T01720089,M
EKO,2022-08-19 13:56,-115.7860,40.8242,1367.00,50.00,50.00,100.00,0.00,0.00,0.00,30.14,1016.90,10.00,M,CLR,M,M,M,M,M,M,M,M,M,M,M,M,M,M,50.00,KEKO 191356Z AUTO 00000KT 10SM CLR 10/10 A3014 RMK AO2 SLP169 T01000100 $,M
LSV,2022-08-19 13:58,-115.0343,36.2362,570.00,79.30,69.80,72.74,60.00,8.00,0.00,29.89,1009.70,10.00,M,BKN,M,M,M,17000.00,M,M,M,M,M,M,M,M,M,M,79.30,KLSV 191358Z AUTO 06008KT 10SM BKN170 26/21 A2989 RMK AO2 SLP097 T02630210 $,M
INS,2022-08-19 13:58,-115.6733,36.5872,955.00,74.70,58.80,57.67,0.00,0.00,0.00,29.98,1010.10,10.00,M,CLR,M,M,M,M,M,M,M,M,M,M,M,M,M,M,74.70,KINS 191358Z AUTO 00000KT 10SM CLR 24/15 A2998 RMK AO2 SLP101 T02370149 $,M
CXP,2022-08-19 14:15,-119.7326,39.1923,1431.00,59.00,44.60,58.77,0.00,0.00,0.00,30.16,M,10.00,M,CLR,M,M,M,M,M,M,M,M,M,M,M,M,M,M,59.00,KCXP 191415Z AUTO 00000KT 10SM CLR 15/07 A3016 RMK AO2,M
BVU,2022-08-19 14:15,-114.8611,35.9475,671.00,78.80,66.20,65.33,0.00,0.00,0.00,29.91,M,M,M,M,M,M,M,M,M,M,M,M,M,M,M,M,M,M,78.80,KBVU 191415Z AUTO 00000KT 26/19 A2991 RMK AO2 PWINO TSNO,M
TMT,2022-08-19 14:15,-117.1971,39.4643,1749.34,51.60,42.00,69.88,0.00,0.00,0.00,30.21,M,10.00,M,CLR,M,M,M,M,M,M,M,M,M,M,M,M,M,M,51.60,KTMT 191415Z AUTO 00000KT 10SM CLR 11/06 A3021 RMK AO2 T01090056,M
HTH,2022-08-19 14:15,-118.6315,38.5448,1282.89,66.20,48.20,52.25,240.00,3.00,0.00,30.11,M,10.00,M,CLR,M,M,M,M,M,M,M,M,M,M,M,M,M,M,66.20,KHTH 191415Z AUTO 24003KT 10SM CLR 19/09 A3011 RMK A01,M
BAM,2022-08-19 14:15,-116.8743,40.5990,1382.36,60.80,50.00,67.54,0.00,0.00,0.00,30.12,M,10.00,M,CLR,M,M,M,M,M,M,M,M,M,M,M,M,M,M,60.80,KBAM 191415Z AUTO 00000KT 10SM CLR 16/10 A3012 RMK AO1,M
MEV,2022-08-19 14:15,-119.7500,38.9963,1441.42,53.60,42.80,66.70,0.00,0.00,0.00,30.15,M,10.00,M,CLR,M,M,M,M,M,M,M,M,M,M,M,M,M,M,53.60,KMEV 191415Z AUTO 00000KT 10SM CLR 12/06 A3015 RMK AO2,M
RTS,2022-08-19 14:15,-119.8764,39.6682,1539.00,53.60,50.00,87.56,0.00,0.00,0.00,30.17,M,10.00,M,CLR,M,M,M,M,M,M,M,M,M,M,M,M,M,M,53.60,KRTS 191415Z AUTO 00000KT 10SM CLR 12/10 A3017 RMK AO2,M
BAM,2022-08-19 14:35,-116.8743,40.5990,1382.36,64.40,50.00,59.50,80.00,3.00,0.00,30.11,M,10.00,M,CLR,M,M,M,M,M,M,M,M,M,M,M,M,M,M,64.40,KBAM 191435Z AUTO 08003KT 10SM CLR 18/10 A3011 RMK AO1,M
CXP,2022-08-19 14:35,-119.7326,39.1923,1431.00,62.60,42.80,48.28,0.00,0.00,0.00,30.16,M,10.00,M,CLR,M,M,M,M,M,M,M,M,M,M,M,M,M,M,62.60,KCXP 191435Z AUTO 00000KT 10SM CLR 17/06 A3016 RMK AO2,M
BVU,2022-08-19 14:35,-114.8611,35.9475,671.00,78.80,68.00,69.52,0.00,0.00,0.00,29.92,M,M,M,M,M,M,M,M,M,M,M,M,M,M,M,M,M,M,78.80,KBVU 191435Z AUTO 00000KT 26/20 A2992 RMK AO2 PWINO TSNO,M
MEV,2022-08-19 14:35,-119.7500,38.9963,1441.42,57.20,44.60,62.69,0.00,0.00,0.00,30.15,M,10.00,M,CLR,M,M,M,M,M,M,M,M,M,M,M,M,M,M,57.20,KMEV 191435Z AUTO 00000KT 10SM CLR 14/07 A3015 RMK AO2,M
HTH,2022-08-19 14:35,-118.6315,38.5448,1282.89,68.00,48.20,49.10,230.00,3.00,0.00,30.11,M,10.00,M,CLR,M,M,M,M,M,M,M,M,M,M,M,M,M,M,68.00,KHTH 191435Z AUTO 23003KT 10SM CLR 20/09 A3011 RMK A01,M
TMT,2022-08-19 14:35,-117.1971,39.4643,1749.34,56.70,44.40,63.35,240.00,3.00,0.00,30.21,M,10.00,M,CLR,M,M,M,M,M,M,M,M,M,M,M,M,M,M,56.70,KTMT 191435Z AUTO 24003KT 10SM CLR 14/07 A3021 RMK AO2 T01370069,M
RTS,2022-08-19 14:35,-119.8764,39.6682,1539.00,57.20,51.80,82.12,0.00,0.00,0.00,30.17,M,10.00,M,CLR,M,M,M,M,M,M,M,M,M,M,M,M,M,M,57.20,KRTS 191435Z AUTO 00000KT 10SM CLR 14/11 A3017 RMK AO2,M
P68,2022-08-19 14:53,-116.0056,39.6014,1993.00,65.00,47.00,52.06,180.00,5.00,0.00,30.19,1014.50,M,M,M,M,M,M,M,M,M,M,M,M,M,M,M,M,M,64.90,KP68 191453Z AUTO 18005KT 18/08 A3019 RMK AO1 SLP145 T01830083 51003,M
VGT,2022-08-19 14:53,-115.1933,36.2111,667.00,84.00,61.00,45.96,0.00,0.00,0.00,29.92,1011.70,10.00,M,CLR,M,M,M,M,M,M,M,M,M,M,M,M,M,M,84.32,KVGT 191453Z 00000KT 10SM CLR 29/16 A2992 RMK AO2 SLP117 T02890161 51015,M
ELY,2022-08-19 14:53,-114.8453,39.2950,1909.00,59.00,54.00,83.46,200.00,6.00,0.00,30.21,1014.00,10.00,M,BKN,M,M,M,11000.00,M,M,M,M,M,M,M,M,M,M,59.00,KELY 191453Z AUTO 20006KT 10SM BKN110 15/12 A3021 RMK AO2 SLP140 T01500122 53004,M
LOL,2022-08-19 14:53,-118.5701,40.0684,1192.43,63.00,56.00,77.61,0.00,0.00,0.00,30.08,1015.20,10.00,M,CLR,M,M,M,M,M,M,M,M,M,M,M,M,M,M,63.00,KLOL 191453Z AUTO 00000KT 10SM CLR 17/13 A3008 RMK AO2 SLP152 T01720133 53004,M
DRA,2022-08-19 14:53,-116.0278,36.6206,1009.00,79.00,60.00,52.38,110.00,9.00,0.00,29.99,1010.00,10.00,M,CLR,M,M,M,M,M,M,M,M,M,M,M,M,M,M,79.00,KDRA 191453Z AUTO 11009KT 10SM CLR 26/16 A2999 RMK AO2 SLP100 T02610156 53002 $,M
BVU,2022-08-19 14:55,-114.8611,35.9475,671.00,80.60,66.20,61.58,0.00,0.00,0.00,29.92,M,M,M,M,M,M,M,M,M,M,M,M,M,M,M,M,M,M,82.75,KBVU 191455Z AUTO 00000KT 27/19 A2992 RMK AO2 PWINO TSNO,M
CXP,2022-08-19 14:55,-119.7326,39.1923,1431.00,64.40,41.00,42.28,300.00,4.00,0.00,30.16,M,10.00,M,CLR,M,M,M,M,M,M,M,M,M,M,M,M,M,M,64.40,KCXP 191455Z AUTO 30004KT 10SM CLR 18/05 A3016 RMK AO2,M
RTS,2022-08-19 14:55,-119.8764,39.6682,1539.00,59.00,51.80,76.98,0.00,0.00,0.00,30.17,M,10.00,M,CLR,M,M,M,M,M,M,M,M,M,M,M,M,M,M,59.00,KRTS 191455Z AUTO 00000KT 10SM CLR 15/11 A3017 RMK AO2,M
MEV,2022-08-19 14:55,-119.7500,38.9963,1441.42,60.80,42.80,51.45,0.00,0.00,0.00,30.15,M,10.00,M,CLR,M,M,M,M,M,M,M,M,M,M,M,M,M,M,60.80,KMEV 191455Z AUTO 00000KT 10SM CLR 16/06 A3015 RMK AO2,M
BAM,2022-08-19 14:55,-116.8743,40.5990,1382.36,68.00,50.00,52.51,100.00,4.00,0.00,30.11,M,10.00,M,SCT,M,M,M,12000.00,M,M,M,M,M,M,M,M,M,M,68.00,KBAM 191455Z AUTO 10004KT 10SM SCT120 20/10 A3011 RMK AO1,M
HTH,2022-08-19 14:55,-118.6315,38.5448,1282.89,68.00,48.20,49.10,250.00,4.00,0.00,30.12,M,10.00,M,CLR,M,M,M,M,M,M,M,M,M,M,M,M,M,M,68.00,KHTH 191455Z AUTO 25004KT 10SM CLR 20/09 A3012 RMK A01,M
RNO,2022-08-19 14:55,-119.7711,39.4839,1341.00,64.00,47.00,53.72,0.00,0.00,0.00,30.13,1015.20,10.00,M,CLR,M,M,M,M,M,M,M,M,M,M,M,M,M,M,64.00,KRNO 191455Z 00000KT 10SM CLR 18/08 A3013 RMK AO2 SLP152 T01780083 53002,M
TMT,2022-08-19 14:55,-117.1971,39.4643,1749.34,58.30,44.00,58.67,0.00,0.00,0.00,30.21,M,10.00,M,CLR,M,M,M,M,M,M,M,M,M,M,M,M,M,M,58.30,KTMT 191455Z AUTO 00000KT 10SM CLR 15/07 A3021 RMK AO2 T01460066,M
WMC,2022-08-19 14:56,-117.8072,40.9019,1315.00,65.00,51.00,60.90,0.00,0.00,0.00,30.09,1014.40,10.00,M,CLR,M,M,M,M,M,M,M,M,M,M,M,M,M,M,64.90,KWMC 191456Z AUTO 00000KT 10SM CLR 18/11 A3009 RMK AO2 SLP144 T01830106 51002,M
HND,2022-08-19 14:56,-115.1344,35.9729,742.79,83.00,63.00,51.10,310.00,5.00,0.00,29.96,1013.00,10.00,M,CLR,M,M,M,M,M,M,M,M,M,M,M,M,M,M,83.98,KHND 191456Z 31005KT 10SM CLR 28/17 A2996 RMK AO2 SLP130 T02830172 53012,M
LAS,2022-08-19 14:56,-115.1634,36.0719,663.00,84.00,60.00,44.51,30.00,5.00,0.00,29.93,1010.40,10.00,M,SCT,BKN,M,M,16000.00,22000.00,M,M,M,M,M,M,M,M,M,84.05,KLAS 191456Z 03005KT 10SM SCT160 BKN220 29/16 A2993 RMK AO2 SLP104 T02890156 51013,M
TPH,2022-08-19 14:56,-117.0904,38.0505,1654.00,69.00,45.00,41.90,20.00,11.00,0.00,30.17,1013.60,10.00,M,CLR,M,M,M,M,M,M,M,M,M,M,M,M,M,M,69.10,KTPH 191456Z AUTO 02011KT 10SM CLR 21/07 A3017 RMK AO2 SLP136 T02060072 53003,M
EKO,2022-08-19 14:56,-115.7860,40.8242,1367.00,55.00,53.00,93.29,0.00,0.00,0.00,30.14,1017.80,10.00,M,CLR,M,M,M,M,M,M,M,M,M,M,M,M,M,M,55.00,KEKO 191456Z AUTO 00000KT 10SM CLR 13/12 A3014 RMK AO2 SLP178 T01280117 50006 $,M
NFL,2022-08-19 14:56,-118.7010,39.4166,1199.00,69.00,48.00,46.92,190.00,4.00,0.00,30.08,1015.40,10.00,M,FEW,M,M,M,18000.00,M,M,M,M,M,M,M,M,M,M,69.10,KNFL 191456Z 19004KT 10SM FEW180 21/09 A3008 RMK AO2 SLP154 T02060089 53004,M
LSV,2022-08-19 14:58,-115.0343,36.2362,570.00,83.00,68.20,60.84,320.00,5.00,0.00,29.90,M,10.00,M,CLR,M,M,M,M,M,M,M,M,M,M,M,M,M,M,86.27,KLSV 191458Z AUTO 32005KT 10SM CLR 28/20 A2990 RMK AO2 SLPNO T02840201 52013 $,M
INS,2022-08-19 14:58,-115.6733,36.5872,955.00,75.20,60.00,58.99,0.00,0.00,0.00,29.99,1010.60,10.00,M,CLR,M,M,M,M,M,M,M,M,M,M,M,M,M,M,75.20,KINS 191458Z AUTO 00000KT 10SM CLR 24/16 A2999 RMK AO2 SLP106 T02400155 52006 $,M
BAM,2022-08-19 15:15,-116.8743,40.5990,1382.36,69.80,48.20,46.16,0.00,0.00,0.00,30.11,M,10.00,M,CLR,M,M,M,M,M,M,M,M,M,M,M,M,M,M,69.80,KBAM 191515Z AUTO 00000KT 10SM CLR 21/09 A3011 RMK AO1,M
MEV,2022-08-19 15:15,-119.7500,38.9963,1441.42,62.60,42.80,48.28,0.00,0.00,0.00,30.15,M,10.00,M,CLR,M,M,M,M,M,M,M,M,M,M,M,M,M,M,62.60,KMEV 191515Z AUTO 00000KT 10SM CLR 17/06 A3015 RMK AO2,M
RTS,2022-08-19 15:15,-119.8764,39.6682,1539.00,62.60,50.00,63.38,0.00,0.00,0.00,30.17,M,10.00,M,CLR,M,M,M,M,M,M,M,M,M,M,M,M,M,M,62.60,KRTS 191515Z AUTO 00000KT 10SM CLR 17/10 A3017 RMK AO2,M
TMT,2022-08-19 15:15,-117.1971,39.4643,1749.34,61.50,44.80,54.18,0.00,0.00,0.00,30.21,M,10.00,M,CLR,M,M,M,M,M,M,M,M,M,M,M,M,M,M,61.50,KTMT 191515Z AUTO 00000KT 10SM CLR 16/07 A3021 RMK AO2 T01640071,M
BVU,2022-08-19 15:15,-114.8611,35.9475,671.00,82.40,64.40,54.55,0.00,0.00,0.00,29.92,M,M,M,M,M,M,M,M,M,M,M,M,M,M,M,M,M,M,83.98,KBVU 191515Z AUTO 00000KT 28/18 A2992 RMK AO2 PWINO TSNO,M
CXP,2022-08-19 15:15,-119.7326,39.1923,1431.00,64.40,42.80,45.32,M,3.00,0.00,30.16,M,10.00,M,CLR,M,M,M,M,M,M,M,M,M,M,M,M,M,M,64.40,KCXP 191515Z AUTO VRB03KT 10SM CLR 18/06 A3016 RMK AO2,M
HTH,2022-08-19 15:15,-118.6315,38.5448,1282.89,68.00,48.20,49.10,290.00,5.00,0.00,30.11,M,10.00,M,CLR,M,M,M,M,M,M,M,M,M,M,M,M,M,M,68.00,KHTH 191515Z AUTO 29005KT 10SM CLR 20/09 A3011 RMK A01,M
HTH,2022-08-19 15:35,-118.6315,38.5448,1282.89,69.80,48.20,46.16,0.00,0.00,0.00,30.11,M,10.00,M,CLR,M,M,M,M,M,M,M,M,M,M,M,M,M,M,69.80,KHTH 191535Z AUTO 00000KT 10SM CLR 21/09 A3011 RMK A01,M
MEV,2022-08-19 15:35,-119.7500,38.9963,1441.42,64.40,44.60,48.55,220.00,3.00,0.00,30.14,M,10.00,M,CLR,M,M,M,M,M,M,M,M,M,M,M,M,M,M,64.40,KMEV 191535Z AUTO 22003KT 10SM CLR 18/07 A3014 RMK AO2,M
RTS,2022-08-19 15:35,-119.8764,39.6682,1539.00,64.40,48.20,55.63,0.00,0.00,0.00,30.17,M,10.00,M,CLR,M,M,M,M,M,M,M,M,M,M,M,M,M,M,64.40,KRTS 191535Z AUTO 00000KT 10SM CLR 18/09 A3017 RMK AO2,M
CXP,2022-08-19 15:35,-119.7326,39.1923,1431.00,66.20,42.80,42.57,M,3.00,0.00,30.16,M,10.00,M,CLR,M,M,M,M,M,M,M,M,M,M,M,M,M,M,66.20,KCXP 191535Z AUTO VRB03KT 10SM CLR 19/06 A3016 RMK AO2,M
BVU,2022-08-19 15:35,-114.8611,35.9475,671.00,82.40,64.40,54.55,0.00,0.00,0.00,29.92,M,M,M,M,M,M,M,M,M,M,M,M,M,M,M,M,M,M,83.98,KBVU 191535Z AUTO 00000KT 28/18 A2992 RMK AO2 PWINO TSNO,M
TMT,2022-08-19 15:35,-117.1971,39.4643,1749.34,65.70,46.20,49.31,250.00,3.00,0.00,30.20,M,10.00,M,CLR,M,M,M,M,M,M,M,M,M,M,M,M,M,M,65.70,KTMT 191535Z AUTO 25003KT 10SM CLR 19/08 A3020 RMK AO2 T01870079,M
BAM,2022-08-19 15:35,-116.8743,40.5990,1382.36,71.60,48.20,43.42,0.00,0.00,0.00,30.11,M,10.00,M,CLR,M,M,M,M,M,M,M,M,M,M,M,M,M,M,71.60,KBAM 191535Z AUTO 00000KT 10SM CLR 22/09 A3011 RMK AO1,M
DRA,2022-08-19 15:53,-116.0278,36.6206,1009.00,83.00,57.00,41.27,110.00,10.00,0.00,29.97,1009.60,10.00,M,CLR,M,M,M,M,M,M,M,M,M,M,M,M,M,M,82.41,KDRA 191553Z AUTO 11010KT 10SM CLR 28/14 A2997 RMK AO2 SLP096 T02830139 $,M
ELY,2022-08-19 15:53,-114.8453,39.2950,1909.00,67.00,53.00,61.16,M,3.00,0.00,30.20,1012.90,10.00,M,FEW,M,M,M,12000.00,M,M,M,M,M,M,M,M,M,M,66.90,KELY 191553Z AUTO VRB03KT 10SM FEW120 19/12 A3020 RMK AO2 SLP129 T01940117,M
LOL,2022-08-19 15:53,-118.5701,40.0684,1192.43,71.00,55.00,56.77,0.00,0.00,0.00,30.07,1014.70,10.00,M,CLR,M,M,M,M,M,M,M,M,M,M,M,M,M,M,71.10,KLOL 191553Z AUTO 00000KT 10SM CLR 22/13 A3007 RMK AO2 SLP147 T02170128,M
P68,2022-08-19 15:53,-116.0056,39.6014,1993.00,70.00,44.00,39.26,0.00,0.00,0.00,30.18,1014.10,M,M,M,M,M,M,M,M,M,M,M,M,M,M,M,M,M,70.00,KP68 191553Z AUTO 00000KT 21/07 A3018 RMK AO1 SLP141 T02110067,M
VGT,2022-08-19 15:53,-115.1933,36.2111,667.00,85.00,61.00,44.65,0.00,0.00,0.00,29.91,1011.60,10.00,M,CLR,M,M,M,M,M,M,M,M,M,M,M,M,M,M,85.12,KVGT 191553Z 00000KT 10SM CLR 29/16 A2991 RMK AO2 SLP116 T02940161,M
CXP,2022-08-19 15:55,-119.7326,39.1923,1431.00,68.00,42.80,40.00,0.00,0.00,0.00,30.16,M,10.00,M,CLR,M,M,M,M,M,M,M,M,M,M,M,M,M,M,68.00,KCXP 191555Z AUTO 00000KT 10SM CLR 20/06 A3016 RMK AO2,M
BVU,2022-08-19 15:55,-114.8611,35.9475,671.00,84.20,62.60,48.32,0.00,0.00,0.00,29.92,M,M,M,M,M,M,M,M,M,M,M,M,M,M,M,M,M,M,85.03,KBVU 191555Z AUTO 00000KT 29/17 A2992 RMK AO2 PWINO TSNO,M
RNO,2022-08-19 15:55,-119.7711,39.4839,1341.00,68.00,50.00,52.51,160.00,3.00,0.00,30.13,1015.20,10.00,M,CLR,M,M,M,M,M,M,M,M,M,M,M,M,M,M,68.00,KRNO 191555Z 16003KT 10SM CLR 20/10 A3013 RMK AO2 SLP152 FU ALF DSNT N THRU NE T02000100,M
RTS,2022-08-19 15:55,-119.8764,39.6682,1539.00,66.20,48.20,52.25,0.00,0.00,0.00,30.17,M,10.00,M,CLR,M,M,M,M,M,M,M,M,M,M,M,M,M,M,66.20,KRTS 191555Z AUTO 00000KT 10SM CLR 19/09 A3017 RMK AO2,M
MEV,2022-08-19 15:55,-119.7500,38.9963,1441.42,66.20,44.60,45.60,0.00,0.00,0.00,30.14,M,10.00,M,CLR,M,M,M,M,M,M,M,M,M,M,M,M,M,M,66.20,KMEV 191555Z AUTO 00000KT 10SM CLR 19/07 A3014 RMK AO2,M
BAM,2022-08-19 15:55,-116.8743,40.5990,1382.36,73.40,48.20,40.85,50.00,5.00,0.00,30.11,M,10.00,M,CLR,M,M,M,M,M,M,M,M,M,M,M,M,M,M,73.40,KBAM 191555Z AUTO 05005KT 10SM CLR 23/09 A3011 RMK AO1,M
HTH,2022-08-19 15:55,-118.6315,38.5448,1282.89,71.60,50.00,46.43,300.00,3.00,0.00,30.11,M,10.00,M,CLR,M,M,M,M,M,M,M,M,M,M,M,M,M,M,71.60,KHTH 191555Z AUTO 30003KT 10SM CLR 22/10 A3011 RMK A01,M
TMT,2022-08-19 15:55,-117.1971,39.4643,1749.34,M,M,M,210.00,4.00,0.00,30.20,M,10.00,M,CLR,M,M,M,M,M,M,M,M,M,M,M,M,M,M,M,KTMT 191555Z AUTO 21004KT 10SM CLR A3020 RMK AO2,M
HND,2022-08-19 15:56,-115.1344,35.9729,742.79,84.00,63.00,49.32,30.00,5.00,0.00,29.96,1013.00,10.00,M,CLR,M,M,M,M,M,M,M,M,M,M,M,M,M,M,84.99,KHND 191556Z 03005KT 10SM CLR 29/17 A2996 RMK AO2 SLP130 T02890172,M
TPH,2022-08-19 15:56,-117.0904,38.0505,1654.00,76.00,43.00,30.85,10.00,6.00,0.00,30.17,1013.00,10.00,M,CLR,M,M,M,M,M,M,M,M,M,M,M,M,M,M,75.90,KTPH 191556Z AUTO 01006KT 10SM CLR 24/06 A3017 RMK AO2 SLP130 T02440061,M
EKO,2022-08-19 15:56,-115.7860,40.8242,1367.00,59.00,55.00,86.56,260.00,3.00,0.00,30.13,1016.70,10.00,M,CLR,M,M,M,M,M,M,M,M,M,M,M,M,M,M,59.00,KEKO 191556Z AUTO 26003KT 10SM CLR 15/13 A3013 RMK AO2 SLP167 T01500128,M
WMC,2022-08-19 15:56,-117.8072,40.9019,1315.00,74.00,51.00,44.76,260.00,3.00,0.00,30.09,1014.00,10.00,M,CLR,M,M,M,M,M,M,M,M,M,M,M,M,M,M,73.90,KWMC 191556Z AUTO 26003KT 10SM CLR 23/11 A3009 RMK AO2 SLP140 T02330106 $,M
LAS,2022-08-19 15:56,-115.1634,36.0719,663.00,87.00,58.00,37.25,40.00,7.00,0.00,29.93,1010.60,10.00,M,SCT,SCT,M,M,16000.00,22000.00,M,M,M,M,M,M,M,M,M,86.14,KLAS 191556Z 04007KT 10SM SCT160 SCT220 31/14 A2993 RMK AO2 SLP106 T03060144,M
LSV,2022-08-19 15:58,-115.0343,36.2362,570.00,89.60,65.30,44.72,0.00,0.00,0.00,29.89,M,10.00,M,FEW,M,M,M,21000.00,M,M,M,M,M,M,M,M,M,M,91.73,KLSV 191558Z AUTO 00000KT 10SM FEW210 32/19 A2989 RMK AO2 SLPNO T03200185 $,M
INS,2022-08-19 15:58,-115.6733,36.5872,955.00,81.50,56.80,42.88,0.00,0.00,0.00,29.98,M,10.00,M,CLR,M,M,M,M,M,M,M,M,M,M,M,M,M,M,81.36,KINS 191558Z AUTO 00000KT 10SM CLR 28/14 A2998 RMK AO2 SLPNO T02750138 $,M
TMT,2022-08-19 16:15,-117.1971,39.4643,1749.34,M,M,M,200.00,4.00,0.00,30.19,M,10.00,M,CLR,M,M,M,M,M,M,M,M,M,M,M,M,M,M,M,KTMT 191615Z AUTO 20004KT 10SM CLR A3019 RMK AO2,M
CXP,2022-08-19 16:15,-119.7326,39.1923,1431.00,69.80,41.00,35.09,0.00,0.00,0.00,30.16,M,10.00,M,CLR,M,M,M,M,M,M,M,M,M,M,M,M,M,M,69.80,KCXP 191615Z AUTO 00000KT 10SM CLR 21/05 A3016 RMK AO2,M
BVU,2022-08-19 16:15,-114.8611,35.9475,671.00,86.00,64.40,48.58,260.00,5.00,0.00,29.92,M,M,M,M,M,M,M,M,M,M,M,M,M,M,M,M,M,M,87.49,KBVU 191615Z AUTO 26005KT 30/18 A2992 RMK AO2 PWINO TSNO,M
RTS,2022-08-19 16:15,-119.8764,39.6682,1539.00,68.00,46.40,45.88,0.00,0.00,0.00,30.16,M,10.00,M,CLR,M,M,M,M,M,M,M,M,M,M,M,M,M,M,68.00,KRTS 191615Z AUTO 00000KT 10SM CLR 20/08 A3016 RMK AO2,M
MEV,2022-08-19 16:15,-119.7500,38.9963,1441.42,68.00,42.80,40.00,0.00,0.00,0.00,30.14,M,10.00,M,CLR,M,M,M,M,M,M,M,M,M,M,M,M,M,M,68.00,KMEV 191615Z AUTO 00000KT 10SM CLR 20/06 A3014 RMK AO2,M
BAM,2022-08-19 16:15,-116.8743,40.5990,1382.36,75.20,48.20,38.46,0.00,0.00,0.00,30.11,M,10.00,M,CLR,M,M,M,M,M,M,M,M,M,M,M,M,M,M,75.20,KBAM 191615Z AUTO 00000KT 10SM CLR 24/09 A3011 RMK AO1,M
HTH,2022-08-19 16:15,-118.6315,38.5448,1282.89,73.40,48.20,40.85,330.00,4.00,0.00,30.11,M,10.00,M,CLR,M,M,M,M,M,M,M,M,M,M,M,M,M,M,73.40,KHTH 191615Z AUTO 33004KT 10SM CLR 23/09 A3011 RMK A01,M
CXP,2022-08-19 16:35,-119.7326,39.1923,1431.00,73.40,42.80,33.29,0.00,0.00,0.00,30.15,M,10.00,M,CLR,M,M,M,M,M,M,M,M,M,M,M,M,M,M,73.40,KCXP 191635Z AUTO 00000KT 10SM CLR 23/06 A3015 RMK AO2,M
BVU,2022-08-19 16:35,-114.8611,35.9475,671.00,86.00,62.60,45.61,M,4.00,0.00,29.92,M,M,M,M,M,M,M,M,M,M,M,M,M,M,M,M,M,M,86.72,KBVU 191635Z AUTO VRB04KT 30/17 A2992 RMK AO2 PWINO TSNO,M
RTS,2022-08-19 16:35,-119.8764,39.6682,1539.00,71.60,48.20,43.42,0.00,0.00,0.00,30.16,M,10.00,M,CLR,M,M,M,M,M,M,M,M,M,M,M,M,M,M,71.60,KRTS 191635Z AUTO 00000KT 10SM CLR 22/09 A3016 RMK AO2,M
MEV,2022-08-19 16:35,-119.7500,38.9963,1441.42,69.80,42.80,37.61,0.00,0.00,0.00,30.14,M,10.00,M,CLR,M,M,M,M,M,M,M,M,M,M,M,M,M,M,69.80,KMEV 191635Z AUTO 00000KT 10SM CLR 21/06 A3014 RMK AO2,M
BAM,2022-08-19 16:35,-116.8743,40.5990,1382.36,77.00,48.20,36.22,320.00,5.00,0.00,30.11,M,10.00,M,CLR,M,M,M,M,M,M,M,M,M,M,M,M,M,M,77.00,KBAM 191635Z AUTO 32005KT 10SM CLR 25/09 A3011 RMK AO1,M
TMT,2022-08-19 16:35,-117.1971,39.4643,1749.34,M,M,M,210.00,4.00,0.00,30.19,M,10.00,M,CLR,M,M,M,M,M,M,M,M,M,M,M,M,M,M,M,KTMT 191635Z AUTO 21004KT 10SM CLR A3019 RMK AO2,M
HTH,2022-08-19 16:35,-118.6315,38.5448,1282.89,75.20,46.40,35.94,320.00,5.00,0.00,30.11,M,10.00,M,CLR,M,M,M,M,M,M,M,M,M,M,M,M,M,M,75.20,KHTH 191635Z AUTO 32005KT 10SM CLR 24/08 A3011 RMK A01,M
P68,2022-08-19 16:53,-116.0056,39.6014,1993.00,76.00,44.00,32.17,40.00,5.00,0.00,30.18,1013.50,M,M,M,M,M,M,M,M,M,M,M,M,M,M,M,M,M,75.90,KP68 191653Z AUTO 04005KT 24/07 A3018 RMK AO1 SLP135 T02440067,M
DRA,2022-08-19 16:53,-116.0278,36.6206,1009.00,86.00,57.00,37.35,M,5.00,0.00,29.97,1009.10,10.00,16.00,CLR,M,M,M,M,M,M,M,M,M,M,M,M,M,M,84.92,KDRA 191653Z AUTO VRB05G16KT 10SM CLR 30/14 A2997 RMK AO2 SLP091 T03000139,M
ELY,2022-08-19 16:53,-114.8453,39.2950,1909.00,74.00,45.00,35.60,0.00,0.00,0.00,30.19,1012.00,10.00,M,CLR,M,M,M,M,M,M,M,M,M,M,M,M,M,M,73.90,KELY 191653Z AUTO 00000KT 10SM CLR 23/07 A3019 RMK AO2 SLP120 T02330072,M
LOL,2022-08-19 16:53,-118.5701,40.0684,1192.43,77.00,53.00,43.44,0.00,0.00,0.00,30.07,1014.50,10.00,M,CLR,M,M,M,M,M,M,M,M,M,M,M,M,M,M,77.00,KLOL 191653Z AUTO 00000KT 10SM CLR 25/12 A3007 RMK AO2 SLP145 T02500117,M
VGT,2022-08-19 16:53,-115.1933,36.2111,667.00,90.00,60.00,36.77,M,3.00,0.00,29.91,1011.40,10.00,M,CLR,M,M,M,M,M,M,M,M,M,M,M,M,M,M,89.66,KVGT 191653Z VRB03KT 10SM CLR 32/16 A2991 RMK AO2 SLP114 T03220156,M
BAM,2022-08-19 16:55,-116.8743,40.5990,1382.36,77.00,48.20,36.22,0.00,0.00,0.00,30.11,M,10.00,M,CLR,M,M,M,M,M,M,M,M,M,M,M,M,M,M,77.00,KBAM 191655Z AUTO 00000KT 10SM CLR 25/09 A3011 RMK AO1,M
CXP,2022-08-19 16:55,-119.7326,39.1923,1431.00,75.20,42.80,31.34,0.00,0.00,0.00,30.15,M,10.00,M,CLR,M,M,M,M,M,M,M,M,M,M,M,M,M,M,75.20,KCXP 191655Z AUTO 00000KT 10SM CLR 24/06 A3015 RMK AO2,M
RTS,2022-08-19 16:55,-119.8764,39.6682,1539.00,73.40,46.40,38.18,0.00,0.00,0.00,30.16,M,10.00,M,CLR,M,M,M,M,M,M,M,M,M,M,M,M,M,M,73.40,KRTS 191655Z AUTO 00000KT 10SM CLR 23/08 A3016 RMK AO2,M
MEV,2022-08-19 16:55,-119.7500,38.9963,1441.42,71.60,42.80,35.37,0.00,0.00,0.00,30.13,M,10.00,M,CLR,M,M,M,M,M,M,M,M,M,M,M,M,M,M,71.60,KMEV 191655Z AUTO 00000KT 10SM CLR 22/06 A3013 RMK AO2,M
RNO,2022-08-19 16:55,-119.7711,39.4839,1341.00,73.00,49.00,42.51,0.00,0.00,0.00,30.12,1014.70,10.00,M,CLR,M,M,M,M,M,M,M,M,M,M,M,M,M,M,73.00,KRNO 191655Z 00000KT 10SM CLR 23/09 A3012 RMK AO2 SLP147 T02280094,M
TMT,2022-08-19 16:55,-117.1971,39.4643,1749.34,M,M,M,250.00,5.00,0.00,30.19,M,10.00,M,CLR,M,M,M,M,M,M,M,M,M,M,M,M,M,M,M,KTMT 191655Z AUTO 25005KT 10SM CLR A3019 RMK AO2,M
HTH,2022-08-19 16:55,-118.6315,38.5448,1282.89,75.20,44.60,33.57,340.00,4.00,0.00,30.11,M,10.00,M,CLR,M,M,M,M,M,M,M,M,M,M,M,M,M,M,75.20,KHTH 191655Z AUTO 34004KT 10SM CLR 24/07 A3011 RMK A01,M
BVU,2022-08-19 16:55,-114.8611,35.9475,671.00,86.00,64.40,48.58,0.00,0.00,0.00,29.92,M,M,M,M,M,M,M,M,M,M,M,M,M,M,M,M,M,M,87.49,KBVU 191655Z AUTO 00000KT 30/18 A2992 RMK AO2 PWINO TSNO,M
EKO,2022-08-19 16:56,-115.7860,40.8242,1367.00,66.00,55.00,67.64,150.00,3.00,0.00,30.13,1016.10,10.00,M,CLR,M,M,M,M,M,M,M,M,M,M,M,M,M,M,66.00,KEKO 191656Z AUTO 15003KT 10SM CLR 19/13 A3013 RMK AO2 SLP161 T01890128,M
NFL,2022-08-19 16:56,-118.7010,39.4166,1199.00,77.00,53.00,43.44,310.00,4.00,0.00,30.08,1015.30,10.00,M,CLR,M,M,M,M,M,M,M,M,M,M,M,M,M,M,77.00,KNFL 191656Z 31004KT 10SM CLR 25/12 A3008 RMK AO2 SLP153 FU ALOFT SE T02500117,M
TPH,2022-08-19 16:56,-117.0904,38.0505,1654.00,80.00,42.00,25.94,360.00,4.00,0.00,30.15,1012.10,10.00,M,CLR,M,M,M,M,M,M,M,M,M,M,M,M,M,M,78.99,KTPH 191656Z AUTO 36004KT 10SM CLR 27/06 A3015 RMK AO2 SLP121 T02670056,M
LAS,2022-08-19 16:56,-115.1634,36.0719,663.00,88.00,58.00,36.21,100.00,4.00,0.00,29.93,1010.50,10.00,M,SCT,SCT,M,M,16000.00,22000.00,M,M,M,M,M,M,M,M,M,86.96,KLAS 191656Z 10004KT 10SM SCT160 SCT220 31/14 A2993 RMK AO2 SLP105 T03110144,M
WMC,2022-08-19 16:56,-117.8072,40.9019,1315.00,77.00,51.00,40.36,0.00,0.00,0.00,30.09,1014.20,10.00,M,CLR,M,M,M,M,M,M,M,M,M,M,M,M,M,M,77.00,KWMC 191656Z AUTO 00000KT 10SM CLR 25/11 A3009 RMK AO2 SLP142 T02500106,M
HND,2022-08-19 16:56,-115.1344,35.9729,742.79,86.00,61.00,43.10,0.00,0.00,0.00,29.96,1013.00,10.00,M,CLR,M,M,M,M,M,M,M,M,M,M,M,M,M,M,86.12,KHND 191656Z 00000KT 10SM CLR 30/16 A2996 RMK AO2 SLP130 T03000161,M
INS,2022-08-19 16:58,-115.6733,36.5872,955.00,85.60,55.00,35.06,0.00,0.00,0.00,29.97,M,10.00,M,CLR,M,M,M,M,M,M,M,M,M,M,M,M,M,M,84.11,KINS 191658Z AUTO 00000KT 10SM CLR 30/13 A2997 RMK AO2 SLPNO T02980127 $,M
LSV,2022-08-19 16:58,-115.0343,36.2362,570.00,93.20,63.00,36.87,0.00,0.00,0.00,29.89,M,10.00,M,CLR,M,M,M,M,M,M,M,M,M,M,M,M,M,M,94.41,KLSV 191658Z AUTO 00000KT 10SM CLR 34/17 A2989 RMK AO2 SLPNO T03400172 $,M
RTS,2022-08-19 17:15,-119.8764,39.6682,1539.00,73.40,46.40,38.18,210.00,4.00,0.00,30.15,M,10.00,M,CLR,M,M,M,M,M,M,M,M,M,M,M,M,M,M,73.40,KRTS 191715Z AUTO 21004KT 10SM CLR 23/08 A3015 RMK AO2,M
MEV,2022-08-19 17:15,-119.7500,38.9963,1441.42,73.40,42.80,33.29,0.00,0.00,0.00,30.13,M,10.00,M,CLR,M,M,M,M,M,M,M,M,M,M,M,M,M,M,73.40,KMEV 191715Z AUTO 00000KT 10SM CLR 23/06 A3013 RMK AO2,M
BAM,2022-08-19 17:15,-116.8743,40.5990,1382.36,78.80,50.00,36.51,10.00,4.00,0.00,30.09,M,10.00,M,CLR,M,M,M,M,M,M,M,M,M,M,M,M,M,M,78.80,KBAM 191715Z AUTO 01004KT 10SM CLR 26/10 A3009 RMK AO1,M
HTH,2022-08-19 17:15,-118.6315,38.5448,1282.89,77.00,46.40,33.85,M,5.00,0.00,30.10,M,10.00,M,CLR,M,M,M,M,M,M,M,M,M,M,M,M,M,M,77.00,KHTH 191715Z AUTO VRB05KT 10SM CLR 25/08 A3010 RMK A01,M
TMT,2022-08-19 17:15,-117.1971,39.4643,1749.34,M,M,M,200.00,6.00,0.00,30.18,M,10.00,M,CLR,M,M,M,M,M,M,M,M,M,M,M,M,M,M,M,KTMT 191715Z AUTO 20006KT 10SM CLR A3018 RMK AO2,M
BVU,2022-08-19 17:15,-114.8611,35.9475,671.00,87.80,62.60,43.07,0.00,0.00,0.00,29.92,M,M,M,M,M,M,M,M,M,M,M,M,M,M,M,M,M,M,88.48,KBVU 191715Z AUTO 00000KT 31/17 A2992 RMK AO2 PWINO TSNO,M
CXP,2022-08-19 17:15,-119.7326,39.1923,1431.00,77.00,41.00,27.53,0.00,0.00,0.00,30.14,M,10.00,M,CLR,M,M,M,M,M,M,M,M,M,M,M,M,M,M,77.00,KCXP 191715Z AUTO 00000KT 10SM CLR 25/05 A3014 RMK AO2,M
TMT,2022-08-19 17:35,-117.1971,39.4643,1749.34,M,M,M,190.00,3.00,0.00,30.18,M,10.00,M,CLR,M,M,M,M,M,M,M,M,M,M,M,M,M,M,M,KTMT 191735Z AUTO 19003KT 10SM CLR A3018 RMK AO2,M
BAM,2022-08-19 17:35,-116.8743,40.5990,1382.36,80.60,50.00,34.41,320.00,7.00,0.00,30.09,M,10.00,M,CLR,M,M,M,M,M,M,M,M,M,M,M,M,M,M,79.88,KBAM 191735Z AUTO 32007KT 10SM CLR 27/10 A3009 RMK AO1,M
MEV,2022-08-19 17:35,-119.7500,38.9963,1441.42,75.20,41.00,29.23,M,3.00,0.00,30.12,M,10.00,M,CLR,M,M,M,M,M,M,M,M,M,M,M,M,M,M,75.20,KMEV 191735Z AUTO VRB03KT 10SM CLR 24/05 A3012 RMK AO2,M
RTS,2022-08-19 17:35,-119.8764,39.6682,1539.00,75.20,46.40,35.94,130.00,5.00,0.00,30.15,M,10.00,M,CLR,M,M,M,M,M,M,M,M,M,M,M,M,M,M,75.20,KRTS 191735Z AUTO 13005KT 10SM CLR 24/08 A3015 RMK AO2,M
CXP,2022-08-19 17:35,-119.7326,39.1923,1431.00,78.80,41.00,25.95,0.00,0.00,0.00,30.13,M,10.00,M,CLR,M,M,M,M,M,M,M,M,M,M,M,M,M,M,78.80,KCXP 191735Z AUTO 00000KT 10SM CLR 26/05 A3013 RMK AO2,M
BVU,2022-08-19 17:35,-114.8611,35.9475,671.00,87.80,62.60,43.07,M,5.00,0.00,29.91,M,M,M,M,M,M,M,M,M,M,M,M,M,M,M,M,M,M,88.48,KBVU 191735Z AUTO VRB05KT 31/17 A2991 RMK AO2 PWINO TSNO,M
HTH,2022-08-19 17:35,-118.6315,38.5448,1282.89,78.80,46.40,31.90,330.00,6.00,0.00,30.10,M,10.00,M,CLR,M,M,M,M,M,M,M,M,M,M,M,M,M,M,78.80,KHTH 191735Z AUTO 33006KT 10SM CLR 26/08 A3010 RMK A01,M
VGT,2022-08-19 17:53,-115.1933,36.2111,667.00,92.00,58.00,32.03,0.00,0.00,0.00,29.89,1010.90,10.00,M,CLR,M,M,M,M,M,M,M,M,M,M,M,M,M,M,90.80,KVGT 191753Z 00000KT 10SM CLR 33/14 A2989 RMK AO2 SLP109 T03330144 10339 20272 58006,M
ELY,2022-08-19 17:53,-114.8453,39.2950,1909.00,76.00,47.00,35.78,80.00,7.00,0.00,30.18,1011.70,10.00,M,CLR,M,M,M,M,M,M,M,M,M,M,M,M,M,M,75.90,KELY 191753Z AUTO 08007KT 040V110 10SM CLR 24/08 A3018 RMK AO2 SLP117 T02440083 10250 20111 58010,M
LOL,2022-08-19 17:53,-118.5701,40.0684,1192.43,81.00,52.00,36.58,100.00,5.00,0.00,30.06,1014.10,10.00,M,CLR,M,M,M,M,M,M,M,M,M,M,M,M,M,M,80.34,KLOL 191753Z AUTO 10005KT 10SM CLR 27/11 A3006 RMK AO2 SLP141 T02720111 10272 20117 58006,M
P68,2022-08-19 17:53,-116.0056,39.6014,1993.00,75.00,43.00,31.79,M,3.00,0.00,30.16,1013.80,M,M,M,M,M,M,M,M,M,M,M,M,M,M,M,M,M,75.00,KP68 191753Z AUTO VRB03KT 24/06 A3016 RMK AO1 SLP138 T02390061 10250 20111 58007,M
DRA,2022-08-19 17:53,-116.0278,36.6206,1009.00,90.00,56.00,31.62,100.00,10.00,0.00,29.96,1009.10,10.00,16.00,CLR,M,M,M,M,M,M,M,M,M,M,M,M,M,M,88.29,KDRA 191753Z AUTO 10010G16KT 10SM CLR 32/13 A2996 RMK AO2 SLP091 T03220133 10322 20217 56008,M
CXP,2022-08-19 17:55,-119.7326,39.1923,1431.00,80.60,41.00,24.46,0.00,0.00,0.00,30.13,M,10.00,M,CLR,M,M,M,M,M,M,M,M,M,M,M,M,M,M,79.20,KCXP 191755Z AUTO 00000KT 10SM CLR 27/05 A3013 RMK AO2,M
RNO,2022-08-19 17:55,-119.7711,39.4839,1341.00,78.00,51.00,38.92,130.00,3.00,0.00,30.10,1013.80,10.00,M,FEW,M,M,M,7000.00,M,M,M,M,M,M,M,M,M,M,78.10,KRNO 191755Z 13003KT 10SM FEW070 26/11 A3010 RMK AO2 SLP138 T02560106 10256 20150 58008,M
BVU,2022-08-19 17:55,-114.8611,35.9475,671.00,89.60,60.80,38.18,0.00,0.00,0.00,29.90,M,M,M,M,M,M,M,M,M,M,M,M,M,M,M,M,M,M,89.54,KBVU 191755Z AUTO 00000KT 32/16 A2990 RMK AO2 PWINO TSNO,M
RTS,2022-08-19 17:55,-119.8764,39.6682,1539.00,77.00,46.40,33.85,M,5.00,0.00,30.15,M,10.00,M,CLR,M,M,M,M,M,M,M,M,M,M,M,M,M,M,77.00,KRTS 191755Z AUTO VRB05KT 10SM CLR 25/08 A3015 RMK AO2,M
MEV,2022-08-19 17:55,-119.7500,38.9963,1441.42,78.80,41.00,25.95,0.00,0.00,0.00,30.11,M,10.00,M,CLR,M,M,M,M,M,M,M,M,M,M,M,M,M,M,78.80,KMEV 191755Z AUTO 00000KT 10SM CLR 26/05 A3011 RMK AO2,M
BAM,2022-08-19 17:55,-116.8743,40.5990,1382.36,80.60,50.00,34.41,290.00,6.00,0.00,30.09,M,10.00,M,SCT,M,M,M,9500.00,M,M,M,M,M,M,M,M,M,M,79.88,KBAM 191755Z AUTO 29006KT 10SM SCT095 27/10 A3009 RMK AO1,M
HTH,2022-08-19 17:55,-118.6315,38.5448,1282.89,78.80,48.20,34.13,330.00,6.00,0.00,30.09,M,10.00,M,CLR,M,M,M,M,M,M,M,M,M,M,M,M,M,M,78.80,KHTH 191755Z AUTO 33006KT 10SM CLR 26/09 A3009 RMK A01,M
TMT,2022-08-19 17:55,-117.1971,39.4643,1749.34,M,M,M,0.00,0.00,0.00,30.18,M,10.00,M,CLR,M,M,M,M,M,M,M,M,M,M,M,M,M,M,M,KTMT 191755Z AUTO 00000KT 10SM CLR A3018 RMK AO2,M
NFL,2022-08-19 17:56,-118.7010,39.4166,1199.00,81.00,50.00,33.97,260.00,5.00,0.00,30.06,1014.80,10.00,M,CLR,M,M,M,M,M,M,M,M,M,M,M,M,M,M,80.12,KNFL 191756Z 26005KT 10SM CLR 27/10 A3006 RMK AO2 SLP148 T02720100 10272 20144 58006,M
TPH,2022-08-19 17:56,-117.0904,38.0505,1654.00,81.00,40.00,23.13,M,5.00,0.00,30.15,1012.30,10.00,M,CLR,M,M,M,M,M,M,M,M,M,M,M,M,M,M,79.37,KTPH 191756Z AUTO VRB05KT 10SM CLR 27/04 A3015 RMK AO2 SLP123 T02720044 10278 20161 58008,M
EKO,2022-08-19 17:56,-115.7860,40.8242,1367.00,72.00,48.00,42.51,200.00,6.00,0.00,30.11,1015.50,10.00,M,CLR,M,M,M,M,M,M,M,M,M,M,M,M,M,M,72.00,KEKO 191756Z AUTO 20006KT 10SM CLR 22/09 A3011 RMK AO2 SLP155 T02220089 10222 20072 57010,M
WMC,2022-08-19 17:56,-117.8072,40.9019,1315.00,81.00,49.00,32.60,320.00,6.00,0.00,30.08,1013.30,10.00,M,CLR,M,M,M,M,M,M,M,M,M,M,M,M,M,M,80.01,KWMC 191756Z AUTO 32006KT 10SM CLR 27/09 A3008 RMK AO2 SLP133 T02720094 10272 20100 58004,M
LAS,2022-08-19 17:56,-115.1634,36.0719,663.00,90.00,58.00,33.99,M,3.00,0.00,29.91,1009.70,10.00,M,FEW,FEW,SCT,M,11000.00,16000.00,22000.00,M,M,M,M,M,M,M,M,88.89,KLAS 191756Z VRB03KT 10SM FEW110 FEW160 SCT220 32/14 A2991 RMK AO2 SLP097 TCU DSNT NE-E T03220144 10328 20272 58005,M
HND,2022-08-19 17:56,-115.1344,35.9729,742.79,89.00,61.00,39.06,290.00,3.00,0.00,29.94,1012.20,10.00,M,CLR,M,M,M,M,M,M,M,M,M,M,M,M,M,M,89.11,KHND 191756Z 29003KT 10SM CLR 32/16 A2994 RMK AO2 SLP122 T03170161 10317 20244 58006,M
LSV,2022-08-19 17:58,-115.0343,36.2362,570.00,97.00,61.20,30.78,0.00,0.00,0.00,29.87,M,10.00,M,CLR,M,M,M,M,M,M,M,M,M,M,M,M,M,M,97.76,KLSV 191758Z AUTO 00000KT 10SM CLR 36/16 A2987 RMK AO2 SLPNO T03610162 10361 20248 55007 $,M
INS,2022-08-19 17:58,-115.6733,36.5872,955.00,88.00,54.30,31.78,160.00,3.00,0.00,29.95,1009.20,10.00,M,CLR,M,M,M,M,M,M,M,M,M,M,M,M,M,M,86.04,KINS 191758Z AUTO 16003KT 10SM CLR 31/12 A2995 RMK AO2 SLP092 T03110124 10313 20230 57010 $,M
RTS,2022-08-19 18:15,-119.8764,39.6682,1539.00,77.00,48.20,36.22,M,6.00,0.00,30.14,M,10.00,M,CLR,M,M,M,M,M,M,M,M,M,M,M,M,M,M,77.00,KRTS 191815Z AUTO VRB06KT 10SM CLR 25/09 A3014 RMK AO2,M
CXP,2022-08-19 18:15,-119.7326,39.1923,1431.00,82.40,39.20,21.51,0.00,0.00,0.00,30.12,M,10.00,M,CLR,M,M,M,M,M,M,M,M,M,M,M,M,M,M,80.21,KCXP 191815Z AUTO 00000KT 10SM CLR 28/04 A3012 RMK AO2,M
TMT,2022-08-19 18:15,-117.1971,39.4643,1749.34,M,M,M,310.00,8.00,0.00,30.17,M,10.00,M,CLR,M,M,M,M,M,M,M,M,M,M,M,M,M,M,M,KTMT 191815Z AUTO 31008KT 10SM CLR A3017 RMK AO2,M
HTH,2022-08-19 18:15,-118.6315,38.5448,1282.89,80.60,46.40,30.07,0.00,0.00,0.00,30.08,M,10.00,M,CLR,M,M,M,M,M,M,M,M,M,M,M,M,M,M,79.56,KHTH 191815Z AUTO 00000KT 10SM CLR 27/08 A3008 RMK A01,M
BAM,2022-08-19 18:15,-116.8743,40.5990,1382.36,80.60,48.20,32.18,170.00,3.00,0.00,30.08,M,10.00,M,SCT,BKN,M,M,7500.00,9500.00,M,M,M,M,M,M,M,M,M,79.71,KBAM 191815Z AUTO 17003KT 10SM SCT075 BKN095 27/09 A3008 RMK AO1,M
MEV,2022-08-19 18:15,-119.7500,38.9963,1441.42,80.60,42.80,26.22,0.00,0.00,0.00,30.11,M,10.00,M,CLR,M,M,M,M,M,M,M,M,M,M,M,M,M,M,79.30,KMEV 191815Z AUTO 00000KT 10SM CLR 27/06 A3011 RMK AO2,M
BVU,2022-08-19 18:15,-114.8611,35.9475,671.00,89.60,60.80,38.18,0.00,0.00,0.00,29.90,M,M,M,M,M,M,M,M,M,M,M,M,M,M,M,M,M,M,89.54,KBVU 191815Z AUTO 00000KT 32/16 A2990 RMK AO2 PWINO TSNO,M
RTS,2022-08-19 18:35,-119.8764,39.6682,1539.00,78.80,46.40,31.90,150.00,3.00,0.00,30.14,M,10.00,M,CLR,M,M,M,M,M,M,M,M,M,M,M,M,M,M,78.80,KRTS 191835Z AUTO 15003KT 10SM CLR 26/08 A3014 RMK AO2,M
TMT,2022-08-19 18:35,-117.1971,39.4643,1749.34,M,M,M,280.00,5.00,0.00,30.16,M,10.00,M,CLR,M,M,M,M,M,M,M,M,M,M,M,M,M,M,M,KTMT 191835Z AUTO 28005KT 10SM CLR A3016 RMK AO2,M
HTH,2022-08-19 18:35,-118.6315,38.5448,1282.89,82.40,44.60,26.49,M,5.00,0.00,30.07,M,10.00,M,CLR,M,M,M,M,M,M,M,M,M,M,M,M,M,M,80.50,KHTH 191835Z AUTO VRB05KT 10SM CLR 28/07 A3007 RMK A01,M
CXP,2022-08-19 18:35,-119.7326,39.1923,1431.00,84.20,39.20,20.29,M,3.00,0.00,30.11,M,10.00,M,CLR,M,M,M,M,M,M,M,M,M,M,M,M,M,M,81.44,KCXP 191835Z AUTO VRB03KT 10SM CLR 29/04 A3011 RMK AO2,M
BVU,2022-08-19 18:35,-114.8611,35.9475,671.00,91.40,60.80,36.08,M,4.00,0.00,29.89,M,M,M,M,M,M,M,M,M,M,M,M,M,M,M,M,M,M,91.40,KBVU 191835Z AUTO VRB04KT 33/16 A2989 RMK AO2 PWINO TSNO,M
MEV,2022-08-19 18:35,-119.7500,38.9963,1441.42,82.40,39.20,21.51,320.00,3.00,0.00,30.10,M,10.00,M,CLR,M,M,M,M,M,M,M,M,M,M,M,M,M,M,80.21,KMEV 191835Z AUTO 32003KT 10SM CLR 28/04 A3010 RMK AO2,M
BAM,2022-08-19 18:35,-116.8743,40.5990,1382.36,82.40,46.40,28.36,260.00,8.00,0.00,30.08,M,10.00,M,SCT,M,M,M,9500.00,M,M,M,M,M,M,M,M,M,M,80.64,KBAM 191835Z AUTO 26008KT 10SM SCT095 28/08 A3008 RMK AO1,M
P68,2022-08-19 18:53,-116.0056,39.6014,1993.00,80.00,39.00,23.00,M,4.00,0.00,30.15,1012.70,M,M,M,M,M,M,M,M,M,M,M,M,M,M,M,M,M,78.89,KP68 191853Z AUTO VRB04KT 27/04 A3015 RMK AO1 SLP127 T02670039,M
DRA,2022-08-19 18:53,-116.0278,36.6206,1009.00,92.00,55.00,28.84,110.00,11.00,0.00,29.94,1008.40,10.00,15.00,CLR,M,M,M,M,M,M,M,M,M,M,M,M,M,M,89.92,KDRA 191853Z AUTO 11011G15KT 10SM CLR 33/13 A2994 RMK AO2 SLP084 T03330128,M
ELY,2022-08-19 18:53,-114.8453,39.2950,1909.00,79.00,44.00,29.04,310.00,8.00,0.00,30.16,1010.80,10.00,M,CLR,M,M,M,M,M,M,M,M,M,M,M,M,M,M,79.00,KELY 191853Z AUTO 31008KT 10SM CLR 26/07 A3016 RMK AO2 SLP108 T02610067,M
VGT,2022-08-19 18:53,-115.1933,36.2111,667.00,94.00,57.00,29.14,190.00,5.00,0.00,29.87,1010.40,10.00,M,CLR,M,M,M,M,M,M,M,M,M,M,M,M,M,M,92.58,KVGT 191853Z 19005KT 10SM CLR 34/14 A2987 RMK AO2 SLP104 T03440139,M
LOL,2022-08-19 18:53,-118.5701,40.0684,1192.43,83.00,51.00,33.27,100.00,4.00,0.00,30.04,1013.10,10.00,M,CLR,M,M,M,M,M,M,M,M,M,M,M,M,M,M,81.45,KLOL 191853Z AUTO 10004KT 10SM CLR 28/11 A3004 RMK AO2 SLP131 T02830106,M
TMT,2022-08-19 18:55,-117.1971,39.4643,1749.34,M,M,M,250.00,7.00,0.00,30.16,M,10.00,15.00,CLR,M,M,M,M,M,M,M,M,M,M,M,M,M,M,M,KTMT 191855Z AUTO 25007G15KT 10SM CLR A3016 RMK AO2,M
RTS,2022-08-19 18:55,-119.8764,39.6682,1539.00,80.60,46.40,30.07,M,5.00,0.00,30.13,M,10.00,M,CLR,M,M,M,M,M,M,M,M,M,M,M,M,M,M,79.56,KRTS 191855Z AUTO VRB05KT 10SM CLR 27/08 A3013 RMK AO2,M
RNO,2022-08-19 18:55,-119.7711,39.4839,1341.00,84.00,48.00,28.60,M,4.00,0.00,30.08,1012.70,10.00,M,FEW,M,M,M,8000.00,M,M,M,M,M,M,M,M,M,M,81.87,KRNO 191855Z VRB04KT 10SM FEW080 29/09 A3008 RMK AO2 SLP127 T02890089,M
HTH,2022-08-19 18:55,-118.6315,38.5448,1282.89,82.40,44.60,26.49,320.00,4.00,0.00,30.07,M,10.00,M,CLR,M,M,M,M,M,M,M,M,M,M,M,M,M,M,80.50,KHTH 191855Z AUTO 32004KT 10SM CLR 28/07 A3007 RMK A01,M
BAM,2022-08-19 18:55,-116.8743,40.5990,1382.36,84.20,46.40,26.76,250.00,4.00,0.00,30.07,M,10.00,8.00,BKN,M,M,M,9500.00,M,M,M,M,M,M,M,M,M,M,81.87,KBAM 191855Z AUTO 25004G08KT 10SM BKN095 29/08 A3007 RMK AO1,M
MEV,2022-08-19 18:55,-119.7500,38.9963,1441.42,84.20,39.20,20.29,M,4.00,0.00,30.09,M,10.00,M,CLR,M,M,M,M,M,M,M,M,M,M,M,M,M,M,81.44,KMEV 191855Z AUTO VRB04KT 10SM CLR 29/04 A3009 RMK AO2,M
BVU,2022-08-19 18:55,-114.8611,35.9475,671.00,91.40,60.80,36.08,M,4.00,0.00,29.88,M,M,M,M,M,M,M,M,M,M,M,M,M,M,M,M,M,M,91.40,KBVU 191855Z AUTO VRB04KT 33/16 A2988 RMK AO2 PWINO TSNO,M
CXP,2022-08-19 18:55,-119.7326,39.1923,1431.00,84.20,39.20,20.29,M,4.00,0.00,30.10,M,10.00,M,CLR,M,M,M,M,M,M,M,M,M,M,M,M,M,M,81.44,KCXP 191855Z AUTO VRB04KT 10SM CLR 29/04 A3010 RMK AO2,M
TPH,2022-08-19 18:56,-117.0904,38.0505,1654.00,83.00,37.00,19.41,280.00,10.00,0.00,30.12,1011.50,10.00,M,CLR,M,M,M,M,M,M,M,M,M,M,M,M,M,M,80.46,KTPH 191856Z AUTO 28010KT 10SM CLR 28/03 A3012 RMK AO2 SLP115 T02830028,M
NFL,2022-08-19 18:56,-118.7010,39.4166,1199.00,85.00,46.00,25.77,280.00,7.00,0.00,30.04,1014.20,10.00,M,FEW,M,M,M,8000.00,M,M,M,M,M,M,M,M,M,M,82.35,KNFL 191856Z 28007KT 10SM FEW080 29/08 A3004 RMK AO2 SLP142 T02940078,M
WMC,2022-08-19 18:56,-117.8072,40.9019,1315.00,82.00,48.00,30.51,0.00,0.00,0.00,30.06,1012.80,10.00,M,CLR,M,M,M,M,M,M,M,M,M,M,M,M,M,M,80.53,KWMC 191856Z AUTO 00000KT 10SM CLR 28/09 A3006 RMK AO2 SLP128 T02780089,M
EKO,2022-08-19 18:56,-115.7860,40.8242,1367.00,76.00,47.00,35.78,M,5.00,0.00,30.09,1014.30,10.00,M,CLR,M,M,M,M,M,M,M,M,M,M,M,M,M,M,75.90,KEKO 191856Z AUTO VRB05KT 10SM CLR 24/08 A3009 RMK AO2 SLP143 T02440083,M
LAS,2022-08-19 18:56,-115.1634,36.0719,663.00,93.00,57.00,29.96,M,M,0.00,29.89,1009.10,10.00,M,FEW,FEW,SCT,M,11000.00,16000.00,22000.00,M,M,M,M,M,M,M,M,91.64,KLAS 191856Z 10SM FEW110 FEW160 SCT220 34/14 A2989 RMK AO2 SLP091 TCU DSNT NE-E T03390139,M
HND,2022-08-19 18:56,-115.1344,35.9729,742.79,91.00,60.00,35.64,80.00,4.00,0.00,29.92,1011.70,10.00,M,CLR,M,M,M,M,M,M,M,M,M,M,M,M,M,M,90.69,KHND 191856Z 08004KT 10SM CLR 33/16 A2992 RMK AO2 SLP117 T03280156,M
LSV,2022-08-19 18:58,-115.0343,36.2362,570.00,98.60,58.80,26.91,130.00,3.00,0.00,29.85,1008.30,10.00,M,CLR,M,M,M,M,M,M,M,M,M,M,M,M,M,M,98.43,KLSV 191858Z AUTO 13003KT 10SM CLR 37/15 A2985 RMK AO2 SLP083 T03700149 $,M
INS,2022-08-19 18:58,-115.6733,36.5872,955.00,90.00,53.60,28.99,110.00,4.00,0.00,29.94,1008.70,10.00,M,CLR,M,M,M,M,M,M,M,M,M,M,M,M,M,M,87.83,KINS 191858Z AUTO 11004KT 10SM CLR 32/12 A2994 RMK AO2 SLP087 T03230120 $,M
LAS,2022-08-19 19:02,-115.1634,36.0719,663.00,93.00,57.00,29.96,340.00,3.00,0.00,29.88,M,10.00,M,FEW,FEW,SCT,M,11000.00,16000.00,22000.00,M,M,M,M,M,M,M,M,91.64,KLAS 191902Z 34003KT 10SM FEW110 FEW160 SCT220 34/14 A2988 RMK AO2 T03390139,M
RTS,2022-08-19 19:15,-119.8764,39.6682,1539.00,82.40,44.60,26.49,170.00,4.00,0.00,30.12,M,10.00,M,CLR,M,M,M,M,M,M,M,M,M,M,M,M,M,M,80.50,KRTS 191915Z AUTO 17004KT 10SM CLR 28/07 A3012 RMK AO2,M
TMT,2022-08-19 19:15,-117.1971,39.4643,1749.34,79.30,42.80,27.36,0.00,0.00,0.00,30.15,M,10.00,M,CLR,M,M,M,M,M,M,M,M,M,M,M,M,M,M,79.30,KTMT 191915Z AUTO 00000KT 10SM CLR 26/06 A3015 RMK AO2 T02630060,M
MEV,2022-08-19 19:15,-119.7500,38.9963,1441.42,84.20,35.60,17.61,50.00,5.00,0.00,30.08,M,10.00,M,CLR,M,M,M,M,M,M,M,M,M,M,M,M,M,M,81.34,KMEV 191915Z AUTO 05005KT 10SM CLR 29/02 A3008 RMK AO2,M
BVU,2022-08-19 19:15,-114.8611,35.9475,671.00,91.40,59.00,33.84,0.00,0.00,0.00,29.87,M,M,M,M,M,M,M,M,M,M,M,M,M,M,M,M,M,M,90.68,KBVU 191915Z AUTO 00000KT 33/15 A2987 RMK AO2 PWINO TSNO,M
CXP,2022-08-19 19:15,-119.7326,39.1923,1431.00,84.20,39.20,20.29,60.00,5.00,0.00,30.09,M,10.00,M,CLR,M,M,M,M,M,M,M,M,M,M,M,M,M,M,81.44,KCXP 191915Z AUTO 06005KT 10SM CLR 29/04 A3009 RMK AO2,M
BAM,2022-08-19 19:15,-116.8743,40.5990,1382.36,84.20,48.20,28.63,340.00,4.00,0.00,30.07,M,10.00,M,BKN,M,M,M,11000.00,M,M,M,M,M,M,M,M,M,M,82.04,KBAM 191915Z AUTO 34004KT 10SM BKN110 29/09 A3007 RMK AO1,M
HTH,2022-08-19 19:15,-118.6315,38.5448,1282.89,84.20,42.80,23.33,0.00,0.00,0.00,30.06,M,10.00,M,CLR,M,M,M,M,M,M,M,M,M,M,M,M,M,M,81.61,KHTH 191915Z AUTO 00000KT 10SM CLR 29/06 A3006 RMK A01,M
MEV,2022-08-19 19:35,-119.7500,38.9963,1441.42,86.00,33.80,15.48,40.00,6.00,0.00,30.07,M,10.00,M,CLR,M,M,M,M,M,M,M,M,M,M,M,M,M,M,82.66,KMEV 191935Z AUTO 04006KT 10SM CLR 30/01 A3007 RMK AO2,M
BVU,2022-08-19 19:35,-114.8611,35.9475,671.00,93.20,59.00,31.99,310.00,4.00,0.00,29.86,M,M,M,M,M,M,M,M,M,M,M,M,M,M,M,M,M,M,92.57,KBVU 191935Z AUTO 31004KT 34/15 A2986 RMK AO2 PWINO TSNO,M
CXP,2022-08-19 19:35,-119.7326,39.1923,1431.00,87.80,35.60,15.70,M,4.00,0.00,30.09,M,10.00,M,CLR,M,M,M,M,M,M,M,M,M,M,M,M,M,M,84.12,KCXP 191935Z AUTO VRB04KT 10SM CLR 31/02 A3009 RMK AO2,M
RTS,2022-08-19 19:35,-119.8764,39.6682,1539.00,82.40,42.80,24.72,M,3.00,0.00,30.11,M,10.00,M,CLR,M,M,M,M,M,M,M,M,M,M,M,M,M,M,80.39,KRTS 191935Z AUTO VRB03KT 10SM CLR 28/06 A3011 RMK AO2,M
BAM,2022-08-19 19:35,-116.8743,40.5990,1382.36,84.20,48.20,28.63,320.00,7.00,0.00,30.06,M,10.00,M,OVC,M,M,M,11000.00,M,M,M,M,M,M,M,M,M,M,82.04,KBAM 191935Z AUTO 32007KT 10SM OVC110 29/09 A3006 RMK AO1,M
HTH,2022-08-19 19:35,-118.6315,38.5448,1282.89,86.00,42.80,22.02,320.00,8.00,0.00,30.05,M,10.00,M,CLR,M,M,M,M,M,M,M,M,M,M,M,M,M,M,82.95,KHTH 191935Z AUTO 32008KT 10SM CLR 30/06 A3005 RMK A01,M
TMT,2022-08-19 19:35,-117.1971,39.4643,1749.34,M,M,M,240.00,6.00,0.00,30.14,M,10.00,M,SCT,M,M,M,9000.00,M,M,M,M,M,M,M,M,M,M,M,KTMT 191935Z AUTO 24006KT 10SM SCT090 A3014 RMK AO2,M
CXP,2022-08-19 19:50,-119.7326,39.1923,1431.00,86.00,37.40,17.85,240.00,5.00,0.00,30.08,M,10.00,M,CLR,M,M,M,M,M,M,M,M,M,M,M,M,M,M,82.73,KCXP 191950Z AUTO 24005KT 10SM CLR 30/03 A3008 RMK AO2,M
VGT,2022-08-19 19:53,-115.1933,36.2111,667.00,96.00,57.00,27.23,120.00,3.00,0.00,29.85,1009.40,10.00,M,CLR,M,M,M,M,M,M,M,M,M,M,M,M,M,M,94.94,KVGT 191953Z 12003KT 10SM CLR 36/14 A2985 RMK AO2 SLP094 T03560139,M
ELY,2022-08-19 19:53,-114.8453,39.2950,1909.00,82.00,39.00,21.62,300.00,9.00,0.00,30.13,1009.70,10.00,16.00,CLR,M,M,M,M,M,M,M,M,M,M,M,M,M,M,79.94,KELY 191953Z AUTO 30009G16KT 10SM CLR 28/04 A3013 RMK AO2 SLP097 T02780039,M
P68,2022-08-19 19:53,-116.0056,39.6014,1993.00,81.00,39.00,22.33,240.00,10.00,0.00,30.12,1012.00,M,17.00,M,M,M,M,M,M,M,M,M,M,M,M,M,M,M,79.33,KP68 191953Z AUTO 24010G17KT 27/04 A3012 RMK AO1 SLP120 T02720039,M
DRA,2022-08-19 19:53,-116.0278,36.6206,1009.00,96.00,51.00,21.95,120.00,9.00,0.00,29.92,1007.40,10.00,M,CLR,M,M,M,M,M,M,M,M,M,M,M,M,M,M,93.23,KDRA 191953Z AUTO 12009KT 10SM CLR 36/11 A2992 RMK AO2 SLP074 T03560106,M
LOL,2022-08-19 19:53,-118.5701,40.0684,1192.43,86.00,49.00,27.74,M,3.00,0.00,30.01,1012.30,10.00,M,CLR,M,M,M,M,M,M,M,M,M,M,M,M,M,M,83.48,KLOL 191953Z AUTO VRB03KT 10SM CLR 30/09 A3001 RMK AO2 SLP123 T03000094,M
HTH,2022-08-19 19:55,-118.6315,38.5448,1282.89,87.80,41.00,19.40,M,4.00,0.00,30.04,M,10.00,M,CLR,M,M,M,M,M,M,M,M,M,M,M,M,M,M,84.30,KHTH 191955Z AUTO VRB04KT 10SM CLR 31/05 A3004 RMK A01,M
BVU,2022-08-19 19:55,-114.8611,35.9475,671.00,93.20,59.00,31.99,M,3.00,0.00,29.85,M,M,M,M,M,M,M,M,M,M,M,M,M,M,M,M,M,M,92.57,KBVU 191955Z AUTO VRB03KT 34/15 A2985 RMK AO2 PWINO TSNO,M
RNO,2022-08-19 19:55,-119.7711,39.4839,1341.00,86.00,46.00,24.88,M,4.00,0.00,30.05,1011.70,10.00,M,FEW,M,M,M,9000.00,M,M,M,M,M,M,M,M,M,M,83.19,KRNO 191955Z VRB04KT 10SM FEW090 30/08 A3005 RMK AO2 SLP117 T03000078,M
RTS,2022-08-19 19:55,-119.8764,39.6682,1539.00,82.40,39.20,21.51,M,6.00,0.00,30.10,M,10.00,14.00,CLR,M,M,M,M,M,M,M,M,M,M,M,M,M,M,80.21,KRTS 191955Z AUTO VRB06G14KT 10SM CLR 28/04 A3010 RMK AO2,M
MEV,2022-08-19 19:55,-119.7500,38.9963,1441.42,86.00,35.60,16.63,0.00,0.00,0.00,30.06,M,10.00,M,CLR,M,M,M,M,M,M,M,M,M,M,M,M,M,M,82.69,KMEV 191955Z AUTO 00000KT 10SM CLR 30/02 A3006 RMK AO2,M
BAM,2022-08-19 19:55,-116.8743,40.5990,1382.36,86.00,48.20,27.03,50.00,3.00,0.00,30.05,M,10.00,M,BKN,M,M,M,11000.00,M,M,M,M,M,M,M,M,M,M,83.40,KBAM 191955Z AUTO 05003KT 10SM BKN110 30/09 A3005 RMK AO1,M
TMT,2022-08-19 19:55,-117.1971,39.4643,1749.34,M,M,M,220.00,3.00,0.00,30.13,M,10.00,M,SCT,M,M,M,9000.00,M,M,M,M,M,M,M,M,M,M,M,KTMT 191955Z AUTO 22003KT 10SM SCT090 A3013 RMK AO2 LTG DSNT E,M
EKO,2022-08-19 19:56,-115.7860,40.8242,1367.00,75.00,47.00,36.87,130.00,5.00,0.00,30.07,1013.90,10.00,M,FEW,M,M,M,7000.00,M,M,M,M,M,M,M,M,M,M,75.00,KEKO 191956Z AUTO 13005KT 10SM FEW070 24/08 A3007 RMK AO2 SLP139 T02390083,M
LAS,2022-08-19 19:56,-115.1634,36.0719,663.00,96.00,57.00,27.23,M,4.00,0.00,29.86,1008.10,10.00,M,FEW,FEW,SCT,M,11000.00,16000.00,22000.00,M,M,M,M,M,M,M,M,94.94,KLAS 191956Z VRB04KT 10SM FEW110 FEW160 SCT220 36/14 A2986 RMK AO2 SLP081 CB DSNT NE TCU DSNT N AND E T03560139,M
WMC,2022-08-19 19:56,-117.8072,40.9019,1315.00,86.00,48.00,26.82,M,6.00,0.00,30.04,1012.20,10.00,M,CLR,M,M,M,M,M,M,M,M,M,M,M,M,M,M,83.38,KWMC 191956Z AUTO VRB06KT 10SM CLR 30/09 A3004 RMK AO2 SLP122 T03000089,M
HND,2022-08-19 19:56,-115.1344,35.9729,742.79,94.00,60.00,32.56,260.00,5.00,0.00,29.90,1010.80,10.00,M,CLR,M,M,M,M,M,M,M,M,M,M,M,M,M,M,93.77,KHND 191956Z 26005KT 10SM CLR 34/16 A2990 RMK AO2 SLP108 T03440156,M
TPH,2022-08-19 19:56,-117.0904,38.0505,1654.00,85.00,35.00,16.88,310.00,6.00,0.00,30.10,1010.60,10.00,19.00,CLR,M,M,M,M,M,M,M,M,M,M,M,M,M,M,81.84,KTPH 191956Z AUTO 31006G19KT 10SM CLR 29/02 A3010 RMK AO2 SLP106 T02940017,M
NFL,2022-08-19 19:56,-118.7010,39.4166,1199.00,87.00,45.00,23.12,290.00,7.00,0.00,30.02,1013.60,10.00,M,SCT,M,M,M,8000.00,M,M,M,M,M,M,M,M,M,M,83.98,KNFL 191956Z 29007KT 10SM SCT080 31/07 A3002 RMK AO2 SLP136 T03060072,M
INS,2022-08-19 19:58,-115.6733,36.5872,955.00,93.20,52.20,25.00,130.00,6.00,0.00,29.91,1007.50,10.00,M,CLR,M,M,M,M,M,M,M,M,M,M,M,M,M,M,90.54,KINS 191958Z AUTO 13006KT 10SM CLR 34/11 A2991 RMK AO2 SLP075 T03400112 $,M
LSV,2022-08-19 19:58,-115.0343,36.2362,570.00,100.20,58.00,24.82,0.00,0.00,0.00,29.82,1007.20,10.00,M,CLR,M,M,M,M,M,M,M,M,M,M,M,M,M,M,99.84,KLSV 191958Z AUTO 00000KT 10SM CLR 38/14 A2982 RMK AO2 SLP072 T03790144 $,M
HTH,2022-08-19 20:15,-118.6315,38.5448,1282.89,87.80,41.00,19.40,30.00,7.00,0.00,30.03,M,10.00,M,CLR,M,M,M,M,M,M,M,M,M,M,M,M,M,M,84.30,KHTH 192015Z AUTO 03007KT 340V060 10SM CLR 31/05 A3003 RMK A01,M
CXP,2022-08-19 20:15,-119.7326,39.1923,1431.00,87.80,37.40,16.86,140.00,5.00,0.00,30.07,M,10.00,12.00,CLR,M,M,M,M,M,M,M,M,M,M,M,M,M,M,84.16,KCXP 192015Z AUTO 14005G12KT 10SM CLR 31/03 A3007 RMK AO2,M
RTS,2022-08-19 20:15,-119.8764,39.6682,1539.00,84.20,42.80,23.33,40.00,7.00,0.00,30.09,M,10.00,15.00,FEW,M,M,M,9000.00,M,M,M,M,M,M,M,M,M,M,81.61,KRTS 192015Z AUTO 04007G15KT 360V060 10SM FEW090 29/06 A3009 RMK AO2,M
BVU,2022-08-19 20:15,-114.8611,35.9475,671.00,95.00,59.00,30.26,M,4.00,0.00,29.85,M,M,M,M,M,M,M,M,M,M,M,M,M,M,M,M,M,M,94.51,KBVU 192015Z AUTO VRB04KT 35/15 A2985 RMK AO2 PWINO TSNO,M
TMT,2022-08-19 20:15,-117.1971,39.4643,1749.34,M,M,M,310.00,8.00,0.00,30.13,M,10.00,15.00,SCT,M,M,M,9000.00,M,M,M,M,M,M,M,M,M,M,M,KTMT 192015Z AUTO 31008G15KT 280V340 10SM SCT090 A3013 RMK AO2 LTG DSNT NE,M
MEV,2022-08-19 20:15,-119.7500,38.9963,1441.42,87.80,35.60,15.70,0.00,0.00,0.00,30.05,M,10.00,M,CLR,M,M,M,M,M,M,M,M,M,M,M,M,M,M,84.12,KMEV 192015Z AUTO 00000KT 10SM CLR 31/02 A3005 RMK AO2,M
BAM,2022-08-19 20:15,-116.8743,40.5990,1382.36,84.20,48.20,28.63,0.00,0.00,0.00,30.05,M,10.00,M,SCT,M,M,M,12000.00,M,M,M,M,M,M,M,M,M,M,82.04,KBAM 192015Z AUTO 00000KT 10SM SCT120 29/09 A3005 RMK AO1,M
CXP,2022-08-19 20:30,-119.7326,39.1923,1431.00,87.80,35.60,15.70,140.00,7.00,0.00,30.06,M,10.00,M,CLR,M,M,M,M,M,M,M,M,M,M,M,M,M,M,84.12,KCXP 192030Z AUTO 14007KT 10SM CLR 31/02 A3006 RMK AO2,M
BAM,2022-08-19 20:35,-116.8743,40.5990,1382.36,87.80,48.20,25.52,300.00,8.00,0.00,30.04,M,10.00,M,CLR,M,M,M,M,M,M,M,M,M,M,M,M,M,M,84.87,KBAM 192035Z AUTO 30008KT 10SM CLR 31/09 A3004 RMK AO1,M
TMT,2022-08-19 20:35,-117.1971,39.4643,1749.34,M,M,M,340.00,3.00,0.00,30.12,M,10.00,M,SCT,M,M,M,9500.00,M,M,M,M,M,M,M,M,M,M,M,KTMT 192035Z AUTO 34003KT 10SM SCT095 A3012 RMK AO2,M
BVU,2022-08-19 20:35,-114.8611,35.9475,671.00,95.00,59.00,30.26,0.00,0.00,0.00,29.84,M,M,M,M,M,M,M,M,M,M,M,M,M,M,M,M,M,M,94.51,KBVU 192035Z AUTO 00000KT 35/15 A2984 RMK AO2 PWINO TSNO,M
RTS,2022-08-19 20:35,-119.8764,39.6682,1539.00,86.00,41.00,20.54,140.00,9.00,0.00,30.09,M,10.00,M,FEW,M,M,M,9500.00,M,M,M,M,M,M,M,M,M,M,82.86,KRTS 192035Z AUTO 14009KT 070V150 10SM FEW095 30/05 A3009 RMK AO2,M
MEV,2022-08-19 20:35,-119.7500,38.9963,1441.42,87.80,32.00,13.59,330.00,6.00,0.00,30.04,M,10.00,M,CLR,M,M,M,M,M,M,M,M,M,M,M,M,M,M,84.08,KMEV 192035Z AUTO 33006KT 10SM CLR 31/00 A3004 RMK AO2,M
HTH,2022-08-19 20:35,-118.6315,38.5448,1282.89,87.80,39.20,18.09,350.00,12.00,0.00,30.02,M,10.00,M,CLR,M,M,M,M,M,M,M,M,M,M,M,M,M,M,84.22,KHTH 192035Z AUTO 35012KT 10SM CLR 31/04 A3002 RMK A01,M
LOL,2022-08-19 20:53,-118.5701,40.0684,1192.43,89.00,46.00,22.54,220.00,8.00,0.00,29.99,1011.50,10.00,15.00,CLR,M,M,M,M,M,M,M,M,M,M,M,M,M,M,85.76,KLOL 192053Z AUTO 22008G15KT 10SM CLR 32/08 A2999 RMK AO2 SLP115 T03170078 58022,M
ELY,2022-08-19 20:53,-114.8453,39.2950,1909.00,82.00,38.00,20.71,340.00,9.00,0.00,30.12,1009.10,10.00,18.00,CLR,M,M,M,M,M,M,M,M,M,M,M,M,M,M,79.90,KELY 192053Z AUTO 34009G18KT 10SM CLR 28/03 A3012 RMK AO2 LTG DSNT E AND SE SLP091 T02780033 58017,M
VGT,2022-08-19 20:53,-115.1933,36.2111,667.00,98.00,56.00,24.61,0.00,0.00,0.00,29.82,1008.20,10.00,M,CLR,M,M,M,M,M,M,M,M,M,M,M,M,M,M,96.72,KVGT 192053Z 00000KT 10SM CLR 37/13 A2982 RMK AO2 SLP082 T03670133 58025,M
P68,2022-08-19 20:53,-116.0056,39.6014,1993.00,86.00,37.00,17.57,320.00,12.00,0.00,30.10,1010.90,M,19.00,M,M,M,M,M,M,M,M,M,M,M,M,M,M,M,82.72,KP68 192053Z AUTO 32012G19KT 30/03 A3010 RMK AO1 SLP109 T03000028 58017,M
DRA,2022-08-19 20:53,-116.0278,36.6206,1009.00,97.00,46.00,17.64,M,3.00,0.00,29.89,1006.40,10.00,M,FEW,M,M,M,10000.00,M,M,M,M,M,M,M,M,M,M,93.19,KDRA 192053Z AUTO VRB03KT 10SM FEW100 36/08 A2989 RMK AO2 SLP064 T03610078 58021,M
CXP,2022-08-19 20:55,-119.7326,39.1923,1431.00,91.40,33.80,13.05,M,6.00,0.00,30.05,M,10.00,11.00,CLR,M,M,M,M,M,M,M,M,M,M,M,M,M,M,87.13,KCXP 192055Z AUTO VRB06G11KT 10SM CLR 33/01 A3005 RMK AO2,M
MEV,2022-08-19 20:55,-119.7500,38.9963,1441.42,89.60,33.80,13.80,M,4.00,0.00,30.03,M,9.00,12.00,CLR,M,M,M,M,M,M,M,M,M,M,M,M,M,M,85.59,KMEV 192055Z AUTO VRB04G12KT 9SM CLR 32/01 A3003 RMK AO2,M
BAM,2022-08-19 20:55,-116.8743,40.5990,1382.36,86.00,46.40,25.26,310.00,5.00,0.00,30.04,M,10.00,M,CLR,M,M,M,M,M,M,M,M,M,M,M,M,M,M,83.22,KBAM 192055Z AUTO 31005KT 10SM CLR 30/08 A3004 RMK AO1,M
HTH,2022-08-19 20:55,-118.6315,38.5448,1282.89,87.80,39.20,18.09,340.00,7.00,0.00,30.01,M,10.00,14.00,CLR,M,M,M,M,M,M,M,M,M,M,M,M,M,M,84.22,KHTH 192055Z AUTO 34007G14KT 10SM CLR 31/04 A3001 RMK A01,M
BVU,2022-08-19 20:55,-114.8611,35.9475,671.00,95.00,57.20,28.37,70.00,4.00,0.00,29.83,M,M,M,M,M,M,M,M,M,M,M,M,M,M,M,M,M,M,93.82,KBVU 192055Z AUTO 07004KT 35/14 A2983 RMK AO2 PWINO TSNO,M
TMT,2022-08-19 20:55,-117.1971,39.4643,1749.34,M,M,M,250.00,11.00,0.00,30.12,M,10.00,15.00,SCT,M,M,M,9500.00,M,M,M,M,M,M,M,M,M,M,M,KTMT 192055Z AUTO 25011G15KT 10SM SCT095 A3012 RMK AO2,M
RNO,2022-08-19 20:55,-119.7711,39.4839,1341.00,88.00,45.00,22.47,M,4.00,0.00,30.03,1011.00,10.00,M,FEW,M,M,M,9000.00,M,M,M,M,M,M,M,M,M,M,84.72,KRNO 192055Z VRB04KT 10SM FEW090 31/07 A3003 RMK AO2 SLP110 T03110072 56021,M
RTS,2022-08-19 20:55,-119.8764,39.6682,1539.00,84.20,35.60,17.61,M,6.00,0.00,30.08,M,10.00,12.00,CLR,M,M,M,M,M,M,M,M,M,M,M,M,M,M,81.34,KRTS 192055Z AUTO VRB06G12KT 10SM CLR 29/02 A3008 RMK AO2,M
EKO,2022-08-19 20:56,-115.7860,40.8242,1367.00,76.00,47.00,35.78,190.00,5.00,0.00,30.06,1013.30,10.00,M,FEW,M,M,M,11000.00,M,M,M,M,M,M,M,M,M,M,75.90,KEKO 192056Z AUTO 19005KT 10SM FEW110 24/08 A3006 RMK AO2 SLP133 T02440083 56015,M
LAS,2022-08-19 20:56,-115.1634,36.0719,663.00,97.00,56.00,25.45,70.00,6.00,0.00,29.83,1007.00,10.00,M,FEW,FEW,SCT,M,11000.00,16000.00,22000.00,M,M,M,M,M,M,M,M,95.53,KLAS 192056Z 07006KT 10SM FEW110 FEW160 SCT220 36/13 A2983 RMK AO2 SLP070 CB DSNT NE TCU DSNT E T03610133 58026,M
WMC,2022-08-19 20:56,-117.8072,40.9019,1315.00,88.00,45.00,22.47,250.00,8.00,0.00,30.01,1011.50,10.00,17.00,FEW,FEW,M,M,9000.00,12000.00,M,M,M,M,M,M,M,M,M,84.72,KWMC 192056Z AUTO 25008G17KT 220V300 10SM FEW090 FEW120 31/07 A3001 RMK AO2 SLP115 T03110072 58019,M
HND,2022-08-19 20:56,-115.1344,35.9729,742.79,96.00,59.00,29.25,270.00,5.00,0.00,29.87,1009.70,10.00,M,CLR,M,M,M,M,M,M,M,M,M,M,M,M,M,M,95.72,KHND 192056Z 27005KT 10SM CLR 36/15 A2987 RMK AO2 SLP097 T03560150 58024,M
TPH,2022-08-19 20:56,-117.0904,38.0505,1654.00,86.00,39.00,19.01,330.00,9.00,0.00,30.09,1010.40,10.00,17.00,CLR,M,M,M,M,M,M,M,M,M,M,M,27.00,350.00,2022-08-19 20:19,82.78,KTPH 192056Z AUTO 33009G17KT 10SM CLR 30/04 A3009 RMK AO2 PK WND 35027/2019 SLP104 T03000039 56016,M
NFL,2022-08-19 20:56,-118.7010,39.4166,1199.00,90.00,43.00,19.55,350.00,5.00,0.00,30.00,1012.90,10.00,M,SCT,M,M,M,8000.00,M,M,M,M,M,M,M,M,M,M,86.29,KNFL 192056Z 35005KT 10SM SCT080 32/06 A3000 RMK AO2 SLP129 T03220061 58020,M
LSV,2022-08-19 20:58,-115.0343,36.2362,570.00,102.70,56.50,21.89,0.00,0.00,0.00,29.79,1006.10,10.00,M,CLR,M,M,M,M,M,M,M,M,M,M,M,M,M,M,102.04,KLSV 192058Z AUTO 00000KT 10SM CLR 39/14 A2979 RMK AO2 SLP061 T03930136 57027 $,M
INS,2022-08-19 20:58,-115.6733,36.5872,955.00,94.50,49.60,21.80,120.00,8.00,0.00,29.88,1006.50,10.00,M,CLR,M,M,M,M,M,M,M,M,M,M,M,M,M,M,91.31,KINS 192058Z AUTO 12008KT 10SM CLR 35/10 A2988 RMK AO2 SLP065 T03470098 57021 $,M
TMT,2022-08-19 21:15,-117.1971,39.4643,1749.34,M,M,M,310.00,10.00,0.00,30.11,M,10.00,15.00,SCT,M,M,M,9500.00,M,M,M,M,M,M,M,M,M,M,M,KTMT 192115Z AUTO 31010G15KT 10SM SCT095 A3011 RMK AO2,M
BVU,2022-08-19 21:15,-114.8611,35.9475,671.00,96.80,59.00,28.63,M,4.00,0.00,29.82,M,M,M,M,M,M,M,M,M,M,M,M,M,M,M,M,M,M,96.50,KBVU 192115Z AUTO VRB04KT 36/15 A2982 RMK AO2 PWINO TSNO,M
CXP,2022-08-19 21:15,-119.7326,39.1923,1431.00,89.60,33.80,13.80,0.00,0.00,0.00,30.04,M,10.00,M,CLR,M,M,M,M,M,M,M,M,M,M,M,M,M,M,85.59,KCXP 192115Z AUTO 00000KT 10SM CLR 32/01 A3004 RMK AO2,M
RTS,2022-08-19 21:15,-119.8764,39.6682,1539.00,86.00,30.20,13.38,280.00,8.00,0.00,30.08,M,10.00,13.00,CLR,M,M,M,M,M,M,M,M,M,M,M,M,M,M,82.64,KRTS 192115Z AUTO 28008G13KT 10SM CLR 30/M01 A3008 RMK AO2,M
MEV,2022-08-19 21:15,-119.7500,38.9963,1441.42,91.40,33.80,13.05,270.00,7.00,0.00,30.03,M,9.00,M,CLR,M,M,M,M,M,M,M,M,M,M,M,M,M,M,87.13,KMEV 192115Z AUTO 27007KT 240V320 9SM CLR 33/01 A3003 RMK AO2,M
BAM,2022-08-19 21:15,-116.8743,40.5990,1382.36,87.80,46.40,23.85,330.00,9.00,0.00,30.03,M,10.00,14.00,SCT,M,M,M,12000.00,M,M,M,M,M,M,M,M,M,M,84.68,KBAM 192115Z AUTO 33009G14KT 10SM SCT120 31/08 A3003 RMK AO1,M
HTH,2022-08-19 21:15,-118.6315,38.5448,1282.89,89.60,37.40,15.92,320.00,8.00,0.00,30.00,M,10.00,14.00,CLR,M,M,M,M,M,M,M,M,M,M,M,M,M,M,85.67,KHTH 192115Z AUTO 32008G14KT 10SM CLR 32/03 A3000 RMK A01,M
MEV,2022-08-19 21:35,-119.7500,38.9963,1441.42,91.40,30.20,11.28,290.00,5.00,0.00,30.02,M,10.00,14.00,CLR,M,M,M,M,M,M,M,M,M,M,M,M,M,M,86.71,KMEV 192135Z AUTO 29005G14KT 10SM CLR 33/M01 A3002 RMK AO2,M
BAM,2022-08-19 21:35,-116.8743,40.5990,1382.36,86.00,46.40,25.26,320.00,8.00,0.00,30.03,M,10.00,M,SCT,M,M,M,12000.00,M,M,M,M,M,M,M,M,M,M,83.22,KBAM 192135Z AUTO 32008KT 10SM SCT120 30/08 A3003 RMK AO1,M
HTH,2022-08-19 21:35,-118.6315,38.5448,1282.89,89.60,37.40,15.92,310.00,10.00,0.00,30.00,M,10.00,15.00,CLR,M,M,M,M,M,M,M,M,M,M,M,M,M,M,85.67,KHTH 192135Z AUTO 31010G15KT 10SM CLR 32/03 A3000 RMK A01,M
CXP,2022-08-19 21:35,-119.7326,39.1923,1431.00,89.60,33.80,13.80,70.00,8.00,0.00,30.03,M,10.00,M,CLR,M,M,M,M,M,M,M,M,M,M,M,M,M,M,85.59,KCXP 192135Z AUTO 07008KT 10SM CLR 32/01 A3003 RMK AO2,M
RTS,2022-08-19 21:35,-119.8764,39.6682,1539.00,86.00,30.20,13.38,160.00,11.00,0.00,30.06,M,10.00,M,CLR,M,M,M,M,M,M,M,M,M,M,M,M,M,M,82.64,KRTS 192135Z AUTO 16011KT 10SM CLR 30/M01 A3006 RMK AO2,M
BVU,2022-08-19 21:35,-114.8611,35.9475,671.00,98.60,57.20,25.41,300.00,5.00,0.00,29.81,M,M,M,M,M,M,M,M,M,M,M,M,M,M,M,M,M,M,97.76,KBVU 192135Z AUTO 30005KT 37/14 A2981 RMK AO2 PWINO TSNO,M
TMT,2022-08-19 21:35,-117.1971,39.4643,1749.34,M,M,M,330.00,3.00,0.00,30.11,M,10.00,M,CLR,M,M,M,M,M,M,M,M,M,M,M,M,M,M,M,KTMT 192135Z AUTO 33003KT 10SM CLR A3011 RMK AO2,M
LOL,2022-08-19 21:40,-118.5701,40.0684,1192.43,89.00,47.00,23.32,50.00,6.00,0.00,29.97,M,10.00,15.00,SCT,M,M,M,10000.00,M,M,M,M,M,M,M,M,M,M,85.85,KLOL 192140Z AUTO 05006G15KT 10SM SCT100 32/08 A2997 RMK AO2 WSHFT 2120 T03170083,M
CXP,2022-08-19 21:50,-119.7326,39.1923,1431.00,91.40,33.80,13.05,140.00,6.00,0.00,30.03,M,10.00,M,CLR,M,M,M,M,M,M,M,M,M,M,M,M,M,M,87.13,KCXP 192150Z AUTO 14006KT 10SM CLR 33/01 A3003 RMK AO2,M
VGT,2022-08-19 21:53,-115.1933,36.2111,667.00,99.00,55.00,23.18,140.00,7.00,0.00,29.78,1007.00,10.00,M,CLR,M,M,M,M,M,M,M,M,M,M,M,M,M,M,97.39,KVGT 192153Z AUTO 14007KT 10SM CLR 37/13 A2978 RMK AO2 SLP070 T03720128,M
LOL,2022-08-19 21:53,-118.5701,40.0684,1192.43,90.00,46.00,21.91,150.00,7.00,0.00,29.96,1010.60,10.00,M,SCT,M,M,M,10000.00,M,M,M,M,M,M,M,M,M,M,86.55,KLOL 192153Z AUTO 15007KT 10SM SCT100 32/08 A2996 RMK AO2 WSHFT 2120 SLP106 T03220078,M
P68,2022-08-19 21:53,-116.0056,39.6014,1993.00,82.00,37.00,19.99,270.00,7.00,0.00,30.08,1010.30,M,M,M,M,M,M,M,M,M,M,M,M,M,M,M,M,M,79.86,KP68 192153Z AUTO 27007KT 240V310 28/03 A3008 RMK AO1 SLP103 T02780028,M
DRA,2022-08-19 21:53,-116.0278,36.6206,1009.00,99.00,46.00,16.60,M,5.00,0.00,29.86,1005.50,10.00,14.00,SCT,M,M,M,11000.00,M,M,M,M,M,M,M,M,M,M,95.17,KDRA 192153Z AUTO VRB05G14KT 10SM SCT110 37/08 A2986 RMK AO2 SLP055 T03720078,M
ELY,2022-08-19 21:53,-114.8453,39.2950,1909.00,84.00,39.00,20.27,340.00,12.00,0.00,30.09,1008.30,10.00,20.00,BKN,M,M,M,10000.00,M,M,M,M,M,M,M,M,M,M,81.29,KELY 192153Z AUTO 34012G20KT 10SM BKN100 29/04 A3009 RMK AO2 LTG DSNT NE SLP083 T02890039,M
RNO,2022-08-19 21:55,-119.7711,39.4839,1341.00,90.00,45.00,21.10,110.00,8.00,0.00,30.00,1009.90,10.00,M,FEW,M,M,M,9000.00,M,M,M,M,M,M,M,M,M,M,86.45,KRNO 192155Z 11008KT 10SM FEW090 32/07 A3000 RMK AO2 SLP099 T03220072,M
TMT,2022-08-19 21:55,-117.1971,39.4643,1749.34,M,M,M,330.00,10.00,0.00,30.10,M,10.00,15.00,SCT,M,M,M,9500.00,M,M,M,M,M,M,M,M,M,M,M,KTMT 192155Z AUTO 33010G15KT 290V010 10SM SCT095 A3010 RMK AO2,M
HTH,2022-08-19 21:55,-118.6315,38.5448,1282.89,89.60,37.40,15.92,310.00,8.00,0.00,29.99,M,10.00,14.00,CLR,M,M,M,M,M,M,M,M,M,M,M,M,M,M,85.67,KHTH 192155Z AUTO 31008G14KT 10SM CLR 32/03 A2999 RMK A01,M
BAM,2022-08-19 21:55,-116.8743,40.5990,1382.36,86.00,46.40,25.26,260.00,5.00,0.00,30.02,M,10.00,M,SCT,M,M,M,12000.00,M,M,M,M,M,M,M,M,M,M,83.22,KBAM 192155Z AUTO 26005KT 10SM SCT120 30/08 A3002 RMK AO1,M
MEV,2022-08-19 21:55,-119.7500,38.9963,1441.42,91.40,30.20,11.28,M,6.00,0.00,30.01,M,10.00,M,CLR,M,M,M,M,M,M,M,M,M,M,M,M,M,M,86.71,KMEV 192155Z AUTO VRB06KT 10SM CLR 33/M01 A3001 RMK AO2,M
RTS,2022-08-19 21:55,-119.8764,39.6682,1539.00,86.00,30.20,13.38,200.00,6.00,0.00,30.06,M,10.00,M,CLR,M,M,M,M,M,M,M,M,M,M,M,M,M,M,82.64,KRTS 192155Z AUTO 20006KT 10SM CLR 30/M01 A3006 RMK AO2,M
BVU,2022-08-19 21:55,-114.8611,35.9475,671.00,95.00,57.20,28.37,M,3.00,0.00,29.80,M,M,10.00,M,M,M,M,M,M,M,M,M,M,M,M,M,M,M,93.82,KBVU 192155Z AUTO VRB03G10KT 35/14 A2980 RMK AO2 PWINO TSNO,M
WMC,2022-08-19 21:56,-117.8072,40.9019,1315.00,89.00,45.00,21.70,M,6.00,0.00,29.99,1011.00,10.00,18.00,FEW,M,M,M,9000.00,M,M,M,M,M,M,M,M,M,M,85.66,KWMC 192156Z AUTO VRB06G18KT 10SM FEW090 32/07 A2999 RMK AO2 SLP110 T03170072,M
HND,2022-08-19 21:56,-115.1344,35.9729,742.79,97.00,57.00,26.49,M,3.00,0.00,29.84,1008.70,10.00,M,CLR,M,M,M,M,M,M,M,M,M,M,M,M,M,M,95.92,KHND 192156Z VRB03KT 10SM CLR 36/14 A2984 RMK AO2 SLP087 T03610139,M
LAS,2022-08-19 21:56,-115.1634,36.0719,663.00,99.00,55.00,23.18,M,4.00,0.00,29.79,1005.80,10.00,M,FEW,FEW,SCT,M,11000.00,16000.00,22000.00,M,M,M,M,M,M,M,M,97.39,KLAS 192156Z VRB04KT 10SM FEW110CB FEW160 SCT220 37/13 A2979 RMK AO2 SLP058 CB VC N AND DSNT NE-E TCU DSNT ALQDS T03720128,M
EKO,2022-08-19 21:56,-115.7860,40.8242,1367.00,75.00,47.00,36.87,180.00,9.00,0.00,30.03,1012.50,10.00,M,SCT,M,M,M,10000.00,M,M,M,M,M,M,M,M,M,M,75.00,KEKO 192156Z AUTO 18009KT 10SM SCT100 24/08 A3003 RMK AO2 SLP125 T02390083,M
NFL,2022-08-19 21:56,-118.7010,39.4166,1199.00,91.00,40.00,16.80,M,5.00,0.00,29.97,1012.00,10.00,M,SCT,M,M,M,8000.00,M,M,M,M,M,M,M,M,M,M,86.98,KNFL 192156Z VRB05KT 10SM SCT080 33/04 A2997 RMK SLP120 T03280044,M
TPH,2022-08-19 21:56,-117.0904,38.0505,1654.00,87.00,39.00,18.35,M,4.00,0.00,30.06,1009.50,10.00,M,CLR,M,M,M,M,M,M,M,M,M,M,M,M,M,M,83.65,KTPH 192156Z AUTO VRB04KT 10SM CLR 31/04 A3006 RMK AO2 SLP095 T03060039,M
LSV,2022-08-19 21:58,-115.0343,36.2362,570.00,103.00,56.70,21.92,140.00,5.00,0.00,29.75,1004.70,10.00,M,CLR,M,M,M,M,M,M,M,M,M,M,M,M,M,M,102.34,KLSV 192158Z AUTO 14005KT 10SM CLR 39/14 A2975 RMK AO2 SLP047 T03940137 $,M
INS,2022-08-19 21:58,-115.6733,36.5872,955.00,95.50,46.60,18.89,130.00,5.00,0.00,29.85,1005.40,10.00,M,CLR,M,M,M,M,M,M,M,M,M,M,M,M,M,M,91.80,KINS 192158Z AUTO 13005KT 10SM CLR 35/08 A2985 RMK AO2 SLP054 T03530081 $,M
CXP,2022-08-19 22:10,-119.7326,39.1923,1431.00,93.20,32.00,11.48,220.00,8.00,0.00,30.02,M,10.00,14.00,CLR,M,M,M,M,M,M,M,M,M,M,M,M,M,M,88.31,KCXP 192210Z AUTO 22008G14KT 200V270 10SM CLR 34/00 A3002 RMK AO2,M
TMT,2022-08-19 22:15,-117.1971,39.4643,1749.34,M,M,M,280.00,11.00,0.00,30.10,M,10.00,17.00,SCT,M,M,M,9500.00,M,M,M,M,M,M,M,M,M,M,M,KTMT 192215Z AUTO 28011G17KT 190V310 10SM SCT095 A3010 RMK AO2,M
BVU,2022-08-19 22:15,-114.8611,35.9475,671.00,96.80,55.40,25.15,0.00,0.00,0.00,29.78,M,M,M,M,M,M,M,M,M,M,M,M,M,M,M,M,M,M,95.14,KBVU 192215Z AUTO 00000KT 36/13 A2978 RMK AO2 PWINO TSNO,M
RTS,2022-08-19 22:15,-119.8764,39.6682,1539.00,87.80,32.00,13.59,280.00,6.00,0.00,30.05,M,10.00,M,CLR,M,M,M,M,M,M,M,M,M,M,M,M,M,M,84.08,KRTS 192215Z AUTO 28006KT 10SM CLR 31/00 A3005 RMK AO2,M
MEV,2022-08-19 22:15,-119.7500,38.9963,1441.42,91.40,30.20,11.28,310.00,11.00,0.00,30.01,M,10.00,16.00,CLR,M,M,M,M,M,M,M,M,M,M,M,M,M,M,86.71,KMEV 192215Z AUTO 31011G16KT 10SM CLR 33/M01 A3001 RMK AO2,M
BAM,2022-08-19 22:15,-116.8743,40.5990,1382.36,86.00,46.40,25.26,320.00,8.00,0.00,30.01,M,10.00,M,SCT,M,M,M,12000.00,M,M,M,M,M,M,M,M,M,M,83.22,KBAM 192215Z AUTO 32008KT 10SM SCT120 30/08 A3001 RMK AO1,M
HTH,2022-08-19 22:15,-118.6315,38.5448,1282.89,89.60,33.80,13.80,350.00,11.00,0.00,29.98,M,10.00,16.00,CLR,M,M,M,M,M,M,M,M,M,M,M,M,M,M,85.59,KHTH 192215Z AUTO 35011G16KT 10SM CLR 32/01 A2998 RMK A01,M
BVU,2022-08-19 22:35,-114.8611,35.9475,671.00,98.60,53.60,22.29,M,6.00,0.00,29.78,M,M,M,M,M,M,M,M,M,M,M,M,M,M,M,M,M,M,96.51,KBVU 192235Z AUTO VRB06KT 37/12 A2978 RMK AO2 PWINO TSNO,M
CXP,2022-08-19 22:35,-119.7326,39.1923,1431.00,91.40,33.80,13.05,M,3.00,0.00,30.01,M,10.00,12.00,CLR,M,M,M,M,M,M,M,M,M,M,M,M,M,M,87.13,KCXP 192235Z AUTO VRB03G12KT 10SM CLR 33/01 A3001 RMK AO2,M
RTS,2022-08-19 22:35,-119.8764,39.6682,1539.00,87.80,33.80,14.61,290.00,8.00,0.00,30.04,M,10.00,16.00,CLR,M,M,M,M,M,M,M,M,M,M,M,M,M,M,84.10,KRTS 192235Z AUTO 29008G16KT 10SM CLR 31/01 A3004 RMK AO2,M
MEV,2022-08-19 22:35,-119.7500,38.9963,1441.42,91.40,28.40,10.48,300.00,12.00,0.00,30.00,M,10.00,18.00,CLR,M,M,M,M,M,M,M,M,M,M,M,M,M,M,86.53,KMEV 192235Z AUTO 30012G18KT 10SM CLR 33/M02 A3000 RMK AO2,M
BAM,2022-08-19 22:35,-116.8743,40.5990,1382.36,84.20,46.40,26.76,10.00,6.00,0.00,30.01,M,10.00,M,SCT,M,M,M,12000.00,M,M,M,M,M,M,M,M,M,M,81.87,KBAM 192235Z AUTO 01006KT 10SM SCT120 29/08 A3001 RMK AO1,M
HTH,2022-08-19 22:35,-118.6315,38.5448,1282.89,91.40,33.80,13.05,350.00,8.00,0.00,29.97,M,10.00,16.00,CLR,M,M,M,M,M,M,M,M,M,M,M,M,M,M,87.13,KHTH 192235Z AUTO 35008G16KT 10SM CLR 33/01 A2997 RMK A01,M
TMT,2022-08-19 22:35,-117.1971,39.4643,1749.34,M,M,M,280.00,9.00,0.00,30.09,M,10.00,18.00,CLR,M,M,M,M,M,M,M,M,M,M,M,M,M,M,M,KTMT 192235Z AUTO 28009G18KT 10SM CLR A3009 RMK AO2,M
CXP,2022-08-19 22:50,-119.7326,39.1923,1431.00,91.40,33.80,13.05,250.00,10.00,0.00,30.00,M,10.00,M,CLR,M,M,M,M,M,M,M,M,M,M,M,M,M,M,87.13,KCXP 192250Z AUTO 25010KT 10SM CLR 33/01 A3000 RMK AO2,M
VGT,2022-08-19 22:53,-115.1933,36.2111,667.00,101.00,54.00,21.10,M,5.00,0.00,29.75,1006.00,10.00,M,CLR,M,M,M,M,M,M,M,M,M,M,M,M,M,M,99.11,KVGT 192253Z VRB05KT 10SM CLR 38/12 A2975 RMK AO2 SLP060 T03830122,M
DRA,2022-08-19 22:53,-116.0278,36.6206,1009.00,99.00,45.00,15.98,M,M,0.00,29.84,1004.70,10.00,M,BKN,M,M,M,11000.00,M,M,M,M,M,M,M,M,M,M,95.00,KDRA 192253Z AUTO 10SM BKN110 37/07 A2984 RMK AO2 SLP047 T03720072,M
ELY,2022-08-19 22:53,-114.8453,39.2950,1909.00,83.00,33.00,16.62,310.00,8.00,0.00,30.08,1008.30,10.00,18.00,CLR,M,M,M,M,M,M,M,M,M,M,M,M,M,M,80.36,KELY 192253Z AUTO 31008G18KT 10SM CLR 28/01 A3008 RMK AO2 LTG DSNT E SLP083 T02830006,M
P68,2022-08-19 22:53,-116.0056,39.6014,1993.00,87.00,36.00,16.31,330.00,7.00,0.00,30.06,1009.20,M,M,M,M,M,M,M,M,M,M,M,M,M,M,M,M,M,83.56,KP68 192253Z AUTO 33007KT 280V350 31/02 A3006 RMK AO1 SLP092 T03060022,M
LOL,2022-08-19 22:53,-118.5701,40.0684,1192.43,91.00,46.00,21.24,M,6.00,0.00,29.94,1009.60,10.00,14.00,BKN,M,M,M,11000.00,M,M,M,M,M,M,M,M,M,M,87.45,KLOL 192253Z AUTO VRB06G14KT 10SM BKN110 33/08 A2994 RMK AO2 SLP096 T03280078,M
BAM,2022-08-19 22:55,-116.8743,40.5990,1382.36,86.00,46.40,25.26,0.00,0.00,0.00,30.00,M,10.00,M,SCT,M,M,M,12000.00,M,M,M,M,M,M,M,M,M,M,83.22,KBAM 192255Z AUTO 00000KT 10SM SCT120 30/08 A3000 RMK AO1,M
BVU,2022-08-19 22:55,-114.8611,35.9475,671.00,98.60,53.60,22.29,0.00,0.00,0.00,29.77,M,M,M,M,M,M,M,M,M,M,M,M,M,M,M,M,M,M,96.51,KBVU 192255Z AUTO 00000KT 37/12 A2977 RMK AO2 PWINO TSNO,M
RNO,2022-08-19 22:55,-119.7711,39.4839,1341.00,91.00,45.00,20.45,80.00,7.00,0.00,29.97,1009.00,10.00,M,FEW,M,M,M,11000.00,M,M,M,M,M,M,M,M,M,M,87.35,KRNO 192255Z 08007KT 10SM FEW110 33/07 A2997 RMK AO2 SLP090 T03280072,M
RTS,2022-08-19 22:55,-119.8764,39.6682,1539.00,87.80,33.80,14.61,280.00,4.00,0.00,30.04,M,10.00,M,CLR,M,M,M,M,M,M,M,M,M,M,M,M,M,M,84.10,KRTS 192255Z AUTO 28004KT 10SM CLR 31/01 A3004 RMK AO2,M
MEV,2022-08-19 22:55,-119.7500,38.9963,1441.42,91.40,30.20,11.28,310.00,12.00,0.00,29.99,M,10.00,M,CLR,M,M,M,M,M,M,M,M,M,M,M,M,M,M,86.71,KMEV 192255Z AUTO 31012KT 10SM CLR 33/M01 A2999 RMK AO2,M
HTH,2022-08-19 22:55,-118.6315,38.5448,1282.89,91.40,35.60,14.02,330.00,13.00,0.00,29.96,M,10.00,M,CLR,M,M,M,M,M,M,M,M,M,M,M,M,M,M,87.17,KHTH 192255Z AUTO 33013KT 10SM CLR 33/02 A2996 RMK A01,M
TMT,2022-08-19 22:55,-117.1971,39.4643,1749.34,84.00,36.50,18.37,310.00,13.00,0.00,30.09,M,10.00,17.00,CLR,M,M,M,M,M,M,M,M,M,M,M,M,M,M,81.21,KTMT 192255Z AUTO 31013G17KT 10SM CLR 29/03 A3009 RMK AO2 T02890025,M
NFL,2022-08-19 22:56,-118.7010,39.4166,1199.00,91.00,36.00,14.42,300.00,8.00,0.00,29.94,1011.30,10.00,M,SCT,M,M,M,8000.00,M,M,M,M,M,M,M,M,M,M,86.83,KNFL 192256Z 30008KT 10SM SCT080 33/02 A2994 RMK AO2 SLP113 T03280022,M
HND,2022-08-19 22:56,-115.1344,35.9729,742.79,97.00,55.00,24.63,0.00,0.00,0.00,29.81,1007.70,10.00,M,CLR,M,M,M,M,M,M,M,M,M,M,M,M,M,M,95.23,KHND 192256Z 00000KT 10SM CLR 36/13 A2981 RMK AO2 SLP077 T03610128,M
WMC,2022-08-19 22:56,-117.8072,40.9019,1315.00,90.00,43.00,19.55,240.00,8.00,0.00,29.97,1009.80,10.00,M,FEW,M,M,M,9500.00,M,M,M,M,M,M,M,M,M,M,86.29,KWMC 192256Z AUTO 24008KT 10SM FEW095 32/06 A2997 RMK AO2 SLP098 T03220061,M
TPH,2022-08-19 22:56,-117.0904,38.0505,1654.00,88.00,36.00,15.85,300.00,9.00,0.00,30.04,1008.80,10.00,M,CLR,M,M,M,M,M,M,M,M,M,M,M,M,M,M,84.29,KTPH 192256Z AUTO 30009KT 10SM CLR 31/02 A3004 RMK AO2 SLP088 T03110022,M
EKO,2022-08-19 22:56,-115.7860,40.8242,1367.00,76.00,45.00,33.30,180.00,11.00,T,30.01,1012.00,10.00,M,CLR,M,M,M,M,M,M,M,M,M,M,M,M,M,M,75.90,KEKO 192256Z AUTO 18011KT 10SM CLR 24/07 A3001 RMK AO2 LTG DSNT SE AND S RAB2158E12 SLP120 P0000 T02440072,M
LAS,2022-08-19 22:56,-115.1634,36.0719,663.00,98.00,53.00,22.22,250.00,5.00,0.00,29.77,1004.80,10.00,M,FEW,FEW,SCT,M,11000.00,16000.00,22000.00,M,M,M,M,M,M,M,M,95.83,KLAS 192256Z COR 25005KT 10SM FEW110 FEW160 SCT220 37/12 A2977 RMK AO2 SLP048 ACC VC N AND SW-W CB DSNT NE-SE T03670117,M
LSV,2022-08-19 22:58,-115.0343,36.2362,570.00,103.50,57.00,21.77,190.00,4.00,0.00,29.73,1004.00,10.00,M,CLR,M,M,M,M,M,M,M,M,M,M,M,M,M,M,103.15,KLSV 192258Z AUTO 19004KT 10SM CLR 40/14 A2973 RMK AO2 SLP040 T03970139 $,M
INS,2022-08-19 22:58,-115.6733,36.5872,955.00,97.70,44.00,15.94,360.00,4.00,0.00,29.82,1004.20,10.00,M,CLR,M,M,M,M,M,M,M,M,M,M,M,M,M,M,93.58,KINS 192258Z AUTO 36004KT 10SM CLR 37/07 A2982 RMK AO2 SLP042 T03650066 $,M
TMT,2022-08-19 23:15,-117.1971,39.4643,1749.34,M,M,M,330.00,8.00,0.00,30.08,M,10.00,M,CLR,M,M,M,M,M,M,M,M,M,M,M,M,M,M,M,KTMT 192315Z AUTO 33008KT 290V360 10SM CLR A3008 RMK AO2,M
MEV,2022-08-19 23:15,-119.7500,38.9963,1441.42,91.40,30.20,11.28,300.00,13.00,0.00,29.99,M,10.00,M,CLR,M,M,M,M,M,M,M,M,M,M,M,M,M,M,86.71,KMEV 192315Z AUTO 30013KT 10SM CLR 33/M01 A2999 RMK AO2,M
BAM,2022-08-19 23:15,-116.8743,40.5990,1382.36,87.80,46.40,23.85,350.00,7.00,0.00,29.99,M,10.00,M,CLR,M,M,M,M,M,M,M,M,M,M,M,M,M,M,84.68,KBAM 192315Z AUTO 35007KT 10SM CLR 31/08 A2999 RMK AO1,M
HTH,2022-08-19 23:15,-118.6315,38.5448,1282.89,91.40,33.80,13.05,320.00,11.00,0.00,29.95,M,10.00,M,CLR,M,M,M,M,M,M,M,M,M,M,M,M,M,M,87.13,KHTH 192315Z AUTO 32011KT 10SM CLR 33/01 A2995 RMK A01,M
BVU,2022-08-19 23:15,-114.8611,35.9475,671.00,98.60,51.80,20.87,340.00,5.00,0.00,29.76,M,M,M,M,M,M,M,M,M,M,M,M,M,M,M,M,M,M,96.00,KBVU 192315Z AUTO 34005KT 37/11 A2976 RMK AO2 PWINO TSNO,M
CXP,2022-08-19 23:15,-119.7326,39.1923,1431.00,93.20,33.80,12.34,230.00,7.00,0.00,30.00,M,10.00,M,CLR,M,M,M,M,M,M,M,M,M,M,M,M,M,M,88.55,KCXP 192315Z AUTO 23007KT 210V270 10SM CLR 34/01 A3000 RMK AO2,M
RTS,2022-08-19 23:15,-119.8764,39.6682,1539.00,87.80,33.80,14.61,M,4.00,0.00,30.03,M,10.00,M,FEW,M,M,M,11000.00,M,M,M,M,M,M,M,M,M,M,84.10,KRTS 192315Z AUTO VRB04KT 10SM FEW110 31/01 A3003 RMK AO2,M
WMC,2022-08-19 23:21,-117.8072,40.9019,1315.00,87.00,43.00,21.42,310.00,9.00,0.00,29.97,M,10.00,M,FEW,M,M,M,9500.00,M,M,M,M,M,M,M,M,M,M,83.84,KWMC 192321Z AUTO 31009KT 280V340 10SM FEW095 31/06 A2997 RMK AO2 WSHFT 2301 T03060061,M
EKO,2022-08-19 23:23,-115.7860,40.8242,1367.00,72.00,45.00,37.96,160.00,12.00,0.00,30.01,M,10.00,M,FEW,SCT,M,M,8000.00,10000.00,M,M,VCTS,M,M,M,M,M,M,72.00,KEKO 192323Z AUTO 16012KT 10SM VCTS FEW080 SCT100 22/07 A3001 RMK AO2 LTG DSNT N AND SE AND S T02220072,M
CXP,2022-08-19 23:30,-119.7326,39.1923,1431.00,91.40,32.00,12.14,260.00,8.00,0.00,30.00,M,10.00,14.00,CLR,M,M,M,M,M,M,M,M,M,M,M,M,M,M,86.91,KCXP 192330Z AUTO 26008G14KT 10SM CLR 33/00 A3000 RMK AO2,M
BVU,2022-08-19 23:35,-114.8611,35.9475,671.00,100.40,50.00,18.48,340.00,4.00,0.00,29.75,M,M,M,M,M,M,M,M,M,M,M,M,M,M,M,M,M,M,97.42,KBVU 192335Z AUTO 34004KT 38/10 A2975 RMK AO2 PWINO TSNO,M
EKO,2022-08-19 23:35,-115.7860,40.8242,1367.00,75.00,46.00,35.64,150.00,10.00,0.00,30.02,M,10.00,M,FEW,FEW,BKN,M,6500.00,8000.00,11000.00,M,TS,M,M,M,M,M,M,75.00,KEKO 192335Z AUTO 15010KT 10SM TS FEW065 FEW080 BKN110 24/08 A3002 RMK AO2 LTG DSNT N TSB29 T02390078,M
RTS,2022-08-19 23:35,-119.8764,39.6682,1539.00,87.80,33.80,14.61,0.00,0.00,0.00,30.02,M,10.00,M,FEW,M,M,M,11000.00,M,M,M,M,M,M,M,M,M,M,84.10,KRTS 192335Z AUTO 00000KT 10SM FEW110 31/01 A3002 RMK AO2,M
MEV,2022-08-19 23:35,-119.7500,38.9963,1441.42,91.40,32.00,12.14,300.00,10.00,0.00,29.99,M,10.00,16.00,CLR,M,M,M,M,M,M,M,M,M,M,M,M,M,M,86.91,KMEV 192335Z AUTO 30010G16KT 10SM CLR 33/M00 A2999 RMK AO2,M
BAM,2022-08-19 23:35,-116.8743,40.5990,1382.36,86.00,44.60,23.59,340.00,9.00,0.00,29.99,M,10.00,M,CLR,M,M,M,M,M,M,M,M,M,M,M,M,M,M,83.07,KBAM 192335Z AUTO 34009KT 10SM CLR 30/07 A2999 RMK AO1,M
HTH,2022-08-19 23:35,-118.6315,38.5448,1282.89,91.40,33.80,13.05,300.00,11.00,0.00,29.94,M,10.00,M,CLR,M,M,M,M,M,M,M,M,M,M,M,M,M,M,87.13,KHTH 192335Z AUTO 30011KT 10SM CLR 33/01 A2994 RMK A01,M
TMT,2022-08-19 23:35,-117.1971,39.4643,1749.34,M,M,M,330.00,6.00,0.00,30.08,M,10.00,M,CLR,M,M,M,M,M,M,M,M,M,M,M,M,M,M,M,KTMT 192335Z AUTO 33006KT 10SM CLR A3008 RMK AO2,M
DRA,2022-08-19 23:53,-116.0278,36.6206,1009.00,100.00,44.00,14.98,80.00,5.00,0.00,29.82,1004.00,10.00,M,BKN,M,M,M,11000.00,M,M,M,M,M,M,M,M,M,M,95.84,KDRA 192353Z AUTO 08005KT 10SM BKN110 38/07 A2982 RMK AO2 SLP040 T03780067 10383 20322 56021,M
ELY,2022-08-19 23:53,-114.8453,39.2950,1909.00,82.00,40.00,22.39,20.00,10.00,0.00,30.07,1008.10,10.00,M,BKN,M,M,M,11000.00,M,M,M,M,M,M,M,M,M,M,79.98,KELY 192353Z AUTO 02010KT 10SM BKN110 28/04 A3007 RMK AO2 SLP081 T02780044 10294 20244 56014,M
P68,2022-08-19 23:53,-116.0056,39.6014,1993.00,85.00,35.00,16.88,320.00,11.00,0.00,30.04,1008.80,M,19.00,M,M,M,M,M,M,M,M,M,M,M,M,M,M,M,81.84,KP68 192353Z AUTO 32011G19KT 29/02 A3004 RMK AO1 SLP088 T02940017 10306 20239 57016,M
LOL,2022-08-19 23:53,-118.5701,40.0684,1192.43,93.00,39.00,15.24,320.00,5.00,0.00,29.92,1009.00,10.00,M,CLR,M,M,M,M,M,M,M,M,M,M,M,M,M,M,88.73,KLOL 192353Z AUTO 32005KT 10SM CLR 34/04 A2992 RMK AO2 SLP090 T03390039 10344 20267 56020,M
VGT,2022-08-19 23:53,-115.1933,36.2111,667.00,102.00,53.00,19.75,90.00,8.00,0.00,29.73,1005.20,10.00,M,CLR,M,M,M,M,M,M,M,M,M,M,M,M,M,M,100.00,KVGT 192353Z 09008KT 10SM CLR 39/12 A2973 RMK AO2 SLP052 T03890117 10389 20328 56027,M
TMT,2022-08-19 23:55,-117.1971,39.4643,1749.34,M,M,M,340.00,6.00,0.00,30.08,M,10.00,11.00,CLR,M,M,M,M,M,M,M,M,M,M,M,M,M,M,M,KTMT 192355Z AUTO 34006G11KT 10SM CLR A3008 RMK AO2,M
BVU,2022-08-19 23:55,-114.8611,35.9475,671.00,98.60,50.00,19.52,0.00,0.00,0.00,29.75,M,M,M,M,M,M,M,M,M,M,M,M,M,M,M,M,M,M,95.56,KBVU 192355Z AUTO 00000KT 37/10 A2975 RMK AO2 PWINO TSNO,M
CXP,2022-08-19 23:55,-119.7326,39.1923,1431.00,89.60,32.00,12.84,270.00,7.00,0.00,29.99,M,10.00,M,CLR,M,M,M,M,M,M,M,M,M,M,M,M,M,M,85.54,KCXP 192355Z AUTO 27007KT 10SM CLR 32/M00 A2999 RMK AO2,M
RNO,2022-08-19 23:55,-119.7711,39.4839,1341.00,91.00,43.00,18.94,140.00,5.00,0.00,29.96,1008.60,10.00,M,FEW,M,M,M,11000.00,M,M,M,M,M,M,M,M,M,M,87.18,KRNO 192355Z 14005KT 10SM FEW110 33/06 A2996 RMK AO2 SLP086 HZ DSNT SW THRU NW T03280061 10333 20256 56022,M
HTH,2022-08-19 23:55,-118.6315,38.5448,1282.89,91.40,32.00,12.14,330.00,10.00,0.00,29.94,M,10.00,M,CLR,M,M,M,M,M,M,M,M,M,M,M,M,M,M,86.91,KHTH 192355Z AUTO 33010KT 10SM CLR 33/00 A2994 RMK A01,M
RTS,2022-08-19 23:55,-119.8764,39.6682,1539.00,86.00,33.80,15.48,270.00,5.00,0.00,30.02,M,10.00,M,CLR,M,M,M,M,M,M,M,M,M,M,M,M,M,M,82.66,KRTS 192355Z AUTO 27005KT 10SM CLR 30/01 A3002 RMK AO2,M
BAM,2022-08-19 23:55,-116.8743,40.5990,1382.36,86.00,44.60,23.59,350.00,9.00,0.00,29.98,M,10.00,14.00,SCT,M,M,M,12000.00,M,M,M,M,M,M,M,M,M,M,83.07,KBAM 192355Z AUTO 35009G14KT 10SM SCT120 30/07 A2998 RMK AO1,M
MEV,2022-08-19 23:55,-119.7500,38.9963,1441.42,91.40,32.00,12.14,300.00,10.00,0.00,29.98,M,10.00,15.00,CLR,M,M,M,M,M,M,M,M,M,M,M,M,M,M,86.91,KMEV 192355Z AUTO 30010G15KT 10SM CLR 33/00 A2998 RMK AO2,M
TPH,2022-08-19 23:56,-117.0904,38.0505,1654.00,89.00,33.00,13.64,320.00,12.00,0.00,30.03,1008.40,10.00,16.00,CLR,M,M,M,M,M,M,M,M,M,M,M,M,M,M,85.16,KTPH 192356Z AUTO 32012G16KT 10SM CLR 32/01 A3003 RMK AO2 SLP084 T03170006 10322 20272 56017,M
EKO,2022-08-19 23:56,-115.7860,40.8242,1367.00,76.00,46.00,34.58,170.00,9.00,0.00,30.01,1011.90,10.00,M,FEW,M,M,M,12000.00,M,M,M,VCTS,M,M,M,M,M,M,75.90,KEKO 192356Z AUTO 17009KT 10SM VCTS FEW120 24/08 A3001 RMK AO2 LTG DSNT N AND S TSB29E44 SLP119 60000 T02440078 10267 20222 56014,M
WMC,2022-08-19 23:56,-117.8072,40.9019,1315.00,88.00,43.00,20.82,320.00,8.00,0.00,29.96,1010.00,10.00,M,FEW,M,M,M,11000.00,M,M,M,M,M,M,M,M,M,M,84.58,KWMC 192356Z AUTO 32008KT 10SM FEW110 31/06 A2996 RMK AO2 WSHFT 2301 SLP100 T03110061 10328 20267 56016,M
LAS,2022-08-19 23:56,-115.1634,36.0719,663.00,99.00,52.00,20.77,0.00,0.00,0.00,29.75,1004.30,10.00,M,FEW,FEW,SCT,M,11000.00,16000.00,22000.00,M,M,M,M,M,M,M,M,96.47,KLAS 192356Z 00000KT 10SM FEW110 FEW160 SCT220 37/11 A2975 RMK AO2 SLP043 CB DSNT NE-SE T03720111 10378 20322 56025,M
HND,2022-08-19 23:56,-115.1344,35.9729,742.79,96.00,54.00,24.42,210.00,3.00,0.00,29.79,1007.20,10.00,M,CLR,M,M,M,M,M,M,M,M,M,M,M,M,M,M,93.97,KHND 192356Z 21003KT 10SM CLR 36/12 A2979 RMK AO2 SLP072 T03560122 10367 20317 56023,M
NFL,2022-08-19 23:56,-118.7010,39.4166,1199.00,94.00,28.00,9.54,M,5.00,0.00,29.93,1010.70,10.00,M,FEW,M,M,M,8000.00,M,M,M,M,M,M,M,M,M,M,88.39,KNFL 192356Z VRB05KT 10SM FEW080 34/M02 A2993 RMK SLP107 T03441022 10344 20272 56021,M
INS,2022-08-19 23:58,-115.6733,36.5872,955.00,96.80,43.20,15.95,80.00,5.00,0.00,29.81,1004.10,10.00,M,CLR,M,M,M,M,M,M,M,M,M,M,M,M,M,M,92.62,KINS 192358Z AUTO 08005KT 10SM CLR 36/06 A2981 RMK AO2 SLP041 T03600062 10366 20309 57024 $,M
LSV,2022-08-19 23:58,-115.0343,36.2362,570.00,101.30,55.40,21.94,120.00,4.00,0.00,29.71,1003.40,10.00,M,CLR,M,M,M,M,M,M,M,M,M,M,M,M,M,M,100.05,KLSV 192358Z AUTO 12004KT 10SM CLR 39/13 A2971 RMK AO2 SLP034 T03850130 10400 20361 57026 $,M
