station,valid,lon,lat,elevation,tmpf,dwpf,relh,drct,sknt,p01i,alti,mslp,vsby,gust,skyc1,skyc2,skyc3,skyc4,skyl1,skyl2,skyl3,skyl4,wxcodes,ice_accretion_1hr,ice_accretion_3hr,ice_accretion_6hr,peak_wind_gust,peak_wind_drct,peak_wind_time,feel,metar,snowdepth
CXP,2022-08-29 00:10,-119.7326,39.1923,1431.00,89.60,32.00,12.84,0.00,0.00,0.00,29.93,M,10.00,M,CLR,M,M,M,M,M,M,M,M,M,M,M,M,M,M,85.54,KCXP 290010Z AUTO 00000KT 10SM CLR 32/M00 A2993 RMK AO2,M
BAM,2022-08-29 00:15,-116.8743,40.5990,1382.36,91.40,32.00,12.14,20.00,7.00,0.00,29.93,M,10.00,M,CLR,M,M,M,M,M,M,M,M,M,M,M,M,M,M,86.91,KBAM 290015Z AUTO 02007KT 10SM CLR 33/00 A2993 RMK AO1,M
TMT,2022-08-29 00:15,-117.1971,39.4643,1749.34,M,M,M,330.00,4.00,0.00,30.00,M,10.00,M,CLR,M,M,M,M,M,M,M,M,M,M,M,M,M,M,M,KTMT 290015Z AUTO 33004KT 10SM CLR A3000 RMK AO2,M
MEV,2022-08-29 00:15,-119.7500,38.9963,1441.42,89.60,37.40,15.92,270.00,10.00,0.00,29.92,M,10.00,M,CLR,M,M,M,M,M,M,M,M,M,M,M,M,M,M,85.67,KMEV 290015Z AUTO 27010KT 10SM CLR 32/03 A2992 RMK AO2,M
HTH,2022-08-29 00:15,-118.6315,38.5448,1282.89,93.20,24.80,8.54,350.00,7.00,0.00,29.87,M,10.00,M,CLR,M,M,M,M,M,M,M,M,M,M,M,M,M,M,87.56,KHTH 290015Z AUTO 35007KT 10SM CLR 34/M04 A2987 RMK A01,M
RTS,2022-08-29 00:15,-119.8764,39.6682,1539.00,87.80,28.40,11.74,300.00,7.00,0.00,29.96,M,10.00,15.00,CLR,M,M,M,M,M,M,M,M,M,M,M,M,M,M,83.84,KRTS 290015Z AUTO 30007G15KT 10SM CLR 31/M02 A2996 RMK AO2,M
BVU,2022-08-29 00:15,-114.8611,35.9475,671.00,100.40,53.60,21.11,150.00,13.00,0.00,29.75,M,M,M,M,M,M,M,M,M,M,M,M,M,M,M,M,M,M,98.44,KBVU 290015Z AUTO 15013KT 38/12 A2975 RMK AO2 PWINO TSNO,M
CXP,2022-08-29 00:30,-119.7326,39.1923,1431.00,91.40,32.00,12.14,M,5.00,0.00,29.92,M,10.00,10.00,CLR,M,M,M,M,M,M,M,M,M,M,M,M,M,M,86.91,KCXP 290030Z AUTO VRB05G10KT 10SM CLR 33/00 A2992 RMK AO2,M
TMT,2022-08-29 00:35,-117.1971,39.4643,1749.34,M,M,M,0.00,0.00,0.00,30.00,M,10.00,M,CLR,M,M,M,M,M,M,M,M,M,M,M,M,M,M,M,KTMT 290035Z AUTO 00000KT 10SM CLR A3000 RMK AO2,M
BVU,2022-08-29 00:35,-114.8611,35.9475,671.00,98.60,53.60,22.29,150.00,14.00,0.00,29.74,M,M,M,M,M,M,M,M,M,M,M,M,M,M,M,M,M,M,96.51,KBVU 290035Z AUTO 15014KT 37/12 A2974 RMK AO2 PWINO TSNO,M
RTS,2022-08-29 00:35,-119.8764,39.6682,1539.00,87.80,30.20,12.64,290.00,12.00,0.00,29.96,M,10.00,M,CLR,M,M,M,M,M,M,M,M,M,M,M,M,M,M,84.01,KRTS 290035Z AUTO 29012KT 10SM CLR 31/M01 A2996 RMK AO2,M
MEV,2022-08-29 00:35,-119.7500,38.9963,1441.42,89.60,39.20,17.09,280.00,9.00,0.00,29.92,M,10.00,M,CLR,M,M,M,M,M,M,M,M,M,M,M,M,M,M,85.73,KMEV 290035Z AUTO 28009KT 10SM CLR 32/04 A2992 RMK AO2,M
BAM,2022-08-29 00:35,-116.8743,40.5990,1382.36,91.40,30.20,11.28,360.00,8.00,0.00,29.93,M,10.00,M,CLR,M,M,M,M,M,M,M,M,M,M,M,M,M,M,86.71,KBAM 290035Z AUTO 36008KT 10SM CLR 33/M01 A2993 RMK AO1,M
HTH,2022-08-29 00:35,-118.6315,38.5448,1282.89,93.20,24.80,8.54,360.00,8.00,0.00,29.87,M,10.00,M,CLR,M,M,M,M,M,M,M,M,M,M,M,M,M,M,87.56,KHTH 290035Z AUTO 36008KT 10SM CLR 34/M04 A2987 RMK A01,M
ELY,2022-08-29 00:53,-114.8453,39.2950,1909.00,82.00,30.00,15.10,210.00,8.00,0.00,30.04,1007.80,10.00,M,CLR,M,M,M,M,M,M,M,M,M,M,M,M,M,M,79.69,KELY 290053Z AUTO 21008KT 10SM CLR 28/M01 A3004 RMK AO2 SLP078 T02781011,M
P68,2022-08-29 00:53,-116.0056,39.6014,1993.00,88.00,21.90,8.90,10.00,7.00,0.00,29.99,1007.00,M,M,M,M,M,M,M,M,M,M,M,M,M,M,M,M,M,83.51,KP68 290053Z AUTO 01007KT 31/M06 A2999 RMK AO1 SLP070 T03111056,M
DRA,2022-08-29 00:53,-116.0278,36.6206,1009.00,96.00,39.00,13.85,250.00,11.00,0.00,29.81,1003.90,10.00,20.00,CLR,M,M,M,M,M,M,M,M,M,M,M,M,M,M,91.57,KDRA 290053Z AUTO 25011G20KT 10SM CLR 36/04 A2981 RMK AO2 SLP039 T03560039,M
VGT,2022-08-29 00:53,-115.1933,36.2111,667.00,101.00,54.00,21.10,100.00,16.00,0.00,29.71,1004.50,10.00,22.00,FEW,M,M,M,12000.00,M,M,M,M,M,M,M,M,M,M,99.11,KVGT 290053Z 10016G22KT 10SM FEW120 38/12 A2971 RMK AO2 SLP045 T03830122,M
LOL,2022-08-29 00:53,-118.5701,40.0684,1192.43,92.00,21.90,7.88,160.00,5.00,0.00,29.87,1007.50,10.00,M,CLR,M,M,M,M,M,M,M,M,M,M,M,M,M,M,86.38,KLOL 290053Z AUTO 16005KT 10SM CLR 33/M06 A2987 RMK AO2 SLP075 T03331056,M
HTH,2022-08-29 00:55,-118.6315,38.5448,1282.89,91.40,24.80,9.04,330.00,10.00,0.00,29.86,M,10.00,M,CLR,M,M,M,M,M,M,M,M,M,M,M,M,M,M,86.21,KHTH 290055Z AUTO 33010KT 10SM CLR 33/M04 A2986 RMK A01,M
BVU,2022-08-29 00:55,-114.8611,35.9475,671.00,98.60,53.60,22.29,140.00,14.00,0.00,29.74,M,M,M,M,M,M,M,M,M,M,M,M,M,M,M,M,M,M,96.51,KBVU 290055Z AUTO 14014KT 37/12 A2974 RMK AO2 PWINO TSNO,M
RTS,2022-08-29 00:55,-119.8764,39.6682,1539.00,87.80,30.20,12.64,310.00,16.00,0.00,29.96,M,10.00,M,CLR,M,M,M,M,M,M,M,M,M,M,M,M,M,M,84.01,KRTS 290055Z AUTO 31016KT 10SM CLR 31/M01 A2996 RMK AO2,M
TMT,2022-08-29 00:55,-117.1971,39.4643,1749.34,M,M,M,310.00,3.00,0.00,30.00,M,10.00,M,CLR,M,M,M,M,M,M,M,M,M,M,M,M,M,M,M,KTMT 290055Z AUTO 31003KT 10SM CLR A3000 RMK AO2,M
CXP,2022-08-29 00:55,-119.7326,39.1923,1431.00,89.60,33.80,13.80,250.00,4.00,0.00,29.92,M,10.00,M,CLR,M,M,M,M,M,M,M,M,M,M,M,M,M,M,85.59,KCXP 290055Z AUTO 25004KT 10SM CLR 32/01 A2992 RMK AO2,M
RNO,2022-08-29 00:55,-119.7711,39.4839,1341.00,93.00,35.00,13.07,350.00,7.00,0.00,29.89,1006.10,10.00,M,FEW,SCT,M,M,7000.00,18000.00,M,M,M,M,M,M,M,M,M,88.56,KRNO 290055Z 35007KT 10SM FEW070 SCT180 34/02 A2989 RMK AO2 SLP061 T03390017,M
MEV,2022-08-29 00:55,-119.7500,38.9963,1441.42,87.80,39.20,18.09,260.00,11.00,0.00,29.92,M,10.00,M,CLR,M,M,M,M,M,M,M,M,M,M,M,M,M,M,84.22,KMEV 290055Z AUTO 26011KT 10SM CLR 31/04 A2992 RMK AO2,M
BAM,2022-08-29 00:55,-116.8743,40.5990,1382.36,89.60,30.20,11.94,350.00,9.00,0.00,29.93,M,10.00,M,CLR,M,M,M,M,M,M,M,M,M,M,M,M,M,M,85.34,KBAM 290055Z AUTO 35009KT 10SM CLR 32/M01 A2993 RMK AO1,M
WMC,2022-08-29 00:56,-117.8072,40.9019,1315.00,90.00,M,M,330.00,4.00,0.00,29.92,1008.50,10.00,M,CLR,M,M,M,M,M,M,M,M,M,M,M,M,M,M,M,KWMC 290056Z AUTO 33004KT 10SM CLR 32/ A2992 RMK AO2 SLP085 T0322 $,M
LAS,2022-08-29 00:56,-115.1634,36.0719,663.00,98.00,53.00,22.22,150.00,9.00,0.00,29.72,1003.40,10.00,17.00,FEW,FEW,M,M,9000.00,12000.00,M,M,M,M,M,M,M,M,M,95.83,KLAS 290056Z 15009G17KT 10SM FEW090 FEW120 37/12 A2972 RMK AO2 SLP034 TCU DSNT E AND SE T03670117,M
EKO,2022-08-29 00:56,-115.7860,40.8242,1367.00,82.00,27.00,13.36,280.00,9.00,0.00,29.96,1010.00,10.00,M,CLR,M,M,M,M,M,M,M,M,M,M,M,M,M,M,79.64,KEKO 290056Z AUTO 28009KT 10SM CLR 28/M03 A2996 RMK AO2 SLP100 T02781028,M
TPH,2022-08-29 00:56,-117.0904,38.0505,1654.00,88.00,28.00,11.48,M,6.00,0.00,29.98,1007.20,10.00,M,CLR,M,M,M,M,M,M,M,M,M,M,M,M,M,M,83.95,KTPH 290056Z AUTO VRB06KT 10SM CLR 31/M02 A2998 RMK AO2 SLP072 T03111022,M
LSV,2022-08-29 00:56,-115.0343,36.2362,570.00,101.30,54.00,20.85,140.00,11.00,0.00,29.69,1002.60,10.00,M,CLR,M,M,M,M,M,M,M,M,M,M,M,M,M,M,99.54,KLSV 290056Z AUTO 14011KT 10SM CLR 39/12 A2969 RMK AO2 SLP026 T03850122 $,M
INS,2022-08-29 00:56,-115.6733,36.5872,955.00,95.00,40.00,14.96,0.00,0.00,0.00,29.80,1004.00,10.00,M,CLR,M,M,M,M,M,M,M,M,M,M,M,M,M,M,90.63,KINS 290056Z AUTO 00000KT 10SM CLR 35/05 A2980 RMK AO2 SLP040 T03500045 $,M
LSV,2022-08-29 01:07,-115.0343,36.2362,570.00,100.40,53.60,21.11,180.00,11.00,0.00,29.69,1002.60,10.00,M,CLR,M,M,M,M,M,M,M,M,M,M,M,M,M,M,98.44,KLSV 290107Z AUTO 18011KT 10SM CLR 38/12 A2969 RMK AO2 WSHFT 0059 SLP026 $,M
CXP,2022-08-29 01:10,-119.7326,39.1923,1431.00,89.60,33.80,13.80,260.00,7.00,0.00,29.92,M,10.00,12.00,CLR,M,M,M,M,M,M,M,M,M,M,M,M,M,M,85.59,KCXP 290110Z AUTO 26007G12KT 10SM CLR 32/01 A2992 RMK AO2,M
TMT,2022-08-29 01:15,-117.1971,39.4643,1749.34,M,M,M,350.00,6.00,0.00,30.00,M,10.00,M,CLR,M,M,M,M,M,M,M,M,M,M,M,M,M,M,M,KTMT 290115Z AUTO 35006KT 10SM CLR A3000 RMK AO2,M
MEV,2022-08-29 01:15,-119.7500,38.9963,1441.42,87.80,39.20,18.09,270.00,11.00,0.00,29.92,M,10.00,M,CLR,M,M,M,M,M,M,M,M,M,M,M,M,M,M,84.22,KMEV 290115Z AUTO 27011KT 10SM CLR 31/04 A2992 RMK AO2,M
HTH,2022-08-29 01:15,-118.6315,38.5448,1282.89,91.40,24.80,9.04,330.00,9.00,0.00,29.86,M,10.00,M,CLR,M,M,M,M,M,M,M,M,M,M,M,M,M,M,86.21,KHTH 290115Z AUTO 33009KT 10SM CLR 33/M04 A2986 RMK A01,M
BVU,2022-08-29 01:15,-114.8611,35.9475,671.00,98.60,53.60,22.29,160.00,12.00,0.00,29.74,M,M,M,M,M,M,M,M,M,M,M,M,M,M,M,M,M,M,96.51,KBVU 290115Z AUTO 16012KT 37/12 A2974 RMK AO2 PWINO TSNO,M
RTS,2022-08-29 01:15,-119.8764,39.6682,1539.00,86.00,30.20,13.38,290.00,12.00,0.00,29.96,M,10.00,M,CLR,M,M,M,M,M,M,M,M,M,M,M,M,M,M,82.64,KRTS 290115Z AUTO 29012KT 10SM CLR 30/M01 A2996 RMK AO2,M
BAM,2022-08-29 01:15,-116.8743,40.5990,1382.36,89.60,28.40,11.09,350.00,12.00,0.00,29.93,M,10.00,M,CLR,M,M,M,M,M,M,M,M,M,M,M,M,M,M,85.17,KBAM 290115Z AUTO 35012KT 10SM CLR 32/M02 A2993 RMK AO1,M
BAM,2022-08-29 01:35,-116.8743,40.5990,1382.36,87.80,26.60,10.91,350.00,11.00,0.00,29.93,M,10.00,M,CLR,M,M,M,M,M,M,M,M,M,M,M,M,M,M,83.69,KBAM 290135Z AUTO 35011KT 10SM CLR 31/M03 A2993 RMK AO1,M
TMT,2022-08-29 01:35,-117.1971,39.4643,1749.34,M,M,M,340.00,12.00,0.00,30.00,M,10.00,17.00,CLR,M,M,M,M,M,M,M,M,M,M,M,M,M,M,M,KTMT 290135Z AUTO 34012G17KT 10SM CLR A3000 RMK AO2,M
CXP,2022-08-29 01:35,-119.7326,39.1923,1431.00,87.80,35.60,15.70,270.00,8.00,0.00,29.93,M,10.00,14.00,CLR,M,M,M,M,M,M,M,M,M,M,M,M,M,M,84.12,KCXP 290135Z AUTO 27008G14KT 10SM CLR 31/02 A2993 RMK AO2,M
BVU,2022-08-29 01:35,-114.8611,35.9475,671.00,96.80,53.60,23.55,160.00,11.00,0.00,29.74,M,M,M,M,M,M,M,M,M,M,M,M,M,M,M,M,M,M,94.59,KBVU 290135Z AUTO 16011KT 36/12 A2974 RMK AO2 PWINO TSNO,M
RTS,2022-08-29 01:35,-119.8764,39.6682,1539.00,86.00,30.20,13.38,290.00,10.00,0.00,29.97,M,10.00,M,CLR,M,M,M,M,M,M,M,M,M,M,M,M,M,M,82.64,KRTS 290135Z AUTO 29010KT 10SM CLR 30/M01 A2997 RMK AO2,M
MEV,2022-08-29 01:35,-119.7500,38.9963,1441.42,86.00,39.20,19.15,270.00,12.00,0.00,29.92,M,10.00,M,CLR,M,M,M,M,M,M,M,M,M,M,M,M,M,M,82.79,KMEV 290135Z AUTO 27012KT 10SM CLR 30/04 A2992 RMK AO2,M
HTH,2022-08-29 01:35,-118.6315,38.5448,1282.89,91.40,26.60,9.74,320.00,10.00,0.00,29.86,M,10.00,M,CLR,M,M,M,M,M,M,M,M,M,M,M,M,M,M,86.36,KHTH 290135Z AUTO 32010KT 10SM CLR 33/M03 A2986 RMK A01,M
VGT,2022-08-29 01:53,-115.1933,36.2111,667.00,100.00,53.00,20.98,160.00,11.00,0.00,29.71,1004.70,10.00,M,CLR,M,M,M,M,M,M,M,M,M,M,M,M,M,M,97.85,KVGT 290153Z 16011KT 10SM CLR 38/12 A2971 RMK AO2 SLP047 T03780117,M
ELY,2022-08-29 01:53,-114.8453,39.2950,1909.00,78.00,34.00,20.16,190.00,7.00,0.00,30.04,1008.20,10.00,M,CLR,M,M,M,M,M,M,M,M,M,M,M,M,M,M,78.10,KELY 290153Z AUTO 19007KT 10SM CLR 26/01 A3004 RMK AO2 SLP082 T02560011,M
DRA,2022-08-29 01:53,-116.0278,36.6206,1009.00,94.00,40.00,15.35,240.00,10.00,0.00,29.82,1004.10,10.00,M,CLR,M,M,M,M,M,M,M,M,M,M,M,M,M,M,89.60,KDRA 290153Z AUTO 24010KT 10SM CLR 34/04 A2982 RMK AO2 SLP041 T03440044,M
P68,2022-08-29 01:53,-116.0056,39.6014,1993.00,81.00,30.90,16.18,360.00,8.00,0.00,30.00,1008.30,M,M,M,M,M,M,M,M,M,M,M,M,M,M,M,M,M,79.04,KP68 290153Z AUTO 36008KT 27/M01 A3000 RMK AO1 SLP083 T02721006,M
LOL,2022-08-29 01:53,-118.5701,40.0684,1192.43,89.00,24.10,9.43,110.00,4.00,0.00,29.87,1007.60,10.00,M,CLR,M,M,M,M,M,M,M,M,M,M,M,M,M,M,84.46,KLOL 290153Z AUTO 11004KT 10SM CLR 32/M04 A2987 RMK AO2 SLP076 T03171044,M
MEV,2022-08-29 01:55,-119.7500,38.9963,1441.42,84.20,39.20,20.29,270.00,12.00,0.00,29.92,M,10.00,M,CLR,M,M,M,M,M,M,M,M,M,M,M,M,M,M,81.44,KMEV 290155Z AUTO 27012KT 10SM CLR 29/04 A2992 RMK AO2,M
BVU,2022-08-29 01:55,-114.8611,35.9475,671.00,96.80,53.60,23.55,160.00,11.00,0.00,29.74,M,M,M,M,M,M,M,M,M,M,M,M,M,M,M,M,M,M,94.59,KBVU 290155Z AUTO 16011KT 36/12 A2974 RMK AO2 PWINO TSNO,M
CXP,2022-08-29 01:55,-119.7326,39.1923,1431.00,86.00,37.40,17.85,300.00,7.00,0.00,29.93,M,10.00,M,CLR,M,M,M,M,M,M,M,M,M,M,M,M,M,M,82.73,KCXP 290155Z AUTO 30007KT 10SM CLR 30/03 A2993 RMK AO2,M
RNO,2022-08-29 01:55,-119.7711,39.4839,1341.00,90.00,37.00,15.48,330.00,14.00,0.00,29.90,1006.50,10.00,M,SCT,M,M,M,15000.00,M,M,M,M,M,M,M,M,M,M,86.00,KRNO 290155Z 33014KT 10SM SCT150 32/03 A2990 RMK AO2 SLP065 T03220028,M
RTS,2022-08-29 01:55,-119.8764,39.6682,1539.00,84.20,30.20,14.18,320.00,9.00,0.00,29.97,M,10.00,M,CLR,M,M,M,M,M,M,M,M,M,M,M,M,M,M,81.26,KRTS 290155Z AUTO 32009KT 10SM CLR 29/M01 A2997 RMK AO2,M
BAM,2022-08-29 01:55,-116.8743,40.5990,1382.36,87.80,26.60,10.91,340.00,9.00,0.00,29.93,M,10.00,M,CLR,M,M,M,M,M,M,M,M,M,M,M,M,M,M,83.69,KBAM 290155Z AUTO 34009KT 10SM CLR 31/M03 A2993 RMK AO1,M
HTH,2022-08-29 01:55,-118.6315,38.5448,1282.89,89.60,26.60,10.30,330.00,10.00,0.00,29.87,M,10.00,M,CLR,M,M,M,M,M,M,M,M,M,M,M,M,M,M,85.02,KHTH 290155Z AUTO 33010KT 10SM CLR 32/M03 A2987 RMK A01,M
TMT,2022-08-29 01:55,-117.1971,39.4643,1749.34,M,M,M,350.00,8.00,0.00,30.01,M,10.00,M,CLR,M,M,M,M,M,M,M,M,M,M,M,M,M,M,M,KTMT 290155Z AUTO 35008KT 10SM CLR A3001 RMK AO2,M
WMC,2022-08-29 01:56,-117.8072,40.9019,1315.00,85.00,M,M,330.00,5.00,0.00,29.92,1009.20,10.00,M,CLR,M,M,M,M,M,M,M,M,M,M,M,M,M,M,M,KWMC 290156Z AUTO 33005KT 10SM CLR 29/ A2992 RMK AO2 SLP092 T0294 $,M
TPH,2022-08-29 01:56,-117.0904,38.0505,1654.00,86.00,32.00,14.40,170.00,8.00,0.00,29.99,1007.50,10.00,M,CLR,M,M,M,M,M,M,M,M,M,M,M,M,M,M,82.64,KTPH 290156Z AUTO 17008KT 10SM CLR 30/00 A2999 RMK AO2 SLP075 T03000000,M
LAS,2022-08-29 01:56,-115.1634,36.0719,663.00,97.00,54.00,23.75,160.00,10.00,0.00,29.72,1003.40,10.00,20.00,FEW,FEW,M,M,9000.00,12000.00,M,M,M,M,M,M,M,M,M,94.92,KLAS 290156Z 16010G20KT 10SM FEW090 FEW120 36/12 A2972 RMK AO2 SLP034 T03610122,M
INS,2022-08-29 01:56,-115.6733,36.5872,955.00,94.80,40.00,14.93,110.00,3.00,0.00,29.80,1004.00,10.00,M,CLR,M,M,M,M,M,M,M,M,M,M,M,M,M,M,90.43,KINS 290156Z AUTO 11003KT 10SM CLR 35/04 A2980 RMK AO2 SLP040 T03490044 $,M
EKO,2022-08-29 01:56,-115.7860,40.8242,1367.00,78.00,28.00,15.81,320.00,5.00,0.00,29.96,1010.90,10.00,M,CLR,M,M,M,M,M,M,M,M,M,M,M,M,M,M,78.10,KEKO 290156Z AUTO 32005KT 10SM CLR 26/M02 A2996 RMK AO2 SLP109 T02561022,M
LSV,2022-08-29 01:56,-115.0343,36.2362,570.00,99.00,54.70,22.93,160.00,9.00,0.00,29.69,1002.60,10.00,M,CLR,M,M,M,M,M,M,M,M,M,M,M,M,M,M,97.29,KLSV 290156Z AUTO 16009KT 10SM CLR 37/13 A2969 RMK AO2 SLP026 T03720126 $,M
BAM,2022-08-29 02:15,-116.8743,40.5990,1382.36,84.20,26.60,12.23,340.00,8.00,0.00,29.94,M,10.00,M,CLR,M,M,M,M,M,M,M,M,M,M,M,M,M,M,81.13,KBAM 290215Z AUTO 34008KT 10SM CLR 29/M03 A2994 RMK AO1,M
HTH,2022-08-29 02:15,-118.6315,38.5448,1282.89,87.80,26.60,10.91,320.00,9.00,0.00,29.87,M,10.00,M,CLR,M,M,M,M,M,M,M,M,M,M,M,M,M,M,83.69,KHTH 290215Z AUTO 32009KT 10SM CLR 31/M03 A2987 RMK A01,M
TMT,2022-08-29 02:15,-117.1971,39.4643,1749.34,M,M,M,340.00,10.00,0.00,30.02,M,10.00,M,CLR,M,M,M,M,M,M,M,M,M,M,M,M,M,M,M,KTMT 290215Z AUTO 34010KT 10SM CLR A3002 RMK AO2,M
MEV,2022-08-29 02:15,-119.7500,38.9963,1441.42,80.60,39.20,22.81,280.00,10.00,0.00,29.92,M,10.00,15.00,CLR,M,M,M,M,M,M,M,M,M,M,M,M,M,M,79.10,KMEV 290215Z AUTO 28010G15KT 10SM CLR 27/04 A2992 RMK AO2,M
RTS,2022-08-29 02:15,-119.8764,39.6682,1539.00,82.40,30.20,15.03,310.00,11.00,0.00,29.98,M,10.00,M,CLR,M,M,M,M,M,M,M,M,M,M,M,M,M,M,79.97,KRTS 290215Z AUTO 31011KT 10SM CLR 28/M01 A2998 RMK AO2,M
CXP,2022-08-29 02:15,-119.7326,39.1923,1431.00,86.00,37.40,17.85,300.00,8.00,0.00,29.94,M,10.00,M,FEW,M,M,M,1400.00,M,M,M,M,M,M,M,M,M,M,82.73,KCXP 290215Z AUTO 30008KT 10SM FEW014 30/03 A2994 RMK AO2,M
BVU,2022-08-29 02:15,-114.8611,35.9475,671.00,95.00,53.60,24.89,150.00,10.00,0.00,29.75,M,M,M,M,M,M,M,M,M,M,M,M,M,M,M,M,M,M,92.71,KBVU 290215Z AUTO 15010KT 35/12 A2975 RMK AO2 PWINO TSNO,M
RTS,2022-08-29 02:35,-119.8764,39.6682,1539.00,78.80,32.00,18.18,330.00,8.00,0.00,29.99,M,10.00,M,CLR,M,M,M,M,M,M,M,M,M,M,M,M,M,M,78.80,KRTS 290235Z AUTO 33008KT 10SM CLR 26/M00 A2999 RMK AO2,M
TMT,2022-08-29 02:35,-117.1971,39.4643,1749.34,M,M,M,360.00,7.00,0.00,30.03,M,10.00,M,CLR,M,M,M,M,M,M,M,M,M,M,M,M,M,M,M,KTMT 290235Z AUTO 36007KT 10SM CLR A3003 RMK AO2,M
CXP,2022-08-29 02:35,-119.7326,39.1923,1431.00,84.20,37.40,18.91,320.00,4.00,0.00,29.94,M,10.00,M,CLR,M,M,M,M,M,M,M,M,M,M,M,M,M,M,81.38,KCXP 290235Z AUTO 32004KT 10SM CLR 29/03 A2994 RMK AO2,M
BVU,2022-08-29 02:35,-114.8611,35.9475,671.00,93.20,53.60,26.31,160.00,8.00,0.00,29.76,M,M,M,M,M,M,M,M,M,M,M,M,M,M,M,M,M,M,90.86,KBVU 290235Z AUTO 16008KT 34/12 A2976 RMK AO2 PWINO TSNO,M
HTH,2022-08-29 02:35,-118.6315,38.5448,1282.89,86.00,26.60,11.55,320.00,9.00,0.00,29.88,M,10.00,M,CLR,M,M,M,M,M,M,M,M,M,M,M,M,M,M,82.39,KHTH 290235Z AUTO 32009KT 10SM CLR 30/M03 A2988 RMK A01,M
BAM,2022-08-29 02:35,-116.8743,40.5990,1382.36,82.40,26.60,12.97,340.00,8.00,0.00,29.95,M,10.00,M,CLR,M,M,M,M,M,M,M,M,M,M,M,M,M,M,79.92,KBAM 290235Z AUTO 34008KT 10SM CLR 28/M03 A2995 RMK AO1,M
MEV,2022-08-29 02:35,-119.7500,38.9963,1441.42,80.60,39.20,22.81,270.00,11.00,0.00,29.93,M,10.00,M,CLR,M,M,M,M,M,M,M,M,M,M,M,M,M,M,79.10,KMEV 290235Z AUTO 27011KT 10SM CLR 27/04 A2993 RMK AO2,M
VGT,2022-08-29 02:53,-115.1933,36.2111,667.00,98.00,54.00,22.97,150.00,12.00,0.00,29.74,1005.50,10.00,M,CLR,M,M,M,M,M,M,M,M,M,M,M,M,M,M,96.10,KVGT 290253Z 15012KT 10SM CLR 37/12 A2974 RMK AO2 SLP055 T03670122 53006,M
ELY,2022-08-29 02:53,-114.8453,39.2950,1909.00,68.00,34.00,28.34,150.00,8.00,0.00,30.06,1008.70,10.00,M,CLR,M,M,M,M,M,M,M,M,M,M,M,M,M,M,68.00,KELY 290253Z AUTO 15008KT 10SM CLR 20/01 A3006 RMK AO2 SLP087 T02000011 53005,M
DRA,2022-08-29 02:53,-116.0278,36.6206,1009.00,90.00,40.00,17.34,240.00,7.00,0.00,29.83,1004.60,10.00,M,CLR,M,M,M,M,M,M,M,M,M,M,M,M,M,M,86.11,KDRA 290253Z AUTO 24007KT 10SM CLR 32/04 A2983 RMK AO2 SLP046 T03220044 53003,M
LOL,2022-08-29 02:53,-118.5701,40.0684,1192.43,80.00,34.00,18.88,20.00,5.00,0.00,29.88,1007.90,10.00,M,CLR,M,M,M,M,M,M,M,M,M,M,M,M,M,M,78.70,KLOL 290253Z AUTO 02005KT 10SM CLR 27/01 A2988 RMK AO2 SLP079 T02670011 55000,M
P68,2022-08-29 02:53,-116.0056,39.6014,1993.00,70.00,34.00,26.46,70.00,3.00,0.00,30.02,1008.80,M,M,M,M,M,M,M,M,M,M,M,M,M,M,M,M,M,70.00,KP68 290253Z AUTO 07003KT 21/01 A3002 RMK AO1 SLP088 T02110011 53009,M
RNO,2022-08-29 02:55,-119.7711,39.4839,1341.00,86.00,37.00,17.57,340.00,10.00,0.00,29.92,1007.40,10.00,M,FEW,M,M,M,12000.00,M,M,M,M,M,M,M,M,M,M,82.72,KRNO 290255Z 34010KT 10SM FEW120 30/03 A2992 RMK AO2 SLP074 T03000028 53008,M
BVU,2022-08-29 02:55,-114.8611,35.9475,671.00,93.20,53.60,26.31,160.00,8.00,0.00,29.77,M,M,M,M,M,M,M,M,M,M,M,M,M,M,M,M,M,M,90.86,KBVU 290255Z AUTO 16008KT 34/12 A2977 RMK AO2 PWINO TSNO,M
CXP,2022-08-29 02:55,-119.7326,39.1923,1431.00,82.40,37.40,20.04,0.00,0.00,0.00,29.95,M,10.00,M,CLR,M,M,M,M,M,M,M,M,M,M,M,M,M,M,80.14,KCXP 290255Z AUTO 00000KT 10SM CLR 28/03 A2995 RMK AO2,M
RTS,2022-08-29 02:55,-119.8764,39.6682,1539.00,77.00,32.00,19.30,340.00,7.00,0.00,29.99,M,10.00,M,CLR,M,M,M,M,M,M,M,M,M,M,M,M,M,M,77.00,KRTS 290255Z AUTO 34007KT 10SM CLR 25/M00 A2999 RMK AO2,M
MEV,2022-08-29 02:55,-119.7500,38.9963,1441.42,80.60,39.20,22.81,290.00,7.00,0.00,29.94,M,10.00,12.00,CLR,M,M,M,M,M,M,M,M,M,M,M,M,M,M,79.10,KMEV 290255Z AUTO 29007G12KT 10SM CLR 27/04 A2994 RMK AO2,M
BAM,2022-08-29 02:55,-116.8743,40.5990,1382.36,78.80,26.60,14.59,340.00,6.00,0.00,29.95,M,10.00,M,CLR,M,M,M,M,M,M,M,M,M,M,M,M,M,M,78.80,KBAM 290255Z AUTO 34006KT 10SM CLR 26/M03 A2995 RMK AO1,M
HTH,2022-08-29 02:55,-118.6315,38.5448,1282.89,86.00,26.60,11.55,320.00,9.00,0.00,29.88,M,10.00,M,CLR,M,M,M,M,M,M,M,M,M,M,M,M,M,M,82.39,KHTH 290255Z AUTO 32009KT 10SM CLR 30/M03 A2988 RMK A01,M
TMT,2022-08-29 02:55,-117.1971,39.4643,1749.34,M,M,M,20.00,6.00,0.00,30.03,M,10.00,M,CLR,M,M,M,M,M,M,M,M,M,M,M,M,M,M,M,KTMT 290255Z AUTO 02006KT 10SM CLR A3003 RMK AO2,M
INS,2022-08-29 02:56,-115.6733,36.5872,955.00,91.00,49.00,23.86,120.00,13.00,0.00,29.82,1004.60,10.00,M,CLR,M,M,M,M,M,M,M,M,M,M,M,M,M,M,87.85,KINS 290256Z AUTO 12013KT 10SM CLR 33/10 A2982 RMK AO2 SLP046 T03280095 53005 $,M
LSV,2022-08-29 02:56,-115.0343,36.2362,570.00,97.00,54.00,23.84,140.00,13.00,0.00,29.71,1003.30,10.00,M,CLR,M,M,M,M,M,M,M,M,M,M,M,M,M,M,94.95,KLSV 290256Z AUTO 14013KT 10SM CLR 36/12 A2971 RMK AO2 SLP033 T03610123 53005 $,M
EKO,2022-08-29 02:56,-115.7860,40.8242,1367.00,70.00,26.10,19.19,350.00,4.00,0.00,29.98,1011.40,10.00,M,CLR,M,M,M,M,M,M,M,M,M,M,M,M,M,M,70.00,KEKO 290256Z AUTO 35004KT 10SM CLR 21/M03 A2998 RMK AO2 SLP114 T02111033 53004,M
LAS,2022-08-29 02:56,-115.1634,36.0719,663.00,96.00,54.00,24.42,160.00,9.00,0.00,29.75,1004.10,10.00,18.00,FEW,M,M,M,12000.00,M,M,M,M,M,M,M,M,M,M,93.97,KLAS 290256Z 16009G18KT 10SM FEW120 36/12 A2975 RMK AO2 SLP041 T03560122 53003,M
TPH,2022-08-29 02:56,-117.0904,38.0505,1654.00,78.00,34.00,20.16,180.00,7.00,0.00,30.00,1007.90,10.00,M,CLR,M,M,M,M,M,M,M,M,M,M,M,M,M,M,78.10,KTPH 290256Z AUTO 18007KT 10SM CLR 26/01 A3000 RMK AO2 SLP079 T02560011 53004,M
WMC,2022-08-29 02:56,-117.8072,40.9019,1315.00,76.00,M,M,360.00,5.00,0.00,29.93,1009.40,10.00,M,CLR,M,M,M,M,M,M,M,M,M,M,M,M,M,M,M,KWMC 290256Z AUTO 36005KT 10SM CLR 24/ A2993 RMK AO2 SLP094 T0244 53002 $,M
BAM,2022-08-29 03:15,-116.8743,40.5990,1382.36,77.00,26.60,15.48,340.00,7.00,0.00,29.96,M,10.00,M,CLR,M,M,M,M,M,M,M,M,M,M,M,M,M,M,77.00,KBAM 290315Z AUTO 34007KT 10SM CLR 25/M03 A2996 RMK AO1,M
HTH,2022-08-29 03:15,-118.6315,38.5448,1282.89,84.20,26.60,12.23,320.00,7.00,0.00,29.89,M,10.00,M,CLR,M,M,M,M,M,M,M,M,M,M,M,M,M,M,81.13,KHTH 290315Z AUTO 32007KT 10SM CLR 29/M03 A2989 RMK A01,M
TMT,2022-08-29 03:15,-117.1971,39.4643,1749.34,M,M,M,60.00,3.00,0.00,30.05,M,10.00,M,CLR,M,M,M,M,M,M,M,M,M,M,M,M,M,M,M,KTMT 290315Z AUTO 06003KT 10SM CLR A3005 RMK AO2,M
BVU,2022-08-29 03:15,-114.8611,35.9475,671.00,93.20,53.60,26.31,160.00,8.00,0.00,29.77,M,M,M,M,M,M,M,M,M,M,M,M,M,M,M,M,M,M,90.86,KBVU 290315Z AUTO 16008KT 34/12 A2977 RMK AO2 PWINO TSNO,M
CXP,2022-08-29 03:15,-119.7326,39.1923,1431.00,80.60,37.40,21.25,330.00,7.00,0.00,29.96,M,10.00,M,CLR,M,M,M,M,M,M,M,M,M,M,M,M,M,M,79.02,KCXP 290315Z AUTO 33007KT 10SM CLR 27/03 A2996 RMK AO2,M
RTS,2022-08-29 03:15,-119.8764,39.6682,1539.00,73.40,32.00,21.76,340.00,5.00,0.00,30.01,M,10.00,M,CLR,M,M,M,M,M,M,M,M,M,M,M,M,M,M,73.40,KRTS 290315Z AUTO 34005KT 10SM CLR 23/M00 A3001 RMK AO2,M
MEV,2022-08-29 03:15,-119.7500,38.9963,1441.42,75.20,41.00,29.23,80.00,4.00,0.00,29.95,M,10.00,M,CLR,M,M,M,M,M,M,M,M,M,M,M,M,M,M,75.20,KMEV 290315Z AUTO 08004KT 10SM CLR 24/05 A2995 RMK AO2,M
HTH,2022-08-29 03:35,-118.6315,38.5448,1282.89,84.20,24.80,11.35,310.00,7.00,0.00,29.90,M,10.00,M,CLR,M,M,M,M,M,M,M,M,M,M,M,M,M,M,81.00,KHTH 290335Z AUTO 31007KT 10SM CLR 29/M04 A2990 RMK A01,M
CXP,2022-08-29 03:35,-119.7326,39.1923,1431.00,80.60,37.40,21.25,350.00,7.00,0.00,29.97,M,10.00,M,CLR,M,M,M,M,M,M,M,M,M,M,M,M,M,M,79.02,KCXP 290335Z AUTO 35007KT 10SM CLR 27/03 A2997 RMK AO2,M
BVU,2022-08-29 03:35,-114.8611,35.9475,671.00,91.40,53.60,27.83,180.00,5.00,0.00,29.78,M,M,M,M,M,M,M,M,M,M,M,M,M,M,M,M,M,M,89.08,KBVU 290335Z AUTO 18005KT 33/12 A2978 RMK AO2 PWINO TSNO,M
RTS,2022-08-29 03:35,-119.8764,39.6682,1539.00,73.40,30.20,20.23,360.00,8.00,0.00,30.02,M,10.00,M,CLR,M,M,M,M,M,M,M,M,M,M,M,M,M,M,73.40,KRTS 290335Z AUTO 36008KT 10SM CLR 23/M01 A3002 RMK AO2,M
MEV,2022-08-29 03:35,-119.7500,38.9963,1441.42,68.00,42.80,40.00,90.00,6.00,0.00,29.96,M,10.00,M,CLR,M,M,M,M,M,M,M,M,M,M,M,M,M,M,68.00,KMEV 290335Z AUTO 09006KT 10SM CLR 20/06 A2996 RMK AO2,M
BAM,2022-08-29 03:35,-116.8743,40.5990,1382.36,73.40,26.60,17.46,310.00,8.00,0.00,29.97,M,10.00,M,CLR,M,M,M,M,M,M,M,M,M,M,M,M,M,M,73.40,KBAM 290335Z AUTO 31008KT 10SM CLR 23/M03 A2997 RMK AO1,M
TMT,2022-08-29 03:35,-117.1971,39.4643,1749.34,M,M,M,0.00,0.00,0.00,30.06,M,10.00,M,CLR,M,M,M,M,M,M,M,M,M,M,M,M,M,M,M,KTMT 290335Z AUTO 00000KT 10SM CLR A3006 RMK AO2,M
LOL,2022-08-29 03:53,-118.5701,40.0684,1192.43,77.00,25.00,14.49,30.00,9.00,0.00,29.90,1008.10,10.00,M,CLR,M,M,M,M,M,M,M,M,M,M,M,M,M,M,77.00,KLOL 290353Z AUTO 03009KT 10SM CLR 25/M04 A2990 RMK AO2 SLP081 T02501039,M
P68,2022-08-29 03:53,-116.0056,39.6014,1993.00,66.00,28.90,24.71,320.00,4.00,0.00,30.05,1009.50,M,M,M,M,M,M,M,M,M,M,M,M,M,M,M,M,M,66.00,KP68 290353Z AUTO 32004KT 19/M02 A3005 RMK AO1 SLP095 T01891017,M
ELY,2022-08-29 03:53,-114.8453,39.2950,1909.00,64.00,34.00,32.56,190.00,8.00,0.00,30.08,1008.90,10.00,M,CLR,M,M,M,M,M,M,M,M,M,M,M,M,M,M,64.00,KELY 290353Z AUTO 19008KT 10SM CLR 18/01 A3008 RMK AO2 SLP089 T01780011,M
VGT,2022-08-29 03:53,-115.1933,36.2111,667.00,96.00,54.00,24.42,150.00,9.00,0.00,29.76,1006.30,10.00,M,CLR,M,M,M,M,M,M,M,M,M,M,M,M,M,M,93.97,KVGT 290353Z 15009KT 10SM CLR 36/12 A2976 RMK AO2 SLP063 T03560122,M
DRA,2022-08-29 03:53,-116.0278,36.6206,1009.00,88.00,42.00,20.11,M,3.00,0.00,29.86,1005.20,10.00,M,CLR,M,M,M,M,M,M,M,M,M,M,M,M,M,M,84.52,KDRA 290353Z AUTO VRB03KT 10SM CLR 31/06 A2986 RMK AO2 SLP052 T03110056,M
RNO,2022-08-29 03:55,-119.7711,39.4839,1341.00,83.00,37.00,19.41,330.00,12.00,0.00,29.96,1008.50,10.00,M,FEW,FEW,M,M,10000.00,20000.00,M,M,M,M,M,M,M,M,M,80.46,KRNO 290355Z 33012KT 10SM FEW100 FEW200 28/03 A2996 RMK AO2 SLP085 T02830028,M
HTH,2022-08-29 03:55,-118.6315,38.5448,1282.89,84.20,24.80,11.35,330.00,9.00,0.00,29.91,M,10.00,M,CLR,M,M,M,M,M,M,M,M,M,M,M,M,M,M,81.00,KHTH 290355Z AUTO 33009KT 10SM CLR 29/M04 A2991 RMK A01,M
BAM,2022-08-29 03:55,-116.8743,40.5990,1382.36,73.40,23.00,15.03,310.00,7.00,0.00,29.97,M,10.00,M,CLR,M,M,M,M,M,M,M,M,M,M,M,M,M,M,73.40,KBAM 290355Z AUTO 31007KT 10SM CLR 23/M05 A2997 RMK AO1,M
BVU,2022-08-29 03:55,-114.8611,35.9475,671.00,91.40,53.60,27.83,200.00,5.00,0.00,29.79,M,M,M,M,M,M,M,M,M,M,M,M,M,M,M,M,M,M,89.08,KBVU 290355Z AUTO 20005KT 33/12 A2979 RMK AO2 PWINO TSNO,M
CXP,2022-08-29 03:55,-119.7326,39.1923,1431.00,78.80,35.60,21.00,340.00,6.00,0.00,29.98,M,10.00,M,CLR,M,M,M,M,M,M,M,M,M,M,M,M,M,M,78.80,KCXP 290355Z AUTO 34006KT 10SM CLR 26/02 A2998 RMK AO2,M
TMT,2022-08-29 03:55,-117.1971,39.4643,1749.34,M,M,M,0.00,0.00,0.00,30.06,M,10.00,M,CLR,M,M,M,M,M,M,M,M,M,M,M,M,M,M,M,KTMT 290355Z AUTO 00000KT 10SM CLR A3006 RMK AO2,M
RTS,2022-08-29 03:55,-119.8764,39.6682,1539.00,71.60,30.20,21.50,330.00,6.00,0.00,30.03,M,10.00,M,CLR,M,M,M,M,M,M,M,M,M,M,M,M,M,M,71.60,KRTS 290355Z AUTO 33006KT 10SM CLR 22/M01 A3003 RMK AO2,M
MEV,2022-08-29 03:55,-119.7500,38.9963,1441.42,66.20,41.00,39.72,110.00,6.00,0.00,29.97,M,10.00,M,CLR,M,M,M,M,M,M,M,M,M,M,M,M,M,M,66.20,KMEV 290355Z AUTO 11006KT 10SM CLR 19/05 A2997 RMK AO2,M
LAS,2022-08-29 03:56,-115.1634,36.0719,663.00,95.00,55.00,26.19,170.00,10.00,0.00,29.77,1004.90,10.00,16.00,CLR,M,M,M,M,M,M,M,M,M,M,M,M,M,M,93.10,KLAS 290356Z 17010G16KT 10SM CLR 35/13 A2977 RMK AO2 SLP049 T03500128,M
INS,2022-08-29 03:56,-115.6733,36.5872,955.00,89.80,49.30,24.96,120.00,8.00,0.00,29.84,1005.10,10.00,M,CLR,M,M,M,M,M,M,M,M,M,M,M,M,M,M,86.77,KINS 290356Z AUTO 12008KT 10SM CLR 32/10 A2984 RMK AO2 SLP051 T03210096 $,M
TPH,2022-08-29 03:56,-117.0904,38.0505,1654.00,77.00,33.00,20.17,190.00,8.00,0.00,30.02,1008.40,10.00,M,CLR,M,M,M,M,M,M,M,M,M,M,M,M,M,M,77.00,KTPH 290356Z AUTO 19008KT 10SM CLR 25/01 A3002 RMK AO2 SLP084 T02500006,M
EKO,2022-08-29 03:56,-115.7860,40.8242,1367.00,66.00,27.00,22.86,70.00,4.00,0.00,30.00,1011.80,10.00,M,CLR,M,M,M,M,M,M,M,M,M,M,M,M,M,M,66.00,KEKO 290356Z AUTO 07004KT 10SM CLR 19/M03 A3000 RMK AO2 SLP118 T01891028,M
WMC,2022-08-29 03:56,-117.8072,40.9019,1315.00,68.00,M,M,260.00,3.00,0.00,29.95,1009.80,10.00,M,CLR,M,M,M,M,M,M,M,M,M,M,M,M,M,M,M,KWMC 290356Z AUTO 26003KT 10SM CLR 20/ A2995 RMK AO2 SLP098 T0200 $,M
LSV,2022-08-29 03:56,-115.0343,36.2362,570.00,96.30,54.70,24.89,150.00,13.00,0.00,29.73,1003.80,10.00,M,CLR,M,M,M,M,M,M,M,M,M,M,M,M,M,M,94.39,KLSV 290356Z AUTO 15013KT 10SM CLR 36/13 A2973 RMK AO2 SLP038 T03570126 $,M
BAM,2022-08-29 04:15,-116.8743,40.5990,1382.36,73.40,21.20,13.93,0.00,0.00,0.00,29.98,M,10.00,M,CLR,M,M,M,M,M,M,M,M,M,M,M,M,M,M,73.40,KBAM 290415Z AUTO 00000KT 10SM CLR 23/M06 A2998 RMK AO1,M
TMT,2022-08-29 04:15,-117.1971,39.4643,1749.34,M,M,M,250.00,3.00,0.00,30.07,M,10.00,M,CLR,M,M,M,M,M,M,M,M,M,M,M,M,M,M,M,KTMT 290415Z AUTO 25003KT 10SM CLR A3007 RMK AO2,M
MEV,2022-08-29 04:15,-119.7500,38.9963,1441.42,62.60,39.20,42.00,140.00,6.00,0.00,29.98,M,10.00,M,CLR,M,M,M,M,M,M,M,M,M,M,M,M,M,M,62.60,KMEV 290415Z AUTO 14006KT 10SM CLR 17/04 A2998 RMK AO2,M
RTS,2022-08-29 04:15,-119.8764,39.6682,1539.00,71.60,30.20,21.50,320.00,7.00,0.00,30.03,M,10.00,M,CLR,M,M,M,M,M,M,M,M,M,M,M,M,M,M,71.60,KRTS 290415Z AUTO 32007KT 10SM CLR 22/M01 A3003 RMK AO2,M
CXP,2022-08-29 04:15,-119.7326,39.1923,1431.00,78.80,35.60,21.00,320.00,5.00,0.00,29.99,M,10.00,M,CLR,M,M,M,M,M,M,M,M,M,M,M,M,M,M,78.80,KCXP 290415Z AUTO 32005KT 10SM CLR 26/02 A2999 RMK AO2,M
BVU,2022-08-29 04:15,-114.8611,35.9475,671.00,91.40,51.80,26.05,200.00,5.00,0.00,29.80,M,M,M,M,M,M,M,M,M,M,M,M,M,M,M,M,M,M,88.69,KBVU 290415Z AUTO 20005KT 33/11 A2980 RMK AO2 PWINO TSNO,M
HTH,2022-08-29 04:15,-118.6315,38.5448,1282.89,84.20,30.20,14.18,320.00,13.00,0.00,29.91,M,10.00,19.00,CLR,M,M,M,M,M,M,M,M,M,M,M,M,M,M,81.26,KHTH 290415Z AUTO 32013G19KT 10SM CLR 29/M01 A2991 RMK A01,M
RTS,2022-08-29 04:35,-119.8764,39.6682,1539.00,69.80,30.20,22.86,320.00,8.00,0.00,30.04,M,10.00,M,CLR,M,M,M,M,M,M,M,M,M,M,M,M,M,M,69.80,KRTS 290435Z AUTO 32008KT 10SM CLR 21/M01 A3004 RMK AO2,M
CXP,2022-08-29 04:35,-119.7326,39.1923,1431.00,80.60,33.80,18.42,360.00,10.00,0.00,29.99,M,10.00,M,CLR,M,M,M,M,M,M,M,M,M,M,M,M,M,M,78.88,KCXP 290435Z AUTO 36010KT 10SM CLR 27/01 A2999 RMK AO2,M
TMT,2022-08-29 04:35,-117.1971,39.4643,1749.34,62.00,27.50,26.75,240.00,4.00,0.00,30.07,M,10.00,M,CLR,M,M,M,M,M,M,M,M,M,M,M,M,M,M,62.10,KTMT 290435Z AUTO 24004KT 10SM CLR 17/M02 A3007 RMK AO2 T01671025,M
BVU,2022-08-29 04:35,-114.8611,35.9475,671.00,91.40,53.60,27.83,240.00,4.00,0.00,29.81,M,M,M,M,M,M,M,M,M,M,M,M,M,M,M,M,M,M,89.08,KBVU 290435Z AUTO 24004KT 33/12 A2981 RMK AO2 PWINO TSNO,M
HTH,2022-08-29 04:35,-118.6315,38.5448,1282.89,84.20,30.20,14.18,330.00,12.00,0.00,29.92,M,10.00,M,CLR,M,M,M,M,M,M,M,M,M,M,M,M,M,M,81.26,KHTH 290435Z AUTO 33012KT 10SM CLR 29/M01 A2992 RMK A01,M
BAM,2022-08-29 04:35,-116.8743,40.5990,1382.36,71.60,23.00,15.97,0.00,0.00,0.00,29.99,M,10.00,M,CLR,M,M,M,M,M,M,M,M,M,M,M,M,M,M,71.60,KBAM 290435Z AUTO 00000KT 10SM CLR 22/M05 A2999 RMK AO1,M
MEV,2022-08-29 04:35,-119.7500,38.9963,1441.42,60.80,44.60,55.12,150.00,6.00,0.00,29.99,M,10.00,M,CLR,M,M,M,M,M,M,M,M,M,M,M,M,M,M,60.80,KMEV 290435Z AUTO 15006KT 10SM CLR 16/07 A2999 RMK AO2,M
LOL,2022-08-29 04:53,-118.5701,40.0684,1192.43,74.00,25.00,16.06,40.00,8.00,0.00,29.91,1008.50,10.00,M,CLR,M,M,M,M,M,M,M,M,M,M,M,M,M,M,73.90,KLOL 290453Z AUTO 04008KT 10SM CLR 23/M04 A2991 RMK AO2 SLP085 T02331039,M
ELY,2022-08-29 04:53,-114.8453,39.2950,1909.00,64.00,34.00,32.56,190.00,8.00,0.00,30.10,1008.50,10.00,M,CLR,M,M,M,M,M,M,M,M,M,M,M,M,M,M,64.00,KELY 290453Z AUTO 19008KT 10SM CLR 18/01 A3010 RMK AO2 SLP085 T01780011,M
P68,2022-08-29 04:53,-116.0056,39.6014,1993.00,63.00,28.00,26.45,20.00,3.00,0.00,30.07,1009.60,M,M,M,M,M,M,M,M,M,M,M,M,M,M,M,M,M,63.00,KP68 290453Z AUTO 02003KT 17/M02 A3007 RMK AO1 SLP096 T01721022,M
DRA,2022-08-29 04:53,-116.0278,36.6206,1009.00,84.00,42.00,22.85,30.00,4.00,0.00,29.87,1005.90,10.00,M,CLR,M,M,M,M,M,M,M,M,M,M,M,M,M,M,81.43,KDRA 290453Z AUTO 03004KT 10SM CLR 29/06 A2987 RMK AO2 SLP059 T02890056,M
VGT,2022-08-29 04:53,-115.1933,36.2111,667.00,96.00,55.00,25.32,170.00,11.00,0.00,29.78,1006.70,10.00,M,CLR,M,M,M,M,M,M,M,M,M,M,M,M,M,M,94.27,KVGT 290453Z AUTO 17011KT 10SM CLR 36/13 A2978 RMK AO2 SLP067 T03560128,M
BVU,2022-08-29 04:55,-114.8611,35.9475,671.00,91.40,51.80,26.05,220.00,4.00,0.00,29.81,M,M,M,M,M,M,M,M,M,M,M,M,M,M,M,M,M,M,88.69,KBVU 290455Z AUTO 22004KT 33/11 A2981 RMK AO2 PWINO TSNO,M
CXP,2022-08-29 04:55,-119.7326,39.1923,1431.00,80.60,33.80,18.42,M,4.00,0.00,30.00,M,10.00,12.00,CLR,M,M,M,M,M,M,M,M,M,M,M,M,M,M,78.88,KCXP 290455Z AUTO VRB04G12KT 10SM CLR 27/01 A3000 RMK AO2,M
RTS,2022-08-29 04:55,-119.8764,39.6682,1539.00,68.00,28.40,22.59,340.00,5.00,0.00,30.04,M,10.00,M,CLR,M,M,M,M,M,M,M,M,M,M,M,M,M,M,68.00,KRTS 290455Z AUTO 34005KT 10SM CLR 20/M02 A3004 RMK AO2,M
MEV,2022-08-29 04:55,-119.7500,38.9963,1441.42,60.80,41.00,48.00,0.00,0.00,0.00,29.99,M,10.00,M,CLR,M,M,M,M,M,M,M,M,M,M,M,M,M,M,60.80,KMEV 290455Z AUTO 00000KT 10SM CLR 16/05 A2999 RMK AO2,M
BAM,2022-08-29 04:55,-116.8743,40.5990,1382.36,69.80,23.00,16.98,0.00,0.00,0.00,29.99,M,10.00,M,CLR,M,M,M,M,M,M,M,M,M,M,M,M,M,M,69.80,KBAM 290455Z AUTO 00000KT 10SM CLR 21/M05 A2999 RMK AO1,M
HTH,2022-08-29 04:55,-118.6315,38.5448,1282.89,82.40,32.00,16.17,330.00,5.00,0.00,29.93,M,10.00,M,CLR,M,M,M,M,M,M,M,M,M,M,M,M,M,M,80.00,KHTH 290455Z AUTO 33005KT 10SM CLR 28/M00 A2993 RMK A01,M
TMT,2022-08-29 04:55,-117.1971,39.4643,1749.34,M,M,M,230.00,5.00,0.00,30.08,M,10.00,M,CLR,M,M,M,M,M,M,M,M,M,M,M,M,M,M,M,KTMT 290455Z AUTO 23005KT 10SM CLR A3008 RMK AO2,M
RNO,2022-08-29 04:55,-119.7711,39.4839,1341.00,80.00,38.00,22.03,40.00,5.00,0.00,29.98,1009.20,10.00,M,FEW,FEW,M,M,10000.00,20000.00,M,M,M,M,M,M,M,M,M,78.85,KRNO 290455Z 04005KT 10SM FEW100 FEW200 27/03 A2998 RMK AO2 SLP092 T02670033,M
LSV,2022-08-29 04:56,-115.0343,36.2362,570.00,95.40,55.00,25.87,170.00,15.00,0.00,29.75,1004.40,10.00,M,CLR,M,M,M,M,M,M,M,M,M,M,M,M,M,M,93.52,KLSV 290456Z AUTO 17015KT 10SM CLR 35/13 A2975 RMK AO2 SLP044 T03520128 $,M
INS,2022-08-29 04:56,-115.6733,36.5872,955.00,87.30,46.00,23.87,250.00,4.00,0.00,29.86,1005.80,10.00,M,CLR,M,M,M,M,M,M,M,M,M,M,M,M,M,M,84.23,KINS 290456Z AUTO 25004KT 10SM CLR 31/08 A2986 RMK AO2 SLP058 T03070078 $,M
EKO,2022-08-29 04:56,-115.7860,40.8242,1367.00,64.00,24.10,21.73,50.00,3.00,0.00,30.01,1011.70,10.00,M,CLR,M,M,M,M,M,M,M,M,M,M,M,M,M,M,64.00,KEKO 290456Z AUTO 05003KT 10SM CLR 18/M04 A3001 RMK AO2 SLP117 T01781044,M
WMC,2022-08-29 04:56,-117.8072,40.9019,1315.00,63.00,M,M,10.00,3.00,0.00,29.96,1010.00,10.00,M,CLR,M,M,M,M,M,M,M,M,M,M,M,M,M,M,M,KWMC 290456Z AUTO 01003KT 10SM CLR 17/ A2996 RMK AO2 SLP100 T0172 $,M
LAS,2022-08-29 04:56,-115.1634,36.0719,663.00,94.00,55.00,27.10,190.00,7.00,0.00,29.79,1005.60,10.00,15.00,CLR,M,M,M,M,M,M,M,M,M,M,M,M,M,M,91.95,KLAS 290456Z 19007G15KT 10SM CLR 34/13 A2979 RMK AO2 SLP056 T03440128,M
TPH,2022-08-29 04:56,-117.0904,38.0505,1654.00,73.00,33.00,23.06,190.00,5.00,0.00,30.04,1008.80,10.00,M,CLR,M,M,M,M,M,M,M,M,M,M,M,M,M,M,73.00,KTPH 290456Z AUTO 19005KT 10SM CLR 23/01 A3004 RMK AO2 SLP088 T02280006,M
RTS,2022-08-29 05:15,-119.8764,39.6682,1539.00,68.00,30.20,24.32,310.00,6.00,0.00,30.04,M,10.00,M,CLR,M,M,M,M,M,M,M,M,M,M,M,M,M,M,68.00,KRTS 290515Z AUTO 31006KT 10SM CLR 20/M01 A3004 RMK AO2,M
CXP,2022-08-29 05:15,-119.7326,39.1923,1431.00,77.00,37.40,23.93,210.00,3.00,0.00,30.00,M,10.00,M,CLR,M,M,M,M,M,M,M,M,M,M,M,M,M,M,77.00,KCXP 290515Z AUTO 21003KT 10SM CLR 25/03 A3000 RMK AO2,M
BVU,2022-08-29 05:15,-114.8611,35.9475,671.00,89.60,53.60,29.45,0.00,0.00,0.00,29.82,M,M,M,M,M,M,M,M,M,M,M,M,M,M,M,M,M,M,87.36,KBVU 290515Z AUTO 00000KT 32/12 A2982 RMK AO2 PWINO TSNO,M
HTH,2022-08-29 05:15,-118.6315,38.5448,1282.89,80.60,32.00,17.14,320.00,11.00,0.00,29.93,M,10.00,M,CLR,M,M,M,M,M,M,M,M,M,M,M,M,M,M,78.82,KHTH 290515Z AUTO 32011KT 10SM CLR 27/M00 A2993 RMK A01,M
BAM,2022-08-29 05:15,-116.8743,40.5990,1382.36,68.00,21.20,16.74,100.00,3.00,0.00,30.00,M,10.00,M,CLR,M,M,M,M,M,M,M,M,M,M,M,M,M,M,68.00,KBAM 290515Z AUTO 10003KT 10SM CLR 20/M06 A3000 RMK AO1,M
TMT,2022-08-29 05:15,-117.1971,39.4643,1749.34,57.70,28.60,32.73,230.00,6.00,0.00,30.08,M,10.00,M,CLR,M,M,M,M,M,M,M,M,M,M,M,M,M,M,57.70,KTMT 290515Z AUTO 23006KT 10SM CLR 14/M02 A3008 RMK AO2 T01431019,M
MEV,2022-08-29 05:15,-119.7500,38.9963,1441.42,64.40,39.20,39.43,0.00,0.00,0.00,30.00,M,10.00,M,CLR,M,M,M,M,M,M,M,M,M,M,M,M,M,M,64.40,KMEV 290515Z AUTO 00000KT 10SM CLR 18/04 A3000 RMK AO2,M
BAM,2022-08-29 05:35,-116.8743,40.5990,1382.36,60.80,19.40,19.94,120.00,4.00,0.00,30.00,M,10.00,M,CLR,M,M,M,M,M,M,M,M,M,M,M,M,M,M,60.80,KBAM 290535Z AUTO 12004KT 10SM CLR 16/M07 A3000 RMK AO1,M
HTH,2022-08-29 05:35,-118.6315,38.5448,1282.89,80.60,30.20,15.94,0.00,0.00,0.00,29.94,M,10.00,M,CLR,M,M,M,M,M,M,M,M,M,M,M,M,M,M,78.77,KHTH 290535Z AUTO 00000KT 10SM CLR 27/M01 A2994 RMK A01,M
BVU,2022-08-29 05:35,-114.8611,35.9475,671.00,86.00,57.20,37.62,0.00,0.00,0.00,29.82,M,M,M,M,M,M,M,M,M,M,M,M,M,M,M,M,M,M,84.97,KBVU 290535Z AUTO 00000KT 30/14 A2982 RMK AO2 PWINO TSNO,M
CXP,2022-08-29 05:35,-119.7326,39.1923,1431.00,75.20,35.60,23.66,M,4.00,0.00,30.01,M,10.00,10.00,CLR,M,M,M,M,M,M,M,M,M,M,M,M,M,M,75.20,KCXP 290535Z AUTO VRB04G10KT 10SM CLR 24/02 A3001 RMK AO2,M
RTS,2022-08-29 05:35,-119.8764,39.6682,1539.00,66.20,30.20,25.88,320.00,4.00,0.00,30.05,M,10.00,M,CLR,M,M,M,M,M,M,M,M,M,M,M,M,M,M,66.20,KRTS 290535Z AUTO 32004KT 10SM CLR 19/M01 A3005 RMK AO2,M
MEV,2022-08-29 05:35,-119.7500,38.9963,1441.42,60.80,39.20,44.76,0.00,0.00,0.00,30.00,M,10.00,M,CLR,M,M,M,M,M,M,M,M,M,M,M,M,M,M,60.80,KMEV 290535Z AUTO 00000KT 10SM CLR 16/04 A3000 RMK AO2,M
TMT,2022-08-29 05:35,-117.1971,39.4643,1749.34,M,M,M,220.00,7.00,0.00,30.09,M,10.00,M,CLR,M,M,M,M,M,M,M,M,M,M,M,M,M,M,M,KTMT 290535Z AUTO 22007KT 10SM CLR A3009 RMK AO2,M
LOL,2022-08-29 05:53,-118.5701,40.0684,1192.43,63.00,28.00,26.45,240.00,3.00,0.00,29.92,1009.50,10.00,M,CLR,M,M,M,M,M,M,M,M,M,M,M,M,M,M,63.00,KLOL 290553Z AUTO 24003KT 10SM CLR 17/M02 A2992 RMK AO2 SLP095 T01721022 10339 20172 51014,M
VGT,2022-08-29 05:53,-115.1933,36.2111,667.00,94.00,54.00,26.13,170.00,6.00,0.00,29.79,1007.10,10.00,M,CLR,M,M,M,M,M,M,M,M,M,M,M,M,M,M,91.68,KVGT 290553Z AUTO 17006KT 10SM CLR 34/12 A2979 RMK AO2 SLP071 T03440122 10389 20344 51017,M
DRA,2022-08-29 05:53,-116.0278,36.6206,1009.00,83.00,44.00,25.57,90.00,3.00,0.00,29.88,1006.10,10.00,M,FEW,M,M,M,12000.00,M,M,M,M,M,M,M,M,M,M,80.80,KDRA 290553Z AUTO 09003KT 10SM FEW120 28/07 A2988 RMK AO2 SLP061 T02830067 10367 20278 51016,M
P68,2022-08-29 05:53,-116.0056,39.6014,1993.00,59.00,32.00,35.87,70.00,6.00,0.00,30.08,1010.00,M,M,M,M,M,M,M,M,M,M,M,M,M,M,M,M,M,59.00,KP68 290553Z AUTO 07006KT 15/00 A3008 RMK AO1 SLP100 T01500000 10311 20144 51017,M
ELY,2022-08-29 05:53,-114.8453,39.2950,1909.00,60.00,34.00,37.37,30.00,6.00,0.00,30.12,1009.40,10.00,M,CLR,M,M,M,M,M,M,M,M,M,M,M,M,M,M,60.10,KELY 290553Z AUTO 03006KT 10SM CLR 16/01 A3012 RMK AO2 SLP094 T01560011 10289 20150 51016,M
RTS,2022-08-29 05:55,-119.8764,39.6682,1539.00,66.20,30.20,25.88,340.00,5.00,0.00,30.05,M,10.00,M,CLR,M,M,M,M,M,M,M,M,M,M,M,M,M,M,66.20,KRTS 290555Z AUTO 34005KT 10SM CLR 19/M01 A3005 RMK AO2,M
TMT,2022-08-29 05:55,-117.1971,39.4643,1749.34,54.00,26.80,34.63,160.00,4.00,0.00,30.09,M,10.00,M,CLR,M,M,M,M,M,M,M,M,M,M,M,M,M,M,54.10,KTMT 290555Z AUTO 16004KT 10SM CLR 12/M03 A3009 RMK AO2 T01231029,M
MEV,2022-08-29 05:55,-119.7500,38.9963,1441.42,57.20,41.00,54.60,150.00,5.00,0.00,30.01,M,10.00,M,CLR,M,M,M,M,M,M,M,M,M,M,M,M,M,M,57.20,KMEV 290555Z AUTO 15005KT 10SM CLR 14/05 A3001 RMK AO2,M
HTH,2022-08-29 05:55,-118.6315,38.5448,1282.89,80.60,30.20,15.94,350.00,4.00,0.00,29.94,M,10.00,M,CLR,M,M,M,M,M,M,M,M,M,M,M,M,M,M,78.77,KHTH 290555Z AUTO 35004KT 10SM CLR 27/M01 A2994 RMK A01,M
CXP,2022-08-29 05:55,-119.7326,39.1923,1431.00,75.20,37.40,25.40,210.00,4.00,0.00,30.01,M,10.00,M,CLR,M,M,M,M,M,M,M,M,M,M,M,M,M,M,75.20,KCXP 290555Z AUTO 21004KT 10SM CLR 24/03 A3001 RMK AO2,M
BVU,2022-08-29 05:55,-114.8611,35.9475,671.00,86.00,57.20,37.62,0.00,0.00,0.00,29.82,M,M,M,M,M,M,M,M,M,M,M,M,M,M,M,M,M,M,84.97,KBVU 290555Z AUTO 00000KT 30/14 A2982 RMK AO2 PWINO TSNO,M
RNO,2022-08-29 05:55,-119.7711,39.4839,1341.00,78.00,38.00,23.53,40.00,4.00,0.00,29.99,1009.30,10.00,M,FEW,FEW,M,M,10000.00,20000.00,M,M,M,M,M,M,M,M,M,78.10,KRNO 290555Z 04004KT 10SM FEW100 FEW200 26/03 A2999 RMK AO2 SLP093 T02560033 10339 20250 51020,M
BAM,2022-08-29 05:55,-116.8743,40.5990,1382.36,59.00,19.40,21.26,140.00,5.00,0.00,30.00,M,10.00,M,CLR,M,M,M,M,M,M,M,M,M,M,M,M,M,M,59.00,KBAM 290555Z AUTO 14005KT 10SM CLR 15/M07 A3000 RMK AO1,M
LSV,2022-08-29 05:56,-115.0343,36.2362,570.00,94.00,55.00,27.00,170.00,12.00,0.00,29.77,1005.10,10.00,M,CLR,M,M,M,M,M,M,M,M,M,M,M,M,M,M,91.93,KLSV 290556Z AUTO 17012KT 10SM CLR 34/13 A2977 RMK AO2 SLP051 T03440127 10400 20344 52017 $,M
WMC,2022-08-29 05:56,-117.8072,40.9019,1315.00,55.00,M,M,170.00,4.00,0.00,29.97,1010.60,10.00,M,CLR,M,M,M,M,M,M,M,M,M,M,M,M,M,M,M,KWMC 290556Z AUTO 17004KT 10SM CLR 13/ A2997 RMK AO2 SLP106 T0128 10328 20122 51010 $,M
TPH,2022-08-29 05:56,-117.0904,38.0505,1654.00,69.00,34.00,27.29,80.00,5.00,0.00,30.05,1009.40,10.00,M,CLR,M,M,M,M,M,M,M,M,M,M,M,M,M,M,69.10,KTPH 290556Z AUTO 08005KT 10SM CLR 21/01 A3005 RMK AO2 SLP094 T02060011 10317 20206 51016,M
INS,2022-08-29 05:56,-115.6733,36.5872,955.00,85.30,44.40,23.94,0.00,0.00,0.00,29.87,1005.80,10.00,M,CLR,M,M,M,M,M,M,M,M,M,M,M,M,M,M,82.52,KINS 290556Z AUTO 00000KT 10SM CLR 30/07 A2987 RMK AO2 SLP058 T02960069 10356 20296 52017 $,M
LAS,2022-08-29 05:56,-115.1634,36.0719,663.00,92.00,53.00,26.90,200.00,6.00,0.00,29.80,1005.80,10.00,M,CLR,M,M,M,M,M,M,M,M,M,M,M,M,M,M,89.45,KLAS 290556Z 20006KT 10SM CLR 33/12 A2980 RMK AO2 SLP058 T03330117 10389 20333 51017,M
EKO,2022-08-29 05:56,-115.7860,40.8242,1367.00,54.00,30.90,41.11,210.00,3.00,0.00,30.02,1012.30,10.00,M,CLR,M,M,M,M,M,M,M,M,M,M,M,M,M,M,54.00,KEKO 290556Z AUTO 21003KT 10SM CLR 12/M01 A3002 RMK AO2 SLP123 T01221006 10317 20122 51014,M
RTS,2022-08-29 06:15,-119.8764,39.6682,1539.00,64.40,28.40,25.60,340.00,6.00,0.00,30.05,M,10.00,M,CLR,M,M,M,M,M,M,M,M,M,M,M,M,M,M,64.40,KRTS 290615Z AUTO 34006KT 10SM CLR 18/M02 A3005 RMK AO2,M
BVU,2022-08-29 06:15,-114.8611,35.9475,671.00,86.00,55.40,35.25,0.00,0.00,0.00,29.83,M,M,M,M,M,M,M,M,M,M,M,M,M,M,M,M,M,M,84.54,KBVU 290615Z AUTO 00000KT 30/13 A2983 RMK AO2 PWINO TSNO,M
CXP,2022-08-29 06:15,-119.7326,39.1923,1431.00,73.40,37.40,26.98,M,4.00,0.00,30.02,M,10.00,M,CLR,M,M,M,M,M,M,M,M,M,M,M,M,M,M,73.40,KCXP 290615Z AUTO VRB04KT 10SM CLR 23/03 A3002 RMK AO2,M
MEV,2022-08-29 06:15,-119.7500,38.9963,1441.42,57.20,41.00,54.60,130.00,9.00,0.00,30.01,M,10.00,M,CLR,M,M,M,M,M,M,M,M,M,M,M,M,M,M,57.20,KMEV 290615Z AUTO 13009KT 10SM CLR 14/05 A3001 RMK AO2,M
BAM,2022-08-29 06:15,-116.8743,40.5990,1382.36,59.00,19.40,21.26,150.00,5.00,0.00,30.00,M,10.00,M,CLR,M,M,M,M,M,M,M,M,M,M,M,M,M,M,59.00,KBAM 290615Z AUTO 15005KT 10SM CLR 15/M07 A3000 RMK AO1,M
HTH,2022-08-29 06:15,-118.6315,38.5448,1282.89,77.00,30.20,17.94,0.00,0.00,0.00,29.95,M,10.00,M,M,M,M,M,M,M,M,M,M,M,M,M,M,M,M,77.00,KHTH 290615Z AUTO 00000KT 10SM 25/M01 A2995 RMK A01,M
TMT,2022-08-29 06:15,-117.1971,39.4643,1749.34,55.40,26.60,32.76,220.00,5.00,0.00,30.09,M,10.00,M,CLR,M,M,M,M,M,M,M,M,M,M,M,M,M,M,55.40,KTMT 290615Z AUTO 22005KT 10SM CLR 13/M03 A3009 RMK AO2 T01301030,M
HTH,2022-08-29 06:35,-118.6315,38.5448,1282.89,75.20,28.40,17.70,140.00,6.00,0.00,29.95,M,10.00,M,M,M,M,M,M,M,M,M,M,M,M,M,M,M,M,75.20,KHTH 290635Z AUTO 14006KT 10SM 24/M02 A2995 RMK A01,M
BVU,2022-08-29 06:35,-114.8611,35.9475,671.00,86.00,55.40,35.25,0.00,0.00,0.00,29.83,M,M,M,M,M,M,M,M,M,M,M,M,M,M,M,M,M,M,84.54,KBVU 290635Z AUTO 00000KT 30/13 A2983 RMK AO2 PWINO TSNO,M
TMT,2022-08-29 06:35,-117.1971,39.4643,1749.34,M,M,M,160.00,3.00,0.00,30.10,M,10.00,M,CLR,M,M,M,M,M,M,M,M,M,M,M,M,M,M,M,KTMT 290635Z AUTO 16003KT 10SM CLR A3010 RMK AO2,M
CXP,2022-08-29 06:35,-119.7326,39.1923,1431.00,73.40,35.60,25.13,260.00,5.00,0.00,30.02,M,10.00,M,CLR,M,M,M,M,M,M,M,M,M,M,M,M,M,M,73.40,KCXP 290635Z AUTO 26005KT 10SM CLR 23/02 A3002 RMK AO2,M
RTS,2022-08-29 06:35,-119.8764,39.6682,1539.00,64.40,32.00,29.63,310.00,8.00,0.00,30.05,M,10.00,M,CLR,M,M,M,M,M,M,M,M,M,M,M,M,M,M,64.40,KRTS 290635Z AUTO 31008KT 10SM CLR 18/M00 A3005 RMK AO2,M
MEV,2022-08-29 06:35,-119.7500,38.9963,1441.42,60.80,37.40,41.71,120.00,8.00,0.00,30.01,M,10.00,M,CLR,M,M,M,M,M,M,M,M,M,M,M,M,M,M,60.80,KMEV 290635Z AUTO 12008KT 10SM CLR 16/03 A3001 RMK AO2,M
BAM,2022-08-29 06:35,-116.8743,40.5990,1382.36,59.00,19.40,21.26,130.00,6.00,0.00,30.00,M,10.00,M,CLR,M,M,M,M,M,M,M,M,M,M,M,M,M,M,59.00,KBAM 290635Z AUTO 13006KT 10SM CLR 15/M07 A3000 RMK AO1,M
CXP,2022-08-29 06:50,-119.7326,39.1923,1431.00,73.40,37.40,26.98,M,4.00,0.00,30.02,M,10.00,M,CLR,M,M,M,M,M,M,M,M,M,M,M,M,M,M,73.40,KCXP 290650Z AUTO VRB04KT 10SM CLR 23/03 A3002 RMK AO2,M
LOL,2022-08-29 06:53,-118.5701,40.0684,1192.43,63.00,28.00,26.45,270.00,4.00,0.00,29.93,1009.30,10.00,M,CLR,M,M,M,M,M,M,M,M,M,M,M,M,M,M,63.00,KLOL 290653Z AUTO 27004KT 10SM CLR 17/M02 A2993 RMK AO2 SLP093 T01721022,M
VGT,2022-08-29 06:53,-115.1933,36.2111,667.00,93.00,56.00,28.79,170.00,6.00,0.00,29.81,1007.60,10.00,M,CLR,M,M,M,M,M,M,M,M,M,M,M,M,M,M,91.29,KVGT 290653Z AUTO 17006KT 10SM CLR 34/13 A2981 RMK AO2 SLP076 T03390133,M
P68,2022-08-29 06:53,-116.0056,39.6014,1993.00,57.00,28.90,33.98,180.00,3.00,0.00,30.09,1010.30,M,M,M,M,M,M,M,M,M,M,M,M,M,M,M,M,M,57.00,KP68 290653Z AUTO 18003KT 14/M02 A3009 RMK AO1 SLP103 T01391017,M
DRA,2022-08-29 06:53,-116.0278,36.6206,1009.00,80.00,45.00,28.99,60.00,4.00,0.00,29.90,1006.70,10.00,M,FEW,M,M,M,12000.00,M,M,M,M,M,M,M,M,M,M,79.18,KDRA 290653Z AUTO 06004KT 10SM FEW120 27/07 A2990 RMK AO2 SLP067 T02670072,M
ELY,2022-08-29 06:53,-114.8453,39.2950,1909.00,58.00,36.00,43.78,0.00,0.00,0.00,30.14,1009.90,10.00,M,CLR,M,M,M,M,M,M,M,M,M,M,M,M,M,M,57.90,KELY 290653Z AUTO 00000KT 10SM CLR 14/02 A3014 RMK AO2 SLP099 T01440022 403060078,M
HTH,2022-08-29 06:55,-118.6315,38.5448,1282.89,75.20,28.40,17.70,0.00,0.00,0.00,29.96,M,10.00,M,CLR,M,M,M,M,M,M,M,M,M,M,M,M,M,M,75.20,KHTH 290655Z AUTO 00000KT 10SM CLR 24/M02 A2996 RMK A01,M
BVU,2022-08-29 06:55,-114.8611,35.9475,671.00,84.20,57.20,39.86,310.00,3.00,0.00,29.83,M,M,M,M,M,M,M,M,M,M,M,M,M,M,M,M,M,M,83.47,KBVU 290655Z AUTO 31003KT 29/14 A2983 RMK AO2 PWINO TSNO,M
RNO,2022-08-29 06:55,-119.7711,39.4839,1341.00,75.00,39.00,27.23,260.00,4.00,0.00,30.00,1009.40,10.00,M,CLR,M,M,M,M,M,M,M,M,M,M,M,M,M,M,75.00,KRNO 290655Z 26004KT 10SM CLR 24/04 A3000 RMK AO2 SLP094 T02390039,M
RTS,2022-08-29 06:55,-119.8764,39.6682,1539.00,62.60,28.40,27.27,330.00,7.00,0.00,30.05,M,10.00,M,CLR,M,M,M,M,M,M,M,M,M,M,M,M,M,M,62.60,KRTS 290655Z AUTO 33007KT 10SM CLR 17/M02 A3005 RMK AO2,M
MEV,2022-08-29 06:55,-119.7500,38.9963,1441.42,57.20,37.40,47.44,160.00,6.00,0.00,30.02,M,10.00,M,CLR,M,M,M,M,M,M,M,M,M,M,M,M,M,M,57.20,KMEV 290655Z AUTO 16006KT 10SM CLR 14/03 A3002 RMK AO2,M
BAM,2022-08-29 06:55,-116.8743,40.5990,1382.36,55.40,19.40,24.21,110.00,5.00,0.00,30.01,M,10.00,M,CLR,M,M,M,M,M,M,M,M,M,M,M,M,M,M,55.40,KBAM 290655Z AUTO 11005KT 10SM CLR 13/M07 A3001 RMK AO1,M
TMT,2022-08-29 06:55,-117.1971,39.4643,1749.34,M,M,M,240.00,8.00,0.00,30.11,M,10.00,M,CLR,M,M,M,M,M,M,M,M,M,M,M,M,M,M,M,KTMT 290655Z AUTO 24008KT 10SM CLR A3011 RMK AO2,M
LSV,2022-08-29 06:56,-115.0343,36.2362,570.00,92.70,54.70,27.82,170.00,7.00,0.00,29.79,1005.70,10.00,M,CLR,M,M,M,M,M,M,M,M,M,M,M,M,M,M,90.64,KLSV 290656Z AUTO 17007KT 10SM CLR 34/13 A2979 RMK AO2 SLP057 T03370126 $,M
LAS,2022-08-29 06:56,-115.1634,36.0719,663.00,91.00,57.00,31.89,190.00,5.00,0.00,29.82,1006.40,10.00,M,CLR,M,M,M,M,M,M,M,M,M,M,M,M,M,M,89.59,KLAS 290656Z 19005KT 10SM CLR 33/14 A2982 RMK AO2 SLP064 T03280139,M
TPH,2022-08-29 06:56,-117.0904,38.0505,1654.00,68.00,35.00,29.61,60.00,3.00,0.00,30.07,1009.70,10.00,M,CLR,M,M,M,M,M,M,M,M,M,M,M,M,M,M,68.00,KTPH 290656Z AUTO 06003KT 10SM CLR 20/02 A3007 RMK AO2 SLP097 T02000017,M
WMC,2022-08-29 06:56,-117.8072,40.9019,1315.00,56.00,M,M,110.00,5.00,0.00,29.98,1010.70,10.00,M,CLR,M,M,M,M,M,M,M,M,M,M,M,M,M,M,M,KWMC 290656Z AUTO 11005KT 10SM CLR 13/ A2998 RMK AO2 SLP107 T0133 $,M
EKO,2022-08-29 06:56,-115.7860,40.8242,1367.00,56.00,25.00,30.10,0.00,0.00,0.00,30.04,1012.50,10.00,M,CLR,M,M,M,M,M,M,M,M,M,M,M,M,M,M,55.90,KEKO 290656Z AUTO 00000KT 10SM CLR 13/M04 A3004 RMK AO2 SLP125 T01331039 $,M
INS,2022-08-29 06:56,-115.6733,36.5872,955.00,83.30,44.80,25.92,110.00,4.00,0.00,29.89,1006.50,10.00,M,FEW,M,M,M,12000.00,M,M,M,M,M,M,M,M,M,M,81.11,KINS 290656Z AUTO 11004KT 10SM FEW120 29/07 A2989 RMK AO2 SLP065 T02850071 $,M
TMT,2022-08-29 07:15,-117.1971,39.4643,1749.34,M,M,M,230.00,6.00,0.00,30.11,M,10.00,M,CLR,M,M,M,M,M,M,M,M,M,M,M,M,M,M,M,KTMT 290715Z AUTO 23006KT 10SM CLR A3011 RMK AO2,M
HTH,2022-08-29 07:15,-118.6315,38.5448,1282.89,75.20,28.40,17.70,220.00,5.00,0.00,29.96,M,10.00,M,CLR,M,M,M,M,M,M,M,M,M,M,M,M,M,M,75.20,KHTH 290715Z AUTO 22005KT 10SM CLR 24/M02 A2996 RMK A01,M
CXP,2022-08-29 07:15,-119.7326,39.1923,1431.00,69.80,37.40,30.49,0.00,0.00,0.00,30.03,M,10.00,M,CLR,M,M,M,M,M,M,M,M,M,M,M,M,M,M,69.80,KCXP 290715Z AUTO 00000KT 10SM CLR 21/03 A3003 RMK AO2,M
RTS,2022-08-29 07:15,-119.8764,39.6682,1539.00,64.40,30.20,27.55,340.00,6.00,0.00,30.06,M,10.00,M,CLR,M,M,M,M,M,M,M,M,M,M,M,M,M,M,64.40,KRTS 290715Z AUTO 34006KT 10SM CLR 18/M01 A3006 RMK AO2,M
BAM,2022-08-29 07:15,-116.8743,40.5990,1382.36,55.40,21.20,26.13,0.00,0.00,0.00,30.01,M,10.00,M,CLR,M,M,M,M,M,M,M,M,M,M,M,M,M,M,55.40,KBAM 290715Z AUTO 00000KT 10SM CLR 13/M06 A3001 RMK AO1,M
BVU,2022-08-29 07:15,-114.8611,35.9475,671.00,84.20,57.20,39.86,310.00,5.00,0.00,29.84,M,M,M,M,M,M,M,M,M,M,M,M,M,M,M,M,M,M,83.47,KBVU 290715Z AUTO 31005KT 29/14 A2984 RMK AO2 PWINO TSNO,M
MEV,2022-08-29 07:15,-119.7500,38.9963,1441.42,57.20,41.00,54.60,140.00,8.00,0.00,30.03,M,10.00,M,CLR,M,M,M,M,M,M,M,M,M,M,M,M,M,M,57.20,KMEV 290715Z AUTO 14008KT 10SM CLR 14/05 A3003 RMK AO2,M
BVU,2022-08-29 07:35,-114.8611,35.9475,671.00,84.20,57.20,39.86,290.00,4.00,0.00,29.84,M,M,M,M,M,M,M,M,M,M,M,M,M,M,M,M,M,M,83.47,KBVU 290735Z AUTO 29004KT 29/14 A2984 RMK AO2 PWINO TSNO,M
HTH,2022-08-29 07:35,-118.6315,38.5448,1282.89,75.20,28.40,17.70,250.00,3.00,0.00,29.97,M,10.00,M,CLR,M,M,M,M,M,M,M,M,M,M,M,M,M,M,75.20,KHTH 290735Z AUTO 25003KT 10SM CLR 24/M02 A2997 RMK A01,M
BAM,2022-08-29 07:35,-116.8743,40.5990,1382.36,55.40,21.20,26.13,0.00,0.00,0.00,30.01,M,10.00,M,CLR,M,M,M,M,M,M,M,M,M,M,M,M,M,M,55.40,KBAM 290735Z AUTO 00000KT 10SM CLR 13/M06 A3001 RMK AO1,M
MEV,2022-08-29 07:35,-119.7500,38.9963,1441.42,57.20,37.40,47.44,120.00,7.00,0.00,30.03,M,10.00,M,CLR,M,M,M,M,M,M,M,M,M,M,M,M,M,M,57.20,KMEV 290735Z AUTO 12007KT 10SM CLR 14/03 A3003 RMK AO2,M
RTS,2022-08-29 07:35,-119.8764,39.6682,1539.00,62.60,28.40,27.27,350.00,7.00,0.00,30.06,M,10.00,M,CLR,M,M,M,M,M,M,M,M,M,M,M,M,M,M,62.60,KRTS 290735Z AUTO 35007KT 10SM CLR 17/M02 A3006 RMK AO2,M
CXP,2022-08-29 07:35,-119.7326,39.1923,1431.00,66.20,37.40,34.51,0.00,0.00,0.00,30.04,M,10.00,M,CLR,M,M,M,M,M,M,M,M,M,M,M,M,M,M,66.20,KCXP 290735Z AUTO 00000KT 10SM CLR 19/03 A3004 RMK AO2,M
TMT,2022-08-29 07:35,-117.1971,39.4643,1749.34,48.40,25.50,40.52,0.00,0.00,0.00,30.11,M,10.00,M,CLR,M,M,M,M,M,M,M,M,M,M,M,M,M,M,48.40,KTMT 290735Z AUTO 00000KT 10SM CLR 09/M04 A3011 RMK AO2 T00911036,M
DRA,2022-08-29 07:53,-116.0278,36.6206,1009.00,79.00,46.00,31.21,0.00,0.00,0.00,29.91,1007.10,10.00,M,CLR,M,M,M,M,M,M,M,M,M,M,M,M,M,M,79.00,KDRA 290753Z AUTO 00000KT 10SM CLR 26/08 A2991 RMK AO2 SLP071 T02610078 403780244,M
P68,2022-08-29 07:53,-116.0056,39.6014,1993.00,52.00,28.00,39.30,210.00,5.00,0.00,30.11,1011.60,M,M,M,M,M,M,M,M,M,M,M,M,M,M,M,M,M,52.00,KP68 290753Z AUTO 21005KT 11/M02 A3011 RMK AO1 SLP116 T01111022 403170067,M
LOL,2022-08-29 07:53,-118.5701,40.0684,1192.43,59.00,28.90,31.63,130.00,5.00,0.00,29.95,1010.20,10.00,M,CLR,M,M,M,M,M,M,M,M,M,M,M,M,M,M,59.00,KLOL 290753Z AUTO 13005KT 10SM CLR 15/M02 A2995 RMK AO2 SLP102 T01501017 403390100,M
VGT,2022-08-29 07:53,-115.1933,36.2111,667.00,91.00,56.00,30.65,130.00,4.00,0.00,29.82,1008.10,10.00,M,CLR,M,M,M,M,M,M,M,M,M,M,M,M,M,M,89.27,KVGT 290753Z AUTO 13004KT 10SM CLR 33/13 A2982 RMK AO2 SLP081 T03280133 404000267,M
ELY,2022-08-29 07:53,-114.8453,39.2950,1909.00,53.00,36.00,52.11,170.00,7.00,0.00,30.16,1011.10,10.00,M,CLR,M,M,M,M,M,M,M,M,M,M,M,M,M,M,53.10,KELY 290753Z AUTO 17007KT 10SM CLR 12/02 A3016 RMK AO2 SLP111 T01170022,M
CXP,2022-08-29 07:55,-119.7326,39.1923,1431.00,64.40,37.40,36.74,100.00,5.00,0.00,30.04,M,10.00,M,CLR,M,M,M,M,M,M,M,M,M,M,M,M,M,M,64.40,KCXP 290755Z AUTO 10005KT 10SM CLR 18/03 A3004 RMK AO2,M
BVU,2022-08-29 07:55,-114.8611,35.9475,671.00,84.20,57.20,39.86,310.00,4.00,0.00,29.85,M,M,M,M,M,M,M,M,M,M,M,M,M,M,M,M,M,M,83.47,KBVU 290755Z AUTO 31004KT 29/14 A2985 RMK AO2 PWINO TSNO,M
HTH,2022-08-29 07:55,-118.6315,38.5448,1282.89,73.40,28.40,18.80,230.00,6.00,0.00,29.97,M,10.00,M,CLR,M,M,M,M,M,M,M,M,M,M,M,M,M,M,73.40,KHTH 290755Z AUTO 23006KT 10SM CLR 23/M02 A2997 RMK A01,M
TMT,2022-08-29 07:55,-117.1971,39.4643,1749.34,47.30,24.80,41.02,250.00,3.00,0.00,30.12,M,10.00,M,CLR,M,M,M,M,M,M,M,M,M,M,M,M,M,M,46.18,KTMT 290755Z AUTO 25003KT 10SM CLR 09/M04 A3012 RMK AO2 T00851040,M
RTS,2022-08-29 07:55,-119.8764,39.6682,1539.00,62.60,30.20,29.35,360.00,5.00,0.00,30.07,M,10.00,M,CLR,M,M,M,M,M,M,M,M,M,M,M,M,M,M,62.60,KRTS 290755Z AUTO 36005KT 10SM CLR 17/M01 A3007 RMK AO2,M
MEV,2022-08-29 07:55,-119.7500,38.9963,1441.42,55.40,37.40,50.64,110.00,7.00,0.00,30.04,M,10.00,M,CLR,M,M,M,M,M,M,M,M,M,M,M,M,M,M,55.40,KMEV 290755Z AUTO 11007KT 10SM CLR 13/03 A3004 RMK AO2,M
BAM,2022-08-29 07:55,-116.8743,40.5990,1382.36,59.00,21.20,22.95,130.00,3.00,0.00,30.02,M,10.00,M,CLR,M,M,M,M,M,M,M,M,M,M,M,M,M,M,59.00,KBAM 290755Z AUTO 13003KT 10SM CLR 15/M06 A3002 RMK AO1,M
RNO,2022-08-29 07:55,-119.7711,39.4839,1341.00,72.00,39.00,30.12,280.00,4.00,0.00,30.01,1009.90,10.00,M,CLR,M,M,M,M,M,M,M,M,M,M,M,M,M,M,72.00,KRNO 290755Z 28004KT 10SM CLR 22/04 A3001 RMK AO2 SLP099 T02220039 403500139,M
INS,2022-08-29 07:56,-115.6733,36.5872,955.00,80.60,44.40,27.87,0.00,0.00,0.00,29.90,1007.00,10.00,M,CLR,M,M,M,M,M,M,M,M,M,M,M,M,M,M,79.41,KINS 290756Z AUTO 00000KT 10SM CLR 27/07 A2990 RMK AO2 SLP070 T02700069 403670205 $,M
EKO,2022-08-29 07:56,-115.7860,40.8242,1367.00,49.00,28.90,45.75,0.00,0.00,0.00,30.07,1013.60,10.00,M,CLR,M,M,M,M,M,M,M,M,M,M,M,M,M,M,48.90,KEKO 290756Z AUTO 00000KT 10SM CLR 09/M02 A3007 RMK AO2 SLP136 T00941017 403170039 $,M
WMC,2022-08-29 07:56,-117.8072,40.9019,1315.00,54.00,M,M,0.00,0.00,0.00,30.00,1011.30,10.00,M,CLR,M,M,M,M,M,M,M,M,M,M,M,M,M,M,M,KWMC 290756Z AUTO 00000KT 10SM CLR 12/ A3000 RMK AO2 SLP113 T0122 403390072 $,M
TPH,2022-08-29 07:56,-117.0904,38.0505,1654.00,63.00,34.00,33.72,350.00,5.00,0.00,30.09,1010.80,10.00,M,CLR,M,M,M,M,M,M,M,M,M,M,M,M,M,M,63.00,KTPH 290756Z AUTO 35005KT 10SM CLR 17/01 A3009 RMK AO2 SLP108 T01720011 403220150,M
LAS,2022-08-29 07:56,-115.1634,36.0719,663.00,90.00,58.00,33.99,200.00,8.00,0.00,29.83,1006.90,10.00,M,CLR,M,M,M,M,M,M,M,M,M,M,M,M,M,M,88.89,KLAS 290756Z 20008KT 10SM CLR 32/14 A2983 RMK AO2 SLP069 T03220144 403940283,M
LSV,2022-08-29 07:56,-115.0343,36.2362,570.00,89.40,54.70,30.85,40.00,3.00,0.00,29.81,1006.40,10.00,M,CLR,M,M,M,M,M,M,M,M,M,M,M,M,M,M,87.42,KLSV 290756Z AUTO 04003KT 10SM CLR 32/13 A2981 RMK AO2 SLP064 T03190126 404190276 $,M
BVU,2022-08-29 08:15,-114.8611,35.9475,671.00,84.20,57.20,39.86,340.00,3.00,0.00,29.85,M,M,M,M,M,M,M,M,M,M,M,M,M,M,M,M,M,M,83.47,KBVU 290815Z AUTO 34003KT 29/14 A2985 RMK AO2 PWINO TSNO,M
TMT,2022-08-29 08:15,-117.1971,39.4643,1749.34,48.40,26.40,42.06,230.00,3.00,0.00,30.13,M,10.00,M,CLR,M,M,M,M,M,M,M,M,M,M,M,M,M,M,47.44,KTMT 290815Z AUTO 23003KT 10SM CLR 09/M03 A3013 RMK AO2 T00911031,M
HTH,2022-08-29 08:15,-118.6315,38.5448,1282.89,71.60,26.60,18.55,0.00,0.00,0.00,29.98,M,10.00,M,CLR,M,M,M,M,M,M,M,M,M,M,M,M,M,M,71.60,KHTH 290815Z AUTO 00000KT 10SM CLR 22/M03 A2998 RMK A01,M
BAM,2022-08-29 08:15,-116.8743,40.5990,1382.36,57.20,21.20,24.49,0.00,0.00,0.00,30.03,M,10.00,M,CLR,M,M,M,M,M,M,M,M,M,M,M,M,M,M,57.20,KBAM 290815Z AUTO 00000KT 10SM CLR 14/M06 A3003 RMK AO1,M
MEV,2022-08-29 08:15,-119.7500,38.9963,1441.42,57.20,37.40,47.44,0.00,0.00,0.00,30.04,M,10.00,M,CLR,M,M,M,M,M,M,M,M,M,M,M,M,M,M,57.20,KMEV 290815Z AUTO 00000KT 10SM CLR 14/03 A3004 RMK AO2,M
RTS,2022-08-29 08:15,-119.8764,39.6682,1539.00,62.60,32.00,31.56,340.00,6.00,0.00,30.07,M,10.00,M,CLR,M,M,M,M,M,M,M,M,M,M,M,M,M,M,62.60,KRTS 290815Z AUTO 34006KT 10SM CLR 17/M00 A3007 RMK AO2,M
CXP,2022-08-29 08:15,-119.7326,39.1923,1431.00,64.40,37.40,36.74,0.00,0.00,0.00,30.05,M,10.00,M,CLR,M,M,M,M,M,M,M,M,M,M,M,M,M,M,64.40,KCXP 290815Z AUTO 00000KT 10SM CLR 18/03 A3005 RMK AO2,M
CXP,2022-08-29 08:30,-119.7326,39.1923,1431.00,64.40,37.40,36.74,0.00,0.00,0.00,30.06,M,10.00,M,CLR,M,M,M,M,M,M,M,M,M,M,M,M,M,M,64.40,KCXP 290830Z AUTO 00000KT 10SM CLR 18/03 A3006 RMK AO2,M
TMT,2022-08-29 08:35,-117.1971,39.4643,1749.34,M,M,M,240.00,5.00,0.00,30.13,M,10.00,M,CLR,M,M,M,M,M,M,M,M,M,M,M,M,M,M,M,KTMT 290835Z AUTO 24005KT 10SM CLR A3013 RMK AO2,M
HTH,2022-08-29 08:35,-118.6315,38.5448,1282.89,68.00,26.60,20.98,0.00,0.00,0.00,29.98,M,10.00,M,CLR,M,M,M,M,M,M,M,M,M,M,M,M,M,M,68.00,KHTH 290835Z AUTO 00000KT 10SM CLR 20/M03 A2998 RMK A01,M
BVU,2022-08-29 08:35,-114.8611,35.9475,671.00,82.40,57.20,42.25,300.00,4.00,0.00,29.85,M,M,M,M,M,M,M,M,M,M,M,M,M,M,M,M,M,M,82.08,KBVU 290835Z AUTO 30004KT 28/14 A2985 RMK AO2 PWINO TSNO,M
MEV,2022-08-29 08:35,-119.7500,38.9963,1441.42,55.40,35.60,47.16,0.00,0.00,0.00,30.05,M,10.00,M,CLR,M,M,M,M,M,M,M,M,M,M,M,M,M,M,55.40,KMEV 290835Z AUTO 00000KT 10SM CLR 13/02 A3005 RMK AO2,M
RTS,2022-08-29 08:35,-119.8764,39.6682,1539.00,60.80,30.20,31.28,340.00,6.00,0.00,30.08,M,10.00,M,CLR,M,M,M,M,M,M,M,M,M,M,M,M,M,M,60.80,KRTS 290835Z AUTO 34006KT 10SM CLR 16/M01 A3008 RMK AO2,M
BAM,2022-08-29 08:35,-116.8743,40.5990,1382.36,59.00,21.20,22.95,340.00,3.00,0.00,30.04,M,10.00,M,CLR,M,M,M,M,M,M,M,M,M,M,M,M,M,M,59.00,KBAM 290835Z AUTO 34003KT 10SM CLR 15/M06 A3004 RMK AO1,M
P68,2022-08-29 08:53,-116.0056,39.6014,1993.00,54.00,27.00,35.05,180.00,5.00,0.00,30.13,1011.50,M,M,M,M,M,M,M,M,M,M,M,M,M,M,M,M,M,54.00,KP68 290853Z AUTO 18005KT 12/M03 A3013 RMK AO1 SLP115 T01221028 52013,M
DRA,2022-08-29 08:53,-116.0278,36.6206,1009.00,80.00,46.00,30.11,10.00,4.00,0.00,29.92,1007.30,10.00,M,CLR,M,M,M,M,M,M,M,M,M,M,M,M,M,M,79.26,KDRA 290853Z AUTO 01004KT 10SM CLR 27/08 A2992 RMK AO2 SLP073 T02670078 51011,M
ELY,2022-08-29 08:53,-114.8453,39.2950,1909.00,51.00,36.00,56.10,170.00,8.00,0.00,30.17,1011.70,10.00,M,CLR,M,M,M,M,M,M,M,M,M,M,M,M,M,M,51.10,KELY 290853Z AUTO 17008KT 10SM CLR 11/02 A3017 RMK AO2 SLP117 T01060022 51014,M
VGT,2022-08-29 08:53,-115.1933,36.2111,667.00,90.00,55.00,30.61,250.00,4.00,0.00,29.83,1008.40,10.00,M,CLR,M,M,M,M,M,M,M,M,M,M,M,M,M,M,88.06,KVGT 290853Z AUTO 25004KT 10SM CLR 32/13 A2983 RMK AO2 SLP084 T03220128 51012,M
LOL,2022-08-29 08:53,-118.5701,40.0684,1192.43,59.00,27.00,29.25,310.00,8.00,0.00,29.97,1010.60,10.00,M,CLR,M,M,M,M,M,M,M,M,M,M,M,M,M,M,59.00,KLOL 290853Z AUTO 31008KT 10SM CLR 15/M03 A2997 RMK AO2 SLP106 T01501028 53012,M
TMT,2022-08-29 08:55,-117.1971,39.4643,1749.34,M,M,M,170.00,3.00,0.00,30.13,M,10.00,M,CLR,M,M,M,M,M,M,M,M,M,M,M,M,M,M,M,KTMT 290855Z AUTO 17003KT 10SM CLR A3013 RMK AO2,M
MEV,2022-08-29 08:55,-119.7500,38.9963,1441.42,53.60,35.60,50.36,0.00,0.00,0.00,30.05,M,10.00,M,CLR,M,M,M,M,M,M,M,M,M,M,M,M,M,M,53.60,KMEV 290855Z AUTO 00000KT 10SM CLR 12/02 A3005 RMK AO2,M
BAM,2022-08-29 08:55,-116.8743,40.5990,1382.36,57.20,21.20,24.49,340.00,3.00,0.00,30.04,M,10.00,M,CLR,M,M,M,M,M,M,M,M,M,M,M,M,M,M,57.20,KBAM 290855Z AUTO 34003KT 10SM CLR 14/M06 A3004 RMK AO1,M
HTH,2022-08-29 08:55,-118.6315,38.5448,1282.89,71.60,28.40,19.98,0.00,0.00,0.00,29.99,M,10.00,M,CLR,M,M,M,M,M,M,M,M,M,M,M,M,M,M,71.60,KHTH 290855Z AUTO 00000KT 10SM CLR 22/M02 A2999 RMK A01,M
RNO,2022-08-29 08:55,-119.7711,39.4839,1341.00,68.00,41.00,37.32,0.00,0.00,0.00,30.03,1010.50,10.00,M,CLR,M,M,M,M,M,M,M,M,M,M,M,M,M,M,68.00,KRNO 290855Z 00000KT 10SM CLR 20/05 A3003 RMK AO2 SLP105 T02000050 53012,M
RTS,2022-08-29 08:55,-119.8764,39.6682,1539.00,60.80,30.20,31.28,340.00,7.00,0.00,30.08,M,10.00,M,CLR,M,M,M,M,M,M,M,M,M,M,M,M,M,M,60.80,KRTS 290855Z AUTO 34007KT 10SM CLR 16/M01 A3008 RMK AO2,M
BVU,2022-08-29 08:55,-114.8611,35.9475,671.00,82.40,59.00,45.07,310.00,4.00,0.00,29.85,M,M,M,M,M,M,M,M,M,M,M,M,M,M,M,M,M,M,82.46,KBVU 290855Z AUTO 31004KT 28/15 A2985 RMK AO2 PWINO TSNO,M
CXP,2022-08-29 08:55,-119.7326,39.1923,1431.00,62.60,37.40,39.14,0.00,0.00,0.00,30.07,M,10.00,M,CLR,M,M,M,M,M,M,M,M,M,M,M,M,M,M,62.60,KCXP 290855Z AUTO 00000KT 10SM CLR 17/03 A3007 RMK AO2,M
INS,2022-08-29 08:56,-115.6733,36.5872,955.00,78.30,43.30,28.82,0.00,0.00,0.00,29.91,1007.30,10.00,M,CLR,M,M,M,M,M,M,M,M,M,M,M,M,M,M,78.30,KINS 290856Z AUTO 00000KT 10SM CLR 26/06 A2991 RMK AO2 SLP073 T02570063 52011 $,M
TPH,2022-08-29 08:56,-117.0904,38.0505,1654.00,63.00,34.00,33.72,360.00,5.00,0.00,30.10,1010.80,10.00,M,CLR,M,M,M,M,M,M,M,M,M,M,M,M,M,M,63.00,KTPH 290856Z AUTO 36005KT 10SM CLR 17/01 A3010 RMK AO2 SLP108 T01720011 51013,M
LAS,2022-08-29 08:56,-115.1634,36.0719,663.00,88.00,58.00,36.21,190.00,3.00,0.00,29.84,1007.20,10.00,M,CLR,M,M,M,M,M,M,M,M,M,M,M,M,M,M,86.96,KLAS 290856Z 19003KT 10SM CLR 31/14 A2984 RMK AO2 SLP072 T03110144 51013,M
WMC,2022-08-29 08:56,-117.8072,40.9019,1315.00,49.00,M,M,180.00,5.00,0.00,30.01,1011.90,10.00,M,CLR,M,M,M,M,M,M,M,M,M,M,M,M,M,M,M,KWMC 290856Z AUTO 18005KT 10SM CLR 09/ A3001 RMK AO2 SLP119 T0094 51014 $,M
EKO,2022-08-29 08:56,-115.7860,40.8242,1367.00,50.00,27.00,40.62,0.00,0.00,0.00,30.08,1014.00,10.00,M,CLR,M,M,M,M,M,M,M,M,M,M,M,M,M,M,50.00,KEKO 290856Z AUTO 00000KT 10SM CLR 10/M03 A3008 RMK AO2 SLP140 T01001028 51017 $,M
LSV,2022-08-29 08:56,-115.0343,36.2362,570.00,87.40,56.30,34.83,40.00,3.00,0.00,29.81,1006.40,10.00,M,CLR,M,M,M,M,M,M,M,M,M,M,M,M,M,M,85.97,KLSV 290856Z AUTO 04003KT 10SM CLR 31/14 A2981 RMK AO2 SLP064 T03080135 51014 $,M
TMT,2022-08-29 09:15,-117.1971,39.4643,1749.34,M,M,M,0.00,0.00,0.00,30.13,M,10.00,M,CLR,M,M,M,M,M,M,M,M,M,M,M,M,M,M,M,KTMT 290915Z AUTO 00000KT 10SM CLR A3013 RMK AO2,M
CXP,2022-08-29 09:15,-119.7326,39.1923,1431.00,64.40,37.40,36.74,0.00,0.00,0.00,30.07,M,10.00,M,CLR,M,M,M,M,M,M,M,M,M,M,M,M,M,M,64.40,KCXP 290915Z AUTO 00000KT 10SM CLR 18/03 A3007 RMK AO2,M
BVU,2022-08-29 09:15,-114.8611,35.9475,671.00,82.40,60.80,48.05,330.00,4.00,0.00,29.85,M,M,M,M,M,M,M,M,M,M,M,M,M,M,M,M,M,M,82.90,KBVU 290915Z AUTO 33004KT 28/16 A2985 RMK AO2 PWINO TSNO,M
BAM,2022-08-29 09:15,-116.8743,40.5990,1382.36,53.60,21.20,27.91,150.00,3.00,0.00,30.04,M,10.00,M,CLR,M,M,M,M,M,M,M,M,M,M,M,M,M,M,53.60,KBAM 290915Z AUTO 15003KT 10SM CLR 12/M06 A3004 RMK AO1,M
MEV,2022-08-29 09:15,-119.7500,38.9963,1441.42,51.80,35.60,53.81,0.00,0.00,0.00,30.06,M,10.00,M,CLR,M,M,M,M,M,M,M,M,M,M,M,M,M,M,51.80,KMEV 290915Z AUTO 00000KT 10SM CLR 11/02 A3006 RMK AO2,M
HTH,2022-08-29 09:15,-118.6315,38.5448,1282.89,69.80,26.60,19.72,220.00,9.00,0.00,29.99,M,10.00,M,CLR,M,M,M,M,M,M,M,M,M,M,M,M,M,M,69.80,KHTH 290915Z AUTO 22009KT 10SM CLR 21/M03 A2999 RMK A01,M
RTS,2022-08-29 09:15,-119.8764,39.6682,1539.00,60.80,32.00,33.64,330.00,7.00,0.00,30.08,M,10.00,M,CLR,M,M,M,M,M,M,M,M,M,M,M,M,M,M,60.80,KRTS 290915Z AUTO 33007KT 10SM CLR 16/M00 A3008 RMK AO2,M
HTH,2022-08-29 09:35,-118.6315,38.5448,1282.89,71.60,30.20,21.50,240.00,6.00,0.00,29.99,M,10.00,M,CLR,M,M,M,M,M,M,M,M,M,M,M,M,M,M,71.60,KHTH 290935Z AUTO 24006KT 10SM CLR 22/M01 A2999 RMK A01,M
BVU,2022-08-29 09:35,-114.8611,35.9475,671.00,82.40,60.80,48.05,330.00,3.00,0.00,29.85,M,M,M,M,M,M,M,M,M,M,M,M,M,M,M,M,M,M,82.90,KBVU 290935Z AUTO 33003KT 28/16 A2985 RMK AO2 PWINO TSNO,M
CXP,2022-08-29 09:35,-119.7326,39.1923,1431.00,60.80,37.40,41.71,0.00,0.00,0.00,30.07,M,10.00,M,CLR,M,M,M,M,M,M,M,M,M,M,M,M,M,M,60.80,KCXP 290935Z AUTO 00000KT 10SM CLR 16/03 A3007 RMK AO2,M
TMT,2022-08-29 09:35,-117.1971,39.4643,1749.34,44.00,24.30,45.35,0.00,0.00,0.00,30.14,M,10.00,M,CLR,M,M,M,M,M,M,M,M,M,M,M,M,M,M,44.10,KTMT 290935Z AUTO 00000KT 10SM CLR 07/M04 A3014 RMK AO2 T00671043,M
RTS,2022-08-29 09:35,-119.8764,39.6682,1539.00,59.00,32.00,35.87,340.00,6.00,0.00,30.08,M,10.00,M,CLR,M,M,M,M,M,M,M,M,M,M,M,M,M,M,59.00,KRTS 290935Z AUTO 34006KT 10SM CLR 15/M00 A3008 RMK AO2,M
MEV,2022-08-29 09:35,-119.7500,38.9963,1441.42,50.00,35.60,57.52,90.00,3.00,0.00,30.06,M,10.00,M,CLR,M,M,M,M,M,M,M,M,M,M,M,M,M,M,50.00,KMEV 290935Z AUTO 09003KT 10SM CLR 10/02 A3006 RMK AO2,M
BAM,2022-08-29 09:35,-116.8743,40.5990,1382.36,50.00,17.60,27.33,170.00,4.00,0.00,30.05,M,10.00,M,CLR,M,M,M,M,M,M,M,M,M,M,M,M,M,M,50.00,KBAM 290935Z AUTO 17004KT 10SM CLR 10/M08 A3005 RMK AO1,M
CXP,2022-08-29 09:50,-119.7326,39.1923,1431.00,60.80,35.60,38.85,310.00,3.00,0.00,30.07,M,10.00,M,CLR,M,M,M,M,M,M,M,M,M,M,M,M,M,M,60.80,KCXP 290950Z AUTO 31003KT 10SM CLR 16/02 A3007 RMK AO2,M
DRA,2022-08-29 09:53,-116.0278,36.6206,1009.00,80.00,50.00,34.98,360.00,3.00,0.00,29.92,1007.40,10.00,M,CLR,M,M,M,M,M,M,M,M,M,M,M,M,M,M,79.60,KDRA 290953Z AUTO 36003KT 10SM CLR 27/10 A2992 RMK AO2 SLP074 T02670100,M
VGT,2022-08-29 09:53,-115.1933,36.2111,667.00,88.00,55.00,32.60,0.00,0.00,0.00,29.84,1008.80,10.00,M,CLR,M,M,M,M,M,M,M,M,M,M,M,M,M,M,86.20,KVGT 290953Z AUTO 00000KT 10SM CLR 31/13 A2984 RMK AO2 SLP088 T03110128,M
LOL,2022-08-29 09:53,-118.5701,40.0684,1192.43,55.00,26.10,32.56,100.00,7.00,0.00,29.98,1011.30,10.00,M,CLR,M,M,M,M,M,M,M,M,M,M,M,M,M,M,55.00,KLOL 290953Z AUTO 10007KT 10SM CLR 13/M03 A2998 RMK AO2 SLP113 T01281033,M
ELY,2022-08-29 09:53,-114.8453,39.2950,1909.00,51.00,35.00,54.13,210.00,4.00,0.00,30.17,1012.10,10.00,M,CLR,M,M,M,M,M,M,M,M,M,M,M,M,M,M,51.10,KELY 290953Z AUTO 21004KT 10SM CLR 11/02 A3017 RMK AO2 SLP121 T01060017,M
P68,2022-08-29 09:53,-116.0056,39.6014,1993.00,53.00,28.00,37.74,200.00,7.00,0.00,30.14,1011.80,M,M,M,M,M,M,M,M,M,M,M,M,M,M,M,M,M,53.10,KP68 290953Z AUTO 20007KT 12/M02 A3014 RMK AO1 SLP118 T01171022,M
TMT,2022-08-29 09:55,-117.1971,39.4643,1749.34,41.40,22.10,45.87,0.00,0.00,0.00,30.14,M,10.00,M,CLR,M,M,M,M,M,M,M,M,M,M,M,M,M,M,41.40,KTMT 290955Z AUTO 00000KT 10SM CLR 05/M05 A3014 RMK AO2 T00521055,M
BVU,2022-08-29 09:55,-114.8611,35.9475,671.00,80.60,60.80,50.95,320.00,3.00,0.00,29.85,M,M,M,M,M,M,M,M,M,M,M,M,M,M,M,M,M,M,81.46,KBVU 290955Z AUTO 32003KT 27/16 A2985 RMK AO2 PWINO TSNO,M
RTS,2022-08-29 09:55,-119.8764,39.6682,1539.00,59.00,30.20,33.35,350.00,7.00,0.00,30.08,M,10.00,M,CLR,M,M,M,M,M,M,M,M,M,M,M,M,M,M,59.00,KRTS 290955Z AUTO 35007KT 10SM CLR 15/M01 A3008 RMK AO2,M
MEV,2022-08-29 09:55,-119.7500,38.9963,1441.42,50.00,37.40,61.76,50.00,3.00,0.00,30.06,M,10.00,M,CLR,M,M,M,M,M,M,M,M,M,M,M,M,M,M,50.00,KMEV 290955Z AUTO 05003KT 10SM CLR 10/03 A3006 RMK AO2,M
BAM,2022-08-29 09:55,-116.8743,40.5990,1382.36,51.80,19.40,27.62,0.00,0.00,0.00,30.06,M,10.00,M,CLR,M,M,M,M,M,M,M,M,M,M,M,M,M,M,51.80,KBAM 290955Z AUTO 00000KT 10SM CLR 11/M07 A3006 RMK AO1,M
HTH,2022-08-29 09:55,-118.6315,38.5448,1282.89,69.80,30.20,22.86,0.00,0.00,0.00,30.00,M,10.00,M,CLR,M,M,M,M,M,M,M,M,M,M,M,M,M,M,69.80,KHTH 290955Z AUTO 00000KT 10SM CLR 21/M01 A3000 RMK A01,M
RNO,2022-08-29 09:55,-119.7711,39.4839,1341.00,66.00,42.00,41.73,190.00,3.00,0.00,30.04,1010.80,10.00,M,CLR,M,M,M,M,M,M,M,M,M,M,M,M,M,M,66.00,KRNO 290955Z 19003KT 10SM CLR 19/06 A3004 RMK AO2 SLP108 T01890056,M
WMC,2022-08-29 09:56,-117.8072,40.9019,1315.00,48.00,M,M,0.00,0.00,0.00,30.02,1012.30,10.00,M,CLR,M,M,M,M,M,M,M,M,M,M,M,M,M,M,M,KWMC 290956Z AUTO 00000KT 10SM CLR 09/ A3002 RMK AO2 SLP123 T0089 $,M
EKO,2022-08-29 09:56,-115.7860,40.8242,1367.00,44.00,27.00,50.73,0.00,0.00,0.00,30.09,1014.90,10.00,M,CLR,M,M,M,M,M,M,M,M,M,M,M,M,M,M,44.10,KEKO 290956Z AUTO 00000KT 10SM CLR 07/M03 A3009 RMK AO2 SLP149 T00671028 $,M
TPH,2022-08-29 09:56,-117.0904,38.0505,1654.00,63.00,35.00,35.24,360.00,9.00,0.00,30.10,1011.00,10.00,M,CLR,M,M,M,M,M,M,M,M,M,M,M,M,M,M,63.00,KTPH 290956Z AUTO 36009KT 10SM CLR 17/02 A3010 RMK AO2 SLP110 T01720017,M
LSV,2022-08-29 09:56,-115.0343,36.2362,570.00,85.00,56.50,38.00,60.00,4.00,0.00,29.82,1006.90,10.00,M,CLR,M,M,M,M,M,M,M,M,M,M,M,M,M,M,83.88,KLSV 290956Z AUTO 06004KT 10SM CLR 29/14 A2982 RMK AO2 SLP069 T02940136 $,M
LAS,2022-08-29 09:56,-115.1634,36.0719,663.00,86.00,59.00,40.14,0.00,0.00,0.00,29.85,1007.60,10.00,M,CLR,M,M,M,M,M,M,M,M,M,M,M,M,M,M,85.47,KLAS 290956Z 00000KT 10SM CLR 30/15 A2985 RMK AO2 SLP076 T03000150,M
INS,2022-08-29 09:56,-115.6733,36.5872,955.00,78.00,44.80,30.92,130.00,6.00,0.00,29.92,1007.70,10.00,M,CLR,M,M,M,M,M,M,M,M,M,M,M,M,M,M,77.90,KINS 290956Z AUTO 13006KT 10SM CLR 26/07 A2992 RMK AO2 SLP077 T02550071 $,M
BAM,2022-08-29 10:15,-116.8743,40.5990,1382.36,51.80,19.40,27.62,0.00,0.00,0.00,30.06,M,10.00,M,CLR,M,M,M,M,M,M,M,M,M,M,M,M,M,M,51.80,KBAM 291015Z AUTO 00000KT 10SM CLR 11/M07 A3006 RMK AO1,M
MEV,2022-08-29 10:15,-119.7500,38.9963,1441.42,48.20,37.40,66.05,80.00,6.00,0.00,30.06,M,10.00,M,CLR,M,M,M,M,M,M,M,M,M,M,M,M,M,M,45.04,KMEV 291015Z AUTO 08006KT 10SM CLR 09/03 A3006 RMK AO2,M
RTS,2022-08-29 10:15,-119.8764,39.6682,1539.00,57.20,30.20,35.57,360.00,5.00,0.00,30.09,M,10.00,M,CLR,M,M,M,M,M,M,M,M,M,M,M,M,M,M,57.20,KRTS 291015Z AUTO 36005KT 10SM CLR 14/M01 A3009 RMK AO2,M
CXP,2022-08-29 10:15,-119.7326,39.1923,1431.00,59.00,37.40,44.47,0.00,0.00,0.00,30.07,M,10.00,M,CLR,M,M,M,M,M,M,M,M,M,M,M,M,M,M,59.00,KCXP 291015Z AUTO 00000KT 10SM CLR 15/03 A3007 RMK AO2,M
TMT,2022-08-29 10:15,-117.1971,39.4643,1749.34,40.60,22.60,48.32,0.00,0.00,0.00,30.14,M,10.00,M,CLR,M,M,M,M,M,M,M,M,M,M,M,M,M,M,40.60,KTMT 291015Z AUTO 00000KT 10SM CLR 05/M05 A3014 RMK AO2 T00481052,M
BVU,2022-08-29 10:15,-114.8611,35.9475,671.00,80.60,60.80,50.95,0.00,0.00,0.00,29.86,M,M,M,M,M,M,M,M,M,M,M,M,M,M,M,M,M,M,81.46,KBVU 291015Z AUTO 00000KT 27/16 A2986 RMK AO2 PWINO TSNO,M
HTH,2022-08-29 10:15,-118.6315,38.5448,1282.89,69.80,30.20,22.86,0.00,0.00,0.00,30.00,M,10.00,M,CLR,M,M,M,M,M,M,M,M,M,M,M,M,M,M,69.80,KHTH 291015Z AUTO 00000KT 10SM CLR 21/M01 A3000 RMK A01,M
MEV,2022-08-29 10:35,-119.7500,38.9963,1441.42,48.20,39.20,70.88,100.00,5.00,0.00,30.06,M,10.00,M,CLR,M,M,M,M,M,M,M,M,M,M,M,M,M,M,45.63,KMEV 291035Z AUTO 10005KT 10SM CLR 09/04 A3006 RMK AO2,M
BAM,2022-08-29 10:35,-116.8743,40.5990,1382.36,51.80,19.40,27.62,20.00,4.00,0.00,30.06,M,10.00,M,CLR,M,M,M,M,M,M,M,M,M,M,M,M,M,M,51.80,KBAM 291035Z AUTO 02004KT 10SM CLR 11/M07 A3006 RMK AO1,M
HTH,2022-08-29 10:35,-118.6315,38.5448,1282.89,68.00,30.20,24.32,190.00,4.00,0.00,30.00,M,10.00,M,CLR,M,M,M,M,M,M,M,M,M,M,M,M,M,M,68.00,KHTH 291035Z AUTO 19004KT 10SM CLR 20/M01 A3000 RMK A01,M
TMT,2022-08-29 10:35,-117.1971,39.4643,1749.34,38.70,20.70,48.02,0.00,0.00,0.00,30.14,M,10.00,M,CLR,M,M,M,M,M,M,M,M,M,M,M,M,M,M,38.70,KTMT 291035Z AUTO 00000KT 10SM CLR 04/M06 A3014 RMK AO2 T00371063,M
BVU,2022-08-29 10:35,-114.8611,35.9475,671.00,80.60,60.80,50.95,320.00,3.00,0.00,29.86,M,M,M,M,M,M,M,M,M,M,M,M,M,M,M,M,M,M,81.46,KBVU 291035Z AUTO 32003KT 27/16 A2986 RMK AO2 PWINO TSNO,M
CXP,2022-08-29 10:35,-119.7326,39.1923,1431.00,59.00,37.40,44.47,0.00,0.00,0.00,30.07,M,10.00,M,CLR,M,M,M,M,M,M,M,M,M,M,M,M,M,M,59.00,KCXP 291035Z AUTO 00000KT 10SM CLR 15/03 A3007 RMK AO2,M
RTS,2022-08-29 10:35,-119.8764,39.6682,1539.00,55.40,30.20,37.97,0.00,0.00,0.00,30.09,M,10.00,M,CLR,M,M,M,M,M,M,M,M,M,M,M,M,M,M,55.40,KRTS 291035Z AUTO 00000KT 10SM CLR 13/M01 A3009 RMK AO2,M
DRA,2022-08-29 10:53,-116.0278,36.6206,1009.00,79.00,53.00,40.67,M,3.00,0.00,29.93,1007.60,10.00,M,CLR,M,M,M,M,M,M,M,M,M,M,M,M,M,M,79.00,KDRA 291053Z AUTO VRB03KT 10SM CLR 26/12 A2993 RMK AO2 SLP076 T02610117,M
ELY,2022-08-29 10:53,-114.8453,39.2950,1909.00,50.00,37.00,60.79,170.00,8.00,0.00,30.18,1012.20,10.00,M,CLR,M,M,M,M,M,M,M,M,M,M,M,M,M,M,50.00,KELY 291053Z AUTO 17008KT 10SM CLR 10/03 A3018 RMK AO2 SLP122 T01000028,M
P68,2022-08-29 10:53,-116.0056,39.6014,1993.00,54.00,27.00,35.05,180.00,5.00,0.00,30.14,1012.10,M,M,M,M,M,M,M,M,M,M,M,M,M,M,M,M,M,54.00,KP68 291053Z AUTO 18005KT 12/M03 A3014 RMK AO1 SLP121 T01221028,M
VGT,2022-08-29 10:53,-115.1933,36.2111,667.00,86.00,56.00,35.90,0.00,0.00,0.00,29.84,1009.00,10.00,M,CLR,M,M,M,M,M,M,M,M,M,M,M,M,M,M,84.66,KVGT 291053Z AUTO 00000KT 10SM CLR 30/13 A2984 RMK AO2 SLP090 T03000133,M
LOL,2022-08-29 10:53,-118.5701,40.0684,1192.43,55.00,26.10,32.56,310.00,3.00,0.00,29.98,1011.50,10.00,M,CLR,M,M,M,M,M,M,M,M,M,M,M,M,M,M,55.00,KLOL 291053Z AUTO 31003KT 10SM CLR 13/M03 A2998 RMK AO2 SLP115 T01281033,M
BAM,2022-08-29 10:55,-116.8743,40.5990,1382.36,51.80,19.40,27.62,360.00,3.00,0.00,30.07,M,10.00,M,CLR,M,M,M,M,M,M,M,M,M,M,M,M,M,M,51.80,KBAM 291055Z AUTO 36003KT 10SM CLR 11/M07 A3007 RMK AO1,M
HTH,2022-08-29 10:55,-118.6315,38.5448,1282.89,68.00,30.20,24.32,200.00,4.00,0.00,30.01,M,10.00,M,CLR,M,M,M,M,M,M,M,M,M,M,M,M,M,M,68.00,KHTH 291055Z AUTO 20004KT 10SM CLR 20/M01 A3001 RMK A01,M
CXP,2022-08-29 10:55,-119.7326,39.1923,1431.00,57.20,37.40,47.44,0.00,0.00,0.00,30.07,M,10.00,M,CLR,M,M,M,M,M,M,M,M,M,M,M,M,M,M,57.20,KCXP 291055Z AUTO 00000KT 10SM CLR 14/03 A3007 RMK AO2,M
BVU,2022-08-29 10:55,-114.8611,35.9475,671.00,80.60,60.80,50.95,0.00,0.00,0.00,29.86,M,M,M,M,M,M,M,M,M,M,M,M,M,M,M,M,M,M,81.46,KBVU 291055Z AUTO 00000KT 27/16 A2986 RMK AO2 PWINO TSNO,M
RNO,2022-08-29 10:55,-119.7711,39.4839,1341.00,66.00,39.00,37.00,250.00,4.00,0.00,30.04,1011.10,10.00,M,CLR,M,M,M,M,M,M,M,M,M,M,M,M,M,M,66.00,KRNO 291055Z 25004KT 10SM CLR 19/04 A3004 RMK AO2 SLP111 T01890039,M
RTS,2022-08-29 10:55,-119.8764,39.6682,1539.00,51.80,30.20,43.32,330.00,6.00,0.00,30.09,M,10.00,M,CLR,M,M,M,M,M,M,M,M,M,M,M,M,M,M,51.80,KRTS 291055Z AUTO 33006KT 10SM CLR 11/M01 A3009 RMK AO2,M
MEV,2022-08-29 10:55,-119.7500,38.9963,1441.42,48.20,33.80,57.26,110.00,7.00,0.00,30.06,M,10.00,M,CLR,M,M,M,M,M,M,M,M,M,M,M,M,M,M,44.53,KMEV 291055Z AUTO 11007KT 10SM CLR 09/01 A3006 RMK AO2,M
TMT,2022-08-29 10:55,-117.1971,39.4643,1749.34,41.20,22.80,47.61,0.00,0.00,0.00,30.14,M,10.00,M,CLR,M,M,M,M,M,M,M,M,M,M,M,M,M,M,41.20,KTMT 291055Z AUTO 00000KT 10SM CLR 05/M05 A3014 RMK AO2 T00511051,M
LSV,2022-08-29 10:56,-115.0343,36.2362,570.00,84.70,58.50,41.10,40.00,7.00,0.00,29.83,1007.20,10.00,M,CLR,M,M,M,M,M,M,M,M,M,M,M,M,M,M,84.20,KLSV 291056Z AUTO 04007KT 10SM CLR 29/15 A2983 RMK AO2 SLP072 T02930147 $,M
EKO,2022-08-29 10:56,-115.7860,40.8242,1367.00,45.00,28.00,51.08,0.00,0.00,0.00,30.10,1015.10,10.00,M,CLR,M,M,M,M,M,M,M,M,M,M,M,M,M,M,45.00,KEKO 291056Z AUTO 00000KT 10SM CLR 07/M02 A3010 RMK AO2 SLP151 T00721022 $,M
INS,2022-08-29 10:56,-115.6733,36.5872,955.00,77.40,46.00,32.90,0.00,0.00,0.00,29.92,1007.80,10.00,M,CLR,M,M,M,M,M,M,M,M,M,M,M,M,M,M,77.40,KINS 291056Z AUTO 00000KT 10SM CLR 25/08 A2992 RMK AO2 SLP078 T02520078 $,M
WMC,2022-08-29 10:56,-117.8072,40.9019,1315.00,50.00,M,M,80.00,5.00,0.00,30.04,1012.70,10.00,M,CLR,M,M,M,M,M,M,M,M,M,M,M,M,M,M,M,KWMC 291056Z AUTO 08005KT 10SM CLR 10/ A3004 RMK AO2 SLP127 T0100 $,M
TPH,2022-08-29 10:56,-117.0904,38.0505,1654.00,63.00,35.00,35.24,10.00,10.00,0.00,30.11,1011.20,10.00,M,CLR,M,M,M,M,M,M,M,M,M,M,M,M,M,M,63.00,KTPH 291056Z AUTO 01010KT 10SM CLR 17/02 A3011 RMK AO2 SLP112 T01720017,M
LAS,2022-08-29 10:56,-115.1634,36.0719,663.00,87.00,59.00,38.75,0.00,0.00,0.00,29.85,1007.60,10.00,M,CLR,M,M,M,M,M,M,M,M,M,M,M,M,M,M,86.47,KLAS 291056Z 00000KT 10SM CLR 31/15 A2985 RMK AO2 SLP076 T03060150,M
BAM,2022-08-29 11:15,-116.8743,40.5990,1382.36,50.00,19.40,29.52,0.00,0.00,0.00,30.07,M,10.00,M,CLR,M,M,M,M,M,M,M,M,M,M,M,M,M,M,50.00,KBAM 291115Z AUTO 00000KT 10SM CLR 10/M07 A3007 RMK AO1,M
HTH,2022-08-29 11:15,-118.6315,38.5448,1282.89,68.00,28.40,22.59,280.00,4.00,0.00,30.01,M,10.00,M,CLR,M,M,M,M,M,M,M,M,M,M,M,M,M,M,68.00,KHTH 291115Z AUTO 28004KT 10SM CLR 20/M02 A3001 RMK A01,M
TMT,2022-08-29 11:15,-117.1971,39.4643,1749.34,42.00,22.80,45.98,0.00,0.00,0.00,30.15,M,10.00,M,CLR,M,M,M,M,M,M,M,M,M,M,M,M,M,M,42.10,KTMT 291115Z AUTO 00000KT 10SM CLR 06/M05 A3015 RMK AO2 T00561051,M
BVU,2022-08-29 11:15,-114.8611,35.9475,671.00,80.60,60.80,50.95,0.00,0.00,0.00,29.86,M,M,M,M,M,M,M,M,M,M,M,M,M,M,M,M,M,M,81.46,KBVU 291115Z AUTO 00000KT 27/16 A2986 RMK AO2 PWINO TSNO,M
CXP,2022-08-29 11:15,-119.7326,39.1923,1431.00,57.20,37.40,47.44,0.00,0.00,0.00,30.07,M,10.00,M,CLR,M,M,M,M,M,M,M,M,M,M,M,M,M,M,57.20,KCXP 291115Z AUTO 00000KT 10SM CLR 14/03 A3007 RMK AO2,M
RTS,2022-08-29 11:15,-119.8764,39.6682,1539.00,51.80,30.20,43.32,0.00,0.00,0.00,30.09,M,10.00,M,CLR,M,M,M,M,M,M,M,M,M,M,M,M,M,M,51.80,KRTS 291115Z AUTO 00000KT 10SM CLR 11/M01 A3009 RMK AO2,M
MEV,2022-08-29 11:15,-119.7500,38.9963,1441.42,48.20,35.60,61.52,190.00,4.00,0.00,30.06,M,10.00,M,CLR,M,M,M,M,M,M,M,M,M,M,M,M,M,M,46.34,KMEV 291115Z AUTO 19004KT 10SM CLR 09/02 A3006 RMK AO2,M
MEV,2022-08-29 11:35,-119.7500,38.9963,1441.42,48.20,37.40,66.05,0.00,0.00,0.00,30.07,M,10.00,M,CLR,M,M,M,M,M,M,M,M,M,M,M,M,M,M,48.20,KMEV 291135Z AUTO 00000KT 10SM CLR 09/03 A3007 RMK AO2,M
BVU,2022-08-29 11:35,-114.8611,35.9475,671.00,78.80,62.60,57.60,0.00,0.00,0.00,29.87,M,M,M,M,M,M,M,M,M,M,M,M,M,M,M,M,M,M,78.80,KBVU 291135Z AUTO 00000KT 26/17 A2987 RMK AO2 PWINO TSNO,M
RTS,2022-08-29 11:35,-119.8764,39.6682,1539.00,51.80,30.20,43.32,0.00,0.00,0.00,30.09,M,10.00,M,CLR,M,M,M,M,M,M,M,M,M,M,M,M,M,M,51.80,KRTS 291135Z AUTO 00000KT 10SM CLR 11/M01 A3009 RMK AO2,M
HTH,2022-08-29 11:35,-118.6315,38.5448,1282.89,66.20,28.40,24.04,0.00,0.00,0.00,30.02,M,10.00,M,CLR,M,M,M,M,M,M,M,M,M,M,M,M,M,M,66.20,KHTH 291135Z AUTO 00000KT 10SM CLR 19/M02 A3002 RMK A01,M
CXP,2022-08-29 11:35,-119.7326,39.1923,1431.00,57.20,37.40,47.44,0.00,0.00,0.00,30.08,M,10.00,M,CLR,M,M,M,M,M,M,M,M,M,M,M,M,M,M,57.20,KCXP 291135Z AUTO 00000KT 10SM CLR 14/03 A3008 RMK AO2,M
TMT,2022-08-29 11:35,-117.1971,39.4643,1749.34,41.70,23.00,47.09,0.00,0.00,0.00,30.15,M,10.00,M,CLR,M,M,M,M,M,M,M,M,M,M,M,M,M,M,41.70,KTMT 291135Z AUTO 00000KT 10SM CLR 05/M05 A3015 RMK AO2 T00541050,M
BAM,2022-08-29 11:35,-116.8743,40.5990,1382.36,51.80,19.40,27.62,80.00,3.00,0.00,30.08,M,10.00,M,CLR,M,M,M,M,M,M,M,M,M,M,M,M,M,M,51.80,KBAM 291135Z AUTO 08003KT 10SM CLR 11/M07 A3008 RMK AO1,M
LOL,2022-08-29 11:53,-118.5701,40.0684,1192.43,55.00,25.00,31.11,50.00,8.00,0.00,30.00,1011.80,10.00,M,CLR,M,M,M,M,M,M,M,M,M,M,M,M,M,M,55.00,KLOL 291153Z AUTO 05008KT 10SM CLR 13/M04 A3000 RMK AO2 SLP118 T01281039 10189 20106 53010,M
P68,2022-08-29 11:53,-116.0056,39.6014,1993.00,59.00,26.10,28.18,210.00,8.00,0.00,30.15,1012.10,M,M,M,M,M,M,M,M,M,M,M,M,M,M,M,M,M,59.00,KP68 291153Z AUTO 21008KT 15/M03 A3015 RMK AO1 SLP121 T01501033 10161 20106 52008,M
VGT,2022-08-29 11:53,-115.1933,36.2111,667.00,84.00,56.00,38.28,290.00,4.00,0.00,29.86,1009.60,10.00,M,CLR,M,M,M,M,M,M,M,M,M,M,M,M,M,M,83.03,KVGT 291153Z AUTO 29004KT 10SM CLR 29/13 A2986 RMK AO2 SLP096 T02890133 10344 20289 53009,M
ELY,2022-08-29 11:53,-114.8453,39.2950,1909.00,50.00,37.00,60.79,190.00,9.00,0.00,30.19,1012.80,10.00,M,CLR,M,M,M,M,M,M,M,M,M,M,M,M,M,M,50.00,KELY 291153Z AUTO 19009KT 10SM CLR 10/03 A3019 RMK AO2 SLP128 T01000028 10161 20094 53007,M
DRA,2022-08-29 11:53,-116.0278,36.6206,1009.00,76.00,53.00,45.06,50.00,4.00,0.00,29.94,1008.40,10.00,M,CLR,M,M,M,M,M,M,M,M,M,M,M,M,M,M,75.90,KDRA 291153Z AUTO 05004KT 10SM CLR 24/12 A2994 RMK AO2 SLP084 T02440117 10283 20244 53008,M
MEV,2022-08-29 11:55,-119.7500,38.9963,1441.42,46.40,35.60,65.83,120.00,4.00,0.00,30.07,M,10.00,M,CLR,M,M,M,M,M,M,M,M,M,M,M,M,M,M,44.24,KMEV 291155Z AUTO 12004KT 10SM CLR 08/02 A3007 RMK AO2,M
BAM,2022-08-29 11:55,-116.8743,40.5990,1382.36,50.00,19.40,29.52,340.00,3.00,0.00,30.08,M,10.00,M,CLR,M,M,M,M,M,M,M,M,M,M,M,M,M,M,50.00,KBAM 291155Z AUTO 34003KT 10SM CLR 10/M07 A3008 RMK AO1,M
HTH,2022-08-29 11:55,-118.6315,38.5448,1282.89,66.20,28.40,24.04,260.00,3.00,0.00,30.02,M,10.00,M,CLR,M,M,M,M,M,M,M,M,M,M,M,M,M,M,66.20,KHTH 291155Z AUTO 26003KT 10SM CLR 19/M02 A3002 RMK A01,M
RNO,2022-08-29 11:55,-119.7711,39.4839,1341.00,64.00,40.00,41.09,0.00,0.00,0.00,30.05,1011.50,10.00,M,CLR,M,M,M,M,M,M,M,M,M,M,M,M,M,M,64.00,KRNO 291155Z 00000KT 10SM CLR 18/04 A3005 RMK AO2 SLP115 T01780044 10256 20172 53007,M
BVU,2022-08-29 11:55,-114.8611,35.9475,671.00,78.80,60.80,54.05,0.00,0.00,0.00,29.87,M,M,M,M,M,M,M,M,M,M,M,M,M,M,M,M,M,M,78.80,KBVU 291155Z AUTO 00000KT 26/16 A2987 RMK AO2 PWINO TSNO,M
CXP,2022-08-29 11:55,-119.7326,39.1923,1431.00,57.20,37.40,47.44,0.00,0.00,0.00,30.08,M,10.00,M,CLR,M,M,M,M,M,M,M,M,M,M,M,M,M,M,57.20,KCXP 291155Z AUTO 00000KT 10SM CLR 14/03 A3008 RMK AO2,M
TMT,2022-08-29 11:55,-117.1971,39.4643,1749.34,40.00,22.30,48.65,0.00,0.00,0.00,30.15,M,10.00,M,CLR,M,M,M,M,M,M,M,M,M,M,M,M,M,M,40.10,KTMT 291155Z AUTO 00000KT 10SM CLR 05/M05 A3015 RMK AO2 T00451054,M
RTS,2022-08-29 11:55,-119.8764,39.6682,1539.00,50.00,28.40,43.03,340.00,3.00,0.00,30.09,M,10.00,M,CLR,M,M,M,M,M,M,M,M,M,M,M,M,M,M,50.00,KRTS 291155Z AUTO 34003KT 10SM CLR 10/M02 A3009 RMK AO2,M
WMC,2022-08-29 11:56,-117.8072,40.9019,1315.00,47.00,M,M,110.00,5.00,0.00,30.05,1013.30,10.00,M,CLR,M,M,M,M,M,M,M,M,M,M,M,M,M,M,M,KWMC 291156Z AUTO 11005KT 10SM CLR 08/ A3005 RMK AO2 SLP133 T0083 10172 20078 53010 $,M
TPH,2022-08-29 11:56,-117.0904,38.0505,1654.00,62.00,35.00,36.37,360.00,9.00,0.00,30.13,1011.90,10.00,M,CLR,M,M,M,M,M,M,M,M,M,M,M,M,M,M,62.10,KTPH 291156Z AUTO 36009KT 10SM CLR 17/02 A3013 RMK AO2 SLP119 T01670017 10211 20167 53009,M
LSV,2022-08-29 11:56,-115.0343,36.2362,570.00,83.00,57.60,41.90,40.00,3.00,0.00,29.83,1007.30,10.00,M,CLR,M,M,M,M,M,M,M,M,M,M,M,M,M,M,82.69,KLSV 291156Z AUTO 04003KT 10SM CLR 28/14 A2983 RMK AO2 SLP073 T02840142 10343 20284 52008 $,M
INS,2022-08-29 11:56,-115.6733,36.5872,955.00,73.60,44.20,34.88,0.00,0.00,0.00,29.94,1008.70,10.00,M,CLR,M,M,M,M,M,M,M,M,M,M,M,M,M,M,73.60,KINS 291156Z AUTO 00000KT 10SM CLR 23/07 A2994 RMK AO2 SLP087 T02310068 10295 20230 52010 $,M
LAS,2022-08-29 11:56,-115.1634,36.0719,663.00,85.00,60.00,43.24,200.00,3.00,0.00,29.87,1008.20,10.00,M,CLR,M,M,M,M,M,M,M,M,M,M,M,M,M,M,84.83,KLAS 291156Z 20003KT 10SM CLR 29/16 A2987 RMK AO2 SLP082 T02940156 10333 20294 53008,M
EKO,2022-08-29 11:56,-115.7860,40.8242,1367.00,43.00,28.00,55.14,0.00,0.00,0.00,30.12,1015.90,10.00,M,CLR,M,M,M,M,M,M,M,M,M,M,M,M,M,M,43.00,KEKO 291156Z AUTO 00000KT 10SM CLR 06/M02 A3012 RMK AO2 SLP159 T00611022 10139 20061 53012 $,M
HTH,2022-08-29 12:15,-118.6315,38.5448,1282.89,66.20,28.40,24.04,230.00,3.00,0.00,30.03,M,10.00,M,CLR,M,M,M,M,M,M,M,M,M,M,M,M,M,M,66.20,KHTH 291215Z AUTO 23003KT 10SM CLR 19/M02 A3003 RMK A01,M
BVU,2022-08-29 12:15,-114.8611,35.9475,671.00,78.80,60.80,54.05,10.00,3.00,0.00,29.88,M,M,M,M,M,M,M,M,M,M,M,M,M,M,M,M,M,M,78.80,KBVU 291215Z AUTO 01003KT 26/16 A2988 RMK AO2 PWINO TSNO,M
CXP,2022-08-29 12:15,-119.7326,39.1923,1431.00,55.40,37.40,50.64,200.00,3.00,0.00,30.09,M,10.00,M,CLR,M,M,M,M,M,M,M,M,M,M,M,M,M,M,55.40,KCXP 291215Z AUTO 20003KT 10SM CLR 13/03 A3009 RMK AO2,M
RTS,2022-08-29 12:15,-119.8764,39.6682,1539.00,51.80,32.00,46.59,0.00,0.00,0.00,30.10,M,10.00,M,CLR,M,M,M,M,M,M,M,M,M,M,M,M,M,M,51.80,KRTS 291215Z AUTO 00000KT 10SM CLR 11/M00 A3010 RMK AO2,M
MEV,2022-08-29 12:15,-119.7500,38.9963,1441.42,48.20,35.60,61.52,60.00,5.00,0.00,30.08,M,10.00,M,CLR,M,M,M,M,M,M,M,M,M,M,M,M,M,M,45.63,KMEV 291215Z AUTO 06005KT 10SM CLR 09/02 A3008 RMK AO2,M
BAM,2022-08-29 12:15,-116.8743,40.5990,1382.36,51.80,21.20,29.82,0.00,0.00,0.00,30.09,M,10.00,M,CLR,M,M,M,M,M,M,M,M,M,M,M,M,M,M,51.80,KBAM 291215Z AUTO 00000KT 10SM CLR 11/M06 A3009 RMK AO1,M
TMT,2022-08-29 12:15,-117.1971,39.4643,1749.34,42.00,23.70,48.12,0.00,0.00,0.00,30.16,M,10.00,M,CLR,M,M,M,M,M,M,M,M,M,M,M,M,M,M,41.90,KTMT 291215Z AUTO 00000KT 10SM CLR 06/M05 A3016 RMK AO2 T00551046,M
BAM,2022-08-29 12:35,-116.8743,40.5990,1382.36,46.40,19.40,33.79,0.00,0.00,0.00,30.09,M,10.00,M,CLR,M,M,M,M,M,M,M,M,M,M,M,M,M,M,46.40,KBAM 291235Z AUTO 00000KT 10SM CLR 08/M07 A3009 RMK AO1,M
HTH,2022-08-29 12:35,-118.6315,38.5448,1282.89,66.20,28.40,24.04,220.00,4.00,0.00,30.03,M,10.00,M,CLR,M,M,M,M,M,M,M,M,M,M,M,M,M,M,66.20,KHTH 291235Z AUTO 22004KT 10SM CLR 19/M02 A3003 RMK A01,M
MEV,2022-08-29 12:35,-119.7500,38.9963,1441.42,48.20,35.60,61.52,0.00,0.00,0.00,30.08,M,10.00,M,CLR,M,M,M,M,M,M,M,M,M,M,M,M,M,M,48.20,KMEV 291235Z AUTO 00000KT 10SM CLR 09/02 A3008 RMK AO2,M
RTS,2022-08-29 12:35,-119.8764,39.6682,1539.00,51.80,30.20,43.32,330.00,4.00,0.00,30.10,M,10.00,M,CLR,M,M,M,M,M,M,M,M,M,M,M,M,M,M,51.80,KRTS 291235Z AUTO 33004KT 10SM CLR 11/M01 A3010 RMK AO2,M
CXP,2022-08-29 12:35,-119.7326,39.1923,1431.00,57.20,37.40,47.44,280.00,4.00,0.00,30.09,M,10.00,M,CLR,M,M,M,M,M,M,M,M,M,M,M,M,M,M,57.20,KCXP 291235Z AUTO 28004KT 10SM CLR 14/03 A3009 RMK AO2,M
BVU,2022-08-29 12:35,-114.8611,35.9475,671.00,80.60,60.80,50.95,0.00,0.00,0.00,29.88,M,M,M,M,M,M,M,M,M,M,M,M,M,M,M,M,M,M,81.46,KBVU 291235Z AUTO 00000KT 27/16 A2988 RMK AO2 PWINO TSNO,M
TMT,2022-08-29 12:35,-117.1971,39.4643,1749.34,41.40,25.00,51.80,0.00,0.00,0.00,30.16,M,10.00,M,CLR,M,M,M,M,M,M,M,M,M,M,M,M,M,M,41.40,KTMT 291235Z AUTO 00000KT 10SM CLR 05/M04 A3016 RMK AO2 T00521039,M
ELY,2022-08-29 12:53,-114.8453,39.2950,1909.00,47.00,37.00,68.27,190.00,8.00,0.00,30.21,1013.90,10.00,M,CLR,M,M,M,M,M,M,M,M,M,M,M,M,M,M,42.47,KELY 291253Z AUTO 19008KT 10SM CLR 08/03 A3021 RMK AO2 SLP139 T00830028,M
P68,2022-08-29 12:53,-116.0056,39.6014,1993.00,51.00,28.90,42.16,170.00,5.00,0.00,30.17,1013.10,M,M,M,M,M,M,M,M,M,M,M,M,M,M,M,M,M,51.10,KP68 291253Z AUTO 17005KT 11/M02 A3017 RMK AO1 SLP131 T01061017,M
DRA,2022-08-29 12:53,-116.0278,36.6206,1009.00,76.00,52.00,43.28,50.00,4.00,0.00,29.97,1009.30,10.00,M,CLR,M,M,M,M,M,M,M,M,M,M,M,M,M,M,75.90,KDRA 291253Z AUTO 05004KT 10SM CLR 24/11 A2997 RMK AO2 SLP093 T02440111,M
VGT,2022-08-29 12:53,-115.1933,36.2111,667.00,84.00,57.00,39.83,30.00,3.00,0.00,29.88,1010.20,10.00,M,CLR,M,M,M,M,M,M,M,M,M,M,M,M,M,M,83.26,KVGT 291253Z 03003KT 10SM CLR 29/14 A2988 RMK AO2 SLP102 T02890139,M
LOL,2022-08-29 12:53,-118.5701,40.0684,1192.43,57.00,24.10,27.86,40.00,5.00,0.00,30.00,1011.90,10.00,M,CLR,M,M,M,M,M,M,M,M,M,M,M,M,M,M,57.00,KLOL 291253Z AUTO 04005KT 10SM CLR 14/M04 A3000 RMK AO2 SLP119 T01391044,M
CXP,2022-08-29 12:55,-119.7326,39.1923,1431.00,55.40,37.40,50.64,0.00,0.00,0.00,30.09,M,10.00,M,CLR,M,M,M,M,M,M,M,M,M,M,M,M,M,M,55.40,KCXP 291255Z AUTO 00000KT 10SM CLR 13/03 A3009 RMK AO2,M
TMT,2022-08-29 12:55,-117.1971,39.4643,1749.34,40.00,23.70,52.00,0.00,0.00,0.00,30.16,M,10.00,M,CLR,M,M,M,M,M,M,M,M,M,M,M,M,M,M,39.90,KTMT 291255Z AUTO 00000KT 10SM CLR 04/M05 A3016 RMK AO2 T00441046,M
RTS,2022-08-29 12:55,-119.8764,39.6682,1539.00,50.00,30.20,46.31,340.00,4.00,0.00,30.10,M,10.00,M,CLR,M,M,M,M,M,M,M,M,M,M,M,M,M,M,50.00,KRTS 291255Z AUTO 34004KT 10SM CLR 10/M01 A3010 RMK AO2,M
MEV,2022-08-29 12:55,-119.7500,38.9963,1441.42,48.20,35.60,61.52,0.00,0.00,0.00,30.08,M,10.00,M,CLR,M,M,M,M,M,M,M,M,M,M,M,M,M,M,48.20,KMEV 291255Z AUTO 00000KT 10SM CLR 09/02 A3008 RMK AO2,M
BAM,2022-08-29 12:55,-116.8743,40.5990,1382.36,44.60,17.60,33.49,0.00,0.00,0.00,30.09,M,10.00,M,CLR,M,M,M,M,M,M,M,M,M,M,M,M,M,M,44.60,KBAM 291255Z AUTO 00000KT 10SM CLR 07/M08 A3009 RMK AO1,M
HTH,2022-08-29 12:55,-118.6315,38.5448,1282.89,66.20,28.40,24.04,240.00,4.00,0.00,30.03,M,10.00,M,CLR,M,M,M,M,M,M,M,M,M,M,M,M,M,M,66.20,KHTH 291255Z AUTO 24004KT 10SM CLR 19/M02 A3003 RMK A01,M
BVU,2022-08-29 12:55,-114.8611,35.9475,671.00,78.80,62.60,57.60,0.00,0.00,0.00,29.89,M,M,M,M,M,M,M,M,M,M,M,M,M,M,M,M,M,M,78.80,KBVU 291255Z AUTO 00000KT 26/17 A2989 RMK AO2 PWINO TSNO,M
RNO,2022-08-29 12:55,-119.7711,39.4839,1341.00,62.00,40.00,43.93,180.00,3.00,0.00,30.06,1011.90,10.00,M,CLR,M,M,M,M,M,M,M,M,M,M,M,M,M,M,62.10,KRNO 291255Z 18003KT 10SM CLR 17/04 A3006 RMK AO2 SLP119 T01670044,M
LSV,2022-08-29 12:56,-115.0343,36.2362,570.00,82.00,59.20,45.99,20.00,4.00,0.00,29.86,1008.40,10.00,M,CLR,M,M,M,M,M,M,M,M,M,M,M,M,M,M,82.20,KLSV 291256Z AUTO 02004KT 10SM CLR 28/15 A2986 RMK AO2 SLP084 T02780151 $,M
INS,2022-08-29 12:56,-115.6733,36.5872,955.00,73.60,45.70,36.93,0.00,0.00,0.00,29.96,1009.40,10.00,M,CLR,M,M,M,M,M,M,M,M,M,M,M,M,M,M,73.60,KINS 291256Z AUTO 00000KT 10SM CLR 23/08 A2996 RMK AO2 SLP094 T02310076 $,M
TPH,2022-08-29 12:56,-117.0904,38.0505,1654.00,62.00,36.00,37.69,360.00,9.00,0.00,30.14,1012.50,10.00,M,CLR,M,M,M,M,M,M,M,M,M,M,M,M,M,M,62.10,KTPH 291256Z AUTO 36009KT 10SM CLR 17/02 A3014 RMK AO2 SLP125 T01670022,M
LAS,2022-08-29 12:56,-115.1634,36.0719,663.00,84.00,61.00,45.96,180.00,3.00,0.00,29.89,1009.00,10.00,M,CLR,M,M,M,M,M,M,M,M,M,M,M,M,M,M,84.32,KLAS 291256Z 18003KT 10SM CLR 29/16 A2989 RMK AO2 SLP090 T02890161,M
EKO,2022-08-29 12:56,-115.7860,40.8242,1367.00,42.00,26.10,52.78,0.00,0.00,0.00,30.13,1016.60,10.00,M,CLR,M,M,M,M,M,M,M,M,M,M,M,M,M,M,42.10,KEKO 291256Z AUTO 00000KT 10SM CLR 06/M03 A3013 RMK AO2 SLP166 T00561033 $,M
WMC,2022-08-29 12:56,-117.8072,40.9019,1315.00,47.00,M,M,150.00,7.00,0.00,30.06,1013.80,10.00,M,CLR,M,M,M,M,M,M,M,M,M,M,M,M,M,M,M,KWMC 291256Z AUTO 15007KT 10SM CLR 08/ A3006 RMK AO2 SLP138 T0083 $,M
TMT,2022-08-29 13:15,-117.1971,39.4643,1749.34,41.50,24.30,50.12,0.00,0.00,0.00,30.17,M,10.00,M,CLR,M,M,M,M,M,M,M,M,M,M,M,M,M,M,41.50,KTMT 291315Z AUTO 00000KT 10SM CLR 05/M04 A3017 RMK AO2 T00531043,M
BAM,2022-08-29 13:15,-116.8743,40.5990,1382.36,44.60,17.60,33.49,0.00,0.00,0.00,30.10,M,10.00,M,CLR,M,M,M,M,M,M,M,M,M,M,M,M,M,M,44.60,KBAM 291315Z AUTO 00000KT 10SM CLR 07/M08 A3010 RMK AO1,M
HTH,2022-08-29 13:15,-118.6315,38.5448,1282.89,66.20,28.40,24.04,240.00,4.00,0.00,30.04,M,10.00,M,CLR,M,M,M,M,M,M,M,M,M,M,M,M,M,M,66.20,KHTH 291315Z AUTO 24004KT 10SM CLR 19/M02 A3004 RMK A01,M
BVU,2022-08-29 13:15,-114.8611,35.9475,671.00,78.80,62.60,57.60,50.00,3.00,0.00,29.90,M,M,M,M,M,M,M,M,M,M,M,M,M,M,M,M,M,M,78.80,KBVU 291315Z AUTO 05003KT 26/17 A2990 RMK AO2 PWINO TSNO,M
MEV,2022-08-29 13:15,-119.7500,38.9963,1441.42,46.40,33.80,61.28,110.00,5.00,0.00,30.09,M,10.00,M,CLR,M,M,M,M,M,M,M,M,M,M,M,M,M,M,43.50,KMEV 291315Z AUTO 11005KT 10SM CLR 08/01 A3009 RMK AO2,M
CXP,2022-08-29 13:15,-119.7326,39.1923,1431.00,55.40,39.20,54.34,0.00,0.00,0.00,30.10,M,10.00,M,CLR,M,M,M,M,M,M,M,M,M,M,M,M,M,M,55.40,KCXP 291315Z AUTO 00000KT 10SM CLR 13/04 A3010 RMK AO2,M
RTS,2022-08-29 13:15,-119.8764,39.6682,1539.00,51.80,30.20,43.32,0.00,0.00,0.00,30.11,M,10.00,M,CLR,M,M,M,M,M,M,M,M,M,M,M,M,M,M,51.80,KRTS 291315Z AUTO 00000KT 10SM CLR 11/M01 A3011 RMK AO2,M
BVU,2022-08-29 13:35,-114.8611,35.9475,671.00,78.80,62.60,57.60,0.00,0.00,0.00,29.91,M,M,M,M,M,M,M,M,M,M,M,M,M,M,M,M,M,M,78.80,KBVU 291335Z AUTO 00000KT 26/17 A2991 RMK AO2 PWINO TSNO,M
TMT,2022-08-29 13:35,-117.1971,39.4643,1749.34,40.80,24.30,51.49,0.00,0.00,0.00,30.18,M,10.00,M,CLR,M,M,M,M,M,M,M,M,M,M,M,M,M,M,40.80,KTMT 291335Z AUTO 00000KT 10SM CLR 05/M04 A3018 RMK AO2 T00491043,M
HTH,2022-08-29 13:35,-118.6315,38.5448,1282.89,66.20,28.40,24.04,260.00,5.00,0.00,30.05,M,10.00,M,CLR,M,M,M,M,M,M,M,M,M,M,M,M,M,M,66.20,KHTH 291335Z AUTO 26005KT 10SM CLR 19/M02 A3005 RMK A01,M
BAM,2022-08-29 13:35,-116.8743,40.5990,1382.36,44.60,17.60,33.49,0.00,0.00,0.00,30.11,M,10.00,M,CLR,M,M,M,M,M,M,M,M,M,M,M,M,M,M,44.60,KBAM 291335Z AUTO 00000KT 10SM CLR 07/M08 A3011 RMK AO1,M
MEV,2022-08-29 13:35,-119.7500,38.9963,1441.42,46.40,33.80,61.28,0.00,0.00,0.00,30.09,M,10.00,M,CLR,M,M,M,M,M,M,M,M,M,M,M,M,M,M,46.40,KMEV 291335Z AUTO 00000KT 10SM CLR 08/01 A3009 RMK AO2,M
RTS,2022-08-29 13:35,-119.8764,39.6682,1539.00,51.80,30.20,43.32,360.00,4.00,0.00,30.12,M,10.00,M,CLR,M,M,M,M,M,M,M,M,M,M,M,M,M,M,51.80,KRTS 291335Z AUTO 36004KT 10SM CLR 11/M01 A3012 RMK AO2,M
CXP,2022-08-29 13:35,-119.7326,39.1923,1431.00,53.60,37.40,54.07,0.00,0.00,0.00,30.11,M,10.00,M,CLR,M,M,M,M,M,M,M,M,M,M,M,M,M,M,53.60,KCXP 291335Z AUTO 00000KT 10SM CLR 12/03 A3011 RMK AO2,M
ELY,2022-08-29 13:53,-114.8453,39.2950,1909.00,51.00,38.00,60.46,180.00,7.00,0.00,30.24,1014.80,10.00,M,CLR,M,M,M,M,M,M,M,M,M,M,M,M,M,M,51.10,KELY 291353Z AUTO 18007KT 10SM CLR 11/03 A3024 RMK AO2 SLP148 T01060033,M
P68,2022-08-29 13:53,-116.0056,39.6014,1993.00,53.00,28.90,39.16,180.00,4.00,0.00,30.19,1014.60,M,M,M,M,M,M,M,M,M,M,M,M,M,M,M,M,M,53.10,KP68 291353Z AUTO 18004KT 12/M02 A3019 RMK AO1 SLP146 T01171017,M
LOL,2022-08-29 13:53,-118.5701,40.0684,1192.43,50.00,26.10,39.14,180.00,6.00,0.00,30.03,1013.60,10.00,M,CLR,M,M,M,M,M,M,M,M,M,M,M,M,M,M,50.00,KLOL 291353Z AUTO 18006KT 10SM CLR 10/M03 A3003 RMK AO2 SLP136 T01001033,M
DRA,2022-08-29 13:53,-116.0278,36.6206,1009.00,75.00,53.00,46.44,0.00,0.00,0.00,29.99,1010.40,10.00,M,CLR,M,M,M,M,M,M,M,M,M,M,M,M,M,M,75.00,KDRA 291353Z AUTO 00000KT 10SM CLR 24/12 A2999 RMK AO2 SLP104 T02390117,M
VGT,2022-08-29 13:53,-115.1933,36.2111,667.00,84.00,58.00,41.14,0.00,0.00,0.00,29.91,1011.20,10.00,M,CLR,M,M,M,M,M,M,M,M,M,M,M,M,M,M,83.47,KVGT 291353Z 00000KT 10SM CLR 29/14 A2991 RMK AO2 SLP112 T02890144,M
TMT,2022-08-29 13:55,-117.1971,39.4643,1749.34,44.00,25.70,48.44,0.00,0.00,0.00,30.19,M,10.00,M,CLR,M,M,M,M,M,M,M,M,M,M,M,M,M,M,43.90,KTMT 291355Z AUTO 00000KT 10SM CLR 07/M03 A3019 RMK AO2 T00661035,M
BVU,2022-08-29 13:55,-114.8611,35.9475,671.00,80.60,64.40,57.84,0.00,0.00,0.00,29.92,M,M,M,M,M,M,M,M,M,M,M,M,M,M,M,M,M,M,82.27,KBVU 291355Z AUTO 00000KT 27/18 A2992 RMK AO2 PWINO TSNO,M
CXP,2022-08-29 13:55,-119.7326,39.1923,1431.00,55.40,37.40,50.64,0.00,0.00,0.00,30.11,M,10.00,M,CLR,M,M,M,M,M,M,M,M,M,M,M,M,M,M,55.40,KCXP 291355Z AUTO 00000KT 10SM CLR 13/03 A3011 RMK AO2,M
RNO,2022-08-29 13:55,-119.7711,39.4839,1341.00,63.00,39.00,41.09,0.00,0.00,0.00,30.08,1012.70,10.00,M,CLR,M,M,M,M,M,M,M,M,M,M,M,M,M,M,63.00,KRNO 291355Z 00000KT 10SM CLR 17/04 A3008 RMK AO2 SLP127 T01720039,M
RTS,2022-08-29 13:55,-119.8764,39.6682,1539.00,51.80,30.20,43.32,330.00,3.00,0.00,30.12,M,10.00,M,CLR,M,M,M,M,M,M,M,M,M,M,M,M,M,M,51.80,KRTS 291355Z AUTO 33003KT 10SM CLR 11/M01 A3012 RMK AO2,M
MEV,2022-08-29 13:55,-119.7500,38.9963,1441.42,50.00,32.00,49.81,0.00,0.00,0.00,30.10,M,10.00,M,CLR,M,M,M,M,M,M,M,M,M,M,M,M,M,M,50.00,KMEV 291355Z AUTO 00000KT 10SM CLR 10/00 A3010 RMK AO2,M
BAM,2022-08-29 13:55,-116.8743,40.5990,1382.36,46.40,19.40,33.79,0.00,0.00,0.00,30.12,M,10.00,M,CLR,M,M,M,M,M,M,M,M,M,M,M,M,M,M,46.40,KBAM 291355Z AUTO 00000KT 10SM CLR 08/M07 A3012 RMK AO1,M
HTH,2022-08-29 13:55,-118.6315,38.5448,1282.89,66.20,30.20,25.88,0.00,0.00,0.00,30.06,M,10.00,M,CLR,M,M,M,M,M,M,M,M,M,M,M,M,M,M,66.20,KHTH 291355Z AUTO 00000KT 10SM CLR 19/M01 A3006 RMK A01,M
LAS,2022-08-29 13:56,-115.1634,36.0719,663.00,84.00,59.00,42.80,0.00,0.00,0.00,29.92,1010.10,10.00,M,CLR,M,M,M,M,M,M,M,M,M,M,M,M,M,M,83.75,KLAS 291356Z 00000KT 10SM CLR 29/15 A2992 RMK AO2 SLP101 T02890150,M
LSV,2022-08-29 13:56,-115.0343,36.2362,570.00,83.30,59.70,44.88,20.00,5.00,0.00,29.89,1009.40,10.00,M,CLR,M,M,M,M,M,M,M,M,M,M,M,M,M,M,83.36,KLSV 291356Z AUTO 02005KT 10SM CLR 29/15 A2989 RMK AO2 SLP094 T02850154 $,M
INS,2022-08-29 13:56,-115.6733,36.5872,955.00,72.30,46.60,39.92,0.00,0.00,0.00,29.99,1010.60,10.00,M,CLR,M,M,M,M,M,M,M,M,M,M,M,M,M,M,72.30,KINS 291356Z AUTO 00000KT 10SM CLR 22/08 A2999 RMK AO2 SLP106 T02240081 $,M
WMC,2022-08-29 13:56,-117.8072,40.9019,1315.00,50.00,M,M,140.00,7.00,0.00,30.08,1014.60,10.00,M,CLR,M,M,M,M,M,M,M,M,M,M,M,M,M,M,M,KWMC 291356Z AUTO 14007KT 10SM CLR 10/ A3008 RMK AO2 SLP146 T0100 $,M
EKO,2022-08-29 13:56,-115.7860,40.8242,1367.00,44.00,28.00,52.86,0.00,0.00,0.00,30.16,1017.80,10.00,M,CLR,M,M,M,M,M,M,M,M,M,M,M,M,M,M,44.10,KEKO 291356Z AUTO 00000KT 10SM CLR 07/M02 A3016 RMK AO2 SLP178 T00671022 $,M
TPH,2022-08-29 13:56,-117.0904,38.0505,1654.00,62.00,37.00,39.21,10.00,10.00,0.00,30.16,1013.50,10.00,M,CLR,M,M,M,M,M,M,M,M,M,M,M,M,M,M,62.10,KTPH 291356Z AUTO 01010KT 10SM CLR 17/03 A3016 RMK AO2 SLP135 T01670028,M
TMT,2022-08-29 14:15,-117.1971,39.4643,1749.34,47.30,27.50,45.87,0.00,0.00,0.00,30.20,M,10.00,M,CLR,M,M,M,M,M,M,M,M,M,M,M,M,M,M,47.30,KTMT 291415Z AUTO 00000KT 10SM CLR 09/M02 A3020 RMK AO2 T00851025,M
BVU,2022-08-29 14:15,-114.8611,35.9475,671.00,82.40,64.40,54.55,0.00,0.00,0.00,29.93,M,M,M,M,M,M,M,M,M,M,M,M,M,M,M,M,M,M,83.98,KBVU 291415Z AUTO 00000KT 28/18 A2993 RMK AO2 PWINO TSNO,M
CXP,2022-08-29 14:15,-119.7326,39.1923,1431.00,57.20,39.20,50.91,0.00,0.00,0.00,30.12,M,10.00,M,CLR,M,M,M,M,M,M,M,M,M,M,M,M,M,M,57.20,KCXP 291415Z AUTO 00000KT 10SM CLR 14/04 A3012 RMK AO2,M
RTS,2022-08-29 14:15,-119.8764,39.6682,1539.00,53.60,32.00,43.61,0.00,0.00,0.00,30.13,M,10.00,M,CLR,M,M,M,M,M,M,M,M,M,M,M,M,M,M,53.60,KRTS 291415Z AUTO 00000KT 10SM CLR 12/00 A3013 RMK AO2,M
MEV,2022-08-29 14:15,-119.7500,38.9963,1441.42,51.80,37.40,57.77,0.00,0.00,0.00,30.11,M,10.00,M,CLR,M,M,M,M,M,M,M,M,M,M,M,M,M,M,51.80,KMEV 291415Z AUTO 00000KT 10SM CLR 11/03 A3011 RMK AO2,M
BAM,2022-08-29 14:15,-116.8743,40.5990,1382.36,53.60,21.20,27.91,0.00,0.00,0.00,30.13,M,10.00,M,CLR,M,M,M,M,M,M,M,M,M,M,M,M,M,M,53.60,KBAM 291415Z AUTO 00000KT 10SM CLR 12/M06 A3013 RMK AO1,M
HTH,2022-08-29 14:15,-118.6315,38.5448,1282.89,68.00,30.20,24.32,0.00,0.00,0.00,30.07,M,10.00,M,CLR,M,M,M,M,M,M,M,M,M,M,M,M,M,M,68.00,KHTH 291415Z AUTO 00000KT 10SM CLR 20/M01 A3007 RMK A01,M
CXP,2022-08-29 14:30,-119.7326,39.1923,1431.00,59.00,39.20,47.72,0.00,0.00,0.00,30.12,M,10.00,M,CLR,M,M,M,M,M,M,M,M,M,M,M,M,M,M,59.00,KCXP 291430Z AUTO 00000KT 10SM CLR 15/04 A3012 RMK AO2,M
RTS,2022-08-29 14:35,-119.8764,39.6682,1539.00,57.20,32.00,38.26,0.00,0.00,0.00,30.14,M,10.00,M,CLR,M,M,M,M,M,M,M,M,M,M,M,M,M,M,57.20,KRTS 291435Z AUTO 00000KT 10SM CLR 14/00 A3014 RMK AO2,M
BVU,2022-08-29 14:35,-114.8611,35.9475,671.00,86.00,60.80,42.80,0.00,0.00,0.00,29.94,M,M,M,M,M,M,M,M,M,M,M,M,M,M,M,M,M,M,86.05,KBVU 291435Z AUTO 00000KT 30/16 A2994 RMK AO2 PWINO TSNO,M
MEV,2022-08-29 14:35,-119.7500,38.9963,1441.42,53.60,35.60,50.36,0.00,0.00,0.00,30.12,M,10.00,M,CLR,M,M,M,M,M,M,M,M,M,M,M,M,M,M,53.60,KMEV 291435Z AUTO 00000KT 10SM CLR 12/02 A3012 RMK AO2,M
BAM,2022-08-29 14:35,-116.8743,40.5990,1382.36,55.40,21.20,26.13,0.00,0.00,0.00,30.13,M,10.00,M,CLR,M,M,M,M,M,M,M,M,M,M,M,M,M,M,55.40,KBAM 291435Z AUTO 00000KT 10SM CLR 13/M06 A3013 RMK AO1,M
HTH,2022-08-29 14:35,-118.6315,38.5448,1282.89,69.80,32.00,24.59,0.00,0.00,0.00,30.08,M,10.00,M,CLR,M,M,M,M,M,M,M,M,M,M,M,M,M,M,69.80,KHTH 291435Z AUTO 00000KT 10SM CLR 21/M00 A3008 RMK A01,M
TMT,2022-08-29 14:35,-117.1971,39.4643,1749.34,M,M,M,0.00,0.00,0.00,30.21,M,10.00,M,CLR,M,M,M,M,M,M,M,M,M,M,M,M,M,M,M,KTMT 291435Z AUTO 00000KT 10SM CLR A3021 RMK AO2,M
DRA,2022-08-29 14:53,-116.0278,36.6206,1009.00,81.00,53.00,38.09,0.00,0.00,0.00,30.02,1011.00,10.00,M,CLR,M,M,M,M,M,M,M,M,M,M,M,M,M,M,80.47,KDRA 291453Z AUTO 00000KT 10SM CLR 27/12 A3002 RMK AO2 SLP110 T02720117 51022,M
LOL,2022-08-29 14:53,-118.5701,40.0684,1192.43,59.00,28.00,30.48,230.00,3.00,0.00,30.06,1014.50,10.00,M,CLR,M,M,M,M,M,M,M,M,M,M,M,M,M,M,59.00,KLOL 291453Z AUTO 23003KT 10SM CLR 15/M02 A3006 RMK AO2 SLP145 T01501022 53019,M
VGT,2022-08-29 14:53,-115.1933,36.2111,667.00,88.00,61.00,40.44,40.00,3.00,0.00,29.93,1012.20,10.00,M,CLR,M,M,M,M,M,M,M,M,M,M,M,M,M,M,88.02,KVGT 291453Z 04003KT 10SM CLR 31/16 A2993 RMK AO2 SLP122 T03110161 53024,M
P68,2022-08-29 14:53,-116.0056,39.6014,1993.00,63.00,28.90,27.44,0.00,0.00,0.00,30.21,1015.30,M,M,M,M,M,M,M,M,M,M,M,M,M,M,M,M,M,63.00,KP68 291453Z AUTO 00000KT 17/M02 A3021 RMK AO1 SLP153 T01721017 53016,M
ELY,2022-08-29 14:53,-114.8453,39.2950,1909.00,61.00,40.00,45.67,190.00,6.00,0.00,30.26,1015.40,10.00,M,CLR,M,M,M,M,M,M,M,M,M,M,M,M,M,M,61.00,KELY 291453Z AUTO 19006KT 10SM CLR 16/04 A3026 RMK AO2 SLP154 T01610044 51018,M
TMT,2022-08-29 14:55,-117.1971,39.4643,1749.34,56.00,30.20,37.29,0.00,0.00,0.00,30.22,M,10.00,M,CLR,M,M,M,M,M,M,M,M,M,M,M,M,M,M,55.90,KTMT 291455Z AUTO 00000KT 10SM CLR 13/M01 A3022 RMK AO2 T01331010,M
RNO,2022-08-29 14:55,-119.7711,39.4839,1341.00,66.00,41.00,39.99,0.00,0.00,0.00,30.10,1013.60,10.00,M,CLR,M,M,M,M,M,M,M,M,M,M,M,M,M,M,66.00,KRNO 291455Z 00000KT 10SM CLR 19/05 A3010 RMK AO2 SLP136 T01890050 53015,M
CXP,2022-08-29 14:55,-119.7326,39.1923,1431.00,62.60,41.00,45.04,0.00,0.00,0.00,30.14,M,10.00,M,CLR,M,M,M,M,M,M,M,M,M,M,M,M,M,M,62.60,KCXP 291455Z AUTO 00000KT 10SM CLR 17/05 A3014 RMK AO2,M
BVU,2022-08-29 14:55,-114.8611,35.9475,671.00,86.00,60.80,42.80,0.00,0.00,0.00,29.95,M,M,M,M,M,M,M,M,M,M,M,M,M,M,M,M,M,M,86.05,KBVU 291455Z AUTO 00000KT 30/16 A2995 RMK AO2 PWINO TSNO,M
RTS,2022-08-29 14:55,-119.8764,39.6682,1539.00,60.80,33.80,36.16,0.00,0.00,0.00,30.14,M,10.00,M,CLR,M,M,M,M,M,M,M,M,M,M,M,M,M,M,60.80,KRTS 291455Z AUTO 00000KT 10SM CLR 16/01 A3014 RMK AO2,M
MEV,2022-08-29 14:55,-119.7500,38.9963,1441.42,57.20,35.60,44.19,0.00,0.00,0.00,30.12,M,10.00,M,CLR,M,M,M,M,M,M,M,M,M,M,M,M,M,M,57.20,KMEV 291455Z AUTO 00000KT 10SM CLR 14/02 A3012 RMK AO2,M
BAM,2022-08-29 14:55,-116.8743,40.5990,1382.36,60.80,23.00,23.23,0.00,0.00,0.00,30.14,M,10.00,M,CLR,M,M,M,M,M,M,M,M,M,M,M,M,M,M,60.80,KBAM 291455Z AUTO 00000KT 10SM CLR 16/M05 A3014 RMK AO1,M
HTH,2022-08-29 14:55,-118.6315,38.5448,1282.89,73.40,32.00,21.76,0.00,0.00,0.00,30.08,M,10.00,M,CLR,M,M,M,M,M,M,M,M,M,M,M,M,M,M,73.40,KHTH 291455Z AUTO 00000KT 10SM CLR 23/00 A3008 RMK A01,M
LAS,2022-08-29 14:56,-115.1634,36.0719,663.00,87.00,57.00,36.07,320.00,4.00,0.00,29.94,1010.80,10.00,M,CLR,M,M,M,M,M,M,M,M,M,M,M,M,M,M,85.89,KLAS 291456Z 32004KT 10SM CLR 31/14 A2994 RMK AO2 SLP108 T03060139 53024,M
EKO,2022-08-29 14:56,-115.7860,40.8242,1367.00,55.00,28.00,35.21,0.00,0.00,0.00,30.19,1018.20,10.00,M,CLR,M,M,M,M,M,M,M,M,M,M,M,M,M,M,55.00,KEKO 291456Z AUTO 00000KT 10SM CLR 13/M02 A3019 RMK AO2 SLP182 T01281022 53019 $,M
WMC,2022-08-29 14:56,-117.8072,40.9019,1315.00,62.00,M,M,0.00,0.00,0.00,30.11,1015.20,10.00,M,CLR,M,M,M,M,M,M,M,M,M,M,M,M,M,M,M,KWMC 291456Z AUTO 00000KT 10SM CLR 17/ A3011 RMK AO2 SLP152 T0167 53017 $,M
LSV,2022-08-29 14:56,-115.0343,36.2362,570.00,88.70,59.70,37.77,0.00,0.00,0.00,29.91,1010.00,10.00,M,CLR,M,M,M,M,M,M,M,M,M,M,M,M,M,M,88.22,KLSV 291456Z AUTO 00000KT 10SM CLR 32/15 A2991 RMK AO2 SLP100 T03150154 52025 $,M
NFL,2022-08-29 14:56,-118.7010,39.4166,1199.00,69.00,28.90,22.21,170.00,5.00,0.00,30.06,1014.70,10.00,M,FEW,M,M,M,20000.00,M,M,M,M,M,M,M,M,M,M,69.10,KNFL 291456Z 17005KT 10SM FEW200 21/M02 A3006 RMK SLP147 T02061017 53020,M
INS,2022-08-29 14:56,-115.6733,36.5872,955.00,78.30,46.80,32.92,0.00,0.00,0.00,30.01,1011.10,10.00,M,CLR,M,M,M,M,M,M,M,M,M,M,M,M,M,M,78.30,KINS 291456Z AUTO 00000KT 10SM CLR 26/08 A3001 RMK AO2 SLP111 T02570082 52023 $,M
TPH,2022-08-29 14:56,-117.0904,38.0505,1654.00,70.00,39.00,32.24,10.00,8.00,0.00,30.19,1014.30,10.00,M,CLR,M,M,M,M,M,M,M,M,M,M,M,M,M,M,70.00,KTPH 291456Z AUTO 01008KT 10SM CLR 21/04 A3019 RMK AO2 SLP143 T02110039 53017,M
RTS,2022-08-29 15:15,-119.8764,39.6682,1539.00,64.40,33.80,31.85,0.00,0.00,0.00,30.14,M,10.00,M,CLR,M,M,M,M,M,M,M,M,M,M,M,M,M,M,64.40,KRTS 291515Z AUTO 00000KT 10SM CLR 18/01 A3014 RMK AO2,M
TMT,2022-08-29 15:15,-117.1971,39.4643,1749.34,M,M,M,0.00,0.00,0.00,30.22,M,10.00,M,CLR,M,M,M,M,M,M,M,M,M,M,M,M,M,M,M,KTMT 291515Z AUTO 00000KT 10SM CLR A3022 RMK AO2,M
HTH,2022-08-29 15:15,-118.6315,38.5448,1282.89,73.40,33.80,23.39,0.00,0.00,0.00,30.09,M,10.00,M,CLR,M,M,M,M,M,M,M,M,M,M,M,M,M,M,73.40,KHTH 291515Z AUTO 00000KT 10SM CLR 23/01 A3009 RMK A01,M
BAM,2022-08-29 15:15,-116.8743,40.5990,1382.36,66.20,26.60,22.33,340.00,6.00,0.00,30.15,M,10.00,M,CLR,M,M,M,M,M,M,M,M,M,M,M,M,M,M,66.20,KBAM 291515Z AUTO 34006KT 10SM CLR 19/M03 A3015 RMK AO1,M
MEV,2022-08-29 15:15,-119.7500,38.9963,1441.42,60.80,37.40,41.71,0.00,0.00,0.00,30.13,M,10.00,M,CLR,M,M,M,M,M,M,M,M,M,M,M,M,M,M,60.80,KMEV 291515Z AUTO 00000KT 10SM CLR 16/03 A3013 RMK AO2,M
CXP,2022-08-29 15:15,-119.7326,39.1923,1431.00,64.40,39.20,39.43,0.00,0.00,0.00,30.14,M,10.00,M,CLR,M,M,M,M,M,M,M,M,M,M,M,M,M,M,64.40,KCXP 291515Z AUTO 00000KT 10SM CLR 18/04 A3014 RMK AO2,M
BVU,2022-08-29 15:15,-114.8611,35.9475,671.00,86.00,62.60,45.61,0.00,0.00,0.00,29.95,M,M,M,M,M,M,M,M,M,M,M,M,M,M,M,M,M,M,86.72,KBVU 291515Z AUTO 00000KT 30/17 A2995 RMK AO2 PWINO TSNO,M
HTH,2022-08-29 15:35,-118.6315,38.5448,1282.89,73.40,33.80,23.39,0.00,0.00,0.00,30.09,M,10.00,M,CLR,M,M,M,M,M,M,M,M,M,M,M,M,M,M,73.40,KHTH 291535Z AUTO 00000KT 10SM CLR 23/01 A3009 RMK A01,M
TMT,2022-08-29 15:35,-117.1971,39.4643,1749.34,61.50,31.80,32.55,0.00,0.00,0.00,30.22,M,10.00,M,CLR,M,M,M,M,M,M,M,M,M,M,M,M,M,M,61.50,KTMT 291535Z AUTO 00000KT 10SM CLR 16/00 A3022 RMK AO2 T01641001,M
BVU,2022-08-29 15:35,-114.8611,35.9475,671.00,87.80,62.60,43.07,0.00,0.00,0.00,29.96,M,M,M,M,M,M,M,M,M,M,M,M,M,M,M,M,M,M,88.48,KBVU 291535Z AUTO 00000KT 31/17 A2996 RMK AO2 PWINO TSNO,M
CXP,2022-08-29 15:35,-119.7326,39.1923,1431.00,68.00,37.40,32.43,0.00,0.00,0.00,30.14,M,10.00,M,CLR,M,M,M,M,M,M,M,M,M,M,M,M,M,M,68.00,KCXP 291535Z AUTO 00000KT 10SM CLR 20/03 A3014 RMK AO2,M
RTS,2022-08-29 15:35,-119.8764,39.6682,1539.00,66.20,35.60,32.14,0.00,0.00,0.00,30.14,M,10.00,M,CLR,M,M,M,M,M,M,M,M,M,M,M,M,M,M,66.20,KRTS 291535Z AUTO 00000KT 10SM CLR 19/02 A3014 RMK AO2,M
MEV,2022-08-29 15:35,-119.7500,38.9963,1441.42,64.40,39.20,39.43,0.00,0.00,0.00,30.12,M,9.00,M,CLR,M,M,M,M,M,M,M,M,M,M,M,M,M,M,64.40,KMEV 291535Z AUTO 00000KT 9SM CLR 18/04 A3012 RMK AO2,M
BAM,2022-08-29 15:35,-116.8743,40.5990,1382.36,68.00,26.60,20.98,10.00,5.00,0.00,30.15,M,10.00,M,CLR,M,M,M,M,M,M,M,M,M,M,M,M,M,M,68.00,KBAM 291535Z AUTO 01005KT 10SM CLR 20/M03 A3015 RMK AO1,M
VGT,2022-08-29 15:53,-115.1933,36.2111,667.00,90.00,61.00,37.97,90.00,3.00,0.00,29.95,1012.60,10.00,M,CLR,M,M,M,M,M,M,M,M,M,M,M,M,M,M,90.03,KVGT 291553Z 09003KT 10SM CLR 32/16 A2995 RMK AO2 SLP126 T03220161,M
ELY,2022-08-29 15:53,-114.8453,39.2950,1909.00,71.00,38.00,29.74,170.00,4.00,0.00,30.26,1014.80,10.00,M,CLR,M,M,M,M,M,M,M,M,M,M,M,M,M,M,71.10,KELY 291553Z AUTO 17004KT 10SM CLR 22/03 A3026 RMK AO2 SLP148 T02170033,M
P68,2022-08-29 15:53,-116.0056,39.6014,1993.00,73.00,28.90,19.45,350.00,5.00,0.00,30.21,1014.70,M,M,M,M,M,M,M,M,M,M,M,M,M,M,M,M,M,73.00,KP68 291553Z AUTO 35005KT 23/M02 A3021 RMK AO1 SLP147 T02281017,M
DRA,2022-08-29 15:53,-116.0278,36.6206,1009.00,86.00,55.00,34.74,0.00,0.00,0.00,30.03,1011.30,10.00,M,CLR,M,M,M,M,M,M,M,M,M,M,M,M,M,M,84.46,KDRA 291553Z AUTO 00000KT 10SM CLR 30/13 A3003 RMK AO2 SLP113 T03000128,M
LOL,2022-08-29 15:53,-118.5701,40.0684,1192.43,73.00,26.10,17.33,0.00,0.00,0.00,30.07,1014.10,10.00,M,CLR,M,M,M,M,M,M,M,M,M,M,M,M,M,M,73.00,KLOL 291553Z AUTO 00000KT 10SM CLR 23/M03 A3007 RMK AO2 SLP141 T02281033,M
BAM,2022-08-29 15:55,-116.8743,40.5990,1382.36,71.60,26.60,18.55,40.00,4.00,0.00,30.15,M,10.00,M,CLR,M,M,M,M,M,M,M,M,M,M,M,M,M,M,71.60,KBAM 291555Z AUTO 04004KT 10SM CLR 22/M03 A3015 RMK AO1,M
MEV,2022-08-29 15:55,-119.7500,38.9963,1441.42,68.00,39.20,34.80,0.00,0.00,0.00,30.12,M,10.00,M,CLR,M,M,M,M,M,M,M,M,M,M,M,M,M,M,68.00,KMEV 291555Z AUTO 00000KT 10SM CLR 20/04 A3012 RMK AO2,M
RNO,2022-08-29 15:55,-119.7711,39.4839,1341.00,72.00,41.00,32.56,0.00,0.00,0.00,30.11,1013.50,10.00,M,CLR,M,M,M,M,M,M,M,M,M,M,M,M,M,M,72.00,KRNO 291555Z 00000KT 10SM CLR 22/05 A3011 RMK AO2 SLP135 T02220050,M
BVU,2022-08-29 15:55,-114.8611,35.9475,671.00,89.60,62.60,40.69,0.00,0.00,0.00,29.96,M,M,M,M,M,M,M,M,M,M,M,M,M,M,M,M,M,M,90.32,KBVU 291555Z AUTO 00000KT 32/17 A2996 RMK AO2 PWINO TSNO,M
RTS,2022-08-29 15:55,-119.8764,39.6682,1539.00,69.80,35.60,28.39,0.00,0.00,0.00,30.15,M,10.00,M,CLR,M,M,M,M,M,M,M,M,M,M,M,M,M,M,69.80,KRTS 291555Z AUTO 00000KT 10SM CLR 21/02 A3015 RMK AO2,M
CXP,2022-08-29 15:55,-119.7326,39.1923,1431.00,69.80,37.40,30.49,0.00,0.00,0.00,30.14,M,10.00,M,CLR,M,M,M,M,M,M,M,M,M,M,M,M,M,M,69.80,KCXP 291555Z AUTO 00000KT 10SM CLR 21/03 A3014 RMK AO2,M
TMT,2022-08-29 15:55,-117.1971,39.4643,1749.34,M,M,M,0.00,0.00,0.00,30.22,M,10.00,M,CLR,M,M,M,M,M,M,M,M,M,M,M,M,M,M,M,KTMT 291555Z AUTO 00000KT 10SM CLR A3022 RMK AO2,M
HTH,2022-08-29 15:55,-118.6315,38.5448,1282.89,75.20,32.00,20.49,310.00,5.00,0.00,30.08,M,10.00,M,CLR,M,M,M,M,M,M,M,M,M,M,M,M,M,M,75.20,KHTH 291555Z AUTO 31005KT 10SM CLR 24/M00 A3008 RMK A01,M
LAS,2022-08-29 15:56,-115.1634,36.0719,663.00,91.00,59.00,34.27,0.00,0.00,0.00,29.96,1011.40,10.00,M,CLR,M,M,M,M,M,M,M,M,M,M,M,M,M,M,90.27,KLAS 291556Z 00000KT 10SM CLR 33/15 A2996 RMK AO2 SLP114 T03280150,M
WMC,2022-08-29 15:56,-117.8072,40.9019,1315.00,73.00,30.90,21.10,60.00,11.00,0.00,30.11,1015.00,10.00,M,CLR,M,M,M,M,M,M,M,M,M,M,M,M,M,M,73.00,KWMC 291556Z AUTO 06011KT 10SM CLR 23/M01 A3011 RMK AO2 SLP150 T02281006,M
LSV,2022-08-29 15:56,-115.0343,36.2362,570.00,95.50,60.00,30.99,0.00,0.00,0.00,29.92,1010.30,10.00,M,CLR,M,M,M,M,M,M,M,M,M,M,M,M,M,M,95.54,KLSV 291556Z AUTO 00000KT 10SM CLR 35/16 A2992 RMK AO2 SLP103 T03530156 $,M
INS,2022-08-29 15:56,-115.6733,36.5872,955.00,84.70,49.80,29.91,0.00,0.00,0.00,30.02,1011.10,10.00,M,CLR,M,M,M,M,M,M,M,M,M,M,M,M,M,M,82.58,KINS 291556Z AUTO 00000KT 10SM CLR 29/10 A3002 RMK AO2 SLP111 T02930099 $,M
NFL,2022-08-29 15:56,-118.7010,39.4166,1199.00,73.00,34.00,23.90,230.00,3.00,0.00,30.06,1014.90,10.00,M,CLR,M,M,M,M,M,M,M,M,M,M,M,M,M,M,73.00,KNFL 291556Z 23003KT 10SM CLR 23/01 A3006 RMK SLP149 T02280011,M
EKO,2022-08-29 15:56,-115.7860,40.8242,1367.00,61.00,28.90,29.45,0.00,0.00,0.00,30.19,1018.10,10.00,M,CLR,M,M,M,M,M,M,M,M,M,M,M,M,M,M,61.00,KEKO 291556Z AUTO 00000KT 10SM CLR 16/M02 A3019 RMK AO2 SLP181 T01611017,M
TPH,2022-08-29 15:56,-117.0904,38.0505,1654.00,75.00,45.00,34.31,150.00,4.00,0.00,30.19,1014.20,10.00,M,CLR,M,M,M,M,M,M,M,M,M,M,M,M,M,M,75.00,KTPH 291556Z AUTO 15004KT 10SM CLR 24/07 A3019 RMK AO2 SLP142 T02390072,M
MEV,2022-08-29 16:15,-119.7500,38.9963,1441.42,69.80,37.40,30.49,160.00,4.00,0.00,30.12,M,10.00,M,CLR,M,M,M,M,M,M,M,M,M,M,M,M,M,M,69.80,KMEV 291615Z AUTO 16004KT 10SM CLR 21/03 A3012 RMK AO2,M
BVU,2022-08-29 16:15,-114.8611,35.9475,671.00,89.60,62.60,40.69,M,3.00,0.00,29.96,M,M,M,M,M,M,M,M,M,M,M,M,M,M,M,M,M,M,90.32,KBVU 291615Z AUTO VRB03KT 32/17 A2996 RMK AO2 PWINO TSNO,M
CXP,2022-08-29 16:15,-119.7326,39.1923,1431.00,69.80,37.40,30.49,M,4.00,0.00,30.14,M,10.00,M,CLR,M,M,M,M,M,M,M,M,M,M,M,M,M,M,69.80,KCXP 291615Z AUTO VRB04KT 10SM CLR 21/03 A3014 RMK AO2,M
RTS,2022-08-29 16:15,-119.8764,39.6682,1539.00,71.60,35.60,26.71,0.00,0.00,0.00,30.15,M,10.00,M,CLR,M,M,M,M,M,M,M,M,M,M,M,M,M,M,71.60,KRTS 291615Z AUTO 00000KT 10SM CLR 22/02 A3015 RMK AO2,M
BAM,2022-08-29 16:15,-116.8743,40.5990,1382.36,73.40,28.40,18.80,30.00,6.00,0.00,30.15,M,10.00,M,CLR,M,M,M,M,M,M,M,M,M,M,M,M,M,M,73.40,KBAM 291615Z AUTO 03006KT 10SM CLR 23/M02 A3015 RMK AO1,M
HTH,2022-08-29 16:15,-118.6315,38.5448,1282.89,75.20,30.20,19.05,330.00,3.00,0.00,30.09,M,10.00,M,CLR,M,M,M,M,M,M,M,M,M,M,M,M,M,M,75.20,KHTH 291615Z AUTO 33003KT 10SM CLR 24/M01 A3009 RMK A01,M
TMT,2022-08-29 16:15,-117.1971,39.4643,1749.34,M,M,M,0.00,0.00,0.00,30.22,M,10.00,M,CLR,M,M,M,M,M,M,M,M,M,M,M,M,M,M,M,KTMT 291615Z AUTO 00000KT 10SM CLR A3022 RMK AO2,M
BVU,2022-08-29 16:35,-114.8611,35.9475,671.00,91.40,60.80,36.08,0.00,0.00,0.00,29.97,M,M,M,M,M,M,M,M,M,M,M,M,M,M,M,M,M,M,91.40,KBVU 291635Z AUTO 00000KT 33/16 A2997 RMK AO2 PWINO TSNO,M
MEV,2022-08-29 16:35,-119.7500,38.9963,1441.42,71.60,39.20,30.77,M,3.00,0.00,30.12,M,10.00,M,CLR,M,M,M,M,M,M,M,M,M,M,M,M,M,M,71.60,KMEV 291635Z AUTO VRB03KT 10SM CLR 22/04 A3012 RMK AO2,M
TMT,2022-08-29 16:35,-117.1971,39.4643,1749.34,M,M,M,0.00,0.00,0.00,30.22,M,10.00,M,CLR,M,M,M,M,M,M,M,M,M,M,M,M,M,M,M,KTMT 291635Z AUTO 00000KT 10SM CLR A3022 RMK AO2,M
HTH,2022-08-29 16:35,-118.6315,38.5448,1282.89,77.00,30.20,17.94,0.00,0.00,0.00,30.09,M,10.00,M,CLR,M,M,M,M,M,M,M,M,M,M,M,M,M,M,77.00,KHTH 291635Z AUTO 00000KT 10SM CLR 25/M01 A3009 RMK A01,M
BAM,2022-08-29 16:35,-116.8743,40.5990,1382.36,77.00,28.40,16.67,20.00,6.00,0.00,30.15,M,10.00,M,CLR,M,M,M,M,M,M,M,M,M,M,M,M,M,M,77.00,KBAM 291635Z AUTO 02006KT 10SM CLR 25/M02 A3015 RMK AO1,M
CXP,2022-08-29 16:35,-119.7326,39.1923,1431.00,73.40,39.20,28.96,0.00,0.00,0.00,30.14,M,10.00,M,CLR,M,M,M,M,M,M,M,M,M,M,M,M,M,M,73.40,KCXP 291635Z AUTO 00000KT 10SM CLR 23/04 A3014 RMK AO2,M
RTS,2022-08-29 16:35,-119.8764,39.6682,1539.00,73.40,35.60,25.13,0.00,0.00,0.00,30.15,M,10.00,M,CLR,M,M,M,M,M,M,M,M,M,M,M,M,M,M,73.40,KRTS 291635Z AUTO 00000KT 10SM CLR 23/02 A3015 RMK AO2,M
CXP,2022-08-29 16:50,-119.7326,39.1923,1431.00,73.40,37.40,26.98,0.00,0.00,0.00,30.14,M,10.00,M,CLR,M,M,M,M,M,M,M,M,M,M,M,M,M,M,73.40,KCXP 291650Z AUTO 00000KT 10SM CLR 23/03 A3014 RMK AO2,M
VGT,2022-08-29 16:53,-115.1933,36.2111,667.00,94.00,60.00,32.56,80.00,5.00,0.00,29.96,1013.00,10.00,M,CLR,M,M,M,M,M,M,M,M,M,M,M,M,M,M,93.77,KVGT 291653Z 08005KT 10SM CLR 34/16 A2996 RMK AO2 SLP130 T03440156,M
ELY,2022-08-29 16:53,-114.8453,39.2950,1909.00,78.00,36.00,21.83,190.00,4.00,0.00,30.27,1014.40,10.00,M,CLR,M,M,M,M,M,M,M,M,M,M,M,M,M,M,78.10,KELY 291653Z AUTO 19004KT 10SM CLR 26/02 A3027 RMK AO2 SLP144 T02560022,M
P68,2022-08-29 16:53,-116.0056,39.6014,1993.00,78.00,27.00,15.17,20.00,5.00,0.00,30.23,1015.00,M,M,M,M,M,M,M,M,M,M,M,M,M,M,M,M,M,78.10,KP68 291653Z AUTO 02005KT 26/M03 A3023 RMK AO1 SLP150 T02561028,M
DRA,2022-08-29 16:53,-116.0278,36.6206,1009.00,89.00,54.00,30.36,230.00,3.00,0.00,30.04,1011.60,10.00,M,CLR,M,M,M,M,M,M,M,M,M,M,M,M,M,M,86.98,KDRA 291653Z AUTO 23003KT 10SM CLR 32/12 A3004 RMK AO2 SLP116 T03170122,M
LOL,2022-08-29 16:53,-118.5701,40.0684,1192.43,81.00,30.90,16.18,50.00,6.00,0.00,30.08,1014.10,10.00,M,CLR,M,M,M,M,M,M,M,M,M,M,M,M,M,M,79.04,KLOL 291653Z AUTO 05006KT 10SM CLR 27/M01 A3008 RMK AO2 SLP141 T02721006,M
BAM,2022-08-29 16:55,-116.8743,40.5990,1382.36,78.80,30.20,16.90,10.00,7.00,0.00,30.15,M,10.00,M,CLR,M,M,M,M,M,M,M,M,M,M,M,M,M,M,78.80,KBAM 291655Z AUTO 01007KT 10SM CLR 26/M01 A3015 RMK AO1,M
MEV,2022-08-29 16:55,-119.7500,38.9963,1441.42,73.40,41.00,31.05,0.00,0.00,0.00,30.12,M,10.00,M,CLR,M,M,M,M,M,M,M,M,M,M,M,M,M,M,73.40,KMEV 291655Z AUTO 00000KT 10SM CLR 23/05 A3012 RMK AO2,M
HTH,2022-08-29 16:55,-118.6315,38.5448,1282.89,78.80,33.80,19.55,0.00,0.00,0.00,30.10,M,10.00,M,CLR,M,M,M,M,M,M,M,M,M,M,M,M,M,M,78.80,KHTH 291655Z AUTO 00000KT 10SM CLR 26/01 A3010 RMK A01,M
RTS,2022-08-29 16:55,-119.8764,39.6682,1539.00,75.20,33.80,22.02,M,4.00,0.00,30.15,M,10.00,M,CLR,M,M,M,M,M,M,M,M,M,M,M,M,M,M,75.20,KRTS 291655Z AUTO VRB04KT 10SM CLR 24/01 A3015 RMK AO2,M
TMT,2022-08-29 16:55,-117.1971,39.4643,1749.34,M,M,M,0.00,0.00,0.00,30.22,M,10.00,M,CLR,M,M,M,M,M,M,M,M,M,M,M,M,M,M,M,KTMT 291655Z AUTO 00000KT 10SM CLR A3022 RMK AO2,M
BVU,2022-08-29 16:55,-114.8611,35.9475,671.00,93.20,60.80,34.11,0.00,0.00,0.00,29.97,M,M,M,M,M,M,M,M,M,M,M,M,M,M,M,M,M,M,93.32,KBVU 291655Z AUTO 00000KT 34/16 A2997 RMK AO2 PWINO TSNO,M
RNO,2022-08-29 16:55,-119.7711,39.4839,1341.00,76.00,41.00,28.56,0.00,0.00,0.00,30.11,1013.60,10.00,M,CLR,M,M,M,M,M,M,M,M,M,M,M,M,M,M,75.90,KRNO 291655Z 00000KT 10SM CLR 24/05 A3011 RMK AO2 SLP136 T02440050,M
NFL,2022-08-29 16:56,-118.7010,39.4166,1199.00,81.00,27.00,13.80,340.00,3.00,0.00,30.07,1015.10,10.00,M,CLR,M,M,M,M,M,M,M,M,M,M,M,M,M,M,78.96,KNFL 291656Z 34003KT 10SM CLR 27/M03 A3007 RMK SLP151 T02721028,M
WMC,2022-08-29 16:56,-117.8072,40.9019,1315.00,79.00,33.00,18.88,70.00,8.00,0.00,30.12,1015.30,10.00,M,CLR,M,M,M,M,M,M,M,M,M,M,M,M,M,M,79.00,KWMC 291656Z AUTO 07008KT 10SM CLR 26/01 A3012 RMK AO2 SLP153 T02610006,M
INS,2022-08-29 16:56,-115.6733,36.5872,955.00,87.80,49.60,26.89,0.00,0.00,0.00,30.03,1011.50,10.00,M,CLR,M,M,M,M,M,M,M,M,M,M,M,M,M,M,85.05,KINS 291656Z AUTO 00000KT 10SM CLR 31/10 A3003 RMK AO2 SLP115 T03100098 $,M
TPH,2022-08-29 16:56,-117.0904,38.0505,1654.00,79.00,50.00,36.27,M,M,0.00,30.21,1014.60,10.00,M,CLR,M,M,M,M,M,M,M,M,M,M,M,M,M,M,79.00,KTPH 291656Z AUTO 10SM CLR 26/10 A3021 RMK AO2 SLP146 T02610100,M
LSV,2022-08-29 16:56,-115.0343,36.2362,570.00,101.00,61.70,27.83,0.00,0.00,0.00,29.94,1010.80,10.00,M,CLR,M,M,M,M,M,M,M,M,M,M,M,M,M,M,102.56,KLSV 291656Z AUTO 00000KT 10SM CLR 38/17 A2994 RMK AO2 SLP108 T03830165 $,M
LAS,2022-08-29 16:56,-115.1634,36.0719,663.00,92.00,61.00,35.77,0.00,0.00,0.00,29.97,1011.70,10.00,M,FEW,M,M,M,12000.00,M,M,M,M,M,M,M,M,M,M,92.01,KLAS 291656Z 00000KT 10SM FEW120 33/16 A2997 RMK AO2 SLP117 T03330161,M
EKO,2022-08-29 16:56,-115.7860,40.8242,1367.00,68.00,30.90,25.02,0.00,0.00,0.00,30.20,1018.00,10.00,M,CLR,M,M,M,M,M,M,M,M,M,M,M,M,M,M,68.00,KEKO 291656Z AUTO 00000KT 10SM CLR 20/M01 A3020 RMK AO2 SLP180 T02001006,M
HTH,2022-08-29 17:15,-118.6315,38.5448,1282.89,80.60,35.60,19.79,350.00,6.00,0.00,30.10,M,10.00,M,CLR,M,M,M,M,M,M,M,M,M,M,M,M,M,M,78.94,KHTH 291715Z AUTO 35006KT 10SM CLR 27/02 A3010 RMK A01,M
TMT,2022-08-29 17:15,-117.1971,39.4643,1749.34,M,M,M,0.00,0.00,0.00,30.22,M,10.00,M,CLR,M,M,M,M,M,M,M,M,M,M,M,M,M,M,M,KTMT 291715Z AUTO 00000KT 10SM CLR A3022 RMK AO2,M
BAM,2022-08-29 17:15,-116.8743,40.5990,1382.36,82.40,32.00,16.17,50.00,4.00,0.00,30.15,M,10.00,M,CLR,M,M,M,M,M,M,M,M,M,M,M,M,M,M,80.00,KBAM 291715Z AUTO 05004KT 10SM CLR 28/00 A3015 RMK AO1,M
MEV,2022-08-29 17:15,-119.7500,38.9963,1441.42,77.00,41.00,27.53,0.00,0.00,0.00,30.12,M,10.00,M,CLR,M,M,M,M,M,M,M,M,M,M,M,M,M,M,77.00,KMEV 291715Z AUTO 00000KT 10SM CLR 25/05 A3012 RMK AO2,M
RTS,2022-08-29 17:15,-119.8764,39.6682,1539.00,77.00,32.00,19.30,100.00,5.00,0.00,30.16,M,10.00,M,CLR,M,M,M,M,M,M,M,M,M,M,M,M,M,M,77.00,KRTS 291715Z AUTO 10005KT 10SM CLR 25/00 A3016 RMK AO2,M
CXP,2022-08-29 17:15,-119.7326,39.1923,1431.00,77.00,37.40,23.93,0.00,0.00,0.00,30.14,M,10.00,M,CLR,M,M,M,M,M,M,M,M,M,M,M,M,M,M,77.00,KCXP 291715Z AUTO 00000KT 10SM CLR 25/03 A3014 RMK AO2,M
BVU,2022-08-29 17:15,-114.8611,35.9475,671.00,93.20,60.80,34.11,0.00,0.00,0.00,29.97,M,M,M,M,M,M,M,M,M,M,M,M,M,M,M,M,M,M,93.32,KBVU 291715Z AUTO 00000KT 34/16 A2997 RMK AO2 PWINO TSNO,M
BVU,2022-08-29 17:35,-114.8611,35.9475,671.00,93.20,60.80,34.11,M,5.00,0.00,29.97,M,M,M,M,M,M,M,M,M,M,M,M,M,M,M,M,M,M,93.32,KBVU 291735Z AUTO VRB05KT 34/16 A2997 RMK AO2 PWINO TSNO,M
TMT,2022-08-29 17:35,-117.1971,39.4643,1749.34,M,M,M,0.00,0.00,0.00,30.22,M,10.00,M,CLR,M,M,M,M,M,M,M,M,M,M,M,M,M,M,M,KTMT 291735Z AUTO 00000KT 10SM CLR A3022 RMK AO2,M
CXP,2022-08-29 17:35,-119.7326,39.1923,1431.00,78.80,35.60,21.00,0.00,0.00,0.00,30.13,M,10.00,M,CLR,M,M,M,M,M,M,M,M,M,M,M,M,M,M,78.80,KCXP 291735Z AUTO 00000KT 10SM CLR 26/02 A3013 RMK AO2,M
RTS,2022-08-29 17:35,-119.8764,39.6682,1539.00,78.80,32.00,18.18,M,5.00,0.00,30.16,M,10.00,M,CLR,M,M,M,M,M,M,M,M,M,M,M,M,M,M,78.80,KRTS 291735Z AUTO VRB05KT 10SM CLR 26/00 A3016 RMK AO2,M
MEV,2022-08-29 17:35,-119.7500,38.9963,1441.42,78.80,39.20,24.19,0.00,0.00,0.00,30.12,M,10.00,M,CLR,M,M,M,M,M,M,M,M,M,M,M,M,M,M,78.80,KMEV 291735Z AUTO 00000KT 10SM CLR 26/04 A3012 RMK AO2,M
BAM,2022-08-29 17:35,-116.8743,40.5990,1382.36,84.20,30.20,14.18,40.00,4.00,0.00,30.15,M,10.00,M,CLR,M,M,M,M,M,M,M,M,M,M,M,M,M,M,81.26,KBAM 291735Z AUTO 04004KT 10SM CLR 29/M01 A3015 RMK AO1,M
HTH,2022-08-29 17:35,-118.6315,38.5448,1282.89,80.60,35.60,19.79,330.00,5.00,0.00,30.10,M,10.00,M,CLR,M,M,M,M,M,M,M,M,M,M,M,M,M,M,78.94,KHTH 291735Z AUTO 33005KT 10SM CLR 27/02 A3010 RMK A01,M
ELY,2022-08-29 17:53,-114.8453,39.2950,1909.00,82.00,36.00,19.21,0.00,0.00,0.00,30.27,1014.40,10.00,M,CLR,M,M,M,M,M,M,M,M,M,M,M,M,M,M,79.83,KELY 291753Z AUTO 00000KT 10SM CLR 28/02 A3027 RMK AO2 SLP144 T02780022 10278 20083 52002,M
P68,2022-08-29 17:53,-116.0056,39.6014,1993.00,82.00,30.90,15.66,0.00,0.00,0.00,30.23,1015.10,M,M,M,M,M,M,M,M,M,M,M,M,M,M,M,M,M,79.70,KP68 291753Z AUTO 00000KT 28/M01 A3023 RMK AO1 SLP151 T02781006 10278 20083 51005,M
DRA,2022-08-29 17:53,-116.0278,36.6206,1009.00,93.00,52.00,24.97,180.00,3.00,0.00,30.04,1011.60,10.00,M,CLR,M,M,M,M,M,M,M,M,M,M,M,M,M,M,90.29,KDRA 291753Z AUTO 18003KT 10SM CLR 34/11 A3004 RMK AO2 SLP116 T03390111 10339 20233 51008,M
LOL,2022-08-29 17:53,-118.5701,40.0684,1192.43,86.00,27.00,11.74,M,4.00,0.00,30.08,1014.60,10.00,M,CLR,M,M,M,M,M,M,M,M,M,M,M,M,M,M,82.42,KLOL 291753Z AUTO VRB04KT 10SM CLR 30/M03 A3008 RMK AO2 SLP146 T03001028 10306 20089 51006,M
VGT,2022-08-29 17:53,-115.1933,36.2111,667.00,96.00,60.00,30.43,M,5.00,0.00,29.96,1013.10,10.00,M,CLR,M,M,M,M,M,M,M,M,M,M,M,M,M,M,96.21,KVGT 291753Z VRB05KT 10SM CLR 36/16 A2996 RMK AO2 SLP131 T03560156 10356 20278 51009,M
TMT,2022-08-29 17:55,-117.1971,39.4643,1749.34,M,M,M,0.00,0.00,0.00,30.22,M,10.00,M,CLR,M,M,M,M,M,M,M,M,M,M,M,M,M,M,M,KTMT 291755Z AUTO 00000KT 10SM CLR A3022 RMK AO2,M
RTS,2022-08-29 17:55,-119.8764,39.6682,1539.00,80.60,30.20,15.94,M,5.00,0.00,30.16,M,10.00,M,CLR,M,M,M,M,M,M,M,M,M,M,M,M,M,M,78.77,KRTS 291755Z AUTO VRB05KT 10SM CLR 27/M01 A3016 RMK AO2,M
RNO,2022-08-29 17:55,-119.7711,39.4839,1341.00,81.00,40.00,23.13,80.00,3.00,0.00,30.11,1013.30,10.00,M,CLR,M,M,M,M,M,M,M,M,M,M,M,M,M,M,79.37,KRNO 291755Z 08003KT 10SM CLR 27/04 A3011 RMK AO2 SLP133 T02720044 10283 20156 50002,M
MEV,2022-08-29 17:55,-119.7500,38.9963,1441.42,80.60,37.40,21.25,0.00,0.00,0.00,30.12,M,10.00,M,CLR,M,M,M,M,M,M,M,M,M,M,M,M,M,M,79.02,KMEV 291755Z AUTO 00000KT 10SM CLR 27/03 A3012 RMK AO2,M
BAM,2022-08-29 17:55,-116.8743,40.5990,1382.36,86.00,30.20,13.38,70.00,5.00,0.00,30.15,M,10.00,M,CLR,M,M,M,M,M,M,M,M,M,M,M,M,M,M,82.64,KBAM 291755Z AUTO 07005KT 10SM CLR 30/M01 A3015 RMK AO1,M
BVU,2022-08-29 17:55,-114.8611,35.9475,671.00,95.00,60.80,32.27,0.00,0.00,0.00,29.97,M,M,M,M,M,M,M,M,M,M,M,M,M,M,M,M,M,M,95.30,KBVU 291755Z AUTO 00000KT 35/16 A2997 RMK AO2 PWINO TSNO,M
HTH,2022-08-29 17:55,-118.6315,38.5448,1282.89,82.40,33.80,17.38,330.00,6.00,0.00,30.09,M,10.00,M,CLR,M,M,M,M,M,M,M,M,M,M,M,M,M,M,80.03,KHTH 291755Z AUTO 33006KT 10SM CLR 28/01 A3009 RMK A01,M
CXP,2022-08-29 17:55,-119.7326,39.1923,1431.00,82.40,35.60,18.67,0.00,0.00,0.00,30.13,M,9.00,M,CLR,M,M,M,M,M,M,M,M,M,M,M,M,M,M,80.08,KCXP 291755Z AUTO 00000KT 9SM CLR 28/02 A3013 RMK AO2,M
NFL,2022-08-29 17:56,-118.7010,39.4166,1199.00,85.00,30.00,13.75,M,3.00,0.00,30.08,1015.20,10.00,M,FEW,M,M,M,8000.00,M,M,M,M,M,M,M,M,M,M,81.79,KNFL 291756Z VRB03KT 10SM FEW080 29/M01 A3008 RMK SLP152 T02941011 10294 20139 51005,M
WMC,2022-08-29 17:56,-117.8072,40.9019,1315.00,87.00,32.00,13.90,30.00,13.00,0.00,30.11,1015.00,10.00,20.00,CLR,M,M,M,M,M,M,M,M,M,M,M,M,M,M,83.51,KWMC 291756Z AUTO 03013G20KT 10SM CLR 31/00 A3011 RMK AO2 SLP150 T03060000 10306 20067 50000,M
TPH,2022-08-29 17:56,-117.0904,38.0505,1654.00,83.00,52.00,34.39,M,6.00,0.00,30.21,1014.70,10.00,M,CLR,M,M,M,M,M,M,M,M,M,M,M,M,M,M,81.57,KTPH 291756Z AUTO VRB06KT 10SM CLR 28/11 A3021 RMK AO2 SLP147 T02830111 10283 20161 51007,M
INS,2022-08-29 17:56,-115.6733,36.5872,955.00,91.60,51.80,25.89,130.00,6.00,0.00,30.03,1011.50,10.00,M,CLR,M,M,M,M,M,M,M,M,M,M,M,M,M,M,88.88,KINS 291756Z AUTO 13006KT 10SM CLR 33/11 A3003 RMK AO2 SLP115 T03310110 10332 20217 51004 $,M
EKO,2022-08-29 17:56,-115.7860,40.8242,1367.00,75.00,30.90,19.73,30.00,7.00,0.00,30.19,1017.90,10.00,M,CLR,M,M,M,M,M,M,M,M,M,M,M,M,M,M,75.00,KEKO 291756Z AUTO 03007KT 10SM CLR 24/M01 A3019 RMK AO2 SLP179 T02391006 10239 20044 50001,M
LAS,2022-08-29 17:56,-115.1634,36.0719,663.00,95.00,58.00,29.09,120.00,7.00,0.00,29.97,1011.70,10.00,M,FEW,M,M,M,12000.00,M,M,M,M,M,M,M,M,M,M,94.08,KLAS 291756Z 12007KT 10SM FEW120 35/14 A2997 RMK AO2 SLP117 T03500144 10350 20289 51009,M
LSV,2022-08-29 17:56,-115.0343,36.2362,570.00,102.40,60.80,25.77,0.00,0.00,0.00,29.94,1010.80,10.00,M,CLR,M,M,M,M,M,M,M,M,M,M,M,M,M,M,103.80,KLSV 291756Z AUTO 00000KT 10SM CLR 39/16 A2994 RMK AO2 SLP108 T03910160 10391 20277 51009 $,M
HTH,2022-08-29 18:15,-118.6315,38.5448,1282.89,84.20,33.80,16.39,10.00,5.00,0.00,30.09,M,10.00,M,CLR,M,M,M,M,M,M,M,M,M,M,M,M,M,M,81.30,KHTH 291815Z AUTO 01005KT 10SM CLR 29/01 A3009 RMK A01,M
BVU,2022-08-29 18:15,-114.8611,35.9475,671.00,95.00,59.00,30.26,M,4.00,0.00,29.97,M,M,M,M,M,M,M,M,M,M,M,M,M,M,M,M,M,M,94.51,KBVU 291815Z AUTO VRB04KT 35/15 A2997 RMK AO2 PWINO TSNO,M
CXP,2022-08-29 18:15,-119.7326,39.1923,1431.00,84.20,28.40,13.18,80.00,7.00,0.00,30.12,M,10.00,M,CLR,M,M,M,M,M,M,M,M,M,M,M,M,M,M,81.25,KCXP 291815Z AUTO 08007KT 060V120 10SM CLR 29/M02 A3012 RMK AO2,M
RTS,2022-08-29 18:15,-119.8764,39.6682,1539.00,82.40,32.00,16.17,M,3.00,0.00,30.16,M,10.00,M,CLR,M,M,M,M,M,M,M,M,M,M,M,M,M,M,80.00,KRTS 291815Z AUTO VRB03KT 10SM CLR 28/M00 A3016 RMK AO2,M
MEV,2022-08-29 18:15,-119.7500,38.9963,1441.42,82.40,37.40,20.04,M,3.00,0.00,30.11,M,10.00,M,CLR,M,M,M,M,M,M,M,M,M,M,M,M,M,M,80.14,KMEV 291815Z AUTO VRB03KT 10SM CLR 28/03 A3011 RMK AO2,M
BAM,2022-08-29 18:15,-116.8743,40.5990,1382.36,87.80,30.20,12.64,20.00,5.00,0.00,30.15,M,10.00,M,CLR,M,M,M,M,M,M,M,M,M,M,M,M,M,M,84.01,KBAM 291815Z AUTO 02005KT 10SM CLR 31/M01 A3015 RMK AO1,M
TMT,2022-08-29 18:15,-117.1971,39.4643,1749.34,M,M,M,0.00,0.00,0.00,30.22,M,10.00,M,CLR,M,M,M,M,M,M,M,M,M,M,M,M,M,M,M,KTMT 291815Z AUTO 00000KT 10SM CLR A3022 RMK AO2,M
MEV,2022-08-29 18:35,-119.7500,38.9963,1441.42,84.20,33.80,16.39,M,4.00,0.00,30.11,M,10.00,M,CLR,M,M,M,M,M,M,M,M,M,M,M,M,M,M,81.30,KMEV 291835Z AUTO VRB04KT 10SM CLR 29/01 A3011 RMK AO2,M
BAM,2022-08-29 18:35,-116.8743,40.5990,1382.36,87.80,30.20,12.64,10.00,4.00,0.00,30.15,M,10.00,M,CLR,M,M,M,M,M,M,M,M,M,M,M,M,M,M,84.01,KBAM 291835Z AUTO 01004KT 10SM CLR 31/M01 A3015 RMK AO1,M
HTH,2022-08-29 18:35,-118.6315,38.5448,1282.89,86.00,33.80,15.48,0.00,0.00,0.00,30.09,M,10.00,M,CLR,M,M,M,M,M,M,M,M,M,M,M,M,M,M,82.66,KHTH 291835Z AUTO 00000KT 10SM CLR 30/01 A3009 RMK A01,M
TMT,2022-08-29 18:35,-117.1971,39.4643,1749.34,M,M,M,280.00,7.00,0.00,30.21,M,10.00,M,CLR,M,M,M,M,M,M,M,M,M,M,M,M,M,M,M,KTMT 291835Z AUTO 28007KT 10SM CLR A3021 RMK AO2,M
BVU,2022-08-29 18:35,-114.8611,35.9475,671.00,96.80,59.00,28.63,M,4.00,0.00,29.97,M,M,M,M,M,M,M,M,M,M,M,M,M,M,M,M,M,M,96.50,KBVU 291835Z AUTO VRB04KT 36/15 A2997 RMK AO2 PWINO TSNO,M
CXP,2022-08-29 18:35,-119.7326,39.1923,1431.00,86.00,28.40,12.44,100.00,9.00,0.00,30.12,M,10.00,M,CLR,M,M,M,M,M,M,M,M,M,M,M,M,M,M,82.54,KCXP 291835Z AUTO 10009KT 10SM CLR 30/M02 A3012 RMK AO2,M
RTS,2022-08-29 18:35,-119.8764,39.6682,1539.00,82.40,30.20,15.03,M,4.00,0.00,30.16,M,10.00,M,CLR,M,M,M,M,M,M,M,M,M,M,M,M,M,M,79.97,KRTS 291835Z AUTO VRB04KT 10SM CLR 28/M01 A3016 RMK AO2,M
VGT,2022-08-29 18:53,-115.1933,36.2111,667.00,98.00,57.00,25.61,150.00,6.00,0.00,29.95,1012.70,10.00,M,CLR,M,M,M,M,M,M,M,M,M,M,M,M,M,M,97.13,KVGT 291853Z 15006KT 10SM CLR 37/14 A2995 RMK AO2 SLP127 T03670139,M
LOL,2022-08-29 18:53,-118.5701,40.0684,1192.43,89.00,26.10,10.25,0.00,0.00,0.00,30.07,1014.20,10.00,M,CLR,M,M,M,M,M,M,M,M,M,M,M,M,M,M,84.60,KLOL 291853Z AUTO 00000KT 10SM CLR 32/M03 A3007 RMK AO2 SLP142 T03171033,M
DRA,2022-08-29 18:53,-116.0278,36.6206,1009.00,95.00,52.00,23.47,M,6.00,0.00,30.03,1011.30,10.00,M,CLR,M,M,M,M,M,M,M,M,M,M,M,M,M,M,92.31,KDRA 291853Z AUTO VRB06KT 10SM CLR 35/11 A3003 RMK AO2 SLP113 T03500111,M
ELY,2022-08-29 18:53,-114.8453,39.2950,1909.00,86.00,34.00,15.60,230.00,9.00,0.00,30.26,1013.90,10.00,M,CLR,M,M,M,M,M,M,M,M,M,M,M,M,M,M,82.66,KELY 291853Z AUTO 23009KT 10SM CLR 30/01 A3026 RMK AO2 SLP139 T03000011,M
P68,2022-08-29 18:53,-116.0056,39.6014,1993.00,85.00,33.00,15.59,100.00,5.00,0.00,30.22,1014.60,M,M,M,M,M,M,M,M,M,M,M,M,M,M,M,M,M,81.81,KP68 291853Z AUTO 10005KT 29/01 A3022 RMK AO1 SLP146 T02940006,M
RNO,2022-08-29 18:55,-119.7711,39.4839,1341.00,87.00,37.00,16.97,0.00,0.00,0.00,30.09,1012.50,10.00,M,FEW,M,M,M,9000.00,M,M,M,M,M,M,M,M,M,M,83.59,KRNO 291855Z 00000KT 10SM FEW090 31/03 A3009 RMK AO2 SLP125 T03060028,M
MEV,2022-08-29 18:55,-119.7500,38.9963,1441.42,87.80,32.00,13.59,M,5.00,0.00,30.10,M,10.00,11.00,CLR,M,M,M,M,M,M,M,M,M,M,M,M,M,M,84.08,KMEV 291855Z AUTO VRB05G11KT 10SM CLR 31/M00 A3010 RMK AO2,M
BAM,2022-08-29 18:55,-116.8743,40.5990,1382.36,89.60,30.20,11.94,70.00,4.00,0.00,30.14,M,10.00,M,CLR,M,M,M,M,M,M,M,M,M,M,M,M,M,M,85.34,KBAM 291855Z AUTO 07004KT 10SM CLR 32/M01 A3014 RMK AO1,M
HTH,2022-08-29 18:55,-118.6315,38.5448,1282.89,86.00,33.80,15.48,310.00,4.00,0.00,30.08,M,10.00,M,CLR,M,M,M,M,M,M,M,M,M,M,M,M,M,M,82.66,KHTH 291855Z AUTO 31004KT 10SM CLR 30/01 A3008 RMK A01,M
TMT,2022-08-29 18:55,-117.1971,39.4643,1749.34,M,M,M,270.00,3.00,0.00,30.21,M,10.00,M,CLR,M,M,M,M,M,M,M,M,M,M,M,M,M,M,M,KTMT 291855Z AUTO 27003KT 10SM CLR A3021 RMK AO2,M
BVU,2022-08-29 18:55,-114.8611,35.9475,671.00,98.60,57.20,25.41,M,4.00,0.00,29.96,M,M,M,M,M,M,M,M,M,M,M,M,M,M,M,M,M,M,97.76,KBVU 291855Z AUTO VRB04KT 37/14 A2996 RMK AO2 PWINO TSNO,M
CXP,2022-08-29 18:55,-119.7326,39.1923,1431.00,87.80,28.40,11.74,60.00,9.00,0.00,30.11,M,10.00,15.00,CLR,M,M,M,M,M,M,M,M,M,M,M,M,M,M,83.84,KCXP 291855Z AUTO 06009G15KT 10SM CLR 31/M02 A3011 RMK AO2,M
RTS,2022-08-29 18:55,-119.8764,39.6682,1539.00,84.20,24.80,11.35,140.00,7.00,0.00,30.15,M,10.00,M,CLR,M,M,M,M,M,M,M,M,M,M,M,M,M,M,81.00,KRTS 291855Z AUTO 14007KT 10SM CLR 29/M04 A3015 RMK AO2,M
INS,2022-08-29 18:56,-115.6733,36.5872,955.00,93.70,47.80,20.89,150.00,6.00,0.00,30.01,1010.80,10.00,M,CLR,M,M,M,M,M,M,M,M,M,M,M,M,M,M,90.23,KINS 291856Z AUTO 15006KT 10SM CLR 34/09 A3001 RMK AO2 SLP108 T03430088 $,M
LAS,2022-08-29 18:56,-115.1634,36.0719,663.00,98.00,58.00,26.46,M,4.00,0.00,29.96,1011.50,10.00,M,FEW,M,M,M,12000.00,M,M,M,M,M,M,M,M,M,M,97.49,KLAS 291856Z VRB04KT 10SM FEW120 37/14 A2996 RMK AO2 SLP115 T03670144,M
EKO,2022-08-29 18:56,-115.7860,40.8242,1367.00,80.00,28.00,14.81,0.00,0.00,0.00,30.18,1017.10,10.00,M,CLR,M,M,M,M,M,M,M,M,M,M,M,M,M,M,78.51,KEKO 291856Z AUTO 00000KT 10SM CLR 27/M02 A3018 RMK AO2 SLP171 T02671022,M
WMC,2022-08-29 18:56,-117.8072,40.9019,1315.00,92.00,28.90,10.54,40.00,16.00,0.00,30.10,1014.40,10.00,22.00,CLR,M,M,M,M,M,M,M,M,M,M,M,M,M,M,86.95,KWMC 291856Z AUTO 04016G22KT 10SM CLR 33/M02 A3010 RMK AO2 SLP144 T03331017,M
TPH,2022-08-29 18:56,-117.0904,38.0505,1654.00,85.00,50.00,29.94,200.00,12.00,0.00,30.19,1013.90,10.00,19.00,BKN,BKN,M,M,7000.00,8500.00,M,M,M,M,M,M,M,M,M,82.76,KTPH 291856Z AUTO 20012G19KT 10SM BKN070 BKN085 29/10 A3019 RMK AO2 SLP139 T02940100,M
NFL,2022-08-29 18:56,-118.7010,39.4166,1199.00,89.00,28.00,11.09,0.00,0.00,0.00,30.06,1014.80,10.00,M,SCT,M,M,M,8000.00,M,M,M,M,M,M,M,M,M,M,84.76,KNFL 291856Z 00000KT 10SM SCT080 32/M02 A3006 RMK AO2 SLP148 T03171022,M
LSV,2022-08-29 18:56,-115.0343,36.2362,570.00,104.20,59.00,22.91,20.00,3.00,0.00,29.93,1010.40,10.00,M,CLR,M,M,M,M,M,M,M,M,M,M,M,M,M,M,104.90,KLSV 291856Z AUTO 02003KT 10SM CLR 40/15 A2993 RMK AO2 SLP104 T04010150 $,M
BAM,2022-08-29 19:15,-116.8743,40.5990,1382.36,91.40,30.20,11.28,0.00,0.00,0.00,30.13,M,10.00,M,CLR,M,M,M,M,M,M,M,M,M,M,M,M,M,M,86.71,KBAM 291915Z AUTO 00000KT 10SM CLR 33/M01 A3013 RMK AO1,M
BVU,2022-08-29 19:15,-114.8611,35.9475,671.00,96.80,57.20,26.84,M,5.00,0.00,29.96,M,M,11.00,M,M,M,M,M,M,M,M,M,M,M,M,M,M,M,95.77,KBVU 291915Z AUTO VRB05G11KT 36/14 A2996 RMK AO2 PWINO TSNO,M
CXP,2022-08-29 19:15,-119.7326,39.1923,1431.00,87.80,30.20,12.64,M,4.00,0.00,30.11,M,10.00,11.00,CLR,M,M,M,M,M,M,M,M,M,M,M,M,M,M,84.01,KCXP 291915Z AUTO VRB04G11KT 10SM CLR 31/M01 A3011 RMK AO2,M
RTS,2022-08-29 19:15,-119.8764,39.6682,1539.00,84.20,26.60,12.23,M,5.00,0.00,30.15,M,10.00,15.00,CLR,M,M,M,M,M,M,M,M,M,M,M,M,M,M,81.13,KRTS 291915Z AUTO VRB05G15KT 10SM CLR 29/M03 A3015 RMK AO2,M
MEV,2022-08-29 19:15,-119.7500,38.9963,1441.42,86.00,33.80,15.48,330.00,4.00,0.00,30.10,M,10.00,M,CLR,M,M,M,M,M,M,M,M,M,M,M,M,M,M,82.66,KMEV 291915Z AUTO 33004KT 10SM CLR 30/01 A3010 RMK AO2,M
TMT,2022-08-29 19:15,-117.1971,39.4643,1749.34,M,M,M,0.00,0.00,0.00,30.21,M,10.00,M,CLR,M,M,M,M,M,M,M,M,M,M,M,M,M,M,M,KTMT 291915Z AUTO 00000KT 10SM CLR A3021 RMK AO2,M
HTH,2022-08-29 19:15,-118.6315,38.5448,1282.89,87.80,33.80,14.61,0.00,0.00,0.00,30.07,M,10.00,M,CLR,M,M,M,M,M,M,M,M,M,M,M,M,M,M,84.10,KHTH 291915Z AUTO 00000KT 10SM CLR 31/01 A3007 RMK A01,M
BVU,2022-08-29 19:35,-114.8611,35.9475,671.00,96.80,53.60,23.55,0.00,0.00,0.00,29.95,M,M,11.00,M,M,M,M,M,M,M,M,M,M,M,M,M,M,M,94.59,KBVU 291935Z AUTO 00000G11KT 36/12 A2995 RMK AO2 PWINO TSNO,M
RTS,2022-08-29 19:35,-119.8764,39.6682,1539.00,86.00,28.40,12.44,110.00,6.00,0.00,30.14,M,10.00,13.00,CLR,M,M,M,M,M,M,M,M,M,M,M,M,M,M,82.54,KRTS 291935Z AUTO 11006G13KT 10SM CLR 30/M02 A3014 RMK AO2,M
MEV,2022-08-29 19:35,-119.7500,38.9963,1441.42,87.80,35.60,15.70,M,5.00,0.00,30.09,M,10.00,M,CLR,M,M,M,M,M,M,M,M,M,M,M,M,M,M,84.12,KMEV 291935Z AUTO VRB05KT 10SM CLR 31/02 A3009 RMK AO2,M
TMT,2022-08-29 19:35,-117.1971,39.4643,1749.34,M,M,M,150.00,7.00,0.00,30.20,M,10.00,M,CLR,M,M,M,M,M,M,M,M,M,M,M,M,M,M,M,KTMT 291935Z AUTO 15007KT 10SM CLR A3020 RMK AO2,M
BAM,2022-08-29 19:35,-116.8743,40.5990,1382.36,91.40,30.20,11.28,0.00,0.00,0.00,30.13,M,10.00,M,CLR,M,M,M,M,M,M,M,M,M,M,M,M,M,M,86.71,KBAM 291935Z AUTO 00000KT 10SM CLR 33/M01 A3013 RMK AO1,M
HTH,2022-08-29 19:35,-118.6315,38.5448,1282.89,89.60,33.80,13.80,0.00,0.00,0.00,30.06,M,10.00,M,CLR,M,M,M,M,M,M,M,M,M,M,M,M,M,M,85.59,KHTH 291935Z AUTO 00000KT 10SM CLR 32/01 A3006 RMK A01,M
CXP,2022-08-29 19:35,-119.7326,39.1923,1431.00,87.80,32.00,13.59,M,3.00,0.00,30.10,M,10.00,11.00,CLR,M,M,M,M,M,M,M,M,M,M,M,M,M,M,84.08,KCXP 291935Z AUTO VRB03G11KT 10SM CLR 31/M00 A3010 RMK AO2,M
P68,2022-08-29 19:53,-116.0056,39.6014,1993.00,87.00,28.90,12.26,180.00,7.00,0.00,30.21,1014.50,M,20.00,M,M,M,M,M,M,M,M,M,M,M,M,26.00,190.00,2022-08-29 19:28,83.37,KP68 291953Z AUTO 18007G20KT 31/M02 A3021 RMK AO1 PK WND 19026/1928 SLP145 T03061017,M
LOL,2022-08-29 19:53,-118.5701,40.0684,1192.43,92.00,28.00,10.15,M,4.00,0.00,30.05,1013.60,10.00,M,CLR,M,M,M,M,M,M,M,M,M,M,M,M,M,M,86.87,KLOL 291953Z AUTO VRB04KT 10SM CLR 33/M02 A3005 RMK AO2 SLP136 T03331022,M
VGT,2022-08-29 19:53,-115.1933,36.2111,667.00,100.00,54.00,21.68,M,5.00,0.00,29.94,1012.20,10.00,M,CLR,M,M,M,M,M,M,M,M,M,M,M,M,M,M,98.14,KVGT 291953Z VRB05KT 10SM CLR 38/12 A2994 RMK AO2 SLP122 T03780122,M
ELY,2022-08-29 19:53,-114.8453,39.2950,1909.00,86.00,34.00,15.60,M,5.00,0.00,30.25,1014.00,10.00,M,FEW,M,M,M,11000.00,M,M,M,M,M,M,M,M,M,M,82.66,KELY 291953Z AUTO VRB05KT 10SM FEW110 30/01 A3025 RMK AO2 SLP140 T03000011,M
DRA,2022-08-29 19:53,-116.0278,36.6206,1009.00,96.00,55.00,25.32,M,M,0.00,30.02,1010.80,10.00,M,CLR,M,M,M,M,M,M,M,M,M,M,M,M,M,M,94.27,KDRA 291953Z AUTO 10SM CLR 36/13 A3002 RMK AO2 SLP108 T03560128,M
RTS,2022-08-29 19:55,-119.8764,39.6682,1539.00,86.00,30.20,13.38,50.00,6.00,0.00,30.13,M,10.00,M,CLR,M,M,M,M,M,M,M,M,M,M,M,M,M,M,82.64,KRTS 291955Z AUTO 05006KT 10SM CLR 30/M01 A3013 RMK AO2,M
BVU,2022-08-29 19:55,-114.8611,35.9475,671.00,98.60,55.40,23.81,M,4.00,0.00,29.94,M,M,12.00,M,M,M,M,M,M,M,M,M,M,M,M,M,M,M,97.09,KBVU 291955Z AUTO VRB04G12KT 37/13 A2994 RMK AO2 PWINO TSNO,M
CXP,2022-08-29 19:55,-119.7326,39.1923,1431.00,89.60,32.00,12.84,0.00,0.00,0.00,30.10,M,10.00,M,CLR,M,M,M,M,M,M,M,M,M,M,M,M,M,M,85.54,KCXP 291955Z AUTO 00000KT 10SM CLR 32/00 A3010 RMK AO2,M
RNO,2022-08-29 19:55,-119.7711,39.4839,1341.00,92.00,37.00,14.58,230.00,5.00,0.00,30.07,1011.60,10.00,M,FEW,M,M,M,10000.00,M,M,M,M,M,M,M,M,M,M,87.65,KRNO 291955Z 23005KT 10SM FEW100 33/03 A3007 RMK AO2 SLP116 T03330028,M
TMT,2022-08-29 19:55,-117.1971,39.4643,1749.34,M,M,M,100.00,5.00,0.00,30.20,M,10.00,M,CLR,M,M,M,M,M,M,M,M,M,M,M,M,M,M,M,KTMT 291955Z AUTO 10005KT 10SM CLR A3020 RMK AO2,M
MEV,2022-08-29 19:55,-119.7500,38.9963,1441.42,87.80,35.60,15.70,50.00,6.00,0.00,30.08,M,10.00,M,CLR,M,M,M,M,M,M,M,M,M,M,M,M,M,M,84.12,KMEV 291955Z AUTO 05006KT 10SM CLR 31/02 A3008 RMK AO2,M
BAM,2022-08-29 19:55,-116.8743,40.5990,1382.36,91.40,30.20,11.28,150.00,3.00,0.00,30.12,M,10.00,M,CLR,M,M,M,M,M,M,M,M,M,M,M,M,M,M,86.71,KBAM 291955Z AUTO 15003KT 10SM CLR 33/M01 A3012 RMK AO1,M
HTH,2022-08-29 19:55,-118.6315,38.5448,1282.89,89.60,33.80,13.80,M,3.00,0.00,30.05,M,10.00,M,CLR,M,M,M,M,M,M,M,M,M,M,M,M,M,M,85.59,KHTH 291955Z AUTO VRB03KT 10SM CLR 32/01 A3005 RMK A01,M
NFL,2022-08-29 19:56,-118.7010,39.4166,1199.00,93.00,32.00,11.55,M,5.00,0.00,30.03,1014.00,10.00,M,SCT,M,M,M,8000.00,M,M,M,M,M,M,M,M,M,M,88.15,KNFL 291956Z COR VRB05KT 10SM SCT080 34/00 A3003 RMK AO2 SLP140 T03390000,M
LAS,2022-08-29 19:56,-115.1634,36.0719,663.00,99.00,56.00,23.95,0.00,0.00,0.00,29.95,1011.00,10.00,M,FEW,M,M,M,12000.00,M,M,M,M,M,M,M,M,M,M,97.71,KLAS 291956Z 00000KT 10SM FEW120 37/13 A2995 RMK AO2 SLP110 T03720133,M
LSV,2022-08-29 19:56,-115.0343,36.2362,570.00,108.00,56.70,18.85,200.00,5.00,0.00,29.91,1009.80,10.00,M,CLR,M,M,M,M,M,M,M,M,M,M,M,M,M,M,107.97,KLSV 291956Z AUTO 20005KT 10SM CLR 42/14 A2991 RMK AO2 SLP098 T04220137 $,M
TPH,2022-08-29 19:56,-117.0904,38.0505,1654.00,88.00,47.00,24.15,160.00,15.00,0.00,30.18,1013.70,10.00,23.00,FEW,FEW,M,M,8000.00,11000.00,M,M,M,M,M,M,31.00,200.00,2022-08-29 19:15,84.90,KTPH 291956Z AUTO 16015G23KT 10SM FEW080 FEW110 31/08 A3018 RMK AO2 PK WND 20031/1915 SLP137 T03110083,M
INS,2022-08-29 19:56,-115.6733,36.5872,955.00,97.30,42.00,14.94,100.00,11.00,0.00,29.99,1009.90,10.00,19.00,CLR,M,M,M,M,M,M,M,M,M,M,M,M,M,M,92.95,KINS 291956Z AUTO 10011G19KT 10SM CLR 36/06 A2999 RMK AO2 SLP099 T03630055 $,M
EKO,2022-08-29 19:56,-115.7860,40.8242,1367.00,83.00,28.90,14.02,0.00,0.00,0.00,30.16,1016.80,10.00,M,CLR,M,M,M,M,M,M,M,M,M,M,M,M,M,M,80.30,KEKO 291956Z AUTO 00000KT 10SM CLR 28/M02 A3016 RMK AO2 SLP168 T02831017,M
WMC,2022-08-29 19:56,-117.8072,40.9019,1315.00,95.00,24.10,7.85,50.00,11.00,0.00,30.08,1013.70,10.00,19.00,M,M,M,M,M,M,M,M,M,M,M,M,M,M,M,88.85,KWMC 291956Z AUTO 05011G19KT 10SM 35/M04 A3008 RMK AO2 SLP137 T03501044 PWINO $,M
INS,2022-08-29 19:57,-115.6733,36.5872,955.00,96.80,41.00,14.66,140.00,14.00,0.00,29.99,1009.90,10.00,19.00,CLR,M,M,M,M,M,M,M,M,M,M,M,M,M,M,92.39,KINS 291957Z AUTO 14014G19KT 10SM CLR 36/05 A2999 RMK AO2 WSHFT 55 SLP099 $,M
INS,2022-08-29 20:09,-115.6733,36.5872,955.00,96.80,41.00,14.66,100.00,11.00,0.00,29.99,1010.10,10.00,19.00,CLR,M,M,M,M,M,M,M,M,M,M,M,M,M,M,92.39,KINS 292009Z AUTO 10011G19KT 10SM CLR 36/05 A2999 RMK AO2 WSHFT 06 SLP101 $,M
BAM,2022-08-29 20:15,-116.8743,40.5990,1382.36,91.40,30.20,11.28,340.00,5.00,0.00,30.11,M,10.00,M,CLR,M,M,M,M,M,M,M,M,M,M,M,M,M,M,86.71,KBAM 292015Z AUTO 34005KT 10SM CLR 33/M01 A3011 RMK AO1,M
BVU,2022-08-29 20:15,-114.8611,35.9475,671.00,100.40,55.40,22.54,330.00,6.00,0.00,29.93,M,M,M,M,M,M,M,M,M,M,M,M,M,M,M,M,M,M,99.06,KBVU 292015Z AUTO 33006KT 38/13 A2993 RMK AO2 PWINO TSNO,M
CXP,2022-08-29 20:15,-119.7326,39.1923,1431.00,89.60,32.00,12.84,M,4.00,0.00,30.09,M,10.00,M,CLR,M,M,M,M,M,M,M,M,M,M,M,M,M,M,85.54,KCXP 292015Z AUTO VRB04KT 10SM CLR 32/00 A3009 RMK AO2,M
TMT,2022-08-29 20:15,-117.1971,39.4643,1749.34,M,M,M,200.00,5.00,0.00,30.20,M,10.00,M,CLR,M,M,M,M,M,M,M,M,M,M,M,M,M,M,M,KTMT 292015Z AUTO 20005KT 10SM CLR A3020 RMK AO2,M
RTS,2022-08-29 20:15,-119.8764,39.6682,1539.00,86.00,30.20,13.38,M,3.00,0.00,30.12,M,10.00,11.00,CLR,M,M,M,M,M,M,M,M,M,M,M,M,M,M,82.64,KRTS 292015Z AUTO VRB03G11KT 10SM CLR 30/M01 A3012 RMK AO2,M
MEV,2022-08-29 20:15,-119.7500,38.9963,1441.42,89.60,37.40,15.92,M,3.00,0.00,30.07,M,10.00,M,CLR,M,M,M,M,M,M,M,M,M,M,M,M,M,M,85.67,KMEV 292015Z AUTO VRB03KT 10SM CLR 32/03 A3007 RMK AO2,M
HTH,2022-08-29 20:15,-118.6315,38.5448,1282.89,91.40,37.40,15.05,10.00,5.00,0.00,30.04,M,10.00,M,FEW,M,M,M,11000.00,M,M,M,M,M,M,M,M,M,M,87.23,KHTH 292015Z AUTO 01005KT 10SM FEW110 33/03 A3004 RMK A01,M
BVU,2022-08-29 20:35,-114.8611,35.9475,671.00,98.60,55.40,23.81,M,3.00,0.00,29.93,M,M,10.00,M,M,M,M,M,M,M,M,M,M,M,M,M,M,M,97.09,KBVU 292035Z AUTO VRB03G10KT 37/13 A2993 RMK AO2 PWINO TSNO,M
CXP,2022-08-29 20:35,-119.7326,39.1923,1431.00,91.40,33.80,13.05,0.00,0.00,0.00,30.08,M,9.00,M,CLR,M,M,M,M,M,M,M,M,M,M,M,M,M,M,87.13,KCXP 292035Z AUTO 00000KT 9SM CLR 33/01 A3008 RMK AO2,M
RTS,2022-08-29 20:35,-119.8764,39.6682,1539.00,89.60,32.00,12.84,100.00,9.00,0.00,30.12,M,10.00,16.00,CLR,M,M,M,M,M,M,M,M,M,M,M,M,M,M,85.54,KRTS 292035Z AUTO 10009G16KT 10SM CLR 32/M00 A3012 RMK AO2,M
MEV,2022-08-29 20:35,-119.7500,38.9963,1441.42,89.60,37.40,15.92,M,4.00,0.00,30.06,M,10.00,M,CLR,M,M,M,M,M,M,M,M,M,M,M,M,M,M,85.67,KMEV 292035Z AUTO VRB04KT 10SM CLR 32/03 A3006 RMK AO2,M
BAM,2022-08-29 20:35,-116.8743,40.5990,1382.36,95.00,30.20,10.09,360.00,5.00,0.00,30.11,M,10.00,M,CLR,M,M,M,M,M,M,M,M,M,M,M,M,M,M,89.48,KBAM 292035Z AUTO 36005KT 10SM CLR 35/M01 A3011 RMK AO1,M
HTH,2022-08-29 20:35,-118.6315,38.5448,1282.89,91.40,39.20,16.15,20.00,6.00,0.00,30.03,M,10.00,M,FEW,M,M,M,11000.00,M,M,M,M,M,M,M,M,M,M,87.30,KHTH 292035Z AUTO 02006KT 10SM FEW110 33/04 A3003 RMK A01,M
TMT,2022-08-29 20:35,-117.1971,39.4643,1749.34,M,M,M,350.00,5.00,0.00,30.19,M,10.00,M,CLR,M,M,M,M,M,M,M,M,M,M,M,M,M,M,M,KTMT 292035Z AUTO 35005KT 10SM CLR A3019 RMK AO2,M
INS,2022-08-29 20:50,-115.6733,36.5872,955.00,98.60,41.00,13.87,130.00,16.00,0.00,29.98,1009.70,10.00,M,CLR,M,M,M,M,M,M,M,M,M,M,M,M,M,M,94.09,KINS 292050Z AUTO 13016KT 10SM CLR 37/05 A2998 RMK AO2 WSHFT 37 SLP097 $,M
LOL,2022-08-29 20:53,-118.5701,40.0684,1192.43,95.00,33.00,11.34,M,M,0.00,30.03,1012.50,10.00,M,CLR,M,M,M,M,M,M,M,M,M,M,M,M,M,M,89.86,KLOL 292053Z AUTO 10SM CLR 35/01 A3003 RMK AO2 SLP125 T03500006 58016,M
VGT,2022-08-29 20:53,-115.1933,36.2111,667.00,101.00,54.00,21.10,140.00,6.00,0.00,29.92,1011.40,10.00,16.00,CLR,M,M,M,M,M,M,M,M,M,M,M,M,M,M,99.11,KVGT 292053Z 14006G16KT 10SM CLR 38/12 A2992 RMK AO2 SLP114 T03830122 58014,M
DRA,2022-08-29 20:53,-116.0278,36.6206,1009.00,98.00,48.00,18.39,M,M,0.00,30.00,1010.10,10.00,M,CLR,M,M,M,M,M,M,M,M,M,M,M,M,M,M,94.63,KDRA 292053Z AUTO 10SM CLR 37/09 A3000 RMK AO2 SLP101 T03670089 58012,M
ELY,2022-08-29 20:53,-114.8453,39.2950,1909.00,86.00,35.00,16.30,200.00,6.00,0.00,30.24,1013.80,10.00,M,CLR,M,M,M,M,M,M,M,M,M,M,M,M,M,M,82.68,KELY 292053Z AUTO 20006KT 10SM CLR 30/02 A3024 RMK AO2 SLP138 T03000017 58008,M
P68,2022-08-29 20:53,-116.0056,39.6014,1993.00,88.00,30.90,12.92,M,3.00,0.00,30.19,1013.70,M,M,M,M,M,M,M,M,M,M,M,M,M,M,27.00,160.00,2022-08-29 20:26,84.22,KP68 292053Z AUTO VRB03KT 31/M01 A3019 RMK AO1 PK WND 16027/2026 SLP137 T03111006 58012,M
MEV,2022-08-29 20:55,-119.7500,38.9963,1441.42,89.60,37.40,15.92,M,4.00,0.00,30.06,M,10.00,10.00,CLR,M,M,M,M,M,M,M,M,M,M,M,M,M,M,85.67,KMEV 292055Z AUTO VRB04G10KT 10SM CLR 32/03 A3006 RMK AO2,M
TMT,2022-08-29 20:55,-117.1971,39.4643,1749.34,M,M,M,210.00,7.00,0.00,30.18,M,10.00,18.00,CLR,M,M,M,M,M,M,M,M,M,M,M,M,M,M,M,KTMT 292055Z AUTO 21007G18KT 170V250 10SM CLR A3018 RMK AO2,M
RTS,2022-08-29 20:55,-119.8764,39.6682,1539.00,89.60,32.00,12.84,120.00,11.00,0.00,30.11,M,10.00,M,CLR,M,M,M,M,M,M,M,M,M,M,M,M,M,M,85.54,KRTS 292055Z AUTO 12011KT 090V150 10SM CLR 32/M00 A3011 RMK AO2,M
BVU,2022-08-29 20:55,-114.8611,35.9475,671.00,98.60,51.80,20.87,0.00,0.00,0.00,29.92,M,M,M,M,M,M,M,M,M,M,M,M,M,M,M,M,M,M,96.00,KBVU 292055Z AUTO 00000KT 37/11 A2992 RMK AO2 PWINO TSNO,M
CXP,2022-08-29 20:55,-119.7326,39.1923,1431.00,89.60,33.80,13.80,0.00,0.00,0.00,30.08,M,10.00,12.00,CLR,M,M,M,M,M,M,M,M,M,M,M,M,M,M,85.59,KCXP 292055Z AUTO 00000G12KT 10SM CLR 32/01 A3008 RMK AO2,M
HTH,2022-08-29 20:55,-118.6315,38.5448,1282.89,93.20,39.20,15.27,M,5.00,0.00,30.02,M,10.00,M,BKN,M,M,M,11000.00,M,M,M,M,M,M,M,M,M,M,88.92,KHTH 292055Z AUTO VRB05KT 10SM BKN110 34/04 A3002 RMK A01,M
RNO,2022-08-29 20:55,-119.7711,39.4839,1341.00,94.00,38.00,14.20,M,3.00,0.00,30.05,1011.00,10.00,M,FEW,M,M,M,10000.00,M,M,M,M,M,M,M,M,M,M,89.48,KRNO 292055Z VRB03KT 10SM FEW100 34/03 A3005 RMK AO2 SLP110 T03440033 58019,M
BAM,2022-08-29 20:55,-116.8743,40.5990,1382.36,95.00,30.20,10.09,40.00,3.00,0.00,30.10,M,10.00,M,CLR,M,M,M,M,M,M,M,M,M,M,M,M,M,M,89.48,KBAM 292055Z AUTO 04003KT 10SM CLR 35/M01 A3010 RMK AO1,M
EKO,2022-08-29 20:56,-115.7860,40.8242,1367.00,90.00,30.00,11.70,0.00,0.00,0.00,30.15,1015.40,10.00,M,CLR,M,M,M,M,M,M,M,M,M,M,M,M,M,M,85.63,KEKO 292056Z AUTO 00000KT 10SM CLR 32/M01 A3015 RMK AO2 SLP154 T03221011 58014,M
TPH,2022-08-29 20:56,-117.0904,38.0505,1654.00,90.00,43.00,19.55,180.00,13.00,0.00,30.16,1012.90,10.00,24.00,FEW,M,M,M,10000.00,M,M,M,M,M,M,M,M,M,M,86.29,KTPH 292056Z AUTO 18013G24KT 10SM FEW100 32/06 A3016 RMK AO2 SLP129 T03220061 57013,M
WMC,2022-08-29 20:56,-117.8072,40.9019,1315.00,96.00,25.00,7.88,30.00,10.00,0.00,30.07,1013.40,10.00,19.00,CLR,M,M,M,M,M,M,M,M,M,M,M,M,M,M,89.84,KWMC 292056Z AUTO 03010G19KT 10SM CLR 36/M04 A3007 RMK AO2 SLP134 T03561039 58012 $,M
INS,2022-08-29 20:56,-115.6733,36.5872,955.00,97.20,43.50,15.94,120.00,10.00,0.00,29.98,1009.70,10.00,M,FEW,M,M,M,14000.00,M,M,M,M,M,M,M,M,M,M,93.04,KINS 292056Z AUTO 12010KT 10SM FEW140 36/06 A2998 RMK AO2 SLP097 T03620064 57014 $,M
LSV,2022-08-29 20:56,-115.0343,36.2362,570.00,108.00,53.80,16.92,0.00,0.00,0.00,29.89,1009.20,10.00,M,CLR,M,M,M,M,M,M,M,M,M,M,M,M,M,M,106.74,KLSV 292056Z AUTO 00000KT 10SM CLR 42/12 A2989 RMK AO2 SLP092 T04230121 57016 $,M
LAS,2022-08-29 20:56,-115.1634,36.0719,663.00,102.00,56.00,21.88,70.00,11.00,0.00,29.93,1010.30,10.00,M,FEW,M,M,M,12000.00,M,M,M,M,M,M,M,M,M,M,101.01,KLAS 292056Z 07011KT 10SM FEW120 39/13 A2993 RMK AO2 SLP103 T03890133 58013,M
NFL,2022-08-29 20:56,-118.7010,39.4166,1199.00,96.00,33.00,10.97,M,6.00,0.00,30.01,1013.10,10.00,M,SCT,M,M,M,8000.00,M,M,M,M,M,M,M,M,M,M,90.76,KNFL 292056Z VRB06KT 10SM SCT080 36/01 A3001 RMK AO2 SLP131 T03560006 58021,M
TMT,2022-08-29 21:15,-117.1971,39.4643,1749.34,M,M,M,270.00,6.00,0.00,30.18,M,10.00,14.00,CLR,M,M,M,M,M,M,M,M,M,M,M,M,M,M,M,KTMT 292115Z AUTO 27006G14KT 10SM CLR A3018 RMK AO2,M
CXP,2022-08-29 21:15,-119.7326,39.1923,1431.00,91.40,35.60,14.02,0.00,0.00,0.00,30.07,M,10.00,19.00,CLR,M,M,M,M,M,M,M,M,M,M,M,M,M,M,87.17,KCXP 292115Z AUTO 00000G19KT 10SM CLR 33/02 A3007 RMK AO2,M
BVU,2022-08-29 21:15,-114.8611,35.9475,671.00,100.40,55.40,22.54,170.00,5.00,0.00,29.91,M,M,11.00,M,M,M,M,M,M,M,M,M,M,M,M,M,M,M,99.06,KBVU 292115Z AUTO 17005G11KT 38/13 A2991 RMK AO2 PWINO TSNO,M
MEV,2022-08-29 21:15,-119.7500,38.9963,1441.42,93.20,37.40,14.23,M,5.00,0.00,30.05,M,10.00,M,CLR,M,M,M,M,M,M,M,M,M,M,M,M,M,M,88.83,KMEV 292115Z AUTO VRB05KT 10SM CLR 34/03 A3005 RMK AO2,M
HTH,2022-08-29 21:15,-118.6315,38.5448,1282.89,93.20,39.20,15.27,200.00,10.00,0.00,30.01,M,10.00,M,FEW,M,M,M,11000.00,M,M,M,M,M,M,M,M,M,M,88.92,KHTH 292115Z AUTO 20010KT 10SM FEW110 34/04 A3001 RMK A01,M
RTS,2022-08-29 21:15,-119.8764,39.6682,1539.00,87.80,32.00,13.59,120.00,4.00,0.00,30.11,M,10.00,11.00,CLR,M,M,M,M,M,M,M,M,M,M,M,M,M,M,84.08,KRTS 292115Z AUTO 12004G11KT 10SM CLR 31/M00 A3011 RMK AO2,M
BAM,2022-08-29 21:15,-116.8743,40.5990,1382.36,96.80,30.20,9.55,170.00,6.00,0.00,30.09,M,10.00,M,CLR,M,M,M,M,M,M,M,M,M,M,M,M,M,M,90.96,KBAM 292115Z AUTO 17006KT 10SM CLR 36/M01 A3009 RMK AO1,M
CXP,2022-08-29 21:35,-119.7326,39.1923,1431.00,93.20,35.60,13.25,M,5.00,0.00,30.06,M,10.00,16.00,CLR,M,M,M,M,M,M,M,M,M,M,M,M,M,M,88.76,KCXP 292135Z AUTO VRB05G16KT 10SM CLR 34/02 A3006 RMK AO2,M
RTS,2022-08-29 21:35,-119.8764,39.6682,1539.00,89.60,30.20,11.94,150.00,8.00,0.00,30.10,M,10.00,15.00,CLR,M,M,M,M,M,M,M,M,M,M,M,M,M,M,85.34,KRTS 292135Z AUTO 15008G15KT 10SM CLR 32/M01 A3010 RMK AO2,M
MEV,2022-08-29 21:35,-119.7500,38.9963,1441.42,91.40,35.60,14.02,0.00,0.00,0.00,30.04,M,10.00,M,FEW,M,M,M,12000.00,M,M,M,M,M,M,M,M,M,M,87.17,KMEV 292135Z AUTO 00000KT 10SM FEW120 33/02 A3004 RMK AO2,M
BVU,2022-08-29 21:35,-114.8611,35.9475,671.00,100.40,53.60,21.11,190.00,8.00,0.00,29.90,M,M,M,M,M,M,M,M,M,M,M,M,M,M,M,M,M,M,98.44,KBVU 292135Z AUTO 19008KT 38/12 A2990 RMK AO2 PWINO TSNO,M
BAM,2022-08-29 21:35,-116.8743,40.5990,1382.36,96.80,32.00,10.27,360.00,4.00,0.00,30.08,M,10.00,M,CLR,M,M,M,M,M,M,M,M,M,M,M,M,M,M,91.19,KBAM 292135Z AUTO 36004KT 10SM CLR 36/00 A3008 RMK AO1,M
HTH,2022-08-29 21:35,-118.6315,38.5448,1282.89,96.80,37.40,12.73,150.00,12.00,0.00,30.00,M,10.00,19.00,CLR,M,M,M,M,M,M,M,M,M,M,M,M,M,M,92.04,KHTH 292135Z AUTO 15012G19KT 10SM CLR 36/03 A3000 RMK A01,M
TMT,2022-08-29 21:35,-117.1971,39.4643,1749.34,M,M,M,220.00,3.00,0.00,30.17,M,10.00,M,CLR,M,M,M,M,M,M,M,M,M,M,M,M,M,M,M,KTMT 292135Z AUTO 22003KT 10SM CLR A3017 RMK AO2,M
VGT,2022-08-29 21:53,-115.1933,36.2111,667.00,102.00,53.00,19.75,260.00,5.00,0.00,29.89,1010.70,10.00,M,CLR,M,M,M,M,M,M,M,M,M,M,M,M,M,M,100.00,KVGT 292153Z 26005KT 10SM CLR 39/12 A2989 RMK AO2 SLP107 T03890117,M
ELY,2022-08-29 21:53,-114.8453,39.2950,1909.00,87.00,35.00,15.74,M,M,0.00,30.22,1013.20,10.00,M,CLR,M,M,M,M,M,M,M,M,M,M,M,M,M,M,83.55,KELY 292153Z AUTO 10SM CLR 31/02 A3022 RMK AO2 SLP132 T03060017,M
LOL,2022-08-29 21:53,-118.5701,40.0684,1192.43,96.00,33.00,10.97,M,3.00,0.00,30.01,1012.10,10.00,M,CLR,M,M,M,M,M,M,M,M,M,M,M,M,M,M,90.76,KLOL 292153Z AUTO VRB03KT 10SM CLR 36/01 A3001 RMK AO2 SLP121 T03560006,M
DRA,2022-08-29 21:53,-116.0278,36.6206,1009.00,100.00,45.00,15.50,210.00,13.00,0.00,29.98,1009.30,10.00,19.00,CLR,M,M,M,M,M,M,M,M,M,M,M,M,M,M,95.99,KDRA 292153Z AUTO 21013G19KT 10SM CLR 38/07 A2998 RMK AO2 SLP093 T03780072,M
P68,2022-08-29 21:53,-116.0056,39.6014,1993.00,87.00,33.00,14.53,130.00,8.00,0.00,30.18,1013.40,M,M,M,M,M,M,M,M,M,M,M,M,M,M,M,M,M,83.52,KP68 292153Z AUTO 13008KT 31/01 A3018 RMK AO1 SLP134 T03060006,M
RTS,2022-08-29 21:55,-119.8764,39.6682,1539.00,89.60,28.40,11.09,180.00,8.00,0.00,30.10,M,10.00,M,CLR,M,M,M,M,M,M,M,M,M,M,M,M,M,M,85.17,KRTS 292155Z AUTO 18008KT 10SM CLR 32/M02 A3010 RMK AO2,M
MEV,2022-08-29 21:55,-119.7500,38.9963,1441.42,91.40,35.60,14.02,40.00,8.00,0.00,30.04,M,10.00,M,FEW,M,M,M,12000.00,M,M,M,M,M,M,M,M,M,M,87.17,KMEV 292155Z AUTO 04008KT 10SM FEW120 33/02 A3004 RMK AO2,M
BAM,2022-08-29 21:55,-116.8743,40.5990,1382.36,95.00,32.00,10.85,70.00,7.00,0.00,30.08,M,10.00,M,CLR,M,M,M,M,M,M,M,M,M,M,M,M,M,M,89.71,KBAM 292155Z AUTO 07007KT 10SM CLR 35/00 A3008 RMK AO1,M
HTH,2022-08-29 21:55,-118.6315,38.5448,1282.89,96.80,37.40,12.73,160.00,13.00,0.00,29.99,M,10.00,21.00,CLR,M,M,M,M,M,M,M,M,M,M,M,M,M,M,92.04,KHTH 292155Z AUTO 16013G21KT 10SM CLR 36/03 A2999 RMK A01,M
TMT,2022-08-29 21:55,-117.1971,39.4643,1749.34,M,M,M,280.00,5.00,0.00,30.16,M,10.00,17.00,CLR,M,M,M,M,M,M,M,M,M,M,M,M,M,M,M,KTMT 292155Z AUTO 28005G17KT 10SM CLR A3016 RMK AO2,M
BVU,2022-08-29 21:55,-114.8611,35.9475,671.00,102.20,53.60,20.00,230.00,6.00,0.00,29.90,M,M,M,M,M,M,M,M,M,M,M,M,M,M,M,M,M,M,100.38,KBVU 292155Z AUTO 23006KT 39/12 A2990 RMK AO2 PWINO TSNO,M
CXP,2022-08-29 21:55,-119.7326,39.1923,1431.00,91.40,35.60,14.02,70.00,8.00,0.00,30.06,M,10.00,13.00,CLR,M,M,M,M,M,M,M,M,M,M,M,M,M,M,87.17,KCXP 292155Z AUTO 07008G13KT 10SM CLR 33/02 A3006 RMK AO2,M
RNO,2022-08-29 21:55,-119.7711,39.4839,1341.00,93.00,39.00,15.24,0.00,0.00,0.00,30.03,1010.40,10.00,M,SCT,M,M,M,10000.00,M,M,M,M,M,M,M,M,M,M,88.73,KRNO 292155Z 00000KT 10SM SCT100 34/04 A3003 RMK AO2 SLP104 T03390039,M
LSV,2022-08-29 21:56,-115.0343,36.2362,570.00,109.00,52.70,15.87,250.00,4.00,0.00,29.86,1008.10,10.00,M,CLR,M,M,M,M,M,M,M,M,M,M,M,M,M,M,107.11,KLSV 292156Z AUTO 25004KT 10SM CLR 43/12 A2986 RMK AO2 SLP081 T04270115 $,M
INS,2022-08-29 21:56,-115.6733,36.5872,955.00,99.30,45.00,15.89,120.00,17.00,0.00,29.96,1009.10,10.00,M,FEW,M,M,M,13000.00,M,M,M,M,M,M,M,M,M,M,95.32,KINS 292156Z AUTO 12017KT 10SM FEW130 37/07 A2996 RMK AO2 SLP091 T03740073 $,M
LAS,2022-08-29 21:56,-115.1634,36.0719,663.00,101.00,55.00,21.89,M,4.00,0.00,29.90,1009.20,10.00,15.00,FEW,M,M,M,12000.00,M,M,M,M,M,M,M,M,M,M,99.46,KLAS 292156Z VRB04G15KT 10SM FEW120 38/13 A2990 RMK AO2 SLP092 T03830128,M
TPH,2022-08-29 21:56,-117.0904,38.0505,1654.00,90.00,39.00,16.74,190.00,12.00,0.00,30.15,1012.30,10.00,25.00,FEW,M,M,M,10000.00,M,M,M,M,M,M,M,27.00,200.00,2022-08-29 21:39,86.07,KTPH 292156Z AUTO 19012G25KT 10SM FEW100 32/04 A3015 RMK AO2 PK WND 20027/2139 SLP123 T03220039,M
WMC,2022-08-29 21:56,-117.8072,40.9019,1315.00,97.00,26.10,8.02,M,4.00,0.00,30.05,1012.70,10.00,M,CLR,M,M,M,M,M,M,M,M,M,M,M,M,M,M,90.68,KWMC 292156Z AUTO VRB04KT 10SM CLR 36/M03 A3005 RMK AO2 SLP127 T03611033,M
EKO,2022-08-29 21:56,-115.7860,40.8242,1367.00,85.00,30.00,13.75,M,3.00,0.00,30.12,1015.50,10.00,M,CLR,M,M,M,M,M,M,M,M,M,M,M,M,M,M,81.79,KEKO 292156Z AUTO VRB03KT 10SM CLR 29/M01 A3012 RMK AO2 SLP155 T02941011,M
NFL,2022-08-29 21:56,-118.7010,39.4166,1199.00,96.00,35.00,11.88,310.00,11.00,0.00,29.98,1012.30,10.00,M,SCT,M,M,M,8000.00,M,M,M,M,M,M,M,M,M,M,91.07,KNFL 292156Z 31011KT 10SM SCT080 36/02 A2998 RMK AO2 SLP123 T03560017,M
P68,2022-08-29 22:13,-116.0056,39.6014,1993.00,89.00,32.00,13.05,160.00,17.00,0.00,30.17,M,M,24.00,M,M,M,M,M,M,M,M,M,M,M,M,M,M,M,85.15,KP68 292213Z AUTO 16017G24KT 32/00 A3017 RMK AO1 WSHFT 2156 T03170000,M
CXP,2022-08-29 22:15,-119.7326,39.1923,1431.00,93.20,35.60,13.25,M,6.00,0.00,30.05,M,10.00,M,CLR,M,M,M,M,M,M,M,M,M,M,M,M,M,M,88.76,KCXP 292215Z AUTO VRB06KT 10SM CLR 34/02 A3005 RMK AO2,M
MEV,2022-08-29 22:15,-119.7500,38.9963,1441.42,93.20,35.60,13.25,M,4.00,0.00,30.03,M,10.00,M,CLR,M,M,M,M,M,M,M,M,M,M,M,M,M,M,88.76,KMEV 292215Z AUTO VRB04KT 10SM CLR 34/02 A3003 RMK AO2,M
BVU,2022-08-29 22:15,-114.8611,35.9475,671.00,102.20,53.60,20.00,360.00,5.00,0.00,29.89,M,M,M,M,M,M,M,M,M,M,M,M,M,M,M,M,M,M,100.38,KBVU 292215Z AUTO 36005KT 39/12 A2989 RMK AO2 PWINO TSNO,M
RTS,2022-08-29 22:15,-119.8764,39.6682,1539.00,89.60,30.20,11.94,M,4.00,0.00,30.09,M,10.00,M,CLR,M,M,M,M,M,M,M,M,M,M,M,M,M,M,85.34,KRTS 292215Z AUTO VRB04KT 10SM CLR 32/M01 A3009 RMK AO2,M
TMT,2022-08-29 22:15,-117.1971,39.4643,1749.34,M,M,M,240.00,8.00,0.00,30.16,M,10.00,M,CLR,M,M,M,M,M,M,M,M,M,M,M,M,M,M,M,KTMT 292215Z AUTO 24008KT 10SM CLR A3016 RMK AO2,M
BAM,2022-08-29 22:15,-116.8743,40.5990,1382.36,95.00,32.00,10.85,350.00,3.00,0.00,30.07,M,10.00,M,CLR,M,M,M,M,M,M,M,M,M,M,M,M,M,M,89.71,KBAM 292215Z AUTO 35003KT 10SM CLR 35/00 A3007 RMK AO1,M
HTH,2022-08-29 22:15,-118.6315,38.5448,1282.89,96.80,39.20,13.66,160.00,8.00,0.00,29.98,M,10.00,17.00,CLR,M,M,M,M,M,M,M,M,M,M,M,M,M,M,92.23,KHTH 292215Z AUTO 16008G17KT 140V210 10SM CLR 36/04 A2998 RMK A01,M
RTS,2022-08-29 22:35,-119.8764,39.6682,1539.00,89.60,30.20,11.94,100.00,6.00,0.00,30.09,M,10.00,12.00,CLR,M,M,M,M,M,M,M,M,M,M,M,M,M,M,85.34,KRTS 292235Z AUTO 10006G12KT 10SM CLR 32/M01 A3009 RMK AO2,M
CXP,2022-08-29 22:35,-119.7326,39.1923,1431.00,93.20,35.60,13.25,340.00,11.00,0.00,30.03,M,10.00,M,CLR,M,M,M,M,M,M,M,M,M,M,M,M,M,M,88.76,KCXP 292235Z AUTO 34011KT 310V010 10SM CLR 34/02 A3003 RMK AO2,M
BVU,2022-08-29 22:35,-114.8611,35.9475,671.00,102.20,51.80,18.72,M,3.00,0.00,29.88,M,M,M,M,M,M,M,M,M,M,M,M,M,M,M,M,M,M,99.80,KBVU 292235Z AUTO VRB03KT 39/11 A2988 RMK AO2 PWINO TSNO,M
TMT,2022-08-29 22:35,-117.1971,39.4643,1749.34,M,M,M,290.00,8.00,0.00,30.15,M,10.00,M,SCT,M,M,M,12000.00,M,M,M,M,M,M,M,M,M,M,M,KTMT 292235Z AUTO 29008KT 10SM SCT120 A3015 RMK AO2,M
HTH,2022-08-29 22:35,-118.6315,38.5448,1282.89,95.00,39.20,14.44,160.00,5.00,0.00,29.98,M,10.00,19.00,CLR,M,M,M,M,M,M,M,M,M,M,M,M,M,M,90.57,KHTH 292235Z AUTO 16005G19KT 10SM CLR 35/04 A2998 RMK A01,M
BAM,2022-08-29 22:35,-116.8743,40.5990,1382.36,96.80,32.00,10.27,290.00,8.00,0.00,30.06,M,10.00,M,CLR,M,M,M,M,M,M,M,M,M,M,M,M,M,M,91.19,KBAM 292235Z AUTO 29008KT 280V340 10SM CLR 36/00 A3006 RMK AO1,M
MEV,2022-08-29 22:35,-119.7500,38.9963,1441.42,93.20,35.60,13.25,M,5.00,0.00,30.02,M,10.00,15.00,CLR,M,M,M,M,M,M,M,M,M,M,M,M,M,M,88.76,KMEV 292235Z AUTO VRB05G15KT 10SM CLR 34/02 A3002 RMK AO2,M
INS,2022-08-29 22:36,-115.6733,36.5872,955.00,98.60,42.80,14.87,80.00,10.00,0.00,29.94,1008.40,10.00,22.00,FEW,M,M,M,13000.00,M,M,M,M,M,M,M,M,M,M,94.30,KINS 292236Z AUTO 08010G22KT 10SM FEW130 37/06 A2994 RMK AO2 WSHFT 30 SLP084 $,M
INS,2022-08-29 22:45,-115.6733,36.5872,955.00,98.60,42.80,14.87,130.00,13.00,0.00,29.94,1008.40,10.00,18.00,SCT,M,M,M,12000.00,M,M,M,M,M,M,M,M,M,M,94.30,KINS 292245Z AUTO 13013G18KT 10SM SCT120 37/06 A2994 RMK AO2 WSHFT 41 SLP084 $,M
VGT,2022-08-29 22:53,-115.1933,36.2111,667.00,104.00,52.00,17.87,130.00,7.00,0.00,29.87,1009.90,10.00,M,CLR,M,M,M,M,M,M,M,M,M,M,M,M,M,M,101.76,KVGT 292253Z 13007KT 10SM CLR 40/11 A2987 RMK AO2 SLP099 T04000111,M
ELY,2022-08-29 22:53,-114.8453,39.2950,1909.00,88.00,35.00,15.29,150.00,7.00,0.00,30.21,1012.80,10.00,M,FEW,M,M,M,11000.00,M,M,M,M,M,M,M,M,M,M,84.28,KELY 292253Z AUTO 15007KT 10SM FEW110 31/02 A3021 RMK AO2 SLP128 T03110017,M
DRA,2022-08-29 22:53,-116.0278,36.6206,1009.00,101.00,39.00,11.97,230.00,8.00,0.00,29.96,1008.60,10.00,20.00,CLR,M,M,M,M,M,M,M,M,M,M,M,M,M,M,95.82,KDRA 292253Z AUTO 23008G20KT 10SM CLR 38/04 A2996 RMK AO2 SLP086 T03830039,M
P68,2022-08-29 22:53,-116.0056,39.6014,1993.00,87.00,32.00,13.90,190.00,8.00,0.00,30.16,1012.80,M,17.00,M,M,M,M,M,M,M,M,M,M,M,M,M,M,M,83.51,KP68 292253Z AUTO 19008G17KT 31/00 A3016 RMK AO1 WSHFT 2156 SLP128 T03060000,M
LOL,2022-08-29 22:53,-118.5701,40.0684,1192.43,96.00,34.00,11.37,220.00,7.00,0.00,29.98,1011.20,10.00,M,CLR,M,M,M,M,M,M,M,M,M,M,M,M,M,M,90.89,KLOL 292253Z AUTO 22007KT 10SM CLR 36/01 A2998 RMK AO2 SLP112 T03560011,M
RTS,2022-08-29 22:55,-119.8764,39.6682,1539.00,89.60,30.20,11.94,120.00,5.00,0.00,30.08,M,10.00,13.00,CLR,M,M,M,M,M,M,M,M,M,M,M,M,M,M,85.34,KRTS 292255Z AUTO 12005G13KT 10SM CLR 32/M01 A3008 RMK AO2,M
BVU,2022-08-29 22:55,-114.8611,35.9475,671.00,104.00,50.00,16.59,0.00,0.00,0.00,29.88,M,M,M,M,M,M,M,M,M,M,M,M,M,M,M,M,M,M,101.14,KBVU 292255Z AUTO 00000KT 40/10 A2988 RMK AO2 PWINO TSNO,M
MEV,2022-08-29 22:55,-119.7500,38.9963,1441.42,93.20,35.60,13.25,M,4.00,0.00,30.02,M,10.00,M,CLR,M,M,M,M,M,M,M,M,M,M,M,M,M,M,88.76,KMEV 292255Z AUTO VRB04KT 10SM CLR 34/02 A3002 RMK AO2,M
BAM,2022-08-29 22:55,-116.8743,40.5990,1382.36,96.80,32.00,10.27,340.00,7.00,0.00,30.05,M,10.00,14.00,CLR,M,M,M,M,M,M,M,M,M,M,M,M,M,M,91.19,KBAM 292255Z AUTO 34007G14KT 10SM CLR 36/00 A3005 RMK AO1,M
CXP,2022-08-29 22:55,-119.7326,39.1923,1431.00,91.40,35.60,14.02,M,5.00,0.00,30.03,M,10.00,M,SCT,M,M,M,12000.00,M,M,M,M,M,M,M,M,M,M,87.17,KCXP 292255Z AUTO VRB05KT 10SM SCT120 33/02 A3003 RMK AO2,M
RNO,2022-08-29 22:55,-119.7711,39.4839,1341.00,95.00,39.00,14.33,320.00,5.00,0.00,30.00,1009.60,10.00,M,SCT,M,M,M,12000.00,M,M,M,M,M,M,M,M,M,M,90.55,KRNO 292255Z 32005KT 10SM SCT120 35/04 A3000 RMK AO2 SLP096 T03500039,M
HTH,2022-08-29 22:55,-118.6315,38.5448,1282.89,95.00,39.20,14.44,M,6.00,0.00,29.97,M,10.00,16.00,CLR,M,M,M,M,M,M,M,M,M,M,M,M,M,M,90.57,KHTH 292255Z AUTO VRB06G16KT 110V180 10SM CLR 35/04 A2997 RMK A01,M
TMT,2022-08-29 22:55,-117.1971,39.4643,1749.34,M,M,M,240.00,3.00,0.00,30.15,M,10.00,M,SCT,M,M,M,12000.00,M,M,M,M,M,M,M,M,M,M,M,KTMT 292255Z AUTO 24003KT 10SM SCT120 A3015 RMK AO2,M
WMC,2022-08-29 22:56,-117.8072,40.9019,1315.00,97.00,27.00,8.32,190.00,7.00,0.00,30.03,1011.90,10.00,M,CLR,M,M,M,M,M,M,M,M,M,M,M,M,M,M,90.77,KWMC 292256Z AUTO 19007KT 160V250 10SM CLR 36/M03 A3003 RMK AO2 SLP119 T03611028,M
LAS,2022-08-29 22:56,-115.1634,36.0719,663.00,102.00,52.00,18.97,190.00,7.00,0.00,29.88,1008.50,10.00,M,FEW,FEW,M,M,12000.00,18000.00,M,M,M,M,M,M,M,M,M,99.65,KLAS 292256Z 19007KT 10SM FEW120TCU FEW180 39/11 A2988 RMK AO2 SLP085 TCU E-S CB DSNT E-S T03890111,M
TPH,2022-08-29 22:56,-117.0904,38.0505,1654.00,91.00,37.00,15.00,190.00,17.00,0.00,30.13,1011.80,10.00,24.00,CLR,M,M,M,M,M,M,M,M,M,M,M,26.00,170.00,2022-08-29 22:09,86.86,KTPH 292256Z AUTO 19017G24KT 10SM CLR 33/03 A3013 RMK AO2 PK WND 17026/2209 SLP118 T03280028,M
EKO,2022-08-29 22:56,-115.7860,40.8242,1367.00,88.00,30.00,12.46,350.00,6.00,0.00,30.11,1014.50,10.00,M,CLR,M,M,M,M,M,M,M,M,M,M,M,M,M,M,84.13,KEKO 292256Z AUTO 35006KT 10SM CLR 31/M01 A3011 RMK AO2 SLP145 T03111011,M
LSV,2022-08-29 22:56,-115.0343,36.2362,570.00,107.40,51.60,15.93,0.00,0.00,0.00,29.84,1007.50,10.00,M,CLR,M,M,M,M,M,M,M,M,M,M,M,M,M,M,105.15,KLSV 292256Z AUTO 00000KT 10SM CLR 42/11 A2984 RMK AO2 SLP075 T04190109 $,M
INS,2022-08-29 22:56,-115.6733,36.5872,955.00,97.70,44.00,15.94,150.00,14.00,0.00,29.94,1008.40,10.00,M,FEW,M,M,M,12000.00,M,M,M,M,M,M,M,M,M,M,93.58,KINS 292256Z AUTO 15014KT 10SM FEW120 37/07 A2994 RMK AO2 SLP084 T03650066 $,M
NFL,2022-08-29 22:56,-118.7010,39.4166,1199.00,98.00,35.00,11.17,320.00,8.00,0.00,29.95,1011.60,10.00,M,SCT,M,M,M,8000.00,M,M,M,M,M,M,M,M,M,M,92.73,KNFL 292256Z 32008KT 10SM SCT080 37/02 A2995 RMK AO2 SLP116 T03670017,M
BAM,2022-08-29 23:15,-116.8743,40.5990,1382.36,95.00,32.00,10.85,320.00,6.00,0.00,30.05,M,10.00,M,CLR,M,M,M,M,M,M,M,M,M,M,M,M,M,M,89.71,KBAM 292315Z AUTO 32006KT 10SM CLR 35/00 A3005 RMK AO1,M
HTH,2022-08-29 23:15,-118.6315,38.5448,1282.89,96.80,39.20,13.66,180.00,16.00,0.00,29.97,M,10.00,M,CLR,M,M,M,M,M,M,M,M,M,M,M,M,M,M,92.23,KHTH 292315Z AUTO 18016KT 10SM CLR 36/04 A2997 RMK A01,M
TMT,2022-08-29 23:15,-117.1971,39.4643,1749.34,M,M,M,190.00,8.00,0.00,30.14,M,10.00,16.00,SCT,M,M,M,12000.00,M,M,M,M,M,M,M,M,M,M,M,KTMT 292315Z AUTO 19008G16KT 10SM SCT120 A3014 RMK AO2,M
BVU,2022-08-29 23:15,-114.8611,35.9475,671.00,102.20,48.20,16.37,170.00,6.00,0.00,29.87,M,M,13.00,M,M,M,M,M,M,M,M,M,M,M,M,M,M,M,98.83,KBVU 292315Z AUTO 17006G13KT 39/09 A2987 RMK AO2 PWINO TSNO,M
CXP,2022-08-29 23:15,-119.7326,39.1923,1431.00,91.40,35.60,14.02,0.00,0.00,0.00,30.03,M,10.00,M,FEW,M,M,M,12000.00,M,M,M,M,M,M,M,M,M,M,87.17,KCXP 292315Z AUTO 00000KT 10SM FEW120 33/02 A3003 RMK AO2,M
RTS,2022-08-29 23:15,-119.8764,39.6682,1539.00,89.60,32.00,12.84,M,6.00,0.00,30.08,M,10.00,11.00,CLR,M,M,M,M,M,M,M,M,M,M,M,M,M,M,85.54,KRTS 292315Z AUTO VRB06G11KT 10SM CLR 32/M00 A3008 RMK AO2,M
MEV,2022-08-29 23:15,-119.7500,38.9963,1441.42,89.60,35.60,14.83,0.00,0.00,0.00,30.02,M,10.00,M,FEW,M,M,M,12000.00,M,M,M,M,M,M,M,M,M,M,85.62,KMEV 292315Z AUTO 00000KT 10SM FEW120 32/02 A3002 RMK AO2,M
MEV,2022-08-29 23:35,-119.7500,38.9963,1441.42,93.20,37.40,14.23,260.00,8.00,0.00,30.01,M,10.00,13.00,FEW,M,M,M,12000.00,M,M,M,M,M,M,M,M,M,M,88.83,KMEV 292335Z AUTO 26008G13KT 10SM FEW120 34/03 A3001 RMK AO2,M
HTH,2022-08-29 23:35,-118.6315,38.5448,1282.89,95.00,39.20,14.44,150.00,7.00,0.00,29.97,M,10.00,M,CLR,M,M,M,M,M,M,M,M,M,M,M,M,M,M,90.57,KHTH 292335Z AUTO 15007KT 120V180 10SM CLR 35/04 A2997 RMK A01,M
TMT,2022-08-29 23:35,-117.1971,39.4643,1749.34,M,M,M,30.00,3.00,0.00,30.14,M,10.00,M,SCT,M,M,M,12000.00,M,M,M,M,M,M,M,M,M,M,M,KTMT 292335Z AUTO 03003KT 10SM SCT120 A3014 RMK AO2,M
BVU,2022-08-29 23:35,-114.8611,35.9475,671.00,102.20,48.20,16.37,0.00,0.00,0.00,29.87,M,M,M,M,M,M,M,M,M,M,M,M,M,M,M,M,M,M,98.83,KBVU 292335Z AUTO 00000KT 39/09 A2987 RMK AO2 PWINO TSNO,M
CXP,2022-08-29 23:35,-119.7326,39.1923,1431.00,93.20,35.60,13.25,330.00,3.00,0.00,30.03,M,10.00,M,SCT,M,M,M,12000.00,M,M,M,M,M,M,M,M,M,M,88.76,KCXP 292335Z AUTO 33003KT 10SM SCT120 34/02 A3003 RMK AO2,M
RTS,2022-08-29 23:35,-119.8764,39.6682,1539.00,91.40,32.00,12.14,130.00,9.00,0.00,30.07,M,10.00,M,CLR,M,M,M,M,M,M,M,M,M,M,M,M,M,M,86.91,KRTS 292335Z AUTO 13009KT 10SM CLR 33/00 A3007 RMK AO2,M
BAM,2022-08-29 23:35,-116.8743,40.5990,1382.36,96.80,32.00,10.27,350.00,9.00,0.00,30.05,M,10.00,15.00,CLR,M,M,M,M,M,M,M,M,M,M,M,M,M,M,91.19,KBAM 292335Z AUTO 35009G15KT 10SM CLR 36/00 A3005 RMK AO1,M
ELY,2022-08-29 23:53,-114.8453,39.2950,1909.00,86.00,34.00,15.60,220.00,9.00,0.00,30.21,1013.10,10.00,M,FEW,M,M,M,12000.00,M,M,M,M,M,M,M,M,M,M,82.66,KELY 292353Z AUTO 22009KT 10SM FEW120 30/01 A3021 RMK AO2 SLP131 T03000011 10322 20272 55007,M
P68,2022-08-29 23:53,-116.0056,39.6014,1993.00,88.00,30.00,12.46,130.00,8.00,0.00,30.16,1012.20,M,19.00,M,M,M,M,M,M,M,M,M,M,M,M,M,M,M,84.13,KP68 292353Z AUTO 13008G19KT 31/M01 A3016 RMK AO1 SLP122 T03111011 10322 20278 56008,M
DRA,2022-08-29 23:53,-116.0278,36.6206,1009.00,100.00,39.00,12.30,240.00,9.00,0.00,29.95,1008.50,10.00,22.00,CLR,M,M,M,M,M,M,M,M,M,M,M,M,M,M,95.05,KDRA 292353Z AUTO 24009G22KT 10SM CLR 38/04 A2995 RMK AO2 SLP085 T03780039 10389 20333 56016,M
VGT,2022-08-29 23:53,-115.1933,36.2111,667.00,103.00,52.00,18.47,M,3.00,0.00,29.86,1009.70,10.00,M,CLR,M,M,M,M,M,M,M,M,M,M,M,M,M,M,100.60,KVGT 292353Z VRB03KT 10SM CLR 39/11 A2986 RMK AO2 SLP097 T03940111 10400 20356 56017,M
LOL,2022-08-29 23:53,-118.5701,40.0684,1192.43,96.00,34.00,11.37,M,3.00,0.00,29.97,1010.80,10.00,M,CLR,M,M,M,M,M,M,M,M,M,M,M,M,M,M,90.89,KLOL 292353Z AUTO VRB03KT 10SM CLR 36/01 A2997 RMK AO2 SLP108 T03560011 10361 20300 56016,M
BVU,2022-08-29 23:55,-114.8611,35.9475,671.00,100.40,55.40,22.54,200.00,21.00,0.00,29.87,M,M,27.00,M,M,M,M,M,M,M,M,M,M,M,M,M,M,M,99.06,KBVU 292355Z AUTO 20021G27KT 38/13 A2987 RMK AO2 PWINO TSNO,M
TMT,2022-08-29 23:55,-117.1971,39.4643,1749.34,M,M,M,110.00,8.00,0.00,30.14,M,10.00,M,SCT,M,M,M,12000.00,M,M,M,M,M,M,M,M,M,M,M,KTMT 292355Z AUTO 11008KT 10SM SCT120 A3014 RMK AO2,M
BAM,2022-08-29 23:55,-116.8743,40.5990,1382.36,95.00,32.00,10.85,0.00,0.00,0.00,30.05,M,10.00,M,CLR,M,M,M,M,M,M,M,M,M,M,M,M,M,M,89.71,KBAM 292355Z AUTO 00000KT 10SM CLR 35/00 A3005 RMK AO1,M
RNO,2022-08-29 23:55,-119.7711,39.4839,1341.00,93.00,39.00,15.24,120.00,5.00,0.00,30.00,1009.60,10.00,M,SCT,M,M,M,12000.00,M,M,M,M,M,M,M,M,M,M,88.73,KRNO 292355Z 12005KT 10SM SCT120 34/04 A3000 RMK AO2 SLP096 T03390039 10356 20272 56014,M
RTS,2022-08-29 23:55,-119.8764,39.6682,1539.00,89.60,32.00,12.84,M,4.00,0.00,30.07,M,10.00,M,CLR,M,M,M,M,M,M,M,M,M,M,M,M,M,M,85.54,KRTS 292355Z AUTO VRB04KT 10SM CLR 32/00 A3007 RMK AO2,M
MEV,2022-08-29 23:55,-119.7500,38.9963,1441.42,91.40,37.40,15.05,270.00,12.00,0.00,30.02,M,10.00,M,CLR,M,M,M,M,M,M,M,M,M,M,M,M,M,M,87.23,KMEV 292355Z AUTO 27012KT 10SM CLR 33/03 A3002 RMK AO2,M
CXP,2022-08-29 23:55,-119.7326,39.1923,1431.00,93.20,35.60,13.25,250.00,7.00,0.00,30.02,M,10.00,M,FEW,M,M,M,12000.00,M,M,M,M,M,M,M,M,M,M,88.76,KCXP 292355Z AUTO 25007KT 220V280 10SM FEW120 34/02 A3002 RMK AO2,M
HTH,2022-08-29 23:55,-118.6315,38.5448,1282.89,96.80,39.20,13.66,120.00,7.00,0.00,29.96,M,10.00,18.00,CLR,M,M,M,M,M,M,M,M,M,M,M,M,M,M,92.23,KHTH 292355Z AUTO 12007G18KT 10SM CLR 36/04 A2996 RMK A01,M
WMC,2022-08-29 23:56,-117.8072,40.9019,1315.00,96.00,27.00,8.56,0.00,0.00,0.00,30.02,1012.00,10.00,M,CLR,M,M,M,M,M,M,M,M,M,M,M,M,M,M,90.03,KWMC 292356Z AUTO 00000KT 10SM CLR 36/M03 A3002 RMK AO2 SLP120 T03561028 10372 20306 56014,M
TPH,2022-08-29 23:56,-117.0904,38.0505,1654.00,90.00,39.00,16.74,170.00,12.00,0.00,30.13,1011.90,10.00,23.00,CLR,M,M,M,M,M,M,M,M,M,M,M,26.00,180.00,2022-08-29 23:12,86.07,KTPH 292356Z AUTO 17012G23KT 10SM CLR 32/04 A3013 RMK AO2 PK WND 18026/2312 SLP119 T03220039 10333 20283 56010,M
EKO,2022-08-29 23:56,-115.7860,40.8242,1367.00,87.00,30.00,12.82,M,3.00,0.00,30.10,1014.60,10.00,M,CLR,M,M,M,M,M,M,M,M,M,M,M,M,M,M,83.48,KEKO 292356Z AUTO VRB03KT 10SM CLR 31/M01 A3010 RMK AO2 SLP146 T03061011 10333 20239 56014,M
LSV,2022-08-29 23:56,-115.0343,36.2362,570.00,107.00,49.50,14.86,0.00,0.00,0.00,29.84,1007.60,10.00,M,CLR,M,M,M,M,M,M,M,M,M,M,M,M,M,M,104.13,KLSV 292356Z AUTO 00000KT 10SM CLR 42/10 A2984 RMK AO2 SLP076 T04170097 10432 20392 57017 $,M
LAS,2022-08-29 23:56,-115.1634,36.0719,663.00,101.00,52.00,19.61,250.00,5.00,0.00,29.87,1008.50,10.00,M,FEW,FEW,M,M,12000.00,18000.00,M,M,M,M,M,M,M,M,M,98.48,KLAS 292356Z 25005KT 10SM FEW120TCU FEW180 38/11 A2987 RMK AO2 SLP085 TCU E-S CB DSNT SE T03830111 10394 20350 56018,M
NFL,2022-08-29 23:56,-118.7010,39.4166,1199.00,97.00,36.00,11.98,M,5.00,0.00,29.94,1011.20,10.00,M,SCT,SCT,M,M,8000.00,12000.00,M,M,M,M,M,M,M,M,M,91.96,KNFL 292356Z VRB05KT 10SM SCT080 SCT120 36/02 A2994 RMK AO2 SLP112 TCU DSNT NE T03610022 10372 20294 56019,M
INS,2022-08-29 23:56,-115.6733,36.5872,955.00,98.80,43.00,14.89,130.00,10.00,0.00,29.93,1008.20,10.00,17.00,FEW,M,M,M,11000.00,M,M,M,M,M,M,M,M,M,M,94.52,KINS 292356Z AUTO 13010G17KT 10SM FEW110 37/06 A2993 RMK AO2 SLP082 T03710061 10379 20330 56014 $,M
