station,valid,lon,lat,elevation,tmpf,dwpf,relh,drct,sknt,p01i,alti,mslp,vsby,gust,skyc1,skyc2,skyc3,skyc4,skyl1,skyl2,skyl3,skyl4,wxcodes,ice_accretion_1hr,ice_accretion_3hr,ice_accretion_6hr,peak_wind_gust,peak_wind_drct,peak_wind_time,feel,metar,snowdepth
BVU,2024-02-08 00:15,-114.8611,35.9475,671.00,51.80,37.40,57.77,140.00,10.00,0.00,29.75,M,10.00,M,BKN,M,M,M,5500.00,M,M,M,M,M,M,M,M,M,M,51.80,KBVU 080015Z AUTO 14010KT 10SM BKN055 11/03 A2975 RMK AO2,M
CXP,2024-02-08 00:15,-119.7326,39.1923,1431.00,39.20,24.80,55.95,70.00,3.00,0.00,29.61,M,10.00,M,SCT,SCT,BKN,M,3400.00,4000.00,4800.00,M,M,M,M,M,M,M,M,36.92,KCXP 080015Z AUTO 07003KT 10SM SCT034 SCT040 BKN048 04/M04 A2961 RMK AO2,M
RTS,2024-02-08 00:15,-119.8764,39.6682,1539.00,33.80,26.60,74.63,10.00,3.00,0.00,29.62,M,6.00,M,SCT,SCT,M,M,2800.00,3800.00,M,M,-RA,M,M,M,M,M,M,30.75,KRTS 080015Z AUTO 01003KT 6SM -RA SCT028 SCT038 01/M03 A2962 RMK AO2,M
05U,2024-02-08 00:15,-116.0051,39.6042,1811.23,39.20,21.20,48.10,70.00,7.00,0.00,29.65,M,10.00,M,M,M,M,M,M,M,M,M,M,M,M,M,M,M,M,33.56,K05U 080015Z AUTO 07007KT 10SM 04/M06 A2965 RMK A01,M
MEV,2024-02-08 00:15,-119.7500,38.9963,1441.42,37.40,24.80,60.04,250.00,5.00,0.00,29.59,M,10.00,M,CLR,M,M,M,M,M,M,M,M,M,M,M,M,M,M,32.81,KMEV 080015Z AUTO 25005KT 10SM CLR 03/M04 A2959 RMK AO2,M
BAM,2024-02-08 00:15,-116.8743,40.5990,1382.36,37.40,32.00,80.65,350.00,3.00,0.00,29.65,M,10.00,M,SCT,BKN,OVC,M,4100.00,4900.00,6000.00,M,M,M,M,M,M,M,M,34.86,KBAM 080015Z AUTO 35003KT 10SM SCT041 BKN049 OVC060 03/00 A2965 RMK AO1,M
HTH,2024-02-08 00:15,-118.6315,38.5448,1282.89,46.40,21.20,36.48,M,5.00,0.00,29.58,M,10.00,11.00,SCT,M,M,M,10000.00,M,M,M,M,M,M,M,M,M,M,43.50,KHTH 080015Z AUTO VRB05G11KT 10SM SCT100 08/M06 A2958 RMK A01,M
10U,2024-02-08 00:15,-116.1876,41.9532,1637.00,33.80,28.40,80.36,320.00,4.00,0.00,29.63,M,10.00,M,FEW,OVC,M,M,4200.00,5500.00,M,M,M,M,M,M,M,M,M,29.52,K10U 080015Z AUTO 32004KT 10SM FEW042 OVC055 01/M02 A2963 RMK AO2,M
TMT,2024-02-08 00:15,-117.1971,39.4643,1749.34,36.00,23.00,58.85,220.00,9.00,0.00,29.64,M,10.00,M,SCT,BKN,OVC,M,3500.00,4100.00,5000.00,M,M,M,M,M,M,M,M,28.49,KTMT 080015Z AUTO 22009KT 10SM SCT035 BKN041 OVC050 02/M05 A2964 RMK AO2 T00231050,M
BVU,2024-02-08 00:35,-114.8611,35.9475,671.00,51.80,39.20,61.99,140.00,12.00,0.00,29.76,M,10.00,M,BKN,BKN,M,M,6000.00,7000.00,M,M,M,M,M,M,M,M,M,51.80,KBVU 080035Z AUTO 14012KT 10SM BKN060 BKN070 11/04 A2976 RMK AO2,M
CXP,2024-02-08 00:35,-119.7326,39.1923,1431.00,39.20,26.60,60.29,80.00,3.00,0.00,29.62,M,10.00,M,FEW,SCT,BKN,M,3100.00,3600.00,4100.00,M,M,M,M,M,M,M,M,36.92,KCXP 080035Z AUTO 08003KT 10SM FEW031 SCT036 BKN041 04/M03 A2962 RMK AO2,M
RTS,2024-02-08 00:35,-119.8764,39.6682,1539.00,33.80,30.20,86.49,340.00,4.00,0.00,29.64,M,4.00,M,CLR,M,M,M,M,M,M,M,-SN,M,M,M,M,M,M,29.52,KRTS 080035Z AUTO 34004KT 4SM -SN CLR 01/M01 A2964 RMK AO2,M
05U,2024-02-08 00:35,-116.0051,39.6042,1811.23,35.60,23.00,59.79,70.00,6.00,0.00,29.65,M,10.00,M,M,M,M,M,M,M,M,M,M,M,M,M,M,M,M,29.87,K05U 080035Z AUTO 07006KT 10SM 02/M05 A2965 RMK A01,M
MEV,2024-02-08 00:35,-119.7500,38.9963,1441.42,37.40,24.80,60.04,0.00,0.00,0.00,29.60,M,10.00,M,FEW,SCT,M,M,6000.00,7000.00,M,M,M,M,M,M,M,M,M,37.40,KMEV 080035Z AUTO 00000KT 10SM FEW060 SCT070 03/M04 A2960 RMK AO2,M
BAM,2024-02-08 00:35,-116.8743,40.5990,1382.36,37.40,32.00,80.65,30.00,5.00,0.00,29.65,M,10.00,M,SCT,OVC,M,M,3900.00,4600.00,M,M,M,M,M,M,M,M,M,32.81,KBAM 080035Z AUTO 03005KT 10SM SCT039 OVC046 03/00 A2965 RMK AO1,M
HTH,2024-02-08 00:35,-118.6315,38.5448,1282.89,44.60,23.00,42.14,160.00,11.00,0.00,29.59,M,10.00,M,BKN,M,M,M,9000.00,M,M,M,M,M,M,M,M,M,M,38.39,KHTH 080035Z AUTO 16011KT 10SM BKN090 07/M05 A2959 RMK A01,M
10U,2024-02-08 00:35,-116.1876,41.9532,1637.00,33.80,28.40,80.36,0.00,0.00,0.00,29.63,M,10.00,M,SCT,BKN,OVC,M,3300.00,4100.00,5500.00,M,M,M,M,M,M,M,M,33.80,K10U 080035Z AUTO 00000KT 10SM SCT033 BKN041 OVC055 01/M02 A2963 RMK AO2,M
TMT,2024-02-08 00:35,-117.1971,39.4643,1749.34,33.00,26.40,76.42,130.00,6.00,0.00,29.64,M,10.00,M,SCT,SCT,OVC,M,2200.00,3100.00,4100.00,M,M,M,M,M,M,M,M,26.73,KTMT 080035Z AUTO 13006KT 10SM SCT022 SCT031 OVC041 01/M03 A2964 RMK AO2 T00061031,M
DRA,2024-02-08 00:53,-116.0278,36.6206,1009.00,47.00,34.00,60.38,190.00,12.00,0.00,29.70,1004.40,10.00,18.00,OVC,M,M,M,8000.00,M,M,M,M,M,M,M,M,M,M,41.09,KDRA 080053Z AUTO 19012G18KT 10SM OVC080 08/01 A2970 RMK AO2 SLP044 T00830011,M
ELY,2024-02-08 00:53,-114.8453,39.2950,1909.00,31.00,26.00,81.48,110.00,6.00,0.00,29.64,1003.60,10.00,M,BKN,BKN,M,M,4500.00,8000.00,M,M,M,M,M,M,M,M,M,24.33,KELY 080053Z AUTO 11006KT 10SM BKN045 BKN080 M01/M03 A2964 RMK AO2 SLP036 T10061033,M
VGT,2024-02-08 00:53,-115.1933,36.2111,667.00,53.00,36.00,52.30,210.00,16.00,0.00,29.73,1008.50,10.00,22.00,FEW,SCT,M,M,6000.00,8000.00,M,M,M,M,M,M,M,M,M,53.00,KVGT 080053Z 21016G22KT 10SM FEW060 SCT080 12/02 A2973 RMK AO2 SLP085 T01170022,M
LOL,2024-02-08 00:53,-118.5701,40.0684,1192.43,38.00,34.00,85.35,50.00,6.00,0.00,29.64,1004.90,10.00,M,OVC,M,M,M,7000.00,M,M,M,M,M,M,M,M,M,M,32.76,KLOL 080053Z AUTO 05006KT 10SM OVC070 03/01 A2964 RMK AO2 SLP049 T00330011,M
P68,2024-02-08 00:53,-116.0056,39.6014,1993.00,33.00,25.00,72.11,0.00,0.00,0.00,29.64,1002.70,M,M,M,M,M,M,M,M,M,M,M,M,M,M,M,M,M,33.00,KP68 080053Z AUTO 00000KT 01/M04 A2964 RMK AO1 SLP027 T00061039 $,M
BVU,2024-02-08 00:55,-114.8611,35.9475,671.00,51.80,39.20,61.99,150.00,9.00,0.00,29.76,M,10.00,M,BKN,OVC,M,M,6000.00,7000.00,M,M,M,M,M,M,M,M,M,51.80,KBVU 080055Z AUTO 15009KT 10SM BKN060 OVC070 11/04 A2976 RMK AO2,M
CXP,2024-02-08 00:55,-119.7326,39.1923,1431.00,39.20,24.80,55.95,0.00,0.00,0.00,29.63,M,10.00,M,FEW,SCT,OVC,M,2100.00,2800.00,4000.00,M,M,M,M,M,M,M,M,39.20,KCXP 080055Z AUTO 00000KT 10SM FEW021 SCT028 OVC040 04/M04 A2963 RMK AO2,M
RNO,2024-02-08 00:55,-119.7711,39.4839,1341.00,37.00,30.00,75.56,360.00,10.00,T,29.63,1003.80,10.00,M,OVC,M,M,M,5000.00,M,M,M,-RA,M,M,M,M,M,M,29.24,KRNO 080055Z 36010KT 10SM -RA OVC050 03/M01 A2963 RMK AO2 RAE06B48 SLP038 MTNS OBSCD DSNT SW THRU NW P0000 T00281011,M
LSV,2024-02-08 00:55,-115.0343,36.2362,570.00,54.50,34.70,47.02,210.00,14.00,0.00,29.71,M,10.00,M,BKN,M,M,M,8000.00,M,M,M,M,M,M,M,M,M,M,54.50,KLSV 080055Z AUTO 21014KT 10SM BKN080 13/02 A2971 RMK AO2 SLPNO T01250015 $,M
RTS,2024-02-08 00:55,-119.8764,39.6682,1539.00,32.00,30.20,92.97,40.00,5.00,0.00,29.64,M,1.00,M,CLR,M,M,M,M,M,M,M,-SN,M,M,M,M,M,M,26.40,KRTS 080055Z AUTO 04005KT 1SM -SN CLR 00/M01 A2964 RMK AO2,M
05U,2024-02-08 00:55,-116.0051,39.6042,1811.23,33.80,24.80,69.25,0.00,0.00,0.00,29.66,M,10.00,M,M,M,M,M,M,M,M,M,M,M,M,M,M,M,M,33.80,K05U 080055Z AUTO 00000KT 10SM 01/M04 A2966 RMK A01,M
MEV,2024-02-08 00:55,-119.7500,38.9963,1441.42,37.40,26.60,64.70,50.00,6.00,0.00,29.60,M,10.00,M,FEW,BKN,OVC,M,3800.00,4800.00,6500.00,M,M,M,M,M,M,M,M,32.03,KMEV 080055Z AUTO 05006KT 10SM FEW038 BKN048 OVC065 03/M03 A2960 RMK AO2,M
BAM,2024-02-08 00:55,-116.8743,40.5990,1382.36,35.60,32.00,86.59,20.00,5.00,0.00,29.67,M,10.00,M,SCT,BKN,BKN,M,4600.00,5500.00,9500.00,M,M,M,M,M,M,M,M,30.67,KBAM 080055Z AUTO 02005KT 10SM SCT046 BKN055 BKN095 02/00 A2967 RMK AO1,M
HTH,2024-02-08 00:55,-118.6315,38.5448,1282.89,44.60,24.80,45.44,150.00,7.00,0.00,29.59,M,10.00,M,SCT,BKN,M,M,7500.00,9000.00,M,M,M,M,M,M,M,M,M,40.14,KHTH 080055Z AUTO 15007KT 10SM SCT075 BKN090 07/M04 A2959 RMK A01,M
TMT,2024-02-08 00:55,-117.1971,39.4643,1749.34,32.50,27.00,79.93,120.00,5.00,0.00,29.65,M,10.00,M,BKN,OVC,M,M,3500.00,4500.00,M,M,M,M,M,M,M,M,M,26.99,KTMT 080055Z AUTO 12005KT 10SM BKN035 OVC045 00/M03 A2965 RMK AO2 T00031027,M
10U,2024-02-08 00:55,-116.1876,41.9532,1637.00,32.00,28.40,86.39,0.00,0.00,0.00,29.64,M,10.00,M,OVC,M,M,M,3400.00,M,M,M,M,M,M,M,M,M,M,32.00,K10U 080055Z AUTO 00000KT 10SM OVC034 00/M02 A2964 RMK AO2,M
INS,2024-02-08 00:55,-115.6733,36.5872,955.00,49.00,35.60,59.70,70.00,10.00,0.00,29.71,M,10.00,M,FEW,BKN,BKN,OVC,4800.00,6000.00,7500.00,14000.00,M,M,M,M,M,M,M,44.29,KINS 080055Z AUTO 07010KT 10SM FEW048 BKN060 BKN075 OVC140 09/02 A2971 RMK AO2 SLPNO T00940020 $,M
EKO,2024-02-08 00:56,-115.7860,40.8242,1367.00,35.00,29.00,78.51,0.00,0.00,0.00,29.64,1004.40,10.00,M,FEW,M,M,M,5000.00,M,M,M,M,M,M,M,M,M,M,35.00,KEKO 080056Z AUTO 00000KT 10SM FEW050 02/M02 A2964 RMK AO2 SLP044 T00171017,M
NFL,2024-02-08 00:56,-118.7010,39.4166,1199.00,43.00,32.00,64.88,30.00,6.00,0.00,29.61,1001.30,10.00,M,SCT,BKN,OVC,M,3000.00,5000.00,10000.00,M,M,M,M,M,M,M,M,38.78,KNFL 080056Z 03006KT 10SM SCT030 BKN050 OVC100 06/00 A2961 RMK AO2 SLP013 SH VC W-NW T00610000,M
HND,2024-02-08 00:56,-115.1344,35.9729,742.79,51.00,35.00,54.12,190.00,18.00,0.00,29.77,1009.80,10.00,22.00,SCT,M,M,M,5000.00,M,M,M,M,M,M,M,M,M,M,51.00,KHND 080056Z 19018G22KT 10SM SCT050 11/02 A2977 RMK AO2 SLP098 T01060017,M
TPH,2024-02-08 00:56,-117.0904,38.0505,1654.00,37.00,31.00,78.69,170.00,12.00,0.00,29.64,1003.80,10.00,M,FEW,BKN,OVC,M,2100.00,6000.00,7500.00,M,M,M,M,M,M,M,M,28.37,KTPH 080056Z AUTO 17012KT 10SM FEW021 BKN060 OVC075 03/M01 A2964 RMK AO2 SLP038 T00281006,M
LAS,2024-02-08 00:56,-115.1634,36.0719,663.00,52.00,35.00,52.15,200.00,12.00,0.00,29.73,1006.60,10.00,22.00,SCT,SCT,SCT,M,5000.00,7000.00,16000.00,M,M,M,M,M,M,M,M,52.00,KLAS 080056Z 20012G22KT 10SM SCT050 SCT070 SCT160 11/02 A2973 RMK AO2 SLP066 CB DSNT W-N T01110017,M
WMC,2024-02-08 00:56,-117.8072,40.9019,1315.00,37.00,30.00,75.56,0.00,0.00,0.00,29.66,1004.70,10.00,M,SCT,OVC,M,M,6000.00,9000.00,M,M,M,M,M,M,M,M,M,37.00,KWMC 080056Z AUTO 00000KT 10SM SCT060 OVC090 03/M01 A2966 RMK AO2 SLP047 T00281011,M
RNO,2024-02-08 01:04,-119.7711,39.4839,1341.00,37.00,30.00,75.56,350.00,10.00,T,29.64,M,4.00,M,OVC,M,M,M,4500.00,M,M,M,-SN,M,M,M,M,M,M,29.24,KRNO 080104Z COR 35010KT 4SM -SN OVC045 03/M01 A2964 RMK AO2 RAE02SNB02 P0000 T00281011,M
BVU,2024-02-08 01:15,-114.8611,35.9475,671.00,51.80,37.40,57.77,190.00,9.00,0.00,29.76,M,10.00,17.00,SCT,SCT,M,M,6000.00,7000.00,M,M,M,M,M,M,M,M,M,51.80,KBVU 080115Z AUTO 19009G17KT 10SM SCT060 SCT070 11/03 A2976 RMK AO2,M
CXP,2024-02-08 01:15,-119.7326,39.1923,1431.00,39.20,24.80,55.95,130.00,3.00,0.00,29.64,M,10.00,M,BKN,OVC,M,M,2300.00,2900.00,M,M,M,M,M,M,M,M,M,36.92,KCXP 080115Z AUTO 13003KT 10SM BKN023 OVC029 04/M04 A2964 RMK AO2,M
RTS,2024-02-08 01:15,-119.8764,39.6682,1539.00,32.00,30.20,92.97,60.00,4.00,0.00,29.65,M,2.00,M,FEW,FEW,M,M,2600.00,3300.00,M,M,-SN,M,M,M,M,M,M,27.42,KRTS 080115Z AUTO 06004KT 2SM -SN FEW026 FEW033 M00/M01 A2965 RMK AO2,M
05U,2024-02-08 01:15,-116.0051,39.6042,1811.23,32.00,24.80,74.44,10.00,5.00,0.00,29.67,M,10.00,M,M,M,M,M,M,M,M,M,M,M,M,M,M,M,M,26.40,K05U 080115Z AUTO 01005KT 10SM M00/M04 A2967 RMK A01,M
MEV,2024-02-08 01:15,-119.7500,38.9963,1441.42,37.40,23.00,55.68,0.00,0.00,0.00,29.62,M,10.00,M,FEW,BKN,OVC,M,3700.00,4700.00,5500.00,M,M,M,M,M,M,M,M,37.40,KMEV 080115Z AUTO 00000KT 10SM FEW037 BKN047 OVC055 03/M05 A2962 RMK AO2,M
BAM,2024-02-08 01:15,-116.8743,40.5990,1382.36,35.60,33.80,93.08,0.00,0.00,0.00,29.67,M,10.00,M,SCT,SCT,BKN,M,4400.00,5000.00,6500.00,M,M,M,M,M,M,M,M,35.60,KBAM 080115Z AUTO 00000KT 10SM SCT044 SCT050 BKN065 02/01 A2967 RMK AO1,M
HTH,2024-02-08 01:15,-118.6315,38.5448,1282.89,42.80,26.60,52.45,140.00,9.00,0.00,29.60,M,10.00,M,BKN,OVC,M,M,7000.00,8000.00,M,M,M,M,M,M,M,M,M,36.94,KHTH 080115Z AUTO 14009KT 10SM BKN070 OVC080 06/M03 A2960 RMK A01,M
10U,2024-02-08 01:15,-116.1876,41.9532,1637.00,32.00,28.40,86.39,0.00,0.00,0.00,29.64,M,10.00,M,OVC,M,M,M,3500.00,M,M,M,M,M,M,M,M,M,M,32.00,K10U 080115Z AUTO 00000KT 10SM OVC035 00/M02 A2964 RMK AO2,M
TMT,2024-02-08 01:15,-117.1971,39.4643,1749.34,32.00,27.00,81.55,180.00,3.00,0.00,29.66,M,10.00,M,BKN,OVC,M,M,3600.00,4300.00,M,M,M,M,M,M,M,M,M,28.69,KTMT 080115Z AUTO 18003KT 10SM BKN036 OVC043 00/M03 A2966 RMK AO2 T00011027,M
TPH,2024-02-08 01:21,-117.0904,38.0505,1654.00,36.00,30.00,78.60,160.00,14.00,0.00,29.64,M,10.00,M,SCT,BKN,OVC,M,1900.00,2400.00,7000.00,M,M,M,M,M,M,M,M,26.32,KTPH 080121Z AUTO 16014KT 10SM SCT019 BKN024 OVC070 02/M01 A2964 RMK AO2 T00221011,M
RNO,2024-02-08 01:26,-119.7711,39.4839,1341.00,36.00,31.00,81.86,10.00,7.00,T,29.65,M,6.00,M,BKN,M,M,M,2700.00,M,M,M,-SN,M,M,M,M,M,M,29.65,KRNO 080126Z COR 01007KT 6SM -SN BKN027 02/M01 A2965 RMK AO2 RAE02SNB02 P0000 T00221006,M
ELY,2024-02-08 01:34,-114.8453,39.2950,1909.00,29.00,25.00,84.79,280.00,6.00,T,29.67,M,1.75,18.00,FEW,BKN,OVC,M,1500.00,3900.00,4900.00,M,-SN BR,M,M,M,M,M,M,21.92,KELY 080134Z AUTO 28006G18KT 1 3/4SM -SN BR FEW015 BKN039 OVC049 M02/M04 A2967 RMK AO2 SNB28 P0000 T10171039,M
BVU,2024-02-08 01:35,-114.8611,35.9475,671.00,51.80,35.60,53.81,220.00,10.00,0.00,29.76,M,10.00,M,FEW,M,M,M,7000.00,M,M,M,M,M,M,M,M,M,M,51.80,KBVU 080135Z AUTO 22010KT 10SM FEW070 11/02 A2976 RMK AO2,M
CXP,2024-02-08 01:35,-119.7326,39.1923,1431.00,39.20,24.80,55.95,0.00,0.00,0.00,29.65,M,10.00,M,BKN,OVC,M,M,2500.00,3000.00,M,M,M,M,M,M,M,M,M,39.20,KCXP 080135Z AUTO 00000KT 10SM BKN025 OVC030 04/M04 A2965 RMK AO2,M
RTS,2024-02-08 01:35,-119.8764,39.6682,1539.00,32.00,30.20,92.97,60.00,5.00,0.00,29.65,M,4.00,M,BKN,BKN,BKN,M,1900.00,2500.00,3100.00,M,-SN,M,M,M,M,M,M,26.40,KRTS 080135Z AUTO 06005KT 4SM -SN BKN019 BKN025 BKN031 M00/M01 A2965 RMK AO2,M
05U,2024-02-08 01:35,-116.0051,39.6042,1811.23,30.20,23.00,74.26,0.00,0.00,0.00,29.67,M,10.00,M,M,M,M,M,M,M,M,M,M,M,M,M,M,M,M,30.20,K05U 080135Z AUTO 00000KT 10SM M01/M05 A2967 RMK A01,M
MEV,2024-02-08 01:35,-119.7500,38.9963,1441.42,35.60,24.80,64.46,10.00,9.00,0.00,29.63,M,10.00,M,SCT,OVC,M,M,3800.00,4700.00,M,M,M,M,M,M,M,M,M,27.99,KMEV 080135Z AUTO 01009KT 10SM SCT038 OVC047 02/M04 A2963 RMK AO2,M
BAM,2024-02-08 01:35,-116.8743,40.5990,1382.36,35.60,32.00,86.59,0.00,0.00,0.00,29.68,M,10.00,M,SCT,SCT,BKN,M,3800.00,4700.00,6500.00,M,M,M,M,M,M,M,M,35.60,KBAM 080135Z AUTO 00000KT 10SM SCT038 SCT047 BKN065 02/00 A2968 RMK AO1,M
HTH,2024-02-08 01:35,-118.6315,38.5448,1282.89,44.60,24.80,45.44,140.00,9.00,0.00,29.61,M,10.00,M,BKN,OVC,M,M,5000.00,7000.00,M,M,M,M,M,M,M,M,M,39.18,KHTH 080135Z AUTO 14009KT 10SM BKN050 OVC070 07/M04 A2961 RMK A01,M
10U,2024-02-08 01:35,-116.1876,41.9532,1637.00,32.00,28.40,86.39,0.00,0.00,0.00,29.65,M,10.00,M,FEW,BKN,OVC,M,2900.00,3500.00,4300.00,M,M,M,M,M,M,M,M,32.00,K10U 080135Z AUTO 00000KT 10SM FEW029 BKN035 OVC043 M00/M02 A2965 RMK AO2,M
TMT,2024-02-08 01:35,-117.1971,39.4643,1749.34,31.00,28.60,90.69,200.00,6.00,0.00,29.67,M,1.75,M,BKN,BKN,OVC,M,900.00,1400.00,3400.00,M,-SN,M,M,M,M,M,M,24.33,KTMT 080135Z AUTO 20006KT 1 3/4SM -SN BKN009 BKN014 OVC034 00/M02 A2967 RMK AO2 T10051019,M
ELY,2024-02-08 01:41,-114.8453,39.2950,1909.00,29.00,25.00,84.79,320.00,6.00,T,29.67,M,1.50,M,SCT,BKN,OVC,M,1800.00,2400.00,4000.00,M,-SN BR,M,M,M,M,M,M,21.92,KELY 080141Z AUTO 32006KT 1 1/2SM -SN BR SCT018 BKN024 OVC040 M02/M04 A2967 RMK AO2 SNB28 P0000 T10171039,M
05U,2024-02-08 01:50,-116.0051,39.6042,1811.23,30.20,24.80,80.07,340.00,5.00,0.00,29.67,M,10.00,M,M,M,M,M,M,M,M,M,M,M,M,M,M,M,M,24.26,K05U 080150Z AUTO 34005KT 10SM M01/M04 A2967 RMK A01,M
DRA,2024-02-08 01:53,-116.0278,36.6206,1009.00,46.00,34.00,62.71,180.00,14.00,0.00,29.70,1004.60,10.00,22.00,BKN,M,M,M,7500.00,M,M,M,M,M,M,M,M,M,M,39.21,KDRA 080153Z AUTO 18014G22KT 10SM BKN075 08/01 A2970 RMK AO2 SLP046 T00780011,M
ELY,2024-02-08 01:53,-114.8453,39.2950,1909.00,28.00,26.00,92.08,320.00,4.00,0.01,29.67,1005.10,1.50,M,BKN,BKN,OVC,M,1700.00,2300.00,2900.00,M,-SN BR,M,M,M,M,M,M,22.75,KELY 080153Z AUTO 32004KT 1 1/2SM -SN BR BKN017 BKN023 OVC029 M02/M03 A2967 RMK AO2 SNB28 SLP051 P0001 T10221033,M
VGT,2024-02-08 01:53,-115.1933,36.2111,667.00,53.00,34.00,48.30,200.00,14.00,0.00,29.73,1008.50,10.00,23.00,CLR,M,M,M,M,M,M,M,M,M,M,M,M,M,M,53.00,KVGT 080153Z 20014G23KT 10SM CLR 12/01 A2973 RMK AO2 SLP085 T01170011,M
LOL,2024-02-08 01:53,-118.5701,40.0684,1192.43,35.00,32.00,88.68,360.00,4.00,0.00,29.66,1005.90,10.00,M,FEW,M,M,M,7500.00,M,M,M,M,M,M,M,M,M,M,30.92,KLOL 080153Z AUTO 36004KT 10SM FEW075 02/00 A2966 RMK AO2 SLP059 T00170000,M
P68,2024-02-08 01:53,-116.0056,39.6014,1993.00,30.00,25.00,81.40,180.00,3.00,0.00,29.64,1003.30,M,M,M,M,M,M,M,M,M,M,M,M,M,M,M,M,M,26.40,KP68 080153Z AUTO 18003KT M01/M04 A2964 RMK AO1 SLP033 T10111039 $,M
BVU,2024-02-08 01:55,-114.8611,35.9475,671.00,51.80,33.80,50.08,190.00,11.00,0.00,29.76,M,10.00,M,FEW,FEW,M,M,5500.00,7000.00,M,M,M,M,M,M,M,M,M,51.80,KBVU 080155Z AUTO 19011KT 10SM FEW055 FEW070 11/01 A2976 RMK AO2,M
CXP,2024-02-08 01:55,-119.7326,39.1923,1431.00,35.60,30.20,80.51,320.00,6.00,0.00,29.66,M,2.00,M,FEW,BKN,BKN,M,1000.00,2500.00,3000.00,M,-SN HZ,M,M,M,M,M,M,29.87,KCXP 080155Z AUTO 32006KT 2SM -SN HZ FEW010 BKN025 BKN030 02/M01 A2966 RMK AO2 VIS 1V4,M
RNO,2024-02-08 01:55,-119.7711,39.4839,1341.00,35.00,31.00,85.17,350.00,6.00,T,29.65,1004.60,6.00,M,OVC,M,M,M,2200.00,M,M,M,-SN BR,M,M,M,M,M,M,29.14,KRNO 080155Z COR 35006KT 6SM -SN BR OVC022 02/M01 A2965 RMK AO2 RAE02SNB02 SLP046 P0000 T00171006 $,M
LSV,2024-02-08 01:55,-115.0343,36.2362,570.00,53.80,34.50,47.85,190.00,10.00,0.00,29.72,1006.10,10.00,M,CLR,M,M,M,M,M,M,M,M,M,M,M,M,M,M,53.80,KLSV 080155Z AUTO 19010KT 10SM CLR 12/01 A2972 RMK AO2 SLP061 T01210014 $,M
RTS,2024-02-08 01:55,-119.8764,39.6682,1539.00,32.00,30.20,92.97,70.00,4.00,0.00,29.66,M,2.50,M,SCT,SCT,SCT,M,1900.00,2800.00,3700.00,M,-SN,M,M,M,M,M,M,27.42,KRTS 080155Z AUTO 07004KT 2 1/2SM -SN SCT019 SCT028 SCT037 M00/M01 A2966 RMK AO2,M
MEV,2024-02-08 01:55,-119.7500,38.9963,1441.42,33.80,28.40,80.36,40.00,9.00,0.00,29.64,M,10.00,M,SCT,BKN,OVC,M,2900.00,3500.00,4100.00,M,M,M,M,M,M,M,M,25.75,KMEV 080155Z AUTO 04009KT 10SM SCT029 BKN035 OVC041 01/M02 A2964 RMK AO2,M
BAM,2024-02-08 01:55,-116.8743,40.5990,1382.36,35.60,32.00,86.59,0.00,0.00,0.00,29.68,M,10.00,M,SCT,M,M,M,10000.00,M,M,M,M,M,M,M,M,M,M,35.60,KBAM 080155Z AUTO 00000KT 10SM SCT100 02/00 A2968 RMK AO1,M
HTH,2024-02-08 01:55,-118.6315,38.5448,1282.89,44.60,21.20,39.06,100.00,6.00,0.00,29.61,M,10.00,13.00,FEW,SCT,OVC,M,4000.00,4800.00,5500.00,M,M,M,M,M,M,M,M,40.71,KHTH 080155Z AUTO 10006G13KT 10SM FEW040 SCT048 OVC055 07/M06 A2961 RMK A01,M
TMT,2024-02-08 01:55,-117.1971,39.4643,1749.34,30.20,28.60,93.68,80.00,3.00,0.00,29.66,M,2.50,M,SCT,BKN,OVC,M,900.00,1300.00,3300.00,M,-SN,M,M,M,M,M,M,26.63,KTMT 080155Z AUTO 08003KT 2 1/2SM -SN SCT009 BKN013 OVC033 M01/M02 A2966 RMK AO2 T10101019,M
10U,2024-02-08 01:55,-116.1876,41.9532,1637.00,30.20,28.40,92.92,180.00,4.00,0.00,29.65,M,10.00,M,SCT,BKN,OVC,M,1900.00,2600.00,3500.00,M,M,M,M,M,M,M,M,25.32,K10U 080155Z AUTO 18004KT 10SM SCT019 BKN026 OVC035 M01/M02 A2965 RMK AO2,M
INS,2024-02-08 01:55,-115.6733,36.5872,955.00,47.00,36.50,66.69,80.00,10.00,0.00,29.71,1004.90,10.00,M,BKN,OVC,M,M,8500.00,14000.00,M,M,M,M,M,M,M,M,M,41.78,KINS 080155Z AUTO 08010KT 10SM BKN085 OVC140 08/03 A2971 RMK AO2 SLP049 T00830025 $,M
EKO,2024-02-08 01:56,-115.7860,40.8242,1367.00,32.00,28.00,84.98,260.00,4.00,0.00,29.65,1005.10,10.00,M,CLR,M,M,M,M,M,M,M,M,M,M,M,M,M,M,27.42,KEKO 080156Z AUTO 26004KT 10SM CLR 00/M02 A2965 RMK AO2 SLP051 T00001022,M
NFL,2024-02-08 01:56,-118.7010,39.4166,1199.00,41.00,30.00,64.63,30.00,4.00,0.00,29.64,1002.10,10.00,M,BKN,OVC,M,M,3000.00,5000.00,M,M,M,M,M,M,M,M,M,37.93,KNFL 080156Z 03004KT 10SM BKN030 OVC050 05/M01 A2964 RMK AO2 SLP021 SH VC ALQDS T00501011,M
HND,2024-02-08 01:56,-115.1344,35.9729,742.79,49.00,34.00,56.02,200.00,14.00,0.00,29.77,1009.90,10.00,M,CLR,M,M,M,M,M,M,M,M,M,M,M,M,M,M,43.08,KHND 080156Z 20014KT 10SM CLR 09/01 A2977 RMK AO2 SLP099 T00940011,M
TPH,2024-02-08 01:56,-117.0904,38.0505,1654.00,35.00,31.00,85.17,170.00,7.00,0.00,29.65,1004.20,10.00,M,FEW,OVC,M,M,1500.00,2200.00,M,M,M,M,M,M,M,M,M,28.44,KTPH 080156Z AUTO 17007KT 10SM FEW015 OVC022 02/M01 A2965 RMK AO2 SLP042 T00171006,M
LAS,2024-02-08 01:56,-115.1634,36.0719,663.00,51.00,33.00,49.96,200.00,8.00,0.00,29.74,1007.10,10.00,M,FEW,SCT,SCT,M,5000.00,7000.00,16000.00,M,M,M,M,M,M,M,M,51.00,KLAS 080156Z 20008KT 10SM FEW050 SCT070 SCT160 11/01 A2974 RMK AO2 SLP071 T01060006,M
WMC,2024-02-08 01:56,-117.8072,40.9019,1315.00,35.00,30.00,81.78,160.00,3.00,0.00,29.67,1005.20,10.00,M,FEW,OVC,M,M,5000.00,9000.00,M,M,M,M,M,M,M,M,M,32.12,KWMC 080156Z AUTO 16003KT 10SM FEW050 OVC090 02/M01 A2967 RMK AO2 SLP052 T00171011,M
ELY,2024-02-08 01:58,-114.8453,39.2950,1909.00,28.00,26.00,92.08,330.00,3.00,T,29.67,M,0.75,M,BKN,OVC,M,M,1300.00,2300.00,M,M,-SN BR,M,M,M,M,M,M,24.12,KELY 080158Z AUTO 33003KT 3/4SM -SN BR BKN013 OVC023 M02/M03 A2967 RMK AO2 P0000 T10221033,M
ELY,2024-02-08 02:09,-114.8453,39.2950,1909.00,28.00,26.00,92.08,0.00,0.00,0.01,29.67,M,1.50,M,BKN,BKN,OVC,M,1300.00,2900.00,3900.00,M,-SN BR,M,M,M,M,M,M,28.00,KELY 080209Z AUTO 00000KT 1 1/2SM -SN BR BKN013 BKN029 OVC039 M02/M03 A2967 RMK AO2 P0001 T10221033,M
ELY,2024-02-08 02:11,-114.8453,39.2950,1909.00,28.00,26.00,92.08,0.00,0.00,0.01,29.67,M,2.50,M,BKN,BKN,OVC,M,1500.00,2900.00,3900.00,M,-SN BR,M,M,M,M,M,M,28.00,KELY 080211Z AUTO 00000KT 2 1/2SM -SN BR BKN015 BKN029 OVC039 M02/M03 A2967 RMK AO2 P0001 T10221033,M
BVU,2024-02-08 02:15,-114.8611,35.9475,671.00,50.00,37.40,61.76,160.00,14.00,0.00,29.77,M,10.00,M,SCT,SCT,M,M,6000.00,7000.00,M,M,M,M,M,M,M,M,M,50.00,KBVU 080215Z AUTO 16014KT 10SM SCT060 SCT070 10/03 A2977 RMK AO2,M
CXP,2024-02-08 02:15,-119.7326,39.1923,1431.00,33.80,30.20,86.49,290.00,3.00,0.00,29.67,M,1.50,M,SCT,SCT,BKN,M,300.00,1000.00,2700.00,M,-SN BR,M,M,M,M,M,M,30.75,KCXP 080215Z AUTO 29003KT 1 1/2SM -SN BR SCT003 SCT010 BKN027 01/M01 A2967 RMK AO2,M
RTS,2024-02-08 02:15,-119.8764,39.6682,1539.00,32.00,30.20,92.97,70.00,4.00,0.00,29.66,M,3.00,M,FEW,SCT,M,M,2100.00,2800.00,M,M,-SN,M,M,M,M,M,M,27.42,KRTS 080215Z AUTO 07004KT 3SM -SN FEW021 SCT028 M00/M01 A2966 RMK AO2,M
05U,2024-02-08 02:15,-116.0051,39.6042,1811.23,28.40,24.80,86.18,0.00,0.00,0.00,29.67,M,10.00,M,M,M,M,M,M,M,M,M,M,M,M,M,M,M,M,28.40,K05U 080215Z AUTO 00000KT 10SM M02/M04 A2967 RMK A01,M
MEV,2024-02-08 02:15,-119.7500,38.9963,1441.42,32.00,30.20,92.97,60.00,7.00,0.00,29.65,M,1.00,M,BKN,BKN,OVC,M,300.00,1300.00,2900.00,M,-SN BR,M,M,M,M,M,M,24.78,KMEV 080215Z AUTO 06007KT 1SM -SN BR BKN003 BKN013 OVC029 00/M01 A2965 RMK AO2,M
BAM,2024-02-08 02:15,-116.8743,40.5990,1382.36,33.80,32.00,93.03,130.00,3.00,0.00,29.68,M,10.00,M,BKN,BKN,M,M,10000.00,12000.00,M,M,M,M,M,M,M,M,M,30.75,KBAM 080215Z AUTO 13003KT 10SM BKN100 BKN120 01/00 A2968 RMK AO1,M
HTH,2024-02-08 02:15,-118.6315,38.5448,1282.89,42.80,23.00,45.14,40.00,4.00,0.00,29.62,M,10.00,10.00,SCT,BKN,OVC,M,3800.00,4600.00,5500.00,M,M,M,M,M,M,M,M,40.03,KHTH 080215Z AUTO 04004G10KT 10SM SCT038 BKN046 OVC055 06/M05 A2962 RMK A01,M
10U,2024-02-08 02:15,-116.1876,41.9532,1637.00,30.20,28.40,92.92,200.00,4.00,0.00,29.66,M,10.00,M,FEW,BKN,OVC,M,1600.00,2100.00,2700.00,M,M,M,M,M,M,M,M,25.32,K10U 080215Z AUTO 20004KT 10SM FEW016 BKN021 OVC027 M01/M02 A2966 RMK AO2,M
TMT,2024-02-08 02:15,-117.1971,39.4643,1749.34,30.20,28.80,94.45,90.00,7.00,0.00,29.66,M,10.00,M,SCT,BKN,OVC,M,700.00,3100.00,4900.00,M,-SN,M,M,M,M,M,M,22.59,KTMT 080215Z AUTO 09007KT 10SM -SN SCT007 BKN031 OVC049 M01/M02 A2966 RMK AO2 T10101018,M
ELY,2024-02-08 02:16,-114.8453,39.2950,1909.00,28.00,26.00,92.08,90.00,4.00,0.01,29.68,M,2.50,M,FEW,BKN,OVC,M,400.00,1300.00,3900.00,M,-SN BR,M,M,M,M,M,M,22.75,KELY 080216Z AUTO 09004KT 2 1/2SM -SN BR FEW004 BKN013 OVC039 M02/M03 A2968 RMK AO2 P0001 T10221033,M
TPH,2024-02-08 02:16,-117.0904,38.0505,1654.00,35.00,30.00,81.78,160.00,10.00,0.00,29.65,M,10.00,M,FEW,BKN,BKN,M,2100.00,3200.00,11000.00,M,M,M,M,M,M,M,M,26.73,KTPH 080216Z AUTO 16010KT 10SM FEW021 BKN032 BKN110 02/M01 A2965 RMK AO2 T00171011,M
RNO,2024-02-08 02:19,-119.7711,39.4839,1341.00,35.00,31.00,85.17,360.00,4.00,T,29.66,M,3.00,M,OVC,M,M,M,2400.00,M,M,M,-SN BR,M,M,M,M,M,M,30.92,KRNO 080219Z 36004KT 3SM -SN BR OVC024 02/M01 A2966 RMK AO2 SFC VIS 5 P0000 T00171006 $,M
ELY,2024-02-08 02:25,-114.8453,39.2950,1909.00,28.00,26.00,92.08,60.00,5.00,0.01,29.67,M,1.75,M,SCT,BKN,OVC,M,600.00,1100.00,3000.00,M,-SN BR,M,M,M,M,M,M,21.64,KELY 080225Z AUTO 06005KT 1 3/4SM -SN BR SCT006 BKN011 OVC030 M02/M03 A2967 RMK AO2 P0001 T10221033,M
BVU,2024-02-08 02:35,-114.8611,35.9475,671.00,50.00,37.40,61.76,190.00,7.00,0.00,29.77,M,10.00,18.00,CLR,M,M,M,M,M,M,M,M,M,M,M,M,M,M,50.00,KBVU 080235Z AUTO 19007G18KT 10SM CLR 10/03 A2977 RMK AO2,M
CXP,2024-02-08 02:35,-119.7326,39.1923,1431.00,33.80,32.00,93.03,300.00,5.00,0.00,29.67,M,2.00,M,FEW,SCT,BKN,M,300.00,800.00,3100.00,M,-SN BR,M,M,M,M,M,M,28.53,KCXP 080235Z AUTO 30005KT 2SM -SN BR FEW003 SCT008 BKN031 01/M00 A2967 RMK AO2,M
ELY,2024-02-08 02:35,-114.8453,39.2950,1909.00,28.00,26.00,92.08,70.00,3.00,0.02,29.67,M,2.00,M,FEW,BKN,OVC,M,600.00,1300.00,3600.00,M,-SN BR,M,M,M,M,M,M,24.12,KELY 080235Z AUTO 07003KT 2SM -SN BR FEW006 BKN013 OVC036 M02/M03 A2967 RMK AO2 P0002 T10221033,M
RTS,2024-02-08 02:35,-119.8764,39.6682,1539.00,32.00,30.20,92.97,40.00,3.00,0.00,29.67,M,3.00,M,FEW,SCT,BKN,M,1900.00,2600.00,3500.00,M,-SN,M,M,M,M,M,M,28.69,KRTS 080235Z AUTO 04003KT 3SM -SN FEW019 SCT026 BKN035 M00/M01 A2967 RMK AO2,M
05U,2024-02-08 02:35,-116.0051,39.6042,1811.23,28.40,24.80,86.18,0.00,0.00,0.00,29.68,M,10.00,M,M,M,M,M,M,M,M,M,M,M,M,M,M,M,M,28.40,K05U 080235Z AUTO 00000KT 10SM M02/M04 A2968 RMK A01,M
MEV,2024-02-08 02:35,-119.7500,38.9963,1441.42,32.00,30.20,92.97,60.00,4.00,0.00,29.65,M,3.00,M,BKN,BKN,OVC,M,300.00,1600.00,10000.00,M,-SN BR,M,M,M,M,M,M,27.42,KMEV 080235Z AUTO 06004KT 3SM -SN BR BKN003 BKN016 OVC100 M00/M01 A2965 RMK AO2,M
BAM,2024-02-08 02:35,-116.8743,40.5990,1382.36,33.80,32.00,93.03,0.00,0.00,0.00,29.68,M,10.00,M,OVC,M,M,M,9000.00,M,M,M,M,M,M,M,M,M,M,33.80,KBAM 080235Z AUTO 00000KT 10SM OVC090 01/00 A2968 RMK AO1,M
HTH,2024-02-08 02:35,-118.6315,38.5448,1282.89,42.80,23.00,45.14,260.00,4.00,0.00,29.62,M,10.00,M,BKN,OVC,M,M,3800.00,4800.00,M,M,M,M,M,M,M,M,M,40.03,KHTH 080235Z AUTO 26004KT 10SM BKN038 OVC048 06/M05 A2962 RMK A01,M
10U,2024-02-08 02:35,-116.1876,41.9532,1637.00,28.40,26.60,92.86,210.00,5.00,0.00,29.66,M,10.00,M,FEW,FEW,OVC,M,2200.00,2800.00,7500.00,M,M,M,M,M,M,M,M,22.12,K10U 080235Z AUTO 21005KT 10SM FEW022 FEW028 OVC075 M02/M03 A2966 RMK AO2,M
TMT,2024-02-08 02:35,-117.1971,39.4643,1749.34,29.50,28.20,94.82,40.00,3.00,0.00,29.66,M,10.00,M,SCT,BKN,OVC,M,2800.00,4900.00,8500.00,M,M,M,M,M,M,M,M,25.83,KTMT 080235Z AUTO 04003KT 10SM SCT028 BKN049 OVC085 M01/M02 A2966 RMK AO2 T10141021,M
ELY,2024-02-08 02:43,-114.8453,39.2950,1909.00,28.00,26.00,92.08,0.00,0.00,0.02,29.67,M,4.00,M,FEW,SCT,OVC,M,600.00,1100.00,3800.00,M,-SN BR,M,M,M,M,M,M,28.00,KELY 080243Z AUTO 00000KT 4SM -SN BR FEW006 SCT011 OVC038 M02/M03 A2967 RMK AO2 P0002 T10221033,M
INS,2024-02-08 02:43,-115.6733,36.5872,955.00,48.20,33.80,57.26,290.00,3.00,0.00,29.71,1004.90,10.00,M,FEW,FEW,SCT,BKN,1400.00,2300.00,2900.00,3700.00,-RA,M,M,M,M,M,M,47.21,KINS 080243Z AUTO 29003KT 10SM -RA FEW014 FEW023 SCT029 BKN037 BKN049 OVC055 09/01 A2971 RMK AO2 RAB43 SLP049 $,M
RNO,2024-02-08 02:47,-119.7711,39.4839,1341.00,35.00,31.00,85.17,360.00,4.00,T,29.67,M,3.00,M,OVC,M,M,M,2300.00,M,M,M,-RA BR,M,M,M,M,M,M,30.92,KRNO 080247Z 36004KT 3SM -RA BR OVC023 02/M01 A2967 RMK AO2 SFC VIS 5 RAB47SNE47 P0000 T00171006 $,M
RNO,2024-02-08 02:51,-119.7711,39.4839,1341.00,35.60,32.00,86.59,340.00,3.00,T,29.67,M,6.00,M,OVC,M,M,M,2300.00,M,M,M,-RA BR,M,M,M,M,M,M,32.80,KRNO 080251Z 34003KT 6SM -RA BR OVC023 02/00 A2967 RMK AO2 RAB47SNE47 P0000 $,M
DRA,2024-02-08 02:53,-116.0278,36.6206,1009.00,45.00,34.00,65.13,180.00,15.00,0.00,29.71,1005.00,10.00,20.00,FEW,M,M,M,4900.00,M,M,M,M,M,M,M,M,M,M,37.63,KDRA 080253Z AUTO 18015G20KT 10SM FEW049 07/01 A2971 RMK AO2 SLP050 T00720011 53003,M
ELY,2024-02-08 02:53,-114.8453,39.2950,1909.00,28.00,26.00,92.08,0.00,0.00,0.02,29.68,1005.50,2.50,M,SCT,BKN,OVC,M,1200.00,1800.00,3800.00,M,-SN BR,M,M,M,M,M,M,28.00,KELY 080253Z AUTO 00000KT 2 1/2SM -SN BR SCT012 BKN018 OVC038 M02/M03 A2968 RMK AO2 SLP055 P0002 60003 T10221033 51015,M
VGT,2024-02-08 02:53,-115.1933,36.2111,667.00,52.00,33.00,48.15,200.00,12.00,0.00,29.74,1008.70,10.00,M,FEW,M,M,M,8000.00,M,M,M,M,M,M,M,M,M,M,52.00,KVGT 080253Z 20012KT 10SM FEW080 11/01 A2974 RMK AO2 SLP087 T01110006 51006,M
LOL,2024-02-08 02:53,-118.5701,40.0684,1192.43,34.00,32.00,92.29,0.00,0.00,0.00,29.67,1006.20,10.00,M,OVC,M,M,M,11000.00,M,M,M,M,M,M,M,M,M,M,34.00,KLOL 080253Z AUTO 00000KT 10SM OVC110 01/00 A2967 RMK AO2 SLP062 T00110000 53011,M
INS,2024-02-08 02:53,-115.6733,36.5872,955.00,46.40,33.80,61.28,360.00,6.00,0.00,29.71,1005.20,10.00,M,FEW,SCT,SCT,BKN,1300.00,2800.00,3500.00,4700.00,M,M,M,M,M,M,M,42.87,KINS 080253Z AUTO 36006KT 10SM FEW013 SCT028 SCT035 BKN047 BKN075 08/01 A2971 RMK AO2 RAB43E53 SLP052 $,M
P68,2024-02-08 02:53,-116.0056,39.6014,1993.00,30.00,24.00,78.07,200.00,5.00,0.00,29.66,1004.10,M,M,M,M,M,M,M,M,M,M,M,M,M,M,M,M,M,24.02,KP68 080253Z AUTO 20005KT M01/M04 A2966 RMK AO1 SLP041 T10111044 52013 $,M
BVU,2024-02-08 02:55,-114.8611,35.9475,671.00,50.00,37.40,61.76,160.00,10.00,0.00,29.77,M,10.00,M,FEW,M,M,M,8000.00,M,M,M,M,M,M,M,M,M,M,50.00,KBVU 080255Z AUTO 16010KT 10SM FEW080 10/03 A2977 RMK AO2,M
CXP,2024-02-08 02:55,-119.7326,39.1923,1431.00,33.80,32.00,93.03,290.00,3.00,0.00,29.67,M,1.50,M,OVC,M,M,M,300.00,M,M,M,-SN BR,M,M,M,M,M,M,30.75,KCXP 080255Z AUTO 29003KT 1 1/2SM -SN BR OVC003 01/M00 A2967 RMK AO2,M
ELY,2024-02-08 02:55,-114.8453,39.2950,1909.00,28.00,26.00,92.08,0.00,0.00,T,29.68,M,1.50,M,BKN,BKN,OVC,M,1200.00,1800.00,3800.00,M,-SN BR,M,M,M,M,M,M,28.00,KELY 080255Z AUTO 00000KT 1 1/2SM -SN BR BKN012 BKN018 OVC038 M02/M03 A2968 RMK AO2 P0000 T10221033,M
RNO,2024-02-08 02:55,-119.7711,39.4839,1341.00,35.00,32.00,88.68,340.00,4.00,T,29.67,1005.10,6.00,M,OVC,M,M,M,2300.00,M,M,M,-RA BR,M,M,M,M,M,M,30.92,KRNO 080255Z 34004KT 6SM -RA BR OVC023 02/00 A2967 RMK AO2 RAB47SNE47 SLP051 P0000 60000 T00170000 51011 $,M
LSV,2024-02-08 02:55,-115.0343,36.2362,570.00,52.70,33.60,48.07,190.00,9.00,0.00,29.72,1006.10,10.00,M,CLR,M,M,M,M,M,M,M,M,M,M,M,M,M,M,52.70,KLSV 080255Z AUTO 19009KT 10SM CLR 12/01 A2972 RMK AO2 SLP061 T01150009 51006 $,M
RTS,2024-02-08 02:55,-119.8764,39.6682,1539.00,32.00,30.20,92.97,0.00,0.00,0.00,29.67,M,4.00,M,FEW,M,M,M,3500.00,M,M,M,-SN,M,M,M,M,M,M,32.00,KRTS 080255Z AUTO 00000KT 4SM -SN FEW035 M00/M01 A2967 RMK AO2,M
05U,2024-02-08 02:55,-116.0051,39.6042,1811.23,30.20,26.60,86.28,20.00,4.00,0.00,29.68,M,10.00,M,M,M,M,M,M,M,M,M,M,M,M,M,M,M,M,25.32,K05U 080255Z AUTO 02004KT 10SM M01/M03 A2968 RMK A01,M
MEV,2024-02-08 02:55,-119.7500,38.9963,1441.42,32.00,30.20,92.97,50.00,4.00,0.00,29.65,M,10.00,M,FEW,SCT,OVC,M,2800.00,4100.00,4700.00,M,M,M,M,M,M,M,M,27.42,KMEV 080255Z AUTO 05004KT 10SM FEW028 SCT041 OVC047 M00/M01 A2965 RMK AO2,M
BAM,2024-02-08 02:55,-116.8743,40.5990,1382.36,33.80,32.00,93.03,180.00,4.00,0.00,29.69,M,10.00,M,SCT,M,M,M,9000.00,M,M,M,M,M,M,M,M,M,M,29.52,KBAM 080255Z AUTO 18004KT 10SM SCT090 01/00 A2969 RMK AO1,M
HTH,2024-02-08 02:55,-118.6315,38.5448,1282.89,42.80,24.80,48.67,M,3.00,0.00,29.63,M,10.00,M,SCT,BKN,OVC,M,3600.00,4200.00,4900.00,M,M,M,M,M,M,M,M,41.03,KHTH 080255Z AUTO VRB03KT 10SM SCT036 BKN042 OVC049 06/M04 A2963 RMK A01,M
TMT,2024-02-08 02:55,-117.1971,39.4643,1749.34,30.00,28.80,95.22,350.00,5.00,0.00,29.67,M,10.00,M,SCT,BKN,OVC,M,5000.00,6000.00,8500.00,M,M,M,M,M,M,M,M,24.02,KTMT 080255Z AUTO 35005KT 10SM SCT050 BKN060 OVC085 M01/M02 A2967 RMK AO2 T10121018,M
10U,2024-02-08 02:55,-116.1876,41.9532,1637.00,28.40,26.60,92.86,210.00,5.00,0.00,29.66,M,10.00,M,OVC,M,M,M,7500.00,M,M,M,M,M,M,M,M,M,M,22.12,K10U 080255Z AUTO 21005KT 10SM OVC075 M02/M03 A2966 RMK AO2,M
INS,2024-02-08 02:55,-115.6733,36.5872,955.00,46.60,34.30,62.04,360.00,6.00,T,29.71,1005.20,10.00,M,FEW,SCT,SCT,BKN,1300.00,2800.00,3500.00,7000.00,M,M,M,M,M,M,M,43.11,KINS 080255Z AUTO 36006KT 10SM FEW013 SCT028 SCT035 BKN070 08/01 A2971 RMK AO2 RAB43E53 SLP052 P0000 60000 T00810013 55001 $,M
EKO,2024-02-08 02:56,-115.7860,40.8242,1367.00,32.00,29.00,88.53,0.00,0.00,0.00,29.66,1005.50,10.00,M,SCT,BKN,M,M,3000.00,4200.00,M,M,M,M,M,M,M,M,M,32.00,KEKO 080256Z AUTO 00000KT 10SM SCT030 BKN042 00/M02 A2966 RMK AO2 SLP055 T00001017 51014,M
HND,2024-02-08 02:56,-115.1344,35.9729,742.79,50.00,32.00,49.81,190.00,12.00,0.00,29.78,1010.40,10.00,M,BKN,OVC,M,M,6000.00,7000.00,M,M,M,M,M,M,M,M,M,50.00,KHND 080256Z 19012KT 10SM BKN060 OVC070 10/00 A2978 RMK AO2 SLP104 T01000000 53007,M
TPH,2024-02-08 02:56,-117.0904,38.0505,1654.00,33.00,30.00,88.58,140.00,10.00,0.00,29.64,1004.20,10.00,M,FEW,M,M,M,1400.00,M,M,M,M,M,M,M,M,M,M,24.22,KTPH 080256Z AUTO 14010KT 10SM FEW014 01/M01 A2964 RMK AO2 SLP042 T00061011 50002,M
LAS,2024-02-08 02:56,-115.1634,36.0719,663.00,51.00,32.00,47.99,180.00,9.00,0.00,29.76,1007.50,10.00,16.00,FEW,SCT,SCT,M,5000.00,7000.00,16000.00,M,M,M,M,M,M,M,M,51.00,KLAS 080256Z 18009G16KT 10SM FEW050 SCT070 SCT160 11/00 A2976 RMK AO2 SLP075 T01060000 53007,M
WMC,2024-02-08 02:56,-117.8072,40.9019,1315.00,36.00,31.00,81.86,0.00,0.00,0.00,29.68,1005.50,10.00,M,OVC,M,M,M,9000.00,M,M,M,M,M,M,M,M,M,M,36.00,KWMC 080256Z AUTO 00000KT 10SM OVC090 02/M01 A2968 RMK AO2 SLP055 T00221006 51012,M
NFL,2024-02-08 02:56,-118.7010,39.4166,1199.00,40.00,32.00,72.85,30.00,8.00,0.00,29.66,1002.70,10.00,M,BKN,OVC,M,M,3000.00,5000.00,M,M,M,M,M,M,M,M,M,33.97,KNFL 080256Z 03008KT 10SM BKN030 OVC050 04/00 A2966 RMK AO2 SLP027 T00440000 53018,M
ELY,2024-02-08 03:02,-114.8453,39.2950,1909.00,28.00,26.00,92.08,130.00,3.00,T,29.68,M,1.00,M,BKN,BKN,OVC,M,1000.00,1300.00,4000.00,M,-SN BR,M,M,M,M,M,M,24.12,KELY 080302Z AUTO 13003KT 1SM -SN BR BKN010 BKN013 OVC040 M02/M03 A2968 RMK AO2 P0000 T10221033,M
ELY,2024-02-08 03:13,-114.8453,39.2950,1909.00,28.00,26.00,92.08,0.00,0.00,0.01,29.68,M,2.00,M,SCT,BKN,OVC,M,900.00,1300.00,5500.00,M,-SN BR,M,M,M,M,M,M,28.00,KELY 080313Z AUTO 00000KT 2SM -SN BR SCT009 BKN013 OVC055 M02/M03 A2968 RMK AO2 P0001 T10221033,M
BVU,2024-02-08 03:15,-114.8611,35.9475,671.00,50.00,35.60,57.52,170.00,11.00,0.00,29.78,M,10.00,16.00,BKN,BKN,M,M,7500.00,8500.00,M,M,M,M,M,M,M,M,M,50.00,KBVU 080315Z AUTO 17011G16KT 10SM BKN075 BKN085 10/02 A2978 RMK AO2,M
CXP,2024-02-08 03:15,-119.7326,39.1923,1431.00,33.80,32.00,93.03,0.00,0.00,0.00,29.68,M,7.00,M,SCT,BKN,OVC,M,400.00,3400.00,5000.00,M,UP,M,M,M,M,M,M,33.80,KCXP 080315Z AUTO 00000KT 7SM UP SCT004 BKN034 OVC050 01/M00 A2968 RMK AO2,M
RTS,2024-02-08 03:15,-119.8764,39.6682,1539.00,30.20,30.20,100.00,0.00,0.00,0.00,29.68,M,3.00,M,FEW,M,M,M,3000.00,M,M,M,-SN,M,M,M,M,M,M,30.20,KRTS 080315Z AUTO 00000KT 3SM -SN FEW030 M01/M01 A2968 RMK AO2,M
05U,2024-02-08 03:15,-116.0051,39.6042,1811.23,30.20,24.80,80.07,30.00,5.00,0.00,29.68,M,10.00,M,M,M,M,M,M,M,M,M,M,M,M,M,M,M,M,24.26,K05U 080315Z AUTO 03005KT 10SM M01/M04 A2968 RMK A01,M
MEV,2024-02-08 03:15,-119.7500,38.9963,1441.42,32.00,30.20,92.97,0.00,0.00,0.00,29.66,M,10.00,M,FEW,SCT,OVC,M,4200.00,4700.00,6000.00,M,M,M,M,M,M,M,M,32.00,KMEV 080315Z AUTO 00000KT 10SM FEW042 SCT047 OVC060 M00/M01 A2966 RMK AO2,M
BAM,2024-02-08 03:15,-116.8743,40.5990,1382.36,32.00,32.00,100.00,230.00,4.00,0.00,29.69,M,10.00,M,SCT,M,M,M,3300.00,M,M,M,M,M,M,M,M,M,M,27.42,KBAM 080315Z AUTO 23004KT 10SM SCT033 00/00 A2969 RMK AO1,M
HTH,2024-02-08 03:15,-118.6315,38.5448,1282.89,41.00,28.40,60.54,270.00,11.00,0.00,29.63,M,10.00,17.00,SCT,BKN,OVC,M,2400.00,3400.00,4200.00,M,M,M,M,M,M,M,M,33.84,KHTH 080315Z AUTO 27011G17KT 10SM SCT024 BKN034 OVC042 05/M02 A2963 RMK A01,M
10U,2024-02-08 03:15,-116.1876,41.9532,1637.00,28.40,26.60,92.86,180.00,5.00,0.00,29.67,M,10.00,M,OVC,M,M,M,7500.00,M,M,M,M,M,M,M,M,M,M,22.12,K10U 080315Z AUTO 18005KT 10SM OVC075 M02/M03 A2967 RMK AO2,M
TMT,2024-02-08 03:15,-117.1971,39.4643,1749.34,30.00,29.00,96.00,360.00,4.00,0.00,29.67,M,10.00,M,OVC,M,M,M,6000.00,M,M,M,M,M,M,M,M,M,M,25.08,KTMT 080315Z AUTO 36004KT 10SM OVC060 M01/M02 A2967 RMK AO2 T10111016,M
ELY,2024-02-08 03:17,-114.8453,39.2950,1909.00,27.00,25.00,92.05,160.00,3.00,0.01,29.68,M,5.00,M,SCT,SCT,OVC,M,900.00,1400.00,5500.00,M,-SN BR,M,M,M,M,M,M,22.97,KELY 080317Z AUTO 16003KT 5SM -SN BR SCT009 SCT014 OVC055 M03/M04 A2968 RMK AO2 P0001 T10281039,M
BVU,2024-02-08 03:35,-114.8611,35.9475,671.00,50.00,35.60,57.52,160.00,12.00,0.00,29.78,M,10.00,M,BKN,OVC,M,M,7500.00,8500.00,M,M,M,M,M,M,M,M,M,50.00,KBVU 080335Z AUTO 16012KT 10SM BKN075 OVC085 10/02 A2978 RMK AO2,M
CXP,2024-02-08 03:35,-119.7326,39.1923,1431.00,33.80,32.00,93.03,0.00,0.00,0.00,29.68,M,5.00,M,FEW,BKN,OVC,M,1200.00,2900.00,4900.00,M,UP BR,M,M,M,M,M,M,33.80,KCXP 080335Z AUTO 00000KT 5SM UP BR FEW012 BKN029 OVC049 01/00 A2968 RMK AO2,M
RTS,2024-02-08 03:35,-119.8764,39.6682,1539.00,30.20,30.20,100.00,0.00,0.00,0.00,29.69,M,3.00,M,FEW,BKN,BKN,M,1800.00,2400.00,3000.00,M,-SN,M,M,M,M,M,M,30.20,KRTS 080335Z AUTO 00000KT 3SM -SN FEW018 BKN024 BKN030 M01/M01 A2969 RMK AO2,M
05U,2024-02-08 03:35,-116.0051,39.6042,1811.23,30.20,24.80,80.07,350.00,3.00,0.00,29.68,M,10.00,M,M,M,M,M,M,M,M,M,M,M,M,M,M,M,M,26.63,K05U 080335Z AUTO 35003KT 10SM M01/M04 A2968 RMK A01,M
MEV,2024-02-08 03:35,-119.7500,38.9963,1441.42,32.00,30.20,92.97,0.00,0.00,0.00,29.66,M,8.00,M,FEW,SCT,BKN,M,1800.00,4100.00,4700.00,M,UP,M,M,M,M,M,M,32.00,KMEV 080335Z AUTO 00000KT 8SM UP FEW018 SCT041 BKN047 00/M01 A2966 RMK AO2,M
BAM,2024-02-08 03:35,-116.8743,40.5990,1382.36,32.00,32.00,100.00,240.00,4.00,0.00,29.69,M,10.00,M,CLR,M,M,M,M,M,M,M,M,M,M,M,M,M,M,27.42,KBAM 080335Z AUTO 24004KT 10SM CLR 00/00 A2969 RMK AO1,M
HTH,2024-02-08 03:35,-118.6315,38.5448,1282.89,41.00,26.60,56.22,340.00,5.00,0.00,29.64,M,10.00,M,FEW,BKN,OVC,M,2200.00,3700.00,4200.00,M,M,M,M,M,M,M,M,37.08,KHTH 080335Z AUTO 34005KT 10SM FEW022 BKN037 OVC042 05/M03 A2964 RMK A01,M
10U,2024-02-08 03:35,-116.1876,41.9532,1637.00,28.40,26.60,92.86,180.00,5.00,0.00,29.67,M,10.00,M,OVC,M,M,M,7000.00,M,M,M,M,M,M,M,M,M,M,22.12,K10U 080335Z AUTO 18005KT 10SM OVC070 M02/M03 A2967 RMK AO2,M
TMT,2024-02-08 03:35,-117.1971,39.4643,1749.34,30.00,29.00,96.00,350.00,4.00,0.00,29.67,M,10.00,M,OVC,M,M,M,6000.00,M,M,M,M,M,M,M,M,M,M,25.08,KTMT 080335Z AUTO 35004KT 10SM OVC060 M01/M02 A2967 RMK AO2 T10111017,M
05U,2024-02-08 03:50,-116.0051,39.6042,1811.23,28.40,26.60,92.86,330.00,3.00,0.00,29.69,M,10.00,M,M,M,M,M,M,M,M,M,M,M,M,M,M,M,M,24.57,K05U 080350Z AUTO 33003KT 10SM M02/M03 A2969 RMK A01,M
DRA,2024-02-08 03:53,-116.0278,36.6206,1009.00,45.00,30.00,55.43,190.00,14.00,0.00,29.71,1005.00,10.00,23.00,BKN,M,M,M,6500.00,M,M,M,M,M,M,M,M,M,M,37.92,KDRA 080353Z AUTO 19014G23KT 10SM BKN065 07/M01 A2971 RMK AO2 SLP050 T00721011,M
ELY,2024-02-08 03:53,-114.8453,39.2950,1909.00,26.00,24.00,92.01,220.00,7.00,0.01,29.68,1005.60,10.00,M,FEW,FEW,OVC,M,3900.00,5000.00,6000.00,M,M,M,M,M,M,M,M,17.47,KELY 080353Z AUTO 22007KT 10SM FEW039 FEW050 OVC060 M03/M04 A2968 RMK AO2 SNE19 SLP056 P0001 T10331044,M
VGT,2024-02-08 03:53,-115.1933,36.2111,667.00,52.00,34.00,50.12,180.00,12.00,0.00,29.74,1008.80,10.00,19.00,CLR,M,M,M,M,M,M,M,M,M,M,M,M,M,M,52.00,KVGT 080353Z 18012G19KT 10SM CLR 11/01 A2974 RMK AO2 SLP088 T01110011,M
LOL,2024-02-08 03:53,-118.5701,40.0684,1192.43,34.00,32.00,92.29,0.00,0.00,0.00,29.69,1006.70,10.00,M,BKN,OVC,M,M,8000.00,10000.00,M,M,M,M,M,M,M,M,M,34.00,KLOL 080353Z AUTO 00000KT 10SM BKN080 OVC100 01/00 A2969 RMK AO2 SLP067 T00110000,M
P68,2024-02-08 03:53,-116.0056,39.6014,1993.00,29.00,26.00,88.38,200.00,3.00,0.00,29.66,1003.90,M,M,M,M,M,M,M,M,M,M,M,M,M,M,M,M,M,25.26,KP68 080353Z AUTO 20003KT M02/M03 A2966 RMK AO1 SLP039 T10171033 $,M
BVU,2024-02-08 03:55,-114.8611,35.9475,671.00,50.00,37.40,61.76,160.00,10.00,0.00,29.77,M,10.00,M,BKN,OVC,M,M,7500.00,8500.00,M,M,M,M,M,M,M,M,M,50.00,KBVU 080355Z AUTO 16010KT 10SM BKN075 OVC085 10/03 A2977 RMK AO2,M
CXP,2024-02-08 03:55,-119.7326,39.1923,1431.00,33.80,32.00,93.03,0.00,0.00,0.00,29.68,M,10.00,M,FEW,SCT,BKN,M,1100.00,1700.00,2900.00,M,M,M,M,M,M,M,M,33.80,KCXP 080355Z AUTO 00000KT 10SM FEW011 SCT017 BKN029 01/00 A2968 RMK AO2,M
RNO,2024-02-08 03:55,-119.7711,39.4839,1341.00,35.00,31.00,85.17,350.00,6.00,T,29.68,1005.70,10.00,M,OVC,M,M,M,1900.00,M,M,M,M,M,M,M,M,M,M,29.14,KRNO 080355Z 35006KT 10SM OVC019 02/M01 A2968 RMK AO2 RAE12 SLP057 P0000 T00171006 $,M
RTS,2024-02-08 03:55,-119.8764,39.6682,1539.00,30.20,30.20,100.00,0.00,0.00,0.01,29.69,M,2.00,M,FEW,SCT,M,M,300.00,2400.00,M,M,-SN,M,M,M,M,M,M,30.20,KRTS 080355Z AUTO 00000KT 2SM -SN FEW003 SCT024 M01/M01 A2969 RMK AO2 P0001,M
MEV,2024-02-08 03:55,-119.7500,38.9963,1441.42,32.00,30.20,92.97,0.00,0.00,0.00,29.67,M,7.00,M,FEW,SCT,BKN,M,1900.00,2400.00,2900.00,M,-RA,M,M,M,M,M,M,32.00,KMEV 080355Z AUTO 00000KT 7SM -RA FEW019 SCT024 BKN029 00/M01 A2967 RMK AO2,M
BAM,2024-02-08 03:55,-116.8743,40.5990,1382.36,32.00,32.00,100.00,0.00,0.00,0.00,29.69,M,10.00,M,CLR,M,M,M,M,M,M,M,M,M,M,M,M,M,M,32.00,KBAM 080355Z AUTO 00000KT 10SM CLR 00/00 A2969 RMK AO1,M
HTH,2024-02-08 03:55,-118.6315,38.5448,1282.89,41.00,26.60,56.22,0.00,0.00,0.00,29.64,M,10.00,M,FEW,BKN,OVC,M,2800.00,3700.00,4300.00,M,M,M,M,M,M,M,M,41.00,KHTH 080355Z AUTO 00000KT 10SM FEW028 BKN037 OVC043 05/M03 A2964 RMK A01,M
TMT,2024-02-08 03:55,-117.1971,39.4643,1749.34,30.00,28.80,95.22,340.00,3.00,0.00,29.67,M,10.00,M,OVC,M,M,M,7000.00,M,M,M,M,M,M,M,M,M,M,26.40,KTMT 080355Z AUTO 34003KT 10SM OVC070 M01/M02 A2967 RMK AO2 T10111018,M
10U,2024-02-08 03:55,-116.1876,41.9532,1637.00,28.40,26.60,92.86,180.00,5.00,0.00,29.68,M,10.00,M,OVC,M,M,M,7000.00,M,M,M,M,M,M,M,M,M,M,22.12,K10U 080355Z AUTO 18005KT 10SM OVC070 M02/M03 A2968 RMK AO2,M
INS,2024-02-08 03:55,-115.6733,36.5872,955.00,43.30,35.20,72.90,70.00,6.00,0.00,29.71,1005.40,10.00,M,FEW,M,M,M,19000.00,M,M,M,M,M,M,M,M,M,M,39.14,KINS 080355Z AUTO 07006KT 10SM FEW190 06/02 A2971 RMK AO2 SLP054 T00630018 $,M
LSV,2024-02-08 03:55,-115.0343,36.2362,570.00,52.00,34.00,50.12,170.00,14.00,0.00,29.72,1006.20,10.00,M,SCT,BKN,M,M,10000.00,14000.00,M,M,M,M,M,M,M,M,M,52.00,KLSV 080355Z AUTO 17014KT 10SM SCT100 BKN140 11/01 A2972 RMK AO2 SLP062 T01120012 $,M
EKO,2024-02-08 03:56,-115.7860,40.8242,1367.00,32.00,28.00,84.98,210.00,3.00,0.00,29.67,1005.90,10.00,M,BKN,OVC,M,M,3700.00,4600.00,M,M,M,M,M,M,M,M,M,28.69,KEKO 080356Z AUTO 21003KT 10SM BKN037 OVC046 00/M02 A2967 RMK AO2 SLP059 T00001022,M
NFL,2024-02-08 03:56,-118.7010,39.4166,1199.00,37.00,34.00,88.78,310.00,7.00,0.00,29.67,1003.10,10.00,M,BKN,OVC,M,M,3000.00,5000.00,M,M,M,M,M,M,M,M,M,30.87,KNFL 080356Z 31007KT 10SM BKN030 OVC050 03/01 A2967 RMK AO2 SLP031 T00280011,M
HND,2024-02-08 03:56,-115.1344,35.9729,742.79,49.00,34.00,56.02,180.00,8.00,0.00,29.78,1010.30,10.00,M,SCT,BKN,BKN,M,6000.00,7000.00,10000.00,M,M,M,M,M,M,M,M,45.05,KHND 080356Z 18008KT 10SM SCT060 BKN070 BKN100 09/01 A2978 RMK AO2 SLP103 T00940011,M
TPH,2024-02-08 03:56,-117.0904,38.0505,1654.00,32.00,30.00,92.22,100.00,6.00,0.00,29.65,1004.50,10.00,M,FEW,BKN,M,M,2400.00,4000.00,M,M,M,M,M,M,M,M,M,25.53,KTPH 080356Z AUTO 10006KT 10SM FEW024 BKN040 00/M01 A2965 RMK AO2 SLP045 T00001011,M
LAS,2024-02-08 03:56,-115.1634,36.0719,663.00,50.00,33.00,51.85,200.00,9.00,0.00,29.75,1007.00,10.00,21.00,FEW,FEW,FEW,M,6000.00,7500.00,11000.00,M,M,M,M,M,M,M,M,50.00,KLAS 080356Z 20009G21KT 10SM FEW060 FEW075 FEW110 10/01 A2975 RMK AO2 SLP070 T01000006,M
WMC,2024-02-08 03:56,-117.8072,40.9019,1315.00,34.00,30.00,85.11,0.00,0.00,0.00,29.69,1005.80,10.00,M,OVC,M,M,M,9000.00,M,M,M,M,M,M,M,M,M,M,34.00,KWMC 080356Z AUTO 00000KT 10SM OVC090 01/M01 A2969 RMK AO2 SLP058 T00111011,M
10U,2024-02-08 04:10,-116.1876,41.9532,1637.00,30.20,28.40,92.92,190.00,6.00,0.00,29.68,M,10.00,M,FEW,OVC,M,M,3500.00,7000.00,M,M,M,M,M,M,M,M,M,23.36,K10U 080410Z AUTO 19006KT 10SM FEW035 OVC070 M01/M02 A2968 RMK AO2,M
BVU,2024-02-08 04:15,-114.8611,35.9475,671.00,48.20,37.40,66.05,160.00,11.00,0.00,29.77,M,10.00,M,FEW,BKN,BKN,M,6500.00,7500.00,8500.00,M,M,M,M,M,M,M,M,42.94,KBVU 080415Z AUTO 16011KT 10SM FEW065 BKN075 BKN085 09/03 A2977 RMK AO2,M
CXP,2024-02-08 04:15,-119.7326,39.1923,1431.00,33.80,32.00,93.03,0.00,0.00,0.00,29.69,M,10.00,M,FEW,BKN,OVC,M,1100.00,3000.00,3600.00,M,M,M,M,M,M,M,M,33.80,KCXP 080415Z AUTO 00000KT 10SM FEW011 BKN030 OVC036 01/00 A2969 RMK AO2,M
RTS,2024-02-08 04:15,-119.8764,39.6682,1539.00,30.20,30.20,100.00,0.00,0.00,0.00,29.70,M,2.00,M,SCT,M,M,M,300.00,M,M,M,-SN,M,M,M,M,M,M,30.20,KRTS 080415Z AUTO 00000KT 2SM -SN SCT003 M01/M01 A2970 RMK AO2,M
05U,2024-02-08 04:15,-116.0051,39.6042,1811.23,30.20,26.60,86.28,360.00,5.00,0.00,29.69,M,10.00,M,M,M,M,M,M,M,M,M,M,M,M,M,M,M,M,24.26,K05U 080415Z AUTO 36005KT 10SM M01/M03 A2969 RMK A01,M
MEV,2024-02-08 04:15,-119.7500,38.9963,1441.42,32.00,30.20,92.97,0.00,0.00,0.00,29.67,M,1.25,M,BKN,OVC,M,M,300.00,2100.00,M,M,-SN BR,M,M,M,M,M,M,32.00,KMEV 080415Z AUTO 00000KT 1 1/4SM -SN BR BKN003 OVC021 M00/M01 A2967 RMK AO2,M
BAM,2024-02-08 04:15,-116.8743,40.5990,1382.36,32.00,32.00,100.00,0.00,0.00,0.00,29.69,M,10.00,M,CLR,M,M,M,M,M,M,M,M,M,M,M,M,M,M,32.00,KBAM 080415Z AUTO 00000KT 10SM CLR 00/00 A2969 RMK AO1,M
HTH,2024-02-08 04:15,-118.6315,38.5448,1282.89,39.20,30.20,69.88,10.00,9.00,0.00,29.65,M,10.00,M,FEW,SCT,OVC,M,2900.00,3500.00,4200.00,M,M,M,M,M,M,M,M,32.47,KHTH 080415Z AUTO 01009KT 10SM FEW029 SCT035 OVC042 04/M01 A2965 RMK A01,M
TMT,2024-02-08 04:15,-117.1971,39.4643,1749.34,30.00,29.00,96.00,340.00,5.00,0.00,29.67,M,10.00,M,SCT,OVC,M,M,6000.00,7000.00,M,M,M,M,M,M,M,M,M,24.02,KTMT 080415Z AUTO 34005KT 10SM SCT060 OVC070 M01/M02 A2967 RMK AO2 T10111017,M
CXP,2024-02-08 04:30,-119.7326,39.1923,1431.00,33.80,32.00,93.03,0.00,0.00,0.00,29.69,M,10.00,M,BKN,OVC,M,M,1300.00,3000.00,M,M,M,M,M,M,M,M,M,33.80,KCXP 080430Z AUTO 00000KT 10SM BKN013 OVC030 01/00 A2969 RMK AO2,M
BVU,2024-02-08 04:35,-114.8611,35.9475,671.00,48.20,37.40,66.05,160.00,10.00,0.00,29.77,M,10.00,M,SCT,BKN,M,M,6000.00,8000.00,M,M,M,M,M,M,M,M,M,43.28,KBVU 080435Z AUTO 16010KT 10SM SCT060 BKN080 09/03 A2977 RMK AO2,M
RTS,2024-02-08 04:35,-119.8764,39.6682,1539.00,30.20,30.20,100.00,0.00,0.00,0.00,29.71,M,2.00,M,FEW,M,M,M,300.00,M,M,M,-SN,M,M,M,M,M,M,30.20,KRTS 080435Z AUTO 00000KT 2SM -SN FEW003 M01/M01 A2971 RMK AO2,M
05U,2024-02-08 04:35,-116.0051,39.6042,1811.23,30.20,26.60,86.28,360.00,4.00,0.00,29.69,M,10.00,M,M,M,M,M,M,M,M,M,M,M,M,M,M,M,M,25.32,K05U 080435Z AUTO 36004KT 10SM M01/M03 A2969 RMK A01,M
MEV,2024-02-08 04:35,-119.7500,38.9963,1441.42,32.00,30.20,92.97,0.00,0.00,0.00,29.67,M,3.00,M,FEW,BKN,OVC,M,300.00,1200.00,1800.00,M,UP BR,M,M,M,M,M,M,32.00,KMEV 080435Z AUTO 00000KT 3SM UP BR FEW003 BKN012 OVC018 M00/M01 A2967 RMK AO2,M
BAM,2024-02-08 04:35,-116.8743,40.5990,1382.36,32.00,32.00,100.00,50.00,3.00,0.00,29.71,M,10.00,M,BKN,BKN,M,M,7500.00,8500.00,M,M,M,M,M,M,M,M,M,28.69,KBAM 080435Z AUTO 05003KT 10SM BKN075 BKN085 00/00 A2971 RMK AO1,M
HTH,2024-02-08 04:35,-118.6315,38.5448,1282.89,37.40,32.00,80.65,110.00,7.00,0.00,29.66,M,10.00,M,FEW,SCT,BKN,M,2500.00,2900.00,3400.00,M,M,M,M,M,M,M,M,31.36,KHTH 080435Z AUTO 11007KT 10SM FEW025 SCT029 BKN034 03/M00 A2966 RMK A01,M
10U,2024-02-08 04:35,-116.1876,41.9532,1637.00,30.20,28.40,92.92,200.00,4.00,0.00,29.69,M,10.00,M,BKN,BKN,OVC,M,3500.00,4500.00,7000.00,M,M,M,M,M,M,M,M,25.32,K10U 080435Z AUTO 20004KT 10SM BKN035 BKN045 OVC070 M01/M02 A2969 RMK AO2,M
TMT,2024-02-08 04:35,-117.1971,39.4643,1749.34,30.20,28.40,92.92,360.00,4.00,0.00,29.67,M,10.00,M,SCT,OVC,M,M,6000.00,8000.00,M,M,M,M,M,M,M,M,M,25.32,KTMT 080435Z AUTO 36004KT 10SM SCT060 OVC080 M01/M02 A2967 RMK AO2 T10101020,M
RNO,2024-02-08 04:47,-119.7711,39.4839,1341.00,35.00,31.00,85.17,360.00,9.00,T,29.70,M,10.00,M,OVC,M,M,M,2400.00,M,M,M,-SN,M,M,M,M,M,M,27.24,KRNO 080447Z COR 36009KT 10SM -SN OVC024 02/M01 A2970 RMK AO2 SNB46 P0000 T00171006 $,M
DRA,2024-02-08 04:53,-116.0278,36.6206,1009.00,45.00,31.00,57.73,190.00,11.00,0.00,29.71,1004.80,10.00,21.00,OVC,M,M,M,5000.00,M,M,M,M,M,M,M,M,M,M,38.89,KDRA 080453Z AUTO 19011G21KT 10SM OVC050 07/M01 A2971 RMK AO2 SLP048 T00721006,M
ELY,2024-02-08 04:53,-114.8453,39.2950,1909.00,23.00,20.00,88.08,180.00,8.00,0.00,29.69,1006.00,10.00,M,SCT,M,M,M,6000.00,M,M,M,M,M,M,M,M,M,M,13.03,KELY 080453Z AUTO 18008KT 10SM SCT060 M05/M07 A2969 RMK AO2 SLP060 T10501067,M
VGT,2024-02-08 04:53,-115.1933,36.2111,667.00,51.00,35.00,54.12,160.00,10.00,0.00,29.74,1008.70,10.00,M,BKN,M,M,M,8500.00,M,M,M,M,M,M,M,M,M,M,51.00,KVGT 080453Z AUTO 16010KT 10SM BKN085 11/02 A2974 RMK AO2 SLP087 T01060017,M
LOL,2024-02-08 04:53,-118.5701,40.0684,1192.43,34.00,31.00,88.63,10.00,7.00,0.00,29.69,1007.10,10.00,M,OVC,M,M,M,11000.00,M,M,M,M,M,M,M,M,M,M,27.22,KLOL 080453Z AUTO 01007KT 10SM OVC110 01/M01 A2969 RMK AO2 SLP071 T00111006,M
P68,2024-02-08 04:53,-116.0056,39.6014,1993.00,29.00,25.00,84.79,160.00,4.00,0.00,29.67,1004.60,M,M,M,M,M,M,M,M,M,M,M,M,M,M,M,M,M,23.92,KP68 080453Z AUTO 16004KT M02/M04 A2967 RMK AO1 SLP046 T10171039 $,M
BVU,2024-02-08 04:55,-114.8611,35.9475,671.00,48.20,37.40,66.05,160.00,13.00,0.00,29.77,M,10.00,M,FEW,BKN,BKN,M,6000.00,7500.00,9500.00,M,M,M,M,M,M,M,M,42.32,KBVU 080455Z AUTO 16013KT 10SM FEW060 BKN075 BKN095 09/03 A2977 RMK AO2,M
CXP,2024-02-08 04:55,-119.7326,39.1923,1431.00,33.80,32.00,93.03,0.00,0.00,0.00,29.70,M,10.00,M,BKN,BKN,OVC,M,1400.00,2600.00,4500.00,M,M,M,M,M,M,M,M,33.80,KCXP 080455Z AUTO 00000KT 10SM BKN014 BKN026 OVC045 01/M00 A2970 RMK AO2,M
RNO,2024-02-08 04:55,-119.7711,39.4839,1341.00,35.00,31.00,85.17,360.00,9.00,T,29.70,1006.10,9.00,M,OVC,M,M,M,2400.00,M,M,M,-SN,M,M,M,M,M,M,27.24,KRNO 080455Z COR 36009KT 9SM -SN OVC024 02/M01 A2970 RMK AO2 SNB46 SLP061 P0000 T00171006 $,M
LSV,2024-02-08 04:55,-115.0343,36.2362,570.00,52.50,33.40,48.03,190.00,11.00,0.00,29.72,1006.10,10.00,M,CLR,M,M,M,M,M,M,M,M,M,M,M,M,M,M,52.50,KLSV 080455Z AUTO 19011KT 10SM CLR 11/01 A2972 RMK AO2 SLP061 T01140008 $,M
RTS,2024-02-08 04:55,-119.8764,39.6682,1539.00,30.20,30.20,100.00,0.00,0.00,0.02,29.71,M,2.50,M,CLR,M,M,M,M,M,M,M,-SN,M,M,M,M,M,M,30.20,KRTS 080455Z AUTO 00000KT 2 1/2SM -SN CLR M01/M01 A2971 RMK AO2 P0002,M
05U,2024-02-08 04:55,-116.0051,39.6042,1811.23,30.20,24.80,80.07,330.00,4.00,0.00,29.70,M,10.00,M,M,M,M,M,M,M,M,M,M,M,M,M,M,M,M,25.32,K05U 080455Z AUTO 33004KT 10SM M01/M04 A2970 RMK A01,M
MEV,2024-02-08 04:55,-119.7500,38.9963,1441.42,32.00,30.20,92.97,0.00,0.00,0.00,29.68,M,7.00,M,OVC,M,M,M,1000.00,M,M,M,UP,M,M,M,M,M,M,32.00,KMEV 080455Z AUTO 00000KT 7SM UP OVC010 M00/M01 A2968 RMK AO2,M
BAM,2024-02-08 04:55,-116.8743,40.5990,1382.36,32.00,32.00,100.00,0.00,0.00,0.00,29.71,M,10.00,M,OVC,M,M,M,7500.00,M,M,M,M,M,M,M,M,M,M,32.00,KBAM 080455Z AUTO 00000KT 10SM OVC075 00/00 A2971 RMK AO1,M
HTH,2024-02-08 04:55,-118.6315,38.5448,1282.89,37.40,33.80,86.69,140.00,5.00,0.00,29.67,M,7.00,M,FEW,SCT,BKN,M,800.00,1400.00,2400.00,M,M,M,M,M,M,M,M,32.81,KHTH 080455Z AUTO 14005KT 7SM FEW008 SCT014 BKN024 03/01 A2967 RMK A01,M
TMT,2024-02-08 04:55,-117.1971,39.4643,1749.34,30.00,28.80,95.22,360.00,4.00,0.00,29.67,M,10.00,M,OVC,M,M,M,8000.00,M,M,M,M,M,M,M,M,M,M,25.08,KTMT 080455Z AUTO 36004KT 10SM OVC080 M01/M02 A2967 RMK AO2 T10111018,M
10U,2024-02-08 04:55,-116.1876,41.9532,1637.00,30.20,28.40,92.92,210.00,4.00,0.00,29.69,M,10.00,M,FEW,OVC,M,M,3400.00,4100.00,M,M,M,M,M,M,M,M,M,25.32,K10U 080455Z AUTO 21004KT 10SM FEW034 OVC041 M01/M02 A2969 RMK AO2,M
INS,2024-02-08 04:55,-115.6733,36.5872,955.00,44.80,32.50,61.80,0.00,0.00,0.00,29.71,1005.20,10.00,M,FEW,BKN,BKN,M,4700.00,7500.00,19000.00,M,M,M,M,M,M,M,M,44.80,KINS 080455Z AUTO 00000KT 10SM FEW047 BKN075 BKN190 07/00 A2971 RMK AO2 SLP052 T00710003 $,M
EKO,2024-02-08 04:56,-115.7860,40.8242,1367.00,30.00,27.00,88.44,240.00,4.00,0.00,29.68,1006.40,10.00,M,FEW,FEW,M,M,6000.00,9000.00,M,M,M,M,M,M,M,M,M,25.08,KEKO 080456Z AUTO 24004KT 10SM FEW060 FEW090 M01/M03 A2968 RMK AO2 SLP064 T10111028,M
NFL,2024-02-08 04:56,-118.7010,39.4166,1199.00,37.00,34.00,88.78,310.00,8.00,0.00,29.69,1003.50,10.00,M,BKN,OVC,M,M,3000.00,5000.00,M,M,M,M,M,M,M,M,M,30.27,KNFL 080456Z 31008KT 10SM BKN030 OVC050 03/01 A2969 RMK AO2 SLP035 T00280011,M
HND,2024-02-08 04:56,-115.1344,35.9729,742.79,48.00,35.00,60.52,180.00,9.00,0.00,29.77,1010.00,10.00,M,SCT,BKN,M,M,7000.00,11000.00,M,M,M,M,M,M,M,M,M,43.41,KHND 080456Z AUTO 18009KT 10SM SCT070 BKN110 09/02 A2977 RMK AO2 SLP100 T00890017,M
TPH,2024-02-08 04:56,-117.0904,38.0505,1654.00,33.00,30.00,88.58,110.00,8.00,0.00,29.66,1004.60,10.00,M,BKN,BKN,OVC,M,1100.00,1400.00,5000.00,M,M,M,M,M,M,M,M,25.34,KTPH 080456Z AUTO 11008KT 10SM BKN011 BKN014 OVC050 01/M01 A2966 RMK AO2 SLP046 T00061011,M
LAS,2024-02-08 04:56,-115.1634,36.0719,663.00,49.00,34.00,56.02,180.00,7.00,0.00,29.75,1007.20,10.00,M,FEW,SCT,BKN,M,6000.00,7500.00,11000.00,M,M,M,M,M,M,M,M,45.50,KLAS 080456Z 18007KT 10SM FEW060 SCT075 BKN110 09/01 A2975 RMK AO2 SLP072 T00940011,M
WMC,2024-02-08 04:56,-117.8072,40.9019,1315.00,32.00,28.00,84.98,0.00,0.00,0.00,29.70,1006.30,10.00,M,OVC,M,M,M,7500.00,M,M,M,M,M,M,M,M,M,M,32.00,KWMC 080456Z AUTO 00000KT 10SM OVC075 00/M02 A2970 RMK AO2 SLP063 T00001022,M
BVU,2024-02-08 05:15,-114.8611,35.9475,671.00,50.00,37.40,61.76,160.00,14.00,0.00,29.77,M,10.00,M,BKN,OVC,M,M,7000.00,9000.00,M,M,M,M,M,M,M,M,M,50.00,KBVU 080515Z AUTO 16014KT 10SM BKN070 OVC090 10/03 A2977 RMK AO2,M
CXP,2024-02-08 05:15,-119.7326,39.1923,1431.00,33.80,32.00,93.03,0.00,0.00,0.00,29.71,M,10.00,M,FEW,BKN,OVC,M,1300.00,2200.00,2800.00,M,M,M,M,M,M,M,M,33.80,KCXP 080515Z AUTO 00000KT 10SM FEW013 BKN022 OVC028 01/M00 A2971 RMK AO2,M
RTS,2024-02-08 05:15,-119.8764,39.6682,1539.00,30.20,30.20,100.00,0.00,0.00,0.00,29.71,M,2.50,M,FEW,SCT,BKN,M,300.00,1900.00,3800.00,M,-SN,M,M,M,M,M,M,30.20,KRTS 080515Z AUTO 00000KT 2 1/2SM -SN FEW003 SCT019 BKN038 M01/M01 A2971 RMK AO2,M
05U,2024-02-08 05:15,-116.0051,39.6042,1811.23,28.40,24.80,86.18,0.00,0.00,0.00,29.70,M,10.00,M,M,M,M,M,M,M,M,M,M,M,M,M,M,M,M,28.40,K05U 080515Z AUTO 00000KT 10SM M02/M04 A2970 RMK A01,M
MEV,2024-02-08 05:15,-119.7500,38.9963,1441.42,32.00,32.00,100.00,320.00,4.00,0.00,29.68,M,9.00,M,BKN,BKN,OVC,M,500.00,1000.00,2800.00,M,UP,M,M,M,M,M,M,27.42,KMEV 080515Z AUTO 32004KT 9SM UP BKN005 BKN010 OVC028 M00/M00 A2968 RMK AO2,M
BAM,2024-02-08 05:15,-116.8743,40.5990,1382.36,32.00,32.00,100.00,0.00,0.00,0.00,29.71,M,10.00,M,OVC,M,M,M,8500.00,M,M,M,M,M,M,M,M,M,M,32.00,KBAM 080515Z AUTO 00000KT 10SM OVC085 00/00 A2971 RMK AO1,M
HTH,2024-02-08 05:15,-118.6315,38.5448,1282.89,33.80,33.80,100.00,220.00,3.00,0.00,29.68,M,3.00,M,BKN,BKN,OVC,M,400.00,800.00,1400.00,M,BR,M,M,M,M,M,M,30.75,KHTH 080515Z AUTO 22003KT 3SM BR BKN004 BKN008 OVC014 01/01 A2968 RMK A01,M
10U,2024-02-08 05:15,-116.1876,41.9532,1637.00,28.40,26.60,92.86,0.00,0.00,0.00,29.70,M,10.00,M,FEW,OVC,M,M,4000.00,7000.00,M,M,M,M,M,M,M,M,M,28.40,K10U 080515Z AUTO 00000KT 10SM FEW040 OVC070 M02/M03 A2970 RMK AO2,M
TMT,2024-02-08 05:15,-117.1971,39.4643,1749.34,30.00,28.60,94.45,0.00,0.00,0.00,29.68,M,10.00,M,OVC,M,M,M,8000.00,M,M,M,M,M,M,M,M,M,M,30.00,KTMT 080515Z AUTO 00000KT 10SM OVC080 M01/M02 A2968 RMK AO2 T10111019,M
RTS,2024-02-08 05:20,-119.8764,39.6682,1539.00,30.20,30.20,100.00,0.00,0.00,0.00,29.71,M,2.50,M,FEW,SCT,BKN,M,300.00,1900.00,4000.00,M,-SN,M,M,M,M,M,M,30.20,KRTS 080520Z AUTO 00000KT 2 1/2SM -SN FEW003 SCT019 BKN040 M01/M01 A2971 RMK AO2,M
MEV,2024-02-08 05:25,-119.7500,38.9963,1441.42,32.00,32.00,100.00,310.00,3.00,0.00,29.69,M,8.00,M,BKN,OVC,M,M,400.00,2700.00,M,M,M,M,M,M,M,M,M,28.69,KMEV 080525Z AUTO 31003KT 8SM BKN004 OVC027 M00/M00 A2969 RMK AO2,M
BVU,2024-02-08 05:35,-114.8611,35.9475,671.00,50.00,37.40,61.76,150.00,13.00,0.00,29.77,M,10.00,M,OVC,M,M,M,7500.00,M,M,M,M,M,M,M,M,M,M,50.00,KBVU 080535Z AUTO 15013KT 10SM OVC075 10/03 A2977 RMK AO2,M
CXP,2024-02-08 05:35,-119.7326,39.1923,1431.00,33.80,30.20,86.49,0.00,0.00,0.00,29.71,M,10.00,M,SCT,BKN,OVC,M,1800.00,2300.00,3400.00,M,M,M,M,M,M,M,M,33.80,KCXP 080535Z AUTO 00000KT 10SM SCT018 BKN023 OVC034 01/M01 A2971 RMK AO2,M
05U,2024-02-08 05:35,-116.0051,39.6042,1811.23,28.40,24.80,86.18,350.00,3.00,0.00,29.71,M,10.00,M,M,M,M,M,M,M,M,M,M,M,M,M,M,M,M,24.57,K05U 080535Z AUTO 35003KT 10SM M02/M04 A2971 RMK A01,M
BAM,2024-02-08 05:35,-116.8743,40.5990,1382.36,32.00,32.00,100.00,0.00,0.00,0.00,29.72,M,10.00,M,OVC,M,M,M,8500.00,M,M,M,M,M,M,M,M,M,M,32.00,KBAM 080535Z AUTO 00000KT 10SM OVC085 00/00 A2972 RMK AO1,M
HTH,2024-02-08 05:35,-118.6315,38.5448,1282.89,32.00,32.00,100.00,0.00,0.00,0.00,29.69,M,0.50,M,OVC,M,M,M,200.00,M,M,M,FG,M,M,M,M,M,M,32.00,KHTH 080535Z AUTO 00000KT 1/2SM FG OVC002 00/00 A2969 RMK A01,M
10U,2024-02-08 05:35,-116.1876,41.9532,1637.00,30.20,26.60,86.28,180.00,4.00,0.00,29.70,M,10.00,M,OVC,M,M,M,6500.00,M,M,M,M,M,M,M,M,M,M,25.32,K10U 080535Z AUTO 18004KT 10SM OVC065 M01/M03 A2970 RMK AO2,M
TMT,2024-02-08 05:35,-117.1971,39.4643,1749.34,29.50,28.20,94.82,0.00,0.00,0.00,29.68,M,10.00,M,OVC,M,M,M,8000.00,M,M,M,M,M,M,M,M,M,M,29.50,KTMT 080535Z AUTO 00000KT 10SM OVC080 M01/M02 A2968 RMK AO2 T10141021,M
RNO,2024-02-08 05:39,-119.7711,39.4839,1341.00,35.00,31.00,85.17,360.00,9.00,T,29.71,M,9.00,M,OVC,M,M,M,2300.00,M,M,M,M,M,M,M,M,M,M,27.24,KRNO 080539Z 36009KT 9SM OVC023 02/M01 A2971 RMK AO2 SNE39 P0000 T00171006 $,M
DRA,2024-02-08 05:53,-116.0278,36.6206,1009.00,43.00,33.00,67.54,200.00,12.00,0.00,29.72,1005.20,10.00,28.00,OVC,M,M,M,4500.00,M,M,M,M,M,M,M,28.00,180.00,2024-02-08 05:44,36.00,KDRA 080553Z AUTO 20012G28KT 10SM OVC045 06/01 A2972 RMK AO2 PK WND 18028/0544 SLP052 T00610006 10089 20061 53002,M
ELY,2024-02-08 05:53,-114.8453,39.2950,1909.00,25.00,22.00,88.18,210.00,9.00,0.00,29.70,1006.10,10.00,M,SCT,M,M,M,5000.00,M,M,M,M,M,M,M,M,M,M,14.81,KELY 080553Z AUTO 21009KT 10SM SCT050 M04/M06 A2970 RMK AO2 SLP061 60004 T10391056 10006 21061 53005,M
VGT,2024-02-08 05:53,-115.1933,36.2111,667.00,51.00,35.00,54.12,180.00,9.00,0.00,29.75,1008.80,10.00,M,BKN,OVC,M,M,7000.00,8000.00,M,M,M,M,M,M,M,M,M,51.00,KVGT 080553Z AUTO 18009KT 10SM BKN070 OVC080 11/02 A2975 RMK AO2 SLP088 T01060017 10128 20100 51003,M
LOL,2024-02-08 05:53,-118.5701,40.0684,1192.43,34.00,32.00,92.29,10.00,6.00,0.00,29.71,1007.50,10.00,M,OVC,M,M,M,10000.00,M,M,M,M,M,M,M,M,M,M,27.94,KLOL 080553Z AUTO 01006KT 10SM OVC100 01/00 A2971 RMK AO2 SLP075 T00110000 10033 20000 53012,M
P68,2024-02-08 05:53,-116.0056,39.6014,1993.00,29.00,25.00,84.79,0.00,0.00,0.00,29.68,1004.50,M,M,M,M,M,M,M,M,M,M,M,M,M,M,M,M,M,29.00,KP68 080553Z AUTO 00000KT M02/M04 A2968 RMK AO1 SLP045 T10171039 10033 21022 53005 $,M
BVU,2024-02-08 05:55,-114.8611,35.9475,671.00,50.00,37.40,61.76,170.00,10.00,0.00,29.78,M,10.00,20.00,BKN,OVC,M,M,6500.00,8000.00,M,M,M,M,M,M,M,M,M,50.00,KBVU 080555Z AUTO 17010G20KT 10SM BKN065 OVC080 10/03 A2978 RMK AO2,M
CXP,2024-02-08 05:55,-119.7326,39.1923,1431.00,33.80,30.20,86.49,0.00,0.00,0.00,29.71,M,10.00,M,FEW,BKN,OVC,M,1700.00,2300.00,5000.00,M,M,M,M,M,M,M,M,33.80,KCXP 080555Z AUTO 00000KT 10SM FEW017 BKN023 OVC050 01/M01 A2971 RMK AO2,M
RNO,2024-02-08 05:55,-119.7711,39.4839,1341.00,35.00,30.00,81.78,360.00,7.00,T,29.72,1006.30,10.00,M,BKN,OVC,M,M,2700.00,4000.00,M,M,M,M,M,M,M,M,M,28.44,KRNO 080555Z 36007KT 10SM BKN027 OVC040 02/M01 A2972 RMK AO2 SNE39 SLP063 P0000 60000 T00171011 10050 20017 52015 $,M
05U,2024-02-08 05:55,-116.0051,39.6042,1811.23,28.40,24.80,86.18,0.00,0.00,0.00,29.71,M,10.00,M,M,M,M,M,M,M,M,M,M,M,M,M,M,M,M,28.40,K05U 080555Z AUTO 00000KT 10SM M02/M04 A2971 RMK A01,M
BAM,2024-02-08 05:55,-116.8743,40.5990,1382.36,32.00,32.00,100.00,0.00,0.00,0.00,29.72,M,10.00,M,OVC,M,M,M,8500.00,M,M,M,M,M,M,M,M,M,M,32.00,KBAM 080555Z AUTO 00000KT 10SM OVC085 00/00 A2972 RMK AO1,M
HTH,2024-02-08 05:55,-118.6315,38.5448,1282.89,32.00,32.00,100.00,280.00,4.00,0.04,29.69,M,0.50,M,OVC,M,M,M,200.00,M,M,M,BR,M,M,M,M,M,M,27.42,KHTH 080555Z AUTO 28004KT 1/2SM BR OVC002 00/00 A2969 RMK A01 P0004,M
TMT,2024-02-08 05:55,-117.1971,39.4643,1749.34,29.30,28.00,94.82,0.00,0.00,0.00,29.68,M,10.00,M,SCT,OVC,M,M,5500.00,8000.00,M,M,M,M,M,M,M,M,M,29.30,KTMT 080555Z AUTO 00000KT 10SM SCT055 OVC080 M01/M02 A2968 RMK AO2 T10151022 10025 21015,M
10U,2024-02-08 05:55,-116.1876,41.9532,1637.00,30.20,26.60,86.28,210.00,3.00,0.00,29.71,M,10.00,M,OVC,M,M,M,6500.00,M,M,M,M,M,M,M,M,M,M,26.63,K10U 080555Z AUTO 21003KT 10SM OVC065 M01/M03 A2971 RMK AO2,M
INS,2024-02-08 05:55,-115.6733,36.5872,955.00,44.20,34.00,67.15,70.00,9.00,0.00,29.71,1004.70,10.00,M,SCT,BKN,OVC,M,5000.00,7500.00,11000.00,M,M,M,M,M,M,M,M,38.68,KINS 080555Z AUTO 07009KT 10SM SCT050 BKN075 OVC110 07/01 A2971 RMK AO2 SLP047 60000 T00680011 10098 20062 53001 $,M
LSV,2024-02-08 05:55,-115.0343,36.2362,570.00,51.40,35.80,55.04,180.00,14.00,0.00,29.72,1005.90,10.00,M,FEW,M,M,M,8000.00,M,M,M,M,M,M,M,M,M,M,51.40,KLSV 080555Z AUTO 18014KT 10SM FEW080 11/02 A2972 RMK AO2 SLP059 T01080021 10133 20108 50000 $,M
EKO,2024-02-08 05:56,-115.7860,40.8242,1367.00,29.00,27.00,92.12,0.00,0.00,0.00,29.70,1007.00,10.00,M,OVC,M,M,M,7000.00,M,M,M,M,M,M,M,M,M,M,29.00,KEKO 080556Z AUTO 00000KT 10SM OVC070 M02/M03 A2970 RMK AO2 SLP070 T10171028 10028 21017 53010,M
NFL,2024-02-08 05:56,-118.7010,39.4166,1199.00,36.00,33.00,88.73,320.00,7.00,0.00,29.70,1004.00,10.00,M,BKN,OVC,M,M,3000.00,5000.00,M,M,M,M,M,M,M,M,M,29.65,KNFL 080556Z 32007KT 10SM BKN030 OVC050 02/01 A2970 RMK AO2 SLP040 T00220006 10061 20022 53013,M
HND,2024-02-08 05:56,-115.1344,35.9729,742.79,47.00,36.00,65.38,160.00,9.00,0.00,29.77,1010.00,10.00,M,BKN,M,M,M,7000.00,M,M,M,M,M,M,M,M,M,M,42.17,KHND 080556Z AUTO 16009KT 10SM BKN070 08/02 A2977 RMK AO2 SLP100 T00830022 10117 20078 56003,M
TPH,2024-02-08 05:56,-117.0904,38.0505,1654.00,33.00,30.00,88.58,110.00,9.00,T,29.65,1004.10,9.00,M,BKN,BKN,OVC,M,1400.00,2700.00,5000.00,M,-SN,M,M,M,M,M,M,24.76,KTPH 080556Z AUTO 11009KT 9SM -SN BKN014 BKN027 OVC050 01/M01 A2965 RMK AO2 SNB46 SLP041 P0000 60000 T00061011 10033 20000 50001,M
LAS,2024-02-08 05:56,-115.1634,36.0719,663.00,49.00,34.00,56.02,170.00,8.00,0.00,29.75,1007.00,10.00,M,BKN,BKN,OVC,M,7500.00,11000.00,15000.00,M,M,M,M,M,M,M,M,45.05,KLAS 080556Z 17008KT 10SM BKN075 BKN110 OVC150 09/01 A2975 RMK AO2 SLP070 T00940011 10117 20094 56003,M
WMC,2024-02-08 05:56,-117.8072,40.9019,1315.00,32.00,27.00,81.55,0.00,0.00,0.00,29.72,1006.70,10.00,M,FEW,SCT,M,M,3300.00,9000.00,M,M,M,M,M,M,M,M,M,32.00,KWMC 080556Z AUTO 00000KT 10SM FEW033 SCT090 00/M03 A2972 RMK AO2 SLP067 T00001028 10028 21006 53012,M
BVU,2024-02-08 06:15,-114.8611,35.9475,671.00,50.00,35.60,57.52,170.00,17.00,0.00,29.77,M,10.00,M,OVC,M,M,M,7000.00,M,M,M,M,M,M,M,M,M,M,50.00,KBVU 080615Z AUTO 17017KT 10SM OVC070 10/02 A2977 RMK AO2,M
CXP,2024-02-08 06:15,-119.7326,39.1923,1431.00,33.80,30.20,86.49,340.00,5.00,0.00,29.72,M,10.00,M,FEW,SCT,BKN,M,1800.00,2800.00,3900.00,M,M,M,M,M,M,M,M,28.53,KCXP 080615Z AUTO 34005KT 10SM FEW018 SCT028 BKN039 01/M01 A2972 RMK AO2,M
RTS,2024-02-08 06:15,-119.8764,39.6682,1539.00,30.20,30.20,100.00,340.00,6.00,0.00,29.73,M,10.00,M,SCT,SCT,OVC,M,2500.00,3000.00,4300.00,M,M,M,M,M,M,M,M,23.36,KRTS 080615Z AUTO 34006KT 10SM SCT025 SCT030 OVC043 M01/M01 A2973 RMK AO2,M
05U,2024-02-08 06:15,-116.0051,39.6042,1811.23,28.40,24.80,86.18,0.00,0.00,0.00,29.71,M,10.00,M,M,M,M,M,M,M,M,M,M,M,M,M,M,M,M,28.40,K05U 080615Z AUTO 00000KT 10SM M02/M04 A2971 RMK A01,M
MEV,2024-02-08 06:15,-119.7500,38.9963,1441.42,32.00,30.20,92.97,M,3.00,0.00,29.70,M,10.00,M,FEW,BKN,OVC,M,400.00,3100.00,5000.00,M,M,M,M,M,M,M,M,28.69,KMEV 080615Z AUTO VRB03KT 10SM FEW004 BKN031 OVC050 M00/M01 A2970 RMK AO2,M
BAM,2024-02-08 06:15,-116.8743,40.5990,1382.36,33.80,32.00,93.03,0.00,0.00,0.00,29.73,M,10.00,M,BKN,OVC,M,M,6500.00,8500.00,M,M,M,M,M,M,M,M,M,33.80,KBAM 080615Z AUTO 00000KT 10SM BKN065 OVC085 01/00 A2973 RMK AO1,M
HTH,2024-02-08 06:15,-118.6315,38.5448,1282.89,32.00,32.00,100.00,340.00,6.00,0.00,29.69,M,0.50,M,OVC,M,M,M,200.00,M,M,M,FG,M,M,M,M,M,M,25.53,KHTH 080615Z AUTO 34006KT 1/2SM FG OVC002 00/00 A2969 RMK A01,M
10U,2024-02-08 06:15,-116.1876,41.9532,1637.00,30.20,26.60,86.28,200.00,4.00,0.00,29.71,M,10.00,M,FEW,SCT,OVC,M,3600.00,4400.00,6500.00,M,M,M,M,M,M,M,M,25.32,K10U 080615Z AUTO 20004KT 10SM FEW036 SCT044 OVC065 M01/M03 A2971 RMK AO2,M
TMT,2024-02-08 06:15,-117.1971,39.4643,1749.34,29.30,28.00,94.82,0.00,0.00,0.00,29.69,M,10.00,M,BKN,OVC,M,M,5500.00,8000.00,M,M,M,M,M,M,M,M,M,29.30,KTMT 080615Z AUTO 00000KT 10SM BKN055 OVC080 M01/M02 A2969 RMK AO2 T10151022,M
RNO,2024-02-08 06:22,-119.7711,39.4839,1341.00,35.00,30.00,81.78,340.00,7.00,0.00,29.72,M,10.00,M,SCT,BKN,M,M,1600.00,4800.00,M,M,M,M,M,M,M,M,M,28.44,KRNO 080622Z 34007KT 10SM SCT016 BKN048 02/M01 A2972 RMK AO2 T00171011 $,M
TPH,2024-02-08 06:29,-117.0904,38.0505,1654.00,33.00,31.00,92.25,130.00,11.00,T,29.65,M,10.00,M,SCT,BKN,OVC,M,500.00,1300.00,2400.00,M,M,M,M,M,M,M,M,23.73,KTPH 080629Z AUTO 13011KT 10SM SCT005 BKN013 OVC024 01/M01 A2965 RMK AO2 SNE10 P0000 T00061006,M
BVU,2024-02-08 06:35,-114.8611,35.9475,671.00,50.00,35.60,57.52,180.00,14.00,0.00,29.77,M,10.00,22.00,FEW,OVC,M,M,6000.00,7000.00,M,M,M,M,M,M,M,M,M,50.00,KBVU 080635Z AUTO 18014G22KT 10SM FEW060 OVC070 10/02 A2977 RMK AO2,M
CXP,2024-02-08 06:35,-119.7326,39.1923,1431.00,33.80,30.20,86.49,340.00,10.00,0.00,29.72,M,9.00,M,FEW,BKN,OVC,M,2000.00,2700.00,4100.00,M,UP,M,M,M,M,M,M,25.23,KCXP 080635Z AUTO 34010KT 9SM UP FEW020 BKN027 OVC041 01/M01 A2972 RMK AO2,M
RTS,2024-02-08 06:35,-119.8764,39.6682,1539.00,30.20,30.20,100.00,350.00,6.00,0.00,29.73,M,10.00,M,BKN,OVC,M,M,2400.00,3300.00,M,M,M,M,M,M,M,M,M,23.36,KRTS 080635Z AUTO 35006KT 10SM BKN024 OVC033 M01/M01 A2973 RMK AO2,M
05U,2024-02-08 06:35,-116.0051,39.6042,1811.23,28.40,26.60,92.86,280.00,3.00,0.00,29.71,M,10.00,M,M,M,M,M,M,M,M,M,M,M,M,M,M,M,M,24.57,K05U 080635Z AUTO 28003KT 10SM M02/M03 A2971 RMK A01,M
MEV,2024-02-08 06:35,-119.7500,38.9963,1441.42,32.00,32.00,100.00,330.00,6.00,0.00,29.70,M,10.00,M,FEW,SCT,BKN,M,2700.00,3500.00,4200.00,M,M,M,M,M,M,M,M,25.53,KMEV 080635Z AUTO 33006KT 10SM FEW027 SCT035 BKN042 00/M00 A2970 RMK AO2,M
BAM,2024-02-08 06:35,-116.8743,40.5990,1382.36,32.00,32.00,100.00,0.00,0.00,0.00,29.72,M,10.00,M,BKN,OVC,M,M,6500.00,9000.00,M,M,M,M,M,M,M,M,M,32.00,KBAM 080635Z AUTO 00000KT 10SM BKN065 OVC090 00/00 A2972 RMK AO1,M
HTH,2024-02-08 06:35,-118.6315,38.5448,1282.89,32.00,32.00,100.00,310.00,6.00,0.00,29.70,M,0.75,M,OVC,M,M,M,200.00,M,M,M,BR,M,M,M,M,M,M,25.53,KHTH 080635Z AUTO 31006KT 3/4SM BR OVC002 00/00 A2970 RMK A01,M
10U,2024-02-08 06:35,-116.1876,41.9532,1637.00,30.20,26.60,86.28,200.00,4.00,0.00,29.71,M,10.00,M,FEW,OVC,M,M,4300.00,6500.00,M,M,M,M,M,M,M,M,M,25.32,K10U 080635Z AUTO 20004KT 10SM FEW043 OVC065 M01/M03 A2971 RMK AO2,M
TMT,2024-02-08 06:35,-117.1971,39.4643,1749.34,29.30,28.00,94.82,80.00,3.00,0.00,29.69,M,10.00,M,SCT,OVC,M,M,5500.00,8000.00,M,M,M,M,M,M,M,M,M,25.60,KTMT 080635Z AUTO 08003KT 10SM SCT055 OVC080 M01/M02 A2969 RMK AO2 T10151022,M
ELY,2024-02-08 06:38,-114.8453,39.2950,1909.00,27.00,24.00,88.28,190.00,6.00,T,29.71,M,1.75,M,BKN,OVC,M,M,2900.00,6000.00,M,M,-SN BR,M,M,M,M,M,M,19.51,KELY 080638Z AUTO 19006KT 1 3/4SM -SN BR BKN029 OVC060 M03/M04 A2971 RMK AO2 SNB21 P0000 T10281044,M
TPH,2024-02-08 06:42,-117.0904,38.0505,1654.00,32.00,31.00,96.04,130.00,12.00,T,29.65,M,4.00,M,SCT,BKN,OVC,M,700.00,1500.00,3600.00,M,-SN BR,M,M,M,M,M,M,22.00,KTPH 080642Z AUTO 13012KT 4SM -SN BR SCT007 BKN015 OVC036 00/M01 A2965 RMK AO2 SNE10B32 P0000 T00001006,M
ELY,2024-02-08 06:46,-114.8453,39.2950,1909.00,27.00,25.00,92.05,220.00,5.00,T,29.71,M,0.75,M,VV ,M,M,M,2000.00,M,M,M,-SN BR,M,M,M,M,M,M,20.46,KELY 080646Z AUTO 22005KT 3/4SM -SN BR VV020 M03/M04 A2971 RMK AO2 SNB21 P0000 T10281039,M
TPH,2024-02-08 06:49,-117.0904,38.0505,1654.00,32.00,31.00,96.04,130.00,11.00,T,29.65,M,3.00,M,FEW,BKN,OVC,M,500.00,900.00,2100.00,M,-SN BR,M,M,M,M,M,M,22.47,KTPH 080649Z AUTO 13011KT 3SM -SN BR FEW005 BKN009 OVC021 00/M01 A2965 RMK AO2 SNE10B32 CIG 006V010 P0000 T00001006,M
DRA,2024-02-08 06:53,-116.0278,36.6206,1009.00,42.00,34.00,73.06,190.00,9.00,0.00,29.71,1005.10,10.00,M,SCT,OVC,M,M,3100.00,3800.00,M,M,M,M,M,M,27.00,190.00,2024-02-08 05:57,35.95,KDRA 080653Z AUTO 19009KT 10SM SCT031 OVC038 06/01 A2971 RMK AO2 PK WND 19027/0557 SLP051 T00560011,M
ELY,2024-02-08 06:53,-114.8453,39.2950,1909.00,27.00,25.00,92.05,210.00,7.00,0.01,29.71,1005.80,1.75,M,OVC,M,M,M,2000.00,M,M,M,-SN BR,M,M,M,M,M,M,18.68,KELY 080653Z AUTO 21007KT 1 3/4SM -SN BR OVC020 M03/M04 A2971 RMK AO2 SNB21 SLP058 P0001 T10281039,M
VGT,2024-02-08 06:53,-115.1933,36.2111,667.00,51.00,34.00,52.00,180.00,8.00,0.00,29.75,1008.80,10.00,M,BKN,BKN,M,M,5500.00,8000.00,M,M,M,M,M,M,M,M,M,51.00,KVGT 080653Z AUTO 18008KT 10SM BKN055 BKN080 11/01 A2975 RMK AO2 SLP088 T01060011,M
LOL,2024-02-08 06:53,-118.5701,40.0684,1192.43,33.00,31.00,92.25,20.00,7.00,0.00,29.72,1007.40,10.00,M,FEW,SCT,M,M,6500.00,10000.00,M,M,M,M,M,M,M,M,M,26.00,KLOL 080653Z AUTO 02007KT 10SM FEW065 SCT100 01/M01 A2972 RMK AO2 SLP074 T00061006,M
P68,2024-02-08 06:53,-116.0056,39.6014,1993.00,29.00,25.00,84.79,150.00,3.00,0.00,29.69,1004.90,M,M,M,M,M,M,M,M,M,M,M,M,M,M,M,M,M,25.26,KP68 080653Z AUTO 15003KT M02/M04 A2969 RMK AO1 SLP049 T10171039 $,M
BVU,2024-02-08 06:55,-114.8611,35.9475,671.00,48.20,35.60,61.52,160.00,9.00,0.00,29.77,M,10.00,M,BKN,OVC,M,M,6000.00,7000.00,M,M,M,M,M,M,M,M,M,43.66,KBVU 080655Z AUTO 16009KT 10SM BKN060 OVC070 09/02 A2977 RMK AO2,M
CXP,2024-02-08 06:55,-119.7326,39.1923,1431.00,33.80,30.20,86.49,10.00,8.00,0.00,29.73,M,3.00,M,FEW,OVC,M,M,1900.00,2600.00,M,M,UP BR,M,M,M,M,M,M,26.33,KCXP 080655Z AUTO 01008KT 3SM UP BR FEW019 OVC026 01/M01 A2973 RMK AO2,M
RNO,2024-02-08 06:55,-119.7711,39.4839,1341.00,35.00,30.00,81.78,340.00,6.00,0.00,29.74,1006.60,10.00,M,OVC,M,M,M,5000.00,M,M,M,M,M,M,M,M,M,M,29.14,KRNO 080655Z 34006KT 10SM OVC050 02/M01 A2974 RMK AO2 SLP066 T00171011 $,M
RTS,2024-02-08 06:55,-119.8764,39.6682,1539.00,30.20,28.40,92.92,350.00,6.00,0.00,29.73,M,10.00,M,FEW,SCT,OVC,M,2200.00,2900.00,3400.00,M,M,M,M,M,M,M,M,23.36,KRTS 080655Z AUTO 35006KT 10SM FEW022 SCT029 OVC034 M01/M02 A2973 RMK AO2,M
05U,2024-02-08 06:55,-116.0051,39.6042,1811.23,28.40,24.80,86.18,0.00,0.00,0.00,29.71,M,10.00,M,M,M,M,M,M,M,M,M,M,M,M,M,M,M,M,28.40,K05U 080655Z AUTO 00000KT 10SM M02/M04 A2971 RMK A01,M
MEV,2024-02-08 06:55,-119.7500,38.9963,1441.42,32.00,32.00,100.00,350.00,6.00,0.00,29.71,M,10.00,M,FEW,BKN,OVC,M,1300.00,4800.00,5500.00,M,M,M,M,M,M,M,M,25.53,KMEV 080655Z AUTO 35006KT 10SM FEW013 BKN048 OVC055 00/M00 A2971 RMK AO2,M
BAM,2024-02-08 06:55,-116.8743,40.5990,1382.36,32.00,32.00,100.00,90.00,4.00,0.00,29.73,M,10.00,M,OVC,M,M,M,9000.00,M,M,M,M,M,M,M,M,M,M,27.42,KBAM 080655Z AUTO 09004KT 10SM OVC090 00/00 A2973 RMK AO1,M
HTH,2024-02-08 06:55,-118.6315,38.5448,1282.89,32.00,32.00,100.00,320.00,12.00,0.11,29.70,M,0.50,M,OVC,M,M,M,200.00,M,M,M,BR,M,M,M,M,M,M,22.00,KHTH 080655Z AUTO 32012KT 1/2SM BR OVC002 00/00 A2970 RMK A01 P0011,M
INS,2024-02-08 06:55,-115.6733,36.5872,955.00,43.70,34.50,69.82,90.00,4.00,0.00,29.71,1004.70,10.00,M,BKN,OVC,M,M,8000.00,9000.00,M,M,M,M,M,M,M,M,M,41.08,KINS 080655Z AUTO 09004KT 10SM BKN080 OVC090 07/01 A2971 RMK AO2 SLP047 T00650014 $,M
LSV,2024-02-08 06:55,-115.0343,36.2362,570.00,51.00,35.00,54.12,180.00,14.00,0.00,29.72,1005.90,10.00,M,BKN,M,M,M,8000.00,M,M,M,M,M,M,M,M,M,M,51.00,KLSV 080655Z AUTO 18014KT 10SM BKN080 11/02 A2972 RMK AO2 SLP059 T01060017 $,M
TMT,2024-02-08 06:55,-117.1971,39.4643,1749.34,29.00,28.00,95.99,0.00,0.00,0.00,29.70,M,10.00,M,OVC,M,M,M,8000.00,M,M,M,M,M,M,M,M,M,M,29.00,KTMT 080655Z AUTO 00000KT 10SM OVC080 M02/M02 A2970 RMK AO2 T10161022,M
10U,2024-02-08 06:55,-116.1876,41.9532,1637.00,30.20,26.60,86.28,210.00,4.00,0.00,29.71,M,10.00,M,SCT,OVC,M,M,3300.00,6500.00,M,M,M,M,M,M,M,M,M,25.32,K10U 080655Z AUTO 21004KT 10SM SCT033 OVC065 M01/M03 A2971 RMK AO2,M
EKO,2024-02-08 06:56,-115.7860,40.8242,1367.00,29.00,27.00,92.12,0.00,0.00,0.00,29.71,1007.00,10.00,M,BKN,OVC,M,M,6000.00,8000.00,M,M,M,M,M,M,M,M,M,29.00,KEKO 080656Z AUTO 00000KT 10SM BKN060 OVC080 M02/M03 A2971 RMK AO2 SLP070 T10171028,M
ELY,2024-02-08 06:56,-114.8453,39.2950,1909.00,27.00,25.00,92.05,210.00,6.00,T,29.71,M,4.00,M,OVC,M,M,M,2200.00,M,M,M,-SN BR,M,M,M,M,M,M,19.51,KELY 080656Z AUTO 21006KT 4SM -SN BR OVC022 M03/M04 A2971 RMK AO2 P0000 T10281039,M
NFL,2024-02-08 06:56,-118.7010,39.4166,1199.00,34.00,32.00,92.29,310.00,7.00,0.00,29.71,1004.30,10.00,M,BKN,OVC,M,M,3000.00,5000.00,M,M,M,M,M,M,M,M,M,27.22,KNFL 080656Z 31007KT 10SM BKN030 OVC050 01/00 A2971 RMK AO2 SLP043 T00110000,M
HND,2024-02-08 06:56,-115.1344,35.9729,742.79,47.00,34.00,60.38,170.00,11.00,0.00,29.77,1010.00,10.00,M,FEW,BKN,OVC,M,8000.00,9000.00,11000.00,M,M,M,M,M,M,M,M,41.42,KHND 080656Z AUTO 17011KT 10SM FEW080 BKN090 OVC110 08/01 A2977 RMK AO2 SLP100 T00830011 401170050,M
TPH,2024-02-08 06:56,-117.0904,38.0505,1654.00,32.00,31.00,96.04,130.00,11.00,T,29.66,1004.30,3.00,M,FEW,BKN,OVC,M,400.00,900.00,1600.00,M,-SN BR,M,M,M,M,M,M,22.47,KTPH 080656Z AUTO 13011KT 3SM -SN BR FEW004 BKN009 OVC016 00/M01 A2966 RMK AO2 SNE10B32 SLP043 P0000 T00001006,M
LAS,2024-02-08 06:56,-115.1634,36.0719,663.00,49.00,34.00,56.02,170.00,5.00,0.00,29.75,1007.20,10.00,M,SCT,OVC,M,M,6500.00,10000.00,M,M,M,M,M,M,M,M,M,46.58,KLAS 080656Z 17005KT 10SM SCT065 OVC100 09/01 A2975 RMK AO2 SLP072 T00940011,M
WMC,2024-02-08 06:56,-117.8072,40.9019,1315.00,30.00,27.00,88.44,0.00,0.00,0.00,29.73,1007.10,10.00,M,OVC,M,M,M,3400.00,M,M,M,M,M,M,M,M,M,M,30.00,KWMC 080656Z AUTO 00000KT 10SM OVC034 M01/M03 A2973 RMK AO2 SLP071 T10111028,M
TPH,2024-02-08 07:04,-117.0904,38.0505,1654.00,32.00,31.00,96.04,140.00,10.00,T,29.66,M,2.00,M,BKN,OVC,M,M,900.00,1600.00,M,M,-SN BR,M,M,M,M,M,M,22.97,KTPH 080704Z AUTO 14010KT 2SM -SN BR BKN009 OVC016 00/M01 A2966 RMK AO2 P0000 T00001006,M
ELY,2024-02-08 07:09,-114.8453,39.2950,1909.00,25.00,23.00,91.97,210.00,6.00,T,29.70,M,9.00,M,BKN,BKN,M,M,3000.00,5000.00,M,M,M,M,M,M,M,M,M,17.10,KELY 080709Z AUTO 21006KT 9SM BKN030 BKN050 M04/M05 A2970 RMK AO2 SNE08 P0000 T10391050,M
TPH,2024-02-08 07:14,-117.0904,38.0505,1654.00,32.00,31.00,96.04,130.00,9.00,T,29.66,M,3.00,M,SCT,BKN,OVC,M,900.00,1300.00,2400.00,M,-SN BR,M,M,M,M,M,M,23.51,KTPH 080714Z AUTO 13009KT 3SM -SN BR SCT009 BKN013 OVC024 00/M01 A2966 RMK AO2 P0000 T00001006,M
BVU,2024-02-08 07:15,-114.8611,35.9475,671.00,48.20,37.40,66.05,180.00,9.00,0.00,29.78,M,10.00,M,FEW,SCT,OVC,M,4200.00,5000.00,6000.00,M,M,M,M,M,M,M,M,43.66,KBVU 080715Z AUTO 18009KT 10SM FEW042 SCT050 OVC060 09/03 A2978 RMK AO2,M
CXP,2024-02-08 07:15,-119.7326,39.1923,1431.00,33.80,30.20,86.49,350.00,6.00,0.00,29.74,M,4.00,M,FEW,SCT,BKN,M,300.00,1000.00,2000.00,M,UP BR,M,M,M,M,M,M,27.70,KCXP 080715Z AUTO 35006KT 4SM UP BR FEW003 SCT010 BKN020 01/M01 A2974 RMK AO2,M
RTS,2024-02-08 07:15,-119.8764,39.6682,1539.00,30.20,28.40,92.92,340.00,5.00,0.00,29.75,M,10.00,M,OVC,M,M,M,3300.00,M,M,M,M,M,M,M,M,M,M,24.26,KRTS 080715Z AUTO 34005KT 10SM OVC033 M01/M02 A2975 RMK AO2,M
05U,2024-02-08 07:15,-116.0051,39.6042,1811.23,28.40,26.60,92.86,0.00,0.00,0.00,29.72,M,10.00,M,M,M,M,M,M,M,M,M,M,M,M,M,M,M,M,28.40,K05U 080715Z AUTO 00000KT 10SM M02/M03 A2972 RMK A01,M
MEV,2024-02-08 07:15,-119.7500,38.9963,1441.42,32.00,30.20,92.97,350.00,10.00,0.00,29.72,M,10.00,M,FEW,FEW,OVC,M,1200.00,3200.00,4800.00,M,M,M,M,M,M,M,M,22.97,KMEV 080715Z AUTO 35010KT 10SM FEW012 FEW032 OVC048 00/M01 A2972 RMK AO2,M
BAM,2024-02-08 07:15,-116.8743,40.5990,1382.36,32.00,32.00,100.00,0.00,0.00,0.00,29.73,M,10.00,M,BKN,M,M,M,9000.00,M,M,M,M,M,M,M,M,M,M,32.00,KBAM 080715Z AUTO 00000KT 10SM BKN090 00/00 A2973 RMK AO1,M
HTH,2024-02-08 07:15,-118.6315,38.5448,1282.89,32.00,32.00,100.00,320.00,14.00,0.00,29.70,M,0.50,23.00,OVC,M,M,M,200.00,M,M,M,FG,M,M,M,M,M,M,21.16,KHTH 080715Z AUTO 32014G23KT 1/2SM FG OVC002 00/00 A2970 RMK A01,M
10U,2024-02-08 07:15,-116.1876,41.9532,1637.00,28.40,26.60,92.86,200.00,5.00,0.00,29.72,M,10.00,M,BKN,OVC,M,M,3200.00,6500.00,M,M,M,M,M,M,M,M,M,22.12,K10U 080715Z AUTO 20005KT 10SM BKN032 OVC065 M02/M03 A2972 RMK AO2,M
TMT,2024-02-08 07:15,-117.1971,39.4643,1749.34,29.00,28.00,95.99,30.00,4.00,0.00,29.70,M,10.00,M,OVC,M,M,M,8000.00,M,M,M,M,M,M,M,M,M,M,23.92,KTMT 080715Z AUTO 03004KT 10SM OVC080 M02/M02 A2970 RMK AO2 T10171022,M
TPH,2024-02-08 07:25,-117.0904,38.0505,1654.00,32.00,31.00,96.04,120.00,6.00,T,29.66,M,8.00,M,FEW,BKN,OVC,M,900.00,1800.00,3000.00,M,-SN,M,M,M,M,M,M,25.53,KTPH 080725Z AUTO 12006KT 8SM -SN FEW009 BKN018 OVC030 00/M01 A2966 RMK AO2 P0000 T00001006,M
RNO,2024-02-08 07:34,-119.7711,39.4839,1341.00,35.00,30.00,81.78,350.00,5.00,T,29.75,M,8.00,M,BKN,OVC,M,M,1900.00,2400.00,M,M,-SN,M,M,M,M,M,M,29.96,KRNO 080734Z 35005KT 8SM -SN BKN019 OVC024 02/M01 A2975 RMK AO2 SNB31 P0000 T00171011 $,M
BVU,2024-02-08 07:35,-114.8611,35.9475,671.00,48.20,37.40,66.05,180.00,9.00,0.00,29.78,M,10.00,15.00,FEW,FEW,OVC,M,4200.00,5000.00,6000.00,M,M,M,M,M,M,M,M,43.66,KBVU 080735Z AUTO 18009G15KT 10SM FEW042 FEW050 OVC060 09/03 A2978 RMK AO2,M
CXP,2024-02-08 07:35,-119.7326,39.1923,1431.00,33.80,30.20,86.49,350.00,10.00,0.00,29.74,M,10.00,M,FEW,BKN,OVC,M,2200.00,4700.00,5500.00,M,M,M,M,M,M,M,M,25.23,KCXP 080735Z AUTO 35010KT 10SM FEW022 BKN047 OVC055 01/M01 A2974 RMK AO2,M
RTS,2024-02-08 07:35,-119.8764,39.6682,1539.00,28.40,26.60,92.86,300.00,4.00,0.00,29.75,M,10.00,M,BKN,OVC,M,M,3100.00,3600.00,M,M,M,M,M,M,M,M,M,23.22,KRTS 080735Z AUTO 30004KT 10SM BKN031 OVC036 M02/M03 A2975 RMK AO2,M
05U,2024-02-08 07:35,-116.0051,39.6042,1811.23,28.40,26.60,92.86,0.00,0.00,0.00,29.72,M,10.00,M,M,M,M,M,M,M,M,M,M,M,M,M,M,M,M,28.40,K05U 080735Z AUTO 00000KT 10SM M02/M03 A2972 RMK A01,M
MEV,2024-02-08 07:35,-119.7500,38.9963,1441.42,32.00,30.20,92.97,340.00,11.00,0.00,29.72,M,10.00,M,SCT,OVC,M,M,3100.00,4900.00,M,M,M,M,M,M,M,M,M,22.47,KMEV 080735Z AUTO 34011KT 10SM SCT031 OVC049 00/M01 A2972 RMK AO2,M
BAM,2024-02-08 07:35,-116.8743,40.5990,1382.36,32.00,32.00,100.00,0.00,0.00,0.00,29.73,M,10.00,M,OVC,M,M,M,10000.00,M,M,M,M,M,M,M,M,M,M,32.00,KBAM 080735Z AUTO 00000KT 10SM OVC100 00/00 A2973 RMK AO1,M
HTH,2024-02-08 07:35,-118.6315,38.5448,1282.89,32.00,32.00,100.00,320.00,14.00,0.00,29.70,M,0.50,22.00,OVC,M,M,M,200.00,M,M,M,BR,M,M,M,M,M,M,21.16,KHTH 080735Z AUTO 32014G22KT 1/2SM BR OVC002 00/00 A2970 RMK A01,M
10U,2024-02-08 07:35,-116.1876,41.9532,1637.00,30.20,26.60,86.28,200.00,4.00,0.00,29.72,M,10.00,M,BKN,OVC,M,M,3300.00,6500.00,M,M,M,M,M,M,M,M,M,25.32,K10U 080735Z AUTO 20004KT 10SM BKN033 OVC065 M01/M03 A2972 RMK AO2,M
TMT,2024-02-08 07:35,-117.1971,39.4643,1749.34,29.70,28.40,94.83,360.00,4.00,0.00,29.70,M,10.00,M,OVC,M,M,M,8000.00,M,M,M,M,M,M,M,M,M,M,24.73,KTMT 080735Z AUTO 36004KT 10SM OVC080 M01/M02 A2970 RMK AO2 T10131020,M
LSV,2024-02-08 07:38,-115.0343,36.2362,570.00,51.80,35.60,53.81,190.00,17.00,0.00,29.74,1006.50,10.00,26.00,SCT,M,M,M,7000.00,M,M,M,-RA,M,M,M,M,M,M,51.80,KLSV 080738Z AUTO 19017G26KT 10SM -RA SCT070 11/02 A2974 RMK AO2 RAB38 SLP065 $,M
DRA,2024-02-08 07:48,-116.0278,36.6206,1009.00,41.00,35.00,79.02,210.00,12.00,T,29.71,M,10.00,25.00,BKN,BKN,OVC,M,2800.00,3600.00,4900.00,M,M,M,M,M,28.00,230.00,2024-02-08 07:31,33.46,KDRA 080748Z AUTO 21012G25KT 10SM BKN028 BKN036 OVC049 05/02 A2971 RMK AO2 PK WND 23028/0731 RAB0658E13 P0000 T00500017,M
TPH,2024-02-08 07:49,-117.0904,38.0505,1654.00,32.00,30.00,92.22,110.00,8.00,T,29.66,M,2.50,M,BKN,OVC,M,M,1600.00,2200.00,M,M,-SN BR,M,M,M,M,M,M,24.11,KTPH 080749Z AUTO 11008KT 2 1/2SM -SN BR BKN016 OVC022 00/M01 A2966 RMK AO2 P0000 T00001011,M
LOL,2024-02-08 07:53,-118.5701,40.0684,1192.43,32.00,29.00,88.53,40.00,5.00,0.00,29.73,1007.80,10.00,M,CLR,M,M,M,M,M,M,M,M,M,M,M,M,M,M,26.40,KLOL 080753Z AUTO 04005KT 10SM CLR 00/M02 A2973 RMK AO2 SLP078 T00001017 400501011,M
DRA,2024-02-08 07:53,-116.0278,36.6206,1009.00,41.00,34.00,75.94,200.00,10.00,T,29.71,1005.00,10.00,24.00,BKN,BKN,OVC,M,2800.00,3400.00,4500.00,M,M,M,M,M,28.00,230.00,2024-02-08 07:31,34.25,KDRA 080753Z AUTO 20010G24KT 10SM BKN028 BKN034 OVC045 05/01 A2971 RMK AO2 PK WND 23028/0731 RAB0658E13 SLP050 P0000 T00500011 401000028,M
ELY,2024-02-08 07:53,-114.8453,39.2950,1909.00,21.00,19.00,91.83,140.00,4.00,T,29.71,1007.00,10.00,M,SCT,M,M,M,12000.00,M,M,M,M,M,M,M,M,M,M,14.57,KELY 080753Z AUTO 14004KT 10SM SCT120 M06/M07 A2971 RMK AO2 SNE08 SLP070 P0000 T10611072 400281061,M
VGT,2024-02-08 07:53,-115.1933,36.2111,667.00,49.00,36.00,60.66,190.00,7.00,0.00,29.75,1009.00,10.00,M,BKN,OVC,M,M,5000.00,6500.00,M,M,M,M,M,M,M,M,M,45.50,KVGT 080753Z AUTO 19007KT 10SM BKN050 OVC065 09/02 A2975 RMK AO2 SLP090 T00940022 401390061,M
P68,2024-02-08 07:53,-116.0056,39.6014,1993.00,29.00,26.00,88.38,0.00,0.00,0.00,29.69,1004.50,M,M,M,M,M,M,M,M,M,M,M,M,M,M,M,M,M,29.00,KP68 080753Z AUTO 00000KT M02/M03 A2969 RMK AO1 SLP045 T10171033 400501022 $,M
LSV,2024-02-08 07:55,-115.0343,36.2362,570.00,48.70,38.30,67.16,200.00,5.00,T,29.74,1006.60,10.00,M,FEW,M,M,M,6500.00,M,M,M,-RA,M,M,M,26.00,190.00,2024-02-08 07:34,46.23,KLSV 080755Z AUTO 20005KT 10SM -RA FEW065 09/04 A2974 RMK AO2 PK WND 19026/34 RAB38 SLP066 P0000 T00930035 401360073 $,M
RNO,2024-02-08 07:55,-119.7711,39.4839,1341.00,35.00,29.00,78.51,340.00,5.00,T,29.76,1007.20,9.00,M,OVC,M,M,M,2100.00,M,M,M,-SN,M,M,M,M,M,M,29.96,KRNO 080755Z 34005KT 9SM -SN OVC021 02/M02 A2976 RMK AO2 SNB31 SLP072 P0000 T00171017 400721022 $,M
BVU,2024-02-08 07:55,-114.8611,35.9475,671.00,48.20,37.40,66.05,200.00,13.00,0.00,29.77,M,10.00,M,BKN,OVC,M,M,6500.00,7500.00,M,M,M,M,M,M,M,M,M,42.32,KBVU 080755Z AUTO 20013KT 10SM BKN065 OVC075 09/03 A2977 RMK AO2,M
CXP,2024-02-08 07:55,-119.7326,39.1923,1431.00,33.80,30.20,86.49,350.00,9.00,0.00,29.75,M,10.00,M,OVC,M,M,M,4500.00,M,M,M,M,M,M,M,M,M,M,25.75,KCXP 080755Z AUTO 35009KT 10SM OVC045 01/M01 A2975 RMK AO2,M
RTS,2024-02-08 07:55,-119.8764,39.6682,1539.00,30.20,26.60,86.28,320.00,4.00,0.00,29.76,M,10.00,M,OVC,M,M,M,3000.00,M,M,M,M,M,M,M,M,M,M,25.32,KRTS 080755Z AUTO 32004KT 10SM OVC030 M01/M03 A2976 RMK AO2,M
05U,2024-02-08 07:55,-116.0051,39.6042,1811.23,28.40,26.60,92.86,220.00,3.00,0.00,29.72,M,10.00,M,M,M,M,M,M,M,M,M,M,M,M,M,M,M,M,24.57,K05U 080755Z AUTO 22003KT 10SM M02/M03 A2972 RMK A01,M
MEV,2024-02-08 07:55,-119.7500,38.9963,1441.42,32.00,30.20,92.97,350.00,10.00,0.00,29.73,M,10.00,M,FEW,OVC,M,M,2800.00,5000.00,M,M,M,M,M,M,M,M,M,22.97,KMEV 080755Z AUTO 35010KT 10SM FEW028 OVC050 00/M01 A2973 RMK AO2,M
BAM,2024-02-08 07:55,-116.8743,40.5990,1382.36,32.00,32.00,100.00,10.00,3.00,0.00,29.74,M,10.00,M,OVC,M,M,M,10000.00,M,M,M,M,M,M,M,M,M,M,28.69,KBAM 080755Z AUTO 01003KT 10SM OVC100 00/00 A2974 RMK AO1,M
HTH,2024-02-08 07:55,-118.6315,38.5448,1282.89,32.00,32.00,100.00,330.00,13.00,0.18,29.71,M,0.50,20.00,OVC,M,M,M,200.00,M,M,M,BR,M,M,M,M,M,M,21.57,KHTH 080755Z AUTO 33013G20KT 1/2SM BR OVC002 00/00 A2971 RMK A01 P0018,M
TMT,2024-02-08 07:55,-117.1971,39.4643,1749.34,29.30,28.20,95.60,360.00,6.00,0.00,29.70,M,10.00,M,OVC,M,M,M,8000.00,M,M,M,M,M,M,M,M,M,M,22.28,KTMT 080755Z AUTO 36006KT 10SM OVC080 M01/M02 A2970 RMK AO2 T10151021 400411017,M
10U,2024-02-08 07:55,-116.1876,41.9532,1637.00,30.20,28.40,92.92,210.00,3.00,0.00,29.73,M,10.00,M,OVC,M,M,M,3100.00,M,M,M,M,M,M,M,M,M,M,26.63,K10U 080755Z AUTO 21003KT 10SM OVC031 M01/M02 A2973 RMK AO2,M
INS,2024-02-08 07:55,-115.6733,36.5872,955.00,43.70,34.50,69.82,60.00,6.00,0.00,29.71,1004.70,10.00,M,FEW,BKN,OVC,M,3000.00,5000.00,6500.00,M,M,M,M,M,M,M,M,39.62,KINS 080755Z AUTO 06006KT 10SM FEW030 BKN050 OVC065 07/01 A2971 RMK AO2 SLP047 T00650014 401170047 $,M
LSV,2024-02-08 07:56,-115.0343,36.2362,570.00,48.20,37.40,66.05,210.00,4.00,0.00,29.74,1006.60,10.00,M,CLR,M,M,M,M,M,M,M,M,M,M,M,M,M,M,46.34,KLSV 080756Z AUTO 21004KT 10SM CLR 09/03 A2974 RMK AO2 RAE54 SLP066 $,M
NFL,2024-02-08 07:56,-118.7010,39.4166,1199.00,33.00,31.00,92.25,320.00,4.00,0.00,29.72,1004.60,10.00,M,CLR,M,M,M,M,M,M,M,M,M,M,M,M,M,M,28.59,KNFL 080756Z AUTO 32004KT 10SM CLR 01/M01 A2972 RMK AO2 SLP046 T00061006 400780000,M
EKO,2024-02-08 07:56,-115.7860,40.8242,1367.00,31.00,28.00,88.48,0.00,0.00,0.00,29.72,1007.20,10.00,M,BKN,OVC,M,M,7000.00,8500.00,M,M,M,M,M,M,M,M,M,31.00,KEKO 080756Z AUTO 00000KT 10SM BKN070 OVC085 M01/M02 A2972 RMK AO2 SLP072 T10061022 400281017,M
HND,2024-02-08 07:56,-115.1344,35.9729,742.79,47.00,35.00,62.84,170.00,8.00,T,29.77,1009.60,10.00,M,SCT,BKN,OVC,M,7000.00,8500.00,12000.00,M,M,M,M,M,M,M,M,42.59,KHND 080756Z AUTO 17008KT 10SM SCT070 BKN085 OVC120 08/02 A2977 RMK AO2 RAB09E22 SLP096 P0000 T00830017,M
TPH,2024-02-08 07:56,-117.0904,38.0505,1654.00,32.00,30.00,92.22,110.00,9.00,T,29.66,1004.30,2.50,M,BKN,OVC,M,M,1800.00,2400.00,M,M,-SN BR,M,M,M,M,M,M,23.51,KTPH 080756Z AUTO 11009KT 2 1/2SM -SN BR BKN018 OVC024 00/M01 A2966 RMK AO2 SLP043 P0000 T00001011 400501011,M
LAS,2024-02-08 07:56,-115.1634,36.0719,663.00,48.00,35.00,60.52,M,5.00,T,29.75,1007.20,9.00,M,FEW,BKN,OVC,M,4500.00,7000.00,10000.00,M,M,M,M,M,M,M,M,45.40,KLAS 080756Z VRB05KT 9SM FEW045 BKN070 OVC100 09/02 A2975 RMK AO2 RAB16E29 SLP072 TOPS OF MTNS OBSCURED DSNT SW-NW P0000 T00890017 401220061,M
WMC,2024-02-08 07:56,-117.8072,40.9019,1315.00,31.00,28.00,88.48,0.00,0.00,0.00,29.73,1007.30,10.00,M,OVC,M,M,M,4000.00,M,M,M,M,M,M,M,M,M,M,31.00,KWMC 080756Z AUTO 00000KT 10SM OVC040 M01/M02 A2973 RMK AO2 SLP073 T10061022 400561011,M
TPH,2024-02-08 08:02,-117.0904,38.0505,1654.00,31.00,30.00,96.02,110.00,9.00,T,29.66,M,1.75,M,FEW,BKN,OVC,M,700.00,1700.00,2200.00,M,-SN BR,M,M,M,M,M,M,22.27,KTPH 080802Z AUTO 11009KT 1 3/4SM -SN BR FEW007 BKN017 OVC022 M01/M01 A2966 RMK AO2 P0000 T10061011,M
DRA,2024-02-08 08:05,-116.0278,36.6206,1009.00,41.00,34.00,75.94,220.00,11.00,0.00,29.71,M,10.00,M,SCT,OVC,M,M,2800.00,4000.00,M,M,M,M,M,M,M,M,M,33.84,KDRA 080805Z AUTO 22011KT 10SM SCT028 OVC040 05/01 A2971 RMK AO2 T00500011,M
BVU,2024-02-08 08:15,-114.8611,35.9475,671.00,48.20,37.40,66.05,170.00,11.00,0.00,29.78,M,10.00,M,FEW,OVC,M,M,6500.00,7500.00,M,M,M,M,M,M,M,M,M,42.94,KBVU 080815Z AUTO 17011KT 10SM FEW065 OVC075 09/03 A2978 RMK AO2,M
CXP,2024-02-08 08:15,-119.7326,39.1923,1431.00,33.80,30.20,86.49,340.00,9.00,0.00,29.76,M,10.00,M,OVC,M,M,M,4700.00,M,M,M,M,M,M,M,M,M,M,25.75,KCXP 080815Z AUTO 34009KT 10SM OVC047 01/M01 A2976 RMK AO2,M
RTS,2024-02-08 08:15,-119.8764,39.6682,1539.00,30.20,26.60,86.28,310.00,5.00,0.00,29.77,M,10.00,M,BKN,OVC,M,M,3000.00,7500.00,M,M,M,M,M,M,M,M,M,24.26,KRTS 080815Z AUTO 31005KT 10SM BKN030 OVC075 M01/M03 A2977 RMK AO2,M
05U,2024-02-08 08:15,-116.0051,39.6042,1811.23,28.40,26.60,92.86,0.00,0.00,0.00,29.73,M,10.00,M,M,M,M,M,M,M,M,M,M,M,M,M,M,M,M,28.40,K05U 080815Z AUTO 00000KT 10SM M02/M03 A2973 RMK A01,M
MEV,2024-02-08 08:15,-119.7500,38.9963,1441.42,32.00,30.20,92.97,360.00,13.00,0.00,29.74,M,10.00,M,FEW,OVC,M,M,2700.00,5000.00,M,M,M,M,M,M,M,M,M,21.57,KMEV 080815Z AUTO 36013KT 10SM FEW027 OVC050 00/M01 A2974 RMK AO2,M
BAM,2024-02-08 08:15,-116.8743,40.5990,1382.36,32.00,32.00,100.00,0.00,0.00,0.00,29.74,M,10.00,M,OVC,M,M,M,10000.00,M,M,M,M,M,M,M,M,M,M,32.00,KBAM 080815Z AUTO 00000KT 10SM OVC100 00/00 A2974 RMK AO1,M
HTH,2024-02-08 08:15,-118.6315,38.5448,1282.89,32.00,32.00,100.00,320.00,12.00,0.00,29.71,M,0.50,26.00,OVC,M,M,M,200.00,M,M,M,FG,M,M,M,M,M,M,22.00,KHTH 080815Z AUTO 32012G26KT 1/2SM FG OVC002 00/00 A2971 RMK A01,M
10U,2024-02-08 08:15,-116.1876,41.9532,1637.00,30.20,28.40,92.92,220.00,3.00,0.00,29.73,M,10.00,M,SCT,BKN,OVC,M,2700.00,3100.00,4500.00,M,M,M,M,M,M,M,M,26.63,K10U 080815Z AUTO 22003KT 10SM SCT027 BKN031 OVC045 M01/M02 A2973 RMK AO2,M
TMT,2024-02-08 08:15,-117.1971,39.4643,1749.34,29.00,27.00,92.12,20.00,4.00,0.00,29.70,M,10.00,M,BKN,M,M,M,8000.00,M,M,M,M,M,M,M,M,M,M,23.92,KTMT 080815Z AUTO 02004KT 10SM BKN080 M02/M03 A2970 RMK AO2 T10161028,M
TPH,2024-02-08 08:23,-117.0904,38.0505,1654.00,31.00,30.00,96.02,120.00,10.00,0.01,29.66,M,1.00,M,SCT,OVC,M,M,500.00,1100.00,M,M,-SN BR,M,M,M,M,M,M,21.71,KTPH 080823Z AUTO 12010KT 1SM -SN BR SCT005 OVC011 M01/M01 A2966 RMK AO2 P0001 T10061011,M
BVU,2024-02-08 08:35,-114.8611,35.9475,671.00,48.20,37.40,66.05,160.00,16.00,0.00,29.77,M,10.00,M,FEW,SCT,BKN,M,3500.00,4900.00,5500.00,M,M,M,M,M,M,M,M,41.53,KBVU 080835Z AUTO 16016KT 10SM FEW035 SCT049 BKN055 09/03 A2977 RMK AO2,M
CXP,2024-02-08 08:35,-119.7326,39.1923,1431.00,33.80,30.20,86.49,350.00,7.00,0.00,29.76,M,10.00,M,FEW,BKN,OVC,M,2800.00,3900.00,4800.00,M,M,M,M,M,M,M,M,26.97,KCXP 080835Z AUTO 35007KT 10SM FEW028 BKN039 OVC048 01/M01 A2976 RMK AO2,M
RTS,2024-02-08 08:35,-119.8764,39.6682,1539.00,28.40,26.60,92.86,320.00,8.00,0.00,29.77,M,10.00,M,BKN,OVC,M,M,3000.00,7500.00,M,M,M,M,M,M,M,M,M,19.68,KRTS 080835Z AUTO 32008KT 10SM BKN030 OVC075 M02/M03 A2977 RMK AO2,M
05U,2024-02-08 08:35,-116.0051,39.6042,1811.23,28.40,26.60,92.86,0.00,0.00,0.00,29.72,M,10.00,M,M,M,M,M,M,M,M,M,M,M,M,M,M,M,M,28.40,K05U 080835Z AUTO 00000KT 10SM M02/M03 A2972 RMK A01,M
MEV,2024-02-08 08:35,-119.7500,38.9963,1441.42,32.00,30.20,92.97,350.00,12.00,0.00,29.74,M,10.00,M,SCT,OVC,M,M,5000.00,6000.00,M,M,M,M,M,M,M,M,M,22.00,KMEV 080835Z AUTO 35012KT 10SM SCT050 OVC060 00/M01 A2974 RMK AO2,M
BAM,2024-02-08 08:35,-116.8743,40.5990,1382.36,32.00,32.00,100.00,60.00,3.00,0.00,29.74,M,10.00,M,SCT,M,M,M,10000.00,M,M,M,M,M,M,M,M,M,M,28.69,KBAM 080835Z AUTO 06003KT 10SM SCT100 00/00 A2974 RMK AO1,M
HTH,2024-02-08 08:35,-118.6315,38.5448,1282.89,32.00,32.00,100.00,320.00,14.00,0.00,29.71,M,1.00,M,OVC,M,M,M,200.00,M,M,M,BR,M,M,M,M,M,M,21.16,KHTH 080835Z AUTO 32014KT 1SM BR OVC002 00/00 A2971 RMK A01,M
10U,2024-02-08 08:35,-116.1876,41.9532,1637.00,30.20,28.40,92.92,230.00,4.00,0.00,29.73,M,10.00,M,FEW,SCT,BKN,M,2200.00,2700.00,3200.00,M,M,M,M,M,M,M,M,25.32,K10U 080835Z AUTO 23004KT 10SM FEW022 SCT027 BKN032 M01/M02 A2973 RMK AO2,M
TMT,2024-02-08 08:35,-117.1971,39.4643,1749.34,28.80,27.00,92.87,350.00,5.00,0.00,29.70,M,10.00,M,BKN,BKN,M,M,4800.00,8000.00,M,M,M,M,M,M,M,M,M,22.59,KTMT 080835Z AUTO 35005KT 10SM BKN048 BKN080 M02/M03 A2970 RMK AO2 T10181028,M
TPH,2024-02-08 08:36,-117.0904,38.0505,1654.00,31.00,30.00,96.02,110.00,8.00,0.01,29.66,M,3.00,M,FEW,BKN,OVC,M,400.00,1100.00,2200.00,M,-SN BR,M,M,M,M,M,M,22.88,KTPH 080836Z AUTO 11008KT 3SM -SN BR FEW004 BKN011 OVC022 M01/M01 A2966 RMK AO2 P0001 T10061011,M
RNO,2024-02-08 08:37,-119.7711,39.4839,1341.00,35.00,28.00,75.36,360.00,6.00,T,29.77,M,9.00,M,BKN,OVC,M,M,2500.00,8000.00,M,M,M,M,M,M,M,M,M,29.14,KRNO 080837Z 36006KT 9SM BKN025 OVC080 02/M02 A2977 RMK AO2 SNE37 P0000 T00171022 $,M
DRA,2024-02-08 08:39,-116.0278,36.6206,1009.00,40.00,35.00,82.15,210.00,14.00,T,29.71,M,10.00,22.00,BKN,OVC,M,M,2600.00,3400.00,M,M,-RA,M,M,M,M,M,M,31.47,KDRA 080839Z AUTO 21014G22KT 10SM -RA BKN026 OVC034 04/02 A2971 RMK AO2 RAB24 P0000 T00440017,M
INS,2024-02-08 08:48,-115.6733,36.5872,955.00,42.80,35.60,75.50,220.00,11.00,0.00,29.70,1004.40,10.00,M,FEW,BKN,OVC,M,2500.00,3800.00,6500.00,M,-RA,M,M,M,M,M,M,36.11,KINS 080848Z AUTO 22011KT 10SM -RA FEW025 BKN038 OVC065 06/02 A2970 RMK AO2 RAB48 SLP044 $,M
LSV,2024-02-08 08:51,-115.0343,36.2362,570.00,50.00,39.20,66.27,170.00,20.00,0.00,29.73,1006.20,10.00,28.00,FEW,M,M,M,5500.00,M,M,M,-RA,M,M,M,M,M,M,50.00,KLSV 080851Z AUTO 17020G28KT 10SM -RA FEW055 10/04 A2973 RMK AO2 RAE0754RAB51 SLP062 $,M
DRA,2024-02-08 08:53,-116.0278,36.6206,1009.00,39.00,35.00,85.42,210.00,17.00,0.01,29.72,1005.10,10.00,24.00,BKN,OVC,M,M,2800.00,3500.00,M,M,-RA,M,M,M,M,M,M,29.25,KDRA 080853Z AUTO 21017G24KT 10SM -RA BKN028 OVC035 04/02 A2972 RMK AO2 RAB24 SLP051 P0001 60001 T00390017 55000,M
ELY,2024-02-08 08:53,-114.8453,39.2950,1909.00,25.00,22.00,88.18,210.00,6.00,0.00,29.71,1006.50,10.00,M,SCT,BKN,OVC,M,4700.00,6000.00,8500.00,M,M,M,M,M,M,M,M,17.10,KELY 080853Z AUTO 21006KT 10SM SCT047 BKN060 OVC085 M04/M06 A2971 RMK AO2 SLP065 60001 T10391056 50002,M
VGT,2024-02-08 08:53,-115.1933,36.2111,667.00,48.00,37.00,65.51,180.00,4.00,0.00,29.75,1009.00,10.00,M,SCT,BKN,OVC,M,4500.00,5000.00,7000.00,M,M,M,M,M,M,M,M,46.10,KVGT 080853Z AUTO 18004KT 10SM SCT045 BKN050 OVC070 09/03 A2975 RMK AO2 SLP090 T00890028 50002,M
LOL,2024-02-08 08:53,-118.5701,40.0684,1192.43,32.00,29.00,88.53,360.00,4.00,0.00,29.75,1008.30,10.00,M,CLR,M,M,M,M,M,M,M,M,M,M,M,M,M,M,27.42,KLOL 080853Z AUTO 36004KT 10SM CLR 00/M02 A2975 RMK AO2 SLP083 T00001017 53011,M
P68,2024-02-08 08:53,-116.0056,39.6014,1993.00,27.00,25.00,92.05,90.00,3.00,0.00,29.70,1004.60,M,M,M,M,M,M,M,M,M,M,M,M,M,M,M,M,M,22.97,KP68 080853Z AUTO 09003KT M03/M04 A2970 RMK AO1 SLP046 T10281039 51005 $,M
BVU,2024-02-08 08:55,-114.8611,35.9475,671.00,48.20,37.40,66.05,170.00,12.00,0.00,29.77,M,10.00,M,SCT,BKN,OVC,M,3500.00,4800.00,6000.00,M,M,M,M,M,M,M,M,42.62,KBVU 080855Z AUTO 17012KT 10SM SCT035 BKN048 OVC060 09/03 A2977 RMK AO2,M
CXP,2024-02-08 08:55,-119.7326,39.1923,1431.00,33.80,30.20,86.49,20.00,4.00,0.00,29.76,M,10.00,M,BKN,BKN,OVC,M,4100.00,4800.00,5500.00,M,M,M,M,M,M,M,M,29.52,KCXP 080855Z AUTO 02004KT 10SM BKN041 BKN048 OVC055 01/M01 A2976 RMK AO2,M
RNO,2024-02-08 08:55,-119.7711,39.4839,1341.00,35.00,29.00,78.51,360.00,5.00,T,29.78,1007.90,10.00,M,BKN,OVC,M,M,2500.00,6000.00,M,M,M,M,M,M,M,M,M,29.96,KRNO 080855Z 36005KT 10SM BKN025 OVC060 02/M02 A2978 RMK AO2 SNE37 SLP079 P0000 60000 T00171017 53019 $,M
RTS,2024-02-08 08:55,-119.8764,39.6682,1539.00,30.20,26.60,86.28,330.00,7.00,0.00,29.78,M,10.00,M,OVC,M,M,M,3400.00,M,M,M,M,M,M,M,M,M,M,22.59,KRTS 080855Z AUTO 33007KT 10SM OVC034 M01/M03 A2978 RMK AO2,M
05U,2024-02-08 08:55,-116.0051,39.6042,1811.23,26.60,24.80,92.80,0.00,0.00,0.00,29.72,M,10.00,M,M,M,M,M,M,M,M,M,M,M,M,M,M,M,M,26.60,K05U 080855Z AUTO 00000KT 10SM M03/M04 A2972 RMK A01,M
MEV,2024-02-08 08:55,-119.7500,38.9963,1441.42,32.00,30.20,92.97,360.00,10.00,0.00,29.75,M,10.00,M,FEW,OVC,M,M,5000.00,6500.00,M,M,M,M,M,M,M,M,M,22.97,KMEV 080855Z AUTO 36010KT 10SM FEW050 OVC065 00/M01 A2975 RMK AO2,M
BAM,2024-02-08 08:55,-116.8743,40.5990,1382.36,32.00,32.00,100.00,20.00,3.00,0.00,29.74,M,10.00,M,CLR,M,M,M,M,M,M,M,M,M,M,M,M,M,M,28.69,KBAM 080855Z AUTO 02003KT 10SM CLR 00/00 A2974 RMK AO1,M
HTH,2024-02-08 08:55,-118.6315,38.5448,1282.89,32.00,32.00,100.00,330.00,14.00,0.16,29.72,M,2.50,M,BKN,OVC,M,M,500.00,900.00,M,M,BR,M,M,M,M,M,M,21.16,KHTH 080855Z AUTO 33014KT 2 1/2SM BR BKN005 OVC009 00/00 A2972 RMK A01 P0016 VIS 2V3,M
TMT,2024-02-08 08:55,-117.1971,39.4643,1749.34,29.00,27.30,93.26,360.00,5.00,0.00,29.70,M,10.00,M,OVC,M,M,M,4800.00,M,M,M,M,M,M,M,M,M,M,22.83,KTMT 080855Z AUTO 36005KT 10SM OVC048 M02/M03 A2970 RMK AO2 T10171026,M
10U,2024-02-08 08:55,-116.1876,41.9532,1637.00,30.20,28.40,92.92,220.00,4.00,0.00,29.73,M,10.00,M,SCT,BKN,OVC,M,1800.00,3100.00,4500.00,M,M,M,M,M,M,M,M,25.32,K10U 080855Z AUTO 22004KT 10SM SCT018 BKN031 OVC045 M01/M02 A2973 RMK AO2,M
LSV,2024-02-08 08:55,-115.0343,36.2362,570.00,49.60,38.30,64.94,170.00,20.00,T,29.73,1006.20,10.00,28.00,FEW,M,M,M,5500.00,M,M,M,-RA,M,M,M,28.00,170.00,2024-02-08 08:44,42.52,KLSV 080855Z AUTO 17020G28KT 10SM -RA FEW055 10/04 A2973 RMK AO2 PK WND 17028/44 RAE0754RAB51 SLP062 P0000 60000 T00980035 50002 $,M
EKO,2024-02-08 08:56,-115.7860,40.8242,1367.00,31.00,28.00,88.48,0.00,0.00,0.00,29.72,1007.20,10.00,M,BKN,OVC,M,M,7000.00,8500.00,M,M,M,M,M,M,M,M,M,31.00,KEKO 080856Z AUTO 00000KT 10SM BKN070 OVC085 M01/M02 A2972 RMK AO2 SLP072 T10061022 51005,M
NFL,2024-02-08 08:56,-118.7010,39.4166,1199.00,33.00,30.00,88.58,340.00,4.00,0.00,29.74,1005.00,10.00,M,CLR,M,M,M,M,M,M,M,M,M,M,M,M,M,M,28.59,KNFL 080856Z AUTO 34004KT 10SM CLR 01/M01 A2974 RMK AO2 SLP050 T00061011 53010,M
HND,2024-02-08 08:56,-115.1344,35.9729,742.79,44.00,38.00,79.27,190.00,11.00,T,29.78,1010.00,10.00,M,BKN,BKN,OVC,M,3300.00,4400.00,5500.00,M,-RA,M,M,M,M,M,M,37.63,KHND 080856Z AUTO 19011KT 10SM -RA BKN033 BKN044 OVC055 07/03 A2978 RMK AO2 RAB33 SLP100 P0000 60000 T00670033 53001,M
TPH,2024-02-08 08:56,-117.0904,38.0505,1654.00,31.00,30.00,96.02,110.00,6.00,0.01,29.66,1004.20,10.00,M,SCT,SCT,OVC,M,1100.00,1600.00,2300.00,M,M,M,M,M,M,M,M,24.33,KTPH 080856Z AUTO 11006KT 10SM SCT011 SCT016 OVC023 M01/M01 A2966 RMK AO2 SNE50 SLP042 P0001 60001 T10061011 50003,M
LAS,2024-02-08 08:56,-115.1634,36.0719,663.00,46.00,37.00,70.64,200.00,9.00,T,29.76,1007.30,9.00,M,BKN,BKN,OVC,M,3800.00,4900.00,6000.00,M,-RA,M,M,M,M,M,M,40.92,KLAS 080856Z 20009KT 9SM -RA BKN038 BKN049 OVC060 08/03 A2976 RMK AO2 RAB47 SLP073 TOPS OF MTNS OBSCURED DSNT SW-NW P0000 60000 T00780028 51002,M
WMC,2024-02-08 08:56,-117.8072,40.9019,1315.00,28.00,24.00,84.72,0.00,0.00,0.00,29.74,1008.00,10.00,M,SCT,M,M,M,8500.00,M,M,M,M,M,M,M,M,M,M,28.00,KWMC 080856Z AUTO 00000KT 10SM SCT085 M02/M04 A2974 RMK AO2 SLP080 T10221044 53008,M
INS,2024-02-08 09:01,-115.6733,36.5872,955.00,42.80,35.60,75.50,220.00,9.00,0.00,29.70,1004.40,10.00,M,SCT,OVC,M,M,3700.00,6000.00,M,M,M,M,M,M,M,M,M,36.94,KINS 080901Z AUTO 22009KT 10SM SCT037 OVC060 06/02 A2970 RMK AO2 RAE0859DZB0859E01 SLP044 $,M
LSV,2024-02-08 09:01,-115.0343,36.2362,570.00,50.00,37.40,61.76,180.00,21.00,0.00,29.73,1006.30,10.00,27.00,FEW,M,M,M,5500.00,M,M,M,M,M,M,M,M,M,M,50.00,KLSV 080901Z AUTO 18021G27KT 10SM FEW055 10/03 A2973 RMK AO2 RAE01 SLP063 $,M
TPH,2024-02-08 09:11,-117.0904,38.0505,1654.00,31.00,30.00,96.02,90.00,6.00,0.00,29.66,M,10.00,M,FEW,SCT,BKN,M,1000.00,2400.00,4600.00,M,M,M,M,M,M,M,M,24.33,KTPH 080911Z AUTO 09006KT 10SM FEW010 SCT024 BKN046 M01/M01 A2966 RMK AO2 T10061011,M
BVU,2024-02-08 09:15,-114.8611,35.9475,671.00,46.40,37.40,70.68,180.00,13.00,0.00,29.77,M,10.00,M,FEW,SCT,BKN,M,3800.00,4800.00,5500.00,M,M,M,M,M,M,M,M,40.02,KBVU 080915Z AUTO 18013KT 10SM FEW038 SCT048 BKN055 08/03 A2977 RMK AO2,M
CXP,2024-02-08 09:15,-119.7326,39.1923,1431.00,33.80,28.40,80.36,30.00,5.00,0.00,29.77,M,10.00,12.00,BKN,BKN,OVC,M,3500.00,4500.00,5500.00,M,M,M,M,M,M,M,M,28.53,KCXP 080915Z AUTO 03005G12KT 10SM BKN035 BKN045 OVC055 01/M02 A2977 RMK AO2,M
RTS,2024-02-08 09:15,-119.8764,39.6682,1539.00,30.20,26.60,86.28,310.00,9.00,0.00,29.78,M,10.00,M,BKN,OVC,M,M,3600.00,7500.00,M,M,M,M,M,M,M,M,M,21.28,KRTS 080915Z AUTO 31009KT 10SM BKN036 OVC075 M01/M03 A2978 RMK AO2,M
05U,2024-02-08 09:15,-116.0051,39.6042,1811.23,26.60,24.80,92.80,300.00,3.00,0.00,29.73,M,10.00,M,M,M,M,M,M,M,M,M,M,M,M,M,M,M,M,22.52,K05U 080915Z AUTO 30003KT 10SM M03/M04 A2973 RMK A01,M
MEV,2024-02-08 09:15,-119.7500,38.9963,1441.42,32.00,28.40,86.39,350.00,10.00,0.00,29.76,M,10.00,M,FEW,SCT,OVC,M,2500.00,5000.00,7000.00,M,M,M,M,M,M,M,M,22.97,KMEV 080915Z AUTO 35010KT 10SM FEW025 SCT050 OVC070 00/M02 A2976 RMK AO2,M
BAM,2024-02-08 09:15,-116.8743,40.5990,1382.36,32.00,30.20,92.97,10.00,3.00,0.00,29.75,M,10.00,M,CLR,M,M,M,M,M,M,M,M,M,M,M,M,M,M,28.69,KBAM 080915Z AUTO 01003KT 10SM CLR 00/M01 A2975 RMK AO1,M
HTH,2024-02-08 09:15,-118.6315,38.5448,1282.89,32.00,33.80,M,330.00,14.00,0.00,29.72,M,5.00,19.00,BKN,OVC,M,M,600.00,1000.00,M,M,BR,M,M,M,M,M,M,M,KHTH 080915Z AUTO 33014G19KT 5SM BR BKN006 OVC010 00/01 A2972 RMK A01,M
10U,2024-02-08 09:15,-116.1876,41.9532,1637.00,30.20,28.40,92.92,230.00,4.00,0.00,29.74,M,10.00,M,SCT,BKN,OVC,M,1400.00,3100.00,4500.00,M,M,M,M,M,M,M,M,25.32,K10U 080915Z AUTO 23004KT 10SM SCT014 BKN031 OVC045 M01/M02 A2974 RMK AO2,M
TMT,2024-02-08 09:15,-117.1971,39.4643,1749.34,28.40,27.00,94.41,0.00,0.00,0.00,29.71,M,10.00,M,BKN,OVC,M,M,5000.00,8000.00,M,M,M,M,M,M,M,M,M,28.40,KTMT 080915Z AUTO 00000KT 10SM BKN050 OVC080 M02/M03 A2971 RMK AO2 T10201027,M
LSV,2024-02-08 09:19,-115.0343,36.2362,570.00,48.20,39.20,70.88,190.00,16.00,0.00,29.74,1006.60,9.00,25.00,CLR,M,M,M,M,M,M,M,-RA,M,M,M,M,M,M,41.53,KLSV 080919Z AUTO 19016G25KT 9SM -RA CLR 09/04 A2974 RMK AO2 RAE01RAB19 SLP066 $,M
INS,2024-02-08 09:21,-115.6733,36.5872,955.00,44.60,35.60,70.48,0.00,0.00,0.00,29.72,1004.80,10.00,M,BKN,BKN,OVC,M,2800.00,4900.00,6000.00,M,M,M,M,M,M,M,M,44.60,KINS 080921Z AUTO 00000KT 10SM BKN028 BKN049 OVC060 07/02 A2972 RMK AO2 RAE0859DZB0859E01 CIG 028V049 BKN028 V SCT SLP048 $,M
INS,2024-02-08 09:28,-115.6733,36.5872,955.00,42.80,33.80,70.28,200.00,4.00,0.00,29.73,1005.20,10.00,M,SCT,BKN,BKN,OVC,1900.00,2800.00,4100.00,4900.00,-RA,M,M,M,M,M,M,40.03,KINS 080928Z AUTO 20004KT 10SM -RA SCT019 BKN028 BKN041 OVC049 06/01 A2973 RMK AO2 RAE0859DZB0859E01RAB28 CIG 028V041 BKN028 V SCT SLP052 $,M
LSV,2024-02-08 09:28,-115.0343,36.2362,570.00,48.20,39.20,70.88,190.00,13.00,0.00,29.74,1006.60,10.00,M,CLR,M,M,M,M,M,M,M,M,M,M,M,M,M,M,42.32,KLSV 080928Z AUTO 19013KT 10SM CLR 09/04 A2974 RMK AO2 RAE01RAB19E28 SLP066 $,M
05U,2024-02-08 09:30,-116.0051,39.6042,1811.23,24.80,24.80,100.00,0.00,0.00,0.00,29.73,M,10.00,M,M,M,M,M,M,M,M,M,M,M,M,M,M,M,M,24.80,K05U 080930Z AUTO 00000KT 10SM M04/M04 A2973 RMK A01,M
BVU,2024-02-08 09:35,-114.8611,35.9475,671.00,46.40,37.40,70.68,170.00,16.00,0.00,29.76,M,10.00,21.00,FEW,SCT,BKN,M,3500.00,4800.00,6000.00,M,M,M,M,M,M,M,M,39.19,KBVU 080935Z AUTO 17016G21KT 10SM FEW035 SCT048 BKN060 08/03 A2976 RMK AO2,M
CXP,2024-02-08 09:35,-119.7326,39.1923,1431.00,33.80,28.40,80.36,330.00,11.00,0.00,29.78,M,10.00,M,FEW,SCT,BKN,M,2100.00,2800.00,3500.00,M,UP,M,M,M,M,M,M,24.74,KCXP 080935Z AUTO 33011KT 10SM UP FEW021 SCT028 BKN035 01/M02 A2978 RMK AO2,M
RTS,2024-02-08 09:35,-119.8764,39.6682,1539.00,28.40,24.80,86.18,310.00,5.00,0.00,29.79,M,10.00,M,FEW,BKN,OVC,M,1400.00,3900.00,7500.00,M,M,M,M,M,M,M,M,22.12,KRTS 080935Z AUTO 31005KT 10SM FEW014 BKN039 OVC075 M02/M04 A2979 RMK AO2,M
MEV,2024-02-08 09:35,-119.7500,38.9963,1441.42,32.00,28.40,86.39,360.00,10.00,0.00,29.76,M,10.00,M,FEW,SCT,OVC,M,2400.00,5000.00,7500.00,M,M,M,M,M,M,M,M,22.97,KMEV 080935Z AUTO 36010KT 10SM FEW024 SCT050 OVC075 00/M02 A2976 RMK AO2,M
BAM,2024-02-08 09:35,-116.8743,40.5990,1382.36,32.00,32.00,100.00,360.00,4.00,0.00,29.75,M,10.00,M,CLR,M,M,M,M,M,M,M,M,M,M,M,M,M,M,27.42,KBAM 080935Z AUTO 36004KT 10SM CLR 00/00 A2975 RMK AO1,M
HTH,2024-02-08 09:35,-118.6315,38.5448,1282.89,33.80,33.80,100.00,330.00,15.00,0.00,29.73,M,10.00,M,SCT,BKN,OVC,M,600.00,2100.00,3000.00,M,M,M,M,M,M,M,M,23.11,KHTH 080935Z AUTO 33015KT 10SM SCT006 BKN021 OVC030 01/01 A2973 RMK A01,M
10U,2024-02-08 09:35,-116.1876,41.9532,1637.00,30.20,28.40,92.92,220.00,3.00,0.00,29.74,M,10.00,M,BKN,BKN,OVC,M,1300.00,2100.00,4500.00,M,M,M,M,M,M,M,M,26.63,K10U 080935Z AUTO 22003KT 10SM BKN013 BKN021 OVC045 M01/M02 A2974 RMK AO2,M
TMT,2024-02-08 09:35,-117.1971,39.4643,1749.34,27.70,26.40,94.78,50.00,3.00,0.00,29.71,M,10.00,M,SCT,OVC,M,M,5000.00,8000.00,M,M,M,M,M,M,M,M,M,23.77,KTMT 080935Z AUTO 05003KT 10SM SCT050 OVC080 M02/M03 A2971 RMK AO2 T10241031,M
DRA,2024-02-08 09:39,-116.0278,36.6206,1009.00,38.00,35.00,88.83,90.00,3.00,0.04,29.70,M,10.00,M,FEW,SCT,OVC,M,1400.00,2600.00,8500.00,M,M,M,M,M,27.00,180.00,2024-02-08 09:13,35.55,KDRA 080939Z AUTO 09003KT 10SM FEW014 SCT026 OVC085 03/02 A2970 RMK AO2 PK WND 18027/0913 RAE26UPB26E31 P0004 T00330017,M
LSV,2024-02-08 09:48,-115.0343,36.2362,570.00,48.20,39.20,70.88,180.00,13.00,0.00,29.74,1006.60,10.00,M,BKN,M,M,M,4000.00,M,M,M,M,M,M,M,M,M,M,42.32,KLSV 080948Z AUTO 18013KT 10SM BKN040 09/04 A2974 RMK AO2 RAE01RAB19E28 SLP066 $,M
HND,2024-02-08 09:52,-115.1344,35.9729,742.79,42.80,37.40,81.07,210.00,10.00,0.01,29.78,M,10.00,M,BKN,OVC,M,M,2700.00,3300.00,M,M,RA,M,M,M,M,M,M,36.51,KHND 080952Z AUTO 21010KT 10SM RA BKN027 OVC033 06/03 A2978 RMK AO2 P0001,M
DRA,2024-02-08 09:53,-116.0278,36.6206,1009.00,38.00,34.00,85.35,170.00,5.00,0.04,29.70,1004.40,10.00,M,FEW,OVC,M,M,2600.00,8000.00,M,M,M,M,M,M,27.00,180.00,2024-02-08 09:13,33.52,KDRA 080953Z AUTO 17005KT 10SM FEW026 OVC080 03/01 A2970 RMK AO2 PK WND 18027/0913 RAE26UPB26E31 SLP044 P0004 T00330011,M
ELY,2024-02-08 09:53,-114.8453,39.2950,1909.00,23.00,20.00,88.08,90.00,3.00,0.00,29.71,1007.30,10.00,M,FEW,OVC,M,M,7000.00,8000.00,M,M,M,M,M,M,M,M,M,18.40,KELY 080953Z AUTO 09003KT 10SM FEW070 OVC080 M05/M07 A2971 RMK AO2 SLP073 T10501067,M
VGT,2024-02-08 09:53,-115.1933,36.2111,667.00,47.00,38.00,70.74,170.00,8.00,0.00,29.75,1009.00,10.00,M,OVC,M,M,M,4900.00,M,M,M,M,M,M,M,M,M,M,42.59,KVGT 080953Z AUTO 17008KT 10SM OVC049 08/03 A2975 RMK AO2 SLP090 T00830033,M
LOL,2024-02-08 09:53,-118.5701,40.0684,1192.43,33.00,29.00,85.04,0.00,0.00,0.00,29.76,1008.50,10.00,M,CLR,M,M,M,M,M,M,M,M,M,M,M,M,M,M,33.00,KLOL 080953Z AUTO 00000KT 10SM CLR 01/M02 A2976 RMK AO2 SLP085 T00061017,M
P68,2024-02-08 09:53,-116.0056,39.6014,1993.00,24.00,22.00,91.94,0.00,0.00,0.00,29.70,1005.30,M,M,M,M,M,M,M,M,M,M,M,M,M,M,M,M,M,24.00,KP68 080953Z AUTO 00000KT M04/M06 A2970 RMK AO1 SLP053 T10441056 $,M
BVU,2024-02-08 09:55,-114.8611,35.9475,671.00,46.40,37.40,70.68,170.00,16.00,0.00,29.77,M,7.00,24.00,SCT,BKN,OVC,M,2700.00,3400.00,6000.00,M,M,M,M,M,M,M,M,39.19,KBVU 080955Z AUTO 17016G24KT 7SM SCT027 BKN034 OVC060 08/03 A2977 RMK AO2,M
CXP,2024-02-08 09:55,-119.7326,39.1923,1431.00,33.80,28.40,80.36,350.00,6.00,0.00,29.79,M,10.00,11.00,FEW,BKN,OVC,M,1800.00,3200.00,4100.00,M,M,M,M,M,M,M,M,27.70,KCXP 080955Z AUTO 35006G11KT 10SM FEW018 BKN032 OVC041 01/M02 A2979 RMK AO2,M
RNO,2024-02-08 09:55,-119.7711,39.4839,1341.00,34.00,27.00,75.26,360.00,4.00,0.00,29.79,1008.40,10.00,M,BKN,BKN,M,M,2500.00,6000.00,M,M,M,M,M,M,M,M,M,29.76,KRNO 080955Z 36004KT 10SM BKN025 BKN060 01/M03 A2979 RMK AO2 SLP084 T00111028 $,M
RTS,2024-02-08 09:55,-119.8764,39.6682,1539.00,26.60,24.80,92.80,340.00,5.00,0.00,29.80,M,10.00,M,FEW,FEW,BKN,M,1400.00,3300.00,3900.00,M,M,M,M,M,M,M,M,19.98,KRTS 080955Z AUTO 34005KT 10SM FEW014 FEW033 BKN039 M03/M04 A2980 RMK AO2,M
05U,2024-02-08 09:55,-116.0051,39.6042,1811.23,24.80,23.00,92.74,0.00,0.00,0.00,29.73,M,10.00,M,M,M,M,M,M,M,M,M,M,M,M,M,M,M,M,24.80,K05U 080955Z AUTO 00000KT 10SM M04/M05 A2973 RMK A01,M
MEV,2024-02-08 09:55,-119.7500,38.9963,1441.42,32.00,30.20,92.97,350.00,11.00,0.00,29.77,M,10.00,M,BKN,BKN,OVC,M,3200.00,4900.00,7500.00,M,M,M,M,M,M,M,M,22.47,KMEV 080955Z AUTO 35011KT 10SM BKN032 BKN049 OVC075 00/M01 A2977 RMK AO2,M
BAM,2024-02-08 09:55,-116.8743,40.5990,1382.36,32.00,30.20,92.97,10.00,3.00,0.00,29.75,M,10.00,M,CLR,M,M,M,M,M,M,M,M,M,M,M,M,M,M,28.69,KBAM 080955Z AUTO 01003KT 10SM CLR 00/M01 A2975 RMK AO1,M
HTH,2024-02-08 09:55,-118.6315,38.5448,1282.89,33.80,33.80,100.00,330.00,12.00,0.03,29.74,M,10.00,M,FEW,OVC,M,M,2100.00,3000.00,M,M,M,M,M,M,M,M,M,24.29,KHTH 080955Z AUTO 33012KT 10SM FEW021 OVC030 01/01 A2974 RMK A01 P0003,M
INS,2024-02-08 09:55,-115.6733,36.5872,955.00,41.00,35.20,79.66,220.00,9.00,T,29.73,1005.40,10.00,M,OVC,M,M,M,1800.00,M,M,M,-RA,M,M,M,M,M,M,34.70,KINS 080955Z AUTO 22009KT 10SM -RA OVC018 05/02 A2973 RMK AO2 RAE0859DZB0859E01RAB28 OVC V BKN SLP054 P0000 T00510018 $,M
LSV,2024-02-08 09:55,-115.0343,36.2362,570.00,48.40,38.70,68.99,180.00,15.00,T,29.74,1006.60,10.00,M,BKN,M,M,M,4000.00,M,M,M,M,M,M,M,27.00,180.00,2024-02-08 08:58,42.04,KLSV 080955Z AUTO 18015KT 10SM BKN040 09/04 A2974 RMK AO2 PK WND 18027/0858 RAE01RAB19E28 SLP066 P0000 T00910037 $,M
TMT,2024-02-08 09:55,-117.1971,39.4643,1749.34,27.70,26.20,94.00,0.00,0.00,0.00,29.71,M,10.00,M,SCT,BKN,M,M,700.00,8000.00,M,M,M,M,M,M,M,M,M,27.70,KTMT 080955Z AUTO 00000KT 10SM SCT007 BKN080 M02/M03 A2971 RMK AO2 T10241032,M
10U,2024-02-08 09:55,-116.1876,41.9532,1637.00,30.20,28.40,92.92,270.00,5.00,0.00,29.74,M,8.00,M,BKN,BKN,OVC,M,1300.00,2100.00,4800.00,M,-SN,M,M,M,M,M,M,24.26,K10U 080955Z AUTO 27005KT 8SM -SN BKN013 BKN021 OVC048 M01/M02 A2974 RMK AO2,M
EKO,2024-02-08 09:56,-115.7860,40.8242,1367.00,31.00,28.00,88.48,80.00,3.00,0.00,29.73,1007.50,10.00,M,OVC,M,M,M,9000.00,M,M,M,M,M,M,M,M,M,M,27.55,KEKO 080956Z AUTO 08003KT 10SM OVC090 M01/M02 A2973 RMK AO2 SLP075 T10061022,M
NFL,2024-02-08 09:56,-118.7010,39.4166,1199.00,31.00,29.00,92.19,90.00,3.00,0.00,29.76,1005.60,10.00,M,CLR,M,M,M,M,M,M,M,M,M,M,M,M,M,M,27.55,KNFL 080956Z AUTO 09003KT 10SM CLR M01/M02 A2976 RMK AO2 SLP056 T10061017,M
HND,2024-02-08 09:56,-115.1344,35.9729,742.79,43.00,38.00,82.37,190.00,9.00,0.01,29.78,1010.20,9.00,M,BKN,OVC,M,M,2700.00,3300.00,M,M,RA,M,M,M,M,M,M,37.19,KHND 080956Z AUTO 19009KT 9SM RA BKN027 OVC033 06/03 A2978 RMK AO2 SLP102 P0001 T00610033,M
TPH,2024-02-08 09:56,-117.0904,38.0505,1654.00,31.00,29.00,92.19,90.00,8.00,0.00,29.67,1004.30,10.00,M,BKN,OVC,M,M,3600.00,6000.00,M,M,M,M,M,M,M,M,M,22.88,KTPH 080956Z AUTO 09008KT 10SM BKN036 OVC060 M01/M02 A2967 RMK AO2 SLP043 T10061017,M
LAS,2024-02-08 09:56,-115.1634,36.0719,663.00,45.00,39.00,79.36,210.00,3.00,0.01,29.76,1007.40,8.00,M,OVC,M,M,M,3100.00,M,M,M,-RA VCFG,M,M,M,M,M,M,43.55,KLAS 080956Z 21003KT 8SM -RA VCFG OVC031 07/04 A2976 RMK AO2 RAE21B47 SLP074 VIS LWR SW-NW MTNS OBSCURED DSNT S-W-N P0001 T00720039,M
WMC,2024-02-08 09:56,-117.8072,40.9019,1315.00,27.00,23.00,84.66,250.00,4.00,0.00,29.76,1008.60,10.00,M,CLR,M,M,M,M,M,M,M,M,T,M,M,M,M,M,21.58,KWMC 080956Z AUTO 25004KT 10SM CLR M03/M05 A2976 RMK AO2 SLP086 I1000 T10281050,M
LAS,2024-02-08 10:04,-115.1634,36.0719,663.00,44.00,39.00,82.44,200.00,6.00,0.01,29.76,M,6.00,M,BKN,OVC,M,M,2900.00,3600.00,M,M,-RA BR,M,M,M,M,M,M,39.98,KLAS 081004Z 20006KT 6SM -RA BR BKN029 OVC036 07/04 A2976 RMK AO2 VIS HIR S MTNS OBSCURED DSNT SW-NW-N P0001 T00670039,M
LSV,2024-02-08 10:09,-115.0343,36.2362,570.00,48.20,39.20,70.88,190.00,15.00,0.00,29.74,1006.60,10.00,M,BKN,M,M,M,3800.00,M,M,M,-RA,M,M,M,M,M,M,41.78,KLSV 081009Z AUTO 19015KT 10SM -RA BKN038 09/04 A2974 RMK AO2 RAB09 SLP066 $,M
RTS,2024-02-08 10:15,-119.8764,39.6682,1539.00,26.60,24.80,92.80,250.00,3.00,0.00,29.79,M,10.00,M,CLR,M,M,M,M,M,M,M,M,M,M,M,M,M,M,22.52,KRTS 081015Z AUTO 25003KT 10SM CLR M03/M04 A2979 RMK AO2,M
05U,2024-02-08 10:15,-116.0051,39.6042,1811.23,23.00,23.00,100.00,0.00,0.00,0.00,29.73,M,10.00,M,M,M,M,M,M,M,M,M,M,M,M,M,M,M,M,23.00,K05U 081015Z AUTO 00000KT 10SM M05/M05 A2973 RMK A01,M
MEV,2024-02-08 10:15,-119.7500,38.9963,1441.42,33.80,28.40,80.36,350.00,12.00,0.00,29.77,M,10.00,M,OVC,M,M,M,3400.00,M,M,M,M,M,M,M,M,M,M,24.29,KMEV 081015Z AUTO 35012KT 10SM OVC034 01/M02 A2977 RMK AO2,M
BAM,2024-02-08 10:15,-116.8743,40.5990,1382.36,32.00,30.20,92.97,0.00,0.00,0.00,29.76,M,10.00,M,CLR,M,M,M,M,M,M,M,M,M,M,M,M,M,M,32.00,KBAM 081015Z AUTO 00000KT 10SM CLR 00/M01 A2976 RMK AO1,M
HTH,2024-02-08 10:15,-118.6315,38.5448,1282.89,33.80,33.80,100.00,340.00,14.00,0.00,29.74,M,10.00,M,OVC,M,M,M,3200.00,M,M,M,M,M,M,M,M,M,M,23.48,KHTH 081015Z AUTO 34014KT 10SM OVC032 01/01 A2974 RMK A01,M
10U,2024-02-08 10:15,-116.1876,41.9532,1637.00,30.20,28.40,92.92,0.00,0.00,0.00,29.74,M,9.00,M,OVC,M,M,M,1300.00,M,M,M,-SN,M,M,M,M,M,M,30.20,K10U 081015Z AUTO 00000KT 9SM -SN OVC013 M01/M02 A2974 RMK AO2,M
BVU,2024-02-08 10:15,-114.8611,35.9475,671.00,44.60,39.20,81.20,150.00,16.00,0.00,29.77,M,6.00,21.00,OVC,M,M,M,2800.00,M,M,M,-RA,M,M,M,M,M,M,36.84,KBVU 081015Z AUTO 15016G21KT 6SM -RA OVC028 07/04 A2977 RMK AO2,M
CXP,2024-02-08 10:15,-119.7326,39.1923,1431.00,33.80,28.40,80.36,350.00,7.00,0.00,29.79,M,10.00,14.00,OVC,M,M,M,3200.00,M,M,M,M,M,M,M,M,M,M,26.97,KCXP 081015Z AUTO 35007G14KT 10SM OVC032 01/M02 A2979 RMK AO2,M
TMT,2024-02-08 10:15,-117.1971,39.4643,1749.34,27.00,25.70,94.76,20.00,4.00,0.00,29.72,M,10.00,M,BKN,M,M,M,1700.00,M,M,M,M,M,M,M,M,M,M,21.58,KTMT 081015Z AUTO 02004KT 10SM BKN017 M03/M03 A2972 RMK AO2 T10271035,M
LSV,2024-02-08 10:17,-115.0343,36.2362,570.00,46.40,39.20,75.84,170.00,18.00,0.00,29.74,1006.70,6.00,24.00,FEW,BKN,M,M,2600.00,3800.00,M,M,HZ,M,M,M,M,M,M,38.70,KLSV 081017Z AUTO 17018G24KT 6SM HZ FEW026 BKN038 08/04 A2974 RMK AO2 RAB09E17 SLP067 $,M
LSV,2024-02-08 10:18,-115.0343,36.2362,570.00,46.40,39.20,75.84,160.00,17.00,0.00,29.74,1006.70,5.00,24.00,FEW,BKN,M,M,2600.00,3800.00,M,M,-RA,M,M,M,M,M,M,38.94,KLSV 081018Z AUTO 16017G24KT 5SM -RA FEW026 BKN038 08/04 A2974 RMK AO2 RAB09E17RAB18 SLP067 $,M
TPH,2024-02-08 10:18,-117.0904,38.0505,1654.00,32.00,30.00,92.22,80.00,6.00,T,29.67,M,6.00,M,BKN,BKN,OVC,M,1800.00,2400.00,6000.00,M,-SN BR,M,M,M,M,M,M,25.53,KTPH 081018Z AUTO 08006KT 6SM -SN BR BKN018 BKN024 OVC060 00/M01 A2967 RMK AO2 SNB12 P0000 T00001011,M
LSV,2024-02-08 10:19,-115.0343,36.2362,570.00,46.40,39.20,75.84,170.00,17.00,0.00,29.74,1006.70,5.00,24.00,FEW,BKN,M,M,2600.00,3800.00,M,M,HZ,M,M,M,M,M,M,38.94,KLSV 081019Z AUTO 17017G24KT 5SM HZ FEW026 BKN038 08/04 A2974 RMK AO2 RAB09E17RAB18E19 SLP067 $,M
LAS,2024-02-08 10:22,-115.1634,36.0719,663.00,43.00,38.00,82.37,170.00,9.00,0.03,29.76,M,9.00,16.00,SCT,OVC,M,M,2700.00,3300.00,M,M,-RA VCFG,M,M,M,M,M,M,37.19,KLAS 081022Z 17009G16KT 9SM -RA VCFG SCT027 OVC033 06/03 A2976 RMK AO2 MTNS OBSCURED DSNT SW-NW-N P0003 T00610033,M
INS,2024-02-08 10:24,-115.6733,36.5872,955.00,41.00,35.60,80.93,210.00,8.00,0.00,29.73,1005.40,10.00,M,FEW,SCT,OVC,M,500.00,1300.00,1900.00,M,M,M,M,M,M,M,M,35.20,KINS 081024Z AUTO 21008KT 10SM FEW005 SCT013 OVC019 05/02 A2973 RMK AO2 RAE24 SLP054 $,M
LSV,2024-02-08 10:25,-115.0343,36.2362,570.00,46.40,39.20,75.84,180.00,16.00,0.00,29.73,1006.40,7.00,M,FEW,SCT,M,M,2600.00,3800.00,M,M,-RA,M,M,M,M,M,M,39.19,KLSV 081025Z AUTO 18016KT 7SM -RA FEW026 SCT038 08/04 A2973 RMK AO2 RAB09E17RAB18E19RAB25 SLP064 $,M
INS,2024-02-08 10:27,-115.6733,36.5872,955.00,41.00,33.80,75.33,210.00,8.00,0.00,29.73,1005.40,10.00,M,SCT,OVC,M,M,400.00,1900.00,M,M,-RA,M,M,M,M,M,M,35.20,KINS 081027Z AUTO 21008KT 10SM -RA SCT004 OVC019 05/01 A2973 RMK AO2 RAE24RAB27 SLP054 $,M
VGT,2024-02-08 10:29,-115.1933,36.2111,667.00,45.00,38.00,76.31,190.00,5.00,0.03,29.75,M,10.00,M,BKN,OVC,M,M,2800.00,3800.00,M,M,M,M,M,M,M,M,M,41.83,KVGT 081029Z AUTO 19005KT 10SM BKN028 OVC038 07/03 A2975 RMK AO2 P0003 T00720033,M
INS,2024-02-08 10:32,-115.6733,36.5872,955.00,39.20,33.80,80.79,240.00,12.00,0.00,29.73,1005.40,9.00,M,BKN,BKN,OVC,M,300.00,1300.00,1900.00,M,-RA,M,M,M,M,M,M,31.17,KINS 081032Z AUTO 24012KT 9SM -RA BKN003 BKN013 OVC019 04/01 A2973 RMK AO2 RAE24RAB27 CIG 003V019 SLP054 $,M
BVU,2024-02-08 10:35,-114.8611,35.9475,671.00,44.60,39.20,81.20,160.00,16.00,0.00,29.76,M,7.00,M,OVC,M,M,M,2900.00,M,M,M,-RA,M,M,M,M,M,M,36.84,KBVU 081035Z AUTO 16016KT 7SM -RA OVC029 07/04 A2976 RMK AO2,M
CXP,2024-02-08 10:35,-119.7326,39.1923,1431.00,33.80,28.40,80.36,340.00,8.00,0.00,29.79,M,10.00,M,BKN,M,M,M,3700.00,M,M,M,M,M,M,M,M,M,M,26.33,KCXP 081035Z AUTO 34008KT 10SM BKN037 01/M02 A2979 RMK AO2,M
RTS,2024-02-08 10:35,-119.8764,39.6682,1539.00,24.80,23.00,92.74,0.00,0.00,0.00,29.79,M,10.00,M,CLR,M,M,M,M,M,M,M,M,M,M,M,M,M,M,24.80,KRTS 081035Z AUTO 00000KT 10SM CLR M04/M05 A2979 RMK AO2,M
05U,2024-02-08 10:35,-116.0051,39.6042,1811.23,23.00,21.20,92.69,0.00,0.00,0.00,29.73,M,10.00,M,M,M,M,M,M,M,M,M,M,M,M,M,M,M,M,23.00,K05U 081035Z AUTO 00000KT 10SM M05/M06 A2973 RMK A01,M
MEV,2024-02-08 10:35,-119.7500,38.9963,1441.42,32.00,28.40,86.39,360.00,12.00,0.00,29.78,M,10.00,M,SCT,OVC,M,M,3600.00,4600.00,M,M,M,M,M,M,M,M,M,22.00,KMEV 081035Z AUTO 36012KT 10SM SCT036 OVC046 00/M02 A2978 RMK AO2,M
BAM,2024-02-08 10:35,-116.8743,40.5990,1382.36,32.00,30.20,92.97,0.00,0.00,0.00,29.76,M,10.00,M,CLR,M,M,M,M,M,M,M,M,M,M,M,M,M,M,32.00,KBAM 081035Z AUTO 00000KT 10SM CLR 00/M01 A2976 RMK AO1,M
HTH,2024-02-08 10:35,-118.6315,38.5448,1282.89,33.80,33.80,100.00,330.00,12.00,0.00,29.74,M,10.00,M,BKN,BKN,OVC,M,1100.00,3400.00,4200.00,M,M,M,M,M,M,M,M,24.29,KHTH 081035Z AUTO 33012KT 10SM BKN011 BKN034 OVC042 01/01 A2974 RMK A01,M
10U,2024-02-08 10:35,-116.1876,41.9532,1637.00,30.20,28.40,92.92,240.00,4.00,0.00,29.74,M,7.00,M,SCT,BKN,OVC,M,1500.00,2200.00,2700.00,M,-SN,M,M,M,M,M,M,25.32,K10U 081035Z AUTO 24004KT 7SM -SN SCT015 BKN022 OVC027 M01/M02 A2974 RMK AO2,M
TMT,2024-02-08 10:35,-117.1971,39.4643,1749.34,26.60,25.30,94.75,20.00,3.00,0.00,29.72,M,10.00,M,BKN,BKN,M,M,1700.00,4900.00,M,M,M,M,M,M,M,M,M,22.52,KTMT 081035Z AUTO 02003KT 10SM BKN017 BKN049 M03/M04 A2972 RMK AO2 T10301037,M
INS,2024-02-08 10:47,-115.6733,36.5872,955.00,39.20,33.80,80.79,210.00,3.00,0.00,29.72,1005.30,8.00,M,SCT,BKN,OVC,M,400.00,1000.00,2000.00,M,-RA,M,M,M,M,M,M,36.92,KINS 081047Z AUTO 21003KT 8SM -RA SCT004 BKN010 OVC020 04/01 A2972 RMK AO2 RAE24RAB27 CIG 003V010 SLP053 $,M
DRA,2024-02-08 10:53,-116.0278,36.6206,1009.00,38.00,33.00,82.00,110.00,14.00,0.00,29.69,1004.00,10.00,20.00,FEW,SCT,M,M,10000.00,12000.00,M,M,M,M,M,M,M,M,M,28.90,KDRA 081053Z AUTO 11014G20KT 10SM FEW100 SCT120 03/01 A2969 RMK AO2 SLP040 T00330006,M
ELY,2024-02-08 10:53,-114.8453,39.2950,1909.00,21.00,19.00,91.83,160.00,3.00,0.00,29.71,1007.20,10.00,M,FEW,SCT,BKN,M,2500.00,5000.00,9000.00,M,M,M,M,M,M,M,M,16.11,KELY 081053Z AUTO 16003KT 10SM FEW025 SCT050 BKN090 M06/M07 A2971 RMK AO2 SLP072 T10611072,M
VGT,2024-02-08 10:53,-115.1933,36.2111,667.00,45.00,39.00,79.36,200.00,6.00,0.04,29.75,1009.00,9.00,M,BKN,OVC,M,M,2200.00,4500.00,M,M,M,M,M,M,M,M,M,41.19,KVGT 081053Z AUTO 20006KT 9SM BKN022 OVC045 07/04 A2975 RMK AO2 SLP090 P0004 T00720039,M
LOL,2024-02-08 10:53,-118.5701,40.0684,1192.43,30.00,28.00,92.15,0.00,0.00,0.00,29.76,1009.00,10.00,M,CLR,M,M,M,M,M,M,M,M,M,M,M,M,M,M,30.00,KLOL 081053Z AUTO 00000KT 10SM CLR M01/M02 A2976 RMK AO2 SLP090 T10111022,M
P68,2024-02-08 10:53,-116.0056,39.6014,1993.00,24.00,22.00,91.94,220.00,3.00,0.00,29.71,1005.40,M,M,M,M,M,M,M,M,M,M,M,M,M,M,M,M,M,19.54,KP68 081053Z AUTO 22003KT M04/M06 A2971 RMK AO1 SLP054 T10441056 $,M
BVU,2024-02-08 10:55,-114.8611,35.9475,671.00,44.60,39.20,81.20,170.00,16.00,0.00,29.77,M,10.00,M,BKN,BKN,OVC,M,2800.00,3500.00,4100.00,M,M,M,M,M,M,M,M,36.84,KBVU 081055Z AUTO 17016KT 10SM BKN028 BKN035 OVC041 07/04 A2977 RMK AO2,M
CXP,2024-02-08 10:55,-119.7326,39.1923,1431.00,32.00,26.60,80.22,330.00,6.00,0.00,29.79,M,10.00,M,BKN,BKN,M,M,3900.00,5000.00,M,M,M,M,M,M,M,M,M,25.53,KCXP 081055Z AUTO 33006KT 10SM BKN039 BKN050 00/M03 A2979 RMK AO2,M
RNO,2024-02-08 10:55,-119.7711,39.4839,1341.00,33.00,26.00,75.17,40.00,4.00,0.00,29.79,1008.50,10.00,M,SCT,M,M,M,8000.00,M,M,M,M,M,M,M,M,M,M,28.59,KRNO 081055Z 04004KT 10SM SCT080 01/M03 A2979 RMK AO2 SLP085 T00061033 $,M
LSV,2024-02-08 10:55,-115.0343,36.2362,570.00,46.00,39.70,78.52,180.00,11.00,0.03,29.74,1006.60,10.00,M,SCT,BKN,M,M,2800.00,3600.00,M,M,-RA,M,M,M,M,M,M,40.16,KLSV 081055Z AUTO 18011KT 10SM -RA SCT028 BKN036 08/04 A2974 RMK AO2 RAB09E17RAB18E19RAB25 SLP066 P0003 T00770043 $,M
RTS,2024-02-08 10:55,-119.8764,39.6682,1539.00,21.20,21.20,100.00,340.00,4.00,0.00,29.79,M,10.00,M,CLR,M,M,M,M,M,M,M,M,M,M,M,M,M,M,14.81,KRTS 081055Z AUTO 34004KT 10SM CLR M06/M06 A2979 RMK AO2,M
05U,2024-02-08 10:55,-116.0051,39.6042,1811.23,23.00,21.20,92.69,0.00,0.00,0.00,29.73,M,10.00,M,M,M,M,M,M,M,M,M,M,M,M,M,M,M,M,23.00,K05U 081055Z AUTO 00000KT 10SM M05/M06 A2973 RMK A01,M
MEV,2024-02-08 10:55,-119.7500,38.9963,1441.42,32.00,28.40,86.39,360.00,10.00,0.00,29.78,M,10.00,M,SCT,BKN,OVC,M,3600.00,4200.00,4900.00,M,M,M,M,M,M,M,M,22.97,KMEV 081055Z AUTO 36010KT 10SM SCT036 BKN042 OVC049 00/M02 A2978 RMK AO2,M
BAM,2024-02-08 10:55,-116.8743,40.5990,1382.36,30.20,30.20,100.00,360.00,3.00,0.00,29.76,M,10.00,M,CLR,M,M,M,M,M,M,M,M,M,M,M,M,M,M,26.63,KBAM 081055Z AUTO 36003KT 10SM CLR M01/M01 A2976 RMK AO1,M
HTH,2024-02-08 10:55,-118.6315,38.5448,1282.89,33.80,33.80,100.00,330.00,15.00,0.00,29.75,M,10.00,M,FEW,BKN,OVC,M,1200.00,1800.00,4400.00,M,M,M,M,M,M,M,M,23.11,KHTH 081055Z AUTO 33015KT 10SM FEW012 BKN018 OVC044 01/01 A2975 RMK A01,M
TMT,2024-02-08 10:55,-117.1971,39.4643,1749.34,26.00,24.80,95.14,0.00,0.00,0.00,29.73,M,10.00,M,OVC,M,M,M,2200.00,M,M,M,M,M,M,M,M,M,M,26.00,KTMT 081055Z AUTO 00000KT 10SM OVC022 M03/M04 A2973 RMK AO2 T10341040,M
10U,2024-02-08 10:55,-116.1876,41.9532,1637.00,30.20,28.40,92.92,220.00,4.00,0.00,29.74,M,8.00,M,FEW,BKN,OVC,M,600.00,1700.00,2900.00,M,-SN,M,M,M,M,M,M,25.32,K10U 081055Z AUTO 22004KT 8SM -SN FEW006 BKN017 OVC029 M01/M02 A2974 RMK AO2,M
EKO,2024-02-08 10:56,-115.7860,40.8242,1367.00,30.00,28.00,92.15,300.00,3.00,0.00,29.72,1007.50,10.00,M,FEW,OVC,M,M,7000.00,9000.00,M,M,M,M,M,M,M,M,M,26.40,KEKO 081056Z AUTO 30003KT 10SM FEW070 OVC090 M01/M02 A2972 RMK AO2 SLP075 T10111022,M
NFL,2024-02-08 10:56,-118.7010,39.4166,1199.00,30.00,27.00,88.44,0.00,0.00,0.00,29.76,1005.80,10.00,M,CLR,M,M,M,M,M,M,M,M,M,M,M,M,M,M,30.00,KNFL 081056Z AUTO 00000KT 10SM CLR M01/M03 A2976 RMK AO2 SLP058 T10111028,M
HND,2024-02-08 10:56,-115.1344,35.9729,742.79,39.00,36.00,88.87,200.00,15.00,0.09,29.79,1010.60,8.00,M,OVC,M,M,M,2500.00,M,M,M,-RA,M,M,M,M,M,M,29.85,KHND 081056Z AUTO 20015KT 8SM -RA OVC025 04/02 A2979 RMK AO2 SLP106 P0009 T00390022,M
TPH,2024-02-08 10:56,-117.0904,38.0505,1654.00,32.00,29.00,88.53,60.00,4.00,T,29.67,1004.30,9.00,M,BKN,BKN,OVC,M,2100.00,2700.00,5000.00,M,-SN,M,M,M,M,M,M,27.42,KTPH 081056Z AUTO 06004KT 9SM -SN BKN021 BKN027 OVC050 00/M02 A2967 RMK AO2 SNB12E30B48 SLP043 P0000 T00001017,M
LAS,2024-02-08 10:56,-115.1634,36.0719,663.00,41.00,38.00,88.97,180.00,10.00,0.04,29.76,1007.70,7.00,17.00,SCT,OVC,M,M,2100.00,2900.00,M,M,-RA VCFG,M,M,M,M,M,M,34.25,KLAS 081056Z 18010G17KT 7SM -RA VCFG SCT021 OVC029 05/03 A2976 RMK AO2 SLP077 VIS LWR SW-NW MTNS OBSCURED DSNT SW-NW P0004 T00500033,M
WMC,2024-02-08 10:56,-117.8072,40.9019,1315.00,30.00,26.00,84.85,270.00,6.00,0.00,29.76,1008.30,10.00,M,CLR,M,M,M,M,M,M,M,M,T,M,M,M,M,M,23.12,KWMC 081056Z AUTO 27006KT 10SM CLR M01/M03 A2976 RMK AO2 SLP083 I1000 T10111033,M
ELY,2024-02-08 11:04,-114.8453,39.2950,1909.00,20.00,18.00,91.79,0.00,0.00,0.00,29.71,M,10.00,M,BKN,BKN,OVC,M,2500.00,5500.00,8500.00,M,M,M,M,M,M,M,M,20.00,KELY 081104Z AUTO 00000KT 10SM BKN025 BKN055 OVC085 M07/M08 A2971 RMK AO2 T10671078,M
LSV,2024-02-08 11:05,-115.0343,36.2362,570.00,44.60,39.20,81.20,190.00,13.00,0.00,29.74,1006.70,10.00,M,BKN,BKN,M,M,2700.00,3900.00,M,M,-RA,M,M,M,M,M,M,37.71,KLSV 081105Z AUTO 19013KT 10SM -RA BKN027 BKN039 07/04 A2974 RMK AO2 CIG 027V036 SLP067 $,M
INS,2024-02-08 11:05,-115.6733,36.5872,955.00,39.20,33.80,80.79,70.00,3.00,0.00,29.73,1005.60,10.00,M,OVC,M,M,M,800.00,M,M,M,-RA,M,M,M,M,M,M,36.92,KINS 081105Z AUTO 07003KT 10SM -RA OVC008 04/01 A2973 RMK AO2 CIG 008V010 SLP056 $,M
BVU,2024-02-08 11:15,-114.8611,35.9475,671.00,42.80,39.20,86.99,180.00,11.00,0.00,29.78,M,6.00,16.00,BKN,OVC,M,M,2400.00,3400.00,M,M,-RA,M,M,M,M,M,M,36.11,KBVU 081115Z AUTO 18011G16KT 6SM -RA BKN024 OVC034 06/04 A2978 RMK AO2,M
CXP,2024-02-08 11:15,-119.7326,39.1923,1431.00,32.00,24.80,74.44,M,5.00,0.00,29.79,M,10.00,M,SCT,SCT,M,M,4000.00,5000.00,M,M,M,M,M,M,M,M,M,26.40,KCXP 081115Z AUTO VRB05KT 10SM SCT040 SCT050 00/M04 A2979 RMK AO2,M
ELY,2024-02-08 11:15,-114.8453,39.2950,1909.00,20.00,17.00,87.92,210.00,4.00,0.00,29.71,M,10.00,M,FEW,BKN,OVC,M,2500.00,5000.00,8000.00,M,M,M,M,M,M,M,M,13.41,KELY 081115Z AUTO 21004KT 10SM FEW025 BKN050 OVC080 M07/M08 A2971 RMK AO2 T10671083,M
RTS,2024-02-08 11:15,-119.8764,39.6682,1539.00,19.40,17.60,92.57,340.00,7.00,0.00,29.79,M,10.00,M,CLR,M,M,M,M,M,M,M,M,M,M,M,M,M,M,9.42,KRTS 081115Z AUTO 34007KT 10SM CLR M07/M08 A2979 RMK AO2,M
05U,2024-02-08 11:15,-116.0051,39.6042,1811.23,23.00,21.20,92.69,0.00,0.00,0.00,29.73,M,10.00,M,M,M,M,M,M,M,M,M,M,M,M,M,M,M,M,23.00,K05U 081115Z AUTO 00000KT 10SM M05/M06 A2973 RMK A01,M
MEV,2024-02-08 11:15,-119.7500,38.9963,1441.42,32.00,28.40,86.39,20.00,6.00,0.00,29.78,M,10.00,11.00,OVC,M,M,M,3500.00,M,M,M,M,M,M,M,M,M,M,25.53,KMEV 081115Z AUTO 02006G11KT 10SM OVC035 M00/M02 A2978 RMK AO2,M
BAM,2024-02-08 11:15,-116.8743,40.5990,1382.36,30.20,30.20,100.00,340.00,3.00,0.00,29.76,M,10.00,M,CLR,M,M,M,M,M,M,M,M,M,M,M,M,M,M,26.63,KBAM 081115Z AUTO 34003KT 10SM CLR M01/M01 A2976 RMK AO1,M
HTH,2024-02-08 11:15,-118.6315,38.5448,1282.89,33.80,33.80,100.00,330.00,15.00,0.00,29.76,M,10.00,M,FEW,SCT,OVC,M,1900.00,2400.00,4100.00,M,M,M,M,M,M,M,M,23.11,KHTH 081115Z AUTO 33015KT 10SM FEW019 SCT024 OVC041 01/01 A2976 RMK A01,M
10U,2024-02-08 11:15,-116.1876,41.9532,1637.00,30.20,28.40,92.92,0.00,0.00,0.00,29.75,M,10.00,M,BKN,OVC,M,M,1300.00,1900.00,M,M,M,M,M,M,M,M,M,30.20,K10U 081115Z AUTO 00000KT 10SM BKN013 OVC019 M01/M02 A2975 RMK AO2,M
TMT,2024-02-08 11:15,-117.1971,39.4643,1749.34,26.80,25.70,95.55,0.00,0.00,0.00,29.73,M,10.00,M,BKN,OVC,M,M,2400.00,4900.00,M,M,M,M,M,M,M,M,M,26.80,KTMT 081115Z AUTO 00000KT 10SM BKN024 OVC049 M03/M03 A2973 RMK AO2 T10291035,M
LSV,2024-02-08 11:25,-115.0343,36.2362,570.00,44.60,39.20,81.20,210.00,15.00,0.00,29.75,1007.10,10.00,M,FEW,SCT,M,M,1900.00,2800.00,M,M,-RA,M,M,M,M,M,M,37.11,KLSV 081125Z AUTO 21015KT 10SM -RA FEW019 SCT028 07/04 A2975 RMK AO2 SLP071 $,M
INS,2024-02-08 11:25,-115.6733,36.5872,955.00,39.20,33.80,80.79,100.00,7.00,0.00,29.73,1005.60,10.00,M,SCT,BKN,BKN,OVC,900.00,3500.00,4900.00,6000.00,-DZ,M,M,M,M,M,M,33.56,KINS 081125Z AUTO 10007KT 10SM -DZ SCT009 BKN035 BKN049 OVC060 04/01 A2973 RMK AO2 RAE24DZB24 SLP056 $,M
INS,2024-02-08 11:26,-115.6733,36.5872,955.00,39.20,33.80,80.79,110.00,7.00,0.00,29.74,1006.00,10.00,M,SCT,SCT,BKN,OVC,900.00,1900.00,3500.00,4900.00,M,M,M,M,M,M,M,33.56,KINS 081126Z AUTO 11007KT 10SM SCT009 SCT019 BKN035 OVC049 04/01 A2974 RMK AO2 RAE24DZB24E26 SLP060 $,M
INS,2024-02-08 11:30,-115.6733,36.5872,955.00,39.20,33.80,80.79,60.00,6.00,0.00,29.73,1005.60,10.00,M,SCT,SCT,BKN,OVC,900.00,1600.00,2000.00,3500.00,-RA,M,M,M,M,M,M,34.20,KINS 081130Z AUTO 06006KT 10SM -RA SCT009 SCT016 BKN020 OVC035 04/01 A2973 RMK AO2 RAE24DZB24E26RAB30 CIG 009V035 SLP056 $,M
HND,2024-02-08 11:34,-115.1344,35.9729,742.79,37.40,35.60,93.14,180.00,18.00,0.05,29.78,M,10.00,M,SCT,BKN,OVC,M,2100.00,3000.00,3500.00,M,-RA,M,M,M,M,M,M,26.86,KHND 081134Z AUTO 18018KT 10SM -RA SCT021 BKN030 OVC035 03/02 A2978 RMK AO2 P0005,M
BVU,2024-02-08 11:35,-114.8611,35.9475,671.00,41.00,37.40,86.89,210.00,15.00,0.00,29.79,M,2.00,28.00,SCT,SCT,OVC,M,400.00,900.00,2200.00,M,+UP,M,M,M,M,M,M,32.45,KBVU 081135Z AUTO 21015G28KT 2SM +UP SCT004 SCT009 OVC022 05/03 A2979 RMK AO2,M
CXP,2024-02-08 11:35,-119.7326,39.1923,1431.00,32.00,26.60,80.22,260.00,5.00,0.00,29.80,M,10.00,M,FEW,M,M,M,4000.00,M,M,M,M,M,M,M,M,M,M,26.40,KCXP 081135Z AUTO 26005KT 10SM FEW040 M00/M03 A2980 RMK AO2,M
RTS,2024-02-08 11:35,-119.8764,39.6682,1539.00,21.20,19.40,92.63,360.00,7.00,0.00,29.80,M,10.00,M,CLR,M,M,M,M,M,M,M,M,M,M,M,M,M,M,11.61,KRTS 081135Z AUTO 36007KT 10SM CLR M06/M07 A2980 RMK AO2,M
05U,2024-02-08 11:35,-116.0051,39.6042,1811.23,24.80,23.00,92.74,0.00,0.00,0.00,29.73,M,10.00,M,M,M,M,M,M,M,M,M,M,M,M,M,M,M,M,24.80,K05U 081135Z AUTO 00000KT 10SM M04/M05 A2973 RMK A01,M
MEV,2024-02-08 11:35,-119.7500,38.9963,1441.42,30.20,26.60,86.28,10.00,6.00,0.00,29.79,M,10.00,M,OVC,M,M,M,3400.00,M,M,M,M,M,M,M,M,M,M,23.36,KMEV 081135Z AUTO 01006KT 10SM OVC034 M01/M03 A2979 RMK AO2,M
BAM,2024-02-08 11:35,-116.8743,40.5990,1382.36,30.20,30.20,100.00,0.00,0.00,0.00,29.77,M,10.00,M,CLR,M,M,M,M,M,M,M,M,M,M,M,M,M,M,30.20,KBAM 081135Z AUTO 00000KT 10SM CLR M01/M01 A2977 RMK AO1,M
HTH,2024-02-08 11:35,-118.6315,38.5448,1282.89,33.80,33.80,100.00,330.00,12.00,0.00,29.77,M,10.00,M,FEW,BKN,OVC,M,1800.00,2400.00,4100.00,M,M,M,M,M,M,M,M,24.29,KHTH 081135Z AUTO 33012KT 10SM FEW018 BKN024 OVC041 01/01 A2977 RMK A01,M
10U,2024-02-08 11:35,-116.1876,41.9532,1637.00,30.20,28.40,92.92,0.00,0.00,0.00,29.75,M,10.00,M,FEW,OVC,M,M,1300.00,2200.00,M,M,M,M,M,M,M,M,M,30.20,K10U 081135Z AUTO 00000KT 10SM FEW013 OVC022 M01/M02 A2975 RMK AO2,M
INS,2024-02-08 11:35,-115.6733,36.5872,955.00,39.20,33.80,80.79,40.00,7.00,0.00,29.72,1005.30,10.00,M,SCT,SCT,BKN,BKN,1300.00,2000.00,3500.00,7000.00,-RA,M,M,M,M,M,M,33.56,KINS 081135Z AUTO 04007KT 10SM -RA SCT013 SCT020 BKN035 BKN070 OVC085 04/01 A2972 RMK AO2 RAE24DZB24E26RAB30 SLP053 $,M
TMT,2024-02-08 11:35,-117.1971,39.4643,1749.34,27.30,26.20,95.56,0.00,0.00,0.00,29.74,M,10.00,M,SCT,OVC,M,M,2400.00,4900.00,M,M,M,M,M,M,M,M,M,27.30,KTMT 081135Z AUTO 00000KT 10SM SCT024 OVC049 M03/M03 A2974 RMK AO2 T10261032,M
LAS,2024-02-08 11:38,-115.1634,36.0719,663.00,39.00,37.00,92.45,180.00,8.00,0.07,29.76,M,8.00,M,FEW,OVC,M,M,2100.00,3100.00,M,M,-RA VCFG,M,M,M,M,M,M,32.74,KLAS 081138Z 18008KT 8SM -RA VCFG FEW021 OVC031 04/03 A2976 RMK AO2 MTNS OBSCURED DSNT SW-NW-N P0007 T00390028,M
INS,2024-02-08 11:41,-115.6733,36.5872,955.00,39.20,33.80,80.79,80.00,8.00,0.00,29.71,1004.90,10.00,M,FEW,SCT,SCT,OVC,1600.00,3500.00,7000.00,8500.00,M,M,M,M,M,M,M,32.98,KINS 081141Z AUTO 08008KT 10SM FEW016 SCT035 SCT070 OVC085 04/01 A2971 RMK AO2 RAE24DZB24E26RAB30E41 SLP049 $,M
HND,2024-02-08 11:52,-115.1344,35.9729,742.79,37.40,35.60,93.14,180.00,14.00,0.05,29.78,M,10.00,M,BKN,OVC,M,M,2800.00,3400.00,M,M,-RA,M,M,M,M,M,M,28.12,KHND 081152Z AUTO 18014KT 10SM -RA BKN028 OVC034 03/02 A2978 RMK AO2 P0005,M
DRA,2024-02-08 11:53,-116.0278,36.6206,1009.00,37.00,33.00,85.29,260.00,6.00,0.00,29.70,1004.40,10.00,M,FEW,SCT,BKN,M,4100.00,10000.00,12000.00,M,M,M,M,M,M,M,M,31.55,KDRA 081153Z AUTO 26006KT 10SM FEW041 SCT100 BKN120 03/01 A2970 RMK AO2 SLP044 60005 70005 T00280006 10061 20028 55006,M
ELY,2024-02-08 11:53,-114.8453,39.2950,1909.00,23.00,20.00,88.08,230.00,3.00,T,29.71,1006.90,10.00,M,FEW,FEW,OVC,M,2900.00,4200.00,8000.00,M,M,M,M,M,M,M,M,18.40,KELY 081153Z AUTO 23003KT 10SM FEW029 FEW042 OVC080 M05/M07 A2971 RMK AO2 SNB25E43 SLP069 P0000 60001 70010 T10501067 11028 21067 51001,M
VGT,2024-02-08 11:53,-115.1933,36.2111,667.00,42.00,37.00,82.30,200.00,7.00,0.01,29.76,1009.30,7.00,M,BKN,OVC,M,M,1900.00,2900.00,M,M,M,M,M,M,M,M,M,36.97,KVGT 081153Z AUTO 20007KT 7SM BKN019 OVC029 06/03 A2976 RMK AO2 SLP093 P0001 60005 70005 T00560028 10106 20056 53001,M
LOL,2024-02-08 11:53,-118.5701,40.0684,1192.43,30.00,29.00,96.00,40.00,5.00,0.00,29.78,1009.80,10.00,M,CLR,M,M,M,M,M,M,M,M,M,M,M,M,M,M,24.02,KLOL 081153Z AUTO 04005KT 10SM CLR M01/M02 A2978 RMK AO2 SLP098 T10111017 10011 21017 53009,M
P68,2024-02-08 11:53,-116.0056,39.6014,1993.00,25.00,23.00,91.97,0.00,0.00,0.00,29.71,1005.80,M,M,M,M,M,M,M,M,M,M,M,M,M,M,M,M,M,25.00,KP68 081153Z AUTO 00000KT M04/M05 A2971 RMK AO1 SLP058 T10391050 11017 21050 51004 $,M
BVU,2024-02-08 11:55,-114.8611,35.9475,671.00,41.00,37.40,86.89,210.00,12.00,0.00,29.79,M,4.00,M,FEW,SCT,OVC,M,400.00,1000.00,1700.00,M,-RA,M,M,M,M,M,M,33.46,KBVU 081155Z AUTO 21012KT 4SM -RA FEW004 SCT010 OVC017 05/03 A2979 RMK AO2,M
CXP,2024-02-08 11:55,-119.7326,39.1923,1431.00,32.00,26.60,80.22,310.00,5.00,0.00,29.80,M,10.00,M,CLR,M,M,M,M,M,M,M,M,M,M,M,M,M,M,26.40,KCXP 081155Z AUTO 31005KT 10SM CLR M00/M03 A2980 RMK AO2,M
RNO,2024-02-08 11:55,-119.7711,39.4839,1341.00,29.00,25.00,84.79,350.00,3.00,0.00,29.80,1009.40,10.00,M,FEW,M,M,M,4000.00,M,M,M,M,M,M,M,M,M,M,25.26,KRNO 081155Z 35003KT 10SM FEW040 M02/M04 A2980 RMK AO2 SLP094 60000 T10171039 10017 21017 51006 $,M
LSV,2024-02-08 11:55,-115.0343,36.2362,570.00,42.00,37.20,82.95,190.00,12.00,0.09,29.75,1007.10,10.00,M,CLR,M,M,M,M,M,M,M,-RA,M,M,M,M,M,M,34.73,KLSV 081155Z AUTO 19012KT 10SM -RA CLR 06/03 A2975 RMK AO2 SLP071 P0009 60012 70012 T00560029 10111 20056 51006 $,M
RTS,2024-02-08 11:55,-119.8764,39.6682,1539.00,21.20,19.40,92.63,350.00,7.00,0.00,29.81,M,10.00,M,CLR,M,M,M,M,M,M,M,M,M,M,M,M,M,M,11.61,KRTS 081155Z AUTO 35007KT 10SM CLR M06/M07 A2981 RMK AO2,M
05U,2024-02-08 11:55,-116.0051,39.6042,1811.23,24.80,23.00,92.74,0.00,0.00,0.00,29.74,M,10.00,M,M,M,M,M,M,M,M,M,M,M,M,M,M,M,M,24.80,K05U 081155Z AUTO 00000KT 10SM M04/M05 A2974 RMK A01,M
MEV,2024-02-08 11:55,-119.7500,38.9963,1441.42,30.20,26.60,86.28,360.00,5.00,0.00,29.79,M,10.00,M,FEW,SCT,M,M,3400.00,4300.00,M,M,M,M,M,M,M,M,M,24.26,KMEV 081155Z AUTO 36005KT 10SM FEW034 SCT043 M01/M03 A2979 RMK AO2,M
BAM,2024-02-08 11:55,-116.8743,40.5990,1382.36,30.20,30.20,100.00,0.00,0.00,0.00,29.77,M,10.00,M,CLR,M,M,M,M,M,M,M,M,M,M,M,M,M,M,30.20,KBAM 081155Z AUTO 00000KT 10SM CLR M01/M01 A2977 RMK AO1,M
HTH,2024-02-08 11:55,-118.6315,38.5448,1282.89,33.80,33.80,100.00,330.00,13.00,0.00,29.78,M,9.00,M,BKN,BKN,OVC,M,2400.00,2900.00,4500.00,M,M,M,M,M,M,M,M,23.87,KHTH 081155Z AUTO 33013KT 9SM BKN024 BKN029 OVC045 01/01 A2978 RMK A01,M
INS,2024-02-08 11:55,-115.6733,36.5872,955.00,39.60,32.40,75.20,120.00,9.00,0.01,29.70,1004.60,10.00,M,FEW,OVC,M,M,1600.00,8500.00,M,M,M,M,M,M,M,M,M,32.96,KINS 081155Z AUTO 12009KT 10SM FEW016 OVC085 04/00 A2970 RMK AO2 RAE24DZB24E26RAB30E41 SLP046 P0001 60004 70004 T00420002 10070 20035 58000 $,M
TMT,2024-02-08 11:55,-117.1971,39.4643,1749.34,27.50,26.40,95.56,320.00,3.00,0.00,29.74,M,10.00,M,SCT,BKN,OVC,M,800.00,1200.00,4900.00,M,M,M,M,M,M,M,M,23.54,KTMT 081155Z AUTO 32003KT 10SM SCT008 BKN012 OVC049 M02/M03 A2974 RMK AO2 T10251031 11012 21036,M
10U,2024-02-08 11:55,-116.1876,41.9532,1637.00,30.20,28.40,92.92,0.00,0.00,0.00,29.76,M,10.00,M,OVC,M,M,M,2500.00,M,M,M,M,M,M,M,M,M,M,30.20,K10U 081155Z AUTO 00000KT 10SM OVC025 M01/M02 A2976 RMK AO2,M
EKO,2024-02-08 11:56,-115.7860,40.8242,1367.00,30.00,28.00,92.15,0.00,0.00,0.00,29.74,1007.90,10.00,M,SCT,BKN,OVC,M,6000.00,7500.00,9000.00,M,M,M,M,M,M,M,M,30.00,KEKO 081156Z AUTO 00000KT 10SM SCT060 BKN075 OVC090 M01/M02 A2974 RMK AO2 SLP079 70002 T10111022 11006 21017 53005,M
LSV,2024-02-08 11:56,-115.0343,36.2362,570.00,42.80,37.40,81.07,200.00,11.00,0.00,29.75,1007.10,10.00,M,CLR,M,M,M,M,M,M,M,M,M,M,M,M,M,M,36.11,KLSV 081156Z AUTO 20011KT 10SM CLR 06/03 A2975 RMK AO2 RAE55 SLP071 $,M
NFL,2024-02-08 11:56,-118.7010,39.4166,1199.00,30.00,27.00,88.44,0.00,0.00,0.00,29.78,1006.30,10.00,M,CLR,M,M,M,M,M,M,M,M,M,M,M,M,M,M,30.00,KNFL 081156Z AUTO 00000KT 10SM CLR M01/M03 A2978 RMK AO2 SLP063 7//// T10111028 10022 21011 52013,M
HND,2024-02-08 11:56,-115.1344,35.9729,742.79,38.00,35.00,88.83,190.00,13.00,0.05,29.79,1010.70,10.00,M,BKN,OVC,M,M,3000.00,3400.00,M,M,-RA,M,M,M,M,M,M,29.26,KHND 081156Z AUTO 19013KT 10SM -RA BKN030 OVC034 03/02 A2979 RMK AO2 SLP107 P0005 60015 70015 T00330017 10089 20028 51001,M
TPH,2024-02-08 11:56,-117.0904,38.0505,1654.00,30.00,28.00,92.15,20.00,5.00,T,29.68,1005.20,10.00,M,BKN,OVC,M,M,3000.00,3400.00,M,M,M,M,M,M,M,M,M,24.02,KTPH 081156Z AUTO 02005KT 10SM BKN030 OVC034 M01/M02 A2968 RMK AO2 SNE1058 SLP052 P0000 60001 70001 T10111022 10006 21011 51004,M
LAS,2024-02-08 11:56,-115.1634,36.0719,663.00,39.00,36.00,88.87,200.00,9.00,0.07,29.76,1007.80,9.00,M,FEW,FEW,OVC,M,2100.00,2800.00,3700.00,M,-RA,M,M,M,M,M,M,32.22,KLAS 081156Z 20009KT 9SM -RA FEW021 FEW028 OVC037 04/02 A2976 RMK AO2 SLP078 MTNS OBSCURED DSNT SW-NW-N P0007 60012 70012 T00390022 10094 20039 51002,M
WMC,2024-02-08 11:56,-117.8072,40.9019,1315.00,28.00,24.00,84.72,0.00,0.00,0.00,29.78,1009.20,10.00,M,CLR,M,M,M,M,M,M,M,M,T,M,T,M,M,M,28.00,KWMC 081156Z AUTO 00000KT 10SM CLR M02/M04 A2978 RMK AO2 SLP092 I1000 I6000 T10221044 10006 21033 53009,M
LSV,2024-02-08 11:58,-115.0343,36.2362,570.00,42.80,37.40,81.07,200.00,12.00,0.00,29.75,1007.10,10.00,M,FEW,M,M,M,2000.00,M,M,M,-RA,M,M,M,M,M,M,35.75,KLSV 081158Z AUTO 20012KT 10SM -RA FEW020 06/03 A2975 RMK AO2 RAE55RAB58 SLP071 $,M
VGT,2024-02-08 12:01,-115.1933,36.2111,667.00,42.00,37.00,82.30,160.00,8.00,0.00,29.75,M,9.00,M,SCT,OVC,M,M,1900.00,4200.00,M,M,M,M,M,M,M,M,M,36.43,KVGT 081201Z AUTO 16008KT 9SM SCT019 OVC042 06/03 A2975 RMK AO2 T00560028,M
BVU,2024-02-08 12:15,-114.8611,35.9475,671.00,39.20,35.60,86.79,190.00,7.00,0.00,29.79,M,8.00,M,FEW,SCT,OVC,M,400.00,1600.00,2300.00,M,-RA,M,M,M,M,M,M,33.56,KBVU 081215Z AUTO 19007KT 8SM -RA FEW004 SCT016 OVC023 04/02 A2979 RMK AO2,M
CXP,2024-02-08 12:15,-119.7326,39.1923,1431.00,32.00,26.60,80.22,320.00,8.00,0.00,29.81,M,10.00,M,CLR,M,M,M,M,M,M,M,M,M,M,M,M,M,M,24.11,KCXP 081215Z AUTO 32008KT 10SM CLR M00/M03 A2981 RMK AO2,M
RTS,2024-02-08 12:15,-119.8764,39.6682,1539.00,21.20,19.40,92.63,340.00,8.00,0.00,29.81,M,10.00,M,CLR,M,M,M,M,M,M,M,M,M,M,M,M,M,M,10.81,KRTS 081215Z AUTO 34008KT 10SM CLR M06/M07 A2981 RMK AO2,M
05U,2024-02-08 12:15,-116.0051,39.6042,1811.23,26.60,24.80,92.80,0.00,0.00,0.00,29.74,M,10.00,M,M,M,M,M,M,M,M,M,M,M,M,M,M,M,M,26.60,K05U 081215Z AUTO 00000KT 10SM M03/M04 A2974 RMK A01,M
MEV,2024-02-08 12:15,-119.7500,38.9963,1441.42,26.60,24.80,92.80,30.00,5.00,0.00,29.79,M,10.00,M,FEW,M,M,M,4500.00,M,M,M,M,M,M,M,M,M,M,19.98,KMEV 081215Z AUTO 03005KT 10SM FEW045 M03/M04 A2979 RMK AO2,M
BAM,2024-02-08 12:15,-116.8743,40.5990,1382.36,30.20,28.40,92.92,0.00,0.00,0.00,29.78,M,10.00,M,BKN,M,M,M,2600.00,M,M,M,M,M,M,M,M,M,M,30.20,KBAM 081215Z AUTO 00000KT 10SM BKN026 M01/M02 A2978 RMK AO1,M
HTH,2024-02-08 12:15,-118.6315,38.5448,1282.89,33.80,32.00,93.03,330.00,12.00,0.00,29.79,M,10.00,M,SCT,BKN,OVC,M,2400.00,3200.00,4800.00,M,M,M,M,M,M,M,M,24.29,KHTH 081215Z AUTO 33012KT 10SM SCT024 BKN032 OVC048 01/00 A2979 RMK A01,M
10U,2024-02-08 12:15,-116.1876,41.9532,1637.00,28.40,26.60,92.86,0.00,0.00,0.00,29.76,M,10.00,M,BKN,OVC,M,M,2600.00,3100.00,M,M,M,M,M,M,M,M,M,28.40,K10U 081215Z AUTO 00000KT 10SM BKN026 OVC031 M02/M03 A2976 RMK AO2,M
TMT,2024-02-08 12:15,-117.1971,39.4643,1749.34,28.00,26.60,94.40,360.00,3.00,0.00,29.76,M,10.00,M,BKN,OVC,M,M,800.00,1200.00,M,M,M,M,M,M,M,M,M,24.12,KTMT 081215Z AUTO 36003KT 10SM BKN008 OVC012 M02/M03 A2976 RMK AO2 T10221030,M
LSV,2024-02-08 12:21,-115.0343,36.2362,570.00,41.00,37.40,86.89,200.00,10.00,0.00,29.75,1007.20,10.00,M,FEW,M,M,M,2100.00,M,M,M,M,M,M,M,M,M,M,34.25,KLSV 081221Z AUTO 20010KT 10SM FEW021 05/03 A2975 RMK AO2 RAE1155RAB1158E21 SLP072 $,M
BVU,2024-02-08 12:35,-114.8611,35.9475,671.00,39.20,37.40,93.19,150.00,5.00,0.00,29.78,M,10.00,M,FEW,SCT,OVC,M,1900.00,2500.00,6500.00,M,M,M,M,M,M,M,M,34.95,KBVU 081235Z AUTO 15005KT 10SM FEW019 SCT025 OVC065 04/03 A2978 RMK AO2,M
CXP,2024-02-08 12:35,-119.7326,39.1923,1431.00,30.20,26.60,86.28,310.00,8.00,0.00,29.81,M,10.00,M,CLR,M,M,M,M,M,M,M,M,M,M,M,M,M,M,21.90,KCXP 081235Z AUTO 31008KT 10SM CLR M01/M03 A2981 RMK AO2,M
RTS,2024-02-08 12:35,-119.8764,39.6682,1539.00,21.20,17.60,85.74,350.00,7.00,0.00,29.80,M,10.00,M,CLR,M,M,M,M,M,M,M,M,M,M,M,M,M,M,11.61,KRTS 081235Z AUTO 35007KT 10SM CLR M06/M08 A2980 RMK AO2,M
05U,2024-02-08 12:35,-116.0051,39.6042,1811.23,26.60,24.80,92.80,0.00,0.00,0.00,29.75,M,10.00,M,M,M,M,M,M,M,M,M,M,M,M,M,M,M,M,26.60,K05U 081235Z AUTO 00000KT 10SM M03/M04 A2975 RMK A01,M
MEV,2024-02-08 12:35,-119.7500,38.9963,1441.42,24.80,23.00,92.74,170.00,5.00,0.00,29.81,M,10.00,M,FEW,M,M,M,4600.00,M,M,M,M,M,M,M,M,M,M,17.84,KMEV 081235Z AUTO 17005KT 10SM FEW046 M04/M05 A2981 RMK AO2,M
BAM,2024-02-08 12:35,-116.8743,40.5990,1382.36,32.00,30.20,92.97,130.00,3.00,0.00,29.78,M,10.00,M,OVC,M,M,M,2800.00,M,M,M,M,M,M,M,M,M,M,28.69,KBAM 081235Z AUTO 13003KT 10SM OVC028 00/M01 A2978 RMK AO1,M
HTH,2024-02-08 12:35,-118.6315,38.5448,1282.89,33.80,32.00,93.03,340.00,11.00,0.00,29.80,M,10.00,M,BKN,BKN,OVC,M,2300.00,3200.00,4900.00,M,M,M,M,M,M,M,M,24.74,KHTH 081235Z AUTO 34011KT 10SM BKN023 BKN032 OVC049 01/00 A2980 RMK A01,M
10U,2024-02-08 12:35,-116.1876,41.9532,1637.00,28.40,28.40,100.00,0.00,0.00,0.00,29.76,M,10.00,M,OVC,M,M,M,3300.00,M,M,M,M,M,M,M,M,M,M,28.40,K10U 081235Z AUTO 00000KT 10SM OVC033 M02/M02 A2976 RMK AO2,M
TMT,2024-02-08 12:35,-117.1971,39.4643,1749.34,28.00,26.60,94.40,0.00,0.00,0.00,29.76,M,10.00,M,OVC,M,M,M,800.00,M,M,M,M,M,M,M,M,M,M,28.00,KTMT 081235Z AUTO 00000KT 10SM OVC008 M02/M03 A2976 RMK AO2 T10221030,M
DRA,2024-02-08 12:53,-116.0278,36.6206,1009.00,37.00,30.00,75.56,220.00,10.00,0.00,29.71,1004.90,10.00,M,CLR,M,M,M,M,M,M,M,M,M,M,M,M,M,M,29.24,KDRA 081253Z AUTO 22010KT 10SM CLR 03/M01 A2971 RMK AO2 SLP049 T00281011,M
ELY,2024-02-08 12:53,-114.8453,39.2950,1909.00,22.00,19.00,88.02,90.00,3.00,0.00,29.72,1007.50,10.00,M,OVC,M,M,M,3400.00,M,M,M,M,M,M,M,M,M,M,17.26,KELY 081253Z AUTO 09003KT 10SM OVC034 M06/M07 A2972 RMK AO2 SLP075 T10561072,M
VGT,2024-02-08 12:53,-115.1933,36.2111,667.00,42.00,37.00,82.30,160.00,8.00,0.00,29.76,1009.40,10.00,M,FEW,BKN,M,M,7000.00,10000.00,M,M,M,M,M,M,M,M,M,36.43,KVGT 081253Z AUTO 16008KT 10SM FEW070 BKN100 06/03 A2976 RMK AO2 SLP094 T00560028,M
LOL,2024-02-08 12:53,-118.5701,40.0684,1192.43,31.00,29.00,92.19,20.00,6.00,0.00,29.79,1010.00,10.00,M,CLR,M,M,M,M,M,M,M,M,M,M,M,M,M,M,24.33,KLOL 081253Z AUTO 02006KT 10SM CLR M01/M02 A2979 RMK AO2 SLP100 T10061017,M
P68,2024-02-08 12:53,-116.0056,39.6014,1993.00,28.00,25.00,88.33,0.00,0.00,0.00,29.73,1006.50,M,M,M,M,M,M,M,M,M,M,M,M,M,M,M,M,M,28.00,KP68 081253Z AUTO 00000KT M02/M04 A2973 RMK AO1 SLP065 T10221039 $,M
BVU,2024-02-08 12:55,-114.8611,35.9475,671.00,39.20,37.40,93.19,160.00,8.00,0.00,29.80,M,10.00,M,FEW,SCT,OVC,M,2500.00,3200.00,7000.00,M,M,M,M,M,M,M,M,32.98,KBVU 081255Z AUTO 16008KT 10SM FEW025 SCT032 OVC070 04/03 A2980 RMK AO2,M
CXP,2024-02-08 12:55,-119.7326,39.1923,1431.00,30.20,24.80,80.07,320.00,6.00,0.00,29.81,M,10.00,M,CLR,M,M,M,M,M,M,M,M,M,M,M,M,M,M,23.36,KCXP 081255Z AUTO 32006KT 10SM CLR M01/M04 A2981 RMK AO2,M
RNO,2024-02-08 12:55,-119.7711,39.4839,1341.00,30.00,25.00,81.40,330.00,3.00,0.00,29.81,1010.00,10.00,M,FEW,M,M,M,3000.00,M,M,M,M,M,M,M,M,M,M,26.40,KRNO 081255Z 33003KT 10SM FEW030 M01/M04 A2981 RMK AO2 SLP100 T10111039 $,M
LSV,2024-02-08 12:55,-115.0343,36.2362,570.00,41.50,36.70,82.91,150.00,4.00,0.01,29.74,1006.90,10.00,M,FEW,M,M,M,7500.00,M,M,M,M,M,M,M,M,M,M,38.51,KLSV 081255Z AUTO 15004KT 10SM FEW075 05/03 A2974 RMK AO2 RAE1155RAB1158E21 SLP069 P0001 T00530026 $,M
RTS,2024-02-08 12:55,-119.8764,39.6682,1539.00,19.40,17.60,92.57,0.00,0.00,0.00,29.81,M,10.00,M,CLR,M,M,M,M,M,M,M,M,M,M,M,M,M,M,19.40,KRTS 081255Z AUTO 00000KT 10SM CLR M07/M08 A2981 RMK AO2,M
05U,2024-02-08 12:55,-116.0051,39.6042,1811.23,26.60,26.60,100.00,340.00,3.00,0.00,29.75,M,10.00,M,M,M,M,M,M,M,M,M,M,M,M,M,M,M,M,22.52,K05U 081255Z AUTO 34003KT 10SM M03/M03 A2975 RMK A01,M
MEV,2024-02-08 12:55,-119.7500,38.9963,1441.42,23.00,23.00,100.00,130.00,6.00,0.00,29.80,M,10.00,M,CLR,M,M,M,M,M,M,M,M,M,M,M,M,M,M,14.69,KMEV 081255Z AUTO 13006KT 10SM CLR M05/M05 A2980 RMK AO2,M
BAM,2024-02-08 12:55,-116.8743,40.5990,1382.36,30.20,30.20,100.00,0.00,0.00,0.00,29.78,M,10.00,M,BKN,M,M,M,3200.00,M,M,M,M,M,M,M,M,M,M,30.20,KBAM 081255Z AUTO 00000KT 10SM BKN032 M01/M01 A2978 RMK AO1,M
HTH,2024-02-08 12:55,-118.6315,38.5448,1282.89,33.80,32.00,93.03,350.00,10.00,0.00,29.80,M,10.00,15.00,FEW,OVC,M,M,2400.00,5000.00,M,M,M,M,M,M,M,M,M,25.23,KHTH 081255Z AUTO 35010G15KT 10SM FEW024 OVC050 01/M00 A2980 RMK A01,M
TMT,2024-02-08 12:55,-117.1971,39.4643,1749.34,28.40,26.80,93.63,0.00,0.00,0.00,29.76,M,10.00,M,OVC,M,M,M,1000.00,M,M,M,M,M,M,M,M,M,M,28.40,KTMT 081255Z AUTO 00000KT 10SM OVC010 M02/M03 A2976 RMK AO2 T10201029,M
10U,2024-02-08 12:55,-116.1876,41.9532,1637.00,28.40,28.40,100.00,0.00,0.00,0.00,29.76,M,10.00,M,BKN,BKN,OVC,M,3600.00,4300.00,6500.00,M,M,M,M,M,M,M,M,28.40,K10U 081255Z AUTO 00000KT 10SM BKN036 BKN043 OVC065 M02/M02 A2976 RMK AO2,M
INS,2024-02-08 12:55,-115.6733,36.5872,955.00,38.70,35.00,86.42,90.00,9.00,0.00,29.72,1005.30,10.00,M,OVC,M,M,M,9000.00,M,M,M,M,M,M,M,M,M,M,31.84,KINS 081255Z AUTO 09009KT 10SM OVC090 04/02 A2972 RMK AO2 SLP053 T00370016 $,M
EKO,2024-02-08 12:56,-115.7860,40.8242,1367.00,29.00,26.00,88.38,0.00,0.00,0.00,29.75,1008.80,10.00,M,BKN,BKN,M,M,4900.00,7500.00,M,M,M,M,M,M,M,M,M,29.00,KEKO 081256Z AUTO 00000KT 10SM BKN049 BKN075 M02/M03 A2975 RMK AO2 SLP088 T10171033,M
NFL,2024-02-08 12:56,-118.7010,39.4166,1199.00,30.00,27.00,88.44,0.00,0.00,0.00,29.79,1006.70,10.00,M,CLR,M,M,M,M,M,M,M,M,M,M,M,M,M,M,30.00,KNFL 081256Z AUTO 00000KT 10SM CLR M01/M03 A2979 RMK AO2 SLP067 T10111028,M
HND,2024-02-08 12:56,-115.1344,35.9729,742.79,38.00,34.00,85.35,190.00,15.00,T,29.78,1010.50,10.00,M,SCT,M,M,M,12000.00,M,M,M,M,M,M,M,M,M,M,28.56,KHND 081256Z AUTO 19015KT 10SM SCT120 03/01 A2978 RMK AO2 RAE24 SLP105 P0000 T00330011,M
TPH,2024-02-08 12:56,-117.0904,38.0505,1654.00,29.00,26.00,88.38,20.00,7.00,0.00,29.71,1006.40,10.00,M,BKN,BKN,M,M,2700.00,8000.00,M,M,M,M,M,M,M,M,M,21.12,KTPH 081256Z AUTO 02007KT 10SM BKN027 BKN080 M02/M03 A2971 RMK AO2 SLP064 T10171033,M
LAS,2024-02-08 12:56,-115.1634,36.0719,663.00,38.00,35.00,88.83,180.00,7.00,T,29.77,1008.00,10.00,M,FEW,FEW,SCT,M,2000.00,9000.00,11000.00,M,M,M,M,M,M,M,M,32.09,KLAS 081256Z 18007KT 10SM FEW020 FEW090 SCT110 03/02 A2977 RMK AO2 RAE21 SLP080 P0000 T00330017,M
WMC,2024-02-08 12:56,-117.8072,40.9019,1315.00,27.00,23.00,84.66,280.00,6.00,0.00,29.78,1009.70,10.00,M,CLR,M,M,M,M,M,M,M,M,T,M,M,M,M,M,19.51,KWMC 081256Z AUTO 28006KT 10SM CLR M03/M05 A2978 RMK AO2 SLP097 I1000 T10281050,M
INS,2024-02-08 13:11,-115.6733,36.5872,955.00,39.20,35.60,86.79,M,M,0.00,29.72,1005.30,10.00,M,SCT,SCT,BKN,OVC,1300.00,2100.00,2700.00,9500.00,M,M,M,M,M,M,M,M,KINS 081311Z AUTO M 10SM SCT013 SCT021 BKN027 OVC095 04/02 A2972 RMK AO2 CIG 026V095 SLP053 $,M
CXP,2024-02-08 13:15,-119.7326,39.1923,1431.00,28.40,24.80,86.18,0.00,0.00,0.00,29.82,M,10.00,M,CLR,M,M,M,M,M,M,M,M,M,M,M,M,M,M,28.40,KCXP 081315Z AUTO 00000KT 10SM CLR M02/M04 A2982 RMK AO2,M
RTS,2024-02-08 13:15,-119.8764,39.6682,1539.00,15.80,14.00,92.44,350.00,4.00,0.00,29.82,M,10.00,M,CLR,M,M,M,M,M,M,M,M,M,M,M,M,M,M,8.50,KRTS 081315Z AUTO 35004KT 10SM CLR M09/M10 A2982 RMK AO2,M
05U,2024-02-08 13:15,-116.0051,39.6042,1811.23,28.40,26.60,92.86,0.00,0.00,0.00,29.75,M,10.00,M,M,M,M,M,M,M,M,M,M,M,M,M,M,M,M,28.40,K05U 081315Z AUTO 00000KT 10SM M02/M03 A2975 RMK A01,M
MEV,2024-02-08 13:15,-119.7500,38.9963,1441.42,23.00,23.00,100.00,120.00,5.00,0.00,29.81,M,10.00,M,CLR,M,M,M,M,M,M,M,M,M,M,M,M,M,M,15.71,KMEV 081315Z AUTO 12005KT 10SM CLR M05/M05 A2981 RMK AO2,M
BAM,2024-02-08 13:15,-116.8743,40.5990,1382.36,30.20,28.40,92.92,170.00,3.00,0.00,29.78,M,10.00,M,CLR,M,M,M,M,M,M,M,M,M,M,M,M,M,M,26.63,KBAM 081315Z AUTO 17003KT 10SM CLR M01/M02 A2978 RMK AO1,M
HTH,2024-02-08 13:15,-118.6315,38.5448,1282.89,33.80,32.00,93.03,320.00,7.00,0.00,29.80,M,10.00,M,OVC,M,M,M,5000.00,M,M,M,M,M,M,M,M,M,M,26.97,KHTH 081315Z AUTO 32007KT 10SM OVC050 01/00 A2980 RMK A01,M
10U,2024-02-08 13:15,-116.1876,41.9532,1637.00,28.40,26.60,92.86,0.00,0.00,0.00,29.77,M,10.00,M,OVC,M,M,M,4000.00,M,M,M,M,M,M,M,M,M,M,28.40,K10U 081315Z AUTO 00000KT 10SM OVC040 M02/M03 A2977 RMK AO2,M
TMT,2024-02-08 13:15,-117.1971,39.4643,1749.34,28.40,26.60,92.86,0.00,0.00,0.00,29.77,M,10.00,M,OVC,M,M,M,1000.00,M,M,M,M,M,M,M,M,M,M,28.40,KTMT 081315Z AUTO 00000KT 10SM OVC010 M02/M03 A2977 RMK AO2 T10201030,M
INS,2024-02-08 13:16,-115.6733,36.5872,955.00,39.20,33.80,80.79,110.00,11.00,0.00,29.72,1005.50,10.00,M,FEW,SCT,BKN,BKN,1300.00,2000.00,6000.00,8000.00,M,M,M,M,M,M,M,31.57,KINS 081316Z AUTO 11011KT 10SM FEW013 SCT020 BKN060 BKN080 OVC100 04/01 A2972 RMK AO2 SLP055 $,M
CXP,2024-02-08 13:35,-119.7326,39.1923,1431.00,28.40,24.80,86.18,0.00,0.00,0.00,29.83,M,10.00,M,CLR,M,M,M,M,M,M,M,M,M,M,M,M,M,M,28.40,KCXP 081335Z AUTO 00000KT 10SM CLR M02/M04 A2983 RMK AO2,M
RTS,2024-02-08 13:35,-119.8764,39.6682,1539.00,19.40,17.60,92.57,340.00,5.00,0.00,29.82,M,10.00,M,CLR,M,M,M,M,M,M,M,M,M,M,M,M,M,M,11.43,KRTS 081335Z AUTO 34005KT 10SM CLR M07/M08 A2982 RMK AO2,M
05U,2024-02-08 13:35,-116.0051,39.6042,1811.23,28.40,26.60,92.86,0.00,0.00,0.00,29.76,M,10.00,M,M,M,M,M,M,M,M,M,M,M,M,M,M,M,M,28.40,K05U 081335Z AUTO 00000KT 10SM M02/M03 A2976 RMK A01,M
MEV,2024-02-08 13:35,-119.7500,38.9963,1441.42,21.20,19.40,92.63,90.00,8.00,0.00,29.82,M,10.00,M,CLR,M,M,M,M,M,M,M,M,M,M,M,M,M,M,10.81,KMEV 081335Z AUTO 09008KT 10SM CLR M06/M07 A2982 RMK AO2,M
BAM,2024-02-08 13:35,-116.8743,40.5990,1382.36,30.20,28.40,92.92,0.00,0.00,0.00,29.79,M,10.00,M,CLR,M,M,M,M,M,M,M,M,M,M,M,M,M,M,30.20,KBAM 081335Z AUTO 00000KT 10SM CLR M01/M02 A2979 RMK AO1,M
HTH,2024-02-08 13:35,-118.6315,38.5448,1282.89,33.80,32.00,93.03,330.00,6.00,0.00,29.81,M,10.00,M,OVC,M,M,M,5500.00,M,M,M,M,M,M,M,M,M,M,27.70,KHTH 081335Z AUTO 33006KT 10SM OVC055 01/M00 A2981 RMK A01,M
10U,2024-02-08 13:35,-116.1876,41.9532,1637.00,28.40,26.60,92.86,230.00,3.00,0.00,29.77,M,10.00,M,SCT,OVC,M,M,4100.00,6500.00,M,M,M,M,M,M,M,M,M,24.57,K10U 081335Z AUTO 23003KT 10SM SCT041 OVC065 M02/M03 A2977 RMK AO2,M
TMT,2024-02-08 13:35,-117.1971,39.4643,1749.34,28.40,27.00,94.41,0.00,0.00,0.00,29.77,M,10.00,M,OVC,M,M,M,1200.00,M,M,M,M,M,M,M,M,M,M,28.40,KTMT 081335Z AUTO 00000KT 10SM OVC012 M02/M03 A2977 RMK AO2 T10201027,M
BVU,2024-02-08 13:35,-114.8611,35.9475,671.00,41.00,35.60,80.93,100.00,6.00,0.00,29.78,M,10.00,M,SCT,BKN,OVC,M,1900.00,4500.00,7500.00,M,M,M,M,M,M,M,M,36.37,KBVU 081335Z AUTO 10006KT 10SM SCT019 BKN045 OVC075 05/02 A2978 RMK AO2,M
TPH,2024-02-08 13:37,-117.0904,38.0505,1654.00,29.00,26.00,88.38,360.00,8.00,0.00,29.72,M,10.00,M,OVC,M,M,M,3000.00,M,M,M,M,M,M,M,M,M,M,20.42,KTPH 081337Z AUTO 36008KT 10SM OVC030 M02/M03 A2972 RMK AO2 T10171033,M
DRA,2024-02-08 13:53,-116.0278,36.6206,1009.00,36.00,32.00,85.23,230.00,16.00,0.00,29.72,1005.60,10.00,M,FEW,BKN,M,M,8500.00,11000.00,M,M,M,M,M,M,M,M,M,25.63,KDRA 081353Z AUTO 23016KT 10SM FEW085 BKN110 02/00 A2972 RMK AO2 SLP056 T00220000,M
ELY,2024-02-08 13:53,-114.8453,39.2950,1909.00,23.00,20.00,88.08,0.00,0.00,T,29.73,1008.30,5.00,M,FEW,OVC,M,M,3200.00,3900.00,M,M,-SN BR,M,M,M,M,M,M,23.00,KELY 081353Z AUTO 00000KT 5SM -SN BR FEW032 OVC039 M05/M07 A2973 RMK AO2 SNB02 SLP083 P0000 T10501067,M
VGT,2024-02-08 13:53,-115.1933,36.2111,667.00,41.00,35.00,79.02,150.00,7.00,0.00,29.77,1010.00,10.00,M,FEW,M,M,M,12000.00,M,M,M,M,M,M,M,M,M,M,35.75,KVGT 081353Z AUTO 15007KT 10SM FEW120 05/02 A2977 RMK AO2 SLP100 T00500017,M
LOL,2024-02-08 13:53,-118.5701,40.0684,1192.43,30.00,28.00,92.15,360.00,4.00,0.00,29.81,1010.90,10.00,M,CLR,M,M,M,M,M,M,M,M,M,M,M,M,M,M,25.08,KLOL 081353Z AUTO 36004KT 10SM CLR M01/M02 A2981 RMK AO2 SLP109 T10111022,M
P68,2024-02-08 13:53,-116.0056,39.6014,1993.00,29.00,26.00,88.38,0.00,0.00,0.00,29.74,1007.20,M,M,M,M,M,M,M,M,M,M,M,M,M,M,M,M,M,29.00,KP68 081353Z AUTO 00000KT M02/M03 A2974 RMK AO1 SLP072 T10171033 $,M
CXP,2024-02-08 13:55,-119.7326,39.1923,1431.00,26.60,24.80,92.80,80.00,3.00,0.00,29.83,M,10.00,M,CLR,M,M,M,M,M,M,M,M,M,M,M,M,M,M,22.52,KCXP 081355Z AUTO 08003KT 10SM CLR M03/M04 A2983 RMK AO2,M
RNO,2024-02-08 13:55,-119.7711,39.4839,1341.00,27.00,23.00,84.66,0.00,0.00,0.00,29.83,1011.30,10.00,M,FEW,M,M,M,3000.00,M,M,M,M,M,M,M,M,M,M,27.00,KRNO 081355Z 00000KT 10SM FEW030 M03/M05 A2983 RMK AO2 SLP113 T10281050 $,M
LSV,2024-02-08 13:55,-115.0343,36.2362,570.00,43.00,35.20,73.75,190.00,9.00,0.00,29.76,1007.60,10.00,M,FEW,SCT,M,M,7500.00,11000.00,M,M,M,M,M,M,M,M,M,37.19,KLSV 081355Z AUTO 19009KT 10SM FEW075 SCT110 06/02 A2976 RMK AO2 SLP076 T00610018 $,M
RTS,2024-02-08 13:55,-119.8764,39.6682,1539.00,19.40,17.60,92.57,0.00,0.00,0.00,29.83,M,10.00,M,CLR,M,M,M,M,M,M,M,M,M,M,M,M,M,M,19.40,KRTS 081355Z AUTO 00000KT 10SM CLR M07/M08 A2983 RMK AO2,M
05U,2024-02-08 13:55,-116.0051,39.6042,1811.23,28.40,26.60,92.86,0.00,0.00,0.00,29.77,M,10.00,M,M,M,M,M,M,M,M,M,M,M,M,M,M,M,M,28.40,K05U 081355Z AUTO 00000KT 10SM M02/M03 A2977 RMK A01,M
MEV,2024-02-08 13:55,-119.7500,38.9963,1441.42,19.40,19.40,100.00,110.00,6.00,0.00,29.83,M,10.00,M,CLR,M,M,M,M,M,M,M,M,M,M,M,M,M,M,10.36,KMEV 081355Z AUTO 11006KT 10SM CLR M07/M07 A2983 RMK AO2,M
BAM,2024-02-08 13:55,-116.8743,40.5990,1382.36,30.20,28.40,92.92,0.00,0.00,0.00,29.79,M,10.00,M,CLR,M,M,M,M,M,M,M,M,M,M,M,M,M,M,30.20,KBAM 081355Z AUTO 00000KT 10SM CLR M01/M02 A2979 RMK AO1,M
HTH,2024-02-08 13:55,-118.6315,38.5448,1282.89,32.00,30.20,92.97,320.00,5.00,0.00,29.81,M,10.00,M,OVC,M,M,M,5500.00,M,M,M,M,M,M,M,M,M,M,26.40,KHTH 081355Z AUTO 32005KT 10SM OVC055 00/M01 A2981 RMK A01,M
10U,2024-02-08 13:55,-116.1876,41.9532,1637.00,28.40,26.60,92.86,220.00,4.00,0.00,29.77,M,10.00,M,OVC,M,M,M,6000.00,M,M,M,M,M,M,M,M,M,M,23.22,K10U 081355Z AUTO 22004KT 10SM OVC060 M02/M03 A2977 RMK AO2,M
INS,2024-02-08 13:55,-115.6733,36.5872,955.00,38.70,33.60,81.73,100.00,7.00,0.00,29.74,1006.20,10.00,M,BKN,BKN,OVC,M,1600.00,5000.00,6000.00,M,M,M,M,M,M,M,M,32.95,KINS 081355Z AUTO 10007KT 10SM BKN016 BKN050 OVC060 04/01 A2974 RMK AO2 BKN016 V SCT SLP062 T00370009 $,M
TMT,2024-02-08 13:55,-117.1971,39.4643,1749.34,28.80,27.30,94.03,0.00,0.00,0.00,29.78,M,10.00,M,OVC,M,M,M,1200.00,M,M,M,M,M,M,M,M,M,M,28.80,KTMT 081355Z AUTO 00000KT 10SM OVC012 M02/M03 A2978 RMK AO2 T10181026,M
EKO,2024-02-08 13:56,-115.7860,40.8242,1367.00,28.00,25.00,88.33,330.00,3.00,0.00,29.76,1009.50,10.00,M,BKN,OVC,M,M,7500.00,9000.00,M,M,M,T,M,M,M,M,M,24.12,KEKO 081356Z AUTO 33003KT 10SM BKN075 OVC090 M02/M04 A2976 RMK AO2 SLP095 I1000 T10221039,M
NFL,2024-02-08 13:56,-118.7010,39.4166,1199.00,28.00,25.00,88.33,280.00,4.00,0.00,29.81,1007.10,10.00,M,CLR,M,M,M,M,M,M,M,M,M,M,M,M,M,M,22.75,KNFL 081356Z AUTO 28004KT 10SM CLR M02/M04 A2981 RMK AO2 SLP071 T10221039,M
HND,2024-02-08 13:56,-115.1344,35.9729,742.79,38.00,33.00,82.00,200.00,8.00,0.00,29.80,1011.30,10.00,M,FEW,M,M,M,12000.00,M,M,M,M,M,M,M,M,M,M,31.50,KHND 081356Z AUTO 20008KT 10SM FEW120 03/01 A2980 RMK AO2 SLP113 T00330006,M
TPH,2024-02-08 13:56,-117.0904,38.0505,1654.00,29.00,27.00,92.12,350.00,8.00,0.00,29.73,1007.40,10.00,M,OVC,M,M,M,3000.00,M,M,M,M,M,M,M,M,M,M,20.42,KTPH 081356Z AUTO 35008KT 10SM OVC030 M02/M03 A2973 RMK AO2 SLP074 T10171028,M
LAS,2024-02-08 13:56,-115.1634,36.0719,663.00,40.00,34.00,78.94,190.00,8.00,0.00,29.78,1008.30,10.00,M,FEW,SCT,SCT,M,1000.00,6000.00,11000.00,M,M,M,M,M,M,M,M,33.97,KLAS 081356Z 19008KT 10SM FEW010 SCT060 SCT110 04/01 A2978 RMK AO2 SLP083 T00440011,M
WMC,2024-02-08 13:56,-117.8072,40.9019,1315.00,24.00,20.00,84.46,220.00,3.00,0.00,29.80,1010.70,10.00,M,CLR,M,M,M,M,M,M,M,M,T,M,M,M,M,M,19.54,KWMC 081356Z AUTO 22003KT 10SM CLR M04/M07 A2980 RMK AO2 SLP107 I1000 T10441067,M
WMC,2024-02-08 14:04,-117.8072,40.9019,1315.00,24.00,20.00,84.46,190.00,3.00,0.00,29.81,M,10.00,M,FEW,M,M,M,400.00,M,M,M,M,M,M,M,M,M,M,19.54,KWMC 081404Z AUTO 19003KT 10SM FEW004 M04/M07 A2981 RMK AO2 T10441067,M
INS,2024-02-08 14:13,-115.6733,36.5872,955.00,39.20,33.80,80.79,50.00,7.00,0.00,29.75,1006.60,10.00,M,BKN,OVC,M,M,1500.00,2200.00,M,M,-RA,M,M,M,M,M,M,33.56,KINS 081413Z AUTO 05007KT 10SM -RA BKN015 OVC022 04/01 A2975 RMK AO2 RAB13 SLP066 $,M
BVU,2024-02-08 14:15,-114.8611,35.9475,671.00,39.20,35.60,86.79,150.00,9.00,0.00,29.81,M,10.00,M,SCT,M,M,M,11000.00,M,M,M,M,M,M,M,M,M,M,32.47,KBVU 081415Z AUTO 15009KT 10SM SCT110 04/02 A2981 RMK AO2,M
CXP,2024-02-08 14:15,-119.7326,39.1923,1431.00,26.60,24.80,92.80,0.00,0.00,0.00,29.83,M,10.00,M,CLR,M,M,M,M,M,M,M,M,M,M,M,M,M,M,26.60,KCXP 081415Z AUTO 00000KT 10SM CLR M03/M04 A2983 RMK AO2,M
RTS,2024-02-08 14:15,-119.8764,39.6682,1539.00,15.80,12.20,85.40,360.00,5.00,0.00,29.83,M,10.00,M,CLR,M,M,M,M,M,M,M,M,M,M,M,M,M,M,7.16,KRTS 081415Z AUTO 36005KT 10SM CLR M09/M11 A2983 RMK AO2,M
05U,2024-02-08 14:15,-116.0051,39.6042,1811.23,28.40,26.60,92.86,0.00,0.00,0.00,29.77,M,10.00,M,M,M,M,M,M,M,M,M,M,M,M,M,M,M,M,28.40,K05U 081415Z AUTO 00000KT 10SM M02/M03 A2977 RMK A01,M
MEV,2024-02-08 14:15,-119.7500,38.9963,1441.42,19.40,17.60,92.57,120.00,5.00,0.00,29.83,M,10.00,M,CLR,M,M,M,M,M,M,M,M,M,M,M,M,M,M,11.43,KMEV 081415Z AUTO 12005KT 10SM CLR M07/M08 A2983 RMK AO2,M
BAM,2024-02-08 14:15,-116.8743,40.5990,1382.36,30.20,28.40,92.92,0.00,0.00,0.00,29.80,M,10.00,M,CLR,M,M,M,M,M,M,M,M,M,M,M,M,M,M,30.20,KBAM 081415Z AUTO 00000KT 10SM CLR M01/M02 A2980 RMK AO1,M
HTH,2024-02-08 14:15,-118.6315,38.5448,1282.89,32.00,28.40,86.39,280.00,7.00,0.00,29.82,M,10.00,M,BKN,OVC,M,M,4200.00,5500.00,M,M,M,M,M,M,M,M,M,24.78,KHTH 081415Z AUTO 28007KT 10SM BKN042 OVC055 00/M02 A2982 RMK A01,M
10U,2024-02-08 14:15,-116.1876,41.9532,1637.00,28.40,26.60,92.86,0.00,0.00,0.00,29.78,M,10.00,M,OVC,M,M,M,6000.00,M,M,M,M,M,M,M,M,M,M,28.40,K10U 081415Z AUTO 00000KT 10SM OVC060 M02/M03 A2978 RMK AO2,M
TMT,2024-02-08 14:15,-117.1971,39.4643,1749.34,28.80,27.30,94.03,0.00,0.00,0.00,29.78,M,10.00,M,OVC,M,M,M,1200.00,M,M,M,M,M,M,M,M,M,M,28.80,KTMT 081415Z AUTO 00000KT 10SM OVC012 M02/M03 A2978 RMK AO2 T10181026,M
INS,2024-02-08 14:23,-115.6733,36.5872,955.00,39.20,33.80,80.79,60.00,7.00,0.00,29.75,1006.60,10.00,M,BKN,BKN,OVC,M,1000.00,1500.00,2200.00,M,-RA,M,M,M,M,M,M,33.56,KINS 081423Z AUTO 06007KT 10SM -RA BKN010 BKN015 OVC022 04/01 A2975 RMK AO2 RAB13 BKN010 V FEW SLP066 $,M
05U,2024-02-08 14:30,-116.0051,39.6042,1811.23,28.40,26.60,92.86,0.00,0.00,0.00,29.78,M,10.00,M,M,M,M,M,M,M,M,M,M,M,M,M,M,M,M,28.40,K05U 081430Z AUTO 00000KT 10SM M02/M03 A2978 RMK A01,M
HTH,2024-02-08 14:30,-118.6315,38.5448,1282.89,32.00,28.40,86.39,280.00,8.00,0.00,29.83,M,10.00,M,SCT,SCT,OVC,M,4200.00,5000.00,6000.00,M,M,M,M,M,M,M,M,24.11,KHTH 081430Z AUTO 28008KT 10SM SCT042 SCT050 OVC060 00/M02 A2983 RMK A01,M
BVU,2024-02-08 14:35,-114.8611,35.9475,671.00,39.20,35.60,86.79,130.00,5.00,0.00,29.83,M,10.00,M,FEW,FEW,SCT,M,4300.00,4900.00,11000.00,M,M,M,M,M,M,M,M,34.95,KBVU 081435Z AUTO 13005KT 10SM FEW043 FEW049 SCT110 04/02 A2983 RMK AO2,M
CXP,2024-02-08 14:35,-119.7326,39.1923,1431.00,26.60,24.80,92.80,0.00,0.00,0.00,29.85,M,10.00,M,CLR,M,M,M,M,M,M,M,M,M,M,M,M,M,M,26.60,KCXP 081435Z AUTO 00000KT 10SM CLR M03/M04 A2985 RMK AO2,M
NFL,2024-02-08 14:35,-118.7010,39.4166,1199.00,29.00,27.00,92.12,0.00,0.00,0.00,29.82,M,10.00,M,SCT,SCT,M,M,5000.00,10000.00,M,M,M,M,M,M,M,M,M,29.00,KNFL 081435Z 00000KT 10SM SCT050 SCT100 M02/M03 A2982 RMK AO2 T10171028,M
RTS,2024-02-08 14:35,-119.8764,39.6682,1539.00,15.80,14.00,92.44,0.00,0.00,0.00,29.84,M,10.00,M,CLR,M,M,M,M,M,M,M,M,M,M,M,M,M,M,15.80,KRTS 081435Z AUTO 00000KT 10SM CLR M09/M10 A2984 RMK AO2,M
MEV,2024-02-08 14:35,-119.7500,38.9963,1441.42,19.40,17.60,92.57,100.00,5.00,0.00,29.83,M,10.00,M,CLR,M,M,M,M,M,M,M,M,M,M,M,M,M,M,11.43,KMEV 081435Z AUTO 10005KT 10SM CLR M07/M08 A2983 RMK AO2,M
BAM,2024-02-08 14:35,-116.8743,40.5990,1382.36,30.20,28.40,92.92,0.00,0.00,0.00,29.80,M,10.00,M,CLR,M,M,M,M,M,M,M,M,M,M,M,M,M,M,30.20,KBAM 081435Z AUTO 00000KT 10SM CLR M01/M02 A2980 RMK AO1,M
10U,2024-02-08 14:35,-116.1876,41.9532,1637.00,28.40,26.60,92.86,0.00,0.00,0.00,29.79,M,10.00,M,OVC,M,M,M,6000.00,M,M,M,M,M,M,M,M,M,M,28.40,K10U 081435Z AUTO 00000KT 10SM OVC060 M02/M03 A2979 RMK AO2,M
TMT,2024-02-08 14:35,-117.1971,39.4643,1749.34,28.80,27.50,94.81,0.00,0.00,0.00,29.79,M,10.00,M,SCT,OVC,M,M,1200.00,2500.00,M,M,M,M,M,M,M,M,M,28.80,KTMT 081435Z AUTO 00000KT 10SM SCT012 OVC025 M02/M02 A2979 RMK AO2 T10181025,M
INS,2024-02-08 14:38,-115.6733,36.5872,955.00,37.40,33.80,86.69,100.00,11.00,0.00,29.76,1006.90,10.00,M,BKN,OVC,M,M,800.00,1500.00,M,M,-RA,M,M,M,M,M,M,29.29,KINS 081438Z AUTO 10011KT 10SM -RA BKN008 OVC015 03/01 A2976 RMK AO2 RAB13 SLP069 $,M
05U,2024-02-08 14:50,-116.0051,39.6042,1811.23,28.40,26.60,92.86,0.00,0.00,0.00,29.78,M,10.00,M,M,M,M,M,M,M,M,M,M,M,M,M,M,M,M,28.40,K05U 081450Z AUTO 00000KT 10SM M02/M03 A2978 RMK A01,M
HTH,2024-02-08 14:50,-118.6315,38.5448,1282.89,30.20,28.40,92.92,280.00,5.00,0.00,29.84,M,10.00,M,SCT,M,M,M,6000.00,M,M,M,M,M,M,M,M,M,M,24.26,KHTH 081450Z AUTO 28005KT 10SM SCT060 M01/M02 A2984 RMK A01,M
10U,2024-02-08 14:50,-116.1876,41.9532,1637.00,26.60,26.60,100.00,240.00,4.00,0.00,29.79,M,10.00,M,SCT,OVC,M,M,4900.00,6000.00,M,M,M,M,M,M,M,M,M,21.11,K10U 081450Z AUTO 24004KT 10SM SCT049 OVC060 M03/M03 A2979 RMK AO2,M
DRA,2024-02-08 14:53,-116.0278,36.6206,1009.00,36.00,30.00,78.60,240.00,12.00,0.00,29.76,1007.00,10.00,M,BKN,BKN,M,M,4500.00,5000.00,M,M,M,M,M,M,M,M,M,27.09,KDRA 081453Z AUTO 24012KT 10SM BKN045 BKN050 02/M01 A2976 RMK AO2 SLP070 T00221011 53020,M
ELY,2024-02-08 14:53,-114.8453,39.2950,1909.00,21.00,19.00,91.83,0.00,0.00,T,29.75,1009.30,8.00,M,BKN,BKN,OVC,M,3700.00,6000.00,9500.00,M,M,M,M,M,M,M,M,21.00,KELY 081453Z AUTO 00000KT 8SM BKN037 BKN060 OVC095 M06/M07 A2975 RMK AO2 SNE44 SLP093 P0000 60000 T10611072 53012,M
VGT,2024-02-08 14:53,-115.1933,36.2111,667.00,41.00,33.00,72.96,180.00,9.00,0.00,29.80,1011.00,10.00,M,CLR,M,M,M,M,M,M,M,M,M,M,M,M,M,M,34.70,KVGT 081453Z 18009KT 10SM CLR 05/01 A2980 RMK AO2 SLP110 T00500006 53014,M
LOL,2024-02-08 14:53,-118.5701,40.0684,1192.43,26.00,25.00,95.93,0.00,0.00,0.00,29.82,1011.80,10.00,M,CLR,M,M,M,M,M,M,M,M,M,M,M,M,M,M,26.00,KLOL 081453Z AUTO 00000KT 10SM CLR M03/M04 A2982 RMK AO2 SLP118 T10331039 53014,M
P68,2024-02-08 14:53,-116.0056,39.6014,1993.00,29.00,26.00,88.38,190.00,3.00,0.00,29.76,1007.80,M,M,M,M,M,M,M,M,M,M,M,M,M,M,M,M,M,25.26,KP68 081453Z AUTO 19003KT M02/M03 A2976 RMK AO1 SLP078 T10171033 51014 $,M
BVU,2024-02-08 14:55,-114.8611,35.9475,671.00,39.20,35.60,86.79,140.00,9.00,0.00,29.83,M,10.00,M,SCT,M,M,M,4600.00,M,M,M,M,M,M,M,M,M,M,32.47,KBVU 081455Z AUTO 14009KT 10SM SCT046 04/02 A2983 RMK AO2,M
CXP,2024-02-08 14:55,-119.7326,39.1923,1431.00,24.80,23.00,92.74,0.00,0.00,0.00,29.86,M,10.00,M,CLR,M,M,M,M,M,M,M,M,M,M,M,M,M,M,24.80,KCXP 081455Z AUTO 00000KT 10SM CLR M04/M05 A2986 RMK AO2,M
RNO,2024-02-08 14:55,-119.7711,39.4839,1341.00,29.00,24.00,81.32,0.00,0.00,0.00,29.85,1011.70,10.00,M,FEW,M,M,M,2000.00,M,M,M,M,M,M,M,M,M,M,29.00,KRNO 081455Z 00000KT 10SM FEW020 M02/M04 A2985 RMK AO2 SLP117 T10171044 53015 $,M
RTS,2024-02-08 14:55,-119.8764,39.6682,1539.00,17.60,14.00,85.51,20.00,6.00,0.00,29.85,M,6.00,M,BKN,M,M,M,200.00,M,M,M,BR,M,M,M,M,M,M,8.19,KRTS 081455Z AUTO 02006KT 6SM BR BKN002 M08/M10 A2985 RMK AO2,M
MEV,2024-02-08 14:55,-119.7500,38.9963,1441.42,17.60,15.80,92.50,90.00,6.00,0.00,29.84,M,10.00,M,CLR,M,M,M,M,M,M,M,M,M,M,M,M,M,M,8.19,KMEV 081455Z AUTO 09006KT 10SM CLR M08/M09 A2984 RMK AO2,M
BAM,2024-02-08 14:55,-116.8743,40.5990,1382.36,30.20,28.40,92.92,0.00,0.00,0.00,29.81,M,10.00,M,CLR,M,M,M,M,M,M,M,M,M,M,M,M,M,M,30.20,KBAM 081455Z AUTO 00000KT 10SM CLR M01/M02 A2981 RMK AO1,M
TMT,2024-02-08 14:55,-117.1971,39.4643,1749.34,29.00,27.50,94.03,0.00,0.00,0.00,29.80,M,10.00,M,BKN,OVC,M,M,1400.00,2700.00,M,M,M,M,M,M,M,M,M,29.00,KTMT 081455Z AUTO 00000KT 10SM BKN014 OVC027 M02/M02 A2980 RMK AO2 T10171025,M
INS,2024-02-08 14:55,-115.6733,36.5872,955.00,37.00,34.00,88.78,100.00,13.00,T,29.77,1007.20,10.00,M,OVC,M,M,M,700.00,M,M,M,-RA,M,M,M,M,M,M,27.97,KINS 081455Z AUTO 10013KT 10SM -RA OVC007 03/01 A2977 RMK AO2 RAB13 SLP072 P0000 60000 T00280012 52021 $,M
LSV,2024-02-08 14:55,-115.0343,36.2362,570.00,42.00,35.60,77.86,70.00,4.00,0.00,29.80,1008.90,10.00,M,CLR,M,M,M,M,M,M,M,M,M,M,M,M,M,M,39.10,KLSV 081455Z AUTO 07004KT 10SM CLR 06/02 A2980 RMK AO2 SLP089 60001 T00550020 53015 $,M
EKO,2024-02-08 14:56,-115.7860,40.8242,1367.00,27.00,25.00,92.05,80.00,3.00,0.00,29.78,1010.20,10.00,M,CLR,M,M,M,M,M,M,M,M,T,T,M,M,M,M,22.97,KEKO 081456Z AUTO 08003KT 10SM CLR M03/M04 A2978 RMK AO2 SLP102 I1000 I3000 T10281039 53012,M
NFL,2024-02-08 14:56,-118.7010,39.4166,1199.00,27.00,24.00,88.28,160.00,5.00,0.00,29.83,1007.70,10.00,M,SCT,SCT,M,M,5000.00,10000.00,M,M,M,M,M,M,M,M,M,20.46,KNFL 081456Z 16005KT 10SM SCT050 SCT100 M03/M04 A2983 RMK AO2 SLP077 T10281044 53014,M
HND,2024-02-08 14:56,-115.1344,35.9729,742.79,38.00,31.00,75.65,190.00,12.00,0.00,29.83,1012.20,10.00,M,CLR,M,M,M,M,M,M,M,M,M,M,M,M,M,M,29.64,KHND 081456Z 19012KT 10SM CLR 03/M01 A2983 RMK AO2 SLP122 60000 T00331006 53013,M
TPH,2024-02-08 14:56,-117.0904,38.0505,1654.00,30.00,28.00,92.15,340.00,8.00,0.00,29.75,1008.10,10.00,M,OVC,M,M,M,6000.00,M,M,M,M,M,M,M,M,M,M,21.65,KTPH 081456Z AUTO 34008KT 10SM OVC060 M01/M02 A2975 RMK AO2 SLP081 T10111022 51020,M
LAS,2024-02-08 14:56,-115.1634,36.0719,663.00,39.00,33.00,78.86,180.00,8.00,0.00,29.81,1009.60,10.00,M,FEW,FEW,SCT,M,1000.00,4000.00,11000.00,M,M,M,M,M,M,M,M,32.74,KLAS 081456Z 18008KT 10SM FEW010 FEW040 SCT110 04/01 A2981 RMK AO2 SLP096 60000 T00390006 53016,M
WMC,2024-02-08 14:56,-117.8072,40.9019,1315.00,23.00,19.00,84.39,130.00,3.00,0.00,29.82,1011.30,10.00,M,CLR,M,M,M,M,M,M,M,M,T,T,M,M,M,M,18.40,KWMC 081456Z AUTO 13003KT 10SM CLR M05/M07 A2982 RMK AO2 SLP113 I1000 I3000 T10501072 53014,M
05U,2024-02-08 15:10,-116.0051,39.6042,1811.23,28.40,26.60,92.86,0.00,0.00,0.00,29.79,M,10.00,M,M,M,M,M,M,M,M,M,M,M,M,M,M,M,M,28.40,K05U 081510Z AUTO 00000KT 10SM M02/M03 A2979 RMK A01,M
BVU,2024-02-08 15:15,-114.8611,35.9475,671.00,39.20,35.60,86.79,160.00,9.00,0.00,29.83,M,10.00,M,FEW,M,M,M,4600.00,M,M,M,M,M,M,M,M,M,M,32.47,KBVU 081515Z AUTO 16009KT 10SM FEW046 04/02 A2983 RMK AO2,M
CXP,2024-02-08 15:15,-119.7326,39.1923,1431.00,24.80,23.00,92.74,0.00,0.00,0.00,29.86,M,10.00,M,CLR,M,M,M,M,M,M,M,M,M,M,M,M,M,M,24.80,KCXP 081515Z AUTO 00000KT 10SM CLR M04/M05 A2986 RMK AO2,M
RTS,2024-02-08 15:15,-119.8764,39.6682,1539.00,17.60,15.80,92.50,230.00,3.00,0.00,29.86,M,10.00,M,BKN,BKN,M,M,300.00,700.00,M,M,M,M,M,M,M,M,M,12.23,KRTS 081515Z AUTO 23003KT 10SM BKN003 BKN007 M08/M09 A2986 RMK AO2,M
MEV,2024-02-08 15:15,-119.7500,38.9963,1441.42,15.80,14.00,92.44,70.00,6.00,0.00,29.85,M,10.00,M,CLR,M,M,M,M,M,M,M,M,M,M,M,M,M,M,6.02,KMEV 081515Z AUTO 07006KT 10SM CLR M09/M10 A2985 RMK AO2,M
BAM,2024-02-08 15:15,-116.8743,40.5990,1382.36,30.20,28.40,92.92,290.00,4.00,0.00,29.82,M,10.00,M,CLR,M,M,M,M,M,M,M,M,M,M,M,M,M,M,25.32,KBAM 081515Z AUTO 29004KT 10SM CLR M01/M02 A2982 RMK AO1,M
HTH,2024-02-08 15:15,-118.6315,38.5448,1282.89,30.20,30.20,100.00,270.00,5.00,0.00,29.84,M,10.00,M,CLR,M,M,M,M,M,M,M,M,M,M,M,M,M,M,24.26,KHTH 081515Z AUTO 27005KT 10SM CLR M01/M01 A2984 RMK A01,M
10U,2024-02-08 15:15,-116.1876,41.9532,1637.00,26.60,26.60,100.00,240.00,4.00,0.00,29.80,M,10.00,M,FEW,OVC,M,M,4900.00,6000.00,M,M,M,M,M,M,M,M,M,21.11,K10U 081515Z AUTO 24004KT 10SM FEW049 OVC060 M03/M03 A2980 RMK AO2,M
TMT,2024-02-08 15:15,-117.1971,39.4643,1749.34,28.80,27.30,94.03,0.00,0.00,0.00,29.80,M,10.00,M,BKN,OVC,M,M,1400.00,3300.00,M,M,M,M,M,M,M,M,M,28.80,KTMT 081515Z AUTO 00000KT 10SM BKN014 OVC033 M02/M03 A2980 RMK AO2 T10181026,M
INS,2024-02-08 15:25,-115.6733,36.5872,955.00,37.40,33.80,86.69,130.00,10.00,0.00,29.79,1008.20,8.00,M,OVC,M,M,M,600.00,M,M,M,-RA,M,M,M,M,M,M,29.74,KINS 081525Z AUTO 13010KT 8SM -RA OVC006 03/01 A2979 RMK AO2 RAE1459DZB1459E03RAB03 SLP082 $,M
INS,2024-02-08 15:29,-115.6733,36.5872,955.00,37.40,33.80,86.69,130.00,9.00,0.00,29.79,1008.20,6.00,M,OVC,M,M,M,600.00,M,M,M,-SN,M,M,M,M,M,M,30.23,KINS 081529Z AUTO 13009KT 6SM -SN OVC006 03/01 A2979 RMK AO2 RAE1459DZB1459E03RAB03E29SNB29 SLP082 $,M
BVU,2024-02-08 15:35,-114.8611,35.9475,671.00,39.20,35.60,86.79,120.00,8.00,0.00,29.85,M,10.00,M,CLR,M,M,M,M,M,M,M,M,M,M,M,M,M,M,32.98,KBVU 081535Z AUTO 12008KT 10SM CLR 04/02 A2985 RMK AO2,M
CXP,2024-02-08 15:35,-119.7326,39.1923,1431.00,26.60,24.80,92.80,0.00,0.00,0.00,29.87,M,10.00,M,FEW,M,M,M,1300.00,M,M,M,M,M,M,M,M,M,M,26.60,KCXP 081535Z AUTO 00000KT 10SM FEW013 M03/M04 A2987 RMK AO2,M
RTS,2024-02-08 15:35,-119.8764,39.6682,1539.00,19.40,17.60,92.57,240.00,5.00,0.00,29.86,M,10.00,M,FEW,BKN,M,M,500.00,1500.00,M,M,M,M,M,M,M,M,M,11.43,KRTS 081535Z AUTO 24005KT 10SM FEW005 BKN015 M07/M08 A2986 RMK AO2,M
05U,2024-02-08 15:35,-116.0051,39.6042,1811.23,28.40,26.60,92.86,0.00,0.00,0.00,29.79,M,10.00,M,M,M,M,M,M,M,M,M,M,M,M,M,M,M,M,28.40,K05U 081535Z AUTO 00000KT 10SM M02/M03 A2979 RMK A01,M
MEV,2024-02-08 15:35,-119.7500,38.9963,1441.42,17.60,15.80,92.50,90.00,3.00,0.00,29.85,M,10.00,M,CLR,M,M,M,M,M,M,M,M,M,M,M,M,M,M,12.23,KMEV 081535Z AUTO 09003KT 10SM CLR M08/M09 A2985 RMK AO2,M
BAM,2024-02-08 15:35,-116.8743,40.5990,1382.36,30.20,30.20,100.00,310.00,3.00,0.00,29.83,M,10.00,M,CLR,M,M,M,M,M,M,M,M,M,M,M,M,M,M,26.63,KBAM 081535Z AUTO 31003KT 10SM CLR M01/M01 A2983 RMK AO1,M
HTH,2024-02-08 15:35,-118.6315,38.5448,1282.89,28.40,28.40,100.00,240.00,5.00,0.00,29.85,M,10.00,M,CLR,M,M,M,M,M,M,M,M,M,M,M,M,M,M,22.12,KHTH 081535Z AUTO 24005KT 10SM CLR M02/M02 A2985 RMK A01,M
10U,2024-02-08 15:35,-116.1876,41.9532,1637.00,26.60,26.60,100.00,240.00,3.00,0.00,29.81,M,10.00,M,FEW,OVC,M,M,5000.00,6000.00,M,M,M,M,M,M,M,M,M,22.52,K10U 081535Z AUTO 24003KT 10SM FEW050 OVC060 M03/M03 A2981 RMK AO2,M
TMT,2024-02-08 15:35,-117.1971,39.4643,1749.34,29.30,27.50,92.89,0.00,0.00,0.00,29.81,M,10.00,M,BKN,OVC,M,M,1400.00,3700.00,M,M,M,M,M,M,M,M,M,29.30,KTMT 081535Z AUTO 00000KT 10SM BKN014 OVC037 M01/M02 A2981 RMK AO2 T10151025,M
INS,2024-02-08 15:38,-115.6733,36.5872,955.00,37.40,33.80,86.69,160.00,4.00,0.00,29.80,1008.50,4.00,M,BKN,M,M,M,500.00,M,M,M,-RA,M,M,M,M,M,M,33.73,KINS 081538Z AUTO 16004KT 4SM -RA BKN005 03/01 A2980 RMK AO2 RAE1459DZB1459E03RAB03E29SNB29E38RAB38 SLP085 $,M
TPH,2024-02-08 15:43,-117.0904,38.0505,1654.00,32.00,28.00,84.98,340.00,7.00,T,29.76,M,9.00,M,BKN,OVC,M,M,2800.00,3500.00,M,M,-SN,M,M,M,M,M,M,24.78,KTPH 081543Z AUTO 34007KT 9SM -SN BKN028 OVC035 00/M02 A2976 RMK AO2 SNB36 P0000 T00001022,M
INS,2024-02-08 15:48,-115.6733,36.5872,955.00,37.40,32.00,80.65,240.00,7.00,0.00,29.81,1008.80,10.00,M,SCT,BKN,BKN,OVC,500.00,1400.00,2300.00,3200.00,-RA,M,M,M,M,M,M,31.36,KINS 081548Z AUTO 24007KT 10SM -RA SCT005 BKN014 BKN023 OVC032 03/00 A2981 RMK AO2 RAE1459DZB1459E03RAB03E29SNB29E38RAB38 SLP088 $,M
INS,2024-02-08 15:50,-115.6733,36.5872,955.00,37.40,32.00,80.65,240.00,8.00,0.00,29.81,1008.80,10.00,M,SCT,BKN,BKN,OVC,500.00,1400.00,2300.00,3200.00,M,M,M,M,M,M,M,30.76,KINS 081550Z AUTO 24008KT 10SM SCT005 BKN014 BKN023 OVC032 03/00 A2981 RMK AO2 RAE1459DZB1459E03RAB03E29SNB29E38RAB38E50 SLP088 $,M
RNO,2024-02-08 15:51,-119.7711,39.4839,1341.00,28.40,24.80,86.18,320.00,5.00,0.00,29.87,M,10.00,M,BKN,M,M,M,2000.00,M,M,M,M,M,M,M,M,M,M,22.12,KRNO 081551Z 32005KT 10SM BKN020 M02/M04 A2987 RMK AO2,M
DRA,2024-02-08 15:53,-116.0278,36.6206,1009.00,36.00,31.00,81.86,250.00,7.00,0.00,29.81,1008.50,10.00,M,OVC,M,M,M,4200.00,M,M,M,M,M,M,M,M,M,M,29.65,KDRA 081553Z AUTO 25007KT 10SM OVC042 02/M01 A2981 RMK AO2 SLP085 T00221006,M
ELY,2024-02-08 15:53,-114.8453,39.2950,1909.00,24.00,22.00,91.94,160.00,3.00,0.00,29.77,1009.80,10.00,M,BKN,OVC,M,M,6000.00,7500.00,M,M,M,M,M,M,M,M,M,19.54,KELY 081553Z AUTO 16003KT 10SM BKN060 OVC075 M04/M06 A2977 RMK AO2 SLP098 T10441056,M
VGT,2024-02-08 15:53,-115.1933,36.2111,667.00,43.00,32.00,64.88,160.00,13.00,0.00,29.82,1011.70,10.00,M,CLR,M,M,M,M,M,M,M,M,M,M,M,M,M,M,35.66,KVGT 081553Z 16013KT 10SM CLR 06/00 A2982 RMK AO2 SLP117 T00610000,M
LOL,2024-02-08 15:53,-118.5701,40.0684,1192.43,28.00,27.00,95.97,0.00,0.00,0.00,29.85,1012.70,10.00,M,CLR,M,M,M,M,M,M,M,M,M,M,M,M,M,M,28.00,KLOL 081553Z AUTO 00000KT 10SM CLR M02/M03 A2985 RMK AO2 SLP127 T10221028,M
P68,2024-02-08 15:53,-116.0056,39.6014,1993.00,30.00,26.00,84.85,240.00,3.00,0.00,29.77,1008.20,M,M,M,M,M,M,M,M,M,M,M,M,M,M,M,M,M,26.40,KP68 081553Z AUTO 24003KT M01/M03 A2977 RMK AO1 SLP082 T10111033 $,M
BVU,2024-02-08 15:55,-114.8611,35.9475,671.00,41.00,35.60,80.93,140.00,8.00,0.00,29.86,M,10.00,M,CLR,M,M,M,M,M,M,M,M,M,M,M,M,M,M,35.20,KBVU 081555Z AUTO 14008KT 10SM CLR 05/02 A2986 RMK AO2,M
CXP,2024-02-08 15:55,-119.7326,39.1923,1431.00,28.40,24.80,86.18,0.00,0.00,0.00,29.87,M,10.00,M,FEW,M,M,M,1300.00,M,M,M,M,M,M,M,M,M,M,28.40,KCXP 081555Z AUTO 00000KT 10SM FEW013 M02/M04 A2987 RMK AO2,M
RNO,2024-02-08 15:55,-119.7711,39.4839,1341.00,30.00,24.00,78.07,340.00,5.00,0.00,29.88,1012.40,10.00,M,BKN,M,M,M,2000.00,M,M,M,M,M,M,M,M,M,M,24.02,KRNO 081555Z 34005KT 10SM BKN020 M01/M04 A2988 RMK AO2 SLP124 T10111044,M
LSV,2024-02-08 15:55,-115.0343,36.2362,570.00,43.30,35.00,72.33,150.00,7.00,0.00,29.82,1009.60,10.00,M,CLR,M,M,M,M,M,M,M,M,M,M,M,M,M,M,38.55,KLSV 081555Z AUTO 15007KT 10SM CLR 06/02 A2982 RMK AO2 SLP096 T00630016 $,M
RTS,2024-02-08 15:55,-119.8764,39.6682,1539.00,21.20,19.40,92.63,250.00,3.00,0.00,29.87,M,10.00,M,SCT,SCT,BKN,M,400.00,900.00,1500.00,M,M,M,M,M,M,M,M,16.34,KRTS 081555Z AUTO 25003KT 10SM SCT004 SCT009 BKN015 M06/M07 A2987 RMK AO2,M
05U,2024-02-08 15:55,-116.0051,39.6042,1811.23,30.20,26.60,86.28,0.00,0.00,0.00,29.80,M,10.00,M,M,M,M,M,M,M,M,M,M,M,M,M,M,M,M,30.20,K05U 081555Z AUTO 00000KT 10SM M01/M03 A2980 RMK A01,M
MEV,2024-02-08 15:55,-119.7500,38.9963,1441.42,21.20,19.40,92.63,0.00,0.00,0.00,29.86,M,10.00,M,CLR,M,M,M,M,M,M,M,M,M,M,M,M,M,M,21.20,KMEV 081555Z AUTO 00000KT 10SM CLR M06/M07 A2986 RMK AO2,M
BAM,2024-02-08 15:55,-116.8743,40.5990,1382.36,32.00,30.20,92.97,320.00,3.00,0.00,29.84,M,10.00,M,BKN,M,M,M,4400.00,M,M,M,M,M,M,M,M,M,M,28.69,KBAM 081555Z AUTO 32003KT 10SM BKN044 00/M01 A2984 RMK AO1,M
HTH,2024-02-08 15:55,-118.6315,38.5448,1282.89,30.20,28.40,92.92,250.00,6.00,0.00,29.86,M,10.00,M,CLR,M,M,M,M,M,M,M,M,M,M,M,M,M,M,23.36,KHTH 081555Z AUTO 25006KT 10SM CLR M01/M02 A2986 RMK A01,M
TMT,2024-02-08 15:55,-117.1971,39.4643,1749.34,30.00,27.30,89.54,0.00,0.00,0.00,29.82,M,10.00,M,BKN,OVC,M,M,1600.00,3700.00,M,M,M,M,M,M,M,M,M,30.00,KTMT 081555Z AUTO 00000KT 10SM BKN016 OVC037 M01/M03 A2982 RMK AO2 T10111026,M
10U,2024-02-08 15:55,-116.1876,41.9532,1637.00,28.40,26.60,92.86,210.00,4.00,0.00,29.81,M,10.00,M,BKN,OVC,M,M,5000.00,6000.00,M,M,M,M,M,M,M,M,M,23.22,K10U 081555Z AUTO 21004KT 10SM BKN050 OVC060 M02/M03 A2981 RMK AO2,M
INS,2024-02-08 15:55,-115.6733,36.5872,955.00,37.80,32.00,79.39,240.00,8.00,0.02,29.81,1008.80,10.00,M,FEW,BKN,BKN,OVC,400.00,1400.00,2300.00,3200.00,M,M,M,M,M,M,M,31.26,KINS 081555Z AUTO 24008KT 10SM FEW004 BKN014 BKN023 OVC032 03/00 A2981 RMK AO2 RAE1459DZB1459E03RAB03E29SNB29E38RAB38E50 SLP088 P0002 T00320001 $,M
EKO,2024-02-08 15:56,-115.7860,40.8242,1367.00,29.00,25.00,84.79,40.00,3.00,0.00,29.80,1010.70,10.00,M,CLR,M,M,M,M,M,M,M,M,M,M,M,M,M,M,25.26,KEKO 081556Z AUTO 04003KT 10SM CLR M02/M04 A2980 RMK AO2 SLP107 T10171039,M
NFL,2024-02-08 15:56,-118.7010,39.4166,1199.00,31.00,28.00,88.48,0.00,0.00,0.00,29.85,1008.60,10.00,M,SCT,BKN,M,M,5000.00,10000.00,M,M,M,M,M,M,M,M,M,31.00,KNFL 081556Z 00000KT 10SM SCT050 BKN100 M01/M02 A2985 RMK AO2 SLP086 T10061022,M
HND,2024-02-08 15:56,-115.1344,35.9729,742.79,39.00,30.00,69.85,180.00,8.00,0.00,29.86,1013.40,10.00,M,CLR,M,M,M,M,M,M,M,M,M,M,M,M,M,M,32.74,KHND 081556Z 18008KT 10SM CLR 04/M01 A2986 RMK AO2 SLP134 T00391011,M
TPH,2024-02-08 15:56,-117.0904,38.0505,1654.00,32.00,28.00,84.98,340.00,7.00,T,29.77,1008.70,10.00,M,SCT,SCT,OVC,M,2600.00,3500.00,5500.00,M,M,M,M,M,M,M,M,24.78,KTPH 081556Z AUTO 34007KT 10SM SCT026 SCT035 OVC055 00/M02 A2977 RMK AO2 SNB36E45 SLP087 P0000 T00001022,M
LAS,2024-02-08 15:56,-115.1634,36.0719,663.00,41.00,30.00,64.63,180.00,12.00,0.00,29.83,1010.20,10.00,23.00,FEW,FEW,SCT,M,1500.00,4000.00,11000.00,M,M,M,M,M,M,M,M,33.46,KLAS 081556Z 18012G23KT 10SM FEW015 FEW040 SCT110 05/M01 A2983 RMK AO2 SLP102 T00501011,M
WMC,2024-02-08 15:56,-117.8072,40.9019,1315.00,29.00,26.00,88.38,0.00,0.00,0.00,29.84,1011.70,10.00,M,SCT,M,M,M,6500.00,M,M,M,M,M,M,M,M,M,M,29.00,KWMC 081556Z AUTO 00000KT 10SM SCT065 M02/M03 A2984 RMK AO2 SLP117 T10171033,M
INS,2024-02-08 16:06,-115.6733,36.5872,955.00,35.60,32.00,86.59,240.00,11.00,0.00,29.82,1009.40,10.00,M,FEW,BKN,OVC,M,600.00,1300.00,2100.00,M,-SN,M,M,M,M,M,M,27.02,KINS 081606Z AUTO 24011KT 10SM -SN FEW006 BKN013 OVC021 02/00 A2982 RMK AO2 SNB06 SLP094 $,M
EKO,2024-02-08 16:08,-115.7860,40.8242,1367.00,30.00,26.00,84.85,70.00,3.00,0.00,29.80,M,10.00,M,FEW,M,M,M,800.00,M,M,M,M,M,M,M,M,M,M,26.40,KEKO 081608Z AUTO 07003KT 10SM FEW008 M01/M03 A2980 RMK AO2 T10111033,M
05U,2024-02-08 16:10,-116.0051,39.6042,1811.23,30.20,26.60,86.28,30.00,3.00,0.00,29.80,M,10.00,M,M,M,M,M,M,M,M,M,M,M,M,M,M,M,M,26.63,K05U 081610Z AUTO 03003KT 10SM M01/M03 A2980 RMK A01,M
10U,2024-02-08 16:10,-116.1876,41.9532,1637.00,28.40,26.60,92.86,200.00,5.00,0.00,29.82,M,10.00,M,OVC,M,M,M,5000.00,M,M,M,M,M,M,M,M,M,M,22.12,K10U 081610Z AUTO 20005KT 10SM OVC050 M02/M03 A2982 RMK AO2,M
BVU,2024-02-08 16:15,-114.8611,35.9475,671.00,41.00,35.60,80.93,140.00,7.00,0.00,29.86,M,10.00,M,CLR,M,M,M,M,M,M,M,M,M,M,M,M,M,M,35.75,KBVU 081615Z AUTO 14007KT 10SM CLR 05/02 A2986 RMK AO2,M
CXP,2024-02-08 16:15,-119.7326,39.1923,1431.00,30.20,24.80,80.07,0.00,0.00,0.00,29.87,M,10.00,M,SCT,M,M,M,1600.00,M,M,M,M,M,M,M,M,M,M,30.20,KCXP 081615Z AUTO 00000KT 10SM SCT016 M01/M04 A2987 RMK AO2,M
RTS,2024-02-08 16:15,-119.8764,39.6682,1539.00,17.60,15.80,92.50,0.00,0.00,0.00,29.87,M,10.00,M,FEW,BKN,BKN,M,500.00,900.00,1500.00,M,M,M,M,M,M,M,M,17.60,KRTS 081615Z AUTO 00000KT 10SM FEW005 BKN009 BKN015 M08/M09 A2987 RMK AO2,M
MEV,2024-02-08 16:15,-119.7500,38.9963,1441.42,23.00,21.20,92.69,0.00,0.00,0.00,29.86,M,10.00,M,CLR,M,M,M,M,M,M,M,M,M,M,M,M,M,M,23.00,KMEV 081615Z AUTO 00000KT 10SM CLR M05/M06 A2986 RMK AO2,M
BAM,2024-02-08 16:15,-116.8743,40.5990,1382.36,32.00,30.20,92.97,0.00,0.00,0.00,29.84,M,10.00,M,BKN,BKN,OVC,M,2800.00,3600.00,4400.00,M,M,M,M,M,M,M,M,32.00,KBAM 081615Z AUTO 00000KT 10SM BKN028 BKN036 OVC044 00/M01 A2984 RMK AO1,M
HTH,2024-02-08 16:15,-118.6315,38.5448,1282.89,30.20,26.60,86.28,240.00,6.00,0.00,29.86,M,10.00,M,CLR,M,M,M,M,M,M,M,M,M,M,M,M,M,M,23.36,KHTH 081615Z AUTO 24006KT 10SM CLR M01/M03 A2986 RMK A01,M
TMT,2024-02-08 16:15,-117.1971,39.4643,1749.34,30.60,27.00,86.31,0.00,0.00,0.00,29.82,M,10.00,M,BKN,BKN,M,M,1600.00,3800.00,M,M,M,M,M,M,M,M,M,30.60,KTMT 081615Z AUTO 00000KT 10SM BKN016 BKN038 M01/M03 A2982 RMK AO2 T10081027,M
INS,2024-02-08 16:16,-115.6733,36.5872,955.00,33.80,32.00,93.03,250.00,14.00,0.00,29.82,1009.40,3.00,M,SCT,BKN,OVC,M,300.00,800.00,1300.00,M,-SN BR,M,M,M,M,M,M,23.48,KINS 081616Z AUTO 25014KT 3SM -SN BR SCT003 BKN008 OVC013 01/M00 A2982 RMK AO2 SNB06 BKN V SCT SLP094 $,M
INS,2024-02-08 16:21,-115.6733,36.5872,955.00,33.80,30.20,86.49,230.00,14.00,0.00,29.83,1009.80,0.38,M,BKN,BKN,OVC,M,200.00,800.00,1300.00,M,-SN BR,M,M,M,M,M,M,23.48,KINS 081621Z AUTO 23014KT 3/8SM R08/2600V5000FT -SN BR BKN002 BKN008 OVC013 01/M01 A2983 RMK AO2 VIS 3/8V7 SNB06 SLP098 $,M
10U,2024-02-08 16:30,-116.1876,41.9532,1637.00,28.40,26.60,92.86,220.00,5.00,0.00,29.82,M,10.00,M,SCT,OVC,M,M,3300.00,4900.00,M,M,M,M,M,M,M,M,M,22.12,K10U 081630Z AUTO 22005KT 10SM SCT033 OVC049 M02/M03 A2982 RMK AO2,M
INS,2024-02-08 16:33,-115.6733,36.5872,955.00,33.80,32.00,93.03,240.00,13.00,0.00,29.84,1010.10,0.25,M,BKN,OVC,M,M,200.00,800.00,M,M,SN FG,M,M,M,M,M,M,23.87,KINS 081633Z AUTO 24013KT 1/4SM R08/2200V3000FT SN FG BKN002 OVC008 01/M00 A2984 RMK AO2 SNB06 SLP101 $,M
BVU,2024-02-08 16:35,-114.8611,35.9475,671.00,42.80,33.80,70.28,170.00,7.00,0.00,29.86,M,10.00,M,CLR,M,M,M,M,M,M,M,M,M,M,M,M,M,M,37.94,KBVU 081635Z AUTO 17007KT 10SM CLR 06/01 A2986 RMK AO2,M
CXP,2024-02-08 16:35,-119.7326,39.1923,1431.00,33.80,24.80,69.25,0.00,0.00,0.00,29.87,M,10.00,M,FEW,M,M,M,1400.00,M,M,M,M,M,M,M,M,M,M,33.80,KCXP 081635Z AUTO 00000KT 10SM FEW014 01/M04 A2987 RMK AO2,M
RTS,2024-02-08 16:35,-119.8764,39.6682,1539.00,21.20,19.40,92.63,0.00,0.00,0.00,29.88,M,10.00,M,BKN,OVC,M,M,900.00,1300.00,M,M,M,M,M,M,M,M,M,21.20,KRTS 081635Z AUTO 00000KT 10SM BKN009 OVC013 M06/M07 A2988 RMK AO2,M
05U,2024-02-08 16:35,-116.0051,39.6042,1811.23,30.20,26.60,86.28,0.00,0.00,0.00,29.80,M,10.00,M,M,M,M,M,M,M,M,M,M,M,M,M,M,M,M,30.20,K05U 081635Z AUTO 00000KT 10SM M01/M03 A2980 RMK A01,M
MEV,2024-02-08 16:35,-119.7500,38.9963,1441.42,24.80,21.20,85.96,0.00,0.00,0.00,29.86,M,10.00,M,CLR,M,M,M,M,M,M,M,M,M,M,M,M,M,M,24.80,KMEV 081635Z AUTO 00000KT 10SM CLR M04/M06 A2986 RMK AO2,M
BAM,2024-02-08 16:35,-116.8743,40.5990,1382.36,32.00,30.20,92.97,0.00,0.00,0.00,29.85,M,10.00,M,OVC,M,M,M,2800.00,M,M,M,M,M,M,M,M,M,M,32.00,KBAM 081635Z AUTO 00000KT 10SM OVC028 00/M01 A2985 RMK AO1,M
HTH,2024-02-08 16:35,-118.6315,38.5448,1282.89,30.20,28.40,92.92,260.00,4.00,0.00,29.87,M,10.00,M,CLR,M,M,M,M,M,M,M,M,M,M,M,M,M,M,25.32,KHTH 081635Z AUTO 26004KT 10SM CLR M01/M02 A2987 RMK A01,M
TMT,2024-02-08 16:35,-117.1971,39.4643,1749.34,32.00,27.00,81.55,0.00,0.00,0.00,29.82,M,10.00,M,BKN,OVC,M,M,1800.00,3800.00,M,M,M,M,M,M,M,M,M,32.00,KTMT 081635Z AUTO 00000KT 10SM BKN018 OVC038 00/M03 A2982 RMK AO2 T00001027,M
INS,2024-02-08 16:48,-115.6733,36.5872,955.00,32.00,30.20,92.97,240.00,12.00,0.00,29.84,1010.30,0.25,M,SCT,OVC,M,M,100.00,800.00,M,M,SN FG,M,M,M,M,M,M,22.00,KINS 081648Z AUTO 24012KT 1/4SM R08/2000V2400FT SN FG SCT001 OVC008 00/M01 A2984 RMK AO2 SNB06 SLP103 $,M
05U,2024-02-08 16:50,-116.0051,39.6042,1811.23,32.00,26.60,80.22,0.00,0.00,0.00,29.81,M,10.00,M,M,M,M,M,M,M,M,M,M,M,M,M,M,M,M,32.00,K05U 081650Z AUTO 00000KT 10SM M00/M03 A2981 RMK A01,M
DRA,2024-02-08 16:53,-116.0278,36.6206,1009.00,37.00,31.00,78.69,240.00,7.00,0.00,29.83,1009.50,10.00,M,FEW,OVC,M,M,6000.00,7500.00,M,M,M,M,M,M,M,M,M,30.87,KDRA 081653Z AUTO 24007KT 10SM FEW060 OVC075 03/M01 A2983 RMK AO2 SLP095 T00281006,M
ELY,2024-02-08 16:53,-114.8453,39.2950,1909.00,28.00,25.00,88.33,0.00,0.00,0.00,29.77,1009.70,10.00,M,SCT,BKN,OVC,M,5000.00,7000.00,9000.00,M,M,M,M,M,M,M,M,28.00,KELY 081653Z AUTO 00000KT 10SM SCT050 BKN070 OVC090 M02/M04 A2977 RMK AO2 SLP097 T10221039,M
VGT,2024-02-08 16:53,-115.1933,36.2111,667.00,45.00,30.00,55.43,180.00,11.00,0.00,29.84,1012.30,10.00,M,CLR,M,M,M,M,M,M,M,M,M,M,M,M,M,M,38.89,KVGT 081653Z 18011KT 10SM CLR 07/M01 A2984 RMK AO2 SLP123 T00721011,M
LOL,2024-02-08 16:53,-118.5701,40.0684,1192.43,33.00,30.00,88.58,110.00,4.00,0.00,29.86,1012.80,10.00,M,CLR,M,M,M,M,M,M,M,M,M,M,M,M,M,M,28.59,KLOL 081653Z AUTO 11004KT 10SM CLR 01/M01 A2986 RMK AO2 SLP128 T00061011,M
P68,2024-02-08 16:53,-116.0056,39.6014,1993.00,31.00,27.00,84.92,250.00,3.00,0.00,29.78,1008.60,M,M,M,M,M,M,M,M,M,M,M,M,M,M,M,M,M,27.55,KP68 081653Z AUTO 25003KT M01/M03 A2978 RMK AO1 SLP086 T10061028 $,M
BVU,2024-02-08 16:55,-114.8611,35.9475,671.00,42.80,32.00,65.38,160.00,8.00,0.00,29.87,M,10.00,15.00,BKN,M,M,M,4700.00,M,M,M,M,M,M,M,M,M,M,37.42,KBVU 081655Z AUTO 16008G15KT 10SM BKN047 06/00 A2987 RMK AO2,M
CXP,2024-02-08 16:55,-119.7326,39.1923,1431.00,33.80,26.60,74.63,0.00,0.00,0.00,29.88,M,10.00,M,CLR,M,M,M,M,M,M,M,M,M,M,M,M,M,M,33.80,KCXP 081655Z AUTO 00000KT 10SM CLR 01/M03 A2988 RMK AO2,M
RNO,2024-02-08 16:55,-119.7711,39.4839,1341.00,31.00,25.00,78.16,0.00,0.00,0.00,29.89,1012.90,10.00,M,BKN,M,M,M,1900.00,M,M,M,M,M,M,M,M,M,M,31.00,KRNO 081655Z 00000KT 10SM BKN019 M01/M04 A2989 RMK AO2 SLP129 T10061039,M
RTS,2024-02-08 16:55,-119.8764,39.6682,1539.00,23.00,21.20,92.69,0.00,0.00,0.00,29.88,M,10.00,M,OVC,M,M,M,1000.00,M,M,M,M,M,M,M,M,M,M,23.00,KRTS 081655Z AUTO 00000KT 10SM OVC010 M05/M06 A2988 RMK AO2,M
MEV,2024-02-08 16:55,-119.7500,38.9963,1441.42,24.80,21.20,85.96,0.00,0.00,0.00,29.86,M,10.00,M,CLR,M,M,M,M,M,M,M,M,M,M,M,M,M,M,24.80,KMEV 081655Z AUTO 00000KT 10SM CLR M04/M06 A2986 RMK AO2,M
BAM,2024-02-08 16:55,-116.8743,40.5990,1382.36,32.00,30.20,92.97,0.00,0.00,0.00,29.85,M,10.00,M,OVC,M,M,M,2800.00,M,M,M,M,M,M,M,M,M,M,32.00,KBAM 081655Z AUTO 00000KT 10SM OVC028 00/M01 A2985 RMK AO1,M
HTH,2024-02-08 16:55,-118.6315,38.5448,1282.89,32.00,28.40,86.39,230.00,5.00,0.00,29.88,M,10.00,M,CLR,M,M,M,M,M,M,M,M,M,M,M,M,M,M,26.40,KHTH 081655Z AUTO 23005KT 10SM CLR 00/M02 A2988 RMK A01,M
10U,2024-02-08 16:55,-116.1876,41.9532,1637.00,30.20,26.60,86.28,220.00,4.00,0.00,29.83,M,10.00,M,SCT,OVC,M,M,3200.00,5500.00,M,M,M,M,M,M,M,M,M,25.32,K10U 081655Z AUTO 22004KT 10SM SCT032 OVC055 M01/M03 A2983 RMK AO2,M
TMT,2024-02-08 16:55,-117.1971,39.4643,1749.34,31.60,27.00,82.88,150.00,3.00,0.00,29.82,M,10.00,M,OVC,M,M,M,1800.00,M,M,M,M,M,M,M,M,M,M,28.23,KTMT 081655Z AUTO 15003KT 10SM OVC018 00/M03 A2982 RMK AO2 T10021028,M
INS,2024-02-08 16:55,-115.6733,36.5872,955.00,32.40,30.00,90.75,250.00,12.00,0.06,29.85,1010.50,0.25,M,SCT,OVC,M,M,100.00,900.00,M,M,SN FG,M,M,M,M,M,M,22.51,KINS 081655Z AUTO 25012KT 1/4SM R08/2200V2400FT SN FG SCT001 OVC009 00/M01 A2985 RMK AO2 SNB06 SLP105 P0006 T00021011 $,M
LSV,2024-02-08 16:55,-115.0343,36.2362,570.00,45.00,35.00,67.78,150.00,9.00,0.00,29.84,1010.30,10.00,M,CLR,M,M,M,M,M,M,M,M,M,M,M,M,M,M,39.68,KLSV 081655Z AUTO 15009KT 10SM CLR 07/02 A2984 RMK AO2 SLP103 T00720017 $,M
EKO,2024-02-08 16:56,-115.7860,40.8242,1367.00,32.00,27.00,81.55,100.00,4.00,0.00,29.81,1011.00,10.00,M,FEW,M,M,M,8000.00,M,M,M,M,M,M,M,M,M,M,27.42,KEKO 081656Z AUTO 10004KT 10SM FEW080 00/M03 A2981 RMK AO2 SLP110 T00001028,M
NFL,2024-02-08 16:56,-118.7010,39.4166,1199.00,32.00,29.00,88.53,0.00,0.00,0.00,29.87,1009.00,10.00,M,BKN,BKN,M,M,3200.00,10000.00,M,M,M,M,M,M,M,M,M,32.00,KNFL 081656Z 00000KT 10SM BKN032 BKN100 00/M02 A2987 RMK AO2 SLP090 T00001017,M
HND,2024-02-08 16:56,-115.1344,35.9729,742.79,42.00,30.00,62.18,200.00,11.00,0.00,29.87,1013.70,10.00,M,FEW,M,M,M,4500.00,M,M,M,M,M,M,M,M,M,M,35.10,KHND 081656Z 20011KT 10SM FEW045 06/M01 A2987 RMK AO2 SLP137 T00561011,M
TPH,2024-02-08 16:56,-117.0904,38.0505,1654.00,32.00,27.00,81.55,350.00,6.00,T,29.78,1009.10,10.00,M,FEW,FEW,SCT,M,4400.00,5500.00,6500.00,M,M,M,M,M,M,M,M,25.53,KTPH 081656Z AUTO 35006KT 10SM FEW044 FEW055 SCT065 00/M03 A2978 RMK AO2 SNB01E15 SLP091 P0000 T00001028,M
LAS,2024-02-08 16:56,-115.1634,36.0719,663.00,42.00,31.00,64.75,180.00,10.00,0.00,29.85,1010.80,10.00,18.00,FEW,SCT,M,M,4000.00,11000.00,M,M,M,M,M,M,M,M,M,35.51,KLAS 081656Z 18010G18KT 10SM FEW040 SCT110 06/M01 A2985 RMK AO2 SLP108 T00561006,M
WMC,2024-02-08 16:56,-117.8072,40.9019,1315.00,31.00,28.00,88.48,0.00,0.00,0.00,29.85,1012.10,10.00,M,BKN,M,M,M,7000.00,M,M,M,M,M,M,M,M,M,M,31.00,KWMC 081656Z AUTO 00000KT 10SM BKN070 M01/M02 A2985 RMK AO2 SLP121 T10061022,M
INS,2024-02-08 17:05,-115.6733,36.5872,955.00,32.00,30.20,92.97,250.00,10.00,0.00,29.85,1010.50,0.25,M,BKN,OVC,M,M,100.00,900.00,M,M,SN FG,M,M,M,M,M,M,22.97,KINS 081705Z AUTO 25010KT 1/4SM R08/2200V2400FT SN FG BKN001 OVC009 00/M01 A2985 RMK AO2 BKN V SCT SLP105 $,M
INS,2024-02-08 17:06,-115.6733,36.5872,955.00,32.00,30.20,92.97,250.00,11.00,0.00,29.85,1010.50,0.25,M,BKN,OVC,M,M,100.00,900.00,M,M,-SN FG,M,M,M,M,M,M,22.47,KINS 081706Z AUTO 25011KT 1/4SM R08/2200V2400FT -SN FG BKN001 OVC009 00/M01 A2985 RMK AO2 BKN V SCT SLP105 $,M
BVU,2024-02-08 17:15,-114.8611,35.9475,671.00,44.60,30.20,56.74,210.00,10.00,0.00,29.87,M,10.00,M,OVC,M,M,M,4700.00,M,M,M,M,M,M,M,M,M,M,38.77,KBVU 081715Z AUTO 21010KT 10SM OVC047 07/M01 A2987 RMK AO2,M
CXP,2024-02-08 17:15,-119.7326,39.1923,1431.00,33.80,26.60,74.63,320.00,6.00,0.00,29.88,M,10.00,M,CLR,M,M,M,M,M,M,M,M,M,M,M,M,M,M,27.70,KCXP 081715Z AUTO 32006KT 10SM CLR 01/M03 A2988 RMK AO2,M
RTS,2024-02-08 17:15,-119.8764,39.6682,1539.00,23.00,23.00,100.00,0.00,0.00,0.00,29.89,M,10.00,M,SCT,M,M,M,1000.00,M,M,M,M,M,M,M,M,M,M,23.00,KRTS 081715Z AUTO 00000KT 10SM SCT010 M05/M05 A2989 RMK AO2,M
05U,2024-02-08 17:15,-116.0051,39.6042,1811.23,32.00,26.60,80.22,0.00,0.00,0.00,29.81,M,10.00,M,M,M,M,M,M,M,M,M,M,M,M,M,M,M,M,32.00,K05U 081715Z AUTO 00000KT 10SM M00/M03 A2981 RMK A01,M
MEV,2024-02-08 17:15,-119.7500,38.9963,1441.42,28.40,23.00,79.92,190.00,3.00,0.00,29.87,M,10.00,M,CLR,M,M,M,M,M,M,M,M,M,M,M,M,M,M,24.57,KMEV 081715Z AUTO 19003KT 10SM CLR M02/M05 A2987 RMK AO2,M
BAM,2024-02-08 17:15,-116.8743,40.5990,1382.36,32.00,32.00,100.00,170.00,3.00,0.00,29.85,M,10.00,M,BKN,OVC,M,M,2800.00,4400.00,M,M,M,M,M,M,M,M,M,28.69,KBAM 081715Z AUTO 17003KT 10SM BKN028 OVC044 00/00 A2985 RMK AO1,M
HTH,2024-02-08 17:15,-118.6315,38.5448,1282.89,33.80,28.40,80.36,0.00,0.00,0.00,29.88,M,10.00,M,FEW,M,M,M,1700.00,M,M,M,M,M,M,M,M,M,M,33.80,KHTH 081715Z AUTO 00000KT 10SM FEW017 01/M02 A2988 RMK A01,M
10U,2024-02-08 17:15,-116.1876,41.9532,1637.00,30.20,28.40,92.92,220.00,4.00,0.00,29.83,M,10.00,M,SCT,BKN,OVC,M,3100.00,5500.00,8000.00,M,M,M,M,M,M,M,M,25.32,K10U 081715Z AUTO 22004KT 10SM SCT031 BKN055 OVC080 M01/M02 A2983 RMK AO2,M
TMT,2024-02-08 17:15,-117.1971,39.4643,1749.34,31.00,25.50,79.80,0.00,0.00,0.00,29.83,M,10.00,M,OVC,M,M,M,1600.00,M,M,M,M,M,M,M,M,M,M,31.00,KTMT 081715Z AUTO 00000KT 10SM OVC016 00/M04 A2983 RMK AO2 T10051036,M
ELY,2024-02-08 17:17,-114.8453,39.2950,1909.00,31.00,27.00,84.92,M,3.00,0.00,29.78,M,10.00,M,FEW,BKN,OVC,M,900.00,4800.00,10000.00,M,M,M,M,M,M,M,M,27.55,KELY 081717Z AUTO VRB03KT 10SM FEW009 BKN048 OVC100 M01/M03 A2978 RMK AO2 T10061028,M
INS,2024-02-08 17:25,-115.6733,36.5872,955.00,32.00,30.20,92.97,250.00,6.00,0.00,29.86,1010.80,0.62,M,OVC,M,M,M,200.00,M,M,M,SN FG,M,M,M,M,M,M,25.53,KINS 081725Z AUTO 25006KT 5/8SM R08/2400V4500FT SN FG OVC002 00/M01 A2986 RMK AO2 OVC V BKN SLP108 $,M
CXP,2024-02-08 17:30,-119.7326,39.1923,1431.00,33.80,26.60,74.63,340.00,10.00,0.00,29.89,M,10.00,M,CLR,M,M,M,M,M,M,M,M,M,M,M,M,M,M,25.23,KCXP 081730Z AUTO 34010KT 10SM CLR 01/M03 A2989 RMK AO2,M
HTH,2024-02-08 17:30,-118.6315,38.5448,1282.89,33.80,30.20,86.49,0.00,0.00,0.00,29.88,M,10.00,M,FEW,M,M,M,1700.00,M,M,M,M,M,M,M,M,M,M,33.80,KHTH 081730Z AUTO 00000KT 10SM FEW017 01/M01 A2988 RMK A01,M
10U,2024-02-08 17:30,-116.1876,41.9532,1637.00,32.00,28.40,86.39,240.00,5.00,0.00,29.83,M,10.00,M,SCT,BKN,BKN,M,700.00,2800.00,4600.00,M,M,M,M,M,M,M,M,26.40,K10U 081730Z AUTO 24005KT 10SM SCT007 BKN028 BKN046 M00/M02 A2983 RMK AO2,M
RNO,2024-02-08 17:31,-119.7711,39.4839,1341.00,33.00,26.00,75.17,0.00,0.00,0.00,29.89,M,10.00,M,SCT,M,M,M,1900.00,M,M,M,M,M,M,M,M,M,M,33.00,KRNO 081731Z 00000KT 10SM SCT019 01/M03 A2989 RMK AO2 T00061033,M
ELY,2024-02-08 17:33,-114.8453,39.2950,1909.00,32.00,27.00,81.55,50.00,3.00,0.00,29.78,M,10.00,M,BKN,BKN,M,M,900.00,4300.00,M,M,M,M,M,M,M,M,M,28.69,KELY 081733Z AUTO 05003KT 10SM BKN009 BKN043 00/M03 A2978 RMK AO2 T00001028,M
BVU,2024-02-08 17:35,-114.8611,35.9475,671.00,44.60,28.40,52.72,220.00,12.00,0.00,29.87,M,10.00,18.00,BKN,OVC,M,M,4400.00,5000.00,M,M,M,M,M,M,M,M,M,38.04,KBVU 081735Z AUTO 22012G18KT 10SM BKN044 OVC050 07/M02 A2987 RMK AO2,M
RTS,2024-02-08 17:35,-119.8764,39.6682,1539.00,24.80,24.80,100.00,0.00,0.00,0.00,29.89,M,10.00,M,SCT,M,M,M,1100.00,M,M,M,M,M,M,M,M,M,M,24.80,KRTS 081735Z AUTO 00000KT 10SM SCT011 M04/M04 A2989 RMK AO2,M
05U,2024-02-08 17:35,-116.0051,39.6042,1811.23,32.00,26.60,80.22,210.00,4.00,0.00,29.81,M,10.00,M,M,M,M,M,M,M,M,M,M,M,M,M,M,M,M,27.42,K05U 081735Z AUTO 21004KT 10SM 00/M03 A2981 RMK A01,M
MEV,2024-02-08 17:35,-119.7500,38.9963,1441.42,28.40,23.00,79.92,260.00,3.00,0.00,29.88,M,10.00,M,CLR,M,M,M,M,M,M,M,M,M,M,M,M,M,M,24.57,KMEV 081735Z AUTO 26003KT 10SM CLR M02/M05 A2988 RMK AO2,M
BAM,2024-02-08 17:35,-116.8743,40.5990,1382.36,32.00,32.00,100.00,0.00,0.00,0.00,29.86,M,10.00,M,BKN,OVC,M,M,2800.00,4400.00,M,M,M,M,M,M,M,M,M,32.00,KBAM 081735Z AUTO 00000KT 10SM BKN028 OVC044 00/00 A2986 RMK AO1,M
INS,2024-02-08 17:35,-115.6733,36.5872,955.00,33.80,30.20,86.49,260.00,7.00,0.00,29.86,1010.80,0.25,M,OVC,M,M,M,200.00,M,M,M,SN FG,M,M,M,M,M,M,26.97,KINS 081735Z AUTO 26007KT 1/4SM R08/2200V2400FT SN FG OVC002 01/M01 A2986 RMK AO2 SLP108 $,M
TMT,2024-02-08 17:35,-117.1971,39.4643,1749.34,31.50,25.50,78.21,0.00,0.00,0.00,29.83,M,10.00,M,OVC,M,M,M,2100.00,M,M,M,M,M,M,M,M,M,M,31.50,KTMT 081735Z AUTO 00000KT 10SM OVC021 00/M04 A2983 RMK AO2 T10031036,M
DRA,2024-02-08 17:38,-116.0278,36.6206,1009.00,37.00,31.00,78.69,160.00,6.00,0.00,29.85,M,10.00,16.00,BKN,BKN,M,M,2100.00,10000.00,M,M,M,M,M,M,M,M,M,31.55,KDRA 081738Z AUTO 16006G16KT 10SM BKN021 BKN100 03/M01 A2985 RMK AO2 T00281006,M
INS,2024-02-08 17:43,-115.6733,36.5872,955.00,33.80,30.20,86.49,250.00,8.00,0.00,29.87,1011.20,0.50,M,BKN,M,M,M,200.00,M,M,M,-SN FG,M,M,M,M,M,M,26.33,KINS 081743Z AUTO 25008KT 1/2SM R08/2400VP6000FT -SN FG BKN002 01/M01 A2987 RMK AO2 BKN V OVC SLP112 $,M
INS,2024-02-08 17:48,-115.6733,36.5872,955.00,33.80,30.20,86.49,250.00,7.00,0.00,29.87,1011.20,1.00,M,BKN,M,M,M,200.00,M,M,M,-SN BR,M,M,M,M,M,M,26.97,KINS 081748Z AUTO 25007KT 1SM R08/3500VP6000FT -SN BR BKN002 01/M01 A2987 RMK AO2 VIS 3/8V1 BKN V OVC SLP112 $,M
ELY,2024-02-08 17:51,-114.8453,39.2950,1909.00,32.00,26.60,80.22,0.00,0.00,0.00,29.78,M,10.00,M,OVC,M,M,M,1000.00,M,M,M,M,M,M,M,M,M,M,32.00,KELY 081751Z AUTO 00000KT 10SM OVC010 00/M03 A2978 RMK AO2 CIG 008V013,M
DRA,2024-02-08 17:53,-116.0278,36.6206,1009.00,38.00,31.00,75.65,M,3.00,0.00,29.85,1010.20,10.00,M,BKN,BKN,OVC,M,2100.00,2600.00,10000.00,M,M,M,M,M,M,M,M,35.55,KDRA 081753Z AUTO VRB03KT 10SM BKN021 BKN026 OVC100 03/M01 A2985 RMK AO2 SLP102 T00331006 10039 20017 51028,M
ELY,2024-02-08 17:53,-114.8453,39.2950,1909.00,31.00,26.00,81.48,0.00,0.00,0.00,29.78,1009.40,10.00,M,OVC,M,M,M,1000.00,M,M,M,M,M,M,M,M,M,M,31.00,KELY 081753Z AUTO 00000KT 10SM OVC010 M01/M03 A2978 RMK AO2 CIG 008V013 SLP094 60000 T10061033 10000 21061 51004,M
VGT,2024-02-08 17:53,-115.1933,36.2111,667.00,45.00,29.00,53.22,200.00,11.00,0.00,29.85,1012.80,10.00,M,FEW,M,M,M,5000.00,M,M,M,M,M,M,M,M,M,M,38.89,KVGT 081753Z 20011KT 10SM FEW050 07/M02 A2985 RMK AO2 SLP128 T00721017 10072 20050 51017,M
LOL,2024-02-08 17:53,-118.5701,40.0684,1192.43,36.00,31.00,81.86,0.00,0.00,0.00,29.87,1012.90,10.00,M,SCT,M,M,M,6500.00,M,M,M,M,M,M,M,M,M,M,36.00,KLOL 081753Z AUTO 00000KT 10SM SCT065 02/M01 A2987 RMK AO2 SLP129 T00221006 10022 21039 51015,M
INS,2024-02-08 17:53,-115.6733,36.5872,955.00,33.80,30.20,86.49,260.00,6.00,0.00,29.87,1011.20,1.62,M,SCT,M,M,M,100.00,M,M,M,-SN BR,M,M,M,M,M,M,27.70,KINS 081753Z AUTO 26006KT 1 5/8SM -SN BR SCT001 01/M01 A2987 RMK AO2 VIS 5/8V1 5/8 SLP112 $,M
P68,2024-02-08 17:53,-116.0056,39.6014,1993.00,32.00,25.00,75.07,350.00,4.00,0.00,29.79,1008.80,M,M,M,M,M,M,M,M,M,M,M,M,M,M,M,M,M,27.42,KP68 081753Z AUTO 35004KT 00/M04 A2979 RMK AO1 SLP088 T00001039 10006 21039 53009 $,M
BVU,2024-02-08 17:55,-114.8611,35.9475,671.00,46.40,30.20,53.00,230.00,12.00,0.00,29.87,M,10.00,M,BKN,BKN,M,M,4400.00,5000.00,M,M,M,M,M,M,M,M,M,40.33,KBVU 081755Z AUTO 23012KT 10SM BKN044 BKN050 08/M01 A2987 RMK AO2,M
CXP,2024-02-08 17:55,-119.7326,39.1923,1431.00,33.80,26.60,74.63,330.00,8.00,0.00,29.89,M,10.00,M,CLR,M,M,M,M,M,M,M,M,M,M,M,M,M,M,26.33,KCXP 081755Z AUTO 33008KT 10SM CLR 01/M03 A2989 RMK AO2,M
RNO,2024-02-08 17:55,-119.7711,39.4839,1341.00,35.00,26.00,69.39,150.00,3.00,0.00,29.90,1012.80,10.00,M,SCT,M,M,M,1900.00,M,M,M,M,M,M,M,M,M,M,32.12,KRNO 081755Z 15003KT 10SM SCT019 02/M03 A2990 RMK AO2 SLP128 T00171033 10017 21028 53007,M
RTS,2024-02-08 17:55,-119.8764,39.6682,1539.00,26.60,24.80,92.80,0.00,0.00,0.00,29.90,M,10.00,M,OVC,M,M,M,900.00,M,M,M,M,M,M,M,M,M,M,26.60,KRTS 081755Z AUTO 00000KT 10SM OVC009 M03/M04 A2990 RMK AO2,M
05U,2024-02-08 17:55,-116.0051,39.6042,1811.23,32.00,26.60,80.22,0.00,0.00,0.00,29.82,M,10.00,M,M,M,M,M,M,M,M,M,M,M,M,M,M,M,M,32.00,K05U 081755Z AUTO 00000KT 10SM 00/M03 A2982 RMK A01,M
MEV,2024-02-08 17:55,-119.7500,38.9963,1441.42,28.40,23.00,79.92,0.00,0.00,0.00,29.88,M,10.00,M,CLR,M,M,M,M,M,M,M,M,M,M,M,M,M,M,28.40,KMEV 081755Z AUTO 00000KT 10SM CLR M02/M05 A2988 RMK AO2,M
BAM,2024-02-08 17:55,-116.8743,40.5990,1382.36,32.00,32.00,100.00,0.00,0.00,0.00,29.86,M,10.00,M,OVC,M,M,M,3000.00,M,M,M,M,M,M,M,M,M,M,32.00,KBAM 081755Z AUTO 00000KT 10SM OVC030 00/00 A2986 RMK AO1,M
HTH,2024-02-08 17:55,-118.6315,38.5448,1282.89,35.60,30.20,80.51,0.00,0.00,0.00,29.89,M,10.00,M,CLR,M,M,M,M,M,M,M,M,M,M,M,M,M,M,35.60,KHTH 081755Z AUTO 00000KT 10SM CLR 02/M01 A2989 RMK A01,M
TMT,2024-02-08 17:55,-117.1971,39.4643,1749.34,32.00,25.70,77.28,0.00,0.00,0.00,29.83,M,10.00,M,SCT,OVC,M,M,2100.00,2900.00,M,M,M,M,M,M,M,M,M,32.00,KTMT 081755Z AUTO 00000KT 10SM SCT021 OVC029 00/M03 A2983 RMK AO2 T10011035 10000 21023,M
10U,2024-02-08 17:55,-116.1876,41.9532,1637.00,32.00,28.40,86.39,240.00,5.00,0.00,29.83,M,10.00,M,FEW,BKN,OVC,M,800.00,1300.00,6000.00,M,UP,M,M,M,M,M,M,26.40,K10U 081755Z AUTO 24005KT 10SM UP FEW008 BKN013 OVC060 M00/M02 A2983 RMK AO2,M
INS,2024-02-08 17:55,-115.6733,36.5872,955.00,33.30,31.00,91.15,250.00,6.00,0.08,29.87,1011.20,1.62,M,SCT,M,M,M,100.00,M,M,M,-SN BR,M,M,M,M,M,M,27.10,KINS 081755Z AUTO 25006KT 1 5/8SM -SN BR SCT001 01/M01 A2987 RMK AO2 VIS 3/4V1 5/8 SLP112 P0008 60016 T00071006 10051 20002 52030 $,M
LSV,2024-02-08 17:55,-115.0343,36.2362,570.00,46.80,29.70,51.15,190.00,11.00,0.00,29.84,1010.30,10.00,M,FEW,BKN,M,M,4300.00,5500.00,M,M,M,M,M,M,M,M,M,41.17,KLSV 081755Z AUTO 19011KT 10SM FEW043 BKN055 08/M01 A2984 RMK AO2 SLP103 60001 T00821013 10083 20053 51015 $,M
EKO,2024-02-08 17:56,-115.7860,40.8242,1367.00,36.00,29.00,75.46,0.00,0.00,0.00,29.81,1010.70,10.00,M,OVC,M,M,M,7500.00,M,M,M,M,M,M,T,M,M,M,36.00,KEKO 081756Z AUTO 00000KT 10SM OVC075 02/M02 A2981 RMK AO2 SLP107 I6000 T00221017 10022 21033 51010,M
HND,2024-02-08 17:56,-115.1344,35.9729,742.79,44.00,30.00,57.59,210.00,16.00,0.00,29.87,1013.50,10.00,20.00,BKN,M,M,M,4100.00,M,M,M,M,M,M,M,M,M,M,36.06,KHND 081756Z 21016G20KT 10SM BKN041 07/M01 A2987 RMK AO2 SLP135 60000 T00671011 10067 20028 51014,M
TPH,2024-02-08 17:56,-117.0904,38.0505,1654.00,31.00,27.00,84.92,350.00,8.00,0.00,29.80,1009.80,10.00,M,SCT,M,M,M,5500.00,M,M,M,M,M,M,M,M,M,M,22.88,KTPH 081756Z AUTO 35008KT 10SM SCT055 M01/M03 A2980 RMK AO2 SLP098 60000 T10061028 10006 21022 51014,M
LAS,2024-02-08 17:56,-115.1634,36.0719,663.00,43.00,27.00,52.91,230.00,11.00,0.00,29.86,1011.10,10.00,M,SCT,SCT,M,M,4000.00,11000.00,M,M,M,M,M,M,M,M,M,36.37,KLAS 081756Z 23011KT 10SM SCT040 SCT110 06/M03 A2986 RMK AO2 SLP111 60000 T00611028 10067 20033 51015,M
WMC,2024-02-08 17:56,-117.8072,40.9019,1315.00,37.00,31.00,78.69,M,3.00,0.00,29.86,1011.80,10.00,M,FEW,M,M,M,900.00,M,M,M,M,M,M,T,M,M,M,34.40,KWMC 081756Z AUTO VRB03KT 10SM FEW009 03/M01 A2986 RMK AO2 SLP118 I6000 T00281006 10028 21050 51012,M
NFL,2024-02-08 17:56,-118.7010,39.4166,1199.00,34.00,30.00,85.11,0.00,0.00,0.00,29.88,1009.40,10.00,M,BKN,BKN,M,M,3500.00,10000.00,M,M,M,M,M,M,M,M,M,34.00,KNFL 081756Z 00000KT 10SM BKN035 BKN100 01/M01 A2988 RMK AO2 SLP094 T00111011 10011 21028 51017,M
INS,2024-02-08 18:00,-115.6733,36.5872,955.00,33.80,30.20,86.49,250.00,5.00,0.00,29.87,1011.20,2.00,M,SCT,M,M,M,100.00,M,M,M,-SN BR,M,M,M,M,M,M,28.53,KINS 081800Z AUTO 25005KT 2SM -SN BR SCT001 01/M01 A2987 RMK AO2 VIS 1 1/4V2 SLP112 $,M
INS,2024-02-08 18:10,-115.6733,36.5872,955.00,33.80,30.20,86.49,240.00,5.00,0.00,29.87,1011.20,1.50,M,BKN,M,M,M,400.00,M,M,M,-SN BR,M,M,M,M,M,M,28.53,KINS 081810Z AUTO 24005KT 1 1/2SM -SN BR BKN004 01/M01 A2987 RMK AO2 VIS 1 1/2V2 SLP112 $,M
BVU,2024-02-08 18:15,-114.8611,35.9475,671.00,46.40,28.40,49.24,220.00,8.00,0.00,29.88,M,10.00,M,FEW,FEW,M,M,4400.00,5000.00,M,M,M,M,M,M,M,M,M,41.85,KBVU 081815Z AUTO 22008KT 10SM FEW044 FEW050 08/M02 A2988 RMK AO2,M
CXP,2024-02-08 18:15,-119.7326,39.1923,1431.00,35.60,26.60,69.46,310.00,5.00,0.00,29.89,M,10.00,M,CLR,M,M,M,M,M,M,M,M,M,M,M,M,M,M,30.67,KCXP 081815Z AUTO 31005KT 10SM CLR 02/M03 A2989 RMK AO2,M
RTS,2024-02-08 18:15,-119.8764,39.6682,1539.00,28.40,24.80,86.18,0.00,0.00,0.00,29.90,M,10.00,M,OVC,M,M,M,800.00,M,M,M,M,M,M,M,M,M,M,28.40,KRTS 081815Z AUTO 00000KT 10SM OVC008 M02/M04 A2990 RMK AO2,M
05U,2024-02-08 18:15,-116.0051,39.6042,1811.23,32.00,26.60,80.22,180.00,4.00,0.00,29.82,M,10.00,M,M,M,M,M,M,M,M,M,M,M,M,M,M,M,M,27.42,K05U 081815Z AUTO 18004KT 10SM 00/M03 A2982 RMK A01,M
MEV,2024-02-08 18:15,-119.7500,38.9963,1441.42,30.20,24.80,80.07,0.00,0.00,0.00,29.88,M,10.00,M,CLR,M,M,M,M,M,M,M,M,M,M,M,M,M,M,30.20,KMEV 081815Z AUTO 00000KT 10SM CLR M01/M04 A2988 RMK AO2,M
BAM,2024-02-08 18:15,-116.8743,40.5990,1382.36,33.80,32.00,93.03,0.00,0.00,0.00,29.87,M,10.00,M,BKN,OVC,M,M,3000.00,4600.00,M,M,M,M,M,M,M,M,M,33.80,KBAM 081815Z AUTO 00000KT 10SM BKN030 OVC046 01/00 A2987 RMK AO1,M
HTH,2024-02-08 18:15,-118.6315,38.5448,1282.89,35.60,30.20,80.51,210.00,4.00,0.00,29.89,M,10.00,M,SCT,M,M,M,2200.00,M,M,M,M,M,M,M,M,M,M,31.62,KHTH 081815Z AUTO 21004KT 10SM SCT022 02/M01 A2989 RMK A01,M
10U,2024-02-08 18:15,-116.1876,41.9532,1637.00,32.00,28.40,86.39,M,5.00,0.00,29.84,M,10.00,M,BKN,BKN,OVC,M,1200.00,3300.00,6000.00,M,UP,M,M,M,M,M,M,26.40,K10U 081815Z AUTO VRB05KT 10SM UP BKN012 BKN033 OVC060 00/M02 A2984 RMK AO2,M
TMT,2024-02-08 18:15,-117.1971,39.4643,1749.34,32.00,25.70,77.28,360.00,3.00,0.00,29.84,M,10.00,M,SCT,OVC,M,M,1900.00,2700.00,M,M,M,M,M,M,M,M,M,28.69,KTMT 081815Z AUTO 36003KT 10SM SCT019 OVC027 00/M03 A2984 RMK AO2 T10011035,M
ELY,2024-02-08 18:25,-114.8453,39.2950,1909.00,34.00,28.00,78.43,M,3.00,0.00,29.78,M,10.00,M,SCT,BKN,M,M,1000.00,6500.00,M,M,M,M,M,M,M,M,M,30.97,KELY 081825Z AUTO VRB03KT 10SM SCT010 BKN065 01/M02 A2978 RMK AO2 T00111022,M
INS,2024-02-08 18:25,-115.6733,36.5872,955.00,33.80,30.20,86.49,250.00,5.00,0.00,29.87,1011.20,1.62,M,SCT,M,M,M,300.00,M,M,M,-SN BR,M,M,M,M,M,M,28.53,KINS 081825Z AUTO 25005KT 1 5/8SM -SN BR SCT003 01/M01 A2987 RMK AO2 VIS 1 1/8V1 5/8 SLP112 $,M
INS,2024-02-08 18:30,-115.6733,36.5872,955.00,33.80,30.20,86.49,230.00,6.00,0.00,29.87,1011.20,2.25,M,SCT,M,M,M,300.00,M,M,M,-SN BR,M,M,M,M,M,M,27.70,KINS 081830Z AUTO 23006KT 2 1/4SM -SN BR SCT003 01/M01 A2987 RMK AO2 VIS 1 1/4V2 1/4 SLP112 $,M
05U,2024-02-08 18:30,-116.0051,39.6042,1811.23,32.00,24.80,74.44,150.00,4.00,0.00,29.82,M,10.00,M,M,M,M,M,M,M,M,M,M,M,M,M,M,M,M,27.42,K05U 081830Z AUTO 15004KT 10SM 00/M04 A2982 RMK A01,M
DRA,2024-02-08 18:34,-116.0278,36.6206,1009.00,41.00,32.00,70.08,210.00,10.00,0.00,29.86,M,10.00,M,FEW,SCT,OVC,M,2000.00,2400.00,8000.00,M,M,M,M,M,M,M,M,34.25,KDRA 081834Z AUTO 21010KT 10SM FEW020 SCT024 OVC080 05/00 A2986 RMK AO2 T00500000,M
BVU,2024-02-08 18:35,-114.8611,35.9475,671.00,46.40,28.40,49.24,210.00,13.00,0.00,29.87,M,10.00,M,BKN,M,M,M,5000.00,M,M,M,M,M,M,M,M,M,M,40.02,KBVU 081835Z AUTO 21013KT 10SM BKN050 08/M02 A2987 RMK AO2,M
CXP,2024-02-08 18:35,-119.7326,39.1923,1431.00,35.60,26.60,69.46,M,3.00,0.00,29.89,M,10.00,M,CLR,M,M,M,M,M,M,M,M,M,M,M,M,M,M,32.80,KCXP 081835Z AUTO VRB03KT 10SM CLR 02/M03 A2989 RMK AO2,M
RTS,2024-02-08 18:35,-119.8764,39.6682,1539.00,28.40,24.80,86.18,0.00,0.00,0.00,29.90,M,10.00,M,SCT,M,M,M,800.00,M,M,M,M,M,M,M,M,M,M,28.40,KRTS 081835Z AUTO 00000KT 10SM SCT008 M02/M04 A2990 RMK AO2,M
MEV,2024-02-08 18:35,-119.7500,38.9963,1441.42,32.00,26.60,80.22,0.00,0.00,0.00,29.89,M,10.00,M,CLR,M,M,M,M,M,M,M,M,M,M,M,M,M,M,32.00,KMEV 081835Z AUTO 00000KT 10SM CLR M00/M03 A2989 RMK AO2,M
BAM,2024-02-08 18:35,-116.8743,40.5990,1382.36,33.80,32.00,93.03,0.00,0.00,0.00,29.87,M,10.00,M,SCT,OVC,M,M,3200.00,4600.00,M,M,M,M,M,M,M,M,M,33.80,KBAM 081835Z AUTO 00000KT 10SM SCT032 OVC046 01/00 A2987 RMK AO1,M
HTH,2024-02-08 18:35,-118.6315,38.5448,1282.89,35.60,30.20,80.51,220.00,5.00,0.00,29.89,M,10.00,M,FEW,M,M,M,2300.00,M,M,M,M,M,M,M,M,M,M,30.67,KHTH 081835Z AUTO 22005KT 10SM FEW023 02/M01 A2989 RMK A01,M
10U,2024-02-08 18:35,-116.1876,41.9532,1637.00,32.00,26.60,80.22,280.00,5.00,0.00,29.84,M,10.00,M,FEW,SCT,OVC,M,1300.00,2200.00,4800.00,M,M,M,M,M,M,M,M,26.40,K10U 081835Z AUTO 28005KT 10SM FEW013 SCT022 OVC048 00/M03 A2984 RMK AO2,M
INS,2024-02-08 18:35,-115.6733,36.5872,955.00,33.80,30.20,86.49,210.00,5.00,0.00,29.87,1011.20,3.00,M,SCT,M,M,M,300.00,M,M,M,-SN BR,M,M,M,M,M,M,28.53,KINS 081835Z AUTO 21005KT 3SM -SN BR SCT003 01/M01 A2987 RMK AO2 SLP112 $,M
TMT,2024-02-08 18:35,-117.1971,39.4643,1749.34,32.00,26.20,78.90,30.00,4.00,0.00,29.84,M,10.00,M,BKN,BKN,OVC,M,1700.00,2700.00,3300.00,M,M,M,M,M,M,M,M,27.42,KTMT 081835Z AUTO 03004KT 10SM BKN017 BKN027 OVC033 00/M03 A2984 RMK AO2 T00001032,M
ELY,2024-02-08 18:37,-114.8453,39.2950,1909.00,34.00,28.00,78.43,350.00,5.00,0.00,29.78,M,10.00,M,BKN,M,M,M,1200.00,M,M,M,M,M,M,M,M,M,M,28.77,KELY 081837Z AUTO 35005KT 10SM BKN012 01/M02 A2978 RMK AO2 T00111022,M
INS,2024-02-08 18:40,-115.6733,36.5872,955.00,33.80,30.20,86.49,210.00,3.00,0.00,29.87,1011.20,5.00,M,FEW,OVC,M,M,300.00,2300.00,M,M,-SN BR,M,M,M,M,M,M,30.75,KINS 081840Z AUTO 21003KT 5SM -SN BR FEW003 OVC023 01/M01 A2987 RMK AO2 SLP112 $,M
INS,2024-02-08 18:50,-115.6733,36.5872,955.00,35.60,30.20,80.51,240.00,3.00,0.00,29.88,1011.50,7.00,M,OVC,M,M,M,3200.00,M,M,M,-SN BR,M,M,M,M,M,M,32.80,KINS 081850Z AUTO 24003KT 7SM -SN BR OVC032 02/M01 A2988 RMK AO2 SLP115 $,M
DRA,2024-02-08 18:53,-116.0278,36.6206,1009.00,40.00,30.00,67.18,210.00,8.00,0.00,29.86,1010.40,10.00,M,FEW,BKN,OVC,M,2400.00,6000.00,7500.00,M,M,M,M,M,M,M,M,33.97,KDRA 081853Z AUTO 21008KT 10SM FEW024 BKN060 OVC075 04/M01 A2986 RMK AO2 SLP104 T00441011,M
ELY,2024-02-08 18:53,-114.8453,39.2950,1909.00,34.00,27.00,75.26,340.00,5.00,0.00,29.78,1008.40,10.00,M,BKN,M,M,M,1300.00,M,M,M,M,M,M,M,M,M,M,28.77,KELY 081853Z AUTO 34005KT 10SM BKN013 01/M03 A2978 RMK AO2 SLP084 T00111028,M
VGT,2024-02-08 18:53,-115.1933,36.2111,667.00,46.00,28.00,49.18,0.00,0.00,0.00,29.86,1012.90,10.00,M,CLR,M,M,M,M,M,M,M,M,M,M,M,M,M,M,46.00,KVGT 081853Z 00000KT 10SM CLR 08/M02 A2986 RMK AO2 SLP129 T00781022,M
LOL,2024-02-08 18:53,-118.5701,40.0684,1192.43,37.00,31.00,78.69,0.00,0.00,0.00,29.89,1013.30,10.00,M,OVC,M,M,M,6500.00,M,M,M,M,M,M,M,M,M,M,37.00,KLOL 081853Z AUTO 00000KT 10SM OVC065 03/M01 A2989 RMK AO2 SLP133 T00281006,M
P68,2024-02-08 18:53,-116.0056,39.6014,1993.00,35.00,25.00,66.57,M,3.00,0.00,29.79,1008.40,M,M,M,M,M,M,M,M,M,M,M,M,M,M,M,M,M,32.12,KP68 081853Z AUTO VRB03KT 02/M04 A2979 RMK AO1 SLP084 T00171039,M
BVU,2024-02-08 18:55,-114.8611,35.9475,671.00,46.40,30.20,53.00,220.00,13.00,0.00,29.87,M,10.00,18.00,BKN,OVC,M,M,4800.00,5500.00,M,M,M,M,M,M,M,M,M,40.02,KBVU 081855Z AUTO 22013G18KT 10SM BKN048 OVC055 08/M01 A2987 RMK AO2,M
CXP,2024-02-08 18:55,-119.7326,39.1923,1431.00,35.60,26.60,69.46,0.00,0.00,0.00,29.89,M,10.00,M,CLR,M,M,M,M,M,M,M,M,M,M,M,M,M,M,35.60,KCXP 081855Z AUTO 00000KT 10SM CLR 02/M03 A2989 RMK AO2,M
RNO,2024-02-08 18:55,-119.7711,39.4839,1341.00,37.00,25.00,61.50,340.00,5.00,0.00,29.91,1012.90,10.00,M,SCT,M,M,M,2000.00,M,M,M,M,M,M,M,M,M,M,32.33,KRNO 081855Z 34005KT 10SM SCT020 03/M04 A2991 RMK AO2 SLP129 T00281039,M
RTS,2024-02-08 18:55,-119.8764,39.6682,1539.00,30.20,24.80,80.07,0.00,0.00,0.00,29.90,M,10.00,M,SCT,M,M,M,900.00,M,M,M,M,M,M,M,M,M,M,30.20,KRTS 081855Z AUTO 00000KT 10SM SCT009 M01/M04 A2990 RMK AO2,M
05U,2024-02-08 18:55,-116.0051,39.6042,1811.23,33.80,24.80,69.25,0.00,0.00,0.00,29.82,M,10.00,M,M,M,M,M,M,M,M,M,M,M,M,M,M,M,M,33.80,K05U 081855Z AUTO 00000KT 10SM 01/M04 A2982 RMK A01,M
MEV,2024-02-08 18:55,-119.7500,38.9963,1441.42,33.80,26.60,74.63,200.00,4.00,0.00,29.88,M,10.00,M,CLR,M,M,M,M,M,M,M,M,M,M,M,M,M,M,29.52,KMEV 081855Z AUTO 20004KT 10SM CLR 01/M03 A2988 RMK AO2,M
BAM,2024-02-08 18:55,-116.8743,40.5990,1382.36,33.80,32.00,93.03,0.00,0.00,0.00,29.87,M,10.00,M,OVC,M,M,M,4800.00,M,M,M,M,M,M,M,M,M,M,33.80,KBAM 081855Z AUTO 00000KT 10SM OVC048 01/00 A2987 RMK AO1,M
HTH,2024-02-08 18:55,-118.6315,38.5448,1282.89,35.60,30.20,80.51,220.00,4.00,0.00,29.90,M,10.00,M,SCT,M,M,M,2700.00,M,M,M,M,M,M,M,M,M,M,31.62,KHTH 081855Z AUTO 22004KT 10SM SCT027 02/M01 A2990 RMK A01,M
TMT,2024-02-08 18:55,-117.1971,39.4643,1749.34,32.00,27.00,81.55,40.00,7.00,0.00,29.84,M,10.00,M,SCT,SCT,OVC,M,1900.00,2500.00,3300.00,M,M,M,M,M,M,M,M,24.78,KTMT 081855Z AUTO 04007KT 10SM SCT019 SCT025 OVC033 00/M03 A2984 RMK AO2 T00011027,M
10U,2024-02-08 18:55,-116.1876,41.9532,1637.00,33.80,26.60,74.63,M,6.00,0.00,29.84,M,10.00,M,FEW,SCT,OVC,M,1400.00,3200.00,4900.00,M,M,M,M,M,M,M,M,27.70,K10U 081855Z AUTO VRB06KT 10SM FEW014 SCT032 OVC049 01/M03 A2984 RMK AO2,M
INS,2024-02-08 18:55,-115.6733,36.5872,955.00,34.70,30.40,84.12,0.00,0.00,0.10,29.88,1011.50,8.00,M,FEW,OVC,M,M,1900.00,3600.00,M,M,-SN,M,M,M,M,M,M,34.70,KINS 081855Z AUTO 00000KT 8SM -SN FEW019 OVC036 02/M01 A2988 RMK AO2 SLP115 P0010 T00151009 $,M
LSV,2024-02-08 18:55,-115.0343,36.2362,570.00,48.00,30.00,49.49,200.00,9.00,0.00,29.85,1010.50,10.00,M,FEW,M,M,M,4900.00,M,M,M,M,M,M,M,M,M,M,43.41,KLSV 081855Z AUTO 20009KT 10SM FEW049 09/M01 A2985 RMK AO2 SLP105 T00891012 $,M
EKO,2024-02-08 18:56,-115.7860,40.8242,1367.00,38.00,28.00,66.94,0.00,0.00,0.00,29.82,1010.70,10.00,M,FEW,FEW,OVC,M,2100.00,3800.00,7000.00,M,M,M,M,M,M,M,M,38.00,KEKO 081856Z AUTO 00000KT 10SM FEW021 FEW038 OVC070 03/M02 A2982 RMK AO2 SLP107 T00331022,M
NFL,2024-02-08 18:56,-118.7010,39.4166,1199.00,36.00,32.00,85.23,230.00,3.00,0.00,29.89,1009.60,10.00,M,BKN,BKN,M,M,3500.00,9000.00,M,M,M,M,M,M,M,M,M,33.26,KNFL 081856Z 23003KT 10SM BKN035 BKN090 02/00 A2989 RMK AO2 SLP096 T00220000,M
HND,2024-02-08 18:56,-115.1344,35.9729,742.79,44.00,29.00,55.29,220.00,15.00,0.00,29.88,1013.80,10.00,M,BKN,M,M,M,4000.00,M,M,M,M,M,M,M,M,M,M,36.34,KHND 081856Z 22015KT 10SM BKN040 07/M02 A2988 RMK AO2 SLP138 T00671017,M
TPH,2024-02-08 18:56,-117.0904,38.0505,1654.00,35.00,28.00,75.36,350.00,10.00,0.00,29.81,1009.70,10.00,M,BKN,M,M,M,7000.00,M,M,M,M,M,M,M,M,M,M,26.73,KTPH 081856Z AUTO 35010KT 10SM BKN070 02/M02 A2981 RMK AO2 SLP097 T00171022,M
LAS,2024-02-08 18:56,-115.1634,36.0719,663.00,44.00,28.00,53.07,210.00,9.00,0.00,29.86,1011.00,10.00,M,SCT,SCT,M,M,6000.00,11000.00,M,M,M,M,M,M,M,M,M,38.44,KLAS 081856Z 21009KT 10SM SCT060 SCT110 07/M02 A2986 RMK AO2 SLP110 T00671022,M
WMC,2024-02-08 18:56,-117.8072,40.9019,1315.00,40.00,27.00,59.41,320.00,3.00,0.00,29.87,1012.00,10.00,M,CLR,M,M,M,M,M,M,M,M,M,M,M,M,M,M,37.83,KWMC 081856Z AUTO 32003KT 10SM CLR 04/M03 A2987 RMK AO2 SLP120 T00441028,M
ELY,2024-02-08 19:03,-114.8453,39.2950,1909.00,34.00,26.00,72.22,10.00,4.00,0.00,29.78,M,10.00,M,FEW,M,M,M,1300.00,M,M,M,M,M,M,M,M,M,M,29.76,KELY 081903Z AUTO 01004KT 10SM FEW013 01/M03 A2978 RMK AO2 T00111033,M
BVU,2024-02-08 19:15,-114.8611,35.9475,671.00,44.60,28.40,52.72,240.00,9.00,0.00,29.87,M,10.00,17.00,BKN,BKN,M,M,4400.00,5000.00,M,M,M,M,M,M,M,M,M,39.18,KBVU 081915Z AUTO 24009G17KT 10SM BKN044 BKN050 07/M02 A2987 RMK AO2,M
CXP,2024-02-08 19:15,-119.7326,39.1923,1431.00,37.40,26.60,64.70,0.00,0.00,0.00,29.89,M,10.00,M,SCT,BKN,M,M,5000.00,6000.00,M,M,M,M,M,M,M,M,M,37.40,KCXP 081915Z AUTO 00000KT 10SM SCT050 BKN060 03/M03 A2989 RMK AO2,M
RTS,2024-02-08 19:15,-119.8764,39.6682,1539.00,32.00,24.80,74.44,0.00,0.00,0.00,29.90,M,10.00,M,SCT,SCT,M,M,1000.00,1400.00,M,M,M,M,M,M,M,M,M,32.00,KRTS 081915Z AUTO 00000KT 10SM SCT010 SCT014 M00/M04 A2990 RMK AO2,M
05U,2024-02-08 19:15,-116.0051,39.6042,1811.23,37.40,23.00,55.68,0.00,0.00,0.00,29.82,M,10.00,M,M,M,M,M,M,M,M,M,M,M,M,M,M,M,M,37.40,K05U 081915Z AUTO 00000KT 10SM 03/M05 A2982 RMK A01,M
MEV,2024-02-08 19:15,-119.7500,38.9963,1441.42,33.80,26.60,74.63,M,4.00,0.00,29.88,M,10.00,M,CLR,M,M,M,M,M,M,M,M,M,M,M,M,M,M,29.52,KMEV 081915Z AUTO VRB04KT 10SM CLR 01/M03 A2988 RMK AO2,M
BAM,2024-02-08 19:15,-116.8743,40.5990,1382.36,33.80,32.00,93.03,0.00,0.00,0.00,29.87,M,10.00,M,BKN,M,M,M,5000.00,M,M,M,M,M,M,M,M,M,M,33.80,KBAM 081915Z AUTO 00000KT 10SM BKN050 01/00 A2987 RMK AO1,M
HTH,2024-02-08 19:15,-118.6315,38.5448,1282.89,37.40,30.20,74.98,240.00,3.00,0.00,29.90,M,10.00,M,SCT,M,M,M,2600.00,M,M,M,M,M,M,M,M,M,M,34.86,KHTH 081915Z AUTO 24003KT 10SM SCT026 03/M01 A2990 RMK A01,M
10U,2024-02-08 19:15,-116.1876,41.9532,1637.00,32.00,26.60,80.22,330.00,7.00,0.00,29.84,M,10.00,M,SCT,BKN,OVC,M,1500.00,3100.00,6000.00,M,-UP,M,M,M,M,M,M,24.78,K10U 081915Z AUTO 33007KT 10SM -UP SCT015 BKN031 OVC060 00/M03 A2984 RMK AO2,M
TMT,2024-02-08 19:15,-117.1971,39.4643,1749.34,33.00,26.00,75.17,20.00,6.00,0.00,29.84,M,10.00,M,OVC,M,M,M,3300.00,M,M,M,M,M,M,M,M,M,M,26.73,KTMT 081915Z AUTO 02006KT 10SM OVC033 01/M03 A2984 RMK AO2 T00061033,M
INS,2024-02-08 19:19,-115.6733,36.5872,955.00,35.60,30.20,80.51,310.00,3.00,0.00,29.87,1011.20,9.00,M,FEW,SCT,OVC,M,1400.00,2300.00,5500.00,M,M,M,M,M,M,M,M,32.80,KINS 081919Z AUTO 31003KT 9SM FEW014 SCT023 OVC055 02/M01 A2987 RMK AO2 SNE19 SLP112 $,M
EKO,2024-02-08 19:21,-115.7860,40.8242,1367.00,37.00,27.00,66.82,240.00,4.00,0.00,29.81,M,10.00,M,BKN,OVC,M,M,2300.00,3700.00,M,M,M,M,M,M,M,M,M,33.26,KEKO 081921Z AUTO 24004KT 10SM BKN023 OVC037 03/M03 A2981 RMK AO2 T00281028,M
EKO,2024-02-08 19:33,-115.7860,40.8242,1367.00,36.00,25.00,63.98,270.00,3.00,T,29.81,M,9.00,M,FEW,BKN,OVC,M,2200.00,3000.00,3900.00,M,-SN,M,M,M,M,M,M,33.26,KEKO 081933Z AUTO 27003KT 9SM -SN FEW022 BKN030 OVC039 02/M04 A2981 RMK AO2 SNB25 P0000 T00221039,M
BVU,2024-02-08 19:35,-114.8611,35.9475,671.00,46.40,30.20,53.00,230.00,15.00,0.00,29.87,M,10.00,M,SCT,SCT,BKN,M,4200.00,4800.00,5500.00,M,M,M,M,M,M,M,M,39.45,KBVU 081935Z AUTO 23015KT 10SM SCT042 SCT048 BKN055 08/M01 A2987 RMK AO2,M
CXP,2024-02-08 19:35,-119.7326,39.1923,1431.00,39.20,26.60,60.29,0.00,0.00,0.00,29.89,M,10.00,M,FEW,BKN,BKN,M,4300.00,5500.00,7000.00,M,M,M,M,M,M,M,M,39.20,KCXP 081935Z AUTO 00000KT 10SM FEW043 BKN055 BKN070 04/M03 A2989 RMK AO2,M
RTS,2024-02-08 19:35,-119.8764,39.6682,1539.00,30.20,26.60,86.28,0.00,0.00,0.00,29.90,M,10.00,M,BKN,M,M,M,1300.00,M,M,M,M,M,M,M,M,M,M,30.20,KRTS 081935Z AUTO 00000KT 10SM BKN013 M01/M03 A2990 RMK AO2,M
05U,2024-02-08 19:35,-116.0051,39.6042,1811.23,35.60,23.00,59.79,M,4.00,0.00,29.81,M,10.00,M,M,M,M,M,M,M,M,M,M,M,M,M,M,M,M,31.62,K05U 081935Z AUTO VRB04KT 10SM 02/M05 A2981 RMK A01,M
MEV,2024-02-08 19:35,-119.7500,38.9963,1441.42,35.60,26.60,69.46,0.00,0.00,0.00,29.88,M,10.00,M,FEW,BKN,M,M,6500.00,7500.00,M,M,M,M,M,M,M,M,M,35.60,KMEV 081935Z AUTO 00000KT 10SM FEW065 BKN075 02/M03 A2988 RMK AO2,M
BAM,2024-02-08 19:35,-116.8743,40.5990,1382.36,35.60,32.00,86.59,0.00,0.00,0.00,29.87,M,10.00,M,SCT,M,M,M,5000.00,M,M,M,M,M,M,M,M,M,M,35.60,KBAM 081935Z AUTO 00000KT 10SM SCT050 02/00 A2987 RMK AO1,M
HTH,2024-02-08 19:35,-118.6315,38.5448,1282.89,37.40,30.20,74.98,0.00,0.00,0.00,29.89,M,10.00,M,SCT,BKN,OVC,M,2100.00,2600.00,3400.00,M,M,M,M,M,M,M,M,37.40,KHTH 081935Z AUTO 00000KT 10SM SCT021 BKN026 OVC034 03/M01 A2989 RMK A01,M
10U,2024-02-08 19:35,-116.1876,41.9532,1637.00,32.00,24.80,74.44,320.00,7.00,0.00,29.83,M,10.00,M,SCT,BKN,OVC,M,1700.00,2300.00,5000.00,M,UP,M,M,M,M,M,M,24.78,K10U 081935Z AUTO 32007KT 10SM UP SCT017 BKN023 OVC050 00/M04 A2983 RMK AO2,M
TMT,2024-02-08 19:35,-117.1971,39.4643,1749.34,34.00,26.80,74.65,80.00,5.00,0.00,29.84,M,10.00,M,OVC,M,M,M,3300.00,M,M,M,M,M,M,M,M,M,M,28.77,KTMT 081935Z AUTO 08005KT 10SM OVC033 01/M03 A2984 RMK AO2 T00111029,M
DRA,2024-02-08 19:53,-116.0278,36.6206,1009.00,42.00,31.00,64.75,230.00,9.00,0.00,29.84,1009.60,10.00,M,FEW,OVC,M,M,2700.00,3400.00,M,M,M,M,M,M,M,M,M,35.95,KDRA 081953Z AUTO 23009KT 10SM FEW027 OVC034 06/M01 A2984 RMK AO2 SLP096 T00561006,M
ELY,2024-02-08 19:53,-114.8453,39.2950,1909.00,36.00,23.00,58.85,0.00,0.00,0.00,29.75,1008.10,10.00,M,CLR,M,M,M,M,M,M,M,M,M,M,M,M,M,M,36.00,KELY 081953Z AUTO 00000KT 10SM CLR 02/M05 A2975 RMK AO2 SLP081 T00221050,M
VGT,2024-02-08 19:53,-115.1933,36.2111,667.00,46.00,34.00,62.71,330.00,13.00,0.00,29.85,1012.80,10.00,17.00,FEW,BKN,BKN,M,3400.00,5000.00,6000.00,M,M,M,M,M,M,M,M,39.50,KVGT 081953Z 33013G17KT 10SM FEW034 BKN050 BKN060 08/01 A2985 RMK AO2 SLP128 T00780011,M
LOL,2024-02-08 19:53,-118.5701,40.0684,1192.43,39.00,31.00,72.75,310.00,3.00,0.00,29.88,1012.80,10.00,M,OVC,M,M,M,6500.00,M,M,M,M,M,M,M,M,M,M,36.69,KLOL 081953Z AUTO 31003KT 10SM OVC065 04/M01 A2988 RMK AO2 SLP128 T00391006,M
P68,2024-02-08 19:53,-116.0056,39.6014,1993.00,36.00,24.00,61.37,340.00,6.00,0.00,29.78,1007.70,M,M,M,M,M,M,M,M,M,M,M,M,M,M,M,M,M,30.35,KP68 081953Z AUTO 34006KT 02/M04 A2978 RMK AO1 SLP077 T00221044,M
BVU,2024-02-08 19:55,-114.8611,35.9475,671.00,46.40,30.20,53.00,220.00,11.00,0.00,29.86,M,10.00,18.00,BKN,BKN,M,M,4600.00,5000.00,M,M,M,M,M,M,M,M,M,40.66,KBVU 081955Z AUTO 22011G18KT 10SM BKN046 BKN050 08/M01 A2986 RMK AO2,M
CXP,2024-02-08 19:55,-119.7326,39.1923,1431.00,41.00,26.60,56.22,300.00,4.00,0.00,29.88,M,10.00,M,FEW,BKN,M,M,5500.00,7000.00,M,M,M,M,M,M,M,M,M,37.93,KCXP 081955Z AUTO 30004KT 10SM FEW055 BKN070 05/M03 A2988 RMK AO2,M
RNO,2024-02-08 19:55,-119.7711,39.4839,1341.00,37.00,25.00,61.50,30.00,3.00,0.00,29.89,1012.50,10.00,M,SCT,SCT,M,M,2000.00,6000.00,M,M,M,M,M,M,M,M,M,34.40,KRNO 081955Z 03003KT 10SM SCT020 SCT060 03/M04 A2989 RMK AO2 SLP125 T00281039,M
LSV,2024-02-08 19:55,-115.0343,36.2362,570.00,48.70,29.00,46.29,190.00,5.00,0.00,29.84,1010.30,10.00,M,FEW,M,M,M,4700.00,M,M,M,M,M,M,M,M,M,M,46.23,KLSV 081955Z AUTO 19005KT 10SM FEW047 09/M02 A2984 RMK AO2 SLP103 T00931017 $,M
RTS,2024-02-08 19:55,-119.8764,39.6682,1539.00,32.00,26.60,80.22,0.00,0.00,0.00,29.89,M,10.00,M,OVC,M,M,M,1500.00,M,M,M,M,M,M,M,M,M,M,32.00,KRTS 081955Z AUTO 00000KT 10SM OVC015 M00/M03 A2989 RMK AO2,M
05U,2024-02-08 19:55,-116.0051,39.6042,1811.23,35.60,24.80,64.46,210.00,5.00,0.00,29.81,M,10.00,M,M,M,M,M,M,M,M,M,M,M,M,M,M,M,M,30.67,K05U 081955Z AUTO 21005KT 10SM 02/M04 A2981 RMK A01,M
MEV,2024-02-08 19:55,-119.7500,38.9963,1441.42,35.60,24.80,64.46,0.00,0.00,0.00,29.87,M,10.00,M,BKN,OVC,M,M,6500.00,7500.00,M,M,M,M,M,M,M,M,M,35.60,KMEV 081955Z AUTO 00000KT 10SM BKN065 OVC075 02/M04 A2987 RMK AO2,M
BAM,2024-02-08 19:55,-116.8743,40.5990,1382.36,37.40,32.00,80.65,0.00,0.00,0.00,29.86,M,10.00,M,CLR,M,M,M,M,M,M,M,M,M,M,M,M,M,M,37.40,KBAM 081955Z AUTO 00000KT 10SM CLR 03/00 A2986 RMK AO1,M
HTH,2024-02-08 19:55,-118.6315,38.5448,1282.89,37.40,28.40,69.67,310.00,5.00,0.00,29.89,M,10.00,M,SCT,OVC,M,M,2300.00,3700.00,M,M,M,M,M,M,M,M,M,32.81,KHTH 081955Z AUTO 31005KT 10SM SCT023 OVC037 03/M02 A2989 RMK A01,M
TMT,2024-02-08 19:55,-117.1971,39.4643,1749.34,35.00,25.30,67.41,50.00,4.00,0.00,29.83,M,10.00,M,SCT,OVC,M,M,2800.00,3500.00,M,M,M,M,M,M,M,M,M,30.92,KTMT 081955Z AUTO 05004KT 10SM SCT028 OVC035 02/M04 A2983 RMK AO2 T00161037,M
10U,2024-02-08 19:55,-116.1876,41.9532,1637.00,33.80,23.00,64.23,340.00,7.00,0.00,29.83,M,10.00,M,FEW,BKN,OVC,M,2000.00,4200.00,5000.00,M,M,M,M,M,M,M,M,26.97,K10U 081955Z AUTO 34007KT 10SM FEW020 BKN042 OVC050 01/M05 A2983 RMK AO2,M
INS,2024-02-08 19:55,-115.6733,36.5872,955.00,35.80,32.00,85.91,0.00,0.00,0.03,29.86,1010.80,10.00,M,OVC,M,M,M,4500.00,M,M,M,M,M,M,M,M,M,M,35.80,KINS 081955Z AUTO 00000KT 10SM OVC045 02/00 A2986 RMK AO2 SNE19 SLP108 P0003 T00210000 $,M
EKO,2024-02-08 19:56,-115.7860,40.8242,1367.00,37.00,24.00,58.99,0.00,0.00,T,29.80,1010.10,10.00,M,FEW,SCT,OVC,M,3600.00,4800.00,6500.00,M,M,M,M,M,M,M,M,37.00,KEKO 081956Z AUTO 00000KT 10SM FEW036 SCT048 OVC065 03/M04 A2980 RMK AO2 SNB25E37 SLP101 P0000 T00281044,M
NFL,2024-02-08 19:56,-118.7010,39.4166,1199.00,39.00,30.00,69.85,M,3.00,0.00,29.89,1009.50,10.00,M,SCT,BKN,BKN,M,2000.00,4000.00,8000.00,M,M,M,M,M,M,M,M,36.69,KNFL 081956Z VRB03KT 10SM SCT020 BKN040 BKN080 04/M01 A2989 RMK AO2 SLP095 T00391011,M
HND,2024-02-08 19:56,-115.1344,35.9729,742.79,44.00,29.00,55.29,210.00,12.00,0.00,29.87,1013.40,10.00,M,BKN,M,M,M,5000.00,M,M,M,M,M,M,M,M,M,M,37.27,KHND 081956Z 21012KT 10SM BKN050 07/M02 A2987 RMK AO2 SLP134 T00671017,M
TPH,2024-02-08 19:56,-117.0904,38.0505,1654.00,38.00,28.00,66.94,320.00,13.00,0.00,29.79,1008.80,10.00,22.00,FEW,M,M,M,6500.00,M,M,M,M,M,M,M,M,M,M,29.26,KTPH 081956Z AUTO 32013G22KT 10SM FEW065 03/M02 A2979 RMK AO2 SLP088 T00331022,M
LAS,2024-02-08 19:56,-115.1634,36.0719,663.00,45.00,29.00,53.22,210.00,6.00,0.00,29.85,1010.80,10.00,M,FEW,BKN,BKN,M,4000.00,6000.00,11000.00,M,M,M,M,M,M,M,M,41.19,KLAS 081956Z 21006KT 10SM FEW040 BKN060 BKN110 07/M02 A2985 RMK AO2 SLP108 T00721017,M
WMC,2024-02-08 19:56,-117.8072,40.9019,1315.00,43.00,22.00,42.95,340.00,5.00,0.00,29.85,1011.20,10.00,M,FEW,SCT,M,M,4400.00,6000.00,M,M,M,M,M,M,M,M,M,39.46,KWMC 081956Z AUTO 34005KT 10SM FEW044 SCT060 06/M06 A2985 RMK AO2 SLP112 T00611056,M
BVU,2024-02-08 20:15,-114.8611,35.9475,671.00,48.20,30.20,49.53,230.00,12.00,0.00,29.86,M,10.00,M,FEW,BKN,M,M,4500.00,5000.00,M,M,M,M,M,M,M,M,M,42.62,KBVU 082015Z AUTO 23012KT 10SM FEW045 BKN050 09/M01 A2986 RMK AO2,M
CXP,2024-02-08 20:15,-119.7326,39.1923,1431.00,41.00,30.20,65.16,320.00,8.00,0.00,29.88,M,10.00,M,FEW,SCT,OVC,M,2500.00,5000.00,7000.00,M,M,M,M,M,M,M,M,35.20,KCXP 082015Z AUTO 32008KT 10SM FEW025 SCT050 OVC070 05/M01 A2988 RMK AO2,M
RTS,2024-02-08 20:15,-119.8764,39.6682,1539.00,32.00,26.60,80.22,0.00,0.00,0.00,29.89,M,10.00,M,OVC,M,M,M,1500.00,M,M,M,M,M,M,M,M,M,M,32.00,KRTS 082015Z AUTO 00000KT 10SM OVC015 00/M03 A2989 RMK AO2,M
05U,2024-02-08 20:15,-116.0051,39.6042,1811.23,35.60,23.00,59.79,180.00,5.00,0.00,29.80,M,10.00,M,M,M,M,M,M,M,M,M,M,M,M,M,M,M,M,30.67,K05U 082015Z AUTO 18005KT 10SM 02/M05 A2980 RMK A01,M
MEV,2024-02-08 20:15,-119.7500,38.9963,1441.42,35.60,24.80,64.46,0.00,0.00,0.00,29.87,M,10.00,M,BKN,OVC,M,M,6000.00,6500.00,M,M,M,M,M,M,M,M,M,35.60,KMEV 082015Z AUTO 00000KT 10SM BKN060 OVC065 02/M04 A2987 RMK AO2,M
BAM,2024-02-08 20:15,-116.8743,40.5990,1382.36,39.20,32.00,75.16,0.00,0.00,0.00,29.85,M,10.00,M,SCT,BKN,M,M,1400.00,6500.00,M,M,M,M,M,M,M,M,M,39.20,KBAM 082015Z AUTO 00000KT 10SM SCT014 BKN065 04/00 A2985 RMK AO1,M
HTH,2024-02-08 20:15,-118.6315,38.5448,1282.89,37.40,28.40,69.67,310.00,6.00,0.00,29.89,M,10.00,M,OVC,M,M,M,3700.00,M,M,M,M,M,M,M,M,M,M,32.03,KHTH 082015Z AUTO 31006KT 10SM OVC037 03/M02 A2989 RMK A01,M
10U,2024-02-08 20:15,-116.1876,41.9532,1637.00,33.80,21.20,59.53,310.00,6.00,0.00,29.83,M,10.00,M,SCT,OVC,M,M,4400.00,9000.00,M,M,M,M,M,M,M,M,M,27.70,K10U 082015Z AUTO 31006KT 10SM SCT044 OVC090 01/M06 A2983 RMK AO2,M
TMT,2024-02-08 20:15,-117.1971,39.4643,1749.34,35.00,24.80,66.02,110.00,3.00,0.00,29.82,M,10.00,M,SCT,SCT,BKN,M,2800.00,3400.00,3900.00,M,M,M,M,M,M,M,M,32.12,KTMT 082015Z AUTO 11003KT 10SM SCT028 SCT034 BKN039 02/M04 A2982 RMK AO2 T00171040,M
DRA,2024-02-08 20:21,-116.0278,36.6206,1009.00,41.00,30.00,64.63,240.00,8.00,0.00,29.84,M,10.00,M,OVC,M,M,M,2800.00,M,M,M,M,M,M,M,M,M,M,35.20,KDRA 082021Z AUTO 24008KT 10SM OVC028 05/M01 A2984 RMK AO2 T00501011,M
BVU,2024-02-08 20:35,-114.8611,35.9475,671.00,46.40,30.20,53.00,210.00,11.00,0.00,29.85,M,10.00,M,BKN,OVC,M,M,4800.00,5500.00,M,M,M,M,M,M,M,M,M,40.66,KBVU 082035Z AUTO 21011KT 10SM BKN048 OVC055 08/M01 A2985 RMK AO2,M
CXP,2024-02-08 20:35,-119.7326,39.1923,1431.00,39.20,30.20,69.88,330.00,10.00,0.00,29.88,M,10.00,M,FEW,SCT,OVC,M,2600.00,5500.00,6500.00,M,M,M,M,M,M,M,M,32.00,KCXP 082035Z AUTO 33010KT 10SM FEW026 SCT055 OVC065 04/M01 A2988 RMK AO2,M
RTS,2024-02-08 20:35,-119.8764,39.6682,1539.00,32.00,26.60,80.22,0.00,0.00,0.00,29.88,M,10.00,M,BKN,BKN,OVC,M,1600.00,2200.00,4400.00,M,M,M,M,M,M,M,M,32.00,KRTS 082035Z AUTO 00000KT 10SM BKN016 BKN022 OVC044 00/M03 A2988 RMK AO2,M
05U,2024-02-08 20:35,-116.0051,39.6042,1811.23,39.20,23.00,51.89,M,6.00,0.00,29.79,M,10.00,M,M,M,M,M,M,M,M,M,M,M,M,M,M,M,M,34.20,K05U 082035Z AUTO VRB06KT 10SM 04/M05 A2979 RMK A01,M
MEV,2024-02-08 20:35,-119.7500,38.9963,1441.42,37.40,26.60,64.70,0.00,0.00,0.00,29.86,M,10.00,M,SCT,OVC,M,M,6000.00,7000.00,M,M,M,M,M,M,M,M,M,37.40,KMEV 082035Z AUTO 00000KT 10SM SCT060 OVC070 03/M03 A2986 RMK AO2,M
BAM,2024-02-08 20:35,-116.8743,40.5990,1382.36,39.20,32.00,75.16,0.00,0.00,0.00,29.85,M,10.00,M,SCT,SCT,BKN,M,1600.00,2400.00,6500.00,M,M,M,M,M,M,M,M,39.20,KBAM 082035Z AUTO 00000KT 10SM SCT016 SCT024 BKN065 04/00 A2985 RMK AO1,M
HTH,2024-02-08 20:35,-118.6315,38.5448,1282.89,37.40,30.20,74.98,300.00,8.00,0.00,29.89,M,10.00,M,OVC,M,M,M,3700.00,M,M,M,M,M,M,M,M,M,M,30.76,KHTH 082035Z AUTO 30008KT 10SM OVC037 03/M01 A2989 RMK A01,M
10U,2024-02-08 20:35,-116.1876,41.9532,1637.00,33.80,24.80,69.25,300.00,7.00,0.00,29.83,M,10.00,12.00,OVC,M,M,M,9000.00,M,M,M,M,M,M,M,M,M,M,26.97,K10U 082035Z AUTO 30007G12KT 10SM OVC090 01/M04 A2983 RMK AO2,M
TMT,2024-02-08 20:35,-117.1971,39.4643,1749.34,35.00,24.00,63.85,0.00,0.00,0.00,29.82,M,10.00,M,BKN,OVC,M,M,3000.00,4100.00,M,M,M,M,M,M,M,M,M,35.00,KTMT 082035Z AUTO 00000KT 10SM BKN030 OVC041 02/M04 A2982 RMK AO2 T00171045,M
05U,2024-02-08 20:50,-116.0051,39.6042,1811.23,37.40,23.00,55.68,160.00,5.00,0.00,29.79,M,10.00,M,M,M,M,M,M,M,M,M,M,M,M,M,M,M,M,32.81,K05U 082050Z AUTO 16005KT 10SM 03/M05 A2979 RMK A01,M
DRA,2024-02-08 20:53,-116.0278,36.6206,1009.00,41.00,30.00,64.63,240.00,10.00,0.00,29.83,1009.50,10.00,M,OVC,M,M,M,3000.00,M,M,M,M,M,M,M,M,M,M,34.25,KDRA 082053Z AUTO 24010KT 10SM OVC030 05/M01 A2983 RMK AO2 SLP095 T00501011 56009,M
ELY,2024-02-08 20:53,-114.8453,39.2950,1909.00,39.00,24.00,54.54,340.00,6.00,0.00,29.73,1006.30,10.00,M,SCT,M,M,M,3200.00,M,M,M,M,M,M,M,M,M,M,33.96,KELY 082053Z AUTO 34006KT 10SM SCT032 04/M04 A2973 RMK AO2 SLP063 T00391044 58014,M
VGT,2024-02-08 20:53,-115.1933,36.2111,667.00,48.00,31.00,51.54,360.00,7.00,0.00,29.84,1012.30,10.00,M,FEW,SCT,BKN,M,7000.00,9500.00,12000.00,M,M,M,M,M,M,M,M,44.28,KVGT 082053Z 36007KT 10SM FEW070 SCT095 BKN120 09/M01 A2984 RMK AO2 SLP123 T00891006 58004,M
LOL,2024-02-08 20:53,-118.5701,40.0684,1192.43,39.00,29.00,67.06,0.00,0.00,0.00,29.87,1012.50,10.00,M,OVC,M,M,M,7000.00,M,M,M,M,M,M,M,M,M,M,39.00,KLOL 082053Z AUTO 00000KT 10SM OVC070 04/M02 A2987 RMK AO2 SLP125 T00391017 58002,M
P68,2024-02-08 20:53,-116.0056,39.6014,1993.00,36.00,26.00,66.69,330.00,6.00,0.00,29.77,1007.50,M,M,M,M,M,M,M,M,M,M,M,M,M,M,M,M,M,30.35,KP68 082053Z AUTO 33006KT 02/M03 A2977 RMK AO1 SLP075 T00221033 58008,M
BVU,2024-02-08 20:55,-114.8611,35.9475,671.00,46.40,30.20,53.00,220.00,9.00,0.00,29.85,M,10.00,14.00,BKN,OVC,M,M,4700.00,6000.00,M,M,M,M,M,M,M,M,M,41.42,KBVU 082055Z AUTO 22009G14KT 10SM BKN047 OVC060 08/M01 A2985 RMK AO2,M
CXP,2024-02-08 20:55,-119.7326,39.1923,1431.00,37.40,28.40,69.67,330.00,10.00,0.00,29.87,M,10.00,M,OVC,M,M,M,7000.00,M,M,M,M,M,M,M,M,M,M,29.74,KCXP 082055Z AUTO 33010KT 10SM OVC070 03/M02 A2987 RMK AO2,M
RNO,2024-02-08 20:55,-119.7711,39.4839,1341.00,39.00,26.00,59.27,10.00,4.00,0.00,29.88,1011.80,10.00,M,FEW,BKN,M,M,2500.00,6000.00,M,M,M,M,M,M,M,M,M,35.59,KRNO 082055Z 01004KT 10SM FEW025 BKN060 04/M03 A2988 RMK AO2 SLP118 T00391033 58005,M
LSV,2024-02-08 20:55,-115.0343,36.2362,570.00,48.70,26.60,41.94,190.00,3.00,0.00,29.82,1009.60,10.00,M,SCT,SCT,M,M,5000.00,18000.00,M,M,M,M,M,M,M,M,M,47.78,KLSV 082055Z AUTO 19003KT 10SM SCT050 SCT180 09/M03 A2982 RMK AO2 SLP096 T00931030 58006 $,M
RTS,2024-02-08 20:55,-119.8764,39.6682,1539.00,33.80,26.60,74.63,0.00,0.00,0.00,29.88,M,10.00,M,SCT,OVC,M,M,1500.00,2100.00,M,M,M,M,M,M,M,M,M,33.80,KRTS 082055Z AUTO 00000KT 10SM SCT015 OVC021 01/M03 A2988 RMK AO2,M
MEV,2024-02-08 20:55,-119.7500,38.9963,1441.42,35.60,26.60,69.46,0.00,0.00,0.00,29.86,M,10.00,M,OVC,M,M,M,7000.00,M,M,M,M,M,M,M,M,M,M,35.60,KMEV 082055Z AUTO 00000KT 10SM OVC070 02/M03 A2986 RMK AO2,M
BAM,2024-02-08 20:55,-116.8743,40.5990,1382.36,39.20,32.00,75.16,0.00,0.00,0.00,29.84,M,10.00,M,SCT,BKN,M,M,2100.00,6500.00,M,M,M,M,M,M,M,M,M,39.20,KBAM 082055Z AUTO 00000KT 10SM SCT021 BKN065 04/00 A2984 RMK AO1,M
HTH,2024-02-08 20:55,-118.6315,38.5448,1282.89,37.40,30.20,74.98,300.00,8.00,0.00,29.88,M,10.00,M,OVC,M,M,M,3600.00,M,M,M,M,M,M,M,M,M,M,30.76,KHTH 082055Z AUTO 30008KT 10SM OVC036 03/M01 A2988 RMK A01,M
TMT,2024-02-08 20:55,-117.1971,39.4643,1749.34,34.70,24.60,66.26,40.00,5.00,0.00,29.82,M,10.00,M,BKN,OVC,M,M,3000.00,3800.00,M,M,M,M,M,M,M,M,M,29.60,KTMT 082055Z AUTO 04005KT 10SM BKN030 OVC038 02/M04 A2982 RMK AO2 T00151041,M
10U,2024-02-08 20:55,-116.1876,41.9532,1637.00,33.80,23.00,64.23,330.00,10.00,0.00,29.83,M,10.00,M,BKN,OVC,M,M,5000.00,9000.00,M,M,M,M,M,M,M,M,M,25.23,K10U 082055Z AUTO 33010KT 10SM BKN050 OVC090 01/M05 A2983 RMK AO2,M
INS,2024-02-08 20:55,-115.6733,36.5872,955.00,38.50,29.00,68.39,0.00,0.00,0.00,29.84,1009.90,10.00,M,BKN,BKN,OVC,M,4100.00,4800.00,6000.00,M,M,M,M,M,M,M,M,38.50,KINS 082055Z AUTO 00000KT 10SM BKN041 BKN048 OVC060 04/M02 A2984 RMK AO2 SLP099 60013 T00361016 58009 $,M
EKO,2024-02-08 20:56,-115.7860,40.8242,1367.00,39.00,22.00,50.14,300.00,6.00,0.00,29.79,1009.60,10.00,M,FEW,BKN,OVC,M,4500.00,5500.00,7000.00,M,M,M,M,M,M,M,M,33.96,KEKO 082056Z AUTO 30006KT 10SM FEW045 BKN055 OVC070 04/M06 A2979 RMK AO2 SLP096 60000 T00391056 58006,M
NFL,2024-02-08 20:56,-118.7010,39.4166,1199.00,42.00,31.00,64.75,220.00,3.00,0.00,29.87,1009.00,10.00,M,SCT,BKN,BKN,M,2500.00,4000.00,9000.00,M,M,M,M,M,M,M,M,40.12,KNFL 082056Z 22003KT 10SM SCT025 BKN040 BKN090 06/M01 A2987 RMK AO2 SLP090 T00561006 58003,M
HND,2024-02-08 20:56,-115.1344,35.9729,742.79,46.00,29.00,51.24,200.00,6.00,0.00,29.86,1013.20,10.00,M,SCT,BKN,BKN,M,4500.00,5500.00,9500.00,M,M,M,M,M,M,M,M,42.39,KHND 082056Z 20006KT 10SM SCT045 BKN055 BKN095 08/M02 A2986 RMK AO2 SLP132 T00781017 58004,M
TPH,2024-02-08 20:56,-117.0904,38.0505,1654.00,38.00,28.00,66.94,310.00,17.00,0.00,29.78,1008.50,10.00,M,CLR,M,M,M,M,M,M,M,M,M,M,M,M,M,M,27.94,KTPH 082056Z AUTO 31017KT 10SM CLR 03/M02 A2978 RMK AO2 SLP085 T00331022 58004,M
LAS,2024-02-08 20:56,-115.1634,36.0719,663.00,47.00,31.00,53.52,M,6.00,0.00,29.85,1010.50,10.00,M,FEW,SCT,BKN,M,4000.00,5000.00,10000.00,M,M,M,M,M,M,M,M,43.60,KLAS 082056Z VRB06KT 10SM FEW040 SCT050 BKN100 08/M01 A2985 RMK AO2 SLP105 T00831006 58004,M
WMC,2024-02-08 20:56,-117.8072,40.9019,1315.00,40.00,24.00,52.45,330.00,8.00,0.00,29.85,1011.50,10.00,M,OVC,M,M,M,4900.00,M,M,M,M,M,M,M,M,M,M,33.97,KWMC 082056Z AUTO 33008KT 10SM OVC049 04/M04 A2985 RMK AO2 SLP115 T00441044 58004,M
BVU,2024-02-08 21:15,-114.8611,35.9475,671.00,46.40,30.20,53.00,190.00,6.00,0.00,29.84,M,10.00,M,BKN,OVC,M,M,4500.00,5500.00,M,M,M,M,M,M,M,M,M,42.87,KBVU 082115Z AUTO 19006KT 10SM BKN045 OVC055 08/M01 A2984 RMK AO2,M
CXP,2024-02-08 21:15,-119.7326,39.1923,1431.00,39.20,28.40,64.93,320.00,11.00,0.00,29.87,M,10.00,M,BKN,BKN,M,M,6500.00,7500.00,M,M,M,M,M,M,M,M,M,31.57,KCXP 082115Z AUTO 32011KT 10SM BKN065 BKN075 04/M02 A2987 RMK AO2,M
RTS,2024-02-08 21:15,-119.8764,39.6682,1539.00,33.80,26.60,74.63,M,3.00,0.00,29.88,M,10.00,M,FEW,BKN,OVC,M,1700.00,2300.00,2900.00,M,M,M,M,M,M,M,M,30.75,KRTS 082115Z AUTO VRB03KT 10SM FEW017 BKN023 OVC029 01/M03 A2988 RMK AO2,M
05U,2024-02-08 21:15,-116.0051,39.6042,1811.23,M,M,M,150.00,9.00,0.00,29.79,M,7.00,M,M,M,M,M,M,M,M,M,M,M,M,M,M,M,M,M,K05U 082115Z AUTO 15009KT 7SM A2979 RMK A01,M
MEV,2024-02-08 21:15,-119.7500,38.9963,1441.42,35.60,26.60,69.46,0.00,0.00,0.00,29.86,M,10.00,M,OVC,M,M,M,7000.00,M,M,M,M,M,M,M,M,M,M,35.60,KMEV 082115Z AUTO 00000KT 10SM OVC070 02/M03 A2986 RMK AO2,M
BAM,2024-02-08 21:15,-116.8743,40.5990,1382.36,39.20,30.20,69.88,0.00,0.00,0.00,29.84,M,10.00,M,SCT,BKN,OVC,M,2100.00,4400.00,6500.00,M,M,M,M,M,M,M,M,39.20,KBAM 082115Z AUTO 00000KT 10SM SCT021 BKN044 OVC065 04/M01 A2984 RMK AO1,M
HTH,2024-02-08 21:15,-118.6315,38.5448,1282.89,37.40,30.20,74.98,280.00,7.00,0.00,29.88,M,10.00,M,OVC,M,M,M,3500.00,M,M,M,M,M,M,M,M,M,M,31.36,KHTH 082115Z AUTO 28007KT 10SM OVC035 03/M01 A2988 RMK A01,M
10U,2024-02-08 21:15,-116.1876,41.9532,1637.00,33.80,23.00,64.23,310.00,8.00,0.00,29.83,M,10.00,M,FEW,OVC,M,M,2300.00,4800.00,M,M,M,M,M,M,M,M,M,26.33,K10U 082115Z AUTO 31008KT 10SM FEW023 OVC048 01/M05 A2983 RMK AO2,M
TMT,2024-02-08 21:15,-117.1971,39.4643,1749.34,35.60,24.40,63.40,40.00,4.00,0.00,29.81,M,10.00,M,SCT,OVC,M,M,3800.00,4900.00,M,M,M,M,M,M,M,M,M,31.62,KTMT 082115Z AUTO 04004KT 10SM SCT038 OVC049 02/M04 A2981 RMK AO2 T00201042,M
BVU,2024-02-08 21:35,-114.8611,35.9475,671.00,46.40,28.40,49.24,250.00,5.00,0.00,29.84,M,10.00,10.00,FEW,SCT,OVC,M,4400.00,4900.00,6000.00,M,M,M,M,M,M,M,M,43.50,KBVU 082135Z AUTO 25005G10KT 10SM FEW044 SCT049 OVC060 08/M02 A2984 RMK AO2,M
CXP,2024-02-08 21:35,-119.7326,39.1923,1431.00,37.40,28.40,69.67,320.00,10.00,0.00,29.87,M,10.00,M,OVC,M,M,M,7000.00,M,M,M,M,M,M,M,M,M,M,29.74,KCXP 082135Z AUTO 32010KT 10SM OVC070 03/M02 A2987 RMK AO2,M
RTS,2024-02-08 21:35,-119.8764,39.6682,1539.00,33.80,26.60,74.63,0.00,0.00,0.00,29.88,M,10.00,M,FEW,BKN,OVC,M,1700.00,2500.00,3000.00,M,M,M,M,M,M,M,M,33.80,KRTS 082135Z AUTO 00000KT 10SM FEW017 BKN025 OVC030 01/M03 A2988 RMK AO2,M
05U,2024-02-08 21:35,-116.0051,39.6042,1811.23,35.60,26.60,69.46,130.00,5.00,0.00,29.80,M,7.00,M,M,M,M,M,M,M,M,M,M,M,M,M,M,M,M,30.67,K05U 082135Z AUTO 13005KT 7SM 02/M03 A2980 RMK A01,M
MEV,2024-02-08 21:35,-119.7500,38.9963,1441.42,35.60,26.60,69.46,0.00,0.00,0.00,29.86,M,10.00,M,SCT,BKN,BKN,M,5500.00,6500.00,7000.00,M,M,M,M,M,M,M,M,35.60,KMEV 082135Z AUTO 00000KT 10SM SCT055 BKN065 BKN070 02/M03 A2986 RMK AO2,M
BAM,2024-02-08 21:35,-116.8743,40.5990,1382.36,37.40,32.00,80.65,280.00,12.00,0.00,29.84,M,10.00,M,SCT,BKN,OVC,M,2300.00,3400.00,5000.00,M,M,M,M,M,M,M,M,28.87,KBAM 082135Z AUTO 28012KT 10SM SCT023 BKN034 OVC050 03/00 A2984 RMK AO1,M
HTH,2024-02-08 21:35,-118.6315,38.5448,1282.89,37.40,30.20,74.98,300.00,6.00,0.00,29.87,M,10.00,M,OVC,M,M,M,3500.00,M,M,M,M,M,M,M,M,M,M,32.03,KHTH 082135Z AUTO 30006KT 10SM OVC035 03/M01 A2987 RMK A01,M
10U,2024-02-08 21:35,-116.1876,41.9532,1637.00,33.80,24.80,69.25,320.00,8.00,0.00,29.83,M,10.00,M,FEW,BKN,OVC,M,2300.00,4700.00,8500.00,M,M,M,M,M,M,M,M,26.33,K10U 082135Z AUTO 32008KT 10SM FEW023 BKN047 OVC085 01/M04 A2983 RMK AO2,M
TMT,2024-02-08 21:35,-117.1971,39.4643,1749.34,36.70,25.00,62.23,30.00,8.00,0.00,29.81,M,10.00,M,SCT,BKN,OVC,M,3200.00,3800.00,4700.00,M,M,M,M,M,M,M,M,29.90,KTMT 082135Z AUTO 03008KT 10SM SCT032 BKN038 OVC047 03/M04 A2981 RMK AO2 T00261039,M
DRA,2024-02-08 21:53,-116.0278,36.6206,1009.00,42.00,32.00,67.42,250.00,10.00,0.00,29.84,1009.70,10.00,M,BKN,OVC,M,M,3000.00,4000.00,M,M,M,M,M,M,M,M,M,35.51,KDRA 082153Z AUTO 25010KT 10SM BKN030 OVC040 06/00 A2984 RMK AO2 SLP097 T00560000,M
ELY,2024-02-08 21:53,-114.8453,39.2950,1909.00,33.00,25.00,72.11,290.00,14.00,0.00,29.73,1007.70,10.00,M,BKN,M,M,M,9500.00,M,M,M,M,M,M,M,M,M,M,22.45,KELY 082153Z AUTO 29014KT 10SM BKN095 01/M04 A2973 RMK AO2 SLP077 T00061039,M
VGT,2024-02-08 21:53,-115.1933,36.2111,667.00,49.00,30.00,47.68,350.00,8.00,0.00,29.84,1012.20,10.00,M,SCT,M,M,M,6000.00,M,M,M,M,M,M,M,M,M,M,45.05,KVGT 082153Z 35008KT 10SM SCT060 09/M01 A2984 RMK AO2 SLP122 T00941011,M
LOL,2024-02-08 21:53,-118.5701,40.0684,1192.43,41.00,29.00,62.04,0.00,0.00,0.00,29.87,1012.20,10.00,M,OVC,M,M,M,7000.00,M,M,M,M,M,M,M,M,M,M,41.00,KLOL 082153Z AUTO 00000KT 10SM OVC070 05/M02 A2987 RMK AO2 SLP122 T00501017,M
P68,2024-02-08 21:53,-116.0056,39.6014,1993.00,35.00,25.00,66.57,350.00,5.00,0.00,29.77,1008.20,M,M,M,M,M,M,M,M,M,M,M,M,M,M,M,M,M,29.96,KP68 082153Z AUTO 35005KT 02/M04 A2977 RMK AO1 SLP082 T00171039,M
BVU,2024-02-08 21:55,-114.8611,35.9475,671.00,48.20,28.40,46.02,330.00,5.00,0.00,29.84,M,10.00,M,SCT,BKN,M,M,4800.00,6000.00,M,M,M,M,M,M,M,M,M,45.63,KBVU 082155Z AUTO 33005KT 10SM SCT048 BKN060 09/M02 A2984 RMK AO2,M
CXP,2024-02-08 21:55,-119.7326,39.1923,1431.00,37.40,28.40,69.67,320.00,12.00,0.00,29.87,M,10.00,M,BKN,M,M,M,7000.00,M,M,M,M,M,M,M,M,M,M,28.87,KCXP 082155Z AUTO 32012KT 10SM BKN070 03/M02 A2987 RMK AO2,M
RNO,2024-02-08 21:55,-119.7711,39.4839,1341.00,40.00,26.00,57.01,20.00,4.00,0.00,29.88,1011.70,10.00,M,FEW,BKN,M,M,3000.00,7000.00,M,M,M,M,M,M,M,M,M,36.76,KRNO 082155Z 02004KT 10SM FEW030 BKN070 04/M03 A2988 RMK AO2 SLP117 SH VC SW AND W T00441033,M
LSV,2024-02-08 21:55,-115.0343,36.2362,570.00,49.30,24.80,38.06,0.00,0.00,0.00,29.82,1009.50,10.00,M,CLR,M,M,M,M,M,M,M,M,M,M,M,M,M,M,49.30,KLSV 082155Z AUTO 00000KT 10SM CLR 10/M04 A2982 RMK AO2 SLP095 T00961040 $,M
RTS,2024-02-08 21:55,-119.8764,39.6682,1539.00,33.80,26.60,74.63,0.00,0.00,0.00,29.88,M,10.00,M,BKN,OVC,M,M,2600.00,3700.00,M,M,M,M,M,M,M,M,M,33.80,KRTS 082155Z AUTO 00000KT 10SM BKN026 OVC037 01/M03 A2988 RMK AO2,M
05U,2024-02-08 21:55,-116.0051,39.6042,1811.23,35.60,24.80,64.46,M,4.00,0.00,29.80,M,10.00,M,M,M,M,M,M,M,M,M,M,M,M,M,M,M,M,31.62,K05U 082155Z AUTO VRB04KT 10SM 02/M04 A2980 RMK A01,M
MEV,2024-02-08 21:55,-119.7500,38.9963,1441.42,35.60,24.80,64.46,0.00,0.00,0.00,29.86,M,10.00,M,FEW,BKN,M,M,5500.00,7000.00,M,M,M,M,M,M,M,M,M,35.60,KMEV 082155Z AUTO 00000KT 10SM FEW055 BKN070 02/M04 A2986 RMK AO2,M
BAM,2024-02-08 21:55,-116.8743,40.5990,1382.36,33.80,33.80,100.00,240.00,7.00,0.00,29.85,M,1.25,M,BKN,BKN,OVC,M,1000.00,1500.00,2200.00,M,M,M,M,M,M,M,M,26.97,KBAM 082155Z AUTO 24007KT 1 1/4SM BKN010 BKN015 OVC022 01/01 A2985 RMK AO1,M
HTH,2024-02-08 21:55,-118.6315,38.5448,1282.89,37.40,28.40,69.67,290.00,7.00,0.00,29.87,M,10.00,M,BKN,M,M,M,3500.00,M,M,M,M,M,M,M,M,M,M,31.36,KHTH 082155Z AUTO 29007KT 10SM BKN035 03/M02 A2987 RMK A01,M
TMT,2024-02-08 21:55,-117.1971,39.4643,1749.34,36.00,24.00,61.37,330.00,8.00,0.00,29.82,M,10.00,M,SCT,BKN,OVC,M,3000.00,5000.00,6000.00,M,M,M,M,M,M,M,M,29.04,KTMT 082155Z AUTO 33008KT 10SM SCT030 BKN050 OVC060 02/M04 A2982 RMK AO2 T00221044,M
10U,2024-02-08 21:55,-116.1876,41.9532,1637.00,33.80,23.00,64.23,M,6.00,0.00,29.83,M,10.00,M,FEW,SCT,BKN,M,2400.00,4800.00,7500.00,M,M,M,M,M,M,M,M,27.70,K10U 082155Z AUTO VRB06KT 10SM FEW024 SCT048 BKN075 01/M05 A2983 RMK AO2,M
INS,2024-02-08 21:55,-115.6733,36.5872,955.00,39.00,29.00,67.06,20.00,5.00,0.00,29.84,1009.90,10.00,M,OVC,M,M,M,3800.00,M,M,M,M,M,M,M,M,M,M,34.71,KINS 082155Z AUTO 02005KT 10SM OVC038 04/M02 A2984 RMK AO2 SLP099 T00391017 $,M
EKO,2024-02-08 21:56,-115.7860,40.8242,1367.00,39.00,22.00,50.14,280.00,6.00,0.00,29.79,1009.40,10.00,M,FEW,OVC,M,M,4000.00,7000.00,M,M,M,M,M,M,M,M,M,33.96,KEKO 082156Z AUTO 28006KT 10SM FEW040 OVC070 04/M06 A2979 RMK AO2 SLP094 T00391056,M
HND,2024-02-08 21:56,-115.1344,35.9729,742.79,47.00,27.00,45.45,M,3.00,0.00,29.86,1013.10,10.00,M,SCT,M,M,M,4100.00,M,M,M,M,M,M,M,M,M,M,45.84,KHND 082156Z VRB03KT 10SM SCT041 08/M03 A2986 RMK AO2 SLP131 T00831028,M
TPH,2024-02-08 21:56,-117.0904,38.0505,1654.00,39.00,28.00,64.37,300.00,14.00,0.00,29.79,1008.70,10.00,24.00,FEW,M,M,M,3200.00,M,M,M,M,M,M,M,M,M,M,30.19,KTPH 082156Z AUTO 30014G24KT 10SM FEW032 04/M02 A2979 RMK AO2 SLP087 T00391022,M
LAS,2024-02-08 21:56,-115.1634,36.0719,663.00,47.00,28.00,47.36,M,4.00,0.00,29.84,1010.50,10.00,M,SCT,SCT,M,M,4500.00,10000.00,M,M,M,M,M,M,M,M,M,44.94,KLAS 082156Z VRB04KT 10SM SCT045 SCT100 08/M02 A2984 RMK AO2 SLP105 T00831022,M
WMC,2024-02-08 21:56,-117.8072,40.9019,1315.00,40.00,23.00,50.30,M,3.00,0.00,29.85,1011.70,10.00,M,OVC,M,M,M,3900.00,M,M,M,M,M,M,M,M,M,M,37.83,KWMC 082156Z AUTO VRB03KT 10SM OVC039 04/M05 A2985 RMK AO2 SLP117 T00441050,M
NFL,2024-02-08 21:56,-118.7010,39.4166,1199.00,42.00,29.00,59.69,170.00,3.00,0.00,29.86,1008.80,10.00,M,SCT,BKN,BKN,M,2500.00,4000.00,9000.00,M,M,M,M,M,M,M,M,40.12,KNFL 082156Z COR 17003KT 10SM SCT025 BKN040 BKN090 06/M02 A2986 RMK AO2 SLP088 T00561017,M
05U,2024-02-08 22:10,-116.0051,39.6042,1811.23,35.60,24.80,64.46,170.00,7.00,0.00,29.80,M,10.00,M,M,M,M,M,M,M,M,M,M,M,M,M,M,M,M,29.17,K05U 082210Z AUTO 17007KT 10SM 02/M04 A2980 RMK A01,M
BVU,2024-02-08 22:15,-114.8611,35.9475,671.00,48.20,26.60,42.73,240.00,3.00,0.00,29.85,M,10.00,M,SCT,BKN,M,M,4700.00,6000.00,M,M,M,M,M,M,M,M,M,47.21,KBVU 082215Z AUTO 24003KT 10SM SCT047 BKN060 09/M03 A2985 RMK AO2,M
CXP,2024-02-08 22:15,-119.7326,39.1923,1431.00,37.40,28.40,69.67,330.00,12.00,0.00,29.87,M,10.00,M,FEW,BKN,M,M,5500.00,7000.00,M,M,-RA,M,M,M,M,M,M,28.87,KCXP 082215Z AUTO 33012KT 10SM -RA FEW055 BKN070 03/M02 A2987 RMK AO2,M
RTS,2024-02-08 22:15,-119.8764,39.6682,1539.00,35.60,23.00,59.79,300.00,4.00,0.00,29.88,M,10.00,M,FEW,SCT,BKN,M,2700.00,3500.00,4300.00,M,M,M,M,M,M,M,M,31.62,KRTS 082215Z AUTO 30004KT 10SM FEW027 SCT035 BKN043 02/M05 A2988 RMK AO2,M
MEV,2024-02-08 22:15,-119.7500,38.9963,1441.42,35.60,28.40,74.80,350.00,7.00,0.00,29.86,M,10.00,M,FEW,SCT,M,M,4800.00,7500.00,M,M,M,M,M,M,M,M,M,29.17,KMEV 082215Z AUTO 35007KT 10SM FEW048 SCT075 02/M02 A2986 RMK AO2,M
BAM,2024-02-08 22:15,-116.8743,40.5990,1382.36,33.80,32.00,93.03,180.00,8.00,0.00,29.84,M,2.00,M,BKN,OVC,M,M,1000.00,1500.00,M,M,M,M,M,M,M,M,M,26.33,KBAM 082215Z AUTO 18008KT 2SM BKN010 OVC015 01/00 A2984 RMK AO1 VIS 1V5,M
HTH,2024-02-08 22:15,-118.6315,38.5448,1282.89,37.40,28.40,69.67,290.00,6.00,0.00,29.88,M,10.00,M,SCT,M,M,M,3700.00,M,M,M,M,M,M,M,M,M,M,32.03,KHTH 082215Z AUTO 29006KT 10SM SCT037 03/M02 A2988 RMK A01,M
10U,2024-02-08 22:15,-116.1876,41.9532,1637.00,33.80,23.00,64.23,310.00,8.00,0.00,29.83,M,10.00,M,FEW,SCT,BKN,M,2400.00,3100.00,3800.00,M,M,M,M,M,M,M,M,26.33,K10U 082215Z AUTO 31008KT 10SM FEW024 SCT031 BKN038 01/M05 A2983 RMK AO2,M
TMT,2024-02-08 22:15,-117.1971,39.4643,1749.34,36.00,25.00,63.98,340.00,10.00,0.00,29.82,M,10.00,M,SCT,OVC,M,M,2800.00,5000.00,M,M,M,M,M,M,M,M,M,27.98,KTMT 082215Z AUTO 34010KT 10SM SCT028 OVC050 02/M04 A2982 RMK AO2 T00231038,M
05U,2024-02-08 22:30,-116.0051,39.6042,1811.23,35.60,23.00,59.79,150.00,5.00,0.00,29.80,M,10.00,11.00,M,M,M,M,M,M,M,M,M,M,M,M,M,M,M,30.67,K05U 082230Z AUTO 15005G11KT 10SM 02/M05 A2980 RMK A01,M
BVU,2024-02-08 22:35,-114.8611,35.9475,671.00,46.40,26.60,45.73,250.00,3.00,0.00,29.86,M,10.00,M,BKN,M,M,M,6000.00,M,M,M,M,M,M,M,M,M,M,45.15,KBVU 082235Z AUTO 25003KT 10SM BKN060 08/M03 A2986 RMK AO2,M
CXP,2024-02-08 22:35,-119.7326,39.1923,1431.00,37.40,28.40,69.67,320.00,12.00,0.00,29.88,M,8.00,M,FEW,FEW,SCT,M,1400.00,3200.00,5000.00,M,-RA,M,M,M,M,M,M,28.87,KCXP 082235Z AUTO 32012KT 8SM -RA FEW014 FEW032 SCT050 03/M02 A2988 RMK AO2,M
RTS,2024-02-08 22:35,-119.8764,39.6682,1539.00,35.60,23.00,59.79,320.00,4.00,0.00,29.88,M,10.00,M,FEW,SCT,BKN,M,3600.00,4300.00,5500.00,M,M,M,M,M,M,M,M,31.62,KRTS 082235Z AUTO 32004KT 10SM FEW036 SCT043 BKN055 02/M05 A2988 RMK AO2,M
MEV,2024-02-08 22:35,-119.7500,38.9963,1441.42,37.40,26.60,64.70,320.00,4.00,0.00,29.87,M,10.00,M,FEW,BKN,BKN,M,4300.00,5000.00,7500.00,M,M,M,M,M,M,M,M,33.73,KMEV 082235Z AUTO 32004KT 10SM FEW043 BKN050 BKN075 03/M03 A2987 RMK AO2,M
BAM,2024-02-08 22:35,-116.8743,40.5990,1382.36,33.80,33.80,100.00,180.00,4.00,0.00,29.85,M,10.00,M,SCT,BKN,OVC,M,1200.00,4800.00,6000.00,M,M,M,M,M,M,M,M,29.52,KBAM 082235Z AUTO 18004KT 10SM SCT012 BKN048 OVC060 01/01 A2985 RMK AO1,M
HTH,2024-02-08 22:35,-118.6315,38.5448,1282.89,39.20,28.40,64.93,280.00,8.00,0.00,29.88,M,10.00,M,SCT,M,M,M,3900.00,M,M,M,M,M,M,M,M,M,M,32.98,KHTH 082235Z AUTO 28008KT 10SM SCT039 04/M02 A2988 RMK A01,M
10U,2024-02-08 22:35,-116.1876,41.9532,1637.00,35.60,24.80,64.46,320.00,11.00,0.00,29.84,M,10.00,M,FEW,SCT,BKN,M,2700.00,3100.00,3900.00,M,M,M,M,M,M,M,M,27.02,K10U 082235Z AUTO 32011KT 10SM FEW027 SCT031 BKN039 02/M04 A2984 RMK AO2,M
TMT,2024-02-08 22:35,-117.1971,39.4643,1749.34,35.40,24.80,64.98,340.00,8.00,0.00,29.83,M,10.00,M,SCT,SCT,OVC,M,2600.00,4200.00,5000.00,M,M,M,M,M,M,M,M,28.30,KTMT 082235Z AUTO 34008KT 10SM SCT026 SCT042 OVC050 02/M04 A2983 RMK AO2 T00191040,M
05U,2024-02-08 22:50,-116.0051,39.6042,1811.23,35.60,24.80,64.46,130.00,10.00,0.00,29.81,M,10.00,M,M,M,M,M,M,M,M,M,M,M,M,M,M,M,M,27.48,K05U 082250Z AUTO 13010KT 10SM 02/M04 A2981 RMK A01,M
DRA,2024-02-08 22:53,-116.0278,36.6206,1009.00,41.00,30.00,64.63,240.00,10.00,0.00,29.86,1010.40,10.00,M,BKN,OVC,M,M,3300.00,6500.00,M,M,M,M,M,M,M,M,M,34.25,KDRA 082253Z AUTO 24010KT 10SM BKN033 OVC065 05/M01 A2986 RMK AO2 SLP104 T00501011,M
ELY,2024-02-08 22:53,-114.8453,39.2950,1909.00,35.00,25.00,66.57,320.00,9.00,0.00,29.75,1008.20,10.00,M,SCT,M,M,M,9000.00,M,M,M,M,M,M,M,M,M,M,27.24,KELY 082253Z AUTO 32009KT 10SM SCT090 02/M04 A2975 RMK AO2 SLP082 T00171039,M
VGT,2024-02-08 22:53,-115.1933,36.2111,667.00,49.00,30.00,47.68,310.00,10.00,0.00,29.85,1012.90,10.00,M,CLR,M,M,M,M,M,M,M,M,M,M,M,M,M,M,44.29,KVGT 082253Z 31010KT 10SM CLR 09/M01 A2985 RMK AO2 SLP129 T00941011,M
LOL,2024-02-08 22:53,-118.5701,40.0684,1192.43,41.00,28.00,59.55,0.00,0.00,0.00,29.88,1012.80,10.00,M,FEW,BKN,OVC,M,3800.00,4700.00,7000.00,M,M,M,M,M,M,M,M,41.00,KLOL 082253Z AUTO 00000KT 10SM FEW038 BKN047 OVC070 05/M02 A2988 RMK AO2 SLP128 T00501022,M
P68,2024-02-08 22:53,-116.0056,39.6014,1993.00,36.00,26.00,66.69,340.00,9.00,0.00,29.79,1008.80,M,M,M,M,M,M,M,M,M,M,M,M,M,M,M,M,M,28.49,KP68 082253Z AUTO 34009KT 02/M03 A2979 RMK AO1 SLP088 T00221033,M
BVU,2024-02-08 22:55,-114.8611,35.9475,671.00,48.20,28.40,46.02,210.00,3.00,0.00,29.86,M,10.00,M,BKN,OVC,M,M,5000.00,6000.00,M,M,M,M,M,M,M,M,M,47.21,KBVU 082255Z AUTO 21003KT 10SM BKN050 OVC060 09/M02 A2986 RMK AO2,M
CXP,2024-02-08 22:55,-119.7326,39.1923,1431.00,35.60,30.20,80.51,330.00,9.00,0.00,29.89,M,3.00,M,FEW,FEW,BKN,M,300.00,1400.00,4300.00,M,-SN HZ,M,M,M,M,M,M,27.99,KCXP 082255Z AUTO 33009KT 3SM -SN HZ FEW003 FEW014 BKN043 02/M01 A2989 RMK AO2,M
RNO,2024-02-08 22:55,-119.7711,39.4839,1341.00,40.00,27.00,59.41,360.00,5.00,0.00,29.90,1012.30,10.00,M,FEW,BKN,M,M,3000.00,6500.00,M,M,M,M,M,M,M,M,M,35.90,KRNO 082255Z 36005KT 10SM FEW030 BKN065 04/M03 A2990 RMK AO2 SLP123 SH VC S THRU W T00441028,M
RTS,2024-02-08 22:55,-119.8764,39.6682,1539.00,35.60,24.80,64.46,330.00,6.00,0.00,29.89,M,10.00,M,FEW,BKN,OVC,M,2700.00,3400.00,6000.00,M,-RA,M,M,M,M,M,M,29.87,KRTS 082255Z AUTO 33006KT 10SM -RA FEW027 BKN034 OVC060 02/M04 A2989 RMK AO2,M
MEV,2024-02-08 22:55,-119.7500,38.9963,1441.42,35.60,28.40,74.80,360.00,5.00,0.00,29.88,M,10.00,M,FEW,SCT,BKN,M,3500.00,5000.00,6000.00,M,M,M,M,M,M,M,M,30.67,KMEV 082255Z AUTO 36005KT 10SM FEW035 SCT050 BKN060 02/M02 A2988 RMK AO2,M
BAM,2024-02-08 22:55,-116.8743,40.5990,1382.36,35.60,33.80,93.08,160.00,4.00,0.00,29.85,M,10.00,M,SCT,SCT,OVC,M,4300.00,4900.00,6000.00,M,M,M,M,M,M,M,M,31.62,KBAM 082255Z AUTO 16004KT 10SM SCT043 SCT049 OVC060 02/01 A2985 RMK AO1,M
HTH,2024-02-08 22:55,-118.6315,38.5448,1282.89,39.20,28.40,64.93,260.00,7.00,0.00,29.89,M,10.00,M,FEW,BKN,M,M,3700.00,4800.00,M,M,M,M,M,M,M,M,M,33.56,KHTH 082255Z AUTO 26007KT 10SM FEW037 BKN048 04/M02 A2989 RMK A01,M
10U,2024-02-08 22:55,-116.1876,41.9532,1637.00,33.80,21.20,59.53,310.00,9.00,0.00,29.84,M,10.00,M,FEW,SCT,BKN,M,2700.00,4100.00,6000.00,M,M,M,M,M,M,M,M,25.75,K10U 082255Z AUTO 31009KT 10SM FEW027 SCT041 BKN060 01/M06 A2984 RMK AO2,M
TMT,2024-02-08 22:55,-117.1971,39.4643,1749.34,35.00,24.40,64.93,350.00,8.00,0.00,29.84,M,10.00,M,SCT,SCT,OVC,M,4400.00,5000.00,6000.00,M,M,M,M,M,M,M,M,27.81,KTMT 082255Z AUTO 35008KT 10SM SCT044 SCT050 OVC060 02/M04 A2984 RMK AO2 T00161042,M
INS,2024-02-08 22:55,-115.6733,36.5872,955.00,38.00,31.60,77.51,40.00,3.00,0.00,29.86,1011.00,10.00,M,BKN,OVC,M,M,4000.00,5500.00,M,M,M,M,M,M,M,M,M,35.55,KINS 082255Z AUTO 04003KT 10SM BKN040 OVC055 03/M00 A2986 RMK AO2 SLP110 T00341002 $,M
LSV,2024-02-08 22:55,-115.0343,36.2362,570.00,50.00,27.30,41.12,0.00,0.00,0.00,29.83,1010.00,10.00,M,OVC,M,M,M,5000.00,M,M,M,M,M,M,M,M,M,M,50.00,KLSV 082255Z AUTO 00000KT 10SM OVC050 10/M03 A2983 RMK AO2 SLP100 T01011026 $,M
EKO,2024-02-08 22:56,-115.7860,40.8242,1367.00,38.00,22.00,52.14,240.00,5.00,0.00,29.80,1010.20,10.00,M,OVC,M,M,M,7000.00,M,M,M,M,M,M,M,M,M,M,33.52,KEKO 082256Z AUTO 24005KT 10SM OVC070 03/M06 A2980 RMK AO2 SLP102 T00331056,M
NFL,2024-02-08 22:56,-118.7010,39.4166,1199.00,42.00,29.00,59.69,10.00,6.00,0.00,29.88,1009.20,10.00,M,SCT,BKN,BKN,BKN,3000.00,5000.00,10000.00,25000.00,M,M,M,M,M,M,M,37.57,KNFL 082256Z 01006KT 10SM SCT030 BKN050 BKN100 BKN250 06/M02 A2988 RMK AO2 SLP092 SH VC NW-N T00561017,M
TPH,2024-02-08 22:56,-117.0904,38.0505,1654.00,39.00,28.00,64.37,310.00,16.00,0.00,29.80,1009.00,10.00,25.00,CLR,M,M,M,M,M,M,M,M,M,M,M,M,M,M,29.54,KTPH 082256Z AUTO 31016G25KT 10SM CLR 04/M02 A2980 RMK AO2 SLP090 T00391022,M
LAS,2024-02-08 22:56,-115.1634,36.0719,663.00,49.00,29.00,45.77,320.00,5.00,0.00,29.86,1011.30,10.00,M,BKN,BKN,BKN,M,4500.00,10000.00,25000.00,M,M,M,M,M,M,M,M,46.58,KLAS 082256Z 32005KT 10SM BKN045 BKN100 BKN250 09/M02 A2986 RMK AO2 SLP113 T00941017,M
WMC,2024-02-08 22:56,-117.8072,40.9019,1315.00,40.00,23.00,50.30,280.00,5.00,0.00,29.87,1012.10,10.00,M,OVC,M,M,M,6000.00,M,M,M,M,M,M,M,M,M,M,35.90,KWMC 082256Z AUTO 28005KT 10SM OVC060 04/M05 A2987 RMK AO2 SLP121 T00441050,M
HND,2024-02-08 22:56,-115.1344,35.9729,742.79,47.00,27.00,45.45,M,4.00,0.00,29.88,1014.10,10.00,M,OVC,M,M,M,6000.00,M,M,M,M,M,M,M,M,M,M,44.94,KHND 082256Z COR VRB04KT 10SM OVC060 08/M03 A2988 RMK AO2 SLP141 T00831028,M
05U,2024-02-08 23:10,-116.0051,39.6042,1811.23,35.60,24.80,64.46,150.00,10.00,0.00,29.82,M,10.00,M,M,M,M,M,M,M,M,M,M,M,M,M,M,M,M,27.48,K05U 082310Z AUTO 15010KT 10SM 02/M04 A2982 RMK A01,M
HTH,2024-02-08 23:10,-118.6315,38.5448,1282.89,37.40,30.20,74.98,250.00,6.00,0.00,29.89,M,10.00,M,BKN,M,M,M,5000.00,M,M,M,M,M,M,M,M,M,M,32.03,KHTH 082310Z AUTO 25006KT 10SM BKN050 03/M01 A2989 RMK A01,M
BVU,2024-02-08 23:15,-114.8611,35.9475,671.00,48.20,28.40,46.02,0.00,0.00,0.00,29.87,M,10.00,M,BKN,OVC,M,M,5000.00,6000.00,M,M,M,M,M,M,M,M,M,48.20,KBVU 082315Z AUTO 00000KT 10SM BKN050 OVC060 09/M02 A2987 RMK AO2,M
CXP,2024-02-08 23:15,-119.7326,39.1923,1431.00,37.40,28.40,69.67,340.00,8.00,0.00,29.90,M,7.00,M,FEW,BKN,BKN,M,2700.00,4000.00,4900.00,M,-RA,M,M,M,M,M,M,30.76,KCXP 082315Z AUTO 34008KT 7SM -RA FEW027 BKN040 BKN049 03/M02 A2990 RMK AO2,M
RTS,2024-02-08 23:15,-119.8764,39.6682,1539.00,35.60,24.80,64.46,340.00,12.00,0.00,29.90,M,10.00,M,FEW,OVC,M,M,2600.00,3400.00,M,M,M,M,M,M,M,M,M,26.58,KRTS 082315Z AUTO 34012KT 10SM FEW026 OVC034 02/M04 A2990 RMK AO2,M
MEV,2024-02-08 23:15,-119.7500,38.9963,1441.42,37.40,26.60,64.70,10.00,5.00,0.00,29.88,M,10.00,M,SCT,OVC,M,M,5000.00,6000.00,M,M,M,M,M,M,M,M,M,32.81,KMEV 082315Z AUTO 01005KT 10SM SCT050 OVC060 03/M03 A2988 RMK AO2,M
BAM,2024-02-08 23:15,-116.8743,40.5990,1382.36,37.40,33.80,86.69,0.00,0.00,0.00,29.86,M,10.00,M,SCT,OVC,M,M,4600.00,7000.00,M,M,M,M,M,M,M,M,M,37.40,KBAM 082315Z AUTO 00000KT 10SM SCT046 OVC070 03/01 A2986 RMK AO1,M
10U,2024-02-08 23:15,-116.1876,41.9532,1637.00,32.00,26.60,80.22,10.00,9.00,0.00,29.84,M,10.00,M,FEW,SCT,BKN,M,2000.00,2800.00,4200.00,M,M,M,M,M,M,M,M,23.51,K10U 082315Z AUTO 01009KT 10SM FEW020 SCT028 BKN042 00/M03 A2984 RMK AO2,M
TMT,2024-02-08 23:15,-117.1971,39.4643,1749.34,34.70,24.60,66.26,360.00,7.00,0.00,29.84,M,10.00,M,SCT,OVC,M,M,4800.00,6000.00,M,M,M,M,M,M,M,M,M,28.07,KTMT 082315Z AUTO 36007KT 10SM SCT048 OVC060 02/M04 A2984 RMK AO2 T00151041,M
BVU,2024-02-08 23:35,-114.8611,35.9475,671.00,48.20,28.40,46.02,0.00,0.00,0.00,29.88,M,10.00,M,OVC,M,M,M,5500.00,M,M,M,M,M,M,M,M,M,M,48.20,KBVU 082335Z AUTO 00000KT 10SM OVC055 09/M02 A2988 RMK AO2,M
CXP,2024-02-08 23:35,-119.7326,39.1923,1431.00,37.40,30.20,74.98,310.00,11.00,0.00,29.91,M,10.00,M,FEW,BKN,BKN,M,300.00,3000.00,3900.00,M,M,M,M,M,M,M,M,29.29,KCXP 082335Z AUTO 31011KT 10SM FEW003 BKN030 BKN039 03/M01 A2991 RMK AO2,M
RTS,2024-02-08 23:35,-119.8764,39.6682,1539.00,35.60,24.80,64.46,350.00,9.00,0.00,29.90,M,10.00,M,SCT,BKN,OVC,M,3500.00,4400.00,6000.00,M,M,M,M,M,M,M,M,27.99,KRTS 082335Z AUTO 35009KT 10SM SCT035 BKN044 OVC060 02/M04 A2990 RMK AO2,M
05U,2024-02-08 23:35,-116.0051,39.6042,1811.23,35.60,24.80,64.46,150.00,9.00,0.00,29.82,M,10.00,M,M,M,M,M,M,M,M,M,M,M,M,M,M,M,M,27.99,K05U 082335Z AUTO 15009KT 10SM 02/M04 A2982 RMK A01,M
MEV,2024-02-08 23:35,-119.7500,38.9963,1441.42,35.60,28.40,74.80,350.00,7.00,0.00,29.89,M,10.00,M,BKN,OVC,M,M,5500.00,6500.00,M,M,M,M,M,M,M,M,M,29.17,KMEV 082335Z AUTO 35007KT 10SM BKN055 OVC065 02/M02 A2989 RMK AO2,M
BAM,2024-02-08 23:35,-116.8743,40.5990,1382.36,37.40,33.80,86.69,150.00,3.00,0.00,29.86,M,10.00,M,OVC,M,M,M,7000.00,M,M,M,M,M,M,M,M,M,M,34.86,KBAM 082335Z AUTO 15003KT 10SM OVC070 03/01 A2986 RMK AO1,M
HTH,2024-02-08 23:35,-118.6315,38.5448,1282.89,39.20,28.40,64.93,280.00,6.00,0.00,29.90,M,10.00,M,FEW,M,M,M,5000.00,M,M,M,M,M,M,M,M,M,M,34.20,KHTH 082335Z AUTO 28006KT 10SM FEW050 04/M02 A2990 RMK A01,M
10U,2024-02-08 23:35,-116.1876,41.9532,1637.00,32.00,24.80,74.44,360.00,9.00,0.00,29.85,M,10.00,M,FEW,SCT,BKN,M,1900.00,2800.00,6000.00,M,M,M,M,M,M,M,M,23.51,K10U 082335Z AUTO 36009KT 10SM FEW019 SCT028 BKN060 M00/M04 A2985 RMK AO2,M
TMT,2024-02-08 23:35,-117.1971,39.4643,1749.34,35.60,22.50,58.54,340.00,8.00,0.00,29.85,M,10.00,M,SCT,OVC,M,M,5000.00,7000.00,M,M,M,M,M,M,M,M,M,28.55,KTMT 082335Z AUTO 34008KT 10SM SCT050 OVC070 02/M05 A2985 RMK AO2 T00201053,M
DRA,2024-02-08 23:53,-116.0278,36.6206,1009.00,42.00,30.00,62.18,240.00,10.00,0.00,29.87,1010.90,10.00,M,FEW,BKN,OVC,M,4400.00,6500.00,8000.00,M,M,M,M,M,M,M,M,35.51,KDRA 082353Z AUTO 24010KT 10SM FEW044 BKN065 OVC080 06/M01 A2987 RMK AO2 SLP109 T00561011 10056 20028 53012,M
ELY,2024-02-08 23:53,-114.8453,39.2950,1909.00,34.00,27.00,75.26,290.00,9.00,0.00,29.77,1008.60,10.00,M,FEW,BKN,OVC,M,2500.00,3300.00,4600.00,M,M,M,M,M,M,M,M,26.00,KELY 082353Z AUTO 29009KT 10SM FEW025 BKN033 OVC046 01/M03 A2977 RMK AO2 SLP086 T00111028 10044 21011 53010,M
VGT,2024-02-08 23:53,-115.1933,36.2111,667.00,49.00,31.00,49.65,290.00,9.00,0.00,29.88,1013.70,10.00,M,FEW,M,M,M,6500.00,M,M,M,M,M,M,M,M,M,M,44.65,KVGT 082353Z 29009KT 10SM FEW065 09/M01 A2988 RMK AO2 SLP137 T00941006 10100 20072 53011,M
LOL,2024-02-08 23:53,-118.5701,40.0684,1192.43,40.00,30.00,67.18,200.00,4.00,0.00,29.89,1013.50,10.00,M,OVC,M,M,M,4000.00,M,M,M,M,M,M,M,M,M,M,36.76,KLOL 082353Z AUTO 20004KT 10SM OVC040 04/M01 A2989 RMK AO2 SLP135 T00441011 10050 20017 53007,M
P68,2024-02-08 23:53,-116.0056,39.6014,1993.00,34.00,25.00,69.28,320.00,11.00,0.00,29.81,1009.40,M,M,M,M,M,M,M,M,M,M,M,M,M,M,M,M,M,24.99,KP68 082353Z AUTO 32011KT 01/M04 A2981 RMK AO1 SLP094 T00111039 10033 20000 53012,M
BVU,2024-02-08 23:55,-114.8611,35.9475,671.00,48.20,26.60,42.73,260.00,3.00,0.00,29.88,M,10.00,M,OVC,M,M,M,6000.00,M,M,M,M,M,M,M,M,M,M,47.21,KBVU 082355Z AUTO 26003KT 10SM OVC060 09/M03 A2988 RMK AO2,M
CXP,2024-02-08 23:55,-119.7326,39.1923,1431.00,35.60,30.20,80.51,320.00,10.00,0.00,29.91,M,2.00,M,SCT,BKN,BKN,M,2400.00,3000.00,3400.00,M,-SN HZ,M,M,M,M,M,M,27.48,KCXP 082355Z AUTO 32010KT 2SM -SN HZ SCT024 BKN030 BKN034 02/M01 A2991 RMK AO2 VIS 3/4V5,M
RNO,2024-02-08 23:55,-119.7711,39.4839,1341.00,42.00,27.00,54.99,220.00,5.00,0.00,29.90,1012.70,10.00,M,SCT,BKN,M,M,3300.00,7000.00,M,M,M,M,M,M,M,M,M,38.27,KRNO 082355Z 22005KT 10SM SCT033 BKN070 06/M03 A2990 RMK AO2 SLP127 MTN TOPS OBSCD SW THRU W T00561028 10056 20006 53006,M
LSV,2024-02-08 23:55,-115.0343,36.2362,570.00,52.30,28.00,38.87,280.00,5.00,0.00,29.85,1010.80,10.00,M,BKN,M,M,M,6500.00,M,M,M,M,M,M,M,M,M,M,52.30,KLSV 082355Z AUTO 28005KT 10SM BKN065 11/M02 A2985 RMK AO2 SLP108 T01131022 10113 20083 53008 $,M
RTS,2024-02-08 23:55,-119.8764,39.6682,1539.00,35.60,24.80,64.46,340.00,9.00,0.00,29.91,M,10.00,M,BKN,BKN,OVC,M,3900.00,4600.00,6000.00,M,M,M,M,M,M,M,M,27.99,KRTS 082355Z AUTO 34009KT 10SM BKN039 BKN046 OVC060 02/M04 A2991 RMK AO2,M
05U,2024-02-08 23:55,-116.0051,39.6042,1811.23,35.60,24.80,64.46,130.00,9.00,0.00,29.83,M,10.00,M,M,M,M,M,M,M,M,M,M,M,M,M,M,M,M,27.99,K05U 082355Z AUTO 13009KT 10SM 02/M04 A2983 RMK A01,M
MEV,2024-02-08 23:55,-119.7500,38.9963,1441.42,35.60,28.40,74.80,360.00,11.00,0.00,29.89,M,10.00,M,SCT,SCT,BKN,M,5500.00,7000.00,10000.00,M,M,M,M,M,M,M,M,27.02,KMEV 082355Z AUTO 36011KT 10SM SCT055 SCT070 BKN100 02/M02 A2989 RMK AO2,M
BAM,2024-02-08 23:55,-116.8743,40.5990,1382.36,39.20,30.20,69.88,330.00,8.00,0.00,29.87,M,10.00,M,SCT,SCT,OVC,M,3900.00,4700.00,7000.00,M,M,M,M,M,M,M,M,32.98,KBAM 082355Z AUTO 33008KT 10SM SCT039 SCT047 OVC070 04/M01 A2987 RMK AO1,M
HTH,2024-02-08 23:55,-118.6315,38.5448,1282.89,39.20,28.40,64.93,270.00,5.00,0.00,29.90,M,10.00,M,CLR,M,M,M,M,M,M,M,M,M,M,M,M,M,M,34.95,KHTH 082355Z AUTO 27005KT 10SM CLR 04/M02 A2990 RMK A01,M
TMT,2024-02-08 23:55,-117.1971,39.4643,1749.34,35.00,23.00,61.23,330.00,8.00,0.00,29.85,M,10.00,M,BKN,OVC,M,M,5000.00,7000.00,M,M,M,M,M,M,M,M,M,27.81,KTMT 082355Z AUTO 33008KT 10SM BKN050 OVC070 02/M05 A2985 RMK AO2 T00171051 10029 21001,M
10U,2024-02-08 23:55,-116.1876,41.9532,1637.00,32.00,23.00,69.04,350.00,10.00,0.00,29.86,M,10.00,M,FEW,SCT,BKN,M,3700.00,4600.00,6000.00,M,M,M,M,M,M,M,M,22.97,K10U 082355Z AUTO 35010KT 10SM FEW037 SCT046 BKN060 M00/M05 A2986 RMK AO2,M
INS,2024-02-08 23:55,-115.6733,36.5872,955.00,40.60,30.60,67.26,0.00,0.00,0.00,29.87,1010.90,10.00,M,BKN,OVC,M,M,5500.00,7000.00,M,M,M,M,M,M,M,M,M,40.60,KINS 082355Z AUTO 00000KT 10SM BKN055 OVC070 05/M01 A2987 RMK AO2 SLP109 60013 T00481008 10048 20007 52010 $,M
EKO,2024-02-08 23:56,-115.7860,40.8242,1367.00,36.00,26.00,66.69,270.00,10.00,0.00,29.82,1011.10,10.00,M,OVC,M,M,M,5500.00,M,M,M,M,M,M,M,M,M,M,27.98,KEKO 082356Z AUTO 27010KT 10SM OVC055 02/M03 A2982 RMK AO2 SLP111 60000 T00221033 10044 20022 53009,M
HND,2024-02-08 23:56,-115.1344,35.9729,742.79,47.00,28.00,47.36,170.00,4.00,0.00,29.90,1014.90,10.00,M,BKN,M,M,M,6000.00,M,M,M,M,M,M,M,M,M,M,44.94,KHND 082356Z 17004KT 10SM BKN060 08/M02 A2990 RMK AO2 SLP149 T00831022 10089 20056 53013,M
TPH,2024-02-08 23:56,-117.0904,38.0505,1654.00,37.00,27.00,66.82,310.00,19.00,0.00,29.81,1009.70,10.00,28.00,CLR,M,M,M,M,M,M,M,M,M,M,M,28.00,310.00,2024-02-08 23:53,26.05,KTPH 082356Z AUTO 31019G28KT 10SM CLR 03/M03 A2981 RMK AO2 PK WND 31028/2353 SLP097 T00281028 10044 21006 53007,M
LAS,2024-02-08 23:56,-115.1634,36.0719,663.00,47.00,29.00,49.34,0.00,0.00,0.00,29.88,1012.20,10.00,M,BKN,BKN,BKN,M,4500.00,10000.00,25000.00,M,M,M,M,M,M,M,M,47.00,KLAS 082356Z 00000KT 10SM BKN045 BKN100 BKN250 08/M02 A2988 RMK AO2 SLP122 T00831017 10094 20061 53012,M
WMC,2024-02-08 23:56,-117.8072,40.9019,1315.00,39.00,24.00,54.54,270.00,5.00,0.00,29.88,1012.70,10.00,M,OVC,M,M,M,6000.00,M,M,M,M,M,M,M,M,M,M,34.71,KWMC 082356Z AUTO 27005KT 10SM OVC060 04/M04 A2988 RMK AO2 SLP127 T00391044 10067 20028 53010,M
NFL,2024-02-08 23:56,-118.7010,39.4166,1199.00,43.00,30.00,59.83,20.00,8.00,0.00,29.89,1009.60,10.00,M,SCT,BKN,BKN,BKN,3000.00,5000.00,10000.00,25000.00,M,M,M,M,M,M,M,37.66,KNFL 082356Z 02008KT 10SM SCT030 BKN050 BKN100 BKN250 06/M01 A2989 RMK AO2 SLP096 SH VC NW-N T00611011 10067 20011 53005,M
