station,valid,lon,lat,elevation,tmpf,dwpf,relh,drct,sknt,p01i,alti,mslp,vsby,gust,skyc1,skyc2,skyc3,skyc4,skyl1,skyl2,skyl3,skyl4,wxcodes,ice_accretion_1hr,ice_accretion_3hr,ice_accretion_6hr,peak_wind_gust,peak_wind_drct,peak_wind_time,feel,metar,snowdepth
EKO,2021-08-01 00:05,-115.7860,40.8242,1367.00,68.00,60.00,75.84,280.00,7.00,0.03,30.24,M,5.00,M,OVC,M,M,M,10000.00,M,M,M,-RA,M,M,M,M,M,M,68.00,KEKO 010005Z AUTO 28007KT 5SM -RA OVC100 20/16 A3024 RMK AO2 LTG DSNT N AND NW TSE2359 P0003 T02000156,M
CXP,2021-08-01 00:10,-119.7326,39.1923,1431.00,86.00,39.20,19.15,M,5.00,0.00,30.19,M,10.00,12.00,BKN,M,M,M,10000.00,M,M,M,M,M,M,M,M,M,M,82.79,KCXP 010010Z AUTO VRB05G12KT 10SM BKN100 30/04 A3019 RMK AO2 LTG DSNT NE,M
HTH,2021-08-01 00:15,-118.6315,38.5448,1282.89,86.00,46.40,25.26,270.00,5.00,0.00,30.15,M,9.00,M,FEW,M,M,M,10000.00,M,M,M,M,M,M,M,M,M,M,83.22,KHTH 010015Z AUTO 27005KT 9SM FEW100 30/08 A3015 RMK A01,M
BAM,2021-08-01 00:15,-116.8743,40.5990,1382.36,82.40,51.80,34.69,0.00,0.00,0.00,30.17,M,10.00,M,BKN,M,M,M,11000.00,M,M,M,M,M,M,M,M,M,M,81.20,KBAM 010015Z AUTO 00000KT 10SM BKN110 28/11 A3017 RMK AO1,M
TMT,2021-08-01 00:15,-117.1971,39.4643,1749.34,72.70,57.00,57.82,0.00,0.00,0.00,30.28,M,10.00,M,SCT,SCT,M,M,10000.00,12000.00,M,M,M,M,M,M,M,M,M,72.70,KTMT 010015Z AUTO 00000KT 10SM SCT100 SCT120 23/14 A3028 RMK AO2 LTG DSNT N AND SW T02260139,M
RTS,2021-08-01 00:15,-119.8764,39.6682,1539.00,82.40,44.60,26.49,100.00,4.00,0.00,30.20,M,7.00,M,BKN,M,M,M,10000.00,M,M,M,M,M,M,M,M,M,M,80.50,KRTS 010015Z AUTO 10004KT 7SM BKN100 28/07 A3020 RMK AO2,M
BVU,2021-08-01 00:15,-114.8611,35.9475,671.00,95.00,57.20,28.37,M,6.00,0.00,29.99,M,10.00,M,CLR,M,M,M,M,M,M,M,M,M,M,M,M,M,M,93.82,KBVU 010015Z AUTO VRB06KT 10SM CLR 35/14 A2999 RMK AO2,M
MEV,2021-08-01 00:15,-119.7500,38.9963,1441.42,78.80,48.20,34.13,190.00,9.00,0.00,30.19,M,10.00,M,CLR,M,M,M,M,M,M,M,M,M,M,M,M,M,M,78.80,KMEV 010015Z AUTO 19009KT 10SM CLR 26/09 A3019 RMK AO2,M
05U,2021-08-01 00:15,-116.0051,39.6042,1811.23,66.20,62.60,88.18,0.00,0.00,0.00,30.33,M,8.00,M,FEW,M,M,M,9000.00,M,M,M,M,M,M,M,M,M,M,66.20,K05U 010015Z AUTO 00000KT 8SM FEW090 19/17 A3033 RMK A01,M
CXP,2021-08-01 00:30,-119.7326,39.1923,1431.00,80.60,48.20,32.18,100.00,11.00,0.00,30.20,M,7.00,M,OVC,M,M,M,9500.00,M,M,M,M,M,M,M,M,M,M,79.71,KCXP 010030Z AUTO 10011KT 7SM OVC095 27/09 A3020 RMK AO2 LTG DSNT NE-SE,M
BAM,2021-08-01 00:35,-116.8743,40.5990,1382.36,82.40,53.60,37.07,0.00,0.00,0.00,30.17,M,10.00,M,BKN,OVC,M,M,9000.00,11000.00,M,M,M,M,M,M,M,M,M,81.46,KBAM 010035Z AUTO 00000KT 10SM BKN090 OVC110 28/12 A3017 RMK AO1,M
MEV,2021-08-01 00:35,-119.7500,38.9963,1441.42,80.60,46.40,30.07,200.00,8.00,0.00,30.18,M,10.00,M,CLR,M,M,M,M,M,M,M,M,M,M,M,M,M,M,79.56,KMEV 010035Z AUTO 20008KT 10SM CLR 27/08 A3018 RMK AO2 LTG DSNT NE AND SE,M
RTS,2021-08-01 00:35,-119.8764,39.6682,1539.00,84.20,39.20,20.29,300.00,9.00,0.00,30.20,M,9.00,M,OVC,M,M,M,10000.00,M,M,M,M,M,M,M,M,M,M,81.44,KRTS 010035Z AUTO 30009KT 9SM OVC100 29/04 A3020 RMK AO2,M
05U,2021-08-01 00:35,-116.0051,39.6042,1811.23,66.20,62.60,88.18,0.00,0.00,0.00,30.33,M,9.00,M,CLR,M,M,M,M,M,M,M,M,M,M,M,M,M,M,66.20,K05U 010035Z AUTO 00000KT 9SM CLR 19/17 A3033 RMK A01,M
TMT,2021-08-01 00:35,-117.1971,39.4643,1749.34,72.50,56.70,57.58,140.00,3.00,0.00,30.28,M,10.00,M,SCT,M,M,M,10000.00,M,M,M,M,M,M,M,M,M,M,72.50,KTMT 010035Z AUTO 14003KT 10SM SCT100 23/14 A3028 RMK AO2 LTG DSNT SW T02250137,M
BVU,2021-08-01 00:35,-114.8611,35.9475,671.00,95.00,57.20,28.37,260.00,5.00,0.00,29.99,M,10.00,14.00,CLR,M,M,M,M,M,M,M,M,M,M,M,M,M,M,93.82,KBVU 010035Z AUTO 26005G14KT 10SM CLR 35/14 A2999 RMK AO2,M
HTH,2021-08-01 00:35,-118.6315,38.5448,1282.89,86.00,41.00,20.54,320.00,5.00,0.00,30.15,M,8.00,10.00,SCT,M,M,M,12000.00,M,M,M,M,M,M,M,M,M,M,82.86,KHTH 010035Z AUTO 32005G10KT 8SM SCT120 30/05 A3015 RMK A01,M
CXP,2021-08-01 00:50,-119.7326,39.1923,1431.00,78.80,48.20,34.13,90.00,14.00,0.00,30.20,M,10.00,M,BKN,M,M,M,9500.00,M,M,M,M,M,M,M,M,M,M,78.80,KCXP 010050Z AUTO 09014KT 10SM BKN095 26/09 A3020 RMK AO2 LTG DSNT NE AND E,M
LOL,2021-08-01 00:53,-118.5701,40.0684,1192.43,87.00,52.00,30.05,140.00,5.00,0.00,30.11,1015.50,10.00,M,CLR,M,M,M,M,M,M,M,M,M,M,M,M,M,M,84.82,KLOL 010053Z AUTO 14005KT 10SM CLR 31/11 A3011 RMK AO2 SLP155 T03060111,M
DRA,2021-08-01 00:53,-116.0278,36.6206,1009.00,90.00,52.00,27.42,0.00,0.00,0.00,30.07,1013.20,10.00,M,CLR,M,M,M,M,M,M,M,M,M,M,M,M,M,M,87.40,KDRA 010053Z AUTO 00000KT 10SM CLR 32/11 A3007 RMK AO2 SLP132 T03220111,M
P68,2021-08-01 00:53,-116.0056,39.6014,1993.00,67.00,62.00,84.56,190.00,4.00,0.02,30.30,1019.20,M,M,M,M,M,M,M,M,M,M,M,M,M,M,M,M,M,66.90,KP68 010053Z AUTO 19004KT 19/17 A3030 RMK AO1 SLP192 P0002 T01940167,M
VGT,2021-08-01 00:53,-115.1933,36.2111,667.00,92.00,61.00,35.77,300.00,4.00,0.00,29.98,1014.00,10.00,M,CLR,M,M,M,M,M,M,M,M,M,M,M,M,M,M,92.01,KVGT 010053Z 30004KT 10SM CLR 33/16 A2998 RMK AO2 SLP140 T03330161 PNO,M
ELY,2021-08-01 00:53,-114.8453,39.2950,1909.00,63.00,58.00,83.42,0.00,0.00,T,30.33,1019.50,10.00,M,CLR,M,M,M,M,M,M,M,M,M,M,M,M,M,M,63.00,KELY 010053Z AUTO 00000KT 10SM CLR 17/14 A3033 RMK AO2 RAE00 SLP195 P0000 T01720144,M
RTS,2021-08-01 00:55,-119.8764,39.6682,1539.00,80.60,48.20,32.18,360.00,17.00,0.00,30.21,M,7.00,M,OVC,M,M,M,9500.00,M,M,M,M,M,M,M,M,M,M,79.71,KRTS 010055Z AUTO 36017KT 7SM OVC095 27/09 A3021 RMK AO2,M
05U,2021-08-01 00:55,-116.0051,39.6042,1811.23,68.00,62.60,82.86,0.00,0.00,0.00,30.32,M,10.00,M,CLR,M,M,M,M,M,M,M,M,M,M,M,M,M,M,68.00,K05U 010055Z AUTO 00000KT 10SM CLR 20/17 A3032 RMK A01,M
TMT,2021-08-01 00:55,-117.1971,39.4643,1749.34,71.80,56.80,59.17,0.00,0.00,0.00,30.29,M,10.00,M,BKN,M,M,M,10000.00,M,M,M,M,M,M,M,M,M,M,71.80,KTMT 010055Z AUTO 00000KT 10SM BKN100 22/14 A3029 RMK AO2 LTG DSNT NW T02210138,M
BVU,2021-08-01 00:55,-114.8611,35.9475,671.00,93.20,57.20,29.99,330.00,9.00,0.00,29.99,M,10.00,M,CLR,M,M,M,M,M,M,M,M,M,M,M,M,M,M,91.91,KBVU 010055Z AUTO 33009KT 10SM CLR 34/14 A2999 RMK AO2,M
MEV,2021-08-01 00:55,-119.7500,38.9963,1441.42,82.40,41.00,23.07,220.00,7.00,0.00,30.19,M,10.00,M,SCT,M,M,M,12000.00,M,M,M,M,M,M,M,M,M,M,80.29,KMEV 010055Z AUTO 22007KT 10SM SCT120 28/05 A3019 RMK AO2,M
BAM,2021-08-01 00:55,-116.8743,40.5990,1382.36,80.60,53.60,39.30,300.00,17.00,0.00,30.19,M,10.00,M,BKN,OVC,M,M,7000.00,8000.00,M,M,M,M,M,M,M,M,M,80.29,KBAM 010055Z AUTO 30017KT 10SM BKN070 OVC080 27/12 A3019 RMK AO1,M
HTH,2021-08-01 00:55,-118.6315,38.5448,1282.89,82.40,46.40,28.36,120.00,14.00,0.00,30.15,M,9.00,23.00,FEW,M,M,M,11000.00,M,M,M,M,M,M,M,M,M,M,80.64,KHTH 010055Z AUTO 12014G23KT 070V140 9SM FEW110 28/08 A3015 RMK A01,M
RNO,2021-08-01 00:55,-119.7711,39.4839,1341.00,82.00,51.00,34.25,310.00,22.00,T,30.15,1015.20,10.00,30.00,BKN,BKN,BKN,M,10000.00,14000.00,18000.00,M,-RA,M,M,M,30.00,310.00,2021-08-01 00:54,80.85,KRNO 010055Z 31022G30KT 10SM -RA BKN100CB BKN140 BKN180 28/11 A3015 RMK AO2 PK WND 31030/0054 LTG DSNT SE RAB35 SLP152 CB NW THRU N MOV E HZ ALQDS P0000 T02780106,M
TPH,2021-08-01 00:56,-117.0904,38.0505,1654.00,75.00,54.00,47.99,10.00,9.00,0.00,30.24,1017.50,10.00,M,BKN,M,M,M,12000.00,M,M,M,M,M,M,M,M,M,M,75.00,KTPH 010056Z AUTO 01009KT 10SM BKN120 24/12 A3024 RMK AO2 SLP175 T02390122,M
LAS,2021-08-01 00:56,-115.1634,36.0719,663.00,93.00,59.00,32.19,50.00,3.00,0.00,30.00,1012.90,10.00,M,SCT,BKN,M,M,10000.00,25000.00,M,M,M,M,M,M,M,M,M,92.35,KLAS 010056Z 05003KT 10SM SCT100 BKN250 34/15 A3000 RMK AO2 LTG DSNT E SLP129 TCU DSNT N T03390150,M
EKO,2021-08-01 00:56,-115.7860,40.8242,1367.00,67.00,60.00,78.77,0.00,0.00,0.07,30.23,1019.00,10.00,M,FEW,FEW,M,M,6500.00,12000.00,M,M,M,M,M,M,M,M,M,66.90,KEKO 010056Z AUTO 00000KT 10SM FEW065 FEW120 19/16 A3023 RMK AO2 RAE43 TSE2359 SLP190 P0007 T01940156,M
HND,2021-08-01 00:56,-115.1344,35.9729,742.79,87.00,62.00,43.27,0.00,0.00,0.00,30.03,1015.80,10.00,M,CLR,M,M,M,M,M,M,M,M,M,M,M,M,M,M,87.58,KHND 010056Z 00000KT 10SM CLR 31/17 A3003 RMK AO2 LTG DSNT E SLP158 T03060167,M
NFL,2021-08-01 00:56,-118.7010,39.4166,1199.00,88.00,49.00,26.03,70.00,6.00,0.00,30.11,1016.10,8.00,M,SCT,BKN,BKN,M,8000.00,12000.00,15000.00,M,M,M,M,M,M,M,M,85.13,KNFL 010056Z 07006KT 8SM SCT080 BKN120 BKN150 31/09 A3011 RMK AO2 SLP161 CB DSNT SW-W FU ALQDS T03110094,M
WMC,2021-08-01 00:56,-117.8072,40.9019,1315.00,84.00,51.00,32.10,270.00,12.00,0.00,30.15,1016.00,10.00,M,OVC,M,M,M,10000.00,M,M,M,M,M,M,M,M,M,M,82.23,KWMC 010056Z AUTO 27012KT 10SM OVC100 29/11 A3015 RMK AO2 SLP160 T02890106,M
LSV,2021-08-01 00:58,-115.0343,36.2362,570.00,94.30,56.00,27.86,270.00,5.00,0.00,29.96,1012.00,10.00,M,FEW,M,M,M,19000.00,M,M,M,M,M,M,M,M,M,M,92.70,KLSV 010058Z AUTO 27005KT 10SM FEW190 35/13 A2996 RMK AO2 SLP120 T03460134 $,M
INS,2021-08-01 00:58,-115.6733,36.5872,955.00,86.00,53.40,32.77,0.00,0.00,0.00,30.07,1013.50,10.00,M,FEW,M,M,M,12000.00,M,M,M,M,M,M,M,M,M,M,84.15,KINS 010058Z AUTO 00000KT 10SM FEW120 30/12 A3007 RMK AO2 SLP135 T03000119 $,M
CXP,2021-08-01 01:10,-119.7326,39.1923,1431.00,78.80,46.40,31.90,60.00,12.00,0.00,30.20,M,10.00,20.00,SCT,M,M,M,10000.00,M,M,M,VCTS,M,M,M,M,M,M,78.80,KCXP 010110Z AUTO 06012G20KT 10SM VCTS SCT100 26/08 A3020 RMK AO2 LTG DSNT NE,M
RTS,2021-08-01 01:15,-119.8764,39.6682,1539.00,73.40,53.60,49.90,M,5.00,0.00,30.24,M,7.00,24.00,BKN,M,M,M,9000.00,M,M,M,-DZ,M,M,M,M,M,M,73.40,KRTS 010115Z AUTO VRB05G24KT 7SM -DZ BKN090 23/12 A3024 RMK AO2,M
05U,2021-08-01 01:15,-116.0051,39.6042,1811.23,68.00,60.80,77.75,0.00,0.00,0.00,30.32,M,10.00,M,CLR,M,M,M,M,M,M,M,M,M,M,M,M,M,M,68.00,K05U 010115Z AUTO 00000KT 10SM CLR 20/16 A3032 RMK A01,M
TMT,2021-08-01 01:15,-117.1971,39.4643,1749.34,71.20,58.30,63.74,0.00,0.00,0.00,30.29,M,10.00,M,OVC,M,M,M,10000.00,M,M,M,M,M,M,M,M,M,M,71.20,KTMT 010115Z AUTO 00000KT 10SM OVC100 22/15 A3029 RMK AO2 LTG DSNT E T02180146,M
BAM,2021-08-01 01:15,-116.8743,40.5990,1382.36,73.40,60.80,64.69,340.00,11.00,0.00,30.19,M,10.00,M,BKN,OVC,M,M,7000.00,8000.00,M,M,M,M,M,M,M,M,M,73.40,KBAM 010115Z AUTO 34011KT 10SM BKN070 OVC080 23/16 A3019 RMK AO1,M
HTH,2021-08-01 01:15,-118.6315,38.5448,1282.89,78.80,48.20,34.13,180.00,11.00,0.00,30.16,M,10.00,24.00,SCT,M,M,M,10000.00,M,M,M,M,M,M,M,M,M,M,78.80,KHTH 010115Z AUTO 18011G24KT 10SM SCT100 26/09 A3016 RMK A01,M
MEV,2021-08-01 01:15,-119.7500,38.9963,1441.42,82.40,41.00,23.07,180.00,6.00,0.00,30.19,M,10.00,M,BKN,M,M,M,11000.00,M,M,M,M,M,M,M,M,M,M,80.29,KMEV 010115Z AUTO 18006KT 10SM BKN110 28/05 A3019 RMK AO2,M
BVU,2021-08-01 01:15,-114.8611,35.9475,671.00,93.20,57.20,29.99,330.00,7.00,0.00,29.99,M,10.00,M,SCT,M,M,M,12000.00,M,M,M,M,M,M,M,M,M,M,91.91,KBVU 010115Z AUTO 33007KT 10SM SCT120 34/14 A2999 RMK AO2 LTG DSNT NE AND E,M
RNO,2021-08-01 01:16,-119.7711,39.4839,1341.00,77.00,55.00,46.57,320.00,13.00,0.00,30.17,M,7.00,M,FEW,SCT,OVC,M,1700.00,6000.00,11000.00,M,VCTS -RA,M,M,M,28.00,320.00,2021-08-01 00:56,77.00,KRNO 010116Z 32013KT 7SM VCTS -RA FEW017 SCT060 OVC110 25/13 A3017 RMK AO2 PK WND 32028/0056 LTG DSNT SE TSE10 T02500128 PNO $,M
RNO,2021-08-01 01:18,-119.7711,39.4839,1341.00,77.00,56.00,48.12,310.00,15.00,0.00,30.17,M,10.00,M,SCT,BKN,BKN,OVC,5500.00,10000.00,14000.00,18000.00,-TSRA,M,M,M,28.00,320.00,2021-08-01 00:56,77.00,KRNO 010118Z 31015KT 10SM -TSRA SCT055 BKN100CB BKN140 OVC180 25/13 A3017 RMK AO2 PK WND 32028/0056 LTG DSNT SE TSE10B17 OCNL LTGIC NW TS NW THRU N MOV E CB NW THRU N MOV E T02500133 PNO $,M
CXP,2021-08-01 01:30,-119.7326,39.1923,1431.00,78.80,46.40,31.90,70.00,14.00,0.00,30.21,M,10.00,M,FEW,M,M,M,10000.00,M,M,M,VCTS,M,M,M,M,M,M,78.80,KCXP 010130Z AUTO 07014KT 10SM VCTS FEW100 26/08 A3021 RMK AO2 LTG DSNT N AND E,M
HTH,2021-08-01 01:35,-118.6315,38.5448,1282.89,78.80,48.20,34.13,140.00,21.00,0.00,30.17,M,10.00,M,FEW,FEW,BKN,M,6000.00,7500.00,10000.00,M,M,M,M,M,M,M,M,78.80,KHTH 010135Z AUTO 14021KT 10SM FEW060 FEW075 BKN100 26/09 A3017 RMK A01,M
MEV,2021-08-01 01:35,-119.7500,38.9963,1441.42,78.80,50.00,36.51,120.00,4.00,0.00,30.20,M,10.00,M,BKN,M,M,M,11000.00,M,M,M,VCTS,M,M,M,M,M,M,78.80,KMEV 010135Z AUTO 12004KT 10SM VCTS BKN110 26/10 A3020 RMK AO2 LTG DSNT NE,M
05U,2021-08-01 01:35,-116.0051,39.6042,1811.23,66.20,62.60,88.18,230.00,4.00,0.00,30.32,M,10.00,M,CLR,M,M,M,M,M,M,M,M,M,M,M,M,M,M,66.20,K05U 010135Z AUTO 23004KT 10SM CLR 19/17 A3032 RMK A01,M
RTS,2021-08-01 01:35,-119.8764,39.6682,1539.00,69.80,55.40,60.21,160.00,27.00,0.00,30.23,M,10.00,M,FEW,FEW,OVC,M,4800.00,7000.00,8500.00,M,-DZ,M,M,M,M,M,M,69.80,KRTS 010135Z AUTO 16027KT 10SM -DZ FEW048 FEW070 OVC085 21/13 A3023 RMK AO2,M
BAM,2021-08-01 01:35,-116.8743,40.5990,1382.36,75.20,57.20,53.55,20.00,7.00,0.00,30.19,M,10.00,M,BKN,OVC,M,M,7000.00,8000.00,M,M,M,M,M,M,M,M,M,75.20,KBAM 010135Z AUTO 02007KT 10SM BKN070 OVC080 24/14 A3019 RMK AO1,M
BVU,2021-08-01 01:35,-114.8611,35.9475,671.00,93.20,59.00,31.99,300.00,5.00,0.00,30.00,M,10.00,M,FEW,SCT,M,M,9500.00,12000.00,M,M,M,M,M,M,M,M,M,92.57,KBVU 010135Z AUTO 30005KT 10SM FEW095 SCT120 34/15 A3000 RMK AO2,M
TMT,2021-08-01 01:35,-117.1971,39.4643,1749.34,70.70,59.20,66.96,200.00,3.00,0.00,30.29,M,10.00,M,OVC,M,M,M,11000.00,M,M,M,M,M,M,M,M,M,M,70.70,KTMT 010135Z AUTO 20003KT 10SM OVC110 22/15 A3029 RMK AO2 LTG DSNT SE T02150151,M
CXP,2021-08-01 01:50,-119.7326,39.1923,1431.00,78.80,46.40,31.90,60.00,12.00,0.00,30.21,M,10.00,M,CLR,M,M,M,M,M,M,M,M,M,M,M,M,M,M,78.80,KCXP 010150Z AUTO 06012KT 10SM CLR 26/08 A3021 RMK AO2,M
ELY,2021-08-01 01:53,-114.8453,39.2950,1909.00,63.00,57.00,80.76,110.00,3.00,0.00,30.32,1018.90,10.00,M,CLR,M,M,M,M,M,M,M,M,M,M,M,M,M,M,63.00,KELY 010153Z AUTO 11003KT 10SM CLR 17/14 A3032 RMK AO2 SLP189 T01720139,M
P68,2021-08-01 01:53,-116.0056,39.6014,1993.00,66.00,61.00,83.91,260.00,4.00,0.01,30.29,1018.70,M,M,M,M,M,M,M,M,M,M,M,M,M,M,M,M,M,66.00,KP68 010153Z AUTO 26004KT 19/16 A3029 RMK AO1 SLP187 P0001 T01890161,M
VGT,2021-08-01 01:53,-115.1933,36.2111,667.00,92.00,59.00,33.31,0.00,0.00,0.00,29.99,1014.20,10.00,M,FEW,M,M,M,11000.00,M,M,M,M,M,M,M,M,M,M,91.20,KVGT 010153Z 00000KT 10SM FEW110 33/15 A2999 RMK AO2 SLP142 T03330150 PNO,M
DRA,2021-08-01 01:53,-116.0278,36.6206,1009.00,89.00,54.00,30.36,0.00,0.00,0.00,30.07,1013.30,10.00,M,CLR,M,M,M,M,M,M,M,M,M,M,M,M,M,M,86.98,KDRA 010153Z AUTO 00000KT 10SM CLR 32/12 A3007 RMK AO2 SLP133 T03170122,M
LOL,2021-08-01 01:53,-118.5701,40.0684,1192.43,86.00,52.00,31.13,70.00,10.00,0.00,30.11,1015.50,10.00,M,FEW,M,M,M,12000.00,M,M,M,M,M,M,M,M,M,M,83.91,KLOL 010153Z AUTO 07010KT 10SM FEW120 30/11 A3011 RMK AO2 SLP155 T03000111,M
MEV,2021-08-01 01:55,-119.7500,38.9963,1441.42,78.80,48.20,34.13,0.00,0.00,0.00,30.20,M,10.00,M,BKN,M,M,M,11000.00,M,M,M,M,M,M,M,M,M,M,78.80,KMEV 010155Z AUTO 00000KT 10SM BKN110 26/09 A3020 RMK AO2,M
05U,2021-08-01 01:55,-116.0051,39.6042,1811.23,66.20,62.60,88.18,0.00,0.00,0.00,30.32,M,10.00,M,CLR,M,M,M,M,M,M,M,M,M,M,M,M,M,M,66.20,K05U 010155Z AUTO 00000KT 10SM CLR 19/17 A3032 RMK A01,M
BAM,2021-08-01 01:55,-116.8743,40.5990,1382.36,77.00,55.40,47.25,20.00,7.00,0.00,30.19,M,10.00,M,OVC,M,M,M,7000.00,M,M,M,M,M,M,M,M,M,M,77.00,KBAM 010155Z AUTO 02007KT 10SM OVC070 25/13 A3019 RMK AO1,M
HTH,2021-08-01 01:55,-118.6315,38.5448,1282.89,77.00,50.00,38.74,140.00,16.00,0.00,30.18,M,10.00,22.00,SCT,SCT,SCT,M,6500.00,8000.00,10000.00,M,M,M,M,M,M,M,M,77.00,KHTH 010155Z AUTO 14016G22KT 10SM SCT065 SCT080 SCT100 25/10 A3018 RMK A01,M
BVU,2021-08-01 01:55,-114.8611,35.9475,671.00,91.40,60.80,36.08,100.00,17.00,0.00,30.00,M,10.00,M,FEW,BKN,M,M,8000.00,9500.00,M,M,M,M,M,M,M,M,M,91.40,KBVU 010155Z AUTO 10017KT 10SM FEW080 BKN095 33/16 A3000 RMK AO2 LTG DSNT NE AND E,M
TMT,2021-08-01 01:55,-117.1971,39.4643,1749.34,68.20,57.40,68.38,200.00,9.00,0.00,30.29,M,10.00,M,OVC,M,M,M,11000.00,M,M,M,M,M,M,M,M,M,M,68.20,KTMT 010155Z AUTO 20009KT 10SM OVC110 20/14 A3029 RMK AO2 T02010141,M
RTS,2021-08-01 01:55,-119.8764,39.6682,1539.00,69.80,55.40,60.21,140.00,13.00,0.00,30.26,M,7.00,24.00,FEW,SCT,BKN,M,5000.00,7000.00,8000.00,M,-DZ,M,M,M,M,M,M,69.80,KRTS 010155Z AUTO 14013G24KT 7SM -DZ FEW050 SCT070 BKN080 21/13 A3026 RMK AO2,M
RNO,2021-08-01 01:55,-119.7711,39.4839,1341.00,74.00,52.00,46.27,360.00,25.00,0.00,30.17,1016.60,10.00,31.00,SCT,BKN,BKN,OVC,5500.00,10000.00,14000.00,18000.00,TS,M,M,M,33.00,330.00,2021-08-01 01:42,73.90,KRNO 010155Z 36025G31KT 10SM TS SCT055 BKN100CB BKN140 OVC180 23/11 A3017 RMK AO2 PK WND 33033/0142 LTG DSNT NE-SE RAE36 TSE10B17 SLP166 OCNL LTGIC N THRU NE TS N THRU NE MOV E CB N THRU NE MOV E T02330111 PNO $,M
WMC,2021-08-01 01:56,-117.8072,40.9019,1315.00,81.00,53.00,38.09,280.00,8.00,0.00,30.16,1016.40,10.00,M,OVC,M,M,M,11000.00,M,M,M,M,M,M,M,M,M,M,80.47,KWMC 010156Z AUTO 28008KT 10SM OVC110 27/12 A3016 RMK AO2 SLP164 T02720117,M
LAS,2021-08-01 01:56,-115.1634,36.0719,663.00,92.00,59.00,33.31,250.00,3.00,0.00,30.00,1012.90,10.00,M,SCT,BKN,M,M,10000.00,25000.00,M,M,M,M,M,M,M,M,M,91.20,KLAS 010156Z 25003KT 10SM SCT100 BKN250 33/15 A3000 RMK AO2 SLP129 T03330150,M
HND,2021-08-01 01:56,-115.1344,35.9729,742.79,89.00,63.00,41.92,0.00,0.00,0.00,30.04,1015.80,10.00,M,CLR,M,M,M,M,M,M,M,M,M,M,M,M,M,M,89.99,KHND 010156Z 00000KT 10SM CLR 32/17 A3004 RMK AO2 SLP158 T03170172,M
TPH,2021-08-01 01:56,-117.0904,38.0505,1654.00,73.00,57.00,57.23,10.00,11.00,0.00,30.26,1017.90,10.00,M,FEW,M,M,M,12000.00,M,M,M,M,M,M,M,M,M,M,73.00,KTPH 010156Z AUTO 01011KT 10SM FEW120 23/14 A3026 RMK AO2 SLP179 T02280139,M
NFL,2021-08-01 01:56,-118.7010,39.4166,1199.00,87.00,49.00,26.79,60.00,7.00,0.00,30.12,1016.50,8.00,M,FEW,M,M,M,12000.00,M,M,M,M,M,M,M,M,M,M,84.37,KNFL 010156Z AUTO 06007KT 8SM FEW120 31/09 A3012 RMK AO2 SLP165 T03060094,M
EKO,2021-08-01 01:56,-115.7860,40.8242,1367.00,68.00,60.00,75.84,0.00,0.00,0.01,30.22,1018.60,10.00,M,CLR,M,M,M,M,M,M,M,M,M,M,M,M,M,M,68.00,KEKO 010156Z AUTO 00000KT 10SM CLR 20/16 A3022 RMK AO2 SLP186 P0001 T02000156,M
INS,2021-08-01 01:58,-115.6733,36.5872,955.00,85.50,53.00,32.93,90.00,3.00,0.00,30.07,1013.50,10.00,M,FEW,M,M,M,14000.00,M,M,M,M,M,M,M,M,M,M,83.69,KINS 010158Z AUTO 09003KT 10SM FEW140 30/12 A3007 RMK AO2 SLP135 T02970117 $,M
LSV,2021-08-01 01:58,-115.0343,36.2362,570.00,93.60,56.50,28.88,230.00,5.00,0.00,29.97,1012.30,10.00,M,FEW,M,M,M,13000.00,M,M,M,M,M,M,M,M,M,M,92.10,KLSV 010158Z AUTO 23005KT 10SM FEW130 34/14 A2997 RMK AO2 SLP123 T03420136 $,M
CXP,2021-08-01 02:10,-119.7326,39.1923,1431.00,78.80,46.40,31.90,80.00,6.00,0.00,30.21,M,10.00,M,SCT,M,M,M,10000.00,M,M,M,M,M,M,M,M,M,M,78.80,KCXP 010210Z AUTO 08006KT 10SM SCT100 26/08 A3021 RMK AO2 LTG DSNT N,M
05U,2021-08-01 02:15,-116.0051,39.6042,1811.23,66.20,60.80,82.74,0.00,0.00,0.00,30.31,M,10.00,M,CLR,M,M,M,M,M,M,M,M,M,M,M,M,M,M,66.20,K05U 010215Z AUTO 00000KT 10SM CLR 19/16 A3031 RMK A01,M
MEV,2021-08-01 02:15,-119.7500,38.9963,1441.42,78.80,48.20,34.13,M,4.00,0.00,30.20,M,10.00,M,SCT,M,M,M,12000.00,M,M,M,M,M,M,M,M,M,M,78.80,KMEV 010215Z AUTO VRB04KT 10SM SCT120 26/09 A3020 RMK AO2,M
BAM,2021-08-01 02:15,-116.8743,40.5990,1382.36,75.20,57.20,53.55,60.00,6.00,0.00,30.19,M,10.00,M,SCT,OVC,M,M,7000.00,8500.00,M,M,M,M,M,M,M,M,M,75.20,KBAM 010215Z AUTO 06006KT 10SM SCT070 OVC085 24/14 A3019 RMK AO1,M
HTH,2021-08-01 02:15,-118.6315,38.5448,1282.89,75.20,51.80,43.97,90.00,25.00,0.00,30.19,M,10.00,30.00,FEW,M,M,M,6500.00,M,M,M,M,M,M,M,M,M,M,75.20,KHTH 010215Z AUTO 09025G30KT 10SM FEW065 24/11 A3019 RMK A01,M
RTS,2021-08-01 02:15,-119.8764,39.6682,1539.00,68.00,57.20,68.35,130.00,8.00,0.00,30.26,M,8.00,M,FEW,FEW,SCT,M,5000.00,7000.00,9500.00,M,M,M,M,M,M,M,M,68.00,KRTS 010215Z AUTO 13008KT 8SM FEW050 FEW070 SCT095 20/14 A3026 RMK AO2,M
TMT,2021-08-01 02:15,-117.1971,39.4643,1749.34,67.30,57.40,70.53,220.00,6.00,0.00,30.29,M,10.00,M,BKN,M,M,M,11000.00,M,M,M,M,M,M,M,M,M,M,67.30,KTMT 010215Z AUTO 22006KT 10SM BKN110 20/14 A3029 RMK AO2 LTG DSNT NE AND SW T01960141,M
BVU,2021-08-01 02:15,-114.8611,35.9475,671.00,89.60,60.80,38.18,110.00,12.00,0.00,30.00,M,10.00,M,FEW,SCT,M,M,8000.00,9500.00,M,M,M,M,M,M,M,M,M,89.54,KBVU 010215Z AUTO 11012KT 10SM FEW080 SCT095 32/16 A3000 RMK AO2,M
CXP,2021-08-01 02:30,-119.7326,39.1923,1431.00,78.80,44.60,29.79,0.00,0.00,0.00,30.22,M,10.00,M,FEW,M,M,M,10000.00,M,M,M,VCTS,M,M,M,M,M,M,78.80,KCXP 010230Z AUTO 00000KT 10SM VCTS FEW100 26/07 A3022 RMK AO2 LTG DSNT N AND E,M
RNO,2021-08-01 02:34,-119.7711,39.4839,1341.00,74.00,51.00,44.76,320.00,12.00,0.00,30.20,M,10.00,23.00,BKN,BKN,OVC,M,10000.00,14000.00,18000.00,M,M,M,M,M,28.00,360.00,2021-08-01 01:59,73.90,KRNO 010234Z 32012G23KT 280V350 10SM BKN100CB BKN140 OVC180 23/11 A3020 RMK AO2 PK WND 36028/0159 LTG DSNT NE AND E TS MOV E CB N THRU NE T02330106 PNO $,M
BVU,2021-08-01 02:35,-114.8611,35.9475,671.00,87.80,60.80,40.41,70.00,7.00,0.00,30.00,M,10.00,M,CLR,M,M,M,M,M,M,M,M,M,M,M,M,M,M,87.75,KBVU 010235Z AUTO 07007KT 10SM CLR 31/16 A3000 RMK AO2,M
RTS,2021-08-01 02:35,-119.8764,39.6682,1539.00,68.00,57.20,68.35,90.00,6.00,0.00,30.26,M,8.00,M,SCT,M,M,M,9000.00,M,M,M,M,M,M,M,M,M,M,68.00,KRTS 010235Z AUTO 09006KT 8SM SCT090 20/14 A3026 RMK AO2,M
MEV,2021-08-01 02:35,-119.7500,38.9963,1441.42,80.60,46.40,30.07,50.00,3.00,0.00,30.20,M,10.00,M,FEW,M,M,M,11000.00,M,M,M,M,M,M,M,M,M,M,79.56,KMEV 010235Z AUTO 05003KT 10SM FEW110 27/08 A3020 RMK AO2,M
TMT,2021-08-01 02:35,-117.1971,39.4643,1749.34,66.40,58.60,75.97,240.00,8.00,0.00,30.29,M,10.00,M,SCT,M,M,M,11000.00,M,M,M,M,M,M,M,M,M,M,66.40,KTMT 010235Z AUTO 24008KT 10SM SCT110 19/15 A3029 RMK AO2 LTG DSNT NE AND SW T01910148,M
BAM,2021-08-01 02:35,-116.8743,40.5990,1382.36,75.20,59.00,57.12,130.00,8.00,0.00,30.19,M,10.00,15.00,BKN,OVC,M,M,7000.00,8500.00,M,M,M,M,M,M,M,M,M,75.20,KBAM 010235Z AUTO 13008G15KT 10SM BKN070 OVC085 24/15 A3019 RMK AO1,M
HTH,2021-08-01 02:35,-118.6315,38.5448,1282.89,71.60,57.20,60.44,80.00,24.00,0.00,30.21,M,9.00,30.00,FEW,SCT,M,M,6000.00,8000.00,M,M,M,M,M,M,M,M,M,71.60,KHTH 010235Z AUTO 08024G30KT 9SM FEW060 SCT080 22/14 A3021 RMK A01,M
05U,2021-08-01 02:35,-116.0051,39.6042,1811.23,66.20,62.60,88.18,150.00,5.00,0.00,30.31,M,10.00,M,SCT,M,M,M,11000.00,M,M,M,M,M,M,M,M,M,M,66.20,K05U 010235Z AUTO 15005KT 10SM SCT110 19/17 A3031 RMK A01,M
CXP,2021-08-01 02:50,-119.7326,39.1923,1431.00,80.60,44.60,28.08,20.00,5.00,0.00,30.22,M,10.00,M,SCT,M,M,M,11000.00,M,M,M,M,M,M,M,M,M,M,79.42,KCXP 010250Z AUTO 02005KT 10SM SCT110 27/07 A3022 RMK AO2 LTG DSNT NE-SE,M
LOL,2021-08-01 02:53,-118.5701,40.0684,1192.43,85.00,54.00,34.70,340.00,3.00,0.00,30.13,1016.00,10.00,M,CLR,M,M,M,M,M,M,M,M,M,M,M,M,M,M,83.37,KLOL 010253Z AUTO 34003KT 10SM CLR 29/12 A3013 RMK AO2 SLP160 T02940122 53002,M
DRA,2021-08-01 02:53,-116.0278,36.6206,1009.00,87.00,56.00,34.66,0.00,0.00,0.00,30.07,1013.50,10.00,M,BKN,M,M,M,12000.00,M,M,M,M,M,M,M,M,M,M,85.61,KDRA 010253Z AUTO 00000KT 10SM BKN120 31/13 A3007 RMK AO2 SLP135 T03060133 55001,M
P68,2021-08-01 02:53,-116.0056,39.6014,1993.00,66.00,61.00,83.91,170.00,6.00,0.00,30.28,1017.90,M,M,M,M,M,M,M,M,M,M,M,M,M,M,M,M,M,66.00,KP68 010253Z AUTO 17006KT 19/16 A3028 RMK AO1 SLP179 60003 T01890161 58005,M
VGT,2021-08-01 02:53,-115.1933,36.2111,667.00,92.00,59.00,33.31,0.00,0.00,0.00,29.99,1014.20,10.00,M,BKN,M,M,M,12000.00,M,M,M,M,M,M,M,M,M,M,91.20,KVGT 010253Z 00000KT 10SM BKN120 33/15 A2999 RMK AO2 SLP142 6//// T03330150 55001 PNO,M
ELY,2021-08-01 02:53,-114.8453,39.2950,1909.00,61.00,58.00,89.52,210.00,6.00,0.00,30.32,1018.30,10.00,M,BKN,M,M,M,11000.00,M,M,M,M,M,M,M,M,M,M,61.00,KELY 010253Z AUTO 21006KT 10SM BKN110 16/14 A3032 RMK AO2 SLP183 60000 T01610144 50001,M
BVU,2021-08-01 02:55,-114.8611,35.9475,671.00,87.80,59.00,37.90,70.00,5.00,0.00,30.00,M,10.00,M,CLR,M,M,M,M,M,M,M,M,M,M,M,M,M,M,87.12,KBVU 010255Z AUTO 07005KT 10SM CLR 31/15 A3000 RMK AO2,M
RTS,2021-08-01 02:55,-119.8764,39.6682,1539.00,69.80,55.40,60.21,0.00,0.00,0.00,30.27,M,8.00,10.00,BKN,M,M,M,8500.00,M,M,M,M,M,M,M,M,M,M,69.80,KRTS 010255Z AUTO 00000G10KT 8SM BKN085 21/13 A3027 RMK AO2,M
TMT,2021-08-01 02:55,-117.1971,39.4643,1749.34,65.70,59.00,78.96,240.00,8.00,0.00,30.29,M,10.00,M,SCT,M,M,M,11000.00,M,M,M,M,M,M,M,M,M,M,65.70,KTMT 010255Z AUTO 24008KT 10SM SCT110 19/15 A3029 RMK AO2 LTG DSNT SW T01870150,M
HTH,2021-08-01 02:55,-118.6315,38.5448,1282.89,69.80,55.40,60.21,100.00,20.00,0.00,30.22,M,9.00,28.00,FEW,M,M,M,8000.00,M,M,M,M,M,M,M,M,M,M,69.80,KHTH 010255Z AUTO 10020G28KT 9SM FEW080 21/13 A3022 RMK A01,M
BAM,2021-08-01 02:55,-116.8743,40.5990,1382.36,73.40,59.00,60.67,130.00,8.00,0.00,30.19,M,10.00,M,SCT,OVC,M,M,7000.00,8000.00,M,M,M,M,M,M,M,M,M,73.40,KBAM 010255Z AUTO 13008KT 10SM SCT070 OVC080 23/15 A3019 RMK AO1,M
MEV,2021-08-01 02:55,-119.7500,38.9963,1441.42,78.80,42.80,27.81,30.00,7.00,0.00,30.20,M,10.00,M,FEW,M,M,M,11000.00,M,M,M,M,M,M,M,M,M,M,78.80,KMEV 010255Z AUTO 03007KT 10SM FEW110 26/06 A3020 RMK AO2 LTG DSNT N-SE,M
05U,2021-08-01 02:55,-116.0051,39.6042,1811.23,66.20,62.60,88.18,170.00,3.00,0.00,30.31,M,10.00,M,FEW,M,M,M,11000.00,M,M,M,M,M,M,M,M,M,M,66.20,K05U 010255Z AUTO 17003KT 10SM FEW110 19/17 A3031 RMK A01,M
RNO,2021-08-01 02:55,-119.7711,39.4839,1341.00,73.00,54.00,51.33,310.00,6.00,0.00,30.21,1017.80,10.00,M,BKN,BKN,OVC,M,10000.00,14000.00,18000.00,M,M,M,M,M,28.00,360.00,2021-08-01 01:59,73.00,KRNO 010255Z 31006KT 10SM BKN100CB BKN140 OVC180 23/12 A3021 RMK AO2 PK WND 36028/0159 LTG DSNT N-E SLP178 TS MOVD E CB NE MOV E HZ SW THRU NW 60000 T02280122 53022 PNO $,M
TPH,2021-08-01 02:56,-117.0904,38.0505,1654.00,70.00,54.00,56.82,320.00,19.00,0.00,30.28,1018.70,10.00,M,FEW,M,M,M,11000.00,M,M,M,M,M,M,M,M,M,M,70.00,KTPH 010256Z AUTO 32019KT 10SM FEW110 21/12 A3028 RMK AO2 SLP187 T02110122 53011,M
EKO,2021-08-01 02:56,-115.7860,40.8242,1367.00,67.00,62.00,84.56,100.00,5.00,0.00,30.23,1019.10,10.00,M,FEW,M,M,M,11000.00,M,M,M,M,M,M,M,M,M,M,66.90,KEKO 010256Z AUTO 10005KT 10SM FEW110 19/17 A3023 RMK AO2 SLP191 60008 T01940167 53000,M
NFL,2021-08-01 02:56,-118.7010,39.4166,1199.00,80.00,50.00,34.98,250.00,7.00,0.00,30.15,1017.40,9.00,M,CLR,M,M,M,M,M,M,M,M,M,M,M,M,M,M,79.60,KNFL 010256Z AUTO 25007KT 9SM CLR 27/10 A3015 RMK AO2 SLP174 T02670100 53010,M
LAS,2021-08-01 02:56,-115.1634,36.0719,663.00,91.00,59.00,34.27,0.00,0.00,0.00,30.00,1012.90,10.00,M,FEW,SCT,BKN,M,10000.00,14000.00,25000.00,M,M,M,M,M,M,M,M,90.27,KLAS 010256Z 00000KT 10SM FEW100 SCT140 BKN250 33/15 A3000 RMK AO2 SLP129 T03280150 56001,M
HND,2021-08-01 02:56,-115.1344,35.9729,742.79,86.00,66.00,51.37,140.00,4.00,0.00,30.04,1015.80,10.00,M,CLR,M,M,M,M,M,M,M,M,M,M,M,M,M,M,88.28,KHND 010256Z 14004KT 10SM CLR 30/19 A3004 RMK AO2 SLP158 T03000189 56002,M
WMC,2021-08-01 02:56,-117.8072,40.9019,1315.00,77.00,54.00,44.90,260.00,8.00,0.00,30.16,1016.70,10.00,M,OVC,M,M,M,11000.00,M,M,M,M,M,M,M,M,M,M,77.00,KWMC 010256Z AUTO 26008KT 10SM OVC110 25/12 A3016 RMK AO2 SLP167 T02500122 51006,M
LSV,2021-08-01 02:58,-115.0343,36.2362,570.00,91.80,60.00,34.76,120.00,8.00,0.00,29.97,1012.30,10.00,M,FEW,M,M,M,20000.00,M,M,M,M,M,M,M,M,M,M,91.52,KLSV 010258Z AUTO 12008KT 10SM FEW200 33/16 A2997 RMK AO2 SLP123 T03320156 55001 $,M
INS,2021-08-01 02:58,-115.6733,36.5872,955.00,82.40,56.30,40.90,0.00,0.00,0.00,30.07,1013.80,10.00,M,OVC,M,M,M,12000.00,M,M,M,M,M,M,M,M,M,M,81.91,KINS 010258Z AUTO 00000KT 10SM OVC120 28/14 A3007 RMK AO2 SLP138 T02800135 55002 $,M
CXP,2021-08-01 03:10,-119.7326,39.1923,1431.00,80.60,42.80,26.22,M,4.00,0.00,30.23,M,10.00,M,BKN,M,M,M,11000.00,M,M,M,M,M,M,M,M,M,M,79.30,KCXP 010310Z AUTO VRB04KT 10SM BKN110 27/06 A3023 RMK AO2 LTG DSNT N,M
BVU,2021-08-01 03:15,-114.8611,35.9475,671.00,87.80,60.80,40.41,50.00,4.00,0.00,30.00,M,10.00,M,CLR,M,M,M,M,M,M,M,M,M,M,M,M,M,M,87.75,KBVU 010315Z AUTO 05004KT 10SM CLR 31/16 A3000 RMK AO2,M
05U,2021-08-01 03:15,-116.0051,39.6042,1811.23,64.40,60.80,88.09,0.00,0.00,0.00,30.31,M,10.00,M,CLR,M,M,M,M,M,M,M,M,M,M,M,M,M,M,64.40,K05U 010315Z AUTO 00000KT 10SM CLR 18/16 A3031 RMK A01,M
BAM,2021-08-01 03:15,-116.8743,40.5990,1382.36,73.40,59.00,60.67,120.00,7.00,0.00,30.19,M,10.00,M,SCT,SCT,M,M,8000.00,12000.00,M,M,M,M,M,M,M,M,M,73.40,KBAM 010315Z AUTO 12007KT 10SM SCT080 SCT120 23/15 A3019 RMK AO1,M
MEV,2021-08-01 03:15,-119.7500,38.9963,1441.42,78.80,46.40,31.90,350.00,6.00,0.00,30.21,M,10.00,M,BKN,M,M,M,10000.00,M,M,M,M,M,M,M,M,M,M,78.80,KMEV 010315Z AUTO 35006KT 10SM BKN100 26/08 A3021 RMK AO2,M
TMT,2021-08-01 03:15,-117.1971,39.4643,1749.34,65.50,59.50,80.94,240.00,6.00,0.00,30.29,M,10.00,M,CLR,M,M,M,M,M,M,M,M,M,M,M,M,M,M,65.50,KTMT 010315Z AUTO 24006KT 10SM CLR 19/15 A3029 RMK AO2 T01860153,M
HTH,2021-08-01 03:15,-118.6315,38.5448,1282.89,71.60,55.40,56.63,140.00,13.00,0.00,30.24,M,10.00,22.00,CLR,M,M,M,M,M,M,M,M,M,M,M,M,M,M,71.60,KHTH 010315Z AUTO 14013G22KT 10SM CLR 22/13 A3024 RMK A01,M
RTS,2021-08-01 03:15,-119.8764,39.6682,1539.00,68.00,55.40,64.04,60.00,7.00,0.00,30.27,M,8.00,M,BKN,OVC,M,M,8500.00,10000.00,M,M,M,M,M,M,M,M,M,68.00,KRTS 010315Z AUTO 06007KT 8SM BKN085 OVC100 20/13 A3027 RMK AO2,M
CXP,2021-08-01 03:30,-119.7326,39.1923,1431.00,75.20,50.00,41.14,90.00,6.00,0.00,30.24,M,10.00,13.00,BKN,M,M,M,12000.00,M,M,M,M,M,M,M,M,M,M,75.20,KCXP 010330Z AUTO 09006G13KT 10SM BKN120 24/10 A3024 RMK AO2,M
HTH,2021-08-01 03:35,-118.6315,38.5448,1282.89,71.60,55.40,56.63,190.00,5.00,0.00,30.25,M,10.00,M,SCT,BKN,M,M,9000.00,11000.00,M,M,M,M,M,M,M,M,M,71.60,KHTH 010335Z AUTO 19005KT 10SM SCT090 BKN110 22/13 A3025 RMK A01,M
RTS,2021-08-01 03:35,-119.8764,39.6682,1539.00,68.00,55.40,64.04,0.00,0.00,0.00,30.27,M,10.00,M,BKN,M,M,M,10000.00,M,M,M,M,M,M,M,M,M,M,68.00,KRTS 010335Z AUTO 00000KT 10SM BKN100 20/13 A3027 RMK AO2,M
BVU,2021-08-01 03:35,-114.8611,35.9475,671.00,87.80,62.60,43.07,60.00,4.00,0.00,30.01,M,10.00,M,CLR,M,M,M,M,M,M,M,M,M,M,M,M,M,M,88.48,KBVU 010335Z AUTO 06004KT 10SM CLR 31/17 A3001 RMK AO2,M
05U,2021-08-01 03:35,-116.0051,39.6042,1811.23,64.40,60.80,88.09,0.00,0.00,0.00,30.33,M,10.00,M,CLR,M,M,M,M,M,M,M,M,M,M,M,M,M,M,64.40,K05U 010335Z AUTO 00000KT 10SM CLR 18/16 A3033 RMK A01,M
MEV,2021-08-01 03:35,-119.7500,38.9963,1441.42,77.00,46.40,33.85,360.00,13.00,0.00,30.22,M,10.00,M,BKN,M,M,M,11000.00,M,M,M,M,M,M,M,M,M,M,77.00,KMEV 010335Z AUTO 36013KT 10SM BKN110 25/08 A3022 RMK AO2,M
TMT,2021-08-01 03:35,-117.1971,39.4643,1749.34,65.30,59.00,80.06,220.00,7.00,0.00,30.29,M,10.00,M,BKN,M,M,M,11000.00,M,M,M,M,M,M,M,M,M,M,65.30,KTMT 010335Z AUTO 22007KT 10SM BKN110 19/15 A3029 RMK AO2 LTG DSNT NE T01850150,M
BAM,2021-08-01 03:35,-116.8743,40.5990,1382.36,71.60,59.00,64.48,130.00,7.00,0.00,30.20,M,10.00,M,BKN,M,M,M,12000.00,M,M,M,M,M,M,M,M,M,M,71.60,KBAM 010335Z AUTO 13007KT 10SM BKN120 22/15 A3020 RMK AO1,M
CXP,2021-08-01 03:50,-119.7326,39.1923,1431.00,75.20,50.00,41.14,70.00,7.00,0.00,30.25,M,10.00,M,BKN,M,M,M,12000.00,M,M,M,M,M,M,M,M,M,M,75.20,KCXP 010350Z AUTO 07007KT 10SM BKN120 24/10 A3025 RMK AO2,M
VGT,2021-08-01 03:53,-115.1933,36.2111,667.00,91.00,63.00,39.49,0.00,0.00,0.00,30.00,1014.60,10.00,M,CLR,M,M,M,M,M,M,M,M,M,M,M,M,M,M,92.00,KVGT 010353Z AUTO 00000KT 10SM CLR 33/17 A3000 RMK AO2 SLP146 T03280172 PNO,M
ELY,2021-08-01 03:53,-114.8453,39.2950,1909.00,59.00,58.00,96.13,170.00,8.00,0.00,30.35,1018.80,10.00,M,CLR,M,M,M,M,M,M,M,M,M,M,M,M,M,M,59.00,KELY 010353Z AUTO 17008KT 10SM CLR 15/14 A3035 RMK AO2 SLP188 T01500144,M
DRA,2021-08-01 03:53,-116.0278,36.6206,1009.00,85.00,56.00,37.18,150.00,7.00,0.00,30.09,1014.00,10.00,M,FEW,M,M,M,12000.00,M,M,M,M,M,M,M,M,M,M,83.74,KDRA 010353Z AUTO 15007KT 10SM FEW120 29/13 A3009 RMK AO2 SLP140 T02940133,M
P68,2021-08-01 03:53,-116.0056,39.6014,1993.00,64.00,60.00,87.14,150.00,4.00,0.00,30.31,1019.00,M,M,M,M,M,M,M,M,M,M,M,M,M,M,M,M,M,64.00,KP68 010353Z AUTO 15004KT 18/16 A3031 RMK AO1 SLP190 T01780156,M
LOL,2021-08-01 03:53,-118.5701,40.0684,1192.43,81.00,49.00,32.60,50.00,7.00,0.00,30.15,1016.80,10.00,M,CLR,M,M,M,M,M,M,M,M,M,M,M,M,M,M,80.01,KLOL 010353Z AUTO 05007KT 10SM CLR 27/09 A3015 RMK AO2 SLP168 T02720094,M
RNO,2021-08-01 03:55,-119.7711,39.4839,1341.00,72.00,58.00,61.15,280.00,5.00,0.00,30.22,1018.20,9.00,M,SCT,BKN,BKN,OVC,10000.00,14000.00,18000.00,21000.00,M,M,M,M,M,M,M,72.00,KRNO 010355Z 28005KT 9SM SCT100 BKN140 BKN180 OVC210 22/14 A3022 RMK AO2 LTG DSNT NE AND E SLP182 FU AND HZ ALQDS T02220144 PNO $,M
TMT,2021-08-01 03:55,-117.1971,39.4643,1749.34,64.80,60.00,84.73,220.00,8.00,0.00,30.31,M,10.00,M,OVC,M,M,M,11000.00,M,M,M,M,M,M,M,M,M,M,64.80,KTMT 010355Z AUTO 22008KT 10SM OVC110 18/16 A3031 RMK AO2 LTG DSNT S T01820156,M
MEV,2021-08-01 03:55,-119.7500,38.9963,1441.42,77.00,46.40,33.85,10.00,11.00,0.00,30.23,M,10.00,18.00,OVC,M,M,M,11000.00,M,M,M,M,M,M,M,M,M,M,77.00,KMEV 010355Z AUTO 01011G18KT 10SM OVC110 25/08 A3023 RMK AO2,M
05U,2021-08-01 03:55,-116.0051,39.6042,1811.23,64.40,60.80,88.09,0.00,0.00,0.00,30.34,M,10.00,M,BKN,M,M,M,10000.00,M,M,M,M,M,M,M,M,M,M,64.40,K05U 010355Z AUTO 00000KT 10SM BKN100 18/16 A3034 RMK A01,M
BAM,2021-08-01 03:55,-116.8743,40.5990,1382.36,71.60,60.80,68.75,130.00,7.00,0.00,30.21,M,10.00,M,SCT,OVC,M,M,9000.00,12000.00,M,M,M,M,M,M,M,M,M,71.60,KBAM 010355Z AUTO 13007KT 10SM SCT090 OVC120 22/16 A3021 RMK AO1,M
HTH,2021-08-01 03:55,-118.6315,38.5448,1282.89,73.40,53.60,49.90,150.00,3.00,0.00,30.26,M,10.00,M,SCT,SCT,M,M,9000.00,11000.00,M,M,M,M,M,M,M,M,M,73.40,KHTH 010355Z AUTO 15003KT 10SM SCT090 SCT110 23/12 A3026 RMK A01,M
BVU,2021-08-01 03:55,-114.8611,35.9475,671.00,86.00,62.60,45.61,0.00,0.00,0.00,30.02,M,10.00,M,CLR,M,M,M,M,M,M,M,M,M,M,M,M,M,M,86.72,KBVU 010355Z AUTO 00000KT 10SM CLR 30/17 A3002 RMK AO2,M
RTS,2021-08-01 03:55,-119.8764,39.6682,1539.00,68.00,55.40,64.04,0.00,0.00,0.00,30.27,M,10.00,M,BKN,BKN,M,M,8500.00,11000.00,M,M,M,M,M,M,M,M,M,68.00,KRTS 010355Z AUTO 00000KT 10SM BKN085 BKN110 20/13 A3027 RMK AO2,M
LAS,2021-08-01 03:56,-115.1634,36.0719,663.00,89.00,60.00,37.83,0.00,0.00,0.00,30.01,1013.30,10.00,M,FEW,SCT,BKN,M,10000.00,14000.00,25000.00,M,M,M,M,M,M,M,M,88.76,KLAS 010356Z 00000KT 10SM FEW100 SCT140 BKN250 32/16 A3001 RMK AO2 SLP133 T03170156,M
EKO,2021-08-01 03:56,-115.7860,40.8242,1367.00,67.00,61.00,81.33,100.00,5.00,0.00,30.25,1019.50,10.00,M,SCT,M,M,M,11000.00,M,M,M,M,M,M,M,M,M,M,66.90,KEKO 010356Z AUTO 10005KT 10SM SCT110 19/16 A3025 RMK AO2 SLP195 T01940161,M
WMC,2021-08-01 03:56,-117.8072,40.9019,1315.00,74.00,55.00,51.64,260.00,5.00,0.00,30.18,1017.30,10.00,M,CLR,M,M,M,M,M,M,M,M,M,M,M,M,M,M,73.90,KWMC 010356Z AUTO 26005KT 10SM CLR 23/13 A3018 RMK AO2 SLP173 T02330128,M
HND,2021-08-01 03:56,-115.1344,35.9729,742.79,85.00,65.00,51.21,160.00,4.00,0.00,30.05,1016.20,10.00,M,CLR,M,M,M,M,M,M,M,M,M,M,M,M,M,M,86.62,KHND 010356Z AUTO 16004KT 10SM CLR 29/18 A3005 RMK AO2 SLP162 T02940183,M
TPH,2021-08-01 03:56,-117.0904,38.0505,1654.00,68.00,54.00,60.86,320.00,21.00,0.00,30.31,1019.70,10.00,30.00,BKN,M,M,M,8500.00,M,M,M,M,M,M,M,32.00,330.00,2021-08-01 03:28,68.00,KTPH 010356Z AUTO 32021G30KT 10SM BKN085 20/12 A3031 RMK AO2 PK WND 33032/0328 SLP197 T02000122,M
NFL,2021-08-01 03:56,-118.7010,39.4166,1199.00,79.00,50.00,36.27,290.00,15.00,0.00,30.17,1018.00,10.00,M,BKN,OVC,M,M,8500.00,12000.00,M,M,M,M,M,M,M,M,M,79.00,KNFL 010356Z AUTO 29015KT 10SM BKN085 OVC120 26/10 A3017 RMK AO2 SLP180 T02610100,M
LSV,2021-08-01 03:58,-115.0343,36.2362,570.00,91.00,60.00,35.75,80.00,3.00,0.00,29.98,1012.60,10.00,M,OVC,M,M,M,13000.00,M,M,M,M,M,M,M,M,M,M,90.58,KLSV 010358Z AUTO 08003KT 10SM OVC130 33/16 A2998 RMK AO2 SLP126 T03270156 $,M
INS,2021-08-01 03:58,-115.6733,36.5872,955.00,82.40,59.50,45.88,170.00,4.00,0.00,30.08,1014.20,10.00,M,BKN,M,M,M,13000.00,M,M,M,M,M,M,M,M,M,M,82.58,KINS 010358Z AUTO 17004KT 10SM BKN130 28/15 A3008 RMK AO2 SLP142 T02800153 $,M
CXP,2021-08-01 04:10,-119.7326,39.1923,1431.00,75.20,48.20,38.46,330.00,6.00,0.00,30.25,M,10.00,M,FEW,M,M,M,12000.00,M,M,M,M,M,M,M,M,M,M,75.20,KCXP 010410Z AUTO 33006KT 10SM FEW120 24/09 A3025 RMK AO2,M
BVU,2021-08-01 04:15,-114.8611,35.9475,671.00,86.00,62.60,45.61,0.00,0.00,0.00,30.02,M,10.00,M,CLR,M,M,M,M,M,M,M,M,M,M,M,M,M,M,86.72,KBVU 010415Z AUTO 00000KT 10SM CLR 30/17 A3002 RMK AO2,M
TMT,2021-08-01 04:15,-117.1971,39.4643,1749.34,64.40,60.80,88.09,200.00,6.00,0.00,30.32,M,10.00,M,SCT,BKN,M,M,6000.00,11000.00,M,M,M,M,M,M,M,M,M,64.40,KTMT 010415Z AUTO 20006KT 10SM SCT060 BKN110 18/16 A3032 RMK AO2 T01800160,M
RTS,2021-08-01 04:15,-119.8764,39.6682,1539.00,68.00,57.20,68.35,0.00,0.00,0.00,30.27,M,10.00,M,FEW,M,M,M,8500.00,M,M,M,M,M,M,M,M,M,M,68.00,KRTS 010415Z AUTO 00000KT 10SM FEW085 20/14 A3027 RMK AO2,M
HTH,2021-08-01 04:15,-118.6315,38.5448,1282.89,73.40,53.60,49.90,190.00,5.00,0.00,30.27,M,10.00,M,FEW,FEW,M,M,9000.00,11000.00,M,M,M,M,M,M,M,M,M,73.40,KHTH 010415Z AUTO 19005KT 10SM FEW090 FEW110 23/12 A3027 RMK A01,M
BAM,2021-08-01 04:15,-116.8743,40.5990,1382.36,71.60,59.00,64.48,130.00,5.00,0.00,30.21,M,10.00,M,SCT,OVC,M,M,9000.00,12000.00,M,M,M,M,M,M,M,M,M,71.60,KBAM 010415Z AUTO 13005KT 10SM SCT090 OVC120 22/15 A3021 RMK AO1,M
MEV,2021-08-01 04:15,-119.7500,38.9963,1441.42,77.00,48.20,36.22,20.00,7.00,0.00,30.23,M,10.00,M,OVC,M,M,M,11000.00,M,M,M,M,M,M,M,M,M,M,77.00,KMEV 010415Z AUTO 02007KT 10SM OVC110 25/09 A3023 RMK AO2,M
05U,2021-08-01 04:15,-116.0051,39.6042,1811.23,64.40,60.80,88.09,0.00,0.00,0.00,30.35,M,10.00,M,OVC,M,M,M,9500.00,M,M,M,M,M,M,M,M,M,M,64.40,K05U 010415Z AUTO 00000KT 10SM OVC095 18/16 A3035 RMK A01,M
CXP,2021-08-01 04:30,-119.7326,39.1923,1431.00,75.20,50.00,41.14,0.00,0.00,0.00,30.26,M,10.00,M,CLR,M,M,M,M,M,M,M,M,M,M,M,M,M,M,75.20,KCXP 010430Z AUTO 00000KT 10SM CLR 24/10 A3026 RMK AO2,M
BAM,2021-08-01 04:35,-116.8743,40.5990,1382.36,71.60,59.00,64.48,130.00,5.00,0.00,30.22,M,10.00,M,SCT,OVC,M,M,9000.00,11000.00,M,M,M,M,M,M,M,M,M,71.60,KBAM 010435Z AUTO 13005KT 10SM SCT090 OVC110 22/15 A3022 RMK AO1,M
HTH,2021-08-01 04:35,-118.6315,38.5448,1282.89,73.40,53.60,49.90,160.00,5.00,0.00,30.27,M,10.00,M,CLR,M,M,M,M,M,M,M,M,M,M,M,M,M,M,73.40,KHTH 010435Z AUTO 16005KT 10SM CLR 23/12 A3027 RMK A01,M
MEV,2021-08-01 04:35,-119.7500,38.9963,1441.42,75.20,48.20,38.46,340.00,6.00,0.00,30.24,M,10.00,M,OVC,M,M,M,11000.00,M,M,M,M,M,M,M,M,M,M,75.20,KMEV 010435Z AUTO 34006KT 10SM OVC110 24/09 A3024 RMK AO2,M
05U,2021-08-01 04:35,-116.0051,39.6042,1811.23,62.60,60.80,93.83,0.00,0.00,0.00,30.34,M,10.00,M,FEW,FEW,OVC,M,6000.00,7500.00,9500.00,M,M,M,M,M,M,M,M,62.60,K05U 010435Z AUTO 00000KT 10SM FEW060 FEW075 OVC095 17/16 A3034 RMK A01,M
TMT,2021-08-01 04:35,-117.1971,39.4643,1749.34,65.00,58.60,80.03,220.00,10.00,0.00,30.34,M,10.00,M,BKN,OVC,M,M,6000.00,7000.00,M,M,-RA,M,M,M,M,M,M,64.90,KTMT 010435Z AUTO 22010KT 10SM -RA BKN060 OVC070 18/15 A3034 RMK AO2 T01830148,M
RTS,2021-08-01 04:35,-119.8764,39.6682,1539.00,66.20,57.20,72.74,0.00,0.00,0.00,30.28,M,10.00,M,CLR,M,M,M,M,M,M,M,M,M,M,M,M,M,M,66.20,KRTS 010435Z AUTO 00000KT 10SM CLR 19/14 A3028 RMK AO2,M
BVU,2021-08-01 04:35,-114.8611,35.9475,671.00,84.20,60.80,45.34,0.00,0.00,0.00,30.03,M,10.00,M,FEW,M,M,M,12000.00,M,M,M,M,M,M,M,M,M,M,84.43,KBVU 010435Z AUTO 00000KT 10SM FEW120 29/16 A3003 RMK AO2,M
CXP,2021-08-01 04:50,-119.7326,39.1923,1431.00,75.20,48.20,38.46,0.00,0.00,0.00,30.27,M,10.00,M,FEW,M,M,M,12000.00,M,M,M,M,M,M,M,M,M,M,75.20,KCXP 010450Z AUTO 00000KT 10SM FEW120 24/09 A3027 RMK AO2,M
P68,2021-08-01 04:53,-116.0056,39.6014,1993.00,64.00,60.00,87.14,220.00,3.00,0.00,30.31,1018.90,M,M,M,M,M,M,M,M,M,M,M,M,M,M,M,M,M,64.00,KP68 010453Z AUTO 22003KT 18/16 A3031 RMK AO1 SLP189 T01780156,M
VGT,2021-08-01 04:53,-115.1933,36.2111,667.00,89.00,66.00,46.55,180.00,4.00,0.00,30.01,1015.00,10.00,M,BKN,M,M,M,12000.00,M,M,M,M,M,M,M,M,M,M,91.60,KVGT 010453Z AUTO 18004KT 10SM BKN120 32/19 A3001 RMK AO2 SLP150 T03170189 PNO,M
LOL,2021-08-01 04:53,-118.5701,40.0684,1192.43,77.00,49.00,37.19,110.00,3.00,0.00,30.17,1017.70,10.00,M,OVC,M,M,M,10000.00,M,M,M,M,M,M,M,M,M,M,77.00,KLOL 010453Z AUTO 11003KT 10SM OVC100 25/09 A3017 RMK AO2 LTG DSNT SW AND W SLP177 T02500094,M
ELY,2021-08-01 04:53,-114.8453,39.2950,1909.00,57.00,57.00,100.00,170.00,7.00,0.00,30.35,1018.60,10.00,M,CLR,M,M,M,M,M,M,M,M,M,M,M,M,M,M,57.00,KELY 010453Z AUTO 17007KT 10SM CLR 14/14 A3035 RMK AO2 SLP186 T01390139,M
DRA,2021-08-01 04:53,-116.0278,36.6206,1009.00,83.00,58.00,42.63,130.00,5.00,0.00,30.10,1014.70,10.00,M,FEW,M,M,M,11000.00,M,M,M,M,M,M,M,M,M,M,82.60,KDRA 010453Z AUTO 13005KT 10SM FEW110 28/14 A3010 RMK AO2 SLP147 T02830144,M
05U,2021-08-01 04:55,-116.0051,39.6042,1811.23,62.60,60.80,93.83,0.00,0.00,0.00,30.34,M,10.00,M,FEW,FEW,OVC,M,6000.00,7500.00,9000.00,M,M,M,M,M,M,M,M,62.60,K05U 010455Z AUTO 00000KT 10SM FEW060 FEW075 OVC090 17/16 A3034 RMK A01,M
RTS,2021-08-01 04:55,-119.8764,39.6682,1539.00,66.20,57.20,72.74,30.00,3.00,0.00,30.29,M,10.00,M,FEW,M,M,M,11000.00,M,M,M,M,M,M,M,M,M,M,66.20,KRTS 010455Z AUTO 03003KT 10SM FEW110 19/14 A3029 RMK AO2,M
HTH,2021-08-01 04:55,-118.6315,38.5448,1282.89,71.60,53.60,53.03,150.00,5.00,0.00,30.27,M,10.00,M,FEW,M,M,M,12000.00,M,M,M,M,M,M,M,M,M,M,71.60,KHTH 010455Z AUTO 15005KT 10SM FEW120 22/12 A3027 RMK A01,M
TMT,2021-08-01 04:55,-117.1971,39.4643,1749.34,63.00,57.00,80.47,220.00,10.00,0.00,30.34,M,10.00,M,SCT,BKN,OVC,M,5000.00,6000.00,11000.00,M,-DZ,M,M,M,M,M,M,63.10,KTMT 010455Z AUTO 22010KT 10SM -DZ SCT050 BKN060 OVC110 17/14 A3034 RMK AO2 LTG DSNT SE T01730139,M
BVU,2021-08-01 04:55,-114.8611,35.9475,671.00,84.20,62.60,48.32,360.00,4.00,0.00,30.03,M,10.00,M,BKN,M,M,M,11000.00,M,M,M,M,M,M,M,M,M,M,85.03,KBVU 010455Z AUTO 36004KT 10SM BKN110 29/17 A3003 RMK AO2,M
BAM,2021-08-01 04:55,-116.8743,40.5990,1382.36,71.60,59.00,64.48,120.00,4.00,0.00,30.23,M,10.00,M,OVC,M,M,M,9000.00,M,M,M,M,M,M,M,M,M,M,71.60,KBAM 010455Z AUTO 12004KT 10SM OVC090 22/15 A3023 RMK AO1,M
RNO,2021-08-01 04:55,-119.7711,39.4839,1341.00,74.00,54.00,49.79,0.00,0.00,0.00,30.24,1018.70,10.00,M,SCT,BKN,BKN,OVC,9000.00,14000.00,18000.00,21000.00,M,M,M,M,M,M,M,73.90,KRNO 010455Z 00000KT 10SM SCT090 BKN140 BKN180 OVC210 23/12 A3024 RMK AO2 LTG DSNT NE SLP187 FU AND HZ ALQDS T02330122 PNO $,M
MEV,2021-08-01 04:55,-119.7500,38.9963,1441.42,75.20,48.20,38.46,340.00,7.00,0.00,30.25,M,10.00,M,OVC,M,M,M,11000.00,M,M,M,M,M,M,M,M,M,M,75.20,KMEV 010455Z AUTO 34007KT 10SM OVC110 24/09 A3025 RMK AO2,M
EKO,2021-08-01 04:56,-115.7860,40.8242,1367.00,68.00,61.00,78.30,30.00,3.00,0.00,30.25,1019.40,10.00,M,CLR,M,M,M,M,M,M,M,M,M,M,M,M,M,M,68.00,KEKO 010456Z AUTO 03003KT 10SM CLR 20/16 A3025 RMK AO2 SLP194 T02000161,M
HND,2021-08-01 04:56,-115.1344,35.9729,742.79,82.00,66.00,58.43,0.00,0.00,0.00,30.07,1016.90,10.00,M,CLR,M,M,M,M,M,M,M,M,M,M,M,M,M,M,84.15,KHND 010456Z AUTO 00000KT 10SM CLR 28/19 A3007 RMK AO2 SLP169 T02780189,M
NFL,2021-08-01 04:56,-118.7010,39.4166,1199.00,75.00,54.00,47.99,230.00,11.00,0.00,30.22,1019.40,8.00,M,SCT,BKN,OVC,M,5000.00,7000.00,8500.00,M,M,M,M,M,M,M,M,75.00,KNFL 010456Z AUTO 23011KT 8SM SCT050 BKN070 OVC085 24/12 A3022 RMK AO2 SLP194 T02390122,M
WMC,2021-08-01 04:56,-117.8072,40.9019,1315.00,72.00,56.00,56.89,280.00,4.00,0.00,30.19,1017.80,10.00,M,CLR,M,M,M,M,M,M,M,M,M,M,M,M,M,M,72.00,KWMC 010456Z AUTO 28004KT 10SM CLR 22/13 A3019 RMK AO2 SLP178 T02220133 $,M
TPH,2021-08-01 04:56,-117.0904,38.0505,1654.00,65.00,55.00,70.28,330.00,21.00,T,30.32,1020.10,10.00,27.00,OVC,M,M,M,7000.00,M,M,M,M,M,M,M,30.00,320.00,2021-08-01 04:37,64.90,KTPH 010456Z AUTO 33021G27KT 10SM OVC070 18/13 A3032 RMK AO2 PK WND 32030/0437 RAB25E43 SLP201 P0000 T01830128,M
LAS,2021-08-01 04:56,-115.1634,36.0719,663.00,89.00,61.00,39.06,0.00,0.00,0.00,30.03,1013.70,10.00,M,FEW,SCT,BKN,M,10000.00,14000.00,25000.00,M,M,M,M,M,M,M,M,89.11,KLAS 010456Z 00000KT 10SM FEW100 SCT140 BKN250 32/16 A3003 RMK AO2 SLP137 T03170161,M
INS,2021-08-01 04:58,-115.6733,36.5872,955.00,79.70,60.40,51.74,240.00,5.00,0.00,30.10,1014.70,10.00,M,FEW,M,M,M,15000.00,M,M,M,M,M,M,M,M,M,M,79.70,KINS 010458Z AUTO 24005KT 10SM FEW150 27/16 A3010 RMK AO2 SLP147 T02650158 $,M
LSV,2021-08-01 04:58,-115.0343,36.2362,570.00,90.70,59.20,34.84,140.00,5.00,0.00,29.99,1012.90,10.00,M,BKN,BKN,M,M,12000.00,14000.00,M,M,M,M,M,M,M,M,M,90.03,KLSV 010458Z AUTO 14005KT 10SM BKN120 BKN140 33/15 A2999 RMK AO2 SLP129 T03260151 $,M
CXP,2021-08-01 05:10,-119.7326,39.1923,1431.00,75.20,48.20,38.46,0.00,0.00,0.00,30.28,M,10.00,M,BKN,M,M,M,12000.00,M,M,M,M,M,M,M,M,M,M,75.20,KCXP 010510Z AUTO 00000KT 10SM BKN120 24/09 A3028 RMK AO2 LTG DSNT NE,M
MEV,2021-08-01 05:15,-119.7500,38.9963,1441.42,73.40,50.00,43.69,360.00,4.00,0.00,30.26,M,10.00,M,BKN,M,M,M,11000.00,M,M,M,M,M,M,M,M,M,M,73.40,KMEV 010515Z AUTO 36004KT 10SM BKN110 23/10 A3026 RMK AO2,M
TMT,2021-08-01 05:15,-117.1971,39.4643,1749.34,63.50,56.00,76.26,230.00,12.00,0.00,30.35,M,10.00,M,SCT,SCT,SCT,M,6500.00,10000.00,12000.00,M,-DZ,M,M,M,M,M,M,63.50,KTMT 010515Z AUTO 23012KT 10SM -DZ SCT065 SCT100 SCT120 18/13 A3035 RMK AO2 T01750133,M
RTS,2021-08-01 05:15,-119.8764,39.6682,1539.00,68.00,55.40,64.04,120.00,6.00,0.00,30.29,M,10.00,M,FEW,M,M,M,11000.00,M,M,M,M,M,M,M,M,M,M,68.00,KRTS 010515Z AUTO 12006KT 10SM FEW110 20/13 A3029 RMK AO2,M
BVU,2021-08-01 05:15,-114.8611,35.9475,671.00,84.20,62.60,48.32,0.00,0.00,0.00,30.03,M,10.00,M,FEW,M,M,M,11000.00,M,M,M,M,M,M,M,M,M,M,85.03,KBVU 010515Z AUTO 00000KT 10SM FEW110 29/17 A3003 RMK AO2,M
HTH,2021-08-01 05:15,-118.6315,38.5448,1282.89,73.40,53.60,49.90,170.00,6.00,0.00,30.26,M,10.00,M,CLR,M,M,M,M,M,M,M,M,M,M,M,M,M,M,73.40,KHTH 010515Z AUTO 17006KT 10SM CLR 23/12 A3026 RMK A01,M
BAM,2021-08-01 05:15,-116.8743,40.5990,1382.36,71.60,60.80,68.75,120.00,3.00,0.00,30.23,M,10.00,M,OVC,M,M,M,10000.00,M,M,M,M,M,M,M,M,M,M,71.60,KBAM 010515Z AUTO 12003KT 10SM OVC100 22/16 A3023 RMK AO1,M
05U,2021-08-01 05:15,-116.0051,39.6042,1811.23,64.40,60.80,88.09,0.00,0.00,0.00,30.34,M,10.00,M,BKN,OVC,M,M,9000.00,12000.00,M,M,M,M,M,M,M,M,M,64.40,K05U 010515Z AUTO 00000KT 10SM BKN090 OVC120 18/16 A3034 RMK A01,M
LOL,2021-08-01 05:22,-118.5701,40.0684,1192.43,76.00,55.00,48.30,240.00,15.00,0.00,30.19,M,10.00,24.00,OVC,M,M,M,10000.00,M,M,M,M,M,M,M,M,M,M,75.90,KLOL 010522Z AUTO 24015G24KT 10SM OVC100 24/13 A3019 RMK AO2 WSHFT 0502 LTG DSNT SW T02440128,M
CXP,2021-08-01 05:30,-119.7326,39.1923,1431.00,73.40,48.20,40.85,0.00,0.00,0.00,30.28,M,10.00,M,BKN,M,M,M,11000.00,M,M,M,M,M,M,M,M,M,M,73.40,KCXP 010530Z AUTO 00000KT 10SM BKN110 23/09 A3028 RMK AO2,M
BVU,2021-08-01 05:35,-114.8611,35.9475,671.00,84.20,62.60,48.32,350.00,3.00,0.00,30.02,M,10.00,M,CLR,M,M,M,M,M,M,M,M,M,M,M,M,M,M,85.03,KBVU 010535Z AUTO 35003KT 10SM CLR 29/17 A3002 RMK AO2,M
BAM,2021-08-01 05:35,-116.8743,40.5990,1382.36,71.60,60.80,68.75,140.00,3.00,0.00,30.23,M,10.00,M,SCT,OVC,M,M,7500.00,10000.00,M,M,M,M,M,M,M,M,M,71.60,KBAM 010535Z AUTO 14003KT 10SM SCT075 OVC100 22/16 A3023 RMK AO1,M
RTS,2021-08-01 05:35,-119.8764,39.6682,1539.00,68.00,55.40,64.04,130.00,5.00,0.00,30.29,M,10.00,M,CLR,M,M,M,M,M,M,M,M,M,M,M,M,M,M,68.00,KRTS 010535Z AUTO 13005KT 10SM CLR 20/13 A3029 RMK AO2,M
HTH,2021-08-01 05:35,-118.6315,38.5448,1282.89,71.60,55.40,56.63,130.00,3.00,0.00,30.26,M,10.00,M,SCT,M,M,M,12000.00,M,M,M,M,M,M,M,M,M,M,71.60,KHTH 010535Z AUTO 13003KT 10SM SCT120 22/13 A3026 RMK A01,M
05U,2021-08-01 05:35,-116.0051,39.6042,1811.23,62.60,60.80,93.83,0.00,0.00,0.00,30.34,M,10.00,M,FEW,OVC,M,M,8000.00,9500.00,M,M,M,M,M,M,M,M,M,62.60,K05U 010535Z AUTO 00000KT 10SM FEW080 OVC095 17/16 A3034 RMK A01,M
MEV,2021-08-01 05:35,-119.7500,38.9963,1441.42,73.40,50.00,43.69,0.00,0.00,0.00,30.26,M,10.00,M,FEW,M,M,M,12000.00,M,M,M,M,M,M,M,M,M,M,73.40,KMEV 010535Z AUTO 00000KT 10SM FEW120 23/10 A3026 RMK AO2,M
TMT,2021-08-01 05:35,-117.1971,39.4643,1749.34,63.70,55.20,73.82,230.00,12.00,0.00,30.35,M,10.00,18.00,SCT,SCT,SCT,M,7000.00,9000.00,12000.00,M,M,M,M,M,M,M,M,63.70,KTMT 010535Z AUTO 23012G18KT 10SM SCT070 SCT090 SCT120 18/13 A3035 RMK AO2 T01760129,M
CXP,2021-08-01 05:50,-119.7326,39.1923,1431.00,73.40,50.00,43.69,0.00,0.00,0.00,30.27,M,10.00,M,BKN,M,M,M,11000.00,M,M,M,M,M,M,M,M,M,M,73.40,KCXP 010550Z AUTO 00000KT 10SM BKN110 23/10 A3027 RMK AO2,M
VGT,2021-08-01 05:53,-115.1933,36.2111,667.00,88.00,66.00,48.20,0.00,0.00,0.00,30.02,1015.10,10.00,M,OVC,M,M,M,12000.00,M,M,M,M,M,M,M,M,M,M,90.41,KVGT 010553Z AUTO 00000KT 10SM OVC120 31/19 A3002 RMK AO2 SLP151 6//// T03110189 10339 20306 51009 PNO,M
P68,2021-08-01 05:53,-116.0056,39.6014,1993.00,63.00,61.00,93.18,0.00,0.00,0.00,30.32,1018.80,M,M,M,M,M,M,M,M,M,M,M,M,M,M,M,M,M,63.00,KP68 010553Z AUTO 00000KT 17/16 A3032 RMK AO1 SLP188 60003 T01720161 10200 20172 51010,M
ELY,2021-08-01 05:53,-114.8453,39.2950,1909.00,58.00,56.00,93.04,160.00,8.00,0.00,30.35,1018.50,10.00,M,SCT,M,M,M,10000.00,M,M,M,M,M,M,M,M,M,M,57.90,KELY 010553Z AUTO 16008KT 10SM SCT100 14/13 A3035 RMK AO2 SLP185 60000 T01440133 10178 20139 50008,M
LOL,2021-08-01 05:53,-118.5701,40.0684,1192.43,71.00,59.00,65.58,210.00,20.00,0.02,30.21,1019.20,6.00,26.00,FEW,OVC,M,M,6000.00,9000.00,M,M,RA,M,M,M,26.00,220.00,2021-08-01 05:51,71.10,KLOL 010553Z AUTO 21020G26KT 6SM RA FEW060 OVC090 22/15 A3021 RMK AO2 PK WND 22026/0551 WSHFT 0502 LTG DSNT SW RAB47 SLP192 P0002 60002 T02170150 10311 20217 53023,M
DRA,2021-08-01 05:53,-116.0278,36.6206,1009.00,82.00,60.00,47.49,30.00,3.00,0.00,30.11,1014.90,10.00,M,OVC,M,M,M,11000.00,M,M,M,M,M,M,M,M,M,M,82.40,KDRA 010553Z AUTO 03003KT 10SM OVC110 28/16 A3011 RMK AO2 SLP149 T02780156 10328 20278 51010,M
BAM,2021-08-01 05:55,-116.8743,40.5990,1382.36,71.60,59.00,64.48,90.00,6.00,0.00,30.23,M,10.00,M,SCT,OVC,M,M,7500.00,10000.00,M,M,M,M,M,M,M,M,M,71.60,KBAM 010555Z AUTO 09006KT 10SM SCT075 OVC100 22/15 A3023 RMK AO1,M
BVU,2021-08-01 05:55,-114.8611,35.9475,671.00,82.40,62.60,51.21,0.00,0.00,0.00,30.03,M,10.00,M,FEW,M,M,M,11000.00,M,M,M,M,M,M,M,M,M,M,83.41,KBVU 010555Z AUTO 00000KT 10SM FEW110 28/17 A3003 RMK AO2,M
RNO,2021-08-01 05:55,-119.7711,39.4839,1341.00,73.00,55.00,53.23,0.00,0.00,0.00,30.23,1018.30,10.00,M,SCT,SCT,OVC,M,9000.00,14000.00,20000.00,M,M,M,M,M,M,M,M,73.00,KRNO 010555Z 00000KT 10SM SCT090 SCT140 OVC200 23/13 A3023 RMK AO2 SLP183 HZ AND FU ALQDS 60000 T02280128 10317 20217 50008 PNO $,M
RTS,2021-08-01 05:55,-119.8764,39.6682,1539.00,68.00,53.60,59.97,100.00,5.00,0.00,30.29,M,10.00,M,CLR,M,M,M,M,M,M,M,M,M,M,M,M,M,M,68.00,KRTS 010555Z AUTO 10005KT 10SM CLR 20/12 A3029 RMK AO2,M
05U,2021-08-01 05:55,-116.0051,39.6042,1811.23,62.60,62.60,100.00,0.00,0.00,0.00,30.34,M,10.00,M,FEW,OVC,M,M,8000.00,9500.00,M,M,M,M,M,M,M,M,M,62.60,K05U 010555Z AUTO 00000KT 10SM FEW080 OVC095 17/17 A3034 RMK A01,M
TMT,2021-08-01 05:55,-117.1971,39.4643,1749.34,63.50,55.60,75.43,230.00,11.00,0.00,30.35,M,10.00,M,SCT,BKN,BKN,M,7000.00,8000.00,12000.00,M,M,M,M,M,M,M,M,63.50,KTMT 010555Z AUTO 23011KT 10SM SCT070 BKN080 BKN120 18/13 A3035 RMK AO2 T01750131 10226 20173,M
HTH,2021-08-01 05:55,-118.6315,38.5448,1282.89,71.60,53.60,53.03,90.00,7.00,0.00,30.26,M,10.00,M,FEW,M,M,M,12000.00,M,M,M,M,M,M,M,M,M,M,71.60,KHTH 010555Z AUTO 09007KT 10SM FEW120 22/12 A3026 RMK A01,M
MEV,2021-08-01 05:55,-119.7500,38.9963,1441.42,71.60,50.00,46.43,0.00,0.00,0.00,30.26,M,10.00,M,CLR,M,M,M,M,M,M,M,M,M,M,M,M,M,M,71.60,KMEV 010555Z AUTO 00000KT 10SM CLR 22/10 A3026 RMK AO2,M
HND,2021-08-01 05:56,-115.1344,35.9729,742.79,81.00,67.00,62.28,150.00,6.00,0.00,30.06,1016.70,10.00,M,CLR,M,M,M,M,M,M,M,M,M,M,M,M,M,M,83.40,KHND 010556Z AUTO 15006KT 10SM CLR 27/19 A3006 RMK AO2 SLP167 T02720194 10322 20272 50009,M
EKO,2021-08-01 05:56,-115.7860,40.8242,1367.00,66.00,61.00,83.91,100.00,3.00,0.00,30.26,1019.20,10.00,M,SCT,BKN,M,M,5500.00,11000.00,M,M,M,M,M,M,M,M,M,66.00,KEKO 010556Z AUTO 10003KT 10SM SCT055 BKN110 19/16 A3026 RMK AO2 SLP192 60008 T01890161 10206 20189 51007,M
TPH,2021-08-01 05:56,-117.0904,38.0505,1654.00,66.00,53.00,63.10,360.00,11.00,0.00,30.31,1019.30,10.00,M,BKN,M,M,M,8000.00,M,M,M,M,M,M,M,28.00,330.00,2021-08-01 05:09,66.00,KTPH 010556Z AUTO 36011KT 10SM BKN080 19/12 A3031 RMK AO2 PK WND 33028/0509 SLP193 60000 T01890117 10244 20183 50008,M
LAS,2021-08-01 05:56,-115.1634,36.0719,663.00,88.00,62.00,42.05,0.00,0.00,0.00,30.03,1013.80,10.00,M,FEW,SCT,M,M,14000.00,25000.00,M,M,M,M,M,M,M,M,M,88.47,KLAS 010556Z 00000KT 10SM FEW140 SCT250 31/17 A3003 RMK AO2 SLP138 T03110167 10339 20311 51009,M
NFL,2021-08-01 05:56,-118.7010,39.4166,1199.00,67.00,61.00,81.33,0.00,0.00,T,30.25,1020.50,5.00,M,OVC,M,M,M,9000.00,M,M,M,RA,M,M,M,M,M,M,66.90,KNFL 010556Z AUTO 00000KT 5SM RA OVC090 19/16 A3025 RMK AO2 RAB04 SLP205 P0000 60000 T01940161 10328 20194 53031,M
WMC,2021-08-01 05:56,-117.8072,40.9019,1315.00,71.00,57.00,61.04,280.00,5.00,0.00,30.19,1017.70,10.00,M,CLR,M,M,M,M,M,M,M,M,M,M,M,M,M,M,71.10,KWMC 010556Z AUTO 28005KT 10SM CLR 22/14 A3019 RMK AO2 SLP177 T02170139 10294 20217 51008 $,M
INS,2021-08-01 05:58,-115.6733,36.5872,955.00,77.20,64.00,63.79,250.00,6.00,0.00,30.10,1014.70,10.00,M,OVC,M,M,M,15000.00,M,M,M,M,M,M,M,M,M,M,77.20,KINS 010558Z AUTO 25006KT 10SM OVC150 25/18 A3010 RMK AO2 SLP147 T02510178 10302 20248 51008 $,M
LSV,2021-08-01 05:58,-115.0343,36.2362,570.00,88.70,59.70,37.77,40.00,4.00,0.00,30.00,1013.20,10.00,M,CLR,M,M,M,M,M,M,M,M,M,M,M,M,M,M,88.22,KLSV 010558Z AUTO 04004KT 10SM CLR 32/15 A3000 RMK AO2 SLP132 T03150154 10350 20315 52010 $,M
CXP,2021-08-01 06:10,-119.7326,39.1923,1431.00,71.60,50.00,46.43,0.00,0.00,0.00,30.27,M,10.00,M,SCT,M,M,M,12000.00,M,M,M,M,M,M,M,M,M,M,71.60,KCXP 010610Z AUTO 00000KT 10SM SCT120 22/10 A3027 RMK AO2,M
TPH,2021-08-01 06:12,-117.0904,38.0505,1654.00,65.00,55.00,70.28,30.00,12.00,0.00,30.31,M,10.00,M,FEW,BKN,M,M,8000.00,11000.00,M,M,M,M,M,M,M,M,M,64.90,KTPH 010612Z AUTO 03012KT 10SM FEW080 BKN110 18/13 A3031 RMK AO2 WSHFT 0552 T01830128,M
HTH,2021-08-01 06:15,-118.6315,38.5448,1282.89,71.60,53.60,53.03,90.00,9.00,0.00,30.26,M,10.00,M,SCT,M,M,M,12000.00,M,M,M,M,M,M,M,M,M,M,71.60,KHTH 010615Z AUTO 09009KT 10SM SCT120 22/12 A3026 RMK A01,M
TMT,2021-08-01 06:15,-117.1971,39.4643,1749.34,62.60,56.00,79.28,220.00,10.00,0.00,30.35,M,10.00,M,SCT,OVC,M,M,7000.00,9000.00,M,M,M,M,M,M,M,M,M,62.60,KTMT 010615Z AUTO 22010KT 10SM SCT070 OVC090 17/13 A3035 RMK AO2 T01700134,M
BVU,2021-08-01 06:15,-114.8611,35.9475,671.00,82.40,62.60,51.21,360.00,4.00,0.00,30.03,M,10.00,M,BKN,M,M,M,11000.00,M,M,M,M,M,M,M,M,M,M,83.41,KBVU 010615Z AUTO 36004KT 10SM BKN110 28/17 A3003 RMK AO2,M
RTS,2021-08-01 06:15,-119.8764,39.6682,1539.00,68.00,53.60,59.97,130.00,5.00,0.00,30.29,M,10.00,M,CLR,M,M,M,M,M,M,M,M,M,M,M,M,M,M,68.00,KRTS 010615Z AUTO 13005KT 10SM CLR 20/12 A3029 RMK AO2,M
05U,2021-08-01 06:15,-116.0051,39.6042,1811.23,62.60,60.80,93.83,0.00,0.00,0.00,30.35,M,10.00,M,OVC,M,M,M,9000.00,M,M,M,M,M,M,M,M,M,M,62.60,K05U 010615Z AUTO 00000KT 10SM OVC090 17/16 A3035 RMK A01,M
MEV,2021-08-01 06:15,-119.7500,38.9963,1441.42,71.60,50.00,46.43,0.00,0.00,0.00,30.26,M,10.00,M,FEW,M,M,M,11000.00,M,M,M,M,M,M,M,M,M,M,71.60,KMEV 010615Z AUTO 00000KT 10SM FEW110 22/10 A3026 RMK AO2,M
BAM,2021-08-01 06:15,-116.8743,40.5990,1382.36,73.40,59.00,60.67,70.00,5.00,0.00,30.23,M,10.00,M,SCT,OVC,M,M,7500.00,11000.00,M,M,M,M,M,M,M,M,M,73.40,KBAM 010615Z AUTO 07005KT 10SM SCT075 OVC110 23/15 A3023 RMK AO1,M
CXP,2021-08-01 06:30,-119.7326,39.1923,1431.00,71.60,50.00,46.43,0.00,0.00,0.00,30.27,M,10.00,M,BKN,M,M,M,11000.00,M,M,M,M,M,M,M,M,M,M,71.60,KCXP 010630Z AUTO 00000KT 10SM BKN110 22/10 A3027 RMK AO2,M
HTH,2021-08-01 06:35,-118.6315,38.5448,1282.89,71.60,55.40,56.63,110.00,9.00,0.00,30.27,M,10.00,M,BKN,M,M,M,12000.00,M,M,M,M,M,M,M,M,M,M,71.60,KHTH 010635Z AUTO 11009KT 10SM BKN120 22/13 A3027 RMK A01,M
RTS,2021-08-01 06:35,-119.8764,39.6682,1539.00,66.20,55.40,68.15,120.00,4.00,0.00,30.29,M,10.00,M,CLR,M,M,M,M,M,M,M,M,M,M,M,M,M,M,66.20,KRTS 010635Z AUTO 12004KT 10SM CLR 19/13 A3029 RMK AO2,M
BVU,2021-08-01 06:35,-114.8611,35.9475,671.00,84.20,64.40,51.47,60.00,4.00,0.00,30.03,M,10.00,M,OVC,M,M,M,11000.00,M,M,M,M,M,M,M,M,M,M,85.71,KBVU 010635Z AUTO 06004KT 10SM OVC110 29/18 A3003 RMK AO2,M
MEV,2021-08-01 06:35,-119.7500,38.9963,1441.42,71.60,50.00,46.43,320.00,5.00,0.00,30.26,M,10.00,M,FEW,SCT,BKN,M,3000.00,3600.00,5500.00,M,M,M,M,M,M,M,M,71.60,KMEV 010635Z AUTO 32005KT 10SM FEW030 SCT036 BKN055 22/10 A3026 RMK AO2,M
TMT,2021-08-01 06:35,-117.1971,39.4643,1749.34,62.80,55.80,77.87,240.00,5.00,0.00,30.36,M,10.00,M,SCT,BKN,OVC,M,5000.00,7000.00,8000.00,M,M,M,M,M,M,M,M,62.80,KTMT 010635Z AUTO 24005KT 10SM SCT050 BKN070 OVC080 17/13 A3036 RMK AO2 LTG DSNT N T01710132,M
BAM,2021-08-01 06:35,-116.8743,40.5990,1382.36,69.80,60.80,73.09,60.00,6.00,0.00,30.23,M,7.00,M,SCT,BKN,BKN,M,5500.00,7500.00,8500.00,M,M,M,M,M,M,M,M,69.80,KBAM 010635Z AUTO 06006KT 7SM SCT055 BKN075 BKN085 21/16 A3023 RMK AO1,M
05U,2021-08-01 06:35,-116.0051,39.6042,1811.23,62.60,60.80,93.83,0.00,0.00,0.00,30.35,M,10.00,M,OVC,M,M,M,9000.00,M,M,M,M,M,M,M,M,M,M,62.60,K05U 010635Z AUTO 00000KT 10SM OVC090 17/16 A3035 RMK A01,M
CXP,2021-08-01 06:50,-119.7326,39.1923,1431.00,71.60,50.00,46.43,70.00,3.00,0.00,30.27,M,10.00,M,OVC,M,M,M,11000.00,M,M,M,M,M,M,M,M,M,M,71.60,KCXP 010650Z AUTO 07003KT 10SM OVC110 22/10 A3027 RMK AO2,M
LOL,2021-08-01 06:53,-118.5701,40.0684,1192.43,66.00,60.00,81.27,210.00,11.00,0.01,30.21,1019.60,10.00,M,OVC,M,M,M,11000.00,M,M,M,M,M,M,M,27.00,220.00,2021-08-01 05:56,66.00,KLOL 010653Z AUTO 21011KT 10SM OVC110 19/16 A3021 RMK AO2 PK WND 22027/0556 RAE49 SLP196 P0001 T01890156,M
DRA,2021-08-01 06:53,-116.0278,36.6206,1009.00,79.00,65.00,62.03,320.00,4.00,0.00,30.11,1015.10,10.00,M,FEW,SCT,M,M,9000.00,12000.00,M,M,M,M,M,M,M,M,M,79.00,KDRA 010653Z AUTO 32004KT 10SM FEW090 SCT120 26/18 A3011 RMK AO2 SLP151 T02610183,M
ELY,2021-08-01 06:53,-114.8453,39.2950,1909.00,59.00,57.00,93.07,0.00,0.00,0.00,30.36,1019.70,10.00,M,BKN,OVC,M,M,9000.00,10000.00,M,M,M,M,M,M,M,M,M,59.00,KELY 010653Z AUTO 00000KT 10SM BKN090 OVC100 15/14 A3036 RMK AO2 SLP197 T01500139,M
VGT,2021-08-01 06:53,-115.1933,36.2111,667.00,87.00,66.00,49.60,360.00,3.00,0.00,30.02,1015.30,10.00,M,CLR,M,M,M,M,M,M,M,M,M,M,M,M,M,M,89.44,KVGT 010653Z AUTO 36003KT 10SM CLR 31/19 A3002 RMK AO2 SLP153 T03060189 PNO,M
P68,2021-08-01 06:53,-116.0056,39.6014,1993.00,63.00,60.00,90.25,180.00,5.00,0.00,30.32,1018.70,M,M,M,M,M,M,M,M,M,M,M,M,M,M,M,M,M,63.00,KP68 010653Z AUTO 18005KT 17/16 A3032 RMK AO1 SLP187 T01720156,M
RNO,2021-08-01 06:55,-119.7711,39.4839,1341.00,72.00,56.00,56.89,340.00,3.00,0.00,30.24,1018.30,10.00,M,CLR,M,M,M,M,M,M,M,M,M,M,M,M,M,M,72.00,KRNO 010655Z 34003KT 10SM CLR 22/13 A3024 RMK AO2 SLP183 HZ ALQDS T02220133 PNO $,M
RTS,2021-08-01 06:55,-119.8764,39.6682,1539.00,66.20,55.40,68.15,0.00,0.00,0.00,30.29,M,10.00,M,CLR,M,M,M,M,M,M,M,M,M,M,M,M,M,M,66.20,KRTS 010655Z AUTO 00000KT 10SM CLR 19/13 A3029 RMK AO2,M
05U,2021-08-01 06:55,-116.0051,39.6042,1811.23,64.40,60.80,88.09,0.00,0.00,0.00,30.35,M,10.00,M,OVC,M,M,M,9000.00,M,M,M,M,M,M,M,M,M,M,64.40,K05U 010655Z AUTO 00000KT 10SM OVC090 18/16 A3035 RMK A01,M
MEV,2021-08-01 06:55,-119.7500,38.9963,1441.42,68.00,50.00,52.51,20.00,4.00,0.00,30.26,M,10.00,M,FEW,SCT,BKN,M,2300.00,2800.00,3700.00,M,M,M,M,M,M,M,M,68.00,KMEV 010655Z AUTO 02004KT 10SM FEW023 SCT028 BKN037 20/10 A3026 RMK AO2,M
BAM,2021-08-01 06:55,-116.8743,40.5990,1382.36,69.80,60.80,73.09,80.00,10.00,0.00,30.23,M,10.00,M,SCT,SCT,SCT,M,5500.00,7500.00,8500.00,M,M,M,M,M,M,M,M,69.80,KBAM 010655Z AUTO 08010KT 10SM SCT055 SCT075 SCT085 21/16 A3023 RMK AO1,M
HTH,2021-08-01 06:55,-118.6315,38.5448,1282.89,69.80,55.40,60.21,100.00,6.00,0.00,30.27,M,10.00,M,SCT,BKN,M,M,9000.00,11000.00,M,M,M,M,M,M,M,M,M,69.80,KHTH 010655Z AUTO 10006KT 10SM SCT090 BKN110 21/13 A3027 RMK A01,M
TMT,2021-08-01 06:55,-117.1971,39.4643,1749.34,62.20,55.80,79.54,210.00,9.00,0.00,30.36,M,10.00,M,SCT,SCT,OVC,M,5000.00,6000.00,10000.00,M,M,M,M,M,M,M,M,62.20,KTMT 010655Z AUTO 21009KT 10SM SCT050 SCT060 OVC100 17/13 A3036 RMK AO2 T01680132,M
BVU,2021-08-01 06:55,-114.8611,35.9475,671.00,84.20,62.60,48.32,50.00,6.00,0.00,30.03,M,10.00,M,OVC,M,M,M,11000.00,M,M,M,M,M,M,M,M,M,M,85.03,KBVU 010655Z AUTO 05006KT 10SM OVC110 29/17 A3003 RMK AO2,M
LAS,2021-08-01 06:56,-115.1634,36.0719,663.00,87.00,63.00,44.66,0.00,0.00,0.00,30.03,1013.90,10.00,M,FEW,SCT,M,M,12000.00,24000.00,M,M,M,M,M,M,M,M,M,87.96,KLAS 010656Z 00000KT 10SM FEW120 SCT240 31/17 A3003 RMK AO2 SLP139 T03060172,M
NFL,2021-08-01 06:56,-118.7010,39.4166,1199.00,65.00,63.00,93.56,100.00,7.00,0.05,30.26,1020.70,6.00,M,OVC,M,M,M,10000.00,M,M,M,RA BR,M,M,M,M,M,M,64.90,KNFL 010656Z AUTO 10007KT 6SM RA BR OVC100 18/17 A3026 RMK AO2 SLP207 P0005 T01830172,M
WMC,2021-08-01 06:56,-117.8072,40.9019,1315.00,70.00,57.00,63.37,330.00,3.00,0.00,30.20,1018.00,10.00,M,CLR,M,M,M,M,M,M,M,M,M,M,M,M,M,M,70.00,KWMC 010656Z AUTO 33003KT 10SM CLR 21/14 A3020 RMK AO2 SLP180 T02110139 $,M
HND,2021-08-01 06:56,-115.1344,35.9729,742.79,79.00,68.00,69.07,160.00,6.00,0.00,30.07,1016.80,10.00,M,BKN,M,M,M,11000.00,M,M,M,M,M,M,M,M,M,M,79.00,KHND 010656Z AUTO 16006KT 10SM BKN110 26/20 A3007 RMK AO2 SLP168 T02610200 403440250,M
TPH,2021-08-01 06:56,-117.0904,38.0505,1654.00,64.00,56.00,74.93,20.00,13.00,0.00,30.31,1019.20,10.00,M,CLR,M,M,M,M,M,M,M,M,M,M,M,M,M,M,64.00,KTPH 010656Z AUTO 02013KT 10SM CLR 18/13 A3031 RMK AO2 WSHFT 0552 SLP192 T01780133,M
EKO,2021-08-01 06:56,-115.7860,40.8242,1367.00,67.00,61.00,81.33,50.00,3.00,0.00,30.26,1019.40,10.00,M,OVC,M,M,M,10000.00,M,M,M,M,M,M,M,M,M,M,66.90,KEKO 010656Z AUTO 05003KT 10SM OVC100 19/16 A3026 RMK AO2 SLP194 T01940161,M
INS,2021-08-01 06:58,-115.6733,36.5872,955.00,76.00,64.00,65.93,220.00,4.00,0.00,30.10,1014.90,10.00,M,FEW,BKN,M,M,10000.00,11000.00,M,M,M,M,M,M,M,M,M,76.10,KINS 010658Z AUTO 22004KT 10SM FEW100 BKN110 25/18 A3010 RMK AO2 SLP149 T02450177 $,M
LSV,2021-08-01 06:58,-115.0343,36.2362,570.00,87.80,60.40,39.84,70.00,6.00,0.00,30.01,1013.50,10.00,M,BKN,M,M,M,14000.00,M,M,M,M,M,M,M,M,M,M,87.60,KLSV 010658Z AUTO 07006KT 10SM BKN140 31/16 A3001 RMK AO2 SLP135 T03100158 $,M
CXP,2021-08-01 07:10,-119.7326,39.1923,1431.00,71.60,51.80,49.64,100.00,6.00,0.00,30.28,M,10.00,M,BKN,M,M,M,11000.00,M,M,M,M,M,M,M,M,M,M,71.60,KCXP 010710Z AUTO 10006KT 10SM BKN110 22/11 A3028 RMK AO2,M
05U,2021-08-01 07:15,-116.0051,39.6042,1811.23,64.40,60.80,88.09,0.00,0.00,0.00,30.34,M,10.00,M,OVC,M,M,M,8500.00,M,M,M,M,M,M,M,M,M,M,64.40,K05U 010715Z AUTO 00000KT 10SM OVC085 18/16 A3034 RMK A01,M
HTH,2021-08-01 07:15,-118.6315,38.5448,1282.89,69.80,55.40,60.21,110.00,7.00,0.00,30.28,M,10.00,M,SCT,OVC,M,M,8500.00,11000.00,M,M,M,M,M,M,M,M,M,69.80,KHTH 010715Z AUTO 11007KT 10SM SCT085 OVC110 21/13 A3028 RMK A01,M
RTS,2021-08-01 07:15,-119.8764,39.6682,1539.00,66.20,55.40,68.15,0.00,0.00,0.00,30.29,M,10.00,M,CLR,M,M,M,M,M,M,M,M,M,M,M,M,M,M,66.20,KRTS 010715Z AUTO 00000KT 10SM CLR 19/13 A3029 RMK AO2,M
BAM,2021-08-01 07:15,-116.8743,40.5990,1382.36,69.80,60.80,73.09,70.00,9.00,0.00,30.23,M,10.00,M,SCT,M,M,M,11000.00,M,M,M,M,M,M,M,M,M,M,69.80,KBAM 010715Z AUTO 07009KT 10SM SCT110 21/16 A3023 RMK AO1,M
BVU,2021-08-01 07:15,-114.8611,35.9475,671.00,84.20,62.60,48.32,70.00,5.00,0.00,30.03,M,10.00,M,SCT,M,M,M,11000.00,M,M,M,M,M,M,M,M,M,M,85.03,KBVU 010715Z AUTO 07005KT 10SM SCT110 29/17 A3003 RMK AO2,M
TMT,2021-08-01 07:15,-117.1971,39.4643,1749.34,62.60,55.40,77.29,230.00,10.00,0.00,30.35,M,10.00,14.00,SCT,SCT,OVC,M,6000.00,8000.00,10000.00,M,M,M,M,M,M,M,M,62.60,KTMT 010715Z AUTO 23010G14KT 10SM SCT060 SCT080 OVC100 17/13 A3035 RMK AO2 T01700130,M
MEV,2021-08-01 07:15,-119.7500,38.9963,1441.42,68.00,51.80,56.13,M,4.00,0.00,30.26,M,10.00,M,FEW,SCT,OVC,M,2600.00,3700.00,5500.00,M,M,M,M,M,M,M,M,68.00,KMEV 010715Z AUTO VRB04KT 10SM FEW026 SCT037 OVC055 20/11 A3026 RMK AO2,M
CXP,2021-08-01 07:30,-119.7326,39.1923,1431.00,73.40,50.00,43.69,60.00,15.00,0.00,30.28,M,10.00,M,OVC,M,M,M,10000.00,M,M,M,M,M,M,M,M,M,M,73.40,KCXP 010730Z AUTO 06015KT 10SM OVC100 23/10 A3028 RMK AO2,M
BVU,2021-08-01 07:35,-114.8611,35.9475,671.00,84.20,64.40,51.47,40.00,3.00,0.00,30.03,M,10.00,M,FEW,M,M,M,11000.00,M,M,M,M,M,M,M,M,M,M,85.71,KBVU 010735Z AUTO 04003KT 10SM FEW110 29/18 A3003 RMK AO2,M
MEV,2021-08-01 07:35,-119.7500,38.9963,1441.42,66.20,50.00,55.88,80.00,6.00,0.00,30.27,M,10.00,M,SCT,OVC,M,M,4900.00,6000.00,M,M,M,M,M,M,M,M,M,66.20,KMEV 010735Z AUTO 08006KT 10SM SCT049 OVC060 19/10 A3027 RMK AO2,M
BAM,2021-08-01 07:35,-116.8743,40.5990,1382.36,68.00,60.80,77.75,80.00,7.00,0.00,30.23,M,10.00,M,SCT,M,M,M,11000.00,M,M,M,M,M,M,M,M,M,M,68.00,KBAM 010735Z AUTO 08007KT 10SM SCT110 20/16 A3023 RMK AO1,M
TMT,2021-08-01 07:35,-117.1971,39.4643,1749.34,62.40,55.20,77.28,210.00,9.00,0.00,30.36,M,10.00,M,BKN,BKN,OVC,M,6000.00,8000.00,11000.00,M,M,M,M,M,M,M,M,62.40,KTMT 010735Z AUTO 21009KT 10SM BKN060 BKN080 OVC110 17/13 A3036 RMK AO2 T01690129,M
HTH,2021-08-01 07:35,-118.6315,38.5448,1282.89,71.60,55.40,56.63,M,5.00,0.00,30.29,M,10.00,M,OVC,M,M,M,8500.00,M,M,M,M,M,M,M,M,M,M,71.60,KHTH 010735Z AUTO VRB05KT 10SM OVC085 22/13 A3029 RMK A01,M
RTS,2021-08-01 07:35,-119.8764,39.6682,1539.00,64.40,55.40,72.56,0.00,0.00,0.00,30.29,M,10.00,M,CLR,M,M,M,M,M,M,M,M,M,M,M,M,M,M,64.40,KRTS 010735Z AUTO 00000KT 10SM CLR 18/13 A3029 RMK AO2,M
05U,2021-08-01 07:35,-116.0051,39.6042,1811.23,62.60,62.60,100.00,0.00,0.00,0.00,30.35,M,10.00,M,FEW,OVC,M,M,8500.00,10000.00,M,M,M,M,M,M,M,M,M,62.60,K05U 010735Z AUTO 00000KT 10SM FEW085 OVC100 17/17 A3035 RMK A01,M
CXP,2021-08-01 07:50,-119.7326,39.1923,1431.00,71.60,50.00,46.43,50.00,14.00,0.00,30.28,M,10.00,21.00,BKN,M,M,M,10000.00,M,M,M,M,M,M,M,M,M,M,71.60,KCXP 010750Z AUTO 05014G21KT 10SM BKN100 22/10 A3028 RMK AO2,M
LOL,2021-08-01 07:53,-118.5701,40.0684,1192.43,66.00,61.00,83.91,0.00,0.00,0.00,30.21,1019.50,9.00,M,CLR,M,M,M,M,M,M,M,M,M,M,M,M,M,M,66.00,KLOL 010753Z AUTO 00000KT 9SM CLR 19/16 A3021 RMK AO2 SLP195 T01890161 403220183,M
P68,2021-08-01 07:53,-116.0056,39.6014,1993.00,63.00,61.00,93.18,250.00,3.00,0.00,30.32,1018.70,M,M,M,M,M,M,M,M,M,M,M,M,M,M,M,M,M,63.00,KP68 010753Z AUTO 25003KT 17/16 A3032 RMK AO1 SLP187 T01720161 402440150,M
VGT,2021-08-01 07:53,-115.1933,36.2111,667.00,86.00,66.00,51.37,0.00,0.00,0.00,30.02,1015.30,10.00,M,CLR,M,M,M,M,M,M,M,M,M,M,M,M,M,M,88.28,KVGT 010753Z AUTO 00000KT 10SM CLR 30/19 A3002 RMK AO2 SLP153 T03000189 403670233 PNO,M
ELY,2021-08-01 07:53,-114.8453,39.2950,1909.00,58.00,57.00,96.81,230.00,6.00,0.00,30.34,1018.90,10.00,M,SCT,M,M,M,9000.00,M,M,M,M,M,M,M,M,M,M,57.90,KELY 010753Z AUTO 23006KT 10SM SCT090 14/14 A3034 RMK AO2 SLP189 T01440139 402500117,M
DRA,2021-08-01 07:53,-116.0278,36.6206,1009.00,82.00,56.00,40.83,20.00,8.00,0.00,30.11,1014.60,10.00,M,OVC,M,M,M,11000.00,M,M,M,M,M,M,M,M,M,M,81.55,KDRA 010753Z AUTO 02008KT 10SM OVC110 28/13 A3011 RMK AO2 SLP146 T02780133 403280228,M
RTS,2021-08-01 07:55,-119.8764,39.6682,1539.00,64.40,53.60,67.95,10.00,4.00,0.00,30.29,M,10.00,M,FEW,M,M,M,10000.00,M,M,M,M,M,M,M,M,M,M,64.40,KRTS 010755Z AUTO 01004KT 10SM FEW100 18/12 A3029 RMK AO2,M
RNO,2021-08-01 07:55,-119.7711,39.4839,1341.00,71.00,57.00,61.04,0.00,0.00,0.00,30.24,1018.20,10.00,M,CLR,M,M,M,M,M,M,M,M,M,M,M,M,M,M,71.10,KRNO 010755Z 00000KT 10SM CLR 22/14 A3024 RMK AO2 SLP182 HZ ALQDS T02170139 403280206 PNO $,M
MEV,2021-08-01 07:55,-119.7500,38.9963,1441.42,66.20,50.00,55.88,90.00,6.00,0.00,30.27,M,10.00,M,FEW,OVC,M,M,4100.00,5500.00,M,M,M,M,M,M,M,M,M,66.20,KMEV 010755Z AUTO 09006KT 10SM FEW041 OVC055 19/10 A3027 RMK AO2,M
BAM,2021-08-01 07:55,-116.8743,40.5990,1382.36,68.00,60.80,77.75,90.00,6.00,0.00,30.23,M,10.00,M,BKN,M,M,M,10000.00,M,M,M,M,M,M,M,M,M,M,68.00,KBAM 010755Z AUTO 09006KT 10SM BKN100 20/16 A3023 RMK AO1,M
HTH,2021-08-01 07:55,-118.6315,38.5448,1282.89,71.60,55.40,56.63,M,3.00,0.00,30.28,M,10.00,M,OVC,M,M,M,9500.00,M,M,M,M,M,M,M,M,M,M,71.60,KHTH 010755Z AUTO VRB03KT 10SM OVC095 22/13 A3028 RMK A01,M
TMT,2021-08-01 07:55,-117.1971,39.4643,1749.34,62.20,55.00,77.26,220.00,8.00,0.00,30.36,M,10.00,M,OVC,M,M,M,6000.00,M,M,M,-DZ,M,M,M,M,M,M,62.20,KTMT 010755Z AUTO 22008KT 10SM -DZ OVC060 17/13 A3036 RMK AO2 T01680128,M
BVU,2021-08-01 07:55,-114.8611,35.9475,671.00,82.40,64.40,54.55,20.00,4.00,0.00,30.03,M,10.00,M,SCT,M,M,M,11000.00,M,M,M,M,M,M,M,M,M,M,83.98,KBVU 010755Z AUTO 02004KT 10SM SCT110 28/18 A3003 RMK AO2,M
05U,2021-08-01 07:55,-116.0051,39.6042,1811.23,62.60,62.60,100.00,0.00,0.00,0.00,30.35,M,10.00,M,BKN,OVC,M,M,8500.00,10000.00,M,M,M,M,M,M,M,M,M,62.60,K05U 010755Z AUTO 00000KT 10SM BKN085 OVC100 17/17 A3035 RMK A01,M
NFL,2021-08-01 07:56,-118.7010,39.4166,1199.00,65.00,61.00,87.18,160.00,12.00,T,30.22,1019.70,9.00,M,CLR,M,M,M,M,M,M,M,M,M,M,M,M,M,M,64.90,KNFL 010756Z AUTO 16012KT 9SM CLR 18/16 A3022 RMK AO2 RAE12 SLP197 P0000 T01830161 403280183,M
EKO,2021-08-01 07:56,-115.7860,40.8242,1367.00,65.00,62.00,90.64,0.00,0.00,0.00,30.26,1019.30,10.00,M,BKN,OVC,M,M,6500.00,10000.00,M,M,M,M,M,M,M,M,M,64.90,KEKO 010756Z AUTO 00000KT 10SM BKN065 OVC100 18/17 A3026 RMK AO2 SLP193 T01830167 403000178,M
TPH,2021-08-01 07:56,-117.0904,38.0505,1654.00,64.00,56.00,74.93,20.00,10.00,0.00,30.32,1018.90,10.00,M,CLR,M,M,M,M,M,M,M,M,M,M,M,M,M,M,64.00,KTPH 010756Z AUTO 02010KT 10SM CLR 18/13 A3032 RMK AO2 SLP189 T01780133 402890161,M
WMC,2021-08-01 07:56,-117.8072,40.9019,1315.00,71.00,57.00,61.04,0.00,0.00,0.00,30.21,1017.90,10.00,M,CLR,M,M,M,M,M,M,M,M,M,M,M,M,M,M,71.10,KWMC 010756Z AUTO 00000KT 10SM CLR 22/14 A3021 RMK AO2 SLP179 T02170139 403060183 $,M
HND,2021-08-01 07:56,-115.1344,35.9729,742.79,79.00,67.00,66.49,0.00,0.00,0.00,30.07,1016.80,10.00,M,CLR,M,M,M,M,M,M,M,M,M,M,M,M,M,M,79.00,KHND 010756Z AUTO 00000KT 10SM CLR 26/19 A3007 RMK AO2 SLP168 T02610194,M
LAS,2021-08-01 07:56,-115.1634,36.0719,663.00,85.00,64.00,49.62,0.00,0.00,0.00,30.03,1013.80,10.00,M,FEW,SCT,M,M,12000.00,24000.00,M,M,M,M,M,M,M,M,M,86.23,KLAS 010756Z 00000KT 10SM FEW120 SCT240 29/18 A3003 RMK AO2 SLP138 T02940178 403560272,M
LSV,2021-08-01 07:58,-115.0343,36.2362,570.00,86.40,62.00,43.93,80.00,7.00,0.00,30.00,1013.20,10.00,M,CLR,M,M,M,M,M,M,M,M,M,M,M,M,M,M,86.83,KLSV 010758Z AUTO 08007KT 10SM CLR 30/17 A3000 RMK AO2 SLP132 T03020166 403660272 $,M
INS,2021-08-01 07:58,-115.6733,36.5872,955.00,76.50,63.30,63.71,260.00,3.00,0.00,30.10,1014.70,10.00,M,OVC,M,M,M,12000.00,M,M,M,M,M,M,M,M,M,M,76.50,KINS 010758Z AUTO 26003KT 10SM OVC120 25/17 A3010 RMK AO2 SLP147 T02470174 403020216 $,M
CXP,2021-08-01 08:10,-119.7326,39.1923,1431.00,71.60,50.00,46.43,50.00,12.00,0.00,30.28,M,10.00,18.00,SCT,M,M,M,10000.00,M,M,M,M,M,M,M,M,M,M,71.60,KCXP 010810Z AUTO 05012G18KT 10SM SCT100 22/10 A3028 RMK AO2,M
TMT,2021-08-01 08:15,-117.1971,39.4643,1749.34,62.40,55.00,76.44,220.00,11.00,0.00,30.36,M,10.00,M,OVC,M,M,M,5000.00,M,M,M,M,M,M,M,M,M,M,62.40,KTMT 010815Z AUTO 22011KT 10SM OVC050 17/13 A3036 RMK AO2 T01690127,M
BVU,2021-08-01 08:15,-114.8611,35.9475,671.00,82.40,64.40,54.55,30.00,5.00,0.00,30.03,M,10.00,M,SCT,M,M,M,11000.00,M,M,M,M,M,M,M,M,M,M,83.98,KBVU 010815Z AUTO 03005KT 10SM SCT110 28/18 A3003 RMK AO2,M
RTS,2021-08-01 08:15,-119.8764,39.6682,1539.00,64.40,53.60,67.95,0.00,0.00,0.00,30.29,M,10.00,M,SCT,M,M,M,10000.00,M,M,M,M,M,M,M,M,M,M,64.40,KRTS 010815Z AUTO 00000KT 10SM SCT100 18/12 A3029 RMK AO2,M
05U,2021-08-01 08:15,-116.0051,39.6042,1811.23,62.60,62.60,100.00,0.00,0.00,0.00,30.35,M,10.00,M,FEW,SCT,OVC,M,6500.00,8500.00,11000.00,M,M,M,M,M,M,M,M,62.60,K05U 010815Z AUTO 00000KT 10SM FEW065 SCT085 OVC110 17/17 A3035 RMK A01,M
MEV,2021-08-01 08:15,-119.7500,38.9963,1441.42,68.00,50.00,52.51,310.00,5.00,0.00,30.27,M,10.00,M,OVC,M,M,M,5500.00,M,M,M,M,M,M,M,M,M,M,68.00,KMEV 010815Z AUTO 31005KT 10SM OVC055 20/10 A3027 RMK AO2,M
BAM,2021-08-01 08:15,-116.8743,40.5990,1382.36,69.80,60.80,73.09,70.00,7.00,0.00,30.23,M,10.00,M,OVC,M,M,M,10000.00,M,M,M,M,M,M,M,M,M,M,69.80,KBAM 010815Z AUTO 07007KT 10SM OVC100 21/16 A3023 RMK AO1,M
HTH,2021-08-01 08:15,-118.6315,38.5448,1282.89,71.60,55.40,56.63,160.00,4.00,0.00,30.28,M,10.00,M,BKN,M,M,M,10000.00,M,M,M,M,M,M,M,M,M,M,71.60,KHTH 010815Z AUTO 16004KT 10SM BKN100 22/13 A3028 RMK A01,M
CXP,2021-08-01 08:30,-119.7326,39.1923,1431.00,71.60,50.00,46.43,60.00,11.00,0.00,30.28,M,10.00,M,FEW,FEW,M,M,7000.00,10000.00,M,M,M,M,M,M,M,M,M,71.60,KCXP 010830Z AUTO 06011KT 10SM FEW070 FEW100 22/10 A3028 RMK AO2,M
TMT,2021-08-01 08:35,-117.1971,39.4643,1749.34,62.00,54.30,75.58,230.00,10.00,0.00,30.36,M,10.00,M,SCT,SCT,OVC,M,4800.00,7000.00,9000.00,M,M,M,M,M,M,M,M,62.10,KTMT 010835Z AUTO 23010KT 10SM SCT048 SCT070 OVC090 17/12 A3036 RMK AO2 T01670124,M
05U,2021-08-01 08:35,-116.0051,39.6042,1811.23,62.60,62.60,100.00,0.00,0.00,0.00,30.35,M,10.00,M,SCT,BKN,OVC,M,4400.00,6500.00,8500.00,M,M,M,M,M,M,M,M,62.60,K05U 010835Z AUTO 00000KT 10SM SCT044 BKN065 OVC085 17/17 A3035 RMK A01,M
MEV,2021-08-01 08:35,-119.7500,38.9963,1441.42,64.40,50.00,59.50,0.00,0.00,0.00,30.26,M,10.00,M,OVC,M,M,M,5500.00,M,M,M,M,M,M,M,M,M,M,64.40,KMEV 010835Z AUTO 00000KT 10SM OVC055 18/10 A3026 RMK AO2,M
BAM,2021-08-01 08:35,-116.8743,40.5990,1382.36,69.80,60.80,73.09,120.00,4.00,0.00,30.24,M,10.00,M,SCT,BKN,OVC,M,7000.00,10000.00,12000.00,M,M,M,M,M,M,M,M,69.80,KBAM 010835Z AUTO 12004KT 10SM SCT070 BKN100 OVC120 21/16 A3024 RMK AO1,M
HTH,2021-08-01 08:35,-118.6315,38.5448,1282.89,71.60,53.60,53.03,0.00,0.00,0.00,30.27,M,10.00,M,CLR,M,M,M,M,M,M,M,M,M,M,M,M,M,M,71.60,KHTH 010835Z AUTO 00000KT 10SM CLR 22/12 A3027 RMK A01,M
RTS,2021-08-01 08:35,-119.8764,39.6682,1539.00,66.20,53.60,63.82,0.00,0.00,0.00,30.29,M,10.00,M,BKN,M,M,M,10000.00,M,M,M,M,M,M,M,M,M,M,66.20,KRTS 010835Z AUTO 00000KT 10SM BKN100 19/12 A3029 RMK AO2,M
BVU,2021-08-01 08:35,-114.8611,35.9475,671.00,82.40,62.60,51.21,340.00,4.00,0.00,30.03,M,10.00,M,CLR,M,M,M,M,M,M,M,M,M,M,M,M,M,M,83.41,KBVU 010835Z AUTO 34004KT 10SM CLR 28/17 A3003 RMK AO2,M
CXP,2021-08-01 08:50,-119.7326,39.1923,1431.00,69.80,50.00,49.37,90.00,9.00,0.00,30.28,M,10.00,M,FEW,M,M,M,11000.00,M,M,M,M,M,M,M,M,M,M,69.80,KCXP 010850Z AUTO 09009KT 060V120 10SM FEW110 21/10 A3028 RMK AO2,M
INS,2021-08-01 08:53,-115.6733,36.5872,955.00,75.20,64.40,69.14,280.00,3.00,0.00,30.10,1014.90,10.00,M,BKN,BKN,M,M,8500.00,12000.00,M,M,M,M,M,M,M,M,M,75.20,KINS 010853Z AUTO 28003KT 10SM BKN085 BKN120 24/18 A3010 RMK AO2 SLP149 $,M
VGT,2021-08-01 08:53,-115.1933,36.2111,667.00,84.00,68.00,58.69,160.00,4.00,0.00,30.02,1015.40,10.00,M,CLR,M,M,M,M,M,M,M,M,M,M,M,M,M,M,87.18,KVGT 010853Z AUTO 16004KT 10SM CLR 29/20 A3002 RMK AO2 SLP154 6//// T02890200 51002 PNO,M
DRA,2021-08-01 08:53,-116.0278,36.6206,1009.00,80.00,56.00,43.44,20.00,12.00,0.00,30.11,1014.70,10.00,M,SCT,M,M,M,11000.00,M,M,M,M,M,M,M,M,M,M,80.29,KDRA 010853Z AUTO 02012KT 10SM SCT110 27/13 A3011 RMK AO2 SLP147 T02670133 50000,M
LOL,2021-08-01 08:53,-118.5701,40.0684,1192.43,65.00,60.00,84.44,130.00,3.00,0.00,30.22,1019.40,8.00,M,CLR,M,M,M,M,M,M,M,M,M,M,M,M,M,M,64.90,KLOL 010853Z AUTO 13003KT 8SM CLR 18/16 A3022 RMK AO2 SLP194 60001 T01830156 51003,M
ELY,2021-08-01 08:53,-114.8453,39.2950,1909.00,58.00,56.00,93.04,0.00,0.00,0.00,30.33,1017.60,10.00,M,FEW,SCT,M,M,10000.00,12000.00,M,M,M,M,M,M,M,M,M,57.90,KELY 010853Z AUTO 00000KT 10SM FEW100 SCT120 14/13 A3033 RMK AO2 SLP176 T01440133 58005,M
P68,2021-08-01 08:53,-116.0056,39.6014,1993.00,64.00,57.00,77.97,0.00,0.00,0.00,30.32,1019.40,M,M,M,M,M,M,M,M,M,M,M,M,M,M,M,M,M,64.00,KP68 010853Z AUTO 00000KT 18/14 A3032 RMK AO1 SLP194 T01780139 58000,M
RTS,2021-08-01 08:55,-119.8764,39.6682,1539.00,66.20,53.60,63.82,0.00,0.00,0.00,30.29,M,10.00,M,BKN,M,M,M,10000.00,M,M,M,M,M,M,M,M,M,M,66.20,KRTS 010855Z AUTO 00000KT 10SM BKN100 19/12 A3029 RMK AO2,M
MEV,2021-08-01 08:55,-119.7500,38.9963,1441.42,60.80,50.00,67.54,120.00,3.00,0.00,30.26,M,10.00,M,BKN,OVC,M,M,5000.00,11000.00,M,M,M,M,M,M,M,M,M,60.80,KMEV 010855Z AUTO 12003KT 10SM BKN050 OVC110 16/10 A3026 RMK AO2,M
TMT,2021-08-01 08:55,-117.1971,39.4643,1749.34,62.00,54.50,76.13,230.00,10.00,0.00,30.36,M,10.00,M,SCT,OVC,M,M,4600.00,8000.00,M,M,M,M,M,M,M,M,M,62.10,KTMT 010855Z AUTO 23010KT 10SM SCT046 OVC080 17/13 A3036 RMK AO2 T01670125,M
05U,2021-08-01 08:55,-116.0051,39.6042,1811.23,64.40,59.00,82.62,0.00,0.00,0.00,30.34,M,10.00,M,FEW,BKN,OVC,M,3400.00,4400.00,10000.00,M,M,M,M,M,M,M,M,64.40,K05U 010855Z AUTO 00000KT 10SM FEW034 BKN044 OVC100 18/15 A3034 RMK A01,M
HTH,2021-08-01 08:55,-118.6315,38.5448,1282.89,68.00,55.40,64.04,120.00,4.00,0.00,30.26,M,10.00,M,CLR,M,M,M,M,M,M,M,M,M,M,M,M,M,M,68.00,KHTH 010855Z AUTO 12004KT 10SM CLR 20/13 A3026 RMK A01,M
RNO,2021-08-01 08:55,-119.7711,39.4839,1341.00,71.00,53.00,52.96,0.00,0.00,0.00,30.24,1017.90,10.00,M,CLR,M,M,M,M,M,M,M,M,M,M,M,M,M,M,71.10,KRNO 010855Z 00000KT 10SM CLR 22/12 A3024 RMK AO2 SLP179 HZ ALQDS T02170117 51001 PNO $,M
BVU,2021-08-01 08:55,-114.8611,35.9475,671.00,80.60,64.40,57.84,360.00,4.00,0.00,30.03,M,10.00,M,SCT,M,M,M,8000.00,M,M,M,M,M,M,M,M,M,M,82.27,KBVU 010855Z AUTO 36004KT 10SM SCT080 27/18 A3003 RMK AO2,M
BAM,2021-08-01 08:55,-116.8743,40.5990,1382.36,69.80,59.00,68.55,250.00,3.00,0.00,30.24,M,10.00,M,BKN,OVC,M,M,10000.00,12000.00,M,M,M,M,M,M,M,M,M,69.80,KBAM 010855Z AUTO 25003KT 10SM BKN100 OVC120 21/15 A3024 RMK AO1,M
WMC,2021-08-01 08:56,-117.8072,40.9019,1315.00,67.00,58.00,72.81,230.00,3.00,0.00,30.20,1017.80,10.00,M,CLR,M,M,M,M,M,M,M,M,M,M,M,M,M,M,66.90,KWMC 010856Z AUTO 23003KT 10SM CLR 19/14 A3020 RMK AO2 SLP178 T01940144 50003 $,M
HND,2021-08-01 08:56,-115.1344,35.9729,742.79,77.00,69.00,76.62,0.00,0.00,0.00,30.07,1017.00,10.00,M,CLR,M,M,M,M,M,M,M,M,M,M,M,M,M,M,77.00,KHND 010856Z AUTO 00000KT 10SM CLR 25/21 A3007 RMK AO2 SLP170 T02500206 53002,M
NFL,2021-08-01 08:56,-118.7010,39.4166,1199.00,67.00,58.00,72.81,160.00,13.00,0.00,30.22,1019.50,10.00,M,SCT,M,M,M,12000.00,M,M,M,M,M,M,M,M,M,M,66.90,KNFL 010856Z AUTO 16013KT 10SM SCT120 19/14 A3022 RMK AO2 SLP195 60005 T01940144 58010,M
EKO,2021-08-01 08:56,-115.7860,40.8242,1367.00,65.00,62.00,90.64,130.00,3.00,0.00,30.27,1019.40,10.00,M,SCT,BKN,OVC,M,6500.00,9000.00,11000.00,M,M,M,M,M,M,M,M,64.90,KEKO 010856Z AUTO 13003KT 10SM SCT065 BKN090 OVC110 18/17 A3027 RMK AO2 LTG DSNT SW SLP194 T01830167 52003,M
TPH,2021-08-01 08:56,-117.0904,38.0505,1654.00,63.00,57.00,80.76,0.00,0.00,0.00,30.30,1018.80,10.00,M,SCT,M,M,M,11000.00,M,M,M,M,M,M,M,M,M,M,63.00,KTPH 010856Z AUTO 00000KT 10SM SCT110 17/14 A3030 RMK AO2 SLP188 T01720139 58003,M
LAS,2021-08-01 08:56,-115.1634,36.0719,663.00,84.00,64.00,51.08,0.00,0.00,0.00,30.04,1014.10,10.00,M,FEW,SCT,M,M,12000.00,24000.00,M,M,M,M,M,M,M,M,M,85.36,KLAS 010856Z 00000KT 10SM FEW120 SCT240 29/18 A3004 RMK AO2 SLP141 T02890178 53003,M
INS,2021-08-01 08:58,-115.6733,36.5872,955.00,75.60,64.00,67.04,280.00,3.00,0.00,30.10,1014.90,10.00,M,BKN,M,M,M,8500.00,M,M,M,M,M,M,M,M,M,M,75.60,KINS 010858Z AUTO 28003KT 10SM BKN085 24/18 A3010 RMK AO2 SLP149 T02420177 50002 $,M
LSV,2021-08-01 08:58,-115.0343,36.2362,570.00,86.00,62.00,44.81,60.00,10.00,0.00,30.01,1013.50,10.00,M,BKN,M,M,M,12000.00,M,M,M,M,M,M,M,M,M,M,86.52,KLSV 010858Z AUTO 06010KT 10SM BKN120 30/17 A3001 RMK AO2 SLP135 T03000167 50002 $,M
CXP,2021-08-01 09:10,-119.7326,39.1923,1431.00,68.00,51.80,56.13,120.00,6.00,0.00,30.28,M,10.00,M,SCT,SCT,SCT,M,7500.00,8500.00,11000.00,M,M,M,M,M,M,M,M,68.00,KCXP 010910Z AUTO 12006KT 10SM SCT075 SCT085 SCT110 20/11 A3028 RMK AO2,M
05U,2021-08-01 09:15,-116.0051,39.6042,1811.23,64.40,60.80,88.09,0.00,0.00,0.00,30.34,M,10.00,M,FEW,SCT,OVC,M,3500.00,4600.00,11000.00,M,M,M,M,M,M,M,M,64.40,K05U 010915Z AUTO 00000KT 10SM FEW035 SCT046 OVC110 18/16 A3034 RMK A01,M
TMT,2021-08-01 09:15,-117.1971,39.4643,1749.34,61.70,54.00,76.10,210.00,9.00,0.00,30.36,M,10.00,M,BKN,BKN,OVC,M,4800.00,8000.00,11000.00,M,M,M,M,M,M,M,M,61.70,KTMT 010915Z AUTO 21009KT 10SM BKN048 BKN080 OVC110 17/12 A3036 RMK AO2 T01650123,M
BAM,2021-08-01 09:15,-116.8743,40.5990,1382.36,69.80,57.20,64.26,270.00,8.00,0.00,30.24,M,10.00,M,OVC,M,M,M,10000.00,M,M,M,M,M,M,M,M,M,M,69.80,KBAM 010915Z AUTO 27008KT 10SM OVC100 21/14 A3024 RMK AO1,M
RTS,2021-08-01 09:15,-119.8764,39.6682,1539.00,64.40,55.40,72.56,0.00,0.00,0.00,30.29,M,10.00,M,BKN,M,M,M,10000.00,M,M,M,M,M,M,M,M,M,M,64.40,KRTS 010915Z AUTO 00000KT 10SM BKN100 18/13 A3029 RMK AO2,M
BVU,2021-08-01 09:15,-114.8611,35.9475,671.00,82.40,62.60,51.21,360.00,5.00,0.00,30.03,M,10.00,M,OVC,M,M,M,8000.00,M,M,M,M,M,M,M,M,M,M,83.41,KBVU 010915Z AUTO 36005KT 10SM OVC080 28/17 A3003 RMK AO2,M
MEV,2021-08-01 09:15,-119.7500,38.9963,1441.42,62.60,51.80,67.75,50.00,4.00,0.00,30.26,M,10.00,M,FEW,FEW,OVC,M,4800.00,5500.00,11000.00,M,M,M,M,M,M,M,M,62.60,KMEV 010915Z AUTO 05004KT 10SM FEW048 FEW055 OVC110 17/11 A3026 RMK AO2,M
HTH,2021-08-01 09:15,-118.6315,38.5448,1282.89,68.00,55.40,64.04,130.00,4.00,0.00,30.26,M,10.00,M,FEW,M,M,M,11000.00,M,M,M,M,M,M,M,M,M,M,68.00,KHTH 010915Z AUTO 13004KT 10SM FEW110 20/13 A3026 RMK A01,M
INS,2021-08-01 09:23,-115.6733,36.5872,955.00,77.00,62.60,61.13,210.00,3.00,0.00,30.10,1014.70,10.00,M,SCT,BKN,M,M,8500.00,11000.00,M,M,M,M,M,M,M,M,M,77.00,KINS 010923Z AUTO 21003KT 10SM SCT085 BKN110 25/17 A3010 RMK AO2 SLP147 $,M
CXP,2021-08-01 09:30,-119.7326,39.1923,1431.00,66.20,53.60,63.82,100.00,8.00,0.00,30.28,M,10.00,M,FEW,SCT,M,M,8000.00,9500.00,M,M,M,M,M,M,M,M,M,66.20,KCXP 010930Z AUTO 10008KT 10SM FEW080 SCT095 19/12 A3028 RMK AO2,M
HTH,2021-08-01 09:35,-118.6315,38.5448,1282.89,66.20,55.40,68.15,50.00,4.00,0.00,30.27,M,10.00,M,FEW,M,M,M,11000.00,M,M,M,M,M,M,M,M,M,M,66.20,KHTH 010935Z AUTO 05004KT 10SM FEW110 19/13 A3027 RMK A01,M
BAM,2021-08-01 09:35,-116.8743,40.5990,1382.36,69.80,55.40,60.21,250.00,15.00,0.00,30.24,M,10.00,18.00,OVC,M,M,M,11000.00,M,M,M,M,M,M,M,M,M,M,69.80,KBAM 010935Z AUTO 25015G18KT 10SM OVC110 21/13 A3024 RMK AO1,M
MEV,2021-08-01 09:35,-119.7500,38.9963,1441.42,64.40,51.80,63.60,0.00,0.00,0.00,30.27,M,10.00,M,FEW,SCT,OVC,M,4500.00,5000.00,11000.00,M,M,M,M,M,M,M,M,64.40,KMEV 010935Z AUTO 00000KT 10SM FEW045 SCT050 OVC110 18/11 A3027 RMK AO2,M
05U,2021-08-01 09:35,-116.0051,39.6042,1811.23,64.40,59.00,82.62,0.00,0.00,0.00,30.34,M,10.00,M,BKN,OVC,M,M,4900.00,11000.00,M,M,M,M,M,M,M,M,M,64.40,K05U 010935Z AUTO 00000KT 10SM BKN049 OVC110 18/15 A3034 RMK A01,M
BVU,2021-08-01 09:35,-114.8611,35.9475,671.00,82.40,60.80,48.05,0.00,0.00,0.00,30.04,M,10.00,M,OVC,M,M,M,8500.00,M,M,M,M,M,M,M,M,M,M,82.90,KBVU 010935Z AUTO 00000KT 10SM OVC085 28/16 A3004 RMK AO2,M
RTS,2021-08-01 09:35,-119.8764,39.6682,1539.00,62.60,53.60,72.38,350.00,5.00,0.00,30.29,M,10.00,M,FEW,M,M,M,11000.00,M,M,M,M,M,M,M,M,M,M,62.60,KRTS 010935Z AUTO 35005KT 10SM FEW110 17/12 A3029 RMK AO2,M
TMT,2021-08-01 09:35,-117.1971,39.4643,1749.34,61.20,54.30,78.02,210.00,10.00,0.00,30.36,M,10.00,M,SCT,OVC,M,M,5000.00,11000.00,M,M,M,M,M,M,M,M,M,61.20,KTMT 010935Z AUTO 21010KT 10SM SCT050 OVC110 16/12 A3036 RMK AO2 T01620124,M
EKO,2021-08-01 09:36,-115.7860,40.8242,1367.00,65.00,62.00,90.64,110.00,4.00,0.00,30.27,M,10.00,M,BKN,BKN,OVC,M,2900.00,5000.00,6500.00,M,M,M,M,M,M,M,M,64.90,KEKO 010936Z AUTO 11004KT 10SM BKN029 BKN050 OVC065 18/17 A3027 RMK AO2 T01830167,M
EKO,2021-08-01 09:45,-115.7860,40.8242,1367.00,65.00,62.00,90.64,0.00,0.00,0.00,30.27,M,10.00,M,FEW,BKN,OVC,M,2700.00,3300.00,4700.00,M,M,M,M,M,M,M,M,64.90,KEKO 010945Z AUTO 00000KT 10SM FEW027 BKN033 OVC047 18/17 A3027 RMK AO2 T01830167,M
CXP,2021-08-01 09:50,-119.7326,39.1923,1431.00,66.20,53.60,63.82,90.00,4.00,0.00,30.28,M,10.00,M,FEW,M,M,M,9500.00,M,M,M,M,M,M,M,M,M,M,66.20,KCXP 010950Z AUTO 09004KT 10SM FEW095 19/12 A3028 RMK AO2,M
VGT,2021-08-01 09:53,-115.1933,36.2111,667.00,84.00,66.00,54.77,140.00,4.00,0.00,30.03,1015.50,10.00,M,FEW,M,M,M,11000.00,M,M,M,M,M,M,M,M,M,M,86.20,KVGT 010953Z AUTO 14004KT 10SM FEW110 29/19 A3003 RMK AO2 SLP155 T02890189 PNO,M
DRA,2021-08-01 09:53,-116.0278,36.6206,1009.00,80.00,56.00,43.44,60.00,5.00,0.00,30.11,1014.40,10.00,M,FEW,OVC,M,M,9000.00,11000.00,M,M,M,M,M,M,M,M,M,80.29,KDRA 010953Z AUTO 06005KT 10SM FEW090 OVC110 27/13 A3011 RMK AO2 SLP144 T02670133,M
P68,2021-08-01 09:53,-116.0056,39.6014,1993.00,62.00,59.00,89.57,90.00,4.00,0.00,30.32,1019.50,M,M,M,M,M,M,M,M,M,M,M,M,M,M,M,M,M,62.10,KP68 010953Z AUTO 09004KT 17/15 A3032 RMK AO1 SLP195 T01670150,M
LOL,2021-08-01 09:53,-118.5701,40.0684,1192.43,66.00,59.00,78.14,290.00,3.00,0.00,30.22,1019.20,9.00,M,CLR,M,M,M,M,M,M,M,M,M,M,M,M,M,M,66.00,KLOL 010953Z AUTO 29003KT 9SM CLR 19/15 A3022 RMK AO2 SLP192 T01890150,M
ELY,2021-08-01 09:53,-114.8453,39.2950,1909.00,55.00,55.00,100.00,190.00,5.00,0.00,30.33,1019.80,10.00,M,CLR,M,M,M,M,M,M,M,M,M,M,M,M,M,M,55.00,KELY 010953Z AUTO 19005KT 10SM CLR 13/13 A3033 RMK AO2 SLP198 T01280128,M
HTH,2021-08-01 09:55,-118.6315,38.5448,1282.89,66.20,53.60,63.82,110.00,5.00,0.00,30.27,M,10.00,M,FEW,SCT,M,M,8500.00,11000.00,M,M,M,M,M,M,M,M,M,66.20,KHTH 010955Z AUTO 11005KT 10SM FEW085 SCT110 19/12 A3027 RMK A01,M
BAM,2021-08-01 09:55,-116.8743,40.5990,1382.36,69.80,57.20,64.26,250.00,14.00,0.00,30.25,M,10.00,M,SCT,OVC,M,M,7000.00,11000.00,M,M,M,M,M,M,M,M,M,69.80,KBAM 010955Z AUTO 25014KT 10SM SCT070 OVC110 21/14 A3025 RMK AO1,M
RNO,2021-08-01 09:55,-119.7711,39.4839,1341.00,69.00,56.00,62.80,290.00,3.00,0.00,30.23,1017.60,10.00,M,CLR,M,M,M,M,M,M,M,M,M,M,M,M,M,M,69.10,KRNO 010955Z 29003KT 10SM CLR 21/13 A3023 RMK AO2 SLP176 T02060133 PNO $,M
RTS,2021-08-01 09:55,-119.8764,39.6682,1539.00,64.40,53.60,67.95,0.00,0.00,0.00,30.29,M,10.00,M,CLR,M,M,M,M,M,M,M,M,M,M,M,M,M,M,64.40,KRTS 010955Z AUTO 00000KT 10SM CLR 18/12 A3029 RMK AO2,M
05U,2021-08-01 09:55,-116.0051,39.6042,1811.23,62.60,60.80,93.83,50.00,5.00,0.00,30.35,M,10.00,M,FEW,OVC,M,M,4700.00,5500.00,M,M,M,M,M,M,M,M,M,62.60,K05U 010955Z AUTO 05005KT 10SM FEW047 OVC055 17/16 A3035 RMK A01,M
MEV,2021-08-01 09:55,-119.7500,38.9963,1441.42,60.80,50.00,67.54,0.00,0.00,0.00,30.27,M,10.00,M,FEW,SCT,BKN,M,4700.00,5500.00,6500.00,M,M,M,M,M,M,M,M,60.80,KMEV 010955Z AUTO 00000KT 10SM FEW047 SCT055 BKN065 16/10 A3027 RMK AO2,M
WMC,2021-08-01 09:56,-117.8072,40.9019,1315.00,68.00,56.00,65.22,170.00,9.00,0.00,30.21,1017.90,8.00,M,CLR,M,M,M,M,M,M,M,M,M,M,M,M,M,M,68.00,KWMC 010956Z AUTO 17009KT 8SM CLR 20/13 A3021 RMK AO2 SLP179 T02000133 $,M
LAS,2021-08-01 09:56,-115.1634,36.0719,663.00,85.00,62.00,46.42,0.00,0.00,0.00,30.04,1014.50,10.00,M,SCT,BKN,M,M,12000.00,24000.00,M,M,M,M,M,M,M,M,M,85.49,KLAS 010956Z 00000KT 10SM SCT120 BKN240 29/17 A3004 RMK AO2 SLP145 T02940167,M
NFL,2021-08-01 09:56,-118.7010,39.4166,1199.00,67.00,57.00,70.49,160.00,10.00,0.00,30.21,1019.30,10.00,M,CLR,M,M,M,M,M,M,M,M,M,M,M,M,M,M,66.90,KNFL 010956Z AUTO 16010KT 10SM CLR 19/14 A3021 RMK AO2 SLP193 T01940139,M
EKO,2021-08-01 09:56,-115.7860,40.8242,1367.00,65.00,61.00,87.18,0.00,0.00,0.00,30.27,1019.10,10.00,M,OVC,M,M,M,3300.00,M,M,M,M,M,M,M,M,M,M,64.90,KEKO 010956Z AUTO 00000KT 10SM OVC033 18/16 A3027 RMK AO2 SLP191 T01830161,M
TPH,2021-08-01 09:56,-117.0904,38.0505,1654.00,63.00,56.00,77.61,0.00,0.00,0.00,30.30,1019.80,10.00,M,CLR,M,M,M,M,M,M,M,M,M,M,M,M,M,M,63.00,KTPH 010956Z AUTO 00000KT 10SM CLR 17/13 A3030 RMK AO2 SLP198 T01720133,M
HND,2021-08-01 09:56,-115.1344,35.9729,742.79,77.00,67.00,71.03,150.00,3.00,0.00,30.08,1017.70,10.00,M,CLR,M,M,M,M,M,M,M,M,M,M,M,M,M,M,77.00,KHND 010956Z AUTO 15003KT 10SM CLR 25/19 A3008 RMK AO2 SLP177 T02500194,M
LSV,2021-08-01 09:58,-115.0343,36.2362,570.00,86.00,61.50,43.87,70.00,7.00,0.00,30.01,1013.50,10.00,M,OVC,M,M,M,10000.00,M,M,M,M,M,M,M,M,M,M,86.30,KLSV 010958Z AUTO 07007KT 10SM OVC100 30/16 A3001 RMK AO2 SLP135 T03000164 $,M
INS,2021-08-01 09:58,-115.6733,36.5872,955.00,74.70,63.00,66.94,0.00,0.00,0.00,30.11,1015.20,10.00,M,CLR,M,M,M,M,M,M,M,M,M,M,M,M,M,M,74.70,KINS 010958Z AUTO 00000KT 10SM CLR 24/17 A3011 RMK AO2 SLP152 T02370172 $,M
CXP,2021-08-01 10:10,-119.7326,39.1923,1431.00,66.20,53.60,63.82,90.00,5.00,0.00,30.28,M,10.00,M,FEW,M,M,M,9500.00,M,M,M,M,M,M,M,M,M,M,66.20,KCXP 011010Z AUTO 09005KT 10SM FEW095 19/12 A3028 RMK AO2,M
HTH,2021-08-01 10:15,-118.6315,38.5448,1282.89,68.00,53.60,59.97,160.00,4.00,0.00,30.27,M,10.00,M,FEW,M,M,M,8500.00,M,M,M,M,M,M,M,M,M,M,68.00,KHTH 011015Z AUTO 16004KT 10SM FEW085 20/12 A3027 RMK A01,M
BAM,2021-08-01 10:15,-116.8743,40.5990,1382.36,69.80,57.20,64.26,250.00,12.00,0.00,30.25,M,10.00,15.00,BKN,OVC,M,M,7000.00,8000.00,M,M,M,M,M,M,M,M,M,69.80,KBAM 011015Z AUTO 25012G15KT 10SM BKN070 OVC080 21/14 A3025 RMK AO1,M
05U,2021-08-01 10:15,-116.0051,39.6042,1811.23,62.60,59.00,88.00,20.00,6.00,0.00,30.35,M,10.00,11.00,BKN,BKN,OVC,M,2400.00,4600.00,11000.00,M,M,M,M,M,M,M,M,62.60,K05U 011015Z AUTO 02006G11KT 10SM BKN024 BKN046 OVC110 17/15 A3035 RMK A01,M
MEV,2021-08-01 10:15,-119.7500,38.9963,1441.42,60.80,50.00,67.54,80.00,4.00,0.00,30.26,M,10.00,M,FEW,BKN,OVC,M,4700.00,5500.00,6500.00,M,M,M,M,M,M,M,M,60.80,KMEV 011015Z AUTO 08004KT 10SM FEW047 BKN055 OVC065 16/10 A3026 RMK AO2,M
RTS,2021-08-01 10:15,-119.8764,39.6682,1539.00,62.60,53.60,72.38,100.00,3.00,0.00,30.28,M,10.00,M,CLR,M,M,M,M,M,M,M,M,M,M,M,M,M,M,62.60,KRTS 011015Z AUTO 10003KT 10SM CLR 17/12 A3028 RMK AO2,M
CXP,2021-08-01 10:30,-119.7326,39.1923,1431.00,66.20,53.60,63.82,80.00,6.00,0.00,30.27,M,10.00,M,FEW,M,M,M,10000.00,M,M,M,M,M,M,M,M,M,M,66.20,KCXP 011030Z AUTO 08006KT 10SM FEW100 19/12 A3027 RMK AO2,M
BAM,2021-08-01 10:35,-116.8743,40.5990,1382.36,69.80,55.40,60.21,240.00,10.00,0.00,30.25,M,10.00,M,BKN,BKN,M,M,7000.00,12000.00,M,M,M,M,M,M,M,M,M,69.80,KBAM 011035Z AUTO 24010KT 10SM BKN070 BKN120 21/13 A3025 RMK AO1,M
HTH,2021-08-01 10:35,-118.6315,38.5448,1282.89,66.20,53.60,63.82,140.00,6.00,0.00,30.27,M,10.00,M,CLR,M,M,M,M,M,M,M,M,M,M,M,M,M,M,66.20,KHTH 011035Z AUTO 14006KT 10SM CLR 19/12 A3027 RMK A01,M
RTS,2021-08-01 10:35,-119.8764,39.6682,1539.00,60.80,51.80,72.20,0.00,0.00,0.00,30.28,M,10.00,M,CLR,M,M,M,M,M,M,M,M,M,M,M,M,M,M,60.80,KRTS 011035Z AUTO 00000KT 10SM CLR 16/11 A3028 RMK AO2,M
05U,2021-08-01 10:35,-116.0051,39.6042,1811.23,60.80,57.20,87.92,0.00,0.00,0.00,30.36,M,10.00,M,SCT,BKN,OVC,M,2400.00,3100.00,6500.00,M,M,M,M,M,M,M,M,60.80,K05U 011035Z AUTO 00000KT 10SM SCT024 BKN031 OVC065 16/14 A3036 RMK A01,M
MEV,2021-08-01 10:35,-119.7500,38.9963,1441.42,59.00,50.00,72.01,130.00,4.00,0.00,30.26,M,10.00,M,BKN,BKN,OVC,M,4700.00,5500.00,6500.00,M,M,M,M,M,M,M,M,59.00,KMEV 011035Z AUTO 13004KT 10SM BKN047 BKN055 OVC065 15/10 A3026 RMK AO2,M
CXP,2021-08-01 10:50,-119.7326,39.1923,1431.00,64.40,53.60,67.95,100.00,3.00,0.00,30.27,M,10.00,M,FEW,M,M,M,9500.00,M,M,M,M,M,M,M,M,M,M,64.40,KCXP 011050Z AUTO 10003KT 10SM FEW095 18/12 A3027 RMK AO2,M
VGT,2021-08-01 10:53,-115.1933,36.2111,667.00,83.00,64.00,52.93,230.00,6.00,0.00,30.03,1016.30,10.00,M,SCT,M,M,M,11000.00,M,M,M,M,M,M,M,M,M,M,84.32,KVGT 011053Z AUTO 23006KT 10SM SCT110 28/18 A3003 RMK AO2 SLP163 T02830178 PNO,M
ELY,2021-08-01 10:53,-114.8453,39.2950,1909.00,56.00,55.00,96.78,160.00,5.00,0.00,30.33,1019.90,10.00,M,CLR,M,M,M,M,M,M,M,M,M,M,M,M,M,M,55.90,KELY 011053Z AUTO 16005KT 10SM CLR 13/13 A3033 RMK AO2 SLP199 T01330128,M
DRA,2021-08-01 10:53,-116.0278,36.6206,1009.00,80.00,57.00,45.21,10.00,6.00,0.00,30.11,1014.30,10.00,M,FEW,BKN,M,M,8500.00,11000.00,M,M,M,M,M,M,M,M,M,80.45,KDRA 011053Z AUTO 01006KT 10SM FEW085 BKN110 27/14 A3011 RMK AO2 SLP143 T02670139,M
LOL,2021-08-01 10:53,-118.5701,40.0684,1192.43,65.00,59.00,81.19,130.00,5.00,0.00,30.21,1019.10,9.00,M,CLR,M,M,M,M,M,M,M,M,M,M,M,M,M,M,64.90,KLOL 011053Z AUTO 13005KT 9SM CLR 18/15 A3021 RMK AO2 SLP191 T01830150,M
P68,2021-08-01 10:53,-116.0056,39.6014,1993.00,60.00,57.00,89.48,20.00,5.00,0.00,30.33,1020.30,M,M,M,M,M,M,M,M,M,M,M,M,M,M,M,M,M,60.10,KP68 011053Z AUTO 02005KT 16/14 A3033 RMK AO1 SLP203 T01560139,M
05U,2021-08-01 10:55,-116.0051,39.6042,1811.23,60.80,57.20,87.92,20.00,3.00,0.00,30.36,M,10.00,M,SCT,BKN,OVC,M,3000.00,3700.00,6500.00,M,M,M,M,M,M,M,M,60.80,K05U 011055Z AUTO 02003KT 10SM SCT030 BKN037 OVC065 16/14 A3036 RMK A01,M
RTS,2021-08-01 10:55,-119.8764,39.6682,1539.00,60.80,53.60,77.14,30.00,4.00,0.00,30.28,M,10.00,M,CLR,M,M,M,M,M,M,M,M,M,M,M,M,M,M,60.80,KRTS 011055Z AUTO 03004KT 10SM CLR 16/12 A3028 RMK AO2,M
BAM,2021-08-01 10:55,-116.8743,40.5990,1382.36,69.80,55.40,60.21,250.00,12.00,0.00,30.25,M,10.00,M,BKN,OVC,M,M,6000.00,7000.00,M,M,M,M,M,M,M,M,M,69.80,KBAM 011055Z AUTO 25012KT 10SM BKN060 OVC070 21/13 A3025 RMK AO1,M
RNO,2021-08-01 10:55,-119.7711,39.4839,1341.00,68.00,54.00,60.86,0.00,0.00,0.00,30.23,1017.50,10.00,M,CLR,M,M,M,M,M,M,M,M,M,M,M,M,M,M,68.00,KRNO 011055Z 00000KT 10SM CLR 20/12 A3023 RMK AO2 SLP175 HZ ALQDS T02000122 PNO $,M
HTH,2021-08-01 10:55,-118.6315,38.5448,1282.89,68.00,53.60,59.97,0.00,0.00,0.00,30.27,M,10.00,M,CLR,M,M,M,M,M,M,M,M,M,M,M,M,M,M,68.00,KHTH 011055Z AUTO 00000KT 10SM CLR 20/12 A3027 RMK A01,M
MEV,2021-08-01 10:55,-119.7500,38.9963,1441.42,57.20,50.00,76.82,120.00,5.00,0.00,30.26,M,10.00,M,BKN,OVC,M,M,4800.00,7000.00,M,M,M,M,M,M,M,M,M,57.20,KMEV 011055Z AUTO 12005KT 10SM BKN048 OVC070 14/10 A3026 RMK AO2,M
NFL,2021-08-01 10:56,-118.7010,39.4166,1199.00,66.00,59.00,78.14,180.00,8.00,0.00,30.21,1019.30,10.00,M,CLR,M,M,M,M,M,M,M,M,M,M,M,M,M,M,66.00,KNFL 011056Z AUTO 18008KT 10SM CLR 19/15 A3021 RMK AO2 SLP193 T01890150,M
TPH,2021-08-01 10:56,-117.0904,38.0505,1654.00,62.00,56.00,80.11,360.00,4.00,0.00,30.30,1019.20,10.00,M,FEW,M,M,M,12000.00,M,M,M,M,M,M,M,M,M,M,62.10,KTPH 011056Z AUTO 36004KT 10SM FEW120 17/13 A3030 RMK AO2 SLP192 T01670133,M
HND,2021-08-01 10:56,-115.1344,35.9729,742.79,76.00,67.00,73.68,160.00,6.00,0.00,30.08,1017.60,10.00,M,BKN,M,M,M,12000.00,M,M,M,M,M,M,M,M,M,M,75.90,KHND 011056Z AUTO 16006KT 10SM BKN120 24/19 A3008 RMK AO2 SLP176 T02440194,M
WMC,2021-08-01 10:56,-117.8072,40.9019,1315.00,68.00,56.00,65.22,190.00,10.00,0.00,30.21,1017.90,10.00,M,CLR,M,M,M,M,M,M,M,M,M,M,M,M,M,M,68.00,KWMC 011056Z AUTO 19010KT 10SM CLR 20/13 A3021 RMK AO2 SLP179 T02000133 $,M
LAS,2021-08-01 10:56,-115.1634,36.0719,663.00,84.00,62.00,47.78,240.00,4.00,0.00,30.05,1014.80,10.00,M,SCT,BKN,M,M,12000.00,24000.00,M,M,M,M,M,M,M,M,M,84.67,KLAS 011056Z 24004KT 10SM SCT120 BKN240 29/17 A3005 RMK AO2 SLP148 T02890167,M
EKO,2021-08-01 10:56,-115.7860,40.8242,1367.00,63.00,60.00,90.25,230.00,5.00,0.00,30.28,1020.60,10.00,M,OVC,M,M,M,4700.00,M,M,M,M,M,M,M,M,M,M,63.00,KEKO 011056Z AUTO 23005KT 10SM OVC047 17/16 A3028 RMK AO2 SLP206 T01720156,M
INS,2021-08-01 10:58,-115.6733,36.5872,955.00,73.60,62.80,68.97,270.00,3.00,0.00,30.11,1015.00,10.00,M,BKN,M,M,M,11000.00,M,M,M,M,M,M,M,M,M,M,73.60,KINS 011058Z AUTO 27003KT 10SM BKN110 23/17 A3011 RMK AO2 LTG DSNT NW SLP150 T02310171 $,M
LSV,2021-08-01 10:58,-115.0343,36.2362,570.00,85.30,60.80,43.77,70.00,5.00,0.00,30.02,1014.10,10.00,M,CLR,M,M,M,M,M,M,M,M,M,M,M,M,M,M,85.41,KLSV 011058Z AUTO 07005KT 10SM CLR 30/16 A3002 RMK AO2 SLP141 T02960160 $,M
CXP,2021-08-01 11:10,-119.7326,39.1923,1431.00,64.40,53.60,67.95,60.00,5.00,0.00,30.27,M,10.00,M,FEW,M,M,M,9000.00,M,M,M,M,M,M,M,M,M,M,64.40,KCXP 011110Z AUTO 06005KT 10SM FEW090 18/12 A3027 RMK AO2,M
HTH,2021-08-01 11:15,-118.6315,38.5448,1282.89,66.20,55.40,68.15,0.00,0.00,0.00,30.27,M,10.00,M,CLR,M,M,M,M,M,M,M,M,M,M,M,M,M,M,66.20,KHTH 011115Z AUTO 00000KT 10SM CLR 19/13 A3027 RMK A01,M
BAM,2021-08-01 11:15,-116.8743,40.5990,1382.36,68.00,55.40,64.04,250.00,11.00,0.00,30.25,M,10.00,M,SCT,OVC,M,M,6000.00,8500.00,M,M,M,M,M,M,M,M,M,68.00,KBAM 011115Z AUTO 25011KT 10SM SCT060 OVC085 20/13 A3025 RMK AO1,M
MEV,2021-08-01 11:15,-119.7500,38.9963,1441.42,55.40,48.20,76.66,140.00,5.00,0.00,30.26,M,10.00,M,OVC,M,M,M,4900.00,M,M,M,M,M,M,M,M,M,M,55.40,KMEV 011115Z AUTO 14005KT 10SM OVC049 13/09 A3026 RMK AO2,M
05U,2021-08-01 11:15,-116.0051,39.6042,1811.23,60.80,59.00,93.79,0.00,0.00,0.00,30.36,M,10.00,M,SCT,BKN,OVC,M,3600.00,7500.00,10000.00,M,M,M,M,M,M,M,M,60.80,K05U 011115Z AUTO 00000KT 10SM SCT036 BKN075 OVC100 16/15 A3036 RMK A01,M
RTS,2021-08-01 11:15,-119.8764,39.6682,1539.00,59.00,51.80,76.98,360.00,3.00,0.00,30.28,M,10.00,M,CLR,M,M,M,M,M,M,M,M,M,M,M,M,M,M,59.00,KRTS 011115Z AUTO 36003KT 10SM CLR 15/11 A3028 RMK AO2,M
CXP,2021-08-01 11:30,-119.7326,39.1923,1431.00,64.40,53.60,67.95,120.00,5.00,0.00,30.27,M,10.00,M,FEW,M,M,M,9000.00,M,M,M,M,M,M,M,M,M,M,64.40,KCXP 011130Z AUTO 12005KT 10SM FEW090 18/12 A3027 RMK AO2,M
HTH,2021-08-01 11:35,-118.6315,38.5448,1282.89,66.20,53.60,63.82,220.00,3.00,0.00,30.27,M,10.00,M,CLR,M,M,M,M,M,M,M,M,M,M,M,M,M,M,66.20,KHTH 011135Z AUTO 22003KT 10SM CLR 19/12 A3027 RMK A01,M
BAM,2021-08-01 11:35,-116.8743,40.5990,1382.36,68.00,55.40,64.04,240.00,11.00,0.00,30.25,M,10.00,M,BKN,BKN,M,M,8500.00,12000.00,M,M,M,M,M,M,M,M,M,68.00,KBAM 011135Z AUTO 24011KT 10SM BKN085 BKN120 20/13 A3025 RMK AO1,M
MEV,2021-08-01 11:35,-119.7500,38.9963,1441.42,55.40,48.20,76.66,110.00,6.00,0.00,30.26,M,10.00,M,OVC,M,M,M,5000.00,M,M,M,M,M,M,M,M,M,M,55.40,KMEV 011135Z AUTO 11006KT 10SM OVC050 13/09 A3026 RMK AO2,M
05U,2021-08-01 11:35,-116.0051,39.6042,1811.23,60.80,59.00,93.79,0.00,0.00,0.00,30.36,M,10.00,M,SCT,BKN,OVC,M,5000.00,8000.00,9500.00,M,M,M,M,M,M,M,M,60.80,K05U 011135Z AUTO 00000KT 10SM SCT050 BKN080 OVC095 16/15 A3036 RMK A01,M
RTS,2021-08-01 11:35,-119.8764,39.6682,1539.00,59.00,51.80,76.98,350.00,4.00,0.00,30.28,M,10.00,M,CLR,M,M,M,M,M,M,M,M,M,M,M,M,M,M,59.00,KRTS 011135Z AUTO 35004KT 10SM CLR 15/11 A3028 RMK AO2,M
CXP,2021-08-01 11:50,-119.7326,39.1923,1431.00,64.40,53.60,67.95,90.00,5.00,0.00,30.27,M,10.00,M,SCT,M,M,M,10000.00,M,M,M,M,M,M,M,M,M,M,64.40,KCXP 011150Z AUTO 09005KT 10SM SCT100 18/12 A3027 RMK AO2,M
P68,2021-08-01 11:53,-116.0056,39.6014,1993.00,60.00,58.00,92.43,0.00,0.00,0.00,30.33,1020.30,M,M,M,M,M,M,M,M,M,M,M,M,M,M,M,M,M,60.10,KP68 011153Z AUTO 00000KT 16/14 A3033 RMK AO1 SLP203 70027 T01560144 10183 20156 51004,M
VGT,2021-08-01 11:53,-115.1933,36.2111,667.00,84.00,64.00,51.08,220.00,5.00,0.00,30.04,1016.20,10.00,M,FEW,M,M,M,8500.00,M,M,M,M,M,M,M,M,M,M,85.36,KVGT 011153Z AUTO 22005KT 10SM FEW085 29/18 A3004 RMK AO2 SLP162 6//// 7//// T02890178 10317 20283 53004 PNO,M
LOL,2021-08-01 11:53,-118.5701,40.0684,1192.43,64.00,59.00,83.78,110.00,3.00,0.00,30.22,1019.40,9.00,M,CLR,M,M,M,M,M,M,M,M,M,M,M,M,M,M,64.00,KLOL 011153Z AUTO 11003KT 9SM CLR 18/15 A3022 RMK AO2 SLP194 60001 70003 T01780150 10217 20172 53002,M
DRA,2021-08-01 11:53,-116.0278,36.6206,1009.00,79.00,57.00,46.87,50.00,7.00,0.00,30.13,1014.90,10.00,M,OVC,M,M,M,10000.00,M,M,M,M,M,M,M,M,M,M,79.00,KDRA 011153Z AUTO 05007KT 10SM OVC100 26/14 A3013 RMK AO2 SLP149 70001 T02610139 10283 20261 53006,M
ELY,2021-08-01 11:53,-114.8453,39.2950,1909.00,55.00,54.00,96.42,190.00,4.00,0.00,30.34,1020.30,10.00,M,CLR,M,M,M,M,M,M,M,M,M,M,M,M,M,M,55.00,KELY 011153Z AUTO 19004KT 10SM CLR 13/12 A3034 RMK AO2 SLP203 70011 T01280122 10156 20128 53002,M
05U,2021-08-01 11:55,-116.0051,39.6042,1811.23,60.80,59.00,93.79,0.00,0.00,0.00,30.36,M,10.00,M,SCT,BKN,OVC,M,3400.00,5000.00,8500.00,M,M,M,M,M,M,M,M,60.80,K05U 011155Z AUTO 00000KT 10SM SCT034 BKN050 OVC085 16/15 A3036 RMK A01,M
RTS,2021-08-01 11:55,-119.8764,39.6682,1539.00,59.00,51.80,76.98,10.00,6.00,0.00,30.28,M,10.00,M,CLR,M,M,M,M,M,M,M,M,M,M,M,M,M,M,59.00,KRTS 011155Z AUTO 01006KT 10SM CLR 15/11 A3028 RMK AO2,M
RNO,2021-08-01 11:55,-119.7711,39.4839,1341.00,67.00,53.00,61.16,0.00,0.00,0.00,30.23,1017.70,10.00,M,SCT,BKN,M,M,10000.00,14000.00,M,M,M,M,M,M,M,M,M,66.90,KRNO 011155Z 00000KT 10SM SCT100 BKN140 19/12 A3023 RMK AO2 SLP177 HZ ALQDS T01940117 10228 20194 56003 PNO $,M
HTH,2021-08-01 11:55,-118.6315,38.5448,1282.89,66.20,53.60,63.82,200.00,6.00,0.00,30.27,M,10.00,M,CLR,M,M,M,M,M,M,M,M,M,M,M,M,M,M,66.20,KHTH 011155Z AUTO 20006KT 10SM CLR 19/12 A3027 RMK A01,M
BAM,2021-08-01 11:55,-116.8743,40.5990,1382.36,68.00,55.40,64.04,240.00,12.00,0.00,30.25,M,10.00,M,BKN,OVC,M,M,8500.00,12000.00,M,M,M,M,M,M,M,M,M,68.00,KBAM 011155Z AUTO 24012KT 10SM BKN085 OVC120 20/13 A3025 RMK AO1,M
MEV,2021-08-01 11:55,-119.7500,38.9963,1441.42,55.40,48.20,76.66,140.00,6.00,0.00,30.26,M,10.00,M,OVC,M,M,M,5000.00,M,M,M,M,M,M,M,M,M,M,55.40,KMEV 011155Z AUTO 14006KT 10SM OVC050 13/09 A3026 RMK AO2,M
WMC,2021-08-01 11:56,-117.8072,40.9019,1315.00,67.00,56.00,67.74,190.00,12.00,0.00,30.22,1018.10,10.00,M,CLR,M,M,M,M,M,M,M,M,M,M,M,M,M,M,66.90,KWMC 011156Z AUTO 19012KT 10SM CLR 19/13 A3022 RMK AO2 SLP181 T01940133 10217 20189 51004 $,M
EKO,2021-08-01 11:56,-115.7860,40.8242,1367.00,61.00,59.00,93.12,190.00,8.00,0.02,30.29,1021.40,4.00,M,FEW,BKN,OVC,M,3800.00,4700.00,6000.00,M,RA BR,M,M,M,M,M,M,61.00,KEKO 011156Z AUTO 19008KT 4SM RA BR FEW038 BKN047 OVC060 16/15 A3029 RMK AO2 RAB39 SLP214 P0002 60002 70011 T01610150 10194 20161 53006,M
LAS,2021-08-01 11:56,-115.1634,36.0719,663.00,83.00,63.00,51.10,270.00,3.00,0.00,30.05,1014.90,10.00,M,SCT,BKN,M,M,12000.00,24000.00,M,M,M,M,M,M,M,M,M,83.98,KLAS 011156Z 27003KT 10SM SCT120 BKN240 28/17 A3005 RMK AO2 SLP149 70002 T02830172 10311 20283 53005,M
TPH,2021-08-01 11:56,-117.0904,38.0505,1654.00,62.00,55.00,77.53,320.00,7.00,0.00,30.30,1019.40,10.00,M,FEW,M,M,M,8000.00,M,M,M,M,M,M,M,M,M,M,62.10,KTPH 011156Z AUTO 32007KT 10SM FEW080 17/13 A3030 RMK AO2 SLP194 70067 T01670128 10194 20161 53000,M
NFL,2021-08-01 11:56,-118.7010,39.4166,1199.00,66.00,59.00,78.14,150.00,9.00,0.00,30.22,1019.70,9.00,M,CLR,M,M,M,M,M,M,M,M,M,M,M,M,M,M,66.00,KNFL 011156Z AUTO 15009KT 9SM CLR 19/15 A3022 RMK AO2 SLP197 60005 70005 T01890150 10194 20183 53002,M
HND,2021-08-01 11:56,-115.1344,35.9729,742.79,76.00,67.00,73.68,160.00,7.00,0.00,30.09,1017.90,10.00,M,SCT,M,M,M,11000.00,M,M,M,M,M,M,M,M,M,M,75.90,KHND 011156Z AUTO 16007KT 10SM SCT110 24/19 A3009 RMK AO2 SLP179 70033 T02440194 10272 20239 53006,M
INS,2021-08-01 11:58,-115.6733,36.5872,955.00,75.40,61.30,61.58,0.00,0.00,0.00,30.11,1015.00,10.00,M,BKN,BKN,M,M,10000.00,14000.00,M,M,VCTS,M,M,M,M,M,M,75.40,KINS 011158Z AUTO 00000KT 10SM VCTS BKN100 BKN140 24/16 A3011 RMK AO2 SLP150 70002 T02410163 10253 20226 51004 $,M
LSV,2021-08-01 11:58,-115.0343,36.2362,570.00,84.40,60.00,43.94,70.00,6.00,0.00,30.02,1014.00,10.00,M,CLR,M,M,M,M,M,M,M,M,M,M,M,M,M,M,84.39,KLSV 011158Z AUTO 07006KT 10SM CLR 29/16 A3002 RMK AO2 SLP140 T02910156 10314 20290 53005 $,M
EKO,2021-08-01 12:05,-115.7860,40.8242,1367.00,61.00,59.00,93.12,210.00,6.00,0.07,30.29,M,1.75,M,BKN,OVC,M,M,3300.00,4900.00,M,M,+RA BR,M,M,M,M,M,M,61.00,KEKO 011205Z AUTO 21006KT 1 3/4SM +RA BR BKN033 OVC049 16/15 A3029 RMK AO2 P0007 T01610150,M
CXP,2021-08-01 12:10,-119.7326,39.1923,1431.00,62.60,53.60,72.38,30.00,5.00,0.00,30.27,M,10.00,M,BKN,M,M,M,10000.00,M,M,M,M,M,M,M,M,M,M,62.60,KCXP 011210Z AUTO 03005KT 10SM BKN100 17/12 A3027 RMK AO2,M
BAM,2021-08-01 12:15,-116.8743,40.5990,1382.36,68.00,55.40,64.04,240.00,10.00,0.00,30.25,M,10.00,M,OVC,M,M,M,8500.00,M,M,M,M,M,M,M,M,M,M,68.00,KBAM 011215Z AUTO 24010KT 10SM OVC085 20/13 A3025 RMK AO1,M
RTS,2021-08-01 12:15,-119.8764,39.6682,1539.00,60.80,53.60,77.14,120.00,4.00,0.00,30.28,M,10.00,M,CLR,M,M,M,M,M,M,M,M,M,M,M,M,M,M,60.80,KRTS 011215Z AUTO 12004KT 10SM CLR 16/12 A3028 RMK AO2,M
05U,2021-08-01 12:15,-116.0051,39.6042,1811.23,60.80,59.00,93.79,0.00,0.00,0.00,30.36,M,10.00,M,BKN,BKN,OVC,M,3400.00,4200.00,8000.00,M,M,M,M,M,M,M,M,60.80,K05U 011215Z AUTO 00000KT 10SM BKN034 BKN042 OVC080 16/15 A3036 RMK A01,M
MEV,2021-08-01 12:15,-119.7500,38.9963,1441.42,53.60,48.20,81.87,170.00,3.00,0.00,30.27,M,10.00,M,BKN,BKN,OVC,M,4900.00,8000.00,10000.00,M,M,M,M,M,M,M,M,53.60,KMEV 011215Z AUTO 17003KT 10SM BKN049 BKN080 OVC100 12/09 A3027 RMK AO2,M
HTH,2021-08-01 12:15,-118.6315,38.5448,1282.89,66.20,53.60,63.82,0.00,0.00,0.00,30.27,M,10.00,M,CLR,M,M,M,M,M,M,M,M,M,M,M,M,M,M,66.20,KHTH 011215Z AUTO 00000KT 10SM CLR 19/12 A3027 RMK A01,M
EKO,2021-08-01 12:25,-115.7860,40.8242,1367.00,60.00,59.00,96.15,230.00,4.00,0.31,30.29,M,2.50,M,SCT,BKN,OVC,M,4100.00,4900.00,6500.00,M,RA BR,M,M,M,M,M,M,60.10,KEKO 011225Z AUTO 23004KT 2 1/2SM RA BR SCT041 BKN049 OVC065 16/15 A3029 RMK AO2 P0031 T01560150,M
CXP,2021-08-01 12:30,-119.7326,39.1923,1431.00,62.60,53.60,72.38,0.00,0.00,0.00,30.28,M,10.00,M,SCT,M,M,M,10000.00,M,M,M,M,M,M,M,M,M,M,62.60,KCXP 011230Z AUTO 00000KT 10SM SCT100 17/12 A3028 RMK AO2,M
EKO,2021-08-01 12:34,-115.7860,40.8242,1367.00,60.00,59.00,96.15,0.00,0.00,0.34,30.30,M,3.00,M,BKN,OVC,M,M,5500.00,7000.00,M,M,RA BR,M,M,M,M,M,M,60.10,KEKO 011234Z AUTO 00000KT 3SM RA BR BKN055 OVC070 16/15 A3030 RMK AO2 P0034 T01560150,M
05U,2021-08-01 12:35,-116.0051,39.6042,1811.23,60.80,59.00,93.79,0.00,0.00,0.00,30.37,M,10.00,M,OVC,M,M,M,3900.00,M,M,M,M,M,M,M,M,M,M,60.80,K05U 011235Z AUTO 00000KT 10SM OVC039 16/15 A3037 RMK A01,M
MEV,2021-08-01 12:35,-119.7500,38.9963,1441.42,55.40,50.00,81.99,0.00,0.00,0.00,30.27,M,10.00,M,FEW,SCT,OVC,M,4800.00,5500.00,8500.00,M,M,M,M,M,M,M,M,55.40,KMEV 011235Z AUTO 00000KT 10SM FEW048 SCT055 OVC085 13/10 A3027 RMK AO2,M
BAM,2021-08-01 12:35,-116.8743,40.5990,1382.36,68.00,55.40,64.04,240.00,7.00,0.00,30.26,M,7.00,M,OVC,M,M,M,9500.00,M,M,M,M,M,M,M,M,M,M,68.00,KBAM 011235Z AUTO 24007KT 7SM OVC095 20/13 A3026 RMK AO1,M
HTH,2021-08-01 12:35,-118.6315,38.5448,1282.89,62.60,53.60,72.38,100.00,7.00,0.00,30.27,M,10.00,M,CLR,M,M,M,M,M,M,M,M,M,M,M,M,M,M,62.60,KHTH 011235Z AUTO 10007KT 10SM CLR 17/12 A3027 RMK A01,M
RTS,2021-08-01 12:35,-119.8764,39.6682,1539.00,60.80,53.60,77.14,0.00,0.00,0.00,30.29,M,10.00,M,CLR,M,M,M,M,M,M,M,M,M,M,M,M,M,M,60.80,KRTS 011235Z AUTO 00000KT 10SM CLR 16/12 A3029 RMK AO2,M
CXP,2021-08-01 12:50,-119.7326,39.1923,1431.00,62.60,53.60,72.38,0.00,0.00,0.00,30.28,M,10.00,M,SCT,M,M,M,10000.00,M,M,M,M,M,M,M,M,M,M,62.60,KCXP 011250Z AUTO 00000KT 10SM SCT100 17/12 A3028 RMK AO2,M
DRA,2021-08-01 12:53,-116.0278,36.6206,1009.00,79.00,54.00,42.03,40.00,13.00,0.00,30.14,1015.50,10.00,17.00,OVC,M,M,M,9500.00,M,M,M,M,M,M,M,M,M,M,79.00,KDRA 011253Z AUTO 04013G17KT 10SM OVC095 26/12 A3014 RMK AO2 SLP155 T02610122,M
LOL,2021-08-01 12:53,-118.5701,40.0684,1192.43,64.00,59.00,83.78,130.00,3.00,0.00,30.23,1019.60,10.00,M,FEW,SCT,OVC,M,5500.00,8500.00,11000.00,M,M,M,M,M,M,M,M,64.00,KLOL 011253Z AUTO 13003KT 10SM FEW055 SCT085 OVC110 18/15 A3023 RMK AO2 SLP196 T01780150,M
ELY,2021-08-01 12:53,-114.8453,39.2950,1909.00,54.00,53.00,96.76,200.00,3.00,0.00,30.35,1020.20,10.00,M,BKN,M,M,M,9000.00,M,M,M,M,M,M,M,M,M,M,54.00,KELY 011253Z AUTO 20003KT 10SM BKN090 12/12 A3035 RMK AO2 SLP202 T01220117,M
VGT,2021-08-01 12:53,-115.1933,36.2111,667.00,84.00,64.00,51.08,170.00,4.00,0.00,30.05,1016.60,10.00,M,FEW,M,M,M,12000.00,M,M,M,M,M,M,M,M,M,M,85.36,KVGT 011253Z AUTO 17004KT 10SM FEW120 29/18 A3005 RMK AO2 SLP166 T02890178 PNO,M
P68,2021-08-01 12:53,-116.0056,39.6014,1993.00,60.00,58.00,92.43,220.00,3.00,0.00,30.35,1020.70,M,M,M,M,M,M,M,M,M,M,M,M,M,M,M,M,M,60.10,KP68 011253Z AUTO 22003KT 16/14 A3035 RMK AO1 SLP207 T01560144,M
BAM,2021-08-01 12:55,-116.8743,40.5990,1382.36,68.00,55.40,64.04,0.00,0.00,0.00,30.26,M,10.00,M,OVC,M,M,M,9500.00,M,M,M,M,M,M,M,M,M,M,68.00,KBAM 011255Z AUTO 00000KT 10SM OVC095 20/13 A3026 RMK AO1,M
MEV,2021-08-01 12:55,-119.7500,38.9963,1441.42,53.60,48.20,81.87,110.00,4.00,0.00,30.27,M,10.00,M,FEW,FEW,BKN,M,5000.00,5500.00,10000.00,M,M,M,M,M,M,M,M,53.60,KMEV 011255Z AUTO 11004KT 10SM FEW050 FEW055 BKN100 12/09 A3027 RMK AO2,M
05U,2021-08-01 12:55,-116.0051,39.6042,1811.23,60.80,60.80,100.00,0.00,0.00,0.00,30.37,M,10.00,M,OVC,M,M,M,4000.00,M,M,M,M,M,M,M,M,M,M,60.80,K05U 011255Z AUTO 00000KT 10SM OVC040 16/16 A3037 RMK A01,M
RTS,2021-08-01 12:55,-119.8764,39.6682,1539.00,57.20,51.80,82.12,320.00,3.00,0.00,30.29,M,10.00,M,CLR,M,M,M,M,M,M,M,M,M,M,M,M,M,M,57.20,KRTS 011255Z AUTO 32003KT 10SM CLR 14/11 A3029 RMK AO2,M
RNO,2021-08-01 12:55,-119.7711,39.4839,1341.00,66.00,53.00,63.10,230.00,3.00,0.00,30.24,1018.60,10.00,M,SCT,SCT,M,M,8000.00,14000.00,M,M,M,M,M,M,M,M,M,66.00,KRNO 011255Z 23003KT 10SM SCT080 SCT140 19/12 A3024 RMK AO2 SLP186 HZ ALQDS T01890117 PNO $,M
HTH,2021-08-01 12:55,-118.6315,38.5448,1282.89,62.60,51.80,67.75,130.00,8.00,0.00,30.27,M,10.00,M,CLR,M,M,M,M,M,M,M,M,M,M,M,M,M,M,62.60,KHTH 011255Z AUTO 13008KT 10SM CLR 17/11 A3027 RMK A01,M
WMC,2021-08-01 12:56,-117.8072,40.9019,1315.00,66.00,56.00,69.88,210.00,9.00,0.00,30.23,1018.80,10.00,M,CLR,M,M,M,M,M,M,M,M,M,M,M,M,M,M,66.00,KWMC 011256Z AUTO 21009KT 10SM CLR 19/13 A3023 RMK AO2 SLP188 T01890133 $,M
TPH,2021-08-01 12:56,-117.0904,38.0505,1654.00,60.00,55.00,83.23,330.00,7.00,0.00,30.32,1020.10,10.00,M,CLR,M,M,M,M,M,M,M,M,M,M,M,M,M,M,60.10,KTPH 011256Z AUTO 33007KT 10SM CLR 16/13 A3032 RMK AO2 SLP201 T01560128,M
HND,2021-08-01 12:56,-115.1344,35.9729,742.79,75.00,66.00,73.59,160.00,5.00,0.00,30.10,1018.20,10.00,M,CLR,M,M,M,M,M,M,M,M,M,M,M,M,M,M,75.00,KHND 011256Z 16005KT 10SM CLR 24/19 A3010 RMK AO2 SLP182 T02390189,M
LAS,2021-08-01 12:56,-115.1634,36.0719,663.00,83.00,62.00,49.51,280.00,3.00,0.00,30.06,1015.30,10.00,M,FEW,SCT,BKN,M,12000.00,18000.00,25000.00,M,M,M,M,M,M,M,M,83.70,KLAS 011256Z 28003KT 10SM FEW120 SCT180 BKN250 28/17 A3006 RMK AO2 SLP153 CB DSNT SW T02830167,M
NFL,2021-08-01 12:56,-118.7010,39.4166,1199.00,65.00,58.00,78.05,170.00,8.00,0.00,30.23,1019.90,9.00,M,CLR,M,M,M,M,M,M,M,M,M,M,M,M,M,M,64.90,KNFL 011256Z AUTO 17008KT 9SM CLR 18/14 A3023 RMK AO2 SLP199 T01830144,M
EKO,2021-08-01 12:56,-115.7860,40.8242,1367.00,61.00,59.00,93.12,260.00,4.00,0.41,30.30,1022.00,3.00,M,BKN,OVC,M,M,6500.00,8000.00,M,M,RA BR,M,M,M,M,M,M,61.00,KEKO 011256Z AUTO 26004KT 3SM RA BR BKN065 OVC080 16/15 A3030 RMK AO2 SLP220 P0041 T01610150,M
LSV,2021-08-01 12:58,-115.0343,36.2362,570.00,82.80,60.40,46.77,60.00,5.00,0.00,30.04,1014.70,10.00,M,CLR,M,M,M,M,M,M,M,M,M,M,M,M,M,M,83.13,KLSV 011258Z AUTO 06005KT 10SM CLR 28/16 A3004 RMK AO2 SLP147 T02820158 $,M
INS,2021-08-01 12:58,-115.6733,36.5872,955.00,73.80,63.70,70.70,230.00,6.00,0.00,30.14,1015.90,10.00,M,BKN,M,M,M,10000.00,M,M,M,M,M,M,M,M,M,M,73.80,KINS 011258Z AUTO 23006KT 10SM BKN100 23/18 A3014 RMK AO2 LTG DSNT NW SLP159 T02320176 $,M
INS,2021-08-01 13:08,-115.6733,36.5872,955.00,75.20,62.60,64.91,230.00,4.00,0.00,30.14,1015.90,10.00,M,BKN,BKN,M,M,8500.00,11000.00,M,M,M,M,M,M,M,M,M,75.20,KINS 011308Z AUTO 23004KT 10SM BKN085 BKN110 24/17 A3014 RMK AO2 SLP159 $,M
CXP,2021-08-01 13:10,-119.7326,39.1923,1431.00,62.60,53.60,72.38,130.00,4.00,0.00,30.29,M,10.00,M,FEW,M,M,M,10000.00,M,M,M,M,M,M,M,M,M,M,62.60,KCXP 011310Z AUTO 13004KT 10SM FEW100 17/12 A3029 RMK AO2,M
HTH,2021-08-01 13:15,-118.6315,38.5448,1282.89,64.40,51.80,63.60,120.00,10.00,0.00,30.27,M,10.00,M,CLR,M,M,M,M,M,M,M,M,M,M,M,M,M,M,64.40,KHTH 011315Z AUTO 12010KT 10SM CLR 18/11 A3027 RMK A01,M
05U,2021-08-01 13:15,-116.0051,39.6042,1811.23,60.80,59.00,93.79,0.00,0.00,0.00,30.38,M,10.00,M,FEW,OVC,M,M,2000.00,4200.00,M,M,M,M,M,M,M,M,M,60.80,K05U 011315Z AUTO 00000KT 10SM FEW020 OVC042 16/15 A3038 RMK A01,M
MEV,2021-08-01 13:15,-119.7500,38.9963,1441.42,53.60,48.20,81.87,120.00,6.00,0.00,30.28,M,10.00,M,SCT,M,M,M,10000.00,M,M,M,M,M,M,M,M,M,M,53.60,KMEV 011315Z AUTO 12006KT 10SM SCT100 12/09 A3028 RMK AO2,M
BAM,2021-08-01 13:15,-116.8743,40.5990,1382.36,68.00,55.40,64.04,0.00,0.00,0.00,30.27,M,10.00,M,SCT,OVC,M,M,6000.00,9500.00,M,M,M,M,M,M,M,M,M,68.00,KBAM 011315Z AUTO 00000KT 10SM SCT060 OVC095 20/13 A3027 RMK AO1,M
RTS,2021-08-01 13:15,-119.8764,39.6682,1539.00,55.40,53.60,93.65,0.00,0.00,0.00,30.29,M,10.00,M,CLR,M,M,M,M,M,M,M,M,M,M,M,M,M,M,55.40,KRTS 011315Z AUTO 00000KT 10SM CLR 13/12 A3029 RMK AO2,M
CXP,2021-08-01 13:30,-119.7326,39.1923,1431.00,60.80,53.60,77.14,140.00,3.00,0.00,30.29,M,10.00,M,SCT,M,M,M,11000.00,M,M,M,M,M,M,M,M,M,M,60.80,KCXP 011330Z AUTO 14003KT 10SM SCT110 16/12 A3029 RMK AO2,M
BAM,2021-08-01 13:35,-116.8743,40.5990,1382.36,68.00,55.40,64.04,0.00,0.00,0.00,30.27,M,10.00,M,SCT,OVC,M,M,6000.00,9500.00,M,M,M,M,M,M,M,M,M,68.00,KBAM 011335Z AUTO 00000KT 10SM SCT060 OVC095 20/13 A3027 RMK AO1,M
HTH,2021-08-01 13:35,-118.6315,38.5448,1282.89,64.40,51.80,63.60,0.00,0.00,0.00,30.28,M,10.00,M,CLR,M,M,M,M,M,M,M,M,M,M,M,M,M,M,64.40,KHTH 011335Z AUTO 00000KT 10SM CLR 18/11 A3028 RMK A01,M
05U,2021-08-01 13:35,-116.0051,39.6042,1811.23,60.80,60.80,100.00,0.00,0.00,0.00,30.38,M,10.00,M,BKN,OVC,M,M,2000.00,4400.00,M,M,M,M,M,M,M,M,M,60.80,K05U 011335Z AUTO 00000KT 10SM BKN020 OVC044 16/16 A3038 RMK A01,M
RTS,2021-08-01 13:35,-119.8764,39.6682,1539.00,57.20,51.80,82.12,0.00,0.00,0.00,30.30,M,10.00,M,BKN,M,M,M,10000.00,M,M,M,M,M,M,M,M,M,M,57.20,KRTS 011335Z AUTO 00000KT 10SM BKN100 14/11 A3030 RMK AO2,M
MEV,2021-08-01 13:35,-119.7500,38.9963,1441.42,53.60,48.20,81.87,120.00,3.00,0.00,30.28,M,10.00,M,FEW,M,M,M,10000.00,M,M,M,M,M,M,M,M,M,M,53.60,KMEV 011335Z AUTO 12003KT 10SM FEW100 12/09 A3028 RMK AO2,M
CXP,2021-08-01 13:50,-119.7326,39.1923,1431.00,62.60,53.60,72.38,0.00,0.00,0.00,30.29,M,10.00,M,SCT,M,M,M,11000.00,M,M,M,M,M,M,M,M,M,M,62.60,KCXP 011350Z AUTO 00000KT 10SM SCT110 17/12 A3029 RMK AO2,M
INS,2021-08-01 13:53,-115.6733,36.5872,955.00,75.20,60.80,60.90,250.00,4.00,0.00,30.16,1016.60,10.00,M,SCT,BKN,M,M,8500.00,11000.00,M,M,M,M,M,M,M,M,M,75.20,KINS 011353Z AUTO 25004KT 10SM SCT085 BKN110 24/16 A3016 RMK AO2 SLP166 $,M
DRA,2021-08-01 13:53,-116.0278,36.6206,1009.00,77.00,57.00,50.07,40.00,14.00,0.00,30.15,1016.00,10.00,23.00,FEW,BKN,M,M,5500.00,10000.00,M,M,M,M,M,M,M,M,M,77.00,KDRA 011353Z AUTO 04014G23KT 10SM FEW055 BKN100 25/14 A3015 RMK AO2 SLP160 T02500139,M
LOL,2021-08-01 13:53,-118.5701,40.0684,1192.43,66.00,59.00,78.14,0.00,0.00,0.00,30.23,1019.90,9.00,M,CLR,M,M,M,M,M,M,M,M,M,M,M,M,M,M,66.00,KLOL 011353Z AUTO 00000KT 9SM CLR 19/15 A3023 RMK AO2 SLP199 T01890150,M
P68,2021-08-01 13:53,-116.0056,39.6014,1993.00,62.00,58.00,86.11,0.00,0.00,0.00,30.36,1021.00,M,M,M,M,M,M,M,M,M,M,M,M,M,M,M,M,M,62.10,KP68 011353Z AUTO 00000KT 17/14 A3036 RMK AO1 SLP210 T01670144,M
ELY,2021-08-01 13:53,-114.8453,39.2950,1909.00,56.00,55.00,96.78,170.00,6.00,0.00,30.37,1020.40,10.00,M,CLR,M,M,M,M,M,M,M,M,M,M,M,M,M,M,55.90,KELY 011353Z AUTO 17006KT 10SM CLR 13/13 A3037 RMK AO2 SLP204 T01330128,M
VGT,2021-08-01 13:53,-115.1933,36.2111,667.00,84.00,63.00,49.32,130.00,4.00,0.00,30.06,1017.00,10.00,M,CLR,M,M,M,M,M,M,M,M,M,M,M,M,M,M,84.99,KVGT 011353Z 13004KT 10SM CLR 29/17 A3006 RMK AO2 SLP170 T02890172 PNO,M
RNO,2021-08-01 13:55,-119.7711,39.4839,1341.00,65.00,50.00,58.47,280.00,4.00,0.00,30.26,1019.80,10.00,M,SCT,SCT,SCT,M,6000.00,12000.00,20000.00,M,M,M,M,M,M,M,M,64.90,KRNO 011355Z 28004KT 10SM SCT060 SCT120 SCT200 18/10 A3026 RMK AO2 SLP198 HZ ALQDS T01830100 PNO $,M
MEV,2021-08-01 13:55,-119.7500,38.9963,1441.42,55.40,50.00,81.99,0.00,0.00,0.00,30.29,M,10.00,M,CLR,M,M,M,M,M,M,M,M,M,M,M,M,M,M,55.40,KMEV 011355Z AUTO 00000KT 10SM CLR 13/10 A3029 RMK AO2,M
BAM,2021-08-01 13:55,-116.8743,40.5990,1382.36,68.00,55.40,64.04,240.00,4.00,0.00,30.28,M,10.00,M,OVC,M,M,M,9500.00,M,M,M,M,M,M,M,M,M,M,68.00,KBAM 011355Z AUTO 24004KT 10SM OVC095 20/13 A3028 RMK AO1,M
HTH,2021-08-01 13:55,-118.6315,38.5448,1282.89,66.20,51.80,59.74,0.00,0.00,0.00,30.28,M,10.00,M,CLR,M,M,M,M,M,M,M,M,M,M,M,M,M,M,66.20,KHTH 011355Z AUTO 00000KT 10SM CLR 19/11 A3028 RMK A01,M
RTS,2021-08-01 13:55,-119.8764,39.6682,1539.00,57.20,51.80,82.12,350.00,3.00,0.00,30.30,M,10.00,M,BKN,M,M,M,10000.00,M,M,M,M,M,M,M,M,M,M,57.20,KRTS 011355Z AUTO 35003KT 10SM BKN100 14/11 A3030 RMK AO2,M
05U,2021-08-01 13:55,-116.0051,39.6042,1811.23,62.60,59.00,88.00,0.00,0.00,0.00,30.38,M,10.00,M,SCT,BKN,OVC,M,1900.00,4700.00,5500.00,M,M,M,M,M,M,M,M,62.60,K05U 011355Z AUTO 00000KT 10SM SCT019 BKN047 OVC055 17/15 A3038 RMK A01,M
BVU,2021-08-01 13:55,-114.8611,35.9475,671.00,82.40,62.60,51.21,0.00,0.00,0.00,30.07,M,10.00,M,OVC,M,M,M,10000.00,M,M,M,M,M,M,M,M,M,M,83.41,KBVU 011355Z AUTO 00000KT 10SM OVC100 28/17 A3007 RMK AO2,M
TPH,2021-08-01 13:56,-117.0904,38.0505,1654.00,62.00,56.00,80.11,290.00,7.00,0.00,30.32,1020.30,10.00,M,CLR,M,M,M,M,M,M,M,M,M,M,M,M,M,M,62.10,KTPH 011356Z AUTO 29007KT 10SM CLR 17/13 A3032 RMK AO2 SLP203 T01670133,M
LAS,2021-08-01 13:56,-115.1634,36.0719,663.00,83.00,65.00,54.62,0.00,0.00,0.00,30.08,1015.70,10.00,M,FEW,SCT,SCT,M,12000.00,18000.00,25000.00,M,M,M,M,M,M,M,M,84.64,KLAS 011356Z AUTO 00000KT 10SM FEW120 SCT180 SCT250 28/18 A3008 RMK AO2 SLP157 TCU DSNT NW T02830183,M
HND,2021-08-01 13:56,-115.1344,35.9729,742.79,77.00,67.00,71.03,160.00,4.00,0.00,30.11,1018.60,10.00,M,CLR,M,M,M,M,M,M,M,M,M,M,M,M,M,M,77.00,KHND 011356Z 16004KT 10SM CLR 25/19 A3011 RMK AO2 SLP186 T02500194,M
EKO,2021-08-01 13:56,-115.7860,40.8242,1367.00,61.00,59.00,93.12,0.00,0.00,0.06,30.31,1022.20,10.00,M,BKN,BKN,OVC,M,5000.00,7000.00,11000.00,M,M,M,M,M,M,M,M,61.00,KEKO 011356Z AUTO 00000KT 10SM BKN050 BKN070 OVC110 16/15 A3031 RMK AO2 RAE38 SLP222 P0006 T01610150,M
WMC,2021-08-01 13:56,-117.8072,40.9019,1315.00,67.00,56.00,67.74,200.00,10.00,0.00,30.24,1019.20,10.00,M,CLR,M,M,M,M,M,M,M,M,M,M,M,M,M,M,66.90,KWMC 011356Z AUTO 20010KT 10SM CLR 19/13 A3024 RMK AO2 SLP192 T01940133 $,M
NFL,2021-08-01 13:56,-118.7010,39.4166,1199.00,66.00,57.00,72.72,160.00,8.00,0.00,30.24,1020.10,9.00,M,CLR,M,M,M,M,M,M,M,M,M,M,M,M,M,M,66.00,KNFL 011356Z AUTO 16008KT 9SM CLR 19/14 A3024 RMK AO2 SLP201 T01890139,M
LSV,2021-08-01 13:58,-115.0343,36.2362,570.00,84.20,62.20,47.64,0.00,0.00,0.00,30.05,1015.00,10.00,M,CLR,M,M,M,M,M,M,M,M,M,M,M,M,M,M,84.89,KLSV 011358Z AUTO 00000KT 10SM CLR 29/17 A3005 RMK AO2 SLP150 T02900168 $,M
INS,2021-08-01 13:58,-115.6733,36.5872,955.00,76.00,60.30,58.06,250.00,3.00,0.00,30.16,1016.60,10.00,M,SCT,BKN,M,M,8500.00,11000.00,M,M,M,M,M,M,M,M,M,76.10,KINS 011358Z AUTO 25003KT 10SM SCT085 BKN110 25/16 A3016 RMK AO2 SLP166 T02450157 $,M
CXP,2021-08-01 14:10,-119.7326,39.1923,1431.00,62.60,53.60,72.38,0.00,0.00,0.00,30.30,M,9.00,M,CLR,M,M,M,M,M,M,M,M,M,M,M,M,M,M,62.60,KCXP 011410Z AUTO 00000KT 9SM CLR 17/12 A3030 RMK AO2 LTG DSNT SE,M
BAM,2021-08-01 14:15,-116.8743,40.5990,1382.36,68.00,55.40,64.04,0.00,0.00,0.00,30.28,M,10.00,M,OVC,M,M,M,9500.00,M,M,M,M,M,M,M,M,M,M,68.00,KBAM 011415Z AUTO 00000KT 10SM OVC095 20/13 A3028 RMK AO1,M
BVU,2021-08-01 14:15,-114.8611,35.9475,671.00,84.20,62.60,48.32,0.00,0.00,0.00,30.08,M,10.00,M,BKN,M,M,M,10000.00,M,M,M,M,M,M,M,M,M,M,85.03,KBVU 011415Z AUTO 00000KT 10SM BKN100 29/17 A3008 RMK AO2,M
HTH,2021-08-01 14:15,-118.6315,38.5448,1282.89,68.00,51.80,56.13,0.00,0.00,0.00,30.28,M,10.00,M,CLR,M,M,M,M,M,M,M,M,M,M,M,M,M,M,68.00,KHTH 011415Z AUTO 00000KT 10SM CLR 20/11 A3028 RMK A01,M
MEV,2021-08-01 14:15,-119.7500,38.9963,1441.42,59.00,50.00,72.01,0.00,0.00,0.00,30.29,M,10.00,M,FEW,M,M,M,10000.00,M,M,M,M,M,M,M,M,M,M,59.00,KMEV 011415Z AUTO 00000KT 10SM FEW100 15/10 A3029 RMK AO2,M
05U,2021-08-01 14:15,-116.0051,39.6042,1811.23,62.60,59.00,88.00,0.00,0.00,0.00,30.38,M,10.00,M,OVC,M,M,M,5000.00,M,M,M,M,M,M,M,M,M,M,62.60,K05U 011415Z AUTO 00000KT 10SM OVC050 17/15 A3038 RMK A01,M
RTS,2021-08-01 14:15,-119.8764,39.6682,1539.00,57.20,51.80,82.12,0.00,0.00,0.00,30.31,M,10.00,M,BKN,M,M,M,10000.00,M,M,M,M,M,M,M,M,M,M,57.20,KRTS 011415Z AUTO 00000KT 10SM BKN100 14/11 A3031 RMK AO2,M
CXP,2021-08-01 14:30,-119.7326,39.1923,1431.00,66.20,53.60,63.82,0.00,0.00,0.00,30.30,M,10.00,M,CLR,M,M,M,M,M,M,M,M,M,M,M,M,M,M,66.20,KCXP 011430Z AUTO 00000KT 10SM CLR 19/12 A3030 RMK AO2,M
HTH,2021-08-01 14:35,-118.6315,38.5448,1282.89,68.00,53.60,59.97,0.00,0.00,0.00,30.28,M,10.00,M,CLR,M,M,M,M,M,M,M,M,M,M,M,M,M,M,68.00,KHTH 011435Z AUTO 00000KT 10SM CLR 20/12 A3028 RMK A01,M
RTS,2021-08-01 14:35,-119.8764,39.6682,1539.00,57.20,51.80,82.12,0.00,0.00,0.00,30.31,M,10.00,M,BKN,M,M,M,10000.00,M,M,M,M,M,M,M,M,M,M,57.20,KRTS 011435Z AUTO 00000KT 10SM BKN100 14/11 A3031 RMK AO2,M
BVU,2021-08-01 14:35,-114.8611,35.9475,671.00,82.40,62.60,51.21,0.00,0.00,0.00,30.09,M,10.00,M,SCT,M,M,M,11000.00,M,M,M,M,M,M,M,M,M,M,83.41,KBVU 011435Z AUTO 00000KT 10SM SCT110 28/17 A3009 RMK AO2,M
05U,2021-08-01 14:35,-116.0051,39.6042,1811.23,62.60,59.00,88.00,0.00,0.00,0.00,30.38,M,10.00,M,BKN,BKN,M,M,5500.00,8000.00,M,M,M,M,M,M,M,M,M,62.60,K05U 011435Z AUTO 00000KT 10SM BKN055 BKN080 17/15 A3038 RMK A01,M
MEV,2021-08-01 14:35,-119.7500,38.9963,1441.42,60.80,50.00,67.54,0.00,0.00,0.00,30.29,M,10.00,M,FEW,M,M,M,10000.00,M,M,M,M,M,M,M,M,M,M,60.80,KMEV 011435Z AUTO 00000KT 10SM FEW100 16/10 A3029 RMK AO2,M
BAM,2021-08-01 14:35,-116.8743,40.5990,1382.36,68.00,55.40,64.04,0.00,0.00,0.00,30.28,M,10.00,M,OVC,M,M,M,9500.00,M,M,M,M,M,M,M,M,M,M,68.00,KBAM 011435Z AUTO 00000KT 10SM OVC095 20/13 A3028 RMK AO1,M
CXP,2021-08-01 14:50,-119.7326,39.1923,1431.00,66.20,53.60,63.82,120.00,3.00,0.00,30.30,M,10.00,M,CLR,M,M,M,M,M,M,M,M,M,M,M,M,M,M,66.20,KCXP 011450Z AUTO 12003KT 10SM CLR 19/12 A3030 RMK AO2,M
P68,2021-08-01 14:53,-116.0056,39.6014,1993.00,64.00,56.00,74.93,0.00,0.00,0.00,30.36,1020.90,M,M,M,M,M,M,M,M,M,M,M,M,M,M,M,M,M,64.00,KP68 011453Z AUTO 00000KT 18/13 A3036 RMK AO1 SLP209 T01780133 51007,M
ELY,2021-08-01 14:53,-114.8453,39.2950,1909.00,62.00,58.00,86.11,170.00,9.00,0.00,30.37,1020.10,10.00,M,FEW,M,M,M,10000.00,M,M,M,M,M,M,M,M,M,M,62.10,KELY 011453Z AUTO 17009KT 10SM FEW100 17/14 A3037 RMK AO2 SLP201 T01670144 51009,M
DRA,2021-08-01 14:53,-116.0278,36.6206,1009.00,78.00,58.00,49.87,20.00,11.00,0.00,30.17,1016.60,10.00,M,FEW,M,M,M,11000.00,M,M,M,M,M,M,M,M,M,M,78.10,KDRA 011453Z AUTO 02011KT 10SM FEW110 26/14 A3017 RMK AO2 SLP166 T02560144 53014,M
VGT,2021-08-01 14:53,-115.1933,36.2111,667.00,87.00,63.00,44.66,10.00,4.00,0.00,30.08,1017.40,10.00,M,CLR,M,M,M,M,M,M,M,M,M,M,M,M,M,M,87.96,KVGT 011453Z 01004KT 10SM CLR 31/17 A3008 RMK AO2 SLP174 6//// T03060172 53014 PNO,M
LOL,2021-08-01 14:53,-118.5701,40.0684,1192.43,68.00,59.00,72.92,200.00,3.00,0.00,30.25,1020.20,10.00,M,CLR,M,M,M,M,M,M,M,M,M,M,M,M,M,M,68.00,KLOL 011453Z AUTO 20003KT 10SM CLR 20/15 A3025 RMK AO2 SLP202 T02000150 53009,M
05U,2021-08-01 14:55,-116.0051,39.6042,1811.23,64.40,57.20,77.45,0.00,0.00,0.00,30.39,M,10.00,M,FEW,FEW,OVC,M,5500.00,7000.00,8000.00,M,M,M,M,M,M,M,M,64.40,K05U 011455Z AUTO 00000KT 10SM FEW055 FEW070 OVC080 18/14 A3039 RMK A01,M
BVU,2021-08-01 14:55,-114.8611,35.9475,671.00,84.20,60.80,45.34,0.00,0.00,0.00,30.09,M,10.00,M,FEW,M,M,M,11000.00,M,M,M,M,M,M,M,M,M,M,84.43,KBVU 011455Z AUTO 00000KT 10SM FEW110 29/16 A3009 RMK AO2,M
RNO,2021-08-01 14:55,-119.7711,39.4839,1341.00,65.00,49.00,56.12,250.00,4.00,0.00,30.27,1020.30,10.00,M,FEW,SCT,BKN,BKN,9000.00,11000.00,14000.00,20000.00,M,M,M,M,M,M,M,64.90,KRNO 011455Z 25004KT 10SM FEW090 SCT110 BKN140 BKN200 18/09 A3027 RMK AO2 SLP203 ACC FU AND HZ VC ALQDS T01830094 53012 PNO $,M
HTH,2021-08-01 14:55,-118.6315,38.5448,1282.89,69.80,53.60,56.38,0.00,0.00,0.00,30.27,M,10.00,M,CLR,M,M,M,M,M,M,M,M,M,M,M,M,M,M,69.80,KHTH 011455Z AUTO 00000KT 10SM CLR 21/12 A3027 RMK A01,M
BAM,2021-08-01 14:55,-116.8743,40.5990,1382.36,68.00,55.40,64.04,40.00,4.00,0.00,30.28,M,10.00,M,OVC,M,M,M,9500.00,M,M,M,M,M,M,M,M,M,M,68.00,KBAM 011455Z AUTO 04004KT 10SM OVC095 20/13 A3028 RMK AO1,M
MEV,2021-08-01 14:55,-119.7500,38.9963,1441.42,62.60,51.80,67.75,0.00,0.00,0.00,30.30,M,10.00,M,FEW,M,M,M,10000.00,M,M,M,M,M,M,M,M,M,M,62.60,KMEV 011455Z AUTO 00000KT 10SM FEW100 17/11 A3030 RMK AO2,M
RTS,2021-08-01 14:55,-119.8764,39.6682,1539.00,59.00,53.60,82.25,350.00,3.00,0.00,30.31,M,10.00,M,BKN,M,M,M,10000.00,M,M,M,M,M,M,M,M,M,M,59.00,KRTS 011455Z AUTO 35003KT 10SM BKN100 15/12 A3031 RMK AO2,M
HND,2021-08-01 14:56,-115.1344,35.9729,742.79,83.00,66.00,56.75,170.00,4.00,0.00,30.13,1018.80,10.00,M,CLR,M,M,M,M,M,M,M,M,M,M,M,M,M,M,85.07,KHND 011456Z 17004KT 10SM CLR 28/19 A3013 RMK AO2 SLP188 T02830189 53011,M
TPH,2021-08-01 14:56,-117.0904,38.0505,1654.00,66.00,56.00,69.88,0.00,0.00,0.00,30.34,1021.10,10.00,M,CLR,M,M,M,M,M,M,M,M,M,M,M,M,M,M,66.00,KTPH 011456Z AUTO 00000KT 10SM CLR 19/13 A3034 RMK AO2 SLP211 T01890133 53012,M
NFL,2021-08-01 14:56,-118.7010,39.4166,1199.00,67.00,56.00,67.74,160.00,8.00,0.00,30.24,1020.30,9.00,M,CLR,M,M,M,M,M,M,M,M,M,M,M,M,M,M,66.90,KNFL 011456Z AUTO 16008KT 9SM CLR 19/13 A3024 RMK AO2 SLP203 T01940133 53006,M
LAS,2021-08-01 14:56,-115.1634,36.0719,663.00,85.00,62.00,46.42,0.00,0.00,0.00,30.09,1016.20,10.00,M,FEW,M,M,M,8500.00,M,M,M,M,M,M,M,M,M,M,85.49,KLAS 011456Z AUTO 00000KT 10SM FEW085 29/17 A3009 RMK AO2 SLP162 T02940167 53013,M
EKO,2021-08-01 14:56,-115.7860,40.8242,1367.00,62.00,60.00,93.16,240.00,5.00,0.00,30.31,1022.30,10.00,M,BKN,OVC,M,M,7000.00,8500.00,M,M,M,M,M,M,M,M,M,62.10,KEKO 011456Z AUTO 24005KT 10SM BKN070 OVC085 17/16 A3031 RMK AO2 SLP223 60047 T01670156 51007,M
WMC,2021-08-01 14:56,-117.8072,40.9019,1315.00,69.00,56.00,62.80,200.00,8.00,0.00,30.25,1019.50,10.00,M,FEW,M,M,M,12000.00,M,M,M,M,M,M,M,M,M,M,69.10,KWMC 011456Z AUTO 20008KT 10SM FEW120 21/13 A3025 RMK AO2 SLP195 T02060133 51009 $,M
LSV,2021-08-01 14:58,-115.0343,36.2362,570.00,87.00,62.20,43.70,60.00,3.00,0.00,30.07,1015.70,10.00,M,CLR,M,M,M,M,M,M,M,M,M,M,M,M,M,M,87.43,KLSV 011458Z AUTO 06003KT 10SM CLR 31/17 A3007 RMK AO2 SLP157 T03050168 52014 $,M
INS,2021-08-01 14:58,-115.6733,36.5872,955.00,79.20,60.40,52.59,360.00,7.00,0.00,30.18,1017.30,10.00,M,FEW,M,M,M,8500.00,M,M,M,M,M,M,M,M,M,M,79.20,KINS 011458Z AUTO 36007KT 10SM FEW085 26/16 A3018 RMK AO2 SLP173 T02620158 52019 $,M
CXP,2021-08-01 15:10,-119.7326,39.1923,1431.00,68.00,51.80,56.13,170.00,3.00,0.00,30.31,M,10.00,M,CLR,M,M,M,M,M,M,M,M,M,M,M,M,M,M,68.00,KCXP 011510Z AUTO 17003KT 10SM CLR 20/11 A3031 RMK AO2,M
HTH,2021-08-01 15:15,-118.6315,38.5448,1282.89,71.60,51.80,49.64,0.00,0.00,0.00,30.28,M,10.00,M,CLR,M,M,M,M,M,M,M,M,M,M,M,M,M,M,71.60,KHTH 011515Z AUTO 00000KT 10SM CLR 22/11 A3028 RMK A01,M
MEV,2021-08-01 15:15,-119.7500,38.9963,1441.42,66.20,51.80,59.74,160.00,4.00,0.00,30.30,M,10.00,M,CLR,M,M,M,M,M,M,M,M,M,M,M,M,M,M,66.20,KMEV 011515Z AUTO 16004KT 10SM CLR 19/11 A3030 RMK AO2,M
BVU,2021-08-01 15:15,-114.8611,35.9475,671.00,86.00,60.80,42.80,0.00,0.00,0.00,30.09,M,10.00,M,SCT,M,M,M,10000.00,M,M,M,M,M,M,M,M,M,M,86.05,KBVU 011515Z AUTO 00000KT 10SM SCT100 30/16 A3009 RMK AO2,M
05U,2021-08-01 15:15,-116.0051,39.6042,1811.23,68.00,57.20,68.35,0.00,0.00,0.00,30.38,M,10.00,M,OVC,M,M,M,8500.00,M,M,M,M,M,M,M,M,M,M,68.00,K05U 011515Z AUTO 00000KT 10SM OVC085 20/14 A3038 RMK A01,M
RTS,2021-08-01 15:15,-119.8764,39.6682,1539.00,60.80,53.60,77.14,330.00,3.00,0.00,30.32,M,10.00,M,FEW,M,M,M,10000.00,M,M,M,M,M,M,M,M,M,M,60.80,KRTS 011515Z AUTO 33003KT 10SM FEW100 16/12 A3032 RMK AO2,M
BAM,2021-08-01 15:15,-116.8743,40.5990,1382.36,68.00,59.00,72.92,40.00,6.00,0.00,30.29,M,10.00,M,OVC,M,M,M,9500.00,M,M,M,M,M,M,M,M,M,M,68.00,KBAM 011515Z AUTO 04006KT 10SM OVC095 20/15 A3029 RMK AO1,M
CXP,2021-08-01 15:30,-119.7326,39.1923,1431.00,68.00,53.60,59.97,0.00,0.00,0.00,30.31,M,10.00,M,CLR,M,M,M,M,M,M,M,M,M,M,M,M,M,M,68.00,KCXP 011530Z AUTO 00000KT 10SM CLR 20/12 A3031 RMK AO2,M
HTH,2021-08-01 15:35,-118.6315,38.5448,1282.89,71.60,51.80,49.64,0.00,0.00,0.00,30.28,M,10.00,M,CLR,M,M,M,M,M,M,M,M,M,M,M,M,M,M,71.60,KHTH 011535Z AUTO 00000KT 10SM CLR 22/11 A3028 RMK A01,M
BVU,2021-08-01 15:35,-114.8611,35.9475,671.00,87.80,60.80,40.41,0.00,0.00,0.00,30.10,M,10.00,M,FEW,M,M,M,10000.00,M,M,M,M,M,M,M,M,M,M,87.75,KBVU 011535Z AUTO 00000KT 10SM FEW100 31/16 A3010 RMK AO2,M
MEV,2021-08-01 15:35,-119.7500,38.9963,1441.42,68.00,51.80,56.13,0.00,0.00,0.00,30.30,M,10.00,M,CLR,M,M,M,M,M,M,M,M,M,M,M,M,M,M,68.00,KMEV 011535Z AUTO 00000KT 10SM CLR 20/11 A3030 RMK AO2,M
05U,2021-08-01 15:35,-116.0051,39.6042,1811.23,68.00,57.20,68.35,0.00,0.00,0.00,30.38,M,10.00,M,OVC,M,M,M,9000.00,M,M,M,M,M,M,M,M,M,M,68.00,K05U 011535Z AUTO 00000KT 10SM OVC090 20/14 A3038 RMK A01,M
BAM,2021-08-01 15:35,-116.8743,40.5990,1382.36,68.00,60.80,77.75,40.00,5.00,0.00,30.30,M,10.00,M,BKN,M,M,M,11000.00,M,M,M,M,M,M,M,M,M,M,68.00,KBAM 011535Z AUTO 04005KT 10SM BKN110 20/16 A3030 RMK AO1,M
RTS,2021-08-01 15:35,-119.8764,39.6682,1539.00,64.40,53.60,67.95,0.00,0.00,0.00,30.32,M,10.00,M,CLR,M,M,M,M,M,M,M,M,M,M,M,M,M,M,64.40,KRTS 011535Z AUTO 00000KT 10SM CLR 18/12 A3032 RMK AO2,M
CXP,2021-08-01 15:50,-119.7326,39.1923,1431.00,71.60,53.60,53.03,0.00,0.00,0.00,30.31,M,10.00,M,CLR,M,M,M,M,M,M,M,M,M,M,M,M,M,M,71.60,KCXP 011550Z AUTO 00000KT 10SM CLR 22/12 A3031 RMK AO2,M
LOL,2021-08-01 15:53,-118.5701,40.0684,1192.43,69.00,60.00,73.03,0.00,0.00,0.00,30.26,1020.90,10.00,M,CLR,M,M,M,M,M,M,M,M,M,M,M,M,M,M,69.10,KLOL 011553Z AUTO 00000KT 10SM CLR 21/16 A3026 RMK AO2 SLP209 T02060156,M
VGT,2021-08-01 15:53,-115.1933,36.2111,667.00,90.00,61.00,37.97,330.00,6.00,0.00,30.09,1017.80,10.00,M,CLR,M,M,M,M,M,M,M,M,M,M,M,M,M,M,90.03,KVGT 011553Z 33006KT 10SM CLR 32/16 A3009 RMK AO2 SLP178 T03220161 PNO,M
P68,2021-08-01 15:53,-116.0056,39.6014,1993.00,67.00,56.00,67.74,0.00,0.00,0.00,30.36,1020.50,M,M,M,M,M,M,M,M,M,M,M,M,M,M,M,M,M,66.90,KP68 011553Z AUTO 00000KT 19/13 A3036 RMK AO1 SLP205 T01940133,M
DRA,2021-08-01 15:53,-116.0278,36.6206,1009.00,81.00,58.00,45.34,30.00,13.00,0.00,30.18,1017.00,10.00,M,SCT,M,M,M,12000.00,M,M,M,M,M,M,M,M,M,M,81.20,KDRA 011553Z AUTO 03013KT 10SM SCT120 27/14 A3018 RMK AO2 SLP170 T02720144,M
ELY,2021-08-01 15:53,-114.8453,39.2950,1909.00,63.00,59.00,86.77,180.00,6.00,T,30.37,1020.30,10.00,M,FEW,FEW,M,M,5500.00,12000.00,M,M,M,M,M,M,M,M,M,63.00,KELY 011553Z AUTO 18006KT 10SM FEW055 FEW120 17/15 A3037 RMK AO2 RAB37E41 SLP203 P0000 T01720150,M
RNO,2021-08-01 15:55,-119.7711,39.4839,1341.00,71.00,48.00,43.83,0.00,0.00,0.00,30.27,1020.20,10.00,M,FEW,SCT,SCT,M,11000.00,14000.00,20000.00,M,M,M,M,M,M,M,M,71.10,KRNO 011555Z 00000KT 10SM FEW110 SCT140 SCT200 22/09 A3027 RMK AO2 SLP202 FU AND HZ VC ALQDS T02170089 PNO $,M
RTS,2021-08-01 15:55,-119.8764,39.6682,1539.00,66.20,51.80,59.74,0.00,0.00,0.00,30.32,M,10.00,M,CLR,M,M,M,M,M,M,M,M,M,M,M,M,M,M,66.20,KRTS 011555Z AUTO 00000KT 10SM CLR 19/11 A3032 RMK AO2,M
05U,2021-08-01 15:55,-116.0051,39.6042,1811.23,68.00,55.40,64.04,0.00,0.00,0.00,30.38,M,10.00,M,OVC,M,M,M,9000.00,M,M,M,M,M,M,M,M,M,M,68.00,K05U 011555Z AUTO 00000KT 10SM OVC090 20/13 A3038 RMK A01,M
MEV,2021-08-01 15:55,-119.7500,38.9963,1441.42,69.80,51.80,52.77,0.00,0.00,0.00,30.30,M,10.00,M,CLR,M,M,M,M,M,M,M,M,M,M,M,M,M,M,69.80,KMEV 011555Z AUTO 00000KT 10SM CLR 21/11 A3030 RMK AO2,M
BAM,2021-08-01 15:55,-116.8743,40.5990,1382.36,69.80,59.00,68.55,50.00,5.00,0.00,30.30,M,10.00,M,SCT,M,M,M,11000.00,M,M,M,M,M,M,M,M,M,M,69.80,KBAM 011555Z AUTO 05005KT 10SM SCT110 21/15 A3030 RMK AO1,M
HTH,2021-08-01 15:55,-118.6315,38.5448,1282.89,75.20,51.80,43.97,100.00,6.00,0.00,30.28,M,10.00,M,CLR,M,M,M,M,M,M,M,M,M,M,M,M,M,M,75.20,KHTH 011555Z AUTO 10006KT 10SM CLR 24/11 A3028 RMK A01,M
TMT,2021-08-01 15:55,-117.1971,39.4643,1749.34,59.00,55.80,89.11,0.00,0.00,0.00,30.38,M,10.00,M,M,M,M,M,M,M,M,M,M,M,M,M,M,M,M,59.00,KTMT 011555Z AUTO 00000KT 10SM 15/13 A3038 RMK AO2 T01500132 PWINO,M
BVU,2021-08-01 15:55,-114.8611,35.9475,671.00,87.80,60.80,40.41,70.00,4.00,0.00,30.10,M,10.00,M,SCT,M,M,M,10000.00,M,M,M,M,M,M,M,M,M,M,87.75,KBVU 011555Z AUTO 07004KT 10SM SCT100 31/16 A3010 RMK AO2,M
NFL,2021-08-01 15:56,-118.7010,39.4166,1199.00,73.00,58.00,59.12,150.00,7.00,0.00,30.25,1020.40,9.00,M,CLR,M,M,M,M,M,M,M,M,M,M,M,M,M,M,73.00,KNFL 011556Z AUTO 15007KT 9SM CLR 23/14 A3025 RMK AO2 SLP204 T02280144,M
TPH,2021-08-01 15:56,-117.0904,38.0505,1654.00,68.00,56.00,65.22,360.00,4.00,0.00,30.34,1021.00,10.00,M,CLR,M,M,M,M,M,M,M,M,M,M,M,M,M,M,68.00,KTPH 011556Z AUTO 36004KT 10SM CLR 20/13 A3034 RMK AO2 SLP210 T02000133,M
LAS,2021-08-01 15:56,-115.1634,36.0719,663.00,89.00,61.00,39.06,M,4.00,0.00,30.11,1016.70,10.00,M,FEW,FEW,SCT,M,12000.00,18000.00,25000.00,M,M,M,M,M,M,M,M,89.11,KLAS 011556Z VRB04KT 10SM FEW120 FEW180 SCT250 32/16 A3011 RMK AO2 SLP167 TCU DSNT N AND NW T03170161,M
HND,2021-08-01 15:56,-115.1344,35.9729,742.79,87.00,63.00,44.66,360.00,3.00,0.00,30.14,1019.30,10.00,M,CLR,M,M,M,M,M,M,M,M,M,M,M,M,M,M,87.96,KHND 011556Z 36003KT 10SM CLR 31/17 A3014 RMK AO2 SLP193 T03060172,M
EKO,2021-08-01 15:56,-115.7860,40.8242,1367.00,65.00,61.00,87.18,230.00,3.00,0.00,30.32,1022.30,10.00,M,SCT,OVC,M,M,6500.00,11000.00,M,M,M,M,M,M,M,M,M,64.90,KEKO 011556Z AUTO 23003KT 10SM SCT065 OVC110 18/16 A3032 RMK AO2 SLP223 T01830161,M
WMC,2021-08-01 15:56,-117.8072,40.9019,1315.00,70.00,56.00,60.89,190.00,6.00,0.00,30.26,1020.20,10.00,M,CLR,M,M,M,M,M,M,M,M,M,M,M,M,M,M,70.00,KWMC 011556Z AUTO 19006KT 10SM CLR 21/13 A3026 RMK AO2 SLP202 T02110133 $,M
INS,2021-08-01 15:58,-115.6733,36.5872,955.00,80.00,60.30,50.88,30.00,10.00,0.00,30.18,1017.30,10.00,M,CLR,M,M,M,M,M,M,M,M,M,M,M,M,M,M,80.98,KINS 011558Z AUTO 03010KT 10SM CLR 27/16 A3018 RMK AO2 SLP173 T02670157 $,M
LSV,2021-08-01 15:58,-115.0343,36.2362,570.00,89.00,62.20,40.75,270.00,6.00,0.00,30.08,1016.00,10.00,M,CLR,M,M,M,M,M,M,M,M,M,M,M,M,M,M,89.62,KLSV 011558Z AUTO 27006KT 10SM CLR 32/17 A3008 RMK AO2 SLP160 T03170168 $,M
CXP,2021-08-01 16:10,-119.7326,39.1923,1431.00,73.40,53.60,49.90,0.00,0.00,0.00,30.30,M,10.00,M,CLR,M,M,M,M,M,M,M,M,M,M,M,M,M,M,73.40,KCXP 011610Z AUTO 00000KT 10SM CLR 23/12 A3030 RMK AO2,M
05U,2021-08-01 16:15,-116.0051,39.6042,1811.23,69.80,57.20,64.26,0.00,0.00,0.00,30.38,M,10.00,M,SCT,M,M,M,9000.00,M,M,M,M,M,M,M,M,M,M,69.80,K05U 011615Z AUTO 00000KT 10SM SCT090 21/14 A3038 RMK A01,M
RTS,2021-08-01 16:15,-119.8764,39.6682,1539.00,68.00,51.80,56.13,140.00,3.00,0.00,30.32,M,10.00,M,CLR,M,M,M,M,M,M,M,M,M,M,M,M,M,M,68.00,KRTS 011615Z AUTO 14003KT 10SM CLR 20/11 A3032 RMK AO2,M
TMT,2021-08-01 16:15,-117.1971,39.4643,1749.34,59.50,57.40,92.75,90.00,3.00,0.00,30.38,M,10.00,M,OVC,M,M,M,9500.00,M,M,M,M,M,M,M,M,M,M,59.50,KTMT 011615Z AUTO 09003KT 10SM OVC095 15/14 A3038 RMK AO2 LTG DSNT SE T01530141,M
BVU,2021-08-01 16:15,-114.8611,35.9475,671.00,89.60,59.00,35.81,60.00,8.00,0.00,30.10,M,10.00,M,BKN,M,M,M,9500.00,M,M,M,M,M,M,M,M,M,M,88.86,KBVU 011615Z AUTO 06008KT 10SM BKN095 32/15 A3010 RMK AO2,M
BAM,2021-08-01 16:15,-116.8743,40.5990,1382.36,69.80,59.00,68.55,10.00,5.00,0.00,30.30,M,10.00,M,OVC,M,M,M,10000.00,M,M,M,M,M,M,M,M,M,M,69.80,KBAM 011615Z AUTO 01005KT 10SM OVC100 21/15 A3030 RMK AO1,M
MEV,2021-08-01 16:15,-119.7500,38.9963,1441.42,71.60,51.80,49.64,0.00,0.00,0.00,30.30,M,10.00,M,CLR,M,M,M,M,M,M,M,M,M,M,M,M,M,M,71.60,KMEV 011615Z AUTO 00000KT 10SM CLR 22/11 A3030 RMK AO2,M
HTH,2021-08-01 16:15,-118.6315,38.5448,1282.89,75.20,53.60,46.98,80.00,7.00,0.00,30.27,M,10.00,M,CLR,M,M,M,M,M,M,M,M,M,M,M,M,M,M,75.20,KHTH 011615Z AUTO 08007KT 10SM CLR 24/12 A3027 RMK A01,M
CXP,2021-08-01 16:30,-119.7326,39.1923,1431.00,75.20,51.80,43.97,110.00,3.00,0.00,30.30,M,10.00,M,CLR,M,M,M,M,M,M,M,M,M,M,M,M,M,M,75.20,KCXP 011630Z AUTO 11003KT 10SM CLR 24/11 A3030 RMK AO2,M
HTH,2021-08-01 16:35,-118.6315,38.5448,1282.89,77.00,51.80,41.42,0.00,0.00,0.00,30.27,M,10.00,M,CLR,M,M,M,M,M,M,M,M,M,M,M,M,M,M,77.00,KHTH 011635Z AUTO 00000KT 10SM CLR 25/11 A3027 RMK A01,M
RTS,2021-08-01 16:35,-119.8764,39.6682,1539.00,68.00,51.80,56.13,0.00,0.00,0.00,30.32,M,10.00,M,CLR,M,M,M,M,M,M,M,M,M,M,M,M,M,M,68.00,KRTS 011635Z AUTO 00000KT 10SM CLR 20/11 A3032 RMK AO2,M
05U,2021-08-01 16:35,-116.0051,39.6042,1811.23,71.60,57.20,60.44,0.00,0.00,0.00,30.38,M,10.00,M,CLR,M,M,M,M,M,M,M,M,M,M,M,M,M,M,71.60,K05U 011635Z AUTO 00000KT 10SM CLR 22/14 A3038 RMK A01,M
MEV,2021-08-01 16:35,-119.7500,38.9963,1441.42,73.40,51.80,46.71,0.00,0.00,0.00,30.29,M,9.00,M,CLR,M,M,M,M,M,M,M,M,M,M,M,M,M,M,73.40,KMEV 011635Z AUTO 00000KT 9SM CLR 23/11 A3029 RMK AO2,M
TMT,2021-08-01 16:35,-117.1971,39.4643,1749.34,60.00,56.80,89.48,140.00,4.00,0.00,30.38,M,10.00,M,OVC,M,M,M,9500.00,M,M,M,M,M,M,M,M,M,M,59.90,KTMT 011635Z AUTO 14004KT 10SM OVC095 16/14 A3038 RMK AO2 T01550138,M
BVU,2021-08-01 16:35,-114.8611,35.9475,671.00,89.60,59.00,35.81,60.00,8.00,0.00,30.10,M,10.00,M,FEW,FEW,M,M,10000.00,12000.00,M,M,M,M,M,M,M,M,M,88.86,KBVU 011635Z AUTO 06008KT 10SM FEW100 FEW120 32/15 A3010 RMK AO2,M
BAM,2021-08-01 16:35,-116.8743,40.5990,1382.36,71.60,59.00,64.48,360.00,3.00,0.00,30.30,M,10.00,M,OVC,M,M,M,11000.00,M,M,M,M,M,M,M,M,M,M,71.60,KBAM 011635Z AUTO 36003KT 10SM OVC110 22/15 A3030 RMK AO1,M
CXP,2021-08-01 16:50,-119.7326,39.1923,1431.00,75.20,51.80,43.97,280.00,4.00,0.00,30.29,M,10.00,M,CLR,M,M,M,M,M,M,M,M,M,M,M,M,M,M,75.20,KCXP 011650Z AUTO 28004KT 10SM CLR 24/11 A3029 RMK AO2,M
ELY,2021-08-01 16:53,-114.8453,39.2950,1909.00,67.00,57.00,70.49,200.00,3.00,0.00,30.37,1020.00,10.00,M,CLR,M,M,M,M,M,M,M,M,M,M,M,M,M,M,66.90,KELY 011653Z AUTO 20003KT 10SM CLR 19/14 A3037 RMK AO2 SLP200 T01940139,M
LOL,2021-08-01 16:53,-118.5701,40.0684,1192.43,71.00,59.00,65.58,0.00,0.00,0.00,30.26,1021.00,10.00,M,CLR,M,M,M,M,M,M,M,M,M,M,M,M,M,M,71.10,KLOL 011653Z AUTO 00000KT 10SM CLR 22/15 A3026 RMK AO2 SLP210 T02170150,M
VGT,2021-08-01 16:53,-115.1933,36.2111,667.00,92.00,61.00,35.77,30.00,4.00,0.00,30.09,1017.70,10.00,M,BKN,M,M,M,12000.00,M,M,M,M,M,M,M,M,M,M,92.01,KVGT 011653Z 03004KT 10SM BKN120 33/16 A3009 RMK AO2 SLP177 T03330161 PNO,M
P68,2021-08-01 16:53,-116.0056,39.6014,1993.00,70.00,56.00,60.89,30.00,4.00,0.00,30.36,1020.40,M,M,M,M,M,M,M,M,M,M,M,M,M,M,M,M,M,70.00,KP68 011653Z AUTO 03004KT 21/13 A3036 RMK AO1 SLP204 T02110133,M
DRA,2021-08-01 16:53,-116.0278,36.6206,1009.00,87.00,57.00,36.07,50.00,8.00,0.00,30.18,1016.80,10.00,M,CLR,M,M,M,M,M,M,M,M,M,M,M,M,M,M,85.89,KDRA 011653Z AUTO 05008KT 10SM CLR 31/14 A3018 RMK AO2 SLP168 T03060139,M
BAM,2021-08-01 16:55,-116.8743,40.5990,1382.36,71.60,59.00,64.48,0.00,0.00,0.00,30.30,M,10.00,M,OVC,M,M,M,11000.00,M,M,M,M,M,M,M,M,M,M,71.60,KBAM 011655Z AUTO 00000KT 10SM OVC110 22/15 A3030 RMK AO1,M
RTS,2021-08-01 16:55,-119.8764,39.6682,1539.00,71.60,51.80,49.64,0.00,0.00,0.00,30.32,M,10.00,M,CLR,M,M,M,M,M,M,M,M,M,M,M,M,M,M,71.60,KRTS 011655Z AUTO 00000KT 10SM CLR 22/11 A3032 RMK AO2,M
HTH,2021-08-01 16:55,-118.6315,38.5448,1282.89,77.00,50.00,38.74,60.00,5.00,0.00,30.27,M,10.00,M,CLR,M,M,M,M,M,M,M,M,M,M,M,M,M,M,77.00,KHTH 011655Z AUTO 06005KT 10SM CLR 25/10 A3027 RMK A01,M
BVU,2021-08-01 16:55,-114.8611,35.9475,671.00,89.60,59.00,35.81,50.00,9.00,0.00,30.10,M,10.00,M,CLR,M,M,M,M,M,M,M,M,M,M,M,M,M,M,88.86,KBVU 011655Z AUTO 05009KT 10SM CLR 32/15 A3010 RMK AO2,M
RNO,2021-08-01 16:55,-119.7711,39.4839,1341.00,75.00,52.00,44.59,0.00,0.00,0.00,30.26,1019.30,10.00,M,FEW,FEW,SCT,SCT,9000.00,11000.00,14000.00,20000.00,M,M,M,M,M,M,M,75.00,KRNO 011655Z 00000KT 10SM FEW090 FEW110 SCT140 SCT200 24/11 A3026 RMK AO2 SLP193 FU AND HZ VC ALQDS T02390111 PNO $,M
05U,2021-08-01 16:55,-116.0051,39.6042,1811.23,71.60,55.40,56.63,0.00,0.00,0.00,30.38,M,10.00,M,SCT,M,M,M,5500.00,M,M,M,M,M,M,M,M,M,M,71.60,K05U 011655Z AUTO 00000KT 10SM SCT055 22/13 A3038 RMK A01,M
MEV,2021-08-01 16:55,-119.7500,38.9963,1441.42,73.40,51.80,46.71,0.00,0.00,0.00,30.28,M,10.00,M,CLR,M,M,M,M,M,M,M,M,M,M,M,M,M,M,73.40,KMEV 011655Z AUTO 00000KT 10SM CLR 23/11 A3028 RMK AO2,M
TMT,2021-08-01 16:55,-117.1971,39.4643,1749.34,60.80,56.80,86.66,140.00,3.00,0.00,30.38,M,10.00,M,OVC,M,M,M,9500.00,M,M,M,M,M,M,M,M,M,M,60.80,KTMT 011655Z AUTO 14003KT 10SM OVC095 16/14 A3038 RMK AO2 T01600138,M
NFL,2021-08-01 16:56,-118.7010,39.4166,1199.00,76.00,57.00,51.93,110.00,5.00,0.00,30.25,1020.30,9.00,M,CLR,M,M,M,M,M,M,M,M,M,M,M,M,M,M,75.90,KNFL 011656Z AUTO 11005KT 9SM CLR 24/14 A3025 RMK AO2 SLP203 T02440139,M
TPH,2021-08-01 16:56,-117.0904,38.0505,1654.00,72.00,55.00,55.06,M,4.00,0.00,30.35,1020.90,10.00,M,CLR,M,M,M,M,M,M,M,M,M,M,M,M,M,M,72.00,KTPH 011656Z AUTO VRB04KT 10SM CLR 22/13 A3035 RMK AO2 SLP209 T02220128,M
HND,2021-08-01 16:56,-115.1344,35.9729,742.79,88.00,63.00,43.40,M,4.00,0.00,30.14,1019.40,9.00,M,CLR,M,M,M,M,M,M,M,M,M,M,M,M,M,M,88.86,KHND 011656Z VRB04KT 9SM CLR 31/17 A3014 RMK AO2 SLP194 T03110172,M
WMC,2021-08-01 16:56,-117.8072,40.9019,1315.00,72.00,55.00,55.06,190.00,8.00,0.00,30.26,1020.30,10.00,M,CLR,M,M,M,M,M,M,M,M,M,M,M,M,M,M,72.00,KWMC 011656Z AUTO 19008KT 10SM CLR 22/13 A3026 RMK AO2 SLP203 T02220128 $,M
EKO,2021-08-01 16:56,-115.7860,40.8242,1367.00,70.00,59.00,68.09,250.00,5.00,0.00,30.32,1021.70,10.00,M,CLR,M,M,M,M,M,M,M,M,M,M,M,M,M,M,70.00,KEKO 011656Z AUTO 25005KT 10SM CLR 21/15 A3032 RMK AO2 SLP217 T02110150,M
LAS,2021-08-01 16:56,-115.1634,36.0719,663.00,90.00,61.00,37.97,M,3.00,0.00,30.10,1016.40,10.00,M,FEW,FEW,SCT,M,12000.00,18000.00,25000.00,M,M,M,M,M,M,M,M,90.03,KLAS 011656Z VRB03KT 10SM FEW120 FEW180 SCT250 32/16 A3010 RMK AO2 SLP164 CB DSNT NW AND N TCU DSNT W T03220161,M
LSV,2021-08-01 16:58,-115.0343,36.2362,570.00,90.70,60.80,36.88,0.00,0.00,0.00,30.08,1015.90,10.00,M,CLR,M,M,M,M,M,M,M,M,M,M,M,M,M,M,90.66,KLSV 011658Z AUTO 00000KT 10SM CLR 33/16 A3008 RMK AO2 SLP159 T03260160 $,M
INS,2021-08-01 16:58,-115.6733,36.5872,955.00,83.70,57.40,40.80,30.00,6.00,0.00,30.17,1016.80,10.00,M,CLR,M,M,M,M,M,M,M,M,M,M,M,M,M,M,83.12,KINS 011658Z AUTO 03006KT 10SM CLR 29/14 A3017 RMK AO2 SLP168 T02870141 $,M
CXP,2021-08-01 17:10,-119.7326,39.1923,1431.00,75.20,50.00,41.14,280.00,3.00,0.00,30.29,M,10.00,M,CLR,M,M,M,M,M,M,M,M,M,M,M,M,M,M,75.20,KCXP 011710Z AUTO 28003KT 10SM CLR 24/10 A3029 RMK AO2,M
TMT,2021-08-01 17:15,-117.1971,39.4643,1749.34,62.00,56.00,81.26,0.00,0.00,0.00,30.39,M,10.00,M,OVC,M,M,M,11000.00,M,M,M,M,M,M,M,M,M,M,61.90,KTMT 011715Z AUTO 00000KT 10SM OVC110 17/13 A3039 RMK AO2 T01660134,M
BAM,2021-08-01 17:15,-116.8743,40.5990,1382.36,73.40,59.00,60.67,0.00,0.00,0.00,30.30,M,10.00,M,BKN,M,M,M,12000.00,M,M,M,M,M,M,M,M,M,M,73.40,KBAM 011715Z AUTO 00000KT 10SM BKN120 23/15 A3030 RMK AO1,M
05U,2021-08-01 17:15,-116.0051,39.6042,1811.23,73.40,55.40,53.29,0.00,0.00,0.00,30.39,M,10.00,M,BKN,M,M,M,6000.00,M,M,M,M,M,M,M,M,M,M,73.40,K05U 011715Z AUTO 00000KT 10SM BKN060 23/13 A3039 RMK A01,M
RTS,2021-08-01 17:15,-119.8764,39.6682,1539.00,73.40,51.80,46.71,0.00,0.00,0.00,30.31,M,10.00,M,CLR,M,M,M,M,M,M,M,M,M,M,M,M,M,M,73.40,KRTS 011715Z AUTO 00000KT 10SM CLR 23/11 A3031 RMK AO2,M
HTH,2021-08-01 17:15,-118.6315,38.5448,1282.89,78.80,50.00,36.51,80.00,5.00,0.00,30.26,M,10.00,M,CLR,M,M,M,M,M,M,M,M,M,M,M,M,M,M,78.80,KHTH 011715Z AUTO 08005KT 10SM CLR 26/10 A3026 RMK A01,M
MEV,2021-08-01 17:15,-119.7500,38.9963,1441.42,75.20,50.00,41.14,0.00,0.00,0.00,30.28,M,10.00,M,CLR,M,M,M,M,M,M,M,M,M,M,M,M,M,M,75.20,KMEV 011715Z AUTO 00000KT 10SM CLR 24/10 A3028 RMK AO2,M
BVU,2021-08-01 17:15,-114.8611,35.9475,671.00,91.40,59.00,33.84,70.00,9.00,0.00,30.10,M,10.00,M,CLR,M,M,M,M,M,M,M,M,M,M,M,M,M,M,90.68,KBVU 011715Z AUTO 07009KT 10SM CLR 33/15 A3010 RMK AO2,M
CXP,2021-08-01 17:30,-119.7326,39.1923,1431.00,77.00,50.00,38.74,0.00,0.00,0.00,30.29,M,10.00,M,CLR,M,M,M,M,M,M,M,M,M,M,M,M,M,M,77.00,KCXP 011730Z AUTO 00000KT 10SM CLR 25/10 A3029 RMK AO2,M
TMT,2021-08-01 17:35,-117.1971,39.4643,1749.34,63.00,55.60,76.77,0.00,0.00,0.00,30.40,M,10.00,M,OVC,M,M,M,12000.00,M,M,M,M,M,M,M,M,M,M,63.00,KTMT 011735Z AUTO 00000KT 10SM OVC120 17/13 A3040 RMK AO2 T01720131,M
BVU,2021-08-01 17:35,-114.8611,35.9475,671.00,91.40,59.00,33.84,40.00,9.00,0.00,30.10,M,10.00,M,CLR,M,M,M,M,M,M,M,M,M,M,M,M,M,M,90.68,KBVU 011735Z AUTO 04009KT 10SM CLR 33/15 A3010 RMK AO2,M
RTS,2021-08-01 17:35,-119.8764,39.6682,1539.00,75.20,50.00,41.14,0.00,0.00,0.00,30.31,M,10.00,M,CLR,M,M,M,M,M,M,M,M,M,M,M,M,M,M,75.20,KRTS 011735Z AUTO 00000KT 10SM CLR 24/10 A3031 RMK AO2,M
BAM,2021-08-01 17:35,-116.8743,40.5990,1382.36,73.40,55.40,53.29,0.00,0.00,0.00,30.30,M,10.00,M,SCT,M,M,M,11000.00,M,M,M,M,M,M,M,M,M,M,73.40,KBAM 011735Z AUTO 00000KT 10SM SCT110 23/13 A3030 RMK AO1,M
MEV,2021-08-01 17:35,-119.7500,38.9963,1441.42,77.00,50.00,38.74,160.00,4.00,0.00,30.28,M,10.00,M,CLR,M,M,M,M,M,M,M,M,M,M,M,M,M,M,77.00,KMEV 011735Z AUTO 16004KT 10SM CLR 25/10 A3028 RMK AO2,M
05U,2021-08-01 17:35,-116.0051,39.6042,1811.23,73.40,55.40,53.29,90.00,4.00,0.00,30.39,M,10.00,M,BKN,M,M,M,6000.00,M,M,M,M,M,M,M,M,M,M,73.40,K05U 011735Z AUTO 09004KT 10SM BKN060 23/13 A3039 RMK A01,M
HTH,2021-08-01 17:35,-118.6315,38.5448,1282.89,80.60,48.20,32.18,60.00,7.00,0.00,30.26,M,10.00,M,CLR,M,M,M,M,M,M,M,M,M,M,M,M,M,M,79.71,KHTH 011735Z AUTO 06007KT 10SM CLR 27/09 A3026 RMK A01,M
CXP,2021-08-01 17:50,-119.7326,39.1923,1431.00,80.60,50.00,34.41,M,3.00,0.00,30.28,M,10.00,M,CLR,M,M,M,M,M,M,M,M,M,M,M,M,M,M,79.88,KCXP 011750Z AUTO VRB03KT 10SM CLR 27/10 A3028 RMK AO2,M
ELY,2021-08-01 17:53,-114.8453,39.2950,1909.00,72.00,57.00,59.20,180.00,5.00,0.00,30.37,1019.30,10.00,M,CLR,M,M,M,M,M,M,M,M,M,M,M,M,M,M,72.00,KELY 011753Z AUTO 18005KT 10SM CLR 22/14 A3037 RMK AO2 SLP193 60000 T02220139 10222 20122 55000,M
VGT,2021-08-01 17:53,-115.1933,36.2111,667.00,93.00,61.00,34.57,0.00,0.00,0.00,30.09,1017.60,10.00,M,CLR,M,M,M,M,M,M,M,M,M,M,M,M,M,M,93.20,KVGT 011753Z 00000KT 10SM CLR 34/16 A3009 RMK AO2 SLP176 6//// T03390161 10344 20278 50002 PNO,M
LOL,2021-08-01 17:53,-118.5701,40.0684,1192.43,74.00,60.00,62.05,M,3.00,0.00,30.26,1021.00,10.00,M,CLR,M,M,M,M,M,M,M,M,M,M,M,M,M,M,73.90,KLOL 011753Z AUTO VRB03KT 10SM CLR 23/16 A3026 RMK AO2 SLP210 T02330156 10233 20178 50002,M
DRA,2021-08-01 17:53,-116.0278,36.6206,1009.00,88.00,58.00,36.21,20.00,8.00,0.00,30.18,1016.90,10.00,M,CLR,M,M,M,M,M,M,M,M,M,M,M,M,M,M,86.96,KDRA 011753Z AUTO 02008KT 340V040 10SM CLR 31/14 A3018 RMK AO2 SLP169 T03110144 10317 20250 51004,M
P68,2021-08-01 17:53,-116.0056,39.6014,1993.00,72.00,56.00,56.89,100.00,4.00,0.00,30.36,1020.20,M,M,M,M,M,M,M,M,M,M,M,M,M,M,M,M,M,72.00,KP68 011753Z AUTO 10004KT 22/13 A3036 RMK AO1 SLP202 T02220133 10222 20156 55000,M
RNO,2021-08-01 17:55,-119.7711,39.4839,1341.00,80.00,51.00,36.44,60.00,3.00,0.00,30.25,1018.60,10.00,M,FEW,FEW,SCT,SCT,9000.00,11000.00,15000.00,20000.00,M,M,M,M,M,M,M,79.72,KRNO 011755Z 06003KT 10SM FEW090 FEW110 SCT150 SCT200 27/11 A3025 RMK AO2 SLP186 FU AND HZ VC ALQDS T02670106 10267 20178 58006 PNO $,M
05U,2021-08-01 17:55,-116.0051,39.6042,1811.23,73.40,55.40,53.29,M,3.00,0.00,30.39,M,10.00,M,FEW,M,M,M,6000.00,M,M,M,M,M,M,M,M,M,M,73.40,K05U 011755Z AUTO VRB03KT 10SM FEW060 23/13 A3039 RMK A01,M
BAM,2021-08-01 17:55,-116.8743,40.5990,1382.36,77.00,55.40,47.25,200.00,4.00,0.00,30.30,M,10.00,M,CLR,M,M,M,M,M,M,M,M,M,M,M,M,M,M,77.00,KBAM 011755Z AUTO 20004KT 10SM CLR 25/13 A3030 RMK AO1,M
BVU,2021-08-01 17:55,-114.8611,35.9475,671.00,91.40,57.20,31.72,70.00,8.00,0.00,30.10,M,10.00,M,CLR,M,M,M,M,M,M,M,M,M,M,M,M,M,M,90.06,KBVU 011755Z AUTO 07008KT 10SM CLR 33/14 A3010 RMK AO2,M
MEV,2021-08-01 17:55,-119.7500,38.9963,1441.42,78.80,51.80,39.02,M,4.00,0.00,30.27,M,10.00,M,CLR,M,M,M,M,M,M,M,M,M,M,M,M,M,M,78.80,KMEV 011755Z AUTO VRB04KT 10SM CLR 26/11 A3027 RMK AO2,M
TMT,2021-08-01 17:55,-117.1971,39.4643,1749.34,64.40,56.30,74.97,0.00,0.00,0.00,30.39,M,10.00,M,BKN,M,M,M,12000.00,M,M,M,M,M,M,M,M,M,M,64.40,KTMT 011755Z AUTO 00000KT 10SM BKN120 18/14 A3039 RMK AO2 6//// T01800135,M
HTH,2021-08-01 17:55,-118.6315,38.5448,1282.89,80.60,48.20,32.18,M,6.00,0.00,30.26,M,10.00,M,CLR,M,M,M,M,M,M,M,M,M,M,M,M,M,M,79.71,KHTH 011755Z AUTO VRB06KT 10SM CLR 27/09 A3026 RMK A01,M
RTS,2021-08-01 17:55,-119.8764,39.6682,1539.00,77.00,48.20,36.22,M,4.00,0.00,30.30,M,10.00,M,CLR,M,M,M,M,M,M,M,M,M,M,M,M,M,M,77.00,KRTS 011755Z AUTO VRB04KT 10SM CLR 25/09 A3030 RMK AO2,M
LAS,2021-08-01 17:56,-115.1634,36.0719,663.00,91.00,61.00,36.80,0.00,0.00,0.00,30.10,1016.40,10.00,M,FEW,FEW,SCT,M,12000.00,18000.00,25000.00,M,M,M,M,M,M,M,M,91.06,KLAS 011756Z 00000KT 10SM FEW120 FEW180 SCT250 33/16 A3010 RMK AO2 SLP164 CB DSNT S NW AND N T03280161 10333 20278 50003,M
EKO,2021-08-01 17:56,-115.7860,40.8242,1367.00,72.00,57.00,59.20,250.00,5.00,0.00,30.31,1021.50,10.00,M,BKN,M,M,M,8000.00,M,M,M,M,M,M,M,M,M,M,72.00,KEKO 011756Z AUTO 25005KT 10SM BKN080 22/14 A3031 RMK AO2 SLP215 60047 T02220139 10228 20156 58001,M
WMC,2021-08-01 17:56,-117.8072,40.9019,1315.00,75.00,55.00,49.78,180.00,7.00,0.00,30.27,1020.40,10.00,M,CLR,M,M,M,M,M,M,M,M,M,M,M,M,M,M,75.00,KWMC 011756Z AUTO 18007KT 10SM CLR 24/13 A3027 RMK AO2 SLP204 T02390128 10239 20189 51007 $,M
TPH,2021-08-01 17:56,-117.0904,38.0505,1654.00,76.00,54.00,46.57,M,4.00,0.00,30.35,1020.60,10.00,M,CLR,M,M,M,M,M,M,M,M,M,M,M,M,M,M,75.90,KTPH 011756Z AUTO VRB04KT 10SM CLR 24/12 A3035 RMK AO2 SLP206 T02440122 10244 20156 53001,M
NFL,2021-08-01 17:56,-118.7010,39.4166,1199.00,M,M,M,M,M,0.00,30.25,1020.60,M,M,M,M,M,M,M,M,M,M,M,M,M,M,M,M,M,M,KNFL 011756Z AUTO A3025 RMK AO2 SLP206 10261 20183 53003 PWINO $,M
HND,2021-08-01 17:56,-115.1344,35.9729,742.79,88.00,63.00,43.40,50.00,4.00,0.00,30.14,1019.40,10.00,M,CLR,M,M,M,M,M,M,M,M,M,M,M,M,M,M,88.86,KHND 011756Z 05004KT 10SM CLR 31/17 A3014 RMK AO2 LTG DSNT S SLP194 T03110172 10317 20239 51005,M
LSV,2021-08-01 17:58,-115.0343,36.2362,570.00,93.20,60.60,33.87,140.00,3.00,0.00,30.08,1015.90,10.00,M,FEW,M,M,M,20000.00,M,M,M,M,M,M,M,M,M,M,93.23,KLSV 011758Z AUTO 14003KT 10SM FEW200 34/16 A3008 RMK AO2 SLP159 T03400159 10340 20280 50003 $,M
INS,2021-08-01 17:58,-115.6733,36.5872,955.00,83.00,57.60,41.90,200.00,3.00,0.00,30.18,1017.30,10.00,M,FEW,M,M,M,20000.00,M,M,M,M,M,M,M,M,M,M,82.69,KINS 011758Z AUTO 20003KT 10SM FEW200 28/14 A3018 RMK AO2 SLP173 T02840142 10287 20229 50001 $,M
CXP,2021-08-01 18:10,-119.7326,39.1923,1431.00,82.40,48.20,30.35,50.00,4.00,0.00,30.28,M,10.00,M,CLR,M,M,M,M,M,M,M,M,M,M,M,M,M,M,80.80,KCXP 011810Z AUTO 05004KT 10SM CLR 28/09 A3028 RMK AO2,M
RTS,2021-08-01 18:15,-119.8764,39.6682,1539.00,78.80,39.20,24.19,0.00,0.00,0.00,30.30,M,10.00,M,CLR,M,M,M,M,M,M,M,M,M,M,M,M,M,M,78.80,KRTS 011815Z AUTO 00000KT 10SM CLR 26/04 A3030 RMK AO2,M
HTH,2021-08-01 18:15,-118.6315,38.5448,1282.89,82.40,46.40,28.36,0.00,0.00,0.00,30.25,M,10.00,10.00,CLR,M,M,M,M,M,M,M,M,M,M,M,M,M,M,80.64,KHTH 011815Z AUTO 00000G10KT 10SM CLR 28/08 A3025 RMK A01,M
MEV,2021-08-01 18:15,-119.7500,38.9963,1441.42,80.60,50.00,34.41,0.00,0.00,0.00,30.27,M,10.00,M,CLR,M,M,M,M,M,M,M,M,M,M,M,M,M,M,79.88,KMEV 011815Z AUTO 00000KT 10SM CLR 27/10 A3027 RMK AO2,M
BVU,2021-08-01 18:15,-114.8611,35.9475,671.00,93.20,57.20,29.99,70.00,7.00,0.00,30.09,M,10.00,M,CLR,M,M,M,M,M,M,M,M,M,M,M,M,M,M,91.91,KBVU 011815Z AUTO 07007KT 10SM CLR 34/14 A3009 RMK AO2,M
TMT,2021-08-01 18:15,-117.1971,39.4643,1749.34,65.50,56.00,71.11,0.00,0.00,0.00,30.40,M,10.00,M,SCT,M,M,M,12000.00,M,M,M,M,M,M,M,M,M,M,65.50,KTMT 011815Z AUTO 00000KT 10SM SCT120 19/13 A3040 RMK AO2 LTG DSNT SE T01860133,M
BAM,2021-08-01 18:15,-116.8743,40.5990,1382.36,78.80,53.60,41.69,180.00,7.00,0.00,30.30,M,10.00,M,CLR,M,M,M,M,M,M,M,M,M,M,M,M,M,M,78.80,KBAM 011815Z AUTO 18007KT 10SM CLR 26/12 A3030 RMK AO1,M
05U,2021-08-01 18:15,-116.0051,39.6042,1811.23,73.40,55.40,53.29,0.00,0.00,0.00,30.39,M,10.00,M,FEW,M,M,M,10000.00,M,M,M,M,M,M,M,M,M,M,73.40,K05U 011815Z AUTO 00000KT 10SM FEW100 23/13 A3039 RMK A01,M
CXP,2021-08-01 18:30,-119.7326,39.1923,1431.00,84.20,44.60,24.99,0.00,0.00,0.00,30.27,M,10.00,M,CLR,M,M,M,M,M,M,M,M,M,M,M,M,M,M,81.73,KCXP 011830Z AUTO 00000KT 10SM CLR 29/07 A3027 RMK AO2,M
05U,2021-08-01 18:30,-116.0051,39.6042,1811.23,73.40,55.40,53.29,0.00,0.00,0.00,30.39,M,10.00,M,BKN,M,M,M,10000.00,M,M,M,M,M,M,M,M,M,M,73.40,K05U 011830Z AUTO 00000KT 10SM BKN100 23/13 A3039 RMK A01,M
NFL,2021-08-01 18:30,-118.7010,39.4166,1199.00,81.00,54.00,39.37,M,6.00,0.00,30.24,M,10.00,M,FEW,M,M,M,9000.00,M,M,M,M,M,M,M,M,M,M,80.59,KNFL 011830Z VRB06KT 10SM FEW090 27/12 A3024 RMK AO2 T02720122 $,M
TMT,2021-08-01 18:35,-117.1971,39.4643,1749.34,67.00,56.00,67.74,0.00,0.00,0.00,30.39,M,10.00,M,CLR,M,M,M,M,M,M,M,M,M,M,M,M,M,M,66.90,KTMT 011835Z AUTO 00000KT 10SM CLR 19/13 A3039 RMK AO2 T01940133,M
BAM,2021-08-01 18:35,-116.8743,40.5990,1382.36,78.80,51.80,39.02,0.00,0.00,0.00,30.29,M,10.00,M,SCT,M,M,M,12000.00,M,M,M,M,M,M,M,M,M,M,78.80,KBAM 011835Z AUTO 00000KT 10SM SCT120 26/11 A3029 RMK AO1,M
BVU,2021-08-01 18:35,-114.8611,35.9475,671.00,93.20,57.20,29.99,0.00,0.00,0.00,30.09,M,10.00,M,CLR,M,M,M,M,M,M,M,M,M,M,M,M,M,M,91.91,KBVU 011835Z AUTO 00000KT 10SM CLR 34/14 A3009 RMK AO2,M
MEV,2021-08-01 18:35,-119.7500,38.9963,1441.42,80.60,48.20,32.18,0.00,0.00,0.00,30.26,M,10.00,M,FEW,M,M,M,11000.00,M,M,M,M,M,M,M,M,M,M,79.71,KMEV 011835Z AUTO 00000KT 10SM FEW110 27/09 A3026 RMK AO2,M
RTS,2021-08-01 18:35,-119.8764,39.6682,1539.00,80.60,35.60,19.79,130.00,5.00,0.00,30.30,M,10.00,M,CLR,M,M,M,M,M,M,M,M,M,M,M,M,M,M,78.94,KRTS 011835Z AUTO 13005KT 10SM CLR 27/02 A3030 RMK AO2,M
HTH,2021-08-01 18:35,-118.6315,38.5448,1282.89,84.20,46.40,26.76,M,6.00,0.00,30.25,M,10.00,11.00,CLR,M,M,M,M,M,M,M,M,M,M,M,M,M,M,81.87,KHTH 011835Z AUTO VRB06G11KT 10SM CLR 29/08 A3025 RMK A01,M
CXP,2021-08-01 18:50,-119.7326,39.1923,1431.00,86.00,41.00,20.54,0.00,0.00,0.00,30.27,M,10.00,M,CLR,M,M,M,M,M,M,M,M,M,M,M,M,M,M,82.86,KCXP 011850Z AUTO 00000KT 10SM CLR 30/05 A3027 RMK AO2,M
LOL,2021-08-01 18:53,-118.5701,40.0684,1192.43,79.00,58.00,48.41,M,4.00,0.00,30.24,1020.40,10.00,M,CLR,M,M,M,M,M,M,M,M,M,M,M,M,M,M,79.00,KLOL 011853Z AUTO VRB04KT 10SM CLR 26/14 A3024 RMK AO2 SLP204 T02610144,M
P68,2021-08-01 18:53,-116.0056,39.6014,1993.00,70.00,56.00,60.89,170.00,9.00,0.00,30.36,1020.70,M,M,M,M,M,M,M,M,M,M,M,M,M,M,M,M,M,70.00,KP68 011853Z AUTO 17009KT 21/13 A3036 RMK AO1 SLP207 T02110133,M
ELY,2021-08-01 18:53,-114.8453,39.2950,1909.00,73.00,55.00,53.23,220.00,6.00,T,30.35,1018.40,10.00,M,BKN,M,M,M,4900.00,M,M,M,VCTS,M,M,M,M,M,M,73.00,KELY 011853Z AUTO 22006KT 10SM VCTS BKN049 23/13 A3035 RMK AO2 LTG DSNT ALQDS RAB40E52 SLP184 P0000 T02280128,M
DRA,2021-08-01 18:53,-116.0278,36.6206,1009.00,91.00,56.00,30.65,0.00,0.00,0.00,30.17,1016.30,10.00,M,CLR,M,M,M,M,M,M,M,M,M,M,M,M,M,M,89.27,KDRA 011853Z AUTO 00000KT 10SM CLR 33/13 A3017 RMK AO2 SLP163 T03280133,M
VGT,2021-08-01 18:53,-115.1933,36.2111,667.00,95.00,61.00,32.50,180.00,4.00,0.00,30.07,1017.00,10.00,M,CLR,M,M,M,M,M,M,M,M,M,M,M,M,M,M,95.40,KVGT 011853Z 18004KT 10SM CLR 35/16 A3007 RMK AO2 LTG DSNT SW-N SLP170 T03500161 PNO,M
RNO,2021-08-01 18:55,-119.7711,39.4839,1341.00,85.00,45.00,24.81,50.00,6.00,0.00,30.24,1017.80,10.00,M,FEW,SCT,M,M,9000.00,20000.00,M,M,M,M,M,M,M,M,M,82.27,KRNO 011855Z 05006KT 10SM FEW090 SCT200 29/07 A3024 RMK AO2 SLP178 SML TCU DSNT SE AND SW FU AND HZ VC ALQDS T02940072 PNO $,M
BAM,2021-08-01 18:55,-116.8743,40.5990,1382.36,78.80,51.80,39.02,240.00,3.00,0.00,30.29,M,10.00,M,SCT,BKN,M,M,9500.00,12000.00,M,M,M,M,M,M,M,M,M,78.80,KBAM 011855Z AUTO 24003KT 10SM SCT095 BKN120 26/11 A3029 RMK AO1,M
05U,2021-08-01 18:55,-116.0051,39.6042,1811.23,69.80,57.20,64.26,160.00,8.00,0.00,30.39,M,9.00,M,FEW,M,M,M,10000.00,M,M,M,M,M,M,M,M,M,M,69.80,K05U 011855Z AUTO 16008KT 9SM FEW100 21/14 A3039 RMK A01,M
TMT,2021-08-01 18:55,-117.1971,39.4643,1749.34,69.80,53.00,55.36,0.00,0.00,0.00,30.38,M,10.00,M,CLR,M,M,M,M,M,M,M,M,M,M,M,M,M,M,69.80,KTMT 011855Z AUTO 00000KT 10SM CLR 21/12 A3038 RMK AO2 LTG DSNT E T02100117,M
BVU,2021-08-01 18:55,-114.8611,35.9475,671.00,93.20,57.20,29.99,0.00,0.00,0.00,30.09,M,10.00,M,CLR,M,M,M,M,M,M,M,M,M,M,M,M,M,M,91.91,KBVU 011855Z AUTO 00000KT 10SM CLR 34/14 A3009 RMK AO2 LTG DSNT N AND NE,M
RTS,2021-08-01 18:55,-119.8764,39.6682,1539.00,82.40,39.20,21.51,M,4.00,0.00,30.29,M,10.00,M,CLR,M,M,M,M,M,M,M,M,M,M,M,M,M,M,80.21,KRTS 011855Z AUTO VRB04KT 10SM CLR 28/04 A3029 RMK AO2,M
MEV,2021-08-01 18:55,-119.7500,38.9963,1441.42,82.40,48.20,30.35,0.00,0.00,0.00,30.25,M,10.00,M,FEW,M,M,M,11000.00,M,M,M,M,M,M,M,M,M,M,80.80,KMEV 011855Z AUTO 00000KT 10SM FEW110 28/09 A3025 RMK AO2,M
HTH,2021-08-01 18:55,-118.6315,38.5448,1282.89,86.00,46.40,25.26,90.00,9.00,0.00,30.24,M,10.00,M,CLR,M,M,M,M,M,M,M,M,M,M,M,M,M,M,83.22,KHTH 011855Z AUTO 09009KT 10SM CLR 30/08 A3024 RMK A01,M
HND,2021-08-01 18:56,-115.1344,35.9729,742.79,92.00,62.00,37.19,M,3.00,0.00,30.13,1018.80,10.00,M,CLR,M,M,M,M,M,M,M,M,M,M,M,M,M,M,92.52,KHND 011856Z VRB03KT 10SM CLR 33/17 A3013 RMK AO2 LTG DSNT W AND NW SLP188 T03330167,M
WMC,2021-08-01 18:56,-117.8072,40.9019,1315.00,77.00,54.00,44.90,M,3.00,0.00,30.27,1020.10,10.00,M,CLR,M,M,M,M,M,M,M,M,M,M,M,M,M,M,77.00,KWMC 011856Z AUTO VRB03KT 10SM CLR 25/12 A3027 RMK AO2 SLP201 T02500122,M
NFL,2021-08-01 18:56,-118.7010,39.4166,1199.00,83.00,52.00,34.39,20.00,8.00,0.00,30.23,1019.90,9.00,M,FEW,M,M,M,9000.00,M,M,M,M,M,M,M,M,M,M,81.57,KNFL 011856Z 02008KT 9SM FEW090 29/11 A3023 RMK AO2 SLP199 FU ALQDS T02830111 $,M
LAS,2021-08-01 18:56,-115.1634,36.0719,663.00,96.00,60.00,30.43,M,6.00,0.00,30.09,1015.70,10.00,M,FEW,FEW,SCT,M,12000.00,18000.00,25000.00,M,M,M,M,M,M,M,M,96.21,KLAS 011856Z VRB06KT 10SM FEW120 FEW180 SCT250 36/16 A3009 RMK AO2 LTG DSNT SW-N SLP157 CB DSNT S-W AND NW-N T03560156,M
EKO,2021-08-01 18:56,-115.7860,40.8242,1367.00,74.00,58.00,57.36,210.00,6.00,0.00,30.30,1020.70,10.00,M,OVC,M,M,M,10000.00,M,M,M,M,M,M,M,M,M,M,73.90,KEKO 011856Z AUTO 21006KT 10SM OVC100 23/14 A3030 RMK AO2 SLP207 T02330144,M
TPH,2021-08-01 18:56,-117.0904,38.0505,1654.00,78.00,53.00,41.89,100.00,5.00,0.00,30.33,1020.00,10.00,M,CLR,M,M,M,M,M,M,M,M,M,M,M,M,M,M,78.10,KTPH 011856Z AUTO 10005KT 10SM CLR 26/12 A3033 RMK AO2 SLP200 T02560117,M
LSV,2021-08-01 18:58,-115.0343,36.2362,570.00,94.60,59.20,30.86,190.00,3.00,0.00,30.06,1015.20,10.00,M,FEW,M,M,M,20000.00,M,M,M,M,M,M,M,M,M,M,94.16,KLSV 011858Z AUTO 19003KT 10SM FEW200 35/15 A3006 RMK AO2 SLP152 T03480151 $,M
INS,2021-08-01 18:58,-115.6733,36.5872,955.00,84.40,56.00,37.79,0.00,0.00,0.00,30.16,1016.60,10.00,M,FEW,M,M,M,20000.00,M,M,M,M,M,M,M,M,M,M,83.34,KINS 011858Z AUTO 00000KT 10SM FEW200 29/13 A3016 RMK AO2 LTG DSNT E SLP166 T02910133 $,M
HND,2021-08-01 19:08,-115.1344,35.9729,742.79,93.20,62.60,36.35,M,3.00,0.00,30.12,M,10.00,M,CLR,M,M,M,M,M,M,M,VCTS,M,M,M,M,M,M,94.20,KHND 011908Z VRB03KT 10SM VCTS CLR 34/17 A3012 RMK AO2 LTG DSNT W TSB02,M
CXP,2021-08-01 19:10,-119.7326,39.1923,1431.00,86.00,44.60,23.59,0.00,0.00,0.00,30.26,M,10.00,M,CLR,M,M,M,M,M,M,M,M,M,M,M,M,M,M,83.07,KCXP 011910Z AUTO 00000KT 10SM CLR 30/07 A3026 RMK AO2,M
ELY,2021-08-01 19:12,-114.8453,39.2950,1909.00,73.00,55.00,53.23,210.00,13.00,0.00,30.36,M,10.00,M,SCT,M,M,M,4900.00,M,M,M,M,M,M,M,M,M,M,73.00,KELY 011912Z AUTO 21013KT 10SM SCT049 23/13 A3036 RMK AO2 LTG DSNT ALQDS T02280128,M
05U,2021-08-01 19:15,-116.0051,39.6042,1811.23,69.80,60.80,73.09,150.00,8.00,0.00,30.38,M,10.00,M,FEW,M,M,M,9500.00,M,M,M,M,M,M,M,M,M,M,69.80,K05U 011915Z AUTO 15008KT 10SM FEW095 21/16 A3038 RMK A01,M
TMT,2021-08-01 19:15,-117.1971,39.4643,1749.34,71.80,53.80,53.06,270.00,3.00,0.00,30.38,M,M,M,M,M,M,M,M,M,M,M,M,M,M,M,M,M,M,71.80,KTMT 011915Z AUTO 27003KT 22/12 A3038 RMK AO2 T02210121 PWINO,M
BAM,2021-08-01 19:15,-116.8743,40.5990,1382.36,78.80,51.80,39.02,220.00,5.00,0.00,30.29,M,10.00,M,SCT,BKN,M,M,9500.00,12000.00,M,M,M,M,M,M,M,M,M,78.80,KBAM 011915Z AUTO 22005KT 10SM SCT095 BKN120 26/11 A3029 RMK AO1,M
BVU,2021-08-01 19:15,-114.8611,35.9475,671.00,93.20,57.20,29.99,100.00,3.00,0.00,30.08,M,10.00,M,CLR,M,M,M,M,M,M,M,M,M,M,M,M,M,M,91.91,KBVU 011915Z AUTO 10003KT 10SM CLR 34/14 A3008 RMK AO2 LTG DSNT N AND NE,M
RTS,2021-08-01 19:15,-119.8764,39.6682,1539.00,82.40,42.80,24.72,120.00,5.00,0.00,30.29,M,10.00,M,CLR,M,M,M,M,M,M,M,M,M,M,M,M,M,M,80.39,KRTS 011915Z AUTO 12005KT 10SM CLR 28/06 A3029 RMK AO2,M
MEV,2021-08-01 19:15,-119.7500,38.9963,1441.42,86.00,46.40,25.26,280.00,7.00,0.00,30.25,M,10.00,M,CLR,M,M,M,M,M,M,M,M,M,M,M,M,M,M,83.22,KMEV 011915Z AUTO 28007KT 10SM CLR 30/08 A3025 RMK AO2,M
HTH,2021-08-01 19:15,-118.6315,38.5448,1282.89,87.80,44.60,22.27,70.00,11.00,0.00,30.23,M,10.00,16.00,CLR,M,M,M,M,M,M,M,M,M,M,M,M,M,M,84.53,KHTH 011915Z AUTO 07011G16KT 040V100 10SM CLR 31/07 A3023 RMK A01,M
ELY,2021-08-01 19:19,-114.8453,39.2950,1909.00,72.00,54.00,53.09,220.00,11.00,T,30.36,M,9.00,M,FEW,SCT,M,M,5000.00,11000.00,M,M,VCTS -RA,M,M,M,M,M,M,72.00,KELY 011919Z AUTO 22011KT 9SM VCTS -RA FEW050 SCT110 22/12 A3036 RMK AO2 LTG DSNT N-SE RAB17 P0000 T02220122,M
HND,2021-08-01 19:23,-115.1344,35.9729,742.79,95.00,60.80,32.27,M,4.00,0.00,30.12,M,10.00,M,CLR,M,M,M,M,M,M,M,M,M,M,M,M,M,M,95.30,KHND 011923Z VRB04KT 10SM CLR 35/16 A3012 RMK AO2 LTG DSNT SW-NW TSB02E17,M
CXP,2021-08-01 19:30,-119.7326,39.1923,1431.00,87.80,42.80,20.79,M,6.00,0.00,30.26,M,9.00,M,CLR,M,M,M,M,M,M,M,M,M,M,M,M,M,M,84.40,KCXP 011930Z AUTO VRB06KT 9SM CLR 31/06 A3026 RMK AO2,M
MEV,2021-08-01 19:35,-119.7500,38.9963,1441.42,86.00,44.60,23.59,M,4.00,0.00,30.24,M,10.00,10.00,CLR,M,M,M,M,M,M,M,M,M,M,M,M,M,M,83.07,KMEV 011935Z AUTO VRB04G10KT 10SM CLR 30/07 A3024 RMK AO2,M
HTH,2021-08-01 19:35,-118.6315,38.5448,1282.89,87.80,42.80,20.79,M,4.00,0.00,30.23,M,10.00,13.00,CLR,M,M,M,M,M,M,M,M,M,M,M,M,M,M,84.40,KHTH 011935Z AUTO VRB04G13KT 10SM CLR 31/06 A3023 RMK A01,M
05U,2021-08-01 19:35,-116.0051,39.6042,1811.23,71.60,57.20,60.44,0.00,0.00,0.00,30.37,M,10.00,M,FEW,M,M,M,9500.00,M,M,M,M,M,M,M,M,M,M,71.60,K05U 011935Z AUTO 00000KT 10SM FEW095 22/14 A3037 RMK A01,M
RTS,2021-08-01 19:35,-119.8764,39.6682,1539.00,84.20,42.80,23.33,110.00,8.00,0.00,30.28,M,10.00,M,CLR,M,M,M,M,M,M,M,M,M,M,M,M,M,M,81.61,KRTS 011935Z AUTO 11008KT 10SM CLR 29/06 A3028 RMK AO2,M
BVU,2021-08-01 19:35,-114.8611,35.9475,671.00,93.20,57.20,29.99,0.00,0.00,0.00,30.07,M,10.00,M,CLR,M,M,M,M,M,M,M,M,M,M,M,M,M,M,91.91,KBVU 011935Z AUTO 00000KT 10SM CLR 34/14 A3007 RMK AO2,M
BAM,2021-08-01 19:35,-116.8743,40.5990,1382.36,78.80,51.80,39.02,250.00,3.00,0.00,30.28,M,10.00,M,SCT,M,M,M,12000.00,M,M,M,M,M,M,M,M,M,M,78.80,KBAM 011935Z AUTO 25003KT 10SM SCT120 26/11 A3028 RMK AO1,M
TMT,2021-08-01 19:35,-117.1971,39.4643,1749.34,71.60,53.20,52.26,290.00,3.00,0.00,30.37,M,10.00,M,SCT,M,M,M,10000.00,M,M,M,M,M,M,M,M,M,M,71.60,KTMT 011935Z AUTO 29003KT 10SM SCT100 22/12 A3037 RMK AO2 LTG DSNT SE T02200118,M
ELY,2021-08-01 19:35,-114.8453,39.2950,1909.00,68.00,60.00,75.84,190.00,4.00,0.04,30.36,M,8.00,M,FEW,SCT,BKN,M,3500.00,5000.00,7500.00,M,-RA,M,M,M,M,M,M,68.00,KELY 011935Z AUTO 19004KT 8SM -RA FEW035 SCT050 BKN075 20/16 A3036 RMK AO2 LTG DSNT NW-E RAB17 P0004 T02000156,M
CXP,2021-08-01 19:50,-119.7326,39.1923,1431.00,89.60,42.80,19.64,70.00,9.00,0.00,30.25,M,9.00,M,CLR,M,M,M,M,M,M,M,M,M,M,M,M,M,M,85.93,KCXP 011950Z AUTO 07009KT 9SM CLR 32/06 A3025 RMK AO2,M
LAS,2021-08-01 19:50,-115.1634,36.0719,663.00,96.80,59.00,28.63,290.00,6.00,0.00,30.07,M,10.00,16.00,FEW,FEW,BKN,M,11000.00,14000.00,25000.00,M,M,M,M,M,M,M,M,96.50,KLAS 011950Z 29006G16KT 10SM FEW110 FEW140 BKN250 36/15 A3007 RMK AO2 LTG DSNT N CB DSNT S-SW AND W-N,M
ELY,2021-08-01 19:53,-114.8453,39.2950,1909.00,73.00,57.00,57.23,0.00,0.00,0.04,30.35,1018.40,10.00,M,FEW,FEW,SCT,M,7000.00,9500.00,11000.00,M,M,M,M,M,M,M,M,73.00,KELY 011953Z AUTO 00000KT 10SM FEW070 FEW095 SCT110 23/14 A3035 RMK AO2 LTG DSNT NW-E RAB17E40 SLP184 P0004 T02280139,M
P68,2021-08-01 19:53,-116.0056,39.6014,1993.00,72.00,55.00,55.06,0.00,0.00,0.00,30.33,1019.30,M,M,M,M,M,M,M,M,M,M,M,M,M,M,M,M,M,72.00,KP68 011953Z AUTO 00000KT 22/13 A3033 RMK AO1 SLP193 T02220128,M
LOL,2021-08-01 19:53,-118.5701,40.0684,1192.43,83.00,57.00,41.27,M,3.00,0.00,30.22,1019.40,10.00,M,CLR,M,M,M,M,M,M,M,M,M,M,M,M,M,M,82.41,KLOL 011953Z AUTO VRB03KT 10SM CLR 28/14 A3022 RMK AO2 SLP194 T02830139,M
DRA,2021-08-01 19:53,-116.0278,36.6206,1009.00,92.00,54.00,27.80,M,M,0.00,30.15,1015.40,10.00,M,CLR,M,M,M,M,M,M,M,M,M,M,M,M,M,M,89.66,KDRA 011953Z AUTO 10SM CLR 33/12 A3015 RMK AO2 SLP154 T03330122,M
VGT,2021-08-01 19:53,-115.1933,36.2111,667.00,95.00,61.00,32.50,270.00,11.00,0.00,30.06,1016.80,10.00,M,CLR,M,M,M,M,M,M,M,M,M,M,M,M,M,M,95.40,KVGT 011953Z 27011KT 10SM CLR 35/16 A3006 RMK AO2 LTG DSNT N AND NE SLP168 T03500161 PNO,M
RNO,2021-08-01 19:55,-119.7711,39.4839,1341.00,88.00,43.00,20.82,70.00,7.00,0.00,30.22,1017.00,10.00,M,SCT,SCT,SCT,M,9000.00,14000.00,20000.00,M,M,M,M,M,M,M,M,84.58,KRNO 011955Z 07007KT 10SM SCT090 SCT140 SCT200 31/06 A3022 RMK AO2 SLP170 VIRGA CB DSNT E AND SE TCU DSNT S AND SW FU AND HZ VC ALQDS T03110061 PNO $,M
BVU,2021-08-01 19:55,-114.8611,35.9475,671.00,93.20,57.20,29.99,M,3.00,0.00,30.08,M,10.00,M,CLR,M,M,M,M,M,M,M,M,M,M,M,M,M,M,91.91,KBVU 011955Z AUTO VRB03KT 10SM CLR 34/14 A3008 RMK AO2,M
RTS,2021-08-01 19:55,-119.8764,39.6682,1539.00,84.20,44.60,24.99,120.00,9.00,0.00,30.27,M,10.00,M,CLR,M,M,M,M,M,M,M,M,M,M,M,M,M,M,81.73,KRTS 011955Z AUTO 12009KT 10SM CLR 29/07 A3027 RMK AO2,M
05U,2021-08-01 19:55,-116.0051,39.6042,1811.23,75.20,55.40,50.17,0.00,0.00,0.00,30.36,M,10.00,M,CLR,M,M,M,M,M,M,M,M,M,M,M,M,M,M,75.20,K05U 011955Z AUTO 00000KT 10SM CLR 24/13 A3036 RMK A01,M
MEV,2021-08-01 19:55,-119.7500,38.9963,1441.42,86.00,44.60,23.59,0.00,0.00,0.00,30.24,M,10.00,M,CLR,M,M,M,M,M,M,M,M,M,M,M,M,M,M,83.07,KMEV 011955Z AUTO 00000KT 10SM CLR 30/07 A3024 RMK AO2,M
BAM,2021-08-01 19:55,-116.8743,40.5990,1382.36,80.60,51.80,36.79,220.00,7.00,0.00,30.28,M,10.00,M,OVC,M,M,M,12000.00,M,M,M,M,M,M,M,M,M,M,80.08,KBAM 011955Z AUTO 22007KT 10SM OVC120 27/11 A3028 RMK AO1,M
HTH,2021-08-01 19:55,-118.6315,38.5448,1282.89,87.80,41.00,19.40,M,5.00,0.00,30.22,M,10.00,12.00,FEW,M,M,M,12000.00,M,M,M,M,M,M,M,M,M,M,84.30,KHTH 011955Z AUTO VRB05G12KT 10SM FEW120 31/05 A3022 RMK A01,M
TMT,2021-08-01 19:55,-117.1971,39.4643,1749.34,72.30,54.30,53.13,310.00,4.00,0.00,30.37,M,10.00,M,BKN,M,M,M,9000.00,M,M,M,M,M,M,M,M,M,M,72.30,KTMT 011955Z AUTO 31004KT 10SM BKN090 22/12 A3037 RMK AO2 LTG DSNT E T02240124,M
TPH,2021-08-01 19:56,-117.0904,38.0505,1654.00,80.00,52.00,37.67,190.00,3.00,0.00,30.31,1019.10,10.00,M,CLR,M,M,M,M,M,M,M,M,M,M,M,M,M,M,79.81,KTPH 011956Z AUTO 19003KT 10SM CLR 27/11 A3031 RMK AO2 SLP191 T02670111,M
EKO,2021-08-01 19:56,-115.7860,40.8242,1367.00,78.00,57.00,48.28,210.00,9.00,0.00,30.28,1019.90,10.00,M,FEW,BKN,M,M,4000.00,12000.00,M,M,M,M,M,M,M,M,M,78.10,KEKO 011956Z AUTO 21009KT 10SM FEW040 BKN120 26/14 A3028 RMK AO2 SLP199 T02560139,M
WMC,2021-08-01 19:56,-117.8072,40.9019,1315.00,82.00,54.00,38.11,260.00,6.00,0.00,30.25,1019.30,10.00,M,CLR,M,M,M,M,M,M,M,M,M,M,M,M,M,M,81.24,KWMC 011956Z AUTO 26006KT 10SM CLR 28/12 A3025 RMK AO2 SLP193 T02780122,M
LAS,2021-08-01 19:56,-115.1634,36.0719,663.00,96.00,58.00,28.12,280.00,10.00,0.00,30.07,1015.30,10.00,16.00,FEW,FEW,BKN,M,11000.00,14000.00,25000.00,M,M,M,M,M,M,M,M,95.27,KLAS 011956Z 28010G16KT 10SM FEW110 FEW140 BKN250 36/14 A3007 RMK AO2 LTG DSNT N SLP153 CB DSNT S-SW AND W-N T03560144,M
HND,2021-08-01 19:56,-115.1344,35.9729,742.79,95.00,61.00,32.50,0.00,0.00,0.00,30.11,1018.20,10.00,M,CLR,M,M,M,M,M,M,M,M,M,M,M,M,M,M,95.40,KHND 011956Z 00000KT 10SM CLR 35/16 A3011 RMK AO2 LTG DSNT N TSB02E17 SLP182 T03500161,M
NFL,2021-08-01 19:56,-118.7010,39.4166,1199.00,86.00,53.00,32.41,M,6.00,0.00,30.21,1019.40,9.00,M,FEW,M,M,M,9000.00,M,M,M,M,M,M,M,M,M,M,84.09,KNFL 011956Z VRB06KT 9SM FEW090 30/12 A3021 RMK AO2 SLP194 CB DSNT W FU ALQDS T03000117 $,M
INS,2021-08-01 19:58,-115.6733,36.5872,955.00,86.70,55.80,34.98,0.00,0.00,0.00,30.16,1016.60,10.00,M,FEW,SCT,SCT,BKN,10000.00,15000.00,17000.00,19000.00,M,M,M,M,M,M,M,85.23,KINS 011958Z AUTO 00000KT 10SM FEW100 SCT150 SCT170 BKN190 30/13 A3016 RMK AO2 SLP166 T03040132 $,M
LSV,2021-08-01 19:58,-115.0343,36.2362,570.00,97.30,58.60,27.80,360.00,3.00,0.00,30.04,1014.60,10.00,M,CLR,M,M,M,M,M,M,M,M,M,M,M,M,M,M,96.89,KLSV 011958Z AUTO 36003KT 10SM CLR 36/15 A3004 RMK AO2 LTG DSNT N SLP146 T03630148 $,M
VGT,2021-08-01 20:03,-115.1933,36.2111,667.00,95.00,60.00,31.47,280.00,8.00,0.00,30.06,M,10.00,M,CLR,M,M,M,M,M,M,M,VCTS,M,M,M,M,M,M,94.98,KVGT 012003Z 28008KT 10SM VCTS CLR 35/16 A3006 RMK AO2 LTG DSNT N AND NE T03500156 PNO,M
CXP,2021-08-01 20:10,-119.7326,39.1923,1431.00,91.40,42.80,18.56,100.00,7.00,0.00,30.24,M,10.00,13.00,CLR,M,M,M,M,M,M,M,M,M,M,M,M,M,M,87.52,KCXP 012010Z AUTO 10007G13KT 10SM CLR 33/06 A3024 RMK AO2,M
HTH,2021-08-01 20:15,-118.6315,38.5448,1282.89,87.80,41.00,19.40,60.00,7.00,0.00,30.21,M,10.00,13.00,FEW,M,M,M,12000.00,M,M,M,M,M,M,M,M,M,M,84.30,KHTH 012015Z AUTO 06007G13KT 020V090 10SM FEW120 31/05 A3021 RMK A01,M
BVU,2021-08-01 20:15,-114.8611,35.9475,671.00,95.00,57.20,28.37,M,4.00,0.00,30.07,M,10.00,M,CLR,M,M,M,M,M,M,M,M,M,M,M,M,M,M,93.82,KBVU 012015Z AUTO VRB04KT 10SM CLR 35/14 A3007 RMK AO2,M
05U,2021-08-01 20:15,-116.0051,39.6042,1811.23,75.20,53.60,46.98,0.00,0.00,0.00,30.35,M,10.00,M,CLR,M,M,M,M,M,M,M,M,M,M,M,M,M,M,75.20,K05U 012015Z AUTO 00000KT 10SM CLR 24/12 A3035 RMK A01,M
TMT,2021-08-01 20:15,-117.1971,39.4643,1749.34,73.40,52.30,47.58,0.00,0.00,0.00,30.36,M,10.00,M,BKN,M,M,M,9000.00,M,M,M,M,M,M,M,M,M,M,73.40,KTMT 012015Z AUTO 00000KT 10SM BKN090 23/11 A3036 RMK AO2 LTG DSNT SE T02300113,M
RTS,2021-08-01 20:15,-119.8764,39.6682,1539.00,84.20,42.80,23.33,120.00,10.00,0.00,30.27,M,10.00,M,CLR,M,M,M,M,M,M,M,M,M,M,M,M,M,M,81.61,KRTS 012015Z AUTO 12010KT 080V140 10SM CLR 29/06 A3027 RMK AO2,M
MEV,2021-08-01 20:15,-119.7500,38.9963,1441.42,87.80,42.80,20.79,150.00,4.00,0.00,30.23,M,10.00,M,CLR,M,M,M,M,M,M,M,M,M,M,M,M,M,M,84.40,KMEV 012015Z AUTO 15004KT 10SM CLR 31/06 A3023 RMK AO2,M
BAM,2021-08-01 20:15,-116.8743,40.5990,1382.36,80.60,51.80,36.79,220.00,7.00,0.00,30.28,M,10.00,M,SCT,M,M,M,12000.00,M,M,M,M,M,M,M,M,M,M,80.08,KBAM 012015Z AUTO 22007KT 10SM SCT120 27/11 A3028 RMK AO1,M
VGT,2021-08-01 20:18,-115.1933,36.2111,667.00,95.00,61.00,32.50,250.00,8.00,0.00,30.06,M,10.00,M,CLR,M,M,M,M,M,M,M,TS,M,M,M,M,M,M,95.40,KVGT 012018Z 25008KT 10SM TS CLR 35/16 A3006 RMK AO2 LTG DSNT N AND NE TSB12 T03500161 PNO,M
CXP,2021-08-01 20:30,-119.7326,39.1923,1431.00,89.60,42.80,19.64,M,4.00,0.00,30.24,M,9.00,15.00,CLR,M,M,M,M,M,M,M,M,M,M,M,M,M,M,85.93,KCXP 012030Z AUTO VRB04G15KT 9SM CLR 32/06 A3024 RMK AO2,M
VGT,2021-08-01 20:33,-115.1933,36.2111,667.00,94.00,60.00,32.56,360.00,9.00,0.00,30.06,M,10.00,M,CLR,M,M,M,M,M,M,M,M,M,M,M,M,M,M,93.77,KVGT 012033Z 36009KT 10SM CLR 34/16 A3006 RMK AO2 LTG DSNT NE TSB12E27 T03440156 PNO,M
MEV,2021-08-01 20:35,-119.7500,38.9963,1441.42,87.80,42.80,20.79,0.00,0.00,0.00,30.23,M,10.00,M,CLR,M,M,M,M,M,M,M,M,M,M,M,M,M,M,84.40,KMEV 012035Z AUTO 00000KT 10SM CLR 31/06 A3023 RMK AO2,M
HTH,2021-08-01 20:35,-118.6315,38.5448,1282.89,87.80,42.80,20.79,30.00,5.00,0.00,30.21,M,10.00,13.00,FEW,M,M,M,10000.00,M,M,M,M,M,M,M,M,M,M,84.40,KHTH 012035Z AUTO 03005G13KT 10SM FEW100 31/06 A3021 RMK A01,M
RTS,2021-08-01 20:35,-119.8764,39.6682,1539.00,84.20,41.00,21.76,80.00,6.00,0.00,30.26,M,10.00,14.00,CLR,M,M,M,M,M,M,M,M,M,M,M,M,M,M,81.52,KRTS 012035Z AUTO 08006G14KT 10SM CLR 29/05 A3026 RMK AO2,M
BVU,2021-08-01 20:35,-114.8611,35.9475,671.00,95.00,57.20,28.37,0.00,0.00,0.00,30.06,M,10.00,10.00,CLR,M,M,M,M,M,M,M,M,M,M,M,M,M,M,93.82,KBVU 012035Z AUTO 00000G10KT 10SM CLR 35/14 A3006 RMK AO2,M
05U,2021-08-01 20:35,-116.0051,39.6042,1811.23,77.00,53.60,44.25,0.00,0.00,0.00,30.35,M,10.00,M,CLR,M,M,M,M,M,M,M,M,M,M,M,M,M,M,77.00,K05U 012035Z AUTO 00000KT 10SM CLR 25/12 A3035 RMK A01,M
TMT,2021-08-01 20:35,-117.1971,39.4643,1749.34,74.00,51.40,44.95,0.00,0.00,0.00,30.35,M,10.00,M,SCT,M,M,M,9000.00,M,M,M,M,M,M,M,M,M,M,74.10,KTMT 012035Z AUTO 00000KT 10SM SCT090 23/11 A3035 RMK AO2 LTG DSNT NE AND E T02340108,M
BAM,2021-08-01 20:35,-116.8743,40.5990,1382.36,80.60,51.80,36.79,0.00,0.00,0.00,30.27,M,10.00,M,CLR,M,M,M,M,M,M,M,M,M,M,M,M,M,M,80.08,KBAM 012035Z AUTO 00000KT 10SM CLR 27/11 A3027 RMK AO1,M
CXP,2021-08-01 20:50,-119.7326,39.1923,1431.00,89.60,42.80,19.64,M,5.00,0.00,30.23,M,9.00,M,CLR,M,M,M,M,M,M,M,M,M,M,M,M,M,M,85.93,KCXP 012050Z AUTO VRB05KT 9SM CLR 32/06 A3023 RMK AO2,M
DRA,2021-08-01 20:53,-116.0278,36.6206,1009.00,94.00,50.00,22.55,M,6.00,0.00,30.13,1014.70,10.00,M,CLR,M,M,M,M,M,M,M,M,M,M,M,M,M,M,90.79,KDRA 012053Z AUTO VRB06KT 10SM CLR 34/10 A3013 RMK AO2 SLP147 T03440100 58017,M
VGT,2021-08-01 20:53,-115.1933,36.2111,667.00,95.00,60.00,31.47,360.00,7.00,0.00,30.05,1016.30,10.00,M,CLR,M,M,M,M,M,M,M,M,M,M,M,M,M,M,94.98,KVGT 012053Z 36007KT 10SM CLR 35/16 A3005 RMK AO2 TSB12E27 SLP163 6//// T03500156 56012 PNO,M
LOL,2021-08-01 20:53,-118.5701,40.0684,1192.43,88.00,54.00,31.43,130.00,8.00,0.00,30.20,1018.50,10.00,M,CLR,M,M,M,M,M,M,M,M,M,M,M,M,M,M,85.98,KLOL 012053Z AUTO 13008KT 10SM CLR 31/12 A3020 RMK AO2 LTG DSNT NW SLP185 T03110122 58017,M
P68,2021-08-01 20:53,-116.0056,39.6014,1993.00,74.00,53.00,48.18,0.00,0.00,0.00,30.32,1018.50,M,M,M,M,M,M,M,M,M,M,M,M,M,M,M,M,M,73.90,KP68 012053Z AUTO 00000KT 23/12 A3032 RMK AO1 SLP185 T02330117 58012,M
ELY,2021-08-01 20:53,-114.8453,39.2950,1909.00,74.00,53.00,48.18,0.00,0.00,0.00,30.35,1018.40,10.00,M,FEW,BKN,M,M,5000.00,10000.00,M,M,M,M,M,M,M,M,M,73.90,KELY 012053Z AUTO 00000KT 10SM FEW050 BKN100 23/12 A3035 RMK AO2 LTG DSNT N AND NW SLP184 60004 T02330117 55006,M
BVU,2021-08-01 20:55,-114.8611,35.9475,671.00,95.00,57.20,28.37,100.00,6.00,0.00,30.05,M,10.00,M,FEW,M,M,M,8500.00,M,M,M,M,M,M,M,M,M,M,93.82,KBVU 012055Z AUTO 10006KT 10SM FEW085 35/14 A3005 RMK AO2,M
RTS,2021-08-01 20:55,-119.8764,39.6682,1539.00,86.00,41.00,20.54,120.00,9.00,0.00,30.26,M,10.00,15.00,CLR,M,M,M,M,M,M,M,M,M,M,M,M,M,M,82.86,KRTS 012055Z AUTO 12009G15KT 10SM CLR 30/05 A3026 RMK AO2,M
MEV,2021-08-01 20:55,-119.7500,38.9963,1441.42,89.60,42.80,19.64,240.00,6.00,0.00,30.22,M,10.00,11.00,CLR,M,M,M,M,M,M,M,M,M,M,M,M,M,M,85.93,KMEV 012055Z AUTO 24006G11KT 10SM CLR 32/06 A3022 RMK AO2 LTG DSNT E AND SE,M
BAM,2021-08-01 20:55,-116.8743,40.5990,1382.36,82.40,51.80,34.69,260.00,4.00,0.00,30.26,M,10.00,M,CLR,M,M,M,M,M,M,M,M,M,M,M,M,M,M,81.20,KBAM 012055Z AUTO 26004KT 10SM CLR 28/11 A3026 RMK AO1,M
TMT,2021-08-01 20:55,-117.1971,39.4643,1749.34,76.00,52.50,44.08,350.00,5.00,0.00,30.35,M,10.00,M,CLR,M,M,M,M,M,M,M,M,M,M,M,M,M,M,75.90,KTMT 012055Z AUTO 35005KT 10SM CLR 24/11 A3035 RMK AO2 LTG DSNT E 6//// T02440114,M
HTH,2021-08-01 20:55,-118.6315,38.5448,1282.89,89.60,42.80,19.64,40.00,10.00,0.00,30.20,M,10.00,M,CLR,M,M,M,M,M,M,M,M,M,M,M,M,M,M,85.93,KHTH 012055Z AUTO 04010KT 010V070 10SM CLR 32/06 A3020 RMK A01,M
05U,2021-08-01 20:55,-116.0051,39.6042,1811.23,78.80,53.60,41.69,0.00,0.00,0.00,30.35,M,10.00,M,FEW,M,M,M,4900.00,M,M,M,M,M,M,M,M,M,M,78.80,K05U 012055Z AUTO 00000KT 10SM FEW049 26/12 A3035 RMK A01,M
RNO,2021-08-01 20:55,-119.7711,39.4839,1341.00,90.00,47.00,22.67,80.00,9.00,0.00,30.20,1016.20,10.00,M,BKN,BKN,BKN,M,9000.00,14000.00,20000.00,M,M,M,M,M,M,M,M,86.65,KRNO 012055Z 08009KT 060V140 10SM BKN090CB BKN140 BKN200 32/08 A3020 RMK AO2 LTG DSNT SE SLP162 VIRGA CB E MOV N CB DSNT SE TCU DSNT N AND SW FU AND HZ VC ALQDS T03220083 58016 PNO $,M
TPH,2021-08-01 20:56,-117.0904,38.0505,1654.00,83.00,51.00,33.27,360.00,4.00,0.00,30.29,1018.10,10.00,M,CLR,M,M,M,M,M,M,M,M,M,M,M,M,M,M,81.45,KTPH 012056Z AUTO 36004KT 10SM CLR 28/11 A3029 RMK AO2 SLP181 T02830106 58017,M
WMC,2021-08-01 20:56,-117.8072,40.9019,1315.00,80.00,53.00,39.23,190.00,8.00,0.00,30.24,1019.30,10.00,M,CLR,M,M,M,M,M,M,M,M,M,M,M,M,M,M,79.94,KWMC 012056Z AUTO 19008KT 10SM CLR 27/12 A3024 RMK AO2 SLP193 T02670117 58009,M
LAS,2021-08-01 20:56,-115.1634,36.0719,663.00,95.00,60.00,31.47,310.00,9.00,0.00,30.06,1015.00,10.00,M,FEW,FEW,BKN,M,11000.00,14000.00,25000.00,M,M,M,M,M,M,M,M,94.98,KLAS 012056Z 31009KT 10SM FEW110 FEW140 BKN250 35/16 A3006 RMK AO2 SLP150 CB DSNT NE TCU DSNT W T03500156 56013,M
NFL,2021-08-01 20:56,-118.7010,39.4166,1199.00,89.00,52.00,28.21,120.00,5.00,0.00,30.20,1018.80,9.00,M,FEW,FEW,M,M,9000.00,15000.00,M,M,M,M,M,M,M,M,M,86.58,KNFL 012056Z 12005KT 9SM FEW090 FEW150 32/11 A3020 RMK AO2 SLP188 CB DSNT SW-NW FU ALQDS T03170111 56018 $,M
HND,2021-08-01 20:56,-115.1344,35.9729,742.79,94.00,62.00,34.95,320.00,8.00,0.00,30.10,1017.80,10.00,M,CLR,M,M,M,M,M,M,M,M,M,M,M,M,M,M,94.72,KHND 012056Z 32008KT 10SM CLR 34/17 A3010 RMK AO2 SLP178 T03440167 56014,M
EKO,2021-08-01 20:56,-115.7860,40.8242,1367.00,80.00,55.00,42.05,260.00,8.00,0.00,30.27,1019.30,10.00,M,BKN,M,M,M,4800.00,M,M,M,M,M,M,M,M,M,M,80.17,KEKO 012056Z AUTO 26008KT 10SM BKN048 27/13 A3027 RMK AO2 LTG DSNT SW SLP193 T02670128 56013,M
LSV,2021-08-01 20:58,-115.0343,36.2362,570.00,94.50,59.00,30.73,330.00,11.00,0.00,30.02,1013.90,10.00,M,SCT,SCT,SCT,M,8500.00,11000.00,14000.00,M,VCTS,M,M,M,M,M,M,93.96,KLSV 012058Z AUTO 33011KT 10SM VCTS SCT085 SCT110 SCT140 35/15 A3002 RMK AO2 SLP139 T03470150 57017 $,M
INS,2021-08-01 20:58,-115.6733,36.5872,955.00,89.60,53.00,28.91,130.00,5.00,0.00,30.13,1015.40,10.00,M,FEW,SCT,SCT,BKN,11000.00,14000.00,17000.00,19000.00,M,M,M,M,M,M,M,87.25,KINS 012058Z AUTO 13005KT 10SM FEW110 SCT140 SCT170 BKN190 32/12 A3013 RMK AO2 SLP154 T03200117 57016 $,M
LSV,2021-08-01 20:59,-115.0343,36.2362,570.00,95.00,60.80,32.27,320.00,9.00,0.00,30.02,1013.90,10.00,M,FEW,SCT,SCT,M,8500.00,11000.00,14000.00,M,VCTS -RA,M,M,M,M,M,M,95.30,KLSV 012059Z AUTO 32009KT 10SM VCTS -RA FEW085 SCT110 SCT140 35/16 A3002 RMK AO2 RAB59 SLP139 $,M
CXP,2021-08-01 21:10,-119.7326,39.1923,1431.00,93.20,42.80,17.55,M,5.00,0.00,30.23,M,10.00,15.00,CLR,M,M,M,M,M,M,M,M,M,M,M,M,M,M,89.17,KCXP 012110Z AUTO VRB05G15KT 10SM CLR 34/06 A3023 RMK AO2,M
LSV,2021-08-01 21:13,-115.0343,36.2362,570.00,95.00,62.60,34.39,10.00,8.00,0.00,30.03,1014.30,10.00,M,CLR,M,M,M,M,M,M,M,M,M,M,M,M,M,M,96.22,KLSV 012113Z AUTO 01008KT 10SM CLR 35/17 A3003 RMK AO2 LTG DSNT E AND NW RAB2059E13 SLP143 $,M
VGT,2021-08-01 21:14,-115.1933,36.2111,667.00,96.00,60.00,30.43,M,3.00,0.00,30.04,M,10.00,M,CLR,M,M,M,M,M,M,M,VCTS,M,M,M,M,M,M,96.21,KVGT 012114Z VRB03KT 10SM VCTS CLR 36/16 A3004 RMK AO2 LTG DSNT E T03560156 PNO,M
TMT,2021-08-01 21:15,-117.1971,39.4643,1749.34,76.00,51.80,42.67,140.00,3.00,0.00,30.34,M,10.00,M,CLR,M,M,M,M,M,M,M,M,M,M,M,M,M,M,76.10,KTMT 012115Z AUTO 14003KT 10SM CLR 25/11 A3034 RMK AO2 T02450110,M
05U,2021-08-01 21:15,-116.0051,39.6042,1811.23,78.80,55.40,44.52,70.00,7.00,0.00,30.35,M,10.00,M,BKN,BKN,M,M,5000.00,5500.00,M,M,M,M,M,M,M,M,M,78.80,K05U 012115Z AUTO 07007KT 10SM BKN050 BKN055 26/13 A3035 RMK A01,M
HTH,2021-08-01 21:15,-118.6315,38.5448,1282.89,89.60,42.80,19.64,70.00,8.00,0.00,30.19,M,10.00,M,CLR,M,M,M,M,M,M,M,M,M,M,M,M,M,M,85.93,KHTH 012115Z AUTO 07008KT 10SM CLR 32/06 A3019 RMK A01,M
BAM,2021-08-01 21:15,-116.8743,40.5990,1382.36,84.20,51.80,32.73,0.00,0.00,0.00,30.25,M,10.00,M,CLR,M,M,M,M,M,M,M,M,M,M,M,M,M,M,82.48,KBAM 012115Z AUTO 00000KT 10SM CLR 29/11 A3025 RMK AO1,M
MEV,2021-08-01 21:15,-119.7500,38.9963,1441.42,89.60,42.80,19.64,M,4.00,0.00,30.22,M,10.00,12.00,CLR,M,M,M,M,M,M,M,M,M,M,M,M,M,M,85.93,KMEV 012115Z AUTO VRB04G12KT 10SM CLR 32/06 A3022 RMK AO2,M
RTS,2021-08-01 21:15,-119.8764,39.6682,1539.00,86.00,39.20,19.15,M,6.00,0.00,30.25,M,10.00,14.00,CLR,M,M,M,M,M,M,M,M,M,M,M,M,M,M,82.79,KRTS 012115Z AUTO VRB06G14KT 10SM CLR 30/04 A3025 RMK AO2,M
BVU,2021-08-01 21:15,-114.8611,35.9475,671.00,96.80,55.40,25.15,M,5.00,0.00,30.05,M,10.00,10.00,SCT,M,M,M,8500.00,M,M,M,M,M,M,M,M,M,M,95.14,KBVU 012115Z AUTO VRB05G10KT 10SM SCT085 36/13 A3005 RMK AO2,M
LSV,2021-08-01 21:16,-115.0343,36.2362,570.00,95.00,64.40,36.63,20.00,10.00,0.00,30.03,1014.30,10.00,M,FEW,M,M,M,12000.00,M,M,M,-DZ,M,M,M,M,M,M,97.26,KLSV 012116Z AUTO 02010KT 10SM -DZ FEW120 35/18 A3003 RMK AO2 LTG DSNT E AND NW RAB2059E13DZB16 SLP143 $,M
LSV,2021-08-01 21:18,-115.0343,36.2362,570.00,95.00,64.40,36.63,10.00,11.00,0.00,30.02,1014.00,10.00,M,CLR,M,M,M,M,M,M,M,M,M,M,M,M,M,M,97.26,KLSV 012118Z AUTO 01011KT 10SM CLR 35/18 A3002 RMK AO2 LTG DSNT E AND NW RAB2059E13DZB16E18RAB18E18 SLP140 $,M
VGT,2021-08-01 21:29,-115.1933,36.2111,667.00,97.00,60.00,29.60,M,4.00,0.00,30.04,M,10.00,M,CLR,M,M,M,M,M,M,M,M,M,M,M,M,M,M,97.22,KVGT 012129Z VRB04KT 10SM CLR 36/16 A3004 RMK AO2 T03610156 PNO,M
CXP,2021-08-01 21:30,-119.7326,39.1923,1431.00,87.80,44.60,22.27,130.00,7.00,0.00,30.22,M,10.00,M,FEW,M,M,M,11000.00,M,M,M,VCTS,M,M,M,M,M,M,84.53,KCXP 012130Z AUTO 13007KT 100V160 10SM VCTS FEW110 31/07 A3022 RMK AO2 LTG DSNT SE,M
TMT,2021-08-01 21:35,-117.1971,39.4643,1749.34,77.20,51.40,40.54,0.00,0.00,0.00,30.34,M,10.00,M,CLR,M,M,M,M,M,M,M,M,M,M,M,M,M,M,77.20,KTMT 012135Z AUTO 00000KT 10SM CLR 25/11 A3034 RMK AO2 LTG DSNT E AND SE T02510108,M
BAM,2021-08-01 21:35,-116.8743,40.5990,1382.36,84.20,51.80,32.73,350.00,9.00,0.00,30.24,M,10.00,M,SCT,M,M,M,6500.00,M,M,M,M,M,M,M,M,M,M,82.48,KBAM 012135Z AUTO 35009KT 10SM SCT065 29/11 A3024 RMK AO1,M
05U,2021-08-01 21:35,-116.0051,39.6042,1811.23,77.00,53.60,44.25,90.00,5.00,0.00,30.35,M,10.00,M,SCT,SCT,BKN,M,5000.00,7000.00,9500.00,M,M,M,M,M,M,M,M,77.00,K05U 012135Z AUTO 09005KT 10SM SCT050 SCT070 BKN095 25/12 A3035 RMK A01,M
BVU,2021-08-01 21:35,-114.8611,35.9475,671.00,95.00,55.40,26.58,330.00,11.00,0.00,30.04,M,10.00,M,FEW,M,M,M,9000.00,M,M,M,-RA,M,M,M,M,M,M,93.22,KBVU 012135Z AUTO 33011KT 10SM -RA FEW090 35/13 A3004 RMK AO2,M
RTS,2021-08-01 21:35,-119.8764,39.6682,1539.00,84.20,41.00,21.76,100.00,4.00,0.00,30.25,M,10.00,M,SCT,M,M,M,9000.00,M,M,M,M,M,M,M,M,M,M,81.52,KRTS 012135Z AUTO 10004KT 10SM SCT090 29/05 A3025 RMK AO2,M
MEV,2021-08-01 21:35,-119.7500,38.9963,1441.42,87.80,42.80,20.79,290.00,7.00,0.00,30.21,M,10.00,12.00,CLR,M,M,M,M,M,M,M,M,M,M,M,M,M,M,84.40,KMEV 012135Z AUTO 29007G12KT 10SM CLR 31/06 A3021 RMK AO2,M
HTH,2021-08-01 21:35,-118.6315,38.5448,1282.89,91.40,44.60,19.89,M,6.00,0.00,30.18,M,10.00,11.00,CLR,M,M,M,M,M,M,M,M,M,M,M,M,M,M,87.68,KHTH 012135Z AUTO VRB06G11KT 10SM CLR 33/07 A3018 RMK A01,M
CXP,2021-08-01 21:50,-119.7326,39.1923,1431.00,87.80,44.60,22.27,300.00,13.00,0.00,30.22,M,10.00,18.00,FEW,M,M,M,11000.00,M,M,M,M,M,M,M,M,M,M,84.53,KCXP 012150Z AUTO 30013G18KT 10SM FEW110 31/07 A3022 RMK AO2 LTG DSNT SE,M
VGT,2021-08-01 21:53,-115.1933,36.2111,667.00,97.00,60.00,29.60,0.00,0.00,0.00,30.03,1015.50,10.00,M,CLR,M,M,M,M,M,M,M,M,M,M,M,M,M,M,97.22,KVGT 012153Z 00000KT 10SM CLR 36/16 A3003 RMK AO2 SLP155 T03610156 PNO,M
DRA,2021-08-01 21:53,-116.0278,36.6206,1009.00,95.00,51.00,22.70,210.00,5.00,0.00,30.10,1013.80,10.00,14.00,FEW,M,M,M,8500.00,M,M,M,M,M,M,M,M,M,M,92.11,KDRA 012153Z AUTO 21005G14KT 10SM FEW085 35/11 A3010 RMK AO2 SLP138 T03500106,M
ELY,2021-08-01 21:53,-114.8453,39.2950,1909.00,72.00,57.00,59.20,40.00,15.00,0.00,30.34,1018.60,10.00,M,BKN,OVC,M,M,9500.00,12000.00,M,M,VCTS,M,M,M,M,M,M,72.00,KELY 012153Z AUTO 04015KT 10SM VCTS BKN095 OVC120 22/14 A3034 RMK AO2 LTG DSNT W-N SLP186 T02220139,M
P68,2021-08-01 21:53,-116.0056,39.6014,1993.00,79.00,54.00,42.03,40.00,8.00,0.00,30.30,1017.70,M,M,M,M,M,M,M,M,M,M,M,M,M,M,M,M,M,79.00,KP68 012153Z AUTO 04008KT 26/12 A3030 RMK AO1 SLP177 T02610122,M
LOL,2021-08-01 21:53,-118.5701,40.0684,1192.43,88.00,52.00,29.21,120.00,4.00,0.00,30.18,1017.70,10.00,M,CLR,M,M,M,M,M,M,M,M,M,M,M,M,M,M,85.60,KLOL 012153Z AUTO 12004KT 10SM CLR 31/11 A3018 RMK AO2 SLP177 T03110111,M
BVU,2021-08-01 21:55,-114.8611,35.9475,671.00,96.80,57.20,26.84,320.00,5.00,0.00,30.03,M,10.00,13.00,CLR,M,M,M,M,M,M,M,M,M,M,M,M,M,M,95.77,KBVU 012155Z AUTO 32005G13KT 10SM CLR 36/14 A3003 RMK AO2 LTG DSNT NE AND NW,M
05U,2021-08-01 21:55,-116.0051,39.6042,1811.23,80.60,51.80,36.79,M,5.00,0.00,30.33,M,10.00,10.00,FEW,SCT,M,M,7000.00,9000.00,M,M,M,M,M,M,M,M,M,80.08,K05U 012155Z AUTO VRB05G10KT 10SM FEW070 SCT090 27/11 A3033 RMK A01,M
MEV,2021-08-01 21:55,-119.7500,38.9963,1441.42,89.60,42.80,19.64,300.00,7.00,0.00,30.20,M,10.00,M,CLR,M,M,M,M,M,M,M,M,M,M,M,M,M,M,85.93,KMEV 012155Z AUTO 30007KT 10SM CLR 32/06 A3020 RMK AO2 LTG DSNT SE,M
TMT,2021-08-01 21:55,-117.1971,39.4643,1749.34,79.20,50.20,36.30,330.00,3.00,0.00,30.33,M,10.00,M,CLR,M,M,M,M,M,M,M,M,M,M,M,M,M,M,79.20,KTMT 012155Z AUTO 33003KT 10SM CLR 26/10 A3033 RMK AO2 LTG DSNT E AND SW T02620101,M
RNO,2021-08-01 21:55,-119.7711,39.4839,1341.00,89.00,49.00,25.14,M,6.00,0.00,30.18,1015.80,10.00,M,FEW,BKN,BKN,BKN,8500.00,10000.00,14000.00,20000.00,M,M,M,M,M,M,M,86.09,KRNO 012155Z VRB06KT 10SM FEW085 BKN100CB BKN140 BKN200 32/09 A3018 RMK AO2 LTG DSNT S SLP158 VIRGA CB W MOV N DSIPTG CB DSNT N AND SE AND NW FU AND HZ VC ALQDS T03170094 PNO $,M
RTS,2021-08-01 21:55,-119.8764,39.6682,1539.00,84.20,42.80,23.33,290.00,7.00,0.00,30.25,M,10.00,M,BKN,M,M,M,9000.00,M,M,M,M,M,M,M,M,M,M,81.61,KRTS 012155Z AUTO 29007KT 240V310 10SM BKN090 29/06 A3025 RMK AO2,M
BAM,2021-08-01 21:55,-116.8743,40.5990,1382.36,84.20,50.00,30.62,240.00,4.00,0.00,30.24,M,10.00,M,SCT,M,M,M,6500.00,M,M,M,M,M,M,M,M,M,M,82.24,KBAM 012155Z AUTO 24004KT 10SM SCT065 29/10 A3024 RMK AO1,M
HTH,2021-08-01 21:55,-118.6315,38.5448,1282.89,91.40,42.80,18.56,360.00,11.00,0.00,30.17,M,10.00,M,CLR,M,M,M,M,M,M,M,M,M,M,M,M,M,M,87.52,KHTH 012155Z AUTO 36011KT 10SM CLR 33/06 A3017 RMK A01,M
WMC,2021-08-01 21:56,-117.8072,40.9019,1315.00,82.00,52.00,35.41,270.00,6.00,0.00,30.22,1018.50,10.00,M,CLR,M,M,M,M,M,M,M,M,M,M,M,M,M,M,80.97,KWMC 012156Z AUTO 27006KT 10SM CLR 28/11 A3022 RMK AO2 SLP185 T02780111,M
NFL,2021-08-01 21:56,-118.7010,39.4166,1199.00,91.00,50.00,24.68,40.00,9.00,0.00,30.17,1018.00,9.00,14.00,FEW,FEW,M,M,9000.00,15000.00,M,M,M,M,M,M,M,M,M,87.99,KNFL 012156Z 04009G14KT 9SM FEW090 FEW150 33/10 A3017 RMK AO2 SLP180 CB DSNT SW-NW FU ALQDS T03280100 $,M
TPH,2021-08-01 21:56,-117.0904,38.0505,1654.00,86.00,48.00,26.82,240.00,10.00,0.00,30.27,1017.00,10.00,M,CLR,M,M,M,M,M,M,M,M,M,M,M,M,M,M,83.38,KTPH 012156Z AUTO 24010KT 10SM CLR 30/09 A3027 RMK AO2 SLP170 T03000089,M
HND,2021-08-01 21:56,-115.1344,35.9729,742.79,96.00,59.00,29.25,M,3.00,0.00,30.07,1016.90,10.00,M,CLR,M,M,M,M,M,M,M,M,M,M,M,M,M,M,95.72,KHND 012156Z VRB03KT 10SM CLR 36/15 A3007 RMK AO2 SLP169 T03560150,M
LAS,2021-08-01 21:56,-115.1634,36.0719,663.00,98.00,57.00,25.61,0.00,0.00,0.00,30.03,1013.90,10.00,M,FEW,FEW,BKN,M,11000.00,14000.00,25000.00,M,M,M,M,M,M,M,M,97.13,KLAS 012156Z 00000KT 10SM FEW110 FEW140 BKN250 37/14 A3003 RMK AO2 SLP139 CB DSNT S T03670139,M
EKO,2021-08-01 21:56,-115.7860,40.8242,1367.00,81.00,53.00,38.09,M,4.00,0.00,30.26,1019.00,10.00,M,FEW,M,M,M,5500.00,M,M,M,M,M,M,M,M,M,M,80.47,KEKO 012156Z AUTO VRB04KT 10SM FEW055 27/12 A3026 RMK AO2 LTG DSNT SE AND S SLP190 T02720117,M
LSV,2021-08-01 21:58,-115.0343,36.2362,570.00,96.60,58.00,27.90,100.00,4.00,T,30.00,1013.20,10.00,M,CLR,M,M,M,M,M,M,M,M,M,M,M,M,M,M,95.90,KLSV 012158Z AUTO 10004KT 10SM CLR 36/15 A3000 RMK AO2 RAB2059E13DZB16E18RAB18E18 SLP132 P0000 T03590145 $,M
INS,2021-08-01 21:58,-115.6733,36.5872,955.00,91.40,53.60,27.83,110.00,3.00,0.00,30.10,1014.40,10.00,M,FEW,M,M,M,20000.00,M,M,M,M,M,M,M,M,M,M,89.08,KINS 012158Z AUTO 11003KT 10SM FEW200 33/12 A3010 RMK AO2 SLP144 T03300120 $,M
CXP,2021-08-01 22:10,-119.7326,39.1923,1431.00,89.60,42.80,19.64,310.00,5.00,0.00,30.22,M,10.00,M,FEW,M,M,M,11000.00,M,M,M,VCTS,M,M,M,M,M,M,85.93,KCXP 012210Z AUTO 31005KT 10SM VCTS FEW110 32/06 A3022 RMK AO2 LTG DSNT N-SE,M
ELY,2021-08-01 22:11,-114.8453,39.2950,1909.00,74.00,57.00,55.53,30.00,18.00,0.00,30.34,M,10.00,23.00,BKN,M,M,M,9500.00,M,M,M,M,M,M,M,M,M,M,73.90,KELY 012211Z AUTO 03018G23KT 10SM BKN095 23/14 A3034 RMK AO2 LTG DSNT SW-N T02330139,M
HTH,2021-08-01 22:15,-118.6315,38.5448,1282.89,91.40,44.60,19.89,340.00,7.00,0.00,30.16,M,10.00,15.00,CLR,M,M,M,M,M,M,M,M,M,M,M,M,M,M,87.68,KHTH 012215Z AUTO 34007G15KT 10SM CLR 33/07 A3016 RMK A01,M
BAM,2021-08-01 22:15,-116.8743,40.5990,1382.36,87.80,50.00,27.29,320.00,3.00,0.00,30.23,M,10.00,M,CLR,M,M,M,M,M,M,M,M,M,M,M,M,M,M,85.11,KBAM 012215Z AUTO 32003KT 10SM CLR 31/10 A3023 RMK AO1,M
MEV,2021-08-01 22:15,-119.7500,38.9963,1441.42,89.60,42.80,19.64,M,6.00,0.00,30.20,M,10.00,M,FEW,M,M,M,11000.00,M,M,M,M,M,M,M,M,M,M,85.93,KMEV 012215Z AUTO VRB06KT 10SM FEW110 32/06 A3020 RMK AO2 LTG DSNT NE AND SE,M
05U,2021-08-01 22:15,-116.0051,39.6042,1811.23,80.60,51.80,36.79,50.00,6.00,0.00,30.33,M,10.00,M,FEW,SCT,SCT,M,6000.00,7000.00,9000.00,M,M,M,M,M,M,M,M,80.08,K05U 012215Z AUTO 05006KT 10SM FEW060 SCT070 SCT090 27/11 A3033 RMK A01,M
RTS,2021-08-01 22:15,-119.8764,39.6682,1539.00,84.20,41.00,21.76,310.00,7.00,0.00,30.25,M,10.00,15.00,BKN,M,M,M,9000.00,M,M,M,M,M,M,M,M,M,M,81.52,KRTS 012215Z AUTO 31007G15KT 10SM BKN090 29/05 A3025 RMK AO2,M
BVU,2021-08-01 22:15,-114.8611,35.9475,671.00,96.80,55.40,25.15,M,4.00,0.00,30.02,M,10.00,11.00,CLR,M,M,M,M,M,M,M,M,M,M,M,M,M,M,95.14,KBVU 012215Z AUTO VRB04G11KT 10SM CLR 36/13 A3002 RMK AO2,M
TMT,2021-08-01 22:15,-117.1971,39.4643,1749.34,80.00,49.60,34.69,340.00,9.00,0.00,30.32,M,10.00,14.00,SCT,M,M,M,7000.00,M,M,M,M,M,M,M,M,M,M,79.90,KTMT 012215Z AUTO 34009G14KT 10SM SCT070 27/10 A3032 RMK AO2 LTG DSNT N AND SE T02660098,M
CXP,2021-08-01 22:30,-119.7326,39.1923,1431.00,87.80,42.80,20.79,90.00,7.00,0.00,30.21,M,10.00,M,SCT,M,M,M,10000.00,M,M,M,M,M,M,M,M,M,M,84.40,KCXP 012230Z AUTO 09007KT 10SM SCT100 31/06 A3021 RMK AO2,M
BAM,2021-08-01 22:35,-116.8743,40.5990,1382.36,84.20,50.00,30.62,300.00,3.00,0.00,30.23,M,10.00,M,SCT,M,M,M,7000.00,M,M,M,M,M,M,M,M,M,M,82.24,KBAM 012235Z AUTO 30003KT 10SM SCT070 29/10 A3023 RMK AO1,M
MEV,2021-08-01 22:35,-119.7500,38.9963,1441.42,89.60,41.00,18.33,260.00,6.00,0.00,30.19,M,10.00,M,FEW,M,M,M,11000.00,M,M,M,M,M,M,M,M,M,M,85.82,KMEV 012235Z AUTO 26006KT 10SM FEW110 32/05 A3019 RMK AO2,M
RTS,2021-08-01 22:35,-119.8764,39.6682,1539.00,84.20,39.20,20.29,270.00,6.00,0.00,30.24,M,10.00,12.00,FEW,M,M,M,9000.00,M,M,M,M,M,M,M,M,M,M,81.44,KRTS 012235Z AUTO 27006G12KT 10SM FEW090 29/04 A3024 RMK AO2,M
TMT,2021-08-01 22:35,-117.1971,39.4643,1749.34,80.00,48.60,33.42,290.00,3.00,0.00,30.32,M,10.00,M,SCT,M,M,M,7000.00,M,M,M,M,M,M,M,M,M,M,79.90,KTMT 012235Z AUTO 29003KT 10SM SCT070 27/09 A3032 RMK AO2 LTG DSNT SE T02660092,M
HTH,2021-08-01 22:35,-118.6315,38.5448,1282.89,89.60,46.40,22.53,340.00,12.00,0.00,30.17,M,10.00,M,FEW,M,M,M,10000.00,M,M,M,M,M,M,M,M,M,M,86.24,KHTH 012235Z AUTO 34012KT 10SM FEW100 32/08 A3017 RMK A01,M
05U,2021-08-01 22:35,-116.0051,39.6042,1811.23,78.80,51.80,39.02,30.00,8.00,0.00,30.32,M,10.00,M,SCT,SCT,SCT,M,6000.00,7000.00,9000.00,M,M,M,M,M,M,M,M,78.80,K05U 012235Z AUTO 03008KT 10SM SCT060 SCT070 SCT090 26/11 A3032 RMK A01,M
BVU,2021-08-01 22:35,-114.8611,35.9475,671.00,98.60,55.40,23.81,M,4.00,0.00,30.02,M,10.00,M,CLR,M,M,M,M,M,M,M,M,M,M,M,M,M,M,97.09,KBVU 012235Z AUTO VRB04KT 10SM CLR 37/13 A3002 RMK AO2,M
CXP,2021-08-01 22:50,-119.7326,39.1923,1431.00,89.60,44.60,21.04,M,6.00,0.00,30.20,M,10.00,12.00,FEW,M,M,M,10000.00,M,M,M,M,M,M,M,M,M,M,86.07,KCXP 012250Z AUTO VRB06G12KT 10SM FEW100 32/07 A3020 RMK AO2,M
LOL,2021-08-01 22:53,-118.5701,40.0684,1192.43,90.00,49.00,24.44,190.00,8.00,0.00,30.15,1016.70,10.00,M,CLR,M,M,M,M,M,M,M,M,M,M,M,M,M,M,86.90,KLOL 012253Z AUTO 19008KT 10SM CLR 32/09 A3015 RMK AO2 SLP167 T03220094,M
ELY,2021-08-01 22:53,-114.8453,39.2950,1909.00,76.00,56.00,49.91,20.00,13.00,0.00,30.31,1017.30,10.00,17.00,CLR,M,M,M,M,M,M,M,M,M,M,M,M,M,M,75.90,KELY 012253Z AUTO 02013G17KT 10SM CLR 24/13 A3031 RMK AO2 LTG DSNT SW-NW SLP173 T02440133,M
P68,2021-08-01 22:53,-116.0056,39.6014,1993.00,76.00,54.00,46.57,10.00,8.00,0.00,30.30,1018.20,M,M,M,M,M,M,M,M,M,M,M,M,M,M,M,M,M,75.90,KP68 012253Z AUTO 01008KT 24/12 A3030 RMK AO1 SLP182 T02440122,M
DRA,2021-08-01 22:53,-116.0278,36.6206,1009.00,97.00,49.00,19.67,260.00,11.00,0.00,30.09,1013.10,10.00,17.00,BKN,M,M,M,10000.00,M,M,M,M,M,M,M,M,M,M,93.69,KDRA 012253Z AUTO 26011G17KT 200V340 10SM BKN100 36/09 A3009 RMK AO2 SLP131 T03610094,M
VGT,2021-08-01 22:53,-115.1933,36.2111,667.00,98.00,58.00,26.46,0.00,0.00,0.00,30.01,1014.70,10.00,M,CLR,M,M,M,M,M,M,M,M,M,M,M,M,M,M,97.49,KVGT 012253Z 00000KT 10SM CLR 37/14 A3001 RMK AO2 SLP147 T03670144 PNO,M
HTH,2021-08-01 22:55,-118.6315,38.5448,1282.89,87.80,46.40,23.85,320.00,13.00,0.00,30.19,M,10.00,M,FEW,M,M,M,10000.00,M,M,M,M,M,M,M,M,M,M,84.68,KHTH 012255Z AUTO 32013KT 10SM FEW100 31/08 A3019 RMK A01,M
BVU,2021-08-01 22:55,-114.8611,35.9475,671.00,98.60,55.40,23.81,0.00,0.00,0.00,30.01,M,10.00,M,CLR,M,M,M,M,M,M,M,M,M,M,M,M,M,M,97.09,KBVU 012255Z AUTO 00000KT 10SM CLR 37/13 A3001 RMK AO2,M
RNO,2021-08-01 22:55,-119.7711,39.4839,1341.00,89.00,46.00,22.54,M,5.00,0.00,30.16,1015.40,10.00,M,SCT,BKN,BKN,M,10000.00,14000.00,18000.00,M,M,M,M,M,M,M,M,85.76,KRNO 012255Z VRB05KT 10SM SCT100CB BKN140 BKN180 32/08 A3016 RMK AO2 SLP154 CB W AND NW MOV NE CB DSNT N AND S HZ ALQDS T03170078 PNO $,M
RTS,2021-08-01 22:55,-119.8764,39.6682,1539.00,84.20,39.20,20.29,M,5.00,0.00,30.24,M,10.00,12.00,CLR,M,M,M,M,M,M,M,M,M,M,M,M,M,M,81.44,KRTS 012255Z AUTO VRB05G12KT 10SM CLR 29/04 A3024 RMK AO2,M
MEV,2021-08-01 22:55,-119.7500,38.9963,1441.42,91.40,41.00,17.32,340.00,8.00,0.00,30.19,M,10.00,14.00,CLR,M,M,M,M,M,M,M,M,M,M,M,M,M,M,87.40,KMEV 012255Z AUTO 34008G14KT 10SM CLR 33/05 A3019 RMK AO2,M
BAM,2021-08-01 22:55,-116.8743,40.5990,1382.36,86.00,50.00,28.90,260.00,8.00,0.00,30.22,M,10.00,M,BKN,M,M,M,7000.00,M,M,M,M,M,M,M,M,M,M,83.62,KBAM 012255Z AUTO 26008KT 10SM BKN070 30/10 A3022 RMK AO1,M
05U,2021-08-01 22:55,-116.0051,39.6042,1811.23,77.00,53.60,44.25,360.00,7.00,0.00,30.33,M,10.00,M,FEW,FEW,BKN,M,6500.00,7500.00,10000.00,M,M,M,M,M,M,M,M,77.00,K05U 012255Z AUTO 36007KT 10SM FEW065 FEW075 BKN100 25/12 A3033 RMK A01,M
TMT,2021-08-01 22:55,-117.1971,39.4643,1749.34,80.20,47.00,31.28,0.00,0.00,0.00,30.31,M,10.00,M,CLR,M,M,M,M,M,M,M,M,M,M,M,M,M,M,79.40,KTMT 012255Z AUTO 00000KT 10SM CLR 27/08 A3031 RMK AO2 LTG DSNT E T02680084,M
TPH,2021-08-01 22:56,-117.0904,38.0505,1654.00,86.00,45.00,23.95,290.00,10.00,0.00,30.25,1016.70,10.00,M,FEW,M,M,M,9500.00,M,M,M,M,M,M,M,M,M,M,83.10,KTPH 012256Z AUTO 29010KT 10SM FEW095 30/07 A3025 RMK AO2 SLP167 T03000072,M
HND,2021-08-01 22:56,-115.1344,35.9729,742.79,99.00,59.00,26.78,M,5.00,0.00,30.05,1016.10,10.00,M,CLR,M,M,M,M,M,M,M,M,M,M,M,M,M,M,98.97,KHND 012256Z VRB05KT 10SM CLR 37/15 A3005 RMK AO2 SLP161 T03720150,M
NFL,2021-08-01 22:56,-118.7010,39.4166,1199.00,91.00,48.00,22.90,40.00,7.00,0.00,30.15,1017.40,8.00,M,SCT,SCT,M,M,9000.00,18000.00,M,M,M,M,M,M,M,M,M,87.69,KNFL 012256Z 04007KT 8SM SCT090 SCT180 33/09 A3015 RMK AO2 SLP174 CB DSNT SW-NW FU ALQDS T03280089 $,M
EKO,2021-08-01 22:56,-115.7860,40.8242,1367.00,80.00,52.00,37.67,280.00,11.00,0.00,30.25,1018.80,10.00,M,FEW,M,M,M,6000.00,M,M,M,M,M,M,M,M,M,M,79.81,KEKO 012256Z AUTO 28011KT 10SM FEW060 27/11 A3025 RMK AO2 SLP188 T02670111,M
WMC,2021-08-01 22:56,-117.8072,40.9019,1315.00,86.00,53.00,32.41,130.00,7.00,0.00,30.20,1017.60,10.00,M,CLR,M,M,M,M,M,M,M,M,M,M,M,M,M,M,84.09,KWMC 012256Z AUTO 13007KT 10SM CLR 30/12 A3020 RMK AO2 SLP176 T03000117,M
LAS,2021-08-01 22:56,-115.1634,36.0719,663.00,98.00,57.00,25.61,0.00,0.00,0.00,30.01,1013.30,10.00,M,FEW,FEW,SCT,M,11000.00,14000.00,25000.00,M,M,M,M,M,M,M,M,97.13,KLAS 012256Z 00000KT 10SM FEW110 FEW140 SCT250 37/14 A3001 RMK AO2 SLP133 T03670139,M
LSV,2021-08-01 22:58,-115.0343,36.2362,570.00,98.40,57.60,25.93,0.00,0.00,0.00,29.99,1012.90,10.00,M,CLR,M,M,M,M,M,M,M,M,M,M,M,M,M,M,97.70,KLSV 012258Z AUTO 00000KT 10SM CLR 37/14 A2999 RMK AO2 SLP129 T03690142 $,M
INS,2021-08-01 22:58,-115.6733,36.5872,955.00,94.00,52.70,24.91,90.00,6.00,0.00,30.08,1013.50,10.00,M,CLR,M,M,M,M,M,M,M,M,M,M,M,M,M,M,91.35,KINS 012258Z AUTO 09006KT 10SM CLR 34/12 A3008 RMK AO2 SLP135 T03440115 $,M
CXP,2021-08-01 23:10,-119.7326,39.1923,1431.00,89.60,42.80,19.64,120.00,7.00,0.00,30.20,M,10.00,M,CLR,M,M,M,M,M,M,M,M,M,M,M,M,M,M,85.93,KCXP 012310Z AUTO 12007KT 10SM CLR 32/06 A3020 RMK AO2,M
RTS,2021-08-01 23:15,-119.8764,39.6682,1539.00,86.00,39.20,19.15,210.00,7.00,0.00,30.24,M,10.00,M,CLR,M,M,M,M,M,M,M,M,M,M,M,M,M,M,82.79,KRTS 012315Z AUTO 21007KT 180V240 10SM CLR 30/04 A3024 RMK AO2,M
MEV,2021-08-01 23:15,-119.7500,38.9963,1441.42,89.60,39.20,17.09,0.00,0.00,0.00,30.18,M,10.00,M,FEW,M,M,M,11000.00,M,M,M,M,M,M,M,M,M,M,85.73,KMEV 012315Z AUTO 00000KT 10SM FEW110 32/04 A3018 RMK AO2,M
BAM,2021-08-01 23:15,-116.8743,40.5990,1382.36,86.00,50.00,28.90,260.00,5.00,0.00,30.21,M,10.00,M,SCT,M,M,M,7000.00,M,M,M,M,M,M,M,M,M,M,83.62,KBAM 012315Z AUTO 26005KT 10SM SCT070 30/10 A3021 RMK AO1,M
05U,2021-08-01 23:15,-116.0051,39.6042,1811.23,77.00,53.60,44.25,30.00,6.00,0.00,30.33,M,10.00,M,FEW,SCT,BKN,M,6000.00,7500.00,9500.00,M,M,M,M,M,M,M,M,77.00,K05U 012315Z AUTO 03006KT 10SM FEW060 SCT075 BKN095 25/12 A3033 RMK A01,M
HTH,2021-08-01 23:15,-118.6315,38.5448,1282.89,86.00,42.80,22.02,310.00,12.00,0.00,30.18,M,10.00,22.00,SCT,M,M,M,9500.00,M,M,M,M,M,M,M,M,M,M,82.95,KHTH 012315Z AUTO 31012G22KT 10SM SCT095 30/06 A3018 RMK A01,M
TMT,2021-08-01 23:15,-117.1971,39.4643,1749.34,80.60,47.00,30.87,360.00,10.00,0.00,30.31,M,10.00,M,CLR,M,M,M,M,M,M,M,M,M,M,M,M,M,M,79.62,KTMT 012315Z AUTO 36010KT 10SM CLR 27/08 A3031 RMK AO2 LTG DSNT NE THRU SE T02700084,M
BVU,2021-08-01 23:15,-114.8611,35.9475,671.00,98.60,55.40,23.81,330.00,7.00,0.00,30.00,M,10.00,12.00,CLR,M,M,M,M,M,M,M,M,M,M,M,M,M,M,97.09,KBVU 012315Z AUTO 33007G12KT 230V360 10SM CLR 37/13 A3000 RMK AO2,M
CXP,2021-08-01 23:30,-119.7326,39.1923,1431.00,91.40,42.80,18.56,120.00,8.00,0.00,30.19,M,10.00,M,CLR,M,M,M,M,M,M,M,M,M,M,M,M,M,M,87.52,KCXP 012330Z AUTO 12008KT 10SM CLR 33/06 A3019 RMK AO2,M
TMT,2021-08-01 23:35,-117.1971,39.4643,1749.34,78.60,46.20,31.87,0.00,0.00,0.00,30.31,M,10.00,M,SCT,M,M,M,8000.00,M,M,M,M,M,M,M,M,M,M,78.60,KTMT 012335Z AUTO 00000KT 10SM SCT080 26/08 A3031 RMK AO2 LTG DSNT NE AND SE T02590079,M
HTH,2021-08-01 23:35,-118.6315,38.5448,1282.89,84.20,44.60,24.99,290.00,7.00,0.00,30.17,M,10.00,M,CLR,M,M,M,M,M,M,M,M,M,M,M,M,M,M,81.73,KHTH 012335Z AUTO 29007KT 10SM CLR 29/07 A3017 RMK A01,M
BAM,2021-08-01 23:35,-116.8743,40.5990,1382.36,86.00,50.00,28.90,230.00,7.00,0.00,30.21,M,10.00,M,CLR,M,M,M,M,M,M,M,M,M,M,M,M,M,M,83.62,KBAM 012335Z AUTO 23007KT 10SM CLR 30/10 A3021 RMK AO1,M
MEV,2021-08-01 23:35,-119.7500,38.9963,1441.42,89.60,41.00,18.33,270.00,14.00,0.00,30.18,M,10.00,20.00,SCT,M,M,M,11000.00,M,M,M,M,M,M,M,M,M,M,85.82,KMEV 012335Z AUTO 27014G20KT 200V320 10SM SCT110 32/05 A3018 RMK AO2,M
RTS,2021-08-01 23:35,-119.8764,39.6682,1539.00,87.80,41.00,19.40,120.00,8.00,0.00,30.23,M,10.00,M,CLR,M,M,M,M,M,M,M,M,M,M,M,M,M,M,84.30,KRTS 012335Z AUTO 12008KT 10SM CLR 31/05 A3023 RMK AO2,M
BVU,2021-08-01 23:35,-114.8611,35.9475,671.00,98.60,55.40,23.81,310.00,9.00,0.00,30.00,M,10.00,M,CLR,M,M,M,M,M,M,M,M,M,M,M,M,M,M,97.09,KBVU 012335Z AUTO 31009KT 10SM CLR 37/13 A3000 RMK AO2,M
05U,2021-08-01 23:35,-116.0051,39.6042,1811.23,78.80,51.80,39.02,10.00,7.00,0.00,30.32,M,10.00,M,SCT,SCT,M,M,8000.00,9000.00,M,M,M,M,M,M,M,M,M,78.80,K05U 012335Z AUTO 01007KT 10SM SCT080 SCT090 26/11 A3032 RMK A01,M
CXP,2021-08-01 23:50,-119.7326,39.1923,1431.00,91.40,41.00,17.32,120.00,7.00,0.00,30.19,M,10.00,M,CLR,M,M,M,M,M,M,M,M,M,M,M,M,M,M,87.40,KCXP 012350Z AUTO 12007KT 10SM CLR 33/05 A3019 RMK AO2,M
LOL,2021-08-01 23:53,-118.5701,40.0684,1192.43,92.00,47.00,21.36,120.00,6.00,0.00,30.14,1016.20,10.00,M,CLR,M,M,M,M,M,M,M,M,M,M,M,M,M,M,88.39,KLOL 012353Z AUTO 12006KT 10SM CLR 33/08 A3014 RMK AO2 SLP162 T03330083 10333 20233 56020,M
ELY,2021-08-01 23:53,-114.8453,39.2950,1909.00,72.00,57.00,59.20,10.00,5.00,T,30.32,1018.00,10.00,M,SCT,OVC,M,M,7000.00,10000.00,M,M,-RA,M,M,M,M,M,M,72.00,KELY 012353Z AUTO 01005KT 10SM -RA SCT070 OVC100 22/14 A3032 RMK AO2 LTG DSNT SW-N RAB31 SLP180 P0000 60004 T02220139 10244 20200 55007,M
P68,2021-08-01 23:53,-116.0056,39.6014,1993.00,77.00,51.00,40.36,M,3.00,0.00,30.29,1017.70,M,M,M,M,M,M,M,M,M,M,M,M,M,M,M,M,M,77.00,KP68 012353Z AUTO VRB03KT 25/11 A3029 RMK AO1 SLP177 T02500106 10261 20200 56006,M
VGT,2021-08-01 23:53,-115.1933,36.2111,667.00,100.00,58.00,24.97,340.00,3.00,0.00,29.98,1013.90,10.00,M,CLR,M,M,M,M,M,M,M,M,M,M,M,M,M,M,99.61,KVGT 012353Z 34003KT 10SM CLR 38/14 A2998 RMK AO2 SLP139 6//// T03780144 10383 20339 56021 PNO,M
DRA,2021-08-01 23:53,-116.0278,36.6206,1009.00,97.00,48.00,19.02,220.00,6.00,0.00,30.07,1012.50,10.00,M,CLR,M,M,M,M,M,M,M,M,M,M,M,M,M,M,93.52,KDRA 012353Z AUTO 22006KT 10SM CLR 36/09 A3007 RMK AO2 SLP125 T03610089 10367 20311 56019,M
HTH,2021-08-01 23:55,-118.6315,38.5448,1282.89,84.20,42.80,23.33,300.00,4.00,0.00,30.16,M,10.00,M,SCT,M,M,M,11000.00,M,M,M,M,M,M,M,M,M,M,81.61,KHTH 012355Z AUTO 30004KT 10SM SCT110 29/06 A3016 RMK A01,M
05U,2021-08-01 23:55,-116.0051,39.6042,1811.23,77.00,51.80,41.42,0.00,0.00,0.00,30.32,M,10.00,M,FEW,SCT,SCT,M,6500.00,7500.00,9000.00,M,M,M,M,M,M,M,M,77.00,K05U 012355Z AUTO 00000KT 10SM FEW065 SCT075 SCT090 25/11 A3032 RMK A01,M
RTS,2021-08-01 23:55,-119.8764,39.6682,1539.00,86.00,41.00,20.54,120.00,7.00,0.00,30.22,M,10.00,M,CLR,M,M,M,M,M,M,M,M,M,M,M,M,M,M,82.86,KRTS 012355Z AUTO 12007KT 10SM CLR 30/05 A3022 RMK AO2,M
TMT,2021-08-01 23:55,-117.1971,39.4643,1749.34,81.00,46.40,29.68,340.00,5.00,0.00,30.30,M,10.00,M,BKN,M,M,M,8000.00,M,M,M,M,M,M,M,M,M,M,79.79,KTMT 012355Z AUTO 34005KT 10SM BKN080 27/08 A3030 RMK AO2 6//// T02720080,M
BAM,2021-08-01 23:55,-116.8743,40.5990,1382.36,86.00,50.00,28.90,220.00,8.00,0.00,30.21,M,10.00,M,CLR,M,M,M,M,M,M,M,M,M,M,M,M,M,M,83.62,KBAM 012355Z AUTO 22008KT 10SM CLR 30/10 A3021 RMK AO1,M
BVU,2021-08-01 23:55,-114.8611,35.9475,671.00,98.60,53.60,22.29,350.00,6.00,0.00,29.99,M,10.00,M,CLR,M,M,M,M,M,M,M,M,M,M,M,M,M,M,96.51,KBVU 012355Z AUTO 35006KT 10SM CLR 37/12 A2999 RMK AO2,M
MEV,2021-08-01 23:55,-119.7500,38.9963,1441.42,89.60,42.80,19.64,250.00,9.00,0.00,30.18,M,10.00,M,BKN,M,M,M,10000.00,M,M,M,M,M,M,M,M,M,M,85.93,KMEV 012355Z AUTO 25009KT 10SM BKN100 32/06 A3018 RMK AO2,M
RNO,2021-08-01 23:55,-119.7711,39.4839,1341.00,90.00,46.00,21.91,30.00,9.00,0.00,30.15,1015.00,10.00,M,BKN,BKN,BKN,M,10000.00,14000.00,18000.00,M,M,M,M,M,M,M,M,86.55,KRNO 012355Z 03009KT 10SM BKN100CB BKN140 BKN180 32/08 A3015 RMK AO2 LTG DSNT N SLP150 CB NE THRU SE MOV NE HZ SW THRU NW T03220078 10333 20267 56012 PNO $,M
HND,2021-08-01 23:56,-115.1344,35.9729,742.79,98.00,58.00,26.46,0.00,0.00,0.00,30.03,1015.50,10.00,M,CLR,M,M,M,M,M,M,M,M,M,M,M,M,M,M,97.49,KHND 012356Z 00000KT 10SM CLR 37/14 A3003 RMK AO2 SLP155 T03670144 10372 20317 56021,M
TPH,2021-08-01 23:56,-117.0904,38.0505,1654.00,87.00,44.00,22.34,330.00,7.00,0.00,30.24,1015.90,10.00,15.00,CLR,M,M,M,M,M,M,M,M,M,M,M,M,M,M,83.91,KTPH 012356Z AUTO 33007G15KT 290V350 10SM CLR 31/07 A3024 RMK AO2 SLP159 T03060067 10306 20239 56015,M
LAS,2021-08-01 23:56,-115.1634,36.0719,663.00,99.00,56.00,23.95,0.00,0.00,0.00,29.99,1012.50,10.00,M,FEW,FEW,M,M,11000.00,25000.00,M,M,M,M,M,M,M,M,M,97.71,KLAS 012356Z 00000KT 10SM FEW110 FEW250 37/13 A2999 RMK AO2 SLP125 TCU DSNT NW T03720133 10383 20328 56023,M
NFL,2021-08-01 23:56,-118.7010,39.4166,1199.00,92.00,48.00,22.26,M,5.00,0.00,30.14,1017.10,8.00,M,SCT,SCT,M,M,9000.00,18000.00,M,M,M,M,M,M,M,M,M,88.53,KNFL 012356Z VRB05KT 8SM SCT090 SCT180 33/09 A3014 RMK AO2 SLP171 CB DSNT SW-NW FU ALQDS T03330089 56018 $,M
EKO,2021-08-01 23:56,-115.7860,40.8242,1367.00,79.00,55.00,43.59,220.00,9.00,0.00,30.24,1018.80,10.00,M,FEW,M,M,M,12000.00,M,M,M,M,M,M,M,M,M,M,79.00,KEKO 012356Z AUTO 22009KT 10SM FEW120 26/13 A3024 RMK AO2 LTG DSNT N AND NW SLP188 T02610128 10278 20222 56008,M
WMC,2021-08-01 23:56,-117.8072,40.9019,1315.00,87.00,51.00,29.07,110.00,4.00,0.00,30.18,1016.90,10.00,M,CLR,M,M,M,M,M,M,M,M,M,M,M,M,M,M,84.67,KWMC 012356Z AUTO 11004KT 10SM CLR 31/11 A3018 RMK AO2 SLP169 T03060106 10311 20239 58017,M
INS,2021-08-01 23:58,-115.6733,36.5872,955.00,94.30,51.80,23.80,0.00,0.00,0.00,30.06,1012.70,10.00,M,CLR,M,M,M,M,M,M,M,M,M,M,M,M,M,M,91.55,KINS 012358Z AUTO 00000KT 10SM CLR 35/11 A3006 RMK AO2 SLP127 T03460110 10349 20285 57023 $,M
LSV,2021-08-01 23:58,-115.0343,36.2362,570.00,99.30,53.80,21.98,0.00,0.00,0.00,29.96,1011.80,10.00,M,CLR,M,M,M,M,M,M,M,M,M,M,M,M,M,M,97.32,KLSV 012358Z AUTO 00000KT 10SM CLR 37/12 A2996 RMK AO2 SLP118 60000 T03740121 10380 20338 57020 $,M
