station,valid,lon,lat,elevation,tmpf,dwpf,relh,drct,sknt,p01i,alti,mslp,vsby,gust,skyc1,skyc2,skyc3,skyc4,skyl1,skyl2,skyl3,skyl4,wxcodes,ice_accretion_1hr,ice_accretion_3hr,ice_accretion_6hr,peak_wind_gust,peak_wind_drct,peak_wind_time,feel,metar,snowdepth
05U,2024-09-20 00:10,-116.0051,39.6042,1811.23,68.00,30.20,24.32,0.00,0.00,0.00,30.01,M,10.00,11.00,CLR,M,M,M,M,M,M,M,M,M,M,M,M,M,M,68.00,K05U 200010Z AUTO 00000G11KT 10SM CLR 20/M01 A3001 RMK A01,M
BVU,2024-09-20 00:15,-114.8611,35.9475,671.00,86.00,23.00,9.94,180.00,12.00,0.00,29.77,M,10.00,M,CLR,M,M,M,M,M,M,M,M,M,M,M,M,M,M,82.14,KBVU 200015Z AUTO 18012KT 10SM CLR 30/M05 A2977 RMK AO2,M
CXP,2024-09-20 00:15,-119.7326,39.1923,1431.00,69.80,37.40,30.49,30.00,5.00,0.00,29.98,M,10.00,11.00,CLR,M,M,M,M,M,M,M,M,M,M,M,M,M,M,69.80,KCXP 200015Z AUTO 03005G11KT 10SM CLR 21/03 A2998 RMK AO2,M
RTS,2024-09-20 00:15,-119.8764,39.6682,1539.00,62.60,41.00,45.04,340.00,8.00,0.00,30.01,M,10.00,M,FEW,FEW,SCT,M,4900.00,5500.00,6500.00,M,-DZ,M,M,M,M,M,M,62.60,KRTS 200015Z AUTO 34008KT 10SM -DZ FEW049 FEW055 SCT065 17/05 A3001 RMK AO2,M
MEV,2024-09-20 00:15,-119.7500,38.9963,1441.42,62.60,46.40,55.37,0.00,0.00,0.00,29.98,M,10.00,M,FEW,M,M,M,11000.00,M,M,M,M,M,M,M,M,M,M,62.60,KMEV 200015Z AUTO 00000KT 10SM FEW110 17/08 A2998 RMK AO2,M
BAM,2024-09-20 00:15,-116.8743,40.5990,1382.36,73.40,33.80,23.39,260.00,4.00,0.00,29.95,M,10.00,M,CLR,M,M,M,M,M,M,M,M,M,M,M,M,M,M,73.40,KBAM 200015Z AUTO 26004KT 10SM CLR 23/01 A2995 RMK AO1,M
HTH,2024-09-20 00:15,-118.6315,38.5448,1282.89,66.20,48.20,52.25,310.00,11.00,0.00,29.95,M,10.00,M,CLR,M,M,M,M,M,M,M,M,M,M,M,M,M,M,66.20,KHTH 200015Z AUTO 31011KT 10SM CLR 19/09 A2995 RMK A01,M
TMT,2024-09-20 00:15,-117.1971,39.4643,1749.34,62.80,42.00,46.49,320.00,13.00,0.00,30.03,M,10.00,M,SCT,SCT,BKN,M,5000.00,7000.00,10000.00,M,M,M,M,M,M,M,M,62.80,KTMT 200015Z AUTO 32013KT 10SM SCT050 SCT070 BKN100 17/06 A3003 RMK AO2 T01710055,M
10U,2024-09-20 00:15,-116.1876,41.9532,1637.00,68.00,35.60,30.20,340.00,4.00,0.00,30.01,M,10.00,M,SCT,M,M,M,10000.00,M,M,M,VCTS,M,M,M,M,M,M,68.00,K10U 200015Z AUTO 34004KT 10SM VCTS SCT100 20/02 A3001 RMK AO2 LTG DSNT E AND S,M
05U,2024-09-20 00:30,-116.0051,39.6042,1811.23,66.20,33.80,29.92,0.00,0.00,0.00,30.01,M,10.00,M,CLR,M,M,M,M,M,M,M,M,M,M,M,M,M,M,66.20,K05U 200030Z AUTO 00000KT 10SM CLR 19/01 A3001 RMK A01,M
BVU,2024-09-20 00:35,-114.8611,35.9475,671.00,86.00,23.00,9.94,190.00,8.00,0.00,29.77,M,10.00,14.00,CLR,M,M,M,M,M,M,M,M,M,M,M,M,M,M,82.14,KBVU 200035Z AUTO 19008G14KT 10SM CLR 30/M05 A2977 RMK AO2,M
CXP,2024-09-20 00:35,-119.7326,39.1923,1431.00,69.80,35.60,28.39,70.00,8.00,0.00,29.99,M,10.00,M,CLR,M,M,M,M,M,M,M,M,M,M,M,M,M,M,69.80,KCXP 200035Z AUTO 07008KT 10SM CLR 21/02 A2999 RMK AO2,M
RTS,2024-09-20 00:35,-119.8764,39.6682,1539.00,64.40,41.00,42.28,0.00,0.00,0.00,30.01,M,10.00,M,FEW,FEW,BKN,M,5500.00,9000.00,12000.00,M,M,M,M,M,M,M,M,64.40,KRTS 200035Z AUTO 00000KT 10SM FEW055 FEW090 BKN120 18/05 A3001 RMK AO2,M
MEV,2024-09-20 00:35,-119.7500,38.9963,1441.42,59.00,51.80,76.98,200.00,5.00,0.00,29.98,M,10.00,M,CLR,M,M,M,M,M,M,M,M,M,M,M,M,M,M,59.00,KMEV 200035Z AUTO 20005KT 10SM CLR 15/11 A2998 RMK AO2,M
BAM,2024-09-20 00:35,-116.8743,40.5990,1382.36,73.40,33.80,23.39,260.00,3.00,0.00,29.95,M,10.00,M,CLR,M,M,M,M,M,M,M,M,M,M,M,M,M,M,73.40,KBAM 200035Z AUTO 26003KT 10SM CLR 23/01 A2995 RMK AO1,M
HTH,2024-09-20 00:35,-118.6315,38.5448,1282.89,66.20,48.20,52.25,320.00,11.00,0.00,29.96,M,10.00,M,FEW,M,M,M,7000.00,M,M,M,M,M,M,M,M,M,M,66.20,KHTH 200035Z AUTO 32011KT 10SM FEW070 19/09 A2996 RMK A01,M
TMT,2024-09-20 00:35,-117.1971,39.4643,1749.34,60.30,41.50,49.82,330.00,11.00,0.00,30.03,M,10.00,M,BKN,M,M,M,9000.00,M,M,M,M,M,M,M,M,M,M,60.30,KTMT 200035Z AUTO 33011KT 10SM BKN090 16/05 A3003 RMK AO2 T01570053,M
10U,2024-09-20 00:35,-116.1876,41.9532,1637.00,68.00,39.20,34.80,200.00,8.00,0.00,30.02,M,10.00,M,BKN,BKN,M,M,8000.00,9500.00,M,M,-DZ,M,M,M,M,M,M,68.00,K10U 200035Z AUTO 20008KT 10SM -DZ BKN080 BKN095 20/04 A3002 RMK AO2,M
05U,2024-09-20 00:50,-116.0051,39.6042,1811.23,66.20,33.80,29.92,0.00,0.00,0.00,30.01,M,10.00,M,FEW,M,M,M,9000.00,M,M,M,M,M,M,M,M,M,M,66.20,K05U 200050Z AUTO 00000KT 10SM FEW090 19/01 A3001 RMK A01,M
P68,2024-09-20 00:53,-116.0056,39.6014,1993.00,67.00,34.00,29.33,20.00,8.00,0.00,29.99,1010.10,M,M,M,M,M,M,M,M,M,M,M,M,M,M,M,M,M,67.00,KP68 200053Z AUTO 02008KT 19/01 A2999 RMK AO1 SLP101 T01940011,M
DRA,2024-09-20 00:53,-116.0278,36.6206,1009.00,82.00,31.00,15.73,260.00,5.00,0.00,29.81,1005.40,10.00,M,BKN,M,M,M,12000.00,M,M,M,M,M,M,M,M,M,M,79.71,KDRA 200053Z AUTO 26005KT 10SM BKN120 28/M01 A2981 RMK AO2 SLP054 T02781006,M
ELY,2024-09-20 00:53,-114.8453,39.2950,1909.00,67.00,29.00,23.97,150.00,10.00,0.00,30.01,1010.60,10.00,M,FEW,M,M,M,10000.00,M,M,M,M,M,M,M,26.00,170.00,2024-09-20 00:33,67.00,KELY 200053Z AUTO 15010KT 10SM FEW100 19/M02 A3001 RMK AO2 PK WND 17026/0033 SLP106 T01941017,M
VGT,2024-09-20 00:53,-115.1933,36.2111,667.00,87.00,23.00,9.63,140.00,9.00,0.00,29.77,1007.60,10.00,M,CLR,M,M,M,M,M,M,M,M,M,M,M,M,M,M,82.86,KVGT 200053Z 14009KT 10SM CLR 31/M05 A2977 RMK AO2 SLP076 T03061050,M
LOL,2024-09-20 00:53,-118.5701,40.0684,1192.43,72.00,42.00,33.84,90.00,6.00,0.00,29.95,1011.60,10.00,M,CLR,M,M,M,M,M,M,M,M,M,M,M,M,M,M,72.00,KLOL 200053Z AUTO 09006KT 10SM CLR 22/06 A2995 RMK AO2 SLP116 T02220056,M
BVU,2024-09-20 00:55,-114.8611,35.9475,671.00,86.00,26.60,11.55,190.00,15.00,0.00,29.77,M,10.00,M,CLR,M,M,M,M,M,M,M,M,M,M,M,M,M,M,82.39,KBVU 200055Z AUTO 19015KT 10SM CLR 30/M03 A2977 RMK AO2,M
RNO,2024-09-20 00:55,-119.7711,39.4839,1341.00,72.00,38.00,28.96,40.00,11.00,0.00,29.96,1010.80,10.00,M,BKN,BKN,M,M,8000.00,20000.00,M,M,M,M,M,M,M,M,M,72.00,KRNO 200055Z 04011KT 10SM BKN080 BKN200 22/03 A2996 RMK AO2 SLP108 TCU DSNT SE THRU S T02220033,M
CXP,2024-09-20 00:55,-119.7326,39.1923,1431.00,69.80,33.80,26.43,50.00,9.00,0.00,29.99,M,10.00,M,CLR,M,M,M,M,M,M,M,M,M,M,M,M,M,M,69.80,KCXP 200055Z AUTO 05009KT 10SM CLR 21/01 A2999 RMK AO2,M
INS,2024-09-20 00:55,-115.6733,36.5872,955.00,80.80,19.00,9.92,110.00,17.00,0.00,29.81,1005.70,10.00,M,CLR,M,M,M,M,M,M,M,M,M,M,M,M,M,M,78.39,KINS 200055Z AUTO 11017KT 10SM CLR 27/M07 A2981 RMK AO2 SLP057 T02711072,M
RTS,2024-09-20 00:55,-119.8764,39.6682,1539.00,66.20,35.60,32.14,0.00,0.00,0.00,30.01,M,10.00,M,FEW,M,M,M,11000.00,M,M,M,M,M,M,M,M,M,M,66.20,KRTS 200055Z AUTO 00000KT 10SM FEW110 19/02 A3001 RMK AO2,M
MEV,2024-09-20 00:55,-119.7500,38.9963,1441.42,59.00,50.00,72.01,230.00,6.00,0.00,29.97,M,10.00,M,CLR,M,M,M,M,M,M,M,M,M,M,M,M,M,M,59.00,KMEV 200055Z AUTO 23006KT 10SM CLR 15/10 A2997 RMK AO2,M
BAM,2024-09-20 00:55,-116.8743,40.5990,1382.36,73.40,33.80,23.39,280.00,3.00,0.00,29.96,M,10.00,M,SCT,M,M,M,11000.00,M,M,M,M,M,M,M,M,M,M,73.40,KBAM 200055Z AUTO 28003KT 10SM SCT110 23/01 A2996 RMK AO1,M
HTH,2024-09-20 00:55,-118.6315,38.5448,1282.89,66.20,48.20,52.25,310.00,11.00,0.00,29.95,M,10.00,M,SCT,M,M,M,7000.00,M,M,M,M,M,M,M,M,M,M,66.20,KHTH 200055Z AUTO 31011KT 10SM SCT070 19/09 A2995 RMK A01,M
TMT,2024-09-20 00:55,-117.1971,39.4643,1749.34,59.70,42.30,52.49,350.00,7.00,0.00,30.04,M,10.00,M,BKN,M,M,M,10000.00,M,M,M,M,M,M,M,M,M,M,59.70,KTMT 200055Z AUTO 35007KT 10SM BKN100 15/06 A3004 RMK AO2 T01540057,M
10U,2024-09-20 00:55,-116.1876,41.9532,1637.00,64.40,41.00,42.28,210.00,12.00,0.00,30.03,M,10.00,17.00,BKN,OVC,M,M,7500.00,10000.00,M,M,M,M,M,M,M,M,M,64.40,K10U 200055Z AUTO 21012G17KT 10SM BKN075 OVC100 18/05 A3003 RMK AO2,M
LSV,2024-09-20 00:55,-115.0343,36.2362,570.00,87.30,15.60,6.95,170.00,5.00,0.00,29.72,1004.20,10.00,M,CLR,M,M,M,M,M,M,M,M,M,M,M,M,M,M,82.70,KLSV 200055Z AUTO 17005KT 10SM CLR 31/M09 A2972 RMK AO2 SLP042 T03071091 $,M
EKO,2024-09-20 00:56,-115.7860,40.8242,1367.00,72.00,35.00,25.73,120.00,7.00,0.00,29.96,1010.80,10.00,M,OVC,M,M,M,10000.00,M,M,M,M,M,M,M,M,M,M,72.00,KEKO 200056Z AUTO 12007KT 10SM OVC100 22/02 A2996 RMK AO2 SLP108 T02220017,M
WMC,2024-09-20 00:56,-117.8072,40.9019,1315.00,74.00,34.00,23.11,10.00,4.00,0.00,29.95,1011.30,10.00,M,CLR,M,M,M,M,M,M,M,M,M,M,M,M,M,M,74.00,KWMC 200056Z AUTO 01004KT 10SM CLR 23/01 A2995 RMK AO2 SLP113 T02330011,M
HND,2024-09-20 00:56,-115.1344,35.9729,742.79,84.00,32.00,15.35,150.00,10.00,0.00,29.81,1008.90,10.00,M,CLR,M,M,M,M,M,M,M,M,M,M,M,M,M,M,81.13,KHND 200056Z 15010KT 10SM CLR 29/00 A2981 RMK AO2 SLP089 T02890000,M
TPH,2024-09-20 00:56,-117.0904,38.0505,1654.00,71.00,22.00,15.62,150.00,9.00,0.00,29.94,1008.70,10.00,M,SCT,M,M,M,12000.00,M,M,M,M,M,M,M,M,M,M,71.00,KTPH 200056Z AUTO 15009KT 10SM SCT120 22/M06 A2994 RMK AO2 SLP087 T02171056,M
LAS,2024-09-20 00:56,-115.1634,36.0719,663.00,85.00,25.00,11.16,150.00,5.00,0.00,29.78,1006.30,10.00,M,FEW,FEW,M,M,12000.00,15000.00,M,M,M,M,M,M,M,M,M,81.57,KLAS 200056Z 15005KT 10SM FEW120 FEW150 29/M04 A2978 RMK AO2 SLP063 T02941039,M
NFL,2024-09-20 00:57,-118.7010,39.4166,1199.00,72.00,47.00,40.94,330.00,5.00,0.00,29.94,1011.10,10.00,M,SCT,SCT,BKN,M,6000.00,12000.00,18000.00,M,M,M,M,M,M,M,M,72.00,KNFL 200057Z 33005KT 10SM SCT060 SCT120 BKN180 22/08 A2994 RMK AO2 SLP111 CB DSNT ALQDS T02220083,M
05U,2024-09-20 01:10,-116.0051,39.6042,1811.23,64.40,33.80,31.85,80.00,5.00,0.00,30.02,M,10.00,12.00,BKN,M,M,M,9000.00,M,M,M,M,M,M,M,M,M,M,64.40,K05U 200110Z AUTO 08005G12KT 10SM BKN090 18/01 A3002 RMK A01,M
BVU,2024-09-20 01:15,-114.8611,35.9475,671.00,84.20,28.40,13.18,180.00,8.00,0.00,29.77,M,10.00,M,CLR,M,M,M,M,M,M,M,M,M,M,M,M,M,M,81.25,KBVU 200115Z AUTO 18008KT 10SM CLR 29/M02 A2977 RMK AO2,M
CXP,2024-09-20 01:15,-119.7326,39.1923,1431.00,69.80,33.80,26.43,60.00,7.00,0.00,29.99,M,10.00,M,CLR,M,M,M,M,M,M,M,M,M,M,M,M,M,M,69.80,KCXP 200115Z AUTO 06007KT 10SM CLR 21/01 A2999 RMK AO2,M
RTS,2024-09-20 01:15,-119.8764,39.6682,1539.00,66.20,39.20,37.03,80.00,9.00,0.00,30.02,M,10.00,M,CLR,M,M,M,M,M,M,M,M,M,M,M,M,M,M,66.20,KRTS 200115Z AUTO 08009KT 10SM CLR 19/04 A3002 RMK AO2,M
MEV,2024-09-20 01:15,-119.7500,38.9963,1441.42,59.00,51.80,76.98,0.00,0.00,0.00,29.98,M,10.00,M,CLR,M,M,M,M,M,M,M,M,M,M,M,M,M,M,59.00,KMEV 200115Z AUTO 00000KT 10SM CLR 15/11 A2998 RMK AO2,M
BAM,2024-09-20 01:15,-116.8743,40.5990,1382.36,73.40,35.60,25.13,310.00,6.00,0.00,29.96,M,10.00,M,SCT,M,M,M,11000.00,M,M,M,M,M,M,M,M,M,M,73.40,KBAM 200115Z AUTO 31006KT 10SM SCT110 23/02 A2996 RMK AO1,M
HTH,2024-09-20 01:15,-118.6315,38.5448,1282.89,66.20,48.20,52.25,310.00,7.00,0.00,29.95,M,10.00,13.00,FEW,FEW,M,M,7000.00,12000.00,M,M,M,M,M,M,M,M,M,66.20,KHTH 200115Z AUTO 31007G13KT 10SM FEW070 FEW120 19/09 A2995 RMK A01,M
TMT,2024-09-20 01:15,-117.1971,39.4643,1749.34,57.70,42.30,56.38,340.00,4.00,0.00,30.03,M,10.00,M,SCT,M,M,M,10000.00,M,M,M,M,M,M,M,M,M,M,57.70,KTMT 200115Z AUTO 34004KT 10SM SCT100 14/06 A3003 RMK AO2 T01430057,M
10U,2024-09-20 01:15,-116.1876,41.9532,1637.00,64.40,39.20,39.43,210.00,10.00,0.00,30.03,M,10.00,M,FEW,BKN,M,M,8000.00,11000.00,M,M,M,M,M,M,M,M,M,64.40,K10U 200115Z AUTO 21010KT 10SM FEW080 BKN110 18/04 A3003 RMK AO2,M
05U,2024-09-20 01:30,-116.0051,39.6042,1811.23,62.60,32.00,31.56,0.00,0.00,0.00,30.02,M,10.00,M,BKN,OVC,M,M,9000.00,11000.00,M,M,M,M,M,M,M,M,M,62.60,K05U 200130Z AUTO 00000KT 10SM BKN090 OVC110 17/00 A3002 RMK A01,M
BVU,2024-09-20 01:35,-114.8611,35.9475,671.00,82.40,30.20,15.03,190.00,8.00,0.00,29.77,M,10.00,13.00,CLR,M,M,M,M,M,M,M,M,M,M,M,M,M,M,79.97,KBVU 200135Z AUTO 19008G13KT 10SM CLR 28/M01 A2977 RMK AO2,M
CXP,2024-09-20 01:35,-119.7326,39.1923,1431.00,68.00,35.60,30.20,50.00,8.00,0.00,29.99,M,10.00,M,CLR,M,M,M,M,M,M,M,M,M,M,M,M,M,M,68.00,KCXP 200135Z AUTO 05008KT 10SM CLR 20/02 A2999 RMK AO2,M
RTS,2024-09-20 01:35,-119.8764,39.6682,1539.00,64.40,37.40,36.74,30.00,9.00,0.00,30.01,M,10.00,15.00,CLR,M,M,M,M,M,M,M,M,M,M,M,M,M,M,64.40,KRTS 200135Z AUTO 03009G15KT 10SM CLR 18/03 A3001 RMK AO2,M
MEV,2024-09-20 01:35,-119.7500,38.9963,1441.42,59.00,50.00,72.01,220.00,4.00,0.00,29.98,M,10.00,M,CLR,M,M,M,M,M,M,M,M,M,M,M,M,M,M,59.00,KMEV 200135Z AUTO 22004KT 10SM CLR 15/10 A2998 RMK AO2,M
BAM,2024-09-20 01:35,-116.8743,40.5990,1382.36,71.60,35.60,26.71,300.00,4.00,0.00,29.96,M,10.00,M,SCT,M,M,M,11000.00,M,M,M,M,M,M,M,M,M,M,71.60,KBAM 200135Z AUTO 30004KT 10SM SCT110 22/02 A2996 RMK AO1,M
HTH,2024-09-20 01:35,-118.6315,38.5448,1282.89,66.20,46.40,48.83,310.00,10.00,0.00,29.96,M,10.00,M,CLR,M,M,M,M,M,M,M,M,M,M,M,M,M,M,66.20,KHTH 200135Z AUTO 31010KT 10SM CLR 19/08 A2996 RMK A01,M
TMT,2024-09-20 01:35,-117.1971,39.4643,1749.34,55.20,42.30,61.72,80.00,4.00,0.00,30.04,M,10.00,M,CLR,M,M,M,M,M,M,M,M,M,M,M,M,M,M,55.20,KTMT 200135Z AUTO 08004KT 10SM CLR 13/06 A3004 RMK AO2 T01290057,M
10U,2024-09-20 01:35,-116.1876,41.9532,1637.00,62.60,41.00,45.04,200.00,7.00,0.00,30.03,M,10.00,M,SCT,M,M,M,12000.00,M,M,M,M,M,M,M,M,M,M,62.60,K10U 200135Z AUTO 20007KT 10SM SCT120 17/05 A3003 RMK AO2,M
05U,2024-09-20 01:50,-116.0051,39.6042,1811.23,62.60,32.00,31.56,0.00,0.00,0.00,30.02,M,10.00,M,BKN,OVC,M,M,9000.00,11000.00,M,M,M,M,M,M,M,M,M,62.60,K05U 200150Z AUTO 00000KT 10SM BKN090 OVC110 17/M00 A3002 RMK A01,M
P68,2024-09-20 01:53,-116.0056,39.6014,1993.00,63.00,32.00,31.12,160.00,6.00,0.00,29.99,1010.60,M,M,M,M,M,M,M,M,M,M,M,M,M,M,M,M,M,63.00,KP68 200153Z AUTO 16006KT 17/00 A2999 RMK AO1 SLP106 T01720000,M
DRA,2024-09-20 01:53,-116.0278,36.6206,1009.00,80.00,28.00,14.85,80.00,7.00,0.00,29.82,1005.60,10.00,M,SCT,M,M,M,12000.00,M,M,M,M,M,M,M,M,M,M,78.40,KDRA 200153Z AUTO 08007KT 10SM SCT120 27/M02 A2982 RMK AO2 SLP056 T02671022,M
ELY,2024-09-20 01:53,-114.8453,39.2950,1909.00,61.00,27.00,27.24,180.00,4.00,0.00,30.02,1011.90,10.00,M,SCT,M,M,M,11000.00,M,M,M,M,M,M,M,M,M,M,61.00,KELY 200153Z AUTO 18004KT 10SM SCT110 16/M03 A3002 RMK AO2 SLP119 T01611028,M
VGT,2024-09-20 01:53,-115.1933,36.2111,667.00,85.00,26.00,11.63,160.00,6.00,0.00,29.77,1007.50,10.00,M,CLR,M,M,M,M,M,M,M,M,M,M,M,M,M,M,81.64,KVGT 200153Z 16006KT 10SM CLR 29/M03 A2977 RMK AO2 SLP075 T02941033,M
LOL,2024-09-20 01:53,-118.5701,40.0684,1192.43,69.00,41.00,36.06,60.00,11.00,0.00,29.96,1012.20,10.00,16.00,CLR,M,M,M,M,M,M,M,M,M,M,M,M,M,M,69.00,KLOL 200153Z AUTO 06011G16KT 10SM CLR 21/05 A2996 RMK AO2 SLP122 T02060050,M
BVU,2024-09-20 01:55,-114.8611,35.9475,671.00,82.40,28.40,13.96,170.00,7.00,0.00,29.77,M,10.00,M,CLR,M,M,M,M,M,M,M,M,M,M,M,M,M,M,79.94,KBVU 200155Z AUTO 17007KT 10SM CLR 28/M02 A2977 RMK AO2,M
RNO,2024-09-20 01:55,-119.7711,39.4839,1341.00,68.00,40.00,35.90,350.00,6.00,0.00,29.98,1012.00,10.00,M,SCT,BKN,M,M,8000.00,20000.00,M,M,M,M,M,M,M,M,M,68.00,KRNO 200155Z 35006KT 10SM SCT080 BKN200 20/04 A2998 RMK AO2 SLP120 VIRGA TCU DSNT SE T02000044,M
CXP,2024-09-20 01:55,-119.7326,39.1923,1431.00,66.20,39.20,37.03,50.00,10.00,0.00,30.00,M,10.00,M,CLR,M,M,M,M,M,M,M,M,M,M,M,M,M,M,66.20,KCXP 200155Z AUTO 05010KT 10SM CLR 19/04 A3000 RMK AO2,M
RTS,2024-09-20 01:55,-119.8764,39.6682,1539.00,62.60,39.20,42.00,60.00,7.00,0.00,30.02,M,10.00,M,CLR,M,M,M,M,M,M,M,M,M,M,M,M,M,M,62.60,KRTS 200155Z AUTO 06007KT 10SM CLR 17/04 A3002 RMK AO2,M
MEV,2024-09-20 01:55,-119.7500,38.9963,1441.42,53.60,50.00,87.56,150.00,7.00,0.00,29.99,M,10.00,M,CLR,M,M,M,M,M,M,M,M,M,M,M,M,M,M,53.60,KMEV 200155Z AUTO 15007KT 10SM CLR 12/10 A2999 RMK AO2,M
BAM,2024-09-20 01:55,-116.8743,40.5990,1382.36,68.00,37.40,32.43,250.00,7.00,0.00,29.97,M,10.00,M,CLR,M,M,M,M,M,M,M,M,M,M,M,M,M,M,68.00,KBAM 200155Z AUTO 25007KT 10SM CLR 20/03 A2997 RMK AO1,M
HTH,2024-09-20 01:55,-118.6315,38.5448,1282.89,66.20,46.40,48.83,340.00,5.00,0.00,29.96,M,10.00,M,SCT,SCT,M,M,8500.00,10000.00,M,M,M,M,M,M,M,M,M,66.20,KHTH 200155Z AUTO 34005KT 10SM SCT085 SCT100 19/08 A2996 RMK A01,M
TMT,2024-09-20 01:55,-117.1971,39.4643,1749.34,52.00,43.70,73.22,100.00,4.00,0.00,30.05,M,10.00,M,SCT,M,M,M,11000.00,M,M,M,M,M,M,M,M,M,M,52.00,KTMT 200155Z AUTO 10004KT 10SM SCT110 11/07 A3005 RMK AO2 T01110065,M
10U,2024-09-20 01:55,-116.1876,41.9532,1637.00,62.60,37.40,39.14,220.00,5.00,0.00,30.02,M,10.00,M,SCT,M,M,M,12000.00,M,M,M,M,M,M,M,M,M,M,62.60,K10U 200155Z AUTO 22005KT 10SM SCT120 17/03 A3002 RMK AO2,M
INS,2024-09-20 01:55,-115.6733,36.5872,955.00,78.40,15.00,9.03,120.00,8.00,0.00,29.81,1005.70,10.00,M,CLR,M,M,M,M,M,M,M,M,M,M,M,M,M,M,78.40,KINS 200155Z AUTO 12008KT 10SM CLR 26/M09 A2981 RMK AO2 SLP057 T02581095,M
LSV,2024-09-20 01:55,-115.0343,36.2362,570.00,85.60,25.00,10.95,180.00,10.00,0.00,29.72,1004.20,10.00,M,SCT,M,M,M,16000.00,M,M,M,M,M,M,M,M,M,M,81.99,KLSV 200155Z AUTO 18010KT 10SM SCT160 30/M04 A2972 RMK AO2 SLP042 T02981038 $,M
EKO,2024-09-20 01:56,-115.7860,40.8242,1367.00,66.00,40.00,38.47,270.00,3.00,0.00,29.96,1011.30,10.00,M,OVC,M,M,M,11000.00,M,M,M,M,M,M,M,M,M,M,66.00,KEKO 200156Z AUTO 27003KT 10SM OVC110 19/04 A2996 RMK AO2 SLP113 T01890044,M
WMC,2024-09-20 01:56,-117.8072,40.9019,1315.00,67.00,41.00,38.63,280.00,4.00,0.00,29.96,1011.60,10.00,M,BKN,M,M,M,11000.00,M,M,M,M,M,M,M,M,M,M,67.00,KWMC 200156Z AUTO 28004KT 10SM BKN110 19/05 A2996 RMK AO2 LTG DSNT S SLP116 T01940050,M
HND,2024-09-20 01:56,-115.1344,35.9729,742.79,82.00,37.00,19.99,160.00,11.00,0.00,29.81,1008.90,10.00,M,CLR,M,M,M,M,M,M,M,M,M,M,M,M,M,M,79.86,KHND 200156Z 16011KT 10SM CLR 28/03 A2981 RMK AO2 SLP089 T02780028,M
TPH,2024-09-20 01:56,-117.0904,38.0505,1654.00,69.00,25.00,18.97,340.00,11.00,0.00,29.96,1009.80,10.00,23.00,FEW,SCT,OVC,M,5500.00,9000.00,11000.00,M,M,M,M,M,29.00,270.00,2024-09-20 01:44,69.00,KTPH 200156Z AUTO 34011G23KT 10SM FEW055 SCT090 OVC110 21/M04 A2996 RMK AO2 PK WND 27029/0144 SLP098 T02061039,M
LAS,2024-09-20 01:56,-115.1634,36.0719,663.00,84.00,35.00,17.31,160.00,5.00,0.00,29.78,1006.30,10.00,M,FEW,FEW,M,M,12000.00,15000.00,M,M,M,M,M,M,M,M,M,81.18,KLAS 200156Z 16005KT 10SM FEW120 FEW150 29/02 A2978 RMK AO2 SLP063 T02890017,M
NFL,2024-09-20 01:57,-118.7010,39.4166,1199.00,67.00,50.00,54.35,360.00,4.00,0.00,29.94,1011.10,10.00,M,SCT,SCT,BKN,M,5000.00,12000.00,18000.00,M,M,M,M,M,M,M,M,67.00,KNFL 200157Z 36004KT 10SM SCT050 SCT120 BKN180 19/10 A2994 RMK AO2 SLP111 CB DSNT S T01940100,M
LOL,2024-09-20 02:10,-118.5701,40.0684,1192.43,67.00,39.00,35.74,70.00,10.00,0.00,29.95,M,10.00,M,CLR,M,M,M,M,M,M,M,M,M,M,M,M,M,M,67.00,KLOL 200210Z AUTO 07010KT 10SM CLR 19/04 A2995 RMK AO2 WSHFT 0150 T01940039,M
05U,2024-09-20 02:10,-116.0051,39.6042,1811.23,62.60,32.00,31.56,0.00,0.00,0.00,30.02,M,10.00,10.00,FEW,SCT,BKN,M,7500.00,9000.00,12000.00,M,M,M,M,M,M,M,M,62.60,K05U 200210Z AUTO 00000G10KT 10SM FEW075 SCT090 BKN120 17/M00 A3002 RMK A01,M
BVU,2024-09-20 02:15,-114.8611,35.9475,671.00,80.60,30.20,15.94,190.00,7.00,0.00,29.77,M,10.00,M,CLR,M,M,M,M,M,M,M,M,M,M,M,M,M,M,78.77,KBVU 200215Z AUTO 19007KT 10SM CLR 27/M01 A2977 RMK AO2,M
CXP,2024-09-20 02:15,-119.7326,39.1923,1431.00,64.40,41.00,42.28,60.00,6.00,0.00,30.00,M,10.00,M,CLR,M,M,M,M,M,M,M,M,M,M,M,M,M,M,64.40,KCXP 200215Z AUTO 06006KT 10SM CLR 18/05 A3000 RMK AO2,M
RTS,2024-09-20 02:15,-119.8764,39.6682,1539.00,62.60,41.00,45.04,50.00,8.00,0.00,30.03,M,10.00,M,FEW,M,M,M,9000.00,M,M,M,M,M,M,M,M,M,M,62.60,KRTS 200215Z AUTO 05008KT 10SM FEW090 17/05 A3003 RMK AO2,M
MEV,2024-09-20 02:15,-119.7500,38.9963,1441.42,55.40,46.40,71.64,170.00,8.00,0.00,29.99,M,10.00,M,CLR,M,M,M,M,M,M,M,M,M,M,M,M,M,M,55.40,KMEV 200215Z AUTO 17008KT 10SM CLR 13/08 A2999 RMK AO2,M
BAM,2024-09-20 02:15,-116.8743,40.5990,1382.36,68.00,37.40,32.43,220.00,8.00,0.00,29.97,M,10.00,M,CLR,M,M,M,M,M,M,M,M,M,M,M,M,M,M,68.00,KBAM 200215Z AUTO 22008KT 10SM CLR 20/03 A2997 RMK AO1,M
HTH,2024-09-20 02:15,-118.6315,38.5448,1282.89,64.40,48.20,55.63,0.00,0.00,0.00,29.96,M,10.00,M,SCT,BKN,OVC,M,6500.00,7500.00,9000.00,M,M,M,M,M,M,M,M,64.40,KHTH 200215Z AUTO 00000KT 10SM SCT065 BKN075 OVC090 18/09 A2996 RMK A01,M
TMT,2024-09-20 02:15,-117.1971,39.4643,1749.34,53.00,43.00,68.71,120.00,4.00,0.00,30.05,M,10.00,M,BKN,M,M,M,11000.00,M,M,M,M,M,M,M,M,M,M,53.00,KTMT 200215Z AUTO 12004KT 10SM BKN110 12/06 A3005 RMK AO2 T01160062,M
10U,2024-09-20 02:15,-116.1876,41.9532,1637.00,60.80,39.20,44.76,330.00,4.00,0.00,30.02,M,10.00,M,SCT,M,M,M,12000.00,M,M,M,M,M,M,M,M,M,M,60.80,K10U 200215Z AUTO 33004KT 10SM SCT120 16/04 A3002 RMK AO2,M
05U,2024-09-20 02:30,-116.0051,39.6042,1811.23,60.80,32.00,33.64,0.00,0.00,0.00,30.03,M,10.00,13.00,BKN,OVC,M,M,9500.00,12000.00,M,M,M,M,M,M,M,M,M,60.80,K05U 200230Z AUTO 00000G13KT 10SM BKN095 OVC120 16/M00 A3003 RMK A01,M
BVU,2024-09-20 02:35,-114.8611,35.9475,671.00,80.60,30.20,15.94,180.00,5.00,0.00,29.78,M,10.00,M,CLR,M,M,M,M,M,M,M,M,M,M,M,M,M,M,78.77,KBVU 200235Z AUTO 18005KT 10SM CLR 27/M01 A2978 RMK AO2,M
CXP,2024-09-20 02:35,-119.7326,39.1923,1431.00,62.60,42.80,48.28,0.00,0.00,0.00,30.01,M,10.00,M,CLR,M,M,M,M,M,M,M,M,M,M,M,M,M,M,62.60,KCXP 200235Z AUTO 00000KT 10SM CLR 17/06 A3001 RMK AO2,M
RTS,2024-09-20 02:35,-119.8764,39.6682,1539.00,60.80,42.80,51.45,70.00,7.00,0.00,30.03,M,10.00,M,FEW,M,M,M,10000.00,M,M,M,M,M,M,M,M,M,M,60.80,KRTS 200235Z AUTO 07007KT 10SM FEW100 16/06 A3003 RMK AO2,M
MEV,2024-09-20 02:35,-119.7500,38.9963,1441.42,51.80,46.40,81.74,160.00,6.00,0.00,30.00,M,10.00,M,CLR,M,M,M,M,M,M,M,M,M,M,M,M,M,M,51.80,KMEV 200235Z AUTO 16006KT 10SM CLR 11/08 A3000 RMK AO2,M
BAM,2024-09-20 02:35,-116.8743,40.5990,1382.36,66.20,37.40,34.51,220.00,8.00,0.00,29.98,M,10.00,M,CLR,M,M,M,M,M,M,M,M,M,M,M,M,M,M,66.20,KBAM 200235Z AUTO 22008KT 10SM CLR 19/03 A2998 RMK AO1,M
HTH,2024-09-20 02:35,-118.6315,38.5448,1282.89,66.20,35.60,32.14,30.00,11.00,0.00,29.97,M,10.00,28.00,SCT,BKN,OVC,M,6000.00,7000.00,9500.00,M,M,M,M,M,M,M,M,66.20,KHTH 200235Z AUTO 03011G28KT 350V060 10SM SCT060 BKN070 OVC095 19/02 A2997 RMK A01,M
TMT,2024-09-20 02:35,-117.1971,39.4643,1749.34,52.30,43.70,72.42,0.00,0.00,0.00,30.05,M,10.00,M,BKN,M,M,M,11000.00,M,M,M,M,M,M,M,M,M,M,52.30,KTMT 200235Z AUTO 00000KT 10SM BKN110 11/07 A3005 RMK AO2 T01130065,M
10U,2024-09-20 02:35,-116.1876,41.9532,1637.00,57.20,39.20,50.91,330.00,6.00,0.00,30.02,M,10.00,M,OVC,M,M,M,11000.00,M,M,M,M,M,M,M,M,M,M,57.20,K10U 200235Z AUTO 33006KT 10SM OVC110 14/04 A3002 RMK AO2,M
05U,2024-09-20 02:50,-116.0051,39.6042,1811.23,60.80,32.00,33.64,0.00,0.00,0.00,30.04,M,10.00,M,BKN,BKN,M,M,10000.00,12000.00,M,M,M,M,M,M,M,M,M,60.80,K05U 200250Z AUTO 00000KT 10SM BKN100 BKN120 16/M00 A3004 RMK A01,M
P68,2024-09-20 02:53,-116.0056,39.6014,1993.00,60.00,33.00,36.03,140.00,6.00,0.00,30.01,1011.00,M,M,M,M,M,M,M,M,M,M,M,M,M,M,M,M,M,60.00,KP68 200253Z AUTO 14006KT 16/01 A3001 RMK AO1 SLP110 T01560006 53009,M
DRA,2024-09-20 02:53,-116.0278,36.6206,1009.00,78.00,25.00,14.01,150.00,4.00,0.00,29.83,1005.90,10.00,M,FEW,M,M,M,12000.00,M,M,M,M,M,M,M,M,M,M,78.00,KDRA 200253Z AUTO 15004KT 10SM FEW120 26/M04 A2983 RMK AO2 SLP059 T02561039 53004,M
ELY,2024-09-20 02:53,-114.8453,39.2950,1909.00,56.00,28.00,33.96,170.00,6.00,0.00,30.03,1011.70,10.00,M,FEW,M,M,M,12000.00,M,M,M,M,M,M,M,M,M,M,56.00,KELY 200253Z AUTO 17006KT 10SM FEW120 13/M02 A3003 RMK AO2 SLP117 T01331022 53007,M
VGT,2024-09-20 02:53,-115.1933,36.2111,667.00,83.00,35.00,17.88,160.00,7.00,0.00,29.78,1008.10,10.00,M,CLR,M,M,M,M,M,M,M,M,M,M,M,M,M,M,80.47,KVGT 200253Z 16007KT 10SM CLR 28/02 A2978 RMK AO2 SLP081 T02830017 53004,M
LOL,2024-09-20 02:53,-118.5701,40.0684,1192.43,69.00,35.00,28.50,280.00,5.00,0.00,29.95,1012.20,10.00,14.00,FEW,SCT,SCT,M,5500.00,7000.00,10000.00,M,M,M,M,M,M,M,M,69.00,KLOL 200253Z AUTO 28005G14KT 10SM FEW055 SCT070 SCT100 21/02 A2995 RMK AO2 WSHFT 0150 SLP122 T02060017 50005,M
BVU,2024-09-20 02:55,-114.8611,35.9475,671.00,78.80,30.20,16.90,190.00,6.00,0.00,29.79,M,10.00,M,CLR,M,M,M,M,M,M,M,M,M,M,M,M,M,M,78.80,KBVU 200255Z AUTO 19006KT 10SM CLR 26/M01 A2979 RMK AO2,M
RNO,2024-09-20 02:55,-119.7711,39.4839,1341.00,67.00,39.00,35.74,290.00,7.00,0.00,30.00,1012.40,10.00,M,SCT,BKN,M,M,8500.00,15000.00,M,M,M,M,M,M,M,M,M,67.00,KRNO 200255Z 29007KT 10SM SCT085 BKN150 19/04 A3000 RMK AO2 SLP124 T01940039 53012,M
BAM,2024-09-20 02:55,-116.8743,40.5990,1382.36,64.40,37.40,36.74,230.00,6.00,0.00,29.99,M,10.00,M,CLR,M,M,M,M,M,M,M,M,M,M,M,M,M,M,64.40,KBAM 200255Z AUTO 23006KT 10SM CLR 18/03 A2999 RMK AO1,M
CXP,2024-09-20 02:55,-119.7326,39.1923,1431.00,62.60,39.20,42.00,250.00,3.00,0.00,30.02,M,10.00,M,CLR,M,M,M,M,M,M,M,M,M,M,M,M,M,M,62.60,KCXP 200255Z AUTO 25003KT 10SM CLR 17/04 A3002 RMK AO2,M
RTS,2024-09-20 02:55,-119.8764,39.6682,1539.00,59.00,41.00,51.18,70.00,6.00,0.00,30.04,M,10.00,M,BKN,M,M,M,12000.00,M,M,M,M,M,M,M,M,M,M,59.00,KRTS 200255Z AUTO 07006KT 10SM BKN120 15/05 A3004 RMK AO2,M
MEV,2024-09-20 02:55,-119.7500,38.9963,1441.42,50.00,44.60,81.61,150.00,7.00,0.00,30.01,M,10.00,M,FEW,FEW,M,M,4000.00,4700.00,M,M,M,M,M,M,M,M,M,50.00,KMEV 200255Z AUTO 15007KT 10SM FEW040 FEW047 10/07 A3001 RMK AO2,M
HTH,2024-09-20 02:55,-118.6315,38.5448,1282.89,66.20,35.60,32.14,280.00,6.00,0.00,29.96,M,10.00,M,FEW,SCT,BKN,M,5500.00,7500.00,10000.00,M,M,M,M,M,M,M,M,66.20,KHTH 200255Z AUTO 28006KT 10SM FEW055 SCT075 BKN100 19/02 A2996 RMK A01,M
TMT,2024-09-20 02:55,-117.1971,39.4643,1749.34,52.70,42.40,67.89,0.00,0.00,0.00,30.06,M,10.00,M,SCT,SCT,M,M,10000.00,12000.00,M,M,M,M,M,M,M,M,M,52.70,KTMT 200255Z AUTO 00000KT 10SM SCT100 SCT120 12/06 A3006 RMK AO2 T01150058,M
10U,2024-09-20 02:55,-116.1876,41.9532,1637.00,57.20,41.00,54.60,360.00,3.00,0.00,30.03,M,10.00,M,OVC,M,M,M,11000.00,M,M,M,M,M,M,M,M,M,M,57.20,K10U 200255Z AUTO 36003KT 10SM OVC110 14/05 A3003 RMK AO2,M
INS,2024-09-20 02:55,-115.6733,36.5872,955.00,73.00,15.40,11.00,130.00,8.00,0.00,29.83,1006.60,10.00,M,CLR,M,M,M,M,M,M,M,M,M,M,M,M,M,M,73.00,KINS 200255Z AUTO 13008KT 10SM CLR 23/M09 A2983 RMK AO2 SLP066 T02281092 51006,M
LSV,2024-09-20 02:55,-115.0343,36.2362,570.00,83.00,30.60,14.98,200.00,8.00,0.00,29.73,1004.50,10.00,M,FEW,M,M,M,16000.00,M,M,M,M,M,M,M,M,M,M,80.39,KLSV 200255Z AUTO 20008KT 10SM FEW160 28/M01 A2973 RMK AO2 SLP045 T02831008 53003 $,M
EKO,2024-09-20 02:56,-115.7860,40.8242,1367.00,64.00,40.00,41.25,0.00,0.00,0.00,29.97,1011.70,10.00,M,SCT,M,M,M,11000.00,M,M,M,M,M,M,M,M,M,M,64.00,KEKO 200256Z AUTO 00000KT 10SM SCT110 18/04 A2997 RMK AO2 SLP117 T01780044 53007,M
WMC,2024-09-20 02:56,-117.8072,40.9019,1315.00,60.00,44.00,55.42,80.00,3.00,0.00,29.98,1012.70,10.00,M,FEW,M,M,M,12000.00,M,M,M,M,M,M,M,M,M,M,60.00,KWMC 200256Z AUTO 08003KT 10SM FEW120 16/07 A2998 RMK AO2 SLP127 T01560067 53009,M
HND,2024-09-20 02:56,-115.1344,35.9729,742.79,80.00,34.00,18.94,160.00,10.00,0.00,29.82,1009.30,10.00,M,CLR,M,M,M,M,M,M,M,M,M,M,M,M,M,M,78.59,KHND 200256Z 16010KT 10SM CLR 27/01 A2982 RMK AO2 SLP093 T02670011 53005,M
TPH,2024-09-20 02:56,-117.0904,38.0505,1654.00,65.00,26.00,22.71,290.00,3.00,0.00,29.97,1010.00,10.00,M,SCT,M,M,M,11000.00,M,M,M,M,M,M,M,M,M,M,65.00,KTPH 200256Z AUTO 29003KT 10SM SCT110 18/M03 A2997 RMK AO2 SLP100 T01831033 53009,M
LAS,2024-09-20 02:56,-115.1634,36.0719,663.00,82.00,35.00,18.47,180.00,6.00,0.00,29.79,1006.70,10.00,M,FEW,FEW,M,M,12000.00,15000.00,M,M,M,M,M,M,M,M,M,79.80,KLAS 200256Z 18006KT 10SM FEW120 FEW150 28/02 A2979 RMK AO2 SLP067 T02780017 53004 $,M
NFL,2024-09-20 02:57,-118.7010,39.4166,1199.00,63.00,52.00,67.29,0.00,0.00,0.00,29.95,1011.30,10.00,M,FEW,SCT,SCT,SCT,5000.00,12000.00,15000.00,18000.00,M,M,M,M,M,M,M,63.00,KNFL 200257Z 00000KT 10SM FEW050 SCT120 SCT150 SCT180 17/11 A2995 RMK AO2 SLP113 T01720111 53002,M
05U,2024-09-20 03:10,-116.0051,39.6042,1811.23,60.80,32.00,33.64,0.00,0.00,0.00,30.04,M,10.00,M,BKN,OVC,M,M,10000.00,12000.00,M,M,M,M,M,M,M,M,M,60.80,K05U 200310Z AUTO 00000KT 10SM BKN100 OVC120 16/M00 A3004 RMK A01,M
BVU,2024-09-20 03:15,-114.8611,35.9475,671.00,77.00,30.20,17.94,170.00,5.00,0.00,29.79,M,10.00,M,CLR,M,M,M,M,M,M,M,M,M,M,M,M,M,M,77.00,KBVU 200315Z AUTO 17005KT 10SM CLR 25/M01 A2979 RMK AO2,M
CXP,2024-09-20 03:15,-119.7326,39.1923,1431.00,60.80,41.00,48.00,0.00,0.00,0.00,30.04,M,10.00,10.00,SCT,M,M,M,8000.00,M,M,M,M,M,M,M,M,M,M,60.80,KCXP 200315Z AUTO 00000G10KT 10SM SCT080 16/05 A3004 RMK AO2,M
RTS,2024-09-20 03:15,-119.8764,39.6682,1539.00,59.00,42.80,54.86,90.00,5.00,0.00,30.04,M,10.00,M,BKN,M,M,M,11000.00,M,M,M,M,M,M,M,M,M,M,59.00,KRTS 200315Z AUTO 09005KT 10SM BKN110 15/06 A3004 RMK AO2,M
MEV,2024-09-20 03:15,-119.7500,38.9963,1441.42,51.80,46.40,81.74,340.00,4.00,0.00,30.02,M,10.00,M,FEW,SCT,BKN,M,3400.00,4500.00,6000.00,M,M,M,M,M,M,M,M,51.80,KMEV 200315Z AUTO 34004KT 10SM FEW034 SCT045 BKN060 11/08 A3002 RMK AO2,M
HTH,2024-09-20 03:15,-118.6315,38.5448,1282.89,64.40,44.60,48.55,100.00,7.00,0.00,29.98,M,10.00,M,BKN,OVC,M,M,10000.00,12000.00,M,M,M,M,M,M,M,M,M,64.40,KHTH 200315Z AUTO 10007KT 10SM BKN100 OVC120 18/07 A2998 RMK A01,M
TMT,2024-09-20 03:15,-117.1971,39.4643,1749.34,49.00,43.00,79.68,0.00,0.00,0.00,30.06,M,10.00,M,SCT,M,M,M,10000.00,M,M,M,M,M,M,M,M,M,M,49.00,KTMT 200315Z AUTO 00000KT 10SM SCT100 09/06 A3006 RMK AO2 T00940061,M
10U,2024-09-20 03:15,-116.1876,41.9532,1637.00,55.40,39.20,54.34,130.00,6.00,0.00,30.04,M,10.00,M,OVC,M,M,M,11000.00,M,M,M,M,M,M,M,M,M,M,55.40,K10U 200315Z AUTO 13006KT 10SM OVC110 13/04 A3004 RMK AO2,M
05U,2024-09-20 03:30,-116.0051,39.6042,1811.23,60.80,32.00,33.64,0.00,0.00,0.00,30.04,M,10.00,M,OVC,M,M,M,9500.00,M,M,M,M,M,M,M,M,M,M,60.80,K05U 200330Z AUTO 00000KT 10SM OVC095 16/00 A3004 RMK A01,M
BVU,2024-09-20 03:35,-114.8611,35.9475,671.00,77.00,32.00,19.30,180.00,5.00,0.00,29.80,M,10.00,M,CLR,M,M,M,M,M,M,M,M,M,M,M,M,M,M,77.00,KBVU 200335Z AUTO 18005KT 10SM CLR 25/M00 A2980 RMK AO2,M
BAM,2024-09-20 03:35,-116.8743,40.5990,1382.36,62.60,37.40,39.14,280.00,6.00,0.00,30.00,M,10.00,M,CLR,M,M,M,M,M,M,M,M,M,M,M,M,M,M,62.60,KBAM 200335Z AUTO 28006KT 10SM CLR 17/03 A3000 RMK AO1,M
CXP,2024-09-20 03:35,-119.7326,39.1923,1431.00,59.00,42.80,54.86,220.00,4.00,0.00,30.05,M,10.00,M,FEW,FEW,M,M,8000.00,9000.00,M,M,M,M,M,M,M,M,M,59.00,KCXP 200335Z AUTO 22004KT 10SM FEW080 FEW090 15/06 A3005 RMK AO2,M
RTS,2024-09-20 03:35,-119.8764,39.6682,1539.00,59.00,42.80,54.86,220.00,4.00,0.00,30.05,M,10.00,M,BKN,M,M,M,11000.00,M,M,M,M,M,M,M,M,M,M,59.00,KRTS 200335Z AUTO 22004KT 10SM BKN110 15/06 A3005 RMK AO2,M
MEV,2024-09-20 03:35,-119.7500,38.9963,1441.42,51.80,44.60,76.34,0.00,0.00,0.00,30.03,M,10.00,M,FEW,SCT,BKN,M,3400.00,4200.00,5000.00,M,M,M,M,M,M,M,M,51.80,KMEV 200335Z AUTO 00000KT 10SM FEW034 SCT042 BKN050 11/07 A3003 RMK AO2,M
HTH,2024-09-20 03:35,-118.6315,38.5448,1282.89,64.40,42.80,45.32,130.00,5.00,0.00,29.99,M,10.00,M,FEW,OVC,M,M,6500.00,10000.00,M,M,M,M,M,M,M,M,M,64.40,KHTH 200335Z AUTO 13005KT 10SM FEW065 OVC100 18/06 A2999 RMK A01,M
TMT,2024-09-20 03:35,-117.1971,39.4643,1749.34,50.00,44.00,79.76,0.00,0.00,0.00,30.07,M,10.00,M,BKN,BKN,M,M,10000.00,12000.00,M,M,M,M,M,M,M,M,M,50.00,KTMT 200335Z AUTO 00000KT 10SM BKN100 BKN120 10/07 A3007 RMK AO2 T01000067,M
10U,2024-09-20 03:35,-116.1876,41.9532,1637.00,51.80,41.00,66.48,0.00,0.00,0.00,30.05,M,10.00,M,SCT,M,M,M,11000.00,M,M,M,M,M,M,M,M,M,M,51.80,K10U 200335Z AUTO 00000KT 10SM SCT110 11/05 A3005 RMK AO2,M
05U,2024-09-20 03:50,-116.0051,39.6042,1811.23,59.00,33.80,38.56,0.00,0.00,0.00,30.05,M,10.00,M,FEW,OVC,M,M,6000.00,10000.00,M,M,M,M,M,M,M,M,M,59.00,K05U 200350Z AUTO 00000KT 10SM FEW060 OVC100 15/01 A3005 RMK A01,M
P68,2024-09-20 03:53,-116.0056,39.6014,1993.00,59.00,34.00,38.87,340.00,4.00,0.00,30.02,1011.10,M,M,M,M,M,M,M,M,M,M,M,M,M,M,M,M,M,59.00,KP68 200353Z AUTO 34004KT 15/01 A3002 RMK AO1 SLP111 T01500011,M
DRA,2024-09-20 03:53,-116.0278,36.6206,1009.00,71.00,26.00,18.47,190.00,4.00,0.00,29.84,1006.50,10.00,M,CLR,M,M,M,M,M,M,M,M,M,M,M,M,M,M,71.00,KDRA 200353Z AUTO 19004KT 10SM CLR 22/M03 A2984 RMK AO2 SLP065 T02171033,M
ELY,2024-09-20 03:53,-114.8453,39.2950,1909.00,53.00,27.00,36.36,160.00,7.00,0.00,30.05,1011.60,10.00,M,SCT,M,M,M,12000.00,M,M,M,M,M,M,M,M,M,M,53.00,KELY 200353Z AUTO 16007KT 10SM SCT120 12/M03 A3005 RMK AO2 SLP116 T01171028,M
VGT,2024-09-20 03:53,-115.1933,36.2111,667.00,82.00,36.00,19.21,190.00,5.00,0.00,29.80,1008.50,10.00,M,CLR,M,M,M,M,M,M,M,M,M,M,M,M,M,M,79.83,KVGT 200353Z AUTO 19005KT 10SM CLR 28/02 A2980 RMK AO2 SLP085 T02780022,M
LOL,2024-09-20 03:53,-118.5701,40.0684,1192.43,62.00,40.00,44.25,70.00,4.00,0.00,29.97,1012.70,10.00,M,CLR,M,M,M,M,M,M,M,M,M,M,M,M,M,M,62.00,KLOL 200353Z AUTO 07004KT 10SM CLR 17/04 A2997 RMK AO2 SLP127 T01670044,M
BVU,2024-09-20 03:55,-114.8611,35.9475,671.00,77.00,33.80,20.74,170.00,4.00,0.00,29.80,M,10.00,M,CLR,M,M,M,M,M,M,M,M,M,M,M,M,M,M,77.00,KBVU 200355Z AUTO 17004KT 10SM CLR 25/01 A2980 RMK AO2,M
RNO,2024-09-20 03:55,-119.7711,39.4839,1341.00,64.00,41.00,42.88,280.00,7.00,0.00,30.02,1013.10,10.00,M,FEW,SCT,M,M,9000.00,15000.00,M,M,M,M,M,M,M,M,M,64.00,KRNO 200355Z 28007KT 10SM FEW090 SCT150 18/05 A3002 RMK AO2 SLP131 T01780050,M
CXP,2024-09-20 03:55,-119.7326,39.1923,1431.00,59.00,42.80,54.86,0.00,0.00,0.00,30.05,M,10.00,M,CLR,M,M,M,M,M,M,M,M,M,M,M,M,M,M,59.00,KCXP 200355Z AUTO 00000KT 10SM CLR 15/06 A3005 RMK AO2,M
RTS,2024-09-20 03:55,-119.8764,39.6682,1539.00,59.00,41.00,51.18,0.00,0.00,0.00,30.05,M,10.00,M,BKN,M,M,M,12000.00,M,M,M,M,M,M,M,M,M,M,59.00,KRTS 200355Z AUTO 00000KT 10SM BKN120 15/05 A3005 RMK AO2,M
MEV,2024-09-20 03:55,-119.7500,38.9963,1441.42,51.80,46.40,81.74,330.00,4.00,0.00,30.04,M,10.00,M,FEW,SCT,SCT,M,3800.00,4700.00,5500.00,M,M,M,M,M,M,M,M,51.80,KMEV 200355Z AUTO 33004KT 10SM FEW038 SCT047 SCT055 11/08 A3004 RMK AO2,M
BAM,2024-09-20 03:55,-116.8743,40.5990,1382.36,62.60,37.40,39.14,300.00,6.00,0.00,30.00,M,10.00,M,CLR,M,M,M,M,M,M,M,M,M,M,M,M,M,M,62.60,KBAM 200355Z AUTO 30006KT 10SM CLR 17/03 A3000 RMK AO1,M
HTH,2024-09-20 03:55,-118.6315,38.5448,1282.89,64.40,41.00,42.28,0.00,0.00,0.00,29.99,M,10.00,M,FEW,SCT,BKN,M,6500.00,7500.00,9000.00,M,M,M,M,M,M,M,M,64.40,KHTH 200355Z AUTO 00000KT 10SM FEW065 SCT075 BKN090 18/05 A2999 RMK A01,M
TMT,2024-09-20 03:55,-117.1971,39.4643,1749.34,48.20,43.70,84.33,250.00,6.00,0.00,30.08,M,10.00,M,SCT,M,M,M,10000.00,M,M,M,M,M,M,M,M,M,M,45.04,KTMT 200355Z AUTO 25006KT 10SM SCT100 09/07 A3008 RMK AO2 T00900065,M
10U,2024-09-20 03:55,-116.1876,41.9532,1637.00,50.00,39.20,66.27,0.00,0.00,0.00,30.05,M,10.00,M,CLR,M,M,M,M,M,M,M,M,M,M,M,M,M,M,50.00,K10U 200355Z AUTO 00000KT 10SM CLR 10/04 A3005 RMK AO2,M
INS,2024-09-20 03:55,-115.6733,36.5872,955.00,75.70,17.40,10.96,170.00,6.00,0.00,29.84,1006.50,10.00,M,CLR,M,M,M,M,M,M,M,M,M,M,M,M,M,M,75.70,KINS 200355Z AUTO 17006KT 10SM CLR 24/M08 A2984 RMK AO2 SLP065 T02431081,M
LSV,2024-09-20 03:55,-115.0343,36.2362,570.00,82.80,30.40,14.96,190.00,11.00,0.00,29.75,1004.90,10.00,M,CLR,M,M,M,M,M,M,M,M,M,M,M,M,M,M,80.25,KLSV 200355Z AUTO 19011KT 10SM CLR 28/M01 A2975 RMK AO2 SLP049 T02821009 $,M
EKO,2024-09-20 03:56,-115.7860,40.8242,1367.00,67.00,39.00,35.74,20.00,9.00,0.00,29.99,1011.60,10.00,M,BKN,M,M,M,12000.00,M,M,M,M,M,M,M,M,M,M,67.00,KEKO 200356Z AUTO 02009KT 10SM BKN120 19/04 A2999 RMK AO2 SLP116 T01940039,M
WMC,2024-09-20 03:56,-117.8072,40.9019,1315.00,59.00,42.00,53.20,160.00,7.00,0.00,30.00,1013.10,10.00,M,FEW,M,M,M,10000.00,M,M,M,M,M,M,M,M,M,M,59.00,KWMC 200356Z AUTO 16007KT 10SM FEW100 15/06 A3000 RMK AO2 SLP131 T01500056,M
HND,2024-09-20 03:56,-115.1344,35.9729,742.79,78.00,37.00,22.79,180.00,7.00,0.00,29.84,1009.60,10.00,M,CLR,M,M,M,M,M,M,M,M,M,M,M,M,M,M,78.00,KHND 200356Z AUTO 18007KT 10SM CLR 26/03 A2984 RMK AO2 SLP096 T02560028,M
TPH,2024-09-20 03:56,-117.0904,38.0505,1654.00,63.00,26.00,24.35,0.00,0.00,0.00,29.99,1010.70,10.00,M,CLR,M,M,M,M,M,M,M,M,M,M,M,M,M,M,63.00,KTPH 200356Z AUTO 00000KT 10SM CLR 17/M03 A2999 RMK AO2 SLP107 T01721033,M
LAS,2024-09-20 03:56,-115.1634,36.0719,663.00,81.00,35.00,19.08,190.00,4.00,0.00,29.81,1007.30,10.00,M,FEW,FEW,M,M,12000.00,15000.00,M,M,M,M,M,M,M,M,M,79.16,KLAS 200356Z 19004KT 10SM FEW120 FEW150 27/02 A2981 RMK AO2 SLP073 T02720017 $,M
NFL,2024-09-20 03:57,-118.7010,39.4166,1199.00,61.00,53.00,74.93,320.00,3.00,0.00,29.97,1012.00,10.00,M,FEW,SCT,SCT,SCT,5000.00,12000.00,15000.00,18000.00,M,M,M,M,M,M,M,61.00,KNFL 200357Z 32003KT 10SM FEW050 SCT120 SCT150 SCT180 16/12 A2997 RMK AO2 SLP120 T01610117,M
05U,2024-09-20 04:10,-116.0051,39.6042,1811.23,57.20,37.40,47.44,0.00,0.00,0.00,30.05,M,10.00,M,OVC,M,M,M,11000.00,M,M,M,M,M,M,M,M,M,M,57.20,K05U 200410Z AUTO 00000KT 10SM OVC110 14/03 A3005 RMK A01,M
BVU,2024-09-20 04:15,-114.8611,35.9475,671.00,75.20,35.60,23.66,0.00,0.00,0.00,29.80,M,10.00,M,CLR,M,M,M,M,M,M,M,M,M,M,M,M,M,M,75.20,KBVU 200415Z AUTO 00000KT 10SM CLR 24/02 A2980 RMK AO2,M
CXP,2024-09-20 04:15,-119.7326,39.1923,1431.00,59.00,42.80,54.86,280.00,3.00,0.00,30.05,M,10.00,M,CLR,M,M,M,M,M,M,M,M,M,M,M,M,M,M,59.00,KCXP 200415Z AUTO 28003KT 10SM CLR 15/06 A3005 RMK AO2,M
RTS,2024-09-20 04:15,-119.8764,39.6682,1539.00,57.20,41.00,54.60,270.00,5.00,0.00,30.06,M,10.00,M,BKN,M,M,M,11000.00,M,M,M,M,M,M,M,M,M,M,57.20,KRTS 200415Z AUTO 27005KT 10SM BKN110 14/05 A3006 RMK AO2,M
MEV,2024-09-20 04:15,-119.7500,38.9963,1441.42,51.80,44.60,76.34,0.00,0.00,0.00,30.03,M,10.00,M,FEW,SCT,SCT,M,3800.00,4800.00,5500.00,M,M,M,M,M,M,M,M,51.80,KMEV 200415Z AUTO 00000KT 10SM FEW038 SCT048 SCT055 11/07 A3003 RMK AO2,M
BAM,2024-09-20 04:15,-116.8743,40.5990,1382.36,59.00,39.20,47.72,0.00,0.00,0.00,30.01,M,10.00,M,CLR,M,M,M,M,M,M,M,M,M,M,M,M,M,M,59.00,KBAM 200415Z AUTO 00000KT 10SM CLR 15/04 A3001 RMK AO1,M
HTH,2024-09-20 04:15,-118.6315,38.5448,1282.89,62.60,44.60,51.72,240.00,4.00,0.00,30.00,M,10.00,M,FEW,FEW,SCT,M,6500.00,7500.00,9500.00,M,M,M,M,M,M,M,M,62.60,KHTH 200415Z AUTO 24004KT 10SM FEW065 FEW075 SCT095 17/07 A3000 RMK A01,M
TMT,2024-09-20 04:15,-117.1971,39.4643,1749.34,48.40,42.80,80.87,270.00,3.00,0.00,30.09,M,10.00,M,CLR,M,M,M,M,M,M,M,M,M,M,M,M,M,M,47.44,KTMT 200415Z AUTO 27003KT 10SM CLR 09/06 A3009 RMK AO2 T00910060,M
10U,2024-09-20 04:15,-116.1876,41.9532,1637.00,50.00,39.20,66.27,0.00,0.00,0.00,30.05,M,10.00,M,CLR,M,M,M,M,M,M,M,M,M,M,M,M,M,M,50.00,K10U 200415Z AUTO 00000KT 10SM CLR 10/04 A3005 RMK AO2,M
05U,2024-09-20 04:30,-116.0051,39.6042,1811.23,55.40,37.40,50.64,0.00,0.00,0.00,30.06,M,10.00,M,OVC,M,M,M,11000.00,M,M,M,M,M,M,M,M,M,M,55.40,K05U 200430Z AUTO 00000KT 10SM OVC110 13/03 A3006 RMK A01,M
BVU,2024-09-20 04:35,-114.8611,35.9475,671.00,77.00,35.60,22.28,0.00,0.00,0.00,29.80,M,10.00,M,CLR,M,M,M,M,M,M,M,M,M,M,M,M,M,M,77.00,KBVU 200435Z AUTO 00000KT 10SM CLR 25/02 A2980 RMK AO2,M
BAM,2024-09-20 04:35,-116.8743,40.5990,1382.36,55.40,37.40,50.64,0.00,0.00,0.00,30.03,M,10.00,M,CLR,M,M,M,M,M,M,M,M,M,M,M,M,M,M,55.40,KBAM 200435Z AUTO 00000KT 10SM CLR 13/03 A3003 RMK AO1,M
CXP,2024-09-20 04:35,-119.7326,39.1923,1431.00,57.20,42.80,58.52,330.00,4.00,0.00,30.05,M,10.00,M,CLR,M,M,M,M,M,M,M,M,M,M,M,M,M,M,57.20,KCXP 200435Z AUTO 33004KT 10SM CLR 14/06 A3005 RMK AO2,M
RTS,2024-09-20 04:35,-119.8764,39.6682,1539.00,57.20,42.80,58.52,0.00,0.00,0.00,30.06,M,10.00,M,FEW,M,M,M,10000.00,M,M,M,M,M,M,M,M,M,M,57.20,KRTS 200435Z AUTO 00000KT 10SM FEW100 14/06 A3006 RMK AO2,M
MEV,2024-09-20 04:35,-119.7500,38.9963,1441.42,51.80,42.80,71.26,0.00,0.00,0.00,30.04,M,10.00,M,SCT,SCT,M,M,3800.00,4800.00,M,M,M,M,M,M,M,M,M,51.80,KMEV 200435Z AUTO 00000KT 10SM SCT038 SCT048 11/06 A3004 RMK AO2,M
HTH,2024-09-20 04:35,-118.6315,38.5448,1282.89,62.60,46.40,55.37,140.00,16.00,0.00,30.04,M,10.00,M,SCT,BKN,M,M,9000.00,12000.00,M,M,M,M,M,M,M,M,M,62.60,KHTH 200435Z AUTO 14016KT 10SM SCT090 BKN120 17/08 A3004 RMK A01,M
TMT,2024-09-20 04:35,-117.1971,39.4643,1749.34,47.30,42.80,84.28,250.00,3.00,0.00,30.10,M,10.00,M,SCT,M,M,M,11000.00,M,M,M,M,M,M,M,M,M,M,46.18,KTMT 200435Z AUTO 25003KT 10SM SCT110 09/06 A3010 RMK AO2 T00850060,M
10U,2024-09-20 04:35,-116.1876,41.9532,1637.00,50.00,41.00,71.07,170.00,3.00,0.00,30.05,M,10.00,M,CLR,M,M,M,M,M,M,M,M,M,M,M,M,M,M,50.00,K10U 200435Z AUTO 17003KT 10SM CLR 10/05 A3005 RMK AO2,M
05U,2024-09-20 04:50,-116.0051,39.6042,1811.23,55.40,37.40,50.64,0.00,0.00,0.00,30.07,M,10.00,M,SCT,OVC,M,M,9000.00,11000.00,M,M,M,M,M,M,M,M,M,55.40,K05U 200450Z AUTO 00000KT 10SM SCT090 OVC110 13/03 A3007 RMK A01,M
HTH,2024-09-20 04:50,-118.6315,38.5448,1282.89,60.80,39.20,44.76,170.00,29.00,0.00,30.04,M,10.00,46.00,BKN,BKN,OVC,M,6000.00,8000.00,11000.00,M,M,M,M,M,M,M,M,60.80,KHTH 200450Z AUTO 17029G46KT 10SM BKN060 BKN080 OVC110 16/04 A3004 RMK A01,M
P68,2024-09-20 04:53,-116.0056,39.6014,1993.00,56.00,39.00,52.75,0.00,0.00,0.00,30.05,1012.10,M,M,M,M,M,M,M,M,M,M,M,M,M,M,M,M,M,56.00,KP68 200453Z AUTO 00000KT 13/04 A3005 RMK AO1 SLP121 T01330039,M
DRA,2024-09-20 04:53,-116.0278,36.6206,1009.00,69.00,26.00,19.77,20.00,5.00,0.00,29.86,1006.70,10.00,M,CLR,M,M,M,M,M,M,M,M,M,M,M,M,M,M,69.00,KDRA 200453Z AUTO 02005KT 10SM CLR 21/M03 A2986 RMK AO2 SLP067 T02061033,M
ELY,2024-09-20 04:53,-114.8453,39.2950,1909.00,51.00,27.00,39.14,170.00,9.00,0.00,30.05,1011.30,10.00,M,CLR,M,M,M,M,M,M,M,M,M,M,M,M,M,M,51.00,KELY 200453Z AUTO 17009KT 10SM CLR 11/M03 A3005 RMK AO2 SLP113 T01061028,M
VGT,2024-09-20 04:53,-115.1933,36.2111,667.00,81.00,37.00,20.65,180.00,6.00,0.00,29.81,1008.80,10.00,M,CLR,M,M,M,M,M,M,M,M,M,M,M,M,M,M,79.24,KVGT 200453Z AUTO 18006KT 10SM CLR 27/03 A2981 RMK AO2 SLP088 T02720028,M
LOL,2024-09-20 04:53,-118.5701,40.0684,1192.43,61.00,42.00,49.54,0.00,0.00,0.00,29.98,1013.00,10.00,M,CLR,M,M,M,M,M,M,M,M,M,M,M,M,M,M,61.00,KLOL 200453Z AUTO 00000KT 10SM CLR 16/06 A2998 RMK AO2 SLP130 T01610056,M
BVU,2024-09-20 04:55,-114.8611,35.9475,671.00,75.20,37.40,25.40,0.00,0.00,0.00,29.81,M,10.00,M,CLR,M,M,M,M,M,M,M,M,M,M,M,M,M,M,75.20,KBVU 200455Z AUTO 00000KT 10SM CLR 24/03 A2981 RMK AO2,M
RNO,2024-09-20 04:55,-119.7711,39.4839,1341.00,62.00,42.00,47.82,270.00,3.00,0.00,30.03,1013.30,10.00,M,FEW,BKN,M,M,7000.00,16000.00,M,M,M,M,M,M,M,M,M,62.00,KRNO 200455Z 27003KT 10SM FEW070 BKN160 17/06 A3003 RMK AO2 SLP133 T01670056,M
CXP,2024-09-20 04:55,-119.7326,39.1923,1431.00,55.40,42.80,62.46,0.00,0.00,0.00,30.06,M,10.00,M,CLR,M,M,M,M,M,M,M,M,M,M,M,M,M,M,55.40,KCXP 200455Z AUTO 00000KT 10SM CLR 13/06 A3006 RMK AO2,M
INS,2024-09-20 04:55,-115.6733,36.5872,955.00,68.00,25.50,20.05,260.00,6.00,0.00,29.85,1006.90,10.00,M,CLR,M,M,M,M,M,M,M,M,M,M,M,M,M,M,68.00,KINS 200455Z AUTO 26006KT 10SM CLR 20/M04 A2985 RMK AO2 SLP069 T02011036,M
RTS,2024-09-20 04:55,-119.8764,39.6682,1539.00,55.40,42.80,62.46,0.00,0.00,0.00,30.06,M,10.00,M,CLR,M,M,M,M,M,M,M,M,M,M,M,M,M,M,55.40,KRTS 200455Z AUTO 00000KT 10SM CLR 13/06 A3006 RMK AO2,M
MEV,2024-09-20 04:55,-119.7500,38.9963,1441.42,48.20,42.80,81.47,110.00,4.00,0.00,30.04,M,10.00,M,BKN,BKN,M,M,3800.00,4800.00,M,M,M,M,M,M,M,M,M,46.34,KMEV 200455Z AUTO 11004KT 10SM BKN038 BKN048 09/06 A3004 RMK AO2,M
BAM,2024-09-20 04:55,-116.8743,40.5990,1382.36,55.40,37.40,50.64,280.00,4.00,0.00,30.03,M,10.00,M,CLR,M,M,M,M,M,M,M,M,M,M,M,M,M,M,55.40,KBAM 200455Z AUTO 28004KT 10SM CLR 13/03 A3003 RMK AO1,M
TMT,2024-09-20 04:55,-117.1971,39.4643,1749.34,46.40,42.80,87.19,160.00,4.00,0.00,30.10,M,10.00,M,OVC,M,M,M,10000.00,M,M,M,M,M,M,M,M,M,M,44.24,KTMT 200455Z AUTO 16004KT 10SM OVC100 08/06 A3010 RMK AO2 T00800060,M
10U,2024-09-20 04:55,-116.1876,41.9532,1637.00,50.00,41.00,71.07,150.00,6.00,0.00,30.06,M,10.00,M,CLR,M,M,M,M,M,M,M,M,M,M,M,M,M,M,50.00,K10U 200455Z AUTO 15006KT 10SM CLR 10/05 A3006 RMK AO2,M
LSV,2024-09-20 04:55,-115.0343,36.2362,570.00,78.60,33.00,19.05,240.00,5.00,0.00,29.76,1005.30,10.00,M,CLR,M,M,M,M,M,M,M,M,M,M,M,M,M,M,78.60,KLSV 200455Z AUTO 24005KT 10SM CLR 26/01 A2976 RMK AO2 SLP053 T02590005 $,M
EKO,2024-09-20 04:56,-115.7860,40.8242,1367.00,64.00,40.00,41.25,160.00,9.00,0.00,30.03,1012.90,10.00,15.00,OVC,M,M,M,9000.00,M,M,M,M,M,M,M,M,M,M,64.00,KEKO 200456Z AUTO 16009G15KT 10SM OVC090 18/04 A3003 RMK AO2 SLP129 T01780044,M
WMC,2024-09-20 04:56,-117.8072,40.9019,1315.00,58.00,43.00,57.30,200.00,8.00,0.00,30.01,1012.90,10.00,M,CLR,M,M,M,M,M,M,M,M,M,M,M,M,M,M,58.00,KWMC 200456Z AUTO 20008KT 10SM CLR 14/06 A3001 RMK AO2 SLP129 T01440061,M
HND,2024-09-20 04:56,-115.1344,35.9729,742.79,76.00,38.00,25.32,180.00,7.00,0.00,29.84,1009.80,10.00,M,CLR,M,M,M,M,M,M,M,M,M,M,M,M,M,M,76.00,KHND 200456Z AUTO 18007KT 10SM CLR 24/03 A2984 RMK AO2 SLP098 T02440033,M
TPH,2024-09-20 04:56,-117.0904,38.0505,1654.00,57.00,25.00,28.93,300.00,4.00,0.00,30.00,1011.00,10.00,M,CLR,M,M,M,M,M,M,M,M,M,M,M,M,M,M,57.00,KTPH 200456Z AUTO 30004KT 10SM CLR 14/M04 A3000 RMK AO2 SLP110 T01391039,M
LAS,2024-09-20 04:56,-115.1634,36.0719,663.00,79.00,37.00,22.05,180.00,4.00,0.00,29.82,1007.40,10.00,M,FEW,FEW,M,M,12000.00,15000.00,M,M,M,M,M,M,M,M,M,79.00,KLAS 200456Z 18004KT 10SM FEW120 FEW150 26/03 A2982 RMK AO2 SLP074 T02610028 $,M
NFL,2024-09-20 04:57,-118.7010,39.4166,1199.00,59.00,48.00,66.83,280.00,3.00,0.00,29.98,1012.20,10.00,M,SCT,SCT,SCT,M,12000.00,15000.00,18000.00,M,M,M,M,M,M,M,M,59.00,KNFL 200457Z 28003KT 10SM SCT120 SCT150 SCT180 15/09 A2998 RMK AO2 SLP122 T01500089,M
05U,2024-09-20 05:10,-116.0051,39.6042,1811.23,55.40,37.40,50.64,0.00,0.00,0.00,30.08,M,10.00,M,OVC,M,M,M,10000.00,M,M,M,M,M,M,M,M,M,M,55.40,K05U 200510Z AUTO 00000KT 10SM OVC100 13/03 A3008 RMK A01,M
BVU,2024-09-20 05:15,-114.8611,35.9475,671.00,75.20,39.20,27.26,0.00,0.00,0.00,29.81,M,10.00,M,CLR,M,M,M,M,M,M,M,M,M,M,M,M,M,M,75.20,KBVU 200515Z AUTO 00000KT 10SM CLR 24/04 A2981 RMK AO2,M
CXP,2024-09-20 05:15,-119.7326,39.1923,1431.00,55.40,41.00,58.27,0.00,0.00,0.00,30.07,M,10.00,M,CLR,M,M,M,M,M,M,M,M,M,M,M,M,M,M,55.40,KCXP 200515Z AUTO 00000KT 10SM CLR 13/05 A3007 RMK AO2,M
RTS,2024-09-20 05:15,-119.8764,39.6682,1539.00,57.20,41.00,54.60,330.00,3.00,0.00,30.06,M,10.00,M,CLR,M,M,M,M,M,M,M,M,M,M,M,M,M,M,57.20,KRTS 200515Z AUTO 33003KT 10SM CLR 14/05 A3006 RMK AO2,M
MEV,2024-09-20 05:15,-119.7500,38.9963,1441.42,50.00,44.60,81.61,0.00,0.00,0.00,30.05,M,10.00,M,SCT,BKN,M,M,3800.00,4800.00,M,M,M,M,M,M,M,M,M,50.00,KMEV 200515Z AUTO 00000KT 10SM SCT038 BKN048 10/07 A3005 RMK AO2,M
HTH,2024-09-20 05:15,-118.6315,38.5448,1282.89,59.00,41.00,51.18,190.00,23.00,0.00,30.04,M,10.00,32.00,BKN,OVC,M,M,6500.00,8000.00,M,M,M,M,M,M,M,M,M,59.00,KHTH 200515Z AUTO 19023G32KT 10SM BKN065 OVC080 15/05 A3004 RMK A01,M
TMT,2024-09-20 05:15,-117.1971,39.4643,1749.34,46.60,43.00,87.20,0.00,0.00,0.00,30.10,M,10.00,M,OVC,M,M,M,10000.00,M,M,M,M,M,M,M,M,M,M,46.60,KTMT 200515Z AUTO 00000KT 10SM OVC100 08/06 A3010 RMK AO2 T00810062,M
10U,2024-09-20 05:15,-116.1876,41.9532,1637.00,48.20,39.20,70.88,150.00,3.00,0.00,30.06,M,10.00,M,CLR,M,M,M,M,M,M,M,M,M,M,M,M,M,M,47.21,K10U 200515Z AUTO 15003KT 10SM CLR 09/04 A3006 RMK AO2,M
05U,2024-09-20 05:30,-116.0051,39.6042,1811.23,51.80,37.40,57.77,0.00,0.00,0.00,30.09,M,10.00,M,BKN,BKN,M,M,9500.00,12000.00,M,M,M,M,M,M,M,M,M,51.80,K05U 200530Z AUTO 00000KT 10SM BKN095 BKN120 11/03 A3009 RMK A01,M
BVU,2024-09-20 05:35,-114.8611,35.9475,671.00,71.60,42.80,35.37,0.00,0.00,0.00,29.81,M,10.00,M,CLR,M,M,M,M,M,M,M,M,M,M,M,M,M,M,71.60,KBVU 200535Z AUTO 00000KT 10SM CLR 22/06 A2981 RMK AO2,M
BAM,2024-09-20 05:35,-116.8743,40.5990,1382.36,53.60,37.40,54.07,140.00,8.00,0.00,30.05,M,10.00,M,SCT,M,M,M,11000.00,M,M,M,M,M,M,M,M,M,M,53.60,KBAM 200535Z AUTO 14008KT 10SM SCT110 12/03 A3005 RMK AO1,M
CXP,2024-09-20 05:35,-119.7326,39.1923,1431.00,55.40,44.60,66.91,0.00,0.00,0.00,30.06,M,10.00,M,CLR,M,M,M,M,M,M,M,M,M,M,M,M,M,M,55.40,KCXP 200535Z AUTO 00000KT 10SM CLR 13/07 A3006 RMK AO2,M
RTS,2024-09-20 05:35,-119.8764,39.6682,1539.00,55.40,42.80,62.46,310.00,3.00,0.00,30.06,M,10.00,M,CLR,M,M,M,M,M,M,M,M,M,M,M,M,M,M,55.40,KRTS 200535Z AUTO 31003KT 10SM CLR 13/06 A3006 RMK AO2,M
MEV,2024-09-20 05:35,-119.7500,38.9963,1441.42,48.20,42.80,81.47,130.00,4.00,0.00,30.05,M,10.00,M,SCT,BKN,BKN,M,3900.00,4700.00,5500.00,M,M,M,M,M,M,M,M,46.34,KMEV 200535Z AUTO 13004KT 10SM SCT039 BKN047 BKN055 09/06 A3005 RMK AO2,M
HTH,2024-09-20 05:35,-118.6315,38.5448,1282.89,60.80,41.00,48.00,200.00,13.00,0.00,30.05,M,10.00,20.00,FEW,SCT,BKN,M,2200.00,4900.00,6500.00,M,M,M,M,M,M,M,M,60.80,KHTH 200535Z AUTO 20013G20KT 10SM FEW022 SCT049 BKN065 16/05 A3005 RMK A01,M
TMT,2024-09-20 05:35,-117.1971,39.4643,1749.34,47.70,43.30,84.62,0.00,0.00,0.00,30.10,M,10.00,M,BKN,M,M,M,11000.00,M,M,M,M,M,M,M,M,M,M,47.70,KTMT 200535Z AUTO 00000KT 10SM BKN110 09/06 A3010 RMK AO2 T00870063,M
10U,2024-09-20 05:35,-116.1876,41.9532,1637.00,50.00,41.00,71.07,130.00,6.00,0.00,30.06,M,10.00,M,CLR,M,M,M,M,M,M,M,M,M,M,M,M,M,M,50.00,K10U 200535Z AUTO 13006KT 10SM CLR 10/05 A3006 RMK AO2,M
05U,2024-09-20 05:50,-116.0051,39.6042,1811.23,50.00,37.40,61.76,0.00,0.00,0.00,30.09,M,10.00,M,SCT,SCT,M,M,9500.00,12000.00,M,M,M,M,M,M,M,M,M,50.00,K05U 200550Z AUTO 00000KT 10SM SCT095 SCT120 10/03 A3009 RMK A01,M
P68,2024-09-20 05:53,-116.0056,39.6014,1993.00,50.00,37.00,60.79,0.00,0.00,0.00,30.07,1012.80,M,M,M,M,M,M,M,M,M,M,M,M,M,M,M,M,M,50.00,KP68 200553Z AUTO 00000KT 10/03 A3007 RMK AO1 SLP128 T01000028 10206 20089 53017,M
DRA,2024-09-20 05:53,-116.0278,36.6206,1009.00,67.00,25.00,20.32,0.00,0.00,0.00,29.86,1007.00,10.00,M,CLR,M,M,M,M,M,M,M,M,M,M,M,M,M,M,67.00,KDRA 200553Z AUTO 00000KT 10SM CLR 19/M04 A2986 RMK AO2 SLP070 T01941039 10289 20189 51010,M
ELY,2024-09-20 05:53,-114.8453,39.2950,1909.00,50.00,27.00,40.62,190.00,5.00,0.00,30.06,1011.00,10.00,M,SCT,M,M,M,11000.00,M,M,M,M,M,M,M,M,M,M,50.00,KELY 200553Z AUTO 19005KT 10SM SCT110 10/M03 A3006 RMK AO2 SLP110 T01001028 10211 20083 51009,M
VGT,2024-09-20 05:53,-115.1933,36.2111,667.00,77.00,37.00,23.55,0.00,0.00,0.00,29.81,1008.80,10.00,M,CLR,M,M,M,M,M,M,M,M,M,M,M,M,M,M,77.00,KVGT 200553Z AUTO 00000KT 10SM CLR 25/03 A2981 RMK AO2 SLP088 T02500028 10311 20250 50008,M
LOL,2024-09-20 05:53,-118.5701,40.0684,1192.43,52.00,42.00,68.59,160.00,6.00,0.00,29.98,1013.30,10.00,M,CLR,M,M,M,M,M,M,M,M,M,M,M,M,M,M,52.00,KLOL 200553Z AUTO 16006KT 10SM CLR 11/06 A2998 RMK AO2 SLP133 T01110056 10239 20111 51010,M
BVU,2024-09-20 05:55,-114.8611,35.9475,671.00,71.60,42.80,35.37,0.00,0.00,0.00,29.80,M,10.00,M,CLR,M,M,M,M,M,M,M,M,M,M,M,M,M,M,71.60,KBVU 200555Z AUTO 00000KT 10SM CLR 22/06 A2980 RMK AO2,M
RNO,2024-09-20 05:55,-119.7711,39.4839,1341.00,60.00,42.00,51.33,0.00,0.00,0.00,30.03,1013.40,10.00,M,FEW,M,M,M,16000.00,M,M,M,M,M,M,M,M,M,M,60.00,KRNO 200555Z 00000KT 10SM FEW160 16/06 A3003 RMK AO2 SLP134 T01560056 10233 20156 51010,M
BAM,2024-09-20 05:55,-116.8743,40.5990,1382.36,53.60,33.80,46.88,100.00,5.00,0.00,30.05,M,10.00,M,SCT,M,M,M,11000.00,M,M,M,M,M,M,M,M,M,M,53.60,KBAM 200555Z AUTO 10005KT 10SM SCT110 12/01 A3005 RMK AO1,M
CXP,2024-09-20 05:55,-119.7326,39.1923,1431.00,53.60,42.80,66.70,0.00,0.00,0.00,30.07,M,10.00,M,CLR,M,M,M,M,M,M,M,M,M,M,M,M,M,M,53.60,KCXP 200555Z AUTO 00000KT 10SM CLR 12/06 A3007 RMK AO2,M
RTS,2024-09-20 05:55,-119.8764,39.6682,1539.00,51.80,42.80,71.26,360.00,4.00,0.00,30.06,M,10.00,M,CLR,M,M,M,M,M,M,M,M,M,M,M,M,M,M,51.80,KRTS 200555Z AUTO 36004KT 10SM CLR 11/06 A3006 RMK AO2,M
MEV,2024-09-20 05:55,-119.7500,38.9963,1441.42,46.40,42.80,87.19,150.00,3.00,0.00,30.06,M,10.00,M,FEW,SCT,BKN,M,3600.00,4700.00,5500.00,M,M,M,M,M,M,M,M,45.15,KMEV 200555Z AUTO 15003KT 10SM FEW036 SCT047 BKN055 08/06 A3006 RMK AO2,M
HTH,2024-09-20 05:55,-118.6315,38.5448,1282.89,59.00,41.00,51.18,190.00,10.00,0.00,30.05,M,10.00,16.00,FEW,SCT,BKN,M,5000.00,7500.00,12000.00,M,M,M,M,M,M,M,M,59.00,KHTH 200555Z AUTO 19010G16KT 10SM FEW050 SCT075 BKN120 15/05 A3005 RMK A01,M
TMT,2024-09-20 05:55,-117.1971,39.4643,1749.34,45.30,42.60,90.20,0.00,0.00,0.00,30.10,M,10.00,M,SCT,M,M,M,12000.00,M,M,M,M,M,M,M,M,M,M,45.30,KTMT 200555Z AUTO 00000KT 10SM SCT120 07/06 A3010 RMK AO2 T00740059 10180 20074,M
10U,2024-09-20 05:55,-116.1876,41.9532,1637.00,51.80,39.20,61.99,M,3.00,0.00,30.06,M,10.00,M,CLR,M,M,M,M,M,M,M,M,M,M,M,M,M,M,51.80,K10U 200555Z AUTO VRB03KT 10SM CLR 11/04 A3006 RMK AO2,M
INS,2024-09-20 05:55,-115.6733,36.5872,955.00,69.40,19.80,15.03,0.00,0.00,0.00,29.86,1006.80,10.00,M,CLR,M,M,M,M,M,M,M,M,M,M,M,M,M,M,69.40,KINS 200555Z AUTO 00000KT 10SM CLR 21/M07 A2986 RMK AO2 SLP068 T02081068 10284 20199 52010,M
LSV,2024-09-20 05:55,-115.0343,36.2362,570.00,78.30,31.30,17.97,20.00,5.00,0.00,29.76,1005.30,10.00,M,CLR,M,M,M,M,M,M,M,M,M,M,M,M,M,M,78.30,KLSV 200555Z AUTO 02005KT 10SM CLR 26/M00 A2976 RMK AO2 SLP053 T02571004 10314 20252 51010 $,M
EKO,2024-09-20 05:56,-115.7860,40.8242,1367.00,63.00,43.00,47.97,270.00,9.00,T,30.04,1012.80,10.00,14.00,OVC,M,M,M,7000.00,M,M,M,M,M,M,M,M,M,M,63.00,KEKO 200556Z AUTO 27009G14KT 10SM OVC070 17/06 A3004 RMK AO2 RAB26E40 SLP128 P0000 60000 T01720061 10239 20167 51020,M
WMC,2024-09-20 05:56,-117.8072,40.9019,1315.00,53.00,43.00,68.71,130.00,4.00,0.00,30.01,1012.90,10.00,M,CLR,M,M,M,M,M,M,M,M,M,M,M,M,M,M,53.00,KWMC 200556Z AUTO 13004KT 10SM CLR 12/06 A3001 RMK AO2 SLP129 T01170061 10244 20117 50008,M
HND,2024-09-20 05:56,-115.1344,35.9729,742.79,73.00,37.00,26.92,210.00,3.00,0.00,29.85,1009.90,10.00,M,CLR,M,M,M,M,M,M,M,M,M,M,M,M,M,M,73.00,KHND 200556Z AUTO 21003KT 10SM CLR 23/03 A2985 RMK AO2 SLP099 T02280028 10300 20228 51007,M
TPH,2024-09-20 05:56,-117.0904,38.0505,1654.00,60.00,37.00,42.24,300.00,12.00,0.00,30.01,1010.50,10.00,23.00,CLR,M,M,M,M,M,M,M,M,M,M,M,M,M,M,60.00,KTPH 200556Z AUTO 30012G23KT 10SM CLR 16/03 A3001 RMK AO2 SLP105 T01560028 10222 20133 51011,M
LAS,2024-09-20 05:56,-115.1634,36.0719,663.00,77.00,36.00,22.64,210.00,3.00,0.00,29.82,1007.40,10.00,M,FEW,FEW,M,M,12000.00,15000.00,M,M,M,M,M,M,M,M,M,77.00,KLAS 200556Z 21003KT 10SM FEW120 FEW150 25/02 A2982 RMK AO2 SLP074 T02500022 10306 20250 50007 $,M
NFL,2024-09-20 05:57,-118.7010,39.4166,1199.00,54.00,48.00,80.07,0.00,0.00,0.00,29.99,1012.80,10.00,M,SCT,SCT,SCT,M,12000.00,15000.00,18000.00,M,M,M,M,M,M,M,M,54.00,KNFL 200557Z 00000KT 10SM SCT120 SCT150 SCT180 12/09 A2999 RMK AO2 SLP128 T01220089 10222 20117 51015,M
05U,2024-09-20 06:10,-116.0051,39.6042,1811.23,46.40,37.40,70.68,0.00,0.00,0.00,30.10,M,10.00,M,CLR,M,M,M,M,M,M,M,M,M,M,M,M,M,M,46.40,K05U 200610Z AUTO 00000KT 10SM CLR 08/03 A3010 RMK A01,M
BVU,2024-09-20 06:15,-114.8611,35.9475,671.00,69.80,42.80,37.61,0.00,0.00,0.00,29.80,M,10.00,M,CLR,M,M,M,M,M,M,M,M,M,M,M,M,M,M,69.80,KBVU 200615Z AUTO 00000KT 10SM CLR 21/06 A2980 RMK AO2,M
BAM,2024-09-20 06:15,-116.8743,40.5990,1382.36,53.60,35.60,50.36,140.00,3.00,0.00,30.05,M,10.00,M,SCT,M,M,M,10000.00,M,M,M,M,M,M,M,M,M,M,53.60,KBAM 200615Z AUTO 14003KT 10SM SCT100 12/02 A3005 RMK AO1,M
CXP,2024-09-20 06:15,-119.7326,39.1923,1431.00,51.80,44.60,76.34,0.00,0.00,0.00,30.08,M,10.00,M,CLR,M,M,M,M,M,M,M,M,M,M,M,M,M,M,51.80,KCXP 200615Z AUTO 00000KT 10SM CLR 11/07 A3008 RMK AO2,M
RTS,2024-09-20 06:15,-119.8764,39.6682,1539.00,50.00,42.80,76.18,0.00,0.00,0.00,30.06,M,10.00,M,CLR,M,M,M,M,M,M,M,M,M,M,M,M,M,M,50.00,KRTS 200615Z AUTO 00000KT 10SM CLR 10/06 A3006 RMK AO2,M
MEV,2024-09-20 06:15,-119.7500,38.9963,1441.42,46.40,41.00,81.34,140.00,4.00,0.00,30.06,M,10.00,M,FEW,SCT,M,M,4700.00,5500.00,M,M,M,M,M,M,M,M,M,44.24,KMEV 200615Z AUTO 14004KT 10SM FEW047 SCT055 08/05 A3006 RMK AO2,M
HTH,2024-09-20 06:15,-118.6315,38.5448,1282.89,60.80,39.20,44.76,230.00,12.00,0.00,30.04,M,10.00,18.00,BKN,M,M,M,11000.00,M,M,M,M,M,M,M,M,M,M,60.80,KHTH 200615Z AUTO 23012G18KT 10SM BKN110 16/04 A3004 RMK A01,M
TMT,2024-09-20 06:15,-117.1971,39.4643,1749.34,45.00,42.60,91.23,0.00,0.00,0.00,30.10,M,10.00,M,CLR,M,M,M,M,M,M,M,M,M,M,M,M,M,M,45.00,KTMT 200615Z AUTO 00000KT 10SM CLR 07/06 A3010 RMK AO2 T00720059,M
10U,2024-09-20 06:15,-116.1876,41.9532,1637.00,44.60,39.20,81.20,100.00,5.00,0.00,30.06,M,10.00,M,CLR,M,M,M,M,M,M,M,M,M,M,M,M,M,M,41.36,K10U 200615Z AUTO 10005KT 10SM CLR 07/04 A3006 RMK AO2,M
05U,2024-09-20 06:30,-116.0051,39.6042,1811.23,42.80,35.60,75.50,0.00,0.00,0.00,30.10,M,10.00,M,CLR,M,M,M,M,M,M,M,M,M,M,M,M,M,M,42.80,K05U 200630Z AUTO 00000KT 10SM CLR 06/02 A3010 RMK A01,M
BVU,2024-09-20 06:35,-114.8611,35.9475,671.00,69.80,44.60,40.29,0.00,0.00,0.00,29.80,M,10.00,M,CLR,M,M,M,M,M,M,M,M,M,M,M,M,M,M,69.80,KBVU 200635Z AUTO 00000KT 10SM CLR 21/07 A2980 RMK AO2,M
BAM,2024-09-20 06:35,-116.8743,40.5990,1382.36,59.00,37.40,44.47,110.00,4.00,0.00,30.05,M,10.00,M,SCT,M,M,M,10000.00,M,M,M,M,M,M,M,M,M,M,59.00,KBAM 200635Z AUTO 11004KT 10SM SCT100 15/03 A3005 RMK AO1,M
CXP,2024-09-20 06:35,-119.7326,39.1923,1431.00,53.60,42.80,66.70,M,3.00,0.00,30.08,M,10.00,M,CLR,M,M,M,M,M,M,M,M,M,M,M,M,M,M,53.60,KCXP 200635Z AUTO VRB03KT 10SM CLR 12/06 A3008 RMK AO2,M
RTS,2024-09-20 06:35,-119.8764,39.6682,1539.00,51.80,42.80,71.26,0.00,0.00,0.00,30.06,M,10.00,M,CLR,M,M,M,M,M,M,M,M,M,M,M,M,M,M,51.80,KRTS 200635Z AUTO 00000KT 10SM CLR 11/06 A3006 RMK AO2,M
MEV,2024-09-20 06:35,-119.7500,38.9963,1441.42,42.80,41.00,93.30,150.00,5.00,0.00,30.06,M,10.00,M,FEW,SCT,M,M,4900.00,5500.00,M,M,M,M,M,M,M,M,M,39.22,KMEV 200635Z AUTO 15005KT 10SM FEW049 SCT055 06/05 A3006 RMK AO2,M
HTH,2024-09-20 06:35,-118.6315,38.5448,1282.89,59.00,41.00,51.18,220.00,7.00,0.00,30.04,M,10.00,M,FEW,M,M,M,11000.00,M,M,M,M,M,M,M,M,M,M,59.00,KHTH 200635Z AUTO 22007KT 10SM FEW110 15/05 A3004 RMK A01,M
TMT,2024-09-20 06:35,-117.1971,39.4643,1749.34,45.00,42.60,91.23,0.00,0.00,0.00,30.10,M,10.00,M,SCT,M,M,M,12000.00,M,M,M,M,M,M,M,M,M,M,45.00,KTMT 200635Z AUTO 00000KT 10SM SCT120 07/06 A3010 RMK AO2 T00720059,M
10U,2024-09-20 06:35,-116.1876,41.9532,1637.00,44.60,39.20,81.20,0.00,0.00,0.00,30.06,M,10.00,M,CLR,M,M,M,M,M,M,M,M,M,M,M,M,M,M,44.60,K10U 200635Z AUTO 00000KT 10SM CLR 07/04 A3006 RMK AO2,M
05U,2024-09-20 06:50,-116.0051,39.6042,1811.23,44.60,35.60,70.48,0.00,0.00,0.00,30.09,M,10.00,M,CLR,M,M,M,M,M,M,M,M,M,M,M,M,M,M,44.60,K05U 200650Z AUTO 00000KT 10SM CLR 07/02 A3009 RMK A01,M
P68,2024-09-20 06:53,-116.0056,39.6014,1993.00,46.00,36.00,67.90,130.00,6.00,0.00,30.07,1013.00,M,M,M,M,M,M,M,M,M,M,M,M,M,M,M,M,M,42.39,KP68 200653Z AUTO 13006KT 08/02 A3007 RMK AO1 SLP130 T00780022,M
DRA,2024-09-20 06:53,-116.0278,36.6206,1009.00,67.00,28.00,23.01,30.00,8.00,0.00,29.86,1006.90,10.00,M,CLR,M,M,M,M,M,M,M,M,M,M,M,M,M,M,67.00,KDRA 200653Z AUTO 03008KT 10SM CLR 19/M02 A2986 RMK AO2 SLP069 T01941022,M
ELY,2024-09-20 06:53,-114.8453,39.2950,1909.00,49.00,26.00,40.45,310.00,5.00,T,30.06,1010.90,10.00,M,BKN,M,M,M,10000.00,M,M,M,M,M,M,M,M,M,M,46.58,KELY 200653Z AUTO 31005KT 10SM BKN100 09/M03 A3006 RMK AO2 RAB43E53 SLP109 P0000 T00941033,M
LOL,2024-09-20 06:53,-118.5701,40.0684,1192.43,50.00,41.00,71.07,150.00,6.00,0.00,29.99,1013.40,10.00,M,CLR,M,M,M,M,M,M,M,M,M,M,M,M,M,M,50.00,KLOL 200653Z AUTO 15006KT 10SM CLR 10/05 A2999 RMK AO2 SLP134 T01000050,M
BVU,2024-09-20 06:55,-114.8611,35.9475,671.00,69.80,44.60,40.29,50.00,4.00,0.00,29.80,M,10.00,M,CLR,M,M,M,M,M,M,M,M,M,M,M,M,M,M,69.80,KBVU 200655Z AUTO 05004KT 10SM CLR 21/07 A2980 RMK AO2,M
RNO,2024-09-20 06:55,-119.7711,39.4839,1341.00,58.00,41.00,53.05,160.00,3.00,0.00,30.04,1013.30,10.00,M,CLR,M,M,M,M,M,M,M,M,M,M,M,M,M,M,58.00,KRNO 200655Z 16003KT 10SM CLR 14/05 A3004 RMK AO2 SLP133 T01440050,M
BAM,2024-09-20 06:55,-116.8743,40.5990,1382.36,55.40,37.40,50.64,240.00,6.00,0.00,30.05,M,10.00,M,SCT,SCT,M,M,10000.00,12000.00,M,M,M,M,M,M,M,M,M,55.40,KBAM 200655Z AUTO 24006KT 10SM SCT100 SCT120 13/03 A3005 RMK AO1,M
CXP,2024-09-20 06:55,-119.7326,39.1923,1431.00,53.60,42.80,66.70,300.00,4.00,0.00,30.08,M,10.00,M,CLR,M,M,M,M,M,M,M,M,M,M,M,M,M,M,53.60,KCXP 200655Z AUTO 30004KT 10SM CLR 12/06 A3008 RMK AO2,M
RTS,2024-09-20 06:55,-119.8764,39.6682,1539.00,46.40,41.00,81.34,350.00,3.00,0.00,30.06,M,10.00,M,CLR,M,M,M,M,M,M,M,M,M,M,M,M,M,M,45.15,KRTS 200655Z AUTO 35003KT 10SM CLR 08/05 A3006 RMK AO2,M
MEV,2024-09-20 06:55,-119.7500,38.9963,1441.42,44.60,41.00,87.09,150.00,6.00,0.00,30.05,M,10.00,M,SCT,SCT,M,M,4100.00,4800.00,M,M,M,M,M,M,M,M,M,40.71,KMEV 200655Z AUTO 15006KT 10SM SCT041 SCT048 07/05 A3005 RMK AO2,M
HTH,2024-09-20 06:55,-118.6315,38.5448,1282.89,57.20,44.60,62.69,290.00,10.00,0.00,30.04,M,10.00,M,CLR,M,M,M,M,M,M,M,M,M,M,M,M,M,M,57.20,KHTH 200655Z AUTO 29010KT 10SM CLR 14/07 A3004 RMK A01,M
TMT,2024-09-20 06:55,-117.1971,39.4643,1749.34,45.50,43.00,90.90,270.00,3.00,0.00,30.10,M,10.00,M,BKN,M,M,M,11000.00,M,M,M,M,M,M,M,M,M,M,44.12,KTMT 200655Z AUTO 27003KT 10SM BKN110 08/06 A3010 RMK AO2 T00750061,M
10U,2024-09-20 06:55,-116.1876,41.9532,1637.00,46.40,39.20,75.84,100.00,8.00,0.00,30.06,M,10.00,M,CLR,M,M,M,M,M,M,M,M,M,M,M,M,M,M,41.85,K10U 200655Z AUTO 10008KT 10SM CLR 08/04 A3006 RMK AO2,M
INS,2024-09-20 06:55,-115.6733,36.5872,955.00,65.00,25.00,21.78,0.00,0.00,0.00,29.86,1007.00,10.00,M,CLR,M,M,M,M,M,M,M,M,M,M,M,M,M,M,65.00,KINS 200655Z AUTO 00000KT 10SM CLR 18/M04 A2986 RMK AO2 SLP070 T01831038,M
LSV,2024-09-20 06:55,-115.0343,36.2362,570.00,76.60,32.50,19.95,340.00,5.00,0.00,29.76,1005.30,10.00,M,CLR,M,M,M,M,M,M,M,M,M,M,M,M,M,M,76.60,KLSV 200655Z AUTO 34005KT 10SM CLR 25/00 A2976 RMK AO2 SLP053 T02480003 $,M
EKO,2024-09-20 06:56,-115.7860,40.8242,1367.00,61.00,43.00,51.48,110.00,5.00,T,30.02,1012.00,10.00,M,SCT,M,M,M,11000.00,M,M,M,M,M,M,M,M,M,M,61.00,KEKO 200656Z AUTO 11005KT 10SM SCT110 16/06 A3002 RMK AO2 RAB0557E15 SLP120 P0000 T01610061,M
WMC,2024-09-20 06:56,-117.8072,40.9019,1315.00,52.00,42.00,68.59,130.00,7.00,0.00,30.01,1012.90,10.00,M,CLR,M,M,M,M,M,M,M,M,M,M,M,M,M,M,52.00,KWMC 200656Z AUTO 13007KT 10SM CLR 11/06 A3001 RMK AO2 SLP129 T01110056,M
HND,2024-09-20 06:56,-115.1344,35.9729,742.79,69.00,37.00,30.84,170.00,7.00,0.00,29.85,1009.90,10.00,M,CLR,M,M,M,M,M,M,M,M,M,M,M,M,M,M,69.00,KHND 200656Z AUTO 17007KT 10SM CLR 21/03 A2985 RMK AO2 SLP099 T02060028 403110150,M
TPH,2024-09-20 06:56,-117.0904,38.0505,1654.00,59.00,37.00,43.78,330.00,12.00,0.00,30.01,1010.30,10.00,M,CLR,M,M,M,M,M,M,M,M,M,M,M,26.00,300.00,2024-09-20 06:30,59.00,KTPH 200656Z AUTO 33012KT 10SM CLR 15/03 A3001 RMK AO2 PK WND 30026/0630 SLP103 T01500028,M
LAS,2024-09-20 06:56,-115.1634,36.0719,663.00,75.00,37.00,25.17,0.00,0.00,0.00,29.82,1007.40,10.00,M,CLR,M,M,M,M,M,M,M,M,M,M,M,M,M,M,75.00,KLAS 200656Z 00000KT 10SM CLR 24/03 A2982 RMK AO2 SLP074 T02390028 $,M
NFL,2024-09-20 06:57,-118.7010,39.4166,1199.00,54.00,47.00,77.12,230.00,5.00,0.00,30.00,1012.90,10.00,M,CLR,M,M,M,M,M,M,M,M,M,M,M,M,M,M,54.00,KNFL 200657Z AUTO 23005KT 10SM CLR 12/08 A3000 RMK AO2 SLP129 T01220083,M
05U,2024-09-20 07:10,-116.0051,39.6042,1811.23,44.60,35.60,70.48,0.00,0.00,0.00,30.10,M,10.00,M,CLR,M,M,M,M,M,M,M,M,M,M,M,M,M,M,44.60,K05U 200710Z AUTO 00000KT 10SM CLR 07/02 A3010 RMK A01,M
BVU,2024-09-20 07:15,-114.8611,35.9475,671.00,69.80,44.60,40.29,30.00,4.00,0.00,29.80,M,10.00,M,CLR,M,M,M,M,M,M,M,M,M,M,M,M,M,M,69.80,KBVU 200715Z AUTO 03004KT 10SM CLR 21/07 A2980 RMK AO2,M
BAM,2024-09-20 07:15,-116.8743,40.5990,1382.36,60.80,39.20,44.76,280.00,7.00,0.00,30.04,M,10.00,M,SCT,BKN,OVC,M,8500.00,10000.00,12000.00,M,M,M,M,M,M,M,M,60.80,KBAM 200715Z AUTO 28007KT 10SM SCT085 BKN100 OVC120 16/04 A3004 RMK AO1,M
CXP,2024-09-20 07:15,-119.7326,39.1923,1431.00,53.60,41.00,62.23,0.00,0.00,0.00,30.07,M,10.00,M,CLR,M,M,M,M,M,M,M,M,M,M,M,M,M,M,53.60,KCXP 200715Z AUTO 00000KT 10SM CLR 12/05 A3007 RMK AO2,M
RTS,2024-09-20 07:15,-119.8764,39.6682,1539.00,48.20,41.00,76.01,350.00,5.00,0.00,30.06,M,10.00,M,CLR,M,M,M,M,M,M,M,M,M,M,M,M,M,M,45.63,KRTS 200715Z AUTO 35005KT 10SM CLR 09/05 A3006 RMK AO2,M
MEV,2024-09-20 07:15,-119.7500,38.9963,1441.42,44.60,41.00,87.09,130.00,4.00,0.00,30.07,M,10.00,M,FEW,SCT,BKN,M,3300.00,4300.00,5000.00,M,M,M,M,M,M,M,M,42.13,KMEV 200715Z AUTO 13004KT 10SM FEW033 SCT043 BKN050 07/05 A3007 RMK AO2,M
HTH,2024-09-20 07:15,-118.6315,38.5448,1282.89,55.40,44.60,66.91,290.00,8.00,0.00,30.04,M,10.00,M,SCT,M,M,M,12000.00,M,M,M,M,M,M,M,M,M,M,55.40,KHTH 200715Z AUTO 29008KT 10SM SCT120 13/07 A3004 RMK A01,M
TMT,2024-09-20 07:15,-117.1971,39.4643,1749.34,46.00,43.00,89.20,240.00,3.00,0.00,30.10,M,10.00,M,OVC,M,M,M,11000.00,M,M,M,M,M,M,M,M,M,M,44.69,KTMT 200715Z AUTO 24003KT 10SM OVC110 08/06 A3010 RMK AO2 T00770061,M
10U,2024-09-20 07:15,-116.1876,41.9532,1637.00,46.40,39.20,75.84,110.00,6.00,0.00,30.06,M,10.00,M,CLR,M,M,M,M,M,M,M,M,M,M,M,M,M,M,42.87,K10U 200715Z AUTO 11006KT 10SM CLR 08/04 A3006 RMK AO2,M
05U,2024-09-20 07:30,-116.0051,39.6042,1811.23,41.00,35.60,80.93,0.00,0.00,0.00,30.10,M,10.00,M,CLR,M,M,M,M,M,M,M,M,M,M,M,M,M,M,41.00,K05U 200730Z AUTO 00000KT 10SM CLR 05/02 A3010 RMK A01,M
BVU,2024-09-20 07:35,-114.8611,35.9475,671.00,69.80,44.60,40.29,0.00,0.00,0.00,29.80,M,10.00,M,CLR,M,M,M,M,M,M,M,M,M,M,M,M,M,M,69.80,KBVU 200735Z AUTO 00000KT 10SM CLR 21/07 A2980 RMK AO2,M
BAM,2024-09-20 07:35,-116.8743,40.5990,1382.36,60.80,39.20,44.76,270.00,5.00,0.00,30.04,M,10.00,M,BKN,OVC,M,M,10000.00,12000.00,M,M,M,M,M,M,M,M,M,60.80,KBAM 200735Z AUTO 27005KT 10SM BKN100 OVC120 16/04 A3004 RMK AO1,M
CXP,2024-09-20 07:35,-119.7326,39.1923,1431.00,53.60,41.00,62.23,0.00,0.00,0.00,30.08,M,10.00,M,CLR,M,M,M,M,M,M,M,M,M,M,M,M,M,M,53.60,KCXP 200735Z AUTO 00000KT 10SM CLR 12/05 A3008 RMK AO2,M
RTS,2024-09-20 07:35,-119.8764,39.6682,1539.00,48.20,41.00,76.01,310.00,4.00,0.00,30.06,M,10.00,M,CLR,M,M,M,M,M,M,M,M,M,M,M,M,M,M,46.34,KRTS 200735Z AUTO 31004KT 10SM CLR 09/05 A3006 RMK AO2,M
MEV,2024-09-20 07:35,-119.7500,38.9963,1441.42,42.80,41.00,93.30,130.00,6.00,0.00,30.06,M,10.00,M,FEW,SCT,M,M,4300.00,5000.00,M,M,M,M,M,M,M,M,M,38.54,KMEV 200735Z AUTO 13006KT 10SM FEW043 SCT050 06/05 A3006 RMK AO2,M
HTH,2024-09-20 07:35,-118.6315,38.5448,1282.89,53.60,44.60,71.45,260.00,3.00,0.00,30.04,M,10.00,M,FEW,M,M,M,12000.00,M,M,M,M,M,M,M,M,M,M,53.60,KHTH 200735Z AUTO 26003KT 10SM FEW120 12/07 A3004 RMK A01,M
TMT,2024-09-20 07:35,-117.1971,39.4643,1749.34,43.30,41.00,91.52,170.00,5.00,0.00,30.09,M,10.00,M,SCT,M,M,M,11000.00,M,M,M,M,M,M,M,M,M,M,39.82,KTMT 200735Z AUTO 17005KT 10SM SCT110 06/05 A3009 RMK AO2 T00630050,M
10U,2024-09-20 07:35,-116.1876,41.9532,1637.00,44.60,39.20,81.20,0.00,0.00,0.00,30.06,M,10.00,M,CLR,M,M,M,M,M,M,M,M,M,M,M,M,M,M,44.60,K10U 200735Z AUTO 00000KT 10SM CLR 07/04 A3006 RMK AO2,M
05U,2024-09-20 07:50,-116.0051,39.6042,1811.23,41.00,33.80,75.33,0.00,0.00,0.00,30.10,M,10.00,M,BKN,M,M,M,11000.00,M,M,M,M,M,M,M,M,M,M,41.00,K05U 200750Z AUTO 00000KT 10SM BKN110 05/01 A3010 RMK A01,M
P68,2024-09-20 07:53,-116.0056,39.6014,1993.00,42.00,34.00,73.06,190.00,4.00,0.00,30.07,1013.10,M,M,M,M,M,M,M,M,M,M,M,M,M,M,M,M,M,39.10,KP68 200753Z AUTO 19004KT 06/01 A3007 RMK AO1 SLP131 T00560011 402280044,M
DRA,2024-09-20 07:53,-116.0278,36.6206,1009.00,64.00,30.00,27.71,0.00,0.00,0.00,29.87,1007.10,10.00,M,CLR,M,M,M,M,M,M,M,M,M,M,M,M,M,M,64.00,KDRA 200753Z AUTO 00000KT 10SM CLR 18/M01 A2987 RMK AO2 SLP071 T01781011 403000133,M
ELY,2024-09-20 07:53,-114.8453,39.2950,1909.00,47.00,26.00,43.61,220.00,6.00,0.00,30.07,1010.60,10.00,M,BKN,M,M,M,10000.00,M,M,M,M,M,M,M,M,M,M,43.60,KELY 200753Z AUTO 22006KT 10SM BKN100 08/M03 A3007 RMK AO2 SLP106 T00831033 402220006,M
LOL,2024-09-20 07:53,-118.5701,40.0684,1192.43,52.00,42.00,68.59,320.00,7.00,0.00,30.00,1013.40,10.00,M,FEW,M,M,M,10000.00,M,M,M,M,M,M,M,M,M,M,52.00,KLOL 200753Z AUTO 32007KT 10SM FEW100 11/06 A3000 RMK AO2 SLP134 T01110056 402390072,M
BVU,2024-09-20 07:55,-114.8611,35.9475,671.00,68.00,46.40,45.88,0.00,0.00,0.00,29.80,M,10.00,M,CLR,M,M,M,M,M,M,M,M,M,M,M,M,M,M,68.00,KBVU 200755Z AUTO 00000KT 10SM CLR 20/08 A2980 RMK AO2,M
RNO,2024-09-20 07:55,-119.7711,39.4839,1341.00,56.00,41.00,57.02,0.00,0.00,0.00,30.04,1013.50,10.00,M,CLR,M,M,M,M,M,M,M,M,M,M,M,M,M,M,56.00,KRNO 200755Z 00000KT 10SM CLR 13/05 A3004 RMK AO2 SLP135 T01330050 402330089,M
BAM,2024-09-20 07:55,-116.8743,40.5990,1382.36,59.00,37.40,44.47,120.00,5.00,0.00,30.04,M,10.00,M,OVC,M,M,M,9000.00,M,M,M,M,M,M,M,M,M,M,59.00,KBAM 200755Z AUTO 12005KT 10SM OVC090 15/03 A3004 RMK AO1,M
CXP,2024-09-20 07:55,-119.7326,39.1923,1431.00,53.60,41.00,62.23,240.00,3.00,0.00,30.08,M,10.00,M,CLR,M,M,M,M,M,M,M,M,M,M,M,M,M,M,53.60,KCXP 200755Z AUTO 24003KT 10SM CLR 12/05 A3008 RMK AO2,M
RTS,2024-09-20 07:55,-119.8764,39.6682,1539.00,46.40,41.00,81.34,0.00,0.00,0.00,30.07,M,10.00,M,CLR,M,M,M,M,M,M,M,M,M,M,M,M,M,M,46.40,KRTS 200755Z AUTO 00000KT 10SM CLR 08/05 A3007 RMK AO2,M
MEV,2024-09-20 07:55,-119.7500,38.9963,1441.42,42.80,41.00,93.30,0.00,0.00,0.00,30.06,M,10.00,M,SCT,BKN,M,M,4300.00,5000.00,M,M,M,M,M,M,M,M,M,42.80,KMEV 200755Z AUTO 00000KT 10SM SCT043 BKN050 06/05 A3006 RMK AO2,M
HTH,2024-09-20 07:55,-118.6315,38.5448,1282.89,55.40,44.60,66.91,230.00,5.00,0.00,30.04,M,10.00,M,FEW,BKN,M,M,4600.00,12000.00,M,M,M,M,M,M,M,M,M,55.40,KHTH 200755Z AUTO 23005KT 10SM FEW046 BKN120 13/07 A3004 RMK A01,M
TMT,2024-09-20 07:55,-117.1971,39.4643,1749.34,41.70,40.00,93.63,0.00,0.00,0.00,30.10,M,10.00,M,CLR,M,M,M,M,M,M,M,M,M,M,M,M,M,M,41.70,KTMT 200755Z AUTO 00000KT 10SM CLR 05/05 A3010 RMK AO2 T00540045 402020054,M
10U,2024-09-20 07:55,-116.1876,41.9532,1637.00,44.60,39.20,81.20,0.00,0.00,0.00,30.07,M,10.00,M,CLR,M,M,M,M,M,M,M,M,M,M,M,M,M,M,44.60,K10U 200755Z AUTO 00000KT 10SM CLR 07/04 A3007 RMK AO2,M
INS,2024-09-20 07:55,-115.6733,36.5872,955.00,61.00,24.00,24.05,0.00,0.00,0.00,29.86,1007.00,10.00,M,CLR,M,M,M,M,M,M,M,M,M,M,M,M,M,M,61.00,KINS 200755Z AUTO 00000KT 10SM CLR 16/M04 A2986 RMK AO2 SLP070 T01621044 402910112,M
LSV,2024-09-20 07:55,-115.0343,36.2362,570.00,73.00,33.00,22.96,70.00,5.00,0.00,29.76,1005.40,10.00,M,CLR,M,M,M,M,M,M,M,M,M,M,M,M,M,M,73.00,KLSV 200755Z AUTO 07005KT 10SM CLR 23/01 A2976 RMK AO2 SLP054 T02280006 403180181 $,M
EKO,2024-09-20 07:56,-115.7860,40.8242,1367.00,56.00,43.00,61.59,80.00,3.00,0.00,30.03,1012.50,10.00,M,CLR,M,M,M,M,M,M,M,M,M,M,M,M,M,M,56.00,KEKO 200756Z AUTO 08003KT 10SM CLR 13/06 A3003 RMK AO2 SLP125 T01330061 402440061,M
WMC,2024-09-20 07:56,-117.8072,40.9019,1315.00,53.00,43.00,68.71,170.00,10.00,0.00,30.01,1012.70,10.00,M,CLR,M,M,M,M,M,M,M,M,M,M,M,M,M,M,53.00,KWMC 200756Z AUTO 17010KT 10SM CLR 12/06 A3001 RMK AO2 SLP127 T01170061 402500067,M
HND,2024-09-20 07:56,-115.1344,35.9729,742.79,68.00,40.00,35.90,170.00,6.00,0.00,29.84,1009.90,10.00,M,CLR,M,M,M,M,M,M,M,M,M,M,M,M,M,M,68.00,KHND 200756Z AUTO 17006KT 10SM CLR 20/04 A2984 RMK AO2 SLP099 T02000044,M
TPH,2024-09-20 07:56,-117.0904,38.0505,1654.00,58.00,37.00,45.38,310.00,13.00,0.00,30.01,1010.20,10.00,M,CLR,M,M,M,M,M,M,M,M,M,M,M,M,M,M,58.00,KTPH 200756Z AUTO 31013KT 10SM CLR 14/03 A3001 RMK AO2 SLP102 T01440028 402390078,M
LAS,2024-09-20 07:56,-115.1634,36.0719,663.00,74.00,39.00,28.16,210.00,4.00,0.00,29.82,1007.50,10.00,M,CLR,M,M,M,M,M,M,M,M,M,M,M,M,M,M,74.00,KLAS 200756Z 21004KT 10SM CLR 23/04 A2982 RMK AO2 SLP075 T02330039 403110189 $,M
NFL,2024-09-20 07:57,-118.7010,39.4166,1199.00,53.00,46.00,77.03,190.00,6.00,0.00,30.00,1013.10,10.00,M,CLR,M,M,M,M,M,M,M,M,M,M,M,M,M,M,53.00,KNFL 200757Z AUTO 19006KT 10SM CLR 12/08 A3000 RMK AO2 SLP131 T01170078 402280100,M
05U,2024-09-20 08:10,-116.0051,39.6042,1811.23,41.00,33.80,75.33,0.00,0.00,0.00,30.10,M,10.00,M,FEW,M,M,M,11000.00,M,M,M,M,M,M,M,M,M,M,41.00,K05U 200810Z AUTO 00000KT 10SM FEW110 05/01 A3010 RMK A01,M
BVU,2024-09-20 08:15,-114.8611,35.9475,671.00,68.00,46.40,45.88,M,M,0.00,29.80,M,10.00,M,CLR,M,M,M,M,M,M,M,M,M,M,M,M,M,M,68.00,KBVU 200815Z AUTO 3.00000003KT 10SM CLR 20/08 A2980 RMK AO2,M
BAM,2024-09-20 08:15,-116.8743,40.5990,1382.36,57.20,37.40,47.44,0.00,0.00,0.00,30.04,M,10.00,M,BKN,BKN,M,M,9000.00,12000.00,M,M,M,M,M,M,M,M,M,57.20,KBAM 200815Z AUTO 00000KT 10SM BKN090 BKN120 14/03 A3004 RMK AO1,M
CXP,2024-09-20 08:15,-119.7326,39.1923,1431.00,53.60,41.00,62.23,0.00,0.00,0.00,30.08,M,10.00,M,CLR,M,M,M,M,M,M,M,M,M,M,M,M,M,M,53.60,KCXP 200815Z AUTO 00000KT 10SM CLR 12/05 A3008 RMK AO2,M
RTS,2024-09-20 08:15,-119.8764,39.6682,1539.00,46.40,41.00,81.34,0.00,0.00,0.00,30.07,M,10.00,M,CLR,M,M,M,M,M,M,M,M,M,M,M,M,M,M,46.40,KRTS 200815Z AUTO 00000KT 10SM CLR 08/05 A3007 RMK AO2,M
MEV,2024-09-20 08:15,-119.7500,38.9963,1441.42,42.80,41.00,93.30,350.00,3.00,0.00,30.06,M,10.00,M,BKN,BKN,BKN,M,4300.00,5000.00,6000.00,M,M,M,M,M,M,M,M,41.03,KMEV 200815Z AUTO 35003KT 10SM BKN043 BKN050 BKN060 06/05 A3006 RMK AO2,M
TMT,2024-09-20 08:15,-117.1971,39.4643,1749.34,42.30,40.00,91.49,200.00,3.00,0.00,30.10,M,10.00,M,CLR,M,M,M,M,M,M,M,M,M,M,M,M,M,M,40.46,KTMT 200815Z AUTO 20003KT 10SM CLR 06/05 A3010 RMK AO2 T00570045,M
10U,2024-09-20 08:15,-116.1876,41.9532,1637.00,44.60,39.20,81.20,150.00,6.00,0.00,30.07,M,10.00,M,CLR,M,M,M,M,M,M,M,M,M,M,M,M,M,M,40.71,K10U 200815Z AUTO 15006KT 10SM CLR 07/04 A3007 RMK AO2,M
HTH,2024-09-20 08:15,-118.6315,38.5448,1282.89,53.60,44.60,71.45,180.00,6.00,0.00,30.04,M,10.00,M,BKN,OVC,M,M,4700.00,12000.00,M,M,M,M,M,M,M,M,M,53.60,KHTH 200815Z AUTO 18006KT 10SM BKN047 OVC120 12/07 A3004 RMK A01,M
05U,2024-09-20 08:30,-116.0051,39.6042,1811.23,41.00,33.80,75.33,0.00,0.00,0.00,30.10,M,10.00,M,CLR,M,M,M,M,M,M,M,M,M,M,M,M,M,M,41.00,K05U 200830Z AUTO 00000KT 10SM CLR 05/01 A3010 RMK A01,M
BVU,2024-09-20 08:35,-114.8611,35.9475,671.00,68.00,46.40,45.88,0.00,0.00,0.00,29.80,M,10.00,M,CLR,M,M,M,M,M,M,M,M,M,M,M,M,M,M,68.00,KBVU 200835Z AUTO 00000KT 10SM CLR 20/08 A2980 RMK AO2,M
CXP,2024-09-20 08:35,-119.7326,39.1923,1431.00,50.00,41.00,71.07,0.00,0.00,0.00,30.08,M,10.00,M,CLR,M,M,M,M,M,M,M,M,M,M,M,M,M,M,50.00,KCXP 200835Z AUTO 00000KT 10SM CLR 10/05 A3008 RMK AO2,M
RTS,2024-09-20 08:35,-119.8764,39.6682,1539.00,46.40,41.00,81.34,350.00,3.00,0.00,30.08,M,10.00,M,CLR,M,M,M,M,M,M,M,M,M,M,M,M,M,M,45.15,KRTS 200835Z AUTO 35003KT 10SM CLR 08/05 A3008 RMK AO2,M
MEV,2024-09-20 08:35,-119.7500,38.9963,1441.42,42.80,41.00,93.30,80.00,5.00,0.00,30.06,M,10.00,M,SCT,BKN,BKN,M,4400.00,4900.00,5500.00,M,M,M,M,M,M,M,M,39.22,KMEV 200835Z AUTO 08005KT 10SM SCT044 BKN049 BKN055 06/05 A3006 RMK AO2,M
BAM,2024-09-20 08:35,-116.8743,40.5990,1382.36,57.20,39.20,50.91,0.00,0.00,0.00,30.03,M,10.00,M,SCT,SCT,M,M,9000.00,11000.00,M,M,M,M,M,M,M,M,M,57.20,KBAM 200835Z AUTO 00000KT 10SM SCT090 SCT110 14/04 A3003 RMK AO1,M
HTH,2024-09-20 08:35,-118.6315,38.5448,1282.89,55.40,42.80,62.46,210.00,5.00,0.00,30.03,M,10.00,M,BKN,BKN,BKN,M,4400.00,5000.00,12000.00,M,M,M,M,M,M,M,M,55.40,KHTH 200835Z AUTO 21005KT 10SM BKN044 BKN050 BKN120 13/06 A3003 RMK A01,M
TMT,2024-09-20 08:35,-117.1971,39.4643,1749.34,40.60,38.70,92.87,170.00,3.00,0.00,30.09,M,10.00,M,CLR,M,M,M,M,M,M,M,M,M,M,M,M,M,M,38.52,KTMT 200835Z AUTO 17003KT 10SM CLR 05/04 A3009 RMK AO2 T00480037,M
10U,2024-09-20 08:35,-116.1876,41.9532,1637.00,46.40,39.20,75.84,140.00,7.00,0.00,30.06,M,10.00,M,CLR,M,M,M,M,M,M,M,M,M,M,M,M,M,M,42.33,K10U 200835Z AUTO 14007KT 10SM CLR 08/04 A3006 RMK AO2,M
05U,2024-09-20 08:50,-116.0051,39.6042,1811.23,39.20,33.80,80.79,0.00,0.00,0.00,30.10,M,10.00,M,CLR,M,M,M,M,M,M,M,M,M,M,M,M,M,M,39.20,K05U 200850Z AUTO 00000KT 10SM CLR 04/01 A3010 RMK A01,M
P68,2024-09-20 08:53,-116.0056,39.6014,1993.00,41.00,33.00,72.96,180.00,6.00,0.00,30.07,1012.90,M,M,M,M,M,M,M,M,M,M,M,M,M,M,M,M,M,36.37,KP68 200853Z AUTO 18006KT 05/01 A3007 RMK AO1 SLP129 T00500006 50001,M
DRA,2024-09-20 08:53,-116.0278,36.6206,1009.00,63.00,30.00,28.70,100.00,6.00,0.00,29.87,1007.10,10.00,M,CLR,M,M,M,M,M,M,M,M,M,M,M,M,M,M,63.00,KDRA 200853Z AUTO 10006KT 10SM CLR 17/M01 A2987 RMK AO2 SLP071 T01721011 52002,M
ELY,2024-09-20 08:53,-114.8453,39.2950,1909.00,47.00,26.00,43.61,220.00,3.00,0.00,30.09,1011.30,10.00,M,BKN,M,M,M,9500.00,M,M,M,M,M,M,M,M,M,M,45.84,KELY 200853Z AUTO 22003KT 10SM BKN095 08/M03 A3009 RMK AO2 SLP113 60000 T00831033 53007,M
LOL,2024-09-20 08:53,-118.5701,40.0684,1192.43,53.00,41.00,63.61,310.00,7.00,0.00,29.99,1013.10,10.00,M,CLR,M,M,M,M,M,M,M,M,M,M,M,M,M,M,53.00,KLOL 200853Z AUTO 31007KT 10SM CLR 12/05 A2999 RMK AO2 SLP131 T01170050 50002,M
BVU,2024-09-20 08:55,-114.8611,35.9475,671.00,66.20,46.40,48.83,0.00,0.00,0.00,29.80,M,10.00,M,CLR,M,M,M,M,M,M,M,M,M,M,M,M,M,M,66.20,KBVU 200855Z AUTO 00000KT 10SM CLR 19/08 A2980 RMK AO2,M
RNO,2024-09-20 08:55,-119.7711,39.4839,1341.00,54.00,40.00,58.99,0.00,0.00,0.00,30.05,1013.80,10.00,M,CLR,M,M,M,M,M,M,M,M,M,M,M,M,M,M,54.00,KRNO 200855Z 00000KT 10SM CLR 12/04 A3005 RMK AO2 SLP138 T01220044 53005,M
BAM,2024-09-20 08:55,-116.8743,40.5990,1382.36,53.60,37.40,54.07,50.00,6.00,0.00,30.02,M,10.00,M,CLR,M,M,M,M,M,M,M,M,M,M,M,M,M,M,53.60,KBAM 200855Z AUTO 05006KT 10SM CLR 12/03 A3002 RMK AO1,M
CXP,2024-09-20 08:55,-119.7326,39.1923,1431.00,50.00,41.00,71.07,0.00,0.00,0.00,30.08,M,10.00,M,CLR,M,M,M,M,M,M,M,M,M,M,M,M,M,M,50.00,KCXP 200855Z AUTO 00000KT 10SM CLR 10/05 A3008 RMK AO2,M
RTS,2024-09-20 08:55,-119.8764,39.6682,1539.00,46.40,41.00,81.34,0.00,0.00,0.00,30.07,M,10.00,M,CLR,M,M,M,M,M,M,M,M,M,M,M,M,M,M,46.40,KRTS 200855Z AUTO 00000KT 10SM CLR 08/05 A3007 RMK AO2,M
MEV,2024-09-20 08:55,-119.7500,38.9963,1441.42,42.80,41.00,93.30,350.00,3.00,0.00,30.07,M,10.00,M,SCT,BKN,M,M,4300.00,5000.00,M,M,M,M,M,M,M,M,M,41.03,KMEV 200855Z AUTO 35003KT 10SM SCT043 BKN050 06/05 A3007 RMK AO2,M
HTH,2024-09-20 08:55,-118.6315,38.5448,1282.89,55.40,42.80,62.46,0.00,0.00,0.00,30.03,M,10.00,M,SCT,SCT,M,M,4300.00,4900.00,M,M,M,M,M,M,M,M,M,55.40,KHTH 200855Z AUTO 00000KT 10SM SCT043 SCT049 13/06 A3003 RMK A01,M
TMT,2024-09-20 08:55,-117.1971,39.4643,1749.34,39.70,38.50,95.42,230.00,4.00,0.00,30.09,M,10.00,M,CLR,M,M,M,M,M,M,M,M,M,M,M,M,M,M,36.41,KTMT 200855Z AUTO 23004KT 10SM CLR 04/04 A3009 RMK AO2 T00430036,M
10U,2024-09-20 08:55,-116.1876,41.9532,1637.00,44.60,39.20,81.20,160.00,4.00,0.00,30.07,M,10.00,M,CLR,M,M,M,M,M,M,M,M,M,M,M,M,M,M,42.13,K10U 200855Z AUTO 16004KT 10SM CLR 07/04 A3007 RMK AO2,M
INS,2024-09-20 08:55,-115.6733,36.5872,955.00,59.00,25.00,26.92,0.00,0.00,0.00,29.86,1007.20,10.00,M,CLR,M,M,M,M,M,M,M,M,M,M,M,M,M,M,59.00,KINS 200855Z AUTO 00000KT 10SM CLR 15/M04 A2986 RMK AO2 SLP072 T01491039 50002,M
LSV,2024-09-20 08:55,-115.0343,36.2362,570.00,73.20,35.20,24.90,50.00,7.00,0.00,29.76,1005.30,10.00,M,CLR,M,M,M,M,M,M,M,M,M,M,M,M,M,M,73.20,KLSV 200855Z AUTO 05007KT 10SM CLR 23/02 A2976 RMK AO2 SLP053 T02290018 55002 $,M
EKO,2024-09-20 08:56,-115.7860,40.8242,1367.00,51.00,42.00,71.18,270.00,5.00,0.00,30.03,1012.70,10.00,M,CLR,M,M,M,M,M,M,M,M,M,M,M,M,M,M,51.00,KEKO 200856Z AUTO 27005KT 10SM CLR 11/06 A3003 RMK AO2 SLP127 60000 T01060056 56002,M
WMC,2024-09-20 08:56,-117.8072,40.9019,1315.00,50.00,42.00,73.87,120.00,4.00,0.00,30.02,1013.30,10.00,M,CLR,M,M,M,M,M,M,M,M,M,M,M,M,M,M,50.00,KWMC 200856Z AUTO 12004KT 10SM CLR 10/06 A3002 RMK AO2 SLP133 T01000056 53005,M
HND,2024-09-20 08:56,-115.1344,35.9729,742.79,67.00,40.00,37.16,170.00,6.00,0.00,29.84,1009.60,10.00,M,CLR,M,M,M,M,M,M,M,M,M,M,M,M,M,M,67.00,KHND 200856Z AUTO 17006KT 10SM CLR 19/04 A2984 RMK AO2 SLP096 T01940044 58001,M
TPH,2024-09-20 08:56,-117.0904,38.0505,1654.00,56.00,37.00,48.77,350.00,12.00,0.00,30.02,1010.30,10.00,M,CLR,M,M,M,M,M,M,M,M,M,M,M,M,M,M,56.00,KTPH 200856Z AUTO 35012KT 10SM CLR 13/03 A3002 RMK AO2 SLP103 T01330028 52001,M
LAS,2024-09-20 08:56,-115.1634,36.0719,663.00,73.00,40.00,30.28,250.00,3.00,0.00,29.82,1007.40,10.00,M,CLR,M,M,M,M,M,M,M,M,M,M,M,M,M,M,73.00,KLAS 200856Z 25003KT 10SM CLR 23/04 A2982 RMK AO2 SLP074 T02280044 50000 $,M
NFL,2024-09-20 08:57,-118.7010,39.4166,1199.00,54.00,45.00,71.50,260.00,5.00,0.00,30.00,1012.90,10.00,M,CLR,M,M,M,M,M,M,M,M,M,M,M,M,M,M,54.00,KNFL 200857Z AUTO 26005KT 10SM CLR 12/07 A3000 RMK AO2 SLP129 T01220072 50002,M
05U,2024-09-20 09:10,-116.0051,39.6042,1811.23,42.80,33.80,70.28,0.00,0.00,0.00,30.10,M,10.00,M,CLR,M,M,M,M,M,M,M,M,M,M,M,M,M,M,42.80,K05U 200910Z AUTO 00000KT 10SM CLR 06/01 A3010 RMK A01,M
BVU,2024-09-20 09:15,-114.8611,35.9475,671.00,66.20,46.40,48.83,0.00,0.00,0.00,29.80,M,10.00,M,CLR,M,M,M,M,M,M,M,M,M,M,M,M,M,M,66.20,KBVU 200915Z AUTO 00000KT 10SM CLR 19/08 A2980 RMK AO2,M
CXP,2024-09-20 09:15,-119.7326,39.1923,1431.00,48.20,41.00,76.01,0.00,0.00,0.00,30.08,M,10.00,M,CLR,M,M,M,M,M,M,M,M,M,M,M,M,M,M,48.20,KCXP 200915Z AUTO 00000KT 10SM CLR 09/05 A3008 RMK AO2,M
RTS,2024-09-20 09:15,-119.8764,39.6682,1539.00,46.40,39.20,75.84,350.00,5.00,0.00,30.07,M,10.00,M,CLR,M,M,M,M,M,M,M,M,M,M,M,M,M,M,43.50,KRTS 200915Z AUTO 35005KT 10SM CLR 08/04 A3007 RMK AO2,M
MEV,2024-09-20 09:15,-119.7500,38.9963,1441.42,42.80,41.00,93.30,0.00,0.00,0.00,30.06,M,10.00,M,FEW,SCT,M,M,4400.00,5000.00,M,M,M,M,M,M,M,M,M,42.80,KMEV 200915Z AUTO 00000KT 10SM FEW044 SCT050 06/05 A3006 RMK AO2,M
BAM,2024-09-20 09:15,-116.8743,40.5990,1382.36,53.60,37.40,54.07,100.00,5.00,0.00,30.01,M,10.00,M,CLR,M,M,M,M,M,M,M,M,M,M,M,M,M,M,53.60,KBAM 200915Z AUTO 10005KT 10SM CLR 12/03 A3001 RMK AO1,M
HTH,2024-09-20 09:15,-118.6315,38.5448,1282.89,53.60,44.60,71.45,130.00,6.00,0.00,30.03,M,10.00,M,SCT,BKN,BKN,M,3600.00,4300.00,4900.00,M,M,M,M,M,M,M,M,53.60,KHTH 200915Z AUTO 13006KT 10SM SCT036 BKN043 BKN049 12/07 A3003 RMK A01,M
TMT,2024-09-20 09:15,-117.1971,39.4643,1749.34,40.00,38.30,93.58,250.00,3.00,0.00,30.09,M,10.00,M,CLR,M,M,M,M,M,M,M,M,M,M,M,M,M,M,37.83,KTMT 200915Z AUTO 25003KT 10SM CLR 04/04 A3009 RMK AO2 T00440035,M
10U,2024-09-20 09:15,-116.1876,41.9532,1637.00,42.80,39.20,86.99,140.00,5.00,0.00,30.06,M,10.00,M,CLR,M,M,M,M,M,M,M,M,M,M,M,M,M,M,39.22,K10U 200915Z AUTO 14005KT 10SM CLR 06/04 A3006 RMK AO2,M
05U,2024-09-20 09:30,-116.0051,39.6042,1811.23,39.20,33.80,80.79,0.00,0.00,0.00,30.10,M,10.00,M,CLR,M,M,M,M,M,M,M,M,M,M,M,M,M,M,39.20,K05U 200930Z AUTO 00000KT 10SM CLR 04/01 A3010 RMK A01,M
BVU,2024-09-20 09:35,-114.8611,35.9475,671.00,66.20,46.40,48.83,70.00,3.00,0.00,29.80,M,10.00,M,CLR,M,M,M,M,M,M,M,M,M,M,M,M,M,M,66.20,KBVU 200935Z AUTO 07003KT 10SM CLR 19/08 A2980 RMK AO2,M
CXP,2024-09-20 09:35,-119.7326,39.1923,1431.00,48.20,41.00,76.01,0.00,0.00,0.00,30.07,M,10.00,M,CLR,M,M,M,M,M,M,M,M,M,M,M,M,M,M,48.20,KCXP 200935Z AUTO 00000KT 10SM CLR 09/05 A3007 RMK AO2,M
RTS,2024-09-20 09:35,-119.8764,39.6682,1539.00,44.60,39.20,81.20,340.00,5.00,0.00,30.07,M,10.00,M,CLR,M,M,M,M,M,M,M,M,M,M,M,M,M,M,41.36,KRTS 200935Z AUTO 34005KT 10SM CLR 07/04 A3007 RMK AO2,M
MEV,2024-09-20 09:35,-119.7500,38.9963,1441.42,42.80,39.20,86.99,120.00,4.00,0.00,30.06,M,10.00,M,SCT,SCT,M,M,4300.00,5000.00,M,M,M,M,M,M,M,M,M,40.03,KMEV 200935Z AUTO 12004KT 10SM SCT043 SCT050 06/04 A3006 RMK AO2,M
BAM,2024-09-20 09:35,-116.8743,40.5990,1382.36,51.80,35.60,53.81,0.00,0.00,0.00,30.02,M,10.00,M,CLR,M,M,M,M,M,M,M,M,M,M,M,M,M,M,51.80,KBAM 200935Z AUTO 00000KT 10SM CLR 11/02 A3002 RMK AO1,M
HTH,2024-09-20 09:35,-118.6315,38.5448,1282.89,51.80,44.60,76.34,150.00,7.00,0.00,30.03,M,10.00,M,OVC,M,M,M,3700.00,M,M,M,M,M,M,M,M,M,M,51.80,KHTH 200935Z AUTO 15007KT 10SM OVC037 11/07 A3003 RMK A01,M
TMT,2024-09-20 09:35,-117.1971,39.4643,1749.34,40.00,39.20,96.93,230.00,6.00,0.00,30.09,M,10.00,M,CLR,M,M,M,M,M,M,M,M,M,M,M,M,M,M,35.17,KTMT 200935Z AUTO 23006KT 10SM CLR 04/04 A3009 RMK AO2 T00440040,M
10U,2024-09-20 09:35,-116.1876,41.9532,1637.00,42.80,39.20,86.99,130.00,6.00,0.00,30.06,M,10.00,M,CLR,M,M,M,M,M,M,M,M,M,M,M,M,M,M,38.54,K10U 200935Z AUTO 13006KT 10SM CLR 06/04 A3006 RMK AO2,M
05U,2024-09-20 09:50,-116.0051,39.6042,1811.23,39.20,33.80,80.79,0.00,0.00,0.00,30.10,M,10.00,M,CLR,M,M,M,M,M,M,M,M,M,M,M,M,M,M,39.20,K05U 200950Z AUTO 00000KT 10SM CLR 04/01 A3010 RMK A01,M
P68,2024-09-20 09:53,-116.0056,39.6014,1993.00,40.00,34.00,78.94,210.00,3.00,0.00,30.07,1012.80,M,M,M,M,M,M,M,M,M,M,M,M,M,M,M,M,M,37.83,KP68 200953Z AUTO 21003KT 04/01 A3007 RMK AO1 SLP128 T00440011,M
DRA,2024-09-20 09:53,-116.0278,36.6206,1009.00,63.00,32.00,31.12,100.00,7.00,0.00,29.86,1006.90,10.00,M,CLR,M,M,M,M,M,M,M,M,M,M,M,M,M,M,63.00,KDRA 200953Z AUTO 10007KT 10SM CLR 17/00 A2986 RMK AO2 SLP069 T01720000,M
ELY,2024-09-20 09:53,-114.8453,39.2950,1909.00,44.00,28.00,53.07,240.00,6.00,T,30.09,1011.60,10.00,M,FEW,M,M,M,10000.00,M,M,M,M,M,M,M,M,M,M,39.98,KELY 200953Z AUTO 24006KT 10SM FEW100 07/M02 A3009 RMK AO2 RAB13E23 SLP116 P0000 T00671022,M
LOL,2024-09-20 09:53,-118.5701,40.0684,1192.43,48.00,42.00,79.60,40.00,6.00,0.00,29.99,1013.20,10.00,M,CLR,M,M,M,M,M,M,M,M,M,M,M,M,M,M,44.80,KLOL 200953Z AUTO 04006KT 10SM CLR 09/06 A2999 RMK AO2 SLP132 T00890056,M
BVU,2024-09-20 09:55,-114.8611,35.9475,671.00,66.20,44.60,45.60,90.00,3.00,0.00,29.80,M,10.00,M,CLR,M,M,M,M,M,M,M,M,M,M,M,M,M,M,66.20,KBVU 200955Z AUTO 09003KT 10SM CLR 19/07 A2980 RMK AO2,M
RNO,2024-09-20 09:55,-119.7711,39.4839,1341.00,53.00,40.00,61.19,0.00,0.00,0.00,30.05,1013.60,10.00,M,CLR,M,M,M,M,M,M,M,M,M,M,M,M,M,M,53.00,KRNO 200955Z 00000KT 10SM CLR 12/04 A3005 RMK AO2 SLP136 T01170044,M
BAM,2024-09-20 09:55,-116.8743,40.5990,1382.36,51.80,37.40,57.77,300.00,5.00,0.00,30.02,M,10.00,M,CLR,M,M,M,M,M,M,M,M,M,M,M,M,M,M,51.80,KBAM 200955Z AUTO 30005KT 10SM CLR 11/03 A3002 RMK AO1,M
CXP,2024-09-20 09:55,-119.7326,39.1923,1431.00,46.40,41.00,81.34,0.00,0.00,0.00,30.07,M,10.00,M,CLR,M,M,M,M,M,M,M,M,M,M,M,M,M,M,46.40,KCXP 200955Z AUTO 00000KT 10SM CLR 08/05 A3007 RMK AO2,M
RTS,2024-09-20 09:55,-119.8764,39.6682,1539.00,44.60,39.20,81.20,330.00,7.00,0.00,30.07,M,10.00,M,CLR,M,M,M,M,M,M,M,M,M,M,M,M,M,M,40.14,KRTS 200955Z AUTO 33007KT 10SM CLR 07/04 A3007 RMK AO2,M
MEV,2024-09-20 09:55,-119.7500,38.9963,1441.42,41.00,39.20,93.24,0.00,0.00,0.00,30.06,M,10.00,M,BKN,M,M,M,4200.00,M,M,M,M,M,M,M,M,M,M,41.00,KMEV 200955Z AUTO 00000KT 10SM BKN042 05/04 A3006 RMK AO2,M
HTH,2024-09-20 09:55,-118.6315,38.5448,1282.89,51.80,44.60,76.34,170.00,5.00,0.00,30.03,M,10.00,M,BKN,OVC,M,M,3300.00,3900.00,M,M,M,M,M,M,M,M,M,51.80,KHTH 200955Z AUTO 17005KT 10SM BKN033 OVC039 11/07 A3003 RMK A01,M
TMT,2024-09-20 09:55,-117.1971,39.4643,1749.34,37.20,36.00,95.37,190.00,3.00,0.00,30.08,M,10.00,M,CLR,M,M,M,M,M,M,M,M,M,M,M,M,M,M,34.63,KTMT 200955Z AUTO 19003KT 10SM CLR 03/02 A3008 RMK AO2 T00290023,M
10U,2024-09-20 09:55,-116.1876,41.9532,1637.00,44.60,39.20,81.20,140.00,6.00,0.00,30.05,M,10.00,M,CLR,M,M,M,M,M,M,M,M,M,M,M,M,M,M,40.71,K10U 200955Z AUTO 14006KT 10SM CLR 07/04 A3005 RMK AO2,M
INS,2024-09-20 09:55,-115.6733,36.5872,955.00,61.70,27.30,26.90,0.00,0.00,0.00,29.86,1006.80,10.00,M,CLR,M,M,M,M,M,M,M,M,M,M,M,M,M,M,61.70,KINS 200955Z AUTO 00000KT 10SM CLR 17/M03 A2986 RMK AO2 SLP068 T01651026,M
LSV,2024-09-20 09:55,-115.0343,36.2362,570.00,70.70,35.00,26.89,70.00,6.00,0.00,29.76,1005.30,10.00,M,CLR,M,M,M,M,M,M,M,M,M,M,M,M,M,M,70.70,KLSV 200955Z AUTO 07006KT 10SM CLR 22/02 A2976 RMK AO2 SLP053 T02150017 $,M
EKO,2024-09-20 09:56,-115.7860,40.8242,1367.00,51.00,42.00,71.18,0.00,0.00,0.00,30.02,1012.30,10.00,M,CLR,M,M,M,M,M,M,M,M,M,M,M,M,M,M,51.00,KEKO 200956Z AUTO 00000KT 10SM CLR 11/06 A3002 RMK AO2 SLP123 T01060056,M
WMC,2024-09-20 09:56,-117.8072,40.9019,1315.00,47.00,41.00,79.52,0.00,0.00,0.00,30.00,1013.00,10.00,M,CLR,M,M,M,M,M,M,M,M,M,M,M,M,M,M,47.00,KWMC 200956Z AUTO 00000KT 10SM CLR 08/05 A3000 RMK AO2 SLP130 T00830050,M
HND,2024-09-20 09:56,-115.1344,35.9729,742.79,68.00,40.00,35.90,190.00,7.00,0.00,29.84,1009.50,10.00,M,CLR,M,M,M,M,M,M,M,M,M,M,M,M,M,M,68.00,KHND 200956Z AUTO 19007KT 10SM CLR 20/04 A2984 RMK AO2 SLP095 T02000044,M
TPH,2024-09-20 09:56,-117.0904,38.0505,1654.00,55.00,37.00,50.58,350.00,6.00,0.00,30.01,1010.10,10.00,M,CLR,M,M,M,M,M,M,M,M,M,M,M,M,M,M,55.00,KTPH 200956Z AUTO 35006KT 10SM CLR 13/03 A3001 RMK AO2 SLP101 T01280028,M
LAS,2024-09-20 09:56,-115.1634,36.0719,663.00,73.00,40.00,30.28,260.00,3.00,0.00,29.81,1007.20,10.00,M,FEW,M,M,M,12000.00,M,M,M,M,M,M,M,M,M,M,73.00,KLAS 200956Z 26003KT 10SM FEW120 23/04 A2981 RMK AO2 SLP072 T02280044 $,M
NFL,2024-09-20 09:57,-118.7010,39.4166,1199.00,52.00,44.00,74.07,250.00,6.00,0.00,30.00,1012.80,10.00,M,CLR,M,M,M,M,M,M,M,M,M,M,M,M,M,M,52.00,KNFL 200957Z AUTO 25006KT 10SM CLR 11/07 A3000 RMK AO2 SLP128 T01110067,M
05U,2024-09-20 10:10,-116.0051,39.6042,1811.23,39.20,33.80,80.79,0.00,0.00,0.00,30.09,M,10.00,M,CLR,M,M,M,M,M,M,M,M,M,M,M,M,M,M,39.20,K05U 201010Z AUTO 00000KT 10SM CLR 04/01 A3009 RMK A01,M
BVU,2024-09-20 10:15,-114.8611,35.9475,671.00,66.20,44.60,45.60,70.00,3.00,0.00,29.80,M,10.00,M,SCT,M,M,M,8500.00,M,M,M,M,M,M,M,M,M,M,66.20,KBVU 201015Z AUTO 07003KT 10SM SCT085 19/07 A2980 RMK AO2,M
BAM,2024-09-20 10:15,-116.8743,40.5990,1382.36,50.00,35.60,57.52,0.00,0.00,0.00,30.02,M,10.00,M,CLR,M,M,M,M,M,M,M,M,M,M,M,M,M,M,50.00,KBAM 201015Z AUTO 00000KT 10SM CLR 10/02 A3002 RMK AO1,M
CXP,2024-09-20 10:15,-119.7326,39.1923,1431.00,46.40,41.00,81.34,0.00,0.00,0.00,30.07,M,10.00,M,CLR,M,M,M,M,M,M,M,M,M,M,M,M,M,M,46.40,KCXP 201015Z AUTO 00000KT 10SM CLR 08/05 A3007 RMK AO2,M
RTS,2024-09-20 10:15,-119.8764,39.6682,1539.00,46.40,39.20,75.84,0.00,0.00,0.00,30.07,M,10.00,M,CLR,M,M,M,M,M,M,M,M,M,M,M,M,M,M,46.40,KRTS 201015Z AUTO 00000KT 10SM CLR 08/04 A3007 RMK AO2,M
MEV,2024-09-20 10:15,-119.7500,38.9963,1441.42,41.00,39.20,93.24,0.00,0.00,0.00,30.06,M,10.00,M,BKN,M,M,M,4300.00,M,M,M,M,M,M,M,M,M,M,41.00,KMEV 201015Z AUTO 00000KT 10SM BKN043 05/04 A3006 RMK AO2,M
HTH,2024-09-20 10:15,-118.6315,38.5448,1282.89,51.80,44.60,76.34,220.00,5.00,0.00,30.02,M,10.00,M,OVC,M,M,M,3500.00,M,M,M,M,M,M,M,M,M,M,51.80,KHTH 201015Z AUTO 22005KT 10SM OVC035 11/07 A3002 RMK A01,M
TMT,2024-09-20 10:15,-117.1971,39.4643,1749.34,35.60,35.20,98.42,160.00,3.00,0.00,30.08,M,10.00,M,CLR,M,M,M,M,M,M,M,M,M,M,M,M,M,M,32.80,KTMT 201015Z AUTO 16003KT 10SM CLR 02/02 A3008 RMK AO2 T00200018,M
10U,2024-09-20 10:15,-116.1876,41.9532,1637.00,42.80,39.20,86.99,190.00,5.00,0.00,30.05,M,10.00,M,CLR,M,M,M,M,M,M,M,M,M,M,M,M,M,M,39.22,K10U 201015Z AUTO 19005KT 10SM CLR 06/04 A3005 RMK AO2,M
05U,2024-09-20 10:30,-116.0051,39.6042,1811.23,39.20,33.80,80.79,0.00,0.00,0.00,30.09,M,10.00,M,CLR,M,M,M,M,M,M,M,M,M,M,M,M,M,M,39.20,K05U 201030Z AUTO 00000KT 10SM CLR 04/01 A3009 RMK A01,M
BVU,2024-09-20 10:35,-114.8611,35.9475,671.00,66.20,44.60,45.60,0.00,0.00,0.00,29.80,M,10.00,M,BKN,M,M,M,8500.00,M,M,M,M,M,M,M,M,M,M,66.20,KBVU 201035Z AUTO 00000KT 10SM BKN085 19/07 A2980 RMK AO2,M
BAM,2024-09-20 10:35,-116.8743,40.5990,1382.36,50.00,37.40,61.76,290.00,3.00,0.00,30.01,M,10.00,M,CLR,M,M,M,M,M,M,M,M,M,M,M,M,M,M,50.00,KBAM 201035Z AUTO 29003KT 10SM CLR 10/03 A3001 RMK AO1,M
CXP,2024-09-20 10:35,-119.7326,39.1923,1431.00,46.40,41.00,81.34,0.00,0.00,0.00,30.07,M,10.00,M,CLR,M,M,M,M,M,M,M,M,M,M,M,M,M,M,46.40,KCXP 201035Z AUTO 00000KT 10SM CLR 08/05 A3007 RMK AO2,M
RTS,2024-09-20 10:35,-119.8764,39.6682,1539.00,44.60,41.00,87.09,100.00,3.00,0.00,30.07,M,10.00,M,CLR,M,M,M,M,M,M,M,M,M,M,M,M,M,M,43.09,KRTS 201035Z AUTO 10003KT 10SM CLR 07/05 A3007 RMK AO2,M
MEV,2024-09-20 10:35,-119.7500,38.9963,1441.42,41.00,39.20,93.24,0.00,0.00,0.00,30.06,M,10.00,M,BKN,M,M,M,4200.00,M,M,M,M,M,M,M,M,M,M,41.00,KMEV 201035Z AUTO 00000KT 10SM BKN042 05/04 A3006 RMK AO2,M
HTH,2024-09-20 10:35,-118.6315,38.5448,1282.89,51.80,44.60,76.34,0.00,0.00,0.00,30.02,M,10.00,M,BKN,BKN,M,M,3800.00,4400.00,M,M,M,M,M,M,M,M,M,51.80,KHTH 201035Z AUTO 00000KT 10SM BKN038 BKN044 11/07 A3002 RMK A01,M
TMT,2024-09-20 10:35,-117.1971,39.4643,1749.34,36.70,35.80,96.50,240.00,3.00,0.00,30.08,M,10.00,M,CLR,M,M,M,M,M,M,M,M,M,M,M,M,M,M,34.06,KTMT 201035Z AUTO 24003KT 10SM CLR 03/02 A3008 RMK AO2 T00260021,M
10U,2024-09-20 10:35,-116.1876,41.9532,1637.00,42.80,39.20,86.99,170.00,8.00,0.00,30.05,M,10.00,M,CLR,M,M,M,M,M,M,M,M,M,M,M,M,M,M,37.42,K10U 201035Z AUTO 17008KT 10SM CLR 06/04 A3005 RMK AO2,M
05U,2024-09-20 10:50,-116.0051,39.6042,1811.23,37.40,33.80,86.69,0.00,0.00,0.00,30.09,M,10.00,M,CLR,M,M,M,M,M,M,M,M,M,M,M,M,M,M,37.40,K05U 201050Z AUTO 00000KT 10SM CLR 03/01 A3009 RMK A01,M
P68,2024-09-20 10:53,-116.0056,39.6014,1993.00,38.00,33.00,82.00,200.00,4.00,0.00,30.06,1012.60,M,M,M,M,M,M,M,M,M,M,M,M,M,M,M,M,M,34.43,KP68 201053Z AUTO 20004KT 03/01 A3006 RMK AO1 SLP126 T00330006,M
DRA,2024-09-20 10:53,-116.0278,36.6206,1009.00,63.00,33.00,32.40,70.00,4.00,0.00,29.86,1006.80,10.00,M,CLR,M,M,M,M,M,M,M,M,M,M,M,M,M,M,63.00,KDRA 201053Z AUTO 07004KT 10SM CLR 17/01 A2986 RMK AO2 SLP068 T01720006,M
ELY,2024-09-20 10:53,-114.8453,39.2950,1909.00,41.00,28.00,59.55,170.00,6.00,0.00,30.08,1011.40,10.00,M,CLR,M,M,M,M,M,M,M,M,M,M,M,M,M,M,36.37,KELY 201053Z AUTO 17006KT 10SM CLR 05/M02 A3008 RMK AO2 SLP114 T00501022,M
LOL,2024-09-20 10:53,-118.5701,40.0684,1192.43,46.00,39.00,76.40,300.00,4.00,0.00,29.99,1013.40,10.00,M,CLR,M,M,M,M,M,M,M,M,M,M,M,M,M,M,43.77,KLOL 201053Z AUTO 30004KT 10SM CLR 08/04 A2999 RMK AO2 SLP134 T00780039,M
BVU,2024-09-20 10:55,-114.8611,35.9475,671.00,66.20,44.60,45.60,50.00,3.00,0.00,29.79,M,10.00,M,BKN,M,M,M,8500.00,M,M,M,M,M,M,M,M,M,M,66.20,KBVU 201055Z AUTO 05003KT 10SM BKN085 19/07 A2979 RMK AO2,M
RNO,2024-09-20 10:55,-119.7711,39.4839,1341.00,53.00,41.00,63.61,260.00,4.00,0.00,30.04,1013.40,10.00,M,CLR,M,M,M,M,M,M,M,M,M,M,M,M,M,M,53.00,KRNO 201055Z 26004KT 10SM CLR 12/05 A3004 RMK AO2 SLP134 T01170050,M
BAM,2024-09-20 10:55,-116.8743,40.5990,1382.36,46.40,37.40,70.68,310.00,5.00,0.00,30.02,M,10.00,M,CLR,M,M,M,M,M,M,M,M,M,M,M,M,M,M,43.50,KBAM 201055Z AUTO 31005KT 10SM CLR 08/03 A3002 RMK AO1,M
CXP,2024-09-20 10:55,-119.7326,39.1923,1431.00,44.60,41.00,87.09,0.00,0.00,0.00,30.07,M,10.00,M,CLR,M,M,M,M,M,M,M,M,M,M,M,M,M,M,44.60,KCXP 201055Z AUTO 00000KT 10SM CLR 07/05 A3007 RMK AO2,M
RTS,2024-09-20 10:55,-119.8764,39.6682,1539.00,44.60,41.00,87.09,0.00,0.00,0.00,30.06,M,10.00,M,CLR,M,M,M,M,M,M,M,M,M,M,M,M,M,M,44.60,KRTS 201055Z AUTO 00000KT 10SM CLR 07/05 A3006 RMK AO2,M
MEV,2024-09-20 10:55,-119.7500,38.9963,1441.42,41.00,39.20,93.24,0.00,0.00,0.00,30.05,M,10.00,M,SCT,BKN,M,M,4000.00,4500.00,M,M,M,M,M,M,M,M,M,41.00,KMEV 201055Z AUTO 00000KT 10SM SCT040 BKN045 05/04 A3005 RMK AO2,M
HTH,2024-09-20 10:55,-118.6315,38.5448,1282.89,50.00,44.60,81.61,0.00,0.00,0.00,30.02,M,10.00,M,BKN,M,M,M,4100.00,M,M,M,M,M,M,M,M,M,M,50.00,KHTH 201055Z AUTO 00000KT 10SM BKN041 10/07 A3002 RMK A01,M
TMT,2024-09-20 10:55,-117.1971,39.4643,1749.34,37.40,36.00,94.62,250.00,3.00,0.00,30.08,M,10.00,M,CLR,M,M,M,M,M,M,M,M,M,M,M,M,M,M,34.86,KTMT 201055Z AUTO 25003KT 10SM CLR 03/02 A3008 RMK AO2 T00300023,M
10U,2024-09-20 10:55,-116.1876,41.9532,1637.00,42.80,39.20,86.99,150.00,7.00,0.00,30.05,M,10.00,M,CLR,M,M,M,M,M,M,M,M,M,M,M,M,M,M,37.94,K10U 201055Z AUTO 15007KT 10SM CLR 06/04 A3005 RMK AO2,M
INS,2024-09-20 10:55,-115.6733,36.5872,955.00,58.00,25.00,27.91,0.00,0.00,0.00,29.86,1007.20,10.00,M,CLR,M,M,M,M,M,M,M,M,M,M,M,M,M,M,58.00,KINS 201055Z AUTO 00000KT 10SM CLR 14/M04 A2986 RMK AO2 SLP072 T01441039,M
LSV,2024-09-20 10:55,-115.0343,36.2362,570.00,71.20,34.50,25.91,0.00,0.00,0.00,29.76,1005.30,10.00,M,SCT,M,M,M,9000.00,M,M,M,M,M,M,M,M,M,M,71.20,KLSV 201055Z AUTO 00000KT 10SM SCT090 22/01 A2976 RMK AO2 SLP053 T02180014 $,M
EKO,2024-09-20 10:56,-115.7860,40.8242,1367.00,50.00,42.00,73.87,100.00,5.00,0.00,30.02,1012.60,10.00,M,CLR,M,M,M,M,M,M,M,M,M,M,M,M,M,M,50.00,KEKO 201056Z AUTO 10005KT 10SM CLR 10/06 A3002 RMK AO2 SLP126 T01000056,M
WMC,2024-09-20 10:56,-117.8072,40.9019,1315.00,44.00,40.00,85.71,0.00,0.00,0.00,30.00,1012.90,10.00,M,CLR,M,M,M,M,M,M,M,M,M,M,M,M,M,M,44.00,KWMC 201056Z AUTO 00000KT 10SM CLR 07/04 A3000 RMK AO2 SLP129 T00670044,M
HND,2024-09-20 10:56,-115.1344,35.9729,742.79,68.00,41.00,37.32,200.00,3.00,0.00,29.84,1009.50,10.00,M,BKN,M,M,M,8500.00,M,M,M,M,M,M,M,M,M,M,68.00,KHND 201056Z AUTO 20003KT 10SM BKN085 20/05 A2984 RMK AO2 SLP095 T02000050,M
TPH,2024-09-20 10:56,-117.0904,38.0505,1654.00,52.00,30.00,42.65,10.00,12.00,0.00,30.01,1010.40,10.00,M,CLR,M,M,M,M,M,M,M,M,M,M,M,M,M,M,52.00,KTPH 201056Z AUTO 01012KT 10SM CLR 11/M01 A3001 RMK AO2 SLP104 T01111011,M
LAS,2024-09-20 10:56,-115.1634,36.0719,663.00,71.00,39.00,31.16,280.00,4.00,0.00,29.81,1007.30,10.00,M,SCT,M,M,M,9000.00,M,M,M,M,M,M,M,M,M,M,71.00,KLAS 201056Z 28004KT 10SM SCT090 22/04 A2981 RMK AO2 SLP073 T02170039 $,M
NFL,2024-09-20 10:57,-118.7010,39.4166,1199.00,50.00,43.00,76.76,0.00,0.00,0.00,29.99,1012.70,10.00,M,CLR,M,M,M,M,M,M,M,M,M,M,M,M,M,M,50.00,KNFL 201057Z AUTO 00000KT 10SM CLR 10/06 A2999 RMK AO2 SLP127 T01000061,M
05U,2024-09-20 11:10,-116.0051,39.6042,1811.23,37.40,32.00,80.65,0.00,0.00,0.00,30.08,M,9.00,M,CLR,M,M,M,M,M,M,M,M,M,M,M,M,M,M,37.40,K05U 201110Z AUTO 00000KT 9SM CLR 03/00 A3008 RMK A01,M
BVU,2024-09-20 11:15,-114.8611,35.9475,671.00,66.20,44.60,45.60,0.00,0.00,0.00,29.79,M,10.00,M,BKN,M,M,M,8500.00,M,M,M,M,M,M,M,M,M,M,66.20,KBVU 201115Z AUTO 00000KT 10SM BKN085 19/07 A2979 RMK AO2,M
CXP,2024-09-20 11:15,-119.7326,39.1923,1431.00,44.60,41.00,87.09,0.00,0.00,0.00,30.07,M,10.00,M,CLR,M,M,M,M,M,M,M,M,M,M,M,M,M,M,44.60,KCXP 201115Z AUTO 00000KT 10SM CLR 07/05 A3007 RMK AO2,M
RTS,2024-09-20 11:15,-119.8764,39.6682,1539.00,41.00,37.40,86.89,320.00,3.00,0.00,30.06,M,10.00,M,CLR,M,M,M,M,M,M,M,M,M,M,M,M,M,M,38.98,KRTS 201115Z AUTO 32003KT 10SM CLR 05/03 A3006 RMK AO2,M
MEV,2024-09-20 11:15,-119.7500,38.9963,1441.42,39.20,37.40,93.19,0.00,0.00,0.00,30.06,M,10.00,M,BKN,BKN,M,M,4100.00,4900.00,M,M,M,M,M,M,M,M,M,39.20,KMEV 201115Z AUTO 00000KT 10SM BKN041 BKN049 04/03 A3006 RMK AO2,M
BAM,2024-09-20 11:15,-116.8743,40.5990,1382.36,48.20,37.40,66.05,300.00,5.00,0.00,30.02,M,10.00,M,CLR,M,M,M,M,M,M,M,M,M,M,M,M,M,M,45.63,KBAM 201115Z AUTO 30005KT 10SM CLR 09/03 A3002 RMK AO1,M
HTH,2024-09-20 11:15,-118.6315,38.5448,1282.89,50.00,44.60,81.61,0.00,0.00,0.00,30.02,M,10.00,M,BKN,M,M,M,4300.00,M,M,M,M,M,M,M,M,M,M,50.00,KHTH 201115Z AUTO 00000KT 10SM BKN043 10/07 A3002 RMK A01,M
TMT,2024-09-20 11:15,-117.1971,39.4643,1749.34,34.50,34.00,98.02,0.00,0.00,0.00,30.07,M,10.00,M,CLR,M,M,M,M,M,M,M,M,M,M,M,M,M,M,34.50,KTMT 201115Z AUTO 00000KT 10SM CLR 01/01 A3007 RMK AO2 T00140011,M
10U,2024-09-20 11:15,-116.1876,41.9532,1637.00,42.80,39.20,86.99,150.00,7.00,0.00,30.05,M,10.00,M,CLR,M,M,M,M,M,M,M,M,M,M,M,M,M,M,37.94,K10U 201115Z AUTO 15007KT 10SM CLR 06/04 A3005 RMK AO2,M
05U,2024-09-20 11:30,-116.0051,39.6042,1811.23,37.40,32.00,80.65,0.00,0.00,0.00,30.08,M,10.00,M,CLR,M,M,M,M,M,M,M,M,M,M,M,M,M,M,37.40,K05U 201130Z AUTO 00000KT 10SM CLR 03/00 A3008 RMK A01,M
BVU,2024-09-20 11:35,-114.8611,35.9475,671.00,68.00,42.80,40.00,0.00,0.00,0.00,29.79,M,10.00,M,BKN,M,M,M,8500.00,M,M,M,M,M,M,M,M,M,M,68.00,KBVU 201135Z AUTO 00000KT 10SM BKN085 20/06 A2979 RMK AO2,M
BAM,2024-09-20 11:35,-116.8743,40.5990,1382.36,46.40,37.40,70.68,70.00,3.00,0.00,30.02,M,10.00,M,CLR,M,M,M,M,M,M,M,M,M,M,M,M,M,M,45.15,KBAM 201135Z AUTO 07003KT 10SM CLR 08/03 A3002 RMK AO1,M
CXP,2024-09-20 11:35,-119.7326,39.1923,1431.00,44.60,41.00,87.09,0.00,0.00,0.00,30.07,M,10.00,M,CLR,M,M,M,M,M,M,M,M,M,M,M,M,M,M,44.60,KCXP 201135Z AUTO 00000KT 10SM CLR 07/05 A3007 RMK AO2,M
RTS,2024-09-20 11:35,-119.8764,39.6682,1539.00,42.80,39.20,86.99,350.00,3.00,0.00,30.06,M,10.00,M,CLR,M,M,M,M,M,M,M,M,M,M,M,M,M,M,41.03,KRTS 201135Z AUTO 35003KT 10SM CLR 06/04 A3006 RMK AO2,M
MEV,2024-09-20 11:35,-119.7500,38.9963,1441.42,39.20,37.40,93.19,120.00,3.00,0.00,30.05,M,10.00,M,BKN,BKN,M,M,4300.00,4800.00,M,M,M,M,M,M,M,M,M,36.92,KMEV 201135Z AUTO 12003KT 10SM BKN043 BKN048 04/03 A3005 RMK AO2,M
HTH,2024-09-20 11:35,-118.6315,38.5448,1282.89,51.80,44.60,76.34,M,M,0.00,30.02,M,10.00,M,SCT,M,M,M,4200.00,M,M,M,M,M,M,M,M,M,M,51.80,KHTH 201135Z AUTO 3/00000003KT 10SM SCT042 11/07 A3002 RMK A01,M
TMT,2024-09-20 11:35,-117.1971,39.4643,1749.34,35.40,34.30,95.72,260.00,3.00,0.00,30.07,M,10.00,M,CLR,M,M,M,M,M,M,M,M,M,M,M,M,M,M,32.58,KTMT 201135Z AUTO 26003KT 10SM CLR 02/01 A3007 RMK AO2 T00190013,M
10U,2024-09-20 11:35,-116.1876,41.9532,1637.00,42.80,39.20,86.99,140.00,6.00,0.00,30.05,M,10.00,M,CLR,M,M,M,M,M,M,M,M,M,M,M,M,M,M,38.54,K10U 201135Z AUTO 14006KT 10SM CLR 06/04 A3005 RMK AO2,M
05U,2024-09-20 11:50,-116.0051,39.6042,1811.23,35.60,32.00,86.59,0.00,0.00,0.00,30.08,M,5.00,M,CLR,M,M,M,M,M,M,M,HZ,M,M,M,M,M,M,35.60,K05U 201150Z AUTO 00000KT 5SM HZ CLR 02/M00 A3008 RMK A01,M
P68,2024-09-20 11:53,-116.0056,39.6014,1993.00,36.00,32.00,85.23,150.00,6.00,0.00,30.05,1012.80,M,M,M,M,M,M,M,M,M,M,M,M,M,M,M,M,M,30.35,KP68 201153Z AUTO 15006KT 02/00 A3005 RMK AO1 SLP128 T00220000 10094 20022 58005,M
DRA,2024-09-20 11:53,-116.0278,36.6206,1009.00,60.00,32.00,34.61,20.00,3.00,0.00,29.86,1006.80,10.00,M,CLR,M,M,M,M,M,M,M,M,M,M,M,M,M,M,60.00,KDRA 201153Z AUTO 02003KT 10SM CLR 16/00 A2986 RMK AO2 SLP068 T01560000 10194 20144 58004,M
ELY,2024-09-20 11:53,-114.8453,39.2950,1909.00,41.00,28.00,59.55,170.00,10.00,0.00,30.06,1011.00,10.00,M,CLR,M,M,M,M,M,M,M,M,M,M,M,M,M,M,34.25,KELY 201153Z AUTO 17010KT 10SM CLR 05/M02 A3006 RMK AO2 SLP110 60000 T00501022 10139 20044 58007,M
LOL,2024-09-20 11:53,-118.5701,40.0684,1192.43,47.00,40.00,76.49,M,M,0.00,29.99,1013.20,10.00,M,CLR,M,M,M,M,M,M,M,M,M,M,M,M,M,M,M,KLOL 201153Z AUTO 10SM CLR 08/04 A2999 RMK AO2 SLP132 T00830044 10128 20067 53000,M
BVU,2024-09-20 11:55,-114.8611,35.9475,671.00,66.20,44.60,45.60,0.00,0.00,0.00,29.79,M,10.00,M,BKN,M,M,M,8500.00,M,M,M,M,M,M,M,M,M,M,66.20,KBVU 201155Z AUTO 00000KT 10SM BKN085 19/07 A2979 RMK AO2,M
RNO,2024-09-20 11:55,-119.7711,39.4839,1341.00,52.00,40.00,63.48,290.00,8.00,0.00,30.04,1013.20,10.00,M,CLR,M,M,M,M,M,M,M,M,M,M,M,M,M,M,52.00,KRNO 201155Z 29008KT 10SM CLR 11/04 A3004 RMK AO2 SLP132 T01110044 10161 20100 56003,M
CXP,2024-09-20 11:55,-119.7326,39.1923,1431.00,44.60,41.00,87.09,310.00,4.00,0.00,30.07,M,10.00,M,CLR,M,M,M,M,M,M,M,M,M,M,M,M,M,M,42.13,KCXP 201155Z AUTO 31004KT 10SM CLR 07/05 A3007 RMK AO2,M
RTS,2024-09-20 11:55,-119.8764,39.6682,1539.00,42.80,39.20,86.99,0.00,0.00,0.00,30.06,M,10.00,M,CLR,M,M,M,M,M,M,M,M,M,M,M,M,M,M,42.80,KRTS 201155Z AUTO 00000KT 10SM CLR 06/04 A3006 RMK AO2,M
MEV,2024-09-20 11:55,-119.7500,38.9963,1441.42,39.20,37.40,93.19,130.00,5.00,0.00,30.05,M,10.00,M,FEW,SCT,BKN,M,3300.00,4100.00,4600.00,M,M,M,M,M,M,M,M,34.95,KMEV 201155Z AUTO 13005KT 10SM FEW033 SCT041 BKN046 04/03 A3005 RMK AO2,M
BAM,2024-09-20 11:55,-116.8743,40.5990,1382.36,42.80,33.80,70.28,110.00,3.00,0.00,30.03,M,10.00,M,CLR,M,M,M,M,M,M,M,M,M,M,M,M,M,M,41.03,KBAM 201155Z AUTO 11003KT 10SM CLR 06/01 A3003 RMK AO1,M
HTH,2024-09-20 11:55,-118.6315,38.5448,1282.89,50.00,44.60,81.61,0.00,0.00,0.00,30.02,M,10.00,M,CLR,M,M,M,M,M,M,M,M,M,M,M,M,M,M,50.00,KHTH 201155Z AUTO 00000KT 10SM CLR 10/07 A3002 RMK A01,M
TMT,2024-09-20 11:55,-117.1971,39.4643,1749.34,34.70,33.40,94.94,0.00,0.00,0.00,30.07,M,10.00,M,CLR,M,M,M,M,M,M,M,M,M,M,M,M,M,M,34.70,KTMT 201155Z AUTO 00000KT 10SM CLR 02/01 A3007 RMK AO2 T00150008 10080 20014,M
10U,2024-09-20 11:55,-116.1876,41.9532,1637.00,42.80,39.20,86.99,140.00,4.00,0.00,30.05,M,10.00,M,CLR,M,M,M,M,M,M,M,M,M,M,M,M,M,M,40.03,K10U 201155Z AUTO 14004KT 10SM CLR 06/04 A3005 RMK AO2,M
INS,2024-09-20 11:55,-115.6733,36.5872,955.00,58.60,26.40,28.95,0.00,0.00,0.00,29.85,1006.70,10.00,M,CLR,M,M,M,M,M,M,M,M,M,M,M,M,M,M,58.60,KINS 201155Z AUTO 00000KT 10SM CLR 15/M03 A2985 RMK AO2 SLP067 T01481031 10209 20135 58004,M
LSV,2024-09-20 11:55,-115.0343,36.2362,570.00,71.20,34.50,25.91,0.00,0.00,0.00,29.75,1004.90,10.00,M,SCT,M,M,M,9000.00,M,M,M,M,M,M,M,M,M,M,71.20,KLSV 201155Z AUTO 00000KT 10SM SCT090 22/01 A2975 RMK AO2 SLP049 T02180014 10258 20206 58001 $,M
EKO,2024-09-20 11:56,-115.7860,40.8242,1367.00,49.00,41.00,73.77,100.00,3.00,0.00,30.02,1012.60,10.00,M,CLR,M,M,M,M,M,M,M,M,M,M,M,M,M,M,48.12,KEKO 201156Z AUTO 10003KT 10SM CLR 09/05 A3002 RMK AO2 SLP126 60000 T00940050 10172 20089 56003,M
WMC,2024-09-20 11:56,-117.8072,40.9019,1315.00,41.00,37.00,85.54,0.00,0.00,0.00,30.00,1013.10,10.00,M,CLR,M,M,M,M,M,M,M,M,M,M,M,M,M,M,41.00,KWMC 201156Z AUTO 00000KT 10SM CLR 05/03 A3000 RMK AO2 SLP131 T00500028 10128 20050 56006 $,M
HND,2024-09-20 11:56,-115.1344,35.9729,742.79,66.00,41.00,39.99,0.00,0.00,0.00,29.83,1009.50,10.00,M,FEW,M,M,M,9000.00,M,M,M,M,M,M,M,M,M,M,66.00,KHND 201156Z AUTO 00000KT 10SM FEW090 19/05 A2983 RMK AO2 SLP095 T01890050 10228 20189 56002,M
TPH,2024-09-20 11:56,-117.0904,38.0505,1654.00,49.00,30.00,47.68,10.00,8.00,0.00,30.01,1011.00,10.00,M,CLR,M,M,M,M,M,M,M,M,M,M,M,M,M,M,45.05,KTPH 201156Z AUTO 01008KT 10SM CLR 09/M01 A3001 RMK AO2 SLP110 T00941011 10156 20094 57003,M
LAS,2024-09-20 11:56,-115.1634,36.0719,663.00,70.00,39.00,32.24,230.00,3.00,0.00,29.81,1007.10,10.00,M,SCT,M,M,M,8000.00,M,M,M,M,M,M,M,M,M,M,70.00,KLAS 201156Z 23003KT 10SM SCT080 21/04 A2981 RMK AO2 SLP071 T02110039 10250 20211 58003 $,M
NFL,2024-09-20 11:57,-118.7010,39.4166,1199.00,47.00,43.00,85.89,0.00,0.00,0.00,30.00,1012.80,10.00,M,CLR,M,M,M,M,M,M,M,M,M,M,M,M,M,M,47.00,KNFL 201157Z AUTO 00000KT 10SM CLR 08/06 A3000 RMK AO2 SLP128 T00830061 10128 20078 55001,M
05U,2024-09-20 12:10,-116.0051,39.6042,1811.23,35.60,32.00,86.59,0.00,0.00,0.00,30.08,M,10.00,M,CLR,M,M,M,M,M,M,M,M,M,M,M,M,M,M,35.60,K05U 201210Z AUTO 00000KT 10SM CLR 02/00 A3008 RMK A01,M
BVU,2024-09-20 12:15,-114.8611,35.9475,671.00,66.20,42.80,42.57,0.00,0.00,0.00,29.79,M,10.00,M,SCT,M,M,M,8500.00,M,M,M,M,M,M,M,M,M,M,66.20,KBVU 201215Z AUTO 00000KT 10SM SCT085 19/06 A2979 RMK AO2,M
CXP,2024-09-20 12:15,-119.7326,39.1923,1431.00,46.40,41.00,81.34,0.00,0.00,0.00,30.07,M,10.00,M,CLR,M,M,M,M,M,M,M,M,M,M,M,M,M,M,46.40,KCXP 201215Z AUTO 00000KT 10SM CLR 08/05 A3007 RMK AO2,M
RTS,2024-09-20 12:15,-119.8764,39.6682,1539.00,44.60,39.20,81.20,0.00,0.00,0.00,30.06,M,10.00,M,CLR,M,M,M,M,M,M,M,M,M,M,M,M,M,M,44.60,KRTS 201215Z AUTO 00000KT 10SM CLR 07/04 A3006 RMK AO2,M
MEV,2024-09-20 12:15,-119.7500,38.9963,1441.42,37.40,37.40,100.00,0.00,0.00,0.00,30.06,M,10.00,M,SCT,SCT,SCT,M,3300.00,4100.00,4800.00,M,M,M,M,M,M,M,M,37.40,KMEV 201215Z AUTO 00000KT 10SM SCT033 SCT041 SCT048 03/03 A3006 RMK AO2,M
BAM,2024-09-20 12:15,-116.8743,40.5990,1382.36,44.60,33.80,65.61,0.00,0.00,0.00,30.03,M,10.00,M,CLR,M,M,M,M,M,M,M,M,M,M,M,M,M,M,44.60,KBAM 201215Z AUTO 00000KT 10SM CLR 07/01 A3003 RMK AO1,M
HTH,2024-09-20 12:15,-118.6315,38.5448,1282.89,50.00,44.60,81.61,230.00,4.00,0.00,30.03,M,10.00,M,FEW,M,M,M,3900.00,M,M,M,M,M,M,M,M,M,M,50.00,KHTH 201215Z AUTO 23004KT 10SM FEW039 10/07 A3003 RMK A01,M
TMT,2024-09-20 12:15,-117.1971,39.4643,1749.34,34.30,33.80,98.02,0.00,0.00,0.00,30.08,M,10.00,M,CLR,M,M,M,M,M,M,M,M,M,M,M,M,M,M,34.30,KTMT 201215Z AUTO 00000KT 10SM CLR 01/01 A3008 RMK AO2 T00130010,M
10U,2024-09-20 12:15,-116.1876,41.9532,1637.00,41.00,37.40,86.89,140.00,6.00,0.00,30.05,M,10.00,M,CLR,M,M,M,M,M,M,M,M,M,M,M,M,M,M,36.37,K10U 201215Z AUTO 14006KT 10SM CLR 05/03 A3005 RMK AO2,M
05U,2024-09-20 12:30,-116.0051,39.6042,1811.23,39.20,33.80,80.79,0.00,0.00,0.00,30.08,M,10.00,M,CLR,M,M,M,M,M,M,M,M,M,M,M,M,M,M,39.20,K05U 201230Z AUTO 00000KT 10SM CLR 04/01 A3008 RMK A01,M
BVU,2024-09-20 12:35,-114.8611,35.9475,671.00,64.40,44.60,48.55,0.00,0.00,0.00,29.79,M,10.00,M,FEW,M,M,M,8500.00,M,M,M,M,M,M,M,M,M,M,64.40,KBVU 201235Z AUTO 00000KT 10SM FEW085 18/07 A2979 RMK AO2,M
BAM,2024-09-20 12:35,-116.8743,40.5990,1382.36,42.80,33.80,70.28,150.00,4.00,0.00,30.04,M,10.00,M,CLR,M,M,M,M,M,M,M,M,M,M,M,M,M,M,40.03,KBAM 201235Z AUTO 15004KT 10SM CLR 06/01 A3004 RMK AO1,M
CXP,2024-09-20 12:35,-119.7326,39.1923,1431.00,44.60,41.00,87.09,0.00,0.00,0.00,30.08,M,10.00,M,CLR,M,M,M,M,M,M,M,M,M,M,M,M,M,M,44.60,KCXP 201235Z AUTO 00000KT 10SM CLR 07/05 A3008 RMK AO2,M
RTS,2024-09-20 12:35,-119.8764,39.6682,1539.00,42.80,37.40,81.07,0.00,0.00,0.00,30.07,M,10.00,M,CLR,M,M,M,M,M,M,M,M,M,M,M,M,M,M,42.80,KRTS 201235Z AUTO 00000KT 10SM CLR 06/03 A3007 RMK AO2,M
MEV,2024-09-20 12:35,-119.7500,38.9963,1441.42,37.40,37.40,100.00,0.00,0.00,0.00,30.07,M,10.00,M,SCT,SCT,BKN,M,3400.00,4100.00,4800.00,M,M,M,M,M,M,M,M,37.40,KMEV 201235Z AUTO 00000KT 10SM SCT034 SCT041 BKN048 03/03 A3007 RMK AO2,M
HTH,2024-09-20 12:35,-118.6315,38.5448,1282.89,50.00,44.60,81.61,230.00,4.00,0.00,30.03,M,10.00,M,FEW,M,M,M,3800.00,M,M,M,M,M,M,M,M,M,M,50.00,KHTH 201235Z AUTO 23004KT 10SM FEW038 10/07 A3003 RMK A01,M
TMT,2024-09-20 12:35,-117.1971,39.4643,1749.34,35.00,33.80,95.33,0.00,0.00,0.00,30.08,M,10.00,M,CLR,M,M,M,M,M,M,M,M,M,M,M,M,M,M,35.00,KTMT 201235Z AUTO 00000KT 10SM CLR 02/01 A3008 RMK AO2 T00160010,M
10U,2024-09-20 12:35,-116.1876,41.9532,1637.00,42.80,39.20,86.99,150.00,5.00,0.00,30.05,M,10.00,M,CLR,M,M,M,M,M,M,M,M,M,M,M,M,M,M,39.22,K10U 201235Z AUTO 15005KT 10SM CLR 06/04 A3005 RMK AO2,M
MEV,2024-09-20 12:45,-119.7500,38.9963,1441.42,37.40,35.60,93.14,0.00,0.00,0.00,30.07,M,10.00,M,FEW,SCT,SCT,M,3200.00,3900.00,4700.00,M,M,M,M,M,M,M,M,37.40,KMEV 201245Z AUTO 00000KT 10SM FEW032 SCT039 SCT047 03/02 A3007 RMK AO2,M
RTS,2024-09-20 12:45,-119.8764,39.6682,1539.00,41.00,37.40,86.89,0.00,0.00,0.00,30.07,M,10.00,M,CLR,M,M,M,M,M,M,M,M,M,M,M,M,M,M,41.00,KRTS 201245Z AUTO 00000KT 10SM CLR 05/03 A3007 RMK AO2,M
05U,2024-09-20 12:50,-116.0051,39.6042,1811.23,37.40,33.80,86.69,0.00,0.00,0.00,30.08,M,10.00,M,CLR,M,M,M,M,M,M,M,M,M,M,M,M,M,M,37.40,K05U 201250Z AUTO 00000KT 10SM CLR 03/01 A3008 RMK A01,M
P68,2024-09-20 12:53,-116.0056,39.6014,1993.00,38.00,33.00,82.00,190.00,6.00,0.00,30.05,1012.80,M,M,M,M,M,M,M,M,M,M,M,M,M,M,M,M,M,32.76,KP68 201253Z AUTO 19006KT 03/01 A3005 RMK AO1 SLP128 T00330006,M
DRA,2024-09-20 12:53,-116.0278,36.6206,1009.00,60.00,33.00,36.03,90.00,3.00,0.00,29.86,1007.10,10.00,M,CLR,M,M,M,M,M,M,M,M,M,M,M,M,M,M,60.00,KDRA 201253Z AUTO 09003KT 10SM CLR 16/01 A2986 RMK AO2 SLP071 T01560006,M
ELY,2024-09-20 12:53,-114.8453,39.2950,1909.00,38.00,27.00,64.24,190.00,5.00,0.00,30.07,1011.90,10.00,M,CLR,M,M,M,M,M,M,M,M,M,M,M,M,M,M,33.52,KELY 201253Z AUTO 19005KT 10SM CLR 03/M03 A3007 RMK AO2 SLP119 T00331028,M
LOL,2024-09-20 12:53,-118.5701,40.0684,1192.43,41.00,36.00,82.22,100.00,4.00,0.00,30.00,1014.20,10.00,M,CLR,M,M,M,M,M,M,M,M,M,M,M,M,M,M,37.93,KLOL 201253Z AUTO 10004KT 10SM CLR 05/02 A3000 RMK AO2 SLP142 T00500022,M
BAM,2024-09-20 12:55,-116.8743,40.5990,1382.36,41.00,32.00,70.08,180.00,5.00,0.00,30.04,M,10.00,M,CLR,M,M,M,M,M,M,M,M,M,M,M,M,M,M,37.08,KBAM 201255Z AUTO 18005KT 10SM CLR 05/00 A3004 RMK AO1,M
BVU,2024-09-20 12:55,-114.8611,35.9475,671.00,64.40,42.80,45.32,0.00,0.00,0.00,29.80,M,10.00,M,SCT,M,M,M,8500.00,M,M,M,M,M,M,M,M,M,M,64.40,KBVU 201255Z AUTO 00000KT 10SM SCT085 18/06 A2980 RMK AO2,M
RNO,2024-09-20 12:55,-119.7711,39.4839,1341.00,50.00,40.00,68.37,290.00,3.00,0.00,30.05,1013.80,10.00,M,CLR,M,M,M,M,M,M,M,M,M,M,M,M,M,M,50.00,KRNO 201255Z 29003KT 10SM CLR 10/04 A3005 RMK AO2 SLP138 T01000044,M
CXP,2024-09-20 12:55,-119.7326,39.1923,1431.00,42.80,41.00,93.30,0.00,0.00,0.00,30.08,M,10.00,M,CLR,M,M,M,M,M,M,M,M,M,M,M,M,M,M,42.80,KCXP 201255Z AUTO 00000KT 10SM CLR 06/05 A3008 RMK AO2,M
HTH,2024-09-20 12:55,-118.6315,38.5448,1282.89,50.00,44.60,81.61,260.00,5.00,0.00,30.04,M,10.00,M,FEW,M,M,M,3700.00,M,M,M,M,M,M,M,M,M,M,50.00,KHTH 201255Z AUTO 26005KT 10SM FEW037 10/07 A3004 RMK A01,M
TMT,2024-09-20 12:55,-117.1971,39.4643,1749.34,32.00,30.70,94.88,150.00,3.00,0.00,30.08,M,10.00,M,CLR,M,M,M,M,M,M,M,M,M,M,M,M,M,M,28.69,KTMT 201255Z AUTO 15003KT 10SM CLR 00/M01 A3008 RMK AO2 T00011007,M
10U,2024-09-20 12:55,-116.1876,41.9532,1637.00,41.00,37.40,86.89,160.00,5.00,0.00,30.05,M,10.00,M,CLR,M,M,M,M,M,M,M,M,M,M,M,M,M,M,37.08,K10U 201255Z AUTO 16005KT 10SM CLR 05/03 A3005 RMK AO2,M
INS,2024-09-20 12:55,-115.6733,36.5872,955.00,57.20,26.80,30.95,280.00,3.00,0.00,29.86,1007.20,10.00,M,CLR,M,M,M,M,M,M,M,M,M,M,M,M,M,M,57.20,KINS 201255Z AUTO 28003KT 10SM CLR 14/M03 A2986 RMK AO2 SLP072 T01401029,M
LSV,2024-09-20 12:55,-115.0343,36.2362,570.00,71.00,31.30,22.94,0.00,0.00,0.00,29.76,1005.40,10.00,M,CLR,M,M,M,M,M,M,M,M,M,M,M,M,M,M,71.00,KLSV 201255Z AUTO 00000KT 10SM CLR 22/M00 A2976 RMK AO2 SLP054 T02161004 $,M
EKO,2024-09-20 12:56,-115.7860,40.8242,1367.00,44.00,39.00,82.44,0.00,0.00,0.00,30.03,1013.80,10.00,M,CLR,M,M,M,M,M,M,M,M,M,M,M,M,M,M,44.00,KEKO 201256Z AUTO 00000KT 10SM CLR 07/04 A3003 RMK AO2 SLP138 T00670039,M
WMC,2024-09-20 12:56,-117.8072,40.9019,1315.00,42.00,38.00,85.60,150.00,5.00,0.00,30.01,1013.50,10.00,M,CLR,M,M,M,M,M,M,M,M,M,M,M,M,M,M,38.27,KWMC 201256Z AUTO 15005KT 10SM CLR 06/03 A3001 RMK AO2 SLP135 T00560033 $,M
HND,2024-09-20 12:56,-115.1344,35.9729,742.79,64.00,41.00,42.88,0.00,0.00,0.00,29.84,1009.90,10.00,M,FEW,M,M,M,8500.00,M,M,M,M,M,M,M,M,M,M,64.00,KHND 201256Z 00000KT 10SM FEW085 18/05 A2984 RMK AO2 SLP099 T01780050,M
TPH,2024-09-20 12:56,-117.0904,38.0505,1654.00,48.00,31.00,51.54,340.00,9.00,0.00,30.01,1011.20,10.00,M,CLR,M,M,M,M,M,M,M,M,M,M,M,M,M,M,43.41,KTPH 201256Z AUTO 34009KT 10SM CLR 09/M01 A3001 RMK AO2 SLP112 T00891006,M
LAS,2024-09-20 12:56,-115.1634,36.0719,663.00,70.00,39.00,32.24,200.00,3.00,0.00,29.81,1007.30,10.00,M,SCT,M,M,M,9000.00,M,M,M,M,M,M,M,M,M,M,70.00,KLAS 201256Z 20003KT 10SM SCT090 21/04 A2981 RMK AO2 SLP073 T02110039 $,M
NFL,2024-09-20 12:57,-118.7010,39.4166,1199.00,45.00,42.00,89.15,110.00,3.00,0.00,30.00,1013.10,10.00,M,CLR,M,M,M,M,M,M,M,M,M,M,M,M,M,M,43.55,KNFL 201257Z AUTO 11003KT 10SM CLR 07/06 A3000 RMK AO2 SLP131 T00720056,M
LAS,2024-09-20 13:08,-115.1634,36.0719,663.00,70.00,39.00,32.24,200.00,4.00,0.00,29.82,M,10.00,M,SCT,M,M,M,9000.00,M,M,M,TS,M,M,M,M,M,M,70.00,KLAS 201308Z 20004KT 10SM TS SCT090 21/04 A2982 RMK AO2 LTG DSNT W TSB07 OCNL LTGIC W TS W MOV N T02110039 $,M
05U,2024-09-20 13:10,-116.0051,39.6042,1811.23,39.20,33.80,80.79,0.00,0.00,0.00,30.08,M,10.00,M,CLR,M,M,M,M,M,M,M,M,M,M,M,M,M,M,39.20,K05U 201310Z AUTO 00000KT 10SM CLR 04/01 A3008 RMK A01,M
BVU,2024-09-20 13:15,-114.8611,35.9475,671.00,64.40,42.80,45.32,0.00,0.00,0.00,29.80,M,10.00,M,SCT,M,M,M,9000.00,M,M,M,M,M,M,M,M,M,M,64.40,KBVU 201315Z AUTO 00000KT 10SM SCT090 18/06 A2980 RMK AO2,M
CXP,2024-09-20 13:15,-119.7326,39.1923,1431.00,42.80,39.20,86.99,300.00,3.00,0.00,30.09,M,10.00,M,CLR,M,M,M,M,M,M,M,M,M,M,M,M,M,M,41.03,KCXP 201315Z AUTO 30003KT 10SM CLR 06/04 A3009 RMK AO2,M
RTS,2024-09-20 13:15,-119.8764,39.6682,1539.00,42.80,39.20,86.99,0.00,0.00,0.00,30.07,M,10.00,M,CLR,M,M,M,M,M,M,M,M,M,M,M,M,M,M,42.80,KRTS 201315Z AUTO 00000KT 10SM CLR 06/04 A3007 RMK AO2,M
MEV,2024-09-20 13:15,-119.7500,38.9963,1441.42,37.40,35.60,93.14,0.00,0.00,0.00,30.07,M,10.00,M,FEW,FEW,M,M,4600.00,5500.00,M,M,M,M,M,M,M,M,M,37.40,KMEV 201315Z AUTO 00000KT 10SM FEW046 FEW055 03/02 A3007 RMK AO2,M
BAM,2024-09-20 13:15,-116.8743,40.5990,1382.36,42.80,33.80,70.28,190.00,3.00,0.00,30.04,M,10.00,M,CLR,M,M,M,M,M,M,M,M,M,M,M,M,M,M,41.03,KBAM 201315Z AUTO 19003KT 10SM CLR 06/01 A3004 RMK AO1,M
HTH,2024-09-20 13:15,-118.6315,38.5448,1282.89,50.00,44.60,81.61,290.00,4.00,0.00,30.04,M,10.00,M,FEW,M,M,M,3800.00,M,M,M,M,M,M,M,M,M,M,50.00,KHTH 201315Z AUTO 29004KT 10SM FEW038 10/07 A3004 RMK A01,M
TMT,2024-09-20 13:15,-117.1971,39.4643,1749.34,32.50,32.00,98.01,0.00,0.00,0.00,30.09,M,10.00,M,CLR,M,M,M,M,M,M,M,M,M,M,M,M,M,M,32.50,KTMT 201315Z AUTO 00000KT 10SM CLR 00/00 A3009 RMK AO2 T00030001,M
10U,2024-09-20 13:15,-116.1876,41.9532,1637.00,39.20,37.40,93.19,170.00,6.00,0.00,30.06,M,10.00,M,CLR,M,M,M,M,M,M,M,M,M,M,M,M,M,M,34.20,K10U 201315Z AUTO 17006KT 10SM CLR 04/03 A3006 RMK AO2,M
05U,2024-09-20 13:30,-116.0051,39.6042,1811.23,37.40,33.80,86.69,0.00,0.00,0.00,30.09,M,9.00,M,CLR,M,M,M,M,M,M,M,M,M,M,M,M,M,M,37.40,K05U 201330Z AUTO 00000KT 9SM CLR 03/01 A3009 RMK A01,M
LAS,2024-09-20 13:32,-115.1634,36.0719,663.00,70.00,39.00,32.24,250.00,3.00,0.00,29.82,M,10.00,M,SCT,M,M,M,9000.00,M,M,M,M,M,M,M,M,M,M,70.00,KLAS 201332Z 25003KT 10SM SCT090 21/04 A2982 RMK AO2 TSB07E31 CB DSNT SW AND NW MOV N T02110039 $,M
BVU,2024-09-20 13:35,-114.8611,35.9475,671.00,64.40,42.80,45.32,0.00,0.00,0.00,29.80,M,10.00,M,FEW,M,M,M,9500.00,M,M,M,M,M,M,M,M,M,M,64.40,KBVU 201335Z AUTO 00000KT 10SM FEW095 18/06 A2980 RMK AO2,M
CXP,2024-09-20 13:35,-119.7326,39.1923,1431.00,44.60,39.20,81.20,310.00,4.00,0.00,30.09,M,9.00,M,CLR,M,M,M,M,M,M,M,M,M,M,M,M,M,M,42.13,KCXP 201335Z AUTO 31004KT 9SM CLR 07/04 A3009 RMK AO2,M
RTS,2024-09-20 13:35,-119.8764,39.6682,1539.00,41.00,37.40,86.89,20.00,3.00,0.00,30.08,M,10.00,M,CLR,M,M,M,M,M,M,M,M,M,M,M,M,M,M,38.98,KRTS 201335Z AUTO 02003KT 10SM CLR 05/03 A3008 RMK AO2,M
MEV,2024-09-20 13:35,-119.7500,38.9963,1441.42,37.40,35.60,93.14,80.00,4.00,0.00,30.07,M,10.00,M,CLR,M,M,M,M,M,M,M,M,M,M,M,M,M,M,33.73,KMEV 201335Z AUTO 08004KT 10SM CLR 03/02 A3007 RMK AO2,M
BAM,2024-09-20 13:35,-116.8743,40.5990,1382.36,39.20,32.00,75.16,150.00,7.00,0.00,30.04,M,10.00,M,CLR,M,M,M,M,M,M,M,M,M,M,M,M,M,M,33.56,KBAM 201335Z AUTO 15007KT 10SM CLR 04/00 A3004 RMK AO1,M
HTH,2024-09-20 13:35,-118.6315,38.5448,1282.89,50.00,44.60,81.61,0.00,0.00,0.00,30.05,M,10.00,M,CLR,M,M,M,M,M,M,M,M,M,M,M,M,M,M,50.00,KHTH 201335Z AUTO 00000KT 10SM CLR 10/07 A3005 RMK A01,M
TMT,2024-09-20 13:35,-117.1971,39.4643,1749.34,32.70,32.00,97.22,0.00,0.00,0.00,30.09,M,10.00,M,CLR,M,M,M,M,M,M,M,M,M,M,M,M,M,M,32.70,KTMT 201335Z AUTO 00000KT 10SM CLR 00/00 A3009 RMK AO2 T00040001,M
10U,2024-09-20 13:35,-116.1876,41.9532,1637.00,41.00,37.40,86.89,170.00,5.00,0.00,30.06,M,10.00,M,CLR,M,M,M,M,M,M,M,M,M,M,M,M,M,M,37.08,K10U 201335Z AUTO 17005KT 10SM CLR 05/03 A3006 RMK AO2,M
05U,2024-09-20 13:50,-116.0051,39.6042,1811.23,39.20,33.80,80.79,0.00,0.00,0.00,30.09,M,9.00,M,CLR,M,M,M,M,M,M,M,M,M,M,M,M,M,M,39.20,K05U 201350Z AUTO 00000KT 9SM CLR 04/01 A3009 RMK A01,M
P68,2024-09-20 13:53,-116.0056,39.6014,1993.00,39.00,33.00,78.86,170.00,6.00,0.00,30.07,1013.70,M,M,M,M,M,M,M,M,M,M,M,M,M,M,M,M,M,33.96,KP68 201353Z AUTO 17006KT 04/01 A3007 RMK AO1 SLP137 T00390006,M
DRA,2024-09-20 13:53,-116.0278,36.6206,1009.00,60.00,33.00,36.03,0.00,0.00,0.00,29.87,1007.50,10.00,M,CLR,M,M,M,M,M,M,M,M,M,M,M,M,M,M,60.00,KDRA 201353Z AUTO 00000KT 10SM CLR 16/01 A2987 RMK AO2 SLP075 T01560006,M
ELY,2024-09-20 13:53,-114.8453,39.2950,1909.00,39.00,28.00,64.37,180.00,7.00,0.00,30.08,1013.30,10.00,M,CLR,M,M,M,M,M,M,M,M,M,M,M,M,M,M,33.31,KELY 201353Z AUTO 18007KT 10SM CLR 04/M02 A3008 RMK AO2 SLP133 T00391022,M
LOL,2024-09-20 13:53,-118.5701,40.0684,1192.43,42.00,38.00,85.60,320.00,4.00,0.00,30.02,1014.80,10.00,M,CLR,M,M,M,M,M,M,M,M,M,M,M,M,M,M,39.10,KLOL 201353Z AUTO 32004KT 10SM CLR 06/03 A3002 RMK AO2 SLP148 T00560033,M
BVU,2024-09-20 13:55,-114.8611,35.9475,671.00,64.40,42.80,45.32,0.00,0.00,0.00,29.81,M,10.00,M,FEW,M,M,M,9000.00,M,M,M,M,M,M,M,M,M,M,64.40,KBVU 201355Z AUTO 00000KT 10SM FEW090 18/06 A2981 RMK AO2,M
RNO,2024-09-20 13:55,-119.7711,39.4839,1341.00,48.00,41.00,76.58,0.00,0.00,0.00,30.06,1014.70,10.00,M,FEW,M,M,M,15000.00,M,M,M,M,M,M,M,M,M,M,48.00,KRNO 201355Z 00000KT 10SM FEW150 09/05 A3006 RMK AO2 SLP147 T00890050,M
CXP,2024-09-20 13:55,-119.7326,39.1923,1431.00,44.60,39.20,81.20,0.00,0.00,0.00,30.09,M,9.00,M,CLR,M,M,M,M,M,M,M,M,M,M,M,M,M,M,44.60,KCXP 201355Z AUTO 00000KT 9SM CLR 07/04 A3009 RMK AO2,M
RTS,2024-09-20 13:55,-119.8764,39.6682,1539.00,41.00,37.40,86.89,0.00,0.00,0.00,30.09,M,10.00,M,CLR,M,M,M,M,M,M,M,M,M,M,M,M,M,M,41.00,KRTS 201355Z AUTO 00000KT 10SM CLR 05/03 A3009 RMK AO2,M
MEV,2024-09-20 13:55,-119.7500,38.9963,1441.42,37.40,35.60,93.14,110.00,6.00,0.00,30.08,M,10.00,M,CLR,M,M,M,M,M,M,M,M,M,M,M,M,M,M,32.03,KMEV 201355Z AUTO 11006KT 10SM CLR 03/02 A3008 RMK AO2,M
BAM,2024-09-20 13:55,-116.8743,40.5990,1382.36,39.20,32.00,75.16,0.00,0.00,0.00,30.04,M,10.00,M,CLR,M,M,M,M,M,M,M,M,M,M,M,M,M,M,39.20,KBAM 201355Z AUTO 00000KT 10SM CLR 04/00 A3004 RMK AO1,M
HTH,2024-09-20 13:55,-118.6315,38.5448,1282.89,50.00,44.60,81.61,240.00,4.00,0.00,30.06,M,10.00,M,CLR,M,M,M,M,M,M,M,M,M,M,M,M,M,M,50.00,KHTH 201355Z AUTO 24004KT 10SM CLR 10/07 A3006 RMK A01,M
TMT,2024-09-20 13:55,-117.1971,39.4643,1749.34,33.30,32.40,96.45,0.00,0.00,0.00,30.11,M,10.00,M,CLR,M,M,M,M,M,M,M,M,M,M,M,M,M,M,33.30,KTMT 201355Z AUTO 00000KT 10SM CLR 01/00 A3011 RMK AO2 T00070002,M
10U,2024-09-20 13:55,-116.1876,41.9532,1637.00,41.00,37.40,86.89,160.00,7.00,0.00,30.07,M,10.00,M,CLR,M,M,M,M,M,M,M,M,M,M,M,M,M,M,35.75,K10U 201355Z AUTO 16007KT 10SM CLR 05/03 A3007 RMK AO2,M
INS,2024-09-20 13:55,-115.6733,36.5872,955.00,56.00,26.00,31.27,0.00,0.00,0.00,29.87,1008.00,10.00,M,CLR,M,M,M,M,M,M,M,M,M,M,M,M,M,M,56.00,KINS 201355Z AUTO 00000KT 10SM CLR 13/M03 A2987 RMK AO2 SLP080 T01341034,M
LSV,2024-09-20 13:55,-115.0343,36.2362,570.00,71.00,33.30,24.87,0.00,0.00,0.00,29.77,1005.80,10.00,M,FEW,M,M,M,11000.00,M,M,M,M,M,M,M,M,M,M,71.00,KLSV 201355Z AUTO 00000KT 10SM FEW110 22/01 A2977 RMK AO2 SLP058 T02160007 $,M
EKO,2024-09-20 13:56,-115.7860,40.8242,1367.00,44.00,40.00,85.71,0.00,0.00,0.00,30.05,1015.00,10.00,M,CLR,M,M,M,M,M,M,M,M,M,M,M,M,M,M,44.00,KEKO 201356Z AUTO 00000KT 10SM CLR 07/04 A3005 RMK AO2 SLP150 T00670044,M
WMC,2024-09-20 13:56,-117.8072,40.9019,1315.00,42.00,38.00,85.60,350.00,3.00,0.00,30.03,1014.60,10.00,M,CLR,M,M,M,M,M,M,M,M,M,M,M,M,M,M,40.12,KWMC 201356Z AUTO 35003KT 10SM CLR 06/03 A3003 RMK AO2 SLP146 T00560033 $,M
HND,2024-09-20 13:56,-115.1344,35.9729,742.79,65.00,41.00,41.41,180.00,5.00,0.00,29.85,1010.40,10.00,M,FEW,M,M,M,8500.00,M,M,M,M,M,M,M,M,M,M,65.00,KHND 201356Z 18005KT 10SM FEW085 18/05 A2985 RMK AO2 SLP104 T01830050,M
TPH,2024-09-20 13:56,-117.0904,38.0505,1654.00,48.00,32.00,53.67,340.00,7.00,0.00,30.02,1011.60,10.00,M,CLR,M,M,M,M,M,M,M,M,M,M,M,M,M,M,44.28,KTPH 201356Z AUTO 34007KT 10SM CLR 09/00 A3002 RMK AO2 SLP116 T00890000,M
LAS,2024-09-20 13:56,-115.1634,36.0719,663.00,71.00,39.00,31.16,300.00,3.00,0.00,29.83,1007.70,10.00,M,SCT,M,M,M,9000.00,M,M,M,M,M,M,M,M,M,M,71.00,KLAS 201356Z 30003KT 10SM SCT090 22/04 A2983 RMK AO2 TSB07E31 SLP077 CB DSNT NW MOV N T02170039 $,M
05U,2024-09-20 14:10,-116.0051,39.6042,1811.23,41.00,35.60,80.93,0.00,0.00,0.00,30.10,M,10.00,M,CLR,M,M,M,M,M,M,M,M,M,M,M,M,M,M,41.00,K05U 201410Z AUTO 00000KT 10SM CLR 05/02 A3010 RMK A01,M
BVU,2024-09-20 14:15,-114.8611,35.9475,671.00,66.20,41.00,39.72,0.00,0.00,0.00,29.81,M,10.00,M,FEW,M,M,M,9000.00,M,M,M,M,M,M,M,M,M,M,66.20,KBVU 201415Z AUTO 00000KT 10SM FEW090 19/05 A2981 RMK AO2,M
CXP,2024-09-20 14:15,-119.7326,39.1923,1431.00,44.60,39.20,81.20,0.00,0.00,0.00,30.10,M,8.00,M,CLR,M,M,M,M,M,M,M,M,M,M,M,M,M,M,44.60,KCXP 201415Z AUTO 00000KT 8SM CLR 07/04 A3010 RMK AO2,M
RTS,2024-09-20 14:15,-119.8764,39.6682,1539.00,42.80,39.20,86.99,0.00,0.00,0.00,30.08,M,10.00,M,CLR,M,M,M,M,M,M,M,M,M,M,M,M,M,M,42.80,KRTS 201415Z AUTO 00000KT 10SM CLR 06/04 A3008 RMK AO2,M
MEV,2024-09-20 14:15,-119.7500,38.9963,1441.42,37.40,37.40,100.00,0.00,0.00,0.00,30.08,M,10.00,M,CLR,M,M,M,M,M,M,M,M,M,M,M,M,M,M,37.40,KMEV 201415Z AUTO 00000KT 10SM CLR 03/03 A3008 RMK AO2,M
BAM,2024-09-20 14:15,-116.8743,40.5990,1382.36,41.00,33.80,75.33,0.00,0.00,0.00,30.05,M,10.00,M,CLR,M,M,M,M,M,M,M,M,M,M,M,M,M,M,41.00,KBAM 201415Z AUTO 00000KT 10SM CLR 05/01 A3005 RMK AO1,M
HTH,2024-09-20 14:15,-118.6315,38.5448,1282.89,51.80,46.40,81.74,230.00,5.00,0.00,30.06,M,10.00,M,CLR,M,M,M,M,M,M,M,M,M,M,M,M,M,M,51.80,KHTH 201415Z AUTO 23005KT 10SM CLR 11/08 A3006 RMK A01,M
TMT,2024-09-20 14:15,-117.1971,39.4643,1749.34,35.20,34.70,98.03,0.00,0.00,0.00,30.11,M,10.00,M,CLR,M,M,M,M,M,M,M,M,M,M,M,M,M,M,35.20,KTMT 201415Z AUTO 00000KT 10SM CLR 02/02 A3011 RMK AO2 T00180015,M
10U,2024-09-20 14:15,-116.1876,41.9532,1637.00,44.60,39.20,81.20,160.00,5.00,0.00,30.07,M,10.00,M,CLR,M,M,M,M,M,M,M,M,M,M,M,M,M,M,41.36,K10U 201415Z AUTO 16005KT 10SM CLR 07/04 A3007 RMK AO2,M
05U,2024-09-20 14:30,-116.0051,39.6042,1811.23,44.60,37.40,75.68,0.00,0.00,0.00,30.10,M,10.00,M,CLR,M,M,M,M,M,M,M,M,M,M,M,M,M,M,44.60,K05U 201430Z AUTO 00000KT 10SM CLR 07/03 A3010 RMK A01,M
BVU,2024-09-20 14:35,-114.8611,35.9475,671.00,66.20,42.80,42.57,360.00,5.00,0.00,29.82,M,10.00,M,FEW,M,M,M,9000.00,M,M,M,M,M,M,M,M,M,M,66.20,KBVU 201435Z AUTO 36005KT 10SM FEW090 19/06 A2982 RMK AO2,M
CXP,2024-09-20 14:35,-119.7326,39.1923,1431.00,46.40,41.00,81.34,0.00,0.00,0.00,30.10,M,9.00,M,CLR,M,M,M,M,M,M,M,M,M,M,M,M,M,M,46.40,KCXP 201435Z AUTO 00000KT 9SM CLR 08/05 A3010 RMK AO2,M
RTS,2024-09-20 14:35,-119.8764,39.6682,1539.00,44.60,39.20,81.20,0.00,0.00,0.00,30.09,M,10.00,M,CLR,M,M,M,M,M,M,M,M,M,M,M,M,M,M,44.60,KRTS 201435Z AUTO 00000KT 10SM CLR 07/04 A3009 RMK AO2,M
MEV,2024-09-20 14:35,-119.7500,38.9963,1441.42,41.00,39.20,93.24,0.00,0.00,0.00,30.08,M,10.00,M,CLR,M,M,M,M,M,M,M,M,M,M,M,M,M,M,41.00,KMEV 201435Z AUTO 00000KT 10SM CLR 05/04 A3008 RMK AO2,M
BAM,2024-09-20 14:35,-116.8743,40.5990,1382.36,46.40,35.60,65.83,0.00,0.00,0.00,30.06,M,10.00,M,CLR,M,M,M,M,M,M,M,M,M,M,M,M,M,M,46.40,KBAM 201435Z AUTO 00000KT 10SM CLR 08/02 A3006 RMK AO1,M
HTH,2024-09-20 14:35,-118.6315,38.5448,1282.89,53.60,46.40,76.50,200.00,4.00,0.00,30.06,M,10.00,M,CLR,M,M,M,M,M,M,M,M,M,M,M,M,M,M,53.60,KHTH 201435Z AUTO 20004KT 10SM CLR 12/08 A3006 RMK A01,M
TMT,2024-09-20 14:35,-117.1971,39.4643,1749.34,39.00,38.00,96.16,300.00,3.00,0.00,30.11,M,10.00,M,CLR,M,M,M,M,M,M,M,M,M,M,M,M,M,M,36.69,KTMT 201435Z AUTO 30003KT 10SM CLR 04/03 A3011 RMK AO2 T00390033,M
10U,2024-09-20 14:35,-116.1876,41.9532,1637.00,48.20,41.00,76.01,160.00,3.00,0.00,30.08,M,10.00,M,CLR,M,M,M,M,M,M,M,M,M,M,M,M,M,M,47.21,K10U 201435Z AUTO 16003KT 10SM CLR 09/05 A3008 RMK AO2,M
05U,2024-09-20 14:50,-116.0051,39.6042,1811.23,48.20,37.40,66.05,0.00,0.00,0.00,30.11,M,10.00,M,CLR,M,M,M,M,M,M,M,M,M,M,M,M,M,M,48.20,K05U 201450Z AUTO 00000KT 10SM CLR 09/03 A3011 RMK A01,M
P68,2024-09-20 14:53,-116.0056,39.6014,1993.00,48.00,37.00,65.51,200.00,4.00,0.00,30.08,1013.40,M,M,M,M,M,M,M,M,M,M,M,M,M,M,M,M,M,46.10,KP68 201453Z AUTO 20004KT 09/03 A3008 RMK AO1 SLP134 T00890028 53007,M
DRA,2024-09-20 14:53,-116.0278,36.6206,1009.00,66.00,33.00,29.18,330.00,3.00,0.00,29.88,1007.70,10.00,M,CLR,M,M,M,M,M,M,M,M,M,M,M,M,M,M,66.00,KDRA 201453Z AUTO 33003KT 10SM CLR 19/01 A2988 RMK AO2 SLP077 T01890006 53008,M
ELY,2024-09-20 14:53,-114.8453,39.2950,1909.00,45.00,31.00,57.73,220.00,4.00,0.00,30.09,1013.20,10.00,M,CLR,M,M,M,M,M,M,M,M,M,M,M,M,M,M,42.60,KELY 201453Z AUTO 22004KT 10SM CLR 07/M01 A3009 RMK AO2 SLP132 T00721006 53006,M
LOL,2024-09-20 14:53,-118.5701,40.0684,1192.43,52.00,42.00,68.59,0.00,0.00,0.00,30.03,1014.40,10.00,M,CLR,M,M,M,M,M,M,M,M,M,M,M,M,M,M,52.00,KLOL 201453Z AUTO 00000KT 10SM CLR 11/06 A3003 RMK AO2 SLP144 T01110056 51010,M
BVU,2024-09-20 14:55,-114.8611,35.9475,671.00,69.80,41.00,35.09,0.00,0.00,0.00,29.82,M,10.00,M,FEW,M,M,M,9500.00,M,M,M,M,M,M,M,M,M,M,69.80,KBVU 201455Z AUTO 00000KT 10SM FEW095 21/05 A2982 RMK AO2,M
RNO,2024-09-20 14:55,-119.7711,39.4839,1341.00,52.00,41.00,66.00,0.00,0.00,0.00,30.08,1015.10,10.00,M,FEW,M,M,M,16000.00,M,M,M,M,M,M,M,M,M,M,52.00,KRNO 201455Z 00000KT 10SM FEW160 11/05 A3008 RMK AO2 SLP151 T01110050 53012,M
CXP,2024-09-20 14:55,-119.7326,39.1923,1431.00,48.20,41.00,76.01,0.00,0.00,0.00,30.10,M,10.00,M,CLR,M,M,M,M,M,M,M,M,M,M,M,M,M,M,48.20,KCXP 201455Z AUTO 00000KT 10SM CLR 09/05 A3010 RMK AO2,M
RTS,2024-09-20 14:55,-119.8764,39.6682,1539.00,46.40,39.20,75.84,0.00,0.00,0.00,30.09,M,10.00,M,CLR,M,M,M,M,M,M,M,M,M,M,M,M,M,M,46.40,KRTS 201455Z AUTO 00000KT 10SM CLR 08/04 A3009 RMK AO2,M
MEV,2024-09-20 14:55,-119.7500,38.9963,1441.42,44.60,41.00,87.09,0.00,0.00,0.00,30.09,M,10.00,M,CLR,M,M,M,M,M,M,M,M,M,M,M,M,M,M,44.60,KMEV 201455Z AUTO 00000KT 10SM CLR 07/05 A3009 RMK AO2,M
BAM,2024-09-20 14:55,-116.8743,40.5990,1382.36,50.00,37.40,61.76,0.00,0.00,0.00,30.05,M,10.00,M,CLR,M,M,M,M,M,M,M,M,M,M,M,M,M,M,50.00,KBAM 201455Z AUTO 00000KT 10SM CLR 10/03 A3005 RMK AO1,M
HTH,2024-09-20 14:55,-118.6315,38.5448,1282.89,55.40,46.40,71.64,0.00,0.00,0.00,30.06,M,10.00,M,CLR,M,M,M,M,M,M,M,M,M,M,M,M,M,M,55.40,KHTH 201455Z AUTO 00000KT 10SM CLR 13/08 A3006 RMK A01,M
TMT,2024-09-20 14:55,-117.1971,39.4643,1749.34,41.00,38.50,90.73,0.00,0.00,0.00,30.12,M,10.00,M,CLR,M,M,M,M,M,M,M,M,M,M,M,M,M,M,41.00,KTMT 201455Z AUTO 00000KT 10SM CLR 05/04 A3012 RMK AO2 T00500036,M
10U,2024-09-20 14:55,-116.1876,41.9532,1637.00,50.00,41.00,71.07,140.00,5.00,0.00,30.08,M,10.00,M,CLR,M,M,M,M,M,M,M,M,M,M,M,M,M,M,50.00,K10U 201455Z AUTO 14005KT 10SM CLR 10/05 A3008 RMK AO2,M
INS,2024-09-20 14:55,-115.6733,36.5872,955.00,57.60,27.00,30.76,0.00,0.00,0.00,29.89,1008.90,10.00,M,CLR,M,M,M,M,M,M,M,M,M,M,M,M,M,M,57.60,KINS 201455Z AUTO 00000KT 10SM CLR 14/M03 A2989 RMK AO2 SLP089 T01421027 52012,M
LSV,2024-09-20 14:55,-115.0343,36.2362,570.00,72.30,31.30,21.96,0.00,0.00,0.00,29.79,1006.60,10.00,M,CLR,M,M,M,M,M,M,M,M,M,M,M,M,M,M,72.30,KLSV 201455Z AUTO 00000KT 10SM CLR 22/M00 A2979 RMK AO2 LTG DSNT W SLP066 T02241004 53013 $,M
EKO,2024-09-20 14:56,-115.7860,40.8242,1367.00,50.00,42.00,73.87,0.00,0.00,0.00,30.06,1014.80,10.00,M,CLR,M,M,M,M,M,M,M,M,M,M,M,M,M,M,50.00,KEKO 201456Z AUTO 00000KT 10SM CLR 10/06 A3006 RMK AO2 SLP148 T01000056 51011,M
WMC,2024-09-20 14:56,-117.8072,40.9019,1315.00,49.00,42.00,76.67,140.00,3.00,0.00,30.04,1014.90,10.00,M,CLR,M,M,M,M,M,M,M,M,M,M,M,M,M,M,48.12,KWMC 201456Z AUTO 14003KT 10SM CLR 09/06 A3004 RMK AO2 SLP149 T00940056 51012 $,M
HND,2024-09-20 14:56,-115.1344,35.9729,742.79,71.00,42.00,35.01,160.00,3.00,0.00,29.87,1010.70,10.00,M,FEW,M,M,M,9000.00,M,M,M,M,M,M,M,M,M,M,71.00,KHND 201456Z 16003KT 10SM FEW090 22/06 A2987 RMK AO2 LTG DSNT N SLP107 T02170056 53011,M
TPH,2024-09-20 14:56,-117.0904,38.0505,1654.00,56.00,33.00,41.60,360.00,10.00,0.00,30.04,1012.00,10.00,M,CLR,M,M,M,M,M,M,M,M,M,M,M,M,M,M,56.00,KTPH 201456Z AUTO 36010KT 10SM CLR 13/01 A3004 RMK AO2 SLP120 T01330006 53010,M
LAS,2024-09-20 14:56,-115.1634,36.0719,663.00,75.00,46.00,35.64,0.00,0.00,0.00,29.84,1008.30,10.00,M,SCT,M,M,M,9000.00,M,M,M,M,M,M,M,M,M,M,75.00,KLAS 201456Z 00000KT 10SM SCT090 24/08 A2984 RMK AO2 LTG DSNT N AND NW SLP083 CB DSNT NW MOV NW T02390078 53011 $,M
NFL,2024-09-20 14:57,-118.7010,39.4166,1199.00,54.00,46.00,74.26,160.00,5.00,0.00,30.03,1013.80,10.00,M,FEW,SCT,M,M,10000.00,20000.00,M,M,M,M,M,M,M,M,M,54.00,KNFL 201457Z 16005KT 10SM FEW100 SCT200 12/08 A3003 RMK AO2 SLP138 T01220078 53010,M
05U,2024-09-20 15:10,-116.0051,39.6042,1811.23,50.00,37.40,61.76,0.00,0.00,0.00,30.11,M,10.00,M,CLR,M,M,M,M,M,M,M,M,M,M,M,M,M,M,50.00,K05U 201510Z AUTO 00000KT 10SM CLR 10/03 A3011 RMK A01,M
BVU,2024-09-20 15:15,-114.8611,35.9475,671.00,73.40,39.20,28.96,0.00,0.00,0.00,29.82,M,10.00,M,FEW,M,M,M,9000.00,M,M,M,M,M,M,M,M,M,M,73.40,KBVU 201515Z AUTO 00000KT 10SM FEW090 23/04 A2982 RMK AO2,M
CXP,2024-09-20 15:15,-119.7326,39.1923,1431.00,50.00,41.00,71.07,0.00,0.00,0.00,30.11,M,9.00,M,CLR,M,M,M,M,M,M,M,M,M,M,M,M,M,M,50.00,KCXP 201515Z AUTO 00000KT 9SM CLR 10/05 A3011 RMK AO2,M
RTS,2024-09-20 15:15,-119.8764,39.6682,1539.00,48.20,41.00,76.01,0.00,0.00,0.00,30.10,M,10.00,M,CLR,M,M,M,M,M,M,M,M,M,M,M,M,M,M,48.20,KRTS 201515Z AUTO 00000KT 10SM CLR 09/05 A3010 RMK AO2,M
MEV,2024-09-20 15:15,-119.7500,38.9963,1441.42,46.40,42.80,87.19,0.00,0.00,0.00,30.09,M,10.00,M,CLR,M,M,M,M,M,M,M,M,M,M,M,M,M,M,46.40,KMEV 201515Z AUTO 00000KT 10SM CLR 08/06 A3009 RMK AO2,M
BAM,2024-09-20 15:15,-116.8743,40.5990,1382.36,53.60,39.20,58.02,0.00,0.00,0.00,30.06,M,10.00,M,CLR,M,M,M,M,M,M,M,M,M,M,M,M,M,M,53.60,KBAM 201515Z AUTO 00000KT 10SM CLR 12/04 A3006 RMK AO1,M
HTH,2024-09-20 15:15,-118.6315,38.5448,1282.89,57.20,46.40,67.12,0.00,0.00,0.00,30.07,M,10.00,M,CLR,M,M,M,M,M,M,M,M,M,M,M,M,M,M,57.20,KHTH 201515Z AUTO 00000KT 10SM CLR 14/08 A3007 RMK A01,M
10U,2024-09-20 15:15,-116.1876,41.9532,1637.00,51.80,41.00,66.48,150.00,5.00,0.00,30.08,M,10.00,M,CLR,M,M,M,M,M,M,M,M,M,M,M,M,M,M,51.80,K10U 201515Z AUTO 15005KT 10SM CLR 11/05 A3008 RMK AO2,M
TMT,2024-09-20 15:15,-117.1971,39.4643,1749.34,43.50,40.60,89.43,0.00,0.00,0.00,30.12,M,10.00,M,CLR,M,M,M,M,M,M,M,M,M,M,M,M,M,M,43.50,KTMT 201515Z AUTO 00000KT 10SM CLR 06/05 A3012 RMK AO2 T00640048,M
05U,2024-09-20 15:30,-116.0051,39.6042,1811.23,53.60,37.40,54.07,0.00,0.00,0.00,30.11,M,7.00,M,CLR,M,M,M,M,M,M,M,M,M,M,M,M,M,M,53.60,K05U 201530Z AUTO 00000KT 7SM CLR 12/03 A3011 RMK A01,M
BVU,2024-09-20 15:35,-114.8611,35.9475,671.00,75.20,39.20,27.26,0.00,0.00,0.00,29.82,M,10.00,M,CLR,M,M,M,M,M,M,M,M,M,M,M,M,M,M,75.20,KBVU 201535Z AUTO 00000KT 10SM CLR 24/04 A2982 RMK AO2,M
CXP,2024-09-20 15:35,-119.7326,39.1923,1431.00,51.80,41.00,66.48,0.00,0.00,0.00,30.11,M,8.00,M,CLR,M,M,M,M,M,M,M,M,M,M,M,M,M,M,51.80,KCXP 201535Z AUTO 00000KT 8SM CLR 11/05 A3011 RMK AO2,M
RTS,2024-09-20 15:35,-119.8764,39.6682,1539.00,51.80,41.00,66.48,0.00,0.00,0.00,30.10,M,10.00,M,CLR,M,M,M,M,M,M,M,M,M,M,M,M,M,M,51.80,KRTS 201535Z AUTO 00000KT 10SM CLR 11/05 A3010 RMK AO2,M
MEV,2024-09-20 15:35,-119.7500,38.9963,1441.42,46.40,42.80,87.19,0.00,0.00,0.00,30.09,M,10.00,M,CLR,M,M,M,M,M,M,M,M,M,M,M,M,M,M,46.40,KMEV 201535Z AUTO 00000KT 10SM CLR 08/06 A3009 RMK AO2,M
BAM,2024-09-20 15:35,-116.8743,40.5990,1382.36,55.40,39.20,54.34,200.00,3.00,0.00,30.05,M,10.00,M,CLR,M,M,M,M,M,M,M,M,M,M,M,M,M,M,55.40,KBAM 201535Z AUTO 20003KT 10SM CLR 13/04 A3005 RMK AO1,M
HTH,2024-09-20 15:35,-118.6315,38.5448,1282.89,57.20,46.40,67.12,350.00,3.00,0.00,30.07,M,10.00,M,CLR,M,M,M,M,M,M,M,M,M,M,M,M,M,M,57.20,KHTH 201535Z AUTO 35003KT 10SM CLR 14/08 A3007 RMK A01,M
TMT,2024-09-20 15:35,-117.1971,39.4643,1749.34,46.80,41.70,82.32,0.00,0.00,0.00,30.12,M,10.00,M,CLR,M,M,M,M,M,M,M,M,M,M,M,M,M,M,46.80,KTMT 201535Z AUTO 00000KT 10SM CLR 08/05 A3012 RMK AO2 T00820054,M
10U,2024-09-20 15:35,-116.1876,41.9532,1637.00,53.60,41.00,62.23,130.00,4.00,0.00,30.08,M,10.00,M,CLR,M,M,M,M,M,M,M,M,M,M,M,M,M,M,53.60,K10U 201535Z AUTO 13004KT 10SM CLR 12/05 A3008 RMK AO2,M
05U,2024-09-20 15:50,-116.0051,39.6042,1811.23,55.40,37.40,50.64,0.00,0.00,0.00,30.11,M,10.00,M,CLR,M,M,M,M,M,M,M,M,M,M,M,M,M,M,55.40,K05U 201550Z AUTO 00000KT 10SM CLR 13/03 A3011 RMK A01,M
DRA,2024-09-20 15:53,-116.0278,36.6206,1009.00,73.00,34.00,23.90,110.00,11.00,0.00,29.88,1007.70,10.00,M,CLR,M,M,M,M,M,M,M,M,M,M,M,M,M,M,73.00,KDRA 201553Z AUTO 11011KT 10SM CLR 23/01 A2988 RMK AO2 SLP077 T02280011,M
ELY,2024-09-20 15:53,-114.8453,39.2950,1909.00,55.00,32.00,41.44,0.00,0.00,0.00,30.09,1012.50,10.00,M,CLR,M,M,M,M,M,M,M,M,M,M,M,M,M,M,55.00,KELY 201553Z AUTO 00000KT 10SM CLR 13/00 A3009 RMK AO2 SLP125 T01280000,M
LOL,2024-09-20 15:53,-118.5701,40.0684,1192.43,57.00,44.00,61.72,160.00,3.00,0.00,30.03,1014.80,10.00,M,CLR,M,M,M,M,M,M,M,M,M,M,M,M,M,M,57.00,KLOL 201553Z AUTO 16003KT 10SM CLR 14/07 A3003 RMK AO2 SLP148 T01390067,M
BVU,2024-09-20 15:55,-114.8611,35.9475,671.00,77.00,39.20,25.67,190.00,6.00,0.00,29.82,M,10.00,M,CLR,M,M,M,M,M,M,M,M,M,M,M,M,M,M,77.00,KBVU 201555Z AUTO 19006KT 10SM CLR 25/04 A2982 RMK AO2,M
RNO,2024-09-20 15:55,-119.7711,39.4839,1341.00,56.00,41.00,57.02,0.00,0.00,0.00,30.08,1015.20,10.00,M,FEW,M,M,M,20000.00,M,M,M,M,M,M,M,M,M,M,56.00,KRNO 201555Z 00000KT 10SM FEW200 13/05 A3008 RMK AO2 SLP152 T01330050,M
CXP,2024-09-20 15:55,-119.7326,39.1923,1431.00,53.60,39.20,58.02,M,3.00,0.00,30.11,M,10.00,M,CLR,M,M,M,M,M,M,M,M,M,M,M,M,M,M,53.60,KCXP 201555Z AUTO VRB03KT 10SM CLR 12/04 A3011 RMK AO2,M
RTS,2024-09-20 15:55,-119.8764,39.6682,1539.00,53.60,41.00,62.23,0.00,0.00,0.00,30.10,M,10.00,M,CLR,M,M,M,M,M,M,M,M,M,M,M,M,M,M,53.60,KRTS 201555Z AUTO 00000KT 10SM CLR 12/05 A3010 RMK AO2,M
MEV,2024-09-20 15:55,-119.7500,38.9963,1441.42,50.00,44.60,81.61,0.00,0.00,0.00,30.09,M,10.00,M,CLR,M,M,M,M,M,M,M,M,M,M,M,M,M,M,50.00,KMEV 201555Z AUTO 00000KT 10SM CLR 10/07 A3009 RMK AO2,M
BAM,2024-09-20 15:55,-116.8743,40.5990,1382.36,55.40,41.00,58.27,0.00,0.00,0.00,30.06,M,10.00,M,CLR,M,M,M,M,M,M,M,M,M,M,M,M,M,M,55.40,KBAM 201555Z AUTO 00000KT 10SM CLR 13/05 A3006 RMK AO1,M
HTH,2024-09-20 15:55,-118.6315,38.5448,1282.89,57.20,46.40,67.12,0.00,0.00,0.00,30.07,M,10.00,M,CLR,M,M,M,M,M,M,M,M,M,M,M,M,M,M,57.20,KHTH 201555Z AUTO 00000KT 10SM CLR 14/08 A3007 RMK A01,M
TMT,2024-09-20 15:55,-117.1971,39.4643,1749.34,49.00,42.80,79.07,0.00,0.00,0.00,30.11,M,10.00,M,CLR,M,M,M,M,M,M,M,M,M,M,M,M,M,M,49.00,KTMT 201555Z AUTO 00000KT 10SM CLR 10/06 A3011 RMK AO2 T00950060,M
10U,2024-09-20 15:55,-116.1876,41.9532,1637.00,55.40,41.00,58.27,120.00,4.00,0.00,30.08,M,10.00,M,CLR,M,M,M,M,M,M,M,M,M,M,M,M,M,M,55.40,K10U 201555Z AUTO 12004KT 10SM CLR 13/05 A3008 RMK AO2,M
INS,2024-09-20 15:55,-115.6733,36.5872,955.00,64.60,28.00,25.01,100.00,12.00,0.00,29.90,1008.60,10.00,M,SCT,BKN,BKN,M,8500.00,12000.00,16000.00,M,M,M,M,M,M,M,M,64.60,KINS 201555Z AUTO 10012KT 10SM SCT085 BKN120 BKN160 18/M02 A2990 RMK AO2 SLP086 T01811022,M
LSV,2024-09-20 15:55,-115.0343,36.2362,570.00,75.20,33.80,22.02,130.00,3.00,0.00,29.79,1006.40,10.00,M,CLR,M,M,M,M,M,M,M,M,M,M,M,M,M,M,75.20,KLSV 201555Z AUTO 13003KT 10SM CLR 24/01 A2979 RMK AO2 SLP064 T02400010 $,M
EKO,2024-09-20 15:56,-115.7860,40.8242,1367.00,57.00,42.00,57.16,0.00,0.00,0.00,30.06,1013.80,10.00,M,CLR,M,M,M,M,M,M,M,M,M,M,M,M,M,M,57.00,KEKO 201556Z AUTO 00000KT 10SM CLR 14/06 A3006 RMK AO2 SLP138 T01390056,M
WMC,2024-09-20 15:56,-117.8072,40.9019,1315.00,56.00,44.00,63.99,0.00,0.00,0.00,30.05,1014.90,10.00,M,CLR,M,M,M,M,M,M,M,M,M,M,M,M,M,M,56.00,KWMC 201556Z AUTO 00000KT 10SM CLR 13/07 A3005 RMK AO2 SLP149 T01330067 $,M
HND,2024-09-20 15:56,-115.1344,35.9729,742.79,74.00,46.00,36.85,0.00,0.00,0.00,29.87,1010.70,10.00,M,FEW,M,M,M,9500.00,M,M,M,M,M,M,M,M,M,M,74.00,KHND 201556Z 00000KT 10SM FEW095 23/08 A2987 RMK AO2 SLP107 T02330078,M
TPH,2024-09-20 15:56,-117.0904,38.0505,1654.00,62.00,36.00,37.83,330.00,12.00,0.00,30.05,1011.80,10.00,M,CLR,M,M,M,M,M,M,M,M,M,M,M,M,M,M,62.00,KTPH 201556Z AUTO 33012KT 10SM CLR 17/02 A3005 RMK AO2 SLP118 T01670022,M
LAS,2024-09-20 15:56,-115.1634,36.0719,663.00,77.00,44.00,30.90,110.00,4.00,0.00,29.84,1008.40,10.00,M,FEW,M,M,M,10000.00,M,M,M,M,M,M,M,M,M,M,77.00,KLAS 201556Z 11004KT 10SM FEW100 25/07 A2984 RMK AO2 SLP084 CB DSNT NW MOV NW T02500067 $,M
NFL,2024-09-20 15:57,-118.7010,39.4166,1199.00,59.00,46.00,61.98,0.00,0.00,0.00,30.03,1013.90,10.00,M,SCT,M,M,M,20000.00,M,M,M,M,M,M,M,M,M,M,59.00,KNFL 201557Z 00000KT 10SM SCT200 15/08 A3003 RMK AO2 SLP139 T01500078,M
05U,2024-09-20 16:10,-116.0051,39.6042,1811.23,57.20,37.40,47.44,0.00,0.00,0.00,30.11,M,10.00,M,CLR,M,M,M,M,M,M,M,M,M,M,M,M,M,M,57.20,K05U 201610Z AUTO 00000KT 10SM CLR 14/03 A3011 RMK A01,M
BVU,2024-09-20 16:15,-114.8611,35.9475,671.00,75.20,39.20,27.26,160.00,4.00,0.00,29.82,M,10.00,M,CLR,M,M,M,M,M,M,M,M,M,M,M,M,M,M,75.20,KBVU 201615Z AUTO 16004KT 10SM CLR 24/04 A2982 RMK AO2 LTG DSNT W,M
CXP,2024-09-20 16:15,-119.7326,39.1923,1431.00,55.40,41.00,58.27,0.00,0.00,0.00,30.11,M,10.00,M,CLR,M,M,M,M,M,M,M,M,M,M,M,M,M,M,55.40,KCXP 201615Z AUTO 00000KT 10SM CLR 13/05 A3011 RMK AO2,M
RTS,2024-09-20 16:15,-119.8764,39.6682,1539.00,55.40,41.00,58.27,0.00,0.00,0.00,30.10,M,10.00,M,CLR,M,M,M,M,M,M,M,M,M,M,M,M,M,M,55.40,KRTS 201615Z AUTO 00000KT 10SM CLR 13/05 A3010 RMK AO2,M
MEV,2024-09-20 16:15,-119.7500,38.9963,1441.42,51.80,44.60,76.34,0.00,0.00,0.00,30.09,M,10.00,M,CLR,M,M,M,M,M,M,M,M,M,M,M,M,M,M,51.80,KMEV 201615Z AUTO 00000KT 10SM CLR 11/07 A3009 RMK AO2,M
BAM,2024-09-20 16:15,-116.8743,40.5990,1382.36,59.00,42.80,54.86,0.00,0.00,0.00,30.07,M,10.00,M,CLR,M,M,M,M,M,M,M,M,M,M,M,M,M,M,59.00,KBAM 201615Z AUTO 00000KT 10SM CLR 15/06 A3007 RMK AO1,M
HTH,2024-09-20 16:15,-118.6315,38.5448,1282.89,57.20,46.40,67.12,0.00,0.00,0.00,30.07,M,10.00,M,CLR,M,M,M,M,M,M,M,M,M,M,M,M,M,M,57.20,KHTH 201615Z AUTO 00000KT 10SM CLR 14/08 A3007 RMK A01,M
TMT,2024-09-20 16:15,-117.1971,39.4643,1749.34,52.00,42.40,69.66,220.00,3.00,0.00,30.11,M,10.00,M,CLR,M,M,M,M,M,M,M,M,M,M,M,M,M,M,52.00,KTMT 201615Z AUTO 22003KT 10SM CLR 11/06 A3011 RMK AO2 T01110058,M
10U,2024-09-20 16:15,-116.1876,41.9532,1637.00,59.00,39.20,47.72,170.00,4.00,0.00,30.08,M,10.00,M,CLR,M,M,M,M,M,M,M,M,M,M,M,M,M,M,59.00,K10U 201615Z AUTO 17004KT 10SM CLR 15/04 A3008 RMK AO2,M
05U,2024-09-20 16:30,-116.0051,39.6042,1811.23,57.20,37.40,47.44,0.00,0.00,0.00,30.12,M,10.00,M,CLR,M,M,M,M,M,M,M,M,M,M,M,M,M,M,57.20,K05U 201630Z AUTO 00000KT 10SM CLR 14/03 A3012 RMK A01,M
CXP,2024-09-20 16:35,-119.7326,39.1923,1431.00,57.20,39.20,50.91,0.00,0.00,0.00,30.10,M,10.00,M,CLR,M,M,M,M,M,M,M,M,M,M,M,M,M,M,57.20,KCXP 201635Z AUTO 00000KT 10SM CLR 14/04 A3010 RMK AO2,M
RTS,2024-09-20 16:35,-119.8764,39.6682,1539.00,59.00,39.20,47.72,0.00,0.00,0.00,30.10,M,10.00,M,CLR,M,M,M,M,M,M,M,M,M,M,M,M,M,M,59.00,KRTS 201635Z AUTO 00000KT 10SM CLR 15/04 A3010 RMK AO2,M
MEV,2024-09-20 16:35,-119.7500,38.9963,1441.42,53.60,46.40,76.50,0.00,0.00,0.00,30.09,M,10.00,M,CLR,M,M,M,M,M,M,M,M,M,M,M,M,M,M,53.60,KMEV 201635Z AUTO 00000KT 10SM CLR 12/08 A3009 RMK AO2,M
BAM,2024-09-20 16:35,-116.8743,40.5990,1382.36,60.80,42.80,51.45,0.00,0.00,0.00,30.07,M,10.00,M,CLR,M,M,M,M,M,M,M,M,M,M,M,M,M,M,60.80,KBAM 201635Z AUTO 00000KT 10SM CLR 16/06 A3007 RMK AO1,M
HTH,2024-09-20 16:35,-118.6315,38.5448,1282.89,59.00,44.60,58.77,0.00,0.00,0.00,30.07,M,10.00,M,CLR,M,M,M,M,M,M,M,M,M,M,M,M,M,M,59.00,KHTH 201635Z AUTO 00000KT 10SM CLR 15/07 A3007 RMK A01,M
TMT,2024-09-20 16:35,-117.1971,39.4643,1749.34,54.00,43.30,67.00,0.00,0.00,0.00,30.11,M,10.00,M,CLR,M,M,M,M,M,M,M,M,M,M,M,M,M,M,54.00,KTMT 201635Z AUTO 00000KT 10SM CLR 12/06 A3011 RMK AO2 T01220063,M
10U,2024-09-20 16:35,-116.1876,41.9532,1637.00,60.80,39.20,44.76,170.00,3.00,0.00,30.08,M,10.00,M,CLR,M,M,M,M,M,M,M,M,M,M,M,M,M,M,60.80,K10U 201635Z AUTO 17003KT 10SM CLR 16/04 A3008 RMK AO2,M
BVU,2024-09-20 16:35,-114.8611,35.9475,671.00,78.80,39.20,24.19,190.00,3.00,0.00,29.82,M,10.00,M,CLR,M,M,M,M,M,M,M,M,M,M,M,M,M,M,78.80,KBVU 201635Z AUTO 19003KT 10SM CLR 26/04 A2982 RMK AO2,M
05U,2024-09-20 16:50,-116.0051,39.6042,1811.23,59.00,37.40,44.47,0.00,0.00,0.00,30.11,M,10.00,M,CLR,M,M,M,M,M,M,M,M,M,M,M,M,M,M,59.00,K05U 201650Z AUTO 00000KT 10SM CLR 15/03 A3011 RMK A01,M
P68,2024-09-20 16:53,-116.0056,39.6014,1993.00,61.00,38.00,42.40,30.00,5.00,0.00,30.08,1012.50,M,M,M,M,M,M,M,M,M,M,M,M,M,M,M,M,M,61.00,KP68 201653Z AUTO 03005KT 16/03 A3008 RMK AO1 SLP125 T01610033,M
DRA,2024-09-20 16:53,-116.0278,36.6206,1009.00,74.00,39.00,28.16,120.00,14.00,0.00,29.89,1008.00,10.00,21.00,CLR,M,M,M,M,M,M,M,M,M,M,M,M,M,M,74.00,KDRA 201653Z AUTO 12014G21KT 10SM CLR 23/04 A2989 RMK AO2 SLP080 T02330039,M
ELY,2024-09-20 16:53,-114.8453,39.2950,1909.00,62.00,31.00,30.96,350.00,6.00,0.00,30.08,1011.40,10.00,M,FEW,M,M,M,8500.00,M,M,M,M,M,M,M,M,M,M,62.00,KELY 201653Z AUTO 35006KT 10SM FEW085 17/M01 A3008 RMK AO2 SLP114 T01671006,M
LOL,2024-09-20 16:53,-118.5701,40.0684,1192.43,61.00,45.00,55.57,150.00,3.00,0.00,30.04,1014.80,10.00,M,CLR,M,M,M,M,M,M,M,M,M,M,M,M,M,M,61.00,KLOL 201653Z AUTO 15003KT 10SM CLR 16/07 A3004 RMK AO2 SLP148 T01610072,M
RNO,2024-09-20 16:55,-119.7711,39.4839,1341.00,60.00,41.00,49.39,0.00,0.00,0.00,30.08,1014.70,10.00,M,FEW,M,M,M,20000.00,M,M,M,M,M,M,M,M,M,M,60.00,KRNO 201655Z 00000KT 10SM FEW200 16/05 A3008 RMK AO2 SLP147 T01560050,M
CXP,2024-09-20 16:55,-119.7326,39.1923,1431.00,59.00,41.00,51.18,M,3.00,0.00,30.10,M,10.00,M,CLR,M,M,M,M,M,M,M,M,M,M,M,M,M,M,59.00,KCXP 201655Z AUTO VRB03KT 10SM CLR 15/05 A3010 RMK AO2,M
RTS,2024-09-20 16:55,-119.8764,39.6682,1539.00,60.80,39.20,44.76,0.00,0.00,0.00,30.10,M,10.00,M,CLR,M,M,M,M,M,M,M,M,M,M,M,M,M,M,60.80,KRTS 201655Z AUTO 00000KT 10SM CLR 16/04 A3010 RMK AO2,M
MEV,2024-09-20 16:55,-119.7500,38.9963,1441.42,55.40,44.60,66.91,0.00,0.00,0.00,30.09,M,10.00,M,CLR,M,M,M,M,M,M,M,M,M,M,M,M,M,M,55.40,KMEV 201655Z AUTO 00000KT 10SM CLR 13/07 A3009 RMK AO2,M
BAM,2024-09-20 16:55,-116.8743,40.5990,1382.36,62.60,42.80,48.28,0.00,0.00,0.00,30.07,M,10.00,M,CLR,M,M,M,M,M,M,M,M,M,M,M,M,M,M,62.60,KBAM 201655Z AUTO 00000KT 10SM CLR 17/06 A3007 RMK AO1,M
HTH,2024-09-20 16:55,-118.6315,38.5448,1282.89,60.80,44.60,55.12,0.00,0.00,0.00,30.07,M,10.00,M,CLR,M,M,M,M,M,M,M,M,M,M,M,M,M,M,60.80,KHTH 201655Z AUTO 00000KT 10SM CLR 16/07 A3007 RMK A01,M
TMT,2024-09-20 16:55,-117.1971,39.4643,1749.34,56.00,42.40,60.18,0.00,0.00,0.00,30.11,M,10.00,M,CLR,M,M,M,M,M,M,M,M,M,M,M,M,M,M,56.00,KTMT 201655Z AUTO 00000KT 10SM CLR 13/06 A3011 RMK AO2 T01340058,M
10U,2024-09-20 16:55,-116.1876,41.9532,1637.00,62.60,41.00,45.04,M,4.00,0.00,30.08,M,10.00,M,CLR,M,M,M,M,M,M,M,M,M,M,M,M,M,M,62.60,K10U 201655Z AUTO VRB04KT 10SM CLR 17/05 A3008 RMK AO2,M
INS,2024-09-20 16:55,-115.6733,36.5872,955.00,69.00,29.50,22.83,10.00,7.00,0.00,29.89,1008.30,10.00,M,FEW,FEW,BKN,M,5000.00,7500.00,9500.00,M,M,M,M,M,M,M,M,69.00,KINS 201655Z AUTO 01007KT 10SM FEW050 FEW075 BKN095 21/M01 A2989 RMK AO2 SLP083 T02051014,M
LSV,2024-09-20 16:55,-115.0343,36.2362,570.00,81.50,39.00,21.97,10.00,3.00,0.00,29.79,1006.30,10.00,M,CLR,M,M,M,M,M,M,M,M,M,M,M,M,M,M,79.63,KLSV 201655Z AUTO 01003KT 10SM CLR 28/04 A2979 RMK AO2 SLP063 T02750039 $,M
EKO,2024-09-20 16:56,-115.7860,40.8242,1367.00,62.00,43.00,49.69,140.00,3.00,0.00,30.06,1013.60,10.00,M,CLR,M,M,M,M,M,M,M,M,M,M,M,M,M,M,62.00,KEKO 201656Z AUTO 14003KT 10SM CLR 17/06 A3006 RMK AO2 SLP136 T01670061,M
WMC,2024-09-20 16:56,-117.8072,40.9019,1315.00,64.00,42.00,44.57,M,3.00,0.00,30.05,1014.30,10.00,M,CLR,M,M,M,M,M,M,M,M,M,M,M,M,M,M,64.00,KWMC 201656Z AUTO VRB03KT 10SM CLR 18/06 A3005 RMK AO2 SLP143 T01780056 $,M
HND,2024-09-20 16:56,-115.1344,35.9729,742.79,78.00,40.00,25.62,50.00,7.00,0.00,29.87,1010.50,10.00,M,CLR,M,M,M,M,M,M,M,M,M,M,M,M,M,M,78.00,KHND 201656Z 05007KT 10SM CLR 26/04 A2987 RMK AO2 SLP105 T02560044,M
TPH,2024-09-20 16:56,-117.0904,38.0505,1654.00,66.00,32.00,28.03,M,3.00,0.00,30.05,1012.10,10.00,M,CLR,M,M,M,M,M,M,M,M,M,M,M,M,M,M,66.00,KTPH 201656Z AUTO VRB03KT 10SM CLR 19/00 A3005 RMK AO2 SLP121 T01890000,M
LAS,2024-09-20 16:56,-115.1634,36.0719,663.00,78.00,40.00,25.62,350.00,5.00,0.00,29.84,1008.30,10.00,M,FEW,M,M,M,9500.00,M,M,M,M,M,M,M,M,M,M,78.00,KLAS 201656Z 35005KT 10SM FEW095 26/04 A2984 RMK AO2 SLP083 T02560044 $,M
NFL,2024-09-20 16:57,-118.7010,39.4166,1199.00,64.00,45.00,49.99,M,3.00,0.00,30.04,1014.20,10.00,M,SCT,M,M,M,20000.00,M,M,M,M,M,M,M,M,M,M,64.00,KNFL 201657Z VRB03KT 10SM SCT200 18/07 A3004 RMK AO2 SLP142 T01780072,M
05U,2024-09-20 17:10,-116.0051,39.6042,1811.23,60.80,37.40,41.71,330.00,6.00,0.00,30.11,M,10.00,M,CLR,M,M,M,M,M,M,M,M,M,M,M,M,M,M,60.80,K05U 201710Z AUTO 33006KT 10SM CLR 16/03 A3011 RMK A01,M
BAM,2024-09-20 17:15,-116.8743,40.5990,1382.36,64.40,41.00,42.28,0.00,0.00,0.00,30.07,M,10.00,M,CLR,M,M,M,M,M,M,M,M,M,M,M,M,M,M,64.40,KBAM 201715Z AUTO 00000KT 10SM CLR 18/05 A3007 RMK AO1,M
CXP,2024-09-20 17:15,-119.7326,39.1923,1431.00,60.80,41.00,48.00,0.00,0.00,0.00,30.10,M,10.00,M,CLR,M,M,M,M,M,M,M,M,M,M,M,M,M,M,60.80,KCXP 201715Z AUTO 00000KT 10SM CLR 16/05 A3010 RMK AO2,M
RTS,2024-09-20 17:15,-119.8764,39.6682,1539.00,62.60,39.20,42.00,0.00,0.00,0.00,30.09,M,10.00,M,CLR,M,M,M,M,M,M,M,M,M,M,M,M,M,M,62.60,KRTS 201715Z AUTO 00000KT 10SM CLR 17/04 A3009 RMK AO2,M
MEV,2024-09-20 17:15,-119.7500,38.9963,1441.42,57.20,44.60,62.69,0.00,0.00,0.00,30.09,M,10.00,M,CLR,M,M,M,M,M,M,M,M,M,M,M,M,M,M,57.20,KMEV 201715Z AUTO 00000KT 10SM CLR 14/07 A3009 RMK AO2,M
HTH,2024-09-20 17:15,-118.6315,38.5448,1282.89,60.80,44.60,55.12,0.00,0.00,0.00,30.07,M,10.00,M,CLR,M,M,M,M,M,M,M,M,M,M,M,M,M,M,60.80,KHTH 201715Z AUTO 00000KT 10SM CLR 16/07 A3007 RMK A01,M
TMT,2024-09-20 17:15,-117.1971,39.4643,1749.34,58.60,41.00,51.92,0.00,0.00,0.00,30.10,M,10.00,M,CLR,M,M,M,M,M,M,M,M,M,M,M,M,M,M,58.60,KTMT 201715Z AUTO 00000KT 10SM CLR 15/05 A3010 RMK AO2 T01480050,M
10U,2024-09-20 17:15,-116.1876,41.9532,1637.00,64.40,39.20,39.43,140.00,4.00,0.00,30.08,M,10.00,M,CLR,M,M,M,M,M,M,M,M,M,M,M,M,M,M,64.40,K10U 201715Z AUTO 14004KT 10SM CLR 18/04 A3008 RMK AO2,M
05U,2024-09-20 17:30,-116.0051,39.6042,1811.23,60.80,39.20,44.76,350.00,4.00,0.00,30.11,M,10.00,M,CLR,M,M,M,M,M,M,M,M,M,M,M,M,M,M,60.80,K05U 201730Z AUTO 35004KT 10SM CLR 16/04 A3011 RMK A01,M
CXP,2024-09-20 17:35,-119.7326,39.1923,1431.00,62.60,41.00,45.04,280.00,4.00,0.00,30.10,M,10.00,M,CLR,M,M,M,M,M,M,M,M,M,M,M,M,M,M,62.60,KCXP 201735Z AUTO 28004KT 10SM CLR 17/05 A3010 RMK AO2,M
RTS,2024-09-20 17:35,-119.8764,39.6682,1539.00,64.40,39.20,39.43,0.00,0.00,0.00,30.10,M,10.00,M,CLR,M,M,M,M,M,M,M,M,M,M,M,M,M,M,64.40,KRTS 201735Z AUTO 00000KT 10SM CLR 18/04 A3010 RMK AO2,M
MEV,2024-09-20 17:35,-119.7500,38.9963,1441.42,59.00,44.60,58.77,0.00,0.00,0.00,30.08,M,10.00,M,CLR,M,M,M,M,M,M,M,M,M,M,M,M,M,M,59.00,KMEV 201735Z AUTO 00000KT 10SM CLR 15/07 A3008 RMK AO2,M
BAM,2024-09-20 17:35,-116.8743,40.5990,1382.36,66.20,41.00,39.72,0.00,0.00,0.00,30.07,M,10.00,M,CLR,M,M,M,M,M,M,M,M,M,M,M,M,M,M,66.20,KBAM 201735Z AUTO 00000KT 10SM CLR 19/05 A3007 RMK AO1,M
HTH,2024-09-20 17:35,-118.6315,38.5448,1282.89,62.60,44.60,51.72,M,3.00,0.00,30.07,M,10.00,M,CLR,M,M,M,M,M,M,M,M,M,M,M,M,M,M,62.60,KHTH 201735Z AUTO VRB03KT 10SM CLR 17/07 A3007 RMK A01,M
10U,2024-09-20 17:35,-116.1876,41.9532,1637.00,66.20,39.20,37.03,0.00,0.00,0.00,30.08,M,10.00,M,CLR,M,M,M,M,M,M,M,M,M,M,M,M,M,M,66.20,K10U 201735Z AUTO 00000KT 10SM CLR 19/04 A3008 RMK AO2,M
TMT,2024-09-20 17:35,-117.1971,39.4643,1749.34,60.60,41.70,49.67,0.00,0.00,0.00,30.11,M,10.00,M,CLR,M,M,M,M,M,M,M,M,M,M,M,M,M,M,60.60,KTMT 201735Z AUTO 00000KT 10SM CLR 16/05 A3011 RMK AO2 T01590054,M
05U,2024-09-20 17:50,-116.0051,39.6042,1811.23,62.60,39.20,42.00,0.00,0.00,0.00,30.11,M,10.00,10.00,CLR,M,M,M,M,M,M,M,M,M,M,M,M,M,M,62.60,K05U 201750Z AUTO 00000G10KT 10SM CLR 17/04 A3011 RMK A01,M
P68,2024-09-20 17:53,-116.0056,39.6014,1993.00,64.00,40.00,41.25,20.00,6.00,0.00,30.08,1012.80,M,M,M,M,M,M,M,M,M,M,M,M,M,M,M,M,M,64.00,KP68 201753Z AUTO 02006KT 18/04 A3008 RMK AO1 SLP128 T01780044 10178 20017 50000,M
DRA,2024-09-20 17:53,-116.0278,36.6206,1009.00,77.00,42.00,28.62,60.00,5.00,0.00,29.88,1007.80,10.00,M,CLR,M,M,M,M,M,M,M,M,M,M,M,M,M,M,77.00,KDRA 201753Z AUTO 06005KT 10SM CLR 25/06 A2988 RMK AO2 SLP078 T02500056 10250 20139 50001,M
ELY,2024-09-20 17:53,-114.8453,39.2950,1909.00,68.00,31.00,25.12,20.00,8.00,0.00,30.07,1010.40,10.00,M,CLR,M,M,M,M,M,M,M,M,M,M,M,M,M,M,68.00,KELY 201753Z AUTO 02008KT 10SM CLR 20/M01 A3007 RMK AO2 SLP104 T02001006 10200 20022 58005,M
VGT,2024-09-20 17:53,-115.1933,36.2111,667.00,82.00,40.00,22.48,10.00,3.00,0.00,29.82,1009.30,10.00,M,FEW,M,M,M,11000.00,M,M,M,M,M,M,M,M,M,M,79.99,KVGT 201753Z 01003KT 10SM FEW110 28/04 A2982 RMK AO2 SLP093 T02780044 10289 20211 58001,M
LOL,2024-09-20 17:53,-118.5701,40.0684,1192.43,67.00,44.00,43.35,0.00,0.00,0.00,30.03,1014.70,10.00,M,CLR,M,M,M,M,M,M,M,M,M,M,M,M,M,M,67.00,KLOL 201753Z AUTO 00000KT 10SM CLR 19/07 A3003 RMK AO2 SLP147 T01940067 10194 20044 50001,M
BVU,2024-09-20 17:55,-114.8611,35.9475,671.00,82.40,41.00,23.07,M,4.00,0.00,29.81,M,10.00,M,CLR,M,M,M,M,M,M,M,M,M,M,M,M,M,M,80.29,KBVU 201755Z AUTO VRB04KT 10SM CLR 28/05 A2981 RMK AO2 LTG DSNT W,M
RNO,2024-09-20 17:55,-119.7711,39.4839,1341.00,65.00,40.00,39.83,150.00,3.00,0.00,30.07,1014.10,10.00,M,FEW,FEW,M,M,10000.00,18000.00,M,M,M,M,M,M,M,M,M,65.00,KRNO 201755Z 15003KT 10SM FEW100 FEW180 18/04 A3007 RMK AO2 SLP141 T01830044 10183 20089 58004,M
CXP,2024-09-20 17:55,-119.7326,39.1923,1431.00,62.60,39.20,42.00,270.00,4.00,0.00,30.09,M,10.00,M,CLR,M,M,M,M,M,M,M,M,M,M,M,M,M,M,62.60,KCXP 201755Z AUTO 27004KT 10SM CLR 17/04 A3009 RMK AO2,M
RTS,2024-09-20 17:55,-119.8764,39.6682,1539.00,66.20,39.20,37.03,0.00,0.00,0.00,30.09,M,10.00,M,CLR,M,M,M,M,M,M,M,M,M,M,M,M,M,M,66.20,KRTS 201755Z AUTO 00000KT 10SM CLR 19/04 A3009 RMK AO2,M
MEV,2024-09-20 17:55,-119.7500,38.9963,1441.42,60.80,44.60,55.12,0.00,0.00,0.00,30.08,M,10.00,M,CLR,M,M,M,M,M,M,M,M,M,M,M,M,M,M,60.80,KMEV 201755Z AUTO 00000KT 10SM CLR 16/07 A3008 RMK AO2,M
BAM,2024-09-20 17:55,-116.8743,40.5990,1382.36,68.00,41.00,37.32,0.00,0.00,0.00,30.06,M,10.00,M,CLR,M,M,M,M,M,M,M,M,M,M,M,M,M,M,68.00,KBAM 201755Z AUTO 00000KT 10SM CLR 20/05 A3006 RMK AO1,M
HTH,2024-09-20 17:55,-118.6315,38.5448,1282.89,62.60,44.60,51.72,M,M,0.00,30.07,M,M,M,M,M,M,M,M,M,M,M,M,M,M,M,M,M,M,62.60,KHTH 201755Z AUTO 17/07 A3007 RMK A01,M
10U,2024-09-20 17:55,-116.1876,41.9532,1637.00,66.20,39.20,37.03,M,4.00,0.00,30.07,M,10.00,M,CLR,M,M,M,M,M,M,M,M,M,M,M,M,M,M,66.20,K10U 201755Z AUTO VRB04KT 10SM CLR 19/04 A3007 RMK AO2,M
INS,2024-09-20 17:55,-115.6733,36.5872,955.00,75.40,31.50,19.94,0.00,0.00,0.00,29.88,1007.70,10.00,M,FEW,M,M,M,21000.00,M,M,M,M,M,M,M,M,M,M,75.40,KINS 201755Z AUTO 00000KT 10SM FEW210 24/M00 A2988 RMK AO2 SLP077 T02411003 10241 20125 58004,M
LSV,2024-09-20 17:55,-115.0343,36.2362,570.00,84.00,31.30,14.92,10.00,4.00,0.00,29.77,1005.60,10.00,M,CLR,M,M,M,M,M,M,M,M,M,M,M,M,M,M,81.12,KLSV 201755Z AUTO 01004KT 10SM CLR 29/M00 A2977 RMK AO2 SLP056 T02881004 10290 20212 58006 $,M
EKO,2024-09-20 17:56,-115.7860,40.8242,1367.00,67.00,43.00,41.72,190.00,3.00,0.00,30.05,1012.90,10.00,M,CLR,M,M,M,M,M,M,M,M,M,M,M,M,M,M,67.00,KEKO 201756Z AUTO 19003KT 10SM CLR 19/06 A3005 RMK AO2 SLP129 T01940061 10194 20044 58004,M
WMC,2024-09-20 17:56,-117.8072,40.9019,1315.00,69.00,42.00,37.48,0.00,0.00,T,30.03,1013.90,10.00,M,CLR,M,M,M,M,M,M,M,-RA,M,M,M,M,M,M,69.00,KWMC 201756Z AUTO 00000KT 10SM -RA CLR 21/06 A3003 RMK AO2 RAB18 SLP139 P0000 60000 T02060056 10211 20044 58002,M
HND,2024-09-20 17:56,-115.1344,35.9729,742.79,81.00,41.00,24.14,20.00,6.00,0.00,29.86,1010.30,10.00,M,CLR,M,M,M,M,M,M,M,M,M,M,M,M,M,M,79.43,KHND 201756Z 02006KT 10SM CLR 27/05 A2986 RMK AO2 SLP103 T02720050 10272 20178 58003,M
TPH,2024-09-20 17:56,-117.0904,38.0505,1654.00,70.00,33.00,25.42,260.00,9.00,0.00,30.04,1011.10,10.00,M,CLR,M,M,M,M,M,M,M,M,M,M,M,M,M,M,70.00,KTPH 201756Z AUTO 26009KT 10SM CLR 21/01 A3004 RMK AO2 SLP111 T02110006 10211 20089 50000,M
LAS,2024-09-20 17:56,-115.1634,36.0719,663.00,82.00,40.00,22.48,340.00,4.00,0.00,29.83,1007.90,10.00,M,FEW,M,M,M,9500.00,M,M,M,M,M,M,M,M,M,M,79.99,KLAS 201756Z 34004KT 10SM FEW095 28/04 A2983 RMK AO2 SLP079 T02780044 10278 20206 58003 $,M
NFL,2024-09-20 17:57,-118.7010,39.4166,1199.00,68.00,44.00,41.88,0.00,0.00,0.00,30.03,1013.90,10.00,M,SCT,M,M,M,20000.00,M,M,M,M,M,M,M,M,M,M,68.00,KNFL 201757Z 00000KT 10SM SCT200 20/07 20/07 A3003 RMK SLP139 T02000067 10200 20072 50001,M
05U,2024-09-20 18:10,-116.0051,39.6042,1811.23,64.40,39.20,39.43,0.00,0.00,0.00,30.10,M,10.00,M,CLR,M,M,M,M,M,M,M,M,M,M,M,M,M,M,64.40,K05U 201810Z AUTO 00000KT 10SM CLR 18/04 A3010 RMK A01,M
BVU,2024-09-20 18:15,-114.8611,35.9475,671.00,84.20,41.00,21.76,40.00,5.00,0.00,29.81,M,10.00,M,SCT,M,M,M,8000.00,M,M,M,M,M,M,M,M,M,M,81.52,KBVU 201815Z AUTO 04005KT 10SM SCT080 29/05 A2981 RMK AO2,M
CXP,2024-09-20 18:15,-119.7326,39.1923,1431.00,64.40,39.20,39.43,0.00,0.00,0.00,30.09,M,10.00,M,CLR,M,M,M,M,M,M,M,M,M,M,M,M,M,M,64.40,KCXP 201815Z AUTO 00000KT 10SM CLR 18/04 A3009 RMK AO2,M
RTS,2024-09-20 18:15,-119.8764,39.6682,1539.00,68.00,37.40,32.43,0.00,0.00,0.00,30.09,M,10.00,M,CLR,M,M,M,M,M,M,M,M,M,M,M,M,M,M,68.00,KRTS 201815Z AUTO 00000KT 10SM CLR 20/03 A3009 RMK AO2,M
MEV,2024-09-20 18:15,-119.7500,38.9963,1441.42,62.60,44.60,51.72,0.00,0.00,0.00,30.07,M,10.00,M,CLR,M,M,M,M,M,M,M,M,M,M,M,M,M,M,62.60,KMEV 201815Z AUTO 00000KT 10SM CLR 17/07 A3007 RMK AO2,M
BAM,2024-09-20 18:15,-116.8743,40.5990,1382.36,69.80,41.00,35.09,260.00,3.00,0.00,30.05,M,10.00,M,CLR,M,M,M,M,M,M,M,M,M,M,M,M,M,M,69.80,KBAM 201815Z AUTO 26003KT 10SM CLR 21/05 A3005 RMK AO1,M
HTH,2024-09-20 18:15,-118.6315,38.5448,1282.89,M,M,M,M,M,0.00,30.06,M,M,M,M,M,M,M,M,M,M,M,M,M,M,M,M,M,M,M,KHTH 201815Z AUTO A3006 RMK A01,M
TMT,2024-09-20 18:15,-117.1971,39.4643,1749.34,63.70,41.00,43.33,360.00,4.00,0.00,30.10,M,10.00,M,CLR,M,M,M,M,M,M,M,M,M,M,M,M,M,M,63.70,KTMT 201815Z AUTO 36004KT 10SM CLR 18/05 A3010 RMK AO2 T01760051,M
10U,2024-09-20 18:15,-116.1876,41.9532,1637.00,66.20,37.40,34.51,M,4.00,0.00,30.07,M,10.00,M,CLR,M,M,M,M,M,M,M,M,M,M,M,M,M,M,66.20,K10U 201815Z AUTO VRB04KT 10SM CLR 19/03 A3007 RMK AO2,M
05U,2024-09-20 18:30,-116.0051,39.6042,1811.23,66.20,37.40,34.51,340.00,3.00,0.00,30.10,M,10.00,10.00,CLR,M,M,M,M,M,M,M,M,M,M,M,M,M,M,66.20,K05U 201830Z AUTO 34003G10KT 10SM CLR 19/03 A3010 RMK A01,M
BVU,2024-09-20 18:35,-114.8611,35.9475,671.00,84.20,41.00,21.76,150.00,8.00,0.00,29.80,M,10.00,M,CLR,M,M,M,M,M,M,M,M,M,M,M,M,M,M,81.52,KBVU 201835Z AUTO 15008KT 10SM CLR 29/05 A2980 RMK AO2,M
CXP,2024-09-20 18:35,-119.7326,39.1923,1431.00,66.20,39.20,37.03,0.00,0.00,0.00,30.09,M,10.00,M,CLR,M,M,M,M,M,M,M,M,M,M,M,M,M,M,66.20,KCXP 201835Z AUTO 00000KT 10SM CLR 19/04 A3009 RMK AO2,M
RTS,2024-09-20 18:35,-119.8764,39.6682,1539.00,68.00,37.40,32.43,150.00,4.00,0.00,30.09,M,10.00,M,CLR,M,M,M,M,M,M,M,M,M,M,M,M,M,M,68.00,KRTS 201835Z AUTO 15004KT 10SM CLR 20/03 A3009 RMK AO2,M
MEV,2024-09-20 18:35,-119.7500,38.9963,1441.42,64.40,44.60,48.55,0.00,0.00,0.00,30.08,M,10.00,M,CLR,M,M,M,M,M,M,M,M,M,M,M,M,M,M,64.40,KMEV 201835Z AUTO 00000KT 10SM CLR 18/07 A3008 RMK AO2,M
BAM,2024-09-20 18:35,-116.8743,40.5990,1382.36,69.80,41.00,35.09,0.00,0.00,0.00,30.05,M,10.00,M,CLR,M,M,M,M,M,M,M,M,M,M,M,M,M,M,69.80,KBAM 201835Z AUTO 00000KT 10SM CLR 21/05 A3005 RMK AO1,M
HTH,2024-09-20 18:35,-118.6315,38.5448,1282.89,66.20,44.60,45.60,320.00,4.00,0.00,30.06,M,10.00,M,M,M,M,M,M,M,M,M,M,M,M,M,M,M,M,66.20,KHTH 201835Z AUTO 32004KT 10SM 19/07 A3006 RMK A01,M
TMT,2024-09-20 18:35,-117.1971,39.4643,1749.34,66.00,42.00,41.57,20.00,9.00,0.00,30.10,M,10.00,M,CLR,M,M,M,M,M,M,M,M,M,M,M,M,M,M,66.00,KTMT 201835Z AUTO 02009KT 10SM CLR 19/06 A3010 RMK AO2 T01880056,M
10U,2024-09-20 18:35,-116.1876,41.9532,1637.00,68.00,37.40,32.43,0.00,0.00,0.00,30.07,M,10.00,M,CLR,M,M,M,M,M,M,M,M,M,M,M,M,M,M,68.00,K10U 201835Z AUTO 00000KT 10SM CLR 20/03 A3007 RMK AO2,M
05U,2024-09-20 18:50,-116.0051,39.6042,1811.23,66.20,35.60,32.14,0.00,0.00,0.00,30.10,M,10.00,M,CLR,M,M,M,M,M,M,M,M,M,M,M,M,M,M,66.20,K05U 201850Z AUTO 00000KT 10SM CLR 19/02 A3010 RMK A01,M
HTH,2024-09-20 18:50,-118.6315,38.5448,1282.89,66.20,44.60,45.60,330.00,6.00,0.00,30.06,M,10.00,11.00,M,M,M,M,M,M,M,M,M,M,M,M,M,M,M,66.20,KHTH 201850Z AUTO 33006G11KT 10SM 19/07 A3006 RMK A01,M
P68,2024-09-20 18:53,-116.0056,39.6014,1993.00,69.00,35.00,28.50,M,6.00,0.00,30.07,1012.10,M,M,M,M,M,M,M,M,M,M,M,M,M,M,M,M,M,69.00,KP68 201853Z AUTO VRB06KT 21/02 A3007 RMK AO1 SLP121 T02060017,M
DRA,2024-09-20 18:53,-116.0278,36.6206,1009.00,80.00,39.00,23.08,200.00,5.00,0.00,29.88,1007.40,10.00,M,CLR,M,M,M,M,M,M,M,M,M,M,M,M,M,M,78.78,KDRA 201853Z AUTO 20005KT 10SM CLR 27/04 A2988 RMK AO2 SLP074 T02670039,M
ELY,2024-09-20 18:53,-114.8453,39.2950,1909.00,69.00,31.00,24.27,0.00,0.00,0.00,30.05,1009.70,10.00,M,CLR,M,M,M,M,M,M,M,M,M,M,M,M,M,M,69.00,KELY 201853Z AUTO 00000KT 10SM CLR 21/M01 A3005 RMK AO2 SLP097 T02061006,M
VGT,2024-09-20 18:53,-115.1933,36.2111,667.00,85.00,41.00,21.21,120.00,9.00,0.00,29.81,1008.80,10.00,M,CLR,M,M,M,M,M,M,M,M,M,M,M,M,M,M,82.10,KVGT 201853Z 12009KT 10SM CLR 29/05 A2981 RMK AO2 SLP088 T02940050,M
LOL,2024-09-20 18:53,-118.5701,40.0684,1192.43,72.00,43.00,35.16,M,3.00,0.00,30.02,1014.10,10.00,M,CLR,M,M,M,M,M,M,M,M,M,M,M,M,M,M,72.00,KLOL 201853Z AUTO VRB03KT 10SM CLR 22/06 A3002 RMK AO2 SLP141 T02220061,M
BVU,2024-09-20 18:55,-114.8611,35.9475,671.00,84.20,42.80,23.33,120.00,6.00,0.00,29.80,M,10.00,12.00,CLR,M,M,M,M,M,M,M,M,M,M,M,M,M,M,81.61,KBVU 201855Z AUTO 12006G12KT 10SM CLR 29/06 A2980 RMK AO2,M
RNO,2024-09-20 18:55,-119.7711,39.4839,1341.00,70.00,38.00,31.00,0.00,0.00,0.00,30.05,1013.60,10.00,M,FEW,FEW,M,M,9000.00,18000.00,M,M,M,M,M,M,M,M,M,70.00,KRNO 201855Z 00000KT 10SM FEW090 FEW180 21/03 A3005 RMK AO2 SLP136 T02110033,M
CXP,2024-09-20 18:55,-119.7326,39.1923,1431.00,69.80,39.20,32.72,0.00,0.00,0.00,30.08,M,10.00,M,CLR,M,M,M,M,M,M,M,M,M,M,M,M,M,M,69.80,KCXP 201855Z AUTO 00000KT 10SM CLR 21/04 A3008 RMK AO2,M
LSV,2024-09-20 18:55,-115.0343,36.2362,570.00,86.00,32.70,14.81,40.00,3.00,0.00,29.76,1005.30,10.00,M,FEW,M,M,M,19000.00,M,M,M,M,M,M,M,M,M,M,82.65,KLSV 201855Z AUTO 04003KT 10SM FEW190 30/00 A2976 RMK AO2 SLP053 T02990004 $,M
RTS,2024-09-20 18:55,-119.8764,39.6682,1539.00,68.00,37.40,32.43,160.00,6.00,0.00,30.09,M,10.00,M,CLR,M,M,M,M,M,M,M,M,M,M,M,M,M,M,68.00,KRTS 201855Z AUTO 16006KT 10SM CLR 20/03 A3009 RMK AO2,M
MEV,2024-09-20 18:55,-119.7500,38.9963,1441.42,66.20,44.60,45.60,0.00,0.00,0.00,30.07,M,9.00,M,CLR,M,M,M,M,M,M,M,M,M,M,M,M,M,M,66.20,KMEV 201855Z AUTO 00000KT 9SM CLR 19/07 A3007 RMK AO2,M
BAM,2024-09-20 18:55,-116.8743,40.5990,1382.36,71.60,41.00,33.00,320.00,4.00,0.00,30.05,M,10.00,M,CLR,M,M,M,M,M,M,M,M,M,M,M,M,M,M,71.60,KBAM 201855Z AUTO 32004KT 10SM CLR 22/05 A3005 RMK AO1,M
TMT,2024-09-20 18:55,-117.1971,39.4643,1749.34,67.00,42.30,40.62,350.00,8.00,0.00,30.09,M,10.00,M,CLR,M,M,M,M,M,M,M,M,M,M,M,M,M,M,67.00,KTMT 201855Z AUTO 35008KT 10SM CLR 20/06 A3009 RMK AO2 T01950057,M
10U,2024-09-20 18:55,-116.1876,41.9532,1637.00,69.80,39.20,32.72,250.00,5.00,0.00,30.06,M,10.00,M,CLR,M,M,M,M,M,M,M,M,M,M,M,M,M,M,69.80,K10U 201855Z AUTO 25005KT 10SM CLR 21/04 A3006 RMK AO2,M
INS,2024-09-20 18:55,-115.6733,36.5872,955.00,79.70,33.80,18.98,80.00,4.00,0.00,29.87,1007.10,10.00,M,SCT,M,M,M,10000.00,M,M,M,M,M,M,M,M,M,M,79.70,KINS 201855Z AUTO 08004KT 10SM SCT100 27/01 A2987 RMK AO2 SLP071 T02650010,M
EKO,2024-09-20 18:56,-115.7860,40.8242,1367.00,72.00,40.00,31.32,0.00,0.00,0.00,30.03,1012.00,10.00,M,CLR,M,M,M,M,M,M,M,M,M,M,M,M,M,M,72.00,KEKO 201856Z AUTO 00000KT 10SM CLR 22/04 A3003 RMK AO2 SLP120 T02220044,M
WMC,2024-09-20 18:56,-117.8072,40.9019,1315.00,74.00,39.00,28.16,M,3.00,T,30.03,1013.30,10.00,M,CLR,M,M,M,M,M,M,M,-RA,M,M,M,M,M,M,74.00,KWMC 201856Z AUTO VRB03KT 10SM -RA CLR 23/04 A3003 RMK AO2 SLP133 P0000 T02330039,M
HND,2024-09-20 18:56,-115.1344,35.9729,742.79,83.00,43.00,24.44,20.00,7.00,0.00,29.85,1009.80,10.00,M,CLR,M,M,M,M,M,M,M,M,M,M,M,M,M,M,80.79,KHND 201856Z 02007KT 330V040 10SM CLR 28/06 A2985 RMK AO2 LTG DSNT SW SLP098 T02830061,M
TPH,2024-09-20 18:56,-117.0904,38.0505,1654.00,71.00,33.00,24.57,270.00,10.00,0.00,30.03,1010.90,10.00,16.00,CLR,M,M,M,M,M,M,M,M,M,M,M,M,M,M,71.00,KTPH 201856Z AUTO 27010G16KT 240V310 10SM CLR 22/01 A3003 RMK AO2 SLP109 T02170006,M
LAS,2024-09-20 18:56,-115.1634,36.0719,663.00,82.00,43.00,25.24,0.00,0.00,0.00,29.82,1007.60,10.00,M,FEW,SCT,M,M,9500.00,20000.00,M,M,M,M,M,M,M,M,M,80.15,KLAS 201856Z 00000KT 10SM FEW095 SCT200 28/06 A2982 RMK AO2 LTG DSNT S AND SW SLP076 SH DSNT SW MOV NW T02780061,M
NFL,2024-09-20 18:57,-118.7010,39.4166,1199.00,71.00,44.00,37.80,M,M,0.00,30.02,1013.60,10.00,M,CLR,M,M,M,M,M,M,M,M,M,M,M,M,M,M,71.00,KNFL 201857Z 10SM CLR 22/07 A3002 RMK AO2 SLP136 T02170067,M
05U,2024-09-20 19:10,-116.0051,39.6042,1811.23,68.00,28.40,22.59,20.00,7.00,0.00,30.09,M,10.00,M,CLR,M,M,M,M,M,M,M,M,M,M,M,M,M,M,68.00,K05U 201910Z AUTO 02007KT 10SM CLR 20/M02 A3009 RMK A01,M
RTS,2024-09-20 19:15,-119.8764,39.6682,1539.00,69.80,37.40,30.49,160.00,6.00,0.00,30.08,M,10.00,M,CLR,M,M,M,M,M,M,M,M,M,M,M,M,M,M,69.80,KRTS 201915Z AUTO 16006KT 10SM CLR 21/03 A3008 RMK AO2,M
BVU,2024-09-20 19:15,-114.8611,35.9475,671.00,84.20,41.00,21.76,0.00,0.00,0.00,29.79,M,10.00,11.00,CLR,M,M,M,M,M,M,M,M,M,M,M,M,M,M,81.52,KBVU 201915Z AUTO 00000G11KT 10SM CLR 29/05 A2979 RMK AO2 LTG DSNT SW AND W,M
CXP,2024-09-20 19:15,-119.7326,39.1923,1431.00,69.80,37.40,30.49,0.00,0.00,0.00,30.07,M,10.00,M,CLR,M,M,M,M,M,M,M,M,M,M,M,M,M,M,69.80,KCXP 201915Z AUTO 00000KT 10SM CLR 21/03 A3007 RMK AO2,M
MEV,2024-09-20 19:15,-119.7500,38.9963,1441.42,68.00,41.00,37.32,320.00,4.00,0.00,30.06,M,10.00,M,CLR,M,M,M,M,M,M,M,M,M,M,M,M,M,M,68.00,KMEV 201915Z AUTO 32004KT 10SM CLR 20/05 A3006 RMK AO2,M
BAM,2024-09-20 19:15,-116.8743,40.5990,1382.36,71.60,41.00,33.00,360.00,5.00,0.00,30.04,M,10.00,M,CLR,M,M,M,M,M,M,M,M,M,M,M,M,M,M,71.60,KBAM 201915Z AUTO 36005KT 10SM CLR 22/05 A3004 RMK AO1,M
HTH,2024-09-20 19:15,-118.6315,38.5448,1282.89,68.00,42.80,40.00,340.00,9.00,0.00,30.05,M,10.00,M,M,M,M,M,M,M,M,M,M,M,M,M,M,M,M,68.00,KHTH 201915Z AUTO 34009KT 10SM 20/06 A3005 RMK A01,M
TMT,2024-09-20 19:15,-117.1971,39.4643,1749.34,67.60,40.60,37.26,10.00,6.00,0.00,30.09,M,10.00,M,CLR,M,M,M,M,M,M,M,M,M,M,M,M,M,M,67.60,KTMT 201915Z AUTO 01006KT 10SM CLR 20/05 A3009 RMK AO2 T01980048,M
10U,2024-09-20 19:15,-116.1876,41.9532,1637.00,69.80,35.60,28.39,M,4.00,0.00,30.06,M,10.00,10.00,CLR,M,M,M,M,M,M,M,M,M,M,M,M,M,M,69.80,K10U 201915Z AUTO VRB04G10KT 10SM CLR 21/02 A3006 RMK AO2,M
05U,2024-09-20 19:30,-116.0051,39.6042,1811.23,68.00,30.20,24.32,0.00,0.00,0.00,30.08,M,10.00,10.00,CLR,M,M,M,M,M,M,M,M,M,M,M,M,M,M,68.00,K05U 201930Z AUTO 00000G10KT 10SM CLR 20/M01 A3008 RMK A01,M
BVU,2024-09-20 19:35,-114.8611,35.9475,671.00,86.00,42.80,22.02,160.00,10.00,0.00,29.79,M,10.00,M,FEW,M,M,M,8500.00,M,M,M,M,M,M,M,M,M,M,82.95,KBVU 201935Z AUTO 16010KT 10SM FEW085 30/06 A2979 RMK AO2,M
CXP,2024-09-20 19:35,-119.7326,39.1923,1431.00,71.60,39.20,30.77,0.00,0.00,0.00,30.07,M,7.00,M,CLR,M,M,M,M,M,M,M,M,M,M,M,M,M,M,71.60,KCXP 201935Z AUTO 00000KT 7SM CLR 22/04 A3007 RMK AO2,M
RTS,2024-09-20 19:35,-119.8764,39.6682,1539.00,71.60,35.60,26.71,110.00,7.00,0.00,30.08,M,10.00,14.00,CLR,M,M,M,M,M,M,M,M,M,M,M,M,M,M,71.60,KRTS 201935Z AUTO 11007G14KT 10SM CLR 22/02 A3008 RMK AO2,M
MEV,2024-09-20 19:35,-119.7500,38.9963,1441.42,69.80,41.00,35.09,0.00,0.00,0.00,30.06,M,10.00,M,CLR,M,M,M,M,M,M,M,M,M,M,M,M,M,M,69.80,KMEV 201935Z AUTO 00000KT 10SM CLR 21/05 A3006 RMK AO2,M
BAM,2024-09-20 19:35,-116.8743,40.5990,1382.36,73.40,41.00,31.05,20.00,4.00,0.00,30.03,M,10.00,M,CLR,M,M,M,M,M,M,M,M,M,M,M,M,M,M,73.40,KBAM 201935Z AUTO 02004KT 10SM CLR 23/05 A3003 RMK AO1,M
HTH,2024-09-20 19:35,-118.6315,38.5448,1282.89,68.00,42.80,40.00,320.00,9.00,0.00,30.04,M,10.00,M,M,M,M,M,M,M,M,M,M,M,M,M,M,M,M,68.00,KHTH 201935Z AUTO 32009KT 10SM 20/06 A3004 RMK A01,M
TMT,2024-09-20 19:35,-117.1971,39.4643,1749.34,68.00,41.00,37.32,60.00,7.00,0.00,30.08,M,10.00,M,CLR,M,M,M,M,M,M,M,M,M,M,M,M,M,M,68.00,KTMT 201935Z AUTO 06007KT 10SM CLR 20/05 A3008 RMK AO2 T02010051,M
10U,2024-09-20 19:35,-116.1876,41.9532,1637.00,69.80,35.60,28.39,0.00,0.00,0.00,30.06,M,10.00,11.00,CLR,M,M,M,M,M,M,M,M,M,M,M,M,M,M,69.80,K10U 201935Z AUTO 00000G11KT 10SM CLR 21/02 A3006 RMK AO2,M
05U,2024-09-20 19:50,-116.0051,39.6042,1811.23,69.80,28.40,21.24,350.00,4.00,0.00,30.08,M,10.00,M,CLR,M,M,M,M,M,M,M,M,M,M,M,M,M,M,69.80,K05U 201950Z AUTO 35004KT 10SM CLR 21/M02 A3008 RMK A01,M
P68,2024-09-20 19:53,-116.0056,39.6014,1993.00,72.00,31.00,21.91,20.00,6.00,0.00,30.04,1011.60,M,M,M,M,M,M,M,M,M,M,M,M,M,M,M,M,M,72.00,KP68 201953Z AUTO 02006KT 22/M01 A3004 RMK AO1 SLP116 T02221006,M
DRA,2024-09-20 19:53,-116.0278,36.6206,1009.00,79.00,37.00,22.05,220.00,9.00,0.00,29.86,1007.10,10.00,M,FEW,M,M,M,10000.00,M,M,M,M,M,M,M,M,M,M,79.00,KDRA 201953Z AUTO 22009KT 10SM FEW100 26/03 A2986 RMK AO2 SLP071 T02610028,M
ELY,2024-09-20 19:53,-114.8453,39.2950,1909.00,72.00,31.00,21.91,M,5.00,0.00,30.03,1008.70,10.00,M,CLR,M,M,M,M,M,M,M,M,M,M,M,M,M,M,72.00,KELY 201953Z AUTO VRB05KT 10SM CLR 22/M01 A3003 RMK AO2 SLP087 T02221006,M
VGT,2024-09-20 19:53,-115.1933,36.2111,667.00,86.00,42.00,21.35,90.00,8.00,0.00,29.80,1008.40,10.00,M,CLR,M,M,M,M,M,M,M,M,M,M,M,M,M,M,82.91,KVGT 201953Z 09008KT 10SM CLR 30/06 A2980 RMK AO2 SLP084 T03000056,M
LOL,2024-09-20 19:53,-118.5701,40.0684,1192.43,75.00,42.00,30.59,340.00,4.00,0.00,30.00,1013.30,10.00,M,CLR,M,M,M,M,M,M,M,M,M,M,M,M,M,M,75.00,KLOL 201953Z AUTO 34004KT 10SM CLR 24/06 A3000 RMK AO2 SLP133 T02390056,M
BVU,2024-09-20 19:55,-114.8611,35.9475,671.00,86.00,42.80,22.02,180.00,10.00,0.00,29.78,M,10.00,16.00,SCT,M,M,M,9000.00,M,M,M,M,M,M,M,M,M,M,82.95,KBVU 201955Z AUTO 18010G16KT 10SM SCT090 30/06 A2978 RMK AO2 LTG DSNT SW AND W,M
RNO,2024-09-20 19:55,-119.7711,39.4839,1341.00,74.00,37.00,26.03,M,3.00,0.00,30.04,1012.90,10.00,M,FEW,FEW,M,M,7000.00,18000.00,M,M,M,M,M,M,M,M,M,74.00,KRNO 201955Z VRB03KT 10SM FEW070 FEW180 23/03 A3004 RMK AO2 SLP129 T02330028,M
BAM,2024-09-20 19:55,-116.8743,40.5990,1382.36,75.20,39.20,27.26,0.00,0.00,0.00,30.03,M,10.00,M,CLR,M,M,M,M,M,M,M,M,M,M,M,M,M,M,75.20,KBAM 201955Z AUTO 00000KT 10SM CLR 24/04 A3003 RMK AO1,M
CXP,2024-09-20 19:55,-119.7326,39.1923,1431.00,71.60,37.40,28.68,0.00,0.00,0.00,30.06,M,10.00,M,CLR,M,M,M,M,M,M,M,M,M,M,M,M,M,M,71.60,KCXP 201955Z AUTO 00000KT 10SM CLR 22/03 A3006 RMK AO2,M
RTS,2024-09-20 19:55,-119.8764,39.6682,1539.00,71.60,33.80,24.86,150.00,7.00,0.00,30.07,M,10.00,M,CLR,M,M,M,M,M,M,M,M,M,M,M,M,M,M,71.60,KRTS 201955Z AUTO 15007KT 10SM CLR 22/01 A3007 RMK AO2,M
MEV,2024-09-20 19:55,-119.7500,38.9963,1441.42,69.80,41.00,35.09,M,6.00,0.00,30.05,M,10.00,M,CLR,M,M,M,M,M,M,M,M,M,M,M,M,M,M,69.80,KMEV 201955Z AUTO VRB06KT 10SM CLR 21/05 A3005 RMK AO2,M
HTH,2024-09-20 19:55,-118.6315,38.5448,1282.89,69.80,41.00,35.09,340.00,11.00,0.00,30.03,M,10.00,M,CLR,M,M,M,M,M,M,M,M,M,M,M,M,M,M,69.80,KHTH 201955Z AUTO 34011KT 10SM CLR 21/05 A3003 RMK A01,M
TMT,2024-09-20 19:55,-117.1971,39.4643,1749.34,69.00,40.60,35.51,330.00,6.00,0.00,30.07,M,10.00,M,CLR,M,M,M,M,M,M,M,M,M,M,M,M,M,M,69.00,KTMT 201955Z AUTO 33006KT 10SM CLR 21/05 A3007 RMK AO2 T02050048,M
10U,2024-09-20 19:55,-116.1876,41.9532,1637.00,69.80,35.60,28.39,M,4.00,0.00,30.05,M,10.00,12.00,CLR,M,M,M,M,M,M,M,M,M,M,M,M,M,M,69.80,K10U 201955Z AUTO VRB04G12KT 10SM CLR 21/02 A3005 RMK AO2,M
INS,2024-09-20 19:55,-115.6733,36.5872,955.00,82.00,34.30,17.96,170.00,3.00,0.00,29.85,1006.70,10.00,M,BKN,M,M,M,10000.00,M,M,M,M,M,M,M,M,M,M,79.78,KINS 201955Z AUTO 17003KT 10SM BKN100 28/01 A2985 RMK AO2 SLP067 T02780013,M
LSV,2024-09-20 19:55,-115.0343,36.2362,570.00,86.50,36.50,16.96,340.00,3.00,0.00,29.74,1004.70,10.00,M,CLR,M,M,M,M,M,M,M,M,M,M,M,M,M,M,83.10,KLSV 201955Z AUTO 34003KT 10SM CLR 30/03 A2974 RMK AO2 SLP047 T03030025 $,M
EKO,2024-09-20 19:56,-115.7860,40.8242,1367.00,74.00,41.00,30.43,M,M,0.00,30.01,1011.60,10.00,M,CLR,M,M,M,M,M,M,M,M,M,M,M,M,M,M,74.00,KEKO 201956Z AUTO 10SM CLR 23/05 A3001 RMK AO2 SLP116 T02330050,M
WMC,2024-09-20 19:56,-117.8072,40.9019,1315.00,76.00,38.00,25.32,360.00,5.00,T,30.01,1012.60,10.00,M,CLR,M,M,M,M,M,M,M,-RA,M,M,M,M,M,M,76.00,KWMC 201956Z AUTO 36005KT 10SM -RA CLR 24/03 A3001 RMK AO2 SLP126 P0000 T02440033,M
HND,2024-09-20 19:56,-115.1344,35.9729,742.79,82.00,43.00,25.24,40.00,3.00,0.00,29.83,1009.40,10.00,M,FEW,M,M,M,9000.00,M,M,M,M,M,M,M,M,M,M,80.15,KHND 201956Z 04003KT 10SM FEW090 28/06 A2983 RMK AO2 LTG DSNT SW SLP094 T02780061,M
TPH,2024-09-20 19:56,-117.0904,38.0505,1654.00,73.00,33.00,22.96,320.00,6.00,0.00,30.02,1010.10,10.00,M,FEW,M,M,M,10000.00,M,M,M,M,M,M,M,M,M,M,73.00,KTPH 201956Z AUTO 32006KT 10SM FEW100 23/01 A3002 RMK AO2 SLP101 T02280006,M
LAS,2024-09-20 19:56,-115.1634,36.0719,663.00,84.00,42.00,22.77,M,M,0.00,29.81,1007.00,10.00,M,FEW,SCT,M,M,8500.00,20000.00,M,M,M,M,M,M,M,M,M,81.42,KLAS 201956Z 10SM FEW085 SCT200 29/06 A2981 RMK AO2 LTG DSNT SW SLP070 SH DSNT S AND SW MOV NW TCU DSNT NW T02890056,M
NFL,2024-09-20 19:57,-118.7010,39.4166,1199.00,76.00,42.00,29.59,M,3.00,0.00,30.01,1013.10,10.00,M,SCT,M,M,M,7000.00,M,M,M,M,M,M,M,M,M,M,76.00,KNFL 201957Z VRB03KT 10SM SCT070 24/06 A3001 RMK AO2 SLP131 T02440056,M
LAS,2024-09-20 19:58,-115.1634,36.0719,663.00,84.00,42.00,22.77,110.00,7.00,0.00,29.81,1007.00,M,M,FEW,SCT,M,M,8500.00,20000.00,M,M,M,M,M,M,M,M,M,81.42,KLAS 201958Z COR 11007KT FEW085 SCT200 29/06 A2981 RMK AO2 LTG DSNT SW SLP070 SH DSNT S AND SW MOV NW TCU DSNT NW T02890056,M
05U,2024-09-20 20:10,-116.0051,39.6042,1811.23,69.80,32.00,24.59,0.00,0.00,0.00,30.07,M,10.00,M,CLR,M,M,M,M,M,M,M,M,M,M,M,M,M,M,69.80,K05U 202010Z AUTO 00000KT 10SM CLR 21/M00 A3007 RMK A01,M
BVU,2024-09-20 20:15,-114.8611,35.9475,671.00,84.20,42.80,23.33,100.00,7.00,0.00,29.77,M,10.00,M,FEW,M,M,M,9000.00,M,M,M,M,M,M,M,M,M,M,81.61,KBVU 202015Z AUTO 10007KT 070V160 10SM FEW090 29/06 A2977 RMK AO2 LTG DSNT W,M
CXP,2024-09-20 20:15,-119.7326,39.1923,1431.00,73.40,39.20,28.96,80.00,7.00,0.00,30.06,M,9.00,M,CLR,M,M,M,M,M,M,M,M,M,M,M,M,M,M,73.40,KCXP 202015Z AUTO 08007KT 050V120 9SM CLR 23/04 A3006 RMK AO2,M
RTS,2024-09-20 20:15,-119.8764,39.6682,1539.00,71.60,33.80,24.86,0.00,0.00,0.00,30.07,M,10.00,M,CLR,M,M,M,M,M,M,M,M,M,M,M,M,M,M,71.60,KRTS 202015Z AUTO 00000KT 10SM CLR 22/01 A3007 RMK AO2,M
MEV,2024-09-20 20:15,-119.7500,38.9963,1441.42,71.60,39.20,30.77,20.00,4.00,0.00,30.05,M,10.00,M,CLR,M,M,M,M,M,M,M,M,M,M,M,M,M,M,71.60,KMEV 202015Z AUTO 02004KT 10SM CLR 22/04 A3005 RMK AO2,M
BAM,2024-09-20 20:15,-116.8743,40.5990,1382.36,77.00,39.20,25.67,360.00,4.00,0.00,30.02,M,10.00,M,CLR,M,M,M,M,M,M,M,M,M,M,M,M,M,M,77.00,KBAM 202015Z AUTO 36004KT 10SM CLR 25/04 A3002 RMK AO1,M
HTH,2024-09-20 20:15,-118.6315,38.5448,1282.89,71.60,41.00,33.00,340.00,12.00,0.00,30.02,M,10.00,M,CLR,M,M,M,M,M,M,M,M,M,M,M,M,M,M,71.60,KHTH 202015Z AUTO 34012KT 10SM CLR 22/05 A3002 RMK A01,M
TMT,2024-09-20 20:15,-117.1971,39.4643,1749.34,69.00,39.00,33.36,360.00,6.00,0.00,30.07,M,10.00,M,CLR,M,M,M,M,M,M,M,M,M,M,M,M,M,M,69.00,KTMT 202015Z AUTO 36006KT 10SM CLR 21/04 A3007 RMK AO2 T02050038,M
10U,2024-09-20 20:15,-116.1876,41.9532,1637.00,71.60,33.80,24.86,280.00,7.00,0.00,30.05,M,10.00,M,CLR,M,M,M,M,M,M,M,M,M,M,M,M,M,M,71.60,K10U 202015Z AUTO 28007KT 10SM CLR 22/01 A3005 RMK AO2,M
05U,2024-09-20 20:30,-116.0051,39.6042,1811.23,69.80,30.20,22.86,0.00,0.00,0.00,30.06,M,10.00,M,CLR,M,M,M,M,M,M,M,M,M,M,M,M,M,M,69.80,K05U 202030Z AUTO 00000KT 10SM CLR 21/M01 A3006 RMK A01,M
HND,2024-09-20 20:33,-115.1344,35.9729,742.79,82.40,44.60,26.49,130.00,5.00,T,29.82,M,10.00,M,FEW,BKN,M,M,3000.00,9000.00,M,M,VCTS -RA,M,M,M,M,M,M,80.50,KHND 202033Z 13005KT 10SM VCTS -RA FEW030 BKN090 28/07 A2982 RMK AO2 LTG DSNT SW TSB27RAB27 P0000,M
BVU,2024-09-20 20:35,-114.8611,35.9475,671.00,86.00,42.80,22.02,160.00,8.00,0.00,29.77,M,10.00,15.00,SCT,M,M,M,9000.00,M,M,M,M,M,M,M,M,M,M,82.95,KBVU 202035Z AUTO 16008G15KT 10SM SCT090 30/06 A2977 RMK AO2 LTG DSNT SW AND W,M
CXP,2024-09-20 20:35,-119.7326,39.1923,1431.00,75.20,37.40,25.40,M,3.00,0.00,30.05,M,10.00,M,CLR,M,M,M,M,M,M,M,M,M,M,M,M,M,M,75.20,KCXP 202035Z AUTO VRB03KT 10SM CLR 24/03 A3005 RMK AO2,M
RTS,2024-09-20 20:35,-119.8764,39.6682,1539.00,73.40,32.00,21.76,130.00,6.00,0.00,30.07,M,10.00,13.00,CLR,M,M,M,M,M,M,M,M,M,M,M,M,M,M,73.40,KRTS 202035Z AUTO 13006G13KT 10SM CLR 23/00 A3007 RMK AO2,M
MEV,2024-09-20 20:35,-119.7500,38.9963,1441.42,71.60,37.40,28.68,0.00,0.00,0.00,30.04,M,10.00,M,CLR,M,M,M,M,M,M,M,M,M,M,M,M,M,M,71.60,KMEV 202035Z AUTO 00000KT 10SM CLR 22/03 A3004 RMK AO2,M
BAM,2024-09-20 20:35,-116.8743,40.5990,1382.36,77.00,35.60,22.28,350.00,6.00,0.00,30.01,M,10.00,M,CLR,M,M,M,M,M,M,M,M,M,M,M,M,M,M,77.00,KBAM 202035Z AUTO 35006KT 10SM CLR 25/02 A3001 RMK AO1,M
HTH,2024-09-20 20:35,-118.6315,38.5448,1282.89,73.40,37.40,26.98,330.00,12.00,0.00,30.02,M,10.00,M,CLR,M,M,M,M,M,M,M,M,M,M,M,M,M,M,73.40,KHTH 202035Z AUTO 33012KT 10SM CLR 23/03 A3002 RMK A01,M
TMT,2024-09-20 20:35,-117.1971,39.4643,1749.34,69.60,40.00,33.98,20.00,5.00,0.00,30.06,M,10.00,M,SCT,M,M,M,7000.00,M,M,M,M,M,M,M,M,M,M,69.60,KTMT 202035Z AUTO 02005KT 10SM SCT070 21/05 A3006 RMK AO2 T02090045,M
10U,2024-09-20 20:35,-116.1876,41.9532,1637.00,71.60,33.80,24.86,M,4.00,0.00,30.05,M,10.00,10.00,CLR,M,M,M,M,M,M,M,M,M,M,M,M,M,M,71.60,K10U 202035Z AUTO VRB04G10KT 10SM CLR 22/01 A3005 RMK AO2,M
05U,2024-09-20 20:50,-116.0051,39.6042,1811.23,71.60,30.20,21.50,0.00,0.00,0.00,30.05,M,10.00,M,CLR,M,M,M,M,M,M,M,M,M,M,M,M,M,M,71.60,K05U 202050Z AUTO 00000KT 10SM CLR 22/M01 A3005 RMK A01,M
P68,2024-09-20 20:53,-116.0056,39.6014,1993.00,71.00,32.00,23.60,M,3.00,0.00,30.02,1011.10,M,M,M,M,M,M,M,M,M,M,M,M,M,M,M,M,M,71.00,KP68 202053Z AUTO VRB03KT 22/00 A3002 RMK AO1 SLP111 T02170000 58016,M
DRA,2024-09-20 20:53,-116.0278,36.6206,1009.00,80.00,39.00,23.08,230.00,7.00,0.00,29.84,1006.40,10.00,M,FEW,SCT,BKN,M,6000.00,9500.00,11000.00,M,M,M,M,M,M,M,M,78.78,KDRA 202053Z AUTO 23007KT 10SM FEW060 SCT095 BKN110 27/04 A2984 RMK AO2 SLP064 T02670039 58012,M
ELY,2024-09-20 20:53,-114.8453,39.2950,1909.00,70.00,30.00,22.52,0.00,0.00,0.00,30.02,1008.60,10.00,M,SCT,M,M,M,11000.00,M,M,M,M,M,M,M,M,M,M,70.00,KELY 202053Z AUTO 00000KT 10SM SCT110 21/M01 A3002 RMK AO2 SLP086 T02111011 56014,M
VGT,2024-09-20 20:53,-115.1933,36.2111,667.00,85.00,41.00,21.21,250.00,4.00,0.00,29.77,1007.60,10.00,M,CLR,M,M,M,M,M,M,M,M,M,M,M,M,M,M,82.10,KVGT 202053Z 25004KT 10SM CLR 29/05 A2977 RMK AO2 LTG DSNT S AND SW SLP076 T02940050 58016,M
LOL,2024-09-20 20:53,-118.5701,40.0684,1192.43,77.00,42.00,28.62,M,6.00,0.00,29.98,1012.50,10.00,M,CLR,M,M,M,M,M,M,M,M,M,M,M,M,M,M,77.00,KLOL 202053Z AUTO VRB06KT 10SM CLR 25/06 A2998 RMK AO2 SLP125 T02500056 58014,M
BVU,2024-09-20 20:55,-114.8611,35.9475,671.00,86.00,42.80,22.02,0.00,0.00,0.00,29.76,M,10.00,M,BKN,BKN,M,M,9000.00,11000.00,M,M,M,M,M,M,M,M,M,82.95,KBVU 202055Z AUTO 00000KT 10SM BKN090 BKN110 30/06 A2976 RMK AO2 LTG DSNT W,M
RNO,2024-09-20 20:55,-119.7711,39.4839,1341.00,75.00,35.00,23.26,M,3.00,0.00,30.02,1012.40,10.00,M,FEW,FEW,M,M,7000.00,18000.00,M,M,M,M,M,M,M,M,M,75.00,KRNO 202055Z VRB03KT 10SM FEW070 FEW180 24/02 A3002 RMK AO2 SLP124 T02390017 57013,M
BAM,2024-09-20 20:55,-116.8743,40.5990,1382.36,77.00,35.60,22.28,330.00,4.00,0.00,30.01,M,10.00,M,CLR,M,M,M,M,M,M,M,M,M,M,M,M,M,M,77.00,KBAM 202055Z AUTO 33004KT 10SM CLR 25/02 A3001 RMK AO1,M
CXP,2024-09-20 20:55,-119.7326,39.1923,1431.00,75.20,35.60,23.66,M,4.00,0.00,30.04,M,10.00,M,CLR,M,M,M,M,M,M,M,M,M,M,M,M,M,M,75.20,KCXP 202055Z AUTO VRB04KT 10SM CLR 24/02 A3004 RMK AO2,M
RTS,2024-09-20 20:55,-119.8764,39.6682,1539.00,71.60,32.00,23.13,110.00,4.00,0.00,30.06,M,10.00,11.00,CLR,M,M,M,M,M,M,M,M,M,M,M,M,M,M,71.60,KRTS 202055Z AUTO 11004G11KT 10SM CLR 22/00 A3006 RMK AO2,M
MEV,2024-09-20 20:55,-119.7500,38.9963,1441.42,71.60,37.40,28.68,0.00,0.00,0.00,30.04,M,10.00,M,CLR,M,M,M,M,M,M,M,M,M,M,M,M,M,M,71.60,KMEV 202055Z AUTO 00000KT 10SM CLR 22/03 A3004 RMK AO2,M
HTH,2024-09-20 20:55,-118.6315,38.5448,1282.89,73.40,39.20,28.96,330.00,10.00,0.00,30.02,M,10.00,M,CLR,M,M,M,M,M,M,M,M,M,M,M,M,M,M,73.40,KHTH 202055Z AUTO 33010KT 10SM CLR 23/04 A3002 RMK A01,M
TMT,2024-09-20 20:55,-117.1971,39.4643,1749.34,69.60,39.40,33.20,350.00,9.00,0.00,30.06,M,10.00,15.00,SCT,M,M,M,7000.00,M,M,M,M,M,M,M,M,M,M,69.60,KTMT 202055Z AUTO 35009G15KT 10SM SCT070 21/04 A3006 RMK AO2 T02090041,M
10U,2024-09-20 20:55,-116.1876,41.9532,1637.00,71.60,33.80,24.86,M,5.00,0.00,30.05,M,10.00,11.00,CLR,M,M,M,M,M,M,M,M,M,M,M,M,M,M,71.60,K10U 202055Z AUTO VRB05G11KT 10SM CLR 22/01 A3005 RMK AO2,M
INS,2024-09-20 20:55,-115.6733,36.5872,955.00,82.20,31.50,15.95,80.00,6.00,0.00,29.82,1005.90,10.00,M,FEW,M,M,M,10000.00,M,M,M,M,M,M,M,M,M,M,79.85,KINS 202055Z AUTO 08006KT 10SM FEW100 28/M00 A2982 RMK AO2 SLP059 T02791003 57016,M
LSV,2024-09-20 20:55,-115.0343,36.2362,570.00,87.30,35.60,15.95,0.00,0.00,0.00,29.72,1003.90,10.00,M,CLR,M,M,M,M,M,M,M,M,M,M,M,M,M,M,83.72,KLSV 202055Z AUTO 00000KT 10SM CLR 31/02 A2972 RMK AO2 SLP039 T03070020 57018 $,M
EKO,2024-09-20 20:56,-115.7860,40.8242,1367.00,76.00,38.00,25.32,170.00,7.00,0.00,29.99,1011.00,10.00,M,CLR,M,M,M,M,M,M,M,M,M,M,M,M,M,M,76.00,KEKO 202056Z AUTO 17007KT 10SM CLR 24/03 A2999 RMK AO2 SLP110 T02440033 58018,M
WMC,2024-09-20 20:56,-117.8072,40.9019,1315.00,76.00,36.00,23.40,0.00,0.00,T,30.00,1012.30,10.00,M,CLR,M,M,M,M,M,M,M,-RA,M,M,M,M,M,M,76.00,KWMC 202056Z AUTO 00000KT 10SM -RA CLR 24/02 A3000 RMK AO2 SLP123 P0000 60000 T02440022 58012,M
HND,2024-09-20 20:56,-115.1344,35.9729,742.79,81.00,47.00,30.36,150.00,11.00,T,29.82,1009.20,10.00,M,FEW,SCT,SCT,M,2900.00,5500.00,10000.00,M,-TSRA,M,M,M,M,M,M,79.84,KHND 202056Z 15011KT 10SM -TSRA FEW029 SCT055 SCT100 27/08 A2982 RMK AO2 LTG DSNT SW TSB27RAB27 SLP092 P0000 60000 T02720083 56012,M
TPH,2024-09-20 20:56,-117.0904,38.0505,1654.00,73.00,31.00,21.18,M,M,0.00,30.00,1009.80,10.00,M,BKN,M,M,M,9000.00,M,M,M,M,M,M,M,M,M,M,73.00,KTPH 202056Z AUTO 10SM BKN090 23/M01 A3000 RMK AO2 SLP098 T02281006 58011,M
LAS,2024-09-20 20:56,-115.1634,36.0719,663.00,83.00,41.00,22.62,110.00,4.00,0.00,29.79,1006.40,10.00,M,FEW,BKN,M,M,8500.00,20000.00,M,M,M,M,M,M,M,M,M,80.69,KLAS 202056Z 11004KT 10SM FEW085 BKN200 28/05 A2979 RMK AO2 LTG DSNT S AND SW SLP064 CB DSNT SE AND SW SHRA DSNT SE T02830050 58015,M
NFL,2024-09-20 20:57,-118.7010,39.4166,1199.00,78.00,41.00,26.64,330.00,9.00,0.00,29.99,1012.70,10.00,M,SCT,SCT,M,M,7000.00,20000.00,M,M,M,M,M,M,M,M,M,78.00,KNFL 202057Z 33009KT 10SM SCT070 SCT200 26/05 A2999 RMK SLP127 T02560050 58013,M
HND,2024-09-20 21:10,-115.1344,35.9729,742.79,75.20,51.80,43.97,170.00,11.00,T,29.82,M,10.00,M,FEW,SCT,BKN,M,3500.00,4800.00,10000.00,M,-RA,M,M,M,M,M,M,75.20,KHND 202110Z 17011KT 10SM -RA FEW035 SCT048 BKN100 24/11 A2982 RMK AO2 TSE04 P0000,M
05U,2024-09-20 21:10,-116.0051,39.6042,1811.23,71.60,30.20,21.50,0.00,0.00,0.00,30.05,M,10.00,M,CLR,M,M,M,M,M,M,M,M,M,M,M,M,M,M,71.60,K05U 202110Z AUTO 00000KT 10SM CLR 22/M01 A3005 RMK A01,M
BVU,2024-09-20 21:15,-114.8611,35.9475,671.00,84.20,41.00,21.76,90.00,6.00,0.00,29.76,M,10.00,M,BKN,BKN,M,M,9500.00,11000.00,M,M,M,M,M,M,M,M,M,81.52,KBVU 202115Z AUTO 09006KT 10SM BKN095 BKN110 29/05 A2976 RMK AO2,M
CXP,2024-09-20 21:15,-119.7326,39.1923,1431.00,77.00,35.60,22.28,M,3.00,0.00,30.04,M,9.00,M,CLR,M,M,M,M,M,M,M,M,M,M,M,M,M,M,77.00,KCXP 202115Z AUTO VRB03KT 9SM CLR 25/02 A3004 RMK AO2,M
RTS,2024-09-20 21:15,-119.8764,39.6682,1539.00,73.40,32.00,21.76,180.00,7.00,0.00,30.06,M,10.00,M,CLR,M,M,M,M,M,M,M,M,M,M,M,M,M,M,73.40,KRTS 202115Z AUTO 18007KT 10SM CLR 23/00 A3006 RMK AO2,M
MEV,2024-09-20 21:15,-119.7500,38.9963,1441.42,73.40,37.40,26.98,0.00,0.00,0.00,30.03,M,10.00,10.00,CLR,M,M,M,M,M,M,M,M,M,M,M,M,M,M,73.40,KMEV 202115Z AUTO 00000G10KT 10SM CLR 23/03 A3003 RMK AO2,M
BAM,2024-09-20 21:15,-116.8743,40.5990,1382.36,77.00,35.60,22.28,340.00,5.00,0.00,30.00,M,10.00,M,CLR,M,M,M,M,M,M,M,M,M,M,M,M,M,M,77.00,KBAM 202115Z AUTO 34005KT 10SM CLR 25/02 A3000 RMK AO1,M
HTH,2024-09-20 21:15,-118.6315,38.5448,1282.89,73.40,39.20,28.96,350.00,10.00,0.00,30.01,M,10.00,15.00,CLR,M,M,M,M,M,M,M,M,M,M,M,M,M,M,73.40,KHTH 202115Z AUTO 35010G15KT 10SM CLR 23/04 A3001 RMK A01,M
TMT,2024-09-20 21:15,-117.1971,39.4643,1749.34,70.00,40.60,34.31,340.00,8.00,0.00,30.05,M,10.00,M,BKN,M,M,M,7000.00,M,M,M,M,M,M,M,M,M,M,70.00,KTMT 202115Z AUTO 34008KT 300V360 10SM BKN070 21/05 A3005 RMK AO2 T02120048,M
10U,2024-09-20 21:15,-116.1876,41.9532,1637.00,71.60,32.00,23.13,0.00,0.00,0.00,30.04,M,10.00,M,CLR,M,M,M,M,M,M,M,M,M,M,M,M,M,M,71.60,K10U 202115Z AUTO 00000KT 10SM CLR 22/00 A3004 RMK AO2,M
LAS,2024-09-20 21:16,-115.1634,36.0719,663.00,84.00,41.00,21.90,M,4.00,0.00,29.79,M,10.00,M,FEW,BKN,M,M,8500.00,20000.00,M,M,TS,M,M,M,M,M,M,81.37,KLAS 202116Z VRB04KT 10SM TS FEW085CB BKN200 29/05 A2979 RMK AO2 TSB16 OCNL LTGICCG SE-SW TS SE-SW MOV NE SHRA DSNT SE-SW T02890050,M
HND,2024-09-20 21:19,-115.1344,35.9729,742.79,75.20,51.80,43.97,190.00,13.00,T,29.82,M,10.00,M,FEW,SCT,M,M,4900.00,10000.00,M,M,VCTS,M,M,M,M,M,M,75.20,KHND 202119Z 19013KT 10SM VCTS FEW049 SCT100 24/11 A2982 RMK AO2 TSE04B13RAE19 P0000,M
05U,2024-09-20 21:30,-116.0051,39.6042,1811.23,73.40,30.20,20.23,0.00,0.00,0.00,30.04,M,10.00,10.00,CLR,M,M,M,M,M,M,M,M,M,M,M,M,M,M,73.40,K05U 202130Z AUTO 00000G10KT 10SM CLR 23/M01 A3004 RMK A01,M
HND,2024-09-20 21:34,-115.1344,35.9729,742.79,75.20,51.80,43.97,230.00,12.00,T,29.82,M,10.00,M,FEW,SCT,BKN,M,3500.00,4300.00,8000.00,M,-RA,M,M,M,M,M,M,75.20,KHND 202134Z 23012KT 10SM -RA FEW035 SCT043 BKN080 24/11 A2982 RMK AO2 TSE04B13E28 P0000,M
BVU,2024-09-20 21:35,-114.8611,35.9475,671.00,87.80,39.20,18.09,160.00,4.00,0.00,29.75,M,10.00,13.00,SCT,SCT,M,M,9000.00,11000.00,M,M,M,M,M,M,M,M,M,84.22,KBVU 202135Z AUTO 16004G13KT 10SM SCT090 SCT110 31/04 A2975 RMK AO2,M
CXP,2024-09-20 21:35,-119.7326,39.1923,1431.00,77.00,35.60,22.28,0.00,0.00,0.00,30.03,M,10.00,M,CLR,M,M,M,M,M,M,M,M,M,M,M,M,M,M,77.00,KCXP 202135Z AUTO 00000KT 10SM CLR 25/02 A3003 RMK AO2,M
RTS,2024-09-20 21:35,-119.8764,39.6682,1539.00,73.40,32.00,21.76,150.00,9.00,0.00,30.05,M,10.00,M,CLR,M,M,M,M,M,M,M,M,M,M,M,M,M,M,73.40,KRTS 202135Z AUTO 15009KT 10SM CLR 23/M00 A3005 RMK AO2,M
MEV,2024-09-20 21:35,-119.7500,38.9963,1441.42,73.40,37.40,26.98,210.00,7.00,0.00,30.02,M,10.00,M,CLR,M,M,M,M,M,M,M,M,M,M,M,M,M,M,73.40,KMEV 202135Z AUTO 21007KT 10SM CLR 23/03 A3002 RMK AO2,M
BAM,2024-09-20 21:35,-116.8743,40.5990,1382.36,78.80,35.60,21.00,330.00,6.00,0.00,30.00,M,10.00,M,CLR,M,M,M,M,M,M,M,M,M,M,M,M,M,M,78.80,KBAM 202135Z AUTO 33006KT 10SM CLR 26/02 A3000 RMK AO1,M
HTH,2024-09-20 21:35,-118.6315,38.5448,1282.89,75.20,37.40,25.40,340.00,11.00,0.00,30.00,M,10.00,16.00,CLR,M,M,M,M,M,M,M,M,M,M,M,M,M,M,75.20,KHTH 202135Z AUTO 34011G16KT 10SM CLR 24/03 A3000 RMK A01,M
TMT,2024-09-20 21:35,-117.1971,39.4643,1749.34,71.00,40.60,33.16,330.00,6.00,0.00,30.05,M,10.00,14.00,SCT,SCT,M,M,7000.00,9000.00,M,M,M,M,M,M,M,M,M,71.00,KTMT 202135Z AUTO 33006G14KT 10SM SCT070 SCT090 22/05 A3005 RMK AO2 T02160048,M
10U,2024-09-20 21:35,-116.1876,41.9532,1637.00,73.40,33.80,23.39,310.00,9.00,0.00,30.04,M,10.00,M,CLR,M,M,M,M,M,M,M,M,M,M,M,M,M,M,73.40,K10U 202135Z AUTO 31009KT 10SM CLR 23/01 A3004 RMK AO2,M
05U,2024-09-20 21:50,-116.0051,39.6042,1811.23,73.40,30.20,20.23,0.00,0.00,0.00,30.04,M,10.00,10.00,CLR,M,M,M,M,M,M,M,M,M,M,M,M,M,M,73.40,K05U 202150Z AUTO 00000G10KT 10SM CLR 23/M01 A3004 RMK A01,M
HTH,2024-09-20 21:50,-118.6315,38.5448,1282.89,M,M,M,340.00,12.00,0.00,30.00,M,10.00,M,M,M,M,M,M,M,M,M,M,M,M,M,M,M,M,M,KHTH 202150Z AUTO 34012KT 10SM A3000 RMK A01,M
P68,2024-09-20 21:53,-116.0056,39.6014,1993.00,74.00,31.00,20.48,M,6.00,0.00,30.01,1010.20,M,15.00,M,M,M,M,M,M,M,M,M,M,M,M,M,M,M,74.00,KP68 202153Z AUTO VRB06G15KT 23/M01 A3001 RMK AO1 SLP102 T02331006,M
DRA,2024-09-20 21:53,-116.0278,36.6206,1009.00,82.00,38.00,20.79,200.00,8.00,0.00,29.83,1006.00,10.00,M,FEW,M,M,M,11000.00,M,M,M,M,M,M,M,M,M,M,79.90,KDRA 202153Z AUTO 20008KT 10SM FEW110 28/03 A2983 RMK AO2 SLP060 T02780033,M
ELY,2024-09-20 21:53,-114.8453,39.2950,1909.00,70.00,31.00,23.45,M,6.00,0.00,30.01,1008.80,10.00,M,BKN,M,M,M,11000.00,M,M,M,M,M,M,M,M,M,M,70.00,KELY 202153Z AUTO VRB06KT 10SM BKN110 21/M01 A3001 RMK AO2 SLP088 T02111006,M
VGT,2024-09-20 21:53,-115.1933,36.2111,667.00,86.00,41.00,20.54,260.00,5.00,0.00,29.76,1007.30,10.00,14.00,CLR,M,M,M,M,M,M,M,M,M,M,M,M,M,M,82.86,KVGT 202153Z 26005G14KT 10SM CLR 30/05 A2976 RMK AO2 LTG DSNT NE SLP073 T03000050,M
LOL,2024-09-20 21:53,-118.5701,40.0684,1192.43,78.00,40.00,25.62,130.00,7.00,0.00,29.96,1012.10,10.00,M,CLR,M,M,M,M,M,M,M,M,M,M,M,M,M,M,78.00,KLOL 202153Z AUTO 13007KT 10SM CLR 26/04 A2996 RMK AO2 SLP121 T02560044,M
BVU,2024-09-20 21:55,-114.8611,35.9475,671.00,86.00,39.20,19.15,150.00,11.00,0.00,29.75,M,10.00,M,FEW,M,M,M,9500.00,M,M,M,M,M,M,M,M,M,M,82.79,KBVU 202155Z AUTO 15011KT 10SM FEW095 30/04 A2975 RMK AO2,M
RNO,2024-09-20 21:55,-119.7711,39.4839,1341.00,75.00,32.00,20.63,0.00,0.00,0.00,30.01,1012.00,10.00,M,FEW,FEW,M,M,8000.00,20000.00,M,M,M,M,M,M,M,M,M,75.00,KRNO 202155Z 00000KT 10SM FEW080 FEW200 24/00 A3001 RMK AO2 SLP120 T02390000,M
CXP,2024-09-20 21:55,-119.7326,39.1923,1431.00,77.00,32.00,19.30,0.00,0.00,0.00,30.03,M,10.00,M,CLR,M,M,M,M,M,M,M,M,M,M,M,M,M,M,77.00,KCXP 202155Z AUTO 00000KT 10SM CLR 25/M00 A3003 RMK AO2,M
RTS,2024-09-20 21:55,-119.8764,39.6682,1539.00,73.40,32.00,21.76,150.00,6.00,0.00,30.05,M,10.00,M,CLR,M,M,M,M,M,M,M,M,M,M,M,M,M,M,73.40,KRTS 202155Z AUTO 15006KT 10SM CLR 23/M00 A3005 RMK AO2,M
MEV,2024-09-20 21:55,-119.7500,38.9963,1441.42,75.20,37.40,25.40,240.00,8.00,0.00,30.02,M,10.00,M,CLR,M,M,M,M,M,M,M,M,M,M,M,M,M,M,75.20,KMEV 202155Z AUTO 24008KT 10SM CLR 24/03 A3002 RMK AO2,M
BAM,2024-09-20 21:55,-116.8743,40.5990,1382.36,78.80,35.60,21.00,350.00,4.00,0.00,29.99,M,10.00,M,CLR,M,M,M,M,M,M,M,M,M,M,M,M,M,M,78.80,KBAM 202155Z AUTO 35004KT 10SM CLR 26/02 A2999 RMK AO1,M
TMT,2024-09-20 21:55,-117.1971,39.4643,1749.34,71.20,39.70,31.81,340.00,10.00,0.00,30.05,M,10.00,16.00,CLR,M,M,M,M,M,M,M,M,M,M,M,M,M,M,71.20,KTMT 202155Z AUTO 34010G16KT 10SM CLR 22/04 A3005 RMK AO2 T02180043,M
10U,2024-09-20 21:55,-116.1876,41.9532,1637.00,71.60,35.60,26.71,320.00,9.00,0.00,30.04,M,10.00,14.00,CLR,M,M,M,M,M,M,M,M,M,M,M,M,M,M,71.60,K10U 202155Z AUTO 32009G14KT 290V350 10SM CLR 22/02 A3004 RMK AO2,M
INS,2024-09-20 21:55,-115.6733,36.5872,955.00,83.00,32.00,15.85,0.00,0.00,0.00,29.81,1005.30,10.00,M,FEW,FEW,M,M,10000.00,15000.00,M,M,M,M,M,M,M,M,M,80.41,KINS 202155Z AUTO 00000KT 10SM FEW100 FEW150 28/00 A2981 RMK AO2 SLP053 T02840001,M
LSV,2024-09-20 21:55,-115.0343,36.2362,570.00,87.80,34.30,14.91,180.00,6.00,0.00,29.71,1003.70,10.00,M,CLR,M,M,M,M,M,M,M,M,M,M,M,M,M,M,84.10,KLSV 202155Z AUTO 18006KT 10SM CLR 31/01 A2971 RMK AO2 SLP037 T03100013 $,M
EKO,2024-09-20 21:56,-115.7860,40.8242,1367.00,77.00,33.00,20.09,200.00,6.00,0.00,29.97,1010.40,10.00,M,CLR,M,M,M,M,M,M,M,M,M,M,M,M,M,M,77.00,KEKO 202156Z AUTO 20006KT 10SM CLR 25/01 A2997 RMK AO2 SLP104 T02500006,M
WMC,2024-09-20 21:56,-117.8072,40.9019,1315.00,79.00,35.00,20.37,250.00,5.00,T,29.98,1011.90,10.00,14.00,CLR,M,M,M,M,M,M,M,-RA,M,M,M,M,M,M,79.00,KWMC 202156Z AUTO 25005G14KT 10SM -RA CLR 26/02 A2998 RMK AO2 SLP119 P0000 T02610017,M
HND,2024-09-20 21:56,-115.1344,35.9729,742.79,78.00,52.00,40.36,200.00,11.00,T,29.81,1009.00,10.00,M,FEW,M,M,M,3600.00,M,M,M,M,M,M,M,M,M,M,78.00,KHND 202156Z 20011KT 10SM FEW036 26/11 A2981 RMK AO2 TSE04B13E28RAE44 SLP090 P0000 T02560111,M
TPH,2024-09-20 21:56,-117.0904,38.0505,1654.00,75.00,30.00,19.02,340.00,11.00,0.00,29.99,1009.40,10.00,18.00,SCT,M,M,M,10000.00,M,M,M,M,M,M,M,M,M,M,75.00,KTPH 202156Z AUTO 34011G18KT 300V010 10SM SCT100 24/M01 A2999 RMK AO2 SLP094 T02391011,M
LAS,2024-09-20 21:56,-115.1634,36.0719,663.00,82.00,45.00,27.24,210.00,8.00,0.00,29.78,1006.10,10.00,M,SCT,BKN,M,M,8500.00,20000.00,M,M,TS,M,M,M,M,M,M,80.28,KLAS 202156Z 21008KT 10SM TS SCT085CB BKN200 28/07 A2978 RMK AO2 TSB16 SLP061 OCNL LTGICCG SW TS SW MOV NE CB VC ALQDS SHRA DSNT SW T02780072,M
NFL,2024-09-20 21:57,-118.7010,39.4166,1199.00,79.00,39.00,23.85,350.00,9.00,0.00,29.97,1012.10,10.00,M,CLR,M,M,M,M,M,M,M,M,M,M,M,M,M,M,79.00,KNFL 202157Z 35009KT 10SM CLR 26/04 A2997 RMK AO2 SLP121 T02610039,M
LAS,2024-09-20 22:04,-115.1634,36.0719,663.00,82.00,44.00,26.23,220.00,12.00,0.00,29.78,M,10.00,18.00,SCT,BKN,M,M,8500.00,20000.00,M,M,M,M,M,M,M,M,M,80.21,KLAS 202204Z 22012G18KT 10SM SCT085CB BKN200 28/07 A2978 RMK AO2 TSE04 TS DSIPTD CB VC ALQDS T02780067,M
05U,2024-09-20 22:10,-116.0051,39.6042,1811.23,71.60,30.20,21.50,M,4.00,0.00,30.03,M,10.00,10.00,CLR,M,M,M,M,M,M,M,M,M,M,M,M,M,M,71.60,K05U 202210Z AUTO VRB04G10KT 10SM CLR 22/M01 A3003 RMK A01,M
BVU,2024-09-20 22:15,-114.8611,35.9475,671.00,86.00,37.40,17.85,130.00,11.00,0.00,29.75,M,10.00,M,FEW,M,M,M,11000.00,M,M,M,M,M,M,M,M,M,M,82.73,KBVU 202215Z AUTO 13011KT 10SM FEW110 30/03 A2975 RMK AO2 LTG DSNT NW,M
CXP,2024-09-20 22:15,-119.7326,39.1923,1431.00,77.00,32.00,19.30,M,4.00,0.00,30.03,M,10.00,M,CLR,M,M,M,M,M,M,M,M,M,M,M,M,M,M,77.00,KCXP 202215Z AUTO VRB04KT 10SM CLR 25/M00 A3003 RMK AO2,M
RTS,2024-09-20 22:15,-119.8764,39.6682,1539.00,73.40,30.20,20.23,M,5.00,0.00,30.05,M,10.00,M,CLR,M,M,M,M,M,M,M,M,M,M,M,M,M,M,73.40,KRTS 202215Z AUTO VRB05KT 10SM CLR 23/M01 A3005 RMK AO2,M
MEV,2024-09-20 22:15,-119.7500,38.9963,1441.42,75.20,37.40,25.40,M,6.00,0.00,30.02,M,10.00,M,CLR,M,M,M,M,M,M,M,M,M,M,M,M,M,M,75.20,KMEV 202215Z AUTO VRB06KT 10SM CLR 24/03 A3002 RMK AO2,M
BAM,2024-09-20 22:15,-116.8743,40.5990,1382.36,78.80,35.60,21.00,290.00,6.00,0.00,29.99,M,10.00,M,CLR,M,M,M,M,M,M,M,M,M,M,M,M,M,M,78.80,KBAM 202215Z AUTO 29006KT 10SM CLR 26/02 A2999 RMK AO1,M
HTH,2024-09-20 22:15,-118.6315,38.5448,1282.89,M,M,M,M,M,0.00,M,M,M,M,M,M,M,M,M,M,M,M,M,M,M,M,M,M,M,M,KHTH 202215Z AUTO RMK A01,M
TMT,2024-09-20 22:15,-117.1971,39.4643,1749.34,71.20,39.00,30.95,10.00,5.00,0.00,30.05,M,10.00,9.00,CLR,M,M,M,M,M,M,M,M,M,M,M,M,M,M,71.20,KTMT 202215Z AUTO 01005G09KT 10SM CLR 22/04 A3005 RMK AO2 T02180039,M
10U,2024-09-20 22:15,-116.1876,41.9532,1637.00,71.60,35.60,26.71,290.00,10.00,0.00,30.03,M,10.00,M,CLR,M,M,M,M,M,M,M,M,M,M,M,M,M,M,71.60,K10U 202215Z AUTO 29010KT 10SM CLR 22/02 A3003 RMK AO2,M
INS,2024-09-20 22:17,-115.6733,36.5872,955.00,82.40,32.00,16.17,0.00,0.00,0.00,29.81,1005.50,10.00,M,BKN,BKN,M,M,10000.00,21000.00,M,M,-DZ,M,M,M,M,M,M,80.00,KINS 202217Z AUTO 00000KT 10SM -DZ BKN100 BKN210 28/M00 A2981 RMK AO2 DZB17 SLP055,M
INS,2024-09-20 22:27,-115.6733,36.5872,955.00,82.40,32.00,16.17,0.00,0.00,0.00,29.81,1005.50,10.00,M,BKN,OVC,M,M,10000.00,21000.00,M,M,M,M,M,M,M,M,M,80.00,KINS 202227Z AUTO 00000KT 10SM BKN100 OVC210 28/00 A2981 RMK AO2 DZB17E27 SLP055,M
DRA,2024-09-20 22:30,-116.0278,36.6206,1009.00,80.00,36.00,20.51,210.00,9.00,0.00,29.84,M,10.00,19.00,SCT,M,M,M,11000.00,M,M,M,M,M,M,M,M,M,M,78.66,KDRA 202230Z AUTO 21009G19KT 10SM SCT110 27/02 A2984 RMK AO2 WSHFT 2213 T02670022,M
05U,2024-09-20 22:30,-116.0051,39.6042,1811.23,73.40,30.20,20.23,360.00,9.00,0.00,30.04,M,10.00,M,CLR,M,M,M,M,M,M,M,M,M,M,M,M,M,M,73.40,K05U 202230Z AUTO 36009KT 10SM CLR 23/M01 A3004 RMK A01,M
BVU,2024-09-20 22:35,-114.8611,35.9475,671.00,87.80,39.20,18.09,210.00,13.00,0.00,29.75,M,10.00,M,SCT,SCT,M,M,9500.00,12000.00,M,M,M,M,M,M,M,M,M,84.22,KBVU 202235Z AUTO 21013KT 10SM SCT095 SCT120 31/04 A2975 RMK AO2 LTG DSNT NW,M
CXP,2024-09-20 22:35,-119.7326,39.1923,1431.00,77.00,32.00,19.30,90.00,5.00,0.00,30.03,M,10.00,M,CLR,M,M,M,M,M,M,M,M,M,M,M,M,M,M,77.00,KCXP 202235Z AUTO 09005KT 10SM CLR 25/M00 A3003 RMK AO2,M
INS,2024-09-20 22:35,-115.6733,36.5872,955.00,82.40,32.00,16.17,60.00,6.00,0.00,29.81,1005.50,9.00,M,OVC,M,M,M,10000.00,M,M,M,-DZ,M,M,M,M,M,M,80.00,KINS 202235Z AUTO 06006KT 9SM -DZ OVC100 28/M00 A2981 RMK AO2 DZB17E27DZB35 SLP055,M
RTS,2024-09-20 22:35,-119.8764,39.6682,1539.00,75.20,30.20,19.05,150.00,8.00,0.00,30.05,M,10.00,M,CLR,M,M,M,M,M,M,M,M,M,M,M,M,M,M,75.20,KRTS 202235Z AUTO 15008KT 110V170 10SM CLR 24/M01 A3005 RMK AO2,M
MEV,2024-09-20 22:35,-119.7500,38.9963,1441.42,75.20,37.40,25.40,M,5.00,0.00,30.02,M,10.00,10.00,CLR,M,M,M,M,M,M,M,M,M,M,M,M,M,M,75.20,KMEV 202235Z AUTO VRB05G10KT 10SM CLR 24/03 A3002 RMK AO2,M
BAM,2024-09-20 22:35,-116.8743,40.5990,1382.36,78.80,35.60,21.00,350.00,10.00,0.00,29.99,M,10.00,15.00,CLR,M,M,M,M,M,M,M,M,M,M,M,M,M,M,78.80,KBAM 202235Z AUTO 35010G15KT 10SM CLR 26/02 A2999 RMK AO1,M
HTH,2024-09-20 22:35,-118.6315,38.5448,1282.89,75.20,37.40,25.40,350.00,11.00,0.00,29.99,M,10.00,M,M,M,M,M,M,M,M,M,M,M,M,M,M,M,M,75.20,KHTH 202235Z AUTO 35011KT 10SM 24/03 A2999 RMK A01,M
TMT,2024-09-20 22:35,-117.1971,39.4643,1749.34,71.00,38.00,29.96,10.00,7.00,0.00,30.05,M,10.00,M,CLR,M,M,M,M,M,M,M,M,M,M,M,M,M,M,71.00,KTMT 202235Z AUTO 01007KT 10SM CLR 22/03 A3005 RMK AO2 T02170033,M
10U,2024-09-20 22:35,-116.1876,41.9532,1637.00,71.60,33.80,24.86,0.00,0.00,0.00,30.03,M,10.00,11.00,FEW,M,M,M,8000.00,M,M,M,M,M,M,M,M,M,M,71.60,K10U 202235Z AUTO 00000G11KT 10SM FEW080 22/01 A3003 RMK AO2,M
LAS,2024-09-20 22:37,-115.1634,36.0719,663.00,84.00,42.00,22.77,240.00,10.00,0.00,29.78,M,10.00,18.00,SCT,BKN,M,M,8500.00,20000.00,M,M,TS,M,M,M,M,M,M,81.42,KLAS 202237Z 24010G18KT 10SM TS SCT085CB BKN200 29/06 A2978 RMK AO2 LTG DSNT E TSE04E32B37 OCNL LTGICCG NE-E TS NE-E MOV NE -SHRA E CB VC ALQDS T02890056,M
HND,2024-09-20 22:38,-115.1344,35.9729,742.79,82.40,44.60,26.49,270.00,11.00,0.00,29.81,M,10.00,M,CLR,M,M,M,M,M,M,M,VCTS,M,M,M,M,M,M,80.50,KHND 202238Z 27011KT 10SM VCTS CLR 28/07 A2981 RMK AO2 LTG DSNT NE TSB32,M
05U,2024-09-20 22:50,-116.0051,39.6042,1811.23,73.40,30.20,20.23,20.00,4.00,0.00,30.03,M,10.00,10.00,CLR,M,M,M,M,M,M,M,M,M,M,M,M,M,M,73.40,K05U 202250Z AUTO 02004G10KT 10SM CLR 23/M01 A3003 RMK A01,M
INS,2024-09-20 22:51,-115.6733,36.5872,955.00,80.60,30.20,15.94,230.00,3.00,0.00,29.81,1005.50,10.00,M,FEW,BKN,BKN,BKN,5500.00,10000.00,15000.00,21000.00,M,M,M,M,M,M,M,78.77,KINS 202251Z AUTO 23003KT 10SM FEW055 BKN100 BKN150 BKN210 27/M01 A2981 RMK AO2 DZB17E27DZB35E50RAB50E51 SLP055,M
P68,2024-09-20 22:53,-116.0056,39.6014,1993.00,74.00,31.00,20.48,50.00,4.00,0.00,30.01,1010.40,M,M,M,M,M,M,M,M,M,M,M,M,M,M,M,M,M,74.00,KP68 202253Z AUTO 05004KT 23/M01 A3001 RMK AO1 SLP104 T02331006,M
DRA,2024-09-20 22:53,-116.0278,36.6206,1009.00,82.00,38.00,20.79,210.00,11.00,0.00,29.84,1006.10,10.00,18.00,CLR,M,M,M,M,M,M,M,M,M,M,M,M,M,M,79.90,KDRA 202253Z AUTO 21011G18KT 10SM CLR 28/03 A2984 RMK AO2 WSHFT 2213 SLP061 T02780033,M
ELY,2024-09-20 22:53,-114.8453,39.2950,1909.00,73.00,29.00,19.53,170.00,5.00,T,30.00,1008.40,10.00,M,SCT,M,M,M,12000.00,M,M,M,M,M,M,M,M,M,M,73.00,KELY 202253Z AUTO 17005KT 10SM SCT120 23/M02 A3000 RMK AO2 RAB00E10 SLP084 P0000 T02281017,M
VGT,2024-09-20 22:53,-115.1933,36.2111,667.00,86.00,41.00,20.54,200.00,10.00,0.00,29.76,1007.20,10.00,M,CLR,M,M,M,M,M,M,M,M,M,M,M,M,M,M,82.86,KVGT 202253Z 20010KT 10SM CLR 30/05 A2976 RMK AO2 LTG DSNT NE SLP072 T03000050,M
LOL,2024-09-20 22:53,-118.5701,40.0684,1192.43,79.00,38.00,22.93,100.00,9.00,0.00,29.95,1011.80,10.00,M,CLR,M,M,M,M,M,M,M,M,M,M,M,M,M,M,79.00,KLOL 202253Z AUTO 10009KT 10SM CLR 26/03 A2995 RMK AO2 SLP118 T02610033,M
HND,2024-09-20 22:53,-115.1344,35.9729,742.79,84.20,42.80,23.33,250.00,11.00,0.00,29.81,M,10.00,M,CLR,M,M,M,M,M,M,M,M,M,M,M,M,M,M,81.61,KHND 202253Z 25011KT 10SM CLR 29/06 A2981 RMK AO2 TSB32E47,M
BVU,2024-09-20 22:55,-114.8611,35.9475,671.00,87.80,39.20,18.09,270.00,7.00,0.00,29.75,M,10.00,14.00,SCT,M,M,M,10000.00,M,M,M,M,M,M,M,M,M,M,84.22,KBVU 202255Z AUTO 27007G14KT 250V310 10SM SCT100 31/04 A2975 RMK AO2,M
RNO,2024-09-20 22:55,-119.7711,39.4839,1341.00,78.00,33.00,19.43,M,6.00,0.00,30.00,1011.40,10.00,M,FEW,FEW,M,M,8000.00,20000.00,M,M,M,M,M,M,M,M,M,78.00,KRNO 202255Z VRB06KT 10SM FEW080 FEW200 26/01 A3000 RMK AO2 SLP114 T02560006,M
CXP,2024-09-20 22:55,-119.7326,39.1923,1431.00,75.20,32.00,20.49,M,3.00,0.00,30.02,M,10.00,M,CLR,M,M,M,M,M,M,M,M,M,M,M,M,M,M,75.20,KCXP 202255Z AUTO VRB03KT 10SM CLR 24/00 A3002 RMK AO2,M
RTS,2024-09-20 22:55,-119.8764,39.6682,1539.00,73.40,30.20,20.23,0.00,0.00,0.00,30.04,M,10.00,M,CLR,M,M,M,M,M,M,M,M,M,M,M,M,M,M,73.40,KRTS 202255Z AUTO 00000KT 10SM CLR 23/M01 A3004 RMK AO2,M
MEV,2024-09-20 22:55,-119.7500,38.9963,1441.42,75.20,37.40,25.40,220.00,7.00,0.00,30.01,M,10.00,M,CLR,M,M,M,M,M,M,M,M,M,M,M,M,M,M,75.20,KMEV 202255Z AUTO 22007KT 10SM CLR 24/03 A3001 RMK AO2,M
BAM,2024-09-20 22:55,-116.8743,40.5990,1382.36,78.80,35.60,21.00,350.00,9.00,0.00,29.99,M,10.00,M,CLR,M,M,M,M,M,M,M,M,M,M,M,M,M,M,78.80,KBAM 202255Z AUTO 35009KT 10SM CLR 26/02 A2999 RMK AO1,M
HTH,2024-09-20 22:55,-118.6315,38.5448,1282.89,75.20,37.40,25.40,320.00,9.00,0.00,29.99,M,10.00,M,CLR,M,M,M,M,M,M,M,M,M,M,M,M,M,M,75.20,KHTH 202255Z AUTO 32009KT 10SM CLR 24/03 A2999 RMK A01,M
TMT,2024-09-20 22:55,-117.1971,39.4643,1749.34,71.80,40.00,31.53,330.00,9.00,0.00,30.05,M,10.00,M,CLR,M,M,M,M,M,M,M,M,M,M,M,M,M,M,71.80,KTMT 202255Z AUTO 33009KT 10SM CLR 22/04 A3005 RMK AO2 T02210044,M
10U,2024-09-20 22:55,-116.1876,41.9532,1637.00,71.60,33.80,24.86,M,6.00,0.00,30.03,M,10.00,15.00,FEW,M,M,M,8000.00,M,M,M,M,M,M,M,M,M,M,71.60,K10U 202255Z AUTO VRB06G15KT 300V030 10SM FEW080 22/01 A3003 RMK AO2,M
INS,2024-09-20 22:55,-115.6733,36.5872,955.00,81.30,25.70,12.95,220.00,3.00,T,29.81,1005.50,10.00,M,FEW,SCT,BKN,BKN,5500.00,10000.00,16000.00,22000.00,M,M,M,M,M,M,M,79.13,KINS 202255Z AUTO 22003KT 10SM FEW055 SCT100 BKN160 BKN220 27/M03 A2981 RMK AO2 DZB17E27DZB35E50RAB50E51 SLP055 P0000 T02741035,M
LSV,2024-09-20 22:55,-115.0343,36.2362,570.00,88.50,39.60,17.97,220.00,14.00,0.00,29.71,1003.70,10.00,M,CLR,M,M,M,M,M,M,M,M,M,M,M,M,M,M,84.82,KLSV 202255Z AUTO 22014KT 10SM CLR 31/04 A2971 RMK AO2 LTG DSNT NE SLP037 T03140042 $,M
EKO,2024-09-20 22:56,-115.7860,40.8242,1367.00,78.00,33.00,19.43,260.00,7.00,0.00,29.97,1010.20,10.00,16.00,CLR,M,M,M,M,M,M,M,M,M,M,M,M,M,M,78.00,KEKO 202256Z AUTO 26007G16KT 10SM CLR 26/01 A2997 RMK AO2 SLP102 T02560006,M
WMC,2024-09-20 22:56,-117.8072,40.9019,1315.00,79.00,35.00,20.37,350.00,6.00,T,29.98,1011.90,10.00,M,CLR,M,M,M,M,M,M,M,-RA,M,M,M,M,M,M,79.00,KWMC 202256Z AUTO 35006KT 10SM -RA CLR 26/02 A2998 RMK AO2 SLP119 P0000 T02610017,M
HND,2024-09-20 22:56,-115.1344,35.9729,742.79,84.00,42.00,22.77,290.00,12.00,0.00,29.81,1008.50,10.00,M,CLR,M,M,M,M,M,M,M,M,M,M,M,M,M,M,81.42,KHND 202256Z 29012KT 10SM CLR 29/06 A2981 RMK AO2 TSB32E47 SLP085 T02890056,M
TPH,2024-09-20 22:56,-117.0904,38.0505,1654.00,76.00,28.00,16.95,260.00,10.00,0.00,29.97,1009.00,10.00,16.00,SCT,M,M,M,11000.00,M,M,M,M,M,M,M,M,M,M,76.00,KTPH 202256Z AUTO 26010G16KT 10SM SCT110 24/M02 A2997 RMK AO2 SLP090 T02441022,M
LAS,2024-09-20 22:56,-115.1634,36.0719,663.00,84.00,41.00,21.90,260.00,12.00,0.00,29.78,1006.10,10.00,M,FEW,BKN,BKN,M,8500.00,18000.00,22000.00,M,TS,M,M,M,M,M,M,81.37,KLAS 202256Z 26012KT 10SM TS FEW085CB BKN180 BKN220 29/05 A2978 RMK AO2 LTG DSNT NE TSE04E32B37 SLP061 OCNL LTGICCG NE-E TS NE-E MOV NE SHRA E CB VC NW-NE-E T02890050,M
NFL,2024-09-20 22:57,-118.7010,39.4166,1199.00,79.00,37.00,22.05,320.00,5.00,0.00,29.97,1011.90,10.00,M,FEW,SCT,M,M,6000.00,20000.00,M,M,M,M,M,M,M,M,M,79.00,KNFL 202257Z 32005KT 10SM FEW060 SCT200 26/03 A2997 RMK AO2 SLP119 T02610028,M
05U,2024-09-20 23:10,-116.0051,39.6042,1811.23,73.40,28.40,18.80,350.00,4.00,0.00,30.03,M,10.00,M,CLR,M,M,M,M,M,M,M,M,M,M,M,M,M,M,73.40,K05U 202310Z AUTO 35004KT 10SM CLR 23/M02 A3003 RMK A01,M
BVU,2024-09-20 23:15,-114.8611,35.9475,671.00,86.00,42.80,22.02,330.00,13.00,0.00,29.74,M,10.00,M,SCT,M,M,M,10000.00,M,M,M,M,M,M,M,M,M,M,82.95,KBVU 202315Z AUTO 33013KT 10SM SCT100 30/06 A2974 RMK AO2 LTG DSNT S,M
CXP,2024-09-20 23:15,-119.7326,39.1923,1431.00,77.00,32.00,19.30,M,5.00,0.00,30.02,M,10.00,M,CLR,M,M,M,M,M,M,M,M,M,M,M,M,M,M,77.00,KCXP 202315Z AUTO VRB05KT 10SM CLR 25/00 A3002 RMK AO2,M
RTS,2024-09-20 23:15,-119.8764,39.6682,1539.00,75.20,30.20,19.05,120.00,6.00,0.00,30.04,M,10.00,M,CLR,M,M,M,M,M,M,M,M,M,M,M,M,M,M,75.20,KRTS 202315Z AUTO 12006KT 10SM CLR 24/M01 A3004 RMK AO2,M
MEV,2024-09-20 23:15,-119.7500,38.9963,1441.42,77.00,35.60,22.28,250.00,9.00,0.00,30.01,M,10.00,M,CLR,M,M,M,M,M,M,M,M,M,M,M,M,M,M,77.00,KMEV 202315Z AUTO 25009KT 230V310 10SM CLR 25/02 A3001 RMK AO2,M
BAM,2024-09-20 23:15,-116.8743,40.5990,1382.36,78.80,35.60,21.00,340.00,7.00,0.00,29.99,M,10.00,M,CLR,M,M,M,M,M,M,M,M,M,M,M,M,M,M,78.80,KBAM 202315Z AUTO 34007KT 300V360 10SM CLR 26/02 A2999 RMK AO1,M
HTH,2024-09-20 23:15,-118.6315,38.5448,1282.89,75.20,35.60,23.66,330.00,9.00,0.00,29.99,M,10.00,M,CLR,M,M,M,M,M,M,M,M,M,M,M,M,M,M,75.20,KHTH 202315Z AUTO 33009KT 10SM CLR 24/02 A2999 RMK A01,M
TMT,2024-09-20 23:15,-117.1971,39.4643,1749.34,71.00,40.30,32.78,320.00,10.00,0.00,30.05,M,10.00,M,CLR,M,M,M,M,M,M,M,M,M,M,M,M,M,M,71.00,KTMT 202315Z AUTO 32010KT 10SM CLR 22/05 A3005 RMK AO2 T02170046,M
10U,2024-09-20 23:15,-116.1876,41.9532,1637.00,71.60,33.80,24.86,350.00,7.00,0.00,30.03,M,10.00,M,CLR,M,M,M,M,M,M,M,M,M,M,M,M,M,M,71.60,K10U 202315Z AUTO 35007KT 10SM CLR 22/01 A3003 RMK AO2,M
LAS,2024-09-20 23:29,-115.1634,36.0719,663.00,84.00,41.00,21.90,280.00,10.00,0.00,29.78,M,10.00,14.00,FEW,BKN,BKN,M,8500.00,18000.00,22000.00,M,M,M,M,M,M,M,M,81.37,KLAS 202329Z 28010G14KT 10SM FEW085 BKN180 BKN220 29/05 A2978 RMK AO2 LTG DSNT N AND NE TSE29 TS DSIPTD SHRA DSNT NE CB DSNT ALQDS T02890050,M
05U,2024-09-20 23:30,-116.0051,39.6042,1811.23,73.40,28.40,18.80,M,5.00,0.00,30.03,M,10.00,13.00,CLR,M,M,M,M,M,M,M,M,M,M,M,M,M,M,73.40,K05U 202330Z AUTO VRB05G13KT 10SM CLR 23/M02 A3003 RMK A01,M
BVU,2024-09-20 23:35,-114.8611,35.9475,671.00,86.00,42.80,22.02,320.00,15.00,0.00,29.74,M,10.00,M,BKN,M,M,M,10000.00,M,M,M,M,M,M,M,M,M,M,82.95,KBVU 202335Z AUTO 32015KT 10SM BKN100 30/06 A2974 RMK AO2,M
BAM,2024-09-20 23:35,-116.8743,40.5990,1382.36,78.80,35.60,21.00,340.00,8.00,0.00,29.98,M,10.00,M,CLR,M,M,M,M,M,M,M,M,M,M,M,M,M,M,78.80,KBAM 202335Z AUTO 34008KT 10SM CLR 26/02 A2998 RMK AO1,M
CXP,2024-09-20 23:35,-119.7326,39.1923,1431.00,77.00,33.80,20.74,100.00,5.00,0.00,30.02,M,10.00,M,CLR,M,M,M,M,M,M,M,M,M,M,M,M,M,M,77.00,KCXP 202335Z AUTO 10005KT 10SM CLR 25/01 A3002 RMK AO2,M
RTS,2024-09-20 23:35,-119.8764,39.6682,1539.00,75.20,30.20,19.05,110.00,3.00,0.00,30.04,M,10.00,M,CLR,M,M,M,M,M,M,M,M,M,M,M,M,M,M,75.20,KRTS 202335Z AUTO 11003KT 10SM CLR 24/M01 A3004 RMK AO2,M
MEV,2024-09-20 23:35,-119.7500,38.9963,1441.42,77.00,32.00,19.30,300.00,9.00,0.00,30.01,M,10.00,M,CLR,M,M,M,M,M,M,M,M,M,M,M,M,M,M,77.00,KMEV 202335Z AUTO 30009KT 250V330 10SM CLR 25/00 A3001 RMK AO2,M
HTH,2024-09-20 23:35,-118.6315,38.5448,1282.89,75.20,37.40,25.40,350.00,9.00,0.00,29.99,M,10.00,M,CLR,M,M,M,M,M,M,M,M,M,M,M,M,M,M,75.20,KHTH 202335Z AUTO 35009KT 10SM CLR 24/03 A2999 RMK A01,M
TMT,2024-09-20 23:35,-117.1971,39.4643,1749.34,71.00,40.50,33.03,310.00,11.00,0.00,30.05,M,10.00,15.00,CLR,M,M,M,M,M,M,M,M,M,M,M,M,M,M,71.00,KTMT 202335Z AUTO 31011G15KT 10SM CLR 22/05 A3005 RMK AO2 T02170047,M
10U,2024-09-20 23:35,-116.1876,41.9532,1637.00,71.60,35.60,26.71,310.00,11.00,0.00,30.03,M,10.00,17.00,CLR,M,M,M,M,M,M,M,M,M,M,M,M,M,M,71.60,K10U 202335Z AUTO 31011G17KT 10SM CLR 22/02 A3003 RMK AO2,M
05U,2024-09-20 23:50,-116.0051,39.6042,1811.23,73.40,26.60,17.46,360.00,7.00,0.00,30.03,M,10.00,M,CLR,M,M,M,M,M,M,M,M,M,M,M,M,M,M,73.40,K05U 202350Z AUTO 36007KT 10SM CLR 23/M03 A3003 RMK A01,M
CXP,2024-09-20 23:50,-119.7326,39.1923,1431.00,77.00,33.80,20.74,0.00,0.00,0.00,30.02,M,10.00,M,FEW,M,M,M,9000.00,M,M,M,M,M,M,M,M,M,M,77.00,KCXP 202350Z AUTO 00000KT 10SM FEW090 25/01 A3002 RMK AO2,M
P68,2024-09-20 23:53,-116.0056,39.6014,1993.00,74.00,27.00,17.39,10.00,9.00,0.00,30.00,1010.30,M,M,M,M,M,M,M,M,M,M,M,M,M,M,M,M,M,74.00,KP68 202353Z AUTO 01009KT 23/M03 A3000 RMK AO1 SLP103 T02331028 10244 20178 56007,M
DRA,2024-09-20 23:53,-116.0278,36.6206,1009.00,78.00,40.00,25.62,220.00,12.00,0.00,29.84,1006.70,10.00,M,CLR,M,M,M,M,M,M,M,M,M,M,M,M,M,M,78.00,KDRA 202353Z AUTO 22012KT 10SM CLR 26/04 A2984 RMK AO2 SLP067 T02560044 10294 20250 55000,M
ELY,2024-09-20 23:53,-114.8453,39.2950,1909.00,74.00,27.00,17.39,M,6.00,0.00,29.99,1008.00,10.00,18.00,FEW,M,M,M,11000.00,M,M,M,M,M,M,M,M,M,M,74.00,KELY 202353Z AUTO VRB06G18KT 10SM FEW110 23/M03 A2999 RMK AO2 SLP080 60000 T02331028 10244 20194 56007,M
VGT,2024-09-20 23:53,-115.1933,36.2111,667.00,86.00,41.00,20.54,220.00,9.00,0.00,29.76,1007.20,10.00,M,CLR,M,M,M,M,M,M,M,M,M,M,M,M,M,M,82.86,KVGT 202353Z 22009KT 10SM CLR 30/05 A2976 RMK AO2 LTG DSNT N AND E SLP072 T03000050 10306 20278 55004,M
LOL,2024-09-20 23:53,-118.5701,40.0684,1192.43,78.00,39.00,24.65,120.00,5.00,0.00,29.95,1011.70,10.00,M,FEW,M,M,M,9000.00,M,M,M,M,M,M,M,M,M,M,78.00,KLOL 202353Z AUTO 12005KT 10SM FEW090 26/04 A2995 RMK AO2 SLP117 T02560039 10261 20194 56010,M
BVU,2024-09-20 23:55,-114.8611,35.9475,671.00,84.20,41.00,21.76,330.00,15.00,0.00,29.75,M,10.00,M,BKN,BKN,M,M,10000.00,12000.00,M,M,M,M,M,M,M,M,M,81.52,KBVU 202355Z AUTO 33015KT 10SM BKN100 BKN120 29/05 A2975 RMK AO2 LTG DSNT NE AND SW,M
RNO,2024-09-20 23:55,-119.7711,39.4839,1341.00,78.00,34.00,20.23,330.00,3.00,0.00,29.99,1011.10,10.00,M,FEW,FEW,M,M,8000.00,20000.00,M,M,M,M,M,M,M,M,M,78.00,KRNO 202355Z 33003KT 10SM FEW080 FEW200 26/01 A2999 RMK AO2 SLP111 T02560011 10261 20183 56011,M
BAM,2024-09-20 23:55,-116.8743,40.5990,1382.36,78.80,33.80,19.55,340.00,9.00,0.00,29.98,M,10.00,15.00,CLR,M,M,M,M,M,M,M,M,M,M,M,M,M,M,78.80,KBAM 202355Z AUTO 34009G15KT 10SM CLR 26/01 A2998 RMK AO1,M
RTS,2024-09-20 23:55,-119.8764,39.6682,1539.00,75.20,32.00,20.49,0.00,0.00,0.00,30.04,M,10.00,M,CLR,M,M,M,M,M,M,M,M,M,M,M,M,M,M,75.20,KRTS 202355Z AUTO 00000KT 10SM CLR 24/M00 A3004 RMK AO2,M
MEV,2024-09-20 23:55,-119.7500,38.9963,1441.42,77.00,32.00,19.30,280.00,7.00,0.00,30.01,M,10.00,M,CLR,M,M,M,M,M,M,M,M,M,M,M,M,M,M,77.00,KMEV 202355Z AUTO 28007KT 10SM CLR 25/00 A3001 RMK AO2,M
HTH,2024-09-20 23:55,-118.6315,38.5448,1282.89,75.20,37.40,25.40,320.00,9.00,0.00,29.98,M,10.00,14.00,CLR,M,M,M,M,M,M,M,M,M,M,M,M,M,M,75.20,KHTH 202355Z AUTO 32009G14KT 10SM CLR 24/03 A2998 RMK A01,M
TMT,2024-09-20 23:55,-117.1971,39.4643,1749.34,70.70,40.60,33.50,340.00,13.00,0.00,30.05,M,10.00,M,CLR,M,M,M,M,M,M,M,M,M,M,M,M,M,M,70.70,KTMT 202355Z AUTO 34013KT 10SM CLR 22/05 A3005 RMK AO2 T02150048 10221 20168,M
10U,2024-09-20 23:55,-116.1876,41.9532,1637.00,71.60,35.60,26.71,300.00,11.00,0.00,30.03,M,10.00,M,CLR,M,M,M,M,M,M,M,M,M,M,M,M,M,M,71.60,K10U 202355Z AUTO 30011KT 10SM CLR 22/02 A3003 RMK AO2,M
INS,2024-09-20 23:55,-115.6733,36.5872,955.00,81.70,31.00,15.88,220.00,13.00,0.00,29.81,1005.50,10.00,M,SCT,M,M,M,11000.00,M,M,M,M,M,M,M,M,M,M,79.50,KINS 202355Z AUTO 22013KT 10SM SCT110 28/M00 A2981 RMK AO2 SLP055 60000 T02761005 10293 20240 56004,M
LSV,2024-09-20 23:55,-115.0343,36.2362,570.00,86.40,37.80,17.90,60.00,12.00,0.00,29.72,1004.00,10.00,15.00,FEW,M,M,M,11000.00,M,M,M,M,M,M,M,M,M,M,83.05,KLSV 202355Z AUTO 06012G15KT 10SM FEW110 30/03 A2972 RMK AO2 LTG DSNT E SLP040 T03020032 10314 20286 55000 $,M
EKO,2024-09-20 23:56,-115.7860,40.8242,1367.00,78.00,33.00,19.43,270.00,9.00,0.00,29.96,1010.00,10.00,21.00,CLR,M,M,M,M,M,M,M,M,M,M,M,M,M,M,78.00,KEKO 202356Z AUTO 27009G21KT 10SM CLR 26/01 A2996 RMK AO2 SLP100 T02560006 10261 20194 56008,M
WMC,2024-09-20 23:56,-117.8072,40.9019,1315.00,79.00,34.00,19.57,300.00,7.00,T,29.97,1011.90,10.00,M,CLR,M,M,M,M,M,M,M,-RA,M,M,M,M,M,M,79.00,KWMC 202356Z AUTO 30007KT 10SM -RA CLR 26/01 A2997 RMK AO2 SLP119 P0000 60000 T02610011 10267 20206 56007,M
HND,2024-09-20 23:56,-115.1344,35.9729,742.79,83.00,41.00,22.62,250.00,5.00,0.00,29.81,1008.60,10.00,M,CLR,M,M,M,M,M,M,M,M,M,M,M,M,M,M,80.69,KHND 202356Z 25005KT 10SM CLR 28/05 A2981 RMK AO2 LTG DSNT N AND NE SLP086 60000 T02830050 10294 20239 55001,M
TPH,2024-09-20 23:56,-117.0904,38.0505,1654.00,75.00,28.00,17.53,250.00,11.00,0.00,29.97,1009.40,10.00,18.00,BKN,M,M,M,11000.00,M,M,M,M,M,M,M,M,M,M,75.00,KTPH 202356Z AUTO 25011G18KT 10SM BKN110 24/M02 A2997 RMK AO2 SLP094 T02391022 10256 20206 56008,M
LAS,2024-09-20 23:56,-115.1634,36.0719,663.00,83.00,40.00,21.76,230.00,4.00,0.00,29.78,1006.20,10.00,M,FEW,BKN,BKN,M,8500.00,18000.00,22000.00,M,M,M,M,M,M,M,M,80.64,KLAS 202356Z 23004KT 10SM FEW085 BKN180 BKN220 28/04 A2978 RMK AO2 LTG DSNT N-E TSE29 SLP062 TS DSIPTD SHRA DSNT NW-NE CB DSNT ALQDS T02830044 10289 20272 56002,M
NFL,2024-09-20 23:57,-118.7010,39.4166,1199.00,79.00,37.00,22.05,350.00,6.00,0.00,29.96,1011.80,10.00,M,FEW,SCT,M,M,6000.00,20000.00,M,M,M,M,M,M,M,M,M,79.00,KNFL 202357Z 35006KT 10SM FEW060 SCT200 26/03 A2996 RMK AO2 SLP118 T02610028 10267 20200 56008,M
