station,valid,lon,lat,elevation,tmpf,dwpf,relh,drct,sknt,p01i,alti,mslp,vsby,gust,skyc1,skyc2,skyc3,skyc4,skyl1,skyl2,skyl3,skyl4,wxcodes,ice_accretion_1hr,ice_accretion_3hr,ice_accretion_6hr,peak_wind_gust,peak_wind_drct,peak_wind_time,feel,metar,snowdepth
BVU,2023-06-11 00:15,-114.8611,35.9475,671.00,91.40,26.60,9.74,170.00,10.00,0.00,29.74,M,10.00,18.00,CLR,M,M,M,M,M,M,M,M,M,M,M,M,M,M,86.36,KBVU 110015Z AUTO 17010G18KT 10SM CLR 33/M03 A2974 RMK AO2,M
CXP,2023-06-11 00:15,-119.7326,39.1923,1431.00,55.40,50.00,81.99,0.00,0.00,0.00,30.02,M,10.00,M,FEW,M,M,M,9500.00,M,M,M,M,M,M,M,M,M,M,55.40,KCXP 110015Z AUTO 00000KT 10SM FEW095 13/10 A3002 RMK AO2 LTG DSNT SE AND NW,M
RTS,2023-06-11 00:15,-119.8764,39.6682,1539.00,51.80,46.40,81.74,230.00,9.00,0.00,30.02,M,5.00,M,FEW,SCT,OVC,M,3200.00,5000.00,7000.00,M,-DZ,M,M,M,M,M,M,51.80,KRTS 110015Z AUTO 23009KT 5SM -DZ FEW032 SCT050 OVC070 11/08 A3002 RMK AO2,M
MEV,2023-06-11 00:15,-119.7500,38.9963,1441.42,57.20,50.00,76.82,120.00,5.00,0.00,30.01,M,10.00,M,BKN,BKN,BKN,M,6500.00,7500.00,11000.00,M,M,M,M,M,M,M,M,57.20,KMEV 110015Z AUTO 12005KT 10SM BKN065 BKN075 BKN110 14/10 A3001 RMK AO2,M
BAM,2023-06-11 00:15,-116.8743,40.5990,1382.36,64.40,51.80,63.60,240.00,20.00,0.00,29.96,M,10.00,29.00,BKN,OVC,M,M,9000.00,11000.00,M,M,M,M,M,M,M,M,M,64.40,KBAM 110015Z AUTO 24020G29KT 10SM BKN090 OVC110 18/11 A2996 RMK AO1,M
HTH,2023-06-11 00:15,-118.6315,38.5448,1282.89,68.00,44.60,42.85,310.00,6.00,0.00,29.94,M,10.00,M,CLR,M,M,M,M,M,M,M,M,M,M,M,M,M,M,68.00,KHTH 110015Z AUTO 31006KT 10SM CLR 20/07 A2994 RMK A01,M
TMT,2023-06-11 00:15,-117.1971,39.4643,1749.34,62.40,43.20,49.37,40.00,14.00,0.00,30.02,M,10.00,18.00,SCT,BKN,M,M,9000.00,12000.00,M,M,M,M,M,M,M,M,M,62.40,KTMT 110015Z AUTO 04014G18KT 10SM SCT090 BKN120 17/06 A3002 RMK AO2 LTG DSNT NE AND SE T01690062,M
RNO,2023-06-11 00:16,-119.7711,39.4839,1341.00,61.00,51.00,69.86,290.00,15.00,T,29.95,M,10.00,18.00,BKN,BKN,OVC,M,6500.00,8000.00,10000.00,M,VCTS,M,M,M,M,M,M,61.00,KRNO 110016Z 29015G18KT 10SM VCTS BKN065 BKN080 OVC100 16/11 A2995 RMK AO2 WSHFT 0001 LTG DSNT NW-NE RAE14 CB DSNT N AND E AND SW THRU NW MTN TOPS OBSCD DSNT SW THRU W P0000 T01610106,M
EKO,2023-06-11 00:19,-115.7860,40.8242,1367.00,66.00,46.00,48.43,30.00,12.00,0.00,29.97,M,10.00,M,OVC,M,M,M,7500.00,M,M,M,M,M,M,M,M,M,M,66.00,KEKO 110019Z AUTO 03012KT 10SM OVC075 19/08 A2997 RMK AO2 LTG DSNT NE AND E AND W TSE2357B2359E01B02E03B05E06B07E13 T01890078,M
RNO,2023-06-11 00:21,-119.7711,39.4839,1341.00,61.00,49.00,64.37,310.00,13.00,T,29.95,M,10.00,18.00,BKN,BKN,OVC,M,6500.00,8000.00,10000.00,M,M,M,M,M,M,M,M,61.00,KRNO 110021Z 31013G18KT 10SM BKN065 BKN080 OVC100 16/09 A2995 RMK AO2 WSHFT 0001 LTG DSNT N RAE14 CB DSNT N AND E AND SW THRU NW MTN TOPS OBSCD DSNT SW THRU W P0000 T01610094,M
BVU,2023-06-11 00:35,-114.8611,35.9475,671.00,89.60,24.80,9.56,170.00,11.00,0.00,29.73,M,10.00,M,CLR,M,M,M,M,M,M,M,M,M,M,M,M,M,M,84.88,KBVU 110035Z AUTO 17011KT 10SM CLR 32/M04 A2973 RMK AO2,M
CXP,2023-06-11 00:35,-119.7326,39.1923,1431.00,55.40,50.00,81.99,0.00,0.00,0.00,30.02,M,10.00,M,FEW,M,M,M,10000.00,M,M,M,M,M,M,M,M,M,M,55.40,KCXP 110035Z AUTO 00000KT 10SM FEW100 13/10 A3002 RMK AO2,M
RTS,2023-06-11 00:35,-119.8764,39.6682,1539.00,51.80,46.40,81.74,270.00,13.00,0.00,30.02,M,10.00,M,FEW,BKN,OVC,M,4600.00,7000.00,7500.00,M,M,M,M,M,M,M,M,51.80,KRTS 110035Z AUTO 27013KT 10SM FEW046 BKN070 OVC075 11/08 A3002 RMK AO2,M
MEV,2023-06-11 00:35,-119.7500,38.9963,1441.42,57.20,50.00,76.82,110.00,5.00,0.00,30.00,M,10.00,M,BKN,BKN,M,M,6500.00,11000.00,M,M,M,M,M,M,M,M,M,57.20,KMEV 110035Z AUTO 11005KT 10SM BKN065 BKN110 14/10 A3000 RMK AO2,M
BAM,2023-06-11 00:35,-116.8743,40.5990,1382.36,66.20,50.00,55.88,250.00,20.00,0.00,29.96,M,10.00,26.00,SCT,BKN,M,M,10000.00,12000.00,M,M,M,M,M,M,M,M,M,66.20,KBAM 110035Z AUTO 25020G26KT 10SM SCT100 BKN120 19/10 A2996 RMK AO1,M
HTH,2023-06-11 00:35,-118.6315,38.5448,1282.89,66.20,46.40,48.83,20.00,11.00,0.00,29.95,M,10.00,M,CLR,M,M,M,M,M,M,M,M,M,M,M,M,M,M,66.20,KHTH 110035Z AUTO 02011KT 10SM CLR 19/08 A2995 RMK A01,M
TMT,2023-06-11 00:35,-117.1971,39.4643,1749.34,61.20,42.80,50.73,0.00,0.00,0.00,30.06,M,10.00,M,SCT,SCT,OVC,M,4600.00,7500.00,9000.00,M,M,M,M,M,M,M,M,61.20,KTMT 110035Z AUTO 00000KT 10SM SCT046 SCT075 OVC090 16/06 A3006 RMK AO2 LTG DSNT N NE AND S T01620060,M
LSV,2023-06-11 00:47,-115.0343,36.2362,570.00,91.40,26.60,9.74,120.00,11.00,0.00,29.68,1002.70,10.00,M,CLR,M,M,M,M,M,M,M,M,M,M,M,M,M,M,86.36,KLSV 110047Z AUTO 12011KT 10SM CLR 33/M03 A2968 RMK AO2 WSHFT 36 SLP027 $,M
ELY,2023-06-11 00:53,-114.8453,39.2950,1909.00,65.00,36.00,34.17,0.00,0.00,0.00,30.01,1009.80,10.00,M,CLR,M,M,M,M,M,M,M,M,M,M,M,M,M,M,64.90,KELY 110053Z AUTO 00000KT 10SM CLR 18/02 A3001 RMK AO2 LTG DSNT SE SLP098 T01830022,M
VGT,2023-06-11 00:53,-115.1933,36.2111,667.00,91.00,30.90,11.76,140.00,14.00,0.00,29.71,1005.30,10.00,M,CLR,M,M,M,M,M,M,M,M,M,M,M,M,M,M,86.48,KVGT 110053Z 14014KT 10SM CLR 33/M01 A2971 RMK AO2 SLP053 T03281006,M
P68,2023-06-11 00:53,-116.0056,39.6014,1993.00,61.00,44.00,53.69,110.00,3.00,0.00,30.04,1012.70,M,M,M,M,M,M,M,M,M,M,M,M,M,M,M,M,M,61.00,KP68 110053Z AUTO 11003KT 16/07 A3004 RMK AO1 SLP127 T01610067,M
DRA,2023-06-11 00:53,-116.0278,36.6206,1009.00,84.00,33.00,16.04,220.00,14.00,0.00,29.78,1003.80,10.00,25.00,CLR,M,M,M,M,M,M,M,M,M,M,M,M,M,M,81.14,KDRA 110053Z AUTO 22014G25KT 10SM CLR 29/01 A2978 RMK AO2 SLP038 T02890006,M
LOL,2023-06-11 00:53,-118.5701,40.0684,1192.43,65.00,47.00,52.06,220.00,21.00,0.00,29.95,1012.10,9.00,M,SCT,BKN,OVC,M,7000.00,10000.00,12000.00,M,M,M,M,M,M,M,M,64.90,KLOL 110053Z AUTO 22021KT 9SM SCT070 BKN100 OVC120 18/08 A2995 RMK AO2 PRESRR SLP121 T01830083,M
BVU,2023-06-11 00:55,-114.8611,35.9475,671.00,89.60,24.80,9.56,160.00,10.00,0.00,29.73,M,10.00,15.00,CLR,M,M,M,M,M,M,M,M,M,M,M,M,M,M,84.88,KBVU 110055Z AUTO 16010G15KT 10SM CLR 32/M04 A2973 RMK AO2,M
CXP,2023-06-11 00:55,-119.7326,39.1923,1431.00,55.40,50.00,81.99,0.00,0.00,0.01,30.02,M,10.00,M,SCT,BKN,BKN,M,7000.00,8000.00,11000.00,M,M,M,M,M,M,M,M,55.40,KCXP 110055Z AUTO 00000KT 10SM SCT070 BKN080 BKN110 13/10 A3002 RMK AO2 LTG DSNT NW-NE P0001,M
INS,2023-06-11 00:55,-115.6733,36.5872,955.00,85.50,22.60,9.93,100.00,19.00,0.00,29.76,1003.30,10.00,M,SCT,M,M,M,17000.00,M,M,M,M,M,M,M,26.00,90.00,2023-06-11 00:18,81.76,KINS 110055Z AUTO 10019KT 10SM SCT170 30/M05 A2976 RMK AO2 PK WND 09026/18 SLP033 T02971052 $,M
RTS,2023-06-11 00:55,-119.8764,39.6682,1539.00,51.80,46.40,81.74,320.00,7.00,0.02,30.04,M,10.00,14.00,BKN,OVC,M,M,6000.00,7500.00,M,M,-DZ,M,M,M,M,M,M,51.80,KRTS 110055Z AUTO 32007G14KT 10SM -DZ BKN060 OVC075 11/08 A3004 RMK AO2 P0002,M
MEV,2023-06-11 00:55,-119.7500,38.9963,1441.42,55.40,48.20,76.66,110.00,5.00,0.00,30.00,M,10.00,M,FEW,M,M,M,6500.00,M,M,M,M,M,M,M,M,M,M,55.40,KMEV 110055Z AUTO 11005KT 10SM FEW065 13/09 A3000 RMK AO2,M
BAM,2023-06-11 00:55,-116.8743,40.5990,1382.36,66.20,50.00,55.88,240.00,17.00,0.00,29.97,M,10.00,25.00,BKN,M,M,M,9000.00,M,M,M,M,M,M,M,M,M,M,66.20,KBAM 110055Z AUTO 24017G25KT 10SM BKN090 19/10 A2997 RMK AO1,M
HTH,2023-06-11 00:55,-118.6315,38.5448,1282.89,62.60,51.80,67.75,350.00,16.00,0.00,29.95,M,10.00,23.00,FEW,M,M,M,12000.00,M,M,M,M,M,M,M,M,M,M,62.60,KHTH 110055Z AUTO 35016G23KT 10SM FEW120 17/11 A2995 RMK A01,M
TMT,2023-06-11 00:55,-117.1971,39.4643,1749.34,52.30,48.70,87.49,230.00,15.00,0.02,30.08,M,7.00,22.00,SCT,BKN,OVC,M,4100.00,4900.00,8000.00,M,-RA,M,M,M,M,M,M,52.30,KTMT 110055Z AUTO 23015G22KT 7SM -RA SCT041 BKN049 OVC080 11/09 A3008 RMK AO2 LTG DSNT NE P0002 T01130093,M
LSV,2023-06-11 00:55,-115.0343,36.2362,570.00,90.70,26.60,9.95,140.00,9.00,0.00,29.68,1002.70,10.00,M,CLR,M,M,M,M,M,M,M,M,M,M,M,M,M,M,85.84,KLSV 110055Z AUTO 14009KT 10SM CLR 33/M03 A2968 RMK AO2 SLP027 T03261030 $,M
RNO,2023-06-11 00:55,-119.7711,39.4839,1341.00,60.00,50.00,69.24,30.00,9.00,T,30.00,1012.40,9.00,M,FEW,BKN,BKN,OVC,4000.00,7500.00,10000.00,14000.00,-RA,M,M,M,M,M,M,60.10,KRNO 110055Z 03009KT 9SM -RA FEW040 BKN075CB BKN100 OVC140 16/10 A3000 RMK AO2 WSHFT 0001 RAE14B36 SLP124 VIRGA CB E THRU S MOV NW CB DSNT N AND SE AND NW P0000 T01560100,M
EKO,2023-06-11 00:56,-115.7860,40.8242,1367.00,60.00,50.00,69.24,60.00,10.00,T,30.00,1012.90,10.00,21.00,FEW,BKN,OVC,M,7000.00,8500.00,12000.00,M,-RA,M,M,M,26.00,10.00,2023-06-11 00:34,60.10,KEKO 110056Z AUTO 06010G21KT 10SM -RA FEW070 BKN085 OVC120 16/10 A3000 RMK AO2 PK WND 01026/0034 LTG DSNT W-NE RAB24 TSE2357B2359E01B02E03B05E06B07E13B20E23B26E27B30E31B33E35 SLP129 P0000 T01560100,M
WMC,2023-06-11 00:56,-117.8072,40.9019,1315.00,62.00,50.00,64.50,150.00,16.00,T,29.96,1012.50,10.00,23.00,BKN,OVC,M,M,10000.00,12000.00,M,M,M,M,M,M,32.00,150.00,2023-06-11 00:18,62.10,KWMC 110056Z AUTO 15016G23KT 10SM BKN100 OVC120 17/10 A2996 RMK AO2 PK WND 15032/0018 LTG DSNT N AND NE RAB06E45 SLP125 P0000 T01670100,M
HND,2023-06-11 00:56,-115.1344,35.9729,742.79,89.00,30.00,12.03,180.00,12.00,0.00,29.76,1006.80,10.00,M,CLR,M,M,M,M,M,M,M,M,M,M,M,M,M,M,84.95,KHND 110056Z 18012KT 10SM CLR 32/M01 A2976 RMK AO2 SLP068 T03171011,M
LAS,2023-06-11 00:56,-115.1634,36.0719,663.00,89.00,30.90,12.48,160.00,8.00,0.00,29.73,1004.00,10.00,16.00,FEW,BKN,OVC,M,10000.00,16000.00,22000.00,M,M,M,M,M,M,M,M,85.04,KLAS 110056Z 16008G16KT 10SM FEW100 BKN160 OVC220 32/M01 A2973 RMK AO2 SLP040 T03171006,M
NFL,2023-06-11 00:56,-118.7010,39.4166,1199.00,59.00,51.00,75.02,140.00,15.00,T,29.97,1012.10,10.00,M,SCT,BKN,OVC,M,6000.00,10000.00,15000.00,M,M,M,M,M,31.00,190.00,2023-06-11 00:04,59.00,KNFL 110056Z AUTO 14015KT 10SM SCT060 BKN100 OVC150 15/11 A2997 RMK AO2 PK WND 19031/0004 RAE35 SLP121 CB DSNT SW-W-NW P0000 T01500106,M
TPH,2023-06-11 00:56,-117.0904,38.0505,1654.00,69.00,44.00,40.48,350.00,12.00,0.00,29.94,1008.20,10.00,M,FEW,M,M,M,10000.00,M,M,M,M,M,M,M,M,M,M,69.10,KTPH 110056Z AUTO 35012KT 10SM FEW100 21/07 A2994 RMK AO2 LTG DSNT W SLP082 T02060067,M
LOL,2023-06-11 01:02,-118.5701,40.0684,1192.43,60.00,53.00,77.65,210.00,15.00,T,29.97,M,2.00,24.00,SCT,BKN,OVC,M,4700.00,7000.00,10000.00,M,+RA,M,M,M,M,M,M,60.10,KLOL 110102Z AUTO 21015G24KT 2SM +RA SCT047 BKN070 OVC100 16/12 A2997 RMK AO2 WSHFT 0048 RAB0055 PRESRR P0000 T01560117,M
LOL,2023-06-11 01:14,-118.5701,40.0684,1192.43,59.00,54.00,83.46,210.00,14.00,T,29.98,M,10.00,M,FEW,BKN,OVC,M,4900.00,6500.00,8000.00,M,-RA,M,M,M,27.00,200.00,2023-06-11 01:03,59.00,KLOL 110114Z AUTO 21014KT 10SM -RA FEW049 BKN065 OVC080 15/12 A2998 RMK AO2 PK WND 20027/0103 WSHFT 0048 RAB0055 P0000 T01500122,M
BVU,2023-06-11 01:15,-114.8611,35.9475,671.00,89.60,23.00,8.87,170.00,12.00,0.00,29.73,M,10.00,M,CLR,M,M,M,M,M,M,M,M,M,M,M,M,M,M,84.75,KBVU 110115Z AUTO 17012KT 10SM CLR 32/M05 A2973 RMK AO2,M
CXP,2023-06-11 01:15,-119.7326,39.1923,1431.00,55.40,51.80,87.65,0.00,0.00,0.00,30.02,M,10.00,M,BKN,OVC,M,M,7000.00,8000.00,M,M,-RA,M,M,M,M,M,M,55.40,KCXP 110115Z AUTO 00000KT 10SM -RA BKN070 OVC080 13/11 A3002 RMK AO2 LTG DSNT N AND SE,M
RTS,2023-06-11 01:15,-119.8764,39.6682,1539.00,51.80,48.20,87.47,350.00,7.00,0.00,30.05,M,3.00,M,FEW,SCT,BKN,M,3400.00,4500.00,5000.00,M,-RA,M,M,M,M,M,M,51.80,KRTS 110115Z AUTO 35007KT 3SM -RA FEW034 SCT045 BKN050 11/09 A3005 RMK AO2,M
MEV,2023-06-11 01:15,-119.7500,38.9963,1441.42,55.40,48.20,76.66,80.00,6.00,0.00,29.98,M,10.00,M,FEW,M,M,M,10000.00,M,M,M,M,M,M,M,M,M,M,55.40,KMEV 110115Z AUTO 08006KT 10SM FEW100 13/09 A2998 RMK AO2 LTG DSNT N AND SE,M
BAM,2023-06-11 01:15,-116.8743,40.5990,1382.36,64.40,48.20,55.63,250.00,14.00,0.00,29.96,M,10.00,19.00,OVC,M,M,M,9000.00,M,M,M,M,M,M,M,M,M,M,64.40,KBAM 110115Z AUTO 25014G19KT 10SM OVC090 18/09 A2996 RMK AO1,M
HTH,2023-06-11 01:15,-118.6315,38.5448,1282.89,62.60,51.80,67.75,350.00,14.00,0.00,29.95,M,10.00,19.00,FEW,FEW,M,M,10000.00,12000.00,M,M,M,M,M,M,M,M,M,62.60,KHTH 110115Z AUTO 35014G19KT 10SM FEW100 FEW120 17/11 A2995 RMK A01,M
TMT,2023-06-11 01:15,-117.1971,39.4643,1749.34,52.00,49.30,90.47,190.00,13.00,0.01,30.09,M,10.00,18.00,BKN,OVC,M,M,4500.00,6500.00,M,M,RA,M,M,M,M,M,M,52.00,KTMT 110115Z AUTO 19013G18KT 10SM RA BKN045 OVC065 11/10 A3009 RMK AO2 LTG DSNT NE AND SW P0001 T01110096,M
BVU,2023-06-11 01:35,-114.8611,35.9475,671.00,87.80,24.80,10.12,180.00,8.00,0.00,29.73,M,10.00,M,CLR,M,M,M,M,M,M,M,M,M,M,M,M,M,M,83.56,KBVU 110135Z AUTO 18008KT 10SM CLR 31/M04 A2973 RMK AO2,M
CXP,2023-06-11 01:35,-119.7326,39.1923,1431.00,57.20,50.00,76.82,0.00,0.00,0.00,30.01,M,10.00,M,SCT,SCT,M,M,7000.00,8000.00,M,M,M,M,M,M,M,M,M,57.20,KCXP 110135Z AUTO 00000KT 10SM SCT070 SCT080 14/10 A3001 RMK AO2,M
RTS,2023-06-11 01:35,-119.8764,39.6682,1539.00,51.80,50.00,93.55,340.00,8.00,0.00,30.05,M,3.00,M,SCT,BKN,OVC,M,3200.00,4400.00,5000.00,M,-RA,M,M,M,M,M,M,51.80,KRTS 110135Z AUTO 34008KT 3SM -RA SCT032 BKN044 OVC050 11/10 A3005 RMK AO2,M
MEV,2023-06-11 01:35,-119.7500,38.9963,1441.42,55.40,48.20,76.66,30.00,5.00,0.00,29.98,M,10.00,M,BKN,M,M,M,10000.00,M,M,M,M,M,M,M,M,M,M,55.40,KMEV 110135Z AUTO 03005KT 10SM BKN100 13/09 A2998 RMK AO2,M
BAM,2023-06-11 01:35,-116.8743,40.5990,1382.36,64.40,46.40,51.98,230.00,9.00,0.00,29.97,M,10.00,M,OVC,M,M,M,9000.00,M,M,M,M,M,M,M,M,M,M,64.40,KBAM 110135Z AUTO 23009KT 10SM OVC090 18/08 A2997 RMK AO1,M
HTH,2023-06-11 01:35,-118.6315,38.5448,1282.89,62.60,50.00,63.38,340.00,12.00,0.00,29.95,M,10.00,M,SCT,SCT,M,M,10000.00,12000.00,M,M,M,M,M,M,M,M,M,62.60,KHTH 110135Z AUTO 34012KT 10SM SCT100 SCT120 17/10 A2995 RMK A01,M
TMT,2023-06-11 01:35,-117.1971,39.4643,1749.34,51.60,48.40,88.78,240.00,3.00,0.05,30.09,M,5.00,M,BKN,OVC,M,M,4700.00,5500.00,M,M,RA,M,M,M,M,M,M,51.60,KTMT 110135Z AUTO 24003KT 5SM RA BKN047 OVC055 11/09 A3009 RMK AO2 LTG DSNT N AND NE P0005 T01090091,M
ELY,2023-06-11 01:53,-114.8453,39.2950,1909.00,65.00,36.00,34.17,0.00,0.00,0.00,30.01,1008.60,10.00,M,CLR,M,M,M,M,M,M,M,M,M,M,M,M,M,M,64.90,KELY 110153Z AUTO 00000KT 10SM CLR 18/02 A3001 RMK AO2 SLP086 T01830022,M
VGT,2023-06-11 01:53,-115.1933,36.2111,667.00,90.00,30.90,12.13,170.00,9.00,0.00,29.71,1005.20,10.00,M,CLR,M,M,M,M,M,M,M,M,M,M,M,M,M,M,85.72,KVGT 110153Z 17009KT 10SM CLR 32/M01 A2971 RMK AO2 SLP052 T03221006,M
P68,2023-06-11 01:53,-116.0056,39.6014,1993.00,57.00,47.00,68.90,0.00,0.00,0.01,30.01,1011.10,M,M,M,M,M,M,M,M,M,M,M,M,M,M,M,M,M,57.00,KP68 110153Z AUTO 00000KT 14/08 A3001 RMK AO1 SLP111 P0001 T01390083,M
DRA,2023-06-11 01:53,-116.0278,36.6206,1009.00,82.00,35.00,18.54,220.00,13.00,0.00,29.78,1004.00,10.00,23.00,CLR,M,M,M,M,M,M,M,M,M,M,M,M,M,M,79.80,KDRA 110153Z AUTO 22013G23KT 10SM CLR 28/02 A2978 RMK AO2 SLP040 T02780017,M
LOL,2023-06-11 01:53,-118.5701,40.0684,1192.43,60.00,53.00,77.65,230.00,9.00,0.01,29.99,1013.60,10.00,M,OVC,M,M,M,6500.00,M,M,M,M,M,M,M,27.00,200.00,2023-06-11 01:03,60.10,KLOL 110153Z AUTO 23009KT 10SM OVC065 16/12 A2999 RMK AO2 PK WND 20027/0103 WSHFT 0048 RAB0055E17 SLP136 P0001 T01560117,M
BVU,2023-06-11 01:55,-114.8611,35.9475,671.00,87.80,24.80,10.12,190.00,10.00,0.00,29.72,M,10.00,M,CLR,M,M,M,M,M,M,M,M,M,M,M,M,M,M,83.56,KBVU 110155Z AUTO 19010KT 10SM CLR 31/M04 A2972 RMK AO2,M
CXP,2023-06-11 01:55,-119.7326,39.1923,1431.00,57.20,48.20,71.83,0.00,0.00,0.00,30.00,M,10.00,M,CLR,M,M,M,M,M,M,M,M,M,M,M,M,M,M,57.20,KCXP 110155Z AUTO 00000KT 10SM CLR 14/09 A3000 RMK AO2 LTG DSNT NE AND NW,M
INS,2023-06-11 01:55,-115.6733,36.5872,955.00,83.70,31.10,14.95,90.00,4.00,0.00,29.77,1003.70,10.00,19.00,FEW,M,M,M,18000.00,M,M,M,M,M,M,M,M,M,M,80.90,KINS 110155Z AUTO 09004G19KT 10SM FEW180 29/M00 A2977 RMK AO2 SLP037 T02871005 $,M
RNO,2023-06-11 01:55,-119.7711,39.4839,1341.00,57.00,52.00,83.33,20.00,10.00,0.04,30.01,1012.80,10.00,M,FEW,SCT,BKN,BKN,4500.00,7000.00,9500.00,15000.00,-RA,M,M,M,M,M,M,57.00,KRNO 110155Z 02010KT 10SM -RA FEW045 SCT070 BKN095 BKN150 14/11 A3001 RMK AO2 SLP128 P0004 T01390111 $,M
RTS,2023-06-11 01:55,-119.8764,39.6682,1539.00,51.80,50.00,93.55,350.00,6.00,0.08,30.05,M,9.00,M,FEW,SCT,BKN,M,4000.00,5000.00,6000.00,M,-RA,M,M,M,M,M,M,51.80,KRTS 110155Z AUTO 35006KT 9SM -RA FEW040 SCT050 BKN060 11/10 A3005 RMK AO2 P0008,M
MEV,2023-06-11 01:55,-119.7500,38.9963,1441.42,55.40,48.20,76.66,40.00,6.00,0.00,29.98,M,10.00,M,FEW,M,M,M,10000.00,M,M,M,M,M,M,M,M,M,M,55.40,KMEV 110155Z AUTO 04006KT 10SM FEW100 13/09 A2998 RMK AO2,M
BAM,2023-06-11 01:55,-116.8743,40.5990,1382.36,64.40,48.20,55.63,200.00,8.00,0.00,29.97,M,10.00,M,OVC,M,M,M,8000.00,M,M,M,M,M,M,M,M,M,M,64.40,KBAM 110155Z AUTO 20008KT 10SM OVC080 18/09 A2997 RMK AO1,M
HTH,2023-06-11 01:55,-118.6315,38.5448,1282.89,62.60,50.00,63.38,320.00,9.00,0.00,29.96,M,10.00,M,BKN,M,M,M,10000.00,M,M,M,M,M,M,M,M,M,M,62.60,KHTH 110155Z AUTO 32009KT 10SM BKN100 17/10 A2996 RMK A01,M
LSV,2023-06-11 01:55,-115.0343,36.2362,570.00,89.40,28.00,10.98,150.00,10.00,0.00,29.67,1002.30,10.00,M,CLR,M,M,M,M,M,M,M,M,M,M,M,M,M,M,84.99,KLSV 110155Z AUTO 15010KT 10SM CLR 32/M02 A2967 RMK AO2 SLP023 T03191022 $,M
TMT,2023-06-11 01:55,-117.1971,39.4643,1749.34,51.00,48.20,89.76,330.00,16.00,0.07,30.05,M,10.00,M,OVC,M,M,M,5000.00,M,M,M,-RA,M,M,M,M,M,M,51.10,KTMT 110155Z AUTO 33016KT 10SM -RA OVC050 11/09 A3005 RMK AO2 LTG DSNT NE AND NW P0007 T01060090,M
NFL,2023-06-11 01:56,-118.7010,39.4166,1199.00,59.00,54.00,83.46,20.00,8.00,0.02,29.95,1011.40,10.00,M,SCT,OVC,M,M,7000.00,9000.00,M,M,M,M,M,M,M,M,M,59.00,KNFL 110156Z AUTO 02008KT 10SM SCT070 OVC090 15/12 A2995 RMK AO2 RAB02E55 SLP114 P0002 T01500122,M
HND,2023-06-11 01:56,-115.1344,35.9729,742.79,87.00,28.90,12.26,170.00,12.00,0.00,29.76,1006.60,10.00,M,CLR,M,M,M,M,M,M,M,M,M,M,M,M,M,M,83.37,KHND 110156Z 17012KT 10SM CLR 31/M02 A2976 RMK AO2 SLP066 T03061017,M
LAS,2023-06-11 01:56,-115.1634,36.0719,663.00,88.00,28.00,11.48,160.00,8.00,0.00,29.72,1003.80,10.00,17.00,FEW,SCT,OVC,M,10000.00,16000.00,22000.00,M,M,M,M,M,M,M,M,83.95,KLAS 110156Z 16008G17KT 10SM FEW100 SCT160 OVC220 31/M02 A2972 RMK AO2 SLP038 T03111022,M
EKO,2023-06-11 01:56,-115.7860,40.8242,1367.00,59.00,47.00,64.12,20.00,13.00,T,30.01,1013.30,10.00,22.00,BKN,OVC,M,M,6500.00,8000.00,M,M,M,M,M,M,26.00,30.00,2023-06-11 01:33,59.00,KEKO 110156Z AUTO 02013G22KT 10SM BKN065 OVC080 15/08 A3001 RMK AO2 PK WND 03026/0133 RAE0057 SLP133 P0000 T01500083,M
WMC,2023-06-11 01:56,-117.8072,40.9019,1315.00,62.00,51.00,67.19,190.00,5.00,T,29.97,1012.40,10.00,M,OVC,M,M,M,8500.00,M,M,M,-RA,M,M,M,M,M,M,62.10,KWMC 110156Z AUTO 19005KT 10SM -RA OVC085 17/11 A2997 RMK AO2 LTG DSNT N RAB03E18B51 SLP124 P0000 T01670106,M
TPH,2023-06-11 01:56,-117.0904,38.0505,1654.00,67.00,42.00,40.45,310.00,6.00,0.00,29.97,1009.10,10.00,M,OVC,M,M,M,8000.00,M,M,M,M,M,M,M,M,M,M,66.90,KTPH 110156Z AUTO 31006KT 10SM OVC080 19/06 A2997 RMK AO2 SLP091 T01940056,M
BVU,2023-06-11 02:15,-114.8611,35.9475,671.00,87.80,24.80,10.12,200.00,11.00,0.00,29.72,M,10.00,M,CLR,M,M,M,M,M,M,M,M,M,M,M,M,M,M,83.56,KBVU 110215Z AUTO 20011KT 10SM CLR 31/M04 A2972 RMK AO2,M
CXP,2023-06-11 02:15,-119.7326,39.1923,1431.00,55.40,51.80,87.65,0.00,0.00,0.00,30.01,M,10.00,M,FEW,M,M,M,11000.00,M,M,M,M,M,M,M,M,M,M,55.40,KCXP 110215Z AUTO 00000KT 10SM FEW110 13/11 A3001 RMK AO2,M
RTS,2023-06-11 02:15,-119.8764,39.6682,1539.00,51.80,50.00,93.55,330.00,5.00,0.00,30.05,M,10.00,M,FEW,FEW,BKN,M,4000.00,5000.00,6000.00,M,-DZ,M,M,M,M,M,M,51.80,KRTS 110215Z AUTO 33005KT 10SM -DZ FEW040 FEW050 BKN060 11/10 A3005 RMK AO2,M
MEV,2023-06-11 02:15,-119.7500,38.9963,1441.42,57.20,46.40,67.12,30.00,5.00,0.00,29.99,M,10.00,M,SCT,M,M,M,11000.00,M,M,M,M,M,M,M,M,M,M,57.20,KMEV 110215Z AUTO 03005KT 10SM SCT110 14/08 A2999 RMK AO2,M
BAM,2023-06-11 02:15,-116.8743,40.5990,1382.36,64.40,46.40,51.98,180.00,4.00,0.00,29.99,M,10.00,M,SCT,BKN,M,M,8000.00,12000.00,M,M,M,M,M,M,M,M,M,64.40,KBAM 110215Z AUTO 18004KT 10SM SCT080 BKN120 18/08 A2999 RMK AO1,M
HTH,2023-06-11 02:15,-118.6315,38.5448,1282.89,60.80,50.00,67.54,310.00,11.00,0.00,29.96,M,10.00,M,BKN,M,M,M,9500.00,M,M,M,M,M,M,M,M,M,M,60.80,KHTH 110215Z AUTO 31011KT 10SM BKN095 16/10 A2996 RMK A01,M
TMT,2023-06-11 02:15,-117.1971,39.4643,1749.34,52.00,46.80,82.37,350.00,6.00,0.00,30.05,M,10.00,18.00,SCT,OVC,M,M,5000.00,6500.00,M,M,-RA,M,M,M,M,M,M,52.00,KTMT 110215Z AUTO 35006G18KT 10SM -RA SCT050 OVC065 11/08 A3005 RMK AO2 T01110082,M
TPH,2023-06-11 02:19,-117.0904,38.0505,1654.00,64.00,46.00,51.93,320.00,12.00,0.00,29.97,M,10.00,20.00,BKN,BKN,M,M,8000.00,10000.00,M,M,M,M,M,M,M,M,M,64.00,KTPH 110219Z AUTO 32012G20KT 10SM BKN080 BKN100 18/08 A2997 RMK AO2 WSHFT 0159 T01780078,M
BVU,2023-06-11 02:35,-114.8611,35.9475,671.00,87.80,24.80,10.12,210.00,8.00,0.00,29.72,M,10.00,M,CLR,M,M,M,M,M,M,M,M,M,M,M,M,M,M,83.56,KBVU 110235Z AUTO 21008KT 10SM CLR 31/M04 A2972 RMK AO2,M
CXP,2023-06-11 02:35,-119.7326,39.1923,1431.00,55.40,50.00,81.99,320.00,11.00,0.00,30.00,M,10.00,M,BKN,M,M,M,10000.00,M,M,M,M,M,M,M,M,M,M,55.40,KCXP 110235Z AUTO 32011KT 10SM BKN100 13/10 A3000 RMK AO2 LTG DSNT N AND SE,M
RTS,2023-06-11 02:35,-119.8764,39.6682,1539.00,51.80,50.00,93.55,320.00,4.00,0.00,30.05,M,5.00,M,FEW,SCT,BKN,M,2800.00,5000.00,6000.00,M,-DZ,M,M,M,M,M,M,51.80,KRTS 110235Z AUTO 32004KT 5SM -DZ FEW028 SCT050 BKN060 11/10 A3005 RMK AO2,M
MEV,2023-06-11 02:35,-119.7500,38.9963,1441.42,55.40,50.00,81.99,30.00,5.00,0.00,29.99,M,10.00,M,BKN,M,M,M,11000.00,M,M,M,M,M,M,M,M,M,M,55.40,KMEV 110235Z AUTO 03005KT 10SM BKN110 13/10 A2999 RMK AO2 LTG DSNT N AND SE,M
BAM,2023-06-11 02:35,-116.8743,40.5990,1382.36,64.40,46.40,51.98,0.00,0.00,0.00,30.00,M,10.00,M,BKN,BKN,M,M,10000.00,12000.00,M,M,M,M,M,M,M,M,M,64.40,KBAM 110235Z AUTO 00000KT 10SM BKN100 BKN120 18/08 A3000 RMK AO1,M
HTH,2023-06-11 02:35,-118.6315,38.5448,1282.89,60.80,50.00,67.54,300.00,10.00,0.00,29.97,M,10.00,M,FEW,BKN,BKN,M,7500.00,9000.00,12000.00,M,M,M,M,M,M,M,M,60.80,KHTH 110235Z AUTO 30010KT 10SM FEW075 BKN090 BKN120 16/10 A2997 RMK A01,M
TMT,2023-06-11 02:35,-117.1971,39.4643,1749.34,51.00,48.40,91.11,60.00,5.00,0.00,30.06,M,10.00,M,OVC,M,M,M,6000.00,M,M,M,RA,M,M,M,M,M,M,50.90,KTMT 110235Z AUTO 06005KT 10SM RA OVC060 11/09 A3006 RMK AO2 LTG DSNT S AND NW T01050091,M
HTH,2023-06-11 02:50,-118.6315,38.5448,1282.89,60.80,50.00,67.54,280.00,9.00,0.00,29.98,M,10.00,M,SCT,BKN,OVC,M,6500.00,8000.00,9000.00,M,M,M,M,M,M,M,M,60.80,KHTH 110250Z AUTO 28009KT 10SM SCT065 BKN080 OVC090 16/10 A2998 RMK A01,M
VGT,2023-06-11 02:53,-115.1933,36.2111,667.00,89.00,28.00,11.09,160.00,10.00,0.00,29.71,1005.00,10.00,M,CLR,M,M,M,M,M,M,M,M,M,M,M,M,M,M,84.76,KVGT 110253Z 16010KT 10SM CLR 32/M02 A2971 RMK AO2 SLP050 T03171022 56006,M
P68,2023-06-11 02:53,-116.0056,39.6014,1993.00,55.00,49.00,79.85,110.00,5.00,0.00,30.02,1011.50,M,M,M,M,M,M,M,M,M,M,M,M,M,M,M,M,M,55.00,KP68 110253Z AUTO 11005KT 13/09 A3002 RMK AO1 SLP115 60001 T01280094 51007,M
DRA,2023-06-11 02:53,-116.0278,36.6206,1009.00,81.00,35.00,19.15,200.00,12.00,0.00,29.78,1003.60,10.00,19.00,CLR,M,M,M,M,M,M,M,M,M,M,M,M,M,M,79.17,KDRA 110253Z AUTO 20012G19KT 10SM CLR 27/02 A2978 RMK AO2 SLP036 T02720017 50001,M
ELY,2023-06-11 02:53,-114.8453,39.2950,1909.00,61.00,40.00,45.67,0.00,0.00,0.00,30.00,1008.30,10.00,M,CLR,M,M,M,M,M,M,M,M,M,M,M,M,M,M,61.00,KELY 110253Z AUTO 00000KT 10SM CLR 16/04 A3000 RMK AO2 SLP083 T01610044 56004,M
LOL,2023-06-11 02:53,-118.5701,40.0684,1192.43,61.00,51.00,69.86,280.00,7.00,0.00,29.97,1012.30,10.00,M,FEW,SCT,M,M,7000.00,8500.00,M,M,M,M,M,M,M,M,M,61.00,KLOL 110253Z AUTO 28007KT 10SM FEW070 SCT085 16/11 A2997 RMK AO2 SLP123 60001 T01610106 50020,M
BVU,2023-06-11 02:55,-114.8611,35.9475,671.00,86.00,23.00,9.94,210.00,7.00,0.00,29.72,M,10.00,M,CLR,M,M,M,M,M,M,M,M,M,M,M,M,M,M,82.14,KBVU 110255Z AUTO 21007KT 10SM CLR 30/M05 A2972 RMK AO2,M
CXP,2023-06-11 02:55,-119.7326,39.1923,1431.00,55.40,50.00,81.99,340.00,6.00,0.00,30.01,M,10.00,M,OVC,M,M,M,10000.00,M,M,M,M,M,M,M,M,M,M,55.40,KCXP 110255Z AUTO 34006KT 10SM OVC100 13/10 A3001 RMK AO2,M
INS,2023-06-11 02:55,-115.6733,36.5872,955.00,81.30,32.40,17.03,190.00,8.00,0.00,29.76,1003.20,10.00,M,CLR,M,M,M,M,M,M,M,M,M,M,M,M,M,M,79.27,KINS 110255Z AUTO 19008KT 10SM CLR 27/00 A2976 RMK AO2 SLP032 T02740002 53001 $,M
RTS,2023-06-11 02:55,-119.8764,39.6682,1539.00,51.80,50.00,93.55,320.00,4.00,0.01,30.05,M,10.00,M,BKN,OVC,M,M,6500.00,7500.00,M,M,M,M,M,M,M,M,M,51.80,KRTS 110255Z AUTO 32004KT 10SM BKN065 OVC075 11/10 A3005 RMK AO2 P0001,M
MEV,2023-06-11 02:55,-119.7500,38.9963,1441.42,55.40,50.00,81.99,330.00,5.00,0.00,30.00,M,10.00,M,CLR,M,M,M,M,M,M,M,M,M,M,M,M,M,M,55.40,KMEV 110255Z AUTO 33005KT 10SM CLR 13/10 A3000 RMK AO2,M
BAM,2023-06-11 02:55,-116.8743,40.5990,1382.36,64.40,48.20,55.63,0.00,0.00,0.00,30.01,M,10.00,M,SCT,BKN,OVC,M,6000.00,7000.00,9000.00,M,M,M,M,M,M,M,M,64.40,KBAM 110255Z AUTO 00000KT 10SM SCT060 BKN070 OVC090 18/09 A3001 RMK AO1,M
LSV,2023-06-11 02:55,-115.0343,36.2362,570.00,88.20,27.00,10.95,130.00,11.00,0.00,29.67,1002.20,10.00,M,CLR,M,M,M,M,M,M,M,M,M,M,M,M,M,M,84.01,KLSV 110255Z AUTO 13011KT 10SM CLR 31/M03 A2967 RMK AO2 SLP022 T03121028 57008 $,M
TMT,2023-06-11 02:55,-117.1971,39.4643,1749.34,50.40,47.30,89.06,70.00,11.00,0.01,30.04,M,10.00,20.00,BKN,OVC,M,M,6000.00,7000.00,M,M,-RA,M,M,M,M,M,M,50.40,KTMT 110255Z AUTO 07011G20KT 10SM -RA BKN060 OVC070 10/09 A3004 RMK AO2 P0001 60010 T01020085,M
RNO,2023-06-11 02:55,-119.7711,39.4839,1341.00,57.00,51.00,80.60,350.00,8.00,0.02,30.01,1012.90,10.00,M,FEW,SCT,BKN,BKN,3000.00,6000.00,9000.00,13000.00,-RA,M,M,M,M,M,M,57.00,KRNO 110255Z 35008KT 10SM -RA FEW030 SCT060 BKN090 BKN130 14/11 A3001 RMK AO2 SLP129 P0002 60006 T01390106 51016 $,M
EKO,2023-06-11 02:56,-115.7860,40.8242,1367.00,59.00,48.00,66.83,70.00,8.00,0.00,30.02,1013.40,10.00,M,OVC,M,M,M,7000.00,M,M,M,M,M,M,M,M,M,M,59.00,KEKO 110256Z AUTO 07008KT 10SM OVC070 15/09 A3002 RMK AO2 SLP134 60000 T01500089 51021,M
HND,2023-06-11 02:56,-115.1344,35.9729,742.79,86.00,28.00,12.23,170.00,9.00,0.00,29.76,1006.40,10.00,M,CLR,M,M,M,M,M,M,M,M,M,M,M,M,M,M,82.50,KHND 110256Z 17009KT 10SM CLR 30/M02 A2976 RMK AO2 SLP064 T03001022 56005,M
TPH,2023-06-11 02:56,-117.0904,38.0505,1654.00,64.00,45.00,49.99,340.00,9.00,0.00,29.97,1008.70,10.00,M,FEW,M,M,M,10000.00,M,M,M,M,M,M,M,M,M,M,64.00,KTPH 110256Z AUTO 34009KT 10SM FEW100 18/07 A2997 RMK AO2 WSHFT 0159 SLP087 T01780072 53006,M
LAS,2023-06-11 02:56,-115.1634,36.0719,663.00,87.00,28.00,11.81,150.00,8.00,0.00,29.72,1003.70,10.00,M,BKN,OVC,M,M,16000.00,22000.00,M,M,M,M,M,M,M,M,M,83.29,KLAS 110256Z 15008KT 10SM BKN160 OVC220 31/M02 A2972 RMK AO2 SLP037 T03061022 56006,M
WMC,2023-06-11 02:56,-117.8072,40.9019,1315.00,63.00,51.00,65.09,340.00,4.00,T,29.98,1011.90,10.00,M,SCT,BKN,M,M,8000.00,10000.00,M,M,M,M,M,M,M,M,M,63.00,KWMC 110256Z AUTO 34004KT 10SM SCT080 BKN100 17/11 A2998 RMK AO2 RAE06 SLP119 P0000 60000 T01720106 51009,M
NFL,2023-06-11 02:56,-118.7010,39.4166,1199.00,59.00,53.00,80.75,260.00,4.00,0.00,29.96,1011.60,10.00,M,FEW,M,M,M,12000.00,M,M,M,M,M,M,M,M,M,M,59.00,KNFL 110256Z AUTO 26004KT 10SM FEW120 15/12 A2996 RMK AO2 SLP116 60002 T01500117 51004,M
BVU,2023-06-11 03:15,-114.8611,35.9475,671.00,86.00,23.00,9.94,190.00,6.00,0.00,29.72,M,10.00,M,CLR,M,M,M,M,M,M,M,M,M,M,M,M,M,M,82.14,KBVU 110315Z AUTO 19006KT 10SM CLR 30/M05 A2972 RMK AO2,M
CXP,2023-06-11 03:15,-119.7326,39.1923,1431.00,57.20,50.00,76.82,40.00,6.00,0.00,30.01,M,10.00,M,OVC,M,M,M,12000.00,M,M,M,M,M,M,M,M,M,M,57.20,KCXP 110315Z AUTO 04006KT 10SM OVC120 14/10 A3001 RMK AO2,M
RTS,2023-06-11 03:15,-119.8764,39.6682,1539.00,51.80,48.20,87.47,340.00,10.00,0.00,30.04,M,6.00,M,FEW,BKN,OVC,M,4400.00,6000.00,7000.00,M,-DZ,M,M,M,M,M,M,51.80,KRTS 110315Z AUTO 34010KT 6SM -DZ FEW044 BKN060 OVC070 11/09 A3004 RMK AO2,M
MEV,2023-06-11 03:15,-119.7500,38.9963,1441.42,55.40,51.80,87.65,350.00,9.00,0.00,30.00,M,10.00,M,CLR,M,M,M,M,M,M,M,M,M,M,M,M,M,M,55.40,KMEV 110315Z AUTO 35009KT 10SM CLR 13/11 A3000 RMK AO2,M
BAM,2023-06-11 03:15,-116.8743,40.5990,1382.36,60.80,53.60,77.14,120.00,3.00,0.00,30.01,M,10.00,M,OVC,M,M,M,7000.00,M,M,M,M,M,M,M,M,M,M,60.80,KBAM 110315Z AUTO 12003KT 10SM OVC070 16/12 A3001 RMK AO1,M
HTH,2023-06-11 03:15,-118.6315,38.5448,1282.89,59.00,51.80,76.98,0.00,0.00,0.00,30.00,M,3.00,M,BKN,BKN,OVC,M,4000.00,5000.00,6000.00,M,HZ,M,M,M,M,M,M,59.00,KHTH 110315Z AUTO 00000KT 3SM HZ BKN040 BKN050 OVC060 15/11 A3000 RMK A01,M
TMT,2023-06-11 03:15,-117.1971,39.4643,1749.34,50.00,48.00,92.80,60.00,10.00,0.00,30.03,M,10.00,18.00,SCT,SCT,BKN,M,5000.00,7000.00,8500.00,M,M,M,M,M,M,M,M,50.00,KTMT 110315Z AUTO 06010G18KT 10SM SCT050 SCT070 BKN085 10/09 A3003 RMK AO2 T01000089,M
BVU,2023-06-11 03:35,-114.8611,35.9475,671.00,84.20,23.00,10.53,200.00,5.00,0.00,29.72,M,10.00,M,CLR,M,M,M,M,M,M,M,M,M,M,M,M,M,M,80.88,KBVU 110335Z AUTO 20005KT 10SM CLR 29/M05 A2972 RMK AO2,M
CXP,2023-06-11 03:35,-119.7326,39.1923,1431.00,55.40,50.00,81.99,0.00,0.00,0.00,30.02,M,10.00,M,FEW,BKN,M,M,3400.00,12000.00,M,M,M,M,M,M,M,M,M,55.40,KCXP 110335Z AUTO 00000KT 10SM FEW034 BKN120 13/10 A3002 RMK AO2,M
RTS,2023-06-11 03:35,-119.8764,39.6682,1539.00,51.80,48.20,87.47,320.00,9.00,0.00,30.03,M,10.00,M,FEW,SCT,BKN,M,1500.00,4500.00,6500.00,M,-DZ,M,M,M,M,M,M,51.80,KRTS 110335Z AUTO 32009KT 10SM -DZ FEW015 SCT045 BKN065 11/09 A3003 RMK AO2,M
MEV,2023-06-11 03:35,-119.7500,38.9963,1441.42,55.40,50.00,81.99,360.00,9.00,0.00,30.00,M,10.00,14.00,CLR,M,M,M,M,M,M,M,M,M,M,M,M,M,M,55.40,KMEV 110335Z AUTO 36009G14KT 10SM CLR 13/10 A3000 RMK AO2,M
BAM,2023-06-11 03:35,-116.8743,40.5990,1382.36,60.80,51.80,72.20,30.00,3.00,0.00,30.02,M,10.00,M,BKN,OVC,M,M,7000.00,9000.00,M,M,M,M,M,M,M,M,M,60.80,KBAM 110335Z AUTO 03003KT 10SM BKN070 OVC090 16/11 A3002 RMK AO1,M
HTH,2023-06-11 03:35,-118.6315,38.5448,1282.89,59.00,53.60,82.25,160.00,5.00,0.00,30.01,M,4.00,M,FEW,BKN,OVC,M,300.00,4100.00,6000.00,M,HZ,M,M,M,M,M,M,59.00,KHTH 110335Z AUTO 16005KT 4SM HZ FEW003 BKN041 OVC060 15/12 A3001 RMK A01,M
TMT,2023-06-11 03:35,-117.1971,39.4643,1749.34,50.40,47.30,89.06,20.00,6.00,0.00,30.04,M,10.00,M,CLR,M,M,M,M,M,M,M,M,M,M,M,M,M,M,50.40,KTMT 110335Z AUTO 02006KT 10SM CLR 10/09 A3004 RMK AO2 LTG DSNT S T01020085,M
P68,2023-06-11 03:53,-116.0056,39.6014,1993.00,54.00,50.00,86.29,250.00,6.00,0.01,30.05,1011.70,M,M,M,M,M,M,M,M,M,M,M,M,M,M,M,M,M,54.00,KP68 110353Z AUTO 25006KT 12/10 A3005 RMK AO1 SLP117 P0001 T01220100,M
DRA,2023-06-11 03:53,-116.0278,36.6206,1009.00,79.00,32.00,18.06,200.00,8.00,0.00,29.78,1003.60,10.00,M,CLR,M,M,M,M,M,M,M,M,M,M,M,M,M,M,79.00,KDRA 110353Z AUTO 20008KT 10SM CLR 26/00 A2978 RMK AO2 SLP036 T02610000,M
ELY,2023-06-11 03:53,-114.8453,39.2950,1909.00,54.00,39.00,56.74,350.00,3.00,0.00,30.02,1008.90,10.00,M,BKN,M,M,M,10000.00,M,M,M,M,M,M,M,M,M,M,54.00,KELY 110353Z AUTO 35003KT 10SM BKN100 12/04 A3002 RMK AO2 SLP089 T01220039,M
VGT,2023-06-11 03:53,-115.1933,36.2111,667.00,87.00,28.00,11.81,180.00,7.00,0.00,29.71,1005.00,10.00,M,CLR,M,M,M,M,M,M,M,M,M,M,M,M,M,M,83.29,KVGT 110353Z AUTO 18007KT 10SM CLR 31/M02 A2971 RMK AO2 SLP050 T03061022,M
LOL,2023-06-11 03:53,-118.5701,40.0684,1192.43,59.00,52.00,77.55,70.00,6.00,0.00,29.95,1011.60,10.00,M,CLR,M,M,M,M,M,M,M,M,M,M,M,M,M,M,59.00,KLOL 110353Z AUTO 07006KT 10SM CLR 15/11 A2995 RMK AO2 SLP116 T01500111,M
BVU,2023-06-11 03:55,-114.8611,35.9475,671.00,84.20,23.00,10.53,190.00,5.00,0.00,29.72,M,10.00,M,CLR,M,M,M,M,M,M,M,M,M,M,M,M,M,M,80.88,KBVU 110355Z AUTO 19005KT 10SM CLR 29/M05 A2972 RMK AO2,M
CXP,2023-06-11 03:55,-119.7326,39.1923,1431.00,55.40,48.20,76.66,0.00,0.00,0.00,30.01,M,10.00,M,SCT,M,M,M,12000.00,M,M,M,M,M,M,M,M,M,M,55.40,KCXP 110355Z AUTO 00000KT 10SM SCT120 13/09 A3001 RMK AO2,M
INS,2023-06-11 03:55,-115.6733,36.5872,955.00,79.70,30.90,16.89,180.00,6.00,0.00,29.77,1003.40,10.00,M,SCT,M,M,M,17000.00,M,M,M,M,M,M,M,M,M,M,79.70,KINS 110355Z AUTO 18006KT 10SM SCT170 27/M01 A2977 RMK AO2 SLP034 T02651006 $,M
RNO,2023-06-11 03:55,-119.7711,39.4839,1341.00,56.00,50.00,80.52,360.00,6.00,0.01,30.00,1012.40,10.00,M,FEW,SCT,BKN,BKN,3000.00,5000.00,8000.00,13000.00,M,M,M,M,M,M,M,55.90,KRNO 110355Z 36006KT 10SM FEW030 SCT050 BKN080 BKN130 BKN160 13/10 A3000 RMK AO2 RAE36 SLP124 P0001 T01330100,M
RTS,2023-06-11 03:55,-119.8764,39.6682,1539.00,51.80,48.20,87.47,350.00,5.00,0.01,30.02,M,10.00,M,FEW,SCT,BKN,M,1300.00,4600.00,7500.00,M,-DZ,M,M,M,M,M,M,51.80,KRTS 110355Z AUTO 35005KT 10SM -DZ FEW013 SCT046 BKN075 11/09 A3002 RMK AO2 P0001,M
MEV,2023-06-11 03:55,-119.7500,38.9963,1441.42,53.60,50.00,87.56,360.00,9.00,0.00,30.00,M,10.00,M,CLR,M,M,M,M,M,M,M,M,M,M,M,M,M,M,53.60,KMEV 110355Z AUTO 36009KT 10SM CLR 12/10 A3000 RMK AO2,M
BAM,2023-06-11 03:55,-116.8743,40.5990,1382.36,60.80,51.80,72.20,240.00,5.00,0.00,30.04,M,10.00,M,SCT,OVC,M,M,3800.00,7000.00,M,M,M,M,M,M,M,M,M,60.80,KBAM 110355Z AUTO 24005KT 10SM SCT038 OVC070 16/11 A3004 RMK AO1,M
HTH,2023-06-11 03:55,-118.6315,38.5448,1282.89,57.20,53.60,87.74,20.00,4.00,0.06,30.01,M,6.00,M,M,M,M,M,M,M,M,M,BR,M,M,M,M,M,M,57.20,KHTH 110355Z AUTO 02004KT 6SM BR 14/12 A3001 RMK A01 P0006,M
LSV,2023-06-11 03:55,-115.0343,36.2362,570.00,85.80,27.30,11.96,140.00,7.00,0.00,29.67,1002.20,10.00,M,CLR,M,M,M,M,M,M,M,M,M,M,M,M,M,M,82.31,KLSV 110355Z AUTO 14007KT 10SM CLR 30/M03 A2967 RMK AO2 SLP022 T02991026 $,M
TMT,2023-06-11 03:55,-117.1971,39.4643,1749.34,50.20,47.00,88.38,360.00,6.00,0.00,30.04,M,10.00,M,BKN,M,M,M,9500.00,M,M,M,M,M,M,M,M,M,M,50.20,KTMT 110355Z AUTO 36006KT 10SM BKN095 10/08 A3004 RMK AO2 T01010083,M
EKO,2023-06-11 03:56,-115.7860,40.8242,1367.00,58.00,48.00,69.52,30.00,6.00,0.00,30.02,1013.10,10.00,M,CLR,M,M,M,M,M,M,M,M,M,M,M,M,M,M,57.90,KEKO 110356Z AUTO 03006KT 10SM CLR 14/09 A3002 RMK AO2 SLP131 T01440089,M
NFL,2023-06-11 03:56,-118.7010,39.4166,1199.00,58.00,54.00,86.82,210.00,3.00,0.00,29.97,1011.90,10.00,M,CLR,M,M,M,M,M,M,M,M,M,M,M,M,M,M,57.90,KNFL 110356Z AUTO 21003KT 10SM CLR 14/12 A2997 RMK AO2 SLP119 T01440122,M
HND,2023-06-11 03:56,-115.1344,35.9729,742.79,83.00,27.00,12.97,160.00,4.00,0.00,29.76,1006.40,10.00,M,CLR,M,M,M,M,M,M,M,M,M,M,M,M,M,M,80.28,KHND 110356Z AUTO 16004KT 10SM CLR 28/M03 A2976 RMK AO2 SLP064 T02831028,M
TPH,2023-06-11 03:56,-117.0904,38.0505,1654.00,61.00,46.00,57.72,360.00,8.00,0.00,29.96,1008.50,10.00,M,CLR,M,M,M,M,M,M,M,M,M,M,M,M,M,M,61.00,KTPH 110356Z AUTO 36008KT 10SM CLR 16/08 A2996 RMK AO2 SLP085 T01610078,M
LAS,2023-06-11 03:56,-115.1634,36.0719,663.00,85.00,28.00,12.67,170.00,5.00,0.00,29.72,1003.80,10.00,M,BKN,OVC,M,M,16000.00,22000.00,M,M,M,M,M,M,M,M,M,81.73,KLAS 110356Z 17005KT 10SM BKN160 OVC220 29/M02 A2972 RMK AO2 SLP038 T02941022,M
WMC,2023-06-11 03:56,-117.8072,40.9019,1315.00,58.00,53.00,84.00,240.00,7.00,0.03,30.01,1013.00,10.00,M,SCT,BKN,M,M,8000.00,12000.00,M,M,-RA,M,M,M,M,M,M,57.90,KWMC 110356Z AUTO 24007KT 10SM -RA SCT080 BKN120 14/12 A3001 RMK AO2 RAB04 SLP130 P0003 T01440117,M
BVU,2023-06-11 04:15,-114.8611,35.9475,671.00,82.40,24.80,12.03,150.00,4.00,0.00,29.72,M,10.00,M,CLR,M,M,M,M,M,M,M,M,M,M,M,M,M,M,79.79,KBVU 110415Z AUTO 15004KT 10SM CLR 28/M04 A2972 RMK AO2,M
CXP,2023-06-11 04:15,-119.7326,39.1923,1431.00,53.60,48.20,81.87,M,4.00,0.00,30.02,M,10.00,M,CLR,M,M,M,M,M,M,M,M,M,M,M,M,M,M,53.60,KCXP 110415Z AUTO VRB04KT 10SM CLR 12/09 A3002 RMK AO2,M
RTS,2023-06-11 04:15,-119.8764,39.6682,1539.00,51.80,48.20,87.47,330.00,5.00,0.00,30.03,M,10.00,M,FEW,BKN,OVC,M,4600.00,7000.00,7500.00,M,M,M,M,M,M,M,M,51.80,KRTS 110415Z AUTO 33005KT 10SM FEW046 BKN070 OVC075 11/09 A3003 RMK AO2,M
MEV,2023-06-11 04:15,-119.7500,38.9963,1441.42,53.60,50.00,87.56,20.00,7.00,0.00,30.01,M,10.00,M,CLR,M,M,M,M,M,M,M,M,M,M,M,M,M,M,53.60,KMEV 110415Z AUTO 02007KT 10SM CLR 12/10 A3001 RMK AO2,M
BAM,2023-06-11 04:15,-116.8743,40.5990,1382.36,60.80,51.80,72.20,240.00,10.00,0.00,30.04,M,10.00,19.00,SCT,SCT,OVC,M,4200.00,6000.00,7000.00,M,M,M,M,M,M,M,M,60.80,KBAM 110415Z AUTO 24010G19KT 10SM SCT042 SCT060 OVC070 16/11 A3004 RMK AO1,M
HTH,2023-06-11 04:15,-118.6315,38.5448,1282.89,57.20,53.60,87.74,0.00,0.00,0.00,30.02,M,10.00,M,M,M,M,M,M,M,M,M,M,M,M,M,M,M,M,57.20,KHTH 110415Z AUTO 00000KT 10SM 14/12 A3002 RMK A01,M
TMT,2023-06-11 04:15,-117.1971,39.4643,1749.34,51.00,46.40,84.50,320.00,4.00,0.00,30.05,M,10.00,M,SCT,M,M,M,9500.00,M,M,M,M,M,M,M,M,M,M,50.90,KTMT 110415Z AUTO 32004KT 10SM SCT095 11/08 A3005 RMK AO2 T01050080,M
BVU,2023-06-11 04:35,-114.8611,35.9475,671.00,82.40,24.80,12.03,160.00,5.00,0.00,29.73,M,10.00,M,CLR,M,M,M,M,M,M,M,M,M,M,M,M,M,M,79.79,KBVU 110435Z AUTO 16005KT 10SM CLR 28/M04 A2973 RMK AO2,M
CXP,2023-06-11 04:35,-119.7326,39.1923,1431.00,53.60,48.20,81.87,0.00,0.00,0.00,30.02,M,10.00,M,CLR,M,M,M,M,M,M,M,M,M,M,M,M,M,M,53.60,KCXP 110435Z AUTO 00000KT 10SM CLR 12/09 A3002 RMK AO2,M
RTS,2023-06-11 04:35,-119.8764,39.6682,1539.00,51.80,48.20,87.47,210.00,4.00,0.00,30.04,M,10.00,M,SCT,BKN,OVC,M,1200.00,4900.00,7500.00,M,M,M,M,M,M,M,M,51.80,KRTS 110435Z AUTO 21004KT 10SM SCT012 BKN049 OVC075 11/09 A3004 RMK AO2,M
MEV,2023-06-11 04:35,-119.7500,38.9963,1441.42,53.60,50.00,87.56,360.00,9.00,0.00,30.01,M,10.00,M,CLR,M,M,M,M,M,M,M,M,M,M,M,M,M,M,53.60,KMEV 110435Z AUTO 36009KT 10SM CLR 12/10 A3001 RMK AO2,M
BAM,2023-06-11 04:35,-116.8743,40.5990,1382.36,59.00,51.80,76.98,250.00,7.00,0.00,30.04,M,10.00,M,SCT,SCT,SCT,M,4400.00,6500.00,7500.00,M,M,M,M,M,M,M,M,59.00,KBAM 110435Z AUTO 25007KT 10SM SCT044 SCT065 SCT075 15/11 A3004 RMK AO1,M
HTH,2023-06-11 04:35,-118.6315,38.5448,1282.89,57.20,53.60,87.74,180.00,5.00,0.00,30.01,M,10.00,M,OVC,M,M,M,7000.00,M,M,M,M,M,M,M,M,M,M,57.20,KHTH 110435Z AUTO 18005KT 10SM OVC070 14/12 A3001 RMK A01,M
TMT,2023-06-11 04:35,-117.1971,39.4643,1749.34,50.00,48.40,94.20,250.00,6.00,0.00,30.06,M,10.00,M,SCT,SCT,M,M,10000.00,12000.00,M,M,M,M,M,M,M,M,M,50.00,KTMT 110435Z AUTO 25006KT 10SM SCT100 SCT120 10/09 A3006 RMK AO2 T01000091,M
DRA,2023-06-11 04:53,-116.0278,36.6206,1009.00,77.00,30.90,18.46,0.00,0.00,0.00,29.79,1003.90,10.00,M,CLR,M,M,M,M,M,M,M,M,M,M,M,M,M,M,77.00,KDRA 110453Z AUTO 00000KT 10SM CLR 25/M01 A2979 RMK AO2 SLP039 T02501006,M
ELY,2023-06-11 04:53,-114.8453,39.2950,1909.00,57.00,41.00,54.99,40.00,7.00,0.00,30.03,1008.80,10.00,M,BKN,M,M,M,10000.00,M,M,M,M,M,M,M,M,M,M,57.00,KELY 110453Z AUTO 04007KT 10SM BKN100 14/05 A3003 RMK AO2 SLP088 T01390050,M
VGT,2023-06-11 04:53,-115.1933,36.2111,667.00,86.00,30.90,13.77,190.00,7.00,0.00,29.72,1005.30,10.00,M,CLR,M,M,M,M,M,M,M,M,M,M,M,M,M,M,82.64,KVGT 110453Z AUTO 19007KT 10SM CLR 30/M01 A2972 RMK AO2 SLP053 T03001006,M
LOL,2023-06-11 04:53,-118.5701,40.0684,1192.43,57.00,53.00,86.77,70.00,5.00,0.00,29.97,1012.30,10.00,M,CLR,M,M,M,M,M,M,M,M,M,M,M,M,M,M,57.00,KLOL 110453Z AUTO 07005KT 10SM CLR 14/12 A2997 RMK AO2 SLP123 T01390117,M
P68,2023-06-11 04:53,-116.0056,39.6014,1993.00,51.00,48.00,89.09,M,4.00,0.06,30.10,1013.40,M,M,M,M,M,M,M,M,M,M,M,M,M,M,M,M,M,51.10,KP68 110453Z AUTO VRB04KT 11/09 A3010 RMK AO1 SLP134 P0006 T01060089,M
BVU,2023-06-11 04:55,-114.8611,35.9475,671.00,82.40,23.00,11.16,140.00,4.00,0.00,29.73,M,10.00,M,CLR,M,M,M,M,M,M,M,M,M,M,M,M,M,M,79.67,KBVU 110455Z AUTO 14004KT 10SM CLR 28/M05 A2973 RMK AO2,M
CXP,2023-06-11 04:55,-119.7326,39.1923,1431.00,53.60,50.00,87.56,0.00,0.00,0.00,30.03,M,10.00,M,CLR,M,M,M,M,M,M,M,M,M,M,M,M,M,M,53.60,KCXP 110455Z AUTO 00000KT 10SM CLR 12/10 A3003 RMK AO2,M
INS,2023-06-11 04:55,-115.6733,36.5872,955.00,78.40,28.60,16.05,210.00,7.00,0.00,29.78,1003.50,10.00,M,SCT,M,M,M,18000.00,M,M,M,M,M,M,M,M,M,M,78.40,KINS 110455Z AUTO 21007KT 10SM SCT180 26/M02 A2978 RMK AO2 SLP035 T02581019 $,M
RNO,2023-06-11 04:55,-119.7711,39.4839,1341.00,56.00,50.00,80.52,20.00,5.00,0.00,30.01,1012.50,10.00,M,FEW,FEW,BKN,OVC,3000.00,4500.00,10000.00,14000.00,M,M,M,M,M,M,M,55.90,KRNO 110455Z 02005KT 10SM FEW030 FEW045 BKN100 OVC140 13/10 A3001 RMK AO2 SLP125 T01330100,M
RTS,2023-06-11 04:55,-119.8764,39.6682,1539.00,51.80,48.20,87.47,280.00,3.00,0.00,30.04,M,10.00,M,BKN,BKN,OVC,M,1200.00,1700.00,6500.00,M,M,M,M,M,M,M,M,51.80,KRTS 110455Z AUTO 28003KT 10SM BKN012 BKN017 OVC065 11/09 A3004 RMK AO2,M
MEV,2023-06-11 04:55,-119.7500,38.9963,1441.42,51.80,48.20,87.47,360.00,6.00,0.00,30.02,M,10.00,M,CLR,M,M,M,M,M,M,M,M,M,M,M,M,M,M,51.80,KMEV 110455Z AUTO 36006KT 10SM CLR 11/09 A3002 RMK AO2,M
BAM,2023-06-11 04:55,-116.8743,40.5990,1382.36,59.00,51.80,76.98,280.00,6.00,0.00,30.03,M,10.00,M,CLR,M,M,M,M,M,M,M,M,M,M,M,M,M,M,59.00,KBAM 110455Z AUTO 28006KT 10SM CLR 15/11 A3003 RMK AO1,M
HTH,2023-06-11 04:55,-118.6315,38.5448,1282.89,57.20,53.60,87.74,180.00,5.00,0.01,30.00,M,10.00,M,BKN,OVC,M,M,6500.00,7500.00,M,M,M,M,M,M,M,M,M,57.20,KHTH 110455Z AUTO 18005KT 10SM BKN065 OVC075 14/12 A3000 RMK A01 P0001,M
TMT,2023-06-11 04:55,-117.1971,39.4643,1749.34,50.00,48.40,94.20,240.00,4.00,0.00,30.07,M,10.00,M,SCT,BKN,M,M,8000.00,12000.00,M,M,M,M,M,M,M,M,M,50.00,KTMT 110455Z AUTO 24004KT 10SM SCT080 BKN120 10/09 A3007 RMK AO2 T01000091,M
LSV,2023-06-11 04:55,-115.0343,36.2362,570.00,83.80,27.70,12.97,120.00,7.00,0.00,29.68,1002.50,10.00,M,CLR,M,M,M,M,M,M,M,M,M,M,M,M,M,M,80.95,KLSV 110455Z AUTO 12007KT 10SM CLR 29/M02 A2968 RMK AO2 SLP025 T02881024 $,M
WMC,2023-06-11 04:56,-117.8072,40.9019,1315.00,58.00,52.00,80.67,80.00,4.00,T,30.01,1012.70,10.00,M,BKN,M,M,M,3300.00,M,M,M,M,M,M,M,M,M,M,57.90,KWMC 110456Z AUTO 08004KT 10SM BKN033 14/11 A3001 RMK AO2 RAE0357 SLP127 P0000 T01440111,M
NFL,2023-06-11 04:56,-118.7010,39.4166,1199.00,58.00,52.00,80.67,210.00,6.00,0.00,29.99,1012.50,10.00,M,CLR,M,M,M,M,M,M,M,M,M,M,M,M,M,M,57.90,KNFL 110456Z AUTO 21006KT 10SM CLR 14/11 A2999 RMK AO2 SLP125 T01440111,M
HND,2023-06-11 04:56,-115.1344,35.9729,742.79,80.00,27.00,14.21,190.00,4.00,0.00,29.77,1006.80,10.00,M,CLR,M,M,M,M,M,M,M,M,M,M,M,M,M,M,78.48,KHND 110456Z AUTO 19004KT 10SM CLR 27/M03 A2977 RMK AO2 SLP068 T02671028,M
TPH,2023-06-11 04:56,-117.0904,38.0505,1654.00,60.00,45.00,57.37,350.00,9.00,0.00,29.96,1008.60,10.00,M,CLR,M,M,M,M,M,M,M,M,M,M,M,M,M,M,60.10,KTPH 110456Z AUTO 35009KT 10SM CLR 16/07 A2996 RMK AO2 SLP086 T01560072,M
LAS,2023-06-11 04:56,-115.1634,36.0719,663.00,84.00,30.00,14.16,180.00,3.00,0.00,29.73,1004.10,10.00,M,SCT,OVC,M,M,16000.00,22000.00,M,M,M,M,M,M,M,M,M,81.11,KLAS 110456Z 18003KT 10SM SCT160 OVC220 29/M01 A2973 RMK AO2 SLP041 T02891011,M
EKO,2023-06-11 04:56,-115.7860,40.8242,1367.00,57.00,49.00,74.27,50.00,5.00,0.00,30.04,1013.10,10.00,M,CLR,M,M,M,M,M,M,M,M,M,M,M,M,M,M,57.00,KEKO 110456Z AUTO 05005KT 10SM CLR 14/09 A3004 RMK AO2 SLP131 T01390094,M
BVU,2023-06-11 05:15,-114.8611,35.9475,671.00,80.60,23.00,11.83,150.00,7.00,0.00,29.73,M,10.00,M,CLR,M,M,M,M,M,M,M,M,M,M,M,M,M,M,78.80,KBVU 110515Z AUTO 15007KT 10SM CLR 27/M05 A2973 RMK AO2,M
CXP,2023-06-11 05:15,-119.7326,39.1923,1431.00,51.80,50.00,93.55,360.00,4.00,0.00,30.04,M,10.00,M,CLR,M,M,M,M,M,M,M,M,M,M,M,M,M,M,51.80,KCXP 110515Z AUTO 36004KT 10SM CLR 11/10 A3004 RMK AO2,M
RTS,2023-06-11 05:15,-119.8764,39.6682,1539.00,50.00,48.20,93.50,0.00,0.00,0.00,30.05,M,10.00,M,SCT,SCT,OVC,M,1600.00,2400.00,11000.00,M,M,M,M,M,M,M,M,50.00,KRTS 110515Z AUTO 00000KT 10SM SCT016 SCT024 OVC110 10/09 A3005 RMK AO2,M
MEV,2023-06-11 05:15,-119.7500,38.9963,1441.42,51.80,48.20,87.47,30.00,4.00,0.00,30.02,M,10.00,M,CLR,M,M,M,M,M,M,M,M,M,M,M,M,M,M,51.80,KMEV 110515Z AUTO 03004KT 10SM CLR 11/09 A3002 RMK AO2,M
BAM,2023-06-11 05:15,-116.8743,40.5990,1382.36,59.00,51.80,76.98,0.00,0.00,0.00,30.03,M,10.00,M,BKN,M,M,M,12000.00,M,M,M,M,M,M,M,M,M,M,59.00,KBAM 110515Z AUTO 00000KT 10SM BKN120 15/11 A3003 RMK AO1,M
HTH,2023-06-11 05:15,-118.6315,38.5448,1282.89,57.20,53.60,87.74,210.00,6.00,0.00,29.99,M,10.00,M,FEW,SCT,SCT,M,6500.00,7000.00,9000.00,M,M,M,M,M,M,M,M,57.20,KHTH 110515Z AUTO 21006KT 10SM FEW065 SCT070 SCT090 14/12 A2999 RMK A01,M
TMT,2023-06-11 05:15,-117.1971,39.4643,1749.34,50.20,47.80,91.42,240.00,5.00,0.00,30.08,M,10.00,M,OVC,M,M,M,8000.00,M,M,M,M,M,M,M,M,M,M,50.20,KTMT 110515Z AUTO 24005KT 10SM OVC080 10/09 A3008 RMK AO2 T01010088,M
P68,2023-06-11 05:19,-116.0056,39.6014,1993.00,50.00,48.00,92.80,360.00,12.00,0.04,30.04,M,M,21.00,M,M,M,M,M,M,M,M,M,M,M,M,M,M,M,50.00,KP68 110519Z AUTO 36012G21KT 10/09 A3004 RMK AO1 WSHFT 0502 P0004 T01000089,M
BVU,2023-06-11 05:35,-114.8611,35.9475,671.00,78.80,23.00,12.55,0.00,0.00,0.00,29.73,M,10.00,M,CLR,M,M,M,M,M,M,M,M,M,M,M,M,M,M,78.80,KBVU 110535Z AUTO 00000KT 10SM CLR 26/M05 A2973 RMK AO2,M
CXP,2023-06-11 05:35,-119.7326,39.1923,1431.00,51.80,48.20,87.47,340.00,6.00,0.00,30.03,M,10.00,M,CLR,M,M,M,M,M,M,M,M,M,M,M,M,M,M,51.80,KCXP 110535Z AUTO 34006KT 10SM CLR 11/09 A3003 RMK AO2,M
RTS,2023-06-11 05:35,-119.8764,39.6682,1539.00,50.00,48.20,93.50,300.00,4.00,0.00,30.05,M,10.00,M,SCT,M,M,M,12000.00,M,M,M,M,M,M,M,M,M,M,50.00,KRTS 110535Z AUTO 30004KT 10SM SCT120 10/09 A3005 RMK AO2,M
MEV,2023-06-11 05:35,-119.7500,38.9963,1441.42,50.00,48.20,93.50,330.00,6.00,0.00,30.01,M,10.00,M,CLR,M,M,M,M,M,M,M,M,M,M,M,M,M,M,50.00,KMEV 110535Z AUTO 33006KT 10SM CLR 10/09 A3001 RMK AO2,M
BAM,2023-06-11 05:35,-116.8743,40.5990,1382.36,59.00,51.80,76.98,40.00,4.00,0.00,30.03,M,10.00,M,OVC,M,M,M,11000.00,M,M,M,M,M,M,M,M,M,M,59.00,KBAM 110535Z AUTO 04004KT 10SM OVC110 15/11 A3003 RMK AO1,M
HTH,2023-06-11 05:35,-118.6315,38.5448,1282.89,57.20,53.60,87.74,180.00,5.00,0.00,29.99,M,10.00,M,CLR,M,M,M,M,M,M,M,M,M,M,M,M,M,M,57.20,KHTH 110535Z AUTO 18005KT 10SM CLR 14/12 A2999 RMK A01,M
TMT,2023-06-11 05:35,-117.1971,39.4643,1749.34,49.80,48.40,94.91,180.00,3.00,0.00,30.09,M,10.00,M,OVC,M,M,M,7000.00,M,M,M,M,M,M,M,M,M,M,49.04,KTMT 110535Z AUTO 18003KT 10SM OVC070 10/09 A3009 RMK AO2 T00990091,M
DRA,2023-06-11 05:53,-116.0278,36.6206,1009.00,75.00,30.90,19.73,360.00,4.00,0.00,29.78,1003.70,10.00,M,CLR,M,M,M,M,M,M,M,M,M,M,M,M,M,M,75.00,KDRA 110553Z AUTO 36004KT 10SM CLR 24/M01 A2978 RMK AO2 SLP037 T02391006 10317 20239 50002,M
ELY,2023-06-11 05:53,-114.8453,39.2950,1909.00,54.00,41.00,61.32,30.00,8.00,0.00,30.04,1008.60,10.00,M,CLR,M,M,M,M,M,M,M,M,M,M,M,M,M,M,54.00,KELY 110553Z AUTO 03008KT 10SM CLR 12/05 A3004 RMK AO2 SLP086 T01220050 10189 20117 51009,M
VGT,2023-06-11 05:53,-115.1933,36.2111,667.00,84.00,34.00,16.63,190.00,4.00,0.00,29.72,1005.30,10.00,M,CLR,M,M,M,M,M,M,M,M,M,M,M,M,M,M,81.16,KVGT 110553Z AUTO 19004KT 10SM CLR 29/01 A2972 RMK AO2 SLP053 T02890011 10333 20289 51003,M
LOL,2023-06-11 05:53,-118.5701,40.0684,1192.43,57.00,52.00,83.33,0.00,0.00,0.00,29.99,1012.90,10.00,M,CLR,M,M,M,M,M,M,M,M,M,M,M,M,M,M,57.00,KLOL 110553Z AUTO 00000KT 10SM CLR 14/11 A2999 RMK AO2 SLP129 60001 T01390111 10228 20133 53006,M
P68,2023-06-11 05:53,-116.0056,39.6014,1993.00,51.00,49.00,92.14,60.00,7.00,0.04,30.07,1012.10,M,M,M,M,M,M,M,M,M,M,M,M,M,M,M,M,M,51.10,KP68 110553Z AUTO 06007KT 11/09 A3007 RMK AO1 WSHFT 0502 SLP121 P0004 60012 T01060094 10172 20100 50013,M
BVU,2023-06-11 05:55,-114.8611,35.9475,671.00,78.80,24.80,13.54,0.00,0.00,0.00,29.73,M,10.00,M,CLR,M,M,M,M,M,M,M,M,M,M,M,M,M,M,78.80,KBVU 110555Z AUTO 00000KT 10SM CLR 26/M04 A2973 RMK AO2,M
CXP,2023-06-11 05:55,-119.7326,39.1923,1431.00,53.60,48.20,81.87,340.00,9.00,0.00,30.03,M,10.00,M,CLR,M,M,M,M,M,M,M,M,M,M,M,M,M,M,53.60,KCXP 110555Z AUTO 34009KT 10SM CLR 12/09 A3003 RMK AO2,M
INS,2023-06-11 05:55,-115.6733,36.5872,955.00,75.40,28.90,17.94,270.00,5.00,0.00,29.78,1003.70,10.00,M,SCT,SCT,M,M,18000.00,21000.00,M,M,M,M,M,M,M,M,M,75.40,KINS 110555Z AUTO 27005KT 10SM SCT180 SCT210 24/M02 A2978 RMK AO2 SLP037 T02411017 10304 20238 52005 $,M
RTS,2023-06-11 05:55,-119.8764,39.6682,1539.00,50.00,48.20,93.50,280.00,3.00,0.00,30.05,M,10.00,M,CLR,M,M,M,M,M,M,M,M,M,M,M,M,M,M,50.00,KRTS 110555Z AUTO 28003KT 10SM CLR 10/09 A3005 RMK AO2,M
MEV,2023-06-11 05:55,-119.7500,38.9963,1441.42,50.00,48.20,93.50,360.00,4.00,0.00,30.02,M,10.00,M,CLR,M,M,M,M,M,M,M,M,M,M,M,M,M,M,50.00,KMEV 110555Z AUTO 36004KT 10SM CLR 10/09 A3002 RMK AO2,M
BAM,2023-06-11 05:55,-116.8743,40.5990,1382.36,59.00,51.80,76.98,0.00,0.00,0.00,30.03,M,10.00,M,OVC,M,M,M,11000.00,M,M,M,M,M,M,M,M,M,M,59.00,KBAM 110555Z AUTO 00000KT 10SM OVC110 15/11 A3003 RMK AO1,M
HTH,2023-06-11 05:55,-118.6315,38.5448,1282.89,57.20,53.60,87.74,0.00,0.00,0.00,29.99,M,10.00,M,FEW,M,M,M,12000.00,M,M,M,M,M,M,M,M,M,M,57.20,KHTH 110555Z AUTO 00000KT 10SM FEW120 14/12 A2999 RMK A01,M
TMT,2023-06-11 05:55,-117.1971,39.4643,1749.34,49.30,48.40,96.69,0.00,0.00,0.01,30.08,M,10.00,M,SCT,OVC,M,M,5500.00,7000.00,M,M,-RA,M,M,M,M,M,M,49.30,KTMT 110555Z AUTO 00000KT 10SM -RA SCT055 OVC070 10/09 A3008 RMK AO2 LTG DSNT S P0001 60011 T00960091 10179 20096,M
LSV,2023-06-11 05:55,-115.0343,36.2362,570.00,82.00,26.20,12.92,140.00,6.00,0.00,29.68,1002.50,10.00,M,CLR,M,M,M,M,M,M,M,M,M,M,M,M,M,M,79.63,KLSV 110555Z AUTO 14006KT 10SM CLR 28/M03 A2968 RMK AO2 SLP025 T02781032 10332 20278 51005 $,M
RNO,2023-06-11 05:55,-119.7711,39.4839,1341.00,55.00,51.00,86.66,310.00,3.00,0.00,30.02,1012.50,10.00,M,FEW,BKN,BKN,M,3500.00,12000.00,20000.00,M,M,M,M,M,M,M,M,55.00,KRNO 110555Z 31003KT 10SM FEW035 BKN120 BKN200 13/11 A3002 RMK AO2 SLP125 60007 T01280106 10161 20128 53002,M
WMC,2023-06-11 05:56,-117.8072,40.9019,1315.00,59.00,54.00,83.46,360.00,4.00,0.00,30.00,1012.20,10.00,M,OVC,M,M,M,12000.00,M,M,M,M,M,M,M,M,M,M,59.00,KWMC 110556Z AUTO 36004KT 10SM OVC120 15/12 A3000 RMK AO2 SLP122 60003 T01500122 10189 20139 50007,M
HND,2023-06-11 05:56,-115.1344,35.9729,742.79,78.00,28.90,16.41,220.00,4.00,0.00,29.77,1006.70,10.00,M,CLR,M,M,M,M,M,M,M,M,M,M,M,M,M,M,78.10,KHND 110556Z AUTO 22004KT 10SM CLR 26/M02 A2977 RMK AO2 SLP067 T02561017 10322 20244 50003,M
TPH,2023-06-11 05:56,-117.0904,38.0505,1654.00,57.00,46.00,66.59,310.00,13.00,0.00,29.97,1008.80,10.00,M,CLR,M,M,M,M,M,M,M,M,M,M,M,M,M,M,57.00,KTPH 110556Z AUTO 31013KT 10SM CLR 14/08 A2997 RMK AO2 SLP088 T01390078 10217 20139 53000,M
LAS,2023-06-11 05:56,-115.1634,36.0719,663.00,81.00,30.90,16.18,160.00,3.00,0.00,29.73,1003.90,10.00,M,FEW,BKN,M,M,16000.00,22000.00,M,M,M,M,M,M,M,M,M,79.04,KLAS 110556Z 16003KT 10SM FEW160 BKN220 27/M01 A2973 RMK AO2 SLP039 T02721006 10322 20272 50003,M
EKO,2023-06-11 05:56,-115.7860,40.8242,1367.00,54.00,49.00,82.82,0.00,0.00,0.00,30.02,1012.60,10.00,M,CLR,M,M,M,M,M,M,M,M,M,M,M,M,M,M,54.00,KEKO 110556Z AUTO 00000KT 10SM CLR 12/09 A3002 RMK AO2 SLP126 60000 T01220094 10206 20122 50000,M
NFL,2023-06-11 05:56,-118.7010,39.4166,1199.00,56.00,53.00,90.29,0.00,0.00,0.00,29.99,1012.70,10.00,M,CLR,M,M,M,M,M,M,M,M,M,M,M,M,M,M,55.90,KNFL 110556Z AUTO 00000KT 10SM CLR 13/12 A2999 RMK AO2 SLP127 60002 T01330117 10167 20133 51010,M
BVU,2023-06-11 06:15,-114.8611,35.9475,671.00,73.40,35.60,25.13,70.00,4.00,0.00,29.73,M,10.00,M,CLR,M,M,M,M,M,M,M,M,M,M,M,M,M,M,73.40,KBVU 110615Z AUTO 07004KT 10SM CLR 23/02 A2973 RMK AO2,M
CXP,2023-06-11 06:15,-119.7326,39.1923,1431.00,51.80,48.20,87.47,350.00,4.00,0.00,30.03,M,10.00,10.00,CLR,M,M,M,M,M,M,M,M,M,M,M,M,M,M,51.80,KCXP 110615Z AUTO 35004G10KT 10SM CLR 11/09 A3003 RMK AO2,M
RTS,2023-06-11 06:15,-119.8764,39.6682,1539.00,48.20,48.20,100.00,0.00,0.00,0.00,30.05,M,10.00,M,CLR,M,M,M,M,M,M,M,M,M,M,M,M,M,M,48.20,KRTS 110615Z AUTO 00000KT 10SM CLR 09/09 A3005 RMK AO2,M
MEV,2023-06-11 06:15,-119.7500,38.9963,1441.42,50.00,48.20,93.50,360.00,6.00,0.00,30.02,M,10.00,M,CLR,M,M,M,M,M,M,M,M,M,M,M,M,M,M,50.00,KMEV 110615Z AUTO 36006KT 10SM CLR 10/09 A3002 RMK AO2,M
BAM,2023-06-11 06:15,-116.8743,40.5990,1382.36,59.00,51.80,76.98,0.00,0.00,0.00,30.02,M,10.00,M,BKN,M,M,M,12000.00,M,M,M,M,M,M,M,M,M,M,59.00,KBAM 110615Z AUTO 00000KT 10SM BKN120 15/11 A3002 RMK AO1,M
HTH,2023-06-11 06:15,-118.6315,38.5448,1282.89,55.40,55.40,100.00,100.00,6.00,0.00,29.99,M,10.00,M,CLR,M,M,M,M,M,M,M,M,M,M,M,M,M,M,55.40,KHTH 110615Z AUTO 10006KT 10SM CLR 13/13 A2999 RMK A01,M
TMT,2023-06-11 06:15,-117.1971,39.4643,1749.34,49.60,48.70,96.70,20.00,5.00,0.00,30.05,M,10.00,M,BKN,OVC,M,M,7000.00,8000.00,M,M,-DZ,M,M,M,M,M,M,47.30,KTMT 110615Z AUTO 02005KT 10SM -DZ BKN070 OVC080 10/09 A3005 RMK AO2 T00980093,M
HTH,2023-06-11 06:30,-118.6315,38.5448,1282.89,55.40,53.60,93.65,150.00,6.00,0.00,29.99,M,10.00,M,CLR,M,M,M,M,M,M,M,M,M,M,M,M,M,M,55.40,KHTH 110630Z AUTO 15006KT 10SM CLR 13/12 A2999 RMK A01,M
BVU,2023-06-11 06:35,-114.8611,35.9475,671.00,73.40,33.80,23.39,0.00,0.00,0.00,29.73,M,10.00,M,CLR,M,M,M,M,M,M,M,M,M,M,M,M,M,M,73.40,KBVU 110635Z AUTO 00000KT 10SM CLR 23/01 A2973 RMK AO2,M
CXP,2023-06-11 06:35,-119.7326,39.1923,1431.00,51.80,48.20,87.47,30.00,3.00,0.00,30.03,M,10.00,M,FEW,M,M,M,12000.00,M,M,M,M,M,M,M,M,M,M,51.80,KCXP 110635Z AUTO 03003KT 10SM FEW120 11/09 A3003 RMK AO2,M
RTS,2023-06-11 06:35,-119.8764,39.6682,1539.00,48.20,48.20,100.00,0.00,0.00,0.00,30.05,M,10.00,M,CLR,M,M,M,M,M,M,M,M,M,M,M,M,M,M,48.20,KRTS 110635Z AUTO 00000KT 10SM CLR 09/09 A3005 RMK AO2,M
MEV,2023-06-11 06:35,-119.7500,38.9963,1441.42,48.20,46.40,93.45,90.00,3.00,0.00,30.02,M,10.00,M,FEW,M,M,M,5500.00,M,M,M,M,M,M,M,M,M,M,47.21,KMEV 110635Z AUTO 09003KT 10SM FEW055 09/08 A3002 RMK AO2,M
BAM,2023-06-11 06:35,-116.8743,40.5990,1382.36,55.40,51.80,87.65,170.00,3.00,0.00,30.02,M,10.00,M,OVC,M,M,M,12000.00,M,M,M,M,M,M,M,M,M,M,55.40,KBAM 110635Z AUTO 17003KT 10SM OVC120 13/11 A3002 RMK AO1,M
TMT,2023-06-11 06:35,-117.1971,39.4643,1749.34,49.50,48.60,96.69,360.00,3.00,0.00,30.05,M,10.00,M,SCT,M,M,M,9000.00,M,M,M,M,M,M,M,M,M,M,48.69,KTMT 110635Z AUTO 36003KT 10SM SCT090 10/09 A3005 RMK AO2 T00970092,M
P68,2023-06-11 06:53,-116.0056,39.6014,1993.00,51.00,48.00,89.09,220.00,3.00,0.00,30.07,1011.80,M,M,M,M,M,M,M,M,M,M,M,M,M,M,M,M,M,51.10,KP68 110653Z AUTO 22003KT 11/09 A3007 RMK AO1 SLP118 T01060089,M
DRA,2023-06-11 06:53,-116.0278,36.6206,1009.00,73.00,32.00,22.06,40.00,6.00,0.00,29.78,1003.50,10.00,M,CLR,M,M,M,M,M,M,M,M,M,M,M,M,M,M,73.00,KDRA 110653Z AUTO 04006KT 10SM CLR 23/00 A2978 RMK AO2 SLP035 T02280000,M
VGT,2023-06-11 06:53,-115.1933,36.2111,667.00,82.00,34.00,17.74,200.00,5.00,0.00,29.72,1005.20,10.00,M,CLR,M,M,M,M,M,M,M,M,M,M,M,M,M,M,79.77,KVGT 110653Z AUTO 20005KT 10SM CLR 28/01 A2972 RMK AO2 SLP052 T02780011,M
ELY,2023-06-11 06:53,-114.8453,39.2950,1909.00,51.00,42.00,71.19,360.00,7.00,0.00,30.03,1008.90,10.00,M,CLR,M,M,M,M,M,M,M,M,M,M,M,M,M,M,51.10,KELY 110653Z AUTO 36007KT 10SM CLR 11/06 A3003 RMK AO2 SLP089 T01060056,M
LOL,2023-06-11 06:53,-118.5701,40.0684,1192.43,56.00,53.00,90.29,30.00,3.00,0.00,29.98,1012.30,10.00,M,BKN,M,M,M,9000.00,M,M,M,M,M,M,M,M,M,M,55.90,KLOL 110653Z AUTO 03003KT 10SM BKN090 13/12 A2998 RMK AO2 SLP123 T01330117,M
BVU,2023-06-11 06:55,-114.8611,35.9475,671.00,75.20,33.80,22.02,0.00,0.00,0.00,29.73,M,10.00,M,CLR,M,M,M,M,M,M,M,M,M,M,M,M,M,M,75.20,KBVU 110655Z AUTO 00000KT 10SM CLR 24/01 A2973 RMK AO2,M
CXP,2023-06-11 06:55,-119.7326,39.1923,1431.00,51.80,48.20,87.47,0.00,0.00,0.00,30.03,M,10.00,M,FEW,M,M,M,12000.00,M,M,M,M,M,M,M,M,M,M,51.80,KCXP 110655Z AUTO 00000KT 10SM FEW120 11/09 A3003 RMK AO2,M
INS,2023-06-11 06:55,-115.6733,36.5872,955.00,73.40,28.60,18.95,0.00,0.00,0.00,29.78,1003.70,10.00,M,SCT,M,M,M,20000.00,M,M,M,M,M,M,M,M,M,M,73.40,KINS 110655Z AUTO 00000KT 10SM SCT200 23/M02 A2978 RMK AO2 SLP037 T02301019 $,M
RTS,2023-06-11 06:55,-119.8764,39.6682,1539.00,48.20,48.20,100.00,270.00,4.00,0.00,30.04,M,10.00,M,BKN,M,M,M,2300.00,M,M,M,M,M,M,M,M,M,M,46.34,KRTS 110655Z AUTO 27004KT 10SM BKN023 09/09 A3004 RMK AO2,M
MEV,2023-06-11 06:55,-119.7500,38.9963,1441.42,46.40,44.60,93.40,120.00,4.00,0.00,30.01,M,10.00,M,FEW,SCT,BKN,M,2700.00,6000.00,12000.00,M,M,M,M,M,M,M,M,44.24,KMEV 110655Z AUTO 12004KT 10SM FEW027 SCT060 BKN120 08/07 A3001 RMK AO2,M
BAM,2023-06-11 06:55,-116.8743,40.5990,1382.36,55.40,51.80,87.65,190.00,4.00,0.00,30.02,M,10.00,M,BKN,M,M,M,12000.00,M,M,M,M,M,M,M,M,M,M,55.40,KBAM 110655Z AUTO 19004KT 10SM BKN120 13/11 A3002 RMK AO1,M
HTH,2023-06-11 06:55,-118.6315,38.5448,1282.89,55.40,51.80,87.65,100.00,5.00,0.00,29.98,M,10.00,M,FEW,M,M,M,11000.00,M,M,M,M,M,M,M,M,M,M,55.40,KHTH 110655Z AUTO 10005KT 10SM FEW110 13/11 A2998 RMK A01,M
LSV,2023-06-11 06:55,-115.0343,36.2362,570.00,80.00,28.20,14.93,140.00,6.00,0.00,29.68,1002.50,10.00,M,FEW,M,M,M,21000.00,M,M,M,M,M,M,M,M,M,M,78.51,KLSV 110655Z AUTO 14006KT 10SM FEW210 27/M02 A2968 RMK AO2 SLP025 T02671021 $,M
TMT,2023-06-11 06:55,-117.1971,39.4643,1749.34,48.40,47.80,97.77,0.00,0.00,0.00,30.05,M,10.00,M,CLR,M,M,M,M,M,M,M,M,M,M,M,M,M,M,48.40,KTMT 110655Z AUTO 00000KT 10SM CLR 09/09 A3005 RMK AO2 T00910088,M
RNO,2023-06-11 06:55,-119.7711,39.4839,1341.00,54.00,51.00,89.88,0.00,0.00,0.00,30.01,1012.20,10.00,M,FEW,SCT,M,M,3500.00,12000.00,M,M,M,M,M,M,M,M,M,54.00,KRNO 110655Z 00000KT 10SM FEW035 SCT120 12/11 A3001 RMK AO2 SLP122 T01220106,M
EKO,2023-06-11 06:56,-115.7860,40.8242,1367.00,52.00,48.00,86.17,240.00,4.00,0.00,30.02,1012.40,10.00,M,CLR,M,M,M,M,M,M,M,M,M,M,M,M,M,M,52.00,KEKO 110656Z AUTO 24004KT 10SM CLR 11/09 A3002 RMK AO2 SLP124 T01110089,M
WMC,2023-06-11 06:56,-117.8072,40.9019,1315.00,56.00,52.00,86.71,320.00,3.00,0.00,29.98,1011.50,10.00,M,CLR,M,M,M,M,M,M,M,M,M,M,M,M,M,M,55.90,KWMC 110656Z AUTO 32003KT 10SM CLR 13/11 A2998 RMK AO2 SLP115 T01330111,M
HND,2023-06-11 06:56,-115.1344,35.9729,742.79,77.00,28.90,17.01,220.00,6.00,0.00,29.76,1006.50,10.00,M,CLR,M,M,M,M,M,M,M,M,M,M,M,M,M,M,77.00,KHND 110656Z AUTO 22006KT 10SM CLR 25/M02 A2976 RMK AO2 SLP065 T02501017 403330206,M
LAS,2023-06-11 06:56,-115.1634,36.0719,663.00,79.00,30.90,17.28,220.00,3.00,0.00,29.72,1003.80,10.00,M,FEW,BKN,M,M,16000.00,22000.00,M,M,M,M,M,M,M,M,M,79.00,KLAS 110656Z 22003KT 10SM FEW160 BKN220 26/M01 A2972 RMK AO2 SLP038 T02611006,M
TPH,2023-06-11 06:56,-117.0904,38.0505,1654.00,54.00,47.00,76.83,300.00,14.00,0.00,29.96,1008.60,10.00,M,SCT,M,M,M,10000.00,M,M,M,M,M,M,M,27.00,300.00,2023-06-11 06:18,54.00,KTPH 110656Z AUTO 30014KT 10SM SCT100 12/08 A2996 RMK AO2 PK WND 30027/0618 LTG DSNT SE SLP086 T01220083,M
NFL,2023-06-11 06:56,-118.7010,39.4166,1199.00,56.00,53.00,90.29,330.00,5.00,0.00,29.96,1011.70,10.00,M,CLR,M,M,M,M,M,M,M,M,M,M,M,M,M,M,55.90,KNFL 110656Z AUTO 33005KT 10SM CLR 13/12 A2996 RMK AO2 SLP117 T01330117,M
BVU,2023-06-11 07:15,-114.8611,35.9475,671.00,75.20,35.60,23.66,80.00,3.00,0.00,29.72,M,10.00,M,CLR,M,M,M,M,M,M,M,M,M,M,M,M,M,M,75.20,KBVU 110715Z AUTO 08003KT 10SM CLR 24/02 A2972 RMK AO2,M
CXP,2023-06-11 07:15,-119.7326,39.1923,1431.00,51.80,48.20,87.47,320.00,3.00,0.00,30.02,M,10.00,M,CLR,M,M,M,M,M,M,M,M,M,M,M,M,M,M,51.80,KCXP 110715Z AUTO 32003KT 10SM CLR 11/09 A3002 RMK AO2,M
RTS,2023-06-11 07:15,-119.8764,39.6682,1539.00,48.20,46.40,93.45,310.00,3.00,0.00,30.03,M,10.00,M,SCT,M,M,M,2300.00,M,M,M,M,M,M,M,M,M,M,47.21,KRTS 110715Z AUTO 31003KT 10SM SCT023 09/08 A3003 RMK AO2,M
MEV,2023-06-11 07:15,-119.7500,38.9963,1441.42,46.40,44.60,93.40,0.00,0.00,0.00,30.01,M,10.00,M,SCT,SCT,OVC,M,6000.00,7000.00,12000.00,M,M,M,M,M,M,M,M,46.40,KMEV 110715Z AUTO 00000KT 10SM SCT060 SCT070 OVC120 08/07 A3001 RMK AO2,M
BAM,2023-06-11 07:15,-116.8743,40.5990,1382.36,55.40,51.80,87.65,0.00,0.00,0.00,30.01,M,10.00,M,SCT,M,M,M,12000.00,M,M,M,M,M,M,M,M,M,M,55.40,KBAM 110715Z AUTO 00000KT 10SM SCT120 13/11 A3001 RMK AO1,M
HTH,2023-06-11 07:15,-118.6315,38.5448,1282.89,55.40,53.60,93.65,80.00,3.00,0.00,29.97,M,10.00,M,FEW,SCT,BKN,M,7500.00,9500.00,12000.00,M,M,M,M,M,M,M,M,55.40,KHTH 110715Z AUTO 08003KT 10SM FEW075 SCT095 BKN120 13/12 A2997 RMK A01,M
TMT,2023-06-11 07:15,-117.1971,39.4643,1749.34,48.20,47.80,98.51,190.00,4.00,0.00,30.05,M,10.00,M,CLR,M,M,M,M,M,M,M,M,M,M,M,M,M,M,46.34,KTMT 110715Z AUTO 19004KT 10SM CLR 09/09 A3005 RMK AO2 T00900088,M
BVU,2023-06-11 07:35,-114.8611,35.9475,671.00,73.40,37.40,26.98,0.00,0.00,0.00,29.72,M,10.00,M,CLR,M,M,M,M,M,M,M,M,M,M,M,M,M,M,73.40,KBVU 110735Z AUTO 00000KT 10SM CLR 23/03 A2972 RMK AO2,M
CXP,2023-06-11 07:35,-119.7326,39.1923,1431.00,51.80,48.20,87.47,0.00,0.00,0.00,30.02,M,10.00,10.00,FEW,M,M,M,11000.00,M,M,M,M,M,M,M,M,M,M,51.80,KCXP 110735Z AUTO 00000G10KT 10SM FEW110 11/09 A3002 RMK AO2,M
RTS,2023-06-11 07:35,-119.8764,39.6682,1539.00,46.40,46.40,100.00,0.00,0.00,0.00,30.03,M,10.00,M,CLR,M,M,M,M,M,M,M,M,M,M,M,M,M,M,46.40,KRTS 110735Z AUTO 00000KT 10SM CLR 08/08 A3003 RMK AO2,M
MEV,2023-06-11 07:35,-119.7500,38.9963,1441.42,44.60,42.80,93.35,130.00,4.00,0.00,30.01,M,10.00,M,SCT,OVC,M,M,5500.00,11000.00,M,M,M,M,M,M,M,M,M,42.13,KMEV 110735Z AUTO 13004KT 10SM SCT055 OVC110 07/06 A3001 RMK AO2,M
BAM,2023-06-11 07:35,-116.8743,40.5990,1382.36,55.40,51.80,87.65,0.00,0.00,0.00,30.01,M,10.00,M,SCT,M,M,M,8500.00,M,M,M,M,M,M,M,M,M,M,55.40,KBAM 110735Z AUTO 00000KT 10SM SCT085 13/11 A3001 RMK AO1,M
HTH,2023-06-11 07:35,-118.6315,38.5448,1282.89,55.40,53.60,93.65,120.00,4.00,0.00,29.97,M,10.00,M,SCT,M,M,M,10000.00,M,M,M,M,M,M,M,M,M,M,55.40,KHTH 110735Z AUTO 12004KT 10SM SCT100 13/12 A2997 RMK A01,M
TMT,2023-06-11 07:35,-117.1971,39.4643,1749.34,46.60,46.40,99.25,160.00,4.00,0.00,30.05,M,10.00,M,CLR,M,M,M,M,M,M,M,M,M,M,M,M,M,M,44.47,KTMT 110735Z AUTO 16004KT 10SM CLR 08/08 A3005 RMK AO2 T00810080,M
P68,2023-06-11 07:53,-116.0056,39.6014,1993.00,50.00,48.00,92.80,M,3.00,0.00,30.03,1010.20,M,M,M,M,M,M,M,M,M,M,M,M,M,M,M,M,M,50.00,KP68 110753Z AUTO VRB03KT 10/09 A3003 RMK AO1 SLP102 T01000089 402330039,M
DRA,2023-06-11 07:53,-116.0278,36.6206,1009.00,71.00,30.90,22.50,360.00,3.00,0.00,29.77,1003.30,10.00,M,CLR,M,M,M,M,M,M,M,M,M,M,M,M,M,M,71.10,KDRA 110753Z AUTO 36003KT 10SM CLR 22/M01 A2977 RMK AO2 SLP033 T02171006 403220178,M
ELY,2023-06-11 07:53,-114.8453,39.2950,1909.00,49.00,41.00,74.05,30.00,6.00,0.00,30.02,1008.70,10.00,M,CLR,M,M,M,M,M,M,M,M,M,M,M,M,M,M,45.88,KELY 110753Z AUTO 03006KT 10SM CLR 09/05 A3002 RMK AO2 SLP087 T00940050 402170039,M
VGT,2023-06-11 07:53,-115.1933,36.2111,667.00,80.00,34.00,18.88,280.00,3.00,0.00,29.71,1005.00,10.00,M,CLR,M,M,M,M,M,M,M,M,M,M,M,M,M,M,78.70,KVGT 110753Z AUTO 28003KT 10SM CLR 27/01 A2971 RMK AO2 SLP050 T02670011 403440228,M
LOL,2023-06-11 07:53,-118.5701,40.0684,1192.43,54.00,51.00,89.88,310.00,3.00,0.00,29.96,1011.90,10.00,M,CLR,M,M,M,M,M,M,M,M,M,M,M,M,M,M,54.00,KLOL 110753Z AUTO 31003KT 10SM CLR 12/11 A2996 RMK AO2 SLP119 T01220106 402610078,M
BVU,2023-06-11 07:55,-114.8611,35.9475,671.00,71.60,39.20,30.77,0.00,0.00,0.00,29.72,M,10.00,M,CLR,M,M,M,M,M,M,M,M,M,M,M,M,M,M,71.60,KBVU 110755Z AUTO 00000KT 10SM CLR 22/04 A2972 RMK AO2,M
CXP,2023-06-11 07:55,-119.7326,39.1923,1431.00,51.80,48.20,87.47,0.00,0.00,0.00,30.01,M,10.00,12.00,BKN,M,M,M,12000.00,M,M,M,M,M,M,M,M,M,M,51.80,KCXP 110755Z AUTO 00000G12KT 10SM BKN120 11/09 A3001 RMK AO2,M
INS,2023-06-11 07:55,-115.6733,36.5872,955.00,71.60,30.70,21.94,140.00,4.00,0.00,29.77,1003.40,10.00,M,FEW,FEW,M,M,18000.00,20000.00,M,M,M,M,M,M,M,M,M,71.60,KINS 110755Z AUTO 14004KT 10SM FEW180 FEW200 22/M01 A2977 RMK AO2 SLP034 T02201007 403130165 $,M
RTS,2023-06-11 07:55,-119.8764,39.6682,1539.00,46.40,46.40,100.00,340.00,5.00,0.00,30.02,M,10.00,M,CLR,M,M,M,M,M,M,M,M,M,M,M,M,M,M,43.50,KRTS 110755Z AUTO 34005KT 10SM CLR 08/08 A3002 RMK AO2,M
MEV,2023-06-11 07:55,-119.7500,38.9963,1441.42,44.60,44.60,100.00,0.00,0.00,0.00,30.01,M,10.00,M,SCT,BKN,OVC,M,2700.00,5500.00,11000.00,M,M,M,M,M,M,M,M,44.60,KMEV 110755Z AUTO 00000KT 10SM SCT027 BKN055 OVC110 07/07 A3001 RMK AO2,M
BAM,2023-06-11 07:55,-116.8743,40.5990,1382.36,51.80,50.00,93.55,130.00,4.00,0.00,30.00,M,10.00,M,OVC,M,M,M,8500.00,M,M,M,M,M,M,M,M,M,M,51.80,KBAM 110755Z AUTO 13004KT 10SM OVC085 11/10 A3000 RMK AO1,M
HTH,2023-06-11 07:55,-118.6315,38.5448,1282.89,55.40,53.60,93.65,140.00,6.00,0.00,29.97,M,10.00,M,FEW,FEW,SCT,M,2800.00,3500.00,6500.00,M,M,M,M,M,M,M,M,55.40,KHTH 110755Z AUTO 14006KT 10SM FEW028 FEW035 SCT065 13/12 A2997 RMK A01,M
LSV,2023-06-11 07:55,-115.0343,36.2362,570.00,76.50,27.00,16.00,320.00,5.00,0.00,29.68,1002.60,10.00,M,CLR,M,M,M,M,M,M,M,M,M,M,M,M,M,M,76.50,KLSV 110755Z AUTO 32005KT 10SM CLR 25/M03 A2968 RMK AO2 SLP026 T02471028 403530217 $,M
TMT,2023-06-11 07:55,-117.1971,39.4643,1749.34,45.50,45.00,98.12,130.00,3.00,0.00,30.03,M,10.00,M,CLR,M,M,M,M,M,M,M,M,M,M,M,M,M,M,44.12,KTMT 110755Z AUTO 13003KT 10SM CLR 08/07 A3003 RMK AO2 T00750072 402050075,M
RNO,2023-06-11 07:55,-119.7711,39.4839,1341.00,54.00,49.00,82.82,0.00,0.00,0.00,30.00,1011.60,10.00,M,FEW,SCT,BKN,M,2300.00,8000.00,18000.00,M,M,M,M,M,M,M,M,54.00,KRNO 110755Z 00000KT 10SM FEW023 SCT080 BKN180 12/09 A3000 RMK AO2 SLP116 T01220094 402560117,M
NFL,2023-06-11 07:56,-118.7010,39.4166,1199.00,57.00,52.00,83.33,240.00,4.00,0.00,29.94,1011.30,10.00,M,BKN,M,M,M,11000.00,M,M,M,M,M,M,M,M,M,M,57.00,KNFL 110756Z AUTO 24004KT 10SM BKN110 14/11 A2994 RMK AO2 SLP113 T01390111 402610122,M
HND,2023-06-11 07:56,-115.1344,35.9729,742.79,73.00,30.00,20.34,180.00,6.00,0.00,29.75,1006.20,10.00,M,CLR,M,M,M,M,M,M,M,M,M,M,M,M,M,M,73.00,KHND 110756Z AUTO 18006KT 10SM CLR 23/M01 A2975 RMK AO2 SLP062 T02281011,M
TPH,2023-06-11 07:56,-117.0904,38.0505,1654.00,57.00,48.00,71.81,350.00,11.00,T,29.96,1007.70,10.00,19.00,FEW,SCT,BKN,M,3300.00,4000.00,7500.00,M,-RA,M,M,M,M,M,M,57.00,KTPH 110756Z AUTO 35011G19KT 10SM -RA FEW033 SCT040 BKN075 14/09 A2996 RMK AO2 RAB41 SLP077 P0000 T01390089 402500122,M
LAS,2023-06-11 07:56,-115.1634,36.0719,663.00,78.00,30.90,17.80,230.00,5.00,0.00,29.71,1003.50,10.00,M,FEW,BKN,M,M,16000.00,22000.00,M,M,M,M,M,M,M,M,M,78.10,KLAS 110756Z 23005KT 10SM FEW160 BKN220 26/M01 A2971 RMK AO2 SLP035 T02561006 403330228,M
EKO,2023-06-11 07:56,-115.7860,40.8242,1367.00,52.00,47.00,82.68,0.00,0.00,0.00,30.02,1012.20,10.00,M,SCT,M,M,M,10000.00,M,M,M,M,M,M,M,M,M,M,52.00,KEKO 110756Z AUTO 00000KT 10SM SCT100 11/08 A3002 RMK AO2 SLP122 T01110083 402500083,M
WMC,2023-06-11 07:56,-117.8072,40.9019,1315.00,53.00,51.00,92.89,240.00,5.00,0.00,29.96,1010.80,10.00,M,OVC,M,M,M,12000.00,M,M,M,M,M,M,M,M,M,M,53.10,KWMC 110756Z AUTO 24005KT 10SM OVC120 12/11 A2996 RMK AO2 SLP108 T01170106 402780050,M
BVU,2023-06-11 08:15,-114.8611,35.9475,671.00,73.40,37.40,26.98,0.00,0.00,0.00,29.71,M,10.00,M,CLR,M,M,M,M,M,M,M,M,M,M,M,M,M,M,73.40,KBVU 110815Z AUTO 00000KT 10SM CLR 23/03 A2971 RMK AO2,M
CXP,2023-06-11 08:15,-119.7326,39.1923,1431.00,51.80,48.20,87.47,340.00,5.00,0.00,30.01,M,10.00,M,SCT,M,M,M,12000.00,M,M,M,M,M,M,M,M,M,M,51.80,KCXP 110815Z AUTO 34005KT 10SM SCT120 11/09 A3001 RMK AO2,M
RTS,2023-06-11 08:15,-119.8764,39.6682,1539.00,46.40,46.40,100.00,350.00,6.00,0.00,30.02,M,10.00,M,CLR,M,M,M,M,M,M,M,M,M,M,M,M,M,M,42.87,KRTS 110815Z AUTO 35006KT 10SM CLR 08/08 A3002 RMK AO2,M
MEV,2023-06-11 08:15,-119.7500,38.9963,1441.42,46.40,44.60,93.40,0.00,0.00,0.00,30.00,M,10.00,M,FEW,BKN,M,M,2700.00,6000.00,M,M,M,M,M,M,M,M,M,46.40,KMEV 110815Z AUTO 00000KT 10SM FEW027 BKN060 08/07 A3000 RMK AO2,M
BAM,2023-06-11 08:15,-116.8743,40.5990,1382.36,51.80,50.00,93.55,230.00,3.00,0.00,30.00,M,10.00,M,SCT,M,M,M,8500.00,M,M,M,M,M,M,M,M,M,M,51.80,KBAM 110815Z AUTO 23003KT 10SM SCT085 11/10 A3000 RMK AO1,M
HTH,2023-06-11 08:15,-118.6315,38.5448,1282.89,55.40,51.80,87.65,0.00,0.00,0.00,29.97,M,10.00,M,CLR,M,M,M,M,M,M,M,M,M,M,M,M,M,M,55.40,KHTH 110815Z AUTO 00000KT 10SM CLR 13/11 A2997 RMK A01,M
TMT,2023-06-11 08:15,-117.1971,39.4643,1749.34,44.60,44.40,99.24,0.00,0.00,0.00,30.03,M,10.00,M,CLR,M,M,M,M,M,M,M,M,M,M,M,M,M,M,44.60,KTMT 110815Z AUTO 00000KT 10SM CLR 07/07 A3003 RMK AO2 T00700069,M
BVU,2023-06-11 08:35,-114.8611,35.9475,671.00,71.60,35.60,26.71,0.00,0.00,0.00,29.71,M,10.00,M,CLR,M,M,M,M,M,M,M,M,M,M,M,M,M,M,71.60,KBVU 110835Z AUTO 00000KT 10SM CLR 22/02 A2971 RMK AO2,M
CXP,2023-06-11 08:35,-119.7326,39.1923,1431.00,51.80,48.20,87.47,0.00,0.00,0.00,30.00,M,10.00,M,CLR,M,M,M,M,M,M,M,M,M,M,M,M,M,M,51.80,KCXP 110835Z AUTO 00000KT 10SM CLR 11/09 A3000 RMK AO2,M
RTS,2023-06-11 08:35,-119.8764,39.6682,1539.00,46.40,46.40,100.00,350.00,4.00,0.00,30.01,M,10.00,M,CLR,M,M,M,M,M,M,M,M,M,M,M,M,M,M,44.24,KRTS 110835Z AUTO 35004KT 10SM CLR 08/08 A3001 RMK AO2,M
MEV,2023-06-11 08:35,-119.7500,38.9963,1441.42,44.60,42.80,93.35,80.00,3.00,0.00,29.99,M,10.00,M,BKN,BKN,BKN,M,2300.00,3400.00,6000.00,M,M,M,M,M,M,M,M,43.09,KMEV 110835Z AUTO 08003KT 10SM BKN023 BKN034 BKN060 07/06 A2999 RMK AO2,M
BAM,2023-06-11 08:35,-116.8743,40.5990,1382.36,51.80,50.00,93.55,250.00,5.00,0.00,30.00,M,10.00,M,CLR,M,M,M,M,M,M,M,M,M,M,M,M,M,M,51.80,KBAM 110835Z AUTO 25005KT 10SM CLR 11/10 A3000 RMK AO1,M
HTH,2023-06-11 08:35,-118.6315,38.5448,1282.89,55.40,51.80,87.65,0.00,0.00,0.00,29.96,M,10.00,M,CLR,M,M,M,M,M,M,M,M,M,M,M,M,M,M,55.40,KHTH 110835Z AUTO 00000KT 10SM CLR 13/11 A2996 RMK A01,M
TMT,2023-06-11 08:35,-117.1971,39.4643,1749.34,45.00,44.40,97.74,290.00,4.00,0.00,30.02,M,10.00,M,CLR,M,M,M,M,M,M,M,M,M,M,M,M,M,M,42.60,KTMT 110835Z AUTO 29004KT 10SM CLR 07/07 A3002 RMK AO2 LTG DSNT SW T00720069,M
DRA,2023-06-11 08:53,-116.0278,36.6206,1009.00,69.00,32.00,25.18,90.00,3.00,0.00,29.76,1002.90,10.00,M,CLR,M,M,M,M,M,M,M,M,M,M,M,M,M,M,69.10,KDRA 110853Z AUTO 09003KT 10SM CLR 21/00 A2976 RMK AO2 SLP029 T02060000 58006,M
VGT,2023-06-11 08:53,-115.1933,36.2111,667.00,76.00,37.00,24.43,330.00,4.00,0.00,29.70,1004.60,10.00,M,CLR,M,M,M,M,M,M,M,M,M,M,M,M,M,M,75.90,KVGT 110853Z AUTO 33004KT 10SM CLR 24/03 A2970 RMK AO2 SLP046 T02440028 58007,M
P68,2023-06-11 08:53,-116.0056,39.6014,1993.00,48.00,47.00,95.95,210.00,3.00,0.00,30.01,1009.70,M,M,M,M,M,M,M,M,M,M,M,M,M,M,M,M,M,46.98,KP68 110853Z AUTO 21003KT 09/08 A3001 RMK AO1 SLP097 T00890083 58017,M
ELY,2023-06-11 08:53,-114.8453,39.2950,1909.00,46.00,40.00,79.13,130.00,4.00,0.00,30.02,1008.90,10.00,M,FEW,M,M,M,11000.00,M,M,M,M,M,M,M,M,M,M,43.77,KELY 110853Z AUTO 13004KT 10SM FEW110 08/04 A3002 RMK AO2 SLP089 T00780044 56004,M
LOL,2023-06-11 08:53,-118.5701,40.0684,1192.43,52.00,49.00,89.13,0.00,0.00,0.00,29.93,1011.10,10.00,M,CLR,M,M,M,M,M,M,M,M,M,M,M,M,M,M,52.00,KLOL 110853Z AUTO 00000KT 10SM CLR 11/09 A2993 RMK AO2 SLP111 T01110094 58016,M
BVU,2023-06-11 08:55,-114.8611,35.9475,671.00,71.60,37.40,28.68,50.00,4.00,0.00,29.70,M,10.00,M,CLR,M,M,M,M,M,M,M,M,M,M,M,M,M,M,71.60,KBVU 110855Z AUTO 05004KT 10SM CLR 22/03 A2970 RMK AO2,M
CXP,2023-06-11 08:55,-119.7326,39.1923,1431.00,50.00,48.20,93.50,0.00,0.00,0.00,30.00,M,10.00,M,CLR,M,M,M,M,M,M,M,M,M,M,M,M,M,M,50.00,KCXP 110855Z AUTO 00000KT 10SM CLR 10/09 A3000 RMK AO2,M
INS,2023-06-11 08:55,-115.6733,36.5872,955.00,69.00,27.50,20.97,0.00,0.00,0.00,29.76,1003.00,10.00,M,M,M,M,M,M,M,M,M,M,M,M,M,M,M,M,69.10,KINS 110855Z AUTO 00000KT 10SM M 21/M02 A2976 RMK AO2 SLP030 T02061025 58007 $,M
RTS,2023-06-11 08:55,-119.8764,39.6682,1539.00,44.60,44.60,100.00,340.00,5.00,0.00,30.00,M,10.00,M,CLR,M,M,M,M,M,M,M,M,M,M,M,M,M,M,41.36,KRTS 110855Z AUTO 34005KT 10SM CLR 07/07 A3000 RMK AO2,M
MEV,2023-06-11 08:55,-119.7500,38.9963,1441.42,42.80,41.00,93.30,120.00,4.00,0.00,29.99,M,10.00,M,BKN,BKN,M,M,2300.00,6000.00,M,M,M,M,M,M,M,M,M,40.03,KMEV 110855Z AUTO 12004KT 10SM BKN023 BKN060 06/05 A2999 RMK AO2,M
BAM,2023-06-11 08:55,-116.8743,40.5990,1382.36,51.80,50.00,93.55,270.00,3.00,0.00,29.99,M,10.00,M,CLR,M,M,M,M,M,M,M,M,M,M,M,M,M,M,51.80,KBAM 110855Z AUTO 27003KT 10SM CLR 11/10 A2999 RMK AO1,M
HTH,2023-06-11 08:55,-118.6315,38.5448,1282.89,53.60,51.80,93.60,340.00,5.00,0.00,29.96,M,10.00,M,CLR,M,M,M,M,M,M,M,M,M,M,M,M,M,M,53.60,KHTH 110855Z AUTO 34005KT 10SM CLR 12/11 A2996 RMK A01,M
LSV,2023-06-11 08:55,-115.0343,36.2362,570.00,76.00,28.00,16.90,350.00,5.00,0.00,29.66,1001.90,10.00,M,CLR,M,M,M,M,M,M,M,M,M,M,M,M,M,M,76.10,KLSV 110855Z AUTO 35005KT 10SM CLR 25/M02 A2966 RMK AO2 SLP019 T02451022 58006 $,M
TMT,2023-06-11 08:55,-117.1971,39.4643,1749.34,46.00,45.70,99.25,280.00,3.00,0.00,30.02,M,7.00,M,CLR,M,M,M,M,M,M,M,M,M,M,M,M,M,M,44.58,KTMT 110855Z AUTO 28003KT 7SM CLR 08/08 A3002 RMK AO2 T00770076,M
RNO,2023-06-11 08:55,-119.7711,39.4839,1341.00,52.00,49.00,89.13,220.00,4.00,0.00,29.98,1010.90,10.00,M,SCT,SCT,BKN,M,2100.00,8000.00,15000.00,M,M,M,M,M,M,M,M,52.00,KRNO 110855Z 22004KT 10SM SCT021 SCT080 BKN150 11/09 A2998 RMK AO2 SLP109 T01110094 58013,M
EKO,2023-06-11 08:56,-115.7860,40.8242,1367.00,54.00,48.00,80.07,340.00,6.00,0.00,30.01,1011.60,10.00,M,FEW,FEW,OVC,M,6500.00,8000.00,10000.00,M,M,M,M,M,M,M,M,54.00,KEKO 110856Z AUTO 34006KT 10SM FEW065 FEW080 OVC100 12/09 A3001 RMK AO2 SLP116 T01220089 58004,M
WMC,2023-06-11 08:56,-117.8072,40.9019,1315.00,55.00,52.00,89.59,60.00,4.00,0.00,29.96,1010.70,10.00,M,CLR,M,M,M,M,M,M,M,M,M,M,M,M,M,M,55.00,KWMC 110856Z AUTO 06004KT 10SM CLR 13/11 A2996 RMK AO2 SLP107 T01280111 55012,M
NFL,2023-06-11 08:56,-118.7010,39.4166,1199.00,55.00,52.00,89.59,240.00,3.00,0.00,29.94,1011.10,10.00,M,CLR,M,M,M,M,M,M,M,M,M,M,M,M,M,M,55.00,KNFL 110856Z AUTO 24003KT 10SM CLR 13/11 A2994 RMK AO2 SLP111 T01280111 56016,M
HND,2023-06-11 08:56,-115.1344,35.9729,742.79,74.00,28.90,18.87,180.00,8.00,0.00,29.74,1005.70,10.00,M,CLR,M,M,M,M,M,M,M,M,M,M,M,M,M,M,73.90,KHND 110856Z AUTO 18008KT 10SM CLR 23/M02 A2974 RMK AO2 SLP057 T02331017 58009,M
TPH,2023-06-11 08:56,-117.0904,38.0505,1654.00,55.00,46.00,71.60,330.00,9.00,T,29.94,1008.40,10.00,M,CLR,M,M,M,M,M,M,M,M,M,M,M,M,M,M,55.00,KTPH 110856Z AUTO 33009KT 10SM CLR 13/08 A2994 RMK AO2 RAE0759 SLP084 P0000 60000 T01280078 58007,M
LAS,2023-06-11 08:56,-115.1634,36.0719,663.00,77.00,30.00,17.80,0.00,0.00,0.00,29.70,1003.00,10.00,M,FEW,BKN,M,M,16000.00,22000.00,M,M,M,M,M,M,M,M,M,77.00,KLAS 110856Z 00000KT 10SM FEW160 BKN220 25/M01 A2970 RMK AO2 SLP030 T02501011 58008,M
BVU,2023-06-11 09:15,-114.8611,35.9475,671.00,73.40,32.00,21.76,70.00,4.00,0.00,29.70,M,10.00,M,CLR,M,M,M,M,M,M,M,M,M,M,M,M,M,M,73.40,KBVU 110915Z AUTO 07004KT 10SM CLR 23/M00 A2970 RMK AO2,M
CXP,2023-06-11 09:15,-119.7326,39.1923,1431.00,50.00,48.20,93.50,0.00,0.00,0.00,29.99,M,10.00,M,CLR,M,M,M,M,M,M,M,M,M,M,M,M,M,M,50.00,KCXP 110915Z AUTO 00000KT 10SM CLR 10/09 A2999 RMK AO2,M
RTS,2023-06-11 09:15,-119.8764,39.6682,1539.00,44.60,44.60,100.00,340.00,4.00,0.00,30.00,M,10.00,M,CLR,M,M,M,M,M,M,M,M,M,M,M,M,M,M,42.13,KRTS 110915Z AUTO 34004KT 10SM CLR 07/07 A3000 RMK AO2,M
MEV,2023-06-11 09:15,-119.7500,38.9963,1441.42,42.80,41.00,93.30,120.00,4.00,0.00,29.98,M,10.00,M,FEW,BKN,M,M,2400.00,5500.00,M,M,M,M,M,M,M,M,M,40.03,KMEV 110915Z AUTO 12004KT 10SM FEW024 BKN055 06/05 A2998 RMK AO2,M
BAM,2023-06-11 09:15,-116.8743,40.5990,1382.36,50.00,48.20,93.50,0.00,0.00,0.00,29.97,M,10.00,M,CLR,M,M,M,M,M,M,M,M,M,M,M,M,M,M,50.00,KBAM 110915Z AUTO 00000KT 10SM CLR 10/09 A2997 RMK AO1,M
HTH,2023-06-11 09:15,-118.6315,38.5448,1282.89,53.60,53.60,100.00,0.00,0.00,0.00,29.97,M,10.00,M,FEW,M,M,M,12000.00,M,M,M,M,M,M,M,M,M,M,53.60,KHTH 110915Z AUTO 00000KT 10SM FEW120 12/12 A2997 RMK A01,M
TMT,2023-06-11 09:15,-117.1971,39.4643,1749.34,45.00,45.00,99.62,0.00,0.00,0.00,30.01,M,10.00,M,CLR,M,M,M,M,M,M,M,M,M,M,M,M,M,M,45.10,KTMT 110915Z AUTO 00000KT 10SM CLR 07/07 A3001 RMK AO2 LTG DSNT S T00730072,M
BVU,2023-06-11 09:35,-114.8611,35.9475,671.00,71.60,35.60,26.71,60.00,4.00,0.00,29.70,M,10.00,M,CLR,M,M,M,M,M,M,M,M,M,M,M,M,M,M,71.60,KBVU 110935Z AUTO 06004KT 10SM CLR 22/02 A2970 RMK AO2,M
CXP,2023-06-11 09:35,-119.7326,39.1923,1431.00,48.20,46.40,93.45,210.00,4.00,0.00,29.99,M,10.00,M,CLR,M,M,M,M,M,M,M,M,M,M,M,M,M,M,46.34,KCXP 110935Z AUTO 21004KT 10SM CLR 09/08 A2999 RMK AO2,M
RTS,2023-06-11 09:35,-119.8764,39.6682,1539.00,44.60,44.60,100.00,350.00,4.00,0.00,29.99,M,10.00,M,CLR,M,M,M,M,M,M,M,M,M,M,M,M,M,M,42.13,KRTS 110935Z AUTO 35004KT 10SM CLR 07/07 A2999 RMK AO2,M
MEV,2023-06-11 09:35,-119.7500,38.9963,1441.42,44.60,42.80,93.35,0.00,0.00,0.00,29.97,M,9.00,M,SCT,SCT,BKN,M,2400.00,3500.00,5000.00,M,M,M,M,M,M,M,M,44.60,KMEV 110935Z AUTO 00000KT 9SM SCT024 SCT035 BKN050 07/06 A2997 RMK AO2,M
BAM,2023-06-11 09:35,-116.8743,40.5990,1382.36,51.80,50.00,93.55,30.00,4.00,0.00,29.97,M,10.00,M,CLR,M,M,M,M,M,M,M,M,M,M,M,M,M,M,51.80,KBAM 110935Z AUTO 03004KT 10SM CLR 11/10 A2997 RMK AO1,M
HTH,2023-06-11 09:35,-118.6315,38.5448,1282.89,53.60,53.60,100.00,170.00,4.00,0.00,29.96,M,10.00,M,FEW,SCT,SCT,M,2900.00,10000.00,12000.00,M,M,M,M,M,M,M,M,53.60,KHTH 110935Z AUTO 17004KT 10SM FEW029 SCT100 SCT120 12/12 A2996 RMK A01,M
TMT,2023-06-11 09:35,-117.1971,39.4643,1749.34,43.30,43.20,99.62,0.00,0.00,0.00,30.01,M,10.00,M,CLR,M,M,M,M,M,M,M,M,M,M,M,M,M,M,43.30,KTMT 110935Z AUTO 00000KT 10SM CLR 06/06 A3001 RMK AO2 T00630062,M
P68,2023-06-11 09:53,-116.0056,39.6014,1993.00,46.00,45.00,96.28,170.00,5.00,0.00,29.99,1010.10,M,M,M,M,M,M,M,M,M,M,M,M,M,M,M,M,M,43.02,KP68 110953Z AUTO 17005KT 08/07 A2999 RMK AO1 SLP101 T00780072,M
DRA,2023-06-11 09:53,-116.0278,36.6206,1009.00,68.00,32.00,26.15,40.00,3.00,0.00,29.75,1002.40,10.00,M,CLR,M,M,M,M,M,M,M,M,M,M,M,M,M,M,68.00,KDRA 110953Z AUTO 04003KT 10SM CLR 20/00 A2975 RMK AO2 SLP024 T02000000,M
VGT,2023-06-11 09:53,-115.1933,36.2111,667.00,75.00,34.00,22.35,310.00,4.00,0.00,29.69,1004.30,10.00,M,CLR,M,M,M,M,M,M,M,M,M,M,M,M,M,M,75.00,KVGT 110953Z AUTO 31004KT 10SM CLR 24/01 A2969 RMK AO2 SLP043 T02390011,M
ELY,2023-06-11 09:53,-114.8453,39.2950,1909.00,42.00,38.00,84.93,180.00,7.00,0.00,30.01,1009.30,10.00,M,CLR,M,M,M,M,M,M,M,M,M,M,M,M,M,M,37.09,KELY 110953Z AUTO 18007KT 10SM CLR 06/03 A3001 RMK AO2 SLP093 T00560033,M
LOL,2023-06-11 09:53,-118.5701,40.0684,1192.43,51.00,49.00,92.14,40.00,7.00,0.00,29.91,1010.30,10.00,M,CLR,M,M,M,M,M,M,M,M,M,M,M,M,M,M,51.10,KLOL 110953Z AUTO 04007KT 10SM CLR 11/09 A2991 RMK AO2 SLP103 T01060094,M
BVU,2023-06-11 09:55,-114.8611,35.9475,671.00,71.60,33.80,24.86,50.00,6.00,0.00,29.69,M,10.00,M,CLR,M,M,M,M,M,M,M,M,M,M,M,M,M,M,71.60,KBVU 110955Z AUTO 05006KT 10SM CLR 22/01 A2969 RMK AO2,M
CXP,2023-06-11 09:55,-119.7326,39.1923,1431.00,48.20,46.40,93.45,0.00,0.00,0.00,29.99,M,10.00,M,CLR,M,M,M,M,M,M,M,M,M,M,M,M,M,M,48.20,KCXP 110955Z AUTO 00000KT 10SM CLR 09/08 A2999 RMK AO2,M
INS,2023-06-11 09:55,-115.6733,36.5872,955.00,67.50,28.40,22.99,0.00,0.00,0.00,29.75,1002.80,10.00,M,OVC,M,M,M,18000.00,M,M,M,M,M,M,M,M,M,M,67.50,KINS 110955Z AUTO 00000KT 10SM OVC180 20/M02 A2975 RMK AO2 SLP028 T01971020 $,M
RNO,2023-06-11 09:55,-119.7711,39.4839,1341.00,52.00,48.00,86.17,0.00,0.00,0.00,29.96,1010.30,10.00,M,FEW,SCT,M,M,2000.00,15000.00,M,M,M,M,M,M,M,M,M,52.00,KRNO 110955Z 00000KT 10SM FEW020 SCT150 11/09 A2996 RMK AO2 SLP103 T01110089,M
RTS,2023-06-11 09:55,-119.8764,39.6682,1539.00,42.80,42.80,100.00,330.00,6.00,0.00,29.98,M,10.00,M,CLR,M,M,M,M,M,M,M,M,M,M,M,M,M,M,38.54,KRTS 110955Z AUTO 33006KT 10SM CLR 06/06 A2998 RMK AO2,M
MEV,2023-06-11 09:55,-119.7500,38.9963,1441.42,44.60,44.60,100.00,0.00,0.00,0.00,29.97,M,9.00,M,SCT,SCT,BKN,M,2500.00,3300.00,4900.00,M,M,M,M,M,M,M,M,44.60,KMEV 110955Z AUTO 00000KT 9SM SCT025 SCT033 BKN049 07/07 A2997 RMK AO2,M
BAM,2023-06-11 09:55,-116.8743,40.5990,1382.36,53.60,50.00,87.56,360.00,5.00,0.00,29.96,M,10.00,M,CLR,M,M,M,M,M,M,M,M,M,M,M,M,M,M,53.60,KBAM 110955Z AUTO 36005KT 10SM CLR 12/10 A2996 RMK AO1,M
HTH,2023-06-11 09:55,-118.6315,38.5448,1282.89,53.60,53.60,100.00,160.00,4.00,0.00,29.96,M,10.00,M,BKN,BKN,M,M,10000.00,12000.00,M,M,M,M,M,M,M,M,M,53.60,KHTH 110955Z AUTO 16004KT 10SM BKN100 BKN120 12/12 A2996 RMK A01,M
TMT,2023-06-11 09:55,-117.1971,39.4643,1749.34,43.20,43.20,100.00,0.00,0.00,0.00,30.00,M,1.75,M,SCT,M,M,M,200.00,M,M,M,BR,M,M,M,M,M,M,43.20,KTMT 110955Z AUTO 00000KT 1 3/4SM BR SCT002 06/06 A3000 RMK AO2 VIS 1V4 T00620062,M
LSV,2023-06-11 09:55,-115.0343,36.2362,570.00,74.30,28.00,17.94,30.00,3.00,0.00,29.65,1001.60,10.00,M,CLR,M,M,M,M,M,M,M,M,M,M,M,M,M,M,74.30,KLSV 110955Z AUTO 03003KT 10SM CLR 24/M02 A2965 RMK AO2 SLP016 T02351022 $,M
NFL,2023-06-11 09:56,-118.7010,39.4166,1199.00,54.00,52.00,92.92,310.00,4.00,0.00,29.92,1010.60,10.00,M,CLR,M,M,M,M,M,M,M,M,M,M,M,M,M,M,54.00,KNFL 110956Z AUTO 31004KT 10SM CLR 12/11 A2992 RMK AO2 SLP106 T01220111,M
HND,2023-06-11 09:56,-115.1344,35.9729,742.79,73.00,30.00,20.34,190.00,8.00,0.00,29.72,1005.20,10.00,M,CLR,M,M,M,M,M,M,M,M,M,M,M,M,M,M,73.00,KHND 110956Z AUTO 19008KT 10SM CLR 23/M01 A2972 RMK AO2 SLP052 T02281011,M
LAS,2023-06-11 09:56,-115.1634,36.0719,663.00,75.00,30.00,19.02,230.00,3.00,0.00,29.69,1002.80,10.00,M,FEW,BKN,M,M,16000.00,22000.00,M,M,M,M,M,M,M,M,M,75.00,KLAS 110956Z 23003KT 10SM FEW160 BKN220 24/M01 A2969 RMK AO2 SLP028 T02391011,M
EKO,2023-06-11 09:56,-115.7860,40.8242,1367.00,55.00,47.00,74.08,10.00,6.00,T,29.99,1010.80,10.00,M,BKN,M,M,M,11000.00,M,M,M,M,M,M,M,M,M,M,55.00,KEKO 110956Z AUTO 01006KT 10SM BKN110 13/08 A2999 RMK AO2 RAB01E11 SLP108 P0000 T01280083,M
WMC,2023-06-11 09:56,-117.8072,40.9019,1315.00,52.00,49.00,89.13,340.00,3.00,0.00,29.95,1010.10,10.00,M,CLR,M,M,M,M,M,M,M,M,M,M,M,M,M,M,52.00,KWMC 110956Z AUTO 34003KT 10SM CLR 11/09 A2995 RMK AO2 SLP101 T01110094,M
TPH,2023-06-11 09:56,-117.0904,38.0505,1654.00,53.00,47.00,79.40,350.00,10.00,0.00,29.93,1008.00,10.00,M,CLR,M,M,M,M,M,M,M,M,M,M,M,M,M,M,53.10,KTPH 110956Z AUTO 35010KT 10SM CLR 12/08 A2993 RMK AO2 SLP080 T01170083,M
HTH,2023-06-11 10:10,-118.6315,38.5448,1282.89,55.40,53.60,93.65,0.00,0.00,0.00,29.96,M,10.00,M,OVC,M,M,M,10000.00,M,M,M,M,M,M,M,M,M,M,55.40,KHTH 111010Z AUTO 00000KT 10SM OVC100 13/12 A2996 RMK A01,M
BVU,2023-06-11 10:15,-114.8611,35.9475,671.00,71.60,32.00,23.13,60.00,4.00,0.00,29.69,M,10.00,M,CLR,M,M,M,M,M,M,M,M,M,M,M,M,M,M,71.60,KBVU 111015Z AUTO 06004KT 10SM CLR 22/M00 A2969 RMK AO2,M
CXP,2023-06-11 10:15,-119.7326,39.1923,1431.00,48.20,46.40,93.45,0.00,0.00,0.00,29.98,M,10.00,M,CLR,M,M,M,M,M,M,M,M,M,M,M,M,M,M,48.20,KCXP 111015Z AUTO 00000KT 10SM CLR 09/08 A2998 RMK AO2,M
RTS,2023-06-11 10:15,-119.8764,39.6682,1539.00,42.80,42.80,100.00,350.00,5.00,0.00,29.98,M,10.00,M,CLR,M,M,M,M,M,M,M,M,M,M,M,M,M,M,39.22,KRTS 111015Z AUTO 35005KT 10SM CLR 06/06 A2998 RMK AO2,M
MEV,2023-06-11 10:15,-119.7500,38.9963,1441.42,42.80,41.00,93.30,0.00,0.00,0.00,29.97,M,8.00,M,BKN,BKN,BKN,M,2700.00,3500.00,4700.00,M,M,M,M,M,M,M,M,42.80,KMEV 111015Z AUTO 00000KT 8SM BKN027 BKN035 BKN047 06/05 A2997 RMK AO2,M
BAM,2023-06-11 10:15,-116.8743,40.5990,1382.36,53.60,50.00,87.56,10.00,7.00,0.00,29.95,M,10.00,M,CLR,M,M,M,M,M,M,M,M,M,M,M,M,M,M,53.60,KBAM 111015Z AUTO 01007KT 10SM CLR 12/10 A2995 RMK AO1,M
TMT,2023-06-11 10:15,-117.1971,39.4643,1749.34,41.70,41.70,100.00,200.00,3.00,0.00,30.00,M,1.75,M,BKN,M,M,M,200.00,M,M,M,BR,M,M,M,M,M,M,39.78,KTMT 111015Z AUTO 20003KT 1 3/4SM BR BKN002 05/05 A3000 RMK AO2 T00540054,M
BVU,2023-06-11 10:35,-114.8611,35.9475,671.00,71.60,32.00,23.13,0.00,0.00,0.00,29.69,M,10.00,M,CLR,M,M,M,M,M,M,M,M,M,M,M,M,M,M,71.60,KBVU 111035Z AUTO 00000KT 10SM CLR 22/00 A2969 RMK AO2,M
CXP,2023-06-11 10:35,-119.7326,39.1923,1431.00,48.20,46.40,93.45,0.00,0.00,0.00,29.98,M,10.00,M,CLR,M,M,M,M,M,M,M,M,M,M,M,M,M,M,48.20,KCXP 111035Z AUTO 00000KT 10SM CLR 09/08 A2998 RMK AO2,M
RTS,2023-06-11 10:35,-119.8764,39.6682,1539.00,42.80,42.80,100.00,0.00,0.00,0.00,29.98,M,10.00,M,CLR,M,M,M,M,M,M,M,M,M,M,M,M,M,M,42.80,KRTS 111035Z AUTO 00000KT 10SM CLR 06/06 A2998 RMK AO2,M
MEV,2023-06-11 10:35,-119.7500,38.9963,1441.42,44.60,42.80,93.35,300.00,3.00,0.00,29.97,M,10.00,M,OVC,M,M,M,2900.00,M,M,M,M,M,M,M,M,M,M,43.09,KMEV 111035Z AUTO 30003KT 10SM OVC029 07/06 A2997 RMK AO2,M
BAM,2023-06-11 10:35,-116.8743,40.5990,1382.36,53.60,51.80,93.60,340.00,7.00,0.00,29.96,M,10.00,M,CLR,M,M,M,M,M,M,M,M,M,M,M,M,M,M,53.60,KBAM 111035Z AUTO 34007KT 10SM CLR 12/11 A2996 RMK AO1,M
HTH,2023-06-11 10:35,-118.6315,38.5448,1282.89,53.60,53.60,100.00,140.00,3.00,0.00,29.97,M,10.00,M,SCT,BKN,OVC,M,7500.00,9000.00,11000.00,M,M,M,M,M,M,M,M,53.60,KHTH 111035Z AUTO 14003KT 10SM SCT075 BKN090 OVC110 12/12 A2997 RMK A01,M
TMT,2023-06-11 10:35,-117.1971,39.4643,1749.34,41.20,41.20,100.00,180.00,5.00,0.00,30.01,M,1.50,M,BKN,M,M,M,400.00,M,M,M,BR,M,M,M,M,M,M,37.32,KTMT 111035Z AUTO 18005KT 1 1/2SM BR BKN004 05/05 A3001 RMK AO2 T00510051,M
P68,2023-06-11 10:53,-116.0056,39.6014,1993.00,45.00,45.00,100.00,170.00,5.00,0.00,29.99,1009.80,M,M,M,M,M,M,M,M,M,M,M,M,M,M,M,M,M,41.83,KP68 111053Z AUTO 17005KT 07/07 A2999 RMK AO1 SLP098 T00720072,M
DRA,2023-06-11 10:53,-116.0278,36.6206,1009.00,65.00,30.90,27.85,310.00,5.00,0.00,29.74,1002.50,10.00,M,CLR,M,M,M,M,M,M,M,M,M,M,M,M,M,M,64.90,KDRA 111053Z AUTO 31005KT 10SM CLR 18/M01 A2974 RMK AO2 SLP025 T01831006,M
ELY,2023-06-11 10:53,-114.8453,39.2950,1909.00,41.00,37.00,85.54,190.00,7.00,0.00,30.01,1010.20,10.00,M,CLR,M,M,M,M,M,M,M,M,M,M,M,M,M,M,35.75,KELY 111053Z AUTO 19007KT 10SM CLR 05/03 A3001 RMK AO2 SLP102 T00500028,M
LOL,2023-06-11 10:53,-118.5701,40.0684,1192.43,46.00,44.00,93.03,0.00,0.00,0.00,29.93,1010.90,10.00,M,CLR,M,M,M,M,M,M,M,M,M,M,M,M,M,M,46.00,KLOL 111053Z AUTO 00000KT 10SM CLR 08/07 A2993 RMK AO2 SLP109 T00780067,M
VGT,2023-06-11 10:53,-115.1933,36.2111,667.00,74.00,33.00,22.37,350.00,4.00,0.00,29.68,1004.20,10.00,M,CLR,M,M,M,M,M,M,M,M,M,M,M,M,M,M,73.90,KVGT 111053Z AUTO 35004KT 10SM CLR 23/01 A2968 RMK AO2 SLP042 T02330006,M
BVU,2023-06-11 10:55,-114.8611,35.9475,671.00,71.60,32.00,23.13,0.00,0.00,0.00,29.69,M,10.00,M,CLR,M,M,M,M,M,M,M,M,M,M,M,M,M,M,71.60,KBVU 111055Z AUTO 00000KT 10SM CLR 22/M00 A2969 RMK AO2,M
CXP,2023-06-11 10:55,-119.7326,39.1923,1431.00,46.40,46.40,100.00,0.00,0.00,0.00,29.98,M,10.00,M,CLR,M,M,M,M,M,M,M,M,M,M,M,M,M,M,46.40,KCXP 111055Z AUTO 00000KT 10SM CLR 08/08 A2998 RMK AO2,M
INS,2023-06-11 10:55,-115.6733,36.5872,955.00,67.00,27.90,22.99,220.00,3.00,0.00,29.74,1002.50,10.00,M,BKN,M,M,M,17000.00,M,M,M,M,M,M,M,M,M,M,66.90,KINS 111055Z AUTO 22003KT 10SM BKN170 19/M02 A2974 RMK AO2 SLP025 T01941023 $,M
RNO,2023-06-11 10:55,-119.7711,39.4839,1341.00,50.00,48.00,92.80,0.00,0.00,0.00,29.96,1010.80,10.00,M,SCT,M,M,M,24000.00,M,M,M,M,M,M,M,M,M,M,50.00,KRNO 111055Z 00000KT 10SM SCT240 10/09 A2996 RMK AO2 SLP108 T01000089,M
RTS,2023-06-11 10:55,-119.8764,39.6682,1539.00,44.60,44.60,100.00,0.00,0.00,0.00,29.98,M,10.00,M,CLR,M,M,M,M,M,M,M,M,M,M,M,M,M,M,44.60,KRTS 111055Z AUTO 00000KT 10SM CLR 07/07 A2998 RMK AO2,M
MEV,2023-06-11 10:55,-119.7500,38.9963,1441.42,41.00,41.00,100.00,0.00,0.00,0.00,29.98,M,6.00,M,FEW,BKN,BKN,M,2800.00,3200.00,4300.00,M,BR,M,M,M,M,M,M,41.00,KMEV 111055Z AUTO 00000KT 6SM BR FEW028 BKN032 BKN043 05/05 A2998 RMK AO2,M
BAM,2023-06-11 10:55,-116.8743,40.5990,1382.36,53.60,50.00,87.56,40.00,9.00,0.00,29.96,M,10.00,M,CLR,M,M,M,M,M,M,M,M,M,M,M,M,M,M,53.60,KBAM 111055Z AUTO 04009KT 10SM CLR 12/10 A2996 RMK AO1,M
HTH,2023-06-11 10:55,-118.6315,38.5448,1282.89,53.60,53.60,100.00,0.00,0.00,0.00,29.96,M,10.00,M,SCT,BKN,OVC,M,8000.00,10000.00,12000.00,M,M,M,M,M,M,M,M,53.60,KHTH 111055Z AUTO 00000KT 10SM SCT080 BKN100 OVC120 12/12 A2996 RMK A01,M
LSV,2023-06-11 10:55,-115.0343,36.2362,570.00,72.00,27.50,18.99,30.00,4.00,0.00,29.65,1001.70,10.00,M,FEW,M,M,M,18000.00,M,M,M,M,M,M,M,M,M,M,72.00,KLSV 111055Z AUTO 03004KT 10SM FEW180 22/M02 A2965 RMK AO2 SLP017 T02221025 $,M
TMT,2023-06-11 10:55,-117.1971,39.4643,1749.34,42.00,42.00,100.00,200.00,5.00,0.00,30.01,M,10.00,M,CLR,M,M,M,M,M,M,M,M,M,M,M,M,M,M,38.15,KTMT 111055Z AUTO 20005KT 10SM CLR 06/06 A3001 RMK AO2 T00550055,M
EKO,2023-06-11 10:56,-115.7860,40.8242,1367.00,54.00,48.00,80.07,60.00,9.00,T,29.96,1009.90,10.00,M,FEW,SCT,BKN,M,7000.00,9000.00,11000.00,M,M,M,M,M,M,M,M,54.00,KEKO 111056Z AUTO 06009KT 10SM FEW070 SCT090 BKN110 12/09 A2996 RMK AO2 RAB06E15 SLP099 P0000 T01220089,M
WMC,2023-06-11 10:56,-117.8072,40.9019,1315.00,52.00,50.00,92.86,0.00,0.00,0.00,29.94,1009.90,10.00,M,CLR,M,M,M,M,M,M,M,M,M,M,M,M,M,M,52.00,KWMC 111056Z AUTO 00000KT 10SM CLR 11/10 A2994 RMK AO2 SLP099 T01110100,M
NFL,2023-06-11 10:56,-118.7010,39.4166,1199.00,52.00,50.00,92.86,200.00,5.00,0.00,29.93,1011.00,10.00,M,CLR,M,M,M,M,M,M,M,M,M,M,M,M,M,M,52.00,KNFL 111056Z AUTO 20005KT 10SM CLR 11/10 A2993 RMK AO2 SLP110 T01110100,M
HND,2023-06-11 10:56,-115.1344,35.9729,742.79,73.00,30.00,20.34,230.00,6.00,0.00,29.72,1005.20,10.00,M,CLR,M,M,M,M,M,M,M,M,M,M,M,M,M,M,73.00,KHND 111056Z AUTO 23006KT 10SM CLR 23/M01 A2972 RMK AO2 SLP052 T02281011,M
TPH,2023-06-11 10:56,-117.0904,38.0505,1654.00,54.00,45.00,71.50,340.00,8.00,0.00,29.92,1008.20,10.00,M,CLR,M,M,M,M,M,M,M,M,M,M,M,M,M,M,54.00,KTPH 111056Z AUTO 34008KT 10SM CLR 12/07 A2992 RMK AO2 SLP082 T01220072,M
LAS,2023-06-11 10:56,-115.1634,36.0719,663.00,75.00,30.90,19.73,0.00,0.00,0.00,29.69,1002.70,10.00,M,SCT,BKN,M,M,16000.00,22000.00,M,M,M,M,M,M,M,M,M,75.00,KLAS 111056Z 00000KT 10SM SCT160 BKN220 24/M01 A2969 RMK AO2 SLP027 T02391006,M
BVU,2023-06-11 11:15,-114.8611,35.9475,671.00,71.60,33.80,24.86,90.00,3.00,0.00,29.69,M,10.00,M,CLR,M,M,M,M,M,M,M,M,M,M,M,M,M,M,71.60,KBVU 111115Z AUTO 09003KT 10SM CLR 22/01 A2969 RMK AO2 LTG DSNT W,M
CXP,2023-06-11 11:15,-119.7326,39.1923,1431.00,46.40,46.40,100.00,200.00,3.00,0.00,29.99,M,10.00,M,CLR,M,M,M,M,M,M,M,M,M,M,M,M,M,M,45.15,KCXP 111115Z AUTO 20003KT 10SM CLR 08/08 A2999 RMK AO2 LTG DSNT SE,M
RTS,2023-06-11 11:15,-119.8764,39.6682,1539.00,44.60,44.60,100.00,0.00,0.00,0.00,29.98,M,8.00,M,FEW,M,M,M,200.00,M,M,M,M,M,M,M,M,M,M,44.60,KRTS 111115Z AUTO 00000KT 8SM FEW002 07/07 A2998 RMK AO2,M
MEV,2023-06-11 11:15,-119.7500,38.9963,1441.42,39.20,39.20,100.00,140.00,5.00,0.00,29.99,M,7.00,M,FEW,FEW,SCT,M,1600.00,3200.00,6000.00,M,M,M,M,M,M,M,M,34.95,KMEV 111115Z AUTO 14005KT 7SM FEW016 FEW032 SCT060 04/04 A2999 RMK AO2 LTG DSNT SE,M
BAM,2023-06-11 11:15,-116.8743,40.5990,1382.36,51.80,50.00,93.55,70.00,3.00,0.00,29.96,M,10.00,M,CLR,M,M,M,M,M,M,M,M,M,M,M,M,M,M,51.80,KBAM 111115Z AUTO 07003KT 10SM CLR 11/10 A2996 RMK AO1,M
HTH,2023-06-11 11:15,-118.6315,38.5448,1282.89,53.60,53.60,100.00,0.00,0.00,0.00,29.96,M,10.00,M,BKN,OVC,M,M,7500.00,9500.00,M,M,M,M,M,M,M,M,M,53.60,KHTH 111115Z AUTO 00000KT 10SM BKN075 OVC095 12/12 A2996 RMK A01,M
TMT,2023-06-11 11:15,-117.1971,39.4643,1749.34,41.70,41.50,99.23,210.00,3.00,0.00,30.01,M,10.00,M,CLR,M,M,M,M,M,M,M,M,M,M,M,M,M,M,39.78,KTMT 111115Z AUTO 21003KT 10SM CLR 05/05 A3001 RMK AO2 LTG DSNT S AND SW T00540053,M
BVU,2023-06-11 11:35,-114.8611,35.9475,671.00,69.80,32.00,24.59,0.00,0.00,0.00,29.69,M,10.00,M,CLR,M,M,M,M,M,M,M,M,M,M,M,M,M,M,69.80,KBVU 111135Z AUTO 00000KT 10SM CLR 21/00 A2969 RMK AO2 LTG DSNT W,M
CXP,2023-06-11 11:35,-119.7326,39.1923,1431.00,46.40,46.40,100.00,0.00,0.00,0.00,30.00,M,9.00,M,SCT,M,M,M,1400.00,M,M,M,M,M,M,M,M,M,M,46.40,KCXP 111135Z AUTO 00000KT 9SM SCT014 08/08 A3000 RMK AO2 LTG DSNT SE,M
RTS,2023-06-11 11:35,-119.8764,39.6682,1539.00,42.80,42.80,100.00,330.00,4.00,0.00,29.99,M,3.00,M,BKN,BKN,M,M,200.00,1400.00,M,M,BR,M,M,M,M,M,M,40.03,KRTS 111135Z AUTO 33004KT 3SM BR BKN002 BKN014 06/06 A2999 RMK AO2,M
MEV,2023-06-11 11:35,-119.7500,38.9963,1441.42,41.00,41.00,100.00,0.00,0.00,0.00,29.98,M,10.00,M,FEW,FEW,SCT,M,2500.00,3200.00,6500.00,M,M,M,M,M,M,M,M,41.00,KMEV 111135Z AUTO 00000KT 10SM FEW025 FEW032 SCT065 05/05 A2998 RMK AO2 LTG DSNT SE,M
BAM,2023-06-11 11:35,-116.8743,40.5990,1382.36,51.80,50.00,93.55,20.00,3.00,0.00,29.95,M,10.00,M,CLR,M,M,M,M,M,M,M,M,M,M,M,M,M,M,51.80,KBAM 111135Z AUTO 02003KT 10SM CLR 11/10 A2995 RMK AO1,M
HTH,2023-06-11 11:35,-118.6315,38.5448,1282.89,53.60,53.60,100.00,70.00,3.00,0.00,29.95,M,10.00,M,SCT,BKN,OVC,M,1900.00,2500.00,7500.00,M,M,M,M,M,M,M,M,53.60,KHTH 111135Z AUTO 07003KT 10SM SCT019 BKN025 OVC075 12/12 A2995 RMK A01,M
TMT,2023-06-11 11:35,-117.1971,39.4643,1749.34,41.70,41.20,98.09,0.00,0.00,0.00,30.00,M,10.00,M,CLR,M,M,M,M,M,M,M,M,M,M,M,M,M,M,41.70,KTMT 111135Z AUTO 00000KT 10SM CLR 05/05 A3000 RMK AO2 LTG DSNT S AND SW T00540051,M
ELY,2023-06-11 11:53,-114.8453,39.2950,1909.00,41.00,37.00,85.54,180.00,6.00,0.00,30.00,1009.60,10.00,M,CLR,M,M,M,M,M,M,M,M,M,M,M,M,M,M,36.37,KELY 111153Z AUTO 18006KT 10SM CLR 05/03 A3000 RMK AO2 SLP096 T00500028 10122 20044 56005,M
VGT,2023-06-11 11:53,-115.1933,36.2111,667.00,73.00,34.00,23.90,320.00,4.00,0.00,29.68,1004.20,10.00,M,CLR,M,M,M,M,M,M,M,M,M,M,M,M,M,M,73.00,KVGT 111153Z AUTO 32004KT 10SM CLR 23/01 A2968 RMK AO2 SLP042 T02280011 10289 20228 56005,M
P68,2023-06-11 11:53,-116.0056,39.6014,1993.00,45.00,44.00,96.63,190.00,4.00,0.00,29.98,1009.90,M,M,M,M,M,M,M,M,M,M,M,M,M,M,M,M,M,42.60,KP68 111153Z AUTO 19004KT 07/07 A2998 RMK AO1 SLP099 70012 T00720067 10106 20067 56009,M
LOL,2023-06-11 11:53,-118.5701,40.0684,1192.43,46.00,44.00,93.03,190.00,3.00,0.00,29.93,1011.40,10.00,M,CLR,M,M,M,M,M,M,M,M,M,M,M,M,M,M,44.69,KLOL 111153Z AUTO 19003KT 10SM CLR 08/07 A2993 RMK AO2 SLP114 70001 T00780067 10139 20078 55000,M
DRA,2023-06-11 11:53,-116.0278,36.6206,1009.00,67.00,33.00,28.39,0.00,0.00,0.00,29.74,1002.30,10.00,M,CLR,M,M,M,M,M,M,M,M,M,M,M,M,M,M,66.90,KDRA 111153Z AUTO 00000KT 10SM CLR 19/01 A2974 RMK AO2 SLP023 T01940006 10239 20183 56007,M
BVU,2023-06-11 11:55,-114.8611,35.9475,671.00,68.00,39.20,34.80,0.00,0.00,0.00,29.69,M,10.00,M,CLR,M,M,M,M,M,M,M,M,M,M,M,M,M,M,68.00,KBVU 111155Z AUTO 00000KT 10SM CLR 20/04 A2969 RMK AO2,M
CXP,2023-06-11 11:55,-119.7326,39.1923,1431.00,46.40,46.40,100.00,340.00,4.00,0.00,29.99,M,10.00,M,FEW,M,M,M,1400.00,M,M,M,M,M,M,M,M,M,M,44.24,KCXP 111155Z AUTO 34004KT 10SM FEW014 08/08 A2999 RMK AO2,M
INS,2023-06-11 11:55,-115.6733,36.5872,955.00,68.00,28.80,22.97,0.00,0.00,0.00,29.74,1002.50,10.00,M,FEW,SCT,M,M,16000.00,18000.00,M,M,M,M,M,M,M,M,M,68.00,KINS 111155Z AUTO 00000KT 10SM FEW160 SCT180 20/M02 A2974 RMK AO2 SLP025 T02001018 10246 20186 57007 $,M
RNO,2023-06-11 11:55,-119.7711,39.4839,1341.00,50.00,46.00,86.06,210.00,3.00,0.00,29.97,1011.90,10.00,M,FEW,SCT,SCT,M,3500.00,10000.00,24000.00,M,M,M,M,M,M,M,M,50.00,KRNO 111155Z 21003KT 10SM FEW035 SCT100 SCT240 10/08 A2997 RMK AO2 SLP119 70007 T01000078 10128 20100 55002,M
RTS,2023-06-11 11:55,-119.8764,39.6682,1539.00,42.80,42.80,100.00,0.00,0.00,0.00,29.99,M,10.00,M,SCT,BKN,M,M,200.00,1300.00,M,M,M,M,M,M,M,M,M,42.80,KRTS 111155Z AUTO 00000KT 10SM SCT002 BKN013 06/06 A2999 RMK AO2,M
MEV,2023-06-11 11:55,-119.7500,38.9963,1441.42,42.80,42.80,100.00,0.00,0.00,0.00,29.97,M,10.00,M,FEW,FEW,FEW,M,3800.00,4800.00,6500.00,M,M,M,M,M,M,M,M,42.80,KMEV 111155Z AUTO 00000KT 10SM FEW038 FEW048 FEW065 06/06 A2997 RMK AO2,M
BAM,2023-06-11 11:55,-116.8743,40.5990,1382.36,50.00,46.40,87.37,0.00,0.00,0.00,29.96,M,10.00,M,CLR,M,M,M,M,M,M,M,M,M,M,M,M,M,M,50.00,KBAM 111155Z AUTO 00000KT 10SM CLR 10/08 A2996 RMK AO1,M
HTH,2023-06-11 11:55,-118.6315,38.5448,1282.89,53.60,53.60,100.00,0.00,0.00,0.00,29.94,M,10.00,M,FEW,SCT,SCT,M,1900.00,2400.00,3200.00,M,M,M,M,M,M,M,M,53.60,KHTH 111155Z AUTO 00000KT 10SM FEW019 SCT024 SCT032 12/12 A2994 RMK A01,M
LSV,2023-06-11 11:55,-115.0343,36.2362,570.00,72.30,26.40,17.97,20.00,6.00,0.00,29.64,1001.30,10.00,M,FEW,M,M,M,17000.00,M,M,M,M,M,M,M,M,M,M,72.30,KLSV 111155Z AUTO 02006KT 10SM FEW170 22/M03 A2964 RMK AO2 SLP013 T02241031 10277 20221 57006 $,M
TMT,2023-06-11 11:55,-117.1971,39.4643,1749.34,42.80,42.30,98.10,320.00,4.00,0.00,30.00,M,10.00,M,SCT,M,M,M,10000.00,M,M,M,M,M,M,M,M,M,M,40.03,KTMT 111155Z AUTO 32004KT 10SM SCT100 06/06 A3000 RMK AO2 70012 T00600057 10100 20051,M
NFL,2023-06-11 11:56,-118.7010,39.4166,1199.00,53.00,50.00,89.18,250.00,4.00,0.00,29.94,1011.20,10.00,M,CLR,M,M,M,M,M,M,M,M,M,M,M,M,M,M,53.10,KNFL 111156Z AUTO 25004KT 10SM CLR 12/10 A2994 RMK AO2 SLP112 70027 T01170100 10139 20111 55000,M
HND,2023-06-11 11:56,-115.1344,35.9729,742.79,73.00,32.00,22.06,210.00,8.00,0.00,29.72,1005.20,10.00,M,CLR,M,M,M,M,M,M,M,M,M,M,M,M,M,M,73.00,KHND 111156Z AUTO 21008KT 10SM CLR 23/00 A2972 RMK AO2 SLP052 T02280000 10256 20222 56005,M
TPH,2023-06-11 11:56,-117.0904,38.0505,1654.00,52.00,46.00,79.92,350.00,9.00,0.00,29.92,1007.70,10.00,M,CLR,M,M,M,M,M,M,M,M,M,M,M,M,M,M,52.00,KTPH 111156Z AUTO 35009KT 10SM CLR 11/08 A2992 RMK AO2 SLP077 60000 T01110078 10144 20111 56007,M
LAS,2023-06-11 11:56,-115.1634,36.0719,663.00,74.00,30.90,20.47,200.00,4.00,0.00,29.69,1002.70,10.00,M,SCT,BKN,M,M,16000.00,22000.00,M,M,M,M,M,M,M,M,M,73.90,KLAS 111156Z 20004KT 10SM SCT160 BKN220 23/M01 A2969 RMK AO2 SLP027 T02331006 10272 20233 56003,M
WMC,2023-06-11 11:56,-117.8072,40.9019,1315.00,50.00,47.00,89.04,0.00,0.00,0.00,29.94,1010.90,10.00,M,CLR,M,M,M,M,M,M,M,M,M,M,M,M,M,M,50.00,KWMC 111156Z AUTO 00000KT 10SM CLR 10/08 A2994 RMK AO2 SLP109 70003 T01000083 10150 20078 56006,M
EKO,2023-06-11 11:56,-115.7860,40.8242,1367.00,53.00,47.00,79.40,70.00,5.00,0.00,29.96,1010.80,10.00,M,CLR,M,M,M,M,M,M,M,M,M,M,M,M,M,M,53.10,KEKO 111156Z AUTO 07005KT 10SM CLR 12/08 A2996 RMK AO2 SLP108 60000 T01170083 10128 20106 55014,M
BVU,2023-06-11 12:15,-114.8611,35.9475,671.00,69.80,35.60,28.39,0.00,0.00,0.00,29.69,M,10.00,M,CLR,M,M,M,M,M,M,M,M,M,M,M,M,M,M,69.80,KBVU 111215Z AUTO 00000KT 10SM CLR 21/02 A2969 RMK AO2,M
CXP,2023-06-11 12:15,-119.7326,39.1923,1431.00,46.40,46.40,100.00,0.00,0.00,0.00,29.99,M,10.00,M,CLR,M,M,M,M,M,M,M,M,M,M,M,M,M,M,46.40,KCXP 111215Z AUTO 00000KT 10SM CLR 08/08 A2999 RMK AO2,M
RTS,2023-06-11 12:15,-119.8764,39.6682,1539.00,42.80,42.80,100.00,350.00,3.00,0.00,29.99,M,10.00,M,FEW,FEW,M,M,200.00,1300.00,M,M,M,M,M,M,M,M,M,41.03,KRTS 111215Z AUTO 35003KT 10SM FEW002 FEW013 06/06 A2999 RMK AO2,M
MEV,2023-06-11 12:15,-119.7500,38.9963,1441.42,42.80,41.00,93.30,50.00,3.00,0.00,29.98,M,10.00,M,SCT,M,M,M,3600.00,M,M,M,M,M,M,M,M,M,M,41.03,KMEV 111215Z AUTO 05003KT 10SM SCT036 06/05 A2998 RMK AO2,M
BAM,2023-06-11 12:15,-116.8743,40.5990,1382.36,50.00,46.40,87.37,0.00,0.00,0.00,29.96,M,10.00,M,CLR,M,M,M,M,M,M,M,M,M,M,M,M,M,M,50.00,KBAM 111215Z AUTO 00000KT 10SM CLR 10/08 A2996 RMK AO1,M
HTH,2023-06-11 12:15,-118.6315,38.5448,1282.89,53.60,53.60,100.00,230.00,5.00,0.00,29.94,M,10.00,M,FEW,M,M,M,1900.00,M,M,M,M,M,M,M,M,M,M,53.60,KHTH 111215Z AUTO 23005KT 10SM FEW019 12/12 A2994 RMK A01,M
TMT,2023-06-11 12:15,-117.1971,39.4643,1749.34,43.00,42.80,99.24,0.00,0.00,0.00,30.00,M,10.00,M,SCT,M,M,M,10000.00,M,M,M,M,M,M,M,M,M,M,43.00,KTMT 111215Z AUTO 00000KT 10SM SCT100 06/06 A3000 RMK AO2 T00610060,M
BVU,2023-06-11 12:35,-114.8611,35.9475,671.00,69.80,35.60,28.39,60.00,4.00,0.00,29.70,M,10.00,M,CLR,M,M,M,M,M,M,M,M,M,M,M,M,M,M,69.80,KBVU 111235Z AUTO 06004KT 10SM CLR 21/02 A2970 RMK AO2,M
CXP,2023-06-11 12:35,-119.7326,39.1923,1431.00,46.40,46.40,100.00,0.00,0.00,0.00,29.99,M,9.00,M,CLR,M,M,M,M,M,M,M,M,M,M,M,M,M,M,46.40,KCXP 111235Z AUTO 00000KT 9SM CLR 08/08 A2999 RMK AO2,M
RTS,2023-06-11 12:35,-119.8764,39.6682,1539.00,42.80,42.80,100.00,350.00,3.00,0.00,29.99,M,10.00,M,SCT,M,M,M,600.00,M,M,M,M,M,M,M,M,M,M,41.03,KRTS 111235Z AUTO 35003KT 10SM SCT006 06/06 A2999 RMK AO2,M
MEV,2023-06-11 12:35,-119.7500,38.9963,1441.42,42.80,42.80,100.00,0.00,0.00,0.00,29.97,M,9.00,M,SCT,M,M,M,3600.00,M,M,M,M,M,M,M,M,M,M,42.80,KMEV 111235Z AUTO 00000KT 9SM SCT036 06/06 A2997 RMK AO2,M
BAM,2023-06-11 12:35,-116.8743,40.5990,1382.36,48.20,46.40,93.45,0.00,0.00,0.00,29.96,M,10.00,M,CLR,M,M,M,M,M,M,M,M,M,M,M,M,M,M,48.20,KBAM 111235Z AUTO 00000KT 10SM CLR 09/08 A2996 RMK AO1,M
HTH,2023-06-11 12:35,-118.6315,38.5448,1282.89,53.60,55.40,M,230.00,3.00,0.00,29.94,M,10.00,M,CLR,M,M,M,M,M,M,M,M,M,M,M,M,M,M,M,KHTH 111235Z AUTO 23003KT 10SM CLR 12/13 A2994 RMK A01,M
TMT,2023-06-11 12:35,-117.1971,39.4643,1749.34,41.20,40.80,98.46,110.00,4.00,0.00,30.00,M,7.00,M,CLR,M,M,M,M,M,M,M,M,M,M,M,M,M,M,38.16,KTMT 111235Z AUTO 11004KT 7SM CLR 05/05 A3000 RMK AO2 T00510049,M
P68,2023-06-11 12:53,-116.0056,39.6014,1993.00,45.00,45.00,100.00,210.00,3.00,0.00,29.98,1010.20,M,M,M,M,M,M,M,M,M,M,M,M,M,M,M,M,M,43.55,KP68 111253Z AUTO 21003KT 07/07 A2998 RMK AO1 SLP102 T00720072,M
DRA,2023-06-11 12:53,-116.0278,36.6206,1009.00,69.00,37.00,30.74,10.00,5.00,0.00,29.74,1002.50,10.00,M,CLR,M,M,M,M,M,M,M,M,M,M,M,M,M,M,69.10,KDRA 111253Z AUTO 01005KT 10SM CLR 21/03 A2974 RMK AO2 SLP025 T02060028,M
VGT,2023-06-11 12:53,-115.1933,36.2111,667.00,72.00,34.00,24.72,320.00,3.00,0.00,29.69,1004.50,10.00,M,CLR,M,M,M,M,M,M,M,M,M,M,M,M,M,M,72.00,KVGT 111253Z 32003KT 10SM CLR 22/01 A2969 RMK AO2 SLP045 T02220011,M
ELY,2023-06-11 12:53,-114.8453,39.2950,1909.00,41.00,38.00,88.62,190.00,6.00,0.00,30.00,1009.50,10.00,M,CLR,M,M,M,M,M,M,M,M,M,M,M,M,M,M,36.37,KELY 111253Z AUTO 19006KT 10SM CLR 05/03 A3000 RMK AO2 SLP095 T00500033,M
LOL,2023-06-11 12:53,-118.5701,40.0684,1192.43,49.00,47.00,92.77,290.00,3.00,0.00,29.94,1011.80,10.00,M,CLR,M,M,M,M,M,M,M,M,M,M,M,M,M,M,48.01,KLOL 111253Z AUTO 29003KT 10SM CLR 09/08 A2994 RMK AO2 SLP118 T00940083,M
BVU,2023-06-11 12:55,-114.8611,35.9475,671.00,69.80,35.60,28.39,0.00,0.00,0.00,29.70,M,10.00,M,CLR,M,M,M,M,M,M,M,M,M,M,M,M,M,M,69.80,KBVU 111255Z AUTO 00000KT 10SM CLR 21/02 A2970 RMK AO2,M
CXP,2023-06-11 12:55,-119.7326,39.1923,1431.00,46.40,46.40,100.00,0.00,0.00,0.00,29.98,M,6.00,M,CLR,M,M,M,M,M,M,M,BR,M,M,M,M,M,M,46.40,KCXP 111255Z AUTO 00000KT 6SM BR CLR 08/08 A2998 RMK AO2,M
INS,2023-06-11 12:55,-115.6733,36.5872,955.00,64.00,26.40,23.91,0.00,0.00,0.00,29.74,1002.60,10.00,M,SCT,M,M,M,15000.00,M,M,M,M,M,M,M,M,M,M,64.00,KINS 111255Z AUTO 00000KT 10SM SCT150 18/M03 A2974 RMK AO2 SLP026 T01781031 $,M
RNO,2023-06-11 12:55,-119.7711,39.4839,1341.00,49.00,46.00,89.67,0.00,0.00,0.00,29.96,1011.80,10.00,M,FEW,SCT,BKN,M,4500.00,10000.00,24000.00,M,M,M,M,M,M,M,M,48.90,KRNO 111255Z 00000KT 10SM FEW045 SCT100 BKN240 09/08 A2996 RMK AO2 SLP118 T00940078,M
RTS,2023-06-11 12:55,-119.8764,39.6682,1539.00,44.60,44.60,100.00,0.00,0.00,0.00,29.99,M,10.00,M,OVC,M,M,M,600.00,M,M,M,M,M,M,M,M,M,M,44.60,KRTS 111255Z AUTO 00000KT 10SM OVC006 07/07 A2999 RMK AO2,M
MEV,2023-06-11 12:55,-119.7500,38.9963,1441.42,42.80,42.80,100.00,80.00,3.00,0.00,29.97,M,6.00,M,FEW,M,M,M,4400.00,M,M,M,BR,M,M,M,M,M,M,41.03,KMEV 111255Z AUTO 08003KT 6SM BR FEW044 06/06 A2997 RMK AO2,M
BAM,2023-06-11 12:55,-116.8743,40.5990,1382.36,50.00,46.40,87.37,200.00,4.00,0.00,29.96,M,10.00,M,CLR,M,M,M,M,M,M,M,M,M,M,M,M,M,M,50.00,KBAM 111255Z AUTO 20004KT 10SM CLR 10/08 A2996 RMK AO1,M
HTH,2023-06-11 12:55,-118.6315,38.5448,1282.89,55.40,53.60,93.65,0.00,0.00,0.00,29.94,M,10.00,M,CLR,M,M,M,M,M,M,M,M,M,M,M,M,M,M,55.40,KHTH 111255Z AUTO 00000KT 10SM CLR 13/12 A2994 RMK A01,M
LSV,2023-06-11 12:55,-115.0343,36.2362,570.00,71.20,26.80,18.96,70.00,3.00,0.00,29.66,1002.10,10.00,M,CLR,M,M,M,M,M,M,M,M,M,M,M,M,M,M,71.20,KLSV 111255Z AUTO 07003KT 10SM CLR 22/M03 A2966 RMK AO2 SLP021 T02181029 $,M
TMT,2023-06-11 12:55,-117.1971,39.4643,1749.34,41.40,41.20,99.23,0.00,0.00,0.00,30.00,M,10.00,M,SCT,M,M,M,10000.00,M,M,M,M,M,M,M,M,M,M,41.40,KTMT 111255Z AUTO 00000KT 10SM SCT100 05/05 A3000 RMK AO2 LTG DSNT SW T00520051,M
WMC,2023-06-11 12:56,-117.8072,40.9019,1315.00,46.00,43.00,89.20,0.00,0.00,0.00,29.95,1012.00,8.00,M,CLR,M,M,M,M,M,M,M,M,M,M,M,M,M,M,46.00,KWMC 111256Z AUTO 00000KT 8SM CLR 08/06 A2995 RMK AO2 SLP120 T00780061,M
NFL,2023-06-11 12:56,-118.7010,39.4166,1199.00,54.00,50.00,86.29,290.00,6.00,0.00,29.91,1010.20,10.00,M,CLR,M,M,M,M,M,M,M,M,M,M,M,M,M,M,54.00,KNFL 111256Z AUTO 29006KT 10SM CLR 12/10 A2991 RMK AO2 SLP102 T01220100,M
HND,2023-06-11 12:56,-115.1344,35.9729,742.79,71.00,32.00,23.52,160.00,4.00,0.00,29.73,1005.60,10.00,M,CLR,M,M,M,M,M,M,M,M,M,M,M,M,M,M,71.10,KHND 111256Z AUTO 16004KT 10SM CLR 22/00 A2973 RMK AO2 SLP056 T02170000,M
TPH,2023-06-11 12:56,-117.0904,38.0505,1654.00,52.00,45.00,76.94,340.00,8.00,0.00,29.92,1007.70,10.00,M,CLR,M,M,M,M,M,M,M,M,M,M,M,M,M,M,52.00,KTPH 111256Z AUTO 34008KT 10SM CLR 11/07 A2992 RMK AO2 SLP077 T01110072,M
LAS,2023-06-11 12:56,-115.1634,36.0719,663.00,73.00,30.90,21.10,220.00,4.00,0.00,29.70,1003.10,10.00,M,BKN,BKN,M,M,16000.00,22000.00,M,M,M,M,M,M,M,M,M,73.00,KLAS 111256Z 22004KT 10SM BKN160 BKN220 23/M01 A2970 RMK AO2 SLP031 T02281006,M
EKO,2023-06-11 12:56,-115.7860,40.8242,1367.00,53.00,47.00,79.40,80.00,4.00,0.00,29.96,1011.20,10.00,M,CLR,M,M,M,M,M,M,M,M,M,M,M,M,M,M,53.10,KEKO 111256Z AUTO 08004KT 10SM CLR 12/08 A2996 RMK AO2 SLP112 T01170083,M
BVU,2023-06-11 13:15,-114.8611,35.9475,671.00,75.20,28.40,17.70,90.00,3.00,0.00,29.70,M,10.00,M,CLR,M,M,M,M,M,M,M,M,M,M,M,M,M,M,75.20,KBVU 111315Z AUTO 09003KT 10SM CLR 24/M02 A2970 RMK AO2,M
CXP,2023-06-11 13:15,-119.7326,39.1923,1431.00,46.40,46.40,100.00,0.00,0.00,0.00,29.98,M,8.00,M,CLR,M,M,M,M,M,M,M,M,M,M,M,M,M,M,46.40,KCXP 111315Z AUTO 00000KT 8SM CLR 08/08 A2998 RMK AO2,M
RTS,2023-06-11 13:15,-119.8764,39.6682,1539.00,44.60,44.60,100.00,360.00,4.00,0.00,29.99,M,10.00,M,OVC,M,M,M,400.00,M,M,M,M,M,M,M,M,M,M,42.13,KRTS 111315Z AUTO 36004KT 10SM OVC004 07/07 A2999 RMK AO2,M
MEV,2023-06-11 13:15,-119.7500,38.9963,1441.42,42.80,42.80,100.00,60.00,4.00,0.00,29.96,M,9.00,M,CLR,M,M,M,M,M,M,M,M,M,M,M,M,M,M,40.03,KMEV 111315Z AUTO 06004KT 9SM CLR 06/06 A2996 RMK AO2,M
BAM,2023-06-11 13:15,-116.8743,40.5990,1382.36,50.00,48.20,93.50,0.00,0.00,0.00,29.97,M,10.00,M,CLR,M,M,M,M,M,M,M,M,M,M,M,M,M,M,50.00,KBAM 111315Z AUTO 00000KT 10SM CLR 10/09 A2997 RMK AO1,M
HTH,2023-06-11 13:15,-118.6315,38.5448,1282.89,55.40,53.60,93.65,0.00,0.00,0.00,29.94,M,10.00,M,SCT,M,M,M,11000.00,M,M,M,M,M,M,M,M,M,M,55.40,KHTH 111315Z AUTO 00000KT 10SM SCT110 13/12 A2994 RMK A01,M
TMT,2023-06-11 13:15,-117.1971,39.4643,1749.34,43.00,42.80,99.24,0.00,0.00,0.00,30.00,M,10.00,M,SCT,M,M,M,10000.00,M,M,M,M,M,M,M,M,M,M,43.00,KTMT 111315Z AUTO 00000KT 10SM SCT100 06/06 A3000 RMK AO2 T00610060,M
BVU,2023-06-11 13:35,-114.8611,35.9475,671.00,75.20,28.40,17.70,110.00,4.00,0.00,29.71,M,10.00,M,CLR,M,M,M,M,M,M,M,M,M,M,M,M,M,M,75.20,KBVU 111335Z AUTO 11004KT 10SM CLR 24/M02 A2971 RMK AO2,M
CXP,2023-06-11 13:35,-119.7326,39.1923,1431.00,46.40,46.40,100.00,0.00,0.00,0.00,29.97,M,9.00,M,CLR,M,M,M,M,M,M,M,M,M,M,M,M,M,M,46.40,KCXP 111335Z AUTO 00000KT 9SM CLR 08/08 A2997 RMK AO2,M
RTS,2023-06-11 13:35,-119.8764,39.6682,1539.00,48.20,46.40,93.45,340.00,5.00,0.00,29.98,M,10.00,M,BKN,M,M,M,500.00,M,M,M,M,M,M,M,M,M,M,45.63,KRTS 111335Z AUTO 34005KT 10SM BKN005 09/08 A2998 RMK AO2,M
MEV,2023-06-11 13:35,-119.7500,38.9963,1441.42,42.80,42.80,100.00,0.00,0.00,0.00,29.96,M,8.00,M,CLR,M,M,M,M,M,M,M,M,M,M,M,M,M,M,42.80,KMEV 111335Z AUTO 00000KT 8SM CLR 06/06 A2996 RMK AO2,M
BAM,2023-06-11 13:35,-116.8743,40.5990,1382.36,50.00,48.20,93.50,0.00,0.00,0.00,29.97,M,10.00,M,CLR,M,M,M,M,M,M,M,M,M,M,M,M,M,M,50.00,KBAM 111335Z AUTO 00000KT 10SM CLR 10/09 A2997 RMK AO1,M
HTH,2023-06-11 13:35,-118.6315,38.5448,1282.89,55.40,53.60,93.65,0.00,0.00,0.00,29.93,M,10.00,M,SCT,M,M,M,11000.00,M,M,M,M,M,M,M,M,M,M,55.40,KHTH 111335Z AUTO 00000KT 10SM SCT110 13/12 A2993 RMK A01,M
TMT,2023-06-11 13:35,-117.1971,39.4643,1749.34,44.00,43.70,98.48,0.00,0.00,0.00,30.00,M,10.00,M,CLR,M,M,M,M,M,M,M,M,M,M,M,M,M,M,44.10,KTMT 111335Z AUTO 00000KT 10SM CLR 07/07 A3000 RMK AO2 T00670065,M
HTH,2023-06-11 13:50,-118.6315,38.5448,1282.89,55.40,53.60,93.65,0.00,0.00,0.00,29.94,M,10.00,M,FEW,M,M,M,11000.00,M,M,M,M,M,M,M,M,M,M,55.40,KHTH 111350Z AUTO 00000KT 10SM FEW110 13/12 A2994 RMK A01,M
P68,2023-06-11 13:53,-116.0056,39.6014,1993.00,48.00,46.00,92.74,190.00,5.00,0.00,29.98,1010.10,M,M,M,M,M,M,M,M,M,M,M,M,M,M,M,M,M,45.40,KP68 111353Z AUTO 19005KT 09/08 A2998 RMK AO1 SLP101 T00890078,M
DRA,2023-06-11 13:53,-116.0278,36.6206,1009.00,67.00,36.00,31.87,0.00,0.00,0.00,29.75,1002.80,10.00,M,CLR,M,M,M,M,M,M,M,M,M,M,M,M,M,M,66.90,KDRA 111353Z AUTO 00000KT 10SM CLR 19/02 A2975 RMK AO2 SLP028 T01940022,M
VGT,2023-06-11 13:53,-115.1933,36.2111,667.00,73.00,33.00,23.06,20.00,3.00,0.00,29.70,1004.80,10.00,M,CLR,M,M,M,M,M,M,M,M,M,M,M,M,M,M,73.00,KVGT 111353Z 02003KT 10SM CLR 23/01 A2970 RMK AO2 SLP048 T02280006,M
LOL,2023-06-11 13:53,-118.5701,40.0684,1192.43,54.00,49.00,82.82,30.00,7.00,0.00,29.93,1011.60,10.00,M,CLR,M,M,M,M,M,M,M,M,M,M,M,M,M,M,54.00,KLOL 111353Z AUTO 03007KT 10SM CLR 12/09 A2993 RMK AO2 SLP116 T01220094,M
ELY,2023-06-11 13:53,-114.8453,39.2950,1909.00,44.00,40.00,85.06,170.00,4.00,0.00,30.00,1008.80,10.00,M,CLR,M,M,M,M,M,M,M,M,M,M,M,M,M,M,41.55,KELY 111353Z AUTO 17004KT 10SM CLR 07/04 A3000 RMK AO2 SLP088 T00670044,M
BVU,2023-06-11 13:55,-114.8611,35.9475,671.00,75.20,30.20,19.05,140.00,7.00,0.00,29.71,M,10.00,M,CLR,M,M,M,M,M,M,M,M,M,M,M,M,M,M,75.20,KBVU 111355Z AUTO 14007KT 10SM CLR 24/M01 A2971 RMK AO2,M
CXP,2023-06-11 13:55,-119.7326,39.1923,1431.00,48.20,48.20,100.00,0.00,0.00,0.00,29.97,M,9.00,M,CLR,M,M,M,M,M,M,M,M,M,M,M,M,M,M,48.20,KCXP 111355Z AUTO 00000KT 9SM CLR 09/09 A2997 RMK AO2,M
INS,2023-06-11 13:55,-115.6733,36.5872,955.00,66.00,29.10,24.91,110.00,4.00,0.00,29.74,1002.60,10.00,M,FEW,M,M,M,20000.00,M,M,M,M,M,M,M,M,M,M,66.00,KINS 111355Z AUTO 11004KT 10SM FEW200 19/M02 A2974 RMK AO2 SLP026 T01891016 $,M
LSV,2023-06-11 13:55,-115.0343,36.2362,570.00,72.50,26.60,18.00,50.00,4.00,0.00,29.66,1002.10,10.00,M,BKN,M,M,M,14000.00,M,M,M,M,M,M,M,M,M,M,72.50,KLSV 111355Z 05004KT 10SM BKN140 23/M03 A2966 RMK AO2A SLP021 T02251030 $,M
RTS,2023-06-11 13:55,-119.8764,39.6682,1539.00,48.20,48.20,100.00,330.00,4.00,0.00,29.98,M,10.00,M,SCT,M,M,M,600.00,M,M,M,M,M,M,M,M,M,M,46.34,KRTS 111355Z AUTO 33004KT 10SM SCT006 09/09 A2998 RMK AO2,M
MEV,2023-06-11 13:55,-119.7500,38.9963,1441.42,44.60,44.60,100.00,0.00,0.00,0.00,29.96,M,8.00,M,CLR,M,M,M,M,M,M,M,M,M,M,M,M,M,M,44.60,KMEV 111355Z AUTO 00000KT 8SM CLR 07/07 A2996 RMK AO2,M
BAM,2023-06-11 13:55,-116.8743,40.5990,1382.36,51.80,50.00,93.55,0.00,0.00,0.00,29.97,M,10.00,M,CLR,M,M,M,M,M,M,M,M,M,M,M,M,M,M,51.80,KBAM 111355Z AUTO 00000KT 10SM CLR 11/10 A2997 RMK AO1,M
RNO,2023-06-11 13:55,-119.7711,39.4839,1341.00,52.00,47.00,82.68,310.00,4.00,0.00,29.95,1011.20,10.00,M,FEW,SCT,BKN,M,3500.00,10000.00,24000.00,M,M,M,M,M,M,M,M,52.00,KRNO 111355Z 31004KT 10SM FEW035 SCT100 BKN240 11/08 A2995 RMK AO2 SLP112 MTN TOPS OBSCD DSNT W THRU NW T01110083,M
HND,2023-06-11 13:56,-115.1344,35.9729,742.79,72.00,34.00,24.72,220.00,5.00,0.00,29.73,1005.60,10.00,M,CLR,M,M,M,M,M,M,M,M,M,M,M,M,M,M,72.00,KHND 111356Z 22005KT 10SM CLR 22/01 A2973 RMK AO2 SLP056 T02220011,M
TPH,2023-06-11 13:56,-117.0904,38.0505,1654.00,57.00,46.00,66.59,350.00,12.00,0.00,29.91,1007.40,10.00,M,CLR,M,M,M,M,M,M,M,M,M,M,M,M,M,M,57.00,KTPH 111356Z AUTO 35012KT 10SM CLR 14/08 A2991 RMK AO2 SLP074 T01390078,M
LAS,2023-06-11 13:56,-115.1634,36.0719,663.00,74.00,34.00,23.19,0.00,0.00,0.00,29.70,1003.20,10.00,M,BKN,BKN,M,M,16000.00,22000.00,M,M,M,M,M,M,M,M,M,73.90,KLAS 111356Z 00000KT 10SM BKN160 BKN220 23/01 A2970 RMK AO2 SLP032 T02330011,M
EKO,2023-06-11 13:56,-115.7860,40.8242,1367.00,55.00,49.00,79.85,240.00,3.00,0.00,29.97,1011.70,10.00,M,CLR,M,M,M,M,M,M,M,M,M,M,M,M,M,M,55.00,KEKO 111356Z AUTO 24003KT 10SM CLR 13/09 A2997 RMK AO2 SLP117 T01280094,M
WMC,2023-06-11 13:56,-117.8072,40.9019,1315.00,50.00,47.00,89.04,130.00,4.00,0.00,29.96,1011.90,10.00,M,CLR,M,M,M,M,M,M,M,M,M,M,M,M,M,M,50.00,KWMC 111356Z AUTO 13004KT 10SM CLR 10/08 A2996 RMK AO2 SLP119 T01000083,M
NFL,2023-06-11 13:56,-118.7010,39.4166,1199.00,55.00,51.00,86.66,20.00,4.00,0.00,29.91,1010.30,10.00,M,CLR,M,M,M,M,M,M,M,M,M,M,M,M,M,M,55.00,KNFL 111356Z AUTO 02004KT 10SM CLR 13/11 A2991 RMK AO2 SLP103 T01280106,M
BVU,2023-06-11 14:15,-114.8611,35.9475,671.00,77.00,30.20,17.94,140.00,9.00,0.00,29.71,M,10.00,14.00,CLR,M,M,M,M,M,M,M,M,M,M,M,M,M,M,77.00,KBVU 111415Z AUTO 14009G14KT 10SM CLR 25/M01 A2971 RMK AO2,M
CXP,2023-06-11 14:15,-119.7326,39.1923,1431.00,50.00,50.00,100.00,0.00,0.00,0.00,29.96,M,10.00,M,CLR,M,M,M,M,M,M,M,M,M,M,M,M,M,M,50.00,KCXP 111415Z AUTO 00000KT 10SM CLR 10/10 A2996 RMK AO2,M
RTS,2023-06-11 14:15,-119.8764,39.6682,1539.00,50.00,48.20,93.50,310.00,4.00,0.00,29.98,M,10.00,M,FEW,M,M,M,900.00,M,M,M,M,M,M,M,M,M,M,50.00,KRTS 111415Z AUTO 31004KT 10SM FEW009 10/09 A2998 RMK AO2,M
MEV,2023-06-11 14:15,-119.7500,38.9963,1441.42,48.20,48.20,100.00,190.00,5.00,0.00,29.96,M,10.00,M,CLR,M,M,M,M,M,M,M,M,M,M,M,M,M,M,45.63,KMEV 111415Z AUTO 19005KT 10SM CLR 09/09 A2996 RMK AO2,M
BAM,2023-06-11 14:15,-116.8743,40.5990,1382.36,53.60,51.80,93.60,240.00,4.00,0.00,29.97,M,10.00,M,CLR,M,M,M,M,M,M,M,M,M,M,M,M,M,M,53.60,KBAM 111415Z AUTO 24004KT 10SM CLR 12/11 A2997 RMK AO1,M
HTH,2023-06-11 14:15,-118.6315,38.5448,1282.89,55.40,53.60,93.65,170.00,4.00,0.00,29.95,M,10.00,M,CLR,M,M,M,M,M,M,M,M,M,M,M,M,M,M,55.40,KHTH 111415Z AUTO 17004KT 10SM CLR 13/12 A2995 RMK A01,M
TMT,2023-06-11 14:15,-117.1971,39.4643,1749.34,46.00,45.00,96.64,10.00,3.00,0.00,30.00,M,10.00,M,CLR,M,M,M,M,M,M,M,M,M,M,M,M,M,M,44.58,KTMT 111415Z AUTO 01003KT 10SM CLR 08/07 A3000 RMK AO2 T00770072,M
BVU,2023-06-11 14:35,-114.8611,35.9475,671.00,77.00,30.20,17.94,150.00,8.00,0.00,29.72,M,10.00,14.00,CLR,M,M,M,M,M,M,M,M,M,M,M,M,M,M,77.00,KBVU 111435Z AUTO 15008G14KT 10SM CLR 25/M01 A2972 RMK AO2,M
CXP,2023-06-11 14:35,-119.7326,39.1923,1431.00,51.80,50.00,93.55,0.00,0.00,0.00,29.96,M,10.00,M,CLR,M,M,M,M,M,M,M,M,M,M,M,M,M,M,51.80,KCXP 111435Z AUTO 00000KT 10SM CLR 11/10 A2996 RMK AO2,M
RTS,2023-06-11 14:35,-119.8764,39.6682,1539.00,50.00,48.20,93.50,0.00,0.00,0.00,29.98,M,10.00,M,CLR,M,M,M,M,M,M,M,M,M,M,M,M,M,M,50.00,KRTS 111435Z AUTO 00000KT 10SM CLR 10/09 A2998 RMK AO2,M
MEV,2023-06-11 14:35,-119.7500,38.9963,1441.42,48.20,46.40,93.45,220.00,7.00,0.00,29.96,M,0.25,M,OVC,M,M,M,300.00,M,M,M,-RA FG,M,M,M,M,M,M,44.53,KMEV 111435Z AUTO 22007KT M1/4SM -RA FG OVC003 09/08 A2996 RMK AO2,M
BAM,2023-06-11 14:35,-116.8743,40.5990,1382.36,55.40,51.80,87.65,0.00,0.00,0.00,29.97,M,10.00,M,CLR,M,M,M,M,M,M,M,M,M,M,M,M,M,M,55.40,KBAM 111435Z AUTO 00000KT 10SM CLR 13/11 A2997 RMK AO1,M
HTH,2023-06-11 14:35,-118.6315,38.5448,1282.89,57.20,53.60,87.74,240.00,4.00,0.00,29.95,M,10.00,M,CLR,M,M,M,M,M,M,M,M,M,M,M,M,M,M,57.20,KHTH 111435Z AUTO 24004KT 10SM CLR 14/12 A2995 RMK A01,M
TMT,2023-06-11 14:35,-117.1971,39.4643,1749.34,47.70,46.00,93.44,0.00,0.00,0.00,30.00,M,10.00,M,CLR,M,M,M,M,M,M,M,M,M,M,M,M,M,M,47.70,KTMT 111435Z AUTO 00000KT 10SM CLR 09/08 A3000 RMK AO2 T00870077,M
ELY,2023-06-11 14:53,-114.8453,39.2950,1909.00,50.00,43.00,76.76,0.00,0.00,0.00,29.99,1008.40,10.00,M,CLR,M,M,M,M,M,M,M,M,M,M,M,M,M,M,50.00,KELY 111453Z AUTO 00000KT 10SM CLR 10/06 A2999 RMK AO2 SLP084 T01000061 58003,M
VGT,2023-06-11 14:53,-115.1933,36.2111,667.00,76.00,34.00,21.69,40.00,4.00,0.00,29.71,1005.10,10.00,M,CLR,M,M,M,M,M,M,M,M,M,M,M,M,M,M,75.90,KVGT 111453Z 04004KT 10SM CLR 24/01 A2971 RMK AO2 SLP051 T02440011 53009,M
P68,2023-06-11 14:53,-116.0056,39.6014,1993.00,51.00,49.00,92.14,220.00,4.00,0.00,29.98,1010.20,M,M,M,M,M,M,M,M,M,M,M,M,M,M,M,M,M,51.10,KP68 111453Z AUTO 22004KT 11/09 A2998 RMK AO1 SLP102 T01060094 53001,M
DRA,2023-06-11 14:53,-116.0278,36.6206,1009.00,71.00,42.00,35.02,220.00,7.00,0.00,29.76,1003.00,10.00,M,CLR,M,M,M,M,M,M,M,M,M,M,M,M,M,M,71.10,KDRA 111453Z AUTO 22007KT 10SM CLR 22/06 A2976 RMK AO2 SLP030 T02170056 53005,M
LOL,2023-06-11 14:53,-118.5701,40.0684,1192.43,58.00,51.00,78.03,100.00,8.00,0.00,29.93,1011.10,10.00,M,CLR,M,M,M,M,M,M,M,M,M,M,M,M,M,M,57.90,KLOL 111453Z AUTO 10008KT 10SM CLR 14/11 A2993 RMK AO2 SLP111 T01440106 58003,M
BVU,2023-06-11 14:55,-114.8611,35.9475,671.00,77.00,30.20,17.94,150.00,11.00,0.00,29.73,M,10.00,M,CLR,M,M,M,M,M,M,M,M,M,M,M,M,M,M,77.00,KBVU 111455Z AUTO 15011KT 10SM CLR 25/M01 A2973 RMK AO2 LTG DSNT SW,M
CXP,2023-06-11 14:55,-119.7326,39.1923,1431.00,53.60,48.20,81.87,0.00,0.00,0.00,29.97,M,10.00,M,CLR,M,M,M,M,M,M,M,M,M,M,M,M,M,M,53.60,KCXP 111455Z AUTO 00000KT 10SM CLR 12/09 A2997 RMK AO2,M
INS,2023-06-11 14:55,-115.6733,36.5872,955.00,69.60,26.80,20.02,70.00,4.00,0.00,29.75,1003.00,10.00,M,FEW,M,M,M,19000.00,M,M,M,M,M,M,M,M,M,M,69.60,KINS 111455Z AUTO 07004KT 10SM FEW190 21/M03 A2975 RMK AO2 SLP030 T02091029 53004 $,M
RNO,2023-06-11 14:55,-119.7711,39.4839,1341.00,56.00,48.00,74.72,260.00,3.00,0.00,29.95,1010.90,10.00,M,FEW,FEW,SCT,SCT,3500.00,8000.00,18000.00,24000.00,M,M,M,M,M,M,M,55.90,KRNO 111455Z 26003KT 10SM FEW035 FEW080 SCT180 SCT240 13/09 A2995 RMK AO2 SLP109 MTN TOPS OBSCD DSNT W THRU NW T01330089 55005,M
LSV,2023-06-11 14:55,-115.0343,36.2362,570.00,75.60,29.10,17.97,40.00,6.00,0.00,29.68,1002.70,10.00,M,BKN,M,M,M,15000.00,M,M,M,M,M,M,M,M,M,M,75.60,KLSV 111455Z 04006KT 10SM BKN150 24/M02 A2968 RMK AO2A SLP027 T02421016 52011 $,M
RTS,2023-06-11 14:55,-119.8764,39.6682,1539.00,51.80,48.20,87.47,0.00,0.00,0.00,29.98,M,10.00,M,FEW,M,M,M,700.00,M,M,M,M,M,M,M,M,M,M,51.80,KRTS 111455Z AUTO 00000KT 10SM FEW007 11/09 A2998 RMK AO2,M
MEV,2023-06-11 14:55,-119.7500,38.9963,1441.42,50.00,48.20,93.50,210.00,5.00,0.00,29.96,M,0.50,M,OVC,M,M,M,300.00,M,M,M,FG,M,M,M,M,M,M,50.00,KMEV 111455Z AUTO 21005KT 1/2SM FG OVC003 10/09 A2996 RMK AO2,M
BAM,2023-06-11 14:55,-116.8743,40.5990,1382.36,59.00,51.80,76.98,360.00,3.00,0.00,29.97,M,10.00,M,CLR,M,M,M,M,M,M,M,M,M,M,M,M,M,M,59.00,KBAM 111455Z AUTO 36003KT 10SM CLR 15/11 A2997 RMK AO1,M
HTH,2023-06-11 14:55,-118.6315,38.5448,1282.89,57.20,53.60,87.74,290.00,4.00,0.00,29.94,M,10.00,M,CLR,M,M,M,M,M,M,M,M,M,M,M,M,M,M,57.20,KHTH 111455Z AUTO 29004KT 10SM CLR 14/12 A2994 RMK A01,M
TMT,2023-06-11 14:55,-117.1971,39.4643,1749.34,49.00,46.60,91.72,0.00,0.00,0.00,30.00,M,10.00,M,CLR,M,M,M,M,M,M,M,M,M,M,M,M,M,M,48.90,KTMT 111455Z AUTO 00000KT 10SM CLR 09/08 A3000 RMK AO2 T00940081,M
WMC,2023-06-11 14:56,-117.8072,40.9019,1315.00,55.00,52.00,89.59,0.00,0.00,0.00,29.96,1011.50,10.00,M,CLR,M,M,M,M,M,M,M,M,M,M,M,M,M,M,55.00,KWMC 111456Z AUTO 00000KT 10SM CLR 13/11 A2996 RMK AO2 SLP115 T01280111 51005,M
HND,2023-06-11 14:56,-115.1344,35.9729,742.79,75.00,36.00,24.20,230.00,7.00,0.00,29.74,1006.00,10.00,M,CLR,M,M,M,M,M,M,M,M,M,M,M,M,M,M,75.00,KHND 111456Z 23007KT 10SM CLR 24/02 A2974 RMK AO2 SLP060 T02390022 53007,M
EKO,2023-06-11 14:56,-115.7860,40.8242,1367.00,59.00,49.00,69.12,M,M,0.00,29.96,1011.10,10.00,M,CLR,M,M,M,M,M,M,M,M,M,M,M,M,M,M,59.00,KEKO 111456Z AUTO 10SM CLR 15/09 A2996 RMK AO2 SLP111 T01500094 50000,M
TPH,2023-06-11 14:56,-117.0904,38.0505,1654.00,61.00,47.00,59.71,350.00,9.00,0.00,29.91,1007.10,10.00,M,CLR,M,M,M,M,M,M,M,M,M,M,M,M,M,M,61.00,KTPH 111456Z AUTO 35009KT 10SM CLR 16/08 A2991 RMK AO2 SLP071 T01610083 56001,M
NFL,2023-06-11 14:56,-118.7010,39.4166,1199.00,56.00,51.00,83.88,M,5.00,0.00,29.94,1011.00,10.00,M,SCT,BKN,BKN,BKN,6000.00,10000.00,15000.00,25000.00,M,M,M,M,M,M,M,55.90,KNFL 111456Z VRB05KT 10SM SCT060 BKN100 BKN150 BKN250 13/11 A2994 RMK AO2 SLP110 T01330106 55002,M
LAS,2023-06-11 14:56,-115.1634,36.0719,663.00,74.00,33.00,22.37,230.00,3.00,0.00,29.71,1003.60,10.00,M,FEW,BKN,BKN,M,10000.00,16000.00,22000.00,M,M,M,M,M,M,M,M,73.90,KLAS 111456Z 23003KT 10SM FEW100 BKN160 BKN220 23/01 A2971 RMK AO2 SLP036 T02330006 53007,M
BVU,2023-06-11 15:15,-114.8611,35.9475,671.00,77.00,28.40,16.67,M,M,0.00,29.73,M,10.00,M,CLR,M,M,M,M,M,M,M,M,M,M,M,M,M,M,77.00,KBVU 111515Z AUTO 10/00000010KT 10SM CLR 25/M02 A2973 RMK AO2,M
CXP,2023-06-11 15:15,-119.7326,39.1923,1431.00,53.60,50.00,87.56,200.00,7.00,0.00,29.97,M,10.00,M,CLR,M,M,M,M,M,M,M,M,M,M,M,M,M,M,53.60,KCXP 111515Z AUTO 20007KT 10SM CLR 12/10 A2997 RMK AO2,M
RTS,2023-06-11 15:15,-119.8764,39.6682,1539.00,53.60,50.00,87.56,0.00,0.00,0.00,29.97,M,10.00,M,CLR,M,M,M,M,M,M,M,M,M,M,M,M,M,M,53.60,KRTS 111515Z AUTO 00000KT 10SM CLR 12/10 A2997 RMK AO2,M
MEV,2023-06-11 15:15,-119.7500,38.9963,1441.42,50.00,50.00,100.00,0.00,0.00,0.00,29.96,M,9.00,M,FEW,SCT,M,M,300.00,700.00,M,M,M,M,M,M,M,M,M,50.00,KMEV 111515Z AUTO 00000KT 9SM FEW003 SCT007 10/10 A2996 RMK AO2,M
BAM,2023-06-11 15:15,-116.8743,40.5990,1382.36,59.00,53.60,82.25,350.00,3.00,0.00,29.97,M,10.00,M,CLR,M,M,M,M,M,M,M,M,M,M,M,M,M,M,59.00,KBAM 111515Z AUTO 35003KT 10SM CLR 15/12 A2997 RMK AO1,M
HTH,2023-06-11 15:15,-118.6315,38.5448,1282.89,59.00,53.60,82.25,340.00,7.00,0.00,29.93,M,10.00,M,FEW,M,M,M,11000.00,M,M,M,M,M,M,M,M,M,M,59.00,KHTH 111515Z AUTO 34007KT 10SM FEW110 15/12 A2993 RMK A01,M
TMT,2023-06-11 15:15,-117.1971,39.4643,1749.34,51.00,47.00,85.48,0.00,0.00,0.00,29.99,M,10.00,M,CLR,M,M,M,M,M,M,M,M,M,M,M,M,M,M,51.10,KTMT 111515Z AUTO 00000KT 10SM CLR 11/08 A2999 RMK AO2 T01060083,M
BVU,2023-06-11 15:35,-114.8611,35.9475,671.00,77.00,26.60,15.48,170.00,12.00,0.00,29.74,M,10.00,M,CLR,M,M,M,M,M,M,M,M,M,M,M,M,M,M,77.00,KBVU 111535Z AUTO 17012KT 10SM CLR 25/M03 A2974 RMK AO2,M
CXP,2023-06-11 15:35,-119.7326,39.1923,1431.00,53.60,50.00,87.56,190.00,5.00,0.00,29.98,M,10.00,M,FEW,M,M,M,1400.00,M,M,M,M,M,M,M,M,M,M,53.60,KCXP 111535Z AUTO 19005KT 10SM FEW014 12/10 A2998 RMK AO2,M
RTS,2023-06-11 15:35,-119.8764,39.6682,1539.00,53.60,50.00,87.56,140.00,4.00,0.00,29.97,M,10.00,M,SCT,M,M,M,900.00,M,M,M,M,M,M,M,M,M,M,53.60,KRTS 111535Z AUTO 14004KT 10SM SCT009 12/10 A2997 RMK AO2,M
BAM,2023-06-11 15:35,-116.8743,40.5990,1382.36,60.80,51.80,72.20,0.00,0.00,0.00,29.97,M,10.00,M,CLR,M,M,M,M,M,M,M,M,M,M,M,M,M,M,60.80,KBAM 111535Z AUTO 00000KT 10SM CLR 16/11 A2997 RMK AO1,M
MEV,2023-06-11 15:35,-119.7500,38.9963,1441.42,53.60,50.00,87.56,M,3.00,0.00,29.96,M,10.00,M,FEW,M,M,M,700.00,M,M,M,M,M,M,M,M,M,M,53.60,KMEV 111535Z AUTO VRB03KT 10SM FEW007 12/10 A2996 RMK AO2,M
HTH,2023-06-11 15:35,-118.6315,38.5448,1282.89,59.00,51.80,76.98,360.00,9.00,0.00,29.93,M,10.00,M,CLR,M,M,M,M,M,M,M,M,M,M,M,M,M,M,59.00,KHTH 111535Z AUTO 36009KT 10SM CLR 15/11 A2993 RMK A01,M
TMT,2023-06-11 15:35,-117.1971,39.4643,1749.34,52.20,46.60,81.15,0.00,0.00,0.00,29.99,M,10.00,M,CLR,M,M,M,M,M,M,M,M,M,M,M,M,M,M,52.20,KTMT 111535Z AUTO 00000KT 10SM CLR 11/08 A2999 RMK AO2 T01120081,M
ELY,2023-06-11 15:53,-114.8453,39.2950,1909.00,54.00,43.00,66.24,330.00,5.00,0.00,29.98,1008.50,10.00,M,SCT,M,M,M,11000.00,M,M,M,M,M,M,M,M,M,M,54.00,KELY 111553Z AUTO 33005KT 10SM SCT110 12/06 A2998 RMK AO2 SLP085 T01220061,M
LOL,2023-06-11 15:53,-118.5701,40.0684,1192.43,60.00,52.00,74.57,20.00,6.00,0.00,29.92,1011.00,10.00,M,CLR,M,M,M,M,M,M,M,M,M,M,M,M,M,M,60.10,KLOL 111553Z AUTO 02006KT 10SM CLR 16/11 A2992 RMK AO2 SLP110 T01560111,M
DRA,2023-06-11 15:53,-116.0278,36.6206,1009.00,72.00,42.00,33.97,220.00,7.00,0.00,29.76,1003.20,10.00,M,CLR,M,M,M,M,M,M,M,M,M,M,M,M,M,M,72.00,KDRA 111553Z AUTO 22007KT 10SM CLR 22/06 A2976 RMK AO2 SLP032 T02220056,M
VGT,2023-06-11 15:53,-115.1933,36.2111,667.00,79.00,33.00,18.88,120.00,7.00,0.00,29.72,1005.40,10.00,M,CLR,M,M,M,M,M,M,M,M,M,M,M,M,M,M,79.00,KVGT 111553Z 12007KT 10SM CLR 26/01 A2972 RMK AO2 SLP054 T02610006,M
P68,2023-06-11 15:53,-116.0056,39.6014,1993.00,56.00,47.00,71.69,0.00,0.00,0.00,29.97,1009.50,M,M,M,M,M,M,M,M,M,M,M,M,M,M,M,M,M,55.90,KP68 111553Z AUTO 00000KT 13/08 A2997 RMK AO1 SLP095 T01330083,M
BVU,2023-06-11 15:55,-114.8611,35.9475,671.00,77.00,26.60,15.48,140.00,12.00,0.00,29.74,M,10.00,M,CLR,M,M,M,M,M,M,M,M,M,M,M,M,M,M,77.00,KBVU 111555Z AUTO 14012KT 10SM CLR 25/M03 A2974 RMK AO2,M
CXP,2023-06-11 15:55,-119.7326,39.1923,1431.00,55.40,50.00,81.99,0.00,0.00,0.00,29.98,M,10.00,M,SCT,M,M,M,1400.00,M,M,M,M,M,M,M,M,M,M,55.40,KCXP 111555Z AUTO 00000KT 10SM SCT014 13/10 A2998 RMK AO2,M
INS,2023-06-11 15:55,-115.6733,36.5872,955.00,74.00,25.00,16.06,70.00,11.00,0.00,29.75,1002.80,10.00,M,BKN,M,M,M,16000.00,M,M,M,M,M,M,M,M,M,M,73.90,KINS 111555Z AUTO 07011KT 10SM BKN160 23/M04 A2975 RMK AO2 SLP028 T02331039 $,M
RTS,2023-06-11 15:55,-119.8764,39.6682,1539.00,53.60,50.00,87.56,130.00,4.00,0.00,29.98,M,10.00,M,FEW,M,M,M,900.00,M,M,M,M,M,M,M,M,M,M,53.60,KRTS 111555Z AUTO 13004KT 10SM FEW009 12/10 A2998 RMK AO2,M
MEV,2023-06-11 15:55,-119.7500,38.9963,1441.42,53.60,50.00,87.56,0.00,0.00,0.00,29.97,M,10.00,M,SCT,M,M,M,1100.00,M,M,M,M,M,M,M,M,M,M,53.60,KMEV 111555Z AUTO 00000KT 10SM SCT011 12/10 A2997 RMK AO2,M
BAM,2023-06-11 15:55,-116.8743,40.5990,1382.36,60.80,51.80,72.20,0.00,0.00,0.00,29.96,M,10.00,M,CLR,M,M,M,M,M,M,M,M,M,M,M,M,M,M,60.80,KBAM 111555Z AUTO 00000KT 10SM CLR 16/11 A2996 RMK AO1,M
HTH,2023-06-11 15:55,-118.6315,38.5448,1282.89,59.00,51.80,76.98,320.00,7.00,0.00,29.94,M,10.00,M,CLR,M,M,M,M,M,M,M,M,M,M,M,M,M,M,59.00,KHTH 111555Z AUTO 32007KT 10SM CLR 15/11 A2994 RMK A01,M
TMT,2023-06-11 15:55,-117.1971,39.4643,1749.34,53.20,47.70,81.53,320.00,4.00,0.00,29.99,M,10.00,M,CLR,M,M,M,M,M,M,M,M,M,M,M,M,M,M,53.20,KTMT 111555Z AUTO 32004KT 10SM CLR 12/09 A2999 RMK AO2 T01180087,M
LSV,2023-06-11 15:55,-115.0343,36.2362,570.00,78.80,31.60,17.89,0.00,0.00,0.00,29.69,1003.00,10.00,M,BKN,M,M,M,15000.00,M,M,M,M,M,M,M,M,M,M,78.80,KLSV 111555Z 00000KT 10SM BKN150 26/M00 A2969 RMK AO2A SLP030 T02601002 $,M
RNO,2023-06-11 15:55,-119.7711,39.4839,1341.00,60.00,49.00,66.46,250.00,4.00,0.00,29.96,1011.10,10.00,M,FEW,FEW,SCT,SCT,1700.00,3500.00,8000.00,14000.00,M,M,M,M,M,M,M,60.10,KRNO 111555Z 25004KT 10SM FEW017 FEW035 SCT080 SCT140 BKN180 16/09 A2996 RMK AO2 SLP111 MTN TOPS OBSCD ALQDS T01560094,M
WMC,2023-06-11 15:56,-117.8072,40.9019,1315.00,61.00,52.00,72.22,0.00,0.00,0.00,29.95,1011.20,10.00,M,CLR,M,M,M,M,M,M,M,M,M,M,M,M,M,M,61.00,KWMC 111556Z AUTO 00000KT 10SM CLR 16/11 A2995 RMK AO2 SLP112 T01610111,M
NFL,2023-06-11 15:56,-118.7010,39.4166,1199.00,59.00,51.00,75.02,M,5.00,0.00,29.93,1010.90,10.00,M,SCT,BKN,BKN,BKN,6000.00,10000.00,15000.00,25000.00,M,M,M,M,M,M,M,59.00,KNFL 111556Z VRB05KT 10SM SCT060 BKN100 BKN150 BKN250 15/11 A2993 RMK AO2 SLP109 SH DSNT SE T01500106,M
HND,2023-06-11 15:56,-115.1344,35.9729,742.79,77.00,33.00,20.17,160.00,17.00,0.00,29.74,1006.00,10.00,M,CLR,M,M,M,M,M,M,M,M,M,M,M,M,M,M,77.00,KHND 111556Z 16017KT 10SM CLR 25/01 A2974 RMK AO2 SLP060 T02500006,M
EKO,2023-06-11 15:56,-115.7860,40.8242,1367.00,62.00,49.00,61.91,50.00,7.00,0.00,29.95,1010.40,10.00,M,CLR,M,M,M,M,M,M,M,M,M,M,M,M,M,M,62.10,KEKO 111556Z AUTO 05007KT 10SM CLR 17/09 A2995 RMK AO2 SLP104 T01670094,M
TPH,2023-06-11 15:56,-117.0904,38.0505,1654.00,65.00,47.00,52.06,330.00,11.00,0.00,29.91,1006.90,10.00,18.00,CLR,M,M,M,M,M,M,M,M,M,M,M,M,M,M,64.90,KTPH 111556Z AUTO 33011G18KT 290V360 10SM CLR 18/08 A2991 RMK AO2 SLP069 T01830083,M
LAS,2023-06-11 15:56,-115.1634,36.0719,663.00,78.00,35.00,21.07,M,4.00,0.00,29.72,1003.90,10.00,M,FEW,BKN,BKN,M,10000.00,16000.00,22000.00,M,M,M,M,M,M,M,M,78.10,KLAS 111556Z VRB04KT 10SM FEW100 BKN160 BKN220 26/02 A2972 RMK AO2 SLP039 T02560017,M
BVU,2023-06-11 16:15,-114.8611,35.9475,671.00,77.00,26.60,15.48,140.00,13.00,0.00,29.74,M,10.00,M,CLR,M,M,M,M,M,M,M,M,M,M,M,M,M,M,77.00,KBVU 111615Z AUTO 14013KT 10SM CLR 25/M03 A2974 RMK AO2,M
CXP,2023-06-11 16:15,-119.7326,39.1923,1431.00,55.40,50.00,81.99,M,3.00,0.00,29.98,M,10.00,M,CLR,M,M,M,M,M,M,M,M,M,M,M,M,M,M,55.40,KCXP 111615Z AUTO VRB03KT 10SM CLR 13/10 A2998 RMK AO2,M
RTS,2023-06-11 16:15,-119.8764,39.6682,1539.00,55.40,50.00,81.99,120.00,5.00,0.00,29.98,M,10.00,M,CLR,M,M,M,M,M,M,M,M,M,M,M,M,M,M,55.40,KRTS 111615Z AUTO 12005KT 10SM CLR 13/10 A2998 RMK AO2,M
MEV,2023-06-11 16:15,-119.7500,38.9963,1441.42,55.40,50.00,81.99,0.00,0.00,0.00,29.97,M,10.00,M,BKN,M,M,M,1300.00,M,M,M,M,M,M,M,M,M,M,55.40,KMEV 111615Z AUTO 00000KT 10SM BKN013 13/10 A2997 RMK AO2,M
BAM,2023-06-11 16:15,-116.8743,40.5990,1382.36,60.80,51.80,72.20,0.00,0.00,0.00,29.96,M,10.00,M,CLR,M,M,M,M,M,M,M,M,M,M,M,M,M,M,60.80,KBAM 111615Z AUTO 00000KT 10SM CLR 16/11 A2996 RMK AO1,M
HTH,2023-06-11 16:15,-118.6315,38.5448,1282.89,60.80,51.80,72.20,330.00,10.00,0.00,29.93,M,10.00,M,FEW,M,M,M,2000.00,M,M,M,M,M,M,M,M,M,M,60.80,KHTH 111615Z AUTO 33010KT 10SM FEW020 16/11 A2993 RMK A01,M
TMT,2023-06-11 16:15,-117.1971,39.4643,1749.34,54.50,47.80,78.04,0.00,0.00,0.00,29.99,M,10.00,M,CLR,M,M,M,M,M,M,M,M,M,M,M,M,M,M,54.50,KTMT 111615Z AUTO 00000KT 10SM CLR 13/09 A2999 RMK AO2 LTG DSNT E T01250088,M
BVU,2023-06-11 16:35,-114.8611,35.9475,671.00,77.00,28.40,16.67,150.00,13.00,0.00,29.74,M,10.00,M,CLR,M,M,M,M,M,M,M,M,M,M,M,M,M,M,77.00,KBVU 111635Z AUTO 15013KT 10SM CLR 25/M02 A2974 RMK AO2,M
CXP,2023-06-11 16:35,-119.7326,39.1923,1431.00,55.40,48.20,76.66,0.00,0.00,0.00,29.98,M,10.00,M,CLR,M,M,M,M,M,M,M,M,M,M,M,M,M,M,55.40,KCXP 111635Z AUTO 00000KT 10SM CLR 13/09 A2998 RMK AO2,M
RTS,2023-06-11 16:35,-119.8764,39.6682,1539.00,57.20,48.20,71.83,M,5.00,0.00,29.98,M,10.00,M,CLR,M,M,M,M,M,M,M,M,M,M,M,M,M,M,57.20,KRTS 111635Z AUTO VRB05KT 10SM CLR 14/09 A2998 RMK AO2,M
MEV,2023-06-11 16:35,-119.7500,38.9963,1441.42,57.20,50.00,76.82,0.00,0.00,0.00,29.96,M,10.00,M,SCT,M,M,M,1400.00,M,M,M,M,M,M,M,M,M,M,57.20,KMEV 111635Z AUTO 00000KT 10SM SCT014 14/10 A2996 RMK AO2,M
BAM,2023-06-11 16:35,-116.8743,40.5990,1382.36,64.40,51.80,63.60,0.00,0.00,0.00,29.96,M,10.00,M,CLR,M,M,M,M,M,M,M,M,M,M,M,M,M,M,64.40,KBAM 111635Z AUTO 00000KT 10SM CLR 18/11 A2996 RMK AO1,M
HTH,2023-06-11 16:35,-118.6315,38.5448,1282.89,60.80,51.80,72.20,350.00,7.00,0.00,29.93,M,10.00,M,CLR,M,M,M,M,M,M,M,M,M,M,M,M,M,M,60.80,KHTH 111635Z AUTO 35007KT 320V020 10SM CLR 16/11 A2993 RMK A01,M
TMT,2023-06-11 16:35,-117.1971,39.4643,1749.34,56.00,48.70,76.71,0.00,0.00,0.00,29.97,M,10.00,M,CLR,M,M,M,M,M,M,M,M,M,M,M,M,M,M,55.90,KTMT 111635Z AUTO 00000KT 10SM CLR 13/09 A2997 RMK AO2 T01330093,M
P68,2023-06-11 16:53,-116.0056,39.6014,1993.00,59.00,50.00,72.01,340.00,4.00,0.00,29.95,1008.70,M,M,M,M,M,M,M,M,M,M,M,M,M,M,M,M,M,59.00,KP68 111653Z AUTO 34004KT 15/10 A2995 RMK AO1 SLP087 T01500100,M
VGT,2023-06-11 16:53,-115.1933,36.2111,667.00,80.00,34.00,18.88,130.00,13.00,0.00,29.73,1005.80,10.00,M,CLR,M,M,M,M,M,M,M,M,M,M,M,M,M,M,78.70,KVGT 111653Z 13013KT 10SM CLR 27/01 A2973 RMK AO2 SLP058 T02670011,M
LOL,2023-06-11 16:53,-118.5701,40.0684,1192.43,65.00,52.00,62.96,80.00,4.00,0.00,29.92,1010.70,10.00,M,CLR,M,M,M,M,M,M,M,M,M,M,M,M,M,M,64.90,KLOL 111653Z AUTO 08004KT 10SM CLR 18/11 A2992 RMK AO2 SLP107 T01830111,M
DRA,2023-06-11 16:53,-116.0278,36.6206,1009.00,74.00,42.00,31.86,220.00,8.00,0.00,29.76,1003.20,10.00,M,CLR,M,M,M,M,M,M,M,M,M,M,M,M,M,M,73.90,KDRA 111653Z AUTO 22008KT 10SM CLR 23/06 A2976 RMK AO2 SLP032 T02330056,M
ELY,2023-06-11 16:53,-114.8453,39.2950,1909.00,56.00,44.00,64.47,30.00,10.00,0.00,29.97,1007.50,10.00,M,SCT,M,M,M,11000.00,M,M,M,M,M,M,M,M,M,M,55.90,KELY 111653Z AUTO 03010KT 10SM SCT110 13/07 A2997 RMK AO2 LTG DSNT NE-SE SLP075 T01330067,M
BVU,2023-06-11 16:55,-114.8611,35.9475,671.00,77.00,30.20,17.94,140.00,15.00,0.00,29.75,M,10.00,M,CLR,M,M,M,M,M,M,M,M,M,M,M,M,M,M,77.00,KBVU 111655Z AUTO 14015KT 10SM CLR 25/M01 A2975 RMK AO2,M
CXP,2023-06-11 16:55,-119.7326,39.1923,1431.00,57.20,50.00,76.82,0.00,0.00,0.00,29.97,M,10.00,M,CLR,M,M,M,M,M,M,M,M,M,M,M,M,M,M,57.20,KCXP 111655Z AUTO 00000KT 10SM CLR 14/10 A2997 RMK AO2,M
INS,2023-06-11 16:55,-115.6733,36.5872,955.00,78.60,27.10,14.99,80.00,15.00,0.00,29.75,1002.70,10.00,M,OVC,M,M,M,18000.00,M,M,M,M,M,M,M,M,M,M,78.60,KINS 111655Z AUTO 08015KT 10SM OVC180 26/M03 A2975 RMK AO2 SLP027 T02591027 $,M
RNO,2023-06-11 16:55,-119.7711,39.4839,1341.00,62.00,48.00,59.86,M,3.00,0.00,29.96,1010.90,10.00,M,FEW,FEW,SCT,BKN,3000.00,7000.00,12000.00,16000.00,M,M,M,M,M,M,M,62.10,KRNO 111655Z VRB03KT 10SM FEW030 FEW070 SCT120 BKN160 BKN200 17/09 A2996 RMK AO2 SLP109 TCU DNST NE AND SE MTN TOPS OBSCD DSNT SE AND SW THRU NW T01670089,M
LSV,2023-06-11 16:55,-115.0343,36.2362,570.00,79.70,32.40,17.94,120.00,4.00,0.00,29.70,1003.40,10.00,M,BKN,FEW,M,M,15000.00,18000.00,M,M,M,M,M,M,M,M,M,79.70,KLSV 111655Z 12004KT 10SM BKN150 FEW180 27/00 A2970 RMK AO2A SLP034 T02650002 $,M
RTS,2023-06-11 16:55,-119.8764,39.6682,1539.00,57.20,48.20,71.83,M,6.00,0.00,29.99,M,10.00,M,FEW,M,M,M,2800.00,M,M,M,M,M,M,M,M,M,M,57.20,KRTS 111655Z AUTO VRB06KT 10SM FEW028 14/09 A2999 RMK AO2,M
MEV,2023-06-11 16:55,-119.7500,38.9963,1441.42,57.20,51.80,82.12,310.00,5.00,0.00,29.96,M,10.00,M,FEW,M,M,M,1500.00,M,M,M,M,M,M,M,M,M,M,57.20,KMEV 111655Z AUTO 31005KT 10SM FEW015 14/11 A2996 RMK AO2,M
BAM,2023-06-11 16:55,-116.8743,40.5990,1382.36,64.40,50.00,59.50,20.00,3.00,0.00,29.96,M,10.00,M,CLR,M,M,M,M,M,M,M,M,M,M,M,M,M,M,64.40,KBAM 111655Z AUTO 02003KT 10SM CLR 18/10 A2996 RMK AO1,M
HTH,2023-06-11 16:55,-118.6315,38.5448,1282.89,62.60,51.80,67.75,310.00,9.00,0.00,29.93,M,10.00,M,CLR,M,M,M,M,M,M,M,M,M,M,M,M,M,M,62.60,KHTH 111655Z AUTO 31009KT 10SM CLR 17/11 A2993 RMK A01,M
TMT,2023-06-11 16:55,-117.1971,39.4643,1749.34,57.40,49.00,73.76,0.00,0.00,0.00,29.97,M,10.00,M,CLR,M,M,M,M,M,M,M,M,M,M,M,M,M,M,57.40,KTMT 111655Z AUTO 00000KT 10SM CLR 14/10 A2997 RMK AO2 LTG DSNT SE T01410095,M
EKO,2023-06-11 16:56,-115.7860,40.8242,1367.00,66.00,48.00,52.22,10.00,8.00,0.00,29.94,1009.50,10.00,M,CLR,M,M,M,M,M,M,M,M,M,M,M,M,M,M,66.00,KEKO 111656Z AUTO 01008KT 10SM CLR 19/09 A2994 RMK AO2 SLP095 T01890089,M
WMC,2023-06-11 16:56,-117.8072,40.9019,1315.00,66.00,52.00,60.60,360.00,5.00,0.00,29.94,1010.40,10.00,M,CLR,M,M,M,M,M,M,M,M,M,M,M,M,M,M,66.00,KWMC 111656Z AUTO 36005KT 10SM CLR 19/11 A2994 RMK AO2 SLP104 T01890111,M
HND,2023-06-11 16:56,-115.1344,35.9729,742.79,78.00,32.00,18.61,150.00,17.00,0.00,29.77,1006.90,10.00,24.00,CLR,M,M,M,M,M,M,M,M,M,M,M,M,M,M,78.10,KHND 111656Z 15017G24KT 10SM CLR 26/00 A2977 RMK AO2 SLP069 T02560000,M
TPH,2023-06-11 16:56,-117.0904,38.0505,1654.00,68.00,46.00,45.19,310.00,3.00,0.00,29.90,1006.30,10.00,M,CLR,M,M,M,M,M,M,M,M,M,M,M,M,M,M,68.00,KTPH 111656Z AUTO 31003KT 10SM CLR 20/08 A2990 RMK AO2 SLP063 T02000078,M
LAS,2023-06-11 16:56,-115.1634,36.0719,663.00,79.00,34.00,19.57,100.00,4.00,0.00,29.74,1004.50,10.00,M,FEW,SCT,BKN,M,10000.00,16000.00,22000.00,M,M,M,M,M,M,M,M,79.00,KLAS 111656Z 10004KT 10SM FEW100 SCT160 BKN220 26/01 A2974 RMK AO2 SLP045 T02610011,M
NFL,2023-06-11 16:56,-118.7010,39.4166,1199.00,63.00,51.00,65.09,280.00,5.00,0.00,29.92,1010.60,10.00,M,FEW,SCT,BKN,BKN,6000.00,10000.00,15000.00,25000.00,M,M,M,M,M,M,M,63.00,KNFL 111656Z 28005KT 10SM FEW060 SCT100 BKN150 BKN250 17/11 A2992 RMK AO2 SLP106 SH DSNT SE T01720106,M
BVU,2023-06-11 17:15,-114.8611,35.9475,671.00,77.00,30.20,17.94,150.00,18.00,0.00,29.75,M,10.00,M,CLR,M,M,M,M,M,M,M,M,M,M,M,M,M,M,77.00,KBVU 111715Z AUTO 15018KT 10SM CLR 25/M01 A2975 RMK AO2,M
CXP,2023-06-11 17:15,-119.7326,39.1923,1431.00,59.00,48.20,67.33,0.00,0.00,0.00,29.97,M,10.00,M,CLR,M,M,M,M,M,M,M,M,M,M,M,M,M,M,59.00,KCXP 111715Z AUTO 00000KT 10SM CLR 15/09 A2997 RMK AO2,M
RTS,2023-06-11 17:15,-119.8764,39.6682,1539.00,59.00,48.20,67.33,M,6.00,0.00,29.99,M,10.00,M,FEW,M,M,M,2700.00,M,M,M,M,M,M,M,M,M,M,59.00,KRTS 111715Z AUTO VRB06KT 10SM FEW027 15/09 A2999 RMK AO2,M
MEV,2023-06-11 17:15,-119.7500,38.9963,1441.42,59.00,50.00,72.01,330.00,4.00,0.00,29.95,M,10.00,M,CLR,M,M,M,M,M,M,M,M,M,M,M,M,M,M,59.00,KMEV 111715Z AUTO 33004KT 10SM CLR 15/10 A2995 RMK AO2,M
BAM,2023-06-11 17:15,-116.8743,40.5990,1382.36,64.40,50.00,59.50,10.00,3.00,0.00,29.95,M,10.00,M,CLR,M,M,M,M,M,M,M,M,M,M,M,M,M,M,64.40,KBAM 111715Z AUTO 01003KT 10SM CLR 18/10 A2995 RMK AO1,M
HTH,2023-06-11 17:15,-118.6315,38.5448,1282.89,62.60,50.00,63.38,320.00,12.00,0.00,29.93,M,10.00,17.00,CLR,M,M,M,M,M,M,M,M,M,M,M,M,M,M,62.60,KHTH 111715Z AUTO 32012G17KT 10SM CLR 17/10 A2993 RMK A01,M
TMT,2023-06-11 17:15,-117.1971,39.4643,1749.34,59.70,47.30,63.49,340.00,7.00,0.00,29.97,M,10.00,M,CLR,M,M,M,M,M,M,M,M,M,M,M,M,M,M,59.70,KTMT 111715Z AUTO 34007KT 10SM CLR 15/09 A2997 RMK AO2 T01540085,M
HTH,2023-06-11 17:30,-118.6315,38.5448,1282.89,62.60,48.20,59.26,320.00,11.00,0.00,29.93,M,10.00,M,CLR,M,M,M,M,M,M,M,M,M,M,M,M,M,M,62.60,KHTH 111730Z AUTO 32011KT 10SM CLR 17/09 A2993 RMK A01,M
BVU,2023-06-11 17:35,-114.8611,35.9475,671.00,80.60,28.40,14.81,160.00,15.00,0.00,29.76,M,10.00,M,CLR,M,M,M,M,M,M,M,M,M,M,M,M,M,M,78.72,KBVU 111735Z AUTO 16015KT 10SM CLR 27/M02 A2976 RMK AO2,M
CXP,2023-06-11 17:35,-119.7326,39.1923,1431.00,59.00,48.20,67.33,0.00,0.00,0.00,29.97,M,10.00,M,CLR,M,M,M,M,M,M,M,M,M,M,M,M,M,M,59.00,KCXP 111735Z AUTO 00000KT 10SM CLR 15/09 A2997 RMK AO2,M
RTS,2023-06-11 17:35,-119.8764,39.6682,1539.00,59.00,48.20,67.33,360.00,3.00,0.00,29.99,M,10.00,M,SCT,SCT,M,M,2400.00,2800.00,M,M,M,M,M,M,M,M,M,59.00,KRTS 111735Z AUTO 36003KT 10SM SCT024 SCT028 15/09 A2999 RMK AO2,M
MEV,2023-06-11 17:35,-119.7500,38.9963,1441.42,60.80,50.00,67.54,310.00,4.00,0.00,29.95,M,10.00,M,CLR,M,M,M,M,M,M,M,M,M,M,M,M,M,M,60.80,KMEV 111735Z AUTO 31004KT 10SM CLR 16/10 A2995 RMK AO2,M
BAM,2023-06-11 17:35,-116.8743,40.5990,1382.36,66.20,50.00,55.88,360.00,3.00,0.00,29.95,M,10.00,M,CLR,M,M,M,M,M,M,M,M,M,M,M,M,M,M,66.20,KBAM 111735Z AUTO 36003KT 10SM CLR 19/10 A2995 RMK AO1,M
P68,2023-06-11 17:53,-116.0056,39.6014,1993.00,62.00,52.00,69.46,M,3.00,0.00,29.93,1007.70,M,M,M,M,M,M,M,M,M,M,M,M,M,M,M,M,M,62.10,KP68 111753Z AUTO VRB03KT 17/11 A2993 RMK AO1 SLP077 T01670111 10172 20061 58013,M
DRA,2023-06-11 17:53,-116.0278,36.6206,1009.00,78.00,41.00,26.55,220.00,7.00,0.00,29.76,1003.10,10.00,M,CLR,M,M,M,M,M,M,M,M,M,M,M,M,M,M,78.10,KDRA 111753Z AUTO 22007KT 10SM CLR 26/05 A2976 RMK AO2 SLP031 T02560050 10256 20194 50001,M
ELY,2023-06-11 17:53,-114.8453,39.2950,1909.00,53.00,48.00,82.76,350.00,4.00,0.02,29.99,1009.10,10.00,M,SCT,OVC,M,M,7500.00,10000.00,M,M,M,M,M,M,M,M,M,53.10,KELY 111753Z AUTO 35004KT 10SM SCT075 OVC100 12/09 A2999 RMK AO2 LTG DSNT W-N RAB07E50 SLP091 P0002 60002 T01170089 10139 20044 53001,M
VGT,2023-06-11 17:53,-115.1933,36.2111,667.00,82.00,34.00,17.74,170.00,10.00,0.00,29.74,1006.10,10.00,M,CLR,M,M,M,M,M,M,M,M,M,M,M,M,M,M,79.77,KVGT 111753Z 17010KT 10SM CLR 28/01 A2974 RMK AO2 SLP061 T02780011 10278 20222 52009,M
LOL,2023-06-11 17:53,-118.5701,40.0684,1192.43,67.00,51.00,56.82,0.00,0.00,0.00,29.91,1010.20,10.00,M,CLR,M,M,M,M,M,M,M,M,M,M,M,M,M,M,66.90,KLOL 111753Z AUTO 00000KT 10SM CLR 19/11 A2991 RMK AO2 SLP102 T01940106 10206 20072 58005,M
BVU,2023-06-11 17:55,-114.8611,35.9475,671.00,80.60,23.00,11.83,170.00,14.00,0.00,29.76,M,10.00,20.00,CLR,M,M,M,M,M,M,M,M,M,M,M,M,M,M,78.80,KBVU 111755Z AUTO 17014G20KT 10SM CLR 27/M05 A2976 RMK AO2,M
CXP,2023-06-11 17:55,-119.7326,39.1923,1431.00,60.80,48.20,63.15,0.00,0.00,0.00,29.97,M,10.00,M,FEW,M,M,M,12000.00,M,M,M,M,M,M,M,M,M,M,60.80,KCXP 111755Z AUTO 00000KT 10SM FEW120 16/09 A2997 RMK AO2,M
INS,2023-06-11 17:55,-115.6733,36.5872,955.00,79.00,27.30,14.91,80.00,24.00,0.00,29.75,1002.80,10.00,M,FEW,SCT,BKN,M,14000.00,17000.00,20000.00,M,M,M,M,M,27.00,80.00,2023-06-11 17:53,79.00,KINS 111755Z AUTO 08024KT 10SM FEW140 SCT170 BKN200 26/M03 A2975 RMK AO2 PK WND 08027/53 SLP028 T02611026 10268 20173 53001 $,M
LSV,2023-06-11 17:55,-115.0343,36.2362,570.00,81.30,27.50,13.95,120.00,11.00,0.00,29.71,1003.80,10.00,M,SCT,SCT,M,M,17000.00,20000.00,M,M,M,M,M,M,M,M,M,79.17,KLSV 111755Z 12011KT 10SM SCT170 SCT200 27/M02 A2971 RMK AO2A SLP038 T02741025 10274 20216 52011 $,M
RTS,2023-06-11 17:55,-119.8764,39.6682,1539.00,60.80,50.00,67.54,50.00,5.00,0.00,29.99,M,10.00,M,SCT,M,M,M,2500.00,M,M,M,M,M,M,M,M,M,M,60.80,KRTS 111755Z AUTO 05005KT 10SM SCT025 16/10 A2999 RMK AO2,M
MEV,2023-06-11 17:55,-119.7500,38.9963,1441.42,62.60,50.00,63.38,M,4.00,0.00,29.95,M,10.00,M,CLR,M,M,M,M,M,M,M,M,M,M,M,M,M,M,62.60,KMEV 111755Z AUTO VRB04KT 10SM CLR 17/10 A2995 RMK AO2,M
BAM,2023-06-11 17:55,-116.8743,40.5990,1382.36,68.00,50.00,52.51,360.00,4.00,0.00,29.95,M,10.00,M,CLR,M,M,M,M,M,M,M,M,M,M,M,M,M,M,68.00,KBAM 111755Z AUTO 36004KT 10SM CLR 20/10 A2995 RMK AO1,M
HTH,2023-06-11 17:55,-118.6315,38.5448,1282.89,64.40,48.20,55.63,320.00,14.00,0.00,29.93,M,10.00,M,CLR,M,M,M,M,M,M,M,M,M,M,M,M,M,M,64.40,KHTH 111755Z AUTO 32014KT 10SM CLR 18/09 A2993 RMK A01,M
TMT,2023-06-11 17:55,-117.1971,39.4643,1749.34,62.80,47.30,56.88,360.00,9.00,0.00,29.96,M,10.00,M,CLR,M,M,M,M,M,M,M,M,M,M,M,M,M,M,62.80,KTMT 111755Z AUTO 36009KT 330V040 10SM CLR 17/09 A2996 RMK AO2 T01710085 10171 20050,M
RNO,2023-06-11 17:55,-119.7711,39.4839,1341.00,64.00,49.00,57.91,160.00,4.00,0.00,29.95,1010.50,10.00,M,FEW,SCT,SCT,BKN,3500.00,6000.00,12000.00,16000.00,M,M,M,M,M,M,M,64.00,KRNO 111755Z COR 16004KT 10SM FEW035 SCT060TCU SCT120 BKN160 BKN200 18/09 A2995 RMK AO2 SLP105 TCU SE AND NW MTN TOPS OBSCD DSNT SW THRU NW T01780094 10189 20094 58000,M
HND,2023-06-11 17:56,-115.1344,35.9729,742.79,82.00,30.90,15.66,170.00,16.00,0.00,29.77,1007.10,10.00,20.00,CLR,M,M,M,M,M,M,M,M,M,M,M,M,M,M,79.70,KHND 111756Z 17016G20KT 10SM CLR 28/M01 A2977 RMK AO2 SLP071 T02781006 10278 20211 53009,M
TPH,2023-06-11 17:56,-117.0904,38.0505,1654.00,71.00,45.00,39.13,290.00,10.00,0.00,29.89,1006.10,10.00,22.00,CLR,M,M,M,M,M,M,M,M,M,M,M,M,M,M,71.10,KTPH 111756Z AUTO 29010G22KT 10SM CLR 22/07 A2989 RMK AO2 LTG DSNT N SLP061 T02170072 10217 20106 58007,M
WMC,2023-06-11 17:56,-117.8072,40.9019,1315.00,68.00,49.00,50.40,M,3.00,0.00,29.93,1009.80,10.00,M,FEW,M,M,M,12000.00,M,M,M,M,M,M,M,M,M,M,68.00,KWMC 111756Z AUTO VRB03KT 10SM FEW120 20/09 A2993 RMK AO2 SLP098 T02000094 10200 20072 58008,M
LAS,2023-06-11 17:56,-115.1634,36.0719,663.00,80.00,30.00,16.07,140.00,8.00,0.00,29.74,1004.80,10.00,16.00,FEW,SCT,BKN,M,10000.00,16000.00,22000.00,M,M,M,M,M,M,M,M,78.57,KLAS 111756Z 14008G16KT 10SM FEW100 SCT160 BKN220 27/M01 A2974 RMK AO2 SLP048 T02671011 10272 20222 51010,M
EKO,2023-06-11 17:56,-115.7860,40.8242,1367.00,69.00,49.00,48.53,30.00,11.00,0.00,29.92,1009.00,10.00,M,CLR,M,M,M,M,M,M,M,M,M,M,M,M,M,M,69.10,KEKO 111756Z AUTO 03011KT 10SM CLR 21/09 A2992 RMK AO2 SLP090 T02060094 10206 20111 57013,M
NFL,2023-06-11 17:56,-118.7010,39.4166,1199.00,65.00,51.00,60.90,350.00,8.00,0.00,29.91,1010.20,10.00,M,FEW,SCT,BKN,BKN,4000.00,6000.00,10000.00,25000.00,M,M,M,M,M,M,M,64.90,KNFL 111756Z 35008KT 10SM FEW040TCU SCT060 BKN100 BKN250 18/11 A2991 RMK AO2 SLP102 TCU VC NE SH VC NE T01830106 10183 20117 58008,M
BVU,2023-06-11 18:15,-114.8611,35.9475,671.00,80.60,17.60,9.40,160.00,16.00,0.00,29.75,M,10.00,M,CLR,M,M,M,M,M,M,M,M,M,M,M,M,M,M,78.45,KBVU 111815Z AUTO 16016KT 10SM CLR 27/M08 A2975 RMK AO2,M
CXP,2023-06-11 18:15,-119.7326,39.1923,1431.00,62.60,48.20,59.26,0.00,0.00,0.00,29.96,M,10.00,M,FEW,M,M,M,12000.00,M,M,M,M,M,M,M,M,M,M,62.60,KCXP 111815Z AUTO 00000KT 10SM FEW120 17/09 A2996 RMK AO2,M
RTS,2023-06-11 18:15,-119.8764,39.6682,1539.00,60.80,48.20,63.15,50.00,6.00,0.00,29.99,M,10.00,M,BKN,BKN,M,M,2700.00,3600.00,M,M,M,M,M,M,M,M,M,60.80,KRTS 111815Z AUTO 05006KT 10SM BKN027 BKN036 16/09 A2999 RMK AO2,M
MEV,2023-06-11 18:15,-119.7500,38.9963,1441.42,62.60,48.20,59.26,300.00,8.00,0.00,29.95,M,10.00,M,CLR,M,M,M,M,M,M,M,M,M,M,M,M,M,M,62.60,KMEV 111815Z AUTO 30008KT 10SM CLR 17/09 A2995 RMK AO2,M
BAM,2023-06-11 18:15,-116.8743,40.5990,1382.36,68.00,50.00,52.51,340.00,6.00,0.00,29.93,M,10.00,M,CLR,M,M,M,M,M,M,M,M,M,M,M,M,M,M,68.00,KBAM 111815Z AUTO 34006KT 10SM CLR 20/10 A2993 RMK AO1,M
HTH,2023-06-11 18:15,-118.6315,38.5448,1282.89,64.40,50.00,59.50,330.00,13.00,0.00,29.92,M,10.00,M,CLR,M,M,M,M,M,M,M,M,M,M,M,M,M,M,64.40,KHTH 111815Z AUTO 33013KT 10SM CLR 18/10 A2992 RMK A01,M
TMT,2023-06-11 18:15,-117.1971,39.4643,1749.34,63.30,47.00,55.06,20.00,8.00,0.00,29.95,M,10.00,M,CLR,M,M,M,M,M,M,M,M,M,M,M,M,M,M,63.30,KTMT 111815Z AUTO 02008KT 10SM CLR 17/08 A2995 RMK AO2 LTG DSNT S AND SW T01740083,M
BVU,2023-06-11 18:35,-114.8611,35.9475,671.00,84.20,15.80,7.74,150.00,15.00,0.00,29.75,M,10.00,23.00,CLR,M,M,M,M,M,M,M,M,M,M,M,M,M,M,80.51,KBVU 111835Z AUTO 15015G23KT 10SM CLR 29/M09 A2975 RMK AO2,M
CXP,2023-06-11 18:35,-119.7326,39.1923,1431.00,64.40,50.00,59.50,0.00,0.00,0.00,29.96,M,10.00,M,FEW,SCT,M,M,3400.00,11000.00,M,M,M,M,M,M,M,M,M,64.40,KCXP 111835Z AUTO 00000KT 10SM FEW034 SCT110 18/10 A2996 RMK AO2,M
RTS,2023-06-11 18:35,-119.8764,39.6682,1539.00,60.80,48.20,63.15,0.00,0.00,0.00,29.99,M,10.00,M,BKN,BKN,M,M,2800.00,3800.00,M,M,M,M,M,M,M,M,M,60.80,KRTS 111835Z AUTO 00000KT 10SM BKN028 BKN038 16/09 A2999 RMK AO2,M
MEV,2023-06-11 18:35,-119.7500,38.9963,1441.42,64.40,48.20,55.63,0.00,0.00,0.00,29.95,M,10.00,M,CLR,M,M,M,M,M,M,M,M,M,M,M,M,M,M,64.40,KMEV 111835Z AUTO 00000KT 10SM CLR 18/09 A2995 RMK AO2,M
BAM,2023-06-11 18:35,-116.8743,40.5990,1382.36,69.80,50.00,49.37,340.00,8.00,0.00,29.93,M,10.00,M,CLR,M,M,M,M,M,M,M,M,M,M,M,M,M,M,69.80,KBAM 111835Z AUTO 34008KT 10SM CLR 21/10 A2993 RMK AO1,M
HTH,2023-06-11 18:35,-118.6315,38.5448,1282.89,66.20,46.40,48.83,320.00,14.00,0.00,29.92,M,10.00,M,CLR,M,M,M,M,M,M,M,M,M,M,M,M,M,M,66.20,KHTH 111835Z AUTO 32014KT 10SM CLR 19/08 A2992 RMK A01,M
TMT,2023-06-11 18:35,-117.1971,39.4643,1749.34,65.00,48.00,54.26,10.00,8.00,0.00,29.94,M,10.00,M,CLR,M,M,M,M,M,M,M,M,M,M,M,M,M,M,64.90,KTMT 111835Z AUTO 01008KT 10SM CLR 18/09 A2994 RMK AO2 LTG DSNT N AND S T01830089,M
VGT,2023-06-11 18:53,-115.1933,36.2111,667.00,85.00,28.90,13.15,100.00,9.00,0.00,29.73,1005.80,10.00,M,CLR,M,M,M,M,M,M,M,M,M,M,M,M,M,M,81.78,KVGT 111853Z 10009KT 10SM CLR 29/M02 A2973 RMK AO2 LTG DSNT W SLP058 T02941017,M
LOL,2023-06-11 18:53,-118.5701,40.0684,1192.43,70.00,48.00,45.50,M,3.00,0.00,29.89,1009.70,10.00,M,FEW,M,M,M,11000.00,M,M,M,M,M,M,M,M,M,M,70.00,KLOL 111853Z AUTO VRB03KT 10SM FEW110 21/09 A2989 RMK AO2 SLP097 T02110089,M
ELY,2023-06-11 18:53,-114.8453,39.2950,1909.00,59.00,47.00,64.12,310.00,6.00,T,29.98,1008.10,10.00,M,FEW,M,M,M,10000.00,M,M,M,M,M,M,M,M,M,M,59.00,KELY 111853Z AUTO 31006KT 10SM FEW100 15/08 A2998 RMK AO2 RAB12E23 SLP081 P0000 T01500083,M
DRA,2023-06-11 18:53,-116.0278,36.6206,1009.00,80.00,40.00,23.82,210.00,14.00,0.00,29.76,1003.00,10.00,M,FEW,M,M,M,11000.00,M,M,M,M,M,M,M,M,M,M,78.93,KDRA 111853Z AUTO 21014KT 10SM FEW110 27/04 A2976 RMK AO2 SLP030 T02670044,M
BVU,2023-06-11 18:55,-114.8611,35.9475,671.00,84.20,15.80,7.74,170.00,18.00,0.00,29.75,M,10.00,M,CLR,M,M,M,M,M,M,M,M,M,M,M,M,M,M,80.51,KBVU 111855Z AUTO 17018KT 10SM CLR 29/M09 A2975 RMK AO2 LTG DSNT W,M
CXP,2023-06-11 18:55,-119.7326,39.1923,1431.00,64.40,48.20,55.63,90.00,8.00,0.00,29.96,M,10.00,M,FEW,SCT,SCT,M,3500.00,4100.00,12000.00,M,M,M,M,M,M,M,M,64.40,KCXP 111855Z AUTO 09008KT 070V130 10SM FEW035 SCT041 SCT120 18/09 A2996 RMK AO2,M
INS,2023-06-11 18:55,-115.6733,36.5872,955.00,78.60,28.60,15.94,90.00,18.00,0.00,29.75,1002.80,10.00,M,BKN,M,M,M,13000.00,M,M,M,M,M,M,M,27.00,90.00,2023-06-11 18:00,78.60,KINS 111855Z AUTO 09018KT 10SM BKN130 26/M02 A2975 RMK AO2 PK WND 09027/00 SLP028 T02591019 $,M
RNO,2023-06-11 18:55,-119.7711,39.4839,1341.00,69.00,48.00,46.92,M,4.00,0.00,29.94,1009.90,10.00,M,SCT,SCT,BKN,BKN,5000.00,10000.00,15000.00,20000.00,M,M,M,M,M,M,M,69.10,KRNO 111855Z VRB04KT 10SM SCT050TCU SCT100 BKN150 BKN200 21/09 A2994 RMK AO2 SLP099 TCU SW AND NW THRU N MTN TOPS OBSCD DSNT SW T02060089,M
RTS,2023-06-11 18:55,-119.8764,39.6682,1539.00,62.60,50.00,63.38,M,4.00,0.00,29.98,M,10.00,M,FEW,SCT,M,M,2900.00,4100.00,M,M,M,M,M,M,M,M,M,62.60,KRTS 111855Z AUTO VRB04KT 10SM FEW029 SCT041 17/10 A2998 RMK AO2,M
MEV,2023-06-11 18:55,-119.7500,38.9963,1441.42,66.20,46.40,48.83,10.00,8.00,0.00,29.94,M,10.00,M,CLR,M,M,M,M,M,M,M,M,M,M,M,M,M,M,66.20,KMEV 111855Z AUTO 01008KT 10SM CLR 19/08 A2994 RMK AO2 LTG DSNT SE-SW,M
BAM,2023-06-11 18:55,-116.8743,40.5990,1382.36,69.80,50.00,49.37,360.00,6.00,0.00,29.92,M,10.00,M,CLR,M,M,M,M,M,M,M,M,M,M,M,M,M,M,69.80,KBAM 111855Z AUTO 36006KT 10SM CLR 21/10 A2992 RMK AO1,M
HTH,2023-06-11 18:55,-118.6315,38.5448,1282.89,66.20,48.20,52.25,340.00,11.00,0.00,29.91,M,10.00,M,CLR,M,M,M,M,M,M,M,M,M,M,M,M,M,M,66.20,KHTH 111855Z AUTO 34011KT 10SM CLR 19/09 A2991 RMK A01,M
TMT,2023-06-11 18:55,-117.1971,39.4643,1749.34,65.50,47.50,52.15,10.00,8.00,0.00,29.93,M,10.00,M,CLR,M,M,M,M,M,M,M,VCTS,M,M,M,M,M,M,65.50,KTMT 111855Z AUTO 01008KT 10SM VCTS CLR 19/09 A2993 RMK AO2 LTG DSNT N E AND S T01860086,M
LSV,2023-06-11 18:55,-115.0343,36.2362,570.00,85.80,29.30,12.99,150.00,11.00,0.00,29.70,1003.40,10.00,19.00,FEW,SCT,M,M,14000.00,20000.00,M,M,M,M,M,M,M,M,M,82.48,KLSV 111855Z 15011G19KT 10SM FEW140 SCT200 30/M01 A2970 RMK AO2A SLP034 T02991015 $,M
EKO,2023-06-11 18:56,-115.7860,40.8242,1367.00,73.00,50.00,44.29,30.00,10.00,0.00,29.90,1008.10,10.00,M,CLR,M,M,M,M,M,M,M,M,M,M,M,M,M,M,73.00,KEKO 111856Z AUTO 03010KT 10SM CLR 23/10 A2990 RMK AO2 SLP081 T02280100,M
WMC,2023-06-11 18:56,-117.8072,40.9019,1315.00,72.00,45.00,37.96,30.00,7.00,0.00,29.91,1009.20,10.00,M,CLR,M,M,M,M,M,M,M,M,M,M,M,M,M,M,72.00,KWMC 111856Z AUTO 03007KT 10SM CLR 22/07 A2991 RMK AO2 SLP092 T02220072,M
NFL,2023-06-11 18:56,-118.7010,39.4166,1199.00,70.00,50.00,49.03,M,5.00,0.00,29.90,1010.00,10.00,M,FEW,SCT,BKN,BKN,4000.00,6000.00,10000.00,25000.00,M,M,M,M,M,M,M,70.00,KNFL 111856Z VRB05KT 10SM FEW040TCU SCT060 BKN100 BKN250 21/10 A2990 RMK AO2 SLP100 TCU VC NW-N SH VC NW-N T02110100,M
HND,2023-06-11 18:56,-115.1344,35.9729,742.79,83.00,30.90,15.21,160.00,13.00,0.00,29.76,1006.80,10.00,19.00,CLR,M,M,M,M,M,M,M,M,M,M,M,M,M,M,80.33,KHND 111856Z 16013G19KT 10SM CLR 28/M01 A2976 RMK AO2 SLP068 T02831006,M
TPH,2023-06-11 18:56,-117.0904,38.0505,1654.00,71.00,39.00,31.05,M,5.00,0.00,29.87,1005.60,10.00,M,BKN,BKN,M,M,7000.00,11000.00,M,M,M,M,M,M,M,M,M,71.10,KTPH 111856Z AUTO VRB05KT 10SM BKN070 BKN110 22/04 A2987 RMK AO2 LTG DSNT SE SLP056 T02170039,M
LAS,2023-06-11 18:56,-115.1634,36.0719,663.00,83.00,30.90,15.21,160.00,7.00,0.00,29.73,1004.40,10.00,18.00,FEW,SCT,BKN,M,10000.00,16000.00,22000.00,M,M,M,M,M,M,M,M,80.33,KLAS 111856Z 16007G18KT 10SM FEW100 SCT160 BKN220 28/M01 A2973 RMK AO2 SLP044 CB DSNT W T02831006,M
05U,2023-06-11 19:10,-116.0051,39.6042,1811.23,55.40,41.00,58.27,360.00,8.00,0.00,29.98,M,7.00,18.00,M,M,M,M,M,M,M,M,M,M,M,M,M,M,M,55.40,K05U 111910Z AUTO 36008G18KT 7SM 13/05 A2998 RMK A01,M
BVU,2023-06-11 19:15,-114.8611,35.9475,671.00,84.20,15.80,7.74,150.00,16.00,0.00,29.75,M,10.00,M,CLR,M,M,M,M,M,M,M,M,M,M,M,M,M,M,80.51,KBVU 111915Z AUTO 15016KT 10SM CLR 29/M09 A2975 RMK AO2 LTG DSNT W,M
CXP,2023-06-11 19:15,-119.7326,39.1923,1431.00,66.20,48.20,52.25,90.00,6.00,0.00,29.95,M,10.00,M,CLR,M,M,M,M,M,M,M,M,M,M,M,M,M,M,66.20,KCXP 111915Z AUTO 09006KT 10SM CLR 19/09 A2995 RMK AO2 LTG DSNT S,M
RTS,2023-06-11 19:15,-119.8764,39.6682,1539.00,62.60,50.00,63.38,0.00,0.00,0.00,29.98,M,10.00,M,FEW,FEW,SCT,M,3000.00,4100.00,10000.00,M,M,M,M,M,M,M,M,62.60,KRTS 111915Z AUTO 00000KT 10SM FEW030 FEW041 SCT100 17/10 A2998 RMK AO2,M
MEV,2023-06-11 19:15,-119.7500,38.9963,1441.42,66.20,48.20,52.25,350.00,7.00,0.00,29.94,M,10.00,12.00,CLR,M,M,M,M,M,M,M,M,M,M,M,M,M,M,66.20,KMEV 111915Z AUTO 35007G12KT 10SM CLR 19/09 A2994 RMK AO2 LTG DSNT S,M
BAM,2023-06-11 19:15,-116.8743,40.5990,1382.36,71.60,51.80,49.64,330.00,7.00,0.00,29.92,M,10.00,M,CLR,M,M,M,M,M,M,M,M,M,M,M,M,M,M,71.60,KBAM 111915Z AUTO 33007KT 10SM CLR 22/11 A2992 RMK AO1,M
HTH,2023-06-11 19:15,-118.6315,38.5448,1282.89,68.00,48.20,49.10,330.00,14.00,0.00,29.90,M,10.00,M,CLR,M,M,M,M,M,M,M,M,M,M,M,M,M,M,68.00,KHTH 111915Z AUTO 33014KT 10SM CLR 20/09 A2990 RMK A01,M
TMT,2023-06-11 19:15,-117.1971,39.4643,1749.34,66.40,48.00,51.50,350.00,8.00,0.00,29.93,M,10.00,M,CLR,M,M,M,M,M,M,M,M,M,M,M,M,M,M,66.40,KTMT 111915Z AUTO 35008KT 10SM CLR 19/09 A2993 RMK AO2 LTG DSNT E AND SE T01910089,M
05U,2023-06-11 19:30,-116.0051,39.6042,1811.23,57.20,44.60,62.69,360.00,13.00,0.00,29.98,M,10.00,M,FEW,BKN,BKN,M,6000.00,7500.00,9000.00,M,M,M,M,M,M,M,M,57.20,K05U 111930Z AUTO 36013KT 10SM FEW060 BKN075 BKN090 14/07 A2998 RMK A01,M
BVU,2023-06-11 19:35,-114.8611,35.9475,671.00,84.20,19.40,9.04,160.00,17.00,0.00,29.74,M,10.00,23.00,CLR,M,M,M,M,M,M,M,M,M,M,M,M,M,M,80.68,KBVU 111935Z AUTO 16017G23KT 10SM CLR 29/M07 A2974 RMK AO2,M
CXP,2023-06-11 19:35,-119.7326,39.1923,1431.00,66.20,50.00,55.88,290.00,7.00,0.00,29.95,M,10.00,M,FEW,FEW,M,M,4400.00,11000.00,M,M,M,M,M,M,M,M,M,66.20,KCXP 111935Z AUTO 29007KT 10SM FEW044 FEW110 19/10 A2995 RMK AO2 LTG DSNT NE AND E,M
RTS,2023-06-11 19:35,-119.8764,39.6682,1539.00,62.60,48.20,59.26,90.00,6.00,0.00,29.98,M,10.00,M,FEW,BKN,BKN,M,3300.00,4300.00,10000.00,M,M,M,M,M,M,M,M,62.60,KRTS 111935Z AUTO 09006KT 10SM FEW033 BKN043 BKN100 17/09 A2998 RMK AO2,M
MEV,2023-06-11 19:35,-119.7500,38.9963,1441.42,68.00,48.20,49.10,M,6.00,0.00,29.93,M,10.00,11.00,CLR,M,M,M,M,M,M,M,M,M,M,M,M,M,M,68.00,KMEV 111935Z AUTO VRB06G11KT 10SM CLR 20/09 A2993 RMK AO2,M
BAM,2023-06-11 19:35,-116.8743,40.5990,1382.36,71.60,51.80,49.64,310.00,6.00,0.00,29.91,M,10.00,M,CLR,M,M,M,M,M,M,M,M,M,M,M,M,M,M,71.60,KBAM 111935Z AUTO 31006KT 10SM CLR 22/11 A2991 RMK AO1,M
HTH,2023-06-11 19:35,-118.6315,38.5448,1282.89,68.00,48.20,49.10,310.00,12.00,0.00,29.90,M,10.00,19.00,CLR,M,M,M,M,M,M,M,M,M,M,M,M,M,M,68.00,KHTH 111935Z AUTO 31012G19KT 10SM CLR 20/09 A2990 RMK A01,M
TMT,2023-06-11 19:35,-117.1971,39.4643,1749.34,65.80,48.00,52.58,10.00,6.00,0.00,29.93,M,10.00,M,SCT,M,M,M,12000.00,M,M,M,M,M,M,M,M,M,M,65.80,KTMT 111935Z AUTO 01006KT 10SM SCT120 19/09 A2993 RMK AO2 LTG DSNT E THRU SW T01880089,M
05U,2023-06-11 19:50,-116.0051,39.6042,1811.23,57.20,41.00,54.60,360.00,9.00,0.00,29.98,M,10.00,15.00,FEW,FEW,FEW,M,5500.00,6500.00,7500.00,M,M,M,M,M,M,M,M,57.20,K05U 111950Z AUTO 36009G15KT 10SM FEW055 FEW065 FEW075 14/05 A2998 RMK A01,M
ELY,2023-06-11 19:53,-114.8453,39.2950,1909.00,65.00,41.00,41.55,30.00,20.00,0.00,29.94,1006.40,10.00,28.00,CLR,M,M,M,M,M,M,M,M,M,M,M,28.00,40.00,2023-06-11 19:52,64.90,KELY 111953Z AUTO 03020G28KT 10SM CLR 18/05 A2994 RMK AO2 PK WND 04028/1952 SLP064 T01830050,M
VGT,2023-06-11 19:53,-115.1933,36.2111,667.00,86.00,27.00,11.74,120.00,8.00,0.00,29.72,1005.30,10.00,15.00,CLR,M,M,M,M,M,M,M,M,M,M,M,M,M,M,82.42,KVGT 111953Z 12008G15KT 060V140 10SM CLR 30/M03 A2972 RMK AO2 LTG DSNT W SLP053 T03001028,M
LOL,2023-06-11 19:53,-118.5701,40.0684,1192.43,74.00,48.00,39.87,20.00,4.00,0.00,29.86,1008.60,10.00,M,CLR,M,M,M,M,M,M,M,M,M,M,M,M,M,M,73.90,KLOL 111953Z AUTO 02004KT 10SM CLR 23/09 A2986 RMK AO2 SLP086 T02330089,M
P68,2023-06-11 19:53,-116.0056,39.6014,1993.00,59.00,40.00,49.04,70.00,10.00,0.00,29.95,1008.70,M,M,M,M,M,M,M,M,M,M,M,M,M,M,M,M,M,59.00,KP68 111953Z AUTO 07010KT 15/04 A2995 RMK AO1 SLP087 T01500044 $,M
DRA,2023-06-11 19:53,-116.0278,36.6206,1009.00,81.00,38.00,21.39,220.00,14.00,0.00,29.75,1002.70,10.00,22.00,CLR,M,M,M,M,M,M,M,M,M,M,M,26.00,240.00,2023-06-11 19:39,79.28,KDRA 111953Z AUTO 22014G22KT 10SM CLR 27/03 A2975 RMK AO2 PK WND 24026/1939 SLP027 T02720033,M
BVU,2023-06-11 19:55,-114.8611,35.9475,671.00,84.20,17.60,8.37,140.00,14.00,0.00,29.74,M,10.00,25.00,CLR,M,M,M,M,M,M,M,M,M,M,M,M,M,M,80.59,KBVU 111955Z AUTO 14014G25KT 10SM CLR 29/M08 A2974 RMK AO2,M
CXP,2023-06-11 19:55,-119.7326,39.1923,1431.00,68.00,50.00,52.51,320.00,5.00,0.00,29.94,M,10.00,M,SCT,SCT,M,M,4200.00,11000.00,M,M,M,M,M,M,M,M,M,68.00,KCXP 111955Z AUTO 32005KT 10SM SCT042 SCT110 20/10 A2994 RMK AO2 LTG DSNT N AND NE AND SW,M
INS,2023-06-11 19:55,-115.6733,36.5872,955.00,82.00,22.10,10.92,100.00,19.00,0.00,29.74,1002.50,10.00,23.00,FEW,M,M,M,14000.00,M,M,M,M,M,M,M,28.00,80.00,2023-06-11 19:25,79.28,KINS 111955Z AUTO 10019G23KT 10SM FEW140 28/M05 A2974 RMK AO2 PK WND 08028/25 SLP025 T02771055 $,M
RNO,2023-06-11 19:55,-119.7711,39.4839,1341.00,70.00,48.00,45.50,M,4.00,0.00,29.92,1009.20,10.00,M,SCT,SCT,BKN,BKN,4500.00,10000.00,15000.00,20000.00,M,M,M,M,M,M,M,70.00,KRNO 111955Z VRB04KT 10SM SCT045TCU SCT100 BKN150 BKN200 21/09 A2992 RMK AO2 SLP092 TCU SW AND NW THRU N MTN TOPS OBSCD DNST SW T02110089,M
RTS,2023-06-11 19:55,-119.8764,39.6682,1539.00,64.40,46.40,51.98,M,4.00,0.00,29.97,M,10.00,M,FEW,SCT,SCT,M,3500.00,4400.00,9000.00,M,M,M,M,M,M,M,M,64.40,KRTS 111955Z AUTO VRB04KT 10SM FEW035 SCT044 SCT090 18/08 A2997 RMK AO2,M
MEV,2023-06-11 19:55,-119.7500,38.9963,1441.42,68.00,48.20,49.10,290.00,7.00,0.00,29.92,M,10.00,M,CLR,M,M,M,M,M,M,M,VCTS,M,M,M,M,M,M,68.00,KMEV 111955Z AUTO 29007KT 10SM VCTS CLR 20/09 A2992 RMK AO2 LTG DSNT N AND S AND SW,M
BAM,2023-06-11 19:55,-116.8743,40.5990,1382.36,71.60,50.00,46.43,330.00,6.00,0.00,29.90,M,10.00,M,CLR,M,M,M,M,M,M,M,M,M,M,M,M,M,M,71.60,KBAM 111955Z AUTO 33006KT 10SM CLR 22/10 A2990 RMK AO1,M
HTH,2023-06-11 19:55,-118.6315,38.5448,1282.89,68.00,50.00,52.51,340.00,9.00,0.00,29.90,M,10.00,15.00,CLR,M,M,M,M,M,M,M,M,M,M,M,M,M,M,68.00,KHTH 111955Z AUTO 34009G15KT 10SM CLR 20/10 A2990 RMK A01,M
TMT,2023-06-11 19:55,-117.1971,39.4643,1749.34,65.50,46.40,50.03,40.00,7.00,0.00,29.92,M,10.00,M,SCT,SCT,BKN,M,3300.00,6000.00,9500.00,M,-TSRA,M,M,M,M,M,M,65.50,KTMT 111955Z AUTO 04007KT 10SM -TSRA SCT033 SCT060 BKN095 19/08 A2992 RMK AO2 LTG DSNT ALQS T01860080,M
LSV,2023-06-11 19:55,-115.0343,36.2362,570.00,86.70,21.20,9.01,60.00,6.00,0.00,29.69,1003.10,10.00,M,FEW,SCT,M,M,15000.00,21000.00,M,M,M,M,M,M,M,M,M,82.53,KLSV 111955Z 06006KT 10SM FEW150 SCT210 30/M06 A2969 RMK AO2A SLP031 T03041060 $,M
EKO,2023-06-11 19:56,-115.7860,40.8242,1367.00,76.00,48.00,37.29,30.00,13.00,0.00,29.88,1007.30,10.00,20.00,CLR,M,M,M,M,M,M,M,M,M,M,M,M,M,M,75.90,KEKO 111956Z AUTO 03013G20KT 10SM CLR 24/09 A2988 RMK AO2 LTG DSNT E SLP073 T02440089,M
WMC,2023-06-11 19:56,-117.8072,40.9019,1315.00,76.00,45.00,33.30,30.00,9.00,0.00,29.88,1008.10,10.00,M,CLR,M,M,M,M,M,M,M,M,M,M,M,M,M,M,75.90,KWMC 111956Z AUTO 03009KT 10SM CLR 24/07 A2988 RMK AO2 SLP081 T02440072,M
HND,2023-06-11 19:56,-115.1344,35.9729,742.79,85.00,28.00,12.67,140.00,10.00,0.00,29.76,1006.70,10.00,16.00,CLR,M,M,M,M,M,M,M,M,M,M,M,M,M,M,81.73,KHND 111956Z 14010G16KT 10SM CLR 29/M02 A2976 RMK AO2 SLP067 T02941022,M
TPH,2023-06-11 19:56,-117.0904,38.0505,1654.00,69.00,41.00,35.94,M,M,0.00,29.87,1005.40,10.00,M,OVC,M,M,M,9000.00,M,M,M,M,M,M,M,M,M,M,69.10,KTPH 111956Z AUTO 10SM OVC090 21/05 A2987 RMK AO2 LTG DSNT E AND S SLP054 T02060050,M
LAS,2023-06-11 19:56,-115.1634,36.0719,663.00,84.00,28.90,13.53,130.00,12.00,0.00,29.72,1004.00,10.00,21.00,FEW,FEW,BKN,M,10000.00,16000.00,22000.00,M,M,M,M,M,M,M,M,81.10,KLAS 111956Z 13012G21KT 10SM FEW100 FEW160 BKN220 29/M02 A2972 RMK AO2 LTG DSNT W SLP040 T02891017,M
NFL,2023-06-11 19:56,-118.7010,39.4166,1199.00,71.00,48.00,43.83,340.00,7.00,0.00,29.88,1009.30,10.00,M,FEW,SCT,BKN,BKN,4000.00,6000.00,10000.00,25000.00,M,M,M,M,M,M,M,71.10,KNFL 111956Z 34007KT 10SM FEW040 SCT060 BKN100 BKN250 22/09 A2988 RMK AO2 SLP093 CB DSNT SE T02170089,M
LSV,2023-06-11 20:07,-115.0343,36.2362,570.00,86.00,21.20,9.21,80.00,12.00,0.00,29.68,1002.80,10.00,18.00,FEW,SCT,SCT,M,13000.00,17000.00,20000.00,M,M,M,M,M,M,M,M,82.04,KLSV 112007Z 08012G18KT 10SM FEW130 SCT170 SCT200 30/M06 A2968 RMK AO2A WSHFT 04 SLP028 $,M
05U,2023-06-11 20:10,-116.0051,39.6042,1811.23,59.00,41.00,51.18,360.00,5.00,0.00,29.98,M,10.00,11.00,CLR,M,M,M,M,M,M,M,M,M,M,M,M,M,M,59.00,K05U 112010Z AUTO 36005G11KT 10SM CLR 15/05 A2998 RMK A01,M
BVU,2023-06-11 20:15,-114.8611,35.9475,671.00,86.00,14.00,6.75,140.00,14.00,0.00,29.74,M,10.00,21.00,CLR,M,M,M,M,M,M,M,M,M,M,M,M,M,M,81.71,KBVU 112015Z AUTO 14014G21KT 10SM CLR 30/M10 A2974 RMK AO2 LTG DSNT N AND NW,M
CXP,2023-06-11 20:15,-119.7326,39.1923,1431.00,68.00,50.00,52.51,340.00,6.00,0.00,29.93,M,10.00,M,SCT,M,M,M,4100.00,M,M,M,M,M,M,M,M,M,M,68.00,KCXP 112015Z AUTO 34006KT 10SM SCT041 20/10 A2993 RMK AO2 LTG DSNT E-SW,M
RTS,2023-06-11 20:15,-119.8764,39.6682,1539.00,66.20,48.20,52.25,M,5.00,0.00,29.96,M,10.00,M,CLR,M,M,M,M,M,M,M,M,M,M,M,M,M,M,66.20,KRTS 112015Z AUTO VRB05KT 10SM CLR 19/09 A2996 RMK AO2,M
MEV,2023-06-11 20:15,-119.7500,38.9963,1441.42,68.00,48.20,49.10,340.00,9.00,0.00,29.91,M,10.00,M,FEW,M,M,M,4700.00,M,M,M,M,M,M,M,M,M,M,68.00,KMEV 112015Z AUTO 34009KT 300V360 10SM FEW047 20/09 A2991 RMK AO2 LTG DSNT E-SW,M
BAM,2023-06-11 20:15,-116.8743,40.5990,1382.36,73.40,48.20,40.85,50.00,4.00,0.00,29.90,M,10.00,M,CLR,M,M,M,M,M,M,M,M,M,M,M,M,M,M,73.40,KBAM 112015Z AUTO 05004KT 10SM CLR 23/09 A2990 RMK AO1,M
HTH,2023-06-11 20:15,-118.6315,38.5448,1282.89,68.00,48.20,49.10,320.00,12.00,0.00,29.88,M,10.00,M,CLR,M,M,M,M,M,M,M,M,M,M,M,M,M,M,68.00,KHTH 112015Z AUTO 32012KT 10SM CLR 20/09 A2988 RMK A01,M
TMT,2023-06-11 20:15,-117.1971,39.4643,1749.34,65.30,44.80,47.41,10.00,5.00,0.00,29.91,M,10.00,M,SCT,SCT,OVC,M,3300.00,6000.00,12000.00,M,TS,M,M,M,M,M,M,65.30,KTMT 112015Z AUTO 01005KT 10SM TS SCT033 SCT060 OVC120 19/07 A2991 RMK AO2 LTG DSNT NE THRU S T01850071,M
05U,2023-06-11 20:30,-116.0051,39.6042,1811.23,59.00,42.80,54.86,M,M,0.00,29.97,M,10.00,M,CLR,M,M,M,M,M,M,M,M,M,M,M,M,M,M,59.00,K05U 112030Z AUTO 10SM CLR 15/06 A2997 RMK A01,M
BVU,2023-06-11 20:35,-114.8611,35.9475,671.00,84.20,15.80,7.74,180.00,11.00,0.00,29.73,M,10.00,17.00,CLR,M,M,M,M,M,M,M,M,M,M,M,M,M,M,80.51,KBVU 112035Z AUTO 18011G17KT 140V210 10SM CLR 29/M09 A2973 RMK AO2 LTG DSNT W AND NW,M
CXP,2023-06-11 20:35,-119.7326,39.1923,1431.00,69.80,50.00,49.37,M,5.00,0.00,29.91,M,10.00,11.00,FEW,SCT,SCT,M,4200.00,5000.00,5500.00,M,M,M,M,M,M,M,M,69.80,KCXP 112035Z AUTO VRB05G11KT 10SM FEW042 SCT050 SCT055 21/10 A2991 RMK AO2 LTG DSNT ALQDS,M
RTS,2023-06-11 20:35,-119.8764,39.6682,1539.00,66.20,44.60,45.60,110.00,4.00,0.00,29.95,M,10.00,M,CLR,M,M,M,M,M,M,M,M,M,M,M,M,M,M,66.20,KRTS 112035Z AUTO 11004KT 10SM CLR 19/07 A2995 RMK AO2,M
MEV,2023-06-11 20:35,-119.7500,38.9963,1441.42,69.80,46.40,43.13,M,6.00,0.00,29.90,M,10.00,13.00,CLR,M,M,M,M,M,M,M,M,M,M,M,M,M,M,69.80,KMEV 112035Z AUTO VRB06G13KT 10SM CLR 21/08 A2990 RMK AO2 LTG DSNT ALQDS,M
BAM,2023-06-11 20:35,-116.8743,40.5990,1382.36,75.20,48.20,38.46,330.00,9.00,0.00,29.88,M,10.00,M,CLR,M,M,M,M,M,M,M,M,M,M,M,M,M,M,75.20,KBAM 112035Z AUTO 33009KT 10SM CLR 24/09 A2988 RMK AO1,M
HTH,2023-06-11 20:35,-118.6315,38.5448,1282.89,68.00,48.20,49.10,330.00,12.00,0.00,29.87,M,10.00,17.00,CLR,M,M,M,M,M,M,M,M,M,M,M,M,M,M,68.00,KHTH 112035Z AUTO 33012G17KT 10SM CLR 20/09 A2987 RMK A01,M
TMT,2023-06-11 20:35,-117.1971,39.4643,1749.34,64.80,46.40,51.26,30.00,10.00,0.00,29.91,M,10.00,M,SCT,OVC,M,M,9000.00,11000.00,M,M,VCTS,M,M,M,M,M,M,64.80,KTMT 112035Z AUTO 03010KT 10SM VCTS SCT090 OVC110 18/08 A2991 RMK AO2 LTG DSNT ALQS T01820080,M
05U,2023-06-11 20:50,-116.0051,39.6042,1811.23,59.00,44.60,58.77,M,M,0.00,29.98,M,10.00,M,CLR,M,M,M,M,M,M,M,M,M,M,M,M,M,M,59.00,K05U 112050Z AUTO 10SM CLR 15/07 A2998 RMK A01,M
DRA,2023-06-11 20:53,-116.0278,36.6206,1009.00,79.00,43.00,27.84,200.00,20.00,0.00,29.75,1002.90,10.00,35.00,CLR,M,M,M,M,M,M,M,M,M,M,M,35.00,210.00,2023-06-11 20:47,79.00,KDRA 112053Z AUTO 20020G35KT 10SM CLR 26/06 A2975 RMK AO2 PK WND 21035/2047 SLP029 T02610061 55004,M
LOL,2023-06-11 20:53,-118.5701,40.0684,1192.43,78.00,46.00,32.15,60.00,7.00,0.00,29.83,1007.00,10.00,M,CLR,M,M,M,M,M,M,M,M,M,M,M,M,M,M,78.10,KLOL 112053Z AUTO 06007KT 020V090 10SM CLR 26/08 A2983 RMK AO2 SLP070 T02560078 58025,M
P68,2023-06-11 20:53,-116.0056,39.6014,1993.00,59.00,44.00,57.66,10.00,9.00,0.00,29.95,1009.00,M,M,M,M,M,M,M,M,M,M,M,M,M,M,M,M,M,59.00,KP68 112053Z AUTO 01009KT 15/07 A2995 RMK AO1 SLP090 6//// T01500067 $,M
ELY,2023-06-11 20:53,-114.8453,39.2950,1909.00,61.00,38.00,42.24,10.00,19.00,0.00,29.92,1006.60,10.00,27.00,SCT,M,M,M,11000.00,M,M,M,M,M,M,M,27.00,20.00,2023-06-11 20:46,61.00,KELY 112053Z AUTO 01019G27KT 10SM SCT110 16/03 A2992 RMK AO2 PK WND 02027/2046 LTG DSNT S AND SW SLP066 60000 T01610033 57020,M
VGT,2023-06-11 20:53,-115.1933,36.2111,667.00,87.00,28.90,12.26,190.00,15.00,0.00,29.70,1004.90,10.00,21.00,CLR,M,M,M,M,M,M,M,M,M,M,M,M,M,M,83.37,KVGT 112053Z 19015G21KT 10SM CLR 31/M02 A2970 RMK AO2 LTG DSNT SW AND W SLP049 T03061017 58012,M
BVU,2023-06-11 20:55,-114.8611,35.9475,671.00,84.20,23.00,10.53,130.00,9.00,0.00,29.72,M,10.00,20.00,CLR,M,M,M,M,M,M,M,M,M,M,M,M,M,M,80.88,KBVU 112055Z AUTO 13009G20KT 110V170 10SM CLR 29/M05 A2972 RMK AO2,M
CXP,2023-06-11 20:55,-119.7326,39.1923,1431.00,71.60,51.80,49.64,320.00,11.00,0.00,29.90,M,10.00,M,FEW,M,M,M,4900.00,M,M,M,M,M,M,M,M,M,M,71.60,KCXP 112055Z AUTO 32011KT 10SM FEW049 22/11 A2990 RMK AO2 LTG DSNT N AND S AND SW,M
INS,2023-06-11 20:55,-115.6733,36.5872,955.00,83.50,16.00,7.99,80.00,13.00,0.00,29.73,1002.10,10.00,24.00,CLR,M,M,M,M,M,M,M,M,M,M,M,M,M,M,80.03,KINS 112055Z AUTO 08013G24KT 10SM CLR 29/M09 A2973 RMK AO2 SLP021 T02861089 58006 $,M
RTS,2023-06-11 20:55,-119.8764,39.6682,1539.00,66.20,48.20,52.25,30.00,3.00,0.00,29.94,M,10.00,M,SCT,M,M,M,4300.00,M,M,M,M,M,M,M,M,M,M,66.20,KRTS 112055Z AUTO 03003KT 10SM SCT043 19/09 A2994 RMK AO2,M
BAM,2023-06-11 20:55,-116.8743,40.5990,1382.36,77.00,48.20,36.22,0.00,0.00,0.00,29.87,M,10.00,M,CLR,M,M,M,M,M,M,M,M,M,M,M,M,M,M,77.00,KBAM 112055Z AUTO 00000KT 10SM CLR 25/09 A2987 RMK AO1,M
MEV,2023-06-11 20:55,-119.7500,38.9963,1441.42,69.80,48.20,46.16,310.00,9.00,0.00,29.88,M,10.00,M,CLR,M,M,M,M,M,M,M,M,M,M,M,M,M,M,69.80,KMEV 112055Z AUTO 31009KT 10SM CLR 21/09 A2988 RMK AO2 LTG DSNT S-W,M
HTH,2023-06-11 20:55,-118.6315,38.5448,1282.89,69.80,48.20,46.16,340.00,14.00,0.00,29.86,M,10.00,M,CLR,M,M,M,M,M,M,M,M,M,M,M,M,M,M,69.80,KHTH 112055Z AUTO 34014KT 10SM CLR 21/09 A2986 RMK A01,M
TMT,2023-06-11 20:55,-117.1971,39.4643,1749.34,61.20,51.80,71.18,20.00,6.00,0.00,29.90,M,10.00,M,OVC,M,M,M,10000.00,M,M,M,-TSRA,M,M,M,M,M,M,61.20,KTMT 112055Z AUTO 02006KT 10SM -TSRA OVC100 16/11 A2990 RMK AO2 LTG DSNT ALQS T01620110,M
LSV,2023-06-11 20:55,-115.0343,36.2362,570.00,86.50,18.10,7.94,140.00,10.00,0.00,29.67,1002.50,10.00,23.00,SCT,M,M,M,20000.00,M,M,M,M,M,M,M,M,M,M,82.23,KLSV 112055Z 14010G23KT 10SM SCT200 30/M08 A2967 RMK AO2A LTG DSNT SW SLP025 T03031077 57013 $,M
RNO,2023-06-11 20:55,-119.7711,39.4839,1341.00,72.00,47.00,40.79,M,3.00,0.00,29.89,1008.10,10.00,M,FEW,SCT,SCT,BKN,5000.00,7000.00,12000.00,20000.00,M,M,M,M,M,M,M,72.00,KRNO 112055Z VRB03KT 10SM FEW050 SCT070 SCT120 BKN200 22/08 A2989 RMK AO2 SLP081 CB DSNT S AND W T02220083 58018,M
HND,2023-06-11 20:56,-115.1344,35.9729,742.79,84.00,34.00,16.63,150.00,8.00,0.00,29.75,1006.30,10.00,18.00,FEW,M,M,M,11000.00,M,M,M,M,M,M,M,M,M,M,81.16,KHND 112056Z 15008G18KT 10SM FEW110 29/01 A2975 RMK AO2 LTG DSNT W AND NW SLP063 T02890011 58008,M
TPH,2023-06-11 20:56,-117.0904,38.0505,1654.00,64.00,39.00,39.67,140.00,15.00,T,29.90,1007.30,10.00,28.00,BKN,OVC,M,M,7000.00,9500.00,M,M,-RA,M,M,M,42.00,140.00,2023-06-11 20:26,64.00,KTPH 112056Z AUTO 14015G28KT 10SM -RA BKN070 OVC095 18/04 A2990 RMK AO2 PK WND 14042/2026 LTG DSNT N AND NE AND SW RAB53 TSB44E47B48E50B51E54 SLP073 P0000 60000 T01780039 53003,M
LAS,2023-06-11 20:56,-115.1634,36.0719,663.00,84.00,28.00,13.04,140.00,13.00,0.00,29.71,1003.60,10.00,20.00,FEW,BKN,M,M,10000.00,22000.00,M,M,M,M,M,M,M,M,M,81.10,KLAS 112056Z 14013G20KT 10SM FEW100 BKN220 29/M02 A2971 RMK AO2 LTG DSNT W SLP036 CB DSNT W T02891022 58011,M
EKO,2023-06-11 20:56,-115.7860,40.8242,1367.00,61.00,42.00,49.73,200.00,25.00,0.00,29.92,1009.70,10.00,38.00,SCT,M,M,M,6000.00,M,M,M,VCTS,M,M,M,38.00,210.00,2023-06-11 20:56,61.00,KEKO 112056Z AUTO 20025G38KT 10SM VCTS SCT060 16/06 A2992 RMK AO2 PK WND 21038/2056 LTG DSNT E-SW SLP097 T01610056 55000,M
NFL,2023-06-11 20:56,-118.7010,39.4166,1199.00,75.00,47.00,36.87,M,5.00,0.00,29.84,1008.00,10.00,M,FEW,SCT,BKN,BKN,4000.00,6000.00,10000.00,25000.00,M,M,M,M,M,M,M,75.00,KNFL 112056Z AUTO VRB05KT 10SM FEW040 SCT060 BKN100 BKN250 24/08 A2984 RMK AO2 SLP080 CB DSNT ESE T02390083 58021,M
WMC,2023-06-11 20:56,-117.8072,40.9019,1315.00,78.00,42.00,27.70,0.00,0.00,0.00,29.85,1006.80,10.00,M,CLR,M,M,M,M,M,M,M,M,M,M,M,M,M,M,78.10,KWMC 112056Z AUTO 00000KT 10SM CLR 26/06 A2985 RMK AO2 SLP068 T02560056 58023,M
CXP,2023-06-11 21:10,-119.7326,39.1923,1431.00,71.60,50.00,46.43,310.00,12.00,0.00,29.89,M,10.00,M,FEW,SCT,M,M,4800.00,6000.00,M,M,M,M,M,M,M,M,M,71.60,KCXP 112110Z AUTO 31012KT 10SM FEW048 SCT060 22/10 A2989 RMK AO2 LTG DSNT N AND SE AND SW,M
05U,2023-06-11 21:10,-116.0051,39.6042,1811.23,59.00,44.60,58.77,M,M,0.00,29.97,M,10.00,M,CLR,M,M,M,M,M,M,M,M,M,M,M,M,M,M,59.00,K05U 112110Z AUTO 10SM CLR 15/07 A2997 RMK A01,M
BVU,2023-06-11 21:15,-114.8611,35.9475,671.00,84.20,24.80,11.35,140.00,13.00,0.00,29.72,M,10.00,23.00,CLR,M,M,M,M,M,M,M,M,M,M,M,M,M,M,81.00,KBVU 112115Z AUTO 14013G23KT 10SM CLR 29/M04 A2972 RMK AO2 LTG DSNT W,M
RTS,2023-06-11 21:15,-119.8764,39.6682,1539.00,66.20,48.20,52.25,360.00,4.00,0.00,29.92,M,10.00,M,SCT,M,M,M,4300.00,M,M,M,M,M,M,M,M,M,M,66.20,KRTS 112115Z AUTO 36004KT 10SM SCT043 19/09 A2992 RMK AO2,M
MEV,2023-06-11 21:15,-119.7500,38.9963,1441.42,71.60,48.20,43.42,280.00,8.00,0.00,29.87,M,10.00,M,FEW,M,M,M,5000.00,M,M,M,M,M,M,M,M,M,M,71.60,KMEV 112115Z AUTO 28008KT 10SM FEW050 22/09 A2987 RMK AO2 LTG DSNT ALQDS,M
BAM,2023-06-11 21:15,-116.8743,40.5990,1382.36,77.00,46.40,33.85,10.00,6.00,0.00,29.85,M,10.00,M,CLR,M,M,M,M,M,M,M,M,M,M,M,M,M,M,77.00,KBAM 112115Z AUTO 01006KT 10SM CLR 25/08 A2985 RMK AO1,M
HTH,2023-06-11 21:15,-118.6315,38.5448,1282.89,69.80,48.20,46.16,320.00,14.00,0.00,29.86,M,10.00,M,CLR,M,M,M,M,M,M,M,M,M,M,M,M,M,M,69.80,KHTH 112115Z AUTO 32014KT 10SM CLR 21/09 A2986 RMK A01,M
TMT,2023-06-11 21:15,-117.1971,39.4643,1749.34,63.00,49.30,60.88,10.00,5.00,0.00,29.91,M,10.00,M,SCT,BKN,OVC,M,6500.00,10000.00,11000.00,M,-TSRA,M,M,M,M,M,M,63.00,KTMT 112115Z AUTO 01005KT 10SM -TSRA SCT065 BKN100 OVC110 17/10 A2991 RMK AO2 LTG DSNT ALQS T01720096,M
LAS,2023-06-11 21:17,-115.1634,36.0719,663.00,83.00,36.00,18.66,170.00,8.00,0.00,29.71,M,10.00,17.00,FEW,BKN,M,M,10000.00,22000.00,M,M,VCTS,M,M,M,M,M,M,80.43,KLAS 112117Z 17008G17KT 10SM VCTS FEW100CB BKN220 28/02 A2971 RMK AO2 LTG DSNT SW AND W TS W CB W T02830022,M
ELY,2023-06-11 21:23,-114.8453,39.2950,1909.00,59.00,40.00,49.04,10.00,8.00,0.00,29.97,M,10.00,26.00,SCT,SCT,M,M,7500.00,12000.00,M,M,TS,M,M,M,30.00,20.00,2023-06-11 21:02,59.00,KELY 112123Z AUTO 01008G26KT 250V150 10SM TS SCT075 SCT120 15/04 A2997 RMK AO2 PK WND 02030/2102 LTG DSNT W TSB23 PRESRR T01500044,M
INS,2023-06-11 21:29,-115.6733,36.5872,955.00,82.40,12.20,7.01,100.00,11.00,0.00,29.74,1002.60,10.00,22.00,CLR,M,M,M,M,M,M,M,M,M,M,M,M,M,M,79.13,KINS 112129Z AUTO 10011G22KT 10SM CLR 28/M11 A2974 RMK AO2 WSHFT 23 SLP026 $,M
05U,2023-06-11 21:30,-116.0051,39.6042,1811.23,60.80,42.80,51.45,10.00,11.00,0.00,29.97,M,10.00,M,CLR,M,M,M,M,M,M,M,M,M,M,M,M,M,M,60.80,K05U 112130Z AUTO 01011KT 10SM CLR 16/06 A2997 RMK A01,M
LAS,2023-06-11 21:33,-115.1634,36.0719,663.00,83.00,36.00,18.66,220.00,12.00,0.00,29.71,M,10.00,19.00,FEW,BKN,M,M,10000.00,22000.00,M,M,VCTS,M,M,M,M,M,M,80.43,KLAS 112133Z 22012G19KT 10SM VCTS FEW100 BKN220 28/02 A2971 RMK AO2 TS DSNT W CB DSNT W T02830022,M
BVU,2023-06-11 21:35,-114.8611,35.9475,671.00,86.00,28.40,12.44,160.00,16.00,0.00,29.72,M,10.00,22.00,CLR,M,M,M,M,M,M,M,M,M,M,M,M,M,M,82.54,KBVU 112135Z AUTO 16016G22KT 10SM CLR 30/M02 A2972 RMK AO2,M
CXP,2023-06-11 21:35,-119.7326,39.1923,1431.00,73.40,50.00,43.69,320.00,10.00,0.00,29.88,M,10.00,18.00,FEW,SCT,M,M,4800.00,6000.00,M,M,M,M,M,M,M,M,M,73.40,KCXP 112135Z AUTO 32010G18KT 10SM FEW048 SCT060 23/10 A2988 RMK AO2,M
RTS,2023-06-11 21:35,-119.8764,39.6682,1539.00,66.20,46.40,48.83,M,4.00,0.00,29.91,M,10.00,M,CLR,M,M,M,M,M,M,M,M,M,M,M,M,M,M,66.20,KRTS 112135Z AUTO VRB04KT 10SM CLR 19/08 A2991 RMK AO2,M
MEV,2023-06-11 21:35,-119.7500,38.9963,1441.42,73.40,48.20,40.85,300.00,6.00,0.00,29.87,M,10.00,11.00,FEW,M,M,M,5000.00,M,M,M,M,M,M,M,M,M,M,73.40,KMEV 112135Z AUTO 30006G11KT 10SM FEW050 23/09 A2987 RMK AO2,M
BAM,2023-06-11 21:35,-116.8743,40.5990,1382.36,75.20,46.40,35.94,10.00,3.00,0.00,29.86,M,10.00,8.00,CLR,M,M,M,M,M,M,M,M,M,M,M,M,M,M,75.20,KBAM 112135Z AUTO 01003G08KT 10SM CLR 24/08 A2986 RMK AO1,M
HTH,2023-06-11 21:35,-118.6315,38.5448,1282.89,69.80,48.20,46.16,330.00,14.00,0.00,29.86,M,10.00,19.00,CLR,M,M,M,M,M,M,M,M,M,M,M,M,M,M,69.80,KHTH 112135Z AUTO 33014G19KT 10SM CLR 21/09 A2986 RMK A01,M
TMT,2023-06-11 21:35,-117.1971,39.4643,1749.34,55.40,47.70,75.24,90.00,12.00,0.01,29.94,M,10.00,M,SCT,BKN,OVC,M,4900.00,6500.00,10000.00,M,TSRA,M,M,M,M,M,M,55.40,KTMT 112135Z AUTO 09012KT 10SM TSRA SCT049 BKN065 OVC100 13/09 A2994 RMK AO2 LTG DSNT ALQS P0001 T01300087,M
EKO,2023-06-11 21:37,-115.7860,40.8242,1367.00,54.00,47.00,76.83,170.00,33.00,0.02,29.92,M,2.50,49.00,SCT,BKN,OVC,M,7500.00,9000.00,11000.00,M,RA,M,M,M,52.00,180.00,2023-06-11 21:14,54.00,KEKO 112137Z AUTO 17033G49KT 2 1/2SM RA SCT075 BKN090 OVC110 12/08 A2992 RMK AO2 PK WND 18052/2114 LTG DSNT NE AND SW AND W RAB25 TSB29E30 P0002 T01220083,M
LAS,2023-06-11 21:37,-115.1634,36.0719,663.00,83.00,36.00,18.66,200.00,9.00,0.00,29.71,M,10.00,19.00,FEW,BKN,M,M,10000.00,22000.00,M,M,M,M,M,M,M,M,M,80.43,KLAS 112137Z 20009G19KT 10SM FEW100 BKN220 28/02 A2971 RMK AO2 LTG DSNT W TS DSNT W CB DSNT W T02830022,M
EKO,2023-06-11 21:40,-115.7860,40.8242,1367.00,54.00,47.00,76.83,170.00,29.00,0.02,29.92,M,3.00,49.00,FEW,BKN,OVC,M,7000.00,9000.00,11000.00,M,TSRA,M,M,M,52.00,180.00,2023-06-11 21:14,54.00,KEKO 112140Z AUTO 17029G49KT 3SM TSRA FEW070 BKN090 OVC110 12/08 A2992 RMK AO2 PK WND 18052/2114 LTG DSNT ALQDS RAB25 TSB29E30B40 P0002 T01220083,M
05U,2023-06-11 21:50,-116.0051,39.6042,1811.23,60.80,44.60,55.12,M,M,0.00,29.98,M,10.00,M,CLR,M,M,M,M,M,M,M,M,M,M,M,M,M,M,60.80,K05U 112150Z AUTO 10SM CLR 16/07 A2998 RMK A01,M
EKO,2023-06-11 21:52,-115.7860,40.8242,1367.00,53.60,46.40,76.50,170.00,28.00,0.04,29.94,M,10.00,45.00,BKN,OVC,M,M,8500.00,11000.00,M,M,VCTS -RA,M,M,M,52.00,180.00,2023-06-11 21:14,53.60,KEKO 112152Z AUTO 17028G45KT 10SM VCTS -RA BKN085 OVC110 12/08 A2994 RMK AO2 PK WND 18052/2114 LTG DSNT SW-N RAB25 TSB29E30B40E41B45E46 P0004,M
P68,2023-06-11 21:53,-116.0056,39.6014,1993.00,60.00,45.00,57.37,350.00,8.00,0.00,29.95,1009.00,M,M,M,M,M,M,M,M,M,M,M,M,M,M,M,M,M,60.10,KP68 112153Z AUTO 35008KT 16/07 A2995 RMK AO1 SLP090 T01560072 $,M
ELY,2023-06-11 21:53,-114.8453,39.2950,1909.00,43.00,37.00,79.19,M,M,0.22,29.98,1011.80,3.00,M,BKN,OVC,M,M,5500.00,7000.00,M,M,-TSRA,M,M,M,30.00,20.00,2023-06-11 21:02,M,KELY 112153Z AUTO 3SM -TSRA BKN055 OVC070 06/03 A2998 RMK AO2 PK WND 02030/2102 LTG DSNT E AND SE RAB30 TSB23E24B25E26B27E33B34E38B39E49B51 SLP118 P0022 T00610028,M
LOL,2023-06-11 21:53,-118.5701,40.0684,1192.43,80.00,46.00,30.11,M,M,0.00,29.80,1005.90,10.00,M,CLR,M,M,M,M,M,M,M,M,M,M,M,M,M,M,79.26,KLOL 112153Z AUTO 10SM CLR 27/08 A2980 RMK AO2 SLP059 T02670078,M
DRA,2023-06-11 21:53,-116.0278,36.6206,1009.00,79.00,40.00,24.70,210.00,17.00,0.00,29.75,1002.90,10.00,25.00,FEW,M,M,M,11000.00,M,M,M,M,M,M,M,27.00,210.00,2023-06-11 21:26,79.00,KDRA 112153Z AUTO 21017G25KT 10SM FEW110 26/04 A2975 RMK AO2 PK WND 21027/2126 SLP029 T02610044,M
VGT,2023-06-11 21:53,-115.1933,36.2111,667.00,84.00,40.00,20.99,260.00,17.00,0.00,29.70,1005.00,10.00,23.00,FEW,M,M,M,12000.00,M,M,M,M,M,M,M,M,M,M,81.33,KVGT 112153Z 26017G23KT 10SM FEW120 29/04 A2970 RMK AO2 WSHFT 2133 SLP050 T02890044,M
BVU,2023-06-11 21:55,-114.8611,35.9475,671.00,86.00,30.20,13.38,150.00,21.00,0.00,29.72,M,10.00,M,CLR,M,M,M,M,M,M,M,M,M,M,M,M,M,M,82.64,KBVU 112155Z AUTO 15021KT 10SM CLR 30/M01 A2972 RMK AO2,M
CXP,2023-06-11 21:55,-119.7326,39.1923,1431.00,73.40,48.20,40.85,320.00,11.00,0.00,29.87,M,10.00,M,SCT,BKN,M,M,5500.00,9000.00,M,M,M,M,M,M,M,M,M,73.40,KCXP 112155Z AUTO 32011KT 10SM SCT055 BKN090 23/09 A2987 RMK AO2 LTG DSNT E-S,M
RNO,2023-06-11 21:55,-119.7711,39.4839,1341.00,75.00,45.00,34.31,M,5.00,0.00,29.86,1006.90,10.00,M,FEW,SCT,BKN,M,7000.00,12000.00,20000.00,M,M,M,M,M,M,M,M,75.00,KRNO 112155Z VRB05KT 10SM FEW070 SCT120 BKN200 24/07 A2986 RMK AO2 SLP069 CB DSNT S TCU DSNT ALQDS T02390072,M
RTS,2023-06-11 21:55,-119.8764,39.6682,1539.00,68.00,46.40,45.88,0.00,0.00,0.00,29.91,M,10.00,M,CLR,M,M,M,M,M,M,M,M,M,M,M,M,M,M,68.00,KRTS 112155Z AUTO 00000KT 10SM CLR 20/08 A2991 RMK AO2,M
MEV,2023-06-11 21:55,-119.7500,38.9963,1441.42,71.60,44.60,37.89,290.00,5.00,0.00,29.86,M,10.00,M,CLR,M,M,M,M,M,M,M,VCTS,M,M,M,M,M,M,71.60,KMEV 112155Z AUTO 29005KT 10SM VCTS CLR 22/07 A2986 RMK AO2 LTG DSNT E-S,M
BAM,2023-06-11 21:55,-116.8743,40.5990,1382.36,73.40,46.40,38.18,10.00,5.00,0.00,29.86,M,10.00,M,CLR,M,M,M,M,M,M,M,M,M,M,M,M,M,M,73.40,KBAM 112155Z AUTO 01005KT 10SM CLR 23/08 A2986 RMK AO1,M
HTH,2023-06-11 21:55,-118.6315,38.5448,1282.89,69.80,48.20,46.16,320.00,12.00,0.00,29.86,M,10.00,M,FEW,M,M,M,4400.00,M,M,M,M,M,M,M,M,M,M,69.80,KHTH 112155Z AUTO 32012KT 10SM FEW044 21/09 A2986 RMK A01,M
TMT,2023-06-11 21:55,-117.1971,39.4643,1749.34,51.00,44.60,78.92,230.00,13.00,0.22,29.96,M,3.00,20.00,SCT,BKN,OVC,M,3200.00,5500.00,6500.00,M,+TSRA,M,M,M,M,M,M,50.90,KTMT 112155Z AUTO 23013G20KT 3SM +TSRA SCT032 BKN055 OVC065 11/07 A2996 RMK AO2 LTG DSNT ALQS P0022 T01050070,M
INS,2023-06-11 21:55,-115.6733,36.5872,955.00,83.00,15.60,8.00,80.00,18.00,0.00,29.73,1002.30,10.00,24.00,CLR,M,M,M,M,M,M,M,M,M,M,M,27.00,100.00,2023-06-11 21:04,79.61,KINS 112155Z AUTO 08018G24KT 10SM CLR 28/M09 A2973 RMK AO2 PK WND 10027/04 SLP023 T02831091 $,M
LSV,2023-06-11 21:55,-115.0343,36.2362,570.00,88.30,19.60,8.00,110.00,8.00,0.00,29.66,1002.10,10.00,M,FEW,SCT,M,M,12000.00,15000.00,M,M,M,M,M,M,M,M,M,83.60,KLSV 112155Z 11008KT 10SM FEW120 SCT150 31/M07 A2966 RMK AO2A SLP021 T03131069 $,M
EKO,2023-06-11 21:56,-115.7860,40.8242,1367.00,54.00,46.00,74.26,160.00,24.00,0.04,29.96,1011.70,10.00,45.00,BKN,OVC,M,M,8000.00,10000.00,M,M,-RA,M,M,M,52.00,180.00,2023-06-11 21:14,54.00,KEKO 112156Z AUTO 16024G45KT 10SM -RA BKN080 OVC100 12/08 A2996 RMK AO2 PK WND 18052/2114 LTG DSNT SW-N RAB25 TSB29E30B40E41B45E46B55E56 SLP117 P0004 T01220078,M
HND,2023-06-11 21:56,-115.1344,35.9729,742.79,82.00,36.00,19.21,250.00,14.00,0.00,29.74,1006.00,10.00,M,OVC,M,M,M,10000.00,M,M,M,M,M,M,M,M,M,M,79.83,KHND 112156Z 25014KT 10SM OVC100 28/02 A2974 RMK AO2 LTG DSNT W SLP060 T02780022,M
TPH,2023-06-11 21:56,-117.0904,38.0505,1654.00,65.00,39.00,38.44,220.00,10.00,T,29.91,1007.70,10.00,M,FEW,M,M,M,12000.00,M,M,M,M,M,M,M,M,M,M,64.90,KTPH 112156Z AUTO 22010KT 10SM FEW120 18/04 A2991 RMK AO2 RAE15 SLP077 P0000 T01830039,M
WMC,2023-06-11 21:56,-117.8072,40.9019,1315.00,77.00,44.00,31.02,M,M,0.00,29.83,1006.40,10.00,M,FEW,M,M,M,7000.00,M,M,M,M,M,M,M,M,M,M,77.00,KWMC 112156Z AUTO 10SM FEW070 25/07 A2983 RMK AO2 SLP064 T02500067,M
NFL,2023-06-11 21:56,-118.7010,39.4166,1199.00,73.00,47.00,39.43,50.00,4.00,0.00,29.83,1007.80,10.00,M,CLR,M,M,M,M,M,M,M,M,M,M,M,M,M,M,73.00,KNFL 112156Z AUTO 05004KT 10SM CLR 23/08 A2983 RMK AO2 SLP078 T02280083,M
LAS,2023-06-11 21:56,-115.1634,36.0719,663.00,82.00,38.00,20.71,260.00,9.00,0.00,29.71,1003.70,10.00,15.00,FEW,SCT,BKN,M,10000.00,15000.00,22000.00,M,M,M,M,M,M,M,M,79.90,KLAS 112156Z 26009G15KT 10SM FEW100 SCT150 BKN220 28/03 A2971 RMK AO2 LTG DSNT SW SLP037 T02780033,M
VGT,2023-06-11 22:00,-115.1933,36.2111,667.00,83.00,40.00,21.75,250.00,17.00,0.00,29.70,M,10.00,26.00,FEW,M,M,M,12000.00,M,M,M,M,M,M,M,26.00,250.00,2023-06-11 21:54,80.57,KVGT 112200Z 25017G26KT 10SM FEW120 28/04 A2970 RMK AO2 PK WND 25026/2154 WSHFT 2140 T02830044,M
05U,2023-06-11 22:10,-116.0051,39.6042,1811.23,60.80,44.60,55.12,M,M,0.00,30.01,M,10.00,M,CLR,M,M,M,M,M,M,M,M,M,M,M,M,M,M,60.80,K05U 112210Z AUTO 10SM CLR 16/07 A3001 RMK A01,M
ELY,2023-06-11 22:11,-114.8453,39.2950,1909.00,46.00,40.00,79.13,60.00,5.00,T,29.98,M,10.00,M,BKN,OVC,M,M,6500.00,8000.00,M,M,-RA,M,M,M,M,M,M,43.02,KELY 112211Z AUTO 06005KT 10SM -RA BKN065 OVC080 08/04 A2998 RMK AO2 LTG DSNT E TSE2154B2155E2156B2157E2159B03E05 P0000 T00780044,M
BVU,2023-06-11 22:15,-114.8611,35.9475,671.00,84.20,32.00,15.25,150.00,15.00,0.00,29.71,M,10.00,24.00,CLR,M,M,M,M,M,M,M,M,M,M,M,M,M,M,81.28,KBVU 112215Z AUTO 15015G24KT 10SM CLR 29/M00 A2971 RMK AO2 LTG DSNT W,M
CXP,2023-06-11 22:15,-119.7326,39.1923,1431.00,73.40,46.40,38.18,330.00,9.00,0.00,29.87,M,10.00,15.00,BKN,BKN,M,M,5500.00,10000.00,M,M,M,M,M,M,M,M,M,73.40,KCXP 112215Z AUTO 33009G15KT 10SM BKN055 BKN100 23/08 A2987 RMK AO2 LTG DSNT SE-W,M
RTS,2023-06-11 22:15,-119.8764,39.6682,1539.00,69.80,46.40,43.13,20.00,7.00,0.00,29.91,M,10.00,M,CLR,M,M,M,M,M,M,M,M,M,M,M,M,M,M,69.80,KRTS 112215Z AUTO 02007KT 10SM CLR 21/08 A2991 RMK AO2,M
MEV,2023-06-11 22:15,-119.7500,38.9963,1441.42,69.80,42.80,37.61,320.00,6.00,0.00,29.87,M,10.00,M,SCT,M,M,M,11000.00,M,M,M,VCTS,M,M,M,M,M,M,69.80,KMEV 112215Z AUTO 32006KT 10SM VCTS SCT110 21/06 A2987 RMK AO2 LTG DSNT ALQDS,M
BAM,2023-06-11 22:15,-116.8743,40.5990,1382.36,69.80,42.80,37.61,140.00,27.00,0.00,29.89,M,10.00,36.00,SCT,BKN,M,M,6500.00,8500.00,M,M,M,M,M,M,M,M,M,69.80,KBAM 112215Z AUTO 14027G36KT 10SM SCT065 BKN085 21/06 A2989 RMK AO1,M
HTH,2023-06-11 22:15,-118.6315,38.5448,1282.89,71.60,48.20,43.42,340.00,16.00,0.00,29.86,M,10.00,M,CLR,M,M,M,M,M,M,M,M,M,M,M,M,M,M,71.60,KHTH 112215Z AUTO 34016KT 10SM CLR 22/09 A2986 RMK A01,M
TMT,2023-06-11 22:15,-117.1971,39.4643,1749.34,50.00,45.30,83.81,240.00,17.00,0.00,29.99,M,10.00,22.00,SCT,SCT,OVC,M,4500.00,6500.00,7000.00,M,-TSRA,M,M,M,M,M,M,50.00,KTMT 112215Z AUTO 24017G22KT 10SM -TSRA SCT045 SCT065 OVC070 10/07 A2999 RMK AO2 LTG DSNT ALQS T01000074,M
05U,2023-06-11 22:30,-116.0051,39.6042,1811.23,57.20,41.00,54.60,10.00,14.00,0.00,30.04,M,10.00,21.00,SCT,SCT,BKN,M,4300.00,5500.00,6500.00,M,M,M,M,M,M,M,M,57.20,K05U 112230Z AUTO 01014G21KT 10SM SCT043 SCT055 BKN065 14/05 A3004 RMK A01,M
BVU,2023-06-11 22:35,-114.8611,35.9475,671.00,84.20,32.00,15.25,180.00,18.00,0.00,29.71,M,10.00,28.00,CLR,M,M,M,M,M,M,M,M,M,M,M,M,M,M,81.28,KBVU 112235Z AUTO 18018G28KT 10SM CLR 29/00 A2971 RMK AO2,M
CXP,2023-06-11 22:35,-119.7326,39.1923,1431.00,71.60,46.40,40.57,M,3.00,0.00,29.87,M,10.00,M,OVC,M,M,M,5500.00,M,M,M,VCTS,M,M,M,M,M,M,71.60,KCXP 112235Z AUTO VRB03KT 10SM VCTS OVC055 22/08 A2987 RMK AO2 LTG DSNT SE AND S,M
RTS,2023-06-11 22:35,-119.8764,39.6682,1539.00,68.00,42.80,40.00,0.00,0.00,0.00,29.90,M,10.00,10.00,CLR,M,M,M,M,M,M,M,M,M,M,M,M,M,M,68.00,KRTS 112235Z AUTO 00000G10KT 10SM CLR 20/06 A2990 RMK AO2,M
MEV,2023-06-11 22:35,-119.7500,38.9963,1441.42,68.00,50.00,52.51,10.00,5.00,0.00,29.87,M,10.00,M,FEW,M,M,M,11000.00,M,M,M,VCTS RA,M,M,M,M,M,M,68.00,KMEV 112235Z AUTO 01005KT 10SM VCTS RA FEW110 20/10 A2987 RMK AO2 LTG DSNT ALQDS,M
BAM,2023-06-11 22:35,-116.8743,40.5990,1382.36,64.40,42.80,45.32,140.00,22.00,0.00,29.90,M,10.00,32.00,SCT,SCT,SCT,M,6500.00,8500.00,12000.00,M,M,M,M,M,M,M,M,64.40,KBAM 112235Z AUTO 14022G32KT 10SM SCT065 SCT085 SCT120 18/06 A2990 RMK AO1,M
HTH,2023-06-11 22:35,-118.6315,38.5448,1282.89,71.60,46.40,40.57,330.00,16.00,0.00,29.86,M,10.00,M,CLR,M,M,M,M,M,M,M,M,M,M,M,M,M,M,71.60,KHTH 112235Z AUTO 33016KT 10SM CLR 22/08 A2986 RMK A01,M
P68,2023-06-11 22:43,-116.0056,39.6014,1993.00,54.00,44.00,69.09,160.00,13.00,0.00,30.02,M,M,21.00,M,M,M,M,M,M,M,M,M,M,M,M,M,M,M,54.00,KP68 112243Z AUTO 16013G21KT 12/07 A3002 RMK AO1 WSHFT 2226 T01220067 $,M
INS,2023-06-11 22:44,-115.6733,36.5872,955.00,82.40,26.60,12.97,110.00,11.00,0.00,29.73,1002.30,10.00,M,CLR,M,M,M,M,M,M,M,M,M,M,M,M,M,M,79.92,KINS 112244Z AUTO 11011KT 10SM CLR 28/M03 A2973 RMK AO2 WSHFT 39 SLP023 $,M
05U,2023-06-11 22:50,-116.0051,39.6042,1811.23,55.40,44.60,66.91,20.00,10.00,0.00,30.04,M,10.00,M,OVC,M,M,M,4600.00,M,M,M,M,M,M,M,M,M,M,55.40,K05U 112250Z AUTO 02010KT 10SM OVC046 13/07 A3004 RMK A01,M
LOL,2023-06-11 22:51,-118.5701,40.0684,1192.43,78.80,44.60,29.79,40.00,12.00,0.00,29.78,M,10.00,16.00,SCT,SCT,M,M,7500.00,9500.00,M,M,VCTS,M,M,M,M,M,M,78.80,KLOL 112251Z AUTO 04012G16KT 10SM VCTS SCT075 SCT095 26/07 A2978 RMK AO2 LTG DSNT SE,M
DRA,2023-06-11 22:53,-116.0278,36.6206,1009.00,81.00,36.00,19.85,230.00,21.00,0.00,29.76,1003.50,10.00,32.00,CLR,M,M,M,M,M,M,M,M,M,M,M,32.00,230.00,2023-06-11 22:48,79.20,KDRA 112253Z AUTO 23021G32KT 10SM CLR 27/02 A2976 RMK AO2 PK WND 23032/2248 SLP035 T02720022,M
ELY,2023-06-11 22:53,-114.8453,39.2950,1909.00,45.00,41.00,85.77,250.00,8.00,T,30.00,1012.70,10.00,M,OVC,M,M,M,6000.00,M,M,M,-RA,M,M,M,M,M,M,40.13,KELY 112253Z AUTO 25008KT 10SM -RA OVC060 07/05 A3000 RMK AO2 LTG DSNT N-E TSE2154B2155E2156B2157E2159B03E05 SLP127 P0000 T00720050,M
P68,2023-06-11 22:53,-116.0056,39.6014,1993.00,54.00,44.00,69.09,150.00,12.00,0.00,30.02,1012.10,M,19.00,M,M,M,M,M,M,M,M,M,M,M,M,M,M,M,54.00,KP68 112253Z AUTO 15012G19KT 12/07 A3002 RMK AO1 WSHFT 2226 SLP121 T01220067 $,M
LOL,2023-06-11 22:53,-118.5701,40.0684,1192.43,79.00,44.00,29.04,50.00,10.00,0.00,29.78,1005.70,10.00,M,SCT,SCT,M,M,7500.00,9000.00,M,M,VCTS,M,M,M,M,M,M,79.00,KLOL 112253Z AUTO 05010KT 10SM VCTS SCT075 SCT090 26/07 A2978 RMK AO2 LTG DSNT E AND SE AND W SLP057 T02610067,M
VGT,2023-06-11 22:53,-115.1933,36.2111,667.00,85.00,37.00,18.20,260.00,15.00,0.00,29.70,1005.10,10.00,21.00,CLR,M,M,M,M,M,M,M,M,M,M,M,26.00,250.00,2023-06-11 21:54,81.88,KVGT 112253Z 26015G21KT 10SM CLR 29/03 A2970 RMK AO2 PK WND 25026/2154 WSHFT 2140 SLP051 T02940028,M
BVU,2023-06-11 22:55,-114.8611,35.9475,671.00,84.20,32.00,15.25,210.00,16.00,0.00,29.72,M,10.00,M,CLR,M,M,M,M,M,M,M,M,M,M,M,M,M,M,81.28,KBVU 112255Z AUTO 21016KT 10SM CLR 29/00 A2972 RMK AO2,M
CXP,2023-06-11 22:55,-119.7326,39.1923,1431.00,71.60,46.40,40.57,M,4.00,0.00,29.87,M,10.00,M,BKN,BKN,BKN,M,6000.00,7000.00,12000.00,M,M,M,M,M,M,M,M,71.60,KCXP 112255Z AUTO VRB04KT 10SM BKN060 BKN070 BKN120 22/08 A2987 RMK AO2 LTG DSNT SE AND W,M
INS,2023-06-11 22:55,-115.6733,36.5872,955.00,82.60,28.60,13.99,140.00,12.00,0.00,29.73,1002.30,10.00,17.00,SCT,M,M,M,10000.00,M,M,M,M,M,M,M,M,M,M,80.09,KINS 112255Z AUTO 14012G17KT 10SM SCT100 28/M02 A2973 RMK AO2 SLP023 T02811019 $,M
RNO,2023-06-11 22:55,-119.7711,39.4839,1341.00,74.00,45.00,35.60,M,3.00,0.00,29.85,1006.70,10.00,M,FEW,BKN,BKN,M,7000.00,12000.00,16000.00,M,M,M,M,M,M,M,M,73.90,KRNO 112255Z VRB03KT 10SM FEW070 BKN120 BKN160 23/07 A2985 RMK AO2 LTG DSNT S AND SW SLP067 CB DSNT N AND S AND W AND NW TCU DSNT ALQDS T02330072,M
LSV,2023-06-11 22:55,-115.0343,36.2362,570.00,88.50,36.50,15.91,200.00,16.00,0.00,29.66,1002.10,10.00,21.00,FEW,SCT,M,M,12000.00,15000.00,M,M,M,M,M,M,M,M,M,84.72,KLSV 112255Z 20016G21KT 10SM FEW120 SCT150 31/03 A2966 RMK AO2A SLP021 T03140025 $,M
RTS,2023-06-11 22:55,-119.8764,39.6682,1539.00,69.80,46.40,43.13,310.00,5.00,0.00,29.90,M,10.00,11.00,CLR,M,M,M,M,M,M,M,M,M,M,M,M,M,M,69.80,KRTS 112255Z AUTO 31005G11KT 10SM CLR 21/08 A2990 RMK AO2,M
MEV,2023-06-11 22:55,-119.7500,38.9963,1441.42,60.80,55.40,82.37,150.00,6.00,0.00,29.87,M,9.00,M,CLR,M,M,M,M,M,M,M,VCTS RA,M,M,M,M,M,M,60.80,KMEV 112255Z AUTO 15006KT 9SM VCTS RA CLR 16/13 A2987 RMK AO2 LTG DSNT ALQDS,M
BAM,2023-06-11 22:55,-116.8743,40.5990,1382.36,64.40,44.60,48.55,110.00,23.00,0.00,29.91,M,10.00,30.00,SCT,M,M,M,12000.00,M,M,M,M,M,M,M,M,M,M,64.40,KBAM 112255Z AUTO 11023G30KT 10SM SCT120 18/07 A2991 RMK AO1,M
HTH,2023-06-11 22:55,-118.6315,38.5448,1282.89,71.60,46.40,40.57,320.00,11.00,0.00,29.87,M,10.00,17.00,CLR,M,M,M,M,M,M,M,M,M,M,M,M,M,M,71.60,KHTH 112255Z AUTO 32011G17KT 10SM CLR 22/08 A2987 RMK A01,M
TMT,2023-06-11 22:55,-117.1971,39.4643,1749.34,51.80,46.00,80.21,210.00,13.00,0.00,30.00,M,10.00,21.00,BKN,OVC,M,M,8000.00,11000.00,M,M,TS,M,M,M,M,M,M,51.80,KTMT 112255Z AUTO 21013G21KT 10SM TS BKN080 OVC110 11/08 A3000 RMK AO2 LTG DSNT ALQS T01100077,M
NFL,2023-06-11 22:56,-118.7010,39.4166,1199.00,73.00,48.00,41.10,110.00,5.00,0.00,29.81,1007.20,10.00,M,CLR,M,M,M,M,M,M,M,M,M,M,M,M,M,M,73.00,KNFL 112256Z AUTO 11005KT 10SM CLR 23/09 A2981 RMK AO2 SLP072 T02280089,M
HND,2023-06-11 22:56,-115.1344,35.9729,742.79,74.00,43.00,32.98,190.00,8.00,0.05,29.78,1007.80,10.00,17.00,FEW,OVC,M,M,3100.00,9000.00,M,M,-RA,M,M,M,27.00,170.00,2023-06-11 22:38,73.90,KHND 112256Z 19008G17KT 10SM -RA FEW031 OVC090 23/06 A2978 RMK AO2 PK WND 17027/2238 LTG DSNT SW RAB27 PRESRR SLP078 P0005 T02330061,M
LAS,2023-06-11 22:56,-115.1634,36.0719,663.00,80.00,39.00,23.00,230.00,8.00,0.00,29.73,1004.40,10.00,18.00,SCT,BKN,M,M,9000.00,25000.00,M,M,M,M,M,M,M,M,M,78.89,KLAS 112256Z 23008G18KT 10SM SCT090 BKN250 27/04 A2973 RMK AO2 SLP044 SH VC S AND DSNT W T02670039,M
EKO,2023-06-11 22:56,-115.7860,40.8242,1367.00,54.00,47.00,76.83,190.00,15.00,0.05,29.93,1010.70,10.00,26.00,SCT,SCT,BKN,M,6500.00,9500.00,12000.00,M,M,M,M,M,48.00,170.00,2023-06-11 22:03,54.00,KEKO 112256Z AUTO 19015G26KT 10SM SCT065 SCT095 BKN120 12/08 A2993 RMK AO2 PK WND 17048/2203 RAE54 TSB2158E00 SLP107 P0005 T01220083,M
TPH,2023-06-11 22:56,-117.0904,38.0505,1654.00,66.00,40.00,38.32,320.00,8.00,0.00,29.91,1007.60,10.00,18.00,CLR,M,M,M,M,M,M,M,M,M,M,M,M,M,M,66.00,KTPH 112256Z AUTO 32008G18KT 10SM CLR 19/04 A2991 RMK AO2 SLP076 T01890044,M
WMC,2023-06-11 22:56,-117.8072,40.9019,1315.00,80.00,44.00,28.01,340.00,6.00,0.00,29.81,1005.40,10.00,M,FEW,M,M,M,7000.00,M,M,M,M,M,M,M,M,M,M,79.12,KWMC 112256Z AUTO 34006KT 10SM FEW070 27/07 A2981 RMK AO2 SLP054 T02670067,M
INS,2023-06-11 23:07,-115.6733,36.5872,955.00,82.40,35.60,18.67,170.00,12.00,0.00,29.74,1002.60,10.00,M,BKN,M,M,M,10000.00,M,M,M,M,M,M,M,M,M,M,80.08,KINS 112307Z AUTO 17012KT 10SM BKN100 28/02 A2974 RMK AO2 WSHFT 2257 SLP026 $,M
05U,2023-06-11 23:10,-116.0051,39.6042,1811.23,51.80,46.40,81.74,20.00,13.00,0.00,30.04,M,3.00,M,SCT,SCT,M,M,4700.00,6500.00,M,M,HZ,M,M,M,M,M,M,51.80,K05U 112310Z AUTO 02013KT 3SM HZ SCT047 SCT065 11/08 A3004 RMK A01,M
BVU,2023-06-11 23:15,-114.8611,35.9475,671.00,82.40,35.60,18.67,180.00,17.00,0.00,29.72,M,10.00,23.00,FEW,M,M,M,11000.00,M,M,M,M,M,M,M,M,M,M,80.08,KBVU 112315Z AUTO 18017G23KT 10SM FEW110 28/02 A2972 RMK AO2,M
CXP,2023-06-11 23:15,-119.7326,39.1923,1431.00,71.60,46.40,40.57,40.00,6.00,0.00,29.87,M,10.00,M,OVC,M,M,M,6000.00,M,M,M,M,M,M,M,M,M,M,71.60,KCXP 112315Z AUTO 04006KT 10SM OVC060 22/08 A2987 RMK AO2 LTG DSNT ALQDS,M
RTS,2023-06-11 23:15,-119.8764,39.6682,1539.00,69.80,46.40,43.13,M,4.00,0.00,29.90,M,10.00,12.00,CLR,M,M,M,M,M,M,M,M,M,M,M,M,M,M,69.80,KRTS 112315Z AUTO VRB04G12KT 10SM CLR 21/08 A2990 RMK AO2,M
MEV,2023-06-11 23:15,-119.7500,38.9963,1441.42,60.80,53.60,77.14,180.00,11.00,0.00,29.87,M,9.00,M,SCT,BKN,BKN,M,6000.00,7000.00,9000.00,M,VCTS RA,M,M,M,M,M,M,60.80,KMEV 112315Z AUTO 18011KT 9SM VCTS RA SCT060 BKN070 BKN090 16/12 A2987 RMK AO2 LTG DSNT N AND SE,M
BAM,2023-06-11 23:15,-116.8743,40.5990,1382.36,64.40,44.60,48.55,120.00,24.00,0.00,29.91,M,10.00,30.00,SCT,BKN,BKN,M,8000.00,10000.00,12000.00,M,M,M,M,M,M,M,M,64.40,KBAM 112315Z AUTO 12024G30KT 10SM SCT080 BKN100 BKN120 18/07 A2991 RMK AO1,M
HTH,2023-06-11 23:15,-118.6315,38.5448,1282.89,71.60,46.40,40.57,310.00,9.00,0.00,29.87,M,10.00,M,CLR,M,M,M,M,M,M,M,M,M,M,M,M,M,M,71.60,KHTH 112315Z AUTO 31009KT 10SM CLR 22/08 A2987 RMK A01,M
TMT,2023-06-11 23:15,-117.1971,39.4643,1749.34,51.60,47.50,85.83,190.00,12.00,0.00,30.01,M,10.00,M,SCT,OVC,M,M,9000.00,11000.00,M,M,M,M,M,M,M,M,M,51.60,KTMT 112315Z AUTO 19012KT 10SM SCT090 OVC110 11/09 A3001 RMK AO2 LTG DSNT ALQS T01090086,M
05U,2023-06-11 23:30,-116.0051,39.6042,1811.23,53.60,46.40,76.50,20.00,10.00,0.00,30.04,M,9.00,M,SCT,M,M,M,5000.00,M,M,M,M,M,M,M,M,M,M,53.60,K05U 112330Z AUTO 02010KT 9SM SCT050 12/08 A3004 RMK A01,M
BVU,2023-06-11 23:35,-114.8611,35.9475,671.00,82.40,33.80,17.38,180.00,12.00,0.00,29.73,M,10.00,19.00,CLR,M,M,M,M,M,M,M,M,M,M,M,M,M,M,80.03,KBVU 112335Z AUTO 18012G19KT 10SM CLR 28/01 A2973 RMK AO2 LTG DSNT W-NE,M
CXP,2023-06-11 23:35,-119.7326,39.1923,1431.00,71.60,46.40,40.57,70.00,4.00,0.00,29.87,M,10.00,M,BKN,BKN,OVC,M,6000.00,7000.00,8000.00,M,M,M,M,M,M,M,M,71.60,KCXP 112335Z AUTO 07004KT 10SM BKN060 BKN070 OVC080 22/08 A2987 RMK AO2 LTG DSNT ALQDS,M
RTS,2023-06-11 23:35,-119.8764,39.6682,1539.00,69.80,46.40,43.13,330.00,3.00,0.00,29.89,M,10.00,M,CLR,M,M,M,M,M,M,M,M,M,M,M,M,M,M,69.80,KRTS 112335Z AUTO 33003KT 10SM CLR 21/08 A2989 RMK AO2,M
MEV,2023-06-11 23:35,-119.7500,38.9963,1441.42,59.00,53.60,82.25,200.00,10.00,0.00,29.87,M,8.00,M,BKN,BKN,BKN,M,5500.00,6500.00,8000.00,M,-RA,M,M,M,M,M,M,59.00,KMEV 112335Z AUTO 20010KT 8SM -RA BKN055 BKN065 BKN080 15/12 A2987 RMK AO2 LTG DSNT ALQDS,M
BAM,2023-06-11 23:35,-116.8743,40.5990,1382.36,60.80,48.20,63.15,110.00,19.00,0.00,29.91,M,10.00,30.00,SCT,OVC,M,M,7000.00,9000.00,M,M,M,M,M,M,M,M,M,60.80,KBAM 112335Z AUTO 11019G30KT 10SM SCT070 OVC090 16/09 A2991 RMK AO1,M
HTH,2023-06-11 23:35,-118.6315,38.5448,1282.89,71.60,46.40,40.57,300.00,9.00,0.00,29.88,M,10.00,M,CLR,M,M,M,M,M,M,M,M,M,M,M,M,M,M,71.60,KHTH 112335Z AUTO 30009KT 10SM CLR 22/08 A2988 RMK A01,M
TMT,2023-06-11 23:35,-117.1971,39.4643,1749.34,53.20,47.00,79.71,210.00,16.00,0.00,30.01,M,10.00,22.00,BKN,OVC,M,M,7000.00,9000.00,M,M,-RA,M,M,M,M,M,M,53.20,KTMT 112335Z AUTO 21016G22KT 10SM -RA BKN070 OVC090 12/08 A3001 RMK AO2 LTG DSNT SW THRU NE T01180084,M
05U,2023-06-11 23:50,-116.0051,39.6042,1811.23,55.40,46.40,71.64,40.00,11.00,0.00,30.04,M,10.00,M,FEW,BKN,M,M,5000.00,6000.00,M,M,M,M,M,M,M,M,M,55.40,K05U 112350Z AUTO 04011KT 10SM FEW050 BKN060 13/08 A3004 RMK A01,M
P68,2023-06-11 23:53,-116.0056,39.6014,1993.00,55.00,46.00,71.60,140.00,12.00,0.02,30.01,1011.70,M,M,M,M,M,M,M,M,M,M,M,M,M,M,M,M,M,55.00,KP68 112353Z AUTO 14012KT 13/08 A3001 RMK AO1 SLP117 P0002 6//// T01280078 10172 20106 50015 $,M
DRA,2023-06-11 23:53,-116.0278,36.6206,1009.00,79.00,41.00,25.78,230.00,19.00,0.00,29.78,1004.30,10.00,29.00,FEW,BKN,M,M,8000.00,11000.00,M,M,M,M,M,M,32.00,220.00,2023-06-11 23:18,79.00,KDRA 112353Z AUTO 23019G29KT 10SM FEW080 BKN110 26/05 A2978 RMK AO2 PK WND 22032/2318 SLP043 T02610050 10278 20256 53011,M
VGT,2023-06-11 23:53,-115.1933,36.2111,667.00,85.00,36.00,17.50,210.00,12.00,0.00,29.72,1005.70,10.00,21.00,FEW,M,M,M,11000.00,M,M,M,M,M,M,M,M,M,M,81.86,KVGT 112353Z 21012G21KT 10SM FEW110 29/02 A2972 RMK AO2 SLP057 T02940022 10311 20278 53006,M
ELY,2023-06-11 23:53,-114.8453,39.2950,1909.00,48.00,44.00,86.28,330.00,4.00,0.04,30.04,1013.20,7.00,M,OVC,M,M,M,5000.00,M,M,M,-RA,M,M,M,M,M,M,46.10,KELY 112353Z AUTO 33004KT 7SM -RA OVC050 09/07 A3004 RMK AO2 SLP132 P0004 60026 T00890067 10189 20050 51033,M
LOL,2023-06-11 23:53,-118.5701,40.0684,1192.43,71.00,44.00,37.81,230.00,21.00,T,29.79,1006.60,9.00,27.00,BKN,M,M,M,8500.00,M,M,M,TS,M,M,M,27.00,230.00,2023-06-11 23:53,71.10,KLOL 112353Z AUTO 23021G27KT 9SM TS BKN085 22/07 A2979 RMK AO2 PK WND 23027/2353 LTG DSNT E-SW RAB19E28 TSB24E25B27E29B50E51B52 SLP066 P0000 60000 T02170067 10272 20200 55001,M
BVU,2023-06-11 23:55,-114.8611,35.9475,671.00,82.40,32.00,16.17,220.00,15.00,0.00,29.73,M,10.00,23.00,CLR,M,M,M,M,M,M,M,M,M,M,M,M,M,M,80.00,KBVU 112355Z AUTO 22015G23KT 10SM CLR 28/00 A2973 RMK AO2 LTG DSNT ALQDS,M
CXP,2023-06-11 23:55,-119.7326,39.1923,1431.00,69.80,46.40,43.13,0.00,0.00,0.00,29.88,M,10.00,13.00,BKN,BKN,OVC,M,6000.00,9000.00,11000.00,M,VCTS,M,M,M,M,M,M,69.80,KCXP 112355Z AUTO 00000G13KT 10SM VCTS BKN060 BKN090 OVC110 21/08 A2988 RMK AO2 LTG DSNT E AND S AND W,M
INS,2023-06-11 23:55,-115.6733,36.5872,955.00,78.80,21.90,11.99,100.00,9.00,0.00,29.75,1003.20,10.00,M,SCT,M,M,M,10000.00,M,M,M,M,M,M,M,M,M,M,78.80,KINS 112355Z AUTO 10009KT 10SM SCT100 26/M06 A2975 RMK AO2 SLP032 T02601056 10286 20257 53006 $,M
RTS,2023-06-11 23:55,-119.8764,39.6682,1539.00,69.80,46.40,43.13,350.00,3.00,0.00,29.89,M,10.00,10.00,CLR,M,M,M,M,M,M,M,M,M,M,M,M,M,M,69.80,KRTS 112355Z AUTO 35003G10KT 10SM CLR 21/08 A2989 RMK AO2,M
MEV,2023-06-11 23:55,-119.7500,38.9963,1441.42,62.60,51.80,67.75,190.00,11.00,0.00,29.89,M,10.00,M,BKN,BKN,M,M,6000.00,7000.00,M,M,VCTS,M,M,M,M,M,M,62.60,KMEV 112355Z AUTO 19011KT 10SM VCTS BKN060 BKN070 17/11 A2989 RMK AO2 LTG DSNT ALQDS,M
BAM,2023-06-11 23:55,-116.8743,40.5990,1382.36,64.40,42.80,45.32,110.00,19.00,0.00,29.89,M,10.00,27.00,SCT,OVC,M,M,7000.00,10000.00,M,M,M,M,M,M,M,M,M,64.40,KBAM 112355Z AUTO 11019G27KT 10SM SCT070 OVC100 18/06 A2989 RMK AO1,M
HTH,2023-06-11 23:55,-118.6315,38.5448,1282.89,68.00,42.80,40.00,160.00,31.00,0.00,29.91,M,10.00,41.00,BKN,BKN,M,M,5500.00,7500.00,M,M,M,M,M,M,M,M,M,68.00,KHTH 112355Z AUTO 16031G41KT 10SM BKN055 BKN075 20/06 A2991 RMK A01,M
TMT,2023-06-11 23:55,-117.1971,39.4643,1749.34,53.60,48.20,81.87,220.00,16.00,0.00,30.02,M,10.00,M,BKN,M,M,M,7000.00,M,M,M,-TSRA,M,M,M,M,M,M,53.60,KTMT 112355Z AUTO 22016KT 10SM -TSRA BKN070 12/09 A3002 RMK AO2 LTG DSNT ALQS 60024 T01200090 10191 20096,M
LSV,2023-06-11 23:55,-115.0343,36.2362,570.00,86.00,37.60,17.99,190.00,17.00,0.00,29.68,1002.90,10.00,M,BKN,M,M,M,15000.00,M,M,M,M,M,M,M,27.00,170.00,2023-06-11 23:11,82.74,KLSV 112355Z 19017KT 10SM BKN150 30/03 A2968 RMK AO2A PK WND 17027/11 SLP029 T03000031 10318 20274 53003 $,M
RNO,2023-06-11 23:55,-119.7711,39.4839,1341.00,76.00,44.00,32.17,20.00,6.00,0.00,29.84,1006.30,10.00,M,FEW,SCT,BKN,BKN,6000.00,7500.00,13000.00,18000.00,M,M,M,M,M,M,M,75.90,KRNO 112355Z 02006KT 10SM FEW060 SCT075 BKN130 BKN180 24/07 A2984 RMK AO2 LTG DSNT E SLP063 VIRGA CB DSNT ALQDS T02440067 10250 20172 56014,M
EKO,2023-06-11 23:56,-115.7860,40.8242,1367.00,58.00,48.00,69.52,0.00,0.00,0.01,29.94,1010.70,10.00,M,CLR,M,M,M,M,M,M,M,M,M,M,M,M,M,M,57.90,KEKO 112356Z AUTO 00000KT 10SM CLR 14/09 A2994 RMK AO2 SLP107 P0001 60010 T01440089 10244 20117 58003,M
NFL,2023-06-11 23:56,-118.7010,39.4166,1199.00,71.00,45.00,39.13,130.00,8.00,0.00,29.83,1007.80,10.00,M,CLR,M,M,M,M,M,M,M,M,M,M,M,M,M,M,71.10,KNFL 112356Z AUTO 13008KT 10SM CLR 22/07 A2983 RMK AO2 SLP078 T02170072 10244 20183 55002,M
WMC,2023-06-11 23:56,-117.8072,40.9019,1315.00,79.00,40.00,24.70,360.00,7.00,0.00,29.81,1005.50,10.00,16.00,CLR,M,M,M,M,M,M,M,M,M,M,M,M,M,M,79.00,KWMC 112356Z AUTO 36007G16KT 350V050 10SM CLR 26/04 A2981 RMK AO2 LTG DSNT E AND SE SLP055 T02610044 10272 20200 56013,M
HND,2023-06-11 23:56,-115.1344,35.9729,742.79,77.00,44.00,31.02,280.00,15.00,T,29.77,1007.20,10.00,18.00,CLR,M,M,M,M,M,M,M,M,M,M,M,M,M,M,77.00,KHND 112356Z 28015G18KT 10SM CLR 25/07 A2977 RMK AO2 TSB54E56RAE30 SLP072 P0000 60005 T02500067 10300 20228 50006,M
TPH,2023-06-11 23:56,-117.0904,38.0505,1654.00,63.00,42.00,46.34,350.00,24.00,0.00,29.92,1008.50,10.00,M,CLR,M,M,M,M,M,M,M,M,M,M,M,29.00,360.00,2023-06-11 23:49,63.00,KTPH 112356Z AUTO 35024KT 10SM CLR 17/06 A2992 RMK AO2 PK WND 36029/2349 SLP085 60000 T01720056 10233 20167 53006,M
LAS,2023-06-11 23:56,-115.1634,36.0719,663.00,80.00,38.00,22.03,260.00,11.00,T,29.73,1004.70,10.00,19.00,FEW,SCT,BKN,BKN,3500.00,10000.00,14000.00,25000.00,M,M,M,M,M,M,M,78.85,KLAS 112356Z 26011G19KT 10SM FEW035 SCT100 BKN140 BKN250 27/03 A2973 RMK AO2 RAB07E44 SLP047 SH DSNT SW-W TCU DSNT NW P0000 60000 T02670033 10300 20250 53008,M
HND,2023-06-11 23:59,-115.1344,35.9729,742.79,77.00,42.80,29.51,280.00,13.00,0.00,29.77,M,10.00,18.00,CLR,M,M,M,M,M,M,M,M,M,M,M,M,M,M,77.00,KHND 112359Z 28013G18KT 10SM CLR 25/06 A2977 RMK AO2 TSB58E59,M
