station,valid,lon,lat,elevation,tmpf,dwpf,relh,drct,sknt,p01i,alti,mslp,vsby,gust,skyc1,skyc2,skyc3,skyc4,skyl1,skyl2,skyl3,skyl4,wxcodes,ice_accretion_1hr,ice_accretion_3hr,ice_accretion_6hr,peak_wind_gust,peak_wind_drct,peak_wind_time,feel,metar,snowdepth
ELY,2025-06-02 00:04,-114.8453,39.2950,1909.00,79.00,30.00,16.67,280.00,21.00,0.00,29.99,M,10.00,33.00,BKN,M,M,M,11000.00,M,M,M,M,M,M,M,33.00,290.00,2025-06-02 00:04,79.00,KELY 020004Z AUTO 28021G33KT 10SM BKN110 26/M01 A2999 RMK AO2 PK WND 29033/0004 WSHFT 2344 T02611011 $,M
CXP,2025-06-02 00:10,-119.7326,39.1923,1431.00,86.00,28.40,12.46,260.00,11.00,0.00,29.92,M,10.00,19.00,CLR,M,M,M,M,M,M,M,M,M,M,M,M,M,M,82.54,KCXP 020010Z AUTO 26011G19KT 10SM CLR 30/M02 A2992 RMK AO2,M
TMT,2025-06-02 00:10,-117.1971,39.4643,1749.34,81.00,33.40,17.92,140.00,13.00,0.00,29.94,M,10.00,21.00,SCT,M,M,M,9000.00,M,M,M,M,M,M,M,M,M,M,79.11,KTMT 020010Z AUTO 14013G21KT 10SM SCT090 27/01 A2994 RMK AO2 T02720008,M
INS,2025-06-02 00:14,-115.6733,36.5872,955.00,95.00,32.00,10.89,200.00,11.00,0.00,29.78,1002.40,10.00,20.00,CLR,M,M,M,M,M,M,M,M,M,M,M,M,M,M,89.72,KINS 020014Z AUTO 20011G20KT 10SM CLR 35/00 A2978 RMK AO2 WSHFT 13 SLP024 $,M
BVU,2025-06-02 00:15,-114.8611,35.9475,671.00,87.80,48.20,25.58,150.00,17.00,0.00,29.80,M,10.00,M,CLR,M,M,M,M,M,M,M,M,M,M,M,M,M,M,84.88,KBVU 020015Z AUTO 15017KT 10SM CLR 31/09 A2980 RMK AO2,M
BAM,2025-06-02 00:15,-116.8743,40.5990,1382.36,86.00,41.00,20.59,360.00,8.00,0.00,29.85,M,10.00,M,CLR,M,M,M,M,M,M,M,M,M,M,M,M,M,M,82.86,KBAM 020015Z AUTO 36008KT 10SM CLR 30/05 A2985 RMK AO1,M
HTH,2025-06-02 00:15,-118.6315,38.5448,1282.89,89.60,33.80,13.84,170.00,19.00,0.00,29.82,M,10.00,26.00,CLR,M,M,M,M,M,M,M,M,M,M,M,M,M,M,85.59,KHTH 020015Z AUTO 17019G26KT 10SM CLR 32/01 A2982 RMK A01,M
INS,2025-06-02 00:18,-115.6733,36.5872,955.00,95.00,32.00,10.89,240.00,13.00,0.00,29.78,1002.40,10.00,20.00,FEW,M,M,M,12000.00,M,M,M,M,M,M,M,M,M,M,89.72,KINS 020018Z AUTO 24013G20KT 10SM FEW120 35/00 A2978 RMK AO2 WSHFT 16 SLP024 $,M
TMT,2025-06-02 00:30,-117.1971,39.4643,1749.34,78.60,33.40,19.38,160.00,14.00,0.00,29.96,M,10.00,29.00,SCT,SCT,M,M,9500.00,12000.00,M,M,M,M,M,M,M,M,M,78.60,KTMT 020030Z AUTO 16014G29KT 10SM SCT095 SCT120 26/01 A2996 RMK AO2 T02590008,M
BVU,2025-06-02 00:35,-114.8611,35.9475,671.00,86.00,48.20,27.08,150.00,15.00,0.00,29.79,M,10.00,20.00,CLR,M,M,M,M,M,M,M,M,M,M,M,M,M,M,83.41,KBVU 020035Z AUTO 15015G20KT 10SM CLR 30/09 A2979 RMK AO2,M
BAM,2025-06-02 00:35,-116.8743,40.5990,1382.36,86.00,39.20,19.19,350.00,9.00,0.00,29.85,M,10.00,M,CLR,M,M,M,M,M,M,M,M,M,M,M,M,M,M,82.79,KBAM 020035Z AUTO 35009KT 10SM CLR 30/04 A2985 RMK AO1,M
CXP,2025-06-02 00:35,-119.7326,39.1923,1431.00,86.00,28.40,12.46,240.00,11.00,0.00,29.92,M,10.00,22.00,CLR,M,M,M,M,M,M,M,M,M,M,M,M,M,M,82.54,KCXP 020035Z AUTO 24011G22KT 10SM CLR 30/M02 A2992 RMK AO2,M
RTS,2025-06-02 00:35,-119.8764,39.6682,1539.00,84.20,23.00,10.54,250.00,14.00,0.00,29.94,M,10.00,M,CLR,M,M,M,M,M,M,M,M,M,M,M,M,M,M,80.88,KRTS 020035Z AUTO 25014KT 10SM CLR 29/M05 A2994 RMK AO2,M
MEV,2025-06-02 00:35,-119.7500,38.9963,1441.42,86.00,28.40,12.46,280.00,13.00,0.00,29.89,M,10.00,20.00,CLR,M,M,M,M,M,M,M,M,M,M,M,M,M,M,82.54,KMEV 020035Z AUTO 28013G20KT 10SM CLR 30/M02 A2989 RMK AO2,M
HTH,2025-06-02 00:35,-118.6315,38.5448,1282.89,87.80,33.80,14.64,160.00,22.00,0.00,29.83,M,10.00,40.00,CLR,M,M,M,M,M,M,M,M,M,M,M,M,M,M,84.10,KHTH 020035Z AUTO 16022G40KT 10SM CLR 31/01 A2983 RMK A01,M
TMT,2025-06-02 00:50,-117.1971,39.4643,1749.34,78.00,32.40,18.99,80.00,12.00,0.00,29.96,M,10.00,22.00,SCT,SCT,BKN,M,5000.00,7000.00,11000.00,M,M,M,M,M,M,M,M,78.00,KTMT 020050Z AUTO 08012G22KT 10SM SCT050 SCT070 BKN110 26/00 A2996 RMK AO2 T02550002,M
P68,2025-06-02 00:53,-116.0056,39.6014,1993.00,79.00,33.00,18.83,340.00,9.00,0.00,29.95,1006.40,M,M,M,M,M,M,M,M,M,M,M,M,M,M,M,M,M,79.00,KP68 020053Z AUTO 34009KT 26/01 A2995 RMK AO1 SLP064 T02610006,M
DRA,2025-06-02 00:53,-116.0278,36.6206,1009.00,92.00,44.00,19.13,200.00,22.00,0.00,29.81,1003.80,10.00,32.00,CLR,M,M,M,M,M,M,M,M,M,M,M,33.00,220.00,2025-06-02 00:12,88.18,KDRA 020053Z AUTO 20022G32KT 10SM CLR 33/07 A2981 RMK AO2 PK WND 22033/0012 SLP038 T03330067 $,M
ELY,2025-06-02 00:53,-114.8453,39.2950,1909.00,76.00,32.00,19.96,250.00,10.00,0.00,30.01,1007.30,10.00,M,OVC,M,M,M,10000.00,M,M,M,M,M,M,M,35.00,260.00,2025-06-02 00:11,76.00,KELY 020053Z AUTO 25010KT 10SM OVC100 24/00 A3001 RMK AO2 PK WND 26035/0011 WSHFT 2344 SLP073 T02440000 $,M
VGT,2025-06-02 00:53,-115.1933,36.2111,667.00,92.00,44.00,19.13,200.00,17.00,0.00,29.75,1006.20,10.00,M,CLR,M,M,M,M,M,M,M,M,M,M,M,30.00,170.00,2025-06-02 00:03,88.18,KVGT 020053Z 20017KT 10SM CLR 33/07 A2975 RMK AO2 PK WND 17030/0003 SLP062 T03330067,M
LOL,2025-06-02 00:53,-118.5701,40.0684,1192.43,91.00,20.00,7.49,270.00,11.00,0.00,29.78,1004.50,10.00,M,CLR,M,M,M,M,M,M,M,M,M,M,M,27.00,280.00,2025-06-02 00:00,85.60,KLOL 020053Z AUTO 27011KT 10SM CLR 33/M07 A2978 RMK AO2 PK WND 28027/0000 SLP045 T03281067,M
BVU,2025-06-02 00:55,-114.8611,35.9475,671.00,86.00,48.20,27.08,150.00,20.00,0.00,29.80,M,10.00,M,CLR,M,M,M,M,M,M,M,M,M,M,M,M,M,M,83.41,KBVU 020055Z AUTO 15020KT 10SM CLR 30/09 A2980 RMK AO2,M
INS,2025-06-02 00:55,-115.6733,36.5872,955.00,92.50,34.50,13.00,220.00,19.00,0.00,29.77,1002.10,10.00,M,CLR,M,M,M,M,M,M,M,M,M,M,M,M,M,M,88.11,KINS 020055Z AUTO 22019KT 10SM CLR 34/01 A2977 RMK AO2 SLP021 T03360014 $,M
RNO,2025-06-02 00:55,-119.7711,39.4839,1341.00,87.00,26.00,10.93,290.00,16.00,0.00,29.87,1005.70,10.00,24.00,FEW,SCT,M,M,13000.00,17000.00,M,M,M,M,M,M,29.00,270.00,2025-06-02 00:31,83.07,KRNO 020055Z 29016G24KT 10SM FEW130 SCT170 31/M03 A2987 RMK AO2 PK WND 27029/0031 SLP057 ACSL DSNT ALQDS T03061033,M
BAM,2025-06-02 00:55,-116.8743,40.5990,1382.36,86.00,41.00,20.59,340.00,10.00,0.00,29.85,M,10.00,M,CLR,M,M,M,M,M,M,M,M,M,M,M,M,M,M,82.86,KBAM 020055Z AUTO 34010KT 10SM CLR 30/05 A2985 RMK AO1,M
CXP,2025-06-02 00:55,-119.7326,39.1923,1431.00,84.20,30.20,14.20,260.00,12.00,0.00,29.92,M,10.00,21.00,CLR,M,M,M,M,M,M,M,M,M,M,M,M,M,M,81.26,KCXP 020055Z AUTO 26012G21KT 10SM CLR 29/M01 A2992 RMK AO2,M
RTS,2025-06-02 00:55,-119.8764,39.6682,1539.00,80.60,23.00,11.84,290.00,15.00,0.00,29.94,M,10.00,21.00,CLR,M,M,M,M,M,M,M,M,M,M,M,M,M,M,78.80,KRTS 020055Z AUTO 29015G21KT 10SM CLR 27/M05 A2994 RMK AO2,M
MEV,2025-06-02 00:55,-119.7500,38.9963,1441.42,84.20,30.20,14.20,270.00,13.00,0.00,29.90,M,10.00,M,CLR,M,M,M,M,M,M,M,M,M,M,M,M,M,M,81.26,KMEV 020055Z AUTO 27013KT 10SM CLR 29/M01 A2990 RMK AO2,M
HTH,2025-06-02 00:55,-118.6315,38.5448,1282.89,87.80,37.40,16.89,180.00,24.00,0.00,29.84,M,10.00,M,CLR,M,M,M,M,M,M,M,M,M,M,M,M,M,M,84.17,KHTH 020055Z AUTO 18024KT 10SM CLR 31/03 A2984 RMK A01,M
LSV,2025-06-02 00:55,-115.0343,36.2362,570.00,93.00,41.50,16.85,170.00,16.00,0.00,29.70,1002.60,10.00,M,BKN,OVC,M,M,18000.00,22000.00,M,M,M,M,M,M,30.00,200.00,2025-06-02 00:04,88.89,KLSV 020055Z 17016KT 10SM BKN180 OVC220 34/05 A2970 RMK AO2A PK WND 20030/04 SLP026 T03380053 $,M
EKO,2025-06-02 00:56,-115.7860,40.8242,1367.00,85.00,29.00,13.18,310.00,11.00,0.00,29.88,1006.10,10.00,17.00,CLR,M,M,M,M,M,M,M,M,M,M,M,M,M,M,81.86,KEKO 020056Z AUTO 31011G17KT 10SM CLR 29/M02 A2988 RMK AO2 SLP061 T02941017,M
WMC,2025-06-02 00:56,-117.8072,40.9019,1315.00,88.00,30.00,12.48,350.00,10.00,0.00,29.82,1004.60,10.00,M,CLR,M,M,M,M,M,M,M,M,M,M,M,M,M,M,84.14,KWMC 020056Z AUTO 35010KT 10SM CLR 31/M01 A2982 RMK AO2 SLP046 T03111011 TSNO,M
HND,2025-06-02 00:56,-115.1344,35.9729,742.79,90.00,46.00,21.97,210.00,16.00,0.00,29.81,1007.70,10.00,M,CLR,M,M,M,M,M,M,M,M,M,M,M,M,M,M,86.56,KHND 020056Z 21016KT 10SM CLR 32/08 A2981 RMK AO2 SLP077 T03220078 $,M
TPH,2025-06-02 00:56,-117.0904,38.0505,1654.00,M,M,M,M,M,0.00,29.95,M,M,M,M,M,M,M,M,M,M,M,M,M,M,M,M,M,M,M,KTPH 020056Z AUTO A2995 RMK AO2 LTG DSNT E-S SLPNO PWINO $,M
LAS,2025-06-02 00:56,-115.1634,36.0719,663.00,91.00,44.00,19.74,200.00,12.00,0.00,29.78,1005.30,10.00,22.00,FEW,BKN,OVC,M,10000.00,15000.00,22000.00,M,M,M,M,M,M,M,M,87.27,KLAS 020056Z 20012G22KT 10SM FEW100 BKN150 OVC220 33/07 A2978 RMK AO2 SLP053 T03280067 $,M
NFL,2025-06-02 00:57,-118.7010,39.4166,1199.00,94.00,25.00,8.43,280.00,20.00,T,29.79,1006.60,10.00,27.00,CLR,M,M,M,M,M,M,M,-RA,M,M,M,30.00,290.00,2025-06-02 00:40,88.19,KNFL 020057Z AUTO 28020G27KT 10SM -RA CLR 34/M04 A2979 RMK AO2 PK WND 29030/0040 SLP066 P0000 T03441039,M
TMT,2025-06-02 01:10,-117.1971,39.4643,1749.34,77.50,33.00,19.78,100.00,11.00,0.00,29.96,M,10.00,18.00,SCT,M,M,M,11000.00,M,M,M,M,M,M,M,M,M,M,77.50,KTMT 020110Z AUTO 10011G18KT 10SM SCT110 25/01 A2996 RMK AO2 T02530006,M
BVU,2025-06-02 01:15,-114.8611,35.9475,671.00,84.20,48.20,28.69,150.00,17.00,0.00,29.79,M,10.00,23.00,CLR,M,M,M,M,M,M,M,M,M,M,M,M,M,M,82.04,KBVU 020115Z AUTO 15017G23KT 10SM CLR 29/09 A2979 RMK AO2,M
BAM,2025-06-02 01:15,-116.8743,40.5990,1382.36,86.00,39.20,19.19,360.00,8.00,0.00,29.85,M,10.00,M,CLR,M,M,M,M,M,M,M,M,M,M,M,M,M,M,82.79,KBAM 020115Z AUTO 36008KT 10SM CLR 30/04 A2985 RMK AO1,M
CXP,2025-06-02 01:15,-119.7326,39.1923,1431.00,82.40,30.20,15.05,280.00,15.00,0.00,29.92,M,10.00,20.00,CLR,M,M,M,M,M,M,M,M,M,M,M,M,M,M,79.97,KCXP 020115Z AUTO 28015G20KT 10SM CLR 28/M01 A2992 RMK AO2,M
RTS,2025-06-02 01:15,-119.8764,39.6682,1539.00,80.60,23.00,11.84,300.00,16.00,0.00,29.95,M,10.00,M,CLR,M,M,M,M,M,M,M,M,M,M,M,M,M,M,78.80,KRTS 020115Z AUTO 30016KT 10SM CLR 27/M05 A2995 RMK AO2,M
MEV,2025-06-02 01:15,-119.7500,38.9963,1441.42,84.20,30.20,14.20,290.00,12.00,0.00,29.90,M,10.00,M,CLR,M,M,M,M,M,M,M,M,M,M,M,M,M,M,81.26,KMEV 020115Z AUTO 29012KT 10SM CLR 29/M01 A2990 RMK AO2,M
HTH,2025-06-02 01:15,-118.6315,38.5448,1282.89,86.00,39.20,19.19,160.00,26.00,0.00,29.85,M,10.00,32.00,CLR,M,M,M,M,M,M,M,M,M,M,M,M,M,M,82.79,KHTH 020115Z AUTO 16026G32KT 10SM CLR 30/04 A2985 RMK A01,M
TPH,2025-06-02 01:26,-117.0904,38.0505,1654.00,M,M,M,M,M,0.00,29.99,M,M,M,M,M,M,M,M,M,M,M,VCTS,M,M,M,M,M,M,M,KTPH 020126Z AUTO VCTS A2999 RMK AO2 LTG DSNT E-S PRESRR PWINO $,M
HTH,2025-06-02 01:30,-118.6315,38.5448,1282.89,84.20,37.40,18.94,150.00,25.00,0.00,29.85,M,10.00,34.00,CLR,M,M,M,M,M,M,M,M,M,M,M,M,M,M,81.38,KHTH 020130Z AUTO 15025G34KT 10SM CLR 29/03 A2985 RMK A01,M
TMT,2025-06-02 01:30,-117.1971,39.4643,1749.34,76.00,35.80,23.24,110.00,13.00,0.00,29.97,M,10.00,18.00,SCT,M,M,M,12000.00,M,M,M,M,M,M,M,M,M,M,76.00,KTMT 020130Z AUTO 11013G18KT 10SM SCT120 25/02 A2997 RMK AO2 T02450021,M
BVU,2025-06-02 01:35,-114.8611,35.9475,671.00,84.20,50.00,30.68,150.00,20.00,0.00,29.80,M,10.00,M,CLR,M,M,M,M,M,M,M,M,M,M,M,M,M,M,82.24,KBVU 020135Z AUTO 15020KT 10SM CLR 29/10 A2980 RMK AO2,M
BAM,2025-06-02 01:35,-116.8743,40.5990,1382.36,84.20,39.20,20.33,360.00,6.00,0.00,29.85,M,10.00,M,CLR,M,M,M,M,M,M,M,M,M,M,M,M,M,M,81.44,KBAM 020135Z AUTO 36006KT 10SM CLR 29/04 A2985 RMK AO1,M
CXP,2025-06-02 01:35,-119.7326,39.1923,1431.00,82.40,32.00,16.19,280.00,12.00,0.00,29.92,M,10.00,M,CLR,M,M,M,M,M,M,M,M,M,M,M,M,M,M,80.00,KCXP 020135Z AUTO 28012KT 10SM CLR 28/M00 A2992 RMK AO2,M
RTS,2025-06-02 01:35,-119.8764,39.6682,1539.00,78.80,23.00,12.56,300.00,14.00,0.00,29.95,M,10.00,21.00,CLR,M,M,M,M,M,M,M,M,M,M,M,M,M,M,78.80,KRTS 020135Z AUTO 30014G21KT 10SM CLR 26/M05 A2995 RMK AO2,M
MEV,2025-06-02 01:35,-119.7500,38.9963,1441.42,82.40,30.20,15.05,270.00,11.00,0.00,29.91,M,10.00,M,CLR,M,M,M,M,M,M,M,M,M,M,M,M,M,M,79.97,KMEV 020135Z AUTO 27011KT 10SM CLR 28/M01 A2991 RMK AO2,M
TPH,2025-06-02 01:49,-117.0904,38.0505,1654.00,M,M,M,M,M,0.00,30.02,M,M,M,M,M,M,M,M,M,M,M,M,M,M,M,M,M,M,M,KTPH 020149Z AUTO A3002 RMK AO2 LTG DSNT S PRESRR PWINO $,M
TMT,2025-06-02 01:50,-117.1971,39.4643,1749.34,74.30,37.80,26.62,140.00,12.00,0.00,29.97,M,10.00,16.00,SCT,M,M,M,11000.00,M,M,M,M,M,M,M,M,M,M,74.30,KTMT 020150Z AUTO 14012G16KT 10SM SCT110 24/03 A2997 RMK AO2 T02350032,M
P68,2025-06-02 01:53,-116.0056,39.6014,1993.00,78.00,31.00,17.95,210.00,4.00,0.00,29.94,1004.90,M,M,M,M,M,M,M,M,M,M,M,M,M,M,M,M,M,78.00,KP68 020153Z AUTO 21004KT 26/M01 A2994 RMK AO1 SLP049 T02561006,M
DRA,2025-06-02 01:53,-116.0278,36.6206,1009.00,88.00,44.00,21.68,200.00,16.00,0.00,29.81,1004.10,10.00,29.00,CLR,M,M,M,M,M,M,M,M,M,M,M,34.00,210.00,2025-06-02 01:04,84.65,KDRA 020153Z AUTO 20016G29KT 10SM CLR 31/07 A2981 RMK AO2 PK WND 21034/0104 SLP041 T03110067 $,M
ELY,2025-06-02 01:53,-114.8453,39.2950,1909.00,70.00,39.00,32.26,150.00,20.00,T,30.03,1007.90,10.00,30.00,FEW,FEW,M,M,3900.00,7000.00,M,M,M,M,M,M,30.00,160.00,2025-06-02 01:43,70.00,KELY 020153Z AUTO 15020G30KT 10SM FEW039 FEW070 21/04 A3003 RMK AO2 PK WND 16030/0143 RAB31E44 SLP079 P0000 T02110039 $,M
VGT,2025-06-02 01:53,-115.1933,36.2111,667.00,91.00,45.00,20.50,180.00,17.00,0.00,29.77,1006.90,10.00,23.00,CLR,M,M,M,M,M,M,M,M,M,M,M,M,M,M,87.36,KVGT 020153Z 18017G23KT 10SM CLR 33/07 A2977 RMK AO2 SLP069 T03280072,M
LOL,2025-06-02 01:53,-118.5701,40.0684,1192.43,89.00,18.00,7.32,280.00,12.00,0.00,29.79,1004.40,10.00,M,CLR,M,M,M,M,M,M,M,M,M,M,M,M,M,M,84.03,KLOL 020153Z AUTO 28012KT 10SM CLR 32/M08 A2979 RMK AO2 SLP044 T03171078,M
BVU,2025-06-02 01:55,-114.8611,35.9475,671.00,84.20,50.00,30.68,160.00,21.00,0.00,29.82,M,10.00,M,CLR,M,M,M,M,M,M,M,M,M,M,M,M,M,M,82.24,KBVU 020155Z AUTO 16021KT 10SM CLR 29/10 A2982 RMK AO2,M
RNO,2025-06-02 01:55,-119.7711,39.4839,1341.00,84.00,29.00,13.61,280.00,15.00,0.00,29.89,1006.60,10.00,24.00,FEW,FEW,SCT,M,5000.00,13000.00,18000.00,M,M,M,M,M,33.00,290.00,2025-06-02 01:20,81.11,KRNO 020155Z 28015G24KT 10SM FEW050 FEW130 SCT180 29/M02 A2989 RMK AO2 PK WND 29033/0120 SLP066 ACSL DSNT ALQDS T02891017,M
BAM,2025-06-02 01:55,-116.8743,40.5990,1382.36,82.40,39.20,21.54,350.00,5.00,0.00,29.85,M,10.00,M,CLR,M,M,M,M,M,M,M,M,M,M,M,M,M,M,80.21,KBAM 020155Z AUTO 35005KT 10SM CLR 28/04 A2985 RMK AO1,M
CXP,2025-06-02 01:55,-119.7326,39.1923,1431.00,82.40,32.00,16.19,300.00,13.00,0.00,29.92,M,10.00,20.00,CLR,M,M,M,M,M,M,M,M,M,M,M,M,M,M,80.00,KCXP 020155Z AUTO 30013G20KT 10SM CLR 28/M00 A2992 RMK AO2,M
RTS,2025-06-02 01:55,-119.8764,39.6682,1539.00,77.00,23.00,13.33,290.00,9.00,0.00,29.97,M,10.00,16.00,CLR,M,M,M,M,M,M,M,M,M,M,M,M,M,M,77.00,KRTS 020155Z AUTO 29009G16KT 10SM CLR 25/M05 A2997 RMK AO2,M
MEV,2025-06-02 01:55,-119.7500,38.9963,1441.42,80.60,32.00,17.16,280.00,12.00,0.00,29.91,M,10.00,M,CLR,M,M,M,M,M,M,M,M,M,M,M,M,M,M,78.82,KMEV 020155Z AUTO 28012KT 10SM CLR 27/M00 A2991 RMK AO2,M
HTH,2025-06-02 01:55,-118.6315,38.5448,1282.89,84.20,37.40,18.94,150.00,16.00,0.00,29.86,M,10.00,26.00,CLR,M,M,M,M,M,M,M,M,M,M,M,M,M,M,81.38,KHTH 020155Z AUTO 15016G26KT 10SM CLR 29/03 A2986 RMK A01,M
LSV,2025-06-02 01:55,-115.0343,36.2362,570.00,89.60,45.70,22.00,150.00,17.00,0.00,29.73,1003.70,10.00,M,OVC,M,M,M,22000.00,M,M,M,M,M,M,M,26.00,190.00,2025-06-02 01:27,86.17,KLSV 020155Z 15017KT 10SM BKNB150 OVC220 32/08 A2973 RMK AO2A PK WND 19026/27 SLP037 T03200076 $,M
EKO,2025-06-02 01:56,-115.7860,40.8242,1367.00,79.00,36.00,21.22,170.00,15.00,0.00,29.89,1006.50,10.00,24.00,CLR,M,M,M,M,M,M,M,M,M,M,M,M,M,M,79.00,KEKO 020156Z AUTO 17015G24KT 10SM CLR 26/02 A2989 RMK AO2 SLP065 T02610022,M
WMC,2025-06-02 01:56,-117.8072,40.9019,1315.00,82.00,39.00,21.65,350.00,25.00,0.00,29.85,1005.60,10.00,32.00,CLR,M,M,M,M,M,M,M,M,M,M,M,34.00,330.00,2025-06-02 01:39,79.94,KWMC 020156Z AUTO 35025G32KT 10SM CLR 28/04 A2985 RMK AO2 PK WND 33034/0139 SLP056 T02780039 TSNO,M
HND,2025-06-02 01:56,-115.1344,35.9729,742.79,88.00,47.00,24.30,170.00,14.00,0.00,29.83,1008.60,10.00,M,CLR,M,M,M,M,M,M,M,M,M,M,M,M,M,M,84.92,KHND 020156Z 17014KT 10SM CLR 31/08 A2983 RMK AO2 SLP086 T03110083 $,M
TPH,2025-06-02 01:56,-117.0904,38.0505,1654.00,M,M,M,M,M,0.00,30.02,M,M,M,M,M,M,M,M,M,M,M,M,M,M,M,M,M,M,M,KTPH 020156Z AUTO A3002 RMK AO2 LTG DSNT S SLPNO PWINO $,M
LAS,2025-06-02 01:56,-115.1634,36.0719,663.00,90.00,45.00,21.15,200.00,10.00,0.00,29.79,1005.90,10.00,20.00,FEW,BKN,OVC,M,10000.00,15000.00,22000.00,M,M,M,M,M,M,M,M,86.46,KLAS 020156Z 20010G20KT 10SM FEW100 BKN150 OVC220 32/07 A2979 RMK AO2 SLP059 T03220072 $,M
NFL,2025-06-02 01:57,-118.7010,39.4166,1199.00,92.00,28.00,10.15,270.00,17.00,T,29.80,1007.00,10.00,24.00,CLR,M,M,M,M,M,M,M,-RA,M,M,M,28.00,280.00,2025-06-02 00:58,86.95,KNFL 020157Z AUTO 27017G24KT 10SM -RA CLR 33/M02 A2980 RMK AO2 PK WND 28028/0058 SLP070 P0000 T03331022,M
RTS,2025-06-02 02:05,-119.8764,39.6682,1539.00,77.00,21.20,12.35,270.00,8.00,0.00,29.97,M,10.00,M,CLR,M,M,M,M,M,M,M,M,M,M,M,M,M,M,77.00,KRTS 020205Z AUTO 27008KT 10SM CLR 25/M06 A2997 RMK AO2,M
MEV,2025-06-02 02:05,-119.7500,38.9963,1441.42,80.60,32.00,17.16,270.00,11.00,0.00,29.91,M,10.00,M,CLR,M,M,M,M,M,M,M,M,M,M,M,M,M,M,78.82,KMEV 020205Z AUTO 27011KT 10SM CLR 27/M00 A2991 RMK AO2,M
TMT,2025-06-02 02:10,-117.1971,39.4643,1749.34,74.30,37.20,26.00,140.00,6.00,0.00,29.97,M,10.00,M,SCT,M,M,M,11000.00,M,M,M,M,M,M,M,M,M,M,74.30,KTMT 020210Z AUTO 14006KT 10SM SCT110 24/03 A2997 RMK AO2 T02350029,M
BVU,2025-06-02 02:15,-114.8611,35.9475,671.00,84.20,50.00,30.68,160.00,19.00,0.00,29.82,M,10.00,25.00,CLR,M,M,M,M,M,M,M,M,M,M,M,M,M,M,82.24,KBVU 020215Z AUTO 16019G25KT 10SM CLR 29/10 A2982 RMK AO2,M
BAM,2025-06-02 02:15,-116.8743,40.5990,1382.36,82.40,39.20,21.54,340.00,7.00,0.00,29.86,M,10.00,M,CLR,M,M,M,M,M,M,M,M,M,M,M,M,M,M,80.21,KBAM 020215Z AUTO 34007KT 10SM CLR 28/04 A2986 RMK AO1,M
CXP,2025-06-02 02:15,-119.7326,39.1923,1431.00,80.60,32.00,17.16,280.00,10.00,0.00,29.92,M,10.00,15.00,CLR,M,M,M,M,M,M,M,M,M,M,M,M,M,M,78.82,KCXP 020215Z AUTO 28010G15KT 10SM CLR 27/M00 A2992 RMK AO2,M
HTH,2025-06-02 02:15,-118.6315,38.5448,1282.89,86.00,33.80,15.50,140.00,16.00,0.00,29.85,M,10.00,21.00,CLR,M,M,M,M,M,M,M,M,M,M,M,M,M,M,82.66,KHTH 020215Z AUTO 14016G21KT 10SM CLR 30/01 A2985 RMK A01,M
TMT,2025-06-02 02:30,-117.1971,39.4643,1749.34,73.80,36.50,25.71,140.00,6.00,0.00,29.97,M,10.00,M,SCT,M,M,M,11000.00,M,M,M,M,M,M,M,M,M,M,73.80,KTMT 020230Z AUTO 14006KT 10SM SCT110 23/03 A2997 RMK AO2 T02320025,M
BVU,2025-06-02 02:35,-114.8611,35.9475,671.00,84.20,50.00,30.68,150.00,19.00,0.00,29.83,M,10.00,25.00,CLR,M,M,M,M,M,M,M,M,M,M,M,M,M,M,82.24,KBVU 020235Z AUTO 15019G25KT 10SM CLR 29/10 A2983 RMK AO2,M
BAM,2025-06-02 02:35,-116.8743,40.5990,1382.36,82.40,41.00,23.10,340.00,8.00,0.00,29.86,M,10.00,M,CLR,M,M,M,M,M,M,M,M,M,M,M,M,M,M,80.29,KBAM 020235Z AUTO 34008KT 10SM CLR 28/05 A2986 RMK AO1,M
CXP,2025-06-02 02:35,-119.7326,39.1923,1431.00,78.80,32.00,18.20,290.00,11.00,0.00,29.93,M,10.00,16.00,CLR,M,M,M,M,M,M,M,M,M,M,M,M,M,M,78.80,KCXP 020235Z AUTO 29011G16KT 10SM CLR 26/M00 A2993 RMK AO2,M
RTS,2025-06-02 02:35,-119.8764,39.6682,1539.00,77.00,21.20,12.35,290.00,9.00,0.00,29.98,M,10.00,M,CLR,M,M,M,M,M,M,M,M,M,M,M,M,M,M,77.00,KRTS 020235Z AUTO 29009KT 10SM CLR 25/M06 A2998 RMK AO2,M
MEV,2025-06-02 02:35,-119.7500,38.9963,1441.42,78.80,32.00,18.20,250.00,6.00,0.00,29.92,M,10.00,M,CLR,M,M,M,M,M,M,M,M,M,M,M,M,M,M,78.80,KMEV 020235Z AUTO 25006KT 10SM CLR 26/M00 A2992 RMK AO2,M
HTH,2025-06-02 02:35,-118.6315,38.5448,1282.89,86.00,33.80,15.50,160.00,19.00,0.00,29.86,M,10.00,M,CLR,M,M,M,M,M,M,M,M,M,M,M,M,M,M,82.66,KHTH 020235Z AUTO 16019KT 10SM CLR 30/01 A2986 RMK A01,M
RTS,2025-06-02 02:45,-119.8764,39.6682,1539.00,75.20,21.20,13.11,300.00,14.00,0.00,29.97,M,10.00,M,CLR,M,M,M,M,M,M,M,M,M,M,M,M,M,M,75.20,KRTS 020245Z AUTO 30014KT 10SM CLR 24/M06 A2997 RMK AO2,M
TMT,2025-06-02 02:50,-117.1971,39.4643,1749.34,72.00,36.00,26.78,180.00,5.00,0.00,29.97,M,10.00,M,SCT,M,M,M,12000.00,M,M,M,M,M,M,M,M,M,M,72.00,KTMT 020250Z AUTO 18005KT 10SM SCT120 22/02 A2997 RMK AO2 T02220023,M
P68,2025-06-02 02:53,-116.0056,39.6014,1993.00,72.00,38.00,28.98,200.00,18.00,0.00,29.98,1005.80,M,27.00,M,M,M,M,M,M,M,M,M,M,M,M,27.00,190.00,2025-06-02 02:49,72.00,KP68 020253Z AUTO 20018G27KT 22/03 A2998 RMK AO1 PK WND 19027/0249 WSHFT 0238 SLP058 T02220033 53005,M
DRA,2025-06-02 02:53,-116.0278,36.6206,1009.00,85.00,42.00,22.09,210.00,17.00,0.00,29.83,1004.80,10.00,25.00,CLR,M,M,M,M,M,M,M,M,M,M,M,30.00,200.00,2025-06-02 02:32,82.15,KDRA 020253Z AUTO 21017G25KT 10SM CLR 29/06 A2983 RMK AO2 PK WND 20030/0232 SLP048 T02940056 53007 $,M
ELY,2025-06-02 02:53,-114.8453,39.2950,1909.00,65.00,43.00,44.74,180.00,16.00,0.00,30.06,1007.90,10.00,26.00,CLR,M,M,M,M,M,M,M,M,M,M,M,31.00,160.00,2025-06-02 02:01,65.00,KELY 020253Z AUTO 18016G26KT 10SM CLR 18/06 A3006 RMK AO2 PK WND 16031/0201 SLP079 60000 T01830061 51021 $,M
VGT,2025-06-02 02:53,-115.1933,36.2111,667.00,88.00,47.00,24.30,150.00,18.00,0.00,29.80,1007.90,10.00,25.00,CLR,M,M,M,M,M,M,M,M,M,M,M,M,M,M,84.92,KVGT 020253Z 15018G25KT 10SM CLR 31/08 A2980 RMK AO2 SLP079 T03110083 53011,M
LOL,2025-06-02 02:53,-118.5701,40.0684,1192.43,87.00,24.00,10.06,320.00,19.00,0.00,29.81,1004.50,10.00,27.00,CLR,M,M,M,M,M,M,M,M,M,M,M,27.00,290.00,2025-06-02 02:51,82.92,KLOL 020253Z AUTO 32019G27KT 10SM CLR 31/M04 A2981 RMK AO2 PK WND 29027/0251 SLP045 T03061044 53009,M
BVU,2025-06-02 02:55,-114.8611,35.9475,671.00,82.40,50.00,32.51,150.00,19.00,0.00,29.82,M,10.00,25.00,CLR,M,M,M,M,M,M,M,M,M,M,M,M,M,M,80.99,KBVU 020255Z AUTO 15019G25KT 10SM CLR 28/10 A2982 RMK AO2,M
INS,2025-06-02 02:55,-115.6733,36.5872,955.00,87.30,38.50,17.92,0.00,0.00,0.00,29.81,1003.50,10.00,M,CLR,M,M,M,M,M,M,M,M,M,M,M,M,M,M,83.79,KINS 020255Z AUTO 00000KT 10SM CLR 31/04 A2981 RMK AO2 SLP035 T03070036 53015 $,M
RNO,2025-06-02 02:55,-119.7711,39.4839,1341.00,79.00,25.00,13.57,270.00,16.00,0.00,29.92,1007.50,10.00,23.00,FEW,SCT,SCT,M,14000.00,18000.00,21000.00,M,M,M,M,M,34.00,290.00,2025-06-02 02:15,79.00,KRNO 020255Z 27016G23KT 10SM FEW140 SCT180 SCT210 26/M04 A2992 RMK AO2 PK WND 29034/0215 SLP075 ACSL DSNT ALQDS T02611039 53015,M
LSV,2025-06-02 02:55,-115.0343,36.2362,570.00,87.00,47.00,25.08,150.00,17.00,0.00,29.76,1004.70,10.00,23.00,BKN,OVC,M,M,15000.00,22000.00,M,M,M,M,M,M,30.00,190.00,2025-06-02 02:27,84.08,KLSV 020255Z 15017G23KT 10SM BKN150 OVC220 31/08 A2976 RMK AO2A PK WND 19030/27 SLP047 T03060083 53017 $,M
BAM,2025-06-02 02:55,-116.8743,40.5990,1382.36,78.80,42.80,27.85,60.00,10.00,0.00,29.88,M,7.00,17.00,CLR,M,M,M,M,M,M,M,M,M,M,M,M,M,M,78.80,KBAM 020255Z AUTO 06010G17KT 020V080 7SM CLR 26/06 A2988 RMK AO1,M
CXP,2025-06-02 02:55,-119.7326,39.1923,1431.00,77.00,32.00,19.31,310.00,10.00,0.00,29.94,M,10.00,16.00,CLR,M,M,M,M,M,M,M,M,M,M,M,M,M,M,77.00,KCXP 020255Z AUTO 31010G16KT 10SM CLR 25/00 A2994 RMK AO2,M
MEV,2025-06-02 02:55,-119.7500,38.9963,1441.42,75.20,32.00,20.50,250.00,4.00,0.00,29.92,M,10.00,M,CLR,M,M,M,M,M,M,M,M,M,M,M,M,M,M,75.20,KMEV 020255Z AUTO 25004KT 10SM CLR 24/M00 A2992 RMK AO2,M
HTH,2025-06-02 02:55,-118.6315,38.5448,1282.89,84.20,37.40,18.94,160.00,17.00,0.00,29.86,M,10.00,M,CLR,M,M,M,M,M,M,M,M,M,M,M,M,M,M,81.38,KHTH 020255Z AUTO 16017KT 10SM CLR 29/03 A2986 RMK A01,M
EKO,2025-06-02 02:56,-115.7860,40.8242,1367.00,75.00,36.00,24.22,300.00,6.00,0.00,29.90,1006.60,10.00,M,CLR,M,M,M,M,M,M,M,M,M,M,M,M,M,M,75.00,KEKO 020256Z AUTO 30006KT 10SM CLR 24/02 A2990 RMK AO2 SLP066 T02390022 52011,M
WMC,2025-06-02 02:56,-117.8072,40.9019,1315.00,77.00,37.00,23.58,360.00,17.00,0.00,29.90,1007.50,10.00,26.00,CLR,M,M,M,M,M,M,M,M,M,M,M,35.00,360.00,2025-06-02 02:02,77.00,KWMC 020256Z AUTO 36017G26KT 10SM CLR 25/03 A2990 RMK AO2 PK WND 36035/0202 SLP075 T02500028 53017 TSNO,M
HND,2025-06-02 02:56,-115.1344,35.9729,742.79,85.00,49.00,28.81,170.00,15.00,0.00,29.85,1009.40,10.00,23.00,CLR,M,M,M,M,M,M,M,M,M,M,M,M,M,M,82.72,KHND 020256Z 17015G23KT 10SM CLR 29/09 A2985 RMK AO2 SLP094 T02940094 53010 $,M
TPH,2025-06-02 02:56,-117.0904,38.0505,1654.00,M,M,M,M,M,0.00,30.03,M,M,M,M,M,M,M,M,M,M,M,M,M,M,M,M,M,M,M,KTPH 020256Z AUTO A3003 RMK AO2 SLPNO 51032 PWINO $,M
LAS,2025-06-02 02:56,-115.1634,36.0719,663.00,87.00,47.00,25.08,180.00,14.00,0.00,29.82,1007.00,10.00,22.00,FEW,BKN,OVC,M,9000.00,15000.00,22000.00,M,M,M,M,M,M,M,M,84.08,KLAS 020256Z 18014G22KT 10SM FEW090 BKN150 OVC220 31/08 A2982 RMK AO2 SLP070 T03060083 53011 $,M
P68,2025-06-02 02:57,-116.0056,39.6014,1993.00,72.00,38.00,28.98,180.00,23.00,0.00,29.97,M,M,32.00,M,M,M,M,M,M,M,M,M,M,M,M,32.00,180.00,2025-06-02 02:56,72.00,KP68 020257Z AUTO 18023G32KT 22/03 A2997 RMK AO1 PK WND 18032/0256 WSHFT 0240 T02220033,M
NFL,2025-06-02 02:57,-118.7010,39.4166,1199.00,87.00,29.00,12.37,280.00,13.00,T,29.83,1007.80,10.00,M,CLR,M,M,M,M,M,M,M,-RA,M,M,M,M,M,M,83.31,KNFL 020257Z AUTO 28013KT 10SM -RA CLR 31/M02 A2983 RMK AO2 SLP078 P0000 60000 T03061017 53014,M
TMT,2025-06-02 03:10,-117.1971,39.4643,1749.34,73.40,34.00,23.60,200.00,8.00,0.00,29.97,M,10.00,M,CLR,M,M,M,M,M,M,M,M,M,M,M,M,M,M,73.40,KTMT 020310Z AUTO 20008KT 10SM CLR 23/01 A2997 RMK AO2 T02300012,M
BVU,2025-06-02 03:15,-114.8611,35.9475,671.00,82.40,50.00,32.51,150.00,18.00,0.00,29.84,M,10.00,M,CLR,M,M,M,M,M,M,M,M,M,M,M,M,M,M,80.99,KBVU 020315Z AUTO 15018KT 10SM CLR 28/10 A2984 RMK AO2,M
BAM,2025-06-02 03:15,-116.8743,40.5990,1382.36,78.80,41.00,25.98,70.00,11.00,0.00,29.89,M,10.00,14.00,CLR,M,M,M,M,M,M,M,M,M,M,M,M,M,M,78.80,KBAM 020315Z AUTO 07011G14KT 10SM CLR 26/05 A2989 RMK AO1,M
CXP,2025-06-02 03:15,-119.7326,39.1923,1431.00,75.20,32.00,20.50,310.00,11.00,0.00,29.94,M,10.00,16.00,CLR,M,M,M,M,M,M,M,M,M,M,M,M,M,M,75.20,KCXP 020315Z AUTO 31011G16KT 10SM CLR 24/M00 A2994 RMK AO2,M
MEV,2025-06-02 03:15,-119.7500,38.9963,1441.42,73.40,32.00,21.77,250.00,5.00,0.00,29.93,M,10.00,M,CLR,M,M,M,M,M,M,M,M,M,M,M,M,M,M,73.40,KMEV 020315Z AUTO 25005KT 10SM CLR 23/00 A2993 RMK AO2,M
HTH,2025-06-02 03:15,-118.6315,38.5448,1282.89,84.20,35.60,17.64,180.00,16.00,0.00,29.86,M,10.00,M,CLR,M,M,M,M,M,M,M,M,M,M,M,M,M,M,81.34,KHTH 020315Z AUTO 18016KT 10SM CLR 29/02 A2986 RMK A01,M
MEV,2025-06-02 03:25,-119.7500,38.9963,1441.42,69.80,33.80,26.44,210.00,6.00,0.00,29.93,M,10.00,M,CLR,M,M,M,M,M,M,M,M,M,M,M,M,M,M,69.80,KMEV 020325Z AUTO 21006KT 10SM CLR 21/01 A2993 RMK AO2,M
TMT,2025-06-02 03:30,-117.1971,39.4643,1749.34,73.20,35.40,25.12,240.00,5.00,0.00,29.97,M,10.00,M,CLR,M,M,M,M,M,M,M,M,M,M,M,M,M,M,73.20,KTMT 020330Z AUTO 24005KT 10SM CLR 23/02 A2997 RMK AO2 T02290019,M
BVU,2025-06-02 03:35,-114.8611,35.9475,671.00,82.40,50.00,32.51,170.00,12.00,0.00,29.85,M,10.00,19.00,FEW,SCT,BKN,M,6000.00,6500.00,11000.00,M,M,M,M,M,M,M,M,80.99,KBVU 020335Z AUTO 17012G19KT 10SM FEW060 SCT065 BKN110 28/10 A2985 RMK AO2,M
BAM,2025-06-02 03:35,-116.8743,40.5990,1382.36,78.80,41.00,25.98,60.00,14.00,0.00,29.89,M,10.00,17.00,CLR,M,M,M,M,M,M,M,M,M,M,M,M,M,M,78.80,KBAM 020335Z AUTO 06014G17KT 10SM CLR 26/05 A2989 RMK AO1,M
CXP,2025-06-02 03:35,-119.7326,39.1923,1431.00,75.20,30.20,19.06,310.00,11.00,0.00,29.95,M,10.00,M,CLR,M,M,M,M,M,M,M,M,M,M,M,M,M,M,75.20,KCXP 020335Z AUTO 31011KT 10SM CLR 24/M01 A2995 RMK AO2,M
HTH,2025-06-02 03:35,-118.6315,38.5448,1282.89,82.40,35.60,18.70,150.00,5.00,0.00,29.87,M,10.00,16.00,CLR,M,M,M,M,M,M,M,M,M,M,M,M,M,M,80.08,KHTH 020335Z AUTO 15005G16KT 10SM CLR 28/02 A2987 RMK A01,M
HTH,2025-06-02 03:45,-118.6315,38.5448,1282.89,82.40,35.60,18.70,240.00,6.00,0.00,29.88,M,10.00,M,CLR,M,M,M,M,M,M,M,M,M,M,M,M,M,M,80.08,KHTH 020345Z AUTO 24006KT 10SM CLR 28/02 A2988 RMK A01,M
TMT,2025-06-02 03:50,-117.1971,39.4643,1749.34,73.40,35.00,24.56,240.00,7.00,0.00,29.99,M,10.00,M,SCT,M,M,M,11000.00,M,M,M,M,M,M,M,M,M,M,73.40,KTMT 020350Z AUTO 24007KT 210V280 10SM SCT110 23/02 A2999 RMK AO2 T02300017,M
P68,2025-06-02 03:53,-116.0056,39.6014,1993.00,71.00,37.00,28.82,170.00,20.00,0.00,30.00,1006.30,M,26.00,M,M,M,M,M,M,M,M,M,M,M,M,34.00,180.00,2025-06-02 03:00,71.00,KP68 020353Z AUTO 17020G26KT 22/03 A3000 RMK AO1 PK WND 18034/0300 WSHFT 0240 SLP063 T02170028,M
DRA,2025-06-02 03:53,-116.0278,36.6206,1009.00,84.00,43.00,23.70,190.00,17.00,0.00,29.85,1005.20,10.00,24.00,CLR,M,M,M,M,M,M,M,M,M,M,M,28.00,220.00,2025-06-02 03:06,81.48,KDRA 020353Z AUTO 19017G24KT 10SM CLR 29/06 A2985 RMK AO2 PK WND 22028/0306 SLP052 T02890061 $,M
ELY,2025-06-02 03:53,-114.8453,39.2950,1909.00,66.00,41.00,40.01,200.00,13.00,0.00,30.07,1007.60,10.00,M,SCT,OVC,M,M,7500.00,10000.00,M,M,M,M,M,M,M,M,M,66.00,KELY 020353Z AUTO 20013KT 10SM SCT075 OVC100 19/05 A3007 RMK AO2 SLP076 T01890050 $,M
VGT,2025-06-02 03:53,-115.1933,36.2111,667.00,86.00,49.00,27.91,150.00,13.00,0.00,29.83,1009.00,10.00,M,CLR,M,M,M,M,M,M,M,M,M,M,M,M,M,M,83.50,KVGT 020353Z 15013KT 10SM CLR 30/09 A2983 RMK AO2 SLP090 T03000094,M
LOL,2025-06-02 03:53,-118.5701,40.0684,1192.43,79.00,32.00,18.08,360.00,18.00,0.00,29.87,1006.90,10.00,27.00,CLR,M,M,M,M,M,M,M,M,M,M,M,35.00,350.00,2025-06-02 03:20,79.00,KLOL 020353Z AUTO 36018G27KT 10SM CLR 26/00 A2987 RMK AO2 PK WND 35035/0320 SLP069 T02610000,M
BVU,2025-06-02 03:55,-114.8611,35.9475,671.00,82.40,50.00,32.51,170.00,18.00,0.00,29.86,M,10.00,M,BKN,BKN,OVC,M,6000.00,7500.00,12000.00,M,M,M,M,M,M,M,M,80.99,KBVU 020355Z AUTO 17018KT 10SM BKN060 BKN075 OVC120 28/10 A2986 RMK AO2,M
INS,2025-06-02 03:55,-115.6733,36.5872,955.00,82.60,44.20,25.96,120.00,17.00,0.00,29.83,1004.40,10.00,25.00,BKN,M,M,M,16000.00,M,M,M,M,M,M,M,36.00,100.00,2025-06-02 03:31,80.61,KINS 020355Z AUTO 12017G25KT 10SM BKN160 28/07 A2983 RMK AO2 PK WND 10036/31 SLP044 T02810068 $,M
RNO,2025-06-02 03:55,-119.7711,39.4839,1341.00,77.00,21.00,12.25,290.00,10.00,0.00,29.95,1008.30,10.00,19.00,FEW,SCT,SCT,M,14000.00,18000.00,21000.00,M,M,M,M,M,27.00,280.00,2025-06-02 03:32,77.00,KRNO 020355Z 29010G19KT 10SM FEW140 SCT180 SCT210 25/M06 A2995 RMK AO2 PK WND 28027/0332 SLP083 ACSL DSNT ALQDS T02501061,M
BAM,2025-06-02 03:55,-116.8743,40.5990,1382.36,78.80,41.00,25.98,60.00,15.00,0.00,29.90,M,10.00,20.00,CLR,M,M,M,M,M,M,M,M,M,M,M,M,M,M,78.80,KBAM 020355Z AUTO 06015G20KT 10SM CLR 26/05 A2990 RMK AO1,M
CXP,2025-06-02 03:55,-119.7326,39.1923,1431.00,75.20,30.20,19.06,0.00,0.00,0.00,29.97,M,10.00,M,CLR,M,M,M,M,M,M,M,M,M,M,M,M,M,M,75.20,KCXP 020355Z AUTO 00000KT 10SM CLR 24/M01 A2997 RMK AO2,M
MEV,2025-06-02 03:55,-119.7500,38.9963,1441.42,68.00,35.60,30.21,50.00,6.00,0.00,29.95,M,10.00,M,CLR,M,M,M,M,M,M,M,M,M,M,M,M,M,M,68.00,KMEV 020355Z AUTO 05006KT 10SM CLR 20/02 A2995 RMK AO2,M
LSV,2025-06-02 03:55,-115.0343,36.2362,570.00,86.00,47.30,26.18,160.00,18.00,0.00,29.80,1006.10,10.00,M,BKN,OVC,M,M,15000.00,22000.00,M,M,M,M,M,M,31.00,190.00,2025-06-02 03:42,83.31,KLSV 020355Z 16018KT 10SM BKN150 OVC220 30/09 A2980 RMK AO2A PK WND 19031/42 SLP061 T03010085 $,M
EKO,2025-06-02 03:56,-115.7860,40.8242,1367.00,73.00,38.00,28.02,10.00,5.00,0.00,29.94,1007.50,10.00,19.00,CLR,M,M,M,M,M,M,M,M,M,M,M,M,M,M,73.00,KEKO 020356Z AUTO 01005G19KT 10SM CLR 23/03 A2994 RMK AO2 SLP075 T02280033,M
WMC,2025-06-02 03:56,-117.8072,40.9019,1315.00,73.00,35.00,24.89,350.00,12.00,0.00,29.94,1009.00,10.00,23.00,CLR,M,M,M,M,M,M,M,M,M,M,M,M,M,M,73.00,KWMC 020356Z AUTO 35012G23KT 10SM CLR 23/02 A2994 RMK AO2 SLP090 T02280017 TSNO,M
HND,2025-06-02 03:56,-115.1344,35.9729,742.79,82.00,50.00,32.94,160.00,19.00,0.00,29.88,1010.40,10.00,25.00,CLR,M,M,M,M,M,M,M,M,M,M,M,M,M,M,80.73,KHND 020356Z AUTO 16019G25KT 10SM CLR 28/10 A2988 RMK AO2 SLP104 T02780100 $,M
TPH,2025-06-02 03:56,-117.0904,38.0505,1654.00,M,M,M,M,M,0.00,30.04,M,M,M,M,M,M,M,M,M,M,M,M,M,M,M,M,M,M,M,KTPH 020356Z AUTO A3004 RMK AO2 SLPNO PWINO $,M
LAS,2025-06-02 03:56,-115.1634,36.0719,663.00,84.00,49.00,29.75,160.00,13.00,0.00,29.85,1007.90,10.00,22.00,FEW,BKN,OVC,M,9000.00,15000.00,22000.00,M,M,M,M,M,M,M,M,81.98,KLAS 020356Z 16013G22KT 10SM FEW090 BKN150 OVC220 29/09 A2985 RMK AO2 SLP079 T02890094 $,M
NFL,2025-06-02 03:57,-118.7010,39.4166,1199.00,83.00,29.00,14.06,310.00,11.00,T,29.86,1008.70,10.00,M,CLR,M,M,M,M,M,M,M,M,M,M,M,M,M,M,80.37,KNFL 020357Z AUTO 31011KT 10SM CLR 28/M02 A2986 RMK AO2 RAE27 SLP087 P0000 T02831017,M
RTS,2025-06-02 04:05,-119.8764,39.6682,1539.00,68.00,23.00,18.06,330.00,8.00,0.00,30.01,M,10.00,M,CLR,M,M,M,M,M,M,M,M,M,M,M,M,M,M,68.00,KRTS 020405Z AUTO 33008KT 10SM CLR 20/M05 A3001 RMK AO2,M
MEV,2025-06-02 04:05,-119.7500,38.9963,1441.42,66.20,33.80,29.92,30.00,7.00,0.00,29.96,M,10.00,M,CLR,M,M,M,M,M,M,M,M,M,M,M,M,M,M,66.20,KMEV 020405Z AUTO 03007KT 10SM CLR 19/01 A2996 RMK AO2,M
CXP,2025-06-02 04:10,-119.7326,39.1923,1431.00,69.80,30.20,22.87,190.00,8.00,0.00,29.98,M,10.00,14.00,CLR,M,M,M,M,M,M,M,M,M,M,M,M,M,M,69.80,KCXP 020410Z AUTO 19008G14KT 10SM CLR 21/M01 A2998 RMK AO2,M
TMT,2025-06-02 04:10,-117.1971,39.4643,1749.34,71.00,36.30,28.04,260.00,4.00,0.00,29.99,M,10.00,M,SCT,M,M,M,11000.00,M,M,M,M,M,M,M,M,M,M,71.00,KTMT 020410Z AUTO 26004KT 10SM SCT110 22/02 A2999 RMK AO2 T02160024,M
BVU,2025-06-02 04:15,-114.8611,35.9475,671.00,80.60,50.00,34.47,180.00,17.00,0.00,29.88,M,10.00,M,FEW,SCT,BKN,M,4200.00,4700.00,5500.00,M,M,M,M,M,M,M,M,79.89,KBVU 020415Z AUTO 18017KT 10SM FEW042 SCT047 BKN055 27/10 A2988 RMK AO2,M
BAM,2025-06-02 04:15,-116.8743,40.5990,1382.36,77.00,42.80,29.55,60.00,14.00,0.00,29.91,M,10.00,22.00,CLR,M,M,M,M,M,M,M,M,M,M,M,M,M,M,77.00,KBAM 020415Z AUTO 06014G22KT 10SM CLR 25/06 A2991 RMK AO1,M
HTH,2025-06-02 04:15,-118.6315,38.5448,1282.89,84.20,33.80,16.42,0.00,0.00,0.00,29.90,M,10.00,M,CLR,M,M,M,M,M,M,M,M,M,M,M,M,M,M,81.30,KHTH 020415Z AUTO 00000KT 10SM CLR 29/01 A2990 RMK A01,M
TMT,2025-06-02 04:30,-117.1971,39.4643,1749.34,71.00,36.50,28.26,250.00,6.00,0.00,30.00,M,10.00,M,CLR,M,M,M,M,M,M,M,M,M,M,M,M,M,M,71.00,KTMT 020430Z AUTO 25006KT 10SM CLR 22/03 A3000 RMK AO2 T02160025,M
BVU,2025-06-02 04:35,-114.8611,35.9475,671.00,80.60,50.00,34.47,190.00,13.00,0.00,29.88,M,10.00,19.00,SCT,BKN,OVC,M,2600.00,5000.00,6000.00,M,M,M,M,M,M,M,M,79.89,KBVU 020435Z AUTO 19013G19KT 10SM SCT026 BKN050 OVC060 27/10 A2988 RMK AO2,M
BAM,2025-06-02 04:35,-116.8743,40.5990,1382.36,75.20,41.00,29.26,50.00,14.00,0.00,29.93,M,10.00,19.00,CLR,M,M,M,M,M,M,M,M,M,M,M,M,M,M,75.20,KBAM 020435Z AUTO 05014G19KT 10SM CLR 24/05 A2993 RMK AO1,M
CXP,2025-06-02 04:35,-119.7326,39.1923,1431.00,73.40,30.20,20.24,260.00,6.00,0.00,29.99,M,10.00,M,CLR,M,M,M,M,M,M,M,M,M,M,M,M,M,M,73.40,KCXP 020435Z AUTO 26006KT 10SM CLR 23/M01 A2999 RMK AO2,M
RTS,2025-06-02 04:35,-119.8764,39.6682,1539.00,68.00,23.00,18.06,230.00,6.00,0.00,30.02,M,10.00,M,CLR,M,M,M,M,M,M,M,M,M,M,M,M,M,M,68.00,KRTS 020435Z AUTO 23006KT 10SM CLR 20/M05 A3002 RMK AO2,M
MEV,2025-06-02 04:35,-119.7500,38.9963,1441.42,71.60,32.00,23.14,340.00,9.00,0.00,29.97,M,10.00,M,CLR,M,M,M,M,M,M,M,M,M,M,M,M,M,M,71.60,KMEV 020435Z AUTO 34009KT 10SM CLR 22/00 A2997 RMK AO2,M
HTH,2025-06-02 04:35,-118.6315,38.5448,1282.89,84.20,33.80,16.42,260.00,3.00,0.00,29.91,M,10.00,M,CLR,M,M,M,M,M,M,M,M,M,M,M,M,M,M,81.30,KHTH 020435Z AUTO 26003KT 10SM CLR 29/01 A2991 RMK A01,M
TMT,2025-06-02 04:50,-117.1971,39.4643,1749.34,70.30,36.70,29.17,210.00,6.00,0.00,30.01,M,10.00,M,CLR,M,M,M,M,M,M,M,M,M,M,M,M,M,M,70.30,KTMT 020450Z AUTO 21006KT 10SM CLR 21/03 A3001 RMK AO2 T02130026,M
P68,2025-06-02 04:53,-116.0056,39.6014,1993.00,68.00,41.00,37.34,160.00,22.00,0.00,30.01,1006.70,M,30.00,M,M,M,M,M,M,M,M,M,M,M,M,30.00,170.00,2025-06-02 04:28,68.00,KP68 020453Z AUTO 16022G30KT 20/05 A3001 RMK AO1 PK WND 17030/0428 SLP067 T02000050,M
DRA,2025-06-02 04:53,-116.0278,36.6206,1009.00,83.00,43.00,24.48,220.00,8.00,0.00,29.87,1005.70,10.00,M,CLR,M,M,M,M,M,M,M,M,M,M,M,M,M,M,80.80,KDRA 020453Z AUTO 22008KT 10SM CLR 28/06 A2987 RMK AO2 SLP057 T02830061 $,M
ELY,2025-06-02 04:53,-114.8453,39.2950,1909.00,63.00,41.00,44.42,130.00,6.00,0.00,30.11,1008.90,10.00,M,FEW,M,M,M,12000.00,M,M,M,M,M,M,M,M,M,M,63.00,KELY 020453Z AUTO 13006KT 10SM FEW120 17/05 A3011 RMK AO2 SLP089 T01720050 $,M
VGT,2025-06-02 04:53,-115.1933,36.2111,667.00,84.00,49.00,29.75,150.00,13.00,0.00,29.87,1010.20,10.00,M,CLR,M,M,M,M,M,M,M,M,M,M,M,M,M,M,81.98,KVGT 020453Z AUTO 15013KT 10SM CLR 29/09 A2987 RMK AO2 SLP102 T02890094,M
LOL,2025-06-02 04:53,-118.5701,40.0684,1192.43,76.00,35.00,22.51,20.00,17.00,0.00,29.91,1008.30,10.00,28.00,CLR,M,M,M,M,M,M,M,M,M,M,M,28.00,360.00,2025-06-02 03:56,76.00,KLOL 020453Z AUTO 02017G28KT 10SM CLR 24/02 A2991 RMK AO2 PK WND 36028/0356 SLP083 T02440017,M
BVU,2025-06-02 04:55,-114.8611,35.9475,671.00,80.60,51.80,36.84,190.00,12.00,0.00,29.89,M,10.00,18.00,FEW,SCT,BKN,M,2500.00,4800.00,7000.00,M,M,M,M,M,M,M,M,80.08,KBVU 020455Z AUTO 19012G18KT 10SM FEW025 SCT048 BKN070 27/11 A2989 RMK AO2,M
RNO,2025-06-02 04:55,-119.7711,39.4839,1341.00,74.00,23.00,14.73,290.00,8.00,0.00,29.98,1009.30,10.00,M,FEW,FEW,FEW,M,14000.00,18000.00,21000.00,M,M,M,M,M,M,M,M,74.00,KRNO 020455Z 29008KT 10SM FEW140 FEW180 FEW210 23/M05 A2998 RMK AO2 SLP093 ACSL DSNT N THRU SE AND NW T02331050,M
BAM,2025-06-02 04:55,-116.8743,40.5990,1382.36,75.20,41.00,29.26,30.00,16.00,0.00,29.95,M,10.00,21.00,CLR,M,M,M,M,M,M,M,M,M,M,M,M,M,M,75.20,KBAM 020455Z AUTO 03016G21KT 10SM CLR 24/05 A2995 RMK AO1,M
CXP,2025-06-02 04:55,-119.7326,39.1923,1431.00,71.60,30.20,21.51,M,3.00,0.00,30.00,M,10.00,M,CLR,M,M,M,M,M,M,M,M,M,M,M,M,M,M,71.60,KCXP 020455Z AUTO VRB03KT 10SM CLR 22/M01 A3000 RMK AO2,M
RTS,2025-06-02 04:55,-119.8764,39.6682,1539.00,66.20,23.00,19.21,340.00,7.00,0.00,30.04,M,10.00,M,CLR,M,M,M,M,M,M,M,M,M,M,M,M,M,M,66.20,KRTS 020455Z AUTO 34007KT 300V360 10SM CLR 19/M05 A3004 RMK AO2,M
MEV,2025-06-02 04:55,-119.7500,38.9963,1441.42,68.00,32.00,26.16,M,5.00,0.00,29.98,M,10.00,M,CLR,M,M,M,M,M,M,M,M,M,M,M,M,M,M,68.00,KMEV 020455Z AUTO VRB05KT 10SM CLR 20/M00 A2998 RMK AO2,M
HTH,2025-06-02 04:55,-118.6315,38.5448,1282.89,M,M,M,M,M,0.00,29.91,M,M,M,M,M,M,M,M,M,M,M,M,M,M,M,M,M,M,M,KHTH 020455Z AUTO A2991 RMK A01,M
INS,2025-06-02 04:55,-115.6733,36.5872,955.00,80.80,46.40,29.92,120.00,21.00,0.00,29.87,1005.50,10.00,28.00,FEW,BKN,M,M,12000.00,16000.00,M,M,M,M,M,M,33.00,100.00,2025-06-02 04:18,79.68,KINS 020455Z AUTO 12021G28KT 10SM FEW120 BKN160 27/08 A2987 RMK AO2 PK WND 10033/18 SLP055 T02710080 $,M
LSV,2025-06-02 04:55,-115.0343,36.2362,570.00,84.60,48.70,28.86,160.00,18.00,0.00,29.82,1006.80,10.00,23.00,BKN,OVC,M,M,15000.00,22000.00,M,M,M,M,M,M,28.00,200.00,2025-06-02 04:00,82.39,KLSV 020455Z 16018G23KT 10SM BKN150 OVC220 29/09 A2982 RMK AO2A PK WND 20028/00 SLP068 T02920093 $,M
EKO,2025-06-02 04:56,-115.7860,40.8242,1367.00,71.00,39.00,31.18,30.00,8.00,0.00,29.97,1008.40,10.00,M,CLR,M,M,M,M,M,M,M,M,M,M,M,M,M,M,71.00,KEKO 020456Z AUTO 03008KT 10SM CLR 22/04 A2997 RMK AO2 SLP084 T02170039,M
WMC,2025-06-02 04:56,-117.8072,40.9019,1315.00,68.00,32.00,26.16,340.00,10.00,0.00,29.99,1010.80,10.00,M,CLR,M,M,M,M,M,M,M,M,M,M,M,M,M,M,68.00,KWMC 020456Z AUTO 34010KT 10SM CLR 20/00 A2999 RMK AO2 SLP108 T02000000 TSNO,M
HND,2025-06-02 04:56,-115.1344,35.9729,742.79,80.00,51.00,36.48,150.00,14.00,0.00,29.91,1011.30,10.00,M,SCT,BKN,M,M,9500.00,12000.00,M,M,M,M,M,M,26.00,160.00,2025-06-02 04:15,79.65,KHND 020456Z AUTO 15014KT 10SM SCT095 BKN120 27/11 A2991 RMK AO2 PK WND 16026/0415 SLP113 T02670106 $,M
TPH,2025-06-02 04:56,-117.0904,38.0505,1654.00,M,M,M,M,M,0.00,30.05,M,M,M,M,M,M,M,M,M,M,M,M,M,M,M,M,M,M,M,KTPH 020456Z AUTO A3005 RMK AO2 SLPNO PWINO $,M
LAS,2025-06-02 04:56,-115.1634,36.0719,663.00,82.00,50.00,32.94,170.00,12.00,0.00,29.88,1008.90,10.00,19.00,SCT,BKN,M,M,10000.00,12000.00,M,M,M,M,M,M,27.00,150.00,2025-06-02 04:12,80.73,KLAS 020456Z 17012G19KT 10SM SCT100 BKN120 28/10 A2988 RMK AO2 PK WND 15027/0412 SLP089 T02780100 $,M
NFL,2025-06-02 04:57,-118.7010,39.4166,1199.00,79.00,31.00,17.37,340.00,11.00,0.00,29.92,1010.40,10.00,18.00,CLR,M,M,M,M,M,M,M,M,M,M,M,M,M,M,79.00,KNFL 020457Z AUTO 34011G18KT 10SM CLR 26/M01 A2992 RMK AO2 SLP104 T02611006,M
RTS,2025-06-02 05:05,-119.8764,39.6682,1539.00,66.20,26.60,22.32,340.00,12.00,0.00,30.04,M,10.00,M,M,M,M,M,M,M,M,M,M,M,M,M,M,M,M,66.20,KRTS 020505Z AUTO 34012KT 10SM 19/M03 A3004 RMK AO2,M
MEV,2025-06-02 05:05,-119.7500,38.9963,1441.42,66.20,32.00,27.84,30.00,4.00,0.00,29.99,M,10.00,M,CLR,M,M,M,M,M,M,M,M,M,M,M,M,M,M,66.20,KMEV 020505Z AUTO 03004KT 10SM CLR 19/M00 A2999 RMK AO2,M
CXP,2025-06-02 05:10,-119.7326,39.1923,1431.00,69.80,30.20,22.87,0.00,0.00,0.00,30.01,M,10.00,M,CLR,M,M,M,M,M,M,M,M,M,M,M,M,M,M,69.80,KCXP 020510Z AUTO 00000KT 10SM CLR 21/M01 A3001 RMK AO2,M
TMT,2025-06-02 05:10,-117.1971,39.4643,1749.34,69.00,35.80,29.43,190.00,4.00,0.00,30.01,M,10.00,M,CLR,M,M,M,M,M,M,M,M,M,M,M,M,M,M,69.00,KTMT 020510Z AUTO 19004KT 10SM CLR 21/02 A3001 RMK AO2 T02050021,M
BVU,2025-06-02 05:15,-114.8611,35.9475,671.00,80.60,51.80,36.84,180.00,9.00,0.00,29.88,M,10.00,15.00,FEW,FEW,BKN,M,4500.00,6500.00,12000.00,M,M,M,M,M,M,M,M,80.08,KBVU 020515Z AUTO 18009G15KT 10SM FEW045 FEW065 BKN120 27/11 A2988 RMK AO2,M
BAM,2025-06-02 05:15,-116.8743,40.5990,1382.36,73.40,41.00,31.08,40.00,11.00,0.00,29.97,M,10.00,18.00,SCT,SCT,M,M,10000.00,12000.00,M,M,M,M,M,M,M,M,M,73.40,KBAM 020515Z AUTO 04011G18KT 10SM SCT100 SCT120 23/05 A2997 RMK AO1,M
HTH,2025-06-02 05:15,-118.6315,38.5448,1282.89,77.00,37.40,23.95,0.00,0.00,0.00,29.92,M,10.00,M,M,M,M,M,M,M,M,M,M,M,M,M,M,M,M,77.00,KHTH 020515Z AUTO 00000KT 10SM 25/03 A2992 RMK A01,M
TMT,2025-06-02 05:30,-117.1971,39.4643,1749.34,64.80,34.70,32.56,120.00,6.00,0.00,30.02,M,10.00,M,CLR,M,M,M,M,M,M,M,M,M,M,M,M,M,M,64.80,KTMT 020530Z AUTO 12006KT 10SM CLR 18/02 A3002 RMK AO2 T01820015,M
BVU,2025-06-02 05:35,-114.8611,35.9475,671.00,80.60,51.80,36.84,190.00,9.00,0.00,29.88,M,10.00,15.00,FEW,M,M,M,12000.00,M,M,M,M,M,M,M,M,M,M,80.08,KBVU 020535Z AUTO 19009G15KT 10SM FEW120 27/11 A2988 RMK AO2,M
BAM,2025-06-02 05:35,-116.8743,40.5990,1382.36,73.40,37.40,27.00,50.00,12.00,0.00,29.97,M,10.00,20.00,BKN,M,M,M,11000.00,M,M,M,M,M,M,M,M,M,M,73.40,KBAM 020535Z AUTO 05012G20KT 10SM BKN110 23/03 A2997 RMK AO1,M
CXP,2025-06-02 05:35,-119.7326,39.1923,1431.00,69.80,28.40,21.24,0.00,0.00,0.00,30.01,M,10.00,M,CLR,M,M,M,M,M,M,M,M,M,M,M,M,M,M,69.80,KCXP 020535Z AUTO 00000KT 10SM CLR 21/M02 A3001 RMK AO2,M
RTS,2025-06-02 05:35,-119.8764,39.6682,1539.00,66.20,28.40,24.04,10.00,12.00,0.00,30.05,M,10.00,M,CLR,M,M,M,M,M,M,M,M,M,M,M,M,M,M,66.20,KRTS 020535Z AUTO 01012KT 10SM CLR 19/M02 A3005 RMK AO2,M
MEV,2025-06-02 05:35,-119.7500,38.9963,1441.42,59.00,32.00,35.86,140.00,3.00,0.00,30.00,M,10.00,M,CLR,M,M,M,M,M,M,M,M,M,M,M,M,M,M,59.00,KMEV 020535Z AUTO 14003KT 10SM CLR 15/00 A3000 RMK AO2,M
HTH,2025-06-02 05:35,-118.6315,38.5448,1282.89,75.20,39.20,27.28,0.00,0.00,0.00,29.93,M,10.00,M,CLR,M,M,M,M,M,M,M,M,M,M,M,M,M,M,75.20,KHTH 020535Z AUTO 00000KT 10SM CLR 24/04 A2993 RMK A01,M
TMT,2025-06-02 05:50,-117.1971,39.4643,1749.34,64.40,32.70,30.48,150.00,5.00,0.00,30.02,M,10.00,M,CLR,M,M,M,M,M,M,M,M,M,M,M,M,M,M,64.40,KTMT 020550Z AUTO 15005KT 10SM CLR 18/00 A3002 RMK AO2 T01800004,M
P68,2025-06-02 05:53,-116.0056,39.6014,1993.00,69.00,37.00,30.86,160.00,9.00,0.00,30.03,1007.20,M,M,M,M,M,M,M,M,M,M,M,M,M,M,30.00,160.00,2025-06-02 04:54,69.00,KP68 020553Z AUTO 16009KT 21/03 A3003 RMK AO1 PK WND 16030/0454 SLP072 T02060028 10267 20200 53014,M
DRA,2025-06-02 05:53,-116.0278,36.6206,1009.00,82.00,45.00,27.29,250.00,5.00,0.00,29.89,1006.40,10.00,15.00,CLR,M,M,M,M,M,M,M,M,M,M,M,M,M,M,80.28,KDRA 020553Z AUTO 25005G15KT 10SM CLR 28/07 A2989 RMK AO2 SLP064 T02780072 10344 20278 53017 $,M
ELY,2025-06-02 05:53,-114.8453,39.2950,1909.00,65.00,42.00,43.05,150.00,9.00,0.00,30.11,1008.20,10.00,M,BKN,M,M,M,12000.00,M,M,M,M,M,M,M,M,M,M,65.00,KELY 020553Z AUTO 15009KT 10SM BKN120 18/06 A3011 RMK AO2 SLP082 60000 T01830056 10272 20167 50015 $,M
VGT,2025-06-02 05:53,-115.1933,36.2111,667.00,83.00,50.00,31.89,130.00,8.00,0.00,29.87,1010.10,10.00,M,SCT,SCT,M,M,10000.00,11000.00,M,M,M,M,M,M,M,M,M,81.39,KVGT 020553Z AUTO 13008KT 10SM SCT100 SCT110 28/10 A2987 RMK AO2 SLP101 T02830100 10339 20283 51022,M
LOL,2025-06-02 05:53,-118.5701,40.0684,1192.43,74.00,33.00,22.22,10.00,20.00,0.00,29.93,1009.10,10.00,32.00,CLR,M,M,M,M,M,M,M,M,M,M,M,33.00,20.00,2025-06-02 05:39,74.00,KLOL 020553Z AUTO 01020G32KT 10SM CLR 23/01 A2993 RMK AO2 PK WND 02033/0539 SLP091 T02330006 10356 20233 51037,M
BVU,2025-06-02 05:55,-114.8611,35.9475,671.00,80.60,50.00,34.47,180.00,9.00,0.00,29.88,M,10.00,M,CLR,M,M,M,M,M,M,M,M,M,M,M,M,M,M,79.89,KBVU 020555Z AUTO 18009KT 10SM CLR 27/10 A2988 RMK AO2,M
RNO,2025-06-02 05:55,-119.7711,39.4839,1341.00,72.00,30.00,21.05,340.00,14.00,0.00,30.00,1009.70,10.00,M,SCT,M,M,M,15000.00,M,M,M,M,M,M,M,M,M,M,72.00,KRNO 020555Z 34014KT 10SM SCT150 22/M01 A3000 RMK AO2 SLP097 T02221011 10322 20222 51025,M
BAM,2025-06-02 05:55,-116.8743,40.5990,1382.36,73.40,37.40,27.00,0.00,0.00,0.00,29.99,M,10.00,M,SCT,M,M,M,11000.00,M,M,M,M,M,M,M,M,M,M,73.40,KBAM 020555Z AUTO 00000KT 10SM SCT110 23/03 A2999 RMK AO1,M
CXP,2025-06-02 05:55,-119.7326,39.1923,1431.00,68.00,30.20,24.32,M,5.00,0.00,30.01,M,10.00,M,CLR,M,M,M,M,M,M,M,M,M,M,M,M,M,M,68.00,KCXP 020555Z AUTO VRB05KT 10SM CLR 20/M01 A3001 RMK AO2,M
LSV,2025-06-02 05:55,-115.0343,36.2362,570.00,83.50,50.50,31.97,160.00,10.00,0.00,29.82,1006.80,10.00,M,SCT,BKN,M,M,14000.00,16000.00,M,M,M,M,M,M,M,M,M,81.80,KLSV 020555Z AUTO 16010KT 10SM SCT140 BKN160 29/10 A2982 RMK AO2 SLP068 T02860103 10341 20286 51019 $,M
RTS,2025-06-02 05:55,-119.8764,39.6682,1539.00,64.40,26.60,23.77,350.00,13.00,0.00,30.05,M,10.00,21.00,CLR,M,M,M,M,M,M,M,M,M,M,M,M,M,M,64.40,KRTS 020555Z AUTO 35013G21KT 10SM CLR 18/M03 A3005 RMK AO2,M
MEV,2025-06-02 05:55,-119.7500,38.9963,1441.42,55.40,35.60,47.15,150.00,6.00,0.00,30.00,M,10.00,M,CLR,M,M,M,M,M,M,M,M,M,M,M,M,M,M,55.40,KMEV 020555Z AUTO 15006KT 10SM CLR 13/02 A3000 RMK AO2,M
HTH,2025-06-02 05:55,-118.6315,38.5448,1282.89,75.20,39.20,27.28,20.00,7.00,0.00,29.94,M,10.00,M,CLR,M,M,M,M,M,M,M,M,M,M,M,M,M,M,75.20,KHTH 020555Z AUTO 02007KT 10SM CLR 24/04 A2994 RMK A01,M
INS,2025-06-02 05:55,-115.6733,36.5872,955.00,79.50,47.00,31.93,110.00,19.00,0.00,29.88,1005.90,10.00,M,FEW,OVC,M,M,9000.00,12000.00,M,M,M,M,M,M,33.00,110.00,2025-06-02 05:00,79.50,KINS 020555Z AUTO 11019KT 10SM FEW090 OVC120 26/08 A2988 RMK AO2 PK WND 11033/00 SLP059 T02640084 10354 20264 52021 $,M
EKO,2025-06-02 05:56,-115.7860,40.8242,1367.00,68.00,34.00,28.35,60.00,7.00,0.00,29.98,1008.80,10.00,16.00,CLR,M,M,M,M,M,M,M,M,M,M,M,M,M,M,68.00,KEKO 020556Z AUTO 06007G16KT 10SM CLR 20/01 A2998 RMK AO2 SLP088 T02000011 10311 20200 51024,M
WMC,2025-06-02 05:56,-117.8072,40.9019,1315.00,64.00,29.00,26.60,340.00,12.00,0.00,30.02,1012.00,10.00,M,CLR,M,M,M,M,M,M,M,M,M,M,M,M,M,M,64.00,KWMC 020556Z AUTO 34012KT 10SM CLR 18/M02 A3002 RMK AO2 SLP120 T01781017 10317 20178 51038 TSNO,M
HND,2025-06-02 05:56,-115.1344,35.9729,742.79,79.00,53.00,40.57,170.00,13.00,0.00,29.90,1011.10,10.00,M,CLR,M,M,M,M,M,M,M,M,M,M,M,M,M,M,79.00,KHND 020556Z AUTO 17013KT 10SM CLR 26/12 A2990 RMK AO2 SLP111 T02610117 10333 20261 50015 $,M
TPH,2025-06-02 05:56,-117.0904,38.0505,1654.00,M,M,M,M,M,0.00,30.04,M,M,M,M,M,M,M,M,M,M,M,M,M,M,M,M,M,M,M,KTPH 020556Z AUTO A3004 RMK AO2 SLPNO 50003 PWINO $,M
LAS,2025-06-02 05:56,-115.1634,36.0719,663.00,81.00,52.00,36.64,160.00,10.00,0.00,29.87,1008.70,10.00,18.00,FEW,BKN,M,M,11000.00,13000.00,M,M,M,M,M,M,M,M,M,80.34,KLAS 020556Z 16010G18KT 10SM FEW110 BKN130 27/11 A2987 RMK AO2 SLP087 T02720111 10333 20272 50016 $,M
NFL,2025-06-02 05:57,-118.7010,39.4166,1199.00,73.00,32.00,22.07,340.00,9.00,0.00,29.93,1010.90,10.00,M,CLR,M,M,M,M,M,M,M,M,M,M,M,M,M,M,73.00,KNFL 020557Z AUTO 34009KT 10SM CLR 23/00 A2993 RMK AO2 SLP109 60000 T02280000 10344 20228 51032,M
TMT,2025-06-02 06:10,-117.1971,39.4643,1749.34,60.30,33.80,36.81,150.00,6.00,0.00,30.02,M,10.00,M,CLR,M,M,M,M,M,M,M,M,M,M,M,M,M,M,60.30,KTMT 020610Z AUTO 15006KT 10SM CLR 16/01 A3002 RMK AO2 T01570010,M
BVU,2025-06-02 06:15,-114.8611,35.9475,671.00,80.60,50.00,34.47,190.00,6.00,0.00,29.87,M,10.00,M,CLR,M,M,M,M,M,M,M,M,M,M,M,M,M,M,79.89,KBVU 020615Z AUTO 19006KT 10SM CLR 27/10 A2987 RMK AO2,M
BAM,2025-06-02 06:15,-116.8743,40.5990,1382.36,73.40,37.40,27.00,0.00,0.00,0.00,30.00,M,10.00,M,CLR,M,M,M,M,M,M,M,M,M,M,M,M,M,M,73.40,KBAM 020615Z AUTO 00000KT 10SM CLR 23/03 A3000 RMK AO1,M
CXP,2025-06-02 06:15,-119.7326,39.1923,1431.00,66.20,30.20,25.88,0.00,0.00,0.00,30.01,M,10.00,M,CLR,M,M,M,M,M,M,M,M,M,M,M,M,M,M,66.20,KCXP 020615Z AUTO 00000KT 10SM CLR 19/M01 A3001 RMK AO2,M
RTS,2025-06-02 06:15,-119.8764,39.6682,1539.00,64.40,24.80,22.05,340.00,14.00,0.00,30.06,M,10.00,M,CLR,M,M,M,M,M,M,M,M,M,M,M,M,M,M,64.40,KRTS 020615Z AUTO 34014KT 10SM CLR 18/M04 A3006 RMK AO2,M
MEV,2025-06-02 06:15,-119.7500,38.9963,1441.42,53.60,35.60,50.35,160.00,5.00,0.00,30.00,M,10.00,M,CLR,M,M,M,M,M,M,M,M,M,M,M,M,M,M,53.60,KMEV 020615Z AUTO 16005KT 10SM CLR 12/02 A3000 RMK AO2,M
HTH,2025-06-02 06:15,-118.6315,38.5448,1282.89,75.20,35.60,23.68,350.00,5.00,0.00,29.95,M,10.00,M,CLR,M,M,M,M,M,M,M,M,M,M,M,M,M,M,75.20,KHTH 020615Z AUTO 35005KT 10SM CLR 24/02 A2995 RMK A01,M
DRA,2025-06-02 06:25,-116.0278,36.6206,1009.00,81.00,47.00,30.41,360.00,11.00,0.00,29.91,M,10.00,20.00,BKN,M,M,M,11000.00,M,M,M,M,M,M,M,M,M,M,79.84,KDRA 020625Z AUTO 36011G20KT 10SM BKN110 27/08 A2991 RMK AO2 WSHFT 0608 T02720083 $,M
TMT,2025-06-02 06:30,-117.1971,39.4643,1749.34,61.70,33.00,33.92,260.00,4.00,0.00,30.03,M,10.00,M,CLR,M,M,M,M,M,M,M,M,M,M,M,M,M,M,61.70,KTMT 020630Z AUTO 26004KT 10SM CLR 17/01 A3003 RMK AO2 T01650006,M
BVU,2025-06-02 06:35,-114.8611,35.9475,671.00,80.60,50.00,34.47,190.00,6.00,0.00,29.88,M,10.00,M,CLR,M,M,M,M,M,M,M,M,M,M,M,M,M,M,79.89,KBVU 020635Z AUTO 19006KT 10SM CLR 27/10 A2988 RMK AO2,M
BAM,2025-06-02 06:35,-116.8743,40.5990,1382.36,71.60,35.60,26.72,340.00,5.00,0.00,30.00,M,10.00,M,CLR,M,M,M,M,M,M,M,M,M,M,M,M,M,M,71.60,KBAM 020635Z AUTO 34005KT 10SM CLR 22/02 A3000 RMK AO1,M
CXP,2025-06-02 06:35,-119.7326,39.1923,1431.00,66.20,28.40,24.04,300.00,4.00,0.00,30.02,M,10.00,M,CLR,M,M,M,M,M,M,M,M,M,M,M,M,M,M,66.20,KCXP 020635Z AUTO 30004KT 10SM CLR 19/M02 A3002 RMK AO2,M
RTS,2025-06-02 06:35,-119.8764,39.6682,1539.00,62.60,26.60,25.31,320.00,11.00,0.00,30.06,M,10.00,M,CLR,M,M,M,M,M,M,M,M,M,M,M,M,M,M,62.60,KRTS 020635Z AUTO 32011KT 10SM CLR 17/M03 A3006 RMK AO2,M
MEV,2025-06-02 06:35,-119.7500,38.9963,1441.42,53.60,37.40,54.07,110.00,6.00,0.00,30.01,M,10.00,M,CLR,M,M,M,M,M,M,M,M,M,M,M,M,M,M,53.60,KMEV 020635Z AUTO 11006KT 10SM CLR 12/03 A3001 RMK AO2,M
HTH,2025-06-02 06:35,-118.6315,38.5448,1282.89,77.00,32.00,19.31,310.00,10.00,0.00,29.96,M,10.00,M,CLR,M,M,M,M,M,M,M,M,M,M,M,M,M,M,77.00,KHTH 020635Z AUTO 31010KT 10SM CLR 25/M00 A2996 RMK A01,M
TMT,2025-06-02 06:50,-117.1971,39.4643,1749.34,61.50,34.00,35.56,280.00,5.00,0.00,30.03,M,10.00,M,CLR,M,M,M,M,M,M,M,M,M,M,M,M,M,M,61.50,KTMT 020650Z AUTO 28005KT 10SM CLR 16/01 A3003 RMK AO2 T01640012,M
P68,2025-06-02 06:53,-116.0056,39.6014,1993.00,63.00,36.00,36.52,350.00,3.00,0.00,30.04,1008.30,M,M,M,M,M,M,M,M,M,M,M,M,M,M,M,M,M,63.00,KP68 020653Z AUTO 35003KT 17/02 A3004 RMK AO1 SLP083 T01720022,M
DRA,2025-06-02 06:53,-116.0278,36.6206,1009.00,80.00,47.00,31.41,20.00,7.00,0.00,29.91,1007.40,10.00,M,SCT,BKN,OVC,M,6000.00,8000.00,10000.00,M,M,M,M,M,M,M,M,79.29,KDRA 020653Z AUTO 02007KT 10SM SCT060 BKN080 OVC100 27/08 A2991 RMK AO2 WSHFT 0608 SLP074 T02670083 $,M
ELY,2025-06-02 06:53,-114.8453,39.2950,1909.00,M,M,M,M,M,T,30.12,M,10.00,M,FEW,SCT,OVC,M,3600.00,7500.00,9000.00,M,M,M,M,M,M,M,M,M,KELY 020653Z AUTO 10SM FEW036 SCT075 OVC090 A3012 RMK AO2 RAB15E53 SLPNO P0000 $,M
VGT,2025-06-02 06:53,-115.1933,36.2111,667.00,82.00,52.00,35.47,150.00,8.00,0.00,29.87,1010.20,10.00,M,CLR,M,M,M,M,M,M,M,M,M,M,M,M,M,M,80.97,KVGT 020653Z AUTO 15008KT 10SM CLR 28/11 A2987 RMK AO2 SLP102 T02780111,M
LOL,2025-06-02 06:53,-118.5701,40.0684,1192.43,72.00,31.00,21.92,10.00,17.00,0.00,29.96,1009.60,10.00,28.00,CLR,M,M,M,M,M,M,M,M,M,M,M,31.00,10.00,2025-06-02 05:56,72.00,KLOL 020653Z AUTO 01017G28KT 10SM CLR 22/M01 A2996 RMK AO2 PK WND 01031/0556 SLP096 T02221006,M
BVU,2025-06-02 06:55,-114.8611,35.9475,671.00,80.60,50.00,34.47,180.00,6.00,0.00,29.87,M,10.00,M,BKN,M,M,M,12000.00,M,M,M,M,M,M,M,M,M,M,79.89,KBVU 020655Z AUTO 18006KT 10SM BKN120 27/10 A2987 RMK AO2,M
RNO,2025-06-02 06:55,-119.7711,39.4839,1341.00,70.00,29.00,21.63,320.00,9.00,0.00,30.02,1010.10,10.00,M,FEW,M,M,M,15000.00,M,M,M,M,M,M,M,M,M,M,70.00,KRNO 020655Z 32009KT 10SM FEW150 21/M02 A3002 RMK AO2 SLP101 T02111017,M
BAM,2025-06-02 06:55,-116.8743,40.5990,1382.36,71.60,35.60,26.72,30.00,8.00,0.00,30.00,M,10.00,M,CLR,M,M,M,M,M,M,M,M,M,M,M,M,M,M,71.60,KBAM 020655Z AUTO 03008KT 350V050 10SM CLR 22/02 A3000 RMK AO1,M
CXP,2025-06-02 06:55,-119.7326,39.1923,1431.00,69.80,24.80,18.31,310.00,3.00,0.00,30.03,M,10.00,12.00,CLR,M,M,M,M,M,M,M,M,M,M,M,M,M,M,69.80,KCXP 020655Z AUTO 31003G12KT 10SM CLR 21/M04 A3003 RMK AO2,M
LSV,2025-06-02 06:55,-115.0343,36.2362,570.00,83.00,51.00,33.09,130.00,4.00,0.00,29.83,1007.10,10.00,M,OVC,M,M,M,14000.00,M,M,M,M,M,M,M,M,M,M,81.51,KLSV 020655Z AUTO 13004KT 10SM OVC140 28/11 A2983 RMK AO2 SLP071 T02830105 $,M
RTS,2025-06-02 06:55,-119.8764,39.6682,1539.00,62.60,24.80,23.49,330.00,14.00,0.00,30.07,M,10.00,M,M,M,M,M,M,M,M,M,M,M,M,M,M,M,M,62.60,KRTS 020655Z AUTO 33014KT 10SM 17/M04 A3007 RMK AO2,M
MEV,2025-06-02 06:55,-119.7500,38.9963,1441.42,51.80,35.60,53.80,0.00,0.00,0.00,30.01,M,10.00,M,FEW,FEW,M,M,4700.00,5500.00,M,M,M,M,M,M,M,M,M,51.80,KMEV 020655Z AUTO 00000KT 10SM FEW047 FEW055 11/02 A3001 RMK AO2,M
HTH,2025-06-02 06:55,-118.6315,38.5448,1282.89,77.00,30.20,17.96,320.00,11.00,0.00,29.96,M,10.00,M,CLR,M,M,M,M,M,M,M,M,M,M,M,M,M,M,77.00,KHTH 020655Z AUTO 32011KT 10SM CLR 25/M01 A2996 RMK A01,M
INS,2025-06-02 06:55,-115.6733,36.5872,955.00,79.00,47.50,33.08,100.00,13.00,0.00,29.91,1006.80,9.00,M,FEW,FEW,SCT,BKN,1500.00,3400.00,6000.00,9000.00,M,M,M,M,27.00,90.00,2025-06-02 05:55,79.00,KINS 020655Z AUTO 10013KT 9SM FEW015 FEW034 SCT060 BKN090 OVC110 26/09 A2991 RMK AO2 PK WND 09027/0555 SLP068 T02610086 $,M
EKO,2025-06-02 06:56,-115.7860,40.8242,1367.00,66.00,30.00,25.85,350.00,12.00,0.00,30.03,1010.30,10.00,16.00,CLR,M,M,M,M,M,M,M,M,M,M,M,M,M,M,66.00,KEKO 020656Z AUTO 35012G16KT 10SM CLR 19/M01 A3003 RMK AO2 SLP103 T01891011,M
WMC,2025-06-02 06:56,-117.8072,40.9019,1315.00,60.00,22.00,22.90,360.00,11.00,0.00,30.04,1012.50,10.00,M,CLR,M,M,M,M,M,M,M,M,M,M,M,M,M,M,60.00,KWMC 020656Z AUTO 36011KT 10SM CLR 16/M06 A3004 RMK AO2 SLP125 T01561056 TSNO,M
HND,2025-06-02 06:56,-115.1344,35.9729,742.79,79.00,52.00,39.11,150.00,12.00,0.00,29.91,1011.10,10.00,M,FEW,M,M,M,12000.00,M,M,M,M,M,M,M,M,M,M,79.00,KHND 020656Z AUTO 15012KT 10SM FEW120 26/11 A2991 RMK AO2 SLP111 T02610111 403720261 $,M
TPH,2025-06-02 06:56,-117.0904,38.0505,1654.00,M,M,M,M,M,0.00,30.02,M,M,M,M,M,M,M,M,M,M,M,M,M,M,M,M,M,M,M,KTPH 020656Z AUTO A3002 RMK AO2 SLPNO PWINO $,M
LAS,2025-06-02 06:56,-115.1634,36.0719,663.00,81.00,52.00,36.64,170.00,7.00,0.00,29.88,1008.90,10.00,14.00,BKN,OVC,M,M,13000.00,17000.00,M,M,M,M,M,M,M,M,M,80.34,KLAS 020656Z 17007G14KT 10SM BKN130 OVC170 27/11 A2988 RMK AO2 SLP089 T02720111 $,M
NFL,2025-06-02 06:57,-118.7010,39.4166,1199.00,69.00,31.00,24.28,350.00,9.00,0.00,29.96,1011.60,10.00,M,CLR,M,M,M,M,M,M,M,M,M,M,M,M,M,M,69.00,KNFL 020657Z AUTO 35009KT 10SM CLR 21/M01 A2996 RMK AO2 SLP116 T02061006,M
TMT,2025-06-02 07:10,-117.1971,39.4643,1749.34,62.60,34.30,34.62,270.00,5.00,0.00,30.03,M,10.00,M,CLR,M,M,M,M,M,M,M,M,M,M,M,M,M,M,62.60,KTMT 020710Z AUTO 27005KT 10SM CLR 17/01 A3003 RMK AO2 T01700013,M
BVU,2025-06-02 07:15,-114.8611,35.9475,671.00,80.60,50.00,34.47,200.00,3.00,0.00,29.87,M,10.00,M,FEW,SCT,BKN,M,2500.00,5000.00,7000.00,M,M,M,M,M,M,M,M,79.89,KBVU 020715Z AUTO 20003KT 10SM FEW025 SCT050 BKN070 27/10 A2987 RMK AO2,M
BAM,2025-06-02 07:15,-116.8743,40.5990,1382.36,69.80,35.60,28.41,10.00,9.00,0.00,30.01,M,10.00,17.00,CLR,M,M,M,M,M,M,M,M,M,M,M,M,M,M,69.80,KBAM 020715Z AUTO 01009G17KT 10SM CLR 21/02 A3001 RMK AO1,M
CXP,2025-06-02 07:15,-119.7326,39.1923,1431.00,68.00,30.20,24.32,260.00,6.00,0.00,30.03,M,10.00,13.00,CLR,M,M,M,M,M,M,M,M,M,M,M,M,M,M,68.00,KCXP 020715Z AUTO 26006G13KT 10SM CLR 20/M01 A3003 RMK AO2,M
RTS,2025-06-02 07:15,-119.8764,39.6682,1539.00,62.60,24.80,23.49,330.00,10.00,0.00,30.07,M,10.00,16.00,CLR,M,M,M,M,M,M,M,M,M,M,M,M,M,M,62.60,KRTS 020715Z AUTO 33010G16KT 10SM CLR 17/M04 A3007 RMK AO2,M
MEV,2025-06-02 07:15,-119.7500,38.9963,1441.42,53.60,35.60,50.35,0.00,0.00,0.00,30.02,M,10.00,M,FEW,M,M,M,5000.00,M,M,M,M,M,M,M,M,M,M,53.60,KMEV 020715Z AUTO 00000KT 10SM FEW050 12/02 A3002 RMK AO2,M
HTH,2025-06-02 07:15,-118.6315,38.5448,1282.89,77.00,28.40,16.68,330.00,11.00,0.00,29.97,M,10.00,M,CLR,M,M,M,M,M,M,M,M,M,M,M,M,M,M,77.00,KHTH 020715Z AUTO 33011KT 10SM CLR 25/M02 A2997 RMK A01,M
TMT,2025-06-02 07:30,-117.1971,39.4643,1749.34,60.40,33.00,35.52,340.00,6.00,0.00,30.03,M,10.00,M,CLR,M,M,M,M,M,M,M,M,M,M,M,M,M,M,60.40,KTMT 020730Z AUTO 34006KT 10SM CLR 16/01 A3003 RMK AO2 T01580006,M
CXP,2025-06-02 07:35,-119.7326,39.1923,1431.00,69.80,28.40,21.24,340.00,12.00,0.00,30.03,M,10.00,18.00,CLR,M,M,M,M,M,M,M,M,M,M,M,M,M,M,69.80,KCXP 020735Z AUTO 34012G18KT 10SM CLR 21/M02 A3003 RMK AO2,M
RTS,2025-06-02 07:35,-119.8764,39.6682,1539.00,62.60,24.80,23.49,350.00,10.00,0.00,30.07,M,10.00,M,CLR,M,M,M,M,M,M,M,M,M,M,M,M,M,M,62.60,KRTS 020735Z AUTO 35010KT 10SM CLR 17/M04 A3007 RMK AO2,M
MEV,2025-06-02 07:35,-119.7500,38.9963,1441.42,55.40,35.60,47.15,0.00,0.00,0.00,30.02,M,10.00,M,FEW,M,M,M,4300.00,M,M,M,M,M,M,M,M,M,M,55.40,KMEV 020735Z AUTO 00000KT 10SM FEW043 13/02 A3002 RMK AO2,M
HTH,2025-06-02 07:35,-118.6315,38.5448,1282.89,75.20,35.60,23.68,320.00,14.00,0.00,29.98,M,10.00,20.00,CLR,M,M,M,M,M,M,M,M,M,M,M,M,M,M,75.20,KHTH 020735Z AUTO 32014G20KT 10SM CLR 24/02 A2998 RMK A01,M
BVU,2025-06-02 07:35,-114.8611,35.9475,671.00,78.80,51.80,39.08,150.00,6.00,0.00,29.88,M,10.00,M,FEW,SCT,BKN,M,3500.00,5000.00,6500.00,M,M,M,M,M,M,M,M,78.80,KBVU 020735Z AUTO 15006KT 10SM FEW035 SCT050 BKN065 26/11 A2988 RMK AO2,M
BAM,2025-06-02 07:35,-116.8743,40.5990,1382.36,69.80,33.80,26.44,40.00,7.00,0.00,30.02,M,10.00,M,CLR,M,M,M,M,M,M,M,M,M,M,M,M,M,M,69.80,KBAM 020735Z AUTO 04007KT 10SM CLR 21/01 A3002 RMK AO1,M
TMT,2025-06-02 07:50,-117.1971,39.4643,1749.34,59.70,32.50,35.69,270.00,3.00,0.00,30.05,M,10.00,M,CLR,M,M,M,M,M,M,M,M,M,M,M,M,M,M,59.70,KTMT 020750Z AUTO 27003KT 10SM CLR 15/00 A3005 RMK AO2 T01540003,M
P68,2025-06-02 07:53,-116.0056,39.6014,1993.00,62.00,37.00,39.35,130.00,4.00,0.00,30.04,1008.00,M,M,M,M,M,M,M,M,M,M,M,M,M,M,M,M,M,62.00,KP68 020753Z AUTO 13004KT 17/03 A3004 RMK AO1 SLP080 T01670028 403280089,M
DRA,2025-06-02 07:53,-116.0278,36.6206,1009.00,77.00,49.00,37.37,110.00,16.00,0.00,29.91,1007.20,10.00,M,SCT,M,M,M,11000.00,M,M,M,M,M,M,M,26.00,110.00,2025-06-02 07:37,77.00,KDRA 020753Z AUTO 11016KT 10SM SCT110 25/09 A2991 RMK AO2 PK WND 11026/0737 SLP072 T02500094 403610250 $,M
ELY,2025-06-02 07:53,-114.8453,39.2950,1909.00,M,M,M,0.00,0.00,T,30.10,M,10.00,M,OVC,M,M,M,8500.00,M,M,M,-RA,M,M,M,M,M,M,M,KELY 020753Z AUTO 00000KT 10SM -RA OVC085 A3010 RMK AO2 RAB08 SLPNO P0000 403060094 $,M
VGT,2025-06-02 07:53,-115.1933,36.2111,667.00,81.00,52.00,36.64,160.00,7.00,0.00,29.88,1010.50,10.00,M,SCT,M,M,M,12000.00,M,M,M,M,M,M,M,M,M,M,80.34,KVGT 020753Z AUTO 16007KT 10SM SCT120 27/11 A2988 RMK AO2 SLP105 T02720111 403780272,M
LOL,2025-06-02 07:53,-118.5701,40.0684,1192.43,69.00,29.00,22.38,0.00,0.00,0.00,29.98,1010.70,10.00,M,CLR,M,M,M,M,M,M,M,M,M,M,M,30.00,20.00,2025-06-02 07:01,69.00,KLOL 020753Z AUTO 00000KT 10SM CLR 21/M02 A2998 RMK AO2 PK WND 02030/0701 SLP107 T02061017 403560106,M
BVU,2025-06-02 07:55,-114.8611,35.9475,671.00,78.80,51.80,39.08,140.00,8.00,0.00,29.88,M,10.00,M,SCT,BKN,OVC,M,3600.00,5500.00,7500.00,M,M,M,M,M,M,M,M,78.80,KBVU 020755Z AUTO 14008KT 10SM SCT036 BKN055 OVC075 26/11 A2988 RMK AO2,M
RNO,2025-06-02 07:55,-119.7711,39.4839,1341.00,68.00,29.00,23.16,320.00,9.00,0.00,30.03,1010.70,10.00,M,FEW,M,M,M,15000.00,M,M,M,M,M,M,M,M,M,M,68.00,KRNO 020755Z 32009KT 10SM FEW150 20/M02 A3003 RMK AO2 SLP107 T02001017 403280167,M
BAM,2025-06-02 07:55,-116.8743,40.5990,1382.36,68.00,33.80,28.12,310.00,11.00,0.00,30.03,M,10.00,15.00,CLR,M,M,M,M,M,M,M,M,M,M,M,M,M,M,68.00,KBAM 020755Z AUTO 31011G15KT 10SM CLR 20/01 A3003 RMK AO1,M
CXP,2025-06-02 07:55,-119.7326,39.1923,1431.00,68.00,28.40,22.60,350.00,10.00,0.00,30.04,M,10.00,M,CLR,M,M,M,M,M,M,M,M,M,M,M,M,M,M,68.00,KCXP 020755Z AUTO 35010KT 10SM CLR 20/M02 A3004 RMK AO2,M
LSV,2025-06-02 07:55,-115.0343,36.2362,570.00,83.00,50.00,31.89,180.00,11.00,0.00,29.83,1007.00,10.00,M,BKN,BKN,M,M,12000.00,15000.00,M,M,M,M,M,M,M,M,M,81.39,KLSV 020755Z AUTO 18011KT 10SM BKN120 BKN150 28/10 A2983 RMK AO2 SLP070 T02830100 403840281 $,M
RTS,2025-06-02 07:55,-119.8764,39.6682,1539.00,60.80,24.80,25.03,340.00,9.00,0.00,30.08,M,10.00,M,CLR,M,M,M,M,M,M,M,M,M,M,M,M,M,M,60.80,KRTS 020755Z AUTO 34009KT 10SM CLR 16/M04 A3008 RMK AO2,M
MEV,2025-06-02 07:55,-119.7500,38.9963,1441.42,50.00,33.80,53.52,140.00,6.00,0.00,30.02,M,10.00,M,CLR,M,M,M,M,M,M,M,M,M,M,M,M,M,M,50.00,KMEV 020755Z AUTO 14006KT 10SM CLR 10/01 A3002 RMK AO2,M
HTH,2025-06-02 07:55,-118.6315,38.5448,1282.89,73.40,35.60,25.15,320.00,16.00,0.00,29.98,M,10.00,M,FEW,M,M,M,3800.00,M,M,M,M,M,M,M,M,M,M,73.40,KHTH 020755Z AUTO 32016KT 10SM FEW038 23/02 A2998 RMK A01,M
INS,2025-06-02 07:55,-115.6733,36.5872,955.00,77.40,50.40,38.85,100.00,24.00,0.00,29.92,1007.20,10.00,M,OVC,M,M,M,10000.00,M,M,M,M,M,M,M,27.00,80.00,2025-06-02 07:49,77.40,KINS 020755Z AUTO 10024KT 10SM OVC100 25/10 A2992 RMK AO2 PK WND 08027/49 SLP072 T02520102 403760233 $,M
EKO,2025-06-02 07:56,-115.7860,40.8242,1367.00,66.00,32.00,28.03,20.00,10.00,T,30.02,1009.80,10.00,M,SCT,BKN,OVC,M,4800.00,8000.00,10000.00,M,M,M,M,M,M,M,M,66.00,KEKO 020756Z AUTO 02010KT 10SM SCT048 BKN080 OVC100 19/00 A3002 RMK AO2 RAB44E53 SLP098 P0000 T01890000 403330117,M
WMC,2025-06-02 07:56,-117.8072,40.9019,1315.00,59.00,20.00,21.80,350.00,11.00,0.00,30.05,1012.70,10.00,M,CLR,M,M,M,M,M,M,M,M,M,M,M,M,M,M,59.00,KWMC 020756Z AUTO 35011KT 10SM CLR 15/M07 A3005 RMK AO2 SLP127 T01501067 403280144 TSNO,M
HND,2025-06-02 07:56,-115.1344,35.9729,742.79,79.00,52.00,39.11,150.00,6.00,0.00,29.92,1011.60,10.00,M,OVC,M,M,M,12000.00,M,M,M,M,M,M,M,M,M,M,79.00,KHND 020756Z AUTO 15006KT 10SM OVC120 26/11 A2992 RMK AO2 SLP116 T02610111 $,M
TPH,2025-06-02 07:56,-117.0904,38.0505,1654.00,M,M,M,M,M,0.00,30.02,M,M,M,M,M,M,M,M,M,M,M,M,M,M,M,M,M,M,M,KTPH 020756Z AUTO A3002 RMK AO2 SLPNO PWINO $,M
LAS,2025-06-02 07:56,-115.1634,36.0719,663.00,81.00,52.00,36.64,150.00,5.00,0.00,29.89,1009.30,10.00,M,BKN,OVC,M,M,13000.00,17000.00,M,M,M,M,M,M,M,M,M,80.34,KLAS 020756Z 15005KT 10SM BKN130 OVC170 27/11 A2989 RMK AO2 SLP093 T02720111 403720272 $,M
NFL,2025-06-02 07:57,-118.7010,39.4166,1199.00,67.00,30.00,24.97,330.00,6.00,0.00,29.97,1012.20,10.00,M,CLR,M,M,M,M,M,M,M,M,M,M,M,M,M,M,67.00,KNFL 020757Z AUTO 33006KT 10SM CLR 19/M01 A2997 RMK AO2 SLP122 T01941011 403670144,M
TMT,2025-06-02 08:10,-117.1971,39.4643,1749.34,59.00,35.80,41.75,280.00,7.00,0.00,30.05,M,10.00,M,CLR,M,M,M,M,M,M,M,M,M,M,M,M,M,M,59.00,KTMT 020810Z AUTO 28007KT 10SM CLR 15/02 A3005 RMK AO2 T01500021,M
BVU,2025-06-02 08:15,-114.8611,35.9475,671.00,78.80,55.40,44.58,140.00,9.00,0.00,29.89,M,10.00,M,SCT,BKN,OVC,M,3500.00,6500.00,7500.00,M,M,M,M,M,M,M,M,78.80,KBVU 020815Z AUTO 14009KT 10SM SCT035 BKN065 OVC075 26/13 A2989 RMK AO2,M
BAM,2025-06-02 08:15,-116.8743,40.5990,1382.36,64.40,32.00,29.63,320.00,9.00,0.00,30.03,M,10.00,14.00,CLR,M,M,M,M,M,M,M,M,M,M,M,M,M,M,64.40,KBAM 020815Z AUTO 32009G14KT 10SM CLR 18/00 A3003 RMK AO1,M
CXP,2025-06-02 08:15,-119.7326,39.1923,1431.00,68.00,28.40,22.60,340.00,10.00,0.00,30.04,M,10.00,M,CLR,M,M,M,M,M,M,M,M,M,M,M,M,M,M,68.00,KCXP 020815Z AUTO 34010KT 10SM CLR 20/M02 A3004 RMK AO2,M
RTS,2025-06-02 08:15,-119.8764,39.6682,1539.00,59.00,24.80,26.69,310.00,4.00,0.00,30.08,M,10.00,M,CLR,M,M,M,M,M,M,M,M,M,M,M,M,M,M,59.00,KRTS 020815Z AUTO 31004KT 10SM CLR 15/M04 A3008 RMK AO2,M
MEV,2025-06-02 08:15,-119.7500,38.9963,1441.42,48.20,35.60,61.50,140.00,4.00,0.00,30.03,M,10.00,M,CLR,M,M,M,M,M,M,M,M,M,M,M,M,M,M,46.34,KMEV 020815Z AUTO 14004KT 10SM CLR 09/02 A3003 RMK AO2,M
HTH,2025-06-02 08:15,-118.6315,38.5448,1282.89,73.40,37.40,27.00,320.00,14.00,0.00,29.99,M,9.00,19.00,CLR,M,M,M,M,M,M,M,M,M,M,M,M,M,M,73.40,KHTH 020815Z AUTO 32014G19KT 9SM CLR 23/03 A2999 RMK A01,M
RTS,2025-06-02 08:25,-119.8764,39.6682,1539.00,59.00,24.80,26.69,330.00,8.00,0.00,30.08,M,10.00,M,M,M,M,M,M,M,M,M,M,M,M,M,M,M,M,59.00,KRTS 020825Z AUTO 33008KT 10SM 15/M04 A3008 RMK AO2,M
MEV,2025-06-02 08:25,-119.7500,38.9963,1441.42,48.20,33.80,57.25,0.00,0.00,0.00,30.03,M,10.00,M,CLR,M,M,M,M,M,M,M,M,M,M,M,M,M,M,48.20,KMEV 020825Z AUTO 00000KT 10SM CLR 09/01 A3003 RMK AO2,M
TMT,2025-06-02 08:30,-117.1971,39.4643,1749.34,57.70,37.00,45.87,300.00,9.00,0.00,30.06,M,10.00,M,CLR,M,M,M,M,M,M,M,M,M,M,M,M,M,M,57.70,KTMT 020830Z AUTO 30009KT 10SM CLR 14/03 A3006 RMK AO2 T01430028,M
BVU,2025-06-02 08:35,-114.8611,35.9475,671.00,77.00,59.00,53.86,140.00,8.00,0.00,29.90,M,10.00,M,FEW,BKN,OVC,M,3200.00,4900.00,7500.00,M,-RA,M,M,M,M,M,M,77.00,KBVU 020835Z AUTO 14008KT 10SM -RA FEW032 BKN049 OVC075 25/15 A2990 RMK AO2,M
BAM,2025-06-02 08:35,-116.8743,40.5990,1382.36,64.40,32.00,29.63,0.00,0.00,0.00,30.03,M,10.00,M,CLR,M,M,M,M,M,M,M,M,M,M,M,M,M,M,64.40,KBAM 020835Z AUTO 00000KT 10SM CLR 18/00 A3003 RMK AO1,M
CXP,2025-06-02 08:35,-119.7326,39.1923,1431.00,68.00,28.40,22.60,340.00,9.00,0.00,30.05,M,10.00,M,CLR,M,M,M,M,M,M,M,M,M,M,M,M,M,M,68.00,KCXP 020835Z AUTO 34009KT 10SM CLR 20/M02 A3005 RMK AO2,M
HTH,2025-06-02 08:35,-118.6315,38.5448,1282.89,71.60,35.60,26.72,320.00,14.00,0.00,29.98,M,9.00,M,CLR,M,M,M,M,M,M,M,M,M,M,M,M,M,M,71.60,KHTH 020835Z AUTO 32014KT 9SM CLR 22/02 A2998 RMK A01,M
TMT,2025-06-02 08:50,-117.1971,39.4643,1749.34,59.00,36.50,42.92,300.00,8.00,0.00,30.06,M,10.00,M,CLR,M,M,M,M,M,M,M,M,M,M,M,M,M,M,59.00,KTMT 020850Z AUTO 30008KT 10SM CLR 15/03 A3006 RMK AO2 T01500025,M
P68,2025-06-02 08:53,-116.0056,39.6014,1993.00,59.00,38.00,45.53,0.00,0.00,0.00,30.04,1008.00,M,M,M,M,M,M,M,M,M,M,M,M,M,M,M,M,M,59.00,KP68 020853Z AUTO 00000KT 15/03 A3004 RMK AO1 SLP080 T01500033 51004,M
DRA,2025-06-02 08:53,-116.0278,36.6206,1009.00,76.00,50.00,40.10,120.00,8.00,0.00,29.90,1007.30,10.00,M,CLR,M,M,M,M,M,M,M,M,M,M,M,M,M,M,76.00,KDRA 020853Z AUTO 12008KT 10SM CLR 24/10 A2990 RMK AO2 SLP073 T02440100 50005 $,M
ELY,2025-06-02 08:53,-114.8453,39.2950,1909.00,M,M,M,180.00,9.00,T,30.06,M,10.00,M,CLR,M,M,M,M,M,M,M,M,M,M,M,M,M,M,M,KELY 020853Z AUTO 18009KT 10SM CLR A3006 RMK AO2 RAE0754 SLPNO P0000 60000 58012 $,M
VGT,2025-06-02 08:53,-115.1933,36.2111,667.00,81.00,51.00,35.31,110.00,8.00,0.00,29.89,1010.70,10.00,M,BKN,M,M,M,11000.00,M,M,M,M,M,M,M,M,M,M,80.23,KVGT 020853Z AUTO 11008KT 10SM BKN110 27/11 A2989 RMK AO2 SLP107 T02720106 53007,M
LOL,2025-06-02 08:53,-118.5701,40.0684,1192.43,64.00,23.00,20.74,50.00,8.00,0.00,30.00,1011.30,10.00,M,CLR,M,M,M,M,M,M,M,M,M,M,M,M,M,M,64.00,KLOL 020853Z AUTO 05008KT 10SM CLR 18/M05 A3000 RMK AO2 SLP113 T01781050 51019,M
BVU,2025-06-02 08:55,-114.8611,35.9475,671.00,75.20,59.00,57.17,130.00,9.00,0.00,29.90,M,10.00,M,FEW,SCT,BKN,M,4700.00,6500.00,7500.00,M,M,M,M,M,M,M,M,75.20,KBVU 020855Z AUTO 13009KT 10SM FEW047 SCT065 BKN075 24/15 A2990 RMK AO2,M
INS,2025-06-02 08:55,-115.6733,36.5872,955.00,77.00,49.60,38.22,120.00,9.00,0.00,29.90,1006.40,10.00,M,BKN,M,M,M,13000.00,M,M,M,M,M,M,M,28.00,100.00,2025-06-02 08:11,77.00,KINS 020855Z AUTO 12009KT 10SM BKN130 25/10 A2990 RMK AO2 PK WND 10028/11 SLP064 T02510098 50005 $,M
RNO,2025-06-02 08:55,-119.7711,39.4839,1341.00,66.00,29.00,24.81,320.00,3.00,0.00,30.04,1011.20,10.00,M,CLR,M,M,M,M,M,M,M,M,M,M,M,M,M,M,66.00,KRNO 020855Z 32003KT 10SM CLR 19/M02 A3004 RMK AO2 SLP112 T01891017 51013,M
BAM,2025-06-02 08:55,-116.8743,40.5990,1382.36,62.60,32.00,31.56,320.00,9.00,0.00,30.04,M,10.00,M,CLR,M,M,M,M,M,M,M,M,M,M,M,M,M,M,62.60,KBAM 020855Z AUTO 32009KT 10SM CLR 17/00 A3004 RMK AO1,M
CXP,2025-06-02 08:55,-119.7326,39.1923,1431.00,66.20,28.40,24.04,350.00,9.00,0.00,30.05,M,10.00,16.00,CLR,M,M,M,M,M,M,M,M,M,M,M,M,M,M,66.20,KCXP 020855Z AUTO 35009G16KT 10SM CLR 19/M02 A3005 RMK AO2,M
LSV,2025-06-02 08:55,-115.0343,36.2362,570.00,82.60,50.50,32.91,100.00,3.00,0.00,29.85,1007.70,10.00,M,BKN,M,M,M,10000.00,M,M,M,M,M,M,M,M,M,M,81.18,KLSV 020855Z AUTO 10003KT 10SM BKN100 28/10 A2985 RMK AO2 SLP077 T02810103 51007 $,M
RTS,2025-06-02 08:55,-119.8764,39.6682,1539.00,57.20,23.00,26.40,320.00,7.00,0.00,30.08,M,10.00,M,CLR,M,M,M,M,M,M,M,M,M,M,M,M,M,M,57.20,KRTS 020855Z AUTO 32007KT 10SM CLR 14/M05 A3008 RMK AO2,M
MEV,2025-06-02 08:55,-119.7500,38.9963,1441.42,48.20,37.40,66.04,150.00,3.00,0.00,30.04,M,10.00,M,CLR,M,M,M,M,M,M,M,M,M,M,M,M,M,M,47.21,KMEV 020855Z AUTO 15003KT 10SM CLR 09/03 A3004 RMK AO2,M
HTH,2025-06-02 08:55,-118.6315,38.5448,1282.89,71.60,37.40,28.69,320.00,13.00,0.00,29.99,M,10.00,19.00,CLR,M,M,M,M,M,M,M,M,M,M,M,M,M,M,71.60,KHTH 020855Z AUTO 32013G19KT 10SM CLR 22/03 A2999 RMK A01,M
EKO,2025-06-02 08:56,-115.7860,40.8242,1367.00,62.00,35.00,36.36,0.00,0.00,0.00,30.01,1010.00,10.00,M,CLR,M,M,M,M,M,M,M,M,M,M,M,M,M,M,62.00,KEKO 020856Z AUTO 00000KT 10SM CLR 17/02 A3001 RMK AO2 SLP100 60000 T01670017 50009,M
WMC,2025-06-02 08:56,-117.8072,40.9019,1315.00,57.00,20.00,23.42,350.00,12.00,0.00,30.06,1013.10,10.00,M,CLR,M,M,M,M,M,M,M,M,M,M,M,M,M,M,57.00,KWMC 020856Z AUTO 35012KT 10SM CLR 14/M07 A3006 RMK AO2 SLP131 T01391067 51011 TSNO,M
HND,2025-06-02 08:56,-115.1344,35.9729,742.79,77.00,54.00,44.95,150.00,9.00,T,29.92,1011.80,10.00,M,OVC,M,M,M,10000.00,M,M,M,-RA,M,M,M,M,M,M,77.00,KHND 020856Z AUTO 15009KT 10SM -RA OVC100 25/12 A2992 RMK AO2 RAB51 SLP118 P0000 60000 T02500122 51008 $,M
TPH,2025-06-02 08:56,-117.0904,38.0505,1654.00,66.00,44.00,44.90,10.00,7.00,0.00,30.04,1008.10,10.00,M,M,M,M,M,M,M,M,M,M,M,M,M,M,M,M,66.00,KTPH 020856Z AUTO 01007KT 10SM 19/07 A3004 RMK AO2 SLP081 T01890067 55002 $,M
LAS,2025-06-02 08:56,-115.1634,36.0719,663.00,80.00,52.00,37.85,110.00,7.00,0.00,29.91,1010.00,10.00,M,OVC,M,M,M,11000.00,M,M,M,M,M,M,M,M,M,M,79.76,KLAS 020856Z 11007KT 10SM OVC110 27/11 A2991 RMK AO2 SLP100 T02670111 53013 $,M
NFL,2025-06-02 08:57,-118.7010,39.4166,1199.00,65.00,29.00,25.69,340.00,8.00,0.00,29.98,1012.40,10.00,M,CLR,M,M,M,M,M,M,M,M,M,M,M,M,M,M,65.00,KNFL 020857Z AUTO 34008KT 10SM CLR 18/M02 A2998 RMK AO2 SLP124 T01831017 51014,M
TMT,2025-06-02 09:10,-117.1971,39.4643,1749.34,57.40,35.80,44.21,290.00,6.00,0.00,30.07,M,10.00,M,CLR,M,M,M,M,M,M,M,M,M,M,M,M,M,M,57.40,KTMT 020910Z AUTO 29006KT 10SM CLR 14/02 A3007 RMK AO2 T01410021,M
BVU,2025-06-02 09:15,-114.8611,35.9475,671.00,75.20,60.80,60.96,130.00,10.00,0.00,29.90,M,10.00,M,FEW,SCT,BKN,M,4500.00,6500.00,7500.00,M,-RA,M,M,M,M,M,M,75.20,KBVU 020915Z AUTO 13010KT 10SM -RA FEW045 SCT065 BKN075 24/16 A2990 RMK AO2,M
CXP,2025-06-02 09:15,-119.7326,39.1923,1431.00,68.00,26.60,20.98,20.00,11.00,0.00,30.05,M,10.00,19.00,CLR,M,M,M,M,M,M,M,M,M,M,M,M,M,M,68.00,KCXP 020915Z AUTO 02011G19KT 10SM CLR 20/M03 A3005 RMK AO2,M
RTS,2025-06-02 09:15,-119.8764,39.6682,1539.00,59.00,21.20,22.94,350.00,10.00,0.00,30.09,M,10.00,M,CLR,M,M,M,M,M,M,M,M,M,M,M,M,M,M,59.00,KRTS 020915Z AUTO 35010KT 10SM CLR 15/M06 A3009 RMK AO2,M
MEV,2025-06-02 09:15,-119.7500,38.9963,1441.42,46.40,35.60,65.82,0.00,0.00,0.00,30.04,M,10.00,M,FEW,FEW,FEW,M,3400.00,4000.00,4700.00,M,M,M,M,M,M,M,M,46.40,KMEV 020915Z AUTO 00000KT 10SM FEW034 FEW040 FEW047 08/02 A3004 RMK AO2,M
BAM,2025-06-02 09:15,-116.8743,40.5990,1382.36,62.60,30.20,29.34,330.00,6.00,0.00,30.04,M,10.00,15.00,CLR,M,M,M,M,M,M,M,M,M,M,M,M,M,M,62.60,KBAM 020915Z AUTO 33006G15KT 10SM CLR 17/M01 A3004 RMK AO1,M
HTH,2025-06-02 09:15,-118.6315,38.5448,1282.89,69.80,37.40,30.50,320.00,14.00,0.00,29.99,M,10.00,M,CLR,M,M,M,M,M,M,M,M,M,M,M,M,M,M,69.80,KHTH 020915Z AUTO 32014KT 10SM CLR 21/03 A2999 RMK A01,M
TMT,2025-06-02 09:30,-117.1971,39.4643,1749.34,55.40,35.60,47.15,280.00,5.00,0.00,30.08,M,10.00,M,CLR,M,M,M,M,M,M,M,M,M,M,M,M,M,M,55.40,KTMT 020930Z AUTO 28005KT 10SM CLR 13/02 A3008 RMK AO2 T01300020,M
BVU,2025-06-02 09:35,-114.8611,35.9475,671.00,73.40,60.80,64.74,120.00,8.00,0.00,29.91,M,10.00,M,BKN,BKN,OVC,M,3500.00,4500.00,7500.00,M,-RA,M,M,M,M,M,M,73.40,KBVU 020935Z AUTO 12008KT 10SM -RA BKN035 BKN045 OVC075 23/16 A2991 RMK AO2,M
BAM,2025-06-02 09:35,-116.8743,40.5990,1382.36,62.60,30.20,29.34,320.00,10.00,0.00,30.04,M,10.00,M,CLR,M,M,M,M,M,M,M,M,M,M,M,M,M,M,62.60,KBAM 020935Z AUTO 32010KT 10SM CLR 17/M01 A3004 RMK AO1,M
CXP,2025-06-02 09:35,-119.7326,39.1923,1431.00,66.20,26.60,22.32,340.00,5.00,0.00,30.05,M,10.00,13.00,CLR,M,M,M,M,M,M,M,M,M,M,M,M,M,M,66.20,KCXP 020935Z AUTO 34005G13KT 10SM CLR 19/M03 A3005 RMK AO2,M
RTS,2025-06-02 09:35,-119.8764,39.6682,1539.00,59.00,21.20,22.94,350.00,11.00,0.00,30.09,M,10.00,M,CLR,M,M,M,M,M,M,M,M,M,M,M,M,M,M,59.00,KRTS 020935Z AUTO 35011KT 10SM CLR 15/M06 A3009 RMK AO2,M
MEV,2025-06-02 09:35,-119.7500,38.9963,1441.42,44.60,33.80,65.59,130.00,5.00,0.00,30.05,M,10.00,M,FEW,FEW,FEW,M,3900.00,4500.00,5000.00,M,M,M,M,M,M,M,M,41.36,KMEV 020935Z AUTO 13005KT 10SM FEW039 FEW045 FEW050 07/01 A3005 RMK AO2,M
HTH,2025-06-02 09:35,-118.6315,38.5448,1282.89,69.80,37.40,30.50,330.00,17.00,0.00,29.99,M,10.00,M,CLR,M,M,M,M,M,M,M,M,M,M,M,M,M,M,69.80,KHTH 020935Z AUTO 33017KT 10SM CLR 21/03 A2999 RMK A01,M
TMT,2025-06-02 09:50,-117.1971,39.4643,1749.34,54.50,35.00,47.58,270.00,5.00,0.00,30.08,M,10.00,M,CLR,M,M,M,M,M,M,M,M,M,M,M,M,M,M,54.50,KTMT 020950Z AUTO 27005KT 10SM CLR 13/02 A3008 RMK AO2 T01250016,M
P68,2025-06-02 09:53,-116.0056,39.6014,1993.00,55.00,38.00,52.60,0.00,0.00,0.00,30.04,1009.10,M,M,M,M,M,M,M,M,M,M,M,M,M,M,M,M,M,55.00,KP68 020953Z AUTO 00000KT 13/03 A3004 RMK AO1 SLP091 T01280033,M
DRA,2025-06-02 09:53,-116.0278,36.6206,1009.00,76.00,50.00,40.10,130.00,10.00,0.00,29.90,1007.20,10.00,M,CLR,M,M,M,M,M,M,M,M,M,M,M,M,M,M,76.00,KDRA 020953Z AUTO 13010KT 10SM CLR 24/10 A2990 RMK AO2 SLP072 T02440100 $,M
ELY,2025-06-02 09:53,-114.8453,39.2950,1909.00,M,M,M,260.00,5.00,0.00,30.06,M,10.00,M,CLR,M,M,M,M,M,M,M,M,M,M,M,M,M,M,M,KELY 020953Z AUTO 26005KT 10SM CLR A3006 RMK AO2 SLPNO $,M
VGT,2025-06-02 09:53,-115.1933,36.2111,667.00,79.00,54.00,42.09,130.00,14.00,0.00,29.89,1011.00,10.00,M,CLR,M,M,M,M,M,M,M,M,M,M,M,M,M,M,79.00,KVGT 020953Z AUTO 13014KT 10SM CLR 26/12 A2989 RMK AO2 SLP110 T02610122,M
LOL,2025-06-02 09:53,-118.5701,40.0684,1192.43,63.00,19.00,18.13,30.00,12.00,0.00,30.01,1011.80,10.00,22.00,CLR,M,M,M,M,M,M,M,M,M,M,M,M,M,M,63.00,KLOL 020953Z AUTO 03012G22KT 10SM CLR 17/M07 A3001 RMK AO2 SLP118 T01721072,M
BVU,2025-06-02 09:55,-114.8611,35.9475,671.00,73.40,60.80,64.74,120.00,10.00,0.00,29.91,M,10.00,M,SCT,BKN,OVC,M,3300.00,3900.00,6000.00,M,-RA,M,M,M,M,M,M,73.40,KBVU 020955Z AUTO 12010KT 10SM -RA SCT033 BKN039 OVC060 23/16 A2991 RMK AO2,M
INS,2025-06-02 09:55,-115.6733,36.5872,955.00,76.00,49.00,38.63,110.00,10.00,0.00,29.90,1006.40,10.00,M,OVC,M,M,M,13000.00,M,M,M,M,M,M,M,M,M,M,76.00,KINS 020955Z AUTO 11010KT 10SM OVC130 24/10 A2990 RMK AO2 SLP064 T02440095 $,M
RNO,2025-06-02 09:55,-119.7711,39.4839,1341.00,65.00,26.00,22.70,330.00,6.00,0.00,30.05,1011.60,10.00,M,CLR,M,M,M,M,M,M,M,M,M,M,M,M,M,M,65.00,KRNO 020955Z 33006KT 10SM CLR 18/M03 A3005 RMK AO2 SLP116 T01831033,M
BAM,2025-06-02 09:55,-116.8743,40.5990,1382.36,60.80,32.00,33.64,350.00,9.00,0.00,30.05,M,10.00,15.00,CLR,M,M,M,M,M,M,M,M,M,M,M,M,M,M,60.80,KBAM 020955Z AUTO 35009G15KT 10SM CLR 16/00 A3005 RMK AO1,M
CXP,2025-06-02 09:55,-119.7326,39.1923,1431.00,66.20,26.60,22.32,20.00,10.00,0.00,30.05,M,10.00,M,CLR,M,M,M,M,M,M,M,M,M,M,M,M,M,M,66.20,KCXP 020955Z AUTO 02010KT 10SM CLR 19/M03 A3005 RMK AO2,M
LSV,2025-06-02 09:55,-115.0343,36.2362,570.00,79.70,55.80,43.92,140.00,14.00,0.00,29.85,1007.80,10.00,M,BKN,M,M,M,12000.00,M,M,M,M,M,M,M,M,M,M,79.70,KLSV 020955Z AUTO 14014KT 10SM BKN120 27/13 A2985 RMK AO2 SLP078 T02650132 $,M
RTS,2025-06-02 09:55,-119.8764,39.6682,1539.00,59.00,19.40,21.25,350.00,12.00,0.00,30.09,M,10.00,18.00,CLR,M,M,M,M,M,M,M,M,M,M,M,M,M,M,59.00,KRTS 020955Z AUTO 35012G18KT 10SM CLR 15/M07 A3009 RMK AO2,M
MEV,2025-06-02 09:55,-119.7500,38.9963,1441.42,46.40,35.60,65.82,100.00,5.00,0.00,30.05,M,10.00,M,CLR,M,M,M,M,M,M,M,M,M,M,M,M,M,M,43.50,KMEV 020955Z AUTO 10005KT 10SM CLR 08/02 A3005 RMK AO2,M
HTH,2025-06-02 09:55,-118.6315,38.5448,1282.89,69.80,32.00,24.60,320.00,16.00,0.00,29.99,M,10.00,23.00,FEW,M,M,M,4200.00,M,M,M,M,M,M,M,M,M,M,69.80,KHTH 020955Z AUTO 32016G23KT 10SM FEW042 21/M00 A2999 RMK A01,M
EKO,2025-06-02 09:56,-115.7860,40.8242,1367.00,62.00,28.00,27.39,360.00,5.00,0.00,30.04,1010.90,10.00,M,CLR,M,M,M,M,M,M,M,M,M,M,M,M,M,M,62.00,KEKO 020956Z AUTO 36005KT 10SM CLR 17/M02 A3004 RMK AO2 SLP109 T01671022,M
WMC,2025-06-02 09:56,-117.8072,40.9019,1315.00,54.00,21.00,27.25,350.00,8.00,0.00,30.08,1014.10,10.00,M,CLR,M,M,M,M,M,M,M,M,M,M,M,M,M,M,54.00,KWMC 020956Z AUTO 35008KT 10SM CLR 12/M06 A3008 RMK AO2 SLP141 T01221061 TSNO,M
HND,2025-06-02 09:56,-115.1344,35.9729,742.79,76.00,56.00,49.97,150.00,11.00,T,29.93,1012.00,10.00,M,OVC,M,M,M,8500.00,M,M,M,M,M,M,M,M,M,M,76.00,KHND 020956Z AUTO 15011KT 10SM OVC085 24/13 A2993 RMK AO2 RAE32 SLP120 P0000 T02440133 $,M
TPH,2025-06-02 09:56,-117.0904,38.0505,1654.00,62.00,44.00,51.64,M,M,0.00,30.04,1008.20,M,M,M,M,M,M,M,M,M,M,M,M,M,M,M,M,M,62.00,KTPH 020956Z AUTO 17/07 A3004 RMK AO2 SLP082 T01670067 PWINO $,M
LAS,2025-06-02 09:56,-115.1634,36.0719,663.00,78.00,54.00,43.49,100.00,5.00,0.00,29.92,1010.20,10.00,M,SCT,M,M,M,11000.00,M,M,M,M,M,M,M,M,M,M,78.00,KLAS 020956Z 10005KT 10SM SCT110 26/12 A2992 RMK AO2 SLP102 T02560122 $,M
NFL,2025-06-02 09:57,-118.7010,39.4166,1199.00,62.00,28.00,27.39,340.00,6.00,0.00,30.00,1013.00,10.00,M,CLR,M,M,M,M,M,M,M,M,M,M,M,M,M,M,62.00,KNFL 020957Z AUTO 34006KT 10SM CLR 17/M02 A3000 RMK AO2 SLP130 T01671022,M
TMT,2025-06-02 10:10,-117.1971,39.4643,1749.34,53.00,34.50,49.27,290.00,5.00,0.00,30.08,M,10.00,M,CLR,M,M,M,M,M,M,M,M,M,M,M,M,M,M,53.00,KTMT 021010Z AUTO 29005KT 10SM CLR 12/01 A3008 RMK AO2 T01170014,M
BVU,2025-06-02 10:15,-114.8611,35.9475,671.00,73.40,60.80,64.74,120.00,12.00,0.00,29.91,M,10.00,M,FEW,SCT,BKN,M,3700.00,5500.00,7500.00,M,M,M,M,M,M,M,M,73.40,KBVU 021015Z AUTO 12012KT 10SM FEW037 SCT055 BKN075 23/16 A2991 RMK AO2,M
BAM,2025-06-02 10:15,-116.8743,40.5990,1382.36,60.80,28.40,29.05,320.00,8.00,0.00,30.06,M,10.00,M,CLR,M,M,M,M,M,M,M,M,M,M,M,M,M,M,60.80,KBAM 021015Z AUTO 32008KT 10SM CLR 16/M02 A3006 RMK AO1,M
CXP,2025-06-02 10:15,-119.7326,39.1923,1431.00,64.40,26.60,23.77,M,6.00,0.00,30.06,M,10.00,11.00,CLR,M,M,M,M,M,M,M,M,M,M,M,M,M,M,64.40,KCXP 021015Z AUTO VRB06G11KT 10SM CLR 18/M03 A3006 RMK AO2,M
RTS,2025-06-02 10:15,-119.8764,39.6682,1539.00,57.20,19.40,22.66,340.00,10.00,0.00,30.10,M,10.00,M,CLR,M,M,M,M,M,M,M,M,M,M,M,M,M,M,57.20,KRTS 021015Z AUTO 34010KT 10SM CLR 14/M07 A3010 RMK AO2,M
MEV,2025-06-02 10:15,-119.7500,38.9963,1441.42,44.60,32.00,61.01,110.00,6.00,0.00,30.05,M,10.00,M,FEW,FEW,FEW,M,3800.00,4600.00,5500.00,M,M,M,M,M,M,M,M,40.71,KMEV 021015Z AUTO 11006KT 10SM FEW038 FEW046 FEW055 07/M00 A3005 RMK AO2,M
HTH,2025-06-02 10:15,-118.6315,38.5448,1282.89,69.80,33.80,26.44,320.00,14.00,0.00,30.00,M,10.00,M,FEW,SCT,M,M,3300.00,4300.00,M,M,M,M,M,M,M,M,M,69.80,KHTH 021015Z AUTO 32014KT 10SM FEW033 SCT043 21/01 A3000 RMK A01,M
TMT,2025-06-02 10:30,-117.1971,39.4643,1749.34,52.00,33.30,48.72,0.00,0.00,0.00,30.08,M,10.00,M,CLR,M,M,M,M,M,M,M,M,M,M,M,M,M,M,52.00,KTMT 021030Z AUTO 00000KT 10SM CLR 11/01 A3008 RMK AO2 T01120007,M
BVU,2025-06-02 10:35,-114.8611,35.9475,671.00,71.60,62.60,73.30,120.00,10.00,0.00,29.91,M,10.00,M,SCT,BKN,OVC,M,3900.00,7500.00,10000.00,M,-RA,M,M,M,M,M,M,71.60,KBVU 021035Z AUTO 12010KT 10SM -RA SCT039 BKN075 OVC100 22/17 A2991 RMK AO2,M
BAM,2025-06-02 10:35,-116.8743,40.5990,1382.36,60.80,26.60,26.98,320.00,8.00,0.00,30.07,M,10.00,M,CLR,M,M,M,M,M,M,M,M,M,M,M,M,M,M,60.80,KBAM 021035Z AUTO 32008KT 10SM CLR 16/M03 A3007 RMK AO1,M
CXP,2025-06-02 10:35,-119.7326,39.1923,1431.00,64.40,28.40,25.60,M,6.00,0.00,30.07,M,10.00,M,CLR,M,M,M,M,M,M,M,M,M,M,M,M,M,M,64.40,KCXP 021035Z AUTO VRB06KT 030V090 10SM CLR 18/M02 A3007 RMK AO2,M
RTS,2025-06-02 10:35,-119.8764,39.6682,1539.00,57.20,19.40,22.66,340.00,10.00,0.00,30.10,M,10.00,M,CLR,M,M,M,M,M,M,M,M,M,M,M,M,M,M,57.20,KRTS 021035Z AUTO 34010KT 10SM CLR 14/M07 A3010 RMK AO2,M
MEV,2025-06-02 10:35,-119.7500,38.9963,1441.42,42.80,32.00,65.36,110.00,5.00,0.00,30.05,M,10.00,M,FEW,SCT,M,M,4200.00,5500.00,M,M,M,M,M,M,M,M,M,39.22,KMEV 021035Z AUTO 11005KT 10SM FEW042 SCT055 06/00 A3005 RMK AO2,M
HTH,2025-06-02 10:35,-118.6315,38.5448,1282.89,68.00,33.80,28.12,300.00,13.00,0.00,30.00,M,10.00,M,BKN,BKN,M,M,3600.00,4400.00,M,M,M,M,M,M,M,M,M,68.00,KHTH 021035Z AUTO 30013KT 10SM BKN036 BKN044 20/01 A3000 RMK A01,M
CXP,2025-06-02 10:50,-119.7326,39.1923,1431.00,62.60,28.40,27.26,0.00,0.00,0.00,30.07,M,10.00,M,CLR,M,M,M,M,M,M,M,M,M,M,M,M,M,M,62.60,KCXP 021050Z AUTO 00000KT 10SM CLR 17/M02 A3007 RMK AO2,M
TMT,2025-06-02 10:50,-117.1971,39.4643,1749.34,46.00,30.70,54.89,0.00,0.00,0.00,30.09,M,10.00,M,CLR,M,M,M,M,M,M,M,M,M,M,M,M,M,M,46.00,KTMT 021050Z AUTO 00000KT 10SM CLR 08/M01 A3009 RMK AO2 T00781007,M
P68,2025-06-02 10:53,-116.0056,39.6014,1993.00,49.00,34.00,56.00,0.00,0.00,0.00,30.05,1010.10,M,M,M,M,M,M,M,M,M,M,M,M,M,M,M,M,M,49.00,KP68 021053Z AUTO 00000KT 09/01 A3005 RMK AO1 SLP101 T00940011,M
DRA,2025-06-02 10:53,-116.0278,36.6206,1009.00,75.00,50.00,41.45,190.00,3.00,0.00,29.90,1007.20,10.00,M,CLR,M,M,M,M,M,M,M,M,M,M,M,M,M,M,75.00,KDRA 021053Z AUTO 19003KT 10SM CLR 24/10 A2990 RMK AO2 SLP072 T02390100 $,M
ELY,2025-06-02 10:53,-114.8453,39.2950,1909.00,55.00,45.00,68.94,190.00,8.00,0.00,30.05,1007.20,10.00,M,CLR,M,M,M,M,M,M,M,M,M,M,M,M,M,M,55.00,KELY 021053Z AUTO 19008KT 10SM CLR 13/07 A3005 RMK AO2 SLP072 T01280072 $,M
VGT,2025-06-02 10:53,-115.1933,36.2111,667.00,76.00,58.00,53.71,140.00,13.00,0.00,29.88,1010.80,10.00,22.00,BKN,OVC,M,M,9500.00,12000.00,M,M,M,M,M,M,M,M,M,76.00,KVGT 021053Z AUTO 14013G22KT 10SM BKN095 OVC120 24/14 A2988 RMK AO2 SLP108 T02440144,M
LOL,2025-06-02 10:53,-118.5701,40.0684,1192.43,62.00,20.00,19.59,30.00,20.00,0.00,30.03,1012.50,10.00,26.00,CLR,M,M,M,M,M,M,M,M,M,M,M,26.00,30.00,2025-06-02 10:52,62.00,KLOL 021053Z AUTO 03020G26KT 10SM CLR 17/M07 A3003 RMK AO2 PK WND 03026/1052 SLP125 T01671067,M
BVU,2025-06-02 10:55,-114.8611,35.9475,671.00,69.80,62.60,77.93,120.00,7.00,0.00,29.91,M,10.00,M,SCT,BKN,OVC,M,3500.00,4700.00,10000.00,M,-RA,M,M,M,M,M,M,69.80,KBVU 021055Z AUTO 12007KT 10SM -RA SCT035 BKN047 OVC100 21/17 A2991 RMK AO2,M
RNO,2025-06-02 10:55,-119.7711,39.4839,1341.00,63.00,23.00,21.48,310.00,6.00,0.00,30.07,1012.50,10.00,M,CLR,M,M,M,M,M,M,M,M,M,M,M,M,M,M,63.00,KRNO 021055Z 31006KT 10SM CLR 17/M05 A3007 RMK AO2 SLP125 T01721050,M
BAM,2025-06-02 10:55,-116.8743,40.5990,1382.36,59.00,26.60,28.76,320.00,11.00,0.00,30.07,M,10.00,M,CLR,M,M,M,M,M,M,M,M,M,M,M,M,M,M,59.00,KBAM 021055Z AUTO 32011KT 10SM CLR 15/M03 A3007 RMK AO1,M
RTS,2025-06-02 10:55,-119.8764,39.6682,1539.00,55.40,19.40,24.19,340.00,10.00,0.00,30.11,M,10.00,M,CLR,M,M,M,M,M,M,M,M,M,M,M,M,M,M,55.40,KRTS 021055Z AUTO 34010KT 10SM CLR 13/M07 A3011 RMK AO2,M
MEV,2025-06-02 10:55,-119.7500,38.9963,1441.42,44.60,33.80,65.59,80.00,6.00,0.00,30.06,M,10.00,M,FEW,SCT,BKN,M,3600.00,4100.00,5000.00,M,M,M,M,M,M,M,M,40.71,KMEV 021055Z AUTO 08006KT 10SM FEW036 SCT041 BKN050 07/01 A3006 RMK AO2,M
HTH,2025-06-02 10:55,-118.6315,38.5448,1282.89,68.00,33.80,28.12,300.00,13.00,0.00,30.01,M,10.00,M,SCT,BKN,BKN,M,3800.00,4500.00,5000.00,M,M,M,M,M,M,M,M,68.00,KHTH 021055Z AUTO 30013KT 10SM SCT038 BKN045 BKN050 20/01 A3001 RMK A01,M
INS,2025-06-02 10:55,-115.6733,36.5872,955.00,75.60,50.00,40.63,90.00,13.00,0.00,29.88,1005.90,10.00,M,OVC,M,M,M,12000.00,M,M,M,M,M,M,M,M,M,M,75.60,KINS 021055Z AUTO 09013KT 10SM OVC120 24/10 A2988 RMK AO2 SLP059 T02420101 $,M
LSV,2025-06-02 10:55,-115.0343,36.2362,570.00,77.00,58.50,52.90,140.00,13.00,0.00,29.84,1007.60,10.00,M,CLR,M,M,M,M,M,M,M,M,M,M,M,M,M,M,77.00,KLSV 021055Z AUTO 14013KT 10SM CLR 25/15 A2984 RMK AO2 SLP076 T02500147 $,M
EKO,2025-06-02 10:56,-115.7860,40.8242,1367.00,56.00,31.00,38.37,0.00,0.00,0.00,30.06,1011.80,10.00,M,CLR,M,M,M,M,M,M,M,M,M,M,M,M,M,M,56.00,KEKO 021056Z AUTO 00000KT 10SM CLR 13/M01 A3006 RMK AO2 SLP118 T01331006,M
WMC,2025-06-02 10:56,-117.8072,40.9019,1315.00,52.00,23.00,31.91,340.00,9.00,0.00,30.09,1014.30,10.00,M,CLR,M,M,M,M,M,M,M,M,M,M,M,M,M,M,52.00,KWMC 021056Z AUTO 34009KT 10SM CLR 11/M05 A3009 RMK AO2 SLP143 T01111050 TSNO,M
HND,2025-06-02 10:56,-115.1344,35.9729,742.79,74.00,57.00,55.39,160.00,10.00,T,29.92,1012.00,10.00,M,OVC,M,M,M,11000.00,M,M,M,-RA,M,M,M,M,M,M,74.00,KHND 021056Z AUTO 16010KT 10SM -RA OVC110 23/14 A2992 RMK AO2 RAB27 SLP120 P0000 T02330139 $,M
TPH,2025-06-02 10:56,-117.0904,38.0505,1654.00,58.00,41.00,53.05,230.00,5.00,0.00,30.04,M,10.00,M,CLR,M,M,M,M,M,M,M,M,M,M,M,M,M,M,58.00,KTPH 021056Z AUTO 23005KT 10SM CLR 14/05 A3004 RMK AO2 SLPNO T01440050 $,M
LAS,2025-06-02 10:56,-115.1634,36.0719,663.00,76.00,58.00,53.71,120.00,5.00,0.00,29.91,1010.10,10.00,M,BKN,M,M,M,12000.00,M,M,M,M,M,M,M,M,M,M,76.00,KLAS 021056Z 12005KT 10SM BKN120 24/14 A2991 RMK AO2 SLP101 T02440144 $,M
NFL,2025-06-02 10:57,-118.7010,39.4166,1199.00,62.00,23.00,22.25,340.00,10.00,0.00,30.01,1013.40,4.00,18.00,CLR,M,M,M,M,M,M,M,HZ,M,M,M,M,M,M,62.00,KNFL 021057Z AUTO 34010G18KT 4SM HZ CLR 17/M05 A3001 RMK AO2 SLP134 T01671050,M
TMT,2025-06-02 11:10,-117.1971,39.4643,1749.34,48.40,32.00,52.85,0.00,0.00,0.00,30.09,M,10.00,M,CLR,M,M,M,M,M,M,M,M,M,M,M,M,M,M,48.40,KTMT 021110Z AUTO 00000KT 10SM CLR 09/00 A3009 RMK AO2 T00911001,M
BVU,2025-06-02 11:15,-114.8611,35.9475,671.00,69.80,62.60,77.93,110.00,6.00,0.00,29.91,M,9.00,M,SCT,BKN,OVC,M,3200.00,4400.00,10000.00,M,-RA,M,M,M,M,M,M,69.80,KBVU 021115Z AUTO 11006KT 9SM -RA SCT032 BKN044 OVC100 21/17 A2991 RMK AO2,M
BAM,2025-06-02 11:15,-116.8743,40.5990,1382.36,59.00,26.60,28.76,320.00,9.00,0.00,30.08,M,10.00,M,CLR,M,M,M,M,M,M,M,M,M,M,M,M,M,M,59.00,KBAM 021115Z AUTO 32009KT 10SM CLR 15/M03 A3008 RMK AO1,M
CXP,2025-06-02 11:15,-119.7326,39.1923,1431.00,60.80,26.60,26.98,340.00,7.00,0.00,30.08,M,10.00,M,CLR,M,M,M,M,M,M,M,M,M,M,M,M,M,M,60.80,KCXP 021115Z AUTO 34007KT 10SM CLR 16/M03 A3008 RMK AO2,M
RTS,2025-06-02 11:15,-119.8764,39.6682,1539.00,55.40,19.40,24.19,330.00,9.00,0.00,30.11,M,10.00,M,CLR,M,M,M,M,M,M,M,M,M,M,M,M,M,M,55.40,KRTS 021115Z AUTO 33009KT 10SM CLR 13/M07 A3011 RMK AO2,M
MEV,2025-06-02 11:15,-119.7500,38.9963,1441.42,46.40,32.00,56.99,80.00,4.00,0.00,30.06,M,10.00,M,FEW,FEW,SCT,M,3900.00,4900.00,6000.00,M,M,M,M,M,M,M,M,44.24,KMEV 021115Z AUTO 08004KT 10SM FEW039 FEW049 SCT060 08/00 A3006 RMK AO2,M
HTH,2025-06-02 11:15,-118.6315,38.5448,1282.89,66.20,33.80,29.92,310.00,13.00,0.00,30.02,M,10.00,M,BKN,OVC,M,M,4400.00,5000.00,M,M,M,M,M,M,M,M,M,66.20,KHTH 021115Z AUTO 31013KT 10SM BKN044 OVC050 19/01 A3002 RMK A01,M
RTS,2025-06-02 11:25,-119.8764,39.6682,1539.00,53.60,19.40,25.83,330.00,10.00,0.00,30.11,M,10.00,M,CLR,M,M,M,M,M,M,M,M,M,M,M,M,M,M,53.60,KRTS 021125Z AUTO 33010KT 10SM CLR 12/M07 A3011 RMK AO2,M
MEV,2025-06-02 11:25,-119.7500,38.9963,1441.42,46.40,32.00,56.99,0.00,0.00,0.00,30.07,M,10.00,M,SCT,M,M,M,5500.00,M,M,M,M,M,M,M,M,M,M,46.40,KMEV 021125Z AUTO 00000KT 10SM SCT055 08/00 A3007 RMK AO2,M
TMT,2025-06-02 11:30,-117.1971,39.4643,1749.34,42.80,30.00,60.27,170.00,3.00,0.00,30.10,M,10.00,M,CLR,M,M,M,M,M,M,M,M,M,M,M,M,M,M,41.03,KTMT 021130Z AUTO 17003KT 10SM CLR 06/M01 A3010 RMK AO2 T00601011,M
BVU,2025-06-02 11:35,-114.8611,35.9475,671.00,69.80,62.60,77.93,130.00,7.00,0.00,29.90,M,9.00,M,SCT,BKN,OVC,M,2700.00,3800.00,7500.00,M,-RA,M,M,M,M,M,M,69.80,KBVU 021135Z AUTO 13007KT 9SM -RA SCT027 BKN038 OVC075 21/17 A2990 RMK AO2,M
BAM,2025-06-02 11:35,-116.8743,40.5990,1382.36,57.20,26.60,30.68,330.00,9.00,0.00,30.08,M,10.00,15.00,CLR,M,M,M,M,M,M,M,M,M,M,M,M,M,M,57.20,KBAM 021135Z AUTO 33009G15KT 10SM CLR 14/M03 A3008 RMK AO1,M
CXP,2025-06-02 11:35,-119.7326,39.1923,1431.00,62.60,26.60,25.31,340.00,9.00,0.00,30.08,M,10.00,17.00,CLR,M,M,M,M,M,M,M,M,M,M,M,M,M,M,62.60,KCXP 021135Z AUTO 34009G17KT 10SM CLR 17/M03 A3008 RMK AO2,M
HTH,2025-06-02 11:35,-118.6315,38.5448,1282.89,66.20,32.00,27.84,300.00,10.00,0.00,30.03,M,10.00,16.00,OVC,M,M,M,4400.00,M,M,M,M,M,M,M,M,M,M,66.20,KHTH 021135Z AUTO 30010G16KT 10SM OVC044 19/M00 A3003 RMK A01,M
RTS,2025-06-02 11:45,-119.8764,39.6682,1539.00,53.60,19.40,25.83,320.00,9.00,0.00,30.12,M,10.00,M,CLR,M,M,M,M,M,M,M,M,M,M,M,M,M,M,53.60,KRTS 021145Z AUTO 32009KT 10SM CLR 12/M07 A3012 RMK AO2,M
LSV,2025-06-02 11:46,-115.0343,36.2362,570.00,75.20,60.80,60.96,150.00,9.00,0.00,29.86,1008.40,9.00,15.00,BKN,M,M,M,15000.00,M,M,M,-SHRA,M,M,M,M,M,M,75.20,KLSV 021146Z 15009G15KT 9SM -SHRA BKN150 24/16 A2986 RMK SLP084 $ RAB45,M
TMT,2025-06-02 11:50,-117.1971,39.4643,1749.34,44.00,31.30,60.69,150.00,4.00,0.00,30.10,M,10.00,M,CLR,M,M,M,M,M,M,M,M,M,M,M,M,M,M,41.43,KTMT 021150Z AUTO 15004KT 10SM CLR 07/00 A3010 RMK AO2 T00661004,M
P68,2025-06-02 11:53,-116.0056,39.6014,1993.00,47.00,34.00,60.37,0.00,0.00,0.00,30.07,1011.00,M,M,M,M,M,M,M,M,M,M,M,M,M,M,M,M,M,47.00,KP68 021153Z AUTO 00000KT 08/01 A3007 RMK AO1 SLP110 T00830011 10200 20078 53008,M
DRA,2025-06-02 11:53,-116.0278,36.6206,1009.00,73.00,49.00,42.70,290.00,4.00,0.00,29.92,1007.80,10.00,M,CLR,M,M,M,M,M,M,M,M,M,M,M,M,M,M,73.00,KDRA 021153Z AUTO 29004KT 10SM CLR 23/09 A2992 RMK AO2 SLP078 T02280094 10278 20228 53004 $,M
ELY,2025-06-02 11:53,-114.8453,39.2950,1909.00,52.00,44.00,74.06,180.00,8.00,0.00,30.06,1008.20,10.00,M,CLR,M,M,M,M,M,M,M,M,M,M,M,M,M,M,52.00,KELY 021153Z AUTO 18008KT 10SM CLR 11/07 A3006 RMK AO2 SLP082 60000 T01110067 55001 $,M
VGT,2025-06-02 11:53,-115.1933,36.2111,667.00,74.00,59.00,59.51,120.00,11.00,0.00,29.89,1011.20,10.00,M,FEW,SCT,BKN,M,7500.00,9000.00,11000.00,M,M,M,M,M,M,M,M,74.00,KVGT 021153Z AUTO 12011KT 10SM FEW075 SCT090 BKN110 23/15 A2989 RMK AO2 SLP112 T02330150 10278 20233 53000,M
LOL,2025-06-02 11:53,-118.5701,40.0684,1192.43,60.00,22.00,22.90,40.00,12.00,0.00,30.05,1013.20,10.00,M,CLR,M,M,M,M,M,M,M,M,M,M,M,M,M,M,60.00,KLOL 021153Z AUTO 04012KT 10SM CLR 16/M06 A3005 RMK AO2 SLP132 T01561056 10233 20150 53016,M
LSV,2025-06-02 11:54,-115.0343,36.2362,570.00,74.00,60.60,63.00,290.00,4.00,0.00,29.86,1008.40,10.00,M,BKN,M,M,M,15000.00,M,M,M,M,M,M,M,M,M,M,74.00,KLSV 021154Z 29004KT 10SM BKN150 23/16 A2986 RMK SHRAB45E52 SLP084 T02340159 10286 20234 53003 $,M
BVU,2025-06-02 11:55,-114.8611,35.9475,671.00,69.80,62.60,77.93,120.00,5.00,0.00,29.90,M,10.00,M,FEW,SCT,BKN,M,2700.00,7500.00,9500.00,M,M,M,M,M,M,M,M,69.80,KBVU 021155Z AUTO 12005KT 10SM FEW027 SCT075 BKN095 21/17 A2990 RMK AO2,M
INS,2025-06-02 11:55,-115.6733,36.5872,955.00,74.50,51.80,45.06,90.00,15.00,0.00,29.90,1006.60,10.00,M,BKN,OVC,M,M,15000.00,17000.00,M,M,M,M,M,M,M,M,M,74.50,KINS 021155Z AUTO 09015KT 10SM BKN150 OVC170 24/11 A2990 RMK AO2 SLP066 T02360110 10264 20234 58001 $,M
RNO,2025-06-02 11:55,-119.7711,39.4839,1341.00,61.00,23.00,23.05,340.00,6.00,0.00,30.09,1013.20,10.00,M,CLR,M,M,M,M,M,M,M,M,M,M,M,M,M,M,61.00,KRNO 021155Z 34006KT 10SM CLR 16/M05 A3009 RMK AO2 SLP132 T01611050 10222 20161 53013,M
BAM,2025-06-02 11:55,-116.8743,40.5990,1382.36,55.40,26.60,32.75,330.00,9.00,0.00,30.09,M,10.00,M,CLR,M,M,M,M,M,M,M,M,M,M,M,M,M,M,55.40,KBAM 021155Z AUTO 33009KT 10SM CLR 13/M03 A3009 RMK AO1,M
CXP,2025-06-02 11:55,-119.7326,39.1923,1431.00,60.80,28.40,29.05,M,4.00,0.00,30.09,M,10.00,M,CLR,M,M,M,M,M,M,M,M,M,M,M,M,M,M,60.80,KCXP 021155Z AUTO VRB04KT 10SM CLR 16/M02 A3009 RMK AO2,M
MEV,2025-06-02 11:55,-119.7500,38.9963,1441.42,42.80,33.80,70.27,110.00,4.00,0.00,30.07,M,10.00,M,SCT,M,M,M,6000.00,M,M,M,M,M,M,M,M,M,M,40.03,KMEV 021155Z AUTO 11004KT 10SM SCT060 06/01 A3007 RMK AO2,M
HTH,2025-06-02 11:55,-118.6315,38.5448,1282.89,66.20,26.60,22.32,320.00,10.00,0.00,30.03,M,10.00,15.00,OVC,M,M,M,4600.00,M,M,M,M,M,M,M,M,M,M,66.20,KHTH 021155Z AUTO 32010G15KT 10SM OVC046 19/M03 A3003 RMK A01,M
EKO,2025-06-02 11:56,-115.7860,40.8242,1367.00,55.00,25.00,31.09,90.00,4.00,0.00,30.07,1012.80,10.00,M,CLR,M,M,M,M,M,M,M,M,M,M,M,M,M,M,55.00,KEKO 021156Z AUTO 09004KT 10SM CLR 13/M04 A3007 RMK AO2 SLP128 60000 T01281039 10200 20122 51018,M
WMC,2025-06-02 11:56,-117.8072,40.9019,1315.00,51.00,24.00,34.53,340.00,9.00,0.00,30.10,1015.10,10.00,M,CLR,M,M,M,M,M,M,M,M,M,M,M,M,M,M,51.00,KWMC 021156Z AUTO 34009KT 10SM CLR 11/M04 A3010 RMK AO2 SLP151 T01061044 10178 20100 51013 TSNO,M
HND,2025-06-02 11:56,-115.1344,35.9729,742.79,72.00,59.00,63.65,170.00,13.00,T,29.92,1012.10,10.00,M,SCT,OVC,M,M,9000.00,11000.00,M,M,M,M,M,M,M,M,M,72.00,KHND 021156Z AUTO 17013KT 10SM SCT090 OVC110 22/15 A2992 RMK AO2 RAE07 SLP121 P0000 60000 T02220150 10261 20222 58001 $,M
TPH,2025-06-02 11:56,-117.0904,38.0505,1654.00,57.00,42.00,57.16,40.00,4.00,0.00,30.04,M,10.00,M,CLR,M,M,M,M,M,M,M,M,M,M,M,M,M,M,57.00,KTPH 021156Z AUTO 04004KT 10SM CLR 14/06 A3004 RMK AO2 SLPNO T01390056 53001 $,M
LAS,2025-06-02 11:56,-115.1634,36.0719,663.00,75.00,58.00,55.53,110.00,4.00,0.00,29.92,1010.40,10.00,M,SCT,BKN,M,M,9000.00,12000.00,M,M,M,M,M,M,M,M,M,75.00,KLAS 021156Z 11004KT 10SM SCT090 BKN120 24/14 A2992 RMK AO2 SLP104 T02390144 10272 20239 53000 $,M
NFL,2025-06-02 11:57,-118.7010,39.4166,1199.00,61.00,22.00,22.10,360.00,12.00,0.00,30.04,1014.00,3.00,M,CLR,M,M,M,M,M,M,M,HZ,M,M,M,M,M,M,61.00,KNFL 021157Z AUTO 36012KT 3SM HZ CLR 16/M06 A3004 RMK AO2 SLP140 T01611056 10222 20161 53017,M
MEV,2025-06-02 12:05,-119.7500,38.9963,1441.42,41.00,32.00,70.06,110.00,4.00,0.00,30.07,M,10.00,M,FEW,SCT,M,M,4500.00,5500.00,M,M,M,M,M,M,M,M,M,37.93,KMEV 021205Z AUTO 11004KT 10SM FEW045 SCT055 05/M00 A3007 RMK AO2,M
CXP,2025-06-02 12:10,-119.7326,39.1923,1431.00,62.60,24.80,23.49,360.00,9.00,0.00,30.09,M,10.00,15.00,CLR,M,M,M,M,M,M,M,M,M,M,M,M,M,M,62.60,KCXP 021210Z AUTO 36009G15KT 10SM CLR 17/M04 A3009 RMK AO2,M
TMT,2025-06-02 12:10,-117.1971,39.4643,1749.34,44.20,31.00,59.50,0.00,0.00,0.00,30.11,M,10.00,M,CLR,M,M,M,M,M,M,M,M,M,M,M,M,M,M,44.20,KTMT 021210Z AUTO 00000KT 10SM CLR 07/M01 A3011 RMK AO2 T00681006,M
NFL,2025-06-02 12:13,-118.7010,39.4166,1199.00,61.00,23.00,23.05,350.00,10.00,0.00,30.04,M,2.50,M,CLR,M,M,M,M,M,M,M,HZ,M,M,M,M,M,M,61.00,KNFL 021213Z AUTO 35010KT 2 1/2SM HZ CLR 16/M05 A3004 RMK AO2 T01611050,M
BVU,2025-06-02 12:15,-114.8611,35.9475,671.00,69.80,62.60,77.93,120.00,4.00,0.00,29.90,M,10.00,M,OVC,M,M,M,11000.00,M,M,M,M,M,M,M,M,M,M,69.80,KBVU 021215Z AUTO 12004KT 10SM OVC110 21/17 A2990 RMK AO2,M
BAM,2025-06-02 12:15,-116.8743,40.5990,1382.36,55.40,28.40,35.27,330.00,6.00,0.00,30.09,M,10.00,M,CLR,M,M,M,M,M,M,M,M,M,M,M,M,M,M,55.40,KBAM 021215Z AUTO 33006KT 10SM CLR 13/M02 A3009 RMK AO1,M
HTH,2025-06-02 12:15,-118.6315,38.5448,1282.89,64.40,33.80,31.86,300.00,13.00,0.00,30.04,M,10.00,M,OVC,M,M,M,4600.00,M,M,M,M,M,M,M,M,M,M,64.40,KHTH 021215Z AUTO 30013KT 10SM OVC046 18/01 A3004 RMK A01,M
LSV,2025-06-02 12:16,-115.0343,36.2362,570.00,73.40,60.80,64.74,0.00,0.00,0.00,29.86,1008.50,9.00,M,BKN,M,M,M,15000.00,M,M,M,-SHRA,M,M,M,M,M,M,73.40,KLSV 021216Z COR 00000KT 9SM -SHRA BKN150 23/16 A2986 RMK SLP085 RAB02 $ COR 1217,M
NFL,2025-06-02 12:24,-118.7010,39.4166,1199.00,60.00,23.00,23.88,340.00,10.00,0.00,30.05,M,1.75,M,FEW,M,M,M,500.00,M,M,M,HZ,M,M,M,M,M,M,60.00,KNFL 021224Z AUTO 34010KT 1 3/4SM HZ FEW005 16/M05 A3005 RMK AO2 T01561050,M
CXP,2025-06-02 12:30,-119.7326,39.1923,1431.00,57.20,28.40,33.04,0.00,0.00,0.00,30.10,M,10.00,10.00,CLR,M,M,M,M,M,M,M,M,M,M,M,M,M,M,57.20,KCXP 021230Z AUTO 00000G10KT 10SM CLR 14/M02 A3010 RMK AO2,M
TMT,2025-06-02 12:30,-117.1971,39.4643,1749.34,46.20,31.50,56.27,360.00,4.00,0.00,30.12,M,10.00,M,CLR,M,M,M,M,M,M,M,M,M,M,M,M,M,M,44.00,KTMT 021230Z AUTO 36004KT 10SM CLR 08/00 A3012 RMK AO2 T00791003,M
BVU,2025-06-02 12:35,-114.8611,35.9475,671.00,69.80,62.60,77.93,130.00,5.00,0.00,29.91,M,10.00,M,BKN,M,M,M,11000.00,M,M,M,M,M,M,M,M,M,M,69.80,KBVU 021235Z AUTO 13005KT 10SM BKN110 21/17 A2991 RMK AO2,M
BAM,2025-06-02 12:35,-116.8743,40.5990,1382.36,55.40,28.40,35.27,340.00,7.00,0.00,30.10,M,10.00,M,CLR,M,M,M,M,M,M,M,M,M,M,M,M,M,M,55.40,KBAM 021235Z AUTO 34007KT 10SM CLR 13/M02 A3010 RMK AO1,M
HTH,2025-06-02 12:35,-118.6315,38.5448,1282.89,64.40,28.40,25.60,310.00,17.00,0.00,30.05,M,10.00,23.00,FEW,M,M,M,4600.00,M,M,M,M,M,M,M,M,M,M,64.40,KHTH 021235Z AUTO 31017G23KT 10SM FEW046 18/M02 A3005 RMK A01,M
NFL,2025-06-02 12:38,-118.7010,39.4166,1199.00,60.00,23.00,23.88,340.00,11.00,0.00,30.05,M,1.00,21.00,VV ,M,M,M,600.00,M,M,M,HZ,M,M,M,M,M,M,60.00,KNFL 021238Z AUTO 34011G21KT 1SM HZ VV006 16/M05 A3005 RMK AO2 T01561050,M
TMT,2025-06-02 12:50,-117.1971,39.4643,1749.34,44.40,30.70,58.33,0.00,0.00,0.00,30.13,M,10.00,M,CLR,M,M,M,M,M,M,M,M,M,M,M,M,M,M,44.40,KTMT 021250Z AUTO 00000KT 10SM CLR 07/M01 A3013 RMK AO2 T00691007,M
NFL,2025-06-02 12:52,-118.7010,39.4166,1199.00,59.00,23.00,24.75,330.00,10.00,0.00,30.06,M,0.75,M,VV ,M,M,M,600.00,M,M,M,HZ,M,M,M,M,M,M,59.00,KNFL 021252Z AUTO 33010KT 3/4SM HZ VV006 15/M05 A3006 RMK AO2,M
P68,2025-06-02 12:53,-116.0056,39.6014,1993.00,52.00,36.00,54.25,0.00,0.00,0.00,30.10,1011.70,M,M,M,M,M,M,M,M,M,M,M,M,M,M,M,M,M,52.00,KP68 021253Z AUTO 00000KT 11/02 A3010 RMK AO1 SLP117 T01110022,M
DRA,2025-06-02 12:53,-116.0278,36.6206,1009.00,73.00,50.00,44.33,250.00,8.00,0.00,29.93,1008.40,10.00,M,CLR,M,M,M,M,M,M,M,M,M,M,M,M,M,M,73.00,KDRA 021253Z AUTO 25008KT 10SM CLR 23/10 A2993 RMK AO2 SLP084 T02280100 $,M
ELY,2025-06-02 12:53,-114.8453,39.2950,1909.00,52.00,43.00,71.28,160.00,8.00,0.00,30.08,1009.40,10.00,M,CLR,M,M,M,M,M,M,M,M,M,M,M,M,M,M,52.00,KELY 021253Z AUTO 16008KT 10SM CLR 11/06 A3008 RMK AO2 SLP094 T01110061 $,M
VGT,2025-06-02 12:53,-115.1933,36.2111,667.00,72.00,60.00,65.96,130.00,8.00,T,29.91,1012.10,10.00,M,FEW,BKN,OVC,M,7000.00,10000.00,12000.00,M,M,M,M,M,M,M,M,72.00,KVGT 021253Z AUTO 13008KT 10SM FEW070 BKN100 OVC120 22/16 A2991 RMK AO2 RAB30E51 SLP121 P0000 T02220156,M
LOL,2025-06-02 12:53,-118.5701,40.0684,1192.43,57.00,24.00,27.73,30.00,7.00,0.00,30.07,1014.20,10.00,M,CLR,M,M,M,M,M,M,M,M,M,M,M,M,M,M,57.00,KLOL 021253Z AUTO 03007KT 10SM CLR 14/M04 A3007 RMK AO2 SLP142 T01391044,M
BVU,2025-06-02 12:55,-114.8611,35.9475,671.00,69.80,62.60,77.93,120.00,4.00,0.00,29.91,M,10.00,M,FEW,BKN,M,M,8000.00,11000.00,M,M,M,M,M,M,M,M,M,69.80,KBVU 021255Z AUTO 12004KT 10SM FEW080 BKN110 21/17 A2991 RMK AO2,M
INS,2025-06-02 12:55,-115.6733,36.5872,955.00,72.00,56.50,58.18,110.00,11.00,0.00,29.92,1007.70,10.00,17.00,SCT,OVC,M,M,14000.00,17000.00,M,M,M,M,M,M,M,M,M,72.00,KINS 021255Z AUTO 11011G17KT 10SM SCT140 OVC170 22/14 A2992 RMK AO2 SLP077 T02230136 $,M
RNO,2025-06-02 12:55,-119.7711,39.4839,1341.00,61.00,23.00,23.05,320.00,3.00,0.00,30.10,1014.00,10.00,M,CLR,M,M,M,M,M,M,M,M,M,M,M,M,M,M,61.00,KRNO 021255Z 32003KT 10SM CLR 16/M05 A3010 RMK AO2 SLP140 T01611050,M
BAM,2025-06-02 12:55,-116.8743,40.5990,1382.36,53.60,28.40,37.66,330.00,7.00,0.00,30.11,M,10.00,M,CLR,M,M,M,M,M,M,M,M,M,M,M,M,M,M,53.60,KBAM 021255Z AUTO 33007KT 10SM CLR 12/M02 A3011 RMK AO1,M
CXP,2025-06-02 12:55,-119.7326,39.1923,1431.00,57.20,26.60,30.68,M,5.00,0.00,30.11,M,10.00,M,CLR,M,M,M,M,M,M,M,M,M,M,M,M,M,M,57.20,KCXP 021255Z AUTO VRB05KT 10SM CLR 14/M03 A3011 RMK AO2,M
RTS,2025-06-02 12:55,-119.8764,39.6682,1539.00,46.40,19.40,33.76,300.00,3.00,0.00,30.14,M,10.00,M,CLR,M,M,M,M,M,M,M,M,M,M,M,M,M,M,45.15,KRTS 021255Z AUTO 30003KT 10SM CLR 08/M07 A3014 RMK AO2,M
MEV,2025-06-02 12:55,-119.7500,38.9963,1441.42,41.00,32.00,70.06,120.00,3.00,0.00,30.10,M,10.00,M,CLR,M,M,M,M,M,M,M,M,M,M,M,M,M,M,38.98,KMEV 021255Z AUTO 12003KT 10SM CLR 05/00 A3010 RMK AO2,M
HTH,2025-06-02 12:55,-118.6315,38.5448,1282.89,64.40,30.20,27.55,320.00,13.00,0.00,30.06,M,10.00,20.00,CLR,M,M,M,M,M,M,M,M,M,M,M,M,M,M,64.40,KHTH 021255Z AUTO 32013G20KT 10SM CLR 18/M01 A3006 RMK A01,M
EKO,2025-06-02 12:56,-115.7860,40.8242,1367.00,53.00,27.00,36.34,0.00,0.00,0.00,30.09,1013.70,10.00,M,CLR,M,M,M,M,M,M,M,M,M,M,M,M,M,M,53.00,KEKO 021256Z AUTO 00000KT 10SM CLR 12/M03 A3009 RMK AO2 SLP137 T01171028,M
WMC,2025-06-02 12:56,-117.8072,40.9019,1315.00,49.00,24.00,37.20,340.00,12.00,0.00,30.12,1015.80,10.00,20.00,CLR,M,M,M,M,M,M,M,M,M,M,M,M,M,M,43.64,KWMC 021256Z AUTO 34012G20KT 10SM CLR 09/M04 A3012 RMK AO2 SLP158 T00941044 TSNO,M
HND,2025-06-02 12:56,-115.1344,35.9729,742.79,71.00,59.00,65.84,160.00,3.00,T,29.94,1012.70,10.00,M,SCT,OVC,M,M,10000.00,11000.00,M,M,M,M,M,M,M,M,M,71.00,KHND 021256Z 16003KT 10SM SCT100 OVC110 22/15 A2994 RMK AO2 RAB02E54 SLP127 P0000 T02170150 $,M
TPH,2025-06-02 12:56,-117.0904,38.0505,1654.00,55.00,42.00,61.46,340.00,6.00,0.00,30.06,M,10.00,M,CLR,M,M,M,M,M,M,M,M,M,M,M,M,M,M,55.00,KTPH 021256Z AUTO 34006KT 10SM CLR 13/06 A3006 RMK AO2 SLPNO T01280056 $,M
LAS,2025-06-02 12:56,-115.1634,36.0719,663.00,72.00,63.00,73.34,0.00,0.00,T,29.93,1010.90,9.00,M,SCT,BKN,M,M,9000.00,12000.00,M,M,-RA,M,M,M,M,M,M,72.00,KLAS 021256Z COR 00000KT 9SM -RA SCT090 BKN120 22/17 A2993 RMK AO2 RAB52 SLP109 P0000 T02220172 $,M
NFL,2025-06-02 12:57,-118.7010,39.4166,1199.00,59.00,24.00,25.81,330.00,9.00,0.00,30.06,1014.70,1.00,M,VV ,M,M,M,600.00,M,M,M,HZ,M,M,M,M,M,M,59.00,KNFL 021257Z AUTO 33009KT 1SM HZ VV006 15/M04 A3006 RMK AO2 SLP147 T01501044,M
NFL,2025-06-02 13:04,-118.7010,39.4166,1199.00,58.00,24.00,26.75,320.00,7.00,0.00,30.06,M,1.75,M,SCT,M,M,M,600.00,M,M,M,HZ,M,M,M,M,M,M,58.00,KNFL 021304Z AUTO 32007KT 1 3/4SM HZ SCT006 14/M04 A3006 RMK AO2 T01441044,M
MEV,2025-06-02 13:05,-119.7500,38.9963,1441.42,42.80,32.00,65.36,130.00,6.00,0.00,30.10,M,10.00,M,CLR,M,M,M,M,M,M,M,M,M,M,M,M,M,M,38.54,KMEV 021305Z AUTO 13006KT 10SM CLR 06/00 A3010 RMK AO2,M
CXP,2025-06-02 13:10,-119.7326,39.1923,1431.00,60.80,23.00,23.21,340.00,11.00,0.00,30.12,M,10.00,M,CLR,M,M,M,M,M,M,M,M,M,M,M,M,M,M,60.80,KCXP 021310Z AUTO 34011KT 10SM CLR 16/M05 A3012 RMK AO2,M
HTH,2025-06-02 13:10,-118.6315,38.5448,1282.89,64.40,26.60,23.77,310.00,11.00,0.00,30.07,M,10.00,19.00,CLR,M,M,M,M,M,M,M,M,M,M,M,M,M,M,64.40,KHTH 021310Z AUTO 31011G19KT 10SM CLR 18/M03 A3007 RMK A01,M
TMT,2025-06-02 13:10,-117.1971,39.4643,1749.34,49.30,32.40,51.94,0.00,0.00,0.00,30.13,M,10.00,M,CLR,M,M,M,M,M,M,M,M,M,M,M,M,M,M,49.30,KTMT 021310Z AUTO 00000KT 10SM CLR 10/00 A3013 RMK AO2 T00960002,M
NFL,2025-06-02 13:13,-118.7010,39.4166,1199.00,58.00,23.00,25.65,320.00,7.00,0.00,30.07,M,2.50,M,FEW,M,M,M,600.00,M,M,M,HZ,M,M,M,M,M,M,58.00,KNFL 021313Z AUTO 32007KT 2 1/2SM HZ FEW006 14/M05 A3007 RMK AO2 T01441050,M
BVU,2025-06-02 13:15,-114.8611,35.9475,671.00,69.80,62.60,77.93,150.00,4.00,0.00,29.91,M,9.00,M,FEW,FEW,SCT,M,6500.00,8000.00,11000.00,M,-RA,M,M,M,M,M,M,69.80,KBVU 021315Z AUTO 15004KT 9SM -RA FEW065 FEW080 SCT110 21/17 A2991 RMK AO2,M
BAM,2025-06-02 13:15,-116.8743,40.5990,1382.36,53.60,28.40,37.66,340.00,6.00,0.00,30.11,M,10.00,M,CLR,M,M,M,M,M,M,M,M,M,M,M,M,M,M,53.60,KBAM 021315Z AUTO 34006KT 10SM CLR 12/M02 A3011 RMK AO1,M
RTS,2025-06-02 13:15,-119.8764,39.6682,1539.00,48.20,21.20,34.06,330.00,6.00,0.00,30.15,M,10.00,M,CLR,M,M,M,M,M,M,M,M,M,M,M,M,M,M,45.04,KRTS 021315Z AUTO 33006KT 10SM CLR 09/M06 A3015 RMK AO2,M
LSV,2025-06-02 13:28,-115.0343,36.2362,570.00,73.40,62.60,68.99,M,4.00,0.00,29.88,1009.20,10.00,M,BKN,M,M,M,15000.00,M,M,M,M,M,M,M,M,M,M,73.40,KLSV 021328Z COR VRB04KT 10SM BKN150 23/17 A2988 RMK RAB1232E1238RAB1254E00 SLP092 $,M
NFL,2025-06-02 13:30,-118.7010,39.4166,1199.00,59.00,25.00,26.91,330.00,10.00,0.00,30.07,M,1.50,M,CLR,M,M,M,M,M,M,M,HZ,M,M,M,M,M,M,59.00,KNFL 021330Z AUTO 33010KT 1 1/2SM HZ CLR 15/M04 A3007 RMK AO2 T01501039,M
TMT,2025-06-02 13:30,-117.1971,39.4643,1749.34,50.50,33.60,52.12,0.00,0.00,0.00,30.14,M,10.00,M,CLR,M,M,M,M,M,M,M,M,M,M,M,M,M,M,50.50,KTMT 021330Z AUTO 00000KT 10SM CLR 10/01 A3014 RMK AO2 T01030009,M
NFL,2025-06-02 13:34,-118.7010,39.4166,1199.00,60.00,25.00,25.97,320.00,9.00,0.00,30.08,M,1.50,M,CLR,M,M,M,M,M,M,M,BLDU,M,M,M,M,M,M,60.00,KNFL 021334Z 32009KT 1 1/2SM BLDU CLR 16/M04 A3008 RMK AO2 T01561039,M
BVU,2025-06-02 13:35,-114.8611,35.9475,671.00,69.80,60.80,73.13,160.00,6.00,0.00,29.91,M,10.00,M,BKN,M,M,M,11000.00,M,M,M,M,M,M,M,M,M,M,69.80,KBVU 021335Z AUTO 16006KT 10SM BKN110 21/16 A2991 RMK AO2,M
BAM,2025-06-02 13:35,-116.8743,40.5990,1382.36,55.40,28.40,35.27,340.00,7.00,0.00,30.12,M,10.00,M,CLR,M,M,M,M,M,M,M,M,M,M,M,M,M,M,55.40,KBAM 021335Z AUTO 34007KT 10SM CLR 13/M02 A3012 RMK AO1,M
CXP,2025-06-02 13:35,-119.7326,39.1923,1431.00,59.00,28.40,30.98,110.00,4.00,0.00,30.13,M,10.00,M,CLR,M,M,M,M,M,M,M,M,M,M,M,M,M,M,59.00,KCXP 021335Z AUTO 11004KT 10SM CLR 15/M02 A3013 RMK AO2,M
RTS,2025-06-02 13:35,-119.8764,39.6682,1539.00,50.00,23.00,34.37,0.00,0.00,0.00,30.16,M,10.00,M,CLR,M,M,M,M,M,M,M,M,M,M,M,M,M,M,50.00,KRTS 021335Z AUTO 00000KT 10SM CLR 10/M05 A3016 RMK AO2,M
MEV,2025-06-02 13:35,-119.7500,38.9963,1441.42,50.00,32.00,49.79,130.00,4.00,0.00,30.11,M,10.00,M,CLR,M,M,M,M,M,M,M,M,M,M,M,M,M,M,50.00,KMEV 021335Z AUTO 13004KT 10SM CLR 10/00 A3011 RMK AO2,M
HTH,2025-06-02 13:35,-118.6315,38.5448,1282.89,64.40,21.20,18.96,340.00,16.00,0.00,30.08,M,10.00,M,CLR,M,M,M,M,M,M,M,M,M,M,M,M,M,M,64.40,KHTH 021335Z AUTO 34016KT 10SM CLR 18/M06 A3008 RMK A01,M
LSV,2025-06-02 13:39,-115.0343,36.2362,570.00,73.40,62.60,68.99,0.00,0.00,0.00,29.87,1008.90,10.00,M,BKN,M,M,M,15000.00,M,M,M,M,M,M,M,M,M,M,73.40,KLSV 021339Z 00000KT 10SM BKN150 23/17 A2987 RMK SLP089 $,M
NFL,2025-06-02 13:48,-118.7010,39.4166,1199.00,60.00,25.00,25.97,320.00,8.00,0.00,30.08,M,3.00,M,CLR,M,M,M,M,M,M,M,BLDU,M,M,M,M,M,M,60.00,KNFL 021348Z 32008KT 3SM BLDU CLR 16/M04 A3008 RMK AO2 T01561039,M
TMT,2025-06-02 13:50,-117.1971,39.4643,1749.34,53.80,34.50,47.84,0.00,0.00,0.00,30.14,M,10.00,M,CLR,M,M,M,M,M,M,M,M,M,M,M,M,M,M,53.80,KTMT 021350Z AUTO 00000KT 10SM CLR 12/01 A3014 RMK AO2 T01210014,M
P68,2025-06-02 13:53,-116.0056,39.6014,1993.00,58.00,35.00,41.92,M,3.00,0.00,30.12,1011.80,M,M,M,M,M,M,M,M,M,M,M,M,M,M,M,M,M,58.00,KP68 021353Z AUTO VRB03KT 14/02 A3012 RMK AO1 SLP118 T01440017,M
DRA,2025-06-02 13:53,-116.0278,36.6206,1009.00,74.00,50.00,42.86,210.00,6.00,0.00,29.94,1008.80,10.00,M,CLR,M,M,M,M,M,M,M,M,M,M,M,M,M,M,74.00,KDRA 021353Z AUTO 21006KT 10SM CLR 23/10 A2994 RMK AO2 SLP088 T02330100 $,M
ELY,2025-06-02 13:53,-114.8453,39.2950,1909.00,57.00,43.00,59.40,170.00,5.00,0.00,30.09,1009.80,10.00,M,CLR,M,M,M,M,M,M,M,M,M,M,M,M,M,M,57.00,KELY 021353Z AUTO 17005KT 10SM CLR 14/06 A3009 RMK AO2 SLP098 T01390061 $,M
VGT,2025-06-02 13:53,-115.1933,36.2111,667.00,72.00,62.00,70.81,110.00,5.00,T,29.92,1012.30,10.00,M,SCT,M,M,M,11000.00,M,M,M,M,M,M,M,M,M,M,72.00,KVGT 021353Z 11005KT 10SM SCT110 22/17 A2992 RMK AO2 RAB22E32 SLP123 P0000 T02220167,M
LOL,2025-06-02 13:53,-118.5701,40.0684,1192.43,60.00,24.00,24.91,50.00,16.00,0.00,30.08,1014.60,10.00,M,CLR,M,M,M,M,M,M,M,M,M,M,M,M,M,M,60.00,KLOL 021353Z AUTO 05016KT 10SM CLR 16/M04 A3008 RMK AO2 SLP146 T01561044,M
MEV,2025-06-02 13:55,-119.7500,38.9963,1441.42,55.40,33.80,43.89,110.00,3.00,0.00,30.12,M,10.00,M,CLR,M,M,M,M,M,M,M,M,M,M,M,M,M,M,55.40,KMEV 021355Z AUTO 11003KT 10SM CLR 13/01 A3012 RMK AO2,M
HTH,2025-06-02 13:55,-118.6315,38.5448,1282.89,64.40,21.20,18.96,330.00,15.00,0.00,30.09,M,10.00,20.00,CLR,M,M,M,M,M,M,M,M,M,M,M,M,M,M,64.40,KHTH 021355Z AUTO 33015G20KT 10SM CLR 18/M06 A3009 RMK A01,M
BVU,2025-06-02 13:55,-114.8611,35.9475,671.00,69.80,60.80,73.13,170.00,8.00,0.00,29.91,M,10.00,M,BKN,M,M,M,12000.00,M,M,M,M,M,M,M,M,M,M,69.80,KBVU 021355Z AUTO 17008KT 10SM BKN120 21/16 A2991 RMK AO2,M
INS,2025-06-02 13:55,-115.6733,36.5872,955.00,72.30,57.60,59.93,100.00,13.00,0.00,29.93,1008.30,10.00,M,FEW,SCT,M,M,17000.00,19000.00,M,M,M,M,M,M,M,M,M,72.30,KINS 021355Z AUTO 10013KT 10SM FEW170 SCT190 22/14 A2993 RMK AO2 SLP083 T02240142 $,M
RNO,2025-06-02 13:55,-119.7711,39.4839,1341.00,62.00,28.00,27.39,0.00,0.00,0.00,30.12,1014.60,10.00,M,CLR,M,M,M,M,M,M,M,M,M,M,M,M,M,M,62.00,KRNO 021355Z 00000KT 10SM CLR 17/M02 A3012 RMK AO2 SLP146 T01671022,M
BAM,2025-06-02 13:55,-116.8743,40.5990,1382.36,57.20,26.60,30.68,330.00,10.00,0.00,30.13,M,10.00,M,CLR,M,M,M,M,M,M,M,M,M,M,M,M,M,M,57.20,KBAM 021355Z AUTO 33010KT 10SM CLR 14/M03 A3013 RMK AO1,M
CXP,2025-06-02 13:55,-119.7326,39.1923,1431.00,59.00,28.40,30.98,60.00,4.00,0.00,30.13,M,10.00,M,CLR,M,M,M,M,M,M,M,M,M,M,M,M,M,M,59.00,KCXP 021355Z AUTO 06004KT 10SM CLR 15/M02 A3013 RMK AO2,M
LSV,2025-06-02 13:55,-115.0343,36.2362,570.00,72.70,63.50,72.90,0.00,0.00,0.00,29.88,1009.40,10.00,M,BKN,M,M,M,15000.00,M,M,M,M,M,M,M,M,M,M,72.70,KLSV 021355Z COR 00000KT 10SM BKN150 23/18 A2988 RMK A02A SLP094 60002 T02260175 52013 $ COR 1400,M
RTS,2025-06-02 13:55,-119.8764,39.6682,1539.00,53.60,23.00,30.09,310.00,5.00,0.00,30.16,M,10.00,M,CLR,M,M,M,M,M,M,M,M,M,M,M,M,M,M,53.60,KRTS 021355Z AUTO 31005KT 10SM CLR 12/M05 A3016 RMK AO2,M
EKO,2025-06-02 13:56,-115.7860,40.8242,1367.00,51.00,34.00,51.99,190.00,4.00,0.00,30.11,1015.00,10.00,M,CLR,M,M,M,M,M,M,M,M,M,M,M,M,M,M,51.00,KEKO 021356Z AUTO 19004KT 10SM CLR 11/01 A3011 RMK AO2 SLP150 T01060011,M
WMC,2025-06-02 13:56,-117.8072,40.9019,1315.00,51.00,23.00,33.11,340.00,15.00,0.00,30.14,1016.60,10.00,21.00,CLR,M,M,M,M,M,M,M,M,M,M,M,M,M,M,51.00,KWMC 021356Z AUTO 34015G21KT 10SM CLR 11/M05 A3014 RMK AO2 SLP166 T01061050 TSNO,M
HND,2025-06-02 13:56,-115.1344,35.9729,742.79,70.00,62.00,75.78,160.00,7.00,T,29.95,1013.20,10.00,M,OVC,M,M,M,10000.00,M,M,M,-RA,M,M,M,M,M,M,70.00,KHND 021356Z 16007KT 10SM -RA OVC100 21/17 A2995 RMK AO2 RAB1257 SLP132 P0000 T02110167 $,M
TPH,2025-06-02 13:56,-117.0904,38.0505,1654.00,61.00,45.00,55.58,360.00,7.00,0.00,30.07,M,10.00,M,CLR,M,M,M,M,M,M,M,M,M,M,M,M,M,M,61.00,KTPH 021356Z AUTO 36007KT 10SM CLR 16/07 A3007 RMK AO2 SLPNO T01610072 $,M
LAS,2025-06-02 13:56,-115.1634,36.0719,663.00,71.00,63.00,75.87,30.00,6.00,T,29.93,1011.20,10.00,M,SCT,BKN,M,M,9000.00,12000.00,M,M,M,M,M,M,M,M,M,71.00,KLAS 021356Z 03006KT 10SM SCT090 BKN120 22/17 A2993 RMK AO2 RAE33 SLP112 P0000 T02170172 $,M
NFL,2025-06-02 13:57,-118.7010,39.4166,1199.00,61.00,24.00,24.04,330.00,10.00,0.00,30.09,1015.50,6.00,M,FEW,M,M,M,10000.00,M,M,M,BLDU,M,M,M,M,M,M,61.00,KNFL 021357Z 33010KT 6SM BLDU FEW100 16/M04 A3009 RMK AO2 SLP155 T01611044,M
LSV,2025-06-02 14:00,-115.0343,36.2362,570.00,72.70,63.50,72.90,0.00,0.00,0.00,29.88,1009.40,10.00,M,BKN,M,M,M,15000.00,M,M,M,M,M,M,M,M,M,M,72.70,KLSV 021400Z 00000KT 10SM BKN150 23/18 A2988 RMK A02A SLP094 60002 T02260175 52013 $,M
RTS,2025-06-02 14:05,-119.8764,39.6682,1539.00,55.40,23.00,28.18,310.00,3.00,0.00,30.16,M,10.00,M,CLR,M,M,M,M,M,M,M,M,M,M,M,M,M,M,55.40,KRTS 021405Z AUTO 31003KT 10SM CLR 13/M05 A3016 RMK AO2,M
MEV,2025-06-02 14:05,-119.7500,38.9963,1441.42,57.20,32.00,38.25,0.00,0.00,0.00,30.12,M,10.00,M,CLR,M,M,M,M,M,M,M,M,M,M,M,M,M,M,57.20,KMEV 021405Z AUTO 00000KT 10SM CLR 14/00 A3012 RMK AO2,M
TMT,2025-06-02 14:10,-117.1971,39.4643,1749.34,56.00,32.00,39.95,0.00,0.00,0.00,30.15,M,10.00,M,CLR,M,M,M,M,M,M,M,M,M,M,M,M,M,M,56.00,KTMT 021410Z AUTO 00000KT 10SM CLR 13/00 A3015 RMK AO2 T01340000,M
BVU,2025-06-02 14:15,-114.8611,35.9475,671.00,69.80,60.80,73.13,160.00,4.00,0.00,29.92,M,10.00,M,SCT,M,M,M,12000.00,M,M,M,M,M,M,M,M,M,M,69.80,KBVU 021415Z AUTO 16004KT 10SM SCT120 21/16 A2992 RMK AO2,M
BAM,2025-06-02 14:15,-116.8743,40.5990,1382.36,59.00,28.40,30.98,330.00,11.00,0.00,30.13,M,10.00,M,CLR,M,M,M,M,M,M,M,M,M,M,M,M,M,M,59.00,KBAM 021415Z AUTO 33011KT 10SM CLR 15/M02 A3013 RMK AO1,M
CXP,2025-06-02 14:15,-119.7326,39.1923,1431.00,62.60,23.00,21.78,330.00,8.00,0.00,30.13,M,10.00,M,CLR,M,M,M,M,M,M,M,M,M,M,M,M,M,M,62.60,KCXP 021415Z AUTO 33008KT 10SM CLR 17/M05 A3013 RMK AO2,M
HTH,2025-06-02 14:15,-118.6315,38.5448,1282.89,64.40,21.20,18.96,320.00,15.00,0.00,30.09,M,10.00,M,CLR,M,M,M,M,M,M,M,M,M,M,M,M,M,M,64.40,KHTH 021415Z AUTO 32015KT 10SM CLR 18/M06 A3009 RMK A01,M
RTS,2025-06-02 14:25,-119.8764,39.6682,1539.00,57.20,23.00,26.40,0.00,0.00,0.00,30.16,M,10.00,M,CLR,M,M,M,M,M,M,M,M,M,M,M,M,M,M,57.20,KRTS 021425Z AUTO 00000KT 10SM CLR 14/M05 A3016 RMK AO2,M
MEV,2025-06-02 14:25,-119.7500,38.9963,1441.42,59.00,30.20,33.34,0.00,0.00,0.00,30.12,M,10.00,M,CLR,M,M,M,M,M,M,M,M,M,M,M,M,M,M,59.00,KMEV 021425Z AUTO 00000KT 10SM CLR 15/M01 A3012 RMK AO2,M
TMT,2025-06-02 14:30,-117.1971,39.4643,1749.34,57.60,32.00,37.71,0.00,0.00,0.00,30.15,M,10.00,M,CLR,M,M,M,M,M,M,M,M,M,M,M,M,M,M,57.60,KTMT 021430Z AUTO 00000KT 10SM CLR 14/00 A3015 RMK AO2 T01420000,M
BVU,2025-06-02 14:35,-114.8611,35.9475,671.00,69.80,62.60,77.93,150.00,11.00,0.00,29.92,M,10.00,M,FEW,M,M,M,11000.00,M,M,M,M,M,M,M,M,M,M,69.80,KBVU 021435Z AUTO 15011KT 10SM FEW110 21/17 A2992 RMK AO2,M
BAM,2025-06-02 14:35,-116.8743,40.5990,1382.36,59.00,28.40,30.98,320.00,7.00,0.00,30.13,M,10.00,M,CLR,M,M,M,M,M,M,M,M,M,M,M,M,M,M,59.00,KBAM 021435Z AUTO 32007KT 10SM CLR 15/M02 A3013 RMK AO1,M
CXP,2025-06-02 14:35,-119.7326,39.1923,1431.00,64.40,30.20,27.55,M,4.00,0.00,30.14,M,10.00,11.00,CLR,M,M,M,M,M,M,M,M,M,M,M,M,M,M,64.40,KCXP 021435Z AUTO VRB04G11KT 10SM CLR 18/M01 A3014 RMK AO2,M
HTH,2025-06-02 14:35,-118.6315,38.5448,1282.89,66.20,21.20,17.81,340.00,16.00,0.00,30.10,M,8.00,M,CLR,M,M,M,M,M,M,M,M,M,M,M,M,M,M,66.20,KHTH 021435Z AUTO 34016KT 8SM CLR 19/M06 A3010 RMK A01,M
TMT,2025-06-02 14:50,-117.1971,39.4643,1749.34,60.00,31.00,33.23,20.00,6.00,0.00,30.15,M,10.00,M,CLR,M,M,M,M,M,M,M,M,M,M,M,M,M,M,60.00,KTMT 021450Z AUTO 02006KT 10SM CLR 16/00 A3015 RMK AO2 T01551005,M
P68,2025-06-02 14:53,-116.0056,39.6014,1993.00,61.00,31.00,32.07,20.00,5.00,0.00,30.12,1012.20,M,M,M,M,M,M,M,M,M,M,M,M,M,M,M,M,M,61.00,KP68 021453Z AUTO 02005KT 16/M01 A3012 RMK AO1 SLP122 T01611006 51015,M
DRA,2025-06-02 14:53,-116.0278,36.6206,1009.00,76.00,53.00,44.80,160.00,5.00,0.00,29.95,1009.40,10.00,M,CLR,M,M,M,M,M,M,M,M,M,M,M,M,M,M,76.00,KDRA 021453Z AUTO 16005KT 10SM CLR 24/12 A2995 RMK AO2 SLP094 T02440117 53012 $,M
ELY,2025-06-02 14:53,-114.8453,39.2950,1909.00,63.00,41.00,44.42,M,M,0.00,30.10,1010.10,10.00,M,CLR,M,M,M,M,M,M,M,M,M,M,M,M,M,M,63.00,KELY 021453Z AUTO 10SM CLR 17/05 A3010 RMK AO2 SLP101 T01720050 51010 $,M
VGT,2025-06-02 14:53,-115.1933,36.2111,667.00,73.00,61.00,66.08,140.00,7.00,0.00,29.92,1012.70,10.00,M,CLR,M,M,M,M,M,M,M,M,M,M,M,M,M,M,73.00,KVGT 021453Z 14007KT 10SM CLR 23/16 A2992 RMK AO2 SLP127 60000 T02280161 51011,M
LOL,2025-06-02 14:53,-118.5701,40.0684,1192.43,63.00,23.00,21.48,50.00,11.00,0.00,30.09,1015.00,10.00,M,CLR,M,M,M,M,M,M,M,M,M,M,M,M,M,M,63.00,KLOL 021453Z AUTO 05011KT 10SM CLR 17/M05 A3009 RMK AO2 SLP150 T01721050 51013,M
BVU,2025-06-02 14:55,-114.8611,35.9475,671.00,69.80,62.60,77.93,150.00,6.00,0.00,29.93,M,10.00,M,CLR,M,M,M,M,M,M,M,M,M,M,M,M,M,M,69.80,KBVU 021455Z AUTO 15006KT 10SM CLR 21/17 A2993 RMK AO2,M
RNO,2025-06-02 14:55,-119.7711,39.4839,1341.00,63.00,25.00,23.36,20.00,4.00,0.00,30.13,1015.30,10.00,M,CLR,M,M,M,M,M,M,M,M,M,M,M,M,M,M,63.00,KRNO 021455Z 02004KT 10SM CLR 17/M04 A3013 RMK AO2 SLP153 T01721039 51014,M
BAM,2025-06-02 14:55,-116.8743,40.5990,1382.36,60.80,28.40,29.05,330.00,6.00,0.00,30.13,M,10.00,M,CLR,M,M,M,M,M,M,M,M,M,M,M,M,M,M,60.80,KBAM 021455Z AUTO 33006KT 10SM CLR 16/M02 A3013 RMK AO1,M
CXP,2025-06-02 14:55,-119.7326,39.1923,1431.00,64.40,26.60,23.77,0.00,0.00,0.00,30.14,M,10.00,M,CLR,M,M,M,M,M,M,M,M,M,M,M,M,M,M,64.40,KCXP 021455Z AUTO 00000KT 10SM CLR 18/M03 A3014 RMK AO2,M
RTS,2025-06-02 14:55,-119.8764,39.6682,1539.00,60.80,21.20,21.52,10.00,8.00,0.00,30.16,M,10.00,M,CLR,M,M,M,M,M,M,M,M,M,M,M,M,M,M,60.80,KRTS 021455Z AUTO 01008KT 10SM CLR 16/M06 A3016 RMK AO2,M
MEV,2025-06-02 14:55,-119.7500,38.9963,1441.42,62.60,30.20,29.34,0.00,0.00,0.00,30.13,M,10.00,M,CLR,M,M,M,M,M,M,M,M,M,M,M,M,M,M,62.60,KMEV 021455Z AUTO 00000KT 10SM CLR 17/M01 A3013 RMK AO2,M
HTH,2025-06-02 14:55,-118.6315,38.5448,1282.89,66.20,21.20,17.81,330.00,12.00,0.00,30.11,M,10.00,19.00,CLR,M,M,M,M,M,M,M,M,M,M,M,M,M,M,66.20,KHTH 021455Z AUTO 33012G19KT 10SM CLR 19/M06 A3011 RMK A01,M
INS,2025-06-02 14:55,-115.6733,36.5872,955.00,74.70,56.30,52.75,90.00,7.00,0.00,29.94,1008.60,10.00,M,BKN,M,M,M,17000.00,M,M,M,M,M,M,M,M,M,M,74.70,KINS 021455Z AUTO 09007KT 10SM BKN170 24/14 A2994 RMK AO2 SLP086 T02370135 52014 $,M
EKO,2025-06-02 14:56,-115.7860,40.8242,1367.00,60.00,25.00,25.97,0.00,0.00,0.00,30.11,1014.60,10.00,M,CLR,M,M,M,M,M,M,M,M,M,M,M,M,M,M,60.00,KEKO 021456Z AUTO 00000KT 10SM CLR 16/M04 A3011 RMK AO2 SLP146 T01561039 51010,M
WMC,2025-06-02 14:56,-117.8072,40.9019,1315.00,55.00,23.00,28.59,330.00,11.00,0.00,30.14,1016.90,10.00,M,CLR,M,M,M,M,M,M,M,M,M,M,M,M,M,M,55.00,KWMC 021456Z AUTO 33011KT 10SM CLR 13/M05 A3014 RMK AO2 SLP169 T01281050 51012 TSNO,M
HND,2025-06-02 14:56,-115.1344,35.9729,742.79,73.00,60.00,63.78,150.00,8.00,T,29.96,1013.60,10.00,M,CLR,M,M,M,M,M,M,M,M,M,M,M,M,M,M,73.00,KHND 021456Z 15008KT 10SM CLR 23/16 A2996 RMK AO2 RAE36 SLP136 P0000 60000 T02280156 51012 $,M
TPH,2025-06-02 14:56,-117.0904,38.0505,1654.00,66.00,45.00,46.64,M,M,0.00,30.08,M,M,M,M,M,M,M,M,M,M,M,M,M,M,M,M,M,M,66.00,KTPH 021456Z AUTO 19/07 A3008 RMK AO2 SLPNO T01890072 51010 $,M
LAS,2025-06-02 14:56,-115.1634,36.0719,663.00,73.00,60.00,63.78,100.00,3.00,0.00,29.94,1011.60,10.00,M,SCT,BKN,M,M,9000.00,11000.00,M,M,M,M,M,M,M,M,M,73.00,KLAS 021456Z 10003KT 10SM SCT090 BKN110 23/16 A2994 RMK AO2 SLP116 60000 T02280156 51008 $,M
NFL,2025-06-02 14:57,-118.7010,39.4166,1199.00,65.00,25.00,21.78,340.00,10.00,0.00,30.10,1015.90,6.00,M,CLR,M,M,M,M,M,M,M,HZ,M,M,M,M,M,M,65.00,KNFL 021457Z 34010KT 6SM HZ CLR 18/M04 A3010 RMK AO2 SLP159 BLDU ALOFT SE T01831039 53013,M
LSV,2025-06-02 14:58,-115.0343,36.2362,570.00,74.30,64.00,70.31,130.00,8.00,0.00,29.88,1009.40,10.00,M,FEW,BKN,M,M,3000.00,16000.00,M,M,M,M,M,M,M,M,M,74.30,KLSV 021458Z 13008KT 10SM FEW030 BKN160 24/18 A2988 RMK SLP094 60002 T02350177 52007 $,M
RTS,2025-06-02 15:05,-119.8764,39.6682,1539.00,60.80,21.20,21.52,350.00,5.00,0.00,30.16,M,10.00,M,CLR,M,M,M,M,M,M,M,M,M,M,M,M,M,M,60.80,KRTS 021505Z AUTO 35005KT 10SM CLR 16/M06 A3016 RMK AO2,M
MEV,2025-06-02 15:05,-119.7500,38.9963,1441.42,62.60,30.20,29.34,0.00,0.00,0.00,30.13,M,10.00,M,CLR,M,M,M,M,M,M,M,M,M,M,M,M,M,M,62.60,KMEV 021505Z AUTO 00000KT 10SM CLR 17/M01 A3013 RMK AO2,M
CXP,2025-06-02 15:10,-119.7326,39.1923,1431.00,66.20,24.80,20.72,350.00,7.00,0.00,30.14,M,10.00,12.00,CLR,M,M,M,M,M,M,M,M,M,M,M,M,M,M,66.20,KCXP 021510Z AUTO 35007G12KT 10SM CLR 19/M04 A3014 RMK AO2,M
TMT,2025-06-02 15:10,-117.1971,39.4643,1749.34,61.00,30.20,31.05,20.00,6.00,0.00,30.15,M,10.00,M,CLR,M,M,M,M,M,M,M,M,M,M,M,M,M,M,61.00,KTMT 021510Z AUTO 02006KT 10SM CLR 16/M01 A3015 RMK AO2 T01621010,M
BVU,2025-06-02 15:15,-114.8611,35.9475,671.00,69.80,60.80,73.13,140.00,6.00,0.00,29.93,M,10.00,M,SCT,M,M,M,12000.00,M,M,M,M,M,M,M,M,M,M,69.80,KBVU 021515Z AUTO 14006KT 10SM SCT120 21/16 A2993 RMK AO2,M
BAM,2025-06-02 15:15,-116.8743,40.5990,1382.36,60.80,28.40,29.05,330.00,7.00,0.00,30.13,M,10.00,M,CLR,M,M,M,M,M,M,M,M,M,M,M,M,M,M,60.80,KBAM 021515Z AUTO 33007KT 10SM CLR 16/M02 A3013 RMK AO1,M
HTH,2025-06-02 15:15,-118.6315,38.5448,1282.89,68.00,23.00,18.06,320.00,14.00,0.00,30.11,M,10.00,M,CLR,M,M,M,M,M,M,M,M,M,M,M,M,M,M,68.00,KHTH 021515Z AUTO 32014KT 10SM CLR 20/M05 A3011 RMK A01,M
TMT,2025-06-02 15:30,-117.1971,39.4643,1749.34,62.00,30.40,30.21,360.00,7.00,0.00,30.15,M,10.00,M,CLR,M,M,M,M,M,M,M,M,M,M,M,M,M,M,62.00,KTMT 021530Z AUTO 36007KT 10SM CLR 17/M01 A3015 RMK AO2 T01671009,M
BVU,2025-06-02 15:35,-114.8611,35.9475,671.00,71.60,60.80,68.79,130.00,5.00,0.00,29.94,M,10.00,M,FEW,M,M,M,12000.00,M,M,M,M,M,M,M,M,M,M,71.60,KBVU 021535Z AUTO 13005KT 10SM FEW120 22/16 A2994 RMK AO2,M
BAM,2025-06-02 15:35,-116.8743,40.5990,1382.36,62.60,30.20,29.34,330.00,7.00,0.00,30.14,M,10.00,M,CLR,M,M,M,M,M,M,M,M,M,M,M,M,M,M,62.60,KBAM 021535Z AUTO 33007KT 10SM CLR 17/M01 A3014 RMK AO1,M
CXP,2025-06-02 15:35,-119.7326,39.1923,1431.00,68.00,24.80,19.47,M,5.00,0.00,30.14,M,10.00,M,CLR,M,M,M,M,M,M,M,M,M,M,M,M,M,M,68.00,KCXP 021535Z AUTO VRB05KT 10SM CLR 20/M04 A3014 RMK AO2,M
RTS,2025-06-02 15:35,-119.8764,39.6682,1539.00,62.60,23.00,21.78,0.00,0.00,0.00,30.16,M,10.00,M,CLR,M,M,M,M,M,M,M,M,M,M,M,M,M,M,62.60,KRTS 021535Z AUTO 00000KT 10SM CLR 17/M05 A3016 RMK AO2,M
MEV,2025-06-02 15:35,-119.7500,38.9963,1441.42,64.40,32.00,29.63,0.00,0.00,0.00,30.13,M,10.00,M,CLR,M,M,M,M,M,M,M,M,M,M,M,M,M,M,64.40,KMEV 021535Z AUTO 00000KT 10SM CLR 18/M00 A3013 RMK AO2,M
HTH,2025-06-02 15:35,-118.6315,38.5448,1282.89,68.00,23.00,18.06,340.00,14.00,0.00,30.11,M,10.00,M,CLR,M,M,M,M,M,M,M,M,M,M,M,M,M,M,68.00,KHTH 021535Z AUTO 34014KT 10SM CLR 20/M05 A3011 RMK A01,M
TMT,2025-06-02 15:50,-117.1971,39.4643,1749.34,63.30,30.00,28.40,330.00,4.00,0.00,30.15,M,10.00,M,CLR,M,M,M,M,M,M,M,M,M,M,M,M,M,M,63.30,KTMT 021550Z AUTO 33004KT 10SM CLR 17/M01 A3015 RMK AO2 T01741011,M
NFL,2025-06-02 15:50,-118.7010,39.4166,1199.00,69.00,26.00,19.78,10.00,14.00,0.00,30.11,M,2.00,22.00,SCT,M,M,M,2000.00,M,M,M,BLDU,M,M,M,M,M,M,69.00,KNFL 021550Z 01014G22KT 2SM BLDU SCT020 21/M03 A3011 RMK BLDU SCT020 T02061033,M
P68,2025-06-02 15:53,-116.0056,39.6014,1993.00,65.00,30.00,26.76,40.00,7.00,0.00,30.12,1011.80,M,M,M,M,M,M,M,M,M,M,M,M,M,M,M,M,M,65.00,KP68 021553Z AUTO 04007KT 18/M01 A3012 RMK AO1 SLP118 T01831011,M
DRA,2025-06-02 15:53,-116.0278,36.6206,1009.00,79.00,52.00,39.11,240.00,8.00,0.00,29.96,1009.40,10.00,18.00,CLR,M,M,M,M,M,M,M,M,M,M,M,M,M,M,79.00,KDRA 021553Z AUTO 24008G18KT 10SM CLR 26/11 A2996 RMK AO2 SLP094 T02610111,M
ELY,2025-06-02 15:53,-114.8453,39.2950,1909.00,69.00,40.00,34.70,20.00,7.00,0.00,30.10,1009.30,10.00,M,CLR,M,M,M,M,M,M,M,M,M,M,M,M,M,M,69.00,KELY 021553Z AUTO 02007KT 10SM CLR 21/04 A3010 RMK AO2 SLP093 T02060044,M
VGT,2025-06-02 15:53,-115.1933,36.2111,667.00,74.00,60.00,61.67,90.00,6.00,0.00,29.93,1013.10,10.00,M,CLR,M,M,M,M,M,M,M,M,M,M,M,M,M,M,74.00,KVGT 021553Z 09006KT 10SM CLR 23/16 A2993 RMK AO2 SLP131 T02330156,M
LOL,2025-06-02 15:53,-118.5701,40.0684,1192.43,66.00,20.00,17.04,40.00,16.00,0.00,30.10,1015.60,10.00,24.00,CLR,M,M,M,M,M,M,M,M,M,M,M,M,M,M,66.00,KLOL 021553Z AUTO 04016G24KT 10SM CLR 19/M07 A3010 RMK AO2 SLP156 T01891067,M
BVU,2025-06-02 15:55,-114.8611,35.9475,671.00,71.60,60.80,68.79,110.00,9.00,0.00,29.94,M,10.00,M,CLR,M,M,M,M,M,M,M,M,M,M,M,M,M,M,71.60,KBVU 021555Z AUTO 11009KT 10SM CLR 22/16 A2994 RMK AO2,M
RNO,2025-06-02 15:55,-119.7711,39.4839,1341.00,66.00,26.00,21.93,90.00,4.00,0.00,30.13,1015.30,10.00,M,CLR,M,M,M,M,M,M,M,M,M,M,M,M,M,M,66.00,KRNO 021555Z 09004KT 10SM CLR 19/M03 A3013 RMK AO2 SLP153 T01891033,M
BAM,2025-06-02 15:55,-116.8743,40.5990,1382.36,62.60,30.20,29.34,360.00,7.00,0.00,30.14,M,10.00,M,CLR,M,M,M,M,M,M,M,M,M,M,M,M,M,M,62.60,KBAM 021555Z AUTO 36007KT 10SM CLR 17/M01 A3014 RMK AO1,M
CXP,2025-06-02 15:55,-119.7326,39.1923,1431.00,68.00,26.60,20.98,330.00,9.00,0.00,30.15,M,10.00,M,CLR,M,M,M,M,M,M,M,M,M,M,M,M,M,M,68.00,KCXP 021555Z AUTO 33009KT 10SM CLR 20/M03 A3015 RMK AO2,M
RTS,2025-06-02 15:55,-119.8764,39.6682,1539.00,62.60,23.00,21.78,M,3.00,0.00,30.16,M,10.00,M,CLR,M,M,M,M,M,M,M,M,M,M,M,M,M,M,62.60,KRTS 021555Z AUTO VRB03KT 10SM CLR 17/M05 A3016 RMK AO2,M
MEV,2025-06-02 15:55,-119.7500,38.9963,1441.42,66.20,32.00,27.84,310.00,3.00,0.00,30.13,M,10.00,M,CLR,M,M,M,M,M,M,M,M,M,M,M,M,M,M,66.20,KMEV 021555Z AUTO 31003KT 10SM CLR 19/M00 A3013 RMK AO2,M
HTH,2025-06-02 15:55,-118.6315,38.5448,1282.89,68.00,21.20,16.73,330.00,13.00,0.00,30.12,M,10.00,18.00,CLR,M,M,M,M,M,M,M,M,M,M,M,M,M,M,68.00,KHTH 021555Z AUTO 33013G18KT 10SM CLR 20/M06 A3012 RMK A01,M
INS,2025-06-02 15:55,-115.6733,36.5872,955.00,76.30,54.00,46.01,80.00,4.00,0.00,29.95,1009.00,10.00,M,FEW,SCT,M,M,16000.00,19000.00,M,M,M,M,M,M,M,M,M,76.30,KINS 021555Z AUTO 08004KT 10SM FEW160 SCT190 25/12 A2995 RMK AO2 SLP090 T02460122 $,M
LSV,2025-06-02 15:55,-115.0343,36.2362,570.00,76.00,61.00,59.78,160.00,8.00,0.00,29.89,1009.70,10.00,M,FEW,FEW,BKN,M,3000.00,10000.00,15000.00,M,M,M,M,M,M,M,M,76.00,KLSV 021555Z 16008KT 10SM FEW030 FEW100 BKN150 24/16 A2989 RMK AO2A SLP097 T02440161 $,M
EKO,2025-06-02 15:56,-115.7860,40.8242,1367.00,63.00,26.00,24.35,0.00,0.00,0.00,30.11,1014.50,10.00,M,CLR,M,M,M,M,M,M,M,M,M,M,M,M,M,M,63.00,KEKO 021556Z AUTO 00000KT 10SM CLR 17/M03 A3011 RMK AO2 SLP145 T01721033,M
WMC,2025-06-02 15:56,-117.8072,40.9019,1315.00,62.00,22.00,21.33,40.00,9.00,0.00,30.14,1016.60,10.00,20.00,CLR,M,M,M,M,M,M,M,M,M,M,M,M,M,M,62.00,KWMC 021556Z AUTO 04009G20KT 10SM CLR 17/M06 A3014 RMK AO2 SLP166 T01671056 TSNO,M
HND,2025-06-02 15:56,-115.1344,35.9729,742.79,74.00,59.00,59.51,M,3.00,0.00,29.97,1013.90,10.00,M,CLR,M,M,M,M,M,M,M,M,M,M,M,M,M,M,74.00,KHND 021556Z VRB03KT 10SM CLR 23/15 A2997 RMK AO2 SLP139 T02330150 $,M
TPH,2025-06-02 15:56,-117.0904,38.0505,1654.00,72.00,42.00,33.86,M,4.00,0.00,30.08,M,10.00,M,CLR,M,M,M,M,M,M,M,M,M,M,M,M,M,M,72.00,KTPH 021556Z AUTO VRB04KT 10SM CLR 22/06 A3008 RMK AO2 SLPNO T02220056 $,M
LAS,2025-06-02 15:56,-115.1634,36.0719,663.00,75.00,61.00,61.80,100.00,5.00,0.00,29.95,1011.80,10.00,M,SCT,BKN,M,M,9000.00,11000.00,M,M,M,M,M,M,M,M,M,75.00,KLAS 021556Z 10005KT 10SM SCT090 BKN110 24/16 A2995 RMK AO2 SLP118 T02390161 $,M
NFL,2025-06-02 15:57,-118.7010,39.4166,1199.00,68.00,24.00,18.83,360.00,16.00,0.00,30.11,1016.30,2.00,22.00,BKN,M,M,M,2000.00,M,M,M,BLDU,M,M,M,M,M,M,68.00,KNFL 021557Z 36016G22KT 2SM BLDU BKN020 20/M04 A3011 RMK SLP163 BLDU BKN020 T02001044,M
TMT,2025-06-02 16:10,-117.1971,39.4643,1749.34,64.80,32.00,29.22,360.00,5.00,0.00,30.15,M,10.00,M,CLR,M,M,M,M,M,M,M,M,M,M,M,M,M,M,64.80,KTMT 021610Z AUTO 36005KT 10SM CLR 18/00 A3015 RMK AO2 T01820001,M
BVU,2025-06-02 16:15,-114.8611,35.9475,671.00,71.60,60.80,68.79,110.00,6.00,0.00,29.94,M,10.00,M,CLR,M,M,M,M,M,M,M,M,M,M,M,M,M,M,71.60,KBVU 021615Z AUTO 11006KT 10SM CLR 22/16 A2994 RMK AO2,M
BAM,2025-06-02 16:15,-116.8743,40.5990,1382.36,62.60,28.40,27.26,320.00,5.00,0.00,30.14,M,10.00,M,CLR,M,M,M,M,M,M,M,M,M,M,M,M,M,M,62.60,KBAM 021615Z AUTO 32005KT 10SM CLR 17/M02 A3014 RMK AO1,M
CXP,2025-06-02 16:15,-119.7326,39.1923,1431.00,69.80,26.60,19.73,0.00,0.00,0.00,30.15,M,10.00,M,CLR,M,M,M,M,M,M,M,M,M,M,M,M,M,M,69.80,KCXP 021615Z AUTO 00000KT 10SM CLR 21/M03 A3015 RMK AO2,M
RTS,2025-06-02 16:15,-119.8764,39.6682,1539.00,64.40,23.00,20.45,110.00,7.00,0.00,30.16,M,10.00,M,CLR,M,M,M,M,M,M,M,M,M,M,M,M,M,M,64.40,KRTS 021615Z AUTO 11007KT 10SM CLR 18/M05 A3016 RMK AO2,M
MEV,2025-06-02 16:15,-119.7500,38.9963,1441.42,68.00,30.20,24.32,280.00,3.00,0.00,30.13,M,10.00,M,CLR,M,M,M,M,M,M,M,M,M,M,M,M,M,M,68.00,KMEV 021615Z AUTO 28003KT 10SM CLR 20/M01 A3013 RMK AO2,M
HTH,2025-06-02 16:15,-118.6315,38.5448,1282.89,69.80,21.20,15.73,340.00,13.00,0.00,30.11,M,10.00,18.00,CLR,M,M,M,M,M,M,M,M,M,M,M,M,M,M,69.80,KHTH 021615Z AUTO 34013G18KT 10SM CLR 21/M06 A3011 RMK A01,M
NFL,2025-06-02 16:22,-118.7010,39.4166,1199.00,70.00,24.00,17.58,360.00,9.00,0.00,30.11,M,4.00,M,SCT,M,M,M,2200.00,M,M,M,BLDU,M,M,M,M,M,M,70.00,KNFL 021622Z 36009KT 4SM BLDU SCT022 21/M04 A3011 RMK BLDU SCT022 T02111044,M
RTS,2025-06-02 16:25,-119.8764,39.6682,1539.00,64.40,21.20,18.96,0.00,0.00,0.00,30.16,M,10.00,11.00,CLR,M,M,M,M,M,M,M,M,M,M,M,M,M,M,64.40,KRTS 021625Z AUTO 00000G11KT 10SM CLR 18/M06 A3016 RMK AO2,M
MEV,2025-06-02 16:25,-119.7500,38.9963,1441.42,68.00,28.40,22.60,320.00,4.00,0.00,30.13,M,10.00,M,CLR,M,M,M,M,M,M,M,M,M,M,M,M,M,M,68.00,KMEV 021625Z AUTO 32004KT 10SM CLR 20/M02 A3013 RMK AO2,M
TMT,2025-06-02 16:30,-117.1971,39.4643,1749.34,67.00,32.40,27.52,360.00,8.00,0.00,30.15,M,10.00,M,CLR,M,M,M,M,M,M,M,M,M,M,M,M,M,M,67.00,KTMT 021630Z AUTO 36008KT 10SM CLR 19/00 A3015 RMK AO2 T01940002,M
BVU,2025-06-02 16:35,-114.8611,35.9475,671.00,71.60,60.80,68.79,90.00,10.00,0.00,29.94,M,10.00,M,CLR,M,M,M,M,M,M,M,M,M,M,M,M,M,M,71.60,KBVU 021635Z AUTO 09010KT 10SM CLR 22/16 A2994 RMK AO2,M
BAM,2025-06-02 16:35,-116.8743,40.5990,1382.36,64.40,28.40,25.60,310.00,4.00,0.00,30.14,M,10.00,M,CLR,M,M,M,M,M,M,M,M,M,M,M,M,M,M,64.40,KBAM 021635Z AUTO 31004KT 10SM CLR 18/M02 A3014 RMK AO1,M
CXP,2025-06-02 16:35,-119.7326,39.1923,1431.00,69.80,24.80,18.31,0.00,0.00,0.00,30.14,M,10.00,M,CLR,M,M,M,M,M,M,M,M,M,M,M,M,M,M,69.80,KCXP 021635Z AUTO 00000KT 10SM CLR 21/M04 A3014 RMK AO2,M
HTH,2025-06-02 16:35,-118.6315,38.5448,1282.89,69.80,23.00,16.98,330.00,11.00,0.00,30.11,M,10.00,17.00,CLR,M,M,M,M,M,M,M,M,M,M,M,M,M,M,69.80,KHTH 021635Z AUTO 33011G17KT 10SM CLR 21/M05 A3011 RMK A01,M
TMT,2025-06-02 16:50,-117.1971,39.4643,1749.34,68.00,32.00,26.16,360.00,7.00,0.00,30.15,M,10.00,M,CLR,M,M,M,M,M,M,M,M,M,M,M,M,M,M,68.00,KTMT 021650Z AUTO 36007KT 10SM CLR 20/00 A3015 RMK AO2 T01990000,M
P68,2025-06-02 16:53,-116.0056,39.6014,1993.00,69.00,32.00,25.28,20.00,9.00,0.00,30.12,1011.40,M,17.00,M,M,M,M,M,M,M,M,M,M,M,M,M,M,M,69.00,KP68 021653Z AUTO 02009G17KT 21/00 A3012 RMK AO1 SLP114 T02060000,M
DRA,2025-06-02 16:53,-116.0278,36.6206,1009.00,82.00,51.00,34.18,220.00,13.00,0.00,29.95,1009.10,10.00,20.00,CLR,M,M,M,M,M,M,M,M,M,M,M,M,M,M,80.85,KDRA 021653Z AUTO 22013G20KT 10SM CLR 28/11 A2995 RMK AO2 SLP091 T02780106,M
ELY,2025-06-02 16:53,-114.8453,39.2950,1909.00,73.00,40.00,30.30,20.00,8.00,0.00,30.09,1009.00,10.00,14.00,CLR,M,M,M,M,M,M,M,M,M,M,M,M,M,M,73.00,KELY 021653Z AUTO 02008G14KT 10SM CLR 23/04 A3009 RMK AO2 SLP090 T02280044,M
VGT,2025-06-02 16:53,-115.1933,36.2111,667.00,77.00,60.00,55.81,160.00,6.00,0.00,29.93,1012.90,10.00,M,CLR,M,M,M,M,M,M,M,M,M,M,M,M,M,M,77.00,KVGT 021653Z 16006KT 10SM CLR 25/16 A2993 RMK AO2 SLP129 T02500156,M
LOL,2025-06-02 16:53,-118.5701,40.0684,1192.43,70.00,19.00,14.23,40.00,15.00,0.00,30.10,1015.60,10.00,23.00,CLR,M,M,M,M,M,M,M,M,M,M,M,26.00,50.00,2025-06-02 16:21,70.00,KLOL 021653Z AUTO 04015G23KT 10SM CLR 21/M07 A3010 RMK AO2 PK WND 05026/1621 SLP156 T02111072,M
BVU,2025-06-02 16:55,-114.8611,35.9475,671.00,73.40,60.80,64.74,90.00,8.00,0.00,29.93,M,10.00,M,CLR,M,M,M,M,M,M,M,M,M,M,M,M,M,M,73.40,KBVU 021655Z AUTO 09008KT 10SM CLR 23/16 A2993 RMK AO2,M
INS,2025-06-02 16:55,-115.6733,36.5872,955.00,78.30,53.20,41.82,110.00,3.00,0.00,29.95,1009.00,10.00,M,CLR,M,M,M,M,M,M,M,M,M,M,M,M,M,M,78.30,KINS 021655Z AUTO 11003KT 10SM CLR 26/12 A2995 RMK AO2 SLP090 T02570118 $,M
RNO,2025-06-02 16:55,-119.7711,39.4839,1341.00,69.00,26.00,19.78,0.00,0.00,0.00,30.12,1014.90,10.00,M,CLR,M,M,M,M,M,M,M,M,M,M,M,M,M,M,69.00,KRNO 021655Z 00000KT 10SM CLR 21/M03 A3012 RMK AO2 SLP149 T02061033,M
BAM,2025-06-02 16:55,-116.8743,40.5990,1382.36,66.20,30.20,25.88,300.00,5.00,0.00,30.13,M,10.00,M,CLR,M,M,M,M,M,M,M,M,M,M,M,M,M,M,66.20,KBAM 021655Z AUTO 30005KT 10SM CLR 19/M01 A3013 RMK AO1,M
CXP,2025-06-02 16:55,-119.7326,39.1923,1431.00,71.60,26.60,18.56,340.00,4.00,0.00,30.14,M,10.00,M,CLR,M,M,M,M,M,M,M,M,M,M,M,M,M,M,71.60,KCXP 021655Z AUTO 34004KT 10SM CLR 22/M03 A3014 RMK AO2,M
RTS,2025-06-02 16:55,-119.8764,39.6682,1539.00,66.20,23.00,19.21,M,5.00,0.00,30.16,M,10.00,M,CLR,M,M,M,M,M,M,M,M,M,M,M,M,M,M,66.20,KRTS 021655Z AUTO VRB05KT 10SM CLR 19/M05 A3016 RMK AO2,M
MEV,2025-06-02 16:55,-119.7500,38.9963,1441.42,68.00,26.60,20.98,360.00,4.00,0.00,30.13,M,10.00,M,CLR,M,M,M,M,M,M,M,M,M,M,M,M,M,M,68.00,KMEV 021655Z AUTO 36004KT 10SM CLR 20/M03 A3013 RMK AO2,M
HTH,2025-06-02 16:55,-118.6315,38.5448,1282.89,69.80,23.00,16.98,340.00,13.00,0.00,30.11,M,10.00,M,CLR,M,M,M,M,M,M,M,M,M,M,M,M,M,M,69.80,KHTH 021655Z AUTO 34013KT 10SM CLR 21/M05 A3011 RMK A01,M
LSV,2025-06-02 16:55,-115.0343,36.2362,570.00,77.00,60.30,56.41,150.00,8.00,0.00,29.89,1009.70,10.00,M,FEW,FEW,BKN,M,5000.00,10000.00,20000.00,M,M,M,M,M,M,M,M,77.00,KLSV 021655Z 15008KT 10SM FEW050 FEW100 BKN200 25/16 A2989 RMK AO2A SLP097 T02510157 $,M
EKO,2025-06-02 16:56,-115.7860,40.8242,1367.00,67.00,27.00,22.08,0.00,0.00,0.00,30.09,1013.90,10.00,M,CLR,M,M,M,M,M,M,M,M,M,M,M,M,M,M,67.00,KEKO 021656Z AUTO 00000KT 10SM CLR 19/M03 A3009 RMK AO2 SLP139 T01941028,M
WMC,2025-06-02 16:56,-117.8072,40.9019,1315.00,65.00,21.00,18.41,20.00,10.00,0.00,30.13,1016.40,10.00,M,CLR,M,M,M,M,M,M,M,M,M,M,M,M,M,M,65.00,KWMC 021656Z AUTO 02010KT 10SM CLR 18/M06 A3013 RMK AO2 SLP164 T01831061 TSNO,M
HND,2025-06-02 16:56,-115.1344,35.9729,742.79,77.00,58.00,51.96,0.00,0.00,0.00,29.97,1013.80,10.00,M,CLR,M,M,M,M,M,M,M,M,M,M,M,M,M,M,77.00,KHND 021656Z 00000KT 10SM CLR 25/14 A2997 RMK AO2 SLP138 T02500144 $,M
TPH,2025-06-02 16:56,-117.0904,38.0505,1654.00,75.00,36.00,24.22,320.00,12.00,0.00,30.08,M,10.00,M,CLR,M,M,M,M,M,M,M,M,M,M,M,M,M,M,75.00,KTPH 021656Z AUTO 32012KT 10SM CLR 24/02 A3008 RMK AO2 SLPNO T02390022 $,M
LAS,2025-06-02 16:56,-115.1634,36.0719,663.00,77.00,58.00,51.96,40.00,3.00,0.00,29.95,1011.80,10.00,M,SCT,SCT,BKN,M,9000.00,12000.00,20000.00,M,M,M,M,M,M,M,M,77.00,KLAS 021656Z 04003KT 10SM SCT090 SCT120 BKN200 25/14 A2995 RMK AO2 SLP118 T02500144 $,M
NFL,2025-06-02 16:57,-118.7010,39.4166,1199.00,70.00,25.00,18.33,340.00,7.00,0.00,30.10,1015.90,5.00,M,CLR,M,M,M,M,M,M,M,BLDU,M,M,M,M,M,M,70.00,KNFL 021657Z 34007KT 300V030 5SM BLDU CLR 21/M04 A3010 RMK SLP159 T02111039,M
TMT,2025-06-02 17:10,-117.1971,39.4643,1749.34,67.60,31.30,25.78,40.00,6.00,0.00,30.14,M,10.00,M,CLR,M,M,M,M,M,M,M,M,M,M,M,M,M,M,67.60,KTMT 021710Z AUTO 04006KT 10SM CLR 20/00 A3014 RMK AO2 T01981004,M
BVU,2025-06-02 17:15,-114.8611,35.9475,671.00,73.40,60.80,64.74,110.00,7.00,0.00,29.93,M,10.00,M,CLR,M,M,M,M,M,M,M,M,M,M,M,M,M,M,73.40,KBVU 021715Z AUTO 11007KT 10SM CLR 23/16 A2993 RMK AO2,M
BAM,2025-06-02 17:15,-116.8743,40.5990,1382.36,68.00,28.40,22.60,320.00,8.00,0.00,30.13,M,10.00,M,CLR,M,M,M,M,M,M,M,M,M,M,M,M,M,M,68.00,KBAM 021715Z AUTO 32008KT 10SM CLR 20/M02 A3013 RMK AO1,M
CXP,2025-06-02 17:15,-119.7326,39.1923,1431.00,71.60,26.60,18.56,0.00,0.00,0.00,30.13,M,10.00,M,CLR,M,M,M,M,M,M,M,M,M,M,M,M,M,M,71.60,KCXP 021715Z AUTO 00000KT 10SM CLR 22/M03 A3013 RMK AO2,M
RTS,2025-06-02 17:15,-119.8764,39.6682,1539.00,68.00,23.00,18.06,50.00,5.00,0.00,30.16,M,10.00,M,CLR,M,M,M,M,M,M,M,M,M,M,M,M,M,M,68.00,KRTS 021715Z AUTO 05005KT 10SM CLR 20/M05 A3016 RMK AO2,M
MEV,2025-06-02 17:15,-119.7500,38.9963,1441.42,71.60,28.40,19.98,M,4.00,0.00,30.12,M,10.00,M,CLR,M,M,M,M,M,M,M,M,M,M,M,M,M,M,71.60,KMEV 021715Z AUTO VRB04KT 10SM CLR 22/M02 A3012 RMK AO2,M
HTH,2025-06-02 17:15,-118.6315,38.5448,1282.89,M,M,M,M,M,0.00,30.10,M,M,M,M,M,M,M,M,M,M,M,M,M,M,M,M,M,M,M,KHTH 021715Z AUTO A3010 RMK A01,M
RTS,2025-06-02 17:25,-119.8764,39.6682,1539.00,68.00,23.00,18.06,30.00,8.00,0.00,30.15,M,10.00,M,CLR,M,M,M,M,M,M,M,M,M,M,M,M,M,M,68.00,KRTS 021725Z AUTO 03008KT 10SM CLR 20/M05 A3015 RMK AO2,M
MEV,2025-06-02 17:25,-119.7500,38.9963,1441.42,71.60,30.20,21.51,190.00,7.00,0.00,30.12,M,10.00,M,CLR,M,M,M,M,M,M,M,M,M,M,M,M,M,M,71.60,KMEV 021725Z AUTO 19007KT 10SM CLR 22/M01 A3012 RMK AO2,M
TMT,2025-06-02 17:30,-117.1971,39.4643,1749.34,68.70,32.00,25.54,360.00,5.00,0.00,30.14,M,10.00,M,CLR,M,M,M,M,M,M,M,M,M,M,M,M,M,M,68.70,KTMT 021730Z AUTO 36005KT 10SM CLR 20/00 A3014 RMK AO2 T02040000,M
BVU,2025-06-02 17:35,-114.8611,35.9475,671.00,75.20,60.80,60.96,90.00,4.00,0.00,29.93,M,10.00,M,CLR,M,M,M,M,M,M,M,M,M,M,M,M,M,M,75.20,KBVU 021735Z AUTO 09004KT 10SM CLR 24/16 A2993 RMK AO2,M
BAM,2025-06-02 17:35,-116.8743,40.5990,1382.36,68.00,28.40,22.60,340.00,6.00,0.00,30.13,M,10.00,M,CLR,M,M,M,M,M,M,M,M,M,M,M,M,M,M,68.00,KBAM 021735Z AUTO 34006KT 10SM CLR 20/M02 A3013 RMK AO1,M
CXP,2025-06-02 17:35,-119.7326,39.1923,1431.00,71.60,24.80,17.22,M,3.00,0.00,30.13,M,10.00,M,CLR,M,M,M,M,M,M,M,M,M,M,M,M,M,M,71.60,KCXP 021735Z AUTO VRB03KT 10SM CLR 22/M04 A3013 RMK AO2,M
HTH,2025-06-02 17:35,-118.6315,38.5448,1282.89,71.60,23.00,15.97,340.00,13.00,0.00,30.10,M,M,M,M,M,M,M,M,M,M,M,M,M,M,M,M,M,M,71.60,KHTH 021735Z AUTO 34013KT 22/M05 A3010 RMK A01,M
TMT,2025-06-02 17:50,-117.1971,39.4643,1749.34,69.80,32.00,24.60,320.00,3.00,0.00,30.14,M,10.00,M,CLR,M,M,M,M,M,M,M,M,M,M,M,M,M,M,69.80,KTMT 021750Z AUTO 32003KT 10SM CLR 21/00 A3014 RMK AO2 T02100001,M
P68,2025-06-02 17:53,-116.0056,39.6014,1993.00,69.00,31.00,24.28,30.00,9.00,0.00,30.11,1011.30,M,15.00,M,M,M,M,M,M,M,M,M,M,M,M,M,M,M,69.00,KP68 021753Z AUTO 03009G15KT 21/M01 A3011 RMK AO1 SLP113 T02061006 10211 20072 58004,M
DRA,2025-06-02 17:53,-116.0278,36.6206,1009.00,85.00,51.00,31.04,190.00,10.00,0.00,29.95,1009.00,10.00,17.00,CLR,M,M,M,M,M,M,M,M,M,M,M,M,M,M,82.97,KDRA 021753Z AUTO 19010G17KT 10SM CLR 29/11 A2995 RMK AO2 SLP090 T02940106 10294 20228 58001,M
ELY,2025-06-02 17:53,-114.8453,39.2950,1909.00,75.00,39.00,27.25,M,M,0.00,30.09,1008.30,10.00,M,CLR,M,M,M,M,M,M,M,M,M,M,M,M,M,M,75.00,KELY 021753Z AUTO 10SM CLR 24/04 A3009 RMK AO2 SLP083 T02390039 10239 20106 58003,M
VGT,2025-06-02 17:53,-115.1933,36.2111,667.00,80.00,59.00,48.80,150.00,5.00,0.00,29.93,1012.70,10.00,M,M,M,M,M,M,M,M,M,M,M,M,M,M,M,M,80.69,KVGT 021753Z AUTO 15005KT 10SM 27/15 A2993 RMK AO2 SLP127 60000 T02670150 10267 20217,M
LOL,2025-06-02 17:53,-118.5701,40.0684,1192.43,73.00,19.00,12.85,50.00,14.00,0.00,30.09,1015.00,10.00,21.00,CLR,M,M,M,M,M,M,M,M,M,M,M,M,M,M,73.00,KLOL 021753Z AUTO 05014G21KT 10SM CLR 23/M07 A3009 RMK AO2 SLP150 T02281072 10228 20133 58001,M
BVU,2025-06-02 17:55,-114.8611,35.9475,671.00,77.00,60.80,57.42,M,5.00,0.00,29.93,M,10.00,M,CLR,M,M,M,M,M,M,M,M,M,M,M,M,M,M,77.00,KBVU 021755Z AUTO VRB05KT 10SM CLR 25/16 A2993 RMK AO2,M
RNO,2025-06-02 17:55,-119.7711,39.4839,1341.00,74.00,27.00,17.40,M,4.00,0.00,30.11,1014.20,10.00,M,CLR,M,M,M,M,M,M,M,M,M,M,M,M,M,M,74.00,KRNO 021755Z VRB04KT 10SM CLR 23/M03 A3011 RMK AO2 SLP142 T02331028 10233 20150 58007,M
LSV,2025-06-02 17:55,-115.0343,36.2362,570.00,79.70,58.30,48.06,0.00,0.00,0.00,29.88,1009.20,10.00,M,FEW,BKN,M,M,1000.00,20000.00,M,M,M,M,M,M,M,M,M,79.70,KLSV 021755Z 00000KT 10SM FEW010 BKN200 27/15 A2988 RMK AO2A SLP092 60002 T02650146 10265 20222 50000 $,M
BAM,2025-06-02 17:55,-116.8743,40.5990,1382.36,69.80,28.40,21.24,310.00,8.00,0.00,30.12,M,10.00,M,CLR,M,M,M,M,M,M,M,M,M,M,M,M,M,M,69.80,KBAM 021755Z AUTO 31008KT 270V340 10SM CLR 21/M02 A3012 RMK AO1,M
CXP,2025-06-02 17:55,-119.7326,39.1923,1431.00,73.40,26.60,17.46,330.00,4.00,0.00,30.12,M,10.00,M,CLR,M,M,M,M,M,M,M,M,M,M,M,M,M,M,73.40,KCXP 021755Z AUTO 33004KT 10SM CLR 23/M03 A3012 RMK AO2,M
RTS,2025-06-02 17:55,-119.8764,39.6682,1539.00,68.00,23.00,18.06,M,4.00,0.00,30.15,M,10.00,M,CLR,M,M,M,M,M,M,M,M,M,M,M,M,M,M,68.00,KRTS 021755Z AUTO VRB04KT 10SM CLR 20/M05 A3015 RMK AO2,M
MEV,2025-06-02 17:55,-119.7500,38.9963,1441.42,71.60,28.40,19.98,M,3.00,0.00,30.12,M,10.00,10.00,CLR,M,M,M,M,M,M,M,M,M,M,M,M,M,M,71.60,KMEV 021755Z AUTO VRB03G10KT 10SM CLR 22/M02 A3012 RMK AO2,M
HTH,2025-06-02 17:55,-118.6315,38.5448,1282.89,73.40,23.00,15.03,330.00,13.00,0.00,30.10,M,10.00,M,M,M,M,M,M,M,M,M,M,M,M,M,M,M,M,73.40,KHTH 021755Z AUTO 33013KT 10SM 23/M05 A3010 RMK A01,M
INS,2025-06-02 17:55,-115.6733,36.5872,955.00,81.30,50.00,33.69,270.00,3.00,0.00,29.94,1008.60,10.00,M,CLR,M,M,M,M,M,M,M,M,M,M,M,M,M,M,80.30,KINS 021755Z AUTO 27003KT 10SM CLR 27/10 A2994 RMK AO2 SLP086 T02740101 10275 20220 50000 $,M
EKO,2025-06-02 17:56,-115.7860,40.8242,1367.00,69.00,26.00,19.78,0.00,0.00,0.00,30.08,1013.40,10.00,M,CLR,M,M,M,M,M,M,M,M,M,M,M,M,M,M,69.00,KEKO 021756Z AUTO 00000KT 10SM CLR 21/M03 A3008 RMK AO2 SLP134 T02061033 10211 20106 58009,M
WMC,2025-06-02 17:56,-117.8072,40.9019,1315.00,69.00,23.00,17.45,20.00,8.00,0.00,30.12,1016.20,10.00,M,CLR,M,M,M,M,M,M,M,M,M,M,M,M,M,M,69.00,KWMC 021756Z AUTO 02008KT 10SM CLR 21/M05 A3012 RMK AO2 SLP162 T02061050 10206 20094 58005 TSNO,M
HND,2025-06-02 17:56,-115.1344,35.9729,742.79,80.00,56.00,43.81,M,3.00,0.00,29.96,1013.50,10.00,M,CLR,M,M,M,M,M,M,M,M,M,M,M,M,M,M,80.25,KHND 021756Z VRB03KT 10SM CLR 27/13 A2996 RMK AO2 SLP135 60000 T02670133 10267 20211 50001 $,M
TPH,2025-06-02 17:56,-117.0904,38.0505,1654.00,78.00,35.00,21.07,280.00,11.00,0.00,30.07,M,10.00,22.00,CLR,M,M,M,M,M,M,M,M,M,M,M,M,M,M,78.00,KTPH 021756Z AUTO 28011G22KT 10SM CLR 26/02 A3007 RMK AO2 SLPNO T02560017 10256 20128 58001 $,M
LAS,2025-06-02 17:56,-115.1634,36.0719,663.00,79.00,58.00,48.65,60.00,6.00,0.00,29.94,1011.60,10.00,M,FEW,BKN,M,M,9000.00,20000.00,M,M,M,M,M,M,M,M,M,79.00,KLAS 021756Z 06006KT 10SM FEW090 BKN200 26/14 A2994 RMK AO2 SLP116 60000 T02610144 10261 20217 50000 $,M
NFL,2025-06-02 17:57,-118.7010,39.4166,1199.00,75.00,24.00,14.86,350.00,11.00,0.00,30.09,1015.60,5.00,M,CLR,M,M,M,M,M,M,M,BLDU,M,M,M,M,M,M,75.00,KNFL 021757Z 35011KT 5SM BLDU CLR 24/M04 A3009 RMK SLP156 T02391044 10244 20144 58003,M
RTS,2025-06-02 18:05,-119.8764,39.6682,1539.00,69.80,23.00,16.98,70.00,3.00,0.00,30.15,M,10.00,M,CLR,M,M,M,M,M,M,M,M,M,M,M,M,M,M,69.80,KRTS 021805Z AUTO 07003KT 10SM CLR 21/M05 A3015 RMK AO2,M
MEV,2025-06-02 18:05,-119.7500,38.9963,1441.42,71.60,28.40,19.98,M,5.00,0.00,30.11,M,10.00,M,CLR,M,M,M,M,M,M,M,M,M,M,M,M,M,M,71.60,KMEV 021805Z AUTO VRB05KT 10SM CLR 22/M02 A3011 RMK AO2,M
TMT,2025-06-02 18:10,-117.1971,39.4643,1749.34,71.20,32.00,23.45,50.00,3.00,0.00,30.14,M,10.00,M,CLR,M,M,M,M,M,M,M,M,M,M,M,M,M,M,71.20,KTMT 021810Z AUTO 05003KT 10SM CLR 22/00 A3014 RMK AO2 T02180001,M
BVU,2025-06-02 18:15,-114.8611,35.9475,671.00,77.00,59.00,53.86,110.00,5.00,0.00,29.93,M,10.00,11.00,CLR,M,M,M,M,M,M,M,M,M,M,M,M,M,M,77.00,KBVU 021815Z AUTO 11005G11KT 10SM CLR 25/15 A2993 RMK AO2,M
BAM,2025-06-02 18:15,-116.8743,40.5990,1382.36,69.80,30.20,22.87,330.00,8.00,0.00,30.12,M,10.00,M,CLR,M,M,M,M,M,M,M,M,M,M,M,M,M,M,69.80,KBAM 021815Z AUTO 33008KT 10SM CLR 21/M01 A3012 RMK AO1,M
CXP,2025-06-02 18:15,-119.7326,39.1923,1431.00,73.40,26.60,17.46,M,4.00,0.00,30.12,M,10.00,M,CLR,M,M,M,M,M,M,M,M,M,M,M,M,M,M,73.40,KCXP 021815Z AUTO VRB04KT 10SM CLR 23/M03 A3012 RMK AO2,M
HTH,2025-06-02 18:15,-118.6315,38.5448,1282.89,73.40,23.00,15.03,330.00,13.00,0.00,30.10,M,10.00,19.00,CLR,M,M,M,M,M,M,M,M,M,M,M,M,M,M,73.40,KHTH 021815Z AUTO 33013G19KT 10SM CLR 23/M05 A3010 RMK A01,M
RTS,2025-06-02 18:25,-119.8764,39.6682,1539.00,69.80,24.80,18.31,M,6.00,0.00,30.14,M,10.00,M,CLR,M,M,M,M,M,M,M,M,M,M,M,M,M,M,69.80,KRTS 021825Z AUTO VRB06KT 10SM CLR 21/M04 A3014 RMK AO2,M
MEV,2025-06-02 18:25,-119.7500,38.9963,1441.42,73.40,30.20,20.24,220.00,6.00,0.00,30.11,M,10.00,M,CLR,M,M,M,M,M,M,M,M,M,M,M,M,M,M,73.40,KMEV 021825Z AUTO 22006KT 10SM CLR 23/M01 A3011 RMK AO2,M
TMT,2025-06-02 18:30,-117.1971,39.4643,1749.34,73.20,33.30,23.10,350.00,4.00,0.00,30.14,M,10.00,M,CLR,M,M,M,M,M,M,M,M,M,M,M,M,M,M,73.20,KTMT 021830Z AUTO 35004KT 10SM CLR 23/01 A3014 RMK AO2 T02290007,M
BVU,2025-06-02 18:35,-114.8611,35.9475,671.00,78.80,59.00,50.76,M,6.00,0.00,29.93,M,10.00,M,CLR,M,M,M,M,M,M,M,M,M,M,M,M,M,M,78.80,KBVU 021835Z AUTO VRB06KT 10SM CLR 26/15 A2993 RMK AO2,M
BAM,2025-06-02 18:35,-116.8743,40.5990,1382.36,69.80,28.40,21.24,300.00,5.00,0.00,30.12,M,10.00,M,CLR,M,M,M,M,M,M,M,M,M,M,M,M,M,M,69.80,KBAM 021835Z AUTO 30005KT 10SM CLR 21/M02 A3012 RMK AO1,M
CXP,2025-06-02 18:35,-119.7326,39.1923,1431.00,75.20,26.60,16.44,110.00,6.00,0.00,30.12,M,10.00,11.00,CLR,M,M,M,M,M,M,M,M,M,M,M,M,M,M,75.20,KCXP 021835Z AUTO 11006G11KT 10SM CLR 24/M03 A3012 RMK AO2,M
HTH,2025-06-02 18:35,-118.6315,38.5448,1282.89,75.20,24.80,15.26,340.00,13.00,0.00,30.09,M,10.00,M,CLR,M,M,M,M,M,M,M,M,M,M,M,M,M,M,75.20,KHTH 021835Z AUTO 34013KT 10SM CLR 24/M04 A3009 RMK A01,M
TMT,2025-06-02 18:50,-117.1971,39.4643,1749.34,74.30,32.70,21.73,350.00,6.00,0.00,30.13,M,10.00,M,CLR,M,M,M,M,M,M,M,M,M,M,M,M,M,M,74.30,KTMT 021850Z AUTO 35006KT 10SM CLR 24/00 A3013 RMK AO2 T02350004,M
P68,2025-06-02 18:53,-116.0056,39.6014,1993.00,73.00,33.00,22.98,20.00,9.00,0.00,30.10,1011.20,M,15.00,M,M,M,M,M,M,M,M,M,M,M,M,M,M,M,73.00,KP68 021853Z AUTO 02009G15KT 23/01 A3010 RMK AO1 SLP112 T02280006,M
DRA,2025-06-02 18:53,-116.0278,36.6206,1009.00,85.00,49.00,28.81,230.00,6.00,0.00,29.95,1009.00,10.00,16.00,CLR,M,M,M,M,M,M,M,M,M,M,M,M,M,M,82.72,KDRA 021853Z AUTO 23006G16KT 10SM CLR 29/09 A2995 RMK AO2 SLP090 T02940094,M
ELY,2025-06-02 18:53,-114.8453,39.2950,1909.00,77.00,38.00,24.52,50.00,9.00,0.00,30.07,M,10.00,16.00,CLR,M,M,M,M,M,M,M,M,M,M,M,M,M,M,77.00,KELY 021853Z AUTO 05009G16KT 10SM CLR 25/03 A3007 RMK AO2 SLPNO T02500033 $,M
VGT,2025-06-02 18:53,-115.1933,36.2111,667.00,82.00,57.00,42.56,130.00,5.00,0.00,29.92,1012.40,10.00,M,CLR,M,M,M,M,M,M,M,M,M,M,M,M,M,M,81.76,KVGT 021853Z 13005KT 10SM CLR 28/14 A2992 RMK AO2 SLP124 T02780139,M
LOL,2025-06-02 18:53,-118.5701,40.0684,1192.43,74.00,20.00,12.97,M,M,0.00,30.08,1015.00,10.00,M,CLR,M,M,M,M,M,M,M,M,M,M,M,M,M,M,74.00,KLOL 021853Z AUTO 10SM CLR 23/M07 A3008 RMK AO2 SLP150 T02331067,M
BVU,2025-06-02 18:55,-114.8611,35.9475,671.00,80.60,59.00,47.85,100.00,7.00,0.00,29.92,M,10.00,M,CLR,M,M,M,M,M,M,M,M,M,M,M,M,M,M,81.12,KBVU 021855Z AUTO 10007KT 10SM CLR 27/15 A2992 RMK AO2,M
RNO,2025-06-02 18:55,-119.7711,39.4839,1341.00,76.00,27.00,16.28,20.00,7.00,0.00,30.10,1013.90,10.00,M,CLR,M,M,M,M,M,M,M,M,M,M,M,M,M,M,76.00,KRNO 021855Z 02007KT 330V050 10SM CLR 24/M03 A3010 RMK AO2 SLP139 T02441028,M
LSV,2025-06-02 18:55,-115.0343,36.2362,570.00,82.40,56.30,40.96,140.00,7.00,0.00,29.87,1008.90,10.00,M,FEW,BKN,SCT,M,10000.00,20000.00,19000.00,M,M,M,M,M,M,M,M,81.92,KLSV 021855Z 14007KT 10SM FEW100 BKN200 SCT190 28/14 A2987 RMK AO2A SLP089 T02800135 $,M
BAM,2025-06-02 18:55,-116.8743,40.5990,1382.36,69.80,28.40,21.24,330.00,9.00,0.00,30.11,M,10.00,M,CLR,M,M,M,M,M,M,M,M,M,M,M,M,M,M,69.80,KBAM 021855Z AUTO 33009KT 280V350 10SM CLR 21/M02 A3011 RMK AO1,M
CXP,2025-06-02 18:55,-119.7326,39.1923,1431.00,75.20,26.60,16.44,0.00,0.00,0.00,30.12,M,10.00,M,CLR,M,M,M,M,M,M,M,M,M,M,M,M,M,M,75.20,KCXP 021855Z AUTO 00000KT 10SM CLR 24/M03 A3012 RMK AO2,M
RTS,2025-06-02 18:55,-119.8764,39.6682,1539.00,71.60,24.80,17.22,0.00,0.00,0.00,30.15,M,10.00,11.00,CLR,M,M,M,M,M,M,M,M,M,M,M,M,M,M,71.60,KRTS 021855Z AUTO 00000G11KT 10SM CLR 22/M04 A3015 RMK AO2,M
MEV,2025-06-02 18:55,-119.7500,38.9963,1441.42,75.20,30.20,19.06,320.00,7.00,0.00,30.11,M,6.00,M,CLR,M,M,M,M,M,M,M,HZ,M,M,M,M,M,M,75.20,KMEV 021855Z AUTO 32007KT 6SM HZ CLR 24/M01 A3011 RMK AO2,M
HTH,2025-06-02 18:55,-118.6315,38.5448,1282.89,75.20,24.80,15.26,330.00,12.00,0.00,30.09,M,10.00,M,CLR,M,M,M,M,M,M,M,M,M,M,M,M,M,M,75.20,KHTH 021855Z AUTO 33012KT 10SM CLR 24/M04 A3009 RMK A01,M
INS,2025-06-02 18:55,-115.6733,36.5872,955.00,85.00,49.00,28.81,80.00,5.00,0.00,29.93,1008.10,10.00,M,CLR,M,M,M,M,M,M,M,M,M,M,M,M,M,M,82.72,KINS 021855Z AUTO 08005KT 10SM CLR 29/10 A2993 RMK AO2 SLP081 T02940095 $,M
EKO,2025-06-02 18:56,-115.7860,40.8242,1367.00,74.00,26.00,16.70,M,M,0.00,30.07,1012.80,10.00,M,CLR,M,M,M,M,M,M,M,M,M,M,M,M,M,M,74.00,KEKO 021856Z AUTO 10SM CLR 23/M03 A3007 RMK AO2 SLP128 T02331033,M
WMC,2025-06-02 18:56,-117.8072,40.9019,1315.00,72.00,22.00,15.10,60.00,8.00,0.00,30.11,1015.80,10.00,M,CLR,M,M,M,M,M,M,M,M,M,M,M,M,M,M,72.00,KWMC 021856Z AUTO 06008KT 040V130 10SM CLR 22/M06 A3011 RMK AO2 SLP158 T02221056 TSNO,M
HND,2025-06-02 18:56,-115.1344,35.9729,742.79,83.00,56.00,39.74,290.00,4.00,0.00,29.95,1013.10,10.00,M,CLR,M,M,M,M,M,M,M,M,M,M,M,M,M,M,82.30,KHND 021856Z 29004KT 10SM CLR 28/13 A2995 RMK AO2 SLP131 T02830133 $,M
TPH,2025-06-02 18:56,-117.0904,38.0505,1654.00,80.00,35.00,19.74,320.00,10.00,0.00,30.07,M,10.00,21.00,CLR,M,M,M,M,M,M,M,M,M,M,M,M,M,M,78.63,KTPH 021856Z AUTO 32010G21KT 10SM CLR 27/02 A3007 RMK AO2 SLPNO T02670017 $,M
LAS,2025-06-02 18:56,-115.1634,36.0719,663.00,82.00,58.00,44.12,80.00,7.00,0.00,29.94,1011.20,10.00,14.00,FEW,BKN,M,M,9000.00,20000.00,M,M,M,M,M,M,M,M,M,81.95,KLAS 021856Z 08007G14KT 10SM FEW090 BKN200 28/14 A2994 RMK AO2 SLP112 T02780144 $,M
NFL,2025-06-02 18:57,-118.7010,39.4166,1199.00,78.00,26.00,14.62,360.00,7.00,0.00,30.08,1015.40,7.00,M,CLR,M,M,M,M,M,M,M,M,M,M,M,M,M,M,78.00,KNFL 021857Z 36007KT 310V030 7SM CLR 26/M03 A3008 RMK SLP154 T02561033,M
LAS,2025-06-02 19:01,-115.1634,36.0719,663.00,82.00,58.00,44.12,90.00,8.00,0.00,29.93,M,10.00,M,FEW,BKN,M,M,9000.00,20000.00,M,M,M,M,M,M,M,M,M,81.95,KLAS 021901Z COR 09008KT 10SM FEW090 BKN200 28/14 A2993 RMK AO2 T02780144 $,M
RTS,2025-06-02 19:05,-119.8764,39.6682,1539.00,73.40,24.80,16.21,80.00,8.00,0.00,30.14,M,10.00,M,CLR,M,M,M,M,M,M,M,M,M,M,M,M,M,M,73.40,KRTS 021905Z AUTO 08008KT 10SM CLR 23/M04 A3014 RMK AO2,M
MEV,2025-06-02 19:05,-119.7500,38.9963,1441.42,73.40,30.20,20.24,M,4.00,0.00,30.10,M,7.00,12.00,CLR,M,M,M,M,M,M,M,M,M,M,M,M,M,M,73.40,KMEV 021905Z AUTO VRB04G12KT 7SM CLR 23/M01 A3010 RMK AO2,M
TMT,2025-06-02 19:10,-117.1971,39.4643,1749.34,74.00,32.00,21.34,340.00,9.00,0.00,30.13,M,10.00,M,CLR,M,M,M,M,M,M,M,M,M,M,M,M,M,M,74.00,KTMT 021910Z AUTO 34009KT 10SM CLR 23/00 A3013 RMK AO2 T02340001,M
BVU,2025-06-02 19:15,-114.8611,35.9475,671.00,80.60,59.00,47.85,90.00,5.00,0.00,29.92,M,10.00,13.00,CLR,M,M,M,M,M,M,M,M,M,M,M,M,M,M,81.12,KBVU 021915Z AUTO 09005G13KT 10SM CLR 27/15 A2992 RMK AO2,M
BAM,2025-06-02 19:15,-116.8743,40.5990,1382.36,71.60,28.40,19.98,340.00,7.00,0.00,30.12,M,10.00,M,CLR,M,M,M,M,M,M,M,M,M,M,M,M,M,M,71.60,KBAM 021915Z AUTO 34007KT 10SM CLR 22/M02 A3012 RMK AO1,M
CXP,2025-06-02 19:15,-119.7326,39.1923,1431.00,77.00,26.60,15.49,60.00,8.00,0.00,30.11,M,10.00,M,CLR,M,M,M,M,M,M,M,M,M,M,M,M,M,M,77.00,KCXP 021915Z AUTO 06008KT 10SM CLR 25/M03 A3011 RMK AO2,M
HTH,2025-06-02 19:15,-118.6315,38.5448,1282.89,77.00,24.80,14.37,310.00,12.00,0.00,30.08,M,10.00,M,CLR,M,M,M,M,M,M,M,M,M,M,M,M,M,M,77.00,KHTH 021915Z AUTO 31012KT 10SM CLR 25/M04 A3008 RMK A01,M
TMT,2025-06-02 19:30,-117.1971,39.4643,1749.34,76.00,32.00,19.96,270.00,5.00,0.00,30.13,M,10.00,M,CLR,M,M,M,M,M,M,M,M,M,M,M,M,M,M,76.00,KTMT 021930Z AUTO 27005KT 10SM CLR 25/00 A3013 RMK AO2 T02450000,M
BAM,2025-06-02 19:35,-116.8743,40.5990,1382.36,71.60,26.60,18.56,340.00,8.00,0.00,30.10,M,10.00,14.00,CLR,M,M,M,M,M,M,M,M,M,M,M,M,M,M,71.60,KBAM 021935Z AUTO 34008G14KT 10SM CLR 22/M03 A3010 RMK AO1,M
CXP,2025-06-02 19:35,-119.7326,39.1923,1431.00,77.00,26.60,15.49,0.00,0.00,0.00,30.11,M,10.00,10.00,CLR,M,M,M,M,M,M,M,M,M,M,M,M,M,M,77.00,KCXP 021935Z AUTO 00000G10KT 10SM CLR 25/M03 A3011 RMK AO2,M
RTS,2025-06-02 19:35,-119.8764,39.6682,1539.00,73.40,24.80,16.21,M,6.00,0.00,30.13,M,10.00,M,CLR,M,M,M,M,M,M,M,M,M,M,M,M,M,M,73.40,KRTS 021935Z AUTO VRB06KT 10SM CLR 23/M04 A3013 RMK AO2,M
MEV,2025-06-02 19:35,-119.7500,38.9963,1441.42,77.00,32.00,19.31,300.00,6.00,0.00,30.09,M,9.00,M,CLR,M,M,M,M,M,M,M,M,M,M,M,M,M,M,77.00,KMEV 021935Z AUTO 30006KT 9SM CLR 25/M00 A3009 RMK AO2,M
HTH,2025-06-02 19:35,-118.6315,38.5448,1282.89,78.80,24.80,13.55,320.00,14.00,0.00,30.07,M,10.00,M,CLR,M,M,M,M,M,M,M,M,M,M,M,M,M,M,78.80,KHTH 021935Z AUTO 32014KT 10SM CLR 26/M04 A3007 RMK A01,M
BVU,2025-06-02 19:35,-114.8611,35.9475,671.00,82.40,57.20,42.32,M,6.00,0.00,29.91,M,10.00,17.00,CLR,M,M,M,M,M,M,M,M,M,M,M,M,M,M,82.09,KBVU 021935Z AUTO VRB06G17KT 10SM CLR 28/14 A2991 RMK AO2,M
TMT,2025-06-02 19:50,-117.1971,39.4643,1749.34,76.00,32.00,19.96,310.00,6.00,0.00,30.12,M,10.00,M,CLR,M,M,M,M,M,M,M,M,M,M,M,M,M,M,76.00,KTMT 021950Z AUTO 31006KT 10SM CLR 24/00 A3012 RMK AO2 T02440001,M
P68,2025-06-02 19:53,-116.0056,39.6014,1993.00,77.00,33.00,20.11,10.00,10.00,0.00,30.09,1010.20,M,M,M,M,M,M,M,M,M,M,M,M,M,M,M,M,M,77.00,KP68 021953Z AUTO 01010KT 340V040 25/01 A3009 RMK AO1 SLP102 T02500006,M
DRA,2025-06-02 19:53,-116.0278,36.6206,1009.00,89.00,48.00,24.45,230.00,14.00,0.00,29.93,1008.30,10.00,22.00,CLR,M,M,M,M,M,M,M,M,M,M,M,M,M,M,85.90,KDRA 021953Z AUTO 23014G22KT 10SM CLR 32/09 A2993 RMK AO2 SLP083 T03170089,M
ELY,2025-06-02 19:53,-114.8453,39.2950,1909.00,73.00,41.00,31.50,60.00,4.00,0.02,30.06,M,10.00,M,SCT,BKN,M,M,9500.00,11000.00,M,M,M,M,M,M,M,M,M,73.00,KELY 021953Z AUTO 06004KT 10SM SCT095 BKN110 23/05 A3006 RMK AO2 RAB28E49 SLPNO P0002 T02280050 $,M
VGT,2025-06-02 19:53,-115.1933,36.2111,667.00,83.00,55.00,38.33,120.00,4.00,0.00,29.90,1011.80,10.00,M,CLR,M,M,M,M,M,M,M,M,M,M,M,M,M,M,82.11,KVGT 021953Z 12004KT 10SM CLR 28/13 A2990 RMK AO2 SLP118 T02830128,M
LOL,2025-06-02 19:53,-118.5701,40.0684,1192.43,77.00,20.00,11.74,60.00,7.00,0.00,30.06,1014.20,10.00,M,CLR,M,M,M,M,M,M,M,M,M,M,M,M,M,M,77.00,KLOL 021953Z AUTO 06007KT 10SM CLR 25/M07 A3006 RMK AO2 SLP142 T02501067,M
INS,2025-06-02 19:55,-115.6733,36.5872,955.00,87.40,51.30,29.08,100.00,7.00,0.00,29.91,1007.40,10.00,M,CLR,M,M,M,M,M,M,M,M,M,M,M,M,M,M,84.97,KINS 021955Z AUTO 10007KT 10SM CLR 31/11 A2991 RMK AO2 SLP074 T03080107 $,M
RNO,2025-06-02 19:55,-119.7711,39.4839,1341.00,77.00,27.00,15.75,0.00,0.00,0.00,30.08,1013.30,10.00,M,CLR,M,M,M,M,M,M,M,M,M,M,M,M,M,M,77.00,KRNO 021955Z 00000KT 10SM CLR 25/M03 A3008 RMK AO2 SLP133 T02501028,M
BAM,2025-06-02 19:55,-116.8743,40.5990,1382.36,73.40,19.40,12.90,340.00,8.00,0.00,30.10,M,10.00,M,CLR,M,M,M,M,M,M,M,M,M,M,M,M,M,M,73.40,KBAM 021955Z AUTO 34008KT 10SM CLR 23/M07 A3010 RMK AO1,M
CXP,2025-06-02 19:55,-119.7326,39.1923,1431.00,78.80,26.60,14.60,M,4.00,0.00,30.10,M,10.00,14.00,CLR,M,M,M,M,M,M,M,M,M,M,M,M,M,M,78.80,KCXP 021955Z AUTO VRB04G14KT 10SM CLR 26/M03 A3010 RMK AO2,M
RTS,2025-06-02 19:55,-119.8764,39.6682,1539.00,73.40,24.80,16.21,0.00,0.00,0.00,30.13,M,10.00,M,CLR,M,M,M,M,M,M,M,M,M,M,M,M,M,M,73.40,KRTS 021955Z AUTO 00000KT 10SM CLR 23/M04 A3013 RMK AO2,M
MEV,2025-06-02 19:55,-119.7500,38.9963,1441.42,77.00,30.20,17.96,M,4.00,0.00,30.09,M,10.00,10.00,CLR,M,M,M,M,M,M,M,M,M,M,M,M,M,M,77.00,KMEV 021955Z AUTO VRB04G10KT 10SM CLR 25/M01 A3009 RMK AO2,M
HTH,2025-06-02 19:55,-118.6315,38.5448,1282.89,78.80,26.60,14.60,330.00,12.00,0.00,30.07,M,10.00,19.00,CLR,M,M,M,M,M,M,M,M,M,M,M,M,M,M,78.80,KHTH 021955Z AUTO 33012G19KT 10SM CLR 26/M03 A3007 RMK A01,M
LSV,2025-06-02 19:55,-115.0343,36.2362,570.00,83.00,55.60,39.17,130.00,5.00,0.00,29.86,1008.50,10.00,M,FEW,BKN,M,M,10000.00,20000.00,M,M,M,M,M,M,M,M,M,82.22,KLSV 021955Z 13005KT 10SM FEW100 BKN200 28/13 A2986 RMK AO2A SLP085 T02840131 $,M
EKO,2025-06-02 19:56,-115.7860,40.8242,1367.00,78.00,20.00,11.36,230.00,8.00,0.00,30.05,1011.90,10.00,M,CLR,M,M,M,M,M,M,M,M,M,M,M,M,M,M,78.00,KEKO 021956Z AUTO 23008KT 10SM CLR 26/M07 A3005 RMK AO2 SLP119 T02561067,M
WMC,2025-06-02 19:56,-117.8072,40.9019,1315.00,73.00,20.00,13.41,M,M,0.00,30.10,1015.30,10.00,M,CLR,M,M,M,M,M,M,M,M,M,M,M,M,M,M,73.00,KWMC 021956Z AUTO 10SM CLR 23/M07 A3010 RMK AO2 SLP153 T02281067 TSNO,M
HND,2025-06-02 19:56,-115.1344,35.9729,742.79,87.00,54.00,32.52,M,4.00,0.00,29.93,1012.20,10.00,M,CLR,M,M,M,M,M,M,M,M,M,M,M,M,M,M,85.12,KHND 021956Z VRB04KT 10SM CLR 31/12 A2993 RMK AO2 SLP122 T03060122 $,M
TPH,2025-06-02 19:56,-117.0904,38.0505,1654.00,83.00,35.00,17.91,320.00,11.00,0.00,30.05,M,10.00,20.00,CLR,M,M,M,M,M,M,M,M,M,M,M,M,M,M,80.47,KTPH 021956Z AUTO 32011G20KT 10SM CLR 28/02 A3005 RMK AO2 SLPNO T02830017 $,M
LAS,2025-06-02 19:56,-115.1634,36.0719,663.00,85.00,57.00,38.64,60.00,10.00,0.00,29.92,1010.50,10.00,14.00,FEW,BKN,M,M,9000.00,20000.00,M,M,M,M,M,M,M,M,M,84.09,KLAS 021956Z 06010G14KT 10SM FEW090 BKN200 29/14 A2992 RMK AO2 SLP105 T02940139 $,M
NFL,2025-06-02 19:57,-118.7010,39.4166,1199.00,80.00,27.00,14.27,320.00,8.00,0.00,30.06,1014.80,8.00,M,FEW,M,M,M,8000.00,M,M,M,M,M,M,M,M,M,M,78.37,KNFL 021957Z 32008KT 8SM FEW080 27/M03 A3006 RMK SLP148 T02671028,M
LAS,2025-06-02 19:59,-115.1634,36.0719,663.00,85.00,58.00,40.06,50.00,8.00,0.00,29.91,M,10.00,M,FEW,BKN,M,M,9000.00,20000.00,M,M,M,M,M,M,M,M,M,84.34,KLAS 021959Z 05008KT 10SM FEW090 BKN200 29/14 A2991 RMK AO2 T02940144 $,M
RTS,2025-06-02 20:05,-119.8764,39.6682,1539.00,73.40,24.80,16.21,60.00,6.00,0.00,30.13,M,10.00,M,CLR,M,M,M,M,M,M,M,M,M,M,M,M,M,M,73.40,KRTS 022005Z AUTO 06006KT 10SM CLR 23/M04 A3013 RMK AO2,M
MEV,2025-06-02 20:05,-119.7500,38.9963,1441.42,77.00,32.00,19.31,320.00,8.00,0.00,30.09,M,10.00,M,CLR,M,M,M,M,M,M,M,M,M,M,M,M,M,M,77.00,KMEV 022005Z AUTO 32008KT 10SM CLR 25/M00 A3009 RMK AO2,M
CXP,2025-06-02 20:10,-119.7326,39.1923,1431.00,78.80,26.60,14.60,60.00,9.00,0.00,30.10,M,10.00,M,CLR,M,M,M,M,M,M,M,M,M,M,M,M,M,M,78.80,KCXP 022010Z AUTO 06009KT 10SM CLR 26/M03 A3010 RMK AO2,M
TMT,2025-06-02 20:10,-117.1971,39.4643,1749.34,77.40,32.50,19.45,290.00,4.00,0.00,30.12,M,10.00,17.00,CLR,M,M,M,M,M,M,M,M,M,M,M,M,M,M,77.40,KTMT 022010Z AUTO 29004G17KT 10SM CLR 25/00 A3012 RMK AO2 T02520003,M
BVU,2025-06-02 20:15,-114.8611,35.9475,671.00,84.20,57.20,39.93,170.00,12.00,0.00,29.89,M,10.00,M,CLR,M,M,M,M,M,M,M,M,M,M,M,M,M,M,83.48,KBVU 022015Z AUTO 17012KT 10SM CLR 29/14 A2989 RMK AO2,M
BAM,2025-06-02 20:15,-116.8743,40.5990,1382.36,75.20,21.20,13.11,320.00,4.00,0.00,30.09,M,10.00,M,CLR,M,M,M,M,M,M,M,M,M,M,M,M,M,M,75.20,KBAM 022015Z AUTO 32004KT 10SM CLR 24/M06 A3009 RMK AO1,M
HTH,2025-06-02 20:15,-118.6315,38.5448,1282.89,78.80,26.60,14.60,320.00,12.00,0.00,30.05,M,10.00,18.00,CLR,M,M,M,M,M,M,M,M,M,M,M,M,M,M,78.80,KHTH 022015Z AUTO 32012G18KT 300V360 10SM CLR 26/M03 A3005 RMK A01,M
TMT,2025-06-02 20:30,-117.1971,39.4643,1749.34,76.60,32.70,20.13,300.00,8.00,0.00,30.11,M,10.00,M,CLR,M,M,M,M,M,M,M,M,M,M,M,M,M,M,76.60,KTMT 022030Z AUTO 30008KT 10SM CLR 25/00 A3011 RMK AO2 T02480004,M
BVU,2025-06-02 20:35,-114.8611,35.9475,671.00,84.20,57.20,39.93,0.00,0.00,0.00,29.88,M,10.00,12.00,CLR,M,M,M,M,M,M,M,M,M,M,M,M,M,M,83.48,KBVU 022035Z AUTO 00000G12KT 10SM CLR 29/14 A2988 RMK AO2,M
BAM,2025-06-02 20:35,-116.8743,40.5990,1382.36,77.00,23.00,13.33,340.00,9.00,0.00,30.08,M,10.00,M,CLR,M,M,M,M,M,M,M,M,M,M,M,M,M,M,77.00,KBAM 022035Z AUTO 34009KT 10SM CLR 25/M05 A3008 RMK AO1,M
CXP,2025-06-02 20:35,-119.7326,39.1923,1431.00,78.80,26.60,14.60,110.00,8.00,0.00,30.08,M,10.00,M,CLR,M,M,M,M,M,M,M,M,M,M,M,M,M,M,78.80,KCXP 022035Z AUTO 11008KT 10SM CLR 26/M03 A3008 RMK AO2,M
RTS,2025-06-02 20:35,-119.8764,39.6682,1539.00,77.00,26.60,15.49,110.00,7.00,0.00,30.11,M,10.00,M,CLR,M,M,M,M,M,M,M,M,M,M,M,M,M,M,77.00,KRTS 022035Z AUTO 11007KT 080V160 10SM CLR 25/M03 A3011 RMK AO2,M
MEV,2025-06-02 20:35,-119.7500,38.9963,1441.42,77.00,30.20,17.96,M,5.00,0.00,30.07,M,10.00,M,CLR,M,M,M,M,M,M,M,M,M,M,M,M,M,M,77.00,KMEV 022035Z AUTO VRB05KT 10SM CLR 25/M01 A3007 RMK AO2,M
HTH,2025-06-02 20:35,-118.6315,38.5448,1282.89,80.60,24.80,12.77,330.00,14.00,0.00,30.04,M,10.00,M,CLR,M,M,M,M,M,M,M,M,M,M,M,M,M,M,78.94,KHTH 022035Z AUTO 33014KT 10SM CLR 27/M04 A3004 RMK A01,M
TMT,2025-06-02 20:50,-117.1971,39.4643,1749.34,77.00,32.40,19.63,350.00,5.00,0.00,30.10,M,10.00,M,CLR,M,M,M,M,M,M,M,M,M,M,M,M,M,M,77.00,KTMT 022050Z AUTO 35005KT 10SM CLR 25/00 A3010 RMK AO2 T02500002,M
P68,2025-06-02 20:53,-116.0056,39.6014,1993.00,78.00,32.00,18.69,360.00,7.00,0.00,30.06,1009.40,M,20.00,M,M,M,M,M,M,M,M,M,M,M,M,M,M,M,78.00,KP68 022053Z AUTO 36007G20KT 26/00 A3006 RMK AO1 SLP094 T02560000 58015,M
DRA,2025-06-02 20:53,-116.0278,36.6206,1009.00,91.00,47.00,22.12,250.00,16.00,0.00,29.90,1007.30,10.00,21.00,CLR,M,M,M,M,M,M,M,M,M,M,M,M,M,M,87.58,KDRA 022053Z AUTO 25016G21KT 10SM CLR 33/08 A2990 RMK AO2 SLP073 T03280083 58015,M
ELY,2025-06-02 20:53,-114.8453,39.2950,1909.00,74.00,37.00,26.05,20.00,4.00,T,30.04,M,10.00,M,BKN,M,M,M,11000.00,M,M,M,M,M,M,M,M,M,M,74.00,KELY 022053Z AUTO 02004KT 10SM BKN110 23/03 A3004 RMK AO2 RAB1959E11B29E40 SLPNO P0000 60002 T02330028 58014 $,M
VGT,2025-06-02 20:53,-115.1933,36.2111,667.00,86.00,56.00,36.10,90.00,3.00,0.00,29.87,1010.50,10.00,15.00,CLR,M,M,M,M,M,M,M,M,M,M,M,M,M,M,84.69,KVGT 022053Z 09003G15KT 10SM CLR 30/13 A2987 RMK AO2 SLP105 T03000133 58018,M
LOL,2025-06-02 20:53,-118.5701,40.0684,1192.43,80.00,18.00,9.76,M,4.00,0.00,30.04,1013.40,10.00,18.00,CLR,M,M,M,M,M,M,M,M,M,M,M,M,M,M,77.88,KLOL 022053Z AUTO VRB04G18KT 10SM CLR 27/M08 A3004 RMK AO2 SLP134 T02671078 58016,M
BVU,2025-06-02 20:55,-114.8611,35.9475,671.00,86.00,57.20,37.70,120.00,8.00,0.00,29.87,M,10.00,M,CLR,M,M,M,M,M,M,M,M,M,M,M,M,M,M,84.99,KBVU 022055Z AUTO 12008KT 100V170 10SM CLR 30/14 A2987 RMK AO2,M
INS,2025-06-02 20:55,-115.6733,36.5872,955.00,89.00,48.60,25.00,150.00,3.00,0.00,29.88,1006.10,10.00,M,CLR,M,M,M,M,M,M,M,M,M,M,M,M,M,M,85.97,KINS 022055Z AUTO 15003KT 10SM CLR 32/09 A2988 RMK AO2 SLP061 T03170092 57019 $,M
RNO,2025-06-02 20:55,-119.7711,39.4839,1341.00,79.00,28.00,15.36,0.00,0.00,0.00,30.06,1012.50,10.00,M,FEW,M,M,M,10000.00,M,M,M,M,M,M,M,M,M,M,79.00,KRNO 022055Z 00000KT 10SM FEW100 26/M02 A3006 RMK AO2 SLP125 T02611022 58015,M
BAM,2025-06-02 20:55,-116.8743,40.5990,1382.36,77.00,21.20,12.35,330.00,9.00,0.00,30.08,M,10.00,14.00,CLR,M,M,M,M,M,M,M,M,M,M,M,M,M,M,77.00,KBAM 022055Z AUTO 33009G14KT 10SM CLR 25/M06 A3008 RMK AO1,M
CXP,2025-06-02 20:55,-119.7326,39.1923,1431.00,80.60,26.60,13.76,70.00,7.00,0.00,30.08,M,9.00,13.00,CLR,M,M,M,M,M,M,M,M,M,M,M,M,M,M,78.68,KCXP 022055Z AUTO 07007G13KT 9SM CLR 27/M03 A3008 RMK AO2,M
LSV,2025-06-02 20:55,-115.0343,36.2362,570.00,86.40,53.80,32.90,160.00,5.00,0.00,29.82,1007.00,10.00,M,FEW,SCT,M,M,1000.00,20000.00,M,M,M,M,M,M,M,M,M,84.56,KLSV 022055Z 16005KT 10SM FEW010 SCT200 30/12 A2982 RMK AO2A TCU DSNT W SLP070 T03020121 57018 $,M
RTS,2025-06-02 20:55,-119.8764,39.6682,1539.00,77.00,26.60,15.49,0.00,0.00,0.00,30.11,M,10.00,M,CLR,M,M,M,M,M,M,M,M,M,M,M,M,M,M,77.00,KRTS 022055Z AUTO 00000KT 10SM CLR 25/M03 A3011 RMK AO2,M
MEV,2025-06-02 20:55,-119.7500,38.9963,1441.42,78.80,32.00,18.20,M,6.00,0.00,30.06,M,10.00,11.00,CLR,M,M,M,M,M,M,M,M,M,M,M,M,M,M,78.80,KMEV 022055Z AUTO VRB06G11KT 10SM CLR 26/M00 A3006 RMK AO2,M
HTH,2025-06-02 20:55,-118.6315,38.5448,1282.89,80.60,26.60,13.76,320.00,12.00,0.00,30.03,M,9.00,19.00,CLR,M,M,M,M,M,M,M,M,M,M,M,M,M,M,78.68,KHTH 022055Z AUTO 32012G19KT 9SM CLR 27/M03 A3003 RMK A01,M
EKO,2025-06-02 20:56,-115.7860,40.8242,1367.00,77.00,24.00,13.90,270.00,7.00,0.00,30.03,1011.50,10.00,18.00,CLR,M,M,M,M,M,M,M,M,M,M,M,M,M,M,77.00,KEKO 022056Z AUTO 27007G18KT 220V320 10SM CLR 25/M04 A3003 RMK AO2 SLP115 T02501044 58015,M
WMC,2025-06-02 20:56,-117.8072,40.9019,1315.00,76.00,13.00,8.96,M,6.00,0.00,30.07,1014.30,10.00,M,CLR,M,M,M,M,M,M,M,M,M,M,M,M,M,M,76.00,KWMC 022056Z AUTO VRB06KT 10SM CLR 24/M11 A3007 RMK AO2 SLP143 T02441106 58017 TSNO,M
HND,2025-06-02 20:56,-115.1344,35.9729,742.79,88.00,57.00,35.13,30.00,8.00,0.00,29.90,1011.20,10.00,M,CLR,M,M,M,M,M,M,M,M,M,M,M,M,M,M,86.72,KHND 022056Z 03008KT 360V090 10SM CLR 31/14 A2990 RMK AO2 SLP112 T03110139 58020 $,M
TPH,2025-06-02 20:56,-117.0904,38.0505,1654.00,85.00,35.00,16.79,320.00,12.00,0.00,30.02,1008.20,10.00,20.00,M,M,M,M,M,M,M,M,M,M,M,M,M,M,M,81.92,KTPH 022056Z AUTO 32012G20KT 10SM 29/02 A3002 RMK AO2 SLP082 T02940017 58015 $,M
LAS,2025-06-02 20:56,-115.1634,36.0719,663.00,88.00,57.00,35.13,80.00,11.00,0.00,29.88,1009.30,10.00,16.00,FEW,BKN,M,M,9000.00,20000.00,M,M,M,M,M,M,M,M,M,86.72,KLAS 022056Z 08011G16KT 10SM FEW090 BKN200 31/14 A2988 RMK AO2 SLP093 T03110139 58019 $,M
NFL,2025-06-02 20:57,-118.7010,39.4166,1199.00,81.00,28.00,14.39,360.00,9.00,0.00,30.03,1013.90,10.00,17.00,FEW,M,M,M,8000.00,M,M,M,M,M,M,M,M,M,M,78.98,KNFL 022057Z 36009G17KT 10SM 330/V030 8SM FEW080 27/M02 A3003 RMK SLP139 T02721022 58017,M
TMT,2025-06-02 21:10,-117.1971,39.4643,1749.34,77.70,32.00,18.87,350.00,4.00,0.00,30.09,M,10.00,M,CLR,M,M,M,M,M,M,M,M,M,M,M,M,M,M,77.70,KTMT 022110Z AUTO 35004KT 10SM CLR 25/00 A3009 RMK AO2 T02541001,M
CXP,2025-06-02 21:10,-119.7326,39.1923,1431.00,80.60,26.60,13.76,90.00,7.00,0.00,30.07,M,10.00,M,CLR,M,M,M,M,M,M,M,M,M,M,M,M,M,M,78.68,KCXP 022110Z AUTO 09007KT 10SM CLR 27/M03 A3007 RMK AO2 LTG DSNT SE,M
RTS,2025-06-02 21:15,-119.8764,39.6682,1539.00,78.80,26.60,14.60,180.00,4.00,0.00,30.10,M,10.00,14.00,CLR,M,M,M,M,M,M,M,M,M,M,M,M,M,M,78.80,KRTS 022115Z AUTO 18004G14KT 10SM CLR 26/M03 A3010 RMK AO2,M
MEV,2025-06-02 21:15,-119.7500,38.9963,1441.42,80.60,30.20,15.95,290.00,8.00,0.00,30.05,M,10.00,M,CLR,M,M,M,M,M,M,M,M,M,M,M,M,M,M,78.77,KMEV 022115Z AUTO 29008KT 10SM CLR 27/M01 A3005 RMK AO2,M
HTH,2025-06-02 21:15,-118.6315,38.5448,1282.89,82.40,26.60,12.98,320.00,12.00,0.00,30.02,M,8.00,18.00,CLR,M,M,M,M,M,M,M,M,M,M,M,M,M,M,79.92,KHTH 022115Z AUTO 32012G18KT 8SM CLR 28/M03 A3002 RMK A01,M
BVU,2025-06-02 21:15,-114.8611,35.9475,671.00,87.80,55.40,33.37,130.00,9.00,0.00,29.86,M,10.00,M,CLR,M,M,M,M,M,M,M,M,M,M,M,M,M,M,86.13,KBVU 022115Z AUTO 13009KT 10SM CLR 31/13 A2986 RMK AO2 LTG DSNT NE AND NW,M
BAM,2025-06-02 21:15,-116.8743,40.5990,1382.36,78.80,19.40,10.78,320.00,10.00,0.00,30.07,M,10.00,14.00,CLR,M,M,M,M,M,M,M,M,M,M,M,M,M,M,78.80,KBAM 022115Z AUTO 32010G14KT 10SM CLR 26/M07 A3007 RMK AO1,M
LAS,2025-06-02 21:16,-115.1634,36.0719,663.00,87.00,56.00,34.97,0.00,0.00,0.00,29.87,M,10.00,M,FEW,BKN,M,M,9000.00,20000.00,M,M,M,M,M,M,M,M,M,85.56,KLAS 022116Z COR 00000KT 10SM FEW090 BKN200 31/13 A2987 RMK AO2 T03060133 $,M
RTS,2025-06-02 21:25,-119.8764,39.6682,1539.00,78.80,26.60,14.60,M,5.00,0.00,30.10,M,10.00,10.00,CLR,M,M,M,M,M,M,M,M,M,M,M,M,M,M,78.80,KRTS 022125Z AUTO VRB05G10KT 10SM CLR 26/M03 A3010 RMK AO2,M
MEV,2025-06-02 21:25,-119.7500,38.9963,1441.42,80.60,32.00,17.16,290.00,7.00,0.00,30.05,M,10.00,M,CLR,M,M,M,M,M,M,M,M,M,M,M,M,M,M,78.82,KMEV 022125Z AUTO 29007KT 260V320 10SM CLR 27/M00 A3005 RMK AO2,M
INS,2025-06-02 21:27,-115.6733,36.5872,955.00,89.60,50.00,25.85,160.00,12.00,0.00,29.87,1006.00,10.00,17.00,CLR,M,M,M,M,M,M,M,M,M,M,M,M,M,M,86.71,KINS 022127Z AUTO 16012G17KT 10SM CLR 32/10 A2987 RMK AO2 WSHFT 25 SLP060 $,M
CXP,2025-06-02 21:30,-119.7326,39.1923,1431.00,82.40,26.60,12.98,0.00,0.00,0.00,30.06,M,10.00,M,CLR,M,M,M,M,M,M,M,M,M,M,M,M,M,M,79.92,KCXP 022130Z AUTO 00000KT 10SM CLR 28/M03 A3006 RMK AO2,M
TMT,2025-06-02 21:30,-117.1971,39.4643,1749.34,78.60,32.00,18.32,350.00,12.00,0.00,30.08,M,10.00,18.00,CLR,M,M,M,M,M,M,M,M,M,M,M,M,M,M,78.60,KTMT 022130Z AUTO 35012G18KT 320V020 10SM CLR 26/00 A3008 RMK AO2 T02590000,M
BVU,2025-06-02 21:35,-114.8611,35.9475,671.00,86.00,55.40,35.33,120.00,8.00,0.00,29.85,M,10.00,13.00,CLR,M,M,M,M,M,M,M,M,M,M,M,M,M,M,84.56,KBVU 022135Z AUTO 12008G13KT 080V160 10SM CLR 30/13 A2985 RMK AO2,M
BAM,2025-06-02 21:35,-116.8743,40.5990,1382.36,78.80,19.40,10.78,340.00,6.00,0.00,30.06,M,10.00,M,CLR,M,M,M,M,M,M,M,M,M,M,M,M,M,M,78.80,KBAM 022135Z AUTO 34006KT 10SM CLR 26/M07 A3006 RMK AO1,M
HTH,2025-06-02 21:35,-118.6315,38.5448,1282.89,82.40,26.60,12.98,320.00,12.00,0.00,30.01,M,9.00,M,CLR,M,M,M,M,M,M,M,M,M,M,M,M,M,M,79.92,KHTH 022135Z AUTO 32012KT 9SM CLR 28/M03 A3001 RMK A01,M
P68,2025-06-02 21:45,-116.0056,39.6014,1993.00,79.00,32.00,18.08,360.00,14.00,0.00,30.03,M,M,24.00,M,M,M,M,M,M,M,M,M,M,M,M,M,M,M,79.00,KP68 022145Z AUTO 36014G24KT 26/00 A3003 RMK AO1 WSHFT 2128 T02610000,M
TMT,2025-06-02 21:50,-117.1971,39.4643,1749.34,78.60,32.00,18.32,360.00,9.00,0.00,30.08,M,10.00,M,CLR,M,M,M,M,M,M,M,M,M,M,M,M,M,M,78.60,KTMT 022150Z AUTO 36009KT 10SM CLR 26/00 A3008 RMK AO2 T02591001,M
P68,2025-06-02 21:53,-116.0056,39.6014,1993.00,79.00,31.00,17.37,10.00,17.00,0.00,30.03,1008.70,M,23.00,M,M,M,M,M,M,M,M,M,M,M,M,M,M,M,79.00,KP68 022153Z AUTO 01017G23KT 26/M01 A3003 RMK AO1 WSHFT 2128 SLP087 T02611006,M
DRA,2025-06-02 21:53,-116.0278,36.6206,1009.00,91.00,46.00,21.30,M,M,0.00,29.88,1006.50,10.00,M,CLR,M,M,M,M,M,M,M,M,M,M,M,M,M,M,87.46,KDRA 022153Z AUTO 10SM CLR 33/08 A2988 RMK AO2 SLP065 T03280078,M
ELY,2025-06-02 21:53,-114.8453,39.2950,1909.00,82.00,28.00,13.93,340.00,12.00,0.00,30.01,M,10.00,23.00,SCT,M,M,M,11000.00,M,M,M,M,M,M,M,M,M,M,79.66,KELY 022153Z AUTO 34012G23KT 290V010 10SM SCT110 28/M02 A3001 RMK AO2 SLPNO T02781022,M
VGT,2025-06-02 21:53,-115.1933,36.2111,667.00,88.00,55.00,32.68,140.00,8.00,0.00,29.83,1009.30,10.00,15.00,CLR,M,M,M,M,M,M,M,M,M,M,M,M,M,M,86.22,KVGT 022153Z 14008G15KT 130V190 10SM CLR 31/13 A2983 RMK AO2 SLP093 T03110128,M
LOL,2025-06-02 21:53,-118.5701,40.0684,1192.43,81.00,19.00,9.87,70.00,11.00,0.00,30.00,1012.30,10.00,15.00,CLR,M,M,M,M,M,M,M,M,M,M,M,M,M,M,78.52,KLOL 022153Z AUTO 07011G15KT 10SM CLR 27/M07 A3000 RMK AO2 SLP123 T02721072,M
BVU,2025-06-02 21:55,-114.8611,35.9475,671.00,87.80,55.40,33.37,130.00,8.00,0.00,29.84,M,10.00,14.00,CLR,M,M,M,M,M,M,M,M,M,M,M,M,M,M,86.13,KBVU 022155Z AUTO 13008G14KT 10SM CLR 31/13 A2984 RMK AO2,M
INS,2025-06-02 21:55,-115.6733,36.5872,955.00,89.40,50.00,26.02,120.00,10.00,0.00,29.85,1005.30,10.00,14.00,CLR,M,M,M,M,M,M,M,M,M,M,M,M,M,M,86.53,KINS 022155Z AUTO 12010G14KT 10SM CLR 32/10 A2985 RMK AO2 SLP053 T03190100 $,M
RNO,2025-06-02 21:55,-119.7711,39.4839,1341.00,82.00,30.00,15.12,M,4.00,0.00,30.03,1011.50,10.00,M,FEW,M,M,M,9000.00,M,M,M,M,M,M,M,M,M,M,79.69,KRNO 022155Z VRB04KT 10SM FEW090 28/M01 A3003 RMK AO2 SLP115 T02781011,M
BAM,2025-06-02 21:55,-116.8743,40.5990,1382.36,78.80,23.00,12.56,350.00,7.00,0.00,30.05,M,10.00,M,CLR,M,M,M,M,M,M,M,M,M,M,M,M,M,M,78.80,KBAM 022155Z AUTO 35007KT 10SM CLR 26/M05 A3005 RMK AO1,M
CXP,2025-06-02 21:55,-119.7326,39.1923,1431.00,82.40,28.40,13.98,0.00,0.00,0.00,30.05,M,10.00,10.00,CLR,M,M,M,M,M,M,M,M,M,M,M,M,M,M,79.94,KCXP 022155Z AUTO 00000G10KT 10SM CLR 28/M02 A3005 RMK AO2,M
LSV,2025-06-02 21:55,-115.0343,36.2362,570.00,88.70,52.30,28.96,140.00,7.00,0.00,29.79,1006.00,10.00,M,FEW,SCT,M,M,10000.00,20000.00,M,M,M,M,M,M,M,M,M,86.28,KLSV 022155Z 14007KT 10SM FEW100 SCT200 32/11 A2979 RMK AO2A TCU DSNT E SLP060 T03150113 $,M
RTS,2025-06-02 21:55,-119.8764,39.6682,1539.00,78.80,26.60,14.60,M,5.00,0.00,30.08,M,10.00,10.00,CLR,M,M,M,M,M,M,M,M,M,M,M,M,M,M,78.80,KRTS 022155Z AUTO VRB05G10KT 10SM CLR 26/M03 A3008 RMK AO2,M
MEV,2025-06-02 21:55,-119.7500,38.9963,1441.42,82.40,32.00,16.19,290.00,8.00,0.00,30.03,M,10.00,M,CLR,M,M,M,M,M,M,M,M,M,M,M,M,M,M,80.00,KMEV 022155Z AUTO 29008KT 10SM CLR 28/M00 A3003 RMK AO2,M
HTH,2025-06-02 21:55,-118.6315,38.5448,1282.89,82.40,26.60,12.98,320.00,13.00,0.00,30.00,M,10.00,M,CLR,M,M,M,M,M,M,M,M,M,M,M,M,M,M,79.92,KHTH 022155Z AUTO 32013KT 10SM CLR 28/M03 A3000 RMK A01,M
EKO,2025-06-02 21:56,-115.7860,40.8242,1367.00,79.00,20.00,10.99,230.00,13.00,0.00,30.01,1010.60,10.00,22.00,CLR,M,M,M,M,M,M,M,M,M,M,M,26.00,210.00,2025-06-02 21:25,79.00,KEKO 022156Z AUTO 23013G22KT 10SM CLR 26/M07 A3001 RMK AO2 PK WND 21026/2125 SLP106 T02611067,M
WMC,2025-06-02 21:56,-117.8072,40.9019,1315.00,80.00,13.00,7.85,350.00,8.00,0.00,30.05,1013.50,10.00,M,CLR,M,M,M,M,M,M,M,M,M,M,M,M,M,M,77.63,KWMC 022156Z AUTO 35008KT 10SM CLR 27/M11 A3005 RMK AO2 SLP135 T02671106 TSNO,M
HND,2025-06-02 21:56,-115.1344,35.9729,742.79,90.00,55.00,30.69,150.00,9.00,0.00,29.87,1010.00,10.00,M,CLR,M,M,M,M,M,M,M,M,M,M,M,M,M,M,88.08,KHND 022156Z 15009KT 10SM CLR 32/13 A2987 RMK AO2 SLP100 T03220128 $,M
TPH,2025-06-02 21:56,-117.0904,38.0505,1654.00,85.00,35.00,16.79,330.00,14.00,0.00,30.00,1007.90,10.00,24.00,CLR,M,M,M,M,M,M,M,M,M,M,M,26.00,300.00,2025-06-02 21:38,81.92,KTPH 022156Z AUTO 33014G24KT 10SM CLR 29/02 A3000 RMK AO2 PK WND 30026/2138 SLP079 T02940017 $,M
LAS,2025-06-02 21:56,-115.1634,36.0719,663.00,90.00,55.00,30.69,100.00,7.00,0.00,29.85,1008.10,10.00,M,FEW,SCT,M,M,9000.00,20000.00,M,M,M,M,M,M,M,M,M,88.08,KLAS 022156Z 10007KT 10SM FEW090 SCT200 32/13 A2985 RMK AO2 SLP081 T03220128 $,M
NFL,2025-06-02 21:57,-118.7010,39.4166,1199.00,84.00,28.00,13.06,10.00,8.00,0.00,30.00,1013.00,9.00,15.00,FEW,M,M,M,8000.00,M,M,M,M,M,M,M,M,M,M,81.10,KNFL 022157Z 01008G15K 9SM FEW080 29/M02 A3000 RMK SLP130 T02891022,M
TMT,2025-06-02 22:10,-117.1971,39.4643,1749.34,80.00,32.00,17.50,330.00,9.00,0.00,30.07,M,10.00,16.00,CLR,M,M,M,M,M,M,M,M,M,M,M,M,M,M,78.52,KTMT 022210Z AUTO 33009G16KT 10SM CLR 27/00 A3007 RMK AO2 T02670000,M
BVU,2025-06-02 22:15,-114.8611,35.9475,671.00,89.60,55.40,31.53,120.00,8.00,0.00,29.83,M,10.00,14.00,CLR,M,M,M,M,M,M,M,M,M,M,M,M,M,M,87.80,KBVU 022215Z AUTO 12008G14KT 070V140 10SM CLR 32/13 A2983 RMK AO2,M
BAM,2025-06-02 22:15,-116.8743,40.5990,1382.36,77.00,23.00,13.33,10.00,3.00,0.00,30.04,M,10.00,M,CLR,M,M,M,M,M,M,M,M,M,M,M,M,M,M,77.00,KBAM 022215Z AUTO 01003KT 10SM CLR 25/M05 A3004 RMK AO1,M
CXP,2025-06-02 22:15,-119.7326,39.1923,1431.00,82.40,28.40,13.98,M,6.00,0.00,30.04,M,10.00,M,CLR,M,M,M,M,M,M,M,M,M,M,M,M,M,M,79.94,KCXP 022215Z AUTO VRB06KT 10SM CLR 28/M02 A3004 RMK AO2,M
RTS,2025-06-02 22:15,-119.8764,39.6682,1539.00,80.60,26.60,13.76,80.00,8.00,0.00,30.07,M,10.00,M,CLR,M,M,M,M,M,M,M,M,M,M,M,M,M,M,78.68,KRTS 022215Z AUTO 08008KT 10SM CLR 27/M03 A3007 RMK AO2,M
MEV,2025-06-02 22:15,-119.7500,38.9963,1441.42,82.40,30.20,15.05,M,5.00,0.00,30.02,M,10.00,11.00,CLR,M,M,M,M,M,M,M,M,M,M,M,M,M,M,79.97,KMEV 022215Z AUTO VRB05G11KT 10SM CLR 28/M01 A3002 RMK AO2,M
HTH,2025-06-02 22:15,-118.6315,38.5448,1282.89,82.40,26.60,12.98,310.00,13.00,0.00,29.99,M,10.00,M,CLR,M,M,M,M,M,M,M,M,M,M,M,M,M,M,79.92,KHTH 022215Z AUTO 31013KT 10SM CLR 28/M03 A2999 RMK A01,M
TMT,2025-06-02 22:30,-117.1971,39.4643,1749.34,80.00,32.00,17.50,350.00,10.00,0.00,30.06,M,10.00,18.00,CLR,M,M,M,M,M,M,M,M,M,M,M,M,M,M,78.52,KTMT 022230Z AUTO 35010G18KT 10SM CLR 27/00 A3006 RMK AO2 T02671001,M
BVU,2025-06-02 22:35,-114.8611,35.9475,671.00,89.60,53.60,29.53,140.00,11.00,0.00,29.82,M,10.00,18.00,CLR,M,M,M,M,M,M,M,M,M,M,M,M,M,M,87.37,KBVU 022235Z AUTO 14011G18KT 10SM CLR 32/12 A2982 RMK AO2,M
BAM,2025-06-02 22:35,-116.8743,40.5990,1382.36,80.60,24.80,12.77,70.00,3.00,0.00,30.03,M,10.00,M,CLR,M,M,M,M,M,M,M,M,M,M,M,M,M,M,78.94,KBAM 022235Z AUTO 07003KT 10SM CLR 27/M04 A3003 RMK AO1,M
CXP,2025-06-02 22:35,-119.7326,39.1923,1431.00,84.20,28.40,13.20,M,4.00,0.00,30.03,M,10.00,M,CLR,M,M,M,M,M,M,M,M,M,M,M,M,M,M,81.25,KCXP 022235Z AUTO VRB04KT 10SM CLR 29/M02 A3003 RMK AO2,M
RTS,2025-06-02 22:35,-119.8764,39.6682,1539.00,78.80,26.60,14.60,0.00,0.00,0.00,30.07,M,10.00,11.00,CLR,M,M,M,M,M,M,M,M,M,M,M,M,M,M,78.80,KRTS 022235Z AUTO 00000G11KT 10SM CLR 26/M03 A3007 RMK AO2,M
MEV,2025-06-02 22:35,-119.7500,38.9963,1441.42,82.40,30.20,15.05,0.00,0.00,0.00,30.01,M,10.00,10.00,CLR,M,M,M,M,M,M,M,M,M,M,M,M,M,M,79.97,KMEV 022235Z AUTO 00000G10KT 10SM CLR 28/M01 A3001 RMK AO2,M
HTH,2025-06-02 22:35,-118.6315,38.5448,1282.89,84.20,26.60,12.25,320.00,16.00,0.00,29.99,M,10.00,M,CLR,M,M,M,M,M,M,M,M,M,M,M,M,M,M,81.14,KHTH 022235Z AUTO 32016KT 10SM CLR 29/M03 A2999 RMK A01,M
P68,2025-06-02 22:38,-116.0056,39.6014,1993.00,83.00,28.00,13.49,280.00,15.00,0.00,30.02,M,M,23.00,M,M,M,M,M,M,M,M,M,M,M,M,28.00,320.00,2025-06-02 22:25,80.37,KP68 022238Z AUTO 28015G23KT 28/M02 A3002 RMK AO1 PK WND 32028/2225 WSHFT 2221 T02831022,M
TMT,2025-06-02 22:50,-117.1971,39.4643,1749.34,80.00,32.00,17.50,10.00,14.00,0.00,30.06,M,10.00,17.00,CLR,M,M,M,M,M,M,M,M,M,M,M,M,M,M,78.52,KTMT 022250Z AUTO 01014G17KT 10SM CLR 27/00 A3006 RMK AO2 T02670000,M
P68,2025-06-02 22:53,-116.0056,39.6014,1993.00,82.00,27.00,13.37,300.00,10.00,0.00,30.02,1008.60,M,23.00,M,M,M,M,M,M,M,M,M,M,M,M,28.00,320.00,2025-06-02 22:25,79.64,KP68 022253Z AUTO 30010G23KT 240V330 28/M03 A3002 RMK AO1 PK WND 32028/2225 WSHFT 2221 SLP086 T02781028,M
DRA,2025-06-02 22:53,-116.0278,36.6206,1009.00,92.00,45.00,19.88,230.00,11.00,0.00,29.85,1005.60,10.00,20.00,CLR,M,M,M,M,M,M,M,M,M,M,M,M,M,M,88.28,KDRA 022253Z AUTO 23011G20KT 10SM CLR 33/07 A2985 RMK AO2 SLP056 T03330072,M
ELY,2025-06-02 22:53,-114.8453,39.2950,1909.00,81.00,24.00,12.19,310.00,13.00,0.00,30.01,1006.00,10.00,23.00,CLR,M,M,M,M,M,M,M,M,M,M,M,M,M,M,78.82,KELY 022253Z AUTO 31013G23KT 10SM CLR 27/M04 A3001 RMK AO2 SLP060 T02721044,M
VGT,2025-06-02 22:53,-115.1933,36.2111,667.00,91.00,55.00,29.74,120.00,7.00,0.00,29.81,1008.30,10.00,18.00,CLR,M,M,M,M,M,M,M,M,M,M,M,M,M,M,89.05,KVGT 022253Z 12007G18KT 10SM CLR 33/13 A2981 RMK AO2 SLP083 T03280128,M
LOL,2025-06-02 22:53,-118.5701,40.0684,1192.43,83.00,20.00,9.65,90.00,8.00,0.00,29.97,1011.20,10.00,15.00,CLR,M,M,M,M,M,M,M,M,M,M,M,M,M,M,79.89,KLOL 022253Z AUTO 09008G15KT 10SM CLR 28/M07 A2997 RMK AO2 SLP112 T02831067,M
BVU,2025-06-02 22:55,-114.8611,35.9475,671.00,89.60,53.60,29.53,160.00,13.00,0.00,29.82,M,10.00,M,CLR,M,M,M,M,M,M,M,M,M,M,M,M,M,M,87.37,KBVU 022255Z AUTO 16013KT 10SM CLR 32/12 A2982 RMK AO2,M
INS,2025-06-02 22:55,-115.6733,36.5872,955.00,91.60,49.60,23.93,0.00,0.00,0.00,29.83,1004.40,10.00,M,FEW,M,M,M,9500.00,M,M,M,M,M,M,M,M,M,M,88.50,KINS 022255Z AUTO 00000KT 10SM FEW095 33/10 A2983 RMK AO2 SLP044 T03310098 $,M
RNO,2025-06-02 22:55,-119.7711,39.4839,1341.00,83.00,30.00,14.64,M,5.00,0.00,30.01,1010.70,10.00,M,FEW,M,M,M,9000.00,M,M,M,M,M,M,M,M,M,M,80.39,KRNO 022255Z VRB05KT 10SM FEW090 28/M01 A3001 RMK AO2 SLP107 T02831011,M
LSV,2025-06-02 22:55,-115.0343,36.2362,570.00,91.60,53.00,27.14,170.00,8.00,0.00,29.76,1005.00,10.00,M,FEW,SCT,M,M,10000.00,20000.00,M,M,M,M,M,M,M,M,M,89.15,KLSV 022255Z 17008KT 10SM FEW100 SCT200 33/12 A2976 RMK AO2A TCU DSNT W SLP050 T03310116 $,M
BAM,2025-06-02 22:55,-116.8743,40.5990,1382.36,80.60,26.60,13.76,360.00,7.00,0.00,30.02,M,10.00,15.00,CLR,M,M,M,M,M,M,M,M,M,M,M,M,M,M,78.68,KBAM 022255Z AUTO 36007G15KT 10SM CLR 27/M03 A3002 RMK AO1,M
CXP,2025-06-02 22:55,-119.7326,39.1923,1431.00,84.20,28.40,13.20,0.00,0.00,0.00,30.02,M,10.00,M,CLR,M,M,M,M,M,M,M,M,M,M,M,M,M,M,81.25,KCXP 022255Z AUTO 00000KT 10SM CLR 29/M02 A3002 RMK AO2,M
RTS,2025-06-02 22:55,-119.8764,39.6682,1539.00,80.60,24.80,12.77,0.00,0.00,0.00,30.06,M,10.00,12.00,CLR,M,M,M,M,M,M,M,M,M,M,M,M,M,M,78.94,KRTS 022255Z AUTO 00000G12KT 10SM CLR 27/M04 A3006 RMK AO2,M
MEV,2025-06-02 22:55,-119.7500,38.9963,1441.42,82.40,28.40,13.98,M,6.00,0.00,30.01,M,10.00,15.00,CLR,M,M,M,M,M,M,M,M,M,M,M,M,M,M,79.94,KMEV 022255Z AUTO VRB06G15KT 10SM CLR 28/M02 A3001 RMK AO2,M
HTH,2025-06-02 22:55,-118.6315,38.5448,1282.89,84.20,26.60,12.25,330.00,15.00,0.00,29.98,M,10.00,20.00,CLR,M,M,M,M,M,M,M,M,M,M,M,M,M,M,81.14,KHTH 022255Z AUTO 33015G20KT 10SM CLR 29/M03 A2998 RMK A01,M
EKO,2025-06-02 22:56,-115.7860,40.8242,1367.00,80.00,15.00,8.57,270.00,15.00,0.00,30.00,1010.60,10.00,26.00,CLR,M,M,M,M,M,M,M,M,M,M,M,27.00,270.00,2025-06-02 22:22,77.72,KEKO 022256Z AUTO 27015G26KT 10SM CLR 27/M09 A3000 RMK AO2 PK WND 27027/2222 SLP106 T02671094,M
WMC,2025-06-02 22:56,-117.8072,40.9019,1315.00,78.00,12.00,8.02,M,5.00,0.00,30.02,1012.80,10.00,M,CLR,M,M,M,M,M,M,M,M,M,M,M,M,M,M,78.00,KWMC 022256Z AUTO VRB05KT 10SM CLR 26/M11 A3002 RMK AO2 SLP128 T02561111 TSNO,M
HND,2025-06-02 22:56,-115.1344,35.9729,742.79,91.00,55.00,29.74,90.00,8.00,0.00,29.84,1009.30,10.00,14.00,FEW,M,M,M,9500.00,M,M,M,M,M,M,M,M,M,M,89.05,KHND 022256Z 09008G14KT 10SM FEW095 33/13 A2984 RMK AO2 SLP093 T03280128 $,M
TPH,2025-06-02 22:56,-117.0904,38.0505,1654.00,86.00,33.00,15.02,300.00,13.00,0.00,29.99,1007.80,10.00,21.00,CLR,M,M,M,M,M,M,M,M,M,M,M,30.00,320.00,2025-06-02 22:32,82.65,KTPH 022256Z AUTO 30013G21KT 10SM CLR 30/01 A2999 RMK AO2 PK WND 32030/2232 SLP078 T03000006 $,M
LAS,2025-06-02 22:56,-115.1634,36.0719,663.00,92.00,54.00,27.80,M,4.00,0.00,29.82,1007.20,10.00,15.00,FEW,SCT,M,M,9000.00,20000.00,M,M,M,M,M,M,M,M,M,89.78,KLAS 022256Z VRB04G15KT 10SM FEW090 SCT200 33/12 A2982 RMK AO2 SLP072 T03330122 $,M
NFL,2025-06-02 22:57,-118.7010,39.4166,1199.00,85.00,27.00,12.14,350.00,8.00,0.00,29.97,1012.10,10.00,19.00,FEW,M,M,M,8000.00,M,M,M,M,M,M,M,M,M,M,81.72,KNFL 022257Z 35008G19KT 10SM FEW080 29/M03 A2997 RMK SLP121 T02941028,M
LAS,2025-06-02 22:58,-115.1634,36.0719,663.00,91.00,54.00,28.68,M,3.00,0.00,29.82,M,10.00,M,FEW,SCT,M,M,9000.00,20000.00,M,M,M,M,M,M,M,M,M,88.80,KLAS 022258Z VRB03KT 10SM FEW090 SCT200 33/12 A2982 RMK AO2 T03280122 $,M
TMT,2025-06-02 23:10,-117.1971,39.4643,1749.34,79.70,31.50,17.32,10.00,14.00,0.00,30.05,M,10.00,20.00,CLR,M,M,M,M,M,M,M,M,M,M,M,M,M,M,79.70,KTMT 022310Z AUTO 01014G20KT 10SM CLR 27/00 A3005 RMK AO2 T02651003,M
BVU,2025-06-02 23:15,-114.8611,35.9475,671.00,89.60,53.60,29.53,160.00,9.00,0.00,29.81,M,10.00,17.00,CLR,M,M,M,M,M,M,M,M,M,M,M,M,M,M,87.37,KBVU 022315Z AUTO 16009G17KT 10SM CLR 32/12 A2981 RMK AO2,M
BAM,2025-06-02 23:15,-116.8743,40.5990,1382.36,80.60,26.60,13.76,350.00,11.00,0.00,30.00,M,10.00,M,CLR,M,M,M,M,M,M,M,M,M,M,M,M,M,M,78.68,KBAM 022315Z AUTO 35011KT 10SM CLR 27/M03 A3000 RMK AO1,M
CXP,2025-06-02 23:15,-119.7326,39.1923,1431.00,86.00,30.20,13.41,350.00,7.00,0.00,30.01,M,10.00,M,CLR,M,M,M,M,M,M,M,M,M,M,M,M,M,M,82.64,KCXP 022315Z AUTO 35007KT 10SM CLR 30/M01 A3001 RMK AO2,M
RTS,2025-06-02 23:15,-119.8764,39.6682,1539.00,80.60,24.80,12.77,130.00,9.00,0.00,30.05,M,10.00,M,CLR,M,M,M,M,M,M,M,M,M,M,M,M,M,M,78.94,KRTS 022315Z AUTO 13009KT 10SM CLR 27/M04 A3005 RMK AO2,M
MEV,2025-06-02 23:15,-119.7500,38.9963,1441.42,84.20,28.40,13.20,300.00,9.00,0.00,30.00,M,10.00,M,CLR,M,M,M,M,M,M,M,M,M,M,M,M,M,M,81.25,KMEV 022315Z AUTO 30009KT 10SM CLR 29/M02 A3000 RMK AO2,M
HTH,2025-06-02 23:15,-118.6315,38.5448,1282.89,84.20,26.60,12.25,320.00,12.00,0.00,29.97,M,9.00,18.00,CLR,M,M,M,M,M,M,M,M,M,M,M,M,M,M,81.14,KHTH 022315Z AUTO 32012G18KT 9SM CLR 29/M03 A2997 RMK A01,M
TMT,2025-06-02 23:30,-117.1971,39.4643,1749.34,80.00,31.50,17.15,350.00,13.00,0.00,30.05,M,10.00,20.00,CLR,M,M,M,M,M,M,M,M,M,M,M,M,M,M,78.51,KTMT 022330Z AUTO 35013G20KT 10SM CLR 27/00 A3005 RMK AO2 T02661003,M
CXP,2025-06-02 23:35,-119.7326,39.1923,1431.00,84.20,30.20,14.20,M,6.00,0.00,30.00,M,10.00,M,CLR,M,M,M,M,M,M,M,M,M,M,M,M,M,M,81.26,KCXP 022335Z AUTO VRB06KT 10SM CLR 29/M01 A3000 RMK AO2,M
BVU,2025-06-02 23:35,-114.8611,35.9475,671.00,89.60,53.60,29.53,180.00,11.00,0.00,29.80,M,10.00,17.00,CLR,M,M,M,M,M,M,M,M,M,M,M,M,M,M,87.37,KBVU 022335Z AUTO 18011G17KT 10SM CLR 32/12 A2980 RMK AO2,M
BAM,2025-06-02 23:35,-116.8743,40.5990,1382.36,82.40,26.60,12.98,340.00,15.00,0.00,30.00,M,10.00,21.00,CLR,M,M,M,M,M,M,M,M,M,M,M,M,M,M,79.92,KBAM 022335Z AUTO 34015G21KT 10SM CLR 28/M03 A3000 RMK AO1,M
RTS,2025-06-02 23:35,-119.8764,39.6682,1539.00,82.40,26.60,12.98,M,6.00,0.00,30.04,M,10.00,22.00,CLR,M,M,M,M,M,M,M,M,M,M,M,M,M,M,79.92,KRTS 022335Z AUTO VRB06G22KT 230V300 10SM CLR 28/M03 A3004 RMK AO2,M
MEV,2025-06-02 23:35,-119.7500,38.9963,1441.42,84.20,28.40,13.20,M,5.00,0.00,29.99,M,10.00,M,CLR,M,M,M,M,M,M,M,M,M,M,M,M,M,M,81.25,KMEV 022335Z AUTO VRB05KT 10SM CLR 29/M02 A2999 RMK AO2,M
HTH,2025-06-02 23:35,-118.6315,38.5448,1282.89,84.20,26.60,12.25,330.00,15.00,0.00,29.96,M,10.00,M,CLR,M,M,M,M,M,M,M,M,M,M,M,M,M,M,81.14,KHTH 022335Z AUTO 33015KT 10SM CLR 29/M03 A2996 RMK A01,M
MEV,2025-06-02 23:45,-119.7500,38.9963,1441.42,84.20,28.40,13.20,M,6.00,0.00,29.99,M,10.00,M,CLR,M,M,M,M,M,M,M,M,M,M,M,M,M,M,81.25,KMEV 022345Z AUTO VRB06KT 10SM CLR 29/M02 A2999 RMK AO2,M
RTS,2025-06-02 23:45,-119.8764,39.6682,1539.00,80.60,28.40,14.82,330.00,8.00,0.00,30.04,M,10.00,M,CLR,M,M,M,M,M,M,M,M,M,M,M,M,M,M,78.72,KRTS 022345Z AUTO 33008KT 300V360 10SM CLR 27/M02 A3004 RMK AO2,M
CXP,2025-06-02 23:50,-119.7326,39.1923,1431.00,84.20,30.20,14.20,0.00,0.00,0.00,30.00,M,10.00,12.00,CLR,M,M,M,M,M,M,M,M,M,M,M,M,M,M,81.26,KCXP 022350Z AUTO 00000G12KT 10SM CLR 29/M01 A3000 RMK AO2,M
TMT,2025-06-02 23:50,-117.1971,39.4643,1749.34,80.00,31.00,16.81,340.00,16.00,0.00,30.05,M,10.00,21.00,CLR,M,M,M,M,M,M,M,M,M,M,M,M,M,M,78.49,KTMT 022350Z AUTO 34016G21KT 10SM CLR 27/00 A3005 RMK AO2 T02661005,M
P68,2025-06-02 23:53,-116.0056,39.6014,1993.00,80.00,26.00,13.69,330.00,13.00,0.00,30.01,1008.90,M,20.00,M,M,M,M,M,M,M,M,M,M,M,M,M,M,M,78.34,KP68 022353Z AUTO 33013G20KT 290V360 27/M03 A3001 RMK AO1 SLP089 T02671033 10283 20206 56013,M
DRA,2025-06-02 23:53,-116.0278,36.6206,1009.00,91.00,44.00,19.74,240.00,13.00,0.00,29.84,1005.40,10.00,21.00,CLR,M,M,M,M,M,M,M,M,M,M,M,M,M,M,87.27,KDRA 022353Z AUTO 24013G21KT 10SM CLR 33/07 A2984 RMK AO2 SLP054 T03280067 10339 20289 56019,M
ELY,2025-06-02 23:53,-114.8453,39.2950,1909.00,80.00,24.00,12.60,320.00,13.00,0.00,30.00,1006.30,10.00,21.00,CLR,M,M,M,M,M,M,M,M,M,M,M,M,M,M,78.26,KELY 022353Z AUTO 32013G21KT 10SM CLR 27/M04 A3000 RMK AO2 SLP063 60002 T02671044 10278 20217 56010,M
VGT,2025-06-02 23:53,-115.1933,36.2111,667.00,93.00,54.00,26.95,120.00,9.00,0.00,29.78,1007.60,10.00,17.00,CLR,M,M,M,M,M,M,M,M,M,M,M,M,M,M,90.78,KVGT 022353Z 12009G17KT 10SM CLR 34/12 A2978 RMK AO2 SLP076 T03390122 10339 20261 56027,M
LOL,2025-06-02 23:53,-118.5701,40.0684,1192.43,83.00,21.00,10.07,70.00,6.00,0.00,29.95,1010.60,10.00,M,CLR,M,M,M,M,M,M,M,M,M,M,M,M,M,M,79.95,KLOL 022353Z AUTO 07006KT 10SM CLR 28/M06 A2995 RMK AO2 SLP106 T02831061 10289 20228 56025,M
BVU,2025-06-02 23:55,-114.8611,35.9475,671.00,91.40,51.80,26.12,150.00,13.00,0.00,29.80,M,10.00,20.00,CLR,M,M,M,M,M,M,M,M,M,M,M,M,M,M,88.71,KBVU 022355Z AUTO 15013G20KT 10SM CLR 33/11 A2980 RMK AO2,M
INS,2025-06-02 23:55,-115.6733,36.5872,955.00,91.00,50.00,24.75,120.00,11.00,0.00,29.82,1004.30,10.00,16.00,CLR,M,M,M,M,M,M,M,M,M,M,M,M,M,M,88.00,KINS 022355Z AUTO 12011G16KT 10SM CLR 33/10 A2982 RMK AO2 LTG DSNT N SLP043 T03270101 10336 20273 56019 $,M
RNO,2025-06-02 23:55,-119.7711,39.4839,1341.00,87.00,30.00,12.88,330.00,10.00,0.00,29.97,1009.50,10.00,18.00,FEW,M,M,M,9000.00,M,M,M,M,M,M,M,M,M,M,83.41,KRNO 022355Z 33010G18KT 10SM FEW090 31/M01 A2997 RMK AO2 SLP095 T03061011 10306 20222 58025,M
BAM,2025-06-02 23:55,-116.8743,40.5990,1382.36,80.60,23.00,11.84,350.00,16.00,0.00,29.99,M,10.00,M,CLR,M,M,M,M,M,M,M,M,M,M,M,M,M,M,78.80,KBAM 022355Z AUTO 35016KT 10SM CLR 27/M05 A2999 RMK AO1,M
HTH,2025-06-02 23:55,-118.6315,38.5448,1282.89,84.20,26.60,12.25,330.00,13.00,0.00,29.96,M,10.00,19.00,CLR,M,M,M,M,M,M,M,M,M,M,M,M,M,M,81.14,KHTH 022355Z AUTO 33013G19KT 10SM CLR 29/M03 A2996 RMK A01,M
LSV,2025-06-02 23:55,-115.0343,36.2362,570.00,93.00,52.00,25.04,130.00,7.00,0.00,29.74,1004.30,10.00,M,FEW,SCT,M,M,10000.00,18000.00,M,M,M,M,M,M,M,M,M,90.31,KLSV 022355Z 13007KT 10SM FEW100 SCT180 34/11 A2974 RMK AO2A SLP043 T03390111 10342 20265 57026 $,M
EKO,2025-06-02 23:56,-115.7860,40.8242,1367.00,78.00,14.00,8.76,280.00,8.00,0.00,29.99,1010.50,10.00,19.00,CLR,M,M,M,M,M,M,M,M,M,M,M,28.00,260.00,2025-06-02 23:07,78.00,KEKO 022356Z AUTO 28008G19KT 10SM CLR 26/M10 A2999 RMK AO2 PK WND 26028/2307 SLP105 T02561100 10267 20211 56013,M
WMC,2025-06-02 23:56,-117.8072,40.9019,1315.00,81.00,12.00,7.27,330.00,11.00,0.00,30.00,1011.90,10.00,19.00,CLR,M,M,M,M,M,M,M,M,M,M,M,M,M,M,78.19,KWMC 022356Z AUTO 33011G19KT 10SM CLR 27/M11 A3000 RMK AO2 SLP119 T02721111 10272 20200 56021 TSNO,M
HND,2025-06-02 23:56,-115.1344,35.9729,742.79,91.00,55.00,29.74,130.00,10.00,0.00,29.83,1008.80,10.00,18.00,FEW,M,M,M,10000.00,M,M,M,M,M,M,M,M,M,M,89.05,KHND 022356Z 13010G18KT 10SM FEW100 33/13 A2983 RMK AO2 SLP088 T03280128 10339 20267 56022 $,M
TPH,2025-06-02 23:56,-117.0904,38.0505,1654.00,86.00,34.00,15.63,320.00,12.00,0.00,29.98,1007.50,10.00,22.00,CLR,M,M,M,M,M,M,M,M,M,M,M,26.00,310.00,2025-06-02 23:09,82.66,KTPH 022356Z AUTO 32012G22KT 10SM CLR 30/01 A2998 RMK AO2 PK WND 31026/2309 SLP075 T03000011 10311 20256 56013 $,M
LAS,2025-06-02 23:56,-115.1634,36.0719,663.00,92.00,53.00,26.80,M,4.00,0.00,29.80,1006.50,10.00,M,FEW,SCT,M,M,9000.00,20000.00,M,M,M,M,M,M,M,M,M,89.54,KLAS 022356Z VRB04KT 10SM FEW090 SCT200 33/12 A2980 RMK AO2 SLP065 T03330117 10339 20261 56026 $,M
NFL,2025-06-02 23:57,-118.7010,39.4166,1199.00,87.00,26.00,10.93,M,4.00,0.00,29.95,1011.40,10.00,M,FEW,M,M,M,8000.00,M,M,M,M,M,M,M,M,M,M,83.07,KNFL 022357Z VRB04KT 10SM FEW080 31/M03 A2995 RMK CB DSNT S-SW SLP114 T03061033 10306 20233 56025,M
