station,valid,lon,lat,elevation,tmpf,dwpf,relh,drct,sknt,p01i,alti,mslp,vsby,gust,skyc1,skyc2,skyc3,skyc4,skyl1,skyl2,skyl3,skyl4,wxcodes,ice_accretion_1hr,ice_accretion_3hr,ice_accretion_6hr,peak_wind_gust,peak_wind_drct,peak_wind_time,feel,metar,snowdepth
BVU,2023-01-16 00:15,-114.8611,35.9475,671.00,51.80,33.80,50.08,230.00,10.00,0.00,29.72,M,10.00,M,CLR,M,M,M,M,M,M,M,M,M,M,M,M,M,M,51.80,KBVU 160015Z AUTO 23010KT 10SM CLR 11/01 A2972 RMK AO2,M
CXP,2023-01-16 00:15,-119.7326,39.1923,1431.00,37.40,26.60,64.70,180.00,5.00,0.00,29.62,M,10.00,12.00,CLR,M,M,M,M,M,M,M,M,M,M,M,M,M,M,32.81,KCXP 160015Z AUTO 18005G12KT 10SM CLR 03/M03 A2962 RMK AO2,M
RTS,2023-01-16 00:15,-119.8764,39.6682,1539.00,33.80,26.60,74.63,130.00,6.00,0.00,29.61,M,10.00,M,SCT,BKN,OVC,M,5500.00,7000.00,8000.00,M,M,M,M,M,M,M,M,27.70,KRTS 160015Z AUTO 13006KT 10SM SCT055 BKN070 OVC080 01/M03 A2961 RMK AO2,M
05U,2023-01-16 00:15,-116.0051,39.6042,1811.23,30.20,19.40,63.75,240.00,4.00,0.00,29.65,M,10.00,M,M,M,M,M,M,M,M,M,M,M,M,M,M,M,M,25.32,K05U 160015Z AUTO 24004KT 10SM M01/M07 A2965 RMK A01,M
MEV,2023-01-16 00:15,-119.7500,38.9963,1441.42,35.60,30.20,80.51,350.00,3.00,0.00,29.61,M,10.00,M,FEW,FEW,SCT,M,3400.00,3900.00,4500.00,M,M,M,M,M,M,M,M,32.80,KMEV 160015Z AUTO 35003KT 10SM FEW034 FEW039 SCT045 02/M01 A2961 RMK AO2,M
BAM,2023-01-16 00:15,-116.8743,40.5990,1382.36,41.00,28.40,60.54,250.00,8.00,0.00,29.64,M,10.00,M,SCT,OVC,M,M,4800.00,6500.00,M,M,M,M,M,M,M,M,M,35.20,KBAM 160015Z AUTO 25008KT 10SM SCT048 OVC065 05/M02 A2964 RMK AO1,M
05U,2023-01-16 00:30,-116.0051,39.6042,1811.23,26.60,19.40,73.89,260.00,5.00,0.00,29.66,M,10.00,M,M,M,M,M,M,M,M,M,M,M,M,M,M,M,M,19.98,K05U 160030Z AUTO 26005KT 10SM M03/M07 A2966 RMK A01,M
BVU,2023-01-16 00:35,-114.8611,35.9475,671.00,51.80,35.60,53.81,200.00,9.00,0.00,29.72,M,10.00,M,CLR,M,M,M,M,M,M,M,M,M,M,M,M,M,M,51.80,KBVU 160035Z AUTO 20009KT 10SM CLR 11/02 A2972 RMK AO2,M
CXP,2023-01-16 00:35,-119.7326,39.1923,1431.00,37.40,24.80,60.04,190.00,6.00,0.00,29.61,M,10.00,M,SCT,SCT,SCT,M,6000.00,7000.00,12000.00,M,M,M,M,M,M,M,M,32.03,KCXP 160035Z AUTO 19006KT 10SM SCT060 SCT070 SCT120 03/M04 A2961 RMK AO2,M
RTS,2023-01-16 00:35,-119.8764,39.6682,1539.00,33.80,26.60,74.63,120.00,7.00,0.00,29.61,M,10.00,M,FEW,BKN,OVC,M,4400.00,7000.00,8500.00,M,M,M,M,M,M,M,M,26.97,KRTS 160035Z AUTO 12007KT 10SM FEW044 BKN070 OVC085 01/M03 A2961 RMK AO2,M
MEV,2023-01-16 00:35,-119.7500,38.9963,1441.42,37.40,26.60,64.70,0.00,0.00,0.00,29.60,M,10.00,M,FEW,SCT,SCT,M,4400.00,5000.00,6000.00,M,M,M,M,M,M,M,M,37.40,KMEV 160035Z AUTO 00000KT 10SM FEW044 SCT050 SCT060 03/M03 A2960 RMK AO2,M
BAM,2023-01-16 00:35,-116.8743,40.5990,1382.36,39.20,30.20,69.88,220.00,6.00,0.00,29.64,M,10.00,M,SCT,SCT,M,M,6500.00,11000.00,M,M,M,M,M,M,M,M,M,34.20,KBAM 160035Z AUTO 22006KT 10SM SCT065 SCT110 04/M01 A2964 RMK AO1,M
P68,2023-01-16 00:53,-116.0056,39.6014,1993.00,26.10,17.10,68.34,240.00,4.00,0.00,29.63,1003.70,M,M,M,M,M,M,M,M,M,M,M,M,M,M,M,M,M,20.53,KP68 160053Z AUTO 24004KT M03/M08 A2963 RMK AO1 SLP037 T10331083,M
ELY,2023-01-16 00:53,-114.8453,39.2950,1909.00,28.00,26.10,92.46,190.00,4.00,T,29.63,1003.80,10.00,M,OVC,M,M,M,4600.00,M,M,M,M,M,M,M,M,M,M,22.75,KELY 160053Z AUTO 19004KT 10SM OVC046 M02/M03 A2963 RMK AO2 UPB36E46 SLP038 P0000 T10221033,M
VGT,2023-01-16 00:53,-115.1933,36.2111,667.00,54.00,28.90,37.89,190.00,9.00,0.00,29.68,1006.40,10.00,M,CLR,M,M,M,M,M,M,M,M,M,M,M,M,M,M,54.00,KVGT 160053Z 19009KT 10SM CLR 12/M02 A2968 RMK AO2 SLP064 T01221017,M
LOL,2023-01-16 00:53,-118.5701,40.0684,1192.43,40.00,28.00,62.15,0.00,0.00,0.00,29.61,1003.30,10.00,M,FEW,BKN,OVC,M,8000.00,9500.00,12000.00,M,M,M,M,M,M,M,M,39.90,KLOL 160053Z AUTO 00000KT 10SM FEW080 BKN095 OVC120 04/M02 A2961 RMK AO2 SLP033 T00441022,M
BVU,2023-01-16 00:55,-114.8611,35.9475,671.00,50.00,33.80,53.54,200.00,10.00,0.00,29.73,M,10.00,M,CLR,M,M,M,M,M,M,M,M,M,M,M,M,M,M,50.00,KBVU 160055Z AUTO 20010KT 10SM CLR 10/01 A2973 RMK AO2,M
CXP,2023-01-16 00:55,-119.7326,39.1923,1431.00,37.40,24.80,60.04,M,4.00,0.00,29.62,M,10.00,M,BKN,BKN,OVC,M,6000.00,7500.00,12000.00,M,M,M,M,M,M,M,M,33.73,KCXP 160055Z AUTO VRB04KT 10SM BKN060 BKN075 OVC120 03/M04 A2962 RMK AO2,M
RNO,2023-01-16 00:55,-119.7711,39.4839,1341.00,40.00,27.00,59.65,30.00,3.00,0.00,29.60,1001.80,10.00,M,FEW,SCT,BKN,BKN,5000.00,7000.00,9500.00,14000.00,M,M,M,M,M,M,M,37.72,KRNO 160055Z 03003KT 10SM FEW050 SCT070 BKN095 BKN140 04/M03 A2960 RMK AO2 SLP018 MTN TOPS OBSCD DSNT SW T00441028,M
RTS,2023-01-16 00:55,-119.8764,39.6682,1539.00,35.60,23.00,59.79,140.00,7.00,0.00,29.61,M,10.00,M,FEW,BKN,OVC,M,4400.00,7500.00,8500.00,M,M,M,M,M,M,M,M,29.17,KRTS 160055Z AUTO 14007KT 10SM FEW044 BKN075 OVC085 02/M05 A2961 RMK AO2,M
05U,2023-01-16 00:55,-116.0051,39.6042,1811.23,24.80,17.60,73.70,240.00,5.00,0.00,29.65,M,10.00,M,M,M,M,M,M,M,M,M,M,M,M,M,M,M,M,17.84,K05U 160055Z AUTO 24005KT 10SM M04/M08 A2965 RMK A01,M
MEV,2023-01-16 00:55,-119.7500,38.9963,1441.42,35.60,28.40,74.80,270.00,6.00,0.00,29.61,M,10.00,M,FEW,SCT,BKN,M,3000.00,3600.00,4200.00,M,M,M,M,M,M,M,M,29.87,KMEV 160055Z AUTO 27006KT 10SM FEW030 SCT036 BKN042 02/M02 A2961 RMK AO2,M
BAM,2023-01-16 00:55,-116.8743,40.5990,1382.36,37.40,30.20,74.98,210.00,6.00,0.00,29.64,M,10.00,M,SCT,SCT,M,M,6500.00,11000.00,M,M,M,M,M,M,M,M,M,32.03,KBAM 160055Z AUTO 21006KT 10SM SCT065 SCT110 03/M01 A2964 RMK AO1,M
INS,2023-01-16 00:55,-115.6733,36.5872,955.00,46.20,33.00,60.03,40.00,5.00,0.00,29.67,1003.60,10.00,M,OVC,M,M,M,13000.00,M,M,M,M,M,M,M,M,M,M,43.26,KINS 160055Z AUTO 04005KT 10SM OVC130 08/01 A2967 RMK AO2 SLP036 T00790006 $,M
LSV,2023-01-16 00:55,-115.0343,36.2362,570.00,52.20,35.00,51.98,200.00,14.00,0.00,29.67,1004.20,10.00,M,CLR,M,M,M,M,M,M,M,M,M,M,M,M,M,M,52.20,KLSV 160055Z AUTO 20014KT 10SM CLR 11/02 A2967 RMK AO2 SLP042 T01120017 $,M
EKO,2023-01-16 00:56,-115.7860,40.8242,1367.00,32.00,28.90,88.17,200.00,5.00,T,29.63,1004.30,9.00,M,BKN,OVC,M,M,4600.00,6000.00,M,M,M,M,M,M,M,M,M,26.40,KEKO 160056Z AUTO 20005KT 9SM BKN046 OVC060 00/M02 A2963 RMK AO2 SNE19 SLP043 P0000 T00001017,M
WMC,2023-01-16 00:56,-117.8072,40.9019,1315.00,39.00,27.00,61.78,200.00,7.00,0.00,29.62,1002.90,10.00,M,BKN,OVC,M,M,7500.00,10000.00,M,M,M,M,M,M,M,M,M,33.31,KWMC 160056Z AUTO 20007KT 10SM BKN075 OVC100 04/M03 A2962 RMK AO2 SLP029 T00391028 $,M
NFL,2023-01-16 00:56,-118.7010,39.4166,1199.00,43.00,27.00,52.91,0.00,0.00,0.00,29.60,1001.00,10.00,M,OVC,M,M,M,9000.00,M,M,M,M,M,M,M,M,M,M,43.00,KNFL 160056Z AUTO 00000KT 10SM OVC090 06/M03 A2960 RMK AO2 SLP010 T00611028,M
HND,2023-01-16 00:56,-115.1344,35.9729,742.79,49.00,34.00,56.23,210.00,15.00,0.00,29.73,1008.20,10.00,M,CLR,M,M,M,M,M,M,M,M,M,M,M,M,M,M,42.69,KHND 160056Z 21015KT 10SM CLR 09/01 A2973 RMK AO2 SLP082 T00940011,M
TPH,2023-01-16 00:56,-117.0904,38.0505,1654.00,36.00,30.00,78.60,200.00,7.00,0.00,29.65,1004.40,10.00,M,CLR,M,M,M,M,M,M,M,M,M,M,M,M,M,M,29.65,KTPH 160056Z AUTO 20007KT 10SM CLR 02/M01 A2965 RMK AO2 SLP044 T00221011,M
LAS,2023-01-16 00:56,-115.1634,36.0719,663.00,51.00,32.00,47.81,200.00,8.00,0.00,29.70,1005.30,10.00,16.00,FEW,FEW,OVC,M,6000.00,9000.00,20000.00,M,M,M,M,M,M,M,M,51.10,KLAS 160056Z 20008G16KT 10SM FEW060 FEW090 OVC200 11/00 A2970 RMK AO2 SLP053 T01060000,M
BVU,2023-01-16 01:15,-114.8611,35.9475,671.00,50.00,33.80,53.54,210.00,7.00,0.00,29.72,M,10.00,M,SCT,M,M,M,12000.00,M,M,M,M,M,M,M,M,M,M,50.00,KBVU 160115Z AUTO 21007KT 10SM SCT120 10/01 A2972 RMK AO2,M
CXP,2023-01-16 01:15,-119.7326,39.1923,1431.00,37.40,24.80,60.04,230.00,4.00,0.00,29.62,M,10.00,M,OVC,M,M,M,7000.00,M,M,M,M,M,M,M,M,M,M,33.73,KCXP 160115Z AUTO 23004KT 10SM OVC070 03/M04 A2962 RMK AO2,M
RTS,2023-01-16 01:15,-119.8764,39.6682,1539.00,35.60,23.00,59.79,190.00,5.00,0.00,29.61,M,10.00,M,SCT,BKN,BKN,M,7500.00,9500.00,12000.00,M,M,M,M,M,M,M,M,30.67,KRTS 160115Z AUTO 19005KT 10SM SCT075 BKN095 BKN120 02/M05 A2961 RMK AO2,M
05U,2023-01-16 01:15,-116.0051,39.6042,1811.23,21.20,15.80,79.31,M,M,0.00,29.66,M,10.00,M,M,M,M,M,M,M,M,M,M,M,M,M,M,M,M,M,K05U 160115Z AUTO 10SM M06/M09 A2966 RMK A01,M
MEV,2023-01-16 01:15,-119.7500,38.9963,1441.42,33.80,28.40,80.36,0.00,0.00,0.00,29.61,M,10.00,M,FEW,SCT,BKN,M,3300.00,4400.00,5500.00,M,M,M,M,M,M,M,M,33.80,KMEV 160115Z AUTO 00000KT 10SM FEW033 SCT044 BKN055 01/M02 A2961 RMK AO2,M
BAM,2023-01-16 01:15,-116.8743,40.5990,1382.36,35.60,30.20,80.51,200.00,5.00,0.00,29.65,M,10.00,M,SCT,BKN,M,M,6500.00,12000.00,M,M,M,M,M,M,M,M,M,30.67,KBAM 160115Z AUTO 20005KT 10SM SCT065 BKN120 02/M01 A2965 RMK AO1,M
05U,2023-01-16 01:30,-116.0051,39.6042,1811.23,21.20,15.80,79.31,M,M,0.00,29.67,M,10.00,M,M,M,M,M,M,M,M,M,M,M,M,M,M,M,M,M,K05U 160130Z AUTO 10SM M06/M09 A2967 RMK A01,M
BVU,2023-01-16 01:35,-114.8611,35.9475,671.00,50.00,35.60,57.52,210.00,6.00,0.00,29.73,M,10.00,M,SCT,M,M,M,12000.00,M,M,M,M,M,M,M,M,M,M,50.00,KBVU 160135Z AUTO 21006KT 10SM SCT120 10/02 A2973 RMK AO2,M
CXP,2023-01-16 01:35,-119.7326,39.1923,1431.00,37.40,24.80,60.04,0.00,0.00,0.00,29.62,M,10.00,M,OVC,M,M,M,7000.00,M,M,M,M,M,M,M,M,M,M,37.40,KCXP 160135Z AUTO 00000KT 10SM OVC070 03/M04 A2962 RMK AO2,M
RTS,2023-01-16 01:35,-119.8764,39.6682,1539.00,35.60,17.60,47.51,210.00,8.00,0.00,29.62,M,10.00,M,FEW,FEW,M,M,9500.00,12000.00,M,M,M,M,M,M,M,M,M,28.55,KRTS 160135Z AUTO 21008KT 10SM FEW095 FEW120 02/M08 A2962 RMK AO2,M
MEV,2023-01-16 01:35,-119.7500,38.9963,1441.42,33.80,28.40,80.36,0.00,0.00,0.00,29.61,M,10.00,M,FEW,SCT,BKN,M,3800.00,4400.00,4900.00,M,M,M,M,M,M,M,M,33.80,KMEV 160135Z AUTO 00000KT 10SM FEW038 SCT044 BKN049 01/M02 A2961 RMK AO2,M
BAM,2023-01-16 01:35,-116.8743,40.5990,1382.36,35.60,30.20,80.51,180.00,4.00,0.00,29.65,M,10.00,M,BKN,M,M,M,12000.00,M,M,M,M,M,M,M,M,M,M,31.62,KBAM 160135Z AUTO 18004KT 10SM BKN120 02/M01 A2965 RMK AO1,M
P68,2023-01-16 01:53,-116.0056,39.6014,1993.00,21.00,15.10,77.59,180.00,5.00,0.00,29.65,1005.00,M,M,M,M,M,M,M,M,M,M,M,M,M,M,M,M,M,13.33,KP68 160153Z AUTO 18005KT M06/M09 A2965 RMK AO1 SLP050 T10611094,M
ELY,2023-01-16 01:53,-114.8453,39.2950,1909.00,23.00,21.90,95.47,190.00,3.00,0.00,29.64,1005.70,10.00,M,BKN,M,M,M,8000.00,M,M,M,M,M,M,M,M,M,M,18.40,KELY 160153Z AUTO 19003KT 10SM BKN080 M05/M06 A2964 RMK AO2 SLP057 T10501056,M
VGT,2023-01-16 01:53,-115.1933,36.2111,667.00,53.00,30.00,40.96,200.00,14.00,0.00,29.69,1006.60,10.00,20.00,CLR,M,M,M,M,M,M,M,M,M,M,M,M,M,M,53.10,KVGT 160153Z 20014G20KT 10SM CLR 12/M01 A2969 RMK AO2 SLP066 T01171011,M
LOL,2023-01-16 01:53,-118.5701,40.0684,1192.43,38.00,30.00,72.93,80.00,4.00,0.00,29.62,1003.90,10.00,M,BKN,M,M,M,10000.00,M,M,M,M,M,M,M,M,M,M,34.31,KLOL 160153Z AUTO 08004KT 10SM BKN100 03/M01 A2962 RMK AO2 SLP039 T00331011,M
BVU,2023-01-16 01:55,-114.8611,35.9475,671.00,50.00,33.80,53.54,210.00,7.00,0.00,29.74,M,10.00,13.00,BKN,M,M,M,11000.00,M,M,M,M,M,M,M,M,M,M,50.00,KBVU 160155Z AUTO 21007G13KT 10SM BKN110 10/01 A2974 RMK AO2,M
CXP,2023-01-16 01:55,-119.7326,39.1923,1431.00,35.60,26.60,69.46,0.00,0.00,0.00,29.62,M,10.00,M,BKN,OVC,M,M,6500.00,7500.00,M,M,M,M,M,M,M,M,M,35.60,KCXP 160155Z AUTO 00000KT 10SM BKN065 OVC075 02/M03 A2962 RMK AO2,M
INS,2023-01-16 01:55,-115.6733,36.5872,955.00,44.40,35.20,69.90,270.00,4.00,0.00,29.70,1004.80,10.00,M,BKN,OVC,M,M,5000.00,11000.00,M,M,M,M,M,M,M,M,M,41.90,KINS 160155Z AUTO 27004KT 10SM BKN050 OVC110 07/02 A2970 RMK AO2 SLP048 T00690018 $,M
RNO,2023-01-16 01:55,-119.7711,39.4839,1341.00,39.00,19.90,45.87,M,4.00,0.00,29.60,1002.00,10.00,M,FEW,SCT,BKN,M,5500.00,9500.00,12000.00,M,M,M,M,M,M,M,M,35.59,KRNO 160155Z VRB04KT 10SM FEW055 SCT095 BKN120 04/M07 A2960 RMK AO2 SLP020 T00391067,M
RTS,2023-01-16 01:55,-119.8764,39.6682,1539.00,33.80,23.00,64.23,M,3.00,0.00,29.62,M,10.00,M,SCT,SCT,M,M,8000.00,12000.00,M,M,M,M,M,M,M,M,M,30.75,KRTS 160155Z AUTO VRB03KT 10SM SCT080 SCT120 01/M05 A2962 RMK AO2,M
05U,2023-01-16 01:55,-116.0051,39.6042,1811.23,21.20,15.80,79.31,M,M,0.00,29.68,M,10.00,M,M,M,M,M,M,M,M,M,M,M,M,M,M,M,M,M,K05U 160155Z AUTO 10SM M06/M09 A2968 RMK A01,M
MEV,2023-01-16 01:55,-119.7500,38.9963,1441.42,33.80,28.40,80.36,0.00,0.00,0.00,29.61,M,10.00,M,FEW,BKN,OVC,M,2600.00,4400.00,7500.00,M,M,M,M,M,M,M,M,33.80,KMEV 160155Z AUTO 00000KT 10SM FEW026 BKN044 OVC075 01/M02 A2961 RMK AO2,M
BAM,2023-01-16 01:55,-116.8743,40.5990,1382.36,35.60,30.20,80.51,190.00,3.00,0.00,29.65,M,10.00,M,OVC,M,M,M,12000.00,M,M,M,M,M,M,M,M,M,M,32.80,KBAM 160155Z AUTO 19003KT 10SM OVC120 02/M01 A2965 RMK AO1,M
LSV,2023-01-16 01:55,-115.0343,36.2362,570.00,51.30,35.20,53.95,190.00,13.00,0.00,29.68,1004.70,10.00,M,SCT,M,M,M,12000.00,M,M,M,M,M,M,M,M,M,M,51.30,KLSV 160155Z AUTO 19013KT 10SM SCT120 11/02 A2968 RMK AO2 SLP047 T01070018 $,M
EKO,2023-01-16 01:56,-115.7860,40.8242,1367.00,30.90,28.90,92.18,290.00,3.00,T,29.65,1005.30,10.00,M,SCT,OVC,M,M,5500.00,9000.00,M,M,M,M,M,M,M,M,M,27.43,KEKO 160156Z AUTO 29003KT 10SM SCT055 OVC090 M01/M02 A2965 RMK AO2 SNB0057E14 SLP053 P0000 T10061017,M
WMC,2023-01-16 01:56,-117.8072,40.9019,1315.00,37.00,27.00,66.82,M,4.00,T,29.63,1003.40,9.00,M,BKN,OVC,M,M,3700.00,4700.00,M,M,M,M,M,M,M,M,M,33.26,KWMC 160156Z AUTO VRB04KT 9SM BKN037 OVC047 03/M03 A2963 RMK AO2 SNB35E56 SLP034 P0000 T00281028 $,M
HND,2023-01-16 01:56,-115.1344,35.9729,742.79,48.00,35.00,60.76,190.00,9.00,0.00,29.74,1008.70,10.00,M,CLR,M,M,M,M,M,M,M,M,M,M,M,M,M,M,43.41,KHND 160156Z 19009KT 10SM CLR 09/02 A2974 RMK AO2 SLP087 T00890017,M
NFL,2023-01-16 01:56,-118.7010,39.4166,1199.00,42.00,28.90,59.22,0.00,0.00,0.00,29.61,1001.20,10.00,M,OVC,M,M,M,8000.00,M,M,M,M,M,M,M,M,M,M,42.10,KNFL 160156Z AUTO 00000KT 10SM OVC080 06/M02 A2961 RMK AO2 SLP012 T00561017,M
TPH,2023-01-16 01:56,-117.0904,38.0505,1654.00,35.00,30.00,81.46,170.00,5.00,0.00,29.67,1006.10,10.00,M,BKN,M,M,M,12000.00,M,M,M,M,M,M,M,M,M,M,30.08,KTPH 160156Z AUTO 17005KT 10SM BKN120 02/M01 A2967 RMK AO2 SLP061 T00171011,M
LAS,2023-01-16 01:56,-115.1634,36.0719,663.00,51.00,33.00,49.98,170.00,3.00,0.00,29.71,1005.70,10.00,M,FEW,BKN,M,M,6000.00,20000.00,M,M,M,M,M,M,M,M,M,51.10,KLAS 160156Z 17003KT 10SM FEW060 BKN200 11/01 A2971 RMK AO2 SLP057 T01060006,M
BVU,2023-01-16 02:15,-114.8611,35.9475,671.00,50.00,35.60,57.52,140.00,4.00,0.00,29.74,M,10.00,M,OVC,M,M,M,10000.00,M,M,M,M,M,M,M,M,M,M,50.00,KBVU 160215Z AUTO 14004KT 10SM OVC100 10/02 A2974 RMK AO2,M
CXP,2023-01-16 02:15,-119.7326,39.1923,1431.00,35.60,24.80,64.46,0.00,0.00,0.00,29.62,M,10.00,M,BKN,OVC,M,M,6500.00,7500.00,M,M,M,M,M,M,M,M,M,35.60,KCXP 160215Z AUTO 00000KT 10SM BKN065 OVC075 02/M04 A2962 RMK AO2,M
RTS,2023-01-16 02:15,-119.8764,39.6682,1539.00,33.80,21.20,59.53,240.00,8.00,0.00,29.61,M,10.00,M,BKN,OVC,M,M,8000.00,9000.00,M,M,M,M,M,M,M,M,M,26.33,KRTS 160215Z AUTO 24008KT 10SM BKN080 OVC090 01/M06 A2961 RMK AO2,M
05U,2023-01-16 02:15,-116.0051,39.6042,1811.23,17.60,12.20,79.00,M,M,0.00,29.68,M,10.00,M,M,M,M,M,M,M,M,M,M,M,M,M,M,M,M,M,K05U 160215Z AUTO 10SM M08/M11 A2968 RMK A01,M
MEV,2023-01-16 02:15,-119.7500,38.9963,1441.42,33.80,28.40,80.36,150.00,4.00,0.00,29.61,M,10.00,M,FEW,BKN,OVC,M,4400.00,7000.00,7500.00,M,M,M,M,M,M,M,M,29.52,KMEV 160215Z AUTO 15004KT 10SM FEW044 BKN070 OVC075 01/M02 A2961 RMK AO2,M
BAM,2023-01-16 02:15,-116.8743,40.5990,1382.36,35.60,30.20,80.51,180.00,3.00,0.00,29.65,M,10.00,M,OVC,M,M,M,12000.00,M,M,M,M,M,M,M,M,M,M,32.80,KBAM 160215Z AUTO 18003KT 10SM OVC120 02/M01 A2965 RMK AO1,M
BVU,2023-01-16 02:35,-114.8611,35.9475,671.00,48.20,35.60,61.52,160.00,6.00,0.00,29.74,M,10.00,M,SCT,OVC,M,M,8000.00,9500.00,M,M,M,M,M,M,M,M,M,45.04,KBVU 160235Z AUTO 16006KT 10SM SCT080 OVC095 09/02 A2974 RMK AO2,M
CXP,2023-01-16 02:35,-119.7326,39.1923,1431.00,35.60,24.80,64.46,160.00,5.00,0.00,29.62,M,10.00,M,OVC,M,M,M,7000.00,M,M,M,M,M,M,M,M,M,M,30.67,KCXP 160235Z AUTO 16005KT 10SM OVC070 02/M04 A2962 RMK AO2,M
RTS,2023-01-16 02:35,-119.8764,39.6682,1539.00,33.80,19.40,55.14,250.00,11.00,0.00,29.61,M,10.00,M,BKN,OVC,M,M,8000.00,9000.00,M,M,M,M,M,M,M,M,M,24.74,KRTS 160235Z AUTO 25011KT 10SM BKN080 OVC090 01/M07 A2961 RMK AO2,M
05U,2023-01-16 02:35,-116.0051,39.6042,1811.23,15.80,12.20,85.40,M,M,0.00,29.69,M,10.00,M,M,M,M,M,M,M,M,M,M,M,M,M,M,M,M,M,K05U 160235Z AUTO 10SM M09/M11 A2969 RMK A01,M
MEV,2023-01-16 02:35,-119.7500,38.9963,1441.42,33.80,26.60,74.63,160.00,5.00,0.00,29.60,M,10.00,M,OVC,M,M,M,7000.00,M,M,M,M,M,M,M,M,M,M,28.53,KMEV 160235Z AUTO 16005KT 10SM OVC070 01/M03 A2960 RMK AO2,M
BAM,2023-01-16 02:35,-116.8743,40.5990,1382.36,35.60,28.40,74.80,130.00,4.00,0.00,29.65,M,10.00,M,OVC,M,M,M,12000.00,M,M,M,M,M,M,M,M,M,M,31.62,KBAM 160235Z AUTO 13004KT 10SM OVC120 02/M02 A2965 RMK AO1,M
05U,2023-01-16 02:50,-116.0051,39.6042,1811.23,19.40,14.00,79.16,M,M,0.00,29.69,M,10.00,M,M,M,M,M,M,M,M,M,M,M,M,M,M,M,M,M,K05U 160250Z AUTO 10SM M07/M10 A2969 RMK A01,M
P68,2023-01-16 02:53,-116.0056,39.6014,1993.00,19.00,12.00,73.73,200.00,5.00,0.00,29.66,1005.80,M,M,M,M,M,M,M,M,M,M,M,M,M,M,M,M,M,10.96,KP68 160253Z AUTO 20005KT M07/M11 A2966 RMK AO1 SLP058 T10721111 53009,M
ELY,2023-01-16 02:53,-114.8453,39.2950,1909.00,24.10,23.00,95.49,180.00,6.00,0.00,29.66,1006.50,10.00,M,FEW,BKN,OVC,M,5500.00,7000.00,8500.00,M,M,M,M,M,M,M,M,16.02,KELY 160253Z AUTO 18006KT 10SM FEW055 BKN070 OVC085 M04/M05 A2966 RMK AO2 SLP065 60000 T10441050 53012,M
VGT,2023-01-16 02:53,-115.1933,36.2111,667.00,52.00,34.00,50.12,200.00,12.00,0.00,29.70,1007.30,10.00,M,OVC,M,M,M,11000.00,M,M,M,M,M,M,M,M,M,M,52.00,KVGT 160253Z 20012KT 10SM OVC110 11/01 A2970 RMK AO2 SLP073 T01110011 53007,M
LOL,2023-01-16 02:53,-118.5701,40.0684,1192.43,37.00,28.90,72.24,0.00,0.00,0.00,29.62,1004.10,10.00,M,BKN,OVC,M,M,6500.00,8000.00,M,M,M,M,M,M,M,M,M,37.00,KLOL 160253Z AUTO 00000KT 10SM BKN065 OVC080 03/M02 A2962 RMK AO2 SLP041 T00281017 53004,M
BVU,2023-01-16 02:55,-114.8611,35.9475,671.00,48.20,35.60,61.52,180.00,6.00,0.00,29.74,M,10.00,M,OVC,M,M,M,7500.00,M,M,M,M,M,M,M,M,M,M,45.04,KBVU 160255Z AUTO 18006KT 10SM OVC075 09/02 A2974 RMK AO2,M
CXP,2023-01-16 02:55,-119.7326,39.1923,1431.00,35.60,26.60,69.46,0.00,0.00,0.00,29.62,M,10.00,M,OVC,M,M,M,7000.00,M,M,M,M,M,M,M,M,M,M,35.60,KCXP 160255Z AUTO 00000KT 10SM OVC070 02/M03 A2962 RMK AO2,M
INS,2023-01-16 02:55,-115.6733,36.5872,955.00,43.70,34.20,68.99,0.00,0.00,0.00,29.71,1005.20,10.00,M,FEW,OVC,M,M,6000.00,9500.00,M,M,M,M,M,M,M,M,M,43.70,KINS 160255Z AUTO 00000KT 10SM FEW060 OVC095 07/01 A2971 RMK AO2 SLP052 T00650012 53006 $,M
RNO,2023-01-16 02:55,-119.7711,39.4839,1341.00,38.00,23.00,54.60,170.00,4.00,0.00,29.60,1002.40,10.00,M,FEW,BKN,M,M,5000.00,9500.00,M,M,M,M,M,M,M,M,M,34.31,KRNO 160255Z 17004KT 10SM FEW050 BKN095 03/M05 A2960 RMK AO2 SLP024 T00331050 51004,M
RTS,2023-01-16 02:55,-119.8764,39.6682,1539.00,32.00,23.00,69.04,300.00,7.00,0.00,29.61,M,10.00,M,FEW,BKN,OVC,M,7000.00,7500.00,9000.00,M,M,M,M,M,M,M,M,24.78,KRTS 160255Z AUTO 30007KT 10SM FEW070 BKN075 OVC090 00/M05 A2961 RMK AO2,M
MEV,2023-01-16 02:55,-119.7500,38.9963,1441.42,33.80,28.40,80.36,140.00,7.00,0.00,29.60,M,10.00,M,OVC,M,M,M,7500.00,M,M,M,M,M,M,M,M,M,M,26.97,KMEV 160255Z AUTO 14007KT 10SM OVC075 01/M02 A2960 RMK AO2,M
BAM,2023-01-16 02:55,-116.8743,40.5990,1382.36,33.80,30.20,86.49,130.00,5.00,0.00,29.65,M,10.00,M,OVC,M,M,M,12000.00,M,M,M,M,M,M,M,M,M,M,28.53,KBAM 160255Z AUTO 13005KT 10SM OVC120 01/M01 A2965 RMK AO1,M
LSV,2023-01-16 02:55,-115.0343,36.2362,570.00,51.00,35.80,56.07,180.00,13.00,0.00,29.69,1005.00,10.00,M,CLR,M,M,M,M,M,M,M,M,M,M,M,M,M,M,50.90,KLSV 160255Z AUTO 18013KT 10SM CLR 11/02 A2969 RMK AO2 SLP050 T01050021 53005 $,M
EKO,2023-01-16 02:56,-115.7860,40.8242,1367.00,30.90,28.00,88.84,160.00,4.00,T,29.65,1005.40,10.00,M,OVC,M,M,M,3500.00,M,M,M,M,M,M,M,M,M,M,26.14,KEKO 160256Z AUTO 16004KT 10SM OVC035 M01/M02 A2965 RMK AO2 SNB12E29 SLP054 P0000 60000 T10061022 51008,M
WMC,2023-01-16 02:56,-117.8072,40.9019,1315.00,36.00,28.00,72.43,0.00,0.00,0.00,29.63,1003.90,10.00,M,OVC,M,M,M,6500.00,M,M,M,M,M,M,M,M,M,M,36.00,KWMC 160256Z AUTO 00000KT 10SM OVC065 02/M02 A2963 RMK AO2 SLP039 60000 T00221022 51006 $,M
HND,2023-01-16 02:56,-115.1344,35.9729,742.79,48.00,34.00,58.16,200.00,16.00,0.00,29.73,1008.60,10.00,M,OVC,M,M,M,11000.00,M,M,M,M,M,M,M,M,M,M,41.27,KHND 160256Z 20016KT 10SM OVC110 09/01 A2973 RMK AO2 SLP086 T00890011 50003,M
TPH,2023-01-16 02:56,-117.0904,38.0505,1654.00,35.00,30.00,81.46,160.00,8.00,0.00,29.66,1005.40,10.00,M,OVC,M,M,M,11000.00,M,M,M,M,M,M,M,M,M,M,27.93,KTPH 160256Z AUTO 16008KT 10SM OVC110 02/M01 A2966 RMK AO2 SLP054 T00171011 50007,M
LAS,2023-01-16 02:56,-115.1634,36.0719,663.00,50.00,34.00,53.97,200.00,8.00,0.00,29.72,1006.00,10.00,M,FEW,BKN,BKN,M,6000.00,11000.00,20000.00,M,M,M,M,M,M,M,M,50.00,KLAS 160256Z 20008KT 10SM FEW060 BKN110 BKN200 10/01 A2972 RMK AO2 SLP060 T01000011 53006,M
NFL,2023-01-16 02:56,-118.7010,39.4166,1199.00,42.00,26.10,52.78,180.00,8.00,0.00,29.61,1001.20,10.00,M,BKN,OVC,M,M,7000.00,9000.00,M,M,M,M,M,M,M,M,M,36.55,KNFL 160256Z AUTO 18008KT 10SM BKN070 OVC090 06/M03 A2961 RMK AO2 SLP012 T00561033 51003,M
BVU,2023-01-16 03:15,-114.8611,35.9475,671.00,50.00,37.40,61.76,150.00,5.00,0.00,29.74,M,10.00,M,BKN,OVC,M,M,7000.00,7500.00,M,M,M,M,M,M,M,M,M,50.00,KBVU 160315Z AUTO 15005KT 10SM BKN070 OVC075 10/03 A2974 RMK AO2,M
CXP,2023-01-16 03:15,-119.7326,39.1923,1431.00,35.60,24.80,64.46,150.00,3.00,0.00,29.62,M,10.00,M,BKN,OVC,M,M,7000.00,9500.00,M,M,M,M,M,M,M,M,M,32.80,KCXP 160315Z AUTO 15003KT 10SM BKN070 OVC095 02/M04 A2962 RMK AO2,M
RTS,2023-01-16 03:15,-119.8764,39.6682,1539.00,32.00,23.00,69.04,50.00,3.00,0.00,29.61,M,10.00,M,BKN,BKN,OVC,M,6000.00,7000.00,9500.00,M,M,M,M,M,M,M,M,28.69,KRTS 160315Z AUTO 05003KT 10SM BKN060 BKN070 OVC095 00/M05 A2961 RMK AO2,M
05U,2023-01-16 03:15,-116.0051,39.6042,1811.23,17.60,12.20,79.00,M,M,0.00,29.68,M,10.00,M,M,M,M,M,M,M,M,M,M,M,M,M,M,M,M,M,K05U 160315Z AUTO 10SM M08/M11 A2968 RMK A01,M
MEV,2023-01-16 03:15,-119.7500,38.9963,1441.42,33.80,26.60,74.63,140.00,5.00,0.00,29.60,M,10.00,M,BKN,OVC,M,M,7000.00,7500.00,M,M,M,M,M,M,M,M,M,28.53,KMEV 160315Z AUTO 14005KT 10SM BKN070 OVC075 01/M03 A2960 RMK AO2,M
BAM,2023-01-16 03:15,-116.8743,40.5990,1382.36,33.80,30.20,86.49,0.00,0.00,0.00,29.65,M,10.00,M,SCT,OVC,M,M,9000.00,12000.00,M,M,M,M,M,M,M,M,M,33.80,KBAM 160315Z AUTO 00000KT 10SM SCT090 OVC120 01/M01 A2965 RMK AO1,M
TPH,2023-01-16 03:28,-117.0904,38.0505,1654.00,34.00,30.00,85.11,160.00,10.00,0.00,29.66,M,10.00,M,BKN,BKN,M,M,1800.00,11000.00,M,M,M,M,M,M,M,M,M,25.48,KTPH 160328Z AUTO 16010KT 10SM BKN018 BKN110 01/M01 A2966 RMK AO2 T00111011,M
BVU,2023-01-16 03:35,-114.8611,35.9475,671.00,50.00,37.40,61.76,180.00,4.00,0.00,29.74,M,10.00,M,OVC,M,M,M,7000.00,M,M,M,M,M,M,M,M,M,M,50.00,KBVU 160335Z AUTO 18004KT 10SM OVC070 10/03 A2974 RMK AO2,M
CXP,2023-01-16 03:35,-119.7326,39.1923,1431.00,35.60,26.60,69.46,0.00,0.00,0.00,29.62,M,10.00,M,OVC,M,M,M,7000.00,M,M,M,M,M,M,M,M,M,M,35.60,KCXP 160335Z AUTO 00000KT 10SM OVC070 02/M03 A2962 RMK AO2,M
RTS,2023-01-16 03:35,-119.8764,39.6682,1539.00,32.00,23.00,69.04,40.00,5.00,0.00,29.61,M,10.00,M,OVC,M,M,M,5500.00,M,M,M,M,M,M,M,M,M,M,26.40,KRTS 160335Z AUTO 04005KT 10SM OVC055 00/M05 A2961 RMK AO2,M
05U,2023-01-16 03:35,-116.0051,39.6042,1811.23,17.60,12.20,79.00,M,M,0.00,29.68,M,10.00,M,M,M,M,M,M,M,M,M,M,M,M,M,M,M,M,M,K05U 160335Z AUTO 10SM M08/M11 A2968 RMK A01,M
MEV,2023-01-16 03:35,-119.7500,38.9963,1441.42,33.80,24.80,69.25,0.00,0.00,0.00,29.60,M,10.00,M,OVC,M,M,M,7500.00,M,M,M,M,M,M,M,M,M,M,33.80,KMEV 160335Z AUTO 00000KT 10SM OVC075 01/M04 A2960 RMK AO2,M
BAM,2023-01-16 03:35,-116.8743,40.5990,1382.36,33.80,28.40,80.36,0.00,0.00,0.00,29.65,M,10.00,M,SCT,BKN,OVC,M,7500.00,9000.00,12000.00,M,M,M,M,M,M,M,M,33.80,KBAM 160335Z AUTO 00000KT 10SM SCT075 BKN090 OVC120 01/M02 A2965 RMK AO1,M
P68,2023-01-16 03:53,-116.0056,39.6014,1993.00,16.00,10.00,76.77,170.00,6.00,0.00,29.65,1005.90,M,M,M,M,M,M,M,M,M,M,M,M,M,M,M,M,M,6.26,KP68 160353Z AUTO 17006KT M09/M12 A2965 RMK AO1 SLP059 T10891122,M
ELY,2023-01-16 03:53,-114.8453,39.2950,1909.00,25.00,23.00,91.97,200.00,5.00,T,29.67,1006.20,9.00,M,OVC,M,M,M,8500.00,M,M,M,M,M,M,M,M,M,M,18.08,KELY 160353Z AUTO 20005KT 9SM OVC085 M04/M05 A2967 RMK AO2 SNB42E52 SLP062 P0000 T10391050,M
VGT,2023-01-16 03:53,-115.1933,36.2111,667.00,52.00,34.00,50.12,180.00,11.00,0.00,29.70,1007.10,10.00,M,OVC,M,M,M,10000.00,M,M,M,M,M,M,M,M,M,M,52.00,KVGT 160353Z AUTO 18011KT 10SM OVC100 11/01 A2970 RMK AO2 SLP071 T01110011,M
LOL,2023-01-16 03:53,-118.5701,40.0684,1192.43,36.00,30.90,81.53,0.00,0.00,0.00,29.62,1003.90,10.00,M,BKN,M,M,M,10000.00,M,M,M,M,M,M,M,M,M,M,36.00,KLOL 160353Z AUTO 00000KT 10SM BKN100 02/M01 A2962 RMK AO2 SLP039 T00221006,M
BVU,2023-01-16 03:55,-114.8611,35.9475,671.00,50.00,37.40,61.76,170.00,10.00,0.00,29.74,M,10.00,M,SCT,BKN,OVC,M,5500.00,6000.00,7000.00,M,M,M,M,M,M,M,M,50.00,KBVU 160355Z AUTO 17010KT 10SM SCT055 BKN060 OVC070 10/03 A2974 RMK AO2,M
CXP,2023-01-16 03:55,-119.7326,39.1923,1431.00,35.60,24.80,64.46,70.00,3.00,0.00,29.61,M,10.00,M,BKN,OVC,M,M,6000.00,7000.00,M,M,M,M,M,M,M,M,M,32.80,KCXP 160355Z AUTO 07003KT 10SM BKN060 OVC070 02/M04 A2961 RMK AO2,M
INS,2023-01-16 03:55,-115.6733,36.5872,955.00,43.00,33.40,68.64,0.00,0.00,0.00,29.70,1004.80,10.00,M,FEW,FEW,M,M,11000.00,17000.00,M,M,M,M,M,M,M,M,M,43.00,KINS 160355Z AUTO 00000KT 10SM FEW110 FEW170 06/01 A2970 RMK AO2 SLP048 T00610008 $,M
RNO,2023-01-16 03:55,-119.7711,39.4839,1341.00,37.00,25.00,61.50,90.00,5.00,0.00,29.60,1002.50,10.00,M,BKN,M,M,M,8000.00,M,M,M,M,M,M,M,M,M,M,32.33,KRNO 160355Z 09005KT 10SM BKN080 03/M04 A2960 RMK AO2 SLP025 T00281039,M
RTS,2023-01-16 03:55,-119.8764,39.6682,1539.00,32.00,23.00,69.04,360.00,5.00,0.00,29.61,M,10.00,M,FEW,SCT,OVC,M,3600.00,4200.00,5000.00,M,M,M,M,M,M,M,M,26.40,KRTS 160355Z AUTO 36005KT 10SM FEW036 SCT042 OVC050 00/M05 A2961 RMK AO2,M
05U,2023-01-16 03:55,-116.0051,39.6042,1811.23,15.80,10.40,78.84,M,M,0.00,29.68,M,10.00,M,M,M,M,M,M,M,M,M,M,M,M,M,M,M,M,M,K05U 160355Z AUTO 10SM M09/M12 A2968 RMK A01,M
MEV,2023-01-16 03:55,-119.7500,38.9963,1441.42,33.80,26.60,74.63,140.00,6.00,0.00,29.60,M,10.00,M,OVC,M,M,M,7500.00,M,M,M,M,M,M,M,M,M,M,27.70,KMEV 160355Z AUTO 14006KT 10SM OVC075 01/M03 A2960 RMK AO2,M
BAM,2023-01-16 03:55,-116.8743,40.5990,1382.36,33.80,28.40,80.36,0.00,0.00,0.00,29.65,M,10.00,M,SCT,BKN,OVC,M,6000.00,10000.00,12000.00,M,M,M,M,M,M,M,M,33.80,KBAM 160355Z AUTO 00000KT 10SM SCT060 BKN100 OVC120 01/M02 A2965 RMK AO1,M
LSV,2023-01-16 03:55,-115.0343,36.2362,570.00,51.00,35.00,54.10,180.00,13.00,0.00,29.69,1005.00,10.00,M,CLR,M,M,M,M,M,M,M,M,M,M,M,M,M,M,50.90,KLSV 160355Z AUTO 18013KT 10SM CLR 11/02 A2969 RMK AO2 SLP050 T01050016 $,M
EKO,2023-01-16 03:56,-115.7860,40.8242,1367.00,27.00,25.00,92.05,0.00,0.00,0.00,29.65,1005.70,10.00,M,CLR,M,M,M,M,M,M,M,M,M,M,M,M,M,M,27.00,KEKO 160356Z AUTO 00000KT 10SM CLR M03/M04 A2965 RMK AO2 SLP057 T10281039,M
WMC,2023-01-16 03:56,-117.8072,40.9019,1315.00,35.00,28.90,77.88,170.00,6.00,0.00,29.63,1003.90,10.00,M,OVC,M,M,M,4200.00,M,M,M,M,M,M,M,M,M,M,29.26,KWMC 160356Z AUTO 17006KT 10SM OVC042 02/M02 A2963 RMK AO2 SLP039 T00171017 $,M
NFL,2023-01-16 03:56,-118.7010,39.4166,1199.00,39.00,28.90,66.79,130.00,4.00,0.00,29.60,1000.90,10.00,M,OVC,M,M,M,8000.00,M,M,M,M,M,M,M,M,M,M,35.59,KNFL 160356Z AUTO 13004KT 10SM OVC080 04/M02 A2960 RMK AO2 SLP009 T00391017,M
TPH,2023-01-16 03:56,-117.0904,38.0505,1654.00,34.00,30.90,88.27,160.00,8.00,0.00,29.66,1005.40,10.00,M,FEW,BKN,OVC,M,1900.00,2500.00,10000.00,M,M,M,M,M,M,M,M,26.58,KTPH 160356Z AUTO 16008KT 10SM FEW019 BKN025 OVC100 01/M01 A2966 RMK AO2 SLP054 T00111006,M
HND,2023-01-16 03:56,-115.1344,35.9729,742.79,48.00,35.00,60.76,200.00,8.00,0.00,29.75,1009.00,10.00,M,FEW,SCT,OVC,M,5000.00,7500.00,9000.00,M,M,M,M,M,M,M,M,43.82,KHND 160356Z 20008KT 10SM FEW050 SCT075 OVC090 09/02 A2975 RMK AO2 SLP090 T00890017,M
LAS,2023-01-16 03:56,-115.1634,36.0719,663.00,51.00,32.00,47.81,200.00,12.00,0.00,29.71,1005.80,10.00,17.00,FEW,BKN,M,M,6000.00,11000.00,M,M,M,M,M,M,M,M,M,51.10,KLAS 160356Z 20012G17KT 10SM FEW060 BKN110 11/00 A2971 RMK AO2 SLP058 T01060000,M
TPH,2023-01-16 04:05,-117.0904,38.0505,1654.00,34.00,30.90,88.27,160.00,8.00,0.00,29.66,M,10.00,M,SCT,OVC,M,M,2500.00,10000.00,M,M,M,M,M,M,M,M,M,26.58,KTPH 160405Z AUTO 16008KT 10SM SCT025 OVC100 01/M01 A2966 RMK AO2 T00111006,M
BVU,2023-01-16 04:15,-114.8611,35.9475,671.00,50.00,37.40,61.76,220.00,6.00,0.00,29.74,M,10.00,M,BKN,OVC,M,M,6000.00,7000.00,M,M,M,M,M,M,M,M,M,50.00,KBVU 160415Z AUTO 22006KT 10SM BKN060 OVC070 10/03 A2974 RMK AO2,M
CXP,2023-01-16 04:15,-119.7326,39.1923,1431.00,33.80,26.60,74.63,0.00,0.00,0.00,29.62,M,10.00,M,BKN,OVC,M,M,6500.00,7000.00,M,M,M,M,M,M,M,M,M,33.80,KCXP 160415Z AUTO 00000KT 10SM BKN065 OVC070 01/M03 A2962 RMK AO2,M
RTS,2023-01-16 04:15,-119.8764,39.6682,1539.00,32.00,23.00,69.04,50.00,4.00,0.00,29.61,M,10.00,M,FEW,BKN,OVC,M,2100.00,3000.00,4100.00,M,M,M,M,M,M,M,M,27.42,KRTS 160415Z AUTO 05004KT 10SM FEW021 BKN030 OVC041 00/M05 A2961 RMK AO2,M
05U,2023-01-16 04:15,-116.0051,39.6042,1811.23,15.80,12.20,85.40,M,M,0.00,29.67,M,10.00,M,M,M,M,M,M,M,M,M,M,M,M,M,M,M,M,M,K05U 160415Z AUTO 10SM M09/M11 A2967 RMK A01,M
MEV,2023-01-16 04:15,-119.7500,38.9963,1441.42,32.00,28.40,86.39,100.00,5.00,0.00,29.60,M,10.00,M,OVC,M,M,M,7000.00,M,M,M,M,M,M,M,M,M,M,26.40,KMEV 160415Z AUTO 10005KT 10SM OVC070 00/M02 A2960 RMK AO2,M
BAM,2023-01-16 04:15,-116.8743,40.5990,1382.36,35.60,28.40,74.80,0.00,0.00,0.00,29.65,M,10.00,M,SCT,SCT,BKN,M,6000.00,7500.00,12000.00,M,M,M,M,M,M,M,M,35.60,KBAM 160415Z AUTO 00000KT 10SM SCT060 SCT075 BKN120 02/M02 A2965 RMK AO1,M
BVU,2023-01-16 04:35,-114.8611,35.9475,671.00,50.00,35.60,57.52,230.00,6.00,0.00,29.75,M,10.00,11.00,FEW,SCT,BKN,M,1000.00,4300.00,5000.00,M,M,M,M,M,M,M,M,50.00,KBVU 160435Z AUTO 23006G11KT 10SM FEW010 SCT043 BKN050 10/02 A2975 RMK AO2,M
CXP,2023-01-16 04:35,-119.7326,39.1923,1431.00,33.80,26.60,74.63,0.00,0.00,0.00,29.61,M,10.00,M,OVC,M,M,M,6500.00,M,M,M,M,M,M,M,M,M,M,33.80,KCXP 160435Z AUTO 00000KT 10SM OVC065 01/M03 A2961 RMK AO2,M
RTS,2023-01-16 04:35,-119.8764,39.6682,1539.00,33.80,21.20,59.53,0.00,0.00,0.00,29.61,M,10.00,M,FEW,SCT,BKN,M,2000.00,3000.00,4700.00,M,M,M,M,M,M,M,M,33.80,KRTS 160435Z AUTO 00000KT 10SM FEW020 SCT030 BKN047 01/M06 A2961 RMK AO2,M
TPH,2023-01-16 04:35,-117.0904,38.0505,1654.00,33.00,30.00,88.23,140.00,7.00,0.00,29.66,M,10.00,M,BKN,BKN,OVC,M,2000.00,2700.00,10000.00,M,M,M,M,M,M,M,M,26.12,KTPH 160435Z AUTO 14007KT 10SM BKN020 BKN027 OVC100 01/M01 A2966 RMK AO2 T00061011,M
05U,2023-01-16 04:35,-116.0051,39.6042,1811.23,15.80,12.20,85.40,M,M,0.00,29.67,M,10.00,M,M,M,M,M,M,M,M,M,M,M,M,M,M,M,M,M,K05U 160435Z AUTO 10SM M09/M11 A2967 RMK A01,M
MEV,2023-01-16 04:35,-119.7500,38.9963,1441.42,33.80,26.60,74.63,0.00,0.00,0.00,29.59,M,10.00,M,BKN,OVC,M,M,5500.00,7000.00,M,M,M,M,M,M,M,M,M,33.80,KMEV 160435Z AUTO 00000KT 10SM BKN055 OVC070 01/M03 A2959 RMK AO2,M
BAM,2023-01-16 04:35,-116.8743,40.5990,1382.36,33.80,30.20,86.49,0.00,0.00,0.00,29.65,M,10.00,M,SCT,SCT,M,M,10000.00,12000.00,M,M,M,M,M,M,M,M,M,33.80,KBAM 160435Z AUTO 00000KT 10SM SCT100 SCT120 01/M01 A2965 RMK AO1,M
P68,2023-01-16 04:53,-116.0056,39.6014,1993.00,16.00,10.90,79.92,0.00,0.00,0.00,29.64,1005.20,M,M,M,M,M,M,M,M,M,M,M,M,M,M,M,M,M,16.00,KP68 160453Z AUTO 00000KT M09/M12 A2964 RMK AO1 SLP052 T10891117,M
ELY,2023-01-16 04:53,-114.8453,39.2950,1909.00,24.10,21.90,91.17,290.00,4.00,0.00,29.67,1006.00,10.00,M,BKN,M,M,M,5500.00,M,M,M,M,M,M,M,M,M,M,18.19,KELY 160453Z AUTO 29004KT 10SM BKN055 M04/M06 A2967 RMK AO2 SLP060 T10441056,M
VGT,2023-01-16 04:53,-115.1933,36.2111,667.00,51.00,30.90,45.73,210.00,13.00,0.00,29.71,1007.70,10.00,M,BKN,OVC,M,M,9000.00,11000.00,M,M,M,M,M,M,M,M,M,51.10,KVGT 160453Z AUTO 21013KT 10SM BKN090 OVC110 11/M01 A2971 RMK AO2 SLP077 T01061006,M
LOL,2023-01-16 04:53,-118.5701,40.0684,1192.43,36.00,28.00,72.43,230.00,4.00,0.00,29.62,1003.90,10.00,M,OVC,M,M,M,7500.00,M,M,M,M,M,M,M,M,M,M,32.09,KLOL 160453Z AUTO 23004KT 10SM OVC075 02/M02 A2962 RMK AO2 SLP039 T00221022,M
BVU,2023-01-16 04:55,-114.8611,35.9475,671.00,48.20,35.60,61.52,230.00,9.00,0.00,29.76,M,10.00,M,FEW,BKN,OVC,M,4300.00,5000.00,7000.00,M,M,M,M,M,M,M,M,43.66,KBVU 160455Z AUTO 23009KT 10SM FEW043 BKN050 OVC070 09/02 A2976 RMK AO2,M
CXP,2023-01-16 04:55,-119.7326,39.1923,1431.00,33.80,26.60,74.63,0.00,0.00,0.00,29.61,M,10.00,M,FEW,OVC,M,M,4300.00,6000.00,M,M,M,M,M,M,M,M,M,33.80,KCXP 160455Z AUTO 00000KT 10SM FEW043 OVC060 01/M03 A2961 RMK AO2,M
INS,2023-01-16 04:55,-115.6733,36.5872,955.00,42.60,33.40,69.70,100.00,3.00,0.00,29.71,1004.90,10.00,M,OVC,M,M,M,8000.00,M,M,M,M,M,M,M,M,M,M,40.81,KINS 160455Z AUTO 10003KT 10SM OVC080 06/01 A2971 RMK AO2 SLP049 T00590008 $,M
RNO,2023-01-16 04:55,-119.7711,39.4839,1341.00,36.00,26.10,66.97,210.00,4.00,0.00,29.60,1002.10,10.00,M,BKN,M,M,M,8000.00,M,M,M,M,M,M,M,M,M,M,32.09,KRNO 160455Z 21004KT 10SM BKN080 02/M03 A2960 RMK AO2 SLP021 T00221033,M
RTS,2023-01-16 04:55,-119.8764,39.6682,1539.00,32.00,24.80,74.44,10.00,4.00,0.00,29.61,M,10.00,M,FEW,BKN,OVC,M,3200.00,3800.00,6000.00,M,M,M,M,M,M,M,M,27.42,KRTS 160455Z AUTO 01004KT 10SM FEW032 BKN038 OVC060 M00/M04 A2961 RMK AO2,M
05U,2023-01-16 04:55,-116.0051,39.6042,1811.23,15.80,12.20,85.40,M,M,0.00,29.67,M,10.00,M,M,M,M,M,M,M,M,M,M,M,M,M,M,M,M,M,K05U 160455Z AUTO 10SM M09/M11 A2967 RMK A01,M
MEV,2023-01-16 04:55,-119.7500,38.9963,1441.42,32.00,28.40,86.39,60.00,6.00,0.00,29.59,M,10.00,M,BKN,OVC,M,M,6000.00,6500.00,M,M,M,M,M,M,M,M,M,25.53,KMEV 160455Z AUTO 06006KT 10SM BKN060 OVC065 00/M02 A2959 RMK AO2,M
BAM,2023-01-16 04:55,-116.8743,40.5990,1382.36,33.80,30.20,86.49,70.00,4.00,0.00,29.65,M,10.00,M,SCT,SCT,M,M,7000.00,12000.00,M,M,M,M,M,M,M,M,M,29.52,KBAM 160455Z AUTO 07004KT 10SM SCT070 SCT120 01/M01 A2965 RMK AO1,M
LSV,2023-01-16 04:55,-115.0343,36.2362,570.00,51.00,35.00,54.13,200.00,16.00,0.00,29.70,1005.30,10.00,21.00,CLR,M,M,M,M,M,M,M,M,M,M,M,M,M,M,51.10,KLSV 160455Z AUTO 20016G21KT 10SM CLR 11/02 A2970 RMK AO2 SLP053 T01060017 $,M
EKO,2023-01-16 04:56,-115.7860,40.8242,1367.00,27.00,24.10,88.65,0.00,0.00,0.00,29.65,1005.70,10.00,M,FEW,OVC,M,M,4100.00,11000.00,M,M,M,M,M,M,M,M,M,27.00,KEKO 160456Z AUTO 00000KT 10SM FEW041 OVC110 M03/M04 A2965 RMK AO2 SLP057 T10281044,M
WMC,2023-01-16 04:56,-117.8072,40.9019,1315.00,34.00,28.00,78.43,180.00,5.00,T,29.62,1003.30,10.00,M,BKN,BKN,M,M,7500.00,9000.00,M,M,M,M,M,M,M,M,M,28.77,KWMC 160456Z AUTO 18005KT 10SM BKN075 BKN090 01/M02 A2962 RMK AO2 SNB03E17 SLP033 P0000 T00111022 $,M
NFL,2023-01-16 04:56,-118.7010,39.4166,1199.00,40.00,25.00,54.90,170.00,6.00,0.00,29.60,1001.00,10.00,M,OVC,M,M,M,7500.00,M,M,M,M,M,M,M,M,M,M,35.04,KNFL 160456Z AUTO 17006KT 10SM OVC075 04/M04 A2960 RMK AO2 SLP010 T00441039,M
TPH,2023-01-16 04:56,-117.0904,38.0505,1654.00,33.00,30.00,88.23,140.00,7.00,0.00,29.65,1004.90,10.00,M,BKN,OVC,M,M,2100.00,10000.00,M,M,M,M,M,M,M,M,M,26.12,KTPH 160456Z AUTO 14007KT 10SM BKN021 OVC100 01/M01 A2965 RMK AO2 SLP049 T00061011,M
LAS,2023-01-16 04:56,-115.1634,36.0719,663.00,48.00,35.00,60.76,200.00,8.00,0.00,29.73,1006.60,10.00,M,BKN,BKN,M,M,8000.00,10000.00,M,M,M,M,M,M,M,M,M,43.82,KLAS 160456Z 20008KT 10SM BKN080 BKN100 09/02 A2973 RMK AO2 SLP066 T00890017,M
HND,2023-01-16 04:56,-115.1344,35.9729,742.79,47.00,33.00,58.47,220.00,12.00,0.00,29.76,1009.50,10.00,M,OVC,M,M,M,7500.00,M,M,M,M,M,M,M,M,M,M,40.97,KHND 160456Z AUTO 22012KT 10SM OVC075 08/01 A2976 RMK AO2 SLP095 T00830006,M
TPH,2023-01-16 05:13,-117.0904,38.0505,1654.00,33.00,30.00,88.23,150.00,7.00,0.00,29.65,M,10.00,M,SCT,SCT,OVC,M,2100.00,3200.00,8500.00,M,M,M,M,M,M,M,M,26.12,KTPH 160513Z AUTO 15007KT 10SM SCT021 SCT032 OVC085 01/M01 A2965 RMK AO2 T00061011,M
BVU,2023-01-16 05:15,-114.8611,35.9475,671.00,48.20,33.80,57.26,230.00,10.00,0.00,29.77,M,10.00,M,FEW,BKN,OVC,M,3800.00,6500.00,7500.00,M,M,M,M,M,M,M,M,43.28,KBVU 160515Z AUTO 23010KT 10SM FEW038 BKN065 OVC075 09/01 A2977 RMK AO2,M
CXP,2023-01-16 05:15,-119.7326,39.1923,1431.00,33.80,26.60,74.63,0.00,0.00,0.00,29.61,M,10.00,M,BKN,OVC,M,M,5000.00,6000.00,M,M,M,M,M,M,M,M,M,33.80,KCXP 160515Z AUTO 00000KT 10SM BKN050 OVC060 01/M03 A2961 RMK AO2,M
RTS,2023-01-16 05:15,-119.8764,39.6682,1539.00,30.20,24.80,80.07,20.00,5.00,0.00,29.61,M,10.00,M,SCT,BKN,OVC,M,3400.00,3900.00,5500.00,M,M,M,M,M,M,M,M,24.26,KRTS 160515Z AUTO 02005KT 10SM SCT034 BKN039 OVC055 M01/M04 A2961 RMK AO2,M
05U,2023-01-16 05:15,-116.0051,39.6042,1811.23,15.80,12.20,85.40,M,M,0.00,29.67,M,10.00,M,M,M,M,M,M,M,M,M,M,M,M,M,M,M,M,M,K05U 160515Z AUTO 10SM M09/M11 A2967 RMK A01,M
MEV,2023-01-16 05:15,-119.7500,38.9963,1441.42,32.00,28.40,86.39,0.00,0.00,0.00,29.60,M,10.00,M,FEW,SCT,OVC,M,3900.00,4800.00,5500.00,M,M,M,M,M,M,M,M,32.00,KMEV 160515Z AUTO 00000KT 10SM FEW039 SCT048 OVC055 M00/M02 A2960 RMK AO2,M
BAM,2023-01-16 05:15,-116.8743,40.5990,1382.36,33.80,30.20,86.49,40.00,5.00,0.00,29.65,M,10.00,M,SCT,M,M,M,7000.00,M,M,M,M,M,M,M,M,M,M,28.53,KBAM 160515Z AUTO 04005KT 10SM SCT070 01/M01 A2965 RMK AO1,M
TPH,2023-01-16 05:24,-117.0904,38.0505,1654.00,33.00,30.00,88.23,150.00,8.00,0.00,29.66,M,10.00,M,BKN,OVC,M,M,2100.00,8500.00,M,M,M,M,M,M,M,M,M,25.47,KTPH 160524Z AUTO 15008KT 10SM BKN021 OVC085 01/M01 A2966 RMK AO2 T00061011,M
05U,2023-01-16 05:30,-116.0051,39.6042,1811.23,15.80,12.20,85.40,M,M,0.00,29.66,M,10.00,M,M,M,M,M,M,M,M,M,M,M,M,M,M,M,M,M,K05U 160530Z AUTO 10SM M09/M11 A2966 RMK A01,M
BVU,2023-01-16 05:35,-114.8611,35.9475,671.00,48.20,33.80,57.26,240.00,8.00,0.00,29.77,M,10.00,M,FEW,OVC,M,M,6000.00,7500.00,M,M,M,M,M,M,M,M,M,44.07,KBVU 160535Z AUTO 24008KT 10SM FEW060 OVC075 09/01 A2977 RMK AO2,M
CXP,2023-01-16 05:35,-119.7326,39.1923,1431.00,33.80,26.60,74.63,0.00,0.00,0.00,29.61,M,10.00,M,SCT,BKN,OVC,M,3100.00,3600.00,5000.00,M,M,M,M,M,M,M,M,33.80,KCXP 160535Z AUTO 00000KT 10SM SCT031 BKN036 OVC050 01/M03 A2961 RMK AO2,M
RTS,2023-01-16 05:35,-119.8764,39.6682,1539.00,32.00,23.00,69.04,20.00,3.00,0.00,29.61,M,10.00,M,BKN,BKN,OVC,M,2200.00,2800.00,4100.00,M,M,M,M,M,M,M,M,28.69,KRTS 160535Z AUTO 02003KT 10SM BKN022 BKN028 OVC041 M00/M05 A2961 RMK AO2,M
MEV,2023-01-16 05:35,-119.7500,38.9963,1441.42,33.80,26.60,74.63,0.00,0.00,0.00,29.60,M,10.00,M,FEW,SCT,BKN,M,2400.00,3000.00,3700.00,M,M,M,M,M,M,M,M,33.80,KMEV 160535Z AUTO 00000KT 10SM FEW024 SCT030 BKN037 01/M03 A2960 RMK AO2,M
BAM,2023-01-16 05:35,-116.8743,40.5990,1382.36,33.80,30.20,86.49,30.00,3.00,0.00,29.65,M,10.00,M,SCT,M,M,M,7000.00,M,M,M,M,M,M,M,M,M,M,30.75,KBAM 160535Z AUTO 03003KT 10SM SCT070 01/M01 A2965 RMK AO1,M
P68,2023-01-16 05:53,-116.0056,39.6014,1993.00,19.00,12.00,73.73,210.00,8.00,0.00,29.64,1005.00,M,M,M,M,M,M,M,M,M,M,M,M,M,M,M,M,M,8.10,KP68 160553Z AUTO 21008KT M07/M11 A2964 RMK AO1 SLP050 T10721111 11006 21094 55006,M
ELY,2023-01-16 05:53,-114.8453,39.2950,1909.00,21.00,19.90,95.43,190.00,5.00,0.00,29.67,1006.00,10.00,M,OVC,M,M,M,5500.00,M,M,M,M,M,M,M,M,M,M,13.33,KELY 160553Z AUTO 19005KT 10SM OVC055 M06/M07 A2967 RMK AO2 SLP060 60000 T10611067 11017 21061 50001,M
VGT,2023-01-16 05:53,-115.1933,36.2111,667.00,50.00,34.00,53.97,190.00,12.00,0.00,29.71,1007.40,10.00,22.00,OVC,M,M,M,8500.00,M,M,M,M,M,M,M,M,M,M,50.00,KVGT 160553Z AUTO 19012G22KT 10SM OVC085 10/01 A2971 RMK AO2 SLP074 T01000011 10128 20094 50001,M
LOL,2023-01-16 05:53,-118.5701,40.0684,1192.43,36.00,28.90,75.15,0.00,0.00,0.00,29.61,1003.40,10.00,M,OVC,M,M,M,7000.00,M,M,M,M,M,M,M,M,M,M,36.00,KLOL 160553Z AUTO 00000KT 10SM OVC070 02/M02 A2961 RMK AO2 SLP034 T00221017 10056 20017 56002,M
BVU,2023-01-16 05:55,-114.8611,35.9475,671.00,46.40,35.60,65.83,180.00,3.00,0.00,29.76,M,10.00,M,BKN,OVC,M,M,7000.00,8000.00,M,M,M,M,M,M,M,M,M,45.15,KBVU 160555Z AUTO 18003KT 10SM BKN070 OVC080 08/02 A2976 RMK AO2,M
CXP,2023-01-16 05:55,-119.7326,39.1923,1431.00,33.80,24.80,69.25,180.00,4.00,0.00,29.61,M,4.00,M,OVC,M,M,M,3200.00,M,M,M,-RA HZ,M,M,M,M,M,M,29.52,KCXP 160555Z AUTO 18004KT 4SM -RA HZ OVC032 01/M04 A2961 RMK AO2,M
INS,2023-01-16 05:55,-115.6733,36.5872,955.00,42.00,33.80,72.76,100.00,3.00,0.00,29.71,1004.70,10.00,M,OVC,M,M,M,8000.00,M,M,M,M,M,M,M,M,M,M,40.01,KINS 160555Z AUTO 10003KT 10SM OVC080 06/01 A2971 RMK AO2 SLP047 T00550010 10090 20055 55000 $,M
RNO,2023-01-16 05:55,-119.7711,39.4839,1341.00,36.00,25.00,63.98,0.00,0.00,0.00,29.60,1002.00,10.00,M,BKN,BKN,M,M,5000.00,7000.00,M,M,M,M,M,M,M,M,M,36.00,KRNO 160555Z 00000KT 10SM BKN050 BKN070 02/M04 A2960 RMK AO2 SLP020 T00221039 10044 20017 55001,M
RTS,2023-01-16 05:55,-119.8764,39.6682,1539.00,32.00,23.00,69.04,0.00,0.00,0.00,29.61,M,7.00,M,OVC,M,M,M,2100.00,M,M,M,-SN,M,M,M,M,M,M,32.00,KRTS 160555Z AUTO 00000KT 7SM -SN OVC021 M00/M05 A2961 RMK AO2,M
05U,2023-01-16 05:55,-116.0051,39.6042,1811.23,17.60,12.20,79.00,M,M,0.00,29.67,M,10.00,M,M,M,M,M,M,M,M,M,M,M,M,M,M,M,M,M,K05U 160555Z AUTO 10SM M08/M11 A2967 RMK A01,M
MEV,2023-01-16 05:55,-119.7500,38.9963,1441.42,32.00,28.40,86.39,0.00,0.00,0.00,29.60,M,9.00,M,FEW,OVC,M,M,2200.00,3200.00,M,M,-SN,M,M,M,M,M,M,32.00,KMEV 160555Z AUTO 00000KT 9SM -SN FEW022 OVC032 00/M02 A2960 RMK AO2,M
BAM,2023-01-16 05:55,-116.8743,40.5990,1382.36,33.80,30.20,86.49,0.00,0.00,0.00,29.64,M,10.00,M,BKN,M,M,M,8000.00,M,M,M,M,M,M,M,M,M,M,33.80,KBAM 160555Z AUTO 00000KT 10SM BKN080 01/M01 A2964 RMK AO1,M
LSV,2023-01-16 05:55,-115.0343,36.2362,570.00,49.50,35.00,56.99,190.00,17.00,0.00,29.71,1005.50,10.00,M,BKN,M,M,M,8500.00,M,M,M,M,M,M,M,M,M,M,43.00,KLSV 160555Z AUTO 19017KT 10SM BKN085 10/02 A2971 RMK AO2 SLP055 T00970016 10120 20097 53005 $,M
EKO,2023-01-16 05:56,-115.7860,40.8242,1367.00,28.00,24.10,85.08,60.00,3.00,0.00,29.65,1005.40,10.00,M,OVC,M,M,M,12000.00,M,M,M,M,M,M,M,M,M,M,24.12,KEKO 160556Z AUTO 06003KT 10SM OVC120 M02/M04 A2965 RMK AO2 SLP054 60000 T10221044 10006 21033 56001,M
NFL,2023-01-16 05:56,-118.7010,39.4166,1199.00,42.00,21.00,42.62,190.00,7.00,0.00,29.60,1000.90,10.00,M,BKN,OVC,M,M,6500.00,7500.00,M,M,M,M,M,M,M,M,M,37.09,KNFL 160556Z AUTO 19007KT 10SM BKN065 OVC075 06/M06 A2960 RMK AO2 SLP009 T00561061 10067 20033 56003,M
HND,2023-01-16 05:56,-115.1344,35.9729,742.79,45.00,37.00,73.37,180.00,15.00,0.00,29.76,1009.60,10.00,M,FEW,BKN,M,M,4300.00,5000.00,M,M,M,M,M,M,M,M,M,37.63,KHND 160556Z AUTO 18015KT 10SM FEW043 BKN050 07/03 A2976 RMK AO2 SLP096 T00720028 10100 20072 51009,M
WMC,2023-01-16 05:56,-117.8072,40.9019,1315.00,35.00,28.00,75.06,70.00,4.00,0.00,29.63,1003.50,10.00,M,BKN,OVC,M,M,5500.00,9500.00,M,M,M,M,M,M,M,M,M,31.04,KWMC 160556Z AUTO 07004KT 10SM BKN055 OVC095 02/M02 A2963 RMK AO2 SLP035 60000 T00171022 10044 20006 55000 $,M
TPH,2023-01-16 05:56,-117.0904,38.0505,1654.00,33.00,30.00,88.23,120.00,6.00,0.00,29.65,1004.30,10.00,M,BKN,BKN,OVC,M,1900.00,2300.00,3000.00,M,M,M,M,M,M,M,M,26.86,KTPH 160556Z AUTO 12006KT 10SM BKN019 BKN023 OVC030 01/M01 A2965 RMK AO2 SLP043 T00061011 10022 20006 58004,M
LAS,2023-01-16 05:56,-115.1634,36.0719,663.00,47.00,35.00,63.33,180.00,11.00,0.00,29.73,1006.60,10.00,17.00,OVC,M,M,M,10000.00,M,M,M,M,M,M,M,M,M,M,41.30,KLAS 160556Z 18011G17KT 10SM OVC100 08/02 A2973 RMK AO2 SLP066 T00830017 10111 20083 53005,M
BVU,2023-01-16 06:15,-114.8611,35.9475,671.00,48.20,35.60,61.52,220.00,3.00,0.00,29.76,M,10.00,M,OVC,M,M,M,6000.00,M,M,M,M,M,M,M,M,M,M,47.21,KBVU 160615Z AUTO 22003KT 10SM OVC060 09/02 A2976 RMK AO2,M
CXP,2023-01-16 06:15,-119.7326,39.1923,1431.00,33.80,26.60,74.63,250.00,3.00,0.00,29.61,M,5.00,M,OVC,M,M,M,3100.00,M,M,M,-SN HZ,M,M,M,M,M,M,30.75,KCXP 160615Z AUTO 25003KT 5SM -SN HZ OVC031 01/M03 A2961 RMK AO2,M
RTS,2023-01-16 06:15,-119.8764,39.6682,1539.00,30.20,24.80,80.07,330.00,4.00,0.00,29.61,M,5.00,M,OVC,M,M,M,2200.00,M,M,M,-SN,M,M,M,M,M,M,25.32,KRTS 160615Z AUTO 33004KT 5SM -SN OVC022 M01/M04 A2961 RMK AO2,M
05U,2023-01-16 06:15,-116.0051,39.6042,1811.23,17.60,14.00,85.51,M,M,0.00,29.66,M,10.00,M,M,M,M,M,M,M,M,M,M,M,M,M,M,M,M,M,K05U 160615Z AUTO 10SM M08/M10 A2966 RMK A01,M
MEV,2023-01-16 06:15,-119.7500,38.9963,1441.42,32.00,28.40,86.39,0.00,0.00,0.00,29.59,M,2.00,M,SCT,BKN,OVC,M,400.00,2400.00,3300.00,M,-SN BR,M,M,M,M,M,M,32.00,KMEV 160615Z AUTO 00000KT 2SM -SN BR SCT004 BKN024 OVC033 M00/M02 A2959 RMK AO2 VIS 1 3/4V3,M
BAM,2023-01-16 06:15,-116.8743,40.5990,1382.36,33.80,30.20,86.49,70.00,3.00,0.00,29.65,M,10.00,M,BKN,OVC,M,M,6500.00,8000.00,M,M,M,M,M,M,M,M,M,30.75,KBAM 160615Z AUTO 07003KT 10SM BKN065 OVC080 01/M01 A2965 RMK AO1,M
BVU,2023-01-16 06:35,-114.8611,35.9475,671.00,46.40,35.60,65.83,0.00,0.00,0.00,29.77,M,10.00,M,OVC,M,M,M,5500.00,M,M,M,M,M,M,M,M,M,M,46.40,KBVU 160635Z AUTO 00000KT 10SM OVC055 08/02 A2977 RMK AO2,M
CXP,2023-01-16 06:35,-119.7326,39.1923,1431.00,32.00,28.40,86.39,270.00,3.00,0.00,29.61,M,3.00,M,OVC,M,M,M,3100.00,M,M,M,-SN HZ,M,M,M,M,M,M,28.69,KCXP 160635Z AUTO 27003KT 3SM -SN HZ OVC031 00/M02 A2961 RMK AO2,M
RTS,2023-01-16 06:35,-119.8764,39.6682,1539.00,30.20,26.60,86.28,330.00,4.00,0.00,29.61,M,6.00,M,OVC,M,M,M,2300.00,M,M,M,-SN,M,M,M,M,M,M,25.32,KRTS 160635Z AUTO 33004KT 6SM -SN OVC023 M01/M03 A2961 RMK AO2,M
05U,2023-01-16 06:35,-116.0051,39.6042,1811.23,17.60,12.20,79.00,M,M,0.00,29.66,M,10.00,M,M,M,M,M,M,M,M,M,M,M,M,M,M,M,M,M,K05U 160635Z AUTO 10SM M08/M11 A2966 RMK A01,M
MEV,2023-01-16 06:35,-119.7500,38.9963,1441.42,32.00,28.40,86.39,240.00,3.00,0.00,29.59,M,2.00,M,FEW,BKN,OVC,M,400.00,2400.00,3000.00,M,-SN BR,M,M,M,M,M,M,28.69,KMEV 160635Z AUTO 24003KT 2SM -SN BR FEW004 BKN024 OVC030 M00/M02 A2959 RMK AO2,M
BAM,2023-01-16 06:35,-116.8743,40.5990,1382.36,33.80,30.20,86.49,90.00,4.00,0.00,29.65,M,10.00,M,SCT,BKN,M,M,6500.00,9000.00,M,M,M,M,M,M,M,M,M,29.52,KBAM 160635Z AUTO 09004KT 10SM SCT065 BKN090 01/M01 A2965 RMK AO1,M
P68,2023-01-16 06:53,-116.0056,39.6014,1993.00,19.90,12.00,70.95,210.00,5.00,0.00,29.64,1004.50,M,M,M,M,M,M,M,M,M,M,M,M,M,M,M,M,M,12.03,KP68 160653Z AUTO 21005KT M07/M11 A2964 RMK AO1 SLP045 T10671111,M
ELY,2023-01-16 06:53,-114.8453,39.2950,1909.00,21.90,19.90,91.86,180.00,4.00,0.00,29.67,1005.60,10.00,M,OVC,M,M,M,5000.00,M,M,M,M,M,M,M,M,M,M,15.63,KELY 160653Z AUTO 18004KT 10SM OVC050 M06/M07 A2967 RMK AO2 SLP056 T10561067,M
VGT,2023-01-16 06:53,-115.1933,36.2111,667.00,48.00,36.00,62.97,180.00,14.00,0.00,29.72,1007.70,10.00,M,OVC,M,M,M,7000.00,M,M,M,M,M,M,M,M,M,M,41.79,KVGT 160653Z AUTO 18014KT 10SM OVC070 09/02 A2972 RMK AO2 SLP077 T00890022,M
LOL,2023-01-16 06:53,-118.5701,40.0684,1192.43,36.00,28.90,75.15,M,3.00,0.00,29.61,1003.20,10.00,M,BKN,OVC,M,M,5500.00,7000.00,M,M,M,M,M,M,M,M,M,33.26,KLOL 160653Z AUTO VRB03KT 10SM BKN055 OVC070 02/M02 A2961 RMK AO2 SLP032 T00221017,M
BVU,2023-01-16 06:55,-114.8611,35.9475,671.00,46.40,41.00,81.34,150.00,6.00,0.00,29.76,M,10.00,M,BKN,OVC,M,M,5500.00,7000.00,M,M,M,M,M,M,M,M,M,42.87,KBVU 160655Z AUTO 15006KT 10SM BKN055 OVC070 08/05 A2976 RMK AO2,M
CXP,2023-01-16 06:55,-119.7326,39.1923,1431.00,32.00,28.40,86.39,310.00,4.00,0.00,29.61,M,3.00,M,OVC,M,M,M,3100.00,M,M,M,-SN BR,M,M,M,M,M,M,27.42,KCXP 160655Z AUTO 31004KT 3SM -SN BR OVC031 00/M02 A2961 RMK AO2,M
INS,2023-01-16 06:55,-115.6733,36.5872,955.00,41.20,35.20,79.04,100.00,7.00,0.00,29.69,1004.00,10.00,M,OVC,M,M,M,5500.00,M,M,M,M,M,M,M,M,M,M,35.99,KINS 160655Z AUTO 10007KT 10SM OVC055 05/02 A2969 RMK AO2 SLP040 T00510018 $,M
RTS,2023-01-16 06:55,-119.8764,39.6682,1539.00,30.20,26.60,86.28,310.00,3.00,0.00,29.61,M,2.50,M,SCT,SCT,M,M,2300.00,4200.00,M,M,-SN,M,M,M,M,M,M,26.63,KRTS 160655Z AUTO 31003KT 2 1/2SM -SN SCT023 SCT042 M01/M03 A2961 RMK AO2,M
05U,2023-01-16 06:55,-116.0051,39.6042,1811.23,17.60,12.20,79.00,M,M,0.00,29.66,M,10.00,M,M,M,M,M,M,M,M,M,M,M,M,M,M,M,M,M,K05U 160655Z AUTO 10SM M08/M11 A2966 RMK A01,M
MEV,2023-01-16 06:55,-119.7500,38.9963,1441.42,30.20,30.20,100.00,0.00,0.00,0.00,29.59,M,1.50,M,BKN,BKN,OVC,M,300.00,1900.00,2400.00,M,-SN BR,M,M,M,M,M,M,30.20,KMEV 160655Z AUTO 00000KT 1 1/2SM -SN BR BKN003 BKN019 OVC024 M01/M01 A2959 RMK AO2,M
BAM,2023-01-16 06:55,-116.8743,40.5990,1382.36,33.80,30.20,86.49,60.00,6.00,0.00,29.64,M,10.00,M,SCT,BKN,M,M,7500.00,9000.00,M,M,M,M,M,M,M,M,M,27.70,KBAM 160655Z AUTO 06006KT 10SM SCT075 BKN090 01/M01 A2964 RMK AO1,M
LSV,2023-01-16 06:55,-115.0343,36.2362,570.00,48.60,36.00,61.81,190.00,17.00,0.00,29.71,1005.50,10.00,21.00,OVC,M,M,M,7000.00,M,M,M,M,M,M,M,M,M,M,41.82,KLSV 160655Z AUTO 19017G21KT 10SM OVC070 09/02 A2971 RMK AO2 SLP055 T00920023 $,M
RNO,2023-01-16 06:55,-119.7711,39.4839,1341.00,35.00,27.00,72.04,130.00,5.00,T,29.60,1001.70,7.00,M,OVC,M,M,M,3100.00,M,M,M,-SN,M,M,M,M,M,M,30.08,KRNO 160655Z 13005KT 7SM -SN OVC031 02/M03 A2960 RMK AO2 SNB50 SLP017 P0000 T00171028,M
EKO,2023-01-16 06:56,-115.7860,40.8242,1367.00,25.00,23.00,91.97,90.00,5.00,0.00,29.65,1005.60,10.00,M,BKN,M,M,M,10000.00,M,M,M,M,M,M,M,M,M,M,18.08,KEKO 160656Z AUTO 09005KT 10SM BKN100 M04/M05 A2965 RMK AO2 SLP056 T10391050,M
HND,2023-01-16 06:56,-115.1344,35.9729,742.79,45.00,37.00,73.37,170.00,9.00,T,29.77,1009.70,10.00,M,FEW,BKN,OVC,M,4500.00,6500.00,8000.00,M,M,M,M,M,M,M,M,39.68,KHND 160656Z AUTO 17009KT 10SM FEW045 BKN065 OVC080 07/03 A2977 RMK AO2 RAB0559E27 SLP097 P0000 T00720028 401170067,M
TPH,2023-01-16 06:56,-117.0904,38.0505,1654.00,32.00,28.90,88.17,150.00,9.00,0.00,29.64,1003.40,10.00,M,BKN,OVC,M,M,1700.00,3500.00,M,M,M,M,M,M,M,M,M,23.51,KTPH 160656Z AUTO 15009KT 10SM BKN017 OVC035 00/M02 A2964 RMK AO2 SLP034 T00001017,M
LAS,2023-01-16 06:56,-115.1634,36.0719,663.00,47.00,36.00,65.63,190.00,9.00,0.00,29.74,1006.50,10.00,17.00,BKN,OVC,M,M,6000.00,7500.00,M,M,M,M,M,M,M,M,M,42.04,KLAS 160656Z 19009G17KT 10SM BKN060 OVC075 08/02 A2974 RMK AO2 SLP065 TOPS OF MTNS OBSCURED DSNT SW-NW T00830022,M
WMC,2023-01-16 06:56,-117.8072,40.9019,1315.00,35.00,28.90,77.88,60.00,7.00,0.00,29.62,1003.20,10.00,M,OVC,M,M,M,5500.00,M,M,M,M,M,M,M,M,M,M,28.56,KWMC 160656Z AUTO 06007KT 10SM OVC055 02/M02 A2962 RMK AO2 SLP032 T00171017 $,M
NFL,2023-01-16 06:56,-118.7010,39.4166,1199.00,40.00,27.00,59.65,170.00,6.00,0.00,29.60,1000.90,10.00,M,OVC,M,M,M,5000.00,M,M,M,M,M,M,M,M,M,M,35.04,KNFL 160656Z AUTO 17006KT 10SM OVC050 04/M03 A2960 RMK AO2 SLP009 T00441028,M
RNO,2023-01-16 07:08,-119.7711,39.4839,1341.00,34.00,28.00,80.36,170.00,5.00,T,29.60,M,2.50,M,BKN,OVC,M,M,2600.00,3100.00,M,M,-SN,M,M,M,M,M,M,28.53,KRNO 160708Z 17005KT 2 1/2SM -SN BKN026 OVC031 01/M02 A2960 RMK AO2 P0000 T00111022,M
BVU,2023-01-16 07:15,-114.8611,35.9475,671.00,46.40,41.00,81.34,170.00,8.00,0.00,29.75,M,10.00,M,BKN,OVC,M,M,6000.00,7500.00,M,M,M,M,M,M,M,M,M,41.85,KBVU 160715Z AUTO 17008KT 10SM BKN060 OVC075 08/05 A2975 RMK AO2,M
CXP,2023-01-16 07:15,-119.7326,39.1923,1431.00,32.00,28.40,86.39,290.00,3.00,0.00,29.60,M,3.00,M,OVC,M,M,M,3000.00,M,M,M,-SN BR,M,M,M,M,M,M,28.69,KCXP 160715Z AUTO 29003KT 3SM -SN BR OVC030 M00/M02 A2960 RMK AO2,M
RTS,2023-01-16 07:15,-119.8764,39.6682,1539.00,30.20,28.40,92.92,0.00,0.00,0.00,29.60,M,3.00,M,CLR,M,M,M,M,M,M,M,-SN,M,M,M,M,M,M,30.20,KRTS 160715Z AUTO 00000KT 3SM -SN CLR M01/M02 A2960 RMK AO2,M
05U,2023-01-16 07:15,-116.0051,39.6042,1811.23,15.80,10.40,78.84,M,M,0.00,29.66,M,10.00,M,M,M,M,M,M,M,M,M,M,M,M,M,M,M,M,M,K05U 160715Z AUTO 10SM M09/M12 A2966 RMK A01,M
MEV,2023-01-16 07:15,-119.7500,38.9963,1441.42,30.20,30.20,100.00,0.00,0.00,0.00,29.59,M,2.00,M,FEW,SCT,BKN,M,300.00,2300.00,2700.00,M,UP BR,M,M,M,M,M,M,30.20,KMEV 160715Z AUTO 00000KT 2SM UP BR FEW003 SCT023 BKN027 M01/M01 A2959 RMK AO2,M
BAM,2023-01-16 07:15,-116.8743,40.5990,1382.36,33.80,30.20,86.49,60.00,4.00,0.00,29.64,M,10.00,M,SCT,BKN,M,M,7500.00,10000.00,M,M,M,M,M,M,M,M,M,29.52,KBAM 160715Z AUTO 06004KT 10SM SCT075 BKN100 01/M01 A2964 RMK AO1,M
05U,2023-01-16 07:30,-116.0051,39.6042,1811.23,M,M,M,M,M,0.00,29.66,M,10.00,M,M,M,M,M,M,M,M,M,M,M,M,M,M,M,M,M,K05U 160730Z AUTO 10SM A2966 RMK A01,M
BVU,2023-01-16 07:35,-114.8611,35.9475,671.00,46.40,42.80,87.19,160.00,6.00,0.00,29.75,M,10.00,M,FEW,OVC,M,M,4200.00,5500.00,M,M,M,M,M,M,M,M,M,42.87,KBVU 160735Z AUTO 16006KT 10SM FEW042 OVC055 08/06 A2975 RMK AO2,M
CXP,2023-01-16 07:35,-119.7326,39.1923,1431.00,32.00,30.20,92.97,0.00,0.00,0.00,29.60,M,2.50,M,OVC,M,M,M,3000.00,M,M,M,-SN BR,M,M,M,M,M,M,32.00,KCXP 160735Z AUTO 00000KT 2 1/2SM -SN BR OVC030 M00/M01 A2960 RMK AO2,M
RTS,2023-01-16 07:35,-119.8764,39.6682,1539.00,30.20,28.40,92.92,0.00,0.00,0.00,29.59,M,2.50,M,FEW,SCT,M,M,500.00,2200.00,M,M,-SN,M,M,M,M,M,M,30.20,KRTS 160735Z AUTO 00000KT 2 1/2SM -SN FEW005 SCT022 M01/M02 A2959 RMK AO2,M
MEV,2023-01-16 07:35,-119.7500,38.9963,1441.42,30.20,30.20,100.00,0.00,0.00,0.00,29.58,M,1.00,M,OVC,M,M,M,300.00,M,M,M,-SN BR,M,M,M,M,M,M,30.20,KMEV 160735Z AUTO 00000KT 1SM -SN BR OVC003 M01/M01 A2958 RMK AO2,M
BAM,2023-01-16 07:35,-116.8743,40.5990,1382.36,33.80,30.20,86.49,60.00,5.00,0.00,29.64,M,10.00,M,OVC,M,M,M,10000.00,M,M,M,M,M,M,M,M,M,M,28.53,KBAM 160735Z AUTO 06005KT 10SM OVC100 01/M01 A2964 RMK AO1,M
RNO,2023-01-16 07:48,-119.7711,39.4839,1341.00,33.00,30.00,88.23,0.00,0.00,0.01,29.59,M,2.50,M,OVC,M,M,M,3400.00,M,M,M,-SN BR,M,M,M,M,M,M,33.10,KRNO 160748Z 00000KT 2 1/2SM -SN BR OVC034 01/M01 A2959 RMK AO2 P0001 T00061011,M
P68,2023-01-16 07:53,-116.0056,39.6014,1993.00,10.90,7.00,83.93,30.00,3.00,0.00,29.63,1005.20,M,M,M,M,M,M,M,M,M,M,M,M,M,M,M,M,M,4.57,KP68 160753Z AUTO 03003KT M12/M14 A2963 RMK AO1 SLP052 T11171139 400221117,M
ELY,2023-01-16 07:53,-114.8453,39.2950,1909.00,19.00,17.10,92.15,190.00,10.00,0.00,29.66,1005.60,10.00,M,BKN,M,M,M,4400.00,M,M,M,M,M,M,M,M,M,M,6.67,KELY 160753Z AUTO 19010KT 10SM BKN044 M07/M08 A2966 RMK AO2 SLP056 T10721083 400111078,M
VGT,2023-01-16 07:53,-115.1933,36.2111,667.00,49.00,36.00,60.88,180.00,10.00,T,29.71,1007.50,10.00,M,BKN,OVC,M,M,7000.00,8500.00,M,M,M,M,M,M,M,M,M,44.16,KVGT 160753Z AUTO 18010KT 10SM BKN070 OVC085 09/02 A2971 RMK AO2 RAB09E21 SLP075 P0000 T00940022 401440083,M
LOL,2023-01-16 07:53,-118.5701,40.0684,1192.43,35.00,28.90,77.88,50.00,9.00,0.00,29.60,1002.70,10.00,M,SCT,OVC,M,M,4200.00,7000.00,M,M,M,M,M,M,M,M,M,27.37,KLOL 160753Z AUTO 05009KT 10SM SCT042 OVC070 02/M02 A2960 RMK AO2 SLP027 T00171017 400610000,M
BVU,2023-01-16 07:55,-114.8611,35.9475,671.00,46.40,42.80,87.19,130.00,6.00,0.00,29.74,M,10.00,M,SCT,BKN,OVC,M,3600.00,4700.00,5500.00,M,M,M,M,M,M,M,M,42.87,KBVU 160755Z AUTO 13006KT 10SM SCT036 BKN047 OVC055 08/06 A2974 RMK AO2,M
CXP,2023-01-16 07:55,-119.7326,39.1923,1431.00,32.00,30.20,92.97,0.00,0.00,0.00,29.59,M,1.25,M,BKN,M,M,M,2900.00,M,M,M,-SN BR,M,M,M,M,M,M,32.00,KCXP 160755Z AUTO 00000KT 1 1/4SM -SN BR BKN029 M00/M01 A2959 RMK AO2,M
RTS,2023-01-16 07:55,-119.8764,39.6682,1539.00,30.20,28.40,92.92,60.00,4.00,0.00,29.59,M,3.00,M,FEW,FEW,M,M,500.00,2200.00,M,M,-SN,M,M,M,M,M,M,25.32,KRTS 160755Z AUTO 06004KT 3SM -SN FEW005 FEW022 M01/M02 A2959 RMK AO2,M
05U,2023-01-16 07:55,-116.0051,39.6042,1811.23,10.40,6.80,85.05,M,M,0.00,29.65,M,10.00,M,M,M,M,M,M,M,M,M,M,M,M,M,M,M,M,M,K05U 160755Z AUTO 10SM M12/M14 A2965 RMK A01,M
MEV,2023-01-16 07:55,-119.7500,38.9963,1441.42,30.20,30.20,100.00,0.00,0.00,0.01,29.57,M,1.25,M,OVC,M,M,M,300.00,M,M,M,-SN BR,M,M,M,M,M,M,30.20,KMEV 160755Z AUTO 00000KT 1 1/4SM -SN BR OVC003 M01/M01 A2957 RMK AO2 P0001,M
BAM,2023-01-16 07:55,-116.8743,40.5990,1382.36,33.80,30.20,86.49,60.00,5.00,0.00,29.64,M,10.00,M,SCT,BKN,OVC,M,6500.00,9000.00,11000.00,M,M,M,M,M,M,M,M,28.53,KBAM 160755Z AUTO 06005KT 10SM SCT065 BKN090 OVC110 01/M01 A2964 RMK AO1,M
LSV,2023-01-16 07:55,-115.0343,36.2362,570.00,48.00,37.20,66.02,190.00,9.00,0.00,29.70,1005.10,10.00,M,SCT,M,M,M,6000.00,M,M,M,M,M,M,M,M,M,M,43.41,KLSV 160755Z AUTO 19009KT 10SM SCT060 09/03 A2970 RMK AO2 SLP051 T00890029 401490087 $,M
INS,2023-01-16 07:55,-115.6733,36.5872,955.00,42.00,33.40,71.05,100.00,11.00,0.00,29.69,1004.00,10.00,M,FEW,SCT,OVC,M,2200.00,4900.00,6000.00,M,M,M,M,M,M,M,M,35.23,KINS 160755Z AUTO 10011KT 10SM FEW022 SCT049 OVC060 06/01 A2969 RMK AO2 SLP040 T00560008 401100040 $,M
RNO,2023-01-16 07:55,-119.7711,39.4839,1341.00,33.00,30.00,88.23,0.00,0.00,0.01,29.59,1001.40,2.50,M,OVC,M,M,M,3800.00,M,M,M,-SN BR,M,M,M,M,M,M,33.10,KRNO 160755Z 00000KT 2 1/2SM -SN BR OVC038 01/M01 A2959 RMK AO2 TWR VIS 3 SLP014 P0001 T00061011 400611011,M
EKO,2023-01-16 07:56,-115.7860,40.8242,1367.00,23.00,19.90,87.70,50.00,5.00,0.00,29.64,1005.50,10.00,M,CLR,M,M,M,M,M,M,M,M,M,M,M,M,M,M,15.71,KEKO 160756Z AUTO 05005KT 10SM CLR M05/M07 A2964 RMK AO2 SLP055 T10501067 400281050,M
WMC,2023-01-16 07:56,-117.8072,40.9019,1315.00,33.00,30.00,88.23,60.00,8.00,0.00,29.62,1003.10,10.00,M,OVC,M,M,M,6500.00,M,M,M,M,M,M,M,M,M,M,25.47,KWMC 160756Z AUTO 06008KT 10SM OVC065 01/M01 A2962 RMK AO2 SLP031 T00061011 400670006 $,M
TPH,2023-01-16 07:56,-117.0904,38.0505,1654.00,33.00,28.90,84.36,130.00,11.00,0.00,29.62,1002.50,10.00,M,BKN,BKN,OVC,M,1900.00,3600.00,6500.00,M,M,M,M,M,M,M,M,23.86,KTPH 160756Z AUTO 13011KT 10SM BKN019 BKN036 OVC065 01/M02 A2962 RMK AO2 SLP025 T00061017 400501072,M
LAS,2023-01-16 07:56,-115.1634,36.0719,663.00,46.00,36.00,67.90,180.00,7.00,0.00,29.72,1006.20,10.00,M,SCT,OVC,M,M,5500.00,7000.00,M,M,M,M,M,M,M,M,M,41.84,KLAS 160756Z 18007KT 10SM SCT055 OVC070 08/02 A2972 RMK AO2 SLP062 SHRA DSNT NW MTNS OBSCURED DSNT W-N T00780022 401280078,M
NFL,2023-01-16 07:56,-118.7010,39.4166,1199.00,37.00,30.00,75.56,300.00,3.00,0.00,29.59,1000.70,10.00,M,FEW,OVC,M,M,2800.00,3800.00,M,M,M,M,M,M,M,M,M,34.40,KNFL 160756Z AUTO 30003KT 10SM FEW028 OVC038 03/M01 A2959 RMK AO2 SLP007 T00281011 400721006,M
HND,2023-01-16 07:56,-115.1344,35.9729,742.79,45.00,38.00,76.01,190.00,9.00,T,29.74,1008.80,10.00,M,BKN,OVC,M,M,4900.00,6000.00,M,M,M,M,M,M,M,M,M,39.68,KHND 160756Z AUTO 19009KT 10SM BKN049 OVC060 07/03 A2974 RMK AO2 RAB35E53 SLP088 P0000 T00720033,M
RNO,2023-01-16 08:02,-119.7711,39.4839,1341.00,33.00,30.00,88.23,0.00,0.00,T,29.58,M,3.00,M,OVC,M,M,M,4000.00,M,M,M,-SN BR,M,M,M,M,M,M,33.10,KRNO 160802Z 00000KT 3SM -SN BR OVC040 01/M01 A2958 RMK AO2 P0000 T00061011,M
LSV,2023-01-16 08:04,-115.0343,36.2362,570.00,48.20,37.40,66.05,190.00,10.00,0.00,29.70,1005.10,10.00,M,FEW,M,M,M,6000.00,M,M,M,-RA,M,M,M,M,M,M,43.28,KLSV 160804Z AUTO 19010KT 10SM -RA FEW060 09/03 A2970 RMK AO2 RAB04 SLP051 $,M
INS,2023-01-16 08:05,-115.6733,36.5872,955.00,42.80,33.80,70.28,120.00,13.00,0.00,29.68,1003.70,10.00,M,SCT,BKN,BKN,OVC,2200.00,2900.00,4700.00,6500.00,M,M,M,M,M,M,M,35.40,KINS 160805Z AUTO 12013KT 10SM SCT022 BKN029 BKN047 OVC065 06/01 A2968 RMK AO2 CIG 029V060 BKN029 V SCT SLP037 $,M
INS,2023-01-16 08:07,-115.6733,36.5872,955.00,42.80,33.80,70.28,120.00,15.00,0.00,29.68,1003.70,10.00,M,FEW,SCT,BKN,OVC,1500.00,2200.00,2900.00,6000.00,-RA,M,M,M,M,M,M,34.78,KINS 160807Z AUTO 12015KT 10SM -RA FEW015 SCT022 BKN029 OVC060 06/01 A2968 RMK AO2 RAB07 CIG 029V060 BKN V SCT SLP037 $,M
LSV,2023-01-16 08:11,-115.0343,36.2362,570.00,48.20,37.40,66.05,180.00,9.00,0.00,29.70,1005.10,10.00,M,CLR,M,M,M,M,M,M,M,M,M,M,M,M,M,M,43.66,KLSV 160811Z AUTO 18009KT 10SM CLR 09/03 A2970 RMK AO2 RAB04E11 SLP051 $,M
BVU,2023-01-16 08:15,-114.8611,35.9475,671.00,46.40,42.80,87.19,130.00,7.00,0.00,29.74,M,10.00,M,BKN,OVC,M,M,3800.00,4700.00,M,M,M,M,M,M,M,M,M,42.33,KBVU 160815Z AUTO 13007KT 10SM BKN038 OVC047 08/06 A2974 RMK AO2,M
CXP,2023-01-16 08:15,-119.7326,39.1923,1431.00,32.00,30.20,92.97,0.00,0.00,0.00,29.58,M,2.00,M,BKN,M,M,M,2900.00,M,M,M,-SN BR,M,M,M,M,M,M,32.00,KCXP 160815Z AUTO 00000KT 2SM -SN BR BKN029 M00/M01 A2958 RMK AO2,M
RTS,2023-01-16 08:15,-119.8764,39.6682,1539.00,30.20,28.40,92.92,70.00,4.00,0.00,29.57,M,6.00,M,BKN,M,M,M,500.00,M,M,M,-SN,M,M,M,M,M,M,25.32,KRTS 160815Z AUTO 07004KT 6SM -SN BKN005 M01/M02 A2957 RMK AO2,M
TPH,2023-01-16 08:15,-117.0904,38.0505,1654.00,33.00,28.90,84.36,130.00,12.00,T,29.60,M,7.00,M,SCT,OVC,M,M,1900.00,4000.00,M,M,-SN,M,M,M,M,M,M,23.40,KTPH 160815Z AUTO 13012KT 7SM -SN SCT019 OVC040 01/M02 A2960 RMK AO2 SNB13 P0000 T00061017,M
05U,2023-01-16 08:15,-116.0051,39.6042,1811.23,12.20,8.60,85.17,M,M,0.00,29.65,M,10.00,M,M,M,M,M,M,M,M,M,M,M,M,M,M,M,M,M,K05U 160815Z AUTO 10SM M11/M13 A2965 RMK A01,M
MEV,2023-01-16 08:15,-119.7500,38.9963,1441.42,30.20,30.20,100.00,320.00,4.00,0.00,29.55,M,0.75,M,OVC,M,M,M,300.00,M,M,M,-SN BR,M,M,M,M,M,M,25.32,KMEV 160815Z AUTO 32004KT 3/4SM -SN BR OVC003 M01/M01 A2955 RMK AO2,M
BAM,2023-01-16 08:15,-116.8743,40.5990,1382.36,33.80,30.20,86.49,70.00,9.00,0.00,29.63,M,10.00,M,SCT,BKN,OVC,M,4900.00,6000.00,7000.00,M,M,M,M,M,M,M,M,25.75,KBAM 160815Z AUTO 07009KT 10SM SCT049 BKN060 OVC070 01/M01 A2963 RMK AO1,M
NFL,2023-01-16 08:16,-118.7010,39.4166,1199.00,37.00,30.00,75.56,10.00,5.00,0.00,29.59,M,10.00,M,OVC,M,M,M,2900.00,M,M,M,M,M,M,M,M,M,M,32.33,KNFL 160816Z AUTO 01005KT 10SM OVC029 03/M01 A2959 RMK AO2 T00281011,M
INS,2023-01-16 08:17,-115.6733,36.5872,955.00,42.80,33.80,70.28,110.00,13.00,0.00,29.68,1003.70,10.00,M,FEW,SCT,OVC,M,2200.00,2800.00,6000.00,M,-RA,M,M,M,M,M,M,35.40,KINS 160817Z AUTO 11013KT 10SM -RA FEW022 SCT028 OVC060 06/01 A2968 RMK AO2 RAB07 SLP037 $,M
INS,2023-01-16 08:23,-115.6733,36.5872,955.00,41.00,33.80,75.33,120.00,14.00,0.00,29.67,1003.30,10.00,M,FEW,FEW,OVC,M,2200.00,2800.00,6000.00,M,M,M,M,M,M,M,M,32.76,KINS 160823Z AUTO 12014KT 10SM FEW022 FEW028 OVC060 05/01 A2967 RMK AO2 RAB07E23 SLP033 $,M
TPH,2023-01-16 08:27,-117.0904,38.0505,1654.00,32.00,30.00,92.22,150.00,12.00,T,29.60,M,2.00,19.00,FEW,OVC,M,M,1900.00,3400.00,M,M,-SN BR,M,M,M,M,M,M,22.00,KTPH 160827Z AUTO 15012G19KT 2SM -SN BR FEW019 OVC034 00/M01 A2960 RMK AO2 SNB13 P0000 T00001011,M
NFL,2023-01-16 08:31,-118.7010,39.4166,1199.00,36.00,30.90,81.53,0.00,0.00,0.00,29.58,M,10.00,M,OVC,M,M,M,3100.00,M,M,M,M,M,M,M,M,M,M,36.00,KNFL 160831Z AUTO 00000KT 10SM OVC031 02/M01 A2958 RMK AO2 T00221006,M
BVU,2023-01-16 08:35,-114.8611,35.9475,671.00,46.40,42.80,87.19,120.00,4.00,0.00,29.73,M,10.00,M,OVC,M,M,M,3400.00,M,M,M,M,M,M,M,M,M,M,44.24,KBVU 160835Z AUTO 12004KT 10SM OVC034 08/06 A2973 RMK AO2,M
CXP,2023-01-16 08:35,-119.7326,39.1923,1431.00,32.00,30.20,92.97,0.00,0.00,0.00,29.56,M,1.75,M,OVC,M,M,M,2900.00,M,M,M,-SN BR,M,M,M,M,M,M,32.00,KCXP 160835Z AUTO 00000KT 1 3/4SM -SN BR OVC029 M00/M01 A2956 RMK AO2,M
RTS,2023-01-16 08:35,-119.8764,39.6682,1539.00,30.20,28.40,92.92,100.00,3.00,0.00,29.56,M,3.00,M,BKN,OVC,M,M,600.00,1000.00,M,M,-SN,M,M,M,M,M,M,26.63,KRTS 160835Z AUTO 10003KT 3SM -SN BKN006 OVC010 M01/M02 A2956 RMK AO2,M
05U,2023-01-16 08:35,-116.0051,39.6042,1811.23,14.00,10.40,85.28,M,M,0.00,29.64,M,10.00,M,M,M,M,M,M,M,M,M,M,M,M,M,M,M,M,M,K05U 160835Z AUTO 10SM M10/M12 A2964 RMK A01,M
MEV,2023-01-16 08:35,-119.7500,38.9963,1441.42,30.20,30.20,100.00,350.00,10.00,0.00,29.53,M,1.75,M,OVC,M,M,M,300.00,M,M,M,-SN BR,M,M,M,M,M,M,20.71,KMEV 160835Z AUTO 35010KT 1 3/4SM -SN BR OVC003 M01/M01 A2953 RMK AO2,M
BAM,2023-01-16 08:35,-116.8743,40.5990,1382.36,33.80,28.40,80.36,70.00,9.00,0.00,29.63,M,10.00,M,SCT,OVC,M,M,4900.00,6000.00,M,M,M,M,M,M,M,M,M,25.75,KBAM 160835Z AUTO 07009KT 10SM SCT049 OVC060 01/M02 A2963 RMK AO1,M
TPH,2023-01-16 08:39,-117.0904,38.0505,1654.00,32.00,30.00,92.22,160.00,14.00,0.01,29.60,M,3.00,M,FEW,BKN,OVC,M,1500.00,2900.00,4600.00,M,-SN BR,M,M,M,M,M,M,21.16,KTPH 160839Z AUTO 16014KT 3SM -SN BR FEW015 BKN029 OVC046 00/M01 A2960 RMK AO2 SNB13 P0001 T00001011,M
RNO,2023-01-16 08:42,-119.7711,39.4839,1341.00,33.00,30.00,88.23,0.00,0.00,T,29.56,M,2.50,M,OVC,M,M,M,3000.00,M,M,M,-SN BR,M,M,M,M,M,M,33.10,KRNO 160842Z 00000KT 2 1/2SM -SN BR OVC030 01/M01 A2956 RMK AO2 P0000 T00061011,M
P68,2023-01-16 08:53,-116.0056,39.6014,1993.00,15.10,12.00,87.27,200.00,5.00,0.00,29.62,1004.40,M,M,M,M,M,M,M,M,M,M,M,M,M,M,M,M,M,6.32,KP68 160853Z AUTO 20005KT M09/M11 A2962 RMK AO1 SLP044 T10941111 58007,M
ELY,2023-01-16 08:53,-114.8453,39.2950,1909.00,23.00,19.00,84.39,210.00,12.00,0.00,29.64,1004.50,10.00,M,OVC,M,M,M,9500.00,M,M,M,M,M,M,M,M,M,M,10.55,KELY 160853Z AUTO 21012KT 10SM OVC095 M05/M07 A2964 RMK AO2 SLP045 T10501072 58006,M
VGT,2023-01-16 08:53,-115.1933,36.2111,667.00,48.00,37.00,65.51,140.00,5.00,0.00,29.71,1007.30,10.00,M,OVC,M,M,M,5000.00,M,M,M,M,M,M,M,M,M,M,45.40,KVGT 160853Z AUTO 14005KT 10SM OVC050 09/03 A2971 RMK AO2 SLP073 60000 T00890028 50000,M
TPH,2023-01-16 08:53,-117.0904,38.0505,1654.00,32.00,30.20,92.97,150.00,13.00,0.01,29.59,M,2.50,M,FEW,BKN,OVC,M,1800.00,2900.00,3800.00,M,-SN BR,M,M,M,M,M,M,21.57,KTPH 160853Z AUTO 15013KT 2 1/2SM -SN BR FEW018 BKN029 OVC038 00/M01 A2959 RMK AO2 SNB13 P0001,M
LOL,2023-01-16 08:53,-118.5701,40.0684,1192.43,35.00,30.90,84.49,40.00,6.00,0.00,29.59,1002.20,10.00,M,OVC,M,M,M,4800.00,M,M,M,M,M,M,M,M,M,M,29.26,KLOL 160853Z AUTO 04006KT 10SM OVC048 02/M01 A2959 RMK AO2 SLP022 T00171006 58008,M
BVU,2023-01-16 08:55,-114.8611,35.9475,671.00,46.40,42.80,87.19,130.00,9.00,0.00,29.72,M,10.00,M,OVC,M,M,M,3100.00,M,M,M,M,M,M,M,M,M,M,41.42,KBVU 160855Z AUTO 13009KT 10SM OVC031 08/06 A2972 RMK AO2,M
CXP,2023-01-16 08:55,-119.7326,39.1923,1431.00,32.00,30.20,92.97,0.00,0.00,0.00,29.55,M,3.00,M,FEW,FEW,OVC,M,1800.00,2500.00,3000.00,M,-SN BR,M,M,M,M,M,M,32.00,KCXP 160855Z AUTO 00000KT 3SM -SN BR FEW018 FEW025 OVC030 M00/M01 A2955 RMK AO2,M
INS,2023-01-16 08:55,-115.6733,36.5872,955.00,41.40,34.00,74.77,130.00,13.00,T,29.67,1003.30,10.00,M,OVC,M,M,M,5500.00,M,M,M,M,M,M,M,M,M,M,33.61,KINS 160855Z AUTO 13013KT 10SM OVC055 05/01 A2967 RMK AO2 RAB07E23 SLP033 P0000 60000 T00520011 57012 $,M
RNO,2023-01-16 08:55,-119.7711,39.4839,1341.00,33.00,30.00,88.23,0.00,0.00,0.01,29.55,1000.30,2.50,M,SCT,OVC,M,M,1000.00,3400.00,M,M,-SN BR,M,M,M,M,M,M,33.10,KRNO 160855Z 00000KT 2 1/2SM -SN BR SCT010 OVC034 01/M01 A2955 RMK AO2 SLP003 P0001 60002 T00061011 58014,M
RTS,2023-01-16 08:55,-119.8764,39.6682,1539.00,28.40,28.40,100.00,90.00,3.00,0.00,29.56,M,2.50,M,FEW,FEW,M,M,600.00,1000.00,M,M,-SN,M,M,M,M,M,M,24.57,KRTS 160855Z AUTO 09003KT 2 1/2SM -SN FEW006 FEW010 M02/M02 A2956 RMK AO2,M
05U,2023-01-16 08:55,-116.0051,39.6042,1811.23,15.80,12.20,85.40,150.00,3.00,0.00,29.64,M,10.00,M,M,M,M,M,M,M,M,M,M,M,M,M,M,M,M,10.17,K05U 160855Z AUTO 15003KT 10SM M09/M11 A2964 RMK A01,M
MEV,2023-01-16 08:55,-119.7500,38.9963,1441.42,30.20,30.20,100.00,360.00,8.00,0.00,29.54,M,5.00,M,SCT,BKN,OVC,M,300.00,1900.00,3400.00,M,UP BR,M,M,M,M,M,M,21.90,KMEV 160855Z AUTO 36008KT 5SM UP BR SCT003 BKN019 OVC034 M01/M01 A2954 RMK AO2,M
BAM,2023-01-16 08:55,-116.8743,40.5990,1382.36,33.80,28.40,80.36,70.00,9.00,0.00,29.61,M,10.00,M,SCT,OVC,M,M,6500.00,9000.00,M,M,M,M,M,M,M,M,M,25.75,KBAM 160855Z AUTO 07009KT 10SM SCT065 OVC090 01/M02 A2961 RMK AO1,M
LSV,2023-01-16 08:55,-115.0343,36.2362,570.00,46.40,38.00,72.08,160.00,5.00,T,29.70,1005.30,10.00,M,SCT,M,M,M,4100.00,M,M,M,M,M,M,M,M,M,M,43.50,KLSV 160855Z AUTO 16005KT 10SM SCT041 08/03 A2970 RMK AO2 RAB04E11 SLP053 P0000 60000 T00800033 58002 $,M
EKO,2023-01-16 08:56,-115.7860,40.8242,1367.00,21.90,19.00,88.40,60.00,6.00,0.00,29.64,1005.40,10.00,M,OVC,M,M,M,8500.00,M,M,M,M,M,M,M,M,M,M,13.37,KEKO 160856Z AUTO 06006KT 10SM OVC085 M06/M07 A2964 RMK AO2 SLP054 T10561072 58004,M
WMC,2023-01-16 08:56,-117.8072,40.9019,1315.00,33.00,30.00,88.23,40.00,9.00,T,29.60,1002.30,10.00,M,OVC,M,M,M,6500.00,M,M,M,M,M,M,M,M,M,M,24.88,KWMC 160856Z AUTO 04009KT 10SM OVC065 01/M01 A2960 RMK AO2 SNB18E34 SLP023 P0000 60000 T00061011 58009 $,M
TPH,2023-01-16 08:56,-117.0904,38.0505,1654.00,30.90,30.00,96.41,140.00,13.00,0.01,29.58,1001.40,2.50,M,FEW,BKN,OVC,M,1500.00,3200.00,4000.00,M,-SN BR,M,M,M,M,M,M,20.16,KTPH 160856Z AUTO 14013KT 2 1/2SM -SN BR FEW015 BKN032 OVC040 M01/M01 A2958 RMK AO2 SNB13 SLP014 P0001 60001 T10061011 56015,M
HND,2023-01-16 08:56,-115.1344,35.9729,742.79,45.00,38.00,76.01,220.00,5.00,0.00,29.72,1008.10,10.00,M,BKN,OVC,M,M,4400.00,6500.00,M,M,M,M,M,M,M,M,M,41.83,KHND 160856Z AUTO 22005KT 10SM BKN044 OVC065 07/03 A2972 RMK AO2 SLP081 60000 T00720033 58013,M
LAS,2023-01-16 08:56,-115.1634,36.0719,663.00,46.00,38.00,73.18,180.00,6.00,T,29.71,1005.50,10.00,M,OVC,M,M,M,4200.00,M,M,M,M,M,M,M,M,M,M,42.39,KLAS 160856Z 18006KT 10SM OVC042 08/03 A2971 RMK AO2 RAB23E33 SLP055 MTNS OBSCURED DSNT W-N P0000 60000 T00780033 58009,M
NFL,2023-01-16 08:56,-118.7010,39.4166,1199.00,35.00,32.00,88.33,60.00,7.00,T,29.57,999.90,8.00,M,OVC,M,M,M,2900.00,M,M,M,-SN,M,M,M,M,M,M,28.56,KNFL 160856Z AUTO 06007KT 8SM -SN OVC029 02/00 A2957 RMK AO2 SNB48 SLP999 P0000 60000 T00170000 58010,M
RNO,2023-01-16 09:03,-119.7711,39.4839,1341.00,33.00,30.00,88.23,0.00,0.00,T,29.55,M,2.50,M,FEW,OVC,M,M,500.00,3400.00,M,M,-SN BR,M,M,M,M,M,M,33.10,KRNO 160903Z 00000KT 2 1/2SM -SN BR FEW005 OVC034 01/M01 A2955 RMK AO2 P0000 T00061011,M
NFL,2023-01-16 09:03,-118.7010,39.4166,1199.00,34.00,32.00,92.29,60.00,6.00,T,29.56,M,9.00,M,OVC,M,M,M,3100.00,M,M,M,UP,M,M,M,M,M,M,27.94,KNFL 160903Z AUTO 06006KT 9SM UP OVC031 01/00 A2956 RMK AO2 UPB0857SNE0857 P0000 T00110000,M
LSV,2023-01-16 09:06,-115.0343,36.2362,570.00,46.40,39.20,75.84,150.00,3.00,0.00,29.70,1005.30,10.00,M,BKN,M,M,M,3800.00,M,M,M,M,M,M,M,M,M,M,45.15,KLSV 160906Z AUTO 15003KT 10SM BKN038 08/04 A2970 RMK AO2 SLP053 $,M
LSV,2023-01-16 09:12,-115.0343,36.2362,570.00,46.40,39.20,75.84,0.00,0.00,0.00,29.70,1005.30,10.00,M,FEW,SCT,BKN,M,2600.00,3400.00,4100.00,M,-DZ,M,M,M,M,M,M,46.40,KLSV 160912Z AUTO 00000KT 10SM -DZ FEW026 SCT034 BKN041 08/04 A2970 RMK AO2 DZB12 SLP053 $,M
BVU,2023-01-16 09:15,-114.8611,35.9475,671.00,46.40,42.80,87.19,140.00,10.00,0.00,29.72,M,10.00,M,OVC,M,M,M,3100.00,M,M,M,M,M,M,M,M,M,M,41.03,KBVU 160915Z AUTO 14010KT 10SM OVC031 08/06 A2972 RMK AO2,M
CXP,2023-01-16 09:15,-119.7326,39.1923,1431.00,32.00,28.40,86.39,210.00,3.00,0.00,29.55,M,8.00,M,BKN,M,M,M,3000.00,M,M,M,UP,M,M,M,M,M,M,28.69,KCXP 160915Z AUTO 21003KT 8SM UP BKN030 M00/M02 A2955 RMK AO2,M
RTS,2023-01-16 09:15,-119.8764,39.6682,1539.00,28.40,28.40,100.00,0.00,0.00,0.00,29.55,M,2.50,M,FEW,M,M,M,1500.00,M,M,M,-SN,M,M,M,M,M,M,28.40,KRTS 160915Z AUTO 00000KT 2 1/2SM -SN FEW015 M02/M02 A2955 RMK AO2,M
05U,2023-01-16 09:15,-116.0051,39.6042,1811.23,15.80,12.20,85.40,0.00,0.00,0.00,29.63,M,10.00,M,M,M,M,M,M,M,M,M,M,M,M,M,M,M,M,15.80,K05U 160915Z AUTO 00000KT 10SM M09/M11 A2963 RMK A01,M
MEV,2023-01-16 09:15,-119.7500,38.9963,1441.42,30.20,30.20,100.00,340.00,7.00,0.00,29.53,M,3.00,M,SCT,BKN,OVC,M,400.00,1900.00,2500.00,M,-SN BR,M,M,M,M,M,M,22.59,KMEV 160915Z AUTO 34007KT 3SM -SN BR SCT004 BKN019 OVC025 M01/M01 A2953 RMK AO2,M
BAM,2023-01-16 09:15,-116.8743,40.5990,1382.36,33.80,28.40,80.36,60.00,9.00,0.00,29.61,M,10.00,M,OVC,M,M,M,9000.00,M,M,M,M,M,M,M,M,M,M,25.75,KBAM 160915Z AUTO 06009KT 10SM OVC090 01/M02 A2961 RMK AO1,M
LSV,2023-01-16 09:18,-115.0343,36.2362,570.00,46.40,39.20,75.84,80.00,3.00,0.00,29.69,1004.90,10.00,M,FEW,SCT,BKN,M,2600.00,3400.00,4100.00,M,M,M,M,M,M,M,M,45.15,KLSV 160918Z AUTO 08003KT 10SM FEW026 SCT034 BKN041 08/04 A2969 RMK AO2 DZB12E18 SLP049 $,M
LSV,2023-01-16 09:19,-115.0343,36.2362,570.00,46.40,39.20,75.84,90.00,4.00,0.00,29.68,1004.60,10.00,M,FEW,SCT,SCT,M,2600.00,3400.00,4100.00,M,M,M,M,M,M,M,M,44.24,KLSV 160919Z AUTO 09004KT 10SM FEW026 SCT034 SCT041 08/04 A2968 RMK AO2 DZB12E18 SLP046 $,M
TPH,2023-01-16 09:23,-117.0904,38.0505,1654.00,30.90,30.90,100.00,130.00,13.00,T,29.58,M,1.75,M,FEW,OVC,M,M,2000.00,2600.00,M,M,-SN BR,M,M,M,M,M,M,20.16,KTPH 160923Z AUTO 13013KT 1 3/4SM -SN BR FEW020 OVC026 M01/M01 A2958 RMK AO2 P0000 T10061006,M
LSV,2023-01-16 09:33,-115.0343,36.2362,570.00,46.40,39.20,75.84,0.00,0.00,0.00,29.69,1004.90,10.00,M,FEW,FEW,BKN,M,2600.00,3300.00,4900.00,M,M,M,M,M,M,M,M,46.40,KLSV 160933Z AUTO 00000KT 10SM FEW026 FEW033 BKN049 08/04 A2969 RMK AO2 DZB12E18 SLP049 $,M
LSV,2023-01-16 09:34,-115.0343,36.2362,570.00,46.40,39.20,75.84,0.00,0.00,0.00,29.69,1004.90,10.00,M,FEW,SCT,M,M,2900.00,4900.00,M,M,M,M,M,M,M,M,M,46.40,KLSV 160934Z AUTO 00000KT 10SM FEW029 SCT049 08/04 A2969 RMK AO2 DZB12E18 SLP049 $,M
BVU,2023-01-16 09:35,-114.8611,35.9475,671.00,46.40,42.80,87.19,140.00,10.00,0.00,29.72,M,10.00,15.00,OVC,M,M,M,3200.00,M,M,M,M,M,M,M,M,M,M,41.03,KBVU 160935Z AUTO 14010G15KT 10SM OVC032 08/06 A2972 RMK AO2,M
CXP,2023-01-16 09:35,-119.7326,39.1923,1431.00,32.00,30.20,92.97,0.00,0.00,0.00,29.55,M,2.50,M,BKN,BKN,M,M,1400.00,3100.00,M,M,-SN BR,M,M,M,M,M,M,32.00,KCXP 160935Z AUTO 00000KT 2 1/2SM -SN BR BKN014 BKN031 M00/M01 A2955 RMK AO2,M
RTS,2023-01-16 09:35,-119.8764,39.6682,1539.00,28.40,28.40,100.00,0.00,0.00,0.00,29.55,M,3.00,M,SCT,M,M,M,2300.00,M,M,M,-SN,M,M,M,M,M,M,28.40,KRTS 160935Z AUTO 00000KT 3SM -SN SCT023 M02/M02 A2955 RMK AO2,M
05U,2023-01-16 09:35,-116.0051,39.6042,1811.23,14.00,10.40,85.28,0.00,0.00,0.00,29.63,M,10.00,M,M,M,M,M,M,M,M,M,M,M,M,M,M,M,M,14.00,K05U 160935Z AUTO 00000KT 10SM M10/M12 A2963 RMK A01,M
MEV,2023-01-16 09:35,-119.7500,38.9963,1441.42,30.20,30.20,100.00,350.00,9.00,0.00,29.53,M,1.00,M,OVC,M,M,M,300.00,M,M,M,-SN BR,M,M,M,M,M,M,21.28,KMEV 160935Z AUTO 35009KT 1SM -SN BR OVC003 M01/M01 A2953 RMK AO2,M
BAM,2023-01-16 09:35,-116.8743,40.5990,1382.36,33.80,28.40,80.36,60.00,10.00,0.00,29.61,M,10.00,M,OVC,M,M,M,8000.00,M,M,M,M,M,M,M,M,M,M,25.23,KBAM 160935Z AUTO 06010KT 10SM OVC080 01/M02 A2961 RMK AO1,M
LSV,2023-01-16 09:35,-115.0343,36.2362,570.00,46.40,39.20,75.84,0.00,0.00,0.00,29.69,1004.90,10.00,M,FEW,BKN,M,M,2900.00,4900.00,M,M,M,M,M,M,M,M,M,46.40,KLSV 160935Z AUTO 00000KT 10SM FEW029 BKN049 08/04 A2969 RMK AO2 DZB12E18 SLP049 $,M
LSV,2023-01-16 09:36,-115.0343,36.2362,570.00,46.40,39.20,75.84,0.00,0.00,0.00,29.69,1004.90,10.00,M,SCT,M,M,M,4900.00,M,M,M,M,M,M,M,M,M,M,46.40,KLSV 160936Z AUTO 00000KT 10SM SCT049 08/04 A2969 RMK AO2 DZB12E18 SLP049 $,M
LSV,2023-01-16 09:37,-115.0343,36.2362,570.00,46.40,39.20,75.84,30.00,3.00,0.00,29.69,1004.90,10.00,M,FEW,BKN,M,M,2800.00,4800.00,M,M,M,M,M,M,M,M,M,45.15,KLSV 160937Z AUTO 03003KT 10SM FEW028 BKN048 08/04 A2969 RMK AO2 DZB12E18 SLP049 $,M
TPH,2023-01-16 09:41,-117.0904,38.0505,1654.00,30.90,30.90,100.00,140.00,14.00,T,29.58,M,3.00,M,OVC,M,M,M,2100.00,M,M,M,-SN BR,M,M,M,M,M,M,19.74,KTPH 160941Z AUTO 14014KT 3SM -SN BR OVC021 M01/M01 A2958 RMK AO2 P0000 T10061006,M
INS,2023-01-16 09:43,-115.6733,36.5872,955.00,41.00,35.60,80.93,110.00,15.00,0.00,29.66,1003.00,10.00,M,FEW,SCT,OVC,M,2600.00,4600.00,6500.00,M,-RA,M,M,M,M,M,M,32.45,KINS 160943Z AUTO 11015KT 10SM -RA FEW026 SCT046 OVC065 05/02 A2966 RMK AO2 RAB43 SLP030 $,M
P68,2023-01-16 09:53,-116.0056,39.6014,1993.00,14.00,10.90,87.20,0.00,0.00,0.00,29.60,1003.90,M,M,M,M,M,M,M,M,M,M,M,M,M,M,M,M,M,14.00,KP68 160953Z AUTO 00000KT M10/M12 A2960 RMK AO1 SLP039 T11001117,M
ELY,2023-01-16 09:53,-114.8453,39.2950,1909.00,24.10,19.90,83.75,220.00,10.00,0.00,29.63,1003.80,10.00,M,BKN,M,M,M,9000.00,M,M,M,M,M,M,M,M,M,M,13.06,KELY 160953Z AUTO 22010KT 10SM BKN090 M04/M07 A2963 RMK AO2 SLP038 T10441067,M
LOL,2023-01-16 09:53,-118.5701,40.0684,1192.43,34.00,30.90,88.27,20.00,7.00,0.00,29.57,1001.70,10.00,M,OVC,M,M,M,5000.00,M,M,M,M,M,M,M,M,M,M,27.22,KLOL 160953Z AUTO 02007KT 10SM OVC050 01/M01 A2957 RMK AO2 SLP017 T00111006,M
VGT,2023-01-16 09:53,-115.1933,36.2111,667.00,47.00,40.00,76.48,110.00,7.00,T,29.70,1007.10,10.00,M,OVC,M,M,M,3600.00,M,M,M,M,M,M,M,M,M,M,42.94,KVGT 160953Z AUTO 11007KT 10SM OVC036 08/04 A2970 RMK AO2 RAB0858E25 SLP071 P0000 T00830044,M
BVU,2023-01-16 09:55,-114.8611,35.9475,671.00,46.40,42.80,87.19,160.00,11.00,0.00,29.72,M,10.00,M,BKN,OVC,M,M,2700.00,3400.00,M,M,M,M,M,M,M,M,M,40.66,KBVU 160955Z AUTO 16011KT 10SM BKN027 OVC034 08/06 A2972 RMK AO2,M
CXP,2023-01-16 09:55,-119.7326,39.1923,1431.00,30.20,30.20,100.00,0.00,0.00,0.00,29.55,M,0.75,M,OVC,M,M,M,300.00,M,M,M,-SN BR,M,M,M,M,M,M,30.20,KCXP 160955Z AUTO 00000KT 3/4SM -SN BR OVC003 M01/M01 A2955 RMK AO2,M
INS,2023-01-16 09:55,-115.6733,36.5872,955.00,41.00,35.60,80.93,110.00,15.00,T,29.66,1003.00,10.00,M,FEW,SCT,SCT,BKN,1900.00,3700.00,4400.00,6000.00,-RA,M,M,M,M,M,M,32.45,KINS 160955Z AUTO 11015KT 10SM -RA FEW019 SCT037 SCT044 BKN060 OVC070 05/02 A2966 RMK AO2 RAB43 SLP030 P0000 T00500020 $,M
RTS,2023-01-16 09:55,-119.8764,39.6682,1539.00,28.40,28.40,100.00,0.00,0.00,0.00,29.54,M,3.00,M,FEW,SCT,SCT,M,2300.00,3500.00,4800.00,M,-SN,M,M,M,M,M,M,28.40,KRTS 160955Z AUTO 00000KT 3SM -SN FEW023 SCT035 SCT048 M02/M02 A2954 RMK AO2,M
05U,2023-01-16 09:55,-116.0051,39.6042,1811.23,14.00,12.20,92.38,0.00,0.00,0.00,29.63,M,10.00,M,M,M,M,M,M,M,M,M,M,M,M,M,M,M,M,14.00,K05U 160955Z AUTO 00000KT 10SM M10/M11 A2963 RMK A01,M
MEV,2023-01-16 09:55,-119.7500,38.9963,1441.42,30.20,30.20,100.00,360.00,9.00,0.01,29.53,M,0.75,M,OVC,M,M,M,300.00,M,M,M,-SN BR,M,M,M,M,M,M,21.28,KMEV 160955Z AUTO 36009KT 3/4SM -SN BR OVC003 M01/M01 A2953 RMK AO2 P0001,M
BAM,2023-01-16 09:55,-116.8743,40.5990,1382.36,33.80,28.40,80.36,60.00,10.00,0.00,29.61,M,10.00,M,BKN,OVC,M,M,8000.00,9000.00,M,M,M,M,M,M,M,M,M,25.23,KBAM 160955Z AUTO 06010KT 10SM BKN080 OVC090 01/M02 A2961 RMK AO1,M
LSV,2023-01-16 09:55,-115.0343,36.2362,570.00,46.20,39.70,77.92,110.00,3.00,T,29.70,1005.30,10.00,M,OVC,M,M,M,4500.00,M,M,M,M,M,M,M,M,M,M,44.92,KLSV 160955Z AUTO 11003KT 10SM OVC045 08/04 A2970 RMK AO2 DZB12E18 SLP053 P0000 T00790043 $,M
RNO,2023-01-16 09:55,-119.7711,39.4839,1341.00,33.00,30.90,91.51,0.00,0.00,T,29.54,1000.00,2.50,M,BKN,OVC,M,M,600.00,4800.00,M,M,-SN BR,M,M,M,M,M,M,33.10,KRNO 160955Z 00000KT 2 1/2SM -SN BR BKN006 OVC048 01/M01 A2954 RMK AO2 SLP000 P0000 T00061006,M
EKO,2023-01-16 09:56,-115.7860,40.8242,1367.00,21.90,18.00,84.68,70.00,7.00,0.00,29.63,1005.20,10.00,M,BKN,OVC,M,M,9500.00,12000.00,M,M,M,M,M,M,M,M,M,12.47,KEKO 160956Z AUTO 07007KT 10SM BKN095 OVC120 M06/M08 A2963 RMK AO2 SLP052 T10561078,M
WMC,2023-01-16 09:56,-117.8072,40.9019,1315.00,32.00,28.90,88.17,50.00,10.00,0.00,29.59,1002.00,10.00,M,OVC,M,M,M,10000.00,M,M,M,M,M,M,M,M,M,M,22.97,KWMC 160956Z AUTO 05010KT 10SM OVC100 00/M02 A2959 RMK AO2 SLP020 T00001017 $,M
TPH,2023-01-16 09:56,-117.0904,38.0505,1654.00,30.90,30.00,96.41,140.00,14.00,T,29.57,1001.10,6.00,M,BKN,OVC,M,M,1900.00,2400.00,M,M,-SN BR,M,M,M,M,M,M,19.74,KTPH 160956Z AUTO 14014KT 6SM -SN BR BKN019 OVC024 M01/M01 A2957 RMK AO2 SLP011 P0000 T10061011,M
LAS,2023-01-16 09:56,-115.1634,36.0719,663.00,46.00,37.00,70.64,130.00,3.00,0.00,29.70,1005.50,10.00,M,OVC,M,M,M,3800.00,M,M,M,M,M,M,M,M,M,M,44.69,KLAS 160956Z 13003KT 10SM OVC038 08/03 A2970 RMK AO2 SLP055 MTNS OBSCURED DSNT SW-NW T00780028,M
NFL,2023-01-16 09:56,-118.7010,39.4166,1199.00,34.00,32.00,92.29,50.00,4.00,T,29.55,999.40,10.00,M,SCT,OVC,M,M,6000.00,7500.00,M,M,M,M,M,M,M,M,M,29.76,KNFL 160956Z AUTO 05004KT 10SM SCT060 OVC075 01/00 A2955 RMK AO2 UPB0857E06SNE0857 SLP994 P0000 T00110000,M
HND,2023-01-16 09:56,-115.1344,35.9729,742.79,45.00,38.00,76.01,210.00,10.00,0.00,29.72,1007.90,10.00,M,SCT,OVC,M,M,3800.00,5500.00,M,M,M,M,M,M,M,M,M,39.27,KHND 160956Z AUTO 21010KT 10SM SCT038 OVC055 07/03 A2972 RMK AO2 SLP079 T00720033,M
INS,2023-01-16 09:59,-115.6733,36.5872,955.00,41.00,35.60,80.93,110.00,16.00,0.00,29.65,1002.60,10.00,M,FEW,FEW,FEW,BKN,1800.00,3600.00,4300.00,6000.00,M,M,M,M,M,M,M,32.15,KINS 160959Z AUTO 11016KT 10SM FEW018 FEW036 FEW043 BKN060 OVC070 05/02 A2965 RMK AO2 RAE59 SLP026 $,M
INS,2023-01-16 10:13,-115.6733,36.5872,955.00,41.00,35.60,80.93,120.00,16.00,0.00,29.65,1002.60,10.00,M,FEW,FEW,OVC,M,1800.00,3800.00,5000.00,M,-RA,M,M,M,M,M,M,32.15,KINS 161013Z AUTO 12016KT 10SM -RA FEW018 FEW038 OVC050 05/02 A2965 RMK AO2 RAE0959RAB13 SLP026 $,M
BVU,2023-01-16 10:15,-114.8611,35.9475,671.00,46.40,42.80,87.19,170.00,11.00,0.00,29.72,M,9.00,M,OVC,M,M,M,2600.00,M,M,M,M,M,M,M,M,M,M,40.66,KBVU 161015Z AUTO 17011KT 9SM OVC026 08/06 A2972 RMK AO2,M
CXP,2023-01-16 10:15,-119.7326,39.1923,1431.00,30.20,30.20,100.00,0.00,0.00,0.00,29.54,M,0.50,M,OVC,M,M,M,300.00,M,M,M,-SN BR,M,M,M,M,M,M,30.20,KCXP 161015Z AUTO 00000KT 1/2SM -SN BR OVC003 M01/M01 A2954 RMK AO2,M
RTS,2023-01-16 10:15,-119.8764,39.6682,1539.00,28.40,28.40,100.00,0.00,0.00,0.00,29.54,M,2.50,M,CLR,M,M,M,M,M,M,M,-SN,M,M,M,M,M,M,28.40,KRTS 161015Z AUTO 00000KT 2 1/2SM -SN CLR M02/M02 A2954 RMK AO2,M
05U,2023-01-16 10:15,-116.0051,39.6042,1811.23,17.60,14.00,85.51,0.00,0.00,0.00,29.63,M,7.00,M,M,M,M,M,M,M,M,M,M,M,M,M,M,M,M,17.60,K05U 161015Z AUTO 00000KT 7SM M08/M10 A2963 RMK A01,M
MEV,2023-01-16 10:15,-119.7500,38.9963,1441.42,30.20,30.20,100.00,360.00,10.00,0.00,29.52,M,0.50,M,OVC,M,M,M,300.00,M,M,M,-SN FZFG,M,M,M,M,M,M,20.71,KMEV 161015Z AUTO 36010KT 1/2SM -SN FZFG OVC003 M01/M01 A2952 RMK AO2,M
BAM,2023-01-16 10:15,-116.8743,40.5990,1382.36,33.80,28.40,80.36,60.00,10.00,0.00,29.61,M,10.00,M,OVC,M,M,M,8000.00,M,M,M,M,M,M,M,M,M,M,25.23,KBAM 161015Z AUTO 06010KT 10SM OVC080 01/M02 A2961 RMK AO1,M
RNO,2023-01-16 10:17,-119.7711,39.4839,1341.00,33.00,30.90,91.51,0.00,0.00,0.01,29.54,M,1.25,M,BKN,OVC,M,M,600.00,1300.00,M,M,-SN BR,M,M,M,M,M,M,33.10,KRNO 161017Z 00000KT 1 1/4SM -SN BR BKN006 OVC013 01/M01 A2954 RMK AO2 TWR VIS 1 3/4 P0001 T00061006,M
INS,2023-01-16 10:22,-115.6733,36.5872,955.00,41.00,35.60,80.93,120.00,16.00,0.00,29.65,1002.60,10.00,M,BKN,OVC,M,M,4800.00,6500.00,M,M,M,M,M,M,M,M,M,32.15,KINS 161022Z AUTO 12016KT 10SM BKN048 OVC065 05/02 A2965 RMK AO2 RAE0959RAB13E22 SLP026 $,M
NFL,2023-01-16 10:25,-118.7010,39.4166,1199.00,34.00,32.00,92.29,40.00,5.00,0.00,29.54,M,10.00,M,BKN,OVC,M,M,2000.00,3600.00,M,M,M,M,M,M,M,M,M,28.77,KNFL 161025Z AUTO 04005KT 10SM BKN020 OVC036 01/00 A2954 RMK AO2 T00110000,M
LSV,2023-01-16 10:28,-115.0343,36.2362,570.00,46.40,42.80,87.19,50.00,6.00,0.00,29.68,1004.60,10.00,M,SCT,OVC,M,M,2700.00,4400.00,M,M,-RA,M,M,M,M,M,M,42.87,KLSV 161028Z AUTO 05006KT 10SM -RA SCT027 OVC044 08/06 A2968 RMK AO2 RAB28 SLP046 $,M
LSV,2023-01-16 10:29,-115.0343,36.2362,570.00,46.40,42.80,87.19,60.00,5.00,0.00,29.68,1004.60,10.00,M,BKN,OVC,M,M,2600.00,4400.00,M,M,-RA,M,M,M,M,M,M,43.50,KLSV 161029Z AUTO 06005KT 10SM -RA BKN026 OVC044 08/06 A2968 RMK AO2 RAB28 CIG 026V044 SLP046 $,M
RNO,2023-01-16 10:31,-119.7711,39.4839,1341.00,33.00,30.00,88.23,30.00,3.00,0.02,29.53,M,1.25,M,SCT,OVC,M,M,600.00,1300.00,M,M,-SN BR,M,M,M,M,M,M,29.95,KRNO 161031Z 03003KT 1 1/4SM -SN BR SCT006 OVC013 01/M01 A2953 RMK AO2 P0002 T00061011,M
BVU,2023-01-16 10:35,-114.8611,35.9475,671.00,46.40,42.80,87.19,150.00,9.00,0.00,29.71,M,5.00,M,FEW,BKN,OVC,M,1900.00,2500.00,3700.00,M,BR,M,M,M,M,M,M,41.42,KBVU 161035Z AUTO 15009KT 5SM BR FEW019 BKN025 OVC037 08/06 A2971 RMK AO2,M
CXP,2023-01-16 10:35,-119.7326,39.1923,1431.00,30.20,30.20,100.00,0.00,0.00,0.00,29.53,M,0.50,M,OVC,M,M,M,300.00,M,M,M,-SN BR,M,M,M,M,M,M,30.20,KCXP 161035Z AUTO 00000KT 1/2SM -SN BR OVC003 M01/M01 A2953 RMK AO2,M
RTS,2023-01-16 10:35,-119.8764,39.6682,1539.00,28.40,28.40,100.00,0.00,0.00,0.00,29.53,M,2.00,M,FEW,M,M,M,1100.00,M,M,M,-SN,M,M,M,M,M,M,28.40,KRTS 161035Z AUTO 00000KT 2SM -SN FEW011 M02/M02 A2953 RMK AO2,M
05U,2023-01-16 10:35,-116.0051,39.6042,1811.23,15.80,14.00,92.44,M,M,0.00,29.61,M,10.00,M,M,M,M,M,M,M,M,M,M,M,M,M,M,M,M,M,K05U 161035Z AUTO 10SM M09/M10 A2961 RMK A01,M
MEV,2023-01-16 10:35,-119.7500,38.9963,1441.42,30.20,30.20,100.00,360.00,7.00,0.00,29.51,M,0.75,M,OVC,M,M,M,300.00,M,M,M,-SN BR,M,M,M,M,M,M,22.59,KMEV 161035Z AUTO 36007KT 3/4SM -SN BR OVC003 M01/M01 A2951 RMK AO2,M
BAM,2023-01-16 10:35,-116.8743,40.5990,1382.36,33.80,28.40,80.36,70.00,10.00,0.00,29.61,M,10.00,M,SCT,OVC,M,M,7000.00,8000.00,M,M,M,M,M,M,M,M,M,25.23,KBAM 161035Z AUTO 07010KT 10SM SCT070 OVC080 01/M02 A2961 RMK AO1,M
RNO,2023-01-16 10:47,-119.7711,39.4839,1341.00,32.00,30.00,92.22,20.00,5.00,0.03,29.52,M,1.25,M,FEW,OVC,M,M,400.00,1500.00,M,M,-SN BR,M,M,M,M,M,M,26.40,KRNO 161047Z 02005KT 1 1/4SM -SN BR FEW004 OVC015 00/M01 A2952 RMK AO2 SFC VIS 1 1/2 P0003 T00001011,M
EKO,2023-01-16 10:51,-115.7860,40.8242,1367.00,19.40,17.60,92.57,90.00,7.00,0.00,29.63,M,10.00,M,SCT,BKN,M,M,100.00,12000.00,M,M,M,M,M,M,M,M,M,9.42,KEKO 161051Z AUTO 09007KT 10SM SCT001 BKN120 M07/M08 A2963 RMK AO2,M
LSV,2023-01-16 10:51,-115.0343,36.2362,570.00,46.40,41.00,81.34,50.00,5.00,0.00,29.68,1004.60,10.00,M,BKN,OVC,M,M,2100.00,2700.00,M,M,M,M,M,M,M,M,M,43.50,KLSV 161051Z AUTO 05005KT 10SM BKN021 OVC027 08/05 A2968 RMK AO2 RAB28E51 SLP046 $,M
P68,2023-01-16 10:53,-116.0056,39.6014,1993.00,16.00,12.00,83.91,320.00,4.00,0.00,29.58,1002.40,M,M,M,M,M,M,M,M,M,M,M,M,M,M,M,M,M,8.74,KP68 161053Z AUTO 32004KT M09/M11 A2958 RMK AO1 SLP024 T10891111,M
ELY,2023-01-16 10:53,-114.8453,39.2950,1909.00,23.00,21.00,91.90,180.00,7.00,0.00,29.61,1003.50,10.00,M,BKN,OVC,M,M,9000.00,11000.00,M,M,M,M,M,M,M,M,M,13.81,KELY 161053Z AUTO 18007KT 10SM BKN090 OVC110 M05/M06 A2961 RMK AO2 SLP035 T10501061,M
LOL,2023-01-16 10:53,-118.5701,40.0684,1192.43,34.00,30.90,88.27,30.00,9.00,0.00,29.56,1001.30,10.00,M,OVC,M,M,M,6000.00,M,M,M,M,M,M,M,M,M,M,26.00,KLOL 161053Z AUTO 03009KT 10SM OVC060 01/M01 A2956 RMK AO2 SLP013 T00111006,M
VGT,2023-01-16 10:53,-115.1933,36.2111,667.00,46.00,42.00,86.16,60.00,6.00,0.01,29.69,1006.80,10.00,M,BKN,OVC,M,M,3400.00,5000.00,M,M,M,M,M,M,M,M,M,42.39,KVGT 161053Z AUTO 06006KT 10SM BKN034 OVC050 08/06 A2969 RMK AO2 RAB0958E44 SLP068 P0001 T00780056,M
BVU,2023-01-16 10:55,-114.8611,35.9475,671.00,46.40,42.80,87.19,150.00,13.00,0.00,29.69,M,10.00,M,FEW,FEW,OVC,M,2400.00,3000.00,3500.00,M,M,M,M,M,M,M,M,40.02,KBVU 161055Z AUTO 15013KT 10SM FEW024 FEW030 OVC035 08/06 A2969 RMK AO2,M
CXP,2023-01-16 10:55,-119.7326,39.1923,1431.00,30.20,30.20,100.00,0.00,0.00,0.03,29.53,M,0.75,M,OVC,M,M,M,300.00,M,M,M,-SN BR,M,M,M,M,M,M,30.20,KCXP 161055Z AUTO 00000KT 3/4SM -SN BR OVC003 M01/M01 A2953 RMK AO2 P0003,M
INS,2023-01-16 10:55,-115.6733,36.5872,955.00,40.60,37.00,86.87,110.00,17.00,T,29.64,1002.30,10.00,M,BKN,OVC,M,M,4700.00,5500.00,M,M,M,M,M,M,M,M,M,31.34,KINS 161055Z AUTO 11017KT 10SM BKN047 OVC055 05/03 A2964 RMK AO2 RAE0959RAB13E22 SLP023 P0000 T00480028 $,M
RNO,2023-01-16 10:55,-119.7711,39.4839,1341.00,32.00,30.00,92.22,20.00,6.00,0.04,29.52,999.50,1.25,M,FEW,OVC,M,M,400.00,1500.00,M,M,-SN BR,M,M,M,M,M,M,25.53,KRNO 161055Z 02006KT 1 1/4SM -SN BR FEW004 OVC015 00/M01 A2952 RMK AO2 SLP995 P0004 T00001011,M
LSV,2023-01-16 10:55,-115.0343,36.2362,570.00,46.00,40.50,81.00,50.00,5.00,T,29.68,1004.60,10.00,M,BKN,OVC,M,M,2100.00,2700.00,M,M,M,M,M,M,M,M,M,43.02,KLSV 161055Z AUTO 05005KT 10SM BKN021 OVC027 08/05 A2968 RMK AO2 RAB28E51 SLP046 P0000 T00780047 $,M
RTS,2023-01-16 10:55,-119.8764,39.6682,1539.00,28.40,28.40,100.00,0.00,0.00,0.00,29.53,M,2.00,M,FEW,SCT,M,M,200.00,1100.00,M,M,-SN,M,M,M,M,M,M,28.40,KRTS 161055Z AUTO 00000KT 2SM -SN FEW002 SCT011 M02/M02 A2953 RMK AO2,M
05U,2023-01-16 10:55,-116.0051,39.6042,1811.23,15.80,14.00,92.44,150.00,4.00,0.00,29.60,M,10.00,M,M,M,M,M,M,M,M,M,M,M,M,M,M,M,M,8.50,K05U 161055Z AUTO 15004KT 10SM M09/M10 A2960 RMK A01,M
MEV,2023-01-16 10:55,-119.7500,38.9963,1441.42,30.20,30.20,100.00,360.00,8.00,0.04,29.51,M,0.50,M,OVC,M,M,M,300.00,M,M,M,-SN BR,M,M,M,M,M,M,21.90,KMEV 161055Z AUTO 36008KT 1/2SM -SN BR OVC003 M01/M01 A2951 RMK AO2 P0004,M
BAM,2023-01-16 10:55,-116.8743,40.5990,1382.36,32.00,28.40,86.39,60.00,12.00,0.00,29.60,M,10.00,16.00,BKN,OVC,M,M,6000.00,7000.00,M,M,M,M,M,M,M,M,M,22.00,KBAM 161055Z AUTO 06012G16KT 10SM BKN060 OVC070 00/M02 A2960 RMK AO1,M
EKO,2023-01-16 10:56,-115.7860,40.8242,1367.00,19.90,18.00,92.19,80.00,8.00,0.00,29.63,1005.40,10.00,M,SCT,OVC,M,M,100.00,12000.00,M,M,M,M,M,M,M,M,M,9.21,KEKO 161056Z AUTO 08008KT 10SM SCT001 OVC120 M07/M08 A2963 RMK AO2 SLP054 T10671078,M
WMC,2023-01-16 10:56,-117.8072,40.9019,1315.00,30.90,28.00,88.84,50.00,12.00,0.00,29.58,1001.80,10.00,M,FEW,BKN,M,M,400.00,12000.00,M,M,M,M,M,M,M,M,M,20.60,KWMC 161056Z AUTO 05012KT 10SM FEW004 BKN120 M01/M02 A2958 RMK AO2 SLP018 T10061022 $,M
NFL,2023-01-16 10:56,-118.7010,39.4166,1199.00,34.00,32.00,92.29,30.00,6.00,T,29.54,999.10,9.00,M,SCT,OVC,M,M,1600.00,2400.00,M,M,M,M,M,M,M,M,M,27.94,KNFL 161056Z AUTO 03006KT 9SM SCT016 OVC024 01/00 A2954 RMK AO2 SNB40E54 SLP991 P0000 T00110000,M
TPH,2023-01-16 10:56,-117.0904,38.0505,1654.00,30.90,30.00,96.41,140.00,12.00,0.01,29.55,1000.10,9.00,M,BKN,OVC,M,M,1600.00,2300.00,M,M,-SN,M,M,M,M,M,M,20.60,KTPH 161056Z AUTO 14012KT 9SM -SN BKN016 OVC023 M01/M01 A2955 RMK AO2 SLP001 P0001 T10061011,M
LAS,2023-01-16 10:56,-115.1634,36.0719,663.00,46.00,38.00,73.18,50.00,3.00,T,29.68,1004.60,10.00,M,SCT,OVC,M,M,5000.00,6000.00,M,M,M,M,M,M,M,M,M,44.69,KLAS 161056Z 05003KT 10SM SCT050 OVC060 08/03 A2968 RMK AO2 RAB10E24 SLP046 TOPS OF MTNS OBSCURED DSNT NW P0000 T00780033,M
HND,2023-01-16 10:56,-115.1344,35.9729,742.79,44.00,40.00,85.06,220.00,5.00,T,29.69,1007.10,10.00,M,OVC,M,M,M,6000.00,M,M,M,M,M,M,M,M,M,M,40.77,KHND 161056Z AUTO 22005KT 10SM OVC060 07/04 A2969 RMK AO2 RAB02E22 SLP071 P0000 T00670044,M
LSV,2023-01-16 11:08,-115.0343,36.2362,570.00,46.40,41.00,81.34,50.00,9.00,0.00,29.65,1003.70,10.00,M,OVC,M,M,M,1900.00,M,M,M,M,M,M,M,M,M,M,41.42,KLSV 161108Z AUTO 05009KT 10SM OVC019 08/05 A2965 RMK AO2 PRESFR SLP037 $,M
NFL,2023-01-16 11:08,-118.7010,39.4166,1199.00,33.00,32.00,95.67,30.00,5.00,0.01,29.53,M,2.00,M,BKN,OVC,M,M,1400.00,2400.00,M,M,-SN BR,M,M,M,M,M,M,27.70,KNFL 161108Z AUTO 03005KT 2SM -SN BR BKN014 OVC024 01/00 A2953 RMK AO2 SNB1058 P0001 T00060000,M
RNO,2023-01-16 11:11,-119.7711,39.4839,1341.00,32.00,30.00,92.22,20.00,4.00,T,29.52,M,1.25,M,FEW,BKN,OVC,M,500.00,1200.00,1700.00,M,-SN BR,M,M,M,M,M,M,27.42,KRNO 161111Z 02004KT 1 1/4SM -SN BR FEW005 BKN012 OVC017 00/M01 A2952 RMK AO2 P0000 T00001011,M
BVU,2023-01-16 11:15,-114.8611,35.9475,671.00,46.40,44.60,93.40,160.00,11.00,0.00,29.69,M,10.00,M,BKN,BKN,OVC,M,2300.00,2900.00,3400.00,M,M,M,M,M,M,M,M,40.66,KBVU 161115Z AUTO 16011KT 10SM BKN023 BKN029 OVC034 08/07 A2969 RMK AO2,M
CXP,2023-01-16 11:15,-119.7326,39.1923,1431.00,30.20,30.20,100.00,0.00,0.00,0.00,29.52,M,0.50,M,OVC,M,M,M,300.00,M,M,M,-SN FZFG,M,M,M,M,M,M,30.20,KCXP 161115Z AUTO 00000KT 1/2SM -SN FZFG OVC003 M01/M01 A2952 RMK AO2,M
NFL,2023-01-16 11:15,-118.7010,39.4166,1199.00,33.00,30.90,91.51,20.00,7.00,0.02,29.53,M,1.00,M,BKN,OVC,M,M,1100.00,2400.00,M,M,-SN BR,M,M,M,M,M,M,26.12,KNFL 161115Z AUTO 02007KT 1SM -SN BR BKN011 OVC024 01/M01 A2953 RMK AO2 SNB1058 P0002 T00061006,M
RTS,2023-01-16 11:15,-119.8764,39.6682,1539.00,28.40,28.40,100.00,0.00,0.00,0.00,29.52,M,3.00,M,SCT,SCT,M,M,300.00,1300.00,M,M,-SN,M,M,M,M,M,M,28.40,KRTS 161115Z AUTO 00000KT 3SM -SN SCT003 SCT013 M02/M02 A2952 RMK AO2,M
05U,2023-01-16 11:15,-116.0051,39.6042,1811.23,17.60,14.00,85.51,M,M,0.00,29.60,M,10.00,M,M,M,M,M,M,M,M,M,M,M,M,M,M,M,M,M,K05U 161115Z AUTO 10SM M08/M10 A2960 RMK A01,M
MEV,2023-01-16 11:15,-119.7500,38.9963,1441.42,30.20,30.20,100.00,340.00,9.00,0.00,29.50,M,0.75,M,OVC,M,M,M,300.00,M,M,M,-SN BR,M,M,M,M,M,M,21.28,KMEV 161115Z AUTO 34009KT 3/4SM -SN BR OVC003 M01/M01 A2950 RMK AO2,M
BAM,2023-01-16 11:15,-116.8743,40.5990,1382.36,32.00,28.40,86.39,60.00,13.00,0.00,29.59,M,10.00,M,OVC,M,M,M,7000.00,M,M,M,M,M,M,M,M,M,M,21.57,KBAM 161115Z AUTO 06013KT 10SM OVC070 00/M02 A2959 RMK AO1,M
LSV,2023-01-16 11:21,-115.0343,36.2362,570.00,46.40,41.00,81.34,70.00,7.00,0.00,29.66,1004.00,10.00,M,OVC,M,M,M,2000.00,M,M,M,M,M,M,M,M,M,M,42.33,KLSV 161121Z AUTO 07007KT 10SM OVC020 08/05 A2966 RMK AO2 SLP040 $,M
LSV,2023-01-16 11:25,-115.0343,36.2362,570.00,46.40,41.00,81.34,70.00,7.00,0.00,29.65,1003.70,10.00,M,OVC,M,M,M,2000.00,M,M,M,-RA,M,M,M,M,M,M,42.33,KLSV 161125Z AUTO 07007KT 10SM -RA OVC020 08/05 A2965 RMK AO2 RAB25 SLP037 $,M
NFL,2023-01-16 11:31,-118.7010,39.4166,1199.00,32.00,30.90,95.65,40.00,6.00,0.04,29.52,M,0.75,M,VV ,M,M,M,900.00,M,M,M,-SN BR,M,M,M,M,M,M,25.53,KNFL 161131Z AUTO 04006KT 3/4SM -SN BR VV009 00/M01 A2952 RMK AO2 SNB1058 P0004 T00001006,M
RNO,2023-01-16 11:32,-119.7711,39.4839,1341.00,32.00,30.00,92.22,10.00,4.00,0.01,29.51,M,1.25,M,SCT,BKN,OVC,M,500.00,2700.00,4000.00,M,-SN BR,M,M,M,M,M,M,27.42,KRNO 161132Z 01004KT 1 1/4SM -SN BR SCT005 BKN027 OVC040 00/M01 A2951 RMK AO2 P0001 T00001011,M
BVU,2023-01-16 11:35,-114.8611,35.9475,671.00,46.40,44.60,93.40,170.00,11.00,0.00,29.70,M,7.00,M,BKN,OVC,M,M,2300.00,2900.00,M,M,M,M,M,M,M,M,M,40.66,KBVU 161135Z AUTO 17011KT 7SM BKN023 OVC029 08/07 A2970 RMK AO2,M
CXP,2023-01-16 11:35,-119.7326,39.1923,1431.00,30.20,30.20,100.00,0.00,0.00,0.00,29.51,M,0.75,M,OVC,M,M,M,300.00,M,M,M,-SN BR,M,M,M,M,M,M,30.20,KCXP 161135Z AUTO 00000KT 3/4SM -SN BR OVC003 M01/M01 A2951 RMK AO2,M
RTS,2023-01-16 11:35,-119.8764,39.6682,1539.00,28.40,28.40,100.00,0.00,0.00,0.00,29.51,M,2.50,M,CLR,M,M,M,M,M,M,M,-SN,M,M,M,M,M,M,28.40,KRTS 161135Z AUTO 00000KT 2 1/2SM -SN CLR M02/M02 A2951 RMK AO2,M
05U,2023-01-16 11:35,-116.0051,39.6042,1811.23,17.60,15.80,92.50,M,M,0.00,29.60,M,10.00,M,M,M,M,M,M,M,M,M,M,M,M,M,M,M,M,M,K05U 161135Z AUTO 10SM M08/M09 A2960 RMK A01,M
MEV,2023-01-16 11:35,-119.7500,38.9963,1441.42,30.20,30.20,100.00,350.00,5.00,0.00,29.49,M,2.00,M,OVC,M,M,M,300.00,M,M,M,-SN BR,M,M,M,M,M,M,24.26,KMEV 161135Z AUTO 35005KT 2SM -SN BR OVC003 M01/M01 A2949 RMK AO2 VIS 1 3/4V3,M
BAM,2023-01-16 11:35,-116.8743,40.5990,1382.36,33.80,28.40,80.36,60.00,9.00,0.00,29.59,M,10.00,M,SCT,OVC,M,M,5000.00,7000.00,M,M,M,M,M,M,M,M,M,25.75,KBAM 161135Z AUTO 06009KT 10SM SCT050 OVC070 01/M02 A2959 RMK AO1,M
NFL,2023-01-16 11:43,-118.7010,39.4166,1199.00,32.00,30.90,95.65,40.00,6.00,0.06,29.52,M,1.00,M,VV ,M,M,M,1000.00,M,M,M,-SN BR,M,M,M,M,M,M,25.53,KNFL 161143Z AUTO 04006KT 1SM -SN BR VV010 00/M01 A2952 RMK AO2 SNB1058 P0006 T00001006,M
TPH,2023-01-16 11:46,-117.0904,38.0505,1654.00,30.90,30.00,96.41,130.00,12.00,T,29.53,M,4.00,M,SCT,OVC,M,M,1000.00,1300.00,M,M,UP BR,M,M,M,M,M,M,20.60,KTPH 161146Z AUTO 13012KT 4SM UP BR SCT010 OVC013 M01/M01 A2953 RMK AO2 UPB44SNE16 P0000 T10061011,M
P68,2023-01-16 11:53,-116.0056,39.6014,1993.00,19.00,16.00,87.87,10.00,5.00,0.00,29.57,1002.40,M,M,M,M,M,M,M,M,M,M,M,M,M,M,M,M,M,10.96,KP68 161153Z AUTO 01005KT M07/M09 A2957 RMK AO1 SLP024 70005 T10721089 11061 21117 56014,M
ELY,2023-01-16 11:53,-114.8453,39.2950,1909.00,21.00,19.00,91.83,170.00,6.00,0.00,29.59,1003.60,10.00,M,SCT,BKN,OVC,M,2900.00,7000.00,9500.00,M,M,M,M,M,M,M,M,12.28,KELY 161153Z AUTO 17006KT 10SM SCT029 BKN070 OVC095 M06/M07 A2959 RMK AO2 SLP036 70003 T10611072 11044 21072 58015,M
VGT,2023-01-16 11:53,-115.1933,36.2111,667.00,46.00,43.00,89.20,90.00,4.00,0.02,29.67,1006.10,10.00,M,FEW,BKN,OVC,M,2300.00,2700.00,4300.00,M,-RA,M,M,M,M,M,M,43.77,KVGT 161153Z AUTO 09004KT 10SM -RA FEW023 BKN027 OVC043 08/06 A2967 RMK AO2 RAB14 SLP061 P0002 60003 70003 T00780061 10100 20078 56009,M
LOL,2023-01-16 11:53,-118.5701,40.0684,1192.43,33.00,30.90,91.51,30.00,7.00,T,29.55,1001.00,10.00,M,OVC,M,M,M,4000.00,M,M,M,M,M,M,M,M,M,M,26.12,KLOL 161153Z AUTO 03007KT 10SM OVC040 01/M01 A2955 RMK AO2 SNB34E44 SLP010 P0000 60000 70002 T00061006 10028 20006 56012,M
BVU,2023-01-16 11:55,-114.8611,35.9475,671.00,46.40,44.60,93.40,160.00,11.00,0.00,29.69,M,10.00,M,OVC,M,M,M,2500.00,M,M,M,M,M,M,M,M,M,M,40.66,KBVU 161155Z AUTO 16011KT 10SM OVC025 08/07 A2969 RMK AO2,M
CXP,2023-01-16 11:55,-119.7326,39.1923,1431.00,30.20,30.20,100.00,0.00,0.00,0.05,29.50,M,1.00,M,OVC,M,M,M,300.00,M,M,M,-SN BR,M,M,M,M,M,M,30.20,KCXP 161155Z AUTO 00000KT 1SM -SN BR OVC003 M01/M01 A2950 RMK AO2 P0005,M
INS,2023-01-16 11:55,-115.6733,36.5872,955.00,40.60,38.50,92.14,110.00,17.00,0.00,29.62,1001.80,10.00,M,FEW,OVC,M,M,2500.00,4200.00,M,M,M,M,M,M,M,M,M,31.34,KINS 161155Z AUTO 11017KT 10SM FEW025 OVC042 05/04 A2962 RMK AO2 SLP018 60000 T00480036 10061 20048 57016 $,M
RNO,2023-01-16 11:55,-119.7711,39.4839,1341.00,32.00,30.00,92.22,360.00,6.00,0.01,29.50,998.60,1.25,M,SCT,BKN,OVC,M,500.00,2700.00,4000.00,M,-SN BR,M,M,M,M,M,M,25.53,KRNO 161155Z 36006KT 1 1/4SM -SN BR SCT005 BKN027 OVC040 00/M01 A2950 RMK AO2 SLP986 4/001 P0001 60007 70007 T00001011 10028 20000 58016,1
RTS,2023-01-16 11:55,-119.8764,39.6682,1539.00,30.20,28.40,92.92,0.00,0.00,0.01,29.50,M,2.00,M,SCT,BKN,BKN,M,300.00,3000.00,3400.00,M,-SN,M,M,M,M,M,M,30.20,KRTS 161155Z AUTO 00000KT 2SM -SN SCT003 BKN030 BKN034 M01/M02 A2950 RMK AO2 P0001,M
05U,2023-01-16 11:55,-116.0051,39.6042,1811.23,19.40,17.60,92.57,150.00,5.00,0.00,29.59,M,10.00,M,M,M,M,M,M,M,M,M,M,M,M,M,M,M,M,11.43,K05U 161155Z AUTO 15005KT 10SM M07/M08 A2959 RMK A01,M
MEV,2023-01-16 11:55,-119.7500,38.9963,1441.42,30.20,30.20,100.00,350.00,8.00,0.01,29.48,M,2.00,M,OVC,M,M,M,300.00,M,M,M,-SN BR,M,M,M,M,M,M,21.90,KMEV 161155Z AUTO 35008KT 2SM -SN BR OVC003 M01/M01 A2948 RMK AO2 P0001 VIS 1 1/4V2 1/2,M
BAM,2023-01-16 11:55,-116.8743,40.5990,1382.36,33.80,28.40,80.36,60.00,11.00,0.00,29.59,M,10.00,M,SCT,OVC,M,M,4800.00,6500.00,M,M,M,M,M,M,M,M,M,24.74,KBAM 161155Z AUTO 06011KT 10SM SCT048 OVC065 01/M02 A2959 RMK AO1,M
LSV,2023-01-16 11:55,-115.0343,36.2362,570.00,46.80,46.60,99.25,130.00,8.00,T,29.65,1003.70,10.00,M,OVC,M,M,M,2000.00,M,M,M,-RA,M,M,M,M,M,M,42.34,KLSV 161155Z AUTO 13008KT 10SM -RA OVC020 08/08 A2965 RMK AO2 RAB25E50DZB50E51RAB51 SLP037 P0000 60000 T00820081 10096 20077 57015 $,M
INS,2023-01-16 11:56,-115.6733,36.5872,955.00,41.00,39.20,93.24,110.00,16.00,0.00,29.62,1001.80,10.00,M,FEW,FEW,OVC,M,900.00,2500.00,4200.00,M,-RA,M,M,M,M,M,M,32.15,KINS 161156Z AUTO 11016KT 10SM -RA FEW009 FEW025 OVC042 05/04 A2962 RMK AO2 RAB56 SLP018 $,M
EKO,2023-01-16 11:56,-115.7860,40.8242,1367.00,19.90,18.00,92.19,80.00,8.00,0.00,29.61,1005.20,10.00,M,FEW,M,M,M,10000.00,M,M,M,M,M,M,M,M,M,M,9.21,KEKO 161156Z AUTO 08008KT 10SM FEW100 M07/M08 A2961 RMK AO2 SLP052 70002 T10671078 11022 21067 58006,M
WMC,2023-01-16 11:56,-117.8072,40.9019,1315.00,30.90,28.00,88.84,50.00,9.00,0.00,29.57,1001.60,10.00,M,SCT,BKN,OVC,M,6500.00,8000.00,12000.00,M,M,M,M,M,M,M,M,22.15,KWMC 161156Z AUTO 05009KT 10SM SCT065 BKN080 OVC120 M01/M02 A2957 RMK AO2 SLP016 60000 T10061022 10017 21006 56008 $,M
NFL,2023-01-16 11:56,-118.7010,39.4166,1199.00,32.00,30.90,95.65,40.00,6.00,0.07,29.51,998.20,1.25,M,BKN,OVC,M,M,1000.00,1500.00,M,M,-SN BR,M,M,M,M,M,M,25.53,KNFL 161156Z AUTO 04006KT 1 1/4SM -SN BR BKN010 OVC015 00/M01 A2951 RMK AO2 SNB1058 SLP982 P0007 60007 70007 T00001006 10056 20000 58017,M
HND,2023-01-16 11:56,-115.1344,35.9729,742.79,43.00,41.00,92.58,50.00,4.00,T,29.68,1006.70,10.00,M,FEW,BKN,OVC,M,3000.00,3700.00,4900.00,M,-RA,M,M,M,M,M,M,40.27,KHND 161156Z AUTO 05004KT 10SM -RA FEW030 BKN037 OVC049 06/05 A2968 RMK AO2 RAB1058 SLP067 P0000 60000 T00610050 10072 20061 58015,M
TPH,2023-01-16 11:56,-117.0904,38.0505,1654.00,30.90,30.00,96.41,130.00,13.00,T,29.53,999.70,4.00,M,BKN,OVC,M,M,1000.00,1700.00,M,M,BR,M,M,M,M,M,M,20.16,KTPH 161156Z AUTO 13013KT 4SM BR BKN010 OVC017 M01/M01 A2953 RMK AO2 UPB44E53SNE16 SLP997 P0000 60002 70003 T10061011 10006 21006 58016,M
LAS,2023-01-16 11:56,-115.1634,36.0719,663.00,45.00,42.00,89.49,0.00,0.00,0.02,29.67,1004.20,7.00,M,FEW,BKN,OVC,M,3600.00,4600.00,6000.00,M,-RA VCFG,M,M,M,M,M,M,45.00,KLAS 161156Z 00000KT 7SM -RA VCFG FEW036 BKN046 OVC060 07/06 A2967 RMK AO2 RAB07 SLP042 MTNS OBSCURED DSNT SW-NW P0002 60002 70002 T00720056 10083 20072 58013,M
NFL,2023-01-16 12:02,-118.7010,39.4166,1199.00,32.00,30.90,95.65,40.00,6.00,T,29.51,M,1.25,M,FEW,BKN,OVC,M,400.00,800.00,1600.00,M,-SN BR,M,M,M,M,M,M,25.53,KNFL 161202Z AUTO 04006KT 1 1/4SM -SN BR FEW004 BKN008 OVC016 00/M01 A2951 RMK AO2 P0000 T00001006,M
TPH,2023-01-16 12:04,-117.0904,38.0505,1654.00,30.90,30.00,96.41,130.00,13.00,T,29.52,M,2.50,M,SCT,OVC,M,M,1000.00,1700.00,M,M,-SN BR,M,M,M,M,M,M,20.16,KTPH 161204Z AUTO 13013KT 2 1/2SM -SN BR SCT010 OVC017 M01/M01 A2952 RMK AO2 SNB00 P0000 T10061011,M
TPH,2023-01-16 12:08,-117.0904,38.0505,1654.00,30.90,30.00,96.41,130.00,14.00,T,29.52,M,1.75,M,FEW,OVC,M,M,800.00,1500.00,M,M,-SN BR,M,M,M,M,M,M,19.74,KTPH 161208Z AUTO 13014KT 1 3/4SM -SN BR FEW008 OVC015 M01/M01 A2952 RMK AO2 SNB00 P0000 T10061011,M
INS,2023-01-16 12:11,-115.6733,36.5872,955.00,41.00,39.20,93.24,110.00,17.00,0.00,29.62,1001.80,10.00,M,FEW,BKN,BKN,OVC,500.00,4000.00,6500.00,10000.00,M,M,M,M,M,M,M,31.87,KINS 161211Z AUTO 11017KT 10SM FEW005 BKN040 BKN065 OVC100 05/04 A2962 RMK AO2 RAB1156E09DZB09E11 SLP018 $,M
LSV,2023-01-16 12:12,-115.0343,36.2362,570.00,46.40,46.40,100.00,130.00,3.00,0.00,29.65,1003.70,10.00,M,OVC,M,M,M,2000.00,M,M,M,M,M,M,M,M,M,M,45.15,KLSV 161212Z AUTO 13003KT 10SM OVC020 08/08 A2965 RMK AO2 RAE12 OVC V BKN SLP037 $,M
BVU,2023-01-16 12:15,-114.8611,35.9475,671.00,46.40,44.60,93.40,180.00,10.00,0.00,29.68,M,10.00,16.00,FEW,BKN,OVC,M,1500.00,2300.00,4200.00,M,M,M,M,M,M,M,M,41.03,KBVU 161215Z AUTO 18010G16KT 10SM FEW015 BKN023 OVC042 08/07 A2968 RMK AO2,M
CXP,2023-01-16 12:15,-119.7326,39.1923,1431.00,30.20,30.20,100.00,0.00,0.00,0.00,29.49,M,4.00,M,FEW,BKN,OVC,M,300.00,3100.00,4100.00,M,UP BR,M,M,M,M,M,M,30.20,KCXP 161215Z AUTO 00000KT 4SM UP BR FEW003 BKN031 OVC041 M01/M01 A2949 RMK AO2,M
RTS,2023-01-16 12:15,-119.8764,39.6682,1539.00,30.20,28.40,92.92,50.00,4.00,0.00,29.49,M,3.00,M,FEW,FEW,SCT,M,200.00,1900.00,3000.00,M,-SN,M,M,M,M,M,M,25.32,KRTS 161215Z AUTO 05004KT 3SM -SN FEW002 FEW019 SCT030 M01/M02 A2949 RMK AO2,M
05U,2023-01-16 12:15,-116.0051,39.6042,1811.23,19.40,17.60,92.57,M,M,0.00,29.59,M,3.00,M,M,M,M,M,M,M,M,M,BR,M,M,M,M,M,M,M,K05U 161215Z AUTO 3SM BR M07/M08 A2959 RMK A01,M
MEV,2023-01-16 12:15,-119.7500,38.9963,1441.42,30.20,30.20,100.00,350.00,7.00,0.00,29.47,M,3.00,M,BKN,BKN,OVC,M,400.00,2600.00,3700.00,M,-SN BR,M,M,M,M,M,M,22.59,KMEV 161215Z AUTO 35007KT 3SM -SN BR BKN004 BKN026 OVC037 M01/M01 A2947 RMK AO2,M
BAM,2023-01-16 12:15,-116.8743,40.5990,1382.36,33.80,28.40,80.36,60.00,11.00,0.00,29.59,M,10.00,16.00,OVC,M,M,M,6500.00,M,M,M,M,M,M,M,M,M,M,24.74,KBAM 161215Z AUTO 06011G16KT 10SM OVC065 01/M02 A2959 RMK AO1,M
INS,2023-01-16 12:21,-115.6733,36.5872,955.00,41.00,41.00,100.00,120.00,14.00,0.00,29.62,1001.80,10.00,M,FEW,FEW,SCT,BKN,600.00,1400.00,2600.00,3800.00,-RA,M,M,M,M,M,M,32.76,KINS 161221Z AUTO 12014KT 10SM -RA FEW006 FEW014 SCT026 BKN038 OVC065 05/05 A2962 RMK AO2 RAB1156E09DZB09E11RAB21 SLP018 $,M
ELY,2023-01-16 12:21,-114.8453,39.2950,1909.00,23.00,21.00,91.90,180.00,11.00,T,29.59,M,2.00,M,OVC,M,M,M,2900.00,M,M,M,-SN BR,M,M,M,M,M,M,11.09,KELY 161221Z AUTO 18011KT 2SM -SN BR OVC029 M05/M06 A2959 RMK AO2 SNB02 P0000 T10501061,M
TPH,2023-01-16 12:22,-117.0904,38.0505,1654.00,30.90,30.00,96.41,130.00,16.00,0.01,29.51,M,2.50,22.00,FEW,OVC,M,M,800.00,2100.00,M,M,-SN BR,M,M,M,M,M,M,18.98,KTPH 161222Z AUTO 13016G22KT 2 1/2SM -SN BR FEW008 OVC021 M01/M01 A2951 RMK AO2 SNB00 P0001 T10061011,M
ELY,2023-01-16 12:24,-114.8453,39.2950,1909.00,23.00,21.00,91.90,180.00,9.00,T,29.59,M,1.25,M,OVC,M,M,M,2700.00,M,M,M,-SN BR,M,M,M,M,M,M,12.32,KELY 161224Z AUTO 18009KT 1 1/4SM -SN BR OVC027 M05/M06 A2959 RMK AO2 SNB02 P0000 T10501061,M
NFL,2023-01-16 12:24,-118.7010,39.4166,1199.00,32.00,30.90,95.65,40.00,10.00,0.01,29.50,M,2.50,M,SCT,BKN,OVC,M,300.00,700.00,1500.00,M,-SN BR,M,M,M,M,M,M,22.97,KNFL 161224Z AUTO 04010KT 2 1/2SM -SN BR SCT003 BKN007 OVC015 00/M01 A2950 RMK AO2 P0001 T00001006,M
LSV,2023-01-16 12:25,-115.0343,36.2362,570.00,46.40,46.40,100.00,0.00,0.00,0.00,29.65,1003.70,10.00,M,OVC,M,M,M,1900.00,M,M,M,M,M,M,M,M,M,M,46.40,KLSV 161225Z AUTO 00000KT 10SM OVC019 08/08 A2965 RMK AO2 RAE12 SLP037 $,M
NFL,2023-01-16 12:30,-118.7010,39.4166,1199.00,32.00,32.00,100.00,40.00,10.00,0.01,29.50,M,3.00,M,SCT,BKN,OVC,M,300.00,1100.00,1700.00,M,-SN BR,M,M,M,M,M,M,22.97,KNFL 161230Z AUTO 04010KT 3SM -SN BR SCT003 BKN011 OVC017 00/00 A2950 RMK AO2 P0001 T00000000,M
BVU,2023-01-16 12:35,-114.8611,35.9475,671.00,46.40,42.80,87.19,170.00,11.00,0.00,29.69,M,10.00,18.00,BKN,BKN,OVC,M,1400.00,2100.00,4300.00,M,M,M,M,M,M,M,M,40.66,KBVU 161235Z AUTO 17011G18KT 10SM BKN014 BKN021 OVC043 08/06 A2969 RMK AO2,M
CXP,2023-01-16 12:35,-119.7326,39.1923,1431.00,30.20,30.20,100.00,0.00,0.00,0.00,29.48,M,4.00,M,SCT,BKN,BKN,M,1600.00,2900.00,4700.00,M,-SN BR,M,M,M,M,M,M,30.20,KCXP 161235Z AUTO 00000KT 4SM -SN BR SCT016 BKN029 BKN047 M01/M01 A2948 RMK AO2,M
RTS,2023-01-16 12:35,-119.8764,39.6682,1539.00,30.20,28.40,92.92,50.00,7.00,0.00,29.49,M,3.00,M,FEW,BKN,BKN,M,2000.00,2700.00,3400.00,M,-SN,M,M,M,M,M,M,22.59,KRTS 161235Z AUTO 05007KT 3SM -SN FEW020 BKN027 BKN034 M01/M02 A2949 RMK AO2,M
05U,2023-01-16 12:35,-116.0051,39.6042,1811.23,19.40,17.60,92.57,150.00,4.00,0.00,29.58,M,4.00,M,M,M,M,M,M,M,M,M,BR,M,M,M,M,M,M,12.71,K05U 161235Z AUTO 15004KT 4SM BR M07/M08 A2958 RMK A01,M
MEV,2023-01-16 12:35,-119.7500,38.9963,1441.42,30.20,30.20,100.00,340.00,7.00,0.00,29.47,M,2.00,M,BKN,BKN,OVC,M,400.00,800.00,3700.00,M,-SN BR,M,M,M,M,M,M,22.59,KMEV 161235Z AUTO 34007KT 2SM -SN BR BKN004 BKN008 OVC037 M01/M01 A2947 RMK AO2,M
BAM,2023-01-16 12:35,-116.8743,40.5990,1382.36,33.80,26.60,74.63,70.00,11.00,0.00,29.59,M,10.00,M,OVC,M,M,M,5500.00,M,M,M,M,M,M,M,M,M,M,24.74,KBAM 161235Z AUTO 07011KT 10SM OVC055 01/M03 A2959 RMK AO1,M
LSV,2023-01-16 12:36,-115.0343,36.2362,570.00,46.40,46.40,100.00,0.00,0.00,0.00,29.66,1004.00,10.00,M,OVC,M,M,M,1900.00,M,M,M,-RA,M,M,M,M,M,M,46.40,KLSV 161236Z AUTO 00000KT 10SM -RA OVC019 08/08 A2966 RMK AO2 RAE12RAB36 SLP040 $,M
NFL,2023-01-16 12:38,-118.7010,39.4166,1199.00,32.00,30.90,95.65,40.00,10.00,0.01,29.49,M,3.00,M,SCT,OVC,M,M,300.00,1700.00,M,M,-SN BR,M,M,M,M,M,M,22.97,KNFL 161238Z AUTO 04010KT 3SM -SN BR SCT003 OVC017 00/M01 A2949 RMK AO2 P0001 T00001006,M
NFL,2023-01-16 12:47,-118.7010,39.4166,1199.00,32.00,32.00,100.00,40.00,8.00,0.01,29.49,M,3.00,M,BKN,OVC,M,M,300.00,1700.00,M,M,-SN BR,M,M,M,M,M,M,24.11,KNFL 161247Z AUTO 04008KT 3SM -SN BR BKN003 OVC017 00/00 A2949 RMK AO2 P0001 T00000000,M
TPH,2023-01-16 12:52,-117.0904,38.0505,1654.00,30.20,30.20,100.00,140.00,16.00,0.01,29.51,M,3.00,M,SCT,SCT,OVC,M,600.00,1000.00,1800.00,M,-SN BR,M,M,M,M,M,M,18.07,KTPH 161252Z AUTO 14016KT 3SM -SN BR SCT006 SCT010 OVC018 M01/M01 A2951 RMK AO2 SNB00 P0001,M
P68,2023-01-16 12:53,-116.0056,39.6014,1993.00,19.00,16.00,87.87,50.00,3.00,0.01,29.56,1002.80,M,M,M,M,M,M,M,M,M,M,M,M,M,M,M,M,M,13.83,KP68 161253Z AUTO 05003KT M07/M09 A2956 RMK AO1 SLP028 P0001 T10721089,M
ELY,2023-01-16 12:53,-114.8453,39.2950,1909.00,24.10,21.90,91.17,180.00,10.00,0.02,29.58,1003.00,1.75,M,OVC,M,M,M,1900.00,M,M,M,-SN BR,M,M,M,M,M,M,13.06,KELY 161253Z AUTO 18010KT 1 3/4SM -SN BR OVC019 M04/M06 A2958 RMK AO2 SNB02 SLP030 P0002 T10441056,M
LOL,2023-01-16 12:53,-118.5701,40.0684,1192.43,33.00,32.00,95.67,30.00,12.00,T,29.53,1000.50,4.00,M,OVC,M,M,M,3800.00,M,M,M,-SN BR,M,M,M,M,M,M,23.40,KLOL 161253Z AUTO 03012KT 4SM -SN BR OVC038 01/00 A2953 RMK AO2 SNB09 SLP005 P0000 T00060000,M
VGT,2023-01-16 12:53,-115.1933,36.2111,667.00,46.00,44.00,93.03,20.00,4.00,0.02,29.66,1006.10,10.00,M,OVC,M,M,M,2100.00,M,M,M,-RA,M,M,M,M,M,M,43.77,KVGT 161253Z AUTO 02004KT 10SM -RA OVC021 08/07 A2966 RMK AO2 SLP061 P0002 T00780067,M
BVU,2023-01-16 12:55,-114.8611,35.9475,671.00,46.40,42.80,87.19,160.00,13.00,0.00,29.67,M,10.00,M,FEW,OVC,M,M,1400.00,2700.00,M,M,M,M,M,M,M,M,M,40.02,KBVU 161255Z AUTO 16013KT 10SM FEW014 OVC027 08/06 A2967 RMK AO2,M
CXP,2023-01-16 12:55,-119.7326,39.1923,1431.00,30.20,30.20,100.00,0.00,0.00,0.00,29.49,M,3.00,M,OVC,M,M,M,1300.00,M,M,M,-SN BR,M,M,M,M,M,M,30.20,KCXP 161255Z AUTO 00000KT 3SM -SN BR OVC013 M01/M01 A2949 RMK AO2,M
INS,2023-01-16 12:55,-115.6733,36.5872,955.00,40.60,40.50,99.61,110.00,13.00,T,29.61,1001.70,10.00,M,FEW,BKN,BKN,BKN,3900.00,6500.00,10000.00,19000.00,M,M,M,M,M,M,M,32.59,KINS 161255Z AUTO 11013KT 10SM FEW039 BKN065 BKN100 BKN190 05/05 A2961 RMK AO2 RAB1156E09DZB09E11RAB21E45 SLP017 P0000 T00480047 $,M
RNO,2023-01-16 12:55,-119.7711,39.4839,1341.00,32.00,30.90,95.65,30.00,5.00,0.02,29.48,997.90,1.25,M,SCT,BKN,OVC,M,500.00,2400.00,3600.00,M,-SN BR,M,M,M,M,M,M,26.40,KRNO 161255Z 03005KT 1 1/4SM -SN BR SCT005 BKN024 OVC036 00/M01 A2948 RMK AO2 SLP979 P0002 T00001006,M
LSV,2023-01-16 12:55,-115.0343,36.2362,570.00,46.80,46.60,99.25,110.00,3.00,T,29.64,1003.30,10.00,M,BKN,M,M,M,1900.00,M,M,M,-RA,M,M,M,M,M,M,45.61,KLSV 161255Z AUTO 11003KT 10SM -RA BKN019 08/08 A2964 RMK AO2 RAE12RAB36 PRESFR SLP033 P0000 T00820081 $,M
RTS,2023-01-16 12:55,-119.8764,39.6682,1539.00,30.20,28.40,92.92,40.00,9.00,0.01,29.48,M,3.00,M,FEW,BKN,BKN,M,2100.00,2700.00,3500.00,M,-SN,M,M,M,M,M,M,21.28,KRTS 161255Z AUTO 04009KT 3SM -SN FEW021 BKN027 BKN035 M01/M02 A2948 RMK AO2 P0001,M
05U,2023-01-16 12:55,-116.0051,39.6042,1811.23,19.40,17.60,92.57,M,M,0.00,29.58,M,1.75,M,M,M,M,M,M,M,M,M,BR,M,M,M,M,M,M,M,K05U 161255Z AUTO 1 3/4SM BR M07/M08 A2958 RMK A01,M
MEV,2023-01-16 12:55,-119.7500,38.9963,1441.42,30.20,30.20,100.00,330.00,7.00,0.02,29.47,M,0.50,M,OVC,M,M,M,300.00,M,M,M,-SN BR,M,M,M,M,M,M,22.59,KMEV 161255Z AUTO 33007KT 1/2SM -SN BR OVC003 M01/M01 A2947 RMK AO2 P0002,M
BAM,2023-01-16 12:55,-116.8743,40.5990,1382.36,33.80,26.60,74.63,70.00,8.00,0.00,29.59,M,10.00,14.00,OVC,M,M,M,6500.00,M,M,M,M,M,M,M,M,M,M,26.33,KBAM 161255Z AUTO 07008G14KT 10SM OVC065 01/M03 A2959 RMK AO1,M
EKO,2023-01-16 12:56,-115.7860,40.8242,1367.00,19.90,18.00,92.19,70.00,5.00,0.00,29.62,1005.50,10.00,M,FEW,SCT,BKN,M,6000.00,8000.00,10000.00,M,M,M,M,M,M,M,M,12.03,KEKO 161256Z AUTO 07005KT 10SM FEW060 SCT080 BKN100 M07/M08 A2962 RMK AO2 SLP055 T10671078,M
WMC,2023-01-16 12:56,-117.8072,40.9019,1315.00,30.90,28.00,88.84,50.00,11.00,0.00,29.56,1001.30,10.00,M,SCT,M,M,M,7000.00,M,M,M,M,M,M,M,M,M,M,21.08,KWMC 161256Z AUTO 05011KT 10SM SCT070 M01/M02 A2956 RMK AO2 SLP013 T10061022 $,M
NFL,2023-01-16 12:56,-118.7010,39.4166,1199.00,32.00,32.00,100.00,40.00,9.00,0.01,29.49,997.60,3.00,M,BKN,BKN,OVC,M,300.00,1900.00,3200.00,M,-SN BR,M,M,M,M,M,M,23.51,KNFL 161256Z AUTO 04009KT 3SM -SN BR BKN003 BKN019 OVC032 00/00 A2949 RMK AO2 SLP976 P0001 T00000000,M
HND,2023-01-16 12:56,-115.1344,35.9729,742.79,46.00,41.00,82.58,160.00,8.00,T,29.67,1006.20,10.00,M,SCT,SCT,OVC,M,3400.00,4100.00,7000.00,M,M,M,M,M,M,M,M,41.36,KHND 161256Z AUTO 16008KT 10SM SCT034 SCT041 OVC070 08/05 A2967 RMK AO2 RAE30 SLP062 P0000 T00780050,M
TPH,2023-01-16 12:56,-117.0904,38.0505,1654.00,30.90,30.90,100.00,140.00,15.00,0.01,29.51,999.30,3.00,M,SCT,OVC,M,M,800.00,1800.00,M,M,-SN BR,M,M,M,M,M,M,19.35,KTPH 161256Z AUTO 14015KT 3SM -SN BR SCT008 OVC018 M01/M01 A2951 RMK AO2 SNB00 SLP993 P0001 T10061006,M
LAS,2023-01-16 12:56,-115.1634,36.0719,663.00,44.00,41.00,88.77,320.00,5.00,0.01,29.66,1004.00,10.00,M,FEW,SCT,BKN,M,3800.00,6000.00,8000.00,M,M,M,M,M,M,M,M,40.77,KLAS 161256Z 32005KT 10SM FEW038 SCT060 BKN080 07/05 A2966 RMK AO2 RAE35 SLP040 MTNS OBSCURED DSNT W-N P0001 T00670050,M
LSV,2023-01-16 12:57,-115.0343,36.2362,570.00,46.40,46.40,100.00,0.00,0.00,0.00,29.65,1003.70,10.00,M,OVC,M,M,M,2000.00,M,M,M,-RA,M,M,M,M,M,M,46.40,KLSV 161257Z AUTO 00000KT 10SM -RA OVC020 08/08 A2965 RMK AO2 SLP037 $,M
INS,2023-01-16 12:58,-115.6733,36.5872,955.00,41.00,41.00,100.00,120.00,13.00,0.00,29.62,1002.10,10.00,M,FEW,BKN,BKN,OVC,3900.00,6500.00,10000.00,19000.00,-RA,M,M,M,M,M,M,33.10,KINS 161258Z AUTO 12013KT 10SM -RA FEW039 BKN065 BKN100 OVC190 05/05 A2962 RMK AO2 RAB58 SLP021 $,M
ELY,2023-01-16 13:00,-114.8453,39.2950,1909.00,24.10,21.90,91.17,180.00,8.00,0.01,29.58,M,2.50,M,OVC,M,M,M,2100.00,M,M,M,-SN BR,M,M,M,M,M,M,14.38,KELY 161300Z AUTO 18008KT 2 1/2SM -SN BR OVC021 M04/M06 A2958 RMK AO2 P0001 T10441056,M
LSV,2023-01-16 13:02,-115.0343,36.2362,570.00,46.40,46.40,100.00,0.00,0.00,0.00,29.65,1003.70,10.00,M,BKN,M,M,M,2000.00,M,M,M,M,M,M,M,M,M,M,46.40,KLSV 161302Z AUTO 00000KT 10SM BKN020 08/08 A2965 RMK AO2 RAE02 BKN V OVC SLP037 $,M
NFL,2023-01-16 13:03,-118.7010,39.4166,1199.00,32.00,32.00,100.00,40.00,9.00,T,29.49,M,5.00,M,SCT,SCT,OVC,M,300.00,1500.00,4100.00,M,-SN BR,M,M,M,M,M,M,23.51,KNFL 161303Z AUTO 04009KT 5SM -SN BR SCT003 SCT015 OVC041 00/00 A2949 RMK AO2 P0000 T00000000,M
INS,2023-01-16 13:06,-115.6733,36.5872,955.00,41.00,41.00,100.00,110.00,14.00,0.00,29.61,1001.70,10.00,M,FEW,SCT,BKN,BKN,3800.00,4500.00,6000.00,7000.00,M,M,M,M,M,M,M,32.76,KINS 161306Z AUTO 11014KT 10SM FEW038 SCT045 BKN060 BKN070 BKN100 OVC190 05/05 A2961 RMK AO2 RAB1258E06 SLP017 $,M
TPH,2023-01-16 13:10,-117.0904,38.0505,1654.00,30.90,30.90,100.00,130.00,13.00,T,29.51,M,2.50,M,FEW,SCT,OVC,M,600.00,1100.00,2000.00,M,-SN BR,M,M,M,M,M,M,20.16,KTPH 161310Z AUTO 13013KT 2 1/2SM -SN BR FEW006 SCT011 OVC020 M01/M01 A2951 RMK AO2 P0000 T10061006,M
05U,2023-01-16 13:10,-116.0051,39.6042,1811.23,19.40,17.60,92.57,M,M,0.00,29.58,M,1.00,M,M,M,M,M,M,M,M,M,BR,M,M,M,M,M,M,M,K05U 161310Z AUTO 1SM BR M07/M08 A2958 RMK A01,M
BVU,2023-01-16 13:15,-114.8611,35.9475,671.00,46.40,42.80,87.19,170.00,12.00,0.00,29.68,M,10.00,M,BKN,OVC,M,M,2700.00,3100.00,M,M,M,M,M,M,M,M,M,40.33,KBVU 161315Z AUTO 17012KT 10SM BKN027 OVC031 08/06 A2968 RMK AO2,M
CXP,2023-01-16 13:15,-119.7326,39.1923,1431.00,32.00,30.20,92.97,50.00,11.00,0.00,29.48,M,0.75,M,OVC,M,M,M,300.00,M,M,M,-SN BR,M,M,M,M,M,M,22.47,KCXP 161315Z AUTO 05011KT 3/4SM -SN BR OVC003 M00/M01 A2948 RMK AO2,M
RTS,2023-01-16 13:15,-119.8764,39.6682,1539.00,30.20,28.40,92.92,50.00,8.00,0.00,29.48,M,4.00,M,FEW,OVC,M,M,2000.00,2800.00,M,M,-SN,M,M,M,M,M,M,21.90,KRTS 161315Z AUTO 05008KT 4SM -SN FEW020 OVC028 M01/M02 A2948 RMK AO2,M
MEV,2023-01-16 13:15,-119.7500,38.9963,1441.42,30.20,30.20,100.00,330.00,8.00,0.00,29.46,M,1.00,M,OVC,M,M,M,300.00,M,M,M,-SN BR,M,M,M,M,M,M,21.90,KMEV 161315Z AUTO 33008KT 1SM -SN BR OVC003 M01/M01 A2946 RMK AO2,M
BAM,2023-01-16 13:15,-116.8743,40.5990,1382.36,33.80,26.60,74.63,70.00,6.00,0.00,29.58,M,10.00,M,OVC,M,M,M,5500.00,M,M,M,M,M,M,M,M,M,M,27.70,KBAM 161315Z AUTO 07006KT 10SM OVC055 01/M03 A2958 RMK AO1,M
ELY,2023-01-16 13:23,-114.8453,39.2950,1909.00,24.10,21.90,91.17,180.00,8.00,0.01,29.58,M,4.00,M,OVC,M,M,M,2900.00,M,M,M,-SN BR,M,M,M,M,M,M,14.38,KELY 161323Z AUTO 18008KT 4SM -SN BR OVC029 M04/M06 A2958 RMK AO2 P0001 T10441056,M
INS,2023-01-16 13:25,-115.6733,36.5872,955.00,41.00,41.00,100.00,110.00,14.00,0.00,29.61,1001.70,10.00,M,FEW,SCT,BKN,OVC,3100.00,4100.00,5500.00,7000.00,-RA,M,M,M,M,M,M,32.76,KINS 161325Z AUTO 11014KT 10SM -RA FEW031 SCT041 BKN055 OVC070 05/05 A2961 RMK AO2 RAB1258E06RAB25 SLP017 $,M
TPH,2023-01-16 13:28,-117.0904,38.0505,1654.00,32.00,30.90,95.65,140.00,13.00,T,29.50,M,3.00,M,FEW,OVC,M,M,800.00,1600.00,M,M,-SN BR,M,M,M,M,M,M,21.57,KTPH 161328Z AUTO 14013KT 3SM -SN BR FEW008 OVC016 00/M01 A2950 RMK AO2 P0000 T00001006,M
LAS,2023-01-16 13:29,-115.1634,36.0719,663.00,44.00,41.00,88.77,290.00,4.00,0.00,29.67,M,10.00,M,BKN,OVC,M,M,2000.00,7000.00,M,M,M,M,M,M,M,M,M,41.55,KLAS 161329Z 29004KT 10SM BKN020 OVC070 07/05 A2967 RMK AO2 MTNS OBSCURED DSNT SW-NW T00670050,M
BVU,2023-01-16 13:35,-114.8611,35.9475,671.00,46.40,44.60,93.40,170.00,11.00,0.00,29.68,M,6.00,M,FEW,OVC,M,M,1000.00,2400.00,M,M,-RA,M,M,M,M,M,M,40.66,KBVU 161335Z AUTO 17011KT 6SM -RA FEW010 OVC024 08/07 A2968 RMK AO2,M
CXP,2023-01-16 13:35,-119.7326,39.1923,1431.00,32.00,30.20,92.97,40.00,15.00,0.00,29.47,M,0.75,M,OVC,M,M,M,300.00,M,M,M,-SN BR,M,M,M,M,M,M,20.78,KCXP 161335Z AUTO 04015KT 3/4SM -SN BR OVC003 M00/M01 A2947 RMK AO2,M
RTS,2023-01-16 13:35,-119.8764,39.6682,1539.00,30.20,28.40,92.92,60.00,7.00,0.00,29.48,M,7.00,M,SCT,OVC,M,M,2100.00,2800.00,M,M,-UP,M,M,M,M,M,M,22.59,KRTS 161335Z AUTO 06007KT 7SM -UP SCT021 OVC028 M01/M02 A2948 RMK AO2,M
TPH,2023-01-16 13:35,-117.0904,38.0505,1654.00,32.00,30.90,95.65,140.00,13.00,T,29.50,M,3.00,M,OVC,M,M,M,1400.00,M,M,M,-SN BR,M,M,M,M,M,M,21.57,KTPH 161335Z AUTO 14013KT 3SM -SN BR OVC014 00/M01 A2950 RMK AO2 P0000 T00001006,M
05U,2023-01-16 13:35,-116.0051,39.6042,1811.23,19.40,15.80,85.63,M,M,0.00,29.57,M,2.00,M,M,M,M,M,M,M,M,M,BR,M,M,M,M,M,M,M,K05U 161335Z AUTO 2SM BR M07/M09 A2957 RMK A01,M
MEV,2023-01-16 13:35,-119.7500,38.9963,1441.42,30.20,30.20,100.00,M,M,0.00,29.44,M,0.75,M,OVC,M,M,M,300.00,M,M,M,-SN BR,M,M,M,M,M,M,M,KMEV 161335Z AUTO 3/4SM -SN BR OVC003 M01/M01 A2944 RMK AO2,M
BAM,2023-01-16 13:35,-116.8743,40.5990,1382.36,33.80,26.60,74.63,60.00,10.00,0.00,29.58,M,10.00,M,BKN,OVC,M,M,5000.00,6500.00,M,M,M,M,M,M,M,M,M,25.23,KBAM 161335Z AUTO 06010KT 10SM BKN050 OVC065 01/M03 A2958 RMK AO1,M
LSV,2023-01-16 13:36,-115.0343,36.2362,570.00,46.40,46.40,100.00,0.00,0.00,0.00,29.64,1003.50,10.00,M,OVC,M,M,M,2100.00,M,M,M,-RA,M,M,M,M,M,M,46.40,KLSV 161336Z AUTO 00000KT 10SM -RA OVC021 08/08 A2964 RMK AO2 RAE02RAB36 SLP035 $,M
INS,2023-01-16 13:39,-115.6733,36.5872,955.00,41.00,41.00,100.00,110.00,13.00,0.00,29.60,1001.40,10.00,M,FEW,BKN,BKN,M,3900.00,5000.00,9500.00,M,M,M,M,M,M,M,M,33.10,KINS 161339Z AUTO 11013KT 10SM FEW039 BKN050 BKN095 05/05 A2960 RMK AO2 RAB1258E06RAB25E39 SLP014 $,M
ELY,2023-01-16 13:40,-114.8453,39.2950,1909.00,24.10,23.00,95.49,190.00,6.00,0.01,29.58,M,3.00,M,OVC,M,M,M,3600.00,M,M,M,-SN BR,M,M,M,M,M,M,16.02,KELY 161340Z AUTO 19006KT 3SM -SN BR OVC036 M04/M05 A2958 RMK AO2 P0001 T10441050,M
TPH,2023-01-16 13:40,-117.0904,38.0505,1654.00,32.00,30.90,95.65,140.00,12.00,T,29.50,M,2.50,M,FEW,OVC,M,M,800.00,1400.00,M,M,-SN BR,M,M,M,M,M,M,22.00,KTPH 161340Z AUTO 14012KT 2 1/2SM -SN BR FEW008 OVC014 00/M01 A2950 RMK AO2 P0000 T00001006,M
LSV,2023-01-16 13:45,-115.0343,36.2362,570.00,46.40,46.40,100.00,0.00,0.00,0.00,29.65,1003.80,10.00,M,OVC,M,M,M,2100.00,M,M,M,M,M,M,M,M,M,M,46.40,KLSV 161345Z AUTO 00000KT 10SM OVC021 08/08 A2965 RMK AO2 RAE02RAB36E45 SLP038 $,M
VGT,2023-01-16 13:46,-115.1933,36.2111,667.00,47.00,44.00,89.92,0.00,0.00,0.01,29.66,M,10.00,M,FEW,OVC,M,M,900.00,1900.00,M,M,-RA,M,M,M,M,M,M,46.90,KVGT 161346Z AUTO 00000KT 10SM -RA FEW009 OVC019 08/07 A2966 RMK AO2 P0001 T00830067,M
LSV,2023-01-16 13:50,-115.0343,36.2362,570.00,46.40,46.40,100.00,0.00,0.00,0.00,29.65,1003.80,10.00,M,OVC,M,M,M,2100.00,M,M,M,-RA,M,M,M,M,M,M,46.40,KLSV 161350Z AUTO 00000KT 10SM -RA OVC021 08/08 A2965 RMK AO2 RAE02RAB36E45RAB50 SLP038 $,M
P68,2023-01-16 13:53,-116.0056,39.6014,1993.00,19.00,16.00,87.87,10.00,3.00,0.01,29.55,1003.00,M,M,M,M,M,M,M,M,M,M,M,M,M,M,M,M,M,13.83,KP68 161353Z AUTO 01003KT M07/M09 A2955 RMK AO1 SLP030 P0001 T10721089,M
ELY,2023-01-16 13:53,-114.8453,39.2950,1909.00,26.10,24.10,92.01,190.00,7.00,0.01,29.57,1003.00,4.00,M,OVC,M,M,M,4200.00,M,M,M,-SN BR,M,M,M,M,M,M,17.59,KELY 161353Z AUTO 19007KT 4SM -SN BR OVC042 M03/M04 A2957 RMK AO2 SLP030 P0001 T10331044,M
LOL,2023-01-16 13:53,-118.5701,40.0684,1192.43,33.00,30.90,91.51,30.00,12.00,T,29.51,1000.10,10.00,M,OVC,M,M,M,6500.00,M,M,M,M,M,M,M,M,M,M,23.40,KLOL 161353Z AUTO 03012KT 10SM OVC065 01/M01 A2951 RMK AO2 SNE23 SLP001 P0000 T00061006,M
VGT,2023-01-16 13:53,-115.1933,36.2111,667.00,47.00,44.00,89.92,20.00,4.00,0.01,29.66,1005.80,8.00,M,SCT,OVC,M,M,700.00,1900.00,M,M,-RA,M,M,M,M,M,M,44.82,KVGT 161353Z 02004KT 8SM -RA SCT007 OVC019 08/07 A2966 RMK AO2 SLP058 P0001 T00830067,M
BVU,2023-01-16 13:55,-114.8611,35.9475,671.00,46.40,44.60,93.40,170.00,13.00,0.00,29.68,M,10.00,M,BKN,BKN,OVC,M,2200.00,2600.00,4000.00,M,M,M,M,M,M,M,M,40.02,KBVU 161355Z AUTO 17013KT 10SM BKN022 BKN026 OVC040 08/07 A2968 RMK AO2,M
CXP,2023-01-16 13:55,-119.7326,39.1923,1431.00,32.00,28.40,86.39,20.00,6.00,0.01,29.47,M,0.75,14.00,OVC,M,M,M,300.00,M,M,M,-SN BR,M,M,M,M,M,M,25.53,KCXP 161355Z AUTO 02006G14KT 3/4SM -SN BR OVC003 M00/M02 A2947 RMK AO2 P0001,M
RNO,2023-01-16 13:55,-119.7711,39.4839,1341.00,32.00,30.00,92.22,350.00,5.00,0.01,29.47,997.60,1.25,M,BKN,BKN,OVC,M,1000.00,2000.00,3300.00,M,-SN BR,M,M,M,M,M,M,26.40,KRNO 161355Z 35005KT 1 1/4SM -SN BR BKN010 BKN020 OVC033 00/M01 A2947 RMK AO2 SFC VIS 2 SLP976 P0001 T00001011,M
RTS,2023-01-16 13:55,-119.8764,39.6682,1539.00,30.20,28.40,92.92,60.00,6.00,0.00,29.48,M,8.00,M,BKN,OVC,M,M,2700.00,3500.00,M,M,-UP,M,M,M,M,M,M,23.36,KRTS 161355Z AUTO 06006KT 8SM -UP BKN027 OVC035 M01/M02 A2948 RMK AO2,M
05U,2023-01-16 13:55,-116.0051,39.6042,1811.23,19.40,17.60,92.57,M,M,0.00,29.57,M,2.00,M,M,M,M,M,M,M,M,M,BR,M,M,M,M,M,M,M,K05U 161355Z AUTO 2SM BR M07/M08 A2957 RMK A01,M
MEV,2023-01-16 13:55,-119.7500,38.9963,1441.42,30.20,30.20,100.00,340.00,9.00,0.03,29.43,M,0.75,15.00,OVC,M,M,M,300.00,M,M,M,-SN BR,M,M,M,M,M,M,21.28,KMEV 161355Z AUTO 34009G15KT 3/4SM -SN BR OVC003 M01/M01 A2943 RMK AO2 P0003,M
BAM,2023-01-16 13:55,-116.8743,40.5990,1382.36,32.00,26.60,80.22,60.00,11.00,0.00,29.57,M,10.00,M,OVC,M,M,M,5000.00,M,M,M,M,M,M,M,M,M,M,22.47,KBAM 161355Z AUTO 06011KT 10SM OVC050 00/M03 A2957 RMK AO1,M
LSV,2023-01-16 13:55,-115.0343,36.2362,570.00,47.00,46.80,99.62,0.00,0.00,T,29.64,1003.50,10.00,M,OVC,M,M,M,2100.00,M,M,M,-RA,M,M,M,M,M,M,46.90,KLSV 161355Z AUTO 00000KT 10SM -RA OVC021 08/08 A2964 RMK AO2 RAE02RAB36E45RAB50 SLP035 P0000 T00830082 $,M
INS,2023-01-16 13:55,-115.6733,36.5872,955.00,40.80,40.00,97.32,120.00,13.00,T,29.60,1001.40,10.00,M,FEW,FEW,BKN,OVC,1700.00,4700.00,5500.00,9500.00,M,M,M,M,M,M,M,32.84,KINS 161355Z AUTO 12013KT 10SM FEW017 FEW047 BKN055 OVC095 05/05 A2960 RMK AO2 RAB1258E06RAB25E39 SLP014 P0000 T00490045 $,M
EKO,2023-01-16 13:56,-115.7860,40.8242,1367.00,21.00,18.00,87.97,60.00,4.00,0.00,29.60,1005.00,10.00,M,FEW,OVC,M,M,5500.00,9000.00,M,M,M,M,M,M,M,M,M,14.57,KEKO 161356Z AUTO 06004KT 10SM FEW055 OVC090 M06/M08 A2960 RMK AO2 SLP050 T10611078,M
WMC,2023-01-16 13:56,-117.8072,40.9019,1315.00,30.90,28.00,88.84,40.00,14.00,0.00,29.54,1000.90,10.00,21.00,OVC,M,M,M,8500.00,M,M,M,M,M,M,M,M,M,M,19.74,KWMC 161356Z AUTO 04014G21KT 10SM OVC085 M01/M02 A2954 RMK AO2 SLP009 T10061022 $,M
HND,2023-01-16 13:56,-115.1344,35.9729,742.79,46.00,41.00,82.58,160.00,13.00,T,29.67,1006.50,10.00,17.00,SCT,BKN,OVC,M,4100.00,5000.00,6000.00,M,-RA,M,M,M,M,M,M,39.50,KHND 161356Z 16013G17KT 10SM -RA SCT041 BKN050 OVC060 08/05 A2967 RMK AO2 RAB19 SLP065 P0000 T00780050,M
TPH,2023-01-16 13:56,-117.0904,38.0505,1654.00,32.00,30.90,95.65,140.00,13.00,T,29.50,998.90,2.00,M,FEW,OVC,M,M,800.00,1200.00,M,M,-SN BR,M,M,M,M,M,M,21.57,KTPH 161356Z AUTO 14013KT 2SM -SN BR FEW008 OVC012 00/M01 A2950 RMK AO2 SLP989 P0000 T00001006,M
NFL,2023-01-16 13:56,-118.7010,39.4166,1199.00,33.00,32.00,95.67,30.00,5.00,T,29.49,997.50,3.00,M,OVC,M,M,M,2700.00,M,M,M,-SN BR,M,M,M,M,M,M,27.70,KNFL 161356Z AUTO 03005KT 3SM -SN BR OVC027 01/00 A2949 RMK AO2 SLP975 P0000 T00060000,M
LAS,2023-01-16 13:56,-115.1634,36.0719,663.00,44.00,42.00,92.62,280.00,5.00,T,29.67,1004.30,10.00,M,FEW,BKN,OVC,M,1000.00,2000.00,9500.00,M,M,M,M,M,M,M,M,40.77,KLAS 161356Z 28005KT 10SM FEW010 BKN020 OVC095 07/06 A2967 RMK AO2 RAB37E55 SLP043 P0000 T00670056,M
NFL,2023-01-16 14:03,-118.7010,39.4166,1199.00,33.00,32.00,95.67,30.00,5.00,T,29.48,M,1.75,M,OVC,M,M,M,2100.00,M,M,M,-SN BR,M,M,M,M,M,M,27.70,KNFL 161403Z AUTO 03005KT 1 3/4SM -SN BR OVC021 01/00 A2948 RMK AO2 P0000 T00060000,M
LSV,2023-01-16 14:04,-115.0343,36.2362,570.00,46.40,46.40,100.00,130.00,3.00,0.00,29.64,1003.50,10.00,M,BKN,M,M,M,2100.00,M,M,M,M,M,M,M,M,M,M,45.15,KLSV 161404Z AUTO 13003KT 10SM BKN021 08/08 A2964 RMK AO2 RAE04 BKN V OVC SLP035 $,M
TPH,2023-01-16 14:11,-117.0904,38.0505,1654.00,32.00,30.90,95.65,130.00,12.00,T,29.49,M,4.00,M,OVC,M,M,M,1000.00,M,M,M,-SN BR,M,M,M,M,M,M,22.00,KTPH 161411Z AUTO 13012KT 4SM -SN BR OVC010 00/M01 A2949 RMK AO2 P0000 T00001006,M
BVU,2023-01-16 14:15,-114.8611,35.9475,671.00,46.40,44.60,93.40,180.00,12.00,0.00,29.68,M,10.00,M,BKN,OVC,M,M,2500.00,3000.00,M,M,M,M,M,M,M,M,M,40.33,KBVU 161415Z AUTO 18012KT 10SM BKN025 OVC030 08/07 A2968 RMK AO2,M
CXP,2023-01-16 14:15,-119.7326,39.1923,1431.00,32.00,28.40,86.39,20.00,7.00,0.00,29.46,M,0.75,14.00,OVC,M,M,M,300.00,M,M,M,-SN BR,M,M,M,M,M,M,24.78,KCXP 161415Z AUTO 02007G14KT 3/4SM -SN BR OVC003 M00/M02 A2946 RMK AO2,M
RTS,2023-01-16 14:15,-119.8764,39.6682,1539.00,30.20,28.40,92.92,40.00,7.00,0.00,29.47,M,5.00,M,FEW,FEW,OVC,M,900.00,2700.00,3300.00,M,-SN,M,M,M,M,M,M,22.59,KRTS 161415Z AUTO 04007KT 5SM -SN FEW009 FEW027 OVC033 M01/M02 A2947 RMK AO2,M
05U,2023-01-16 14:15,-116.0051,39.6042,1811.23,19.40,17.60,92.57,M,M,0.00,29.57,M,10.00,M,M,M,M,M,M,M,M,M,M,M,M,M,M,M,M,M,K05U 161415Z AUTO 10SM M07/M08 A2957 RMK A01,M
MEV,2023-01-16 14:15,-119.7500,38.9963,1441.42,30.20,30.20,100.00,350.00,13.00,0.00,29.43,M,1.00,M,OVC,M,M,M,300.00,M,M,M,-SN BR,M,M,M,M,M,M,19.26,KMEV 161415Z AUTO 35013KT 1SM -SN BR OVC003 M01/M01 A2943 RMK AO2,M
BAM,2023-01-16 14:15,-116.8743,40.5990,1382.36,32.00,26.60,80.22,60.00,10.00,0.00,29.57,M,10.00,M,OVC,M,M,M,6000.00,M,M,M,M,M,M,M,M,M,M,22.97,KBAM 161415Z AUTO 06010KT 10SM OVC060 00/M03 A2957 RMK AO1,M
LAS,2023-01-16 14:19,-115.1634,36.0719,663.00,44.00,42.00,92.62,280.00,4.00,0.01,29.66,M,10.00,M,SCT,BKN,OVC,M,1800.00,4300.00,9000.00,M,M,M,M,M,M,M,M,41.55,KLAS 161419Z 28004KT 10SM SCT018 BKN043 OVC090 07/06 A2966 RMK AO2 RAB1357E16 P0001 T00670056,M
NFL,2023-01-16 14:24,-118.7010,39.4166,1199.00,32.00,30.90,95.65,30.00,6.00,0.02,29.47,M,1.25,M,OVC,M,M,M,1400.00,M,M,M,-SN BR,M,M,M,M,M,M,25.53,KNFL 161424Z AUTO 03006KT 1 1/4SM -SN BR OVC014 00/M01 A2947 RMK AO2 P0002 T00001006,M
05U,2023-01-16 14:30,-116.0051,39.6042,1811.23,19.40,17.60,92.57,0.00,0.00,0.00,29.56,M,2.50,M,M,M,M,M,M,M,M,M,BR,M,M,M,M,M,M,19.40,K05U 161430Z AUTO 00000KT 2 1/2SM BR M07/M08 A2956 RMK A01,M
BVU,2023-01-16 14:35,-114.8611,35.9475,671.00,46.40,44.60,93.40,170.00,11.00,0.00,29.68,M,10.00,M,BKN,BKN,OVC,M,2600.00,3000.00,4000.00,M,M,M,M,M,M,M,M,40.66,KBVU 161435Z AUTO 17011KT 10SM BKN026 BKN030 OVC040 08/07 A2968 RMK AO2,M
CXP,2023-01-16 14:35,-119.7326,39.1923,1431.00,30.20,28.40,92.92,0.00,0.00,0.00,29.46,M,0.75,M,OVC,M,M,M,300.00,M,M,M,-SN BR,M,M,M,M,M,M,30.20,KCXP 161435Z AUTO 00000KT 3/4SM -SN BR OVC003 M01/M02 A2946 RMK AO2,M
RTS,2023-01-16 14:35,-119.8764,39.6682,1539.00,30.20,28.40,92.92,50.00,8.00,0.00,29.46,M,3.00,M,FEW,OVC,M,M,2200.00,3000.00,M,M,-SN,M,M,M,M,M,M,21.90,KRTS 161435Z AUTO 05008KT 3SM -SN FEW022 OVC030 M01/M02 A2946 RMK AO2,M
MEV,2023-01-16 14:35,-119.7500,38.9963,1441.42,30.20,30.20,100.00,350.00,13.00,0.00,29.44,M,0.75,M,OVC,M,M,M,300.00,M,M,M,-SN BR,M,M,M,M,M,M,19.26,KMEV 161435Z AUTO 35013KT 3/4SM -SN BR OVC003 M01/M01 A2944 RMK AO2,M
BAM,2023-01-16 14:35,-116.8743,40.5990,1382.36,32.00,26.60,80.22,70.00,10.00,0.00,29.57,M,10.00,M,OVC,M,M,M,6000.00,M,M,M,M,M,M,M,M,M,M,22.97,KBAM 161435Z AUTO 07010KT 10SM OVC060 00/M03 A2957 RMK AO1,M
NFL,2023-01-16 14:36,-118.7010,39.4166,1199.00,32.00,30.90,95.65,40.00,9.00,0.02,29.47,M,2.00,M,OVC,M,M,M,1600.00,M,M,M,-SN BR,M,M,M,M,M,M,23.51,KNFL 161436Z AUTO 04009KT 2SM -SN BR OVC016 00/M01 A2947 RMK AO2 P0002 T00001006,M
RNO,2023-01-16 14:42,-119.7711,39.4839,1341.00,32.00,30.00,92.22,330.00,3.00,0.02,29.46,M,1.25,M,BKN,OVC,M,M,500.00,1600.00,M,M,-SN BR,M,M,M,M,M,M,28.69,KRNO 161442Z 33003KT 1 1/4SM -SN BR BKN005 OVC016 00/M01 A2946 RMK AO2 P0002 T00001011,M
TPH,2023-01-16 14:46,-117.0904,38.0505,1654.00,32.00,32.00,100.00,130.00,11.00,T,29.49,M,2.50,M,OVC,M,M,M,1100.00,M,M,M,-SN BR,M,M,M,M,M,M,22.47,KTPH 161446Z AUTO 13011KT 2 1/2SM -SN BR OVC011 00/00 A2949 RMK AO2 P0000 T00000000,M
P68,2023-01-16 14:53,-116.0056,39.6014,1993.00,19.90,17.10,88.68,360.00,3.00,0.01,29.53,1002.60,M,M,M,M,M,M,M,M,M,M,M,M,M,M,M,M,M,14.86,KP68 161453Z AUTO 36003KT M07/M08 A2953 RMK AO1 SLP026 P0001 60003 T10671083 58009,M
ELY,2023-01-16 14:53,-114.8453,39.2950,1909.00,26.10,24.10,92.01,200.00,8.00,0.01,29.56,1002.60,8.00,M,OVC,M,M,M,5500.00,M,M,M,-SN,M,M,M,M,M,M,16.85,KELY 161453Z AUTO 20008KT 8SM -SN OVC055 M03/M04 A2956 RMK AO2 SLP026 P0001 60004 T10331044 58008,M
LOL,2023-01-16 14:53,-118.5701,40.0684,1192.43,33.00,30.90,91.51,30.00,10.00,0.00,29.50,999.90,10.00,M,OVC,M,M,M,6500.00,M,M,M,M,M,M,M,M,M,M,24.35,KLOL 161453Z AUTO 03010KT 10SM OVC065 01/M01 A2950 RMK AO2 SLP999 60000 T00061006 56014,M
VGT,2023-01-16 14:53,-115.1933,36.2111,667.00,47.00,44.00,89.92,0.00,0.00,0.01,29.65,1005.70,10.00,M,FEW,OVC,M,M,900.00,1800.00,M,M,M,M,M,M,M,M,M,46.90,KVGT 161453Z 00000KT 10SM FEW009 OVC018 08/07 A2965 RMK AO2 RAE36 SLP057 P0001 60004 T00830067 56005,M
TPH,2023-01-16 14:54,-117.0904,38.0505,1654.00,32.00,32.00,100.00,140.00,12.00,T,29.49,M,4.00,M,OVC,M,M,M,1100.00,M,M,M,-SN BR,M,M,M,M,M,M,22.00,KTPH 161454Z AUTO 14012KT 4SM -SN BR OVC011 00/00 A2949 RMK AO2 P0000,M
BVU,2023-01-16 14:55,-114.8611,35.9475,671.00,48.20,44.60,87.28,170.00,12.00,0.00,29.68,M,10.00,M,SCT,OVC,M,M,2600.00,4100.00,M,M,M,M,M,M,M,M,M,42.62,KBVU 161455Z AUTO 17012KT 10SM SCT026 OVC041 09/07 A2968 RMK AO2,M
CXP,2023-01-16 14:55,-119.7326,39.1923,1431.00,32.00,30.20,92.97,40.00,9.00,0.01,29.46,M,0.75,15.00,OVC,M,M,M,300.00,M,M,M,-SN BR,M,M,M,M,M,M,23.51,KCXP 161455Z AUTO 04009G15KT 3/4SM -SN BR OVC003 M00/M01 A2946 RMK AO2 P0001,M
INS,2023-01-16 14:55,-115.6733,36.5872,955.00,41.40,41.20,99.23,110.00,17.00,0.00,29.60,1001.40,10.00,M,BKN,OVC,M,M,4700.00,6000.00,M,M,M,M,M,M,M,M,M,32.39,KINS 161455Z AUTO 11017KT 10SM BKN047 OVC060 05/05 A2960 RMK AO2 SLP014 60000 T00520051 55006 $,M
RNO,2023-01-16 14:55,-119.7711,39.4839,1341.00,32.00,30.00,92.22,320.00,3.00,0.02,29.46,997.40,2.00,M,BKN,OVC,M,M,500.00,1600.00,M,M,-SN BR,M,M,M,M,M,M,28.69,KRNO 161455Z 32003KT 2SM -SN BR BKN005 OVC016 00/M01 A2946 RMK AO2 SFC VIS 2 1/2 SLP974 P0002 60005 T00001011 56012,M
RTS,2023-01-16 14:55,-119.8764,39.6682,1539.00,30.20,28.40,92.92,40.00,8.00,0.00,29.46,M,3.00,M,FEW,OVC,M,M,2100.00,3000.00,M,M,-SN,M,M,M,M,M,M,21.90,KRTS 161455Z AUTO 04008KT 3SM -SN FEW021 OVC030 M01/M02 A2946 RMK AO2,M
05U,2023-01-16 14:55,-116.0051,39.6042,1811.23,19.40,17.60,92.57,0.00,0.00,0.00,29.56,M,8.00,M,M,M,M,M,M,M,M,M,M,M,M,M,M,M,M,19.40,K05U 161455Z AUTO 00000KT 8SM M07/M08 A2956 RMK A01,M
MEV,2023-01-16 14:55,-119.7500,38.9963,1441.42,30.20,30.20,100.00,350.00,12.00,0.01,29.43,M,0.50,44.00,OVC,M,M,M,300.00,M,M,M,-SN FZFG,M,M,M,M,M,M,19.71,KMEV 161455Z AUTO 35012G44KT 1/2SM -SN FZFG OVC003 M01/M01 A2943 RMK AO2 P0001,M
BAM,2023-01-16 14:55,-116.8743,40.5990,1382.36,32.00,26.60,80.22,60.00,10.00,0.00,29.57,M,10.00,M,OVC,M,M,M,6000.00,M,M,M,M,M,M,M,M,M,M,22.97,KBAM 161455Z AUTO 06010KT 10SM OVC060 00/M03 A2957 RMK AO1,M
LSV,2023-01-16 14:55,-115.0343,36.2362,570.00,47.70,47.30,98.51,180.00,11.00,T,29.64,1003.30,10.00,M,BKN,BKN,M,M,2300.00,3100.00,M,M,M,M,M,M,M,M,M,42.31,KLSV 161455Z AUTO 18011KT 10SM BKN023 BKN031 09/09 A2964 RMK AO2 RAE04 SLP033 P0000 60000 T00870085 57004 $,M
EKO,2023-01-16 14:56,-115.7860,40.8242,1367.00,21.90,19.00,88.40,100.00,3.00,0.00,29.59,1004.20,10.00,M,SCT,OVC,M,M,6000.00,8000.00,M,M,M,M,M,M,M,M,M,17.14,KEKO 161456Z AUTO 10003KT 10SM SCT060 OVC080 M06/M07 A2959 RMK AO2 SLP042 T10561072 58006,M
WMC,2023-01-16 14:56,-117.8072,40.9019,1315.00,30.90,27.00,85.26,40.00,14.00,0.00,29.53,1000.50,10.00,23.00,CLR,M,M,M,M,M,M,M,M,M,M,M,M,M,M,19.74,KWMC 161456Z AUTO 04014G23KT 10SM CLR M01/M03 A2953 RMK AO2 SLP005 T10061028 56013 $,M
NFL,2023-01-16 14:56,-118.7010,39.4166,1199.00,32.00,30.90,95.65,40.00,7.00,0.02,29.46,996.80,3.00,M,OVC,M,M,M,2400.00,M,M,M,-SN BR,M,M,M,M,M,M,24.78,KNFL 161456Z AUTO 04007KT 3SM -SN BR OVC024 00/M01 A2946 RMK AO2 SLP968 P0002 60003 T00001006 58008,M
TPH,2023-01-16 14:56,-117.0904,38.0505,1654.00,32.00,32.00,100.00,140.00,12.00,T,29.49,998.40,5.00,M,OVC,M,M,M,1100.00,M,M,M,-SN BR,M,M,M,M,M,M,22.00,KTPH 161456Z AUTO 14012KT 5SM -SN BR OVC011 00/00 A2949 RMK AO2 SLP984 P0000 60001 T00000000 56007,M
LAS,2023-01-16 14:56,-115.1634,36.0719,663.00,45.00,42.00,89.49,280.00,3.00,0.01,29.66,1004.00,10.00,M,FEW,BKN,OVC,M,1100.00,4500.00,8000.00,M,M,M,M,M,M,M,M,43.55,KLAS 161456Z 28003KT 10SM FEW011 BKN045 OVC080 07/06 A2966 RMK AO2 RAB1357E16 SLP040 P0001 60002 T00720056 57002,M
HND,2023-01-16 14:56,-115.1344,35.9729,742.79,47.00,42.00,83.28,170.00,12.00,T,29.67,1006.40,10.00,M,FEW,SCT,OVC,M,2000.00,4000.00,6500.00,M,M,M,M,M,M,M,M,40.97,KHND 161456Z 17012KT 10SM FEW020 SCT040 OVC065 08/06 A2967 RMK AO2 RAE15 SLP064 P0000 60000 T00830056 56002,M
05U,2023-01-16 15:00,-116.0051,39.6042,1811.23,19.40,17.60,92.57,150.00,4.00,0.00,29.55,M,10.00,M,M,M,M,M,M,M,M,M,M,M,M,M,M,M,M,12.71,K05U 161500Z AUTO 15004KT 10SM M07/M08 A2955 RMK A01,M
RNO,2023-01-16 15:03,-119.7711,39.4839,1341.00,32.00,30.90,95.65,0.00,0.00,T,29.46,M,2.00,M,BKN,OVC,M,M,1400.00,2600.00,M,M,-SN BR,M,M,M,M,M,M,32.00,KRNO 161503Z 00000KT 2SM -SN BR BKN014 OVC026 00/M01 A2946 RMK AO2 P0000 T00001006,M
NFL,2023-01-16 15:08,-118.7010,39.4166,1199.00,33.00,30.90,91.51,30.00,6.00,T,29.46,M,4.00,M,OVC,M,M,M,3200.00,M,M,M,-SN BR,M,M,M,M,M,M,26.86,KNFL 161508Z AUTO 03006KT 4SM -SN BR OVC032 01/M01 A2946 RMK AO2 P0000 T00061006,M
BVU,2023-01-16 15:15,-114.8611,35.9475,671.00,48.20,44.60,87.28,170.00,11.00,0.00,29.68,M,10.00,M,SCT,SCT,OVC,M,2600.00,3600.00,4300.00,M,M,M,M,M,M,M,M,42.94,KBVU 161515Z AUTO 17011KT 10SM SCT026 SCT036 OVC043 09/07 A2968 RMK AO2,M
CXP,2023-01-16 15:15,-119.7326,39.1923,1431.00,32.00,28.40,86.39,40.00,7.00,0.00,29.47,M,0.25,16.00,OVC,M,M,M,300.00,M,M,M,SN FZFG,M,M,M,M,M,M,24.78,KCXP 161515Z AUTO 04007G16KT 1/4SM SN FZFG OVC003 M00/M02 A2947 RMK AO2,M
RTS,2023-01-16 15:15,-119.8764,39.6682,1539.00,30.20,26.60,86.28,50.00,8.00,0.00,29.46,M,6.00,M,OVC,M,M,M,3000.00,M,M,M,-SN,M,M,M,M,M,M,21.90,KRTS 161515Z AUTO 05008KT 6SM -SN OVC030 M01/M03 A2946 RMK AO2,M
MEV,2023-01-16 15:15,-119.7500,38.9963,1441.42,30.20,30.20,100.00,M,M,0.00,29.43,M,0.25,M,OVC,M,M,M,300.00,M,M,M,SN FZFG,M,M,M,M,M,M,M,KMEV 161515Z AUTO 1/4SM SN FZFG OVC003 M01/M01 A2943 RMK AO2,M
BAM,2023-01-16 15:15,-116.8743,40.5990,1382.36,32.00,26.60,80.22,60.00,12.00,0.00,29.56,M,10.00,16.00,BKN,BKN,OVC,M,6000.00,7000.00,8500.00,M,M,M,M,M,M,M,M,22.00,KBAM 161515Z AUTO 06012G16KT 10SM BKN060 BKN070 OVC085 00/M03 A2956 RMK AO1,M
LSV,2023-01-16 15:22,-115.0343,36.2362,570.00,48.20,48.20,100.00,220.00,6.00,0.00,29.64,1003.30,10.00,M,BKN,OVC,M,M,2300.00,3900.00,M,M,-RA,M,M,M,M,M,M,45.04,KLSV 161522Z AUTO 22006KT 10SM -RA BKN023 OVC039 09/09 A2964 RMK AO2 RAB22 SLP033 $,M
ELY,2023-01-16 15:26,-114.8453,39.2950,1909.00,27.00,25.00,92.05,90.00,4.00,T,29.56,M,2.50,M,SCT,BKN,OVC,M,1000.00,2900.00,7000.00,M,-SN BR,M,M,M,M,M,M,21.58,KELY 161526Z AUTO 09004KT 2 1/2SM -SN BR SCT010 BKN029 OVC070 M03/M04 A2956 RMK AO2 P0000 T10281039,M
LSV,2023-01-16 15:27,-115.0343,36.2362,570.00,48.20,48.20,100.00,230.00,5.00,0.00,29.64,1003.30,10.00,M,SCT,BKN,M,M,2200.00,4100.00,M,M,-RA,M,M,M,M,M,M,45.63,KLSV 161527Z AUTO 23005KT 10SM -RA SCT022 BKN041 09/09 A2964 RMK AO2 RAB22 SLP033 $,M
ELY,2023-01-16 15:30,-114.8453,39.2950,1909.00,27.00,25.00,92.05,130.00,3.00,T,29.56,M,1.75,M,BKN,BKN,OVC,M,1000.00,2900.00,4600.00,M,-SN BR,M,M,M,M,M,M,22.97,KELY 161530Z AUTO 13003KT 1 3/4SM -SN BR BKN010 BKN029 OVC046 M03/M04 A2956 RMK AO2 P0000 T10281039,M
05U,2023-01-16 15:30,-116.0051,39.6042,1811.23,21.20,19.40,92.63,M,M,0.00,29.55,M,10.00,M,M,M,M,M,M,M,M,M,M,M,M,M,M,M,M,M,K05U 161530Z AUTO 10SM M06/M07 A2955 RMK A01,M
ELY,2023-01-16 15:32,-114.8453,39.2950,1909.00,27.00,25.00,92.05,110.00,3.00,T,29.56,M,1.25,M,BKN,BKN,OVC,M,800.00,1100.00,4600.00,M,-SN BR,M,M,M,M,M,M,22.97,KELY 161532Z AUTO 11003KT 1 1/4SM -SN BR BKN008 BKN011 OVC046 M03/M04 A2956 RMK AO2 P0000 T10281039,M
LSV,2023-01-16 15:34,-115.0343,36.2362,570.00,48.20,46.40,93.45,240.00,3.00,0.00,29.64,1003.30,10.00,M,SCT,BKN,BKN,M,2200.00,4100.00,4900.00,M,M,M,M,M,M,M,M,47.21,KLSV 161534Z AUTO 24003KT 10SM SCT022 BKN041 BKN049 09/08 A2964 RMK AO2 RAB22E34 SLP033 $,M
BVU,2023-01-16 15:35,-114.8611,35.9475,671.00,48.20,44.60,87.28,170.00,15.00,0.00,29.68,M,10.00,M,BKN,BKN,OVC,M,2700.00,3300.00,4400.00,M,M,M,M,M,M,M,M,41.78,KBVU 161535Z AUTO 17015KT 10SM BKN027 BKN033 OVC044 09/07 A2968 RMK AO2,M
CXP,2023-01-16 15:35,-119.7326,39.1923,1431.00,32.00,28.40,86.39,30.00,12.00,0.00,29.46,M,0.25,20.00,OVC,M,M,M,300.00,M,M,M,+SN FZFG,M,M,M,M,M,M,22.00,KCXP 161535Z AUTO 03012G20KT M1/4SM +SN FZFG OVC003 M00/M02 A2946 RMK AO2,M
RTS,2023-01-16 15:35,-119.8764,39.6682,1539.00,30.20,26.60,86.28,50.00,5.00,0.00,29.46,M,5.00,M,FEW,OVC,M,M,1100.00,3000.00,M,M,-SN,M,M,M,M,M,M,24.26,KRTS 161535Z AUTO 05005KT 5SM -SN FEW011 OVC030 M01/M03 A2946 RMK AO2,M
MEV,2023-01-16 15:35,-119.7500,38.9963,1441.42,30.20,30.20,100.00,350.00,14.00,0.00,29.42,M,0.25,M,OVC,M,M,M,300.00,M,M,M,+SN FZFG,M,M,M,M,M,M,18.84,KMEV 161535Z AUTO 35014KT M1/4SM +SN FZFG OVC003 M01/M01 A2942 RMK AO2,M
BAM,2023-01-16 15:35,-116.8743,40.5990,1382.36,32.00,26.60,80.22,60.00,13.00,0.00,29.56,M,10.00,M,SCT,SCT,OVC,M,6000.00,7500.00,10000.00,M,M,M,M,M,M,M,M,21.57,KBAM 161535Z AUTO 06013KT 10SM SCT060 SCT075 OVC100 00/M03 A2956 RMK AO1,M
TPH,2023-01-16 15:35,-117.0904,38.0505,1654.00,33.00,32.00,95.67,130.00,10.00,T,29.49,M,1.75,M,OVC,M,M,M,1100.00,M,M,M,-SN BR,M,M,M,M,M,M,24.35,KTPH 161535Z AUTO 13010KT 1 3/4SM -SN BR OVC011 01/00 A2949 RMK AO2 SNE08B25 P0000 T00060000,M
RNO,2023-01-16 15:38,-119.7711,39.4839,1341.00,33.00,30.90,86.49,300.00,3.00,0.01,29.46,M,1.50,M,OVC,M,M,M,1600.00,M,M,M,-SN BR,M,M,M,M,M,M,30.75,KRNO 161538Z 30003KT 1 1/2SM -SN BR OVC016 01/M01 A2946 RMK AO2 P0001 T00061006,M
NFL,2023-01-16 15:39,-118.7010,39.4166,1199.00,32.00,30.90,95.65,20.00,8.00,T,29.46,M,2.00,M,FEW,OVC,M,M,2000.00,2800.00,M,M,-SN BR,M,M,M,M,M,M,24.11,KNFL 161539Z AUTO 02008KT 2SM -SN BR FEW020 OVC028 00/M01 A2946 RMK AO2 P0000 T00001006,M
ELY,2023-01-16 15:41,-114.8453,39.2950,1909.00,26.10,25.00,95.53,40.00,6.00,T,29.56,M,0.75,M,OVC,M,M,M,800.00,M,M,M,-SN BR,M,M,M,M,M,M,18.42,KELY 161541Z AUTO 04006KT 3/4SM -SN BR OVC008 M03/M04 A2956 RMK AO2 P0000 T10331039,M
LSV,2023-01-16 15:44,-115.0343,36.2362,570.00,48.20,46.40,93.45,210.00,5.00,0.00,29.64,1003.30,10.00,M,FEW,SCT,SCT,M,2200.00,4100.00,4900.00,M,M,M,M,M,M,M,M,45.63,KLSV 161544Z AUTO 21005KT 10SM FEW022 SCT041 SCT049 09/08 A2964 RMK AO2 RAB22E34 SLP033 $,M
TPH,2023-01-16 15:45,-117.0904,38.0505,1654.00,33.00,32.00,95.67,130.00,11.00,T,29.49,M,0.75,M,VV ,M,M,M,900.00,M,M,M,-SN BR,M,M,M,M,M,M,23.86,KTPH 161545Z AUTO 13011KT 3/4SM -SN BR VV009 01/00 A2949 RMK AO2 SNE08B25 P0000 T00060000,M
VGT,2023-01-16 15:45,-115.1933,36.2111,667.00,47.00,45.00,93.06,0.00,0.00,T,29.66,M,9.00,M,SCT,SCT,OVC,M,1500.00,3600.00,9000.00,M,-RA,M,M,M,M,M,M,46.90,KVGT 161545Z 00000KT 9SM -RA SCT015 SCT036 OVC090 08/07 A2966 RMK AO2 RAB23 P0000 T00830072,M
RNO,2023-01-16 15:45,-119.7711,39.4839,1341.00,33.00,30.90,91.51,0.00,0.00,0.01,29.46,M,1.00,M,OVC,M,M,M,1400.00,M,M,M,-SN BR,M,M,M,M,M,M,33.10,KRNO 161545Z 00000KT 1SM -SN BR OVC014 01/M01 A2946 RMK AO2 TWR VIS 1 1/2 P0001 T00061006 RVRNO,M
P68,2023-01-16 15:53,-116.0056,39.6014,1993.00,19.90,17.10,88.68,70.00,4.00,0.00,29.52,1002.90,M,M,M,M,M,M,M,M,M,M,M,M,M,M,M,M,M,13.29,KP68 161553Z AUTO 07004KT M07/M08 A2952 RMK AO1 SLP029 T10671083,M
ELY,2023-01-16 15:53,-114.8453,39.2950,1909.00,24.10,23.00,95.49,40.00,8.00,T,29.56,1002.50,1.00,M,OVC,M,M,M,800.00,M,M,M,-SN BR,M,M,M,M,M,M,14.38,KELY 161553Z AUTO 04008KT 1SM -SN BR OVC008 M04/M05 A2956 RMK AO2 SLP025 P0000 T10441050,M
LOL,2023-01-16 15:53,-118.5701,40.0684,1192.43,33.00,30.90,91.51,40.00,12.00,0.00,29.49,999.60,10.00,M,OVC,M,M,M,4500.00,M,M,M,M,M,M,M,M,M,M,23.40,KLOL 161553Z AUTO 04012KT 10SM OVC045 01/M01 A2949 RMK AO2 SLP996 T00061006,M
VGT,2023-01-16 15:53,-115.1933,36.2111,667.00,47.00,44.00,89.92,0.00,0.00,T,29.66,1005.80,10.00,M,FEW,FEW,OVC,M,1500.00,4200.00,9000.00,M,-RA,M,M,M,M,M,M,46.90,KVGT 161553Z 00000KT 10SM -RA FEW015 FEW042 OVC090 08/07 A2966 RMK AO2 RAB23 SLP058 P0000 T00830067,M
NFL,2023-01-16 15:54,-118.7010,39.4166,1199.00,32.00,30.20,92.97,20.00,8.00,T,29.46,M,1.25,M,OVC,M,M,M,2000.00,M,M,M,BR,M,M,M,M,M,M,24.11,KNFL 161554Z AUTO 02008KT 1 1/4SM BR OVC020 00/M01 A2946 RMK AO2 SNEMM P0000 PWINO $,M
BVU,2023-01-16 15:55,-114.8611,35.9475,671.00,48.20,44.60,87.28,170.00,16.00,0.00,29.67,M,10.00,21.00,SCT,BKN,OVC,M,2800.00,3400.00,4300.00,M,M,M,M,M,M,M,M,41.53,KBVU 161555Z AUTO 17016G21KT 10SM SCT028 BKN034 OVC043 09/07 A2967 RMK AO2,M
CXP,2023-01-16 15:55,-119.7326,39.1923,1431.00,32.00,28.40,86.39,40.00,13.00,0.02,29.45,M,0.25,M,OVC,M,M,M,300.00,M,M,M,+SN FZFG,M,M,M,M,M,M,21.57,KCXP 161555Z AUTO 04013KT M1/4SM +SN FZFG OVC003 M00/M02 A2945 RMK AO2 P0002,M
INS,2023-01-16 15:55,-115.6733,36.5872,955.00,42.80,41.70,95.85,130.00,14.00,0.00,29.60,1001.40,10.00,M,FEW,BKN,BKN,M,4900.00,6000.00,8000.00,M,M,M,M,M,M,M,M,35.08,KINS 161555Z AUTO 13014KT 10SM FEW049 BKN060 BKN080 06/05 A2960 RMK AO2 SLP014 T00600054 $,M
LSV,2023-01-16 15:55,-115.0343,36.2362,570.00,47.70,47.30,98.51,240.00,5.00,T,29.64,1003.30,10.00,M,FEW,FEW,M,M,4200.00,4900.00,M,M,M,M,M,M,M,M,M,45.04,KLSV 161555Z AUTO 24005KT 10SM FEW042 FEW049 09/09 A2964 RMK AO2 RAB22E34 SLP033 P0000 T00870085 $,M
RTS,2023-01-16 15:55,-119.8764,39.6682,1539.00,30.20,28.40,92.92,50.00,7.00,0.00,29.47,M,1.00,M,SCT,BKN,OVC,M,300.00,1100.00,3100.00,M,-SN,M,M,M,M,M,M,22.59,KRTS 161555Z AUTO 05007KT 1SM -SN SCT003 BKN011 OVC031 M01/M02 A2947 RMK AO2,M
05U,2023-01-16 15:55,-116.0051,39.6042,1811.23,21.20,19.40,92.63,M,M,0.00,29.55,M,6.00,M,M,M,M,M,M,M,M,M,BR,M,M,M,M,M,M,M,K05U 161555Z AUTO 6SM BR M06/M07 A2955 RMK A01,M
MEV,2023-01-16 15:55,-119.7500,38.9963,1441.42,30.20,30.20,100.00,350.00,15.00,0.02,29.42,M,0.25,M,OVC,M,M,M,300.00,M,M,M,SN FZFG,M,M,M,M,M,M,18.45,KMEV 161555Z AUTO 35015KT 1/4SM SN FZFG OVC003 M01/M01 A2942 RMK AO2 P0002,M
BAM,2023-01-16 15:55,-116.8743,40.5990,1382.36,32.00,26.60,80.22,60.00,10.00,0.00,29.56,M,10.00,M,SCT,BKN,OVC,M,3700.00,7000.00,10000.00,M,M,M,M,M,M,M,M,22.97,KBAM 161555Z AUTO 06010KT 10SM SCT037 BKN070 OVC100 00/M03 A2956 RMK AO1,M
RNO,2023-01-16 15:55,-119.7711,39.4839,1341.00,33.00,30.90,91.51,330.00,3.00,0.02,29.46,997.60,1.00,M,OVC,M,M,M,1400.00,M,M,M,-SN BR,M,M,M,M,M,M,29.95,KRNO 161555Z 33003KT 1SM -SN BR OVC014 01/M01 A2946 RMK AO2 TWR VIS 1 1/2 SLP976 P0002 T00061006 RVRNO,M
EKO,2023-01-16 15:56,-115.7860,40.8242,1367.00,21.90,18.00,84.68,0.00,0.00,0.00,29.58,1004.40,10.00,M,OVC,M,M,M,6000.00,M,M,M,M,M,M,M,M,M,M,21.90,KEKO 161556Z AUTO 00000KT 10SM OVC060 M06/M08 A2958 RMK AO2 SLP044 T10561078,M
WMC,2023-01-16 15:56,-117.8072,40.9019,1315.00,32.00,28.00,84.98,60.00,9.00,0.00,29.52,1000.20,10.00,20.00,BKN,M,M,M,11000.00,M,M,M,M,M,M,M,M,M,M,23.51,KWMC 161556Z AUTO 06009G20KT 10SM BKN110 00/M02 A2952 RMK AO2 SLP002 T00001022 $,M
NFL,2023-01-16 15:56,-118.7010,39.4166,1199.00,32.00,30.90,95.65,30.00,8.00,T,29.46,996.70,1.25,M,OVC,M,M,M,2000.00,M,M,M,BR,M,M,M,M,M,M,24.11,KNFL 161556Z AUTO 03008KT 1 1/4SM BR OVC020 00/M01 A2946 RMK AO2 SNEMM SLP967 P0000 T00001006 PWINO $,M
HND,2023-01-16 15:56,-115.1344,35.9729,742.79,45.00,42.00,89.49,210.00,6.00,0.01,29.67,1006.60,10.00,M,FEW,BKN,OVC,M,4800.00,6000.00,8000.00,M,M,M,M,M,M,M,M,41.19,KHND 161556Z 21006KT 10SM FEW048 BKN060 OVC080 07/06 A2967 RMK AO2 RAB1458E44 SLP066 P0001 T00720056,M
LAS,2023-01-16 15:56,-115.1634,36.0719,663.00,45.00,42.00,89.49,270.00,3.00,0.01,29.66,1003.90,10.00,M,FEW,SCT,BKN,M,1200.00,6000.00,8000.00,M,M,M,M,M,M,M,M,43.55,KLAS 161556Z 27003KT 10SM FEW012 SCT060 BKN080 07/06 A2966 RMK AO2 RAB12E29 SLP039 P0001 T00720056,M
TPH,2023-01-16 15:56,-117.0904,38.0505,1654.00,33.00,32.00,95.67,120.00,11.00,T,29.48,998.20,0.75,M,VV ,M,M,M,900.00,M,M,M,-SN BR,M,M,M,M,M,M,23.86,KTPH 161556Z AUTO 12011KT 3/4SM -SN BR VV009 01/00 A2948 RMK AO2 SNE08B25 SLP982 P0000 T00060000,M
LSV,2023-01-16 15:57,-115.0343,36.2362,570.00,48.20,48.20,100.00,250.00,5.00,0.00,29.64,1003.30,10.00,M,FEW,FEW,M,M,4200.00,4900.00,M,M,-RA,M,M,M,M,M,M,45.63,KLSV 161557Z AUTO 25005KT 10SM -RA FEW042 FEW049 09/09 A2964 RMK AO2 RAB57 SLP033 $,M
ELY,2023-01-16 16:03,-114.8453,39.2950,1909.00,24.10,21.90,91.17,40.00,8.00,0.01,29.56,M,0.50,M,OVC,M,M,M,700.00,M,M,M,SN FZFG,M,M,M,M,M,M,14.38,KELY 161603Z AUTO 04008KT 1/2SM SN FZFG OVC007 M04/M06 A2956 RMK AO2 P0001 T10441056,M
TPH,2023-01-16 16:06,-117.0904,38.0505,1654.00,33.00,32.00,95.67,120.00,11.00,0.01,29.48,M,1.50,M,OVC,M,M,M,800.00,M,M,M,-SN BR,M,M,M,M,M,M,23.86,KTPH 161606Z AUTO 12011KT 1 1/2SM -SN BR OVC008 01/00 A2948 RMK AO2 P0001 T00060000,M
LSV,2023-01-16 16:06,-115.0343,36.2362,570.00,48.20,48.20,100.00,250.00,4.00,0.00,29.64,1003.30,10.00,M,FEW,M,M,M,5000.00,M,M,M,M,M,M,M,M,M,M,46.34,KLSV 161606Z AUTO 25004KT 10SM FEW050 09/09 A2964 RMK AO2 RAB1557E06 SLP033 $,M
NFL,2023-01-16 16:14,-118.7010,39.4166,1199.00,32.00,30.90,95.65,30.00,8.00,0.01,29.47,M,1.00,M,VV ,M,M,M,1400.00,M,M,M,BR,M,M,M,M,M,M,24.11,KNFL 161614Z AUTO 03008KT 1SM BR VV014 00/M01 A2947 RMK AO2 P0001 T00001006 PWINO $,M
BVU,2023-01-16 16:15,-114.8611,35.9475,671.00,50.00,44.60,81.61,170.00,15.00,0.00,29.68,M,10.00,M,FEW,OVC,M,M,3000.00,4300.00,M,M,M,M,M,M,M,M,M,50.00,KBVU 161615Z AUTO 17015KT 10SM FEW030 OVC043 10/07 A2968 RMK AO2,M
CXP,2023-01-16 16:15,-119.7326,39.1923,1431.00,32.00,28.40,86.39,40.00,11.00,0.00,29.45,M,0.25,19.00,OVC,M,M,M,300.00,M,M,M,SN FZFG,M,M,M,M,M,M,22.47,KCXP 161615Z AUTO 04011G19KT 1/4SM SN FZFG OVC003 M00/M02 A2945 RMK AO2,M
RTS,2023-01-16 16:15,-119.8764,39.6682,1539.00,30.20,28.40,92.92,50.00,9.00,0.00,29.47,M,0.75,M,BKN,OVC,M,M,300.00,2300.00,M,M,-SN,M,M,M,M,M,M,21.28,KRTS 161615Z AUTO 05009KT 3/4SM -SN BKN003 OVC023 M01/M02 A2947 RMK AO2,M
05U,2023-01-16 16:15,-116.0051,39.6042,1811.23,21.20,19.40,92.63,0.00,0.00,0.00,29.55,M,2.00,M,M,M,M,M,M,M,M,M,BR,M,M,M,M,M,M,21.20,K05U 161615Z AUTO 00000KT 2SM BR M06/M07 A2955 RMK A01,M
MEV,2023-01-16 16:15,-119.7500,38.9963,1441.42,30.20,30.20,100.00,340.00,15.00,0.00,29.42,M,4.00,M,SCT,BKN,M,M,400.00,4400.00,M,M,UP BR,M,M,M,M,M,M,18.45,KMEV 161615Z AUTO 34015KT 4SM UP BR SCT004 BKN044 M01/M01 A2942 RMK AO2,M
BAM,2023-01-16 16:15,-116.8743,40.5990,1382.36,32.00,28.40,86.39,50.00,11.00,0.00,29.56,M,10.00,M,SCT,BKN,OVC,M,3500.00,4800.00,10000.00,M,M,M,M,M,M,M,M,22.47,KBAM 161615Z AUTO 05011KT 10SM SCT035 BKN048 OVC100 00/M02 A2956 RMK AO1,M
LOL,2023-01-16 16:24,-118.5701,40.0684,1192.43,33.00,30.90,91.51,30.00,13.00,T,29.50,M,2.50,M,OVC,M,M,M,2700.00,M,M,M,-SN BR,M,M,M,M,M,M,22.98,KLOL 161624Z AUTO 03013KT 2 1/2SM -SN BR OVC027 01/M01 A2950 RMK AO2 SNB15 P0000 T00061006,M
NFL,2023-01-16 16:25,-118.7010,39.4166,1199.00,32.00,30.90,95.65,30.00,7.00,0.01,29.47,M,1.25,M,BKN,OVC,M,M,1600.00,2400.00,M,M,BR,M,M,M,M,M,M,24.78,KNFL 161625Z AUTO 03007KT 1 1/4SM BR BKN016 OVC024 00/M01 A2947 RMK AO2 P0001 T00001006 PWINO $,M
05U,2023-01-16 16:30,-116.0051,39.6042,1811.23,21.20,19.40,92.63,50.00,3.00,0.00,29.54,M,1.25,M,M,M,M,M,M,M,M,M,BR,M,M,M,M,M,M,16.34,K05U 161630Z AUTO 05003KT 1 1/4SM BR M06/M07 A2954 RMK A01,M
BVU,2023-01-16 16:35,-114.8611,35.9475,671.00,50.00,44.60,81.61,160.00,17.00,0.00,29.68,M,10.00,M,FEW,OVC,M,M,2900.00,4300.00,M,M,M,M,M,M,M,M,M,50.00,KBVU 161635Z AUTO 16017KT 10SM FEW029 OVC043 10/07 A2968 RMK AO2,M
CXP,2023-01-16 16:35,-119.7326,39.1923,1431.00,32.00,28.40,86.39,50.00,7.00,0.00,29.46,M,0.50,15.00,BKN,M,M,M,300.00,M,M,M,-SN BR,M,M,M,M,M,M,24.78,KCXP 161635Z AUTO 05007G15KT 1/2SM -SN BR BKN003 M00/M02 A2946 RMK AO2,M
RTS,2023-01-16 16:35,-119.8764,39.6682,1539.00,30.20,28.40,92.92,50.00,11.00,0.00,29.46,M,0.75,M,BKN,M,M,M,300.00,M,M,M,-SN,M,M,M,M,M,M,20.19,KRTS 161635Z AUTO 05011KT 3/4SM -SN BKN003 M01/M02 A2946 RMK AO2,M
MEV,2023-01-16 16:35,-119.7500,38.9963,1441.42,30.20,30.20,100.00,350.00,16.00,0.00,29.43,M,9.00,M,SCT,BKN,BKN,M,2100.00,2800.00,3900.00,M,UP,M,M,M,M,M,M,18.07,KMEV 161635Z AUTO 35016KT 9SM UP SCT021 BKN028 BKN039 M01/M01 A2943 RMK AO2,M
BAM,2023-01-16 16:35,-116.8743,40.5990,1382.36,32.00,28.40,86.39,60.00,10.00,0.00,29.56,M,10.00,14.00,SCT,OVC,M,M,3700.00,5000.00,M,M,M,M,M,M,M,M,M,22.97,KBAM 161635Z AUTO 06010G14KT 10SM SCT037 OVC050 00/M02 A2956 RMK AO1,M
TPH,2023-01-16 16:35,-117.0904,38.0505,1654.00,33.00,33.00,100.00,130.00,10.00,0.01,29.48,M,2.50,M,OVC,M,M,M,800.00,M,M,M,-SN BR,M,M,M,M,M,M,24.35,KTPH 161635Z AUTO 13010KT 2 1/2SM -SN BR OVC008 01/01 A2948 RMK AO2 P0001 T00060006,M
ELY,2023-01-16 16:40,-114.8453,39.2950,1909.00,25.00,23.00,92.74,40.00,8.00,0.03,29.56,M,1.00,M,OVC,M,M,M,1000.00,M,M,M,-SN BR,M,M,M,M,M,M,15.24,KELY 161640Z AUTO 04008KT 1SM -SN BR OVC010 M04/M05 A2956 RMK AO2 P0003 T10391050,M
LOL,2023-01-16 16:42,-118.5701,40.0684,1192.43,33.00,30.90,91.51,20.00,12.00,T,29.50,M,4.00,M,OVC,M,M,M,2800.00,M,M,M,-SN BR,M,M,M,M,M,M,23.40,KLOL 161642Z AUTO 02012KT 4SM -SN BR OVC028 01/M01 A2950 RMK AO2 SNB15 P0000 T00061006,M
TPH,2023-01-16 16:48,-117.0904,38.0505,1654.00,33.00,33.00,100.00,140.00,11.00,0.01,29.48,M,6.00,M,OVC,M,M,M,700.00,M,M,M,-SN BR,M,M,M,M,M,M,23.86,KTPH 161648Z AUTO 14011KT 6SM -SN BR OVC007 01/01 A2948 RMK AO2 P0001 T00060006,M
05U,2023-01-16 16:50,-116.0051,39.6042,1811.23,23.00,19.40,85.85,M,M,0.00,29.55,M,10.00,M,M,M,M,M,M,M,M,M,M,M,M,M,M,M,M,M,K05U 161650Z AUTO 10SM M05/M07 A2955 RMK A01,M
ELY,2023-01-16 16:51,-114.8453,39.2950,1909.00,24.80,23.00,92.74,40.00,8.00,0.03,29.56,M,1.25,M,BKN,OVC,M,M,900.00,1400.00,M,M,-SN BR,M,M,M,M,M,M,15.24,KELY 161651Z AUTO 04008KT 1 1/4SM -SN BR BKN009 OVC014 M04/M05 A2956 RMK AO2 P0003,M
P68,2023-01-16 16:53,-116.0056,39.6014,1993.00,21.90,18.00,84.68,50.00,3.00,0.01,29.52,1002.50,M,M,M,M,M,M,M,M,M,M,M,M,M,M,M,M,M,17.14,KP68 161653Z AUTO 05003KT M06/M08 A2952 RMK AO1 SLP025 P0001 T10561078,M
ELY,2023-01-16 16:53,-114.8453,39.2950,1909.00,25.00,23.00,91.97,40.00,8.00,0.03,29.56,1002.50,1.25,M,BKN,OVC,M,M,900.00,1400.00,M,M,-SN BR,M,M,M,M,M,M,15.49,KELY 161653Z AUTO 04008KT 1 1/4SM -SN BR BKN009 OVC014 M04/M05 A2956 RMK AO2 SLP025 P0003 T10391050,M
VGT,2023-01-16 16:53,-115.1933,36.2111,667.00,48.00,43.00,82.72,160.00,5.00,T,29.65,1005.50,10.00,M,FEW,SCT,OVC,M,4500.00,7000.00,9000.00,M,M,M,M,M,M,M,M,45.40,KVGT 161653Z 16005KT 10SM FEW045 SCT070 OVC090 09/06 A2965 RMK AO2 RAE11 SLP055 P0000 T00890061,M
LOL,2023-01-16 16:53,-118.5701,40.0684,1192.43,33.00,30.90,91.51,30.00,12.00,T,29.51,1000.10,3.00,M,OVC,M,M,M,2900.00,M,M,M,-SN BR,M,M,M,M,M,M,23.40,KLOL 161653Z AUTO 03012KT 3SM -SN BR OVC029 01/M01 A2951 RMK AO2 SNB15 SLP001 P0000 T00061006,M
BVU,2023-01-16 16:55,-114.8611,35.9475,671.00,48.20,46.40,93.45,150.00,14.00,0.00,29.69,M,10.00,20.00,BKN,BKN,OVC,M,2200.00,3000.00,4200.00,M,M,M,M,M,M,M,M,42.04,KBVU 161655Z AUTO 15014G20KT 10SM BKN022 BKN030 OVC042 09/08 A2969 RMK AO2,M
CXP,2023-01-16 16:55,-119.7326,39.1923,1431.00,32.00,28.40,86.39,M,6.00,0.00,29.47,M,1.25,13.00,CLR,M,M,M,M,M,M,M,-SN BR,M,M,M,M,M,M,25.53,KCXP 161655Z AUTO VRB06G13KT 1 1/4SM -SN BR CLR M00/M02 A2947 RMK AO2 VIS 1V2,M
INS,2023-01-16 16:55,-115.6733,36.5872,955.00,44.00,42.60,95.14,120.00,20.00,0.00,29.59,1001.00,10.00,M,BKN,OVC,M,M,5000.00,6000.00,M,M,M,M,M,M,27.00,130.00,2023-01-16 16:12,34.94,KINS 161655Z AUTO 12020KT 10SM BKN050 OVC060 07/06 A2959 RMK AO2 PK WND 13027/12 SLP010 T00660059 $,M
RNO,2023-01-16 16:55,-119.7711,39.4839,1341.00,32.00,30.90,95.65,340.00,3.00,0.04,29.46,997.70,1.00,M,OVC,M,M,M,1300.00,M,M,M,-SN BR,M,M,M,M,M,M,28.69,KRNO 161655Z 34003KT 1SM -SN BR OVC013 00/M01 A2946 RMK AO2 TWR VIS 1 1/2 SLP977 P0004 T00001006 RVRNO,M
RTS,2023-01-16 16:55,-119.8764,39.6682,1539.00,30.20,28.40,92.92,40.00,9.00,0.00,29.46,M,0.75,14.00,VV ,M,M,M,500.00,M,M,M,-SN,M,M,M,M,M,M,21.28,KRTS 161655Z AUTO 04009G14KT 3/4SM -SN VV005 M01/M02 A2946 RMK AO2,M
MEV,2023-01-16 16:55,-119.7500,38.9963,1441.42,30.20,30.20,100.00,350.00,16.00,0.00,29.44,M,2.50,21.00,FEW,FEW,M,M,2100.00,2900.00,M,M,-SN BR,M,M,M,M,M,M,18.07,KMEV 161655Z AUTO 35016G21KT 2 1/2SM -SN BR FEW021 FEW029 M01/M01 A2944 RMK AO2 VIS 1 1/4V5,M
BAM,2023-01-16 16:55,-116.8743,40.5990,1382.36,33.80,28.40,80.36,70.00,10.00,0.00,29.56,M,10.00,M,SCT,BKN,OVC,M,2600.00,3700.00,9000.00,M,M,M,M,M,M,M,M,25.23,KBAM 161655Z AUTO 07010KT 10SM SCT026 BKN037 OVC090 01/M02 A2956 RMK AO1,M
LSV,2023-01-16 16:55,-115.0343,36.2362,570.00,50.70,50.40,98.89,0.00,0.00,T,29.64,1003.30,10.00,M,SCT,M,M,M,4900.00,M,M,M,M,M,M,M,M,M,M,50.70,KLSV 161655Z AUTO 00000KT 10SM SCT049 10/10 A2964 RMK AO2 RAB1557E06 SLP033 P0000 T01040102 $,M
EKO,2023-01-16 16:56,-115.7860,40.8242,1367.00,25.00,21.00,84.53,0.00,0.00,0.00,29.57,1003.90,10.00,M,OVC,M,M,M,6500.00,M,M,M,M,M,M,M,M,M,M,25.00,KEKO 161656Z AUTO 00000KT 10SM OVC065 M04/M06 A2957 RMK AO2 SLP039 T10391061,M
WMC,2023-01-16 16:56,-117.8072,40.9019,1315.00,34.00,27.00,75.26,40.00,14.00,0.00,29.52,1000.00,10.00,23.00,OVC,M,M,M,11000.00,M,M,M,M,M,M,M,M,M,M,23.74,KWMC 161656Z AUTO 04014G23KT 10SM OVC110 01/M03 A2952 RMK AO2 SLP000 T00111028 $,M
NFL,2023-01-16 16:56,-118.7010,39.4166,1199.00,32.00,32.00,100.00,30.00,7.00,0.02,29.46,996.70,1.75,M,BKN,OVC,M,M,2900.00,4600.00,M,M,BR,M,M,M,M,M,M,24.78,KNFL 161656Z AUTO 03007KT 1 3/4SM BR BKN029 OVC046 00/00 A2946 RMK AO2 SLP967 P0002 T00000000 PWINO $,M
LAS,2023-01-16 16:56,-115.1634,36.0719,663.00,49.00,43.00,79.98,170.00,3.00,T,29.65,1003.70,10.00,M,FEW,SCT,BKN,M,1200.00,5000.00,8000.00,M,M,M,M,M,M,M,M,48.01,KLAS 161656Z 17003KT 10SM FEW012 SCT050 BKN080 09/06 A2965 RMK AO2 RAB43E53 SLP037 P0000 T00940061,M
HND,2023-01-16 16:56,-115.1344,35.9729,742.79,49.00,42.00,77.26,200.00,4.00,0.00,29.67,1006.30,10.00,M,FEW,SCT,BKN,M,2000.00,4000.00,4800.00,M,M,M,M,M,M,M,M,47.16,KHND 161656Z 20004KT 10SM FEW020 SCT040 BKN048 09/06 A2967 RMK AO2 SLP063 T00940056,M
TPH,2023-01-16 16:56,-117.0904,38.0505,1654.00,33.00,33.00,100.00,140.00,11.00,0.01,29.48,998.50,4.00,M,OVC,M,M,M,700.00,M,M,M,-SN BR,M,M,M,M,M,M,23.86,KTPH 161656Z AUTO 14011KT 4SM -SN BR OVC007 01/01 A2948 RMK AO2 SLP985 P0001 T00060006,M
NFL,2023-01-16 16:59,-118.7010,39.4166,1199.00,33.00,32.00,95.67,30.00,8.00,0.00,29.46,M,2.00,M,FEW,BKN,OVC,M,2600.00,3100.00,4600.00,M,BR,M,M,M,M,M,M,25.47,KNFL 161659Z AUTO 03008KT 2SM BR FEW026 BKN031 OVC046 01/00 A2946 RMK AO2 T00060000 PWINO $,M
ELY,2023-01-16 17:00,-114.8453,39.2950,1909.00,25.00,23.00,91.97,30.00,8.00,T,29.56,M,1.75,M,OVC,M,M,M,900.00,M,M,M,-SN BR,M,M,M,M,M,M,15.49,KELY 161700Z AUTO 03008KT 1 3/4SM -SN BR OVC009 M04/M05 A2956 RMK AO2 P0000 T10391050,M
LOL,2023-01-16 17:01,-118.5701,40.0684,1192.43,33.00,30.90,91.51,30.00,14.00,T,29.50,M,2.00,M,OVC,M,M,M,2700.00,M,M,M,-SN BR,M,M,M,M,M,M,22.58,KLOL 161701Z AUTO 03014KT 2SM -SN BR OVC027 01/M01 A2950 RMK AO2 P0000 T00061006,M
ELY,2023-01-16 17:03,-114.8453,39.2950,1909.00,25.00,23.00,91.97,30.00,8.00,T,29.56,M,2.00,M,OVC,M,M,M,1000.00,M,M,M,-SN BR,M,M,M,M,M,M,15.49,KELY 161703Z AUTO 03008KT 2SM -SN BR OVC010 M04/M05 A2956 RMK AO2 P0000 T10391050,M
TPH,2023-01-16 17:03,-117.0904,38.0505,1654.00,33.00,33.00,100.00,140.00,11.00,T,29.48,M,1.75,M,OVC,M,M,M,800.00,M,M,M,-SN BR,M,M,M,M,M,M,23.86,KTPH 161703Z AUTO 14011KT 1 3/4SM -SN BR OVC008 01/01 A2948 RMK AO2 P0000 T00060006,M
LSV,2023-01-16 17:04,-115.0343,36.2362,570.00,51.80,51.80,100.00,0.00,0.00,0.00,29.64,1003.20,10.00,M,FEW,FEW,BKN,M,2400.00,3000.00,4900.00,M,M,M,M,M,M,M,M,51.80,KLSV 161704Z AUTO 00000KT 10SM FEW024 FEW030 BKN049 11/11 A2964 RMK AO2 SLP032 $,M
NFL,2023-01-16 17:09,-118.7010,39.4166,1199.00,33.00,32.00,95.67,30.00,8.00,0.00,29.47,M,4.00,M,OVC,M,M,M,4300.00,M,M,M,BR,M,M,M,M,M,M,25.47,KNFL 161709Z AUTO 03008KT 4SM BR OVC043 01/00 A2947 RMK AO2 T00060000 PWINO $,M
ELY,2023-01-16 17:10,-114.8453,39.2950,1909.00,25.00,23.00,91.97,20.00,9.00,T,29.56,M,1.50,M,OVC,M,M,M,1000.00,M,M,M,-SN BR,M,M,M,M,M,M,14.81,KELY 161710Z AUTO 02009KT 1 1/2SM -SN BR OVC010 M04/M05 A2956 RMK AO2 P0000 T10391050,M
05U,2023-01-16 17:10,-116.0051,39.6042,1811.23,23.00,19.40,85.85,40.00,7.00,0.00,29.55,M,10.00,M,M,M,M,M,M,M,M,M,M,M,M,M,M,M,M,13.81,K05U 161710Z AUTO 04007KT 10SM M05/M07 A2955 RMK A01,M
LSV,2023-01-16 17:12,-115.0343,36.2362,570.00,53.60,53.60,100.00,200.00,6.00,0.00,29.64,1003.20,10.00,M,FEW,SCT,M,M,2400.00,4900.00,M,M,M,M,M,M,M,M,M,53.60,KLSV 161712Z AUTO 20006KT 10SM FEW024 SCT049 12/12 A2964 RMK AO2 SLP032 $,M
LOL,2023-01-16 17:13,-118.5701,40.0684,1192.43,33.00,30.90,91.51,30.00,12.00,T,29.51,M,1.50,M,OVC,M,M,M,2300.00,M,M,M,-SN BR,M,M,M,M,M,M,23.40,KLOL 161713Z AUTO 03012KT 1 1/2SM -SN BR OVC023 01/M01 A2951 RMK AO2 P0000 T00061006,M
BVU,2023-01-16 17:15,-114.8611,35.9475,671.00,50.00,46.40,87.37,150.00,17.00,0.00,29.68,M,10.00,M,BKN,OVC,M,M,2000.00,2500.00,M,M,M,M,M,M,M,M,M,50.00,KBVU 161715Z AUTO 15017KT 10SM BKN020 OVC025 10/08 A2968 RMK AO2,M
CXP,2023-01-16 17:15,-119.7326,39.1923,1431.00,32.00,28.40,86.39,60.00,8.00,0.00,29.48,M,0.25,14.00,BKN,BKN,M,M,300.00,1200.00,M,M,SN FZFG,M,M,M,M,M,M,24.11,KCXP 161715Z AUTO 06008G14KT 1/4SM SN FZFG BKN003 BKN012 M00/M02 A2948 RMK AO2,M
RTS,2023-01-16 17:15,-119.8764,39.6682,1539.00,30.20,28.40,92.92,40.00,5.00,0.00,29.47,M,1.00,M,CLR,M,M,M,M,M,M,M,-SN,M,M,M,M,M,M,24.26,KRTS 161715Z AUTO 04005KT 1SM -SN CLR M01/M02 A2947 RMK AO2,M
MEV,2023-01-16 17:15,-119.7500,38.9963,1441.42,30.20,30.20,100.00,360.00,14.00,0.00,29.45,M,0.50,M,VV ,M,M,M,500.00,M,M,M,-SN BR,M,M,M,M,M,M,18.84,KMEV 161715Z AUTO 36014KT 1/2SM -SN BR VV005 M01/M01 A2945 RMK AO2,M
BAM,2023-01-16 17:15,-116.8743,40.5990,1382.36,33.80,28.40,80.36,60.00,10.00,0.00,29.55,M,10.00,M,SCT,SCT,OVC,M,2800.00,3600.00,9000.00,M,M,M,M,M,M,M,M,25.23,KBAM 161715Z AUTO 06010KT 10SM SCT028 SCT036 OVC090 01/M02 A2955 RMK AO1,M
RNO,2023-01-16 17:31,-119.7711,39.4839,1341.00,33.00,30.90,91.51,310.00,3.00,0.03,29.48,M,0.75,M,VV ,M,M,M,1200.00,M,M,M,-SN BR,M,M,M,M,M,M,29.95,KRNO 161731Z 31003KT 3/4SM -SN BR VV012 01/M01 A2948 RMK AO2 TWR VIS 1 P0003 T00061006 RVRNO,M
ELY,2023-01-16 17:32,-114.8453,39.2950,1909.00,25.00,23.00,92.74,20.00,8.00,0.01,29.56,M,2.50,M,OVC,M,M,M,1000.00,M,M,M,-SN BR,M,M,M,M,M,M,15.24,KELY 161732Z AUTO 02008KT 2 1/2SM -SN BR OVC010 M04/M05 A2956 RMK AO2 P0001 T10391050,M
BVU,2023-01-16 17:35,-114.8611,35.9475,671.00,50.00,44.60,81.61,150.00,16.00,0.00,29.68,M,10.00,M,OVC,M,M,M,2400.00,M,M,M,M,M,M,M,M,M,M,50.00,KBVU 161735Z AUTO 15016KT 10SM OVC024 10/07 A2968 RMK AO2,M
CXP,2023-01-16 17:35,-119.7326,39.1923,1431.00,32.00,28.40,86.39,50.00,8.00,0.00,29.48,M,0.25,M,OVC,M,M,M,300.00,M,M,M,SN FZFG,M,M,M,M,M,M,24.11,KCXP 161735Z AUTO 05008KT 1/4SM SN FZFG OVC003 M00/M02 A2948 RMK AO2,M
RTS,2023-01-16 17:35,-119.8764,39.6682,1539.00,30.20,28.40,92.92,40.00,4.00,0.00,29.48,M,1.50,M,CLR,M,M,M,M,M,M,M,-SN,M,M,M,M,M,M,25.32,KRTS 161735Z AUTO 04004KT 1 1/2SM -SN CLR M01/M02 A2948 RMK AO2,M
05U,2023-01-16 17:35,-116.0051,39.6042,1811.23,24.80,21.20,85.96,M,M,0.00,29.55,M,10.00,M,M,M,M,M,M,M,M,M,M,M,M,M,M,M,M,M,K05U 161735Z AUTO 10SM M04/M06 A2955 RMK A01,M
MEV,2023-01-16 17:35,-119.7500,38.9963,1441.42,30.20,30.20,100.00,350.00,12.00,0.00,29.46,M,0.50,M,VV ,M,M,M,500.00,M,M,M,-SN FZFG,M,M,M,M,M,M,19.71,KMEV 161735Z AUTO 35012KT 1/2SM -SN FZFG VV005 M01/M01 A2946 RMK AO2,M
BAM,2023-01-16 17:35,-116.8743,40.5990,1382.36,33.80,28.40,80.36,50.00,11.00,0.00,29.55,M,10.00,15.00,OVC,M,M,M,9000.00,M,M,M,M,M,M,M,M,M,M,24.74,KBAM 161735Z AUTO 05011G15KT 10SM OVC090 01/M02 A2955 RMK AO1,M
TPH,2023-01-16 17:36,-117.0904,38.0505,1654.00,33.00,33.00,100.00,130.00,10.00,0.01,29.48,M,0.75,M,VV ,M,M,M,800.00,M,M,M,-SN BR,M,M,M,M,M,M,24.35,KTPH 161736Z AUTO 13010KT 3/4SM -SN BR VV008 01/01 A2948 RMK AO2 P0001 T00060006,M
ELY,2023-01-16 17:44,-114.8453,39.2950,1909.00,25.00,23.00,91.97,30.00,7.00,0.01,29.56,M,3.00,M,OVC,M,M,M,1100.00,M,M,M,-SN BR,M,M,M,M,M,M,16.25,KELY 161744Z AUTO 03007KT 3SM -SN BR OVC011 M04/M05 A2956 RMK AO2 P0001 T10391050,M
TPH,2023-01-16 17:45,-117.0904,38.0505,1654.00,33.00,33.00,100.00,140.00,11.00,0.01,29.48,M,1.50,M,OVC,M,M,M,800.00,M,M,M,-SN BR,M,M,M,M,M,M,23.86,KTPH 161745Z AUTO 14011KT 1 1/2SM -SN BR OVC008 01/01 A2948 RMK AO2 P0001 T00060006,M
TPH,2023-01-16 17:50,-117.0904,38.0505,1654.00,33.80,33.80,100.00,140.00,9.00,0.02,29.48,M,2.00,M,OVC,M,M,M,600.00,M,M,M,-SN BR,M,M,M,M,M,M,25.75,KTPH 161750Z AUTO 14009KT 2SM -SN BR OVC006 01/01 A2948 RMK AO2 P0002,M
P68,2023-01-16 17:53,-116.0056,39.6014,1993.00,24.10,19.90,83.75,20.00,5.00,0.01,29.52,1001.50,M,M,M,M,M,M,M,M,M,M,M,M,M,M,M,M,M,17.01,KP68 161753Z AUTO 02005KT M04/M07 A2952 RMK AO1 SLP015 P0001 60005 T10441067 11044 21078 56004,M
ELY,2023-01-16 17:53,-114.8453,39.2950,1909.00,25.00,23.00,91.97,30.00,5.00,0.01,29.56,1003.10,2.00,M,OVC,M,M,M,1100.00,M,M,M,-SN BR,M,M,M,M,M,M,18.08,KELY 161753Z AUTO 03005KT 2SM -SN BR OVC011 M04/M05 A2956 RMK AO2 SLP031 P0001 60008 T10391050 11028 21061 51000,M
VGT,2023-01-16 17:53,-115.1933,36.2111,667.00,53.00,45.00,73.89,140.00,9.00,T,29.62,1004.50,10.00,M,FEW,BKN,BKN,M,2900.00,8000.00,9500.00,M,-RA,M,M,M,M,M,M,53.10,KVGT 161753Z 14009KT 10SM -RA FEW029 BKN080 BKN095 12/07 A2962 RMK AO2 RAB24 SLP045 P0000 60004 T01170072 10117 20078 58010,M
LOL,2023-01-16 17:53,-118.5701,40.0684,1192.43,33.00,30.90,91.51,40.00,10.00,T,29.51,1000.30,1.00,M,VV ,M,M,M,2000.00,M,M,M,-SN BR,M,M,M,M,M,M,24.35,KLOL 161753Z AUTO 04010KT 1SM -SN BR VV020 01/M01 A2951 RMK AO2 SLP003 P0000 60000 T00061006 10006 20000 53003,M
BVU,2023-01-16 17:55,-114.8611,35.9475,671.00,50.00,46.40,87.37,150.00,17.00,0.00,29.68,M,10.00,M,OVC,M,M,M,2400.00,M,M,M,M,M,M,M,M,M,M,50.00,KBVU 161755Z AUTO 15017KT 10SM OVC024 10/08 A2968 RMK AO2,M
CXP,2023-01-16 17:55,-119.7326,39.1923,1431.00,32.00,28.40,86.39,30.00,4.00,0.02,29.49,M,0.25,10.00,OVC,M,M,M,300.00,M,M,M,+SN FZFG,M,M,M,M,M,M,27.42,KCXP 161755Z AUTO 03004G10KT M1/4SM +SN FZFG OVC003 M00/M02 A2949 RMK AO2 P0002,M
INS,2023-01-16 17:55,-115.6733,36.5872,955.00,45.30,42.60,90.20,120.00,19.00,0.00,29.59,1001.00,10.00,M,FEW,SCT,BKN,BKN,1200.00,4700.00,6000.00,7000.00,M,M,M,M,M,M,M,37.03,KINS 161755Z AUTO 12019KT 10SM FEW012 SCT047 BKN060 BKN070 07/06 A2959 RMK AO2 SLP010 60000 T00740059 10074 20047 55003 $,M
RNO,2023-01-16 17:55,-119.7711,39.4839,1341.00,33.00,30.90,91.51,0.00,0.00,0.05,29.49,998.50,0.75,M,VV ,M,M,M,1200.00,M,M,M,-SN BR,M,M,M,M,M,M,33.10,KRNO 161755Z 00000KT 3/4SM -SN BR VV012 01/M01 A2949 RMK AO2 TWR VIS 1 SLP985 4/002 933002 P0005 60016 T00061006 10006 20000 53009 RVRNO,2
RTS,2023-01-16 17:55,-119.8764,39.6682,1539.00,30.20,28.40,92.92,0.00,0.00,0.01,29.49,M,0.75,M,VV ,M,M,M,500.00,M,M,M,-SN,M,M,M,M,M,M,30.20,KRTS 161755Z AUTO 00000KT 3/4SM -SN VV005 M01/M02 A2949 RMK AO2 P0001,M
05U,2023-01-16 17:55,-116.0051,39.6042,1811.23,24.80,21.20,85.96,10.00,4.00,0.00,29.54,M,10.00,M,M,M,M,M,M,M,M,M,M,M,M,M,M,M,M,19.01,K05U 161755Z AUTO 01004KT 10SM M04/M06 A2954 RMK A01,M
MEV,2023-01-16 17:55,-119.7500,38.9963,1441.42,30.20,30.20,100.00,350.00,14.00,0.00,29.46,M,0.50,M,VV ,M,M,M,500.00,M,M,M,-SN BR,M,M,M,M,M,M,18.84,KMEV 161755Z AUTO 35014KT 1/2SM -SN BR VV005 M01/M01 A2946 RMK AO2,M
BAM,2023-01-16 17:55,-116.8743,40.5990,1382.36,33.80,28.40,80.36,70.00,10.00,0.00,29.55,M,10.00,M,OVC,M,M,M,9000.00,M,M,M,M,M,M,M,M,M,M,25.23,KBAM 161755Z AUTO 07010KT 10SM OVC090 01/M02 A2955 RMK AO1,M
LSV,2023-01-16 17:55,-115.0343,36.2362,570.00,54.70,54.30,98.55,150.00,11.00,0.00,29.61,1002.20,10.00,M,FEW,FEW,M,M,4800.00,7500.00,M,M,M,M,M,M,M,M,M,54.70,KLSV 161755Z AUTO 15011KT 10SM FEW048 FEW075 13/12 A2961 RMK AO2 SLP022 60000 T01260124 10126 20081 58009 $,M
EKO,2023-01-16 17:56,-115.7860,40.8242,1367.00,28.00,23.00,81.25,0.00,0.00,0.00,29.56,1003.00,10.00,M,OVC,M,M,M,5000.00,M,M,M,M,M,M,M,M,M,M,28.00,KEKO 161756Z AUTO 00000KT 10SM OVC050 M02/M05 A2956 RMK AO2 SLP030 T10221050 11022 21067 58008,M
WMC,2023-01-16 17:56,-117.8072,40.9019,1315.00,37.00,28.00,69.63,50.00,11.00,0.00,29.52,999.60,10.00,19.00,CLR,M,M,M,M,M,M,M,M,M,M,M,26.00,50.00,2023-01-16 17:39,28.79,KWMC 161756Z AUTO 05011G19KT 10SM CLR 03/M02 A2952 RMK AO2 PK WND 05026/1739 SLP996 T00281022 10028 21006 56004 $,M
NFL,2023-01-16 17:56,-118.7010,39.4166,1199.00,33.00,32.00,95.67,30.00,8.00,T,29.47,997.00,8.00,M,OVC,M,M,M,4300.00,M,M,M,-SN,M,M,M,M,M,M,25.47,KNFL 161756Z AUTO 03008KT 8SM -SN OVC043 01/00 A2947 RMK AO2 SNB41 SLP970 P0000 60005 T00060000 10006 20000 53002 $,M
TPH,2023-01-16 17:56,-117.0904,38.0505,1654.00,34.00,34.00,100.00,150.00,9.00,0.02,29.48,998.20,3.00,M,FEW,OVC,M,M,300.00,600.00,M,M,-SN BR,M,M,M,M,M,M,26.00,KTPH 161756Z AUTO 15009KT 3SM -SN BR FEW003 OVC006 01/01 A2948 RMK AO2 SLP982 P0002 60004 T00110011 10011 21006 56002,M
HND,2023-01-16 17:56,-115.1344,35.9729,742.79,55.00,44.00,66.61,170.00,13.00,0.00,29.63,1004.90,10.00,M,FEW,M,M,M,7500.00,M,M,M,M,M,M,M,M,M,M,55.00,KHND 161756Z 17013KT 10SM FEW075 13/07 A2963 RMK AO2 SLP049 60001 T01280067 10128 20061 58012,M
LAS,2023-01-16 17:56,-115.1634,36.0719,663.00,52.00,44.00,74.35,160.00,4.00,T,29.62,1002.70,10.00,M,FEW,SCT,BKN,M,2000.00,4200.00,6500.00,M,-RA,M,M,M,M,M,M,52.00,KLAS 161756Z 16004KT 10SM -RA FEW020 SCT042 BKN065 11/07 A2962 RMK AO2 RAB51 SLP027 P0000 60003 T01110067 10111 20067 58011,M
ELY,2023-01-16 17:57,-114.8453,39.2950,1909.00,25.00,23.00,91.97,40.00,6.00,T,29.56,M,1.25,M,BKN,OVC,M,M,1100.00,1600.00,M,M,-SN BR,M,M,M,M,M,M,17.10,KELY 161757Z AUTO 04006KT 1 1/4SM -SN BR BKN011 OVC016 M04/M05 A2956 RMK AO2 P0000 T10391050,M
RNO,2023-01-16 18:03,-119.7711,39.4839,1341.00,33.00,30.90,91.51,320.00,3.00,0.01,29.49,M,0.50,M,VV ,M,M,M,1100.00,M,M,M,SN,M,M,M,M,M,M,29.95,KRNO 161803Z 32003KT 1/2SM SN VV011 01/M01 A2949 RMK AO2 TWR VIS 1 P0001 T00061006 RVRNO,M
NFL,2023-01-16 18:13,-118.7010,39.4166,1199.00,33.00,32.00,95.67,30.00,8.00,T,29.47,M,10.00,M,FEW,BKN,OVC,M,700.00,3700.00,4400.00,M,M,M,M,M,M,M,M,25.47,KNFL 161813Z AUTO 03008KT 10SM FEW007 BKN037 OVC044 01/00 A2947 RMK AO2 SNE02 P0000 T00060000 $,M
BVU,2023-01-16 18:15,-114.8611,35.9475,671.00,51.80,46.40,81.74,140.00,14.00,0.00,29.66,M,10.00,22.00,BKN,OVC,M,M,1800.00,2300.00,M,M,M,M,M,M,M,M,M,51.80,KBVU 161815Z AUTO 14014G22KT 10SM BKN018 OVC023 11/08 A2966 RMK AO2,M
CXP,2023-01-16 18:15,-119.7326,39.1923,1431.00,32.00,30.20,92.97,0.00,0.00,0.00,29.50,M,0.25,M,OVC,M,M,M,300.00,M,M,M,SN FZFG,M,M,M,M,M,M,32.00,KCXP 161815Z AUTO 00000KT 1/4SM SN FZFG OVC003 M00/M01 A2950 RMK AO2,M
RTS,2023-01-16 18:15,-119.8764,39.6682,1539.00,30.20,28.40,92.92,60.00,4.00,0.00,29.50,M,0.75,M,VV ,M,M,M,500.00,M,M,M,-SN,M,M,M,M,M,M,25.32,KRTS 161815Z AUTO 06004KT 3/4SM -SN VV005 M01/M02 A2950 RMK AO2,M
05U,2023-01-16 18:15,-116.0051,39.6042,1811.23,26.60,21.20,79.77,50.00,5.00,0.00,29.54,M,10.00,M,M,M,M,M,M,M,M,M,M,M,M,M,M,M,M,19.98,K05U 161815Z AUTO 05005KT 10SM M03/M06 A2954 RMK A01,M
MEV,2023-01-16 18:15,-119.7500,38.9963,1441.42,30.20,30.20,100.00,350.00,13.00,0.00,29.48,M,2.50,M,CLR,M,M,M,M,M,M,M,-SN BR,M,M,M,M,M,M,19.26,KMEV 161815Z AUTO 35013KT 2 1/2SM -SN BR CLR M01/M01 A2948 RMK AO2 VIS 2V4,M
BAM,2023-01-16 18:15,-116.8743,40.5990,1382.36,35.60,28.40,74.80,60.00,11.00,0.00,29.55,M,10.00,M,SCT,BKN,M,M,9000.00,12000.00,M,M,M,M,M,M,M,M,M,27.02,KBAM 161815Z AUTO 06011KT 10SM SCT090 BKN120 02/M02 A2955 RMK AO1,M
ELY,2023-01-16 18:28,-114.8453,39.2950,1909.00,26.10,23.00,86.07,30.00,8.00,0.02,29.55,M,0.75,M,FEW,OVC,M,M,900.00,1300.00,M,M,-SN BR,M,M,M,M,M,M,17.46,KELY 161828Z AUTO 03008KT 3/4SM -SN BR FEW009 OVC013 M03/M05 A2955 RMK AO2 P0002 T10331050,M
LOL,2023-01-16 18:29,-118.5701,40.0684,1192.43,34.00,32.00,92.29,40.00,10.00,T,29.50,M,2.00,M,FEW,BKN,OVC,M,1900.00,3000.00,3800.00,M,-SN BR,M,M,M,M,M,M,25.48,KLOL 161829Z AUTO 04010KT 2SM -SN BR FEW019 BKN030 OVC038 01/00 A2950 RMK AO2 P0000 T00110000,M
05U,2023-01-16 18:30,-116.0051,39.6042,1811.23,26.60,21.20,79.77,30.00,5.00,0.00,29.54,M,10.00,M,M,M,M,M,M,M,M,M,M,M,M,M,M,M,M,19.98,K05U 161830Z AUTO 03005KT 10SM M03/M06 A2954 RMK A01,M
BVU,2023-01-16 18:35,-114.8611,35.9475,671.00,51.80,46.40,81.74,140.00,18.00,0.00,29.65,M,10.00,24.00,BKN,OVC,M,M,1700.00,2300.00,M,M,M,M,M,M,M,M,M,51.80,KBVU 161835Z AUTO 14018G24KT 10SM BKN017 OVC023 11/08 A2965 RMK AO2,M
CXP,2023-01-16 18:35,-119.7326,39.1923,1431.00,32.00,30.20,92.97,0.00,0.00,0.00,29.51,M,0.25,M,BKN,M,M,M,300.00,M,M,M,SN FZFG,M,M,M,M,M,M,32.00,KCXP 161835Z AUTO 00000KT 1/4SM SN FZFG BKN003 M00/M01 A2951 RMK AO2,M
RTS,2023-01-16 18:35,-119.8764,39.6682,1539.00,30.20,30.20,100.00,0.00,0.00,0.00,29.51,M,0.50,M,VV ,M,M,M,500.00,M,M,M,-SN,M,M,M,M,M,M,30.20,KRTS 161835Z AUTO 00000KT 1/2SM -SN VV005 M01/M01 A2951 RMK AO2,M
LAS,2023-01-16 18:35,-115.1634,36.0719,663.00,58.00,41.00,53.24,190.00,13.00,T,29.59,M,10.00,21.00,FEW,SCT,BKN,M,2000.00,5500.00,7000.00,M,M,M,M,M,29.00,190.00,2023-01-16 18:16,57.90,KLAS 161835Z 19013G21KT 10SM FEW020 SCT055 BKN070 14/05 A2959 RMK AO2 PK WND 19029/1816 WSHFT 1815 RAE02B25E34 P0000 T01440050,M
MEV,2023-01-16 18:35,-119.7500,38.9963,1441.42,32.00,30.20,92.97,340.00,12.00,0.00,29.49,M,0.50,M,VV ,M,M,M,500.00,M,M,M,-SN BR,M,M,M,M,M,M,22.00,KMEV 161835Z AUTO 34012KT 1/2SM -SN BR VV005 M00/M01 A2949 RMK AO2,M
BAM,2023-01-16 18:35,-116.8743,40.5990,1382.36,35.60,28.40,74.80,60.00,12.00,0.00,29.55,M,10.00,M,BKN,BKN,M,M,9000.00,11000.00,M,M,M,M,M,M,M,M,M,26.58,KBAM 161835Z AUTO 06012KT 10SM BKN090 BKN110 02/M02 A2955 RMK AO1,M
NFL,2023-01-16 18:38,-118.7010,39.4166,1199.00,33.00,32.00,95.67,20.00,6.00,T,29.48,M,3.00,M,BKN,OVC,M,M,2600.00,3700.00,M,M,-SN BR,M,M,M,M,M,M,26.86,KNFL 161838Z AUTO 02006KT 3SM -SN BR BKN026 OVC037 01/00 A2948 RMK AO2 SNE02B29 P0000 T00060000 $,M
ELY,2023-01-16 18:39,-114.8453,39.2950,1909.00,26.10,23.00,87.87,20.00,7.00,0.02,29.55,M,1.00,M,OVC,M,M,M,1500.00,M,M,M,-SN BR,M,M,M,M,M,M,17.59,KELY 161839Z AUTO 02007KT 1SM -SN BR OVC015 M03/M05 A2955 RMK AO2 P0002 T10331050,M
LOL,2023-01-16 18:40,-118.5701,40.0684,1192.43,34.00,32.00,92.29,40.00,11.00,T,29.50,M,3.00,M,SCT,OVC,M,M,3000.00,3600.00,M,M,-SN BR,M,M,M,M,M,M,24.99,KLOL 161840Z AUTO 04011KT 3SM -SN BR SCT030 OVC036 01/00 A2950 RMK AO2 P0000 T00110000,M
LOL,2023-01-16 18:48,-118.5701,40.0684,1192.43,33.80,32.00,93.03,30.00,11.00,T,29.50,M,3.00,M,BKN,OVC,M,M,2600.00,3600.00,M,M,-SN BR,M,M,M,M,M,M,24.74,KLOL 161848Z AUTO 03011KT 3SM -SN BR BKN026 OVC036 01/00 A2950 RMK AO2 P0000,M
RNO,2023-01-16 18:51,-119.7711,39.4839,1341.00,33.80,30.20,86.49,280.00,4.00,0.07,29.51,M,0.75,M,VV ,M,M,M,1300.00,M,M,M,-SN,M,M,M,M,M,M,29.52,KRNO 161851Z 28004KT 3/4SM -SN VV013 01/M01 A2951 RMK AO2 TWR VIS 1 P0007 RVRNO,M
TPH,2023-01-16 18:52,-117.0904,38.0505,1654.00,35.60,35.60,100.00,170.00,10.00,0.01,29.46,M,9.00,M,BKN,OVC,M,M,700.00,1500.00,M,M,-RA,M,M,M,M,M,M,27.48,KTPH 161852Z AUTO 17010KT 9SM -RA BKN007 OVC015 02/02 A2946 RMK AO2 RAB00SNE00 P0001,M
P68,2023-01-16 18:53,-116.0056,39.6014,1993.00,26.10,21.90,83.89,40.00,4.00,0.00,29.50,1000.70,M,M,M,M,M,M,M,M,M,M,M,M,M,M,M,M,M,20.53,KP68 161853Z AUTO 04004KT M03/M06 A2950 RMK AO1 SLP007 T10331056,M
ELY,2023-01-16 18:53,-114.8453,39.2950,1909.00,26.10,24.10,92.01,20.00,7.00,0.03,29.55,1002.30,1.00,M,OVC,M,M,M,1500.00,M,M,M,-SN BR,M,M,M,M,M,M,17.59,KELY 161853Z AUTO 02007KT 1SM -SN BR OVC015 M03/M04 A2955 RMK AO2 SLP023 P0003 T10331044,M
VGT,2023-01-16 18:53,-115.1933,36.2111,667.00,57.00,45.00,64.12,140.00,11.00,T,29.57,1002.50,10.00,M,SCT,BKN,M,M,3600.00,9000.00,M,M,M,M,M,M,M,M,M,57.00,KVGT 161853Z 14011KT 10SM SCT036 BKN090 14/07 A2957 RMK AO2 RAE21 SLP025 P0000 T01390072,M
LOL,2023-01-16 18:53,-118.5701,40.0684,1192.43,34.00,32.00,92.29,30.00,11.00,T,29.50,999.90,3.00,M,FEW,BKN,OVC,M,1800.00,2600.00,3600.00,M,-SN BR,M,M,M,M,M,M,24.99,KLOL 161853Z AUTO 03011KT 3SM -SN BR FEW018 BKN026 OVC036 01/00 A2950 RMK AO2 SLP999 P0000 T00110000,M
BVU,2023-01-16 18:55,-114.8611,35.9475,671.00,53.60,48.20,81.87,160.00,22.00,0.00,29.63,M,10.00,28.00,BKN,OVC,M,M,1600.00,2000.00,M,M,M,M,M,M,M,M,M,53.60,KBVU 161855Z AUTO 16022G28KT 10SM BKN016 OVC020 12/09 A2963 RMK AO2,M
CXP,2023-01-16 18:55,-119.7326,39.1923,1431.00,32.00,30.20,92.97,0.00,0.00,0.05,29.52,M,0.25,M,OVC,M,M,M,300.00,M,M,M,SN FZFG,M,M,M,M,M,M,32.00,KCXP 161855Z AUTO 00000KT 1/4SM SN FZFG OVC003 M00/M01 A2952 RMK AO2 P0005,M
INS,2023-01-16 18:55,-115.6733,36.5872,955.00,46.60,41.40,81.99,140.00,13.00,0.00,29.55,999.40,10.00,M,BKN,OVC,M,M,4600.00,5500.00,M,M,M,M,M,M,M,M,M,40.27,KINS 161855Z AUTO 14013KT 10SM BKN046 OVC055 08/05 A2955 RMK AO2 SLP994 T00810052 $,M
RTS,2023-01-16 18:55,-119.8764,39.6682,1539.00,30.20,30.20,100.00,330.00,7.00,0.03,29.51,M,0.50,M,VV ,M,M,M,500.00,M,M,M,-SN,M,M,M,M,M,M,22.59,KRTS 161855Z AUTO 33007KT 1/2SM -SN VV005 M01/M01 A2951 RMK AO2 P0003,M
05U,2023-01-16 18:55,-116.0051,39.6042,1811.23,26.60,23.00,86.07,20.00,3.00,0.00,29.53,M,10.00,M,M,M,M,M,M,M,M,M,M,M,M,M,M,M,M,22.52,K05U 161855Z AUTO 02003KT 10SM M03/M05 A2953 RMK A01,M
MEV,2023-01-16 18:55,-119.7500,38.9963,1441.42,32.00,30.20,92.97,350.00,12.00,0.00,29.50,M,0.25,M,VV ,M,M,M,200.00,M,M,M,SN FZFG,M,M,M,M,M,M,22.00,KMEV 161855Z AUTO 35012KT 1/4SM SN FZFG VV002 M00/M01 A2950 RMK AO2,M
BAM,2023-01-16 18:55,-116.8743,40.5990,1382.36,35.60,30.20,80.51,50.00,12.00,0.00,29.54,M,10.00,15.00,OVC,M,M,M,8000.00,M,M,M,M,M,M,M,M,M,M,26.58,KBAM 161855Z AUTO 05012G15KT 10SM OVC080 02/M01 A2954 RMK AO1,M
LSV,2023-01-16 18:55,-115.0343,36.2362,570.00,56.70,46.60,68.86,160.00,19.00,0.00,29.55,1000.00,10.00,25.00,FEW,M,M,M,4700.00,M,M,M,M,M,M,M,30.00,140.00,2023-01-16 18:43,56.70,KLSV 161855Z AUTO 16019G25KT 10SM FEW047 14/08 A2955 RMK AO2 PK WND 14030/43 SLP000 T01370081 $,M
RNO,2023-01-16 18:55,-119.7711,39.4839,1341.00,33.00,30.90,91.51,280.00,3.00,0.07,29.51,999.40,0.75,M,VV ,M,M,M,1300.00,M,M,M,-SN,M,M,M,M,M,M,29.95,KRNO 161855Z 28003KT 3/4SM -SN VV013 01/M01 A2951 RMK AO2 TWR VIS 1 SLP994 SNINCR 1/3 P0007 T00061006 RVRNO,M
EKO,2023-01-16 18:56,-115.7860,40.8242,1367.00,30.00,24.10,78.40,0.00,0.00,0.00,29.54,1002.20,10.00,M,OVC,M,M,M,4500.00,M,M,M,M,M,M,M,M,M,M,30.00,KEKO 161856Z AUTO 00000KT 10SM OVC045 M01/M04 A2954 RMK AO2 SLP022 T10111044,M
WMC,2023-01-16 18:56,-117.8072,40.9019,1315.00,38.00,26.10,62.14,40.00,15.00,0.00,29.50,999.00,10.00,23.00,CLR,M,M,M,M,M,M,M,M,M,M,M,M,M,M,28.43,KWMC 161856Z AUTO 04015G23KT 10SM CLR 03/M03 A2950 RMK AO2 SLP990 T00331033 $,M
HND,2023-01-16 18:56,-115.1344,35.9729,742.79,55.00,43.00,63.86,170.00,20.00,T,29.59,1003.50,10.00,28.00,FEW,BKN,M,M,3900.00,5500.00,M,M,-RA,M,M,M,28.00,150.00,2023-01-16 18:48,55.00,KHND 161856Z 17020G28KT 10SM -RA FEW039 BKN055 13/06 A2959 RMK AO2 PK WND 15028/1848 RAB38 SLP035 P0000 T01280061,M
NFL,2023-01-16 18:56,-118.7010,39.4166,1199.00,33.00,32.00,95.67,360.00,7.00,T,29.47,997.10,3.00,M,OVC,M,M,M,2000.00,M,M,M,-SN BR,M,M,M,M,M,M,26.12,KNFL 161856Z AUTO 36007KT 3SM -SN BR OVC020 01/00 A2947 RMK AO2 SNE02B29 SLP971 P0000 T00060000 $,M
TPH,2023-01-16 18:56,-117.0904,38.0505,1654.00,35.00,35.00,100.00,170.00,9.00,0.01,29.46,997.50,10.00,M,SCT,OVC,M,M,700.00,1700.00,M,M,M,M,M,M,M,M,M,27.37,KTPH 161856Z AUTO 17009KT 10SM SCT007 OVC017 02/02 A2946 RMK AO2 RAB00E56SNE00 SLP975 P0001 T00170017,M
LAS,2023-01-16 18:56,-115.1634,36.0719,663.00,58.00,40.00,51.02,190.00,12.00,T,29.57,1000.80,10.00,29.00,FEW,SCT,SCT,M,2000.00,3700.00,7500.00,M,M,M,M,M,29.00,190.00,2023-01-16 18:16,57.90,KLAS 161856Z 19012G29KT 10SM FEW020 SCT037 SCT075 14/04 A2957 RMK AO2 PK WND 19029/1816 WSHFT 1815 RAE02B25E34 SLP008 P0000 T01440044,M
ELY,2023-01-16 18:59,-114.8453,39.2950,1909.00,27.00,24.10,88.65,30.00,5.00,0.01,29.54,M,0.75,M,FEW,OVC,M,M,500.00,1500.00,M,M,-SN BR,M,M,M,M,M,M,20.46,KELY 161859Z AUTO 03005KT 3/4SM -SN BR FEW005 OVC015 M03/M04 A2954 RMK AO2 P0001 T10281044,M
INS,2023-01-16 19:03,-115.6733,36.5872,955.00,46.40,42.80,87.19,110.00,12.00,0.00,29.54,999.10,10.00,M,OVC,M,M,M,4500.00,M,M,M,-RA,M,M,M,M,M,M,40.33,KINS 161903Z AUTO 11012KT 10SM -RA OVC045 08/06 A2954 RMK AO2 RAB03 SLP991 $,M
NFL,2023-01-16 19:03,-118.7010,39.4166,1199.00,33.00,32.00,95.67,360.00,7.00,T,29.47,M,2.50,M,FEW,OVC,M,M,800.00,1800.00,M,M,-SN BR,M,M,M,M,M,M,26.12,KNFL 161903Z AUTO 36007KT 2 1/2SM -SN BR FEW008 OVC018 01/00 A2947 RMK AO2 P0000 T00060000 $,M
LOL,2023-01-16 19:04,-118.5701,40.0684,1192.43,34.00,32.00,92.29,30.00,11.00,T,29.50,M,2.50,M,BKN,OVC,M,M,2400.00,3600.00,M,M,-SN BR,M,M,M,M,M,M,24.99,KLOL 161904Z AUTO 03011KT 2 1/2SM -SN BR BKN024 OVC036 01/00 A2950 RMK AO2 P0000 T00110000,M
VGT,2023-01-16 19:11,-115.1933,36.2111,667.00,60.00,42.00,51.35,190.00,20.00,0.00,29.54,M,10.00,30.00,FEW,FEW,M,M,3800.00,9500.00,M,M,M,M,M,M,30.00,180.00,2023-01-16 19:08,60.10,KVGT 161911Z 19020G30KT 10SM FEW038 FEW095 16/06 A2954 RMK AO2 PK WND 18030/1908 WSHFT 1851 LTG DSNT W PRESFR T01560056,M
ELY,2023-01-16 19:12,-114.8453,39.2950,1909.00,26.10,24.10,92.01,30.00,7.00,0.01,29.53,M,0.50,M,FEW,OVC,M,M,500.00,1300.00,M,M,SN FZFG,M,M,M,M,M,M,17.59,KELY 161912Z AUTO 03007KT 1/2SM SN FZFG FEW005 OVC013 M03/M04 A2953 RMK AO2 P0001 T10331044,M
LOL,2023-01-16 19:13,-118.5701,40.0684,1192.43,34.00,32.00,92.29,30.00,11.00,T,29.50,M,3.00,M,BKN,BKN,OVC,M,3000.00,3800.00,5000.00,M,-SN BR,M,M,M,M,M,M,24.99,KLOL 161913Z AUTO 03011KT 3SM -SN BR BKN030 BKN038 OVC050 01/00 A2950 RMK AO2 P0000 T00110000,M
BVU,2023-01-16 19:15,-114.8611,35.9475,671.00,53.60,46.40,76.50,170.00,19.00,0.00,29.62,M,10.00,28.00,SCT,BKN,OVC,M,1700.00,2300.00,6500.00,M,M,M,M,M,M,M,M,53.60,KBVU 161915Z AUTO 17019G28KT 10SM SCT017 BKN023 OVC065 12/08 A2962 RMK AO2,M
CXP,2023-01-16 19:15,-119.7326,39.1923,1431.00,32.00,32.00,100.00,0.00,0.00,0.00,29.53,M,0.25,M,OVC,M,M,M,300.00,M,M,M,+SN FG,M,M,M,M,M,M,32.00,KCXP 161915Z AUTO 00000KT M1/4SM +SN FG OVC003 00/M00 A2953 RMK AO2,M
RTS,2023-01-16 19:15,-119.8764,39.6682,1539.00,30.20,28.40,92.92,330.00,7.00,0.00,29.52,M,0.50,M,BKN,M,M,M,300.00,M,M,M,-SN,M,M,M,M,M,M,22.59,KRTS 161915Z AUTO 33007KT 1/2SM -SN BKN003 M01/M02 A2952 RMK AO2,M
05U,2023-01-16 19:15,-116.0051,39.6042,1811.23,28.40,23.00,79.92,30.00,6.00,0.00,29.51,M,10.00,M,M,M,M,M,M,M,M,M,M,M,M,M,M,M,M,21.19,K05U 161915Z AUTO 03006KT 10SM M02/M05 A2951 RMK A01,M
MEV,2023-01-16 19:15,-119.7500,38.9963,1441.42,32.00,30.20,92.97,350.00,12.00,0.00,29.51,M,0.50,M,VV ,M,M,M,500.00,M,M,M,-SN BR,M,M,M,M,M,M,22.00,KMEV 161915Z AUTO 35012KT 1/2SM -SN BR VV005 M00/M01 A2951 RMK AO2,M
BAM,2023-01-16 19:15,-116.8743,40.5990,1382.36,35.60,30.20,80.51,60.00,13.00,0.00,29.52,M,10.00,16.00,SCT,BKN,OVC,M,4800.00,6000.00,8000.00,M,M,M,M,M,M,M,M,26.18,KBAM 161915Z AUTO 06013G16KT 10SM SCT048 BKN060 OVC080 02/M01 A2952 RMK AO1,M
NFL,2023-01-16 19:16,-118.7010,39.4166,1199.00,33.00,32.00,95.67,360.00,8.00,0.01,29.47,M,1.50,M,SCT,OVC,M,M,700.00,1600.00,M,M,-SN BR,M,M,M,M,M,M,25.47,KNFL 161916Z AUTO 36008KT 1 1/2SM -SN BR SCT007 OVC016 01/00 A2947 RMK AO2 P0001 T00060000 $,M
INS,2023-01-16 19:17,-115.6733,36.5872,955.00,46.40,42.80,87.19,120.00,17.00,0.00,29.53,998.70,10.00,M,OVC,M,M,M,4500.00,M,M,M,M,M,M,M,M,M,M,38.94,KINS 161917Z AUTO 12017KT 10SM OVC045 08/06 A2953 RMK AO2 RAB03E17 SLP987 $,M
ELY,2023-01-16 19:20,-114.8453,39.2950,1909.00,27.00,24.10,88.65,30.00,6.00,0.01,29.53,M,0.75,M,BKN,OVC,M,M,1500.00,3000.00,M,M,-SN BR,M,M,M,M,M,M,19.51,KELY 161920Z AUTO 03006KT 3/4SM -SN BR BKN015 OVC030 M03/M04 A2953 RMK AO2 P0001 T10281044,M
TPH,2023-01-16 19:22,-117.0904,38.0505,1654.00,36.00,35.00,96.49,180.00,13.00,T,29.45,M,10.00,M,BKN,BKN,OVC,M,1400.00,2000.00,3300.00,M,-RA,M,M,M,M,M,M,26.69,KTPH 161922Z AUTO 18013KT 10SM -RA BKN014 BKN020 OVC033 02/02 A2945 RMK AO2 UPB00E22RAB07 P0000 T00220017,M
ELY,2023-01-16 19:24,-114.8453,39.2950,1909.00,27.00,24.10,88.65,20.00,6.00,0.01,29.53,M,0.75,M,FEW,OVC,M,M,600.00,1400.00,M,M,-SN BR,M,M,M,M,M,M,19.51,KELY 161924Z AUTO 02006KT 3/4SM -SN BR FEW006 OVC014 M03/M04 A2953 RMK AO2 P0001 T10281044,M
NFL,2023-01-16 19:25,-118.7010,39.4166,1199.00,33.00,32.00,95.67,360.00,7.00,0.02,29.47,M,1.25,M,SCT,OVC,M,M,700.00,1200.00,M,M,-SN BR,M,M,M,M,M,M,26.12,KNFL 161925Z AUTO 36007KT 1 1/4SM -SN BR SCT007 OVC012 01/00 A2947 RMK AO2 P0002 T00060000 $,M
BVU,2023-01-16 19:35,-114.8611,35.9475,671.00,51.80,46.40,81.74,170.00,19.00,0.00,29.61,M,10.00,28.00,SCT,BKN,OVC,M,2100.00,5500.00,8000.00,M,M,M,M,M,M,M,M,51.80,KBVU 161935Z AUTO 17019G28KT 10SM SCT021 BKN055 OVC080 11/08 A2961 RMK AO2,M
CXP,2023-01-16 19:35,-119.7326,39.1923,1431.00,32.00,32.00,100.00,0.00,0.00,0.00,29.53,M,0.25,M,OVC,M,M,M,300.00,M,M,M,SN FG,M,M,M,M,M,M,32.00,KCXP 161935Z AUTO 00000KT 1/4SM SN FG OVC003 00/M00 A2953 RMK AO2,M
RTS,2023-01-16 19:35,-119.8764,39.6682,1539.00,30.20,30.20,100.00,320.00,7.00,0.00,29.52,M,0.50,M,BKN,M,M,M,300.00,M,M,M,-SN,M,M,M,M,M,M,22.59,KRTS 161935Z AUTO 32007KT 1/2SM -SN BKN003 M01/M01 A2952 RMK AO2,M
05U,2023-01-16 19:35,-116.0051,39.6042,1811.23,30.20,24.80,80.07,10.00,5.00,0.00,29.50,M,10.00,M,M,M,M,M,M,M,M,M,M,M,M,M,M,M,M,24.26,K05U 161935Z AUTO 01005KT 10SM M01/M04 A2950 RMK A01,M
MEV,2023-01-16 19:35,-119.7500,38.9963,1441.42,32.00,30.20,92.97,350.00,10.00,0.00,29.51,M,1.00,M,CLR,M,M,M,M,M,M,M,-SN BR,M,M,M,M,M,M,22.97,KMEV 161935Z AUTO 35010KT 1SM -SN BR CLR M00/M01 A2951 RMK AO2,M
BAM,2023-01-16 19:35,-116.8743,40.5990,1382.36,37.40,30.20,74.98,60.00,11.00,0.00,29.52,M,10.00,M,SCT,BKN,OVC,M,3600.00,5000.00,6500.00,M,M,M,M,M,M,M,M,29.29,KBAM 161935Z AUTO 06011KT 10SM SCT036 BKN050 OVC065 03/M01 A2952 RMK AO1,M
TPH,2023-01-16 19:35,-117.0904,38.0505,1654.00,37.00,35.00,92.76,160.00,11.00,T,29.44,M,10.00,19.00,BKN,OVC,M,M,1800.00,2700.00,M,M,M,M,M,M,M,M,M,28.79,KTPH 161935Z AUTO 16011G19KT 10SM BKN018 OVC027 03/02 A2944 RMK AO2 UPB00E22RAB07E23 P0000 T00280017,M
RNO,2023-01-16 19:37,-119.7711,39.4839,1341.00,34.00,30.90,88.27,310.00,3.00,0.03,29.52,M,0.50,M,VV ,M,M,M,1100.00,M,M,M,SN,M,M,M,M,M,M,30.97,KRNO 161937Z 31003KT 1/2SM SN VV011 01/M01 A2952 RMK AO2 TWR VIS 1 P0003 T00111006 RVRNO,M
NFL,2023-01-16 19:37,-118.7010,39.4166,1199.00,33.00,32.00,95.67,350.00,6.00,0.03,29.47,M,1.00,M,OVC,M,M,M,700.00,M,M,M,-SN BR,M,M,M,M,M,M,26.86,KNFL 161937Z AUTO 35006KT 1SM -SN BR OVC007 01/00 A2947 RMK AO2 P0003 T00060000 $,M
LOL,2023-01-16 19:44,-118.5701,40.0684,1192.43,34.00,32.00,92.29,20.00,9.00,T,29.49,M,2.50,M,OVC,M,M,M,2800.00,M,M,M,-SN BR,M,M,M,M,M,M,26.00,KLOL 161944Z AUTO 02009KT 2 1/2SM -SN BR OVC028 01/00 A2949 RMK AO2 VIS 1 3/4V5 P0000 T00110000,M
ELY,2023-01-16 19:45,-114.8453,39.2950,1909.00,26.10,24.10,92.01,40.00,6.00,0.03,29.52,M,0.25,M,VV ,M,M,M,900.00,M,M,M,+SN FZFG,M,M,M,M,M,M,18.42,KELY 161945Z AUTO 04006KT 1/4SM +SN FZFG VV009 M03/M04 A2952 RMK AO2 P0003 T10331044,M
05U,2023-01-16 19:50,-116.0051,39.6042,1811.23,30.20,24.80,80.07,10.00,6.00,0.00,29.50,M,10.00,M,M,M,M,M,M,M,M,M,M,M,M,M,M,M,M,23.36,K05U 161950Z AUTO 01006KT 10SM M01/M04 A2950 RMK A01,M
P68,2023-01-16 19:53,-116.0056,39.6014,1993.00,28.00,24.10,85.08,20.00,5.00,0.00,29.47,1000.30,M,M,M,M,M,M,M,M,M,M,M,M,M,M,M,M,M,21.64,KP68 161953Z AUTO 02005KT M02/M04 A2947 RMK AO1 SLP003 T10221044,M
ELY,2023-01-16 19:53,-114.8453,39.2950,1909.00,27.00,25.00,92.05,20.00,8.00,0.04,29.51,1001.40,0.25,M,VV ,M,M,M,800.00,M,M,M,+SN FZFG,M,M,M,M,M,M,17.95,KELY 161953Z AUTO 02008KT 1/4SM +SN FZFG VV008 M03/M04 A2951 RMK AO2 SLP014 P0004 T10281039,M
LOL,2023-01-16 19:53,-118.5701,40.0684,1192.43,34.00,32.00,92.29,20.00,11.00,T,29.49,999.40,2.50,M,BKN,OVC,M,M,2600.00,3300.00,M,M,-SN BR,M,M,M,M,M,M,24.99,KLOL 161953Z AUTO 02011KT 2 1/2SM -SN BR BKN026 OVC033 01/00 A2949 RMK AO2 SLP994 P0000 T00110000,M
VGT,2023-01-16 19:53,-115.1933,36.2111,667.00,60.00,42.00,51.35,200.00,21.00,T,29.52,1000.80,10.00,30.00,FEW,SCT,SCT,M,2800.00,8500.00,11000.00,M,M,M,M,M,38.00,200.00,2023-01-16 19:24,60.10,KVGT 161953Z 20021G30KT 10SM FEW028 SCT085 SCT110 16/06 A2952 RMK AO2 PK WND 20038/1924 WSHFT 1851 RAB32E42 SLP008 P0000 T01560056,M
BVU,2023-01-16 19:55,-114.8611,35.9475,671.00,53.60,46.40,76.50,160.00,24.00,0.00,29.60,M,10.00,M,SCT,BKN,OVC,M,2400.00,5500.00,6500.00,M,M,M,M,M,M,M,M,53.60,KBVU 161955Z AUTO 16024KT 10SM SCT024 BKN055 OVC065 12/08 A2960 RMK AO2,M
CXP,2023-01-16 19:55,-119.7326,39.1923,1431.00,32.00,30.20,92.97,0.00,0.00,0.06,29.53,M,0.50,M,OVC,M,M,M,300.00,M,M,M,-SN FG,M,M,M,M,M,M,32.00,KCXP 161955Z AUTO 00000KT 1/2SM -SN FG OVC003 00/M01 A2953 RMK AO2 P0006,M
RNO,2023-01-16 19:55,-119.7711,39.4839,1341.00,34.00,32.00,92.29,0.00,0.00,0.04,29.52,999.80,0.50,M,VV ,M,M,M,1100.00,M,M,M,SN,M,M,M,M,M,M,34.00,KRNO 161955Z 00000KT 1/2SM SN VV011 01/00 A2952 RMK AO2 TWR VIS 1 SLP998 P0004 T00110000 RVRNO,M
RTS,2023-01-16 19:55,-119.8764,39.6682,1539.00,30.20,30.20,100.00,320.00,5.00,0.03,29.53,M,0.75,M,BKN,M,M,M,200.00,M,M,M,-SN,M,M,M,M,M,M,24.26,KRTS 161955Z AUTO 32005KT 3/4SM -SN BKN002 M01/M01 A2953 RMK AO2 P0003,M
MEV,2023-01-16 19:55,-119.7500,38.9963,1441.42,32.00,30.20,92.97,340.00,6.00,0.00,29.52,M,1.25,M,SCT,M,M,M,500.00,M,M,M,-SN BR,M,M,M,M,M,M,25.53,KMEV 161955Z AUTO 34006KT 1 1/4SM -SN BR SCT005 M00/M01 A2952 RMK AO2 VIS 3/4V2,M
BAM,2023-01-16 19:55,-116.8743,40.5990,1382.36,37.40,30.20,74.98,60.00,10.00,0.00,29.51,M,10.00,17.00,BKN,BKN,OVC,M,3300.00,4400.00,12000.00,M,M,M,M,M,M,M,M,29.74,KBAM 161955Z AUTO 06010G17KT 10SM BKN033 BKN044 OVC120 03/M01 A2951 RMK AO1,M
LSV,2023-01-16 19:55,-115.0343,36.2362,570.00,56.70,45.00,64.81,180.00,28.00,0.00,29.50,998.40,10.00,35.00,FEW,FEW,M,M,5500.00,15000.00,M,M,M,M,M,M,35.00,180.00,2023-01-16 19:48,56.70,KLSV 161955Z AUTO 18028G35KT 10SM FEW055 FEW150 14/07 A2950 RMK AO2 PK WND 18035/48 SLP984 T01370072 $,M
INS,2023-01-16 19:55,-115.6733,36.5872,955.00,46.80,44.00,90.26,120.00,14.00,T,29.52,998.40,10.00,M,BKN,OVC,M,M,3900.00,4800.00,M,M,M,M,M,M,M,M,M,40.24,KINS 161955Z AUTO 12014KT 10SM BKN039 OVC048 08/07 A2952 RMK AO2 RAB03E17 SLP984 P0000 T00820067 $,M
EKO,2023-01-16 19:56,-115.7860,40.8242,1367.00,33.00,25.00,71.82,0.00,0.00,0.00,29.51,1001.20,10.00,M,BKN,OVC,M,M,4600.00,5500.00,M,M,M,M,M,M,M,M,M,33.10,KEKO 161956Z AUTO 00000KT 10SM BKN046 OVC055 01/M04 A2951 RMK AO2 SLP012 T00061039,M
WMC,2023-01-16 19:56,-117.8072,40.9019,1315.00,39.00,28.90,66.79,30.00,9.00,0.00,29.49,998.70,10.00,20.00,FEW,SCT,OVC,M,2800.00,7000.00,8500.00,M,M,M,M,M,M,M,M,32.22,KWMC 161956Z AUTO 03009G20KT 10SM FEW028 SCT070 OVC085 04/M02 A2949 RMK AO2 SLP987 T00391017 $,M
NFL,2023-01-16 19:56,-118.7010,39.4166,1199.00,33.00,32.00,95.67,340.00,7.00,0.04,29.47,997.10,1.00,M,OVC,M,M,M,700.00,M,M,M,-SN BR,M,M,M,M,M,M,26.12,KNFL 161956Z AUTO 34007KT 1SM -SN BR OVC007 01/00 A2947 RMK AO2 SLP971 P0004 T00060000 $,M
HND,2023-01-16 19:56,-115.1344,35.9729,742.79,57.00,43.00,59.40,170.00,18.00,T,29.55,1001.90,10.00,25.00,FEW,SCT,BKN,M,3000.00,6000.00,7500.00,M,-RA,M,M,M,32.00,190.00,2023-01-16 19:25,57.00,KHND 161956Z 17018G25KT 10SM -RA FEW030 SCT060 BKN075 14/06 A2955 RMK AO2 PK WND 19032/1925 RAE09B41 SLP019 P0000 T01390061,M
TPH,2023-01-16 19:56,-117.0904,38.0505,1654.00,39.00,35.00,85.76,190.00,17.00,T,29.43,996.10,10.00,26.00,SCT,BKN,M,M,1800.00,3800.00,M,M,M,M,M,M,26.00,190.00,2023-01-16 19:53,29.25,KTPH 161956Z AUTO 19017G26KT 10SM SCT018 BKN038 04/02 A2943 RMK AO2 PK WND 19026/1953 UPB00E22RAB07E23 SLP961 P0000 T00390017,M
LAS,2023-01-16 19:56,-115.1634,36.0719,663.00,56.00,42.00,59.71,200.00,11.00,0.01,29.54,999.80,10.00,23.00,FEW,BKN,M,M,2000.00,5500.00,M,M,-RA,M,M,M,29.00,190.00,2023-01-16 19:32,55.90,KLAS 161956Z 20011G23KT 10SM -RA FEW020 BKN055 13/06 A2954 RMK AO2 PK WND 19029/1932 RAB22 SLP998 P0001 T01330056,M
ELY,2023-01-16 19:59,-114.8453,39.2950,1909.00,26.10,24.10,92.01,30.00,8.00,T,29.51,M,0.50,M,VV ,M,M,M,1100.00,M,M,M,SN FZFG,M,M,M,M,M,M,16.85,KELY 161959Z AUTO 03008KT 1/2SM SN FZFG VV011 M03/M04 A2951 RMK AO2 P0000 T10331044,M
NFL,2023-01-16 20:04,-118.7010,39.4166,1199.00,33.00,32.00,95.67,340.00,7.00,0.01,29.48,M,0.75,M,BKN,OVC,M,M,500.00,900.00,M,M,-SN BR,M,M,M,M,M,M,26.12,KNFL 162004Z AUTO 34007KT 3/4SM -SN BR BKN005 OVC009 01/00 A2948 RMK AO2 P0001 T00060000 $,M
ELY,2023-01-16 20:08,-114.8453,39.2950,1909.00,26.10,23.00,87.87,10.00,6.00,T,29.51,M,0.25,M,VV ,M,M,M,800.00,M,M,M,SN FZFG,M,M,M,M,M,M,18.42,KELY 162008Z AUTO 01006KT 1/4SM SN FZFG VV008 M03/M05 A2951 RMK AO2 P0000 T10331050,M
LAS,2023-01-16 20:08,-115.1634,36.0719,663.00,55.00,43.00,63.86,220.00,7.00,T,29.54,M,10.00,M,FEW,OVC,M,M,2000.00,5500.00,M,M,-TSRA,M,M,M,M,M,M,55.00,KLAS 162008Z 22007KT 10SM -TSRA FEW020 OVC055CB 13/06 A2954 RMK AO2 TSB04 OCNL LTGIC SW TS SW MOV NE P0000 T01280061,M
HND,2023-01-16 20:10,-115.1344,35.9729,742.79,55.40,42.80,62.46,200.00,16.00,T,29.55,M,10.00,29.00,FEW,BKN,OVC,M,3000.00,6500.00,8000.00,M,VCTS -RA,M,M,M,32.00,190.00,2023-01-16 20:00,55.40,KHND 162010Z 20016G29KT 10SM VCTS -RA FEW030 BKN065 OVC080 13/06 A2955 RMK AO2 PK WND 19032/2000 TSB04 P0000,M
05U,2023-01-16 20:10,-116.0051,39.6042,1811.23,30.20,24.80,80.07,60.00,5.00,0.00,29.49,M,10.00,M,M,M,M,M,M,M,M,M,M,M,M,M,M,M,M,24.26,K05U 162010Z AUTO 06005KT 10SM M01/M04 A2949 RMK A01,M
TPH,2023-01-16 20:10,-117.0904,38.0505,1654.00,39.00,35.00,85.76,190.00,20.00,0.00,29.43,M,10.00,27.00,FEW,BKN,BKN,M,1800.00,2700.00,3100.00,M,M,M,M,M,27.00,180.00,2023-01-16 20:10,28.44,KTPH 162010Z AUTO 19020G27KT 10SM FEW018 BKN027 BKN031 04/02 A2943 RMK AO2 PK WND 18027/2010 T00390017,M
VGT,2023-01-16 20:10,-115.1933,36.2111,667.00,58.00,42.00,55.55,200.00,19.00,0.00,29.53,M,10.00,33.00,FEW,SCT,BKN,M,4600.00,6500.00,9000.00,M,VCTS,M,M,M,33.00,180.00,2023-01-16 20:10,57.90,KVGT 162010Z 20019G33KT 10SM VCTS FEW046 SCT065 BKN090 14/06 A2953 RMK AO2 PK WND 18033/2010 T01440056,M
INS,2023-01-16 20:11,-115.6733,36.5872,955.00,48.20,44.60,87.28,80.00,4.00,0.00,29.52,998.40,10.00,M,SCT,OVC,M,M,3700.00,4600.00,M,M,-RA,M,M,M,M,M,M,46.34,KINS 162011Z AUTO 08004KT 10SM -RA SCT037 OVC046 09/07 A2952 RMK AO2 RAB11 SLP984 $,M
BVU,2023-01-16 20:15,-114.8611,35.9475,671.00,57.20,46.40,67.12,170.00,25.00,0.00,29.58,M,8.00,35.00,SCT,SCT,BKN,M,2200.00,2700.00,6000.00,M,M,M,M,M,M,M,M,57.20,KBVU 162015Z AUTO 17025G35KT 8SM SCT022 SCT027 BKN060 14/08 A2958 RMK AO2,M
CXP,2023-01-16 20:15,-119.7326,39.1923,1431.00,33.80,32.00,93.03,0.00,0.00,0.00,29.53,M,1.00,M,VV ,M,M,M,700.00,M,M,M,-RA BR,M,M,M,M,M,M,33.80,KCXP 162015Z AUTO 00000KT 1SM -RA BR VV007 01/M00 A2953 RMK AO2 VIS 1/2V2,M
RTS,2023-01-16 20:15,-119.8764,39.6682,1539.00,30.20,30.20,100.00,300.00,5.00,0.00,29.53,M,0.75,M,VV ,M,M,M,500.00,M,M,M,-SN,M,M,M,M,M,M,24.26,KRTS 162015Z AUTO 30005KT 3/4SM -SN VV005 M01/M01 A2953 RMK AO2,M
MEV,2023-01-16 20:15,-119.7500,38.9963,1441.42,32.00,30.20,92.97,20.00,5.00,0.00,29.52,M,8.00,M,FEW,M,M,M,4400.00,M,M,M,UP,M,M,M,M,M,M,26.40,KMEV 162015Z AUTO 02005KT 8SM UP FEW044 M00/M01 A2952 RMK AO2,M
BAM,2023-01-16 20:15,-116.8743,40.5990,1382.36,37.40,30.20,74.98,60.00,12.00,0.00,29.50,M,10.00,M,SCT,SCT,BKN,M,3100.00,3700.00,7000.00,M,M,M,M,M,M,M,M,28.87,KBAM 162015Z AUTO 06012KT 10SM SCT031 SCT037 BKN070 03/M01 A2950 RMK AO1,M
RNO,2023-01-16 20:16,-119.7711,39.4839,1341.00,34.00,30.90,88.27,340.00,6.00,0.01,29.52,M,0.75,M,OVC,M,M,M,1300.00,M,M,M,-SN,M,M,M,M,M,M,27.94,KRNO 162016Z 34006KT 3/4SM -SN OVC013 01/M01 A2952 RMK AO2 TWR VIS 1 P0001 T00111006 RVRNO,M
LSV,2023-01-16 20:17,-115.0343,36.2362,570.00,55.40,46.40,71.64,170.00,29.00,0.00,29.50,998.40,9.00,35.00,FEW,FEW,M,M,4800.00,5500.00,M,M,-RA,M,M,M,M,M,M,55.40,KLSV 162017Z AUTO 17029G35KT 9SM -RA FEW048 FEW055 13/08 A2950 RMK AO2 LTG DSNT S RAB17 SLP984 $,M
INS,2023-01-16 20:21,-115.6733,36.5872,955.00,50.00,41.00,71.07,270.00,3.00,0.00,29.50,997.50,10.00,M,FEW,BKN,BKN,M,3600.00,4700.00,6500.00,M,M,M,M,M,M,M,M,50.00,KINS 162021Z AUTO 27003KT 10SM FEW036 BKN047 BKN065 10/05 A2950 RMK AO2 RAB11E21 PRESFR SLP975 $,M
NFL,2023-01-16 20:24,-118.7010,39.4166,1199.00,32.00,32.00,100.00,330.00,7.00,0.03,29.48,M,0.50,M,OVC,M,M,M,400.00,M,M,M,SN FG,M,M,M,M,M,M,24.78,KNFL 162024Z AUTO 33007KT 1/2SM SN FG OVC004 00/00 A2948 RMK AO2 P0003 T00000000 $,M
HND,2023-01-16 20:25,-115.1344,35.9729,742.79,55.40,41.00,58.27,200.00,27.00,T,29.53,M,10.00,33.00,FEW,SCT,OVC,M,3000.00,5500.00,7000.00,M,-RA,M,M,M,33.00,200.00,2023-01-16 20:25,55.40,KHND 162025Z 20027G33KT 10SM -RA FEW030 SCT055 OVC070 13/05 A2953 RMK AO2 PK WND 20033/2025 LTG DSNT W TSB04E19 P0000,M
LAS,2023-01-16 20:25,-115.1634,36.0719,663.00,56.00,41.00,57.23,220.00,17.00,T,29.54,M,10.00,31.00,FEW,SCT,BKN,M,2000.00,4000.00,6000.00,M,-RA,M,M,M,31.00,220.00,2023-01-16 20:17,55.90,KLAS 162025Z 22017G31KT 10SM -RA FEW020 SCT040 BKN060 13/05 A2954 RMK AO2 PK WND 22031/2017 LTG DSNT N AND SW TSB04E19 TS MOV NE P0000 T01330050,M
VGT,2023-01-16 20:25,-115.1933,36.2111,667.00,58.00,42.00,55.55,200.00,18.00,T,29.52,M,10.00,32.00,FEW,FEW,SCT,M,3200.00,5500.00,7500.00,M,M,M,M,M,33.00,180.00,2023-01-16 20:10,57.90,KVGT 162025Z 20018G32KT 10SM FEW032 FEW055 SCT075 14/06 A2952 RMK AO2 PK WND 18033/2010 LTG DSNT N AND SW RAB11E22 P0000 T01440056,M
LSV,2023-01-16 20:26,-115.0343,36.2362,570.00,53.60,46.40,76.50,190.00,24.00,0.00,29.52,999.20,3.00,32.00,SCT,SCT,M,M,2600.00,4800.00,M,M,-RA,M,M,M,M,M,M,53.60,KLSV 162026Z AUTO 19024G32KT 3SM -RA SCT026 SCT048 12/08 A2952 RMK AO2 LTG DSNT S RAB17 PRESRR SLP992 $,M
LSV,2023-01-16 20:27,-115.0343,36.2362,570.00,53.60,46.40,76.50,190.00,23.00,0.00,29.51,998.90,2.25,32.00,SCT,SCT,M,M,2400.00,4800.00,M,M,RA,M,M,M,M,M,M,53.60,KLSV 162027Z AUTO 19023G32KT 2 1/4SM RA SCT024 SCT048 12/08 A2951 RMK AO2 VIS 2 1/4V9 LTG DSNT S RAB17 SLP989 $,M
LSV,2023-01-16 20:28,-115.0343,36.2362,570.00,53.60,46.40,76.50,190.00,21.00,0.00,29.51,998.90,2.50,32.00,SCT,SCT,M,M,2400.00,4800.00,M,M,RA,M,M,M,M,M,M,53.60,KLSV 162028Z AUTO 19021G32KT 2 1/2SM RA SCT024 SCT048 12/08 A2951 RMK AO2 VIS 2 1/4V9 LTG DSNT NE AND S RAB17 SLP989 $,M
LOL,2023-01-16 20:28,-118.5701,40.0684,1192.43,34.00,32.00,92.29,10.00,8.00,T,29.48,M,1.50,M,OVC,M,M,M,2000.00,M,M,M,-SN BR,M,M,M,M,M,M,26.58,KLOL 162028Z AUTO 01008KT 1 1/2SM -SN BR OVC020 01/00 A2948 RMK AO2 P0000 T00110000,M
LSV,2023-01-16 20:30,-115.0343,36.2362,570.00,53.60,46.40,76.50,190.00,16.00,0.00,29.50,998.50,3.00,32.00,SCT,SCT,M,M,2400.00,4800.00,M,M,RA,M,M,M,M,M,M,53.60,KLSV 162030Z AUTO 19016G32KT 3SM RA SCT024 SCT048 12/08 A2950 RMK AO2 LTG DSNT NE AND S RAB17 SLP985 $,M
LSV,2023-01-16 20:31,-115.0343,36.2362,570.00,53.60,46.40,76.50,190.00,15.00,0.00,29.50,998.50,4.00,32.00,SCT,SCT,M,M,2400.00,4800.00,M,M,RA,M,M,M,M,M,M,53.60,KLSV 162031Z AUTO 19015G32KT 4SM RA SCT024 SCT048 12/08 A2950 RMK AO2 LTG DSNT NE AND S RAB17 SLP985 $,M
RNO,2023-01-16 20:33,-119.7711,39.4839,1341.00,34.00,30.90,88.27,340.00,5.00,0.02,29.53,M,1.00,M,OVC,M,M,M,1500.00,M,M,M,-SN,M,M,M,M,M,M,28.77,KRNO 162033Z 34005KT 1SM -SN OVC015 01/M01 A2953 RMK AO2 SFC VIS 2 P0002 T00111006,M
NFL,2023-01-16 20:34,-118.7010,39.4166,1199.00,32.00,32.00,100.00,320.00,6.00,0.04,29.49,M,0.50,M,VV ,M,M,M,600.00,M,M,M,SN FG,M,M,M,M,M,M,25.53,KNFL 162034Z AUTO 32006KT 1/2SM SN FG VV006 00/00 A2949 RMK AO2 P0004 T00000000 $,M
BVU,2023-01-16 20:35,-114.8611,35.9475,671.00,55.40,46.40,71.64,160.00,26.00,0.00,29.56,M,10.00,32.00,FEW,SCT,SCT,M,1800.00,6000.00,7500.00,M,M,M,M,M,M,M,M,55.40,KBVU 162035Z AUTO 16026G32KT 10SM FEW018 SCT060 SCT075 13/08 A2956 RMK AO2,M
CXP,2023-01-16 20:35,-119.7326,39.1923,1431.00,33.80,30.20,86.49,0.00,0.00,0.00,29.54,M,4.00,M,FEW,M,M,M,3500.00,M,M,M,-RA BR,M,M,M,M,M,M,33.80,KCXP 162035Z AUTO 00000KT 4SM -RA BR FEW035 01/M01 A2954 RMK AO2,M
RTS,2023-01-16 20:35,-119.8764,39.6682,1539.00,30.20,28.40,92.92,300.00,7.00,0.00,29.53,M,1.75,M,CLR,M,M,M,M,M,M,M,-SN,M,M,M,M,M,M,22.59,KRTS 162035Z AUTO 30007KT 1 3/4SM -SN CLR M01/M02 A2953 RMK AO2,M
05U,2023-01-16 20:35,-116.0051,39.6042,1811.23,30.20,24.80,80.07,70.00,5.00,0.00,29.48,M,10.00,M,M,M,M,M,M,M,M,M,M,M,M,M,M,M,M,24.26,K05U 162035Z AUTO 07005KT 10SM M01/M04 A2948 RMK A01,M
MEV,2023-01-16 20:35,-119.7500,38.9963,1441.42,32.00,30.20,92.97,360.00,6.00,0.00,29.53,M,8.00,M,FEW,FEW,FEW,M,2300.00,3000.00,3900.00,M,UP,M,M,M,M,M,M,25.53,KMEV 162035Z AUTO 36006KT 8SM UP FEW023 FEW030 FEW039 00/M01 A2953 RMK AO2,M
BAM,2023-01-16 20:35,-116.8743,40.5990,1382.36,37.40,30.20,74.98,50.00,13.00,0.00,29.49,M,10.00,M,SCT,SCT,BKN,M,2800.00,6000.00,7000.00,M,M,M,M,M,M,M,M,28.49,KBAM 162035Z AUTO 05013KT 10SM SCT028 SCT060 BKN070 03/M01 A2949 RMK AO1,M
RNO,2023-01-16 20:39,-119.7711,39.4839,1341.00,34.00,30.90,88.27,350.00,6.00,0.02,29.52,M,2.00,M,BKN,OVC,M,M,1500.00,2600.00,M,M,-SN,M,M,M,M,M,M,27.94,KRNO 162039Z 35006KT 2SM -SN BKN015 OVC026 01/M01 A2952 RMK AO2 P0002 T00111006,M
ELY,2023-01-16 20:44,-114.8453,39.2950,1909.00,28.00,26.10,92.86,50.00,5.00,0.06,29.50,M,0.50,M,VV ,M,M,M,600.00,M,M,M,SN FZFG,M,M,M,M,M,M,22.12,KELY 162044Z AUTO 05005KT 1/2SM SN FZFG VV006 M02/M03 A2950 RMK AO2 P0006 T10221033,M
LSV,2023-01-16 20:45,-115.0343,36.2362,570.00,51.80,48.20,87.47,210.00,24.00,0.00,29.51,998.90,10.00,28.00,SCT,M,M,M,2300.00,M,M,M,M,M,M,M,M,M,M,51.80,KLSV 162045Z 21024G28KT 10SM SCT023 11/09 A2951 RMK AO2A RAB17E42 SLP989 $,M
LAS,2023-01-16 20:47,-115.1634,36.0719,663.00,52.00,42.00,68.86,270.00,21.00,0.02,29.55,M,6.00,29.00,FEW,BKN,BKN,M,2000.00,5000.00,8000.00,M,TSRA,M,M,M,31.00,220.00,2023-01-16 20:17,52.00,KLAS 162047Z 27021G29KT 6SM TSRA FEW020 BKN050CB BKN080 11/06 A2955 RMK AO2 PK WND 22031/2017 TSB04E19B46 OCNL LTGIC SW TS SW MOV NE P0002 T01110056,M
05U,2023-01-16 20:50,-116.0051,39.6042,1811.23,30.20,24.80,80.07,40.00,6.00,0.00,29.47,M,10.00,M,M,M,M,M,M,M,M,M,M,M,M,M,M,M,M,23.36,K05U 162050Z AUTO 04006KT 10SM M01/M04 A2947 RMK A01,M
P68,2023-01-16 20:53,-116.0056,39.6014,1993.00,28.90,25.00,85.14,40.00,6.00,0.00,29.45,999.10,M,M,M,M,M,M,M,M,M,M,M,M,M,M,M,M,M,21.80,KP68 162053Z AUTO 04006KT M02/M04 A2945 RMK AO1 SLP991 T10171039 56019,M
ELY,2023-01-16 20:53,-114.8453,39.2950,1909.00,28.00,26.10,92.46,20.00,6.00,0.07,29.49,999.60,0.50,M,BKN,OVC,M,M,900.00,1900.00,M,M,SN FZFG,M,M,M,M,M,M,20.71,KELY 162053Z AUTO 02006KT 1/2SM SN FZFG BKN009 OVC019 M02/M03 A2949 RMK AO2 SLP996 P0007 60014 T10221033 58020,M
VGT,2023-01-16 20:53,-115.1933,36.2111,667.00,55.00,41.00,59.13,220.00,17.00,T,29.54,1001.70,10.00,32.00,FEW,BKN,BKN,M,6000.00,7000.00,9000.00,M,-RA,M,M,M,33.00,210.00,2023-01-16 20:43,55.00,KVGT 162053Z 22017G32KT 10SM -RA FEW060 BKN070 BKN090 13/05 A2954 RMK AO2 PK WND 21033/2043 LTG DSNT E AND SE RAB11E22B49 SLP017 P0000 60000 T01280050 55025,M
LOL,2023-01-16 20:53,-118.5701,40.0684,1192.43,34.00,33.00,96.46,350.00,6.00,T,29.49,999.50,2.50,M,OVC,M,M,M,1600.00,M,M,M,-SN BR,M,M,M,M,M,M,27.94,KLOL 162053Z AUTO 35006KT 2 1/2SM -SN BR OVC016 01/01 A2949 RMK AO2 SLP995 P0000 60000 T00110006 55004,M
BVU,2023-01-16 20:55,-114.8611,35.9475,671.00,55.40,46.40,71.64,160.00,26.00,0.00,29.56,M,10.00,33.00,FEW,FEW,M,M,6000.00,7000.00,M,M,M,M,M,M,M,M,M,55.40,KBVU 162055Z AUTO 16026G33KT 10SM FEW060 FEW070 13/08 A2956 RMK AO2 LTG DSNT N,M
CXP,2023-01-16 20:55,-119.7326,39.1923,1431.00,33.80,30.20,86.49,220.00,4.00,0.01,29.54,M,4.00,M,FEW,SCT,BKN,M,1100.00,2800.00,3400.00,M,-SN BR,M,M,M,M,M,M,29.52,KCXP 162055Z AUTO 22004KT 4SM -SN BR FEW011 SCT028 BKN034 01/M01 A2954 RMK AO2 P0001,M
INS,2023-01-16 20:55,-115.6733,36.5872,955.00,53.60,29.30,39.09,210.00,29.00,0.69,29.47,996.20,10.00,37.00,CLR,M,M,M,M,M,M,M,M,M,M,M,M,M,M,53.60,KINS 162055Z AUTO 21029G37KT 10SM CLR 12/M01 A2947 RMK AO2 RAB11E21 SLP962 P0069 60069 T01201015 57039 $,M
RTS,2023-01-16 20:55,-119.8764,39.6682,1539.00,30.20,28.40,92.92,330.00,8.00,0.01,29.54,M,2.00,M,CLR,M,M,M,M,M,M,M,-SN,M,M,M,M,M,M,21.90,KRTS 162055Z AUTO 33008KT 2SM -SN CLR M01/M02 A2954 RMK AO2 P0001,M
MEV,2023-01-16 20:55,-119.7500,38.9963,1441.42,32.00,30.20,92.97,40.00,6.00,0.00,29.53,M,8.00,M,FEW,M,M,M,5000.00,M,M,M,-RA,M,M,M,M,M,M,25.53,KMEV 162055Z AUTO 04006KT 8SM -RA FEW050 00/M01 A2953 RMK AO2,M
BAM,2023-01-16 20:55,-116.8743,40.5990,1382.36,37.40,30.20,74.98,60.00,8.00,0.00,29.49,M,10.00,M,SCT,BKN,OVC,M,2900.00,3800.00,6500.00,M,M,M,M,M,M,M,M,30.76,KBAM 162055Z AUTO 06008KT 10SM SCT029 BKN038 OVC065 03/M01 A2949 RMK AO1,M
RNO,2023-01-16 20:55,-119.7711,39.4839,1341.00,35.00,30.00,81.46,330.00,8.00,0.02,29.53,1000.10,2.00,M,FEW,BKN,OVC,M,1000.00,2200.00,4000.00,M,-SN,M,M,M,M,M,M,27.93,KRNO 162055Z 33008KT 2SM -SN FEW010 BKN022 OVC040 02/M01 A2953 RMK AO2 SFC VIS 3 SLP001 P0002 60013 T00171011 53006,M
LSV,2023-01-16 20:55,-115.0343,36.2362,570.00,53.00,49.30,86.88,240.00,26.00,0.18,29.51,998.90,9.00,36.00,FEW,SCT,SCT,M,2100.00,2900.00,3700.00,M,-RA,M,M,M,37.00,170.00,2023-01-16 20:03,53.10,KLSV 162055Z 24026G36KT 9SM -RA FEW021 SCT029 SCT037 12/10 A2951 RMK AO2A PK WND 17037/03 RAB17E42RAB51 SLP989 P0018 60000 T01170096 55033 $,M
EKO,2023-01-16 20:56,-115.7860,40.8242,1367.00,35.00,24.10,63.86,40.00,11.00,0.00,29.49,1000.20,10.00,M,FEW,OVC,M,M,4300.00,5500.00,M,M,M,M,M,M,M,M,M,26.38,KEKO 162056Z AUTO 04011KT 10SM FEW043 OVC055 02/M04 A2949 RMK AO2 SLP002 T00171044 56021,M
WMC,2023-01-16 20:56,-117.8072,40.9019,1315.00,39.00,28.00,64.37,30.00,14.00,0.00,29.48,998.50,10.00,M,SCT,BKN,BKN,M,3100.00,9000.00,11000.00,M,M,M,M,M,M,M,M,30.19,KWMC 162056Z AUTO 03014KT 10SM SCT031 BKN090 BKN110 04/M02 A2948 RMK AO2 SLP985 T00391022 56010 $,M
NFL,2023-01-16 20:56,-118.7010,39.4166,1199.00,32.00,32.00,100.00,300.00,8.00,0.05,29.50,997.90,0.75,M,SCT,OVC,M,M,400.00,800.00,M,M,-SN BR,M,M,M,M,M,M,24.11,KNFL 162056Z AUTO 30008KT 3/4SM -SN BR SCT004 OVC008 00/00 A2950 RMK AO2 SLP979 P0005 60009 T00000000 53009 $,M
HND,2023-01-16 20:56,-115.1344,35.9729,742.79,54.00,41.00,61.32,230.00,20.00,0.03,29.56,1002.50,9.00,44.00,FEW,BKN,OVC,M,3000.00,4900.00,6000.00,M,VCTS -RA,M,M,M,44.00,210.00,2023-01-16 20:48,54.00,KHND 162056Z 23020G44KT 9SM VCTS -RA FEW030 BKN049 OVC060 12/05 A2956 RMK AO2 PK WND 21044/2048 LTG DSNT NE TSB04E19B55 PRESRR SLP025 P0003 60003 T01220050 55022,M
TPH,2023-01-16 20:56,-117.0904,38.0505,1654.00,41.00,34.00,75.94,210.00,17.00,0.00,29.43,996.00,10.00,24.00,BKN,BKN,BKN,M,2400.00,3200.00,4200.00,M,M,M,M,M,27.00,180.00,2023-01-16 20:10,31.87,KTPH 162056Z AUTO 21017G24KT 10SM BKN024 BKN032 BKN042 05/01 A2943 RMK AO2 PK WND 18027/2010 SLP960 60001 T00500011 58010,M
LAS,2023-01-16 20:56,-115.1634,36.0719,663.00,52.00,42.00,68.86,240.00,21.00,0.07,29.56,1000.50,7.00,32.00,FEW,BKN,BKN,M,2000.00,5000.00,8000.00,M,TSRA,M,M,M,32.00,230.00,2023-01-16 20:55,52.00,KLAS 162056Z 24021G32KT 7SM TSRA FEW020 BKN050CB BKN080 11/06 A2956 RMK AO2 PK WND 23032/2055 LTG DSNT NE AND E AND SW TSB04E19B46 SLP005 OCNL LTGIC OHD-SW TS OHD-SW MOV NE P0007 60008 T01110056 55020,M
ELY,2023-01-16 20:57,-114.8453,39.2950,1909.00,28.00,26.10,92.46,20.00,8.00,0.02,29.49,M,0.75,M,FEW,BKN,OVC,M,700.00,1500.00,2200.00,M,-SN BR,M,M,M,M,M,M,19.19,KELY 162057Z AUTO 02008KT 3/4SM -SN BR FEW007 BKN015 OVC022 M02/M03 A2949 RMK AO2 P0002 T10221033,M
ELY,2023-01-16 21:05,-114.8453,39.2950,1909.00,27.00,25.00,92.05,20.00,7.00,0.02,29.48,M,1.50,M,FEW,SCT,OVC,M,500.00,1000.00,1900.00,M,-SN BR,M,M,M,M,M,M,18.68,KELY 162105Z AUTO 02007KT 1 1/2SM -SN BR FEW005 SCT010 OVC019 M03/M04 A2948 RMK AO2 P0002 T10281039,M
LSV,2023-01-16 21:06,-115.0343,36.2362,570.00,51.80,46.40,81.74,230.00,24.00,0.00,29.51,998.90,10.00,M,SCT,M,M,M,3700.00,M,M,M,M,M,M,M,M,M,M,51.80,KLSV 162106Z AUTO 23024KT 10SM SCT037 11/08 A2951 RMK AO2 RAE06 SLP989 $,M
TPH,2023-01-16 21:11,-117.0904,38.0505,1654.00,42.00,34.00,72.78,210.00,18.00,0.00,29.43,M,10.00,25.00,SCT,SCT,M,M,2500.00,3000.00,M,M,M,M,M,M,26.00,210.00,2023-01-16 20:59,33.04,KTPH 162111Z AUTO 21018G25KT 10SM SCT025 SCT030 06/01 A2943 RMK AO2 PK WND 21026/2059 T00560011,M
RNO,2023-01-16 21:13,-119.7711,39.4839,1341.00,36.00,30.00,78.60,330.00,8.00,T,29.53,M,9.00,M,FEW,BKN,OVC,M,2000.00,3200.00,5500.00,M,-SN,M,M,M,M,M,M,29.04,KRNO 162113Z 33008KT 9SM -SN FEW020 BKN032 OVC055 02/M01 A2953 RMK AO2 P0000 T00221011,M
LAS,2023-01-16 21:13,-115.1634,36.0719,663.00,54.00,41.00,61.32,220.00,13.00,T,29.55,M,10.00,32.00,FEW,SCT,BKN,M,2000.00,5000.00,8000.00,M,-RA,M,M,M,32.00,230.00,2023-01-16 21:04,54.00,KLAS 162113Z 22013G32KT 10SM -RA FEW020 SCT050 BKN080 12/05 A2955 RMK AO2 PK WND 23032/2104 LTG DSNT NE AND S TSE07 TS MOV NE P0000 T01220050,M
LOL,2023-01-16 21:13,-118.5701,40.0684,1192.43,34.00,33.00,96.46,360.00,5.00,T,29.49,M,1.50,M,OVC,M,M,M,1400.00,M,M,M,-SN BR,M,M,M,M,M,M,28.77,KLOL 162113Z AUTO 36005KT 1 1/2SM -SN BR OVC014 01/01 A2949 RMK AO2 P0000 T00110006,M
BVU,2023-01-16 21:15,-114.8611,35.9475,671.00,51.80,46.40,81.74,160.00,21.00,0.00,29.57,M,10.00,35.00,SCT,BKN,M,M,4900.00,6000.00,M,M,VCTS,M,M,M,M,M,M,51.80,KBVU 162115Z AUTO 16021G35KT 10SM VCTS SCT049 BKN060 11/08 A2957 RMK AO2 LTG DSNT ALQDS,M
CXP,2023-01-16 21:15,-119.7326,39.1923,1431.00,32.00,30.20,92.97,0.00,0.00,0.00,29.54,M,0.25,M,OVC,M,M,M,300.00,M,M,M,SN FG,M,M,M,M,M,M,32.00,KCXP 162115Z AUTO 00000KT 1/4SM SN FG OVC003 00/M01 A2954 RMK AO2,M
RTS,2023-01-16 21:15,-119.8764,39.6682,1539.00,32.00,28.40,86.39,290.00,5.00,0.00,29.54,M,1.75,M,CLR,M,M,M,M,M,M,M,-SN,M,M,M,M,M,M,26.40,KRTS 162115Z AUTO 29005KT 1 3/4SM -SN CLR M00/M02 A2954 RMK AO2,M
05U,2023-01-16 21:15,-116.0051,39.6042,1811.23,32.00,26.60,80.22,30.00,6.00,0.00,29.47,M,10.00,M,M,M,M,M,M,M,M,M,M,M,M,M,M,M,M,25.53,K05U 162115Z AUTO 03006KT 10SM M00/M03 A2947 RMK A01,M
MEV,2023-01-16 21:15,-119.7500,38.9963,1441.42,33.80,30.20,86.49,170.00,4.00,0.00,29.53,M,10.00,M,FEW,SCT,BKN,M,700.00,2500.00,2900.00,M,M,M,M,M,M,M,M,29.52,KMEV 162115Z AUTO 17004KT 10SM FEW007 SCT025 BKN029 01/M01 A2953 RMK AO2,M
BAM,2023-01-16 21:15,-116.8743,40.5990,1382.36,37.40,30.20,74.98,40.00,9.00,0.00,29.49,M,10.00,M,SCT,BKN,OVC,M,3400.00,4800.00,5500.00,M,M,M,M,M,M,M,M,30.23,KBAM 162115Z AUTO 04009KT 10SM SCT034 BKN048 OVC055 03/M01 A2949 RMK AO1,M
ELY,2023-01-16 21:24,-114.8453,39.2950,1909.00,28.00,25.00,88.33,10.00,7.00,0.02,29.48,M,1.75,M,FEW,BKN,OVC,M,500.00,1300.00,2200.00,M,-SN BR,M,M,M,M,M,M,19.90,KELY 162124Z AUTO 01007KT 1 3/4SM -SN BR FEW005 BKN013 OVC022 M02/M04 A2948 RMK AO2 P0002 T10221039,M
RNO,2023-01-16 21:27,-119.7711,39.4839,1341.00,35.00,28.90,77.88,350.00,9.00,T,29.54,M,9.00,M,FEW,BKN,OVC,M,2000.00,3700.00,6000.00,M,M,M,M,M,M,M,M,27.37,KRNO 162127Z 35009KT 9SM FEW020 BKN037 OVC060 02/M02 A2954 RMK AO2 SNE26 P0000 T00171017,M
ELY,2023-01-16 21:30,-114.8453,39.2950,1909.00,27.00,25.00,92.05,30.00,8.00,0.02,29.48,M,0.75,M,FEW,OVC,M,M,500.00,1300.00,M,M,-SN BR,M,M,M,M,M,M,17.95,KELY 162130Z AUTO 03008KT 3/4SM -SN BR FEW005 OVC013 M03/M04 A2948 RMK AO2 P0002 T10281039,M
BVU,2023-01-16 21:35,-114.8611,35.9475,671.00,51.80,46.40,81.74,200.00,18.00,0.00,29.58,M,7.00,27.00,FEW,BKN,OVC,M,1300.00,2700.00,5000.00,M,VCTS,M,M,M,M,M,M,51.80,KBVU 162135Z AUTO 20018G27KT 7SM VCTS FEW013 BKN027 OVC050 11/08 A2958 RMK AO2 LTG DSNT ALQDS,M
CXP,2023-01-16 21:35,-119.7326,39.1923,1431.00,32.00,30.20,92.97,0.00,0.00,0.00,29.55,M,9.00,M,SCT,SCT,BKN,M,400.00,2400.00,4100.00,M,-RA,M,M,M,M,M,M,32.00,KCXP 162135Z AUTO 00000KT 9SM -RA SCT004 SCT024 BKN041 00/M01 A2955 RMK AO2,M
RTS,2023-01-16 21:35,-119.8764,39.6682,1539.00,32.00,28.40,86.39,330.00,6.00,0.00,29.55,M,3.00,M,CLR,M,M,M,M,M,M,M,-SN,M,M,M,M,M,M,25.53,KRTS 162135Z AUTO 33006KT 3SM -SN CLR M00/M02 A2955 RMK AO2,M
05U,2023-01-16 21:35,-116.0051,39.6042,1811.23,32.00,26.60,80.22,20.00,7.00,0.00,29.46,M,6.00,M,M,M,M,M,M,M,M,M,HZ,M,M,M,M,M,M,24.78,K05U 162135Z AUTO 02007KT 6SM HZ 00/M03 A2946 RMK A01,M
MEV,2023-01-16 21:35,-119.7500,38.9963,1441.42,33.80,30.20,86.49,0.00,0.00,0.00,29.54,M,6.00,M,FEW,BKN,BKN,M,1200.00,2400.00,2900.00,M,-RA BR,M,M,M,M,M,M,33.80,KMEV 162135Z AUTO 00000KT 6SM -RA BR FEW012 BKN024 BKN029 01/M01 A2954 RMK AO2,M
BAM,2023-01-16 21:35,-116.8743,40.5990,1382.36,37.40,30.20,74.98,50.00,9.00,0.00,29.49,M,10.00,M,SCT,BKN,OVC,M,3500.00,4100.00,5000.00,M,M,M,M,M,M,M,M,30.23,KBAM 162135Z AUTO 05009KT 10SM SCT035 BKN041 OVC050 03/M01 A2949 RMK AO1,M
NFL,2023-01-16 21:36,-118.7010,39.4166,1199.00,32.00,32.00,100.00,290.00,8.00,0.02,29.52,M,0.75,M,FEW,OVC,M,M,600.00,1100.00,M,M,-SN BR,M,M,M,M,M,M,24.11,KNFL 162136Z AUTO 29008KT 3/4SM -SN BR FEW006 OVC011 00/00 A2952 RMK AO2 P0002 T00000000 $,M
HND,2023-01-16 21:43,-115.1344,35.9729,742.79,55.40,42.80,62.46,200.00,19.00,0.02,29.57,M,10.00,26.00,FEW,M,M,M,5500.00,M,M,M,M,M,M,M,30.00,210.00,2023-01-16 21:26,55.40,KHND 162143Z 20019G26KT 10SM FEW055 13/06 A2957 RMK AO2 PK WND 21030/2126 LTG DSNT S TSE37RAE18 P0002,M
P68,2023-01-16 21:53,-116.0056,39.6014,1993.00,30.90,26.10,82.15,10.00,6.00,0.00,29.44,998.30,M,M,M,M,M,M,M,M,M,M,M,M,M,M,M,M,M,24.21,KP68 162153Z AUTO 01006KT M01/M03 A2944 RMK AO1 SLP983 T10061033,M
ELY,2023-01-16 21:53,-114.8453,39.2950,1909.00,27.00,25.00,92.05,20.00,8.00,0.04,29.48,999.20,1.00,M,SCT,OVC,M,M,1000.00,1600.00,M,M,-SN BR,M,M,M,M,M,M,17.95,KELY 162153Z AUTO 02008KT 1SM -SN BR SCT010 OVC016 M03/M04 A2948 RMK AO2 SLP992 P0004 T10281039,M
VGT,2023-01-16 21:53,-115.1933,36.2111,667.00,60.00,33.00,36.05,230.00,27.00,0.01,29.50,1000.10,10.00,40.00,CLR,M,M,M,M,M,M,M,M,M,M,M,40.00,220.00,2023-01-16 21:44,60.10,KVGT 162153Z 23027G40KT 10SM CLR 16/01 A2950 RMK AO2 PK WND 22040/2144 RAE15 SLP001 P0001 T01560006,M
LOL,2023-01-16 21:53,-118.5701,40.0684,1192.43,33.00,33.00,100.00,340.00,3.00,0.01,29.51,1000.50,0.75,M,VV ,M,M,M,1300.00,M,M,M,-SN BR,M,M,M,M,M,M,29.95,KLOL 162153Z AUTO 34003KT 3/4SM -SN BR VV013 01/01 A2951 RMK AO2 SLP005 P0001 T00060006,M
BVU,2023-01-16 21:55,-114.8611,35.9475,671.00,51.80,46.40,81.74,230.00,10.00,0.00,29.59,M,3.00,19.00,FEW,BKN,OVC,M,1200.00,2400.00,3700.00,M,-RA,M,M,M,M,M,M,51.80,KBVU 162155Z AUTO 23010G19KT 3SM -RA FEW012 BKN024 OVC037 11/08 A2959 RMK AO2 LTG DSNT NE AND S AND SW,M
CXP,2023-01-16 21:55,-119.7326,39.1923,1431.00,33.80,30.20,86.49,0.00,0.00,0.01,29.55,M,9.00,M,SCT,SCT,BKN,M,1200.00,2400.00,4000.00,M,-RA,M,M,M,M,M,M,33.80,KCXP 162155Z AUTO 00000KT 9SM -RA SCT012 SCT024 BKN040 01/M01 A2955 RMK AO2 P0001,M
INS,2023-01-16 21:55,-115.6733,36.5872,955.00,54.30,26.60,34.10,230.00,21.00,0.15,29.46,995.80,10.00,30.00,CLR,M,M,M,M,M,M,M,M,M,M,M,37.00,210.00,2023-01-16 21:22,54.30,KINS 162155Z AUTO 23021G30KT 10SM CLR 12/M03 A2946 RMK AO2 PK WND 21037/22 SLP958 P0015 T01241030 $,M
RNO,2023-01-16 21:55,-119.7711,39.4839,1341.00,35.00,28.90,77.88,350.00,6.00,T,29.55,1000.80,10.00,M,FEW,OVC,M,M,2000.00,3500.00,M,M,M,M,M,M,M,M,M,29.26,KRNO 162155Z 35006KT 10SM FEW020 OVC035 02/M02 A2955 RMK AO2 SNE26 SLP008 P0000 T00171017,M
LSV,2023-01-16 21:55,-115.0343,36.2362,570.00,59.40,44.60,57.93,210.00,30.00,T,29.47,997.40,10.00,36.00,CLR,M,M,M,M,M,M,M,M,M,M,M,M,M,M,59.40,KLSV 162155Z AUTO 21030G36KT 10SM CLR 15/07 A2947 RMK AO2 RAE06 SLP974 P0000 T01520070 $,M
RTS,2023-01-16 21:55,-119.8764,39.6682,1539.00,32.00,28.40,86.39,340.00,10.00,0.00,29.55,M,4.00,M,SCT,M,M,M,3700.00,M,M,M,-SN,M,M,M,M,M,M,22.97,KRTS 162155Z AUTO 34010KT 4SM -SN SCT037 M00/M02 A2955 RMK AO2,M
05U,2023-01-16 21:55,-116.0051,39.6042,1811.23,33.80,26.60,74.63,30.00,5.00,0.00,29.46,M,10.00,M,M,M,M,M,M,M,M,M,M,M,M,M,M,M,M,28.53,K05U 162155Z AUTO 03005KT 10SM 01/M03 A2946 RMK A01,M
MEV,2023-01-16 21:55,-119.7500,38.9963,1441.42,33.80,30.20,86.49,0.00,0.00,0.00,29.54,M,10.00,M,SCT,SCT,SCT,M,1400.00,2300.00,5000.00,M,M,M,M,M,M,M,M,33.80,KMEV 162155Z AUTO 00000KT 10SM SCT014 SCT023 SCT050 01/M01 A2954 RMK AO2,M
BAM,2023-01-16 21:55,-116.8743,40.5990,1382.36,37.40,30.20,74.98,30.00,11.00,0.00,29.49,M,10.00,M,BKN,OVC,M,M,3000.00,3900.00,M,M,M,M,M,M,M,M,M,29.29,KBAM 162155Z AUTO 03011KT 10SM BKN030 OVC039 03/M01 A2949 RMK AO1,M
EKO,2023-01-16 21:56,-115.7860,40.8242,1367.00,35.00,25.00,66.31,70.00,8.00,0.00,29.48,999.90,10.00,M,FEW,OVC,M,M,2500.00,4700.00,M,M,M,M,M,M,M,M,M,27.93,KEKO 162156Z AUTO 07008KT 10SM FEW025 OVC047 02/M04 A2948 RMK AO2 SLP999 T00171039,M
WMC,2023-01-16 21:56,-117.8072,40.9019,1315.00,39.00,28.90,66.79,10.00,12.00,0.00,29.50,998.90,10.00,M,OVC,M,M,M,6500.00,M,M,M,M,M,M,M,M,M,M,30.91,KWMC 162156Z AUTO 01012KT 10SM OVC065 04/M02 A2950 RMK AO2 SLP989 T00391017 $,M
LAS,2023-01-16 21:56,-115.1634,36.0719,663.00,57.00,38.00,48.73,230.00,18.00,T,29.54,999.70,10.00,30.00,FEW,SCT,SCT,M,2700.00,6000.00,9000.00,M,M,M,M,M,35.00,210.00,2023-01-16 21:36,57.00,KLAS 162156Z 23018G30KT 10SM FEW027 SCT060 SCT090 14/03 A2954 RMK AO2 PK WND 21035/2136 LTG DSNT S RAE14 TSE07 SLP997 CB DSNT SE P0000 T01390033,M
NFL,2023-01-16 21:56,-118.7010,39.4166,1199.00,33.00,32.00,95.67,290.00,9.00,0.03,29.52,998.50,1.00,M,SCT,OVC,M,M,500.00,1500.00,M,M,-SN BR,M,M,M,M,M,M,24.88,KNFL 162156Z AUTO 29009KT 1SM -SN BR SCT005 OVC015 01/00 A2952 RMK AO2 SLP985 P0003 T00060000 $,M
HND,2023-01-16 21:56,-115.1344,35.9729,742.79,56.00,43.00,61.81,200.00,20.00,0.02,29.56,1002.40,10.00,26.00,BKN,M,M,M,5000.00,M,M,M,M,M,M,M,30.00,210.00,2023-01-16 21:26,55.90,KHND 162156Z 20020G26KT 10SM BKN050 13/06 A2956 RMK AO2 PK WND 21030/2126 LTG DSNT SE AND S TSE37RAE18 SLP024 P0002 T01330061,M
TPH,2023-01-16 21:56,-117.0904,38.0505,1654.00,40.00,33.00,76.44,280.00,14.00,0.00,29.46,996.90,10.00,24.00,SCT,BKN,OVC,M,3300.00,4100.00,7500.00,M,M,M,M,M,26.00,210.00,2023-01-16 20:59,31.35,KTPH 162156Z AUTO 28014G24KT 10SM SCT033 BKN041 OVC075 04/01 A2946 RMK AO2 PK WND 21026/2059 SLP969 T00440006,M
ELY,2023-01-16 21:58,-114.8453,39.2950,1909.00,28.00,26.10,92.86,360.00,7.00,T,29.47,M,2.00,M,SCT,OVC,M,M,1000.00,1600.00,M,M,-SN BR,M,M,M,M,M,M,20.39,KELY 162158Z AUTO 36007KT 2SM -SN BR SCT010 OVC016 M02/M03 A2947 RMK AO2 P0000 T10221033,M
RNO,2023-01-16 21:59,-119.7711,39.4839,1341.00,35.00,28.90,77.88,360.00,6.00,T,29.55,M,5.00,M,SCT,OVC,M,M,2000.00,3200.00,M,M,-SN,M,M,M,M,M,M,29.26,KRNO 162159Z 36006KT 5SM -SN SCT020 OVC032 02/M02 A2955 RMK AO2 SNB59 P0000 T00171017,M
ELY,2023-01-16 22:01,-114.8453,39.2950,1909.00,28.00,26.10,92.46,10.00,8.00,T,29.48,M,3.00,M,OVC,M,M,M,1400.00,M,M,M,-SN BR,M,M,M,M,M,M,19.19,KELY 162201Z AUTO 01008KT 3SM -SN BR OVC014 M02/M03 A2948 RMK AO2 P0000 T10221033,M
TPH,2023-01-16 22:03,-117.0904,38.0505,1654.00,36.00,30.00,78.60,280.00,15.00,T,29.45,M,2.50,28.00,SCT,BKN,OVC,M,2600.00,3400.00,7500.00,M,-SN,M,M,M,28.00,290.00,2023-01-16 21:59,25.97,KTPH 162203Z AUTO 28015G28KT 2 1/2SM -SN SCT026 BKN034 OVC075 02/M01 A2945 RMK AO2 PK WND 29028/2159 WSHFT 2147 RAB2159E01SNB01 P0000 T00221011,M
NFL,2023-01-16 22:08,-118.7010,39.4166,1199.00,33.00,32.00,95.67,300.00,10.00,T,29.53,M,1.50,M,BKN,OVC,M,M,400.00,1900.00,M,M,-SN BR,M,M,M,M,M,M,24.35,KNFL 162208Z AUTO 30010KT 1 1/2SM -SN BR BKN004 OVC019 01/00 A2953 RMK AO2 P0000 T00060000 $,M
BVU,2023-01-16 22:15,-114.8611,35.9475,671.00,51.80,46.40,81.74,210.00,16.00,0.00,29.58,M,10.00,26.00,BKN,BKN,OVC,M,2800.00,4100.00,6000.00,M,M,M,M,M,M,M,M,51.80,KBVU 162215Z AUTO 21016G26KT 10SM BKN028 BKN041 OVC060 11/08 A2958 RMK AO2,M
CXP,2023-01-16 22:15,-119.7326,39.1923,1431.00,33.80,30.20,86.49,0.00,0.00,0.00,29.56,M,10.00,M,FEW,FEW,BKN,M,1200.00,2900.00,5000.00,M,M,M,M,M,M,M,M,33.80,KCXP 162215Z AUTO 00000KT 10SM FEW012 FEW029 BKN050 01/M01 A2956 RMK AO2,M
RTS,2023-01-16 22:15,-119.8764,39.6682,1539.00,30.20,28.40,92.92,350.00,11.00,0.00,29.56,M,8.00,M,SCT,M,M,M,3600.00,M,M,M,-UP,M,M,M,M,M,M,20.19,KRTS 162215Z AUTO 35011KT 8SM -UP SCT036 M01/M02 A2956 RMK AO2,M
05U,2023-01-16 22:15,-116.0051,39.6042,1811.23,33.80,26.60,74.63,50.00,6.00,0.00,29.46,M,10.00,M,M,M,M,M,M,M,M,M,M,M,M,M,M,M,M,27.70,K05U 162215Z AUTO 05006KT 10SM 01/M03 A2946 RMK A01,M
MEV,2023-01-16 22:15,-119.7500,38.9963,1441.42,33.80,30.20,86.49,110.00,5.00,0.00,29.55,M,10.00,M,FEW,FEW,M,M,1500.00,4800.00,M,M,M,M,M,M,M,M,M,28.53,KMEV 162215Z AUTO 11005KT 10SM FEW015 FEW048 01/M01 A2955 RMK AO2,M
BAM,2023-01-16 22:15,-116.8743,40.5990,1382.36,35.60,32.00,86.59,50.00,11.00,0.00,29.49,M,10.00,M,OVC,M,M,M,3200.00,M,M,M,M,M,M,M,M,M,M,27.02,KBAM 162215Z AUTO 05011KT 10SM OVC032 02/00 A2949 RMK AO1,M
TPH,2023-01-16 22:16,-117.0904,38.0505,1654.00,37.00,32.00,81.93,270.00,5.00,T,29.45,M,9.00,M,FEW,BKN,OVC,M,2900.00,7000.00,8500.00,M,M,M,M,M,28.00,290.00,2023-01-16 21:59,32.33,KTPH 162216Z AUTO 27005KT 9SM FEW029 BKN070 OVC085 03/00 A2945 RMK AO2 PK WND 29028/2159 WSHFT 2147 RAB2159E01SNB01E16 P0000 T00280000,M
NFL,2023-01-16 22:18,-118.7010,39.4166,1199.00,33.00,32.00,95.67,300.00,11.00,T,29.54,M,2.00,M,SCT,BKN,OVC,M,400.00,2700.00,3100.00,M,-SN BR,M,M,M,M,M,M,23.86,KNFL 162218Z AUTO 30011KT 2SM -SN BR SCT004 BKN027 OVC031 01/00 A2954 RMK AO2 P0000 T00060000 $,M
NFL,2023-01-16 22:29,-118.7010,39.4166,1199.00,33.00,32.00,95.67,290.00,10.00,T,29.55,M,1.50,M,SCT,BKN,OVC,M,500.00,2700.00,3300.00,M,-SN BR,M,M,M,M,M,M,24.35,KNFL 162229Z AUTO 29010KT 1 1/2SM -SN BR SCT005 BKN027 OVC033 01/00 A2955 RMK AO2 P0000 T00060000 $,M
BVU,2023-01-16 22:35,-114.8611,35.9475,671.00,53.60,44.60,71.45,190.00,17.00,0.00,29.58,M,10.00,M,BKN,BKN,OVC,M,5000.00,6000.00,9500.00,M,M,M,M,M,M,M,M,53.60,KBVU 162235Z AUTO 19017KT 10SM BKN050 BKN060 OVC095 12/07 A2958 RMK AO2,M
CXP,2023-01-16 22:35,-119.7326,39.1923,1431.00,33.80,30.20,86.49,0.00,0.00,0.00,29.57,M,9.00,M,BKN,BKN,M,M,4800.00,5500.00,M,M,M,M,M,M,M,M,M,33.80,KCXP 162235Z AUTO 00000KT 9SM BKN048 BKN055 01/M01 A2957 RMK AO2,M
RTS,2023-01-16 22:35,-119.8764,39.6682,1539.00,30.20,26.60,86.28,350.00,10.00,0.00,29.58,M,4.00,M,CLR,M,M,M,M,M,M,M,-SN,M,M,M,M,M,M,20.71,KRTS 162235Z AUTO 35010KT 4SM -SN CLR M01/M03 A2958 RMK AO2,M
05U,2023-01-16 22:35,-116.0051,39.6042,1811.23,32.00,26.60,80.22,30.00,7.00,0.00,29.47,M,10.00,M,M,M,M,M,M,M,M,M,M,M,M,M,M,M,M,24.78,K05U 162235Z AUTO 03007KT 10SM M00/M03 A2947 RMK A01,M
MEV,2023-01-16 22:35,-119.7500,38.9963,1441.42,32.00,30.20,92.97,110.00,4.00,0.00,29.56,M,10.00,M,FEW,SCT,M,M,4600.00,6000.00,M,M,M,M,M,M,M,M,M,27.42,KMEV 162235Z AUTO 11004KT 10SM FEW046 SCT060 00/M01 A2956 RMK AO2,M
BAM,2023-01-16 22:35,-116.8743,40.5990,1382.36,35.60,32.00,86.59,50.00,9.00,0.00,29.50,M,7.00,M,OVC,M,M,M,3300.00,M,M,M,M,M,M,M,M,M,M,27.99,KBAM 162235Z AUTO 05009KT 7SM OVC033 02/00 A2950 RMK AO1,M
RNO,2023-01-16 22:39,-119.7711,39.4839,1341.00,35.00,28.00,75.06,330.00,9.00,T,29.57,M,3.00,M,BKN,OVC,M,M,2600.00,4300.00,M,M,-SN,M,M,M,M,M,M,27.37,KRNO 162239Z 33009KT 3SM -SN BKN026 OVC043 02/M02 A2957 RMK AO2 SNB2159 P0000 T00171022 $,M
ELY,2023-01-16 22:40,-114.8453,39.2950,1909.00,28.00,26.10,92.86,20.00,6.00,T,29.47,M,1.75,M,OVC,M,M,M,1400.00,M,M,M,-SN BR,M,M,M,M,M,M,21.19,KELY 162240Z AUTO 02006KT 1 3/4SM -SN BR OVC014 M02/M03 A2947 RMK AO2 P0000 T10221033,M
RNO,2023-01-16 22:42,-119.7711,39.4839,1341.00,35.00,28.00,74.80,340.00,10.00,T,29.57,M,1.00,M,OVC,M,M,M,2100.00,M,M,M,-SN,M,M,M,M,M,M,27.48,KRNO 162242Z 34010KT 1SM -SN OVC021 02/M02 A2957 RMK AO2 SNB2159 P0000 T00171022 RVRNO $,M
LOL,2023-01-16 22:42,-118.5701,40.0684,1192.43,32.00,32.00,100.00,0.00,0.00,0.04,29.54,M,1.25,M,BKN,OVC,M,M,1300.00,1800.00,M,M,-SN BR,M,M,M,M,M,M,32.00,KLOL 162242Z AUTO 00000KT 1 1/4SM -SN BR BKN013 OVC018 00/00 A2954 RMK AO2 P0004 T00000000,M
NFL,2023-01-16 22:43,-118.7010,39.4166,1199.00,33.00,32.00,95.67,300.00,9.00,T,29.56,M,2.00,M,FEW,BKN,OVC,M,500.00,3000.00,3800.00,M,-SN BR,M,M,M,M,M,M,24.88,KNFL 162243Z AUTO 30009KT 2SM -SN BR FEW005 BKN030 OVC038 01/00 A2956 RMK AO2 P0000 T00060000 $,M
ELY,2023-01-16 22:44,-114.8453,39.2950,1909.00,28.00,26.10,92.86,10.00,6.00,T,29.48,M,1.25,M,BKN,OVC,M,M,1500.00,2000.00,M,M,-SN BR,M,M,M,M,M,M,21.19,KELY 162244Z AUTO 01006KT 1 1/4SM -SN BR BKN015 OVC020 M02/M03 A2948 RMK AO2 P0000 T10221033,M
LOL,2023-01-16 22:50,-118.5701,40.0684,1192.43,32.00,32.00,100.00,0.00,0.00,0.04,29.54,M,1.25,M,FEW,OVC,M,M,1100.00,1800.00,M,M,-SN BR,M,M,M,M,M,M,32.00,KLOL 162250Z AUTO 00000KT 1 1/4SM -SN BR FEW011 OVC018 00/00 A2954 RMK AO2 P0004,M
P68,2023-01-16 22:53,-116.0056,39.6014,1993.00,30.90,26.10,82.15,20.00,7.00,0.00,29.44,998.30,M,M,M,M,M,M,M,M,M,M,M,M,M,M,M,M,M,23.44,KP68 162253Z AUTO 02007KT M01/M03 A2944 RMK AO1 SLP983 T10061033,M
ELY,2023-01-16 22:53,-114.8453,39.2950,1909.00,28.00,26.10,92.46,10.00,4.00,0.01,29.48,999.20,0.75,M,OVC,M,M,M,1500.00,M,M,M,-SN BR,M,M,M,M,M,M,22.75,KELY 162253Z AUTO 01004KT 3/4SM -SN BR OVC015 M02/M03 A2948 RMK AO2 SLP992 P0001 T10221033,M
LOL,2023-01-16 22:53,-118.5701,40.0684,1192.43,32.00,32.00,100.00,0.00,0.00,0.04,29.55,1001.90,1.50,M,FEW,OVC,M,M,1100.00,1800.00,M,M,-SN BR,M,M,M,M,M,M,32.00,KLOL 162253Z AUTO 00000KT 1 1/2SM -SN BR FEW011 OVC018 00/00 A2955 RMK AO2 SLP019 P0004 T00000000,M
VGT,2023-01-16 22:53,-115.1933,36.2111,667.00,60.00,28.00,29.31,220.00,27.00,0.00,29.50,1000.20,10.00,41.00,CLR,M,M,M,M,M,M,M,M,M,M,M,41.00,220.00,2023-01-16 22:46,60.10,KVGT 162253Z 22027G41KT 10SM CLR 16/M02 A2950 RMK AO2 PK WND 22041/2246 SLP002 T01561022,M
BVU,2023-01-16 22:55,-114.8611,35.9475,671.00,55.40,44.60,66.91,180.00,13.00,0.00,29.59,M,10.00,M,SCT,BKN,BKN,M,4800.00,6000.00,7500.00,M,M,M,M,M,M,M,M,55.40,KBVU 162255Z AUTO 18013KT 10SM SCT048 BKN060 BKN075 13/07 A2959 RMK AO2,M
CXP,2023-01-16 22:55,-119.7326,39.1923,1431.00,33.80,30.20,86.49,0.00,0.00,0.00,29.58,M,8.00,M,FEW,BKN,BKN,M,3600.00,4600.00,5500.00,M,-RA,M,M,M,M,M,M,33.80,KCXP 162255Z AUTO 00000KT 8SM -RA FEW036 BKN046 BKN055 01/M01 A2958 RMK AO2,M
INS,2023-01-16 22:55,-115.6733,36.5872,955.00,54.00,24.10,31.07,230.00,22.00,0.00,29.47,996.40,10.00,31.00,CLR,M,M,M,M,M,M,M,M,M,M,M,36.00,210.00,2023-01-16 22:40,54.00,KINS 162255Z AUTO 23022G31KT 10SM CLR 12/M04 A2947 RMK AO2 PK WND 21036/40 SLP964 T01221044 $,M
RNO,2023-01-16 22:55,-119.7711,39.4839,1341.00,33.00,28.90,84.36,340.00,8.00,0.01,29.58,1002.00,1.00,M,OVC,M,M,M,1700.00,M,M,M,-SN BR,M,M,M,M,M,M,25.47,KRNO 162255Z 34008KT 1SM -SN BR OVC017 01/M02 A2958 RMK AO2 SNB2159 SLP020 P0001 T00061017 RVRNO $,M
RTS,2023-01-16 22:55,-119.8764,39.6682,1539.00,30.20,26.60,86.28,340.00,9.00,0.00,29.59,M,7.00,M,FEW,FEW,FEW,M,2300.00,2900.00,3900.00,M,-UP,M,M,M,M,M,M,21.28,KRTS 162255Z AUTO 34009KT 7SM -UP FEW023 FEW029 FEW039 M01/M03 A2959 RMK AO2,M
05U,2023-01-16 22:55,-116.0051,39.6042,1811.23,32.00,26.60,80.22,30.00,6.00,0.00,29.47,M,9.00,M,M,M,M,M,M,M,M,M,M,M,M,M,M,M,M,25.53,K05U 162255Z AUTO 03006KT 9SM 00/M03 A2947 RMK A01,M
MEV,2023-01-16 22:55,-119.7500,38.9963,1441.42,32.00,30.20,92.97,100.00,5.00,0.00,29.57,M,10.00,M,FEW,SCT,M,M,4600.00,6000.00,M,M,M,M,M,M,M,M,M,26.40,KMEV 162255Z AUTO 10005KT 10SM FEW046 SCT060 00/M01 A2957 RMK AO2,M
BAM,2023-01-16 22:55,-116.8743,40.5990,1382.36,35.60,32.00,86.59,50.00,10.00,0.00,29.51,M,7.00,M,OVC,M,M,M,3300.00,M,M,M,M,M,M,M,M,M,M,27.48,KBAM 162255Z AUTO 05010KT 7SM OVC033 02/00 A2951 RMK AO1,M
LSV,2023-01-16 22:55,-115.0343,36.2362,570.00,60.60,38.00,42.84,210.00,28.00,0.01,29.49,997.90,10.00,35.00,CLR,M,M,M,M,M,M,M,M,M,M,M,35.00,210.00,2023-01-16 22:52,60.60,KLSV 162255Z AUTO 21028G35KT 10SM CLR 16/03 A2949 RMK AO2 PK WND 21035/52 SLP979 P0001 T01590033 $,M
EKO,2023-01-16 22:56,-115.7860,40.8242,1367.00,34.00,25.00,69.28,50.00,10.00,0.00,29.49,1000.80,10.00,M,FEW,OVC,M,M,3400.00,5500.00,M,M,M,M,M,M,M,M,M,25.48,KEKO 162256Z AUTO 05010KT 10SM FEW034 OVC055 01/M04 A2949 RMK AO2 SLP008 T00111039,M
WMC,2023-01-16 22:56,-117.8072,40.9019,1315.00,37.00,28.90,72.24,30.00,9.00,T,29.52,1000.00,10.00,M,FEW,OVC,M,M,2500.00,4500.00,M,M,M,M,M,M,M,M,M,29.73,KWMC 162256Z AUTO 03009KT 10SM FEW025 OVC045 03/M02 A2952 RMK AO2 SNB26E44 SLP000 P0000 T00281017 $,M
NFL,2023-01-16 22:56,-118.7010,39.4166,1199.00,33.00,32.00,95.67,300.00,9.00,T,29.56,999.80,2.50,M,FEW,OVC,M,M,500.00,3800.00,M,M,-SN BR,M,M,M,M,M,M,24.88,KNFL 162256Z AUTO 30009KT 2 1/2SM -SN BR FEW005 OVC038 01/00 A2956 RMK AO2 SLP998 P0000 T00060000 $,M
HND,2023-01-16 22:56,-115.1344,35.9729,742.79,57.00,34.00,41.76,230.00,19.00,0.00,29.58,1002.90,10.00,25.00,CLR,M,M,M,M,M,M,M,M,M,M,M,28.00,210.00,2023-01-16 22:34,57.00,KHND 162256Z 23019G25KT 10SM CLR 14/01 A2958 RMK AO2 PK WND 21028/2234 SLP029 T01390011,M
TPH,2023-01-16 22:56,-117.0904,38.0505,1654.00,41.00,28.00,59.55,310.00,12.00,T,29.48,997.90,10.00,M,OVC,M,M,M,11000.00,M,M,M,M,M,M,M,28.00,290.00,2023-01-16 21:59,33.46,KTPH 162256Z AUTO 31012KT 10SM OVC110 05/M02 A2948 RMK AO2 PK WND 29028/2159 WSHFT 2147 RAB2159E01SNB01E16 SLP979 P0000 T00501022,M
LAS,2023-01-16 22:56,-115.1634,36.0719,663.00,57.00,33.00,40.28,230.00,12.00,0.00,29.55,1000.20,10.00,29.00,FEW,FEW,M,M,6000.00,9000.00,M,M,M,M,M,M,37.00,230.00,2023-01-16 22:26,57.00,KLAS 162256Z 23012G29KT 10SM FEW060 FEW090 14/01 A2955 RMK AO2 PK WND 23037/2226 SLP002 T01390006,M
NFL,2023-01-16 23:04,-118.7010,39.4166,1199.00,33.00,32.00,95.67,300.00,9.00,T,29.57,M,4.00,M,FEW,BKN,OVC,M,500.00,4000.00,4800.00,M,-SN BR,M,M,M,M,M,M,24.88,KNFL 162304Z AUTO 30009KT 4SM -SN BR FEW005 BKN040 OVC048 01/00 A2957 RMK AO2 P0000 T00060000 $,M
LOL,2023-01-16 23:04,-118.5701,40.0684,1192.43,33.00,33.00,100.00,0.00,0.00,0.01,29.55,M,3.00,M,OVC,M,M,M,1800.00,M,M,M,-SN BR,M,M,M,M,M,M,33.10,KLOL 162304Z AUTO 00000KT 3SM -SN BR OVC018 01/01 A2955 RMK AO2 P0001 T00060006,M
RNO,2023-01-16 23:06,-119.7711,39.4839,1341.00,33.00,30.00,88.23,360.00,8.00,T,29.58,M,3.00,M,BKN,OVC,M,M,2500.00,4800.00,M,M,-SN BR,M,M,M,M,M,M,25.47,KRNO 162306Z 36008KT 3SM -SN BR BKN025 OVC048 01/M01 A2958 RMK AO2 P0000 T00061011 $,M
ELY,2023-01-16 23:07,-114.8453,39.2950,1909.00,28.00,26.10,92.46,30.00,6.00,T,29.48,M,1.50,M,FEW,BKN,OVC,M,1000.00,1700.00,3800.00,M,-SN BR,M,M,M,M,M,M,20.71,KELY 162307Z AUTO 03006KT 1 1/2SM -SN BR FEW010 BKN017 OVC038 M02/M03 A2948 RMK AO2 P0000 T10221033,M
05U,2023-01-16 23:10,-116.0051,39.6042,1811.23,M,M,M,30.00,5.00,0.00,29.48,M,M,M,M,M,M,M,M,M,M,M,M,M,M,M,M,M,M,M,K05U 162310Z AUTO 03005KT A2948 RMK A01,M
ELY,2023-01-16 23:11,-114.8453,39.2950,1909.00,28.00,26.10,92.86,30.00,7.00,T,29.48,M,3.00,M,FEW,BKN,OVC,M,1000.00,2200.00,4000.00,M,-SN BR,M,M,M,M,M,M,20.39,KELY 162311Z AUTO 03007KT 3SM -SN BR FEW010 BKN022 OVC040 M02/M03 A2948 RMK AO2 P0000 T10221033,M
BVU,2023-01-16 23:15,-114.8611,35.9475,671.00,55.40,42.80,62.46,190.00,14.00,0.00,29.59,M,10.00,22.00,FEW,BKN,BKN,M,4700.00,6000.00,7500.00,M,M,M,M,M,M,M,M,55.40,KBVU 162315Z AUTO 19014G22KT 10SM FEW047 BKN060 BKN075 13/06 A2959 RMK AO2 LTG DSNT E AND S,M
CXP,2023-01-16 23:15,-119.7326,39.1923,1431.00,33.80,30.20,86.49,180.00,4.00,0.00,29.60,M,5.00,M,FEW,SCT,BKN,M,2600.00,3700.00,4400.00,M,-RA HZ,M,M,M,M,M,M,29.52,KCXP 162315Z AUTO 18004KT 5SM -RA HZ FEW026 SCT037 BKN044 01/M01 A2960 RMK AO2,M
RTS,2023-01-16 23:15,-119.8764,39.6682,1539.00,30.20,26.60,86.28,340.00,9.00,0.00,29.60,M,1.00,M,CLR,M,M,M,M,M,M,M,-SN,M,M,M,M,M,M,21.28,KRTS 162315Z AUTO 34009KT 1SM -SN CLR M01/M03 A2960 RMK AO2,M
MEV,2023-01-16 23:15,-119.7500,38.9963,1441.42,33.80,28.40,80.36,90.00,5.00,0.00,29.58,M,10.00,M,FEW,SCT,SCT,M,4800.00,5500.00,10000.00,M,M,M,M,M,M,M,M,28.53,KMEV 162315Z AUTO 09005KT 10SM FEW048 SCT055 SCT100 01/M02 A2958 RMK AO2,M
BAM,2023-01-16 23:15,-116.8743,40.5990,1382.36,35.60,32.00,86.59,40.00,8.00,0.00,29.52,M,7.00,M,SCT,OVC,M,M,2800.00,3400.00,M,M,M,M,M,M,M,M,M,28.55,KBAM 162315Z AUTO 04008KT 7SM SCT028 OVC034 02/00 A2952 RMK AO1,M
ELY,2023-01-16 23:21,-114.8453,39.2950,1909.00,28.00,26.10,92.46,30.00,6.00,T,29.48,M,8.00,M,FEW,BKN,OVC,M,1300.00,3800.00,7000.00,M,M,M,M,M,M,M,M,20.71,KELY 162321Z AUTO 03006KT 8SM FEW013 BKN038 OVC070 M02/M03 A2948 RMK AO2 SNE16 P0000 T10221033,M
LOL,2023-01-16 23:31,-118.5701,40.0684,1192.43,35.00,33.00,92.32,360.00,3.00,0.01,29.57,M,10.00,M,BKN,OVC,M,M,1100.00,1900.00,M,M,-RA,M,M,M,M,M,M,32.23,KLOL 162331Z AUTO 36003KT 10SM -RA BKN011 OVC019 02/01 A2957 RMK AO2 RAB14SNE14 P0001 T00170006,M
BVU,2023-01-16 23:35,-114.8611,35.9475,671.00,57.20,39.20,50.91,210.00,18.00,0.00,29.59,M,10.00,M,FEW,SCT,M,M,5500.00,7000.00,M,M,M,M,M,M,M,M,M,57.20,KBVU 162335Z AUTO 21018KT 10SM FEW055 SCT070 14/04 A2959 RMK AO2 LTG DSNT SE,M
CXP,2023-01-16 23:35,-119.7326,39.1923,1431.00,33.80,30.20,86.49,40.00,3.00,0.00,29.60,M,2.00,M,SCT,SCT,SCT,M,2500.00,3100.00,3700.00,M,-RA BR,M,M,M,M,M,M,30.75,KCXP 162335Z AUTO 04003KT 2SM -RA BR SCT025 SCT031 SCT037 01/M01 A2960 RMK AO2 VIS 1V3,M
RTS,2023-01-16 23:35,-119.8764,39.6682,1539.00,30.20,26.60,86.28,350.00,10.00,0.00,29.61,M,1.75,M,CLR,M,M,M,M,M,M,M,-SN,M,M,M,M,M,M,20.71,KRTS 162335Z AUTO 35010KT 1 3/4SM -SN CLR M01/M03 A2961 RMK AO2,M
05U,2023-01-16 23:35,-116.0051,39.6042,1811.23,32.00,26.60,80.22,360.00,7.00,0.00,29.49,M,8.00,M,M,M,M,M,M,M,M,M,M,M,M,M,M,M,M,24.78,K05U 162335Z AUTO 36007KT 8SM M00/M03 A2949 RMK A01,M
MEV,2023-01-16 23:35,-119.7500,38.9963,1441.42,33.80,28.40,80.36,100.00,6.00,0.00,29.58,M,10.00,M,SCT,M,M,M,4600.00,M,M,M,M,M,M,M,M,M,M,27.70,KMEV 162335Z AUTO 10006KT 10SM SCT046 01/M02 A2958 RMK AO2,M
BAM,2023-01-16 23:35,-116.8743,40.5990,1382.36,33.80,32.00,93.03,40.00,10.00,0.00,29.52,M,3.00,M,BKN,BKN,OVC,M,2000.00,2600.00,3400.00,M,M,M,M,M,M,M,M,25.23,KBAM 162335Z AUTO 04010KT 3SM BKN020 BKN026 OVC034 01/00 A2952 RMK AO1,M
RNO,2023-01-16 23:36,-119.7711,39.4839,1341.00,34.00,28.90,81.37,340.00,8.00,T,29.60,M,2.00,M,BKN,OVC,M,M,2700.00,5000.00,M,M,-SN,M,M,M,M,M,M,26.58,KRNO 162336Z 34008KT 2SM -SN BKN027 OVC050 01/M02 A2960 RMK AO2 P0000 T00111017 $,M
ELY,2023-01-16 23:42,-114.8453,39.2950,1909.00,27.00,25.00,92.80,20.00,4.00,T,29.48,M,10.00,M,BKN,OVC,M,M,1500.00,6500.00,M,M,M,M,M,M,M,M,M,21.11,KELY 162342Z AUTO 02004KT 10SM BKN015 OVC065 M03/M04 A2948 RMK AO2 SNE16 P0000 T10281039,M
RNO,2023-01-16 23:46,-119.7711,39.4839,1341.00,33.00,28.90,84.36,340.00,8.00,T,29.61,M,1.00,M,BKN,OVC,M,M,2200.00,3000.00,M,M,-SN BR,M,M,M,M,M,M,25.47,KRNO 162346Z 34008KT 1SM -SN BR BKN022 OVC030 01/M02 A2961 RMK AO2 P0000 T00061017 RVRNO $,M
05U,2023-01-16 23:50,-116.0051,39.6042,1811.23,30.20,26.60,86.28,20.00,4.00,0.00,29.49,M,4.00,M,M,M,M,M,M,M,M,M,BR,M,M,M,M,M,M,25.32,K05U 162350Z AUTO 02004KT 4SM BR M01/M03 A2949 RMK A01,M
P68,2023-01-16 23:53,-116.0056,39.6014,1993.00,28.90,25.00,85.14,10.00,4.00,0.00,29.47,999.10,M,M,M,M,M,M,M,M,M,M,M,M,M,M,M,M,M,23.80,KP68 162353Z AUTO 01004KT M02/M04 A2947 RMK AO1 SLP991 T10171039 10000 21044 53004,M
ELY,2023-01-16 23:53,-114.8453,39.2950,1909.00,26.10,24.10,92.01,10.00,3.00,T,29.48,1000.00,10.00,M,BKN,OVC,M,M,1500.00,6000.00,M,M,M,M,M,M,M,M,M,21.94,KELY 162353Z AUTO 01003KT 10SM BKN015 OVC060 M03/M04 A2948 RMK AO2 SNE16 SLP000 P0000 60019 T10331044 11022 21039 55002,M
VGT,2023-01-16 23:53,-115.1933,36.2111,667.00,59.00,26.10,28.18,240.00,22.00,0.00,29.52,1000.70,10.00,33.00,CLR,M,M,M,M,M,M,M,M,M,M,M,40.00,220.00,2023-01-16 23:09,59.00,KVGT 162353Z 24022G33KT 10SM CLR 15/M03 A2952 RMK AO2 PK WND 22040/2309 SLP007 60001 T01501033 10161 20117 55009,M
LOL,2023-01-16 23:53,-118.5701,40.0684,1192.43,33.00,33.00,100.00,0.00,0.00,0.01,29.58,1003.10,10.00,M,BKN,OVC,M,M,1200.00,1700.00,M,M,-RA,M,M,M,M,M,M,33.10,KLOL 162353Z AUTO 00000KT 10SM -RA BKN012 OVC017 01/01 A2958 RMK AO2 RAB14SNE14 SLP031 P0001 60006 T00060006 10017 20000 51021,M
BVU,2023-01-16 23:55,-114.8611,35.9475,671.00,57.20,35.60,44.19,210.00,19.00,0.00,29.58,M,10.00,M,CLR,M,M,M,M,M,M,M,M,M,M,M,M,M,M,57.20,KBVU 162355Z AUTO 21019KT 10SM CLR 14/02 A2958 RMK AO2 LTG DSNT S,M
CXP,2023-01-16 23:55,-119.7326,39.1923,1431.00,32.00,30.20,92.97,0.00,0.00,0.00,29.62,M,3.00,M,FEW,M,M,M,2500.00,M,M,M,-SN BR,M,M,M,M,M,M,32.00,KCXP 162355Z AUTO 00000KT 3SM -SN BR FEW025 00/M01 A2962 RMK AO2,M
INS,2023-01-16 23:55,-115.6733,36.5872,955.00,52.20,21.70,30.01,210.00,22.00,0.01,29.49,997.10,10.00,31.00,CLR,M,M,M,M,M,M,M,M,M,M,M,35.00,210.00,2023-01-16 23:38,52.20,KINS 162355Z AUTO 21022G31KT 10SM CLR 11/M06 A2949 RMK AO2 PK WND 21035/38 SLP971 P0001 60085 T01121057 10124 20072 53008 $,M
RNO,2023-01-16 23:55,-119.7711,39.4839,1341.00,33.00,28.90,84.36,360.00,6.00,0.01,29.62,1003.40,1.00,M,OVC,M,M,M,1600.00,M,M,M,-SN BR,M,M,M,M,M,M,26.86,KRNO 162355Z 36006KT 1SM -SN BR OVC016 01/M02 A2962 RMK AO2 SLP034 4/003 P0001 60015 T00061017 10022 20006 53026 RVRNO $,3
RTS,2023-01-16 23:55,-119.8764,39.6682,1539.00,30.20,26.60,86.28,350.00,10.00,0.00,29.62,M,2.00,M,FEW,M,M,M,600.00,M,M,M,-SN,M,M,M,M,M,M,20.71,KRTS 162355Z AUTO 35010KT 2SM -SN FEW006 M01/M03 A2962 RMK AO2,M
MEV,2023-01-16 23:55,-119.7500,38.9963,1441.42,33.80,28.40,80.36,90.00,4.00,0.00,29.59,M,10.00,M,FEW,M,M,M,4400.00,M,M,M,M,M,M,M,M,M,M,29.52,KMEV 162355Z AUTO 09004KT 10SM FEW044 01/M02 A2959 RMK AO2,M
BAM,2023-01-16 23:55,-116.8743,40.5990,1382.36,33.80,32.00,93.03,40.00,8.00,0.00,29.53,M,1.50,M,SCT,OVC,M,M,500.00,1400.00,M,M,M,M,M,M,M,M,M,26.33,KBAM 162355Z AUTO 04008KT 1 1/2SM SCT005 OVC014 01/00 A2953 RMK AO1,M
LSV,2023-01-16 23:55,-115.0343,36.2362,570.00,59.00,34.70,39.97,210.00,21.00,0.00,29.51,998.60,10.00,32.00,CLR,M,M,M,M,M,M,M,M,M,M,M,35.00,210.00,2023-01-16 22:57,59.00,KLSV 162355Z AUTO 21021G32KT 10SM CLR 15/02 A2951 RMK AO2 PK WND 21035/2257 SLP986 60001 T01500015 10161 20111 53003 $,M
EKO,2023-01-16 23:56,-115.7860,40.8242,1367.00,33.00,26.10,75.18,40.00,7.00,T,29.51,1001.30,6.00,M,BKN,BKN,OVC,M,3800.00,4700.00,5500.00,M,-SN,M,M,M,M,M,M,26.12,KEKO 162356Z AUTO 04007KT 6SM -SN BKN038 BKN047 OVC055 01/M03 A2951 RMK AO2 SNB56 SLP013 P0000 60000 T00061033 10022 21028 53004,M
WMC,2023-01-16 23:56,-117.8072,40.9019,1315.00,37.00,28.00,69.63,10.00,14.00,0.00,29.55,1001.30,10.00,M,BKN,OVC,M,M,2600.00,3500.00,M,M,M,M,M,M,M,M,M,27.61,KWMC 162356Z AUTO 01014KT 10SM BKN026 OVC035 03/M02 A2955 RMK AO2 SLP013 60000 T00281022 10050 20022 53021 $,M
NFL,2023-01-16 23:56,-118.7010,39.4166,1199.00,33.00,32.00,95.67,290.00,9.00,T,29.60,1000.80,4.00,M,FEW,OVC,M,M,700.00,4100.00,M,M,-SN BR,M,M,M,M,M,M,24.88,KNFL 162356Z AUTO 29009KT 4SM -SN BR FEW007 OVC041 01/00 A2960 RMK AO2 SLP008 P0000 60012 T00060000 10011 20000 53029 $,M
HND,2023-01-16 23:56,-115.1344,35.9729,742.79,55.00,28.90,36.54,210.00,20.00,0.00,29.59,1003.60,10.00,M,CLR,M,M,M,M,M,M,M,M,M,M,M,28.00,210.00,2023-01-16 23:32,55.00,KHND 162356Z 21020KT 10SM CLR 13/M02 A2959 RMK AO2 PK WND 21028/2332 SLP036 60005 T01281017 10150 20117 53009,M
TPH,2023-01-16 23:56,-117.0904,38.0505,1654.00,38.00,23.00,54.60,320.00,14.00,0.00,29.52,999.20,10.00,22.00,CLR,M,M,M,M,M,M,M,M,M,M,M,M,M,M,28.77,KTPH 162356Z AUTO 32014G22KT 10SM CLR 03/M05 A2952 RMK AO2 SLP992 60001 T00331050 10056 20011 53025,M
LAS,2023-01-16 23:56,-115.1634,36.0719,663.00,56.00,30.00,36.98,220.00,14.00,0.00,29.55,1000.20,10.00,30.00,FEW,FEW,M,M,6000.00,9000.00,M,M,M,M,M,M,35.00,240.00,2023-01-16 23:38,55.90,KLAS 162356Z 22014G30KT 10SM FEW060 FEW090 13/M01 A2955 RMK AO2 PK WND 24035/2338 SLP002 60008 T01331011 10150 20106 56002,M
