station,valid,lon,lat,elevation,tmpf,dwpf,relh,drct,sknt,p01i,alti,mslp,vsby,gust,skyc1,skyc2,skyc3,skyc4,skyl1,skyl2,skyl3,skyl4,wxcodes,ice_accretion_1hr,ice_accretion_3hr,ice_accretion_6hr,peak_wind_gust,peak_wind_drct,peak_wind_time,feel,metar,snowdepth
BVU,2022-06-23 00:15,-114.8611,35.9475,671.00,93.20,39.20,15.27,90.00,6.00,0.00,29.94,M,10.00,13.00,SCT,M,M,M,12000.00,M,M,M,M,M,M,M,M,M,M,88.92,KBVU 230015Z AUTO 09006G13KT 10SM SCT120 34/04 A2994 RMK AO2,M
05U,2022-06-23 00:15,-116.0051,39.6042,1811.23,84.20,12.20,6.61,200.00,6.00,0.00,30.16,M,10.00,13.00,CLR,M,M,M,M,M,M,M,M,M,M,M,M,M,M,80.37,K05U 230015Z AUTO 20006G13KT 10SM CLR 29/M11 A3016 RMK A01,M
HTH,2022-06-23 00:15,-118.6315,38.5448,1282.89,84.20,30.20,14.18,150.00,22.00,0.00,30.09,M,10.00,M,CLR,M,M,M,M,M,M,M,M,M,M,M,M,M,M,81.26,KHTH 230015Z AUTO 15022KT 10SM CLR 29/M01 A3009 RMK A01,M
MEV,2022-06-23 00:15,-119.7500,38.9963,1441.42,84.20,39.20,20.29,270.00,13.00,0.00,30.06,M,10.00,M,CLR,M,M,M,M,M,M,M,M,M,M,M,M,M,M,81.44,KMEV 230015Z AUTO 27013KT 10SM CLR 29/04 A3006 RMK AO2,M
CXP,2022-06-23 00:15,-119.7326,39.1923,1431.00,87.80,14.00,6.38,90.00,12.00,0.00,30.06,M,10.00,M,CLR,M,M,M,M,M,M,M,M,M,M,M,M,M,M,83.00,KCXP 230015Z AUTO 09012KT 10SM CLR 31/M10 A3006 RMK AO2,M
BAM,2022-06-23 00:15,-116.8743,40.5990,1382.36,89.60,19.40,7.61,30.00,6.00,0.00,30.03,M,10.00,M,CLR,M,M,M,M,M,M,M,M,M,M,M,M,M,M,84.54,KBAM 230015Z AUTO 03006KT 10SM CLR 32/M07 A3003 RMK AO1,M
RTS,2022-06-23 00:15,-119.8764,39.6682,1539.00,84.20,12.20,6.61,0.00,0.00,0.00,30.09,M,10.00,M,CLR,M,M,M,M,M,M,M,M,M,M,M,M,M,M,80.37,KRTS 230015Z AUTO 00000KT 10SM CLR 29/M11 A3009 RMK AO2,M
TMT,2022-06-23 00:15,-117.1971,39.4643,1749.34,79.70,26.60,14.16,210.00,19.00,0.00,30.17,M,10.00,26.00,CLR,M,M,M,M,M,M,M,M,M,M,M,M,M,M,79.70,KTMT 230015Z AUTO 21019G26KT 10SM CLR 27/M03 A3017 RMK AO2 LTG DSNT S T02651030,M
HND,2022-06-23 00:18,-115.1344,35.9729,742.79,78.80,62.60,57.60,200.00,32.00,0.05,30.00,M,2.50,43.00,FEW,BKN,M,M,8000.00,11000.00,M,M,+RA,M,M,M,43.00,190.00,2022-06-23 00:15,78.80,KHND 230018Z 20032G43KT 2 1/2SM +RA FEW080 BKN110 26/17 A3000 RMK AO2 PK WND 19043/0015 RAB15 P0005,M
HND,2022-06-23 00:23,-115.1344,35.9729,742.79,75.20,62.60,64.91,220.00,16.00,0.08,30.04,M,3.00,43.00,SCT,BKN,M,M,8000.00,10000.00,M,M,RA,M,M,M,43.00,190.00,2022-06-23 00:15,75.20,KHND 230023Z 22016G43KT 3SM RA SCT080 BKN100 24/17 A3004 RMK AO2 PK WND 19043/0015 RAB15 PRESRR P0008,M
HND,2022-06-23 00:31,-115.1344,35.9729,742.79,77.00,60.80,57.36,240.00,18.00,0.09,30.04,M,9.00,26.00,SCT,BKN,OVC,M,7500.00,9000.00,11000.00,M,RA,M,M,M,43.00,190.00,2022-06-23 00:15,77.00,KHND 230031Z 24018G26KT 9SM RA SCT075 BKN090 OVC110 25/16 A3004 RMK AO2 PK WND 19043/0015 WSHFT 0011 RAB15 P0009,M
CXP,2022-06-23 00:35,-119.7326,39.1923,1431.00,86.00,14.00,6.75,90.00,9.00,0.00,30.06,M,10.00,16.00,CLR,M,M,M,M,M,M,M,M,M,M,M,M,M,M,81.71,KCXP 230035Z AUTO 09009G16KT 10SM CLR 30/M10 A3006 RMK AO2,M
BVU,2022-06-23 00:35,-114.8611,35.9475,671.00,91.40,44.60,19.89,230.00,10.00,0.00,29.96,M,10.00,22.00,BKN,M,M,M,12000.00,M,M,M,M,M,M,M,M,M,M,87.68,KBVU 230035Z AUTO 23010G22KT 10SM BKN120 33/07 A2996 RMK AO2,M
TMT,2022-06-23 00:35,-117.1971,39.4643,1749.34,78.60,25.50,14.03,220.00,17.00,0.00,30.16,M,10.00,22.00,CLR,M,M,M,M,M,M,M,M,M,M,M,M,M,M,78.60,KTMT 230035Z AUTO 22017G22KT 10SM CLR 26/M04 A3016 RMK AO2 T02591036,M
RTS,2022-06-23 00:35,-119.8764,39.6682,1539.00,84.20,12.20,6.61,0.00,0.00,0.00,30.09,M,10.00,M,CLR,M,M,M,M,M,M,M,M,M,M,M,M,M,M,80.37,KRTS 230035Z AUTO 00000KT 10SM CLR 29/M11 A3009 RMK AO2,M
05U,2022-06-23 00:35,-116.0051,39.6042,1811.23,82.40,17.60,8.87,260.00,17.00,0.00,30.15,M,10.00,M,CLR,M,M,M,M,M,M,M,M,M,M,M,M,M,M,79.36,K05U 230035Z AUTO 26017KT 10SM CLR 28/M08 A3015 RMK A01,M
MEV,2022-06-23 00:35,-119.7500,38.9963,1441.42,84.20,39.20,20.29,280.00,10.00,0.00,30.05,M,10.00,18.00,CLR,M,M,M,M,M,M,M,M,M,M,M,M,M,M,81.44,KMEV 230035Z AUTO 28010G18KT 10SM CLR 29/04 A3005 RMK AO2,M
BAM,2022-06-23 00:35,-116.8743,40.5990,1382.36,89.60,19.40,7.61,10.00,4.00,0.00,30.03,M,10.00,M,CLR,M,M,M,M,M,M,M,M,M,M,M,M,M,M,84.54,KBAM 230035Z AUTO 01004KT 10SM CLR 32/M07 A3003 RMK AO1,M
HTH,2022-06-23 00:35,-118.6315,38.5448,1282.89,82.40,32.00,16.17,150.00,15.00,0.00,30.09,M,10.00,22.00,CLR,M,M,M,M,M,M,M,M,M,M,M,M,M,M,80.00,KHTH 230035Z AUTO 15015G22KT 10SM CLR 28/M00 A3009 RMK A01,M
P68,2022-06-23 00:53,-116.0056,39.6014,1993.00,81.00,18.00,9.44,240.00,14.00,0.00,30.13,1013.40,M,22.00,M,M,M,M,M,M,M,M,M,M,M,M,M,M,M,78.46,KP68 230053Z AUTO 24014G22KT 27/M08 A3013 RMK AO1 SLP134 T02721078,M
ELY,2022-06-23 00:53,-114.8453,39.2950,1909.00,81.00,19.00,9.86,150.00,11.00,0.00,30.16,1013.10,10.00,15.00,CLR,M,M,M,M,M,M,M,M,M,M,M,M,M,M,78.51,KELY 230053Z AUTO 15011G15KT 10SM CLR 27/M07 A3016 RMK AO2 SLP131 T02721072,M
VGT,2022-06-23 00:53,-115.1933,36.2111,667.00,92.00,46.00,20.65,320.00,10.00,0.00,29.97,1013.40,10.00,18.00,OVC,M,M,M,11000.00,M,M,M,M,M,M,M,M,M,M,88.28,KVGT 230053Z 32010G18KT 10SM OVC110 33/08 A2997 RMK AO2 SLP134 T03330078,M
LOL,2022-06-23 00:53,-118.5701,40.0684,1192.43,90.00,14.00,5.95,170.00,7.00,0.00,29.98,1011.10,10.00,M,CLR,M,M,M,M,M,M,M,M,M,M,M,M,M,M,84.59,KLOL 230053Z AUTO 17007KT 10SM CLR 32/M10 A2998 RMK AO2 SLP111 T03221100,M
DRA,2022-06-23 00:53,-116.0278,36.6206,1009.00,79.00,48.00,33.66,280.00,14.00,0.00,30.11,1015.20,10.00,M,SCT,BKN,M,M,10000.00,11000.00,M,M,M,M,M,M,29.00,310.00,2022-06-23 00:01,79.00,KDRA 230053Z AUTO 28014KT 10SM SCT100 BKN110 26/09 A3011 RMK AO2 PK WND 31029/0001 SLP152 T02610089,M
05U,2022-06-23 00:55,-116.0051,39.6042,1811.23,82.40,17.60,8.87,250.00,14.00,0.00,30.16,M,10.00,M,CLR,M,M,M,M,M,M,M,M,M,M,M,M,M,M,79.36,K05U 230055Z AUTO 25014KT 10SM CLR 28/M08 A3016 RMK A01,M
BVU,2022-06-23 00:55,-114.8611,35.9475,671.00,87.80,48.20,25.52,280.00,15.00,0.00,29.96,M,10.00,23.00,FEW,M,M,M,12000.00,M,M,M,M,M,M,M,M,M,M,84.87,KBVU 230055Z AUTO 28015G23KT 10SM FEW120 31/09 A2996 RMK AO2,M
CXP,2022-06-23 00:55,-119.7326,39.1923,1431.00,87.80,14.00,6.38,80.00,11.00,0.00,30.05,M,10.00,M,CLR,M,M,M,M,M,M,M,M,M,M,M,M,M,M,83.00,KCXP 230055Z AUTO 08011KT 10SM CLR 31/M10 A3005 RMK AO2,M
RNO,2022-06-23 00:55,-119.7711,39.4839,1341.00,90.00,21.00,8.05,350.00,8.00,0.00,30.02,1011.20,10.00,M,SCT,BKN,BKN,M,12000.00,16000.00,25000.00,M,M,M,M,M,M,M,M,84.92,KRNO 230055Z 35008KT 10SM SCT120 BKN160 BKN250 32/M06 A3002 RMK AO2 SLP112 T03221061,M
RTS,2022-06-23 00:55,-119.8764,39.6682,1539.00,82.40,10.40,6.47,60.00,4.00,0.00,30.08,M,10.00,M,CLR,M,M,M,M,M,M,M,M,M,M,M,M,M,M,79.07,KRTS 230055Z AUTO 06004KT 10SM CLR 28/M12 A3008 RMK AO2,M
MEV,2022-06-23 00:55,-119.7500,38.9963,1441.42,84.20,37.40,18.91,280.00,13.00,0.00,30.05,M,10.00,M,CLR,M,M,M,M,M,M,M,M,M,M,M,M,M,M,81.38,KMEV 230055Z AUTO 28013KT 10SM CLR 29/03 A3005 RMK AO2,M
BAM,2022-06-23 00:55,-116.8743,40.5990,1382.36,89.60,19.40,7.61,340.00,8.00,0.00,30.02,M,10.00,M,CLR,M,M,M,M,M,M,M,M,M,M,M,M,M,M,84.54,KBAM 230055Z AUTO 34008KT 10SM CLR 32/M07 A3002 RMK AO1,M
HTH,2022-06-23 00:55,-118.6315,38.5448,1282.89,82.40,32.00,16.17,140.00,19.00,0.00,30.09,M,10.00,25.00,CLR,M,M,M,M,M,M,M,M,M,M,M,M,M,M,80.00,KHTH 230055Z AUTO 14019G25KT 10SM CLR 28/00 A3009 RMK A01,M
TMT,2022-06-23 00:55,-117.1971,39.4643,1749.34,77.40,27.50,15.85,220.00,13.00,0.00,30.16,M,10.00,20.00,CLR,M,M,M,M,M,M,M,M,M,M,M,M,M,M,77.40,KTMT 230055Z AUTO 22013G20KT 10SM CLR 25/M02 A3016 RMK AO2 T02521025,M
LAS,2022-06-23 00:56,-115.1634,36.0719,663.00,78.00,57.00,48.28,240.00,20.00,T,30.01,1013.70,10.00,35.00,FEW,BKN,BKN,BKN,8000.00,11000.00,15000.00,22000.00,-RA,M,M,M,37.00,210.00,2022-06-23 00:44,78.10,KLAS 230056Z 24020G35KT 10SM -RA FEW080 BKN110 BKN150 BKN220 26/14 A3001 RMK AO2 PK WND 21037/0044 RAB50 SLP137 CB DSNT SE-SW-NW P0000 T02560139,M
HND,2022-06-23 00:56,-115.1344,35.9729,742.79,79.00,58.00,48.41,260.00,12.00,0.09,30.03,1016.00,10.00,M,FEW,SCT,M,M,6000.00,9000.00,M,M,M,M,M,M,43.00,190.00,2022-06-23 00:15,79.00,KHND 230056Z 26012KT 10SM FEW060 SCT090 26/14 A3003 RMK AO2 PK WND 19043/0015 WSHFT 0011 RAB15E56 SLP160 P0009 T02610144,M
WMC,2022-06-23 00:56,-117.8072,40.9019,1315.00,91.00,21.00,7.80,320.00,5.00,0.00,30.00,1011.30,10.00,M,CLR,M,M,M,M,M,M,M,M,M,M,M,M,M,M,85.66,KWMC 230056Z AUTO 32005KT 10SM CLR 33/M06 A3000 RMK AO2 SLP113 T03281061,M
NFL,2022-06-23 00:56,-118.7010,39.4166,1199.00,88.00,24.10,9.77,160.00,15.00,0.00,30.01,1013.30,9.00,27.00,FEW,SCT,BKN,M,8000.00,12000.00,25000.00,M,M,M,M,M,27.00,160.00,2022-06-23 00:56,83.65,KNFL 230056Z 16015G27KT 9SM FEW080 SCT120 BKN250 31/M04 A3001 RMK AO2 PK WND 16027/0056 SLP133 VIRGA DSNT SE-S BLDU DSNT SE-S T03111044,M
EKO,2022-06-23 00:56,-115.7860,40.8242,1367.00,86.00,17.10,7.73,0.00,0.00,0.00,30.06,1013.20,10.00,M,CLR,M,M,M,M,M,M,M,M,M,M,M,M,M,M,81.83,KEKO 230056Z AUTO 00000KT 10SM CLR 30/M08 A3006 RMK AO2 SLP132 T03001083,M
TPH,2022-06-23 00:56,-117.0904,38.0505,1654.00,65.00,49.00,56.12,190.00,11.00,T,30.23,1018.70,10.00,M,FEW,SCT,M,M,7500.00,9500.00,M,M,M,M,M,M,M,M,M,64.90,KTPH 230056Z AUTO 19011KT 10SM FEW075 SCT095 18/09 A3023 RMK AO2 RAB2358E08B36E47 SLP187 P0000 T01830094,M
LSV,2022-06-23 00:58,-115.0343,36.2362,570.00,93.40,42.00,16.98,190.00,4.00,0.00,29.93,1011.00,10.00,M,BKN,M,M,M,12000.00,M,M,M,M,M,M,M,M,M,M,89.30,KLSV 230058Z AUTO 19004KT 10SM BKN120 34/06 A2993 RMK AO2 SLP110 T03410056 $,M
INS,2022-06-23 00:58,-115.6733,36.5872,955.00,78.80,45.50,30.83,260.00,22.00,0.00,30.08,1014.50,10.00,M,OVC,M,M,M,12000.00,M,M,M,M,M,M,M,29.00,260.00,2022-06-22 23:58,78.80,KINS 230058Z AUTO 26022KT 10SM OVC120 26/08 A3008 RMK AO2 PK WND 26029/2358 SLP145 T02600075 $,M
LSV,2022-06-23 01:04,-115.0343,36.2362,570.00,93.20,46.40,20.13,230.00,22.00,0.00,29.93,1011.00,2.00,29.00,BKN,BKN,M,M,11000.00,13000.00,M,M,BLDU,M,M,M,M,M,M,89.55,KLSV 230104Z 23022G29KT 2SM BLDU BKN110 BKN130 34/08 A2993 RMK VIS S 0200 SLP110 $,M
LSV,2022-06-23 01:10,-115.0343,36.2362,570.00,93.20,48.20,21.54,260.00,14.00,0.00,29.94,1011.30,4.00,29.00,BKN,M,M,M,11000.00,M,M,M,-RA BLDU,M,M,M,M,M,M,89.80,KLSV 230110Z COR 26014G29KT 180V300 4SM -RA BLDU BKN110 34/09 A2994 RMK RAB10 SLP113 $ COR 0113,M
BAM,2022-06-23 01:15,-116.8743,40.5990,1382.36,87.80,19.40,8.06,350.00,6.00,0.00,30.02,M,10.00,M,CLR,M,M,M,M,M,M,M,M,M,M,M,M,M,M,83.23,KBAM 230115Z AUTO 35006KT 10SM CLR 31/M07 A3002 RMK AO1,M
BVU,2022-06-23 01:15,-114.8611,35.9475,671.00,86.00,48.20,27.03,320.00,14.00,0.00,29.96,M,10.00,21.00,CLR,M,M,M,M,M,M,M,M,M,M,M,M,M,M,83.40,KBVU 230115Z AUTO 32014G21KT 10SM CLR 30/09 A2996 RMK AO2,M
CXP,2022-06-23 01:15,-119.7326,39.1923,1431.00,86.00,12.20,6.24,70.00,7.00,0.00,30.05,M,10.00,M,CLR,M,M,M,M,M,M,M,M,M,M,M,M,M,M,81.64,KCXP 230115Z AUTO 07007KT 10SM CLR 30/M11 A3005 RMK AO2,M
RTS,2022-06-23 01:15,-119.8764,39.6682,1539.00,82.40,10.40,6.47,M,5.00,0.00,30.08,M,10.00,10.00,CLR,M,M,M,M,M,M,M,M,M,M,M,M,M,M,79.07,KRTS 230115Z AUTO VRB05G10KT 10SM CLR 28/M12 A3008 RMK AO2,M
05U,2022-06-23 01:15,-116.0051,39.6042,1811.23,80.60,17.60,9.40,230.00,13.00,0.00,30.16,M,10.00,M,CLR,M,M,M,M,M,M,M,M,M,M,M,M,M,M,78.45,K05U 230115Z AUTO 23013KT 10SM CLR 27/M08 A3016 RMK A01,M
MEV,2022-06-23 01:15,-119.7500,38.9963,1441.42,82.40,37.40,20.04,280.00,12.00,0.00,30.05,M,10.00,M,CLR,M,M,M,M,M,M,M,M,M,M,M,M,M,M,80.14,KMEV 230115Z AUTO 28012KT 10SM CLR 28/03 A3005 RMK AO2,M
HTH,2022-06-23 01:15,-118.6315,38.5448,1282.89,80.60,32.00,17.14,150.00,17.00,0.00,30.08,M,10.00,M,CLR,M,M,M,M,M,M,M,M,M,M,M,M,M,M,78.82,KHTH 230115Z AUTO 15017KT 10SM CLR 27/00 A3008 RMK A01,M
TMT,2022-06-23 01:15,-117.1971,39.4643,1749.34,77.20,25.90,14.94,190.00,8.00,0.00,30.16,M,10.00,M,CLR,M,M,M,M,M,M,M,M,M,M,M,M,M,M,77.20,KTMT 230115Z AUTO 19008KT 10SM CLR 25/M03 A3016 RMK AO2 T02511034,M
LSV,2022-06-23 01:21,-115.0343,36.2362,570.00,89.60,50.00,25.79,280.00,22.00,0.00,29.96,1012.10,10.00,35.00,BKN,M,M,M,11000.00,M,M,M,M,M,M,M,M,M,M,86.70,KLSV 230121Z 28022G35KT 10SM BKN110 32/10 A2996 RMK RAE21 PRESRR SLP121 $,M
VGT,2022-06-23 01:28,-115.1933,36.2111,667.00,81.00,55.00,40.83,260.00,22.00,T,29.99,M,10.00,34.00,OVC,M,M,M,10000.00,M,M,M,-RA,M,M,M,34.00,210.00,2022-06-23 01:18,80.73,KVGT 230128Z 26022G34KT 10SM -RA OVC100 27/13 A2999 RMK AO2 PK WND 21034/0118 WSHFT 0108 RAB19 P0000 T02720128,M
BVU,2022-06-23 01:35,-114.8611,35.9475,671.00,86.00,46.40,25.26,300.00,21.00,0.00,29.96,M,10.00,28.00,CLR,M,M,M,M,M,M,M,M,M,M,M,M,M,M,83.22,KBVU 230135Z AUTO 30021G28KT 10SM CLR 30/08 A2996 RMK AO2,M
CXP,2022-06-23 01:35,-119.7326,39.1923,1431.00,86.00,14.00,6.75,60.00,8.00,0.00,30.05,M,10.00,M,CLR,M,M,M,M,M,M,M,M,M,M,M,M,M,M,81.71,KCXP 230135Z AUTO 06008KT 10SM CLR 30/M10 A3005 RMK AO2,M
RTS,2022-06-23 01:35,-119.8764,39.6682,1539.00,84.20,10.40,6.10,60.00,8.00,0.00,30.08,M,10.00,M,CLR,M,M,M,M,M,M,M,M,M,M,M,M,M,M,80.31,KRTS 230135Z AUTO 06008KT 10SM CLR 29/M12 A3008 RMK AO2,M
05U,2022-06-23 01:35,-116.0051,39.6042,1811.23,78.80,17.60,9.98,220.00,10.00,0.00,30.16,M,10.00,M,CLR,M,M,M,M,M,M,M,M,M,M,M,M,M,M,78.80,K05U 230135Z AUTO 22010KT 10SM CLR 26/M08 A3016 RMK A01,M
MEV,2022-06-23 01:35,-119.7500,38.9963,1441.42,82.40,41.00,23.07,260.00,12.00,0.00,30.05,M,10.00,M,CLR,M,M,M,M,M,M,M,M,M,M,M,M,M,M,80.29,KMEV 230135Z AUTO 26012KT 10SM CLR 28/05 A3005 RMK AO2,M
BAM,2022-06-23 01:35,-116.8743,40.5990,1382.36,87.80,21.20,8.70,350.00,5.00,0.00,30.02,M,10.00,M,CLR,M,M,M,M,M,M,M,M,M,M,M,M,M,M,83.33,KBAM 230135Z AUTO 35005KT 10SM CLR 31/M06 A3002 RMK AO1,M
HTH,2022-06-23 01:35,-118.6315,38.5448,1282.89,80.60,33.80,18.42,120.00,13.00,0.00,30.08,M,10.00,M,CLR,M,M,M,M,M,M,M,M,M,M,M,M,M,M,78.88,KHTH 230135Z AUTO 12013KT 10SM CLR 27/01 A3008 RMK A01,M
TMT,2022-06-23 01:35,-117.1971,39.4643,1749.34,76.50,27.10,16.07,160.00,13.00,0.00,30.16,M,10.00,M,CLR,M,M,M,M,M,M,M,M,M,M,M,M,M,M,76.50,KTMT 230135Z AUTO 16013KT 10SM CLR 25/M03 A3016 RMK AO2 T02471027,M
INS,2022-06-23 01:37,-115.6733,36.5872,955.00,78.80,48.20,34.13,260.00,17.00,0.00,30.09,1014.90,10.00,M,BKN,OVC,M,M,10000.00,12000.00,M,M,-RA,M,M,M,M,M,M,78.80,KINS 230137Z AUTO 26017KT 10SM -RA BKN100 OVC120 26/09 A3009 RMK AO2 RAB37 SLP149 $,M
CXP,2022-06-23 01:50,-119.7326,39.1923,1431.00,86.00,12.20,6.24,70.00,5.00,0.00,30.04,M,10.00,M,CLR,M,M,M,M,M,M,M,M,M,M,M,M,M,M,81.64,KCXP 230150Z AUTO 07005KT 10SM CLR 30/M11 A3004 RMK AO2,M
LOL,2022-06-23 01:53,-118.5701,40.0684,1192.43,88.00,14.00,6.34,180.00,7.00,0.00,29.98,1010.80,10.00,M,CLR,M,M,M,M,M,M,M,M,M,M,M,M,M,M,83.14,KLOL 230153Z AUTO 18007KT 10SM CLR 31/M10 A2998 RMK AO2 SLP108 T03111100,M
DRA,2022-06-23 01:53,-116.0278,36.6206,1009.00,77.00,47.00,34.50,290.00,10.00,0.00,30.11,1015.30,10.00,M,CLR,M,M,M,M,M,M,M,M,M,M,M,M,M,M,77.00,KDRA 230153Z AUTO 29010KT 10SM CLR 25/08 A3011 RMK AO2 SLP153 T02500083,M
ELY,2022-06-23 01:53,-114.8453,39.2950,1909.00,79.00,19.00,10.53,200.00,11.00,0.00,30.15,1011.90,10.00,M,CLR,M,M,M,M,M,M,M,M,M,M,M,M,M,M,79.00,KELY 230153Z AUTO 20011KT 10SM CLR 26/M07 A3015 RMK AO2 SLP119 T02611072,M
P68,2022-06-23 01:53,-116.0056,39.6014,1993.00,77.00,19.00,11.24,240.00,5.00,0.00,30.14,1012.80,M,M,M,M,M,M,M,M,M,M,M,M,M,M,M,M,M,77.00,KP68 230153Z AUTO 24005KT 25/M07 A3014 RMK AO1 SLP128 T02501072,M
VGT,2022-06-23 01:53,-115.1933,36.2111,667.00,83.00,52.00,34.39,240.00,18.00,T,29.99,1014.70,10.00,26.00,FEW,BKN,OVC,M,5500.00,9500.00,11000.00,M,-RA,M,M,M,34.00,210.00,2022-06-23 01:18,81.57,KVGT 230153Z 24018G26KT 10SM -RA FEW055 BKN095 OVC110 28/11 A2999 RMK AO2 PK WND 21034/0118 WSHFT 0108 RAB19 SLP147 P0000 T02830111,M
BAM,2022-06-23 01:55,-116.8743,40.5990,1382.36,87.80,21.20,8.70,10.00,3.00,0.00,30.01,M,10.00,M,CLR,M,M,M,M,M,M,M,M,M,M,M,M,M,M,83.33,KBAM 230155Z AUTO 01003KT 10SM CLR 31/M06 A3001 RMK AO1,M
RTS,2022-06-23 01:55,-119.8764,39.6682,1539.00,80.60,33.80,18.42,290.00,11.00,0.00,30.08,M,10.00,M,CLR,M,M,M,M,M,M,M,M,M,M,M,M,M,M,78.88,KRTS 230155Z AUTO 29011KT 10SM CLR 27/01 A3008 RMK AO2,M
05U,2022-06-23 01:55,-116.0051,39.6042,1811.23,77.00,19.40,11.44,250.00,7.00,0.00,30.17,M,10.00,M,CLR,M,M,M,M,M,M,M,M,M,M,M,M,M,M,77.00,K05U 230155Z AUTO 25007KT 10SM CLR 25/M07 A3017 RMK A01,M
MEV,2022-06-23 01:55,-119.7500,38.9963,1441.42,80.60,39.20,22.81,270.00,11.00,0.00,30.05,M,10.00,18.00,CLR,M,M,M,M,M,M,M,M,M,M,M,M,M,M,79.10,KMEV 230155Z AUTO 27011G18KT 10SM CLR 27/04 A3005 RMK AO2,M
HTH,2022-06-23 01:55,-118.6315,38.5448,1282.89,78.80,35.60,21.00,110.00,13.00,0.00,30.08,M,10.00,20.00,CLR,M,M,M,M,M,M,M,M,M,M,M,M,M,M,78.80,KHTH 230155Z AUTO 11013G20KT 10SM CLR 26/02 A3008 RMK A01,M
TMT,2022-06-23 01:55,-117.1971,39.4643,1749.34,75.70,27.50,16.77,140.00,11.00,0.00,30.16,M,10.00,M,CLR,M,M,M,M,M,M,M,M,M,M,M,M,M,M,75.70,KTMT 230155Z AUTO 14011KT 10SM CLR 24/M02 A3016 RMK AO2 T02431025,M
BVU,2022-06-23 01:55,-114.8611,35.9475,671.00,86.00,46.40,25.26,310.00,21.00,0.00,29.96,M,10.00,26.00,CLR,M,M,M,M,M,M,M,M,M,M,M,M,M,M,83.22,KBVU 230155Z AUTO 31021G26KT 10SM CLR 30/08 A2996 RMK AO2,M
RNO,2022-06-23 01:55,-119.7711,39.4839,1341.00,86.00,40.00,19.68,280.00,18.00,0.00,30.01,1011.00,10.00,M,FEW,SCT,BKN,M,12000.00,16000.00,25000.00,M,M,M,M,M,M,M,M,82.81,KRNO 230155Z 28018KT 10SM FEW120 SCT160 BKN250 30/04 A3001 RMK AO2 SLP110 T03000044,M
LAS,2022-06-23 01:56,-115.1634,36.0719,663.00,81.00,52.00,36.58,310.00,18.00,T,29.99,1012.90,10.00,27.00,FEW,BKN,BKN,BKN,8000.00,11000.00,15000.00,22000.00,-RA,M,M,M,30.00,240.00,2022-06-23 01:18,80.34,KLAS 230156Z 31018G27KT 10SM -RA FEW080 BKN110 BKN150 BKN220 27/11 A2999 RMK AO2 PK WND 24030/0118 RAE17B52 SLP129 P0000 T02720111,M
WMC,2022-06-23 01:56,-117.8072,40.9019,1315.00,88.00,23.00,9.33,330.00,8.00,0.00,30.00,1010.80,10.00,M,CLR,M,M,M,M,M,M,M,M,M,M,M,M,M,M,83.58,KWMC 230156Z AUTO 33008KT 10SM CLR 31/M05 A3000 RMK AO2 SLP108 T03111050,M
HND,2022-06-23 01:56,-115.1344,35.9729,742.79,79.00,54.00,42.03,270.00,8.00,0.00,30.02,1015.20,10.00,20.00,OVC,M,M,M,11000.00,M,M,M,M,M,M,M,M,M,M,79.00,KHND 230156Z 27008G20KT 10SM OVC110 26/12 A3002 RMK AO2 SLP152 T02610122,M
NFL,2022-06-23 01:56,-118.7010,39.4166,1199.00,84.00,33.00,16.04,160.00,20.00,0.00,30.02,1013.60,9.00,27.00,SCT,BKN,OVC,M,8000.00,12000.00,25000.00,M,M,M,M,M,29.00,180.00,2022-06-23 01:40,81.14,KNFL 230156Z 16020G27KT 9SM SCT080 BKN120 OVC250 29/01 A3002 RMK AO2 PK WND 18029/0140 SLP136 VIRGA DSNT SE-S BLDU DSNT SE-S T02890006,M
EKO,2022-06-23 01:56,-115.7860,40.8242,1367.00,86.00,18.00,8.04,60.00,5.00,0.00,30.05,1012.20,10.00,M,CLR,M,M,M,M,M,M,M,M,M,M,M,M,M,M,81.87,KEKO 230156Z AUTO 06005KT 10SM CLR 30/M08 A3005 RMK AO2 SLP122 T03001078,M
TPH,2022-06-23 01:56,-117.0904,38.0505,1654.00,65.00,47.00,52.06,170.00,4.00,0.00,30.21,1017.00,10.00,M,CLR,M,M,M,M,M,M,M,M,M,M,M,M,M,M,64.90,KTPH 230156Z AUTO 17004KT 10SM CLR 18/08 A3021 RMK AO2 SLP170 T01830083,M
INS,2022-06-23 01:58,-115.6733,36.5872,955.00,76.30,48.70,37.78,270.00,22.00,T,30.07,1014.30,10.00,M,FEW,BKN,BKN,M,8000.00,11000.00,17000.00,M,-RA,M,M,M,M,M,M,76.30,KINS 230158Z AUTO 27022KT 10SM -RA FEW080 BKN110 BKN170 25/09 A3007 RMK AO2 RAB37 SLP143 P0000 T02460093 $,M
LSV,2022-06-23 01:58,-115.0343,36.2362,570.00,87.30,51.00,28.89,260.00,14.00,T,29.97,1012.40,10.00,M,BKN,M,M,M,16000.00,M,M,M,M,M,M,M,35.00,310.00,2022-06-23 01:17,84.84,KLSV 230158Z 26014KT 10SM BKN160 31/11 A2997 RMK AO2A PK WND 31035/17 RAB10E21 SLP124 P0000 T03070106 $,M
INS,2022-06-23 01:59,-115.6733,36.5872,955.00,77.00,48.20,36.22,270.00,21.00,0.00,30.07,1014.30,10.00,M,FEW,BKN,BKN,M,8000.00,11000.00,17000.00,M,M,M,M,M,M,M,M,77.00,KINS 230159Z AUTO 27021KT 10SM FEW080 BKN110 BKN170 25/09 A3007 RMK AO2 RAE59 SLP143 $,M
HTH,2022-06-23 02:15,-118.6315,38.5448,1282.89,78.80,35.60,21.00,120.00,11.00,0.00,30.08,M,10.00,17.00,CLR,M,M,M,M,M,M,M,M,M,M,M,M,M,M,78.80,KHTH 230215Z AUTO 12011G17KT 10SM CLR 26/02 A3008 RMK A01,M
BAM,2022-06-23 02:15,-116.8743,40.5990,1382.36,86.00,23.00,9.94,0.00,0.00,0.00,30.02,M,10.00,M,CLR,M,M,M,M,M,M,M,M,M,M,M,M,M,M,82.14,KBAM 230215Z AUTO 00000KT 10SM CLR 30/M05 A3002 RMK AO1,M
MEV,2022-06-23 02:15,-119.7500,38.9963,1441.42,78.80,42.80,27.81,240.00,11.00,0.00,30.05,M,10.00,M,CLR,M,M,M,M,M,M,M,M,M,M,M,M,M,M,78.80,KMEV 230215Z AUTO 24011KT 10SM CLR 26/06 A3005 RMK AO2,M
05U,2022-06-23 02:15,-116.0051,39.6042,1811.23,75.20,19.40,12.14,230.00,5.00,0.00,30.17,M,10.00,10.00,CLR,M,M,M,M,M,M,M,M,M,M,M,M,M,M,75.20,K05U 230215Z AUTO 23005G10KT 10SM CLR 24/M07 A3017 RMK A01,M
RTS,2022-06-23 02:15,-119.8764,39.6682,1539.00,78.80,35.60,21.00,270.00,14.00,0.00,30.08,M,10.00,19.00,CLR,M,M,M,M,M,M,M,M,M,M,M,M,M,M,78.80,KRTS 230215Z AUTO 27014G19KT 10SM CLR 26/02 A3008 RMK AO2,M
CXP,2022-06-23 02:15,-119.7326,39.1923,1431.00,86.00,17.60,7.90,M,5.00,0.00,30.04,M,10.00,12.00,CLR,M,M,M,M,M,M,M,M,M,M,M,M,M,M,81.85,KCXP 230215Z AUTO VRB05G12KT 10SM CLR 30/M08 A3004 RMK AO2,M
BVU,2022-06-23 02:15,-114.8611,35.9475,671.00,86.00,46.40,25.26,320.00,24.00,0.00,29.96,M,10.00,30.00,CLR,M,M,M,M,M,M,M,M,M,M,M,M,M,M,83.22,KBVU 230215Z AUTO 32024G30KT 10SM CLR 30/08 A2996 RMK AO2,M
TMT,2022-06-23 02:15,-117.1971,39.4643,1749.34,75.40,26.80,16.46,190.00,8.00,0.00,30.16,M,10.00,M,CLR,M,M,M,M,M,M,M,M,M,M,M,M,M,M,75.40,KTMT 230215Z AUTO 19008KT 10SM CLR 24/M03 A3016 RMK AO2 T02411029,M
LSV,2022-06-23 02:26,-115.0343,36.2362,570.00,86.00,50.00,28.90,310.00,14.00,0.00,29.94,1011.40,10.00,23.00,SCT,M,M,M,13000.00,M,M,M,M,M,M,M,M,M,M,83.62,KLSV 230226Z 31014G23KT 10SM SCT130 30/10 A2994 RMK AO2A WSHFT 11 PRESFR SLP114 $,M
MEV,2022-06-23 02:35,-119.7500,38.9963,1441.42,77.00,41.00,27.53,260.00,17.00,0.00,30.05,M,10.00,M,CLR,M,M,M,M,M,M,M,M,M,M,M,M,M,M,77.00,KMEV 230235Z AUTO 26017KT 10SM CLR 25/05 A3005 RMK AO2,M
BVU,2022-06-23 02:35,-114.8611,35.9475,671.00,84.20,48.20,28.63,330.00,16.00,0.00,29.95,M,10.00,25.00,CLR,M,M,M,M,M,M,M,M,M,M,M,M,M,M,82.04,KBVU 230235Z AUTO 33016G25KT 10SM CLR 29/09 A2995 RMK AO2,M
CXP,2022-06-23 02:35,-119.7326,39.1923,1431.00,80.60,33.80,18.42,270.00,6.00,0.00,30.04,M,10.00,M,CLR,M,M,M,M,M,M,M,M,M,M,M,M,M,M,78.88,KCXP 230235Z AUTO 27006KT 10SM CLR 27/01 A3004 RMK AO2,M
RTS,2022-06-23 02:35,-119.8764,39.6682,1539.00,78.80,35.60,21.00,290.00,13.00,0.00,30.08,M,10.00,M,CLR,M,M,M,M,M,M,M,M,M,M,M,M,M,M,78.80,KRTS 230235Z AUTO 29013KT 10SM CLR 26/02 A3008 RMK AO2,M
05U,2022-06-23 02:35,-116.0051,39.6042,1811.23,73.40,21.20,13.93,0.00,0.00,0.00,30.16,M,10.00,M,CLR,M,M,M,M,M,M,M,M,M,M,M,M,M,M,73.40,K05U 230235Z AUTO 00000KT 10SM CLR 23/M06 A3016 RMK A01,M
BAM,2022-06-23 02:35,-116.8743,40.5990,1382.36,86.00,24.80,10.72,0.00,0.00,0.00,30.02,M,10.00,M,CLR,M,M,M,M,M,M,M,M,M,M,M,M,M,M,82.26,KBAM 230235Z AUTO 00000KT 10SM CLR 30/M04 A3002 RMK AO1,M
HTH,2022-06-23 02:35,-118.6315,38.5448,1282.89,77.00,37.40,23.93,120.00,9.00,0.00,30.08,M,10.00,M,CLR,M,M,M,M,M,M,M,M,M,M,M,M,M,M,77.00,KHTH 230235Z AUTO 12009KT 10SM CLR 25/03 A3008 RMK A01,M
TMT,2022-06-23 02:35,-117.1971,39.4643,1749.34,75.20,26.40,16.30,220.00,9.00,0.00,30.16,M,10.00,16.00,CLR,M,M,M,M,M,M,M,M,M,M,M,M,M,M,75.20,KTMT 230235Z AUTO 22009G16KT 10SM CLR 24/M03 A3016 RMK AO2 T02401031,M
LSV,2022-06-23 02:40,-115.0343,36.2362,570.00,86.00,50.00,28.90,280.00,18.00,0.00,29.93,1011.10,10.00,26.00,FEW,SCT,M,M,9500.00,13000.00,M,M,M,M,M,M,M,M,M,83.62,KLSV 230240Z 28018G26KT 10SM FEW095 SCT130 30/10 A2993 RMK AO2A WSHFT 29 SLP111 $,M
LOL,2022-06-23 02:45,-118.5701,40.0684,1192.43,84.00,26.10,12.06,180.00,20.00,0.00,29.99,M,1.75,28.00,SCT,M,M,M,1900.00,M,M,M,HZ,M,M,M,28.00,180.00,2022-06-23 02:42,80.96,KLOL 230245Z AUTO 18020G28KT 1 3/4SM HZ SCT019 29/M03 A2999 RMK AO2 PK WND 18028/0242 T02891033,M
LOL,2022-06-23 02:50,-118.5701,40.0684,1192.43,82.40,28.40,13.96,180.00,24.00,0.00,29.99,M,0.75,31.00,VV ,M,M,M,1600.00,M,M,M,HZ,M,M,M,31.00,180.00,2022-06-23 02:48,79.94,KLOL 230250Z AUTO 18024G31KT 3/4SM HZ VV016 28/M02 A2999 RMK AO2 PK WND 18031/0248,M
DRA,2022-06-23 02:53,-116.0278,36.6206,1009.00,74.00,48.00,39.87,0.00,0.00,0.00,30.08,1014.40,10.00,M,BKN,M,M,M,11000.00,M,M,M,M,M,M,M,M,M,M,73.90,KDRA 230253Z AUTO 00000KT 10SM BKN110 23/09 A3008 RMK AO2 SLP144 T02330089 58008,M
VGT,2022-06-23 02:53,-115.1933,36.2111,667.00,85.00,50.00,29.94,320.00,15.00,T,29.96,1013.60,10.00,M,FEW,M,M,M,11000.00,M,M,M,M,M,M,M,M,M,M,82.76,KVGT 230253Z 32015KT 10SM FEW110 29/10 A2996 RMK AO2 RAE02 SLP136 P0000 60000 T02940100 50004,M
LOL,2022-06-23 02:53,-118.5701,40.0684,1192.43,83.00,30.90,15.21,180.00,23.00,0.00,29.99,1011.30,0.75,31.00,VV ,M,M,M,1500.00,M,M,M,HZ,M,M,M,31.00,180.00,2022-06-23 02:48,80.33,KLOL 230253Z AUTO 18023G31KT 3/4SM HZ VV015 28/M01 A2999 RMK AO2 PK WND 18031/0248 SLP113 T02831006 55003,M
P68,2022-06-23 02:53,-116.0056,39.6014,1993.00,71.00,23.00,16.24,180.00,5.00,0.00,30.14,1012.40,M,M,M,M,M,M,M,M,M,M,M,M,M,M,M,M,M,71.10,KP68 230253Z AUTO 18005KT 22/M05 A3014 RMK AO1 SLP124 T02171050 53002,M
ELY,2022-06-23 02:53,-114.8453,39.2950,1909.00,75.00,24.10,14.91,220.00,18.00,0.00,30.16,1011.50,8.00,26.00,CLR,M,M,M,M,M,M,M,M,M,M,M,31.00,230.00,2022-06-23 02:34,75.00,KELY 230253Z AUTO 22018G26KT 8SM CLR 24/M04 A3016 RMK AO2 PK WND 23031/0234 SLP115 T02391044 55004,M
BAM,2022-06-23 02:55,-116.8743,40.5990,1382.36,84.20,23.00,10.53,330.00,3.00,0.00,30.01,M,10.00,M,CLR,M,M,M,M,M,M,M,M,M,M,M,M,M,M,80.88,KBAM 230255Z AUTO 33003KT 10SM CLR 29/M05 A3001 RMK AO1,M
HTH,2022-06-23 02:55,-118.6315,38.5448,1282.89,77.00,39.20,25.67,110.00,10.00,0.00,30.08,M,10.00,M,M,M,M,M,M,M,M,M,M,M,M,M,M,M,M,77.00,KHTH 230255Z AUTO 11010KT 10SM 25/04 A3008 RMK A01,M
TMT,2022-06-23 02:55,-117.1971,39.4643,1749.34,72.30,32.20,22.77,220.00,13.00,0.00,30.16,M,10.00,19.00,CLR,M,M,M,M,M,M,M,M,M,M,M,M,M,M,72.30,KTMT 230255Z AUTO 22013G19KT 10SM CLR 22/00 A3016 RMK AO2 T02240001,M
LSV,2022-06-23 02:55,-115.0343,36.2362,570.00,87.80,48.20,25.52,310.00,19.00,0.00,29.92,1010.70,10.00,M,SCT,M,M,M,13000.00,M,M,M,M,M,M,M,M,M,M,84.87,KLSV 230255Z 31019KT 10SM SCT130 31/09 A2992 RMK AO2A WSHFT 42 SLP107 $,M
RTS,2022-06-23 02:55,-119.8764,39.6682,1539.00,77.00,35.60,22.28,280.00,13.00,0.00,30.09,M,10.00,19.00,CLR,M,M,M,M,M,M,M,M,M,M,M,M,M,M,77.00,KRTS 230255Z AUTO 28013G19KT 10SM CLR 25/02 A3009 RMK AO2,M
RNO,2022-06-23 02:55,-119.7711,39.4839,1341.00,83.00,40.00,21.75,270.00,15.00,0.00,30.02,1011.00,10.00,M,FEW,FEW,SCT,M,12000.00,16000.00,25000.00,M,M,M,M,M,M,M,M,80.57,KRNO 230255Z 27015KT 10SM FEW120 FEW160 SCT250 28/04 A3002 RMK AO2 SLP110 T02830044 55004,M
BVU,2022-06-23 02:55,-114.8611,35.9475,671.00,84.20,48.20,28.63,320.00,14.00,0.00,29.96,M,10.00,M,CLR,M,M,M,M,M,M,M,M,M,M,M,M,M,M,82.04,KBVU 230255Z AUTO 32014KT 10SM CLR 29/09 A2996 RMK AO2,M
CXP,2022-06-23 02:55,-119.7326,39.1923,1431.00,80.60,33.80,18.42,210.00,5.00,0.00,30.05,M,10.00,M,CLR,M,M,M,M,M,M,M,M,M,M,M,M,M,M,78.88,KCXP 230255Z AUTO 21005KT 10SM CLR 27/01 A3005 RMK AO2,M
05U,2022-06-23 02:55,-116.0051,39.6042,1811.23,71.60,23.00,15.97,0.00,0.00,0.00,30.17,M,10.00,M,CLR,M,M,M,M,M,M,M,M,M,M,M,M,M,M,71.60,K05U 230255Z AUTO 00000KT 10SM CLR 22/M05 A3017 RMK A01,M
MEV,2022-06-23 02:55,-119.7500,38.9963,1441.42,75.20,39.20,27.26,270.00,9.00,0.00,30.07,M,10.00,17.00,CLR,M,M,M,M,M,M,M,M,M,M,M,M,M,M,75.20,KMEV 230255Z AUTO 27009G17KT 10SM CLR 24/04 A3007 RMK AO2,M
NFL,2022-06-23 02:56,-118.7010,39.4166,1199.00,80.00,36.00,20.44,150.00,15.00,0.00,30.03,1014.00,10.00,M,SCT,BKN,BKN,M,8000.00,12000.00,25000.00,M,M,M,M,M,33.00,150.00,2022-06-23 02:14,78.77,KNFL 230256Z 15015KT 10SM SCT080 BKN120 BKN250 27/02 A3003 RMK AO2 PK WND 15033/0214 SLP140 T02670022 53008,M
HND,2022-06-23 02:56,-115.1344,35.9729,742.79,78.00,55.00,44.90,230.00,8.00,0.00,30.02,1015.20,10.00,M,FEW,M,M,M,12000.00,M,M,M,M,M,M,M,M,M,M,78.10,KHND 230256Z 23008KT 10SM FEW120 26/13 A3002 RMK AO2 SLP152 60009 T02560128 50013,M
TPH,2022-06-23 02:56,-117.0904,38.0505,1654.00,65.00,46.00,50.32,170.00,4.00,0.00,30.20,1015.70,10.00,M,CLR,M,M,M,M,M,M,M,M,M,M,M,M,M,M,64.90,KTPH 230256Z AUTO 17004KT 10SM CLR 18/08 A3020 RMK AO2 SLP157 60000 T01830078 56017,M
WMC,2022-06-23 02:56,-117.8072,40.9019,1315.00,83.00,24.10,11.50,40.00,4.00,0.00,30.00,1010.80,10.00,M,CLR,M,M,M,M,M,M,M,M,M,M,M,M,M,M,80.07,KWMC 230256Z AUTO 04004KT 10SM CLR 28/M04 A3000 RMK AO2 SLP108 T02831044 56008,M
LAS,2022-06-23 02:56,-115.1634,36.0719,663.00,81.00,53.00,38.09,280.00,6.00,T,29.97,1012.10,10.00,M,FEW,SCT,BKN,BKN,8000.00,11000.00,15000.00,22000.00,M,M,M,M,M,M,M,80.47,KLAS 230256Z 28006KT 10SM FEW080 SCT110 BKN150 BKN220 27/12 A2997 RMK AO2 RAE06 SLP121 VIRGA N-NE P0000 60000 T02720117 50006,M
EKO,2022-06-23 02:56,-115.7860,40.8242,1367.00,83.00,19.90,9.63,70.00,4.00,0.00,30.04,1011.50,10.00,M,CLR,M,M,M,M,M,M,M,M,M,M,M,M,M,M,79.82,KEKO 230256Z AUTO 07004KT 10SM CLR 28/M07 A3004 RMK AO2 SLP115 T02831067 56010,M
LSV,2022-06-23 02:58,-115.0343,36.2362,570.00,87.00,49.00,26.96,310.00,17.00,0.00,29.91,1010.40,10.00,M,SCT,M,M,M,13000.00,M,M,M,M,M,M,M,M,M,M,84.21,KLSV 230258Z 31017KT 10SM SCT130 31/09 A2991 RMK AO2A SLP104 60000 T03050094 58001 $,M
INS,2022-06-23 02:58,-115.6733,36.5872,955.00,77.40,45.00,31.80,260.00,17.00,T,30.08,1014.50,10.00,M,BKN,M,M,M,19000.00,M,M,M,M,M,M,M,M,M,M,77.40,KINS 230258Z AUTO 26017KT 10SM BKN190 25/07 A3008 RMK AO2 RAE0159 SLP145 P0000 60000 T02520073 50003 $,M
LOL,2022-06-23 03:01,-118.5701,40.0684,1192.43,81.00,35.00,19.15,180.00,22.00,0.00,29.99,M,0.50,M,VV ,M,M,M,1300.00,M,M,M,HZ,M,M,M,29.00,180.00,2022-06-23 02:54,79.17,KLOL 230301Z AUTO 18022KT 1/2SM HZ VV013 27/02 A2999 RMK AO2 PK WND 18029/0254 T02720017,M
HTH,2022-06-23 03:15,-118.6315,38.5448,1282.89,75.20,41.00,29.23,120.00,12.00,0.00,30.08,M,10.00,M,CLR,M,M,M,M,M,M,M,M,M,M,M,M,M,M,75.20,KHTH 230315Z AUTO 12012KT 10SM CLR 24/05 A3008 RMK A01,M
RTS,2022-06-23 03:15,-119.8764,39.6682,1539.00,75.20,35.60,23.66,290.00,14.00,0.00,30.08,M,10.00,M,CLR,M,M,M,M,M,M,M,M,M,M,M,M,M,M,75.20,KRTS 230315Z AUTO 29014KT 10SM CLR 24/02 A3008 RMK AO2,M
MEV,2022-06-23 03:15,-119.7500,38.9963,1441.42,75.20,39.20,27.26,260.00,8.00,0.00,30.07,M,10.00,M,CLR,M,M,M,M,M,M,M,M,M,M,M,M,M,M,75.20,KMEV 230315Z AUTO 26008KT 10SM CLR 24/04 A3007 RMK AO2,M
BVU,2022-06-23 03:15,-114.8611,35.9475,671.00,82.40,46.40,28.36,320.00,10.00,0.00,29.96,M,10.00,M,CLR,M,M,M,M,M,M,M,M,M,M,M,M,M,M,80.64,KBVU 230315Z AUTO 32010KT 10SM CLR 28/08 A2996 RMK AO2,M
BAM,2022-06-23 03:15,-116.8743,40.5990,1382.36,82.40,23.00,11.16,330.00,3.00,0.00,30.01,M,10.00,M,CLR,M,M,M,M,M,M,M,M,M,M,M,M,M,M,79.67,KBAM 230315Z AUTO 33003KT 10SM CLR 28/M05 A3001 RMK AO1,M
05U,2022-06-23 03:15,-116.0051,39.6042,1811.23,71.60,21.20,14.80,230.00,6.00,0.00,30.17,M,10.00,M,CLR,M,M,M,M,M,M,M,M,M,M,M,M,M,M,71.60,K05U 230315Z AUTO 23006KT 10SM CLR 22/M06 A3017 RMK A01,M
CXP,2022-06-23 03:15,-119.7326,39.1923,1431.00,78.80,35.60,21.00,260.00,5.00,0.00,30.06,M,10.00,11.00,CLR,M,M,M,M,M,M,M,M,M,M,M,M,M,M,78.80,KCXP 230315Z AUTO 26005G11KT 10SM CLR 26/02 A3006 RMK AO2,M
TMT,2022-06-23 03:15,-117.1971,39.4643,1749.34,71.60,33.00,24.17,220.00,12.00,0.00,30.16,M,10.00,16.00,CLR,M,M,M,M,M,M,M,M,M,M,M,M,M,M,71.60,KTMT 230315Z AUTO 22012G16KT 10SM CLR 22/01 A3016 RMK AO2 T02200006,M
BVU,2022-06-23 03:35,-114.8611,35.9475,671.00,84.20,46.40,26.76,310.00,12.00,0.00,29.96,M,10.00,M,CLR,M,M,M,M,M,M,M,M,M,M,M,M,M,M,81.87,KBVU 230335Z AUTO 31012KT 10SM CLR 29/08 A2996 RMK AO2,M
RTS,2022-06-23 03:35,-119.8764,39.6682,1539.00,73.40,35.60,25.13,280.00,12.00,0.00,30.08,M,10.00,M,CLR,M,M,M,M,M,M,M,M,M,M,M,M,M,M,73.40,KRTS 230335Z AUTO 28012KT 10SM CLR 23/02 A3008 RMK AO2,M
BAM,2022-06-23 03:35,-116.8743,40.5990,1382.36,78.80,23.00,12.55,300.00,4.00,0.00,30.01,M,10.00,M,CLR,M,M,M,M,M,M,M,M,M,M,M,M,M,M,78.80,KBAM 230335Z AUTO 30004KT 10SM CLR 26/M05 A3001 RMK AO1,M
HTH,2022-06-23 03:35,-118.6315,38.5448,1282.89,75.20,41.00,29.23,130.00,10.00,0.00,30.07,M,10.00,M,CLR,M,M,M,M,M,M,M,M,M,M,M,M,M,M,75.20,KHTH 230335Z AUTO 13010KT 10SM CLR 24/05 A3007 RMK A01,M
MEV,2022-06-23 03:35,-119.7500,38.9963,1441.42,73.40,39.20,28.96,250.00,8.00,0.00,30.08,M,10.00,M,CLR,M,M,M,M,M,M,M,M,M,M,M,M,M,M,73.40,KMEV 230335Z AUTO 25008KT 10SM CLR 23/04 A3008 RMK AO2,M
05U,2022-06-23 03:35,-116.0051,39.6042,1811.23,71.60,21.20,14.80,220.00,7.00,0.00,30.17,M,10.00,M,CLR,M,M,M,M,M,M,M,M,M,M,M,M,M,M,71.60,K05U 230335Z AUTO 22007KT 10SM CLR 22/M06 A3017 RMK A01,M
TMT,2022-06-23 03:35,-117.1971,39.4643,1749.34,70.20,33.00,25.15,230.00,5.00,0.00,30.16,M,10.00,M,SCT,M,M,M,12000.00,M,M,M,M,M,M,M,M,M,M,70.20,KTMT 230335Z AUTO 23005KT 10SM SCT120 21/01 A3016 RMK AO2 T02120005,M
CXP,2022-06-23 03:35,-119.7326,39.1923,1431.00,77.00,37.40,23.93,180.00,5.00,0.00,30.07,M,10.00,M,CLR,M,M,M,M,M,M,M,M,M,M,M,M,M,M,77.00,KCXP 230335Z AUTO 18005KT 10SM CLR 25/03 A3007 RMK AO2,M
ELY,2022-06-23 03:53,-114.8453,39.2950,1909.00,69.00,27.00,20.54,0.00,0.00,0.00,30.19,1012.30,10.00,M,CLR,M,M,M,M,M,M,M,M,M,M,M,M,M,M,69.10,KELY 230353Z AUTO 00000KT 10SM CLR 21/M03 A3019 RMK AO2 SLP123 T02061028,M
P68,2022-06-23 03:53,-116.0056,39.6014,1993.00,73.00,23.00,15.23,220.00,9.00,0.00,30.14,1012.00,M,M,M,M,M,M,M,M,M,M,M,M,M,M,M,M,M,73.00,KP68 230353Z AUTO 22009KT 23/M05 A3014 RMK AO1 SLP120 T02281050,M
VGT,2022-06-23 03:53,-115.1933,36.2111,667.00,85.00,48.00,27.79,320.00,17.00,0.00,29.96,1013.20,10.00,28.00,FEW,M,M,M,12000.00,M,M,M,M,M,M,M,28.00,310.00,2022-06-23 03:45,82.53,KVGT 230353Z 32017G28KT 10SM FEW120 29/09 A2996 RMK AO2 PK WND 31028/0345 SLP132 T02940089,M
LOL,2022-06-23 03:53,-118.5701,40.0684,1192.43,78.00,37.00,22.71,200.00,16.00,0.00,30.00,1011.80,1.25,M,OVC,M,M,M,1100.00,M,M,M,HZ,M,M,M,32.00,200.00,2022-06-23 03:20,78.10,KLOL 230353Z AUTO 20016KT 1 1/4SM HZ OVC011 26/03 A3000 RMK AO2 PK WND 20032/0320 SLP118 T02560028,M
DRA,2022-06-23 03:53,-116.0278,36.6206,1009.00,74.00,47.00,38.26,0.00,0.00,0.00,30.09,1014.60,10.00,M,BKN,M,M,M,11000.00,M,M,M,M,M,M,M,M,M,M,73.90,KDRA 230353Z AUTO 00000KT 10SM BKN110 23/08 A3009 RMK AO2 SLP146 T02330083,M
RTS,2022-06-23 03:55,-119.8764,39.6682,1539.00,73.40,35.60,25.13,280.00,11.00,0.00,30.08,M,10.00,17.00,CLR,M,M,M,M,M,M,M,M,M,M,M,M,M,M,73.40,KRTS 230355Z AUTO 28011G17KT 10SM CLR 23/02 A3008 RMK AO2,M
CXP,2022-06-23 03:55,-119.7326,39.1923,1431.00,75.20,37.40,25.40,190.00,8.00,0.00,30.08,M,10.00,M,CLR,M,M,M,M,M,M,M,M,M,M,M,M,M,M,75.20,KCXP 230355Z AUTO 19008KT 10SM CLR 24/03 A3008 RMK AO2,M
RNO,2022-06-23 03:55,-119.7711,39.4839,1341.00,80.00,40.00,23.82,M,3.00,0.00,30.05,1012.00,10.00,M,FEW,SCT,BKN,M,10000.00,15000.00,25000.00,M,M,M,M,M,M,M,M,78.93,KRNO 230355Z VRB03KT 10SM FEW100 SCT150 BKN250 27/04 A3005 RMK AO2 SLP120 T02670044,M
BVU,2022-06-23 03:55,-114.8611,35.9475,671.00,82.40,48.20,30.35,220.00,8.00,0.00,29.97,M,10.00,M,CLR,M,M,M,M,M,M,M,M,M,M,M,M,M,M,80.80,KBVU 230355Z AUTO 22008KT 10SM CLR 28/09 A2997 RMK AO2,M
TMT,2022-06-23 03:55,-117.1971,39.4643,1749.34,68.20,32.70,26.72,260.00,3.00,0.00,30.16,M,10.00,M,SCT,M,M,M,12000.00,M,M,M,M,M,M,M,M,M,M,68.20,KTMT 230355Z AUTO 26003KT 10SM SCT120 20/00 A3016 RMK AO2 T02010004,M
HTH,2022-06-23 03:55,-118.6315,38.5448,1282.89,73.40,41.00,31.05,140.00,7.00,0.00,30.07,M,10.00,M,CLR,M,M,M,M,M,M,M,M,M,M,M,M,M,M,73.40,KHTH 230355Z AUTO 14007KT 10SM CLR 23/05 A3007 RMK A01,M
BAM,2022-06-23 03:55,-116.8743,40.5990,1382.36,80.60,19.40,10.16,250.00,12.00,0.00,30.03,M,10.00,M,CLR,M,M,M,M,M,M,M,M,M,M,M,M,M,M,78.56,KBAM 230355Z AUTO 25012KT 10SM CLR 27/M07 A3003 RMK AO1,M
MEV,2022-06-23 03:55,-119.7500,38.9963,1441.42,73.40,39.20,28.96,270.00,11.00,0.00,30.08,M,10.00,M,CLR,M,M,M,M,M,M,M,M,M,M,M,M,M,M,73.40,KMEV 230355Z AUTO 27011KT 10SM CLR 23/04 A3008 RMK AO2,M
05U,2022-06-23 03:55,-116.0051,39.6042,1811.23,71.60,23.00,15.97,220.00,9.00,0.00,30.17,M,10.00,M,FEW,M,M,M,12000.00,M,M,M,M,M,M,M,M,M,M,71.60,K05U 230355Z AUTO 22009KT 10SM FEW120 22/M05 A3017 RMK A01,M
LAS,2022-06-23 03:56,-115.1634,36.0719,663.00,83.00,49.00,30.65,320.00,7.00,0.00,29.97,1012.30,10.00,M,FEW,SCT,BKN,BKN,8000.00,11000.00,15000.00,22000.00,M,M,M,M,M,M,M,81.20,KLAS 230356Z 32007KT 10SM FEW080 SCT110 BKN150 BKN220 28/09 A2997 RMK AO2 SLP123 T02830094,M
HND,2022-06-23 03:56,-115.1344,35.9729,742.79,77.00,56.00,48.12,160.00,6.00,0.00,30.02,1015.30,10.00,M,BKN,M,M,M,12000.00,M,M,M,M,M,M,M,M,M,M,77.00,KHND 230356Z AUTO 16006KT 10SM BKN120 25/13 A3002 RMK AO2 SLP153 T02500133,M
NFL,2022-06-23 03:56,-118.7010,39.4166,1199.00,78.00,39.00,24.56,180.00,17.00,0.00,30.04,1014.10,10.00,M,SCT,BKN,BKN,M,8000.00,12000.00,25000.00,M,M,M,M,M,M,M,M,78.10,KNFL 230356Z 18017KT 10SM SCT080 BKN120 BKN250 26/04 A3004 RMK AO2 SLP141 T02560039,M
WMC,2022-06-23 03:56,-117.8072,40.9019,1315.00,70.00,24.10,17.66,0.00,0.00,0.00,30.00,1011.20,10.00,M,CLR,M,M,M,M,M,M,M,M,M,M,M,M,M,M,70.00,KWMC 230356Z AUTO 00000KT 10SM CLR 21/M04 A3000 RMK AO2 SLP112 T02111044,M
EKO,2022-06-23 03:56,-115.7860,40.8242,1367.00,76.00,19.00,11.66,60.00,5.00,0.00,30.04,1011.50,10.00,M,CLR,M,M,M,M,M,M,M,M,M,M,M,M,M,M,75.90,KEKO 230356Z AUTO 06005KT 10SM CLR 24/M07 A3004 RMK AO2 SLP115 T02441072,M
TPH,2022-06-23 03:56,-117.0904,38.0505,1654.00,62.00,45.00,53.45,140.00,6.00,0.00,30.20,1015.90,10.00,M,CLR,M,M,M,M,M,M,M,M,M,M,M,M,M,M,62.10,KTPH 230356Z AUTO 14006KT 10SM CLR 17/07 A3020 RMK AO2 SLP159 T01670072,M
LSV,2022-06-23 03:58,-115.0343,36.2362,570.00,85.80,49.00,27.92,260.00,12.00,0.00,29.95,1009.30,10.00,M,BKN,M,M,M,15000.00,M,M,M,M,M,M,M,M,M,M,83.32,KLSV 230358Z 26012KT 10SM BKN150 30/09 A2995 RMK AO2A SLP093 WND DATA ESTMD T02990094 $,M
INS,2022-06-23 03:58,-115.6733,36.5872,955.00,75.70,45.30,33.90,250.00,7.00,0.00,30.07,1014.00,10.00,M,OVC,M,M,M,12000.00,M,M,M,M,M,M,M,M,M,M,75.70,KINS 230358Z AUTO 25007KT 10SM OVC120 24/07 A3007 RMK AO2 SLP140 T02430074 $,M
LOL,2022-06-23 04:09,-118.5701,40.0684,1192.43,78.00,38.00,23.53,210.00,14.00,0.00,30.01,M,2.00,M,OVC,M,M,M,1100.00,M,M,M,HZ,M,M,M,M,M,M,78.10,KLOL 230409Z AUTO 21014KT 2SM HZ OVC011 26/03 A3001 RMK AO2 T02560033,M
05U,2022-06-23 04:10,-116.0051,39.6042,1811.23,71.60,23.00,15.97,230.00,9.00,0.00,30.17,M,10.00,M,CLR,M,M,M,M,M,M,M,M,M,M,M,M,M,M,71.60,K05U 230410Z AUTO 23009KT 10SM CLR 22/M05 A3017 RMK A01,M
BAM,2022-06-23 04:15,-116.8743,40.5990,1382.36,80.60,24.80,12.76,250.00,12.00,0.00,30.05,M,10.00,20.00,CLR,M,M,M,M,M,M,M,M,M,M,M,M,M,M,78.94,KBAM 230415Z AUTO 25012G20KT 10SM CLR 27/M04 A3005 RMK AO1,M
TMT,2022-06-23 04:15,-117.1971,39.4643,1749.34,67.00,32.00,26.98,260.00,5.00,0.00,30.16,M,10.00,M,SCT,M,M,M,12000.00,M,M,M,M,M,M,M,M,M,M,67.10,KTMT 230415Z AUTO 26005KT 10SM SCT120 20/00 A3016 RMK AO2 T01950000,M
MEV,2022-06-23 04:15,-119.7500,38.9963,1441.42,73.40,39.20,28.96,270.00,9.00,0.00,30.09,M,10.00,M,FEW,M,M,M,12000.00,M,M,M,M,M,M,M,M,M,M,73.40,KMEV 230415Z AUTO 27009KT 10SM FEW120 23/04 A3009 RMK AO2,M
RTS,2022-06-23 04:15,-119.8764,39.6682,1539.00,73.40,35.60,25.13,280.00,9.00,0.00,30.09,M,10.00,M,CLR,M,M,M,M,M,M,M,M,M,M,M,M,M,M,73.40,KRTS 230415Z AUTO 28009KT 10SM CLR 23/02 A3009 RMK AO2,M
CXP,2022-06-23 04:15,-119.7326,39.1923,1431.00,75.20,37.40,25.40,M,3.00,0.00,30.09,M,10.00,M,CLR,M,M,M,M,M,M,M,M,M,M,M,M,M,M,75.20,KCXP 230415Z AUTO VRB03KT 10SM CLR 24/03 A3009 RMK AO2,M
BVU,2022-06-23 04:15,-114.8611,35.9475,671.00,82.40,48.20,30.35,M,6.00,0.00,29.97,M,10.00,M,FEW,FEW,M,M,10000.00,12000.00,M,M,M,M,M,M,M,M,M,80.80,KBVU 230415Z AUTO VRB06KT 10SM FEW100 FEW120 28/09 A2997 RMK AO2,M
HTH,2022-06-23 04:15,-118.6315,38.5448,1282.89,73.40,39.20,28.96,140.00,8.00,0.00,30.07,M,10.00,M,CLR,M,M,M,M,M,M,M,M,M,M,M,M,M,M,73.40,KHTH 230415Z AUTO 14008KT 10SM CLR 23/04 A3007 RMK A01,M
BAM,2022-06-23 04:35,-116.8743,40.5990,1382.36,77.00,24.80,14.37,240.00,10.00,0.00,30.05,M,10.00,M,CLR,M,M,M,M,M,M,M,M,M,M,M,M,M,M,77.00,KBAM 230435Z AUTO 24010KT 10SM CLR 25/M04 A3005 RMK AO1,M
BVU,2022-06-23 04:35,-114.8611,35.9475,671.00,82.40,48.20,30.35,300.00,8.00,0.00,29.98,M,10.00,14.00,FEW,M,M,M,12000.00,M,M,M,M,M,M,M,M,M,M,80.80,KBVU 230435Z AUTO 30008G14KT 10SM FEW120 28/09 A2998 RMK AO2,M
CXP,2022-06-23 04:35,-119.7326,39.1923,1431.00,73.40,39.20,28.96,0.00,0.00,0.00,30.11,M,10.00,M,FEW,M,M,M,12000.00,M,M,M,M,M,M,M,M,M,M,73.40,KCXP 230435Z AUTO 00000KT 10SM FEW120 23/04 A3011 RMK AO2,M
RTS,2022-06-23 04:35,-119.8764,39.6682,1539.00,73.40,37.40,26.98,230.00,4.00,0.00,30.11,M,10.00,M,CLR,M,M,M,M,M,M,M,M,M,M,M,M,M,M,73.40,KRTS 230435Z AUTO 23004KT 10SM CLR 23/03 A3011 RMK AO2,M
05U,2022-06-23 04:35,-116.0051,39.6042,1811.23,68.00,28.40,22.59,250.00,8.00,0.00,30.18,M,10.00,M,CLR,M,M,M,M,M,M,M,M,M,M,M,M,M,M,68.00,K05U 230435Z AUTO 25008KT 10SM CLR 20/M02 A3018 RMK A01,M
MEV,2022-06-23 04:35,-119.7500,38.9963,1441.42,73.40,39.20,28.96,290.00,5.00,0.00,30.09,M,10.00,M,CLR,M,M,M,M,M,M,M,M,M,M,M,M,M,M,73.40,KMEV 230435Z AUTO 29005KT 10SM CLR 23/04 A3009 RMK AO2,M
HTH,2022-06-23 04:35,-118.6315,38.5448,1282.89,71.60,41.00,33.00,130.00,7.00,0.00,30.08,M,10.00,M,CLR,M,M,M,M,M,M,M,M,M,M,M,M,M,M,71.60,KHTH 230435Z AUTO 13007KT 10SM CLR 22/05 A3008 RMK A01,M
TMT,2022-06-23 04:35,-117.1971,39.4643,1749.34,65.00,31.60,28.65,180.00,4.00,0.00,30.18,M,10.00,M,SCT,M,M,M,12000.00,M,M,M,M,M,M,M,M,M,M,64.90,KTMT 230435Z AUTO 18004KT 10SM SCT120 18/00 A3018 RMK AO2 T01831002,M
LOL,2022-06-23 04:42,-118.5701,40.0684,1192.43,77.00,38.00,24.40,240.00,11.00,0.00,30.02,M,1.00,M,VV ,M,M,M,900.00,M,M,M,HZ,M,M,M,M,M,M,77.00,KLOL 230442Z AUTO 24011KT 1SM HZ VV009 25/03 A3002 RMK AO2 T02500033,M
LOL,2022-06-23 04:49,-118.5701,40.0684,1192.43,77.00,37.40,23.93,230.00,10.00,0.00,30.02,M,0.50,M,VV ,M,M,M,800.00,M,M,M,HZ,M,M,M,M,M,M,77.00,KLOL 230449Z AUTO 23010KT 1/2SM HZ VV008 25/03 A3002 RMK AO2,M
05U,2022-06-23 04:50,-116.0051,39.6042,1811.23,68.00,28.40,22.59,240.00,6.00,0.00,30.19,M,10.00,M,CLR,M,M,M,M,M,M,M,M,M,M,M,M,M,M,68.00,K05U 230450Z AUTO 24006KT 10SM CLR 20/M02 A3019 RMK A01,M
LOL,2022-06-23 04:53,-118.5701,40.0684,1192.43,77.00,38.00,24.40,230.00,11.00,0.00,30.02,1012.30,0.25,M,VV ,M,M,M,700.00,M,M,M,HZ,M,M,M,M,M,M,77.00,KLOL 230453Z AUTO 23011KT 1/4SM HZ VV007 25/03 A3002 RMK AO2 SLP123 T02500033,M
DRA,2022-06-23 04:53,-116.0278,36.6206,1009.00,73.00,45.00,36.70,50.00,4.00,0.00,30.08,1014.40,10.00,M,CLR,M,M,M,M,M,M,M,M,M,M,M,M,M,M,73.00,KDRA 230453Z AUTO 05004KT 10SM CLR 23/07 A3008 RMK AO2 SLP144 T02280072,M
ELY,2022-06-23 04:53,-114.8453,39.2950,1909.00,65.00,28.90,25.68,210.00,8.00,0.00,30.22,1013.50,10.00,16.00,CLR,M,M,M,M,M,M,M,M,M,M,M,M,M,M,64.90,KELY 230453Z AUTO 21008G16KT 10SM CLR 18/M02 A3022 RMK AO2 SLP135 T01831017,M
P68,2022-06-23 04:53,-116.0056,39.6014,1993.00,67.00,28.90,23.95,240.00,7.00,0.00,30.17,1012.70,M,M,M,M,M,M,M,M,M,M,M,M,M,M,M,M,M,66.90,KP68 230453Z AUTO 24007KT 19/M02 A3017 RMK AO1 SLP127 T01941017,M
VGT,2022-06-23 04:53,-115.1933,36.2111,667.00,84.00,47.00,27.44,320.00,14.00,0.00,29.96,1013.40,10.00,M,CLR,M,M,M,M,M,M,M,M,M,M,M,26.00,320.00,2022-06-23 04:08,81.77,KVGT 230453Z AUTO 32014KT 10SM CLR 29/08 A2996 RMK AO2 PK WND 32026/0408 SLP134 T02890083,M
BAM,2022-06-23 04:55,-116.8743,40.5990,1382.36,75.20,24.80,15.25,240.00,11.00,0.00,30.05,M,10.00,M,CLR,M,M,M,M,M,M,M,M,M,M,M,M,M,M,75.20,KBAM 230455Z AUTO 24011KT 10SM CLR 24/M04 A3005 RMK AO1,M
RTS,2022-06-23 04:55,-119.8764,39.6682,1539.00,71.60,37.40,28.68,270.00,5.00,0.00,30.12,M,10.00,M,CLR,M,M,M,M,M,M,M,M,M,M,M,M,M,M,71.60,KRTS 230455Z AUTO 27005KT 10SM CLR 22/03 A3012 RMK AO2,M
BVU,2022-06-23 04:55,-114.8611,35.9475,671.00,82.40,48.20,30.35,250.00,6.00,0.00,30.00,M,10.00,M,CLR,M,M,M,M,M,M,M,M,M,M,M,M,M,M,80.80,KBVU 230455Z AUTO 25006KT 10SM CLR 28/09 A3000 RMK AO2,M
CXP,2022-06-23 04:55,-119.7326,39.1923,1431.00,71.60,39.20,30.77,0.00,0.00,0.00,30.11,M,10.00,M,SCT,M,M,M,12000.00,M,M,M,M,M,M,M,M,M,M,71.60,KCXP 230455Z AUTO 00000KT 10SM SCT120 22/04 A3011 RMK AO2,M
TMT,2022-06-23 04:55,-117.1971,39.4643,1749.34,66.00,32.20,28.25,190.00,5.00,0.00,30.18,M,10.00,M,SCT,M,M,M,12000.00,M,M,M,M,M,M,M,M,M,M,66.00,KTMT 230455Z AUTO 19005KT 10SM SCT120 19/00 A3018 RMK AO2 T01890001,M
RNO,2022-06-23 04:55,-119.7711,39.4839,1341.00,79.00,40.00,24.70,330.00,7.00,0.00,30.07,1012.20,10.00,M,SCT,BKN,M,M,17000.00,25000.00,M,M,M,M,M,M,M,M,M,79.00,KRNO 230455Z 33007KT 10SM SCT170 BKN250 26/04 A3007 RMK AO2 SLP122 T02610044,M
HTH,2022-06-23 04:55,-118.6315,38.5448,1282.89,69.80,41.00,35.09,130.00,6.00,0.00,30.09,M,10.00,M,CLR,M,M,M,M,M,M,M,M,M,M,M,M,M,M,69.80,KHTH 230455Z AUTO 13006KT 10SM CLR 21/05 A3009 RMK A01,M
MEV,2022-06-23 04:55,-119.7500,38.9963,1441.42,71.60,39.20,30.77,50.00,5.00,0.00,30.10,M,10.00,M,CLR,M,M,M,M,M,M,M,M,M,M,M,M,M,M,71.60,KMEV 230455Z AUTO 05005KT 10SM CLR 22/04 A3010 RMK AO2,M
EKO,2022-06-23 04:56,-115.7860,40.8242,1367.00,72.00,21.00,14.48,270.00,3.00,0.00,30.07,1012.10,10.00,M,CLR,M,M,M,M,M,M,M,M,M,M,M,M,M,M,72.00,KEKO 230456Z AUTO 27003KT 10SM CLR 22/M06 A3007 RMK AO2 SLP121 T02221061,M
HND,2022-06-23 04:56,-115.1344,35.9729,742.79,74.00,59.00,59.66,210.00,12.00,T,30.03,1015.90,10.00,M,FEW,BKN,M,M,6500.00,9000.00,M,M,-RA,M,M,M,M,M,M,73.90,KHND 230456Z AUTO 21012KT 10SM -RA FEW065 BKN090 23/15 A3003 RMK AO2 RAB47 SLP159 P0000 T02330150,M
LAS,2022-06-23 04:56,-115.1634,36.0719,663.00,80.00,53.00,39.23,180.00,7.00,0.00,29.99,1013.00,10.00,M,FEW,SCT,OVC,M,8000.00,13000.00,17000.00,M,M,M,M,M,M,M,M,79.94,KLAS 230456Z 18007KT 10SM FEW080 SCT130 OVC170 27/12 A2999 RMK AO2 SLP130 T02670117,M
NFL,2022-06-23 04:56,-118.7010,39.4166,1199.00,76.00,40.00,27.37,170.00,16.00,0.00,30.04,1014.10,10.00,M,SCT,SCT,BKN,M,8000.00,12000.00,25000.00,M,M,M,M,M,M,M,M,75.90,KNFL 230456Z 17016KT 10SM SCT080 SCT120 BKN250 24/04 A3004 RMK AO2 SLP141 T02440044,M
WMC,2022-06-23 04:56,-117.8072,40.9019,1315.00,66.00,23.00,19.35,280.00,5.00,0.00,30.02,1011.80,10.00,M,CLR,M,M,M,M,M,M,M,M,M,M,M,M,M,M,66.00,KWMC 230456Z AUTO 28005KT 10SM CLR 19/M05 A3002 RMK AO2 SLP118 T01891050,M
TPH,2022-06-23 04:56,-117.0904,38.0505,1654.00,58.00,45.00,62.07,120.00,4.00,0.00,30.22,1017.00,10.00,M,CLR,M,M,M,M,M,M,M,M,M,M,M,M,M,M,57.90,KTPH 230456Z AUTO 12004KT 10SM CLR 14/07 A3022 RMK AO2 SLP170 T01440072,M
LSV,2022-06-23 04:58,-115.0343,36.2362,570.00,84.60,48.20,28.27,270.00,14.00,0.00,29.94,1009.60,10.00,23.00,SCT,BKN,M,M,15000.00,17000.00,M,M,M,M,M,M,M,M,M,82.33,KLSV 230458Z 27014G23KT 10SM SCT150 BKN170 29/09 A2994 RMK AO2A SLP096 WND DATA ESTMD T02920090 $,M
INS,2022-06-23 04:58,-115.6733,36.5872,955.00,74.80,43.70,32.87,240.00,8.00,0.00,30.08,1014.20,10.00,M,FEW,SCT,M,M,12000.00,16000.00,M,M,M,M,M,M,M,M,M,74.80,KINS 230458Z AUTO 24008KT 10SM FEW120 SCT160 24/07 A3008 RMK AO2 SLP142 T02380065 $,M
LOL,2022-06-23 05:02,-118.5701,40.0684,1192.43,76.00,38.00,25.31,240.00,9.00,0.00,30.02,M,0.75,M,VV ,M,M,M,700.00,M,M,M,HZ,M,M,M,M,M,M,75.90,KLOL 230502Z AUTO 24009KT 3/4SM HZ VV007 24/03 A3002 RMK AO2 T02440033,M
LOL,2022-06-23 05:08,-118.5701,40.0684,1192.43,76.00,38.00,25.31,240.00,11.00,0.00,30.02,M,2.00,M,BKN,M,M,M,800.00,M,M,M,HZ,M,M,M,M,M,M,75.90,KLOL 230508Z AUTO 24011KT 2SM HZ BKN008 24/03 A3002 RMK AO2 T02440033,M
WMC,2022-06-23 05:11,-117.8072,40.9019,1315.00,74.00,28.90,18.87,270.00,9.00,0.00,30.03,M,2.50,21.00,BKN,M,M,M,2100.00,M,M,M,HZ,M,M,M,M,M,M,73.90,KWMC 230511Z AUTO 27009G21KT 2 1/2SM HZ BKN021 23/M02 A3003 RMK AO2 T02331017,M
TMT,2022-06-23 05:15,-117.1971,39.4643,1749.34,66.40,37.00,33.60,0.00,0.00,0.00,30.18,M,10.00,M,CLR,M,M,M,M,M,M,M,M,M,M,M,M,M,M,66.40,KTMT 230515Z AUTO 00000KT 10SM CLR 19/03 A3018 RMK AO2 T01910027,M
05U,2022-06-23 05:15,-116.0051,39.6042,1811.23,64.40,28.40,25.60,0.00,0.00,0.00,30.19,M,10.00,M,CLR,M,M,M,M,M,M,M,M,M,M,M,M,M,M,64.40,K05U 230515Z AUTO 00000KT 10SM CLR 18/M02 A3019 RMK A01,M
HTH,2022-06-23 05:15,-118.6315,38.5448,1282.89,68.00,41.00,37.32,110.00,7.00,0.00,30.09,M,10.00,M,CLR,M,M,M,M,M,M,M,M,M,M,M,M,M,M,68.00,KHTH 230515Z AUTO 11007KT 10SM CLR 20/05 A3009 RMK A01,M
MEV,2022-06-23 05:15,-119.7500,38.9963,1441.42,69.80,39.20,32.72,60.00,5.00,0.00,30.11,M,10.00,M,CLR,M,M,M,M,M,M,M,M,M,M,M,M,M,M,69.80,KMEV 230515Z AUTO 06005KT 10SM CLR 21/04 A3011 RMK AO2,M
LOL,2022-06-23 05:15,-118.5701,40.0684,1192.43,76.00,38.00,25.31,240.00,14.00,0.00,30.02,M,9.00,M,BKN,M,M,M,800.00,M,M,M,M,M,M,M,M,M,M,75.90,KLOL 230515Z AUTO 24014KT 9SM BKN008 24/03 A3002 RMK AO2 T02440033,M
BAM,2022-06-23 05:15,-116.8743,40.5990,1382.36,73.40,24.80,16.20,250.00,10.00,0.00,30.06,M,10.00,M,CLR,M,M,M,M,M,M,M,M,M,M,M,M,M,M,73.40,KBAM 230515Z AUTO 25010KT 10SM CLR 23/M04 A3006 RMK AO1,M
RTS,2022-06-23 05:15,-119.8764,39.6682,1539.00,71.60,37.40,28.68,280.00,9.00,0.00,30.13,M,10.00,M,CLR,M,M,M,M,M,M,M,M,M,M,M,M,M,M,71.60,KRTS 230515Z AUTO 28009KT 10SM CLR 22/03 A3013 RMK AO2,M
BVU,2022-06-23 05:15,-114.8611,35.9475,671.00,82.40,48.20,30.35,160.00,3.00,0.00,30.00,M,10.00,12.00,CLR,M,M,M,M,M,M,M,M,M,M,M,M,M,M,80.80,KBVU 230515Z AUTO 16003G12KT 10SM CLR 28/09 A3000 RMK AO2,M
INS,2022-06-23 05:15,-115.6733,36.5872,955.00,75.20,44.60,33.57,260.00,7.00,0.00,30.08,1014.00,10.00,M,SCT,BKN,M,M,11000.00,15000.00,M,M,-RA,M,M,M,M,M,M,75.20,KINS 230515Z AUTO 26007KT 10SM -RA SCT110 BKN150 24/07 A3008 RMK AO2 RAB15 SLP140 $,M
CXP,2022-06-23 05:15,-119.7326,39.1923,1431.00,71.60,41.00,33.00,0.00,0.00,0.00,30.12,M,10.00,M,SCT,M,M,M,11000.00,M,M,M,M,M,M,M,M,M,M,71.60,KCXP 230515Z AUTO 00000KT 10SM SCT110 22/05 A3012 RMK AO2,M
LOL,2022-06-23 05:23,-118.5701,40.0684,1192.43,76.00,38.00,25.31,260.00,13.00,0.00,30.01,M,10.00,M,SCT,M,M,M,1000.00,M,M,M,M,M,M,M,M,M,M,75.90,KLOL 230523Z AUTO 26013KT 10SM SCT010 24/03 A3001 RMK AO2 T02440033,M
INS,2022-06-23 05:24,-115.6733,36.5872,955.00,75.20,44.60,33.57,250.00,6.00,0.00,30.08,1013.90,10.00,M,BKN,BKN,OVC,M,11000.00,14000.00,16000.00,M,M,M,M,M,M,M,M,75.20,KINS 230524Z AUTO 25006KT 10SM BKN110 BKN140 OVC160 24/07 A3008 RMK AO2 RAB15E24 SLP139 $,M
WMC,2022-06-23 05:26,-117.8072,40.9019,1315.00,72.00,23.00,15.75,190.00,10.00,0.00,30.03,M,6.00,M,OVC,M,M,M,2700.00,M,M,M,HZ,M,M,M,M,M,M,72.00,KWMC 230526Z AUTO 19010KT 6SM HZ OVC027 22/M05 A3003 RMK AO2 T02221050,M
MEV,2022-06-23 05:35,-119.7500,38.9963,1441.42,66.20,42.80,42.57,100.00,5.00,0.00,30.11,M,10.00,M,CLR,M,M,M,M,M,M,M,M,M,M,M,M,M,M,66.20,KMEV 230535Z AUTO 10005KT 10SM CLR 19/06 A3011 RMK AO2,M
CXP,2022-06-23 05:35,-119.7326,39.1923,1431.00,71.60,39.20,30.77,0.00,0.00,0.00,30.11,M,10.00,M,FEW,M,M,M,12000.00,M,M,M,M,M,M,M,M,M,M,71.60,KCXP 230535Z AUTO 00000KT 10SM FEW120 22/04 A3011 RMK AO2,M
05U,2022-06-23 05:35,-116.0051,39.6042,1811.23,60.80,26.60,26.98,0.00,0.00,0.00,30.20,M,10.00,M,CLR,M,M,M,M,M,M,M,M,M,M,M,M,M,M,60.80,K05U 230535Z AUTO 00000KT 10SM CLR 16/M03 A3020 RMK A01,M
HTH,2022-06-23 05:35,-118.6315,38.5448,1282.89,69.80,41.00,35.09,140.00,12.00,0.00,30.08,M,10.00,M,CLR,M,M,M,M,M,M,M,M,M,M,M,M,M,M,69.80,KHTH 230535Z AUTO 14012KT 10SM CLR 21/05 A3008 RMK A01,M
BAM,2022-06-23 05:35,-116.8743,40.5990,1382.36,75.20,26.60,16.43,250.00,12.00,0.00,30.05,M,10.00,M,CLR,M,M,M,M,M,M,M,M,M,M,M,M,M,M,75.20,KBAM 230535Z AUTO 25012KT 10SM CLR 24/M03 A3005 RMK AO1,M
TMT,2022-06-23 05:35,-117.1971,39.4643,1749.34,62.60,35.40,36.16,150.00,6.00,0.00,30.17,M,10.00,M,CLR,M,M,M,M,M,M,M,M,M,M,M,M,M,M,62.60,KTMT 230535Z AUTO 15006KT 10SM CLR 17/02 A3017 RMK AO2 T01700019,M
BVU,2022-06-23 05:35,-114.8611,35.9475,671.00,80.60,48.20,32.18,0.00,0.00,0.00,29.99,M,10.00,M,CLR,M,M,M,M,M,M,M,M,M,M,M,M,M,M,79.71,KBVU 230535Z AUTO 00000KT 10SM CLR 27/09 A2999 RMK AO2,M
RTS,2022-06-23 05:35,-119.8764,39.6682,1539.00,69.80,37.40,30.49,290.00,8.00,0.00,30.13,M,10.00,M,CLR,M,M,M,M,M,M,M,M,M,M,M,M,M,M,69.80,KRTS 230535Z AUTO 29008KT 10SM CLR 21/03 A3013 RMK AO2,M
WMC,2022-06-23 05:42,-117.8072,40.9019,1315.00,71.00,25.00,17.66,240.00,6.00,0.00,30.04,M,10.00,M,OVC,M,M,M,3300.00,M,M,M,M,M,M,M,M,M,M,71.10,KWMC 230542Z AUTO 24006KT 10SM OVC033 22/M04 A3004 RMK AO2 T02171039,M
VGT,2022-06-23 05:53,-115.1933,36.2111,667.00,82.00,47.00,29.28,300.00,16.00,0.00,29.97,1014.00,10.00,M,FEW,M,M,M,12000.00,M,M,M,M,M,M,M,M,M,M,80.43,KVGT 230553Z AUTO 30016KT 10SM FEW120 28/08 A2997 RMK AO2 SLP140 60000 T02780083 10344 20267 53003,M
LOL,2022-06-23 05:53,-118.5701,40.0684,1192.43,75.00,39.00,27.23,230.00,9.00,0.00,30.02,1012.10,10.00,M,SCT,M,M,M,2900.00,M,M,M,M,M,M,M,M,M,M,75.00,KLOL 230553Z AUTO 23009KT 10SM SCT029 24/04 A3002 RMK AO2 SLP121 T02390039 10328 20239 50005,M
DRA,2022-06-23 05:53,-116.0278,36.6206,1009.00,71.00,45.00,39.13,50.00,5.00,0.00,30.07,1014.20,10.00,M,SCT,M,M,M,10000.00,M,M,M,M,M,M,M,M,M,M,71.10,KDRA 230553Z AUTO 05005KT 10SM SCT100 22/07 A3007 RMK AO2 SLP142 T02170072 10261 20211 58002,M
ELY,2022-06-23 05:53,-114.8453,39.2950,1909.00,60.00,30.00,31.80,230.00,8.00,0.00,30.23,1014.10,10.00,M,CLR,M,M,M,M,M,M,M,M,M,M,M,M,M,M,60.10,KELY 230553Z AUTO 23008KT 10SM CLR 16/M01 A3023 RMK AO2 SLP141 T01561011 10278 20156 51021,M
P68,2022-06-23 05:53,-116.0056,39.6014,1993.00,60.00,27.00,28.13,0.00,0.00,0.00,30.18,1013.20,M,M,M,M,M,M,M,M,M,M,M,M,M,M,M,M,M,60.10,KP68 230553Z AUTO 00000KT 16/M03 A3018 RMK AO1 SLP132 T01561028 10289 20156 53009,M
BVU,2022-06-23 05:55,-114.8611,35.9475,671.00,78.80,48.20,34.13,0.00,0.00,0.00,29.99,M,10.00,M,CLR,M,M,M,M,M,M,M,M,M,M,M,M,M,M,78.80,KBVU 230555Z AUTO 00000KT 10SM CLR 26/09 A2999 RMK AO2,M
CXP,2022-06-23 05:55,-119.7326,39.1923,1431.00,71.60,39.20,30.77,140.00,4.00,0.00,30.11,M,10.00,M,CLR,M,M,M,M,M,M,M,M,M,M,M,M,M,M,71.60,KCXP 230555Z AUTO 14004KT 10SM CLR 22/04 A3011 RMK AO2,M
RTS,2022-06-23 05:55,-119.8764,39.6682,1539.00,69.80,37.40,30.49,290.00,7.00,0.00,30.13,M,10.00,M,CLR,M,M,M,M,M,M,M,M,M,M,M,M,M,M,69.80,KRTS 230555Z AUTO 29007KT 10SM CLR 21/03 A3013 RMK AO2,M
05U,2022-06-23 05:55,-116.0051,39.6042,1811.23,60.80,28.40,29.06,0.00,0.00,0.00,30.20,M,10.00,M,CLR,M,M,M,M,M,M,M,M,M,M,M,M,M,M,60.80,K05U 230555Z AUTO 00000KT 10SM CLR 16/M02 A3020 RMK A01,M
MEV,2022-06-23 05:55,-119.7500,38.9963,1441.42,62.60,42.80,48.28,110.00,5.00,0.00,30.11,M,10.00,M,FEW,M,M,M,12000.00,M,M,M,M,M,M,M,M,M,M,62.60,KMEV 230555Z AUTO 11005KT 10SM FEW120 17/06 A3011 RMK AO2,M
RNO,2022-06-23 05:55,-119.7711,39.4839,1341.00,76.00,41.00,28.56,260.00,7.00,0.00,30.08,1012.50,10.00,M,FEW,SCT,BKN,M,10000.00,16000.00,25000.00,M,M,M,M,M,M,M,M,75.90,KRNO 230555Z 26007KT 10SM FEW100 SCT160 BKN250 24/05 A3008 RMK AO2 SLP125 T02440050 10328 20244 51019,M
BAM,2022-06-23 05:55,-116.8743,40.5990,1382.36,73.40,26.60,17.46,240.00,14.00,0.00,30.05,M,10.00,M,CLR,M,M,M,M,M,M,M,M,M,M,M,M,M,M,73.40,KBAM 230555Z AUTO 24014KT 10SM CLR 23/M03 A3005 RMK AO1,M
TMT,2022-06-23 05:55,-117.1971,39.4643,1749.34,62.00,35.60,37.10,160.00,7.00,0.00,30.18,M,10.00,M,CLR,M,M,M,M,M,M,M,M,M,M,M,M,M,M,62.10,KTMT 230555Z AUTO 16007KT 10SM CLR 17/02 A3018 RMK AO2 T01670020 10270 20167,M
HTH,2022-06-23 05:55,-118.6315,38.5448,1282.89,69.80,39.20,32.72,140.00,12.00,0.00,30.08,M,10.00,M,CLR,M,M,M,M,M,M,M,M,M,M,M,M,M,M,69.80,KHTH 230555Z AUTO 14012KT 10SM CLR 21/04 A3008 RMK A01,M
EKO,2022-06-23 05:56,-115.7860,40.8242,1367.00,70.00,21.90,16.10,80.00,5.00,0.00,30.08,1012.20,10.00,M,CLR,M,M,M,M,M,M,M,M,M,M,M,M,M,M,70.00,KEKO 230556Z AUTO 08005KT 10SM CLR 21/M06 A3008 RMK AO2 SLP122 T02111056 10311 20189 53010,M
WMC,2022-06-23 05:56,-117.8072,40.9019,1315.00,70.00,26.10,19.19,220.00,5.00,0.00,30.03,1011.80,10.00,M,OVC,M,M,M,3700.00,M,M,M,M,M,M,M,M,M,M,70.00,KWMC 230556Z AUTO 22005KT 10SM OVC037 21/M03 A3003 RMK AO2 SLP118 T02111033 10333 20178 53011,M
HND,2022-06-23 05:56,-115.1344,35.9729,742.79,73.00,56.00,55.00,190.00,12.00,T,30.03,1015.70,10.00,M,CLR,M,M,M,M,M,M,M,M,M,M,M,M,M,M,73.00,KHND 230556Z AUTO 19012KT 10SM CLR 23/13 A3003 RMK AO2 RAE05 SLP157 P0000 60009 T02280133 10333 20228 50003,M
TPH,2022-06-23 05:56,-117.0904,38.0505,1654.00,57.00,44.00,61.95,110.00,4.00,0.00,30.21,1016.40,10.00,M,CLR,M,M,M,M,M,M,M,M,M,M,M,M,M,M,57.00,KTPH 230556Z AUTO 11004KT 10SM CLR 14/07 A3021 RMK AO2 SLP164 60000 T01390067 10189 20139 50004,M
LAS,2022-06-23 05:56,-115.1634,36.0719,663.00,78.00,54.00,43.30,190.00,5.00,0.00,29.99,1013.00,10.00,M,FEW,FEW,BKN,M,8000.00,13000.00,17000.00,M,M,M,M,M,M,M,M,78.10,KLAS 230556Z 19005KT 10SM FEW080 FEW130 BKN170 26/12 A2999 RMK AO2 SLP130 60000 T02560122 10339 20250 51008,M
NFL,2022-06-23 05:56,-118.7010,39.4166,1199.00,74.00,40.00,29.26,170.00,14.00,0.00,30.04,1014.00,10.00,M,FEW,SCT,SCT,M,8000.00,12000.00,25000.00,M,M,M,M,M,M,M,M,73.90,KNFL 230556Z 17014KT 10SM FEW080 SCT120 SCT250 23/04 A3004 RMK AO2 SLP140 T02330044 10328 20233 50001,M
INS,2022-06-23 05:58,-115.6733,36.5872,955.00,73.80,44.40,34.91,250.00,10.00,T,30.07,1013.70,10.00,M,SCT,BKN,BKN,M,10000.00,12000.00,15000.00,M,M,M,M,M,M,M,M,73.80,KINS 230558Z AUTO 25010KT 10SM SCT100 BKN120 BKN150 23/07 A3007 RMK AO2 RAB15E24 SLP137 P0000 60000 T02320069 10274 20232 55001 $,M
LSV,2022-06-23 05:58,-115.0343,36.2362,570.00,83.70,48.20,29.10,290.00,18.00,0.00,29.93,1009.60,10.00,25.00,SCT,BKN,M,M,13000.00,18000.00,M,M,M,M,M,M,M,M,M,81.68,KLSV 230558Z 29018G25KT 10SM SCT130 BKN180 29/09 A2993 RMK AO2A SLP096 WND DATA ESTMD 6//// T02870090 10348 20288 50004 $,M
05U,2022-06-23 06:15,-116.0051,39.6042,1811.23,62.60,24.80,23.50,0.00,0.00,0.00,30.20,M,10.00,M,CLR,M,M,M,M,M,M,M,M,M,M,M,M,M,M,62.60,K05U 230615Z AUTO 00000KT 10SM CLR 17/M04 A3020 RMK A01,M
RTS,2022-06-23 06:15,-119.8764,39.6682,1539.00,69.80,37.40,30.49,300.00,6.00,0.00,30.13,M,10.00,M,CLR,M,M,M,M,M,M,M,M,M,M,M,M,M,M,69.80,KRTS 230615Z AUTO 30006KT 10SM CLR 21/03 A3013 RMK AO2,M
MEV,2022-06-23 06:15,-119.7500,38.9963,1441.42,62.60,42.80,48.28,190.00,5.00,0.00,30.10,M,10.00,M,SCT,M,M,M,12000.00,M,M,M,M,M,M,M,M,M,M,62.60,KMEV 230615Z AUTO 19005KT 10SM SCT120 17/06 A3010 RMK AO2,M
BAM,2022-06-23 06:15,-116.8743,40.5990,1382.36,73.40,30.20,20.23,250.00,11.00,0.00,30.05,M,10.00,M,CLR,M,M,M,M,M,M,M,M,M,M,M,M,M,M,73.40,KBAM 230615Z AUTO 25011KT 10SM CLR 23/M01 A3005 RMK AO1,M
HTH,2022-06-23 06:15,-118.6315,38.5448,1282.89,68.00,39.20,34.80,140.00,10.00,0.00,30.09,M,10.00,M,CLR,M,M,M,M,M,M,M,M,M,M,M,M,M,M,68.00,KHTH 230615Z AUTO 14010KT 10SM CLR 20/04 A3009 RMK A01,M
BVU,2022-06-23 06:15,-114.8611,35.9475,671.00,78.80,48.20,34.13,0.00,0.00,0.00,29.98,M,10.00,M,CLR,M,M,M,M,M,M,M,M,M,M,M,M,M,M,78.80,KBVU 230615Z AUTO 00000KT 10SM CLR 26/09 A2998 RMK AO2 LTG DSNT W,M
LSV,2022-06-23 06:15,-115.0343,36.2362,570.00,84.20,48.20,28.63,240.00,12.00,0.00,29.94,1011.20,10.00,M,M,M,M,M,M,M,M,M,M,M,M,M,M,M,M,82.04,KLSV 230615Z AUTO 24012KT 10SM M 29/09 A2994 RMK AO2 WSHFT 06 SLP112 $,M
CXP,2022-06-23 06:15,-119.7326,39.1923,1431.00,71.60,39.20,30.77,120.00,4.00,0.00,30.11,M,10.00,M,CLR,M,M,M,M,M,M,M,M,M,M,M,M,M,M,71.60,KCXP 230615Z AUTO 12004KT 10SM CLR 22/04 A3011 RMK AO2,M
TMT,2022-06-23 06:15,-117.1971,39.4643,1749.34,63.70,37.80,38.25,200.00,5.00,0.00,30.18,M,10.00,M,CLR,M,M,M,M,M,M,M,M,M,M,M,M,M,M,63.70,KTMT 230615Z AUTO 20005KT 10SM CLR 18/03 A3018 RMK AO2 T01760032,M
HTH,2022-06-23 06:35,-118.6315,38.5448,1282.89,68.00,37.40,32.43,140.00,7.00,0.00,30.08,M,10.00,M,CLR,M,M,M,M,M,M,M,M,M,M,M,M,M,M,68.00,KHTH 230635Z AUTO 14007KT 10SM CLR 20/03 A3008 RMK A01,M
TMT,2022-06-23 06:35,-117.1971,39.4643,1749.34,63.00,38.50,40.15,220.00,3.00,0.00,30.18,M,10.00,M,CLR,M,M,M,M,M,M,M,M,M,M,M,M,M,M,63.10,KTMT 230635Z AUTO 22003KT 10SM CLR 17/04 A3018 RMK AO2 T01730036,M
BVU,2022-06-23 06:35,-114.8611,35.9475,671.00,77.00,51.80,41.42,100.00,3.00,0.00,29.98,M,10.00,M,CLR,M,M,M,M,M,M,M,M,M,M,M,M,M,M,77.00,KBVU 230635Z AUTO 10003KT 10SM CLR 25/11 A2998 RMK AO2,M
CXP,2022-06-23 06:35,-119.7326,39.1923,1431.00,69.80,39.20,32.72,0.00,0.00,0.00,30.11,M,10.00,M,CLR,M,M,M,M,M,M,M,M,M,M,M,M,M,M,69.80,KCXP 230635Z AUTO 00000KT 10SM CLR 21/04 A3011 RMK AO2,M
RTS,2022-06-23 06:35,-119.8764,39.6682,1539.00,68.00,37.40,32.43,340.00,6.00,0.00,30.13,M,10.00,M,CLR,M,M,M,M,M,M,M,M,M,M,M,M,M,M,68.00,KRTS 230635Z AUTO 34006KT 10SM CLR 20/03 A3013 RMK AO2,M
05U,2022-06-23 06:35,-116.0051,39.6042,1811.23,59.00,24.80,26.70,0.00,0.00,0.00,30.20,M,10.00,M,CLR,M,M,M,M,M,M,M,M,M,M,M,M,M,M,59.00,K05U 230635Z AUTO 00000KT 10SM CLR 15/M04 A3020 RMK A01,M
MEV,2022-06-23 06:35,-119.7500,38.9963,1441.42,66.20,41.00,39.72,240.00,4.00,0.00,30.10,M,10.00,M,FEW,M,M,M,12000.00,M,M,M,M,M,M,M,M,M,M,66.20,KMEV 230635Z AUTO 24004KT 10SM FEW120 19/05 A3010 RMK AO2,M
BAM,2022-06-23 06:35,-116.8743,40.5990,1382.36,73.40,32.00,21.76,250.00,11.00,0.00,30.05,M,10.00,M,CLR,M,M,M,M,M,M,M,M,M,M,M,M,M,M,73.40,KBAM 230635Z AUTO 25011KT 10SM CLR 23/00 A3005 RMK AO1,M
CXP,2022-06-23 06:50,-119.7326,39.1923,1431.00,69.80,39.20,32.72,0.00,0.00,0.00,30.11,M,10.00,M,CLR,M,M,M,M,M,M,M,M,M,M,M,M,M,M,69.80,KCXP 230650Z AUTO 00000KT 10SM CLR 21/04 A3011 RMK AO2,M
ELY,2022-06-23 06:53,-114.8453,39.2950,1909.00,61.00,33.00,34.91,210.00,8.00,0.00,30.22,1012.80,10.00,M,CLR,M,M,M,M,M,M,M,M,M,M,M,M,M,M,61.00,KELY 230653Z AUTO 21008KT 10SM CLR 16/01 A3022 RMK AO2 SLP128 T01610006,M
LOL,2022-06-23 06:53,-118.5701,40.0684,1192.43,73.00,41.00,31.47,210.00,9.00,0.00,30.03,1012.20,10.00,M,CLR,M,M,M,M,M,M,M,M,M,M,M,M,M,M,73.00,KLOL 230653Z AUTO 21009KT 10SM CLR 23/05 A3003 RMK AO2 SLP122 T02280050,M
VGT,2022-06-23 06:53,-115.1933,36.2111,667.00,81.00,46.00,29.23,300.00,9.00,0.00,29.97,1013.90,10.00,M,CLR,M,M,M,M,M,M,M,M,M,M,M,M,M,M,79.76,KVGT 230653Z AUTO 30009KT 10SM CLR 27/08 A2997 RMK AO2 SLP139 T02720078,M
DRA,2022-06-23 06:53,-116.0278,36.6206,1009.00,70.00,46.00,42.20,0.00,0.00,T,30.04,1012.90,10.00,M,FEW,FEW,BKN,M,4800.00,7000.00,11000.00,M,-RA,M,M,M,M,M,M,70.00,KDRA 230653Z AUTO 00000KT 10SM -RA FEW048 FEW070 BKN110 21/08 A3004 RMK AO2 RAB51 SLP129 P0000 T02110078,M
P68,2022-06-23 06:53,-116.0056,39.6014,1993.00,58.00,25.00,28.01,0.00,0.00,0.00,30.17,1013.50,M,M,M,M,M,M,M,M,M,M,M,M,M,M,M,M,M,57.90,KP68 230653Z AUTO 00000KT 14/M04 A3017 RMK AO1 SLP135 T01441039,M
MEV,2022-06-23 06:55,-119.7500,38.9963,1441.42,68.00,42.80,40.00,340.00,5.00,0.00,30.09,M,10.00,12.00,FEW,M,M,M,12000.00,M,M,M,M,M,M,M,M,M,M,68.00,KMEV 230655Z AUTO 34005G12KT 10SM FEW120 20/06 A3009 RMK AO2,M
05U,2022-06-23 06:55,-116.0051,39.6042,1811.23,57.20,24.80,28.48,0.00,0.00,0.00,30.19,M,10.00,M,CLR,M,M,M,M,M,M,M,M,M,M,M,M,M,M,57.20,K05U 230655Z AUTO 00000KT 10SM CLR 14/M04 A3019 RMK A01,M
BVU,2022-06-23 06:55,-114.8611,35.9475,671.00,77.00,51.80,41.42,80.00,5.00,0.00,29.98,M,10.00,M,CLR,M,M,M,M,M,M,M,M,M,M,M,M,M,M,77.00,KBVU 230655Z AUTO 08005KT 10SM CLR 25/11 A2998 RMK AO2,M
RTS,2022-06-23 06:55,-119.8764,39.6682,1539.00,68.00,37.40,32.43,300.00,6.00,0.00,30.14,M,10.00,M,CLR,M,M,M,M,M,M,M,M,M,M,M,M,M,M,68.00,KRTS 230655Z AUTO 30006KT 10SM CLR 20/03 A3014 RMK AO2,M
RNO,2022-06-23 06:55,-119.7711,39.4839,1341.00,75.00,42.00,30.71,290.00,11.00,0.00,30.08,1012.00,10.00,M,FEW,BKN,M,M,10000.00,15000.00,M,M,M,M,M,M,M,M,M,75.00,KRNO 230655Z 29011KT 10SM FEW100 BKN150 24/06 A3008 RMK AO2 SLP120 T02390056,M
HTH,2022-06-23 06:55,-118.6315,38.5448,1282.89,68.00,39.20,34.80,160.00,3.00,0.00,30.08,M,10.00,M,CLR,M,M,M,M,M,M,M,M,M,M,M,M,M,M,68.00,KHTH 230655Z AUTO 16003KT 10SM CLR 20/04 A3008 RMK A01,M
BAM,2022-06-23 06:55,-116.8743,40.5990,1382.36,71.60,32.00,23.13,250.00,12.00,0.00,30.05,M,10.00,M,CLR,M,M,M,M,M,M,M,M,M,M,M,M,M,M,71.60,KBAM 230655Z AUTO 25012KT 10SM CLR 22/00 A3005 RMK AO1,M
TMT,2022-06-23 06:55,-117.1971,39.4643,1749.34,62.00,38.50,41.59,0.00,0.00,0.00,30.18,M,10.00,M,SCT,M,M,M,12000.00,M,M,M,M,M,M,M,M,M,M,62.10,KTMT 230655Z AUTO 00000KT 10SM SCT120 17/04 A3018 RMK AO2 T01670036,M
HND,2022-06-23 06:56,-115.1344,35.9729,742.79,72.00,57.00,59.20,210.00,9.00,0.00,30.02,1015.50,10.00,M,CLR,M,M,M,M,M,M,M,M,M,M,M,M,M,M,72.00,KHND 230656Z AUTO 21009KT 10SM CLR 22/14 A3002 RMK AO2 SLP155 T02220139 403500222,M
WMC,2022-06-23 06:56,-117.8072,40.9019,1315.00,66.00,30.00,25.85,260.00,5.00,0.00,30.03,1011.50,10.00,M,OVC,M,M,M,4100.00,M,M,M,M,M,M,M,M,M,M,66.00,KWMC 230656Z AUTO 26005KT 10SM OVC041 19/M01 A3003 RMK AO2 SLP115 T01891011,M
EKO,2022-06-23 06:56,-115.7860,40.8242,1367.00,67.00,21.90,17.91,0.00,0.00,0.00,30.07,1012.20,10.00,M,CLR,M,M,M,M,M,M,M,M,M,M,M,M,M,M,66.90,KEKO 230656Z AUTO 00000KT 10SM CLR 19/M06 A3007 RMK AO2 SLP122 T01941056,M
NFL,2022-06-23 06:56,-118.7010,39.4166,1199.00,75.00,39.00,27.23,170.00,12.00,0.00,30.03,1013.90,10.00,M,FEW,SCT,SCT,M,8000.00,12000.00,25000.00,M,M,M,M,M,M,M,M,75.00,KNFL 230656Z 17012KT 10SM FEW080 SCT120 SCT250 24/04 A3003 RMK AO2 SLP139 T02390039,M
LAS,2022-06-23 06:56,-115.1634,36.0719,663.00,76.00,54.00,46.57,190.00,5.00,0.00,29.98,1012.70,10.00,M,FEW,FEW,M,M,14000.00,17000.00,M,M,M,M,M,M,M,M,M,75.90,KLAS 230656Z 19005KT 10SM FEW140 FEW170 24/12 A2998 RMK AO2 SLP127 T02440122,M
TPH,2022-06-23 06:56,-117.0904,38.0505,1654.00,55.00,43.00,63.86,0.00,0.00,0.00,30.20,1016.60,10.00,M,CLR,M,M,M,M,M,M,M,M,M,M,M,M,M,M,55.00,KTPH 230656Z AUTO 00000KT 10SM CLR 13/06 A3020 RMK AO2 SLP166 T01280061,M
INS,2022-06-23 06:58,-115.6733,36.5872,955.00,70.50,43.70,38.01,270.00,6.00,0.00,30.05,1013.20,10.00,M,CLR,M,M,M,M,M,M,M,M,M,M,M,M,M,M,70.50,KINS 230658Z AUTO 27006KT 10SM CLR 21/07 A3005 RMK AO2 SLP132 T02140065 $,M
LSV,2022-06-23 06:58,-115.0343,36.2362,570.00,83.00,47.30,28.87,230.00,12.00,0.00,29.93,1011.00,10.00,M,FEW,M,M,M,16000.00,M,M,M,M,M,M,M,M,M,M,81.05,KLSV 230658Z 23012KT 10SM FEW160 28/09 A2993 RMK AO2A SLP110 T02830085 $,M
BAM,2022-06-23 07:15,-116.8743,40.5990,1382.36,71.60,32.00,23.13,250.00,10.00,0.00,30.04,M,10.00,M,CLR,M,M,M,M,M,M,M,M,M,M,M,M,M,M,71.60,KBAM 230715Z AUTO 25010KT 10SM CLR 22/00 A3004 RMK AO1,M
CXP,2022-06-23 07:15,-119.7326,39.1923,1431.00,68.00,39.20,34.80,0.00,0.00,0.00,30.10,M,10.00,M,CLR,M,M,M,M,M,M,M,M,M,M,M,M,M,M,68.00,KCXP 230715Z AUTO 00000KT 10SM CLR 20/04 A3010 RMK AO2,M
05U,2022-06-23 07:15,-116.0051,39.6042,1811.23,55.40,23.00,28.20,0.00,0.00,0.00,30.20,M,10.00,M,CLR,M,M,M,M,M,M,M,M,M,M,M,M,M,M,55.40,K05U 230715Z AUTO 00000KT 10SM CLR 13/M05 A3020 RMK A01,M
BVU,2022-06-23 07:15,-114.8611,35.9475,671.00,77.00,50.00,38.74,0.00,0.00,0.00,29.98,M,10.00,M,CLR,M,M,M,M,M,M,M,M,M,M,M,M,M,M,77.00,KBVU 230715Z AUTO 00000KT 10SM CLR 25/10 A2998 RMK AO2,M
RTS,2022-06-23 07:15,-119.8764,39.6682,1539.00,68.00,37.40,32.43,300.00,7.00,0.00,30.13,M,10.00,M,CLR,M,M,M,M,M,M,M,M,M,M,M,M,M,M,68.00,KRTS 230715Z AUTO 30007KT 10SM CLR 20/03 A3013 RMK AO2,M
TMT,2022-06-23 07:15,-117.1971,39.4643,1749.34,63.30,39.20,40.98,260.00,3.00,0.00,30.18,M,10.00,M,CLR,M,M,M,M,M,M,M,M,M,M,M,M,M,M,63.30,KTMT 230715Z AUTO 26003KT 10SM CLR 17/04 A3018 RMK AO2 T01740040,M
HTH,2022-06-23 07:15,-118.6315,38.5448,1282.89,66.20,37.40,34.51,140.00,9.00,0.00,30.07,M,10.00,M,CLR,M,M,M,M,M,M,M,M,M,M,M,M,M,M,66.20,KHTH 230715Z AUTO 14009KT 10SM CLR 19/03 A3007 RMK A01,M
MEV,2022-06-23 07:15,-119.7500,38.9963,1441.42,62.60,42.80,48.28,350.00,4.00,0.00,30.09,M,10.00,M,FEW,M,M,M,11000.00,M,M,M,M,M,M,M,M,M,M,62.60,KMEV 230715Z AUTO 35004KT 10SM FEW110 17/06 A3009 RMK AO2,M
BVU,2022-06-23 07:35,-114.8611,35.9475,671.00,77.00,50.00,38.74,0.00,0.00,0.00,29.98,M,10.00,M,CLR,M,M,M,M,M,M,M,M,M,M,M,M,M,M,77.00,KBVU 230735Z AUTO 00000KT 10SM CLR 25/10 A2998 RMK AO2,M
05U,2022-06-23 07:35,-116.0051,39.6042,1811.23,53.60,23.00,30.11,0.00,0.00,0.00,30.20,M,10.00,M,CLR,M,M,M,M,M,M,M,M,M,M,M,M,M,M,53.60,K05U 230735Z AUTO 00000KT 10SM CLR 12/M05 A3020 RMK A01,M
TMT,2022-06-23 07:35,-117.1971,39.4643,1749.34,62.80,38.50,40.58,180.00,3.00,0.00,30.17,M,10.00,M,CLR,M,M,M,M,M,M,M,M,M,M,M,M,M,M,62.80,KTMT 230735Z AUTO 18003KT 10SM CLR 17/04 A3017 RMK AO2 T01710036,M
HTH,2022-06-23 07:35,-118.6315,38.5448,1282.89,68.00,37.40,32.43,140.00,12.00,0.00,30.07,M,10.00,M,CLR,M,M,M,M,M,M,M,M,M,M,M,M,M,M,68.00,KHTH 230735Z AUTO 14012KT 10SM CLR 20/03 A3007 RMK A01,M
BAM,2022-06-23 07:35,-116.8743,40.5990,1382.36,71.60,32.00,23.13,250.00,9.00,0.00,30.04,M,10.00,M,CLR,M,M,M,M,M,M,M,M,M,M,M,M,M,M,71.60,KBAM 230735Z AUTO 25009KT 10SM CLR 22/00 A3004 RMK AO1,M
MEV,2022-06-23 07:35,-119.7500,38.9963,1441.42,62.60,42.80,48.28,70.00,6.00,0.00,30.08,M,10.00,M,CLR,M,M,M,M,M,M,M,M,M,M,M,M,M,M,62.60,KMEV 230735Z AUTO 07006KT 10SM CLR 17/06 A3008 RMK AO2,M
RTS,2022-06-23 07:35,-119.8764,39.6682,1539.00,68.00,37.40,32.43,310.00,7.00,0.00,30.13,M,10.00,M,CLR,M,M,M,M,M,M,M,M,M,M,M,M,M,M,68.00,KRTS 230735Z AUTO 31007KT 10SM CLR 20/03 A3013 RMK AO2,M
CXP,2022-06-23 07:35,-119.7326,39.1923,1431.00,68.00,39.20,34.80,0.00,0.00,0.00,30.10,M,10.00,M,CLR,M,M,M,M,M,M,M,M,M,M,M,M,M,M,68.00,KCXP 230735Z AUTO 00000KT 10SM CLR 20/04 A3010 RMK AO2,M
DRA,2022-06-23 07:53,-116.0278,36.6206,1009.00,66.00,48.00,52.22,340.00,6.00,T,30.04,1013.20,10.00,M,CLR,M,M,M,M,M,M,M,M,M,M,M,M,M,M,66.00,KDRA 230753Z AUTO 34006KT 10SM CLR 19/09 A3004 RMK AO2 RAE00 SLP132 P0000 T01890089 402890189,M
ELY,2022-06-23 07:53,-114.8453,39.2950,1909.00,59.00,33.00,37.49,210.00,9.00,0.00,30.21,1012.70,10.00,M,CLR,M,M,M,M,M,M,M,M,M,M,M,M,M,M,59.00,KELY 230753Z AUTO 21009KT 10SM CLR 15/01 A3021 RMK AO2 SLP127 T01500006 402890028,M
LOL,2022-06-23 07:53,-118.5701,40.0684,1192.43,70.00,41.00,34.85,240.00,4.00,0.00,30.02,1012.00,10.00,M,CLR,M,M,M,M,M,M,M,M,M,M,M,M,M,M,70.00,KLOL 230753Z AUTO 24004KT 10SM CLR 21/05 A3002 RMK AO2 SLP120 T02110050 403440128,M
VGT,2022-06-23 07:53,-115.1933,36.2111,667.00,81.00,46.00,29.23,270.00,5.00,0.00,29.96,1013.60,10.00,M,CLR,M,M,M,M,M,M,M,M,M,M,M,M,M,M,79.76,KVGT 230753Z AUTO 27005KT 10SM CLR 27/08 A2996 RMK AO2 SLP136 T02720078 403500267,M
P68,2022-06-23 07:53,-116.0056,39.6014,1993.00,54.00,26.10,33.77,M,3.00,0.00,30.18,1013.80,M,M,M,M,M,M,M,M,M,M,M,M,M,M,M,M,M,54.00,KP68 230753Z AUTO VRB03KT 12/M03 A3018 RMK AO1 SLP138 T01221033 402940039,M
HTH,2022-06-23 07:55,-118.6315,38.5448,1282.89,66.20,37.40,34.51,140.00,11.00,0.00,30.07,M,10.00,M,CLR,M,M,M,M,M,M,M,M,M,M,M,M,M,M,66.20,KHTH 230755Z AUTO 14011KT 10SM CLR 19/03 A3007 RMK A01,M
BVU,2022-06-23 07:55,-114.8611,35.9475,671.00,73.40,51.80,46.71,20.00,4.00,0.00,29.97,M,10.00,M,CLR,M,M,M,M,M,M,M,M,M,M,M,M,M,M,73.40,KBVU 230755Z AUTO 02004KT 10SM CLR 23/11 A2997 RMK AO2,M
CXP,2022-06-23 07:55,-119.7326,39.1923,1431.00,66.20,41.00,39.72,0.00,0.00,0.00,30.09,M,10.00,M,CLR,M,M,M,M,M,M,M,M,M,M,M,M,M,M,66.20,KCXP 230755Z AUTO 00000KT 10SM CLR 19/05 A3009 RMK AO2,M
RTS,2022-06-23 07:55,-119.8764,39.6682,1539.00,66.20,37.40,34.51,300.00,6.00,0.00,30.12,M,10.00,M,CLR,M,M,M,M,M,M,M,M,M,M,M,M,M,M,66.20,KRTS 230755Z AUTO 30006KT 10SM CLR 19/03 A3012 RMK AO2,M
05U,2022-06-23 07:55,-116.0051,39.6042,1811.23,55.40,26.60,32.76,0.00,0.00,0.00,30.20,M,10.00,M,CLR,M,M,M,M,M,M,M,M,M,M,M,M,M,M,55.40,K05U 230755Z AUTO 00000KT 10SM CLR 13/M03 A3020 RMK A01,M
MEV,2022-06-23 07:55,-119.7500,38.9963,1441.42,60.80,42.80,51.45,130.00,6.00,0.00,30.08,M,10.00,M,FEW,M,M,M,12000.00,M,M,M,M,M,M,M,M,M,M,60.80,KMEV 230755Z AUTO 13006KT 10SM FEW120 16/06 A3008 RMK AO2,M
BAM,2022-06-23 07:55,-116.8743,40.5990,1382.36,69.80,32.00,24.59,240.00,10.00,0.00,30.04,M,10.00,M,CLR,M,M,M,M,M,M,M,M,M,M,M,M,M,M,69.80,KBAM 230755Z AUTO 24010KT 10SM CLR 21/00 A3004 RMK AO1,M
TMT,2022-06-23 07:55,-117.1971,39.4643,1749.34,60.40,37.40,42.31,190.00,6.00,0.00,30.18,M,10.00,M,CLR,M,M,M,M,M,M,M,M,M,M,M,M,M,M,60.40,KTMT 230755Z AUTO 19006KT 10SM CLR 16/03 A3018 RMK AO2 T01580030,M
RNO,2022-06-23 07:55,-119.7711,39.4839,1341.00,74.00,42.00,31.86,300.00,11.00,0.00,30.06,1011.60,10.00,22.00,SCT,BKN,M,M,10000.00,15000.00,M,M,M,M,M,M,M,M,M,73.90,KRNO 230755Z 30011G22KT 10SM SCT100 BKN150 23/06 A3006 RMK AO2 SLP116 T02330056 403330117,M
NFL,2022-06-23 07:56,-118.7010,39.4166,1199.00,73.00,43.00,34.00,180.00,15.00,0.00,30.02,1013.50,10.00,M,FEW,M,M,M,11000.00,M,M,M,M,M,M,M,M,M,M,73.00,KNFL 230756Z AUTO 18015KT 10SM FEW110 23/06 A3002 RMK AO2 WSHFT 0739 SLP135 T02280061 403330083,M
WMC,2022-06-23 07:56,-117.8072,40.9019,1315.00,63.00,28.90,27.44,260.00,3.00,0.00,30.02,1011.20,7.00,M,FEW,M,M,M,3100.00,M,M,M,M,M,M,M,M,M,M,63.00,KWMC 230756Z AUTO 26003KT 7SM FEW031 17/M02 A3002 RMK AO2 SLP112 T01721017 403500106,M
EKO,2022-06-23 07:56,-115.7860,40.8242,1367.00,64.00,25.00,22.56,0.00,0.00,0.00,30.08,1012.40,10.00,M,CLR,M,M,M,M,M,M,M,M,M,M,M,M,M,M,64.00,KEKO 230756Z AUTO 00000KT 10SM CLR 18/M04 A3008 RMK AO2 SLP124 T01781039 403170067,M
LAS,2022-06-23 07:56,-115.1634,36.0719,663.00,75.00,55.00,49.78,200.00,7.00,0.00,29.97,1012.40,10.00,M,FEW,SCT,M,M,14000.00,20000.00,M,M,M,M,M,M,M,M,M,75.00,KLAS 230756Z 20007KT 10SM FEW140 SCT200 24/13 A2997 RMK AO2 SLP124 T02390128 403440239,M
TPH,2022-06-23 07:56,-117.0904,38.0505,1654.00,53.00,41.00,63.38,340.00,4.00,0.00,30.18,1016.20,10.00,M,CLR,M,M,M,M,M,M,M,M,M,M,M,M,M,M,53.10,KTPH 230756Z AUTO 34004KT 10SM CLR 12/05 A3018 RMK AO2 SLP162 T01170050 402610117,M
HND,2022-06-23 07:56,-115.1344,35.9729,742.79,71.00,57.00,61.04,210.00,9.00,0.00,30.01,1015.20,10.00,M,CLR,M,M,M,M,M,M,M,M,M,M,M,M,M,M,71.10,KHND 230756Z AUTO 21009KT 10SM CLR 22/14 A3001 RMK AO2 SLP152 T02170139,M
LSV,2022-06-23 07:58,-115.0343,36.2362,570.00,80.20,53.60,39.82,200.00,12.00,0.00,29.93,1011.00,10.00,M,CLR,M,M,M,M,M,M,M,M,M,M,M,M,M,M,80.05,KLSV 230758Z AUTO 20012KT 10SM CLR 27/12 A2993 RMK AO2 SLP110 T02680120 403570257 $,M
INS,2022-06-23 07:58,-115.6733,36.5872,955.00,68.40,43.70,40.84,280.00,3.00,0.00,30.04,1013.00,10.00,M,CLR,M,M,M,M,M,M,M,M,M,M,M,M,M,M,68.40,KINS 230758Z AUTO 28003KT 10SM CLR 20/07 A3004 RMK AO2 SLP130 T02020065 403020179 $,M
05U,2022-06-23 08:10,-116.0051,39.6042,1811.23,55.40,26.60,32.76,0.00,0.00,0.00,30.20,M,10.00,M,CLR,M,M,M,M,M,M,M,M,M,M,M,M,M,M,55.40,K05U 230810Z AUTO 00000KT 10SM CLR 13/M03 A3020 RMK A01,M
RTS,2022-06-23 08:15,-119.8764,39.6682,1539.00,64.40,37.40,36.74,320.00,9.00,0.00,30.12,M,10.00,M,CLR,M,M,M,M,M,M,M,M,M,M,M,M,M,M,64.40,KRTS 230815Z AUTO 32009KT 10SM CLR 18/03 A3012 RMK AO2,M
CXP,2022-06-23 08:15,-119.7326,39.1923,1431.00,66.20,41.00,39.72,0.00,0.00,0.00,30.09,M,10.00,M,SCT,M,M,M,11000.00,M,M,M,M,M,M,M,M,M,M,66.20,KCXP 230815Z AUTO 00000KT 10SM SCT110 19/05 A3009 RMK AO2,M
BVU,2022-06-23 08:15,-114.8611,35.9475,671.00,73.40,51.80,46.71,50.00,3.00,0.00,29.96,M,10.00,M,CLR,M,M,M,M,M,M,M,M,M,M,M,M,M,M,73.40,KBVU 230815Z AUTO 05003KT 10SM CLR 23/11 A2996 RMK AO2,M
MEV,2022-06-23 08:15,-119.7500,38.9963,1441.42,60.80,41.00,48.00,140.00,5.00,0.00,30.09,M,10.00,M,FEW,M,M,M,12000.00,M,M,M,M,M,M,M,M,M,M,60.80,KMEV 230815Z AUTO 14005KT 10SM FEW120 16/05 A3009 RMK AO2,M
BAM,2022-06-23 08:15,-116.8743,40.5990,1382.36,71.60,33.80,24.86,230.00,8.00,0.00,30.04,M,10.00,M,CLR,M,M,M,M,M,M,M,M,M,M,M,M,M,M,71.60,KBAM 230815Z AUTO 23008KT 10SM CLR 22/01 A3004 RMK AO1,M
HTH,2022-06-23 08:15,-118.6315,38.5448,1282.89,68.00,37.40,32.43,150.00,11.00,0.00,30.06,M,10.00,M,CLR,M,M,M,M,M,M,M,M,M,M,M,M,M,M,68.00,KHTH 230815Z AUTO 15011KT 10SM CLR 20/03 A3006 RMK A01,M
TMT,2022-06-23 08:15,-117.1971,39.4643,1749.34,59.40,37.40,43.84,190.00,5.00,0.00,30.18,M,10.00,M,CLR,M,M,M,M,M,M,M,M,M,M,M,M,M,M,59.40,KTMT 230815Z AUTO 19005KT 10SM CLR 15/03 A3018 RMK AO2 T01520030,M
05U,2022-06-23 08:35,-116.0051,39.6042,1811.23,55.40,26.60,32.76,0.00,0.00,0.00,30.20,M,10.00,M,CLR,M,M,M,M,M,M,M,M,M,M,M,M,M,M,55.40,K05U 230835Z AUTO 00000KT 10SM CLR 13/M03 A3020 RMK A01,M
HTH,2022-06-23 08:35,-118.6315,38.5448,1282.89,68.00,37.40,32.43,150.00,9.00,0.00,30.06,M,10.00,14.00,CLR,M,M,M,M,M,M,M,M,M,M,M,M,M,M,68.00,KHTH 230835Z AUTO 15009G14KT 10SM CLR 20/03 A3006 RMK A01,M
BAM,2022-06-23 08:35,-116.8743,40.5990,1382.36,71.60,33.80,24.86,240.00,11.00,0.00,30.04,M,10.00,M,CLR,M,M,M,M,M,M,M,M,M,M,M,M,M,M,71.60,KBAM 230835Z AUTO 24011KT 10SM CLR 22/01 A3004 RMK AO1,M
TMT,2022-06-23 08:35,-117.1971,39.4643,1749.34,59.00,37.60,44.82,160.00,5.00,0.00,30.16,M,10.00,M,CLR,M,M,M,M,M,M,M,M,M,M,M,M,M,M,59.00,KTMT 230835Z AUTO 16005KT 10SM CLR 15/03 A3016 RMK AO2 T01500031,M
MEV,2022-06-23 08:35,-119.7500,38.9963,1441.42,64.40,41.00,42.28,190.00,5.00,0.00,30.08,M,10.00,M,FEW,SCT,M,M,7500.00,11000.00,M,M,M,M,M,M,M,M,M,64.40,KMEV 230835Z AUTO 19005KT 10SM FEW075 SCT110 18/05 A3008 RMK AO2,M
RTS,2022-06-23 08:35,-119.8764,39.6682,1539.00,66.20,37.40,34.51,290.00,8.00,0.00,30.12,M,10.00,M,CLR,M,M,M,M,M,M,M,M,M,M,M,M,M,M,66.20,KRTS 230835Z AUTO 29008KT 10SM CLR 19/03 A3012 RMK AO2,M
CXP,2022-06-23 08:35,-119.7326,39.1923,1431.00,68.00,41.00,37.32,0.00,0.00,0.00,30.09,M,10.00,M,BKN,M,M,M,11000.00,M,M,M,M,M,M,M,M,M,M,68.00,KCXP 230835Z AUTO 00000KT 10SM BKN110 20/05 A3009 RMK AO2,M
BVU,2022-06-23 08:35,-114.8611,35.9475,671.00,75.20,51.80,43.97,0.00,0.00,0.00,29.96,M,10.00,M,CLR,M,M,M,M,M,M,M,M,M,M,M,M,M,M,75.20,KBVU 230835Z AUTO 00000KT 10SM CLR 24/11 A2996 RMK AO2,M
VGT,2022-06-23 08:53,-115.1933,36.2111,667.00,77.00,53.00,43.44,220.00,3.00,0.00,29.95,1013.30,10.00,M,CLR,M,M,M,M,M,M,M,M,M,M,M,M,M,M,77.00,KVGT 230853Z AUTO 22003KT 10SM CLR 25/12 A2995 RMK AO2 SLP133 T02500117 58007,M
LOL,2022-06-23 08:53,-118.5701,40.0684,1192.43,69.00,41.00,35.94,190.00,7.00,0.00,30.02,1012.00,10.00,M,CLR,M,M,M,M,M,M,M,M,M,M,M,M,M,M,69.10,KLOL 230853Z AUTO 19007KT 10SM CLR 21/05 A3002 RMK AO2 SLP120 T02060050 50000,M
DRA,2022-06-23 08:53,-116.0278,36.6206,1009.00,69.00,52.00,54.45,200.00,9.00,0.00,30.07,1013.90,10.00,24.00,OVC,M,M,M,10000.00,M,M,M,M,M,M,M,M,M,M,69.10,KDRA 230853Z AUTO 20009G24KT 10SM OVC100 21/11 A3007 RMK AO2 SLP139 60000 T02060111 55003,M
ELY,2022-06-23 08:53,-114.8453,39.2950,1909.00,55.00,32.00,41.44,190.00,7.00,0.00,30.20,1012.50,10.00,M,CLR,M,M,M,M,M,M,M,M,M,M,M,M,M,M,55.00,KELY 230853Z AUTO 19007KT 10SM CLR 13/00 A3020 RMK AO2 SLP125 T01280000 58009,M
P68,2022-06-23 08:53,-116.0056,39.6014,1993.00,54.00,28.00,36.52,70.00,3.00,0.00,30.18,1013.80,M,M,M,M,M,M,M,M,M,M,M,M,M,M,M,M,M,54.00,KP68 230853Z AUTO 07003KT 12/M02 A3018 RMK AO1 SLP138 T01221022 55000,M
05U,2022-06-23 08:55,-116.0051,39.6042,1811.23,53.60,26.60,34.98,0.00,0.00,0.00,30.20,M,10.00,M,FEW,M,M,M,12000.00,M,M,M,M,M,M,M,M,M,M,53.60,K05U 230855Z AUTO 00000KT 10SM FEW120 12/M03 A3020 RMK A01,M
BAM,2022-06-23 08:55,-116.8743,40.5990,1382.36,71.60,33.80,24.86,250.00,12.00,0.00,30.04,M,10.00,M,CLR,M,M,M,M,M,M,M,M,M,M,M,M,M,M,71.60,KBAM 230855Z AUTO 25012KT 10SM CLR 22/01 A3004 RMK AO1,M
TMT,2022-06-23 08:55,-117.1971,39.4643,1749.34,58.00,37.60,46.63,160.00,4.00,0.00,30.16,M,10.00,M,CLR,M,M,M,M,M,M,M,M,M,M,M,M,M,M,57.90,KTMT 230855Z AUTO 16004KT 10SM CLR 14/03 A3016 RMK AO2 T01440031,M
RNO,2022-06-23 08:55,-119.7711,39.4839,1341.00,74.00,41.00,30.54,300.00,10.00,0.00,30.05,1011.10,10.00,M,SCT,BKN,M,M,10000.00,15000.00,M,M,M,M,M,M,M,M,M,73.90,KRNO 230855Z 30010KT 10SM SCT100 BKN150 23/05 A3005 RMK AO2 SLP111 T02330050 58009,M
RTS,2022-06-23 08:55,-119.8764,39.6682,1539.00,66.20,35.60,32.14,290.00,5.00,0.00,30.11,M,10.00,M,CLR,M,M,M,M,M,M,M,M,M,M,M,M,M,M,66.20,KRTS 230855Z AUTO 29005KT 10SM CLR 19/02 A3011 RMK AO2,M
HTH,2022-06-23 08:55,-118.6315,38.5448,1282.89,66.20,37.40,34.51,150.00,11.00,0.00,30.05,M,10.00,M,CLR,M,M,M,M,M,M,M,M,M,M,M,M,M,M,66.20,KHTH 230855Z AUTO 15011KT 10SM CLR 19/03 A3005 RMK A01,M
CXP,2022-06-23 08:55,-119.7326,39.1923,1431.00,66.20,41.00,39.72,0.00,0.00,0.00,30.09,M,10.00,M,BKN,M,M,M,11000.00,M,M,M,M,M,M,M,M,M,M,66.20,KCXP 230855Z AUTO 00000KT 10SM BKN110 19/05 A3009 RMK AO2,M
BVU,2022-06-23 08:55,-114.8611,35.9475,671.00,75.20,50.00,41.14,0.00,0.00,0.00,29.96,M,10.00,M,CLR,M,M,M,M,M,M,M,M,M,M,M,M,M,M,75.20,KBVU 230855Z AUTO 00000KT 10SM CLR 24/10 A2996 RMK AO2,M
MEV,2022-06-23 08:55,-119.7500,38.9963,1441.42,68.00,39.20,34.80,120.00,14.00,0.00,30.08,M,10.00,M,FEW,SCT,OVC,M,3100.00,7500.00,11000.00,M,M,M,M,M,M,M,M,68.00,KMEV 230855Z AUTO 12014KT 10SM FEW031 SCT075 OVC110 20/04 A3008 RMK AO2,M
EKO,2022-06-23 08:56,-115.7860,40.8242,1367.00,62.00,27.00,26.20,0.00,0.00,0.00,30.08,1012.40,10.00,M,CLR,M,M,M,M,M,M,M,M,M,M,M,M,M,M,62.10,KEKO 230856Z AUTO 00000KT 10SM CLR 17/M03 A3008 RMK AO2 SLP124 T01671028 53001,M
WMC,2022-06-23 08:56,-117.8072,40.9019,1315.00,69.00,30.90,24.09,250.00,11.00,0.00,30.03,1011.10,10.00,M,CLR,M,M,M,M,M,M,M,M,M,M,M,M,M,M,69.10,KWMC 230856Z AUTO 25011KT 10SM CLR 21/M01 A3003 RMK AO2 SLP111 T02061006 55002,M
NFL,2022-06-23 08:56,-118.7010,39.4166,1199.00,71.00,42.00,35.02,150.00,5.00,0.00,30.02,1013.50,10.00,M,CLR,M,M,M,M,M,M,M,M,M,M,M,M,M,M,71.10,KNFL 230856Z AUTO 15005KT 10SM CLR 22/06 A3002 RMK AO2 SLP135 T02170056 56006,M
HND,2022-06-23 08:56,-115.1344,35.9729,742.79,71.00,56.00,58.65,200.00,11.00,0.00,30.00,1014.70,10.00,M,CLR,M,M,M,M,M,M,M,M,M,M,M,M,M,M,71.10,KHND 230856Z AUTO 20011KT 10SM CLR 22/13 A3000 RMK AO2 SLP147 T02170133 58009,M
TPH,2022-06-23 08:56,-117.0904,38.0505,1654.00,51.00,41.00,68.23,330.00,5.00,0.00,30.17,1016.50,10.00,M,CLR,M,M,M,M,M,M,M,M,M,M,M,M,M,M,51.10,KTPH 230856Z AUTO 33005KT 10SM CLR 11/05 A3017 RMK AO2 SLP165 T01060050 58011,M
LAS,2022-06-23 08:56,-115.1634,36.0719,663.00,75.00,54.00,47.99,190.00,7.00,0.00,29.96,1012.00,10.00,M,FEW,SCT,M,M,14000.00,18000.00,M,M,M,M,M,M,M,M,M,75.00,KLAS 230856Z 19007KT 10SM FEW140 SCT180 24/12 A2996 RMK AO2 SLP120 T02390122 57011,M
INS,2022-06-23 08:58,-115.6733,36.5872,955.00,70.50,43.00,37.00,270.00,15.00,0.00,30.05,1013.20,10.00,M,BKN,BKN,M,M,9500.00,15000.00,M,M,M,M,M,M,M,M,M,70.50,KINS 230858Z AUTO 27015KT 10SM BKN095 BKN150 21/06 A3005 RMK AO2 SLP132 T02140061 55006 $,M
LSV,2022-06-23 08:58,-115.0343,36.2362,570.00,79.30,53.60,41.01,200.00,11.00,0.00,29.92,1010.70,10.00,M,CLR,M,M,M,M,M,M,M,M,M,M,M,M,M,M,79.30,KLSV 230858Z AUTO 20011KT 10SM CLR 26/12 A2992 RMK AO2 SLP107 T02630120 $,M
INS,2022-06-23 09:03,-115.6733,36.5872,955.00,71.60,42.80,35.37,290.00,10.00,0.00,30.05,1013.00,10.00,M,SCT,BKN,BKN,M,9500.00,15000.00,18000.00,M,M,M,M,M,M,M,M,71.60,KINS 230903Z AUTO 29010KT 10SM SCT095 BKN150 BKN180 22/06 A3005 RMK AO2 SLP130 $,M
CXP,2022-06-23 09:10,-119.7326,39.1923,1431.00,66.20,41.00,39.72,20.00,4.00,0.00,30.08,M,10.00,M,SCT,M,M,M,11000.00,M,M,M,M,M,M,M,M,M,M,66.20,KCXP 230910Z AUTO 02004KT 10SM SCT110 19/05 A3008 RMK AO2,M
RTS,2022-06-23 09:15,-119.8764,39.6682,1539.00,66.20,37.40,34.51,280.00,9.00,0.00,30.11,M,10.00,M,CLR,M,M,M,M,M,M,M,M,M,M,M,M,M,M,66.20,KRTS 230915Z AUTO 28009KT 10SM CLR 19/03 A3011 RMK AO2,M
05U,2022-06-23 09:15,-116.0051,39.6042,1811.23,53.60,28.40,37.67,0.00,0.00,0.00,30.20,M,10.00,M,CLR,M,M,M,M,M,M,M,M,M,M,M,M,M,M,53.60,K05U 230915Z AUTO 00000KT 10SM CLR 12/M02 A3020 RMK A01,M
MEV,2022-06-23 09:15,-119.7500,38.9963,1441.42,69.80,39.20,32.72,220.00,12.00,0.00,30.07,M,10.00,M,FEW,SCT,BKN,M,4500.00,7000.00,9500.00,M,M,M,M,M,M,M,M,69.80,KMEV 230915Z AUTO 22012KT 10SM FEW045 SCT070 BKN095 21/04 A3007 RMK AO2,M
BVU,2022-06-23 09:15,-114.8611,35.9475,671.00,71.60,51.80,49.64,0.00,0.00,0.00,29.96,M,10.00,M,CLR,M,M,M,M,M,M,M,M,M,M,M,M,M,M,71.60,KBVU 230915Z AUTO 00000KT 10SM CLR 22/11 A2996 RMK AO2,M
TMT,2022-06-23 09:15,-117.1971,39.4643,1749.34,58.00,37.80,46.66,170.00,6.00,0.00,30.16,M,10.00,M,CLR,M,M,M,M,M,M,M,M,M,M,M,M,M,M,58.10,KTMT 230915Z AUTO 17006KT 10SM CLR 15/03 A3016 RMK AO2 T01450032,M
HTH,2022-06-23 09:15,-118.6315,38.5448,1282.89,66.20,37.40,34.51,140.00,10.00,0.00,30.05,M,10.00,15.00,CLR,M,M,M,M,M,M,M,M,M,M,M,M,M,M,66.20,KHTH 230915Z AUTO 14010G15KT 10SM CLR 19/03 A3005 RMK A01,M
BAM,2022-06-23 09:15,-116.8743,40.5990,1382.36,71.60,32.00,23.13,240.00,13.00,0.00,30.04,M,10.00,17.00,CLR,M,M,M,M,M,M,M,M,M,M,M,M,M,M,71.60,KBAM 230915Z AUTO 24013G17KT 10SM CLR 22/00 A3004 RMK AO1,M
CXP,2022-06-23 09:35,-119.7326,39.1923,1431.00,66.20,41.00,39.72,130.00,4.00,0.00,30.10,M,10.00,M,FEW,FEW,BKN,M,5500.00,7500.00,10000.00,M,M,M,M,M,M,M,M,66.20,KCXP 230935Z AUTO 13004KT 10SM FEW055 FEW075 BKN100 19/05 A3010 RMK AO2,M
05U,2022-06-23 09:35,-116.0051,39.6042,1811.23,57.20,32.00,38.26,0.00,0.00,0.00,30.19,M,10.00,M,CLR,M,M,M,M,M,M,M,M,M,M,M,M,M,M,57.20,K05U 230935Z AUTO 00000KT 10SM CLR 14/M00 A3019 RMK A01,M
RTS,2022-06-23 09:35,-119.8764,39.6682,1539.00,66.20,35.60,32.14,290.00,11.00,0.00,30.10,M,10.00,M,CLR,M,M,M,M,M,M,M,M,M,M,M,M,M,M,66.20,KRTS 230935Z AUTO 29011KT 10SM CLR 19/02 A3010 RMK AO2,M
BVU,2022-06-23 09:35,-114.8611,35.9475,671.00,71.60,51.80,49.64,0.00,0.00,0.00,29.96,M,10.00,M,CLR,M,M,M,M,M,M,M,M,M,M,M,M,M,M,71.60,KBVU 230935Z AUTO 00000KT 10SM CLR 22/11 A2996 RMK AO2,M
TMT,2022-06-23 09:35,-117.1971,39.4643,1749.34,57.20,37.40,47.44,160.00,6.00,0.00,30.16,M,10.00,M,CLR,M,M,M,M,M,M,M,M,M,M,M,M,M,M,57.20,KTMT 230935Z AUTO 16006KT 10SM CLR 14/03 A3016 RMK AO2 T01400030,M
HTH,2022-06-23 09:35,-118.6315,38.5448,1282.89,66.20,35.60,32.14,200.00,5.00,0.00,30.05,M,10.00,10.00,CLR,M,M,M,M,M,M,M,M,M,M,M,M,M,M,66.20,KHTH 230935Z AUTO 20005G10KT 10SM CLR 19/02 A3005 RMK A01,M
BAM,2022-06-23 09:35,-116.8743,40.5990,1382.36,71.60,33.80,24.86,240.00,14.00,0.00,30.05,M,10.00,19.00,CLR,M,M,M,M,M,M,M,M,M,M,M,M,M,M,71.60,KBAM 230935Z AUTO 24014G19KT 10SM CLR 22/01 A3005 RMK AO1,M
MEV,2022-06-23 09:35,-119.7500,38.9963,1441.42,69.80,37.40,30.49,250.00,6.00,0.00,30.08,M,10.00,17.00,FEW,SCT,OVC,M,4900.00,8000.00,11000.00,M,M,M,M,M,M,M,M,69.80,KMEV 230935Z AUTO 25006G17KT 10SM FEW049 SCT080 OVC110 21/03 A3008 RMK AO2,M
CXP,2022-06-23 09:50,-119.7326,39.1923,1431.00,68.00,39.20,34.80,0.00,0.00,0.00,30.10,M,10.00,M,FEW,SCT,BKN,M,2800.00,5000.00,7500.00,M,M,M,M,M,M,M,M,68.00,KCXP 230950Z AUTO 00000KT 10SM FEW028 SCT050 BKN075 20/04 A3010 RMK AO2,M
DRA,2022-06-23 09:53,-116.0278,36.6206,1009.00,68.00,51.00,54.70,340.00,10.00,0.00,30.04,1012.90,10.00,M,FEW,BKN,M,M,8000.00,11000.00,M,M,M,M,M,M,M,M,M,68.00,KDRA 230953Z AUTO 34010KT 10SM FEW080 BKN110 20/11 A3004 RMK AO2 SLP129 T02000106,M
ELY,2022-06-23 09:53,-114.8453,39.2950,1909.00,53.00,32.00,44.42,0.00,0.00,0.00,30.19,1012.60,10.00,M,CLR,M,M,M,M,M,M,M,M,M,M,M,M,M,M,53.10,KELY 230953Z AUTO 00000KT 10SM CLR 12/00 A3019 RMK AO2 SLP126 T01170000,M
VGT,2022-06-23 09:53,-115.1933,36.2111,667.00,76.00,53.00,45.06,0.00,0.00,0.00,29.95,1013.30,10.00,M,CLR,M,M,M,M,M,M,M,M,M,M,M,M,M,M,75.90,KVGT 230953Z AUTO 00000KT 10SM CLR 24/12 A2995 RMK AO2 SLP133 T02440117,M
LOL,2022-06-23 09:53,-118.5701,40.0684,1192.43,65.00,40.00,39.82,340.00,4.00,0.00,30.01,1011.80,10.00,M,CLR,M,M,M,M,M,M,M,M,M,M,M,M,M,M,64.90,KLOL 230953Z AUTO 34004KT 10SM CLR 18/04 A3001 RMK AO2 SLP118 T01830044,M
P68,2022-06-23 09:53,-116.0056,39.6014,1993.00,57.00,33.00,40.28,210.00,4.00,0.00,30.17,1013.10,M,M,M,M,M,M,M,M,M,M,M,M,M,M,M,M,M,57.00,KP68 230953Z AUTO 21004KT 14/01 A3017 RMK AO1 SLP131 T01390006,M
RNO,2022-06-23 09:55,-119.7711,39.4839,1341.00,73.00,39.00,29.12,360.00,11.00,0.00,30.07,1011.80,10.00,15.00,SCT,BKN,M,M,12000.00,15000.00,M,M,M,M,M,M,M,M,M,73.00,KRNO 230955Z 36011G15KT 10SM SCT120 BKN150 23/04 A3007 RMK AO2 SLP118 T02280039,M
BVU,2022-06-23 09:55,-114.8611,35.9475,671.00,71.60,51.80,49.64,360.00,4.00,0.00,29.95,M,10.00,M,CLR,M,M,M,M,M,M,M,M,M,M,M,M,M,M,71.60,KBVU 230955Z AUTO 36004KT 10SM CLR 22/11 A2995 RMK AO2,M
MEV,2022-06-23 09:55,-119.7500,38.9963,1441.42,68.00,39.20,34.80,120.00,4.00,0.00,30.10,M,10.00,M,FEW,OVC,M,M,7500.00,10000.00,M,M,M,M,M,M,M,M,M,68.00,KMEV 230955Z AUTO 12004KT 10SM FEW075 OVC100 20/04 A3010 RMK AO2,M
HTH,2022-06-23 09:55,-118.6315,38.5448,1282.89,64.40,35.60,34.22,0.00,0.00,0.00,30.05,M,10.00,M,CLR,M,M,M,M,M,M,M,M,M,M,M,M,M,M,64.40,KHTH 230955Z AUTO 00000KT 10SM CLR 18/02 A3005 RMK A01,M
TMT,2022-06-23 09:55,-117.1971,39.4643,1749.34,54.50,36.30,50.10,150.00,3.00,0.00,30.16,M,10.00,M,CLR,M,M,M,M,M,M,M,M,M,M,M,M,M,M,54.50,KTMT 230955Z AUTO 15003KT 10SM CLR 13/02 A3016 RMK AO2 T01250024,M
05U,2022-06-23 09:55,-116.0051,39.6042,1811.23,55.40,32.00,40.84,0.00,0.00,0.00,30.19,M,10.00,M,CLR,M,M,M,M,M,M,M,M,M,M,M,M,M,M,55.40,K05U 230955Z AUTO 00000KT 10SM CLR 13/M00 A3019 RMK A01,M
RTS,2022-06-23 09:55,-119.8764,39.6682,1539.00,66.20,37.40,34.51,290.00,10.00,0.00,30.11,M,10.00,M,SCT,M,M,M,12000.00,M,M,M,M,M,M,M,M,M,M,66.20,KRTS 230955Z AUTO 29010KT 10SM SCT120 19/03 A3011 RMK AO2,M
BAM,2022-06-23 09:55,-116.8743,40.5990,1382.36,71.60,33.80,24.86,230.00,15.00,0.00,30.04,M,10.00,21.00,CLR,M,M,M,M,M,M,M,M,M,M,M,M,M,M,71.60,KBAM 230955Z AUTO 23015G21KT 10SM CLR 22/01 A3004 RMK AO1,M
TPH,2022-06-23 09:56,-117.0904,38.0505,1654.00,52.00,40.00,63.24,360.00,7.00,0.00,30.16,1016.20,10.00,M,CLR,M,M,M,M,M,M,M,M,M,M,M,M,M,M,52.00,KTPH 230956Z AUTO 36007KT 10SM CLR 11/04 A3016 RMK AO2 SLP162 T01110044,M
WMC,2022-06-23 09:56,-117.8072,40.9019,1315.00,60.00,33.00,36.05,200.00,4.00,0.00,30.02,1011.50,10.00,M,CLR,M,M,M,M,M,M,M,M,M,M,M,M,M,M,60.10,KWMC 230956Z AUTO 20004KT 10SM CLR 16/01 A3002 RMK AO2 SLP115 T01560006,M
HND,2022-06-23 09:56,-115.1344,35.9729,742.79,71.00,56.00,58.65,200.00,12.00,0.00,29.99,1014.50,10.00,M,CLR,M,M,M,M,M,M,M,M,M,M,M,M,M,M,71.10,KHND 230956Z AUTO 20012KT 10SM CLR 22/13 A2999 RMK AO2 SLP145 T02170133,M
EKO,2022-06-23 09:56,-115.7860,40.8242,1367.00,58.00,25.00,28.01,0.00,0.00,0.00,30.08,1012.80,9.00,M,CLR,M,M,M,M,M,M,M,M,M,M,M,M,M,M,57.90,KEKO 230956Z AUTO 00000KT 9SM CLR 14/M04 A3008 RMK AO2 SLP128 T01441039,M
LAS,2022-06-23 09:56,-115.1634,36.0719,663.00,73.00,53.00,49.66,190.00,5.00,0.00,29.96,1011.90,10.00,M,FEW,M,M,M,18000.00,M,M,M,M,M,M,M,M,M,M,73.00,KLAS 230956Z 19005KT 10SM FEW180 23/12 A2996 RMK AO2 SLP119 T02280117,M
NFL,2022-06-23 09:56,-118.7010,39.4166,1199.00,70.00,43.00,37.64,160.00,6.00,0.00,30.01,1013.30,10.00,M,CLR,M,M,M,M,M,M,M,M,M,M,M,M,M,M,70.00,KNFL 230956Z AUTO 16006KT 10SM CLR 21/06 A3001 RMK AO2 SLP133 T02110061,M
LSV,2022-06-23 09:58,-115.0343,36.2362,570.00,77.20,54.70,45.76,190.00,10.00,0.00,29.92,1010.70,10.00,M,CLR,M,M,M,M,M,M,M,M,M,M,M,M,M,M,77.20,KLSV 230958Z AUTO 19010KT 10SM CLR 25/13 A2992 RMK AO2 SLP107 T02510126 $,M
INS,2022-06-23 09:58,-115.6733,36.5872,955.00,73.00,47.00,39.87,0.00,0.00,0.00,30.02,1011.90,10.00,M,BKN,OVC,M,M,10000.00,13000.00,M,M,M,M,M,M,M,M,M,72.90,KINS 230958Z AUTO 00000KT 10SM BKN100 OVC130 23/08 A3002 RMK AO2 SLP119 T02270084 $,M
LOL,2022-06-23 10:07,-118.5701,40.0684,1192.43,66.00,41.00,39.99,310.00,4.00,0.00,30.01,M,8.00,M,FEW,M,M,M,900.00,M,M,M,M,M,M,M,M,M,M,66.00,KLOL 231007Z AUTO 31004KT 8SM FEW009 19/05 A3001 RMK AO2 T01890050,M
CXP,2022-06-23 10:10,-119.7326,39.1923,1431.00,69.80,41.00,35.09,M,4.00,0.00,30.10,M,10.00,M,FEW,SCT,OVC,M,2600.00,5000.00,7000.00,M,M,M,M,M,M,M,M,69.80,KCXP 231010Z AUTO VRB04KT 10SM FEW026 SCT050 OVC070 21/05 A3010 RMK AO2,M
HTH,2022-06-23 10:15,-118.6315,38.5448,1282.89,64.40,37.40,36.74,200.00,6.00,0.00,30.05,M,10.00,M,CLR,M,M,M,M,M,M,M,M,M,M,M,M,M,M,64.40,KHTH 231015Z AUTO 20006KT 10SM CLR 18/03 A3005 RMK A01,M
BVU,2022-06-23 10:15,-114.8611,35.9475,671.00,69.80,53.60,56.38,0.00,0.00,0.00,29.95,M,10.00,M,CLR,M,M,M,M,M,M,M,M,M,M,M,M,M,M,69.80,KBVU 231015Z AUTO 00000KT 10SM CLR 21/12 A2995 RMK AO2,M
RTS,2022-06-23 10:15,-119.8764,39.6682,1539.00,64.40,37.40,36.74,250.00,6.00,0.00,30.11,M,10.00,M,BKN,M,M,M,12000.00,M,M,M,M,M,M,M,M,M,M,64.40,KRTS 231015Z AUTO 25006KT 10SM BKN120 18/03 A3011 RMK AO2,M
05U,2022-06-23 10:15,-116.0051,39.6042,1811.23,53.60,32.00,43.61,0.00,0.00,0.00,30.19,M,10.00,M,CLR,M,M,M,M,M,M,M,M,M,M,M,M,M,M,53.60,K05U 231015Z AUTO 00000KT 10SM CLR 12/00 A3019 RMK A01,M
MEV,2022-06-23 10:15,-119.7500,38.9963,1441.42,66.20,41.00,39.72,M,5.00,0.00,30.10,M,10.00,M,FEW,BKN,OVC,M,4000.00,5500.00,9500.00,M,M,M,M,M,M,M,M,66.20,KMEV 231015Z AUTO VRB05KT 10SM FEW040 BKN055 OVC095 19/05 A3010 RMK AO2,M
BAM,2022-06-23 10:15,-116.8743,40.5990,1382.36,71.60,33.80,24.86,240.00,11.00,0.00,30.04,M,10.00,M,CLR,M,M,M,M,M,M,M,M,M,M,M,M,M,M,71.60,KBAM 231015Z AUTO 24011KT 10SM CLR 22/01 A3004 RMK AO1,M
TMT,2022-06-23 10:15,-117.1971,39.4643,1749.34,53.80,35.60,49.99,200.00,5.00,0.00,30.15,M,10.00,M,CLR,M,M,M,M,M,M,M,M,M,M,M,M,M,M,53.80,KTMT 231015Z AUTO 20005KT 10SM CLR 12/02 A3015 RMK AO2 T01210020,M
05U,2022-06-23 10:30,-116.0051,39.6042,1811.23,51.80,32.00,46.59,0.00,0.00,0.00,30.19,M,10.00,M,CLR,M,M,M,M,M,M,M,M,M,M,M,M,M,M,51.80,K05U 231030Z AUTO 00000KT 10SM CLR 11/M00 A3019 RMK A01,M
CXP,2022-06-23 10:30,-119.7326,39.1923,1431.00,69.80,39.20,32.72,350.00,6.00,0.00,30.10,M,10.00,13.00,FEW,SCT,BKN,M,3300.00,4500.00,5500.00,M,M,M,M,M,M,M,M,69.80,KCXP 231030Z AUTO 35006G13KT 10SM FEW033 SCT045 BKN055 21/04 A3010 RMK AO2,M
HTH,2022-06-23 10:35,-118.6315,38.5448,1282.89,62.60,37.40,39.14,230.00,9.00,0.00,30.04,M,10.00,M,CLR,M,M,M,M,M,M,M,M,M,M,M,M,M,M,62.60,KHTH 231035Z AUTO 23009KT 10SM CLR 17/03 A3004 RMK A01,M
TMT,2022-06-23 10:35,-117.1971,39.4643,1749.34,57.20,37.80,48.19,0.00,0.00,0.00,30.14,M,10.00,M,CLR,M,M,M,M,M,M,M,M,M,M,M,M,M,M,57.20,KTMT 231035Z AUTO 00000KT 10SM CLR 14/03 A3014 RMK AO2 T01400032,M
BVU,2022-06-23 10:35,-114.8611,35.9475,671.00,69.80,53.60,56.38,0.00,0.00,0.00,29.95,M,10.00,M,CLR,M,M,M,M,M,M,M,M,M,M,M,M,M,M,69.80,KBVU 231035Z AUTO 00000KT 10SM CLR 21/12 A2995 RMK AO2,M
BAM,2022-06-23 10:35,-116.8743,40.5990,1382.36,68.00,33.80,28.11,180.00,4.00,0.00,30.05,M,10.00,M,CLR,M,M,M,M,M,M,M,M,M,M,M,M,M,M,68.00,KBAM 231035Z AUTO 18004KT 10SM CLR 20/01 A3005 RMK AO1,M
MEV,2022-06-23 10:35,-119.7500,38.9963,1441.42,66.20,41.00,39.72,280.00,17.00,0.00,30.10,M,10.00,23.00,FEW,SCT,BKN,M,3400.00,4700.00,6000.00,M,M,M,M,M,M,M,M,66.20,KMEV 231035Z AUTO 28017G23KT 10SM FEW034 SCT047 BKN060 19/05 A3010 RMK AO2,M
RTS,2022-06-23 10:35,-119.8764,39.6682,1539.00,64.40,35.60,34.22,300.00,9.00,0.00,30.10,M,10.00,M,FEW,SCT,BKN,M,4500.00,7000.00,9000.00,M,M,M,M,M,M,M,M,64.40,KRTS 231035Z AUTO 30009KT 10SM FEW045 SCT070 BKN090 18/02 A3010 RMK AO2,M
ELY,2022-06-23 10:53,-114.8453,39.2950,1909.00,51.00,32.00,47.81,140.00,4.00,0.00,30.20,1012.90,10.00,M,CLR,M,M,M,M,M,M,M,M,M,M,M,M,M,M,51.10,KELY 231053Z AUTO 14004KT 10SM CLR 11/00 A3020 RMK AO2 SLP129 T01060000,M
P68,2022-06-23 10:53,-116.0056,39.6014,1993.00,55.00,32.00,41.44,160.00,5.00,0.00,30.16,1013.00,M,M,M,M,M,M,M,M,M,M,M,M,M,M,M,M,M,55.00,KP68 231053Z AUTO 16005KT 13/00 A3016 RMK AO1 SLP130 T01280000,M
VGT,2022-06-23 10:53,-115.1933,36.2111,667.00,78.00,46.00,32.15,300.00,11.00,0.00,29.93,1012.50,10.00,M,CLR,M,M,M,M,M,M,M,M,M,M,M,M,M,M,78.10,KVGT 231053Z AUTO 30011KT 10SM CLR 26/08 A2993 RMK AO2 SLP125 T02560078,M
LOL,2022-06-23 10:53,-118.5701,40.0684,1192.43,65.00,40.00,39.82,0.00,0.00,0.00,30.00,1011.30,10.00,M,SCT,M,M,M,2000.00,M,M,M,M,M,M,M,M,M,M,64.90,KLOL 231053Z AUTO 00000KT 10SM SCT020 18/04 A3000 RMK AO2 SLP113 T01830044,M
DRA,2022-06-23 10:53,-116.0278,36.6206,1009.00,67.00,50.00,54.54,280.00,8.00,0.00,30.02,1012.40,10.00,M,BKN,M,M,M,11000.00,M,M,M,M,M,M,M,M,M,M,66.90,KDRA 231053Z AUTO 28008KT 10SM BKN110 19/10 A3002 RMK AO2 SLP124 T01940100,M
HTH,2022-06-23 10:55,-118.6315,38.5448,1282.89,62.60,37.40,39.14,0.00,0.00,0.00,30.05,M,10.00,M,CLR,M,M,M,M,M,M,M,M,M,M,M,M,M,M,62.60,KHTH 231055Z AUTO 00000KT 10SM CLR 17/03 A3005 RMK A01,M
BVU,2022-06-23 10:55,-114.8611,35.9475,671.00,69.80,53.60,56.38,0.00,0.00,0.00,29.95,M,10.00,M,CLR,M,M,M,M,M,M,M,M,M,M,M,M,M,M,69.80,KBVU 231055Z AUTO 00000KT 10SM CLR 21/12 A2995 RMK AO2,M
CXP,2022-06-23 10:55,-119.7326,39.1923,1431.00,69.80,39.20,32.72,320.00,3.00,0.00,30.08,M,10.00,M,FEW,SCT,BKN,M,4200.00,6000.00,11000.00,M,M,M,M,M,M,M,M,69.80,KCXP 231055Z AUTO 32003KT 10SM FEW042 SCT060 BKN110 21/04 A3008 RMK AO2,M
RNO,2022-06-23 10:55,-119.7711,39.4839,1341.00,72.00,41.00,32.56,0.00,0.00,0.00,30.05,1011.20,10.00,M,BKN,BKN,M,M,12000.00,15000.00,M,M,M,M,M,M,M,M,M,72.00,KRNO 231055Z 00000KT 10SM BKN120 BKN150 22/05 A3005 RMK AO2 SLP112 T02220050,M
RTS,2022-06-23 10:55,-119.8764,39.6682,1539.00,66.20,33.80,29.92,300.00,7.00,0.00,30.10,M,10.00,M,FEW,FEW,BKN,M,7000.00,8000.00,12000.00,M,M,M,M,M,M,M,M,66.20,KRTS 231055Z AUTO 30007KT 10SM FEW070 FEW080 BKN120 19/01 A3010 RMK AO2,M
05U,2022-06-23 10:55,-116.0051,39.6042,1811.23,53.60,32.00,43.61,0.00,0.00,0.00,30.18,M,10.00,M,CLR,M,M,M,M,M,M,M,M,M,M,M,M,M,M,53.60,K05U 231055Z AUTO 00000KT 10SM CLR 12/00 A3018 RMK A01,M
MEV,2022-06-23 10:55,-119.7500,38.9963,1441.42,64.40,41.00,42.28,260.00,12.00,0.00,30.08,M,10.00,19.00,FEW,BKN,OVC,M,4300.00,8000.00,9500.00,M,M,M,M,M,M,M,M,64.40,KMEV 231055Z AUTO 26012G19KT 10SM FEW043 BKN080 OVC095 18/05 A3008 RMK AO2,M
BAM,2022-06-23 10:55,-116.8743,40.5990,1382.36,64.40,32.00,29.63,0.00,0.00,0.00,30.06,M,10.00,M,CLR,M,M,M,M,M,M,M,M,M,M,M,M,M,M,64.40,KBAM 231055Z AUTO 00000KT 10SM CLR 18/00 A3006 RMK AO1,M
TMT,2022-06-23 10:55,-117.1971,39.4643,1749.34,55.60,36.50,48.52,220.00,3.00,0.00,30.14,M,10.00,M,CLR,M,M,M,M,M,M,M,M,M,M,M,M,M,M,55.60,KTMT 231055Z AUTO 22003KT 10SM CLR 13/03 A3014 RMK AO2 T01310025,M
NFL,2022-06-23 10:56,-118.7010,39.4166,1199.00,69.00,44.00,40.48,170.00,8.00,0.00,30.01,1013.20,10.00,M,FEW,M,M,M,11000.00,M,M,M,M,M,M,M,M,M,M,69.10,KNFL 231056Z AUTO 17008KT 10SM FEW110 21/07 A3001 RMK AO2 SLP132 T02060067,M
LAS,2022-06-23 10:56,-115.1634,36.0719,663.00,73.00,54.00,51.33,190.00,3.00,0.00,29.95,1011.80,10.00,M,FEW,M,M,M,18000.00,M,M,M,M,M,M,M,M,M,M,73.00,KLAS 231056Z 19003KT 10SM FEW180 23/12 A2995 RMK AO2 SLP118 T02280122,M
WMC,2022-06-23 10:56,-117.8072,40.9019,1315.00,66.00,36.00,32.88,190.00,11.00,0.00,30.01,1010.60,5.00,M,CLR,M,M,M,M,M,M,M,HZ,M,M,M,M,M,M,66.00,KWMC 231056Z AUTO 19011KT 5SM HZ CLR 19/02 A3001 RMK AO2 SLP106 T01890022,M
EKO,2022-06-23 10:56,-115.7860,40.8242,1367.00,59.00,27.00,29.25,0.00,0.00,0.00,30.09,1013.10,10.00,M,CLR,M,M,M,M,M,M,M,M,M,M,M,M,M,M,59.00,KEKO 231056Z AUTO 00000KT 10SM CLR 15/M03 A3009 RMK AO2 SLP131 T01501028,M
HND,2022-06-23 10:56,-115.1344,35.9729,742.79,69.00,56.00,62.80,210.00,11.00,0.00,29.98,1014.30,10.00,M,CLR,M,M,M,M,M,M,M,M,M,M,M,M,M,M,69.10,KHND 231056Z AUTO 21011KT 10SM CLR 21/13 A2998 RMK AO2 SLP143 T02060133,M
TPH,2022-06-23 10:56,-117.0904,38.0505,1654.00,52.00,40.00,63.24,10.00,8.00,0.00,30.16,1016.80,10.00,M,CLR,M,M,M,M,M,M,M,M,M,M,M,M,M,M,52.00,KTPH 231056Z AUTO 01008KT 10SM CLR 11/04 A3016 RMK AO2 SLP168 T01110044,M
LSV,2022-06-23 10:58,-115.0343,36.2362,570.00,77.00,51.80,41.42,190.00,10.00,0.00,29.94,1009.30,10.00,M,CLR,M,M,M,M,M,M,M,M,M,M,M,M,M,M,77.00,KLSV 231058Z 19010KT 10SM CLR 25/11 A2994 RMK AO2A SLP093 WND DATA ESTMD $,M
INS,2022-06-23 10:58,-115.6733,36.5872,955.00,71.00,46.80,41.89,0.00,0.00,0.00,30.02,1011.90,10.00,M,SCT,M,M,M,11000.00,M,M,M,M,M,M,M,M,M,M,71.10,KINS 231058Z AUTO 00000KT 10SM SCT110 22/08 A3002 RMK AO2 SLP119 T02170082 $,M
LOL,2022-06-23 11:07,-118.5701,40.0684,1192.43,62.00,40.00,43.93,320.00,3.00,0.00,30.01,M,10.00,M,BKN,M,M,M,1800.00,M,M,M,M,M,M,M,M,M,M,62.10,KLOL 231107Z AUTO 32003KT 10SM BKN018 17/04 A3001 RMK AO2 T01670044,M
CXP,2022-06-23 11:10,-119.7326,39.1923,1431.00,68.00,37.40,32.43,10.00,4.00,0.00,30.08,M,10.00,M,SCT,M,M,M,12000.00,M,M,M,M,M,M,M,M,M,M,68.00,KCXP 231110Z AUTO 01004KT 10SM SCT120 20/03 A3008 RMK AO2,M
BVU,2022-06-23 11:15,-114.8611,35.9475,671.00,69.80,53.60,56.38,0.00,0.00,0.00,29.95,M,10.00,M,CLR,M,M,M,M,M,M,M,M,M,M,M,M,M,M,69.80,KBVU 231115Z AUTO 00000KT 10SM CLR 21/12 A2995 RMK AO2,M
TMT,2022-06-23 11:15,-117.1971,39.4643,1749.34,50.50,34.50,54.04,350.00,5.00,0.00,30.14,M,10.00,M,CLR,M,M,M,M,M,M,M,M,M,M,M,M,M,M,50.50,KTMT 231115Z AUTO 35005KT 10SM CLR 10/01 A3014 RMK AO2 T01030014,M
HTH,2022-06-23 11:15,-118.6315,38.5448,1282.89,62.60,37.40,39.14,140.00,4.00,0.00,30.05,M,10.00,M,CLR,M,M,M,M,M,M,M,M,M,M,M,M,M,M,62.60,KHTH 231115Z AUTO 14004KT 10SM CLR 17/03 A3005 RMK A01,M
BAM,2022-06-23 11:15,-116.8743,40.5990,1382.36,68.00,33.80,28.11,0.00,0.00,0.00,30.05,M,10.00,M,CLR,M,M,M,M,M,M,M,M,M,M,M,M,M,M,68.00,KBAM 231115Z AUTO 00000KT 10SM CLR 20/01 A3005 RMK AO1,M
MEV,2022-06-23 11:15,-119.7500,38.9963,1441.42,66.20,37.40,34.51,280.00,10.00,0.00,30.08,M,10.00,15.00,SCT,BKN,BKN,M,8000.00,10000.00,12000.00,M,M,M,M,M,M,M,M,66.20,KMEV 231115Z AUTO 28010G15KT 10SM SCT080 BKN100 BKN120 19/03 A3008 RMK AO2,M
05U,2022-06-23 11:15,-116.0051,39.6042,1811.23,53.60,32.00,43.61,0.00,0.00,0.00,30.18,M,10.00,M,CLR,M,M,M,M,M,M,M,M,M,M,M,M,M,M,53.60,K05U 231115Z AUTO 00000KT 10SM CLR 12/00 A3018 RMK A01,M
RTS,2022-06-23 11:15,-119.8764,39.6682,1539.00,66.20,33.80,29.92,280.00,8.00,0.00,30.10,M,10.00,M,SCT,M,M,M,12000.00,M,M,M,M,M,M,M,M,M,M,66.20,KRTS 231115Z AUTO 28008KT 10SM SCT120 19/01 A3010 RMK AO2,M
LOL,2022-06-23 11:16,-118.5701,40.0684,1192.43,64.00,40.00,41.09,0.00,0.00,0.00,30.01,M,10.00,M,SCT,M,M,M,1800.00,M,M,M,M,M,M,M,M,M,M,64.00,KLOL 231116Z AUTO 00000KT 10SM SCT018 18/04 A3001 RMK AO2 T01780044,M
CXP,2022-06-23 11:30,-119.7326,39.1923,1431.00,69.80,37.40,30.49,320.00,8.00,0.00,30.08,M,10.00,M,FEW,FEW,BKN,M,3500.00,6000.00,10000.00,M,M,M,M,M,M,M,M,69.80,KCXP 231130Z AUTO 32008KT 10SM FEW035 FEW060 BKN100 21/03 A3008 RMK AO2,M
RTS,2022-06-23 11:35,-119.8764,39.6682,1539.00,64.40,37.40,36.74,270.00,9.00,0.00,30.10,M,10.00,M,SCT,M,M,M,12000.00,M,M,M,M,M,M,M,M,M,M,64.40,KRTS 231135Z AUTO 27009KT 10SM SCT120 18/03 A3010 RMK AO2,M
MEV,2022-06-23 11:35,-119.7500,38.9963,1441.42,66.20,37.40,34.51,270.00,12.00,0.00,30.08,M,10.00,M,BKN,M,M,M,11000.00,M,M,M,M,M,M,M,M,M,M,66.20,KMEV 231135Z AUTO 27012KT 10SM BKN110 19/03 A3008 RMK AO2,M
BAM,2022-06-23 11:35,-116.8743,40.5990,1382.36,69.80,33.80,26.43,270.00,5.00,0.00,30.05,M,10.00,M,CLR,M,M,M,M,M,M,M,M,M,M,M,M,M,M,69.80,KBAM 231135Z AUTO 27005KT 10SM CLR 21/01 A3005 RMK AO1,M
TMT,2022-06-23 11:35,-117.1971,39.4643,1749.34,51.00,34.00,52.19,0.00,0.00,0.00,30.14,M,10.00,M,CLR,M,M,M,M,M,M,M,M,M,M,M,M,M,M,50.90,KTMT 231135Z AUTO 00000KT 10SM CLR 11/01 A3014 RMK AO2 T01050011,M
HTH,2022-06-23 11:35,-118.6315,38.5448,1282.89,62.60,37.40,39.14,120.00,4.00,0.00,30.05,M,10.00,M,CLR,M,M,M,M,M,M,M,M,M,M,M,M,M,M,62.60,KHTH 231135Z AUTO 12004KT 10SM CLR 17/03 A3005 RMK A01,M
BVU,2022-06-23 11:35,-114.8611,35.9475,671.00,69.80,53.60,56.38,0.00,0.00,0.00,29.95,M,10.00,M,CLR,M,M,M,M,M,M,M,M,M,M,M,M,M,M,69.80,KBVU 231135Z AUTO 00000KT 10SM CLR 21/12 A2995 RMK AO2,M
05U,2022-06-23 11:35,-116.0051,39.6042,1811.23,55.40,32.00,40.84,0.00,0.00,0.00,30.18,M,10.00,M,CLR,M,M,M,M,M,M,M,M,M,M,M,M,M,M,55.40,K05U 231135Z AUTO 00000KT 10SM CLR 13/00 A3018 RMK A01,M
P68,2022-06-23 11:53,-116.0056,39.6014,1993.00,52.00,33.00,48.34,200.00,7.00,0.00,30.16,1013.20,M,M,M,M,M,M,M,M,M,M,M,M,M,M,M,M,M,52.00,KP68 231153Z AUTO 20007KT 11/01 A3016 RMK AO1 SLP132 T01110006 10167 20106 56005,M
LOL,2022-06-23 11:53,-118.5701,40.0684,1192.43,65.00,41.00,41.55,270.00,3.00,0.00,30.00,1011.50,10.00,M,CLR,M,M,M,M,M,M,M,M,M,M,M,M,M,M,64.90,KLOL 231153Z AUTO 27003KT 10SM CLR 18/05 A3000 RMK AO2 SLP115 T01830050 10239 20167 55005,M
ELY,2022-06-23 11:53,-114.8453,39.2950,1909.00,48.00,33.00,56.10,210.00,6.00,0.00,30.20,1013.20,10.00,M,CLR,M,M,M,M,M,M,M,M,M,M,M,M,M,M,44.80,KELY 231153Z AUTO 21006KT 10SM CLR 09/01 A3020 RMK AO2 SLP132 T00890006 10167 20083 56001,M
VGT,2022-06-23 11:53,-115.1933,36.2111,667.00,79.00,47.00,32.29,270.00,8.00,0.00,29.94,1012.70,10.00,M,CLR,M,M,M,M,M,M,M,M,M,M,M,M,M,M,79.00,KVGT 231153Z AUTO 27008KT 10SM CLR 26/08 A2994 RMK AO2 SLP127 T02610083 10278 20244 55005,M
DRA,2022-06-23 11:53,-116.0278,36.6206,1009.00,65.00,48.00,54.26,0.00,0.00,0.00,30.03,1012.90,10.00,M,FEW,M,M,M,11000.00,M,M,M,M,M,M,M,M,M,M,64.90,KDRA 231153Z AUTO 00000KT 10SM FEW110 18/09 A3003 RMK AO2 SLP129 60000 T01830089 10233 20183 55011,M
TMT,2022-06-23 11:55,-117.1971,39.4643,1749.34,49.30,33.30,53.86,0.00,0.00,0.00,30.14,M,10.00,M,CLR,M,M,M,M,M,M,M,M,M,M,M,M,M,M,49.30,KTMT 231155Z AUTO 00000KT 10SM CLR 10/01 A3014 RMK AO2 7//// T00960007 10177 20096,M
BAM,2022-06-23 11:55,-116.8743,40.5990,1382.36,66.20,33.80,29.92,200.00,3.00,0.00,30.05,M,10.00,M,CLR,M,M,M,M,M,M,M,M,M,M,M,M,M,M,66.20,KBAM 231155Z AUTO 20003KT 10SM CLR 19/01 A3005 RMK AO1,M
BVU,2022-06-23 11:55,-114.8611,35.9475,671.00,69.80,53.60,56.38,0.00,0.00,0.00,29.95,M,10.00,M,CLR,M,M,M,M,M,M,M,M,M,M,M,M,M,M,69.80,KBVU 231155Z AUTO 00000KT 10SM CLR 21/12 A2995 RMK AO2,M
HTH,2022-06-23 11:55,-118.6315,38.5448,1282.89,60.80,37.40,41.71,240.00,4.00,0.00,30.05,M,10.00,M,CLR,M,M,M,M,M,M,M,M,M,M,M,M,M,M,60.80,KHTH 231155Z AUTO 24004KT 10SM CLR 16/03 A3005 RMK A01,M
CXP,2022-06-23 11:55,-119.7326,39.1923,1431.00,68.00,39.20,34.80,M,4.00,0.00,30.08,M,10.00,M,FEW,BKN,OVC,M,5000.00,8000.00,12000.00,M,M,M,M,M,M,M,M,68.00,KCXP 231155Z AUTO VRB04KT 10SM FEW050 BKN080 OVC120 20/04 A3008 RMK AO2,M
RNO,2022-06-23 11:55,-119.7711,39.4839,1341.00,71.00,38.00,29.74,0.00,0.00,0.00,30.05,1011.30,10.00,M,BKN,BKN,M,M,12000.00,15000.00,M,M,M,M,M,M,M,M,M,71.10,KRNO 231155Z 00000KT 10SM BKN120 BKN150 22/03 A3005 RMK AO2 SLP113 T02170033 10244 20211 51002,M
MEV,2022-06-23 11:55,-119.7500,38.9963,1441.42,68.00,37.40,32.43,250.00,7.00,0.00,30.08,M,10.00,17.00,OVC,M,M,M,11000.00,M,M,M,M,M,M,M,M,M,M,68.00,KMEV 231155Z AUTO 25007G17KT 10SM OVC110 20/03 A3008 RMK AO2,M
05U,2022-06-23 11:55,-116.0051,39.6042,1811.23,51.80,32.00,46.59,0.00,0.00,0.00,30.18,M,10.00,M,CLR,M,M,M,M,M,M,M,M,M,M,M,M,M,M,51.80,K05U 231155Z AUTO 00000KT 10SM CLR 11/00 A3018 RMK A01,M
RTS,2022-06-23 11:55,-119.8764,39.6682,1539.00,62.60,35.60,36.45,280.00,8.00,0.00,30.10,M,10.00,M,FEW,M,M,M,12000.00,M,M,M,M,M,M,M,M,M,M,62.60,KRTS 231155Z AUTO 28008KT 10SM FEW120 17/02 A3010 RMK AO2,M
HND,2022-06-23 11:56,-115.1344,35.9729,742.79,68.00,55.00,63.12,210.00,10.00,0.00,29.98,1014.30,10.00,M,CLR,M,M,M,M,M,M,M,M,M,M,M,M,M,M,68.00,KHND 231156Z AUTO 21010KT 10SM CLR 20/13 A2998 RMK AO2 SLP143 70009 T02000128 10228 20200 57004,M
WMC,2022-06-23 11:56,-117.8072,40.9019,1315.00,65.00,36.00,34.17,190.00,10.00,0.00,30.02,1010.90,4.00,M,CLR,M,M,M,M,M,M,M,HZ,M,M,M,M,M,M,64.90,KWMC 231156Z AUTO 19010KT 4SM HZ CLR 18/02 A3002 RMK AO2 SLP109 T01830022 10217 20156 55003,M
EKO,2022-06-23 11:56,-115.7860,40.8242,1367.00,56.00,30.00,36.98,140.00,3.00,0.00,30.09,1013.20,10.00,M,CLR,M,M,M,M,M,M,M,M,M,M,M,M,M,M,55.90,KEKO 231156Z AUTO 14003KT 10SM CLR 13/M01 A3009 RMK AO2 SLP132 T01331011 10217 20133 50002,M
NFL,2022-06-23 11:56,-118.7010,39.4166,1199.00,66.00,47.00,50.10,180.00,8.00,T,30.02,1013.50,10.00,M,FEW,FEW,M,M,6000.00,11000.00,M,M,-RA,M,M,M,M,M,M,66.00,KNFL 231156Z AUTO 18008KT 10SM -RA FEW060 FEW110 19/08 A3002 RMK AO2 RAB52 SLP135 P0000 60000 T01890083 10239 20189 53000,M
LAS,2022-06-23 11:56,-115.1634,36.0719,663.00,72.00,54.00,53.09,200.00,4.00,0.00,29.95,1011.60,10.00,M,FEW,M,M,M,15000.00,M,M,M,M,M,M,M,M,M,M,72.00,KLAS 231156Z 20004KT 10SM FEW150 22/12 A2995 RMK AO2 SLP116 ACC DSNT ALQDS T02220122 10250 20222 58003,M
TPH,2022-06-23 11:56,-117.0904,38.0505,1654.00,49.00,39.00,68.51,360.00,6.00,0.00,30.16,1017.00,10.00,M,CLR,M,M,M,M,M,M,M,M,M,M,M,M,M,M,45.88,KTPH 231156Z AUTO 36006KT 10SM CLR 09/04 A3016 RMK AO2 SLP170 T00940039 10144 20089 56004,M
INS,2022-06-23 11:58,-115.6733,36.5872,955.00,68.40,45.00,42.92,240.00,7.00,0.00,30.02,1012.30,10.00,M,CLR,M,M,M,M,M,M,M,M,M,M,M,M,M,M,68.40,KINS 231158Z AUTO 24007KT 10SM CLR 20/07 A3002 RMK AO2 SLP123 T02020072 10232 20198 55009 $,M
LSV,2022-06-23 11:58,-115.0343,36.2362,570.00,75.20,50.00,41.14,180.00,6.00,0.00,29.94,1010.50,10.00,M,CLR,M,M,M,M,M,M,M,M,M,M,M,M,M,M,75.20,KLSV 231158Z 18006KT 10SM CLR 24/10 A2994 RMK AO2A SLP105 WND DATA ESTMD 7//// 10291 20244 $,M
HTH,2022-06-23 12:15,-118.6315,38.5448,1282.89,59.00,37.40,44.47,170.00,4.00,0.00,30.06,M,10.00,M,CLR,M,M,M,M,M,M,M,M,M,M,M,M,M,M,59.00,KHTH 231215Z AUTO 17004KT 10SM CLR 15/03 A3006 RMK A01,M
05U,2022-06-23 12:15,-116.0051,39.6042,1811.23,51.80,33.80,50.08,0.00,0.00,0.00,30.18,M,10.00,M,CLR,M,M,M,M,M,M,M,M,M,M,M,M,M,M,51.80,K05U 231215Z AUTO 00000KT 10SM CLR 11/01 A3018 RMK A01,M
BAM,2022-06-23 12:15,-116.8743,40.5990,1382.36,68.00,35.60,30.20,200.00,3.00,0.00,30.05,M,10.00,M,CLR,M,M,M,M,M,M,M,M,M,M,M,M,M,M,68.00,KBAM 231215Z AUTO 20003KT 10SM CLR 20/02 A3005 RMK AO1,M
MEV,2022-06-23 12:15,-119.7500,38.9963,1441.42,68.00,35.60,30.20,280.00,6.00,0.00,30.08,M,10.00,12.00,BKN,M,M,M,11000.00,M,M,M,M,M,M,M,M,M,M,68.00,KMEV 231215Z AUTO 28006G12KT 10SM BKN110 20/02 A3008 RMK AO2,M
CXP,2022-06-23 12:15,-119.7326,39.1923,1431.00,66.20,37.40,34.51,140.00,4.00,0.00,30.08,M,10.00,M,FEW,SCT,BKN,M,3600.00,8000.00,11000.00,M,M,M,M,M,M,M,M,66.20,KCXP 231215Z AUTO 14004KT 10SM FEW036 SCT080 BKN110 19/03 A3008 RMK AO2,M
RTS,2022-06-23 12:15,-119.8764,39.6682,1539.00,60.80,35.60,38.85,270.00,11.00,0.00,30.11,M,10.00,M,CLR,M,M,M,M,M,M,M,M,M,M,M,M,M,M,60.80,KRTS 231215Z AUTO 27011KT 10SM CLR 16/02 A3011 RMK AO2,M
TMT,2022-06-23 12:15,-117.1971,39.4643,1749.34,48.40,33.30,55.71,0.00,0.00,0.00,30.15,M,10.00,M,CLR,M,M,M,M,M,M,M,M,M,M,M,M,M,M,48.40,KTMT 231215Z AUTO 00000KT 10SM CLR 09/01 A3015 RMK AO2 T00910007,M
BVU,2022-06-23 12:15,-114.8611,35.9475,671.00,69.80,51.80,52.77,0.00,0.00,0.00,29.95,M,10.00,M,CLR,M,M,M,M,M,M,M,M,M,M,M,M,M,M,69.80,KBVU 231215Z AUTO 00000KT 10SM CLR 21/11 A2995 RMK AO2,M
MEV,2022-06-23 12:35,-119.7500,38.9963,1441.42,64.40,37.40,36.74,50.00,4.00,0.00,30.08,M,10.00,M,BKN,M,M,M,11000.00,M,M,M,M,M,M,M,M,M,M,64.40,KMEV 231235Z AUTO 05004KT 10SM BKN110 18/03 A3008 RMK AO2,M
05U,2022-06-23 12:35,-116.0051,39.6042,1811.23,51.80,33.80,50.08,0.00,0.00,0.00,30.18,M,10.00,M,CLR,M,M,M,M,M,M,M,M,M,M,M,M,M,M,51.80,K05U 231235Z AUTO 00000KT 10SM CLR 11/01 A3018 RMK A01,M
RTS,2022-06-23 12:35,-119.8764,39.6682,1539.00,60.80,35.60,38.85,300.00,5.00,0.00,30.11,M,10.00,M,FEW,M,M,M,12000.00,M,M,M,M,M,M,M,M,M,M,60.80,KRTS 231235Z AUTO 30005KT 10SM FEW120 16/02 A3011 RMK AO2,M
CXP,2022-06-23 12:35,-119.7326,39.1923,1431.00,66.20,37.40,34.51,100.00,7.00,0.00,30.09,M,10.00,M,BKN,BKN,M,M,10000.00,12000.00,M,M,M,M,M,M,M,M,M,66.20,KCXP 231235Z AUTO 10007KT 10SM BKN100 BKN120 19/03 A3009 RMK AO2,M
BVU,2022-06-23 12:35,-114.8611,35.9475,671.00,69.80,51.80,52.77,0.00,0.00,0.00,29.95,M,10.00,M,CLR,M,M,M,M,M,M,M,M,M,M,M,M,M,M,69.80,KBVU 231235Z AUTO 00000KT 10SM CLR 21/11 A2995 RMK AO2,M
HTH,2022-06-23 12:35,-118.6315,38.5448,1282.89,60.80,37.40,41.71,210.00,4.00,0.00,30.06,M,9.00,M,CLR,M,M,M,M,M,M,M,M,M,M,M,M,M,M,60.80,KHTH 231235Z AUTO 21004KT 9SM CLR 16/03 A3006 RMK A01,M
BAM,2022-06-23 12:35,-116.8743,40.5990,1382.36,62.60,32.00,31.56,140.00,6.00,0.00,30.06,M,10.00,M,CLR,M,M,M,M,M,M,M,M,M,M,M,M,M,M,62.60,KBAM 231235Z AUTO 14006KT 10SM CLR 17/00 A3006 RMK AO1,M
TMT,2022-06-23 12:35,-117.1971,39.4643,1749.34,48.70,33.40,55.31,120.00,3.00,0.00,30.15,M,10.00,M,CLR,M,M,M,M,M,M,M,M,M,M,M,M,M,M,47.78,KTMT 231235Z AUTO 12003KT 10SM CLR 09/01 A3015 RMK AO2 T00930008,M
VGT,2022-06-23 12:53,-115.1933,36.2111,667.00,76.00,48.00,37.29,0.00,0.00,0.00,29.95,1013.30,10.00,M,CLR,M,M,M,M,M,M,M,M,M,M,M,M,M,M,75.90,KVGT 231253Z 00000KT 10SM CLR 24/09 A2995 RMK AO2 SLP133 T02440089,M
P68,2022-06-23 12:53,-116.0056,39.6014,1993.00,53.00,36.00,52.11,190.00,4.00,0.00,30.15,1013.30,M,M,M,M,M,M,M,M,M,M,M,M,M,M,M,M,M,53.10,KP68 231253Z AUTO 19004KT 12/02 A3015 RMK AO1 SLP133 T01170022,M
DRA,2022-06-23 12:53,-116.0278,36.6206,1009.00,65.00,48.00,54.26,110.00,4.00,0.00,30.03,1012.70,10.00,M,BKN,M,M,M,10000.00,M,M,M,M,M,M,M,M,M,M,64.90,KDRA 231253Z AUTO 11004KT 10SM BKN100 18/09 A3003 RMK AO2 SLP127 T01830089,M
LOL,2022-06-23 12:53,-118.5701,40.0684,1192.43,61.00,41.00,47.66,0.00,0.00,0.00,30.02,1012.30,8.00,M,CLR,M,M,M,M,M,M,M,M,M,M,M,M,M,M,61.00,KLOL 231253Z AUTO 00000KT 8SM CLR 16/05 A3002 RMK AO2 SLP123 T01610050,M
ELY,2022-06-23 12:53,-114.8453,39.2950,1909.00,50.00,33.00,52.06,140.00,7.00,0.00,30.20,1013.40,10.00,M,CLR,M,M,M,M,M,M,M,M,M,M,M,M,M,M,50.00,KELY 231253Z AUTO 14007KT 10SM CLR 10/01 A3020 RMK AO2 SLP134 T01000006,M
MEV,2022-06-23 12:55,-119.7500,38.9963,1441.42,57.20,41.00,54.60,90.00,10.00,0.00,30.09,M,10.00,M,SCT,M,M,M,11000.00,M,M,M,M,M,M,M,M,M,M,57.20,KMEV 231255Z AUTO 09010KT 10SM SCT110 14/05 A3009 RMK AO2,M
BAM,2022-06-23 12:55,-116.8743,40.5990,1382.36,62.60,32.00,31.56,0.00,0.00,0.00,30.06,M,10.00,M,CLR,M,M,M,M,M,M,M,M,M,M,M,M,M,M,62.60,KBAM 231255Z AUTO 00000KT 10SM CLR 17/00 A3006 RMK AO1,M
HTH,2022-06-23 12:55,-118.6315,38.5448,1282.89,60.80,37.40,41.71,210.00,5.00,0.00,30.06,M,10.00,M,CLR,M,M,M,M,M,M,M,M,M,M,M,M,M,M,60.80,KHTH 231255Z AUTO 21005KT 10SM CLR 16/03 A3006 RMK A01,M
TMT,2022-06-23 12:55,-117.1971,39.4643,1749.34,51.80,36.50,55.76,150.00,4.00,0.00,30.15,M,10.00,M,CLR,M,M,M,M,M,M,M,M,M,M,M,M,M,M,51.80,KTMT 231255Z AUTO 15004KT 10SM CLR 11/03 A3015 RMK AO2 T01100025,M
BVU,2022-06-23 12:55,-114.8611,35.9475,671.00,73.40,48.20,40.85,0.00,0.00,0.00,29.96,M,10.00,M,SCT,M,M,M,12000.00,M,M,M,M,M,M,M,M,M,M,73.40,KBVU 231255Z AUTO 00000KT 10SM SCT120 23/09 A2996 RMK AO2,M
RNO,2022-06-23 12:55,-119.7711,39.4839,1341.00,70.00,38.00,30.88,50.00,5.00,0.00,30.08,1012.20,10.00,M,BKN,BKN,M,M,10000.00,13000.00,M,M,M,M,M,M,M,M,M,70.00,KRNO 231255Z 05005KT 10SM BKN100 BKN130 21/03 A3008 RMK AO2 SLP122 T02110033,M
CXP,2022-06-23 12:55,-119.7326,39.1923,1431.00,68.00,35.60,30.20,130.00,3.00,0.00,30.10,M,10.00,M,FEW,SCT,M,M,1700.00,10000.00,M,M,M,M,M,M,M,M,M,68.00,KCXP 231255Z AUTO 13003KT 10SM FEW017 SCT100 20/02 A3010 RMK AO2,M
RTS,2022-06-23 12:55,-119.8764,39.6682,1539.00,64.40,33.80,31.85,330.00,5.00,0.00,30.12,M,10.00,M,FEW,M,M,M,12000.00,M,M,M,M,M,M,M,M,M,M,64.40,KRTS 231255Z AUTO 33005KT 10SM FEW120 18/01 A3012 RMK AO2,M
05U,2022-06-23 12:55,-116.0051,39.6042,1811.23,53.60,35.60,50.36,0.00,0.00,0.00,30.18,M,10.00,M,CLR,M,M,M,M,M,M,M,M,M,M,M,M,M,M,53.60,K05U 231255Z AUTO 00000KT 10SM CLR 12/02 A3018 RMK A01,M
WMC,2022-06-23 12:56,-117.8072,40.9019,1315.00,67.00,38.00,34.35,190.00,9.00,0.00,30.02,1011.00,5.00,M,CLR,M,M,M,M,M,M,M,HZ,M,M,M,M,M,M,66.90,KWMC 231256Z AUTO 19009KT 5SM HZ CLR 19/03 A3002 RMK AO2 SLP110 T01940033,M
EKO,2022-06-23 12:56,-115.7860,40.8242,1367.00,58.00,30.00,34.41,0.00,0.00,0.00,30.09,1013.50,10.00,M,CLR,M,M,M,M,M,M,M,M,M,M,M,M,M,M,57.90,KEKO 231256Z AUTO 00000KT 10SM CLR 14/M01 A3009 RMK AO2 SLP135 T01441011,M
NFL,2022-06-23 12:56,-118.7010,39.4166,1199.00,65.00,45.00,48.44,180.00,6.00,T,30.02,1013.60,10.00,M,FEW,OVC,M,M,9000.00,11000.00,M,M,M,M,M,M,M,M,M,64.90,KNFL 231256Z AUTO 18006KT 10SM FEW090 OVC110 18/07 A3002 RMK AO2 RAE01 SLP136 P0000 T01830072,M
HND,2022-06-23 12:56,-115.1344,35.9729,742.79,68.00,54.00,60.86,200.00,9.00,0.00,29.99,1015.00,10.00,M,CLR,M,M,M,M,M,M,M,M,M,M,M,M,M,M,68.00,KHND 231256Z 20009KT 10SM CLR 20/12 A2999 RMK AO2 SLP150 T02000122,M
TPH,2022-06-23 12:56,-117.0904,38.0505,1654.00,50.00,39.00,65.75,10.00,9.00,0.00,30.16,1017.00,10.00,M,CLR,M,M,M,M,M,M,M,M,M,M,M,M,M,M,50.00,KTPH 231256Z AUTO 01009KT 10SM CLR 10/04 A3016 RMK AO2 SLP170 T01000039,M
LAS,2022-06-23 12:56,-115.1634,36.0719,663.00,72.00,52.00,49.33,210.00,3.00,0.00,29.96,1012.40,10.00,M,FEW,M,M,M,14000.00,M,M,M,M,M,M,M,M,M,M,72.00,KLAS 231256Z 21003KT 10SM FEW140 22/11 A2996 RMK AO2 SLP124 ACC DSNT E-S AND W-N T02220111,M
LSV,2022-06-23 12:58,-115.0343,36.2362,570.00,74.70,53.00,46.90,200.00,6.00,0.00,29.93,1011.20,10.00,M,CLR,M,M,M,M,M,M,M,M,M,M,M,M,M,M,74.70,KLSV 231258Z 20006KT 10SM CLR 24/12 A2993 RMK AO2A SLP112 T02370117 $,M
INS,2022-06-23 12:58,-115.6733,36.5872,955.00,67.00,49.00,51.99,300.00,6.00,0.00,30.02,1012.50,10.00,M,CLR,M,M,M,M,M,M,M,M,M,M,M,M,M,M,67.10,KINS 231258Z AUTO 30006KT 10SM CLR 20/09 A3002 RMK AO2 SLP125 T01950094 $,M
CXP,2022-06-23 13:10,-119.7326,39.1923,1431.00,66.20,37.40,34.51,120.00,4.00,0.00,30.10,M,10.00,M,FEW,FEW,M,M,10000.00,12000.00,M,M,M,M,M,M,M,M,M,66.20,KCXP 231310Z AUTO 12004KT 10SM FEW100 FEW120 19/03 A3010 RMK AO2,M
BAM,2022-06-23 13:15,-116.8743,40.5990,1382.36,62.60,32.00,31.56,190.00,5.00,0.00,30.05,M,10.00,M,CLR,M,M,M,M,M,M,M,M,M,M,M,M,M,M,62.60,KBAM 231315Z AUTO 19005KT 10SM CLR 17/00 A3005 RMK AO1,M
MEV,2022-06-23 13:15,-119.7500,38.9963,1441.42,59.00,41.00,51.18,100.00,7.00,0.00,30.10,M,10.00,M,BKN,BKN,M,M,10000.00,12000.00,M,M,M,M,M,M,M,M,M,59.00,KMEV 231315Z AUTO 10007KT 10SM BKN100 BKN120 15/05 A3010 RMK AO2,M
BVU,2022-06-23 13:15,-114.8611,35.9475,671.00,73.40,48.20,40.85,0.00,0.00,0.00,29.96,M,10.00,M,BKN,M,M,M,11000.00,M,M,M,M,M,M,M,M,M,M,73.40,KBVU 231315Z AUTO 00000KT 10SM BKN110 23/09 A2996 RMK AO2,M
HTH,2022-06-23 13:15,-118.6315,38.5448,1282.89,60.80,37.40,41.71,190.00,5.00,0.00,30.07,M,10.00,M,SCT,M,M,M,12000.00,M,M,M,M,M,M,M,M,M,M,60.80,KHTH 231315Z AUTO 19005KT 10SM SCT120 16/03 A3007 RMK A01,M
RTS,2022-06-23 13:15,-119.8764,39.6682,1539.00,64.40,33.80,31.85,320.00,4.00,0.00,30.12,M,10.00,M,CLR,M,M,M,M,M,M,M,M,M,M,M,M,M,M,64.40,KRTS 231315Z AUTO 32004KT 10SM CLR 18/01 A3012 RMK AO2,M
05U,2022-06-23 13:15,-116.0051,39.6042,1811.23,53.60,35.60,50.36,0.00,0.00,0.00,30.18,M,10.00,M,CLR,M,M,M,M,M,M,M,M,M,M,M,M,M,M,53.60,K05U 231315Z AUTO 00000KT 10SM CLR 12/02 A3018 RMK A01,M
TMT,2022-06-23 13:15,-117.1971,39.4643,1749.34,53.00,37.20,54.64,180.00,3.00,0.00,30.16,M,10.00,M,CLR,M,M,M,M,M,M,M,M,M,M,M,M,M,M,53.10,KTMT 231315Z AUTO 18003KT 10SM CLR 12/03 A3016 RMK AO2 T01170029,M
CXP,2022-06-23 13:30,-119.7326,39.1923,1431.00,66.20,37.40,34.51,M,5.00,0.00,30.10,M,10.00,10.00,BKN,M,M,M,12000.00,M,M,M,M,M,M,M,M,M,M,66.20,KCXP 231330Z AUTO VRB05G10KT 10SM BKN120 19/03 A3010 RMK AO2,M
TMT,2022-06-23 13:35,-117.1971,39.4643,1749.34,53.40,37.60,54.90,0.00,0.00,0.00,30.16,M,10.00,M,CLR,M,M,M,M,M,M,M,M,M,M,M,M,M,M,53.40,KTMT 231335Z AUTO 00000KT 10SM CLR 12/03 A3016 RMK AO2 T01190031,M
HTH,2022-06-23 13:35,-118.6315,38.5448,1282.89,62.60,39.20,42.00,150.00,4.00,0.00,30.07,M,10.00,M,BKN,M,M,M,12000.00,M,M,M,M,M,M,M,M,M,M,62.60,KHTH 231335Z AUTO 15004KT 10SM BKN120 17/04 A3007 RMK A01,M
BAM,2022-06-23 13:35,-116.8743,40.5990,1382.36,60.80,32.00,33.64,0.00,0.00,0.00,30.06,M,10.00,M,CLR,M,M,M,M,M,M,M,M,M,M,M,M,M,M,60.80,KBAM 231335Z AUTO 00000KT 10SM CLR 16/00 A3006 RMK AO1,M
MEV,2022-06-23 13:35,-119.7500,38.9963,1441.42,59.00,41.00,51.18,130.00,5.00,0.00,30.11,M,10.00,M,SCT,M,M,M,11000.00,M,M,M,M,M,M,M,M,M,M,59.00,KMEV 231335Z AUTO 13005KT 10SM SCT110 15/05 A3011 RMK AO2,M
05U,2022-06-23 13:35,-116.0051,39.6042,1811.23,55.40,35.60,47.16,0.00,0.00,0.00,30.18,M,10.00,M,CLR,M,M,M,M,M,M,M,M,M,M,M,M,M,M,55.40,K05U 231335Z AUTO 00000KT 10SM CLR 13/02 A3018 RMK A01,M
RTS,2022-06-23 13:35,-119.8764,39.6682,1539.00,64.40,35.60,34.22,300.00,6.00,0.00,30.13,M,10.00,M,CLR,M,M,M,M,M,M,M,M,M,M,M,M,M,M,64.40,KRTS 231335Z AUTO 30006KT 10SM CLR 18/02 A3013 RMK AO2,M
BVU,2022-06-23 13:35,-114.8611,35.9475,671.00,75.20,48.20,38.46,200.00,4.00,0.00,29.96,M,10.00,M,BKN,M,M,M,11000.00,M,M,M,M,M,M,M,M,M,M,75.20,KBVU 231335Z AUTO 20004KT 10SM BKN110 24/09 A2996 RMK AO2,M
WMC,2022-06-23 13:40,-117.8072,40.9019,1315.00,64.00,36.00,35.26,290.00,5.00,0.00,30.03,M,2.00,M,CLR,M,M,M,M,M,M,M,HZ,M,M,M,M,M,M,64.00,KWMC 231340Z AUTO 29005KT 2SM HZ CLR 18/02 A3003 RMK AO2 T01780022,M
TMT,2022-06-23 13:50,-117.1971,39.4643,1749.34,53.80,37.40,53.68,330.00,3.00,0.00,30.16,M,10.00,M,CLR,M,M,M,M,M,M,M,M,M,M,M,M,M,M,53.80,KTMT 231350Z AUTO 33003KT 10SM CLR 12/03 A3016 RMK AO2 T01210030,M
CXP,2022-06-23 13:50,-119.7326,39.1923,1431.00,66.20,37.40,34.51,200.00,7.00,0.00,30.11,M,10.00,M,BKN,M,M,M,12000.00,M,M,M,M,M,M,M,M,M,M,66.20,KCXP 231350Z AUTO 20007KT 10SM BKN120 19/03 A3011 RMK AO2,M
DRA,2022-06-23 13:53,-116.0278,36.6206,1009.00,68.00,49.00,50.40,0.00,0.00,0.00,30.03,1012.80,10.00,M,CLR,M,M,M,M,M,M,M,M,M,M,M,M,M,M,68.00,KDRA 231353Z AUTO 00000KT 10SM CLR 20/09 A3003 RMK AO2 SLP128 T02000094,M
LOL,2022-06-23 13:53,-118.5701,40.0684,1192.43,67.00,43.00,41.87,190.00,3.00,0.00,30.02,1012.10,10.00,M,CLR,M,M,M,M,M,M,M,M,M,M,M,M,M,M,66.90,KLOL 231353Z AUTO 19003KT 10SM CLR 19/06 A3002 RMK AO2 SLP121 T01940061,M
ELY,2022-06-23 13:53,-114.8453,39.2950,1909.00,56.00,36.00,47.05,150.00,6.00,0.00,30.21,1013.10,10.00,M,CLR,M,M,M,M,M,M,M,M,M,M,M,M,M,M,55.90,KELY 231353Z AUTO 15006KT 10SM CLR 13/02 A3021 RMK AO2 SLP131 T01330022,M
P68,2022-06-23 13:53,-116.0056,39.6014,1993.00,56.00,36.00,47.05,0.00,0.00,0.00,30.16,1013.40,M,M,M,M,M,M,M,M,M,M,M,M,M,M,M,M,M,55.90,KP68 231353Z AUTO 00000KT 13/02 A3016 RMK AO1 SLP134 T01330022,M
VGT,2022-06-23 13:53,-115.1933,36.2111,667.00,80.00,47.00,31.15,310.00,9.00,0.00,29.95,1013.60,10.00,M,CLR,M,M,M,M,M,M,M,M,M,M,M,M,M,M,79.33,KVGT 231353Z 31009KT 10SM CLR 27/08 A2995 RMK AO2 SLP136 T02670083,M
RNO,2022-06-23 13:55,-119.7711,39.4839,1341.00,71.00,38.00,29.74,70.00,4.00,0.00,30.08,1012.50,10.00,M,BKN,BKN,M,M,10000.00,13000.00,M,M,M,M,M,M,M,M,M,71.10,KRNO 231355Z 07004KT 10SM BKN100 BKN130 22/03 A3008 RMK AO2 SLP125 T02170033,M
05U,2022-06-23 13:55,-116.0051,39.6042,1811.23,55.40,35.60,47.16,0.00,0.00,0.00,30.18,M,10.00,M,CLR,M,M,M,M,M,M,M,M,M,M,M,M,M,M,55.40,K05U 231355Z AUTO 00000KT 10SM CLR 13/02 A3018 RMK A01,M
RTS,2022-06-23 13:55,-119.8764,39.6682,1539.00,64.40,35.60,34.22,300.00,8.00,0.00,30.12,M,10.00,M,CLR,M,M,M,M,M,M,M,M,M,M,M,M,M,M,64.40,KRTS 231355Z AUTO 30008KT 10SM CLR 18/02 A3012 RMK AO2,M
MEV,2022-06-23 13:55,-119.7500,38.9963,1441.42,60.80,41.00,48.00,190.00,3.00,0.00,30.11,M,10.00,M,FEW,M,M,M,11000.00,M,M,M,M,M,M,M,M,M,M,60.80,KMEV 231355Z AUTO 19003KT 10SM FEW110 16/05 A3011 RMK AO2,M
BAM,2022-06-23 13:55,-116.8743,40.5990,1382.36,62.60,33.80,33.93,110.00,3.00,0.00,30.07,M,10.00,M,CLR,M,M,M,M,M,M,M,M,M,M,M,M,M,M,62.60,KBAM 231355Z AUTO 11003KT 10SM CLR 17/01 A3007 RMK AO1,M
HTH,2022-06-23 13:55,-118.6315,38.5448,1282.89,64.40,37.40,36.74,150.00,5.00,0.00,30.08,M,10.00,M,FEW,M,M,M,12000.00,M,M,M,M,M,M,M,M,M,M,64.40,KHTH 231355Z AUTO 15005KT 10SM FEW120 18/03 A3008 RMK A01,M
BVU,2022-06-23 13:55,-114.8611,35.9475,671.00,75.20,48.20,38.46,0.00,0.00,0.00,29.96,M,10.00,M,BKN,M,M,M,11000.00,M,M,M,M,M,M,M,M,M,M,75.20,KBVU 231355Z AUTO 00000KT 10SM BKN110 24/09 A2996 RMK AO2,M
NFL,2022-06-23 13:56,-118.7010,39.4166,1199.00,65.00,45.00,48.44,170.00,8.00,0.00,30.02,1013.70,10.00,M,CLR,M,M,M,M,M,M,M,M,M,M,M,M,M,M,64.90,KNFL 231356Z AUTO 17008KT 10SM CLR 18/07 A3002 RMK AO2 SLP137 T01830072,M
WMC,2022-06-23 13:56,-117.8072,40.9019,1315.00,66.00,38.00,35.44,M,3.00,0.00,30.04,1011.80,2.50,M,CLR,M,M,M,M,M,M,M,HZ,M,M,M,M,M,M,66.00,KWMC 231356Z AUTO VRB03KT 2 1/2SM HZ CLR 19/03 A3004 RMK AO2 SLP118 T01890033,M
LAS,2022-06-23 13:56,-115.1634,36.0719,663.00,75.00,51.00,43.14,230.00,3.00,0.00,29.97,1012.60,10.00,M,FEW,FEW,M,M,14000.00,22000.00,M,M,M,M,M,M,M,M,M,75.00,KLAS 231356Z 23003KT 10SM FEW140 FEW220 24/11 A2997 RMK AO2 SLP126 ACC E-S AND DSNT W-N T02390106,M
TPH,2022-06-23 13:56,-117.0904,38.0505,1654.00,56.00,39.00,52.94,360.00,7.00,0.00,30.17,1016.40,10.00,M,CLR,M,M,M,M,M,M,M,M,M,M,M,M,M,M,55.90,KTPH 231356Z AUTO 36007KT 10SM CLR 13/04 A3017 RMK AO2 SLP164 T01330039,M
HND,2022-06-23 13:56,-115.1344,35.9729,742.79,72.00,54.00,53.09,200.00,11.00,0.00,29.99,1014.90,10.00,M,FEW,M,M,M,11000.00,M,M,M,M,M,M,M,M,M,M,72.00,KHND 231356Z 20011KT 10SM FEW110 22/12 A2999 RMK AO2 SLP149 T02220122,M
EKO,2022-06-23 13:56,-115.7860,40.8242,1367.00,62.00,34.00,34.81,0.00,0.00,0.00,30.10,1013.40,10.00,M,CLR,M,M,M,M,M,M,M,M,M,M,M,M,M,M,62.10,KEKO 231356Z AUTO 00000KT 10SM CLR 17/01 A3010 RMK AO2 SLP134 T01670011,M
INS,2022-06-23 13:58,-115.6733,36.5872,955.00,71.80,48.70,43.94,260.00,6.00,0.00,30.03,1012.80,10.00,M,FEW,M,M,M,12000.00,M,M,M,M,M,M,M,M,M,M,71.80,KINS 231358Z AUTO 26006KT 10SM FEW120 22/09 A3003 RMK AO2 SLP128 T02210093 $,M
LSV,2022-06-23 13:58,-115.0343,36.2362,570.00,77.70,51.40,39.87,210.00,3.00,0.00,29.94,1011.60,10.00,M,CLR,M,M,M,M,M,M,M,M,M,M,M,M,M,M,77.70,KLSV 231358Z 21003KT 10SM CLR 25/11 A2994 RMK AO2A SLP116 T02540108 $,M
WMC,2022-06-23 14:06,-117.8072,40.9019,1315.00,67.00,39.00,35.86,150.00,3.00,0.00,30.03,M,3.00,M,CLR,M,M,M,M,M,M,M,HZ,M,M,M,M,M,M,66.90,KWMC 231406Z AUTO 15003KT 3SM HZ CLR 19/04 A3003 RMK AO2 T01940039,M
BAM,2022-06-23 14:15,-116.8743,40.5990,1382.36,62.60,33.80,33.93,0.00,0.00,0.00,30.07,M,10.00,M,CLR,M,M,M,M,M,M,M,M,M,M,M,M,M,M,62.60,KBAM 231415Z AUTO 00000KT 10SM CLR 17/01 A3007 RMK AO1,M
05U,2022-06-23 14:15,-116.0051,39.6042,1811.23,62.60,35.60,36.45,0.00,0.00,0.00,30.18,M,10.00,M,CLR,M,M,M,M,M,M,M,M,M,M,M,M,M,M,62.60,K05U 231415Z AUTO 00000KT 10SM CLR 17/02 A3018 RMK A01,M
RTS,2022-06-23 14:15,-119.8764,39.6682,1539.00,64.40,35.60,34.22,300.00,8.00,0.00,30.13,M,10.00,M,CLR,M,M,M,M,M,M,M,M,M,M,M,M,M,M,64.40,KRTS 231415Z AUTO 30008KT 10SM CLR 18/02 A3013 RMK AO2,M
MEV,2022-06-23 14:15,-119.7500,38.9963,1441.42,59.00,42.80,54.86,0.00,0.00,0.00,30.11,M,10.00,M,CLR,M,M,M,M,M,M,M,M,M,M,M,M,M,M,59.00,KMEV 231415Z AUTO 00000KT 10SM CLR 15/06 A3011 RMK AO2,M
CXP,2022-06-23 14:15,-119.7326,39.1923,1431.00,68.00,39.20,34.80,210.00,6.00,0.00,30.11,M,10.00,12.00,SCT,M,M,M,12000.00,M,M,M,M,M,M,M,M,M,M,68.00,KCXP 231415Z AUTO 21006G12KT 10SM SCT120 20/04 A3011 RMK AO2,M
BVU,2022-06-23 14:15,-114.8611,35.9475,671.00,77.00,48.20,36.22,0.00,0.00,0.00,29.96,M,10.00,M,SCT,M,M,M,11000.00,M,M,M,M,M,M,M,M,M,M,77.00,KBVU 231415Z AUTO 00000KT 10SM SCT110 25/09 A2996 RMK AO2,M
TMT,2022-06-23 14:15,-117.1971,39.4643,1749.34,55.40,37.40,50.64,0.00,0.00,0.00,30.17,M,10.00,M,CLR,M,M,M,M,M,M,M,M,M,M,M,M,M,M,55.40,KTMT 231415Z AUTO 00000KT 10SM CLR 13/03 A3017 RMK AO2 LTG DSNT S T01300030,M
HTH,2022-06-23 14:15,-118.6315,38.5448,1282.89,66.20,37.40,34.51,150.00,5.00,0.00,30.08,M,10.00,M,CLR,M,M,M,M,M,M,M,M,M,M,M,M,M,M,66.20,KHTH 231415Z AUTO 15005KT 10SM CLR 19/03 A3008 RMK A01,M
HTH,2022-06-23 14:35,-118.6315,38.5448,1282.89,68.00,39.20,34.80,170.00,4.00,0.00,30.08,M,10.00,M,CLR,M,M,M,M,M,M,M,M,M,M,M,M,M,M,68.00,KHTH 231435Z AUTO 17004KT 10SM CLR 20/04 A3008 RMK A01,M
RTS,2022-06-23 14:35,-119.8764,39.6682,1539.00,64.40,37.40,36.74,310.00,7.00,0.00,30.13,M,10.00,M,CLR,M,M,M,M,M,M,M,M,M,M,M,M,M,M,64.40,KRTS 231435Z AUTO 31007KT 10SM CLR 18/03 A3013 RMK AO2,M
CXP,2022-06-23 14:35,-119.7326,39.1923,1431.00,68.00,39.20,34.80,190.00,6.00,0.00,30.11,M,10.00,12.00,FEW,M,M,M,12000.00,M,M,M,M,M,M,M,M,M,M,68.00,KCXP 231435Z AUTO 19006G12KT 10SM FEW120 20/04 A3011 RMK AO2,M
TMT,2022-06-23 14:35,-117.1971,39.4643,1749.34,58.00,37.60,46.63,0.00,0.00,0.00,30.17,M,10.00,M,CLR,M,M,M,M,M,M,M,M,M,M,M,M,M,M,57.90,KTMT 231435Z AUTO 00000KT 10SM CLR 14/03 A3017 RMK AO2 T01440031,M
BAM,2022-06-23 14:35,-116.8743,40.5990,1382.36,64.40,33.80,31.85,30.00,4.00,0.00,30.06,M,10.00,M,CLR,M,M,M,M,M,M,M,M,M,M,M,M,M,M,64.40,KBAM 231435Z AUTO 03004KT 10SM CLR 18/01 A3006 RMK AO1,M
05U,2022-06-23 14:35,-116.0051,39.6042,1811.23,68.00,37.40,32.43,0.00,0.00,0.00,30.18,M,10.00,M,CLR,M,M,M,M,M,M,M,M,M,M,M,M,M,M,68.00,K05U 231435Z AUTO 00000KT 10SM CLR 20/03 A3018 RMK A01,M
MEV,2022-06-23 14:35,-119.7500,38.9963,1441.42,66.20,41.00,39.72,0.00,0.00,0.00,30.11,M,10.00,M,SCT,M,M,M,11000.00,M,M,M,M,M,M,M,M,M,M,66.20,KMEV 231435Z AUTO 00000KT 10SM SCT110 19/05 A3011 RMK AO2,M
BVU,2022-06-23 14:35,-114.8611,35.9475,671.00,77.00,48.20,36.22,0.00,0.00,0.00,29.96,M,10.00,M,CLR,M,M,M,M,M,M,M,M,M,M,M,M,M,M,77.00,KBVU 231435Z AUTO 00000KT 10SM CLR 25/09 A2996 RMK AO2,M
NFL,2022-06-23 14:46,-118.7010,39.4166,1199.00,73.00,43.00,34.00,160.00,10.00,0.00,30.03,M,10.00,M,SCT,SCT,BKN,BKN,7000.00,10000.00,17000.00,22000.00,M,M,M,M,M,M,M,73.00,KNFL 231446Z 16010KT 10SM SCT070 SCT100 BKN170 BKN220 23/06 A3003 RMK AO2 T02280061,M
DRA,2022-06-23 14:53,-116.0278,36.6206,1009.00,73.00,49.00,42.51,0.00,0.00,0.00,30.02,1012.50,10.00,M,CLR,M,M,M,M,M,M,M,M,M,M,M,M,M,M,73.00,KDRA 231453Z AUTO 00000KT 10SM CLR 23/09 A3002 RMK AO2 SLP125 T02280094 58002,M
ELY,2022-06-23 14:53,-114.8453,39.2950,1909.00,66.00,39.00,37.00,210.00,7.00,0.00,30.20,1012.00,10.00,M,CLR,M,M,M,M,M,M,M,M,M,M,M,M,M,M,66.00,KELY 231453Z AUTO 21007KT 10SM CLR 19/04 A3020 RMK AO2 SLP120 T01890039 50001,M
LOL,2022-06-23 14:53,-118.5701,40.0684,1192.43,71.00,43.00,36.25,190.00,6.00,0.00,30.03,1012.60,10.00,M,CLR,M,M,M,M,M,M,M,M,M,M,M,M,M,M,71.10,KLOL 231453Z AUTO 19006KT 10SM CLR 22/06 A3003 RMK AO2 SLP126 T02170061 51008,M
VGT,2022-06-23 14:53,-115.1933,36.2111,667.00,83.00,47.00,28.43,320.00,9.00,0.00,29.95,1013.40,10.00,M,CLR,M,M,M,M,M,M,M,M,M,M,M,M,M,M,81.01,KVGT 231453Z 32009KT 10SM CLR 28/08 A2995 RMK AO2 SLP134 T02830083 50005,M
P68,2022-06-23 14:53,-116.0056,39.6014,1993.00,67.00,38.00,34.35,190.00,4.00,0.00,30.15,1012.50,M,M,M,M,M,M,M,M,M,M,M,M,M,M,M,M,M,66.90,KP68 231453Z AUTO 19004KT 19/03 A3015 RMK AO1 SLP125 T01940033 58004,M
CXP,2022-06-23 14:55,-119.7326,39.1923,1431.00,68.00,39.20,34.80,190.00,8.00,0.00,30.11,M,10.00,14.00,CLR,M,M,M,M,M,M,M,M,M,M,M,M,M,M,68.00,KCXP 231455Z AUTO 19008G14KT 10SM CLR 20/04 A3011 RMK AO2,M
TMT,2022-06-23 14:55,-117.1971,39.4643,1749.34,59.70,38.70,45.64,0.00,0.00,0.00,30.16,M,10.00,M,CLR,M,M,M,M,M,M,M,M,M,M,M,M,M,M,59.70,KTMT 231455Z AUTO 00000KT 10SM CLR 15/04 A3016 RMK AO2 T01540037,M
HTH,2022-06-23 14:55,-118.6315,38.5448,1282.89,69.80,39.20,32.72,200.00,4.00,0.00,30.08,M,10.00,M,CLR,M,M,M,M,M,M,M,M,M,M,M,M,M,M,69.80,KHTH 231455Z AUTO 20004KT 10SM CLR 21/04 A3008 RMK A01,M
BAM,2022-06-23 14:55,-116.8743,40.5990,1382.36,66.20,33.80,29.92,60.00,5.00,0.00,30.07,M,10.00,M,SCT,M,M,M,12000.00,M,M,M,M,M,M,M,M,M,M,66.20,KBAM 231455Z AUTO 06005KT 10SM SCT120 19/01 A3007 RMK AO1,M
MEV,2022-06-23 14:55,-119.7500,38.9963,1441.42,66.20,42.80,42.57,90.00,3.00,0.00,30.11,M,10.00,M,FEW,M,M,M,11000.00,M,M,M,M,M,M,M,M,M,M,66.20,KMEV 231455Z AUTO 09003KT 10SM FEW110 19/06 A3011 RMK AO2,M
05U,2022-06-23 14:55,-116.0051,39.6042,1811.23,69.80,37.40,30.49,0.00,0.00,0.00,30.17,M,10.00,M,CLR,M,M,M,M,M,M,M,M,M,M,M,M,M,M,69.80,K05U 231455Z AUTO 00000KT 10SM CLR 21/03 A3017 RMK A01,M
RTS,2022-06-23 14:55,-119.8764,39.6682,1539.00,66.20,37.40,34.51,310.00,7.00,0.00,30.13,M,10.00,M,CLR,M,M,M,M,M,M,M,M,M,M,M,M,M,M,66.20,KRTS 231455Z AUTO 31007KT 10SM CLR 19/03 A3013 RMK AO2,M
BVU,2022-06-23 14:55,-114.8611,35.9475,671.00,80.60,48.20,32.18,230.00,4.00,0.00,29.96,M,10.00,M,CLR,M,M,M,M,M,M,M,VCTS,M,M,M,M,M,M,79.71,KBVU 231455Z AUTO 23004KT 10SM VCTS CLR 27/09 A2996 RMK AO2 LTG DSNT NE,M
RNO,2022-06-23 14:55,-119.7711,39.4839,1341.00,71.00,39.00,31.05,0.00,0.00,0.00,30.08,1012.70,10.00,M,BKN,BKN,M,M,12000.00,15000.00,M,M,M,M,M,M,M,M,M,71.10,KRNO 231455Z 00000KT 10SM BKN120CB BKN150 22/04 A3008 RMK AO2 SLP127 VIRGA CBMAM SW MOV W T02170039 50007,M
LAS,2022-06-23 14:56,-115.1634,36.0719,663.00,79.00,51.00,37.78,M,3.00,0.00,29.97,1012.60,10.00,M,FEW,FEW,M,M,12000.00,22000.00,M,M,M,M,M,M,M,M,M,79.00,KLAS 231456Z VRB03KT 10SM FEW120 FEW220 26/11 A2997 RMK AO2 SLP126 ACC DSNT NE-E AND NW T02610106 51007,M
NFL,2022-06-23 14:56,-118.7010,39.4166,1199.00,73.00,43.00,34.00,170.00,11.00,0.00,30.03,1014.00,10.00,M,SCT,SCT,BKN,BKN,7000.00,10000.00,17000.00,22000.00,M,M,M,M,M,M,M,73.00,KNFL 231456Z 17011KT 10SM SCT070 SCT100 BKN170 BKN220 23/06 A3003 RMK AO2 SLP140 60000 T02280061 53005,M
HND,2022-06-23 14:56,-115.1344,35.9729,742.79,77.00,54.00,44.90,220.00,9.00,0.00,30.00,1015.00,10.00,M,CLR,M,M,M,M,M,M,M,M,M,M,M,M,M,M,77.00,KHND 231456Z 22009KT 10SM CLR 25/12 A3000 RMK AO2 SLP150 T02500122 51005,M
WMC,2022-06-23 14:56,-117.8072,40.9019,1315.00,70.00,39.00,32.24,0.00,0.00,0.00,30.04,1012.00,4.00,M,CLR,M,M,M,M,M,M,M,HZ,M,M,M,M,M,M,70.00,KWMC 231456Z AUTO 00000KT 4SM HZ CLR 21/04 A3004 RMK AO2 SLP120 T02110039 53007,M
EKO,2022-06-23 14:56,-115.7860,40.8242,1367.00,66.00,35.00,31.73,0.00,0.00,0.00,30.10,1013.00,10.00,M,FEW,M,M,M,12000.00,M,M,M,M,M,M,M,M,M,M,66.00,KEKO 231456Z AUTO 00000KT 10SM FEW120 19/02 A3010 RMK AO2 SLP130 T01890017 50003,M
TPH,2022-06-23 14:56,-117.0904,38.0505,1654.00,63.00,42.00,46.34,350.00,3.00,0.00,30.17,1015.80,10.00,M,FEW,M,M,M,12000.00,M,M,M,M,M,M,M,M,M,M,63.00,KTPH 231456Z AUTO 35003KT 10SM FEW120 17/06 A3017 RMK AO2 SLP158 T01720056 51003,M
INS,2022-06-23 14:58,-115.6733,36.5872,955.00,75.40,47.30,36.93,300.00,3.00,0.00,30.02,1012.10,10.00,M,CLR,M,M,M,M,M,M,M,M,M,M,M,M,M,M,75.40,KINS 231458Z AUTO 30003KT 10SM CLR 24/09 A3002 RMK AO2 SLP121 T02410085 53000 $,M
LSV,2022-06-23 14:58,-115.0343,36.2362,570.00,81.00,51.00,35.01,200.00,4.00,0.00,29.93,1011.20,10.00,M,FEW,M,M,M,14000.00,M,M,M,M,M,M,M,M,M,M,80.27,KLSV 231458Z AUTO 20004KT 10SM FEW140 27/11 A2993 RMK AO2 SLP112 T02730105 $,M
RTS,2022-06-23 15:15,-119.8764,39.6682,1539.00,66.20,37.40,34.51,310.00,7.00,0.00,30.13,M,10.00,M,CLR,M,M,M,M,M,M,M,M,M,M,M,M,M,M,66.20,KRTS 231515Z AUTO 31007KT 10SM CLR 19/03 A3013 RMK AO2,M
05U,2022-06-23 15:15,-116.0051,39.6042,1811.23,68.00,37.40,32.43,0.00,0.00,0.00,30.17,M,10.00,M,CLR,M,M,M,M,M,M,M,M,M,M,M,M,M,M,68.00,K05U 231515Z AUTO 00000KT 10SM CLR 20/03 A3017 RMK A01,M
MEV,2022-06-23 15:15,-119.7500,38.9963,1441.42,69.80,41.00,35.09,150.00,5.00,0.00,30.11,M,10.00,M,CLR,M,M,M,M,M,M,M,M,M,M,M,M,M,M,69.80,KMEV 231515Z AUTO 15005KT 10SM CLR 21/05 A3011 RMK AO2,M
BAM,2022-06-23 15:15,-116.8743,40.5990,1382.36,68.00,35.60,30.20,120.00,3.00,0.00,30.08,M,10.00,M,SCT,M,M,M,12000.00,M,M,M,M,M,M,M,M,M,M,68.00,KBAM 231515Z AUTO 12003KT 10SM SCT120 20/02 A3008 RMK AO1,M
HTH,2022-06-23 15:15,-118.6315,38.5448,1282.89,71.60,39.20,30.77,0.00,0.00,0.00,30.08,M,10.00,M,CLR,M,M,M,M,M,M,M,M,M,M,M,M,M,M,71.60,KHTH 231515Z AUTO 00000KT 10SM CLR 22/04 A3008 RMK A01,M
TMT,2022-06-23 15:15,-117.1971,39.4643,1749.34,64.80,40.50,40.90,160.00,4.00,0.00,30.16,M,10.00,M,CLR,M,M,M,M,M,M,M,M,M,M,M,M,M,M,64.80,KTMT 231515Z AUTO 16004KT 10SM CLR 18/05 A3016 RMK AO2 T01820047,M
CXP,2022-06-23 15:15,-119.7326,39.1923,1431.00,68.00,39.20,34.80,140.00,3.00,0.00,30.12,M,10.00,M,FEW,FEW,SCT,M,7000.00,8000.00,10000.00,M,M,M,M,M,M,M,M,68.00,KCXP 231515Z AUTO 14003KT 10SM FEW070 FEW080 SCT100 20/04 A3012 RMK AO2,M
BVU,2022-06-23 15:15,-114.8611,35.9475,671.00,80.60,48.20,32.18,210.00,4.00,0.00,29.96,M,10.00,M,CLR,M,M,M,M,M,M,M,M,M,M,M,M,M,M,79.71,KBVU 231515Z AUTO 21004KT 10SM CLR 27/09 A2996 RMK AO2,M
CXP,2022-06-23 15:30,-119.7326,39.1923,1431.00,68.00,39.20,34.80,150.00,5.00,0.00,30.12,M,10.00,M,FEW,BKN,BKN,M,7000.00,9000.00,11000.00,M,M,M,M,M,M,M,M,68.00,KCXP 231530Z AUTO 15005KT 10SM FEW070 BKN090 BKN110 20/04 A3012 RMK AO2,M
RTS,2022-06-23 15:35,-119.8764,39.6682,1539.00,68.00,35.60,30.20,310.00,6.00,0.00,30.14,M,10.00,M,CLR,M,M,M,M,M,M,M,M,M,M,M,M,M,M,68.00,KRTS 231535Z AUTO 31006KT 10SM CLR 20/02 A3014 RMK AO2,M
TMT,2022-06-23 15:35,-117.1971,39.4643,1749.34,66.20,40.00,38.06,0.00,0.00,0.00,30.16,M,10.00,M,CLR,M,M,M,M,M,M,M,M,M,M,M,M,M,M,66.20,KTMT 231535Z AUTO 00000KT 10SM CLR 19/04 A3016 RMK AO2 T01900044,M
BVU,2022-06-23 15:35,-114.8611,35.9475,671.00,82.40,46.40,28.36,220.00,4.00,0.00,29.96,M,10.00,M,CLR,M,M,M,M,M,M,M,M,M,M,M,M,M,M,80.64,KBVU 231535Z AUTO 22004KT 10SM CLR 28/08 A2996 RMK AO2,M
HTH,2022-06-23 15:35,-118.6315,38.5448,1282.89,73.40,39.20,28.96,100.00,8.00,0.00,30.08,M,10.00,M,CLR,M,M,M,M,M,M,M,M,M,M,M,M,M,M,73.40,KHTH 231535Z AUTO 10008KT 10SM CLR 23/04 A3008 RMK A01,M
BAM,2022-06-23 15:35,-116.8743,40.5990,1382.36,71.60,35.60,26.71,0.00,0.00,0.00,30.07,M,10.00,M,SCT,M,M,M,12000.00,M,M,M,M,M,M,M,M,M,M,71.60,KBAM 231535Z AUTO 00000KT 10SM SCT120 22/02 A3007 RMK AO1,M
05U,2022-06-23 15:35,-116.0051,39.6042,1811.23,69.80,37.40,30.49,0.00,0.00,0.00,30.17,M,10.00,M,CLR,M,M,M,M,M,M,M,M,M,M,M,M,M,M,69.80,K05U 231535Z AUTO 00000KT 10SM CLR 21/03 A3017 RMK A01,M
MEV,2022-06-23 15:35,-119.7500,38.9963,1441.42,71.60,41.00,33.00,160.00,5.00,0.00,30.11,M,10.00,M,FEW,M,M,M,11000.00,M,M,M,M,M,M,M,M,M,M,71.60,KMEV 231535Z AUTO 16005KT 10SM FEW110 22/05 A3011 RMK AO2,M
P68,2022-06-23 15:53,-116.0056,39.6014,1993.00,71.00,38.00,29.74,140.00,8.00,0.00,30.15,1012.00,M,15.00,M,M,M,M,M,M,M,M,M,M,M,M,M,M,M,71.10,KP68 231553Z AUTO 14008G15KT 22/03 A3015 RMK AO1 SLP120 T02170033,M
LOL,2022-06-23 15:53,-118.5701,40.0684,1192.43,71.00,43.00,36.25,180.00,12.00,0.00,30.03,1013.00,10.00,20.00,BKN,M,M,M,10000.00,M,M,M,M,M,M,M,M,M,M,71.10,KLOL 231553Z AUTO 18012G20KT 10SM BKN100 22/06 A3003 RMK AO2 SLP130 T02170061,M
VGT,2022-06-23 15:53,-115.1933,36.2111,667.00,87.00,48.00,25.90,340.00,8.00,0.00,29.95,1013.30,10.00,M,CLR,M,M,M,M,M,M,M,M,M,M,M,M,M,M,84.27,KVGT 231553Z 34008KT 10SM CLR 31/09 A2995 RMK AO2 SLP133 T03060089,M
ELY,2022-06-23 15:53,-114.8453,39.2950,1909.00,71.00,39.00,31.05,200.00,6.00,0.00,30.19,1012.10,10.00,M,FEW,M,M,M,12000.00,M,M,M,M,M,M,M,M,M,M,71.10,KELY 231553Z AUTO 20006KT 10SM FEW120 22/04 A3019 RMK AO2 SLP121 T02170039,M
DRA,2022-06-23 15:53,-116.0278,36.6206,1009.00,79.00,47.00,32.29,M,3.00,0.00,30.03,1012.30,10.00,M,CLR,M,M,M,M,M,M,M,M,M,M,M,M,M,M,79.00,KDRA 231553Z AUTO VRB03KT 10SM CLR 26/08 A3003 RMK AO2 SLP123 T02610083,M
CXP,2022-06-23 15:55,-119.7326,39.1923,1431.00,68.00,39.20,34.80,0.00,0.00,0.00,30.13,M,10.00,M,BKN,M,M,M,10000.00,M,M,M,M,M,M,M,M,M,M,68.00,KCXP 231555Z AUTO 00000KT 10SM BKN100 20/04 A3013 RMK AO2,M
RNO,2022-06-23 15:55,-119.7711,39.4839,1341.00,73.00,39.00,29.12,40.00,4.00,0.00,30.09,1013.00,10.00,M,BKN,BKN,M,M,13000.00,17000.00,M,M,M,M,M,M,M,M,M,73.00,KRNO 231555Z 04004KT 10SM BKN130CB BKN170 23/04 A3009 RMK AO2 SLP130 VIRGA CBMAM E MOV SW T02280039,M
RTS,2022-06-23 15:55,-119.8764,39.6682,1539.00,68.00,37.40,32.43,280.00,6.00,0.00,30.14,M,10.00,M,CLR,M,M,M,M,M,M,M,M,M,M,M,M,M,M,68.00,KRTS 231555Z AUTO 28006KT 10SM CLR 20/03 A3014 RMK AO2,M
05U,2022-06-23 15:55,-116.0051,39.6042,1811.23,73.40,37.40,26.98,160.00,8.00,0.00,30.17,M,10.00,M,CLR,M,M,M,M,M,M,M,M,M,M,M,M,M,M,73.40,K05U 231555Z AUTO 16008KT 10SM CLR 23/03 A3017 RMK A01,M
MEV,2022-06-23 15:55,-119.7500,38.9963,1441.42,71.60,39.20,30.77,190.00,5.00,0.00,30.11,M,10.00,M,SCT,M,M,M,12000.00,M,M,M,M,M,M,M,M,M,M,71.60,KMEV 231555Z AUTO 19005KT 10SM SCT120 22/04 A3011 RMK AO2,M
TMT,2022-06-23 15:55,-117.1971,39.4643,1749.34,66.60,39.00,36.24,0.00,0.00,0.00,30.16,M,10.00,M,CLR,M,M,M,M,M,M,M,M,M,M,M,M,M,M,66.60,KTMT 231555Z AUTO 00000KT 10SM CLR 19/04 A3016 RMK AO2 T01920039,M
BAM,2022-06-23 15:55,-116.8743,40.5990,1382.36,73.40,37.40,26.98,60.00,3.00,0.00,30.07,M,10.00,M,CLR,M,M,M,M,M,M,M,M,M,M,M,M,M,M,73.40,KBAM 231555Z AUTO 06003KT 10SM CLR 23/03 A3007 RMK AO1,M
HTH,2022-06-23 15:55,-118.6315,38.5448,1282.89,75.20,39.20,27.26,90.00,7.00,0.00,30.08,M,10.00,12.00,CLR,M,M,M,M,M,M,M,M,M,M,M,M,M,M,75.20,KHTH 231555Z AUTO 09007G12KT 10SM CLR 24/04 A3008 RMK A01,M
BVU,2022-06-23 15:55,-114.8611,35.9475,671.00,84.20,46.40,26.76,0.00,0.00,0.00,29.96,M,10.00,M,CLR,M,M,M,M,M,M,M,M,M,M,M,M,M,M,81.87,KBVU 231555Z AUTO 00000KT 10SM CLR 29/08 A2996 RMK AO2,M
NFL,2022-06-23 15:56,-118.7010,39.4166,1199.00,77.00,41.00,27.53,170.00,12.00,0.00,30.04,1014.00,10.00,M,CLR,M,M,M,M,M,M,M,M,M,M,M,M,M,M,77.00,KNFL 231556Z 17012KT 10SM CLR 25/05 A3004 RMK AO2 SLP140 T02500050,M
TPH,2022-06-23 15:56,-117.0904,38.0505,1654.00,66.00,42.00,41.73,0.00,0.00,0.00,30.17,1015.70,10.00,M,SCT,M,M,M,12000.00,M,M,M,M,M,M,M,M,M,M,66.00,KTPH 231556Z AUTO 00000KT 10SM SCT120 19/06 A3017 RMK AO2 SLP157 T01890056,M
HND,2022-06-23 15:56,-115.1344,35.9729,742.79,83.00,53.00,35.81,200.00,5.00,0.00,30.00,1014.70,10.00,M,CLR,M,M,M,M,M,M,M,M,M,M,M,M,M,M,81.73,KHND 231556Z 20005KT 10SM CLR 28/12 A3000 RMK AO2 SLP147 T02830117,M
WMC,2022-06-23 15:56,-117.8072,40.9019,1315.00,74.00,40.00,29.26,220.00,6.00,0.00,30.05,1012.90,4.00,M,CLR,M,M,M,M,M,M,M,HZ,M,M,M,M,M,M,73.90,KWMC 231556Z AUTO 22006KT 4SM HZ CLR 23/04 A3005 RMK AO2 SLP129 T02330044,M
LAS,2022-06-23 15:56,-115.1634,36.0719,663.00,83.00,50.00,31.93,0.00,0.00,0.00,29.97,1012.30,10.00,M,FEW,FEW,M,M,12000.00,22000.00,M,M,M,M,M,M,M,M,M,81.32,KLAS 231556Z 00000KT 10SM FEW120 FEW220 28/10 A2997 RMK AO2 SLP123 ACC DSNT NE AND NW T02830100,M
EKO,2022-06-23 15:56,-115.7860,40.8242,1367.00,74.00,37.00,26.12,250.00,6.00,0.00,30.09,1012.80,10.00,M,CLR,M,M,M,M,M,M,M,M,M,M,M,M,M,M,73.90,KEKO 231556Z AUTO 25006KT 10SM CLR 23/03 A3009 RMK AO2 SLP128 T02330028,M
LSV,2022-06-23 15:58,-115.0343,36.2362,570.00,88.00,48.70,25.84,0.00,0.00,0.00,29.94,M,10.00,M,CLR,M,M,M,M,M,M,M,M,M,M,M,M,M,M,85.11,KLSV 231558Z AUTO 00000KT 10SM CLR 31/09 A2994 RMK AO2 SLPNO T03110093 $,M
INS,2022-06-23 15:58,-115.6733,36.5872,955.00,78.30,45.00,30.87,310.00,4.00,0.00,30.02,1012.10,10.00,M,BKN,M,M,M,12000.00,M,M,M,M,M,M,M,M,M,M,78.30,KINS 231558Z AUTO 31004KT 10SM BKN120 26/07 A3002 RMK AO2 SLP121 T02570073 $,M
LOL,2022-06-23 16:08,-118.5701,40.0684,1192.43,72.00,43.00,35.16,220.00,16.00,0.00,30.00,M,10.00,M,OVC,M,M,M,10000.00,M,M,M,M,M,M,M,M,M,M,72.00,KLOL 231608Z AUTO 22016KT 10SM OVC100 22/06 A3000 RMK AO2 WSHFT 1548 PRESFR T02220061,M
05U,2022-06-23 16:10,-116.0051,39.6042,1811.23,75.20,35.60,23.66,0.00,0.00,0.00,30.17,M,10.00,M,CLR,M,M,M,M,M,M,M,M,M,M,M,M,M,M,75.20,K05U 231610Z AUTO 00000KT 10SM CLR 24/02 A3017 RMK A01,M
BVU,2022-06-23 16:15,-114.8611,35.9475,671.00,86.00,46.40,25.26,320.00,7.00,0.00,29.96,M,10.00,M,CLR,M,M,M,M,M,M,M,M,M,M,M,M,M,M,83.22,KBVU 231615Z AUTO 32007KT 10SM CLR 30/08 A2996 RMK AO2,M
CXP,2022-06-23 16:15,-119.7326,39.1923,1431.00,69.80,41.00,35.09,0.00,0.00,0.00,30.14,M,10.00,M,FEW,BKN,OVC,M,4900.00,8000.00,9500.00,M,M,M,M,M,M,M,M,69.80,KCXP 231615Z AUTO 00000KT 10SM FEW049 BKN080 OVC095 21/05 A3014 RMK AO2,M
RTS,2022-06-23 16:15,-119.8764,39.6682,1539.00,69.80,35.60,28.39,280.00,5.00,0.00,30.14,M,10.00,M,CLR,M,M,M,M,M,M,M,M,M,M,M,M,M,M,69.80,KRTS 231615Z AUTO 28005KT 10SM CLR 21/02 A3014 RMK AO2,M
MEV,2022-06-23 16:15,-119.7500,38.9963,1441.42,71.60,41.00,33.00,300.00,6.00,0.00,30.12,M,10.00,12.00,SCT,M,M,M,12000.00,M,M,M,M,M,M,M,M,M,M,71.60,KMEV 231615Z AUTO 30006G12KT 10SM SCT120 22/05 A3012 RMK AO2,M
BAM,2022-06-23 16:15,-116.8743,40.5990,1382.36,75.20,35.60,23.66,0.00,0.00,0.00,30.07,M,10.00,M,CLR,M,M,M,M,M,M,M,M,M,M,M,M,M,M,75.20,KBAM 231615Z AUTO 00000KT 10SM CLR 24/02 A3007 RMK AO1,M
HTH,2022-06-23 16:15,-118.6315,38.5448,1282.89,77.00,37.40,23.93,60.00,8.00,0.00,30.08,M,10.00,M,CLR,M,M,M,M,M,M,M,M,M,M,M,M,M,M,77.00,KHTH 231615Z AUTO 06008KT 040V100 10SM CLR 25/03 A3008 RMK A01,M
TMT,2022-06-23 16:15,-117.1971,39.4643,1749.34,69.00,39.40,34.00,0.00,0.00,0.00,30.16,M,10.00,M,CLR,M,M,M,M,M,M,M,M,M,M,M,M,M,M,68.90,KTMT 231615Z AUTO 00000KT 10SM CLR 21/04 A3016 RMK AO2 T02050041,M
CXP,2022-06-23 16:30,-119.7326,39.1923,1431.00,69.80,39.20,32.72,10.00,15.00,0.00,30.15,M,8.00,22.00,FEW,SCT,BKN,M,4600.00,7500.00,8500.00,M,-RA,M,M,M,M,M,M,69.80,KCXP 231630Z AUTO 01015G22KT 8SM -RA FEW046 SCT075 BKN085 21/04 A3015 RMK AO2,M
MEV,2022-06-23 16:35,-119.7500,38.9963,1441.42,68.00,44.60,42.85,300.00,8.00,0.00,30.12,M,10.00,M,FEW,M,M,M,11000.00,M,M,M,M,M,M,M,M,M,M,68.00,KMEV 231635Z AUTO 30008KT 10SM FEW110 20/07 A3012 RMK AO2,M
TMT,2022-06-23 16:35,-117.1971,39.4643,1749.34,70.50,40.00,33.08,290.00,6.00,0.00,30.15,M,10.00,M,CLR,M,M,M,M,M,M,M,M,M,M,M,M,M,M,70.50,KTMT 231635Z AUTO 29006KT 10SM CLR 21/05 A3015 RMK AO2 T02140045,M
BAM,2022-06-23 16:35,-116.8743,40.5990,1382.36,78.80,35.60,21.00,220.00,4.00,0.00,30.06,M,10.00,M,CLR,M,M,M,M,M,M,M,M,M,M,M,M,M,M,78.80,KBAM 231635Z AUTO 22004KT 10SM CLR 26/02 A3006 RMK AO1,M
HTH,2022-06-23 16:35,-118.6315,38.5448,1282.89,78.80,37.40,22.54,90.00,8.00,0.00,30.07,M,10.00,M,FEW,M,M,M,10000.00,M,M,M,M,M,M,M,M,M,M,78.80,KHTH 231635Z AUTO 09008KT 060V140 10SM FEW100 26/03 A3007 RMK A01,M
BVU,2022-06-23 16:35,-114.8611,35.9475,671.00,86.00,46.40,25.26,M,3.00,0.00,29.95,M,10.00,M,CLR,M,M,M,M,M,M,M,M,M,M,M,M,M,M,83.22,KBVU 231635Z AUTO VRB03KT 10SM CLR 30/08 A2995 RMK AO2,M
RTS,2022-06-23 16:35,-119.8764,39.6682,1539.00,69.80,35.60,28.39,270.00,7.00,0.00,30.13,M,10.00,M,CLR,M,M,M,M,M,M,M,M,M,M,M,M,M,M,69.80,KRTS 231635Z AUTO 27007KT 10SM CLR 21/02 A3013 RMK AO2,M
05U,2022-06-23 16:35,-116.0051,39.6042,1811.23,77.00,37.40,23.93,220.00,7.00,0.00,30.16,M,10.00,M,CLR,M,M,M,M,M,M,M,M,M,M,M,M,M,M,77.00,K05U 231635Z AUTO 22007KT 10SM CLR 25/03 A3016 RMK A01,M
CXP,2022-06-23 16:50,-119.7326,39.1923,1431.00,71.60,37.40,28.68,280.00,9.00,0.00,30.11,M,10.00,14.00,FEW,FEW,SCT,M,4900.00,5500.00,7500.00,M,M,M,M,M,M,M,M,71.60,KCXP 231650Z AUTO 28009G14KT 10SM FEW049 FEW055 SCT075 22/03 A3011 RMK AO2,M
DRA,2022-06-23 16:53,-116.0278,36.6206,1009.00,82.00,47.00,29.28,220.00,5.00,0.00,30.01,1011.70,10.00,M,CLR,M,M,M,M,M,M,M,M,M,M,M,M,M,M,80.43,KDRA 231653Z AUTO 22005KT 10SM CLR 28/08 A3001 RMK AO2 SLP117 T02780083,M
VGT,2022-06-23 16:53,-115.1933,36.2111,667.00,90.00,47.00,22.67,350.00,3.00,0.00,29.94,1012.80,10.00,M,CLR,M,M,M,M,M,M,M,M,M,M,M,M,M,M,86.65,KVGT 231653Z 35003KT 10SM CLR 32/08 A2994 RMK AO2 SLP128 T03220083,M
ELY,2022-06-23 16:53,-114.8453,39.2950,1909.00,71.00,38.00,29.74,240.00,16.00,0.00,30.18,1012.10,10.00,22.00,SCT,BKN,M,M,8500.00,11000.00,M,M,M,M,M,M,M,M,M,71.10,KELY 231653Z AUTO 24016G22KT 10SM SCT085 BKN110 22/03 A3018 RMK AO2 SLP121 T02170033,M
P68,2022-06-23 16:53,-116.0056,39.6014,1993.00,75.00,37.00,25.17,250.00,6.00,0.00,30.13,1011.60,M,M,M,M,M,M,M,M,M,M,M,M,M,M,M,M,M,75.00,KP68 231653Z AUTO 25006KT 24/03 A3013 RMK AO1 SLP116 T02390028,M
LOL,2022-06-23 16:53,-118.5701,40.0684,1192.43,75.00,43.00,31.79,100.00,6.00,0.00,30.01,1012.10,9.00,M,CLR,M,M,M,M,M,M,M,M,M,M,M,M,M,M,75.00,KLOL 231653Z AUTO 10006KT 9SM CLR 24/06 A3001 RMK AO2 WSHFT 1548 SLP121 T02390061,M
TMT,2022-06-23 16:55,-117.1971,39.4643,1749.34,71.60,38.50,29.94,270.00,5.00,0.00,30.14,M,10.00,M,CLR,M,M,M,M,M,M,M,M,M,M,M,M,M,M,71.60,KTMT 231655Z AUTO 27005KT 10SM CLR 22/04 A3014 RMK AO2 T02200036,M
BVU,2022-06-23 16:55,-114.8611,35.9475,671.00,87.80,48.20,25.52,0.00,0.00,0.00,29.94,M,10.00,M,CLR,M,M,M,M,M,M,M,M,M,M,M,M,M,M,84.87,KBVU 231655Z AUTO 00000KT 10SM CLR 31/09 A2994 RMK AO2,M
RTS,2022-06-23 16:55,-119.8764,39.6682,1539.00,71.60,35.60,26.71,290.00,5.00,0.00,30.13,M,10.00,M,CLR,M,M,M,M,M,M,M,M,M,M,M,M,M,M,71.60,KRTS 231655Z AUTO 29005KT 10SM CLR 22/02 A3013 RMK AO2,M
05U,2022-06-23 16:55,-116.0051,39.6042,1811.23,77.00,37.40,23.93,0.00,0.00,0.00,30.16,M,10.00,M,CLR,M,M,M,M,M,M,M,M,M,M,M,M,M,M,77.00,K05U 231655Z AUTO 00000KT 10SM CLR 25/03 A3016 RMK A01,M
MEV,2022-06-23 16:55,-119.7500,38.9963,1441.42,68.00,42.80,40.00,290.00,5.00,0.00,30.12,M,10.00,M,FEW,M,M,M,10000.00,M,M,M,M,M,M,M,M,M,M,68.00,KMEV 231655Z AUTO 29005KT 10SM FEW100 20/06 A3012 RMK AO2,M
CXP,2022-06-23 16:55,-119.7326,39.1923,1431.00,71.60,41.00,33.00,280.00,11.00,0.00,30.10,M,10.00,M,FEW,FEW,SCT,M,4800.00,5500.00,7500.00,M,M,M,M,M,M,M,M,71.60,KCXP 231655Z AUTO 28011KT 10SM FEW048 FEW055 SCT075 22/05 A3010 RMK AO2,M
RNO,2022-06-23 16:55,-119.7711,39.4839,1341.00,77.00,38.00,24.40,M,6.00,0.00,30.08,1012.60,10.00,M,SCT,BKN,M,M,11000.00,16000.00,M,M,M,M,M,M,M,M,M,77.00,KRNO 231655Z VRB06KT 10SM SCT110 BKN160 25/03 A3008 RMK AO2 SLP126 VIRGA T02500033,M
BAM,2022-06-23 16:55,-116.8743,40.5990,1382.36,77.00,35.60,22.28,240.00,4.00,0.00,30.05,M,10.00,M,CLR,M,M,M,M,M,M,M,M,M,M,M,M,M,M,77.00,KBAM 231655Z AUTO 24004KT 10SM CLR 25/02 A3005 RMK AO1,M
HTH,2022-06-23 16:55,-118.6315,38.5448,1282.89,78.80,37.40,22.54,10.00,9.00,0.00,30.07,M,10.00,M,SCT,M,M,M,10000.00,M,M,M,M,M,M,M,M,M,M,78.80,KHTH 231655Z AUTO 01009KT 10SM SCT100 26/03 A3007 RMK A01,M
WMC,2022-06-23 16:56,-117.8072,40.9019,1315.00,78.00,40.00,25.44,120.00,5.00,0.00,30.03,1012.30,7.00,M,CLR,M,M,M,M,M,M,M,M,M,M,M,M,M,M,78.10,KWMC 231656Z AUTO 12005KT 7SM CLR 26/04 A3003 RMK AO2 SLP123 T02560044,M
NFL,2022-06-23 16:56,-118.7010,39.4166,1199.00,81.00,39.00,22.33,260.00,10.00,0.00,30.03,1013.70,10.00,M,SCT,SCT,BKN,BKN,7000.00,10000.00,18000.00,24000.00,M,M,M,M,M,M,M,79.33,KNFL 231656Z 26010KT 10SM SCT070 SCT100 BKN180 BKN240 27/04 A3003 RMK AO2 SLP137 CB DSNT SW-NW T02720039,M
TPH,2022-06-23 16:56,-117.0904,38.0505,1654.00,70.00,42.00,36.36,M,5.00,0.00,30.16,1015.40,10.00,M,CLR,M,M,M,M,M,M,M,M,M,M,M,M,M,M,70.00,KTPH 231656Z AUTO VRB05KT 10SM CLR 21/06 A3016 RMK AO2 SLP154 T02110056,M
HND,2022-06-23 16:56,-115.1344,35.9729,742.79,86.00,49.00,27.74,0.00,0.00,0.00,29.99,1014.40,10.00,M,CLR,M,M,M,M,M,M,M,M,M,M,M,M,M,M,83.48,KHND 231656Z 00000KT 10SM CLR 30/09 A2999 RMK AO2 SLP144 T03000094,M
EKO,2022-06-23 16:56,-115.7860,40.8242,1367.00,79.00,35.00,20.45,270.00,7.00,0.00,30.07,1011.90,10.00,M,CLR,M,M,M,M,M,M,M,M,M,M,M,M,M,M,79.00,KEKO 231656Z AUTO 27007KT 10SM CLR 26/02 A3007 RMK AO2 SLP119 T02610017,M
INS,2022-06-23 16:56,-115.6733,36.5872,955.00,80.80,44.60,27.90,0.00,0.00,0.00,30.01,1011.80,10.00,M,CLR,M,M,M,M,M,M,M,M,M,M,M,M,M,M,79.54,KINS 231656Z AUTO 00000KT 10SM CLR 27/07 A3001 RMK AO2 SLP118 T02710070 $,M
LSV,2022-06-23 16:56,-115.0343,36.2362,570.00,96.00,48.40,19.85,0.00,0.00,0.00,29.92,M,10.00,M,CLR,M,M,M,M,M,M,M,M,M,M,M,M,M,M,92.69,KLSV 231656Z AUTO 00000KT 10SM CLR 36/09 A2992 RMK AO2 SLPNO T03560091 $,M
LAS,2022-06-23 16:56,-115.1634,36.0719,663.00,87.00,48.00,25.90,40.00,5.00,0.00,29.95,1011.70,10.00,M,FEW,FEW,M,M,12000.00,22000.00,M,M,M,M,M,M,M,M,M,84.27,KLAS 231656Z 04005KT 10SM FEW120 FEW220 31/09 A2995 RMK AO2 SLP117 ACC DSNT N T03060089,M
RTS,2022-06-23 17:00,-119.8764,39.6682,1539.00,71.60,33.80,24.86,260.00,7.00,0.00,30.13,M,10.00,M,CLR,M,M,M,M,M,M,M,M,M,M,M,M,M,M,71.60,KRTS 231700Z AUTO 26007KT 10SM CLR 22/01 A3013 RMK AO2,M
05U,2022-06-23 17:10,-116.0051,39.6042,1811.23,77.00,35.60,22.28,0.00,0.00,0.00,30.16,M,10.00,M,CLR,M,M,M,M,M,M,M,M,M,M,M,M,M,M,77.00,K05U 231710Z AUTO 00000KT 10SM CLR 25/02 A3016 RMK A01,M
HTH,2022-06-23 17:10,-118.6315,38.5448,1282.89,75.20,39.20,27.26,300.00,15.00,0.00,30.08,M,10.00,23.00,FEW,BKN,M,M,7500.00,9000.00,M,M,M,M,M,M,M,M,M,75.20,KHTH 231710Z AUTO 30015G23KT 10SM FEW075 BKN090 24/04 A3008 RMK A01,M
BVU,2022-06-23 17:15,-114.8611,35.9475,671.00,87.80,48.20,25.52,M,3.00,0.00,29.94,M,10.00,M,CLR,M,M,M,M,M,M,M,M,M,M,M,M,M,M,84.87,KBVU 231715Z AUTO VRB03KT 10SM CLR 31/09 A2994 RMK AO2,M
TMT,2022-06-23 17:15,-117.1971,39.4643,1749.34,73.60,38.00,27.55,260.00,5.00,0.00,30.14,M,10.00,14.00,CLR,M,M,M,M,M,M,M,M,M,M,M,M,M,M,73.60,KTMT 231715Z AUTO 26005G14KT 10SM CLR 23/03 A3014 RMK AO2 T02310034,M
BAM,2022-06-23 17:15,-116.8743,40.5990,1382.36,78.80,35.60,21.00,0.00,0.00,0.00,30.05,M,10.00,M,CLR,M,M,M,M,M,M,M,M,M,M,M,M,M,M,78.80,KBAM 231715Z AUTO 00000KT 10SM CLR 26/02 A3005 RMK AO1,M
RTS,2022-06-23 17:35,-119.8764,39.6682,1539.00,73.40,33.80,23.39,290.00,9.00,0.00,30.13,M,10.00,M,CLR,M,M,M,M,M,M,M,M,M,M,M,M,M,M,73.40,KRTS 231735Z AUTO 29009KT 10SM CLR 23/01 A3013 RMK AO2,M
MEV,2022-06-23 17:35,-119.7500,38.9963,1441.42,73.40,41.00,31.05,160.00,9.00,0.00,30.11,M,10.00,M,CLR,M,M,M,M,M,M,M,M,M,M,M,M,M,M,73.40,KMEV 231735Z AUTO 16009KT 10SM CLR 23/05 A3011 RMK AO2,M
05U,2022-06-23 17:35,-116.0051,39.6042,1811.23,77.00,35.60,22.28,170.00,9.00,0.00,30.16,M,10.00,15.00,CLR,M,M,M,M,M,M,M,M,M,M,M,M,M,M,77.00,K05U 231735Z AUTO 17009G15KT 10SM CLR 25/02 A3016 RMK A01,M
BAM,2022-06-23 17:35,-116.8743,40.5990,1382.36,78.80,35.60,21.00,250.00,7.00,0.00,30.05,M,10.00,M,CLR,M,M,M,M,M,M,M,M,M,M,M,M,M,M,78.80,KBAM 231735Z AUTO 25007KT 10SM CLR 26/02 A3005 RMK AO1,M
HTH,2022-06-23 17:35,-118.6315,38.5448,1282.89,71.60,46.40,40.57,300.00,8.00,0.00,30.09,M,10.00,M,FEW,FEW,BKN,M,3800.00,4900.00,9000.00,M,M,M,M,M,M,M,M,71.60,KHTH 231735Z AUTO 30008KT 10SM FEW038 FEW049 BKN090 22/08 A3009 RMK A01,M
TMT,2022-06-23 17:35,-117.1971,39.4643,1749.34,72.70,37.60,27.85,310.00,5.00,0.00,30.13,M,10.00,M,CLR,M,M,M,M,M,M,M,M,M,M,M,M,M,M,72.70,KTMT 231735Z AUTO 31005KT 10SM CLR 23/03 A3013 RMK AO2 T02260031,M
BVU,2022-06-23 17:35,-114.8611,35.9475,671.00,89.60,48.20,24.11,90.00,4.00,0.00,29.94,M,10.00,M,CLR,M,M,M,M,M,M,M,M,M,M,M,M,M,M,86.44,KBVU 231735Z AUTO 09004KT 10SM CLR 32/09 A2994 RMK AO2,M
CXP,2022-06-23 17:35,-119.7326,39.1923,1431.00,73.40,37.40,26.98,0.00,0.00,0.00,30.11,M,10.00,10.00,FEW,FEW,M,M,8000.00,9000.00,M,M,M,M,M,M,M,M,M,73.40,KCXP 231735Z AUTO 00000G10KT 10SM FEW080 FEW090 23/03 A3011 RMK AO2,M
P68,2022-06-23 17:53,-116.0056,39.6014,1993.00,73.00,36.00,25.88,140.00,8.00,0.00,30.13,1012.50,M,16.00,M,M,M,M,M,M,M,M,M,M,M,M,M,M,M,73.00,KP68 231753Z AUTO 14008G16KT 23/02 A3013 RMK AO1 SLP125 T02280022 10239 20106 55004,M
ELY,2022-06-23 17:53,-114.8453,39.2950,1909.00,75.00,38.00,26.08,230.00,12.00,0.00,30.17,1011.70,10.00,23.00,FEW,SCT,M,M,9500.00,11000.00,M,M,M,M,M,M,M,M,M,75.00,KELY 231753Z AUTO 23012G23KT 10SM FEW095 SCT110 24/03 A3017 RMK AO2 SLP117 T02390033 10239 20078 58008,M
DRA,2022-06-23 17:53,-116.0278,36.6206,1009.00,86.00,47.00,25.74,230.00,5.00,0.00,30.01,1011.60,10.00,M,CLR,M,M,M,M,M,M,M,M,M,M,M,M,M,M,83.27,KDRA 231753Z AUTO 23005KT 10SM CLR 30/08 A3001 RMK AO2 SLP116 T03000083 10300 20178 58004,M
LOL,2022-06-23 17:53,-118.5701,40.0684,1192.43,79.00,41.00,25.78,0.00,0.00,0.00,30.01,1012.10,6.00,M,FEW,M,M,M,2900.00,M,M,M,HZ,M,M,M,M,M,M,79.00,KLOL 231753Z AUTO 00000KT 6SM HZ FEW029 26/05 A3001 RMK AO2 SLP121 T02610050 10261 20161 58004,M
VGT,2022-06-23 17:53,-115.1933,36.2111,667.00,92.00,46.00,20.65,0.00,0.00,0.00,29.93,1012.30,10.00,M,CLR,M,M,M,M,M,M,M,M,M,M,M,M,M,M,88.28,KVGT 231753Z 00000KT 10SM CLR 33/08 A2993 RMK AO2 SLP123 T03330078 10333 20239 58008,M
HTH,2022-06-23 17:55,-118.6315,38.5448,1282.89,75.20,41.00,29.23,330.00,12.00,0.00,30.09,M,10.00,18.00,SCT,M,M,M,9000.00,M,M,M,M,M,M,M,M,M,M,75.20,KHTH 231755Z AUTO 33012G18KT 10SM SCT090 24/05 A3009 RMK A01,M
RNO,2022-06-23 17:55,-119.7711,39.4839,1341.00,80.00,39.00,23.00,M,3.00,0.00,30.08,1012.60,10.00,M,FEW,BKN,BKN,M,10000.00,13000.00,18000.00,M,M,M,M,M,M,M,M,78.89,KRNO 231755Z VRB03KT 10SM FEW100 BKN130 BKN180 27/04 A3008 RMK AO2 SLP126 VIRGA T02670039 10267 20211 51001,M
TMT,2022-06-23 17:55,-117.1971,39.4643,1749.34,73.80,38.00,27.15,0.00,0.00,0.00,30.12,M,10.00,M,CLR,M,M,M,M,M,M,M,M,M,M,M,M,M,M,73.80,KTMT 231755Z AUTO 00000KT 10SM CLR 23/03 A3012 RMK AO2 LTG DSNT E THRU S T02320033 10233 20087,M
BAM,2022-06-23 17:55,-116.8743,40.5990,1382.36,80.60,35.60,19.79,0.00,0.00,0.00,30.04,M,10.00,M,CLR,M,M,M,M,M,M,M,M,M,M,M,M,M,M,78.94,KBAM 231755Z AUTO 00000KT 10SM CLR 27/02 A3004 RMK AO1,M
MEV,2022-06-23 17:55,-119.7500,38.9963,1441.42,75.20,39.20,27.26,170.00,9.00,0.00,30.10,M,10.00,M,CLR,M,M,M,M,M,M,M,M,M,M,M,M,M,M,75.20,KMEV 231755Z AUTO 17009KT 10SM CLR 24/04 A3010 RMK AO2,M
05U,2022-06-23 17:55,-116.0051,39.6042,1811.23,75.20,35.60,23.66,140.00,8.00,0.00,30.16,M,10.00,M,CLR,M,M,M,M,M,M,M,M,M,M,M,M,M,M,75.20,K05U 231755Z AUTO 14008KT 10SM CLR 24/02 A3016 RMK A01,M
RTS,2022-06-23 17:55,-119.8764,39.6682,1539.00,73.40,33.80,23.39,300.00,8.00,0.00,30.13,M,10.00,M,CLR,M,M,M,M,M,M,M,M,M,M,M,M,M,M,73.40,KRTS 231755Z AUTO 30008KT 10SM CLR 23/01 A3013 RMK AO2,M
CXP,2022-06-23 17:55,-119.7326,39.1923,1431.00,73.40,37.40,26.98,M,3.00,0.00,30.11,M,10.00,M,FEW,FEW,SCT,M,4900.00,6500.00,9000.00,M,M,M,M,M,M,M,M,73.40,KCXP 231755Z AUTO VRB03KT 10SM FEW049 FEW065 SCT090 23/03 A3011 RMK AO2,M
BVU,2022-06-23 17:55,-114.8611,35.9475,671.00,91.40,48.20,22.78,M,5.00,0.00,29.93,M,10.00,M,CLR,M,M,M,M,M,M,M,M,M,M,M,M,M,M,88.09,KBVU 231755Z AUTO VRB05KT 10SM CLR 33/09 A2993 RMK AO2,M
NFL,2022-06-23 17:56,-118.7010,39.4166,1199.00,83.00,37.00,19.41,210.00,9.00,0.00,30.02,1013.50,10.00,14.00,SCT,SCT,BKN,BKN,7000.00,10000.00,18000.00,24000.00,M,M,M,M,M,M,M,80.46,KNFL 231756Z 21009G14KT 10SM SCT070 SCT100 BKN180 BKN240 28/03 A3002 RMK AO2 SLP135 60000 T02830028 10289 20183 58005,M
LSV,2022-06-23 17:56,-115.0343,36.2362,570.00,98.40,46.00,16.90,0.00,0.00,0.00,29.90,1009.80,10.00,M,CLR,M,M,M,M,M,M,M,M,M,M,M,M,M,M,94.57,KLSV 231756Z AUTO 00000KT 10SM CLR 37/08 A2990 RMK AO2 SLP098 T03690078 10369 20235 58010 $,M
INS,2022-06-23 17:56,-115.6733,36.5872,955.00,86.20,42.80,21.88,60.00,3.00,0.00,30.00,1011.10,10.00,M,FEW,M,M,M,11000.00,M,M,M,M,M,M,M,M,M,M,83.11,KINS 231756Z AUTO 06003KT 10SM FEW110 30/06 A3000 RMK AO2 SLP111 T03010060 10301 20194 57009 $,M
EKO,2022-06-23 17:56,-115.7860,40.8242,1367.00,83.00,36.00,18.66,240.00,8.00,0.00,30.06,1011.30,10.00,M,CLR,M,M,M,M,M,M,M,M,M,M,M,M,M,M,80.43,KEKO 231756Z AUTO 24008KT 10SM CLR 28/02 A3006 RMK AO2 SLP113 T02830022 10283 20133 58012,M
WMC,2022-06-23 17:56,-117.8072,40.9019,1315.00,78.00,40.00,25.44,270.00,4.00,0.00,30.03,1012.10,8.00,M,SCT,M,M,M,11000.00,M,M,M,M,M,M,M,M,M,M,78.10,KWMC 231756Z AUTO 27004KT 8SM SCT110 26/04 A3003 RMK AO2 SLP121 T02560044 10256 20161 58002,M
LAS,2022-06-23 17:56,-115.1634,36.0719,663.00,89.00,47.00,23.32,M,3.00,0.00,29.94,1011.20,10.00,M,FEW,M,M,M,12000.00,M,M,M,M,M,M,M,M,M,M,85.85,KLAS 231756Z VRB03KT 10SM FEW120 32/08 A2994 RMK AO2 SLP112 T03170083 10322 20222 58011,M
HND,2022-06-23 17:56,-115.1344,35.9729,742.79,89.00,50.00,26.19,M,3.00,0.00,29.97,1013.70,10.00,M,CLR,M,M,M,M,M,M,M,M,M,M,M,M,M,M,86.25,KHND 231756Z VRB03KT 10SM CLR 32/10 A2997 RMK AO2 SLP137 T03170100 10317 20200 58009,M
TPH,2022-06-23 17:56,-117.0904,38.0505,1654.00,74.00,41.00,30.54,M,3.00,0.00,30.15,1014.60,10.00,M,BKN,M,M,M,10000.00,M,M,M,M,M,M,M,M,M,M,73.90,KTPH 231756Z AUTO VRB03KT 10SM BKN100 23/05 A3015 RMK AO2 SLP146 T02330050 10233 20089 58007,M
RTS,2022-06-23 18:15,-119.8764,39.6682,1539.00,73.40,33.80,23.39,0.00,0.00,0.00,30.13,M,10.00,M,CLR,M,M,M,M,M,M,M,M,M,M,M,M,M,M,73.40,KRTS 231815Z AUTO 00000KT 10SM CLR 23/01 A3013 RMK AO2,M
05U,2022-06-23 18:15,-116.0051,39.6042,1811.23,75.20,35.60,23.66,150.00,12.00,0.00,30.15,M,10.00,M,CLR,M,M,M,M,M,M,M,M,M,M,M,M,M,M,75.20,K05U 231815Z AUTO 15012KT 10SM CLR 24/02 A3015 RMK A01,M
MEV,2022-06-23 18:15,-119.7500,38.9963,1441.42,77.00,37.40,23.93,170.00,7.00,0.00,30.10,M,10.00,16.00,CLR,M,M,M,M,M,M,M,M,M,M,M,M,M,M,77.00,KMEV 231815Z AUTO 17007G16KT 10SM CLR 25/03 A3010 RMK AO2,M
BAM,2022-06-23 18:15,-116.8743,40.5990,1382.36,80.60,33.80,18.42,300.00,5.00,0.00,30.04,M,10.00,M,CLR,M,M,M,M,M,M,M,M,M,M,M,M,M,M,78.88,KBAM 231815Z AUTO 30005KT 10SM CLR 27/01 A3004 RMK AO1,M
HTH,2022-06-23 18:15,-118.6315,38.5448,1282.89,77.00,35.60,22.28,320.00,12.00,0.00,30.08,M,10.00,M,FEW,M,M,M,10000.00,M,M,M,M,M,M,M,M,M,M,77.00,KHTH 231815Z AUTO 32012KT 10SM FEW100 25/02 A3008 RMK A01,M
BVU,2022-06-23 18:15,-114.8611,35.9475,671.00,91.40,46.40,21.29,40.00,4.00,0.00,29.93,M,10.00,M,CLR,M,M,M,M,M,M,M,M,M,M,M,M,M,M,87.86,KBVU 231815Z AUTO 04004KT 10SM CLR 33/08 A2993 RMK AO2,M
CXP,2022-06-23 18:15,-119.7326,39.1923,1431.00,75.20,37.40,25.40,M,4.00,0.00,30.11,M,10.00,M,CLR,M,M,M,M,M,M,M,M,M,M,M,M,M,M,75.20,KCXP 231815Z AUTO VRB04KT 10SM CLR 24/03 A3011 RMK AO2,M
TMT,2022-06-23 18:15,-117.1971,39.4643,1749.34,73.60,35.00,24.47,0.00,0.00,0.00,30.12,M,10.00,M,SCT,M,M,M,10000.00,M,M,M,M,M,M,M,M,M,M,73.60,KTMT 231815Z AUTO 00000KT 10SM SCT100 23/02 A3012 RMK AO2 T02310017,M
05U,2022-06-23 18:35,-116.0051,39.6042,1811.23,78.80,35.60,21.00,140.00,12.00,0.00,30.14,M,10.00,18.00,CLR,M,M,M,M,M,M,M,M,M,M,M,M,M,M,78.80,K05U 231835Z AUTO 14012G18KT 10SM CLR 26/02 A3014 RMK A01,M
MEV,2022-06-23 18:35,-119.7500,38.9963,1441.42,78.80,33.80,19.55,220.00,7.00,0.00,30.10,M,10.00,M,CLR,M,M,M,M,M,M,M,M,M,M,M,M,M,M,78.80,KMEV 231835Z AUTO 22007KT 180V240 10SM CLR 26/01 A3010 RMK AO2,M
HTH,2022-06-23 18:35,-118.6315,38.5448,1282.89,77.00,35.60,22.28,320.00,10.00,0.00,30.07,M,10.00,16.00,CLR,M,M,M,M,M,M,M,M,M,M,M,M,M,M,77.00,KHTH 231835Z AUTO 32010G16KT 10SM CLR 25/02 A3007 RMK A01,M
BAM,2022-06-23 18:35,-116.8743,40.5990,1382.36,80.60,33.80,18.42,280.00,3.00,0.00,30.04,M,10.00,M,CLR,M,M,M,M,M,M,M,M,M,M,M,M,M,M,78.88,KBAM 231835Z AUTO 28003KT 10SM CLR 27/01 A3004 RMK AO1,M
TMT,2022-06-23 18:35,-117.1971,39.4643,1749.34,73.00,37.40,27.35,240.00,8.00,0.00,30.12,M,10.00,M,BKN,M,M,M,11000.00,M,M,M,VCTS,M,M,M,M,M,M,73.00,KTMT 231835Z AUTO 24008KT 10SM VCTS BKN110 23/03 A3012 RMK AO2 LTG DSNT SE AND NW T02280030,M
BVU,2022-06-23 18:35,-114.8611,35.9475,671.00,91.40,41.00,17.32,70.00,6.00,0.00,29.93,M,10.00,M,CLR,M,M,M,M,M,M,M,M,M,M,M,M,M,M,87.40,KBVU 231835Z AUTO 07006KT 10SM CLR 33/05 A2993 RMK AO2,M
CXP,2022-06-23 18:35,-119.7326,39.1923,1431.00,77.00,35.60,22.28,M,6.00,0.00,30.11,M,10.00,M,CLR,M,M,M,M,M,M,M,M,M,M,M,M,M,M,77.00,KCXP 231835Z AUTO VRB06KT 10SM CLR 25/02 A3011 RMK AO2,M
RTS,2022-06-23 18:35,-119.8764,39.6682,1539.00,75.20,33.80,22.02,300.00,10.00,0.00,30.13,M,10.00,M,CLR,M,M,M,M,M,M,M,M,M,M,M,M,M,M,75.20,KRTS 231835Z AUTO 30010KT 10SM CLR 24/01 A3013 RMK AO2,M
CXP,2022-06-23 18:50,-119.7326,39.1923,1431.00,77.00,35.60,22.28,M,4.00,0.00,30.11,M,10.00,M,CLR,M,M,M,M,M,M,M,M,M,M,M,M,M,M,77.00,KCXP 231850Z AUTO VRB04KT 10SM CLR 25/02 A3011 RMK AO2,M
ELY,2022-06-23 18:53,-114.8453,39.2950,1909.00,79.00,37.00,22.05,220.00,18.00,0.00,30.14,1010.10,10.00,29.00,FEW,M,M,M,9000.00,M,M,M,M,M,M,M,29.00,230.00,2022-06-23 18:51,79.00,KELY 231853Z AUTO 22018G29KT 10SM FEW090 26/03 A3014 RMK AO2 PK WND 23029/1851 LTG DSNT SW SLP101 T02610028,M
DRA,2022-06-23 18:53,-116.0278,36.6206,1009.00,89.00,47.00,23.32,210.00,12.00,0.00,30.00,1010.90,10.00,19.00,CLR,M,M,M,M,M,M,M,M,M,M,M,M,M,M,85.85,KDRA 231853Z AUTO 21012G19KT 10SM CLR 32/08 A3000 RMK AO2 SLP109 T03170083,M
LOL,2022-06-23 18:53,-118.5701,40.0684,1192.43,83.00,38.00,20.11,20.00,8.00,0.00,30.01,1011.90,10.00,M,SCT,M,M,M,12000.00,M,M,M,M,M,M,M,M,M,M,80.49,KLOL 231853Z AUTO 02008KT 10SM SCT120 28/03 A3001 RMK AO2 SLP119 T02830033,M
VGT,2022-06-23 18:53,-115.1933,36.2111,667.00,93.00,45.00,19.21,140.00,8.00,0.00,29.91,1011.70,10.00,M,CLR,M,M,M,M,M,M,M,M,M,M,M,M,M,M,89.20,KVGT 231853Z 14008KT 120V200 10SM CLR 34/07 A2991 RMK AO2 SLP117 T03390072,M
P68,2022-06-23 18:53,-116.0056,39.6014,1993.00,78.00,35.00,21.07,160.00,9.00,0.00,30.10,1011.10,M,22.00,M,M,M,M,M,M,M,M,M,M,M,M,M,M,M,78.10,KP68 231853Z AUTO 16009G22KT 120V190 26/02 A3010 RMK AO1 SLP111 T02560017,M
RNO,2022-06-23 18:55,-119.7711,39.4839,1341.00,78.00,36.00,21.83,M,3.00,0.00,30.08,1012.70,10.00,M,SCT,BKN,BKN,M,10000.00,14000.00,21000.00,M,M,M,M,M,M,M,M,78.10,KRNO 231855Z VRB03KT 10SM SCT100 BKN140 BKN210 26/02 A3008 RMK AO2 SLP127 VIRGA T02560022,M
RTS,2022-06-23 18:55,-119.8764,39.6682,1539.00,75.20,33.80,22.02,M,4.00,0.00,30.13,M,10.00,10.00,CLR,M,M,M,M,M,M,M,M,M,M,M,M,M,M,75.20,KRTS 231855Z AUTO VRB04G10KT 10SM CLR 24/01 A3013 RMK AO2,M
05U,2022-06-23 18:55,-116.0051,39.6042,1811.23,80.60,33.80,18.42,M,5.00,0.00,30.12,M,10.00,19.00,CLR,M,M,M,M,M,M,M,M,M,M,M,M,M,M,78.88,K05U 231855Z AUTO VRB05G19KT 10SM CLR 27/01 A3012 RMK A01,M
TMT,2022-06-23 18:55,-117.1971,39.4643,1749.34,72.30,36.00,26.60,140.00,9.00,0.00,30.13,M,10.00,M,BKN,OVC,M,M,8500.00,11000.00,M,M,M,M,M,M,M,M,M,72.30,KTMT 231855Z AUTO 14009KT 10SM BKN085 OVC110 22/02 A3013 RMK AO2 LTG DSNT N SE AND SW T02240023,M
MEV,2022-06-23 18:55,-119.7500,38.9963,1441.42,77.00,37.40,23.93,M,5.00,0.00,30.10,M,10.00,M,SCT,M,M,M,11000.00,M,M,M,M,M,M,M,M,M,M,77.00,KMEV 231855Z AUTO VRB05KT 10SM SCT110 25/03 A3010 RMK AO2,M
BAM,2022-06-23 18:55,-116.8743,40.5990,1382.36,80.60,33.80,18.42,110.00,4.00,0.00,30.03,M,10.00,M,CLR,M,M,M,M,M,M,M,M,M,M,M,M,M,M,78.88,KBAM 231855Z AUTO 11004KT 10SM CLR 27/01 A3003 RMK AO1,M
BVU,2022-06-23 18:55,-114.8611,35.9475,671.00,93.20,42.80,17.55,M,3.00,0.00,29.92,M,10.00,M,CLR,M,M,M,M,M,M,M,M,M,M,M,M,M,M,89.17,KBVU 231855Z AUTO VRB03KT 10SM CLR 34/06 A2992 RMK AO2,M
HTH,2022-06-23 18:55,-118.6315,38.5448,1282.89,77.00,35.60,22.28,300.00,11.00,0.00,30.07,M,10.00,M,CLR,M,M,M,M,M,M,M,M,M,M,M,M,M,M,77.00,KHTH 231855Z AUTO 30011KT 10SM CLR 25/02 A3007 RMK A01,M
NFL,2022-06-23 18:56,-118.7010,39.4166,1199.00,86.00,36.00,16.89,240.00,13.00,0.00,30.01,1013.20,10.00,21.00,CLR,M,M,M,M,M,M,M,M,M,M,M,M,M,M,82.70,KNFL 231856Z 24013G21KT 10SM CLR 30/02 A3001 RMK AO2 SLP132 T03000022,M
WMC,2022-06-23 18:56,-117.8072,40.9019,1315.00,85.00,38.00,18.86,290.00,9.00,0.00,30.01,1011.10,10.00,16.00,CLR,M,M,M,M,M,M,M,M,M,M,M,M,M,M,81.91,KWMC 231856Z AUTO 29009G16KT 10SM CLR 29/03 A3001 RMK AO2 SLP111 T02940033,M
LAS,2022-06-23 18:56,-115.1634,36.0719,663.00,93.00,47.00,20.64,90.00,6.00,0.00,29.92,1010.50,10.00,M,FEW,M,M,M,12000.00,M,M,M,M,M,M,M,M,M,M,89.43,KLAS 231856Z 09006KT 10SM FEW120 34/08 A2992 RMK AO2 SLP105 T03390083,M
LSV,2022-06-23 18:56,-115.0343,36.2362,570.00,100.80,44.60,14.90,0.00,0.00,0.00,29.88,1009.10,10.00,M,CLR,M,M,M,M,M,M,M,M,M,M,M,M,M,M,96.71,KLSV 231856Z AUTO 00000KT 10SM CLR 38/07 A2988 RMK AO2 SLP091 T03820070 $,M
HND,2022-06-23 18:56,-115.1344,35.9729,742.79,92.00,49.00,23.03,0.00,0.00,0.00,29.95,1013.10,10.00,M,CLR,M,M,M,M,M,M,M,M,M,M,M,M,M,M,88.66,KHND 231856Z 00000KT 10SM CLR 33/09 A2995 RMK AO2 SLP131 T03330094,M
TPH,2022-06-23 18:56,-117.0904,38.0505,1654.00,78.00,32.00,18.61,220.00,11.00,0.00,30.12,1013.60,10.00,19.00,CLR,M,M,M,M,M,M,M,M,M,M,M,M,M,M,78.10,KTPH 231856Z AUTO 22011G19KT 10SM CLR 26/00 A3012 RMK AO2 SLP136 T02560000,M
INS,2022-06-23 18:56,-115.6733,36.5872,955.00,87.60,42.80,20.92,120.00,5.00,0.00,29.98,1010.60,10.00,M,FEW,FEW,M,M,14000.00,21000.00,M,M,M,M,M,M,M,M,M,84.23,KINS 231856Z AUTO 12005KT 10SM FEW140 FEW210 31/06 A2998 RMK AO2 SLP106 T03090060 $,M
EKO,2022-06-23 18:56,-115.7860,40.8242,1367.00,82.00,35.00,18.54,250.00,5.00,0.00,30.04,1010.90,10.00,M,CLR,M,M,M,M,M,M,M,M,M,M,M,M,M,M,79.80,KEKO 231856Z AUTO 25005KT 10SM CLR 28/02 A3004 RMK AO2 SLP109 T02780017,M
05U,2022-06-23 19:15,-116.0051,39.6042,1811.23,82.40,33.80,17.38,160.00,11.00,0.00,30.10,M,10.00,M,CLR,M,M,M,M,M,M,M,M,M,M,M,M,M,M,80.03,K05U 231915Z AUTO 16011KT 130V190 10SM CLR 28/01 A3010 RMK A01,M
BAM,2022-06-23 19:15,-116.8743,40.5990,1382.36,84.20,33.80,16.39,240.00,5.00,0.00,30.02,M,10.00,M,CLR,M,M,M,M,M,M,M,M,M,M,M,M,M,M,81.30,KBAM 231915Z AUTO 24005KT 10SM CLR 29/01 A3002 RMK AO1,M
HTH,2022-06-23 19:15,-118.6315,38.5448,1282.89,77.00,35.60,22.28,M,4.00,0.00,30.07,M,10.00,M,CLR,M,M,M,M,M,M,M,M,M,M,M,M,M,M,77.00,KHTH 231915Z AUTO VRB04KT 10SM CLR 25/02 A3007 RMK A01,M
TMT,2022-06-23 19:15,-117.1971,39.4643,1749.34,70.30,31.80,23.98,220.00,19.00,0.00,30.15,M,10.00,26.00,OVC,M,M,M,9500.00,M,M,M,VCTS,M,M,M,M,M,M,70.30,KTMT 231915Z AUTO 22019G26KT 10SM VCTS OVC095 21/00 A3015 RMK AO2 LTG DSNT N E AND SW T02131001,M
RTS,2022-06-23 19:15,-119.8764,39.6682,1539.00,75.20,32.00,20.49,M,4.00,0.00,30.13,M,10.00,M,BKN,M,M,M,12000.00,M,M,M,M,M,M,M,M,M,M,75.20,KRTS 231915Z AUTO VRB04KT 10SM BKN120 24/00 A3013 RMK AO2,M
MEV,2022-06-23 19:15,-119.7500,38.9963,1441.42,78.80,37.40,22.54,280.00,7.00,0.00,30.10,M,10.00,M,BKN,M,M,M,11000.00,M,M,M,M,M,M,M,M,M,M,78.80,KMEV 231915Z AUTO 28007KT 10SM BKN110 26/03 A3010 RMK AO2,M
BVU,2022-06-23 19:15,-114.8611,35.9475,671.00,95.00,44.60,17.78,0.00,0.00,0.00,29.91,M,10.00,M,CLR,M,M,M,M,M,M,M,M,M,M,M,M,M,M,91.06,KBVU 231915Z AUTO 00000KT 10SM CLR 35/07 A2991 RMK AO2,M
CXP,2022-06-23 19:15,-119.7326,39.1923,1431.00,80.60,33.80,18.42,40.00,9.00,0.00,30.10,M,10.00,M,FEW,M,M,M,11000.00,M,M,M,M,M,M,M,M,M,M,78.88,KCXP 231915Z AUTO 04009KT 10SM FEW110 27/01 A3010 RMK AO2,M
ELY,2022-06-23 19:19,-114.8453,39.2950,1909.00,75.20,37.40,25.40,230.00,16.00,0.00,30.14,M,10.00,25.00,FEW,M,M,M,9000.00,M,M,M,VCTS,M,M,M,M,M,M,75.20,KELY 231919Z AUTO 23016G25KT 10SM VCTS FEW090 24/03 A3014,M
CXP,2022-06-23 19:30,-119.7326,39.1923,1431.00,80.60,32.00,17.14,350.00,9.00,0.00,30.10,M,10.00,M,FEW,M,M,M,11000.00,M,M,M,M,M,M,M,M,M,M,78.82,KCXP 231930Z AUTO 35009KT 10SM FEW110 27/M00 A3010 RMK AO2,M
MEV,2022-06-23 19:35,-119.7500,38.9963,1441.42,80.60,33.80,18.42,340.00,8.00,0.00,30.09,M,10.00,15.00,FEW,M,M,M,12000.00,M,M,M,M,M,M,M,M,M,M,78.88,KMEV 231935Z AUTO 34008G15KT 10SM FEW120 27/01 A3009 RMK AO2,M
TMT,2022-06-23 19:35,-117.1971,39.4643,1749.34,70.00,29.10,21.71,210.00,20.00,0.00,30.14,M,10.00,32.00,SCT,M,M,M,9500.00,M,M,M,M,M,M,M,M,M,M,70.00,KTMT 231935Z AUTO 21020G32KT 10SM SCT095 21/M02 A3014 RMK AO2 LTG DSNT SE T02111016,M
HTH,2022-06-23 19:35,-118.6315,38.5448,1282.89,80.60,33.80,18.42,M,6.00,0.00,30.06,M,10.00,13.00,CLR,M,M,M,M,M,M,M,M,M,M,M,M,M,M,78.88,KHTH 231935Z AUTO VRB06G13KT 10SM CLR 27/01 A3006 RMK A01,M
BAM,2022-06-23 19:35,-116.8743,40.5990,1382.36,86.00,32.00,14.40,300.00,7.00,0.00,30.01,M,10.00,M,CLR,M,M,M,M,M,M,M,M,M,M,M,M,M,M,82.64,KBAM 231935Z AUTO 30007KT 10SM CLR 30/00 A3001 RMK AO1,M
RTS,2022-06-23 19:35,-119.8764,39.6682,1539.00,77.00,32.00,19.30,M,4.00,0.00,30.12,M,10.00,11.00,SCT,M,M,M,12000.00,M,M,M,M,M,M,M,M,M,M,77.00,KRTS 231935Z AUTO VRB04G11KT 10SM SCT120 25/M00 A3012 RMK AO2,M
05U,2022-06-23 19:35,-116.0051,39.6042,1811.23,77.00,35.60,22.28,270.00,17.00,0.00,30.12,M,10.00,M,BKN,M,M,M,9000.00,M,M,M,M,M,M,M,M,M,M,77.00,K05U 231935Z AUTO 27017KT 10SM BKN090 25/02 A3012 RMK A01,M
BVU,2022-06-23 19:35,-114.8611,35.9475,671.00,95.00,42.80,16.60,70.00,4.00,0.00,29.90,M,10.00,M,CLR,M,M,M,M,M,M,M,M,M,M,M,M,M,M,90.86,KBVU 231935Z AUTO 07004KT 10SM CLR 35/06 A2990 RMK AO2,M
ELY,2022-06-23 19:38,-114.8453,39.2950,1909.00,73.00,35.00,24.97,250.00,21.00,0.00,30.14,M,10.00,33.00,SCT,M,M,M,10000.00,M,M,M,M,M,M,M,33.00,240.00,2022-06-23 19:31,73.00,KELY 231938Z AUTO 25021G33KT 10SM SCT100 23/02 A3014 RMK AO2 PK WND 24033/1931 LTG DSNT SE-SW T02280017,M
P68,2022-06-23 19:41,-116.0056,39.6014,1993.00,74.00,33.00,22.37,280.00,16.00,0.00,30.10,M,M,26.00,M,M,M,M,M,M,M,M,M,M,M,M,26.00,270.00,2022-06-23 19:35,73.90,KP68 231941Z AUTO 28016G26KT 23/01 A3010 RMK AO1 PK WND 27026/1935 WSHFT 1924 T02330006,M
CXP,2022-06-23 19:50,-119.7326,39.1923,1431.00,80.60,32.00,17.14,320.00,10.00,0.00,30.09,M,10.00,17.00,SCT,M,M,M,10000.00,M,M,M,M,M,M,M,M,M,M,78.82,KCXP 231950Z AUTO 32010G17KT 10SM SCT100 27/00 A3009 RMK AO2,M
VGT,2022-06-23 19:53,-115.1933,36.2111,667.00,96.00,46.00,18.13,120.00,7.00,0.00,29.88,1010.40,10.00,M,CLR,M,M,M,M,M,M,M,M,M,M,M,M,M,M,92.30,KVGT 231953Z 12007KT 10SM CLR 36/08 A2988 RMK AO2 SLP104 T03560078,M
P68,2022-06-23 19:53,-116.0056,39.6014,1993.00,68.00,41.00,37.32,290.00,15.00,0.00,30.10,1012.80,M,25.00,M,M,M,M,M,M,M,M,M,M,M,M,26.00,270.00,2022-06-23 19:35,68.00,KP68 231953Z AUTO 29015G25KT 20/05 A3010 RMK AO1 PK WND 27026/1935 WSHFT 1924 SLP128 T02000050,M
LOL,2022-06-23 19:53,-118.5701,40.0684,1192.43,82.00,33.00,17.12,250.00,4.00,0.00,29.98,1011.20,10.00,M,CLR,M,M,M,M,M,M,M,M,M,M,M,M,M,M,79.75,KLOL 231953Z AUTO 25004KT 10SM CLR 28/01 A2998 RMK AO2 SLP112 T02780006,M
ELY,2022-06-23 19:53,-114.8453,39.2950,1909.00,68.00,38.00,33.07,260.00,26.00,0.00,30.15,1011.80,7.00,40.00,SCT,M,M,M,9000.00,M,M,M,M,M,M,M,40.00,260.00,2022-06-23 19:52,68.00,KELY 231953Z AUTO 26026G40KT 7SM SCT090 20/03 A3015 RMK AO2 PK WND 26040/1952 LTG DSNT E-SW SLP118 T02000033,M
DRA,2022-06-23 19:53,-116.0278,36.6206,1009.00,89.00,47.00,23.32,M,5.00,0.00,29.98,1010.40,10.00,19.00,FEW,M,M,M,11000.00,M,M,M,M,M,M,M,M,M,M,85.85,KDRA 231953Z AUTO VRB05G19KT 10SM FEW110 32/08 A2998 RMK AO2 SLP104 T03170083,M
RTS,2022-06-23 19:55,-119.8764,39.6682,1539.00,78.80,32.00,18.18,M,6.00,0.00,30.11,M,10.00,M,CLR,M,M,M,M,M,M,M,M,M,M,M,M,M,M,78.80,KRTS 231955Z AUTO VRB06KT 110V210 10SM CLR 26/00 A3011 RMK AO2,M
TMT,2022-06-23 19:55,-117.1971,39.4643,1749.34,70.30,28.90,21.31,220.00,16.00,0.00,30.15,M,10.00,42.00,CLR,M,M,M,M,M,M,M,M,M,M,M,M,M,M,70.30,KTMT 231955Z AUTO 22016G42KT 10SM CLR 21/M02 A3015 RMK AO2 LTG DSNT N THRU E T02131017,M
RNO,2022-06-23 19:55,-119.7711,39.4839,1341.00,81.00,36.00,19.85,310.00,4.00,0.00,30.06,1011.90,10.00,M,SCT,SCT,BKN,M,10000.00,13000.00,19000.00,M,M,M,M,M,M,M,M,79.20,KRNO 231955Z 31004KT 10SM SCT100 SCT130 BKN190 27/02 A3006 RMK AO2 SLP119 T02720022,M
HTH,2022-06-23 19:55,-118.6315,38.5448,1282.89,80.60,33.80,18.42,20.00,8.00,0.00,30.05,M,10.00,M,CLR,M,M,M,M,M,M,M,M,M,M,M,M,M,M,78.88,KHTH 231955Z AUTO 02008KT 340V060 10SM CLR 27/01 A3005 RMK A01,M
BVU,2022-06-23 19:55,-114.8611,35.9475,671.00,95.00,42.80,16.60,30.00,5.00,0.00,29.89,M,10.00,M,CLR,M,M,M,M,M,M,M,M,M,M,M,M,M,M,90.86,KBVU 231955Z AUTO 03005KT 10SM CLR 35/06 A2989 RMK AO2,M
BAM,2022-06-23 19:55,-116.8743,40.5990,1382.36,82.40,32.00,16.17,0.00,0.00,0.00,30.00,M,10.00,M,CLR,M,M,M,M,M,M,M,M,M,M,M,M,M,M,80.00,KBAM 231955Z AUTO 00000KT 10SM CLR 28/00 A3000 RMK AO1,M
05U,2022-06-23 19:55,-116.0051,39.6042,1811.23,68.00,39.20,34.80,290.00,13.00,0.00,30.13,M,7.00,21.00,SCT,M,M,M,9000.00,M,M,M,M,M,M,M,M,M,M,68.00,K05U 231955Z AUTO 29013G21KT 7SM SCT090 20/04 A3013 RMK A01,M
MEV,2022-06-23 19:55,-119.7500,38.9963,1441.42,80.60,33.80,18.42,M,5.00,0.00,30.08,M,10.00,M,FEW,M,M,M,12000.00,M,M,M,M,M,M,M,M,M,M,78.88,KMEV 231955Z AUTO VRB05KT 10SM FEW120 27/01 A3008 RMK AO2,M
NFL,2022-06-23 19:56,-118.7010,39.4166,1199.00,88.00,36.00,15.85,240.00,17.00,0.00,30.00,1012.90,10.00,24.00,SCT,BKN,BKN,BKN,7000.00,12000.00,17000.00,22000.00,TS,M,M,M,M,M,M,84.29,KNFL 231956Z 24017G24KT 10SM TS SCT070CB BKN120 BKN170 BKN220 31/02 A3000 RMK AO2 TSB56 SLP129 OCNL LTGCG VC NW TS VC NW MOVG S T03110022,M
EKO,2022-06-23 19:56,-115.7860,40.8242,1367.00,84.00,34.00,16.63,340.00,5.00,0.00,30.01,1010.00,10.00,M,CLR,M,M,M,M,M,M,M,M,M,M,M,M,M,M,81.16,KEKO 231956Z AUTO 34005KT 10SM CLR 29/01 A3001 RMK AO2 SLP100 T02890011,M
INS,2022-06-23 19:56,-115.6733,36.5872,955.00,91.00,44.40,19.98,140.00,3.00,0.00,29.95,1009.40,10.00,M,CLR,M,M,M,M,M,M,M,M,M,M,M,M,M,M,87.30,KINS 231956Z AUTO 14003KT 10SM CLR 33/07 A2995 RMK AO2 SLP094 T03280069 $,M
WMC,2022-06-23 19:56,-117.8072,40.9019,1315.00,87.00,35.00,15.74,280.00,13.00,0.00,29.99,1010.60,10.00,21.00,CLR,M,M,M,M,M,M,M,M,M,M,M,M,M,M,83.55,KWMC 231956Z AUTO 28013G21KT 10SM CLR 31/02 A2999 RMK AO2 SLP106 T03060017,M
LSV,2022-06-23 19:56,-115.0343,36.2362,570.00,102.00,45.50,14.88,260.00,3.00,0.00,29.85,1008.10,10.00,M,M,M,M,M,M,M,M,M,M,M,M,M,M,M,M,98.05,KLSV 231956Z AUTO 26003KT 10SM M 39/08 A2985 RMK AO2 SLP081 T03890075 $,M
HND,2022-06-23 19:56,-115.1344,35.9729,742.79,94.00,48.00,20.92,M,5.00,0.00,29.92,1011.90,10.00,M,FEW,M,M,M,11000.00,M,M,M,M,M,M,M,M,M,M,90.45,KHND 231956Z VRB05KT 10SM FEW110 34/09 A2992 RMK AO2 SLP119 T03440089,M
TPH,2022-06-23 19:56,-117.0904,38.0505,1654.00,79.00,32.00,18.06,200.00,12.00,0.00,30.11,1013.20,10.00,20.00,SCT,M,M,M,9500.00,M,M,M,M,M,M,M,M,M,M,79.00,KTPH 231956Z AUTO 20012G20KT 10SM SCT095 26/00 A3011 RMK AO2 SLP132 T02610000,M
LAS,2022-06-23 19:56,-115.1634,36.0719,663.00,95.00,46.00,18.76,50.00,4.00,0.00,29.89,1009.40,10.00,M,FEW,M,M,M,12000.00,M,M,M,M,M,M,M,M,M,M,91.23,KLAS 231956Z 05004KT 10SM FEW120 35/08 A2989 RMK AO2 SLP094 CB DSNT NW T03500078,M
NFL,2022-06-23 20:09,-118.7010,39.4166,1199.00,87.00,35.00,15.74,270.00,17.00,0.00,30.00,M,10.00,25.00,SCT,BKN,BKN,M,7000.00,12000.00,17000.00,M,M,M,M,M,M,M,M,83.55,KNFL 232009Z 27017G25KT 10SM SCT070CB BKN120 BKN170 31/02 A3000 RMK AO2 TSE09 TS OVHD MOV S T03060017,M
CXP,2022-06-23 20:10,-119.7326,39.1923,1431.00,80.60,30.20,15.94,350.00,8.00,0.00,30.09,M,10.00,M,FEW,FEW,M,M,9500.00,12000.00,M,M,VCTS,M,M,M,M,M,M,78.77,KCXP 232010Z AUTO 35008KT 10SM VCTS FEW095 FEW120 27/M01 A3009 RMK AO2 LTG DSNT W,M
05U,2022-06-23 20:15,-116.0051,39.6042,1811.23,59.00,50.00,72.01,0.00,0.00,0.00,30.14,M,3.00,12.00,FEW,BKN,M,M,300.00,9500.00,M,M,HZ,M,M,M,M,M,M,59.00,K05U 232015Z AUTO 00000G12KT 3SM HZ FEW003 BKN095 15/10 A3014 RMK A01,M
BVU,2022-06-23 20:15,-114.8611,35.9475,671.00,95.00,42.80,16.60,90.00,5.00,0.00,29.87,M,10.00,M,CLR,M,M,M,M,M,M,M,M,M,M,M,M,M,M,90.86,KBVU 232015Z AUTO 09005KT 10SM CLR 35/06 A2987 RMK AO2,M
RTS,2022-06-23 20:15,-119.8764,39.6682,1539.00,78.80,32.00,18.18,0.00,0.00,0.00,30.10,M,10.00,M,CLR,M,M,M,M,M,M,M,M,M,M,M,M,M,M,78.80,KRTS 232015Z AUTO 00000KT 10SM CLR 26/M00 A3010 RMK AO2,M
MEV,2022-06-23 20:15,-119.7500,38.9963,1441.42,80.60,35.60,19.79,M,6.00,0.00,30.07,M,10.00,M,FEW,M,M,M,12000.00,M,M,M,M,M,M,M,M,M,M,78.94,KMEV 232015Z AUTO VRB06KT 10SM FEW120 27/02 A3007 RMK AO2,M
BAM,2022-06-23 20:15,-116.8743,40.5990,1382.36,84.20,32.00,15.25,0.00,0.00,0.00,29.99,M,10.00,M,CLR,M,M,M,M,M,M,M,M,M,M,M,M,M,M,81.28,KBAM 232015Z AUTO 00000KT 10SM CLR 29/00 A2999 RMK AO1,M
HTH,2022-06-23 20:15,-118.6315,38.5448,1282.89,80.60,33.80,18.42,300.00,6.00,0.00,30.04,M,10.00,M,CLR,M,M,M,M,M,M,M,M,M,M,M,M,M,M,78.88,KHTH 232015Z AUTO 30006KT 10SM CLR 27/01 A3004 RMK A01,M
TMT,2022-06-23 20:15,-117.1971,39.4643,1749.34,69.60,31.80,24.56,190.00,13.00,0.00,30.12,M,10.00,22.00,CLR,M,M,M,M,M,M,M,M,M,M,M,M,M,M,69.60,KTMT 232015Z AUTO 19013G22KT 10SM CLR 21/00 A3012 RMK AO2 LTG DSNT N SE AND NW T02091001,M
ELY,2022-06-23 20:16,-114.8453,39.2950,1909.00,65.00,37.00,35.54,260.00,27.00,0.00,30.17,M,10.00,36.00,FEW,BKN,M,M,8500.00,11000.00,M,M,VCTS,M,M,M,40.00,250.00,2022-06-23 19:56,64.90,KELY 232016Z AUTO 26027G36KT 10SM VCTS FEW085 BKN110 18/03 A3017 RMK AO2 PK WND 25040/1956 LTG DSNT ALQDS T01830028,M
EKO,2022-06-23 20:25,-115.7860,40.8242,1367.00,80.00,34.00,18.88,190.00,11.00,0.00,30.01,M,10.00,18.00,SCT,M,M,M,12000.00,M,M,M,TS,M,M,M,M,M,M,78.70,KEKO 232025Z AUTO 19011G18KT 10SM TS SCT120 27/01 A3001 RMK AO2 TSB25 T02670011,M
CXP,2022-06-23 20:30,-119.7326,39.1923,1431.00,82.40,30.20,15.03,340.00,12.00,0.00,30.07,M,10.00,18.00,CLR,M,M,M,M,M,M,M,M,M,M,M,M,M,M,79.97,KCXP 232030Z AUTO 34012G18KT 10SM CLR 28/M01 A3007 RMK AO2,M
ELY,2022-06-23 20:31,-114.8453,39.2950,1909.00,65.00,36.00,34.17,240.00,23.00,T,30.16,M,8.00,34.00,BKN,BKN,M,M,8500.00,11000.00,M,M,-RA,M,M,M,41.00,250.00,2022-06-23 20:21,64.90,KELY 232031Z AUTO 24023G34KT 8SM -RA BKN085 BKN110 18/02 A3016 RMK AO2 PK WND 25041/2021 LTG DSNT NE AND E RAB23 P0000 T01830022,M
BVU,2022-06-23 20:35,-114.8611,35.9475,671.00,96.80,42.80,15.71,250.00,7.00,0.00,29.87,M,10.00,M,CLR,M,M,M,M,M,M,M,M,M,M,M,M,M,M,92.57,KBVU 232035Z AUTO 25007KT 10SM CLR 36/06 A2987 RMK AO2 LTG DSNT S,M
05U,2022-06-23 20:35,-116.0051,39.6042,1811.23,60.80,51.80,72.20,0.00,0.00,0.00,30.14,M,10.00,M,FEW,M,M,M,9500.00,M,M,M,M,M,M,M,M,M,M,60.80,K05U 232035Z AUTO 00000KT 10SM FEW095 16/11 A3014 RMK A01,M
BAM,2022-06-23 20:35,-116.8743,40.5990,1382.36,82.40,32.00,16.17,310.00,5.00,0.00,29.99,M,10.00,M,CLR,M,M,M,M,M,M,M,M,M,M,M,M,M,M,80.00,KBAM 232035Z AUTO 31005KT 10SM CLR 28/00 A2999 RMK AO1,M
HTH,2022-06-23 20:35,-118.6315,38.5448,1282.89,80.60,33.80,18.42,M,3.00,0.00,30.04,M,10.00,11.00,CLR,M,M,M,M,M,M,M,M,M,M,M,M,M,M,78.88,KHTH 232035Z AUTO VRB03G11KT 10SM CLR 27/01 A3004 RMK A01,M
TMT,2022-06-23 20:35,-117.1971,39.4643,1749.34,72.00,32.20,22.92,160.00,15.00,0.00,30.11,M,10.00,22.00,CLR,M,M,M,M,M,M,M,M,M,M,M,M,M,M,72.10,KTMT 232035Z AUTO 16015G22KT 10SM CLR 22/00 A3011 RMK AO2 LTG DSNT N T02230001,M
RTS,2022-06-23 20:35,-119.8764,39.6682,1539.00,80.60,30.20,15.94,210.00,6.00,0.00,30.09,M,10.00,M,CLR,M,M,M,M,M,M,M,M,M,M,M,M,M,M,78.77,KRTS 232035Z AUTO 21006KT 10SM CLR 27/M01 A3009 RMK AO2,M
MEV,2022-06-23 20:35,-119.7500,38.9963,1441.42,80.60,32.00,17.14,360.00,8.00,0.00,30.06,M,10.00,16.00,FEW,SCT,M,M,9500.00,12000.00,M,M,M,M,M,M,M,M,M,78.82,KMEV 232035Z AUTO 36008G16KT 10SM FEW095 SCT120 27/M00 A3006 RMK AO2,M
EKO,2022-06-23 20:40,-115.7860,40.8242,1367.00,76.00,37.00,24.43,160.00,15.00,0.00,30.02,M,10.00,36.00,BKN,M,M,M,11000.00,M,M,M,M,M,M,M,36.00,170.00,2022-06-23 20:35,75.90,KEKO 232040Z AUTO 16015G36KT 10SM BKN110 24/03 A3002 RMK AO2 PK WND 17036/2035 WSHFT 2024 TSB25E40 T02440028,M
EKO,2022-06-23 20:44,-115.7860,40.8242,1367.00,76.00,36.00,23.48,180.00,20.00,T,30.02,M,10.00,36.00,BKN,M,M,M,11000.00,M,M,M,-TSRA,M,M,M,36.00,170.00,2022-06-23 20:35,75.90,KEKO 232044Z AUTO 18020G36KT 10SM -TSRA BKN110 24/02 A3002 RMK AO2 PK WND 17036/2035 WSHFT 2024 LTG DSNT SW RAB44 TSB25E40B44 P0000 T02440022,M
VGT,2022-06-23 20:53,-115.1933,36.2111,667.00,98.00,46.00,17.06,M,M,0.00,29.84,1009.40,10.00,M,CLR,M,M,M,M,M,M,M,M,M,M,M,M,M,M,94.28,KVGT 232053Z 10SM CLR 37/08 A2984 RMK AO2 SLP094 T03670078 58026,M
INS,2022-06-23 20:53,-115.6733,36.5872,955.00,89.60,44.60,21.04,0.00,0.00,0.00,29.91,1008.20,10.00,M,SCT,M,M,M,14000.00,M,M,M,M,M,M,M,M,M,M,86.07,KINS 232053Z AUTO 00000KT 10SM SCT140 32/07 A2991 RMK AO2 SLP082 $,M
P68,2022-06-23 20:53,-116.0056,39.6014,1993.00,66.00,50.00,56.27,M,3.00,0.07,30.10,1012.80,M,M,M,M,M,M,M,M,M,M,M,M,M,M,M,M,M,66.00,KP68 232053Z AUTO VRB03KT 19/10 A3010 RMK AO1 SLP128 P0007 60007 T01890100 56009,M
DRA,2022-06-23 20:53,-116.0278,36.6206,1009.00,90.00,47.00,22.67,M,4.00,0.00,29.95,1009.20,10.00,21.00,FEW,M,M,M,9000.00,M,M,M,M,M,M,M,M,M,M,86.65,KDRA 232053Z AUTO VRB04G21KT 10SM FEW090 32/08 A2995 RMK AO2 SLP092 T03220083 58020,M
LOL,2022-06-23 20:53,-118.5701,40.0684,1192.43,86.00,33.00,15.05,320.00,4.00,0.00,29.96,1010.00,10.00,M,CLR,M,M,M,M,M,M,M,M,M,M,M,M,M,M,82.65,KLOL 232053Z AUTO 32004KT 10SM CLR 30/01 A2996 RMK AO2 LTG DSNT E SLP100 T03000006 58017,M
ELY,2022-06-23 20:53,-114.8453,39.2950,1909.00,71.00,35.00,26.63,130.00,8.00,T,30.15,1012.20,10.00,M,FEW,SCT,BKN,M,2000.00,9000.00,11000.00,M,M,M,M,M,41.00,250.00,2022-06-23 20:21,71.10,KELY 232053Z AUTO 13008KT 100V160 10SM FEW020 SCT090 BKN110 22/02 A3015 RMK AO2 PK WND 25041/2021 RAB23E49 SLP122 P0000 60000 T02170017 55004,M
TMT,2022-06-23 20:55,-117.1971,39.4643,1749.34,74.70,33.00,21.78,170.00,12.00,0.00,30.11,M,10.00,M,CLR,M,M,M,M,M,M,M,M,M,M,M,M,M,M,74.70,KTMT 232055Z AUTO 17012KT 10SM CLR 24/01 A3011 RMK AO2 LTG DSNT SE T02370006,M
HTH,2022-06-23 20:55,-118.6315,38.5448,1282.89,80.60,32.00,17.14,350.00,4.00,0.00,30.03,M,10.00,M,FEW,M,M,M,12000.00,M,M,M,M,M,M,M,M,M,M,78.82,KHTH 232055Z AUTO 35004KT 10SM FEW120 27/00 A3003 RMK A01,M
BAM,2022-06-23 20:55,-116.8743,40.5990,1382.36,82.40,30.20,15.03,230.00,5.00,0.00,29.98,M,10.00,M,CLR,M,M,M,M,M,M,M,M,M,M,M,M,M,M,79.97,KBAM 232055Z AUTO 23005KT 10SM CLR 28/M01 A2998 RMK AO1,M
MEV,2022-06-23 20:55,-119.7500,38.9963,1441.42,82.40,32.00,16.17,360.00,9.00,0.00,30.06,M,10.00,14.00,CLR,M,M,M,M,M,M,M,M,M,M,M,M,M,M,80.00,KMEV 232055Z AUTO 36009G14KT 330V030 10SM CLR 28/M00 A3006 RMK AO2,M
05U,2022-06-23 20:55,-116.0051,39.6042,1811.23,66.20,51.80,59.74,0.00,0.00,0.07,30.12,M,10.00,M,CLR,M,M,M,M,M,M,M,M,M,M,M,M,M,M,66.20,K05U 232055Z AUTO 00000KT 10SM CLR 19/11 A3012 RMK A01 P0007,M
RTS,2022-06-23 20:55,-119.8764,39.6682,1539.00,80.60,30.20,15.94,250.00,8.00,0.00,30.08,M,10.00,M,CLR,M,M,M,M,M,M,M,M,M,M,M,M,M,M,78.77,KRTS 232055Z AUTO 25008KT 10SM CLR 27/M01 A3008 RMK AO2,M
CXP,2022-06-23 20:55,-119.7326,39.1923,1431.00,84.20,30.20,14.18,310.00,10.00,0.00,30.07,M,10.00,25.00,CLR,M,M,M,M,M,M,M,M,M,M,M,M,M,M,81.26,KCXP 232055Z AUTO 31010G25KT 10SM CLR 29/M01 A3007 RMK AO2 LTG DSNT W AND NW,M
BVU,2022-06-23 20:55,-114.8611,35.9475,671.00,96.80,42.80,15.71,70.00,4.00,0.00,29.86,M,10.00,M,FEW,M,M,M,12000.00,M,M,M,M,M,M,M,M,M,M,92.57,KBVU 232055Z AUTO 07004KT 10SM FEW120 36/06 A2986 RMK AO2,M
RNO,2022-06-23 20:55,-119.7711,39.4839,1341.00,82.00,35.00,18.54,0.00,0.00,0.00,30.03,1010.80,10.00,M,SCT,BKN,M,M,11000.00,23000.00,M,M,M,M,M,M,M,M,M,79.80,KRNO 232055Z 00000KT 10SM SCT110 BKN230 28/02 A3003 RMK AO2 LTG DSNT SW SLP108 T02780017 58016,M
EKO,2022-06-23 20:56,-115.7860,40.8242,1367.00,77.00,33.00,20.17,140.00,12.00,T,30.02,1011.10,10.00,30.00,FEW,FEW,OVC,M,3500.00,8000.00,10000.00,M,TS,M,M,M,36.00,170.00,2022-06-23 20:35,77.00,KEKO 232056Z AUTO 14012G30KT 10SM TS FEW035 FEW080 OVC100 25/01 A3002 RMK AO2 PK WND 17036/2035 WSHFT 2024 LTG DSNT SW RAB44E52 TSB25E40B44 SLP111 P0000 60000 T02500006 55010,M
NFL,2022-06-23 20:56,-118.7010,39.4166,1199.00,85.00,35.00,16.88,300.00,16.00,0.00,30.00,1012.90,10.00,M,BKN,BKN,BKN,M,7000.00,12000.00,17000.00,M,M,M,M,M,28.00,300.00,2022-06-23 20:15,81.84,KNFL 232056Z 30016KT 10SM BKN070CB BKN120 BKN170 29/02 A3000 RMK AO2 PK WND 30028/2015 WSHFT 2002 TSE09 SLP129 CB OVHD AND ALQDS T02940017 56007,M
LAS,2022-06-23 20:56,-115.1634,36.0719,663.00,98.00,46.00,17.06,240.00,8.00,0.00,29.85,1008.00,10.00,M,SCT,M,M,M,11000.00,M,M,M,M,M,M,M,M,M,M,94.28,KLAS 232056Z 24008KT 10SM SCT110 37/08 A2985 RMK AO2 SLP080 CB DSNT SE T03670078 58027,M
WMC,2022-06-23 20:56,-117.8072,40.9019,1315.00,89.00,33.00,13.64,280.00,16.00,0.00,29.95,1008.80,10.00,27.00,CLR,M,M,M,M,M,M,M,M,M,M,M,27.00,270.00,2022-06-23 20:56,85.16,KWMC 232056Z AUTO 28016G27KT 10SM CLR 32/01 A2995 RMK AO2 PK WND 27027/2056 LTG DSNT E AND SE SLP088 T03170006 58023,M
HND,2022-06-23 20:56,-115.1344,35.9729,742.79,99.00,48.00,17.90,230.00,16.00,0.00,29.88,1010.40,10.00,22.00,CLR,M,M,M,M,M,M,M,M,M,M,M,M,M,M,95.54,KHND 232056Z 23016G22KT 10SM CLR 37/09 A2988 RMK AO2 SLP104 T03720089 58028,M
TPH,2022-06-23 20:56,-117.0904,38.0505,1654.00,82.00,33.00,17.12,180.00,16.00,0.00,30.08,1012.10,10.00,21.00,CLR,M,M,M,M,M,M,M,M,M,M,M,M,M,M,79.75,KTPH 232056Z AUTO 18016G21KT 10SM CLR 28/01 A3008 RMK AO2 SLP121 T02780006 58019,M
LSV,2022-06-23 20:58,-115.0343,36.2362,570.00,104.00,45.30,13.91,210.00,5.00,0.00,29.82,1007.00,10.00,18.00,CLR,M,M,M,M,M,M,M,M,M,M,M,M,M,M,99.97,KLSV 232058Z AUTO 21005G18KT 10SM CLR 40/07 A2982 RMK AO2 SLP070 T04000074 $,M
INS,2022-06-23 20:58,-115.6733,36.5872,955.00,89.40,44.20,20.85,110.00,6.00,0.00,29.91,1008.00,10.00,M,FEW,BKN,M,M,10000.00,14000.00,M,M,M,M,M,M,M,M,M,85.86,KINS 232058Z AUTO 11006KT 10SM FEW100 BKN140 32/07 A2991 RMK AO2 SLP080 T03190068 $,M
EKO,2022-06-23 21:02,-115.7860,40.8242,1367.00,78.00,32.00,18.61,160.00,13.00,0.00,30.02,M,10.00,21.00,FEW,BKN,BKN,M,3500.00,10000.00,12000.00,M,M,M,M,M,M,M,M,78.10,KEKO 232102Z AUTO 16013G21KT 10SM FEW035 BKN100 BKN120 26/00 A3002 RMK AO2 LTG DSNT N TSE2059 T02560000,M
MEV,2022-06-23 21:15,-119.7500,38.9963,1441.42,82.40,32.00,16.17,330.00,7.00,0.00,30.05,M,10.00,12.00,CLR,M,M,M,M,M,M,M,M,M,M,M,M,M,M,80.00,KMEV 232115Z AUTO 33007G12KT 290V020 10SM CLR 28/M00 A3005 RMK AO2,M
RTS,2022-06-23 21:15,-119.8764,39.6682,1539.00,80.60,30.20,15.94,M,4.00,0.00,30.07,M,10.00,10.00,CLR,M,M,M,M,M,M,M,M,M,M,M,M,M,M,78.77,KRTS 232115Z AUTO VRB04G10KT 10SM CLR 27/M01 A3007 RMK AO2,M
BVU,2022-06-23 21:15,-114.8611,35.9475,671.00,98.60,41.00,13.87,140.00,8.00,0.00,29.85,M,10.00,13.00,SCT,M,M,M,12000.00,M,M,M,M,M,M,M,M,M,M,94.09,KBVU 232115Z AUTO 14008G13KT 110V180 10SM SCT120 37/05 A2985 RMK AO2 LTG DSNT E-S,M
TMT,2022-06-23 21:15,-117.1971,39.4643,1749.34,74.70,31.60,20.50,280.00,7.00,0.00,30.10,M,10.00,M,CLR,M,M,M,M,M,M,M,M,M,M,M,M,M,M,74.70,KTMT 232115Z AUTO 28007KT 240V310 10SM CLR 24/00 A3010 RMK AO2 T02371002,M
CXP,2022-06-23 21:15,-119.7326,39.1923,1431.00,82.40,30.20,15.03,330.00,8.00,0.00,30.05,M,10.00,16.00,CLR,M,M,M,M,M,M,M,M,M,M,M,M,M,M,79.97,KCXP 232115Z AUTO 33008G16KT 300V010 10SM CLR 28/M01 A3005 RMK AO2,M
05U,2022-06-23 21:15,-116.0051,39.6042,1811.23,73.40,42.80,33.29,M,3.00,0.00,30.11,M,10.00,M,CLR,M,M,M,M,M,M,M,M,M,M,M,M,M,M,73.40,K05U 232115Z AUTO VRB03KT 10SM CLR 23/06 A3011 RMK A01,M
BAM,2022-06-23 21:15,-116.8743,40.5990,1382.36,82.40,30.20,15.03,220.00,8.00,0.00,29.98,M,10.00,14.00,SCT,M,M,M,12000.00,M,M,M,M,M,M,M,M,M,M,79.97,KBAM 232115Z AUTO 22008G14KT 10SM SCT120 28/M01 A2998 RMK AO1,M
HTH,2022-06-23 21:15,-118.6315,38.5448,1282.89,82.40,32.00,16.17,M,6.00,0.00,30.01,M,10.00,M,CLR,M,M,M,M,M,M,M,M,M,M,M,M,M,M,80.00,KHTH 232115Z AUTO VRB06KT 10SM CLR 28/00 A3001 RMK A01,M
CXP,2022-06-23 21:30,-119.7326,39.1923,1431.00,82.40,30.20,15.03,80.00,9.00,0.00,30.04,M,10.00,15.00,CLR,M,M,M,M,M,M,M,M,M,M,M,M,M,M,79.97,KCXP 232130Z AUTO 08009G15KT 020V170 10SM CLR 28/M01 A3004 RMK AO2,M
TMT,2022-06-23 21:35,-117.1971,39.4643,1749.34,76.00,31.80,19.72,270.00,15.00,0.00,30.11,M,10.00,20.00,CLR,M,M,M,M,M,M,M,M,M,M,M,M,M,M,76.10,KTMT 232135Z AUTO 27015G20KT 10SM CLR 25/00 A3011 RMK AO2 T02451001,M
05U,2022-06-23 21:35,-116.0051,39.6042,1811.23,73.40,41.00,31.05,M,6.00,0.00,30.10,M,10.00,M,FEW,M,M,M,11000.00,M,M,M,M,M,M,M,M,M,M,73.40,K05U 232135Z AUTO VRB06KT 10SM FEW110 23/05 A3010 RMK A01,M
MEV,2022-06-23 21:35,-119.7500,38.9963,1441.42,82.40,30.20,15.03,340.00,15.00,0.00,30.04,M,10.00,20.00,FEW,M,M,M,12000.00,M,M,M,M,M,M,M,M,M,M,79.97,KMEV 232135Z AUTO 34015G20KT 10SM FEW120 28/M01 A3004 RMK AO2,M
BAM,2022-06-23 21:35,-116.8743,40.5990,1382.36,M,M,M,220.00,22.00,0.00,30.01,M,7.00,32.00,BKN,BKN,M,M,10000.00,12000.00,M,M,M,M,M,M,M,M,M,M,KBAM 232135Z AUTO 22022G32KT 7SM BKN100 BKN120 A3001 RMK AO1,M
HTH,2022-06-23 21:35,-118.6315,38.5448,1282.89,82.40,32.00,16.17,100.00,6.00,0.00,30.01,M,10.00,13.00,CLR,M,M,M,M,M,M,M,M,M,M,M,M,M,M,80.00,KHTH 232135Z AUTO 10006G13KT 10SM CLR 28/M00 A3001 RMK A01,M
RTS,2022-06-23 21:35,-119.8764,39.6682,1539.00,80.60,30.20,15.94,M,4.00,0.00,30.07,M,10.00,11.00,FEW,M,M,M,12000.00,M,M,M,M,M,M,M,M,M,M,78.77,KRTS 232135Z AUTO VRB04G11KT 10SM FEW120 27/M01 A3007 RMK AO2,M
BVU,2022-06-23 21:35,-114.8611,35.9475,671.00,96.80,44.60,16.83,130.00,15.00,0.00,29.84,M,10.00,M,SCT,M,M,M,12000.00,M,M,M,M,M,M,M,M,M,M,92.79,KBVU 232135Z AUTO 13015KT 10SM SCT120 36/07 A2984 RMK AO2,M
05U,2022-06-23 21:50,-116.0051,39.6042,1811.23,73.40,39.20,28.96,0.00,0.00,0.00,30.10,M,10.00,M,CLR,M,M,M,M,M,M,M,M,M,M,M,M,M,M,73.40,K05U 232150Z AUTO 00000KT 10SM CLR 23/04 A3010 RMK A01,M
ELY,2022-06-23 21:53,-114.8453,39.2950,1909.00,67.00,38.00,34.35,M,M,T,30.15,1012.90,7.00,M,FEW,BKN,OVC,M,4000.00,7000.00,9500.00,M,-RA,M,M,M,48.00,190.00,2022-06-23 21:47,66.90,KELY 232153Z AUTO 7SM -RA FEW040 BKN070 OVC095 19/03 A3015 RMK AO2 PK WND 19048/2147 RAB47 SLP129 P0000 T01940033,M
VGT,2022-06-23 21:53,-115.1933,36.2111,667.00,101.00,44.00,14.58,220.00,11.00,0.00,29.81,1008.20,10.00,21.00,FEW,M,M,M,12000.00,M,M,M,M,M,M,M,M,M,M,96.72,KVGT 232153Z 22011G21KT 10SM FEW120 38/07 A2981 RMK AO2 SLP082 T03830067,M
DRA,2022-06-23 21:53,-116.0278,36.6206,1009.00,89.00,46.00,22.54,240.00,16.00,0.00,29.92,1008.30,10.00,27.00,SCT,M,M,M,9500.00,M,M,M,M,M,M,M,27.00,240.00,2022-06-23 21:53,85.76,KDRA 232153Z AUTO 24016G27KT 10SM SCT095 32/08 A2992 RMK AO2 PK WND 24027/2153 SLP083 T03170078,M
P68,2022-06-23 21:53,-116.0056,39.6014,1993.00,72.00,38.00,28.85,40.00,4.00,0.00,30.08,1010.90,M,M,M,M,M,M,M,M,M,M,M,M,M,M,M,M,M,72.00,KP68 232153Z AUTO 04004KT 22/03 A3008 RMK AO1 SLP109 T02220033,M
LOL,2022-06-23 21:53,-118.5701,40.0684,1192.43,86.00,30.90,13.77,M,6.00,0.00,29.95,1010.00,10.00,M,CLR,M,M,M,M,M,M,M,M,M,M,M,M,M,M,82.64,KLOL 232153Z AUTO VRB06KT 10SM CLR 30/M01 A2995 RMK AO2 SLP100 T03001006,M
RNO,2022-06-23 21:55,-119.7711,39.4839,1341.00,86.00,34.00,15.60,20.00,8.00,0.00,30.01,1009.80,10.00,M,SCT,BKN,M,M,11000.00,23000.00,M,M,M,M,M,M,M,M,M,82.66,KRNO 232155Z 02008KT 330V040 10SM SCT110 BKN230 30/01 A3001 RMK AO2 LTG DSNT SW-NW SLP098 CB DSNT W THRU NW T03000011,M
RTS,2022-06-23 21:55,-119.8764,39.6682,1539.00,84.20,30.20,14.18,290.00,14.00,0.00,30.06,M,10.00,20.00,FEW,M,M,M,12000.00,M,M,M,M,M,M,M,M,M,M,81.26,KRTS 232155Z AUTO 29014G20KT 10SM FEW120 29/M01 A3006 RMK AO2,M
MEV,2022-06-23 21:55,-119.7500,38.9963,1441.42,84.20,30.20,14.18,320.00,14.00,0.00,30.04,M,10.00,21.00,CLR,M,M,M,M,M,M,M,M,M,M,M,M,M,M,81.26,KMEV 232155Z AUTO 32014G21KT 10SM CLR 29/M01 A3004 RMK AO2,M
BAM,2022-06-23 21:55,-116.8743,40.5990,1382.36,M,M,M,230.00,7.00,0.00,30.02,M,10.00,14.00,SCT,SCT,OVC,M,6000.00,7000.00,10000.00,M,M,M,M,M,M,M,M,M,KBAM 232155Z AUTO 23007G14KT 10SM SCT060 SCT070 OVC100 A3002 RMK AO1,M
HTH,2022-06-23 21:55,-118.6315,38.5448,1282.89,82.40,32.00,16.17,M,3.00,0.00,30.00,M,10.00,12.00,CLR,M,M,M,M,M,M,M,M,M,M,M,M,M,M,80.00,KHTH 232155Z AUTO VRB03G12KT 10SM CLR 28/M00 A3000 RMK A01,M
TMT,2022-06-23 21:55,-117.1971,39.4643,1749.34,74.50,36.50,25.10,290.00,20.00,0.00,30.12,M,10.00,30.00,CLR,M,M,M,M,M,M,M,M,M,M,M,M,M,M,74.50,KTMT 232155Z AUTO 29020G30KT 10SM CLR 24/03 A3012 RMK AO2 T02360025,M
CXP,2022-06-23 21:55,-119.7326,39.1923,1431.00,84.20,30.20,14.18,30.00,7.00,0.00,30.04,M,10.00,17.00,SCT,M,M,M,11000.00,M,M,M,M,M,M,M,M,M,M,81.26,KCXP 232155Z AUTO 03007G17KT 330V070 10SM SCT110 29/M01 A3004 RMK AO2 LTG DSNT W,M
BVU,2022-06-23 21:55,-114.8611,35.9475,671.00,98.60,44.60,15.93,110.00,10.00,0.00,29.83,M,10.00,18.00,FEW,M,M,M,12000.00,M,M,M,M,M,M,M,M,M,M,94.55,KBVU 232155Z AUTO 11010G18KT 10SM FEW120 37/07 A2983 RMK AO2 LTG DSNT SE AND S,M
EKO,2022-06-23 21:56,-115.7860,40.8242,1367.00,81.00,32.00,16.92,220.00,4.00,0.00,30.01,1010.60,10.00,15.00,FEW,M,M,M,11000.00,M,M,M,M,M,M,M,M,M,M,79.07,KEKO 232156Z AUTO 22004G15KT 10SM FEW110 27/00 A3001 RMK AO2 TSE2059 SLP106 T02720000,M
LAS,2022-06-23 21:56,-115.1634,36.0719,663.00,99.00,45.00,15.98,220.00,9.00,0.00,29.82,1007.10,10.00,24.00,SCT,SCT,M,M,11000.00,20000.00,M,M,M,M,M,M,M,M,M,95.00,KLAS 232156Z 22009G24KT 180V250 10SM SCT110 SCT200 37/07 A2982 RMK AO2 LTG DSNT SE SLP071 CB DSNT E-SE T03720072,M
HND,2022-06-23 21:56,-115.1344,35.9729,742.79,99.00,48.00,17.90,240.00,15.00,0.00,29.86,1009.70,10.00,19.00,BKN,M,M,M,11000.00,M,M,M,M,M,M,M,M,M,M,95.54,KHND 232156Z AUTO 24015G19KT 10SM BKN110 37/09 A2986 RMK AO2 LTG DSNT SE AND S SLP097 T03720089,M
NFL,2022-06-23 21:56,-118.7010,39.4166,1199.00,82.00,30.00,15.10,0.00,0.00,0.00,29.97,1012.00,10.00,M,SCT,BKN,BKN,M,7000.00,12000.00,17000.00,M,M,M,M,M,26.00,290.00,2022-06-23 21:00,79.69,KNFL 232156Z 00000KT 10SM SCT070 BKN120 BKN170 28/M01 A2997 RMK AO2 PK WND 29026/2100 SLP120 T02781011,M
WMC,2022-06-23 21:56,-117.8072,40.9019,1315.00,89.00,30.00,12.03,330.00,7.00,0.00,29.95,1009.10,10.00,14.00,CLR,M,M,M,M,M,M,M,M,M,M,M,30.00,270.00,2022-06-23 20:58,84.95,KWMC 232156Z AUTO 33007G14KT 290V040 10SM CLR 32/M01 A2995 RMK AO2 PK WND 27030/2058 LTG DSNT SE SLP091 T03171011,M
LSV,2022-06-23 21:58,-115.0343,36.2362,570.00,103.30,44.80,13.93,260.00,6.00,0.00,29.79,1006.00,10.00,M,SCT,M,M,M,15000.00,M,M,M,M,M,M,M,M,M,M,99.18,KLSV 232158Z 26006KT 10SM SCT150 40/07 A2979 RMK AO2A SLP060 T03960071 $,M
INS,2022-06-23 21:58,-115.6733,36.5872,955.00,95.00,38.30,13.94,250.00,12.00,0.00,29.89,1007.00,10.00,23.00,SCT,M,M,M,11000.00,M,M,M,M,M,M,M,M,M,M,90.51,KINS 232158Z AUTO 25012G23KT 10SM SCT110 35/04 A2989 RMK AO2 SLP070 T03500035 $,M
INS,2022-06-23 22:12,-115.6733,36.5872,955.00,95.00,37.40,13.46,210.00,17.00,0.00,29.88,1006.60,10.00,23.00,FEW,FEW,M,M,10000.00,13000.00,M,M,M,M,M,M,M,M,M,90.46,KINS 232212Z AUTO 21017G23KT 10SM FEW100 FEW130 35/03 A2988 RMK AO2 WSHFT 09 SLP066 $,M
TMT,2022-06-23 22:15,-117.1971,39.4643,1749.34,71.80,36.50,27.49,290.00,19.00,0.00,30.12,M,10.00,28.00,CLR,M,M,M,M,M,M,M,M,M,M,M,M,M,M,71.80,KTMT 232215Z AUTO 29019G28KT 10SM CLR 22/03 A3012 RMK AO2 T02210025,M
BVU,2022-06-23 22:15,-114.8611,35.9475,671.00,98.60,42.80,14.87,140.00,13.00,0.00,29.82,M,10.00,20.00,CLR,M,M,M,M,M,M,M,M,M,M,M,M,M,M,94.30,KBVU 232215Z AUTO 14013G20KT 10SM CLR 37/06 A2982 RMK AO2,M
HTH,2022-06-23 22:15,-118.6315,38.5448,1282.89,84.20,32.00,15.25,M,4.00,0.00,30.00,M,10.00,M,CLR,M,M,M,M,M,M,M,M,M,M,M,M,M,M,81.28,KHTH 232215Z AUTO VRB04KT 10SM CLR 29/M00 A3000 RMK A01,M
BAM,2022-06-23 22:15,-116.8743,40.5990,1382.36,M,M,M,340.00,4.00,0.00,30.03,M,10.00,8.00,SCT,SCT,OVC,M,3600.00,5500.00,10000.00,M,M,M,M,M,M,M,M,M,KBAM 232215Z AUTO 34004G08KT 10SM SCT036 SCT055 OVC100 A3003 RMK AO1,M
RTS,2022-06-23 22:15,-119.8764,39.6682,1539.00,82.40,30.20,15.03,290.00,16.00,0.00,30.06,M,10.00,22.00,CLR,M,M,M,M,M,M,M,M,M,M,M,M,M,M,79.97,KRTS 232215Z AUTO 29016G22KT 10SM CLR 28/M01 A3006 RMK AO2,M
05U,2022-06-23 22:15,-116.0051,39.6042,1811.23,75.20,35.60,23.66,280.00,12.00,0.00,30.10,M,10.00,17.00,CLR,M,M,M,M,M,M,M,M,M,M,M,M,M,M,75.20,K05U 232215Z AUTO 28012G17KT 10SM CLR 24/02 A3010 RMK A01,M
MEV,2022-06-23 22:15,-119.7500,38.9963,1441.42,84.20,33.80,16.39,280.00,14.00,0.00,30.03,M,10.00,21.00,SCT,M,M,M,12000.00,M,M,M,M,M,M,M,M,M,M,81.30,KMEV 232215Z AUTO 28014G21KT 240V310 10SM SCT120 29/01 A3003 RMK AO2 LTG DSNT NW,M
CXP,2022-06-23 22:15,-119.7326,39.1923,1431.00,84.20,30.20,14.18,310.00,15.00,0.00,30.04,M,10.00,M,FEW,M,M,M,11000.00,M,M,M,M,M,M,M,M,M,M,81.26,KCXP 232215Z AUTO 31015KT 10SM FEW110 29/M01 A3004 RMK AO2 LTG DSNT W,M
INS,2022-06-23 22:16,-115.6733,36.5872,955.00,95.00,37.40,13.46,250.00,17.00,0.00,29.88,1006.60,10.00,23.00,FEW,M,M,M,10000.00,M,M,M,M,M,M,M,M,M,M,90.46,KINS 232216Z AUTO 25017G23KT 10SM FEW100 35/03 A2988 RMK AO2 WSHFT 13 SLP066 $,M
MEV,2022-06-23 22:35,-119.7500,38.9963,1441.42,82.40,33.80,17.38,260.00,10.00,0.00,30.02,M,10.00,16.00,BKN,M,M,M,12000.00,M,M,M,M,M,M,M,M,M,M,80.03,KMEV 232235Z AUTO 26010G16KT 240V300 10SM BKN120 28/01 A3002 RMK AO2 LTG DSNT NW,M
05U,2022-06-23 22:35,-116.0051,39.6042,1811.23,73.40,33.80,23.39,0.00,0.00,0.00,30.11,M,10.00,16.00,CLR,M,M,M,M,M,M,M,M,M,M,M,M,M,M,73.40,K05U 232235Z AUTO 00000G16KT 10SM CLR 23/01 A3011 RMK A01,M
RTS,2022-06-23 22:35,-119.8764,39.6682,1539.00,82.40,30.20,15.03,270.00,17.00,0.00,30.06,M,10.00,M,CLR,M,M,M,M,M,M,M,M,M,M,M,M,M,M,79.97,KRTS 232235Z AUTO 27017KT 10SM CLR 28/M01 A3006 RMK AO2,M
CXP,2022-06-23 22:35,-119.7326,39.1923,1431.00,84.20,30.20,14.18,290.00,10.00,0.00,30.03,M,10.00,15.00,CLR,M,M,M,M,M,M,M,M,M,M,M,M,M,M,81.26,KCXP 232235Z AUTO 29010G15KT 10SM CLR 29/M01 A3003 RMK AO2 LTG DSNT S AND W,M
BVU,2022-06-23 22:35,-114.8611,35.9475,671.00,96.80,44.60,16.83,130.00,12.00,0.00,29.81,M,10.00,19.00,CLR,M,M,M,M,M,M,M,M,M,M,M,M,M,M,92.79,KBVU 232235Z AUTO 13012G19KT 10SM CLR 36/07 A2981 RMK AO2,M
TMT,2022-06-23 22:35,-117.1971,39.4643,1749.34,71.80,36.00,27.06,300.00,17.00,0.00,30.12,M,10.00,23.00,CLR,M,M,M,M,M,M,M,M,M,M,M,M,M,M,71.80,KTMT 232235Z AUTO 30017G23KT 10SM CLR 22/02 A3012 RMK AO2 LTG DSNT W T02210023,M
BAM,2022-06-23 22:35,-116.8743,40.5990,1382.36,M,M,M,280.00,17.00,0.00,30.04,M,10.00,22.00,SCT,SCT,M,M,9000.00,12000.00,M,M,M,M,M,M,M,M,M,M,KBAM 232235Z AUTO 28017G22KT 10SM SCT090 SCT120 A3004 RMK AO1,M
HTH,2022-06-23 22:35,-118.6315,38.5448,1282.89,84.20,32.00,15.25,80.00,5.00,0.00,29.99,M,10.00,18.00,FEW,M,M,M,11000.00,M,M,M,M,M,M,M,M,M,M,81.28,KHTH 232235Z AUTO 08005G18KT 10SM FEW110 29/M00 A2999 RMK A01,M
INS,2022-06-23 22:37,-115.6733,36.5872,955.00,93.20,39.20,15.27,210.00,13.00,0.00,29.88,1006.80,10.00,25.00,FEW,M,M,M,17000.00,M,M,M,M,M,M,M,M,M,M,88.92,KINS 232237Z AUTO 21013G25KT 10SM FEW170 34/04 A2988 RMK AO2 WSHFT 34 SLP068 $,M
INS,2022-06-23 22:41,-115.6733,36.5872,955.00,93.20,39.20,15.27,250.00,17.00,0.00,29.87,1006.40,10.00,25.00,FEW,M,M,M,17000.00,M,M,M,M,M,M,M,M,M,M,88.92,KINS 232241Z AUTO 25017G25KT 10SM FEW170 34/04 A2987 RMK AO2 WSHFT 37 SLP064 $,M
LOL,2022-06-23 22:53,-118.5701,40.0684,1192.43,84.00,34.00,16.63,130.00,12.00,0.00,29.94,1009.90,9.00,M,CLR,M,M,M,M,M,M,M,M,M,M,M,M,M,M,81.16,KLOL 232253Z AUTO 13012KT 9SM CLR 29/01 A2994 RMK AO2 SLP099 T02890011,M
LSV,2022-06-23 22:53,-115.0343,36.2362,570.00,102.20,44.60,14.29,170.00,12.00,0.00,29.76,M,10.00,18.00,BKN,M,M,M,14000.00,M,M,M,M,M,M,M,M,M,M,98.07,KLSV 232253Z 17012G18KT 10SM BKN140 39/07 A2976 RMK AO2A WSHFT 50 SLPNO $,M
VGT,2022-06-23 22:53,-115.1933,36.2111,667.00,101.00,44.00,14.58,250.00,10.00,0.00,29.79,1007.30,10.00,22.00,CLR,M,M,M,M,M,M,M,M,M,M,M,27.00,230.00,2022-06-23 21:58,96.72,KVGT 232253Z 25010G22KT 10SM CLR 38/07 A2979 RMK AO2 PK WND 23027/2158 LTG DSNT W SLP073 T03830067,M
P68,2022-06-23 22:53,-116.0056,39.6014,1993.00,76.00,32.00,20.01,40.00,5.00,0.00,30.07,1010.50,M,22.00,M,M,M,M,M,M,M,M,M,M,M,M,M,M,M,75.90,KP68 232253Z AUTO 04005G22KT 24/00 A3007 RMK AO1 SLP105 T02440000,M
DRA,2022-06-23 22:53,-116.0278,36.6206,1009.00,92.00,44.00,19.21,220.00,17.00,0.00,29.90,1007.50,10.00,24.00,CLR,M,M,M,M,M,M,M,M,M,M,M,M,M,M,88.09,KDRA 232253Z AUTO 22017G24KT 10SM CLR 33/07 A2990 RMK AO2 SLP075 T03330067,M
ELY,2022-06-23 22:53,-114.8453,39.2950,1909.00,74.00,37.00,26.12,200.00,9.00,T,30.11,1010.60,10.00,18.00,CLR,M,M,M,M,M,M,M,M,M,M,M,M,M,M,73.90,KELY 232253Z AUTO 20009G18KT 10SM CLR 23/03 A3011 RMK AO2 RAE02 SLP106 P0000 T02330028,M
BVU,2022-06-23 22:55,-114.8611,35.9475,671.00,96.80,42.80,15.71,M,5.00,0.00,29.81,M,10.00,16.00,CLR,M,M,M,M,M,M,M,M,M,M,M,M,M,M,92.57,KBVU 232255Z AUTO VRB05G16KT 10SM CLR 36/06 A2981 RMK AO2,M
BAM,2022-06-23 22:55,-116.8743,40.5990,1382.36,M,M,M,290.00,11.00,0.00,30.05,M,7.00,16.00,SCT,M,M,M,12000.00,M,M,M,M,M,M,M,M,M,M,M,KBAM 232255Z AUTO 29011G16KT 7SM SCT120 A3005 RMK AO1,M
CXP,2022-06-23 22:55,-119.7326,39.1923,1431.00,84.20,37.40,18.91,270.00,24.00,0.00,30.03,M,8.00,30.00,CLR,M,M,M,M,M,M,M,VCTS RA,M,M,M,M,M,M,81.38,KCXP 232255Z AUTO 27024G30KT 8SM VCTS RA CLR 29/03 A3003 RMK AO2 LTG DSNT W,M
HTH,2022-06-23 22:55,-118.6315,38.5448,1282.89,84.20,30.20,14.18,110.00,6.00,0.00,29.99,M,10.00,M,FEW,M,M,M,11000.00,M,M,M,M,M,M,M,M,M,M,81.26,KHTH 232255Z AUTO 11006KT 10SM FEW110 29/M01 A2999 RMK A01,M
RNO,2022-06-23 22:55,-119.7711,39.4839,1341.00,86.00,40.00,19.68,350.00,6.00,0.00,29.99,1009.50,10.00,M,SCT,BKN,M,M,11000.00,25000.00,M,M,M,M,M,M,M,M,M,82.81,KRNO 232255Z 35006KT 10SM SCT110 BKN250 30/04 A2999 RMK AO2 LTG DSNT SW AND W SLP095 CB DSNT S THRU NW T03000044,M
TMT,2022-06-23 22:55,-117.1971,39.4643,1749.34,72.50,36.70,27.06,300.00,13.00,0.00,30.11,M,10.00,M,CLR,M,M,M,M,M,M,M,M,M,M,M,M,M,M,72.50,KTMT 232255Z AUTO 30013KT 10SM CLR 23/03 A3011 RMK AO2 T02250026,M
RTS,2022-06-23 22:55,-119.8764,39.6682,1539.00,82.40,32.00,16.17,280.00,15.00,0.00,30.06,M,10.00,21.00,CLR,M,M,M,M,M,M,M,M,M,M,M,M,M,M,80.00,KRTS 232255Z AUTO 28015G21KT 10SM CLR 28/00 A3006 RMK AO2,M
05U,2022-06-23 22:55,-116.0051,39.6042,1811.23,77.00,32.00,19.30,M,5.00,0.00,30.10,M,10.00,16.00,CLR,M,M,M,M,M,M,M,M,M,M,M,M,M,M,77.00,K05U 232255Z AUTO VRB05G16KT 10SM CLR 25/M00 A3010 RMK A01,M
MEV,2022-06-23 22:55,-119.7500,38.9963,1441.42,82.40,39.20,21.51,270.00,18.00,0.00,30.03,M,10.00,23.00,SCT,M,M,M,12000.00,M,M,M,VCTS,M,M,M,M,M,M,80.21,KMEV 232255Z AUTO 27018G23KT 10SM VCTS SCT120 28/04 A3003 RMK AO2 LTG DSNT NW,M
EKO,2022-06-23 22:56,-115.7860,40.8242,1367.00,79.00,34.00,19.57,200.00,9.00,0.00,30.01,1010.90,10.00,20.00,FEW,M,M,M,10000.00,M,M,M,M,M,M,M,28.00,200.00,2022-06-23 22:09,79.00,KEKO 232256Z AUTO 20009G20KT 10SM FEW100 26/01 A3001 RMK AO2 PK WND 20028/2209 SLP109 T02610011,M
HND,2022-06-23 22:56,-115.1344,35.9729,742.79,99.00,47.00,17.17,260.00,14.00,0.00,29.84,1009.00,10.00,M,CLR,M,M,M,M,M,M,M,M,M,M,M,M,M,M,95.33,KHND 232256Z AUTO 26014KT 10SM CLR 37/08 A2984 RMK AO2 LTG DSNT S SLP090 T03720083,M
LAS,2022-06-23 22:56,-115.1634,36.0719,663.00,99.00,45.00,15.98,190.00,5.00,0.00,29.81,1006.50,10.00,19.00,SCT,SCT,M,M,11000.00,20000.00,M,M,M,M,M,M,M,M,M,95.00,KLAS 232256Z 19005G19KT 10SM SCT110 SCT200 37/07 A2981 RMK AO2 SLP065 VIRGA E CB DSNT W T03720072,M
NFL,2022-06-23 22:56,-118.7010,39.4166,1199.00,86.00,30.00,13.28,130.00,5.00,0.00,29.96,1011.80,10.00,M,SCT,BKN,BKN,BKN,7000.00,12000.00,17000.00,20000.00,M,M,M,M,M,M,M,82.64,KNFL 232256Z 13005KT 10SM SCT070CB BKN120 BKN170 BKN200 30/M01 A2996 RMK AO2 SLP118 CB DSNT E T03001011,M
WMC,2022-06-23 22:56,-117.8072,40.9019,1315.00,83.00,39.00,21.00,170.00,24.00,0.00,29.96,1009.50,3.00,38.00,FEW,M,M,M,12000.00,M,M,M,HZ,M,M,M,38.00,180.00,2022-06-23 22:49,80.53,KWMC 232256Z AUTO 17024G38KT 3SM HZ FEW120 28/04 A2996 RMK AO2 PK WND 18038/2249 LTG DSNT E SLP095 T02830039,M
INS,2022-06-23 22:58,-115.6733,36.5872,955.00,94.00,37.60,13.95,240.00,14.00,0.00,29.87,1006.40,10.00,21.00,FEW,FEW,M,M,11000.00,16000.00,M,M,M,M,M,M,29.00,230.00,2022-06-23 22:06,89.65,KINS 232258Z AUTO 24014G21KT 10SM FEW110 FEW160 35/03 A2987 RMK AO2 PK WND 23029/06 SLP064 T03450031 $,M
LSV,2022-06-23 22:58,-115.0343,36.2362,570.00,102.40,44.00,13.94,190.00,8.00,0.00,29.76,M,10.00,18.00,FEW,M,M,M,12000.00,M,M,M,M,M,M,M,M,M,M,98.18,KLSV 232258Z AUTO 19008G18KT 10SM FEW120 39/07 A2976 RMK AO2 SLPNO T03910067 $,M
CXP,2022-06-23 23:10,-119.7326,39.1923,1431.00,82.40,41.00,23.07,260.00,18.00,0.00,30.03,M,8.00,28.00,CLR,M,M,M,M,M,M,M,-RA,M,M,M,M,M,M,80.29,KCXP 232310Z AUTO 26018G28KT 8SM -RA CLR 28/05 A3003 RMK AO2,M
TMT,2022-06-23 23:15,-117.1971,39.4643,1749.34,75.40,35.80,23.69,310.00,13.00,0.00,30.11,M,10.00,17.00,CLR,M,M,M,M,M,M,M,M,M,M,M,M,M,M,75.40,KTMT 232315Z AUTO 31013G17KT 10SM CLR 24/02 A3011 RMK AO2 LTG DSNT W T02410021,M
RTS,2022-06-23 23:15,-119.8764,39.6682,1539.00,82.40,32.00,16.17,280.00,8.00,0.00,30.05,M,10.00,18.00,CLR,M,M,M,M,M,M,M,M,M,M,M,M,M,M,80.00,KRTS 232315Z AUTO 28008G18KT 250V310 10SM CLR 28/00 A3005 RMK AO2,M
BVU,2022-06-23 23:15,-114.8611,35.9475,671.00,96.80,42.80,15.71,190.00,9.00,0.00,29.80,M,10.00,16.00,CLR,M,M,M,M,M,M,M,M,M,M,M,M,M,M,92.57,KBVU 232315Z AUTO 19009G16KT 160V230 10SM CLR 36/06 A2980 RMK AO2 LTG DSNT S AND SW,M
HTH,2022-06-23 23:15,-118.6315,38.5448,1282.89,84.20,26.60,12.23,20.00,10.00,0.00,29.98,M,10.00,15.00,CLR,M,M,M,M,M,M,M,M,M,M,M,M,M,M,81.13,KHTH 232315Z AUTO 02010G15KT 10SM CLR 29/M03 A2998 RMK A01,M
BAM,2022-06-23 23:15,-116.8743,40.5990,1382.36,M,M,M,290.00,13.00,0.00,30.05,M,10.00,M,CLR,M,M,M,M,M,M,M,M,M,M,M,M,M,M,M,KBAM 232315Z AUTO 29013KT 10SM CLR A3005 RMK AO1,M
MEV,2022-06-23 23:15,-119.7500,38.9963,1441.42,80.60,41.00,24.46,290.00,17.00,0.00,30.04,M,10.00,26.00,BKN,M,M,M,12000.00,M,M,M,TS,M,M,M,M,M,M,79.20,KMEV 232315Z AUTO 29017G26KT 10SM TS BKN120 27/05 A3004 RMK AO2 LTG DSNT NW,M
05U,2022-06-23 23:15,-116.0051,39.6042,1811.23,75.20,33.80,22.02,90.00,8.00,0.00,30.09,M,10.00,15.00,SCT,M,M,M,11000.00,M,M,M,M,M,M,M,M,M,M,75.20,K05U 232315Z AUTO 09008G15KT 10SM SCT110 24/01 A3009 RMK A01,M
05U,2022-06-23 23:35,-116.0051,39.6042,1811.23,71.60,39.20,30.77,110.00,13.00,0.00,30.10,M,10.00,M,FEW,M,M,M,11000.00,M,M,M,M,M,M,M,M,M,M,71.60,K05U 232335Z AUTO 11013KT 10SM FEW110 22/04 A3010 RMK A01,M
BAM,2022-06-23 23:35,-116.8743,40.5990,1382.36,M,M,M,320.00,13.00,0.00,30.05,M,10.00,M,SCT,M,M,M,11000.00,M,M,M,M,M,M,M,M,M,M,M,KBAM 232335Z AUTO 32013KT 10SM SCT110 A3005 RMK AO1,M
CXP,2022-06-23 23:35,-119.7326,39.1923,1431.00,80.60,39.20,22.81,280.00,19.00,0.00,30.04,M,10.00,27.00,FEW,M,M,M,12000.00,M,M,M,M,M,M,M,M,M,M,79.10,KCXP 232335Z AUTO 28019G27KT 10SM FEW120 27/04 A3004 RMK AO2,M
HTH,2022-06-23 23:35,-118.6315,38.5448,1282.89,84.20,28.40,13.18,340.00,15.00,0.00,29.98,M,10.00,M,CLR,M,M,M,M,M,M,M,M,M,M,M,M,M,M,81.25,KHTH 232335Z AUTO 34015KT 10SM CLR 29/M02 A2998 RMK A01,M
TMT,2022-06-23 23:35,-117.1971,39.4643,1749.34,71.40,36.70,28.09,300.00,16.00,0.00,30.12,M,10.00,20.00,CLR,M,M,M,M,M,M,M,M,M,M,M,M,M,M,71.40,KTMT 232335Z AUTO 30016G20KT 10SM CLR 22/03 A3012 RMK AO2 T02190026,M
BVU,2022-06-23 23:35,-114.8611,35.9475,671.00,96.80,44.60,16.83,0.00,0.00,0.00,29.80,M,10.00,11.00,CLR,M,M,M,M,M,M,M,M,M,M,M,M,M,M,92.79,KBVU 232335Z AUTO 00000G11KT 10SM CLR 36/07 A2980 RMK AO2,M
RTS,2022-06-23 23:35,-119.8764,39.6682,1539.00,80.60,33.80,18.42,310.00,11.00,0.00,30.06,M,10.00,17.00,CLR,M,M,M,M,M,M,M,M,M,M,M,M,M,M,78.88,KRTS 232335Z AUTO 31011G17KT 10SM CLR 27/01 A3006 RMK AO2,M
MEV,2022-06-23 23:35,-119.7500,38.9963,1441.42,78.80,41.00,25.95,280.00,17.00,0.00,30.04,M,10.00,23.00,SCT,M,M,M,12000.00,M,M,M,M,M,M,M,M,M,M,78.80,KMEV 232335Z AUTO 28017G23KT 10SM SCT120 26/05 A3004 RMK AO2,M
ELY,2022-06-23 23:53,-114.8453,39.2950,1909.00,75.00,35.00,23.35,240.00,11.00,0.00,30.08,1010.00,10.00,18.00,CLR,M,M,M,M,M,M,M,M,M,M,M,M,M,M,75.00,KELY 232353Z AUTO 24011G18KT 10SM CLR 24/02 A3008 RMK AO2 SLP100 60000 T02390017 10261 20178 58020,M
LOL,2022-06-23 23:53,-118.5701,40.0684,1192.43,81.00,35.00,19.15,330.00,15.00,0.00,29.98,1011.50,8.00,32.00,BKN,M,M,M,11000.00,M,M,M,M,M,M,M,32.00,10.00,2022-06-23 23:52,79.17,KLOL 232353Z AUTO 33015G32KT 300V030 8SM BKN110 27/02 A2998 RMK AO2 PK WND 01032/2352 SLP115 T02720017 10317 20267 53008,M
DRA,2022-06-23 23:53,-116.0278,36.6206,1009.00,93.00,39.00,15.24,230.00,16.00,0.00,29.88,1007.00,10.00,28.00,SCT,M,M,M,10000.00,M,M,M,M,M,M,M,32.00,240.00,2022-06-23 23:39,88.73,KDRA 232353Z AUTO 23016G28KT 10SM SCT100 34/04 A2988 RMK AO2 PK WND 24032/2339 SLP070 T03390039 10350 20294 56020,M
P68,2022-06-23 23:53,-116.0056,39.6014,1993.00,69.00,42.00,37.50,70.00,5.00,0.00,30.07,1011.50,M,M,M,M,M,M,M,M,M,M,M,M,M,M,M,M,M,69.10,KP68 232353Z AUTO 07005KT 21/06 A3007 RMK AO1 SLP115 60007 T02060056 10267 20156 56009,M
VGT,2022-06-23 23:53,-115.1933,36.2111,667.00,101.00,45.00,15.09,270.00,19.00,0.00,29.78,1007.10,10.00,25.00,CLR,M,M,M,M,M,M,M,M,M,M,M,27.00,290.00,2022-06-23 23:39,96.87,KVGT 232353Z 27019G25KT 10SM CLR 38/07 A2978 RMK AO2 PK WND 29027/2339 SLP071 T03830072 10389 20328 56020,M
CXP,2022-06-23 23:55,-119.7326,39.1923,1431.00,78.80,41.00,25.95,270.00,17.00,0.00,30.04,M,10.00,27.00,CLR,M,M,M,M,M,M,M,M,M,M,M,M,M,M,78.80,KCXP 232355Z AUTO 27017G27KT 10SM CLR 26/05 A3004 RMK AO2 LTG DSNT S AND W,M
RNO,2022-06-23 23:55,-119.7711,39.4839,1341.00,83.00,43.00,24.51,270.00,15.00,0.00,30.01,1010.10,10.00,23.00,SCT,BKN,BKN,M,10000.00,14000.00,25000.00,M,M,M,M,M,28.00,230.00,2022-06-23 23:18,80.73,KRNO 232355Z 27015G23KT 10SM SCT100 BKN140 BKN250 28/06 A3001 RMK AO2 PK WND 23028/2318 LTG DSNT N AND SW SLP101 CB DSNT S THRU W T02830061 10317 20256 55007,M
RTS,2022-06-23 23:55,-119.8764,39.6682,1539.00,78.80,37.40,22.54,290.00,21.00,0.00,30.07,M,10.00,26.00,CLR,M,M,M,M,M,M,M,M,M,M,M,M,M,M,78.80,KRTS 232355Z AUTO 29021G26KT 10SM CLR 26/03 A3007 RMK AO2,M
05U,2022-06-23 23:55,-116.0051,39.6042,1811.23,68.00,42.80,40.00,0.00,0.00,0.00,30.09,M,9.00,11.00,CLR,M,M,M,M,M,M,M,M,M,M,M,M,M,M,68.00,K05U 232355Z AUTO 00000G11KT 9SM CLR 20/06 A3009 RMK A01,M
MEV,2022-06-23 23:55,-119.7500,38.9963,1441.42,77.00,41.00,27.53,280.00,15.00,0.00,30.04,M,10.00,22.00,CLR,M,M,M,M,M,M,M,M,M,M,M,M,M,M,77.00,KMEV 232355Z AUTO 28015G22KT 10SM CLR 25/05 A3004 RMK AO2,M
BAM,2022-06-23 23:55,-116.8743,40.5990,1382.36,M,M,M,330.00,11.00,0.00,30.04,M,10.00,M,SCT,M,M,M,11000.00,M,M,M,M,M,M,M,M,M,M,M,KBAM 232355Z AUTO 33011KT 10SM SCT110 A3004 RMK AO1,M
HTH,2022-06-23 23:55,-118.6315,38.5448,1282.89,82.40,32.00,16.17,300.00,13.00,0.00,29.99,M,10.00,M,CLR,M,M,M,M,M,M,M,M,M,M,M,M,M,M,80.00,KHTH 232355Z AUTO 30013KT 10SM CLR 28/M00 A2999 RMK A01,M
TMT,2022-06-23 23:55,-117.1971,39.4643,1749.34,73.20,37.80,27.60,300.00,17.00,0.00,30.11,M,10.00,24.00,CLR,M,M,M,M,M,M,M,M,M,M,M,M,M,M,73.20,KTMT 232355Z AUTO 30017G24KT 10SM CLR 23/03 A3011 RMK AO2 T02290032 10252 20191,M
BVU,2022-06-23 23:55,-114.8611,35.9475,671.00,96.80,41.00,14.66,150.00,9.00,0.00,29.79,M,10.00,25.00,CLR,M,M,M,M,M,M,M,M,M,M,M,M,M,M,92.39,KBVU 232355Z AUTO 15009G25KT 10SM CLR 36/05 A2979 RMK AO2,M
EKO,2022-06-23 23:56,-115.7860,40.8242,1367.00,82.00,30.00,15.10,250.00,12.00,0.00,30.00,1010.60,10.00,18.00,FEW,M,M,M,12000.00,M,M,M,M,M,M,M,M,M,M,79.69,KEKO 232356Z AUTO 25012G18KT 10SM FEW120 28/M01 A3000 RMK AO2 SLP106 60000 T02781011 10300 20244 56006,M
NFL,2022-06-23 23:56,-118.7010,39.4166,1199.00,85.00,30.90,14.26,150.00,9.00,0.00,29.95,1011.50,10.00,M,SCT,SCT,BKN,BKN,7000.00,12000.00,17000.00,20000.00,M,M,M,M,M,M,M,81.79,KNFL 232356Z 15009KT 10SM SCT070 SCT120 BKN170 BKN200 29/M01 A2995 RMK AO2 SLP115 T02941006 10311 20272 56014,M
HND,2022-06-23 23:56,-115.1344,35.9729,742.79,99.00,48.00,17.90,250.00,12.00,0.00,29.83,1008.60,10.00,17.00,CLR,M,M,M,M,M,M,M,M,M,M,M,27.00,210.00,2022-06-23 23:05,95.54,KHND 232356Z AUTO 25012G17KT 10SM CLR 37/09 A2983 RMK AO2 PK WND 21027/2305 SLP086 T03720089 10378 20317 56018,M
WMC,2022-06-23 23:56,-117.8072,40.9019,1315.00,79.00,41.00,25.78,200.00,15.00,0.00,29.99,1010.70,10.00,28.00,CLR,M,M,M,M,M,M,M,M,M,M,M,39.00,200.00,2022-06-23 23:26,79.00,KWMC 232356Z AUTO 20015G28KT 10SM CLR 26/05 A2999 RMK AO2 PK WND 20039/2326 SLP107 T02610050 10322 20250 53009,M
LAS,2022-06-23 23:56,-115.1634,36.0719,663.00,99.00,43.00,14.80,260.00,16.00,0.00,29.79,1006.00,10.00,24.00,SCT,SCT,M,M,11000.00,20000.00,M,M,M,M,M,M,M,M,M,94.72,KLAS 232356Z 26016G24KT 10SM SCT110 SCT200 37/06 A2979 RMK AO2 SLP060 VIRGA ALQDS T03720061 10378 20317 56019,M
LSV,2022-06-23 23:58,-115.0343,36.2362,570.00,100.60,46.20,15.93,210.00,8.00,0.00,29.75,M,10.00,19.00,BKN,M,M,M,13000.00,M,M,M,M,M,M,M,M,M,M,96.80,KLSV 232358Z 21008G19KT 10SM BKN130 38/08 A2975 RMK AO2A SLPNO T03810079 10401 20376 57022 $,M
INS,2022-06-23 23:58,-115.6733,36.5872,955.00,94.00,33.60,11.90,250.00,20.00,0.00,29.85,1005.80,10.00,30.00,SCT,BKN,M,M,12000.00,15000.00,M,M,M,M,M,M,30.00,250.00,2022-06-23 23:49,89.23,KINS 232358Z AUTO 25020G30KT 10SM SCT120 BKN150 35/01 A2985 RMK AO2 PK WND 25030/49 SLP058 T03450009 10350 20319 57019 $,M
