station,valid,lon,lat,elevation,tmpf,dwpf,relh,drct,sknt,p01i,alti,mslp,vsby,gust,skyc1,skyc2,skyc3,skyc4,skyl1,skyl2,skyl3,skyl4,wxcodes,ice_accretion_1hr,ice_accretion_3hr,ice_accretion_6hr,peak_wind_gust,peak_wind_drct,peak_wind_time,feel,metar,snowdepth
NFL,2022-08-10 00:05,-118.7010,39.4166,1199.00,75.00,63.00,66.27,130.00,16.00,T,30.00,M,6.00,23.00,BKN,OVC,M,M,8000.00,10000.00,M,M,-TSRA,M,M,M,M,M,M,75.00,KNFL 100005Z 13016G23KT 6SM -TSRA BKN080CB OVC100 24/17 A3000 RMK AO2 TSB2359 OCNL LTGIC E TS E MOVG NE P0000 T02390172,M
WMC,2022-08-10 00:11,-117.8072,40.9019,1315.00,70.00,64.00,81.27,190.00,11.00,T,30.13,M,8.00,22.00,OVC,M,M,M,11000.00,M,M,M,VCTS -RA,M,M,M,M,M,M,70.00,KWMC 100011Z AUTO 19011G22KT 8SM VCTS -RA OVC110 21/18 A3013 RMK AO2 WSHFT 2351 LTG DSNT ALQDS PRESRR P0000 T02110178 $,M
TPH,2022-08-10 00:14,-117.0904,38.0505,1654.00,77.00,59.00,53.80,0.00,0.00,0.00,30.15,M,10.00,M,BKN,OVC,M,M,8000.00,10000.00,M,M,VCTS,M,M,M,M,M,M,77.00,KTPH 100014Z AUTO 00000KT 10SM VCTS BKN080 OVC100 25/15 A3015 RMK AO2 LTG DSNT SW TSE08 T02500150,M
HTH,2022-08-10 00:15,-118.6315,38.5448,1282.89,80.60,59.00,47.79,330.00,3.00,0.00,30.01,M,10.00,M,FEW,FEW,M,M,6500.00,12000.00,M,M,M,M,M,M,M,M,M,81.11,KHTH 100015Z AUTO 33003KT 10SM FEW065 FEW120 27/15 A3001 RMK A01,M
TMT,2022-08-10 00:15,-117.1971,39.4643,1749.34,M,M,M,270.00,4.00,0.00,30.19,M,10.00,M,SCT,SCT,BKN,M,3800.00,4400.00,11000.00,M,-RA,M,M,M,M,M,M,M,KTMT 100015Z AUTO 27004KT 10SM -RA SCT038 SCT044 BKN110 A3019 RMK AO2 LTG DSNT N AND SW,M
BVU,2022-08-10 00:15,-114.8611,35.9475,671.00,89.60,60.80,38.18,220.00,16.00,0.00,29.94,M,M,M,M,M,M,M,M,M,M,M,M,M,M,M,M,M,M,89.54,KBVU 100015Z AUTO 22016KT 32/16 A2994 RMK AO2 PWINO TSNO,M
MEV,2022-08-10 00:15,-119.7500,38.9963,1441.42,87.80,46.40,23.85,190.00,14.00,0.00,30.05,M,10.00,20.00,CLR,M,M,M,M,M,M,M,M,M,M,M,M,M,M,84.68,KMEV 100015Z AUTO 19014G20KT 10SM CLR 31/08 A3005 RMK AO2,M
RTS,2022-08-10 00:15,-119.8764,39.6682,1539.00,84.20,48.20,28.63,240.00,18.00,0.00,30.07,M,10.00,M,CLR,M,M,M,M,M,M,M,M,M,M,M,M,M,M,82.04,KRTS 100015Z AUTO 24018KT 10SM CLR 29/09 A3007 RMK AO2,M
BAM,2022-08-10 00:15,-116.8743,40.5990,1382.36,77.00,60.80,57.36,260.00,22.00,0.00,30.13,M,10.00,32.00,SCT,SCT,OVC,M,6000.00,7500.00,10000.00,M,M,M,M,M,M,M,M,77.00,KBAM 100015Z AUTO 26022G32KT 10SM SCT060 SCT075 OVC100 25/16 A3013 RMK AO1,M
CXP,2022-08-10 00:15,-119.7326,39.1923,1431.00,87.80,46.40,23.85,200.00,10.00,0.00,30.05,M,10.00,M,CLR,M,M,M,M,M,M,M,M,M,M,M,M,M,M,84.68,KCXP 100015Z AUTO 20010KT 10SM CLR 31/08 A3005 RMK AO2,M
TPH,2022-08-10 00:31,-117.0904,38.0505,1654.00,78.00,58.00,49.87,190.00,3.00,0.00,30.15,M,10.00,M,SCT,BKN,M,M,7500.00,11000.00,M,M,M,M,M,M,M,M,M,78.10,KTPH 100031Z AUTO 19003KT 10SM SCT075 BKN110 26/14 A3015 RMK AO2 LTG DSNT N TSE08 T02560144,M
WMC,2022-08-10 00:32,-117.8072,40.9019,1315.00,66.00,62.00,87.24,150.00,22.00,0.06,30.14,M,4.00,33.00,FEW,BKN,OVC,M,8000.00,10000.00,12000.00,M,RA BR,M,M,M,33.00,160.00,2022-08-10 00:29,66.00,KWMC 100032Z AUTO 15022G33KT 4SM RA BR FEW080 BKN100 OVC120 19/17 A3014 RMK AO2 PK WND 16033/0029 WSHFT 2351 LTG DSNT ALQDS P0006 T01890167 $,M
MEV,2022-08-10 00:35,-119.7500,38.9963,1441.42,86.00,46.40,25.26,190.00,8.00,0.00,30.05,M,10.00,18.00,FEW,M,M,M,9000.00,M,M,M,M,M,M,M,M,M,M,83.22,KMEV 100035Z AUTO 19008G18KT 10SM FEW090 30/08 A3005 RMK AO2,M
BAM,2022-08-10 00:35,-116.8743,40.5990,1382.36,73.40,59.00,60.67,240.00,19.00,0.00,30.12,M,10.00,25.00,SCT,SCT,BKN,M,6500.00,10000.00,12000.00,M,M,M,M,M,M,M,M,73.40,KBAM 100035Z AUTO 24019G25KT 10SM SCT065 SCT100 BKN120 23/15 A3012 RMK AO1,M
HTH,2022-08-10 00:35,-118.6315,38.5448,1282.89,80.60,59.00,47.79,310.00,4.00,0.00,30.01,M,10.00,M,CLR,M,M,M,M,M,M,M,M,M,M,M,M,M,M,81.11,KHTH 100035Z AUTO 31004KT 10SM CLR 27/15 A3001 RMK A01,M
TMT,2022-08-10 00:35,-117.1971,39.4643,1749.34,M,M,M,230.00,3.00,0.00,30.19,M,10.00,M,SCT,SCT,BKN,M,3800.00,5000.00,11000.00,M,-VCTSRA,M,M,M,M,M,M,M,KTMT 100035Z AUTO 23003KT 10SM -VCTSRA SCT038 SCT050 BKN110 A3019 RMK AO2 LTG DSNT SW,M
CXP,2022-08-10 00:35,-119.7326,39.1923,1431.00,86.00,48.20,27.03,M,5.00,0.00,30.06,M,10.00,11.00,CLR,M,M,M,M,M,M,M,M,M,M,M,M,M,M,83.40,KCXP 100035Z AUTO VRB05G11KT 10SM CLR 30/09 A3006 RMK AO2,M
RTS,2022-08-10 00:35,-119.8764,39.6682,1539.00,82.40,48.20,30.35,250.00,18.00,0.00,30.07,M,10.00,23.00,FEW,SCT,M,M,10000.00,12000.00,M,M,M,M,M,M,M,M,M,80.80,KRTS 100035Z AUTO 25018G23KT 10SM FEW100 SCT120 28/09 A3007 RMK AO2,M
BVU,2022-08-10 00:35,-114.8611,35.9475,671.00,89.60,60.80,38.18,230.00,10.00,0.00,29.94,M,M,M,M,M,M,M,M,M,M,M,M,M,M,M,M,M,M,89.54,KBVU 100035Z AUTO 23010KT 32/16 A2994 RMK AO2 PWINO TSNO,M
INS,2022-08-10 00:35,-115.6733,36.5872,955.00,78.80,60.80,54.05,0.00,0.00,0.00,29.99,1010.80,10.00,M,BKN,M,M,M,13000.00,M,M,M,-RA,M,M,M,M,M,M,78.80,KINS 100035Z AUTO 00000KT 10SM -RA BKN130 26/16 A2999 RMK AO2 DZE2358RAB2358E2359RAB35 SLP108,M
ELY,2022-08-10 00:35,-114.8453,39.2950,1909.00,72.00,53.00,51.37,170.00,15.00,0.00,30.25,M,10.00,27.00,BKN,M,M,M,11000.00,M,M,M,M,M,M,M,27.00,170.00,2022-08-10 00:28,72.00,KELY 100035Z AUTO 17015G27KT 10SM BKN110 22/12 A3025 RMK AO2 PK WND 17027/0028 WSHFT 0015 LTG DSNT NW T02220117,M
INS,2022-08-10 00:39,-115.6733,36.5872,955.00,78.80,60.80,54.05,0.00,0.00,0.00,29.99,1010.80,10.00,M,BKN,M,M,M,13000.00,M,M,M,M,M,M,M,M,M,M,78.80,KINS 100039Z AUTO 00000KT 10SM BKN130 26/16 A2999 RMK AO2 DZE2358RAB2358E2359RAB35E39 SLP108,M
NFL,2022-08-10 00:45,-118.7010,39.4166,1199.00,82.00,60.00,47.49,120.00,15.00,T,29.99,M,10.00,M,BKN,BKN,BKN,M,8000.00,12000.00,25000.00,M,M,M,M,M,M,M,M,82.40,KNFL 100045Z 12015KT 10SM BKN080 BKN120 BKN250 28/16 A2999 RMK AO2 RAE39 TSB2359E39 OCNL LTGIC DSNT NE TS DISPTD CB DSNT NE P0000 T02780156,M
LOL,2022-08-10 00:53,-118.5701,40.0684,1192.43,83.00,56.00,39.66,130.00,14.00,0.00,29.99,1011.50,10.00,M,CLR,M,M,M,M,M,M,M,M,M,M,M,M,M,M,82.20,KLOL 100053Z AUTO 13014KT 10SM CLR 28/13 A2999 RMK AO2 SLP115 T02830133,M
VGT,2022-08-10 00:53,-115.1933,36.2111,667.00,92.00,61.00,35.77,180.00,10.00,0.00,29.91,1011.30,10.00,M,CLR,M,M,M,M,M,M,M,M,M,M,M,M,M,M,92.01,KVGT 100053Z 18010KT 10SM CLR 33/16 A2991 RMK AO2 SLP113 T03330161,M
DRA,2022-08-10 00:53,-116.0278,36.6206,1009.00,84.00,58.00,41.14,100.00,13.00,0.00,29.98,1010.00,10.00,19.00,CLR,M,M,M,M,M,M,M,M,M,M,M,M,M,M,83.47,KDRA 100053Z AUTO 10013G19KT 10SM CLR 29/14 A2998 RMK AO2 SLP100 T02890144,M
ELY,2022-08-10 00:53,-114.8453,39.2950,1909.00,70.00,51.00,51.07,270.00,12.00,0.00,30.26,1015.80,10.00,22.00,BKN,M,M,M,11000.00,M,M,M,M,M,M,M,27.00,170.00,2022-08-10 00:28,70.00,KELY 100053Z AUTO 27012G22KT 10SM BKN110 21/11 A3026 RMK AO2 PK WND 17027/0028 WSHFT 0015 LTG DSNT SW AND NW SLP158 T02110106,M
BVU,2022-08-10 00:55,-114.8611,35.9475,671.00,89.60,60.80,38.18,220.00,9.00,0.00,29.94,M,M,M,M,M,M,M,M,M,M,M,M,M,M,M,M,M,M,89.54,KBVU 100055Z AUTO 22009KT 32/16 A2994 RMK AO2 PWINO TSNO,M
CXP,2022-08-10 00:55,-119.7326,39.1923,1431.00,84.20,48.20,28.63,270.00,11.00,0.00,30.06,M,10.00,16.00,CLR,M,M,M,M,M,M,M,M,M,M,M,M,M,M,82.04,KCXP 100055Z AUTO 27011G16KT 10SM CLR 29/09 A3006 RMK AO2,M
HTH,2022-08-10 00:55,-118.6315,38.5448,1282.89,80.60,60.80,50.95,320.00,3.00,0.00,30.01,M,10.00,M,CLR,M,M,M,M,M,M,M,M,M,M,M,M,M,M,81.46,KHTH 100055Z AUTO 32003KT 10SM CLR 27/16 A3001 RMK A01,M
TMT,2022-08-10 00:55,-117.1971,39.4643,1749.34,M,M,M,0.00,0.00,0.00,30.20,M,10.00,M,BKN,M,M,M,11000.00,M,M,M,-VCTSRA,M,M,M,M,M,M,M,KTMT 100055Z AUTO 00000KT 10SM -VCTSRA BKN110 A3020 RMK AO2 LTG DSNT NE SW AND W,M
MEV,2022-08-10 00:55,-119.7500,38.9963,1441.42,84.20,48.20,28.63,240.00,8.00,0.00,30.06,M,10.00,13.00,FEW,M,M,M,9500.00,M,M,M,M,M,M,M,M,M,M,82.04,KMEV 100055Z AUTO 24008G13KT 10SM FEW095 29/09 A3006 RMK AO2,M
RTS,2022-08-10 00:55,-119.8764,39.6682,1539.00,84.20,48.20,28.63,230.00,16.00,0.00,30.07,M,10.00,21.00,FEW,SCT,M,M,9500.00,12000.00,M,M,M,M,M,M,M,M,M,82.04,KRTS 100055Z AUTO 23016G21KT 10SM FEW095 SCT120 29/09 A3007 RMK AO2,M
RNO,2022-08-10 00:55,-119.7711,39.4839,1341.00,88.00,50.00,27.12,180.00,9.00,0.00,30.01,1010.10,10.00,M,FEW,SCT,M,M,10000.00,25000.00,M,M,M,M,M,M,M,M,M,85.28,KRNO 100055Z 18009KT 10SM FEW100 SCT250 31/10 A3001 RMK AO2 LTG DSNT N AND E SLP101 CB DSNT N THRU E T03110100,M
BAM,2022-08-10 00:55,-116.8743,40.5990,1382.36,73.40,59.00,60.67,210.00,10.00,0.00,30.12,M,10.00,18.00,SCT,BKN,M,M,9000.00,11000.00,M,M,M,M,M,M,M,M,M,73.40,KBAM 100055Z AUTO 21010G18KT 10SM SCT090 BKN110 23/15 A3012 RMK AO1,M
LAS,2022-08-10 00:56,-115.1634,36.0719,663.00,88.00,59.00,37.66,190.00,9.00,0.00,29.93,1010.70,10.00,16.00,FEW,SCT,BKN,OVC,8500.00,11000.00,18000.00,22000.00,M,M,M,M,M,M,M,87.31,KLAS 100056Z 19009G16KT 10SM FEW085 SCT110 BKN180 OVC220 31/15 A2993 RMK AO2 SLP107 CB DSNT ALQDS T03110150,M
HND,2022-08-10 00:56,-115.1344,35.9729,742.79,84.00,63.00,49.32,190.00,9.00,0.00,29.97,1013.60,10.00,M,CLR,M,M,M,M,M,M,M,M,M,M,M,M,M,M,84.99,KHND 100056Z 19009KT 10SM CLR 29/17 A2997 RMK AO2 SLP136 T02890172,M
EKO,2022-08-10 00:56,-115.7860,40.8242,1367.00,78.00,50.00,37.36,0.00,0.00,0.00,30.09,1013.70,10.00,M,CLR,M,M,M,M,M,M,M,M,M,M,M,M,M,M,78.10,KEKO 100056Z AUTO 00000KT 10SM CLR 26/10 A3009 RMK AO2 SLP137 T02560100,M
WMC,2022-08-10 00:56,-117.8072,40.9019,1315.00,65.00,60.00,84.44,150.00,15.00,0.11,30.12,1016.20,7.00,M,OVC,M,M,M,10000.00,M,M,M,RA,M,M,M,33.00,160.00,2022-08-10 00:29,64.90,KWMC 100056Z AUTO 15015KT 7SM RA OVC100 18/16 A3012 RMK AO2 PK WND 16033/0029 WSHFT 2351 LTG DSNT NE AND E SLP162 P0011 T01830156 $,M
NFL,2022-08-10 00:56,-118.7010,39.4166,1199.00,81.00,60.00,49.06,120.00,13.00,T,29.99,1012.50,10.00,M,BKN,BKN,BKN,M,8000.00,12000.00,25000.00,M,M,M,M,M,M,M,M,81.62,KNFL 100056Z 12013KT 10SM BKN080 BKN120 BKN250 27/16 A2999 RMK AO2 RAE39 TSB2359E39 SLP125 OCNL LTGIC DSNT NE TS DISPTD CB DSNT NE P0000 T02720156,M
TPH,2022-08-10 00:56,-117.0904,38.0505,1654.00,76.00,61.00,59.92,30.00,6.00,T,30.15,1013.40,10.00,M,SCT,BKN,M,M,8000.00,10000.00,M,M,-RA,M,M,M,M,M,M,75.90,KTPH 100056Z AUTO 03006KT 10SM -RA SCT080 BKN100 24/16 A3015 RMK AO2 LTG DSNT N RAB44 TSE08 SLP134 P0000 T02440161,M
LSV,2022-08-10 00:58,-115.0343,36.2362,570.00,93.20,60.60,33.87,190.00,17.00,0.00,29.89,1009.40,10.00,M,FEW,SCT,BKN,M,13000.00,15000.00,17000.00,M,M,M,M,M,M,M,M,93.23,KLSV 100058Z 19017KT 10SM FEW130 SCT150 BKN170 34/16 A2989 RMK AO2A SLP094 T03400159 $,M
INS,2022-08-10 00:58,-115.6733,36.5872,955.00,79.70,59.40,49.93,0.00,0.00,T,29.99,1010.80,10.00,M,OVC,M,M,M,13000.00,M,M,M,M,M,M,M,M,M,M,79.70,KINS 100058Z AUTO 00000KT 10SM OVC130 27/15 A2999 RMK AO2 DZE2358RAB2358E2359RAB35E39 SLP108 P0000 T02650152,M
ELY,2022-08-10 01:02,-114.8453,39.2950,1909.00,68.00,52.00,56.55,270.00,16.00,0.00,30.26,M,10.00,25.00,SCT,M,M,M,12000.00,M,M,M,M,M,M,M,M,M,M,68.00,KELY 100102Z AUTO 27016G25KT 10SM SCT120 20/11 A3026 RMK AO2 WSHFT 0042 LTG DSNT SW T02000111,M
HTH,2022-08-10 01:15,-118.6315,38.5448,1282.89,80.60,60.80,50.95,10.00,4.00,0.00,30.01,M,10.00,M,CLR,M,M,M,M,M,M,M,M,M,M,M,M,M,M,81.46,KHTH 100115Z AUTO 01004KT 10SM CLR 27/16 A3001 RMK A01,M
BVU,2022-08-10 01:15,-114.8611,35.9475,671.00,89.60,59.00,35.81,230.00,8.00,0.00,29.95,M,M,M,M,M,M,M,M,M,M,M,M,M,M,M,M,M,M,88.86,KBVU 100115Z AUTO 23008KT 32/15 A2995 RMK AO2 PWINO TSNO,M
TMT,2022-08-10 01:15,-117.1971,39.4643,1749.34,M,M,M,210.00,14.00,0.00,30.22,M,10.00,17.00,SCT,M,M,M,11000.00,M,M,M,M,M,M,M,M,M,M,M,KTMT 100115Z AUTO 21014G17KT 10SM SCT110 A3022 RMK AO2 LTG DSNT E W AND NW,M
CXP,2022-08-10 01:15,-119.7326,39.1923,1431.00,84.20,48.20,28.63,260.00,13.00,0.00,30.07,M,10.00,21.00,CLR,M,M,M,M,M,M,M,M,M,M,M,M,M,M,82.04,KCXP 100115Z AUTO 26013G21KT 220V280 10SM CLR 29/09 A3007 RMK AO2,M
RTS,2022-08-10 01:15,-119.8764,39.6682,1539.00,80.60,48.20,32.18,250.00,20.00,0.00,30.08,M,10.00,26.00,FEW,BKN,M,M,9000.00,11000.00,M,M,M,M,M,M,M,M,M,79.71,KRTS 100115Z AUTO 25020G26KT 10SM FEW090 BKN110 27/09 A3008 RMK AO2,M
MEV,2022-08-10 01:15,-119.7500,38.9963,1441.42,82.40,48.20,30.35,200.00,12.00,0.00,30.06,M,10.00,M,FEW,M,M,M,11000.00,M,M,M,M,M,M,M,M,M,M,80.80,KMEV 100115Z AUTO 20012KT 10SM FEW110 28/09 A3006 RMK AO2,M
BAM,2022-08-10 01:15,-116.8743,40.5990,1382.36,71.60,59.00,64.48,210.00,10.00,0.00,30.13,M,10.00,15.00,OVC,M,M,M,11000.00,M,M,M,M,M,M,M,M,M,M,71.60,KBAM 100115Z AUTO 21010G15KT 10SM OVC110 22/15 A3013 RMK AO1,M
NFL,2022-08-10 01:28,-118.7010,39.4166,1199.00,80.00,59.00,48.58,170.00,6.00,T,30.02,M,10.00,M,SCT,BKN,OVC,M,5000.00,8000.00,10000.00,M,-TSRA,M,M,M,M,M,M,80.76,KNFL 100128Z 17006KT 10SM -TSRA SCT050 BKN080CB OVC100 27/15 A3002 RMK AO2 RAB22 TSB22 PRESRR CBMAM OHD OCNL LTGIC OHD TS OHD MOVG NE P0000 T02670150,M
MEV,2022-08-10 01:35,-119.7500,38.9963,1441.42,78.80,48.20,34.13,230.00,11.00,0.00,30.06,M,10.00,M,CLR,M,M,M,M,M,M,M,M,M,M,M,M,M,M,78.80,KMEV 100135Z AUTO 23011KT 10SM CLR 26/09 A3006 RMK AO2,M
TMT,2022-08-10 01:35,-117.1971,39.4643,1749.34,M,M,M,220.00,14.00,0.00,30.22,M,10.00,21.00,SCT,M,M,M,11000.00,M,M,M,VCTS,M,M,M,M,M,M,M,KTMT 100135Z AUTO 22014G21KT 10SM VCTS SCT110 A3022 RMK AO2 LTG DSNT S AND NW,M
BVU,2022-08-10 01:35,-114.8611,35.9475,671.00,89.60,59.00,35.81,220.00,7.00,0.00,29.96,M,M,M,M,M,M,M,M,M,M,M,M,M,M,M,M,M,M,88.86,KBVU 100135Z AUTO 22007KT 32/15 A2996 RMK AO2 PWINO TSNO,M
CXP,2022-08-10 01:35,-119.7326,39.1923,1431.00,82.40,48.20,30.35,260.00,7.00,0.00,30.07,M,10.00,16.00,CLR,M,M,M,M,M,M,M,M,M,M,M,M,M,M,80.80,KCXP 100135Z AUTO 26007G16KT 240V300 10SM CLR 28/09 A3007 RMK AO2,M
RTS,2022-08-10 01:35,-119.8764,39.6682,1539.00,78.80,48.20,34.13,240.00,16.00,0.00,30.08,M,10.00,25.00,SCT,M,M,M,10000.00,M,M,M,M,M,M,M,M,M,M,78.80,KRTS 100135Z AUTO 24016G25KT 10SM SCT100 26/09 A3008 RMK AO2,M
HTH,2022-08-10 01:35,-118.6315,38.5448,1282.89,78.80,59.00,50.69,70.00,12.00,0.00,30.02,M,10.00,19.00,CLR,M,M,M,M,M,M,M,M,M,M,M,M,M,M,78.80,KHTH 100135Z AUTO 07012G19KT 10SM CLR 26/15 A3002 RMK A01,M
BAM,2022-08-10 01:35,-116.8743,40.5990,1382.36,71.60,59.00,64.48,210.00,9.00,0.00,30.13,M,10.00,M,BKN,M,M,M,10000.00,M,M,M,M,M,M,M,M,M,M,71.60,KBAM 100135Z AUTO 21009KT 10SM BKN100 22/15 A3013 RMK AO1,M
CXP,2022-08-10 01:50,-119.7326,39.1923,1431.00,80.60,48.20,32.18,270.00,9.00,0.00,30.08,M,10.00,14.00,CLR,M,M,M,M,M,M,M,M,M,M,M,M,M,M,79.71,KCXP 100150Z AUTO 27009G14KT 10SM CLR 27/09 A3008 RMK AO2,M
LOL,2022-08-10 01:53,-118.5701,40.0684,1192.43,81.00,56.00,42.19,140.00,11.00,0.00,30.00,1011.90,10.00,M,CLR,M,M,M,M,M,M,M,M,M,M,M,M,M,M,80.87,KLOL 100153Z AUTO 14011KT 10SM CLR 27/13 A3000 RMK AO2 LTG DSNT E SLP119 T02720133,M
VGT,2022-08-10 01:53,-115.1933,36.2111,667.00,91.00,60.00,35.64,170.00,12.00,0.00,29.93,1012.20,10.00,M,CLR,M,M,M,M,M,M,M,M,M,M,M,M,M,M,90.69,KVGT 100153Z 17012KT 10SM CLR 33/16 A2993 RMK AO2 SLP122 T03280156,M
ELY,2022-08-10 01:53,-114.8453,39.2950,1909.00,64.00,58.00,80.54,200.00,3.00,0.01,30.29,1016.80,6.00,M,OVC,M,M,M,10000.00,M,M,M,-RA,M,M,M,26.00,250.00,2022-08-10 01:13,64.00,KELY 100153Z AUTO 20003KT 6SM -RA OVC100 18/14 A3029 RMK AO2 PK WND 25026/0113 WSHFT 0042 RAB19 SLP168 P0001 T01780144,M
DRA,2022-08-10 01:53,-116.0278,36.6206,1009.00,85.00,57.00,38.69,110.00,9.00,0.00,29.99,1010.20,10.00,M,CLR,M,M,M,M,M,M,M,M,M,M,M,M,M,M,83.99,KDRA 100153Z AUTO 11009KT 10SM CLR 29/14 A2999 RMK AO2 SLP102 T02940139,M
BAM,2022-08-10 01:55,-116.8743,40.5990,1382.36,73.40,59.00,60.67,170.00,6.00,0.00,30.13,M,10.00,M,BKN,BKN,M,M,9000.00,12000.00,M,M,M,M,M,M,M,M,M,73.40,KBAM 100155Z AUTO 17006KT 10SM BKN090 BKN120 23/15 A3013 RMK AO1,M
HTH,2022-08-10 01:55,-118.6315,38.5448,1282.89,77.00,59.00,53.80,80.00,17.00,0.00,30.02,M,10.00,M,CLR,M,M,M,M,M,M,M,M,M,M,M,M,M,M,77.00,KHTH 100155Z AUTO 08017KT 10SM CLR 25/15 A3002 RMK A01,M
RNO,2022-08-10 01:55,-119.7711,39.4839,1341.00,84.00,51.00,32.10,260.00,11.00,0.00,30.03,1010.90,10.00,18.00,FEW,SCT,M,M,11000.00,25000.00,M,M,M,M,M,M,M,M,M,82.23,KRNO 100155Z 26011G18KT 10SM FEW110 SCT250 29/11 A3003 RMK AO2 SLP109 CB DSNT N THRU SE T02890106,M
TMT,2022-08-10 01:55,-117.1971,39.4643,1749.34,M,M,M,210.00,8.00,0.00,30.22,M,10.00,M,BKN,M,M,M,10000.00,M,M,M,VCTS,M,M,M,M,M,M,M,KTMT 100155Z AUTO 21008KT 10SM VCTS BKN100 A3022 RMK AO2 LTG DSNT N THRU E,M
BVU,2022-08-10 01:55,-114.8611,35.9475,671.00,89.60,59.00,35.81,170.00,13.00,0.00,29.96,M,M,M,M,M,M,M,M,M,M,M,M,M,M,M,M,M,M,88.86,KBVU 100155Z AUTO 17013KT 32/15 A2996 RMK AO2 PWINO TSNO,M
RTS,2022-08-10 01:55,-119.8764,39.6682,1539.00,78.80,48.20,34.13,240.00,17.00,0.00,30.09,M,10.00,22.00,BKN,BKN,M,M,10000.00,12000.00,M,M,M,M,M,M,M,M,M,78.80,KRTS 100155Z AUTO 24017G22KT 10SM BKN100 BKN120 26/09 A3009 RMK AO2,M
MEV,2022-08-10 01:55,-119.7500,38.9963,1441.42,78.80,46.40,31.90,220.00,12.00,0.00,30.07,M,10.00,M,CLR,M,M,M,M,M,M,M,M,M,M,M,M,M,M,78.80,KMEV 100155Z AUTO 22012KT 10SM CLR 26/08 A3007 RMK AO2,M
EKO,2022-08-10 01:56,-115.7860,40.8242,1367.00,72.00,56.00,56.89,220.00,7.00,0.00,30.10,1014.70,10.00,M,OVC,M,M,M,12000.00,M,M,M,M,M,M,M,M,M,M,72.00,KEKO 100156Z AUTO 22007KT 10SM OVC120 22/13 A3010 RMK AO2 LTG DSNT S AND SW SLP147 T02220133,M
WMC,2022-08-10 01:56,-117.8072,40.9019,1315.00,66.00,62.00,87.24,190.00,7.00,0.04,30.06,1014.00,10.00,M,FEW,M,M,M,11000.00,M,M,M,M,M,M,M,M,M,M,66.00,KWMC 100156Z AUTO 19007KT 10SM FEW110 19/17 A3006 RMK AO2 RAE33 SLP140 P0004 T01890167 $,M
HND,2022-08-10 01:56,-115.1344,35.9729,742.79,85.00,64.00,49.62,170.00,11.00,0.00,30.00,1014.40,10.00,M,CLR,M,M,M,M,M,M,M,M,M,M,M,M,M,M,86.23,KHND 100156Z 17011KT 10SM CLR 29/18 A3000 RMK AO2 SLP144 T02940178,M
LAS,2022-08-10 01:56,-115.1634,36.0719,663.00,87.00,62.00,43.27,180.00,8.00,0.00,29.95,1011.40,10.00,M,FEW,BKN,BKN,BKN,8500.00,11000.00,18000.00,22000.00,M,M,M,M,M,M,M,87.58,KLAS 100156Z COR 18008KT 10SM FEW085CB BKN110 BKN180 BKN220 31/17 A2995 RMK AO2 SLP114 ACC NE-E CB VC NE-SE AND DSNT N MOV NW LTG DSNT E-SE T03060167,M
TPH,2022-08-10 01:56,-117.0904,38.0505,1654.00,77.00,59.00,53.80,80.00,5.00,T,30.14,1013.00,10.00,M,CLR,M,M,M,M,M,M,M,M,M,M,M,M,M,M,77.00,KTPH 100156Z AUTO 08005KT 10SM CLR 25/15 A3014 RMK AO2 RAE0057 SLP130 P0000 T02500150,M
NFL,2022-08-10 01:56,-118.7010,39.4166,1199.00,79.00,59.00,50.36,130.00,14.00,T,30.02,1013.50,10.00,M,SCT,BKN,BKN,BKN,5000.00,8000.00,12000.00,25000.00,M,M,M,M,M,M,M,79.00,KNFL 100156Z COR 13014KT 10SM SCT050 BKN080 BKN120 BKN250 26/15 A3002 RMK AO2 RAB22E53 TSB22E53 SLP135 OCNL LTGIC DSNT NE TS DISPTD CB DSNT NE P0000 T02610150,M
LSV,2022-08-10 01:58,-115.0343,36.2362,570.00,91.80,61.00,35.89,190.00,12.00,0.00,29.91,1010.20,10.00,M,FEW,SCT,M,M,15000.00,17000.00,M,M,M,M,M,M,M,M,M,91.91,KLSV 100158Z 19012KT 10SM FEW150 SCT170 33/16 A2991 RMK AO2A LTG DSNT NE SLP102 T03320161 $,M
INS,2022-08-10 01:58,-115.6733,36.5872,955.00,80.20,60.00,50.00,0.00,0.00,0.00,30.00,1011.10,10.00,M,OVC,M,M,M,13000.00,M,M,M,M,M,M,M,M,M,M,80.98,KINS 100158Z AUTO 00000KT 10SM OVC130 27/16 A3000 RMK AO2 SLP111 T02680155,M
HTH,2022-08-10 02:15,-118.6315,38.5448,1282.89,77.00,59.00,53.80,90.00,10.00,0.00,30.03,M,10.00,17.00,CLR,M,M,M,M,M,M,M,M,M,M,M,M,M,M,77.00,KHTH 100215Z AUTO 09010G17KT 10SM CLR 25/15 A3003 RMK A01,M
TMT,2022-08-10 02:15,-117.1971,39.4643,1749.34,M,M,M,270.00,7.00,0.00,30.23,M,10.00,M,OVC,M,M,M,10000.00,M,M,M,M,M,M,M,M,M,M,M,KTMT 100215Z AUTO 27007KT 10SM OVC100 A3023 RMK AO2,M
BVU,2022-08-10 02:15,-114.8611,35.9475,671.00,87.80,62.60,43.07,150.00,7.00,0.00,29.97,M,M,12.00,M,M,M,M,M,M,M,M,M,M,M,M,M,M,M,88.48,KBVU 100215Z AUTO 15007G12KT 31/17 A2997 RMK AO2 PWINO TSNO,M
CXP,2022-08-10 02:15,-119.7326,39.1923,1431.00,78.80,48.20,34.13,270.00,6.00,0.00,30.08,M,10.00,14.00,CLR,M,M,M,M,M,M,M,M,M,M,M,M,M,M,78.80,KCXP 100215Z AUTO 27006G14KT 10SM CLR 26/09 A3008 RMK AO2,M
RTS,2022-08-10 02:15,-119.8764,39.6682,1539.00,77.00,46.40,33.85,240.00,17.00,0.00,30.09,M,10.00,26.00,BKN,OVC,M,M,10000.00,12000.00,M,M,M,M,M,M,M,M,M,77.00,KRTS 100215Z AUTO 24017G26KT 10SM BKN100 OVC120 25/08 A3009 RMK AO2,M
MEV,2022-08-10 02:15,-119.7500,38.9963,1441.42,75.20,50.00,41.14,230.00,5.00,0.00,30.08,M,10.00,M,CLR,M,M,M,M,M,M,M,M,M,M,M,M,M,M,75.20,KMEV 100215Z AUTO 23005KT 10SM CLR 24/10 A3008 RMK AO2,M
BAM,2022-08-10 02:15,-116.8743,40.5990,1382.36,73.40,59.00,60.67,130.00,9.00,0.00,30.15,M,10.00,M,BKN,OVC,M,M,9000.00,12000.00,M,M,M,M,M,M,M,M,M,73.40,KBAM 100215Z AUTO 13009KT 10SM BKN090 OVC120 23/15 A3015 RMK AO1,M
EKO,2022-08-10 02:18,-115.7860,40.8242,1367.00,70.00,56.00,60.89,210.00,17.00,T,30.16,M,10.00,31.00,OVC,M,M,M,11000.00,M,M,M,VCTS -RA,M,M,M,31.00,220.00,2022-08-10 02:18,70.00,KEKO 100218Z AUTO 21017G31KT 10SM VCTS -RA OVC110 21/13 A3016 RMK AO2 PK WND 22031/0218 LTG DSNT S-W RAB16 PRESRR P0000 T02110133,M
EKO,2022-08-10 02:27,-115.7860,40.8242,1367.00,62.00,58.00,86.11,240.00,25.00,T,30.20,M,7.00,41.00,FEW,BKN,OVC,M,7000.00,8500.00,11000.00,M,TSRA,M,M,M,41.00,200.00,2022-08-10 02:19,62.10,KEKO 100227Z AUTO 24025G41KT 7SM TSRA FEW070 BKN085 OVC110 17/14 A3020 RMK AO2 PK WND 20041/0219 LTG DSNT S-W RAB16 TSB21 PRESRR P0000 T01670144,M
HTH,2022-08-10 02:35,-118.6315,38.5448,1282.89,77.00,59.00,53.80,100.00,17.00,0.00,30.04,M,10.00,24.00,BKN,M,M,M,11000.00,M,M,M,M,M,M,M,M,M,M,77.00,KHTH 100235Z AUTO 10017G24KT 10SM BKN110 25/15 A3004 RMK A01,M
TMT,2022-08-10 02:35,-117.1971,39.4643,1749.34,65.00,57.70,76.95,210.00,6.00,0.00,30.24,M,10.00,M,BKN,OVC,M,M,9000.00,11000.00,M,M,M,M,M,M,M,M,M,65.10,KTMT 100235Z AUTO 21006KT 10SM BKN090 OVC110 18/14 A3024 RMK AO2 LTG DSNT NE AND S T01840143,M
BAM,2022-08-10 02:35,-116.8743,40.5990,1382.36,69.80,62.60,77.90,130.00,18.00,0.00,30.19,M,10.00,23.00,OVC,M,M,M,9000.00,M,M,M,M,M,M,M,M,M,M,69.80,KBAM 100235Z AUTO 13018G23KT 10SM OVC090 21/17 A3019 RMK AO1,M
MEV,2022-08-10 02:35,-119.7500,38.9963,1441.42,75.20,50.00,41.14,230.00,6.00,0.00,30.08,M,10.00,M,CLR,M,M,M,M,M,M,M,M,M,M,M,M,M,M,75.20,KMEV 100235Z AUTO 23006KT 10SM CLR 24/10 A3008 RMK AO2,M
CXP,2022-08-10 02:35,-119.7326,39.1923,1431.00,78.80,48.20,34.13,290.00,6.00,0.00,30.09,M,10.00,11.00,CLR,M,M,M,M,M,M,M,M,M,M,M,M,M,M,78.80,KCXP 100235Z AUTO 29006G11KT 10SM CLR 26/09 A3009 RMK AO2,M
BVU,2022-08-10 02:35,-114.8611,35.9475,671.00,87.80,62.60,43.07,120.00,10.00,0.00,29.97,M,M,M,M,M,M,M,M,M,M,M,M,M,M,M,M,M,M,88.48,KBVU 100235Z AUTO 12010KT 31/17 A2997 RMK AO2 PWINO TSNO,M
RTS,2022-08-10 02:35,-119.8764,39.6682,1539.00,77.00,46.40,33.85,240.00,16.00,0.00,30.10,M,10.00,M,OVC,M,M,M,10000.00,M,M,M,M,M,M,M,M,M,M,77.00,KRTS 100235Z AUTO 24016KT 10SM OVC100 25/08 A3010 RMK AO2,M
EKO,2022-08-10 02:42,-115.7860,40.8242,1367.00,59.00,59.00,100.00,260.00,16.00,0.07,30.22,M,5.00,32.00,FEW,BKN,OVC,M,4600.00,8500.00,10000.00,M,VCTS -RA BR,M,M,M,41.00,200.00,2022-08-10 02:19,59.00,KEKO 100242Z AUTO 26016G32KT 5SM VCTS -RA BR FEW046 BKN085 OVC100 15/15 A3022 RMK AO2 PK WND 20041/0219 RAB16 TSB21E36 P0007 T01500150,M
DRA,2022-08-10 02:53,-116.0278,36.6206,1009.00,81.00,62.00,52.66,110.00,10.00,0.00,30.00,1010.70,10.00,M,CLR,M,M,M,M,M,M,M,M,M,M,M,M,M,M,82.06,KDRA 100253Z AUTO 11010KT 10SM CLR 27/17 A3000 RMK AO2 SLP107 T02720167 53005,M
ELY,2022-08-10 02:53,-114.8453,39.2950,1909.00,61.00,57.00,86.67,M,6.00,0.01,30.30,1016.90,10.00,M,OVC,M,M,M,10000.00,M,M,M,-RA,M,M,M,M,M,M,61.00,KELY 100253Z AUTO VRB06KT 10SM -RA OVC100 16/14 A3030 RMK AO2 SLP169 P0001 60002 T01610139 51028,M
LOL,2022-08-10 02:53,-118.5701,40.0684,1192.43,79.00,56.00,45.04,M,6.00,0.00,30.02,1012.80,10.00,M,FEW,M,M,M,12000.00,M,M,M,M,M,M,M,M,M,M,79.00,KLOL 100253Z AUTO VRB06KT 10SM FEW120 26/13 A3002 RMK AO2 SLP128 T02610133 53010,M
VGT,2022-08-10 02:53,-115.1933,36.2111,667.00,89.00,60.00,37.83,150.00,10.00,0.00,29.95,1013.00,10.00,M,CLR,M,M,M,M,M,M,M,M,M,M,M,M,M,M,88.76,KVGT 100253Z 15010KT 10SM CLR 32/16 A2995 RMK AO2 SLP130 T03170156 53014,M
TMT,2022-08-10 02:55,-117.1971,39.4643,1749.34,64.60,57.60,78.02,160.00,7.00,0.00,30.24,M,10.00,M,SCT,OVC,M,M,9000.00,10000.00,M,M,TS,M,M,M,M,M,M,64.60,KTMT 100255Z AUTO 16007KT 10SM TS SCT090 OVC100 18/14 A3024 RMK AO2 LTG DSNT S T01810142,M
RTS,2022-08-10 02:55,-119.8764,39.6682,1539.00,75.20,46.40,35.94,230.00,18.00,0.00,30.10,M,10.00,M,OVC,M,M,M,10000.00,M,M,M,M,M,M,M,M,M,M,75.20,KRTS 100255Z AUTO 23018KT 10SM OVC100 24/08 A3010 RMK AO2,M
MEV,2022-08-10 02:55,-119.7500,38.9963,1441.42,73.40,50.00,43.69,180.00,6.00,0.00,30.09,M,10.00,M,CLR,M,M,M,M,M,M,M,M,M,M,M,M,M,M,73.40,KMEV 100255Z AUTO 18006KT 10SM CLR 23/10 A3009 RMK AO2,M
BAM,2022-08-10 02:55,-116.8743,40.5990,1382.36,66.20,62.60,88.18,120.00,17.00,0.00,30.21,M,5.00,27.00,OVC,M,M,M,9000.00,M,M,M,M,M,M,M,M,M,M,66.20,KBAM 100255Z AUTO 12017G27KT 5SM OVC090 19/17 A3021 RMK AO1,M
HTH,2022-08-10 02:55,-118.6315,38.5448,1282.89,77.00,59.00,53.80,120.00,14.00,0.00,30.05,M,10.00,20.00,OVC,M,M,M,11000.00,M,M,M,M,M,M,M,M,M,M,77.00,KHTH 100255Z AUTO 12014G20KT 10SM OVC110 25/15 A3005 RMK A01,M
BVU,2022-08-10 02:55,-114.8611,35.9475,671.00,86.00,66.20,51.72,140.00,7.00,0.00,29.97,M,M,M,M,M,M,M,M,M,M,M,M,M,M,M,M,M,M,88.39,KBVU 100255Z AUTO 14007KT 30/19 A2997 RMK AO2 PWINO TSNO,M
CXP,2022-08-10 02:55,-119.7326,39.1923,1431.00,77.00,48.20,36.22,260.00,5.00,0.00,30.10,M,10.00,M,CLR,M,M,M,M,M,M,M,M,M,M,M,M,M,M,77.00,KCXP 100255Z AUTO 26005KT 10SM CLR 25/09 A3010 RMK AO2,M
RNO,2022-08-10 02:55,-119.7711,39.4839,1341.00,81.00,50.00,33.97,280.00,8.00,0.00,30.05,1011.90,10.00,M,FEW,FEW,M,M,11000.00,25000.00,M,M,M,M,M,M,M,M,M,80.12,KRNO 100255Z 28008KT 10SM FEW110 FEW250 27/10 A3005 RMK AO2 SLP119 CB DSNT NE THRU E T02720100 53015,M
NFL,2022-08-10 02:56,-118.7010,39.4166,1199.00,76.00,59.00,55.80,120.00,7.00,0.00,30.07,1015.00,10.00,M,SCT,BKN,BKN,M,8000.00,12000.00,25000.00,M,M,M,M,M,M,M,M,75.90,KNFL 100256Z 12007KT 10SM SCT080 BKN120 BKN250 24/15 A3007 RMK AO2 PRESRR SLP150 CB DSNT NE AND S-SW 60000 T02440150 53023,M
HND,2022-08-10 02:56,-115.1344,35.9729,742.79,83.00,64.00,52.93,210.00,14.00,0.00,30.00,1014.30,10.00,M,CLR,M,M,M,M,M,M,M,M,M,M,M,M,M,M,84.32,KHND 100256Z 21014KT 10SM CLR 28/18 A3000 RMK AO2 SLP143 T02830178 50008,M
EKO,2022-08-10 02:56,-115.7860,40.8242,1367.00,59.00,59.00,100.00,210.00,7.00,0.08,30.24,1020.30,10.00,M,FEW,BKN,OVC,M,4800.00,8500.00,10000.00,M,-RA,M,M,M,41.00,200.00,2022-08-10 02:19,59.00,KEKO 100256Z AUTO 21007KT 10SM -RA FEW048 BKN085 OVC100 15/15 A3024 RMK AO2 PK WND 20041/0219 RAB16 TSB21E36 SLP203 P0008 60008 T01500150 53043,M
WMC,2022-08-10 02:56,-117.8072,40.9019,1315.00,66.00,62.00,87.24,70.00,11.00,0.00,30.10,1015.00,10.00,M,CLR,M,M,M,M,M,M,M,M,M,M,M,M,M,M,66.00,KWMC 100256Z AUTO 07011KT 10SM CLR 19/17 A3010 RMK AO2 SLP150 60015 T01890167 52006 $,M
LAS,2022-08-10 02:56,-115.1634,36.0719,663.00,86.00,62.00,44.81,180.00,7.00,0.00,29.96,1011.80,10.00,15.00,SCT,BKN,BKN,M,11000.00,18000.00,22000.00,M,M,M,M,M,M,M,M,86.52,KLAS 100256Z 18007G15KT 10SM SCT110 BKN180 BKN220 30/17 A2996 RMK AO2 SLP118 CB DSNT E-S T03000167 53009,M
INS,2022-08-10 02:58,-115.6733,36.5872,955.00,80.40,59.50,48.97,320.00,5.00,0.00,30.01,1011.30,10.00,M,FEW,SCT,BKN,M,12000.00,16000.00,20000.00,M,M,M,M,M,M,M,M,81.06,KINS 100258Z AUTO 32005KT 10SM FEW120 SCT160 BKN200 27/15 A3001 RMK AO2 SLP113 60000 T02690153 53003,M
LSV,2022-08-10 02:58,-115.0343,36.2362,570.00,87.80,62.60,43.07,120.00,3.00,0.00,29.91,M,10.00,M,SCT,BKN,M,M,12000.00,14000.00,M,M,M,M,M,M,M,M,M,88.48,KLSV 100258Z COR 12003KT 10SM SCT120 BKN140 31/17 A2991 RMK AO2A SLPNO WND DATA ESTMD $ COR 0311,M
TMT,2022-08-10 03:15,-117.1971,39.4643,1749.34,62.60,58.30,85.82,230.00,7.00,0.01,30.25,M,10.00,M,SCT,BKN,OVC,M,5000.00,7000.00,10000.00,M,RA,M,M,M,M,M,M,62.60,KTMT 100315Z AUTO 23007KT 10SM RA SCT050 BKN070 OVC100 17/15 A3025 RMK AO2 LTG DSNT NE AND SE P0001 T01700146,M
BVU,2022-08-10 03:15,-114.8611,35.9475,671.00,82.40,69.80,65.74,140.00,4.00,0.00,29.98,M,M,M,M,M,M,M,M,M,M,M,M,M,M,M,M,M,M,86.22,KBVU 100315Z AUTO 14004KT 28/21 A2998 RMK AO2 PWINO TSNO,M
CXP,2022-08-10 03:15,-119.7326,39.1923,1431.00,77.00,48.20,36.22,0.00,0.00,0.00,30.10,M,10.00,M,CLR,M,M,M,M,M,M,M,M,M,M,M,M,M,M,77.00,KCXP 100315Z AUTO 00000KT 10SM CLR 25/09 A3010 RMK AO2,M
RTS,2022-08-10 03:15,-119.8764,39.6682,1539.00,75.20,46.40,35.94,240.00,16.00,0.00,30.11,M,10.00,22.00,BKN,M,M,M,11000.00,M,M,M,M,M,M,M,M,M,M,75.20,KRTS 100315Z AUTO 24016G22KT 10SM BKN110 24/08 A3011 RMK AO2,M
MEV,2022-08-10 03:15,-119.7500,38.9963,1441.42,73.40,48.20,40.85,210.00,11.00,0.00,30.09,M,10.00,M,CLR,M,M,M,M,M,M,M,M,M,M,M,M,M,M,73.40,KMEV 100315Z AUTO 21011KT 10SM CLR 23/09 A3009 RMK AO2,M
BAM,2022-08-10 03:15,-116.8743,40.5990,1382.36,66.20,60.80,82.74,130.00,8.00,0.00,30.22,M,10.00,M,SCT,SCT,OVC,M,4400.00,6000.00,8000.00,M,M,M,M,M,M,M,M,66.20,KBAM 100315Z AUTO 13008KT 10SM SCT044 SCT060 OVC080 19/16 A3022 RMK AO1,M
HTH,2022-08-10 03:15,-118.6315,38.5448,1282.89,75.20,59.00,57.12,100.00,13.00,0.00,30.06,M,10.00,19.00,BKN,M,M,M,11000.00,M,M,M,M,M,M,M,M,M,M,75.20,KHTH 100315Z AUTO 10013G19KT 10SM BKN110 24/15 A3006 RMK A01,M
EKO,2022-08-10 03:18,-115.7860,40.8242,1367.00,61.00,61.00,100.00,240.00,14.00,0.03,30.22,M,8.00,M,FEW,SCT,OVC,M,6000.00,7500.00,10000.00,M,-TSRA,M,M,M,M,M,M,61.00,KEKO 100318Z AUTO 24014KT 8SM -TSRA FEW060 SCT075 OVC100 16/16 A3022 RMK AO2 TSB12 P0003 T01610161 $,M
EKO,2022-08-10 03:33,-115.7860,40.8242,1367.00,60.00,60.00,100.00,220.00,12.00,0.04,30.23,M,10.00,20.00,FEW,SCT,OVC,M,4700.00,7000.00,11000.00,M,-RA,M,M,M,M,M,M,60.10,KEKO 100333Z AUTO 22012G20KT 10SM -RA FEW047 SCT070 OVC110 16/16 A3023 RMK AO2 TSB12E27 P0004 T01560156 $,M
MEV,2022-08-10 03:35,-119.7500,38.9963,1441.42,75.20,48.20,38.46,200.00,9.00,0.00,30.09,M,10.00,M,CLR,M,M,M,M,M,M,M,M,M,M,M,M,M,M,75.20,KMEV 100335Z AUTO 20009KT 10SM CLR 24/09 A3009 RMK AO2,M
TMT,2022-08-10 03:35,-117.1971,39.4643,1749.34,60.80,58.00,90.81,140.00,3.00,0.02,30.24,M,10.00,M,SCT,BKN,BKN,M,6000.00,7000.00,12000.00,M,-VCTSRA,M,M,M,M,M,M,60.80,KTMT 100335Z AUTO 14003KT 10SM -VCTSRA SCT060 BKN070 BKN120 16/15 A3024 RMK AO2 LTG DSNT S P0002 T01600145,M
BVU,2022-08-10 03:35,-114.8611,35.9475,671.00,82.40,69.80,65.74,80.00,6.00,0.00,29.98,M,M,M,M,M,M,M,M,M,M,M,M,M,M,M,M,M,M,86.22,KBVU 100335Z AUTO 08006KT 28/21 A2998 RMK AO2 PWINO TSNO,M
CXP,2022-08-10 03:35,-119.7326,39.1923,1431.00,77.00,48.20,36.22,0.00,0.00,0.00,30.11,M,10.00,M,CLR,M,M,M,M,M,M,M,M,M,M,M,M,M,M,77.00,KCXP 100335Z AUTO 00000KT 10SM CLR 25/09 A3011 RMK AO2,M
RTS,2022-08-10 03:35,-119.8764,39.6682,1539.00,73.40,46.40,38.18,240.00,16.00,0.00,30.12,M,10.00,21.00,BKN,M,M,M,11000.00,M,M,M,M,M,M,M,M,M,M,73.40,KRTS 100335Z AUTO 24016G21KT 10SM BKN110 23/08 A3012 RMK AO2,M
HTH,2022-08-10 03:35,-118.6315,38.5448,1282.89,75.20,59.00,57.12,100.00,15.00,0.00,30.06,M,10.00,20.00,OVC,M,M,M,11000.00,M,M,M,M,M,M,M,M,M,M,75.20,KHTH 100335Z AUTO 10015G20KT 10SM OVC110 24/15 A3006 RMK A01,M
BAM,2022-08-10 03:35,-116.8743,40.5990,1382.36,66.20,62.60,88.18,140.00,3.00,0.00,30.21,M,10.00,M,SCT,SCT,OVC,M,4200.00,6000.00,9000.00,M,M,M,M,M,M,M,M,66.20,KBAM 100335Z AUTO 14003KT 10SM SCT042 SCT060 OVC090 19/17 A3021 RMK AO1,M
NFL,2022-08-10 03:37,-118.7010,39.4166,1199.00,69.00,63.00,80.92,100.00,13.00,0.00,30.04,M,10.00,M,SCT,BKN,BKN,M,8000.00,12000.00,25000.00,M,-RA,M,M,M,M,M,M,69.10,KNFL 100337Z 10013KT 10SM -RA SCT080 BKN120 BKN250 21/17 A3004 RMK AO2 WSHFT 0317 RAB07 OCNL LTGICCC DSNT NE CB DSNT NE WR// T02060172 PNO $,M
LOL,2022-08-10 03:53,-118.5701,40.0684,1192.43,76.00,58.00,53.64,190.00,6.00,0.00,30.06,1013.80,10.00,M,FEW,M,M,M,11000.00,M,M,M,M,M,M,M,M,M,M,75.90,KLOL 100353Z AUTO 19006KT 10SM FEW110 24/14 A3006 RMK AO2 LTG DSNT SW SLP138 T02440144,M
DRA,2022-08-10 03:53,-116.0278,36.6206,1009.00,80.00,62.00,54.23,120.00,10.00,0.00,30.02,1011.20,10.00,M,CLR,M,M,M,M,M,M,M,M,M,M,M,M,M,M,81.31,KDRA 100353Z AUTO 12010KT 10SM CLR 27/17 A3002 RMK AO2 SLP112 T02670167,M
VGT,2022-08-10 03:53,-115.1933,36.2111,667.00,88.00,60.00,39.17,150.00,8.00,T,29.96,1013.30,10.00,M,CLR,M,M,M,M,M,M,M,M,M,M,M,M,M,M,87.69,KVGT 100353Z 15008KT 10SM CLR 31/16 A2996 RMK AO2 RAB26E41 SLP133 P0000 T03110156,M
ELY,2022-08-10 03:53,-114.8453,39.2950,1909.00,61.00,57.00,86.67,180.00,10.00,0.03,30.35,1017.90,10.00,M,BKN,OVC,M,M,9500.00,11000.00,M,M,-RA,M,M,M,M,M,M,61.00,KELY 100353Z AUTO 18010KT 10SM -RA BKN095 OVC110 16/14 A3035 RMK AO2 PRESRR SLP179 P0003 T01610139,M
BAM,2022-08-10 03:55,-116.8743,40.5990,1382.36,66.20,62.60,88.18,20.00,4.00,0.00,30.22,M,7.00,M,SCT,OVC,M,M,6500.00,9000.00,M,M,M,M,M,M,M,M,M,66.20,KBAM 100355Z AUTO 02004KT 7SM SCT065 OVC090 19/17 A3022 RMK AO1,M
HTH,2022-08-10 03:55,-118.6315,38.5448,1282.89,75.20,59.00,57.12,100.00,13.00,0.00,30.07,M,10.00,19.00,OVC,M,M,M,11000.00,M,M,M,M,M,M,M,M,M,M,75.20,KHTH 100355Z AUTO 10013G19KT 10SM OVC110 24/15 A3007 RMK A01,M
BVU,2022-08-10 03:55,-114.8611,35.9475,671.00,80.60,69.80,69.71,70.00,6.00,0.00,29.98,M,M,M,M,M,M,M,M,M,M,M,M,M,M,M,M,M,M,83.90,KBVU 100355Z AUTO 07006KT 27/21 A2998 RMK AO2 PWINO TSNO,M
RNO,2022-08-10 03:55,-119.7711,39.4839,1341.00,79.00,49.00,34.81,320.00,5.00,0.00,30.07,1012.70,10.00,M,FEW,M,M,M,10000.00,M,M,M,M,M,M,M,M,M,M,79.00,KRNO 100355Z 32005KT 10SM FEW100 26/09 A3007 RMK AO2 SLP127 T02610094,M
TMT,2022-08-10 03:55,-117.1971,39.4643,1749.34,60.40,58.30,92.77,110.00,5.00,0.02,30.25,M,10.00,M,BKN,M,M,M,10000.00,M,M,M,VCTS,M,M,M,M,M,M,60.40,KTMT 100355Z AUTO 11005KT 10SM VCTS BKN100 16/15 A3025 RMK AO2 LTG DSNT S P0002 T01580146,M
CXP,2022-08-10 03:55,-119.7326,39.1923,1431.00,75.20,48.20,38.46,0.00,0.00,0.00,30.12,M,10.00,M,CLR,M,M,M,M,M,M,M,M,M,M,M,M,M,M,75.20,KCXP 100355Z AUTO 00000KT 10SM CLR 24/09 A3012 RMK AO2 LTG DSNT E,M
RTS,2022-08-10 03:55,-119.8764,39.6682,1539.00,73.40,46.40,38.18,230.00,11.00,0.00,30.12,M,10.00,M,BKN,M,M,M,11000.00,M,M,M,M,M,M,M,M,M,M,73.40,KRTS 100355Z AUTO 23011KT 10SM BKN110 23/08 A3012 RMK AO2,M
MEV,2022-08-10 03:55,-119.7500,38.9963,1441.42,73.40,48.20,40.85,220.00,11.00,0.00,30.10,M,10.00,M,CLR,M,M,M,M,M,M,M,M,M,M,M,M,M,M,73.40,KMEV 100355Z AUTO 22011KT 10SM CLR 23/09 A3010 RMK AO2,M
EKO,2022-08-10 03:56,-115.7860,40.8242,1367.00,60.00,60.00,100.00,220.00,9.00,0.04,30.23,1019.20,10.00,M,FEW,FEW,OVC,M,4900.00,7500.00,10000.00,M,-RA,M,M,M,M,M,M,60.10,KEKO 100356Z AUTO 22009KT 10SM -RA FEW049 FEW075 OVC100 16/16 A3023 RMK AO2 TSB12E27 SLP192 P0004 T01560156 $,M
HND,2022-08-10 03:56,-115.1344,35.9729,742.79,83.00,64.00,52.93,180.00,9.00,0.00,30.01,1014.90,10.00,M,FEW,M,M,M,7000.00,M,M,M,M,M,M,M,M,M,M,84.32,KHND 100356Z AUTO 18009KT 10SM FEW070 28/18 A3001 RMK AO2 SLP149 T02830178,M
WMC,2022-08-10 03:56,-117.8072,40.9019,1315.00,67.00,61.00,81.33,60.00,7.00,T,30.16,1016.50,10.00,M,BKN,M,M,M,10000.00,M,M,M,-RA,M,M,M,M,M,M,66.90,KWMC 100356Z AUTO 06007KT 10SM -RA BKN100 19/16 A3016 RMK AO2 RAB43 SLP165 P0000 T01940161 $,M
NFL,2022-08-10 03:56,-118.7010,39.4166,1199.00,71.00,62.00,73.22,100.00,10.00,0.00,30.05,1014.40,10.00,M,SCT,BKN,BKN,M,8000.00,12000.00,25000.00,M,M,M,M,M,M,M,M,71.10,KNFL 100356Z 10010KT 10SM SCT080 BKN120 BKN250 22/17 A3005 RMK AO2 WSHFT 0317 RAB07E42 SLP144 OCNL LTGICCC DSNT NE CB DSNT NE AND SE-S WR// T02170167 PNO $,M
LAS,2022-08-10 03:56,-115.1634,36.0719,663.00,85.00,62.00,46.42,180.00,7.00,0.00,29.97,1012.30,10.00,M,SCT,BKN,BKN,M,11000.00,18000.00,22000.00,M,M,M,M,M,M,M,M,85.49,KLAS 100356Z 18007KT 10SM SCT110 BKN180 BKN220 29/17 A2997 RMK AO2 SLP123 T02940167,M
TPH,2022-08-10 03:56,-117.0904,38.0505,1654.00,72.00,62.00,71.02,30.00,3.00,T,30.18,1014.40,10.00,M,SCT,OVC,M,M,7500.00,11000.00,M,M,-RA,M,M,M,M,M,M,72.00,KTPH 100356Z AUTO 03003KT 10SM -RA SCT075 OVC110 22/17 A3018 RMK AO2 LTG DSNT N RAB53 SLP144 P0000 T02220167,M
LSV,2022-08-10 03:56,-115.0343,36.2362,570.00,86.00,62.60,45.61,M,6.00,0.00,29.90,M,10.00,M,SCT,BKN,M,M,12000.00,16000.00,M,M,M,M,M,M,M,M,M,86.72,KLSV 100356Z VRB06KT 10SM SCT120 BKN160 30/17 A2990 RMK A02A SLPNO WND DATA ESTMD RVRNO $,M
INS,2022-08-10 03:58,-115.6733,36.5872,955.00,80.00,61.20,52.88,0.00,0.00,0.00,30.02,1011.40,10.00,M,SCT,OVC,M,M,12000.00,19000.00,M,M,M,M,M,M,M,M,M,79.90,KINS 100358Z AUTO 00000KT 10SM SCT120 OVC190 27/16 A3002 RMK AO2 SLP114 T02660162,M
MEV,2022-08-10 04:15,-119.7500,38.9963,1441.42,75.20,48.20,38.46,210.00,13.00,0.00,30.10,M,10.00,20.00,CLR,M,M,M,M,M,M,M,M,M,M,M,M,M,M,75.20,KMEV 100415Z AUTO 21013G20KT 10SM CLR 24/09 A3010 RMK AO2,M
RTS,2022-08-10 04:15,-119.8764,39.6682,1539.00,73.40,46.40,38.18,220.00,8.00,0.00,30.13,M,10.00,14.00,BKN,M,M,M,11000.00,M,M,M,M,M,M,M,M,M,M,73.40,KRTS 100415Z AUTO 22008G14KT 10SM BKN110 23/08 A3013 RMK AO2,M
BVU,2022-08-10 04:15,-114.8611,35.9475,671.00,80.60,68.00,65.54,60.00,7.00,0.00,29.99,M,M,M,M,M,M,M,M,M,M,M,M,M,M,M,M,M,M,83.29,KBVU 100415Z AUTO 06007KT 27/20 A2999 RMK AO2 PWINO TSNO,M
BAM,2022-08-10 04:15,-116.8743,40.5990,1382.36,68.00,60.80,77.75,50.00,4.00,0.00,30.20,M,10.00,M,SCT,OVC,M,M,6500.00,10000.00,M,M,M,M,M,M,M,M,M,68.00,KBAM 100415Z AUTO 05004KT 10SM SCT065 OVC100 20/16 A3020 RMK AO1,M
HTH,2022-08-10 04:15,-118.6315,38.5448,1282.89,75.20,57.20,53.55,130.00,12.00,0.00,30.08,M,10.00,M,BKN,BKN,M,M,10000.00,12000.00,M,M,M,M,M,M,M,M,M,75.20,KHTH 100415Z AUTO 13012KT 10SM BKN100 BKN120 24/14 A3008 RMK A01,M
TMT,2022-08-10 04:15,-117.1971,39.4643,1749.34,60.00,58.00,93.10,90.00,3.00,0.00,30.24,M,10.00,M,SCT,BKN,M,M,9000.00,11000.00,M,M,TS,M,M,M,M,M,M,60.10,KTMT 100415Z AUTO 09003KT 10SM TS SCT090 BKN110 16/15 A3024 RMK AO2 LTG DSNT S T01560145,M
CXP,2022-08-10 04:15,-119.7326,39.1923,1431.00,73.40,50.00,43.69,0.00,0.00,0.00,30.12,M,10.00,M,CLR,M,M,M,M,M,M,M,M,M,M,M,M,M,M,73.40,KCXP 100415Z AUTO 00000KT 10SM CLR 23/10 A3012 RMK AO2,M
LOL,2022-08-10 04:23,-118.5701,40.0684,1192.43,75.00,58.00,55.28,170.00,6.00,0.00,30.08,M,10.00,M,FEW,M,M,M,9000.00,M,M,M,VCTS,M,M,M,M,M,M,75.00,KLOL 100423Z AUTO 17006KT 10SM VCTS FEW090 24/14 A3008 RMK AO2 T02390144,M
RTS,2022-08-10 04:35,-119.8764,39.6682,1539.00,71.60,46.40,40.57,360.00,5.00,0.00,30.15,M,10.00,M,SCT,M,M,M,11000.00,M,M,M,M,M,M,M,M,M,M,71.60,KRTS 100435Z AUTO 36005KT 10SM SCT110 22/08 A3015 RMK AO2,M
BVU,2022-08-10 04:35,-114.8611,35.9475,671.00,82.40,68.00,61.81,80.00,5.00,0.00,29.99,M,M,M,M,M,M,M,M,M,M,M,M,M,M,M,M,M,M,85.38,KBVU 100435Z AUTO 08005KT 28/20 A2999 RMK AO2 PWINO TSNO,M
CXP,2022-08-10 04:35,-119.7326,39.1923,1431.00,71.60,50.00,46.43,0.00,0.00,0.00,30.13,M,10.00,M,CLR,M,M,M,M,M,M,M,M,M,M,M,M,M,M,71.60,KCXP 100435Z AUTO 00000KT 10SM CLR 22/10 A3013 RMK AO2,M
MEV,2022-08-10 04:35,-119.7500,38.9963,1441.42,73.40,48.20,40.85,210.00,11.00,0.00,30.11,M,10.00,M,CLR,M,M,M,M,M,M,M,M,M,M,M,M,M,M,73.40,KMEV 100435Z AUTO 21011KT 10SM CLR 23/09 A3011 RMK AO2,M
BAM,2022-08-10 04:35,-116.8743,40.5990,1382.36,66.20,62.60,88.18,10.00,5.00,0.00,30.20,M,10.00,M,OVC,M,M,M,11000.00,M,M,M,M,M,M,M,M,M,M,66.20,KBAM 100435Z AUTO 01005KT 10SM OVC110 19/17 A3020 RMK AO1,M
HTH,2022-08-10 04:35,-118.6315,38.5448,1282.89,73.40,59.00,60.67,160.00,8.00,0.00,30.09,M,10.00,14.00,BKN,M,M,M,11000.00,M,M,M,M,M,M,M,M,M,M,73.40,KHTH 100435Z AUTO 16008G14KT 10SM BKN110 23/15 A3009 RMK A01,M
TMT,2022-08-10 04:35,-117.1971,39.4643,1749.34,60.80,58.60,92.45,0.00,0.00,0.00,30.25,M,10.00,M,BKN,BKN,M,M,8000.00,11000.00,M,M,M,M,M,M,M,M,M,60.80,KTMT 100435Z AUTO 00000KT 10SM BKN080 BKN110 16/15 A3025 RMK AO2 LTG DSNT SE AND S T01600148,M
DRA,2022-08-10 04:53,-116.0278,36.6206,1009.00,79.00,63.00,58.04,0.00,0.00,0.00,30.03,1011.70,10.00,M,FEW,M,M,M,12000.00,M,M,M,M,M,M,M,M,M,M,79.00,KDRA 100453Z AUTO 00000KT 10SM FEW120 26/17 A3003 RMK AO2 SLP117 T02610172,M
LOL,2022-08-10 04:53,-118.5701,40.0684,1192.43,74.00,58.00,57.36,310.00,4.00,T,30.09,1015.10,10.00,M,BKN,OVC,M,M,9000.00,11000.00,M,M,VCTS -RA,M,M,M,M,M,M,73.90,KLOL 100453Z AUTO 31004KT 10SM VCTS -RA BKN090 OVC110 23/14 A3009 RMK AO2 LTG DSNT W-N RAB49 SLP151 P0000 T02330144,M
ELY,2022-08-10 04:53,-114.8453,39.2950,1909.00,60.00,58.00,92.43,170.00,14.00,0.05,30.34,1017.10,6.00,M,OVC,M,M,M,8500.00,M,M,M,RA BR,M,M,M,M,M,M,60.10,KELY 100453Z AUTO 17014KT 6SM RA BR OVC085 16/14 A3034 RMK AO2 SLP171 P0005 T01560144,M
VGT,2022-08-10 04:53,-115.1933,36.2111,667.00,88.00,61.00,40.44,110.00,4.00,0.00,29.98,1014.00,10.00,M,SCT,M,M,M,11000.00,M,M,M,M,M,M,M,M,M,M,88.02,KVGT 100453Z AUTO 11004KT 10SM SCT110 31/16 A2998 RMK AO2 SLP140 T03110161,M
RNO,2022-08-10 04:55,-119.7711,39.4839,1341.00,78.00,50.00,37.36,130.00,4.00,0.00,30.10,1013.30,10.00,M,FEW,M,M,M,9500.00,M,M,M,M,M,M,M,M,M,M,78.10,KRNO 100455Z 13004KT 10SM FEW095 26/10 A3010 RMK AO2 SLP133 T02560100,M
BVU,2022-08-10 04:55,-114.8611,35.9475,671.00,80.60,68.00,65.54,50.00,6.00,0.00,29.99,M,M,M,M,M,M,M,M,M,M,M,M,M,M,M,M,M,M,83.29,KBVU 100455Z AUTO 05006KT 27/20 A2999 RMK AO2 PWINO TSNO,M
CXP,2022-08-10 04:55,-119.7326,39.1923,1431.00,71.60,50.00,46.43,100.00,5.00,0.00,30.13,M,10.00,M,CLR,M,M,M,M,M,M,M,M,M,M,M,M,M,M,71.60,KCXP 100455Z AUTO 10005KT 10SM CLR 22/10 A3013 RMK AO2,M
RTS,2022-08-10 04:55,-119.8764,39.6682,1539.00,71.60,46.40,40.57,M,4.00,0.00,30.16,M,10.00,M,BKN,M,M,M,11000.00,M,M,M,M,M,M,M,M,M,M,71.60,KRTS 100455Z AUTO VRB04KT 10SM BKN110 22/08 A3016 RMK AO2,M
MEV,2022-08-10 04:55,-119.7500,38.9963,1441.42,71.60,50.00,46.43,210.00,9.00,0.00,30.12,M,10.00,M,CLR,M,M,M,M,M,M,M,M,M,M,M,M,M,M,71.60,KMEV 100455Z AUTO 21009KT 10SM CLR 22/10 A3012 RMK AO2,M
BAM,2022-08-10 04:55,-116.8743,40.5990,1382.36,64.40,62.60,93.88,60.00,10.00,0.00,30.20,M,10.00,M,OVC,M,M,M,11000.00,M,M,M,M,M,M,M,M,M,M,64.40,KBAM 100455Z AUTO 06010KT 10SM OVC110 18/17 A3020 RMK AO1,M
HTH,2022-08-10 04:55,-118.6315,38.5448,1282.89,73.40,60.80,64.69,210.00,7.00,0.00,30.09,M,10.00,M,SCT,M,M,M,11000.00,M,M,M,M,M,M,M,M,M,M,73.40,KHTH 100455Z AUTO 21007KT 10SM SCT110 23/16 A3009 RMK A01,M
TMT,2022-08-10 04:55,-117.1971,39.4643,1749.34,61.30,58.50,90.50,210.00,7.00,0.02,30.28,M,7.00,M,SCT,SCT,OVC,M,3700.00,5000.00,8000.00,M,RA,M,M,M,M,M,M,61.30,KTMT 100455Z AUTO 21007KT 7SM RA SCT037 SCT050 OVC080 16/15 A3028 RMK AO2 LTG DSNT S P0002 T01630147,M
WMC,2022-08-10 04:56,-117.8072,40.9019,1315.00,67.00,62.00,84.56,20.00,6.00,0.01,30.15,1016.30,10.00,M,FEW,FEW,M,M,8000.00,11000.00,M,M,M,M,M,M,M,M,M,66.90,KWMC 100456Z AUTO 02006KT 10SM FEW080 FEW110 19/17 A3015 RMK AO2 RAE39 SLP163 P0001 T01940167 $,M
NFL,2022-08-10 04:56,-118.7010,39.4166,1199.00,70.00,62.00,76.01,140.00,9.00,0.00,30.08,1015.40,10.00,M,SCT,BKN,BKN,M,8000.00,12000.00,25000.00,M,M,M,M,M,M,M,M,70.00,KNFL 100456Z 14009KT 10SM SCT080 BKN120 BKN250 21/17 A3008 RMK AO2 RAB42E54 SLP154 T02110167 PNO $,M
LAS,2022-08-10 04:56,-115.1634,36.0719,663.00,85.00,63.00,47.91,160.00,5.00,0.00,29.99,1012.70,10.00,M,FEW,BKN,OVC,M,12000.00,15000.00,20000.00,M,M,M,M,M,M,M,M,85.83,KLAS 100456Z 16005KT 10SM FEW120 BKN150 OVC200 29/17 A2999 RMK AO2 SLP127 T02940172,M
TPH,2022-08-10 04:56,-117.0904,38.0505,1654.00,71.00,61.00,70.42,90.00,11.00,0.01,30.19,1014.60,10.00,M,BKN,M,M,M,9500.00,M,M,M,-RA,M,M,M,M,M,M,71.10,KTPH 100456Z AUTO 09011KT 10SM -RA BKN095 22/16 A3019 RMK AO2 RAE06B29 SLP146 P0001 T02170161,M
HND,2022-08-10 04:56,-115.1344,35.9729,742.79,83.00,65.00,54.62,210.00,8.00,0.00,30.02,1015.20,10.00,M,FEW,M,M,M,12000.00,M,M,M,M,M,M,M,M,M,M,84.64,KHND 100456Z AUTO 21008KT 10SM FEW120 28/18 A3002 RMK AO2 SLP152 T02830183,M
EKO,2022-08-10 04:56,-115.7860,40.8242,1367.00,61.00,60.00,96.85,270.00,7.00,0.01,30.23,1018.70,10.00,M,FEW,OVC,M,M,8000.00,10000.00,M,M,M,M,M,M,M,M,M,61.00,KEKO 100456Z AUTO 27007KT 10SM FEW080 OVC100 16/16 A3023 RMK AO2 RAE18 SLP187 P0001 T01610156 $,M
LOL,2022-08-10 05:03,-118.5701,40.0684,1192.43,74.00,59.00,59.66,10.00,6.00,T,30.10,M,10.00,M,SCT,OVC,M,M,9000.00,11000.00,M,M,M,M,M,M,M,M,M,73.90,KLOL 100503Z AUTO 01006KT 10SM SCT090 OVC110 23/15 A3010 RMK AO2 LTG DSNT N AND NW RAE0459 P0000 T02330150,M
MEV,2022-08-10 05:15,-119.7500,38.9963,1441.42,69.80,48.20,46.16,210.00,11.00,0.00,30.12,M,10.00,M,CLR,M,M,M,M,M,M,M,M,M,M,M,M,M,M,69.80,KMEV 100515Z AUTO 21011KT 10SM CLR 21/09 A3012 RMK AO2,M
BVU,2022-08-10 05:15,-114.8611,35.9475,671.00,82.40,68.00,61.81,60.00,4.00,0.00,29.99,M,M,M,M,M,M,M,M,M,M,M,M,M,M,M,M,M,M,85.38,KBVU 100515Z AUTO 06004KT 28/20 A2999 RMK AO2 PWINO TSNO,M
CXP,2022-08-10 05:15,-119.7326,39.1923,1431.00,71.60,50.00,46.43,90.00,5.00,0.00,30.14,M,10.00,M,CLR,M,M,M,M,M,M,M,M,M,M,M,M,M,M,71.60,KCXP 100515Z AUTO 09005KT 10SM CLR 22/10 A3014 RMK AO2,M
RTS,2022-08-10 05:15,-119.8764,39.6682,1539.00,73.40,46.40,38.18,0.00,0.00,0.00,30.16,M,10.00,M,BKN,M,M,M,10000.00,M,M,M,M,M,M,M,M,M,M,73.40,KRTS 100515Z AUTO 00000KT 10SM BKN100 23/08 A3016 RMK AO2,M
BAM,2022-08-10 05:15,-116.8743,40.5990,1382.36,64.40,62.60,93.88,70.00,10.00,0.00,30.20,M,10.00,M,OVC,M,M,M,11000.00,M,M,M,M,M,M,M,M,M,M,64.40,KBAM 100515Z AUTO 07010KT 10SM OVC110 18/17 A3020 RMK AO1,M
HTH,2022-08-10 05:15,-118.6315,38.5448,1282.89,73.40,59.00,60.67,210.00,4.00,0.00,30.10,M,10.00,M,SCT,M,M,M,10000.00,M,M,M,M,M,M,M,M,M,M,73.40,KHTH 100515Z AUTO 21004KT 10SM SCT100 23/15 A3010 RMK A01,M
TMT,2022-08-10 05:15,-117.1971,39.4643,1749.34,60.80,58.60,92.45,150.00,4.00,0.02,30.28,M,10.00,M,SCT,BKN,OVC,M,4100.00,5000.00,8000.00,M,RA,M,M,M,M,M,M,60.80,KTMT 100515Z AUTO 15004KT 10SM RA SCT041 BKN050 OVC080 16/15 A3028 RMK AO2 P0002 T01600148,M
HTH,2022-08-10 05:35,-118.6315,38.5448,1282.89,71.60,60.80,68.75,0.00,0.00,0.00,30.11,M,10.00,M,OVC,M,M,M,10000.00,M,M,M,M,M,M,M,M,M,M,71.60,KHTH 100535Z AUTO 00000KT 10SM OVC100 22/16 A3011 RMK A01,M
RTS,2022-08-10 05:35,-119.8764,39.6682,1539.00,69.80,46.40,43.13,20.00,4.00,0.00,30.16,M,10.00,M,OVC,M,M,M,10000.00,M,M,M,M,M,M,M,M,M,M,69.80,KRTS 100535Z AUTO 02004KT 10SM OVC100 21/08 A3016 RMK AO2,M
MEV,2022-08-10 05:35,-119.7500,38.9963,1441.42,69.80,48.20,46.16,180.00,4.00,0.00,30.13,M,10.00,10.00,CLR,M,M,M,M,M,M,M,M,M,M,M,M,M,M,69.80,KMEV 100535Z AUTO 18004G10KT 10SM CLR 21/09 A3013 RMK AO2,M
BAM,2022-08-10 05:35,-116.8743,40.5990,1382.36,64.40,62.60,93.88,50.00,10.00,0.00,30.19,M,10.00,M,BKN,M,M,M,12000.00,M,M,M,M,M,M,M,M,M,M,64.40,KBAM 100535Z AUTO 05010KT 10SM BKN120 18/17 A3019 RMK AO1,M
TMT,2022-08-10 05:35,-117.1971,39.4643,1749.34,60.40,59.20,95.81,240.00,3.00,0.02,30.29,M,10.00,M,SCT,SCT,OVC,M,5000.00,7000.00,9000.00,M,-VCTSRA,M,M,M,M,M,M,60.40,KTMT 100535Z AUTO 24003KT 10SM -VCTSRA SCT050 SCT070 OVC090 16/15 A3029 RMK AO2 LTG DSNT E P0002 T01580151,M
BVU,2022-08-10 05:35,-114.8611,35.9475,671.00,80.60,68.00,65.54,50.00,4.00,0.00,30.00,M,M,M,M,M,M,M,M,M,M,M,M,M,M,M,M,M,M,83.29,KBVU 100535Z AUTO 05004KT 27/20 A3000 RMK AO2 PWINO TSNO,M
CXP,2022-08-10 05:35,-119.7326,39.1923,1431.00,71.60,50.00,46.43,0.00,0.00,0.00,30.15,M,10.00,M,CLR,M,M,M,M,M,M,M,M,M,M,M,M,M,M,71.60,KCXP 100535Z AUTO 00000KT 10SM CLR 22/10 A3015 RMK AO2,M
DRA,2022-08-10 05:53,-116.0278,36.6206,1009.00,81.00,60.00,49.06,120.00,7.00,0.00,30.05,1012.00,10.00,M,BKN,M,M,M,11000.00,M,M,M,M,M,M,M,M,M,M,81.62,KDRA 100553Z AUTO 12007KT 10SM BKN110 27/16 A3005 RMK AO2 SLP120 T02720156 10300 20256 53016,M
ELY,2022-08-10 05:53,-114.8453,39.2950,1909.00,60.00,58.00,92.43,200.00,8.00,0.02,30.31,1015.90,10.00,M,FEW,BKN,M,M,9000.00,11000.00,M,M,M,M,M,M,M,M,M,60.10,KELY 100553Z AUTO 20008KT 10SM FEW090 BKN110 16/14 A3031 RMK AO2 RAE16 SLP159 P0002 60012 T01560144 10233 20156 50003,M
VGT,2022-08-10 05:53,-115.1933,36.2111,667.00,88.00,62.00,42.05,0.00,0.00,0.00,29.98,1013.90,10.00,M,CLR,M,M,M,M,M,M,M,M,M,M,M,M,M,M,88.47,KVGT 100553Z AUTO 00000KT 10SM CLR 31/17 A2998 RMK AO2 SLP139 60000 T03110167 10350 20306 50009,M
LOL,2022-08-10 05:53,-118.5701,40.0684,1192.43,71.00,62.00,73.22,40.00,8.00,T,30.12,1015.70,10.00,M,BKN,BKN,M,M,9500.00,11000.00,M,M,-RA,M,M,M,M,M,M,71.10,KLOL 100553Z AUTO 04008KT 10SM -RA BKN095 BKN110 22/17 A3012 RMK AO2 RAE0459B35 SLP157 P0000 60000 T02170167 10289 20211 51029,M
TMT,2022-08-10 05:55,-117.1971,39.4643,1749.34,60.40,59.20,95.81,0.00,0.00,0.05,30.28,M,5.00,M,SCT,BKN,OVC,M,5000.00,7000.00,9000.00,M,TSRA,M,M,M,M,M,M,60.40,KTMT 100555Z AUTO 00000KT 5SM TSRA SCT050 BKN070 OVC090 16/15 A3028 RMK AO2 P0005 60009 T01580151,M
HTH,2022-08-10 05:55,-118.6315,38.5448,1282.89,71.60,60.80,68.75,210.00,4.00,0.00,30.11,M,10.00,M,BKN,OVC,M,M,9500.00,12000.00,M,M,M,M,M,M,M,M,M,71.60,KHTH 100555Z AUTO 21004KT 10SM BKN095 OVC120 22/16 A3011 RMK A01,M
RTS,2022-08-10 05:55,-119.8764,39.6682,1539.00,69.80,46.40,43.13,10.00,6.00,0.00,30.17,M,10.00,M,OVC,M,M,M,9000.00,M,M,M,M,M,M,M,M,M,M,69.80,KRTS 100555Z AUTO 01006KT 10SM OVC090 21/08 A3017 RMK AO2,M
BVU,2022-08-10 05:55,-114.8611,35.9475,671.00,80.60,68.00,65.54,70.00,7.00,0.00,30.01,M,M,M,M,M,M,M,M,M,M,M,M,M,M,M,M,M,M,83.29,KBVU 100555Z AUTO 07007KT 27/20 A3001 RMK AO2 PWINO TSNO,M
RNO,2022-08-10 05:55,-119.7711,39.4839,1341.00,76.00,49.00,38.57,190.00,4.00,0.00,30.11,1013.70,10.00,M,SCT,M,M,M,10000.00,M,M,M,M,M,M,M,M,M,M,75.90,KRNO 100555Z 19004KT 10SM SCT100 24/09 A3011 RMK AO2 SLP137 T02440094 10317 20244 51019,M
BAM,2022-08-10 05:55,-116.8743,40.5990,1382.36,64.40,62.60,93.88,50.00,5.00,0.00,30.19,M,10.00,M,BKN,M,M,M,11000.00,M,M,M,M,M,M,M,M,M,M,64.40,KBAM 100555Z AUTO 05005KT 10SM BKN110 18/17 A3019 RMK AO1,M
CXP,2022-08-10 05:55,-119.7326,39.1923,1431.00,71.60,50.00,46.43,110.00,4.00,0.00,30.15,M,10.00,M,CLR,M,M,M,M,M,M,M,M,M,M,M,M,M,M,71.60,KCXP 100555Z AUTO 11004KT 10SM CLR 22/10 A3015 RMK AO2,M
MEV,2022-08-10 05:55,-119.7500,38.9963,1441.42,66.20,50.00,55.88,140.00,4.00,0.00,30.14,M,10.00,M,CLR,M,M,M,M,M,M,M,M,M,M,M,M,M,M,66.20,KMEV 100555Z AUTO 14004KT 10SM CLR 19/10 A3014 RMK AO2,M
HND,2022-08-10 05:56,-115.1344,35.9729,742.79,83.00,64.00,52.93,170.00,4.00,0.00,30.03,1015.40,10.00,M,CLR,M,M,M,M,M,M,M,M,M,M,M,M,M,M,84.32,KHND 100556Z AUTO 17004KT 10SM CLR 28/18 A3003 RMK AO2 SLP154 T02830178 10300 20278 51012,M
EKO,2022-08-10 05:56,-115.7860,40.8242,1367.00,61.00,61.00,100.00,110.00,3.00,0.01,30.20,1017.70,10.00,M,FEW,FEW,OVC,M,6000.00,7500.00,10000.00,M,M,M,M,M,M,M,M,61.00,KEKO 100556Z AUTO 11003KT 10SM FEW060 FEW075 OVC100 16/16 A3020 RMK AO2 SLP177 P0001 60014 T01610161 10267 20150 58012 $,M
WMC,2022-08-10 05:56,-117.8072,40.9019,1315.00,66.00,62.00,87.24,0.00,0.00,0.00,30.15,1015.90,10.00,M,CLR,M,M,M,M,M,M,M,M,M,M,M,M,M,M,66.00,KWMC 100556Z AUTO 00000KT 10SM CLR 19/17 A3015 RMK AO2 SLP159 60016 T01890167 10222 20178 50014 $,M
NFL,2022-08-10 05:56,-118.7010,39.4166,1199.00,70.00,62.00,76.01,130.00,8.00,0.00,30.10,1015.90,10.00,M,SCT,SCT,BKN,M,8000.00,12000.00,25000.00,M,M,M,M,M,M,M,M,70.00,KNFL 100556Z 13008KT 10SM SCT080 SCT120 BKN250 21/17 A3010 RMK AO2 SLP159 6//// T02110167 10278 20200 53009 PNO $,M
LAS,2022-08-10 05:56,-115.1634,36.0719,663.00,84.00,63.00,49.32,150.00,6.00,0.00,30.00,1012.70,10.00,M,FEW,SCT,OVC,M,12000.00,15000.00,18000.00,M,M,M,M,M,M,M,M,84.99,KLAS 100556Z 15006KT 10SM FEW120 SCT150 OVC180 29/17 A3000 RMK AO2 SLP127 T02890172 10317 20289 51010,M
TPH,2022-08-10 05:56,-117.0904,38.0505,1654.00,71.00,61.00,70.42,110.00,9.00,T,30.21,1014.50,10.00,M,SCT,BKN,BKN,M,7000.00,8500.00,12000.00,M,M,M,M,M,M,M,M,71.10,KTPH 100556Z AUTO 11009KT 10SM SCT070 BKN085 BKN120 22/16 A3021 RMK AO2 LTG DSNT N RAE15 SLP145 P0000 60001 T02170161 10261 20206 51015,M
HTH,2022-08-10 06:15,-118.6315,38.5448,1282.89,71.60,60.80,68.75,280.00,3.00,0.00,30.11,M,10.00,M,BKN,BKN,M,M,9500.00,12000.00,M,M,M,M,M,M,M,M,M,71.60,KHTH 100615Z AUTO 28003KT 10SM BKN095 BKN120 22/16 A3011 RMK A01,M
TMT,2022-08-10 06:15,-117.1971,39.4643,1749.34,60.30,60.00,98.59,0.00,0.00,0.04,30.28,M,7.00,M,SCT,BKN,OVC,M,4300.00,5000.00,6500.00,M,RA,M,M,M,M,M,M,60.30,KTMT 100615Z AUTO 00000KT 7SM RA SCT043 BKN050 OVC065 16/16 A3028 RMK AO2 LTG DSNT NE P0004 T01570155,M
BAM,2022-08-10 06:15,-116.8743,40.5990,1382.36,64.40,62.60,93.88,60.00,5.00,0.00,30.19,M,10.00,M,OVC,M,M,M,11000.00,M,M,M,M,M,M,M,M,M,M,64.40,KBAM 100615Z AUTO 06005KT 10SM OVC110 18/17 A3019 RMK AO1,M
RTS,2022-08-10 06:15,-119.8764,39.6682,1539.00,68.00,44.60,42.85,360.00,5.00,0.00,30.17,M,10.00,M,FEW,M,M,M,9000.00,M,M,M,M,M,M,M,M,M,M,68.00,KRTS 100615Z AUTO 36005KT 10SM FEW090 20/07 A3017 RMK AO2,M
BVU,2022-08-10 06:15,-114.8611,35.9475,671.00,82.40,66.20,58.08,80.00,7.00,0.00,30.01,M,M,M,M,M,M,M,M,M,M,M,M,M,M,M,M,M,M,84.63,KBVU 100615Z AUTO 08007KT 28/19 A3001 RMK AO2 PWINO TSNO,M
CXP,2022-08-10 06:15,-119.7326,39.1923,1431.00,69.80,53.60,56.38,90.00,5.00,0.00,30.15,M,10.00,M,CLR,M,M,M,M,M,M,M,M,M,M,M,M,M,M,69.80,KCXP 100615Z AUTO 09005KT 10SM CLR 21/12 A3015 RMK AO2,M
MEV,2022-08-10 06:15,-119.7500,38.9963,1441.42,62.60,48.20,59.26,140.00,5.00,0.00,30.14,M,10.00,M,CLR,M,M,M,M,M,M,M,M,M,M,M,M,M,M,62.60,KMEV 100615Z AUTO 14005KT 10SM CLR 17/09 A3014 RMK AO2,M
BAM,2022-08-10 06:35,-116.8743,40.5990,1382.36,64.40,62.60,93.88,40.00,6.00,0.00,30.19,M,10.00,M,OVC,M,M,M,11000.00,M,M,M,M,M,M,M,M,M,M,64.40,KBAM 100635Z AUTO 04006KT 10SM OVC110 18/17 A3019 RMK AO1,M
CXP,2022-08-10 06:35,-119.7326,39.1923,1431.00,69.80,55.40,60.21,110.00,4.00,0.00,30.15,M,10.00,M,CLR,M,M,M,M,M,M,M,M,M,M,M,M,M,M,69.80,KCXP 100635Z AUTO 11004KT 10SM CLR 21/13 A3015 RMK AO2,M
RTS,2022-08-10 06:35,-119.8764,39.6682,1539.00,68.00,44.60,42.85,330.00,8.00,0.00,30.17,M,10.00,M,CLR,M,M,M,M,M,M,M,M,M,M,M,M,M,M,68.00,KRTS 100635Z AUTO 33008KT 10SM CLR 20/07 A3017 RMK AO2,M
TMT,2022-08-10 06:35,-117.1971,39.4643,1749.34,60.00,60.00,99.29,10.00,5.00,0.00,30.27,M,M,M,M,M,M,M,M,M,M,M,M,M,M,M,M,M,M,60.10,KTMT 100635Z AUTO 01005KT 16/16 A3027 RMK AO2 T01560155 PWINO,M
HTH,2022-08-10 06:35,-118.6315,38.5448,1282.89,69.80,62.60,77.90,270.00,5.00,0.00,30.11,M,10.00,M,OVC,M,M,M,9500.00,M,M,M,M,M,M,M,M,M,M,69.80,KHTH 100635Z AUTO 27005KT 10SM OVC095 21/17 A3011 RMK A01,M
BVU,2022-08-10 06:35,-114.8611,35.9475,671.00,80.60,68.00,65.54,50.00,5.00,0.00,30.02,M,M,M,M,M,M,M,M,M,M,M,M,M,M,M,M,M,M,83.29,KBVU 100635Z AUTO 05005KT 27/20 A3002 RMK AO2 PWINO TSNO,M
MEV,2022-08-10 06:35,-119.7500,38.9963,1441.42,62.60,48.20,59.26,120.00,6.00,0.00,30.13,M,10.00,M,CLR,M,M,M,M,M,M,M,M,M,M,M,M,M,M,62.60,KMEV 100635Z AUTO 12006KT 10SM CLR 17/09 A3013 RMK AO2,M
VGT,2022-08-10 06:53,-115.1933,36.2111,667.00,87.00,63.00,44.66,140.00,6.00,T,30.00,1014.50,10.00,M,CLR,M,M,M,M,M,M,M,M,M,M,M,M,M,M,87.96,KVGT 100653Z AUTO 14006KT 10SM CLR 31/17 A3000 RMK AO2 RAB02E19 SLP145 P0000 T03060172,M
DRA,2022-08-10 06:53,-116.0278,36.6206,1009.00,81.00,60.00,49.06,0.00,0.00,0.00,30.06,1012.20,10.00,M,FEW,M,M,M,11000.00,M,M,M,M,M,M,M,M,M,M,81.62,KDRA 100653Z AUTO 00000KT 10SM FEW110 27/16 A3006 RMK AO2 SLP122 T02720156,M
LOL,2022-08-10 06:53,-118.5701,40.0684,1192.43,70.00,61.00,73.11,20.00,8.00,T,30.12,1015.60,10.00,M,CLR,M,M,M,M,M,M,M,M,M,M,M,M,M,M,70.00,KLOL 100653Z AUTO 02008KT 10SM CLR 21/16 A3012 RMK AO2 RAE0555 SLP156 P0000 T02110161,M
ELY,2022-08-10 06:53,-114.8453,39.2950,1909.00,60.00,59.00,96.15,0.00,0.00,T,30.30,1015.40,10.00,M,CLR,M,M,M,M,M,M,M,M,M,M,M,M,M,M,60.10,KELY 100653Z AUTO 00000KT 10SM CLR 16/15 A3030 RMK AO2 RAB19E28 SLP154 P0000 T01560150 403060122,M
RNO,2022-08-10 06:55,-119.7711,39.4839,1341.00,73.00,49.00,42.51,0.00,0.00,0.00,30.12,1013.80,10.00,M,FEW,M,M,M,10000.00,M,M,M,M,M,M,M,M,M,M,73.00,KRNO 100655Z 00000KT 10SM FEW100 23/09 A3012 RMK AO2 SLP138 T02280094,M
CXP,2022-08-10 06:55,-119.7326,39.1923,1431.00,68.00,57.20,68.35,100.00,6.00,0.00,30.16,M,10.00,M,CLR,M,M,M,M,M,M,M,M,M,M,M,M,M,M,68.00,KCXP 100655Z AUTO 10006KT 10SM CLR 20/14 A3016 RMK AO2,M
BVU,2022-08-10 06:55,-114.8611,35.9475,671.00,80.60,68.00,65.54,50.00,6.00,0.00,30.02,M,M,M,M,M,M,M,M,M,M,M,M,M,M,M,M,M,M,83.29,KBVU 100655Z AUTO 05006KT 27/20 A3002 RMK AO2 PWINO TSNO,M
TMT,2022-08-10 06:55,-117.1971,39.4643,1749.34,M,M,M,300.00,4.00,0.00,30.28,M,10.00,M,OVC,M,M,M,9500.00,M,M,M,-RA,M,M,M,M,M,M,M,KTMT 100655Z AUTO 30004KT 10SM -RA OVC095 A3028 RMK AO2 LTG DSNT S AND SW,M
MEV,2022-08-10 06:55,-119.7500,38.9963,1441.42,62.60,48.20,59.26,120.00,8.00,0.00,30.14,M,10.00,M,CLR,M,M,M,M,M,M,M,M,M,M,M,M,M,M,62.60,KMEV 100655Z AUTO 12008KT 10SM CLR 17/09 A3014 RMK AO2,M
HTH,2022-08-10 06:55,-118.6315,38.5448,1282.89,69.80,60.80,73.09,290.00,4.00,0.00,30.11,M,10.00,M,OVC,M,M,M,9500.00,M,M,M,M,M,M,M,M,M,M,69.80,KHTH 100655Z AUTO 29004KT 10SM OVC095 21/16 A3011 RMK A01,M
BAM,2022-08-10 06:55,-116.8743,40.5990,1382.36,64.40,62.60,93.88,100.00,3.00,0.00,30.20,M,10.00,M,OVC,M,M,M,10000.00,M,M,M,M,M,M,M,M,M,M,64.40,KBAM 100655Z AUTO 10003KT 10SM OVC100 18/17 A3020 RMK AO1,M
RTS,2022-08-10 06:55,-119.8764,39.6682,1539.00,66.20,46.40,48.83,340.00,5.00,0.00,30.17,M,10.00,M,CLR,M,M,M,M,M,M,M,M,M,M,M,M,M,M,66.20,KRTS 100655Z AUTO 34005KT 10SM CLR 19/08 A3017 RMK AO2,M
TPH,2022-08-10 06:56,-117.0904,38.0505,1654.00,70.00,60.00,70.81,130.00,6.00,0.00,30.22,1014.80,10.00,M,BKN,M,M,M,11000.00,M,M,M,M,M,M,M,M,M,M,70.00,KTPH 100656Z AUTO 13006KT 10SM BKN110 21/16 A3022 RMK AO2 LTG DSNT N SLP148 T02110156,M
NFL,2022-08-10 06:56,-118.7010,39.4166,1199.00,70.00,62.00,76.01,50.00,5.00,0.00,30.10,1016.10,10.00,M,FEW,SCT,SCT,M,8000.00,12000.00,25000.00,M,M,M,M,M,M,M,M,70.00,KNFL 100656Z 05005KT 10SM FEW080 SCT120 SCT250 21/17 A3010 RMK AO2 SLP161 T02110167 PNO $,M
LAS,2022-08-10 06:56,-115.1634,36.0719,663.00,83.00,68.00,60.81,100.00,7.00,T,30.01,1013.40,10.00,M,FEW,BKN,OVC,M,10000.00,13000.00,18000.00,M,-RA,M,M,M,M,M,M,85.94,KLAS 100656Z 10007KT 10SM -RA FEW100 BKN130 OVC180 28/20 A3001 RMK AO2 RAB45 SLP134 P0000 T02830200,M
WMC,2022-08-10 06:56,-117.8072,40.9019,1315.00,65.00,63.00,93.56,M,M,0.00,30.16,1017.00,10.00,M,FEW,M,M,M,11000.00,M,M,M,M,M,M,M,M,M,M,64.90,KWMC 100656Z AUTO 10SM FEW110 18/17 A3016 RMK AO2 SLP170 T01830172 $,M
HND,2022-08-10 06:56,-115.1344,35.9729,742.79,82.00,67.00,60.28,0.00,0.00,T,30.05,1015.80,10.00,M,FEW,SCT,M,M,7000.00,11000.00,M,M,M,M,M,M,M,M,M,84.48,KHND 100656Z AUTO 00000KT 10SM FEW070 SCT110 28/19 A3005 RMK AO2 RAB23E56 SLP158 P0000 T02780194 403670278,M
EKO,2022-08-10 06:56,-115.7860,40.8242,1367.00,62.00,61.00,96.18,0.00,0.00,0.00,30.22,1017.80,10.00,M,OVC,M,M,M,11000.00,M,M,M,M,M,M,M,M,M,M,62.10,KEKO 100656Z AUTO 00000KT 10SM OVC110 17/16 A3022 RMK AO2 SLP178 T01670161 $,M
CXP,2022-08-10 07:10,-119.7326,39.1923,1431.00,68.00,57.20,68.35,M,5.00,0.00,30.16,M,10.00,M,CLR,M,M,M,M,M,M,M,M,M,M,M,M,M,M,68.00,KCXP 100710Z AUTO VRB05KT 10SM CLR 20/14 A3016 RMK AO2,M
BVU,2022-08-10 07:15,-114.8611,35.9475,671.00,82.40,66.20,58.08,70.00,7.00,0.00,30.02,M,M,M,M,M,M,M,M,M,M,M,M,M,M,M,M,M,M,84.63,KBVU 100715Z AUTO 07007KT 28/19 A3002 RMK AO2 PWINO TSNO,M
RTS,2022-08-10 07:15,-119.8764,39.6682,1539.00,64.40,46.40,51.98,350.00,5.00,0.00,30.18,M,10.00,M,CLR,M,M,M,M,M,M,M,M,M,M,M,M,M,M,64.40,KRTS 100715Z AUTO 35005KT 10SM CLR 18/08 A3018 RMK AO2,M
TMT,2022-08-10 07:15,-117.1971,39.4643,1749.34,M,M,M,310.00,5.00,0.00,30.27,M,10.00,M,SCT,OVC,M,M,8000.00,9500.00,M,M,-DZ,M,M,M,M,M,M,M,KTMT 100715Z AUTO 31005KT 10SM -DZ SCT080 OVC095 A3027 RMK AO2 LTG DSNT SW,M
HTH,2022-08-10 07:15,-118.6315,38.5448,1282.89,69.80,60.80,73.09,0.00,0.00,0.00,30.12,M,10.00,M,BKN,BKN,M,M,10000.00,12000.00,M,M,M,M,M,M,M,M,M,69.80,KHTH 100715Z AUTO 00000KT 10SM BKN100 BKN120 21/16 A3012 RMK A01,M
BAM,2022-08-10 07:15,-116.8743,40.5990,1382.36,64.40,62.60,93.88,0.00,0.00,0.00,30.20,M,10.00,M,OVC,M,M,M,10000.00,M,M,M,M,M,M,M,M,M,M,64.40,KBAM 100715Z AUTO 00000KT 10SM OVC100 18/17 A3020 RMK AO1,M
MEV,2022-08-10 07:15,-119.7500,38.9963,1441.42,62.60,48.20,59.26,130.00,7.00,0.00,30.15,M,10.00,M,CLR,M,M,M,M,M,M,M,M,M,M,M,M,M,M,62.60,KMEV 100715Z AUTO 13007KT 10SM CLR 17/09 A3015 RMK AO2,M
CXP,2022-08-10 07:35,-119.7326,39.1923,1431.00,68.00,57.20,68.35,110.00,3.00,0.00,30.16,M,10.00,M,CLR,M,M,M,M,M,M,M,M,M,M,M,M,M,M,68.00,KCXP 100735Z AUTO 11003KT 10SM CLR 20/14 A3016 RMK AO2,M
BVU,2022-08-10 07:35,-114.8611,35.9475,671.00,82.40,66.20,58.08,50.00,6.00,0.00,30.02,M,M,M,M,M,M,M,M,M,M,M,M,M,M,M,M,M,M,84.63,KBVU 100735Z AUTO 05006KT 28/19 A3002 RMK AO2 PWINO TSNO,M
TMT,2022-08-10 07:35,-117.1971,39.4643,1749.34,M,M,M,320.00,3.00,0.00,30.27,M,10.00,M,SCT,OVC,M,M,6500.00,9500.00,M,M,TS,M,M,M,M,M,M,M,KTMT 100735Z AUTO 32003KT 10SM TS SCT065 OVC095 A3027 RMK AO2 LTG DSNT SE AND S,M
HTH,2022-08-10 07:35,-118.6315,38.5448,1282.89,69.80,60.80,73.09,200.00,4.00,0.00,30.12,M,10.00,M,BKN,BKN,M,M,10000.00,12000.00,M,M,M,M,M,M,M,M,M,69.80,KHTH 100735Z AUTO 20004KT 10SM BKN100 BKN120 21/16 A3012 RMK A01,M
BAM,2022-08-10 07:35,-116.8743,40.5990,1382.36,64.40,62.60,93.88,140.00,4.00,0.00,30.21,M,10.00,M,OVC,M,M,M,10000.00,M,M,M,M,M,M,M,M,M,M,64.40,KBAM 100735Z AUTO 14004KT 10SM OVC100 18/17 A3021 RMK AO1,M
MEV,2022-08-10 07:35,-119.7500,38.9963,1441.42,64.40,48.20,55.63,180.00,6.00,0.00,30.14,M,10.00,M,CLR,M,M,M,M,M,M,M,M,M,M,M,M,M,M,64.40,KMEV 100735Z AUTO 18006KT 10SM CLR 18/09 A3014 RMK AO2,M
RTS,2022-08-10 07:35,-119.8764,39.6682,1539.00,62.60,44.60,51.72,330.00,7.00,0.00,30.18,M,10.00,M,CLR,M,M,M,M,M,M,M,M,M,M,M,M,M,M,62.60,KRTS 100735Z AUTO 33007KT 10SM CLR 17/07 A3018 RMK AO2,M
VGT,2022-08-10 07:53,-115.1933,36.2111,667.00,86.00,64.00,47.91,0.00,0.00,0.00,30.01,1014.90,10.00,M,CLR,M,M,M,M,M,M,M,M,M,M,M,M,M,M,87.31,KVGT 100753Z AUTO 00000KT 10SM CLR 30/18 A3001 RMK AO2 SLP149 T03000178 403670294,M
DRA,2022-08-10 07:53,-116.0278,36.6206,1009.00,80.00,62.00,54.23,10.00,5.00,0.00,30.06,1012.70,10.00,M,OVC,M,M,M,11000.00,M,M,M,M,M,M,M,M,M,M,81.31,KDRA 100753Z AUTO 01005KT 10SM OVC110 27/17 A3006 RMK AO2 SLP127 T02670167 403610233,M
ELY,2022-08-10 07:53,-114.8453,39.2950,1909.00,59.00,58.00,96.13,190.00,5.00,0.00,30.30,1015.50,10.00,M,CLR,M,M,M,M,M,M,M,M,M,M,M,M,M,M,59.00,KELY 100753Z AUTO 19005KT 10SM CLR 15/14 A3030 RMK AO2 SLP155 T01500144,M
LOL,2022-08-10 07:53,-118.5701,40.0684,1192.43,69.00,61.00,75.40,20.00,8.00,0.00,30.11,1015.20,10.00,M,SCT,M,M,M,12000.00,M,M,M,M,M,M,M,M,M,M,69.10,KLOL 100753Z AUTO 02008KT 10SM SCT120 21/16 A3011 RMK AO2 SLP152 T02060161 403390183,M
HTH,2022-08-10 07:55,-118.6315,38.5448,1282.89,69.80,60.80,73.09,210.00,4.00,0.00,30.12,M,10.00,M,OVC,M,M,M,11000.00,M,M,M,M,M,M,M,M,M,M,69.80,KHTH 100755Z AUTO 21004KT 10SM OVC110 21/16 A3012 RMK A01,M
MEV,2022-08-10 07:55,-119.7500,38.9963,1441.42,62.60,48.20,59.26,0.00,0.00,0.00,30.14,M,10.00,M,CLR,M,M,M,M,M,M,M,M,M,M,M,M,M,M,62.60,KMEV 100755Z AUTO 00000KT 10SM CLR 17/09 A3014 RMK AO2,M
RTS,2022-08-10 07:55,-119.8764,39.6682,1539.00,64.40,44.60,48.55,350.00,7.00,0.00,30.18,M,10.00,M,CLR,M,M,M,M,M,M,M,M,M,M,M,M,M,M,64.40,KRTS 100755Z AUTO 35007KT 10SM CLR 18/07 A3018 RMK AO2,M
CXP,2022-08-10 07:55,-119.7326,39.1923,1431.00,68.00,55.40,64.04,310.00,4.00,0.00,30.16,M,10.00,M,CLR,M,M,M,M,M,M,M,M,M,M,M,M,M,M,68.00,KCXP 100755Z AUTO 31004KT 10SM CLR 20/13 A3016 RMK AO2,M
BVU,2022-08-10 07:55,-114.8611,35.9475,671.00,82.40,66.20,58.08,50.00,6.00,0.00,30.02,M,M,M,M,M,M,M,M,M,M,M,M,M,M,M,M,M,M,84.63,KBVU 100755Z AUTO 05006KT 28/19 A3002 RMK AO2 PWINO TSNO,M
RNO,2022-08-10 07:55,-119.7711,39.4839,1341.00,72.00,49.00,43.97,260.00,4.00,0.00,30.12,1013.80,10.00,M,FEW,FEW,M,M,10000.00,15000.00,M,M,M,M,M,M,M,M,M,72.00,KRNO 100755Z 26004KT 10SM FEW100 FEW150 22/09 A3012 RMK AO2 SLP138 T02220094 403390194,M
TMT,2022-08-10 07:55,-117.1971,39.4643,1749.34,M,M,M,220.00,4.00,0.00,30.28,M,10.00,M,OVC,M,M,M,9500.00,M,M,M,M,M,M,M,M,M,M,M,KTMT 100755Z AUTO 22004KT 10SM OVC095 A3028 RMK AO2,M
BAM,2022-08-10 07:55,-116.8743,40.5990,1382.36,62.60,62.60,100.00,140.00,4.00,0.00,30.20,M,10.00,M,BKN,OVC,M,M,10000.00,12000.00,M,M,M,M,M,M,M,M,M,62.60,KBAM 100755Z AUTO 14004KT 10SM BKN100 OVC120 17/17 A3020 RMK AO1,M
LAS,2022-08-10 07:56,-115.1634,36.0719,663.00,83.00,67.00,58.55,80.00,8.00,T,30.01,1013.30,10.00,M,BKN,OVC,M,M,12000.00,15000.00,M,M,M,M,M,M,M,M,M,85.45,KLAS 100756Z 08008KT 10SM BKN120 OVC150 28/19 A3001 RMK AO2 RAE49 SLP133 P0000 T02830194 403610278,M
WMC,2022-08-10 07:56,-117.8072,40.9019,1315.00,66.00,61.00,83.91,40.00,7.00,0.00,30.16,1016.60,10.00,M,FEW,SCT,OVC,M,8000.00,9000.00,11000.00,M,M,M,M,M,M,M,M,66.00,KWMC 100756Z AUTO 04007KT 10SM FEW080 SCT090 OVC110 19/16 A3016 RMK AO2 SLP166 T01890161 403060172 $,M
EKO,2022-08-10 07:56,-115.7860,40.8242,1367.00,63.00,60.00,90.25,0.00,0.00,0.00,30.23,1018.20,10.00,M,OVC,M,M,M,11000.00,M,M,M,M,M,M,M,M,M,M,63.00,KEKO 100756Z AUTO 00000KT 10SM OVC110 17/16 A3023 RMK AO2 SLP182 T01720156 403000144 $,M
HND,2022-08-10 07:56,-115.1344,35.9729,742.79,82.00,65.00,56.24,0.00,0.00,0.00,30.05,1016.10,10.00,M,SCT,M,M,M,11000.00,M,M,M,M,M,M,M,M,M,M,83.76,KHND 100756Z AUTO 00000KT 10SM SCT110 28/18 A3005 RMK AO2 SLP161 T02780183,M
NFL,2022-08-10 07:56,-118.7010,39.4166,1199.00,67.00,62.00,84.56,40.00,4.00,0.00,30.11,1016.20,10.00,M,CLR,M,M,M,M,M,M,M,M,M,M,M,M,M,M,66.90,KNFL 100756Z AUTO 04004KT 10SM CLR 19/17 A3011 RMK AO2 SLP162 T01940167 403110194 PNO $,M
TPH,2022-08-10 07:56,-117.0904,38.0505,1654.00,69.00,61.00,75.40,0.00,0.00,T,30.22,1015.10,10.00,M,BKN,OVC,M,M,10000.00,12000.00,M,M,-RA,M,M,M,M,M,M,69.10,KTPH 100756Z AUTO 00000KT 10SM -RA BKN100 OVC120 21/16 A3022 RMK AO2 RAB48 SLP151 P0000 T02060161 403000194,M
BAM,2022-08-10 08:15,-116.8743,40.5990,1382.36,64.40,62.60,93.88,210.00,4.00,0.00,30.20,M,10.00,M,BKN,M,M,M,11000.00,M,M,M,M,M,M,M,M,M,M,64.40,KBAM 100815Z AUTO 21004KT 10SM BKN110 18/17 A3020 RMK AO1,M
BVU,2022-08-10 08:15,-114.8611,35.9475,671.00,82.40,66.20,58.08,50.00,6.00,0.00,30.01,M,M,M,M,M,M,M,M,M,M,M,M,M,M,M,M,M,M,84.63,KBVU 100815Z AUTO 05006KT 28/19 A3001 RMK AO2 PWINO TSNO,M
RTS,2022-08-10 08:15,-119.8764,39.6682,1539.00,64.40,44.60,48.55,350.00,5.00,0.00,30.17,M,10.00,M,CLR,M,M,M,M,M,M,M,M,M,M,M,M,M,M,64.40,KRTS 100815Z AUTO 35005KT 10SM CLR 18/07 A3017 RMK AO2,M
MEV,2022-08-10 08:15,-119.7500,38.9963,1441.42,62.60,48.20,59.26,110.00,4.00,0.00,30.14,M,10.00,M,CLR,M,M,M,M,M,M,M,M,M,M,M,M,M,M,62.60,KMEV 100815Z AUTO 11004KT 10SM CLR 17/09 A3014 RMK AO2,M
HTH,2022-08-10 08:15,-118.6315,38.5448,1282.89,69.80,60.80,73.09,200.00,4.00,0.00,30.11,M,10.00,M,OVC,M,M,M,11000.00,M,M,M,M,M,M,M,M,M,M,69.80,KHTH 100815Z AUTO 20004KT 10SM OVC110 21/16 A3011 RMK A01,M
TMT,2022-08-10 08:15,-117.1971,39.4643,1749.34,M,M,M,160.00,3.00,0.01,30.27,M,7.00,M,SCT,BKN,OVC,M,6500.00,8000.00,9500.00,M,RA,M,M,M,M,M,M,M,KTMT 100815Z AUTO 16003KT 7SM RA SCT065 BKN080 OVC095 A3027 RMK AO2 P0001,M
CXP,2022-08-10 08:15,-119.7326,39.1923,1431.00,66.20,57.20,72.74,0.00,0.00,0.00,30.16,M,10.00,M,CLR,M,M,M,M,M,M,M,M,M,M,M,M,M,M,66.20,KCXP 100815Z AUTO 00000KT 10SM CLR 19/14 A3016 RMK AO2,M
TMT,2022-08-10 08:35,-117.1971,39.4643,1749.34,M,M,M,190.00,3.00,0.02,30.28,M,10.00,M,SCT,SCT,OVC,M,7000.00,8000.00,10000.00,M,RA,M,M,M,M,M,M,M,KTMT 100835Z AUTO 19003KT 10SM RA SCT070 SCT080 OVC100 A3028 RMK AO2 P0002,M
CXP,2022-08-10 08:35,-119.7326,39.1923,1431.00,66.20,55.40,68.15,0.00,0.00,0.00,30.16,M,10.00,M,CLR,M,M,M,M,M,M,M,M,M,M,M,M,M,M,66.20,KCXP 100835Z AUTO 00000KT 10SM CLR 19/13 A3016 RMK AO2,M
RTS,2022-08-10 08:35,-119.8764,39.6682,1539.00,62.60,42.80,48.28,340.00,5.00,0.00,30.18,M,10.00,M,CLR,M,M,M,M,M,M,M,M,M,M,M,M,M,M,62.60,KRTS 100835Z AUTO 34005KT 10SM CLR 17/06 A3018 RMK AO2,M
MEV,2022-08-10 08:35,-119.7500,38.9963,1441.42,60.80,50.00,67.54,130.00,9.00,0.00,30.14,M,10.00,M,CLR,M,M,M,M,M,M,M,M,M,M,M,M,M,M,60.80,KMEV 100835Z AUTO 13009KT 10SM CLR 16/10 A3014 RMK AO2,M
BAM,2022-08-10 08:35,-116.8743,40.5990,1382.36,64.40,62.60,93.88,0.00,0.00,0.00,30.19,M,10.00,M,OVC,M,M,M,11000.00,M,M,M,M,M,M,M,M,M,M,64.40,KBAM 100835Z AUTO 00000KT 10SM OVC110 18/17 A3019 RMK AO1,M
HTH,2022-08-10 08:35,-118.6315,38.5448,1282.89,69.80,60.80,73.09,200.00,5.00,0.00,30.11,M,10.00,M,SCT,M,M,M,11000.00,M,M,M,M,M,M,M,M,M,M,69.80,KHTH 100835Z AUTO 20005KT 10SM SCT110 21/16 A3011 RMK A01,M
BVU,2022-08-10 08:35,-114.8611,35.9475,671.00,82.40,66.20,58.08,50.00,4.00,0.00,30.01,M,M,M,M,M,M,M,M,M,M,M,M,M,M,M,M,M,M,84.63,KBVU 100835Z AUTO 05004KT 28/19 A3001 RMK AO2 PWINO TSNO,M
ELY,2022-08-10 08:53,-114.8453,39.2950,1909.00,59.00,58.00,96.13,220.00,5.00,T,30.30,1015.60,10.00,M,OVC,M,M,M,10000.00,M,M,M,-RA,M,M,M,M,M,M,59.00,KELY 100853Z AUTO 22005KT 10SM -RA OVC100 15/14 A3030 RMK AO2 RAB29 SLP156 P0000 60000 T01500144 55002,M
DRA,2022-08-10 08:53,-116.0278,36.6206,1009.00,78.00,63.00,59.78,100.00,5.00,0.00,30.06,1013.10,10.00,M,SCT,BKN,M,M,10000.00,11000.00,M,M,M,M,M,M,M,M,M,78.10,KDRA 100853Z AUTO 10005KT 10SM SCT100 BKN110 26/17 A3006 RMK AO2 SLP131 T02560172 51004,M
LOL,2022-08-10 08:53,-118.5701,40.0684,1192.43,68.00,60.00,75.84,30.00,7.00,0.00,30.10,1015.00,10.00,M,FEW,M,M,M,10000.00,M,M,M,M,M,M,M,M,M,M,68.00,KLOL 100853Z AUTO 03007KT 10SM FEW100 20/16 A3010 RMK AO2 SLP150 60000 T02000156 58006,M
VGT,2022-08-10 08:53,-115.1933,36.2111,667.00,85.00,65.00,51.21,40.00,5.00,0.00,30.01,1014.80,10.00,M,CLR,M,M,M,M,M,M,M,M,M,M,M,M,M,M,86.62,KVGT 100853Z AUTO 04005KT 10SM CLR 29/18 A3001 RMK AO2 SLP148 60000 T02940183 50008,M
HTH,2022-08-10 08:55,-118.6315,38.5448,1282.89,69.80,60.80,73.09,180.00,3.00,0.00,30.11,M,10.00,M,BKN,M,M,M,11000.00,M,M,M,M,M,M,M,M,M,M,69.80,KHTH 100855Z AUTO 18003KT 10SM BKN110 21/16 A3011 RMK A01,M
BVU,2022-08-10 08:55,-114.8611,35.9475,671.00,82.40,66.20,58.08,60.00,6.00,0.00,30.01,M,M,M,M,M,M,M,M,M,M,M,M,M,M,M,M,M,M,84.63,KBVU 100855Z AUTO 06006KT 28/19 A3001 RMK AO2 PWINO TSNO,M
CXP,2022-08-10 08:55,-119.7326,39.1923,1431.00,64.40,55.40,72.56,0.00,0.00,0.00,30.16,M,10.00,M,CLR,M,M,M,M,M,M,M,M,M,M,M,M,M,M,64.40,KCXP 100855Z AUTO 00000KT 10SM CLR 18/13 A3016 RMK AO2,M
RNO,2022-08-10 08:55,-119.7711,39.4839,1341.00,70.00,47.00,43.66,280.00,5.00,0.00,30.13,1013.90,10.00,M,FEW,FEW,M,M,10000.00,15000.00,M,M,M,M,M,M,M,M,M,70.00,KRNO 100855Z 28005KT 10SM FEW100 FEW150 21/08 A3013 RMK AO2 SLP139 T02110083 51004,M
RTS,2022-08-10 08:55,-119.8764,39.6682,1539.00,60.80,44.60,55.12,350.00,5.00,0.00,30.18,M,10.00,M,CLR,M,M,M,M,M,M,M,M,M,M,M,M,M,M,60.80,KRTS 100855Z AUTO 35005KT 10SM CLR 16/07 A3018 RMK AO2,M
MEV,2022-08-10 08:55,-119.7500,38.9963,1441.42,60.80,50.00,67.54,120.00,9.00,0.00,30.14,M,10.00,M,CLR,M,M,M,M,M,M,M,M,M,M,M,M,M,M,60.80,KMEV 100855Z AUTO 12009KT 10SM CLR 16/10 A3014 RMK AO2,M
BAM,2022-08-10 08:55,-116.8743,40.5990,1382.36,64.40,62.60,93.88,90.00,3.00,0.00,30.19,M,10.00,M,OVC,M,M,M,11000.00,M,M,M,M,M,M,M,M,M,M,64.40,KBAM 100855Z AUTO 09003KT 10SM OVC110 18/17 A3019 RMK AO1,M
TMT,2022-08-10 08:55,-117.1971,39.4643,1749.34,M,M,M,0.00,0.00,0.04,30.28,M,10.00,M,SCT,OVC,M,M,7000.00,9000.00,M,M,RA,M,M,M,M,M,M,M,KTMT 100855Z AUTO 00000KT 10SM RA SCT070 OVC090 A3028 RMK AO2 P0004 60004,M
NFL,2022-08-10 08:56,-118.7010,39.4166,1199.00,66.00,62.00,87.24,0.00,0.00,0.00,30.10,1016.10,10.00,M,BKN,M,M,M,11000.00,M,M,M,M,M,M,M,M,M,M,66.00,KNFL 100856Z AUTO 00000KT 10SM BKN110 19/17 A3010 RMK AO2 SLP161 6//// T01890167 50001 PNO $,M
LAS,2022-08-10 08:56,-115.1634,36.0719,663.00,83.00,66.00,56.75,100.00,5.00,0.00,30.01,1013.30,10.00,M,FEW,OVC,M,M,12000.00,14000.00,M,M,M,M,M,M,M,M,M,85.07,KLAS 100856Z 10005KT 10SM FEW120 OVC140 28/19 A3001 RMK AO2 SLP133 60000 T02830189 50005,M
HND,2022-08-10 08:56,-115.1344,35.9729,742.79,81.00,66.00,60.37,0.00,0.00,0.00,30.05,1016.10,10.00,M,FEW,M,M,M,12000.00,M,M,M,M,M,M,M,M,M,M,83.11,KHND 100856Z AUTO 00000KT 10SM FEW120 27/19 A3005 RMK AO2 SLP161 60000 T02720189 51006,M
WMC,2022-08-10 08:56,-117.8072,40.9019,1315.00,66.00,61.00,83.91,50.00,7.00,T,30.14,1015.70,10.00,M,FEW,M,M,M,11000.00,M,M,M,M,M,M,M,M,M,M,66.00,KWMC 100856Z AUTO 05007KT 10SM FEW110 19/16 A3014 RMK AO2 RAB06E16 SLP157 P0000 60000 T01890161 58003 $,M
TPH,2022-08-10 08:56,-117.0904,38.0505,1654.00,68.00,62.00,81.41,0.00,0.00,T,30.22,1015.10,10.00,M,SCT,BKN,M,M,9500.00,12000.00,M,M,M,M,M,M,M,M,M,68.00,KTPH 100856Z AUTO 00000KT 10SM SCT095 BKN120 20/17 A3022 RMK AO2 RAE0759 SLP151 P0000 60000 T02000167 51004,M
EKO,2022-08-10 08:56,-115.7860,40.8242,1367.00,60.00,60.00,100.00,10.00,3.00,0.00,30.22,1017.90,10.00,M,FEW,M,M,M,11000.00,M,M,M,M,M,M,M,M,M,M,60.10,KEKO 100856Z AUTO 01003KT 10SM FEW110 16/16 A3022 RMK AO2 SLP179 T01560156 50005 $,M
TMT,2022-08-10 09:15,-117.1971,39.4643,1749.34,M,M,M,360.00,3.00,0.02,30.27,M,7.00,M,SCT,BKN,OVC,M,3900.00,7000.00,9000.00,M,-RA,M,M,M,M,M,M,M,KTMT 100915Z AUTO 36003KT 7SM -RA SCT039 BKN070 OVC090 A3027 RMK AO2 P0002,M
BVU,2022-08-10 09:15,-114.8611,35.9475,671.00,80.60,66.20,61.58,50.00,5.00,0.00,30.02,M,M,M,M,M,M,M,M,M,M,M,M,M,M,M,M,M,M,82.75,KBVU 100915Z AUTO 05005KT 27/19 A3002 RMK AO2 PWINO TSNO,M
CXP,2022-08-10 09:15,-119.7326,39.1923,1431.00,64.40,53.60,67.95,0.00,0.00,0.00,30.16,M,10.00,M,CLR,M,M,M,M,M,M,M,M,M,M,M,M,M,M,64.40,KCXP 100915Z AUTO 00000KT 10SM CLR 18/12 A3016 RMK AO2,M
RTS,2022-08-10 09:15,-119.8764,39.6682,1539.00,60.80,42.80,51.45,350.00,5.00,0.00,30.18,M,10.00,M,CLR,M,M,M,M,M,M,M,M,M,M,M,M,M,M,60.80,KRTS 100915Z AUTO 35005KT 10SM CLR 16/06 A3018 RMK AO2,M
MEV,2022-08-10 09:15,-119.7500,38.9963,1441.42,60.80,48.20,63.15,M,3.00,0.00,30.14,M,10.00,M,CLR,M,M,M,M,M,M,M,M,M,M,M,M,M,M,60.80,KMEV 100915Z AUTO VRB03KT 10SM CLR 16/09 A3014 RMK AO2,M
BAM,2022-08-10 09:15,-116.8743,40.5990,1382.36,64.40,62.60,93.88,140.00,5.00,0.00,30.19,M,10.00,M,OVC,M,M,M,11000.00,M,M,M,M,M,M,M,M,M,M,64.40,KBAM 100915Z AUTO 14005KT 10SM OVC110 18/17 A3019 RMK AO1,M
HTH,2022-08-10 09:15,-118.6315,38.5448,1282.89,68.00,60.80,77.75,260.00,4.00,0.00,30.12,M,10.00,M,BKN,M,M,M,10000.00,M,M,M,M,M,M,M,M,M,M,68.00,KHTH 100915Z AUTO 26004KT 10SM BKN100 20/16 A3012 RMK A01,M
RTS,2022-08-10 09:35,-119.8764,39.6682,1539.00,62.60,42.80,48.28,340.00,4.00,0.00,30.17,M,10.00,M,CLR,M,M,M,M,M,M,M,M,M,M,M,M,M,M,62.60,KRTS 100935Z AUTO 34004KT 10SM CLR 17/06 A3017 RMK AO2,M
MEV,2022-08-10 09:35,-119.7500,38.9963,1441.42,62.60,48.20,59.26,0.00,0.00,0.00,30.15,M,10.00,M,CLR,M,M,M,M,M,M,M,M,M,M,M,M,M,M,62.60,KMEV 100935Z AUTO 00000KT 10SM CLR 17/09 A3015 RMK AO2,M
BVU,2022-08-10 09:35,-114.8611,35.9475,671.00,80.60,66.20,61.58,40.00,3.00,0.00,30.02,M,M,M,M,M,M,M,M,M,M,M,M,M,M,M,M,M,M,82.75,KBVU 100935Z AUTO 04003KT 27/19 A3002 RMK AO2 PWINO TSNO,M
CXP,2022-08-10 09:35,-119.7326,39.1923,1431.00,64.40,51.80,63.60,0.00,0.00,0.00,30.16,M,10.00,M,CLR,M,M,M,M,M,M,M,M,M,M,M,M,M,M,64.40,KCXP 100935Z AUTO 00000KT 10SM CLR 18/11 A3016 RMK AO2,M
BAM,2022-08-10 09:35,-116.8743,40.5990,1382.36,62.60,62.60,100.00,140.00,4.00,0.00,30.19,M,10.00,M,BKN,M,M,M,11000.00,M,M,M,M,M,M,M,M,M,M,62.60,KBAM 100935Z AUTO 14004KT 10SM BKN110 17/17 A3019 RMK AO1,M
HTH,2022-08-10 09:35,-118.6315,38.5448,1282.89,69.80,59.00,68.55,270.00,4.00,0.00,30.12,M,10.00,M,OVC,M,M,M,9500.00,M,M,M,M,M,M,M,M,M,M,69.80,KHTH 100935Z AUTO 27004KT 10SM OVC095 21/15 A3012 RMK A01,M
ELY,2022-08-10 09:53,-114.8453,39.2950,1909.00,60.00,57.00,89.48,0.00,0.00,0.01,30.30,1015.50,10.00,M,OVC,M,M,M,9500.00,M,M,M,-RA,M,M,M,M,M,M,60.10,KELY 100953Z AUTO 00000KT 10SM -RA OVC095 16/14 A3030 RMK AO2 RAE0854B25 SLP155 P0001 T01560139,M
DRA,2022-08-10 09:53,-116.0278,36.6206,1009.00,80.00,61.00,52.16,80.00,4.00,0.00,30.06,1013.20,10.00,M,CLR,M,M,M,M,M,M,M,M,M,M,M,M,M,M,81.10,KDRA 100953Z AUTO 08004KT 10SM CLR 27/16 A3006 RMK AO2 SLP132 T02670161,M
LOL,2022-08-10 09:53,-118.5701,40.0684,1192.43,67.00,60.00,78.77,30.00,5.00,0.00,30.10,1014.80,10.00,M,SCT,M,M,M,9500.00,M,M,M,M,M,M,M,M,M,M,66.90,KLOL 100953Z AUTO 03005KT 10SM SCT095 19/16 A3010 RMK AO2 SLP148 T01940156,M
VGT,2022-08-10 09:53,-115.1933,36.2111,667.00,85.00,65.00,51.21,40.00,3.00,0.00,30.01,1014.90,10.00,M,CLR,M,M,M,M,M,M,M,M,M,M,M,M,M,M,86.62,KVGT 100953Z AUTO 04003KT 10SM CLR 29/18 A3001 RMK AO2 SLP149 T02940183,M
RTS,2022-08-10 09:55,-119.8764,39.6682,1539.00,60.80,44.60,55.12,100.00,4.00,0.00,30.17,M,10.00,M,CLR,M,M,M,M,M,M,M,M,M,M,M,M,M,M,60.80,KRTS 100955Z AUTO 10004KT 10SM CLR 16/07 A3017 RMK AO2,M
MEV,2022-08-10 09:55,-119.7500,38.9963,1441.42,60.80,48.20,63.15,0.00,0.00,0.00,30.14,M,10.00,M,FEW,M,M,M,4200.00,M,M,M,M,M,M,M,M,M,M,60.80,KMEV 100955Z AUTO 00000KT 10SM FEW042 16/09 A3014 RMK AO2,M
BAM,2022-08-10 09:55,-116.8743,40.5990,1382.36,62.60,62.60,100.00,120.00,5.00,0.00,30.20,M,10.00,M,SCT,M,M,M,11000.00,M,M,M,M,M,M,M,M,M,M,62.60,KBAM 100955Z AUTO 12005KT 10SM SCT110 17/17 A3020 RMK AO1,M
HTH,2022-08-10 09:55,-118.6315,38.5448,1282.89,68.00,60.80,77.75,0.00,0.00,0.00,30.12,M,10.00,M,BKN,M,M,M,9500.00,M,M,M,M,M,M,M,M,M,M,68.00,KHTH 100955Z AUTO 00000KT 10SM BKN095 20/16 A3012 RMK A01,M
TMT,2022-08-10 09:55,-117.1971,39.4643,1749.34,M,M,M,0.00,0.00,0.02,30.27,M,10.00,M,OVC,M,M,M,8000.00,M,M,M,M,M,M,M,M,M,M,M,KTMT 100955Z AUTO 00000KT 10SM OVC080 A3027 RMK AO2 LTG DSNT W P0002,M
CXP,2022-08-10 09:55,-119.7326,39.1923,1431.00,64.40,53.60,67.95,0.00,0.00,0.00,30.16,M,10.00,M,CLR,M,M,M,M,M,M,M,M,M,M,M,M,M,M,64.40,KCXP 100955Z AUTO 00000KT 10SM CLR 18/12 A3016 RMK AO2,M
BVU,2022-08-10 09:55,-114.8611,35.9475,671.00,80.60,66.20,61.58,50.00,5.00,0.00,30.02,M,M,M,M,M,M,M,M,M,M,M,M,M,M,M,M,M,M,82.75,KBVU 100955Z AUTO 05005KT 27/19 A3002 RMK AO2 PWINO TSNO,M
RNO,2022-08-10 09:55,-119.7711,39.4839,1341.00,68.00,46.00,45.19,280.00,5.00,0.00,30.12,1013.80,10.00,M,FEW,FEW,M,M,10000.00,15000.00,M,M,M,M,M,M,M,M,M,68.00,KRNO 100955Z 28005KT 10SM FEW100 FEW150 20/08 A3012 RMK AO2 SLP138 T02000078,M
EKO,2022-08-10 09:56,-115.7860,40.8242,1367.00,60.00,60.00,100.00,40.00,3.00,0.00,30.22,1017.80,10.00,M,FEW,M,M,M,9000.00,M,M,M,M,M,M,M,M,M,M,60.10,KEKO 100956Z AUTO 04003KT 10SM FEW090 16/16 A3022 RMK AO2 SLP178 T01560156 $,M
NFL,2022-08-10 09:56,-118.7010,39.4166,1199.00,66.00,62.00,87.24,0.00,0.00,0.00,30.10,1016.00,10.00,M,CLR,M,M,M,M,M,M,M,M,M,M,M,M,M,M,66.00,KNFL 100956Z AUTO 00000KT 10SM CLR 19/17 A3010 RMK AO2 SLP160 T01890167 PNO $,M
LAS,2022-08-10 09:56,-115.1634,36.0719,663.00,82.00,66.00,58.43,80.00,3.00,0.00,30.02,1013.70,10.00,M,FEW,SCT,BKN,M,12000.00,14000.00,18000.00,M,M,M,M,M,M,M,M,84.15,KLAS 100956Z 08003KT 10SM FEW120 SCT140 BKN180 28/19 A3002 RMK AO2 SLP137 T02780189,M
TPH,2022-08-10 09:56,-117.0904,38.0505,1654.00,70.00,58.00,65.45,120.00,8.00,0.00,30.22,1015.60,10.00,M,BKN,BKN,M,M,10000.00,12000.00,M,M,M,M,M,M,M,M,M,70.00,KTPH 100956Z AUTO 12008KT 10SM BKN100 BKN120 21/14 A3022 RMK AO2 SLP156 T02110144,M
HND,2022-08-10 09:56,-115.1344,35.9729,742.79,79.00,67.00,66.49,0.00,0.00,0.00,30.05,1016.40,10.00,M,FEW,M,M,M,12000.00,M,M,M,M,M,M,M,M,M,M,79.00,KHND 100956Z AUTO 00000KT 10SM FEW120 26/19 A3005 RMK AO2 SLP164 T02610194,M
WMC,2022-08-10 09:56,-117.8072,40.9019,1315.00,65.00,61.00,87.18,90.00,7.00,0.00,30.14,1015.50,10.00,M,FEW,M,M,M,12000.00,M,M,M,M,M,M,M,M,M,M,64.90,KWMC 100956Z AUTO 09007KT 10SM FEW120 18/16 A3014 RMK AO2 SLP155 T01830161 $,M
BVU,2022-08-10 10:15,-114.8611,35.9475,671.00,80.60,66.20,61.58,50.00,4.00,0.00,30.02,M,M,M,M,M,M,M,M,M,M,M,M,M,M,M,M,M,M,82.75,KBVU 101015Z AUTO 05004KT 27/19 A3002 RMK AO2 PWINO TSNO,M
CXP,2022-08-10 10:15,-119.7326,39.1923,1431.00,64.40,57.20,77.45,50.00,5.00,0.00,30.16,M,10.00,M,CLR,M,M,M,M,M,M,M,M,M,M,M,M,M,M,64.40,KCXP 101015Z AUTO 05005KT 10SM CLR 18/14 A3016 RMK AO2,M
MEV,2022-08-10 10:15,-119.7500,38.9963,1441.42,62.60,48.20,59.26,0.00,0.00,0.00,30.14,M,10.00,M,CLR,M,M,M,M,M,M,M,M,M,M,M,M,M,M,62.60,KMEV 101015Z AUTO 00000KT 10SM CLR 17/09 A3014 RMK AO2,M
HTH,2022-08-10 10:15,-118.6315,38.5448,1282.89,68.00,60.80,77.75,290.00,4.00,0.00,30.12,M,10.00,M,BKN,M,M,M,9500.00,M,M,M,M,M,M,M,M,M,M,68.00,KHTH 101015Z AUTO 29004KT 10SM BKN095 20/16 A3012 RMK A01,M
BAM,2022-08-10 10:15,-116.8743,40.5990,1382.36,62.60,62.60,100.00,120.00,4.00,0.00,30.19,M,10.00,M,SCT,M,M,M,12000.00,M,M,M,M,M,M,M,M,M,M,62.60,KBAM 101015Z AUTO 12004KT 10SM SCT120 17/17 A3019 RMK AO1,M
TMT,2022-08-10 10:15,-117.1971,39.4643,1749.34,M,M,M,0.00,0.00,0.00,30.27,M,10.00,M,OVC,M,M,M,7000.00,M,M,M,-RA,M,M,M,M,M,M,M,KTMT 101015Z AUTO 00000KT 10SM -RA OVC070 A3027 RMK AO2,M
RTS,2022-08-10 10:15,-119.8764,39.6682,1539.00,59.00,44.60,58.77,0.00,0.00,0.00,30.17,M,10.00,M,FEW,M,M,M,8000.00,M,M,M,M,M,M,M,M,M,M,59.00,KRTS 101015Z AUTO 00000KT 10SM FEW080 15/07 A3017 RMK AO2,M
CXP,2022-08-10 10:30,-119.7326,39.1923,1431.00,64.40,51.80,63.60,0.00,0.00,0.00,30.16,M,10.00,M,CLR,M,M,M,M,M,M,M,M,M,M,M,M,M,M,64.40,KCXP 101030Z AUTO 00000KT 10SM CLR 18/11 A3016 RMK AO2,M
RTS,2022-08-10 10:35,-119.8764,39.6682,1539.00,55.40,44.60,66.91,360.00,3.00,0.00,30.18,M,10.00,M,CLR,M,M,M,M,M,M,M,M,M,M,M,M,M,M,55.40,KRTS 101035Z AUTO 36003KT 10SM CLR 13/07 A3018 RMK AO2,M
BVU,2022-08-10 10:35,-114.8611,35.9475,671.00,80.60,66.20,61.58,40.00,3.00,0.00,30.02,M,M,M,M,M,M,M,M,M,M,M,M,M,M,M,M,M,M,82.75,KBVU 101035Z AUTO 04003KT 27/19 A3002 RMK AO2 PWINO TSNO,M
MEV,2022-08-10 10:35,-119.7500,38.9963,1441.42,60.80,48.20,63.15,340.00,4.00,0.00,30.14,M,10.00,M,CLR,M,M,M,M,M,M,M,M,M,M,M,M,M,M,60.80,KMEV 101035Z AUTO 34004KT 10SM CLR 16/09 A3014 RMK AO2,M
BAM,2022-08-10 10:35,-116.8743,40.5990,1382.36,62.60,62.60,100.00,40.00,3.00,0.00,30.19,M,10.00,M,CLR,M,M,M,M,M,M,M,M,M,M,M,M,M,M,62.60,KBAM 101035Z AUTO 04003KT 10SM CLR 17/17 A3019 RMK AO1,M
HTH,2022-08-10 10:35,-118.6315,38.5448,1282.89,68.00,60.80,77.75,240.00,4.00,0.00,30.12,M,10.00,M,SCT,M,M,M,9500.00,M,M,M,M,M,M,M,M,M,M,68.00,KHTH 101035Z AUTO 24004KT 10SM SCT095 20/16 A3012 RMK A01,M
TMT,2022-08-10 10:35,-117.1971,39.4643,1749.34,M,M,M,120.00,5.00,0.00,30.27,M,10.00,M,OVC,M,M,M,7000.00,M,M,M,M,M,M,M,M,M,M,M,KTMT 101035Z AUTO 12005KT 10SM OVC070 A3027 RMK AO2,M
ELY,2022-08-10 10:53,-114.8453,39.2950,1909.00,59.00,58.00,96.13,190.00,8.00,0.02,30.33,1017.20,10.00,M,BKN,BKN,M,M,9500.00,11000.00,M,M,-RA,M,M,M,M,M,M,59.00,KELY 101053Z AUTO 19008KT 10SM -RA BKN095 BKN110 15/14 A3033 RMK AO2 RAE24B42 SLP172 P0002 T01500144,M
VGT,2022-08-10 10:53,-115.1933,36.2111,667.00,84.00,64.00,51.08,70.00,4.00,0.00,30.01,1015.00,10.00,M,CLR,M,M,M,M,M,M,M,M,M,M,M,M,M,M,85.36,KVGT 101053Z AUTO 07004KT 10SM CLR 29/18 A3001 RMK AO2 SLP150 T02890178,M
LOL,2022-08-10 10:53,-118.5701,40.0684,1192.43,67.00,60.00,78.77,30.00,4.00,0.00,30.10,1015.00,10.00,M,OVC,M,M,M,9500.00,M,M,M,M,M,M,M,M,M,M,66.90,KLOL 101053Z AUTO 03004KT 10SM OVC095 19/16 A3010 RMK AO2 SLP150 T01940156,M
DRA,2022-08-10 10:53,-116.0278,36.6206,1009.00,79.00,62.00,56.23,0.00,0.00,0.00,30.08,1014.00,10.00,M,FEW,M,M,M,9500.00,M,M,M,M,M,M,M,M,M,M,79.00,KDRA 101053Z AUTO 00000KT 10SM FEW095 26/17 A3008 RMK AO2 SLP140 T02610167,M
BAM,2022-08-10 10:55,-116.8743,40.5990,1382.36,62.60,62.60,100.00,50.00,5.00,0.00,30.19,M,10.00,M,CLR,M,M,M,M,M,M,M,M,M,M,M,M,M,M,62.60,KBAM 101055Z AUTO 05005KT 10SM CLR 17/17 A3019 RMK AO1,M
BVU,2022-08-10 10:55,-114.8611,35.9475,671.00,80.60,66.20,61.58,40.00,6.00,0.00,30.02,M,M,M,M,M,M,M,M,M,M,M,M,M,M,M,M,M,M,82.75,KBVU 101055Z AUTO 04006KT 27/19 A3002 RMK AO2 PWINO TSNO,M
CXP,2022-08-10 10:55,-119.7326,39.1923,1431.00,62.60,51.80,67.75,0.00,0.00,0.00,30.16,M,10.00,M,CLR,M,M,M,M,M,M,M,M,M,M,M,M,M,M,62.60,KCXP 101055Z AUTO 00000KT 10SM CLR 17/11 A3016 RMK AO2,M
RTS,2022-08-10 10:55,-119.8764,39.6682,1539.00,59.00,44.60,58.77,0.00,0.00,0.00,30.18,M,10.00,M,CLR,M,M,M,M,M,M,M,M,M,M,M,M,M,M,59.00,KRTS 101055Z AUTO 00000KT 10SM CLR 15/07 A3018 RMK AO2,M
MEV,2022-08-10 10:55,-119.7500,38.9963,1441.42,57.20,48.20,71.83,0.00,0.00,0.00,30.15,M,10.00,M,FEW,M,M,M,5000.00,M,M,M,M,M,M,M,M,M,M,57.20,KMEV 101055Z AUTO 00000KT 10SM FEW050 14/09 A3015 RMK AO2,M
HTH,2022-08-10 10:55,-118.6315,38.5448,1282.89,68.00,60.80,77.75,0.00,0.00,0.00,30.12,M,10.00,M,CLR,M,M,M,M,M,M,M,M,M,M,M,M,M,M,68.00,KHTH 101055Z AUTO 00000KT 10SM CLR 20/16 A3012 RMK A01,M
TMT,2022-08-10 10:55,-117.1971,39.4643,1749.34,M,M,M,130.00,3.00,0.00,30.26,M,10.00,M,OVC,M,M,M,7000.00,M,M,M,M,M,M,M,M,M,M,M,KTMT 101055Z AUTO 13003KT 10SM OVC070 A3026 RMK AO2,M
RNO,2022-08-10 10:55,-119.7711,39.4839,1341.00,67.00,47.00,48.56,270.00,6.00,0.00,30.13,1014.10,10.00,M,FEW,FEW,M,M,10000.00,15000.00,M,M,M,M,M,M,M,M,M,66.90,KRNO 101055Z 27006KT 10SM FEW100 FEW150 19/08 A3013 RMK AO2 SLP141 T01940083,M
NFL,2022-08-10 10:56,-118.7010,39.4166,1199.00,66.00,61.00,83.91,0.00,0.00,0.00,30.10,1015.90,10.00,M,CLR,M,M,M,M,M,M,M,M,M,M,M,M,M,M,66.00,KNFL 101056Z AUTO 00000KT 10SM CLR 19/16 A3010 RMK AO2 SLP159 T01890161 PNO $,M
LAS,2022-08-10 10:56,-115.1634,36.0719,663.00,82.00,65.00,56.24,0.00,0.00,0.00,30.02,1013.80,10.00,M,FEW,BKN,M,M,14000.00,17000.00,M,M,M,M,M,M,M,M,M,83.76,KLAS 101056Z 00000KT 10SM FEW140 BKN170 28/18 A3002 RMK AO2 SLP138 T02780183,M
TPH,2022-08-10 10:56,-117.0904,38.0505,1654.00,68.00,59.00,72.92,120.00,8.00,0.00,30.22,1015.40,10.00,M,FEW,M,M,M,12000.00,M,M,M,M,M,M,M,M,M,M,68.00,KTPH 101056Z AUTO 12008KT 10SM FEW120 20/15 A3022 RMK AO2 SLP154 T02000150,M
HND,2022-08-10 10:56,-115.1344,35.9729,742.79,78.00,66.00,66.39,190.00,3.00,0.00,30.06,1016.80,10.00,M,CLR,M,M,M,M,M,M,M,M,M,M,M,M,M,M,78.10,KHND 101056Z AUTO 19003KT 10SM CLR 26/19 A3006 RMK AO2 SLP168 T02560189,M
EKO,2022-08-10 10:56,-115.7860,40.8242,1367.00,59.00,59.00,100.00,210.00,3.00,0.00,30.22,1017.90,10.00,M,FEW,BKN,M,M,9000.00,10000.00,M,M,M,M,M,M,M,M,M,59.00,KEKO 101056Z AUTO 21003KT 10SM FEW090 BKN100 15/15 A3022 RMK AO2 SLP179 T01500150 $,M
WMC,2022-08-10 10:56,-117.8072,40.9019,1315.00,65.00,61.00,87.18,150.00,3.00,0.00,30.13,1015.40,10.00,M,CLR,M,M,M,M,M,M,M,M,M,M,M,M,M,M,64.90,KWMC 101056Z AUTO 15003KT 10SM CLR 18/16 A3013 RMK AO2 SLP154 T01830161 $,M
INS,2022-08-10 10:58,-115.6733,36.5872,955.00,78.00,63.30,60.82,250.00,3.00,0.00,30.07,1013.70,10.00,M,FEW,OVC,M,M,9000.00,13000.00,M,M,M,M,M,M,M,M,M,77.90,KINS 101058Z AUTO 25003KT 10SM FEW090 OVC130 26/17 A3007 RMK AO2 SLP137 T02550174,M
LSV,2022-08-10 10:58,-115.0343,36.2362,570.00,84.20,64.40,51.47,60.00,9.00,0.00,30.00,1013.20,10.00,M,SCT,M,M,M,15000.00,M,M,M,M,M,M,M,M,M,M,85.71,KLSV 101058Z 06009KT 10SM SCT150 29/18 A3000 RMK SLP132 WND DATA ESTMD ALSTG/SLP ESMTD,M
BAM,2022-08-10 11:15,-116.8743,40.5990,1382.36,64.40,62.60,93.88,30.00,4.00,0.00,30.18,M,10.00,M,CLR,M,M,M,M,M,M,M,M,M,M,M,M,M,M,64.40,KBAM 101115Z AUTO 03004KT 10SM CLR 18/17 A3018 RMK AO1,M
TMT,2022-08-10 11:15,-117.1971,39.4643,1749.34,M,M,M,0.00,0.00,0.00,30.26,M,10.00,M,OVC,M,M,M,6000.00,M,M,M,M,M,M,M,M,M,M,M,KTMT 101115Z AUTO 00000KT 10SM OVC060 A3026 RMK AO2,M
MEV,2022-08-10 11:15,-119.7500,38.9963,1441.42,59.00,50.00,72.01,0.00,0.00,0.00,30.15,M,10.00,M,CLR,M,M,M,M,M,M,M,M,M,M,M,M,M,M,59.00,KMEV 101115Z AUTO 00000KT 10SM CLR 15/10 A3015 RMK AO2,M
RTS,2022-08-10 11:15,-119.8764,39.6682,1539.00,57.20,42.80,58.52,360.00,3.00,0.00,30.18,M,10.00,M,CLR,M,M,M,M,M,M,M,M,M,M,M,M,M,M,57.20,KRTS 101115Z AUTO 36003KT 10SM CLR 14/06 A3018 RMK AO2,M
CXP,2022-08-10 11:15,-119.7326,39.1923,1431.00,62.60,51.80,67.75,20.00,4.00,0.00,30.17,M,10.00,M,CLR,M,M,M,M,M,M,M,M,M,M,M,M,M,M,62.60,KCXP 101115Z AUTO 02004KT 10SM CLR 17/11 A3017 RMK AO2,M
BVU,2022-08-10 11:15,-114.8611,35.9475,671.00,80.60,66.20,61.58,40.00,6.00,0.00,30.02,M,M,M,M,M,M,M,M,M,M,M,M,M,M,M,M,M,M,82.75,KBVU 101115Z AUTO 04006KT 27/19 A3002 RMK AO2 PWINO TSNO,M
HTH,2022-08-10 11:15,-118.6315,38.5448,1282.89,66.20,62.60,88.18,270.00,3.00,0.00,30.12,M,10.00,M,CLR,M,M,M,M,M,M,M,M,M,M,M,M,M,M,66.20,KHTH 101115Z AUTO 27003KT 10SM CLR 19/17 A3012 RMK A01,M
CXP,2022-08-10 11:30,-119.7326,39.1923,1431.00,62.60,53.60,72.38,0.00,0.00,0.00,30.17,M,10.00,M,CLR,M,M,M,M,M,M,M,M,M,M,M,M,M,M,62.60,KCXP 101130Z AUTO 00000KT 10SM CLR 17/12 A3017 RMK AO2,M
TMT,2022-08-10 11:35,-117.1971,39.4643,1749.34,M,M,M,0.00,0.00,0.00,30.25,M,10.00,M,OVC,M,M,M,6000.00,M,M,M,M,M,M,M,M,M,M,M,KTMT 101135Z AUTO 00000KT 10SM OVC060 A3025 RMK AO2,M
BVU,2022-08-10 11:35,-114.8611,35.9475,671.00,78.80,68.00,69.52,40.00,7.00,0.00,30.02,M,M,M,M,M,M,M,M,M,M,M,M,M,M,M,M,M,M,78.80,KBVU 101135Z AUTO 04007KT 26/20 A3002 RMK AO2 PWINO TSNO,M
RTS,2022-08-10 11:35,-119.8764,39.6682,1539.00,55.40,42.80,62.46,350.00,4.00,0.00,30.18,M,10.00,M,CLR,M,M,M,M,M,M,M,M,M,M,M,M,M,M,55.40,KRTS 101135Z AUTO 35004KT 10SM CLR 13/06 A3018 RMK AO2,M
MEV,2022-08-10 11:35,-119.7500,38.9963,1441.42,57.20,50.00,76.82,0.00,0.00,0.00,30.15,M,10.00,M,CLR,M,M,M,M,M,M,M,M,M,M,M,M,M,M,57.20,KMEV 101135Z AUTO 00000KT 10SM CLR 14/10 A3015 RMK AO2,M
BAM,2022-08-10 11:35,-116.8743,40.5990,1382.36,64.40,62.60,93.88,60.00,8.00,0.00,30.18,M,10.00,M,SCT,M,M,M,11000.00,M,M,M,M,M,M,M,M,M,M,64.40,KBAM 101135Z AUTO 06008KT 10SM SCT110 18/17 A3018 RMK AO1,M
HTH,2022-08-10 11:35,-118.6315,38.5448,1282.89,68.00,62.60,82.86,250.00,4.00,0.00,30.12,M,10.00,M,CLR,M,M,M,M,M,M,M,M,M,M,M,M,M,M,68.00,KHTH 101135Z AUTO 25004KT 10SM CLR 20/17 A3012 RMK A01,M
CXP,2022-08-10 11:50,-119.7326,39.1923,1431.00,62.60,55.40,77.29,0.00,0.00,0.00,30.17,M,10.00,M,CLR,M,M,M,M,M,M,M,M,M,M,M,M,M,M,62.60,KCXP 101150Z AUTO 00000KT 10SM CLR 17/13 A3017 RMK AO2,M
ELY,2022-08-10 11:53,-114.8453,39.2950,1909.00,59.00,57.00,93.07,180.00,12.00,0.02,30.32,1017.20,10.00,M,OVC,M,M,M,9000.00,M,M,M,-RA,M,M,M,M,M,M,59.00,KELY 101153Z AUTO 18012KT 10SM -RA OVC090 15/14 A3032 RMK AO2 SLP172 P0002 60005 70017 T01500139 10167 20150 50004,M
LOL,2022-08-10 11:53,-118.5701,40.0684,1192.43,61.00,56.00,83.29,200.00,3.00,0.00,30.11,1016.00,10.00,M,FEW,M,M,M,10000.00,M,M,M,M,M,M,M,M,M,M,61.00,KLOL 101153Z AUTO 20003KT 10SM FEW100 16/13 A3011 RMK AO2 SLP160 60000 T01610133 10217 20161 53003,M
DRA,2022-08-10 11:53,-116.0278,36.6206,1009.00,77.00,63.00,62.00,0.00,0.00,0.00,30.08,1013.90,10.00,M,BKN,M,M,M,10000.00,M,M,M,M,M,M,M,M,M,M,77.00,KDRA 101153Z AUTO 00000KT 10SM BKN100 25/17 A3008 RMK AO2 SLP139 70003 T02500172 10272 20250 53004,M
VGT,2022-08-10 11:53,-115.1933,36.2111,667.00,83.00,66.00,56.75,110.00,5.00,0.00,30.02,1015.30,10.00,M,CLR,M,M,M,M,M,M,M,M,M,M,M,M,M,M,85.07,KVGT 101153Z AUTO 11005KT 10SM CLR 28/19 A3002 RMK AO2 SLP153 60000 T02830189 10311 20283 53004,M
HTH,2022-08-10 11:55,-118.6315,38.5448,1282.89,66.20,62.60,88.18,0.00,0.00,0.00,30.13,M,10.00,M,CLR,M,M,M,M,M,M,M,M,M,M,M,M,M,M,66.20,KHTH 101155Z AUTO 00000KT 10SM CLR 19/17 A3013 RMK A01,M
BAM,2022-08-10 11:55,-116.8743,40.5990,1382.36,64.40,60.80,88.09,60.00,9.00,0.00,30.18,M,10.00,M,BKN,M,M,M,11000.00,M,M,M,M,M,M,M,M,M,M,64.40,KBAM 101155Z AUTO 06009KT 10SM BKN110 18/16 A3018 RMK AO1,M
TMT,2022-08-10 11:55,-117.1971,39.4643,1749.34,M,M,M,0.00,0.00,0.00,30.25,M,10.00,M,OVC,M,M,M,5500.00,M,M,M,M,M,M,M,M,M,M,M,KTMT 101155Z AUTO 00000KT 10SM OVC055 A3025 RMK AO2 60006 7////,M
MEV,2022-08-10 11:55,-119.7500,38.9963,1441.42,53.60,48.20,81.87,70.00,3.00,0.00,30.15,M,10.00,M,CLR,M,M,M,M,M,M,M,M,M,M,M,M,M,M,53.60,KMEV 101155Z AUTO 07003KT 10SM CLR 12/09 A3015 RMK AO2,M
RTS,2022-08-10 11:55,-119.8764,39.6682,1539.00,57.20,42.80,58.52,0.00,0.00,0.00,30.18,M,10.00,M,CLR,M,M,M,M,M,M,M,M,M,M,M,M,M,M,57.20,KRTS 101155Z AUTO 00000KT 10SM CLR 14/06 A3018 RMK AO2,M
BVU,2022-08-10 11:55,-114.8611,35.9475,671.00,80.60,68.00,65.54,40.00,8.00,0.00,30.02,M,M,M,M,M,M,M,M,M,M,M,M,M,M,M,M,M,M,83.29,KBVU 101155Z AUTO 04008KT 27/20 A3002 RMK AO2 PWINO TSNO,M
RNO,2022-08-10 11:55,-119.7711,39.4839,1341.00,65.00,47.00,52.06,230.00,3.00,0.00,30.13,1014.50,10.00,M,FEW,M,M,M,15000.00,M,M,M,M,M,M,M,M,M,M,64.90,KRNO 101155Z 23003KT 10SM FEW150 18/08 A3013 RMK AO2 SLP145 7//// T01830083 10244 20183 53002,M
HND,2022-08-10 11:56,-115.1344,35.9729,742.79,78.00,66.00,66.39,160.00,3.00,0.00,30.06,1017.00,10.00,M,CLR,M,M,M,M,M,M,M,M,M,M,M,M,M,M,78.10,KHND 101156Z AUTO 16003KT 10SM CLR 26/19 A3006 RMK AO2 SLP170 60000 T02560189 10289 20256 53003,M
NFL,2022-08-10 11:56,-118.7010,39.4166,1199.00,64.00,60.00,87.14,0.00,0.00,0.00,30.11,1016.20,10.00,M,CLR,M,M,M,M,M,M,M,M,M,M,M,M,M,M,64.00,KNFL 101156Z AUTO 00000KT 10SM CLR 18/16 A3011 RMK AO2 SLP162 6//// 7//// T01780156 10217 20178 53001 PNO $,M
WMC,2022-08-10 11:56,-117.8072,40.9019,1315.00,64.00,60.00,87.14,110.00,5.00,0.00,30.13,1016.30,10.00,M,CLR,M,M,M,M,M,M,M,M,M,M,M,M,M,M,64.00,KWMC 101156Z AUTO 11005KT 10SM CLR 18/16 A3013 RMK AO2 SLP163 60000 70018 T01780156 10194 20178 56002 $,M
LAS,2022-08-10 11:56,-115.1634,36.0719,663.00,82.00,65.00,56.24,0.00,0.00,0.00,30.03,1014.20,10.00,M,FEW,FEW,M,M,14000.00,18000.00,M,M,M,M,M,M,M,M,M,83.76,KLAS 101156Z 00000KT 10SM FEW140 FEW180 28/18 A3003 RMK AO2 SLP142 60000 T02780183 10294 20278 51004,M
TPH,2022-08-10 11:56,-117.0904,38.0505,1654.00,67.00,60.00,78.77,130.00,5.00,0.00,30.22,1015.70,10.00,M,FEW,M,M,M,12000.00,M,M,M,M,M,M,M,M,M,M,66.90,KTPH 101156Z AUTO 13005KT 10SM FEW120 19/16 A3022 RMK AO2 SLP157 60000 70001 T01940156 10217 20194 55000,M
EKO,2022-08-10 11:56,-115.7860,40.8242,1367.00,60.00,60.00,100.00,0.00,0.00,0.00,30.22,1018.50,10.00,M,OVC,M,M,M,10000.00,M,M,M,M,M,M,M,M,M,M,60.10,KEKO 101156Z AUTO 00000KT 10SM OVC100 16/16 A3022 RMK AO2 SLP185 70014 T01560156 10178 20150 53001 $,M
INS,2022-08-10 11:58,-115.6733,36.5872,955.00,76.00,63.00,63.88,270.00,4.00,0.00,30.07,1013.80,10.00,M,OVC,M,M,M,12000.00,M,M,M,M,M,M,M,M,M,M,76.10,KINS 101158Z AUTO 27004KT 10SM OVC120 25/17 A3007 RMK AO2 SLP138 T02450172 10268 20245 52005,M
LSV,2022-08-10 11:58,-115.0343,36.2362,570.00,82.40,64.40,54.55,60.00,4.00,0.00,30.00,1013.30,10.00,M,SCT,M,M,M,15000.00,M,M,M,M,M,M,M,M,M,M,83.98,KLSV 101158Z 06004KT 10SM SCT150 28/18 A3000 RMK SLP133 WND DATA ESTMD ALSTG/SLP ESTMD,M
CXP,2022-08-10 12:10,-119.7326,39.1923,1431.00,60.80,55.40,82.37,0.00,0.00,0.00,30.17,M,10.00,M,CLR,M,M,M,M,M,M,M,M,M,M,M,M,M,M,60.80,KCXP 101210Z AUTO 00000KT 10SM CLR 16/13 A3017 RMK AO2,M
HTH,2022-08-10 12:15,-118.6315,38.5448,1282.89,66.20,62.60,88.18,250.00,3.00,0.00,30.13,M,10.00,M,CLR,M,M,M,M,M,M,M,M,M,M,M,M,M,M,66.20,KHTH 101215Z AUTO 25003KT 10SM CLR 19/17 A3013 RMK A01,M
BVU,2022-08-10 12:15,-114.8611,35.9475,671.00,80.60,68.00,65.54,50.00,6.00,0.00,30.03,M,M,M,M,M,M,M,M,M,M,M,M,M,M,M,M,M,M,83.29,KBVU 101215Z AUTO 05006KT 27/20 A3003 RMK AO2 PWINO TSNO,M
RTS,2022-08-10 12:15,-119.8764,39.6682,1539.00,59.00,44.60,58.77,0.00,0.00,0.00,30.18,M,10.00,M,CLR,M,M,M,M,M,M,M,M,M,M,M,M,M,M,59.00,KRTS 101215Z AUTO 00000KT 10SM CLR 15/07 A3018 RMK AO2,M
MEV,2022-08-10 12:15,-119.7500,38.9963,1441.42,53.60,48.20,81.87,100.00,4.00,0.00,30.15,M,10.00,M,CLR,M,M,M,M,M,M,M,M,M,M,M,M,M,M,53.60,KMEV 101215Z AUTO 10004KT 10SM CLR 12/09 A3015 RMK AO2,M
BAM,2022-08-10 12:15,-116.8743,40.5990,1382.36,64.40,60.80,88.09,80.00,8.00,0.00,30.19,M,10.00,M,BKN,M,M,M,12000.00,M,M,M,M,M,M,M,M,M,M,64.40,KBAM 101215Z AUTO 08008KT 10SM BKN120 18/16 A3019 RMK AO1,M
TMT,2022-08-10 12:15,-117.1971,39.4643,1749.34,M,M,M,0.00,0.00,0.00,30.26,M,10.00,M,BKN,OVC,M,M,5500.00,8000.00,M,M,M,M,M,M,M,M,M,M,KTMT 101215Z AUTO 00000KT 10SM BKN055 OVC080 A3026 RMK AO2,M
TMT,2022-08-10 12:35,-117.1971,39.4643,1749.34,M,M,M,0.00,0.00,0.00,30.26,M,10.00,M,SCT,SCT,BKN,M,5500.00,7000.00,8000.00,M,M,M,M,M,M,M,M,M,KTMT 101235Z AUTO 00000KT 10SM SCT055 SCT070 BKN080 A3026 RMK AO2,M
BAM,2022-08-10 12:35,-116.8743,40.5990,1382.36,64.40,60.80,88.09,100.00,6.00,0.00,30.19,M,10.00,M,BKN,M,M,M,12000.00,M,M,M,M,M,M,M,M,M,M,64.40,KBAM 101235Z AUTO 10006KT 10SM BKN120 18/16 A3019 RMK AO1,M
MEV,2022-08-10 12:35,-119.7500,38.9963,1441.42,53.60,48.20,81.87,0.00,0.00,0.00,30.16,M,10.00,M,FEW,M,M,M,5500.00,M,M,M,M,M,M,M,M,M,M,53.60,KMEV 101235Z AUTO 00000KT 10SM FEW055 12/09 A3016 RMK AO2,M
HTH,2022-08-10 12:35,-118.6315,38.5448,1282.89,66.20,62.60,88.18,260.00,4.00,0.00,30.13,M,10.00,M,CLR,M,M,M,M,M,M,M,M,M,M,M,M,M,M,66.20,KHTH 101235Z AUTO 26004KT 10SM CLR 19/17 A3013 RMK A01,M
BVU,2022-08-10 12:35,-114.8611,35.9475,671.00,80.60,68.00,65.54,40.00,7.00,0.00,30.04,M,M,M,M,M,M,M,M,M,M,M,M,M,M,M,M,M,M,83.29,KBVU 101235Z AUTO 04007KT 27/20 A3004 RMK AO2 PWINO TSNO,M
RTS,2022-08-10 12:35,-119.8764,39.6682,1539.00,55.40,44.60,66.91,0.00,0.00,0.00,30.18,M,10.00,M,CLR,M,M,M,M,M,M,M,M,M,M,M,M,M,M,55.40,KRTS 101235Z AUTO 00000KT 10SM CLR 13/07 A3018 RMK AO2,M
CXP,2022-08-10 12:35,-119.7326,39.1923,1431.00,60.80,53.60,77.14,0.00,0.00,0.00,30.17,M,10.00,M,CLR,M,M,M,M,M,M,M,M,M,M,M,M,M,M,60.80,KCXP 101235Z AUTO 00000KT 10SM CLR 16/12 A3017 RMK AO2,M
DRA,2022-08-10 12:53,-116.0278,36.6206,1009.00,75.00,65.00,70.83,0.00,0.00,0.00,30.09,1014.30,10.00,M,BKN,M,M,M,11000.00,M,M,M,M,M,M,M,M,M,M,75.00,KDRA 101253Z AUTO 00000KT 10SM BKN110 24/18 A3009 RMK AO2 SLP143 T02390183,M
VGT,2022-08-10 12:53,-115.1933,36.2111,667.00,82.00,66.00,58.43,130.00,6.00,0.00,30.03,1016.00,10.00,M,CLR,M,M,M,M,M,M,M,M,M,M,M,M,M,M,84.15,KVGT 101253Z AUTO 13006KT 10SM CLR 28/19 A3003 RMK AO2 SLP160 T02780189,M
ELY,2022-08-10 12:53,-114.8453,39.2950,1909.00,59.00,57.00,93.07,100.00,3.00,T,30.30,1017.10,10.00,M,OVC,M,M,M,11000.00,M,M,M,M,M,M,M,M,M,M,59.00,KELY 101253Z AUTO 10003KT 10SM OVC110 15/14 A3030 RMK AO2 RAE31 SLP171 P0000 T01500139,M
LOL,2022-08-10 12:53,-118.5701,40.0684,1192.43,61.00,56.00,83.29,0.00,0.00,0.00,30.11,1016.10,10.00,M,CLR,M,M,M,M,M,M,M,M,M,M,M,M,M,M,61.00,KLOL 101253Z AUTO 00000KT 10SM CLR 16/13 A3011 RMK AO2 SLP161 T01610133,M
RNO,2022-08-10 12:55,-119.7711,39.4839,1341.00,64.00,47.00,53.72,0.00,0.00,0.00,30.14,1014.90,10.00,M,FEW,SCT,M,M,6000.00,15000.00,M,M,M,M,M,M,M,M,M,64.00,KRNO 101255Z 00000KT 10SM FEW060 SCT150 18/08 A3014 RMK AO2 SLP149 T01780083,M
BVU,2022-08-10 12:55,-114.8611,35.9475,671.00,78.80,68.00,69.52,30.00,4.00,0.00,30.05,M,M,M,M,M,M,M,M,M,M,M,M,M,M,M,M,M,M,78.80,KBVU 101255Z AUTO 03004KT 26/20 A3005 RMK AO2 PWINO TSNO,M
CXP,2022-08-10 12:55,-119.7326,39.1923,1431.00,59.00,53.60,82.25,0.00,0.00,0.00,30.18,M,10.00,M,CLR,M,M,M,M,M,M,M,M,M,M,M,M,M,M,59.00,KCXP 101255Z AUTO 00000KT 10SM CLR 15/12 A3018 RMK AO2,M
RTS,2022-08-10 12:55,-119.8764,39.6682,1539.00,53.60,44.60,71.45,0.00,0.00,0.00,30.19,M,10.00,M,CLR,M,M,M,M,M,M,M,M,M,M,M,M,M,M,53.60,KRTS 101255Z AUTO 00000KT 10SM CLR 12/07 A3019 RMK AO2,M
MEV,2022-08-10 12:55,-119.7500,38.9963,1441.42,53.60,48.20,81.87,0.00,0.00,0.00,30.16,M,10.00,M,CLR,M,M,M,M,M,M,M,M,M,M,M,M,M,M,53.60,KMEV 101255Z AUTO 00000KT 10SM CLR 12/09 A3016 RMK AO2,M
BAM,2022-08-10 12:55,-116.8743,40.5990,1382.36,62.60,62.60,100.00,140.00,3.00,0.00,30.19,M,10.00,M,OVC,M,M,M,12000.00,M,M,M,M,M,M,M,M,M,M,62.60,KBAM 101255Z AUTO 14003KT 10SM OVC120 17/17 A3019 RMK AO1,M
HTH,2022-08-10 12:55,-118.6315,38.5448,1282.89,66.20,62.60,88.18,230.00,4.00,0.00,30.14,M,10.00,M,CLR,M,M,M,M,M,M,M,M,M,M,M,M,M,M,66.20,KHTH 101255Z AUTO 23004KT 10SM CLR 19/17 A3014 RMK A01,M
TMT,2022-08-10 12:55,-117.1971,39.4643,1749.34,M,M,M,0.00,0.00,0.00,30.27,M,10.00,M,SCT,SCT,M,M,7000.00,8000.00,M,M,M,M,M,M,M,M,M,M,KTMT 101255Z AUTO 00000KT 10SM SCT070 SCT080 A3027 RMK AO2,M
WMC,2022-08-10 12:56,-117.8072,40.9019,1315.00,64.00,60.00,87.14,60.00,7.00,0.00,30.14,1017.20,10.00,M,SCT,M,M,M,11000.00,M,M,M,M,M,M,M,M,M,M,64.00,KWMC 101256Z AUTO 06007KT 10SM SCT110 18/16 A3014 RMK AO2 SLP172 T01780156 $,M
EKO,2022-08-10 12:56,-115.7860,40.8242,1367.00,59.00,59.00,100.00,0.00,0.00,0.00,30.23,1018.70,10.00,M,SCT,M,M,M,11000.00,M,M,M,M,M,M,M,M,M,M,59.00,KEKO 101256Z AUTO 00000KT 10SM SCT110 15/15 A3023 RMK AO2 SLP187 T01500150 $,M
HND,2022-08-10 12:56,-115.1344,35.9729,742.79,77.00,66.00,68.85,0.00,0.00,0.00,30.08,1017.60,10.00,M,CLR,M,M,M,M,M,M,M,M,M,M,M,M,M,M,77.00,KHND 101256Z AUTO 00000KT 10SM CLR 25/19 A3008 RMK AO2 SLP176 T02500189,M
NFL,2022-08-10 12:56,-118.7010,39.4166,1199.00,64.00,60.00,87.14,120.00,3.00,0.00,30.11,1016.40,10.00,M,CLR,M,M,M,M,M,M,M,M,M,M,M,M,M,M,64.00,KNFL 101256Z AUTO 12003KT 10SM CLR 18/16 A3011 RMK AO2 SLP164 T01780156 PNO $,M
TPH,2022-08-10 12:56,-117.0904,38.0505,1654.00,67.00,59.00,75.74,130.00,3.00,0.00,30.24,1016.50,10.00,M,BKN,M,M,M,8500.00,M,M,M,M,M,M,M,M,M,M,66.90,KTPH 101256Z AUTO 13003KT 10SM BKN085 19/15 A3024 RMK AO2 SLP165 T01940150,M
LAS,2022-08-10 12:56,-115.1634,36.0719,663.00,81.00,66.00,60.37,140.00,3.00,0.00,30.05,1014.90,10.00,M,FEW,SCT,M,M,14000.00,20000.00,M,M,M,M,M,M,M,M,M,83.11,KLAS 101256Z 14003KT 10SM FEW140 SCT200 27/19 A3005 RMK AO2 SLP149 ACC DSNT E T02720189,M
INS,2022-08-10 12:58,-115.6733,36.5872,955.00,76.50,62.40,61.72,230.00,4.00,0.00,30.09,1014.40,10.00,M,OVC,M,M,M,12000.00,M,M,M,M,M,M,M,M,M,M,76.50,KINS 101258Z AUTO 23004KT 10SM OVC120 25/17 A3009 RMK AO2 SLP144 T02470169,M
LSV,2022-08-10 12:58,-115.0343,36.2362,570.00,82.40,68.00,61.81,70.00,8.00,0.00,30.02,M,10.00,M,SCT,M,M,M,15000.00,M,M,M,M,M,M,M,M,M,M,85.38,KLSV 101258Z 07008KT 10SM SCT150 28/20 A3002 RMK AO2A SLPNO RVRNO $,M
CXP,2022-08-10 13:10,-119.7326,39.1923,1431.00,60.80,55.40,82.37,0.00,0.00,0.00,30.18,M,10.00,M,CLR,M,M,M,M,M,M,M,M,M,M,M,M,M,M,60.80,KCXP 101310Z AUTO 00000KT 10SM CLR 16/13 A3018 RMK AO2,M
TMT,2022-08-10 13:15,-117.1971,39.4643,1749.34,M,M,M,210.00,4.00,0.00,30.27,M,7.00,M,SCT,M,M,M,7000.00,M,M,M,M,M,M,M,M,M,M,M,KTMT 101315Z AUTO 21004KT 7SM SCT070 A3027 RMK AO2,M
BVU,2022-08-10 13:15,-114.8611,35.9475,671.00,78.80,68.00,69.52,40.00,5.00,0.00,30.05,M,M,M,M,M,M,M,M,M,M,M,M,M,M,M,M,M,M,78.80,KBVU 101315Z AUTO 04005KT 26/20 A3005 RMK AO2 PWINO TSNO,M
HTH,2022-08-10 13:15,-118.6315,38.5448,1282.89,66.20,62.60,88.18,230.00,6.00,0.00,30.15,M,10.00,M,CLR,M,M,M,M,M,M,M,M,M,M,M,M,M,M,66.20,KHTH 101315Z AUTO 23006KT 10SM CLR 19/17 A3015 RMK A01,M
RTS,2022-08-10 13:15,-119.8764,39.6682,1539.00,55.40,44.60,66.91,0.00,0.00,0.00,30.19,M,10.00,M,CLR,M,M,M,M,M,M,M,M,M,M,M,M,M,M,55.40,KRTS 101315Z AUTO 00000KT 10SM CLR 13/07 A3019 RMK AO2,M
BAM,2022-08-10 13:15,-116.8743,40.5990,1382.36,62.60,60.80,93.83,80.00,5.00,0.00,30.20,M,10.00,M,OVC,M,M,M,12000.00,M,M,M,M,M,M,M,M,M,M,62.60,KBAM 101315Z AUTO 08005KT 10SM OVC120 17/16 A3020 RMK AO1,M
MEV,2022-08-10 13:15,-119.7500,38.9963,1441.42,53.60,48.20,81.87,150.00,5.00,0.00,30.17,M,10.00,M,CLR,M,M,M,M,M,M,M,M,M,M,M,M,M,M,53.60,KMEV 101315Z AUTO 15005KT 10SM CLR 12/09 A3017 RMK AO2,M
HTH,2022-08-10 13:35,-118.6315,38.5448,1282.89,66.20,62.60,88.18,250.00,5.00,0.00,30.15,M,10.00,M,CLR,M,M,M,M,M,M,M,M,M,M,M,M,M,M,66.20,KHTH 101335Z AUTO 25005KT 10SM CLR 19/17 A3015 RMK A01,M
RTS,2022-08-10 13:35,-119.8764,39.6682,1539.00,51.80,44.60,76.34,330.00,4.00,0.00,30.20,M,10.00,M,CLR,M,M,M,M,M,M,M,M,M,M,M,M,M,M,51.80,KRTS 101335Z AUTO 33004KT 10SM CLR 11/07 A3020 RMK AO2,M
CXP,2022-08-10 13:35,-119.7326,39.1923,1431.00,59.00,53.60,82.25,0.00,0.00,0.00,30.19,M,10.00,M,CLR,M,M,M,M,M,M,M,M,M,M,M,M,M,M,59.00,KCXP 101335Z AUTO 00000KT 10SM CLR 15/12 A3019 RMK AO2,M
BVU,2022-08-10 13:35,-114.8611,35.9475,671.00,78.80,68.00,69.52,40.00,5.00,0.00,30.06,M,M,M,M,M,M,M,M,M,M,M,M,M,M,M,M,M,M,78.80,KBVU 101335Z AUTO 04005KT 26/20 A3006 RMK AO2 PWINO TSNO,M
BAM,2022-08-10 13:35,-116.8743,40.5990,1382.36,62.60,62.60,100.00,70.00,3.00,0.00,30.20,M,10.00,M,OVC,M,M,M,11000.00,M,M,M,M,M,M,M,M,M,M,62.60,KBAM 101335Z AUTO 07003KT 10SM OVC110 17/17 A3020 RMK AO1,M
TMT,2022-08-10 13:35,-117.1971,39.4643,1749.34,M,M,M,160.00,4.00,0.00,30.27,M,5.00,M,SCT,M,M,M,7000.00,M,M,M,HZ,M,M,M,M,M,M,M,KTMT 101335Z AUTO 16004KT 5SM HZ SCT070 A3027 RMK AO2,M
MEV,2022-08-10 13:35,-119.7500,38.9963,1441.42,57.20,48.20,71.83,120.00,5.00,0.00,30.17,M,10.00,M,CLR,M,M,M,M,M,M,M,M,M,M,M,M,M,M,57.20,KMEV 101335Z AUTO 12005KT 10SM CLR 14/09 A3017 RMK AO2,M
DRA,2022-08-10 13:53,-116.0278,36.6206,1009.00,77.00,64.00,64.21,110.00,3.00,0.00,30.11,1014.90,10.00,M,FEW,M,M,M,11000.00,M,M,M,M,M,M,M,M,M,M,77.00,KDRA 101353Z AUTO 11003KT 10SM FEW110 25/18 A3011 RMK AO2 SLP149 T02500178,M
ELY,2022-08-10 13:53,-114.8453,39.2950,1909.00,60.00,58.00,92.43,220.00,6.00,0.01,30.33,1018.70,10.00,M,OVC,M,M,M,10000.00,M,M,M,-RA,M,M,M,M,M,M,60.10,KELY 101353Z AUTO 22006KT 10SM -RA OVC100 16/14 A3033 RMK AO2 RAB23 SLP187 P0001 T01560144,M
LOL,2022-08-10 13:53,-118.5701,40.0684,1192.43,61.00,56.00,83.29,0.00,0.00,0.00,30.13,1016.90,10.00,M,CLR,M,M,M,M,M,M,M,M,M,M,M,M,M,M,61.00,KLOL 101353Z AUTO 00000KT 10SM CLR 16/13 A3013 RMK AO2 SLP169 T01610133,M
VGT,2022-08-10 13:53,-115.1933,36.2111,667.00,83.00,65.00,54.62,90.00,7.00,0.00,30.06,1016.70,10.00,M,CLR,M,M,M,M,M,M,M,M,M,M,M,M,M,M,84.64,KVGT 101353Z 09007KT 10SM CLR 28/18 A3006 RMK AO2 SLP167 T02830183,M
BAM,2022-08-10 13:55,-116.8743,40.5990,1382.36,64.40,62.60,93.88,90.00,3.00,0.00,30.20,M,10.00,M,OVC,M,M,M,11000.00,M,M,M,M,M,M,M,M,M,M,64.40,KBAM 101355Z AUTO 09003KT 10SM OVC110 18/17 A3020 RMK AO1,M
TMT,2022-08-10 13:55,-117.1971,39.4643,1749.34,M,M,M,0.00,0.00,0.00,30.28,M,7.00,M,CLR,M,M,M,M,M,M,M,M,M,M,M,M,M,M,M,KTMT 101355Z AUTO 00000KT 7SM CLR A3028 RMK AO2,M
HTH,2022-08-10 13:55,-118.6315,38.5448,1282.89,66.20,62.60,88.18,230.00,4.00,0.00,30.16,M,10.00,M,CLR,M,M,M,M,M,M,M,M,M,M,M,M,M,M,66.20,KHTH 101355Z AUTO 23004KT 10SM CLR 19/17 A3016 RMK A01,M
MEV,2022-08-10 13:55,-119.7500,38.9963,1441.42,55.40,50.00,81.99,0.00,0.00,0.00,30.18,M,10.00,M,CLR,M,M,M,M,M,M,M,M,M,M,M,M,M,M,55.40,KMEV 101355Z AUTO 00000KT 10SM CLR 13/10 A3018 RMK AO2,M
RTS,2022-08-10 13:55,-119.8764,39.6682,1539.00,57.20,46.40,67.12,360.00,4.00,0.00,30.20,M,10.00,M,CLR,M,M,M,M,M,M,M,M,M,M,M,M,M,M,57.20,KRTS 101355Z AUTO 36004KT 10SM CLR 14/08 A3020 RMK AO2,M
RNO,2022-08-10 13:55,-119.7711,39.4839,1341.00,66.00,48.00,52.22,230.00,3.00,0.00,30.16,1015.70,10.00,M,FEW,SCT,M,M,6000.00,15000.00,M,M,M,M,M,M,M,M,M,66.00,KRNO 101355Z 23003KT 10SM FEW060 SCT150 19/09 A3016 RMK AO2 SLP157 T01890089,M
CXP,2022-08-10 13:55,-119.7326,39.1923,1431.00,62.60,53.60,72.38,0.00,0.00,0.00,30.19,M,10.00,M,CLR,M,M,M,M,M,M,M,M,M,M,M,M,M,M,62.60,KCXP 101355Z AUTO 00000KT 10SM CLR 17/12 A3019 RMK AO2,M
BVU,2022-08-10 13:55,-114.8611,35.9475,671.00,80.60,68.00,65.54,30.00,5.00,0.00,30.06,M,M,M,M,M,M,M,M,M,M,M,M,M,M,M,M,M,M,83.29,KBVU 101355Z AUTO 03005KT 27/20 A3006 RMK AO2 PWINO TSNO,M
HND,2022-08-10 13:56,-115.1344,35.9729,742.79,79.00,65.00,62.03,190.00,3.00,0.00,30.10,1018.20,10.00,M,CLR,M,M,M,M,M,M,M,M,M,M,M,M,M,M,79.00,KHND 101356Z 19003KT 10SM CLR 26/18 A3010 RMK AO2 SLP182 T02610183,M
TPH,2022-08-10 13:56,-117.0904,38.0505,1654.00,68.00,60.00,75.84,360.00,3.00,0.00,30.26,1017.00,10.00,M,OVC,M,M,M,9000.00,M,M,M,M,M,M,M,M,M,M,68.00,KTPH 101356Z AUTO 36003KT 10SM OVC090 20/16 A3026 RMK AO2 SLP170 T02000156,M
WMC,2022-08-10 13:56,-117.8072,40.9019,1315.00,64.00,61.00,89.97,80.00,9.00,0.00,30.16,1017.70,10.00,M,SCT,M,M,M,10000.00,M,M,M,M,M,M,M,M,M,M,64.00,KWMC 101356Z AUTO 08009KT 10SM SCT100 18/16 A3016 RMK AO2 SLP177 T01780161 $,M
NFL,2022-08-10 13:56,-118.7010,39.4166,1199.00,64.00,61.00,89.97,0.00,0.00,0.00,30.14,1017.00,10.00,M,CLR,M,M,M,M,M,M,M,M,M,M,M,M,M,M,64.00,KNFL 101356Z AUTO 00000KT 10SM CLR 18/16 A3014 RMK AO2 SLP170 T01780161 PNO $,M
LAS,2022-08-10 13:56,-115.1634,36.0719,663.00,82.00,66.00,58.43,0.00,0.00,0.00,30.07,1015.50,10.00,M,FEW,SCT,M,M,14000.00,20000.00,M,M,M,M,M,M,M,M,M,84.15,KLAS 101356Z 00000KT 10SM FEW140 SCT200 28/19 A3007 RMK AO2 SLP155 T02780189,M
EKO,2022-08-10 13:56,-115.7860,40.8242,1367.00,60.00,60.00,100.00,50.00,5.00,0.01,30.25,1019.80,10.00,M,OVC,M,M,M,11000.00,M,M,M,-RA,M,M,M,M,M,M,60.10,KEKO 101356Z AUTO 05005KT 10SM -RA OVC110 16/16 A3025 RMK AO2 RAB46 SLP198 P0001 T01560156 $,M
LSV,2022-08-10 13:58,-115.0343,36.2362,570.00,81.70,68.70,64.77,90.00,7.00,0.00,30.04,1014.70,10.00,M,FEW,M,M,M,9000.00,M,M,M,M,M,M,M,M,M,M,84.86,KLSV 101358Z AUTO 09007KT 10SM FEW090 28/20 A3004 RMK AO2 SLP147 T02760204 $,M
INS,2022-08-10 13:58,-115.6733,36.5872,955.00,78.00,62.40,58.92,0.00,0.00,0.00,30.11,1015.00,10.00,M,OVC,M,M,M,13000.00,M,M,M,M,M,M,M,M,M,M,77.90,KINS 101358Z AUTO 00000KT 10SM OVC130 26/17 A3011 RMK AO2 SLP150 T02550169,M
MEV,2022-08-10 14:15,-119.7500,38.9963,1441.42,57.20,51.80,82.12,0.00,0.00,0.00,30.19,M,10.00,M,CLR,M,M,M,M,M,M,M,M,M,M,M,M,M,M,57.20,KMEV 101415Z AUTO 00000KT 10SM CLR 14/11 A3019 RMK AO2,M
BAM,2022-08-10 14:15,-116.8743,40.5990,1382.36,64.40,62.60,93.88,100.00,3.00,0.00,30.21,M,10.00,M,OVC,M,M,M,12000.00,M,M,M,M,M,M,M,M,M,M,64.40,KBAM 101415Z AUTO 10003KT 10SM OVC120 18/17 A3021 RMK AO1,M
BVU,2022-08-10 14:15,-114.8611,35.9475,671.00,82.40,68.00,61.81,0.00,0.00,0.00,30.06,M,M,M,M,M,M,M,M,M,M,M,M,M,M,M,M,M,M,85.38,KBVU 101415Z AUTO 00000KT 28/20 A3006 RMK AO2 PWINO TSNO,M
CXP,2022-08-10 14:15,-119.7326,39.1923,1431.00,64.40,55.40,72.56,0.00,0.00,0.00,30.20,M,10.00,M,CLR,M,M,M,M,M,M,M,M,M,M,M,M,M,M,64.40,KCXP 101415Z AUTO 00000KT 10SM CLR 18/13 A3020 RMK AO2,M
RTS,2022-08-10 14:15,-119.8764,39.6682,1539.00,59.00,46.40,62.92,0.00,0.00,0.00,30.21,M,10.00,M,CLR,M,M,M,M,M,M,M,M,M,M,M,M,M,M,59.00,KRTS 101415Z AUTO 00000KT 10SM CLR 15/08 A3021 RMK AO2,M
TMT,2022-08-10 14:15,-117.1971,39.4643,1749.34,M,M,M,0.00,0.00,0.00,30.28,M,10.00,M,CLR,M,M,M,M,M,M,M,M,M,M,M,M,M,M,M,KTMT 101415Z AUTO 00000KT 10SM CLR A3028 RMK AO2,M
HTH,2022-08-10 14:15,-118.6315,38.5448,1282.89,68.00,62.60,82.86,0.00,0.00,0.00,30.17,M,10.00,M,CLR,M,M,M,M,M,M,M,M,M,M,M,M,M,M,68.00,KHTH 101415Z AUTO 00000KT 10SM CLR 20/17 A3017 RMK A01,M
BAM,2022-08-10 14:35,-116.8743,40.5990,1382.36,64.40,62.60,93.88,90.00,3.00,0.00,30.21,M,10.00,M,BKN,M,M,M,12000.00,M,M,M,M,M,M,M,M,M,M,64.40,KBAM 101435Z AUTO 09003KT 10SM BKN120 18/17 A3021 RMK AO1,M
HTH,2022-08-10 14:35,-118.6315,38.5448,1282.89,68.00,62.60,82.86,250.00,4.00,0.00,30.17,M,10.00,M,CLR,M,M,M,M,M,M,M,M,M,M,M,M,M,M,68.00,KHTH 101435Z AUTO 25004KT 10SM CLR 20/17 A3017 RMK A01,M
TMT,2022-08-10 14:35,-117.1971,39.4643,1749.34,M,M,M,220.00,3.00,0.00,30.28,M,10.00,M,CLR,M,M,M,M,M,M,M,M,M,M,M,M,M,M,M,KTMT 101435Z AUTO 22003KT 10SM CLR A3028 RMK AO2,M
RTS,2022-08-10 14:35,-119.8764,39.6682,1539.00,60.80,48.20,63.15,0.00,0.00,0.00,30.21,M,10.00,M,CLR,M,M,M,M,M,M,M,M,M,M,M,M,M,M,60.80,KRTS 101435Z AUTO 00000KT 10SM CLR 16/09 A3021 RMK AO2,M
CXP,2022-08-10 14:35,-119.7326,39.1923,1431.00,66.20,57.20,72.74,0.00,0.00,0.00,30.20,M,10.00,M,CLR,M,M,M,M,M,M,M,M,M,M,M,M,M,M,66.20,KCXP 101435Z AUTO 00000KT 10SM CLR 19/14 A3020 RMK AO2,M
BVU,2022-08-10 14:35,-114.8611,35.9475,671.00,82.40,66.20,58.08,0.00,0.00,0.00,30.07,M,M,M,M,M,M,M,M,M,M,M,M,M,M,M,M,M,M,84.63,KBVU 101435Z AUTO 00000KT 28/19 A3007 RMK AO2 PWINO TSNO,M
MEV,2022-08-10 14:35,-119.7500,38.9963,1441.42,60.80,51.80,72.20,0.00,0.00,0.00,30.19,M,10.00,M,CLR,M,M,M,M,M,M,M,M,M,M,M,M,M,M,60.80,KMEV 101435Z AUTO 00000KT 10SM CLR 16/11 A3019 RMK AO2,M
NFL,2022-08-10 14:49,-118.7010,39.4166,1199.00,69.00,61.00,75.40,100.00,3.00,0.00,30.15,M,10.00,M,SCT,SCT,M,M,15000.00,22000.00,M,M,M,M,M,M,M,M,M,69.10,KNFL 101449Z 10003KT 10SM SCT150 SCT220 21/16 A3015 RMK AO2 T02060161 PNO $,M
ELY,2022-08-10 14:53,-114.8453,39.2950,1909.00,63.00,59.00,86.77,360.00,4.00,T,30.34,1019.10,10.00,M,OVC,M,M,M,8000.00,M,M,M,M,M,M,M,M,M,M,63.00,KELY 101453Z AUTO 36004KT 10SM OVC080 17/15 A3034 RMK AO2 RAE19 SLP191 P0000 60001 T01720150 53007,M
VGT,2022-08-10 14:53,-115.1933,36.2111,667.00,86.00,64.00,47.91,90.00,7.00,0.00,30.06,1017.00,10.00,M,CLR,M,M,M,M,M,M,M,M,M,M,M,M,M,M,87.31,KVGT 101453Z 09007KT 10SM CLR 30/18 A3006 RMK AO2 SLP170 T03000178 51015,M
DRA,2022-08-10 14:53,-116.0278,36.6206,1009.00,80.00,65.00,59.83,110.00,7.00,0.00,30.12,1015.10,10.00,M,CLR,M,M,M,M,M,M,M,M,M,M,M,M,M,M,81.91,KDRA 101453Z AUTO 11007KT 10SM CLR 27/18 A3012 RMK AO2 SLP151 T02670183 51012,M
LOL,2022-08-10 14:53,-118.5701,40.0684,1192.43,68.00,62.00,81.41,280.00,3.00,0.00,30.15,1017.10,10.00,M,CLR,M,M,M,M,M,M,M,M,M,M,M,M,M,M,68.00,KLOL 101453Z AUTO 28003KT 10SM CLR 20/17 A3015 RMK AO2 SLP171 T02000167 53012,M
CXP,2022-08-10 14:55,-119.7326,39.1923,1431.00,68.00,57.20,68.35,0.00,0.00,0.00,30.20,M,10.00,M,CLR,M,M,M,M,M,M,M,M,M,M,M,M,M,M,68.00,KCXP 101455Z AUTO 00000KT 10SM CLR 20/14 A3020 RMK AO2,M
RTS,2022-08-10 14:55,-119.8764,39.6682,1539.00,64.40,48.20,55.63,0.00,0.00,0.00,30.21,M,10.00,M,CLR,M,M,M,M,M,M,M,M,M,M,M,M,M,M,64.40,KRTS 101455Z AUTO 00000KT 10SM CLR 18/09 A3021 RMK AO2,M
MEV,2022-08-10 14:55,-119.7500,38.9963,1441.42,64.40,51.80,63.60,0.00,0.00,0.00,30.19,M,10.00,M,CLR,M,M,M,M,M,M,M,M,M,M,M,M,M,M,64.40,KMEV 101455Z AUTO 00000KT 10SM CLR 18/11 A3019 RMK AO2,M
BAM,2022-08-10 14:55,-116.8743,40.5990,1382.36,66.20,62.60,88.18,0.00,0.00,0.00,30.21,M,10.00,M,SCT,M,M,M,12000.00,M,M,M,M,M,M,M,M,M,M,66.20,KBAM 101455Z AUTO 00000KT 10SM SCT120 19/17 A3021 RMK AO1,M
HTH,2022-08-10 14:55,-118.6315,38.5448,1282.89,69.80,60.80,73.09,290.00,3.00,0.00,30.18,M,10.00,M,CLR,M,M,M,M,M,M,M,M,M,M,M,M,M,M,69.80,KHTH 101455Z AUTO 29003KT 10SM CLR 21/16 A3018 RMK A01,M
TMT,2022-08-10 14:55,-117.1971,39.4643,1749.34,M,M,M,210.00,4.00,0.00,30.28,M,10.00,M,CLR,M,M,M,M,M,M,M,M,M,M,M,M,M,M,M,KTMT 101455Z AUTO 21004KT 10SM CLR A3028 RMK AO2,M
BVU,2022-08-10 14:55,-114.8611,35.9475,671.00,82.40,66.20,58.08,0.00,0.00,0.00,30.08,M,M,M,M,M,M,M,M,M,M,M,M,M,M,M,M,M,M,84.63,KBVU 101455Z AUTO 00000KT 28/19 A3008 RMK AO2 PWINO TSNO,M
RNO,2022-08-10 14:55,-119.7711,39.4839,1341.00,69.00,49.00,48.53,0.00,0.00,0.00,30.17,1016.00,10.00,M,FEW,FEW,M,M,6000.00,15000.00,M,M,M,M,M,M,M,M,M,69.10,KRNO 101455Z 00000KT 10SM FEW060 FEW150 21/09 A3017 RMK AO2 SLP160 T02060094 53010,M
LAS,2022-08-10 14:56,-115.1634,36.0719,663.00,84.00,65.00,52.71,70.00,5.00,0.00,30.08,1015.90,10.00,M,FEW,FEW,SCT,M,12000.00,15000.00,22000.00,M,M,M,M,M,M,M,M,85.72,KLAS 101456Z 07005KT 10SM FEW120 FEW150 SCT220 29/18 A3008 RMK AO2 SLP159 T02890183 51017,M
TPH,2022-08-10 14:56,-117.0904,38.0505,1654.00,70.00,59.00,68.09,140.00,10.00,0.00,30.27,1017.50,10.00,M,OVC,M,M,M,9000.00,M,M,M,M,M,M,M,M,M,M,70.00,KTPH 101456Z AUTO 14010KT 10SM OVC090 21/15 A3027 RMK AO2 SLP175 T02110150 51015,M
WMC,2022-08-10 14:56,-117.8072,40.9019,1315.00,67.00,61.00,81.33,80.00,5.00,0.00,30.17,1017.90,10.00,M,BKN,M,M,M,10000.00,M,M,M,M,M,M,M,M,M,M,66.90,KWMC 101456Z AUTO 08005KT 10SM BKN100 19/16 A3017 RMK AO2 SLP179 T01940161 53013 $,M
EKO,2022-08-10 14:56,-115.7860,40.8242,1367.00,62.00,61.00,96.18,40.00,4.00,T,30.26,1021.00,10.00,M,FEW,M,M,M,10000.00,M,M,M,M,M,M,M,M,M,M,62.10,KEKO 101456Z AUTO 04004KT 10SM FEW100 17/16 A3026 RMK AO2 RAE11 SLP210 P0000 60001 T01670161 51010 $,M
HND,2022-08-10 14:56,-115.1344,35.9729,742.79,82.00,66.00,58.43,0.00,0.00,0.00,30.11,1018.60,10.00,M,CLR,M,M,M,M,M,M,M,M,M,M,M,M,M,M,84.15,KHND 101456Z 00000KT 10SM CLR 28/19 A3011 RMK AO2 SLP186 T02780189 51015,M
NFL,2022-08-10 14:56,-118.7010,39.4166,1199.00,69.00,61.00,75.40,90.00,4.00,0.00,30.15,1017.40,10.00,M,SCT,SCT,M,M,15000.00,22000.00,M,M,M,M,M,M,M,M,M,69.10,KNFL 101456Z 09004KT 10SM SCT150 SCT220 21/16 A3015 RMK AO2 SLP174 6//// T02060161 53012 PNO $,M
LSV,2022-08-10 14:58,-115.0343,36.2362,570.00,86.50,66.70,51.80,60.00,9.00,0.00,30.05,M,10.00,M,CLR,M,M,M,M,M,M,M,M,M,M,M,M,M,M,89.20,KLSV 101458Z AUTO 06009KT 10SM CLR 30/19 A3005 RMK AO2 SLPNO T03030193 $,M
INS,2022-08-10 14:58,-115.6733,36.5872,955.00,80.20,62.00,54.06,0.00,0.00,0.00,30.12,1015.20,10.00,M,BKN,BKN,M,M,10000.00,14000.00,M,M,M,M,M,M,M,M,M,81.40,KINS 101458Z AUTO 00000KT 10SM BKN100 BKN140 27/17 A3012 RMK AO2 SLP152 T02680167 52014,M
MEV,2022-08-10 15:15,-119.7500,38.9963,1441.42,66.20,50.00,55.88,0.00,0.00,0.00,30.19,M,10.00,M,CLR,M,M,M,M,M,M,M,M,M,M,M,M,M,M,66.20,KMEV 101515Z AUTO 00000KT 10SM CLR 19/10 A3019 RMK AO2,M
TMT,2022-08-10 15:15,-117.1971,39.4643,1749.34,62.60,59.50,89.59,200.00,3.00,0.00,30.29,M,10.00,M,CLR,M,M,M,M,M,M,M,M,M,M,M,M,M,M,62.60,KTMT 101515Z AUTO 20003KT 10SM CLR 17/15 A3029 RMK AO2 T01700153,M
HTH,2022-08-10 15:15,-118.6315,38.5448,1282.89,69.80,60.80,73.09,330.00,3.00,0.00,30.18,M,10.00,M,CLR,M,M,M,M,M,M,M,M,M,M,M,M,M,M,69.80,KHTH 101515Z AUTO 33003KT 10SM CLR 21/16 A3018 RMK A01,M
BAM,2022-08-10 15:15,-116.8743,40.5990,1382.36,66.20,62.60,88.18,110.00,3.00,0.00,30.22,M,10.00,M,SCT,M,M,M,12000.00,M,M,M,M,M,M,M,M,M,M,66.20,KBAM 101515Z AUTO 11003KT 10SM SCT120 19/17 A3022 RMK AO1,M
RTS,2022-08-10 15:15,-119.8764,39.6682,1539.00,66.20,50.00,55.88,0.00,0.00,0.00,30.21,M,10.00,M,CLR,M,M,M,M,M,M,M,M,M,M,M,M,M,M,66.20,KRTS 101515Z AUTO 00000KT 10SM CLR 19/10 A3021 RMK AO2,M
CXP,2022-08-10 15:15,-119.7326,39.1923,1431.00,68.00,57.20,68.35,0.00,0.00,0.00,30.21,M,10.00,M,CLR,M,M,M,M,M,M,M,M,M,M,M,M,M,M,68.00,KCXP 101515Z AUTO 00000KT 10SM CLR 20/14 A3021 RMK AO2,M
BVU,2022-08-10 15:15,-114.8611,35.9475,671.00,84.20,66.20,54.80,0.00,0.00,0.00,30.08,M,M,M,M,M,M,M,M,M,M,M,M,M,M,M,M,M,M,86.50,KBVU 101515Z AUTO 00000KT 29/19 A3008 RMK AO2 PWINO TSNO,M
CXP,2022-08-10 15:30,-119.7326,39.1923,1431.00,69.80,57.20,64.26,0.00,0.00,0.00,30.21,M,10.00,M,CLR,M,M,M,M,M,M,M,M,M,M,M,M,M,M,69.80,KCXP 101530Z AUTO 00000KT 10SM CLR 21/14 A3021 RMK AO2,M
HTH,2022-08-10 15:35,-118.6315,38.5448,1282.89,69.80,60.80,73.09,320.00,4.00,0.00,30.18,M,10.00,M,CLR,M,M,M,M,M,M,M,M,M,M,M,M,M,M,69.80,KHTH 101535Z AUTO 32004KT 10SM CLR 21/16 A3018 RMK A01,M
BAM,2022-08-10 15:35,-116.8743,40.5990,1382.36,68.00,62.60,82.86,100.00,3.00,0.00,30.23,M,10.00,M,BKN,M,M,M,10000.00,M,M,M,M,M,M,M,M,M,M,68.00,KBAM 101535Z AUTO 10003KT 10SM BKN100 20/17 A3023 RMK AO1,M
BVU,2022-08-10 15:35,-114.8611,35.9475,671.00,84.20,66.20,54.80,150.00,3.00,0.00,30.09,M,M,M,M,M,M,M,M,M,M,M,M,M,M,M,M,M,M,86.50,KBVU 101535Z AUTO 15003KT 29/19 A3009 RMK AO2 PWINO TSNO,M
RTS,2022-08-10 15:35,-119.8764,39.6682,1539.00,68.00,50.00,52.51,0.00,0.00,0.00,30.22,M,10.00,M,CLR,M,M,M,M,M,M,M,M,M,M,M,M,M,M,68.00,KRTS 101535Z AUTO 00000KT 10SM CLR 20/10 A3022 RMK AO2,M
MEV,2022-08-10 15:35,-119.7500,38.9963,1441.42,68.00,51.80,56.13,0.00,0.00,0.00,30.20,M,10.00,M,CLR,M,M,M,M,M,M,M,M,M,M,M,M,M,M,68.00,KMEV 101535Z AUTO 00000KT 10SM CLR 20/11 A3020 RMK AO2,M
TMT,2022-08-10 15:35,-117.1971,39.4643,1749.34,63.30,59.20,86.48,0.00,0.00,0.00,30.29,M,10.00,M,CLR,M,M,M,M,M,M,M,M,M,M,M,M,M,M,63.30,KTMT 101535Z AUTO 00000KT 10SM CLR 17/15 A3029 RMK AO2 T01740151,M
VGT,2022-08-10 15:53,-115.1933,36.2111,667.00,87.00,64.00,46.26,110.00,7.00,0.00,30.08,1017.40,10.00,M,CLR,M,M,M,M,M,M,M,M,M,M,M,M,M,M,88.42,KVGT 101553Z 11007KT 10SM CLR 31/18 A3008 RMK AO2 SLP174 T03060178,M
LOL,2022-08-10 15:53,-118.5701,40.0684,1192.43,74.00,62.00,66.61,50.00,5.00,0.00,30.16,1017.20,10.00,M,CLR,M,M,M,M,M,M,M,M,M,M,M,M,M,M,73.90,KLOL 101553Z AUTO 05005KT 10SM CLR 23/17 A3016 RMK AO2 SLP172 T02330167,M
ELY,2022-08-10 15:53,-114.8453,39.2950,1909.00,63.00,59.00,86.77,140.00,4.00,T,30.37,1020.00,9.00,M,BKN,OVC,M,M,7000.00,9500.00,M,M,-RA,M,M,M,M,M,M,63.00,KELY 101553Z AUTO 14004KT 9SM -RA BKN070 OVC095 17/15 A3037 RMK AO2 RAB49 SLP200 P0000 T01720150,M
DRA,2022-08-10 15:53,-116.0278,36.6206,1009.00,84.00,62.00,47.78,120.00,10.00,0.00,30.13,1015.40,10.00,M,BKN,BKN,M,M,10000.00,12000.00,M,M,M,M,M,M,M,M,M,84.67,KDRA 101553Z AUTO 12010KT 10SM BKN100 BKN120 29/17 A3013 RMK AO2 SLP154 T02890167,M
BVU,2022-08-10 15:55,-114.8611,35.9475,671.00,86.00,66.20,51.72,0.00,0.00,0.00,30.09,M,M,M,M,M,M,M,M,M,M,M,M,M,M,M,M,M,M,88.39,KBVU 101555Z AUTO 00000KT 30/19 A3009 RMK AO2 PWINO TSNO,M
RNO,2022-08-10 15:55,-119.7711,39.4839,1341.00,72.00,50.00,45.81,0.00,0.00,0.00,30.17,1016.00,10.00,M,FEW,FEW,M,M,9000.00,20000.00,M,M,M,M,M,M,M,M,M,72.00,KRNO 101555Z 00000KT 10SM FEW090 FEW200 22/10 A3017 RMK AO2 SLP160 T02220100,M
RTS,2022-08-10 15:55,-119.8764,39.6682,1539.00,69.80,51.80,52.77,0.00,0.00,0.00,30.22,M,10.00,M,CLR,M,M,M,M,M,M,M,M,M,M,M,M,M,M,69.80,KRTS 101555Z AUTO 00000KT 10SM CLR 21/11 A3022 RMK AO2,M
MEV,2022-08-10 15:55,-119.7500,38.9963,1441.42,69.80,50.00,49.37,0.00,0.00,0.00,30.20,M,10.00,M,CLR,M,M,M,M,M,M,M,M,M,M,M,M,M,M,69.80,KMEV 101555Z AUTO 00000KT 10SM CLR 21/10 A3020 RMK AO2,M
BAM,2022-08-10 15:55,-116.8743,40.5990,1382.36,69.80,62.60,77.90,80.00,5.00,0.00,30.23,M,10.00,M,OVC,M,M,M,10000.00,M,M,M,M,M,M,M,M,M,M,69.80,KBAM 101555Z AUTO 08005KT 10SM OVC100 21/17 A3023 RMK AO1,M
HTH,2022-08-10 15:55,-118.6315,38.5448,1282.89,71.60,60.80,68.75,310.00,4.00,0.00,30.18,M,10.00,M,CLR,M,M,M,M,M,M,M,M,M,M,M,M,M,M,71.60,KHTH 101555Z AUTO 31004KT 10SM CLR 22/16 A3018 RMK A01,M
TMT,2022-08-10 15:55,-117.1971,39.4643,1749.34,64.20,59.40,84.40,190.00,4.00,0.00,30.30,M,10.00,M,CLR,M,M,M,M,M,M,M,M,M,M,M,M,M,M,64.20,KTMT 101555Z AUTO 19004KT 10SM CLR 18/15 A3030 RMK AO2 T01790152,M
CXP,2022-08-10 15:55,-119.7326,39.1923,1431.00,71.60,53.60,53.03,0.00,0.00,0.00,30.21,M,10.00,M,CLR,M,M,M,M,M,M,M,M,M,M,M,M,M,M,71.60,KCXP 101555Z AUTO 00000KT 10SM CLR 22/12 A3021 RMK AO2,M
HND,2022-08-10 15:56,-115.1344,35.9729,742.79,85.00,66.00,53.21,0.00,0.00,0.00,30.12,1018.90,10.00,M,CLR,M,M,M,M,M,M,M,M,M,M,M,M,M,M,87.13,KHND 101556Z 00000KT 10SM CLR 29/19 A3012 RMK AO2 SLP189 T02940189,M
WMC,2022-08-10 15:56,-117.8072,40.9019,1315.00,72.00,61.00,68.31,50.00,6.00,0.00,30.18,1017.90,10.00,M,SCT,M,M,M,10000.00,M,M,M,M,M,M,M,M,M,M,72.00,KWMC 101556Z AUTO 05006KT 10SM SCT100 22/16 A3018 RMK AO2 SLP179 T02220161,M
LAS,2022-08-10 15:56,-115.1634,36.0719,663.00,86.00,65.00,49.44,40.00,3.00,0.00,30.09,1016.20,10.00,M,FEW,FEW,SCT,M,11000.00,15000.00,22000.00,M,M,M,M,M,M,M,M,87.73,KLAS 101556Z 04003KT 10SM FEW110 FEW150 SCT220 30/18 A3009 RMK AO2 SLP162 T03000183,M
NFL,2022-08-10 15:56,-118.7010,39.4166,1199.00,72.00,62.00,71.02,130.00,3.00,0.00,30.16,1017.60,10.00,M,SCT,M,M,M,22000.00,M,M,M,M,M,M,M,M,M,M,72.00,KNFL 101556Z 13003KT 10SM SCT220 22/17 A3016 RMK AO2 SLP176 T02220167,M
TPH,2022-08-10 15:56,-117.0904,38.0505,1654.00,74.00,58.00,57.36,140.00,10.00,0.00,30.28,1017.70,10.00,M,CLR,M,M,M,M,M,M,M,M,M,M,M,M,M,M,73.90,KTPH 101556Z AUTO 14010KT 10SM CLR 23/14 A3028 RMK AO2 SLP177 T02330144,M
EKO,2022-08-10 15:56,-115.7860,40.8242,1367.00,63.00,60.00,90.25,50.00,7.00,0.00,30.26,1020.90,10.00,M,CLR,M,M,M,M,M,M,M,M,M,M,M,M,M,M,63.00,KEKO 101556Z AUTO 05007KT 10SM CLR 17/16 A3026 RMK AO2 SLP209 T01720156,M
LSV,2022-08-10 15:58,-115.0343,36.2362,570.00,90.00,65.00,43.86,50.00,9.00,0.00,30.06,M,10.00,M,CLR,M,M,M,M,M,M,M,M,M,M,M,M,M,M,92.05,KLSV 101558Z AUTO 05009KT 10SM CLR 32/18 A3006 RMK AO2 SLPNO T03220184 $,M
INS,2022-08-10 15:58,-115.6733,36.5872,955.00,85.60,60.00,41.98,100.00,8.00,0.00,30.13,1015.40,10.00,M,OVC,M,M,M,10000.00,M,M,M,M,M,M,M,M,M,M,85.39,KINS 101558Z AUTO 10008KT 10SM OVC100 30/16 A3013 RMK AO2 SLP154 T02980155,M
BVU,2022-08-10 16:15,-114.8611,35.9475,671.00,86.00,64.40,48.58,0.00,0.00,0.00,30.08,M,M,M,M,M,M,M,M,M,M,M,M,M,M,M,M,M,M,87.49,KBVU 101615Z AUTO 00000KT 30/18 A3008 RMK AO2 PWINO TSNO,M
CXP,2022-08-10 16:15,-119.7326,39.1923,1431.00,75.20,51.80,43.97,0.00,0.00,0.00,30.21,M,10.00,M,CLR,M,M,M,M,M,M,M,M,M,M,M,M,M,M,75.20,KCXP 101615Z AUTO 00000KT 10SM CLR 24/11 A3021 RMK AO2,M
RTS,2022-08-10 16:15,-119.8764,39.6682,1539.00,69.80,51.80,52.77,0.00,0.00,0.00,30.22,M,10.00,M,CLR,M,M,M,M,M,M,M,M,M,M,M,M,M,M,69.80,KRTS 101615Z AUTO 00000KT 10SM CLR 21/11 A3022 RMK AO2,M
MEV,2022-08-10 16:15,-119.7500,38.9963,1441.42,73.40,48.20,40.85,0.00,0.00,0.00,30.20,M,9.00,M,CLR,M,M,M,M,M,M,M,M,M,M,M,M,M,M,73.40,KMEV 101615Z AUTO 00000KT 9SM CLR 23/09 A3020 RMK AO2,M
BAM,2022-08-10 16:15,-116.8743,40.5990,1382.36,69.80,62.60,77.90,60.00,8.00,0.00,30.23,M,10.00,M,BKN,M,M,M,10000.00,M,M,M,M,M,M,M,M,M,M,69.80,KBAM 101615Z AUTO 06008KT 10SM BKN100 21/17 A3023 RMK AO1,M
HTH,2022-08-10 16:15,-118.6315,38.5448,1282.89,73.40,60.80,64.69,290.00,4.00,0.00,30.18,M,10.00,M,CLR,M,M,M,M,M,M,M,M,M,M,M,M,M,M,73.40,KHTH 101615Z AUTO 29004KT 10SM CLR 23/16 A3018 RMK A01,M
TMT,2022-08-10 16:15,-117.1971,39.4643,1749.34,65.30,59.40,81.22,190.00,4.00,0.00,30.30,M,10.00,M,CLR,M,M,M,M,M,M,M,M,M,M,M,M,M,M,65.30,KTMT 101615Z AUTO 19004KT 10SM CLR 19/15 A3030 RMK AO2 T01850152,M
CXP,2022-08-10 16:35,-119.7326,39.1923,1431.00,77.00,46.40,33.85,M,4.00,0.00,30.21,M,10.00,M,CLR,M,M,M,M,M,M,M,M,M,M,M,M,M,M,77.00,KCXP 101635Z AUTO VRB04KT 10SM CLR 25/08 A3021 RMK AO2,M
BAM,2022-08-10 16:35,-116.8743,40.5990,1382.36,69.80,62.60,77.90,70.00,7.00,0.00,30.23,M,10.00,M,BKN,M,M,M,11000.00,M,M,M,M,M,M,M,M,M,M,69.80,KBAM 101635Z AUTO 07007KT 10SM BKN110 21/17 A3023 RMK AO1,M
HTH,2022-08-10 16:35,-118.6315,38.5448,1282.89,73.40,60.80,64.69,M,3.00,0.00,30.18,M,10.00,M,CLR,M,M,M,M,M,M,M,M,M,M,M,M,M,M,73.40,KHTH 101635Z AUTO VRB03KT 10SM CLR 23/16 A3018 RMK A01,M
TMT,2022-08-10 16:35,-117.1971,39.4643,1749.34,M,M,M,210.00,4.00,0.00,30.29,M,10.00,M,CLR,M,M,M,M,M,M,M,M,M,M,M,M,M,M,M,KTMT 101635Z AUTO 21004KT 10SM CLR A3029 RMK AO2,M
BVU,2022-08-10 16:35,-114.8611,35.9475,671.00,87.80,64.40,45.88,150.00,3.00,0.00,30.09,M,M,M,M,M,M,M,M,M,M,M,M,M,M,M,M,M,M,89.33,KBVU 101635Z AUTO 15003KT 31/18 A3009 RMK AO2 PWINO TSNO,M
RTS,2022-08-10 16:35,-119.8764,39.6682,1539.00,73.40,50.00,43.69,0.00,0.00,0.00,30.22,M,10.00,M,CLR,M,M,M,M,M,M,M,M,M,M,M,M,M,M,73.40,KRTS 101635Z AUTO 00000KT 10SM CLR 23/10 A3022 RMK AO2,M
MEV,2022-08-10 16:35,-119.7500,38.9963,1441.42,75.20,48.20,38.46,260.00,4.00,0.00,30.20,M,10.00,M,CLR,M,M,M,M,M,M,M,M,M,M,M,M,M,M,75.20,KMEV 101635Z AUTO 26004KT 10SM CLR 24/09 A3020 RMK AO2,M
VGT,2022-08-10 16:53,-115.1933,36.2111,667.00,89.00,64.00,43.42,M,4.00,0.00,30.07,1017.20,10.00,M,CLR,M,M,M,M,M,M,M,M,M,M,M,M,M,M,90.49,KVGT 101653Z VRB04KT 10SM CLR 32/18 A3007 RMK AO2 SLP172 T03170178,M
LOL,2022-08-10 16:53,-118.5701,40.0684,1192.43,77.00,61.00,57.77,90.00,5.00,0.00,30.16,1017.10,10.00,M,CLR,M,M,M,M,M,M,M,M,M,M,M,M,M,M,77.00,KLOL 101653Z AUTO 09005KT 10SM CLR 25/16 A3016 RMK AO2 SLP171 T02500161,M
DRA,2022-08-10 16:53,-116.0278,36.6206,1009.00,87.00,60.00,40.31,100.00,7.00,0.00,30.14,1015.40,10.00,15.00,CLR,M,M,M,M,M,M,M,M,M,M,M,M,M,M,86.83,KDRA 101653Z AUTO 10007G15KT 10SM CLR 31/16 A3014 RMK AO2 SLP154 T03060156,M
ELY,2022-08-10 16:53,-114.8453,39.2950,1909.00,66.00,58.00,75.12,230.00,5.00,0.01,30.37,1019.80,10.00,M,FEW,BKN,OVC,M,6500.00,9000.00,11000.00,M,M,M,M,M,M,M,M,66.00,KELY 101653Z AUTO 23005KT 10SM FEW065 BKN090 OVC110 19/14 A3037 RMK AO2 RAE11 SLP198 P0001 T01890144,M
RTS,2022-08-10 16:55,-119.8764,39.6682,1539.00,75.20,48.20,38.46,M,4.00,0.00,30.22,M,10.00,M,CLR,M,M,M,M,M,M,M,M,M,M,M,M,M,M,75.20,KRTS 101655Z AUTO VRB04KT 10SM CLR 24/09 A3022 RMK AO2,M
MEV,2022-08-10 16:55,-119.7500,38.9963,1441.42,77.00,48.20,36.22,0.00,0.00,0.00,30.19,M,10.00,M,CLR,M,M,M,M,M,M,M,M,M,M,M,M,M,M,77.00,KMEV 101655Z AUTO 00000KT 10SM CLR 25/09 A3019 RMK AO2,M
BAM,2022-08-10 16:55,-116.8743,40.5990,1382.36,71.60,62.60,73.27,70.00,5.00,0.00,30.23,M,10.00,M,BKN,BKN,M,M,10000.00,12000.00,M,M,M,M,M,M,M,M,M,71.60,KBAM 101655Z AUTO 07005KT 10SM BKN100 BKN120 22/17 A3023 RMK AO1,M
BVU,2022-08-10 16:55,-114.8611,35.9475,671.00,89.60,64.40,43.34,10.00,4.00,0.00,30.08,M,M,M,M,M,M,M,M,M,M,M,M,M,M,M,M,M,M,91.23,KBVU 101655Z AUTO 01004KT 32/18 A3008 RMK AO2 PWINO TSNO,M
CXP,2022-08-10 16:55,-119.7326,39.1923,1431.00,80.60,41.00,24.46,M,4.00,0.00,30.20,M,10.00,11.00,CLR,M,M,M,M,M,M,M,M,M,M,M,M,M,M,79.20,KCXP 101655Z AUTO VRB04G11KT 10SM CLR 27/05 A3020 RMK AO2,M
TMT,2022-08-10 16:55,-117.1971,39.4643,1749.34,68.40,59.50,73.22,0.00,0.00,0.00,30.29,M,10.00,M,CLR,M,M,M,M,M,M,M,M,M,M,M,M,M,M,68.40,KTMT 101655Z AUTO 00000KT 10SM CLR 20/15 A3029 RMK AO2 T02020153,M
HTH,2022-08-10 16:55,-118.6315,38.5448,1282.89,75.20,60.80,60.90,330.00,4.00,0.00,30.18,M,10.00,M,CLR,M,M,M,M,M,M,M,M,M,M,M,M,M,M,75.20,KHTH 101655Z AUTO 33004KT 10SM CLR 24/16 A3018 RMK A01,M
RNO,2022-08-10 16:55,-119.7711,39.4839,1341.00,77.00,52.00,41.72,0.00,0.00,0.00,30.17,1015.60,10.00,M,FEW,FEW,M,M,8000.00,20000.00,M,M,M,M,M,M,M,M,M,77.00,KRNO 101655Z 00000KT 10SM FEW080 FEW200 25/11 A3017 RMK AO2 SLP156 T02500111,M
TPH,2022-08-10 16:56,-117.0904,38.0505,1654.00,75.00,58.00,55.28,180.00,8.00,0.00,30.28,1017.80,10.00,M,CLR,M,M,M,M,M,M,M,M,M,M,M,M,M,M,75.00,KTPH 101656Z AUTO 18008KT 10SM CLR 24/14 A3028 RMK AO2 SLP178 T02390144,M
EKO,2022-08-10 16:56,-115.7860,40.8242,1367.00,65.00,60.00,84.44,120.00,4.00,0.00,30.27,1021.20,10.00,M,SCT,M,M,M,11000.00,M,M,M,M,M,M,M,M,M,M,64.90,KEKO 101656Z AUTO 12004KT 10SM SCT110 18/16 A3027 RMK AO2 SLP212 T01830156,M
LAS,2022-08-10 16:56,-115.1634,36.0719,663.00,89.00,64.00,43.42,60.00,5.00,0.00,30.09,1016.20,10.00,M,FEW,FEW,BKN,M,11000.00,15000.00,22000.00,M,M,M,M,M,M,M,M,90.49,KLAS 101656Z 06005KT 10SM FEW110 FEW150 BKN220 32/18 A3009 RMK AO2 SLP162 CB DSNT N T03170178,M
NFL,2022-08-10 16:56,-118.7010,39.4166,1199.00,76.00,61.00,59.92,160.00,5.00,0.00,30.15,1017.60,10.00,M,SCT,M,M,M,22000.00,M,M,M,M,M,M,M,M,M,M,75.90,KNFL 101656Z 16005KT 10SM SCT220 24/16 A3015 RMK AO2 SLP176 T02440161,M
HND,2022-08-10 16:56,-115.1344,35.9729,742.79,88.00,66.00,48.20,30.00,4.00,0.00,30.12,1018.60,10.00,M,CLR,M,M,M,M,M,M,M,M,M,M,M,M,M,M,90.41,KHND 101656Z 03004KT 10SM CLR 31/19 A3012 RMK AO2 SLP186 T03110189,M
WMC,2022-08-10 16:56,-117.8072,40.9019,1315.00,74.00,62.00,66.61,M,4.00,0.00,30.19,1017.90,10.00,M,SCT,M,M,M,7000.00,M,M,M,M,M,M,M,M,M,M,73.90,KWMC 101656Z AUTO VRB04KT 10SM SCT070 23/17 A3019 RMK AO2 SLP179 T02330167,M
INS,2022-08-10 16:58,-115.6733,36.5872,955.00,87.00,59.00,38.75,130.00,9.00,0.00,30.13,1015.10,10.00,M,CLR,M,M,M,M,M,M,M,M,M,M,M,M,M,M,86.47,KINS 101658Z AUTO 13009KT 10SM CLR 31/15 A3013 RMK AO2 SLP151 T03060150,M
LSV,2022-08-10 16:58,-115.0343,36.2362,570.00,93.00,65.00,39.93,70.00,8.00,0.00,30.05,M,10.00,M,CLR,M,M,M,M,M,M,M,M,M,M,M,M,M,M,95.40,KLSV 101658Z AUTO 07008KT 10SM CLR 34/18 A3005 RMK AO2 SLPNO T03390184 $,M
CXP,2022-08-10 17:10,-119.7326,39.1923,1431.00,80.60,41.00,24.46,210.00,8.00,0.00,30.20,M,10.00,14.00,CLR,M,M,M,M,M,M,M,M,M,M,M,M,M,M,79.20,KCXP 101710Z AUTO 21008G14KT 10SM CLR 27/05 A3020 RMK AO2,M
BVU,2022-08-10 17:15,-114.8611,35.9475,671.00,89.60,64.40,43.34,M,4.00,0.00,30.08,M,M,M,M,M,M,M,M,M,M,M,M,M,M,M,M,M,M,91.23,KBVU 101715Z AUTO VRB04KT 32/18 A3008 RMK AO2 PWINO TSNO,M
MEV,2022-08-10 17:15,-119.7500,38.9963,1441.42,80.60,41.00,24.46,180.00,10.00,0.00,30.19,M,10.00,20.00,CLR,M,M,M,M,M,M,M,M,M,M,M,M,M,M,79.20,KMEV 101715Z AUTO 18010G20KT 10SM CLR 27/05 A3019 RMK AO2,M
HTH,2022-08-10 17:15,-118.6315,38.5448,1282.89,75.20,60.80,60.90,M,4.00,0.00,30.17,M,10.00,M,CLR,M,M,M,M,M,M,M,M,M,M,M,M,M,M,75.20,KHTH 101715Z AUTO VRB04KT 10SM CLR 24/16 A3017 RMK A01,M
TMT,2022-08-10 17:15,-117.1971,39.4643,1749.34,69.30,59.00,69.73,0.00,0.00,0.00,30.29,M,10.00,M,CLR,M,M,M,M,M,M,M,M,M,M,M,M,M,M,69.30,KTMT 101715Z AUTO 00000KT 10SM CLR 21/15 A3029 RMK AO2 T02070150,M
BAM,2022-08-10 17:15,-116.8743,40.5990,1382.36,71.60,64.40,78.04,60.00,6.00,0.00,30.23,M,10.00,M,BKN,M,M,M,11000.00,M,M,M,M,M,M,M,M,M,M,71.60,KBAM 101715Z AUTO 06006KT 10SM BKN110 22/18 A3023 RMK AO1,M
RTS,2022-08-10 17:15,-119.8764,39.6682,1539.00,75.20,46.40,35.94,0.00,0.00,0.00,30.22,M,10.00,M,CLR,M,M,M,M,M,M,M,M,M,M,M,M,M,M,75.20,KRTS 101715Z AUTO 00000KT 10SM CLR 24/08 A3022 RMK AO2,M
CXP,2022-08-10 17:30,-119.7326,39.1923,1431.00,82.40,39.20,21.51,200.00,10.00,0.00,30.20,M,10.00,16.00,CLR,M,M,M,M,M,M,M,M,M,M,M,M,M,M,80.21,KCXP 101730Z AUTO 20010G16KT 10SM CLR 28/04 A3020 RMK AO2,M
HTH,2022-08-10 17:35,-118.6315,38.5448,1282.89,77.00,60.80,57.36,330.00,6.00,0.00,30.17,M,10.00,M,CLR,M,M,M,M,M,M,M,M,M,M,M,M,M,M,77.00,KHTH 101735Z AUTO 33006KT 10SM CLR 25/16 A3017 RMK A01,M
BVU,2022-08-10 17:35,-114.8611,35.9475,671.00,91.40,62.60,38.45,M,6.00,0.00,30.08,M,M,M,M,M,M,M,M,M,M,M,M,M,M,M,M,M,M,92.23,KBVU 101735Z AUTO VRB06KT 33/17 A3008 RMK AO2 PWINO TSNO,M
RTS,2022-08-10 17:35,-119.8764,39.6682,1539.00,77.00,44.60,31.62,150.00,6.00,0.00,30.22,M,10.00,M,CLR,M,M,M,M,M,M,M,M,M,M,M,M,M,M,77.00,KRTS 101735Z AUTO 15006KT 10SM CLR 25/07 A3022 RMK AO2,M
BAM,2022-08-10 17:35,-116.8743,40.5990,1382.36,73.40,64.40,73.44,60.00,8.00,0.00,30.23,M,10.00,M,BKN,M,M,M,11000.00,M,M,M,M,M,M,M,M,M,M,73.40,KBAM 101735Z AUTO 06008KT 10SM BKN110 23/18 A3023 RMK AO1,M
TMT,2022-08-10 17:35,-117.1971,39.4643,1749.34,M,M,M,130.00,4.00,0.00,30.29,M,10.00,M,CLR,M,M,M,M,M,M,M,M,M,M,M,M,M,M,M,KTMT 101735Z AUTO 13004KT 10SM CLR A3029 RMK AO2,M
MEV,2022-08-10 17:35,-119.7500,38.9963,1441.42,82.40,41.00,23.07,200.00,12.00,0.00,30.19,M,10.00,20.00,CLR,M,M,M,M,M,M,M,M,M,M,M,M,M,M,80.29,KMEV 101735Z AUTO 20012G20KT 10SM CLR 28/05 A3019 RMK AO2,M
VGT,2022-08-10 17:53,-115.1933,36.2111,667.00,92.00,63.00,38.39,70.00,5.00,0.00,30.08,1017.20,10.00,M,CLR,M,M,M,M,M,M,M,M,M,M,M,M,M,M,92.97,KVGT 101753Z 07005KT 10SM CLR 33/17 A3008 RMK AO2 SLP172 T03330172 10333 20278 51004,M
ELY,2022-08-10 17:53,-114.8453,39.2950,1909.00,71.00,59.00,65.58,250.00,3.00,0.00,30.37,1019.20,10.00,M,SCT,M,M,M,10000.00,M,M,M,M,M,M,M,M,M,M,71.10,KELY 101753Z AUTO 25003KT 10SM SCT100 22/15 A3037 RMK AO2 SLP192 60002 T02170150 10217 20150 51008,M
LOL,2022-08-10 17:53,-118.5701,40.0684,1192.43,82.00,60.00,47.49,M,5.00,0.00,30.15,1016.90,10.00,M,CLR,M,M,M,M,M,M,M,M,M,M,M,M,M,M,82.40,KLOL 101753Z AUTO VRB05KT 10SM CLR 28/16 A3015 RMK AO2 SLP169 T02780156 10278 20156 50001,M
DRA,2022-08-10 17:53,-116.0278,36.6206,1009.00,90.00,59.00,35.36,110.00,10.00,0.00,30.14,1015.30,10.00,M,CLR,M,M,M,M,M,M,M,M,M,M,M,M,M,M,89.26,KDRA 101753Z AUTO 11010KT 10SM CLR 32/15 A3014 RMK AO2 SLP153 T03220150 10328 20239 51007,M
RTS,2022-08-10 17:55,-119.8764,39.6682,1539.00,78.80,44.60,29.79,160.00,5.00,0.00,30.22,M,10.00,M,CLR,M,M,M,M,M,M,M,M,M,M,M,M,M,M,78.80,KRTS 101755Z AUTO 16005KT 10SM CLR 26/07 A3022 RMK AO2,M
TMT,2022-08-10 17:55,-117.1971,39.4643,1749.34,M,M,M,150.00,4.00,0.00,30.30,M,10.00,M,CLR,M,M,M,M,M,M,M,M,M,M,M,M,M,M,M,KTMT 101755Z AUTO 15004KT 10SM CLR A3030 RMK AO2,M
MEV,2022-08-10 17:55,-119.7500,38.9963,1441.42,82.40,42.80,24.72,170.00,14.00,0.00,30.18,M,10.00,20.00,CLR,M,M,M,M,M,M,M,M,M,M,M,M,M,M,80.39,KMEV 101755Z AUTO 17014G20KT 10SM CLR 28/06 A3018 RMK AO2,M
HTH,2022-08-10 17:55,-118.6315,38.5448,1282.89,77.00,60.80,57.36,20.00,4.00,0.00,30.17,M,10.00,M,CLR,M,M,M,M,M,M,M,M,M,M,M,M,M,M,77.00,KHTH 101755Z AUTO 02004KT 10SM CLR 25/16 A3017 RMK A01,M
BAM,2022-08-10 17:55,-116.8743,40.5990,1382.36,75.20,64.40,69.14,50.00,9.00,0.00,30.23,M,10.00,M,SCT,M,M,M,11000.00,M,M,M,M,M,M,M,M,M,M,75.20,KBAM 101755Z AUTO 05009KT 10SM SCT110 24/18 A3023 RMK AO1,M
RNO,2022-08-10 17:55,-119.7711,39.4839,1341.00,83.00,46.00,27.48,M,5.00,0.00,30.16,1015.00,10.00,M,FEW,FEW,M,M,9000.00,20000.00,M,M,M,M,M,M,M,M,M,80.94,KRNO 101755Z VRB05KT 10SM FEW090 FEW200 28/08 A3016 RMK AO2 SLP150 T02830078 10289 20178 58002,M
BVU,2022-08-10 17:55,-114.8611,35.9475,671.00,91.40,62.60,38.45,0.00,0.00,0.00,30.08,M,M,M,M,M,M,M,M,M,M,M,M,M,M,M,M,M,M,92.23,KBVU 101755Z AUTO 00000KT 33/17 A3008 RMK AO2 PWINO TSNO,M
CXP,2022-08-10 17:55,-119.7326,39.1923,1431.00,84.20,39.20,20.29,190.00,8.00,0.00,30.20,M,10.00,14.00,CLR,M,M,M,M,M,M,M,M,M,M,M,M,M,M,81.44,KCXP 101755Z AUTO 19008G14KT 10SM CLR 29/04 A3020 RMK AO2,M
NFL,2022-08-10 17:56,-118.7010,39.4166,1199.00,80.00,61.00,52.16,0.00,0.00,0.00,30.15,1017.50,10.00,M,SCT,M,M,M,22000.00,M,M,M,M,M,M,M,M,M,M,81.10,KNFL 101756Z 00000KT 10SM SCT220 27/16 A3015 RMK AO2 SLP175 6//// T02670161 10267 20172 50002,M
HND,2022-08-10 17:56,-115.1344,35.9729,742.79,92.00,66.00,42.64,M,3.00,0.00,30.12,1018.40,10.00,M,CLR,M,M,M,M,M,M,M,M,M,M,M,M,M,M,94.72,KHND 101756Z VRB03KT 10SM CLR 33/19 A3012 RMK AO2 SLP184 T03330189 10333 20244 50002,M
LAS,2022-08-10 17:56,-115.1634,36.0719,663.00,91.00,64.00,40.90,0.00,0.00,0.00,30.09,1016.10,10.00,M,FEW,FEW,SCT,M,11000.00,15000.00,22000.00,M,M,M,M,M,M,M,M,92.52,KLAS 101756Z 00000KT 10SM FEW110 FEW150 SCT220 33/18 A3009 RMK AO2 LTG DSNT NW SLP161 CB DSNT N AND E AND NW T03280178 10333 20272 51003,M
EKO,2022-08-10 17:56,-115.7860,40.8242,1367.00,66.00,58.00,75.12,110.00,4.00,0.00,30.28,1021.30,10.00,M,CLR,M,M,M,M,M,M,M,M,M,M,M,M,M,M,66.00,KEKO 101756Z AUTO 11004KT 10SM CLR 19/14 A3028 RMK AO2 SLP213 60001 T01890144 10189 20144 53007,M
TPH,2022-08-10 17:56,-117.0904,38.0505,1654.00,80.00,56.00,43.44,150.00,11.00,0.00,30.29,1017.40,10.00,19.00,FEW,M,M,M,4600.00,M,M,M,M,M,M,M,M,M,M,80.29,KTPH 101756Z AUTO 15011G19KT 10SM FEW046 27/13 A3029 RMK AO2 SLP174 T02670133 10267 20183 51004,M
WMC,2022-08-10 17:56,-117.8072,40.9019,1315.00,78.00,62.00,57.92,M,5.00,0.00,30.19,1017.80,10.00,M,FEW,M,M,M,6000.00,M,M,M,M,M,M,M,M,M,M,78.10,KWMC 101756Z AUTO VRB05KT 10SM FEW060 26/17 A3019 RMK AO2 SLP178 T02560167 10261 20172 51005,M
INS,2022-08-10 17:58,-115.6733,36.5872,955.00,87.00,57.60,36.86,110.00,9.00,0.00,30.13,1015.40,10.00,M,CLR,M,M,M,M,M,M,M,M,M,M,M,M,M,M,86.05,KINS 101758Z AUTO 11009KT 10SM CLR 31/14 A3013 RMK AO2 SLP154 T03060142 10311 20240 51003,M
LSV,2022-08-10 17:58,-115.0343,36.2362,570.00,96.80,63.70,33.82,90.00,8.00,0.00,30.05,M,10.00,M,FEW,M,M,M,15000.00,M,M,M,M,M,M,M,M,M,M,98.93,KLSV 101758Z AUTO 09008KT 10SM FEW150 36/18 A3005 RMK AO2 SLPNO T03600176 10360 20274 50002 $,M
TMT,2022-08-10 18:10,-117.1971,39.4643,1749.34,M,M,M,0.00,0.00,0.00,30.30,M,10.00,M,CLR,M,M,M,M,M,M,M,M,M,M,M,M,M,M,M,KTMT 101810Z AUTO 00000KT 10SM CLR A3030 RMK AO2,M
MEV,2022-08-10 18:15,-119.7500,38.9963,1441.42,84.20,42.80,23.33,190.00,11.00,0.00,30.18,M,10.00,20.00,CLR,M,M,M,M,M,M,M,M,M,M,M,M,M,M,81.61,KMEV 101815Z AUTO 19011G20KT 10SM CLR 29/06 A3018 RMK AO2,M
HTH,2022-08-10 18:15,-118.6315,38.5448,1282.89,78.80,59.00,50.69,310.00,5.00,0.00,30.17,M,10.00,M,CLR,M,M,M,M,M,M,M,M,M,M,M,M,M,M,78.80,KHTH 101815Z AUTO 31005KT 10SM CLR 26/15 A3017 RMK A01,M
BVU,2022-08-10 18:15,-114.8611,35.9475,671.00,93.20,62.60,36.35,0.00,0.00,0.00,30.08,M,M,M,M,M,M,M,M,M,M,M,M,M,M,M,M,M,M,94.20,KBVU 101815Z AUTO 00000KT 34/17 A3008 RMK AO2 PWINO TSNO,M
CXP,2022-08-10 18:15,-119.7326,39.1923,1431.00,86.00,39.20,19.15,210.00,7.00,0.00,30.20,M,10.00,13.00,CLR,M,M,M,M,M,M,M,M,M,M,M,M,M,M,82.79,KCXP 101815Z AUTO 21007G13KT 10SM CLR 30/04 A3020 RMK AO2,M
RTS,2022-08-10 18:15,-119.8764,39.6682,1539.00,78.80,42.80,27.81,150.00,8.00,0.00,30.22,M,10.00,14.00,CLR,M,M,M,M,M,M,M,M,M,M,M,M,M,M,78.80,KRTS 101815Z AUTO 15008G14KT 110V180 10SM CLR 26/06 A3022 RMK AO2,M
BAM,2022-08-10 18:15,-116.8743,40.5990,1382.36,77.00,62.60,61.13,80.00,6.00,0.00,30.23,M,10.00,M,BKN,M,M,M,10000.00,M,M,M,M,M,M,M,M,M,M,77.00,KBAM 101815Z AUTO 08006KT 10SM BKN100 25/17 A3023 RMK AO1,M
CXP,2022-08-10 18:30,-119.7326,39.1923,1431.00,86.00,41.00,20.54,M,6.00,0.00,30.20,M,10.00,11.00,CLR,M,M,M,M,M,M,M,M,M,M,M,M,M,M,82.86,KCXP 101830Z AUTO VRB06G11KT 10SM CLR 30/05 A3020 RMK AO2,M
HTH,2022-08-10 18:35,-118.6315,38.5448,1282.89,80.60,59.00,47.79,330.00,5.00,0.00,30.16,M,10.00,M,CLR,M,M,M,M,M,M,M,M,M,M,M,M,M,M,81.11,KHTH 101835Z AUTO 33005KT 10SM CLR 27/15 A3016 RMK A01,M
MEV,2022-08-10 18:35,-119.7500,38.9963,1441.42,86.00,42.80,22.02,180.00,15.00,0.00,30.18,M,10.00,21.00,CLR,M,M,M,M,M,M,M,M,M,M,M,M,M,M,82.95,KMEV 101835Z AUTO 18015G21KT 10SM CLR 30/06 A3018 RMK AO2,M
TMT,2022-08-10 18:35,-117.1971,39.4643,1749.34,M,M,M,310.00,3.00,0.00,30.29,M,10.00,M,M,M,M,M,M,M,M,M,M,M,M,M,M,M,M,M,KTMT 101835Z AUTO 31003KT 10SM A3029 RMK AO2 LTG DSNT SE,M
BVU,2022-08-10 18:35,-114.8611,35.9475,671.00,93.20,62.60,36.35,M,5.00,0.00,30.07,M,M,M,M,M,M,M,M,M,M,M,M,M,M,M,M,M,M,94.20,KBVU 101835Z AUTO VRB05KT 34/17 A3007 RMK AO2 PWINO TSNO,M
BAM,2022-08-10 18:35,-116.8743,40.5990,1382.36,78.80,62.60,57.60,90.00,7.00,0.00,30.23,M,10.00,M,SCT,M,M,M,10000.00,M,M,M,M,M,M,M,M,M,M,78.80,KBAM 101835Z AUTO 09007KT 10SM SCT100 26/17 A3023 RMK AO1,M
RTS,2022-08-10 18:35,-119.8764,39.6682,1539.00,80.60,42.80,26.22,140.00,9.00,0.00,30.21,M,10.00,16.00,CLR,M,M,M,M,M,M,M,M,M,M,M,M,M,M,79.30,KRTS 101835Z AUTO 14009G16KT 10SM CLR 27/06 A3021 RMK AO2,M
INS,2022-08-10 18:45,-115.6733,36.5872,955.00,86.00,62.60,45.61,130.00,10.00,0.00,30.12,1015.10,10.00,M,SCT,BKN,M,M,9500.00,12000.00,M,M,-RA,M,M,M,M,M,M,86.72,KINS 101845Z AUTO 13010KT 10SM -RA SCT095 BKN120 30/17 A3012 RMK AO2 RAB45 SLP151,M
ELY,2022-08-10 18:53,-114.8453,39.2950,1909.00,71.00,58.00,63.05,10.00,3.00,0.00,30.36,1018.90,10.00,M,FEW,BKN,OVC,M,3400.00,8000.00,10000.00,M,M,M,M,M,M,M,M,71.10,KELY 101853Z AUTO 01003KT 10SM FEW034 BKN080 OVC100 22/14 A3036 RMK AO2 SLP189 T02170144,M
DRA,2022-08-10 18:53,-116.0278,36.6206,1009.00,92.00,59.00,33.31,M,5.00,0.00,30.13,1014.60,10.00,18.00,SCT,M,M,M,6500.00,M,M,M,M,M,M,M,M,M,M,91.20,KDRA 101853Z AUTO VRB05G18KT 10SM SCT065 33/15 A3013 RMK AO2 SLP146 T03330150,M
VGT,2022-08-10 18:53,-115.1933,36.2111,667.00,95.00,63.00,34.87,70.00,7.00,0.00,30.05,1016.30,10.00,M,CLR,M,M,M,M,M,M,M,M,M,M,M,M,M,M,96.44,KVGT 101853Z 07007KT 10SM CLR 35/17 A3005 RMK AO2 LTG DSNT N AND NW SLP163 T03500172,M
LOL,2022-08-10 18:53,-118.5701,40.0684,1192.43,84.00,59.00,42.80,M,4.00,0.00,30.14,1016.50,10.00,M,CLR,M,M,M,M,M,M,M,M,M,M,M,M,M,M,83.75,KLOL 101853Z AUTO VRB04KT 10SM CLR 29/15 A3014 RMK AO2 SLP165 T02890150,M
BAM,2022-08-10 18:55,-116.8743,40.5990,1382.36,78.80,62.60,57.60,60.00,4.00,0.00,30.23,M,10.00,M,SCT,M,M,M,10000.00,M,M,M,M,M,M,M,M,M,M,78.80,KBAM 101855Z AUTO 06004KT 10SM SCT100 26/17 A3023 RMK AO1,M
RTS,2022-08-10 18:55,-119.8764,39.6682,1539.00,80.60,41.00,24.46,130.00,12.00,0.00,30.21,M,10.00,M,CLR,M,M,M,M,M,M,M,M,M,M,M,M,M,M,79.20,KRTS 101855Z AUTO 13012KT 10SM CLR 27/05 A3021 RMK AO2,M
TMT,2022-08-10 18:55,-117.1971,39.4643,1749.34,M,M,M,0.00,0.00,0.00,30.28,M,10.00,M,CLR,M,M,M,M,M,M,M,M,M,M,M,M,M,M,M,KTMT 101855Z AUTO 00000KT 10SM CLR A3028 RMK AO2 LTG DSNT SE,M
BVU,2022-08-10 18:55,-114.8611,35.9475,671.00,93.20,62.60,36.35,M,4.00,0.00,30.06,M,M,11.00,M,M,M,M,M,M,M,M,M,M,M,M,M,M,M,94.20,KBVU 101855Z AUTO VRB04G11KT 34/17 A3006 RMK AO2 PWINO TSNO,M
CXP,2022-08-10 18:55,-119.7326,39.1923,1431.00,86.00,41.00,20.54,180.00,8.00,0.00,30.19,M,10.00,M,CLR,M,M,M,M,M,M,M,M,M,M,M,M,M,M,82.86,KCXP 101855Z AUTO 18008KT 10SM CLR 30/05 A3019 RMK AO2,M
RNO,2022-08-10 18:55,-119.7711,39.4839,1341.00,87.00,43.00,21.42,190.00,15.00,0.00,30.15,1014.90,10.00,22.00,FEW,M,M,M,9500.00,M,M,M,M,M,M,M,M,M,M,83.84,KRNO 101855Z 19015G22KT 10SM FEW095 31/06 A3015 RMK AO2 SLP149 T03060061,M
HTH,2022-08-10 18:55,-118.6315,38.5448,1282.89,80.60,59.00,47.79,310.00,5.00,0.00,30.16,M,10.00,M,FEW,FEW,M,M,10000.00,12000.00,M,M,M,M,M,M,M,M,M,81.11,KHTH 101855Z AUTO 31005KT 10SM FEW100 FEW120 27/15 A3016 RMK A01,M
MEV,2022-08-10 18:55,-119.7500,38.9963,1441.42,86.00,42.80,22.02,190.00,13.00,0.00,30.18,M,10.00,20.00,CLR,M,M,M,M,M,M,M,M,M,M,M,M,M,M,82.95,KMEV 101855Z AUTO 19013G20KT 10SM CLR 30/06 A3018 RMK AO2,M
TPH,2022-08-10 18:56,-117.0904,38.0505,1654.00,82.00,52.00,35.41,180.00,14.00,0.00,30.27,1017.00,10.00,22.00,SCT,M,M,M,6000.00,M,M,M,M,M,M,M,M,M,M,80.97,KTPH 101856Z AUTO 18014G22KT 10SM SCT060 28/11 A3027 RMK AO2 SLP170 T02780111,M
NFL,2022-08-10 18:56,-118.7010,39.4166,1199.00,84.00,57.00,39.83,140.00,6.00,0.00,30.14,1017.20,10.00,M,SCT,SCT,SCT,M,8000.00,15000.00,22000.00,M,M,M,M,M,M,M,M,83.26,KNFL 101856Z 14006KT 10SM SCT080 SCT150 SCT220 29/14 A3014 RMK AO2 SLP172 T02890139,M
EKO,2022-08-10 18:56,-115.7860,40.8242,1367.00,66.00,59.00,78.14,140.00,5.00,0.00,30.28,1021.40,10.00,M,FEW,BKN,BKN,M,2700.00,6000.00,10000.00,M,M,M,M,M,M,M,M,66.00,KEKO 101856Z AUTO 14005KT 10SM FEW027 BKN060 BKN100 19/15 A3028 RMK AO2 SLP214 T01890150,M
WMC,2022-08-10 18:56,-117.8072,40.9019,1315.00,82.00,60.00,47.49,M,M,0.00,30.18,1017.20,M,M,M,M,M,M,M,M,M,M,M,M,M,M,M,M,M,82.40,KWMC 101856Z AUTO 28/16 A3018 RMK AO2 SLP172 T02780156 PWINO $,M
HND,2022-08-10 18:56,-115.1344,35.9729,742.79,93.00,65.00,39.65,60.00,6.00,0.00,30.10,1017.60,10.00,M,CLR,M,M,M,M,M,M,M,M,M,M,M,M,M,M,95.27,KHND 101856Z 06006KT 10SM CLR 34/18 A3010 RMK AO2 LTG DSNT S SLP176 T03390183,M
LAS,2022-08-10 18:56,-115.1634,36.0719,663.00,92.00,63.00,38.39,M,3.00,0.00,30.06,1015.20,10.00,M,FEW,SCT,M,M,11000.00,22000.00,M,M,M,M,M,M,M,M,M,92.97,KLAS 101856Z VRB03KT 10SM FEW110 SCT220 33/17 A3006 RMK AO2 LTG DSNT S AND NW SLP152 CB DSNT ALQDS T03330172,M
INS,2022-08-10 18:57,-115.6733,36.5872,955.00,82.40,62.60,51.21,130.00,7.00,0.00,30.12,1015.20,10.00,M,FEW,SCT,SCT,M,3200.00,10000.00,12000.00,M,M,M,M,M,M,M,M,83.41,KINS 101857Z AUTO 13007KT 10SM FEW032 SCT100 SCT120 28/17 A3012 RMK AO2 RAB45E57 SLP152,M
INS,2022-08-10 18:58,-115.6733,36.5872,955.00,83.30,62.60,49.74,130.00,7.00,T,30.12,1015.10,10.00,M,FEW,SCT,SCT,M,3200.00,10000.00,12000.00,M,M,M,M,M,M,M,M,84.21,KINS 101858Z AUTO 13007KT 10SM FEW032 SCT100 SCT120 29/17 A3012 RMK AO2 RAB45E57 SLP151 P0000 T02850170,M
LSV,2022-08-10 18:58,-115.0343,36.2362,570.00,99.50,62.40,29.76,80.00,4.00,0.00,30.03,M,10.00,M,CLR,M,M,M,M,M,M,M,M,M,M,M,M,M,M,101.32,KLSV 101858Z AUTO 08004KT 10SM CLR 38/17 A3003 RMK AO2 SLPNO T03750169 $,M
BAM,2022-08-10 19:15,-116.8743,40.5990,1382.36,80.60,62.60,54.30,0.00,0.00,0.00,30.22,M,10.00,M,SCT,M,M,M,9500.00,M,M,M,M,M,M,M,M,M,M,81.84,KBAM 101915Z AUTO 00000KT 10SM SCT095 27/17 A3022 RMK AO1,M
CXP,2022-08-10 19:15,-119.7326,39.1923,1431.00,87.80,41.00,19.40,150.00,5.00,0.00,30.19,M,10.00,13.00,CLR,M,M,M,M,M,M,M,M,M,M,M,M,M,M,84.30,KCXP 101915Z AUTO 15005G13KT 10SM CLR 31/05 A3019 RMK AO2,M
TMT,2022-08-10 19:15,-117.1971,39.4643,1749.34,M,M,M,130.00,5.00,0.00,30.28,M,10.00,M,SCT,M,M,M,4600.00,M,M,M,M,M,M,M,M,M,M,M,KTMT 101915Z AUTO 13005KT 10SM SCT046 A3028 RMK AO2,M
HTH,2022-08-10 19:15,-118.6315,38.5448,1282.89,82.40,59.00,45.07,300.00,6.00,0.00,30.15,M,10.00,M,FEW,FEW,M,M,9500.00,12000.00,M,M,M,M,M,M,M,M,M,82.46,KHTH 101915Z AUTO 30006KT 10SM FEW095 FEW120 28/15 A3015 RMK A01,M
BVU,2022-08-10 19:15,-114.8611,35.9475,671.00,95.00,62.60,34.39,50.00,8.00,0.00,30.05,M,M,M,M,M,M,M,M,M,M,M,M,M,M,M,M,M,M,96.22,KBVU 101915Z AUTO 05008KT 35/17 A3005 RMK AO2 PWINO TSNO,M
MEV,2022-08-10 19:15,-119.7500,38.9963,1441.42,86.00,42.80,22.02,200.00,13.00,0.00,30.17,M,10.00,19.00,CLR,M,M,M,M,M,M,M,M,M,M,M,M,M,M,82.95,KMEV 101915Z AUTO 20013G19KT 10SM CLR 30/06 A3017 RMK AO2,M
RTS,2022-08-10 19:15,-119.8764,39.6682,1539.00,82.40,39.20,21.51,190.00,9.00,0.00,30.21,M,10.00,17.00,CLR,M,M,M,M,M,M,M,M,M,M,M,M,M,M,80.21,KRTS 101915Z AUTO 19009G17KT 10SM CLR 28/04 A3021 RMK AO2,M
HND,2022-08-10 19:33,-115.1344,35.9729,742.79,91.40,64.40,40.96,20.00,5.00,0.00,30.09,M,10.00,M,CLR,M,M,M,M,M,M,M,VCTS,M,M,M,M,M,M,93.19,KHND 101933Z 02005KT 10SM VCTS CLR 33/18 A3009 RMK AO2 LTG DSNT S TSB27,M
HTH,2022-08-10 19:35,-118.6315,38.5448,1282.89,84.20,59.00,42.52,320.00,5.00,0.00,30.14,M,10.00,M,CLR,M,M,M,M,M,M,M,M,M,M,M,M,M,M,83.92,KHTH 101935Z AUTO 32005KT 10SM CLR 29/15 A3014 RMK A01,M
TMT,2022-08-10 19:35,-117.1971,39.4643,1749.34,M,M,M,140.00,4.00,0.00,30.28,M,10.00,M,SCT,M,M,M,4600.00,M,M,M,M,M,M,M,M,M,M,M,KTMT 101935Z AUTO 14004KT 10SM SCT046 A3028 RMK AO2 LTG DSNT SE,M
BVU,2022-08-10 19:35,-114.8611,35.9475,671.00,95.00,62.60,34.39,M,5.00,0.00,30.05,M,M,M,M,M,M,M,M,M,M,M,M,M,M,M,M,M,M,96.22,KBVU 101935Z AUTO VRB05KT 35/17 A3005 RMK AO2 PWINO TSNO,M
CXP,2022-08-10 19:35,-119.7326,39.1923,1431.00,87.80,41.00,19.40,200.00,8.00,0.00,30.18,M,10.00,M,CLR,M,M,M,M,M,M,M,M,M,M,M,M,M,M,84.30,KCXP 101935Z AUTO 20008KT 190V250 10SM CLR 31/05 A3018 RMK AO2,M
RTS,2022-08-10 19:35,-119.8764,39.6682,1539.00,82.40,39.20,21.51,160.00,15.00,0.00,30.20,M,10.00,23.00,CLR,M,M,M,M,M,M,M,M,M,M,M,M,M,M,80.21,KRTS 101935Z AUTO 16015G23KT 140V200 10SM CLR 28/04 A3020 RMK AO2,M
MEV,2022-08-10 19:35,-119.7500,38.9963,1441.42,87.80,42.80,20.79,180.00,14.00,0.00,30.17,M,10.00,22.00,CLR,M,M,M,M,M,M,M,M,M,M,M,M,M,M,84.40,KMEV 101935Z AUTO 18014G22KT 10SM CLR 31/06 A3017 RMK AO2,M
BAM,2022-08-10 19:35,-116.8743,40.5990,1382.36,82.40,62.60,51.21,0.00,0.00,0.00,30.21,M,10.00,M,SCT,M,M,M,9500.00,M,M,M,M,M,M,M,M,M,M,83.41,KBAM 101935Z AUTO 00000KT 10SM SCT095 28/17 A3021 RMK AO1,M
HND,2022-08-10 19:48,-115.1344,35.9729,742.79,91.40,64.40,40.96,140.00,5.00,0.00,30.10,M,10.00,M,CLR,M,M,M,M,M,M,M,M,M,M,M,M,M,M,93.19,KHND 101948Z 14005KT 10SM CLR 33/18 A3010 RMK AO2 LTG DSNT S TSB27E42,M
CXP,2022-08-10 19:50,-119.7326,39.1923,1431.00,87.80,41.00,19.40,210.00,8.00,0.00,30.18,M,10.00,17.00,CLR,M,M,M,M,M,M,M,M,M,M,M,M,M,M,84.30,KCXP 101950Z AUTO 21008G17KT 180V240 10SM CLR 31/05 A3018 RMK AO2,M
LOL,2022-08-10 19:53,-118.5701,40.0684,1192.43,88.00,57.00,35.05,150.00,12.00,0.00,30.13,1015.80,10.00,16.00,SCT,BKN,M,M,6500.00,7500.00,M,M,M,M,M,M,M,M,M,86.71,KLOL 101953Z AUTO 15012G16KT 120V210 10SM SCT065 BKN075 31/14 A3013 RMK AO2 SLP158 T03110139,M
VGT,2022-08-10 19:53,-115.1933,36.2111,667.00,94.00,62.00,34.95,140.00,7.00,0.00,30.04,1016.00,10.00,M,CLR,M,M,M,M,M,M,M,M,M,M,M,M,M,M,94.72,KVGT 101953Z 14007KT 10SM CLR 34/17 A3004 RMK AO2 LTG DSNT N SLP160 T03440167,M
DRA,2022-08-10 19:53,-116.0278,36.6206,1009.00,92.00,56.00,29.80,M,M,0.00,30.10,1014.00,10.00,M,FEW,M,M,M,8000.00,M,M,M,M,M,M,M,M,M,M,90.17,KDRA 101953Z AUTO 10SM FEW080 33/13 A3010 RMK AO2 SLP140 T03330133,M
ELY,2022-08-10 19:53,-114.8453,39.2950,1909.00,72.00,58.00,61.15,0.00,0.00,0.00,30.35,1018.40,10.00,M,FEW,FEW,M,M,9500.00,11000.00,M,M,M,M,M,M,M,M,M,72.00,KELY 101953Z AUTO 00000KT 10SM FEW095 FEW110 22/14 A3035 RMK AO2 LTG DSNT SW-NW SLP184 T02220144,M
RNO,2022-08-10 19:55,-119.7711,39.4839,1341.00,88.00,43.00,20.82,190.00,6.00,0.00,30.14,1014.40,10.00,19.00,FEW,M,M,M,10000.00,M,M,M,M,M,M,M,M,M,M,84.58,KRNO 101955Z 19006G19KT 10SM FEW100 31/06 A3014 RMK AO2 SLP144 T03110061,M
TMT,2022-08-10 19:55,-117.1971,39.4643,1749.34,M,M,M,160.00,7.00,0.00,30.27,M,10.00,M,SCT,SCT,SCT,M,5000.00,6000.00,8500.00,M,M,M,M,M,M,M,M,M,KTMT 101955Z AUTO 16007KT 130V190 10SM SCT050 SCT060 SCT085 A3027 RMK AO2 LTG DSNT E,M
MEV,2022-08-10 19:55,-119.7500,38.9963,1441.42,87.80,42.80,20.79,190.00,12.00,0.00,30.17,M,10.00,23.00,CLR,M,M,M,M,M,M,M,M,M,M,M,M,M,M,84.40,KMEV 101955Z AUTO 19012G23KT 10SM CLR 31/06 A3017 RMK AO2,M
BAM,2022-08-10 19:55,-116.8743,40.5990,1382.36,80.60,60.80,50.95,80.00,3.00,0.00,30.21,M,10.00,M,SCT,M,M,M,4400.00,M,M,M,M,M,M,M,M,M,M,81.46,KBAM 101955Z AUTO 08003KT 10SM SCT044 27/16 A3021 RMK AO1,M
BVU,2022-08-10 19:55,-114.8611,35.9475,671.00,95.00,62.60,34.39,130.00,4.00,0.00,30.05,M,M,M,M,M,M,M,M,M,M,M,M,M,M,M,M,M,M,96.22,KBVU 101955Z AUTO 13004KT 35/17 A3005 RMK AO2 PWINO TSNO,M
HTH,2022-08-10 19:55,-118.6315,38.5448,1282.89,86.00,57.20,37.62,280.00,8.00,0.00,30.13,M,10.00,M,CLR,M,M,M,M,M,M,M,M,M,M,M,M,M,M,84.97,KHTH 101955Z AUTO 28008KT 10SM CLR 30/14 A3013 RMK A01,M
RTS,2022-08-10 19:55,-119.8764,39.6682,1539.00,84.20,37.40,18.91,230.00,10.00,0.00,30.20,M,10.00,18.00,CLR,M,M,M,M,M,M,M,M,M,M,M,M,M,M,81.38,KRTS 101955Z AUTO 23010G18KT 210V270 10SM CLR 29/03 A3020 RMK AO2,M
NFL,2022-08-10 19:56,-118.7010,39.4166,1199.00,85.00,57.00,38.69,0.00,0.00,0.00,30.13,1016.80,10.00,M,SCT,SCT,M,M,7000.00,18000.00,M,M,M,M,M,M,M,M,M,83.99,KNFL 101956Z 00000KT 10SM SCT070 SCT180 29/14 A3013 RMK SLP168 TCU DSNT E-SE-S T02940139,M
LAS,2022-08-10 19:56,-115.1634,36.0719,663.00,92.00,63.00,38.39,M,3.00,0.00,30.05,1014.80,10.00,M,SCT,SCT,BKN,M,11000.00,15000.00,22000.00,M,M,M,M,M,M,M,M,92.97,KLAS 101956Z VRB03KT 10SM SCT110 SCT150 BKN220 33/17 A3005 RMK AO2 LTG DSNT SE AND S SLP148 CB SE AND DSNT S-W-N VCSH SE T03330172,M
TPH,2022-08-10 19:56,-117.0904,38.0505,1654.00,85.00,50.00,29.94,190.00,11.00,0.00,30.25,1016.10,10.00,20.00,FEW,M,M,M,7000.00,M,M,M,M,M,M,M,M,M,M,82.76,KTPH 101956Z AUTO 19011G20KT 10SM FEW070 29/10 A3025 RMK AO2 SLP161 T02940100,M
HND,2022-08-10 19:56,-115.1344,35.9729,742.79,90.00,64.00,42.20,130.00,16.00,0.00,30.09,1017.60,10.00,M,CLR,M,M,M,M,M,M,M,M,M,M,M,M,M,M,91.44,KHND 101956Z 13016KT 10SM CLR 32/18 A3009 RMK AO2 LTG DSNT SE AND S TSB27E42 SLP176 T03220178,M
WMC,2022-08-10 19:56,-117.8072,40.9019,1315.00,M,M,M,M,M,0.00,30.17,M,M,M,M,M,M,M,M,M,M,M,M,M,M,M,M,M,M,M,KWMC 101956Z AUTO A3017 RMK AO2 SLPNO PWINO FZRANO $,M
EKO,2022-08-10 19:56,-115.7860,40.8242,1367.00,71.00,57.00,61.04,M,4.00,0.00,30.27,1020.40,10.00,M,FEW,SCT,M,M,6000.00,9000.00,M,M,M,M,M,M,M,M,M,71.10,KEKO 101956Z AUTO VRB04KT 10SM FEW060 SCT090 22/14 A3027 RMK AO2 SLP204 T02170139,M
INS,2022-08-10 19:58,-115.6733,36.5872,955.00,90.50,57.40,32.86,110.00,4.00,0.00,30.10,1014.00,10.00,M,CLR,M,M,M,M,M,M,M,M,M,M,M,M,M,M,89.22,KINS 101958Z AUTO 11004KT 10SM CLR 33/14 A3010 RMK AO2 SLP140 T03250141,M
LSV,2022-08-10 19:58,-115.0343,36.2362,570.00,103.50,61.70,25.75,170.00,6.00,0.00,30.02,M,10.00,M,SCT,BKN,M,M,12000.00,20000.00,M,M,M,M,M,M,M,M,M,105.61,KLSV 101958Z COR 17006KT 10SM SCT120 BKN200 40/17 A3002 RMK AO2 SLPNO T03970165 $ COR 2000,M
LAS,2022-08-10 19:59,-115.1634,36.0719,663.00,93.00,63.00,37.10,230.00,3.00,0.00,30.05,M,10.00,M,SCT,SCT,BKN,M,11000.00,15000.00,22000.00,M,TS,M,M,M,M,M,M,94.18,KLAS 101959Z 23003KT 10SM TS SCT110CB SCT150 BKN220 34/17 A3005 RMK AO2 LTG DSNT SE AND S TSB59 OCNL LTGIC SE-S TS SE-S MOV N T03390172,M
HND,2022-08-10 20:03,-115.1344,35.9729,742.79,89.60,64.40,43.34,110.00,13.00,0.00,30.09,M,10.00,19.00,CLR,M,M,M,M,M,M,M,TS,M,M,M,M,M,M,91.23,KHND 102003Z 11013G19KT 10SM TS CLR 32/18 A3009 RMK AO2 LTG DSNT SE AND S TSB1957,M
ELY,2022-08-10 20:06,-114.8453,39.2950,1909.00,72.00,58.00,61.15,240.00,3.00,T,30.34,M,10.00,M,FEW,FEW,BKN,M,8000.00,9000.00,11000.00,M,-TSRA,M,M,M,M,M,M,72.00,KELY 102006Z AUTO 24003KT 10SM -TSRA FEW080 FEW090 BKN110 22/14 A3034 RMK AO2 LTG DSNT S-NW RAB05 TSB00 P0000 T02220144,M
CXP,2022-08-10 20:10,-119.7326,39.1923,1431.00,89.60,41.00,18.33,170.00,7.00,0.00,30.17,M,10.00,14.00,CLR,M,M,M,M,M,M,M,M,M,M,M,M,M,M,85.82,KCXP 102010Z AUTO 17007G14KT 10SM CLR 32/05 A3017 RMK AO2,M
HND,2022-08-10 20:15,-115.1344,35.9729,742.79,87.80,64.40,45.88,100.00,11.00,0.00,30.08,M,10.00,18.00,CLR,M,M,M,M,M,M,M,VCTS,M,M,M,M,M,M,89.33,KHND 102015Z 10011G18KT 10SM VCTS CLR 31/18 A3008 RMK AO2 LTG DSNT SE AND S TSB1957E12B15,M
TMT,2022-08-10 20:15,-117.1971,39.4643,1749.34,M,M,M,220.00,8.00,0.00,30.27,M,10.00,M,SCT,SCT,BKN,M,7000.00,9500.00,11000.00,M,M,M,M,M,M,M,M,M,KTMT 102015Z AUTO 22008KT 10SM SCT070 SCT095 BKN110 A3027 RMK AO2 LTG DSNT E,M
BVU,2022-08-10 20:15,-114.8611,35.9475,671.00,95.00,60.80,32.27,130.00,7.00,0.00,30.03,M,M,M,M,M,M,M,M,M,M,M,M,M,M,M,M,M,M,95.30,KBVU 102015Z AUTO 13007KT 35/16 A3003 RMK AO2 PWINO TSNO,M
RTS,2022-08-10 20:15,-119.8764,39.6682,1539.00,84.20,35.60,17.61,210.00,12.00,0.00,30.20,M,10.00,21.00,CLR,M,M,M,M,M,M,M,M,M,M,M,M,M,M,81.34,KRTS 102015Z AUTO 21012G21KT 10SM CLR 29/02 A3020 RMK AO2,M
HTH,2022-08-10 20:15,-118.6315,38.5448,1282.89,86.00,57.20,37.62,M,6.00,0.00,30.12,M,10.00,M,CLR,M,M,M,M,M,M,M,M,M,M,M,M,M,M,84.97,KHTH 102015Z AUTO VRB06KT 10SM CLR 30/14 A3012 RMK A01,M
BAM,2022-08-10 20:15,-116.8743,40.5990,1382.36,80.60,62.60,54.30,70.00,7.00,0.00,30.20,M,10.00,M,SCT,M,M,M,4600.00,M,M,M,M,M,M,M,M,M,M,81.84,KBAM 102015Z AUTO 07007KT 10SM SCT046 27/17 A3020 RMK AO1,M
MEV,2022-08-10 20:15,-119.7500,38.9963,1441.42,87.80,42.80,20.79,200.00,15.00,0.00,30.16,M,10.00,24.00,CLR,M,M,M,M,M,M,M,M,M,M,M,M,M,M,84.40,KMEV 102015Z AUTO 20015G24KT 10SM CLR 31/06 A3016 RMK AO2,M
BVU,2022-08-10 20:35,-114.8611,35.9475,671.00,82.40,71.60,69.90,190.00,21.00,0.00,30.06,M,M,M,M,M,M,M,M,M,M,M,M,M,M,M,M,M,M,87.18,KBVU 102035Z AUTO 19021KT 28/22 A3006 RMK AO2 PWINO TSNO,M
CXP,2022-08-10 20:35,-119.7326,39.1923,1431.00,87.80,42.80,20.79,M,5.00,0.00,30.17,M,10.00,15.00,CLR,M,M,M,M,M,M,M,M,M,M,M,M,M,M,84.40,KCXP 102035Z AUTO VRB05G15KT 10SM CLR 31/06 A3017 RMK AO2,M
MEV,2022-08-10 20:35,-119.7500,38.9963,1441.42,87.80,42.80,20.79,200.00,11.00,0.00,30.16,M,10.00,23.00,CLR,M,M,M,M,M,M,M,M,M,M,M,M,M,M,84.40,KMEV 102035Z AUTO 20011G23KT 10SM CLR 31/06 A3016 RMK AO2,M
RTS,2022-08-10 20:35,-119.8764,39.6682,1539.00,86.00,37.40,17.85,250.00,11.00,0.00,30.20,M,10.00,19.00,CLR,M,M,M,M,M,M,M,M,M,M,M,M,M,M,82.73,KRTS 102035Z AUTO 25011G19KT 10SM CLR 30/03 A3020 RMK AO2,M
HTH,2022-08-10 20:35,-118.6315,38.5448,1282.89,87.80,55.40,33.29,M,6.00,0.00,30.11,M,10.00,M,CLR,M,M,M,M,M,M,M,M,M,M,M,M,M,M,86.11,KHTH 102035Z AUTO VRB06KT 10SM CLR 31/13 A3011 RMK A01,M
BAM,2022-08-10 20:35,-116.8743,40.5990,1382.36,80.60,62.60,54.30,70.00,7.00,0.00,30.21,M,10.00,M,CLR,M,M,M,M,M,M,M,M,M,M,M,M,M,M,81.84,KBAM 102035Z AUTO 07007KT 10SM CLR 27/17 A3021 RMK AO1,M
TMT,2022-08-10 20:35,-117.1971,39.4643,1749.34,M,M,M,130.00,9.00,0.00,30.26,M,10.00,21.00,SCT,BKN,M,M,6000.00,7500.00,M,M,M,M,M,M,M,M,M,M,KTMT 102035Z AUTO 13009G21KT 090V150 10SM SCT060 BKN075 A3026 RMK AO2,M
HND,2022-08-10 20:36,-115.1344,35.9729,742.79,89.60,64.40,43.34,110.00,6.00,0.00,30.08,M,10.00,M,CLR,M,M,M,M,M,M,M,M,M,M,M,M,M,M,91.23,KHND 102036Z 11006KT 10SM CLR 32/18 A3008 RMK AO2 LTG DSNT E-S TSB1957E12B15E30,M
ELY,2022-08-10 20:39,-114.8453,39.2950,1909.00,64.00,58.00,80.54,290.00,11.00,T,30.35,M,6.00,M,FEW,OVC,M,M,900.00,9500.00,M,M,-TSRA,M,M,M,M,M,M,64.00,KELY 102039Z AUTO 29011KT 6SM -TSRA FEW009 OVC095 18/14 A3035 RMK AO2 LTG DSNT SE-W RAB05 TSB00 P0000 T01780144,M
LAS,2022-08-10 20:43,-115.1634,36.0719,663.00,93.00,64.00,38.42,110.00,7.00,0.00,30.04,M,10.00,M,SCT,SCT,BKN,M,11000.00,15000.00,22000.00,M,M,M,M,M,M,M,M,94.74,KLAS 102043Z 11007KT 10SM SCT110 SCT150 BKN220 34/18 A3004 RMK AO2 LTG DSNT SE AND S TSB1959E22B23E42 TS DSIPTD CB DSNT ALQDS VCSH E T03390178,M
TMT,2022-08-10 20:50,-117.1971,39.4643,1749.34,M,M,M,220.00,6.00,0.00,30.26,M,10.00,14.00,SCT,M,M,M,6000.00,M,M,M,M,M,M,M,M,M,M,M,KTMT 102050Z AUTO 22006G14KT 10SM SCT060 A3026 RMK AO2 LTG DSNT E AND SE,M
DRA,2022-08-10 20:53,-116.0278,36.6206,1009.00,97.00,53.00,22.98,210.00,13.00,0.00,30.08,1013.00,10.00,19.00,CLR,M,M,M,M,M,M,M,M,M,M,M,M,M,M,94.67,KDRA 102053Z AUTO 21013G19KT 10SM CLR 36/12 A3008 RMK AO2 SLP130 T03610117 58018,M
ELY,2022-08-10 20:53,-114.8453,39.2950,1909.00,62.00,56.00,80.11,270.00,14.00,T,30.35,1019.50,3.00,M,BKN,OVC,M,M,9500.00,12000.00,M,M,+TSRA,M,M,M,M,M,M,62.10,KELY 102053Z AUTO 27014KT 3SM +TSRA BKN095 OVC120 17/13 A3035 RMK AO2 LTG DSNT ALQDS RAB05 TSB00 SLP195 P0000 60000 T01670133 55007 $,M
VGT,2022-08-10 20:53,-115.1933,36.2111,667.00,94.00,62.00,34.95,170.00,5.00,0.00,30.02,1015.30,10.00,M,CLR,M,M,M,M,M,M,M,M,M,M,M,M,M,M,94.72,KVGT 102053Z 17005KT 10SM CLR 34/17 A3002 RMK AO2 LTG DSNT N AND SE SLP153 T03440167 56017,M
LOL,2022-08-10 20:53,-118.5701,40.0684,1192.43,89.00,55.00,31.49,190.00,13.00,0.00,30.11,1015.10,10.00,17.00,FEW,SCT,M,M,7000.00,9000.00,M,M,M,M,M,M,M,M,M,87.21,KLOL 102053Z AUTO 19013G17KT 10SM FEW070 SCT090 32/13 A3011 RMK AO2 SLP151 T03170128 58014,M
BVU,2022-08-10 20:55,-114.8611,35.9475,671.00,82.40,62.60,51.21,250.00,10.00,0.00,30.06,M,M,23.00,M,M,M,M,M,M,M,M,M,M,M,M,M,M,M,83.41,KBVU 102055Z AUTO 25010G23KT 28/17 A3006 RMK AO2 PWINO TSNO,M
RTS,2022-08-10 20:55,-119.8764,39.6682,1539.00,86.00,37.40,17.85,220.00,15.00,0.00,30.20,M,10.00,24.00,CLR,M,M,M,M,M,M,M,M,M,M,M,M,M,M,82.73,KRTS 102055Z AUTO 22015G24KT 10SM CLR 30/03 A3020 RMK AO2,M
BAM,2022-08-10 20:55,-116.8743,40.5990,1382.36,80.60,60.80,50.95,70.00,7.00,0.00,30.21,M,10.00,M,CLR,M,M,M,M,M,M,M,M,M,M,M,M,M,M,81.46,KBAM 102055Z AUTO 07007KT 10SM CLR 27/16 A3021 RMK AO1,M
CXP,2022-08-10 20:55,-119.7326,39.1923,1431.00,87.80,42.80,20.79,240.00,8.00,0.00,30.16,M,10.00,M,CLR,M,M,M,M,M,M,M,M,M,M,M,M,M,M,84.40,KCXP 102055Z AUTO 24008KT 190V280 10SM CLR 31/06 A3016 RMK AO2,M
HTH,2022-08-10 20:55,-118.6315,38.5448,1282.89,87.80,55.40,33.29,280.00,6.00,0.00,30.11,M,10.00,11.00,CLR,M,M,M,M,M,M,M,M,M,M,M,M,M,M,86.11,KHTH 102055Z AUTO 28006G11KT 10SM CLR 31/13 A3011 RMK A01,M
RNO,2022-08-10 20:55,-119.7711,39.4839,1341.00,91.00,44.00,19.76,210.00,7.00,0.00,30.13,1013.90,10.00,22.00,SCT,M,M,M,10000.00,M,M,M,M,M,M,M,M,M,M,87.27,KRNO 102055Z 21007G22KT 170V240 10SM SCT100 33/07 A3013 RMK AO2 SLP139 T03280067 58009,M
MEV,2022-08-10 20:55,-119.7500,38.9963,1441.42,89.60,41.00,18.33,190.00,12.00,0.00,30.16,M,10.00,19.00,CLR,M,M,M,M,M,M,M,M,M,M,M,M,M,M,85.82,KMEV 102055Z AUTO 19012G19KT 10SM CLR 32/05 A3016 RMK AO2,M
TPH,2022-08-10 20:56,-117.0904,38.0505,1654.00,86.00,49.00,27.74,230.00,7.00,0.00,30.24,1015.50,10.00,21.00,FEW,M,M,M,7500.00,M,M,M,M,M,M,M,M,M,M,83.48,KTPH 102056Z AUTO 23007G21KT 180V260 10SM FEW075 30/09 A3024 RMK AO2 SLP155 T03000094 58014,M
EKO,2022-08-10 20:56,-115.7860,40.8242,1367.00,72.00,58.00,61.15,100.00,8.00,0.00,30.26,1020.00,10.00,M,FEW,M,M,M,4000.00,M,M,M,M,M,M,M,M,M,M,72.00,KEKO 102056Z AUTO 10008KT 10SM FEW040 22/14 A3026 RMK AO2 SLP200 T02220144 58008,M
NFL,2022-08-10 20:56,-118.7010,39.4166,1199.00,89.00,56.00,32.53,M,6.00,0.00,30.10,1016.00,10.00,M,SCT,SCT,M,M,7000.00,18000.00,M,M,M,M,M,M,M,M,M,87.44,KNFL 102056Z VRB06KT 10SM SCT070 SCT180 32/13 A3010 RMK AO2 SLP160 TCU DSNT E-SE-S T03170133 58016,M
HND,2022-08-10 20:56,-115.1344,35.9729,742.79,91.00,63.00,39.49,130.00,6.00,0.00,30.07,1016.80,10.00,M,CLR,M,M,M,M,M,M,M,M,M,M,M,M,M,M,92.00,KHND 102056Z 13006KT 10SM CLR 33/17 A3007 RMK AO2 LTG DSNT E-SW TSB1957E12B15E30 SLP168 T03280172 56016,M
WMC,2022-08-10 20:56,-117.8072,40.9019,1315.00,84.00,59.00,42.80,0.00,0.00,0.00,30.15,1016.00,10.00,M,FEW,SCT,M,M,6000.00,11000.00,M,M,M,M,M,M,M,M,M,83.75,KWMC 102056Z AUTO 00000KT 10SM FEW060 SCT110 29/15 A3015 RMK AO2 SLP160 T02890150 58013,M
LAS,2022-08-10 20:56,-115.1634,36.0719,663.00,92.00,62.00,37.19,110.00,10.00,0.00,30.03,1014.20,10.00,15.00,SCT,SCT,BKN,M,11000.00,15000.00,22000.00,M,M,M,M,M,M,M,M,92.52,KLAS 102056Z 11010G15KT 10SM SCT110 SCT150 BKN220 33/17 A3003 RMK AO2 LTG DSNT E-S TSB1959E22B23E42 SLP142 CB DSNT ALQDS VCSH E T03330167 56018 $,M
INS,2022-08-10 20:58,-115.6733,36.5872,955.00,92.80,55.80,28.87,120.00,10.00,0.00,30.08,1013.30,10.00,14.00,CLR,M,M,M,M,M,M,M,M,M,M,M,M,M,M,91.05,KINS 102058Z AUTO 12010G14KT 10SM CLR 34/13 A3008 RMK AO2 SLP133 60000 T03380132 57016,M
LSV,2022-08-10 20:58,-115.0343,36.2362,570.00,97.30,61.50,30.82,220.00,7.00,0.00,29.99,M,10.00,M,CLR,M,M,M,M,M,M,M,M,M,M,M,M,M,M,98.26,KLSV 102058Z 22007KT 10SM CLR 36/16 A2999 RMK AO2A SLPNO T03630164 57019 $,M
ELY,2022-08-10 21:00,-114.8453,39.2950,1909.00,62.00,56.00,80.11,250.00,14.00,0.04,30.36,M,2.50,M,FEW,BKN,OVC,M,5000.00,9500.00,12000.00,M,TSRA,M,M,M,M,M,M,62.10,KELY 102100Z AUTO 25014KT 2 1/2SM TSRA FEW050 BKN095 OVC120 17/13 A3036 RMK AO2 VIS 1 3/4V4 LTG DSNT ALQDS P0004 T01670133 $,M
ELY,2022-08-10 21:08,-114.8453,39.2950,1909.00,61.00,56.00,83.29,270.00,8.00,0.08,30.37,M,1.25,M,SCT,BKN,OVC,M,4800.00,8000.00,10000.00,M,+TSRA,M,M,M,M,M,M,61.00,KELY 102108Z AUTO 27008KT 1 1/4SM +TSRA SCT048 BKN080 OVC100 16/13 A3037 RMK AO2 LTG DSNT ALQDS P0008 T01610133 $,M
CXP,2022-08-10 21:10,-119.7326,39.1923,1431.00,87.80,42.80,20.79,270.00,7.00,0.00,30.16,M,10.00,13.00,CLR,M,M,M,M,M,M,M,M,M,M,M,M,M,M,84.40,KCXP 102110Z AUTO 27007G13KT 10SM CLR 31/06 A3016 RMK AO2,M
TMT,2022-08-10 21:15,-117.1971,39.4643,1749.34,M,M,M,220.00,3.00,0.00,30.25,M,10.00,M,SCT,M,M,M,8000.00,M,M,M,M,M,M,M,M,M,M,M,KTMT 102115Z AUTO 22003KT 10SM SCT080 A3025 RMK AO2 LTG DSNT N,M
RTS,2022-08-10 21:15,-119.8764,39.6682,1539.00,86.00,35.60,16.63,220.00,15.00,0.00,30.20,M,10.00,22.00,CLR,M,M,M,M,M,M,M,M,M,M,M,M,M,M,82.69,KRTS 102115Z AUTO 22015G22KT 10SM CLR 30/02 A3020 RMK AO2,M
BVU,2022-08-10 21:15,-114.8611,35.9475,671.00,82.40,68.00,61.81,220.00,12.00,0.00,30.05,M,M,M,M,M,M,M,M,M,M,M,M,M,M,M,M,M,M,85.38,KBVU 102115Z AUTO 22012KT 28/20 A3005 RMK AO2 PWINO TSNO,M
HTH,2022-08-10 21:15,-118.6315,38.5448,1282.89,87.80,55.40,33.29,M,4.00,0.00,30.10,M,10.00,14.00,FEW,M,M,M,11000.00,M,M,M,M,M,M,M,M,M,M,86.11,KHTH 102115Z AUTO VRB04G14KT 10SM FEW110 31/13 A3010 RMK A01,M
MEV,2022-08-10 21:15,-119.7500,38.9963,1441.42,89.60,41.00,18.33,200.00,15.00,0.00,30.15,M,10.00,27.00,CLR,M,M,M,M,M,M,M,M,M,M,M,M,M,M,85.82,KMEV 102115Z AUTO 20015G27KT 10SM CLR 32/05 A3015 RMK AO2,M
BAM,2022-08-10 21:15,-116.8743,40.5990,1382.36,82.40,60.80,48.05,80.00,7.00,0.00,30.20,M,10.00,M,CLR,M,M,M,M,M,M,M,M,M,M,M,M,M,M,82.90,KBAM 102115Z AUTO 08007KT 10SM CLR 28/16 A3020 RMK AO1,M
ELY,2022-08-10 21:16,-114.8453,39.2950,1909.00,60.00,55.00,83.23,260.00,6.00,0.16,30.38,M,2.00,M,BKN,BKN,OVC,M,5000.00,8000.00,9000.00,M,TSRA,M,M,M,M,M,M,60.10,KELY 102116Z AUTO 26006KT 2SM TSRA BKN050 BKN080 OVC090 16/13 A3038 RMK AO2 VIS 1V3 LTG DSNT ALQDS PRESRR P0016 T01560128 $,M
ELY,2022-08-10 21:23,-114.8453,39.2950,1909.00,60.00,56.00,85.99,M,5.00,0.18,30.39,M,1.25,M,BKN,BKN,OVC,M,5000.00,6500.00,8000.00,M,+TSRA BR,M,M,M,M,M,M,60.10,KELY 102123Z AUTO VRB05KT 1 1/4SM +TSRA BR BKN050 BKN065 OVC080 16/13 A3039 RMK AO2 LTG DSNT ALQDS P0018 T01560133 $,M
EKO,2022-08-10 21:27,-115.7860,40.8242,1367.00,72.00,57.00,59.20,M,5.00,0.00,30.25,M,10.00,M,FEW,M,M,M,5000.00,M,M,M,VCTS,M,M,M,M,M,M,72.00,KEKO 102127Z AUTO VRB05KT 10SM VCTS FEW050 22/14 A3025 RMK AO2 LTG DSNT SW T02220139,M
ELY,2022-08-10 21:32,-114.8453,39.2950,1909.00,61.00,56.00,82.37,80.00,7.00,0.23,30.40,M,2.00,M,FEW,BKN,OVC,M,3600.00,4900.00,6500.00,M,TSRA,M,M,M,M,M,M,60.80,KELY 102132Z AUTO 08007KT 2SM TSRA FEW036 BKN049 OVC065 16/13 A3040 RMK AO2 LTG DSNT ALQDS P0023 T01610133 $,M
LAS,2022-08-10 21:34,-115.1634,36.0719,663.00,91.00,63.00,39.49,140.00,10.00,0.00,30.02,M,10.00,M,SCT,SCT,BKN,M,11000.00,15000.00,22000.00,M,TS,M,M,M,M,M,M,92.00,KLAS 102134Z 14010KT 110V170 10SM TS SCT110CB SCT150 BKN220 33/17 A3002 RMK AO2 LTG DSNT E-SW TSE31B34 OCNL LTGICCG E-S TS E-S MOV N CB DSNT ALQDS VCSH E T03280172 $,M
RTS,2022-08-10 21:35,-119.8764,39.6682,1539.00,86.00,37.40,17.85,230.00,16.00,0.00,30.19,M,10.00,24.00,CLR,M,M,M,M,M,M,M,M,M,M,M,M,M,M,82.73,KRTS 102135Z AUTO 23016G24KT 10SM CLR 30/03 A3019 RMK AO2,M
TMT,2022-08-10 21:35,-117.1971,39.4643,1749.34,M,M,M,240.00,8.00,0.00,30.25,M,10.00,M,SCT,SCT,M,M,7000.00,8000.00,M,M,M,M,M,M,M,M,M,M,KTMT 102135Z AUTO 24008KT 200V300 10SM SCT070 SCT080 A3025 RMK AO2,M
BAM,2022-08-10 21:35,-116.8743,40.5990,1382.36,80.60,60.80,50.95,130.00,6.00,0.00,30.20,M,10.00,M,CLR,M,M,M,M,M,M,M,M,M,M,M,M,M,M,81.46,KBAM 102135Z AUTO 13006KT 10SM CLR 27/16 A3020 RMK AO1,M
HTH,2022-08-10 21:35,-118.6315,38.5448,1282.89,89.60,55.40,31.45,M,6.00,0.00,30.09,M,10.00,M,CLR,M,M,M,M,M,M,M,M,M,M,M,M,M,M,87.78,KHTH 102135Z AUTO VRB06KT 10SM CLR 32/13 A3009 RMK A01,M
CXP,2022-08-10 21:35,-119.7326,39.1923,1431.00,89.60,42.80,19.64,270.00,10.00,0.00,30.16,M,10.00,15.00,FEW,M,M,M,9500.00,M,M,M,M,M,M,M,M,M,M,85.93,KCXP 102135Z AUTO 27010G15KT 230V300 10SM FEW095 32/06 A3016 RMK AO2,M
BVU,2022-08-10 21:35,-114.8611,35.9475,671.00,80.60,69.80,69.71,220.00,8.00,0.00,30.06,M,M,M,M,M,M,M,M,M,M,M,M,M,M,M,M,M,M,83.90,KBVU 102135Z AUTO 22008KT 27/21 A3006 RMK AO2 PWINO TSNO,M
MEV,2022-08-10 21:35,-119.7500,38.9963,1441.42,89.60,39.20,17.09,200.00,16.00,0.00,30.15,M,10.00,25.00,CLR,M,M,M,M,M,M,M,M,M,M,M,M,M,M,85.73,KMEV 102135Z AUTO 20016G25KT 10SM CLR 32/04 A3015 RMK AO2,M
ELY,2022-08-10 21:40,-114.8453,39.2950,1909.00,61.00,57.00,87.92,0.00,0.00,0.25,30.39,M,5.00,M,SCT,BKN,OVC,M,3800.00,4500.00,5000.00,M,-TSRA BR,M,M,M,M,M,M,60.80,KELY 102140Z AUTO 00000KT 5SM -TSRA BR SCT038 BKN045 OVC050 16/14 A3039 RMK AO2 LTG DSNT NE-S P0025 T01610139 $,M
DRA,2022-08-10 21:53,-116.0278,36.6206,1009.00,97.00,51.00,21.35,190.00,10.00,0.00,30.06,1012.00,10.00,21.00,CLR,M,M,M,M,M,M,M,M,M,M,M,27.00,230.00,2022-08-10 21:27,94.16,KDRA 102153Z AUTO 19010G21KT 10SM CLR 36/11 A3006 RMK AO2 PK WND 23027/2127 SLP120 T03610106,M
VGT,2022-08-10 21:53,-115.1933,36.2111,667.00,94.00,62.00,34.95,150.00,13.00,0.00,30.01,1014.90,10.00,M,CLR,M,M,M,M,M,M,M,M,M,M,M,M,M,M,94.72,KVGT 102153Z 15013KT 10SM CLR 34/17 A3001 RMK AO2 LTG DSNT N AND SW SLP149 T03440167,M
LOL,2022-08-10 21:53,-118.5701,40.0684,1192.43,91.00,51.00,25.70,190.00,9.00,0.00,30.09,1014.30,10.00,M,FEW,M,M,M,8500.00,M,M,M,M,M,M,M,M,M,M,88.18,KLOL 102153Z AUTO 19009KT 10SM FEW085 33/11 A3009 RMK AO2 SLP143 T03280106,M
ELY,2022-08-10 21:53,-114.8453,39.2950,1909.00,60.00,58.00,92.43,80.00,6.00,0.27,30.38,1021.10,2.00,M,FEW,BKN,OVC,M,3800.00,4500.00,8500.00,M,TSRA BR,M,M,M,M,M,M,60.10,KELY 102153Z AUTO 08006KT 2SM TSRA BR FEW038 BKN045 OVC085 16/14 A3038 RMK AO2 LTG DSNT N-SE SLP211 P0027 T01560144 $,M
RTS,2022-08-10 21:55,-119.8764,39.6682,1539.00,86.00,41.00,20.54,240.00,13.00,0.00,30.19,M,10.00,M,CLR,M,M,M,M,M,M,M,M,M,M,M,M,M,M,82.86,KRTS 102155Z AUTO 24013KT 10SM CLR 30/05 A3019 RMK AO2,M
HTH,2022-08-10 21:55,-118.6315,38.5448,1282.89,89.60,53.60,29.45,330.00,8.00,0.00,30.08,M,10.00,16.00,CLR,M,M,M,M,M,M,M,M,M,M,M,M,M,M,87.36,KHTH 102155Z AUTO 33008G16KT 10SM CLR 32/12 A3008 RMK A01,M
BVU,2022-08-10 21:55,-114.8611,35.9475,671.00,80.60,66.20,61.58,250.00,10.00,0.00,30.06,M,M,M,M,M,M,M,M,M,M,M,M,M,M,M,M,M,M,82.75,KBVU 102155Z AUTO 25010KT 27/19 A3006 RMK AO2 PWINO TSNO,M
CXP,2022-08-10 21:55,-119.7326,39.1923,1431.00,87.80,44.60,22.27,290.00,14.00,0.00,30.15,M,10.00,23.00,FEW,M,M,M,9500.00,M,M,M,M,M,M,M,M,M,M,84.53,KCXP 102155Z AUTO 29014G23KT 250V310 10SM FEW095 31/07 A3015 RMK AO2,M
RNO,2022-08-10 21:55,-119.7711,39.4839,1341.00,92.00,45.00,19.88,260.00,7.00,0.00,30.11,1013.50,10.00,M,FEW,M,M,M,10000.00,M,M,M,M,M,M,M,M,M,M,88.17,KRNO 102155Z 26007KT 10SM FEW100 33/07 A3011 RMK AO2 SLP135 T03330072,M
MEV,2022-08-10 21:55,-119.7500,38.9963,1441.42,89.60,39.20,17.09,180.00,15.00,0.00,30.14,M,10.00,21.00,CLR,M,M,M,M,M,M,M,M,M,M,M,M,M,M,85.73,KMEV 102155Z AUTO 18015G21KT 10SM CLR 32/04 A3014 RMK AO2,M
TMT,2022-08-10 21:55,-117.1971,39.4643,1749.34,M,M,M,290.00,3.00,0.00,30.24,M,10.00,M,SCT,M,M,M,12000.00,M,M,M,M,M,M,M,M,M,M,M,KTMT 102155Z AUTO 29003KT 10SM SCT120 A3024 RMK AO2,M
BAM,2022-08-10 21:55,-116.8743,40.5990,1382.36,80.60,62.60,54.30,140.00,8.00,0.00,30.19,M,10.00,M,CLR,M,M,M,M,M,M,M,M,M,M,M,M,M,M,81.84,KBAM 102155Z AUTO 14008KT 10SM CLR 27/17 A3019 RMK AO1,M
TPH,2022-08-10 21:56,-117.0904,38.0505,1654.00,87.00,48.00,25.90,200.00,13.00,0.00,30.21,1014.20,10.00,19.00,BKN,M,M,M,8000.00,M,M,M,M,M,M,M,M,M,M,84.27,KTPH 102156Z AUTO 20013G19KT 10SM BKN080 31/09 A3021 RMK AO2 SLP142 T03060089,M
EKO,2022-08-10 21:56,-115.7860,40.8242,1367.00,71.00,56.00,58.65,220.00,5.00,0.00,30.25,1019.80,10.00,M,FEW,BKN,BKN,M,4900.00,9500.00,12000.00,M,VCTS,M,M,M,M,M,M,71.10,KEKO 102156Z AUTO 22005KT 10SM VCTS FEW049 BKN095 BKN120 22/13 A3025 RMK AO2 LTG DSNT S AND SW SLP198 T02170133,M
LAS,2022-08-10 21:56,-115.1634,36.0719,663.00,90.00,63.00,40.75,190.00,5.00,0.00,30.03,1014.10,10.00,M,SCT,SCT,BKN,M,11000.00,15000.00,22000.00,M,TS,M,M,M,M,M,M,90.93,KLAS 102156Z 19005KT 10SM TS SCT110CB SCT150 BKN220 32/17 A3003 RMK AO2 LTG DSNT W TSE31B34 SLP141 OCNL LTGICCG E-S TS E-S MOV N CB DSNT ALQDS VCSH E-S-SW T03220172 $,M
WMC,2022-08-10 21:56,-117.8072,40.9019,1315.00,86.00,57.00,37.35,190.00,5.00,0.00,30.13,1015.30,10.00,M,FEW,FEW,M,M,8000.00,11000.00,M,M,M,M,M,M,M,M,M,84.92,KWMC 102156Z AUTO 19005KT 10SM FEW080 FEW110 30/14 A3013 RMK AO2 SLP153 T03000139,M
HND,2022-08-10 21:56,-115.1344,35.9729,742.79,87.00,63.00,44.66,160.00,14.00,0.00,30.06,1016.70,10.00,M,CLR,M,M,M,M,M,M,M,M,M,M,M,M,M,M,87.96,KHND 102156Z 16014KT 10SM CLR 31/17 A3006 RMK AO2 LTG DSNT SE AND W SLP167 T03060172,M
NFL,2022-08-10 21:56,-118.7010,39.4166,1199.00,89.00,55.00,31.49,M,4.00,0.00,30.08,1015.30,10.00,M,SCT,SCT,M,M,7000.00,16000.00,M,M,M,M,M,M,M,M,M,87.21,KNFL 102156Z VRB04KT 10SM SCT070 SCT160 32/13 A3008 RMK SLP153 TCU DSNT E-SE T03170128,M
INS,2022-08-10 21:58,-115.6733,36.5872,955.00,92.30,54.50,27.97,90.00,12.00,0.00,30.06,1012.70,10.00,16.00,CLR,M,M,M,M,M,M,M,M,M,M,M,M,M,M,90.19,KINS 102158Z AUTO 09012G16KT 10SM CLR 34/13 A3006 RMK AO2 SLP127 T03350125,M
LSV,2022-08-10 21:58,-115.0343,36.2362,570.00,94.50,64.00,36.68,190.00,13.00,0.00,29.99,M,10.00,M,SCT,BKN,M,M,12000.00,15000.00,M,M,M,M,M,M,M,M,M,96.44,KLSV 102158Z 19013KT 10SM SCT120 BKN150 35/18 A2999 RMK AO2A SLPNO T03470178 $,M
ELY,2022-08-10 21:58,-114.8453,39.2950,1909.00,60.00,57.00,89.48,70.00,7.00,0.03,30.38,M,3.00,M,SCT,BKN,OVC,M,4300.00,6500.00,9000.00,M,-RA BR,M,M,M,M,M,M,60.10,KELY 102158Z AUTO 07007KT 3SM -RA BR SCT043 BKN065 OVC090 16/14 A3038 RMK AO2 LTG DSNT N-SE TSE54 P0003 T01560139 $,M
ELY,2022-08-10 22:09,-114.8453,39.2950,1909.00,61.00,58.00,89.52,70.00,5.00,0.04,30.38,M,7.00,M,FEW,FEW,OVC,M,4900.00,6500.00,9000.00,M,VCTS -RA,M,M,M,M,M,M,61.00,KELY 102209Z AUTO 07005KT 7SM VCTS -RA FEW049 FEW065 OVC090 16/14 A3038 RMK AO2 LTG DSNT NE-SE TSE2154 P0004 T01610144 $,M
LAS,2022-08-10 22:11,-115.1634,36.0719,663.00,91.00,63.00,39.49,210.00,7.00,0.00,30.02,M,10.00,M,SCT,SCT,BKN,M,11000.00,15000.00,22000.00,M,M,M,M,M,M,M,M,92.00,KLAS 102211Z 21007KT 10SM SCT110 SCT150 BKN220 33/17 A3002 RMK AO2 LTG DSNT W TSE11 VIRGA ALQDS ACC NE-SE CB DSNT ALQDS T03280172,M
HTH,2022-08-10 22:15,-118.6315,38.5448,1282.89,91.40,53.60,27.83,340.00,7.00,0.00,30.07,M,10.00,M,CLR,M,M,M,M,M,M,M,M,M,M,M,M,M,M,89.08,KHTH 102215Z AUTO 34007KT 10SM CLR 33/12 A3007 RMK A01,M
TMT,2022-08-10 22:15,-117.1971,39.4643,1749.34,M,M,M,290.00,7.00,0.00,30.24,M,10.00,M,CLR,M,M,M,M,M,M,M,VCTS,M,M,M,M,M,M,M,KTMT 102215Z AUTO 29007KT 10SM VCTS CLR A3024 RMK AO2 LTG DSNT SE,M
BVU,2022-08-10 22:15,-114.8611,35.9475,671.00,80.60,64.40,57.84,260.00,7.00,0.00,30.04,M,M,12.00,M,M,M,M,M,M,M,M,M,M,M,M,M,M,M,82.27,KBVU 102215Z AUTO 26007G12KT 27/18 A3004 RMK AO2 PWINO TSNO,M
BAM,2022-08-10 22:15,-116.8743,40.5990,1382.36,80.60,62.60,54.30,100.00,8.00,0.00,30.19,M,10.00,M,CLR,M,M,M,M,M,M,M,M,M,M,M,M,M,M,81.84,KBAM 102215Z AUTO 10008KT 10SM CLR 27/17 A3019 RMK AO1,M
MEV,2022-08-10 22:15,-119.7500,38.9963,1441.42,89.60,41.00,18.33,200.00,16.00,0.00,30.14,M,10.00,M,CLR,M,M,M,M,M,M,M,M,M,M,M,M,M,M,85.82,KMEV 102215Z AUTO 20016KT 10SM CLR 32/05 A3014 RMK AO2,M
RTS,2022-08-10 22:15,-119.8764,39.6682,1539.00,86.00,41.00,20.54,250.00,13.00,0.00,30.18,M,10.00,19.00,CLR,M,M,M,M,M,M,M,M,M,M,M,M,M,M,82.86,KRTS 102215Z AUTO 25013G19KT 10SM CLR 30/05 A3018 RMK AO2,M
CXP,2022-08-10 22:15,-119.7326,39.1923,1431.00,87.80,44.60,22.27,290.00,19.00,0.00,30.14,M,10.00,25.00,CLR,M,M,M,M,M,M,M,M,M,M,M,M,M,M,84.53,KCXP 102215Z AUTO 29019G25KT 10SM CLR 31/07 A3014 RMK AO2,M
EKO,2022-08-10 22:22,-115.7860,40.8242,1367.00,65.00,61.00,87.18,230.00,7.00,T,30.25,M,10.00,M,FEW,SCT,BKN,M,6000.00,9000.00,11000.00,M,-TSRA,M,M,M,M,M,M,64.90,KEKO 102222Z AUTO 23007KT 10SM -TSRA FEW060 SCT090 BKN110 18/16 A3025 RMK AO2 LTG DSNT S RAB10 TSB16 P0000 T01830161,M
ELY,2022-08-10 22:23,-114.8453,39.2950,1909.00,60.00,59.00,96.15,300.00,5.00,0.05,30.37,M,6.00,M,OVC,M,M,M,9000.00,M,M,M,-RA BR,M,M,M,M,M,M,60.10,KELY 102223Z AUTO 30005KT 6SM -RA BR OVC090 16/15 A3037 RMK AO2 LTG DSNT NE-SE TSE2154 P0005 T01560150 $,M
TMT,2022-08-10 22:35,-117.1971,39.4643,1749.34,M,M,M,270.00,3.00,0.00,30.23,M,10.00,M,CLR,M,M,M,M,M,M,M,M,M,M,M,M,M,M,M,KTMT 102235Z AUTO 27003KT 10SM CLR A3023 RMK AO2,M
HTH,2022-08-10 22:35,-118.6315,38.5448,1282.89,91.40,51.80,26.05,360.00,5.00,0.00,30.06,M,10.00,14.00,CLR,M,M,M,M,M,M,M,M,M,M,M,M,M,M,88.69,KHTH 102235Z AUTO 36005G14KT 10SM CLR 33/11 A3006 RMK A01,M
BVU,2022-08-10 22:35,-114.8611,35.9475,671.00,80.60,64.40,57.84,210.00,8.00,0.00,30.04,M,M,M,M,M,M,M,M,M,M,M,M,M,M,M,M,M,M,82.27,KBVU 102235Z AUTO 21008KT 27/18 A3004 RMK AO2 PWINO TSNO,M
RTS,2022-08-10 22:35,-119.8764,39.6682,1539.00,86.00,41.00,20.54,250.00,15.00,0.00,30.18,M,10.00,M,CLR,M,M,M,M,M,M,M,M,M,M,M,M,M,M,82.86,KRTS 102235Z AUTO 25015KT 10SM CLR 30/05 A3018 RMK AO2,M
BAM,2022-08-10 22:35,-116.8743,40.5990,1382.36,80.60,60.80,50.95,110.00,7.00,0.00,30.19,M,10.00,M,SCT,M,M,M,12000.00,M,M,M,M,M,M,M,M,M,M,81.46,KBAM 102235Z AUTO 11007KT 10SM SCT120 27/16 A3019 RMK AO1,M
MEV,2022-08-10 22:35,-119.7500,38.9963,1441.42,89.60,41.00,18.33,200.00,16.00,0.00,30.13,M,10.00,23.00,CLR,M,M,M,M,M,M,M,M,M,M,M,M,M,M,85.82,KMEV 102235Z AUTO 20016G23KT 10SM CLR 32/05 A3013 RMK AO2,M
CXP,2022-08-10 22:35,-119.7326,39.1923,1431.00,87.80,44.60,22.27,270.00,15.00,0.00,30.14,M,10.00,22.00,CLR,M,M,M,M,M,M,M,M,M,M,M,M,M,M,84.53,KCXP 102235Z AUTO 27015G22KT 10SM CLR 31/07 A3014 RMK AO2,M
EKO,2022-08-10 22:37,-115.7860,40.8242,1367.00,64.00,63.00,96.55,290.00,7.00,T,30.25,M,10.00,M,OVC,M,M,M,11000.00,M,M,M,VCTS -RA,M,M,M,M,M,M,64.00,KEKO 102237Z AUTO 29007KT 10SM VCTS -RA OVC110 18/17 A3025 RMK AO2 LTG DSNT S RAB10 TSB16E31 P0000 T01780172,M
DRA,2022-08-10 22:53,-116.0278,36.6206,1009.00,99.00,52.00,20.77,190.00,9.00,0.00,30.04,1011.50,10.00,17.00,SCT,M,M,M,10000.00,M,M,M,M,M,M,M,M,M,M,96.47,KDRA 102253Z AUTO 19009G17KT 150V220 10SM SCT100 37/11 A3004 RMK AO2 SLP115 T03720111,M
LOL,2022-08-10 22:53,-118.5701,40.0684,1192.43,91.00,47.00,21.97,M,4.00,0.00,30.06,1013.50,10.00,16.00,CLR,M,M,M,M,M,M,M,M,M,M,M,M,M,M,87.55,KLOL 102253Z AUTO VRB04G16KT 10SM CLR 33/08 A3006 RMK AO2 LTG DSNT SE SLP135 T03280083,M
ELY,2022-08-10 22:53,-114.8453,39.2950,1909.00,61.00,58.00,89.52,310.00,6.00,0.08,30.37,1020.60,10.00,M,FEW,FEW,OVC,M,4100.00,8000.00,10000.00,M,-RA,M,M,M,M,M,M,61.00,KELY 102253Z AUTO 31006KT 10SM -RA FEW041 FEW080 OVC100 16/14 A3037 RMK AO2 TSE2154 SLP206 P0008 T01610144 $,M
VGT,2022-08-10 22:53,-115.1933,36.2111,667.00,92.00,62.00,37.19,210.00,9.00,0.00,29.99,1014.40,10.00,M,CLR,M,M,M,M,M,M,M,M,M,M,M,M,M,M,92.52,KVGT 102253Z 21009KT 10SM CLR 33/17 A2999 RMK AO2 SLP144 T03330167,M
HTH,2022-08-10 22:55,-118.6315,38.5448,1282.89,91.40,51.80,26.05,330.00,11.00,0.00,30.06,M,10.00,M,CLR,M,M,M,M,M,M,M,M,M,M,M,M,M,M,88.69,KHTH 102255Z AUTO 33011KT 10SM CLR 33/11 A3006 RMK A01,M
TMT,2022-08-10 22:55,-117.1971,39.4643,1749.34,M,M,M,290.00,3.00,0.00,30.22,M,10.00,M,CLR,M,M,M,M,M,M,M,M,M,M,M,M,M,M,M,KTMT 102255Z AUTO 29003KT 10SM CLR A3022 RMK AO2 LTG DSNT E AND SE,M
MEV,2022-08-10 22:55,-119.7500,38.9963,1441.42,89.60,41.00,18.33,200.00,15.00,0.00,30.13,M,10.00,M,CLR,M,M,M,M,M,M,M,M,M,M,M,M,M,M,85.82,KMEV 102255Z AUTO 20015KT 10SM CLR 32/05 A3013 RMK AO2,M
RTS,2022-08-10 22:55,-119.8764,39.6682,1539.00,86.00,41.00,20.54,250.00,15.00,0.00,30.17,M,10.00,M,CLR,M,M,M,M,M,M,M,M,M,M,M,M,M,M,82.86,KRTS 102255Z AUTO 25015KT 10SM CLR 30/05 A3017 RMK AO2,M
RNO,2022-08-10 22:55,-119.7711,39.4839,1341.00,92.00,43.00,18.42,200.00,8.00,0.00,30.10,1012.90,10.00,16.00,FEW,M,M,M,11000.00,M,M,M,M,M,M,M,M,M,M,87.99,KRNO 102255Z 20008G16KT 10SM FEW110 33/06 A3010 RMK AO2 SLP129 T03330061,M
BVU,2022-08-10 22:55,-114.8611,35.9475,671.00,78.80,66.20,65.33,260.00,6.00,0.00,30.04,M,M,11.00,M,M,M,M,M,M,M,M,M,M,M,M,M,M,M,78.80,KBVU 102255Z AUTO 26006G11KT 26/19 A3004 RMK AO2 PWINO TSNO,M
CXP,2022-08-10 22:55,-119.7326,39.1923,1431.00,86.00,44.60,23.59,280.00,15.00,0.00,30.14,M,10.00,21.00,CLR,M,M,M,M,M,M,M,M,M,M,M,M,M,M,83.07,KCXP 102255Z AUTO 28015G21KT 10SM CLR 30/07 A3014 RMK AO2,M
BAM,2022-08-10 22:55,-116.8743,40.5990,1382.36,80.60,60.80,50.95,140.00,5.00,0.00,30.18,M,10.00,M,SCT,M,M,M,12000.00,M,M,M,M,M,M,M,M,M,M,81.46,KBAM 102255Z AUTO 14005KT 10SM SCT120 27/16 A3018 RMK AO1,M
NFL,2022-08-10 22:56,-118.7010,39.4166,1199.00,93.00,55.00,27.87,M,6.00,0.00,30.05,1014.60,10.00,M,SCT,SCT,M,M,7000.00,16000.00,M,M,M,M,M,M,M,M,M,91.03,KNFL 102256Z VRB06KT 10SM SCT070 SCT160 34/13 A3005 RMK SLP146 CB DSNT NE-E TCU DSNT SE-S T03390128,M
HND,2022-08-10 22:56,-115.1344,35.9729,742.79,86.00,62.00,44.81,160.00,11.00,0.00,30.04,1016.10,10.00,M,CLR,M,M,M,M,M,M,M,M,M,M,M,M,M,M,86.52,KHND 102256Z 16011KT 10SM CLR 30/17 A3004 RMK AO2 SLP161 T03000167,M
WMC,2022-08-10 22:56,-117.8072,40.9019,1315.00,86.00,56.00,35.90,0.00,0.00,0.00,30.12,1014.70,10.00,M,FEW,FEW,M,M,9500.00,12000.00,M,M,M,M,M,M,M,M,M,84.66,KWMC 102256Z AUTO 00000KT 10SM FEW095 FEW120 30/13 A3012 RMK AO2 SLP147 T03000133 $,M
EKO,2022-08-10 22:56,-115.7860,40.8242,1367.00,64.00,62.00,93.54,0.00,0.00,0.01,30.25,1020.40,10.00,M,FEW,BKN,OVC,M,7000.00,10000.00,11000.00,M,VCTS -RA,M,M,M,M,M,M,64.00,KEKO 102256Z AUTO 00000KT 10SM VCTS -RA FEW070 BKN100 OVC110 18/17 A3025 RMK AO2 LTG DSNT SE AND S RAB10 TSB16E31 SLP204 P0001 T01780167,M
TPH,2022-08-10 22:56,-117.0904,38.0505,1654.00,88.00,48.00,25.17,210.00,10.00,0.00,30.19,1013.80,10.00,21.00,SCT,M,M,M,8500.00,M,M,M,M,M,M,M,M,M,M,85.02,KTPH 102256Z AUTO 21010G21KT 10SM SCT085 31/09 A3019 RMK AO2 SLP138 T03110089,M
LAS,2022-08-10 22:56,-115.1634,36.0719,663.00,89.00,62.00,40.61,200.00,9.00,0.00,30.01,1013.40,10.00,M,FEW,SCT,BKN,M,11000.00,15000.00,20000.00,M,M,M,M,M,M,M,M,89.58,KLAS 102256Z 20009KT 10SM FEW110 SCT150 BKN200 32/17 A3001 RMK AO2 TSE11 SLP134 ACC NE AND SE CB DSNT ALQDS VCSH SE T03170167,M
LSV,2022-08-10 22:58,-115.0343,36.2362,570.00,92.30,61.30,35.71,150.00,15.00,0.00,29.96,M,10.00,M,SCT,BKN,M,M,13000.00,17000.00,M,M,M,M,M,M,M,M,M,92.58,KLSV 102258Z 15015KT 10SM SCT130 BKN170 34/16 A2996 RMK AO2A SLPNO T03350163 $,M
INS,2022-08-10 22:58,-115.6733,36.5872,955.00,93.20,57.00,29.78,110.00,14.00,0.00,30.04,1012.00,10.00,20.00,CLR,M,M,M,M,M,M,M,M,M,M,M,M,M,M,91.84,KINS 102258Z AUTO 11014G20KT 10SM CLR 34/14 A3004 RMK AO2 SLP120 T03400139,M
BVU,2022-08-10 23:15,-114.8611,35.9475,671.00,78.80,68.00,69.52,260.00,8.00,0.00,30.02,M,M,13.00,M,M,M,M,M,M,M,M,M,M,M,M,M,M,M,78.80,KBVU 102315Z AUTO 26008G13KT 26/20 A3002 RMK AO2 PWINO TSNO,M
CXP,2022-08-10 23:15,-119.7326,39.1923,1431.00,86.00,44.60,23.59,270.00,16.00,0.00,30.14,M,10.00,23.00,CLR,M,M,M,M,M,M,M,M,M,M,M,M,M,M,83.07,KCXP 102315Z AUTO 27016G23KT 10SM CLR 30/07 A3014 RMK AO2,M
RTS,2022-08-10 23:15,-119.8764,39.6682,1539.00,86.00,42.80,22.02,240.00,17.00,0.00,30.17,M,10.00,23.00,CLR,M,M,M,M,M,M,M,M,M,M,M,M,M,M,82.95,KRTS 102315Z AUTO 24017G23KT 10SM CLR 30/06 A3017 RMK AO2,M
MEV,2022-08-10 23:15,-119.7500,38.9963,1441.42,87.80,46.40,23.85,250.00,14.00,0.00,30.13,M,10.00,20.00,CLR,M,M,M,M,M,M,M,M,M,M,M,M,M,M,84.68,KMEV 102315Z AUTO 25014G20KT 10SM CLR 31/08 A3013 RMK AO2,M
HTH,2022-08-10 23:15,-118.6315,38.5448,1282.89,89.60,50.00,25.79,330.00,9.00,0.00,30.05,M,10.00,15.00,CLR,M,M,M,M,M,M,M,M,M,M,M,M,M,M,86.70,KHTH 102315Z AUTO 33009G15KT 10SM CLR 32/10 A3005 RMK A01,M
BAM,2022-08-10 23:15,-116.8743,40.5990,1382.36,84.20,60.80,45.34,110.00,5.00,0.00,30.17,M,10.00,M,CLR,M,M,M,M,M,M,M,M,M,M,M,M,M,M,84.43,KBAM 102315Z AUTO 11005KT 10SM CLR 29/16 A3017 RMK AO1,M
TMT,2022-08-10 23:15,-117.1971,39.4643,1749.34,M,M,M,240.00,8.00,0.00,30.22,M,10.00,M,CLR,M,M,M,M,M,M,M,M,M,M,M,M,M,M,M,KTMT 102315Z AUTO 24008KT 10SM CLR A3022 RMK AO2 LTG DSNT NE THRU SE,M
MEV,2022-08-10 23:35,-119.7500,38.9963,1441.42,89.60,44.60,21.04,250.00,14.00,0.00,30.12,M,10.00,M,CLR,M,M,M,M,M,M,M,M,M,M,M,M,M,M,86.07,KMEV 102335Z AUTO 25014KT 10SM CLR 32/07 A3012 RMK AO2,M
HTH,2022-08-10 23:35,-118.6315,38.5448,1282.89,89.60,50.00,25.79,320.00,10.00,0.00,30.05,M,10.00,M,CLR,M,M,M,M,M,M,M,M,M,M,M,M,M,M,86.70,KHTH 102335Z AUTO 32010KT 10SM CLR 32/10 A3005 RMK A01,M
BVU,2022-08-10 23:35,-114.8611,35.9475,671.00,80.60,68.00,65.54,0.00,0.00,0.00,30.02,M,M,M,M,M,M,M,M,M,M,M,M,M,M,M,M,M,M,83.29,KBVU 102335Z AUTO 00000KT 27/20 A3002 RMK AO2 PWINO TSNO,M
CXP,2022-08-10 23:35,-119.7326,39.1923,1431.00,86.00,44.60,23.59,260.00,11.00,0.00,30.14,M,10.00,18.00,CLR,M,M,M,M,M,M,M,M,M,M,M,M,M,M,83.07,KCXP 102335Z AUTO 26011G18KT 10SM CLR 30/07 A3014 RMK AO2,M
RTS,2022-08-10 23:35,-119.8764,39.6682,1539.00,86.00,41.00,20.54,250.00,15.00,0.00,30.17,M,10.00,23.00,CLR,M,M,M,M,M,M,M,M,M,M,M,M,M,M,82.86,KRTS 102335Z AUTO 25015G23KT 10SM CLR 30/05 A3017 RMK AO2,M
BAM,2022-08-10 23:35,-116.8743,40.5990,1382.36,84.20,60.80,45.34,140.00,6.00,0.00,30.16,M,10.00,M,CLR,M,M,M,M,M,M,M,M,M,M,M,M,M,M,84.43,KBAM 102335Z AUTO 14006KT 10SM CLR 29/16 A3016 RMK AO1,M
TMT,2022-08-10 23:35,-117.1971,39.4643,1749.34,M,M,M,250.00,10.00,0.00,30.22,M,10.00,M,CLR,M,M,M,M,M,M,M,M,M,M,M,M,M,M,M,KTMT 102335Z AUTO 25010KT 10SM CLR A3022 RMK AO2 LTG DSNT NE THRU SE,M
EKO,2022-08-10 23:36,-115.7860,40.8242,1367.00,63.00,59.00,86.77,M,M,0.01,30.24,M,10.00,M,SCT,M,M,M,10000.00,M,M,M,M,M,M,M,M,M,M,63.00,KEKO 102336Z AUTO 10SM SCT100 17/15 A3024 RMK AO2 LTG DSNT SE RAE26 P0001 T01720150,M
CXP,2022-08-10 23:50,-119.7326,39.1923,1431.00,86.00,44.60,23.59,270.00,11.00,0.00,30.13,M,10.00,22.00,CLR,M,M,M,M,M,M,M,M,M,M,M,M,M,M,83.07,KCXP 102350Z AUTO 27011G22KT 10SM CLR 30/07 A3013 RMK AO2,M
ELY,2022-08-10 23:53,-114.8453,39.2950,1909.00,64.00,58.00,80.54,20.00,3.00,T,30.35,1019.40,10.00,M,FEW,M,M,M,11000.00,M,M,M,M,M,M,M,M,M,M,64.00,KELY 102353Z AUTO 02003KT 10SM FEW110 18/14 A3035 RMK AO2 RAE09 SLP194 P0000 60035 T01780144 10239 20150 50001 $,M
LOL,2022-08-10 23:53,-118.5701,40.0684,1192.43,92.00,45.00,19.88,180.00,4.00,0.00,30.04,1013.00,10.00,M,CLR,M,M,M,M,M,M,M,M,M,M,M,M,M,M,88.17,KLOL 102353Z AUTO 18004KT 10SM CLR 33/07 A3004 RMK AO2 LTG DSNT SE SLP130 T03330072 10344 20272 56020,M
VGT,2022-08-10 23:53,-115.1933,36.2111,667.00,93.00,63.00,37.10,0.00,0.00,0.00,29.99,1014.30,10.00,M,CLR,M,M,M,M,M,M,M,M,M,M,M,M,M,M,94.18,KVGT 102353Z 00000KT 10SM CLR 34/17 A2999 RMK AO2 SLP143 T03390172 10356 20328 56011,M
DRA,2022-08-10 23:53,-116.0278,36.6206,1009.00,96.00,58.00,28.12,130.00,12.00,0.00,30.03,1011.40,10.00,M,FEW,OVC,M,M,8000.00,9000.00,M,M,M,M,M,M,M,M,M,95.27,KDRA 102353Z AUTO 13012KT 10SM FEW080 OVC090 36/14 A3003 RMK AO2 SLP114 T03560144 10372 20311 56015,M
BAM,2022-08-10 23:55,-116.8743,40.5990,1382.36,84.20,60.80,45.34,120.00,9.00,0.00,30.16,M,10.00,M,CLR,M,M,M,M,M,M,M,M,M,M,M,M,M,M,84.43,KBAM 102355Z AUTO 12009KT 10SM CLR 29/16 A3016 RMK AO1,M
TMT,2022-08-10 23:55,-117.1971,39.4643,1749.34,M,M,M,290.00,5.00,0.00,30.22,M,10.00,M,CLR,M,M,M,M,M,M,M,VCTS,M,M,M,M,M,M,M,KTMT 102355Z AUTO 29005KT 10SM VCTS CLR A3022 RMK AO2 LTG DSNT NE THRU S,M
RNO,2022-08-10 23:55,-119.7711,39.4839,1341.00,92.00,46.00,20.65,M,5.00,0.00,30.10,1013.00,10.00,17.00,FEW,M,M,M,11000.00,M,M,M,M,M,M,M,M,M,M,88.28,KRNO 102355Z VRB05G17KT 10SM FEW110 33/08 A3010 RMK AO2 SLP130 TCU DSNT SE T03330078 10339 20283 56010,M
BVU,2022-08-10 23:55,-114.8611,35.9475,671.00,80.60,68.00,65.54,310.00,4.00,0.00,30.01,M,M,M,M,M,M,M,M,M,M,M,M,M,M,M,M,M,M,83.29,KBVU 102355Z AUTO 31004KT 27/20 A3001 RMK AO2 PWINO TSNO,M
HTH,2022-08-10 23:55,-118.6315,38.5448,1282.89,91.40,48.20,22.78,330.00,9.00,0.00,30.04,M,10.00,M,CLR,M,M,M,M,M,M,M,M,M,M,M,M,M,M,88.09,KHTH 102355Z AUTO 33009KT 10SM CLR 33/09 A3004 RMK A01,M
MEV,2022-08-10 23:55,-119.7500,38.9963,1441.42,89.60,41.00,18.33,240.00,18.00,0.00,30.12,M,10.00,23.00,CLR,M,M,M,M,M,M,M,M,M,M,M,M,M,M,85.82,KMEV 102355Z AUTO 24018G23KT 10SM CLR 32/05 A3012 RMK AO2,M
RTS,2022-08-10 23:55,-119.8764,39.6682,1539.00,84.20,41.00,21.76,260.00,16.00,0.00,30.17,M,10.00,21.00,CLR,M,M,M,M,M,M,M,M,M,M,M,M,M,M,81.52,KRTS 102355Z AUTO 26016G21KT 10SM CLR 29/05 A3017 RMK AO2,M
LAS,2022-08-10 23:56,-115.1634,36.0719,663.00,92.00,61.00,35.77,170.00,3.00,0.00,30.00,1013.00,10.00,M,FEW,FEW,BKN,BKN,11000.00,15000.00,18000.00,22000.00,M,M,M,M,M,M,M,92.01,KLAS 102356Z 17003KT 10SM FEW110 FEW150 BKN180 BKN220 33/16 A3000 RMK AO2 SLP130 CB DSNT ALQDS T03330161 10350 20311 58011,M
TPH,2022-08-10 23:56,-117.0904,38.0505,1654.00,88.00,46.00,23.34,180.00,10.00,0.00,30.18,1013.40,10.00,20.00,CLR,M,M,M,M,M,M,M,M,M,M,M,M,M,M,84.81,KTPH 102356Z AUTO 18010G20KT 10SM CLR 31/08 A3018 RMK AO2 SLP134 T03110078 10311 20261 56015,M
EKO,2022-08-10 23:56,-115.7860,40.8242,1367.00,63.00,60.00,90.25,M,3.00,0.01,30.25,1020.40,10.00,M,CLR,M,M,M,M,M,M,M,M,M,M,M,M,M,M,63.00,KEKO 102356Z AUTO VRB03KT 10SM CLR 17/16 A3025 RMK AO2 RAE26 SLP204 P0001 60002 T01720156 10233 20172 55002,M
HND,2022-08-10 23:56,-115.1344,35.9729,742.79,94.00,61.00,33.62,330.00,6.00,0.00,30.03,1015.50,10.00,M,CLR,M,M,M,M,M,M,M,M,M,M,M,M,M,M,94.18,KHND 102356Z 33006KT 10SM CLR 34/16 A3003 RMK AO2 SLP155 T03440161 10344 20294 56012,M
WMC,2022-08-10 23:56,-117.8072,40.9019,1315.00,90.00,54.00,29.51,140.00,5.00,0.00,30.10,1014.00,10.00,M,FEW,M,M,M,12000.00,M,M,M,M,M,M,M,M,M,M,87.82,KWMC 102356Z AUTO 14005KT 10SM FEW120 32/12 A3010 RMK AO2 LTG DSNT NE SLP140 T03220122 58016 $,M
INS,2022-08-10 23:58,-115.6733,36.5872,955.00,93.00,58.00,30.95,130.00,12.00,0.00,30.03,1011.80,10.00,M,CLR,M,M,M,M,M,M,M,M,M,M,M,M,M,M,91.94,KINS 102358Z AUTO 13012KT 10SM CLR 34/14 A3003 RMK AO2 SLP118 60000 T03390144 10346 20284 57015,M
LSV,2022-08-10 23:58,-115.0343,36.2362,570.00,92.30,61.30,35.71,150.00,5.00,0.00,29.97,M,10.00,M,SCT,BKN,M,M,16000.00,18000.00,M,M,M,M,M,M,M,M,M,92.58,KLSV 102358Z 15005KT 10SM SCT160 BKN180 34/16 A2997 RMK AO2A SLPNO T03350163 10398 20332 55007 $,M
