station,valid,lon,lat,elevation,tmpf,dwpf,relh,drct,sknt,p01i,alti,mslp,vsby,gust,skyc1,skyc2,skyc3,skyc4,skyl1,skyl2,skyl3,skyl4,wxcodes,ice_accretion_1hr,ice_accretion_3hr,ice_accretion_6hr,peak_wind_gust,peak_wind_drct,peak_wind_time,feel,metar,snowdepth
RNO,2022-09-12 00:12,-119.7711,39.4839,1341.00,90.00,47.00,22.67,310.00,15.00,0.00,30.06,M,2.00,19.00,FEW,SCT,BKN,BKN,1500.00,8000.00,12000.00,16000.00,HZ,M,M,M,M,M,M,86.65,KRNO 120012Z 31015G19KT 2SM R16R/6000VP6000FT HZ FEW015 SCT080 BKN120 BKN160 BKN220 32/08 A3006 RMK AO2 FU FEW015 FU VC SW THRU NW MTNS OBSCD VC SE AND SW THRU NW T03220083,M
RNO,2022-09-12 00:14,-119.7711,39.4839,1341.00,89.00,49.00,25.14,290.00,15.00,0.00,30.06,M,1.00,19.00,FEW,SCT,BKN,BKN,1500.00,8000.00,12000.00,16000.00,HZ,M,M,M,M,M,M,86.09,KRNO 120014Z 29015G19KT 1SM R16R/6000VP6000FT HZ FEW015 SCT080 BKN120 BKN160 BKN220 32/09 A3006 RMK AO2 SFC VIS 1 1/2 FU FEW015 FU VC SW THRU NW MTNS OBSCD VC SE AND SW THRU NW T03170094,M
CXP,2022-09-12 00:15,-119.7326,39.1923,1431.00,82.40,46.40,28.36,260.00,11.00,0.00,30.10,M,1.00,18.00,SCT,M,M,M,11000.00,M,M,M,HZ,M,M,M,M,M,M,80.64,KCXP 120015Z AUTO 26011G18KT 1SM HZ SCT110 28/08 A3010 RMK AO2,M
RTS,2022-09-12 00:15,-119.8764,39.6682,1539.00,82.40,42.80,24.72,290.00,15.00,0.00,30.14,M,7.00,M,FEW,M,M,M,10000.00,M,M,M,M,M,M,M,M,M,M,80.39,KRTS 120015Z AUTO 29015KT 7SM FEW100 28/06 A3014 RMK AO2,M
BVU,2022-09-12 00:15,-114.8611,35.9475,671.00,95.00,51.80,23.30,40.00,8.00,0.00,29.96,M,M,M,M,M,M,M,M,M,M,M,M,M,M,M,M,M,M,92.26,KBVU 120015Z AUTO 04008KT 010V070 35/11 A2996 RMK AO2 TSNO,M
TMT,2022-09-12 00:15,-117.1971,39.4643,1749.34,M,M,M,270.00,11.00,0.00,30.20,M,10.00,M,SCT,M,M,M,11000.00,M,M,M,M,M,M,M,M,M,M,M,KTMT 120015Z AUTO 27011KT 10SM SCT110 A3020 RMK AO2 LTG DSNT W AND NW,M
BAM,2022-09-12 00:15,-116.8743,40.5990,1382.36,93.20,33.80,12.34,20.00,5.00,0.00,30.08,M,10.00,M,CLR,M,M,M,M,M,M,M,M,M,M,M,M,M,M,88.55,KBAM 120015Z AUTO 02005KT 10SM CLR 34/01 A3008 RMK AO1,M
MEV,2022-09-12 00:15,-119.7500,38.9963,1441.42,80.60,46.40,30.07,270.00,16.00,0.00,30.10,M,3.00,M,CLR,M,M,M,M,M,M,M,HZ,M,M,M,M,M,M,79.56,KMEV 120015Z AUTO 27016KT 3SM HZ CLR 27/08 A3010 RMK AO2,M
HTH,2022-09-12 00:15,-118.6315,38.5448,1282.89,89.60,37.40,15.92,150.00,10.00,0.00,30.06,M,10.00,18.00,CLR,M,M,M,M,M,M,M,M,M,M,M,M,M,M,85.67,KHTH 120015Z AUTO 15010G18KT 10SM CLR 32/03 A3006 RMK A01,M
RNO,2022-09-12 00:19,-119.7711,39.4839,1341.00,88.00,49.00,26.03,280.00,17.00,0.00,30.06,M,1.00,22.00,BKN,BKN,BKN,BKN,500.00,8000.00,12000.00,16000.00,FU,M,M,M,M,M,M,85.13,KRNO 120019Z 28017G22KT 1SM R16R/6000VP6000FT FU BKN005 BKN080 BKN120 BKN160 BKN220 31/09 A3006 RMK AO2 FU BKN005 FU SE THRU W AND NW MTNS OBSCD SE THRU W AND NW T03110094,M
MEV,2022-09-12 00:35,-119.7500,38.9963,1441.42,78.80,44.60,29.79,280.00,15.00,0.00,30.11,M,3.00,M,CLR,M,M,M,M,M,M,M,HZ,M,M,M,M,M,M,78.80,KMEV 120035Z AUTO 28015KT 3SM HZ CLR 26/07 A3011 RMK AO2,M
BAM,2022-09-12 00:35,-116.8743,40.5990,1382.36,93.20,33.80,12.34,10.00,4.00,0.00,30.07,M,10.00,8.00,CLR,M,M,M,M,M,M,M,M,M,M,M,M,M,M,88.55,KBAM 120035Z AUTO 01004G08KT 10SM CLR 34/01 A3007 RMK AO1,M
HTH,2022-09-12 00:35,-118.6315,38.5448,1282.89,87.80,30.20,12.64,170.00,10.00,0.00,30.06,M,10.00,15.00,CLR,M,M,M,M,M,M,M,M,M,M,M,M,M,M,84.01,KHTH 120035Z AUTO 17010G15KT 10SM CLR 31/M01 A3006 RMK A01,M
TMT,2022-09-12 00:35,-117.1971,39.4643,1749.34,M,M,M,0.00,0.00,0.00,30.20,M,10.00,M,SCT,M,M,M,12000.00,M,M,M,M,M,M,M,M,M,M,M,KTMT 120035Z AUTO 00000KT 10SM SCT120 A3020 RMK AO2 LTG DSNT W,M
BVU,2022-09-12 00:35,-114.8611,35.9475,671.00,95.00,50.00,21.79,40.00,6.00,0.00,29.95,M,M,M,M,M,M,M,M,M,M,M,M,M,M,M,M,M,M,91.89,KBVU 120035Z AUTO 04006KT 35/10 A2995 RMK AO2 TSNO,M
RTS,2022-09-12 00:35,-119.8764,39.6682,1539.00,82.40,44.60,26.49,290.00,13.00,0.00,30.14,M,6.00,M,CLR,M,M,M,M,M,M,M,HZ,M,M,M,M,M,M,80.50,KRTS 120035Z AUTO 29013KT 6SM HZ CLR 28/07 A3014 RMK AO2,M
CXP,2022-09-12 00:35,-119.7326,39.1923,1431.00,80.60,44.60,28.08,260.00,9.00,0.00,30.11,M,0.75,15.00,VV ,M,M,M,500.00,M,M,M,HZ,M,M,M,M,M,M,79.42,KCXP 120035Z AUTO 26009G15KT 220V280 3/4SM HZ VV005 27/07 A3011 RMK AO2,M
DRA,2022-09-12 00:53,-116.0278,36.6206,1009.00,87.00,47.00,24.85,230.00,6.00,0.00,30.04,1012.80,10.00,M,FEW,M,M,M,11000.00,M,M,M,M,M,M,M,M,M,M,84.15,KDRA 120053Z AUTO 23006KT 10SM FEW110 31/08 A3004 RMK AO2 SLP128 T03060083 $,M
P68,2022-09-12 00:53,-116.0056,39.6014,1993.00,82.00,39.00,21.62,200.00,11.00,0.00,30.19,1014.10,M,M,M,M,M,M,M,M,M,M,M,M,M,M,M,M,M,79.94,KP68 120053Z AUTO 20011KT 28/04 A3019 RMK AO1 SLP141 T02780039,M
LOL,2022-09-12 00:53,-118.5701,40.0684,1192.43,89.00,45.00,21.70,170.00,6.00,0.00,30.04,1013.70,10.00,M,CLR,M,M,M,M,M,M,M,M,M,M,M,M,M,M,85.66,KLOL 120053Z AUTO 17006KT 10SM CLR 32/07 A3004 RMK AO2 SLP137 T03170072,M
VGT,2022-09-12 00:53,-115.1933,36.2111,667.00,95.00,49.00,20.92,230.00,3.00,0.00,29.95,1013.40,10.00,M,CLR,M,M,M,M,M,M,M,M,M,M,M,M,M,M,91.68,KVGT 120053Z 23003KT 10SM CLR 35/09 A2995 RMK AO2 SLP134 T03500094,M
ELY,2022-09-12 00:53,-114.8453,39.2950,1909.00,75.00,47.00,36.87,150.00,22.00,0.00,30.25,1015.80,10.00,27.00,BKN,M,M,M,11000.00,M,M,M,M,M,M,M,27.00,150.00,2022-09-12 00:53,75.00,KELY 120053Z AUTO 15022G27KT 10SM BKN110 24/08 A3025 RMK AO2 PK WND 15027/0053 SLP158 T02390083 $,M
MEV,2022-09-12 00:55,-119.7500,38.9963,1441.42,78.80,44.60,29.79,270.00,14.00,0.00,30.12,M,3.00,19.00,CLR,M,M,M,M,M,M,M,HZ,M,M,M,M,M,M,78.80,KMEV 120055Z AUTO 27014G19KT 3SM HZ CLR 26/07 A3012 RMK AO2,M
BAM,2022-09-12 00:55,-116.8743,40.5990,1382.36,91.40,33.80,13.05,30.00,5.00,0.00,30.07,M,10.00,M,CLR,M,M,M,M,M,M,M,M,M,M,M,M,M,M,87.13,KBAM 120055Z AUTO 03005KT 10SM CLR 33/01 A3007 RMK AO1,M
HTH,2022-09-12 00:55,-118.6315,38.5448,1282.89,89.60,32.00,12.84,160.00,12.00,0.00,30.06,M,10.00,M,CLR,M,M,M,M,M,M,M,M,M,M,M,M,M,M,85.54,KHTH 120055Z AUTO 16012KT 10SM CLR 32/00 A3006 RMK A01,M
TMT,2022-09-12 00:55,-117.1971,39.4643,1749.34,M,M,M,80.00,3.00,0.00,30.22,M,10.00,M,SCT,M,M,M,12000.00,M,M,M,M,M,M,M,M,M,M,M,KTMT 120055Z AUTO 08003KT 10SM SCT120 A3022 RMK AO2,M
BVU,2022-09-12 00:55,-114.8611,35.9475,671.00,95.00,50.00,21.79,20.00,8.00,0.00,29.95,M,M,M,M,M,M,M,M,M,M,M,M,M,M,M,M,M,M,91.89,KBVU 120055Z AUTO 02008KT 35/10 A2995 RMK AO2 TSNO,M
RTS,2022-09-12 00:55,-119.8764,39.6682,1539.00,80.60,44.60,28.08,270.00,13.00,0.00,30.15,M,3.00,18.00,SCT,M,M,M,10000.00,M,M,M,HZ,M,M,M,M,M,M,79.42,KRTS 120055Z AUTO 27013G18KT 3SM HZ SCT100 27/07 A3015 RMK AO2,M
RNO,2022-09-12 00:55,-119.7711,39.4839,1341.00,84.00,48.00,28.60,290.00,16.00,0.00,30.07,1012.80,1.00,24.00,BKN,BKN,OVC,M,1000.00,7000.00,12000.00,M,FU,M,M,M,26.00,280.00,2022-09-12 00:31,81.87,KRNO 120055Z 29016G24KT 1SM R16R/P6000FT FU BKN010 BKN070 OVC120 29/09 A3007 RMK AO2 PK WND 28026/0031 SLP128 FU BKN010 T02890089,M
CXP,2022-09-12 00:55,-119.7326,39.1923,1431.00,80.60,42.80,26.22,270.00,8.00,0.00,30.12,M,0.75,M,VV ,M,M,M,500.00,M,M,M,HZ,M,M,M,M,M,M,79.30,KCXP 120055Z AUTO 27008KT 250V310 3/4SM HZ VV005 27/06 A3012 RMK AO2,M
LAS,2022-09-12 00:56,-115.1634,36.0719,663.00,94.00,49.00,21.64,300.00,4.00,0.00,29.96,1011.80,10.00,M,FEW,FEW,M,M,14000.00,22000.00,M,M,M,M,M,M,M,M,M,90.59,KLAS 120056Z 30004KT 10SM FEW140 FEW220 34/09 A2996 RMK AO2 SLP118 CB DSNT SE T03440094,M
LSV,2022-09-12 00:56,-115.0343,36.2362,570.00,97.20,50.70,20.91,0.00,0.00,0.00,29.93,1011.20,10.00,M,CLR,M,M,M,M,M,M,M,M,M,M,M,M,M,M,94.27,KLSV 120056Z AUTO 00000KT 10SM CLR 36/10 A2993 RMK AO2 SLP112 T03620104 $,M
EKO,2022-09-12 00:56,-115.7860,40.8242,1367.00,88.00,28.90,11.91,20.00,7.00,0.00,30.11,1014.50,10.00,M,CLR,M,M,M,M,M,M,M,M,M,M,M,M,M,M,84.03,KEKO 120056Z AUTO 02007KT 10SM CLR 31/M02 A3011 RMK AO2 SLP145 T03111017,M
WMC,2022-09-12 00:56,-117.8072,40.9019,1315.00,91.00,28.90,10.84,300.00,3.00,0.00,30.06,1013.10,10.00,M,CLR,M,M,M,M,M,M,M,M,M,M,M,M,M,M,86.27,KWMC 120056Z AUTO 30003KT 10SM CLR 33/M02 A3006 RMK AO2 SLP131 T03281017 $,M
INS,2022-09-12 00:56,-115.6733,36.5872,955.00,89.20,41.50,18.92,200.00,6.00,0.00,30.02,1012.10,10.00,M,SCT,M,M,M,10000.00,M,M,M,M,M,M,M,M,M,M,85.50,KINS 120056Z AUTO 20006KT 10SM SCT100 32/05 A3002 RMK AO2 SLP121 T03180053 $,M
TPH,2022-09-12 00:56,-117.0904,38.0505,1654.00,81.00,45.00,28.15,200.00,12.00,0.00,30.18,1015.00,10.00,M,SCT,M,M,M,8500.00,M,M,M,M,M,M,M,M,M,M,79.68,KTPH 120056Z AUTO 20012KT 10SM SCT085 27/07 A3018 RMK AO2 SLP150 T02720072,M
HND,2022-09-12 00:56,-115.1344,35.9729,742.79,93.00,50.00,23.18,30.00,7.00,0.00,30.00,1014.70,10.00,M,CLR,M,M,M,M,M,M,M,M,M,M,M,M,M,M,89.90,KHND 120056Z 03007KT 10SM CLR 34/10 A3000 RMK AO2 SLP147 T03390100,M
NFL,2022-09-12 00:56,-118.7010,39.4166,1199.00,88.00,44.00,21.72,80.00,9.00,0.00,30.04,1014.10,10.00,M,BKN,M,M,M,11000.00,M,M,M,M,M,M,M,M,M,M,84.65,KNFL 120056Z AUTO 08009KT 10SM BKN110 31/07 A3004 RMK AO2 SLP141 T03110067,M
BVU,2022-09-12 01:15,-114.8611,35.9475,671.00,93.20,50.00,23.04,30.00,7.00,0.00,29.96,M,M,M,M,M,M,M,M,M,M,M,M,M,M,M,M,M,M,90.10,KBVU 120115Z AUTO 03007KT 34/10 A2996 RMK AO2 TSNO,M
CXP,2022-09-12 01:15,-119.7326,39.1923,1431.00,78.80,42.80,27.81,220.00,3.00,0.00,30.13,M,0.75,M,VV ,M,M,M,500.00,M,M,M,HZ,M,M,M,M,M,M,78.80,KCXP 120115Z AUTO 22003KT 3/4SM HZ VV005 26/06 A3013 RMK AO2,M
RTS,2022-09-12 01:15,-119.8764,39.6682,1539.00,78.80,44.60,29.79,280.00,12.00,0.00,30.15,M,3.00,18.00,FEW,M,M,M,10000.00,M,M,M,HZ,M,M,M,M,M,M,78.80,KRTS 120115Z AUTO 28012G18KT 3SM HZ FEW100 26/07 A3015 RMK AO2,M
MEV,2022-09-12 01:15,-119.7500,38.9963,1441.42,77.00,42.80,29.51,270.00,10.00,0.00,30.12,M,2.50,20.00,CLR,M,M,M,M,M,M,M,HZ,M,M,M,M,M,M,77.00,KMEV 120115Z AUTO 27010G20KT 2 1/2SM HZ CLR 25/06 A3012 RMK AO2,M
BAM,2022-09-12 01:15,-116.8743,40.5990,1382.36,89.60,32.00,12.84,350.00,7.00,0.00,30.07,M,10.00,M,CLR,M,M,M,M,M,M,M,M,M,M,M,M,M,M,85.54,KBAM 120115Z AUTO 35007KT 10SM CLR 32/00 A3007 RMK AO1,M
HTH,2022-09-12 01:15,-118.6315,38.5448,1282.89,87.80,33.80,14.61,180.00,10.00,0.00,30.06,M,10.00,15.00,CLR,M,M,M,M,M,M,M,M,M,M,M,M,M,M,84.10,KHTH 120115Z AUTO 18010G15KT 10SM CLR 31/01 A3006 RMK A01,M
TMT,2022-09-12 01:15,-117.1971,39.4643,1749.34,M,M,M,320.00,3.00,0.00,30.22,M,10.00,M,CLR,M,M,M,M,M,M,M,M,M,M,M,M,M,M,M,KTMT 120115Z AUTO 32003KT 10SM CLR A3022 RMK AO2 LTG DSNT NW,M
LOL,2022-09-12 01:21,-118.5701,40.0684,1192.43,87.00,45.00,23.12,180.00,6.00,0.00,30.05,M,10.00,M,FEW,M,M,M,12000.00,M,M,M,TS,M,M,M,M,M,M,83.98,KLOL 120121Z AUTO 18006KT 10SM TS FEW120 31/07 A3005 RMK AO2 TSB15 T03060072,M
MEV,2022-09-12 01:35,-119.7500,38.9963,1441.42,77.00,41.00,27.53,270.00,13.00,0.00,30.12,M,1.25,M,CLR,M,M,M,M,M,M,M,HZ,M,M,M,M,M,M,77.00,KMEV 120135Z AUTO 27013KT 1 1/4SM HZ CLR 25/05 A3012 RMK AO2,M
RTS,2022-09-12 01:35,-119.8764,39.6682,1539.00,78.80,44.60,29.79,280.00,12.00,0.00,30.16,M,3.00,18.00,FEW,M,M,M,11000.00,M,M,M,HZ,M,M,M,M,M,M,78.80,KRTS 120135Z AUTO 28012G18KT 3SM HZ FEW110 26/07 A3016 RMK AO2,M
CXP,2022-09-12 01:35,-119.7326,39.1923,1431.00,78.80,42.80,27.81,0.00,0.00,0.00,30.13,M,0.75,M,BKN,M,M,M,11000.00,M,M,M,HZ,M,M,M,M,M,M,78.80,KCXP 120135Z AUTO 00000KT 3/4SM HZ BKN110 26/06 A3013 RMK AO2,M
TMT,2022-09-12 01:35,-117.1971,39.4643,1749.34,M,M,M,170.00,4.00,0.00,30.22,M,10.00,M,SCT,M,M,M,12000.00,M,M,M,M,M,M,M,M,M,M,M,KTMT 120135Z AUTO 17004KT 10SM SCT120 A3022 RMK AO2,M
BVU,2022-09-12 01:35,-114.8611,35.9475,671.00,93.20,50.00,23.04,20.00,7.00,0.00,29.95,M,M,M,M,M,M,M,M,M,M,M,M,M,M,M,M,M,M,90.10,KBVU 120135Z AUTO 02007KT 34/10 A2995 RMK AO2 TSNO,M
HTH,2022-09-12 01:35,-118.6315,38.5448,1282.89,86.00,35.60,16.63,170.00,7.00,0.00,30.06,M,10.00,M,CLR,M,M,M,M,M,M,M,M,M,M,M,M,M,M,82.69,KHTH 120135Z AUTO 17007KT 10SM CLR 30/02 A3006 RMK A01,M
BAM,2022-09-12 01:35,-116.8743,40.5990,1382.36,87.80,33.80,14.61,310.00,4.00,0.00,30.07,M,10.00,M,CLR,M,M,M,M,M,M,M,M,M,M,M,M,M,M,84.10,KBAM 120135Z AUTO 31004KT 10SM CLR 31/01 A3007 RMK AO1,M
LOL,2022-09-12 01:41,-118.5701,40.0684,1192.43,84.00,48.00,28.60,210.00,14.00,0.00,30.05,M,4.00,M,SCT,M,M,M,1900.00,M,M,M,VCTS HZ,M,M,M,M,M,M,81.87,KLOL 120141Z AUTO 21014KT 4SM VCTS HZ SCT019 29/09 A3005 RMK AO2 TSB15E35 T02890089,M
LOL,2022-09-12 01:44,-118.5701,40.0684,1192.43,84.00,48.00,28.60,200.00,17.00,0.00,30.05,M,1.75,M,BKN,M,M,M,1700.00,M,M,M,VCTS HZ,M,M,M,M,M,M,81.87,KLOL 120144Z AUTO 20017KT 1 3/4SM VCTS HZ BKN017 29/09 A3005 RMK AO2 TSB15E35 T02890089,M
LOL,2022-09-12 01:51,-118.5701,40.0684,1192.43,82.40,48.20,30.35,230.00,14.00,0.00,30.05,M,1.25,M,BKN,M,M,M,1700.00,M,M,M,HZ,M,M,M,M,M,M,80.80,KLOL 120151Z AUTO 23014KT 1 1/4SM HZ BKN017 28/09 A3005 RMK AO2 TSB15E35,M
ELY,2022-09-12 01:53,-114.8453,39.2950,1909.00,71.00,45.00,39.13,M,5.00,0.00,30.27,1017.00,10.00,M,CLR,M,M,M,M,M,M,M,M,M,M,M,26.00,140.00,2022-09-12 01:02,71.10,KELY 120153Z AUTO VRB05KT 10SM CLR 22/07 A3027 RMK AO2 PK WND 14026/0102 SLP170 T02170072 $,M
VGT,2022-09-12 01:53,-115.1933,36.2111,667.00,94.00,49.00,21.64,0.00,0.00,0.00,29.95,1013.30,10.00,M,CLR,M,M,M,M,M,M,M,M,M,M,M,M,M,M,90.59,KVGT 120153Z 00000KT 10SM CLR 34/09 A2995 RMK AO2 SLP133 T03440094,M
DRA,2022-09-12 01:53,-116.0278,36.6206,1009.00,86.00,44.00,23.14,230.00,4.00,0.00,30.04,1012.90,10.00,M,CLR,M,M,M,M,M,M,M,M,M,M,M,M,M,M,83.04,KDRA 120153Z AUTO 23004KT 10SM CLR 30/07 A3004 RMK AO2 SLP129 T03000067 $,M
LOL,2022-09-12 01:53,-118.5701,40.0684,1192.43,82.00,48.00,30.51,230.00,15.00,0.00,30.05,1014.60,1.75,M,BKN,M,M,M,1900.00,M,M,M,HZ,M,M,M,M,M,M,80.53,KLOL 120153Z AUTO 23015KT 1 3/4SM HZ BKN019 28/09 A3005 RMK AO2 TSB15E35 SLP146 T02780089,M
P68,2022-09-12 01:53,-116.0056,39.6014,1993.00,79.00,41.00,25.78,180.00,9.00,0.00,30.19,1014.80,M,M,M,M,M,M,M,M,M,M,M,M,M,M,M,M,M,79.00,KP68 120153Z AUTO 18009KT 26/05 A3019 RMK AO1 SLP148 T02610050,M
BAM,2022-09-12 01:55,-116.8743,40.5990,1382.36,86.00,33.80,15.48,280.00,4.00,0.00,30.08,M,10.00,M,CLR,M,M,M,M,M,M,M,M,M,M,M,M,M,M,82.66,KBAM 120155Z AUTO 28004KT 10SM CLR 30/01 A3008 RMK AO1,M
CXP,2022-09-12 01:55,-119.7326,39.1923,1431.00,77.00,41.00,27.53,0.00,0.00,0.00,30.13,M,1.00,M,SCT,M,M,M,11000.00,M,M,M,HZ,M,M,M,M,M,M,77.00,KCXP 120155Z AUTO 00000KT 1SM HZ SCT110 25/05 A3013 RMK AO2,M
LOL,2022-09-12 01:55,-118.5701,40.0684,1192.43,82.00,48.00,30.51,230.00,15.00,0.00,30.05,M,3.00,M,BKN,M,M,M,1900.00,M,M,M,HZ,M,M,M,M,M,M,80.53,KLOL 120155Z AUTO 23015KT 3SM HZ BKN019 28/09 A3005 RMK AO2 T02780089,M
RTS,2022-09-12 01:55,-119.8764,39.6682,1539.00,77.00,44.60,31.62,280.00,15.00,0.00,30.16,M,3.00,M,SCT,M,M,M,11000.00,M,M,M,HZ,M,M,M,M,M,M,77.00,KRTS 120155Z AUTO 28015KT 3SM HZ SCT110 25/07 A3016 RMK AO2,M
MEV,2022-09-12 01:55,-119.7500,38.9963,1441.42,75.20,39.20,27.26,280.00,14.00,0.00,30.13,M,1.25,M,CLR,M,M,M,M,M,M,M,HZ,M,M,M,M,M,M,75.20,KMEV 120155Z AUTO 28014KT 1 1/4SM HZ CLR 24/04 A3013 RMK AO2,M
BVU,2022-09-12 01:55,-114.8611,35.9475,671.00,91.40,50.00,24.37,20.00,6.00,0.00,29.95,M,M,M,M,M,M,M,M,M,M,M,M,M,M,M,M,M,M,88.36,KBVU 120155Z AUTO 02006KT 33/10 A2995 RMK AO2 TSNO,M
HTH,2022-09-12 01:55,-118.6315,38.5448,1282.89,86.00,39.20,19.15,180.00,8.00,0.00,30.06,M,10.00,M,CLR,M,M,M,M,M,M,M,M,M,M,M,M,M,M,82.79,KHTH 120155Z AUTO 18008KT 10SM CLR 30/04 A3006 RMK A01,M
TMT,2022-09-12 01:55,-117.1971,39.4643,1749.34,M,M,M,0.00,0.00,0.00,30.22,M,10.00,M,BKN,M,M,M,12000.00,M,M,M,M,M,M,M,M,M,M,M,KTMT 120155Z AUTO 00000KT 10SM BKN120 A3022 RMK AO2,M
RNO,2022-09-12 01:55,-119.7711,39.4839,1341.00,82.00,47.00,29.28,280.00,17.00,0.00,30.09,1013.40,1.00,24.00,BKN,BKN,OVC,M,1500.00,7000.00,11000.00,M,FU,M,M,M,26.00,280.00,2022-09-12 01:34,80.43,KRNO 120155Z 28017G24KT 1SM R16R/P6000FT FU BKN015 BKN070 OVC110 28/08 A3009 RMK AO2 PK WND 28026/0134 SFC VIS 1 1/2 SLP134 FU BKN015 T02780083,M
LSV,2022-09-12 01:56,-115.0343,36.2362,570.00,92.30,49.00,22.91,0.00,0.00,0.00,29.92,1010.90,10.00,M,CLR,M,M,M,M,M,M,M,M,M,M,M,M,M,M,89.08,KLSV 120156Z AUTO 00000KT 10SM CLR 34/10 A2992 RMK AO2 SLP109 T03350095 $,M
INS,2022-09-12 01:56,-115.6733,36.5872,955.00,86.20,46.20,24.91,210.00,5.00,0.00,30.02,1012.30,10.00,M,CLR,M,M,M,M,M,M,M,M,M,M,M,M,M,M,83.36,KINS 120156Z AUTO 21005KT 10SM CLR 30/08 A3002 RMK AO2 SLP123 T03010079 $,M
EKO,2022-09-12 01:56,-115.7860,40.8242,1367.00,84.00,28.90,13.53,70.00,5.00,0.00,30.11,1014.70,10.00,M,CLR,M,M,M,M,M,M,M,M,M,M,M,M,M,M,81.10,KEKO 120156Z AUTO 07005KT 10SM CLR 29/M02 A3011 RMK AO2 SLP147 T02891017,M
WMC,2022-09-12 01:56,-117.8072,40.9019,1315.00,84.00,26.10,12.06,350.00,6.00,0.00,30.06,1014.00,10.00,M,CLR,M,M,M,M,M,M,M,M,M,M,M,M,M,M,80.96,KWMC 120156Z AUTO 35006KT 10SM CLR 29/M03 A3006 RMK AO2 SLP140 T02891033 $,M
HND,2022-09-12 01:56,-115.1344,35.9729,742.79,91.00,50.00,24.68,360.00,7.00,0.00,29.99,1014.60,10.00,M,CLR,M,M,M,M,M,M,M,M,M,M,M,M,M,M,87.99,KHND 120156Z 36007KT 10SM CLR 33/10 A2999 RMK AO2 SLP146 T03280100,M
TPH,2022-09-12 01:56,-117.0904,38.0505,1654.00,78.00,45.00,30.95,200.00,9.00,0.00,30.18,1015.40,10.00,M,CLR,M,M,M,M,M,M,M,M,M,M,M,M,M,M,78.10,KTPH 120156Z AUTO 20009KT 10SM CLR 26/07 A3018 RMK AO2 SLP154 T02560072,M
LAS,2022-09-12 01:56,-115.1634,36.0719,663.00,92.00,49.00,23.03,30.00,4.00,0.00,29.95,1011.80,10.00,M,FEW,FEW,M,M,14000.00,22000.00,M,M,M,M,M,M,M,M,M,88.66,KLAS 120156Z 03004KT 10SM FEW140 FEW220 33/09 A2995 RMK AO2 SLP118 CB DSNT E AND SE T03330094,M
NFL,2022-09-12 01:56,-118.7010,39.4166,1199.00,82.00,49.00,31.56,40.00,9.00,0.00,30.04,1014.10,10.00,M,CLR,M,M,M,M,M,M,M,M,M,M,M,M,M,M,80.61,KNFL 120156Z AUTO 04009KT 10SM CLR 28/09 A3004 RMK AO2 SLP141 T02780094,M
RNO,2022-09-12 02:08,-119.7711,39.4839,1341.00,82.00,47.00,29.28,290.00,13.00,0.00,30.09,M,1.50,24.00,BKN,BKN,OVC,M,1500.00,7000.00,11000.00,M,FU,M,M,M,M,M,M,80.43,KRNO 120208Z 29013G24KT 1 1/2SM FU BKN015 BKN070 OVC110 28/08 A3009 RMK AO2 FU BKN015 T02780083,M
CXP,2022-09-12 02:15,-119.7326,39.1923,1431.00,75.20,41.00,29.23,0.00,0.00,0.00,30.14,M,1.00,M,SCT,M,M,M,11000.00,M,M,M,HZ,M,M,M,M,M,M,75.20,KCXP 120215Z AUTO 00000KT 1SM HZ SCT110 24/05 A3014 RMK AO2,M
MEV,2022-09-12 02:15,-119.7500,38.9963,1441.42,75.20,39.20,27.26,280.00,13.00,0.00,30.13,M,1.00,18.00,CLR,M,M,M,M,M,M,M,HZ,M,M,M,M,M,M,75.20,KMEV 120215Z AUTO 28013G18KT 1SM HZ CLR 24/04 A3013 RMK AO2,M
BAM,2022-09-12 02:15,-116.8743,40.5990,1382.36,86.00,37.40,17.85,240.00,9.00,0.00,30.08,M,10.00,20.00,CLR,M,M,M,M,M,M,M,M,M,M,M,M,M,M,82.73,KBAM 120215Z AUTO 24009G20KT 10SM CLR 30/03 A3008 RMK AO1,M
HTH,2022-09-12 02:15,-118.6315,38.5448,1282.89,84.20,39.20,20.29,180.00,8.00,0.00,30.06,M,10.00,M,CLR,M,M,M,M,M,M,M,M,M,M,M,M,M,M,81.44,KHTH 120215Z AUTO 18008KT 10SM CLR 29/04 A3006 RMK A01,M
TMT,2022-09-12 02:15,-117.1971,39.4643,1749.34,M,M,M,0.00,0.00,0.00,30.21,M,10.00,M,OVC,M,M,M,12000.00,M,M,M,M,M,M,M,M,M,M,M,KTMT 120215Z AUTO 00000KT 10SM OVC120 A3021 RMK AO2,M
RTS,2022-09-12 02:15,-119.8764,39.6682,1539.00,75.20,42.80,31.34,280.00,13.00,0.00,30.16,M,5.00,M,SCT,M,M,M,11000.00,M,M,M,HZ,M,M,M,M,M,M,75.20,KRTS 120215Z AUTO 28013KT 5SM HZ SCT110 24/06 A3016 RMK AO2,M
BVU,2022-09-12 02:15,-114.8611,35.9475,671.00,89.60,51.80,27.56,360.00,5.00,0.00,29.95,M,M,M,M,M,M,M,M,M,M,M,M,M,M,M,M,M,M,87.00,KBVU 120215Z AUTO 36005KT 32/11 A2995 RMK AO2 TSNO,M
LOL,2022-09-12 02:17,-118.5701,40.0684,1192.43,82.00,49.00,31.56,230.00,12.00,T,30.05,M,2.00,M,BKN,OVC,M,M,1800.00,9000.00,M,M,-RA,M,M,M,M,M,M,80.61,KLOL 120217Z AUTO 23012KT 2SM -RA BKN018 OVC090 28/09 A3005 RMK AO2 RAB17 P0000 T02780094,M
LOL,2022-09-12 02:24,-118.5701,40.0684,1192.43,82.00,49.00,31.56,250.00,10.00,T,30.05,M,1.50,M,BKN,BKN,OVC,M,1800.00,7000.00,9000.00,M,-RA,M,M,M,M,M,M,80.61,KLOL 120224Z AUTO 25010KT 1 1/2SM -RA BKN018 BKN070 OVC090 28/09 A3005 RMK AO2 RAB17 P0000 T02780094,M
TMT,2022-09-12 02:35,-117.1971,39.4643,1749.34,M,M,M,220.00,3.00,0.00,30.22,M,10.00,M,SCT,M,M,M,11000.00,M,M,M,M,M,M,M,M,M,M,M,KTMT 120235Z AUTO 22003KT 10SM SCT110 A3022 RMK AO2,M
HTH,2022-09-12 02:35,-118.6315,38.5448,1282.89,84.20,39.20,20.29,170.00,8.00,0.00,30.07,M,10.00,M,CLR,M,M,M,M,M,M,M,M,M,M,M,M,M,M,81.44,KHTH 120235Z AUTO 17008KT 10SM CLR 29/04 A3007 RMK A01,M
BAM,2022-09-12 02:35,-116.8743,40.5990,1382.36,82.40,35.60,18.67,230.00,8.00,0.00,30.08,M,10.00,M,CLR,M,M,M,M,M,M,M,M,M,M,M,M,M,M,80.08,KBAM 120235Z AUTO 23008KT 10SM CLR 28/02 A3008 RMK AO1,M
MEV,2022-09-12 02:35,-119.7500,38.9963,1441.42,75.20,39.20,27.26,270.00,11.00,0.00,30.14,M,1.25,17.00,SCT,OVC,M,M,300.00,2400.00,M,M,HZ,M,M,M,M,M,M,75.20,KMEV 120235Z AUTO 27011G17KT 1 1/4SM HZ SCT003 OVC024 24/04 A3014 RMK AO2,M
RTS,2022-09-12 02:35,-119.8764,39.6682,1539.00,75.20,41.00,29.23,290.00,12.00,0.00,30.17,M,8.00,18.00,SCT,M,M,M,10000.00,M,M,M,M,M,M,M,M,M,M,75.20,KRTS 120235Z AUTO 29012G18KT 8SM SCT100 24/05 A3017 RMK AO2,M
CXP,2022-09-12 02:35,-119.7326,39.1923,1431.00,75.20,41.00,29.23,0.00,0.00,0.00,30.14,M,1.25,M,BKN,M,M,M,11000.00,M,M,M,HZ,M,M,M,M,M,M,75.20,KCXP 120235Z AUTO 00000KT 1 1/4SM HZ BKN110 24/05 A3014 RMK AO2,M
BVU,2022-09-12 02:35,-114.8611,35.9475,671.00,89.60,51.80,27.56,20.00,5.00,0.00,29.95,M,M,M,M,M,M,M,M,M,M,M,M,M,M,M,M,M,M,87.00,KBVU 120235Z AUTO 02005KT 32/11 A2995 RMK AO2 TSNO,M
LOL,2022-09-12 02:40,-118.5701,40.0684,1192.43,82.00,46.00,28.30,220.00,6.00,T,30.06,M,1.50,M,BKN,BKN,OVC,M,1400.00,9000.00,11000.00,M,HZ,M,M,M,M,M,M,80.36,KLOL 120240Z AUTO 22006KT 1 1/2SM HZ BKN014 BKN090 OVC110 28/08 A3006 RMK AO2 LTG DSNT W RAB17E27 P0000 T02780078,M
LOL,2022-09-12 02:49,-118.5701,40.0684,1192.43,80.60,46.40,30.07,200.00,6.00,T,30.07,M,1.75,M,SCT,BKN,M,M,1600.00,11000.00,M,M,HZ,M,M,M,M,M,M,79.56,KLOL 120249Z AUTO 20006KT 1 3/4SM HZ SCT016 BKN110 27/08 A3007 RMK AO2 LTG DSNT W RAB17E27 P0000,M
LOL,2022-09-12 02:53,-118.5701,40.0684,1192.43,82.00,46.00,28.30,180.00,11.00,T,30.07,1014.80,2.00,M,SCT,BKN,M,M,1800.00,11000.00,M,M,HZ,M,M,M,M,M,M,80.36,KLOL 120253Z AUTO 18011KT 2SM HZ SCT018 BKN110 28/08 A3007 RMK AO2 LTG DSNT W RAB17E27 SLP148 P0000 60000 T02780078 50004,M
P68,2022-09-12 02:53,-116.0056,39.6014,1993.00,72.00,40.00,31.20,100.00,20.00,0.00,30.25,1016.80,M,29.00,M,M,M,M,M,M,M,M,M,M,M,M,33.00,120.00,2022-09-12 02:32,72.00,KP68 120253Z AUTO 10020G29KT 22/04 A3025 RMK AO1 PK WND 12033/0232 SLP168 T02220044 53020,M
DRA,2022-09-12 02:53,-116.0278,36.6206,1009.00,83.00,45.00,26.46,270.00,3.00,0.00,30.06,1013.20,10.00,M,SCT,M,M,M,11000.00,M,M,M,M,M,M,M,M,M,M,80.86,KDRA 120253Z AUTO 27003KT 10SM SCT110 28/07 A3006 RMK AO2 SLP132 T02830072 53004 $,M
ELY,2022-09-12 02:53,-114.8453,39.2950,1909.00,68.00,45.00,43.51,210.00,9.00,0.00,30.28,1016.70,10.00,M,CLR,M,M,M,M,M,M,M,M,M,M,M,M,M,M,68.00,KELY 120253Z AUTO 21009KT 10SM CLR 20/07 A3028 RMK AO2 SLP167 T02000072 51016 $,M
VGT,2022-09-12 02:53,-115.1933,36.2111,667.00,93.00,49.00,22.25,0.00,0.00,0.00,29.96,1013.40,10.00,M,CLR,M,M,M,M,M,M,M,M,M,M,M,M,M,M,89.72,KVGT 120253Z 00000KT 10SM CLR 34/09 A2996 RMK AO2 SLP134 T03390094 55002,M
RNO,2022-09-12 02:55,-119.7711,39.4839,1341.00,80.00,45.00,28.99,290.00,14.00,0.00,30.10,1014.10,1.50,21.00,BKN,BKN,OVC,M,1500.00,6000.00,10000.00,M,FU,M,M,M,M,M,M,79.18,KRNO 120255Z 29014G21KT 1 1/2SM FU BKN015 BKN060 OVC100 27/07 A3010 RMK AO2 SFC VIS 2 SLP141 FU BKN015 T02670072 53012,M
RTS,2022-09-12 02:55,-119.8764,39.6682,1539.00,75.20,41.00,29.23,290.00,14.00,0.00,30.17,M,9.00,M,FEW,M,M,M,10000.00,M,M,M,M,M,M,M,M,M,M,75.20,KRTS 120255Z AUTO 29014KT 9SM FEW100 24/05 A3017 RMK AO2,M
CXP,2022-09-12 02:55,-119.7326,39.1923,1431.00,73.40,41.00,31.05,0.00,0.00,0.00,30.15,M,1.75,M,FEW,BKN,M,M,3200.00,11000.00,M,M,HZ,M,M,M,M,M,M,73.40,KCXP 120255Z AUTO 00000KT 1 3/4SM HZ FEW032 BKN110 23/05 A3015 RMK AO2,M
HTH,2022-09-12 02:55,-118.6315,38.5448,1282.89,80.60,41.00,24.46,160.00,6.00,0.00,30.08,M,10.00,M,CLR,M,M,M,M,M,M,M,M,M,M,M,M,M,M,79.20,KHTH 120255Z AUTO 16006KT 10SM CLR 27/05 A3008 RMK A01,M
BAM,2022-09-12 02:55,-116.8743,40.5990,1382.36,80.60,35.60,19.79,270.00,5.00,0.00,30.09,M,10.00,M,CLR,M,M,M,M,M,M,M,M,M,M,M,M,M,M,78.94,KBAM 120255Z AUTO 27005KT 10SM CLR 27/02 A3009 RMK AO1,M
MEV,2022-09-12 02:55,-119.7500,38.9963,1441.42,73.40,41.00,31.05,270.00,14.00,0.00,30.14,M,2.00,20.00,M,M,M,M,M,M,M,M,HZ,M,M,M,M,M,M,73.40,KMEV 120255Z AUTO 27014G20KT 2SM HZ 23/05 A3014 RMK AO2,M
BVU,2022-09-12 02:55,-114.8611,35.9475,671.00,89.60,50.00,25.79,360.00,5.00,0.00,29.96,M,M,M,M,M,M,M,M,M,M,M,M,M,M,M,M,M,M,86.70,KBVU 120255Z AUTO 36005KT 32/10 A2996 RMK AO2 TSNO,M
TMT,2022-09-12 02:55,-117.1971,39.4643,1749.34,M,M,M,180.00,5.00,0.00,30.22,M,10.00,M,BKN,M,M,M,10000.00,M,M,M,M,M,M,M,M,M,M,M,KTMT 120255Z AUTO 18005KT 10SM BKN100 A3022 RMK AO2,M
INS,2022-09-12 02:56,-115.6733,36.5872,955.00,85.00,46.20,25.96,0.00,0.00,0.00,30.04,1012.80,10.00,M,CLR,M,M,M,M,M,M,M,M,M,M,M,M,M,M,82.36,KINS 120256Z AUTO 00000KT 10SM CLR 29/08 A3004 RMK AO2 SLP128 T02940079 53005 $,M
EKO,2022-09-12 02:56,-115.7860,40.8242,1367.00,79.00,27.00,14.73,90.00,3.00,0.00,30.12,1015.10,10.00,M,CLR,M,M,M,M,M,M,M,M,M,M,M,M,M,M,79.00,KEKO 120256Z AUTO 09003KT 10SM CLR 26/M03 A3012 RMK AO2 SLP151 T02611028 55000,M
WMC,2022-09-12 02:56,-117.8072,40.9019,1315.00,74.00,26.10,16.81,0.00,0.00,0.00,30.07,1014.60,10.00,M,CLR,M,M,M,M,M,M,M,M,M,M,M,M,M,M,73.90,KWMC 120256Z AUTO 00000KT 10SM CLR 23/M03 A3007 RMK AO2 SLP146 T02331033 53002 $,M
HND,2022-09-12 02:56,-115.1344,35.9729,742.79,88.00,50.00,27.12,30.00,3.00,0.00,30.00,1014.90,10.00,M,CLR,M,M,M,M,M,M,M,M,M,M,M,M,M,M,85.28,KHND 120256Z 03003KT 10SM CLR 31/10 A3000 RMK AO2 SLP149 T03110100 55001,M
LSV,2022-09-12 02:56,-115.0343,36.2362,570.00,90.00,50.40,25.84,320.00,3.00,0.00,29.93,1011.30,10.00,M,CLR,M,M,M,M,M,M,M,M,M,M,M,M,M,M,87.12,KLSV 120256Z AUTO 32003KT 10SM CLR 32/10 A2993 RMK AO2 SLP113 T03220102 55002 $,M
TPH,2022-09-12 02:56,-117.0904,38.0505,1654.00,75.00,44.00,33.16,200.00,9.00,0.00,30.20,1015.80,10.00,M,CLR,M,M,M,M,M,M,M,M,M,M,M,M,M,M,75.00,KTPH 120256Z AUTO 20009KT 10SM CLR 24/07 A3020 RMK AO2 SLP158 T02390067 53005,M
LAS,2022-09-12 02:56,-115.1634,36.0719,663.00,91.00,49.00,23.68,350.00,3.00,0.00,29.96,1011.90,10.00,M,FEW,FEW,M,M,14000.00,22000.00,M,M,M,M,M,M,M,M,M,87.82,KLAS 120256Z 35003KT 10SM FEW140 FEW220 33/09 A2996 RMK AO2 SLP119 T03280094 55002,M
NFL,2022-09-12 02:56,-118.7010,39.4166,1199.00,78.00,49.00,35.86,50.00,8.00,0.00,30.05,1014.30,10.00,M,FEW,M,M,M,12000.00,M,M,M,M,M,M,M,M,M,M,78.10,KNFL 120256Z AUTO 05008KT 10SM FEW120 26/09 A3005 RMK AO2 SLP143 T02560094 53003,M
LOL,2022-09-12 03:03,-118.5701,40.0684,1192.43,81.00,47.00,30.24,190.00,7.00,0.00,30.07,M,8.00,M,FEW,SCT,M,M,2000.00,11000.00,M,M,M,M,M,M,M,M,M,79.83,KLOL 120303Z AUTO 19007KT 8SM FEW020 SCT110 27/08 A3007 RMK AO2 T02720083,M
RTS,2022-09-12 03:15,-119.8764,39.6682,1539.00,73.40,41.00,31.05,290.00,12.00,0.00,30.18,M,9.00,17.00,SCT,M,M,M,10000.00,M,M,M,M,M,M,M,M,M,M,73.40,KRTS 120315Z AUTO 29012G17KT 9SM SCT100 23/05 A3018 RMK AO2,M
CXP,2022-09-12 03:15,-119.7326,39.1923,1431.00,71.60,41.00,33.00,130.00,3.00,0.00,30.16,M,1.75,M,SCT,BKN,M,M,2900.00,11000.00,M,M,HZ,M,M,M,M,M,M,71.60,KCXP 120315Z AUTO 13003KT 1 3/4SM HZ SCT029 BKN110 22/05 A3016 RMK AO2,M
BVU,2022-09-12 03:15,-114.8611,35.9475,671.00,87.80,51.80,29.18,10.00,6.00,0.00,29.97,M,M,M,M,M,M,M,M,M,M,M,M,M,M,M,M,M,M,85.39,KBVU 120315Z AUTO 01006KT 31/11 A2997 RMK AO2 TSNO,M
MEV,2022-09-12 03:15,-119.7500,38.9963,1441.42,71.60,39.20,30.77,250.00,9.00,0.00,30.15,M,2.00,14.00,M,M,M,M,M,M,M,M,HZ,M,M,M,M,M,M,71.60,KMEV 120315Z AUTO 25009G14KT 2SM HZ 22/04 A3015 RMK AO2,M
TMT,2022-09-12 03:15,-117.1971,39.4643,1749.34,M,M,M,210.00,3.00,0.00,30.22,M,10.00,M,SCT,M,M,M,10000.00,M,M,M,M,M,M,M,M,M,M,M,KTMT 120315Z AUTO 21003KT 10SM SCT100 A3022 RMK AO2,M
HTH,2022-09-12 03:15,-118.6315,38.5448,1282.89,80.60,41.00,24.46,180.00,8.00,0.00,30.08,M,10.00,M,CLR,M,M,M,M,M,M,M,M,M,M,M,M,M,M,79.20,KHTH 120315Z AUTO 18008KT 10SM CLR 27/05 A3008 RMK A01,M
BAM,2022-09-12 03:15,-116.8743,40.5990,1382.36,80.60,35.60,19.79,0.00,0.00,0.00,30.09,M,10.00,M,CLR,M,M,M,M,M,M,M,M,M,M,M,M,M,M,78.94,KBAM 120315Z AUTO 00000KT 10SM CLR 27/02 A3009 RMK AO1,M
RNO,2022-09-12 03:34,-119.7711,39.4839,1341.00,79.00,43.00,27.84,300.00,12.00,0.00,30.13,M,3.00,M,SCT,BKN,OVC,M,1500.00,3000.00,7000.00,M,FU,M,M,M,M,M,M,79.00,KRNO 120334Z 30012KT 3SM FU SCT015 BKN030 OVC070 26/06 A3013 RMK AO2 FU SCT015 FU BKN030 T02610061,M
CXP,2022-09-12 03:35,-119.7326,39.1923,1431.00,71.60,41.00,33.00,0.00,0.00,0.00,30.17,M,1.75,M,BKN,M,M,M,2900.00,M,M,M,HZ,M,M,M,M,M,M,71.60,KCXP 120335Z AUTO 00000KT 1 3/4SM HZ BKN029 22/05 A3017 RMK AO2,M
BVU,2022-09-12 03:35,-114.8611,35.9475,671.00,87.80,51.80,29.18,10.00,7.00,0.00,29.97,M,M,M,M,M,M,M,M,M,M,M,M,M,M,M,M,M,M,85.39,KBVU 120335Z AUTO 01007KT 31/11 A2997 RMK AO2 TSNO,M
HTH,2022-09-12 03:35,-118.6315,38.5448,1282.89,80.60,41.00,24.46,190.00,8.00,0.00,30.09,M,10.00,M,CLR,M,M,M,M,M,M,M,M,M,M,M,M,M,M,79.20,KHTH 120335Z AUTO 19008KT 10SM CLR 27/05 A3009 RMK A01,M
RTS,2022-09-12 03:35,-119.8764,39.6682,1539.00,73.40,41.00,31.05,290.00,11.00,0.00,30.19,M,10.00,16.00,FEW,M,M,M,10000.00,M,M,M,M,M,M,M,M,M,M,73.40,KRTS 120335Z AUTO 29011G16KT 10SM FEW100 23/05 A3019 RMK AO2,M
BAM,2022-09-12 03:35,-116.8743,40.5990,1382.36,77.00,33.80,20.74,140.00,3.00,0.00,30.11,M,10.00,M,CLR,M,M,M,M,M,M,M,M,M,M,M,M,M,M,77.00,KBAM 120335Z AUTO 14003KT 10SM CLR 25/01 A3011 RMK AO1,M
MEV,2022-09-12 03:35,-119.7500,38.9963,1441.42,71.60,39.20,30.77,260.00,11.00,0.00,30.16,M,2.00,M,M,M,M,M,M,M,M,M,HZ,M,M,M,M,M,M,71.60,KMEV 120335Z AUTO 26011KT 2SM HZ 22/04 A3016 RMK AO2,M
TMT,2022-09-12 03:35,-117.1971,39.4643,1749.34,M,M,M,0.00,0.00,0.00,30.24,M,10.00,M,SCT,M,M,M,11000.00,M,M,M,M,M,M,M,M,M,M,M,KTMT 120335Z AUTO 00000KT 10SM SCT110 A3024 RMK AO2,M
RNO,2022-09-12 03:36,-119.7711,39.4839,1341.00,79.00,43.00,27.84,290.00,12.00,0.00,30.13,M,4.00,M,SCT,BKN,OVC,M,1500.00,3000.00,7000.00,M,FU,M,M,M,M,M,M,79.00,KRNO 120336Z 29012KT 4SM FU SCT015 BKN030 OVC070 26/06 A3013 RMK AO2 FU SCT015 FU BKN030 T02610061,M
CXP,2022-09-12 03:50,-119.7326,39.1923,1431.00,73.40,41.00,31.05,0.00,0.00,0.00,30.17,M,2.00,M,BKN,M,M,M,2900.00,M,M,M,HZ,M,M,M,M,M,M,73.40,KCXP 120350Z AUTO 00000KT 2SM HZ BKN029 23/05 A3017 RMK AO2,M
P68,2022-09-12 03:53,-116.0056,39.6014,1993.00,69.00,42.00,37.50,M,M,0.00,30.26,1016.60,M,M,M,M,M,M,M,M,M,M,M,M,M,M,M,M,M,69.10,KP68 120353Z AUTO 21/06 A3026 RMK AO1 SLP166 T02060056,M
DRA,2022-09-12 03:53,-116.0278,36.6206,1009.00,80.00,48.00,32.46,290.00,4.00,0.00,30.08,1013.80,10.00,M,CLR,M,M,M,M,M,M,M,M,M,M,M,M,M,M,79.42,KDRA 120353Z AUTO 29004KT 10SM CLR 27/09 A3008 RMK AO2 SLP138 T02670089 $,M
LOL,2022-09-12 03:53,-118.5701,40.0684,1192.43,80.00,46.00,30.11,360.00,4.00,0.00,30.08,1014.50,10.00,M,FEW,BKN,M,M,9000.00,11000.00,M,M,M,M,M,M,M,M,M,79.26,KLOL 120353Z AUTO 36004KT 10SM FEW090 BKN110 27/08 A3008 RMK AO2 SLP145 T02670078,M
ELY,2022-09-12 03:53,-114.8453,39.2950,1909.00,64.00,45.00,49.99,210.00,7.00,0.00,30.28,1016.20,10.00,M,CLR,M,M,M,M,M,M,M,M,M,M,M,M,M,M,64.00,KELY 120353Z AUTO 21007KT 10SM CLR 18/07 A3028 RMK AO2 SLP162 T01780072 $,M
VGT,2022-09-12 03:53,-115.1933,36.2111,667.00,90.00,51.00,26.52,340.00,3.00,0.00,29.97,1013.90,10.00,M,CLR,M,M,M,M,M,M,M,M,M,M,M,M,M,M,87.24,KVGT 120353Z 34003KT 10SM CLR 32/11 A2997 RMK AO2 SLP139 T03220106,M
BAM,2022-09-12 03:55,-116.8743,40.5990,1382.36,80.60,41.00,24.46,260.00,8.00,0.00,30.11,M,10.00,M,CLR,M,M,M,M,M,M,M,M,M,M,M,M,M,M,79.20,KBAM 120355Z AUTO 26008KT 10SM CLR 27/05 A3011 RMK AO1,M
BVU,2022-09-12 03:55,-114.8611,35.9475,671.00,87.80,51.80,29.18,10.00,5.00,0.00,29.98,M,M,M,M,M,M,M,M,M,M,M,M,M,M,M,M,M,M,85.39,KBVU 120355Z AUTO 01005KT 31/11 A2998 RMK AO2 TSNO,M
RTS,2022-09-12 03:55,-119.8764,39.6682,1539.00,73.40,41.00,31.05,290.00,8.00,0.00,30.19,M,10.00,M,CLR,M,M,M,M,M,M,M,M,M,M,M,M,M,M,73.40,KRTS 120355Z AUTO 29008KT 10SM CLR 23/05 A3019 RMK AO2,M
TMT,2022-09-12 03:55,-117.1971,39.4643,1749.34,M,M,M,0.00,0.00,0.00,30.24,M,10.00,M,SCT,M,M,M,10000.00,M,M,M,M,M,M,M,M,M,M,M,KTMT 120355Z AUTO 00000KT 10SM SCT100 A3024 RMK AO2,M
HTH,2022-09-12 03:55,-118.6315,38.5448,1282.89,78.80,39.20,24.19,190.00,7.00,0.00,30.09,M,10.00,M,CLR,M,M,M,M,M,M,M,M,M,M,M,M,M,M,78.80,KHTH 120355Z AUTO 19007KT 10SM CLR 26/04 A3009 RMK A01,M
RNO,2022-09-12 03:55,-119.7711,39.4839,1341.00,78.00,43.00,28.68,300.00,10.00,0.00,30.13,1015.00,4.00,M,BKN,OVC,M,M,2000.00,7000.00,M,M,FU,M,M,M,M,M,M,78.10,KRNO 120355Z 30010KT 4SM FU BKN020 OVC070 26/06 A3013 RMK AO2 SLP150 FU BKN020 T02560061,M
MEV,2022-09-12 03:55,-119.7500,38.9963,1441.42,69.80,41.00,35.09,0.00,0.00,0.00,30.17,M,2.00,M,M,M,M,M,M,M,M,M,HZ,M,M,M,M,M,M,69.80,KMEV 120355Z AUTO 00000KT 2SM HZ 21/05 A3017 RMK AO2,M
HND,2022-09-12 03:56,-115.1344,35.9729,742.79,85.00,52.00,32.24,0.00,0.00,0.00,30.02,1015.30,10.00,M,CLR,M,M,M,M,M,M,M,M,M,M,M,M,M,M,83.03,KHND 120356Z AUTO 00000KT 10SM CLR 29/11 A3002 RMK AO2 LTG DSNT SE SLP153 T02940111,M
LAS,2022-09-12 03:56,-115.1634,36.0719,663.00,91.00,50.00,24.68,M,4.00,0.00,29.97,1012.30,10.00,M,FEW,FEW,M,M,14000.00,22000.00,M,M,M,M,M,M,M,M,M,87.99,KLAS 120356Z VRB04KT 10SM FEW140 FEW220 33/10 A2997 RMK AO2 SLP123 T03280100,M
INS,2022-09-12 03:56,-115.6733,36.5872,955.00,82.20,46.00,28.01,0.00,0.00,0.00,30.05,1013.00,10.00,M,CLR,M,M,M,M,M,M,M,M,M,M,M,M,M,M,80.47,KINS 120356Z AUTO 00000KT 10SM CLR 28/08 A3005 RMK AO2 SLP130 T02790077 $,M
TPH,2022-09-12 03:56,-117.0904,38.0505,1654.00,70.00,44.00,39.26,210.00,7.00,0.00,30.22,1016.60,10.00,M,CLR,M,M,M,M,M,M,M,M,M,M,M,M,M,M,70.00,KTPH 120356Z AUTO 21007KT 10SM CLR 21/07 A3022 RMK AO2 SLP166 T02110067,M
NFL,2022-09-12 03:56,-118.7010,39.4166,1199.00,75.00,52.00,44.59,50.00,5.00,0.00,30.06,1014.70,10.00,M,CLR,M,M,M,M,M,M,M,M,M,M,M,M,M,M,75.00,KNFL 120356Z AUTO 05005KT 10SM CLR 24/11 A3006 RMK AO2 SLP147 T02390111,M
WMC,2022-09-12 03:56,-117.8072,40.9019,1315.00,70.00,25.00,18.33,250.00,6.00,0.00,30.09,1014.50,10.00,M,CLR,M,M,M,M,M,M,M,M,M,M,M,M,M,M,70.00,KWMC 120356Z AUTO 25006KT 10SM CLR 21/M04 A3009 RMK AO2 SLP145 T02111039 $,M
LSV,2022-09-12 03:56,-115.0343,36.2362,570.00,87.80,50.50,27.81,50.00,4.00,0.00,29.94,1011.40,10.00,M,CLR,M,M,M,M,M,M,M,M,M,M,M,M,M,M,85.18,KLSV 120356Z AUTO 05004KT 10SM CLR 31/10 A2994 RMK AO2 SLP114 T03100103 $,M
EKO,2022-09-12 03:56,-115.7860,40.8242,1367.00,75.00,30.00,19.02,80.00,3.00,0.00,30.14,1015.50,10.00,M,CLR,M,M,M,M,M,M,M,M,M,M,M,M,M,M,75.00,KEKO 120356Z AUTO 08003KT 10SM CLR 24/M01 A3014 RMK AO2 SLP155 T02391011,M
HTH,2022-09-12 04:15,-118.6315,38.5448,1282.89,78.80,41.00,25.95,150.00,7.00,0.00,30.10,M,10.00,M,CLR,M,M,M,M,M,M,M,M,M,M,M,M,M,M,78.80,KHTH 120415Z AUTO 15007KT 10SM CLR 26/05 A3010 RMK A01,M
BAM,2022-09-12 04:15,-116.8743,40.5990,1382.36,80.60,37.40,21.25,260.00,8.00,0.00,30.11,M,10.00,M,CLR,M,M,M,M,M,M,M,M,M,M,M,M,M,M,79.02,KBAM 120415Z AUTO 26008KT 10SM CLR 27/03 A3011 RMK AO1,M
RTS,2022-09-12 04:15,-119.8764,39.6682,1539.00,73.40,41.00,31.05,280.00,13.00,0.00,30.20,M,10.00,M,CLR,M,M,M,M,M,M,M,M,M,M,M,M,M,M,73.40,KRTS 120415Z AUTO 28013KT 10SM CLR 23/05 A3020 RMK AO2,M
BVU,2022-09-12 04:15,-114.8611,35.9475,671.00,86.00,51.80,30.90,10.00,5.00,0.00,29.98,M,M,M,M,M,M,M,M,M,M,M,M,M,M,M,M,M,M,83.87,KBVU 120415Z AUTO 01005KT 30/11 A2998 RMK AO2 TSNO,M
CXP,2022-09-12 04:15,-119.7326,39.1923,1431.00,71.60,41.00,33.00,0.00,0.00,0.00,30.18,M,2.00,M,OVC,M,M,M,2900.00,M,M,M,HZ,M,M,M,M,M,M,71.60,KCXP 120415Z AUTO 00000KT 2SM HZ OVC029 22/05 A3018 RMK AO2,M
MEV,2022-09-12 04:15,-119.7500,38.9963,1441.42,69.80,41.00,35.09,290.00,7.00,0.00,30.17,M,2.00,M,M,M,M,M,M,M,M,M,HZ,M,M,M,M,M,M,69.80,KMEV 120415Z AUTO 29007KT 2SM HZ 21/05 A3017 RMK AO2,M
TMT,2022-09-12 04:15,-117.1971,39.4643,1749.34,M,M,M,0.00,0.00,0.00,30.24,M,10.00,M,SCT,M,M,M,10000.00,M,M,M,M,M,M,M,M,M,M,M,KTMT 120415Z AUTO 00000KT 10SM SCT100 A3024 RMK AO2,M
HTH,2022-09-12 04:35,-118.6315,38.5448,1282.89,77.00,42.80,29.51,160.00,8.00,0.00,30.10,M,10.00,M,M,M,M,M,M,M,M,M,M,M,M,M,M,M,M,77.00,KHTH 120435Z AUTO 16008KT 10SM 25/06 A3010 RMK A01,M
BVU,2022-09-12 04:35,-114.8611,35.9475,671.00,86.00,55.40,35.25,50.00,12.00,0.00,29.99,M,M,34.00,M,M,M,M,M,M,M,M,M,M,M,M,M,M,M,84.54,KBVU 120435Z AUTO 05012G34KT 310V080 30/13 A2999 RMK AO2 TSNO,M
CXP,2022-09-12 04:35,-119.7326,39.1923,1431.00,71.60,41.00,33.00,0.00,0.00,0.00,30.18,M,2.00,M,OVC,M,M,M,3000.00,M,M,M,HZ,M,M,M,M,M,M,71.60,KCXP 120435Z AUTO 00000KT 2SM HZ OVC030 22/05 A3018 RMK AO2,M
RTS,2022-09-12 04:35,-119.8764,39.6682,1539.00,71.60,41.00,33.00,300.00,15.00,0.00,30.20,M,10.00,M,CLR,M,M,M,M,M,M,M,M,M,M,M,M,M,M,71.60,KRTS 120435Z AUTO 30015KT 10SM CLR 22/05 A3020 RMK AO2,M
MEV,2022-09-12 04:35,-119.7500,38.9963,1441.42,66.20,42.80,42.57,0.00,0.00,0.00,30.17,M,2.00,M,M,M,M,M,M,M,M,M,HZ,M,M,M,M,M,M,66.20,KMEV 120435Z AUTO 00000KT 2SM HZ 19/06 A3017 RMK AO2,M
BAM,2022-09-12 04:35,-116.8743,40.5990,1382.36,80.60,39.20,22.81,250.00,11.00,0.00,30.12,M,10.00,M,CLR,M,M,M,M,M,M,M,M,M,M,M,M,M,M,79.10,KBAM 120435Z AUTO 25011KT 10SM CLR 27/04 A3012 RMK AO1,M
TMT,2022-09-12 04:35,-117.1971,39.4643,1749.34,M,M,M,130.00,3.00,0.00,30.24,M,10.00,M,BKN,BKN,M,M,10000.00,12000.00,M,M,M,M,M,M,M,M,M,M,KTMT 120435Z AUTO 13003KT 10SM BKN100 BKN120 A3024 RMK AO2,M
WMC,2022-09-12 04:50,-117.8072,40.9019,1315.00,80.60,42.80,26.22,250.00,14.00,0.00,30.09,M,2.50,22.00,BKN,M,M,M,1800.00,M,M,M,HZ,M,M,M,M,M,M,79.30,KWMC 120450Z AUTO 25014G22KT 2 1/2SM HZ BKN018 27/06 A3009 RMK AO2 $,M
HND,2022-09-12 04:51,-115.1344,35.9729,742.79,84.20,50.00,30.62,150.00,5.00,0.00,30.02,M,10.00,M,CLR,M,M,M,M,M,M,M,VCTS,M,M,M,M,M,M,82.24,KHND 120451Z AUTO 15005KT 10SM VCTS CLR 29/10 A3002 RMK AO2 LTG DSNT E TSB45,M
ELY,2022-09-12 04:53,-114.8453,39.2950,1909.00,59.00,43.00,55.28,170.00,8.00,0.00,30.28,1016.00,10.00,M,CLR,M,M,M,M,M,M,M,M,M,M,M,M,M,M,59.00,KELY 120453Z AUTO 17008KT 10SM CLR 15/06 A3028 RMK AO2 SLP160 T01500061 $,M
DRA,2022-09-12 04:53,-116.0278,36.6206,1009.00,78.00,54.00,43.30,10.00,4.00,0.00,30.08,1013.70,10.00,M,CLR,M,M,M,M,M,M,M,M,M,M,M,M,M,M,78.10,KDRA 120453Z AUTO 01004KT 10SM CLR 26/12 A3008 RMK AO2 SLP137 T02560122 $,M
VGT,2022-09-12 04:53,-115.1933,36.2111,667.00,84.00,51.00,32.10,330.00,3.00,0.00,29.97,1013.90,10.00,M,CLR,M,M,M,M,M,M,M,M,M,M,M,M,M,M,82.23,KVGT 120453Z AUTO 33003KT 10SM CLR 29/11 A2997 RMK AO2 LTG DSNT E-S SLP139 T02890106,M
P68,2022-09-12 04:53,-116.0056,39.6014,1993.00,68.00,41.00,37.32,340.00,4.00,0.00,30.26,1015.90,M,M,M,M,M,M,M,M,M,M,M,M,M,M,M,M,M,68.00,KP68 120453Z AUTO 34004KT 20/05 A3026 RMK AO1 SLP159 T02000050,M
LOL,2022-09-12 04:53,-118.5701,40.0684,1192.43,82.00,45.00,27.24,330.00,5.00,0.00,30.06,1013.40,10.00,M,SCT,M,M,M,12000.00,M,M,M,M,M,M,M,M,M,M,80.28,KLOL 120453Z AUTO 33005KT 10SM SCT120 28/07 A3006 RMK AO2 SLP134 T02780072,M
TMT,2022-09-12 04:55,-117.1971,39.4643,1749.34,M,M,M,0.00,0.00,0.00,30.24,M,10.00,M,SCT,SCT,M,M,9000.00,12000.00,M,M,M,M,M,M,M,M,M,M,KTMT 120455Z AUTO 00000KT 10SM SCT090 SCT120 A3024 RMK AO2,M
CXP,2022-09-12 04:55,-119.7326,39.1923,1431.00,71.60,41.00,33.00,0.00,0.00,0.00,30.18,M,2.00,M,OVC,M,M,M,2900.00,M,M,M,HZ,M,M,M,M,M,M,71.60,KCXP 120455Z AUTO 00000KT 2SM HZ OVC029 22/05 A3018 RMK AO2,M
RNO,2022-09-12 04:55,-119.7711,39.4839,1341.00,77.00,43.00,29.74,290.00,9.00,0.00,30.14,1014.90,7.00,19.00,SCT,BKN,OVC,M,1500.00,2500.00,7000.00,M,M,M,M,M,M,M,M,77.00,KRNO 120455Z 29009G19KT 7SM SCT015 BKN025 OVC070 25/06 A3014 RMK AO2 SLP149 FU SCT015 FU BKN025 T02500061,M
RTS,2022-09-12 04:55,-119.8764,39.6682,1539.00,71.60,41.00,33.00,300.00,14.00,0.00,30.20,M,10.00,M,CLR,M,M,M,M,M,M,M,M,M,M,M,M,M,M,71.60,KRTS 120455Z AUTO 30014KT 10SM CLR 22/05 A3020 RMK AO2,M
MEV,2022-09-12 04:55,-119.7500,38.9963,1441.42,68.00,41.00,37.32,0.00,0.00,0.00,30.17,M,2.00,M,OVC,M,M,M,2300.00,M,M,M,HZ,M,M,M,M,M,M,68.00,KMEV 120455Z AUTO 00000KT 2SM HZ OVC023 20/05 A3017 RMK AO2,M
BAM,2022-09-12 04:55,-116.8743,40.5990,1382.36,80.60,41.00,24.46,250.00,9.00,0.00,30.12,M,10.00,M,SCT,M,M,M,12000.00,M,M,M,M,M,M,M,M,M,M,79.20,KBAM 120455Z AUTO 25009KT 10SM SCT120 27/05 A3012 RMK AO1,M
HTH,2022-09-12 04:55,-118.6315,38.5448,1282.89,78.80,42.80,27.81,150.00,9.00,0.00,30.10,M,10.00,M,CLR,M,M,M,M,M,M,M,M,M,M,M,M,M,M,78.80,KHTH 120455Z AUTO 15009KT 10SM CLR 26/06 A3010 RMK A01,M
BVU,2022-09-12 04:55,-114.8611,35.9475,671.00,82.40,57.20,42.25,340.00,6.00,0.00,29.98,M,M,M,M,M,M,M,M,M,M,M,M,M,M,M,M,M,M,82.08,KBVU 120455Z AUTO 34006KT 28/14 A2998 RMK AO2 TSNO,M
TPH,2022-09-12 04:56,-117.0904,38.0505,1654.00,68.00,45.00,43.51,M,3.00,0.00,30.23,1016.70,10.00,M,CLR,M,M,M,M,M,M,M,M,M,M,M,M,M,M,68.00,KTPH 120456Z AUTO VRB03KT 10SM CLR 20/07 A3023 RMK AO2 SLP167 T02000072,M
HND,2022-09-12 04:56,-115.1344,35.9729,742.79,84.00,51.00,32.10,150.00,7.00,0.00,30.03,1015.50,10.00,M,FEW,M,M,M,10000.00,M,M,M,VCTS,M,M,M,M,M,M,82.23,KHND 120456Z AUTO 15007KT 10SM VCTS FEW100 29/11 A3003 RMK AO2 LTG DSNT E TSB45 SLP155 T02890106,M
EKO,2022-09-12 04:56,-115.7860,40.8242,1367.00,76.00,42.00,29.80,180.00,10.00,0.00,30.16,1015.70,10.00,20.00,SCT,M,M,M,12000.00,M,M,M,M,M,M,M,M,M,M,75.90,KEKO 120456Z AUTO 18010G20KT 10SM SCT120 24/06 A3016 RMK AO2 SLP157 T02440056,M
LSV,2022-09-12 04:56,-115.0343,36.2362,570.00,85.00,51.00,30.99,340.00,5.00,0.00,29.94,1011.30,10.00,M,FEW,M,M,M,14000.00,M,M,M,M,M,M,M,M,M,M,83.06,KLSV 120456Z AUTO 34005KT 10SM FEW140 30/11 A2994 RMK AO2 SLP113 T02950106 $,M
NFL,2022-09-12 04:56,-118.7010,39.4166,1199.00,75.00,51.00,43.14,0.00,0.00,0.00,30.06,1014.70,10.00,M,CLR,M,M,M,M,M,M,M,M,M,M,M,M,M,M,75.00,KNFL 120456Z AUTO 00000KT 10SM CLR 24/11 A3006 RMK AO2 SLP147 T02390106,M
LAS,2022-09-12 04:56,-115.1634,36.0719,663.00,88.00,51.00,28.25,280.00,6.00,0.00,29.98,1012.50,10.00,M,FEW,FEW,M,M,14000.00,22000.00,M,M,M,M,M,M,M,M,M,85.45,KLAS 120456Z 28006KT 10SM FEW140 FEW220 31/11 A2998 RMK AO2 LTG DSNT E AND S SLP125 T03110106,M
WMC,2022-09-12 04:56,-117.8072,40.9019,1315.00,81.00,45.00,28.15,240.00,15.00,0.00,30.09,1013.50,1.75,25.00,BKN,M,M,M,2000.00,M,M,M,HZ,M,M,M,M,M,M,79.68,KWMC 120456Z AUTO 24015G25KT 1 3/4SM HZ BKN020 27/07 A3009 RMK AO2 SLP135 T02720072 $,M
INS,2022-09-12 04:56,-115.6733,36.5872,955.00,80.60,48.00,31.94,240.00,4.00,0.00,30.06,1013.20,10.00,M,CLR,M,M,M,M,M,M,M,M,M,M,M,M,M,M,79.69,KINS 120456Z AUTO 24004KT 10SM CLR 27/09 A3006 RMK AO2 SLP132 T02700089 $,M
HND,2022-09-12 05:04,-115.1344,35.9729,742.79,84.20,53.60,34.97,170.00,26.00,T,30.02,M,9.00,39.00,BKN,M,M,M,10000.00,M,M,M,-TSRA,M,M,M,39.00,170.00,2022-09-12 05:04,82.76,KHND 120504Z AUTO 17026G39KT 9SM -TSRA BKN100 29/12 A3002 RMK AO2 PK WND 17039/0504 LTG DSNT NE TSE0459B04RAB04 P0000,M
WMC,2022-09-12 05:08,-117.8072,40.9019,1315.00,80.00,46.00,30.11,230.00,11.00,0.00,30.09,M,2.50,22.00,BKN,M,M,M,2200.00,M,M,M,HZ,M,M,M,M,M,M,79.26,KWMC 120508Z AUTO 23011G22KT 2 1/2SM HZ BKN022 27/08 A3009 RMK AO2 T02670078 $,M
LAS,2022-09-12 05:09,-115.1634,36.0719,663.00,88.00,50.00,27.12,M,4.00,0.00,29.98,M,10.00,M,FEW,SCT,M,M,12000.00,22000.00,M,M,VCTS,M,M,M,M,M,M,85.28,KLAS 120509Z VRB04KT 10SM VCTS FEW120CB SCT220 31/10 A2998 RMK AO2 LTG DSNT NE AND E OCNL LTGIC VC NE-E TSB05 TS VC NE-E T03110100,M
CXP,2022-09-12 05:15,-119.7326,39.1923,1431.00,69.80,41.00,35.09,0.00,0.00,0.00,30.18,M,2.00,M,OVC,M,M,M,2900.00,M,M,M,HZ,M,M,M,M,M,M,69.80,KCXP 120515Z AUTO 00000KT 2SM HZ OVC029 21/05 A3018 RMK AO2,M
TMT,2022-09-12 05:15,-117.1971,39.4643,1749.34,M,M,M,270.00,5.00,0.00,30.24,M,10.00,M,CLR,M,M,M,M,M,M,M,M,M,M,M,M,M,M,M,KTMT 120515Z AUTO 27005KT 10SM CLR A3024 RMK AO2,M
HTH,2022-09-12 05:15,-118.6315,38.5448,1282.89,75.20,44.60,33.57,150.00,8.00,0.00,30.10,M,10.00,M,CLR,M,M,M,M,M,M,M,M,M,M,M,M,M,M,75.20,KHTH 120515Z AUTO 15008KT 10SM CLR 24/07 A3010 RMK A01,M
BAM,2022-09-12 05:15,-116.8743,40.5990,1382.36,78.80,41.00,25.95,140.00,12.00,0.00,30.14,M,10.00,16.00,BKN,M,M,M,12000.00,M,M,M,M,M,M,M,M,M,M,78.80,KBAM 120515Z AUTO 14012G16KT 10SM BKN120 26/05 A3014 RMK AO1,M
MEV,2022-09-12 05:15,-119.7500,38.9963,1441.42,66.20,41.00,39.72,0.00,0.00,0.00,30.17,M,2.00,M,OVC,M,M,M,2400.00,M,M,M,HZ,M,M,M,M,M,M,66.20,KMEV 120515Z AUTO 00000KT 2SM HZ OVC024 19/05 A3017 RMK AO2,M
RTS,2022-09-12 05:15,-119.8764,39.6682,1539.00,71.60,41.00,33.00,290.00,13.00,0.00,30.20,M,10.00,M,CLR,M,M,M,M,M,M,M,M,M,M,M,M,M,M,71.60,KRTS 120515Z AUTO 29013KT 10SM CLR 22/05 A3020 RMK AO2,M
BVU,2022-09-12 05:15,-114.8611,35.9475,671.00,82.40,59.00,45.07,30.00,5.00,0.00,29.98,M,M,M,M,M,M,M,M,M,M,M,M,M,M,M,M,M,M,82.46,KBVU 120515Z AUTO 03005KT 28/15 A2998 RMK AO2 TSNO,M
WMC,2022-09-12 05:16,-117.8072,40.9019,1315.00,80.00,46.00,30.11,210.00,12.00,0.00,30.10,M,4.00,19.00,BKN,M,M,M,2600.00,M,M,M,HZ,M,M,M,M,M,M,79.26,KWMC 120516Z AUTO 21012G19KT 4SM HZ BKN026 27/08 A3010 RMK AO2 T02670078 $,M
LSV,2022-09-12 05:22,-115.0343,36.2362,570.00,86.00,51.80,30.90,130.00,32.00,0.00,29.95,1011.60,10.00,38.00,BKN,OVC,M,M,11000.00,13000.00,M,M,TS,M,M,M,M,M,M,83.87,KLSV 120522Z AUTO 13032G38KT 10SM TS BKN110 OVC130 30/11 A2995 RMK AO2 TSB22 SLP116 $,M
VGT,2022-09-12 05:24,-115.1933,36.2111,667.00,87.00,52.00,30.05,0.00,0.00,0.00,29.98,M,10.00,M,BKN,M,M,M,11000.00,M,M,M,VCTS,M,M,M,M,M,M,84.82,KVGT 120524Z AUTO 00000KT 10SM VCTS BKN110 31/11 A2998 RMK AO2 LTG DSNT E T03060111,M
LAS,2022-09-12 05:24,-115.1634,36.0719,663.00,86.00,51.00,30.11,190.00,9.00,0.00,29.99,M,10.00,19.00,BKN,OVC,M,M,10000.00,20000.00,M,M,TS,M,M,M,M,M,M,83.77,KLAS 120524Z 19009G19KT 10SM TS BKN100CB OVC200 30/11 A2999 RMK AO2 LTG DSNT NE OCNL LTGIC VC NE-E TSB05 TS VC NE-E T03000106,M
WMC,2022-09-12 05:29,-117.8072,40.9019,1315.00,80.00,41.00,24.86,170.00,6.00,0.00,30.10,M,7.00,17.00,SCT,M,M,M,3000.00,M,M,M,M,M,M,M,M,M,M,78.98,KWMC 120529Z AUTO 17006G17KT 7SM SCT030 27/05 A3010 RMK AO2 T02670050 $,M
LAS,2022-09-12 05:30,-115.1634,36.0719,663.00,85.00,57.00,38.69,260.00,8.00,T,29.98,M,10.00,20.00,FEW,FEW,BKN,OVC,5500.00,7500.00,10000.00,20000.00,-TSRA,M,M,M,M,M,M,83.99,KLAS 120530Z 26008G20KT 10SM -TSRA FEW055 FEW075 BKN100CB OVC200 29/14 A2998 RMK AO2 LTG DSNT NE OCNL LTGIC NE-E RAB27 TSB05 TS NE-E P0000 T02940139,M
LSV,2022-09-12 05:31,-115.0343,36.2362,570.00,86.00,59.00,40.14,160.00,15.00,0.00,29.98,1012.60,7.00,38.00,FEW,BKN,OVC,M,3800.00,10000.00,13000.00,M,TS,M,M,M,M,M,M,85.47,KLSV 120531Z AUTO 16015G38KT 7SM TS FEW038 BKN100 OVC130 30/15 A2998 RMK AO2 WSHFT 26 TSB22 PRESRR SLP126 $,M
LSV,2022-09-12 05:32,-115.0343,36.2362,570.00,86.00,59.00,40.14,170.00,11.00,0.00,29.98,1012.60,7.00,38.00,FEW,BKN,OVC,M,3800.00,10000.00,13000.00,M,-TSRA,M,M,M,M,M,M,85.47,KLSV 120532Z AUTO 17011G38KT 7SM -TSRA FEW038 BKN100 OVC130 30/15 A2998 RMK AO2 RAB31 TSB22 SLP126 $,M
RNO,2022-09-12 05:32,-119.7711,39.4839,1341.00,77.00,43.00,29.74,310.00,8.00,0.00,30.14,M,8.00,M,SCT,BKN,BKN,OVC,1500.00,4000.00,9000.00,18000.00,M,M,M,M,M,M,M,77.00,KRNO 120532Z 31008KT 8SM SCT015 BKN040 BKN090 OVC180 25/06 A3014 RMK AO2 FU SCT015 FU BKN040 T02500061,M
CXP,2022-09-12 05:35,-119.7326,39.1923,1431.00,68.00,41.00,37.32,0.00,0.00,0.00,30.18,M,2.00,M,BKN,M,M,M,2800.00,M,M,M,HZ,M,M,M,M,M,M,68.00,KCXP 120535Z AUTO 00000KT 2SM HZ BKN028 20/05 A3018 RMK AO2,M
BVU,2022-09-12 05:35,-114.8611,35.9475,671.00,80.60,59.00,47.79,280.00,5.00,0.00,29.99,M,M,M,M,M,M,M,M,M,M,M,M,M,M,M,M,M,M,81.11,KBVU 120535Z AUTO 28005KT 27/15 A2999 RMK AO2 TSNO,M
BAM,2022-09-12 05:35,-116.8743,40.5990,1382.36,80.60,46.40,30.07,160.00,20.00,0.00,30.14,M,10.00,32.00,SCT,M,M,M,12000.00,M,M,M,M,M,M,M,M,M,M,79.56,KBAM 120535Z AUTO 16020G32KT 10SM SCT120 27/08 A3014 RMK AO1,M
TMT,2022-09-12 05:35,-117.1971,39.4643,1749.34,M,M,M,280.00,4.00,0.00,30.24,M,10.00,M,CLR,M,M,M,M,M,M,M,M,M,M,M,M,M,M,M,KTMT 120535Z AUTO 28004KT 10SM CLR A3024 RMK AO2,M
MEV,2022-09-12 05:35,-119.7500,38.9963,1441.42,68.00,41.00,37.32,210.00,8.00,0.00,30.17,M,2.00,M,OVC,M,M,M,2200.00,M,M,M,HZ,M,M,M,M,M,M,68.00,KMEV 120535Z AUTO 21008KT 2SM HZ OVC022 20/05 A3017 RMK AO2,M
HTH,2022-09-12 05:35,-118.6315,38.5448,1282.89,75.20,42.80,31.34,140.00,9.00,0.00,30.10,M,10.00,M,CLR,M,M,M,M,M,M,M,M,M,M,M,M,M,M,75.20,KHTH 120535Z AUTO 14009KT 10SM CLR 24/06 A3010 RMK A01,M
RTS,2022-09-12 05:35,-119.8764,39.6682,1539.00,71.60,41.00,33.00,300.00,10.00,0.00,30.20,M,10.00,15.00,CLR,M,M,M,M,M,M,M,M,M,M,M,M,M,M,71.60,KRTS 120535Z AUTO 30010G15KT 10SM CLR 22/05 A3020 RMK AO2,M
LSV,2022-09-12 05:37,-115.0343,36.2362,570.00,84.20,55.40,37.35,330.00,18.00,0.00,29.94,1011.30,8.00,29.00,FEW,BKN,M,M,4500.00,10000.00,M,M,VCTS -RA,M,M,M,M,M,M,83.09,KLSV 120537Z AUTO 33018G29KT 8SM VCTS -RA FEW045 BKN100 29/13 A2994 RMK AO2 RAB31 TSB22E37 PRESFR SLP113 $,M
LSV,2022-09-12 05:39,-115.0343,36.2362,570.00,82.40,55.40,39.58,320.00,19.00,0.00,29.94,1011.30,9.00,29.00,FEW,BKN,M,M,4500.00,10000.00,M,M,VCTS -RA,M,M,M,M,M,M,81.75,KLSV 120539Z AUTO 32019G29KT 9SM VCTS -RA FEW045 BKN100 28/13 A2994 RMK AO2 WSHFT 35 RAB31 TSB22E37 SLP113 $,M
LAS,2022-09-12 05:43,-115.1634,36.0719,663.00,85.00,57.00,38.69,270.00,11.00,T,29.98,M,10.00,M,FEW,SCT,OVC,M,7500.00,10000.00,20000.00,M,M,M,M,M,M,M,M,83.99,KLAS 120543Z 27011KT 10SM FEW075 SCT100 OVC200 29/14 A2998 RMK AO2 LTG DSNT N AND NE RAB27E37 TSB05E39 TS DSIPTD VCSH CB DSNT N AND NE P0000 T02940139,M
VGT,2022-09-12 05:45,-115.1933,36.2111,667.00,90.00,51.00,26.52,40.00,3.00,0.00,29.98,M,10.00,M,BKN,M,M,M,11000.00,M,M,M,M,M,M,M,M,M,M,87.24,KVGT 120545Z AUTO 04003KT 10SM BKN110 32/11 A2998 RMK AO2 LTG DSNT NE T03220106,M
HND,2022-09-12 05:45,-115.1344,35.9729,742.79,78.80,64.40,61.36,M,6.00,0.18,30.03,M,10.00,M,CLR,M,M,M,M,M,M,M,M,M,M,M,39.00,170.00,2022-09-12 05:04,78.80,KHND 120545Z AUTO VRB06KT 10SM CLR 26/18 A3003 RMK AO2 PK WND 17039/0504 LTG DSNT N TSE0459B04E39RAB04E22 P0018,M
LOL,2022-09-12 05:53,-118.5701,40.0684,1192.43,78.00,47.00,33.26,50.00,8.00,0.00,30.06,1013.10,5.00,M,FEW,SCT,M,M,6000.00,10000.00,M,M,HZ,M,M,M,M,M,M,78.10,KLOL 120553Z AUTO 05008KT 5SM HZ FEW060 SCT100 26/08 A3006 RMK AO2 SLP131 60000 T02560083 10322 20250 58004,M
DRA,2022-09-12 05:53,-116.0278,36.6206,1009.00,76.00,52.00,43.28,50.00,5.00,0.00,30.07,1013.40,10.00,M,CLR,M,M,M,M,M,M,M,M,M,M,M,M,M,M,75.90,KDRA 120553Z AUTO 05005KT 10SM CLR 24/11 A3007 RMK AO2 SLP134 T02440111 10311 20244 50004 $,M
P68,2022-09-12 05:53,-116.0056,39.6014,1993.00,60.00,41.00,49.21,140.00,7.00,0.00,30.25,1015.80,M,M,M,M,M,M,M,M,M,M,M,M,M,M,M,M,M,60.10,KP68 120553Z AUTO 14007KT 16/05 A3025 RMK AO1 SLP158 T01560050 10294 20156 58002,M
VGT,2022-09-12 05:53,-115.1933,36.2111,667.00,90.00,51.00,26.52,300.00,3.00,0.00,29.98,1014.00,10.00,M,SCT,M,M,M,11000.00,M,M,M,M,M,M,M,M,M,M,87.24,KVGT 120553Z AUTO 30003KT 10SM SCT110 32/11 A2998 RMK AO2 LTG DSNT NE SLP140 T03220106 10361 20261 53008,M
ELY,2022-09-12 05:53,-114.8453,39.2950,1909.00,56.00,42.00,59.71,170.00,7.00,0.00,30.30,1016.10,10.00,M,CLR,M,M,M,M,M,M,M,M,M,M,M,M,M,M,55.90,KELY 120553Z AUTO 17007KT 10SM CLR 13/06 A3030 RMK AO2 SLP161 T01330056 10283 20128 53004 $,M
LSV,2022-09-12 05:54,-115.0343,36.2362,570.00,82.40,57.20,42.25,350.00,12.00,0.00,29.94,1011.30,10.00,16.00,FEW,SCT,BKN,M,4500.00,10000.00,15000.00,M,VCTS,M,M,M,M,M,M,82.08,KLSV 120554Z AUTO 35012G16KT 10SM VCTS FEW045 SCT100 BKN150 28/14 A2994 RMK AO2 RAB31E44DZB44E54 TSB22E37 SLP113 $,M
BAM,2022-09-12 05:55,-116.8743,40.5990,1382.36,80.60,44.60,28.08,200.00,11.00,0.00,30.14,M,10.00,28.00,SCT,M,M,M,12000.00,M,M,M,M,M,M,M,M,M,M,79.42,KBAM 120555Z AUTO 20011G28KT 10SM SCT120 27/07 A3014 RMK AO1,M
RTS,2022-09-12 05:55,-119.8764,39.6682,1539.00,69.80,41.00,35.09,270.00,8.00,0.00,30.20,M,10.00,M,CLR,M,M,M,M,M,M,M,M,M,M,M,M,M,M,69.80,KRTS 120555Z AUTO 27008KT 10SM CLR 21/05 A3020 RMK AO2,M
CXP,2022-09-12 05:55,-119.7326,39.1923,1431.00,66.20,41.00,39.72,0.00,0.00,0.00,30.18,M,2.00,M,BKN,BKN,M,M,2900.00,6500.00,M,M,HZ,M,M,M,M,M,M,66.20,KCXP 120555Z AUTO 00000KT 2SM HZ BKN029 BKN065 19/05 A3018 RMK AO2,M
RNO,2022-09-12 05:55,-119.7711,39.4839,1341.00,76.00,44.00,32.17,300.00,7.00,0.00,30.14,1014.90,8.00,M,SCT,SCT,BKN,BKN,1500.00,4000.00,6000.00,13000.00,M,M,M,M,M,M,M,75.90,KRNO 120555Z 30007KT 8SM SCT015 SCT040 BKN060 BKN130 BKN180 24/07 A3014 RMK AO2 SLP149 FU SCT015 FU SCT040 FU BKN060 T02440067 10328 20244 51011,M
BVU,2022-09-12 05:55,-114.8611,35.9475,671.00,78.80,60.80,54.05,310.00,6.00,0.00,29.98,M,M,M,M,M,M,M,M,M,M,M,M,M,M,M,M,M,M,78.80,KBVU 120555Z AUTO 31006KT 26/16 A2998 RMK AO2 TSNO,M
TMT,2022-09-12 05:55,-117.1971,39.4643,1749.34,M,M,M,100.00,6.00,0.00,30.24,M,10.00,M,SCT,M,M,M,12000.00,M,M,M,M,M,M,M,M,M,M,M,KTMT 120555Z AUTO 10006KT 10SM SCT120 A3024 RMK AO2,M
HTH,2022-09-12 05:55,-118.6315,38.5448,1282.89,75.20,42.80,31.34,150.00,9.00,0.00,30.11,M,10.00,M,CLR,M,M,M,M,M,M,M,M,M,M,M,M,M,M,75.20,KHTH 120555Z AUTO 15009KT 10SM CLR 24/06 A3011 RMK A01,M
MEV,2022-09-12 05:55,-119.7500,38.9963,1441.42,68.00,39.20,34.80,180.00,7.00,0.00,30.17,M,2.00,M,BKN,OVC,M,M,2300.00,2700.00,M,M,HZ,M,M,M,M,M,M,68.00,KMEV 120555Z AUTO 18007KT 2SM HZ BKN023 OVC027 20/04 A3017 RMK AO2,M
INS,2022-09-12 05:56,-115.6733,36.5872,955.00,78.30,46.80,32.92,240.00,5.00,0.00,30.06,1013.20,10.00,M,CLR,M,M,M,M,M,M,M,M,M,M,M,M,M,M,78.30,KINS 120556Z AUTO 24005KT 10SM CLR 26/08 A3006 RMK AO2 SLP132 T02570082 10326 20251 51006 $,M
EKO,2022-09-12 05:56,-115.7860,40.8242,1367.00,72.00,43.00,35.16,270.00,6.00,0.00,30.18,1016.00,10.00,M,CLR,M,M,M,M,M,M,M,M,M,M,M,27.00,160.00,2022-09-12 05:08,72.00,KEKO 120556Z AUTO 27006KT 10SM CLR 22/06 A3018 RMK AO2 PK WND 16027/0508 SLP160 T02220061 10328 20222 51018,M
NFL,2022-09-12 05:56,-118.7010,39.4166,1199.00,74.00,50.00,42.97,280.00,5.00,0.00,30.07,1014.90,10.00,M,CLR,M,M,M,M,M,M,M,M,M,M,M,M,M,M,73.90,KNFL 120556Z AUTO 28005KT 10SM CLR 23/10 A3007 RMK AO2 SLP149 T02330100 10328 20228 51006,M
TPH,2022-09-12 05:56,-117.0904,38.0505,1654.00,67.00,46.00,46.94,0.00,0.00,0.00,30.23,1016.40,10.00,M,CLR,M,M,M,M,M,M,M,M,M,M,M,M,M,M,66.90,KTPH 120556Z AUTO 00000KT 10SM CLR 19/08 A3023 RMK AO2 SLP164 T01940078 10283 20189 50009,M
HND,2022-09-12 05:56,-115.1344,35.9729,742.79,78.00,62.00,57.92,0.00,0.00,0.18,30.03,1015.70,10.00,M,CLR,M,M,M,M,M,M,M,M,M,M,M,39.00,170.00,2022-09-12 05:04,78.10,KHND 120556Z AUTO 00000KT 10SM CLR 26/17 A3003 RMK AO2 PK WND 17039/0504 LTG DSNT N TSE0459B04E39RAB04E22 SLP157 P0018 60018 T02560167 10344 20256 51003,M
LAS,2022-09-12 05:56,-115.1634,36.0719,663.00,84.00,58.00,41.14,280.00,7.00,T,29.99,1012.80,10.00,M,FEW,SCT,BKN,M,7500.00,11000.00,20000.00,M,M,M,M,M,M,M,M,83.47,KLAS 120556Z 28007KT 10SM FEW075 SCT110 BKN200 29/14 A2999 RMK AO2 LTG DSNT N SLP128 RAB27E37 TSB05E39 VCSH CB DSNT N-NE P0000 60000 T02890144 10350 20283 51008,M
WMC,2022-09-12 05:56,-117.8072,40.9019,1315.00,81.00,40.00,23.13,70.00,3.00,0.00,30.10,1013.70,5.00,M,CLR,M,M,M,M,M,M,M,HZ,M,M,M,M,M,M,79.37,KWMC 120556Z AUTO 07003KT 5SM HZ CLR 27/04 A3010 RMK AO2 SLP137 T02720044 10339 20206 51011 $,M
LSV,2022-09-12 05:56,-115.0343,36.2362,570.00,83.00,57.00,41.00,340.00,9.00,0.01,29.94,1011.30,10.00,16.00,FEW,SCT,BKN,M,4500.00,10000.00,15000.00,M,VCTS,M,M,M,38.00,130.00,2022-09-12 05:22,82.56,KLSV 120556Z AUTO 34009G16KT 10SM VCTS FEW045 SCT100 BKN150 28/14 A2994 RMK AO2 PK WND 13038/22 RAB31E44DZB44E54 TSB22E37 SLP113 P0001 60001 T02840139 10370 20278 50003 $,M
BVU,2022-09-12 06:15,-114.8611,35.9475,671.00,78.80,59.00,50.69,0.00,0.00,0.00,29.98,M,M,M,M,M,M,M,M,M,M,M,M,M,M,M,M,M,M,78.80,KBVU 120615Z AUTO 00000KT 26/15 A2998 RMK AO2 TSNO,M
TMT,2022-09-12 06:15,-117.1971,39.4643,1749.34,M,M,M,90.00,5.00,0.00,30.24,M,10.00,M,BKN,M,M,M,12000.00,M,M,M,M,M,M,M,M,M,M,M,KTMT 120615Z AUTO 09005KT 10SM BKN120 A3024 RMK AO2,M
HTH,2022-09-12 06:15,-118.6315,38.5448,1282.89,73.40,42.80,33.29,120.00,10.00,0.00,30.11,M,10.00,M,CLR,M,M,M,M,M,M,M,M,M,M,M,M,M,M,73.40,KHTH 120615Z AUTO 12010KT 10SM CLR 23/06 A3011 RMK A01,M
BAM,2022-09-12 06:15,-116.8743,40.5990,1382.36,80.60,44.60,28.08,170.00,25.00,0.00,30.14,M,10.00,33.00,CLR,M,M,M,M,M,M,M,M,M,M,M,M,M,M,79.42,KBAM 120615Z AUTO 17025G33KT 10SM CLR 27/07 A3014 RMK AO1,M
MEV,2022-09-12 06:15,-119.7500,38.9963,1441.42,64.40,41.00,42.28,120.00,9.00,0.00,30.17,M,2.50,M,BKN,OVC,M,M,2100.00,2700.00,M,M,HZ,M,M,M,M,M,M,64.40,KMEV 120615Z AUTO 12009KT 2 1/2SM HZ BKN021 OVC027 18/05 A3017 RMK AO2,M
RTS,2022-09-12 06:15,-119.8764,39.6682,1539.00,69.80,41.00,35.09,290.00,9.00,0.00,30.20,M,10.00,M,CLR,M,M,M,M,M,M,M,M,M,M,M,M,M,M,69.80,KRTS 120615Z AUTO 29009KT 10SM CLR 21/05 A3020 RMK AO2,M
CXP,2022-09-12 06:15,-119.7326,39.1923,1431.00,66.20,41.00,39.72,350.00,4.00,0.00,30.19,M,2.00,M,BKN,BKN,M,M,2900.00,6500.00,M,M,HZ,M,M,M,M,M,M,66.20,KCXP 120615Z AUTO 35004KT 2SM HZ BKN029 BKN065 19/05 A3019 RMK AO2,M
HTH,2022-09-12 06:35,-118.6315,38.5448,1282.89,73.40,44.60,35.66,130.00,15.00,0.00,30.11,M,10.00,M,CLR,M,M,M,M,M,M,M,M,M,M,M,M,M,M,73.40,KHTH 120635Z AUTO 13015KT 10SM CLR 23/07 A3011 RMK A01,M
BAM,2022-09-12 06:35,-116.8743,40.5990,1382.36,78.80,44.60,29.79,200.00,23.00,0.00,30.13,M,10.00,30.00,SCT,M,M,M,12000.00,M,M,M,M,M,M,M,M,M,M,78.80,KBAM 120635Z AUTO 20023G30KT 10SM SCT120 26/07 A3013 RMK AO1,M
MEV,2022-09-12 06:35,-119.7500,38.9963,1441.42,62.60,41.00,45.04,120.00,7.00,0.00,30.17,M,2.00,M,M,M,M,M,M,M,M,M,HZ,M,M,M,M,M,M,62.60,KMEV 120635Z AUTO 12007KT 2SM HZ 17/05 A3017 RMK AO2,M
RTS,2022-09-12 06:35,-119.8764,39.6682,1539.00,68.00,41.00,37.32,300.00,6.00,0.00,30.20,M,10.00,M,CLR,M,M,M,M,M,M,M,M,M,M,M,M,M,M,68.00,KRTS 120635Z AUTO 30006KT 10SM CLR 20/05 A3020 RMK AO2,M
CXP,2022-09-12 06:35,-119.7326,39.1923,1431.00,66.20,41.00,39.72,M,3.00,0.00,30.19,M,2.00,M,BKN,M,M,M,2900.00,M,M,M,HZ,M,M,M,M,M,M,66.20,KCXP 120635Z AUTO VRB03KT 2SM HZ BKN029 19/05 A3019 RMK AO2,M
TMT,2022-09-12 06:35,-117.1971,39.4643,1749.34,M,M,M,130.00,3.00,0.00,30.24,M,10.00,M,SCT,M,M,M,11000.00,M,M,M,M,M,M,M,M,M,M,M,KTMT 120635Z AUTO 13003KT 10SM SCT110 A3024 RMK AO2,M
BVU,2022-09-12 06:35,-114.8611,35.9475,671.00,77.00,62.60,61.13,0.00,0.00,0.00,29.98,M,M,M,M,M,M,M,M,M,M,M,M,M,M,M,M,M,M,77.00,KBVU 120635Z AUTO 00000KT 25/17 A2998 RMK AO2 TSNO,M
P68,2022-09-12 06:53,-116.0056,39.6014,1993.00,59.00,40.00,49.04,190.00,4.00,0.00,30.25,1015.70,M,M,M,M,M,M,M,M,M,M,M,M,M,M,M,M,M,59.00,KP68 120653Z AUTO 19004KT 15/04 A3025 RMK AO1 SLP157 T01500044,M
LOL,2022-09-12 06:53,-118.5701,40.0684,1192.43,75.00,51.00,43.14,280.00,11.00,T,30.07,1013.70,6.00,M,FEW,OVC,M,M,7000.00,10000.00,M,M,-RA,M,M,M,M,M,M,75.00,KLOL 120653Z AUTO 28011KT 6SM -RA FEW070 OVC100 24/11 A3007 RMK AO2 RAB47 SLP137 P0000 T02390106,M
VGT,2022-09-12 06:53,-115.1933,36.2111,667.00,87.00,51.00,29.07,290.00,8.00,0.00,29.97,1013.60,10.00,M,CLR,M,M,M,M,M,M,M,M,M,M,M,M,M,M,84.67,KVGT 120653Z AUTO 29008KT 10SM CLR 31/11 A2997 RMK AO2 LTG DSNT N SLP136 T03060106,M
DRA,2022-09-12 06:53,-116.0278,36.6206,1009.00,73.00,52.00,47.69,0.00,0.00,0.00,30.07,1013.40,10.00,M,CLR,M,M,M,M,M,M,M,M,M,M,M,M,M,M,73.00,KDRA 120653Z AUTO 00000KT 10SM CLR 23/11 A3007 RMK AO2 SLP134 T02280111 $,M
ELY,2022-09-12 06:53,-114.8453,39.2950,1909.00,54.00,42.00,63.98,200.00,6.00,0.00,30.30,1016.10,10.00,M,CLR,M,M,M,M,M,M,M,M,M,M,M,M,M,M,54.00,KELY 120653Z AUTO 20006KT 10SM CLR 12/06 A3030 RMK AO2 SLP161 T01220056 403060089 $,M
BVU,2022-09-12 06:55,-114.8611,35.9475,671.00,77.00,62.60,61.13,0.00,0.00,0.00,29.98,M,M,M,M,M,M,M,M,M,M,M,M,M,M,M,M,M,M,77.00,KBVU 120655Z AUTO 00000KT 25/17 A2998 RMK AO2 TSNO,M
CXP,2022-09-12 06:55,-119.7326,39.1923,1431.00,66.20,41.00,39.72,0.00,0.00,0.00,30.19,M,2.00,M,BKN,M,M,M,2800.00,M,M,M,HZ,M,M,M,M,M,M,66.20,KCXP 120655Z AUTO 00000KT 2SM HZ BKN028 19/05 A3019 RMK AO2,M
RTS,2022-09-12 06:55,-119.8764,39.6682,1539.00,68.00,41.00,37.32,300.00,7.00,0.00,30.20,M,10.00,M,CLR,M,M,M,M,M,M,M,M,M,M,M,M,M,M,68.00,KRTS 120655Z AUTO 30007KT 10SM CLR 20/05 A3020 RMK AO2,M
MEV,2022-09-12 06:55,-119.7500,38.9963,1441.42,60.80,39.20,44.76,110.00,5.00,0.00,30.18,M,2.00,M,M,M,M,M,M,M,M,M,HZ,M,M,M,M,M,M,60.80,KMEV 120655Z AUTO 11005KT 2SM HZ 16/04 A3018 RMK AO2,M
BAM,2022-09-12 06:55,-116.8743,40.5990,1382.36,78.80,44.60,29.79,200.00,16.00,0.00,30.13,M,10.00,26.00,SCT,M,M,M,12000.00,M,M,M,M,M,M,M,M,M,M,78.80,KBAM 120655Z AUTO 20016G26KT 10SM SCT120 26/07 A3013 RMK AO1,M
HTH,2022-09-12 06:55,-118.6315,38.5448,1282.89,73.40,44.60,35.66,150.00,17.00,0.00,30.11,M,10.00,M,CLR,M,M,M,M,M,M,M,M,M,M,M,M,M,M,73.40,KHTH 120655Z AUTO 15017KT 10SM CLR 23/07 A3011 RMK A01,M
TMT,2022-09-12 06:55,-117.1971,39.4643,1749.34,M,M,M,0.00,0.00,0.00,30.24,M,10.00,M,BKN,M,M,M,10000.00,M,M,M,M,M,M,M,M,M,M,M,KTMT 120655Z AUTO 00000KT 10SM BKN100 A3024 RMK AO2,M
RNO,2022-09-12 06:55,-119.7711,39.4839,1341.00,75.00,44.00,33.16,310.00,4.00,0.00,30.15,1014.70,10.00,M,FEW,SCT,BKN,BKN,2000.00,5000.00,10000.00,15000.00,M,M,M,M,M,M,M,75.00,KRNO 120655Z 31004KT 10SM FEW020 SCT050 BKN100 BKN150 24/07 A3015 RMK AO2 SLP147 FU FEW020 FU SCT050 T02390067,M
WMC,2022-09-12 06:56,-117.8072,40.9019,1315.00,77.00,44.00,31.02,320.00,4.00,0.00,30.10,1013.40,6.00,M,CLR,M,M,M,M,M,M,M,HZ,M,M,M,M,M,M,77.00,KWMC 120656Z AUTO 32004KT 6SM HZ CLR 25/07 A3010 RMK AO2 SLP134 T02500067 $,M
HND,2022-09-12 06:56,-115.1344,35.9729,742.79,76.00,67.00,73.68,160.00,8.00,0.00,30.02,1015.50,10.00,M,CLR,M,M,M,M,M,M,M,M,M,M,M,M,M,M,75.90,KHND 120656Z AUTO 16008KT 10SM CLR 24/19 A3002 RMK AO2 SLP155 T02440194 403500200,M
NFL,2022-09-12 06:56,-118.7010,39.4166,1199.00,71.00,51.00,49.20,180.00,6.00,0.00,30.07,1015.10,10.00,M,BKN,M,M,M,11000.00,M,M,M,M,M,M,M,M,M,M,71.10,KNFL 120656Z AUTO 18006KT 10SM BKN110 22/11 A3007 RMK AO2 SLP151 T02170106,M
INS,2022-09-12 06:56,-115.6733,36.5872,955.00,76.00,47.80,37.01,160.00,3.00,0.00,30.09,1014.20,10.00,M,SCT,BKN,M,M,10000.00,14000.00,M,M,M,M,M,M,M,M,M,75.90,KINS 120656Z AUTO 16003KT 10SM SCT100 BKN140 24/09 A3009 RMK AO2 LTG DSNT E SLP142 T02440088 $,M
LAS,2022-09-12 06:56,-115.1634,36.0719,663.00,82.00,57.00,42.49,280.00,5.00,0.00,29.98,1012.60,10.00,M,FEW,SCT,M,M,11000.00,20000.00,M,M,M,M,M,M,M,M,M,81.75,KLAS 120656Z 28005KT 10SM FEW110 SCT200 28/14 A2998 RMK AO2 SLP126 ACC DSNT S T02780139,M
TPH,2022-09-12 06:56,-117.0904,38.0505,1654.00,62.00,48.00,59.86,330.00,3.00,0.00,30.23,1016.80,10.00,M,CLR,M,M,M,M,M,M,M,M,M,M,M,M,M,M,62.10,KTPH 120656Z AUTO 33003KT 10SM CLR 17/09 A3023 RMK AO2 SLP168 T01670089,M
LSV,2022-09-12 06:56,-115.0343,36.2362,570.00,82.40,58.30,43.95,180.00,4.00,0.00,29.94,1011.20,10.00,M,CLR,M,M,M,M,M,M,M,M,M,M,M,M,M,M,82.31,KLSV 120656Z AUTO 18004KT 10SM CLR 28/15 A2994 RMK AO2 SLP112 T02800146 $,M
EKO,2022-09-12 06:56,-115.7860,40.8242,1367.00,68.00,41.00,37.32,350.00,3.00,0.00,30.17,1015.60,10.00,M,CLR,M,M,M,M,M,M,M,M,M,M,M,M,M,M,68.00,KEKO 120656Z AUTO 35003KT 10SM CLR 20/05 A3017 RMK AO2 SLP156 T02000050,M
INS,2022-09-12 07:12,-115.6733,36.5872,955.00,82.40,44.60,26.49,130.00,8.00,0.00,30.07,1013.20,10.00,M,FEW,SCT,BKN,BKN,2700.00,6000.00,10000.00,11000.00,-RA,M,M,M,M,M,M,80.50,KINS 120712Z AUTO 13008KT 10SM -RA FEW027 SCT060 BKN100 BKN110 28/07 A3007 RMK AO2 RAB12 PRESFR SLP132 $,M
LOL,2022-09-12 07:12,-118.5701,40.0684,1192.43,74.00,54.00,49.79,320.00,11.00,T,30.07,M,9.00,M,FEW,SCT,OVC,M,4400.00,7500.00,11000.00,M,-RA,M,M,M,M,M,M,73.90,KLOL 120712Z AUTO 32011KT 9SM -RA FEW044 SCT075 OVC110 23/12 A3007 RMK AO2 WSHFT 0652 P0000 T02330122,M
HTH,2022-09-12 07:15,-118.6315,38.5448,1282.89,73.40,44.60,35.66,150.00,14.00,0.00,30.12,M,10.00,M,CLR,M,M,M,M,M,M,M,M,M,M,M,M,M,M,73.40,KHTH 120715Z AUTO 15014KT 10SM CLR 23/07 A3012 RMK A01,M
CXP,2022-09-12 07:15,-119.7326,39.1923,1431.00,66.20,41.00,39.72,0.00,0.00,0.00,30.19,M,2.00,M,BKN,M,M,M,2800.00,M,M,M,HZ,M,M,M,M,M,M,66.20,KCXP 120715Z AUTO 00000KT 2SM HZ BKN028 19/05 A3019 RMK AO2,M
BVU,2022-09-12 07:15,-114.8611,35.9475,671.00,78.80,60.80,54.05,310.00,4.00,0.00,29.98,M,M,M,M,M,M,M,M,M,M,M,M,M,M,M,M,M,M,78.80,KBVU 120715Z AUTO 31004KT 26/16 A2998 RMK AO2 TSNO,M
MEV,2022-09-12 07:15,-119.7500,38.9963,1441.42,59.00,41.00,51.18,150.00,4.00,0.00,30.17,M,2.00,M,M,M,M,M,M,M,M,M,HZ,M,M,M,M,M,M,59.00,KMEV 120715Z AUTO 15004KT 2SM HZ 15/05 A3017 RMK AO2,M
RTS,2022-09-12 07:15,-119.8764,39.6682,1539.00,68.00,41.00,37.32,290.00,6.00,0.00,30.20,M,10.00,11.00,FEW,M,M,M,12000.00,M,M,M,M,M,M,M,M,M,M,68.00,KRTS 120715Z AUTO 29006G11KT 10SM FEW120 20/05 A3020 RMK AO2,M
TMT,2022-09-12 07:15,-117.1971,39.4643,1749.34,M,M,M,0.00,0.00,0.00,30.25,M,10.00,M,SCT,M,M,M,10000.00,M,M,M,M,M,M,M,M,M,M,M,KTMT 120715Z AUTO 00000KT 10SM SCT100 A3025 RMK AO2,M
BAM,2022-09-12 07:15,-116.8743,40.5990,1382.36,80.60,41.00,24.46,180.00,8.00,0.00,30.12,M,10.00,M,CLR,M,M,M,M,M,M,M,M,M,M,M,M,M,M,79.20,KBAM 120715Z AUTO 18008KT 10SM CLR 27/05 A3012 RMK AO1,M
INS,2022-09-12 07:24,-115.6733,36.5872,955.00,80.60,48.20,32.18,240.00,5.00,0.00,30.03,1011.80,10.00,M,SCT,BKN,OVC,M,6000.00,10000.00,12000.00,M,-RA,M,M,M,M,M,M,79.71,KINS 120724Z AUTO 24005KT 10SM -RA SCT060 BKN100 OVC120 27/09 A3003 RMK AO2 RAB12E13DZB13E15RAB15 PRESFR SLP118 $,M
INS,2022-09-12 07:34,-115.6733,36.5872,955.00,78.80,53.60,41.69,260.00,8.00,0.00,30.04,1012.30,10.00,M,FEW,SCT,BKN,BKN,3100.00,6000.00,11000.00,18000.00,M,M,M,M,M,M,M,78.80,KINS 120734Z AUTO 26008KT 10SM FEW031 SCT060 BKN110 BKN180 26/12 A3004 RMK AO2 RAB12E13DZB13E15RAB15E30DZB30E34 SLP123 $,M
MEV,2022-09-12 07:35,-119.7500,38.9963,1441.42,57.20,41.00,54.60,130.00,7.00,0.00,30.17,M,2.00,M,M,M,M,M,M,M,M,M,HZ,M,M,M,M,M,M,57.20,KMEV 120735Z AUTO 13007KT 2SM HZ 14/05 A3017 RMK AO2,M
BVU,2022-09-12 07:35,-114.8611,35.9475,671.00,78.80,59.00,50.69,0.00,0.00,0.00,29.96,M,M,M,M,M,M,M,M,M,M,M,M,M,M,M,M,M,M,78.80,KBVU 120735Z AUTO 00000KT 26/15 A2996 RMK AO2 TSNO,M
CXP,2022-09-12 07:35,-119.7326,39.1923,1431.00,64.40,41.00,42.28,0.00,0.00,0.00,30.18,M,1.75,M,OVC,M,M,M,2700.00,M,M,M,HZ,M,M,M,M,M,M,64.40,KCXP 120735Z AUTO 00000KT 1 3/4SM HZ OVC027 18/05 A3018 RMK AO2,M
RTS,2022-09-12 07:35,-119.8764,39.6682,1539.00,66.20,41.00,39.72,280.00,7.00,0.00,30.19,M,10.00,M,FEW,M,M,M,12000.00,M,M,M,M,M,M,M,M,M,M,66.20,KRTS 120735Z AUTO 28007KT 10SM FEW120 19/05 A3019 RMK AO2,M
BAM,2022-09-12 07:35,-116.8743,40.5990,1382.36,80.60,37.40,21.25,230.00,6.00,0.00,30.10,M,10.00,M,CLR,M,M,M,M,M,M,M,M,M,M,M,M,M,M,79.02,KBAM 120735Z AUTO 23006KT 10SM CLR 27/03 A3010 RMK AO1,M
HTH,2022-09-12 07:35,-118.6315,38.5448,1282.89,73.40,42.80,33.29,160.00,12.00,0.00,30.11,M,10.00,M,CLR,M,M,M,M,M,M,M,M,M,M,M,M,M,M,73.40,KHTH 120735Z AUTO 16012KT 10SM CLR 23/06 A3011 RMK A01,M
TMT,2022-09-12 07:35,-117.1971,39.4643,1749.34,M,M,M,0.00,0.00,0.00,30.24,M,10.00,M,CLR,M,M,M,M,M,M,M,M,M,M,M,M,M,M,M,KTMT 120735Z AUTO 00000KT 10SM CLR A3024 RMK AO2,M
P68,2022-09-12 07:53,-116.0056,39.6014,1993.00,57.00,38.00,48.73,190.00,6.00,0.00,30.24,1015.40,M,M,M,M,M,M,M,M,M,M,M,M,M,M,M,M,M,57.00,KP68 120753Z AUTO 19006KT 14/03 A3024 RMK AO1 SLP154 T01390033 403060100,M
ELY,2022-09-12 07:53,-114.8453,39.2950,1909.00,53.00,41.00,63.38,170.00,9.00,0.00,30.28,1015.50,10.00,M,CLR,M,M,M,M,M,M,M,M,M,M,M,M,M,M,53.10,KELY 120753Z AUTO 17009KT 10SM CLR 12/05 A3028 RMK AO2 SLP155 T01170050 $,M
DRA,2022-09-12 07:53,-116.0278,36.6206,1009.00,74.00,50.00,42.97,150.00,4.00,0.00,30.06,1012.90,10.00,M,SCT,M,M,M,11000.00,M,M,M,M,M,M,M,M,M,M,73.90,KDRA 120753Z AUTO 15004KT 10SM SCT110 23/10 A3006 RMK AO2 SLP129 T02330100 403390178 $,M
LOL,2022-09-12 07:53,-118.5701,40.0684,1192.43,74.00,53.00,48.18,100.00,17.00,T,30.09,1014.30,10.00,21.00,OVC,M,M,M,11000.00,M,M,M,-RA,M,M,M,M,M,M,73.90,KLOL 120753Z AUTO 10017G21KT 10SM -RA OVC110 23/12 A3009 RMK AO2 WSHFT 0652 RAE20B47 SLP143 P0000 T02330117 403330117,M
VGT,2022-09-12 07:53,-115.1933,36.2111,667.00,83.00,51.00,33.27,310.00,9.00,0.00,29.95,1013.10,10.00,M,CLR,M,M,M,M,M,M,M,M,M,M,M,M,M,M,81.45,KVGT 120753Z AUTO 31009KT 10SM CLR 28/11 A2995 RMK AO2 SLP131 T02830106 403610228,M
CXP,2022-09-12 07:55,-119.7326,39.1923,1431.00,66.20,41.00,39.72,0.00,0.00,0.00,30.18,M,1.75,M,OVC,M,M,M,2600.00,M,M,M,HZ,M,M,M,M,M,M,66.20,KCXP 120755Z AUTO 00000KT 1 3/4SM HZ OVC026 19/05 A3018 RMK AO2,M
RTS,2022-09-12 07:55,-119.8764,39.6682,1539.00,66.20,41.00,39.72,300.00,6.00,0.00,30.19,M,10.00,M,CLR,M,M,M,M,M,M,M,M,M,M,M,M,M,M,66.20,KRTS 120755Z AUTO 30006KT 10SM CLR 19/05 A3019 RMK AO2,M
MEV,2022-09-12 07:55,-119.7500,38.9963,1441.42,57.20,42.80,58.52,130.00,3.00,0.00,30.17,M,2.00,M,BKN,BKN,OVC,M,1900.00,2500.00,11000.00,M,HZ,M,M,M,M,M,M,57.20,KMEV 120755Z AUTO 13003KT 2SM HZ BKN019 BKN025 OVC110 14/06 A3017 RMK AO2,M
HTH,2022-09-12 07:55,-118.6315,38.5448,1282.89,73.40,42.80,33.29,200.00,4.00,0.00,30.11,M,10.00,M,CLR,M,M,M,M,M,M,M,M,M,M,M,M,M,M,73.40,KHTH 120755Z AUTO 20004KT 10SM CLR 23/06 A3011 RMK A01,M
BAM,2022-09-12 07:55,-116.8743,40.5990,1382.36,78.80,37.40,22.54,0.00,0.00,0.00,30.09,M,10.00,M,CLR,M,M,M,M,M,M,M,M,M,M,M,M,M,M,78.80,KBAM 120755Z AUTO 00000KT 10SM CLR 26/03 A3009 RMK AO1,M
TMT,2022-09-12 07:55,-117.1971,39.4643,1749.34,M,M,M,180.00,5.00,0.00,30.24,M,10.00,M,CLR,M,M,M,M,M,M,M,M,M,M,M,M,M,M,M,KTMT 120755Z AUTO 18005KT 10SM CLR A3024 RMK AO2,M
RNO,2022-09-12 07:55,-119.7711,39.4839,1341.00,71.00,46.00,40.65,180.00,4.00,0.00,30.14,1014.60,2.50,M,FEW,SCT,BKN,BKN,2000.00,5000.00,11000.00,16000.00,FU,M,M,M,M,M,M,71.10,KRNO 120755Z 18004KT 2 1/2SM FU FEW020 SCT050 BKN110 BKN160 22/08 A3014 RMK AO2 TWR VIS 3 SLP146 FU FEW020 FU SCT050 FU ALQDS T02170078 403330167 $,M
BVU,2022-09-12 07:55,-114.8611,35.9475,671.00,77.00,60.80,57.36,20.00,5.00,0.00,29.96,M,M,M,M,M,M,M,M,M,M,M,M,M,M,M,M,M,M,77.00,KBVU 120755Z AUTO 02005KT 25/16 A2996 RMK AO2 TSNO,M
HND,2022-09-12 07:56,-115.1344,35.9729,742.79,76.00,64.00,66.60,150.00,4.00,0.00,30.00,1014.60,10.00,M,CLR,M,M,M,M,M,M,M,M,M,M,M,M,M,M,75.90,KHND 120756Z AUTO 15004KT 10SM CLR 24/18 A3000 RMK AO2 SLP146 T02440178,M
LSV,2022-09-12 07:56,-115.0343,36.2362,570.00,81.70,54.30,38.90,310.00,5.00,0.00,29.93,1011.00,10.00,M,CLR,M,M,M,M,M,M,M,M,M,M,M,M,M,M,81.09,KLSV 120756Z AUTO 31005KT 10SM CLR 28/12 A2993 RMK AO2 SLP110 T02760124 403830208 $,M
INS,2022-09-12 07:56,-115.6733,36.5872,955.00,75.60,55.60,49.86,230.00,6.00,T,30.04,1012.30,10.00,M,FEW,SCT,M,M,18000.00,21000.00,M,M,M,M,M,M,M,M,M,75.60,KINS 120756Z AUTO 23006KT 10SM FEW180 SCT210 24/13 A3004 RMK AO2 RAB12E13DZB13E15RAB15E30DZB30E34 SLP123 P0000 T02420131 403360173 $,M
WMC,2022-09-12 07:56,-117.8072,40.9019,1315.00,73.00,44.00,35.46,180.00,5.00,0.00,30.11,1013.80,6.00,M,CLR,M,M,M,M,M,M,M,HZ,M,M,M,M,M,M,73.00,KWMC 120756Z AUTO 18005KT 6SM HZ CLR 23/07 A3011 RMK AO2 SLP138 T02280067 403500078 $,M
LAS,2022-09-12 07:56,-115.1634,36.0719,663.00,81.00,58.00,45.34,0.00,0.00,0.00,29.96,1011.80,10.00,M,FEW,M,M,M,11000.00,M,M,M,M,M,M,M,M,M,M,81.20,KLAS 120756Z 00000KT 10SM FEW110 27/14 A2996 RMK AO2 SLP118 ACC NW T02720144 403500233,M
EKO,2022-09-12 07:56,-115.7860,40.8242,1367.00,67.00,42.00,40.45,90.00,3.00,0.00,30.17,1015.40,10.00,M,CLR,M,M,M,M,M,M,M,M,M,M,M,M,M,M,66.90,KEKO 120756Z AUTO 09003KT 10SM CLR 19/06 A3017 RMK AO2 SLP154 T01940056 403330083,M
TPH,2022-09-12 07:56,-117.0904,38.0505,1654.00,62.00,47.00,57.43,10.00,5.00,0.00,30.23,1016.70,10.00,M,SCT,M,M,M,11000.00,M,M,M,M,M,M,M,M,M,M,62.10,KTPH 120756Z AUTO 01005KT 10SM SCT110 17/08 A3023 RMK AO2 SLP167 T01670083 402890139,M
NFL,2022-09-12 07:56,-118.7010,39.4166,1199.00,69.00,47.00,45.02,170.00,6.00,0.00,30.08,1015.20,4.00,M,SCT,M,M,M,11000.00,M,M,M,HZ,M,M,M,M,M,M,69.10,KNFL 120756Z AUTO 17006KT 4SM HZ SCT110 21/08 A3008 RMK AO2 SLP152 T02060083 403330139,M
BAM,2022-09-12 08:15,-116.8743,40.5990,1382.36,77.00,39.20,25.67,130.00,3.00,0.00,30.10,M,10.00,M,CLR,M,M,M,M,M,M,M,M,M,M,M,M,M,M,77.00,KBAM 120815Z AUTO 13003KT 10SM CLR 25/04 A3010 RMK AO1,M
MEV,2022-09-12 08:15,-119.7500,38.9963,1441.42,57.20,41.00,54.60,130.00,3.00,0.00,30.17,M,2.00,M,BKN,OVC,M,M,1800.00,2400.00,M,M,HZ,M,M,M,M,M,M,57.20,KMEV 120815Z AUTO 13003KT 2SM HZ BKN018 OVC024 14/05 A3017 RMK AO2,M
CXP,2022-09-12 08:15,-119.7326,39.1923,1431.00,64.40,41.00,42.28,0.00,0.00,0.00,30.18,M,1.75,M,BKN,M,M,M,2600.00,M,M,M,HZ,M,M,M,M,M,M,64.40,KCXP 120815Z AUTO 00000KT 1 3/4SM HZ BKN026 18/05 A3018 RMK AO2,M
TMT,2022-09-12 08:15,-117.1971,39.4643,1749.34,M,M,M,220.00,9.00,0.00,30.24,M,10.00,M,CLR,M,M,M,M,M,M,M,M,M,M,M,M,M,M,M,KTMT 120815Z AUTO 22009KT 10SM CLR A3024 RMK AO2,M
RTS,2022-09-12 08:15,-119.8764,39.6682,1539.00,66.20,41.00,39.72,290.00,4.00,0.00,30.19,M,10.00,M,CLR,M,M,M,M,M,M,M,M,M,M,M,M,M,M,66.20,KRTS 120815Z AUTO 29004KT 10SM CLR 19/05 A3019 RMK AO2,M
BVU,2022-09-12 08:15,-114.8611,35.9475,671.00,80.60,55.40,41.97,360.00,4.00,0.00,29.95,M,M,M,M,M,M,M,M,M,M,M,M,M,M,M,M,M,M,80.53,KBVU 120815Z AUTO 36004KT 27/13 A2995 RMK AO2 TSNO,M
HTH,2022-09-12 08:15,-118.6315,38.5448,1282.89,71.60,42.80,35.37,0.00,0.00,0.00,30.11,M,10.00,M,CLR,M,M,M,M,M,M,M,M,M,M,M,M,M,M,71.60,KHTH 120815Z AUTO 00000KT 10SM CLR 22/06 A3011 RMK A01,M
RNO,2022-09-12 08:27,-119.7711,39.4839,1341.00,73.00,45.00,36.70,270.00,3.00,0.00,30.14,M,3.00,M,FEW,SCT,BKN,BKN,2000.00,5000.00,12000.00,18000.00,FU,M,M,M,M,M,M,73.00,KRNO 120827Z 27003KT 3SM FU FEW020 SCT050 BKN120 BKN180 23/07 A3014 RMK AO2 SFC VIS 4 FU FEW020 FU SCT050 FU ALQDS T02280072 $,M
RNO,2022-09-12 08:33,-119.7711,39.4839,1341.00,73.00,45.00,36.70,260.00,3.00,0.00,30.14,M,9.00,M,FEW,SCT,BKN,BKN,2000.00,5000.00,12000.00,18000.00,M,M,M,M,M,M,M,73.00,KRNO 120833Z 26003KT 9SM FEW020 SCT050 BKN120 BKN180 23/07 A3014 RMK AO2 FU FEW020 FU SCT050 FU ALQDS T02280072 $,M
MEV,2022-09-12 08:35,-119.7500,38.9963,1441.42,57.20,42.80,58.52,140.00,6.00,0.00,30.16,M,2.00,M,BKN,OVC,M,M,1800.00,2400.00,M,M,HZ,M,M,M,M,M,M,57.20,KMEV 120835Z AUTO 14006KT 2SM HZ BKN018 OVC024 14/06 A3016 RMK AO2,M
TMT,2022-09-12 08:35,-117.1971,39.4643,1749.34,M,M,M,200.00,6.00,0.00,30.24,M,10.00,M,CLR,M,M,M,M,M,M,M,M,M,M,M,M,M,M,M,KTMT 120835Z AUTO 20006KT 10SM CLR A3024 RMK AO2,M
BVU,2022-09-12 08:35,-114.8611,35.9475,671.00,82.40,53.60,37.07,290.00,6.00,0.00,29.95,M,M,M,M,M,M,M,M,M,M,M,M,M,M,M,M,M,M,81.46,KBVU 120835Z AUTO 29006KT 28/12 A2995 RMK AO2 TSNO,M
CXP,2022-09-12 08:35,-119.7326,39.1923,1431.00,62.60,42.80,48.28,0.00,0.00,0.00,30.17,M,1.75,M,SCT,M,M,M,2600.00,M,M,M,HZ,M,M,M,M,M,M,62.60,KCXP 120835Z AUTO 00000KT 1 3/4SM HZ SCT026 17/06 A3017 RMK AO2,M
RTS,2022-09-12 08:35,-119.8764,39.6682,1539.00,64.40,41.00,42.28,280.00,6.00,0.00,30.19,M,10.00,M,CLR,M,M,M,M,M,M,M,M,M,M,M,M,M,M,64.40,KRTS 120835Z AUTO 28006KT 10SM CLR 18/05 A3019 RMK AO2,M
BAM,2022-09-12 08:35,-116.8743,40.5990,1382.36,73.40,39.20,28.96,180.00,6.00,0.00,30.10,M,10.00,M,CLR,M,M,M,M,M,M,M,M,M,M,M,M,M,M,73.40,KBAM 120835Z AUTO 18006KT 10SM CLR 23/04 A3010 RMK AO1,M
HTH,2022-09-12 08:35,-118.6315,38.5448,1282.89,71.60,41.00,33.00,200.00,7.00,0.00,30.11,M,10.00,M,CLR,M,M,M,M,M,M,M,M,M,M,M,M,M,M,71.60,KHTH 120835Z AUTO 20007KT 10SM CLR 22/05 A3011 RMK A01,M
NFL,2022-09-12 08:42,-118.7010,39.4166,1199.00,69.00,46.00,43.52,180.00,6.00,0.00,30.08,M,2.50,M,BKN,M,M,M,11000.00,M,M,M,HZ,M,M,M,M,M,M,69.10,KNFL 120842Z AUTO 18006KT 2 1/2SM HZ BKN110 21/08 A3008 RMK AO2 T02060078,M
VGT,2022-09-12 08:53,-115.1933,36.2111,667.00,84.00,51.00,32.10,320.00,9.00,0.00,29.93,1012.20,10.00,M,CLR,M,M,M,M,M,M,M,M,M,M,M,M,M,M,82.23,KVGT 120853Z AUTO 32009KT 10SM CLR 29/11 A2993 RMK AO2 SLP122 T02890106 58018,M
LOL,2022-09-12 08:53,-118.5701,40.0684,1192.43,74.00,52.00,46.27,30.00,11.00,T,30.06,1013.20,10.00,M,FEW,M,M,M,12000.00,M,M,M,M,M,M,M,M,M,M,73.90,KLOL 120853Z AUTO 03011KT 10SM FEW120 23/11 A3006 RMK AO2 RAE10 SLP132 P0000 60000 T02330111 50002,M
DRA,2022-09-12 08:53,-116.0278,36.6206,1009.00,71.00,52.00,50.86,0.00,0.00,0.00,30.04,1012.40,10.00,M,CLR,M,M,M,M,M,M,M,M,M,M,M,M,M,M,71.10,KDRA 120853Z AUTO 00000KT 10SM CLR 22/11 A3004 RMK AO2 SLP124 T02170111 58009 $,M
ELY,2022-09-12 08:53,-114.8453,39.2950,1909.00,51.00,40.00,65.38,170.00,9.00,0.00,30.27,1015.50,10.00,M,CLR,M,M,M,M,M,M,M,M,M,M,M,M,M,M,51.10,KELY 120853Z AUTO 17009KT 10SM CLR 11/04 A3027 RMK AO2 SLP155 T01060044 58007 $,M
P68,2022-09-12 08:53,-116.0056,39.6014,1993.00,57.00,37.00,47.04,160.00,6.00,0.00,30.22,1014.80,M,M,M,M,M,M,M,M,M,M,M,M,M,M,M,M,M,57.00,KP68 120853Z AUTO 16006KT 14/03 A3022 RMK AO1 SLP148 T01390028 58006,M
RNO,2022-09-12 08:55,-119.7711,39.4839,1341.00,70.00,46.00,42.20,180.00,6.00,0.00,30.13,1014.10,3.00,M,SCT,BKN,BKN,M,5000.00,13000.00,18000.00,M,FU,M,M,M,M,M,M,70.00,KRNO 120855Z 18006KT 3SM FU SCT050 BKN130 BKN180 21/08 A3013 RMK AO2 SLP141 FU SCT050 FU ALQDS T02110078 58003 $,M
TMT,2022-09-12 08:55,-117.1971,39.4643,1749.34,M,M,M,260.00,3.00,0.00,30.23,M,10.00,M,CLR,M,M,M,M,M,M,M,M,M,M,M,M,M,M,M,KTMT 120855Z AUTO 26003KT 10SM CLR A3023 RMK AO2,M
HTH,2022-09-12 08:55,-118.6315,38.5448,1282.89,73.40,42.80,33.29,170.00,4.00,0.00,30.11,M,10.00,10.00,CLR,M,M,M,M,M,M,M,M,M,M,M,M,M,M,73.40,KHTH 120855Z AUTO 17004G10KT 10SM CLR 23/06 A3011 RMK A01,M
BAM,2022-09-12 08:55,-116.8743,40.5990,1382.36,71.60,39.20,30.77,180.00,4.00,0.00,30.10,M,10.00,M,CLR,M,M,M,M,M,M,M,M,M,M,M,M,M,M,71.60,KBAM 120855Z AUTO 18004KT 10SM CLR 22/04 A3010 RMK AO1,M
MEV,2022-09-12 08:55,-119.7500,38.9963,1441.42,57.20,41.00,54.60,130.00,6.00,0.00,30.16,M,2.00,M,BKN,OVC,M,M,1900.00,2400.00,M,M,HZ,M,M,M,M,M,M,57.20,KMEV 120855Z AUTO 13006KT 2SM HZ BKN019 OVC024 14/05 A3016 RMK AO2,M
RTS,2022-09-12 08:55,-119.8764,39.6682,1539.00,66.20,41.00,39.72,300.00,6.00,0.00,30.18,M,10.00,M,CLR,M,M,M,M,M,M,M,M,M,M,M,M,M,M,66.20,KRTS 120855Z AUTO 30006KT 10SM CLR 19/05 A3018 RMK AO2,M
CXP,2022-09-12 08:55,-119.7326,39.1923,1431.00,60.80,42.80,51.45,0.00,0.00,0.00,30.17,M,1.75,M,CLR,M,M,M,M,M,M,M,HZ,M,M,M,M,M,M,60.80,KCXP 120855Z AUTO 00000KT 1 3/4SM HZ CLR 16/06 A3017 RMK AO2,M
BVU,2022-09-12 08:55,-114.8611,35.9475,671.00,80.60,55.40,41.97,290.00,6.00,0.00,29.94,M,M,M,M,M,M,M,M,M,M,M,M,M,M,M,M,M,M,80.53,KBVU 120855Z AUTO 29006KT 27/13 A2994 RMK AO2 TSNO,M
NFL,2022-09-12 08:56,-118.7010,39.4166,1199.00,68.00,46.00,45.19,180.00,7.00,0.00,30.07,1015.20,2.50,M,SCT,M,M,M,12000.00,M,M,M,HZ,M,M,M,M,M,M,68.00,KNFL 120856Z AUTO 18007KT 2 1/2SM HZ SCT120 20/08 A3007 RMK AO2 SLP152 T02000078 50002,M
EKO,2022-09-12 08:56,-115.7860,40.8242,1367.00,65.00,42.00,43.36,20.00,4.00,0.00,30.15,1014.80,10.00,M,CLR,M,M,M,M,M,M,M,M,M,M,M,M,M,M,64.90,KEKO 120856Z AUTO 02004KT 10SM CLR 18/06 A3015 RMK AO2 SLP148 T01830056 58006,M
WMC,2022-09-12 08:56,-117.8072,40.9019,1315.00,71.00,44.00,37.81,300.00,6.00,0.00,30.07,1012.50,6.00,M,FEW,M,M,M,7000.00,M,M,M,HZ,M,M,M,M,M,M,71.10,KWMC 120856Z AUTO 30006KT 6SM HZ FEW070 22/07 A3007 RMK AO2 SLP125 T02170067 58010 $,M
TPH,2022-09-12 08:56,-117.0904,38.0505,1654.00,61.00,43.00,51.48,20.00,6.00,0.00,30.21,1015.90,10.00,M,BKN,M,M,M,10000.00,M,M,M,M,M,M,M,M,M,M,61.00,KTPH 120856Z AUTO 02006KT 10SM BKN100 16/06 A3021 RMK AO2 SLP159 T01610061 58004,M
LSV,2022-09-12 08:56,-115.0343,36.2362,570.00,80.00,55.00,41.89,0.00,0.00,0.00,29.90,1010.00,10.00,M,FEW,M,M,M,12000.00,M,M,M,M,M,M,M,M,M,M,80.16,KLSV 120856Z AUTO 00000KT 10SM FEW120 27/13 A2990 RMK AO2 SLP100 T02670127 58010 $,M
INS,2022-09-12 08:56,-115.6733,36.5872,955.00,73.00,50.20,44.77,250.00,9.00,0.00,30.02,1011.60,10.00,M,CLR,M,M,M,M,M,M,M,M,M,M,M,M,M,M,72.90,KINS 120856Z AUTO 25009KT 10SM CLR 23/10 A3002 RMK AO2 SLP116 60000 T02270101 58010 $,M
LAS,2022-09-12 08:56,-115.1634,36.0719,663.00,80.00,54.00,40.54,200.00,7.00,0.00,29.94,1011.20,10.00,M,SCT,M,M,M,11000.00,M,M,M,M,M,M,M,M,M,M,80.04,KLAS 120856Z 20007KT 10SM SCT110 27/12 A2994 RMK AO2 SLP112 ACC SW-NW T02670122 58014,M
HND,2022-09-12 08:56,-115.1344,35.9729,742.79,74.00,63.00,68.76,160.00,9.00,0.00,29.98,1014.20,10.00,M,FEW,M,M,M,10000.00,M,M,M,M,M,M,M,M,M,M,73.90,KHND 120856Z AUTO 16009KT 10SM FEW100 23/17 A2998 RMK AO2 SLP142 T02330172 58013,M
RTS,2022-09-12 09:15,-119.8764,39.6682,1539.00,64.40,41.00,42.28,310.00,6.00,0.00,30.18,M,10.00,M,CLR,M,M,M,M,M,M,M,M,M,M,M,M,M,M,64.40,KRTS 120915Z AUTO 31006KT 10SM CLR 18/05 A3018 RMK AO2,M
BVU,2022-09-12 09:15,-114.8611,35.9475,671.00,78.80,57.20,47.52,0.00,0.00,0.00,29.94,M,M,M,M,M,M,M,M,M,M,M,M,M,M,M,M,M,M,78.80,KBVU 120915Z AUTO 00000KT 26/14 A2994 RMK AO2 TSNO,M
CXP,2022-09-12 09:15,-119.7326,39.1923,1431.00,60.80,42.80,51.45,0.00,0.00,0.00,30.17,M,2.00,M,CLR,M,M,M,M,M,M,M,HZ,M,M,M,M,M,M,60.80,KCXP 120915Z AUTO 00000KT 2SM HZ CLR 16/06 A3017 RMK AO2,M
MEV,2022-09-12 09:15,-119.7500,38.9963,1441.42,57.20,41.00,54.60,130.00,5.00,0.00,30.15,M,2.00,M,BKN,OVC,M,M,1900.00,2500.00,M,M,HZ,M,M,M,M,M,M,57.20,KMEV 120915Z AUTO 13005KT 2SM HZ BKN019 OVC025 14/05 A3015 RMK AO2,M
BAM,2022-09-12 09:15,-116.8743,40.5990,1382.36,71.60,37.40,28.68,110.00,5.00,0.00,30.11,M,10.00,M,SCT,M,M,M,12000.00,M,M,M,M,M,M,M,M,M,M,71.60,KBAM 120915Z AUTO 11005KT 10SM SCT120 22/03 A3011 RMK AO1,M
HTH,2022-09-12 09:15,-118.6315,38.5448,1282.89,73.40,42.80,33.29,200.00,7.00,0.00,30.10,M,10.00,M,CLR,M,M,M,M,M,M,M,M,M,M,M,M,M,M,73.40,KHTH 120915Z AUTO 20007KT 10SM CLR 23/06 A3010 RMK A01,M
TMT,2022-09-12 09:15,-117.1971,39.4643,1749.34,M,M,M,0.00,0.00,0.00,30.22,M,10.00,M,CLR,M,M,M,M,M,M,M,M,M,M,M,M,M,M,M,KTMT 120915Z AUTO 00000KT 10SM CLR A3022 RMK AO2,M
MEV,2022-09-12 09:35,-119.7500,38.9963,1441.42,55.40,41.00,58.27,130.00,5.00,0.00,30.15,M,2.00,M,OVC,M,M,M,2000.00,M,M,M,HZ,M,M,M,M,M,M,55.40,KMEV 120935Z AUTO 13005KT 2SM HZ OVC020 13/05 A3015 RMK AO2,M
HTH,2022-09-12 09:35,-118.6315,38.5448,1282.89,73.40,44.60,35.66,240.00,5.00,0.00,30.10,M,10.00,M,CLR,M,M,M,M,M,M,M,M,M,M,M,M,M,M,73.40,KHTH 120935Z AUTO 24005KT 10SM CLR 23/07 A3010 RMK A01,M
BVU,2022-09-12 09:35,-114.8611,35.9475,671.00,77.00,59.00,53.80,260.00,4.00,0.00,29.93,M,M,M,M,M,M,M,M,M,M,M,M,M,M,M,M,M,M,77.00,KBVU 120935Z AUTO 26004KT 25/15 A2993 RMK AO2 TSNO,M
CXP,2022-09-12 09:35,-119.7326,39.1923,1431.00,59.00,41.00,51.18,330.00,3.00,0.00,30.16,M,2.00,M,CLR,M,M,M,M,M,M,M,HZ,M,M,M,M,M,M,59.00,KCXP 120935Z AUTO 33003KT 2SM HZ CLR 15/05 A3016 RMK AO2,M
BAM,2022-09-12 09:35,-116.8743,40.5990,1382.36,75.20,41.00,29.23,0.00,0.00,0.00,30.11,M,10.00,M,SCT,M,M,M,12000.00,M,M,M,M,M,M,M,M,M,M,75.20,KBAM 120935Z AUTO 00000KT 10SM SCT120 24/05 A3011 RMK AO1,M
RTS,2022-09-12 09:35,-119.8764,39.6682,1539.00,64.40,41.00,42.28,290.00,5.00,0.00,30.17,M,10.00,M,CLR,M,M,M,M,M,M,M,M,M,M,M,M,M,M,64.40,KRTS 120935Z AUTO 29005KT 10SM CLR 18/05 A3017 RMK AO2,M
TMT,2022-09-12 09:35,-117.1971,39.4643,1749.34,M,M,M,0.00,0.00,0.00,30.22,M,10.00,M,CLR,M,M,M,M,M,M,M,M,M,M,M,M,M,M,M,KTMT 120935Z AUTO 00000KT 10SM CLR A3022 RMK AO2,M
RNO,2022-09-12 09:45,-119.7711,39.4839,1341.00,69.00,46.00,43.52,210.00,3.00,0.00,30.12,M,2.50,M,FEW,SCT,BKN,M,6000.00,13000.00,18000.00,M,FU,M,M,M,M,M,M,69.10,KRNO 120945Z 21003KT 2 1/2SM FU FEW060 SCT130 BKN180 21/08 A3012 RMK AO2 FU FEW060 FU ALQDS T02060078 $,M
DRA,2022-09-12 09:53,-116.0278,36.6206,1009.00,70.00,52.00,52.80,300.00,5.00,0.00,30.04,1012.50,10.00,M,FEW,M,M,M,9500.00,M,M,M,M,M,M,M,M,M,M,70.00,KDRA 120953Z AUTO 30005KT 10SM FEW095 21/11 A3004 RMK AO2 SLP125 T02110111 $,M
P68,2022-09-12 09:53,-116.0056,39.6014,1993.00,59.00,39.00,47.35,200.00,3.00,0.00,30.22,1014.60,M,M,M,M,M,M,M,M,M,M,M,M,M,M,M,M,M,59.00,KP68 120953Z AUTO 20003KT 15/04 A3022 RMK AO1 SLP146 T01500039,M
VGT,2022-09-12 09:53,-115.1933,36.2111,667.00,84.00,50.00,30.82,220.00,6.00,0.00,29.93,1012.20,10.00,M,SCT,M,M,M,11000.00,M,M,M,M,M,M,M,M,M,M,82.09,KVGT 120953Z AUTO 22006KT 10SM SCT110 29/10 A2993 RMK AO2 LTG DSNT W SLP122 T02890100,M
ELY,2022-09-12 09:53,-114.8453,39.2950,1909.00,49.00,39.00,68.51,170.00,5.00,0.00,30.26,1015.30,10.00,M,CLR,M,M,M,M,M,M,M,M,M,M,M,M,M,M,46.47,KELY 120953Z AUTO 17005KT 10SM CLR 09/04 A3026 RMK AO2 SLP153 T00940039 $,M
LOL,2022-09-12 09:53,-118.5701,40.0684,1192.43,69.00,53.00,56.70,150.00,5.00,0.00,30.06,1013.40,10.00,M,FEW,M,M,M,11000.00,M,M,M,M,M,M,M,M,M,M,69.10,KLOL 120953Z AUTO 15005KT 10SM FEW110 21/12 A3006 RMK AO2 SLP134 T02060117,M
BVU,2022-09-12 09:55,-114.8611,35.9475,671.00,75.20,60.80,60.90,0.00,0.00,0.00,29.93,M,M,M,M,M,M,M,M,M,M,M,M,M,M,M,M,M,M,75.20,KBVU 120955Z AUTO 00000KT 24/16 A2993 RMK AO2 TSNO,M
RTS,2022-09-12 09:55,-119.8764,39.6682,1539.00,66.20,41.00,39.72,290.00,6.00,0.00,30.17,M,10.00,M,CLR,M,M,M,M,M,M,M,M,M,M,M,M,M,M,66.20,KRTS 120955Z AUTO 29006KT 10SM CLR 19/05 A3017 RMK AO2,M
CXP,2022-09-12 09:55,-119.7326,39.1923,1431.00,59.00,41.00,51.18,0.00,0.00,0.00,30.16,M,2.00,M,CLR,M,M,M,M,M,M,M,HZ,M,M,M,M,M,M,59.00,KCXP 120955Z AUTO 00000KT 2SM HZ CLR 15/05 A3016 RMK AO2,M
TMT,2022-09-12 09:55,-117.1971,39.4643,1749.34,M,M,M,70.00,3.00,0.00,30.22,M,10.00,M,CLR,M,M,M,M,M,M,M,M,M,M,M,M,M,M,M,KTMT 120955Z AUTO 07003KT 10SM CLR A3022 RMK AO2,M
MEV,2022-09-12 09:55,-119.7500,38.9963,1441.42,53.60,39.20,58.02,110.00,7.00,0.00,30.14,M,2.00,M,OVC,M,M,M,2000.00,M,M,M,HZ,M,M,M,M,M,M,53.60,KMEV 120955Z AUTO 11007KT 2SM HZ OVC020 12/04 A3014 RMK AO2,M
BAM,2022-09-12 09:55,-116.8743,40.5990,1382.36,71.60,41.00,33.00,0.00,0.00,0.00,30.11,M,10.00,M,SCT,M,M,M,12000.00,M,M,M,M,M,M,M,M,M,M,71.60,KBAM 120955Z AUTO 00000KT 10SM SCT120 22/05 A3011 RMK AO1,M
RNO,2022-09-12 09:55,-119.7711,39.4839,1341.00,69.00,46.00,43.52,210.00,3.00,0.00,30.12,1013.70,2.50,M,FEW,SCT,BKN,M,6000.00,13000.00,18000.00,M,FU,M,M,M,M,M,M,69.10,KRNO 120955Z 21003KT 2 1/2SM FU FEW060 SCT130 BKN180 21/08 A3012 RMK AO2 SLP137 FU FEW060 FU ALQDS T02060078 $,M
HTH,2022-09-12 09:55,-118.6315,38.5448,1282.89,73.40,44.60,35.66,0.00,0.00,0.00,30.09,M,10.00,M,CLR,M,M,M,M,M,M,M,M,M,M,M,M,M,M,73.40,KHTH 120955Z AUTO 00000KT 10SM CLR 23/07 A3009 RMK A01,M
HND,2022-09-12 09:56,-115.1344,35.9729,742.79,76.00,59.00,55.80,180.00,9.00,0.00,29.97,1013.60,10.00,M,SCT,SCT,M,M,10000.00,11000.00,M,M,M,M,M,M,M,M,M,75.90,KHND 120956Z AUTO 18009KT 10SM SCT100 SCT110 24/15 A2997 RMK AO2 LTG DSNT S AND NW SLP136 T02440150,M
LAS,2022-09-12 09:56,-115.1634,36.0719,663.00,81.00,55.00,40.83,240.00,4.00,0.00,29.93,1010.70,10.00,M,FEW,BKN,M,M,10000.00,14000.00,M,M,M,M,M,M,M,M,M,80.73,KLAS 120956Z 24004KT 10SM FEW100 BKN140 27/13 A2993 RMK AO2 LTG DSNT S AND NW SLP107 ACC OHD AND ALQDS CB DSNT S-W-NW T02720128,M
LSV,2022-09-12 09:56,-115.0343,36.2362,570.00,78.00,61.00,56.08,30.00,4.00,0.00,29.89,1009.50,10.00,M,FEW,BKN,M,M,11000.00,15000.00,M,M,M,M,M,M,M,M,M,77.90,KLSV 120956Z AUTO 03004KT 10SM FEW110 BKN150 26/16 A2989 RMK AO2 SLP095 T02550161 $,M
TPH,2022-09-12 09:56,-117.0904,38.0505,1654.00,60.00,44.00,55.44,360.00,8.00,0.00,30.21,1015.60,10.00,M,CLR,M,M,M,M,M,M,M,M,M,M,M,M,M,M,60.10,KTPH 120956Z AUTO 36008KT 10SM CLR 16/07 A3021 RMK AO2 SLP156 T01560067,M
NFL,2022-09-12 09:56,-118.7010,39.4166,1199.00,65.00,46.00,50.32,170.00,6.00,0.00,30.06,1014.80,3.00,M,CLR,M,M,M,M,M,M,M,HZ,M,M,M,M,M,M,64.90,KNFL 120956Z AUTO 17006KT 3SM HZ CLR 18/08 A3006 RMK AO2 SLP148 T01830078,M
EKO,2022-09-12 09:56,-115.7860,40.8242,1367.00,62.00,41.00,45.84,80.00,4.00,0.00,30.16,1015.00,10.00,M,CLR,M,M,M,M,M,M,M,M,M,M,M,M,M,M,62.10,KEKO 120956Z AUTO 08004KT 10SM CLR 17/05 A3016 RMK AO2 SLP150 T01670050,M
WMC,2022-09-12 09:56,-117.8072,40.9019,1315.00,73.00,45.00,36.70,250.00,16.00,0.00,30.09,1012.90,8.00,22.00,CLR,M,M,M,M,M,M,M,M,M,M,M,M,M,M,73.00,KWMC 120956Z AUTO 25016G22KT 8SM CLR 23/07 A3009 RMK AO2 SLP129 T02280072 $,M
INS,2022-09-12 09:56,-115.6733,36.5872,955.00,70.50,48.70,45.92,280.00,3.00,0.00,30.01,1011.40,10.00,M,BKN,M,M,M,13000.00,M,M,M,M,M,M,M,M,M,M,70.50,KINS 120956Z AUTO 28003KT 10SM BKN130 21/09 A3001 RMK AO2 SLP114 T02140093 $,M
VGT,2022-09-12 10:06,-115.1933,36.2111,667.00,85.00,51.00,31.19,260.00,6.00,0.00,29.93,M,10.00,M,BKN,M,M,M,10000.00,M,M,M,VCTS,M,M,M,M,M,M,82.90,KVGT 121006Z AUTO 26006KT 10SM VCTS BKN100 29/11 A2993 RMK AO2 LTG DSNT NW T02940106,M
BAM,2022-09-12 10:15,-116.8743,40.5990,1382.36,73.40,42.80,33.29,30.00,3.00,0.00,30.11,M,10.00,M,BKN,M,M,M,12000.00,M,M,M,M,M,M,M,M,M,M,73.40,KBAM 121015Z AUTO 03003KT 10SM BKN120 23/06 A3011 RMK AO1,M
MEV,2022-09-12 10:15,-119.7500,38.9963,1441.42,53.60,41.00,62.23,200.00,4.00,0.00,30.15,M,2.00,M,SCT,BKN,OVC,M,300.00,1700.00,2200.00,M,HZ,M,M,M,M,M,M,53.60,KMEV 121015Z AUTO 20004KT 2SM HZ SCT003 BKN017 OVC022 12/05 A3015 RMK AO2,M
HTH,2022-09-12 10:15,-118.6315,38.5448,1282.89,71.60,42.80,35.37,0.00,0.00,0.00,30.09,M,10.00,M,CLR,M,M,M,M,M,M,M,M,M,M,M,M,M,M,71.60,KHTH 121015Z AUTO 00000KT 10SM CLR 22/06 A3009 RMK A01,M
CXP,2022-09-12 10:15,-119.7326,39.1923,1431.00,59.00,42.80,54.86,0.00,0.00,0.00,30.15,M,2.00,M,CLR,M,M,M,M,M,M,M,HZ,M,M,M,M,M,M,59.00,KCXP 121015Z AUTO 00000KT 2SM HZ CLR 15/06 A3015 RMK AO2,M
BVU,2022-09-12 10:15,-114.8611,35.9475,671.00,75.20,60.80,60.90,230.00,4.00,0.00,29.95,M,M,M,M,M,M,M,M,M,M,M,M,M,M,M,M,M,M,75.20,KBVU 121015Z AUTO 23004KT 24/16 A2995 RMK AO2 TSNO,M
TMT,2022-09-12 10:15,-117.1971,39.4643,1749.34,46.80,38.00,71.00,100.00,5.00,0.00,30.22,M,10.00,M,CLR,M,M,M,M,M,M,M,M,M,M,M,M,M,M,43.97,KTMT 121015Z AUTO 10005KT 10SM CLR 08/03 A3022 RMK AO2 T00820033,M
RTS,2022-09-12 10:15,-119.8764,39.6682,1539.00,64.40,41.00,42.28,310.00,6.00,0.00,30.17,M,10.00,M,CLR,M,M,M,M,M,M,M,M,M,M,M,M,M,M,64.40,KRTS 121015Z AUTO 31006KT 10SM CLR 18/05 A3017 RMK AO2,M
VGT,2022-09-12 10:21,-115.1933,36.2111,667.00,85.00,53.00,33.57,270.00,12.00,0.00,29.92,M,10.00,M,BKN,M,M,M,10000.00,M,M,M,M,M,M,M,M,M,M,83.21,KVGT 121021Z AUTO 27012KT 10SM BKN100 29/12 A2992 RMK AO2 LTG DSNT NW T02940117,M
BVU,2022-09-12 10:35,-114.8611,35.9475,671.00,75.20,60.80,60.90,60.00,7.00,0.00,29.97,M,M,M,M,M,M,M,M,M,M,M,M,M,M,M,M,M,M,75.20,KBVU 121035Z AUTO 06007KT 24/16 A2997 RMK AO2 TSNO,M
TMT,2022-09-12 10:35,-117.1971,39.4643,1749.34,M,M,M,0.00,0.00,0.00,30.22,M,10.00,M,CLR,M,M,M,M,M,M,M,M,M,M,M,M,M,M,M,KTMT 121035Z AUTO 00000KT 10SM CLR A3022 RMK AO2,M
HTH,2022-09-12 10:35,-118.6315,38.5448,1282.89,68.00,44.60,42.85,90.00,6.00,0.00,30.09,M,10.00,M,CLR,M,M,M,M,M,M,M,M,M,M,M,M,M,M,68.00,KHTH 121035Z AUTO 09006KT 10SM CLR 20/07 A3009 RMK A01,M
BAM,2022-09-12 10:35,-116.8743,40.5990,1382.36,73.40,42.80,33.29,0.00,0.00,0.00,30.11,M,10.00,M,SCT,M,M,M,12000.00,M,M,M,M,M,M,M,M,M,M,73.40,KBAM 121035Z AUTO 00000KT 10SM SCT120 23/06 A3011 RMK AO1,M
MEV,2022-09-12 10:35,-119.7500,38.9963,1441.42,53.60,41.00,62.23,160.00,5.00,0.00,30.14,M,1.75,M,M,M,M,M,M,M,M,M,HZ,M,M,M,M,M,M,53.60,KMEV 121035Z AUTO 16005KT 1 3/4SM HZ 12/05 A3014 RMK AO2,M
RTS,2022-09-12 10:35,-119.8764,39.6682,1539.00,62.60,41.00,45.04,340.00,4.00,0.00,30.17,M,10.00,M,CLR,M,M,M,M,M,M,M,M,M,M,M,M,M,M,62.60,KRTS 121035Z AUTO 34004KT 10SM CLR 17/05 A3017 RMK AO2,M
CXP,2022-09-12 10:35,-119.7326,39.1923,1431.00,59.00,41.00,51.18,0.00,0.00,0.00,30.15,M,2.00,M,CLR,M,M,M,M,M,M,M,HZ,M,M,M,M,M,M,59.00,KCXP 121035Z AUTO 00000KT 2SM HZ CLR 15/05 A3015 RMK AO2,M
INS,2022-09-12 10:39,-115.6733,36.5872,955.00,77.00,48.20,36.22,220.00,19.00,0.00,30.03,1011.80,10.00,M,FEW,BKN,OVC,M,7000.00,9000.00,11000.00,M,VCTS -DZ,M,M,M,M,M,M,77.00,KINS 121039Z AUTO 22019KT 10SM VCTS -DZ FEW070 BKN090 OVC110 25/09 A3003 RMK AO2 DZB39 SLP118 $,M
INS,2022-09-12 10:44,-115.6733,36.5872,955.00,77.00,51.80,41.42,230.00,15.00,0.00,30.03,1011.80,10.00,M,FEW,FEW,SCT,SCT,300.00,2900.00,6000.00,7500.00,VCTS -DZ,M,M,M,M,M,M,77.00,KINS 121044Z AUTO 23015KT 10SM VCTS -DZ FEW003 FEW029 SCT060 SCT075 BKN090 OVC110 25/11 A3003 RMK AO2 DZB39 SLP118 $,M
P68,2022-09-12 10:53,-116.0056,39.6014,1993.00,58.00,39.00,49.26,190.00,5.00,0.00,30.22,1014.50,M,M,M,M,M,M,M,M,M,M,M,M,M,M,M,M,M,57.90,KP68 121053Z AUTO 19005KT 14/04 A3022 RMK AO1 SLP145 T01440039,M
DRA,2022-09-12 10:53,-116.0278,36.6206,1009.00,71.00,52.00,50.86,50.00,5.00,0.00,30.04,1012.50,10.00,M,BKN,M,M,M,11000.00,M,M,M,M,M,M,M,M,M,M,71.10,KDRA 121053Z AUTO 05005KT 10SM BKN110 22/11 A3004 RMK AO2 SLP125 T02170111 $,M
ELY,2022-09-12 10:53,-114.8453,39.2950,1909.00,48.00,38.00,67.87,180.00,8.00,0.00,30.26,1015.10,10.00,M,CLR,M,M,M,M,M,M,M,M,M,M,M,M,M,M,43.82,KELY 121053Z AUTO 18008KT 10SM CLR 09/03 A3026 RMK AO2 SLP151 T00890033 $,M
LOL,2022-09-12 10:53,-118.5701,40.0684,1192.43,65.00,52.00,62.96,320.00,3.00,0.00,30.06,1013.40,10.00,M,CLR,M,M,M,M,M,M,M,M,M,M,M,M,M,M,64.90,KLOL 121053Z AUTO 32003KT 10SM CLR 18/11 A3006 RMK AO2 SLP134 T01830111,M
VGT,2022-09-12 10:53,-115.1933,36.2111,667.00,84.00,55.00,37.05,170.00,4.00,0.00,29.95,1012.90,10.00,M,BKN,M,M,M,11000.00,M,M,M,M,M,M,M,M,M,M,82.85,KVGT 121053Z AUTO 17004KT 10SM BKN110 29/13 A2995 RMK AO2 LTG DSNT SW AND NW SLP129 T02890128,M
INS,2022-09-12 10:54,-115.6733,36.5872,955.00,71.60,60.80,68.75,240.00,11.00,0.00,30.04,1012.30,7.00,M,BKN,BKN,BKN,M,300.00,9000.00,11000.00,M,RA,M,M,M,M,M,M,71.60,KINS 121054Z AUTO 24011KT 7SM RA BKN003 BKN090 BKN110 22/16 A3004 RMK AO2 LTG DSNT SE DZB39E44RAB44 BKN003 V FEW SLP123 $,M
TMT,2022-09-12 10:55,-117.1971,39.4643,1749.34,49.80,41.20,72.16,0.00,0.00,0.00,30.22,M,10.00,M,CLR,M,M,M,M,M,M,M,M,M,M,M,M,M,M,49.80,KTMT 121055Z AUTO 00000KT 10SM CLR 10/05 A3022 RMK AO2 T00990051,M
CXP,2022-09-12 10:55,-119.7326,39.1923,1431.00,57.20,41.00,54.60,0.00,0.00,0.00,30.15,M,2.00,M,CLR,M,M,M,M,M,M,M,HZ,M,M,M,M,M,M,57.20,KCXP 121055Z AUTO 00000KT 2SM HZ CLR 14/05 A3015 RMK AO2,M
HTH,2022-09-12 10:55,-118.6315,38.5448,1282.89,69.80,44.60,40.29,110.00,7.00,0.00,30.09,M,10.00,M,FEW,M,M,M,10000.00,M,M,M,M,M,M,M,M,M,M,69.80,KHTH 121055Z AUTO 11007KT 10SM FEW100 21/07 A3009 RMK A01,M
BAM,2022-09-12 10:55,-116.8743,40.5990,1382.36,69.80,42.80,37.61,0.00,0.00,0.00,30.11,M,10.00,M,CLR,M,M,M,M,M,M,M,M,M,M,M,M,M,M,69.80,KBAM 121055Z AUTO 00000KT 10SM CLR 21/06 A3011 RMK AO1,M
MEV,2022-09-12 10:55,-119.7500,38.9963,1441.42,51.80,41.00,66.48,130.00,4.00,0.00,30.14,M,1.75,M,M,M,M,M,M,M,M,M,HZ,M,M,M,M,M,M,51.80,KMEV 121055Z AUTO 13004KT 1 3/4SM HZ 11/05 A3014 RMK AO2,M
RTS,2022-09-12 10:55,-119.8764,39.6682,1539.00,60.80,39.20,44.76,310.00,6.00,0.00,30.16,M,10.00,M,CLR,M,M,M,M,M,M,M,M,M,M,M,M,M,M,60.80,KRTS 121055Z AUTO 31006KT 10SM CLR 16/04 A3016 RMK AO2,M
RNO,2022-09-12 10:55,-119.7711,39.4839,1341.00,67.00,46.00,46.94,0.00,0.00,0.00,30.11,1013.70,2.50,M,FEW,SCT,SCT,M,7000.00,14000.00,20000.00,M,FU,M,M,M,M,M,M,66.90,KRNO 121055Z 00000KT 2 1/2SM FU FEW070 SCT140 SCT200 19/08 A3011 RMK AO2 SLP137 FU FEW070 FU ALQDS T01940078 $,M
BVU,2022-09-12 10:55,-114.8611,35.9475,671.00,73.40,62.60,68.94,150.00,29.00,0.00,30.03,M,M,34.00,M,M,M,M,M,M,M,M,RA,M,M,M,M,M,M,73.40,KBVU 121055Z AUTO 15029G34KT RA 23/17 A3003 RMK AO2 TSNO,M
WMC,2022-09-12 10:56,-117.8072,40.9019,1315.00,74.00,46.00,36.98,190.00,6.00,0.00,30.08,1012.60,10.00,M,SCT,M,M,M,12000.00,M,M,M,M,M,M,M,M,M,M,73.90,KWMC 121056Z AUTO 19006KT 10SM SCT120 23/08 A3008 RMK AO2 SLP126 T02330078 $,M
NFL,2022-09-12 10:56,-118.7010,39.4166,1199.00,66.00,46.00,48.43,190.00,6.00,0.00,30.06,1014.70,3.00,M,CLR,M,M,M,M,M,M,M,HZ,M,M,M,M,M,M,66.00,KNFL 121056Z AUTO 19006KT 3SM HZ CLR 19/08 A3006 RMK AO2 SLP147 T01890078,M
LAS,2022-09-12 10:56,-115.1634,36.0719,663.00,81.00,55.00,40.83,260.00,8.00,0.00,29.95,1011.60,10.00,M,SCT,BKN,M,M,11000.00,18000.00,M,M,M,M,M,M,M,M,M,80.73,KLAS 121056Z 26008KT 10SM SCT110TCU BKN180 27/13 A2995 RMK AO2 LTG DSNT SE AND S AND NW SLP116 TCU E ACC S-W CB DSNT ALQDS T02720128,M
INS,2022-09-12 10:56,-115.6733,36.5872,955.00,70.70,60.00,69.14,250.00,10.00,0.02,30.04,1012.30,8.00,M,BKN,BKN,OVC,M,300.00,6500.00,8500.00,M,-RA,M,M,M,M,M,M,70.70,KINS 121056Z AUTO 25010KT 8SM -RA BKN003 BKN065 OVC085 22/16 A3004 RMK AO2 LTG DSNT E-SE DZB39E44RAB44 BKN003 V FEW SLP123 P0002 T02150156 $,M
TPH,2022-09-12 10:56,-117.0904,38.0505,1654.00,58.00,44.00,59.98,350.00,7.00,0.00,30.20,1015.30,10.00,M,CLR,M,M,M,M,M,M,M,M,M,M,M,M,M,M,57.90,KTPH 121056Z AUTO 35007KT 10SM CLR 14/07 A3020 RMK AO2 SLP153 T01440067,M
HND,2022-09-12 10:56,-115.1344,35.9729,742.79,76.00,60.00,58.04,160.00,11.00,0.00,30.00,1014.50,10.00,M,CLR,M,M,M,M,M,M,M,M,M,M,M,M,M,M,75.90,KHND 121056Z AUTO 16011KT 10SM CLR 24/16 A3000 RMK AO2 LTG DSNT E-SW SLP145 T02440156,M
EKO,2022-09-12 10:56,-115.7860,40.8242,1367.00,60.00,40.00,47.15,100.00,6.00,0.00,30.16,1015.10,10.00,M,CLR,M,M,M,M,M,M,M,M,M,M,M,M,M,M,60.10,KEKO 121056Z AUTO 10006KT 10SM CLR 16/04 A3016 RMK AO2 SLP151 T01560044,M
LSV,2022-09-12 10:56,-115.0343,36.2362,570.00,78.40,58.80,51.00,200.00,6.00,0.00,29.93,1010.90,10.00,M,BKN,OVC,M,M,10000.00,13000.00,M,M,M,M,M,M,M,M,M,78.40,KLSV 121056Z AUTO 20006KT 10SM BKN100 OVC130 26/15 A2993 RMK AO2 SLP109 T02580149 $,M
LSV,2022-09-12 11:03,-115.0343,36.2362,570.00,80.60,59.00,47.79,200.00,4.00,0.00,29.94,1011.20,10.00,M,BKN,BKN,M,M,10000.00,14000.00,M,M,-RA,M,M,M,M,M,M,81.11,KLSV 121103Z AUTO 20004KT 10SM -RA BKN100 BKN140 27/15 A2994 RMK AO2 LTG DSNT NW RAB03 SLP112 $,M
INS,2022-09-12 11:11,-115.6733,36.5872,955.00,69.80,60.80,73.09,260.00,4.00,0.00,30.05,1012.80,5.00,M,SCT,OVC,M,M,300.00,8500.00,M,M,-RA,M,M,M,M,M,M,69.80,KINS 121111Z AUTO 26004KT 5SM -RA SCT003 OVC085 21/16 A3005 RMK AO2 SLP128 $,M
HTH,2022-09-12 11:15,-118.6315,38.5448,1282.89,68.00,42.80,40.00,0.00,0.00,0.00,30.10,M,10.00,M,FEW,M,M,M,10000.00,M,M,M,M,M,M,M,M,M,M,68.00,KHTH 121115Z AUTO 00000KT 10SM FEW100 20/06 A3010 RMK A01,M
TMT,2022-09-12 11:15,-117.1971,39.4643,1749.34,45.70,38.30,75.19,0.00,0.00,0.00,30.22,M,10.00,M,CLR,M,M,M,M,M,M,M,M,M,M,M,M,M,M,45.70,KTMT 121115Z AUTO 00000KT 10SM CLR 08/04 A3022 RMK AO2 T00760035,M
BAM,2022-09-12 11:15,-116.8743,40.5990,1382.36,69.80,42.80,37.61,0.00,0.00,0.00,30.11,M,10.00,M,CLR,M,M,M,M,M,M,M,M,M,M,M,M,M,M,69.80,KBAM 121115Z AUTO 00000KT 10SM CLR 21/06 A3011 RMK AO1,M
MEV,2022-09-12 11:15,-119.7500,38.9963,1441.42,51.80,41.00,66.48,130.00,4.00,0.00,30.14,M,1.75,M,M,M,M,M,M,M,M,M,HZ,M,M,M,M,M,M,51.80,KMEV 121115Z AUTO 13004KT 1 3/4SM HZ 11/05 A3014 RMK AO2,M
CXP,2022-09-12 11:15,-119.7326,39.1923,1431.00,57.20,41.00,54.60,0.00,0.00,0.00,30.16,M,2.00,M,FEW,M,M,M,5000.00,M,M,M,HZ,M,M,M,M,M,M,57.20,KCXP 121115Z AUTO 00000KT 2SM HZ FEW050 14/05 A3016 RMK AO2,M
RTS,2022-09-12 11:15,-119.8764,39.6682,1539.00,55.40,39.20,54.34,350.00,5.00,0.00,30.16,M,10.00,M,CLR,M,M,M,M,M,M,M,M,M,M,M,M,M,M,55.40,KRTS 121115Z AUTO 35005KT 10SM CLR 13/04 A3016 RMK AO2,M
BVU,2022-09-12 11:15,-114.8611,35.9475,671.00,73.40,66.20,78.19,130.00,17.00,0.00,30.05,M,M,24.00,M,M,M,M,M,M,M,M,M,M,M,M,M,M,M,73.40,KBVU 121115Z AUTO 13017G24KT 23/19 A3005 RMK AO2 TSNO,M
INS,2022-09-12 11:30,-115.6733,36.5872,955.00,69.80,60.80,73.09,30.00,3.00,0.00,30.06,1013.20,10.00,M,SCT,BKN,BKN,M,8500.00,13000.00,16000.00,M,M,M,M,M,M,M,M,69.80,KINS 121130Z AUTO 03003KT 10SM SCT085 BKN130 BKN160 21/16 A3006 RMK AO2 RAE24DZB24E30 SLP132 $,M
LSV,2022-09-12 11:33,-115.0343,36.2362,570.00,80.60,57.20,44.80,140.00,12.00,0.00,29.99,1012.90,10.00,M,OVC,M,M,M,9500.00,M,M,M,M,M,M,M,M,M,M,80.81,KLSV 121133Z AUTO 14012KT 10SM OVC095 27/14 A2999 RMK AO2 RAB03E12DZB12E21RAB21E31DZB31E33 PRESRR SLP129 $,M
MEV,2022-09-12 11:35,-119.7500,38.9963,1441.42,50.00,41.00,71.07,130.00,3.00,0.00,30.14,M,1.75,M,M,M,M,M,M,M,M,M,HZ,M,M,M,M,M,M,50.00,KMEV 121135Z AUTO 13003KT 1 3/4SM HZ 10/05 A3014 RMK AO2,M
CXP,2022-09-12 11:35,-119.7326,39.1923,1431.00,57.20,41.00,54.60,0.00,0.00,0.00,30.15,M,2.00,M,FEW,M,M,M,5000.00,M,M,M,HZ,M,M,M,M,M,M,57.20,KCXP 121135Z AUTO 00000KT 2SM HZ FEW050 14/05 A3015 RMK AO2,M
BVU,2022-09-12 11:35,-114.8611,35.9475,671.00,73.40,66.20,78.19,170.00,12.00,0.00,30.08,M,M,M,M,M,M,M,M,M,M,M,M,M,M,M,M,M,M,73.40,KBVU 121135Z AUTO 17012KT 23/19 A3008 RMK AO2 TSNO,M
TMT,2022-09-12 11:35,-117.1971,39.4643,1749.34,M,M,M,0.00,0.00,0.00,30.22,M,10.00,M,CLR,M,M,M,M,M,M,M,M,M,M,M,M,M,M,M,KTMT 121135Z AUTO 00000KT 10SM CLR A3022 RMK AO2,M
HTH,2022-09-12 11:35,-118.6315,38.5448,1282.89,66.20,42.80,42.57,160.00,4.00,0.00,30.10,M,10.00,M,CLR,M,M,M,M,M,M,M,M,M,M,M,M,M,M,66.20,KHTH 121135Z AUTO 16004KT 10SM CLR 19/06 A3010 RMK A01,M
BAM,2022-09-12 11:35,-116.8743,40.5990,1382.36,69.80,44.60,40.29,0.00,0.00,0.00,30.11,M,10.00,M,CLR,M,M,M,M,M,M,M,M,M,M,M,M,M,M,69.80,KBAM 121135Z AUTO 00000KT 10SM CLR 21/07 A3011 RMK AO1,M
RTS,2022-09-12 11:35,-119.8764,39.6682,1539.00,55.40,37.40,50.64,350.00,7.00,0.00,30.16,M,10.00,M,CLR,M,M,M,M,M,M,M,M,M,M,M,M,M,M,55.40,KRTS 121135Z AUTO 35007KT 10SM CLR 13/03 A3016 RMK AO2,M
VGT,2022-09-12 11:43,-115.1933,36.2111,667.00,82.00,58.00,43.89,130.00,19.00,0.00,30.02,M,10.00,25.00,OVC,M,M,M,9500.00,M,M,M,M,M,M,M,27.00,140.00,2022-09-12 11:31,81.92,KVGT 121143Z AUTO 13019G25KT 10SM OVC095 28/14 A3002 RMK AO2 PK WND 14027/1131 WSHFT 1123 LTG DSNT NE T02780144,M
RNO,2022-09-12 11:45,-119.7711,39.4839,1341.00,65.00,47.00,52.06,160.00,5.00,0.00,30.11,M,3.00,M,FEW,FEW,SCT,M,5000.00,13000.00,18000.00,M,FU,M,M,M,M,M,M,64.90,KRNO 121145Z 16005KT 3SM FU FEW050 FEW130 SCT180 18/08 A3011 RMK AO2 FU FEW050 FU ALQDS T01830083 $,M
CXP,2022-09-12 11:50,-119.7326,39.1923,1431.00,55.40,42.80,62.46,0.00,0.00,0.00,30.15,M,2.00,M,FEW,M,M,M,5000.00,M,M,M,HZ,M,M,M,M,M,M,55.40,KCXP 121150Z AUTO 00000KT 2SM HZ FEW050 13/06 A3015 RMK AO2,M
VGT,2022-09-12 11:53,-115.1933,36.2111,667.00,82.00,58.00,43.89,160.00,19.00,0.00,30.03,1015.80,10.00,M,FEW,OVC,M,M,8000.00,9500.00,M,M,M,M,M,M,27.00,140.00,2022-09-12 11:31,81.92,KVGT 121153Z AUTO 16019KT 10SM FEW080 OVC095 28/14 A3003 RMK AO2 PK WND 14027/1131 WSHFT 1123 LTG DSNT NW SLP158 T02780144 10322 20261 53034,M
LOL,2022-09-12 11:53,-118.5701,40.0684,1192.43,66.00,52.00,60.60,250.00,3.00,0.00,30.05,1013.10,10.00,M,CLR,M,M,M,M,M,M,M,M,M,M,M,M,M,M,66.00,KLOL 121153Z AUTO 25003KT 10SM CLR 19/11 A3005 RMK AO2 SLP131 60000 T01890111 10261 20172 58004,M
ELY,2022-09-12 11:53,-114.8453,39.2950,1909.00,48.00,38.00,67.87,180.00,8.00,0.00,30.25,1015.10,10.00,M,CLR,M,M,M,M,M,M,M,M,M,M,M,M,M,M,43.82,KELY 121153Z AUTO 18008KT 10SM CLR 09/03 A3025 RMK AO2 SLP151 T00890033 10133 20083 58005 $,M
P68,2022-09-12 11:53,-116.0056,39.6014,1993.00,54.00,38.00,54.34,200.00,5.00,0.00,30.22,1014.80,M,M,M,M,M,M,M,M,M,M,M,M,M,M,M,M,M,54.00,KP68 121153Z AUTO 20005KT 12/03 A3022 RMK AO1 SLP148 T01220033 10161 20106 58003,M
DRA,2022-09-12 11:53,-116.0278,36.6206,1009.00,73.00,53.00,49.66,0.00,0.00,0.00,30.07,1013.40,10.00,M,SCT,M,M,M,11000.00,M,M,M,M,M,M,M,M,M,M,73.00,KDRA 121153Z AUTO 00000KT 10SM SCT110 23/12 A3007 RMK AO2 SLP134 T02280117 10244 20200 53008 $,M
MEV,2022-09-12 11:55,-119.7500,38.9963,1441.42,51.80,41.00,66.48,0.00,0.00,0.00,30.14,M,1.75,M,M,M,M,M,M,M,M,M,HZ,M,M,M,M,M,M,51.80,KMEV 121155Z AUTO 00000KT 1 3/4SM HZ 11/05 A3014 RMK AO2,M
BAM,2022-09-12 11:55,-116.8743,40.5990,1382.36,68.00,42.80,40.00,170.00,5.00,0.00,30.11,M,10.00,M,CLR,M,M,M,M,M,M,M,M,M,M,M,M,M,M,68.00,KBAM 121155Z AUTO 17005KT 10SM CLR 20/06 A3011 RMK AO1,M
HTH,2022-09-12 11:55,-118.6315,38.5448,1282.89,69.80,44.60,40.29,110.00,4.00,0.00,30.10,M,10.00,M,CLR,M,M,M,M,M,M,M,M,M,M,M,M,M,M,69.80,KHTH 121155Z AUTO 11004KT 10SM CLR 21/07 A3010 RMK A01,M
TMT,2022-09-12 11:55,-117.1971,39.4643,1749.34,M,M,M,0.00,0.00,0.00,30.22,M,10.00,M,CLR,M,M,M,M,M,M,M,M,M,M,M,M,M,M,M,KTMT 121155Z AUTO 00000KT 10SM CLR A3022 RMK AO2,M
RNO,2022-09-12 11:55,-119.7711,39.4839,1341.00,64.00,47.00,53.72,150.00,3.00,0.00,30.11,1013.60,3.00,M,FEW,FEW,SCT,M,5000.00,13000.00,18000.00,M,FU,M,M,M,M,M,M,64.00,KRNO 121155Z 15003KT 3SM FU FEW050 FEW130 SCT180 18/08 A3011 RMK AO2 SLP136 FU FEW050 FU ALQDS T01780083 10244 20178 56007 $,M
BVU,2022-09-12 11:55,-114.8611,35.9475,671.00,71.60,66.20,83.09,200.00,6.00,0.00,30.10,M,M,M,M,M,M,M,M,M,M,M,RA,M,M,M,M,M,M,71.60,KBVU 121155Z AUTO 20006KT RA 22/19 A3010 RMK AO2 TSNO,M
RTS,2022-09-12 11:55,-119.8764,39.6682,1539.00,59.00,39.20,47.72,340.00,5.00,0.00,30.15,M,10.00,M,CLR,M,M,M,M,M,M,M,M,M,M,M,M,M,M,59.00,KRTS 121155Z AUTO 34005KT 10SM CLR 15/04 A3015 RMK AO2,M
LAS,2022-09-12 11:56,-115.1634,36.0719,663.00,74.00,62.00,66.61,180.00,12.00,T,30.06,1015.30,10.00,26.00,BKN,OVC,M,M,8000.00,10000.00,M,M,M,M,M,M,27.00,130.00,2022-09-12 11:20,73.90,KLAS 121156Z 18012G26KT 10SM BKN080 OVC100 23/17 A3006 RMK AO2 PK WND 13027/1120 LTG DSNT NW RAB40E56 SLP153 OCNL LTGIC DSNT ALQDS CB DSNT ALQDS P0000 60000 T02330167 10289 20233 53036,M
HND,2022-09-12 11:56,-115.1344,35.9729,742.79,69.00,64.00,83.81,190.00,21.00,0.03,30.09,1018.00,8.00,M,FEW,OVC,M,M,5500.00,9000.00,M,M,RA,M,M,M,29.00,190.00,2022-09-12 11:47,69.10,KHND 121156Z AUTO 19021KT 8SM RA FEW055 OVC090 21/18 A3009 RMK AO2 PK WND 19029/1147 RAB18 PRESRR SLP180 P0003 60003 70021 T02060178 10267 20206 53034,M
LSV,2022-09-12 11:56,-115.0343,36.2362,570.00,78.80,64.60,61.79,160.00,20.00,T,30.02,1014.00,10.00,29.00,OVC,M,M,M,10000.00,M,M,M,M,M,M,M,29.00,160.00,2022-09-12 11:50,78.80,KLSV 121156Z AUTO 16020G29KT 10SM OVC100 26/18 A3002 RMK AO2 PK WND 16029/50 LTG DSNT NE RAB03E12DZB12E21RAB21E31DZB31E33 PRESRR SLP140 P0000 60000 70001 T02600181 10292 20246 53038 $,M
NFL,2022-09-12 11:56,-118.7010,39.4166,1199.00,61.00,43.00,51.48,180.00,5.00,0.00,30.05,1014.60,5.00,M,CLR,M,M,M,M,M,M,M,HZ,M,M,M,M,M,M,61.00,KNFL 121156Z AUTO 18005KT 5SM HZ CLR 16/06 A3005 RMK AO2 SLP146 T01610061 10233 20161 58002,M
INS,2022-09-12 11:56,-115.6733,36.5872,955.00,68.50,60.30,75.08,0.00,0.00,0.02,30.06,1013.30,10.00,M,BKN,M,M,M,15000.00,M,M,M,M,M,M,M,M,M,M,68.50,KINS 121156Z AUTO 00000KT 10SM BKN150 20/16 A3006 RMK AO2 RAE24DZB24E30 SLP133 P0002 60004 70004 T02030157 10279 20203 53012 $,M
TPH,2022-09-12 11:56,-117.0904,38.0505,1654.00,59.00,44.00,57.66,10.00,11.00,0.00,30.19,1014.90,10.00,M,CLR,M,M,M,M,M,M,M,M,M,M,M,M,M,M,59.00,KTPH 121156Z AUTO 01011KT 10SM CLR 15/07 A3019 RMK AO2 SLP149 T01500067 10194 20144 58008,M
EKO,2022-09-12 11:56,-115.7860,40.8242,1367.00,60.00,40.00,47.15,90.00,5.00,0.00,30.16,1015.10,10.00,M,CLR,M,M,M,M,M,M,M,M,M,M,M,M,M,M,60.10,KEKO 121156Z AUTO 09005KT 10SM CLR 16/04 A3016 RMK AO2 SLP151 T01560044 10222 20150 50001,M
WMC,2022-09-12 11:56,-117.8072,40.9019,1315.00,69.00,47.00,45.02,350.00,3.00,0.00,30.08,1012.90,10.00,M,SCT,M,M,M,12000.00,M,M,M,M,M,M,M,M,M,M,69.10,KWMC 121156Z AUTO 35003KT 10SM SCT120 21/08 A3008 RMK AO2 SLP129 T02060083 10267 20200 50004 $,M
VGT,2022-09-12 12:07,-115.1933,36.2111,667.00,78.00,60.00,53.95,200.00,16.00,0.00,30.05,M,10.00,26.00,SCT,OVC,M,M,8000.00,10000.00,M,M,M,M,M,M,28.00,190.00,2022-09-12 11:56,78.10,KVGT 121207Z AUTO 20016G26KT 10SM SCT080 OVC100 26/16 A3005 RMK AO2 PK WND 19028/1156 WSHFT 1147 LTG DSNT N AND NW PRESRR T02560156,M
INS,2022-09-12 12:11,-115.6733,36.5872,955.00,69.80,60.80,73.09,170.00,5.00,0.00,30.08,1013.90,10.00,M,BKN,BKN,M,M,9500.00,16000.00,M,M,M,M,M,M,M,M,M,69.80,KINS 121211Z AUTO 17005KT 10SM BKN095 BKN160 21/16 A3008 RMK AO2 LTG DSNT E PRESRR SLP139 $,M
HTH,2022-09-12 12:15,-118.6315,38.5448,1282.89,66.20,44.60,45.60,150.00,3.00,0.00,30.09,M,10.00,M,CLR,M,M,M,M,M,M,M,M,M,M,M,M,M,M,66.20,KHTH 121215Z AUTO 15003KT 10SM CLR 19/07 A3009 RMK A01,M
BVU,2022-09-12 12:15,-114.8611,35.9475,671.00,71.60,66.20,83.09,130.00,8.00,0.00,30.12,M,M,M,M,M,M,M,M,M,M,M,RA,M,M,M,M,M,M,71.60,KBVU 121215Z AUTO 13008KT RA 22/19 A3012 RMK AO2 TSNO,M
CXP,2022-09-12 12:15,-119.7326,39.1923,1431.00,55.40,42.80,62.46,0.00,0.00,0.00,30.15,M,1.75,M,BKN,M,M,M,5000.00,M,M,M,HZ,M,M,M,M,M,M,55.40,KCXP 121215Z AUTO 00000KT 1 3/4SM HZ BKN050 13/06 A3015 RMK AO2,M
TMT,2022-09-12 12:15,-117.1971,39.4643,1749.34,47.50,40.00,75.36,0.00,0.00,0.00,30.21,M,10.00,M,CLR,M,M,M,M,M,M,M,M,M,M,M,M,M,M,47.50,KTMT 121215Z AUTO 00000KT 10SM CLR 09/05 A3021 RMK AO2 T00860045,M
MEV,2022-09-12 12:15,-119.7500,38.9963,1441.42,51.80,39.20,61.99,150.00,3.00,0.00,30.14,M,1.75,M,M,M,M,M,M,M,M,M,HZ,M,M,M,M,M,M,51.80,KMEV 121215Z AUTO 15003KT 1 3/4SM HZ 11/04 A3014 RMK AO2,M
BAM,2022-09-12 12:15,-116.8743,40.5990,1382.36,62.60,41.00,45.04,0.00,0.00,0.00,30.11,M,10.00,M,CLR,M,M,M,M,M,M,M,M,M,M,M,M,M,M,62.60,KBAM 121215Z AUTO 00000KT 10SM CLR 17/05 A3011 RMK AO1,M
RTS,2022-09-12 12:15,-119.8764,39.6682,1539.00,59.00,39.20,47.72,330.00,6.00,0.00,30.15,M,10.00,M,CLR,M,M,M,M,M,M,M,M,M,M,M,M,M,M,59.00,KRTS 121215Z AUTO 33006KT 10SM CLR 15/04 A3015 RMK AO2,M
LAS,2022-09-12 12:26,-115.1634,36.0719,663.00,70.00,65.00,83.86,160.00,6.00,0.01,30.10,M,7.00,M,BKN,OVC,M,M,9500.00,11000.00,M,M,RA,M,M,M,M,M,M,70.00,KLAS 121226Z 16006KT 7SM RA BKN095 OVC110 21/18 A3010 RMK AO2 LTG DSNT NE RAB09 CB DSNT NW-NE P0001 T02110183,M
LSV,2022-09-12 12:27,-115.0343,36.2362,570.00,75.20,64.40,69.14,190.00,18.00,0.00,30.07,1015.90,10.00,M,FEW,SCT,SCT,OVC,4000.00,5000.00,7500.00,9000.00,-RA,M,M,M,M,M,M,75.20,KLSV 121227Z AUTO 19018KT 10SM -RA FEW040 SCT050 SCT075 OVC090 24/18 A3007 RMK AO2 RAB27 PRESRR SLP159 $,M
INS,2022-09-12 12:29,-115.6733,36.5872,955.00,71.60,59.00,64.48,0.00,0.00,0.00,30.08,1013.90,10.00,M,FEW,SCT,OVC,M,5500.00,7000.00,9500.00,M,-DZ,M,M,M,M,M,M,71.60,KINS 121229Z AUTO 00000KT 10SM -DZ FEW055 SCT070 OVC095 22/15 A3008 RMK AO2 DZB29 SLP139 $,M
TMT,2022-09-12 12:35,-117.1971,39.4643,1749.34,M,M,M,0.00,0.00,0.00,30.21,M,10.00,M,CLR,M,M,M,M,M,M,M,M,M,M,M,M,M,M,M,KTMT 121235Z AUTO 00000KT 10SM CLR A3021 RMK AO2,M
RTS,2022-09-12 12:35,-119.8764,39.6682,1539.00,57.20,39.20,50.91,340.00,6.00,0.00,30.15,M,10.00,M,CLR,M,M,M,M,M,M,M,M,M,M,M,M,M,M,57.20,KRTS 121235Z AUTO 34006KT 10SM CLR 14/04 A3015 RMK AO2,M
CXP,2022-09-12 12:35,-119.7326,39.1923,1431.00,55.40,42.80,62.46,0.00,0.00,0.00,30.15,M,2.00,M,SCT,M,M,M,5000.00,M,M,M,HZ,M,M,M,M,M,M,55.40,KCXP 121235Z AUTO 00000KT 2SM HZ SCT050 13/06 A3015 RMK AO2,M
HTH,2022-09-12 12:35,-118.6315,38.5448,1282.89,64.40,44.60,48.55,0.00,0.00,0.00,30.09,M,10.00,M,CLR,M,M,M,M,M,M,M,M,M,M,M,M,M,M,64.40,KHTH 121235Z AUTO 00000KT 10SM CLR 18/07 A3009 RMK A01,M
BAM,2022-09-12 12:35,-116.8743,40.5990,1382.36,60.80,39.20,44.76,150.00,3.00,0.00,30.11,M,10.00,M,CLR,M,M,M,M,M,M,M,M,M,M,M,M,M,M,60.80,KBAM 121235Z AUTO 15003KT 10SM CLR 16/04 A3011 RMK AO1,M
MEV,2022-09-12 12:35,-119.7500,38.9963,1441.42,48.20,39.20,70.88,120.00,3.00,0.00,30.14,M,1.50,M,M,M,M,M,M,M,M,M,HZ,M,M,M,M,M,M,47.21,KMEV 121235Z AUTO 12003KT 1 1/2SM HZ 09/04 A3014 RMK AO2,M
BVU,2022-09-12 12:35,-114.8611,35.9475,671.00,69.80,64.40,82.98,130.00,6.00,0.00,30.12,M,M,M,M,M,M,M,M,M,M,M,RA,M,M,M,M,M,M,69.80,KBVU 121235Z AUTO 13006KT RA 21/18 A3012 RMK AO2 TSNO,M
INS,2022-09-12 12:44,-115.6733,36.5872,955.00,69.80,60.80,73.09,120.00,23.00,0.00,30.12,1015.40,10.00,27.00,FEW,BKN,OVC,M,500.00,7000.00,9500.00,M,-RA,M,M,M,M,M,M,69.80,KINS 121244Z AUTO 12023G27KT 10SM -RA FEW005 BKN070 OVC095 21/16 A3012 RMK AO2 DZB29E33RAB33 SLP154 $,M
LSV,2022-09-12 12:50,-115.0343,36.2362,570.00,73.40,71.60,94.10,220.00,11.00,0.00,30.09,1016.50,10.00,M,FEW,SCT,SCT,OVC,4200.00,5000.00,6500.00,8500.00,-RA,M,M,M,M,M,M,73.40,KLSV 121250Z AUTO 22011KT 10SM -RA FEW042 SCT050 SCT065 OVC085 23/22 A3009 RMK AO2 RAB27E37RAB50 SLP165 $,M
P68,2022-09-12 12:53,-116.0056,39.6014,1993.00,50.00,37.00,60.79,200.00,3.00,0.00,30.21,1015.50,M,M,M,M,M,M,M,M,M,M,M,M,M,M,M,M,M,50.00,KP68 121253Z AUTO 20003KT 10/03 A3021 RMK AO1 SLP155 T01000028,M
LOL,2022-09-12 12:53,-118.5701,40.0684,1192.43,60.00,50.00,69.24,140.00,5.00,0.00,30.05,1013.40,10.00,M,CLR,M,M,M,M,M,M,M,M,M,M,M,M,M,M,60.10,KLOL 121253Z AUTO 14005KT 10SM CLR 16/10 A3005 RMK AO2 SLP134 T01560100,M
VGT,2022-09-12 12:53,-115.1933,36.2111,667.00,74.00,63.00,68.76,190.00,8.00,T,30.10,1018.40,10.00,M,FEW,BKN,OVC,M,3900.00,9000.00,11000.00,M,-RA,M,M,M,28.00,190.00,2022-09-12 11:56,73.90,KVGT 121253Z 19008KT 10SM -RA FEW039 BKN090 OVC110 23/17 A3010 RMK AO2 PK WND 19028/1156 WSHFT 1147 LTG DSNT NE RAB29 SLP184 P0000 T02330172,M
DRA,2022-09-12 12:53,-116.0278,36.6206,1009.00,68.00,61.00,78.30,50.00,13.00,0.01,30.07,1013.60,10.00,M,OVC,M,M,M,9500.00,M,M,M,RA,M,M,M,M,M,M,68.00,KDRA 121253Z AUTO 05013KT 10SM RA OVC095 20/16 A3007 RMK AO2 RAB28 SLP136 P0001 T02000161 $,M
ELY,2022-09-12 12:53,-114.8453,39.2950,1909.00,47.00,37.00,68.27,170.00,10.00,0.00,30.25,1016.20,10.00,M,CLR,M,M,M,M,M,M,M,M,M,M,M,M,M,M,41.65,KELY 121253Z AUTO 17010KT 10SM CLR 08/03 A3025 RMK AO2 SLP162 T00830028 $,M
BVU,2022-09-12 12:55,-114.8611,35.9475,671.00,69.80,66.20,88.34,120.00,9.00,0.00,30.12,M,M,M,M,M,M,M,M,M,M,M,RA,M,M,M,M,M,M,69.80,KBVU 121255Z AUTO 12009KT RA 21/19 A3012 RMK AO2 TSNO,M
TMT,2022-09-12 12:55,-117.1971,39.4643,1749.34,M,M,M,0.00,0.00,0.00,30.21,M,10.00,M,CLR,M,M,M,M,M,M,M,M,M,M,M,M,M,M,M,KTMT 121255Z AUTO 00000KT 10SM CLR A3021 RMK AO2,M
HTH,2022-09-12 12:55,-118.6315,38.5448,1282.89,64.40,42.80,45.32,200.00,7.00,0.00,30.09,M,10.00,M,CLR,M,M,M,M,M,M,M,M,M,M,M,M,M,M,64.40,KHTH 121255Z AUTO 20007KT 10SM CLR 18/06 A3009 RMK A01,M
BAM,2022-09-12 12:55,-116.8743,40.5990,1382.36,60.80,37.40,41.71,0.00,0.00,0.00,30.11,M,10.00,M,CLR,M,M,M,M,M,M,M,M,M,M,M,M,M,M,60.80,KBAM 121255Z AUTO 00000KT 10SM CLR 16/03 A3011 RMK AO1,M
MEV,2022-09-12 12:55,-119.7500,38.9963,1441.42,50.00,41.00,71.07,0.00,0.00,0.00,30.14,M,1.50,M,M,M,M,M,M,M,M,M,HZ,M,M,M,M,M,M,50.00,KMEV 121255Z AUTO 00000KT 1 1/2SM HZ 10/05 A3014 RMK AO2,M
RTS,2022-09-12 12:55,-119.8764,39.6682,1539.00,59.00,39.20,47.72,340.00,6.00,0.00,30.15,M,10.00,M,CLR,M,M,M,M,M,M,M,M,M,M,M,M,M,M,59.00,KRTS 121255Z AUTO 34006KT 10SM CLR 15/04 A3015 RMK AO2,M
CXP,2022-09-12 12:55,-119.7326,39.1923,1431.00,55.40,41.00,58.27,0.00,0.00,0.00,30.15,M,2.00,M,FEW,M,M,M,5000.00,M,M,M,HZ,M,M,M,M,M,M,55.40,KCXP 121255Z AUTO 00000KT 2SM HZ FEW050 13/05 A3015 RMK AO2,M
RNO,2022-09-12 12:55,-119.7711,39.4839,1341.00,65.00,46.00,50.32,0.00,0.00,0.00,30.11,1013.90,3.00,M,FEW,FEW,SCT,M,4000.00,14000.00,20000.00,M,FU,M,M,M,M,M,M,64.90,KRNO 121255Z 00000KT 3SM FU FEW040 FEW140 SCT200 18/08 A3011 RMK AO2 SFC VIS 4 SLP139 FU FEW040 FU ALQDS T01830078 $,M
LAS,2022-09-12 12:56,-115.1634,36.0719,663.00,70.00,65.00,83.86,0.00,0.00,0.08,30.10,1017.00,8.00,M,SCT,BKN,OVC,M,8000.00,9500.00,11000.00,M,-RA,M,M,M,M,M,M,70.00,KLAS 121256Z 00000KT 8SM -RA SCT080 BKN095 OVC110 21/18 A3010 RMK AO2 LTG DSNT NE RAB09 SLP170 P0008 T02110183,M
INS,2022-09-12 12:56,-115.6733,36.5872,955.00,67.00,62.00,83.98,120.00,13.00,0.03,30.13,1015.70,6.00,24.00,FEW,BKN,OVC,M,300.00,7000.00,9500.00,M,-RA,M,M,M,28.00,130.00,2022-09-12 12:41,67.10,KINS 121256Z AUTO 12013G24KT 6SM -RA FEW003 BKN070 OVC095 20/17 A3013 RMK AO2 PK WND 13028/41 DZB29E33RAB33 SLP157 P0003 T01950167 $,M
WMC,2022-09-12 12:56,-117.8072,40.9019,1315.00,65.00,47.00,52.06,120.00,3.00,0.00,30.07,1012.80,9.00,M,CLR,M,M,M,M,M,M,M,M,M,M,M,M,M,M,64.90,KWMC 121256Z AUTO 12003KT 9SM CLR 18/08 A3007 RMK AO2 SLP128 T01830083 $,M
NFL,2022-09-12 12:56,-118.7010,39.4166,1199.00,62.00,43.00,49.52,150.00,8.00,0.00,30.05,1014.50,4.00,M,CLR,M,M,M,M,M,M,M,HZ,M,M,M,M,M,M,62.10,KNFL 121256Z AUTO 15008KT 4SM HZ CLR 17/06 A3005 RMK AO2 SLP145 T01670061,M
LSV,2022-09-12 12:56,-115.0343,36.2362,570.00,73.40,71.00,91.89,220.00,11.00,T,30.09,1016.50,10.00,M,FEW,SCT,OVC,M,4400.00,5500.00,8500.00,M,-RA,M,M,M,32.00,150.00,2022-09-12 12:01,73.40,KLSV 121256Z AUTO 22011KT 10SM -RA FEW044 SCT055 OVC085 23/22 A3009 RMK AO2 PK WND 15032/01 RAB27E37RAB50 SLP165 P0000 T02300216 $,M
EKO,2022-09-12 12:56,-115.7860,40.8242,1367.00,59.00,39.00,47.35,80.00,7.00,0.00,30.15,1015.10,10.00,M,CLR,M,M,M,M,M,M,M,M,M,M,M,M,M,M,59.00,KEKO 121256Z AUTO 08007KT 10SM CLR 15/04 A3015 RMK AO2 SLP151 T01500039,M
HND,2022-09-12 12:56,-115.1344,35.9729,742.79,70.00,64.00,81.27,100.00,8.00,0.05,30.12,1019.10,10.00,M,FEW,BKN,M,M,4800.00,11000.00,M,M,-RA,M,M,M,M,M,M,70.00,KHND 121256Z AUTO 10008KT 10SM -RA FEW048 BKN110 21/18 A3012 RMK AO2 SLP191 P0005 T02110178,M
TPH,2022-09-12 12:56,-117.0904,38.0505,1654.00,59.00,44.00,57.66,360.00,9.00,0.00,30.19,1015.20,10.00,M,CLR,M,M,M,M,M,M,M,M,M,M,M,M,M,M,59.00,KTPH 121256Z AUTO 36009KT 10SM CLR 15/07 A3019 RMK AO2 SLP152 T01500067,M
INS,2022-09-12 12:57,-115.6733,36.5872,955.00,68.00,62.60,82.86,120.00,13.00,0.00,30.13,1015.70,6.00,24.00,FEW,BKN,OVC,M,300.00,7000.00,9500.00,M,HZ,M,M,M,M,M,M,68.00,KINS 121257Z AUTO 12013G24KT 6SM HZ FEW003 BKN070 OVC095 20/17 A3013 RMK AO2 RAE57 SLP157 $,M
INS,2022-09-12 13:02,-115.6733,36.5872,955.00,68.00,62.60,82.86,120.00,12.00,0.00,30.13,1015.70,7.00,M,FEW,FEW,SCT,OVC,300.00,700.00,6500.00,8500.00,-RA,M,M,M,M,M,M,68.00,KINS 121302Z AUTO 12012KT 7SM -RA FEW003 FEW007 SCT065 OVC085 20/17 A3013 RMK AO2 RAE1257RAB02 SLP157 $,M
LSV,2022-09-12 13:03,-115.0343,36.2362,570.00,73.40,71.60,94.10,230.00,9.00,0.00,30.09,1016.60,10.00,M,SCT,OVC,M,M,6000.00,8000.00,M,M,M,M,M,M,M,M,M,73.40,KLSV 121303Z AUTO 23009KT 10SM SCT060 OVC080 23/22 A3009 RMK AO2 RAE03 SLP166 $,M
LSV,2022-09-12 13:11,-115.0343,36.2362,570.00,73.40,73.40,100.00,250.00,5.00,0.00,30.09,1016.60,10.00,M,BKN,OVC,M,M,7000.00,8000.00,M,M,-RA,M,M,M,M,M,M,73.40,KLSV 121311Z AUTO 25005KT 10SM -RA BKN070 OVC080 23/23 A3009 RMK AO2 RAE03RAB11 SLP166 $,M
RTS,2022-09-12 13:15,-119.8764,39.6682,1539.00,59.00,39.20,47.72,0.00,0.00,0.00,30.15,M,10.00,M,CLR,M,M,M,M,M,M,M,M,M,M,M,M,M,M,59.00,KRTS 121315Z AUTO 00000KT 10SM CLR 15/04 A3015 RMK AO2,M
BVU,2022-09-12 13:15,-114.8611,35.9475,671.00,68.00,66.20,93.97,80.00,4.00,0.00,30.10,M,M,M,M,M,M,M,M,M,M,M,RA,M,M,M,M,M,M,68.00,KBVU 121315Z AUTO 08004KT RA 20/19 A3010 RMK AO2 TSNO,M
MEV,2022-09-12 13:15,-119.7500,38.9963,1441.42,48.20,39.20,70.88,120.00,4.00,0.00,30.14,M,1.50,M,M,M,M,M,M,M,M,M,HZ,M,M,M,M,M,M,46.34,KMEV 121315Z AUTO 12004KT 1 1/2SM HZ 09/04 A3014 RMK AO2,M
BAM,2022-09-12 13:15,-116.8743,40.5990,1382.36,59.00,37.40,44.47,0.00,0.00,0.00,30.11,M,10.00,M,CLR,M,M,M,M,M,M,M,M,M,M,M,M,M,M,59.00,KBAM 121315Z AUTO 00000KT 10SM CLR 15/03 A3011 RMK AO1,M
HTH,2022-09-12 13:15,-118.6315,38.5448,1282.89,66.20,42.80,42.57,180.00,5.00,0.00,30.09,M,10.00,M,CLR,M,M,M,M,M,M,M,M,M,M,M,M,M,M,66.20,KHTH 121315Z AUTO 18005KT 10SM CLR 19/06 A3009 RMK A01,M
TMT,2022-09-12 13:15,-117.1971,39.4643,1749.34,M,M,M,0.00,0.00,0.00,30.21,M,10.00,M,CLR,M,M,M,M,M,M,M,M,M,M,M,M,M,M,M,KTMT 121315Z AUTO 00000KT 10SM CLR A3021 RMK AO2,M
CXP,2022-09-12 13:15,-119.7326,39.1923,1431.00,55.40,41.00,58.27,0.00,0.00,0.00,30.15,M,1.75,M,SCT,M,M,M,5000.00,M,M,M,HZ,M,M,M,M,M,M,55.40,KCXP 121315Z AUTO 00000KT 1 3/4SM HZ SCT050 13/05 A3015 RMK AO2,M
BAM,2022-09-12 13:35,-116.8743,40.5990,1382.36,59.00,37.40,44.47,160.00,4.00,0.00,30.11,M,10.00,M,CLR,M,M,M,M,M,M,M,M,M,M,M,M,M,M,59.00,KBAM 121335Z AUTO 16004KT 10SM CLR 15/03 A3011 RMK AO1,M
BVU,2022-09-12 13:35,-114.8611,35.9475,671.00,68.00,66.20,93.97,10.00,3.00,0.00,30.09,M,M,M,M,M,M,M,M,M,M,M,+RA,M,M,M,M,M,M,68.00,KBVU 121335Z AUTO 01003KT +RA 20/19 A3009 RMK AO2 TSNO,M
CXP,2022-09-12 13:35,-119.7326,39.1923,1431.00,55.40,41.00,58.27,0.00,0.00,0.00,30.15,M,1.25,M,CLR,M,M,M,M,M,M,M,HZ,M,M,M,M,M,M,55.40,KCXP 121335Z AUTO 00000KT 1 1/4SM HZ CLR 13/05 A3015 RMK AO2,M
RTS,2022-09-12 13:35,-119.8764,39.6682,1539.00,53.60,37.40,54.07,330.00,8.00,0.00,30.15,M,10.00,M,CLR,M,M,M,M,M,M,M,M,M,M,M,M,M,M,53.60,KRTS 121335Z AUTO 33008KT 10SM CLR 12/03 A3015 RMK AO2,M
MEV,2022-09-12 13:35,-119.7500,38.9963,1441.42,50.00,39.20,66.27,0.00,0.00,0.00,30.14,M,1.00,M,M,M,M,M,M,M,M,M,HZ,M,M,M,M,M,M,50.00,KMEV 121335Z AUTO 00000KT 1SM HZ 10/04 A3014 RMK AO2,M
HTH,2022-09-12 13:35,-118.6315,38.5448,1282.89,64.40,42.80,45.32,150.00,5.00,0.00,30.10,M,10.00,M,CLR,M,M,M,M,M,M,M,M,M,M,M,M,M,M,64.40,KHTH 121335Z AUTO 15005KT 10SM CLR 18/06 A3010 RMK A01,M
TMT,2022-09-12 13:35,-117.1971,39.4643,1749.34,M,M,M,280.00,4.00,0.00,30.21,M,10.00,M,CLR,M,M,M,M,M,M,M,M,M,M,M,M,M,M,M,KTMT 121335Z AUTO 28004KT 10SM CLR A3021 RMK AO2,M
LSV,2022-09-12 13:42,-115.0343,36.2362,570.00,69.80,69.80,100.00,50.00,6.00,0.00,30.10,1017.10,10.00,M,CLR,M,M,M,M,M,M,M,M,M,M,M,M,M,M,69.80,KLSV 121342Z AUTO 05006KT 10SM CLR 21/21 A3010 RMK AO2 RAE03RAB11E42 SLP171 $,M
LSV,2022-09-12 13:45,-115.0343,36.2362,570.00,69.80,69.80,100.00,40.00,5.00,0.00,30.09,1016.70,10.00,M,CLR,M,M,M,M,M,M,M,-RA,M,M,M,M,M,M,69.80,KLSV 121345Z AUTO 04005KT 10SM -RA CLR 21/21 A3009 RMK AO2 RAE03RAB11E42RAB45 SLP167 $,M
LSV,2022-09-12 13:51,-115.0343,36.2362,570.00,69.80,69.80,100.00,30.00,6.00,0.00,30.09,1016.80,10.00,M,CLR,M,M,M,M,M,M,M,M,M,M,M,M,M,M,69.80,KLSV 121351Z AUTO 03006KT 10SM CLR 21/21 A3009 RMK AO2 RAE03RAB11E42RAB45E51 SLP168 $,M
ELY,2022-09-12 13:53,-114.8453,39.2950,1909.00,49.00,38.00,65.62,180.00,9.00,0.00,30.26,1016.60,10.00,M,CLR,M,M,M,M,M,M,M,M,M,M,M,M,M,M,44.53,KELY 121353Z AUTO 18009KT 10SM CLR 09/03 A3026 RMK AO2 SLP166 T00940033 $,M
DRA,2022-09-12 13:53,-116.0278,36.6206,1009.00,69.00,60.00,73.03,90.00,16.00,0.02,30.11,1015.20,10.00,24.00,OVC,M,M,M,10000.00,M,M,M,-RA,M,M,M,26.00,120.00,2022-09-12 13:41,69.10,KDRA 121353Z AUTO 09016G24KT 10SM -RA OVC100 21/16 A3011 RMK AO2 PK WND 12026/1341 RAE13B50 SLP152 P0002 T02060156 $,M
P68,2022-09-12 13:53,-116.0056,39.6014,1993.00,52.00,38.00,58.48,160.00,4.00,0.00,30.22,1015.70,M,M,M,M,M,M,M,M,M,M,M,M,M,M,M,M,M,52.00,KP68 121353Z AUTO 16004KT 11/03 A3022 RMK AO1 SLP157 T01110033,M
VGT,2022-09-12 13:53,-115.1933,36.2111,667.00,71.00,65.00,80.78,0.00,0.00,0.08,30.12,1019.10,10.00,M,SCT,OVC,M,M,2500.00,11000.00,M,M,-RA,M,M,M,M,M,M,71.10,KVGT 121353Z 00000KT 10SM -RA SCT025 OVC110 22/18 A3012 RMK AO2 SLP191 P0008 T02170183,M
LOL,2022-09-12 13:53,-118.5701,40.0684,1192.43,59.00,50.00,72.01,290.00,3.00,0.00,30.05,1014.10,10.00,M,SCT,M,M,M,11000.00,M,M,M,M,M,M,M,M,M,M,59.00,KLOL 121353Z AUTO 29003KT 10SM SCT110 15/10 A3005 RMK AO2 SLP141 T01500100,M
BVU,2022-09-12 13:55,-114.8611,35.9475,671.00,68.00,66.20,93.97,250.00,6.00,0.00,30.09,M,M,M,M,M,M,M,M,M,M,M,-RA,M,M,M,M,M,M,68.00,KBVU 121355Z AUTO 25006KT -RA 20/19 A3009 RMK AO2 TSNO,M
CXP,2022-09-12 13:55,-119.7326,39.1923,1431.00,53.60,39.20,58.02,0.00,0.00,0.00,30.15,M,1.00,M,CLR,M,M,M,M,M,M,M,HZ,M,M,M,M,M,M,53.60,KCXP 121355Z AUTO 00000KT 1SM HZ CLR 12/04 A3015 RMK AO2,M
RNO,2022-09-12 13:55,-119.7711,39.4839,1341.00,64.00,46.00,51.93,0.00,0.00,0.00,30.11,1014.40,4.00,M,FEW,SCT,M,M,12000.00,21000.00,M,M,FU,M,M,M,M,M,M,64.00,KRNO 121355Z 00000KT 4SM FU FEW120 SCT210 18/08 A3011 RMK AO2 SLP144 FU ALQDS MTNS OBSCD SE THRU W T01780078 $,M
RTS,2022-09-12 13:55,-119.8764,39.6682,1539.00,53.60,37.40,54.07,360.00,4.00,0.00,30.16,M,10.00,M,CLR,M,M,M,M,M,M,M,M,M,M,M,M,M,M,53.60,KRTS 121355Z AUTO 36004KT 10SM CLR 12/03 A3016 RMK AO2,M
HTH,2022-09-12 13:55,-118.6315,38.5448,1282.89,64.40,42.80,45.32,0.00,0.00,0.00,30.10,M,10.00,M,CLR,M,M,M,M,M,M,M,M,M,M,M,M,M,M,64.40,KHTH 121355Z AUTO 00000KT 10SM CLR 18/06 A3010 RMK A01,M
TMT,2022-09-12 13:55,-117.1971,39.4643,1749.34,M,M,M,290.00,4.00,0.00,30.22,M,10.00,M,CLR,M,M,M,M,M,M,M,M,M,M,M,M,M,M,M,KTMT 121355Z AUTO 29004KT 10SM CLR A3022 RMK AO2,M
BAM,2022-09-12 13:55,-116.8743,40.5990,1382.36,59.00,37.40,44.47,210.00,3.00,0.00,30.12,M,10.00,M,CLR,M,M,M,M,M,M,M,M,M,M,M,M,M,M,59.00,KBAM 121355Z AUTO 21003KT 10SM CLR 15/03 A3012 RMK AO1,M
MEV,2022-09-12 13:55,-119.7500,38.9963,1441.42,50.00,39.20,66.27,0.00,0.00,0.00,30.14,M,0.75,M,VV ,M,M,M,500.00,M,M,M,HZ,M,M,M,M,M,M,50.00,KMEV 121355Z AUTO 00000KT 3/4SM HZ VV005 10/04 A3014 RMK AO2,M
LAS,2022-09-12 13:56,-115.1634,36.0719,663.00,70.00,65.00,83.86,360.00,7.00,0.08,30.11,1017.30,8.00,M,FEW,SCT,OVC,M,5000.00,9000.00,11000.00,M,-RA,M,M,M,M,M,M,70.00,KLAS 121356Z 36007KT 8SM -RA FEW050 SCT090 OVC110 21/18 A3011 RMK AO2 SLP173 P0008 T02110183,M
HND,2022-09-12 13:56,-115.1344,35.9729,742.79,69.00,65.00,86.48,340.00,8.00,0.03,30.13,1019.40,10.00,M,OVC,M,M,M,11000.00,M,M,M,-RA,M,M,M,M,M,M,69.10,KHND 121356Z 34008KT 10SM -RA OVC110 21/18 A3013 RMK AO2 SLP194 P0003 T02060183,M
INS,2022-09-12 13:56,-115.6733,36.5872,955.00,65.50,65.00,98.62,100.00,12.00,0.06,30.14,1016.30,10.00,M,OVC,M,M,M,9500.00,M,M,M,-RA,M,M,M,M,M,M,65.50,KINS 121356Z AUTO 10012KT 10SM -RA OVC095 19/18 A3014 RMK AO2 RAE1257RAB02 SLP163 P0006 T01860184 $,M
TPH,2022-09-12 13:56,-117.0904,38.0505,1654.00,58.00,44.00,59.98,20.00,9.00,0.00,30.19,1015.80,10.00,M,CLR,M,M,M,M,M,M,M,M,M,M,M,M,M,M,57.90,KTPH 121356Z AUTO 02009KT 10SM CLR 14/07 A3019 RMK AO2 SLP158 T01440067,M
EKO,2022-09-12 13:56,-115.7860,40.8242,1367.00,59.00,38.00,45.36,90.00,4.00,0.00,30.16,1015.70,10.00,M,CLR,M,M,M,M,M,M,M,M,M,M,M,M,M,M,59.00,KEKO 121356Z AUTO 09004KT 10SM CLR 15/03 A3016 RMK AO2 SLP157 T01500033,M
WMC,2022-09-12 13:56,-117.8072,40.9019,1315.00,62.00,46.00,55.51,150.00,5.00,0.00,30.07,1013.60,10.00,M,FEW,M,M,M,11000.00,M,M,M,M,M,M,M,M,M,M,62.10,KWMC 121356Z AUTO 15005KT 10SM FEW110 17/08 A3007 RMK AO2 SLP136 T01670078 $,M
NFL,2022-09-12 13:56,-118.7010,39.4166,1199.00,61.00,43.00,51.48,160.00,6.00,0.00,30.06,1014.70,3.00,M,CLR,M,M,M,M,M,M,M,HZ,M,M,M,M,M,M,61.00,KNFL 121356Z AUTO 16006KT 3SM HZ CLR 16/06 A3006 RMK AO2 SLP147 T01610061,M
LSV,2022-09-12 13:56,-115.0343,36.2362,570.00,70.00,70.00,100.00,360.00,6.00,0.04,30.09,1016.80,10.00,M,CLR,M,M,M,M,M,M,M,M,M,M,M,M,M,M,70.00,KLSV 121356Z AUTO 36006KT 10SM CLR 21/21 A3009 RMK AO2 RAE03RAB11E42RAB45E51 SLP168 P0004 T02110211 $,M
LSV,2022-09-12 13:58,-115.0343,36.2362,570.00,69.80,69.80,100.00,340.00,5.00,0.00,30.08,1016.50,10.00,M,CLR,M,M,M,M,M,M,M,-RA,M,M,M,M,M,M,69.80,KLSV 121358Z AUTO 34005KT 10SM -RA CLR 21/21 A3008 RMK AO2 RAB58 SLP165 $,M
VGT,2022-09-12 14:03,-115.1933,36.2111,667.00,72.00,65.00,78.35,10.00,5.00,T,30.11,M,10.00,M,BKN,OVC,M,M,2500.00,11000.00,M,M,-RA,M,M,M,M,M,M,72.00,KVGT 121403Z 01005KT 10SM -RA BKN025 OVC110 22/18 A3011 RMK AO2 P0000 T02220183,M
LSV,2022-09-12 14:04,-115.0343,36.2362,570.00,69.80,69.80,100.00,330.00,5.00,0.00,30.08,1016.50,10.00,M,CLR,M,M,M,M,M,M,M,M,M,M,M,M,M,M,69.80,KLSV 121404Z AUTO 33005KT 10SM CLR 21/21 A3008 RMK AO2 RAB1358E04 SLP165 $,M
VGT,2022-09-12 14:12,-115.1933,36.2111,667.00,72.00,65.00,78.35,350.00,5.00,T,30.10,M,10.00,M,SCT,BKN,M,M,2500.00,11000.00,M,M,-RA,M,M,M,M,M,M,72.00,KVGT 121412Z 35005KT 10SM -RA SCT025 BKN110 22/18 A3010 RMK AO2 P0000 T02220183,M
LSV,2022-09-12 14:13,-115.0343,36.2362,570.00,71.60,71.60,100.00,290.00,9.00,0.00,30.07,1016.20,10.00,M,FEW,M,M,M,2200.00,M,M,M,-RA,M,M,M,M,M,M,71.60,KLSV 121413Z AUTO 29009KT 10SM -RA FEW022 22/22 A3007 RMK AO2 RAB1358E04RAB13 SLP162 $,M
CXP,2022-09-12 14:15,-119.7326,39.1923,1431.00,57.20,41.00,54.60,310.00,3.00,0.00,30.15,M,1.00,M,CLR,M,M,M,M,M,M,M,HZ,M,M,M,M,M,M,57.20,KCXP 121415Z AUTO 31003KT 1SM HZ CLR 14/05 A3015 RMK AO2,M
MEV,2022-09-12 14:15,-119.7500,38.9963,1441.42,50.00,39.20,66.27,0.00,0.00,0.00,30.14,M,0.75,M,VV ,M,M,M,500.00,M,M,M,HZ,M,M,M,M,M,M,50.00,KMEV 121415Z AUTO 00000KT 3/4SM HZ VV005 10/04 A3014 RMK AO2,M
BAM,2022-09-12 14:15,-116.8743,40.5990,1382.36,62.60,39.20,42.00,0.00,0.00,0.00,30.12,M,10.00,M,CLR,M,M,M,M,M,M,M,M,M,M,M,M,M,M,62.60,KBAM 121415Z AUTO 00000KT 10SM CLR 17/04 A3012 RMK AO1,M
HTH,2022-09-12 14:15,-118.6315,38.5448,1282.89,64.40,41.00,42.28,140.00,8.00,0.00,30.10,M,10.00,M,CLR,M,M,M,M,M,M,M,M,M,M,M,M,M,M,64.40,KHTH 121415Z AUTO 14008KT 10SM CLR 18/05 A3010 RMK A01,M
TMT,2022-09-12 14:15,-117.1971,39.4643,1749.34,M,M,M,0.00,0.00,0.00,30.22,M,10.00,M,CLR,M,M,M,M,M,M,M,M,M,M,M,M,M,M,M,KTMT 121415Z AUTO 00000KT 10SM CLR A3022 RMK AO2,M
BVU,2022-09-12 14:15,-114.8611,35.9475,671.00,68.00,66.20,93.97,300.00,5.00,0.00,30.09,M,M,M,M,M,M,M,M,M,M,M,M,M,M,M,M,M,M,68.00,KBVU 121415Z AUTO 30005KT 20/19 A3009 RMK AO2 TSNO,M
RTS,2022-09-12 14:15,-119.8764,39.6682,1539.00,53.60,37.40,54.07,360.00,7.00,0.00,30.16,M,10.00,M,CLR,M,M,M,M,M,M,M,M,M,M,M,M,M,M,53.60,KRTS 121415Z AUTO 36007KT 10SM CLR 12/03 A3016 RMK AO2,M
NFL,2022-09-12 14:23,-118.7010,39.4166,1199.00,63.00,43.00,47.97,210.00,5.00,0.00,30.06,M,4.00,M,SCT,M,M,M,15000.00,M,M,M,HZ,M,M,M,M,M,M,63.00,KNFL 121423Z 21005KT 4SM HZ SCT150 17/06 A3006 RMK AO2 T01720061,M
CXP,2022-09-12 14:30,-119.7326,39.1923,1431.00,57.20,41.00,54.60,0.00,0.00,0.00,30.16,M,1.00,M,CLR,M,M,M,M,M,M,M,HZ,M,M,M,M,M,M,57.20,KCXP 121430Z AUTO 00000KT 1SM HZ CLR 14/05 A3016 RMK AO2,M
HTH,2022-09-12 14:35,-118.6315,38.5448,1282.89,66.20,41.00,39.72,170.00,4.00,0.00,30.10,M,10.00,M,CLR,M,M,M,M,M,M,M,M,M,M,M,M,M,M,66.20,KHTH 121435Z AUTO 17004KT 10SM CLR 19/05 A3010 RMK A01,M
BAM,2022-09-12 14:35,-116.8743,40.5990,1382.36,64.40,41.00,42.28,0.00,0.00,0.00,30.12,M,10.00,M,CLR,M,M,M,M,M,M,M,M,M,M,M,M,M,M,64.40,KBAM 121435Z AUTO 00000KT 10SM CLR 18/05 A3012 RMK AO1,M
MEV,2022-09-12 14:35,-119.7500,38.9963,1441.42,50.00,41.00,71.07,150.00,3.00,0.00,30.14,M,0.75,M,VV ,M,M,M,500.00,M,M,M,HZ,M,M,M,M,M,M,50.00,KMEV 121435Z AUTO 15003KT 3/4SM HZ VV005 10/05 A3014 RMK AO2,M
RTS,2022-09-12 14:35,-119.8764,39.6682,1539.00,57.20,39.20,50.91,360.00,5.00,0.00,30.16,M,10.00,M,CLR,M,M,M,M,M,M,M,M,M,M,M,M,M,M,57.20,KRTS 121435Z AUTO 36005KT 10SM CLR 14/04 A3016 RMK AO2,M
BVU,2022-09-12 14:35,-114.8611,35.9475,671.00,68.00,66.20,93.97,310.00,4.00,0.00,30.10,M,M,M,M,M,M,M,M,M,M,M,M,M,M,M,M,M,M,68.00,KBVU 121435Z AUTO 31004KT 20/19 A3010 RMK AO2 TSNO,M
TMT,2022-09-12 14:35,-117.1971,39.4643,1749.34,M,M,M,0.00,0.00,0.00,30.22,M,10.00,M,CLR,M,M,M,M,M,M,M,M,M,M,M,M,M,M,M,KTMT 121435Z AUTO 00000KT 10SM CLR A3022 RMK AO2,M
LSV,2022-09-12 14:43,-115.0343,36.2362,570.00,69.80,69.80,100.00,290.00,8.00,0.00,30.06,1015.80,10.00,M,CLR,M,M,M,M,M,M,M,M,M,M,M,M,M,M,69.80,KLSV 121443Z AUTO 29008KT 10SM CLR 21/21 A3006 RMK AO2 RAB1358E04RAB13E43 SLP158 $,M
LSV,2022-09-12 14:47,-115.0343,36.2362,570.00,69.80,69.80,100.00,290.00,8.00,0.00,30.06,1015.80,10.00,M,CLR,M,M,M,M,M,M,M,-RA,M,M,M,M,M,M,69.80,KLSV 121447Z AUTO 29008KT 10SM -RA CLR 21/21 A3006 RMK AO2 RAB1358E04RAB13E43RAB47 SLP158 $,M
P68,2022-09-12 14:53,-116.0056,39.6014,1993.00,60.00,40.00,47.15,220.00,6.00,0.00,30.21,1015.50,M,M,M,M,M,M,M,M,M,M,M,M,M,M,M,M,M,60.10,KP68 121453Z AUTO 22006KT 16/04 A3021 RMK AO1 SLP155 T01560044 58001,M
LOL,2022-09-12 14:53,-118.5701,40.0684,1192.43,65.00,51.00,60.90,60.00,3.00,0.00,30.05,1013.80,10.00,M,CLR,M,M,M,M,M,M,M,M,M,M,M,M,M,M,64.90,KLOL 121453Z AUTO 06003KT 10SM CLR 18/11 A3005 RMK AO2 SLP138 T01830106 53002,M
VGT,2022-09-12 14:53,-115.1933,36.2111,667.00,72.00,67.00,83.99,330.00,4.00,T,30.08,1017.90,10.00,M,BKN,OVC,M,M,9500.00,11000.00,M,M,-RA,M,M,M,M,M,M,72.00,KVGT 121453Z 33004KT 10SM -RA BKN095 OVC110 22/19 A3008 RMK AO2 SLP179 P0000 60008 T02220194 50015,M
ELY,2022-09-12 14:53,-114.8453,39.2950,1909.00,58.00,40.00,51.02,170.00,8.00,0.00,30.25,1015.60,10.00,M,CLR,M,M,M,M,M,M,M,M,M,M,M,M,M,M,57.90,KELY 121453Z AUTO 17008KT 10SM CLR 14/04 A3025 RMK AO2 SLP156 T01440044 58001 $,M
LSV,2022-09-12 14:53,-115.0343,36.2362,570.00,69.80,69.80,100.00,220.00,8.00,0.00,30.07,1016.20,10.00,M,CLR,M,M,M,M,M,M,M,M,M,M,M,M,M,M,69.80,KLSV 121453Z AUTO 22008KT 10SM CLR 21/21 A3007 RMK AO2 RAB1358E04RAB13E43RAB47E53 SLP162 $,M
DRA,2022-09-12 14:53,-116.0278,36.6206,1009.00,67.00,61.00,81.33,100.00,23.00,T,30.12,1015.70,10.00,32.00,BKN,OVC,M,M,8500.00,11000.00,M,M,-RA,M,M,M,32.00,110.00,2022-09-12 14:51,66.90,KDRA 121453Z AUTO 10023G32KT 10SM -RA BKN085 OVC110 19/16 A3012 RMK AO2 PK WND 11032/1451 RAE33B50 SLP157 P0000 60003 T01940161 53016 $,M
LSV,2022-09-12 14:54,-115.0343,36.2362,570.00,69.80,69.80,100.00,220.00,8.00,0.00,30.07,1016.20,10.00,M,FEW,M,M,M,10000.00,M,M,M,-RA,M,M,M,M,M,M,69.80,KLSV 121454Z AUTO 22008KT 10SM -RA FEW100 21/21 A3007 RMK AO2 RAB1358E04RAB13E43RAB47E53RAB53 SLP162 $,M
CXP,2022-09-12 14:55,-119.7326,39.1923,1431.00,60.80,41.00,48.00,0.00,0.00,0.00,30.15,M,0.75,M,VV ,M,M,M,500.00,M,M,M,HZ,M,M,M,M,M,M,60.80,KCXP 121455Z AUTO 00000KT 3/4SM HZ VV005 16/05 A3015 RMK AO2,M
MEV,2022-09-12 14:55,-119.7500,38.9963,1441.42,51.80,41.00,66.48,0.00,0.00,0.00,30.14,M,0.75,M,VV ,M,M,M,500.00,M,M,M,HZ,M,M,M,M,M,M,51.80,KMEV 121455Z AUTO 00000KT 3/4SM HZ VV005 11/05 A3014 RMK AO2,M
BAM,2022-09-12 14:55,-116.8743,40.5990,1382.36,66.20,41.00,39.72,0.00,0.00,0.00,30.11,M,10.00,M,CLR,M,M,M,M,M,M,M,M,M,M,M,M,M,M,66.20,KBAM 121455Z AUTO 00000KT 10SM CLR 19/05 A3011 RMK AO1,M
HTH,2022-09-12 14:55,-118.6315,38.5448,1282.89,69.80,44.60,40.29,210.00,3.00,0.00,30.10,M,10.00,M,CLR,M,M,M,M,M,M,M,M,M,M,M,M,M,M,69.80,KHTH 121455Z AUTO 21003KT 10SM CLR 21/07 A3010 RMK A01,M
RNO,2022-09-12 14:55,-119.7711,39.4839,1341.00,64.00,46.00,51.93,180.00,3.00,0.00,30.12,1014.70,4.00,M,FEW,FEW,M,M,12000.00,21000.00,M,M,FU,M,M,M,M,M,M,64.00,KRNO 121455Z 18003KT 4SM FU FEW120 FEW210 18/08 A3012 RMK AO2 SLP147 FU ALQDS T01780078 53002,M
RTS,2022-09-12 14:55,-119.8764,39.6682,1539.00,62.60,39.20,42.00,340.00,4.00,0.00,30.16,M,10.00,M,CLR,M,M,M,M,M,M,M,M,M,M,M,M,M,M,62.60,KRTS 121455Z AUTO 34004KT 10SM CLR 17/04 A3016 RMK AO2,M
BVU,2022-09-12 14:55,-114.8611,35.9475,671.00,69.80,64.40,82.98,320.00,6.00,0.00,30.08,M,M,M,M,M,M,M,M,M,M,M,M,M,M,M,M,M,M,69.80,KBVU 121455Z AUTO 32006KT 21/18 A3008 RMK AO2 TSNO,M
TMT,2022-09-12 14:55,-117.1971,39.4643,1749.34,M,M,M,0.00,0.00,0.00,30.21,M,10.00,M,CLR,M,M,M,M,M,M,M,M,M,M,M,M,M,M,M,KTMT 121455Z AUTO 00000KT 10SM CLR A3021 RMK AO2,M
LAS,2022-09-12 14:56,-115.1634,36.0719,663.00,70.00,66.00,87.14,0.00,0.00,0.01,30.09,1016.60,10.00,M,FEW,FEW,BKN,BKN,3500.00,6000.00,12000.00,20000.00,-RA,M,M,M,M,M,M,70.00,KLAS 121456Z 00000KT 10SM -RA FEW035 FEW060 BKN120 BKN200 21/19 A3009 RMK AO2 SLP166 P0001 60017 T02110189 50011,M
TPH,2022-09-12 14:56,-117.0904,38.0505,1654.00,61.00,48.00,62.23,110.00,4.00,0.00,30.20,1016.20,10.00,M,CLR,M,M,M,M,M,M,M,M,M,M,M,M,M,M,61.00,KTPH 121456Z AUTO 11004KT 10SM CLR 16/09 A3020 RMK AO2 SLP162 T01610089 53005,M
HND,2022-09-12 14:56,-115.1344,35.9729,742.79,69.00,66.00,89.86,0.00,0.00,0.01,30.12,1019.30,10.00,M,SCT,M,M,M,11000.00,M,M,M,M,M,M,M,M,M,M,69.10,KHND 121456Z 00000KT 10SM SCT110 21/19 A3012 RMK AO2 RAE32 SLP193 P0001 60009 T02060189 50011,M
WMC,2022-09-12 14:56,-117.8072,40.9019,1315.00,67.00,46.00,46.94,160.00,7.00,0.00,30.07,1013.60,9.00,M,CLR,M,M,M,M,M,M,M,M,M,M,M,M,M,M,66.90,KWMC 121456Z AUTO 16007KT 9SM CLR 19/08 A3007 RMK AO2 SLP136 T01940078 56004 $,M
EKO,2022-09-12 14:56,-115.7860,40.8242,1367.00,58.00,34.00,40.43,80.00,5.00,0.00,30.16,1016.20,10.00,M,CLR,M,M,M,M,M,M,M,M,M,M,M,M,M,M,57.90,KEKO 121456Z AUTO 08005KT 10SM CLR 14/01 A3016 RMK AO2 SLP162 T01440011 53001,M
INS,2022-09-12 14:56,-115.6733,36.5872,955.00,65.80,65.50,98.96,90.00,13.00,0.03,30.15,1016.80,10.00,M,FEW,BKN,OVC,M,6000.00,9000.00,11000.00,M,-DZ,M,M,M,M,M,M,65.80,KINS 121456Z AUTO 09013KT 10SM -DZ FEW060 BKN090 OVC110 19/19 A3015 RMK AO2 RAE45DZB45 SLP168 P0003 60012 T01880186 51026 $,M
LSV,2022-09-12 14:56,-115.0343,36.2362,570.00,70.30,70.30,100.00,220.00,7.00,0.03,30.07,1016.20,10.00,M,FEW,FEW,M,M,2500.00,10000.00,M,M,-RA,M,M,M,M,M,M,70.30,KLSV 121456Z AUTO 22007KT 10SM -RA FEW025 FEW100 21/21 A3007 RMK AO2 RAB1358E04RAB13E43RAB47E53RAB53 SLP162 P0003 60007 T02130213 50015 $,M
NFL,2022-09-12 14:56,-118.7010,39.4166,1199.00,67.00,44.00,43.67,160.00,5.00,0.00,30.06,1014.80,5.00,M,SCT,SCT,M,M,15000.00,22000.00,M,M,HZ,M,M,M,M,M,M,66.90,KNFL 121456Z 16005KT 5SM HZ SCT150 SCT220 19/07 A3006 RMK AO2 SLP148 T01940067 53002,M
INS,2022-09-12 14:59,-115.6733,36.5872,955.00,66.20,66.20,100.00,90.00,12.00,0.00,30.15,1016.80,10.00,M,FEW,BKN,OVC,M,6000.00,9000.00,11000.00,M,M,M,M,M,M,M,M,66.20,KINS 121459Z AUTO 09012KT 10SM FEW060 BKN090 OVC110 19/19 A3015 RMK AO2 DZE59 SLP168 $,M
LSV,2022-09-12 15:06,-115.0343,36.2362,570.00,69.80,69.80,100.00,220.00,6.00,0.00,30.06,1015.80,10.00,M,FEW,M,M,M,10000.00,M,M,M,M,M,M,M,M,M,M,69.80,KLSV 121506Z AUTO 22006KT 10SM FEW100 21/21 A3006 RMK AO2 RAE06 SLP158 $,M
BAM,2022-09-12 15:15,-116.8743,40.5990,1382.36,68.00,42.80,40.00,0.00,0.00,0.00,30.11,M,10.00,M,CLR,M,M,M,M,M,M,M,M,M,M,M,M,M,M,68.00,KBAM 121515Z AUTO 00000KT 10SM CLR 20/06 A3011 RMK AO1,M
CXP,2022-09-12 15:15,-119.7326,39.1923,1431.00,59.00,44.60,58.77,0.00,0.00,0.00,30.15,M,1.00,M,CLR,M,M,M,M,M,M,M,HZ,M,M,M,M,M,M,59.00,KCXP 121515Z AUTO 00000KT 1SM HZ CLR 15/07 A3015 RMK AO2,M
MEV,2022-09-12 15:15,-119.7500,38.9963,1441.42,55.40,42.80,62.46,0.00,0.00,0.00,30.14,M,0.75,M,VV ,M,M,M,500.00,M,M,M,HZ,M,M,M,M,M,M,55.40,KMEV 121515Z AUTO 00000KT 3/4SM HZ VV005 13/06 A3014 RMK AO2,M
BVU,2022-09-12 15:15,-114.8611,35.9475,671.00,71.60,66.20,83.09,320.00,11.00,0.00,30.07,M,M,M,M,M,M,M,M,M,M,M,M,M,M,M,M,M,M,71.60,KBVU 121515Z AUTO 32011KT 22/19 A3007 RMK AO2 TSNO,M
RTS,2022-09-12 15:15,-119.8764,39.6682,1539.00,64.40,41.00,42.28,0.00,0.00,0.00,30.16,M,10.00,M,CLR,M,M,M,M,M,M,M,M,M,M,M,M,M,M,64.40,KRTS 121515Z AUTO 00000KT 10SM CLR 18/05 A3016 RMK AO2,M
TMT,2022-09-12 15:15,-117.1971,39.4643,1749.34,M,M,M,250.00,4.00,0.00,30.22,M,10.00,M,CLR,M,M,M,M,M,M,M,M,M,M,M,M,M,M,M,KTMT 121515Z AUTO 25004KT 10SM CLR A3022 RMK AO2,M
HTH,2022-09-12 15:15,-118.6315,38.5448,1282.89,69.80,44.60,40.29,240.00,5.00,0.00,30.10,M,10.00,M,CLR,M,M,M,M,M,M,M,M,M,M,M,M,M,M,69.80,KHTH 121515Z AUTO 24005KT 10SM CLR 21/07 A3010 RMK A01,M
CXP,2022-09-12 15:30,-119.7326,39.1923,1431.00,60.80,42.80,51.45,0.00,0.00,0.00,30.15,M,1.00,M,CLR,M,M,M,M,M,M,M,HZ,M,M,M,M,M,M,60.80,KCXP 121530Z AUTO 00000KT 1SM HZ CLR 16/06 A3015 RMK AO2,M
MEV,2022-09-12 15:35,-119.7500,38.9963,1441.42,59.00,42.80,54.86,0.00,0.00,0.00,30.14,M,0.75,M,VV ,M,M,M,500.00,M,M,M,HZ,M,M,M,M,M,M,59.00,KMEV 121535Z AUTO 00000KT 3/4SM HZ VV005 15/06 A3014 RMK AO2,M
BVU,2022-09-12 15:35,-114.8611,35.9475,671.00,71.60,66.20,83.09,320.00,8.00,0.00,30.08,M,M,14.00,M,M,M,M,M,M,M,M,M,M,M,M,M,M,M,71.60,KBVU 121535Z AUTO 32008G14KT 22/19 A3008 RMK AO2 TSNO,M
RTS,2022-09-12 15:35,-119.8764,39.6682,1539.00,66.20,41.00,39.72,280.00,5.00,0.00,30.16,M,10.00,M,CLR,M,M,M,M,M,M,M,M,M,M,M,M,M,M,66.20,KRTS 121535Z AUTO 28005KT 10SM CLR 19/05 A3016 RMK AO2,M
BAM,2022-09-12 15:35,-116.8743,40.5990,1382.36,69.80,42.80,37.61,70.00,3.00,0.00,30.12,M,10.00,M,CLR,M,M,M,M,M,M,M,M,M,M,M,M,M,M,69.80,KBAM 121535Z AUTO 07003KT 10SM CLR 21/06 A3012 RMK AO1,M
HTH,2022-09-12 15:35,-118.6315,38.5448,1282.89,71.60,44.60,37.89,250.00,6.00,0.00,30.11,M,10.00,M,CLR,M,M,M,M,M,M,M,M,M,M,M,M,M,M,71.60,KHTH 121535Z AUTO 25006KT 10SM CLR 22/07 A3011 RMK A01,M
TMT,2022-09-12 15:35,-117.1971,39.4643,1749.34,M,M,M,0.00,0.00,0.00,30.21,M,10.00,M,CLR,M,M,M,M,M,M,M,M,M,M,M,M,M,M,M,KTMT 121535Z AUTO 00000KT 10SM CLR A3021 RMK AO2,M
INS,2022-09-12 15:39,-115.6733,36.5872,955.00,66.20,64.40,93.92,50.00,7.00,0.00,30.13,1016.20,10.00,M,SCT,OVC,M,M,9000.00,14000.00,M,M,M,M,M,M,M,M,M,66.20,KINS 121539Z AUTO 05007KT 10SM SCT090 OVC140 19/18 A3013 RMK AO2 DZE1459 SLP162 $,M
CXP,2022-09-12 15:50,-119.7326,39.1923,1431.00,62.60,42.80,48.28,0.00,0.00,0.00,30.15,M,0.75,M,VV ,M,M,M,500.00,M,M,M,HZ,M,M,M,M,M,M,62.60,KCXP 121550Z AUTO 00000KT 3/4SM HZ VV005 17/06 A3015 RMK AO2,M
LOL,2022-09-12 15:53,-118.5701,40.0684,1192.43,74.00,50.00,42.97,0.00,0.00,0.00,30.06,1013.60,4.00,M,CLR,M,M,M,M,M,M,M,HZ,M,M,M,M,M,M,73.90,KLOL 121553Z AUTO 00000KT 4SM HZ CLR 23/10 A3006 RMK AO2 SLP136 T02330100,M
ELY,2022-09-12 15:53,-114.8453,39.2950,1909.00,67.00,41.00,38.76,180.00,9.00,0.00,30.24,1014.80,10.00,M,CLR,M,M,M,M,M,M,M,M,M,M,M,M,M,M,66.90,KELY 121553Z AUTO 18009KT 10SM CLR 19/05 A3024 RMK AO2 SLP148 T01940050 $,M
VGT,2022-09-12 15:53,-115.1933,36.2111,667.00,73.00,65.00,75.75,230.00,7.00,T,30.06,1017.30,10.00,M,FEW,FEW,M,M,9000.00,12000.00,M,M,M,M,M,M,M,M,M,73.00,KVGT 121553Z 23007KT 10SM FEW090 FEW120 23/18 A3006 RMK AO2 RAE38 SLP173 P0000 T02280183,M
P68,2022-09-12 15:53,-116.0056,39.6014,1993.00,71.00,40.00,32.16,0.00,0.00,0.00,30.20,1014.30,M,M,M,M,M,M,M,M,M,M,M,M,M,M,M,M,M,71.10,KP68 121553Z AUTO 00000KT 22/04 A3020 RMK AO1 SLP143 T02170044,M
DRA,2022-09-12 15:53,-116.0278,36.6206,1009.00,69.00,61.00,75.40,80.00,6.00,T,30.13,1016.00,10.00,17.00,OVC,M,M,M,10000.00,M,M,M,M,M,M,M,29.00,110.00,2022-09-12 14:55,69.10,KDRA 121553Z AUTO 08006G17KT 10SM OVC100 21/16 A3013 RMK AO2 PK WND 11029/1455 RAE27 SLP160 P0000 T02060161 $,M
TMT,2022-09-12 15:55,-117.1971,39.4643,1749.34,M,M,M,180.00,3.00,0.00,30.21,M,10.00,M,CLR,M,M,M,M,M,M,M,M,M,M,M,M,M,M,M,KTMT 121555Z AUTO 18003KT 10SM CLR A3021 RMK AO2,M
RTS,2022-09-12 15:55,-119.8764,39.6682,1539.00,69.80,41.00,35.09,290.00,5.00,0.00,30.15,M,10.00,M,CLR,M,M,M,M,M,M,M,M,M,M,M,M,M,M,69.80,KRTS 121555Z AUTO 29005KT 10SM CLR 21/05 A3015 RMK AO2,M
RNO,2022-09-12 15:55,-119.7711,39.4839,1341.00,69.00,47.00,45.02,180.00,4.00,0.00,30.12,1014.40,4.00,M,FEW,M,M,M,15000.00,M,M,M,FU,M,M,M,M,M,M,69.10,KRNO 121555Z 18004KT 4SM FU FEW150 21/08 A3012 RMK AO2 SLP144 FU ALQDS T02060083,M
MEV,2022-09-12 15:55,-119.7500,38.9963,1441.42,60.80,42.80,51.45,0.00,0.00,0.00,30.14,M,0.75,M,VV ,M,M,M,500.00,M,M,M,HZ,M,M,M,M,M,M,60.80,KMEV 121555Z AUTO 00000KT 3/4SM HZ VV005 16/06 A3014 RMK AO2,M
BAM,2022-09-12 15:55,-116.8743,40.5990,1382.36,75.20,42.80,31.34,100.00,3.00,0.00,30.11,M,10.00,M,CLR,M,M,M,M,M,M,M,M,M,M,M,M,M,M,75.20,KBAM 121555Z AUTO 10003KT 10SM CLR 24/06 A3011 RMK AO1,M
HTH,2022-09-12 15:55,-118.6315,38.5448,1282.89,71.60,44.60,37.89,0.00,0.00,0.00,30.11,M,10.00,M,CLR,M,M,M,M,M,M,M,M,M,M,M,M,M,M,71.60,KHTH 121555Z AUTO 00000KT 10SM CLR 22/07 A3011 RMK A01,M
BVU,2022-09-12 15:55,-114.8611,35.9475,671.00,71.60,66.20,83.09,310.00,7.00,0.00,30.08,M,M,12.00,M,M,M,M,M,M,M,M,M,M,M,M,M,M,M,71.60,KBVU 121555Z AUTO 31007G12KT 22/19 A3008 RMK AO2 TSNO,M
WMC,2022-09-12 15:56,-117.8072,40.9019,1315.00,74.00,45.00,35.60,200.00,5.00,0.00,30.07,1013.60,8.00,M,CLR,M,M,M,M,M,M,M,M,M,M,M,M,M,M,73.90,KWMC 121556Z AUTO 20005KT 8SM CLR 23/07 A3007 RMK AO2 SLP136 T02330072 $,M
NFL,2022-09-12 15:56,-118.7010,39.4166,1199.00,74.00,44.00,34.40,180.00,4.00,0.00,30.07,1015.00,4.00,M,SCT,SCT,M,M,15000.00,22000.00,M,M,HZ,M,M,M,M,M,M,73.90,KNFL 121556Z 18004KT 4SM HZ SCT150 SCT220 23/07 A3007 RMK AO2 SLP150 T02330067,M
EKO,2022-09-12 15:56,-115.7860,40.8242,1367.00,66.00,36.00,32.88,0.00,0.00,0.00,30.16,1015.70,10.00,M,CLR,M,M,M,M,M,M,M,M,M,M,M,M,M,M,66.00,KEKO 121556Z AUTO 00000KT 10SM CLR 19/02 A3016 RMK AO2 SLP157 T01890022,M
INS,2022-09-12 15:56,-115.6733,36.5872,955.00,67.30,64.00,88.85,10.00,4.00,T,30.12,1015.70,10.00,M,OVC,M,M,M,14000.00,M,M,M,M,M,M,M,M,M,M,67.30,KINS 121556Z AUTO 01004KT 10SM OVC140 20/18 A3012 RMK AO2 DZE1459 SLP157 P0000 T01960177 $,M
LAS,2022-09-12 15:56,-115.1634,36.0719,663.00,72.00,66.00,81.41,0.00,0.00,T,30.08,1016.20,10.00,M,FEW,FEW,SCT,BKN,3500.00,9000.00,12000.00,20000.00,M,M,M,M,M,M,M,72.00,KLAS 121556Z 00000KT 10SM FEW035 FEW090 SCT120 BKN200 22/19 A3008 RMK AO2 RAE1458 SLP162 P0000 T02220189,M
TPH,2022-09-12 15:56,-117.0904,38.0505,1654.00,64.00,44.00,48.31,170.00,7.00,0.00,30.24,1017.60,10.00,M,OVC,M,M,M,10000.00,M,M,M,M,M,M,M,M,M,M,64.00,KTPH 121556Z AUTO 17007KT 10SM OVC100 18/07 A3024 RMK AO2 SLP176 T01780067,M
LSV,2022-09-12 15:56,-115.0343,36.2362,570.00,73.40,M,M,180.00,7.00,T,30.05,1015.50,10.00,M,SCT,SCT,M,M,14000.00,16000.00,M,M,M,M,M,M,M,M,M,M,KLSV 121556Z AUTO 18007KT 10SM SCT140 SCT160 23/ A3005 RMK AO2 RAE06 SLP155 P0000 $,M
HND,2022-09-12 15:56,-115.1344,35.9729,742.79,71.00,65.00,80.78,0.00,0.00,0.00,30.11,1019.10,10.00,M,FEW,M,M,M,12000.00,M,M,M,M,M,M,M,M,M,M,71.10,KHND 121556Z 00000KT 10SM FEW120 22/18 A3011 RMK AO2 SLP191 T02170183,M
CXP,2022-09-12 16:10,-119.7326,39.1923,1431.00,64.40,42.80,45.32,0.00,0.00,0.00,30.15,M,0.75,M,VV ,M,M,M,500.00,M,M,M,HZ,M,M,M,M,M,M,64.40,KCXP 121610Z AUTO 00000KT 3/4SM HZ VV005 18/06 A3015 RMK AO2,M
MEV,2022-09-12 16:15,-119.7500,38.9963,1441.42,62.60,42.80,48.28,0.00,0.00,0.00,30.14,M,0.75,M,VV ,M,M,M,500.00,M,M,M,HZ,M,M,M,M,M,M,62.60,KMEV 121615Z AUTO 00000KT 3/4SM HZ VV005 17/06 A3014 RMK AO2,M
BVU,2022-09-12 16:15,-114.8611,35.9475,671.00,73.40,66.20,78.19,40.00,10.00,0.00,30.09,M,M,M,M,M,M,M,M,M,M,M,M,M,M,M,M,M,M,73.40,KBVU 121615Z AUTO 04010KT 23/19 A3009 RMK AO2 TSNO,M
TMT,2022-09-12 16:15,-117.1971,39.4643,1749.34,M,M,M,200.00,5.00,0.00,30.21,M,10.00,M,CLR,M,M,M,M,M,M,M,M,M,M,M,M,M,M,M,KTMT 121615Z AUTO 20005KT 10SM CLR A3021 RMK AO2,M
HTH,2022-09-12 16:15,-118.6315,38.5448,1282.89,73.40,44.60,35.66,0.00,0.00,0.00,30.11,M,10.00,M,CLR,M,M,M,M,M,M,M,M,M,M,M,M,M,M,73.40,KHTH 121615Z AUTO 00000KT 10SM CLR 23/07 A3011 RMK A01,M
RTS,2022-09-12 16:15,-119.8764,39.6682,1539.00,71.60,39.20,30.77,280.00,6.00,0.00,30.15,M,10.00,M,CLR,M,M,M,M,M,M,M,M,M,M,M,M,M,M,71.60,KRTS 121615Z AUTO 28006KT 10SM CLR 22/04 A3015 RMK AO2,M
BAM,2022-09-12 16:15,-116.8743,40.5990,1382.36,77.00,44.60,31.62,0.00,0.00,0.00,30.11,M,10.00,M,CLR,M,M,M,M,M,M,M,M,M,M,M,M,M,M,77.00,KBAM 121615Z AUTO 00000KT 10SM CLR 25/07 A3011 RMK AO1,M
BVU,2022-09-12 16:35,-114.8611,35.9475,671.00,73.40,66.20,78.19,40.00,9.00,0.00,30.09,M,M,M,M,M,M,M,M,M,M,M,M,M,M,M,M,M,M,73.40,KBVU 121635Z AUTO 04009KT 23/19 A3009 RMK AO2 TSNO,M
CXP,2022-09-12 16:35,-119.7326,39.1923,1431.00,66.20,42.80,42.57,0.00,0.00,0.00,30.15,M,0.75,M,VV ,M,M,M,500.00,M,M,M,HZ,M,M,M,M,M,M,66.20,KCXP 121635Z AUTO 00000KT 3/4SM HZ VV005 19/06 A3015 RMK AO2,M
RTS,2022-09-12 16:35,-119.8764,39.6682,1539.00,73.40,41.00,31.05,250.00,6.00,0.00,30.16,M,10.00,M,CLR,M,M,M,M,M,M,M,M,M,M,M,M,M,M,73.40,KRTS 121635Z AUTO 25006KT 10SM CLR 23/05 A3016 RMK AO2,M
MEV,2022-09-12 16:35,-119.7500,38.9963,1441.42,66.20,44.60,45.60,140.00,5.00,0.00,30.14,M,1.00,M,CLR,M,M,M,M,M,M,M,HZ,M,M,M,M,M,M,66.20,KMEV 121635Z AUTO 14005KT 1SM HZ CLR 19/07 A3014 RMK AO2,M
BAM,2022-09-12 16:35,-116.8743,40.5990,1382.36,78.80,44.60,29.79,0.00,0.00,0.00,30.11,M,10.00,M,CLR,M,M,M,M,M,M,M,M,M,M,M,M,M,M,78.80,KBAM 121635Z AUTO 00000KT 10SM CLR 26/07 A3011 RMK AO1,M
HTH,2022-09-12 16:35,-118.6315,38.5448,1282.89,75.20,44.60,33.57,0.00,0.00,0.00,30.10,M,10.00,M,CLR,M,M,M,M,M,M,M,M,M,M,M,M,M,M,75.20,KHTH 121635Z AUTO 00000KT 10SM CLR 24/07 A3010 RMK A01,M
TMT,2022-09-12 16:35,-117.1971,39.4643,1749.34,M,M,M,230.00,7.00,0.00,30.21,M,10.00,M,CLR,M,M,M,M,M,M,M,M,M,M,M,M,M,M,M,KTMT 121635Z AUTO 23007KT 10SM CLR A3021 RMK AO2,M
TMT,2022-09-12 16:50,-117.1971,39.4643,1749.34,M,M,M,250.00,5.00,0.00,30.21,M,10.00,M,CLR,M,M,M,M,M,M,M,M,M,M,M,M,M,M,M,KTMT 121650Z AUTO 25005KT 10SM CLR A3021 RMK AO2,M
LOL,2022-09-12 16:53,-118.5701,40.0684,1192.43,79.00,49.00,34.81,220.00,4.00,0.00,30.06,1013.20,5.00,M,CLR,M,M,M,M,M,M,M,HZ,M,M,M,M,M,M,79.00,KLOL 121653Z AUTO 22004KT 5SM HZ CLR 26/09 A3006 RMK AO2 SLP132 T02610094,M
P68,2022-09-12 16:53,-116.0056,39.6014,1993.00,76.00,42.00,29.80,20.00,5.00,0.00,30.19,1013.60,M,M,M,M,M,M,M,M,M,M,M,M,M,M,M,M,M,75.90,KP68 121653Z AUTO 02005KT 24/06 A3019 RMK AO1 SLP136 T02440056,M
ELY,2022-09-12 16:53,-114.8453,39.2950,1909.00,75.00,41.00,29.43,170.00,5.00,0.00,30.23,1014.20,10.00,M,FEW,M,M,M,11000.00,M,M,M,M,M,M,M,M,M,M,75.00,KELY 121653Z AUTO 17005KT 10SM FEW110 24/05 A3023 RMK AO2 SLP142 T02390050,M
DRA,2022-09-12 16:53,-116.0278,36.6206,1009.00,73.00,61.00,66.04,20.00,8.00,0.00,30.13,1015.80,10.00,M,OVC,M,M,M,10000.00,M,M,M,M,M,M,M,M,M,M,73.00,KDRA 121653Z AUTO 02008KT 10SM OVC100 23/16 A3013 RMK AO2 SLP158 T02280161,M
VGT,2022-09-12 16:53,-115.1933,36.2111,667.00,77.00,65.00,66.27,90.00,7.00,0.00,30.08,1017.90,10.00,M,CLR,M,M,M,M,M,M,M,M,M,M,M,M,M,M,77.00,KVGT 121653Z 09007KT 10SM CLR 25/18 A3008 RMK AO2 SLP179 T02500183,M
BAM,2022-09-12 16:55,-116.8743,40.5990,1382.36,78.80,44.60,29.79,0.00,0.00,0.00,30.11,M,10.00,M,CLR,M,M,M,M,M,M,M,M,M,M,M,M,M,M,78.80,KBAM 121655Z AUTO 00000KT 10SM CLR 26/07 A3011 RMK AO1,M
HTH,2022-09-12 16:55,-118.6315,38.5448,1282.89,77.00,46.40,33.85,0.00,0.00,0.00,30.10,M,10.00,M,CLR,M,M,M,M,M,M,M,M,M,M,M,M,M,M,77.00,KHTH 121655Z AUTO 00000KT 10SM CLR 25/08 A3010 RMK A01,M
BVU,2022-09-12 16:55,-114.8611,35.9475,671.00,73.40,66.20,78.19,40.00,9.00,0.00,30.09,M,M,M,M,M,M,M,M,M,M,M,M,M,M,M,M,M,M,73.40,KBVU 121655Z AUTO 04009KT 23/19 A3009 RMK AO2 TSNO,M
RTS,2022-09-12 16:55,-119.8764,39.6682,1539.00,73.40,41.00,31.05,230.00,4.00,0.00,30.15,M,10.00,M,CLR,M,M,M,M,M,M,M,M,M,M,M,M,M,M,73.40,KRTS 121655Z AUTO 23004KT 10SM CLR 23/05 A3015 RMK AO2,M
MEV,2022-09-12 16:55,-119.7500,38.9963,1441.42,68.00,44.60,42.85,0.00,0.00,0.00,30.14,M,0.75,M,VV ,M,M,M,500.00,M,M,M,HZ,M,M,M,M,M,M,68.00,KMEV 121655Z AUTO 00000KT 3/4SM HZ VV005 20/07 A3014 RMK AO2,M
CXP,2022-09-12 16:55,-119.7326,39.1923,1431.00,69.80,42.80,37.61,300.00,4.00,0.00,30.15,M,0.75,M,BKN,M,M,M,9000.00,M,M,M,HZ,M,M,M,M,M,M,69.80,KCXP 121655Z AUTO 30004KT 3/4SM HZ BKN090 21/06 A3015 RMK AO2,M
RNO,2022-09-12 16:55,-119.7711,39.4839,1341.00,73.00,47.00,39.43,180.00,3.00,0.00,30.11,1014.10,4.00,M,FEW,M,M,M,15000.00,M,M,M,FU,M,M,M,M,M,M,73.00,KRNO 121655Z 18003KT 4SM FU FEW150 23/08 A3011 RMK AO2 SLP141 FU ALQDS T02280083,M
LSV,2022-09-12 16:56,-115.0343,36.2362,570.00,77.70,77.70,100.00,20.00,4.00,0.00,30.06,1015.80,10.00,M,FEW,M,M,M,14000.00,M,M,M,M,M,M,M,M,M,M,77.70,KLSV 121656Z AUTO 02004KT 10SM FEW140 25/25 A3006 RMK AO2 SLP158 T02540254 $,M
EKO,2022-09-12 16:56,-115.7860,40.8242,1367.00,74.00,41.00,30.54,60.00,4.00,0.00,30.15,1014.80,10.00,M,CLR,M,M,M,M,M,M,M,M,M,M,M,M,M,M,73.90,KEKO 121656Z AUTO 06004KT 10SM CLR 23/05 A3015 RMK AO2 SLP148 T02330050,M
WMC,2022-09-12 16:56,-117.8072,40.9019,1315.00,81.00,46.00,29.23,170.00,9.00,0.00,30.07,1012.60,8.00,M,SCT,M,M,M,9500.00,M,M,M,M,M,M,M,M,M,M,79.76,KWMC 121656Z AUTO 17009KT 8SM SCT095 27/08 A3007 RMK AO2 SLP126 T02720078,M
NFL,2022-09-12 16:56,-118.7010,39.4166,1199.00,79.00,45.00,30.05,170.00,4.00,0.00,30.07,1015.00,4.00,M,FEW,SCT,M,M,15000.00,22000.00,M,M,HZ FU,M,M,M,M,M,M,79.00,KNFL 121656Z 17004KT 4SM HZ FU FEW150 SCT220 26/07 A3007 RMK AO2 SLP150 T02610072,M
INS,2022-09-12 16:56,-115.6733,36.5872,955.00,68.50,61.70,78.90,60.00,3.00,0.00,30.13,1016.20,10.00,M,OVC,M,M,M,15000.00,M,M,M,M,M,M,M,M,M,M,68.50,KINS 121656Z AUTO 06003KT 10SM OVC150 20/17 A3013 RMK AO2 SLP162 T02030165 $,M
HND,2022-09-12 16:56,-115.1344,35.9729,742.79,74.00,65.00,73.49,0.00,0.00,0.00,30.11,1018.90,10.00,M,FEW,M,M,M,5000.00,M,M,M,M,M,M,M,M,M,M,73.90,KHND 121656Z COR 00000KT 10SM FEW050 23/18 A3011 RMK AO2 SLP189 T02330183,M
LAS,2022-09-12 16:56,-115.1634,36.0719,663.00,74.00,65.00,73.49,90.00,4.00,0.00,30.09,1016.50,10.00,M,FEW,FEW,SCT,BKN,3500.00,8000.00,12000.00,20000.00,M,M,M,M,M,M,M,73.90,KLAS 121656Z 09004KT 10SM FEW035 FEW080 SCT120 BKN200 23/18 A3009 RMK AO2 SLP165 T02330183,M
TPH,2022-09-12 16:56,-117.0904,38.0505,1654.00,64.00,53.00,67.66,200.00,13.00,0.00,30.25,1018.20,10.00,M,BKN,OVC,M,M,6500.00,10000.00,M,M,M,M,M,M,M,M,M,64.00,KTPH 121656Z AUTO 20013KT 10SM BKN065 OVC100 18/12 A3025 RMK AO2 SLP182 T01780117,M
BVU,2022-09-12 17:15,-114.8611,35.9475,671.00,73.40,68.00,83.21,50.00,8.00,0.00,30.08,M,M,M,M,M,M,M,M,M,M,M,M,M,M,M,M,M,M,73.40,KBVU 121715Z AUTO 05008KT 23/20 A3008 RMK AO2 TSNO,M
RTS,2022-09-12 17:15,-119.8764,39.6682,1539.00,75.20,41.00,29.23,240.00,6.00,0.00,30.15,M,10.00,M,CLR,M,M,M,M,M,M,M,M,M,M,M,M,M,M,75.20,KRTS 121715Z AUTO 24006KT 10SM CLR 24/05 A3015 RMK AO2,M
CXP,2022-09-12 17:15,-119.7326,39.1923,1431.00,69.80,42.80,37.61,0.00,0.00,0.00,30.15,M,0.75,M,BKN,M,M,M,9000.00,M,M,M,HZ,M,M,M,M,M,M,69.80,KCXP 121715Z AUTO 00000KT 3/4SM HZ BKN090 21/06 A3015 RMK AO2,M
MEV,2022-09-12 17:15,-119.7500,38.9963,1441.42,69.80,46.40,43.13,0.00,0.00,0.00,30.13,M,1.00,M,CLR,M,M,M,M,M,M,M,HZ,M,M,M,M,M,M,69.80,KMEV 121715Z AUTO 00000KT 1SM HZ CLR 21/08 A3013 RMK AO2,M
BAM,2022-09-12 17:15,-116.8743,40.5990,1382.36,78.80,44.60,29.79,0.00,0.00,0.00,30.11,M,10.00,M,CLR,M,M,M,M,M,M,M,M,M,M,M,M,M,M,78.80,KBAM 121715Z AUTO 00000KT 10SM CLR 26/07 A3011 RMK AO1,M
HTH,2022-09-12 17:15,-118.6315,38.5448,1282.89,78.80,46.40,31.90,M,4.00,0.00,30.09,M,10.00,M,CLR,M,M,M,M,M,M,M,M,M,M,M,M,M,M,78.80,KHTH 121715Z AUTO VRB04KT 10SM CLR 26/08 A3009 RMK A01,M
TMT,2022-09-12 17:15,-117.1971,39.4643,1749.34,M,M,M,0.00,0.00,0.00,30.20,M,10.00,M,CLR,M,M,M,M,M,M,M,M,M,M,M,M,M,M,M,KTMT 121715Z AUTO 00000KT 10SM CLR A3020 RMK AO2,M
BAM,2022-09-12 17:35,-116.8743,40.5990,1382.36,80.60,44.60,28.08,180.00,3.00,0.00,30.11,M,10.00,M,CLR,M,M,M,M,M,M,M,M,M,M,M,M,M,M,79.42,KBAM 121735Z AUTO 18003KT 10SM CLR 27/07 A3011 RMK AO1,M
BVU,2022-09-12 17:35,-114.8611,35.9475,671.00,75.20,66.20,73.61,50.00,8.00,0.00,30.08,M,M,M,M,M,M,M,M,M,M,M,M,M,M,M,M,M,M,75.20,KBVU 121735Z AUTO 05008KT 24/19 A3008 RMK AO2 TSNO,M
CXP,2022-09-12 17:35,-119.7326,39.1923,1431.00,71.60,42.80,35.37,0.00,0.00,0.00,30.14,M,0.75,M,VV ,M,M,M,500.00,M,M,M,HZ,M,M,M,M,M,M,71.60,KCXP 121735Z AUTO 00000KT 3/4SM HZ VV005 22/06 A3014 RMK AO2,M
RTS,2022-09-12 17:35,-119.8764,39.6682,1539.00,77.00,42.80,29.51,290.00,7.00,0.00,30.15,M,10.00,12.00,CLR,M,M,M,M,M,M,M,M,M,M,M,M,M,M,77.00,KRTS 121735Z AUTO 29007G12KT 10SM CLR 25/06 A3015 RMK AO2,M
MEV,2022-09-12 17:35,-119.7500,38.9963,1441.42,71.60,46.40,40.57,M,3.00,0.00,30.13,M,1.00,M,CLR,M,M,M,M,M,M,M,HZ,M,M,M,M,M,M,71.60,KMEV 121735Z AUTO VRB03KT 1SM HZ CLR 22/08 A3013 RMK AO2,M
HTH,2022-09-12 17:35,-118.6315,38.5448,1282.89,80.60,46.40,30.07,0.00,0.00,0.00,30.09,M,10.00,M,CLR,M,M,M,M,M,M,M,M,M,M,M,M,M,M,79.56,KHTH 121735Z AUTO 00000KT 10SM CLR 27/08 A3009 RMK A01,M
TMT,2022-09-12 17:35,-117.1971,39.4643,1749.34,M,M,M,270.00,3.00,0.00,30.19,M,10.00,M,SCT,M,M,M,12000.00,M,M,M,M,M,M,M,M,M,M,M,KTMT 121735Z AUTO 27003KT 10SM SCT120 A3019 RMK AO2,M
LOL,2022-09-12 17:53,-118.5701,40.0684,1192.43,82.00,48.00,30.51,200.00,6.00,0.00,30.05,1013.10,6.00,M,CLR,M,M,M,M,M,M,M,HZ,M,M,M,M,M,M,80.53,KLOL 121753Z AUTO 20006KT 6SM HZ CLR 28/09 A3005 RMK AO2 SLP131 T02780089 10283 20144 50000,M
VGT,2022-09-12 17:53,-115.1933,36.2111,667.00,78.00,63.00,59.78,70.00,9.00,0.00,30.07,1017.40,10.00,M,CLR,M,M,M,M,M,M,M,M,M,M,M,M,M,M,78.10,KVGT 121753Z 07009KT 10SM CLR 26/17 A3007 RMK AO2 SLP174 60008 T02560172 10278 20217 56003,M
DRA,2022-09-12 17:53,-116.0278,36.6206,1009.00,74.00,61.00,64.07,20.00,6.00,0.00,30.13,1016.00,10.00,M,CLR,M,M,M,M,M,M,M,M,M,M,M,M,M,M,73.90,KDRA 121753Z AUTO 02006KT 10SM CLR 23/16 A3013 RMK AO2 SLP160 60003 T02330161 10233 20194 51003,M
P68,2022-09-12 17:53,-116.0056,39.6014,1993.00,77.00,39.00,25.47,0.00,0.00,0.00,30.18,1013.80,M,M,M,M,M,M,M,M,M,M,M,M,M,M,M,M,M,77.00,KP68 121753Z AUTO 00000KT 25/04 A3018 RMK AO1 SLP138 T02500039 10256 20094 56009,M
ELY,2022-09-12 17:53,-114.8453,39.2950,1909.00,78.00,40.00,25.44,220.00,11.00,0.00,30.24,1014.30,10.00,23.00,BKN,M,M,M,10000.00,M,M,M,M,M,M,M,M,M,M,78.10,KELY 121753Z AUTO 22011G23KT 10SM BKN100 26/04 A3024 RMK AO2 SLP143 T02560044 10261 20083 55004,M
BVU,2022-09-12 17:55,-114.8611,35.9475,671.00,77.00,64.40,65.12,30.00,6.00,0.00,30.07,M,M,M,M,M,M,M,M,M,M,M,M,M,M,M,M,M,M,77.00,KBVU 121755Z AUTO 03006KT 25/18 A3007 RMK AO2 TSNO,M
RTS,2022-09-12 17:55,-119.8764,39.6682,1539.00,77.00,44.60,31.62,290.00,8.00,0.00,30.15,M,10.00,14.00,CLR,M,M,M,M,M,M,M,M,M,M,M,M,M,M,77.00,KRTS 121755Z AUTO 29008G14KT 10SM CLR 25/07 A3015 RMK AO2,M
RNO,2022-09-12 17:55,-119.7711,39.4839,1341.00,78.00,48.00,34.67,70.00,3.00,0.00,30.10,1013.40,4.00,M,FEW,M,M,M,11000.00,M,M,M,FU,M,M,M,M,M,M,78.10,KRNO 121755Z 07003KT 4SM FU FEW110 26/09 A3010 RMK AO2 SLP134 FU ALQDS T02560089 10256 20172 58005,M
MEV,2022-09-12 17:55,-119.7500,38.9963,1441.42,75.20,46.40,35.94,200.00,3.00,0.00,30.13,M,1.00,M,CLR,M,M,M,M,M,M,M,HZ,M,M,M,M,M,M,75.20,KMEV 121755Z AUTO 20003KT 1SM HZ CLR 24/08 A3013 RMK AO2,M
CXP,2022-09-12 17:55,-119.7326,39.1923,1431.00,73.40,42.80,33.29,0.00,0.00,0.00,30.13,M,0.75,M,SCT,M,M,M,9000.00,M,M,M,HZ,M,M,M,M,M,M,73.40,KCXP 121755Z AUTO 00000KT 3/4SM HZ SCT090 23/06 A3013 RMK AO2,M
BAM,2022-09-12 17:55,-116.8743,40.5990,1382.36,82.40,44.60,26.49,0.00,0.00,0.00,30.10,M,10.00,M,CLR,M,M,M,M,M,M,M,M,M,M,M,M,M,M,80.50,KBAM 121755Z AUTO 00000KT 10SM CLR 28/07 A3010 RMK AO1,M
HTH,2022-09-12 17:55,-118.6315,38.5448,1282.89,82.40,46.40,28.36,M,5.00,0.00,30.08,M,10.00,M,CLR,M,M,M,M,M,M,M,M,M,M,M,M,M,M,80.64,KHTH 121755Z AUTO VRB05KT 10SM CLR 28/08 A3008 RMK A01,M
TMT,2022-09-12 17:55,-117.1971,39.4643,1749.34,M,M,M,0.00,0.00,0.00,30.19,M,10.00,M,SCT,M,M,M,12000.00,M,M,M,M,M,M,M,M,M,M,M,KTMT 121755Z AUTO 00000KT 10SM SCT120 A3019 RMK AO2,M
HND,2022-09-12 17:56,-115.1344,35.9729,742.79,76.00,65.00,68.73,20.00,9.00,0.00,30.10,1018.60,10.00,M,FEW,M,M,M,5000.00,M,M,M,M,M,M,M,M,M,M,75.90,KHND 121756Z 02009KT 10SM FEW050 24/18 A3010 RMK AO2 SLP186 60009 T02440183 10250 20200 58007,M
TPH,2022-09-12 17:56,-117.0904,38.0505,1654.00,61.00,59.00,93.12,150.00,6.00,0.00,30.27,1019.20,10.00,M,OVC,M,M,M,8500.00,M,M,M,-RA,M,M,M,M,M,M,61.00,KTPH 121756Z AUTO 15006KT 10SM -RA OVC085 16/15 A3027 RMK AO2 RAB00 SLP192 6//// T01610150 10189 20144 51018 PNO $,M
NFL,2022-09-12 17:56,-118.7010,39.4166,1199.00,81.00,44.00,27.20,270.00,6.00,0.00,30.06,1014.70,3.00,M,FEW,M,M,M,22000.00,M,M,M,HZ FU,M,M,M,M,M,M,79.62,KNFL 121756Z 27006KT 3SM HZ FU FEW220 27/07 A3006 RMK AO2 SLP147 T02720067 10272 20156 50000,M
EKO,2022-09-12 17:56,-115.7860,40.8242,1367.00,81.00,42.00,25.19,M,3.00,0.00,30.12,1013.70,10.00,M,CLR,M,M,M,M,M,M,M,M,M,M,M,M,M,M,79.49,KEKO 121756Z AUTO VRB03KT 10SM CLR 27/06 A3012 RMK AO2 SLP137 T02720056 10272 20139 58011,M
WMC,2022-09-12 17:56,-117.8072,40.9019,1315.00,77.00,48.00,35.95,140.00,11.00,T,30.07,1012.70,8.00,17.00,BKN,M,M,M,11000.00,M,M,M,-RA,M,M,M,M,M,M,77.00,KWMC 121756Z AUTO 14011G17KT 8SM -RA BKN110 25/09 A3007 RMK AO2 RAB52 SLP127 P0000 60000 T02500089 10278 20161 50000,M
LAS,2022-09-12 17:56,-115.1634,36.0719,663.00,76.00,65.00,68.73,80.00,6.00,0.00,30.08,1016.20,10.00,M,FEW,SCT,BKN,M,7000.00,11000.00,20000.00,M,M,M,M,M,M,M,M,75.90,KLAS 121756Z 08006KT 10SM FEW070 SCT110 BKN200 24/18 A3008 RMK AO2 SLP162 60017 T02440183 10244 20211 56005,M
INS,2022-09-12 17:56,-115.6733,36.5872,955.00,70.70,62.40,75.01,0.00,0.00,0.00,30.12,1015.70,10.00,M,FEW,SCT,BKN,M,1700.00,16000.00,18000.00,M,M,M,M,M,M,M,M,70.70,KINS 121756Z AUTO 00000KT 10SM FEW017 SCT160 BKN180 22/17 A3012 RMK AO2 SLP157 60012 T02150169 10219 20185 55007 $,M
LSV,2022-09-12 17:56,-115.0343,36.2362,570.00,79.20,72.00,78.65,60.00,9.00,0.00,30.05,1015.50,10.00,M,FEW,FEW,SCT,SCT,12000.00,15000.00,18000.00,20000.00,M,M,M,M,M,M,M,79.20,KLSV 121756Z AUTO 06009KT 10SM FEW120 FEW150 SCT180 SCT200 26/22 A3005 RMK AO2 SLP155 60007 T02620222 10267 20211 55004 $,M
INS,2022-09-12 18:06,-115.6733,36.5872,955.00,71.60,62.60,73.27,0.00,0.00,0.00,30.13,1016.10,10.00,M,SCT,BKN,BKN,OVC,1700.00,2800.00,16000.00,18000.00,M,M,M,M,M,M,M,71.60,KINS 121806Z AUTO 00000KT 10SM SCT017 BKN028 BKN160 OVC180 22/17 A3013 RMK AO2 SLP161 $,M
INS,2022-09-12 18:11,-115.6733,36.5872,955.00,71.60,62.60,73.27,0.00,0.00,0.00,30.12,1015.70,10.00,M,FEW,BKN,OVC,M,1800.00,3000.00,17000.00,M,M,M,M,M,M,M,M,71.60,KINS 121811Z AUTO 00000KT 10SM FEW018 BKN030 OVC170 22/17 A3012 RMK AO2 SLP157 $,M
MEV,2022-09-12 18:15,-119.7500,38.9963,1441.42,77.00,46.40,33.85,0.00,0.00,0.00,30.11,M,1.50,M,CLR,M,M,M,M,M,M,M,HZ,M,M,M,M,M,M,77.00,KMEV 121815Z AUTO 00000KT 1 1/2SM HZ CLR 25/08 A3011 RMK AO2,M
CXP,2022-09-12 18:15,-119.7326,39.1923,1431.00,77.00,44.60,31.62,0.00,0.00,0.00,30.13,M,1.00,M,SCT,M,M,M,9500.00,M,M,M,HZ,M,M,M,M,M,M,77.00,KCXP 121815Z AUTO 00000KT 1SM HZ SCT095 25/07 A3013 RMK AO2,M
RTS,2022-09-12 18:15,-119.8764,39.6682,1539.00,78.80,44.60,29.79,320.00,11.00,0.00,30.14,M,10.00,16.00,CLR,M,M,M,M,M,M,M,M,M,M,M,M,M,M,78.80,KRTS 121815Z AUTO 32011G16KT 10SM CLR 26/07 A3014 RMK AO2,M
BAM,2022-09-12 18:15,-116.8743,40.5990,1382.36,80.60,44.60,28.08,0.00,0.00,0.00,30.09,M,10.00,M,BKN,M,M,M,12000.00,M,M,M,M,M,M,M,M,M,M,79.42,KBAM 121815Z AUTO 00000KT 10SM BKN120 27/07 A3009 RMK AO1,M
HTH,2022-09-12 18:15,-118.6315,38.5448,1282.89,82.40,44.60,26.49,90.00,4.00,0.00,30.07,M,10.00,M,CLR,M,M,M,M,M,M,M,M,M,M,M,M,M,M,80.50,KHTH 121815Z AUTO 09004KT 10SM CLR 28/07 A3007 RMK A01,M
TMT,2022-09-12 18:15,-117.1971,39.4643,1749.34,M,M,M,270.00,6.00,0.00,30.18,M,10.00,M,SCT,M,M,M,12000.00,M,M,M,M,M,M,M,M,M,M,M,KTMT 121815Z AUTO 27006KT 10SM SCT120 A3018 RMK AO2,M
BVU,2022-09-12 18:15,-114.8611,35.9475,671.00,78.80,60.80,54.05,30.00,5.00,0.00,30.06,M,M,M,M,M,M,M,M,M,M,M,M,M,M,M,M,M,M,78.80,KBVU 121815Z AUTO 03005KT 26/16 A3006 RMK AO2 TSNO,M
INS,2022-09-12 18:26,-115.6733,36.5872,955.00,71.60,60.80,68.75,80.00,4.00,0.00,30.12,1015.90,10.00,M,FEW,SCT,M,M,1800.00,3000.00,M,M,M,M,M,M,M,M,M,71.60,KINS 121826Z AUTO 08004KT 10SM FEW018 SCT030 22/16 A3012 RMK AO2 SLP159 $,M
CXP,2022-09-12 18:35,-119.7326,39.1923,1431.00,77.00,44.60,31.62,0.00,0.00,0.00,30.12,M,1.25,M,SCT,M,M,M,9500.00,M,M,M,HZ,M,M,M,M,M,M,77.00,KCXP 121835Z AUTO 00000KT 1 1/4SM HZ SCT095 25/07 A3012 RMK AO2,M
RTS,2022-09-12 18:35,-119.8764,39.6682,1539.00,77.00,44.60,31.62,310.00,14.00,0.00,30.14,M,10.00,19.00,CLR,M,M,M,M,M,M,M,M,M,M,M,M,M,M,77.00,KRTS 121835Z AUTO 31014G19KT 10SM CLR 25/07 A3014 RMK AO2,M
BVU,2022-09-12 18:35,-114.8611,35.9475,671.00,80.60,62.60,54.30,30.00,7.00,0.00,30.06,M,M,M,M,M,M,M,M,M,M,M,M,M,M,M,M,M,M,81.84,KBVU 121835Z AUTO 03007KT 27/17 A3006 RMK AO2 TSNO,M
MEV,2022-09-12 18:35,-119.7500,38.9963,1441.42,77.00,46.40,33.85,M,3.00,0.00,30.11,M,2.00,M,FEW,M,M,M,9000.00,M,M,M,HZ,M,M,M,M,M,M,77.00,KMEV 121835Z AUTO VRB03KT 2SM HZ FEW090 25/08 A3011 RMK AO2,M
HTH,2022-09-12 18:35,-118.6315,38.5448,1282.89,82.40,44.60,26.49,M,5.00,0.00,30.06,M,10.00,M,CLR,M,M,M,M,M,M,M,M,M,M,M,M,M,M,80.50,KHTH 121835Z AUTO VRB05KT 10SM CLR 28/07 A3006 RMK A01,M
TMT,2022-09-12 18:35,-117.1971,39.4643,1749.34,M,M,M,300.00,6.00,0.00,30.17,M,10.00,M,SCT,M,M,M,12000.00,M,M,M,M,M,M,M,M,M,M,M,KTMT 121835Z AUTO 30006KT 10SM SCT120 A3017 RMK AO2,M
BAM,2022-09-12 18:35,-116.8743,40.5990,1382.36,80.60,46.40,30.07,0.00,0.00,0.00,30.08,M,10.00,M,SCT,M,M,M,12000.00,M,M,M,M,M,M,M,M,M,M,79.56,KBAM 121835Z AUTO 00000KT 10SM SCT120 27/08 A3008 RMK AO1,M
CXP,2022-09-12 18:50,-119.7326,39.1923,1431.00,78.80,46.40,31.90,20.00,3.00,0.00,30.11,M,1.50,M,SCT,M,M,M,10000.00,M,M,M,HZ,M,M,M,M,M,M,78.80,KCXP 121850Z AUTO 02003KT 1 1/2SM HZ SCT100 26/08 A3011 RMK AO2,M
VGT,2022-09-12 18:53,-115.1933,36.2111,667.00,81.00,62.00,52.66,110.00,7.00,0.00,30.04,1016.40,10.00,M,CLR,M,M,M,M,M,M,M,M,M,M,M,M,M,M,82.06,KVGT 121853Z 11007KT 10SM CLR 27/17 A3004 RMK AO2 SLP164 T02720167,M
P68,2022-09-12 18:53,-116.0056,39.6014,1993.00,82.00,39.00,21.62,170.00,13.00,0.00,30.15,1012.40,M,24.00,M,M,M,M,M,M,M,M,M,M,M,M,M,M,M,79.94,KP68 121853Z AUTO 17013G24KT 28/04 A3015 RMK AO1 SLP124 T02780039,M
ELY,2022-09-12 18:53,-114.8453,39.2950,1909.00,78.00,42.00,27.70,190.00,9.00,0.00,30.22,1013.90,10.00,M,CLR,M,M,M,M,M,M,M,M,M,M,M,M,M,M,78.10,KELY 121853Z AUTO 19009KT 150V220 10SM CLR 26/06 A3022 RMK AO2 SLP139 T02560056,M
LOL,2022-09-12 18:53,-118.5701,40.0684,1192.43,84.00,47.00,27.44,230.00,8.00,0.00,30.03,1012.20,9.00,M,CLR,M,M,M,M,M,M,M,M,M,M,M,M,M,M,81.77,KLOL 121853Z AUTO 23008KT 200V270 9SM CLR 29/08 A3003 RMK AO2 SLP122 T02890083,M
DRA,2022-09-12 18:53,-116.0278,36.6206,1009.00,77.00,60.00,55.95,10.00,7.00,0.00,30.10,1015.00,10.00,M,CLR,M,M,M,M,M,M,M,M,M,M,M,M,M,M,77.00,KDRA 121853Z AUTO 01007KT 10SM CLR 25/16 A3010 RMK AO2 SLP150 T02500156,M
RTS,2022-09-12 18:55,-119.8764,39.6682,1539.00,78.80,46.40,31.90,300.00,12.00,0.00,30.13,M,10.00,M,CLR,M,M,M,M,M,M,M,M,M,M,M,M,M,M,78.80,KRTS 121855Z AUTO 30012KT 10SM CLR 26/08 A3013 RMK AO2,M
MEV,2022-09-12 18:55,-119.7500,38.9963,1441.42,78.80,48.20,34.13,M,3.00,0.00,30.10,M,2.50,M,FEW,FEW,M,M,9000.00,12000.00,M,M,HZ,M,M,M,M,M,M,78.80,KMEV 121855Z AUTO VRB03KT 2 1/2SM HZ FEW090 FEW120 26/09 A3010 RMK AO2,M
BAM,2022-09-12 18:55,-116.8743,40.5990,1382.36,82.40,46.40,28.36,170.00,4.00,0.00,30.08,M,10.00,M,SCT,M,M,M,12000.00,M,M,M,M,M,M,M,M,M,M,80.64,KBAM 121855Z AUTO 17004KT 10SM SCT120 28/08 A3008 RMK AO1,M
TMT,2022-09-12 18:55,-117.1971,39.4643,1749.34,M,M,M,260.00,4.00,0.00,30.16,M,10.00,M,SCT,M,M,M,12000.00,M,M,M,M,M,M,M,M,M,M,M,KTMT 121855Z AUTO 26004KT 10SM SCT120 A3016 RMK AO2,M
HTH,2022-09-12 18:55,-118.6315,38.5448,1282.89,82.40,44.60,26.49,70.00,4.00,0.00,30.05,M,10.00,M,CLR,M,M,M,M,M,M,M,M,M,M,M,M,M,M,80.50,KHTH 121855Z AUTO 07004KT 10SM CLR 28/07 A3005 RMK A01,M
BVU,2022-09-12 18:55,-114.8611,35.9475,671.00,80.60,60.80,50.95,0.00,0.00,0.00,30.05,M,M,10.00,M,M,M,M,M,M,M,M,M,M,M,M,M,M,M,81.46,KBVU 121855Z AUTO 00000G10KT 27/16 A3005 RMK AO2 TSNO,M
RNO,2022-09-12 18:55,-119.7711,39.4839,1341.00,83.00,48.00,29.64,0.00,0.00,0.00,30.07,1012.20,6.00,M,FEW,M,M,M,10000.00,M,M,M,FU,M,M,M,M,M,M,81.11,KRNO 121855Z 00000KT 6SM FU FEW100 28/09 A3007 RMK AO2 SLP122 FU ALQDS T02830089,M
HND,2022-09-12 18:56,-115.1344,35.9729,742.79,79.00,62.00,56.23,60.00,9.00,0.00,30.08,1017.90,10.00,14.00,CLR,M,M,M,M,M,M,M,M,M,M,M,M,M,M,79.00,KHND 121856Z 06009G14KT 10SM CLR 26/17 A3008 RMK AO2 SLP179 T02610167,M
INS,2022-09-12 18:56,-115.6733,36.5872,955.00,73.40,60.40,63.78,0.00,0.00,0.00,30.10,1015.00,10.00,M,CLR,M,M,M,M,M,M,M,M,M,M,M,M,M,M,73.40,KINS 121856Z AUTO 00000KT 10SM CLR 23/16 A3010 RMK AO2 SLP150 T02300158 $,M
LSV,2022-09-12 18:56,-115.0343,36.2362,570.00,84.20,63.50,49.87,70.00,8.00,0.00,30.02,1014.20,10.00,M,FEW,M,M,M,20000.00,M,M,M,M,M,M,M,M,M,M,85.36,KLSV 121856Z AUTO 07008KT 10SM FEW200 29/18 A3002 RMK AO2 SLP142 T02900175 $,M
LAS,2022-09-12 18:56,-115.1634,36.0719,663.00,79.00,64.00,60.11,M,3.00,0.00,30.05,1015.30,10.00,M,FEW,FEW,SCT,M,7000.00,11000.00,20000.00,M,M,M,M,M,M,M,M,79.00,KLAS 121856Z VRB03KT 10SM FEW070 FEW110 SCT200 26/18 A3005 RMK AO2 SLP153 T02610178,M
TPH,2022-09-12 18:56,-117.0904,38.0505,1654.00,63.00,57.00,80.76,210.00,4.00,0.02,30.24,1018.50,10.00,M,FEW,BKN,OVC,M,7500.00,9000.00,10000.00,M,M,M,M,M,M,M,M,63.00,KTPH 121856Z AUTO 21004KT 10SM FEW075 BKN090 OVC100 17/14 A3024 RMK AO2 RAE56 SLP185 P0002 T01720139,M
WMC,2022-09-12 18:56,-117.8072,40.9019,1315.00,83.00,45.00,26.46,0.00,0.00,T,30.04,1011.70,10.00,M,CLR,M,M,M,M,M,M,M,M,M,M,M,M,M,M,80.86,KWMC 121856Z AUTO 00000KT 10SM CLR 28/07 A3004 RMK AO2 RAE24 SLP117 P0000 T02830072,M
EKO,2022-09-12 18:56,-115.7860,40.8242,1367.00,83.00,41.00,22.70,260.00,7.00,0.00,30.10,1013.00,10.00,M,CLR,M,M,M,M,M,M,M,M,M,M,M,M,M,M,80.62,KEKO 121856Z AUTO 26007KT 10SM CLR 28/05 A3010 RMK AO2 SLP130 T02830050,M
NFL,2022-09-12 18:56,-118.7010,39.4166,1199.00,83.00,44.00,25.57,220.00,4.00,0.00,30.04,1014.10,3.00,M,FEW,FEW,M,M,8000.00,22000.00,M,M,HZ FU,M,M,M,M,M,M,80.80,KNFL 121856Z 22004KT 3SM HZ FU FEW080 FEW220 28/07 A3004 RMK AO2 SLP141 T02830067,M
HTH,2022-09-12 19:15,-118.6315,38.5448,1282.89,82.40,46.40,28.36,150.00,9.00,0.00,30.05,M,10.00,M,CLR,M,M,M,M,M,M,M,M,M,M,M,M,M,M,80.64,KHTH 121915Z AUTO 15009KT 10SM CLR 28/08 A3005 RMK A01,M
BVU,2022-09-12 19:15,-114.8611,35.9475,671.00,80.60,60.80,50.95,40.00,6.00,0.00,30.04,M,M,12.00,M,M,M,M,M,M,M,M,M,M,M,M,M,M,M,81.46,KBVU 121915Z AUTO 04006G12KT 27/16 A3004 RMK AO2 TSNO,M
CXP,2022-09-12 19:15,-119.7326,39.1923,1431.00,80.60,46.40,30.07,M,3.00,0.00,30.10,M,2.00,M,SCT,M,M,M,9500.00,M,M,M,HZ,M,M,M,M,M,M,79.56,KCXP 121915Z AUTO VRB03KT 2SM HZ SCT095 27/08 A3010 RMK AO2,M
TMT,2022-09-12 19:15,-117.1971,39.4643,1749.34,M,M,M,240.00,7.00,0.00,30.15,M,10.00,M,CLR,M,M,M,M,M,M,M,M,M,M,M,M,M,M,M,KTMT 121915Z AUTO 24007KT 10SM CLR A3015 RMK AO2 LTG DSNT SE,M
RTS,2022-09-12 19:15,-119.8764,39.6682,1539.00,78.80,44.60,29.79,300.00,12.00,0.00,30.13,M,10.00,20.00,FEW,M,M,M,11000.00,M,M,M,M,M,M,M,M,M,M,78.80,KRTS 121915Z AUTO 30012G20KT 10SM FEW110 26/07 A3013 RMK AO2,M
MEV,2022-09-12 19:15,-119.7500,38.9963,1441.42,78.80,46.40,31.90,270.00,4.00,0.00,30.09,M,4.00,M,CLR,M,M,M,M,M,M,M,HZ,M,M,M,M,M,M,78.80,KMEV 121915Z AUTO 27004KT 4SM HZ CLR 26/08 A3009 RMK AO2,M
BAM,2022-09-12 19:15,-116.8743,40.5990,1382.36,82.40,42.80,24.72,160.00,10.00,0.00,30.07,M,10.00,M,SCT,M,M,M,12000.00,M,M,M,M,M,M,M,M,M,M,80.39,KBAM 121915Z AUTO 16010KT 10SM SCT120 28/06 A3007 RMK AO1,M
BVU,2022-09-12 19:35,-114.8611,35.9475,671.00,82.40,59.00,45.07,80.00,6.00,0.00,30.03,M,M,M,M,M,M,M,M,M,M,M,M,M,M,M,M,M,M,82.46,KBVU 121935Z AUTO 08006KT 28/15 A3003 RMK AO2 TSNO,M
HTH,2022-09-12 19:35,-118.6315,38.5448,1282.89,82.40,44.60,26.49,120.00,4.00,0.00,30.04,M,10.00,M,CLR,M,M,M,M,M,M,M,M,M,M,M,M,M,M,80.50,KHTH 121935Z AUTO 12004KT 10SM CLR 28/07 A3004 RMK A01,M
BAM,2022-09-12 19:35,-116.8743,40.5990,1382.36,86.00,42.80,22.02,0.00,0.00,0.00,30.05,M,10.00,M,CLR,M,M,M,M,M,M,M,M,M,M,M,M,M,M,82.95,KBAM 121935Z AUTO 00000KT 10SM CLR 30/06 A3005 RMK AO1,M
MEV,2022-09-12 19:35,-119.7500,38.9963,1441.42,78.80,48.20,34.13,0.00,0.00,0.00,30.09,M,5.00,M,CLR,M,M,M,M,M,M,M,HZ,M,M,M,M,M,M,78.80,KMEV 121935Z AUTO 00000KT 5SM HZ CLR 26/09 A3009 RMK AO2,M
RTS,2022-09-12 19:35,-119.8764,39.6682,1539.00,77.00,44.60,31.62,320.00,12.00,0.00,30.12,M,10.00,17.00,SCT,M,M,M,12000.00,M,M,M,M,M,M,M,M,M,M,77.00,KRTS 121935Z AUTO 32012G17KT 10SM SCT120 25/07 A3012 RMK AO2,M
CXP,2022-09-12 19:35,-119.7326,39.1923,1431.00,80.60,46.40,30.07,80.00,3.00,0.00,30.09,M,5.00,M,SCT,SCT,M,M,9000.00,12000.00,M,M,HZ,M,M,M,M,M,M,79.56,KCXP 121935Z AUTO 08003KT 5SM HZ SCT090 SCT120 27/08 A3009 RMK AO2,M
TMT,2022-09-12 19:35,-117.1971,39.4643,1749.34,M,M,M,250.00,11.00,0.00,30.15,M,10.00,M,SCT,M,M,M,12000.00,M,M,M,VCTS,M,M,M,M,M,M,M,KTMT 121935Z AUTO 25011KT 10SM VCTS SCT120 A3015 RMK AO2,M
LOL,2022-09-12 19:53,-118.5701,40.0684,1192.43,86.00,45.00,23.95,190.00,7.00,0.00,30.00,1011.10,10.00,16.00,CLR,M,M,M,M,M,M,M,M,M,M,M,M,M,M,83.10,KLOL 121953Z AUTO 19007G16KT 10SM CLR 30/07 A3000 RMK AO2 SLP111 T03000072,M
ELY,2022-09-12 19:53,-114.8453,39.2950,1909.00,80.00,43.00,26.85,170.00,11.00,0.00,30.19,1012.70,10.00,21.00,CLR,M,M,M,M,M,M,M,M,M,M,M,M,M,M,79.04,KELY 121953Z AUTO 17011G21KT 10SM CLR 27/06 A3019 RMK AO2 SLP127 T02670061,M
VGT,2022-09-12 19:53,-115.1933,36.2111,667.00,85.00,57.00,38.69,M,5.00,0.00,30.00,1015.20,10.00,M,CLR,M,M,M,M,M,M,M,M,M,M,M,M,M,M,83.99,KVGT 121953Z VRB05KT 10SM CLR 29/14 A3000 RMK AO2 LTG DSNT W SLP152 T02940139,M
DRA,2022-09-12 19:53,-116.0278,36.6206,1009.00,78.00,59.00,51.88,170.00,3.00,0.00,30.08,1014.10,10.00,M,SCT,BKN,BKN,M,3600.00,8500.00,12000.00,M,M,M,M,M,M,M,M,78.10,KDRA 121953Z AUTO 17003KT 10SM SCT036 BKN085 BKN120 26/15 A3008 RMK AO2 SLP141 T02560150,M
P68,2022-09-12 19:53,-116.0056,39.6014,1993.00,80.00,41.00,24.86,170.00,18.00,0.00,30.15,1012.50,M,28.00,M,M,M,M,M,M,M,M,M,M,M,M,31.00,140.00,2022-09-12 19:27,78.98,KP68 121953Z AUTO 17018G28KT 27/05 A3015 RMK AO1 PK WND 14031/1927 SLP125 T02670050,M
MEV,2022-09-12 19:55,-119.7500,38.9963,1441.42,78.80,48.20,34.13,M,4.00,0.00,30.08,M,3.00,M,CLR,M,M,M,M,M,M,M,HZ,M,M,M,M,M,M,78.80,KMEV 121955Z AUTO VRB04KT 3SM HZ CLR 26/09 A3008 RMK AO2,M
HTH,2022-09-12 19:55,-118.6315,38.5448,1282.89,84.20,44.60,24.99,160.00,5.00,0.00,30.03,M,10.00,M,CLR,M,M,M,M,M,M,M,M,M,M,M,M,M,M,81.73,KHTH 121955Z AUTO 16005KT 10SM CLR 29/07 A3003 RMK A01,M
BAM,2022-09-12 19:55,-116.8743,40.5990,1382.36,86.00,42.80,22.02,120.00,5.00,0.00,30.04,M,10.00,M,CLR,M,M,M,M,M,M,M,M,M,M,M,M,M,M,82.95,KBAM 121955Z AUTO 12005KT 10SM CLR 30/06 A3004 RMK AO1,M
RTS,2022-09-12 19:55,-119.8764,39.6682,1539.00,77.00,44.60,31.62,320.00,13.00,0.00,30.12,M,10.00,19.00,SCT,SCT,M,M,9000.00,12000.00,M,M,M,M,M,M,M,M,M,77.00,KRTS 121955Z AUTO 32013G19KT 10SM SCT090 SCT120 25/07 A3012 RMK AO2,M
RNO,2022-09-12 19:55,-119.7711,39.4839,1341.00,83.00,48.00,29.64,240.00,7.00,0.00,30.05,1011.80,8.00,M,BKN,BKN,M,M,10000.00,23000.00,M,M,M,M,M,M,M,M,M,81.11,KRNO 121955Z 24007KT 8SM BKN100 BKN230 28/09 A3005 RMK AO2 SLP118 FU HZ ALQDS T02830089,M
CXP,2022-09-12 19:55,-119.7326,39.1923,1431.00,82.40,46.40,28.36,260.00,6.00,0.00,30.08,M,5.00,M,FEW,BKN,BKN,M,7000.00,8500.00,11000.00,M,HZ,M,M,M,M,M,M,80.64,KCXP 121955Z AUTO 26006KT 5SM HZ FEW070 BKN085 BKN110 28/08 A3008 RMK AO2,M
BVU,2022-09-12 19:55,-114.8611,35.9475,671.00,82.40,59.00,45.07,50.00,4.00,0.00,30.02,M,M,M,M,M,M,M,M,M,M,M,M,M,M,M,M,M,M,82.46,KBVU 121955Z AUTO 05004KT 28/15 A3002 RMK AO2 TSNO,M
TMT,2022-09-12 19:55,-117.1971,39.4643,1749.34,M,M,M,260.00,15.00,0.00,30.15,M,10.00,M,SCT,M,M,M,11000.00,M,M,M,M,M,M,M,M,M,M,M,KTMT 121955Z AUTO 26015KT 10SM SCT110 A3015 RMK AO2,M
LAS,2022-09-12 19:56,-115.1634,36.0719,663.00,83.00,59.00,44.34,110.00,6.00,0.00,30.01,1013.90,10.00,M,FEW,FEW,SCT,M,7000.00,11000.00,20000.00,M,M,M,M,M,M,M,M,82.86,KLAS 121956Z 11006KT 10SM FEW070 FEW110 SCT200 28/15 A3001 RMK AO2 LTG DSNT W SLP139 CB DSNT W T02830150,M
EKO,2022-09-12 19:56,-115.7860,40.8242,1367.00,85.00,40.00,20.39,250.00,7.00,0.00,30.07,1012.00,10.00,M,CLR,M,M,M,M,M,M,M,M,M,M,M,M,M,M,81.98,KEKO 121956Z AUTO 25007KT 10SM CLR 29/04 A3007 RMK AO2 SLP120 T02940044,M
HND,2022-09-12 19:56,-115.1344,35.9729,742.79,82.00,59.00,45.66,40.00,5.00,0.00,30.05,1016.60,10.00,M,SCT,M,M,M,5000.00,M,M,M,M,M,M,M,M,M,M,82.15,KHND 121956Z COR 04005KT 10SM SCT050 28/15 A3005 RMK AO2 LTG DSNT SW AND NW SLP166 T02780150,M
WMC,2022-09-12 19:56,-117.8072,40.9019,1315.00,87.00,44.00,22.34,130.00,4.00,0.00,30.01,1010.50,10.00,M,CLR,M,M,M,M,M,M,M,M,M,M,M,M,M,M,83.91,KWMC 121956Z AUTO 13004KT 10SM CLR 31/07 A3001 RMK AO2 SLP105 T03060067,M
NFL,2022-09-12 19:56,-118.7010,39.4166,1199.00,85.00,44.00,23.97,M,5.00,0.00,30.01,1013.10,4.00,M,SCT,SCT,SCT,M,4000.00,6000.00,22000.00,M,HZ FU,M,M,M,M,M,M,82.20,KNFL 121956Z VRB05KT 4SM HZ FU SCT040 SCT060 SCT220 29/07 A3001 RMK AO2 SLP131 FU SCT040 T02940067,M
INS,2022-09-12 19:56,-115.6733,36.5872,955.00,76.00,58.30,54.06,0.00,0.00,0.00,30.07,1013.80,10.00,M,FEW,M,M,M,10000.00,M,M,M,M,M,M,M,M,M,M,76.10,KINS 121956Z AUTO 00000KT 10SM FEW100 25/15 A3007 RMK AO2 SLP138 T02450146 $,M
TPH,2022-09-12 19:56,-117.0904,38.0505,1654.00,69.00,56.00,62.80,M,3.00,0.00,30.19,1016.00,10.00,M,FEW,M,M,M,10000.00,M,M,M,M,M,M,M,M,M,M,69.10,KTPH 121956Z AUTO VRB03KT 10SM FEW100 21/13 A3019 RMK AO2 SLP160 T02060133,M
LSV,2022-09-12 19:56,-115.0343,36.2362,570.00,87.40,64.00,45.82,50.00,4.00,0.00,29.99,1013.20,10.00,M,FEW,SCT,BKN,M,11000.00,16000.00,20000.00,M,M,M,M,M,M,M,M,88.72,KLSV 121956Z AUTO 05004KT 10SM FEW110 SCT160 BKN200 31/18 A2999 RMK AO2 SLP132 T03080178 $,M
INS,2022-09-12 20:10,-115.6733,36.5872,955.00,77.00,59.00,53.80,0.00,0.00,0.00,30.06,M,10.00,M,SCT,M,M,M,9500.00,M,M,M,M,M,M,M,M,M,M,77.00,KINS 122010Z 00000KT 10SM SCT095 25/15 A3006,M
TMT,2022-09-12 20:15,-117.1971,39.4643,1749.34,M,M,M,240.00,13.00,0.00,30.15,M,10.00,M,SCT,SCT,M,M,9000.00,11000.00,M,M,TS,M,M,M,M,M,M,M,KTMT 122015Z AUTO 24013KT 10SM TS SCT090 SCT110 A3015 RMK AO2 LTG DSNT SE,M
RTS,2022-09-12 20:15,-119.8764,39.6682,1539.00,75.20,44.60,33.57,310.00,12.00,0.00,30.11,M,10.00,M,BKN,BKN,M,M,9000.00,12000.00,M,M,M,M,M,M,M,M,M,75.20,KRTS 122015Z AUTO 31012KT 10SM BKN090 BKN120 24/07 A3011 RMK AO2,M
CXP,2022-09-12 20:15,-119.7326,39.1923,1431.00,80.60,48.20,32.18,300.00,13.00,0.00,30.08,M,0.50,M,BKN,BKN,BKN,M,7000.00,8000.00,10000.00,M,HZ,M,M,M,M,M,M,79.71,KCXP 122015Z AUTO 30013KT 1/2SM HZ BKN070 BKN080 BKN100 27/09 A3008 RMK AO2,M
BVU,2022-09-12 20:15,-114.8611,35.9475,671.00,82.40,60.80,48.05,M,4.00,0.00,30.01,M,M,M,M,M,M,M,M,M,M,M,M,M,M,M,M,M,M,82.90,KBVU 122015Z AUTO VRB04KT 28/16 A3001 RMK AO2 TSNO,M
BAM,2022-09-12 20:15,-116.8743,40.5990,1382.36,86.00,44.60,23.59,120.00,8.00,0.00,30.04,M,10.00,15.00,CLR,M,M,M,M,M,M,M,M,M,M,M,M,M,M,83.07,KBAM 122015Z AUTO 12008G15KT 10SM CLR 30/07 A3004 RMK AO1,M
MEV,2022-09-12 20:15,-119.7500,38.9963,1441.42,78.80,46.40,31.90,240.00,4.00,0.00,30.08,M,2.50,M,CLR,M,M,M,M,M,M,M,HZ,M,M,M,M,M,M,78.80,KMEV 122015Z AUTO 24004KT 2 1/2SM HZ CLR 26/08 A3008 RMK AO2,M
HTH,2022-09-12 20:15,-118.6315,38.5448,1282.89,82.40,48.20,30.35,190.00,12.00,0.00,30.03,M,10.00,19.00,SCT,BKN,M,M,9000.00,12000.00,M,M,M,M,M,M,M,M,M,80.80,KHTH 122015Z AUTO 19012G19KT 10SM SCT090 BKN120 28/09 A3003 RMK A01,M
INS,2022-09-12 20:16,-115.6733,36.5872,955.00,77.00,59.00,53.80,0.00,0.00,0.00,30.06,1013.50,10.00,M,BKN,M,M,M,9500.00,M,M,M,M,M,M,M,M,M,M,77.00,KINS 122016Z AUTO 00000KT 10SM BKN095 25/15 A3006 RMK AO2 SLP135 $,M
INS,2022-09-12 20:26,-115.6733,36.5872,955.00,77.00,59.00,53.80,0.00,0.00,0.00,30.06,1013.70,10.00,M,BKN,M,M,M,10000.00,M,M,M,M,M,M,M,M,M,M,77.00,KINS 122026Z AUTO 00000KT 10SM BKN100 25/15 A3006 RMK AO2 SLP137 $,M
MEV,2022-09-12 20:35,-119.7500,38.9963,1441.42,78.80,48.20,34.13,M,5.00,0.00,30.07,M,1.50,M,CLR,M,M,M,M,M,M,M,HZ,M,M,M,M,M,M,78.80,KMEV 122035Z AUTO VRB05KT 1 1/2SM HZ CLR 26/09 A3007 RMK AO2 LTG DSNT S,M
BVU,2022-09-12 20:35,-114.8611,35.9475,671.00,84.20,60.80,45.34,40.00,4.00,0.00,30.00,M,M,M,M,M,M,M,M,M,M,M,M,M,M,M,M,M,M,84.43,KBVU 122035Z AUTO 04004KT 29/16 A3000 RMK AO2 TSNO,M
CXP,2022-09-12 20:35,-119.7326,39.1923,1431.00,78.80,46.40,31.90,290.00,13.00,0.00,30.07,M,0.25,M,SCT,M,M,M,300.00,M,M,M,HZ,M,M,M,M,M,M,78.80,KCXP 122035Z AUTO 29013KT 1/4SM HZ SCT003 26/08 A3007 RMK AO2 LTG DSNT NE AND S,M
RTS,2022-09-12 20:35,-119.8764,39.6682,1539.00,77.00,44.60,31.62,310.00,12.00,0.00,30.11,M,10.00,M,FEW,M,M,M,9000.00,M,M,M,M,M,M,M,M,M,M,77.00,KRTS 122035Z AUTO 31012KT 10SM FEW090 25/07 A3011 RMK AO2,M
BAM,2022-09-12 20:35,-116.8743,40.5990,1382.36,86.00,44.60,23.59,130.00,10.00,0.00,30.04,M,10.00,M,SCT,M,M,M,11000.00,M,M,M,M,M,M,M,M,M,M,83.07,KBAM 122035Z AUTO 13010KT 10SM SCT110 30/07 A3004 RMK AO1,M
HTH,2022-09-12 20:35,-118.6315,38.5448,1282.89,77.00,48.20,36.22,150.00,18.00,0.00,30.02,M,10.00,M,SCT,SCT,M,M,8500.00,12000.00,M,M,M,M,M,M,M,M,M,77.00,KHTH 122035Z AUTO 15018KT 10SM SCT085 SCT120 25/09 A3002 RMK A01,M
TMT,2022-09-12 20:35,-117.1971,39.4643,1749.34,M,M,M,210.00,11.00,0.00,30.15,M,10.00,M,SCT,M,M,M,9000.00,M,M,M,M,M,M,M,M,M,M,M,KTMT 122035Z AUTO 21011KT 10SM SCT090 A3015 RMK AO2 LTG DSNT ALQS,M
LOL,2022-09-12 20:53,-118.5701,40.0684,1192.43,88.00,42.00,20.11,220.00,8.00,0.00,29.96,1009.90,10.00,17.00,FEW,M,M,M,9500.00,M,M,M,M,M,M,M,M,M,M,84.52,KLOL 122053Z AUTO 22008G17KT 10SM FEW095 31/06 A2996 RMK AO2 SLP099 T03110056 58027,M
DRA,2022-09-12 20:53,-116.0278,36.6206,1009.00,83.00,58.00,42.63,80.00,4.00,0.00,30.04,1012.90,10.00,M,CLR,M,M,M,M,M,M,M,M,M,M,M,M,M,M,82.60,KDRA 122053Z AUTO 08004KT 10SM CLR 28/14 A3004 RMK AO2 SLP129 T02830144 58026,M
VGT,2022-09-12 20:53,-115.1933,36.2111,667.00,86.00,58.00,38.58,140.00,6.00,0.00,29.98,1014.10,10.00,M,CLR,M,M,M,M,M,M,M,M,M,M,M,M,M,M,85.16,KVGT 122053Z 14006KT 10SM CLR 30/14 A2998 RMK AO2 LTG DSNT SW SLP141 T03000144 58030,M
ELY,2022-09-12 20:53,-114.8453,39.2950,1909.00,80.00,44.00,28.01,190.00,12.00,0.00,30.16,1011.80,10.00,19.00,FEW,M,M,M,12000.00,M,M,M,M,M,M,M,M,M,M,79.12,KELY 122053Z AUTO 19012G19KT 10SM FEW120 27/07 A3016 RMK AO2 SLP118 T02670067 58022,M
P68,2022-09-12 20:53,-116.0056,39.6014,1993.00,81.00,41.00,24.14,190.00,14.00,0.00,30.13,1011.90,M,22.00,M,M,M,M,M,M,M,M,M,M,M,M,27.00,170.00,2022-09-12 19:56,79.43,KP68 122053Z AUTO 19014G22KT 27/05 A3013 RMK AO1 PK WND 17027/1956 SLP119 T02720050 56016,M
BAM,2022-09-12 20:55,-116.8743,40.5990,1382.36,86.00,44.60,23.59,130.00,8.00,0.00,30.02,M,10.00,M,SCT,M,M,M,11000.00,M,M,M,M,M,M,M,M,M,M,83.07,KBAM 122055Z AUTO 13008KT 10SM SCT110 30/07 A3002 RMK AO1,M
CXP,2022-09-12 20:55,-119.7326,39.1923,1431.00,78.80,46.40,31.90,290.00,14.00,0.00,30.07,M,0.25,M,VV ,M,M,M,200.00,M,M,M,HZ,M,M,M,M,M,M,78.80,KCXP 122055Z AUTO 29014KT 1/4SM HZ VV002 26/08 A3007 RMK AO2,M
TMT,2022-09-12 20:55,-117.1971,39.4643,1749.34,M,M,M,210.00,8.00,0.00,30.15,M,10.00,M,SCT,M,M,M,9000.00,M,M,M,-VCTSRA,M,M,M,M,M,M,M,KTMT 122055Z AUTO 21008KT 10SM -VCTSRA SCT090 A3015 RMK AO2 LTG DSNT SW THRU NW,M
HTH,2022-09-12 20:55,-118.6315,38.5448,1282.89,73.40,51.80,46.71,M,M,0.00,30.03,M,9.00,M,CLR,M,M,M,M,M,M,M,M,M,M,M,M,M,M,73.40,KHTH 122055Z AUTO 150KT 9SM CLR 23/11 A3003 RMK A01,M
MEV,2022-09-12 20:55,-119.7500,38.9963,1441.42,77.00,48.20,36.22,260.00,9.00,0.00,30.06,M,0.75,15.00,VV ,M,M,M,500.00,M,M,M,HZ,M,M,M,M,M,M,77.00,KMEV 122055Z AUTO 26009G15KT 3/4SM HZ VV005 25/09 A3006 RMK AO2,M
BVU,2022-09-12 20:55,-114.8611,35.9475,671.00,84.20,60.80,45.34,0.00,0.00,0.00,29.99,M,M,M,M,M,M,M,M,M,M,M,M,M,M,M,M,M,M,84.43,KBVU 122055Z AUTO 00000KT 29/16 A2999 RMK AO2 TSNO,M
RNO,2022-09-12 20:55,-119.7711,39.4839,1341.00,81.00,49.00,32.60,280.00,13.00,T,30.04,1011.30,4.00,M,SCT,BKN,M,M,1500.00,9500.00,M,M,FU,M,M,M,M,M,M,80.01,KRNO 122055Z 28013KT 4SM FU SCT015 BKN095 27/09 A3004 RMK AO2 LTG DSNT SE RAB18E29 SLP113 FU SCT015 P0000 60000 T02720094 56019,M
RTS,2022-09-12 20:55,-119.8764,39.6682,1539.00,75.20,44.60,33.57,310.00,12.00,0.00,30.10,M,10.00,M,SCT,M,M,M,9500.00,M,M,M,M,M,M,M,M,M,M,75.20,KRTS 122055Z AUTO 31012KT 10SM SCT095 24/07 A3010 RMK AO2,M
INS,2022-09-12 20:56,-115.6733,36.5872,955.00,76.30,58.00,52.93,230.00,4.00,0.00,30.05,1013.30,10.00,M,BKN,BKN,OVC,M,10000.00,12000.00,15000.00,M,M,M,M,M,M,M,M,76.30,KINS 122056Z AUTO 23004KT 10SM BKN100 BKN120 OVC150 25/14 A3005 RMK AO2 SLP133 T02460144 57024 $,M
LAS,2022-09-12 20:56,-115.1634,36.0719,663.00,83.00,58.00,42.63,80.00,3.00,0.00,29.99,1013.00,10.00,M,FEW,FEW,BKN,M,7000.00,11000.00,20000.00,M,M,M,M,M,M,M,M,82.60,KLAS 122056Z 08003KT 10SM FEW070 FEW110 BKN200 28/14 A2999 RMK AO2 LTG DSNT S AND W SLP130 CB DSNT S-W-NW T02830144 58028,M
TPH,2022-09-12 20:56,-117.0904,38.0505,1654.00,72.00,53.00,51.37,180.00,8.00,0.00,30.15,1014.70,10.00,M,CLR,M,M,M,M,M,M,M,M,M,M,M,M,M,M,72.00,KTPH 122056Z AUTO 18008KT 10SM CLR 22/12 A3015 RMK AO2 SLP147 60002 T02220117 58033,M
NFL,2022-09-12 20:56,-118.7010,39.4166,1199.00,87.00,43.00,21.42,280.00,10.00,0.00,29.97,1012.10,4.00,M,SCT,SCT,SCT,M,4000.00,6000.00,22000.00,M,HZ FU,M,M,M,M,M,M,83.84,KNFL 122056Z 28010KT 4SM HZ FU SCT040 SCT060 SCT220 31/06 A2997 RMK AO2 SLP121 FU SCT040 T03060061 58026,M
EKO,2022-09-12 20:56,-115.7860,40.8242,1367.00,85.00,39.00,19.69,M,3.00,0.00,30.04,1011.00,10.00,M,CLR,M,M,M,M,M,M,M,M,M,M,M,M,M,M,81.95,KEKO 122056Z AUTO VRB03KT 10SM CLR 29/04 A3004 RMK AO2 LTG DSNT SW SLP110 T02940039 58025,M
LSV,2022-09-12 20:56,-115.0343,36.2362,570.00,90.00,60.80,37.70,130.00,6.00,0.00,29.95,1011.90,10.00,M,CLR,M,M,M,M,M,M,M,M,M,M,M,M,M,M,89.94,KLSV 122056Z AUTO 13006KT 10SM CLR 32/16 A2995 RMK AO2 SLP119 T03220160 57031 $,M
HND,2022-09-12 20:56,-115.1344,35.9729,742.79,83.00,60.00,46.12,M,3.00,0.00,30.02,1015.70,10.00,M,SCT,M,M,M,5000.00,M,M,M,M,M,M,M,M,M,M,83.13,KHND 122056Z COR VRB03KT 10SM SCT050 28/16 A3002 RMK AO2 LTG DSNT S AND W SLP157 T02830156 58025,M
WMC,2022-09-12 20:56,-117.8072,40.9019,1315.00,81.00,49.00,32.60,210.00,19.00,T,29.98,1010.20,9.00,28.00,FEW,OVC,M,M,6000.00,10000.00,M,M,-RA,M,M,M,28.00,200.00,2022-09-12 20:55,80.01,KWMC 122056Z AUTO 21019G28KT 9SM -RA FEW060 OVC100 27/09 A2998 RMK AO2 PK WND 20028/2055 LTG DSNT E AND SE RAB52 SLP102 P0000 60000 T02720094 58025,M
INS,2022-09-12 21:01,-115.6733,36.5872,955.00,77.00,57.20,50.43,0.00,0.00,0.00,30.04,1013.00,10.00,M,BKN,BKN,OVC,M,9500.00,12000.00,15000.00,M,M,M,M,M,M,M,M,77.00,KINS 122101Z AUTO 00000KT 10SM BKN095 BKN120 OVC150 25/14 A3004 RMK AO2 SLP130 $,M
INS,2022-09-12 21:05,-115.6733,36.5872,955.00,77.00,57.20,50.43,0.00,0.00,0.00,30.04,1013.00,10.00,M,BKN,OVC,M,M,9500.00,12000.00,M,M,-DZ,M,M,M,M,M,M,77.00,KINS 122105Z AUTO 00000KT 10SM -DZ BKN095 OVC120 25/14 A3004 RMK AO2 DZB05 SLP130 $,M
RNO,2022-09-12 21:08,-119.7711,39.4839,1341.00,81.00,49.00,32.18,280.00,12.00,0.00,30.03,M,3.00,M,BKN,BKN,M,M,1500.00,9500.00,M,M,FU,M,M,M,M,M,M,79.71,KRNO 122108Z 28012KT 3SM FU BKN015 BKN095 27/09 A3003 RMK AO2 LTG DSNT SE FU BKN015 T02720094,M
WMC,2022-09-12 21:11,-117.8072,40.9019,1315.00,75.00,48.00,38.43,230.00,11.00,T,30.03,M,2.50,32.00,FEW,SCT,OVC,M,5500.00,8000.00,10000.00,M,-TSRA,M,M,M,32.00,200.00,2022-09-12 21:04,75.00,KWMC 122111Z AUTO 23011G32KT 200V270 2 1/2SM -TSRA FEW055 SCT080 OVC100 24/09 A3003 RMK AO2 PK WND 20032/2104 TSB09 PRESRR P0000 T02390089,M
RNO,2022-09-12 21:11,-119.7711,39.4839,1341.00,81.00,49.00,32.60,280.00,14.00,0.00,30.03,M,1.00,M,OVC,M,M,M,1800.00,M,M,M,FU,M,M,M,M,M,M,80.01,KRNO 122111Z 28014KT 1SM R16R/P6000FT FU OVC018 27/09 A3003 RMK AO2 LTG DSNT SE FU OVC018 T02720094,M
WMC,2022-09-12 21:14,-117.8072,40.9019,1315.00,74.00,49.00,41.24,180.00,4.00,0.01,30.01,M,1.25,30.00,FEW,BKN,OVC,M,5000.00,9000.00,11000.00,M,+TSRA,M,M,M,32.00,200.00,2022-09-12 21:04,73.90,KWMC 122114Z AUTO 18004G30KT 1 1/4SM +TSRA FEW050 BKN090 OVC110 23/09 A3001 RMK AO2 PK WND 20032/2104 TSB09 P0001 T02330094,M
BAM,2022-09-12 21:15,-116.8743,40.5990,1382.36,89.60,42.80,19.64,150.00,8.00,0.00,30.00,M,10.00,M,CLR,M,M,M,M,M,M,M,M,M,M,M,M,M,M,85.93,KBAM 122115Z AUTO 15008KT 10SM CLR 32/06 A3000 RMK AO1,M
MEV,2022-09-12 21:15,-119.7500,38.9963,1441.42,77.00,48.20,36.22,270.00,12.00,0.00,30.06,M,1.00,M,CLR,M,M,M,M,M,M,M,HZ,M,M,M,M,M,M,77.00,KMEV 122115Z AUTO 27012KT 1SM HZ CLR 25/09 A3006 RMK AO2 LTG DSNT E,M
RTS,2022-09-12 21:15,-119.8764,39.6682,1539.00,75.20,44.60,33.57,290.00,9.00,0.00,30.10,M,10.00,15.00,BKN,M,M,M,8500.00,M,M,M,M,M,M,M,M,M,M,75.20,KRTS 122115Z AUTO 29009G15KT 10SM BKN085 24/07 A3010 RMK AO2,M
CXP,2022-09-12 21:15,-119.7326,39.1923,1431.00,77.00,46.40,33.85,290.00,12.00,0.00,30.07,M,0.25,17.00,VV ,M,M,M,200.00,M,M,M,HZ,M,M,M,M,M,M,77.00,KCXP 122115Z AUTO 29012G17KT 1/4SM HZ VV002 25/08 A3007 RMK AO2 LTG DSNT E,M
BVU,2022-09-12 21:15,-114.8611,35.9475,671.00,84.20,60.80,45.34,0.00,0.00,0.00,29.97,M,M,M,M,M,M,M,M,M,M,M,M,M,M,M,M,M,M,84.43,KBVU 122115Z AUTO 00000KT 29/16 A2997 RMK AO2 TSNO,M
TMT,2022-09-12 21:15,-117.1971,39.4643,1749.34,M,M,M,210.00,10.00,0.00,30.15,M,10.00,M,SCT,M,M,M,9000.00,M,M,M,M,M,M,M,M,M,M,M,KTMT 122115Z AUTO 21010KT 10SM SCT090 A3015 RMK AO2 LTG DSNT W,M
HTH,2022-09-12 21:15,-118.6315,38.5448,1282.89,77.00,48.20,36.22,170.00,12.00,0.00,30.02,M,10.00,M,CLR,M,M,M,M,M,M,M,M,M,M,M,M,M,M,77.00,KHTH 122115Z AUTO 17012KT 10SM CLR 25/09 A3002 RMK A01,M
WMC,2022-09-12 21:23,-117.8072,40.9019,1315.00,72.00,55.00,55.06,20.00,9.00,0.09,29.97,M,2.50,M,FEW,BKN,OVC,M,5500.00,9000.00,11000.00,M,TSRA,M,M,M,32.00,200.00,2022-09-12 21:04,72.00,KWMC 122123Z AUTO 02009KT 2 1/2SM TSRA FEW055 BKN090 OVC110 22/13 A2997 RMK AO2 PK WND 20032/2104 TSB09 P0009 T02220128,M
WMC,2022-09-12 21:30,-117.8072,40.9019,1315.00,77.00,52.00,41.72,0.00,0.00,0.09,29.96,M,9.00,M,FEW,SCT,BKN,M,5000.00,7500.00,9500.00,M,-RA,M,M,M,32.00,200.00,2022-09-12 21:04,77.00,KWMC 122130Z AUTO 00000KT 9SM -RA FEW050 SCT075 BKN095 25/11 A2996 RMK AO2 PK WND 20032/2104 TSB09E24 PRESFR P0009 T02500111,M
CXP,2022-09-12 21:35,-119.7326,39.1923,1431.00,77.00,46.40,33.85,310.00,9.00,0.00,30.06,M,0.25,M,VV ,M,M,M,200.00,M,M,M,TS HZ,M,M,M,M,M,M,77.00,KCXP 122135Z AUTO 31009KT 1/4SM TS HZ VV002 25/08 A3006 RMK AO2 LTG DSNT E,M
RTS,2022-09-12 21:35,-119.8764,39.6682,1539.00,75.20,46.40,35.94,280.00,11.00,0.00,30.09,M,9.00,18.00,OVC,M,M,M,8500.00,M,M,M,M,M,M,M,M,M,M,75.20,KRTS 122135Z AUTO 28011G18KT 9SM OVC085 24/08 A3009 RMK AO2,M
MEV,2022-09-12 21:35,-119.7500,38.9963,1441.42,78.80,48.20,34.13,280.00,8.00,0.00,30.05,M,1.25,M,CLR,M,M,M,M,M,M,M,VCTS HZ,M,M,M,M,M,M,78.80,KMEV 122135Z AUTO 28008KT 1 1/4SM VCTS HZ CLR 26/09 A3005 RMK AO2 LTG DSNT NE AND E VIS 3/4V1 3/4,M
BAM,2022-09-12 21:35,-116.8743,40.5990,1382.36,89.60,41.00,18.33,120.00,7.00,0.00,29.99,M,10.00,M,CLR,M,M,M,M,M,M,M,M,M,M,M,M,M,M,85.82,KBAM 122135Z AUTO 12007KT 10SM CLR 32/05 A2999 RMK AO1,M
HTH,2022-09-12 21:35,-118.6315,38.5448,1282.89,75.20,50.00,41.14,140.00,11.00,0.00,30.01,M,10.00,M,FEW,M,M,M,12000.00,M,M,M,M,M,M,M,M,M,M,75.20,KHTH 122135Z AUTO 14011KT 10SM FEW120 24/10 A3001 RMK A01,M
TMT,2022-09-12 21:35,-117.1971,39.4643,1749.34,M,M,M,230.00,11.00,0.00,30.14,M,10.00,14.00,SCT,BKN,M,M,8000.00,9000.00,M,M,M,M,M,M,M,M,M,M,KTMT 122135Z AUTO 23011G14KT 10SM SCT080 BKN090 A3014 RMK AO2 LTG DSNT SW THRU NE,M
BVU,2022-09-12 21:35,-114.8611,35.9475,671.00,82.40,60.80,48.05,0.00,0.00,0.00,29.97,M,M,M,M,M,M,M,M,M,M,M,M,M,M,M,M,M,M,82.90,KBVU 122135Z AUTO 00000KT 28/16 A2997 RMK AO2 TSNO,M
CXP,2022-09-12 21:50,-119.7326,39.1923,1431.00,77.00,46.40,33.85,290.00,9.00,0.00,30.06,M,0.50,15.00,VV ,M,M,M,500.00,M,M,M,TS HZ,M,M,M,M,M,M,77.00,KCXP 122150Z AUTO 29009G15KT 1/2SM TS HZ VV005 25/08 A3006 RMK AO2 LTG DSNT E,M
P68,2022-09-12 21:53,-116.0056,39.6014,1993.00,77.00,41.00,27.53,290.00,10.00,0.00,30.12,1011.80,M,18.00,M,M,M,M,M,M,M,M,M,M,M,M,M,M,M,77.00,KP68 122153Z AUTO 29010G18KT 25/05 A3012 RMK AO1 SLP118 T02500050,M
DRA,2022-09-12 21:53,-116.0278,36.6206,1009.00,81.00,58.00,45.34,110.00,8.00,0.00,30.01,1011.90,10.00,M,SCT,OVC,M,M,4900.00,6000.00,M,M,M,M,M,M,M,M,M,81.20,KDRA 122153Z AUTO 11008KT 10SM SCT049 OVC060 27/14 A3001 RMK AO2 SLP119 T02720144,M
ELY,2022-09-12 21:53,-114.8453,39.2950,1909.00,79.00,43.00,27.84,180.00,12.00,0.00,30.13,1011.30,10.00,20.00,SCT,M,M,M,11000.00,M,M,M,M,M,M,M,M,M,M,79.00,KELY 122153Z AUTO 18012G20KT 10SM SCT110 26/06 A3013 RMK AO2 LTG DSNT N SLP113 T02610061,M
LOL,2022-09-12 21:53,-118.5701,40.0684,1192.43,89.00,41.00,18.62,230.00,10.00,0.00,29.93,1009.10,10.00,M,CLR,M,M,M,M,M,M,M,M,M,M,M,M,M,M,85.39,KLOL 122153Z AUTO 23010KT 200V260 10SM CLR 32/05 A2993 RMK AO2 SLP091 T03170050,M
VGT,2022-09-12 21:53,-115.1933,36.2111,667.00,87.00,58.00,37.25,180.00,8.00,0.00,29.95,1013.10,10.00,M,CLR,M,M,M,M,M,M,M,M,M,M,M,M,M,M,86.14,KVGT 122153Z 18008KT 10SM CLR 31/14 A2995 RMK AO2 SLP131 T03060144,M
BVU,2022-09-12 21:55,-114.8611,35.9475,671.00,82.40,60.80,48.05,290.00,4.00,0.00,29.96,M,M,M,M,M,M,M,M,M,M,M,M,M,M,M,M,M,M,82.90,KBVU 122155Z AUTO 29004KT 28/16 A2996 RMK AO2 TSNO,M
RNO,2022-09-12 21:55,-119.7711,39.4839,1341.00,81.00,50.00,33.97,280.00,8.00,0.00,30.02,1011.00,1.00,M,OVC,M,M,M,2100.00,M,M,M,FU,M,M,M,M,M,M,80.12,KRNO 122155Z 28008KT 1SM R16R/6000VP6000FT FU OVC021 27/10 A3002 RMK AO2 LTG DSNT SE SLP110 FU OVC021 T02720100,M
RTS,2022-09-12 21:55,-119.8764,39.6682,1539.00,69.80,55.40,60.21,260.00,6.00,0.00,30.09,M,5.00,11.00,FEW,FEW,SCT,M,3000.00,3600.00,8500.00,M,-DZ,M,M,M,M,M,M,69.80,KRTS 122155Z AUTO 26006G11KT 5SM -DZ FEW030 FEW036 SCT085 21/13 A3009 RMK AO2,M
MEV,2022-09-12 21:55,-119.7500,38.9963,1441.42,78.80,48.20,34.13,290.00,11.00,0.00,30.05,M,1.75,M,SCT,M,M,M,8000.00,M,M,M,TS HZ,M,M,M,M,M,M,78.80,KMEV 122155Z AUTO 29011KT 1 3/4SM TS HZ SCT080 26/09 A3005 RMK AO2 LTG DSNT NE AND E VIS 1 1/4V3,M
BAM,2022-09-12 21:55,-116.8743,40.5990,1382.36,89.60,42.80,19.64,0.00,0.00,0.00,29.99,M,10.00,M,CLR,M,M,M,M,M,M,M,M,M,M,M,M,M,M,85.93,KBAM 122155Z AUTO 00000KT 10SM CLR 32/06 A2999 RMK AO1,M
HTH,2022-09-12 21:55,-118.6315,38.5448,1282.89,75.20,51.80,43.97,140.00,16.00,0.00,30.01,M,10.00,M,M,M,M,M,M,M,M,M,M,M,M,M,M,M,M,75.20,KHTH 122155Z AUTO 14016KT 10SM 24/11 A3001 RMK A01,M
TMT,2022-09-12 21:55,-117.1971,39.4643,1749.34,M,M,M,220.00,5.00,0.00,30.14,M,10.00,M,BKN,M,M,M,9000.00,M,M,M,-VCTSRA,M,M,M,M,M,M,M,KTMT 122155Z AUTO 22005KT 10SM -VCTSRA BKN090 A3014 RMK AO2 LTG DSNT SW THRU NW,M
NFL,2022-09-12 21:56,-118.7010,39.4166,1199.00,87.00,43.00,21.42,270.00,6.00,0.00,29.95,1011.30,4.00,M,SCT,BKN,BKN,M,4000.00,6000.00,22000.00,M,HZ FU,M,M,M,M,M,M,83.84,KNFL 122156Z 27006KT 4SM HZ FU SCT040 BKN060 BKN220 31/06 A2995 RMK AO2 SLP113 FU SCT040 T03060061,M
TPH,2022-09-12 21:56,-117.0904,38.0505,1654.00,74.00,52.00,46.27,180.00,12.00,0.00,30.11,1013.30,10.00,16.00,FEW,M,M,M,9500.00,M,M,M,M,M,M,M,M,M,M,73.90,KTPH 122156Z AUTO 18012G16KT 10SM FEW095 23/11 A3011 RMK AO2 SLP133 T02330111,M
INS,2022-09-12 21:56,-115.6733,36.5872,955.00,74.50,62.00,64.82,190.00,10.00,0.01,30.02,1012.50,10.00,M,BKN,OVC,M,M,9000.00,11000.00,M,M,-RA,M,M,M,M,M,M,74.50,KINS 122156Z AUTO 19010KT 10SM -RA BKN090 OVC110 24/17 A3002 RMK AO2 DZB05E08RAB08E39DZB39E52RAB52 SLP125 P0001 T02360166 $,M
EKO,2022-09-12 21:56,-115.7860,40.8242,1367.00,83.00,41.00,22.70,M,3.00,0.00,30.02,1010.50,10.00,M,OVC,M,M,M,10000.00,M,M,M,M,M,M,M,M,M,M,80.62,KEKO 122156Z AUTO VRB03KT 10SM OVC100 28/05 A3002 RMK AO2 SLP105 T02830050,M
WMC,2022-09-12 21:56,-117.8072,40.9019,1315.00,79.00,57.00,46.87,360.00,9.00,0.09,29.96,1009.30,10.00,M,BKN,M,M,M,10000.00,M,M,M,VCTS,M,M,M,32.00,200.00,2022-09-12 21:04,79.00,KWMC 122156Z AUTO 36009KT 10SM VCTS BKN100 26/14 A2996 RMK AO2 PK WND 20032/2104 LTG DSNT N RAE34 TSB09E24 SLP093 P0009 T02610139,M
LAS,2022-09-12 21:56,-115.1634,36.0719,663.00,84.00,59.00,42.80,M,4.00,0.00,29.96,1011.90,10.00,M,FEW,FEW,BKN,M,7000.00,11000.00,20000.00,M,M,M,M,M,M,M,M,83.75,KLAS 122156Z VRB04KT 10SM FEW070 FEW110 BKN200 29/15 A2996 RMK AO2 SLP119 ACC N-NE CB DSNT N AND SE-SW-NW T02890150,M
LSV,2022-09-12 21:56,-115.0343,36.2362,570.00,92.30,59.70,33.73,180.00,5.00,0.00,29.92,1010.70,10.00,M,CLR,M,M,M,M,M,M,M,M,M,M,M,M,M,M,91.89,KLSV 122156Z AUTO 18005KT 10SM CLR 34/15 A2992 RMK AO2 SLP107 T03350154 $,M
HND,2022-09-12 21:56,-115.1344,35.9729,742.79,83.00,60.00,46.12,0.00,0.00,0.00,29.99,1014.50,10.00,M,CLR,M,M,M,M,M,M,M,M,M,M,M,M,M,M,83.13,KHND 122156Z 00000KT 10SM CLR 28/16 A2999 RMK AO2 LTG DSNT SW SLP145 T02830156,M
CXP,2022-09-12 22:10,-119.7326,39.1923,1431.00,77.00,46.40,33.85,310.00,10.00,0.00,30.06,M,1.00,M,CLR,M,M,M,M,M,M,M,TS HZ,M,M,M,M,M,M,77.00,KCXP 122210Z AUTO 31010KT 1SM TS HZ CLR 25/08 A3006 RMK AO2 LTG DSNT E AND SE,M
WMC,2022-09-12 22:11,-117.8072,40.9019,1315.00,84.00,52.00,33.19,360.00,6.00,0.00,29.95,M,10.00,M,BKN,M,M,M,11000.00,M,M,M,M,M,M,M,M,M,M,82.36,KWMC 122211Z AUTO 36006KT 10SM BKN110 29/11 A2995 RMK AO2 LTG DSNT N T02890111,M
INS,2022-09-12 22:11,-115.6733,36.5872,955.00,75.20,60.80,60.90,200.00,8.00,0.00,30.01,1012.10,10.00,M,SCT,BKN,M,M,8000.00,12000.00,M,M,-DZ,M,M,M,M,M,M,75.20,KINS 122211Z AUTO 20008KT 10SM -DZ SCT080 BKN120 24/16 A3001 RMK AO2 RAE01DZB01 SLP121 $,M
RNO,2022-09-12 22:13,-119.7711,39.4839,1341.00,79.00,49.00,34.81,290.00,12.00,0.00,30.03,M,0.75,M,BKN,OVC,M,M,2000.00,2800.00,M,M,FU,M,M,M,M,M,M,79.00,KRNO 122213Z 29012KT 3/4SM R16R/4000VP6000FT FU BKN020 OVC028 26/09 A3003 RMK AO2 LTG DSNT SE FU BKN020 FU OVC028 T02610094,M
INS,2022-09-12 22:14,-115.6733,36.5872,955.00,75.20,60.80,60.90,200.00,7.00,0.00,30.01,1012.10,10.00,M,SCT,OVC,M,M,8000.00,12000.00,M,M,M,M,M,M,M,M,M,75.20,KINS 122214Z AUTO 20007KT 10SM SCT080 OVC120 24/16 A3001 RMK AO2 RAE01DZB01E14 SLP121 $,M
BAM,2022-09-12 22:15,-116.8743,40.5990,1382.36,87.80,39.20,18.09,180.00,3.00,0.00,29.98,M,10.00,M,CLR,M,M,M,M,M,M,M,M,M,M,M,M,M,M,84.22,KBAM 122215Z AUTO 18003KT 10SM CLR 31/04 A2998 RMK AO1,M
BVU,2022-09-12 22:15,-114.8611,35.9475,671.00,82.40,60.80,48.05,0.00,0.00,0.00,29.94,M,M,M,M,M,M,M,M,M,M,M,M,M,M,M,M,M,M,82.90,KBVU 122215Z AUTO 00000KT 28/16 A2994 RMK AO2 TSNO,M
RTS,2022-09-12 22:15,-119.8764,39.6682,1539.00,69.80,51.80,52.77,300.00,14.00,0.00,30.09,M,7.00,M,CLR,M,M,M,M,M,M,M,-DZ,M,M,M,M,M,M,69.80,KRTS 122215Z AUTO 30014KT 7SM -DZ CLR 21/11 A3009 RMK AO2,M
TMT,2022-09-12 22:15,-117.1971,39.4643,1749.34,M,M,M,260.00,9.00,0.00,30.12,M,10.00,M,SCT,SCT,M,M,9000.00,11000.00,M,M,M,M,M,M,M,M,M,M,KTMT 122215Z AUTO 26009KT 10SM SCT090 SCT110 A3012 RMK AO2 LTG DSNT SW AND W,M
HTH,2022-09-12 22:15,-118.6315,38.5448,1282.89,75.20,50.00,41.14,150.00,12.00,0.00,30.01,M,10.00,17.00,BKN,OVC,M,M,10000.00,12000.00,M,M,M,M,M,M,M,M,M,75.20,KHTH 122215Z AUTO 15012G17KT 10SM BKN100 OVC120 24/10 A3001 RMK A01,M
MEV,2022-09-12 22:15,-119.7500,38.9963,1441.42,77.00,48.20,36.22,300.00,10.00,0.00,30.04,M,2.50,M,SCT,M,M,M,8000.00,M,M,M,TS HZ,M,M,M,M,M,M,77.00,KMEV 122215Z AUTO 30010KT 2 1/2SM TS HZ SCT080 25/09 A3004 RMK AO2 LTG DSNT NE-SE VIS 1 3/4V3,M
RNO,2022-09-12 22:17,-119.7711,39.4839,1341.00,79.00,50.00,36.27,290.00,10.00,0.00,30.03,M,0.50,M,OVC,M,M,M,2100.00,M,M,M,FU,M,M,M,M,M,M,79.00,KRNO 122217Z 29010KT 1/2SM R16R/4000V6000FT FU OVC021 26/10 A3003 RMK AO2 LTG DSNT SE FU OVC021 T02610100,M
BVU,2022-09-12 22:35,-114.8611,35.9475,671.00,82.40,60.80,48.05,0.00,0.00,0.00,29.93,M,M,M,M,M,M,M,M,M,M,M,M,M,M,M,M,M,M,82.90,KBVU 122235Z AUTO 00000KT 28/16 A2993 RMK AO2 TSNO,M
CXP,2022-09-12 22:35,-119.7326,39.1923,1431.00,77.00,48.20,36.22,260.00,10.00,0.00,30.06,M,2.50,15.00,FEW,M,M,M,7500.00,M,M,M,TS HZ,M,M,M,M,M,M,77.00,KCXP 122235Z AUTO 26010G15KT 2 1/2SM TS HZ FEW075 25/09 A3006 RMK AO2 LTG DSNT SE AND S,M
RTS,2022-09-12 22:35,-119.8764,39.6682,1539.00,71.60,48.20,43.42,290.00,17.00,0.00,30.09,M,6.00,M,BKN,M,M,M,9000.00,M,M,M,HZ,M,M,M,M,M,M,71.60,KRTS 122235Z AUTO 29017KT 6SM HZ BKN090 22/09 A3009 RMK AO2,M
MEV,2022-09-12 22:35,-119.7500,38.9963,1441.42,77.00,48.20,36.22,280.00,11.00,0.00,30.04,M,2.00,M,BKN,BKN,M,M,7000.00,8000.00,M,M,TS HZ,M,M,M,M,M,M,77.00,KMEV 122235Z AUTO 28011KT 2SM TS HZ BKN070 BKN080 25/09 A3004 RMK AO2 LTG DSNT SE AND S VIS 1V4,M
BAM,2022-09-12 22:35,-116.8743,40.5990,1382.36,86.00,44.60,23.59,30.00,8.00,0.00,29.99,M,10.00,M,BKN,BKN,M,M,10000.00,12000.00,M,M,M,M,M,M,M,M,M,83.07,KBAM 122235Z AUTO 03008KT 350V110 10SM BKN100 BKN120 30/07 A2999 RMK AO1,M
HTH,2022-09-12 22:35,-118.6315,38.5448,1282.89,73.40,48.20,40.85,160.00,15.00,0.00,30.00,M,10.00,21.00,OVC,M,M,M,11000.00,M,M,M,M,M,M,M,M,M,M,73.40,KHTH 122235Z AUTO 16015G21KT 10SM OVC110 23/09 A3000 RMK A01,M
TMT,2022-09-12 22:35,-117.1971,39.4643,1749.34,M,M,M,0.00,0.00,0.00,30.12,M,10.00,M,SCT,M,M,M,12000.00,M,M,M,M,M,M,M,M,M,M,M,KTMT 122235Z AUTO 00000KT 10SM SCT120 A3012 RMK AO2 LTG DSNT SW AND W,M
VGT,2022-09-12 22:53,-115.1933,36.2111,667.00,87.00,58.00,37.25,M,3.00,0.00,29.91,1011.80,10.00,M,CLR,M,M,M,M,M,M,M,M,M,M,M,M,M,M,86.14,KVGT 122253Z VRB03KT 10SM CLR 31/14 A2991 RMK AO2 SLP118 T03060144,M
P68,2022-09-12 22:53,-116.0056,39.6014,1993.00,77.00,40.00,26.38,260.00,5.00,0.00,30.09,1010.80,M,M,M,M,M,M,M,M,M,M,M,M,M,M,M,M,M,77.00,KP68 122253Z AUTO 26005KT 25/04 A3009 RMK AO1 SLP108 T02500044,M
DRA,2022-09-12 22:53,-116.0278,36.6206,1009.00,82.00,59.00,45.66,110.00,13.00,0.00,29.99,1010.90,10.00,21.00,CLR,M,M,M,M,M,M,M,M,M,M,M,M,M,M,82.15,KDRA 122253Z AUTO 11013G21KT 10SM CLR 28/15 A2999 RMK AO2 SLP109 T02780150,M
ELY,2022-09-12 22:53,-114.8453,39.2950,1909.00,75.00,47.00,36.87,150.00,13.00,0.00,30.12,1011.40,10.00,M,FEW,FEW,BKN,M,4600.00,8000.00,10000.00,M,VCTS,M,M,M,M,M,M,75.00,KELY 122253Z AUTO 15013KT 10SM VCTS FEW046 FEW080 BKN100 24/08 A3012 RMK AO2 SLP114 T02390083,M
LOL,2022-09-12 22:53,-118.5701,40.0684,1192.43,90.00,40.00,17.34,210.00,11.00,0.00,29.91,1008.40,9.00,M,CLR,M,M,M,M,M,M,M,M,M,M,M,M,M,M,86.11,KLOL 122253Z AUTO 21011KT 9SM CLR 32/04 A2991 RMK AO2 SLP084 T03220044,M
RTS,2022-09-12 22:55,-119.8764,39.6682,1539.00,66.20,53.60,63.82,290.00,13.00,0.01,30.10,M,1.50,M,SCT,BKN,BKN,M,2800.00,3300.00,4200.00,M,-RA,M,M,M,M,M,M,66.20,KRTS 122255Z AUTO 29013KT 1 1/2SM -RA SCT028 BKN033 BKN042 19/12 A3010 RMK AO2 P0001,M
MEV,2022-09-12 22:55,-119.7500,38.9963,1441.42,77.00,46.40,33.85,280.00,10.00,0.00,30.04,M,2.50,M,BKN,OVC,M,M,7000.00,8000.00,M,M,HZ,M,M,M,M,M,M,77.00,KMEV 122255Z AUTO 28010KT 2 1/2SM HZ BKN070 OVC080 25/08 A3004 RMK AO2 VIS 1V5,M
BAM,2022-09-12 22:55,-116.8743,40.5990,1382.36,73.40,55.40,53.29,180.00,6.00,0.00,30.01,M,3.00,21.00,SCT,OVC,M,M,6500.00,10000.00,M,M,M,M,M,M,M,M,M,73.40,KBAM 122255Z AUTO 18006G21KT 3SM SCT065 OVC100 23/13 A3001 RMK AO1,M
HTH,2022-09-12 22:55,-118.6315,38.5448,1282.89,73.40,48.20,40.85,170.00,16.00,0.00,30.00,M,10.00,M,FEW,FEW,OVC,M,6000.00,7000.00,10000.00,M,M,M,M,M,M,M,M,73.40,KHTH 122255Z AUTO 17016KT 10SM FEW060 FEW070 OVC100 23/09 A3000 RMK A01,M
TMT,2022-09-12 22:55,-117.1971,39.4643,1749.34,M,M,M,80.00,3.00,0.00,30.11,M,10.00,M,SCT,M,M,M,12000.00,M,M,M,M,M,M,M,M,M,M,M,KTMT 122255Z AUTO 08003KT 10SM SCT120 A3011 RMK AO2,M
CXP,2022-09-12 22:55,-119.7326,39.1923,1431.00,75.20,46.40,35.94,310.00,8.00,0.00,30.05,M,4.00,M,BKN,M,M,M,7500.00,M,M,M,HZ,M,M,M,M,M,M,75.20,KCXP 122255Z AUTO 31008KT 4SM HZ BKN075 24/08 A3005 RMK AO2,M
BVU,2022-09-12 22:55,-114.8611,35.9475,671.00,84.20,60.80,45.34,220.00,3.00,0.00,29.92,M,M,M,M,M,M,M,M,M,M,M,M,M,M,M,M,M,M,84.43,KBVU 122255Z AUTO 22003KT 29/16 A2992 RMK AO2 TSNO,M
RNO,2022-09-12 22:55,-119.7711,39.4839,1341.00,77.00,49.00,37.19,290.00,16.00,0.00,30.02,1011.30,0.50,22.00,OVC,M,M,M,2100.00,M,M,M,FU,M,M,M,M,M,M,77.00,KRNO 122255Z 29016G22KT 1/2SM R16R/3500V4000FT FU OVC021 25/09 A3002 RMK AO2 LTG DSNT E SLP113 FU OVC021 T02500094,M
WMC,2022-09-12 22:56,-117.8072,40.9019,1315.00,83.00,48.00,29.64,50.00,13.00,0.00,29.94,1008.30,10.00,M,BKN,M,M,M,11000.00,M,M,M,M,M,M,M,M,M,M,81.11,KWMC 122256Z AUTO 05013KT 10SM BKN110 28/09 A2994 RMK AO2 SLP083 T02830089,M
TPH,2022-09-12 22:56,-117.0904,38.0505,1654.00,74.00,50.00,42.97,160.00,9.00,0.00,30.09,1012.70,10.00,15.00,SCT,M,M,M,8000.00,M,M,M,M,M,M,M,M,M,M,73.90,KTPH 122256Z AUTO 16009G15KT 10SM SCT080 23/10 A3009 RMK AO2 SLP127 T02330100,M
EKO,2022-09-12 22:56,-115.7860,40.8242,1367.00,84.00,46.00,26.52,240.00,11.00,0.04,30.02,1010.70,10.00,21.00,FEW,M,M,M,11000.00,M,M,M,M,M,M,M,M,M,M,81.69,KEKO 122256Z AUTO 24011G21KT 10SM FEW110 29/08 A3002 RMK AO2 RAB19E32 SLP107 P0004 T02890078,M
LSV,2022-09-12 22:56,-115.0343,36.2362,570.00,92.30,59.70,33.73,0.00,0.00,0.00,29.89,1009.70,10.00,M,FEW,M,M,M,18000.00,M,M,M,M,M,M,M,M,M,M,91.89,KLSV 122256Z AUTO 00000KT 10SM FEW180 34/15 A2989 RMK AO2 SLP097 T03350154 $,M
NFL,2022-09-12 22:56,-118.7010,39.4166,1199.00,87.00,42.00,20.70,300.00,9.00,0.00,29.93,1011.00,4.00,M,SCT,BKN,BKN,M,4000.00,6000.00,22000.00,M,HZ FU,M,M,M,M,M,M,83.79,KNFL 122256Z 30009KT 4SM HZ FU SCT040 BKN060 BKN220 31/06 A2993 RMK AO2 SLP110 FU SCT040 T03060056,M
HND,2022-09-12 22:56,-115.1344,35.9729,742.79,83.00,60.00,46.12,M,4.00,0.00,29.96,1013.50,10.00,M,CLR,M,M,M,M,M,M,M,M,M,M,M,M,M,M,83.13,KHND 122256Z VRB04KT 10SM CLR 28/16 A2996 RMK AO2 SLP135 T02830156,M
LAS,2022-09-12 22:56,-115.1634,36.0719,663.00,85.00,58.00,39.97,200.00,5.00,0.00,29.92,1010.80,10.00,M,FEW,FEW,BKN,M,7000.00,11000.00,20000.00,M,M,M,M,M,M,M,M,84.21,KLAS 122256Z 20005KT 10SM FEW070 FEW110 BKN200 29/14 A2992 RMK AO2 SLP108 CB DSNT N AND E-S-W T02940144,M
INS,2022-09-12 22:56,-115.6733,36.5872,955.00,76.60,58.30,53.17,250.00,7.00,T,29.99,1011.40,10.00,M,SCT,BKN,BKN,M,11000.00,14000.00,17000.00,M,M,M,M,M,M,M,M,76.60,KINS 122256Z AUTO 25007KT 10SM SCT110 BKN140 BKN170 25/15 A2999 RMK AO2 LTG DSNT E RAE01DZB01E14 SLP114 P0000 T02480146 $,M
HTH,2022-09-12 23:15,-118.6315,38.5448,1282.89,69.80,55.40,60.21,180.00,16.00,0.00,30.01,M,6.00,M,FEW,BKN,OVC,M,4900.00,7500.00,9500.00,M,HZ,M,M,M,M,M,M,69.80,KHTH 122315Z AUTO 18016KT 6SM HZ FEW049 BKN075 OVC095 21/13 A3001 RMK A01,M
RNO,2022-09-12 23:15,-119.7711,39.4839,1341.00,76.00,49.00,38.57,280.00,14.00,0.00,30.02,M,0.25,20.00,OVC,M,M,M,1800.00,M,M,M,FU,M,M,M,M,M,M,75.90,KRNO 122315Z 28014G20KT 1/4SM R16R/3500V4000FT FU OVC018 24/09 A3002 RMK AO2 LTG DSNT E FU OVC018 T02440094,M
TMT,2022-09-12 23:15,-117.1971,39.4643,1749.34,M,M,M,110.00,5.00,0.00,30.10,M,10.00,M,SCT,SCT,M,M,9000.00,12000.00,M,M,M,M,M,M,M,M,M,M,KTMT 122315Z AUTO 11005KT 10SM SCT090 SCT120 A3010 RMK AO2 LTG DSNT SW,M
MEV,2022-09-12 23:15,-119.7500,38.9963,1441.42,77.00,46.40,33.85,290.00,7.00,0.00,30.04,M,4.00,M,BKN,BKN,M,M,7500.00,8500.00,M,M,HZ,M,M,M,M,M,M,77.00,KMEV 122315Z AUTO 29007KT 4SM HZ BKN075 BKN085 25/08 A3004 RMK AO2,M
RTS,2022-09-12 23:15,-119.8764,39.6682,1539.00,64.40,53.60,67.95,300.00,15.00,0.00,30.10,M,2.50,M,SCT,BKN,M,M,2800.00,3500.00,M,M,-DZ,M,M,M,M,M,M,64.40,KRTS 122315Z AUTO 30015KT 2 1/2SM -DZ SCT028 BKN035 18/12 A3010 RMK AO2,M
CXP,2022-09-12 23:15,-119.7326,39.1923,1431.00,75.20,46.40,35.94,290.00,7.00,0.00,30.05,M,6.00,12.00,FEW,SCT,BKN,M,3700.00,7500.00,9000.00,M,HZ,M,M,M,M,M,M,75.20,KCXP 122315Z AUTO 29007G12KT 6SM HZ FEW037 SCT075 BKN090 24/08 A3005 RMK AO2,M
BVU,2022-09-12 23:15,-114.8611,35.9475,671.00,84.20,60.80,45.34,210.00,5.00,0.00,29.92,M,M,M,M,M,M,M,M,M,M,M,M,M,M,M,M,M,M,84.43,KBVU 122315Z AUTO 21005KT 29/16 A2992 RMK AO2 TSNO,M
BAM,2022-09-12 23:15,-116.8743,40.5990,1382.36,77.00,51.80,41.42,320.00,6.00,0.00,30.02,M,7.00,M,SCT,SCT,OVC,M,3900.00,5000.00,10000.00,M,M,M,M,M,M,M,M,77.00,KBAM 122315Z AUTO 32006KT 7SM SCT039 SCT050 OVC100 25/11 A3002 RMK AO1,M
ELY,2022-09-12 23:16,-114.8453,39.2950,1909.00,74.00,44.00,35.66,170.00,9.00,T,30.12,M,10.00,M,FEW,FEW,M,M,3800.00,10000.00,M,M,M,M,M,M,M,M,M,73.40,KELY 122316Z AUTO 17009KT 10SM FEW038 FEW100 23/07 A3012 RMK AO2 LTG DSNT N AND NW RAB04E16 P0000 T02330067,M
HTH,2022-09-12 23:35,-118.6315,38.5448,1282.89,68.00,57.20,68.35,150.00,19.00,0.00,30.01,M,7.00,M,SCT,SCT,OVC,M,6500.00,7500.00,9000.00,M,M,M,M,M,M,M,M,68.00,KHTH 122335Z AUTO 15019KT 7SM SCT065 SCT075 OVC090 20/14 A3001 RMK A01,M
BAM,2022-09-12 23:35,-116.8743,40.5990,1382.36,71.60,59.00,64.48,70.00,4.00,0.00,30.03,M,10.00,M,SCT,OVC,M,M,3700.00,9000.00,M,M,M,M,M,M,M,M,M,71.60,KBAM 122335Z AUTO 07004KT 10SM SCT037 OVC090 22/15 A3003 RMK AO1,M
TMT,2022-09-12 23:35,-117.1971,39.4643,1749.34,M,M,M,120.00,4.00,0.00,30.09,M,10.00,M,CLR,M,M,M,M,M,M,M,M,M,M,M,M,M,M,M,KTMT 122335Z AUTO 12004KT 10SM CLR A3009 RMK AO2,M
MEV,2022-09-12 23:35,-119.7500,38.9963,1441.42,77.00,46.40,33.85,290.00,8.00,0.00,30.04,M,10.00,14.00,FEW,FEW,SCT,M,8000.00,9000.00,11000.00,M,M,M,M,M,M,M,M,77.00,KMEV 122335Z AUTO 29008G14KT 10SM FEW080 FEW090 SCT110 25/08 A3004 RMK AO2,M
BVU,2022-09-12 23:35,-114.8611,35.9475,671.00,84.20,60.80,45.34,0.00,0.00,0.00,29.92,M,M,M,M,M,M,M,M,M,M,M,M,M,M,M,M,M,M,84.43,KBVU 122335Z AUTO 00000KT 29/16 A2992 RMK AO2 TSNO,M
CXP,2022-09-12 23:35,-119.7326,39.1923,1431.00,75.20,48.20,38.46,320.00,6.00,0.00,30.05,M,6.00,M,FEW,FEW,SCT,M,6000.00,7000.00,8000.00,M,HZ,M,M,M,M,M,M,75.20,KCXP 122335Z AUTO 32006KT 6SM HZ FEW060 FEW070 SCT080 24/09 A3005 RMK AO2,M
RTS,2022-09-12 23:35,-119.8764,39.6682,1539.00,62.60,51.80,67.75,300.00,16.00,0.00,30.10,M,4.00,M,FEW,BKN,BKN,M,3700.00,7500.00,8500.00,M,-RA,M,M,M,M,M,M,62.60,KRTS 122335Z AUTO 30016KT 4SM -RA FEW037 BKN075 BKN085 17/11 A3010 RMK AO2,M
RNO,2022-09-12 23:38,-119.7711,39.4839,1341.00,75.00,49.00,39.75,290.00,15.00,0.00,30.02,M,0.50,22.00,OVC,M,M,M,2000.00,M,M,M,FU,M,M,M,M,M,M,75.00,KRNO 122338Z 29015G22KT 1/2SM R16R/4000VP6000FT FU OVC020 24/09 A3002 RMK AO2 TWR VIS 3/4 LTG DSNT E FU OVC020 T02390094,M
RNO,2022-09-12 23:44,-119.7711,39.4839,1341.00,75.00,49.00,39.75,300.00,16.00,0.00,30.02,M,1.00,M,OVC,M,M,M,2000.00,M,M,M,FU,M,M,M,M,M,M,75.00,KRNO 122344Z 30016KT 1SM R16R/5500VP6000FT FU OVC020 24/09 A3002 RMK AO2 FU OVC020 T02390094,M
NFL,2022-09-12 23:46,-118.7010,39.4166,1199.00,80.00,47.00,31.15,150.00,8.00,T,29.95,M,4.00,M,SCT,BKN,OVC,M,4000.00,8000.00,12000.00,M,-TSRA,M,M,M,M,M,M,79.33,KNFL 122346Z 15008KT 4SM -TSRA SCT040 BKN080CB OVC120 27/08 A2995 RMK AO2 RAB40 TSB40 OCNL LTGIC OHD TS OHD MOV N FU SCT040 P0000 T02670083,M
P68,2022-09-12 23:53,-116.0056,39.6014,1993.00,77.00,40.00,26.38,0.00,0.00,0.00,30.07,1010.30,M,M,M,M,M,M,M,M,M,M,M,M,M,M,M,M,M,77.00,KP68 122353Z AUTO 00000KT 25/04 A3007 RMK AO1 SLP103 T02500044 10283 20244 58018,M
DRA,2022-09-12 23:53,-116.0278,36.6206,1009.00,78.00,56.00,46.40,130.00,11.00,T,29.96,1010.20,10.00,M,FEW,BKN,M,M,9000.00,11000.00,M,M,M,M,M,M,M,M,M,78.10,KDRA 122353Z AUTO 13011KT 10SM FEW090 BKN110 26/13 A2996 RMK AO2 RAB16E33 SLP102 P0000 60000 T02560133 10294 20233 56024,M
LOL,2022-09-12 23:53,-118.5701,40.0684,1192.43,87.00,40.00,19.01,210.00,9.00,0.00,29.90,1008.10,10.00,M,CLR,M,M,M,M,M,M,M,M,M,M,M,M,M,M,83.68,KLOL 122353Z AUTO 21009KT 10SM CLR 31/04 A2990 RMK AO2 LTG DSNT E AND SE SLP081 T03060044 10328 20278 56019,M
VGT,2022-09-12 23:53,-115.1933,36.2111,667.00,86.00,57.00,37.35,190.00,3.00,0.00,29.89,1011.40,10.00,M,CLR,M,M,M,M,M,M,M,M,M,M,M,M,M,M,84.92,KVGT 122353Z 19003KT 10SM CLR 30/14 A2989 RMK AO2 SLP114 T03000139 10311 20256 56026,M
ELY,2022-09-12 23:53,-114.8453,39.2950,1909.00,74.00,45.00,35.60,150.00,6.00,T,30.11,1011.10,10.00,M,CLR,M,M,M,M,M,M,M,M,M,M,M,M,M,M,73.90,KELY 122353Z AUTO 15006KT 10SM CLR 23/07 A3011 RMK AO2 LTG DSNT N AND NW RAB04E16 SLP111 P0000 60000 T02330072 10272 20233 56015,M
CXP,2022-09-12 23:55,-119.7326,39.1923,1431.00,75.20,46.40,35.94,0.00,0.00,0.00,30.05,M,10.00,M,BKN,BKN,M,M,7500.00,9000.00,M,M,M,M,M,M,M,M,M,75.20,KCXP 122355Z AUTO 00000KT 10SM BKN075 BKN090 24/08 A3005 RMK AO2 LTG DSNT NE-S,M
RNO,2022-09-12 23:55,-119.7711,39.4839,1341.00,75.00,49.00,39.75,290.00,13.00,0.00,30.02,1011.60,1.00,M,OVC,M,M,M,2000.00,M,M,M,FU,M,M,M,M,M,M,75.00,KRNO 122355Z 29013KT 1SM R16R/P6000FT FU OVC020 24/09 A3002 RMK AO2 SFC VIS 1 1/4 SLP116 FU OVC020 60000 T02390094 10289 20239 56005,M
TMT,2022-09-12 23:55,-117.1971,39.4643,1749.34,M,M,M,120.00,5.00,0.00,30.09,M,10.00,M,SCT,M,M,M,9000.00,M,M,M,M,M,M,M,M,M,M,M,KTMT 122355Z AUTO 12005KT 10SM SCT090 A3009 RMK AO2 LTG DSNT SE AND SW,M
BVU,2022-09-12 23:55,-114.8611,35.9475,671.00,84.20,60.80,45.34,0.00,0.00,0.00,29.91,M,M,M,M,M,M,M,M,M,M,M,M,M,M,M,M,M,M,84.43,KBVU 122355Z AUTO 00000KT 29/16 A2991 RMK AO2 TSNO,M
RTS,2022-09-12 23:55,-119.8764,39.6682,1539.00,64.40,51.80,63.60,290.00,14.00,0.01,30.09,M,4.00,M,FEW,OVC,M,M,6000.00,8500.00,M,M,HZ,M,M,M,M,M,M,64.40,KRTS 122355Z AUTO 29014KT 4SM HZ FEW060 OVC085 18/11 A3009 RMK AO2 P0001,M
MEV,2022-09-12 23:55,-119.7500,38.9963,1441.42,75.20,48.20,38.46,280.00,9.00,0.00,30.04,M,10.00,M,FEW,SCT,M,M,9000.00,11000.00,M,M,M,M,M,M,M,M,M,75.20,KMEV 122355Z AUTO 28009KT 10SM FEW090 SCT110 24/09 A3004 RMK AO2 LTG DSNT N AND S,M
BAM,2022-09-12 23:55,-116.8743,40.5990,1382.36,71.60,53.60,53.03,190.00,14.00,0.00,30.03,M,10.00,22.00,BKN,BKN,M,M,9000.00,12000.00,M,M,M,M,M,M,M,M,M,71.60,KBAM 122355Z AUTO 19014G22KT 10SM BKN090 BKN120 22/12 A3003 RMK AO1,M
HTH,2022-09-12 23:55,-118.6315,38.5448,1282.89,64.40,57.20,77.45,210.00,14.00,0.00,30.03,M,8.00,25.00,FEW,SCT,BKN,M,4100.00,6000.00,9500.00,M,M,M,M,M,M,M,M,64.40,KHTH 122355Z AUTO 21014G25KT 8SM FEW041 SCT060 BKN095 18/14 A3003 RMK A01,M
HND,2022-09-12 23:56,-115.1344,35.9729,742.79,83.00,60.00,46.12,170.00,5.00,0.00,29.95,1013.30,10.00,M,FEW,SCT,M,M,5500.00,9500.00,M,M,M,M,M,M,M,M,M,83.13,KHND 122356Z 17005KT 10SM FEW055 SCT095 28/16 A2995 RMK AO2 SLP133 T02830156 10294 20244 56024,M
TPH,2022-09-12 23:56,-117.0904,38.0505,1654.00,74.00,50.00,42.97,200.00,7.00,0.00,30.08,1012.00,10.00,16.00,FEW,BKN,M,M,5000.00,11000.00,M,M,M,M,M,M,M,M,M,73.90,KTPH 122356Z AUTO 20007G16KT 10SM FEW050 BKN110 23/10 A3008 RMK AO2 SLP120 60002 T02330100 10239 20161 56022,M
LAS,2022-09-12 23:56,-115.1634,36.0719,663.00,85.00,57.00,38.69,160.00,4.00,0.00,29.91,1010.40,10.00,M,FEW,SCT,SCT,M,10000.00,15000.00,20000.00,M,M,M,M,M,M,M,M,83.99,KLAS 122356Z 16004KT 10SM FEW100 SCT150 SCT200 29/14 A2991 RMK AO2 SLP104 CB DSNT SE AND SW-W T02940139 10300 20250 56025,M
WMC,2022-09-12 23:56,-117.8072,40.9019,1315.00,79.00,49.00,34.81,80.00,11.00,T,29.93,1008.40,10.00,17.00,BKN,M,M,M,11000.00,M,M,M,M,M,M,M,M,M,M,79.00,KWMC 122356Z AUTO 08011G17KT 10SM BKN110 26/09 A2993 RMK AO2 LTG DSNT SE RAB44E54 SLP084 P0000 60009 T02610094 10317 20222 56018,M
INS,2022-09-12 23:56,-115.6733,36.5872,955.00,76.80,57.20,50.77,290.00,6.00,0.00,29.97,1010.70,10.00,M,BKN,BKN,M,M,14000.00,18000.00,M,M,M,M,M,M,M,M,M,76.80,KINS 122356Z AUTO 29006KT 10SM BKN140 BKN180 25/14 A2997 RMK AO2 SLP107 60001 T02490140 10255 20216 57024 $,M
LSV,2022-09-12 23:56,-115.0343,36.2362,570.00,92.70,57.60,30.90,160.00,4.00,0.00,29.87,1009.00,10.00,M,CLR,M,M,M,M,M,M,M,M,M,M,M,M,M,M,91.53,KLSV 122356Z AUTO 16004KT 10SM CLR 34/14 A2987 RMK AO2 SLP090 T03370142 10344 20263 57026 $,M
NFL,2022-09-12 23:56,-118.7010,39.4166,1199.00,81.00,47.00,30.24,170.00,9.00,T,29.95,1011.50,5.00,M,SCT,BKN,OVC,M,4000.00,8000.00,12000.00,M,-TSRA,M,M,M,M,M,M,79.83,KNFL 122356Z 17009KT 130V200 5SM -TSRA SCT040 BKN080CB OVC120 27/08 A2995 RMK AO2 RAB40 TSB40 SLP115 OCNL LTGIC OHD TS OHD MOV N FU SCT040 P0000 60000 T02720083 10317 20244 55006,M
EKO,2022-09-12 23:56,-115.7860,40.8242,1367.00,82.00,39.00,21.62,230.00,16.00,0.00,30.01,1010.40,10.00,M,CLR,M,M,M,M,M,M,M,M,M,M,M,M,M,M,79.94,KEKO 122356Z AUTO 23016KT 10SM CLR 28/04 A3001 RMK AO2 SLP104 60004 T02780039 10306 20244 56010,M
