station,valid,lon,lat,elevation,tmpf,dwpf,relh,drct,sknt,p01i,alti,mslp,vsby,gust,skyc1,skyc2,skyc3,skyc4,skyl1,skyl2,skyl3,skyl4,wxcodes,ice_accretion_1hr,ice_accretion_3hr,ice_accretion_6hr,peak_wind_gust,peak_wind_drct,peak_wind_time,feel,metar,snowdepth
TPH,2024-07-24 00:04,-117.0904,38.0505,1654.00,96.00,43.00,16.22,290.00,13.00,0.00,30.15,M,10.00,24.00,CLR,M,M,M,M,M,M,M,M,M,M,M,M,M,M,91.83,KTPH 240004Z AUTO 29013G24KT 260V350 10SM CLR 36/06 A3015 RMK AO2 T03560061,M
05U,2024-07-24 00:10,-116.0051,39.6042,1811.23,93.20,41.00,16.37,350.00,5.00,0.00,30.22,M,10.00,12.00,CLR,M,M,M,M,M,M,M,M,M,M,M,M,M,M,89.03,K05U 240010Z AUTO 35005G12KT 10SM CLR 34/05 A3022 RMK A01,M
BVU,2024-07-24 00:15,-114.8611,35.9475,671.00,105.80,50.00,15.73,270.00,15.00,0.00,29.86,M,10.00,M,CLR,M,M,M,M,M,M,M,M,M,M,M,M,M,M,102.98,KBVU 240015Z AUTO 27015KT 10SM CLR 41/10 A2986 RMK AO2,M
CXP,2024-07-24 00:15,-119.7326,39.1923,1431.00,96.80,44.60,16.83,260.00,8.00,0.00,30.15,M,9.00,M,CLR,M,M,M,M,M,M,M,M,M,M,M,M,M,M,92.79,KCXP 240015Z AUTO 26008KT 230V290 9SM CLR 36/07 A3015 RMK AO2,M
RTS,2024-07-24 00:15,-119.8764,39.6682,1539.00,93.20,48.20,21.54,20.00,12.00,0.00,30.17,M,10.00,M,CLR,M,M,M,M,M,M,M,M,M,M,M,M,M,M,89.80,KRTS 240015Z AUTO 02012KT 10SM CLR 34/09 A3017 RMK AO2,M
BAM,2024-07-24 00:15,-116.8743,40.5990,1382.36,100.40,42.80,14.08,360.00,4.00,0.00,30.08,M,10.00,M,CLR,M,M,M,M,M,M,M,M,M,M,M,M,M,M,96.04,KBAM 240015Z AUTO 36004KT 10SM CLR 38/06 A3008 RMK AO1,M
HTH,2024-07-24 00:15,-118.6315,38.5448,1282.89,93.20,42.80,17.55,260.00,12.00,0.00,30.09,M,10.00,20.00,CLR,M,M,M,M,M,M,M,M,M,M,M,M,M,M,89.17,KHTH 240015Z AUTO 26012G20KT 10SM CLR 34/06 A3009 RMK A01,M
10U,2024-07-24 00:15,-116.1876,41.9532,1637.00,93.20,35.60,13.25,0.00,0.00,0.00,30.14,M,10.00,M,CLR,M,M,M,M,M,M,M,M,M,M,M,M,M,M,88.76,K10U 240015Z AUTO 00000KT 10SM CLR 34/02 A3014 RMK AO2,M
TMT,2024-07-24 00:15,-117.1971,39.4643,1749.34,86.40,50.00,28.54,60.00,7.00,0.00,30.21,M,10.00,M,CLR,M,M,M,M,M,M,M,M,M,M,M,M,M,M,83.94,KTMT 240015Z AUTO 06007KT 10SM CLR 30/10 A3021 RMK AO2 T03020101,M
NFL,2024-07-24 00:18,-118.7010,39.4166,1199.00,100.00,46.00,16.10,0.00,0.00,0.00,30.03,M,10.00,M,SCT,BKN,M,M,8000.00,14000.00,M,M,VCTS,M,M,M,M,M,M,96.16,KNFL 240018Z 00000KT 10SM VCTS SCT080CB BKN140 38/08 A3003 RMK AO2 OCNL LTGICCG VC SW MOV ENE TS VC SW MOV ENE TCU DSNT NE-SE T03780078,M
05U,2024-07-24 00:30,-116.0051,39.6042,1811.23,91.40,42.80,18.56,360.00,9.00,0.00,30.23,M,10.00,M,CLR,M,M,M,M,M,M,M,M,M,M,M,M,M,M,87.52,K05U 240030Z AUTO 36009KT 10SM CLR 33/06 A3023 RMK A01,M
BVU,2024-07-24 00:35,-114.8611,35.9475,671.00,105.80,50.00,15.73,270.00,10.00,0.00,29.86,M,10.00,M,CLR,M,M,M,M,M,M,M,M,M,M,M,M,M,M,102.98,KBVU 240035Z AUTO 27010KT 10SM CLR 41/10 A2986 RMK AO2,M
CXP,2024-07-24 00:35,-119.7326,39.1923,1431.00,96.80,44.60,16.83,270.00,8.00,0.00,30.14,M,10.00,13.00,CLR,M,M,M,M,M,M,M,M,M,M,M,M,M,M,92.79,KCXP 240035Z AUTO 27008G13KT 10SM CLR 36/07 A3014 RMK AO2 LTG DSNT NE-S,M
RTS,2024-07-24 00:35,-119.8764,39.6682,1539.00,91.40,46.40,21.29,30.00,8.00,0.00,30.17,M,10.00,14.00,CLR,M,M,M,M,M,M,M,M,M,M,M,M,M,M,87.86,KRTS 240035Z AUTO 03008G14KT 10SM CLR 33/08 A3017 RMK AO2,M
MEV,2024-07-24 00:35,-119.7500,38.9963,1441.42,91.40,48.20,22.78,110.00,15.00,0.00,30.14,M,10.00,22.00,M,M,M,M,M,M,M,M,M,M,M,M,M,M,M,88.09,KMEV 240035Z AUTO 11015G22KT 10SM 33/09 A3014 RMK AO2 LTG DSNT SE,M
HTH,2024-07-24 00:35,-118.6315,38.5448,1282.89,95.00,42.80,16.60,280.00,15.00,0.00,30.09,M,10.00,M,CLR,M,M,M,M,M,M,M,M,M,M,M,M,M,M,90.86,KHTH 240035Z AUTO 28015KT 10SM CLR 35/06 A3009 RMK A01,M
10U,2024-07-24 00:35,-116.1876,41.9532,1637.00,93.20,37.40,14.23,0.00,0.00,0.00,30.14,M,10.00,M,CLR,M,M,M,M,M,M,M,M,M,M,M,M,M,M,88.83,K10U 240035Z AUTO 00000KT 10SM CLR 34/03 A3014 RMK AO2,M
BAM,2024-07-24 00:35,-116.8743,40.5990,1382.36,98.60,44.60,15.93,340.00,6.00,0.00,30.08,M,10.00,M,CLR,M,M,M,M,M,M,M,M,M,M,M,M,M,M,94.55,KBAM 240035Z AUTO 34006KT 10SM CLR 37/07 A3008 RMK AO1,M
TMT,2024-07-24 00:35,-117.1971,39.4643,1749.34,85.00,51.00,30.97,50.00,5.00,0.00,30.22,M,10.00,M,SCT,M,M,M,12000.00,M,M,M,M,M,M,M,M,M,M,82.97,KTMT 240035Z AUTO 05005KT 10SM SCT120 30/11 A3022 RMK AO2 T02950105,M
LSV,2024-07-24 00:37,-115.0343,36.2362,570.00,109.40,48.20,13.24,200.00,12.00,0.00,29.79,1005.30,10.00,18.00,CLR,M,M,M,M,M,M,M,M,M,M,M,M,M,M,105.97,KLSV 240037Z AUTO 20012G18KT 10SM CLR 43/09 A2979 RMK AO2 WSHFT 24 SLP053 $,M
TPH,2024-07-24 00:38,-117.0904,38.0505,1654.00,90.00,50.00,25.46,340.00,18.00,0.00,30.17,M,10.00,28.00,BKN,M,M,M,12000.00,M,M,M,VCTS,M,M,M,28.00,350.00,2024-07-24 00:35,87.06,KTPH 240038Z AUTO 34018G28KT 10SM VCTS BKN120 32/10 A3017 RMK AO2 PK WND 35028/0035 LTG DSNT NW T03220100,M
05U,2024-07-24 00:50,-116.0051,39.6042,1811.23,89.60,42.80,19.64,0.00,0.00,0.00,30.23,M,10.00,11.00,CLR,M,M,M,M,M,M,M,M,M,M,M,M,M,M,85.93,K05U 240050Z AUTO 00000G11KT 10SM CLR 32/06 A3023 RMK A01,M
P68,2024-07-24 00:53,-116.0056,39.6014,1993.00,91.00,44.00,19.68,330.00,10.00,0.00,30.20,1013.80,M,M,M,M,M,M,M,M,M,M,M,M,M,M,M,M,M,87.26,KP68 240053Z AUTO 33010KT 33/07 A3020 RMK AO1 SLP138 T03280067,M
DRA,2024-07-24 00:53,-116.0278,36.6206,1009.00,105.00,49.00,15.52,270.00,11.00,0.00,29.96,1008.20,10.00,21.00,CLR,M,M,M,M,M,M,M,M,M,M,M,M,M,M,101.87,KDRA 240053Z AUTO 27011G21KT 10SM CLR 41/09 A2996 RMK AO2 SLP082 T04060094,M
ELY,2024-07-24 00:53,-114.8453,39.2950,1909.00,86.00,45.00,23.95,210.00,4.00,0.00,30.24,1013.60,10.00,M,BKN,M,M,M,11000.00,M,M,M,M,M,M,M,M,M,M,83.10,KELY 240053Z AUTO 21004KT 10SM BKN110 30/07 A3024 RMK AO2 SLP136 T03000072 $,M
VGT,2024-07-24 00:53,-115.1933,36.2111,667.00,110.00,53.00,15.54,190.00,11.00,0.00,29.85,1008.90,10.00,17.00,CLR,M,M,M,M,M,M,M,M,M,M,M,M,M,M,108.35,KVGT 240053Z 19011G17KT 10SM CLR 43/12 A2985 RMK AO2 LTG DSNT N SLP089 T04330117,M
LOL,2024-07-24 00:53,-118.5701,40.0684,1192.43,100.00,47.00,16.72,200.00,10.00,0.00,30.02,1011.50,10.00,M,CLR,M,M,M,M,M,M,M,M,M,M,M,M,M,M,96.35,KLOL 240053Z AUTO 20010KT 10SM CLR 38/08 A3002 RMK AO2 LTG DSNT S SLP115 T03780083,M
TPH,2024-07-24 00:53,-117.0904,38.0505,1654.00,87.80,48.20,25.52,340.00,19.00,T,30.18,M,10.00,30.00,BKN,M,M,M,12000.00,M,M,M,-RA,M,M,M,30.00,330.00,2024-07-24 00:53,84.87,KTPH 240053Z AUTO 34019G30KT 10SM -RA BKN120 31/09 A3018 RMK AO2 PK WND 33030/0053 RAB44 P0000,M
NFL,2024-07-24 00:54,-118.7010,39.4166,1199.00,92.00,50.00,23.92,240.00,17.00,0.00,30.04,1014.10,10.00,28.00,SCT,BKN,M,M,8000.00,14000.00,M,M,VCTS,M,M,M,33.00,230.00,2024-07-24 00:36,88.94,KNFL 240054Z 24017G28KT 10SM VCTS SCT080CB BKN140 33/10 A3004 RMK PK WND 23033/0036 SLP141 OCNL LTGICCG VC SW MOV ENE TS VC SW MOV ENE TCU DSNT NE-SE T03330100,M
BVU,2024-07-24 00:55,-114.8611,35.9475,671.00,105.80,50.00,15.73,220.00,9.00,0.00,29.86,M,10.00,M,CLR,M,M,M,M,M,M,M,M,M,M,M,M,M,M,102.98,KBVU 240055Z AUTO 22009KT 10SM CLR 41/10 A2986 RMK AO2,M
CXP,2024-07-24 00:55,-119.7326,39.1923,1431.00,95.00,44.60,17.78,190.00,6.00,0.00,30.15,M,10.00,M,CLR,M,M,M,M,M,M,M,M,M,M,M,M,M,M,91.06,KCXP 240055Z AUTO 19006KT 10SM CLR 35/07 A3015 RMK AO2 LTG DSNT N-SE,M
INS,2024-07-24 00:55,-115.6733,36.5872,955.00,103.00,44.60,13.95,180.00,8.00,0.00,29.94,1007.40,10.00,M,BKN,M,M,M,21000.00,M,M,M,M,M,M,M,M,M,M,98.85,KINS 240055Z AUTO 18008KT 10SM BKN210 40/07 A2994 RMK AO2 SLP074 T03950070 $,M
RNO,2024-07-24 00:55,-119.7711,39.4839,1341.00,97.00,49.00,19.74,360.00,6.00,0.00,30.10,1012.40,10.00,M,FEW,SCT,M,M,10000.00,17000.00,M,M,M,M,M,M,M,M,M,93.71,KRNO 240055Z 36006KT 10SM FEW100 SCT170 36/09 A3010 RMK AO2 SLP124 FU ALF DSNT NW T03610094,M
LSV,2024-07-24 00:55,-115.0343,36.2362,570.00,109.20,45.30,11.93,220.00,11.00,0.00,29.80,1005.60,10.00,M,CLR,M,M,M,M,M,M,M,M,M,M,M,M,M,M,104.81,KLSV 240055Z AUTO 22011KT 10SM CLR 43/07 A2980 RMK AO2 SLP056 T04290074 $,M
RTS,2024-07-24 00:55,-119.8764,39.6682,1539.00,93.20,46.40,20.13,0.00,0.00,0.00,30.17,M,10.00,13.00,FEW,M,M,M,10000.00,M,M,M,M,M,M,M,M,M,M,89.55,KRTS 240055Z AUTO 00000G13KT 10SM FEW100 34/08 A3017 RMK AO2,M
MEV,2024-07-24 00:55,-119.7500,38.9963,1441.42,89.60,48.20,24.11,140.00,18.00,0.00,30.15,M,9.00,M,CLR,M,M,M,M,M,M,M,M,M,M,M,M,M,M,86.44,KMEV 240055Z AUTO 14018KT 9SM CLR 32/09 A3015 RMK AO2 LTG DSNT SE AND S,M
BAM,2024-07-24 00:55,-116.8743,40.5990,1382.36,98.60,42.80,14.87,340.00,5.00,0.00,30.08,M,10.00,M,CLR,M,M,M,M,M,M,M,M,M,M,M,M,M,M,94.30,KBAM 240055Z AUTO 34005KT 10SM CLR 37/06 A3008 RMK AO1,M
HTH,2024-07-24 00:55,-118.6315,38.5448,1282.89,95.00,41.00,15.49,260.00,15.00,0.00,30.09,M,10.00,21.00,CLR,M,M,M,M,M,M,M,M,M,M,M,M,M,M,90.70,KHTH 240055Z AUTO 26015G21KT 10SM CLR 35/05 A3009 RMK A01,M
10U,2024-07-24 00:55,-116.1876,41.9532,1637.00,91.40,37.40,15.05,120.00,5.00,0.00,30.14,M,10.00,M,CLR,M,M,M,M,M,M,M,M,M,M,M,M,M,M,87.23,K10U 240055Z AUTO 12005KT 10SM CLR 33/03 A3014 RMK AO2,M
TMT,2024-07-24 00:55,-117.1971,39.4643,1749.34,86.50,46.00,24.48,10.00,11.00,0.00,30.22,M,10.00,17.00,SCT,M,M,M,12000.00,M,M,M,M,M,M,M,M,M,M,83.58,KTMT 240055Z AUTO 01011G17KT 10SM SCT120 30/08 A3022 RMK AO2 T03030078,M
EKO,2024-07-24 00:56,-115.7860,40.8242,1367.00,99.00,41.00,13.70,360.00,6.00,0.00,30.11,1012.30,10.00,M,CLR,M,M,M,M,M,M,M,M,M,M,M,M,M,M,94.47,KEKO 240056Z AUTO 36006KT 10SM CLR 37/05 A3011 RMK AO2 SLP123 T03720050,M
WMC,2024-07-24 00:56,-117.8072,40.9019,1315.00,99.00,40.00,13.18,240.00,6.00,0.00,30.04,1011.60,10.00,M,CLR,M,M,M,M,M,M,M,M,M,M,M,M,M,M,94.36,KWMC 240056Z AUTO 24006KT 10SM CLR 37/04 A3004 RMK AO2 SLP116 T03720044,M
HND,2024-07-24 00:56,-115.1344,35.9729,742.79,107.00,56.00,18.93,230.00,12.00,0.00,29.92,1010.70,10.00,18.00,CLR,M,M,M,M,M,M,M,M,M,M,M,M,M,M,106.54,KHND 240056Z 23012G18KT 10SM CLR 42/13 A2992 RMK AO2 SLP107 T04170133,M
TPH,2024-07-24 00:56,-117.0904,38.0505,1654.00,87.00,51.00,29.06,330.00,21.00,T,30.18,1013.80,10.00,30.00,BKN,M,M,M,12000.00,M,M,M,-RA,M,M,M,30.00,330.00,2024-07-24 00:53,84.58,KTPH 240056Z AUTO 33021G30KT 10SM -RA BKN120 31/11 A3018 RMK AO2 PK WND 33030/0053 RAB44 SLP138 P0000 T03060106,M
LAS,2024-07-24 00:56,-115.1634,36.0719,663.00,108.00,53.00,16.48,210.00,8.00,0.00,29.86,1004.30,10.00,18.00,FEW,SCT,M,M,11000.00,22000.00,M,M,M,M,M,M,M,M,M,106.30,KLAS 240056Z 21008G18KT 10SM FEW110 SCT220 42/12 A2986 RMK AO2 PRESFR SLP043 CB DSNT E-SE T04220117 $,M
LSV,2024-07-24 00:58,-115.0343,36.2362,570.00,109.40,44.60,11.55,240.00,12.00,0.00,29.80,1005.60,10.00,M,CLR,M,M,M,M,M,M,M,M,M,M,M,M,M,M,104.78,KLSV 240058Z AUTO 24012KT 10SM CLR 43/07 A2980 RMK AO2 WSHFT 49 SLP056 $,M
BVU,2024-07-24 01:15,-114.8611,35.9475,671.00,105.80,50.00,15.73,230.00,4.00,0.00,29.86,M,10.00,M,CLR,M,M,M,M,M,M,M,M,M,M,M,M,M,M,102.98,KBVU 240115Z AUTO 23004KT 10SM CLR 41/10 A2986 RMK AO2 LTG DSNT E AND SE,M
CXP,2024-07-24 01:15,-119.7326,39.1923,1431.00,93.20,46.40,20.13,50.00,16.00,0.00,30.17,M,10.00,21.00,CLR,M,M,M,M,M,M,M,M,M,M,M,M,M,M,89.55,KCXP 240115Z AUTO 05016G21KT 10SM CLR 34/08 A3017 RMK AO2 LTG DSNT NE-S,M
RTS,2024-07-24 01:15,-119.8764,39.6682,1539.00,95.00,42.80,16.60,300.00,11.00,0.00,30.17,M,10.00,18.00,CLR,M,M,M,M,M,M,M,M,M,M,M,M,M,M,90.86,KRTS 240115Z AUTO 30011G18KT 10SM CLR 35/06 A3017 RMK AO2,M
05U,2024-07-24 01:15,-116.0051,39.6042,1811.23,89.60,42.80,19.64,0.00,0.00,0.00,30.24,M,10.00,M,CLR,M,M,M,M,M,M,M,M,M,M,M,M,M,M,85.93,K05U 240115Z AUTO 00000KT 10SM CLR 32/06 A3024 RMK A01,M
MEV,2024-07-24 01:15,-119.7500,38.9963,1441.42,84.20,50.00,30.62,140.00,22.00,0.00,30.17,M,10.00,29.00,CLR,M,M,M,M,M,M,M,M,M,M,M,M,M,M,82.24,KMEV 240115Z AUTO 14022G29KT 10SM CLR 29/10 A3017 RMK AO2 LTG DSNT N AND SE,M
HTH,2024-07-24 01:15,-118.6315,38.5448,1282.89,93.20,42.80,17.55,260.00,17.00,0.00,30.09,M,10.00,22.00,CLR,M,M,M,M,M,M,M,M,M,M,M,M,M,M,89.17,KHTH 240115Z AUTO 26017G22KT 10SM CLR 34/06 A3009 RMK A01,M
10U,2024-07-24 01:15,-116.1876,41.9532,1637.00,93.20,41.00,16.37,120.00,9.00,0.00,30.15,M,10.00,M,CLR,M,M,M,M,M,M,M,M,M,M,M,M,M,M,89.03,K10U 240115Z AUTO 12009KT 10SM CLR 34/05 A3015 RMK AO2,M
BAM,2024-07-24 01:15,-116.8743,40.5990,1382.36,98.60,42.80,14.87,350.00,5.00,0.00,30.08,M,10.00,M,CLR,M,M,M,M,M,M,M,M,M,M,M,M,M,M,94.30,KBAM 240115Z AUTO 35005KT 10SM CLR 37/06 A3008 RMK AO1,M
TMT,2024-07-24 01:15,-117.1971,39.4643,1749.34,86.00,44.80,23.77,20.00,8.00,0.00,30.22,M,10.00,18.00,SCT,M,M,M,12000.00,M,M,M,M,M,M,M,M,M,M,83.09,KTMT 240115Z AUTO 02008G18KT 10SM SCT120 30/07 A3022 RMK AO2 T03000071,M
BVU,2024-07-24 01:35,-114.8611,35.9475,671.00,105.80,50.00,15.73,160.00,3.00,0.00,29.87,M,10.00,M,CLR,M,M,M,M,M,M,M,M,M,M,M,M,M,M,102.98,KBVU 240135Z AUTO 16003KT 10SM CLR 41/10 A2987 RMK AO2,M
CXP,2024-07-24 01:35,-119.7326,39.1923,1431.00,89.60,48.20,24.11,M,4.00,0.00,30.21,M,10.00,24.00,SCT,M,M,M,11000.00,M,M,M,VCTS,M,M,M,M,M,M,86.44,KCXP 240135Z AUTO VRB04G24KT 10SM VCTS SCT110 32/09 A3021 RMK AO2 LTG DSNT SE AND S,M
RTS,2024-07-24 01:35,-119.8764,39.6682,1539.00,93.20,41.00,16.37,280.00,14.00,0.00,30.18,M,10.00,M,CLR,M,M,M,M,M,M,M,M,M,M,M,M,M,M,89.03,KRTS 240135Z AUTO 28014KT 10SM CLR 34/05 A3018 RMK AO2,M
05U,2024-07-24 01:35,-116.0051,39.6042,1811.23,89.60,42.80,19.64,0.00,0.00,0.00,30.24,M,10.00,M,CLR,M,M,M,M,M,M,M,M,M,M,M,M,M,M,85.93,K05U 240135Z AUTO 00000KT 10SM CLR 32/06 A3024 RMK A01,M
MEV,2024-07-24 01:35,-119.7500,38.9963,1441.42,84.20,53.60,34.97,180.00,19.00,0.00,30.20,M,10.00,M,CLR,M,M,M,M,M,M,M,VCTS,M,M,M,M,M,M,82.76,KMEV 240135Z AUTO 18019KT 10SM VCTS CLR 29/12 A3020 RMK AO2 LTG DSNT SE AND S,M
HTH,2024-07-24 01:35,-118.6315,38.5448,1282.89,91.40,41.00,17.32,260.00,27.00,0.00,30.09,M,10.00,M,CLR,M,M,M,M,M,M,M,M,M,M,M,M,M,M,87.40,KHTH 240135Z AUTO 26027KT 10SM CLR 33/05 A3009 RMK A01,M
10U,2024-07-24 01:35,-116.1876,41.9532,1637.00,89.60,46.40,22.53,120.00,7.00,0.00,30.15,M,10.00,M,CLR,M,M,M,M,M,M,M,M,M,M,M,M,M,M,86.24,K10U 240135Z AUTO 12007KT 10SM CLR 32/08 A3015 RMK AO2,M
BAM,2024-07-24 01:35,-116.8743,40.5990,1382.36,96.80,42.80,15.71,340.00,4.00,0.00,30.08,M,10.00,M,CLR,M,M,M,M,M,M,M,M,M,M,M,M,M,M,92.57,KBAM 240135Z AUTO 34004KT 10SM CLR 36/06 A3008 RMK AO1,M
TMT,2024-07-24 01:35,-117.1971,39.4643,1749.34,84.70,47.00,26.93,80.00,13.00,0.00,30.22,M,10.00,19.00,BKN,M,M,M,12000.00,M,M,M,M,M,M,M,M,M,M,82.28,KTMT 240135Z AUTO 08013G19KT 10SM BKN120 29/08 A3022 RMK AO2 T02930084,M
P68,2024-07-24 01:53,-116.0056,39.6014,1993.00,89.00,43.00,20.17,310.00,4.00,0.00,30.21,1014.00,M,M,M,M,M,M,M,M,M,M,M,M,M,M,M,M,M,85.42,KP68 240153Z AUTO 31004KT 32/06 A3021 RMK AO1 SLP140 T03170061,M
DRA,2024-07-24 01:53,-116.0278,36.6206,1009.00,102.00,49.00,16.97,270.00,7.00,0.00,29.96,1008.60,10.00,M,CLR,M,M,M,M,M,M,M,M,M,M,M,M,M,M,98.82,KDRA 240153Z AUTO 27007KT 10SM CLR 39/09 A2996 RMK AO2 SLP086 T03890094,M
ELY,2024-07-24 01:53,-114.8453,39.2950,1909.00,85.00,49.00,28.75,300.00,7.00,0.00,30.26,1013.30,10.00,M,FEW,M,M,M,8000.00,M,M,M,M,M,M,M,M,M,M,82.71,KELY 240153Z AUTO 30007KT 10SM FEW080 29/09 A3026 RMK AO2 SLP133 T02940094 $,M
VGT,2024-07-24 01:53,-115.1933,36.2111,667.00,108.00,54.00,17.09,210.00,10.00,0.00,29.86,1009.30,10.00,M,CLR,M,M,M,M,M,M,M,M,M,M,M,M,M,M,106.72,KVGT 240153Z 21010KT 10SM CLR 42/12 A2986 RMK AO2 SLP093 T04220122,M
LOL,2024-07-24 01:53,-118.5701,40.0684,1192.43,97.00,46.00,17.64,290.00,14.00,0.00,30.04,1012.10,10.00,M,CLR,M,M,M,M,M,M,M,M,M,M,M,M,M,M,93.19,KLOL 240153Z AUTO 29014KT 10SM CLR 36/08 A3004 RMK AO2 LTG DSNT S SLP121 T03610078,M
NFL,2024-07-24 01:54,-118.7010,39.4166,1199.00,88.00,51.00,28.15,290.00,26.00,0.00,30.09,1015.60,9.00,38.00,SCT,BKN,M,M,8000.00,14000.00,M,M,VCTS BLDU,M,M,M,38.00,280.00,2024-07-24 01:43,85.43,KNFL 240154Z 29026G38KT 9SM VCTS BLDU SCT080CB BKN140 31/11 A3009 RMK AO2 PK WND 28038/0143 PRESRR SLP156 ONCL LTGICCG VC N TS VC N MOV ENE TCU DSNT SE T03110106,M
BVU,2024-07-24 01:55,-114.8611,35.9475,671.00,105.80,50.00,15.73,220.00,4.00,0.00,29.88,M,10.00,M,CLR,M,M,M,M,M,M,M,M,M,M,M,M,M,M,102.98,KBVU 240155Z AUTO 22004KT 10SM CLR 41/10 A2988 RMK AO2,M
CXP,2024-07-24 01:55,-119.7326,39.1923,1431.00,86.00,53.60,33.01,M,4.00,0.00,30.23,M,9.00,18.00,BKN,M,M,M,11000.00,M,M,M,M,M,M,M,M,M,M,84.18,KCXP 240155Z AUTO VRB04G18KT 9SM BKN110 30/12 A3023 RMK AO2 LTG DSNT N AND NE AND S,M
INS,2024-07-24 01:55,-115.6733,36.5872,955.00,102.00,43.70,13.89,180.00,9.00,0.00,29.94,1007.50,10.00,M,FEW,M,M,M,20000.00,M,M,M,M,M,M,M,M,M,M,97.72,KINS 240155Z AUTO 18009KT 10SM FEW200 39/07 A2994 RMK AO2 SLP075 T03890065 $,M
RNO,2024-07-24 01:55,-119.7711,39.4839,1341.00,92.00,49.00,23.04,90.00,9.00,0.00,30.13,1013.50,10.00,M,SCT,BKN,M,M,8000.00,14000.00,M,M,M,M,M,M,26.00,70.00,2024-07-24 01:13,88.77,KRNO 240155Z 09009KT 10SM SCT080 BKN140 33/09 A3013 RMK AO2 PK WND 07026/0113 SLP135 VIRGA FU ALF DSNT NW CB DSNT SE MOV NE T03330094,M
RTS,2024-07-24 01:55,-119.8764,39.6682,1539.00,93.20,42.80,17.55,280.00,11.00,0.00,30.19,M,10.00,M,CLR,M,M,M,M,M,M,M,M,M,M,M,M,M,M,89.17,KRTS 240155Z AUTO 28011KT 10SM CLR 34/06 A3019 RMK AO2,M
05U,2024-07-24 01:55,-116.0051,39.6042,1811.23,87.80,42.80,20.79,0.00,0.00,0.00,30.24,M,10.00,M,CLR,M,M,M,M,M,M,M,M,M,M,M,M,M,M,84.40,K05U 240155Z AUTO 00000KT 10SM CLR 31/06 A3024 RMK A01,M
MEV,2024-07-24 01:55,-119.7500,38.9963,1441.42,82.40,53.60,37.07,210.00,16.00,0.00,30.21,M,10.00,22.00,CLR,M,M,M,M,M,M,M,M,M,M,M,M,M,M,81.46,KMEV 240155Z AUTO 21016G22KT 10SM CLR 28/12 A3021 RMK AO2,M
HTH,2024-07-24 01:55,-118.6315,38.5448,1282.89,91.40,44.60,19.89,270.00,27.00,0.00,30.09,M,10.00,M,CLR,M,M,M,M,M,M,M,M,M,M,M,M,M,M,87.68,KHTH 240155Z AUTO 27027KT 10SM CLR 33/07 A3009 RMK A01,M
10U,2024-07-24 01:55,-116.1876,41.9532,1637.00,91.40,42.80,18.56,110.00,5.00,0.00,30.15,M,10.00,M,CLR,M,M,M,M,M,M,M,M,M,M,M,M,M,M,87.52,K10U 240155Z AUTO 11005KT 10SM CLR 33/06 A3015 RMK AO2,M
BAM,2024-07-24 01:55,-116.8743,40.5990,1382.36,96.80,44.60,16.83,350.00,5.00,0.00,30.08,M,10.00,M,CLR,M,M,M,M,M,M,M,M,M,M,M,M,M,M,92.79,KBAM 240155Z AUTO 35005KT 10SM CLR 36/07 A3008 RMK AO1,M
TMT,2024-07-24 01:55,-117.1971,39.4643,1749.34,84.20,45.70,26.06,80.00,9.00,0.00,30.22,M,10.00,M,BKN,M,M,M,12000.00,M,M,M,M,M,M,M,M,M,M,81.81,KTMT 240155Z AUTO 08009KT 10SM BKN120 29/08 A3022 RMK AO2 T02900076,M
LSV,2024-07-24 01:55,-115.0343,36.2362,570.00,108.50,46.80,12.89,210.00,12.00,0.00,29.81,1006.00,10.00,M,CLR,M,M,M,M,M,M,M,M,M,M,M,M,M,M,104.67,KLSV 240155Z AUTO 21012KT 10SM CLR 43/08 A2981 RMK AO2 SLP060 T04250082 $,M
EKO,2024-07-24 01:56,-115.7860,40.8242,1367.00,96.00,41.00,15.02,M,5.00,0.00,30.12,1012.60,10.00,M,CLR,M,M,M,M,M,M,M,M,M,M,M,M,M,M,91.64,KEKO 240156Z AUTO VRB05KT 10SM CLR 36/05 A3012 RMK AO2 SLP126 T03560050,M
WMC,2024-07-24 01:56,-117.8072,40.9019,1315.00,98.00,41.00,14.13,250.00,4.00,0.00,30.05,1011.50,10.00,M,CLR,M,M,M,M,M,M,M,M,M,M,M,M,M,M,93.52,KWMC 240156Z AUTO 25004KT 10SM CLR 37/05 A3005 RMK AO2 SLP115 T03670050,M
HND,2024-07-24 01:56,-115.1344,35.9729,742.79,105.00,55.00,19.36,220.00,10.00,0.00,29.93,1011.10,10.00,M,CLR,M,M,M,M,M,M,M,M,M,M,M,M,M,M,103.94,KHND 240156Z 22010KT 10SM CLR 41/13 A2993 RMK AO2 SLP111 T04060128,M
TPH,2024-07-24 01:56,-117.0904,38.0505,1654.00,92.00,46.00,20.58,340.00,11.00,T,30.18,1012.70,10.00,19.00,BKN,M,M,M,12000.00,M,M,M,M,M,M,M,31.00,10.00,2024-07-24 01:30,88.38,KTPH 240156Z AUTO 34011G19KT 10SM BKN120 33/08 A3018 RMK AO2 PK WND 01031/0130 RAE31 SLP127 P0000 T03330078,M
LAS,2024-07-24 01:59,-115.1634,36.0719,663.00,108.00,52.00,15.88,190.00,8.00,0.00,29.88,M,10.00,M,FEW,SCT,M,M,11000.00,22000.00,M,M,M,M,M,M,M,M,M,105.91,KLAS 240159Z 19008KT 10SM FEW110 SCT220 42/11 A2988 RMK AO2 CB DSNT N-E-SE T04220111 $,M
05U,2024-07-24 02:10,-116.0051,39.6042,1811.23,87.80,42.80,20.79,0.00,0.00,0.00,30.24,M,10.00,M,CLR,M,M,M,M,M,M,M,M,M,M,M,M,M,M,84.40,K05U 240210Z AUTO 00000KT 10SM CLR 31/06 A3024 RMK A01,M
BVU,2024-07-24 02:15,-114.8611,35.9475,671.00,105.80,50.00,15.73,170.00,4.00,0.00,29.88,M,10.00,M,CLR,M,M,M,M,M,M,M,M,M,M,M,M,M,M,102.98,KBVU 240215Z AUTO 17004KT 10SM CLR 41/10 A2988 RMK AO2,M
CXP,2024-07-24 02:15,-119.7326,39.1923,1431.00,84.20,50.00,30.62,170.00,5.00,0.00,30.24,M,10.00,13.00,FEW,M,M,M,11000.00,M,M,M,M,M,M,M,M,M,M,82.24,KCXP 240215Z AUTO 17005G13KT 10SM FEW110 29/10 A3024 RMK AO2 LTG DSNT NE,M
RTS,2024-07-24 02:15,-119.8764,39.6682,1539.00,91.40,42.80,18.56,290.00,11.00,0.00,30.20,M,10.00,16.00,CLR,M,M,M,M,M,M,M,M,M,M,M,M,M,M,87.52,KRTS 240215Z AUTO 29011G16KT 10SM CLR 33/06 A3020 RMK AO2,M
MEV,2024-07-24 02:15,-119.7500,38.9963,1441.42,82.40,51.80,34.69,200.00,13.00,0.00,30.22,M,10.00,M,CLR,M,M,M,M,M,M,M,M,M,M,M,M,M,M,81.20,KMEV 240215Z AUTO 20013KT 10SM CLR 28/11 A3022 RMK AO2 LTG DSNT NE,M
HTH,2024-07-24 02:15,-118.6315,38.5448,1282.89,91.40,42.80,18.56,260.00,21.00,0.00,30.10,M,10.00,29.00,CLR,M,M,M,M,M,M,M,M,M,M,M,M,M,M,87.52,KHTH 240215Z AUTO 26021G29KT 10SM CLR 33/06 A3010 RMK A01,M
10U,2024-07-24 02:15,-116.1876,41.9532,1637.00,89.60,44.60,21.04,0.00,0.00,0.00,30.16,M,10.00,M,CLR,M,M,M,M,M,M,M,M,M,M,M,M,M,M,86.07,K10U 240215Z AUTO 00000KT 10SM CLR 32/07 A3016 RMK AO2,M
BAM,2024-07-24 02:15,-116.8743,40.5990,1382.36,95.00,46.40,19.04,330.00,5.00,0.00,30.08,M,10.00,M,CLR,M,M,M,M,M,M,M,M,M,M,M,M,M,M,91.29,KBAM 240215Z AUTO 33005KT 10SM CLR 35/08 A3008 RMK AO1,M
TMT,2024-07-24 02:15,-117.1971,39.4643,1749.34,82.80,46.60,28.21,100.00,8.00,0.00,30.24,M,10.00,M,BKN,M,M,M,12000.00,M,M,M,M,M,M,M,M,M,M,80.92,KTMT 240215Z AUTO 10008KT 10SM BKN120 28/08 A3024 RMK AO2 T02820081,M
LOL,2024-07-24 02:17,-118.5701,40.0684,1192.43,92.00,48.00,22.19,220.00,26.00,0.00,30.06,M,2.00,35.00,FEW,M,M,M,1400.00,M,M,M,HZ,M,M,M,35.00,200.00,2024-07-24 02:15,88.63,KLOL 240217Z AUTO 22026G35KT 2SM HZ FEW014 33/09 A3006 RMK AO2 PK WND 20035/0215 WSHFT 0203 LTG DSNT SW PRESRR T03330089,M
LOL,2024-07-24 02:21,-118.5701,40.0684,1192.43,90.00,50.00,25.46,210.00,26.00,0.00,30.06,M,1.00,35.00,VV ,M,M,M,1500.00,M,M,M,HZ,M,M,M,35.00,210.00,2024-07-24 02:20,87.06,KLOL 240221Z AUTO 21026G35KT 1SM HZ VV015 32/10 A3006 RMK AO2 PK WND 21035/0220 WSHFT 0203 LTG DSNT SW T03220100,M
LOL,2024-07-24 02:25,-118.5701,40.0684,1192.43,90.00,50.00,25.46,220.00,23.00,0.00,30.07,M,0.25,37.00,VV ,M,M,M,1200.00,M,M,M,HZ,M,M,M,37.00,220.00,2024-07-24 02:22,87.06,KLOL 240225Z AUTO 22023G37KT 1/4SM HZ VV012 32/10 A3007 RMK AO2 PK WND 22037/0222 WSHFT 0203 LTG DSNT SW T03220100,M
LOL,2024-07-24 02:33,-118.5701,40.0684,1192.43,88.00,51.00,28.15,210.00,28.00,0.00,30.07,M,0.50,45.00,VV ,M,M,M,900.00,M,M,M,HZ,M,M,M,45.00,210.00,2024-07-24 02:30,85.43,KLOL 240233Z AUTO 21028G45KT 1/2SM HZ VV009 31/11 A3007 RMK AO2 PK WND 21045/0230 WSHFT 0203 LTG DSNT SW T03110106,M
NFL,2024-07-24 02:34,-118.7010,39.4166,1199.00,90.00,45.00,21.10,290.00,7.00,0.00,30.08,M,10.00,23.00,SCT,BKN,BKN,M,8000.00,12000.00,16000.00,M,M,M,M,M,37.00,280.00,2024-07-24 01:56,86.45,KNFL 240234Z 29007G23KT 10SM SCT080 BKN120 BKN160 32/07 A3008 RMK AO2 PK WND 28037/0156 OCNL LTGICCG DSNT N TS DSNT N MOV NE T03220072,M
BVU,2024-07-24 02:35,-114.8611,35.9475,671.00,104.00,48.20,15.52,160.00,3.00,0.00,29.88,M,10.00,M,CLR,M,M,M,M,M,M,M,M,M,M,M,M,M,M,100.65,KBVU 240235Z AUTO 16003KT 10SM CLR 40/09 A2988 RMK AO2,M
CXP,2024-07-24 02:35,-119.7326,39.1923,1431.00,84.20,50.00,30.62,190.00,10.00,0.00,30.25,M,10.00,16.00,CLR,M,M,M,M,M,M,M,M,M,M,M,M,M,M,82.24,KCXP 240235Z AUTO 19010G16KT 160V230 10SM CLR 29/10 A3025 RMK AO2 LTG DSNT NE,M
RTS,2024-07-24 02:35,-119.8764,39.6682,1539.00,91.40,44.60,19.89,240.00,9.00,0.00,30.22,M,10.00,14.00,CLR,M,M,M,M,M,M,M,M,M,M,M,M,M,M,87.68,KRTS 240235Z AUTO 24009G14KT 10SM CLR 33/07 A3022 RMK AO2,M
05U,2024-07-24 02:35,-116.0051,39.6042,1811.23,86.00,44.60,23.59,0.00,0.00,0.00,30.24,M,10.00,M,CLR,M,M,M,M,M,M,M,M,M,M,M,M,M,M,83.07,K05U 240235Z AUTO 00000KT 10SM CLR 30/07 A3024 RMK A01,M
MEV,2024-07-24 02:35,-119.7500,38.9963,1441.42,80.60,51.80,36.79,180.00,16.00,0.00,30.23,M,10.00,M,FEW,M,M,M,11000.00,M,M,M,M,M,M,M,M,M,M,80.08,KMEV 240235Z AUTO 18016KT 10SM FEW110 27/11 A3023 RMK AO2 LTG DSNT NE,M
HTH,2024-07-24 02:35,-118.6315,38.5448,1282.89,91.40,42.80,18.56,120.00,7.00,0.00,30.14,M,10.00,19.00,CLR,M,M,M,M,M,M,M,M,M,M,M,M,M,M,87.52,KHTH 240235Z AUTO 12007G19KT 090V170 10SM CLR 33/06 A3014 RMK A01,M
10U,2024-07-24 02:35,-116.1876,41.9532,1637.00,87.80,41.00,19.40,0.00,0.00,0.00,30.17,M,10.00,M,CLR,M,M,M,M,M,M,M,M,M,M,M,M,M,M,84.30,K10U 240235Z AUTO 00000KT 10SM CLR 31/05 A3017 RMK AO2,M
BAM,2024-07-24 02:35,-116.8743,40.5990,1382.36,93.20,46.40,20.13,320.00,3.00,0.00,30.09,M,10.00,M,CLR,M,M,M,M,M,M,M,M,M,M,M,M,M,M,89.55,KBAM 240235Z AUTO 32003KT 10SM CLR 34/08 A3009 RMK AO1,M
TMT,2024-07-24 02:35,-117.1971,39.4643,1749.34,82.40,46.00,27.93,260.00,10.00,0.00,30.26,M,10.00,M,OVC,M,M,M,12000.00,M,M,M,M,M,M,M,M,M,M,80.61,KTMT 240235Z AUTO 26010KT 10SM OVC120 28/08 A3026 RMK AO2 T02800077,M
RNO,2024-07-24 02:39,-119.7711,39.4839,1341.00,91.00,51.00,25.61,190.00,18.00,0.00,30.16,M,10.00,27.00,SCT,BKN,M,M,8000.00,15000.00,M,M,M,M,M,M,27.00,200.00,2024-07-24 02:32,88.16,KRNO 240239Z 19018G27KT 10SM SCT080 BKN150 33/11 A3016 RMK AO2 PK WND 20027/0232 WSHFT 0219 VIRGA FU ALF DSNT NW T03280106,M
LOL,2024-07-24 02:44,-118.5701,40.0684,1192.43,87.00,51.00,29.06,240.00,20.00,0.00,30.08,M,1.75,31.00,BKN,M,M,M,900.00,M,M,M,HZ,M,M,M,45.00,210.00,2024-07-24 02:30,84.58,KLOL 240244Z AUTO 24020G31KT 1 3/4SM HZ BKN009 31/11 A3008 RMK AO2 PK WND 21045/0230 WSHFT 0203 LTG DSNT SW T03060106,M
LOL,2024-07-24 02:47,-118.5701,40.0684,1192.43,87.80,51.80,29.18,250.00,16.00,0.00,30.08,M,3.00,29.00,BKN,M,M,M,900.00,M,M,M,HZ,M,M,M,45.00,210.00,2024-07-24 02:30,85.39,KLOL 240247Z AUTO 25016G29KT 3SM HZ BKN009 31/11 A3008 RMK AO2 PK WND 21045/0230 WSHFT 0203 LTG DSNT SW,M
P68,2024-07-24 02:53,-116.0056,39.6014,1993.00,83.00,46.00,27.39,260.00,13.00,0.00,30.23,1014.10,M,17.00,M,M,M,M,M,M,M,M,M,M,M,M,M,M,M,81.00,KP68 240253Z AUTO 26013G17KT 28/08 A3023 RMK AO1 SLP141 T02830078 53011,M
DRA,2024-07-24 02:53,-116.0278,36.6206,1009.00,100.00,50.00,18.71,210.00,8.00,0.00,29.97,1008.80,10.00,M,CLR,M,M,M,M,M,M,M,M,M,M,M,M,M,M,97.00,KDRA 240253Z AUTO 21008KT 10SM CLR 38/10 A2997 RMK AO2 SLP088 T03780100 53004,M
ELY,2024-07-24 02:53,-114.8453,39.2950,1909.00,79.00,46.00,31.21,320.00,5.00,0.00,30.28,1013.90,10.00,M,CLR,M,M,M,M,M,M,M,M,M,M,M,M,M,M,79.00,KELY 240253Z AUTO 32005KT 10SM CLR 26/08 A3028 RMK AO2 SLP139 T02610078 53009 $,M
VGT,2024-07-24 02:53,-115.1933,36.2111,667.00,106.00,53.00,17.47,210.00,8.00,0.00,29.87,1009.70,10.00,M,CLR,M,M,M,M,M,M,M,M,M,M,M,M,M,M,104.21,KVGT 240253Z 21008KT 10SM CLR 41/12 A2987 RMK AO2 SLP097 T04110117 53005,M
LOL,2024-07-24 02:53,-118.5701,40.0684,1192.43,87.00,50.00,28.00,230.00,21.00,0.00,30.08,1013.60,7.00,28.00,SCT,M,M,M,700.00,M,M,M,M,M,M,M,45.00,210.00,2024-07-24 02:30,84.43,KLOL 240253Z AUTO 23021G28KT 7SM SCT007 31/10 A3008 RMK AO2 PK WND 21045/0230 WSHFT 0203 SLP136 T03060100 53017,M
NFL,2024-07-24 02:54,-118.7010,39.4166,1199.00,91.00,42.00,18.23,320.00,23.00,0.00,30.11,1016.20,10.00,37.00,SCT,BKN,BKN,M,8000.00,12000.00,16000.00,M,M,M,M,M,37.00,280.00,2024-07-24 01:56,87.11,KNFL 240254Z 32023G37KT 10SM SCT080 BKN120 BKN160 33/06 A3011 RMK AO2 PK WND 28037/0156 PRESRR SLP162 OCNL LTGICCG DSNT N TS DSNT N MOV NE T03280056 53024,M
BVU,2024-07-24 02:55,-114.8611,35.9475,671.00,104.00,48.20,15.52,0.00,0.00,0.00,29.88,M,10.00,M,CLR,M,M,M,M,M,M,M,M,M,M,M,M,M,M,100.65,KBVU 240255Z AUTO 00000KT 10SM CLR 40/09 A2988 RMK AO2 LTG DSNT E AND SE,M
CXP,2024-07-24 02:55,-119.7326,39.1923,1431.00,82.40,51.80,34.69,190.00,10.00,0.00,30.25,M,10.00,M,CLR,M,M,M,M,M,M,M,M,M,M,M,M,M,M,81.20,KCXP 240255Z AUTO 19010KT 10SM CLR 28/11 A3025 RMK AO2,M
INS,2024-07-24 02:55,-115.6733,36.5872,955.00,100.60,44.40,14.88,180.00,7.00,0.00,29.95,1007.70,10.00,M,FEW,M,M,M,20000.00,M,M,M,M,M,M,M,M,M,M,96.48,KINS 240255Z AUTO 18007KT 10SM FEW200 38/07 A2995 RMK AO2 SLP077 T03810069 53004 $,M
RNO,2024-07-24 02:55,-119.7711,39.4839,1341.00,90.00,50.00,25.46,200.00,19.00,0.00,30.17,1014.90,10.00,29.00,SCT,BKN,M,M,8000.00,15000.00,M,M,M,M,M,M,29.00,190.00,2024-07-24 02:53,87.06,KRNO 240255Z 20019G29KT 10SM SCT080 BKN150 32/10 A3017 RMK AO2 PK WND 19029/0253 WSHFT 0219 SLP149 VIRGA FU ALF DSNT NW T03220100 53024,M
LSV,2024-07-24 02:55,-115.0343,36.2362,570.00,106.30,49.00,14.94,220.00,10.00,0.00,29.82,1006.30,10.00,M,CLR,M,M,M,M,M,M,M,M,M,M,M,M,M,M,103.18,KLSV 240255Z AUTO 22010KT 10SM CLR 41/09 A2982 RMK AO2 SLP063 T04130094 53005 $,M
RTS,2024-07-24 02:55,-119.8764,39.6682,1539.00,86.00,48.20,27.03,140.00,19.00,0.00,30.22,M,10.00,M,SCT,M,M,M,10000.00,M,M,M,M,M,M,M,M,M,M,83.40,KRTS 240255Z AUTO 14019KT 10SM SCT100 30/09 A3022 RMK AO2,M
05U,2024-07-24 02:55,-116.0051,39.6042,1811.23,84.20,46.40,26.76,260.00,7.00,0.00,30.26,M,10.00,15.00,CLR,M,M,M,M,M,M,M,M,M,M,M,M,M,M,81.87,K05U 240255Z AUTO 26007G15KT 10SM CLR 29/08 A3026 RMK A01,M
MEV,2024-07-24 02:55,-119.7500,38.9963,1441.42,78.80,51.80,39.02,160.00,19.00,0.00,30.23,M,10.00,24.00,BKN,M,M,M,11000.00,M,M,M,M,M,M,M,M,M,M,78.80,KMEV 240255Z AUTO 16019G24KT 10SM BKN110 26/11 A3023 RMK AO2,M
HTH,2024-07-24 02:55,-118.6315,38.5448,1282.89,89.60,44.60,21.04,100.00,10.00,0.00,30.13,M,10.00,17.00,CLR,M,M,M,M,M,M,M,M,M,M,M,M,M,M,86.07,KHTH 240255Z AUTO 10010G17KT 080V140 10SM CLR 32/07 A3013 RMK A01,M
10U,2024-07-24 02:55,-116.1876,41.9532,1637.00,86.00,41.00,20.54,40.00,5.00,0.00,30.18,M,10.00,M,CLR,M,M,M,M,M,M,M,M,M,M,M,M,M,M,82.86,K10U 240255Z AUTO 04005KT 10SM CLR 30/05 A3018 RMK AO2,M
BAM,2024-07-24 02:55,-116.8743,40.5990,1382.36,91.40,44.60,19.89,320.00,3.00,0.00,30.09,M,10.00,M,CLR,M,M,M,M,M,M,M,M,M,M,M,M,M,M,87.68,KBAM 240255Z AUTO 32003KT 10SM CLR 33/07 A3009 RMK AO1,M
TMT,2024-07-24 02:55,-117.1971,39.4643,1749.34,78.80,51.30,38.31,240.00,21.00,0.00,30.27,M,7.00,29.00,BKN,OVC,M,M,10000.00,12000.00,M,M,M,M,M,M,M,M,M,78.80,KTMT 240255Z AUTO 24021G29KT 7SM BKN100 OVC120 26/11 A3027 RMK AO2 T02600107,M
EKO,2024-07-24 02:56,-115.7860,40.8242,1367.00,90.00,43.00,19.55,350.00,3.00,0.00,30.13,1013.10,10.00,M,CLR,M,M,M,M,M,M,M,M,M,M,M,M,M,M,86.29,KEKO 240256Z AUTO 35003KT 10SM CLR 32/06 A3013 RMK AO2 SLP131 T03220061 53005,M
WMC,2024-07-24 02:56,-117.8072,40.9019,1315.00,93.00,42.00,17.13,230.00,4.00,0.00,30.06,1011.90,10.00,M,CLR,M,M,M,M,M,M,M,M,M,M,M,M,M,M,88.92,KWMC 240256Z AUTO 23004KT 10SM CLR 34/06 A3006 RMK AO2 SLP119 T03390056 53006,M
HND,2024-07-24 02:56,-115.1344,35.9729,742.79,102.00,52.00,18.97,200.00,12.00,0.00,29.94,1011.60,10.00,M,CLR,M,M,M,M,M,M,M,M,M,M,M,M,M,M,99.65,KHND 240256Z 20012KT 10SM CLR 39/11 A2994 RMK AO2 SLP116 T03890111 53006,M
TPH,2024-07-24 02:56,-117.0904,38.0505,1654.00,87.00,47.00,25.02,310.00,15.00,0.00,30.19,1013.40,10.00,M,BKN,BKN,M,M,8500.00,11000.00,M,M,M,M,M,M,M,M,M,84.08,KTPH 240256Z AUTO 31015KT 10SM BKN085 BKN110 31/08 A3019 RMK AO2 LTG DSNT SE SLP134 60000 T03060083 53003,M
LAS,2024-07-24 02:56,-115.1634,36.0719,663.00,106.00,52.00,16.84,220.00,8.00,0.00,29.89,1005.00,10.00,M,FEW,FEW,BKN,M,11000.00,17000.00,22000.00,M,M,M,M,M,M,M,M,103.85,KLAS 240256Z 22008KT 10SM FEW110 FEW170 BKN220 41/11 A2989 RMK AO2 SLP050 CB DSNT N-E-SE T04110111 $,M
NFL,2024-07-24 03:04,-118.7010,39.4166,1199.00,91.00,43.00,18.94,320.00,21.00,0.00,30.10,M,10.00,33.00,SCT,BKN,BKN,M,8000.00,12000.00,16000.00,M,M,M,M,M,33.00,330.00,2024-07-24 03:00,87.18,KNFL 240304Z 32021G33KT 10SM SCT080 BKN120 BKN160 33/06 A3010 RMK AO2 PK WND 33033/0300 WSHFT 0244 OCNL LTGICCG DSNT N CB DSNT N AND S T03280061,M
MEV,2024-07-24 03:10,-119.7500,38.9963,1441.42,78.80,51.80,39.02,150.00,19.00,0.00,30.24,M,10.00,25.00,OVC,M,M,M,11000.00,M,M,M,M,M,M,M,M,M,M,78.80,KMEV 240310Z AUTO 15019G25KT 10SM OVC110 26/11 A3024 RMK AO2,M
BVU,2024-07-24 03:15,-114.8611,35.9475,671.00,102.20,50.00,17.51,0.00,0.00,0.00,29.89,M,10.00,M,CLR,M,M,M,M,M,M,M,M,M,M,M,M,M,M,99.28,KBVU 240315Z AUTO 00000KT 10SM CLR 39/10 A2989 RMK AO2 LTG DSNT E AND SE,M
CXP,2024-07-24 03:15,-119.7326,39.1923,1431.00,80.60,51.80,36.79,200.00,9.00,0.00,30.26,M,10.00,14.00,CLR,M,M,M,M,M,M,M,M,M,M,M,M,M,M,80.08,KCXP 240315Z AUTO 20009G14KT 10SM CLR 27/11 A3026 RMK AO2,M
RTS,2024-07-24 03:15,-119.8764,39.6682,1539.00,86.00,44.60,23.59,150.00,15.00,0.00,30.23,M,10.00,M,FEW,M,M,M,10000.00,M,M,M,M,M,M,M,M,M,M,83.07,KRTS 240315Z AUTO 15015KT 10SM FEW100 30/07 A3023 RMK AO2,M
05U,2024-07-24 03:15,-116.0051,39.6042,1811.23,82.40,46.40,28.36,0.00,0.00,0.00,30.26,M,10.00,14.00,CLR,M,M,M,M,M,M,M,M,M,M,M,M,M,M,80.64,K05U 240315Z AUTO 00000G14KT 10SM CLR 28/08 A3026 RMK A01,M
BAM,2024-07-24 03:15,-116.8743,40.5990,1382.36,89.60,46.40,22.53,320.00,4.00,0.00,30.09,M,10.00,M,CLR,M,M,M,M,M,M,M,M,M,M,M,M,M,M,86.24,KBAM 240315Z AUTO 32004KT 10SM CLR 32/08 A3009 RMK AO1,M
HTH,2024-07-24 03:15,-118.6315,38.5448,1282.89,89.60,44.60,21.04,150.00,17.00,0.00,30.14,M,10.00,M,CLR,M,M,M,M,M,M,M,M,M,M,M,M,M,M,86.07,KHTH 240315Z AUTO 15017KT 10SM CLR 32/07 A3014 RMK A01,M
TMT,2024-07-24 03:15,-117.1971,39.4643,1749.34,69.60,56.50,63.09,230.00,25.00,0.00,30.30,M,10.00,35.00,SCT,OVC,M,M,8000.00,11000.00,M,M,-RA,M,M,M,M,M,M,69.60,KTMT 240315Z AUTO 23025G35KT 10SM -RA SCT080 OVC110 21/14 A3030 RMK AO2 T02090136,M
10U,2024-07-24 03:15,-116.1876,41.9532,1637.00,82.40,46.40,28.36,70.00,4.00,0.00,30.18,M,10.00,M,CLR,M,M,M,M,M,M,M,M,M,M,M,M,M,M,80.64,K10U 240315Z AUTO 07004KT 10SM CLR 28/08 A3018 RMK AO2,M
BVU,2024-07-24 03:35,-114.8611,35.9475,671.00,102.20,51.80,18.72,150.00,6.00,0.00,29.90,M,10.00,M,CLR,M,M,M,M,M,M,M,M,M,M,M,M,M,M,99.80,KBVU 240335Z AUTO 15006KT 10SM CLR 39/11 A2990 RMK AO2,M
CXP,2024-07-24 03:35,-119.7326,39.1923,1431.00,80.60,51.80,36.79,190.00,8.00,0.00,30.27,M,10.00,M,CLR,M,M,M,M,M,M,M,M,M,M,M,M,M,M,80.08,KCXP 240335Z AUTO 19008KT 10SM CLR 27/11 A3027 RMK AO2,M
RTS,2024-07-24 03:35,-119.8764,39.6682,1539.00,86.00,44.60,23.59,160.00,15.00,0.00,30.24,M,10.00,22.00,CLR,M,M,M,M,M,M,M,M,M,M,M,M,M,M,83.07,KRTS 240335Z AUTO 16015G22KT 10SM CLR 30/07 A3024 RMK AO2,M
05U,2024-07-24 03:35,-116.0051,39.6042,1811.23,82.40,46.40,28.36,240.00,10.00,0.00,30.27,M,10.00,M,FEW,M,M,M,12000.00,M,M,M,M,M,M,M,M,M,M,80.64,K05U 240335Z AUTO 24010KT 10SM FEW120 28/08 A3027 RMK A01,M
MEV,2024-07-24 03:35,-119.7500,38.9963,1441.42,77.00,51.80,41.42,170.00,17.00,0.00,30.25,M,10.00,23.00,BKN,BKN,M,M,10000.00,12000.00,M,M,M,M,M,M,M,M,M,77.00,KMEV 240335Z AUTO 17017G23KT 10SM BKN100 BKN120 25/11 A3025 RMK AO2,M
HTH,2024-07-24 03:35,-118.6315,38.5448,1282.89,89.60,42.80,19.64,280.00,14.00,0.00,30.15,M,10.00,23.00,CLR,M,M,M,M,M,M,M,M,M,M,M,M,M,M,85.93,KHTH 240335Z AUTO 28014G23KT 10SM CLR 32/06 A3015 RMK A01,M
10U,2024-07-24 03:35,-116.1876,41.9532,1637.00,82.40,42.80,24.72,0.00,0.00,0.00,30.19,M,10.00,M,SCT,M,M,M,12000.00,M,M,M,M,M,M,M,M,M,M,80.39,K10U 240335Z AUTO 00000KT 10SM SCT120 28/06 A3019 RMK AO2,M
BAM,2024-07-24 03:35,-116.8743,40.5990,1382.36,87.80,48.20,25.52,0.00,0.00,0.00,30.11,M,10.00,M,CLR,M,M,M,M,M,M,M,M,M,M,M,M,M,M,84.87,KBAM 240335Z AUTO 00000KT 10SM CLR 31/09 A3011 RMK AO1,M
TMT,2024-07-24 03:35,-117.1971,39.4643,1749.34,68.00,57.20,68.35,210.00,16.00,0.00,30.32,M,10.00,29.00,OVC,M,M,M,11000.00,M,M,M,M,M,M,M,M,M,M,68.00,KTMT 240335Z AUTO 21016G29KT 10SM OVC110 20/14 A3032 RMK AO2 T02010140,M
P68,2024-07-24 03:53,-116.0056,39.6014,1993.00,81.00,46.00,29.23,190.00,11.00,0.00,30.25,1014.60,M,M,M,M,M,M,M,M,M,M,M,M,M,M,M,M,M,79.76,KP68 240353Z AUTO 19011KT 27/08 A3025 RMK AO1 SLP146 T02720078,M
DRA,2024-07-24 03:53,-116.0278,36.6206,1009.00,99.00,50.00,19.28,210.00,11.00,0.00,30.00,1009.50,10.00,M,CLR,M,M,M,M,M,M,M,M,M,M,M,M,M,M,95.97,KDRA 240353Z AUTO 21011KT 10SM CLR 37/10 A3000 RMK AO2 SLP095 T03720100,M
ELY,2024-07-24 03:53,-114.8453,39.2950,1909.00,77.00,44.00,30.90,0.00,0.00,0.00,30.30,1014.20,10.00,M,CLR,M,M,M,M,M,M,M,M,M,M,M,M,M,M,77.00,KELY 240353Z AUTO 00000KT 10SM CLR 25/07 A3030 RMK AO2 LTG DSNT NW SLP142 T02500067 $,M
VGT,2024-07-24 03:53,-115.1933,36.2111,667.00,105.00,51.00,16.72,180.00,9.00,0.00,29.90,1010.50,10.00,M,CLR,M,M,M,M,M,M,M,M,M,M,M,M,M,M,102.47,KVGT 240353Z AUTO 18009KT 10SM CLR 41/11 A2990 RMK AO2 SLP105 T04060106,M
LOL,2024-07-24 03:53,-118.5701,40.0684,1192.43,88.00,45.00,22.47,240.00,15.00,0.00,30.08,1013.40,10.00,M,CLR,M,M,M,M,M,M,M,M,M,M,M,30.00,250.00,2024-07-24 02:54,84.72,KLOL 240353Z AUTO 24015KT 10SM CLR 31/07 A3008 RMK AO2 PK WND 25030/0254 SLP134 T03110072,M
NFL,2024-07-24 03:54,-118.7010,39.4166,1199.00,90.00,45.00,21.10,270.00,18.00,0.00,30.12,1016.60,10.00,29.00,SCT,BKN,BKN,M,8000.00,12000.00,16000.00,M,M,M,M,M,39.00,310.00,2024-07-24 03:07,86.45,KNFL 240354Z 27018G29KT 10SM SCT080 BKN120 BKN160 32/07 A3012 RMK AO2 PK WND 31039/0307 WSHFT 0244 SLP166 SH DSNT W T03220072,M
BVU,2024-07-24 03:55,-114.8611,35.9475,671.00,98.60,55.40,23.81,100.00,6.00,0.00,29.92,M,10.00,M,CLR,M,M,M,M,M,M,M,M,M,M,M,M,M,M,97.09,KBVU 240355Z AUTO 10006KT 10SM CLR 37/13 A2992 RMK AO2,M
CXP,2024-07-24 03:55,-119.7326,39.1923,1431.00,78.80,51.80,39.02,200.00,7.00,0.00,30.27,M,10.00,13.00,CLR,M,M,M,M,M,M,M,M,M,M,M,M,M,M,78.80,KCXP 240355Z AUTO 20007G13KT 170V240 10SM CLR 26/11 A3027 RMK AO2,M
INS,2024-07-24 03:55,-115.6733,36.5872,955.00,99.50,45.30,15.92,190.00,6.00,0.00,29.98,1008.60,10.00,M,OVC,M,M,M,17000.00,M,M,M,M,M,M,M,M,M,M,95.55,KINS 240355Z AUTO 19006KT 10SM OVC170 38/07 A2998 RMK AO2 SLP086 T03750074 $,M
RNO,2024-07-24 03:55,-119.7711,39.4839,1341.00,86.00,51.00,30.00,190.00,16.00,0.00,30.20,1015.90,10.00,25.00,FEW,FEW,M,M,8000.00,14000.00,M,M,M,M,M,M,28.00,190.00,2024-07-24 02:56,83.75,KRNO 240355Z 19016G25KT 10SM FEW080 FEW140 30/11 A3020 RMK AO2 PK WND 19028/0256 SLP159 FU ALF DSNT NW THRU N T03000106,M
LSV,2024-07-24 03:55,-115.0343,36.2362,570.00,105.40,44.40,12.89,220.00,13.00,0.00,29.84,1006.90,10.00,M,BKN,M,M,M,17000.00,M,M,M,M,M,M,M,M,M,M,101.11,KLSV 240355Z AUTO 22013KT 10SM BKN170 41/07 A2984 RMK AO2 SLP069 T04080069 $,M
RTS,2024-07-24 03:55,-119.8764,39.6682,1539.00,84.20,44.60,24.99,160.00,17.00,0.00,30.24,M,10.00,23.00,CLR,M,M,M,M,M,M,M,M,M,M,M,M,M,M,81.73,KRTS 240355Z AUTO 16017G23KT 10SM CLR 29/07 A3024 RMK AO2,M
05U,2024-07-24 03:55,-116.0051,39.6042,1811.23,80.60,46.40,30.07,170.00,9.00,0.00,30.28,M,10.00,M,FEW,M,M,M,12000.00,M,M,M,M,M,M,M,M,M,M,79.56,K05U 240355Z AUTO 17009KT 10SM FEW120 27/08 A3028 RMK A01,M
MEV,2024-07-24 03:55,-119.7500,38.9963,1441.42,77.00,51.80,41.42,160.00,11.00,0.00,30.26,M,10.00,20.00,FEW,M,M,M,10000.00,M,M,M,M,M,M,M,M,M,M,77.00,KMEV 240355Z AUTO 16011G20KT 10SM FEW100 25/11 A3026 RMK AO2,M
HTH,2024-07-24 03:55,-118.6315,38.5448,1282.89,87.80,42.80,20.79,280.00,14.00,0.00,30.15,M,10.00,21.00,CLR,M,M,M,M,M,M,M,M,M,M,M,M,M,M,84.40,KHTH 240355Z AUTO 28014G21KT 10SM CLR 31/06 A3015 RMK A01,M
10U,2024-07-24 03:55,-116.1876,41.9532,1637.00,78.80,44.60,29.79,50.00,6.00,0.00,30.19,M,10.00,M,FEW,SCT,M,M,6000.00,12000.00,M,M,M,M,M,M,M,M,M,78.80,K10U 240355Z AUTO 05006KT 10SM FEW060 SCT120 26/07 A3019 RMK AO2,M
BAM,2024-07-24 03:55,-116.8743,40.5990,1382.36,86.00,48.20,27.03,0.00,0.00,0.00,30.11,M,10.00,M,CLR,M,M,M,M,M,M,M,M,M,M,M,M,M,M,83.40,KBAM 240355Z AUTO 00000KT 10SM CLR 30/09 A3011 RMK AO1,M
TMT,2024-07-24 03:55,-117.1971,39.4643,1749.34,69.00,55.20,61.43,220.00,13.00,0.00,30.34,M,10.00,28.00,OVC,M,M,M,11000.00,M,M,M,M,M,M,M,M,M,M,69.00,KTMT 240355Z AUTO 22013G28KT 10SM OVC110 21/13 A3034 RMK AO2 T02060129,M
EKO,2024-07-24 03:56,-115.7860,40.8242,1367.00,80.00,48.00,32.57,240.00,9.00,0.00,30.15,1014.10,10.00,14.00,CLR,M,M,M,M,M,M,M,M,M,M,M,M,M,M,79.37,KEKO 240356Z AUTO 24009G14KT 10SM CLR 27/09 A3015 RMK AO2 LTG DSNT SW SLP141 T02670089,M
WMC,2024-07-24 03:56,-117.8072,40.9019,1315.00,91.00,43.00,18.94,270.00,7.00,0.00,30.10,1012.70,10.00,M,CLR,M,M,M,M,M,M,M,M,M,M,M,M,M,M,87.18,KWMC 240356Z AUTO 27007KT 10SM CLR 33/06 A3010 RMK AO2 SLP127 T03280061,M
HND,2024-07-24 03:56,-115.1344,35.9729,742.79,100.00,52.00,20.15,210.00,10.00,0.00,29.97,1012.40,10.00,M,CLR,M,M,M,M,M,M,M,M,M,M,M,M,M,M,97.53,KHND 240356Z AUTO 21010KT 10SM CLR 38/11 A2997 RMK AO2 SLP124 T03780111,M
TPH,2024-07-24 03:56,-117.0904,38.0505,1654.00,85.00,47.00,26.67,330.00,15.00,0.00,30.21,1013.80,10.00,M,CLR,M,M,M,M,M,M,M,M,M,M,M,M,M,M,82.51,KTPH 240356Z AUTO 33015KT 10SM CLR 29/08 A3021 RMK AO2 SLP138 T02940083,M
LAS,2024-07-24 03:56,-115.1634,36.0719,663.00,105.00,49.00,15.52,190.00,6.00,0.00,29.91,1005.70,10.00,M,FEW,FEW,SCT,M,11000.00,17000.00,22000.00,M,M,M,M,M,M,M,M,101.87,KLAS 240356Z 19006KT 10SM FEW110 FEW170 SCT220 41/09 A2991 RMK AO2 SLP057 T04060094 $,M
BVU,2024-07-24 04:15,-114.8611,35.9475,671.00,100.40,53.60,21.11,140.00,9.00,0.00,29.92,M,10.00,M,CLR,M,M,M,M,M,M,M,M,M,M,M,M,M,M,98.44,KBVU 240415Z AUTO 14009KT 10SM CLR 38/12 A2992 RMK AO2,M
CXP,2024-07-24 04:15,-119.7326,39.1923,1431.00,78.80,51.80,39.02,200.00,7.00,0.00,30.28,M,10.00,15.00,CLR,M,M,M,M,M,M,M,M,M,M,M,M,M,M,78.80,KCXP 240415Z AUTO 20007G15KT 170V230 10SM CLR 26/11 A3028 RMK AO2,M
RTS,2024-07-24 04:15,-119.8764,39.6682,1539.00,82.40,46.40,28.36,160.00,15.00,0.00,30.25,M,10.00,21.00,CLR,M,M,M,M,M,M,M,M,M,M,M,M,M,M,80.64,KRTS 240415Z AUTO 16015G21KT 10SM CLR 28/08 A3025 RMK AO2,M
05U,2024-07-24 04:15,-116.0051,39.6042,1811.23,82.40,44.60,26.49,0.00,0.00,0.00,30.29,M,10.00,11.00,FEW,M,M,M,11000.00,M,M,M,M,M,M,M,M,M,M,80.50,K05U 240415Z AUTO 00000G11KT 10SM FEW110 28/07 A3029 RMK A01,M
MEV,2024-07-24 04:15,-119.7500,38.9963,1441.42,75.20,51.80,43.97,160.00,9.00,0.00,30.26,M,10.00,M,CLR,M,M,M,M,M,M,M,M,M,M,M,M,M,M,75.20,KMEV 240415Z AUTO 16009KT 10SM CLR 24/11 A3026 RMK AO2,M
HTH,2024-07-24 04:15,-118.6315,38.5448,1282.89,87.80,42.80,20.79,50.00,7.00,0.00,30.17,M,10.00,17.00,CLR,M,M,M,M,M,M,M,M,M,M,M,M,M,M,84.40,KHTH 240415Z AUTO 05007G17KT 10SM CLR 31/06 A3017 RMK A01,M
10U,2024-07-24 04:15,-116.1876,41.9532,1637.00,77.00,44.60,31.62,40.00,7.00,0.00,30.20,M,10.00,M,FEW,M,M,M,6000.00,M,M,M,M,M,M,M,M,M,M,77.00,K10U 240415Z AUTO 04007KT 10SM FEW060 25/07 A3020 RMK AO2,M
BAM,2024-07-24 04:15,-116.8743,40.5990,1382.36,86.00,46.40,25.26,0.00,0.00,0.00,30.12,M,10.00,M,CLR,M,M,M,M,M,M,M,M,M,M,M,M,M,M,83.22,KBAM 240415Z AUTO 00000KT 10SM CLR 30/08 A3012 RMK AO1,M
TMT,2024-07-24 04:15,-117.1971,39.4643,1749.34,69.00,56.00,63.24,230.00,13.00,0.00,30.35,M,10.00,M,OVC,M,M,M,10000.00,M,M,M,M,M,M,M,M,M,M,69.00,KTMT 240415Z AUTO 23013KT 10SM OVC100 21/13 A3035 RMK AO2 T02050133,M
05U,2024-07-24 04:30,-116.0051,39.6042,1811.23,80.60,44.60,28.08,0.00,0.00,0.00,30.29,M,10.00,M,CLR,M,M,M,M,M,M,M,M,M,M,M,M,M,M,79.42,K05U 240430Z AUTO 00000KT 10SM CLR 27/07 A3029 RMK A01,M
HTH,2024-07-24 04:30,-118.6315,38.5448,1282.89,86.00,46.40,25.26,70.00,7.00,0.00,30.19,M,10.00,23.00,CLR,M,M,M,M,M,M,M,M,M,M,M,M,M,M,83.22,KHTH 240430Z AUTO 07007G23KT 10SM CLR 30/08 A3019 RMK A01,M
BVU,2024-07-24 04:35,-114.8611,35.9475,671.00,98.60,53.60,22.29,90.00,23.00,0.00,29.95,M,10.00,30.00,CLR,M,M,M,M,M,M,M,M,M,M,M,M,M,M,96.51,KBVU 240435Z AUTO 09023G30KT 10SM CLR 37/12 A2995 RMK AO2,M
CXP,2024-07-24 04:35,-119.7326,39.1923,1431.00,77.00,51.80,41.42,0.00,0.00,0.00,30.28,M,10.00,M,CLR,M,M,M,M,M,M,M,M,M,M,M,M,M,M,77.00,KCXP 240435Z AUTO 00000KT 10SM CLR 25/11 A3028 RMK AO2,M
RTS,2024-07-24 04:35,-119.8764,39.6682,1539.00,82.40,46.40,28.36,170.00,14.00,0.00,30.25,M,10.00,M,CLR,M,M,M,M,M,M,M,M,M,M,M,M,M,M,80.64,KRTS 240435Z AUTO 17014KT 10SM CLR 28/08 A3025 RMK AO2,M
MEV,2024-07-24 04:35,-119.7500,38.9963,1441.42,73.40,51.80,46.71,150.00,6.00,0.00,30.26,M,10.00,M,CLR,M,M,M,M,M,M,M,M,M,M,M,M,M,M,73.40,KMEV 240435Z AUTO 15006KT 10SM CLR 23/11 A3026 RMK AO2,M
10U,2024-07-24 04:35,-116.1876,41.9532,1637.00,78.80,44.60,29.79,40.00,5.00,0.00,30.20,M,10.00,11.00,CLR,M,M,M,M,M,M,M,M,M,M,M,M,M,M,78.80,K10U 240435Z AUTO 04005G11KT 10SM CLR 26/07 A3020 RMK AO2,M
BAM,2024-07-24 04:35,-116.8743,40.5990,1382.36,82.40,44.60,26.49,150.00,5.00,0.00,30.13,M,10.00,M,CLR,M,M,M,M,M,M,M,M,M,M,M,M,M,M,80.50,KBAM 240435Z AUTO 15005KT 10SM CLR 28/07 A3013 RMK AO1,M
TMT,2024-07-24 04:35,-117.1971,39.4643,1749.34,69.60,54.70,59.10,190.00,17.00,0.00,30.35,M,10.00,M,SCT,SCT,OVC,M,5000.00,7000.00,10000.00,M,M,M,M,M,M,M,M,69.60,KTMT 240435Z AUTO 19017KT 10SM SCT050 SCT070 OVC100 21/13 A3035 RMK AO2 T02090126,M
P68,2024-07-24 04:53,-116.0056,39.6014,1993.00,80.00,46.00,30.20,170.00,8.00,0.00,30.28,1015.00,M,M,M,M,M,M,M,M,M,M,M,M,M,M,M,M,M,79.20,KP68 240453Z AUTO 17008KT 27/08 A3028 RMK AO1 SLP150 T02670078,M
DRA,2024-07-24 04:53,-116.0278,36.6206,1009.00,97.00,54.00,23.75,220.00,11.00,0.00,30.03,1010.50,10.00,20.00,CLR,M,M,M,M,M,M,M,M,M,M,M,M,M,M,94.92,KDRA 240453Z AUTO 22011G20KT 10SM CLR 36/12 A3003 RMK AO2 SLP105 T03610122,M
ELY,2024-07-24 04:53,-114.8453,39.2950,1909.00,72.00,45.00,37.96,200.00,6.00,0.00,30.32,1014.70,10.00,M,CLR,M,M,M,M,M,M,M,M,M,M,M,M,M,M,72.00,KELY 240453Z AUTO 20006KT 10SM CLR 22/07 A3032 RMK AO2 SLP147 T02220072 $,M
VGT,2024-07-24 04:53,-115.1933,36.2111,667.00,103.00,50.00,17.10,160.00,10.00,0.00,29.93,1011.40,10.00,M,CLR,M,M,M,M,M,M,M,M,M,M,M,M,M,M,100.11,KVGT 240453Z AUTO 16010KT 10SM CLR 39/10 A2993 RMK AO2 LTG DSNT NE SLP114 T03940100,M
LOL,2024-07-24 04:53,-118.5701,40.0684,1192.43,84.00,47.00,27.55,110.00,3.00,0.00,30.11,1014.40,10.00,M,CLR,M,M,M,M,M,M,M,M,M,M,M,M,M,M,81.78,KLOL 240453Z AUTO 11003KT 10SM CLR 29/08 A3011 RMK AO2 SLP144 T02890083,M
NFL,2024-07-24 04:54,-118.7010,39.4166,1199.00,85.00,51.00,30.97,230.00,19.00,0.00,30.12,1016.60,10.00,27.00,SCT,BKN,BKN,M,7000.00,10000.00,14000.00,M,M,M,M,M,27.00,250.00,2024-07-24 04:36,82.97,KNFL 240454Z 23019G27KT 10SM SCT070 BKN100 BKN140 29/11 A3012 RMK AO2 PK WND 25027/0436 SLP166 T02940106,M
BVU,2024-07-24 04:55,-114.8611,35.9475,671.00,96.80,53.60,23.55,100.00,19.00,0.00,29.96,M,10.00,25.00,CLR,M,M,M,M,M,M,M,M,M,M,M,M,M,M,94.59,KBVU 240455Z AUTO 10019G25KT 10SM CLR 36/12 A2996 RMK AO2,M
CXP,2024-07-24 04:55,-119.7326,39.1923,1431.00,77.00,51.80,41.42,120.00,3.00,0.00,30.27,M,10.00,M,CLR,M,M,M,M,M,M,M,M,M,M,M,M,M,M,77.00,KCXP 240455Z AUTO 12003KT 10SM CLR 25/11 A3027 RMK AO2,M
INS,2024-07-24 04:55,-115.6733,36.5872,955.00,96.60,47.50,18.90,0.00,0.00,0.00,30.00,1009.40,10.00,M,OVC,M,M,M,18000.00,M,M,M,M,M,M,M,M,M,M,93.03,KINS 240455Z AUTO 00000KT 10SM OVC180 36/09 A3000 RMK AO2 SLP094 T03590086 $,M
RNO,2024-07-24 04:55,-119.7711,39.4839,1341.00,83.00,51.00,33.04,180.00,19.00,0.00,30.21,1016.20,10.00,M,FEW,M,M,M,8000.00,M,M,M,M,M,M,M,31.00,190.00,2024-07-24 04:08,81.51,KRNO 240455Z 18019KT 10SM FEW080 28/11 A3021 RMK AO2 PK WND 19031/0408 SLP162 T02830106,M
LSV,2024-07-24 04:55,-115.0343,36.2362,570.00,98.00,53.80,22.87,120.00,28.00,0.00,29.88,1008.40,10.00,34.00,SCT,M,M,M,14000.00,M,M,M,M,M,M,M,39.00,130.00,2024-07-24 04:44,95.93,KLSV 240455Z AUTO 12028G34KT 10SM SCT140 37/12 A2988 RMK AO2 PK WND 13039/44 SLP084 T03670121 $,M
RTS,2024-07-24 04:55,-119.8764,39.6682,1539.00,80.60,46.40,30.07,160.00,11.00,0.00,30.26,M,10.00,M,CLR,M,M,M,M,M,M,M,M,M,M,M,M,M,M,79.56,KRTS 240455Z AUTO 16011KT 10SM CLR 27/08 A3026 RMK AO2,M
05U,2024-07-24 04:55,-116.0051,39.6042,1811.23,80.60,46.40,30.07,170.00,3.00,0.00,30.31,M,10.00,M,CLR,M,M,M,M,M,M,M,M,M,M,M,M,M,M,79.56,K05U 240455Z AUTO 17003KT 10SM CLR 27/08 A3031 RMK A01,M
MEV,2024-07-24 04:55,-119.7500,38.9963,1441.42,75.20,51.80,43.97,0.00,0.00,0.00,30.26,M,10.00,M,CLR,M,M,M,M,M,M,M,M,M,M,M,M,M,M,75.20,KMEV 240455Z AUTO 00000KT 10SM CLR 24/11 A3026 RMK AO2,M
HTH,2024-07-24 04:55,-118.6315,38.5448,1282.89,86.00,46.40,25.26,90.00,8.00,0.00,30.19,M,10.00,M,CLR,M,M,M,M,M,M,M,M,M,M,M,M,M,M,83.22,KHTH 240455Z AUTO 09008KT 10SM CLR 30/08 A3019 RMK A01,M
BAM,2024-07-24 04:55,-116.8743,40.5990,1382.36,80.60,46.40,30.07,260.00,3.00,0.00,30.13,M,10.00,M,CLR,M,M,M,M,M,M,M,M,M,M,M,M,M,M,79.56,KBAM 240455Z AUTO 26003KT 10SM CLR 27/08 A3013 RMK AO1,M
10U,2024-07-24 04:55,-116.1876,41.9532,1637.00,77.00,42.80,29.51,100.00,7.00,0.00,30.21,M,10.00,M,CLR,M,M,M,M,M,M,M,M,M,M,M,M,M,M,77.00,K10U 240455Z AUTO 10007KT 10SM CLR 25/06 A3021 RMK AO2,M
TMT,2024-07-24 04:55,-117.1971,39.4643,1749.34,69.00,54.00,58.80,200.00,17.00,0.00,30.34,M,10.00,23.00,SCT,BKN,OVC,M,5000.00,7000.00,9000.00,M,-RA,M,M,M,M,M,M,69.00,KTMT 240455Z AUTO 20017G23KT 10SM -RA SCT050 BKN070 OVC090 21/12 A3034 RMK AO2 T02060122,M
EKO,2024-07-24 04:56,-115.7860,40.8242,1367.00,92.00,40.00,16.35,210.00,3.00,0.00,30.16,1013.30,10.00,M,CLR,M,M,M,M,M,M,M,M,M,M,M,32.00,240.00,2024-07-24 04:30,87.88,KEKO 240456Z AUTO 21003KT 10SM CLR 33/04 A3016 RMK AO2 PK WND 24032/0430 LTG DSNT NW SLP133 T03330044,M
WMC,2024-07-24 04:56,-117.8072,40.9019,1315.00,87.00,44.00,22.33,0.00,0.00,0.00,30.12,1013.40,10.00,M,CLR,M,M,M,M,M,M,M,M,M,M,M,M,M,M,83.82,KWMC 240456Z AUTO 00000KT 10SM CLR 31/07 A3012 RMK AO2 SLP134 T03060067,M
HND,2024-07-24 04:56,-115.1344,35.9729,742.79,97.00,53.00,22.90,180.00,9.00,0.00,29.99,1013.20,10.00,M,CLR,M,M,M,M,M,M,M,M,M,M,M,M,M,M,94.64,KHND 240456Z AUTO 18009KT 10SM CLR 36/12 A2999 RMK AO2 SLP132 T03610117,M
TPH,2024-07-24 04:56,-117.0904,38.0505,1654.00,85.00,45.00,24.73,330.00,17.00,0.00,30.25,1014.60,10.00,27.00,FEW,M,M,M,10000.00,M,M,M,M,M,M,M,27.00,320.00,2024-07-24 04:56,82.34,KTPH 240456Z AUTO 33017G27KT 10SM FEW100 29/07 A3025 RMK AO2 PK WND 32027/0456 SLP146 T02940072,M
LAS,2024-07-24 04:56,-115.1634,36.0719,663.00,103.00,50.00,17.10,200.00,6.00,0.00,29.87,1004.30,10.00,M,FEW,BKN,BKN,M,12000.00,16000.00,20000.00,M,M,M,M,M,M,M,M,100.11,KLAS 240456Z 20006KT 10SM FEW120 BKN160 BKN200 39/10 A2987 RMK AO2 SLP043 T03940100 $,M
CXP,2024-07-24 05:10,-119.7326,39.1923,1431.00,75.20,51.80,43.97,0.00,0.00,0.00,30.27,M,10.00,M,CLR,M,M,M,M,M,M,M,M,M,M,M,M,M,M,75.20,KCXP 240510Z AUTO 00000KT 10SM CLR 24/11 A3027 RMK AO2,M
10U,2024-07-24 05:10,-116.1876,41.9532,1637.00,75.20,44.60,33.57,100.00,5.00,0.00,30.20,M,10.00,M,CLR,M,M,M,M,M,M,M,M,M,M,M,M,M,M,75.20,K10U 240510Z AUTO 10005KT 10SM CLR 24/07 A3020 RMK AO2,M
VGT,2024-07-24 05:13,-115.1933,36.2111,667.00,99.00,57.00,24.92,80.00,11.00,0.00,29.96,M,10.00,26.00,FEW,M,M,M,10000.00,M,M,M,M,M,M,M,26.00,130.00,2024-07-24 05:00,98.12,KVGT 240513Z AUTO 08011G26KT 10SM FEW100 37/14 A2996 RMK AO2 PK WND 13026/0500 WSHFT 0453 LTG DSNT NE PRESRR T03720139,M
BVU,2024-07-24 05:15,-114.8611,35.9475,671.00,95.00,53.60,24.89,120.00,17.00,0.00,29.97,M,10.00,22.00,CLR,M,M,M,M,M,M,M,M,M,M,M,M,M,M,92.71,KBVU 240515Z AUTO 12017G22KT 10SM CLR 35/12 A2997 RMK AO2,M
RTS,2024-07-24 05:15,-119.8764,39.6682,1539.00,80.60,46.40,30.07,170.00,12.00,0.00,30.26,M,10.00,M,CLR,M,M,M,M,M,M,M,M,M,M,M,M,M,M,79.56,KRTS 240515Z AUTO 17012KT 10SM CLR 27/08 A3026 RMK AO2,M
05U,2024-07-24 05:15,-116.0051,39.6042,1811.23,80.60,44.60,28.08,0.00,0.00,0.00,30.31,M,10.00,M,CLR,M,M,M,M,M,M,M,M,M,M,M,M,M,M,79.42,K05U 240515Z AUTO 00000KT 10SM CLR 27/07 A3031 RMK A01,M
MEV,2024-07-24 05:15,-119.7500,38.9963,1441.42,71.60,51.80,49.64,0.00,0.00,0.00,30.26,M,10.00,M,CLR,M,M,M,M,M,M,M,M,M,M,M,M,M,M,71.60,KMEV 240515Z AUTO 00000KT 10SM CLR 22/11 A3026 RMK AO2,M
BAM,2024-07-24 05:15,-116.8743,40.5990,1382.36,84.20,48.20,28.63,260.00,10.00,0.00,30.15,M,10.00,M,CLR,M,M,M,M,M,M,M,M,M,M,M,M,M,M,82.04,KBAM 240515Z AUTO 26010KT 10SM CLR 29/09 A3015 RMK AO1,M
HTH,2024-07-24 05:15,-118.6315,38.5448,1282.89,84.20,46.40,26.76,100.00,8.00,0.00,30.20,M,10.00,M,CLR,M,M,M,M,M,M,M,M,M,M,M,M,M,M,81.87,KHTH 240515Z AUTO 10008KT 10SM CLR 29/08 A3020 RMK A01,M
TMT,2024-07-24 05:15,-117.1971,39.4643,1749.34,70.70,53.20,53.88,200.00,11.00,0.00,30.34,M,10.00,14.00,SCT,OVC,M,M,7000.00,9000.00,M,M,M,M,M,M,M,M,M,70.70,KTMT 240515Z AUTO 20011G14KT 10SM SCT070 OVC090 22/12 A3034 RMK AO2 T02150118,M
BVU,2024-07-24 05:35,-114.8611,35.9475,671.00,95.00,53.60,24.89,110.00,16.00,0.00,29.97,M,10.00,M,CLR,M,M,M,M,M,M,M,M,M,M,M,M,M,M,92.71,KBVU 240535Z AUTO 11016KT 10SM CLR 35/12 A2997 RMK AO2,M
CXP,2024-07-24 05:35,-119.7326,39.1923,1431.00,77.00,51.80,41.42,0.00,0.00,0.00,30.27,M,10.00,M,CLR,M,M,M,M,M,M,M,M,M,M,M,M,M,M,77.00,KCXP 240535Z AUTO 00000KT 10SM CLR 25/11 A3027 RMK AO2,M
RTS,2024-07-24 05:35,-119.8764,39.6682,1539.00,80.60,48.20,32.18,170.00,7.00,0.00,30.26,M,10.00,14.00,CLR,M,M,M,M,M,M,M,M,M,M,M,M,M,M,79.71,KRTS 240535Z AUTO 17007G14KT 10SM CLR 27/09 A3026 RMK AO2,M
05U,2024-07-24 05:35,-116.0051,39.6042,1811.23,78.80,44.60,29.79,0.00,0.00,0.00,30.32,M,10.00,M,CLR,M,M,M,M,M,M,M,M,M,M,M,M,M,M,78.80,K05U 240535Z AUTO 00000KT 10SM CLR 26/07 A3032 RMK A01,M
MEV,2024-07-24 05:35,-119.7500,38.9963,1441.42,69.80,51.80,52.77,0.00,0.00,0.00,30.26,M,10.00,M,CLR,M,M,M,M,M,M,M,M,M,M,M,M,M,M,69.80,KMEV 240535Z AUTO 00000KT 10SM CLR 21/11 A3026 RMK AO2,M
HTH,2024-07-24 05:35,-118.6315,38.5448,1282.89,84.20,46.40,26.76,140.00,6.00,0.00,30.20,M,10.00,M,CLR,M,M,M,M,M,M,M,M,M,M,M,M,M,M,81.87,KHTH 240535Z AUTO 14006KT 10SM CLR 29/08 A3020 RMK A01,M
10U,2024-07-24 05:35,-116.1876,41.9532,1637.00,73.40,44.60,35.66,150.00,5.00,0.00,30.21,M,10.00,M,CLR,M,M,M,M,M,M,M,M,M,M,M,M,M,M,73.40,K10U 240535Z AUTO 15005KT 10SM CLR 23/07 A3021 RMK AO2,M
BAM,2024-07-24 05:35,-116.8743,40.5990,1382.36,86.00,50.00,28.90,250.00,18.00,0.00,30.16,M,10.00,26.00,CLR,M,M,M,M,M,M,M,M,M,M,M,M,M,M,83.62,KBAM 240535Z AUTO 25018G26KT 10SM CLR 30/10 A3016 RMK AO1,M
TMT,2024-07-24 05:35,-117.1971,39.4643,1749.34,69.30,54.30,58.84,220.00,8.00,0.00,30.34,M,10.00,M,SCT,BKN,M,M,8500.00,11000.00,M,M,M,M,M,M,M,M,M,69.30,KTMT 240535Z AUTO 22008KT 10SM SCT085 BKN110 21/12 A3034 RMK AO2 T02070124,M
LSV,2024-07-24 05:43,-115.0343,36.2362,570.00,96.80,53.60,23.55,80.00,18.00,0.00,29.95,1010.80,10.00,22.00,BKN,OVC,M,M,13000.00,15000.00,M,M,M,M,M,M,M,M,M,94.59,KLSV 240543Z AUTO 08018G22KT 10SM BKN130 OVC150 36/12 A2995 RMK AO2 WSHFT 31 PRESRR SLP108 $,M
LSV,2024-07-24 05:52,-115.0343,36.2362,570.00,96.80,57.20,26.84,40.00,24.00,0.00,29.98,1011.80,10.00,M,FEW,OVC,M,M,10000.00,13000.00,M,M,M,M,M,M,M,M,M,95.77,KLSV 240552Z AUTO 04024KT 10SM FEW100 OVC130 36/14 A2998 RMK AO2 WSHFT 43 PRESRR SLP118 $,M
P68,2024-07-24 05:53,-116.0056,39.6014,1993.00,78.00,45.00,31.06,230.00,7.00,0.00,30.29,1015.50,M,M,M,M,M,M,M,M,M,M,M,M,M,M,M,M,M,78.00,KP68 240553Z AUTO 23007KT 26/07 A3029 RMK AO1 SLP155 T02560072 10344 20256 51018,M
DRA,2024-07-24 05:53,-116.0278,36.6206,1009.00,96.00,54.00,24.49,210.00,11.00,0.00,30.04,1010.90,10.00,M,CLR,M,M,M,M,M,M,M,M,M,M,M,M,M,M,93.86,KDRA 240553Z AUTO 21011KT 10SM CLR 36/12 A3004 RMK AO2 SLP109 T03560122 10411 20356 51021,M
ELY,2024-07-24 05:53,-114.8453,39.2950,1909.00,68.00,45.00,43.51,190.00,7.00,0.00,30.33,1015.10,10.00,M,CLR,M,M,M,M,M,M,M,M,M,M,M,M,M,M,68.00,KELY 240553Z AUTO 19007KT 10SM CLR 20/07 A3033 RMK AO2 SLP151 T02000072 10322 20194 51015 $,M
VGT,2024-07-24 05:53,-115.1933,36.2111,667.00,97.00,57.00,26.49,60.00,22.00,0.00,30.00,1014.00,10.00,31.00,CLR,M,M,M,M,M,M,M,M,M,M,M,31.00,60.00,2024-07-24 05:52,95.92,KVGT 240553Z AUTO 06022G31KT 10SM CLR 36/14 A3000 RMK AO2 PK WND 06031/0552 WSHFT 0453 LTG DSNT NE SLP140 T03610139 10433 20361 53040,M
LSV,2024-07-24 05:53,-115.0343,36.2362,570.00,96.80,57.20,26.84,30.00,24.00,0.00,29.98,1011.80,10.00,M,FEW,OVC,M,M,10000.00,13000.00,M,M,-DZ,M,M,M,M,M,M,95.77,KLSV 240553Z AUTO 03024KT 10SM -DZ FEW100 OVC130 36/14 A2998 RMK AO2 DZB53 SLP118 $,M
LOL,2024-07-24 05:53,-118.5701,40.0684,1192.43,82.00,45.00,27.24,230.00,6.00,0.00,30.12,1014.60,10.00,M,CLR,M,M,M,M,M,M,M,M,M,M,M,M,M,M,80.28,KLOL 240553Z AUTO 23006KT 10SM CLR 28/07 A3012 RMK AO2 SLP146 T02780072 10378 20272 53013,M
NFL,2024-07-24 05:54,-118.7010,39.4166,1199.00,83.00,50.00,31.83,240.00,14.00,0.00,30.13,1016.70,10.00,M,FEW,BKN,BKN,M,7000.00,12000.00,14000.00,M,M,M,M,M,26.00,230.00,2024-07-24 04:55,81.39,KNFL 240554Z 24014KT 10SM FEW070 BKN120 BKN140 28/10 A3013 RMK AO2 PK WND 23026/0455 SLP167 T02830100 10378 20283 51006,M
BVU,2024-07-24 05:55,-114.8611,35.9475,671.00,95.00,53.60,24.89,100.00,13.00,0.00,29.98,M,10.00,20.00,CLR,M,M,M,M,M,M,M,M,M,M,M,M,M,M,92.71,KBVU 240555Z AUTO 10013G20KT 10SM CLR 35/12 A2998 RMK AO2,M
CXP,2024-07-24 05:55,-119.7326,39.1923,1431.00,77.00,50.00,38.74,0.00,0.00,0.00,30.27,M,10.00,M,CLR,M,M,M,M,M,M,M,M,M,M,M,M,M,M,77.00,KCXP 240555Z AUTO 00000KT 10SM CLR 25/10 A3027 RMK AO2,M
INS,2024-07-24 05:55,-115.6733,36.5872,955.00,97.50,48.20,18.87,350.00,14.00,0.00,30.05,1011.00,10.00,19.00,OVC,M,M,M,12000.00,M,M,M,M,M,M,M,M,M,M,94.06,KINS 240555Z AUTO 35014G19KT 10SM OVC120 36/09 A3005 RMK AO2 LTG DSNT N AND E SLP110 T03640090 10402 20355 52028 $,M
RNO,2024-07-24 05:55,-119.7711,39.4839,1341.00,82.00,51.00,34.12,160.00,13.00,0.00,30.20,1015.70,10.00,M,FEW,M,M,M,10000.00,M,M,M,M,M,M,M,M,M,M,80.84,KRNO 240555Z 16013KT 10SM FEW100 28/11 A3020 RMK AO2 SLP157 T02780106 10389 20278 50009,M
RTS,2024-07-24 05:55,-119.8764,39.6682,1539.00,78.80,48.20,34.13,0.00,0.00,0.00,30.26,M,10.00,M,CLR,M,M,M,M,M,M,M,M,M,M,M,M,M,M,78.80,KRTS 240555Z AUTO 00000KT 10SM CLR 26/09 A3026 RMK AO2,M
05U,2024-07-24 05:55,-116.0051,39.6042,1811.23,78.80,44.60,29.79,0.00,0.00,0.00,30.32,M,10.00,M,CLR,M,M,M,M,M,M,M,M,M,M,M,M,M,M,78.80,K05U 240555Z AUTO 00000KT 10SM CLR 26/07 A3032 RMK A01,M
MEV,2024-07-24 05:55,-119.7500,38.9963,1441.42,68.00,51.80,56.13,130.00,3.00,0.00,30.25,M,10.00,M,CLR,M,M,M,M,M,M,M,M,M,M,M,M,M,M,68.00,KMEV 240555Z AUTO 13003KT 10SM CLR 20/11 A3025 RMK AO2,M
HTH,2024-07-24 05:55,-118.6315,38.5448,1282.89,84.20,46.40,26.76,200.00,7.00,0.00,30.20,M,10.00,M,FEW,FEW,SCT,M,6500.00,7500.00,8000.00,M,M,M,M,M,M,M,M,81.87,KHTH 240555Z AUTO 20007KT 10SM FEW065 FEW075 SCT080 29/08 A3020 RMK A01,M
10U,2024-07-24 05:55,-116.1876,41.9532,1637.00,75.20,42.80,31.34,160.00,5.00,0.00,30.21,M,10.00,M,CLR,M,M,M,M,M,M,M,M,M,M,M,M,M,M,75.20,K10U 240555Z AUTO 16005KT 10SM CLR 24/06 A3021 RMK AO2,M
BAM,2024-07-24 05:55,-116.8743,40.5990,1382.36,86.00,50.00,28.90,230.00,13.00,0.00,30.17,M,10.00,27.00,CLR,M,M,M,M,M,M,M,M,M,M,M,M,M,M,83.62,KBAM 240555Z AUTO 23013G27KT 10SM CLR 30/10 A3017 RMK AO1,M
TMT,2024-07-24 05:55,-117.1971,39.4643,1749.34,68.40,55.20,62.71,230.00,7.00,0.00,30.34,M,10.00,M,SCT,BKN,M,M,10000.00,11000.00,M,M,M,M,M,M,M,M,M,68.40,KTMT 240555Z AUTO 23007KT 10SM SCT100 BKN110 20/13 A3034 RMK AO2 T02020129 10325 20196,M
LSV,2024-07-24 05:55,-115.0343,36.2362,570.00,96.00,58.50,28.82,30.00,24.00,T,29.98,1011.80,10.00,M,OVC,M,M,M,13000.00,M,M,M,-DZ,M,M,M,36.00,130.00,2024-07-24 05:00,95.40,KLSV 240555Z AUTO 03024KT 10SM -DZ OVC130 36/15 A2998 RMK AO2 PK WND 13036/00 LTG DSNT NE DZB53 SLP118 P0000 60000 T03550147 10433 20355 53052 $,M
EKO,2024-07-24 05:56,-115.7860,40.8242,1367.00,88.00,42.00,20.03,110.00,8.00,0.00,30.20,1014.70,10.00,M,FEW,M,M,M,10000.00,M,M,M,M,M,M,M,M,M,M,84.52,KEKO 240556Z AUTO 11008KT 080V140 10SM FEW100 31/06 A3020 RMK AO2 SLP147 T03110056 10372 20267 53021,M
WMC,2024-07-24 05:56,-117.8072,40.9019,1315.00,79.00,42.00,26.79,240.00,5.00,0.00,30.14,1014.10,10.00,M,CLR,M,M,M,M,M,M,M,M,M,M,M,M,M,M,79.00,KWMC 240556Z AUTO 24005KT 10SM CLR 26/06 A3014 RMK AO2 SLP141 T02610056 10378 20261 51021,M
HND,2024-07-24 05:56,-115.1344,35.9729,742.79,95.00,57.00,28.16,120.00,6.00,0.00,30.04,1014.80,10.00,M,CLR,M,M,M,M,M,M,M,M,M,M,M,M,M,M,93.75,KHND 240556Z AUTO 12006KT 10SM CLR 35/14 A3004 RMK AO2 SLP148 T03500139 10417 20350 53030,M
TPH,2024-07-24 05:56,-117.0904,38.0505,1654.00,83.00,47.00,28.45,180.00,4.00,T,30.30,1016.20,10.00,M,FEW,OVC,M,M,8500.00,10000.00,M,M,M,M,M,M,M,M,M,81.09,KTPH 240556Z AUTO 18004KT 10SM FEW085 OVC100 28/08 A3030 RMK AO2 RAB32E42 SLP162 P0000 60000 T02830083 10356 20283 53034,M
LAS,2024-07-24 05:56,-115.1634,36.0719,663.00,98.00,56.00,24.78,100.00,10.00,0.00,29.98,1008.40,10.00,M,SCT,OVC,M,M,13000.00,17000.00,M,M,M,M,M,M,29.00,90.00,2024-07-24 05:11,96.65,KLAS 240556Z 10010KT 10SM SCT130 OVC170 37/13 A2998 RMK AO2 PK WND 09029/0511 SLP084 FRQ LTGICCG DSNT N-NE PRESRR T03670133 10428 20367 53028 $,M
BVU,2024-07-24 06:15,-114.8611,35.9475,671.00,95.00,53.60,24.89,90.00,9.00,0.00,29.99,M,10.00,M,CLR,M,M,M,M,M,M,M,M,M,M,M,M,M,M,92.71,KBVU 240615Z AUTO 09009KT 10SM CLR 35/12 A2999 RMK AO2,M
CXP,2024-07-24 06:15,-119.7326,39.1923,1431.00,75.20,50.00,41.14,0.00,0.00,0.00,30.26,M,10.00,M,CLR,M,M,M,M,M,M,M,M,M,M,M,M,M,M,75.20,KCXP 240615Z AUTO 00000KT 10SM CLR 24/10 A3026 RMK AO2,M
RTS,2024-07-24 06:15,-119.8764,39.6682,1539.00,77.00,46.40,33.85,70.00,5.00,0.00,30.26,M,10.00,M,CLR,M,M,M,M,M,M,M,M,M,M,M,M,M,M,77.00,KRTS 240615Z AUTO 07005KT 10SM CLR 25/08 A3026 RMK AO2,M
05U,2024-07-24 06:15,-116.0051,39.6042,1811.23,75.20,44.60,33.57,210.00,5.00,0.00,30.32,M,10.00,M,CLR,M,M,M,M,M,M,M,M,M,M,M,M,M,M,75.20,K05U 240615Z AUTO 21005KT 10SM CLR 24/07 A3032 RMK A01,M
MEV,2024-07-24 06:15,-119.7500,38.9963,1441.42,66.20,53.60,63.82,130.00,5.00,0.00,30.26,M,10.00,M,CLR,M,M,M,M,M,M,M,M,M,M,M,M,M,M,66.20,KMEV 240615Z AUTO 13005KT 10SM CLR 19/12 A3026 RMK AO2,M
HTH,2024-07-24 06:15,-118.6315,38.5448,1282.89,82.40,46.40,28.36,200.00,8.00,0.00,30.20,M,10.00,M,FEW,FEW,M,M,6500.00,8000.00,M,M,M,M,M,M,M,M,M,80.64,KHTH 240615Z AUTO 20008KT 10SM FEW065 FEW080 28/08 A3020 RMK A01,M
10U,2024-07-24 06:15,-116.1876,41.9532,1637.00,77.00,42.80,29.51,150.00,6.00,0.00,30.22,M,10.00,M,CLR,M,M,M,M,M,M,M,M,M,M,M,M,M,M,77.00,K10U 240615Z AUTO 15006KT 10SM CLR 25/06 A3022 RMK AO2,M
BAM,2024-07-24 06:15,-116.8743,40.5990,1382.36,82.40,51.80,34.69,250.00,13.00,0.00,30.19,M,7.00,18.00,SCT,SCT,M,M,5000.00,5500.00,M,M,M,M,M,M,M,M,M,81.20,KBAM 240615Z AUTO 25013G18KT 7SM SCT050 SCT055 28/11 A3019 RMK AO1,M
TMT,2024-07-24 06:15,-117.1971,39.4643,1749.34,66.40,57.40,72.76,230.00,5.00,0.00,30.34,M,10.00,M,SCT,SCT,M,M,10000.00,12000.00,M,M,M,M,M,M,M,M,M,66.40,KTMT 240615Z AUTO 23005KT 10SM SCT100 SCT120 19/14 A3034 RMK AO2 T01910141,M
LSV,2024-07-24 06:17,-115.0343,36.2362,570.00,87.80,66.20,48.84,50.00,26.00,0.00,29.99,1012.30,10.00,34.00,OVC,M,M,M,13000.00,M,M,M,VCTS,M,M,M,M,M,M,90.31,KLSV 240617Z AUTO 05026G34KT 10SM VCTS OVC130 31/19 A2999 RMK AO2 DZE0555RAB0555E07DZB07E17 SLP123 $,M
05U,2024-07-24 06:30,-116.0051,39.6042,1811.23,75.20,44.60,33.57,0.00,0.00,0.00,30.33,M,10.00,M,CLR,M,M,M,M,M,M,M,M,M,M,M,M,M,M,75.20,K05U 240630Z AUTO 00000KT 10SM CLR 24/07 A3033 RMK A01,M
BVU,2024-07-24 06:35,-114.8611,35.9475,671.00,93.20,55.40,28.10,20.00,9.00,0.00,30.02,M,10.00,M,CLR,M,M,M,M,M,M,M,M,M,M,M,M,M,M,91.35,KBVU 240635Z AUTO 02009KT 10SM CLR 34/13 A3002 RMK AO2,M
CXP,2024-07-24 06:35,-119.7326,39.1923,1431.00,75.20,50.00,41.14,0.00,0.00,0.00,30.26,M,10.00,M,CLR,M,M,M,M,M,M,M,M,M,M,M,M,M,M,75.20,KCXP 240635Z AUTO 00000KT 10SM CLR 24/10 A3026 RMK AO2,M
RTS,2024-07-24 06:35,-119.8764,39.6682,1539.00,77.00,48.20,36.22,300.00,5.00,0.00,30.27,M,10.00,M,CLR,M,M,M,M,M,M,M,M,M,M,M,M,M,M,77.00,KRTS 240635Z AUTO 30005KT 10SM CLR 25/09 A3027 RMK AO2,M
MEV,2024-07-24 06:35,-119.7500,38.9963,1441.42,68.00,51.80,56.13,110.00,3.00,0.00,30.25,M,10.00,M,CLR,M,M,M,M,M,M,M,M,M,M,M,M,M,M,68.00,KMEV 240635Z AUTO 11003KT 10SM CLR 20/11 A3025 RMK AO2,M
BAM,2024-07-24 06:35,-116.8743,40.5990,1382.36,80.60,53.60,39.30,250.00,14.00,0.00,30.20,M,10.00,19.00,SCT,SCT,M,M,4700.00,5000.00,M,M,M,M,M,M,M,M,M,80.29,KBAM 240635Z AUTO 25014G19KT 10SM SCT047 SCT050 27/12 A3020 RMK AO1,M
HTH,2024-07-24 06:35,-118.6315,38.5448,1282.89,82.40,46.40,28.36,190.00,4.00,0.00,30.21,M,10.00,M,CLR,M,M,M,M,M,M,M,M,M,M,M,M,M,M,80.64,KHTH 240635Z AUTO 19004KT 10SM CLR 28/08 A3021 RMK A01,M
10U,2024-07-24 06:35,-116.1876,41.9532,1637.00,73.40,42.80,33.29,0.00,0.00,0.00,30.22,M,10.00,M,CLR,M,M,M,M,M,M,M,M,M,M,M,M,M,M,73.40,K10U 240635Z AUTO 00000KT 10SM CLR 23/06 A3022 RMK AO2,M
TMT,2024-07-24 06:35,-117.1971,39.4643,1749.34,66.00,57.20,73.25,210.00,8.00,0.00,30.34,M,10.00,M,BKN,M,M,M,11000.00,M,M,M,M,M,M,M,M,M,M,66.00,KTMT 240635Z AUTO 21008KT 10SM BKN110 19/14 A3034 RMK AO2 T01890140,M
LSV,2024-07-24 06:38,-115.0343,36.2362,570.00,87.80,66.20,48.84,50.00,27.00,0.00,29.99,1012.30,10.00,M,FEW,SCT,SCT,OVC,6500.00,8000.00,9500.00,13000.00,-RA,M,M,M,M,M,M,90.31,KLSV 240638Z AUTO 05027KT 10SM -RA FEW065 SCT080 SCT095 OVC130 31/19 A2999 RMK AO2 LTG DSNT NE DZE0555RAB0555E07DZB07E17RAB38 SLP123 $,M
DRA,2024-07-24 06:44,-116.0278,36.6206,1009.00,92.00,56.00,29.81,110.00,21.00,0.00,30.08,M,10.00,38.00,FEW,BKN,M,M,9500.00,12000.00,M,M,M,M,M,M,38.00,120.00,2024-07-24 06:36,90.30,KDRA 240644Z AUTO 11021G38KT 10SM FEW095 BKN120 33/13 A3008 RMK AO2 PK WND 12038/0636 WSHFT 0627 T03330133,M
P68,2024-07-24 06:53,-116.0056,39.6014,1993.00,75.00,44.00,33.03,170.00,4.00,0.00,30.31,1016.40,M,M,M,M,M,M,M,M,M,M,M,M,M,M,M,M,M,75.00,KP68 240653Z AUTO 17004KT 24/07 A3031 RMK AO1 SLP164 T02390067,M
DRA,2024-07-24 06:53,-116.0278,36.6206,1009.00,89.00,57.00,33.96,110.00,18.00,0.00,30.09,1012.60,10.00,30.00,BKN,M,M,M,12000.00,M,M,M,M,M,M,M,38.00,120.00,2024-07-24 06:36,87.64,KDRA 240653Z AUTO 11018G30KT 10SM BKN120 32/14 A3009 RMK AO2 PK WND 12038/0636 WSHFT 0627 SLP126 T03170139,M
ELY,2024-07-24 06:53,-114.8453,39.2950,1909.00,70.00,46.00,42.20,190.00,11.00,0.00,30.34,1015.00,10.00,M,CLR,M,M,M,M,M,M,M,M,M,M,M,M,M,M,70.00,KELY 240653Z AUTO 19011KT 10SM CLR 21/08 A3034 RMK AO2 SLP150 T02110078 $,M
VGT,2024-07-24 06:53,-115.1933,36.2111,667.00,91.00,62.00,38.12,40.00,11.00,0.00,30.04,1015.60,10.00,21.00,CLR,M,M,M,M,M,M,M,M,M,M,M,32.00,70.00,2024-07-24 06:02,91.51,KVGT 240653Z AUTO 04011G21KT 10SM CLR 33/17 A3004 RMK AO2 PK WND 07032/0602 SLP156 T03280167,M
LOL,2024-07-24 06:53,-118.5701,40.0684,1192.43,79.00,49.00,34.94,190.00,5.00,0.00,30.13,1015.20,10.00,M,CLR,M,M,M,M,M,M,M,M,M,M,M,M,M,M,79.00,KLOL 240653Z AUTO 19005KT 10SM CLR 26/09 A3013 RMK AO2 SLP152 T02610094,M
NFL,2024-07-24 06:54,-118.7010,39.4166,1199.00,82.00,50.00,32.88,0.00,0.00,0.00,30.15,1017.50,10.00,M,CLR,M,M,M,M,M,M,M,M,M,M,M,M,M,M,80.73,KNFL 240654Z AUTO 00000KT 10SM CLR 28/10 A3015 RMK AO2 SLP175 T02780100,M
BVU,2024-07-24 06:55,-114.8611,35.9475,671.00,93.20,55.40,28.10,30.00,10.00,0.00,30.03,M,10.00,17.00,SCT,M,M,M,12000.00,M,M,M,M,M,M,M,M,M,M,91.35,KBVU 240655Z AUTO 03010G17KT 10SM SCT120 34/13 A3003 RMK AO2,M
CXP,2024-07-24 06:55,-119.7326,39.1923,1431.00,75.20,50.00,41.14,0.00,0.00,0.00,30.26,M,10.00,M,CLR,M,M,M,M,M,M,M,M,M,M,M,M,M,M,75.20,KCXP 240655Z AUTO 00000KT 10SM CLR 24/10 A3026 RMK AO2,M
INS,2024-07-24 06:55,-115.6733,36.5872,955.00,91.40,54.70,28.97,M,M,0.00,30.09,1012.40,10.00,M,OVC,M,M,M,12000.00,M,M,M,M,M,M,M,31.00,140.00,2024-07-24 06:05,89.34,KINS 240655Z AUTO M 10SM OVC120 33/13 A3009 RMK AO2 PK WND 14031/05 SLP124 T03300126 $,M
RNO,2024-07-24 06:55,-119.7711,39.4839,1341.00,81.00,50.00,33.97,0.00,0.00,0.00,30.21,1015.80,10.00,M,BKN,M,M,M,15000.00,M,M,M,M,M,M,M,M,M,M,80.12,KRNO 240655Z 00000KT 10SM BKN150 27/10 A3021 RMK AO2 SLP158 T02720100,M
RTS,2024-07-24 06:55,-119.8764,39.6682,1539.00,75.20,48.20,38.46,10.00,3.00,0.00,30.27,M,10.00,M,CLR,M,M,M,M,M,M,M,M,M,M,M,M,M,M,75.20,KRTS 240655Z AUTO 01003KT 10SM CLR 24/09 A3027 RMK AO2,M
05U,2024-07-24 06:55,-116.0051,39.6042,1811.23,75.20,44.60,33.57,0.00,0.00,0.00,30.34,M,10.00,M,BKN,M,M,M,11000.00,M,M,M,M,M,M,M,M,M,M,75.20,K05U 240655Z AUTO 00000KT 10SM BKN110 24/07 A3034 RMK A01,M
MEV,2024-07-24 06:55,-119.7500,38.9963,1441.42,68.00,51.80,56.13,70.00,5.00,0.00,30.25,M,10.00,M,CLR,M,M,M,M,M,M,M,M,M,M,M,M,M,M,68.00,KMEV 240655Z AUTO 07005KT 10SM CLR 20/11 A3025 RMK AO2,M
HTH,2024-07-24 06:55,-118.6315,38.5448,1282.89,82.40,46.40,28.36,0.00,0.00,0.00,30.21,M,10.00,M,CLR,M,M,M,M,M,M,M,M,M,M,M,M,M,M,80.64,KHTH 240655Z AUTO 00000KT 10SM CLR 28/08 A3021 RMK A01,M
10U,2024-07-24 06:55,-116.1876,41.9532,1637.00,77.00,41.00,27.53,140.00,7.00,0.00,30.22,M,10.00,M,CLR,M,M,M,M,M,M,M,M,M,M,M,M,M,M,77.00,K10U 240655Z AUTO 14007KT 10SM CLR 25/05 A3022 RMK AO2,M
BAM,2024-07-24 06:55,-116.8743,40.5990,1382.36,82.40,51.80,34.69,240.00,13.00,0.00,30.20,M,10.00,22.00,SCT,SCT,M,M,4800.00,5500.00,M,M,M,M,M,M,M,M,M,81.20,KBAM 240655Z AUTO 24013G22KT 10SM SCT048 SCT055 28/11 A3020 RMK AO1,M
TMT,2024-07-24 06:55,-117.1971,39.4643,1749.34,67.50,55.80,66.11,240.00,7.00,0.00,30.34,M,10.00,M,OVC,M,M,M,11000.00,M,M,M,M,M,M,M,M,M,M,67.50,KTMT 240655Z AUTO 24007KT 10SM OVC110 20/13 A3034 RMK AO2 T01970132,M
LSV,2024-07-24 06:55,-115.0343,36.2362,570.00,84.20,66.70,55.76,40.00,24.00,T,29.98,1012.00,10.00,34.00,FEW,SCT,OVC,M,6500.00,8500.00,13000.00,M,-RA,M,M,M,34.00,40.00,2024-07-24 06:49,86.74,KLSV 240655Z AUTO 04024G34KT 10SM -RA FEW065 SCT085 OVC130 29/19 A2998 RMK AO2 PK WND 04034/49 DZE0555RAB0555E07DZB07E17RAB38 SLP120 P0000 T02900193 $,M
EKO,2024-07-24 06:56,-115.7860,40.8242,1367.00,85.00,46.00,25.69,250.00,15.00,0.00,30.23,1015.80,10.00,19.00,FEW,M,M,M,12000.00,M,M,M,M,M,M,M,M,M,M,82.42,KEKO 240656Z AUTO 25015G19KT 10SM FEW120 29/08 A3023 RMK AO2 SLP158 T02940078,M
WMC,2024-07-24 06:56,-117.8072,40.9019,1315.00,84.00,44.00,24.58,220.00,11.00,0.00,30.14,1014.00,10.00,16.00,CLR,M,M,M,M,M,M,M,M,M,M,M,M,M,M,81.54,KWMC 240656Z AUTO 22011G16KT 10SM CLR 29/07 A3014 RMK AO2 SLP140 T02890067,M
HND,2024-07-24 06:56,-115.1344,35.9729,742.79,91.00,60.00,35.51,50.00,12.00,0.00,30.08,1016.30,10.00,25.00,CLR,M,M,M,M,M,M,M,M,M,M,M,M,M,M,90.65,KHND 240656Z AUTO 05012G25KT 10SM CLR 33/16 A3008 RMK AO2 SLP163 T03280156 404280317,M
TPH,2024-07-24 06:56,-117.0904,38.0505,1654.00,81.00,49.00,32.73,330.00,3.00,0.00,30.29,1015.40,10.00,M,CLR,M,M,M,M,M,M,M,M,M,M,M,M,M,M,80.02,KTPH 240656Z AUTO 33003KT 10SM CLR 27/09 A3029 RMK AO2 SLP154 T02720094,M
LAS,2024-07-24 06:56,-115.1634,36.0719,663.00,90.00,63.00,40.75,20.00,21.00,0.00,30.04,1010.40,10.00,27.00,SCT,OVC,M,M,13000.00,18000.00,M,M,M,M,M,M,35.00,50.00,2024-07-24 06:22,90.93,KLAS 240656Z 02021G27KT 10SM SCT130 OVC180 32/17 A3004 RMK AO2 PK WND 05035/0622 SLP104 OCNL LTGICCG DSNT N-E VIRGA W PRESRR T03220172 $,M
INS,2024-07-24 07:10,-115.6733,36.5872,955.00,91.40,54.70,28.97,350.00,17.00,0.00,30.09,1012.40,10.00,M,OVC,M,M,M,12000.00,M,M,M,M,M,M,M,31.00,140.00,2024-07-24 07:05,89.34,KINS 240710Z AUTO 35017KT 10SM OVC120 33/13 A3009 RMK AO2 PK WND 14031/05 SLP124 T03300126 $,M
05U,2024-07-24 07:10,-116.0051,39.6042,1811.23,75.20,44.60,33.57,0.00,0.00,0.00,30.35,M,10.00,M,BKN,M,M,M,11000.00,M,M,M,M,M,M,M,M,M,M,75.20,K05U 240710Z AUTO 00000KT 10SM BKN110 24/07 A3035 RMK A01,M
BVU,2024-07-24 07:15,-114.8611,35.9475,671.00,91.40,59.00,33.84,40.00,16.00,0.00,30.02,M,10.00,24.00,FEW,BKN,M,M,9000.00,11000.00,M,M,M,M,M,M,M,M,M,90.68,KBVU 240715Z AUTO 04016G24KT 10SM FEW090 BKN110 33/15 A3002 RMK AO2 LTG DSNT NE AND E,M
CXP,2024-07-24 07:15,-119.7326,39.1923,1431.00,77.00,50.00,38.74,20.00,3.00,0.00,30.26,M,10.00,M,CLR,M,M,M,M,M,M,M,M,M,M,M,M,M,M,77.00,KCXP 240715Z AUTO 02003KT 10SM CLR 25/10 A3026 RMK AO2,M
RTS,2024-07-24 07:15,-119.8764,39.6682,1539.00,75.20,48.20,38.46,330.00,6.00,0.00,30.27,M,10.00,M,CLR,M,M,M,M,M,M,M,M,M,M,M,M,M,M,75.20,KRTS 240715Z AUTO 33006KT 10SM CLR 24/09 A3027 RMK AO2,M
MEV,2024-07-24 07:15,-119.7500,38.9963,1441.42,66.20,51.80,59.74,150.00,4.00,0.00,30.25,M,10.00,M,CLR,M,M,M,M,M,M,M,M,M,M,M,M,M,M,66.20,KMEV 240715Z AUTO 15004KT 10SM CLR 19/11 A3025 RMK AO2,M
HTH,2024-07-24 07:15,-118.6315,38.5448,1282.89,M,M,M,140.00,5.00,0.00,30.20,M,M,M,M,M,M,M,M,M,M,M,M,M,M,M,M,M,M,M,KHTH 240715Z AUTO 14005KT A3020 RMK A01,M
10U,2024-07-24 07:15,-116.1876,41.9532,1637.00,78.80,41.00,25.95,130.00,8.00,0.00,30.22,M,10.00,M,CLR,M,M,M,M,M,M,M,M,M,M,M,M,M,M,78.80,K10U 240715Z AUTO 13008KT 10SM CLR 26/05 A3022 RMK AO2,M
BAM,2024-07-24 07:15,-116.8743,40.5990,1382.36,82.40,50.00,32.46,230.00,12.00,0.00,30.20,M,10.00,15.00,SCT,SCT,M,M,4800.00,5500.00,M,M,M,M,M,M,M,M,M,80.99,KBAM 240715Z AUTO 23012G15KT 10SM SCT048 SCT055 28/10 A3020 RMK AO1,M
TMT,2024-07-24 07:15,-117.1971,39.4643,1749.34,67.00,55.80,67.26,150.00,5.00,0.00,30.35,M,10.00,M,BKN,M,M,M,12000.00,M,M,M,M,M,M,M,M,M,M,67.00,KTMT 240715Z AUTO 15005KT 10SM BKN120 20/13 A3035 RMK AO2 T01950132,M
LSV,2024-07-24 07:19,-115.0343,36.2362,570.00,84.20,66.20,54.80,40.00,25.00,0.00,29.99,1012.40,10.00,30.00,OVC,M,M,M,13000.00,M,M,M,M,M,M,M,M,M,M,86.50,KLSV 240719Z AUTO 04025G30KT 10SM OVC130 29/19 A2999 RMK AO2 LTG DSNT NE RAE19 SLP124 $,M
LSV,2024-07-24 07:20,-115.0343,36.2362,570.00,84.20,66.20,54.80,40.00,25.00,0.00,29.99,1012.40,10.00,30.00,OVC,M,M,M,13000.00,M,M,M,-RA,M,M,M,M,M,M,86.50,KLSV 240720Z AUTO 04025G30KT 10SM -RA OVC130 29/19 A2999 RMK AO2 LTG DSNT NE RAE19RAB20 SLP124 $,M
RTS,2024-07-24 07:30,-119.8764,39.6682,1539.00,75.20,50.00,41.14,330.00,7.00,0.00,30.26,M,10.00,M,CLR,M,M,M,M,M,M,M,M,M,M,M,M,M,M,75.20,KRTS 240730Z AUTO 33007KT 10SM CLR 24/10 A3026 RMK AO2,M
BVU,2024-07-24 07:35,-114.8611,35.9475,671.00,91.40,59.00,33.84,30.00,16.00,0.00,30.02,M,10.00,24.00,BKN,M,M,M,11000.00,M,M,M,M,M,M,M,M,M,M,90.68,KBVU 240735Z AUTO 03016G24KT 10SM BKN110 33/15 A3002 RMK AO2 LTG DSNT NE AND NW,M
CXP,2024-07-24 07:35,-119.7326,39.1923,1431.00,75.20,50.00,41.14,220.00,3.00,0.00,30.25,M,10.00,M,CLR,M,M,M,M,M,M,M,M,M,M,M,M,M,M,75.20,KCXP 240735Z AUTO 22003KT 10SM CLR 24/10 A3025 RMK AO2,M
05U,2024-07-24 07:35,-116.0051,39.6042,1811.23,73.40,46.40,38.18,0.00,0.00,0.00,30.36,M,10.00,M,BKN,M,M,M,11000.00,M,M,M,M,M,M,M,M,M,M,73.40,K05U 240735Z AUTO 00000KT 10SM BKN110 23/08 A3036 RMK A01,M
MEV,2024-07-24 07:35,-119.7500,38.9963,1441.42,68.00,50.00,52.51,0.00,0.00,0.00,30.24,M,10.00,M,CLR,M,M,M,M,M,M,M,M,M,M,M,M,M,M,68.00,KMEV 240735Z AUTO 00000KT 10SM CLR 20/10 A3024 RMK AO2,M
BAM,2024-07-24 07:35,-116.8743,40.5990,1382.36,80.60,50.00,34.41,210.00,3.00,0.00,30.21,M,10.00,M,BKN,BKN,M,M,5000.00,7000.00,M,M,M,M,M,M,M,M,M,79.88,KBAM 240735Z AUTO 21003KT 10SM BKN050 BKN070 27/10 A3021 RMK AO1,M
HTH,2024-07-24 07:35,-118.6315,38.5448,1282.89,78.80,48.20,34.13,150.00,3.00,0.00,30.20,M,10.00,M,M,M,M,M,M,M,M,M,M,M,M,M,M,M,M,78.80,KHTH 240735Z AUTO 15003KT 10SM 26/09 A3020 RMK A01,M
TMT,2024-07-24 07:35,-117.1971,39.4643,1749.34,67.30,55.00,64.66,140.00,4.00,0.00,30.35,M,10.00,M,SCT,M,M,M,12000.00,M,M,M,M,M,M,M,M,M,M,67.30,KTMT 240735Z AUTO 14004KT 10SM SCT120 20/13 A3035 RMK AO2 T01960128,M
10U,2024-07-24 07:35,-116.1876,41.9532,1637.00,75.20,42.80,31.34,0.00,0.00,0.00,30.22,M,10.00,M,CLR,M,M,M,M,M,M,M,M,M,M,M,M,M,M,75.20,K10U 240735Z AUTO 00000KT 10SM CLR 24/06 A3022 RMK AO2,M
LSV,2024-07-24 07:41,-115.0343,36.2362,570.00,86.00,64.40,48.58,30.00,23.00,0.00,30.00,1012.70,10.00,32.00,BKN,M,M,M,13000.00,M,M,M,M,M,M,M,M,M,M,87.49,KLSV 240741Z AUTO 03023G32KT 10SM BKN130 30/18 A3000 RMK AO2 RAE19RAB20E34DZB34E41 SLP127 $,M
MEV,2024-07-24 07:50,-119.7500,38.9963,1441.42,66.20,50.00,55.88,0.00,0.00,0.00,30.24,M,10.00,M,CLR,M,M,M,M,M,M,M,M,M,M,M,M,M,M,66.20,KMEV 240750Z AUTO 00000KT 10SM CLR 19/10 A3024 RMK AO2,M
INS,2024-07-24 07:51,-115.6733,36.5872,955.00,89.60,57.20,33.56,M,M,0.00,30.09,1012.40,10.00,M,OVC,M,M,M,12000.00,M,M,M,-RA,M,M,M,M,M,M,88.28,KINS 240751Z AUTO M 10SM -RA OVC120 32/14 A3009 RMK AO2 RAB51 SLP124 $,M
P68,2024-07-24 07:53,-116.0056,39.6014,1993.00,73.00,47.00,39.58,340.00,5.00,0.00,30.33,1016.50,M,M,M,M,M,M,M,M,M,M,M,M,M,M,M,M,M,73.00,KP68 240753Z AUTO 34005KT 23/08 A3033 RMK AO1 SLP165 T02280083 403500117,M
DRA,2024-07-24 07:53,-116.0278,36.6206,1009.00,87.00,59.00,38.88,360.00,18.00,T,30.14,1014.40,10.00,25.00,SCT,BKN,OVC,M,6000.00,9000.00,11000.00,M,-RA,M,M,M,29.00,120.00,2024-07-24 07:10,86.37,KDRA 240753Z AUTO 36018G25KT 10SM -RA SCT060 BKN090 OVC110 31/15 A3014 RMK AO2 PK WND 12029/0710 RAB05E16B52 SLP144 P0000 T03060150 404170256,M
ELY,2024-07-24 07:53,-114.8453,39.2950,1909.00,69.00,48.00,47.09,190.00,10.00,0.00,30.34,1015.30,10.00,M,CLR,M,M,M,M,M,M,M,M,M,M,M,M,M,M,69.00,KELY 240753Z AUTO 19010KT 10SM CLR 21/09 A3034 RMK AO2 SLP153 T02060089 403330128 $,M
VGT,2024-07-24 07:53,-115.1933,36.2111,667.00,93.00,60.00,33.36,30.00,7.00,0.00,30.06,1016.10,10.00,M,CLR,M,M,M,M,M,M,M,M,M,M,M,M,M,M,92.76,KVGT 240753Z AUTO 03007KT 10SM CLR 34/16 A3006 RMK AO2 SLP161 T03390156 404390328,M
LOL,2024-07-24 07:53,-118.5701,40.0684,1192.43,77.00,50.00,38.74,150.00,6.00,0.00,30.14,1015.30,10.00,M,CLR,M,M,M,M,M,M,M,M,M,M,M,M,M,M,77.00,KLOL 240753Z AUTO 15006KT 10SM CLR 25/10 A3014 RMK AO2 SLP153 T02500100 403890167,M
NFL,2024-07-24 07:54,-118.7010,39.4166,1199.00,82.00,50.00,32.88,220.00,8.00,0.00,30.15,1017.50,10.00,M,CLR,M,M,M,M,M,M,M,M,M,M,M,M,M,M,80.73,KNFL 240754Z AUTO 22008KT 10SM CLR 28/10 A3015 RMK AO2 SLP175 T02780100 404000206,M
BVU,2024-07-24 07:55,-114.8611,35.9475,671.00,91.40,59.00,33.84,20.00,16.00,0.00,30.01,M,10.00,23.00,FEW,M,M,M,11000.00,M,M,M,M,M,M,M,M,M,M,90.68,KBVU 240755Z AUTO 02016G23KT 10SM FEW110 33/15 A3001 RMK AO2,M
CXP,2024-07-24 07:55,-119.7326,39.1923,1431.00,75.20,50.00,41.14,0.00,0.00,0.00,30.25,M,10.00,M,CLR,M,M,M,M,M,M,M,M,M,M,M,M,M,M,75.20,KCXP 240755Z AUTO 00000KT 10SM CLR 24/10 A3025 RMK AO2,M
INS,2024-07-24 07:55,-115.6733,36.5872,955.00,88.50,60.30,38.83,M,M,T,30.09,1012.50,10.00,M,OVC,M,M,M,12000.00,M,M,M,-RA,M,M,M,27.00,140.00,2024-07-24 07:45,88.25,KINS 240755Z AUTO M 10SM -RA OVC120 31/16 A3009 RMK AO2 PK WND 14027/45 LTG DSNT NW RAB51 SLP125 P0000 T03140157 404120287 $,M
RNO,2024-07-24 07:55,-119.7711,39.4839,1341.00,81.00,51.00,35.25,210.00,5.00,0.00,30.20,1015.30,10.00,M,SCT,M,M,M,15000.00,M,M,M,M,M,M,M,M,M,M,80.22,KRNO 240755Z 21005KT 10SM SCT150 27/11 A3020 RMK AO2 SLP153 T02720106 403940228,M
05U,2024-07-24 07:55,-116.0051,39.6042,1811.23,73.40,46.40,38.18,0.00,0.00,0.00,30.35,M,10.00,M,SCT,M,M,M,12000.00,M,M,M,M,M,M,M,M,M,M,73.40,K05U 240755Z AUTO 00000KT 10SM SCT120 23/08 A3035 RMK A01,M
BAM,2024-07-24 07:55,-116.8743,40.5990,1382.36,80.60,51.80,36.79,0.00,0.00,0.00,30.21,M,10.00,M,BKN,OVC,M,M,5500.00,6500.00,M,M,M,M,M,M,M,M,M,80.08,KBAM 240755Z AUTO 00000KT 10SM BKN055 OVC065 27/11 A3021 RMK AO1,M
HTH,2024-07-24 07:55,-118.6315,38.5448,1282.89,78.80,48.20,34.13,170.00,5.00,0.00,30.20,M,10.00,M,CLR,M,M,M,M,M,M,M,M,M,M,M,M,M,M,78.80,KHTH 240755Z AUTO 17005KT 10SM CLR 26/09 A3020 RMK A01,M
10U,2024-07-24 07:55,-116.1876,41.9532,1637.00,77.00,41.00,27.53,140.00,5.00,0.00,30.22,M,10.00,10.00,CLR,M,M,M,M,M,M,M,M,M,M,M,M,M,M,77.00,K10U 240755Z AUTO 14005G10KT 10SM CLR 25/05 A3022 RMK AO2,M
TMT,2024-07-24 07:55,-117.1971,39.4643,1749.34,68.00,54.70,62.43,200.00,6.00,0.00,30.34,M,10.00,M,SCT,SCT,M,M,8500.00,11000.00,M,M,M,M,M,M,M,M,M,68.00,KTMT 240755Z AUTO 20006KT 10SM SCT085 SCT110 20/13 A3034 RMK AO2 T02000126 403460125,M
LSV,2024-07-24 07:55,-115.0343,36.2362,570.00,88.30,63.00,42.99,30.00,21.00,T,30.00,1012.60,10.00,27.00,BKN,M,M,M,14000.00,M,M,M,M,M,M,M,32.00,30.00,2024-07-24 07:41,89.17,KLSV 240755Z AUTO 03021G27KT 10SM BKN140 31/17 A3000 RMK AO2 PK WND 03032/41 RAE19RAB20E34DZB34E41 SLP126 P0000 T03130172 404390286 $,M
EKO,2024-07-24 07:56,-115.7860,40.8242,1367.00,82.00,50.00,32.88,260.00,13.00,0.00,30.24,1016.00,10.00,18.00,CLR,M,M,M,M,M,M,M,M,M,M,M,M,M,M,80.73,KEKO 240756Z AUTO 26013G18KT 10SM CLR 28/10 A3024 RMK AO2 SLP160 T02780100 403830189,M
WMC,2024-07-24 07:56,-117.8072,40.9019,1315.00,83.00,47.00,28.45,180.00,11.00,0.00,30.16,1014.40,7.00,M,FEW,M,M,M,2400.00,M,M,M,M,M,M,M,M,M,M,81.09,KWMC 240756Z AUTO 18011KT 7SM FEW024 28/08 A3016 RMK AO2 SLP144 T02830083 404060144,M
HND,2024-07-24 07:56,-115.1344,35.9729,742.79,86.00,64.00,47.91,360.00,11.00,0.00,30.11,1017.60,10.00,M,CLR,M,M,M,M,M,M,M,M,M,M,M,M,M,M,87.31,KHND 240756Z AUTO 36011KT 10SM CLR 30/18 A3011 RMK AO2 SLP176 T03000178,M
TPH,2024-07-24 07:56,-117.0904,38.0505,1654.00,78.00,53.00,41.88,130.00,9.00,0.00,30.28,1015.40,10.00,M,CLR,M,M,M,M,M,M,M,M,M,M,M,M,M,M,78.00,KTPH 240756Z AUTO 13009KT 10SM CLR 26/12 A3028 RMK AO2 SLP154 T02560117 403720167,M
LAS,2024-07-24 07:56,-115.1634,36.0719,663.00,90.00,62.00,39.34,20.00,12.00,0.00,30.07,1011.50,10.00,20.00,SCT,SCT,OVC,M,13000.00,16000.00,19000.00,M,M,M,M,M,32.00,30.00,2024-07-24 07:04,90.46,KLAS 240756Z 02012G20KT 10SM SCT130 SCT160 OVC190 32/17 A3007 RMK AO2 PK WND 03032/0704 SLP115 T03220167 404280317 $,M
INS,2024-07-24 08:06,-115.6733,36.5872,955.00,87.80,57.20,35.53,M,M,0.00,30.10,1012.90,10.00,M,OVC,M,M,M,12000.00,M,M,M,M,M,M,M,M,M,M,86.58,KINS 240806Z AUTO M 10SM OVC120 31/14 A3010 RMK AO2 LTG DSNT NW RAE06 SLP129 $,M
BVU,2024-07-24 08:15,-114.8611,35.9475,671.00,91.40,59.00,33.84,20.00,17.00,0.00,30.01,M,10.00,M,CLR,M,M,M,M,M,M,M,M,M,M,M,M,M,M,90.68,KBVU 240815Z AUTO 02017KT 10SM CLR 33/15 A3001 RMK AO2,M
CXP,2024-07-24 08:15,-119.7326,39.1923,1431.00,73.40,50.00,43.69,0.00,0.00,0.00,30.25,M,10.00,M,CLR,M,M,M,M,M,M,M,M,M,M,M,M,M,M,73.40,KCXP 240815Z AUTO 00000KT 10SM CLR 23/10 A3025 RMK AO2,M
RTS,2024-07-24 08:15,-119.8764,39.6682,1539.00,75.20,50.00,41.14,0.00,0.00,0.00,30.26,M,10.00,M,CLR,M,M,M,M,M,M,M,M,M,M,M,M,M,M,75.20,KRTS 240815Z AUTO 00000KT 10SM CLR 24/10 A3026 RMK AO2,M
05U,2024-07-24 08:15,-116.0051,39.6042,1811.23,69.80,48.20,46.16,0.00,0.00,0.00,30.35,M,10.00,M,CLR,M,M,M,M,M,M,M,M,M,M,M,M,M,M,69.80,K05U 240815Z AUTO 00000KT 10SM CLR 21/09 A3035 RMK A01,M
MEV,2024-07-24 08:15,-119.7500,38.9963,1441.42,64.40,51.80,63.60,0.00,0.00,0.00,30.24,M,10.00,M,CLR,M,M,M,M,M,M,M,M,M,M,M,M,M,M,64.40,KMEV 240815Z AUTO 00000KT 10SM CLR 18/11 A3024 RMK AO2,M
HTH,2024-07-24 08:15,-118.6315,38.5448,1282.89,78.80,46.40,31.90,190.00,4.00,0.00,30.19,M,10.00,M,CLR,M,M,M,M,M,M,M,M,M,M,M,M,M,M,78.80,KHTH 240815Z AUTO 19004KT 10SM CLR 26/08 A3019 RMK A01,M
BAM,2024-07-24 08:15,-116.8743,40.5990,1382.36,78.80,51.80,39.02,0.00,0.00,0.00,30.21,M,10.00,M,SCT,M,M,M,5500.00,M,M,M,M,M,M,M,M,M,M,78.80,KBAM 240815Z AUTO 00000KT 10SM SCT055 26/11 A3021 RMK AO1,M
TMT,2024-07-24 08:15,-117.1971,39.4643,1749.34,68.00,54.00,60.86,220.00,7.00,0.00,30.33,M,10.00,M,BKN,M,M,M,12000.00,M,M,M,M,M,M,M,M,M,M,68.00,KTMT 240815Z AUTO 22007KT 10SM BKN120 20/12 A3033 RMK AO2 T01990123,M
10U,2024-07-24 08:15,-116.1876,41.9532,1637.00,77.00,41.00,27.53,130.00,7.00,0.00,30.22,M,10.00,M,CLR,M,M,M,M,M,M,M,M,M,M,M,M,M,M,77.00,K10U 240815Z AUTO 13007KT 10SM CLR 25/05 A3022 RMK AO2,M
INS,2024-07-24 08:20,-115.6733,36.5872,955.00,87.80,57.20,35.53,350.00,14.00,0.00,30.10,1012.90,10.00,25.00,OVC,M,M,M,12000.00,M,M,M,M,M,M,M,M,M,M,86.58,KINS 240820Z AUTO 35014G25KT 10SM OVC120 31/14 A3010 RMK AO2 LTG DSNT NW RAE06 SLP129 $,M
BVU,2024-07-24 08:35,-114.8611,35.9475,671.00,89.60,59.00,35.81,20.00,7.00,0.00,30.02,M,10.00,M,CLR,M,M,M,M,M,M,M,M,M,M,M,M,M,M,88.86,KBVU 240835Z AUTO 02007KT 10SM CLR 32/15 A3002 RMK AO2,M
CXP,2024-07-24 08:35,-119.7326,39.1923,1431.00,73.40,50.00,43.69,0.00,0.00,0.00,30.25,M,10.00,M,CLR,M,M,M,M,M,M,M,M,M,M,M,M,M,M,73.40,KCXP 240835Z AUTO 00000KT 10SM CLR 23/10 A3025 RMK AO2,M
RTS,2024-07-24 08:35,-119.8764,39.6682,1539.00,69.80,50.00,49.37,0.00,0.00,0.00,30.26,M,10.00,M,CLR,M,M,M,M,M,M,M,M,M,M,M,M,M,M,69.80,KRTS 240835Z AUTO 00000KT 10SM CLR 21/10 A3026 RMK AO2,M
05U,2024-07-24 08:35,-116.0051,39.6042,1811.23,69.80,48.20,46.16,0.00,0.00,0.00,30.35,M,10.00,M,CLR,M,M,M,M,M,M,M,M,M,M,M,M,M,M,69.80,K05U 240835Z AUTO 00000KT 10SM CLR 21/09 A3035 RMK A01,M
MEV,2024-07-24 08:35,-119.7500,38.9963,1441.42,62.60,53.60,72.38,120.00,4.00,0.00,30.24,M,10.00,M,CLR,M,M,M,M,M,M,M,M,M,M,M,M,M,M,62.60,KMEV 240835Z AUTO 12004KT 10SM CLR 17/12 A3024 RMK AO2,M
HTH,2024-07-24 08:35,-118.6315,38.5448,1282.89,78.80,46.40,31.90,150.00,6.00,0.00,30.19,M,10.00,M,CLR,M,M,M,M,M,M,M,M,M,M,M,M,M,M,78.80,KHTH 240835Z AUTO 15006KT 10SM CLR 26/08 A3019 RMK A01,M
10U,2024-07-24 08:35,-116.1876,41.9532,1637.00,77.00,41.00,27.53,140.00,6.00,0.00,30.22,M,10.00,M,CLR,M,M,M,M,M,M,M,M,M,M,M,M,M,M,77.00,K10U 240835Z AUTO 14006KT 10SM CLR 25/05 A3022 RMK AO2,M
BAM,2024-07-24 08:35,-116.8743,40.5990,1382.36,80.60,50.00,34.41,230.00,10.00,0.00,30.21,M,10.00,M,SCT,M,M,M,6500.00,M,M,M,M,M,M,M,M,M,M,79.88,KBAM 240835Z AUTO 23010KT 10SM SCT065 27/10 A3021 RMK AO1,M
TMT,2024-07-24 08:35,-117.1971,39.4643,1749.34,68.50,52.00,55.58,160.00,3.00,0.00,30.34,M,10.00,M,SCT,M,M,M,12000.00,M,M,M,M,M,M,M,M,M,M,68.50,KTMT 240835Z AUTO 16003KT 10SM SCT120 20/11 A3034 RMK AO2 T02030112,M
P68,2024-07-24 08:53,-116.0056,39.6014,1993.00,70.00,47.00,43.82,200.00,6.00,0.00,30.32,1016.40,M,M,M,M,M,M,M,M,M,M,M,M,M,M,M,M,M,70.00,KP68 240853Z AUTO 20006KT 21/08 A3032 RMK AO1 SLP164 T02110083 50007,M
DRA,2024-07-24 08:53,-116.0278,36.6206,1009.00,80.00,63.00,56.16,40.00,20.00,T,30.16,1015.20,10.00,28.00,BKN,M,M,M,10000.00,M,M,M,M,M,M,M,29.00,60.00,2024-07-24 08:20,81.41,KDRA 240853Z AUTO 04020G28KT 10SM BKN100 27/17 A3016 RMK AO2 PK WND 06029/0820 RAE27 SLP152 P0000 60000 T02670172 51036,M
ELY,2024-07-24 08:53,-114.8453,39.2950,1909.00,70.00,48.00,45.50,210.00,12.00,0.00,30.35,1015.50,10.00,M,CLR,M,M,M,M,M,M,M,M,M,M,M,M,M,M,70.00,KELY 240853Z AUTO 21012KT 10SM CLR 21/09 A3035 RMK AO2 SLP155 T02110089 51006 $,M
VGT,2024-07-24 08:53,-115.1933,36.2111,667.00,94.00,60.00,32.34,270.00,7.00,0.00,30.04,1015.40,10.00,M,CLR,M,M,M,M,M,M,M,M,M,M,M,M,M,M,93.84,KVGT 240853Z AUTO 27007KT 10SM CLR 34/16 A3004 RMK AO2 LTG DSNT N SLP154 T03440156 50013,M
LOL,2024-07-24 08:53,-118.5701,40.0684,1192.43,75.00,50.00,41.41,90.00,3.00,0.00,30.14,1015.20,10.00,M,CLR,M,M,M,M,M,M,M,M,M,M,M,M,M,M,75.00,KLOL 240853Z AUTO 09003KT 10SM CLR 24/10 A3014 RMK AO2 SLP152 T02390100 50006,M
NFL,2024-07-24 08:54,-118.7010,39.4166,1199.00,79.00,51.00,37.64,0.00,0.00,0.00,30.15,1017.60,10.00,M,CLR,M,M,M,M,M,M,M,M,M,M,M,M,M,M,79.00,KNFL 240854Z AUTO 00000KT 10SM CLR 26/11 A3015 RMK AO2 SLP176 T02610106 51008,M
BVU,2024-07-24 08:55,-114.8611,35.9475,671.00,87.80,60.80,40.41,350.00,9.00,0.00,30.02,M,10.00,M,CLR,M,M,M,M,M,M,M,M,M,M,M,M,M,M,87.75,KBVU 240855Z AUTO 35009KT 10SM CLR 31/16 A3002 RMK AO2 LTG DSNT NW,M
CXP,2024-07-24 08:55,-119.7326,39.1923,1431.00,71.60,50.00,46.43,0.00,0.00,0.00,30.25,M,10.00,M,CLR,M,M,M,M,M,M,M,M,M,M,M,M,M,M,71.60,KCXP 240855Z AUTO 00000KT 10SM CLR 22/10 A3025 RMK AO2,M
INS,2024-07-24 08:55,-115.6733,36.5872,955.00,87.60,57.40,36.01,20.00,7.00,T,30.14,1014.10,10.00,M,OVC,M,M,M,11000.00,M,M,M,M,M,M,M,M,M,M,86.45,KINS 240855Z AUTO 02007KT 10SM OVC110 31/14 A3014 RMK AO2 LTG DSNT E AND SW-W PRESRR SLP141 P0000 60000 T03090141 52027 $,M
RNO,2024-07-24 08:55,-119.7711,39.4839,1341.00,79.00,51.00,37.64,220.00,5.00,0.00,30.20,1015.40,10.00,M,FEW,M,M,M,15000.00,M,M,M,M,M,M,M,M,M,M,79.00,KRNO 240855Z 22005KT 10SM FEW150 26/11 A3020 RMK AO2 SLP154 T02610106 51001,M
LSV,2024-07-24 08:55,-115.0343,36.2362,570.00,87.30,63.30,44.85,170.00,6.00,0.00,29.99,1012.20,10.00,M,OVC,M,M,M,17000.00,M,M,M,M,M,M,M,29.00,30.00,2024-07-24 08:05,88.29,KLSV 240855Z AUTO 17006KT 10SM OVC170 31/17 A2999 RMK AO2 PK WND 03029/05 LTG DSNT NW SLP122 60000 T03070174 53001 $,M
RTS,2024-07-24 08:55,-119.8764,39.6682,1539.00,71.60,50.00,46.43,M,3.00,0.00,30.26,M,10.00,M,CLR,M,M,M,M,M,M,M,M,M,M,M,M,M,M,71.60,KRTS 240855Z AUTO VRB03KT 10SM CLR 22/10 A3026 RMK AO2,M
05U,2024-07-24 08:55,-116.0051,39.6042,1811.23,69.80,46.40,43.13,0.00,0.00,0.00,30.34,M,10.00,M,CLR,M,M,M,M,M,M,M,M,M,M,M,M,M,M,69.80,K05U 240855Z AUTO 00000KT 10SM CLR 21/08 A3034 RMK A01,M
MEV,2024-07-24 08:55,-119.7500,38.9963,1441.42,62.60,51.80,67.75,120.00,4.00,0.00,30.24,M,10.00,M,CLR,M,M,M,M,M,M,M,M,M,M,M,M,M,M,62.60,KMEV 240855Z AUTO 12004KT 10SM CLR 17/11 A3024 RMK AO2,M
HTH,2024-07-24 08:55,-118.6315,38.5448,1282.89,77.00,46.40,33.85,130.00,9.00,0.00,30.19,M,10.00,M,CLR,M,M,M,M,M,M,M,M,M,M,M,M,M,M,77.00,KHTH 240855Z AUTO 13009KT 10SM CLR 25/08 A3019 RMK A01,M
10U,2024-07-24 08:55,-116.1876,41.9532,1637.00,73.40,41.00,31.05,240.00,6.00,0.00,30.23,M,10.00,M,CLR,M,M,M,M,M,M,M,M,M,M,M,M,M,M,73.40,K10U 240855Z AUTO 24006KT 10SM CLR 23/05 A3023 RMK AO2,M
BAM,2024-07-24 08:55,-116.8743,40.5990,1382.36,80.60,51.80,36.79,230.00,7.00,0.00,30.21,M,10.00,M,CLR,M,M,M,M,M,M,M,M,M,M,M,M,M,M,80.08,KBAM 240855Z AUTO 23007KT 10SM CLR 27/11 A3021 RMK AO1,M
TMT,2024-07-24 08:55,-117.1971,39.4643,1749.34,67.60,54.00,61.70,250.00,6.00,0.00,30.34,M,10.00,M,SCT,M,M,M,12000.00,M,M,M,M,M,M,M,M,M,M,67.60,KTMT 240855Z AUTO 25006KT 10SM SCT120 20/12 A3034 RMK AO2 T01980122,M
EKO,2024-07-24 08:56,-115.7860,40.8242,1367.00,78.00,50.00,37.48,210.00,5.00,0.00,30.23,1015.90,10.00,M,CLR,M,M,M,M,M,M,M,M,M,M,M,M,M,M,78.00,KEKO 240856Z AUTO 21005KT 10SM CLR 26/10 A3023 RMK AO2 SLP159 T02560100 50009,M
WMC,2024-07-24 08:56,-117.8072,40.9019,1315.00,81.00,47.00,30.36,190.00,12.00,0.00,30.16,1014.60,8.00,M,OVC,M,M,M,3400.00,M,M,M,M,M,M,M,M,M,M,79.84,KWMC 240856Z AUTO 19012KT 8SM OVC034 27/08 A3016 RMK AO2 SLP146 T02720083 51007,M
HND,2024-07-24 08:56,-115.1344,35.9729,742.79,86.00,62.00,44.65,20.00,3.00,0.00,30.10,1017.00,10.00,M,CLR,M,M,M,M,M,M,M,M,M,M,M,M,M,M,86.48,KHND 240856Z AUTO 02003KT 10SM CLR 30/17 A3010 RMK AO2 LTG DSNT N SLP170 T03000167 50019,M
TPH,2024-07-24 08:56,-117.0904,38.0505,1654.00,76.00,54.00,46.42,0.00,0.00,0.00,30.29,1015.80,10.00,M,CLR,M,M,M,M,M,M,M,M,M,M,M,M,M,M,76.00,KTPH 240856Z AUTO 00000KT 10SM CLR 24/12 A3029 RMK AO2 SLP158 T02440122 55003,M
LAS,2024-07-24 08:56,-115.1634,36.0719,663.00,91.00,61.00,36.80,50.00,5.00,0.00,30.06,1011.00,10.00,M,FEW,SCT,OVC,M,13000.00,16000.00,19000.00,M,M,M,M,M,M,M,M,91.06,KLAS 240856Z 05005KT 10SM FEW130 SCT160 OVC190 33/16 A3006 RMK AO2 LTG DSNT N SLP110 T03280161 50025 $,M
05U,2024-07-24 09:10,-116.0051,39.6042,1811.23,68.00,46.40,45.88,0.00,0.00,0.00,30.34,M,10.00,M,CLR,M,M,M,M,M,M,M,M,M,M,M,M,M,M,68.00,K05U 240910Z AUTO 00000KT 10SM CLR 20/08 A3034 RMK A01,M
MEV,2024-07-24 09:10,-119.7500,38.9963,1441.42,62.60,51.80,67.75,150.00,3.00,0.00,30.24,M,10.00,M,FEW,M,M,M,5000.00,M,M,M,M,M,M,M,M,M,M,62.60,KMEV 240910Z AUTO 15003KT 10SM FEW050 17/11 A3024 RMK AO2,M
BVU,2024-07-24 09:15,-114.8611,35.9475,671.00,86.00,59.00,40.14,340.00,10.00,0.00,30.01,M,10.00,17.00,CLR,M,M,M,M,M,M,M,M,M,M,M,M,M,M,85.47,KBVU 240915Z AUTO 34010G17KT 310V010 10SM CLR 30/15 A3001 RMK AO2,M
CXP,2024-07-24 09:15,-119.7326,39.1923,1431.00,71.60,50.00,46.43,0.00,0.00,0.00,30.25,M,10.00,M,CLR,M,M,M,M,M,M,M,M,M,M,M,M,M,M,71.60,KCXP 240915Z AUTO 00000KT 10SM CLR 22/10 A3025 RMK AO2,M
RTS,2024-07-24 09:15,-119.8764,39.6682,1539.00,73.40,50.00,43.69,360.00,4.00,0.00,30.26,M,10.00,M,CLR,M,M,M,M,M,M,M,M,M,M,M,M,M,M,73.40,KRTS 240915Z AUTO 36004KT 10SM CLR 23/10 A3026 RMK AO2,M
HTH,2024-07-24 09:15,-118.6315,38.5448,1282.89,77.00,46.40,33.85,130.00,10.00,0.00,30.18,M,10.00,M,CLR,M,M,M,M,M,M,M,M,M,M,M,M,M,M,77.00,KHTH 240915Z AUTO 13010KT 10SM CLR 25/08 A3018 RMK A01,M
10U,2024-07-24 09:15,-116.1876,41.9532,1637.00,75.20,41.00,29.23,220.00,8.00,0.00,30.24,M,10.00,M,CLR,M,M,M,M,M,M,M,M,M,M,M,M,M,M,75.20,K10U 240915Z AUTO 22008KT 10SM CLR 24/05 A3024 RMK AO2,M
BAM,2024-07-24 09:15,-116.8743,40.5990,1382.36,80.60,51.80,36.79,200.00,6.00,0.00,30.20,M,10.00,M,CLR,M,M,M,M,M,M,M,M,M,M,M,M,M,M,80.08,KBAM 240915Z AUTO 20006KT 10SM CLR 27/11 A3020 RMK AO1,M
TMT,2024-07-24 09:15,-117.1971,39.4643,1749.34,66.00,55.80,69.63,230.00,3.00,0.00,30.34,M,10.00,M,BKN,M,M,M,12000.00,M,M,M,M,M,M,M,M,M,M,66.00,KTMT 240915Z AUTO 23003KT 10SM BKN120 19/13 A3034 RMK AO2 T01880132,M
05U,2024-07-24 09:30,-116.0051,39.6042,1811.23,66.20,46.40,48.83,0.00,0.00,0.00,30.35,M,10.00,M,CLR,M,M,M,M,M,M,M,M,M,M,M,M,M,M,66.20,K05U 240930Z AUTO 00000KT 10SM CLR 19/08 A3035 RMK A01,M
MEV,2024-07-24 09:30,-119.7500,38.9963,1441.42,62.60,51.80,67.75,0.00,0.00,0.00,30.24,M,10.00,M,FEW,FEW,M,M,4500.00,5500.00,M,M,M,M,M,M,M,M,M,62.60,KMEV 240930Z AUTO 00000KT 10SM FEW045 FEW055 17/11 A3024 RMK AO2,M
BVU,2024-07-24 09:35,-114.8611,35.9475,671.00,86.00,59.00,40.14,350.00,13.00,0.00,30.01,M,10.00,M,CLR,M,M,M,M,M,M,M,M,M,M,M,M,M,M,85.47,KBVU 240935Z AUTO 35013KT 10SM CLR 30/15 A3001 RMK AO2 LTG DSNT NW,M
CXP,2024-07-24 09:35,-119.7326,39.1923,1431.00,71.60,50.00,46.43,0.00,0.00,0.00,30.25,M,10.00,M,CLR,M,M,M,M,M,M,M,M,M,M,M,M,M,M,71.60,KCXP 240935Z AUTO 00000KT 10SM CLR 22/10 A3025 RMK AO2,M
RTS,2024-07-24 09:35,-119.8764,39.6682,1539.00,69.80,48.20,46.16,340.00,7.00,0.00,30.26,M,10.00,M,CLR,M,M,M,M,M,M,M,M,M,M,M,M,M,M,69.80,KRTS 240935Z AUTO 34007KT 10SM CLR 21/09 A3026 RMK AO2,M
HTH,2024-07-24 09:35,-118.6315,38.5448,1282.89,78.80,46.40,31.90,150.00,12.00,0.00,30.18,M,10.00,M,CLR,M,M,M,M,M,M,M,M,M,M,M,M,M,M,78.80,KHTH 240935Z AUTO 15012KT 10SM CLR 26/08 A3018 RMK A01,M
10U,2024-07-24 09:35,-116.1876,41.9532,1637.00,77.00,41.00,27.53,200.00,7.00,0.00,30.24,M,10.00,M,CLR,M,M,M,M,M,M,M,M,M,M,M,M,M,M,77.00,K10U 240935Z AUTO 20007KT 10SM CLR 25/05 A3024 RMK AO2,M
BAM,2024-07-24 09:35,-116.8743,40.5990,1382.36,78.80,51.80,39.02,150.00,5.00,0.00,30.21,M,10.00,M,CLR,M,M,M,M,M,M,M,M,M,M,M,M,M,M,78.80,KBAM 240935Z AUTO 15005KT 10SM CLR 26/11 A3021 RMK AO1,M
TMT,2024-07-24 09:35,-117.1971,39.4643,1749.34,65.00,55.60,71.58,0.00,0.00,0.00,30.34,M,10.00,M,SCT,M,M,M,12000.00,M,M,M,M,M,M,M,M,M,M,65.00,KTMT 240935Z AUTO 00000KT 10SM SCT120 18/13 A3034 RMK AO2 T01840131,M
P68,2024-07-24 09:53,-116.0056,39.6014,1993.00,64.00,45.00,49.99,220.00,6.00,0.00,30.32,1017.10,M,M,M,M,M,M,M,M,M,M,M,M,M,M,M,M,M,64.00,KP68 240953Z AUTO 22006KT 18/07 A3032 RMK AO1 SLP171 T01780072,M
DRA,2024-07-24 09:53,-116.0278,36.6206,1009.00,82.00,62.00,50.80,M,5.00,T,30.20,1016.60,10.00,M,BKN,BKN,M,M,10000.00,12000.00,M,M,-RA,M,M,M,26.00,40.00,2024-07-24 08:54,82.89,KDRA 240953Z AUTO VRB05KT 10SM -RA BKN100 BKN120 28/17 A3020 RMK AO2 PK WND 04026/0854 RAB53 SLP166 P0000 T02780167,M
ELY,2024-07-24 09:53,-114.8453,39.2950,1909.00,69.00,47.00,45.35,230.00,9.00,0.00,30.36,1016.00,10.00,M,CLR,M,M,M,M,M,M,M,M,M,M,M,M,M,M,69.00,KELY 240953Z AUTO 23009KT 10SM CLR 21/08 A3036 RMK AO2 SLP160 T02060083 $,M
VGT,2024-07-24 09:53,-115.1933,36.2111,667.00,93.00,59.00,32.19,300.00,14.00,0.00,30.02,1014.80,10.00,22.00,CLR,M,M,M,M,M,M,M,M,M,M,M,M,M,M,92.35,KVGT 240953Z AUTO 30014G22KT 10SM CLR 34/15 A3002 RMK AO2 LTG DSNT NW SLP148 T03390150,M
LOL,2024-07-24 09:53,-118.5701,40.0684,1192.43,76.00,51.00,41.57,0.00,0.00,0.00,30.15,1015.60,10.00,M,CLR,M,M,M,M,M,M,M,M,M,M,M,M,M,M,76.00,KLOL 240953Z AUTO 00000KT 10SM CLR 24/11 A3015 RMK AO2 SLP156 T02440106,M
BVU,2024-07-24 09:55,-114.8611,35.9475,671.00,87.80,59.00,37.90,360.00,7.00,0.00,30.01,M,10.00,17.00,CLR,M,M,M,M,M,M,M,M,M,M,M,M,M,M,87.12,KBVU 240955Z AUTO 36007G17KT 340V040 10SM CLR 31/15 A3001 RMK AO2,M
CXP,2024-07-24 09:55,-119.7326,39.1923,1431.00,71.60,50.00,46.43,0.00,0.00,0.00,30.25,M,10.00,M,CLR,M,M,M,M,M,M,M,M,M,M,M,M,M,M,71.60,KCXP 240955Z AUTO 00000KT 10SM CLR 22/10 A3025 RMK AO2,M
INS,2024-07-24 09:55,-115.6733,36.5872,955.00,83.70,62.00,48.08,220.00,12.00,0.00,30.18,1015.60,10.00,M,OVC,M,M,M,11000.00,M,M,M,M,M,M,M,M,M,M,84.37,KINS 240955Z AUTO 22012KT 10SM OVC110 29/17 A3018 RMK AO2 LTG DSNT SE SLP156 T02870166 $,M
RNO,2024-07-24 09:55,-119.7711,39.4839,1341.00,76.00,51.00,41.57,170.00,3.00,0.00,30.20,1015.50,10.00,M,FEW,M,M,M,15000.00,M,M,M,M,M,M,M,M,M,M,76.00,KRNO 240955Z 17003KT 10SM FEW150 24/11 A3020 RMK AO2 SLP155 T02440106,M
LSV,2024-07-24 09:55,-115.0343,36.2362,570.00,91.20,59.70,34.91,260.00,6.00,0.00,29.97,1011.50,10.00,M,BKN,M,M,M,20000.00,M,M,M,M,M,M,M,M,M,M,90.74,KLSV 240955Z AUTO 26006KT 10SM BKN200 33/15 A2997 RMK AO2 SLP115 T03290154 $,M
RTS,2024-07-24 09:55,-119.8764,39.6682,1539.00,66.20,51.80,59.74,350.00,6.00,0.00,30.26,M,10.00,M,CLR,M,M,M,M,M,M,M,M,M,M,M,M,M,M,66.20,KRTS 240955Z AUTO 35006KT 10SM CLR 19/11 A3026 RMK AO2,M
05U,2024-07-24 09:55,-116.0051,39.6042,1811.23,64.40,44.60,48.55,0.00,0.00,0.00,30.35,M,10.00,M,CLR,M,M,M,M,M,M,M,M,M,M,M,M,M,M,64.40,K05U 240955Z AUTO 00000KT 10SM CLR 18/07 A3035 RMK A01,M
MEV,2024-07-24 09:55,-119.7500,38.9963,1441.42,62.60,51.80,67.75,140.00,3.00,0.00,30.23,M,10.00,M,CLR,M,M,M,M,M,M,M,M,M,M,M,M,M,M,62.60,KMEV 240955Z AUTO 14003KT 10SM CLR 17/11 A3023 RMK AO2,M
HTH,2024-07-24 09:55,-118.6315,38.5448,1282.89,77.00,46.40,33.85,150.00,12.00,0.00,30.18,M,10.00,M,CLR,M,M,M,M,M,M,M,M,M,M,M,M,M,M,77.00,KHTH 240955Z AUTO 15012KT 10SM CLR 25/08 A3018 RMK A01,M
10U,2024-07-24 09:55,-116.1876,41.9532,1637.00,75.20,42.80,31.34,160.00,6.00,0.00,30.25,M,10.00,M,CLR,M,M,M,M,M,M,M,M,M,M,M,M,M,M,75.20,K10U 240955Z AUTO 16006KT 10SM CLR 24/06 A3025 RMK AO2,M
BAM,2024-07-24 09:55,-116.8743,40.5990,1382.36,77.00,51.80,41.42,160.00,6.00,0.00,30.21,M,10.00,M,CLR,M,M,M,M,M,M,M,M,M,M,M,M,M,M,77.00,KBAM 240955Z AUTO 16006KT 10SM CLR 25/11 A3021 RMK AO1,M
TMT,2024-07-24 09:55,-117.1971,39.4643,1749.34,66.40,53.60,63.38,250.00,5.00,0.00,30.33,M,10.00,M,BKN,M,M,M,12000.00,M,M,M,M,M,M,M,M,M,M,66.40,KTMT 240955Z AUTO 25005KT 10SM BKN120 19/12 A3033 RMK AO2 T01910120,M
INS,2024-07-24 09:56,-115.6733,36.5872,955.00,84.20,62.60,48.32,220.00,12.00,0.00,30.18,1015.60,10.00,M,OVC,M,M,M,11000.00,M,M,M,-RA,M,M,M,M,M,M,85.03,KINS 240956Z AUTO 22012KT 10SM -RA OVC110 29/17 A3018 RMK AO2 LTG DSNT SE RAB55 SLP156 $,M
EKO,2024-07-24 09:56,-115.7860,40.8242,1367.00,79.00,49.00,34.94,0.00,0.00,0.00,30.23,1015.60,10.00,M,CLR,M,M,M,M,M,M,M,M,M,M,M,M,M,M,79.00,KEKO 240956Z AUTO 00000KT 10SM CLR 26/09 A3023 RMK AO2 SLP156 T02610094,M
WMC,2024-07-24 09:56,-117.8072,40.9019,1315.00,80.00,47.00,31.37,190.00,9.00,0.00,30.16,1014.80,10.00,M,CLR,M,M,M,M,M,M,M,M,M,M,M,M,M,M,79.28,KWMC 240956Z AUTO 19009KT 10SM CLR 27/08 A3016 RMK AO2 SLP148 T02670083,M
HND,2024-07-24 09:56,-115.1344,35.9729,742.79,86.00,63.00,46.25,160.00,5.00,0.00,30.08,1016.60,10.00,M,CLR,M,M,M,M,M,M,M,M,M,M,M,M,M,M,86.88,KHND 240956Z AUTO 16005KT 10SM CLR 30/17 A3008 RMK AO2 SLP166 T03000172,M
TPH,2024-07-24 09:56,-117.0904,38.0505,1654.00,74.00,50.00,42.82,350.00,3.00,0.00,30.30,1016.10,10.00,M,OVC,M,M,M,12000.00,M,M,M,M,M,M,M,M,M,M,74.00,KTPH 240956Z AUTO 35003KT 10SM OVC120 23/10 A3030 RMK AO2 SLP161 T02330100,M
LAS,2024-07-24 09:56,-115.1634,36.0719,663.00,91.00,60.00,35.51,210.00,3.00,0.00,30.04,1010.20,10.00,M,FEW,SCT,OVC,M,13000.00,15000.00,19000.00,M,M,M,M,M,M,M,M,90.65,KLAS 240956Z 21003KT 10SM FEW130 SCT150 OVC190 33/16 A3004 RMK AO2 LTG DSNT NW SLP102 T03280156 $,M
BVU,2024-07-24 10:15,-114.8611,35.9475,671.00,87.80,59.00,37.90,M,3.00,0.00,30.02,M,10.00,11.00,CLR,M,M,M,M,M,M,M,M,M,M,M,M,M,M,87.12,KBVU 241015Z AUTO VRB03G11KT 10SM CLR 31/15 A3002 RMK AO2,M
CXP,2024-07-24 10:15,-119.7326,39.1923,1431.00,71.60,50.00,46.43,0.00,0.00,0.00,30.24,M,10.00,M,CLR,M,M,M,M,M,M,M,M,M,M,M,M,M,M,71.60,KCXP 241015Z AUTO 00000KT 10SM CLR 22/10 A3024 RMK AO2,M
RTS,2024-07-24 10:15,-119.8764,39.6682,1539.00,66.20,53.60,63.82,10.00,5.00,0.00,30.26,M,10.00,M,CLR,M,M,M,M,M,M,M,M,M,M,M,M,M,M,66.20,KRTS 241015Z AUTO 01005KT 10SM CLR 19/12 A3026 RMK AO2,M
05U,2024-07-24 10:15,-116.0051,39.6042,1811.23,64.40,46.40,51.98,0.00,0.00,0.00,30.34,M,10.00,M,CLR,M,M,M,M,M,M,M,M,M,M,M,M,M,M,64.40,K05U 241015Z AUTO 00000KT 10SM CLR 18/08 A3034 RMK A01,M
MEV,2024-07-24 10:15,-119.7500,38.9963,1441.42,60.80,51.80,72.20,0.00,0.00,0.00,30.23,M,10.00,M,FEW,FEW,FEW,M,4100.00,5000.00,6500.00,M,M,M,M,M,M,M,M,60.80,KMEV 241015Z AUTO 00000KT 10SM FEW041 FEW050 FEW065 16/11 A3023 RMK AO2,M
BAM,2024-07-24 10:15,-116.8743,40.5990,1382.36,75.20,50.00,41.14,150.00,6.00,0.00,30.20,M,10.00,M,CLR,M,M,M,M,M,M,M,M,M,M,M,M,M,M,75.20,KBAM 241015Z AUTO 15006KT 10SM CLR 24/10 A3020 RMK AO1,M
HTH,2024-07-24 10:15,-118.6315,38.5448,1282.89,75.20,46.40,35.94,140.00,8.00,0.00,30.19,M,10.00,M,CLR,M,M,M,M,M,M,M,M,M,M,M,M,M,M,75.20,KHTH 241015Z AUTO 14008KT 10SM CLR 24/08 A3019 RMK A01,M
TMT,2024-07-24 10:15,-117.1971,39.4643,1749.34,64.80,54.00,68.00,200.00,4.00,0.00,30.33,M,10.00,M,SCT,M,M,M,12000.00,M,M,M,M,M,M,M,M,M,M,64.80,KTMT 241015Z AUTO 20004KT 10SM SCT120 18/12 A3033 RMK AO2 T01820122,M
10U,2024-07-24 10:15,-116.1876,41.9532,1637.00,73.40,42.80,33.29,150.00,8.00,0.00,30.25,M,10.00,M,CLR,M,M,M,M,M,M,M,M,M,M,M,M,M,M,73.40,K10U 241015Z AUTO 15008KT 10SM CLR 23/06 A3025 RMK AO2,M
BVU,2024-07-24 10:35,-114.8611,35.9475,671.00,87.80,59.00,37.90,300.00,7.00,0.00,30.01,M,10.00,M,CLR,M,M,M,M,M,M,M,M,M,M,M,M,M,M,87.12,KBVU 241035Z AUTO 30007KT 10SM CLR 31/15 A3001 RMK AO2,M
CXP,2024-07-24 10:35,-119.7326,39.1923,1431.00,68.00,50.00,52.51,0.00,0.00,0.00,30.25,M,10.00,M,CLR,M,M,M,M,M,M,M,M,M,M,M,M,M,M,68.00,KCXP 241035Z AUTO 00000KT 10SM CLR 20/10 A3025 RMK AO2,M
RTS,2024-07-24 10:35,-119.8764,39.6682,1539.00,66.20,51.80,59.74,360.00,6.00,0.00,30.26,M,10.00,M,CLR,M,M,M,M,M,M,M,M,M,M,M,M,M,M,66.20,KRTS 241035Z AUTO 36006KT 10SM CLR 19/11 A3026 RMK AO2,M
05U,2024-07-24 10:35,-116.0051,39.6042,1811.23,66.20,46.40,48.83,0.00,0.00,0.00,30.34,M,10.00,M,CLR,M,M,M,M,M,M,M,M,M,M,M,M,M,M,66.20,K05U 241035Z AUTO 00000KT 10SM CLR 19/08 A3034 RMK A01,M
MEV,2024-07-24 10:35,-119.7500,38.9963,1441.42,60.80,51.80,72.20,170.00,3.00,0.00,30.24,M,10.00,M,FEW,M,M,M,5000.00,M,M,M,M,M,M,M,M,M,M,60.80,KMEV 241035Z AUTO 17003KT 10SM FEW050 16/11 A3024 RMK AO2,M
HTH,2024-07-24 10:35,-118.6315,38.5448,1282.89,77.00,46.40,33.85,160.00,10.00,0.00,30.19,M,10.00,15.00,CLR,M,M,M,M,M,M,M,M,M,M,M,M,M,M,77.00,KHTH 241035Z AUTO 16010G15KT 10SM CLR 25/08 A3019 RMK A01,M
10U,2024-07-24 10:35,-116.1876,41.9532,1637.00,73.40,42.80,33.29,160.00,5.00,0.00,30.25,M,10.00,M,CLR,M,M,M,M,M,M,M,M,M,M,M,M,M,M,73.40,K10U 241035Z AUTO 16005KT 10SM CLR 23/06 A3025 RMK AO2,M
BAM,2024-07-24 10:35,-116.8743,40.5990,1382.36,73.40,50.00,43.69,150.00,5.00,0.00,30.20,M,10.00,M,CLR,M,M,M,M,M,M,M,M,M,M,M,M,M,M,73.40,KBAM 241035Z AUTO 15005KT 10SM CLR 23/10 A3020 RMK AO1,M
TMT,2024-07-24 10:35,-117.1971,39.4643,1749.34,63.50,54.70,73.00,260.00,4.00,0.00,30.34,M,10.00,M,SCT,M,M,M,12000.00,M,M,M,M,M,M,M,M,M,M,63.50,KTMT 241035Z AUTO 26004KT 10SM SCT120 18/13 A3034 RMK AO2 T01750126,M
INS,2024-07-24 10:52,-115.6733,36.5872,955.00,77.00,66.20,69.33,250.00,14.00,0.00,30.18,1016.00,10.00,M,FEW,FEW,BKN,OVC,300.00,5000.00,9000.00,11000.00,-RA,M,M,M,M,M,M,77.00,KINS 241052Z AUTO 25014KT 10SM -RA FEW003 FEW050 BKN090 OVC110 25/19 A3018 RMK AO2 WSHFT 38 RAB0955 SLP160 $,M
DRA,2024-07-24 10:53,-116.0278,36.6206,1009.00,76.00,66.00,71.18,70.00,7.00,0.03,30.19,1016.40,10.00,M,FEW,BKN,OVC,M,3900.00,10000.00,12000.00,M,-RA,M,M,M,M,M,M,76.00,KDRA 241053Z AUTO 07007KT 10SM -RA FEW039 BKN100 OVC120 24/19 A3019 RMK AO2 SLP164 P0003 T02440189,M
ELY,2024-07-24 10:53,-114.8453,39.2950,1909.00,62.00,47.00,57.85,130.00,6.00,0.00,30.37,1017.10,10.00,M,CLR,M,M,M,M,M,M,M,M,M,M,M,M,M,M,62.00,KELY 241053Z AUTO 13006KT 10SM CLR 17/08 A3037 RMK AO2 SLP171 T01670083 $,M
VGT,2024-07-24 10:53,-115.1933,36.2111,667.00,92.00,60.00,34.42,320.00,16.00,0.00,30.01,1014.40,10.00,25.00,CLR,M,M,M,M,M,M,M,M,M,M,M,28.00,330.00,2024-07-24 10:03,91.69,KVGT 241053Z AUTO 32016G25KT 10SM CLR 33/16 A3001 RMK AO2 PK WND 33028/1003 SLP144 T03330156,M
LOL,2024-07-24 10:53,-118.5701,40.0684,1192.43,73.00,50.00,44.29,0.00,0.00,0.00,30.15,1015.70,10.00,M,CLR,M,M,M,M,M,M,M,M,M,M,M,M,M,M,73.00,KLOL 241053Z AUTO 00000KT 10SM CLR 23/10 A3015 RMK AO2 SLP157 T02280100,M
NFL,2024-07-24 10:54,-118.7010,39.4166,1199.00,70.00,48.00,45.50,110.00,3.00,0.00,30.16,1017.80,10.00,M,CLR,M,M,M,M,M,M,M,M,M,M,M,M,M,M,70.00,KNFL 241054Z AUTO 11003KT 10SM CLR 21/09 A3016 RMK AO2 SLP178 T02110089,M
BVU,2024-07-24 10:55,-114.8611,35.9475,671.00,87.80,59.00,37.90,210.00,5.00,0.00,30.01,M,10.00,M,CLR,M,M,M,M,M,M,M,M,M,M,M,M,M,M,87.12,KBVU 241055Z AUTO 21005KT 10SM CLR 31/15 A3001 RMK AO2,M
CXP,2024-07-24 10:55,-119.7326,39.1923,1431.00,68.00,51.80,56.13,0.00,0.00,0.00,30.25,M,10.00,M,CLR,M,M,M,M,M,M,M,M,M,M,M,M,M,M,68.00,KCXP 241055Z AUTO 00000KT 10SM CLR 20/11 A3025 RMK AO2,M
RNO,2024-07-24 10:55,-119.7711,39.4839,1341.00,75.00,52.00,44.59,0.00,0.00,0.00,30.21,1015.60,10.00,M,FEW,M,M,M,15000.00,M,M,M,M,M,M,M,M,M,M,75.00,KRNO 241055Z 00000KT 10SM FEW150 24/11 A3021 RMK AO2 SLP156 T02390111,M
LSV,2024-07-24 10:55,-115.0343,36.2362,570.00,92.70,56.70,29.92,290.00,10.00,0.00,29.96,1011.00,10.00,M,SCT,SCT,M,M,18000.00,21000.00,M,M,M,M,M,M,M,M,M,91.23,KLSV 241055Z AUTO 29010KT 10SM SCT180 SCT210 34/14 A2996 RMK AO2 SLP110 T03370137 $,M
RTS,2024-07-24 10:55,-119.8764,39.6682,1539.00,64.40,51.80,63.60,360.00,5.00,0.00,30.26,M,10.00,M,CLR,M,M,M,M,M,M,M,M,M,M,M,M,M,M,64.40,KRTS 241055Z AUTO 36005KT 10SM CLR 18/11 A3026 RMK AO2,M
05U,2024-07-24 10:55,-116.0051,39.6042,1811.23,64.40,46.40,51.98,0.00,0.00,0.00,30.35,M,10.00,M,CLR,M,M,M,M,M,M,M,M,M,M,M,M,M,M,64.40,K05U 241055Z AUTO 00000KT 10SM CLR 18/08 A3035 RMK A01,M
MEV,2024-07-24 10:55,-119.7500,38.9963,1441.42,59.00,50.00,72.01,0.00,0.00,0.00,30.24,M,10.00,M,FEW,FEW,FEW,M,3300.00,4600.00,5500.00,M,M,M,M,M,M,M,M,59.00,KMEV 241055Z AUTO 00000KT 10SM FEW033 FEW046 FEW055 15/10 A3024 RMK AO2,M
HTH,2024-07-24 10:55,-118.6315,38.5448,1282.89,78.80,46.40,31.90,200.00,9.00,0.00,30.20,M,10.00,M,CLR,M,M,M,M,M,M,M,M,M,M,M,M,M,M,78.80,KHTH 241055Z AUTO 20009KT 10SM CLR 26/08 A3020 RMK A01,M
10U,2024-07-24 10:55,-116.1876,41.9532,1637.00,73.40,42.80,33.29,180.00,7.00,0.00,30.25,M,10.00,M,CLR,M,M,M,M,M,M,M,M,M,M,M,M,M,M,73.40,K10U 241055Z AUTO 18007KT 10SM CLR 23/06 A3025 RMK AO2,M
BAM,2024-07-24 10:55,-116.8743,40.5990,1382.36,73.40,50.00,43.69,0.00,0.00,0.00,30.21,M,10.00,M,CLR,M,M,M,M,M,M,M,M,M,M,M,M,M,M,73.40,KBAM 241055Z AUTO 00000KT 10SM CLR 23/10 A3021 RMK AO1,M
TMT,2024-07-24 10:55,-117.1971,39.4643,1749.34,64.60,54.50,69.73,260.00,4.00,0.00,30.33,M,10.00,M,SCT,M,M,M,12000.00,M,M,M,M,M,M,M,M,M,M,64.60,KTMT 241055Z AUTO 26004KT 10SM SCT120 18/13 A3033 RMK AO2 T01810125,M
INS,2024-07-24 10:55,-115.6733,36.5872,955.00,77.00,67.00,71.28,250.00,16.00,0.01,30.17,1015.60,10.00,M,FEW,FEW,OVC,M,300.00,5000.00,9000.00,M,-RA,M,M,M,M,M,M,77.00,KINS 241055Z AUTO 25016KT 10SM -RA FEW003 FEW050 OVC090 25/20 A3017 RMK AO2 RAB0955 SLP156 P0001 T02490195 $,M
EKO,2024-07-24 10:56,-115.7860,40.8242,1367.00,78.00,48.00,34.78,20.00,5.00,0.00,30.22,1015.50,10.00,M,CLR,M,M,M,M,M,M,M,M,M,M,M,M,M,M,78.00,KEKO 241056Z AUTO 02005KT 10SM CLR 26/09 A3022 RMK AO2 SLP155 T02560089,M
WMC,2024-07-24 10:56,-117.8072,40.9019,1315.00,79.00,46.00,31.21,190.00,10.00,0.00,30.17,1014.90,10.00,M,CLR,M,M,M,M,M,M,M,M,M,M,M,M,M,M,79.00,KWMC 241056Z AUTO 19010KT 10SM CLR 26/08 A3017 RMK AO2 SLP149 T02610078,M
HND,2024-07-24 10:56,-115.1344,35.9729,742.79,86.00,62.00,44.65,160.00,7.00,0.00,30.07,1016.40,10.00,M,CLR,M,M,M,M,M,M,M,M,M,M,M,M,M,M,86.48,KHND 241056Z AUTO 16007KT 10SM CLR 30/17 A3007 RMK AO2 SLP164 T03000167,M
TPH,2024-07-24 10:56,-117.0904,38.0505,1654.00,71.00,55.00,56.96,80.00,4.00,0.00,30.30,1016.30,10.00,M,CLR,M,M,M,M,M,M,M,M,M,M,M,M,M,M,71.00,KTPH 241056Z AUTO 08004KT 10SM CLR 22/13 A3030 RMK AO2 SLP163 T02170128,M
LAS,2024-07-24 10:56,-115.1634,36.0719,663.00,91.00,61.00,36.80,220.00,4.00,0.00,30.03,1009.90,10.00,M,SCT,OVC,M,M,17000.00,21000.00,M,M,M,M,M,M,M,M,M,91.06,KLAS 241056Z 22004KT 10SM SCT170 OVC210 33/16 A3003 RMK AO2 SLP099 T03280161 $,M
05U,2024-07-24 11:10,-116.0051,39.6042,1811.23,62.60,46.40,55.37,0.00,0.00,0.00,30.35,M,10.00,M,CLR,M,M,M,M,M,M,M,M,M,M,M,M,M,M,62.60,K05U 241110Z AUTO 00000KT 10SM CLR 17/08 A3035 RMK A01,M
INS,2024-07-24 11:12,-115.6733,36.5872,955.00,77.00,68.00,73.78,230.00,20.00,0.00,30.15,1014.90,10.00,M,FEW,BKN,OVC,M,3200.00,6500.00,13000.00,M,M,M,M,M,M,M,M,77.00,KINS 241112Z AUTO 23020KT 10SM FEW032 BKN065 OVC130 25/20 A3015 RMK AO2 RAE07DZB07E10RAB10E12 PRESFR SLP149 $,M
BVU,2024-07-24 11:15,-114.8611,35.9475,671.00,87.80,59.00,37.90,0.00,0.00,0.00,30.02,M,10.00,M,CLR,M,M,M,M,M,M,M,M,M,M,M,M,M,M,87.12,KBVU 241115Z AUTO 00000KT 10SM CLR 31/15 A3002 RMK AO2,M
CXP,2024-07-24 11:15,-119.7326,39.1923,1431.00,68.00,50.00,52.51,0.00,0.00,0.00,30.26,M,10.00,M,CLR,M,M,M,M,M,M,M,M,M,M,M,M,M,M,68.00,KCXP 241115Z AUTO 00000KT 10SM CLR 20/10 A3026 RMK AO2,M
RTS,2024-07-24 11:15,-119.8764,39.6682,1539.00,64.40,51.80,63.60,360.00,4.00,0.00,30.26,M,10.00,M,CLR,M,M,M,M,M,M,M,M,M,M,M,M,M,M,64.40,KRTS 241115Z AUTO 36004KT 10SM CLR 18/11 A3026 RMK AO2,M
MEV,2024-07-24 11:15,-119.7500,38.9963,1441.42,57.20,50.00,76.82,0.00,0.00,0.00,30.24,M,10.00,M,FEW,FEW,M,M,4500.00,5500.00,M,M,M,M,M,M,M,M,M,57.20,KMEV 241115Z AUTO 00000KT 10SM FEW045 FEW055 14/10 A3024 RMK AO2,M
HTH,2024-07-24 11:15,-118.6315,38.5448,1282.89,78.80,46.40,31.90,180.00,9.00,0.00,30.20,M,10.00,14.00,CLR,M,M,M,M,M,M,M,M,M,M,M,M,M,M,78.80,KHTH 241115Z AUTO 18009G14KT 10SM CLR 26/08 A3020 RMK A01,M
10U,2024-07-24 11:15,-116.1876,41.9532,1637.00,71.60,42.80,35.37,170.00,7.00,0.00,30.25,M,10.00,M,CLR,M,M,M,M,M,M,M,M,M,M,M,M,M,M,71.60,K10U 241115Z AUTO 17007KT 10SM CLR 22/06 A3025 RMK AO2,M
BAM,2024-07-24 11:15,-116.8743,40.5990,1382.36,73.40,50.00,43.69,0.00,0.00,0.00,30.20,M,10.00,M,CLR,M,M,M,M,M,M,M,M,M,M,M,M,M,M,73.40,KBAM 241115Z AUTO 00000KT 10SM CLR 23/10 A3020 RMK AO1,M
TMT,2024-07-24 11:15,-117.1971,39.4643,1749.34,62.00,55.00,77.81,0.00,0.00,0.00,30.34,M,10.00,M,CLR,M,M,M,M,M,M,M,M,M,M,M,M,M,M,62.00,KTMT 241115Z AUTO 00000KT 10SM CLR 17/13 A3034 RMK AO2 T01670127,M
05U,2024-07-24 11:30,-116.0051,39.6042,1811.23,64.40,46.40,51.98,0.00,0.00,0.00,30.35,M,10.00,M,CLR,M,M,M,M,M,M,M,M,M,M,M,M,M,M,64.40,K05U 241130Z AUTO 00000KT 10SM CLR 18/08 A3035 RMK A01,M
BVU,2024-07-24 11:35,-114.8611,35.9475,671.00,87.80,59.00,37.90,80.00,6.00,0.00,30.03,M,10.00,M,CLR,M,M,M,M,M,M,M,M,M,M,M,M,M,M,87.12,KBVU 241135Z AUTO 08006KT 10SM CLR 31/15 A3003 RMK AO2,M
CXP,2024-07-24 11:35,-119.7326,39.1923,1431.00,68.00,50.00,52.51,0.00,0.00,0.00,30.26,M,10.00,M,CLR,M,M,M,M,M,M,M,M,M,M,M,M,M,M,68.00,KCXP 241135Z AUTO 00000KT 10SM CLR 20/10 A3026 RMK AO2,M
RTS,2024-07-24 11:35,-119.8764,39.6682,1539.00,66.20,51.80,59.74,80.00,3.00,0.00,30.27,M,10.00,M,CLR,M,M,M,M,M,M,M,M,M,M,M,M,M,M,66.20,KRTS 241135Z AUTO 08003KT 10SM CLR 19/11 A3027 RMK AO2,M
HTH,2024-07-24 11:35,-118.6315,38.5448,1282.89,78.80,46.40,31.90,0.00,0.00,0.00,30.20,M,10.00,M,CLR,M,M,M,M,M,M,M,M,M,M,M,M,M,M,78.80,KHTH 241135Z AUTO 00000KT 10SM CLR 26/08 A3020 RMK A01,M
MEV,2024-07-24 11:35,-119.7500,38.9963,1441.42,57.20,51.80,82.12,120.00,5.00,0.00,30.25,M,10.00,M,FEW,FEW,M,M,4900.00,6000.00,M,M,M,M,M,M,M,M,M,57.20,KMEV 241135Z AUTO 12005KT 10SM FEW049 FEW060 14/11 A3025 RMK AO2,M
10U,2024-07-24 11:35,-116.1876,41.9532,1637.00,71.60,44.60,37.89,170.00,4.00,0.00,30.25,M,10.00,M,FEW,M,M,M,1300.00,M,M,M,M,M,M,M,M,M,M,71.60,K10U 241135Z AUTO 17004KT 10SM FEW013 22/07 A3025 RMK AO2,M
BAM,2024-07-24 11:35,-116.8743,40.5990,1382.36,71.60,50.00,46.43,180.00,6.00,0.00,30.20,M,10.00,M,CLR,M,M,M,M,M,M,M,M,M,M,M,M,M,M,71.60,KBAM 241135Z AUTO 18006KT 10SM CLR 22/10 A3020 RMK AO1,M
TMT,2024-07-24 11:35,-117.1971,39.4643,1749.34,61.70,54.00,75.82,220.00,4.00,0.00,30.34,M,10.00,M,CLR,M,M,M,M,M,M,M,M,M,M,M,M,M,M,61.70,KTMT 241135Z AUTO 22004KT 10SM CLR 17/12 A3034 RMK AO2 T01650122,M
HTH,2024-07-24 11:50,-118.6315,38.5448,1282.89,77.00,46.40,33.85,0.00,0.00,0.00,30.21,M,10.00,M,CLR,M,M,M,M,M,M,M,M,M,M,M,M,M,M,77.00,KHTH 241150Z AUTO 00000KT 10SM CLR 25/08 A3021 RMK A01,M
P68,2024-07-24 11:53,-116.0056,39.6014,1993.00,65.00,47.00,52.07,170.00,4.00,0.00,30.33,1017.00,M,M,M,M,M,M,M,M,M,M,M,M,M,M,M,M,M,65.00,KP68 241153Z AUTO 17004KT 18/08 A3033 RMK AO1 SLP170 T01830083 10256 20172 52002,M
DRA,2024-07-24 11:53,-116.0278,36.6206,1009.00,79.00,62.00,56.03,50.00,7.00,T,30.18,1016.00,10.00,M,BKN,M,M,M,11000.00,M,M,M,M,M,M,M,M,M,M,79.00,KDRA 241153Z AUTO 05007KT 10SM BKN110 26/17 A3018 RMK AO2 RAE1056 SLP160 P0000 60003 70003 T02610167 10356 20239 50007,M
ELY,2024-07-24 11:53,-114.8453,39.2950,1909.00,60.00,46.00,59.80,0.00,0.00,0.00,30.38,1017.70,10.00,M,CLR,M,M,M,M,M,M,M,M,M,M,M,M,M,M,60.00,KELY 241153Z AUTO 00000KT 10SM CLR 16/08 A3038 RMK AO2 SLP177 T01560078 10228 20150 53008 $,M
VGT,2024-07-24 11:53,-115.1933,36.2111,667.00,90.00,61.00,37.97,330.00,18.00,0.00,30.02,1014.70,10.00,29.00,CLR,M,M,M,M,M,M,M,M,M,M,M,29.00,330.00,2024-07-24 11:31,90.03,KVGT 241153Z AUTO 33018G29KT 10SM CLR 32/16 A3002 RMK AO2 PK WND 33029/1131 SLP147 T03220161 10361 20322 55007,M
LOL,2024-07-24 11:53,-118.5701,40.0684,1192.43,66.00,50.00,56.27,120.00,4.00,0.00,30.17,1016.80,10.00,M,CLR,M,M,M,M,M,M,M,M,M,M,M,M,M,M,66.00,KLOL 241153Z AUTO 12004KT 10SM CLR 19/10 A3017 RMK AO2 SLP168 T01890100 10283 20189 53009,M
NFL,2024-07-24 11:54,-118.7010,39.4166,1199.00,69.00,49.00,48.88,150.00,5.00,0.00,30.17,1018.20,10.00,M,CLR,M,M,M,M,M,M,M,M,M,M,M,M,M,M,69.00,KNFL 241154Z AUTO 15005KT 10SM CLR 21/09 A3017 RMK AO2 SLP182 T02060094 10289 20206 53006,M
BVU,2024-07-24 11:55,-114.8611,35.9475,671.00,87.80,59.00,37.90,40.00,5.00,0.00,30.04,M,10.00,M,CLR,M,M,M,M,M,M,M,M,M,M,M,M,M,M,87.12,KBVU 241155Z AUTO 04005KT 10SM CLR 31/15 A3004 RMK AO2,M
CXP,2024-07-24 11:55,-119.7326,39.1923,1431.00,66.20,51.80,59.74,0.00,0.00,0.00,30.27,M,10.00,M,CLR,M,M,M,M,M,M,M,M,M,M,M,M,M,M,66.20,KCXP 241155Z AUTO 00000KT 10SM CLR 19/11 A3027 RMK AO2,M
INS,2024-07-24 11:55,-115.6733,36.5872,955.00,80.60,62.40,53.92,230.00,13.00,T,30.14,1014.40,10.00,M,BKN,OVC,M,M,14000.00,16000.00,M,M,M,M,M,M,M,M,M,81.80,KINS 241155Z AUTO 23013KT 10SM BKN140 OVC160 27/17 A3014 RMK AO2 RAE07DZB07E10RAB10E12 SLP144 P0000 60001 70001 T02700169 10362 20247 50001 $,M
RNO,2024-07-24 11:55,-119.7711,39.4839,1341.00,72.00,53.00,51.18,180.00,3.00,0.00,30.22,1016.50,10.00,M,FEW,M,M,M,10000.00,M,M,M,M,M,M,M,M,M,M,72.00,KRNO 241155Z 18003KT 10SM FEW100 22/12 A3022 RMK AO2 SLP165 T02220117 10278 20222 53006,M
RTS,2024-07-24 11:55,-119.8764,39.6682,1539.00,64.40,50.00,59.50,290.00,3.00,0.00,30.28,M,10.00,M,CLR,M,M,M,M,M,M,M,M,M,M,M,M,M,M,64.40,KRTS 241155Z AUTO 29003KT 10SM CLR 18/10 A3028 RMK AO2,M
05U,2024-07-24 11:55,-116.0051,39.6042,1811.23,64.40,46.40,51.98,0.00,0.00,0.00,30.35,M,10.00,M,CLR,M,M,M,M,M,M,M,M,M,M,M,M,M,M,64.40,K05U 241155Z AUTO 00000KT 10SM CLR 18/08 A3035 RMK A01,M
MEV,2024-07-24 11:55,-119.7500,38.9963,1441.42,59.00,50.00,72.01,90.00,4.00,0.00,30.25,M,10.00,M,FEW,FEW,SCT,M,3400.00,4300.00,5000.00,M,M,M,M,M,M,M,M,59.00,KMEV 241155Z AUTO 09004KT 10SM FEW034 FEW043 SCT050 15/10 A3025 RMK AO2,M
BAM,2024-07-24 11:55,-116.8743,40.5990,1382.36,71.60,50.00,46.43,160.00,4.00,0.00,30.21,M,10.00,M,CLR,M,M,M,M,M,M,M,M,M,M,M,M,M,M,71.60,KBAM 241155Z AUTO 16004KT 10SM CLR 22/10 A3021 RMK AO1,M
10U,2024-07-24 11:55,-116.1876,41.9532,1637.00,68.00,44.60,42.85,120.00,5.00,0.00,30.26,M,10.00,M,FEW,M,M,M,1400.00,M,M,M,M,M,M,M,M,M,M,68.00,K10U 241155Z AUTO 12005KT 10SM FEW014 20/07 A3026 RMK AO2,M
TMT,2024-07-24 11:55,-117.1971,39.4643,1749.34,59.00,53.20,81.05,190.00,4.00,0.00,30.34,M,10.00,M,CLR,M,M,M,M,M,M,M,M,M,M,M,M,M,M,59.00,KTMT 241155Z AUTO 19004KT 10SM CLR 15/12 A3034 RMK AO2 T01500118 10209 20146,M
LSV,2024-07-24 11:55,-115.0343,36.2362,570.00,90.30,60.40,36.82,310.00,24.00,0.00,29.96,1011.10,10.00,27.00,BKN,M,M,M,19000.00,M,M,M,M,M,M,M,35.00,310.00,2024-07-24 11:29,90.09,KLSV 241155Z AUTO 31024G27KT 10SM BKN190 32/16 A2996 RMK AO2 PK WND 31035/29 SLP111 60000 T03240158 10354 20286 56009 $,M
EKO,2024-07-24 11:56,-115.7860,40.8242,1367.00,71.00,51.00,49.18,220.00,6.00,0.00,30.23,1016.40,10.00,M,CLR,M,M,M,M,M,M,M,M,M,M,M,M,M,M,71.00,KEKO 241156Z AUTO 22006KT 10SM CLR 22/11 A3023 RMK AO2 SLP164 T02170106 10322 20217 53001,M
WMC,2024-07-24 11:56,-117.8072,40.9019,1315.00,76.00,46.00,34.47,190.00,7.00,0.00,30.18,1015.40,10.00,M,CLR,M,M,M,M,M,M,M,M,M,M,M,M,M,M,76.00,KWMC 241156Z AUTO 19007KT 10SM CLR 24/08 A3018 RMK AO2 SLP154 T02440078 10306 20244 53005,M
HND,2024-07-24 11:56,-115.1344,35.9729,742.79,87.00,61.00,41.75,160.00,3.00,0.00,30.08,1016.40,10.00,M,CLR,M,M,M,M,M,M,M,M,M,M,M,M,M,M,87.06,KHND 241156Z AUTO 16003KT 10SM CLR 31/16 A3008 RMK AO2 SLP164 T03060161 10350 20300 55006,M
TPH,2024-07-24 11:56,-117.0904,38.0505,1654.00,68.00,54.00,60.86,250.00,3.00,0.00,30.33,1017.50,10.00,M,CLR,M,M,M,M,M,M,M,M,M,M,M,M,M,M,68.00,KTPH 241156Z AUTO 25003KT 10SM CLR 20/12 A3033 RMK AO2 SLP175 T02000122 10289 20200 53009,M
LAS,2024-07-24 11:56,-115.1634,36.0719,663.00,92.00,59.00,33.21,M,M,0.00,30.03,1009.90,10.00,M,BKN,BKN,M,M,16000.00,21000.00,M,M,M,M,M,M,M,M,M,91.30,KLAS 241156Z 10SM BKN160 BKN210 33/15 A3003 RMK AO2 SLP099 T03330150 10367 20317 56009 $,M
LAS,2024-07-24 12:01,-115.1634,36.0719,663.00,93.00,58.00,31.06,M,5.00,0.00,30.03,M,10.00,M,BKN,BKN,M,M,16000.00,21000.00,M,M,M,M,M,M,M,M,M,91.98,KLAS 241201Z VRB05KT 10SM BKN160 BKN210 34/14 A3003 RMK AO2 T03390144 $,M
LSV,2024-07-24 12:05,-115.0343,36.2362,570.00,91.40,60.80,36.08,350.00,12.00,0.00,29.98,1011.80,10.00,M,OVC,M,M,M,19000.00,M,M,M,M,M,M,M,M,M,M,91.40,KLSV 241205Z AUTO 35012KT 10SM OVC190 33/16 A2998 RMK AO2 WSHFT 1150 PRESRR SLP118 $,M
05U,2024-07-24 12:10,-116.0051,39.6042,1811.23,64.40,46.40,51.98,0.00,0.00,0.00,30.35,M,10.00,M,CLR,M,M,M,M,M,M,M,M,M,M,M,M,M,M,64.40,K05U 241210Z AUTO 00000KT 10SM CLR 18/08 A3035 RMK A01,M
BVU,2024-07-24 12:15,-114.8611,35.9475,671.00,87.80,59.00,37.90,40.00,4.00,0.00,30.04,M,10.00,M,CLR,M,M,M,M,M,M,M,M,M,M,M,M,M,M,87.12,KBVU 241215Z AUTO 04004KT 10SM CLR 31/15 A3004 RMK AO2,M
CXP,2024-07-24 12:15,-119.7326,39.1923,1431.00,66.20,51.80,59.74,0.00,0.00,0.00,30.27,M,10.00,M,CLR,M,M,M,M,M,M,M,M,M,M,M,M,M,M,66.20,KCXP 241215Z AUTO 00000KT 10SM CLR 19/11 A3027 RMK AO2,M
RTS,2024-07-24 12:15,-119.8764,39.6682,1539.00,66.20,51.80,59.74,270.00,4.00,0.00,30.28,M,10.00,M,CLR,M,M,M,M,M,M,M,M,M,M,M,M,M,M,66.20,KRTS 241215Z AUTO 27004KT 10SM CLR 19/11 A3028 RMK AO2,M
MEV,2024-07-24 12:15,-119.7500,38.9963,1441.42,59.00,50.00,72.01,100.00,3.00,0.00,30.26,M,10.00,M,CLR,M,M,M,M,M,M,M,M,M,M,M,M,M,M,59.00,KMEV 241215Z AUTO 10003KT 10SM CLR 15/10 A3026 RMK AO2,M
HTH,2024-07-24 12:15,-118.6315,38.5448,1282.89,73.40,48.20,40.85,50.00,5.00,0.00,30.21,M,10.00,M,CLR,M,M,M,M,M,M,M,M,M,M,M,M,M,M,73.40,KHTH 241215Z AUTO 05005KT 10SM CLR 23/09 A3021 RMK A01,M
10U,2024-07-24 12:15,-116.1876,41.9532,1637.00,73.40,44.60,35.66,160.00,3.00,0.00,30.26,M,10.00,M,CLR,M,M,M,M,M,M,M,M,M,M,M,M,M,M,73.40,K10U 241215Z AUTO 16003KT 10SM CLR 23/07 A3026 RMK AO2,M
BAM,2024-07-24 12:15,-116.8743,40.5990,1382.36,71.60,50.00,46.43,220.00,4.00,0.00,30.21,M,10.00,M,CLR,M,M,M,M,M,M,M,M,M,M,M,M,M,M,71.60,KBAM 241215Z AUTO 22004KT 10SM CLR 22/10 A3021 RMK AO1,M
TMT,2024-07-24 12:15,-117.1971,39.4643,1749.34,55.80,51.00,83.87,210.00,3.00,0.00,30.35,M,10.00,M,CLR,M,M,M,M,M,M,M,M,M,M,M,M,M,M,55.80,KTMT 241215Z AUTO 21003KT 10SM CLR 13/11 A3035 RMK AO2 T01320105,M
05U,2024-07-24 12:30,-116.0051,39.6042,1811.23,66.20,46.40,48.83,170.00,7.00,0.00,30.35,M,10.00,M,CLR,M,M,M,M,M,M,M,M,M,M,M,M,M,M,66.20,K05U 241230Z AUTO 17007KT 10SM CLR 19/08 A3035 RMK A01,M
BVU,2024-07-24 12:35,-114.8611,35.9475,671.00,87.80,59.00,37.90,320.00,11.00,0.00,30.04,M,10.00,M,CLR,M,M,M,M,M,M,M,M,M,M,M,M,M,M,87.12,KBVU 241235Z AUTO 32011KT 10SM CLR 31/15 A3004 RMK AO2,M
CXP,2024-07-24 12:35,-119.7326,39.1923,1431.00,66.20,50.00,55.88,0.00,0.00,0.00,30.27,M,10.00,M,CLR,M,M,M,M,M,M,M,M,M,M,M,M,M,M,66.20,KCXP 241235Z AUTO 00000KT 10SM CLR 19/10 A3027 RMK AO2,M
RTS,2024-07-24 12:35,-119.8764,39.6682,1539.00,64.40,50.00,59.50,350.00,5.00,0.00,30.29,M,10.00,M,CLR,M,M,M,M,M,M,M,M,M,M,M,M,M,M,64.40,KRTS 241235Z AUTO 35005KT 10SM CLR 18/10 A3029 RMK AO2,M
MEV,2024-07-24 12:35,-119.7500,38.9963,1441.42,55.40,50.00,81.99,0.00,0.00,0.00,30.26,M,10.00,M,CLR,M,M,M,M,M,M,M,M,M,M,M,M,M,M,55.40,KMEV 241235Z AUTO 00000KT 10SM CLR 13/10 A3026 RMK AO2,M
HTH,2024-07-24 12:35,-118.6315,38.5448,1282.89,71.60,48.20,43.42,40.00,6.00,0.00,30.22,M,10.00,M,CLR,M,M,M,M,M,M,M,M,M,M,M,M,M,M,71.60,KHTH 241235Z AUTO 04006KT 10SM CLR 22/09 A3022 RMK A01,M
BAM,2024-07-24 12:35,-116.8743,40.5990,1382.36,71.60,51.80,49.64,220.00,4.00,0.00,30.21,M,10.00,M,CLR,M,M,M,M,M,M,M,M,M,M,M,M,M,M,71.60,KBAM 241235Z AUTO 22004KT 10SM CLR 22/11 A3021 RMK AO1,M
TMT,2024-07-24 12:35,-117.1971,39.4643,1749.34,57.00,51.30,81.20,0.00,0.00,0.00,30.35,M,10.00,M,CLR,M,M,M,M,M,M,M,M,M,M,M,M,M,M,57.00,KTMT 241235Z AUTO 00000KT 10SM CLR 14/11 A3035 RMK AO2 T01380107,M
10U,2024-07-24 12:35,-116.1876,41.9532,1637.00,71.60,44.60,37.89,160.00,3.00,0.00,30.26,M,9.00,M,CLR,M,M,M,M,M,M,M,M,M,M,M,M,M,M,71.60,K10U 241235Z AUTO 16003KT 9SM CLR 22/07 A3026 RMK AO2,M
P68,2024-07-24 12:53,-116.0056,39.6014,1993.00,67.00,47.00,48.58,200.00,8.00,0.00,30.33,1017.40,M,M,M,M,M,M,M,M,M,M,M,M,M,M,M,M,M,67.00,KP68 241253Z AUTO 20008KT 19/08 A3033 RMK AO1 SLP174 T01940083,M
DRA,2024-07-24 12:53,-116.0278,36.6206,1009.00,77.00,63.00,62.00,40.00,17.00,0.00,30.15,1015.30,10.00,M,CLR,M,M,M,M,M,M,M,M,M,M,M,M,M,M,77.00,KDRA 241253Z AUTO 04017KT 10SM CLR 25/17 A3015 RMK AO2 SLP153 T02500172,M
ELY,2024-07-24 12:53,-114.8453,39.2950,1909.00,57.00,45.00,64.12,200.00,6.00,0.00,30.39,1018.50,10.00,M,CLR,M,M,M,M,M,M,M,M,M,M,M,M,M,M,57.00,KELY 241253Z AUTO 20006KT 10SM CLR 14/07 A3039 RMK AO2 SLP185 T01390072 $,M
VGT,2024-07-24 12:53,-115.1933,36.2111,667.00,90.00,59.00,35.36,360.00,16.00,0.00,30.04,1015.30,10.00,24.00,CLR,M,M,M,M,M,M,M,M,M,M,M,32.00,330.00,2024-07-24 11:55,89.26,KVGT 241253Z 36016G24KT 10SM CLR 32/15 A3004 RMK AO2 PK WND 33032/1155 SLP153 T03220150,M
LOL,2024-07-24 12:53,-118.5701,40.0684,1192.43,69.00,52.00,54.64,0.00,0.00,0.00,30.18,1017.00,10.00,M,CLR,M,M,M,M,M,M,M,M,M,M,M,M,M,M,69.00,KLOL 241253Z AUTO 00000KT 10SM CLR 21/11 A3018 RMK AO2 SLP170 T02060111,M
NFL,2024-07-24 12:54,-118.7010,39.4166,1199.00,71.00,50.00,47.39,0.00,0.00,0.00,30.19,1018.50,10.00,M,CLR,M,M,M,M,M,M,M,M,M,M,M,M,M,M,71.00,KNFL 241254Z AUTO 00000KT 10SM CLR 22/10 A3019 RMK AO2 SLP185 T02170100,M
BVU,2024-07-24 12:55,-114.8611,35.9475,671.00,89.60,59.00,35.81,320.00,12.00,0.00,30.03,M,10.00,19.00,CLR,M,M,M,M,M,M,M,M,M,M,M,M,M,M,88.86,KBVU 241255Z AUTO 32012G19KT 10SM CLR 32/15 A3003 RMK AO2,M
CXP,2024-07-24 12:55,-119.7326,39.1923,1431.00,64.40,51.80,63.60,0.00,0.00,0.00,30.28,M,10.00,M,CLR,M,M,M,M,M,M,M,M,M,M,M,M,M,M,64.40,KCXP 241255Z AUTO 00000KT 10SM CLR 18/11 A3028 RMK AO2,M
INS,2024-07-24 12:55,-115.6733,36.5872,955.00,81.00,61.00,50.65,240.00,11.00,0.00,30.14,1014.50,10.00,M,OVC,M,M,M,18000.00,M,M,M,M,M,M,M,M,M,M,81.81,KINS 241255Z AUTO 24011KT 10SM OVC180 27/16 A3014 RMK AO2 SLP145 T02730162 $,M
RNO,2024-07-24 12:55,-119.7711,39.4839,1341.00,73.00,52.00,47.69,0.00,0.00,0.00,30.24,1017.20,10.00,M,SCT,M,M,M,8000.00,M,M,M,M,M,M,M,M,M,M,73.00,KRNO 241255Z 00000KT 10SM SCT080 23/11 A3024 RMK AO2 SLP172 FU ALF ALQDS T02280111,M
RTS,2024-07-24 12:55,-119.8764,39.6682,1539.00,62.60,51.80,67.75,0.00,0.00,0.00,30.29,M,8.00,M,CLR,M,M,M,M,M,M,M,M,M,M,M,M,M,M,62.60,KRTS 241255Z AUTO 00000KT 8SM CLR 17/11 A3029 RMK AO2,M
05U,2024-07-24 12:55,-116.0051,39.6042,1811.23,68.00,46.40,45.88,190.00,6.00,0.00,30.36,M,10.00,M,CLR,M,M,M,M,M,M,M,M,M,M,M,M,M,M,68.00,K05U 241255Z AUTO 19006KT 10SM CLR 20/08 A3036 RMK A01,M
MEV,2024-07-24 12:55,-119.7500,38.9963,1441.42,57.20,48.20,71.83,0.00,0.00,0.00,30.27,M,10.00,M,CLR,M,M,M,M,M,M,M,M,M,M,M,M,M,M,57.20,KMEV 241255Z AUTO 00000KT 10SM CLR 14/09 A3027 RMK AO2,M
HTH,2024-07-24 12:55,-118.6315,38.5448,1282.89,71.60,48.20,43.42,220.00,4.00,0.00,30.23,M,10.00,M,CLR,M,M,M,M,M,M,M,M,M,M,M,M,M,M,71.60,KHTH 241255Z AUTO 22004KT 10SM CLR 22/09 A3023 RMK A01,M
10U,2024-07-24 12:55,-116.1876,41.9532,1637.00,71.60,44.60,37.89,0.00,0.00,0.00,30.26,M,8.00,M,CLR,M,M,M,M,M,M,M,M,M,M,M,M,M,M,71.60,K10U 241255Z AUTO 00000KT 8SM CLR 22/07 A3026 RMK AO2,M
BAM,2024-07-24 12:55,-116.8743,40.5990,1382.36,69.80,50.00,49.37,0.00,0.00,0.00,30.23,M,10.00,M,CLR,M,M,M,M,M,M,M,M,M,M,M,M,M,M,69.80,KBAM 241255Z AUTO 00000KT 10SM CLR 21/10 A3023 RMK AO1,M
TMT,2024-07-24 12:55,-117.1971,39.4643,1749.34,57.00,51.40,81.50,0.00,0.00,0.00,30.36,M,10.00,M,CLR,M,M,M,M,M,M,M,M,M,M,M,M,M,M,57.00,KTMT 241255Z AUTO 00000KT 10SM CLR 14/11 A3036 RMK AO2 T01390108,M
LSV,2024-07-24 12:55,-115.0343,36.2362,570.00,88.00,62.60,42.80,50.00,7.00,0.00,30.01,1012.90,10.00,M,FEW,M,M,M,17000.00,M,M,M,M,M,M,M,28.00,310.00,2024-07-24 12:03,88.68,KLSV 241255Z AUTO 05007KT 10SM FEW170 31/17 A3001 RMK AO2 PK WND 31028/03 SLP129 T03110170 $,M
EKO,2024-07-24 12:56,-115.7860,40.8242,1367.00,70.00,50.00,49.03,0.00,0.00,0.00,30.25,1017.10,10.00,M,CLR,M,M,M,M,M,M,M,M,M,M,M,M,M,M,70.00,KEKO 241256Z AUTO 00000KT 10SM CLR 21/10 A3025 RMK AO2 SLP171 T02110100,M
WMC,2024-07-24 12:56,-117.8072,40.9019,1315.00,75.00,48.00,38.43,0.00,0.00,0.00,30.19,1016.10,10.00,M,FEW,M,M,M,12000.00,M,M,M,M,M,M,M,M,M,M,75.00,KWMC 241256Z AUTO 00000KT 10SM FEW120 24/09 A3019 RMK AO2 SLP161 T02390089,M
HND,2024-07-24 12:56,-115.1344,35.9729,742.79,87.00,60.00,40.29,20.00,8.00,0.00,30.10,1017.10,10.00,M,CLR,M,M,M,M,M,M,M,M,M,M,M,M,M,M,86.70,KHND 241256Z AUTO 02008KT 10SM CLR 31/16 A3010 RMK AO2 SLP171 T03060156,M
TPH,2024-07-24 12:56,-117.0904,38.0505,1654.00,68.00,56.00,65.45,0.00,0.00,0.00,30.34,1018.80,10.00,M,CLR,M,M,M,M,M,M,M,M,M,M,M,M,M,M,68.00,KTPH 241256Z AUTO 00000KT 10SM CLR 20/13 A3034 RMK AO2 SLP188 T02000133,M
LAS,2024-07-24 12:56,-115.1634,36.0719,663.00,90.00,60.00,36.64,350.00,7.00,0.00,30.04,1010.30,10.00,M,FEW,BKN,M,M,16000.00,22000.00,M,M,M,M,M,M,M,M,M,89.63,KLAS 241256Z 35007KT 10SM FEW160 BKN220 32/16 A3004 RMK AO2 SLP103 T03220156 $,M
BVU,2024-07-24 13:15,-114.8611,35.9475,671.00,89.60,59.00,35.81,290.00,10.00,0.00,30.05,M,10.00,18.00,CLR,M,M,M,M,M,M,M,M,M,M,M,M,M,M,88.86,KBVU 241315Z AUTO 29010G18KT 10SM CLR 32/15 A3005 RMK AO2,M
CXP,2024-07-24 13:15,-119.7326,39.1923,1431.00,66.20,51.80,59.74,0.00,0.00,0.00,30.28,M,10.00,M,CLR,M,M,M,M,M,M,M,M,M,M,M,M,M,M,66.20,KCXP 241315Z AUTO 00000KT 10SM CLR 19/11 A3028 RMK AO2,M
RTS,2024-07-24 13:15,-119.8764,39.6682,1539.00,64.40,51.80,63.60,340.00,5.00,0.00,30.30,M,10.00,M,CLR,M,M,M,M,M,M,M,M,M,M,M,M,M,M,64.40,KRTS 241315Z AUTO 34005KT 10SM CLR 18/11 A3030 RMK AO2,M
05U,2024-07-24 13:15,-116.0051,39.6042,1811.23,68.00,46.40,45.88,180.00,7.00,0.00,30.36,M,10.00,M,CLR,M,M,M,M,M,M,M,M,M,M,M,M,M,M,68.00,K05U 241315Z AUTO 18007KT 10SM CLR 20/08 A3036 RMK A01,M
MEV,2024-07-24 13:15,-119.7500,38.9963,1441.42,59.00,48.20,67.33,0.00,0.00,0.00,30.27,M,10.00,M,CLR,M,M,M,M,M,M,M,M,M,M,M,M,M,M,59.00,KMEV 241315Z AUTO 00000KT 10SM CLR 15/09 A3027 RMK AO2,M
HTH,2024-07-24 13:15,-118.6315,38.5448,1282.89,73.40,48.20,40.85,0.00,0.00,0.00,30.23,M,10.00,M,CLR,M,M,M,M,M,M,M,M,M,M,M,M,M,M,73.40,KHTH 241315Z AUTO 00000KT 10SM CLR 23/09 A3023 RMK A01,M
10U,2024-07-24 13:15,-116.1876,41.9532,1637.00,69.80,46.40,43.13,0.00,0.00,0.00,30.27,M,8.00,M,CLR,M,M,M,M,M,M,M,M,M,M,M,M,M,M,69.80,K10U 241315Z AUTO 00000KT 8SM CLR 21/08 A3027 RMK AO2,M
BAM,2024-07-24 13:15,-116.8743,40.5990,1382.36,69.80,51.80,52.77,230.00,5.00,0.00,30.23,M,10.00,M,CLR,M,M,M,M,M,M,M,M,M,M,M,M,M,M,69.80,KBAM 241315Z AUTO 23005KT 10SM CLR 21/11 A3023 RMK AO1,M
TMT,2024-07-24 13:15,-117.1971,39.4643,1749.34,59.40,53.40,80.49,0.00,0.00,0.00,30.36,M,10.00,M,CLR,M,M,M,M,M,M,M,M,M,M,M,M,M,M,59.40,KTMT 241315Z AUTO 00000KT 10SM CLR 15/12 A3036 RMK AO2 T01520119,M
NFL,2024-07-24 13:32,-118.7010,39.4166,1199.00,69.00,49.00,48.88,0.00,0.00,0.00,30.19,M,M,M,FEW,SCT,SCT,SCT,8000.00,12000.00,18000.00,22000.00,M,M,M,M,M,M,M,69.00,KNFL 241332Z COR 00000KT FEW080 SCT120 SCT180 SCT220 21/09 A3019 RMK T02060094,M
BVU,2024-07-24 13:35,-114.8611,35.9475,671.00,89.60,59.00,35.81,210.00,8.00,0.00,30.05,M,10.00,M,CLR,M,M,M,M,M,M,M,M,M,M,M,M,M,M,88.86,KBVU 241335Z AUTO 21008KT 10SM CLR 32/15 A3005 RMK AO2,M
CXP,2024-07-24 13:35,-119.7326,39.1923,1431.00,68.00,50.00,52.51,0.00,0.00,0.00,30.29,M,10.00,M,CLR,M,M,M,M,M,M,M,M,M,M,M,M,M,M,68.00,KCXP 241335Z AUTO 00000KT 10SM CLR 20/10 A3029 RMK AO2,M
RTS,2024-07-24 13:35,-119.8764,39.6682,1539.00,64.40,51.80,63.60,0.00,0.00,0.00,30.30,M,10.00,M,CLR,M,M,M,M,M,M,M,M,M,M,M,M,M,M,64.40,KRTS 241335Z AUTO 00000KT 10SM CLR 18/11 A3030 RMK AO2,M
05U,2024-07-24 13:35,-116.0051,39.6042,1811.23,69.80,46.40,43.13,0.00,0.00,0.00,30.37,M,10.00,M,CLR,M,M,M,M,M,M,M,M,M,M,M,M,M,M,69.80,K05U 241335Z AUTO 00000KT 10SM CLR 21/08 A3037 RMK A01,M
MEV,2024-07-24 13:35,-119.7500,38.9963,1441.42,59.00,50.00,72.01,0.00,0.00,0.00,30.27,M,10.00,M,CLR,M,M,M,M,M,M,M,M,M,M,M,M,M,M,59.00,KMEV 241335Z AUTO 00000KT 10SM CLR 15/10 A3027 RMK AO2,M
HTH,2024-07-24 13:35,-118.6315,38.5448,1282.89,73.40,48.20,40.85,0.00,0.00,0.00,30.24,M,10.00,M,CLR,M,M,M,M,M,M,M,M,M,M,M,M,M,M,73.40,KHTH 241335Z AUTO 00000KT 10SM CLR 23/09 A3024 RMK A01,M
10U,2024-07-24 13:35,-116.1876,41.9532,1637.00,69.80,46.40,43.13,0.00,0.00,0.00,30.27,M,8.00,M,CLR,M,M,M,M,M,M,M,M,M,M,M,M,M,M,69.80,K10U 241335Z AUTO 00000KT 8SM CLR 21/08 A3027 RMK AO2,M
BAM,2024-07-24 13:35,-116.8743,40.5990,1382.36,71.60,51.80,49.64,80.00,3.00,0.00,30.23,M,10.00,M,CLR,M,M,M,M,M,M,M,M,M,M,M,M,M,M,71.60,KBAM 241335Z AUTO 08003KT 10SM CLR 22/11 A3023 RMK AO1,M
TMT,2024-07-24 13:35,-117.1971,39.4643,1749.34,60.40,54.50,80.86,0.00,0.00,0.00,30.37,M,10.00,M,CLR,M,M,M,M,M,M,M,M,M,M,M,M,M,M,60.40,KTMT 241335Z AUTO 00000KT 10SM CLR 16/13 A3037 RMK AO2 T01580125,M
P68,2024-07-24 13:53,-116.0056,39.6014,1993.00,70.00,47.00,43.82,200.00,7.00,0.00,30.35,1017.70,M,M,M,M,M,M,M,M,M,M,M,M,M,M,M,M,M,70.00,KP68 241353Z AUTO 20007KT 21/08 A3035 RMK AO1 SLP177 T02110083,M
DRA,2024-07-24 13:53,-116.0278,36.6206,1009.00,79.00,61.00,54.08,330.00,4.00,0.00,30.14,1014.60,10.00,M,CLR,M,M,M,M,M,M,M,M,M,M,M,M,M,M,79.00,KDRA 241353Z AUTO 33004KT 10SM CLR 26/16 A3014 RMK AO2 SLP146 T02610161,M
ELY,2024-07-24 13:53,-114.8453,39.2950,1909.00,60.00,47.00,62.11,190.00,4.00,0.00,30.40,1018.60,10.00,M,CLR,M,M,M,M,M,M,M,M,M,M,M,M,M,M,60.00,KELY 241353Z AUTO 19004KT 10SM CLR 16/08 A3040 RMK AO2 SLP186 T01560083 $,M
VGT,2024-07-24 13:53,-115.1933,36.2111,667.00,92.00,59.00,33.21,50.00,7.00,0.00,30.07,1016.60,10.00,M,CLR,M,M,M,M,M,M,M,M,M,M,M,26.00,10.00,2024-07-24 12:59,91.30,KVGT 241353Z 05007KT 10SM CLR 33/15 A3007 RMK AO2 PK WND 01026/1259 SLP166 T03330150,M
LOL,2024-07-24 13:53,-118.5701,40.0684,1192.43,71.00,52.00,51.03,0.00,0.00,0.00,30.20,1017.60,10.00,M,CLR,M,M,M,M,M,M,M,M,M,M,M,M,M,M,71.00,KLOL 241353Z AUTO 00000KT 10SM CLR 22/11 A3020 RMK AO2 SLP176 T02170111,M
NFL,2024-07-24 13:54,-118.7010,39.4166,1199.00,71.00,50.00,47.39,0.00,0.00,0.00,30.20,1019.00,10.00,M,FEW,SCT,SCT,SCT,8000.00,12000.00,18000.00,22000.00,M,M,M,M,M,M,M,71.00,KNFL 241354Z COR 00000KT 10SM FEW080 SCT120 SCT180 SCT220 22/10 A3020 RMK SLP190 T02170100,M
BVU,2024-07-24 13:55,-114.8611,35.9475,671.00,89.60,59.00,35.81,0.00,0.00,0.00,30.06,M,10.00,M,CLR,M,M,M,M,M,M,M,M,M,M,M,M,M,M,88.86,KBVU 241355Z AUTO 00000KT 10SM CLR 32/15 A3006 RMK AO2,M
CXP,2024-07-24 13:55,-119.7326,39.1923,1431.00,68.00,51.80,56.13,0.00,0.00,0.00,30.29,M,10.00,M,CLR,M,M,M,M,M,M,M,M,M,M,M,M,M,M,68.00,KCXP 241355Z AUTO 00000KT 10SM CLR 20/11 A3029 RMK AO2,M
INS,2024-07-24 13:55,-115.6733,36.5872,955.00,83.00,60.00,45.81,340.00,4.00,0.00,30.14,1014.50,10.00,M,BKN,M,M,M,18000.00,M,M,M,M,M,M,M,M,M,M,83.19,KINS 241355Z AUTO 34004KT 10SM BKN180 28/16 A3014 RMK AO2 SLP145 T02830155 $,M
RNO,2024-07-24 13:55,-119.7711,39.4839,1341.00,75.00,51.00,42.98,180.00,4.00,0.00,30.25,1017.90,10.00,M,SCT,M,M,M,8000.00,M,M,M,M,M,M,M,M,M,M,75.00,KRNO 241355Z 18004KT 10SM SCT080 24/11 A3025 RMK AO2 SLP179 FU ALF ALQDS T02390106,M
RTS,2024-07-24 13:55,-119.8764,39.6682,1539.00,66.20,51.80,59.74,0.00,0.00,0.00,30.31,M,10.00,M,CLR,M,M,M,M,M,M,M,M,M,M,M,M,M,M,66.20,KRTS 241355Z AUTO 00000KT 10SM CLR 19/11 A3031 RMK AO2,M
05U,2024-07-24 13:55,-116.0051,39.6042,1811.23,69.80,46.40,43.13,200.00,7.00,0.00,30.38,M,10.00,M,CLR,M,M,M,M,M,M,M,M,M,M,M,M,M,M,69.80,K05U 241355Z AUTO 20007KT 10SM CLR 21/08 A3038 RMK A01,M
MEV,2024-07-24 13:55,-119.7500,38.9963,1441.42,60.80,51.80,72.20,0.00,0.00,0.00,30.28,M,10.00,M,CLR,M,M,M,M,M,M,M,M,M,M,M,M,M,M,60.80,KMEV 241355Z AUTO 00000KT 10SM CLR 16/11 A3028 RMK AO2,M
BAM,2024-07-24 13:55,-116.8743,40.5990,1382.36,73.40,51.80,46.71,110.00,3.00,0.00,30.24,M,10.00,M,CLR,M,M,M,M,M,M,M,M,M,M,M,M,M,M,73.40,KBAM 241355Z AUTO 11003KT 10SM CLR 23/11 A3024 RMK AO1,M
HTH,2024-07-24 13:55,-118.6315,38.5448,1282.89,73.40,48.20,40.85,0.00,0.00,0.00,30.24,M,10.00,M,CLR,M,M,M,M,M,M,M,M,M,M,M,M,M,M,73.40,KHTH 241355Z AUTO 00000KT 10SM CLR 23/09 A3024 RMK A01,M
10U,2024-07-24 13:55,-116.1876,41.9532,1637.00,75.20,46.40,35.94,0.00,0.00,0.00,30.28,M,8.00,M,CLR,M,M,M,M,M,M,M,M,M,M,M,M,M,M,75.20,K10U 241355Z AUTO 00000KT 8SM CLR 24/08 A3028 RMK AO2,M
TMT,2024-07-24 13:55,-117.1971,39.4643,1749.34,61.70,54.30,76.65,0.00,0.00,0.00,30.37,M,10.00,M,CLR,M,M,M,M,M,M,M,M,M,M,M,M,M,M,61.70,KTMT 241355Z AUTO 00000KT 10SM CLR 17/12 A3037 RMK AO2 T01650124,M
LSV,2024-07-24 13:55,-115.0343,36.2362,570.00,87.80,64.40,45.88,80.00,6.00,0.00,30.03,1013.60,10.00,M,CLR,M,M,M,M,M,M,M,M,M,M,M,M,M,M,89.33,KLSV 241355Z AUTO 08006KT 10SM CLR 31/18 A3003 RMK AO2 SLP136 T03100180 $,M
EKO,2024-07-24 13:56,-115.7860,40.8242,1367.00,72.00,52.00,49.33,0.00,0.00,0.00,30.27,1017.90,10.00,M,CLR,M,M,M,M,M,M,M,M,M,M,M,M,M,M,72.00,KEKO 241356Z AUTO 00000KT 10SM CLR 22/11 A3027 RMK AO2 SLP179 T02220111,M
WMC,2024-07-24 13:56,-117.8072,40.9019,1315.00,74.00,47.00,38.27,210.00,6.00,0.00,30.20,1016.40,10.00,M,CLR,M,M,M,M,M,M,M,M,M,M,M,M,M,M,74.00,KWMC 241356Z AUTO 21006KT 10SM CLR 23/08 A3020 RMK AO2 SLP164 T02330083,M
HND,2024-07-24 13:56,-115.1344,35.9729,742.79,88.00,61.00,40.44,0.00,0.00,0.00,30.13,1018.00,10.00,M,CLR,M,M,M,M,M,M,M,M,M,M,M,M,M,M,88.02,KHND 241356Z 00000KT 10SM CLR 31/16 A3013 RMK AO2 SLP180 T03110161,M
TPH,2024-07-24 13:56,-117.0904,38.0505,1654.00,71.00,55.00,56.96,20.00,4.00,0.00,30.35,1018.40,10.00,M,CLR,M,M,M,M,M,M,M,M,M,M,M,M,M,M,71.00,KTPH 241356Z AUTO 02004KT 10SM CLR 22/13 A3035 RMK AO2 SLP184 T02170128,M
LAS,2024-07-24 13:56,-115.1634,36.0719,663.00,90.00,62.00,39.34,30.00,9.00,0.00,30.09,M,10.00,M,FEW,BKN,M,M,16000.00,22000.00,M,M,M,M,M,M,M,M,M,90.46,KLAS 241356Z 03009KT 10SM FEW160 BKN220 32/17 A3009 RMK AO2 PRESRR SLPNO T03220167 $,M
10U,2024-07-24 14:10,-116.1876,41.9532,1637.00,77.00,46.40,33.85,0.00,0.00,0.00,30.28,M,8.00,M,CLR,M,M,M,M,M,M,M,M,M,M,M,M,M,M,77.00,K10U 241410Z AUTO 00000KT 8SM CLR 25/08 A3028 RMK AO2,M
BVU,2024-07-24 14:15,-114.8611,35.9475,671.00,89.60,59.00,35.81,320.00,6.00,0.00,30.07,M,10.00,M,CLR,M,M,M,M,M,M,M,M,M,M,M,M,M,M,88.86,KBVU 241415Z AUTO 32006KT 10SM CLR 32/15 A3007 RMK AO2,M
CXP,2024-07-24 14:15,-119.7326,39.1923,1431.00,69.80,51.80,52.77,0.00,0.00,0.00,30.29,M,10.00,M,CLR,M,M,M,M,M,M,M,M,M,M,M,M,M,M,69.80,KCXP 241415Z AUTO 00000KT 10SM CLR 21/11 A3029 RMK AO2,M
RTS,2024-07-24 14:15,-119.8764,39.6682,1539.00,69.80,51.80,52.77,0.00,0.00,0.00,30.31,M,10.00,M,CLR,M,M,M,M,M,M,M,M,M,M,M,M,M,M,69.80,KRTS 241415Z AUTO 00000KT 10SM CLR 21/11 A3031 RMK AO2,M
05U,2024-07-24 14:15,-116.0051,39.6042,1811.23,69.80,46.40,43.13,0.00,0.00,0.00,30.38,M,10.00,M,CLR,M,M,M,M,M,M,M,M,M,M,M,M,M,M,69.80,K05U 241415Z AUTO 00000KT 10SM CLR 21/08 A3038 RMK A01,M
MEV,2024-07-24 14:15,-119.7500,38.9963,1441.42,64.40,51.80,63.60,0.00,0.00,0.00,30.28,M,10.00,M,CLR,M,M,M,M,M,M,M,M,M,M,M,M,M,M,64.40,KMEV 241415Z AUTO 00000KT 10SM CLR 18/11 A3028 RMK AO2,M
HTH,2024-07-24 14:15,-118.6315,38.5448,1282.89,75.20,48.20,38.46,0.00,0.00,0.00,30.25,M,10.00,M,CLR,M,M,M,M,M,M,M,M,M,M,M,M,M,M,75.20,KHTH 241415Z AUTO 00000KT 10SM CLR 24/09 A3025 RMK A01,M
BAM,2024-07-24 14:15,-116.8743,40.5990,1382.36,75.20,51.80,43.97,120.00,3.00,0.00,30.24,M,10.00,M,CLR,M,M,M,M,M,M,M,M,M,M,M,M,M,M,75.20,KBAM 241415Z AUTO 12003KT 10SM CLR 24/11 A3024 RMK AO1,M
TMT,2024-07-24 14:15,-117.1971,39.4643,1749.34,64.60,55.00,71.02,0.00,0.00,0.00,30.38,M,10.00,M,CLR,M,M,M,M,M,M,M,M,M,M,M,M,M,M,64.60,KTMT 241415Z AUTO 00000KT 10SM CLR 18/13 A3038 RMK AO2 T01810127,M
05U,2024-07-24 14:30,-116.0051,39.6042,1811.23,71.60,46.40,40.57,0.00,0.00,0.00,30.38,M,10.00,M,CLR,M,M,M,M,M,M,M,M,M,M,M,M,M,M,71.60,K05U 241430Z AUTO 00000KT 10SM CLR 22/08 A3038 RMK A01,M
BVU,2024-07-24 14:35,-114.8611,35.9475,671.00,89.60,60.80,38.18,300.00,5.00,0.00,30.07,M,10.00,M,CLR,M,M,M,M,M,M,M,M,M,M,M,M,M,M,89.54,KBVU 241435Z AUTO 30005KT 10SM CLR 32/16 A3007 RMK AO2,M
CXP,2024-07-24 14:35,-119.7326,39.1923,1431.00,71.60,51.80,49.64,0.00,0.00,0.00,30.30,M,10.00,M,CLR,M,M,M,M,M,M,M,M,M,M,M,M,M,M,71.60,KCXP 241435Z AUTO 00000KT 10SM CLR 22/11 A3030 RMK AO2,M
RTS,2024-07-24 14:35,-119.8764,39.6682,1539.00,73.40,50.00,43.69,0.00,0.00,0.00,30.31,M,10.00,M,CLR,M,M,M,M,M,M,M,M,M,M,M,M,M,M,73.40,KRTS 241435Z AUTO 00000KT 10SM CLR 23/10 A3031 RMK AO2,M
MEV,2024-07-24 14:35,-119.7500,38.9963,1441.42,68.00,51.80,56.13,0.00,0.00,0.00,30.28,M,10.00,M,CLR,M,M,M,M,M,M,M,M,M,M,M,M,M,M,68.00,KMEV 241435Z AUTO 00000KT 10SM CLR 20/11 A3028 RMK AO2,M
HTH,2024-07-24 14:35,-118.6315,38.5448,1282.89,73.40,48.20,40.85,0.00,0.00,0.00,30.25,M,10.00,M,CLR,M,M,M,M,M,M,M,M,M,M,M,M,M,M,73.40,KHTH 241435Z AUTO 00000KT 10SM CLR 23/09 A3025 RMK A01,M
10U,2024-07-24 14:35,-116.1876,41.9532,1637.00,77.00,48.20,36.22,0.00,0.00,0.00,30.28,M,8.00,M,CLR,M,M,M,M,M,M,M,M,M,M,M,M,M,M,77.00,K10U 241435Z AUTO 00000KT 8SM CLR 25/09 A3028 RMK AO2,M
BAM,2024-07-24 14:35,-116.8743,40.5990,1382.36,77.00,53.60,44.25,0.00,0.00,0.00,30.24,M,10.00,M,CLR,M,M,M,M,M,M,M,M,M,M,M,M,M,M,77.00,KBAM 241435Z AUTO 00000KT 10SM CLR 25/12 A3024 RMK AO1,M
TMT,2024-07-24 14:35,-117.1971,39.4643,1749.34,67.00,54.70,64.62,0.00,0.00,0.00,30.38,M,10.00,M,CLR,M,M,M,M,M,M,M,M,M,M,M,M,M,M,67.00,KTMT 241435Z AUTO 00000KT 10SM CLR 20/13 A3038 RMK AO2 T01950126,M
P68,2024-07-24 14:53,-116.0056,39.6014,1993.00,71.00,48.00,43.98,220.00,3.00,0.00,30.36,1018.70,M,M,M,M,M,M,M,M,M,M,M,M,M,M,M,M,M,71.00,KP68 241453Z AUTO 22003KT 22/09 A3036 RMK AO1 SLP187 T02170089 53010,M
ELY,2024-07-24 14:53,-114.8453,39.2950,1909.00,69.00,49.00,48.88,180.00,4.00,0.00,30.40,1018.50,10.00,M,CLR,M,M,M,M,M,M,M,M,M,M,M,M,M,M,69.00,KELY 241453Z AUTO 18004KT 10SM CLR 21/09 A3040 RMK AO2 SLP185 T02060094 51006 $,M
VGT,2024-07-24 14:53,-115.1933,36.2111,667.00,92.00,61.00,35.66,90.00,3.00,0.00,30.08,1017.00,10.00,M,CLR,M,M,M,M,M,M,M,M,M,M,M,M,M,M,92.12,KVGT 241453Z 09003KT 10SM CLR 33/16 A3008 RMK AO2 SLP170 T03330161 51022,M
LOL,2024-07-24 14:53,-118.5701,40.0684,1192.43,79.00,52.00,39.06,0.00,0.00,0.00,30.20,1018.00,10.00,M,CLR,M,M,M,M,M,M,M,M,M,M,M,M,M,M,79.00,KLOL 241453Z AUTO 00000KT 10SM CLR 26/11 A3020 RMK AO2 SLP180 T02610111 51011,M
NFL,2024-07-24 14:54,-118.7010,39.4166,1199.00,80.00,52.00,37.79,190.00,4.00,0.00,30.21,1019.10,10.00,M,FEW,SCT,SCT,M,8000.00,12000.00,22000.00,M,M,M,M,M,M,M,M,79.75,KNFL 241454Z 19004KT 10SM FEW080 SCT120 SCT220 27/11 A3021 RMK AO2 SLP191 T02670111 51010,M
BVU,2024-07-24 14:55,-114.8611,35.9475,671.00,91.40,59.00,33.84,80.00,3.00,0.00,30.07,M,10.00,M,CLR,M,M,M,M,M,M,M,M,M,M,M,M,M,M,90.68,KBVU 241455Z AUTO 08003KT 10SM CLR 33/15 A3007 RMK AO2,M
CXP,2024-07-24 14:55,-119.7326,39.1923,1431.00,71.60,51.80,49.64,0.00,0.00,0.00,30.30,M,10.00,M,CLR,M,M,M,M,M,M,M,M,M,M,M,M,M,M,71.60,KCXP 241455Z AUTO 00000KT 10SM CLR 22/11 A3030 RMK AO2,M
INS,2024-07-24 14:55,-115.6733,36.5872,955.00,85.30,59.50,41.79,360.00,8.00,0.00,30.14,1014.40,10.00,M,CLR,M,M,M,M,M,M,M,M,M,M,M,M,M,M,85.00,KINS 241455Z AUTO 36008KT 10SM CLR 30/15 A3014 RMK AO2 SLP144 T02960153 55002 $,M
RNO,2024-07-24 14:55,-119.7711,39.4839,1341.00,77.00,53.00,43.29,0.00,0.00,0.00,30.26,1018.00,10.00,M,FEW,M,M,M,10000.00,M,M,M,M,M,M,M,M,M,M,77.00,KRNO 241455Z 00000KT 10SM FEW100 25/12 A3026 RMK AO2 SLP180 T02500117 51010,M
LSV,2024-07-24 14:55,-115.0343,36.2362,570.00,89.20,64.40,43.89,80.00,7.00,0.00,30.03,1013.60,10.00,M,SCT,M,M,M,17000.00,M,M,M,M,M,M,M,M,M,M,90.80,KLSV 241455Z COR 08007KT 10SM SCT170 32/18 A3003 RMK AO2A SLP136 T03180180 51023 $ COR 1458,M
RTS,2024-07-24 14:55,-119.8764,39.6682,1539.00,75.20,50.00,41.14,0.00,0.00,0.00,30.31,M,10.00,M,CLR,M,M,M,M,M,M,M,M,M,M,M,M,M,M,75.20,KRTS 241455Z AUTO 00000KT 10SM CLR 24/10 A3031 RMK AO2,M
05U,2024-07-24 14:55,-116.0051,39.6042,1811.23,71.60,46.40,40.57,0.00,0.00,0.00,30.39,M,10.00,M,CLR,M,M,M,M,M,M,M,M,M,M,M,M,M,M,71.60,K05U 241455Z AUTO 00000KT 10SM CLR 22/08 A3039 RMK A01,M
MEV,2024-07-24 14:55,-119.7500,38.9963,1441.42,71.60,51.80,49.64,0.00,0.00,0.00,30.29,M,10.00,M,CLR,M,M,M,M,M,M,M,M,M,M,M,M,M,M,71.60,KMEV 241455Z AUTO 00000KT 10SM CLR 22/11 A3029 RMK AO2,M
BAM,2024-07-24 14:55,-116.8743,40.5990,1382.36,77.00,53.60,44.25,0.00,0.00,0.00,30.25,M,10.00,M,CLR,M,M,M,M,M,M,M,M,M,M,M,M,M,M,77.00,KBAM 241455Z AUTO 00000KT 10SM CLR 25/12 A3025 RMK AO1,M
HTH,2024-07-24 14:55,-118.6315,38.5448,1282.89,78.80,48.20,34.13,240.00,6.00,0.00,30.25,M,10.00,M,CLR,M,M,M,M,M,M,M,M,M,M,M,M,M,M,78.80,KHTH 241455Z AUTO 24006KT 10SM CLR 26/09 A3025 RMK A01,M
10U,2024-07-24 14:55,-116.1876,41.9532,1637.00,84.20,46.40,26.76,210.00,7.00,0.00,30.28,M,8.00,M,CLR,M,M,M,M,M,M,M,M,M,M,M,M,M,M,81.87,K10U 241455Z AUTO 21007KT 8SM CLR 29/08 A3028 RMK AO2,M
TMT,2024-07-24 14:55,-117.1971,39.4643,1749.34,70.70,54.00,55.48,0.00,0.00,0.00,30.38,M,10.00,M,CLR,M,M,M,M,M,M,M,M,M,M,M,M,M,M,70.70,KTMT 241455Z AUTO 00000KT 10SM CLR 22/12 A3038 RMK AO2 T02150123,M
EKO,2024-07-24 14:56,-115.7860,40.8242,1367.00,81.00,50.00,33.97,30.00,4.00,0.00,30.28,1018.00,10.00,M,CLR,M,M,M,M,M,M,M,M,M,M,M,M,M,M,80.12,KEKO 241456Z AUTO 03004KT 10SM CLR 27/10 A3028 RMK AO2 SLP180 T02720100 51015,M
WMC,2024-07-24 14:56,-117.8072,40.9019,1315.00,78.00,47.00,33.50,200.00,7.00,0.00,30.22,1017.10,10.00,M,CLR,M,M,M,M,M,M,M,M,M,M,M,M,M,M,78.00,KWMC 241456Z AUTO 20007KT 10SM CLR 26/08 A3022 RMK AO2 SLP171 T02560083 53012,M
HND,2024-07-24 14:56,-115.1344,35.9729,742.79,89.00,62.00,40.59,M,3.00,0.00,30.13,1018.30,10.00,M,CLR,M,M,M,M,M,M,M,M,M,M,M,M,M,M,89.43,KHND 241456Z VRB03KT 10SM CLR 32/17 A3013 RMK AO2 SLP183 T03170167 51017,M
TPH,2024-07-24 14:56,-117.0904,38.0505,1654.00,76.00,56.00,49.92,0.00,0.00,0.00,30.35,1018.40,10.00,M,CLR,M,M,M,M,M,M,M,M,M,M,M,M,M,M,76.00,KTPH 241456Z AUTO 00000KT 10SM CLR 24/13 A3035 RMK AO2 SLP184 T02440133 51007,M
LAS,2024-07-24 14:56,-115.1634,36.0719,663.00,92.00,61.00,35.66,80.00,3.00,0.00,30.09,1012.10,10.00,M,FEW,SCT,M,M,16000.00,22000.00,M,M,M,M,M,M,M,M,M,92.12,KLAS 241456Z 08003KT 10SM FEW160 SCT220 33/16 A3009 RMK AO2 SLP121 T03330161 51019 $,M
BVU,2024-07-24 15:15,-114.8611,35.9475,671.00,91.40,60.80,36.08,40.00,5.00,0.00,30.07,M,10.00,M,CLR,M,M,M,M,M,M,M,M,M,M,M,M,M,M,91.40,KBVU 241515Z AUTO 04005KT 10SM CLR 33/16 A3007 RMK AO2,M
CXP,2024-07-24 15:15,-119.7326,39.1923,1431.00,75.20,50.00,41.14,0.00,0.00,0.00,30.30,M,10.00,M,CLR,M,M,M,M,M,M,M,M,M,M,M,M,M,M,75.20,KCXP 241515Z AUTO 00000KT 10SM CLR 24/10 A3030 RMK AO2,M
RTS,2024-07-24 15:15,-119.8764,39.6682,1539.00,77.00,50.00,38.74,0.00,0.00,0.00,30.31,M,10.00,M,CLR,M,M,M,M,M,M,M,M,M,M,M,M,M,M,77.00,KRTS 241515Z AUTO 00000KT 10SM CLR 25/10 A3031 RMK AO2,M
05U,2024-07-24 15:15,-116.0051,39.6042,1811.23,73.40,46.40,38.18,0.00,0.00,0.00,30.40,M,10.00,M,FEW,M,M,M,12000.00,M,M,M,M,M,M,M,M,M,M,73.40,K05U 241515Z AUTO 00000KT 10SM FEW120 23/08 A3040 RMK A01,M
MEV,2024-07-24 15:15,-119.7500,38.9963,1441.42,73.40,50.00,43.69,0.00,0.00,0.00,30.29,M,10.00,M,CLR,M,M,M,M,M,M,M,M,M,M,M,M,M,M,73.40,KMEV 241515Z AUTO 00000KT 10SM CLR 23/10 A3029 RMK AO2,M
HTH,2024-07-24 15:15,-118.6315,38.5448,1282.89,80.60,48.20,32.18,280.00,5.00,0.00,30.25,M,10.00,M,CLR,M,M,M,M,M,M,M,M,M,M,M,M,M,M,79.71,KHTH 241515Z AUTO 28005KT 10SM CLR 27/09 A3025 RMK A01,M
10U,2024-07-24 15:15,-116.1876,41.9532,1637.00,84.20,44.60,24.99,210.00,9.00,0.00,30.29,M,6.00,M,CLR,M,M,M,M,M,M,M,HZ,M,M,M,M,M,M,81.73,K10U 241515Z AUTO 21009KT 6SM HZ CLR 29/07 A3029 RMK AO2,M
BAM,2024-07-24 15:15,-116.8743,40.5990,1382.36,77.00,53.60,44.25,0.00,0.00,0.00,30.25,M,10.00,M,CLR,M,M,M,M,M,M,M,M,M,M,M,M,M,M,77.00,KBAM 241515Z AUTO 00000KT 10SM CLR 25/12 A3025 RMK AO1,M
TMT,2024-07-24 15:15,-117.1971,39.4643,1749.34,71.80,53.00,51.53,0.00,0.00,0.00,30.38,M,10.00,M,CLR,M,M,M,M,M,M,M,M,M,M,M,M,M,M,71.80,KTMT 241515Z AUTO 00000KT 10SM CLR 22/12 A3038 RMK AO2 T02210116,M
HTH,2024-07-24 15:30,-118.6315,38.5448,1282.89,80.60,48.20,32.18,310.00,8.00,0.00,30.25,M,10.00,M,CLR,M,M,M,M,M,M,M,M,M,M,M,M,M,M,79.71,KHTH 241530Z AUTO 31008KT 10SM CLR 27/09 A3025 RMK A01,M
BVU,2024-07-24 15:35,-114.8611,35.9475,671.00,93.20,60.80,34.11,60.00,5.00,0.00,30.08,M,10.00,M,CLR,M,M,M,M,M,M,M,M,M,M,M,M,M,M,93.32,KBVU 241535Z AUTO 06005KT 10SM CLR 34/16 A3008 RMK AO2,M
CXP,2024-07-24 15:35,-119.7326,39.1923,1431.00,77.00,50.00,38.74,0.00,0.00,0.00,30.30,M,9.00,M,CLR,M,M,M,M,M,M,M,M,M,M,M,M,M,M,77.00,KCXP 241535Z AUTO 00000KT 9SM CLR 25/10 A3030 RMK AO2,M
RTS,2024-07-24 15:35,-119.8764,39.6682,1539.00,78.80,50.00,36.51,0.00,0.00,0.00,30.32,M,10.00,M,CLR,M,M,M,M,M,M,M,M,M,M,M,M,M,M,78.80,KRTS 241535Z AUTO 00000KT 10SM CLR 26/10 A3032 RMK AO2,M
05U,2024-07-24 15:35,-116.0051,39.6042,1811.23,75.20,46.40,35.94,0.00,0.00,0.00,30.40,M,10.00,M,FEW,M,M,M,12000.00,M,M,M,M,M,M,M,M,M,M,75.20,K05U 241535Z AUTO 00000KT 10SM FEW120 24/08 A3040 RMK A01,M
MEV,2024-07-24 15:35,-119.7500,38.9963,1441.42,75.20,51.80,43.97,0.00,0.00,0.00,30.29,M,10.00,M,CLR,M,M,M,M,M,M,M,M,M,M,M,M,M,M,75.20,KMEV 241535Z AUTO 00000KT 10SM CLR 24/11 A3029 RMK AO2,M
BAM,2024-07-24 15:35,-116.8743,40.5990,1382.36,80.60,51.80,36.79,0.00,0.00,0.00,30.25,M,10.00,M,CLR,M,M,M,M,M,M,M,M,M,M,M,M,M,M,80.08,KBAM 241535Z AUTO 00000KT 10SM CLR 27/11 A3025 RMK AO1,M
TMT,2024-07-24 15:35,-117.1971,39.4643,1749.34,74.70,53.40,47.42,0.00,0.00,0.00,30.37,M,10.00,M,CLR,M,M,M,M,M,M,M,M,M,M,M,M,M,M,74.70,KTMT 241535Z AUTO 00000KT 10SM CLR 24/12 A3037 RMK AO2 T02370119,M
10U,2024-07-24 15:35,-116.1876,41.9532,1637.00,86.00,44.60,23.59,220.00,10.00,0.00,30.29,M,6.00,M,CLR,M,M,M,M,M,M,M,HZ,M,M,M,M,M,M,83.07,K10U 241535Z AUTO 22010KT 6SM HZ CLR 30/07 A3029 RMK AO2,M
RTS,2024-07-24 15:50,-119.8764,39.6682,1539.00,80.60,48.20,32.18,0.00,0.00,0.00,30.32,M,10.00,M,CLR,M,M,M,M,M,M,M,M,M,M,M,M,M,M,79.71,KRTS 241550Z AUTO 00000KT 10SM CLR 27/09 A3032 RMK AO2,M
05U,2024-07-24 15:50,-116.0051,39.6042,1811.23,77.00,46.40,33.85,0.00,0.00,0.00,30.40,M,10.00,M,FEW,M,M,M,12000.00,M,M,M,M,M,M,M,M,M,M,77.00,K05U 241550Z AUTO 00000KT 10SM FEW120 25/08 A3040 RMK A01,M
MEV,2024-07-24 15:50,-119.7500,38.9963,1441.42,77.00,50.00,38.74,0.00,0.00,0.00,30.29,M,10.00,M,CLR,M,M,M,M,M,M,M,M,M,M,M,M,M,M,77.00,KMEV 241550Z AUTO 00000KT 10SM CLR 25/10 A3029 RMK AO2,M
P68,2024-07-24 15:53,-116.0056,39.6014,1993.00,77.00,47.00,34.63,M,3.00,0.00,30.37,1018.60,M,M,M,M,M,M,M,M,M,M,M,M,M,M,M,M,M,77.00,KP68 241553Z AUTO VRB03KT 25/08 A3037 RMK AO1 SLP186 T02500083,M
DRA,2024-07-24 15:53,-116.0278,36.6206,1009.00,84.00,60.00,44.35,0.00,0.00,0.00,30.17,1015.60,10.00,M,CLR,M,M,M,M,M,M,M,M,M,M,M,M,M,M,84.02,KDRA 241553Z AUTO 00000KT 10SM CLR 29/16 A3017 RMK AO2 SLP156 T02890156,M
ELY,2024-07-24 15:53,-114.8453,39.2950,1909.00,78.00,50.00,37.48,180.00,4.00,0.00,30.39,1017.30,10.00,M,CLR,M,M,M,M,M,M,M,M,M,M,M,M,M,M,78.00,KELY 241553Z AUTO 18004KT 10SM CLR 26/10 A3039 RMK AO2 SLP173 T02560100 $,M
VGT,2024-07-24 15:53,-115.1933,36.2111,667.00,93.00,61.00,34.57,150.00,4.00,0.00,30.08,1016.90,10.00,M,CLR,M,M,M,M,M,M,M,M,M,M,M,M,M,M,93.20,KVGT 241553Z 15004KT 10SM CLR 34/16 A3008 RMK AO2 SLP169 T03390161,M
LOL,2024-07-24 15:53,-118.5701,40.0684,1192.43,84.00,52.00,33.19,0.00,0.00,0.00,30.20,1017.60,10.00,M,CLR,M,M,M,M,M,M,M,M,M,M,M,M,M,M,82.36,KLOL 241553Z AUTO 00000KT 10SM CLR 29/11 A3020 RMK AO2 SLP176 T02890111,M
BVU,2024-07-24 15:55,-114.8611,35.9475,671.00,93.20,60.80,34.11,40.00,5.00,0.00,30.07,M,10.00,M,CLR,M,M,M,M,M,M,M,M,M,M,M,M,M,M,93.32,KBVU 241555Z AUTO 04005KT 10SM CLR 34/16 A3007 RMK AO2,M
CXP,2024-07-24 15:55,-119.7326,39.1923,1431.00,78.80,50.00,36.51,0.00,0.00,0.00,30.30,M,10.00,M,CLR,M,M,M,M,M,M,M,M,M,M,M,M,M,M,78.80,KCXP 241555Z AUTO 00000KT 10SM CLR 26/10 A3030 RMK AO2,M
RNO,2024-07-24 15:55,-119.7711,39.4839,1341.00,82.00,52.00,35.41,0.00,0.00,0.00,30.26,1018.20,10.00,M,FEW,M,M,M,12000.00,M,M,M,M,M,M,M,M,M,M,80.97,KRNO 241555Z 00000KT 10SM FEW120 28/11 A3026 RMK AO2 SLP182 T02780111,M
HTH,2024-07-24 15:55,-118.6315,38.5448,1282.89,80.60,46.40,30.07,330.00,5.00,0.00,30.25,M,10.00,M,CLR,M,M,M,M,M,M,M,M,M,M,M,M,M,M,79.56,KHTH 241555Z AUTO 33005KT 10SM CLR 27/08 A3025 RMK A01,M
10U,2024-07-24 15:55,-116.1876,41.9532,1637.00,86.00,44.60,23.59,220.00,9.00,0.00,30.28,M,7.00,M,CLR,M,M,M,M,M,M,M,M,M,M,M,M,M,M,83.07,K10U 241555Z AUTO 22009KT 7SM CLR 30/07 A3028 RMK AO2,M
BAM,2024-07-24 15:55,-116.8743,40.5990,1382.36,82.40,51.80,34.69,200.00,5.00,0.00,30.25,M,10.00,M,CLR,M,M,M,M,M,M,M,M,M,M,M,M,M,M,81.20,KBAM 241555Z AUTO 20005KT 10SM CLR 28/11 A3025 RMK AO1,M
TMT,2024-07-24 15:55,-117.1971,39.4643,1749.34,76.00,53.20,45.08,230.00,4.00,0.00,30.37,M,10.00,M,CLR,M,M,M,M,M,M,M,M,M,M,M,M,M,M,76.00,KTMT 241555Z AUTO 23004KT 10SM CLR 24/12 A3037 RMK AO2 T02440118,M
INS,2024-07-24 15:55,-115.6733,36.5872,955.00,85.60,59.00,40.65,10.00,6.00,0.00,30.16,1015.00,10.00,M,OVC,M,M,M,21000.00,M,M,M,M,M,M,M,M,M,M,85.12,KINS 241555Z AUTO 01006KT 10SM OVC210 30/15 A3016 RMK AO2 SLP150 T02980151 $,M
LSV,2024-07-24 15:55,-115.0343,36.2362,570.00,94.00,58.60,30.77,70.00,4.00,0.00,30.03,1013.60,10.00,M,SCT,M,M,M,17000.00,M,M,M,M,M,M,M,M,M,M,93.27,KLSV 241555Z 07004KT 10SM SCT170 34/15 A3003 RMK AO2A SLP136 T03440148 $,M
EKO,2024-07-24 15:56,-115.7860,40.8242,1367.00,86.00,49.00,27.85,0.00,0.00,0.00,30.28,1018.30,10.00,M,CLR,M,M,M,M,M,M,M,M,M,M,M,M,M,M,83.49,KEKO 241556Z AUTO 00000KT 10SM CLR 30/09 A3028 RMK AO2 SLP183 T03000094,M
WMC,2024-07-24 15:56,-117.8072,40.9019,1315.00,89.00,48.00,24.39,190.00,8.00,0.00,30.22,1016.60,10.00,M,CLR,M,M,M,M,M,M,M,M,M,M,M,M,M,M,85.89,KWMC 241556Z AUTO 19008KT 10SM CLR 32/09 A3022 RMK AO2 SLP166 T03170089,M
HND,2024-07-24 15:56,-115.1344,35.9729,742.79,91.00,62.00,38.12,0.00,0.00,0.00,30.13,1018.30,10.00,M,CLR,M,M,M,M,M,M,M,M,M,M,M,M,M,M,91.51,KHND 241556Z 00000KT 10SM CLR 33/17 A3013 RMK AO2 SLP183 T03280167,M
TPH,2024-07-24 15:56,-117.0904,38.0505,1654.00,79.00,56.00,45.20,30.00,4.00,0.00,30.34,1018.10,10.00,M,CLR,M,M,M,M,M,M,M,M,M,M,M,M,M,M,79.00,KTPH 241556Z AUTO 03004KT 10SM CLR 26/13 A3034 RMK AO2 SLP181 T02610133,M
LAS,2024-07-24 15:56,-115.1634,36.0719,663.00,94.00,61.00,33.51,0.00,0.00,0.00,30.09,1012.00,10.00,M,FEW,SCT,M,M,16000.00,22000.00,M,M,M,M,M,M,M,M,M,94.29,KLAS 241556Z 00000KT 10SM FEW160 SCT220 34/16 A3009 RMK AO2 SLP120 T03440161 $,M
NFL,2024-07-24 15:56,-118.7010,39.4166,1199.00,86.00,50.00,28.90,210.00,5.00,0.00,30.21,1019.30,10.00,M,FEW,FEW,FEW,SCT,8000.00,12000.00,18000.00,22000.00,M,M,M,M,M,M,M,83.62,KNFL 241556Z COR 21005KT 10SM FEW080 FEW120 FEW180 SCT220 30/10 A3021 RMK SLP193 T03000100,M
05U,2024-07-24 16:10,-116.0051,39.6042,1811.23,77.00,48.20,36.22,0.00,0.00,0.00,30.40,M,10.00,M,CLR,M,M,M,M,M,M,M,M,M,M,M,M,M,M,77.00,K05U 241610Z AUTO 00000KT 10SM CLR 25/09 A3040 RMK A01,M
BVU,2024-07-24 16:15,-114.8611,35.9475,671.00,95.00,57.20,28.37,60.00,4.00,0.00,30.08,M,10.00,M,CLR,M,M,M,M,M,M,M,M,M,M,M,M,M,M,93.82,KBVU 241615Z AUTO 06004KT 10SM CLR 35/14 A3008 RMK AO2,M
CXP,2024-07-24 16:15,-119.7326,39.1923,1431.00,80.60,50.00,34.41,0.00,0.00,0.00,30.30,M,10.00,M,CLR,M,M,M,M,M,M,M,M,M,M,M,M,M,M,79.88,KCXP 241615Z AUTO 00000KT 10SM CLR 27/10 A3030 RMK AO2,M
RTS,2024-07-24 16:15,-119.8764,39.6682,1539.00,82.40,48.20,30.35,0.00,0.00,0.00,30.31,M,10.00,M,CLR,M,M,M,M,M,M,M,M,M,M,M,M,M,M,80.80,KRTS 241615Z AUTO 00000KT 10SM CLR 28/09 A3031 RMK AO2,M
MEV,2024-07-24 16:15,-119.7500,38.9963,1441.42,80.60,51.80,36.79,0.00,0.00,0.00,30.28,M,10.00,M,CLR,M,M,M,M,M,M,M,M,M,M,M,M,M,M,80.08,KMEV 241615Z AUTO 00000KT 10SM CLR 27/11 A3028 RMK AO2,M
HTH,2024-07-24 16:15,-118.6315,38.5448,1282.89,82.40,46.40,28.36,M,5.00,0.00,30.24,M,10.00,M,CLR,M,M,M,M,M,M,M,M,M,M,M,M,M,M,80.64,KHTH 241615Z AUTO VRB05KT 10SM CLR 28/08 A3024 RMK A01,M
10U,2024-07-24 16:15,-116.1876,41.9532,1637.00,87.80,44.60,22.27,210.00,10.00,0.00,30.29,M,7.00,16.00,CLR,M,M,M,M,M,M,M,M,M,M,M,M,M,M,84.53,K10U 241615Z AUTO 21010G16KT 7SM CLR 31/07 A3029 RMK AO2,M
BAM,2024-07-24 16:15,-116.8743,40.5990,1382.36,82.40,53.60,37.07,0.00,0.00,0.00,30.25,M,10.00,M,CLR,M,M,M,M,M,M,M,M,M,M,M,M,M,M,81.46,KBAM 241615Z AUTO 00000KT 10SM CLR 28/12 A3025 RMK AO1,M
TMT,2024-07-24 16:15,-117.1971,39.4643,1749.34,77.00,52.70,42.81,0.00,0.00,0.00,30.37,M,10.00,M,CLR,M,M,M,M,M,M,M,M,M,M,M,M,M,M,77.00,KTMT 241615Z AUTO 00000KT 10SM CLR 25/12 A3037 RMK AO2 T02500115,M
05U,2024-07-24 16:30,-116.0051,39.6042,1811.23,78.80,48.20,34.13,0.00,0.00,0.00,30.39,M,10.00,M,CLR,M,M,M,M,M,M,M,M,M,M,M,M,M,M,78.80,K05U 241630Z AUTO 00000KT 10SM CLR 26/09 A3039 RMK A01,M
BVU,2024-07-24 16:35,-114.8611,35.9475,671.00,95.00,57.20,28.37,110.00,5.00,0.00,30.07,M,10.00,M,CLR,M,M,M,M,M,M,M,M,M,M,M,M,M,M,93.82,KBVU 241635Z AUTO 11005KT 10SM CLR 35/14 A3007 RMK AO2,M
CXP,2024-07-24 16:35,-119.7326,39.1923,1431.00,82.40,50.00,32.46,0.00,0.00,0.00,30.29,M,10.00,M,CLR,M,M,M,M,M,M,M,M,M,M,M,M,M,M,80.99,KCXP 241635Z AUTO 00000KT 10SM CLR 28/10 A3029 RMK AO2,M
RTS,2024-07-24 16:35,-119.8764,39.6682,1539.00,82.40,48.20,30.35,0.00,0.00,0.00,30.31,M,10.00,M,CLR,M,M,M,M,M,M,M,M,M,M,M,M,M,M,80.80,KRTS 241635Z AUTO 00000KT 10SM CLR 28/09 A3031 RMK AO2,M
MEV,2024-07-24 16:35,-119.7500,38.9963,1441.42,80.60,51.80,36.79,0.00,0.00,0.00,30.28,M,10.00,M,CLR,M,M,M,M,M,M,M,M,M,M,M,M,M,M,80.08,KMEV 241635Z AUTO 00000KT 10SM CLR 27/11 A3028 RMK AO2,M
HTH,2024-07-24 16:35,-118.6315,38.5448,1282.89,84.20,51.80,32.73,M,3.00,0.00,30.24,M,10.00,M,CLR,M,M,M,M,M,M,M,M,M,M,M,M,M,M,82.48,KHTH 241635Z AUTO VRB03KT 10SM CLR 29/11 A3024 RMK A01,M
10U,2024-07-24 16:35,-116.1876,41.9532,1637.00,89.60,42.80,19.64,220.00,9.00,0.00,30.29,M,9.00,M,CLR,M,M,M,M,M,M,M,M,M,M,M,M,M,M,85.93,K10U 241635Z AUTO 22009KT 9SM CLR 32/06 A3029 RMK AO2,M
BAM,2024-07-24 16:35,-116.8743,40.5990,1382.36,87.80,53.60,31.17,180.00,4.00,0.00,30.25,M,10.00,M,CLR,M,M,M,M,M,M,M,M,M,M,M,M,M,M,85.72,KBAM 241635Z AUTO 18004KT 10SM CLR 31/12 A3025 RMK AO1,M
TMT,2024-07-24 16:35,-117.1971,39.4643,1749.34,79.00,51.60,38.48,270.00,3.00,0.00,30.36,M,10.00,M,CLR,M,M,M,M,M,M,M,M,M,M,M,M,M,M,79.00,KTMT 241635Z AUTO 27003KT 10SM CLR 26/11 A3036 RMK AO2 T02610109,M
05U,2024-07-24 16:50,-116.0051,39.6042,1811.23,80.60,46.40,30.07,0.00,0.00,0.00,30.38,M,10.00,M,CLR,M,M,M,M,M,M,M,M,M,M,M,M,M,M,79.56,K05U 241650Z AUTO 00000KT 10SM CLR 27/08 A3038 RMK A01,M
P68,2024-07-24 16:53,-116.0056,39.6014,1993.00,82.00,46.00,28.30,0.00,0.00,0.00,30.35,1017.70,M,M,M,M,M,M,M,M,M,M,M,M,M,M,M,M,M,80.36,KP68 241653Z AUTO 00000KT 28/08 A3035 RMK AO1 SLP177 T02780078,M
DRA,2024-07-24 16:53,-116.0278,36.6206,1009.00,90.00,58.00,34.11,120.00,12.00,0.00,30.17,1015.40,10.00,M,CLR,M,M,M,M,M,M,M,M,M,M,M,M,M,M,88.92,KDRA 241653Z AUTO 12012KT 10SM CLR 32/14 A3017 RMK AO2 SLP154 T03220144,M
ELY,2024-07-24 16:53,-114.8453,39.2950,1909.00,83.00,51.00,33.04,M,3.00,0.00,30.38,1016.90,10.00,M,CLR,M,M,M,M,M,M,M,M,M,M,M,M,M,M,81.51,KELY 241653Z AUTO VRB03KT 10SM CLR 28/11 A3038 RMK AO2 SLP169 T02830106 $,M
VGT,2024-07-24 16:53,-115.1933,36.2111,667.00,97.00,60.00,29.49,90.00,6.00,0.00,30.08,1016.90,10.00,M,CLR,M,M,M,M,M,M,M,M,M,M,M,M,M,M,97.17,KVGT 241653Z 09006KT 10SM CLR 36/16 A3008 RMK AO2 SLP169 T03610156,M
LOL,2024-07-24 16:53,-118.5701,40.0684,1192.43,90.00,51.00,26.43,180.00,5.00,0.00,30.19,1017.10,10.00,M,CLR,M,M,M,M,M,M,M,M,M,M,M,M,M,M,87.22,KLOL 241653Z AUTO 18005KT 10SM CLR 32/11 A3019 RMK AO2 SLP171 T03220106,M
NFL,2024-07-24 16:54,-118.7010,39.4166,1199.00,89.00,51.00,27.27,M,4.00,0.00,30.20,1019.10,10.00,M,FEW,SCT,M,M,12000.00,22000.00,M,M,M,M,M,M,M,M,M,86.31,KNFL 241654Z VRB04KT 10SM FEW120 SCT220 32/11 A3020 RMK AO2 SLP191 T03170106,M
BVU,2024-07-24 16:55,-114.8611,35.9475,671.00,95.00,57.20,28.37,M,4.00,0.00,30.07,M,10.00,M,CLR,M,M,M,M,M,M,M,M,M,M,M,M,M,M,93.82,KBVU 241655Z AUTO VRB04KT 10SM CLR 35/14 A3007 RMK AO2,M
CXP,2024-07-24 16:55,-119.7326,39.1923,1431.00,84.20,50.00,30.62,0.00,0.00,0.00,30.29,M,10.00,M,CLR,M,M,M,M,M,M,M,M,M,M,M,M,M,M,82.24,KCXP 241655Z AUTO 00000KT 10SM CLR 29/10 A3029 RMK AO2,M
INS,2024-07-24 16:55,-115.6733,36.5872,955.00,88.00,57.60,35.82,250.00,3.00,0.00,30.16,1015.10,10.00,M,SCT,M,M,M,21000.00,M,M,M,M,M,M,M,M,M,M,86.88,KINS 241655Z AUTO 25003KT 10SM SCT210 31/14 A3016 RMK AO2 SLP151 T03110142 $,M
RNO,2024-07-24 16:55,-119.7711,39.4839,1341.00,87.00,52.00,30.15,0.00,0.00,0.00,30.25,1017.70,10.00,M,FEW,M,M,M,10000.00,M,M,M,M,M,M,M,M,M,M,84.73,KRNO 241655Z 00000KT 10SM FEW100 31/11 A3025 RMK AO2 SLP177 T03060111,M
RTS,2024-07-24 16:55,-119.8764,39.6682,1539.00,86.00,48.20,27.03,90.00,6.00,0.00,30.30,M,10.00,M,CLR,M,M,M,M,M,M,M,M,M,M,M,M,M,M,83.40,KRTS 241655Z AUTO 09006KT 10SM CLR 30/09 A3030 RMK AO2,M
MEV,2024-07-24 16:55,-119.7500,38.9963,1441.42,82.40,51.80,34.69,0.00,0.00,0.00,30.28,M,10.00,M,CLR,M,M,M,M,M,M,M,M,M,M,M,M,M,M,81.20,KMEV 241655Z AUTO 00000KT 10SM CLR 28/11 A3028 RMK AO2,M
HTH,2024-07-24 16:55,-118.6315,38.5448,1282.89,86.00,48.20,27.03,0.00,0.00,0.00,30.24,M,10.00,M,CLR,M,M,M,M,M,M,M,M,M,M,M,M,M,M,83.40,KHTH 241655Z AUTO 00000KT 10SM CLR 30/09 A3024 RMK A01,M
10U,2024-07-24 16:55,-116.1876,41.9532,1637.00,86.00,44.60,23.59,210.00,9.00,0.00,30.29,M,9.00,M,CLR,M,M,M,M,M,M,M,M,M,M,M,M,M,M,83.07,K10U 241655Z AUTO 21009KT 9SM CLR 30/07 A3029 RMK AO2,M
BAM,2024-07-24 16:55,-116.8743,40.5990,1382.36,89.60,50.00,25.79,230.00,7.00,0.00,30.25,M,10.00,M,CLR,M,M,M,M,M,M,M,M,M,M,M,M,M,M,86.70,KBAM 241655Z AUTO 23007KT 10SM CLR 32/10 A3025 RMK AO1,M
TMT,2024-07-24 16:55,-117.1971,39.4643,1749.34,78.00,52.50,41.11,240.00,3.00,0.00,30.36,M,10.00,M,CLR,M,M,M,M,M,M,M,M,M,M,M,M,M,M,78.00,KTMT 241655Z AUTO 24003KT 10SM CLR 26/11 A3036 RMK AO2 T02560114,M
LSV,2024-07-24 16:55,-115.0343,36.2362,570.00,96.40,57.00,26.98,100.00,6.00,0.00,30.03,1013.60,10.00,M,SCT,M,M,M,17000.00,M,M,M,M,M,M,M,M,M,M,95.26,KLSV 241655Z COR 10006KT 10SM SCT170 36/14 A3003 RMK AO2A SLP136 T03580138 $ COR 1707,M
EKO,2024-07-24 16:56,-115.7860,40.8242,1367.00,90.00,49.00,24.53,220.00,7.00,0.00,30.28,1017.20,10.00,M,CLR,M,M,M,M,M,M,M,M,M,M,M,M,M,M,86.91,KEKO 241656Z AUTO 22007KT 10SM CLR 32/09 A3028 RMK AO2 SLP172 T03220094,M
WMC,2024-07-24 16:56,-117.8072,40.9019,1315.00,93.00,47.00,20.72,260.00,8.00,0.00,30.21,1016.30,10.00,M,CLR,M,M,M,M,M,M,M,M,M,M,M,M,M,M,89.44,KWMC 241656Z AUTO 26008KT 10SM CLR 34/08 A3021 RMK AO2 SLP163 T03390083,M
HND,2024-07-24 16:56,-115.1344,35.9729,742.79,94.00,61.00,33.51,0.00,0.00,0.00,30.13,1018.20,10.00,M,CLR,M,M,M,M,M,M,M,M,M,M,M,M,M,M,94.29,KHND 241656Z 00000KT 10SM CLR 34/16 A3013 RMK AO2 SLP182 T03440161,M
TPH,2024-07-24 16:56,-117.0904,38.0505,1654.00,82.00,54.00,38.11,0.00,0.00,0.00,30.33,1017.40,10.00,M,CLR,M,M,M,M,M,M,M,M,M,M,M,M,M,M,81.24,KTPH 241656Z AUTO 00000KT 10SM CLR 28/12 A3033 RMK AO2 SLP174 T02780122,M
LAS,2024-07-24 16:56,-115.1634,36.0719,663.00,97.00,59.00,28.46,M,3.00,0.00,30.09,1012.00,10.00,M,FEW,FEW,M,M,16000.00,22000.00,M,M,M,M,M,M,M,M,M,96.72,KLAS 241656Z VRB03KT 10SM FEW160 FEW220 36/15 A3009 RMK AO2 SLP120 T03610150 $,M
BVU,2024-07-24 17:15,-114.8611,35.9475,671.00,96.80,57.20,26.84,M,4.00,0.00,30.07,M,10.00,M,CLR,M,M,M,M,M,M,M,M,M,M,M,M,M,M,95.77,KBVU 241715Z AUTO VRB04KT 10SM CLR 36/14 A3007 RMK AO2,M
CXP,2024-07-24 17:15,-119.7326,39.1923,1431.00,86.00,48.20,27.03,0.00,0.00,0.00,30.29,M,10.00,M,CLR,M,M,M,M,M,M,M,M,M,M,M,M,M,M,83.40,KCXP 241715Z AUTO 00000KT 10SM CLR 30/09 A3029 RMK AO2,M
RTS,2024-07-24 17:15,-119.8764,39.6682,1539.00,86.00,48.20,27.03,M,6.00,0.00,30.30,M,10.00,M,CLR,M,M,M,M,M,M,M,M,M,M,M,M,M,M,83.40,KRTS 241715Z AUTO VRB06KT 10SM CLR 30/09 A3030 RMK AO2,M
05U,2024-07-24 17:15,-116.0051,39.6042,1811.23,84.20,46.40,26.76,0.00,0.00,0.00,30.38,M,10.00,M,CLR,M,M,M,M,M,M,M,M,M,M,M,M,M,M,81.87,K05U 241715Z AUTO 00000KT 10SM CLR 29/08 A3038 RMK A01,M
MEV,2024-07-24 17:15,-119.7500,38.9963,1441.42,84.20,51.80,32.73,0.00,0.00,0.00,30.27,M,10.00,M,CLR,M,M,M,M,M,M,M,M,M,M,M,M,M,M,82.48,KMEV 241715Z AUTO 00000KT 10SM CLR 29/11 A3027 RMK AO2,M
HTH,2024-07-24 17:15,-118.6315,38.5448,1282.89,87.80,48.20,25.52,0.00,0.00,0.00,30.24,M,10.00,M,CLR,M,M,M,M,M,M,M,M,M,M,M,M,M,M,84.87,KHTH 241715Z AUTO 00000KT 10SM CLR 31/09 A3024 RMK A01,M
10U,2024-07-24 17:15,-116.1876,41.9532,1637.00,86.00,44.60,23.59,180.00,6.00,0.00,30.29,M,9.00,M,CLR,M,M,M,M,M,M,M,M,M,M,M,M,M,M,83.07,K10U 241715Z AUTO 18006KT 9SM CLR 30/07 A3029 RMK AO2,M
BAM,2024-07-24 17:15,-116.8743,40.5990,1382.36,91.40,50.00,24.37,230.00,7.00,0.00,30.24,M,10.00,M,CLR,M,M,M,M,M,M,M,M,M,M,M,M,M,M,88.36,KBAM 241715Z AUTO 23007KT 10SM CLR 33/10 A3024 RMK AO1,M
TMT,2024-07-24 17:15,-117.1971,39.4643,1749.34,79.30,52.70,39.68,260.00,3.00,0.00,30.36,M,10.00,M,CLR,M,M,M,M,M,M,M,M,M,M,M,M,M,M,79.30,KTMT 241715Z AUTO 26003KT 10SM CLR 26/12 A3036 RMK AO2 T02630115,M
BVU,2024-07-24 17:35,-114.8611,35.9475,671.00,98.60,57.20,25.41,0.00,0.00,0.00,30.06,M,10.00,M,CLR,M,M,M,M,M,M,M,M,M,M,M,M,M,M,97.76,KBVU 241735Z AUTO 00000KT 10SM CLR 37/14 A3006 RMK AO2,M
CXP,2024-07-24 17:35,-119.7326,39.1923,1431.00,89.60,48.20,24.11,0.00,0.00,0.00,30.28,M,10.00,M,CLR,M,M,M,M,M,M,M,M,M,M,M,M,M,M,86.44,KCXP 241735Z AUTO 00000KT 10SM CLR 32/09 A3028 RMK AO2,M
RTS,2024-07-24 17:35,-119.8764,39.6682,1539.00,87.80,48.20,25.52,210.00,4.00,0.00,30.30,M,10.00,M,CLR,M,M,M,M,M,M,M,M,M,M,M,M,M,M,84.87,KRTS 241735Z AUTO 21004KT 10SM CLR 31/09 A3030 RMK AO2,M
05U,2024-07-24 17:35,-116.0051,39.6042,1811.23,84.20,44.60,24.99,0.00,0.00,0.00,30.38,M,10.00,M,CLR,M,M,M,M,M,M,M,M,M,M,M,M,M,M,81.73,K05U 241735Z AUTO 00000KT 10SM CLR 29/07 A3038 RMK A01,M
MEV,2024-07-24 17:35,-119.7500,38.9963,1441.42,86.00,51.80,30.90,200.00,4.00,0.00,30.27,M,8.00,M,CLR,M,M,M,M,M,M,M,M,M,M,M,M,M,M,83.87,KMEV 241735Z AUTO 20004KT 8SM CLR 30/11 A3027 RMK AO2,M
HTH,2024-07-24 17:35,-118.6315,38.5448,1282.89,87.80,46.40,23.85,330.00,4.00,0.00,30.23,M,10.00,M,CLR,M,M,M,M,M,M,M,M,M,M,M,M,M,M,84.68,KHTH 241735Z AUTO 33004KT 10SM CLR 31/08 A3023 RMK A01,M
10U,2024-07-24 17:35,-116.1876,41.9532,1637.00,86.00,44.60,23.59,200.00,4.00,0.00,30.29,M,9.00,M,CLR,M,M,M,M,M,M,M,M,M,M,M,M,M,M,83.07,K10U 241735Z AUTO 20004KT 9SM CLR 30/07 A3029 RMK AO2,M
BAM,2024-07-24 17:35,-116.8743,40.5990,1382.36,91.40,48.20,22.78,200.00,6.00,0.00,30.24,M,10.00,M,CLR,M,M,M,M,M,M,M,M,M,M,M,M,M,M,88.09,KBAM 241735Z AUTO 20006KT 10SM CLR 33/09 A3024 RMK AO1,M
TMT,2024-07-24 17:35,-117.1971,39.4643,1749.34,84.20,50.00,30.62,260.00,4.00,0.00,30.36,M,10.00,M,CLR,M,M,M,M,M,M,M,M,M,M,M,M,M,M,82.24,KTMT 241735Z AUTO 26004KT 10SM CLR 29/10 A3036 RMK AO2 T02900100,M
05U,2024-07-24 17:50,-116.0051,39.6042,1811.23,86.00,46.40,25.26,0.00,0.00,0.00,30.38,M,10.00,M,CLR,M,M,M,M,M,M,M,M,M,M,M,M,M,M,83.22,K05U 241750Z AUTO 00000KT 10SM CLR 30/08 A3038 RMK A01,M
P68,2024-07-24 17:53,-116.0056,39.6014,1993.00,86.00,46.00,24.88,70.00,5.00,0.00,30.34,1017.20,M,M,M,M,M,M,M,M,M,M,M,M,M,M,M,M,M,83.19,KP68 241753Z AUTO 07005KT 30/08 A3034 RMK AO1 SLP172 T03000078 10300 20183 58005,M
DRA,2024-07-24 17:53,-116.0278,36.6206,1009.00,94.00,58.00,30.11,110.00,10.00,0.00,30.17,1015.50,10.00,17.00,CLR,M,M,M,M,M,M,M,M,M,M,M,M,M,M,93.04,KDRA 241753Z AUTO 11010G17KT 10SM CLR 34/14 A3017 RMK AO2 SLP155 T03440144 10344 20244 51004,M
ELY,2024-07-24 17:53,-114.8453,39.2950,1909.00,88.00,49.00,26.13,320.00,6.00,0.00,30.37,1016.60,10.00,M,CLR,M,M,M,M,M,M,M,M,M,M,M,M,M,M,85.14,KELY 241753Z AUTO 32006KT 10SM CLR 31/09 A3037 RMK AO2 SLP166 T03110094 10311 20139 56008 $,M
VGT,2024-07-24 17:53,-115.1933,36.2111,667.00,98.00,59.00,27.60,M,4.00,0.00,30.08,1016.80,10.00,M,CLR,M,M,M,M,M,M,M,M,M,M,M,M,M,M,97.84,KVGT 241753Z VRB04KT 10SM CLR 37/15 A3008 RMK AO2 SLP168 T03670150 10372 20317 58003,M
LOL,2024-07-24 17:53,-118.5701,40.0684,1192.43,93.00,52.00,24.97,150.00,11.00,0.00,30.18,1016.70,10.00,15.00,CLR,M,M,M,M,M,M,M,M,M,M,M,M,M,M,90.29,KLOL 241753Z AUTO 15011G15KT 10SM CLR 34/11 A3018 RMK AO2 SLP167 T03390111 10344 20189 58006,M
NFL,2024-07-24 17:54,-118.7010,39.4166,1199.00,94.00,50.00,22.48,M,5.00,0.00,30.20,1018.90,10.00,M,FEW,SCT,M,M,8000.00,22000.00,M,M,M,M,M,M,M,M,M,90.89,KNFL 241754Z VRB05KT 10SM FEW080 SCT220 34/10 A3020 RMK AO2 SLP189 T03440100 10344 20200 58002,M
BVU,2024-07-24 17:55,-114.8611,35.9475,671.00,98.60,55.40,23.81,120.00,4.00,0.00,30.06,M,10.00,M,CLR,M,M,M,M,M,M,M,M,M,M,M,M,M,M,97.09,KBVU 241755Z AUTO 12004KT 10SM CLR 37/13 A3006 RMK AO2,M
CXP,2024-07-24 17:55,-119.7326,39.1923,1431.00,91.40,48.20,22.78,M,4.00,0.00,30.28,M,10.00,M,CLR,M,M,M,M,M,M,M,M,M,M,M,M,M,M,88.09,KCXP 241755Z AUTO VRB04KT 10SM CLR 33/09 A3028 RMK AO2,M
INS,2024-07-24 17:55,-115.6733,36.5872,955.00,92.70,55.80,28.96,330.00,5.00,0.00,30.15,1014.60,10.00,M,CLR,M,M,M,M,M,M,M,M,M,M,M,M,M,M,90.95,KINS 241755Z AUTO 33005KT 10SM CLR 34/13 A3015 RMK AO2 SLP146 T03370132 10337 20266 50005 $,M
RNO,2024-07-24 17:55,-119.7711,39.4839,1341.00,93.00,50.00,23.18,0.00,0.00,0.00,30.24,1017.10,10.00,M,FEW,M,M,M,10000.00,M,M,M,M,M,M,M,M,M,M,89.90,KRNO 241755Z 00000KT 10SM FEW100 34/10 A3024 RMK AO2 SLP171 T03390100 10339 20222 58004,M
RTS,2024-07-24 17:55,-119.8764,39.6682,1539.00,87.80,48.20,25.52,240.00,4.00,0.00,30.30,M,10.00,10.00,CLR,M,M,M,M,M,M,M,M,M,M,M,M,M,M,84.87,KRTS 241755Z AUTO 24004G10KT 10SM CLR 31/09 A3030 RMK AO2,M
MEV,2024-07-24 17:55,-119.7500,38.9963,1441.42,87.80,53.60,31.17,0.00,0.00,0.00,30.27,M,9.00,M,CLR,M,M,M,M,M,M,M,M,M,M,M,M,M,M,85.72,KMEV 241755Z AUTO 00000KT 9SM CLR 31/12 A3027 RMK AO2,M
BAM,2024-07-24 17:55,-116.8743,40.5990,1382.36,91.40,48.20,22.78,230.00,6.00,0.00,30.24,M,10.00,M,CLR,M,M,M,M,M,M,M,M,M,M,M,M,M,M,88.09,KBAM 241755Z AUTO 23006KT 10SM CLR 33/09 A3024 RMK AO1,M
HTH,2024-07-24 17:55,-118.6315,38.5448,1282.89,89.60,46.40,22.53,300.00,4.00,0.00,30.23,M,10.00,M,CLR,M,M,M,M,M,M,M,M,M,M,M,M,M,M,86.24,KHTH 241755Z AUTO 30004KT 10SM CLR 32/08 A3023 RMK A01,M
10U,2024-07-24 17:55,-116.1876,41.9532,1637.00,87.80,44.60,22.27,210.00,5.00,0.00,30.28,M,10.00,M,CLR,M,M,M,M,M,M,M,M,M,M,M,M,M,M,84.53,K10U 241755Z AUTO 21005KT 10SM CLR 31/07 A3028 RMK AO2,M
LSV,2024-07-24 17:55,-115.0343,36.2362,570.00,99.00,55.80,23.86,20.00,4.00,0.00,30.02,1013.30,10.00,M,FEW,M,M,M,16000.00,M,M,M,M,M,M,M,M,M,M,97.67,KLSV 241755Z AUTO 02004KT 10SM FEW160 37/13 A3002 RMK AO2 SLP133 T03720132 10373 20299 56003 $,M
TMT,2024-07-24 17:55,-117.1971,39.4643,1749.34,85.30,48.40,27.85,0.00,0.00,0.00,30.35,M,10.00,M,CLR,M,M,M,M,M,M,M,M,M,M,M,M,M,M,82.88,KTMT 241755Z AUTO 00000KT 10SM CLR 30/09 A3035 RMK AO2 T02960091 10298 20132,M
EKO,2024-07-24 17:56,-115.7860,40.8242,1367.00,89.00,50.00,26.28,230.00,9.00,0.00,30.28,1017.50,10.00,M,CLR,M,M,M,M,M,M,M,M,M,M,M,M,M,M,86.16,KEKO 241756Z AUTO 23009KT 10SM CLR 32/10 A3028 RMK AO2 SLP175 T03170100 10328 20200 56002,M
WMC,2024-07-24 17:56,-117.8072,40.9019,1315.00,95.00,45.00,18.06,M,M,0.00,30.20,1016.40,10.00,M,CLR,M,M,M,M,M,M,M,M,M,M,M,M,M,M,91.10,KWMC 241756Z AUTO 10SM CLR 35/07 A3020 RMK AO2 SLP164 T03500072 10356 20222 58005,M
HND,2024-07-24 17:56,-115.1344,35.9729,742.79,98.00,60.00,28.61,M,5.00,0.00,30.12,1017.80,10.00,M,CLR,M,M,M,M,M,M,M,M,M,M,M,M,M,M,98.31,KHND 241756Z VRB05KT 10SM CLR 37/16 A3012 RMK AO2 SLP178 T03670156 10367 20294 58004,M
TPH,2024-07-24 17:56,-117.0904,38.0505,1654.00,85.00,53.00,33.34,0.00,0.00,0.00,30.33,1017.20,10.00,M,CLR,M,M,M,M,M,M,M,M,M,M,M,M,M,M,83.27,KTPH 241756Z AUTO 00000KT 10SM CLR 29/12 A3033 RMK AO2 SLP172 T02940117 10294 20200 56006,M
LAS,2024-07-24 17:56,-115.1634,36.0719,663.00,100.00,58.00,25.06,M,5.00,0.00,30.08,1011.80,10.00,M,FEW,FEW,SCT,M,11000.00,16000.00,22000.00,M,M,M,M,M,M,M,M,99.66,KLAS 241756Z VRB05KT 10SM FEW110 FEW160 SCT220 38/14 A3008 RMK AO2 SLP118 T03780144 10378 20322 58003 $,M
BVU,2024-07-24 18:15,-114.8611,35.9475,671.00,100.40,53.60,21.11,110.00,5.00,0.00,30.06,M,10.00,M,CLR,M,M,M,M,M,M,M,M,M,M,M,M,M,M,98.44,KBVU 241815Z AUTO 11005KT 10SM CLR 38/12 A3006 RMK AO2,M
CXP,2024-07-24 18:15,-119.7326,39.1923,1431.00,91.40,48.20,22.78,M,4.00,0.00,30.28,M,10.00,M,CLR,M,M,M,M,M,M,M,M,M,M,M,M,M,M,88.09,KCXP 241815Z AUTO VRB04KT 10SM CLR 33/09 A3028 RMK AO2,M
RTS,2024-07-24 18:15,-119.8764,39.6682,1539.00,89.60,48.20,24.11,M,4.00,0.00,30.30,M,10.00,11.00,CLR,M,M,M,M,M,M,M,M,M,M,M,M,M,M,86.44,KRTS 241815Z AUTO VRB04G11KT 10SM CLR 32/09 A3030 RMK AO2,M
05U,2024-07-24 18:15,-116.0051,39.6042,1811.23,87.80,46.40,23.85,0.00,0.00,0.00,30.37,M,10.00,M,CLR,M,M,M,M,M,M,M,M,M,M,M,M,M,M,84.68,K05U 241815Z AUTO 00000KT 10SM CLR 31/08 A3037 RMK A01,M
MEV,2024-07-24 18:15,-119.7500,38.9963,1441.42,89.60,51.80,27.56,0.00,0.00,0.00,30.27,M,9.00,M,CLR,M,M,M,M,M,M,M,M,M,M,M,M,M,M,87.00,KMEV 241815Z AUTO 00000KT 9SM CLR 32/11 A3027 RMK AO2,M
HTH,2024-07-24 18:15,-118.6315,38.5448,1282.89,91.40,44.60,19.89,M,4.00,0.00,30.22,M,10.00,M,CLR,M,M,M,M,M,M,M,M,M,M,M,M,M,M,87.68,KHTH 241815Z AUTO VRB04KT 10SM CLR 33/07 A3022 RMK A01,M
10U,2024-07-24 18:15,-116.1876,41.9532,1637.00,91.40,42.80,18.56,200.00,5.00,0.00,30.28,M,9.00,11.00,CLR,M,M,M,M,M,M,M,M,M,M,M,M,M,M,87.52,K10U 241815Z AUTO 20005G11KT 9SM CLR 33/06 A3028 RMK AO2,M
BAM,2024-07-24 18:15,-116.8743,40.5990,1382.36,95.00,48.20,20.38,260.00,3.00,0.00,30.23,M,10.00,M,CLR,M,M,M,M,M,M,M,M,M,M,M,M,M,M,91.56,KBAM 241815Z AUTO 26003KT 10SM CLR 35/09 A3023 RMK AO1,M
TMT,2024-07-24 18:15,-117.1971,39.4643,1749.34,86.00,47.70,26.52,280.00,3.00,0.00,30.35,M,10.00,M,CLR,M,M,M,M,M,M,M,M,M,M,M,M,M,M,83.35,KTMT 241815Z AUTO 28003KT 10SM CLR 30/09 A3035 RMK AO2 T02990087,M
BVU,2024-07-24 18:35,-114.8611,35.9475,671.00,102.20,53.60,20.00,M,4.00,0.00,30.06,M,10.00,M,CLR,M,M,M,M,M,M,M,M,M,M,M,M,M,M,100.38,KBVU 241835Z AUTO VRB04KT 10SM CLR 39/12 A3006 RMK AO2,M
CXP,2024-07-24 18:35,-119.7326,39.1923,1431.00,93.20,48.20,21.54,M,4.00,0.00,30.28,M,10.00,M,CLR,M,M,M,M,M,M,M,M,M,M,M,M,M,M,89.80,KCXP 241835Z AUTO VRB04KT 10SM CLR 34/09 A3028 RMK AO2,M
RTS,2024-07-24 18:35,-119.8764,39.6682,1539.00,91.40,46.40,21.29,200.00,7.00,0.00,30.30,M,10.00,M,CLR,M,M,M,M,M,M,M,M,M,M,M,M,M,M,87.86,KRTS 241835Z AUTO 20007KT 10SM CLR 33/08 A3030 RMK AO2,M
05U,2024-07-24 18:35,-116.0051,39.6042,1811.23,87.80,44.60,22.27,0.00,0.00,0.00,30.37,M,10.00,M,CLR,M,M,M,M,M,M,M,M,M,M,M,M,M,M,84.53,K05U 241835Z AUTO 00000KT 10SM CLR 31/07 A3037 RMK A01,M
MEV,2024-07-24 18:35,-119.7500,38.9963,1441.42,91.40,48.20,22.78,290.00,3.00,0.00,30.26,M,9.00,M,CLR,M,M,M,M,M,M,M,M,M,M,M,M,M,M,88.09,KMEV 241835Z AUTO 29003KT 9SM CLR 33/09 A3026 RMK AO2,M
BAM,2024-07-24 18:35,-116.8743,40.5990,1382.36,95.00,48.20,20.38,260.00,4.00,0.00,30.23,M,10.00,M,CLR,M,M,M,M,M,M,M,M,M,M,M,M,M,M,91.56,KBAM 241835Z AUTO 26004KT 10SM CLR 35/09 A3023 RMK AO1,M
HTH,2024-07-24 18:35,-118.6315,38.5448,1282.89,91.40,44.60,19.89,M,4.00,0.00,30.22,M,10.00,M,CLR,M,M,M,M,M,M,M,M,M,M,M,M,M,M,87.68,KHTH 241835Z AUTO VRB04KT 10SM CLR 33/07 A3022 RMK A01,M
TMT,2024-07-24 18:35,-117.1971,39.4643,1749.34,87.40,47.50,25.18,260.00,4.00,0.00,30.35,M,10.00,M,CLR,M,M,M,M,M,M,M,M,M,M,M,M,M,M,84.46,KTMT 241835Z AUTO 26004KT 10SM CLR 31/09 A3035 RMK AO2 T03080086,M
10U,2024-07-24 18:35,-116.1876,41.9532,1637.00,93.20,42.80,17.55,M,4.00,0.00,30.27,M,10.00,M,CLR,M,M,M,M,M,M,M,M,M,M,M,M,M,M,89.17,K10U 241835Z AUTO VRB04KT 10SM CLR 34/06 A3027 RMK AO2,M
P68,2024-07-24 18:53,-116.0056,39.6014,1993.00,89.00,46.00,22.61,M,5.00,0.00,30.33,1016.90,M,M,M,M,M,M,M,M,M,M,M,M,M,M,M,M,M,85.67,KP68 241853Z AUTO VRB05KT 32/08 A3033 RMK AO1 SLP169 T03170078,M
DRA,2024-07-24 18:53,-116.0278,36.6206,1009.00,96.00,55.00,25.40,M,3.00,0.00,30.16,1015.20,10.00,M,CLR,M,M,M,M,M,M,M,M,M,M,M,M,M,M,94.16,KDRA 241853Z AUTO VRB03KT 10SM CLR 36/13 A3016 RMK AO2 SLP152 T03560128,M
ELY,2024-07-24 18:53,-114.8453,39.2950,1909.00,90.00,47.00,22.76,M,5.00,0.00,30.36,1015.70,10.00,M,CLR,M,M,M,M,M,M,M,M,M,M,M,M,M,M,86.66,KELY 241853Z AUTO VRB05KT 10SM CLR 32/08 A3036 RMK AO2 LTG DSNT E SLP157 T03220083,M
VGT,2024-07-24 18:53,-115.1933,36.2111,667.00,101.00,59.00,25.21,40.00,4.00,0.00,30.07,1016.50,10.00,M,CLR,M,M,M,M,M,M,M,M,M,M,M,M,M,M,101.25,KVGT 241853Z 04004KT 10SM CLR 38/15 A3007 RMK AO2 SLP165 T03830150,M
LOL,2024-07-24 18:53,-118.5701,40.0684,1192.43,96.00,51.00,21.93,130.00,8.00,0.00,30.18,1016.50,10.00,16.00,CLR,M,M,M,M,M,M,M,M,M,M,M,M,M,M,93.11,KLOL 241853Z AUTO 13008G16KT 10SM CLR 36/11 A3018 RMK AO2 SLP165 T03560106,M
NFL,2024-07-24 18:54,-118.7010,39.4166,1199.00,96.00,50.00,21.13,M,3.00,0.00,30.18,1018.50,10.00,M,FEW,SCT,M,M,8000.00,22000.00,M,M,M,M,M,M,M,M,M,92.89,KNFL 241854Z COR VRB03KT 10SM FEW080 SCT220 36/10 A3018 RMK SLP185 CB DSNT SW T03560100,M
BVU,2024-07-24 18:55,-114.8611,35.9475,671.00,100.40,53.60,21.11,320.00,4.00,0.00,30.05,M,10.00,M,CLR,M,M,M,M,M,M,M,M,M,M,M,M,M,M,98.44,KBVU 241855Z AUTO 32004KT 10SM CLR 38/12 A3005 RMK AO2,M
CXP,2024-07-24 18:55,-119.7326,39.1923,1431.00,93.20,48.20,21.54,190.00,7.00,0.00,30.27,M,10.00,M,CLR,M,M,M,M,M,M,M,M,M,M,M,M,M,M,89.80,KCXP 241855Z AUTO 19007KT 180V250 10SM CLR 34/09 A3027 RMK AO2,M
INS,2024-07-24 18:55,-115.6733,36.5872,955.00,96.00,53.20,23.78,210.00,3.00,0.00,30.15,1014.70,10.00,M,CLR,M,M,M,M,M,M,M,M,M,M,M,M,M,M,93.64,KINS 241855Z AUTO 21003KT 10SM CLR 36/12 A3015 RMK AO2 SLP147 T03550118 $,M
RNO,2024-07-24 18:55,-119.7711,39.4839,1341.00,96.00,49.00,20.36,M,4.00,0.00,30.23,1016.40,10.00,M,FEW,FEW,M,M,10000.00,24000.00,M,M,M,M,M,M,M,M,M,92.70,KRNO 241855Z VRB04KT 10SM FEW100TCU FEW240 36/09 A3023 RMK AO2 SLP164 TCU SW T03560094,M
RTS,2024-07-24 18:55,-119.8764,39.6682,1539.00,93.20,46.40,20.13,240.00,12.00,0.00,30.29,M,10.00,M,CLR,M,M,M,M,M,M,M,M,M,M,M,M,M,M,89.55,KRTS 241855Z AUTO 24012KT 10SM CLR 34/08 A3029 RMK AO2,M
05U,2024-07-24 18:55,-116.0051,39.6042,1811.23,87.80,46.40,23.85,330.00,8.00,0.00,30.36,M,10.00,M,CLR,M,M,M,M,M,M,M,M,M,M,M,M,M,M,84.68,K05U 241855Z AUTO 33008KT 10SM CLR 31/08 A3036 RMK A01,M
MEV,2024-07-24 18:55,-119.7500,38.9963,1441.42,93.20,48.20,21.54,M,4.00,0.00,30.26,M,10.00,10.00,CLR,M,M,M,M,M,M,M,M,M,M,M,M,M,M,89.80,KMEV 241855Z AUTO VRB04G10KT 10SM CLR 34/09 A3026 RMK AO2,M
HTH,2024-07-24 18:55,-118.6315,38.5448,1282.89,93.20,44.60,18.80,330.00,6.00,0.00,30.21,M,10.00,M,CLR,M,M,M,M,M,M,M,M,M,M,M,M,M,M,89.34,KHTH 241855Z AUTO 33006KT 10SM CLR 34/07 A3021 RMK A01,M
10U,2024-07-24 18:55,-116.1876,41.9532,1637.00,95.00,42.80,16.60,280.00,8.00,0.00,30.27,M,10.00,17.00,CLR,M,M,M,M,M,M,M,M,M,M,M,M,M,M,90.86,K10U 241855Z AUTO 28008G17KT 250V310 10SM CLR 35/06 A3027 RMK AO2,M
LSV,2024-07-24 18:55,-115.0343,36.2362,570.00,102.40,55.00,20.92,120.00,3.00,0.00,30.01,1013.10,10.00,M,FEW,M,M,M,16000.00,M,M,M,M,M,M,M,M,M,M,101.10,KLSV 241855Z COR 12003KT 10SM FEW160 39/13 A3001 RMK AO2A SLP131 T03910127 $ COR 1907,M
BAM,2024-07-24 18:55,-116.8743,40.5990,1382.36,96.80,50.00,20.62,230.00,6.00,0.00,30.23,M,10.00,M,CLR,M,M,M,M,M,M,M,M,M,M,M,M,M,M,93.71,KBAM 241855Z AUTO 23006KT 10SM CLR 36/10 A3023 RMK AO1,M
TMT,2024-07-24 18:55,-117.1971,39.4643,1749.34,88.30,47.70,24.65,310.00,3.00,0.00,30.34,M,10.00,M,CLR,M,M,M,M,M,M,M,M,M,M,M,M,M,M,85.24,KTMT 241855Z AUTO 31003KT 10SM CLR 31/09 A3034 RMK AO2 T03130087,M
EKO,2024-07-24 18:56,-115.7860,40.8242,1367.00,85.00,54.00,34.59,220.00,6.00,0.00,30.28,1018.20,10.00,M,BKN,M,M,M,11000.00,M,M,M,M,M,M,M,M,M,M,83.45,KEKO 241856Z AUTO 22006KT 10SM BKN110 29/12 A3028 RMK AO2 SLP182 T02940122,M
WMC,2024-07-24 18:56,-117.8072,40.9019,1315.00,98.00,46.00,17.11,210.00,9.00,0.00,30.19,1015.70,10.00,M,CLR,M,M,M,M,M,M,M,M,M,M,M,M,M,M,94.18,KWMC 241856Z AUTO 21009KT 10SM CLR 37/08 A3019 RMK AO2 SLP157 T03670078,M
HND,2024-07-24 18:56,-115.1344,35.9729,742.79,100.00,60.00,26.92,0.00,0.00,0.00,30.11,1017.50,10.00,M,CLR,M,M,M,M,M,M,M,M,M,M,M,M,M,M,100.60,KHND 241856Z 00000KT 10SM CLR 38/16 A3011 RMK AO2 SLP175 T03780156,M
TPH,2024-07-24 18:56,-117.0904,38.0505,1654.00,87.00,52.00,30.15,120.00,5.00,0.00,30.32,1016.90,10.00,M,CLR,M,M,M,M,M,M,M,M,M,M,M,M,M,M,84.73,KTPH 241856Z AUTO 12005KT 10SM CLR 31/11 A3032 RMK AO2 SLP169 T03060111,M
LAS,2024-07-24 18:56,-115.1634,36.0719,663.00,102.00,56.00,21.96,0.00,0.00,0.00,30.07,1011.50,10.00,M,FEW,FEW,M,M,11000.00,22000.00,M,M,M,M,M,M,M,M,M,101.05,KLAS 241856Z 00000KT 10SM FEW110 FEW220 39/13 A3007 RMK AO2 SLP115 T03890133 $,M
BVU,2024-07-24 19:15,-114.8611,35.9475,671.00,102.20,53.60,20.00,M,6.00,0.00,30.04,M,10.00,M,CLR,M,M,M,M,M,M,M,M,M,M,M,M,M,M,100.38,KBVU 241915Z AUTO VRB06KT 10SM CLR 39/12 A3004 RMK AO2,M
CXP,2024-07-24 19:15,-119.7326,39.1923,1431.00,95.00,48.20,20.38,M,5.00,0.00,30.26,M,10.00,M,CLR,M,M,M,M,M,M,M,M,M,M,M,M,M,M,91.56,KCXP 241915Z AUTO VRB05KT 10SM CLR 35/09 A3026 RMK AO2,M
RTS,2024-07-24 19:15,-119.8764,39.6682,1539.00,91.40,46.40,21.29,210.00,7.00,0.00,30.29,M,10.00,13.00,CLR,M,M,M,M,M,M,M,M,M,M,M,M,M,M,87.86,KRTS 241915Z AUTO 21007G13KT 10SM CLR 33/08 A3029 RMK AO2,M
05U,2024-07-24 19:15,-116.0051,39.6042,1811.23,87.80,44.60,22.27,0.00,0.00,0.00,30.36,M,10.00,M,CLR,M,M,M,M,M,M,M,M,M,M,M,M,M,M,84.53,K05U 241915Z AUTO 00000KT 10SM CLR 31/07 A3036 RMK A01,M
MEV,2024-07-24 19:15,-119.7500,38.9963,1441.42,91.40,48.20,22.78,290.00,6.00,0.00,30.25,M,10.00,M,CLR,M,M,M,M,M,M,M,M,M,M,M,M,M,M,88.09,KMEV 241915Z AUTO 29006KT 10SM CLR 33/09 A3025 RMK AO2,M
HTH,2024-07-24 19:15,-118.6315,38.5448,1282.89,95.00,44.60,17.78,M,5.00,0.00,30.21,M,10.00,12.00,CLR,M,M,M,M,M,M,M,M,M,M,M,M,M,M,91.06,KHTH 241915Z AUTO VRB05G12KT 10SM CLR 35/07 A3021 RMK A01,M
10U,2024-07-24 19:15,-116.1876,41.9532,1637.00,93.20,42.80,17.55,200.00,11.00,0.00,30.27,M,10.00,17.00,FEW,M,M,M,12000.00,M,M,M,M,M,M,M,M,M,M,89.17,K10U 241915Z AUTO 20011G17KT 10SM FEW120 34/06 A3027 RMK AO2,M
BAM,2024-07-24 19:15,-116.8743,40.5990,1382.36,95.00,48.20,20.38,230.00,3.00,0.00,30.22,M,10.00,M,CLR,M,M,M,M,M,M,M,M,M,M,M,M,M,M,91.56,KBAM 241915Z AUTO 23003KT 10SM CLR 35/09 A3022 RMK AO1,M
TMT,2024-07-24 19:15,-117.1971,39.4643,1749.34,88.00,46.60,23.88,210.00,4.00,0.00,30.34,M,10.00,M,CLR,M,M,M,M,M,M,M,M,M,M,M,M,M,M,84.87,KTMT 241915Z AUTO 21004KT 10SM CLR 31/08 A3034 RMK AO2 T03110081,M
BVU,2024-07-24 19:35,-114.8611,35.9475,671.00,104.00,53.60,18.95,70.00,6.00,0.00,30.04,M,10.00,M,CLR,M,M,M,M,M,M,M,M,M,M,M,M,M,M,102.31,KBVU 241935Z AUTO 07006KT 10SM CLR 40/12 A3004 RMK AO2,M
CXP,2024-07-24 19:35,-119.7326,39.1923,1431.00,95.00,48.20,20.38,270.00,10.00,0.00,30.26,M,10.00,15.00,CLR,M,M,M,M,M,M,M,M,M,M,M,M,M,M,91.56,KCXP 241935Z AUTO 27010G15KT 10SM CLR 35/09 A3026 RMK AO2,M
RTS,2024-07-24 19:35,-119.8764,39.6682,1539.00,93.20,48.20,21.54,300.00,9.00,0.00,30.28,M,10.00,14.00,CLR,M,M,M,M,M,M,M,M,M,M,M,M,M,M,89.80,KRTS 241935Z AUTO 30009G14KT 10SM CLR 34/09 A3028 RMK AO2,M
05U,2024-07-24 19:35,-116.0051,39.6042,1811.23,89.60,44.60,21.04,0.00,0.00,0.00,30.35,M,10.00,M,CLR,M,M,M,M,M,M,M,M,M,M,M,M,M,M,86.07,K05U 241935Z AUTO 00000KT 10SM CLR 32/07 A3035 RMK A01,M
MEV,2024-07-24 19:35,-119.7500,38.9963,1441.42,91.40,50.00,24.37,0.00,0.00,0.00,30.25,M,10.00,M,CLR,M,M,M,M,M,M,M,M,M,M,M,M,M,M,88.36,KMEV 241935Z AUTO 00000KT 10SM CLR 33/10 A3025 RMK AO2,M
HTH,2024-07-24 19:35,-118.6315,38.5448,1282.89,95.00,44.60,17.78,310.00,9.00,0.00,30.20,M,10.00,M,CLR,M,M,M,M,M,M,M,M,M,M,M,M,M,M,91.06,KHTH 241935Z AUTO 31009KT 10SM CLR 35/07 A3020 RMK A01,M
10U,2024-07-24 19:35,-116.1876,41.9532,1637.00,91.40,42.80,18.56,190.00,10.00,0.00,30.26,M,10.00,M,SCT,M,M,M,11000.00,M,M,M,M,M,M,M,M,M,M,87.52,K10U 241935Z AUTO 19010KT 10SM SCT110 33/06 A3026 RMK AO2,M
BAM,2024-07-24 19:35,-116.8743,40.5990,1382.36,98.60,48.20,18.25,110.00,7.00,0.00,30.21,M,10.00,M,CLR,M,M,M,M,M,M,M,M,M,M,M,M,M,M,95.17,KBAM 241935Z AUTO 11007KT 080V140 10SM CLR 37/09 A3021 RMK AO1,M
TMT,2024-07-24 19:35,-117.1971,39.4643,1749.34,91.00,48.00,22.90,280.00,6.00,0.00,30.33,M,10.00,M,CLR,M,M,M,M,M,M,M,M,M,M,M,M,M,M,87.69,KTMT 241935Z AUTO 28006KT 10SM CLR 33/09 A3033 RMK AO2 T03270088,M
RNO,2024-07-24 19:43,-119.7711,39.4839,1341.00,95.00,54.00,25.26,320.00,8.00,T,30.22,M,10.00,16.00,SCT,SCT,M,M,9000.00,21000.00,M,M,-TSRA,M,M,M,M,M,M,92.82,KRNO 241943Z 32008G16KT 10SM -TSRA SCT090CB SCT210 35/12 A3022 RMK AO2 RAB34 TSB41 OCNL LTGIC OHD TS OHD STNRY P0000 T03500122,M
ELY,2024-07-24 19:51,-114.8453,39.2950,1909.00,91.40,42.80,18.56,160.00,8.00,0.00,30.34,M,10.00,M,FEW,M,M,M,10000.00,M,M,M,VCTS,M,M,M,M,M,M,87.52,KELY 241951Z AUTO 16008KT 10SM VCTS FEW100 33/06 A3034 RMK AO2 LTG DSNT SE,M
P68,2024-07-24 19:53,-116.0056,39.6014,1993.00,92.00,44.00,19.08,M,M,0.00,30.32,1016.20,M,M,M,M,M,M,M,M,M,M,M,M,M,M,M,M,M,88.17,KP68 241953Z AUTO 33/07 A3032 RMK AO1 SLP162 T03330067,M
DRA,2024-07-24 19:53,-116.0278,36.6206,1009.00,99.00,53.00,21.54,0.00,0.00,0.00,30.14,1014.60,10.00,M,CLR,M,M,M,M,M,M,M,M,M,M,M,M,M,M,96.76,KDRA 241953Z AUTO 00000KT 10SM CLR 37/12 A3014 RMK AO2 SLP146 T03720117,M
ELY,2024-07-24 19:53,-114.8453,39.2950,1909.00,91.00,43.00,18.94,160.00,7.00,0.00,30.33,1015.00,10.00,M,FEW,M,M,M,10000.00,M,M,M,VCTS,M,M,M,M,M,M,87.18,KELY 241953Z AUTO 16007KT 10SM VCTS FEW100 33/06 A3033 RMK AO2 LTG DSNT SE SLP150 T03280061,M
VGT,2024-07-24 19:53,-115.1933,36.2111,667.00,104.00,58.00,22.23,M,M,0.00,30.04,1015.60,10.00,M,CLR,M,M,M,M,M,M,M,M,M,M,M,M,M,M,104.17,KVGT 241953Z 10SM CLR 40/14 A3004 RMK AO2 SLP156 T04000144,M
LOL,2024-07-24 19:53,-118.5701,40.0684,1192.43,98.00,50.00,19.88,M,4.00,0.00,30.15,1015.70,10.00,14.00,CLR,M,M,M,M,M,M,M,M,M,M,M,M,M,M,94.94,KLOL 241953Z AUTO VRB04G14KT 10SM CLR 37/10 A3015 RMK AO2 SLP157 T03670100,M
NFL,2024-07-24 19:54,-118.7010,39.4166,1199.00,100.00,48.00,17.36,20.00,7.00,0.00,30.17,1018.10,10.00,M,SCT,SCT,SCT,M,8000.00,15000.00,22000.00,M,M,M,M,M,M,M,M,96.55,KNFL 241954Z 02007KT 350V070 10SM SCT080 SCT150 SCT220 38/09 A3017 RMK AO2 SLP181 CB DSNT E-S-W T03780089,M
BVU,2024-07-24 19:55,-114.8611,35.9475,671.00,104.00,53.60,18.95,90.00,6.00,0.00,30.03,M,10.00,M,CLR,M,M,M,M,M,M,M,M,M,M,M,M,M,M,102.31,KBVU 241955Z AUTO 09006KT 10SM CLR 40/12 A3003 RMK AO2,M
CXP,2024-07-24 19:55,-119.7326,39.1923,1431.00,95.00,48.20,20.38,260.00,11.00,0.00,30.26,M,10.00,19.00,CLR,M,M,M,M,M,M,M,M,M,M,M,M,M,M,91.56,KCXP 241955Z AUTO 26011G19KT 220V290 10SM CLR 35/09 A3026 RMK AO2,M
INS,2024-07-24 19:55,-115.6733,36.5872,955.00,98.40,49.00,18.92,0.00,0.00,0.00,30.13,1014.00,10.00,M,CLR,M,M,M,M,M,M,M,M,M,M,M,M,M,M,95.13,KINS 241955Z AUTO 00000KT 10SM CLR 37/09 A3013 RMK AO2 SLP140 T03690094 $,M
RNO,2024-07-24 19:55,-119.7711,39.4839,1341.00,89.00,61.00,39.18,320.00,7.00,T,30.22,1016.50,10.00,M,SCT,SCT,M,M,9000.00,21000.00,M,M,-TSRA,M,M,M,M,M,M,89.01,KRNO 241955Z 32007KT 10SM -TSRA SCT090CB SCT210 32/16 A3022 RMK AO2 RAB34 TSB41 SLP165 FRQ LTGIC OHD TS OHD STNRY P0000 T03170161,M
RTS,2024-07-24 19:55,-119.8764,39.6682,1539.00,93.20,48.20,21.54,290.00,11.00,0.00,30.28,M,10.00,M,SCT,M,M,M,9000.00,M,M,M,M,M,M,M,M,M,M,89.80,KRTS 241955Z AUTO 29011KT 10SM SCT090 34/09 A3028 RMK AO2,M
05U,2024-07-24 19:55,-116.0051,39.6042,1811.23,89.60,42.80,19.64,0.00,0.00,0.00,30.35,M,10.00,M,CLR,M,M,M,M,M,M,M,M,M,M,M,M,M,M,85.93,K05U 241955Z AUTO 00000KT 10SM CLR 32/06 A3035 RMK A01,M
MEV,2024-07-24 19:55,-119.7500,38.9963,1441.42,95.00,50.00,21.79,300.00,12.00,0.00,30.25,M,10.00,19.00,CLR,M,M,M,M,M,M,M,M,M,M,M,M,M,M,91.89,KMEV 241955Z AUTO 30012G19KT 10SM CLR 35/10 A3025 RMK AO2,M
HTH,2024-07-24 19:55,-118.6315,38.5448,1282.89,96.80,42.80,15.71,320.00,8.00,0.00,30.19,M,10.00,17.00,CLR,M,M,M,M,M,M,M,M,M,M,M,M,M,M,92.57,KHTH 241955Z AUTO 32008G17KT 10SM CLR 36/06 A3019 RMK A01,M
10U,2024-07-24 19:55,-116.1876,41.9532,1637.00,89.60,44.60,21.04,290.00,14.00,0.00,30.27,M,10.00,22.00,BKN,BKN,M,M,10000.00,12000.00,M,M,M,M,M,M,M,M,M,86.07,K10U 241955Z AUTO 29014G22KT 10SM BKN100 BKN120 32/07 A3027 RMK AO2 LTG DSNT N AND NW,M
BAM,2024-07-24 19:55,-116.8743,40.5990,1382.36,96.80,46.40,18.02,0.00,0.00,0.00,30.20,M,10.00,M,CLR,M,M,M,M,M,M,M,M,M,M,M,M,M,M,93.05,KBAM 241955Z AUTO 00000KT 10SM CLR 36/08 A3020 RMK AO1,M
TMT,2024-07-24 19:55,-117.1971,39.4643,1749.34,90.30,48.00,23.41,10.00,4.00,0.00,30.32,M,10.00,M,CLR,M,M,M,M,M,M,M,M,M,M,M,M,M,M,87.05,KTMT 241955Z AUTO 01004KT 10SM CLR 32/09 A3032 RMK AO2 T03240088,M
LSV,2024-07-24 19:55,-115.0343,36.2362,570.00,104.50,52.50,17.93,30.00,4.00,0.00,29.99,1012.30,10.00,M,FEW,FEW,M,M,16000.00,19000.00,M,M,M,M,M,M,M,M,M,102.45,KLSV 241955Z AUTO 03004KT 10SM FEW160 FEW190 40/11 A2999 RMK AO2 SLP123 T04030114 $,M
EKO,2024-07-24 19:56,-115.7860,40.8242,1367.00,90.00,47.00,22.76,260.00,6.00,T,30.27,1017.40,10.00,M,FEW,SCT,BKN,M,7000.00,9500.00,12000.00,M,M,M,M,M,M,M,M,86.66,KEKO 241956Z AUTO 26006KT 10SM FEW070 SCT095 BKN120 32/08 A3027 RMK AO2 RAB25E34 SLP174 P0000 T03220083,M
WMC,2024-07-24 19:56,-117.8072,40.9019,1315.00,102.00,46.00,15.16,240.00,14.00,0.00,30.18,1014.90,10.00,20.00,CLR,M,M,M,M,M,M,M,M,M,M,M,M,M,M,98.15,KWMC 241956Z AUTO 24014G20KT 10SM CLR 39/08 A3018 RMK AO2 SLP149 T03890078,M
HND,2024-07-24 19:56,-115.1344,35.9729,742.79,102.00,60.00,25.35,M,5.00,0.00,30.09,1016.90,10.00,M,CLR,M,M,M,M,M,M,M,M,M,M,M,M,M,M,102.90,KHND 241956Z VRB05KT 10SM CLR 39/16 A3009 RMK AO2 SLP169 T03890156,M
TPH,2024-07-24 19:56,-117.0904,38.0505,1654.00,91.00,49.00,23.77,M,4.00,0.00,30.30,1016.00,10.00,M,CLR,M,M,M,M,M,M,M,M,M,M,M,M,M,M,87.83,KTPH 241956Z AUTO VRB04KT 10SM CLR 33/09 A3030 RMK AO2 LTG DSNT NE AND E SLP160 T03280094,M
LAS,2024-07-24 19:56,-115.1634,36.0719,663.00,104.00,56.00,20.68,M,6.00,0.00,30.07,1011.50,10.00,M,FEW,FEW,M,M,11000.00,22000.00,M,M,M,M,M,M,M,M,M,103.26,KLAS 241956Z VRB06KT 10SM FEW110 FEW220 40/13 A3007 RMK AO2 SLP115 T04000133 $,M
ELY,2024-07-24 20:10,-114.8453,39.2950,1909.00,92.00,44.00,19.08,M,6.00,0.00,30.33,M,10.00,M,CLR,M,M,M,M,M,M,M,M,M,M,M,M,M,M,88.17,KELY 242010Z AUTO VRB06KT 10SM CLR 33/07 A3033 RMK AO2 LTG DSNT E AND SW AND W T03330067,M
05U,2024-07-24 20:10,-116.0051,39.6042,1811.23,89.60,42.80,19.64,0.00,0.00,0.00,30.34,M,10.00,M,CLR,M,M,M,M,M,M,M,M,M,M,M,M,M,M,85.93,K05U 242010Z AUTO 00000KT 10SM CLR 32/06 A3034 RMK A01,M
BVU,2024-07-24 20:15,-114.8611,35.9475,671.00,105.80,53.60,17.97,220.00,8.00,0.00,30.02,M,10.00,M,CLR,M,M,M,M,M,M,M,M,M,M,M,M,M,M,104.23,KBVU 242015Z AUTO 22008KT 190V250 10SM CLR 41/12 A3002 RMK AO2,M
CXP,2024-07-24 20:15,-119.7326,39.1923,1431.00,95.00,48.20,20.38,260.00,14.00,0.00,30.25,M,10.00,M,CLR,M,M,M,M,M,M,M,M,M,M,M,M,M,M,91.56,KCXP 242015Z AUTO 26014KT 10SM CLR 35/09 A3025 RMK AO2,M
RTS,2024-07-24 20:15,-119.8764,39.6682,1539.00,91.40,48.20,22.78,280.00,8.00,0.00,30.28,M,10.00,16.00,BKN,BKN,M,M,9000.00,11000.00,M,M,M,M,M,M,M,M,M,88.09,KRTS 242015Z AUTO 28008G16KT 10SM BKN090 BKN110 33/09 A3028 RMK AO2,M
MEV,2024-07-24 20:15,-119.7500,38.9963,1441.42,95.00,50.00,21.79,270.00,14.00,0.00,30.24,M,10.00,20.00,CLR,M,M,M,M,M,M,M,M,M,M,M,M,M,M,91.89,KMEV 242015Z AUTO 27014G20KT 10SM CLR 35/10 A3024 RMK AO2 LTG DSNT SE AND S,M
HTH,2024-07-24 20:15,-118.6315,38.5448,1282.89,96.80,42.80,15.71,340.00,10.00,0.00,30.18,M,10.00,M,CLR,M,M,M,M,M,M,M,M,M,M,M,M,M,M,92.57,KHTH 242015Z AUTO 34010KT 10SM CLR 36/06 A3018 RMK A01,M
10U,2024-07-24 20:15,-116.1876,41.9532,1637.00,91.40,44.60,19.89,330.00,12.00,0.00,30.27,M,10.00,22.00,FEW,SCT,M,M,10000.00,12000.00,M,M,VCTS,M,M,M,M,M,M,87.68,K10U 242015Z AUTO 33012G22KT 10SM VCTS FEW100 SCT120 33/07 A3027 RMK AO2 LTG DSNT NW,M
BAM,2024-07-24 20:15,-116.8743,40.5990,1382.36,98.60,46.40,17.05,210.00,7.00,0.00,30.20,M,10.00,M,CLR,M,M,M,M,M,M,M,M,M,M,M,M,M,M,94.84,KBAM 242015Z AUTO 21007KT 10SM CLR 37/08 A3020 RMK AO1,M
TMT,2024-07-24 20:15,-117.1971,39.4643,1749.34,88.70,47.30,23.98,0.00,0.00,0.00,30.31,M,10.00,M,CLR,M,M,M,M,M,M,M,M,M,M,M,M,M,M,85.54,KTMT 242015Z AUTO 00000KT 10SM CLR 32/09 A3031 RMK AO2 T03150085,M
RNO,2024-07-24 20:18,-119.7711,39.4839,1341.00,79.00,63.00,58.04,290.00,14.00,0.09,30.21,M,10.00,M,BKN,BKN,M,M,9000.00,21000.00,M,M,TSGRRA,M,M,M,29.00,270.00,2024-07-24 20:05,79.00,KRNO 242018Z COR 29014KT 10SM TSGRRA BKN090CB BKN210 26/17 A3021 RMK AO2 PK WND 27029/2005 GRB17 FRQ LTGIC OHD TS OHD MOV NE GR LESS THAN 1/4 P0009 T02610172,M
ELY,2024-07-24 20:21,-114.8453,39.2950,1909.00,91.00,44.00,19.68,0.00,0.00,0.00,30.32,M,10.00,M,FEW,M,M,M,11000.00,M,M,M,VCTS,M,M,M,M,M,M,87.26,KELY 242021Z AUTO 00000KT 10SM VCTS FEW110 33/07 A3032 RMK AO2 T03280067,M
05U,2024-07-24 20:30,-116.0051,39.6042,1811.23,87.80,42.80,20.79,0.00,0.00,0.00,30.33,M,10.00,M,CLR,M,M,M,M,M,M,M,M,M,M,M,M,M,M,84.40,K05U 242030Z AUTO 00000KT 10SM CLR 31/06 A3033 RMK A01,M
BVU,2024-07-24 20:35,-114.8611,35.9475,671.00,105.80,51.80,16.82,240.00,10.00,0.00,30.01,M,10.00,M,CLR,M,M,M,M,M,M,M,M,M,M,M,M,M,M,103.57,KBVU 242035Z AUTO 24010KT 10SM CLR 41/11 A3001 RMK AO2,M
CXP,2024-07-24 20:35,-119.7326,39.1923,1431.00,95.00,48.20,20.38,270.00,12.00,0.00,30.25,M,10.00,20.00,CLR,M,M,M,M,M,M,M,M,M,M,M,M,M,M,91.56,KCXP 242035Z AUTO 27012G20KT 240V300 10SM CLR 35/09 A3025 RMK AO2,M
RTS,2024-07-24 20:35,-119.8764,39.6682,1539.00,91.40,48.20,22.78,300.00,10.00,0.00,30.28,M,10.00,19.00,SCT,SCT,M,M,9000.00,11000.00,M,M,M,M,M,M,M,M,M,88.09,KRTS 242035Z AUTO 30010G19KT 10SM SCT090 SCT110 33/09 A3028 RMK AO2,M
MEV,2024-07-24 20:35,-119.7500,38.9963,1441.42,95.00,50.00,21.79,260.00,11.00,0.00,30.24,M,10.00,18.00,CLR,M,M,M,M,M,M,M,M,M,M,M,M,M,M,91.89,KMEV 242035Z AUTO 26011G18KT 230V300 10SM CLR 35/10 A3024 RMK AO2,M
HTH,2024-07-24 20:35,-118.6315,38.5448,1282.89,98.60,42.80,14.87,320.00,10.00,0.00,30.17,M,10.00,15.00,CLR,M,M,M,M,M,M,M,M,M,M,M,M,M,M,94.30,KHTH 242035Z AUTO 32010G15KT 10SM CLR 37/06 A3017 RMK A01,M
10U,2024-07-24 20:35,-116.1876,41.9532,1637.00,93.20,46.40,20.13,360.00,5.00,0.00,30.26,M,10.00,12.00,CLR,M,M,M,M,M,M,M,M,M,M,M,M,M,M,89.55,K10U 242035Z AUTO 36005G12KT 10SM CLR 34/08 A3026 RMK AO2,M
BAM,2024-07-24 20:35,-116.8743,40.5990,1382.36,100.40,50.00,18.48,350.00,11.00,0.00,30.19,M,10.00,17.00,CLR,M,M,M,M,M,M,M,M,M,M,M,M,M,M,97.42,KBAM 242035Z AUTO 35011G17KT 10SM CLR 38/10 A3019 RMK AO1,M
TMT,2024-07-24 20:35,-117.1971,39.4643,1749.34,88.50,47.50,24.31,200.00,3.00,0.00,30.30,M,10.00,M,CLR,M,M,M,M,M,M,M,M,M,M,M,M,M,M,85.39,KTMT 242035Z AUTO 20003KT 10SM CLR 31/09 A3030 RMK AO2 T03140086,M
RNO,2024-07-24 20:39,-119.7711,39.4839,1341.00,79.00,59.00,50.36,20.00,12.00,0.46,30.21,M,10.00,M,BKN,BKN,M,M,7500.00,21000.00,M,M,TS,M,M,M,29.00,270.00,2024-07-24 20:05,79.00,KRNO 242039Z 02012KT 10SM R17R/3000VP6000FT TS BKN075CB BKN210 26/15 A3021 RMK AO2 PK WND 27029/2005 RAE37GRB17E37 FRQ LTGIC N TS N MOV NE P0046 T02610150,M
ELY,2024-07-24 20:42,-114.8453,39.2950,1909.00,87.00,46.00,24.10,90.00,17.00,0.00,30.32,M,10.00,24.00,BKN,M,M,M,10000.00,M,M,M,TS,M,M,M,M,M,M,83.98,KELY 242042Z AUTO 09017G24KT 10SM TS BKN100 31/08 A3032 RMK AO2 LTG DSNT ALQDS TSB36 T03060078,M
RNO,2024-07-24 20:48,-119.7711,39.4839,1341.00,81.00,60.00,48.88,30.00,11.00,0.46,30.21,M,10.00,18.00,BKN,BKN,M,M,9000.00,21000.00,M,M,M,M,M,M,29.00,270.00,2024-07-24 20:05,81.60,KRNO 242048Z 03011G18KT 10SM BKN090 BKN210 27/16 A3021 RMK AO2 PK WND 27029/2005 RAE37GRB17E37 TSE47 CB DSNT NE MOV NE P0046 T02720156,M
P68,2024-07-24 20:53,-116.0056,39.6014,1993.00,89.00,43.00,20.17,50.00,4.00,0.00,30.30,1016.20,M,M,M,M,M,M,M,M,M,M,M,M,M,M,M,M,M,85.42,KP68 242053Z AUTO 05004KT 32/06 A3030 RMK AO1 SLP162 T03170061 58011,M
DRA,2024-07-24 20:53,-116.0278,36.6206,1009.00,101.00,53.00,20.28,200.00,8.00,0.00,30.12,1014.10,10.00,15.00,CLR,M,M,M,M,M,M,M,M,M,M,M,M,M,M,98.89,KDRA 242053Z AUTO 20008G15KT 10SM CLR 38/12 A3012 RMK AO2 SLP141 T03830117 58015,M
ELY,2024-07-24 20:53,-114.8453,39.2950,1909.00,85.00,47.00,26.67,M,M,0.00,30.36,1016.20,10.00,M,OVC,M,M,M,10000.00,M,M,M,VCTS,M,M,M,M,M,M,82.51,KELY 242053Z AUTO 10SM VCTS OVC100 29/08 A3036 RMK AO2 LTG DSNT ALQDS TSB36E51 PRESRR SLP162 T02940083 53001,M
VGT,2024-07-24 20:53,-115.1933,36.2111,667.00,107.00,57.00,19.63,M,4.00,0.00,30.02,1014.50,10.00,M,CLR,M,M,M,M,M,M,M,M,M,M,M,M,M,M,107.02,KVGT 242053Z VRB04KT 10SM CLR 42/14 A3002 RMK AO2 SLP145 T04170139 58019,M
LOL,2024-07-24 20:53,-118.5701,40.0684,1192.43,101.00,49.00,17.49,110.00,7.00,0.00,30.12,1014.70,10.00,15.00,CLR,M,M,M,M,M,M,M,M,M,M,M,M,M,M,97.79,KLOL 242053Z AUTO 11007G15KT 10SM CLR 38/09 A3012 RMK AO2 SLP147 T03830094 58018,M
NFL,2024-07-24 20:54,-118.7010,39.4166,1199.00,98.00,49.00,19.15,M,3.00,0.00,30.14,1017.30,10.00,M,SCT,SCT,BKN,M,8000.00,15000.00,22000.00,M,M,M,M,M,M,M,M,94.72,KNFL 242054Z VRB03KT 10SM SCT080 SCT150 BKN220 37/09 A3014 RMK AO2 SLP173 CB DSNT E-S-W T03670094 58016,M
BVU,2024-07-24 20:55,-114.8611,35.9475,671.00,107.60,51.80,15.95,M,6.00,0.00,30.00,M,10.00,16.00,CLR,M,M,M,M,M,M,M,M,M,M,M,M,M,M,105.43,KBVU 242055Z AUTO VRB06G16KT 150V290 10SM CLR 42/11 A3000 RMK AO2,M
CXP,2024-07-24 20:55,-119.7326,39.1923,1431.00,96.80,48.20,19.28,290.00,13.00,0.00,30.24,M,10.00,M,CLR,M,M,M,M,M,M,M,M,M,M,M,M,M,M,93.36,KCXP 242055Z AUTO 29013KT 10SM CLR 36/09 A3024 RMK AO2 LTG DSNT E-S,M
INS,2024-07-24 20:55,-115.6733,36.5872,955.00,99.70,50.00,18.88,80.00,5.00,0.00,30.10,1013.00,10.00,M,CLR,M,M,M,M,M,M,M,M,M,M,M,M,M,M,96.69,KINS 242055Z AUTO 08005KT 10SM CLR 38/10 A3010 RMK AO2 SLP130 T03760100 57017 $,M
RNO,2024-07-24 20:55,-119.7711,39.4839,1341.00,83.00,57.00,41.14,60.00,6.00,0.46,30.21,1016.70,10.00,M,BKN,BKN,M,M,9500.00,21000.00,M,M,M,M,M,M,29.00,270.00,2024-07-24 20:05,82.49,KRNO 242055Z 06006KT 10SM BKN095 BKN210 28/14 A3021 RMK AO2 PK WND 27029/2005 RAE37GRB17E37 TSE47 SLP167 CB DSNT NE MOV NE P0046 60046 T02830139 56010,M
RTS,2024-07-24 20:55,-119.8764,39.6682,1539.00,93.20,46.40,20.13,280.00,11.00,0.00,30.27,M,10.00,19.00,SCT,SCT,M,M,9500.00,11000.00,M,M,M,M,M,M,M,M,M,89.55,KRTS 242055Z AUTO 28011G19KT 10SM SCT095 SCT110 34/08 A3027 RMK AO2,M
05U,2024-07-24 20:55,-116.0051,39.6042,1811.23,89.60,42.80,19.64,0.00,0.00,0.00,30.33,M,10.00,M,CLR,M,M,M,M,M,M,M,M,M,M,M,M,M,M,85.93,K05U 242055Z AUTO 00000KT 10SM CLR 32/06 A3033 RMK A01,M
MEV,2024-07-24 20:55,-119.7500,38.9963,1441.42,95.00,48.20,20.38,270.00,15.00,0.00,30.23,M,10.00,M,CLR,M,M,M,M,M,M,M,M,M,M,M,M,M,M,91.56,KMEV 242055Z AUTO 27015KT 10SM CLR 35/09 A3023 RMK AO2 LTG DSNT NE AND S,M
HTH,2024-07-24 20:55,-118.6315,38.5448,1282.89,98.60,42.80,14.87,350.00,10.00,0.00,30.16,M,10.00,M,CLR,M,M,M,M,M,M,M,M,M,M,M,M,M,M,94.30,KHTH 242055Z AUTO 35010KT 10SM CLR 37/06 A3016 RMK A01,M
10U,2024-07-24 20:55,-116.1876,41.9532,1637.00,93.20,44.60,18.80,M,3.00,0.00,30.25,M,10.00,M,FEW,M,M,M,10000.00,M,M,M,M,M,M,M,M,M,M,89.34,K10U 242055Z AUTO VRB03KT 10SM FEW100 34/07 A3025 RMK AO2 LTG DSNT NE-S,M
BAM,2024-07-24 20:55,-116.8743,40.5990,1382.36,98.60,48.20,18.25,0.00,0.00,0.00,30.19,M,10.00,M,SCT,M,M,M,11000.00,M,M,M,M,M,M,M,M,M,M,95.17,KBAM 242055Z AUTO 00000KT 10SM SCT110 37/09 A3019 RMK AO1,M
TMT,2024-07-24 20:55,-117.1971,39.4643,1749.34,88.00,47.70,24.89,130.00,4.00,0.00,30.29,M,10.00,M,CLR,M,M,M,M,M,M,M,M,M,M,M,M,M,M,84.99,KTMT 242055Z AUTO 13004KT 10SM CLR 31/09 A3029 RMK AO2 T03110087,M
LSV,2024-07-24 20:55,-115.0343,36.2362,570.00,106.30,50.70,15.91,200.00,5.00,0.00,29.96,1011.30,10.00,M,CLR,M,M,M,M,M,M,M,M,M,M,M,M,M,M,103.71,KLSV 242055Z AUTO 20005KT 10SM CLR 41/10 A2996 RMK AO2 SLP113 T04130104 57019 $,M
EKO,2024-07-24 20:56,-115.7860,40.8242,1367.00,95.00,47.00,19.48,M,M,0.00,30.24,1016.40,10.00,M,CLR,M,M,M,M,M,M,M,M,M,M,M,M,M,M,91.37,KEKO 242056Z AUTO 10SM CLR 35/08 A3024 RMK AO2 SLP164 60000 T03500083 58011,M
WMC,2024-07-24 20:56,-117.8072,40.9019,1315.00,103.00,46.00,14.71,300.00,10.00,0.00,30.15,1014.20,10.00,15.00,CLR,M,M,M,M,M,M,M,M,M,M,M,M,M,M,99.14,KWMC 242056Z AUTO 30010G15KT 10SM CLR 39/08 A3015 RMK AO2 SLP142 T03940078 58014,M
HND,2024-07-24 20:56,-115.1344,35.9729,742.79,107.00,59.00,21.09,80.00,6.00,0.00,30.05,1015.50,10.00,M,CLR,M,M,M,M,M,M,M,M,M,M,M,M,M,M,108.07,KHND 242056Z 08006KT 10SM CLR 42/15 A3005 RMK AO2 SLP155 T04170150 58021,M
TPH,2024-07-24 20:56,-117.0904,38.0505,1654.00,93.00,48.00,21.51,M,6.00,0.00,30.27,1015.10,10.00,M,CLR,M,M,M,M,M,M,M,M,M,M,M,M,M,M,89.58,KTPH 242056Z AUTO VRB06KT 10SM CLR 34/09 A3027 RMK AO2 SLP151 T03390089 58016,M
LAS,2024-07-24 20:56,-115.1634,36.0719,663.00,106.00,56.00,19.49,M,6.00,0.00,30.02,1009.60,10.00,15.00,FEW,SCT,M,M,11000.00,22000.00,M,M,M,M,M,M,M,M,M,105.46,KLAS 242056Z VRB06G15KT 10SM FEW110 SCT220 41/13 A3002 RMK AO2 PRESFR SLP096 T04110133 58019 $,M
ELY,2024-07-24 21:01,-114.8453,39.2950,1909.00,75.00,51.00,42.98,210.00,27.00,T,30.38,M,1.50,36.00,FEW,OVC,M,M,3500.00,10000.00,M,M,VCTS -RA,M,M,M,36.00,210.00,2024-07-24 20:59,75.00,KELY 242101Z AUTO 21027G36KT 1 1/2SM VCTS -RA FEW035 OVC100 24/11 A3038 RMK AO2 PK WND 21036/2059 LTG DSNT N AND NE AND SW RAB01 PRESRR P0000 T02390106,M
ELY,2024-07-24 21:04,-114.8453,39.2950,1909.00,71.00,53.00,52.95,280.00,10.00,T,30.37,M,0.75,36.00,FEW,OVC,M,M,3300.00,10000.00,M,M,VCTS +RA,M,M,M,36.00,210.00,2024-07-24 20:59,71.00,KELY 242104Z AUTO 28010G36KT 240V320 3/4SM VCTS +RA FEW033 OVC100 22/12 A3037 RMK AO2 PK WND 21036/2059 LTG DSNT ALQDS RAB01 P0000 T02170117,M
LAS,2024-07-24 21:08,-115.1634,36.0719,663.00,108.00,56.00,18.38,M,4.00,0.00,30.02,M,10.00,M,FEW,SCT,M,M,11000.00,22000.00,M,M,M,M,M,M,M,M,M,107.62,KLAS 242108Z VRB04KT 10SM FEW110 SCT220 42/13 A3002 RMK AO2 T04220133 $,M
ELY,2024-07-24 21:12,-114.8453,39.2950,1909.00,72.00,52.00,49.33,10.00,16.00,0.29,30.36,M,1.50,36.00,FEW,BKN,M,M,4000.00,10000.00,M,M,VCTS RA,M,M,M,36.00,360.00,2024-07-24 21:08,72.00,KELY 242112Z AUTO 01016G36KT 1 1/2SM VCTS RA FEW040 BKN100 22/11 A3036 RMK AO2 PK WND 36036/2108 LTG DSNT N AND S AND W RAB01 P0029 T02220111,M
ELY,2024-07-24 21:14,-114.8453,39.2950,1909.00,71.00,53.00,52.95,30.00,14.00,0.29,30.36,M,3.00,36.00,FEW,BKN,BKN,M,4400.00,10000.00,11000.00,M,VCTS -RA,M,M,M,36.00,360.00,2024-07-24 21:08,71.00,KELY 242114Z AUTO 03014G36KT 3SM VCTS -RA FEW044 BKN100 BKN110 22/12 A3036 RMK AO2 PK WND 36036/2108 LTG DSNT S AND W RAB01 P0029 T02170117,M
BVU,2024-07-24 21:15,-114.8611,35.9475,671.00,107.60,51.80,15.95,M,5.00,0.00,29.99,M,10.00,14.00,CLR,M,M,M,M,M,M,M,M,M,M,M,M,M,M,105.43,KBVU 242115Z AUTO VRB05G14KT 10SM CLR 42/11 A2999 RMK AO2,M
CXP,2024-07-24 21:15,-119.7326,39.1923,1431.00,95.00,48.20,20.38,270.00,9.00,0.00,30.24,M,10.00,18.00,CLR,M,M,M,M,M,M,M,M,M,M,M,M,M,M,91.56,KCXP 242115Z AUTO 27009G18KT 240V300 10SM CLR 35/09 A3024 RMK AO2 LTG DSNT E,M
RTS,2024-07-24 21:15,-119.8764,39.6682,1539.00,91.40,46.40,21.29,270.00,16.00,0.00,30.27,M,10.00,21.00,BKN,M,M,M,9000.00,M,M,M,M,M,M,M,M,M,M,87.86,KRTS 242115Z AUTO 27016G21KT 10SM BKN090 33/08 A3027 RMK AO2,M
05U,2024-07-24 21:15,-116.0051,39.6042,1811.23,87.80,42.80,20.79,0.00,0.00,0.00,30.33,M,10.00,M,CLR,M,M,M,M,M,M,M,M,M,M,M,M,M,M,84.40,K05U 242115Z AUTO 00000KT 10SM CLR 31/06 A3033 RMK A01,M
MEV,2024-07-24 21:15,-119.7500,38.9963,1441.42,95.00,48.20,20.38,280.00,15.00,0.00,30.23,M,10.00,M,CLR,M,M,M,M,M,M,M,M,M,M,M,M,M,M,91.56,KMEV 242115Z AUTO 28015KT 10SM CLR 35/09 A3023 RMK AO2 LTG DSNT NE AND SE,M
HTH,2024-07-24 21:15,-118.6315,38.5448,1282.89,98.60,44.60,15.93,310.00,9.00,0.00,30.16,M,10.00,16.00,CLR,M,M,M,M,M,M,M,M,M,M,M,M,M,M,94.55,KHTH 242115Z AUTO 31009G16KT 270V350 10SM CLR 37/07 A3016 RMK A01,M
10U,2024-07-24 21:15,-116.1876,41.9532,1637.00,95.00,41.00,15.49,230.00,11.00,0.00,30.24,M,10.00,M,SCT,M,M,M,11000.00,M,M,M,M,M,M,M,M,M,M,90.70,K10U 242115Z AUTO 23011KT 10SM SCT110 35/05 A3024 RMK AO2 LTG DSNT SE,M
BAM,2024-07-24 21:15,-116.8743,40.5990,1382.36,98.60,48.20,18.25,360.00,7.00,0.00,30.17,M,10.00,M,BKN,M,M,M,11000.00,M,M,M,M,M,M,M,M,M,M,95.17,KBAM 242115Z AUTO 36007KT 10SM BKN110 37/09 A3017 RMK AO1,M
TMT,2024-07-24 21:15,-117.1971,39.4643,1749.34,87.00,49.00,26.97,140.00,6.00,0.00,30.29,M,10.00,M,CLR,M,M,M,M,M,M,M,M,M,M,M,M,M,M,84.30,KTMT 242115Z AUTO 14006KT 10SM CLR 31/10 A3029 RMK AO2 T03050095,M
ELY,2024-07-24 21:23,-114.8453,39.2950,1909.00,70.00,55.00,58.94,70.00,9.00,0.31,30.36,M,9.00,22.00,FEW,SCT,BKN,M,3800.00,9500.00,12000.00,M,VCTS -RA,M,M,M,36.00,360.00,2024-07-24 21:08,70.00,KELY 242123Z AUTO 07009G22KT 9SM VCTS -RA FEW038 SCT095 BKN120 21/13 A3036 RMK AO2 PK WND 36036/2108 WSHFT 2103 LTG DSNT ALQDS RAB01 P0031 T02110128,M
BVU,2024-07-24 21:35,-114.8611,35.9475,671.00,107.60,51.80,15.95,M,4.00,0.00,29.97,M,10.00,14.00,CLR,M,M,M,M,M,M,M,M,M,M,M,M,M,M,105.43,KBVU 242135Z AUTO VRB04G14KT 10SM CLR 42/11 A2997 RMK AO2,M
CXP,2024-07-24 21:35,-119.7326,39.1923,1431.00,95.00,50.00,21.79,260.00,15.00,0.00,30.24,M,8.00,23.00,CLR,M,M,M,M,M,M,M,M,M,M,M,M,M,M,91.89,KCXP 242135Z AUTO 26015G23KT 8SM CLR 35/10 A3024 RMK AO2 LTG DSNT E AND SE,M
RTS,2024-07-24 21:35,-119.8764,39.6682,1539.00,93.20,46.40,20.13,280.00,12.00,0.00,30.27,M,10.00,20.00,SCT,M,M,M,9500.00,M,M,M,M,M,M,M,M,M,M,89.55,KRTS 242135Z AUTO 28012G20KT 10SM SCT095 34/08 A3027 RMK AO2,M
05U,2024-07-24 21:35,-116.0051,39.6042,1811.23,87.80,42.80,20.79,0.00,0.00,0.00,30.33,M,10.00,M,FEW,M,M,M,11000.00,M,M,M,M,M,M,M,M,M,M,84.40,K05U 242135Z AUTO 00000KT 10SM FEW110 31/06 A3033 RMK A01,M
MEV,2024-07-24 21:35,-119.7500,38.9963,1441.42,95.00,50.00,21.79,300.00,13.00,0.00,30.23,M,10.00,23.00,CLR,M,M,M,M,M,M,M,M,M,M,M,M,M,M,91.89,KMEV 242135Z AUTO 30013G23KT 10SM CLR 35/10 A3023 RMK AO2 LTG DSNT NE-SE,M
HTH,2024-07-24 21:35,-118.6315,38.5448,1282.89,96.80,44.60,16.83,310.00,8.00,0.00,30.16,M,10.00,M,CLR,M,M,M,M,M,M,M,M,M,M,M,M,M,M,92.79,KHTH 242135Z AUTO 31008KT 10SM CLR 36/07 A3016 RMK A01,M
10U,2024-07-24 21:35,-116.1876,41.9532,1637.00,95.00,41.00,15.49,240.00,9.00,0.00,30.24,M,10.00,16.00,FEW,M,M,M,11000.00,M,M,M,M,M,M,M,M,M,M,90.70,K10U 242135Z AUTO 24009G16KT 10SM FEW110 35/05 A3024 RMK AO2,M
BAM,2024-07-24 21:35,-116.8743,40.5990,1382.36,96.80,51.80,22.04,350.00,10.00,0.00,30.17,M,10.00,M,BKN,M,M,M,12000.00,M,M,M,M,M,M,M,M,M,M,94.12,KBAM 242135Z AUTO 35010KT 10SM BKN120 36/11 A3017 RMK AO1,M
TMT,2024-07-24 21:35,-117.1971,39.4643,1749.34,86.00,48.40,27.23,220.00,16.00,0.00,30.32,M,10.00,25.00,CLR,M,M,M,M,M,M,M,M,M,M,M,M,M,M,83.42,KTMT 242135Z AUTO 22016G25KT 10SM CLR 30/09 A3032 RMK AO2 T03000091,M
MEV,2024-07-24 21:50,-119.7500,38.9963,1441.42,95.00,51.80,23.30,290.00,14.00,0.00,30.23,M,10.00,25.00,CLR,M,M,M,M,M,M,M,M,M,M,M,M,M,M,92.26,KMEV 242150Z AUTO 29014G25KT 10SM CLR 35/11 A3023 RMK AO2 LTG DSNT E AND SE,M
P68,2024-07-24 21:53,-116.0056,39.6014,1993.00,85.00,47.00,26.67,200.00,9.00,0.00,30.30,1016.70,M,15.00,M,M,M,M,M,M,M,M,M,M,M,M,M,M,M,82.51,KP68 242153Z AUTO 20009G15KT 29/08 A3030 RMK AO1 SLP167 T02940083,M
DRA,2024-07-24 21:53,-116.0278,36.6206,1009.00,103.00,52.00,18.41,M,6.00,0.00,30.10,1013.00,10.00,16.00,CLR,M,M,M,M,M,M,M,M,M,M,M,M,M,M,100.70,KDRA 242153Z AUTO VRB06G16KT 10SM CLR 39/11 A3010 RMK AO2 SLP130 T03940111,M
ELY,2024-07-24 21:53,-114.8453,39.2950,1909.00,71.00,57.00,61.24,180.00,11.00,0.31,30.38,1018.70,10.00,26.00,FEW,SCT,OVC,M,6000.00,7500.00,10000.00,M,VCTS -RA,M,M,M,36.00,360.00,2024-07-24 21:08,71.00,KELY 242153Z AUTO 18011G26KT 10SM VCTS -RA FEW060 SCT075 OVC100 22/14 A3038 RMK AO2 PK WND 36036/2108 WSHFT 2103 LTG DSNT S AND SW RAB01 SLP187 P0031 T02170139,M
VGT,2024-07-24 21:53,-115.1933,36.2111,667.00,110.00,57.00,17.98,0.00,0.00,0.00,29.98,1013.40,10.00,M,CLR,M,M,M,M,M,M,M,M,M,M,M,M,M,M,110.27,KVGT 242153Z 00000KT 10SM CLR 43/14 A2998 RMK AO2 SLP134 T04330139,M
LOL,2024-07-24 21:53,-118.5701,40.0684,1192.43,100.00,48.00,17.36,M,5.00,0.00,30.09,1013.60,10.00,M,SCT,M,M,M,12000.00,M,M,M,M,M,M,M,M,M,M,96.55,KLOL 242153Z AUTO VRB05KT 10SM SCT120 38/09 A3009 RMK AO2 SLP136 T03780089,M
NFL,2024-07-24 21:54,-118.7010,39.4166,1199.00,101.00,48.00,16.85,M,5.00,0.00,30.11,1016.40,10.00,M,SCT,SCT,BKN,M,8000.00,15000.00,25000.00,M,M,M,M,M,M,M,M,97.57,KNFL 242154Z VRB05KT 10SM SCT080 SCT150 BKN250 38/09 A3011 RMK AO2 SLP164 CB DSNT E AND S-SW SH DSNT ALQDS T03830089,M
BVU,2024-07-24 21:55,-114.8611,35.9475,671.00,109.40,51.80,15.13,260.00,9.00,0.00,29.97,M,10.00,20.00,CLR,M,M,M,M,M,M,M,M,M,M,M,M,M,M,107.25,KBVU 242155Z AUTO 26009G20KT 230V290 10SM CLR 43/11 A2997 RMK AO2,M
CXP,2024-07-24 21:55,-119.7326,39.1923,1431.00,95.00,50.00,21.79,290.00,15.00,0.00,30.24,M,9.00,21.00,CLR,M,M,M,M,M,M,M,M,M,M,M,M,M,M,91.89,KCXP 242155Z AUTO 29015G21KT 9SM CLR 35/10 A3024 RMK AO2 LTG DSNT SE,M
INS,2024-07-24 21:55,-115.6733,36.5872,955.00,102.00,50.40,17.88,130.00,3.00,0.00,30.07,1011.90,10.00,M,CLR,M,M,M,M,M,M,M,M,M,M,M,M,M,M,99.18,KINS 242155Z AUTO 13003KT 10SM CLR 39/10 A3007 RMK AO2 SLP119 T03890102 $,M
RNO,2024-07-24 21:55,-119.7711,39.4839,1341.00,90.00,54.00,29.51,50.00,8.00,0.00,30.19,1015.80,10.00,19.00,BKN,BKN,M,M,9500.00,19000.00,M,M,M,M,M,M,M,M,M,87.82,KRNO 242155Z 05008G19KT 10SM BKN095 BKN190 32/12 A3019 RMK AO2 SLP158 CB DSNT NE THRU E MOV NE T03220122,M
RTS,2024-07-24 21:55,-119.8764,39.6682,1539.00,93.20,48.20,21.54,270.00,14.00,0.00,30.26,M,10.00,22.00,FEW,M,M,M,9500.00,M,M,M,M,M,M,M,M,M,M,89.80,KRTS 242155Z AUTO 27014G22KT 230V320 10SM FEW095 34/09 A3026 RMK AO2,M
05U,2024-07-24 21:55,-116.0051,39.6042,1811.23,86.00,46.40,25.26,200.00,8.00,0.00,30.32,M,10.00,M,CLR,M,M,M,M,M,M,M,M,M,M,M,M,M,M,83.22,K05U 242155Z AUTO 20008KT 10SM CLR 30/08 A3032 RMK A01,M
BAM,2024-07-24 21:55,-116.8743,40.5990,1382.36,96.80,50.00,20.62,360.00,10.00,0.00,30.17,M,10.00,M,SCT,M,M,M,12000.00,M,M,M,M,M,M,M,M,M,M,93.71,KBAM 242155Z AUTO 36010KT 10SM SCT120 36/10 A3017 RMK AO1,M
HTH,2024-07-24 21:55,-118.6315,38.5448,1282.89,96.80,44.60,16.83,320.00,8.00,0.00,30.16,M,10.00,M,CLR,M,M,M,M,M,M,M,M,M,M,M,M,M,M,92.79,KHTH 242155Z AUTO 32008KT 10SM CLR 36/07 A3016 RMK A01,M
10U,2024-07-24 21:55,-116.1876,41.9532,1637.00,89.60,42.80,19.64,300.00,17.00,0.00,30.24,M,10.00,25.00,SCT,M,M,M,11000.00,M,M,M,M,M,M,M,M,M,M,85.93,K10U 242155Z AUTO 30017G25KT 10SM SCT110 32/06 A3024 RMK AO2 LTG DSNT SW,M
LSV,2024-07-24 21:55,-115.0343,36.2362,570.00,108.70,51.00,14.99,270.00,5.00,0.00,29.92,1009.70,10.00,M,CLR,M,M,M,M,M,M,M,M,M,M,M,M,M,M,106.25,KLSV 242155Z AUTO 27005KT 10SM CLR 43/11 A2992 RMK AO2 SLP097 T04260105 $,M
TMT,2024-07-24 21:55,-117.1971,39.4643,1749.34,77.00,52.50,42.50,240.00,12.00,0.00,30.33,M,10.00,26.00,BKN,M,M,M,11000.00,M,M,M,M,M,M,M,M,M,M,77.00,KTMT 242155Z AUTO 24012G26KT 10SM BKN110 25/11 A3033 RMK AO2 T02510114,M
EKO,2024-07-24 21:56,-115.7860,40.8242,1367.00,95.00,47.00,19.48,M,3.00,0.00,30.20,1015.20,10.00,M,CLR,M,M,M,M,M,M,M,M,M,M,M,M,M,M,91.37,KEKO 242156Z AUTO VRB03KT 10SM CLR 35/08 A3020 RMK AO2 SLP152 T03500083,M
WMC,2024-07-24 21:56,-117.8072,40.9019,1315.00,101.00,45.00,15.04,300.00,11.00,0.00,30.13,1013.40,10.00,22.00,CLR,M,M,M,M,M,M,M,M,M,M,M,M,M,M,96.97,KWMC 242156Z AUTO 30011G22KT 10SM CLR 38/07 A3013 RMK AO2 SLP134 T03830072,M
HND,2024-07-24 21:56,-115.1344,35.9729,742.79,106.00,58.00,20.95,0.00,0.00,0.00,30.02,1014.60,10.00,M,FEW,M,M,M,12000.00,M,M,M,M,M,M,M,M,M,M,106.42,KHND 242156Z 00000KT 10SM FEW120 41/14 A3002 RMK AO2 SLP146 T04110144,M
TPH,2024-07-24 21:56,-117.0904,38.0505,1654.00,92.00,47.00,21.38,140.00,7.00,0.00,30.26,1015.00,10.00,M,FEW,M,M,M,10000.00,M,M,M,M,M,M,M,M,M,M,88.49,KTPH 242156Z AUTO 14007KT 10SM FEW100 33/08 A3026 RMK AO2 LTG DSNT SE SLP150 T03330083,M
LAS,2024-07-24 21:56,-115.1634,36.0719,663.00,109.00,56.00,17.85,50.00,5.00,0.00,29.99,1008.80,10.00,M,FEW,SCT,M,M,11000.00,22000.00,M,M,M,M,M,M,M,M,M,108.69,KLAS 242156Z 05005KT 10SM FEW110 SCT220 43/13 A2999 RMK AO2 PRESFR SLP088 CB DSNT S T04280133 $,M
ELY,2024-07-24 22:13,-114.8453,39.2950,1909.00,67.00,57.00,70.24,220.00,10.00,T,30.38,M,8.00,23.00,FEW,OVC,M,M,8000.00,10000.00,M,M,-TSRA,M,M,M,27.00,180.00,2024-07-24 21:57,67.00,KELY 242213Z AUTO 22010G23KT 8SM -TSRA FEW080 OVC100 19/14 A3038 RMK AO2 PK WND 18027/2157 WSHFT 2153 LTG DSNT S AND SW TSB07 P0000 T01940139,M
BVU,2024-07-24 22:15,-114.8611,35.9475,671.00,109.40,50.00,14.16,260.00,9.00,0.00,29.95,M,10.00,15.00,CLR,M,M,M,M,M,M,M,M,M,M,M,M,M,M,106.58,KBVU 242215Z AUTO 26009G15KT 10SM CLR 43/10 A2995 RMK AO2,M
CXP,2024-07-24 22:15,-119.7326,39.1923,1431.00,93.20,48.20,21.54,260.00,17.00,0.00,30.24,M,10.00,22.00,CLR,M,M,M,M,M,M,M,M,M,M,M,M,M,M,89.80,KCXP 242215Z AUTO 26017G22KT 10SM CLR 34/09 A3024 RMK AO2 LTG DSNT E-S,M
RTS,2024-07-24 22:15,-119.8764,39.6682,1539.00,93.20,48.20,21.54,260.00,19.00,0.00,30.25,M,10.00,M,SCT,SCT,M,M,9000.00,11000.00,M,M,M,M,M,M,M,M,M,89.80,KRTS 242215Z AUTO 26019KT 10SM SCT090 SCT110 34/09 A3025 RMK AO2,M
05U,2024-07-24 22:15,-116.0051,39.6042,1811.23,86.00,46.40,25.26,0.00,0.00,0.00,30.32,M,10.00,M,CLR,M,M,M,M,M,M,M,M,M,M,M,M,M,M,83.22,K05U 242215Z AUTO 00000KT 10SM CLR 30/08 A3032 RMK A01,M
MEV,2024-07-24 22:15,-119.7500,38.9963,1441.42,96.80,50.00,20.62,280.00,15.00,0.00,30.22,M,10.00,25.00,FEW,M,M,M,9500.00,M,M,M,VCTS,M,M,M,M,M,M,93.71,KMEV 242215Z AUTO 28015G25KT 10SM VCTS FEW095 36/10 A3022 RMK AO2 LTG DSNT E AND SE,M
BAM,2024-07-24 22:15,-116.8743,40.5990,1382.36,96.80,51.80,22.04,10.00,5.00,0.00,30.16,M,10.00,M,SCT,M,M,M,12000.00,M,M,M,M,M,M,M,M,M,M,94.12,KBAM 242215Z AUTO 01005KT 10SM SCT120 36/11 A3016 RMK AO1,M
HTH,2024-07-24 22:15,-118.6315,38.5448,1282.89,95.00,46.40,19.04,310.00,9.00,0.00,30.17,M,10.00,M,FEW,M,M,M,12000.00,M,M,M,M,M,M,M,M,M,M,91.29,KHTH 242215Z AUTO 31009KT 10SM FEW120 35/08 A3017 RMK A01,M
10U,2024-07-24 22:15,-116.1876,41.9532,1637.00,78.80,55.40,44.52,290.00,15.00,0.00,30.25,M,7.00,30.00,SCT,M,M,M,11000.00,M,M,M,-RA,M,M,M,M,M,M,78.80,K10U 242215Z AUTO 29015G30KT 7SM -RA SCT110 26/13 A3025 RMK AO2 LTG DSNT N AND NW,M
TMT,2024-07-24 22:15,-117.1971,39.4643,1749.34,78.60,51.40,38.71,190.00,5.00,0.00,30.33,M,10.00,M,SCT,OVC,M,M,7500.00,10000.00,M,M,M,M,M,M,M,M,M,78.60,KTMT 242215Z AUTO 19005KT 10SM SCT075 OVC100 26/11 A3033 RMK AO2 T02590108,M
ELY,2024-07-24 22:28,-114.8453,39.2950,1909.00,69.00,57.00,65.57,220.00,10.00,T,30.37,M,10.00,M,FEW,SCT,OVC,M,6000.00,7500.00,10000.00,M,M,M,M,M,27.00,180.00,2024-07-24 21:57,69.00,KELY 242228Z AUTO 22010KT 10SM FEW060 SCT075 OVC100 21/14 A3037 RMK AO2 PK WND 18027/2157 WSHFT 2153 LTG DSNT S RAE26 TSB07E22 P0000 T02060139,M
BVU,2024-07-24 22:35,-114.8611,35.9475,671.00,107.60,51.80,15.95,140.00,6.00,0.00,29.95,M,10.00,11.00,CLR,M,M,M,M,M,M,M,M,M,M,M,M,M,M,105.43,KBVU 242235Z AUTO 14006G11KT 10SM CLR 42/11 A2995 RMK AO2,M
CXP,2024-07-24 22:35,-119.7326,39.1923,1431.00,91.40,50.00,24.37,260.00,13.00,0.00,30.24,M,10.00,21.00,CLR,M,M,M,M,M,M,M,VCTS,M,M,M,M,M,M,88.36,KCXP 242235Z AUTO 26013G21KT 10SM VCTS CLR 33/10 A3024 RMK AO2 LTG DSNT SE,M
RTS,2024-07-24 22:35,-119.8764,39.6682,1539.00,95.00,46.40,19.04,270.00,15.00,0.00,30.25,M,10.00,27.00,FEW,FEW,M,M,9000.00,11000.00,M,M,M,M,M,M,M,M,M,91.29,KRTS 242235Z AUTO 27015G27KT 10SM FEW090 FEW110 35/08 A3025 RMK AO2,M
05U,2024-07-24 22:35,-116.0051,39.6042,1811.23,87.80,46.40,23.85,170.00,10.00,0.00,30.33,M,10.00,M,CLR,M,M,M,M,M,M,M,M,M,M,M,M,M,M,84.68,K05U 242235Z AUTO 17010KT 10SM CLR 31/08 A3033 RMK A01,M
MEV,2024-07-24 22:35,-119.7500,38.9963,1441.42,95.00,50.00,21.79,290.00,10.00,0.00,30.23,M,10.00,20.00,FEW,M,M,M,9500.00,M,M,M,VCTS,M,M,M,M,M,M,91.89,KMEV 242235Z AUTO 29010G20KT 10SM VCTS FEW095 35/10 A3023 RMK AO2 LTG DSNT NE-SE,M
BAM,2024-07-24 22:35,-116.8743,40.5990,1382.36,96.80,50.00,20.62,340.00,13.00,0.00,30.15,M,10.00,M,CLR,M,M,M,M,M,M,M,M,M,M,M,M,M,M,93.71,KBAM 242235Z AUTO 34013KT 10SM CLR 36/10 A3015 RMK AO1,M
HTH,2024-07-24 22:35,-118.6315,38.5448,1282.89,93.20,48.20,21.54,280.00,14.00,0.00,30.18,M,10.00,21.00,CLR,M,M,M,M,M,M,M,M,M,M,M,M,M,M,89.80,KHTH 242235Z AUTO 28014G21KT 10SM CLR 34/09 A3018 RMK A01,M
10U,2024-07-24 22:35,-116.1876,41.9532,1637.00,84.20,50.00,30.62,310.00,6.00,0.00,30.24,M,10.00,13.00,FEW,M,M,M,11000.00,M,M,M,M,M,M,M,M,M,M,82.24,K10U 242235Z AUTO 31006G13KT 10SM FEW110 29/10 A3024 RMK AO2,M
TMT,2024-07-24 22:35,-117.1971,39.4643,1749.34,80.60,55.60,42.28,150.00,13.00,0.00,30.32,M,10.00,21.00,SCT,SCT,BKN,M,2700.00,4800.00,9500.00,M,-RA,M,M,M,M,M,M,80.56,KTMT 242235Z AUTO 15013G21KT 10SM -RA SCT027 SCT048 BKN095 27/13 A3032 RMK AO2 T02700131,M
HTH,2024-07-24 22:50,-118.6315,38.5448,1282.89,93.20,46.40,20.13,M,6.00,0.00,30.18,M,10.00,20.00,CLR,M,M,M,M,M,M,M,M,M,M,M,M,M,M,89.55,KHTH 242250Z AUTO VRB06G20KT 10SM CLR 34/08 A3018 RMK A01,M
P68,2024-07-24 22:53,-116.0056,39.6014,1993.00,88.00,46.00,23.34,320.00,11.00,0.00,30.31,1017.00,M,19.00,M,M,M,M,M,M,M,M,M,M,M,M,M,M,M,84.81,KP68 242253Z AUTO 32011G19KT 31/08 A3031 RMK AO1 SLP170 T03110078,M
DRA,2024-07-24 22:53,-116.0278,36.6206,1009.00,104.00,52.00,17.87,260.00,7.00,0.00,30.07,1012.40,10.00,16.00,CLR,M,M,M,M,M,M,M,M,M,M,M,M,M,M,101.76,KDRA 242253Z AUTO 26007G16KT 220V290 10SM CLR 40/11 A3007 RMK AO2 SLP124 T04000111,M
ELY,2024-07-24 22:53,-114.8453,39.2950,1909.00,70.00,54.00,56.82,150.00,12.00,T,30.38,1019.40,10.00,22.00,FEW,FEW,OVC,M,6500.00,8000.00,10000.00,M,M,M,M,M,27.00,180.00,2024-07-24 21:57,70.00,KELY 242253Z AUTO 15012G22KT 10SM FEW065 FEW080 OVC100 21/12 A3038 RMK AO2 PK WND 18027/2157 WSHFT 2153 LTG DSNT SE AND NW RAE26B31E46 TSB07E22 SLP194 P0000 T02110122,M
VGT,2024-07-24 22:53,-115.1933,36.2111,667.00,109.00,56.00,17.85,M,3.00,0.00,29.95,1012.20,10.00,M,CLR,M,M,M,M,M,M,M,M,M,M,M,M,M,M,108.69,KVGT 242253Z VRB03KT 10SM CLR 43/13 A2995 RMK AO2 SLP122 T04280133,M
LOL,2024-07-24 22:53,-118.5701,40.0684,1192.43,99.00,47.00,17.23,290.00,12.00,0.00,30.08,1013.40,10.00,18.00,CLR,M,M,M,M,M,M,M,M,M,M,M,M,M,M,95.35,KLOL 242253Z AUTO 29012G18KT 10SM CLR 37/08 A3008 RMK AO2 LTG DSNT SW SLP134 T03720083 $,M
NFL,2024-07-24 22:54,-118.7010,39.4166,1199.00,100.00,48.00,17.36,M,4.00,0.00,30.11,1016.30,10.00,M,SCT,BKN,BKN,M,8000.00,12000.00,25000.00,M,M,M,M,M,M,M,M,96.55,KNFL 242254Z VRB04KT 10SM SCT080 BKN120 BKN250 38/09 A3011 RMK AO2 SLP163 CB DSNT E AND S-SW SH DSNT ALQDS T03780089,M
BVU,2024-07-24 22:55,-114.8611,35.9475,671.00,109.40,48.20,13.24,190.00,7.00,0.00,29.94,M,10.00,18.00,CLR,M,M,M,M,M,M,M,M,M,M,M,M,M,M,105.97,KBVU 242255Z AUTO 19007G18KT 150V220 10SM CLR 43/09 A2994 RMK AO2,M
CXP,2024-07-24 22:55,-119.7326,39.1923,1431.00,89.60,50.00,25.79,250.00,11.00,0.00,30.25,M,10.00,20.00,SCT,M,M,M,11000.00,M,M,M,M,M,M,M,M,M,M,86.70,KCXP 242255Z AUTO 25011G20KT 10SM SCT110 32/10 A3025 RMK AO2 LTG DSNT SE,M
INS,2024-07-24 22:55,-115.6733,36.5872,955.00,104.00,47.00,14.83,0.00,0.00,0.00,30.04,1011.10,10.00,M,CLR,M,M,M,M,M,M,M,M,M,M,M,M,M,M,100.35,KINS 242255Z AUTO 00000KT 10SM CLR 40/08 A3004 RMK AO2 SLP111 T03990083 $,M
RNO,2024-07-24 22:55,-119.7711,39.4839,1341.00,94.00,51.00,23.33,280.00,12.00,0.00,30.18,1015.20,10.00,21.00,BKN,BKN,M,M,9000.00,15000.00,M,M,M,M,M,M,M,M,M,91.08,KRNO 242255Z 28012G21KT 10SM BKN090 BKN150 34/11 A3018 RMK AO2 SLP152 CB DSNT N THRU SE MOV NE T03440106,M
LSV,2024-07-24 22:55,-115.0343,36.2362,570.00,109.20,49.50,13.98,30.00,4.00,0.00,29.88,1008.40,10.00,M,CLR,M,M,M,M,M,M,M,M,M,M,M,M,M,M,106.21,KLSV 242255Z AUTO 03004KT 10SM CLR 43/10 A2988 RMK AO2 SLP084 T04290097 $,M
RTS,2024-07-24 22:55,-119.8764,39.6682,1539.00,93.20,48.20,21.54,300.00,13.00,0.00,30.25,M,10.00,20.00,FEW,M,M,M,9000.00,M,M,M,M,M,M,M,M,M,M,89.80,KRTS 242255Z AUTO 30013G20KT 10SM FEW090 34/09 A3025 RMK AO2,M
05U,2024-07-24 22:55,-116.0051,39.6042,1811.23,87.80,44.60,22.27,310.00,10.00,0.00,30.34,M,10.00,15.00,CLR,M,M,M,M,M,M,M,M,M,M,M,M,M,M,84.53,K05U 242255Z AUTO 31010G15KT 10SM CLR 31/07 A3034 RMK A01,M
MEV,2024-07-24 22:55,-119.7500,38.9963,1441.42,93.20,50.00,23.04,260.00,16.00,0.00,30.23,M,10.00,21.00,CLR,M,M,M,M,M,M,M,M,M,M,M,M,M,M,90.10,KMEV 242255Z AUTO 26016G21KT 10SM CLR 34/10 A3023 RMK AO2 LTG DSNT SE,M
BAM,2024-07-24 22:55,-116.8743,40.5990,1382.36,98.60,50.00,19.52,10.00,7.00,0.00,30.14,M,10.00,M,CLR,M,M,M,M,M,M,M,M,M,M,M,M,M,M,95.56,KBAM 242255Z AUTO 01007KT 10SM CLR 37/10 A3014 RMK AO1,M
10U,2024-07-24 22:55,-116.1876,41.9532,1637.00,86.00,50.00,28.90,290.00,4.00,0.00,30.23,M,10.00,M,CLR,M,M,M,M,M,M,M,M,M,M,M,M,M,M,83.62,K10U 242255Z AUTO 29004KT 10SM CLR 30/10 A3023 RMK AO2,M
TMT,2024-07-24 22:55,-117.1971,39.4643,1749.34,84.20,48.60,29.06,0.00,0.00,0.00,30.32,M,10.00,M,CLR,M,M,M,M,M,M,M,M,M,M,M,M,M,M,82.08,KTMT 242255Z AUTO 00000KT 10SM CLR 29/09 A3032 RMK AO2 T02900092,M
EKO,2024-07-24 22:56,-115.7860,40.8242,1367.00,97.00,47.00,18.32,240.00,6.00,0.00,30.18,1014.10,10.00,M,CLR,M,M,M,M,M,M,M,M,M,M,M,M,M,M,93.35,KEKO 242256Z AUTO 24006KT 10SM CLR 36/08 A3018 RMK AO2 SLP141 T03610083,M
WMC,2024-07-24 22:56,-117.8072,40.9019,1315.00,104.00,46.00,14.28,280.00,13.00,0.00,30.10,1012.50,10.00,24.00,CLR,M,M,M,M,M,M,M,M,M,M,M,M,M,M,100.12,KWMC 242256Z AUTO 28013G24KT 10SM CLR 40/08 A3010 RMK AO2 SLP125 T04000078,M
HND,2024-07-24 22:56,-115.1344,35.9729,742.79,107.00,57.00,19.63,M,3.00,0.00,30.00,1013.70,10.00,M,CLR,M,M,M,M,M,M,M,M,M,M,M,M,M,M,107.02,KHND 242256Z VRB03KT 10SM CLR 42/14 A3000 RMK AO2 SLP137 T04170139,M
TPH,2024-07-24 22:56,-117.0904,38.0505,1654.00,95.00,46.00,18.76,250.00,10.00,0.00,30.24,1014.30,10.00,M,CLR,M,M,M,M,M,M,M,M,M,M,M,M,M,M,91.23,KTPH 242256Z AUTO 25010KT 10SM CLR 35/08 A3024 RMK AO2 LTG DSNT NE-S SLP143 T03500078,M
LAS,2024-07-24 22:56,-115.1634,36.0719,663.00,111.00,54.00,15.66,M,3.00,0.00,29.95,1007.30,10.00,M,FEW,SCT,M,M,11000.00,22000.00,M,M,M,M,M,M,M,M,M,109.82,KLAS 242256Z VRB03KT 10SM FEW110CB SCT220 44/12 A2995 RMK AO2 PRESFR SLP073 CB SE-S AND DSNT E MOV NE T04390122 $,M
P68,2024-07-24 23:07,-116.0056,39.6014,1993.00,86.00,47.00,25.83,360.00,14.00,0.00,30.32,M,M,20.00,M,M,M,M,M,M,M,M,M,M,M,M,M,M,M,83.28,KP68 242307Z AUTO 36014G20KT 30/08 A3032 RMK AO1 WSHFT 2250 T03000083,M
BVU,2024-07-24 23:15,-114.8611,35.9475,671.00,109.40,48.20,13.24,210.00,10.00,0.00,29.93,M,10.00,20.00,CLR,M,M,M,M,M,M,M,M,M,M,M,M,M,M,105.97,KBVU 242315Z AUTO 21010G20KT 10SM CLR 43/09 A2993 RMK AO2,M
CXP,2024-07-24 23:15,-119.7326,39.1923,1431.00,89.60,50.00,25.79,270.00,9.00,0.00,30.25,M,10.00,17.00,OVC,M,M,M,11000.00,M,M,M,VCTS,M,M,M,M,M,M,86.70,KCXP 242315Z AUTO 27009G17KT 10SM VCTS OVC110 32/10 A3025 RMK AO2 LTG DSNT N AND SE,M
RTS,2024-07-24 23:15,-119.8764,39.6682,1539.00,95.00,46.40,19.04,240.00,17.00,0.00,30.25,M,10.00,M,FEW,FEW,M,M,9000.00,11000.00,M,M,M,M,M,M,M,M,M,91.29,KRTS 242315Z AUTO 24017KT 10SM FEW090 FEW110 35/08 A3025 RMK AO2,M
05U,2024-07-24 23:15,-116.0051,39.6042,1811.23,86.00,46.40,25.26,350.00,10.00,0.00,30.34,M,10.00,16.00,FEW,M,M,M,11000.00,M,M,M,M,M,M,M,M,M,M,83.22,K05U 242315Z AUTO 35010G16KT 10SM FEW110 30/08 A3034 RMK A01,M
MEV,2024-07-24 23:15,-119.7500,38.9963,1441.42,91.40,50.00,24.37,260.00,14.00,0.00,30.23,M,10.00,20.00,CLR,M,M,M,M,M,M,M,M,M,M,M,M,M,M,88.36,KMEV 242315Z AUTO 26014G20KT 10SM CLR 33/10 A3023 RMK AO2 LTG DSNT N-SE,M
BAM,2024-07-24 23:15,-116.8743,40.5990,1382.36,98.60,48.20,18.25,10.00,5.00,0.00,30.13,M,10.00,M,CLR,M,M,M,M,M,M,M,M,M,M,M,M,M,M,95.17,KBAM 242315Z AUTO 01005KT 10SM CLR 37/09 A3013 RMK AO1,M
HTH,2024-07-24 23:15,-118.6315,38.5448,1282.89,93.20,48.20,21.54,160.00,21.00,0.00,30.18,M,10.00,M,CLR,M,M,M,M,M,M,M,M,M,M,M,M,M,M,89.80,KHTH 242315Z AUTO 16021KT 10SM CLR 34/09 A3018 RMK A01,M
10U,2024-07-24 23:15,-116.1876,41.9532,1637.00,89.60,48.20,24.11,90.00,7.00,0.00,30.22,M,10.00,13.00,CLR,M,M,M,M,M,M,M,M,M,M,M,M,M,M,86.44,K10U 242315Z AUTO 09007G13KT 070V130 10SM CLR 32/09 A3022 RMK AO2,M
TMT,2024-07-24 23:15,-117.1971,39.4643,1749.34,83.50,57.00,40.48,280.00,8.00,0.00,30.32,M,10.00,M,SCT,M,M,M,11000.00,M,M,M,M,M,M,M,M,M,M,82.87,KTMT 242315Z AUTO 28008KT 10SM SCT110 29/14 A3032 RMK AO2 T02860138,M
05U,2024-07-24 23:30,-116.0051,39.6042,1811.23,86.00,46.40,25.26,330.00,9.00,0.00,30.34,M,10.00,14.00,SCT,M,M,M,11000.00,M,M,M,M,M,M,M,M,M,M,83.22,K05U 242330Z AUTO 33009G14KT 10SM SCT110 30/08 A3034 RMK A01,M
BVU,2024-07-24 23:35,-114.8611,35.9475,671.00,109.40,50.00,14.16,190.00,8.00,0.00,29.93,M,10.00,16.00,CLR,M,M,M,M,M,M,M,VCTS,M,M,M,M,M,M,106.58,KBVU 242335Z AUTO 19008G16KT 10SM VCTS CLR 43/10 A2993 RMK AO2 LTG DSNT W-N,M
CXP,2024-07-24 23:35,-119.7326,39.1923,1431.00,89.60,50.00,25.79,270.00,8.00,0.00,30.24,M,10.00,14.00,BKN,M,M,M,11000.00,M,M,M,M,M,M,M,M,M,M,86.70,KCXP 242335Z AUTO 27008G14KT 10SM BKN110 32/10 A3024 RMK AO2 LTG DSNT NE-S,M
RTS,2024-07-24 23:35,-119.8764,39.6682,1539.00,93.20,48.20,21.54,260.00,17.00,0.00,30.24,M,10.00,23.00,CLR,M,M,M,M,M,M,M,M,M,M,M,M,M,M,89.80,KRTS 242335Z AUTO 26017G23KT 10SM CLR 34/09 A3024 RMK AO2,M
MEV,2024-07-24 23:35,-119.7500,38.9963,1441.42,87.80,51.80,29.18,130.00,18.00,0.00,30.25,M,10.00,26.00,FEW,M,M,M,9000.00,M,M,M,VCTS,M,M,M,M,M,M,85.39,KMEV 242335Z AUTO 13018G26KT 10SM VCTS FEW090 31/11 A3025 RMK AO2 LTG DSNT E-S,M
BAM,2024-07-24 23:35,-116.8743,40.5990,1382.36,98.60,46.40,17.05,0.00,0.00,0.00,30.13,M,10.00,M,CLR,M,M,M,M,M,M,M,M,M,M,M,M,M,M,94.84,KBAM 242335Z AUTO 00000KT 10SM CLR 37/08 A3013 RMK AO1,M
HTH,2024-07-24 23:35,-118.6315,38.5448,1282.89,91.40,48.20,22.78,160.00,14.00,0.00,30.18,M,10.00,20.00,CLR,M,M,M,M,M,M,M,M,M,M,M,M,M,M,88.09,KHTH 242335Z AUTO 16014G20KT 10SM CLR 33/09 A3018 RMK A01,M
10U,2024-07-24 23:35,-116.1876,41.9532,1637.00,91.40,48.20,22.78,130.00,10.00,0.00,30.21,M,10.00,M,CLR,M,M,M,M,M,M,M,M,M,M,M,M,M,M,88.09,K10U 242335Z AUTO 13010KT 10SM CLR 33/09 A3021 RMK AO2,M
TMT,2024-07-24 23:35,-117.1971,39.4643,1749.34,83.00,55.00,38.26,290.00,4.00,0.00,30.31,M,10.00,M,SCT,M,M,M,11000.00,M,M,M,M,M,M,M,M,M,M,82.11,KTMT 242335Z AUTO 29004KT 10SM SCT110 28/13 A3031 RMK AO2 T02830128,M
HND,2024-07-24 23:38,-115.1344,35.9729,742.79,107.60,55.40,18.20,20.00,4.00,0.00,29.99,M,10.00,M,FEW,M,M,M,7000.00,M,M,M,VCTS,M,M,M,M,M,M,106.91,KHND 242338Z 02004KT 10SM VCTS FEW070 42/13 A2999 RMK AO2 TSB32,M
LAS,2024-07-24 23:38,-115.1634,36.0719,663.00,109.00,54.00,16.60,0.00,0.00,0.00,29.94,M,10.00,M,FEW,SCT,M,M,11000.00,22000.00,M,M,TS,M,M,M,M,M,M,107.76,KLAS 242338Z 00000KT 10SM TS FEW110CB SCT220 43/12 A2994 RMK AO2 TSB38 OCNL LTGICCCCG E-SE TS E-SE MOV NE CB DSNT NE-SE T04280122 $,M
NFL,2024-07-24 23:43,-118.7010,39.4166,1199.00,94.00,57.00,29.05,270.00,10.00,T,30.12,M,6.00,M,SCT,BKN,OVC,M,8000.00,12000.00,25000.00,M,-TSRA,M,M,M,M,M,M,92.68,KNFL 242343Z 27010KT 6SM -TSRA SCT080CB BKN120 OVC250 34/14 A3012 RMK AO2 RAB38 TSB38 OCNL LTGIC SW TS SW MOV NE CB DSNT ALQDS P0000 T03440139,M
05U,2024-07-24 23:50,-116.0051,39.6042,1811.23,84.20,46.40,26.76,260.00,12.00,0.00,30.34,M,10.00,M,FEW,M,M,M,11000.00,M,M,M,M,M,M,M,M,M,M,81.87,K05U 242350Z AUTO 26012KT 10SM FEW110 29/08 A3034 RMK A01,M
P68,2024-07-24 23:53,-116.0056,39.6014,1993.00,84.00,47.00,27.55,280.00,13.00,0.00,30.31,1017.20,M,22.00,M,M,M,M,M,M,M,M,M,M,M,M,M,M,M,81.78,KP68 242353Z AUTO 28013G22KT 29/08 A3031 RMK AO1 WSHFT 2250 SLP172 T02890083 10339 20289 53002,M
DRA,2024-07-24 23:53,-116.0278,36.6206,1009.00,104.00,52.00,17.87,260.00,12.00,0.00,30.05,1011.50,10.00,19.00,CLR,M,M,M,M,M,M,M,M,M,M,M,M,M,M,101.76,KDRA 242353Z AUTO 26012G19KT 10SM CLR 40/11 A3005 RMK AO2 SLP115 T04000111 10406 20339 56022,M
ELY,2024-07-24 23:53,-114.8453,39.2950,1909.00,73.00,56.00,55.20,220.00,3.00,T,30.36,1018.70,10.00,M,FEW,FEW,OVC,M,5500.00,8000.00,10000.00,M,-RA,M,M,M,M,M,M,73.00,KELY 242353Z AUTO 22003KT 10SM -RA FEW055 FEW080 OVC100 23/13 A3036 RMK AO2 LTG DSNT SE-SW RAB2255E06B53 SLP187 P0000 60031 T02280133 10339 20194 50001,M
VGT,2024-07-24 23:53,-115.1933,36.2111,667.00,111.00,56.00,16.84,M,M,0.00,29.93,1011.50,10.00,M,CLR,M,M,M,M,M,M,M,M,M,M,M,M,M,M,110.80,KVGT 242353Z 10SM CLR 44/13 A2993 RMK AO2 SLP115 T04390133 10444 20367 56028,M
LOL,2024-07-24 23:53,-118.5701,40.0684,1192.43,100.00,46.00,16.10,300.00,16.00,0.00,30.09,1014.00,10.00,23.00,SCT,BKN,M,M,9500.00,12000.00,M,M,M,M,M,M,M,M,M,96.16,KLOL 242353Z AUTO 30016G23KT 10SM SCT095 BKN120 38/08 A3009 RMK AO2 SLP140 T03780078 10400 20339 55011 $,M
HND,2024-07-24 23:53,-115.1344,35.9729,742.79,107.60,55.40,18.20,M,6.00,0.00,29.99,M,10.00,M,CLR,M,M,M,M,M,M,M,M,M,M,M,M,M,M,106.91,KHND 242353Z VRB06KT 10SM CLR 42/13 A2999 RMK AO2 TSB32E47,M
NFL,2024-07-24 23:54,-118.7010,39.4166,1199.00,84.00,61.00,45.96,200.00,24.00,0.02,30.15,1017.50,6.00,41.00,BKN,OVC,M,M,8000.00,10000.00,M,M,-TSRA,M,M,M,41.00,210.00,2024-07-24 23:54,84.32,KNFL 242354Z 20024G41KT 6SM -TSRA BKN080CB OVC100 29/16 A3015 RMK AO2 PK WND 21041/2354 RAB38 TSB38 PRESRR SLP175 OCNL LTGICCG OHD TS OHD MOV NE CB DSNT ALQDS WR// P0002 60002 T02890161 10389 20289 53002,M
BVU,2024-07-24 23:55,-114.8611,35.9475,671.00,109.40,50.00,14.16,320.00,8.00,0.00,29.92,M,10.00,M,CLR,M,M,M,M,M,M,M,M,M,M,M,M,M,M,106.58,KBVU 242355Z AUTO 32008KT 290V360 10SM CLR 43/10 A2992 RMK AO2,M
CXP,2024-07-24 23:55,-119.7326,39.1923,1431.00,89.60,50.00,25.79,260.00,10.00,0.00,30.24,M,10.00,16.00,SCT,M,M,M,11000.00,M,M,M,M,M,M,M,M,M,M,86.70,KCXP 242355Z AUTO 26010G16KT 10SM SCT110 32/10 A3024 RMK AO2 LTG DSNT E-S,M
INS,2024-07-24 23:55,-115.6733,36.5872,955.00,106.00,45.00,12.96,250.00,13.00,0.00,30.02,1010.20,10.00,15.00,BKN,M,M,M,12000.00,M,M,M,M,M,M,M,M,M,M,101.83,KINS 242355Z AUTO 25013G15KT 10SM BKN120 41/07 A3002 RMK AO2 SLP102 T04110072 10411 20338 57026 $,M
RNO,2024-07-24 23:55,-119.7711,39.4839,1341.00,93.00,51.00,24.06,280.00,16.00,0.00,30.17,1015.20,10.00,24.00,BKN,BKN,M,M,9500.00,15000.00,M,M,M,M,M,M,M,M,M,90.09,KRNO 242355Z 28016G24KT 10SM BKN095 BKN150 34/11 A3017 RMK AO2 SLP152 CB DSNT NE THRU S MOV NE 60046 T03390106 10372 20261 56010,M
RTS,2024-07-24 23:55,-119.8764,39.6682,1539.00,93.20,48.20,21.54,290.00,14.00,0.00,30.24,M,10.00,20.00,FEW,M,M,M,9000.00,M,M,M,M,M,M,M,M,M,M,89.80,KRTS 242355Z AUTO 29014G20KT 10SM FEW090 34/09 A3024 RMK AO2,M
MEV,2024-07-24 23:55,-119.7500,38.9963,1441.42,82.40,51.80,34.69,140.00,8.00,0.00,30.26,M,10.00,20.00,FEW,M,M,M,9500.00,M,M,M,M,M,M,M,M,M,M,81.20,KMEV 242355Z AUTO 14008G20KT 10SM FEW095 28/11 A3026 RMK AO2 LTG DSNT NE-SE,M
BAM,2024-07-24 23:55,-116.8743,40.5990,1382.36,96.80,48.20,19.28,40.00,3.00,0.00,30.13,M,10.00,M,CLR,M,M,M,M,M,M,M,M,M,M,M,M,M,M,93.36,KBAM 242355Z AUTO 04003KT 10SM CLR 36/09 A3013 RMK AO1,M
HTH,2024-07-24 23:55,-118.6315,38.5448,1282.89,91.40,46.40,21.29,150.00,12.00,0.00,30.19,M,10.00,17.00,CLR,M,M,M,M,M,M,M,M,M,M,M,M,M,M,87.86,KHTH 242355Z AUTO 15012G17KT 10SM CLR 33/08 A3019 RMK A01,M
10U,2024-07-24 23:55,-116.1876,41.9532,1637.00,91.40,46.40,21.29,120.00,9.00,0.00,30.20,M,10.00,M,CLR,M,M,M,M,M,M,M,M,M,M,M,M,M,M,87.86,K10U 242355Z AUTO 12009KT 10SM CLR 33/08 A3020 RMK AO2,M
LSV,2024-07-24 23:55,-115.0343,36.2362,570.00,110.00,48.00,12.91,220.00,5.00,0.00,29.86,1007.70,10.00,17.00,CLR,M,M,M,M,M,M,M,M,M,M,M,M,M,M,106.47,KLSV 242355Z AUTO 22005G17KT 10SM CLR 43/09 A2986 RMK AO2 SLP077 T04330089 10440 20370 57034 $,M
TMT,2024-07-24 23:55,-117.1971,39.4643,1749.34,82.40,55.00,39.01,0.00,0.00,0.00,30.31,M,10.00,M,SCT,M,M,M,12000.00,M,M,M,M,M,M,M,M,M,M,81.68,KTMT 242355Z AUTO 00000KT 10SM SCT120 28/13 A3031 RMK AO2 T02800127 10329 20241,M
EKO,2024-07-24 23:56,-115.7860,40.8242,1367.00,95.00,46.00,18.76,210.00,6.00,0.00,30.16,1014.20,10.00,M,CLR,M,M,M,M,M,M,M,M,M,M,M,M,M,M,91.23,KEKO 242356Z AUTO 21006KT 10SM CLR 35/08 A3016 RMK AO2 LTG DSNT S AND SW SLP142 60000 T03500078 10372 20289 56023,M
WMC,2024-07-24 23:56,-117.8072,40.9019,1315.00,100.00,44.00,14.92,260.00,11.00,0.00,30.09,1012.50,10.00,19.00,CLR,M,M,M,M,M,M,M,M,M,M,M,M,M,M,95.83,KWMC 242356Z AUTO 26011G19KT 10SM CLR 38/07 A3009 RMK AO2 SLP125 T03780067 10400 20350 56018,M
HND,2024-07-24 23:56,-115.1344,35.9729,742.79,106.00,55.00,18.80,0.00,0.00,0.00,29.98,1013.10,10.00,M,CLR,M,M,M,M,M,M,M,M,M,M,M,M,M,M,105.02,KHND 242356Z 00000KT 10SM CLR 41/13 A2998 RMK AO2 TSB32E47 SLP131 T04110128 10422 20367 56013,M
TPH,2024-07-24 23:56,-117.0904,38.0505,1654.00,91.00,48.00,22.90,180.00,12.00,0.00,30.25,1015.20,10.00,19.00,CLR,M,M,M,M,M,M,M,M,M,M,M,M,M,M,87.69,KTPH 242356Z AUTO 18012G19KT 10SM CLR 33/09 A3025 RMK AO2 LTG DSNT ALQDS SLP152 T03280089 10350 20289 55008,M
LAS,2024-07-24 23:56,-115.1634,36.0719,663.00,111.00,53.00,15.10,M,3.00,0.00,29.94,1006.80,10.00,M,FEW,FEW,SCT,M,11000.00,18000.00,22000.00,M,TS,M,M,M,M,M,M,109.36,KLAS 242356Z VRB03KT 10SM TS FEW110CB FEW180 SCT220 44/12 A2994 RMK AO2 TSB38 SLP068 OCNL LTGICCCCG E-SE TS E-SE MOV NE CB DSNT NE-SE T04390117 10444 20372 56025 $,M
INS,2024-07-24 23:58,-115.6733,36.5872,955.00,105.80,44.60,12.84,280.00,10.00,0.00,30.02,1010.20,10.00,15.00,SCT,M,M,M,12000.00,M,M,M,M,M,M,M,M,M,M,101.53,KINS 242358Z AUTO 28010G15KT 10SM SCT120 41/07 A3002 RMK AO2 WSHFT 54 SLP102 $,M
