station,valid,lon,lat,elevation,tmpf,dwpf,relh,drct,sknt,p01i,alti,mslp,vsby,gust,skyc1,skyc2,skyc3,skyc4,skyl1,skyl2,skyl3,skyl4,wxcodes,ice_accretion_1hr,ice_accretion_3hr,ice_accretion_6hr,peak_wind_gust,peak_wind_drct,peak_wind_time,feel,metar,snowdepth
TPH,2022-03-29 00:07,-117.0904,38.0505,1654.00,40.00,36.00,85.81,300.00,20.00,T,29.70,M,9.00,27.00,SCT,OVC,M,M,2400.00,5000.00,M,M,-RA,M,M,M,27.00,230.00,2022-03-28 23:59,29.63,KTPH 290007Z AUTO 30020G27KT 9SM -RA SCT024 OVC050 04/02 A2970 RMK AO2 PK WND 23027/2359 WSHFT 2353 P0000 T00440022,M
05U,2022-03-29 00:10,-116.0051,39.6042,1811.23,50.00,24.80,37.08,220.00,15.00,0.00,29.67,M,10.00,M,CLR,M,M,M,M,M,M,M,M,M,M,M,M,M,M,50.00,K05U 290010Z AUTO 22015KT 10SM CLR 10/M04 A2967 RMK A01,M
BAM,2022-03-29 00:15,-116.8743,40.5990,1382.36,60.80,19.40,19.94,260.00,10.00,0.00,29.61,M,10.00,M,OVC,M,M,M,10000.00,M,M,M,M,M,M,M,M,M,M,60.80,KBAM 290015Z AUTO 26010KT 10SM OVC100 16/M07 A2961 RMK AO1,M
MEV,2022-03-29 00:15,-119.7500,38.9963,1441.42,53.60,30.20,40.54,260.00,16.00,0.00,29.65,M,10.00,21.00,BKN,BKN,M,M,7500.00,8500.00,M,M,M,M,M,M,M,M,M,53.60,KMEV 290015Z AUTO 26016G21KT 10SM BKN075 BKN085 12/M01 A2965 RMK AO2,M
BVU,2022-03-29 00:15,-114.8611,35.9475,671.00,73.40,17.60,11.94,190.00,21.00,0.00,29.58,M,10.00,27.00,CLR,M,M,M,M,M,M,M,M,M,M,M,M,M,M,73.40,KBVU 290015Z AUTO 19021G27KT 10SM CLR 23/M08 A2958 RMK AO2,M
TMT,2022-03-29 00:15,-117.1971,39.4643,1749.34,50.40,25.50,37.61,200.00,13.00,0.00,29.67,M,10.00,M,SCT,SCT,M,M,7000.00,9000.00,M,M,M,M,M,M,M,M,M,50.40,KTMT 290015Z AUTO 20013KT 10SM SCT070 SCT090 10/M04 A2967 RMK AO2 T01021036,M
HTH,2022-03-29 00:15,-118.6315,38.5448,1282.89,53.60,26.60,34.98,150.00,10.00,0.00,29.65,M,10.00,M,CLR,M,M,M,M,M,M,M,M,M,M,M,M,M,M,53.60,KHTH 290015Z AUTO 15010KT 10SM CLR 12/M03 A2965 RMK A01,M
RTS,2022-03-29 00:15,-119.8764,39.6682,1539.00,44.60,33.80,65.61,290.00,17.00,0.00,29.71,M,10.00,M,CLR,M,M,M,M,M,M,M,M,M,M,M,M,M,M,36.58,KRTS 290015Z AUTO 29017KT 10SM CLR 07/01 A2971 RMK AO2,M
CXP,2022-03-29 00:15,-119.7326,39.1923,1431.00,55.40,21.20,26.13,330.00,9.00,0.00,29.66,M,10.00,M,FEW,BKN,M,M,7000.00,8500.00,M,M,M,M,M,M,M,M,M,55.40,KCXP 290015Z AUTO 33009KT 10SM FEW070 BKN085 13/M06 A2966 RMK AO2,M
TPH,2022-03-29 00:16,-117.0904,38.0505,1654.00,40.00,36.00,85.81,310.00,18.00,T,29.71,M,9.00,27.00,BKN,BKN,OVC,M,2400.00,3700.00,5000.00,M,-RA,M,M,M,27.00,230.00,2022-03-28 23:59,30.15,KTPH 290016Z AUTO 31018G27KT 9SM -RA BKN024 BKN037 OVC050 04/02 A2971 RMK AO2 PK WND 23027/2359 WSHFT 2353 P0000 T00440022,M
HND,2022-03-29 00:27,-115.1344,35.9729,742.79,66.20,37.40,34.51,260.00,26.00,T,29.60,M,10.00,33.00,FEW,BKN,OVC,M,6500.00,9000.00,11000.00,M,-RA,M,M,M,36.00,190.00,2022-03-29 00:10,66.20,KHND 290027Z 26026G33KT 10SM -RA FEW065 BKN090 OVC110 19/03 A2960 RMK AO2 PK WND 19036/0010 WSHFT 0007 LTG DSNT W RAB15 P0000,M
LAS,2022-03-29 00:30,-115.1634,36.0719,663.00,69.00,36.00,29.55,220.00,19.00,0.00,29.58,M,9.00,35.00,FEW,BKN,BKN,M,10000.00,15000.00,25000.00,M,M,M,M,M,40.00,250.00,2022-03-29 00:18,69.10,KLAS 290030Z 22019G35KT 9SM FEW100 BKN150 BKN250 21/02 A2958 RMK AO2 PK WND 25040/0018 WSHFT 0010 LTG DSNT SW PRESRR T02060022,M
VGT,2022-03-29 00:33,-115.1933,36.2111,667.00,73.00,30.00,20.34,240.00,23.00,0.00,29.56,M,10.00,33.00,SCT,M,M,M,12000.00,M,M,M,M,M,M,M,33.00,170.00,2022-03-29 00:12,73.00,KVGT 290033Z 24023G33KT 10SM SCT120 23/M01 A2956 RMK AO2 PK WND 17033/0012 WSHFT 0013 LTG DSNT SW T02281011,M
RTS,2022-03-29 00:35,-119.8764,39.6682,1539.00,44.60,33.80,65.61,310.00,18.00,0.00,29.72,M,10.00,M,CLR,M,M,M,M,M,M,M,M,M,M,M,M,M,M,36.34,KRTS 290035Z AUTO 31018KT 10SM CLR 07/01 A2972 RMK AO2,M
05U,2022-03-29 00:35,-116.0051,39.6042,1811.23,50.00,24.80,37.08,210.00,14.00,0.00,29.68,M,10.00,21.00,CLR,M,M,M,M,M,M,M,M,M,M,M,M,M,M,50.00,K05U 290035Z AUTO 21014G21KT 10SM CLR 10/M04 A2968 RMK A01,M
MEV,2022-03-29 00:35,-119.7500,38.9963,1441.42,51.80,28.40,40.25,270.00,13.00,0.00,29.65,M,10.00,20.00,BKN,BKN,M,M,7000.00,8000.00,M,M,M,M,M,M,M,M,M,51.80,KMEV 290035Z AUTO 27013G20KT 10SM BKN070 BKN080 11/M02 A2965 RMK AO2,M
BAM,2022-03-29 00:35,-116.8743,40.5990,1382.36,60.80,17.60,18.46,260.00,8.00,0.00,29.61,M,10.00,M,OVC,M,M,M,10000.00,M,M,M,M,M,M,M,M,M,M,60.80,KBAM 290035Z AUTO 26008KT 10SM OVC100 16/M08 A2961 RMK AO1,M
HTH,2022-03-29 00:35,-118.6315,38.5448,1282.89,53.60,24.80,32.46,130.00,8.00,0.00,29.65,M,10.00,M,CLR,M,M,M,M,M,M,M,M,M,M,M,M,M,M,53.60,KHTH 290035Z AUTO 13008KT 10SM CLR 12/M04 A2965 RMK A01,M
TMT,2022-03-29 00:35,-117.1971,39.4643,1749.34,49.50,25.90,39.54,200.00,10.00,0.00,29.67,M,10.00,M,BKN,BKN,M,M,6500.00,9000.00,M,M,M,M,M,M,M,M,M,44.91,KTMT 290035Z AUTO 20010KT 10SM BKN065 BKN090 10/M03 A2967 RMK AO2 LTG DSNT S T00971034,M
CXP,2022-03-29 00:35,-119.7326,39.1923,1431.00,55.40,24.80,30.40,340.00,12.00,0.00,29.66,M,10.00,M,SCT,BKN,M,M,6500.00,8500.00,M,M,M,M,M,M,M,M,M,55.40,KCXP 290035Z AUTO 34012KT 10SM SCT065 BKN085 13/M04 A2966 RMK AO2,M
BVU,2022-03-29 00:35,-114.8611,35.9475,671.00,73.40,17.60,11.94,190.00,23.00,0.00,29.58,M,10.00,28.00,FEW,M,M,M,11000.00,M,M,M,M,M,M,M,M,M,M,73.40,KBVU 290035Z AUTO 19023G28KT 10SM FEW110 23/M08 A2958 RMK AO2 LTG DSNT SW AND W,M
LSV,2022-03-29 00:42,-115.0343,36.2362,570.00,75.20,21.20,13.11,210.00,31.00,0.00,29.53,998.10,8.00,39.00,BKN,M,M,M,12000.00,M,M,M,M,M,M,M,M,M,M,75.20,KLSV 290042Z AUTO 21031G39KT 8SM BKN120 24/M06 A2953 RMK AO2 WSHFT 27 SLP981 $,M
TPH,2022-03-29 00:47,-117.0904,38.0505,1654.00,40.00,36.00,85.81,320.00,12.00,T,29.72,M,10.00,M,FEW,BKN,BKN,M,2600.00,3300.00,6000.00,M,M,M,M,M,27.00,230.00,2022-03-28 23:59,32.06,KTPH 290047Z AUTO 32012KT 10SM FEW026 BKN033 BKN060 04/02 A2972 RMK AO2 PK WND 23027/2359 WSHFT 2353 RAE46 P0000 T00440022,M
CXP,2022-03-29 00:50,-119.7326,39.1923,1431.00,55.40,26.60,32.76,310.00,10.00,0.00,29.66,M,10.00,17.00,BKN,BKN,OVC,M,7000.00,8000.00,9000.00,M,M,M,M,M,M,M,M,55.40,KCXP 290050Z AUTO 31010G17KT 10SM BKN070 BKN080 OVC090 13/M03 A2966 RMK AO2,M
05U,2022-03-29 00:50,-116.0051,39.6042,1811.23,50.00,24.80,37.08,180.00,14.00,0.00,29.69,M,10.00,M,CLR,M,M,M,M,M,M,M,M,M,M,M,M,M,M,50.00,K05U 290050Z AUTO 18014KT 10SM CLR 10/M04 A2969 RMK A01,M
P68,2022-03-29 00:53,-116.0056,39.6014,1993.00,50.00,25.00,37.39,190.00,13.00,0.00,29.67,1000.00,M,23.00,M,M,M,M,M,M,M,M,M,M,M,M,26.00,210.00,2022-03-29 00:22,50.00,KP68 290053Z AUTO 19013G23KT 10/M04 A2967 RMK AO1 PK WND 21026/0022 SLP000 T01001039,M
LOL,2022-03-29 00:53,-118.5701,40.0684,1192.43,60.00,27.00,28.13,330.00,13.00,0.00,29.63,1001.70,10.00,M,FEW,M,M,M,12000.00,M,M,M,M,M,M,M,M,M,M,60.10,KLOL 290053Z AUTO 33013KT 10SM FEW120 16/M03 A2963 RMK AO2 SLP017 T01561028,M
VGT,2022-03-29 00:53,-115.1933,36.2111,667.00,69.00,36.00,29.55,230.00,31.00,0.00,29.59,1001.90,9.00,41.00,FEW,M,M,M,12000.00,M,M,M,M,M,M,M,41.00,230.00,2022-03-29 00:53,69.10,KVGT 290053Z 23031G41KT 9SM FEW120 21/02 A2959 RMK AO2 PK WND 23041/0053 WSHFT 0013 PRESRR SLP019 T02060022,M
ELY,2022-03-29 00:53,-114.8453,39.2950,1909.00,53.00,14.00,20.84,250.00,12.00,0.00,29.66,998.60,10.00,M,CLR,M,M,M,M,M,M,M,M,M,M,M,27.00,210.00,2022-03-29 00:00,53.10,KELY 290053Z AUTO 25012KT 10SM CLR 12/M10 A2966 RMK AO2 PK WND 21027/0000 SLP986 T01171100,M
TMT,2022-03-29 00:55,-117.1971,39.4643,1749.34,49.00,25.00,38.66,210.00,8.00,0.00,29.67,M,10.00,M,OVC,M,M,M,6500.00,M,M,M,M,M,M,M,M,M,M,45.18,KTMT 290055Z AUTO 21008KT 10SM OVC065 10/M04 A2967 RMK AO2 T00951039,M
BVU,2022-03-29 00:55,-114.8611,35.9475,671.00,71.60,30.20,21.50,240.00,21.00,0.00,29.59,M,10.00,27.00,FEW,M,M,M,11000.00,M,M,M,M,M,M,M,M,M,M,71.60,KBVU 290055Z AUTO 24021G27KT 10SM FEW110 22/M01 A2959 RMK AO2,M
RTS,2022-03-29 00:55,-119.8764,39.6682,1539.00,42.80,33.80,70.28,300.00,17.00,0.00,29.73,M,10.00,24.00,FEW,M,M,M,12000.00,M,M,M,M,M,M,M,M,M,M,34.22,KRTS 290055Z AUTO 30017G24KT 10SM FEW120 06/01 A2973 RMK AO2,M
MEV,2022-03-29 00:55,-119.7500,38.9963,1441.42,50.00,30.20,46.31,270.00,14.00,0.00,29.65,M,10.00,22.00,BKN,SCT,M,M,7500.00,8500.00,M,M,M,M,M,M,M,M,M,50.00,KMEV 290055Z AUTO 27014G22KT 10SM BKN075 SCT085 10/M01 A2965 RMK AO2,M
BAM,2022-03-29 00:55,-116.8743,40.5990,1382.36,60.80,17.60,18.46,270.00,7.00,0.00,29.61,M,10.00,M,OVC,M,M,M,10000.00,M,M,M,M,M,M,M,M,M,M,60.80,KBAM 290055Z AUTO 27007KT 10SM OVC100 16/M08 A2961 RMK AO1,M
HTH,2022-03-29 00:55,-118.6315,38.5448,1282.89,53.60,24.80,32.46,160.00,6.00,0.00,29.65,M,10.00,M,CLR,M,M,M,M,M,M,M,M,M,M,M,M,M,M,53.60,KHTH 290055Z AUTO 16006KT 10SM CLR 12/M04 A2965 RMK A01,M
RNO,2022-03-29 00:55,-119.7711,39.4839,1341.00,52.00,33.00,48.34,330.00,18.00,0.00,29.68,1002.40,10.00,24.00,FEW,BKN,BKN,BKN,6000.00,7500.00,10000.00,15000.00,M,M,M,M,26.00,320.00,2022-03-29 00:41,52.00,KRNO 290055Z 33018G24KT 10SM FEW060 BKN075 BKN100 BKN150 BKN200 11/01 A2968 RMK AO2 PK WND 32026/0041 SLP024 VIRGA CB DSNT N AND SE MTN TOPS OBSCD SE AND DSNT S SH DSNT N AND SE AND SW T01110006,M
NFL,2022-03-29 00:56,-118.7010,39.4166,1199.00,59.00,21.90,23.64,330.00,6.00,0.00,29.62,1001.60,10.00,M,SCT,BKN,BKN,M,6000.00,12000.00,25000.00,M,M,M,M,M,M,M,M,59.00,KNFL 290056Z 33006KT 10SM SCT060 BKN120 BKN250 15/M06 A2962 RMK AO2 SLP016 SH DSNT SE T01501056,M
HND,2022-03-29 00:56,-115.1344,35.9729,742.79,63.00,40.00,42.56,260.00,20.00,T,29.64,1003.80,10.00,25.00,OVC,M,M,M,9000.00,M,M,M,M,M,M,M,36.00,190.00,2022-03-29 00:10,63.00,KHND 290056Z 26020G25KT 10SM OVC090 17/04 A2964 RMK AO2 PK WND 19036/0010 WSHFT 0007 RAB15E29 SLP038 P0000 T01720044,M
LAS,2022-03-29 00:56,-115.1634,36.0719,663.00,64.00,40.00,41.09,260.00,24.00,0.00,29.61,1001.20,10.00,39.00,SCT,BKN,BKN,BKN,7000.00,11000.00,15000.00,22000.00,M,M,M,M,40.00,250.00,2022-03-29 00:18,64.00,KLAS 290056Z 26024G39KT 10SM SCT070 BKN110 BKN150 BKN220 18/04 A2961 RMK AO2 PK WND 25040/0018 WSHFT 0010 SLP012 VIRGA ALQDS T01780044,M
TPH,2022-03-29 00:56,-117.0904,38.0505,1654.00,40.00,36.00,85.81,310.00,13.00,T,29.72,1004.70,10.00,M,SCT,BKN,OVC,M,3300.00,7000.00,10000.00,M,M,M,M,M,27.00,230.00,2022-03-28 23:59,31.69,KTPH 290056Z AUTO 31013KT 10SM SCT033 BKN070 OVC100 04/02 A2972 RMK AO2 PK WND 23027/2359 WSHFT 2353 RAE46 SLP047 P0000 T00440022,M
EKO,2022-03-29 00:56,-115.7860,40.8242,1367.00,59.00,18.00,20.02,210.00,14.00,0.00,29.60,999.10,10.00,22.00,FEW,SCT,OVC,M,7000.00,9000.00,11000.00,M,M,M,M,M,27.00,190.00,2022-03-29 00:28,59.00,KEKO 290056Z AUTO 21014G22KT 10SM FEW070 SCT090 OVC110 15/M08 A2960 RMK AO2 PK WND 19027/0028 SLP991 T01501078,M
WMC,2022-03-29 00:56,-117.8072,40.9019,1315.00,50.00,36.00,58.44,350.00,10.00,0.00,29.66,1002.80,10.00,M,CLR,M,M,M,M,M,M,M,M,M,M,M,M,M,M,50.00,KWMC 290056Z AUTO 35010KT 10SM CLR 10/02 A2966 RMK AO2 SLP028 T01000022,M
INS,2022-03-29 00:58,-115.6733,36.5872,955.00,62.00,35.20,36.77,270.00,28.00,0.00,29.61,999.40,10.00,M,BKN,M,M,M,11000.00,M,M,M,M,M,M,M,37.00,270.00,2022-03-28 23:59,61.90,KINS 290058Z AUTO 27028KT 10SM BKN110 17/02 A2961 RMK AO2 PK WND 27037/2359 SLP994 T01660018 $,M
LSV,2022-03-29 00:58,-115.0343,36.2362,570.00,73.60,36.50,25.87,230.00,31.00,0.00,29.56,999.20,7.00,38.00,SCT,M,M,M,12000.00,M,M,M,M,M,M,M,39.00,210.00,2022-03-29 00:41,73.60,KLSV 290058Z AUTO 23031G38KT 7SM SCT120 23/03 A2956 RMK AO2 PK WND 21039/41 PRESRR SLP992 T02310025 $,M
05U,2022-03-29 01:10,-116.0051,39.6042,1811.23,48.20,24.80,39.66,210.00,11.00,0.00,29.69,M,10.00,M,FEW,M,M,M,11000.00,M,M,M,M,M,M,M,M,M,M,42.94,K05U 290110Z AUTO 21011KT 10SM FEW110 09/M04 A2969 RMK A01,M
MEV,2022-03-29 01:15,-119.7500,38.9963,1441.42,50.00,28.40,43.03,280.00,14.00,0.00,29.66,M,10.00,M,SCT,M,M,M,7000.00,M,M,M,M,M,M,M,M,M,M,50.00,KMEV 290115Z AUTO 28014KT 10SM SCT070 10/M02 A2966 RMK AO2,M
TMT,2022-03-29 01:15,-117.1971,39.4643,1749.34,48.40,24.60,39.03,210.00,10.00,0.00,29.68,M,10.00,M,OVC,M,M,M,6500.00,M,M,M,M,M,M,M,M,M,M,43.53,KTMT 290115Z AUTO 21010KT 10SM OVC065 09/M04 A2968 RMK AO2 T00911041,M
BAM,2022-03-29 01:15,-116.8743,40.5990,1382.36,60.80,19.40,19.94,250.00,6.00,0.00,29.62,M,10.00,M,SCT,BKN,M,M,10000.00,12000.00,M,M,M,M,M,M,M,M,M,60.80,KBAM 290115Z AUTO 25006KT 10SM SCT100 BKN120 16/M07 A2962 RMK AO1,M
HTH,2022-03-29 01:15,-118.6315,38.5448,1282.89,53.60,24.80,32.46,140.00,8.00,0.00,29.66,M,10.00,M,FEW,M,M,M,7000.00,M,M,M,M,M,M,M,M,M,M,53.60,KHTH 290115Z AUTO 14008KT 10SM FEW070 12/M04 A2966 RMK A01,M
CXP,2022-03-29 01:15,-119.7326,39.1923,1431.00,53.60,28.40,37.67,350.00,16.00,0.00,29.67,M,10.00,27.00,BKN,OVC,M,M,5500.00,7000.00,M,M,M,M,M,M,M,M,M,53.60,KCXP 290115Z AUTO 35016G27KT 10SM BKN055 OVC070 12/M02 A2967 RMK AO2,M
BVU,2022-03-29 01:15,-114.8611,35.9475,671.00,66.20,37.40,34.51,240.00,20.00,0.00,29.63,M,9.00,26.00,SCT,M,M,M,10000.00,M,M,M,M,M,M,M,M,M,M,66.20,KBVU 290115Z AUTO 24020G26KT 9SM SCT100 19/03 A2963 RMK AO2,M
RTS,2022-03-29 01:15,-119.8764,39.6682,1539.00,42.80,33.80,70.28,300.00,18.00,0.00,29.74,M,10.00,24.00,FEW,FEW,FEW,M,5000.00,9000.00,12000.00,M,M,M,M,M,M,M,M,33.97,KRTS 290115Z AUTO 30018G24KT 10SM FEW050 FEW090 FEW120 06/01 A2974 RMK AO2,M
05U,2022-03-29 01:25,-116.0051,39.6042,1811.23,48.20,26.60,42.73,200.00,18.00,0.00,29.69,M,10.00,M,FEW,M,M,M,11000.00,M,M,M,M,M,M,M,M,M,M,41.07,K05U 290125Z AUTO 20018KT 10SM FEW110 09/M03 A2969 RMK A01,M
MEV,2022-03-29 01:35,-119.7500,38.9963,1441.42,50.00,28.40,43.03,350.00,13.00,0.00,29.68,M,10.00,M,SCT,SCT,BKN,M,6000.00,7000.00,8500.00,M,M,M,M,M,M,M,M,50.00,KMEV 290135Z AUTO 35013KT 10SM SCT060 SCT070 BKN085 10/M02 A2968 RMK AO2,M
TMT,2022-03-29 01:35,-117.1971,39.4643,1749.34,47.00,26.60,44.53,190.00,14.00,0.00,29.68,M,10.00,M,OVC,M,M,M,6500.00,M,M,M,M,M,M,M,M,M,M,40.63,KTMT 290135Z AUTO 19014KT 10SM OVC065 08/M03 A2968 RMK AO2 T00841030,M
HTH,2022-03-29 01:35,-118.6315,38.5448,1282.89,51.80,26.60,37.38,130.00,13.00,0.00,29.67,M,10.00,19.00,SCT,M,M,M,7000.00,M,M,M,M,M,M,M,M,M,M,51.80,KHTH 290135Z AUTO 13013G19KT 10SM SCT070 11/M03 A2967 RMK A01,M
BAM,2022-03-29 01:35,-116.8743,40.5990,1382.36,57.20,32.00,38.26,330.00,12.00,0.00,29.63,M,10.00,16.00,BKN,M,M,M,10000.00,M,M,M,M,M,M,M,M,M,M,57.20,KBAM 290135Z AUTO 33012G16KT 10SM BKN100 14/00 A2963 RMK AO1,M
RTS,2022-03-29 01:35,-119.8764,39.6682,1539.00,41.00,33.80,75.33,290.00,14.00,0.00,29.74,M,10.00,20.00,BKN,BKN,BKN,M,5500.00,6500.00,9000.00,M,M,M,M,M,M,M,M,32.76,KRTS 290135Z AUTO 29014G20KT 10SM BKN055 BKN065 BKN090 05/01 A2974 RMK AO2,M
CXP,2022-03-29 01:35,-119.7326,39.1923,1431.00,51.80,30.20,43.32,340.00,12.00,0.00,29.69,M,10.00,23.00,FEW,SCT,BKN,M,4900.00,5500.00,7000.00,M,M,M,M,M,M,M,M,51.80,KCXP 290135Z AUTO 34012G23KT 10SM FEW049 SCT055 BKN070 11/M01 A2969 RMK AO2,M
BVU,2022-03-29 01:35,-114.8611,35.9475,671.00,64.40,39.20,39.43,250.00,16.00,0.00,29.64,M,10.00,26.00,BKN,M,M,M,9500.00,M,M,M,M,M,M,M,M,M,M,64.40,KBVU 290135Z AUTO 25016G26KT 10SM BKN095 18/04 A2964 RMK AO2,M
INS,2022-03-29 01:43,-115.6733,36.5872,955.00,59.00,35.60,41.42,260.00,23.00,0.00,29.62,999.80,10.00,M,BKN,OVC,M,M,9500.00,11000.00,M,M,M,M,M,M,M,M,M,59.00,KINS 290143Z AUTO 26023KT 10SM BKN095 OVC110 15/02 A2962 RMK AO2 SLP998 $,M
ELY,2022-03-29 01:53,-114.8453,39.2950,1909.00,49.00,16.00,26.57,230.00,12.00,0.00,29.66,999.50,10.00,20.00,CLR,M,M,M,M,M,M,M,M,M,M,M,M,M,M,43.51,KELY 290153Z AUTO 23012G20KT 10SM CLR 09/M09 A2966 RMK AO2 SLP995 T00941089,M
DRA,2022-03-29 01:53,-116.0278,36.6206,1009.00,53.00,43.00,68.46,140.00,8.00,0.01,29.67,1002.30,10.00,M,OVC,M,M,M,6000.00,M,M,M,M,M,M,M,M,M,M,53.10,KDRA 290153Z AUTO 14008KT 10SM OVC060 12/06 A2967 RMK AO2 RAB02E44 SLP023 P0001 T01170061,M
LOL,2022-03-29 01:53,-118.5701,40.0684,1192.43,55.00,28.00,35.21,350.00,11.00,0.00,29.64,1002.70,10.00,M,CLR,M,M,M,M,M,M,M,M,M,M,M,M,M,M,55.00,KLOL 290153Z AUTO 35011KT 10SM CLR 13/M02 A2964 RMK AO2 SLP027 T01281022,M
VGT,2022-03-29 01:53,-115.1933,36.2111,667.00,62.00,42.00,47.83,210.00,20.00,T,29.64,1004.10,10.00,27.00,FEW,BKN,OVC,M,6500.00,8500.00,10000.00,M,-RA,M,M,M,43.00,220.00,2022-03-29 01:05,62.10,KVGT 290153Z 21020G27KT 10SM -RA FEW065 BKN085 OVC100 17/06 A2964 RMK AO2 PK WND 22043/0105 LTG DSNT N RAB08E18B48 SLP041 P0000 T01670056,M
P68,2022-03-29 01:53,-116.0056,39.6014,1993.00,48.00,27.00,43.77,210.00,11.00,0.00,29.66,1000.00,M,19.00,M,M,M,M,M,M,M,M,M,M,M,M,28.00,200.00,2022-03-29 01:31,42.69,KP68 290153Z AUTO 21011G19KT 09/M03 A2966 RMK AO1 PK WND 20028/0131 SLP000 T00891028,M
TMT,2022-03-29 01:55,-117.1971,39.4643,1749.34,45.50,27.90,49.92,200.00,16.00,0.00,29.69,M,10.00,21.00,BKN,OVC,M,M,6500.00,7500.00,M,M,M,M,M,M,M,M,M,38.01,KTMT 290155Z AUTO 20016G21KT 10SM BKN065 OVC075 08/M02 A2969 RMK AO2 T00751023,M
BVU,2022-03-29 01:55,-114.8611,35.9475,671.00,62.60,37.40,39.14,230.00,13.00,0.00,29.61,M,9.00,21.00,FEW,BKN,OVC,M,300.00,8000.00,9500.00,M,M,M,M,M,M,M,M,62.60,KBVU 290155Z AUTO 23013G21KT 9SM FEW003 BKN080 OVC095 17/03 A2961 RMK AO2,M
CXP,2022-03-29 01:55,-119.7326,39.1923,1431.00,50.00,30.20,46.31,360.00,14.00,0.00,29.70,M,10.00,24.00,FEW,SCT,BKN,M,4200.00,4900.00,5500.00,M,M,M,M,M,M,M,M,50.00,KCXP 290155Z AUTO 36014G24KT 10SM FEW042 SCT049 BKN055 10/M01 A2970 RMK AO2,M
RNO,2022-03-29 01:55,-119.7711,39.4839,1341.00,49.00,33.00,54.24,310.00,15.00,0.00,29.71,1003.90,10.00,22.00,FEW,BKN,BKN,BKN,3800.00,6000.00,8500.00,14000.00,M,M,M,M,28.00,330.00,2022-03-29 01:39,42.69,KRNO 290155Z 31015G22KT 10SM FEW038 BKN060 BKN085 BKN140 BKN200 09/01 A2971 RMK AO2 PK WND 33028/0139 SLP039 VIRGA MTN TOPS OBSCD W AND DSNT S AND SW SH DSNT E AND SE AND S AND SW T00940006,M
LSV,2022-03-29 01:55,-115.0343,36.2362,570.00,66.20,39.20,37.03,210.00,27.00,0.00,29.61,1001.10,9.00,34.00,CLR,M,M,M,M,M,M,M,M,M,M,M,M,M,M,66.20,KLSV 290155Z AUTO 21027G34KT 9SM CLR 19/04 A2961 RMK AO2 WSHFT 51 SLP011 $,M
RTS,2022-03-29 01:55,-119.8764,39.6682,1539.00,41.00,33.80,75.33,290.00,13.00,0.00,29.74,M,10.00,M,BKN,M,M,M,5500.00,M,M,M,M,M,M,M,M,M,M,33.10,KRTS 290155Z AUTO 29013KT 10SM BKN055 05/01 A2974 RMK AO2,M
05U,2022-03-29 01:55,-116.0051,39.6042,1811.23,48.20,26.60,42.73,200.00,10.00,0.00,29.69,M,10.00,M,BKN,M,M,M,10000.00,M,M,M,M,M,M,M,M,M,M,43.28,K05U 290155Z AUTO 20010KT 10SM BKN100 09/M03 A2969 RMK A01,M
MEV,2022-03-29 01:55,-119.7500,38.9963,1441.42,44.60,33.80,65.61,20.00,14.00,0.00,29.71,M,1.50,24.00,SCT,BKN,OVC,M,1000.00,2400.00,6000.00,M,-RA HZ,M,M,M,M,M,M,37.40,KMEV 290155Z AUTO 02014G24KT 1 1/2SM -RA HZ SCT010 BKN024 OVC060 07/01 A2971 RMK AO2 VIS 3/4V5,M
BAM,2022-03-29 01:55,-116.8743,40.5990,1382.36,55.40,32.00,40.84,340.00,13.00,0.00,29.63,M,10.00,18.00,OVC,M,M,M,10000.00,M,M,M,M,M,M,M,M,M,M,55.40,KBAM 290155Z AUTO 34013G18KT 10SM OVC100 13/00 A2963 RMK AO1,M
HTH,2022-03-29 01:55,-118.6315,38.5448,1282.89,51.80,26.60,37.38,140.00,10.00,0.00,29.67,M,10.00,M,FEW,FEW,BKN,M,6000.00,7000.00,8500.00,M,M,M,M,M,M,M,M,51.80,KHTH 290155Z AUTO 14010KT 10SM FEW060 FEW070 BKN085 11/M03 A2967 RMK A01,M
HND,2022-03-29 01:56,-115.1344,35.9729,742.79,56.00,46.00,69.30,250.00,12.00,T,29.66,1004.90,6.00,35.00,FEW,BKN,OVC,M,3200.00,6500.00,9000.00,M,-RA,M,M,M,37.00,250.00,2022-03-29 01:25,55.90,KHND 290156Z 25012G35KT 6SM -RA FEW032 BKN065 OVC090 13/08 A2966 RMK AO2 PK WND 25037/0125 RAB20 SLP049 P0000 T01330078,M
EKO,2022-03-29 01:56,-115.7860,40.8242,1367.00,55.00,19.90,25.09,240.00,11.00,0.00,29.62,1000.10,10.00,M,BKN,M,M,M,10000.00,M,M,M,M,M,M,M,M,M,M,55.00,KEKO 290156Z AUTO 24011KT 10SM BKN100 13/M07 A2962 RMK AO2 SLP001 T01281067,M
WMC,2022-03-29 01:56,-117.8072,40.9019,1315.00,49.00,39.00,68.51,350.00,7.00,0.00,29.66,1003.00,10.00,M,CLR,M,M,M,M,M,M,M,M,M,M,M,M,M,M,45.38,KWMC 290156Z AUTO 35007KT 10SM CLR 09/04 A2966 RMK AO2 SLP030 T00940039,M
TPH,2022-03-29 01:56,-117.0904,38.0505,1654.00,40.00,34.00,79.25,30.00,12.00,0.00,29.71,1004.30,10.00,M,FEW,BKN,M,M,3400.00,11000.00,M,M,M,M,M,M,M,M,M,32.06,KTPH 290156Z AUTO 03012KT 10SM FEW034 BKN110 04/01 A2971 RMK AO2 SLP043 T00440011,M
LAS,2022-03-29 01:56,-115.1634,36.0719,663.00,57.00,48.00,71.81,240.00,17.00,T,29.66,1003.10,10.00,26.00,SCT,BKN,BKN,OVC,7000.00,11000.00,15000.00,22000.00,-RA,M,M,M,39.00,240.00,2022-03-29 01:28,57.00,KLAS 290156Z 24017G26KT 10SM -RA SCT070 BKN110 BKN150 OVC220 14/09 A2966 RMK AO2 PK WND 24039/0128 LTG DSNT N RAB25 SLP031 P0000 T01390089,M
NFL,2022-03-29 01:56,-118.7010,39.4166,1199.00,58.00,21.90,24.59,290.00,4.00,0.00,29.63,1001.90,10.00,M,SCT,BKN,BKN,M,6000.00,12000.00,25000.00,M,M,M,M,M,M,M,M,57.90,KNFL 290156Z 29004KT 10SM SCT060 BKN120 BKN250 14/M06 A2963 RMK AO2 SLP019 SH VC N T01441056,M
LSV,2022-03-29 01:57,-115.0343,36.2362,570.00,66.20,39.20,37.03,180.00,24.00,0.00,29.62,1001.50,9.00,34.00,BKN,M,M,M,9000.00,M,M,M,-RA,M,M,M,M,M,M,66.20,KLSV 290157Z 18024G34KT 9SM -RA BKN090 19/04 A2962 RMK RAB57 SLP015 $,M
INS,2022-03-29 01:58,-115.6733,36.5872,955.00,58.00,36.00,43.95,250.00,27.00,0.00,29.64,1000.70,10.00,32.00,BKN,OVC,M,M,8500.00,10000.00,M,M,M,M,M,M,36.00,270.00,2022-03-29 01:49,57.90,KINS 290158Z AUTO 25027G32KT 10SM BKN085 OVC100 14/02 A2964 RMK AO2 PK WND 27036/49 PRESRR SLP007 T01440023 $,M
LSV,2022-03-29 01:59,-115.0343,36.2362,570.00,65.70,38.70,36.95,190.00,31.00,T,29.62,1001.50,8.00,38.00,BKN,M,M,M,8000.00,M,M,M,-RA,M,M,M,M,M,M,65.70,KLSV 290159Z 19031G38KT 8SM -RA BKN080 19/04 A2962 RMK RAB57 SLP015 P0000 T01870037 $,M
INS,2022-03-29 02:02,-115.6733,36.5872,955.00,57.20,35.60,44.19,240.00,28.00,0.00,29.65,1001.00,10.00,32.00,FEW,OVC,M,M,5500.00,8500.00,M,M,-RA,M,M,M,M,M,M,57.20,KINS 290202Z AUTO 24028G32KT 10SM -RA FEW055 OVC085 14/02 A2965 RMK AO2 RAB02 SLP010 $,M
05U,2022-03-29 02:10,-116.0051,39.6042,1811.23,46.40,28.40,49.24,170.00,13.00,0.00,29.70,M,10.00,21.00,BKN,M,M,M,9500.00,M,M,M,M,M,M,M,M,M,M,40.02,K05U 290210Z AUTO 17013G21KT 10SM BKN095 08/M02 A2970 RMK A01,M
BAM,2022-03-29 02:15,-116.8743,40.5990,1382.36,53.60,32.00,43.61,350.00,9.00,0.00,29.64,M,10.00,M,OVC,M,M,M,10000.00,M,M,M,M,M,M,M,M,M,M,53.60,KBAM 290215Z AUTO 35009KT 10SM OVC100 12/00 A2964 RMK AO1,M
BVU,2022-03-29 02:15,-114.8611,35.9475,671.00,64.40,33.80,31.85,230.00,16.00,0.00,29.63,M,10.00,M,FEW,SCT,OVC,M,6000.00,7500.00,9500.00,M,M,M,M,M,M,M,M,64.40,KBVU 290215Z AUTO 23016KT 10SM FEW060 SCT075 OVC095 18/01 A2963 RMK AO2,M
CXP,2022-03-29 02:15,-119.7326,39.1923,1431.00,50.00,30.20,46.31,320.00,11.00,0.00,29.71,M,10.00,18.00,SCT,BKN,OVC,M,4200.00,4800.00,7000.00,M,M,M,M,M,M,M,M,50.00,KCXP 290215Z AUTO 32011G18KT 290V350 10SM SCT042 BKN048 OVC070 10/M01 A2971 RMK AO2,M
RTS,2022-03-29 02:15,-119.8764,39.6682,1539.00,41.00,32.00,70.08,290.00,14.00,0.00,29.75,M,10.00,M,BKN,BKN,M,M,5500.00,12000.00,M,M,M,M,M,M,M,M,M,32.76,KRTS 290215Z AUTO 29014KT 10SM BKN055 BKN120 05/00 A2975 RMK AO2,M
MEV,2022-03-29 02:15,-119.7500,38.9963,1441.42,44.60,33.80,65.61,20.00,9.00,0.00,29.71,M,3.00,23.00,FEW,SCT,BKN,M,400.00,1100.00,2200.00,M,-RA HZ,M,M,M,M,M,M,39.18,KMEV 290215Z AUTO 02009G23KT 3SM -RA HZ FEW004 SCT011 BKN022 07/01 A2971 RMK AO2,M
TMT,2022-03-29 02:15,-117.1971,39.4643,1749.34,44.20,29.10,55.09,170.00,14.00,0.00,29.70,M,10.00,22.00,SCT,OVC,M,M,4300.00,5500.00,M,M,M,M,M,M,M,M,M,36.89,KTMT 290215Z AUTO 17014G22KT 10SM SCT043 OVC055 07/M02 A2970 RMK AO2 T00681016,M
HTH,2022-03-29 02:15,-118.6315,38.5448,1282.89,50.00,28.40,43.03,150.00,13.00,0.00,29.68,M,10.00,M,BKN,OVC,M,M,7000.00,8000.00,M,M,M,M,M,M,M,M,M,50.00,KHTH 290215Z AUTO 15013KT 10SM BKN070 OVC080 10/M02 A2968 RMK A01,M
INS,2022-03-29 02:19,-115.6733,36.5872,955.00,53.60,41.00,62.23,240.00,19.00,0.00,29.69,1002.60,9.00,27.00,FEW,SCT,SCT,OVC,3600.00,4300.00,5500.00,7500.00,-RA,M,M,M,M,M,M,53.60,KINS 290219Z AUTO 24019G27KT 9SM -RA FEW036 SCT043 SCT055 OVC075 12/05 A2969 RMK AO2 RAB02 PRESRR SLP026 $,M
INS,2022-03-29 02:20,-115.6733,36.5872,955.00,53.60,41.00,62.23,240.00,18.00,0.00,29.69,1002.60,9.00,27.00,FEW,SCT,SCT,BKN,400.00,3700.00,4400.00,5500.00,-RA,M,M,M,M,M,M,53.60,KINS 290220Z AUTO 24018G27KT 9SM -RA FEW004 SCT037 SCT044 BKN055 OVC075 12/05 A2969 RMK AO2 RAB02 SLP026 $,M
BVU,2022-03-29 02:35,-114.8611,35.9475,671.00,62.60,37.40,39.14,230.00,22.00,0.00,29.65,M,10.00,27.00,FEW,BKN,OVC,M,5500.00,7500.00,9000.00,M,M,M,M,M,M,M,M,62.60,KBVU 290235Z AUTO 23022G27KT 10SM FEW055 BKN075 OVC090 17/03 A2965 RMK AO2,M
CXP,2022-03-29 02:35,-119.7326,39.1923,1431.00,48.20,30.20,49.53,320.00,13.00,0.00,29.71,M,10.00,M,SCT,SCT,OVC,M,4600.00,6000.00,7000.00,M,M,M,M,M,M,M,M,42.32,KCXP 290235Z AUTO 32013KT 10SM SCT046 SCT060 OVC070 09/M01 A2971 RMK AO2,M
RTS,2022-03-29 02:35,-119.8764,39.6682,1539.00,41.00,32.00,70.08,290.00,8.00,0.00,29.75,M,10.00,13.00,FEW,BKN,OVC,M,6000.00,7000.00,12000.00,M,M,M,M,M,M,M,M,35.20,KRTS 290235Z AUTO 29008G13KT 10SM FEW060 BKN070 OVC120 05/00 A2975 RMK AO2,M
05U,2022-03-29 02:35,-116.0051,39.6042,1811.23,46.40,26.60,45.73,210.00,14.00,0.00,29.71,M,10.00,20.00,FEW,SCT,BKN,M,6000.00,7000.00,8000.00,M,M,M,M,M,M,M,M,39.72,K05U 290235Z AUTO 21014G20KT 10SM FEW060 SCT070 BKN080 08/M03 A2971 RMK A01,M
MEV,2022-03-29 02:35,-119.7500,38.9963,1441.42,42.80,35.60,75.50,360.00,9.00,0.00,29.74,M,1.75,19.00,BKN,BKN,OVC,M,400.00,1000.00,2200.00,M,-RA HZ,M,M,M,M,M,M,36.94,KMEV 290235Z AUTO 36009G19KT 340V050 1 3/4SM -RA HZ BKN004 BKN010 OVC022 06/02 A2974 RMK AO2 VIS 3/4V5,M
TMT,2022-03-29 02:35,-117.1971,39.4643,1749.34,43.70,29.50,57.08,180.00,8.00,0.00,29.70,M,10.00,M,SCT,BKN,OVC,M,4300.00,5500.00,7000.00,M,M,M,M,M,M,M,M,38.53,KTMT 290235Z AUTO 18008KT 10SM SCT043 BKN055 OVC070 07/M01 A2970 RMK AO2 T00651014,M
BAM,2022-03-29 02:35,-116.8743,40.5990,1382.36,53.60,32.00,43.61,350.00,15.00,0.00,29.65,M,10.00,M,OVC,M,M,M,10000.00,M,M,M,M,M,M,M,M,M,M,53.60,KBAM 290235Z AUTO 35015KT 10SM OVC100 12/00 A2965 RMK AO1,M
HTH,2022-03-29 02:35,-118.6315,38.5448,1282.89,48.20,30.20,49.53,130.00,15.00,0.00,29.68,M,10.00,M,SCT,SCT,M,M,7000.00,9000.00,M,M,M,M,M,M,M,M,M,41.78,KHTH 290235Z AUTO 13015KT 10SM SCT070 SCT090 09/M01 A2968 RMK A01,M
INS,2022-03-29 02:40,-115.6733,36.5872,955.00,51.80,41.00,66.48,240.00,20.00,0.00,29.70,1002.90,10.00,28.00,FEW,FEW,SCT,BKN,500.00,1100.00,3000.00,3800.00,-RA,M,M,M,M,M,M,51.80,KINS 290240Z AUTO 24020G28KT 10SM -RA FEW005 FEW011 SCT030 BKN038 BKN045 OVC060 11/05 A2970 RMK AO2 RAB02 SLP029 $,M
INS,2022-03-29 02:50,-115.6733,36.5872,955.00,50.00,39.20,66.27,240.00,13.00,0.00,29.70,1003.10,9.00,30.00,FEW,SCT,SCT,BKN,400.00,1000.00,3600.00,4300.00,-RA,M,M,M,M,M,M,50.00,KINS 290250Z AUTO 24013G30KT 9SM -RA FEW004 SCT010 SCT036 BKN043 OVC055 10/04 A2970 RMK AO2 RAB02 SLP031 $,M
05U,2022-03-29 02:50,-116.0051,39.6042,1811.23,44.60,28.40,52.72,200.00,14.00,0.00,29.72,M,10.00,M,BKN,OVC,M,M,7500.00,9000.00,M,M,M,M,M,M,M,M,M,37.40,K05U 290250Z AUTO 20014KT 10SM BKN075 OVC090 07/M02 A2972 RMK A01,M
P68,2022-03-29 02:53,-116.0056,39.6014,1993.00,45.00,30.00,55.43,200.00,15.00,0.00,29.69,1001.20,M,M,M,M,M,M,M,M,M,M,M,M,M,M,28.00,160.00,2022-03-29 01:59,37.63,KP68 290253Z AUTO 20015KT 07/M01 A2969 RMK AO1 PK WND 16028/0159 SLP012 T00721011 53011,M
VGT,2022-03-29 02:53,-115.1933,36.2111,667.00,59.00,45.00,59.67,210.00,12.00,T,29.66,1004.90,10.00,M,FEW,BKN,OVC,M,6000.00,8000.00,9500.00,M,-RA,M,M,M,27.00,220.00,2022-03-29 02:00,59.00,KVGT 290253Z 21012KT 10SM -RA FEW060 BKN080 OVC095 15/07 A2966 RMK AO2 PK WND 22027/0200 SLP049 P0000 60000 T01500072 51041,M
LOL,2022-03-29 02:53,-118.5701,40.0684,1192.43,52.00,32.00,46.25,40.00,11.00,0.00,29.66,1003.10,10.00,M,FEW,M,M,M,10000.00,M,M,M,M,M,M,M,M,M,M,52.00,KLOL 290253Z AUTO 04011KT 10SM FEW100 11/00 A2966 RMK AO2 SLP031 T01110000 53009,M
ELY,2022-03-29 02:53,-114.8453,39.2950,1909.00,46.00,23.00,39.96,220.00,7.00,0.00,29.69,1000.40,10.00,M,CLR,M,M,M,M,M,M,M,M,M,M,M,M,M,M,41.84,KELY 290253Z AUTO 22007KT 10SM CLR 08/M05 A2969 RMK AO2 SLP004 T00781050 53007,M
MEV,2022-03-29 02:55,-119.7500,38.9963,1441.42,41.00,37.40,86.89,220.00,13.00,0.02,29.75,M,3.00,M,SCT,BKN,OVC,M,400.00,2000.00,2600.00,M,-RA BR,M,M,M,M,M,M,33.10,KMEV 290255Z AUTO 22013KT 3SM -RA BR SCT004 BKN020 OVC026 05/03 A2975 RMK AO2 P0002,M
INS,2022-03-29 02:55,-115.6733,36.5872,955.00,50.00,37.40,61.76,240.00,13.00,0.00,29.70,1003.10,10.00,M,FEW,SCT,SCT,BKN,600.00,3600.00,4300.00,5000.00,-RA,M,M,M,M,M,M,50.00,KINS 290255Z AUTO 24013KT 10SM -RA FEW006 SCT036 SCT043 BKN050 BKN060 OVC080 10/03 A2970 RMK AO2 RAB02 SLP031 $,M
BVU,2022-03-29 02:55,-114.8611,35.9475,671.00,60.80,41.00,48.00,230.00,23.00,0.00,29.68,M,7.00,35.00,FEW,SCT,OVC,M,300.00,6000.00,7000.00,M,M,M,M,M,M,M,M,60.80,KBVU 290255Z AUTO 23023G35KT 7SM FEW003 SCT060 OVC070 16/05 A2968 RMK AO2,M
CXP,2022-03-29 02:55,-119.7326,39.1923,1431.00,48.20,30.20,49.53,330.00,12.00,0.00,29.72,M,10.00,M,OVC,M,M,M,7000.00,M,M,M,M,M,M,M,M,M,M,42.62,KCXP 290255Z AUTO 33012KT 10SM OVC070 09/M01 A2972 RMK AO2,M
RNO,2022-03-29 02:55,-119.7711,39.4839,1341.00,50.00,32.00,49.81,310.00,8.00,0.00,29.73,1004.60,10.00,M,FEW,BKN,BKN,BKN,4500.00,6000.00,9000.00,14000.00,M,M,M,M,M,M,M,50.00,KRNO 290255Z 31008KT 10SM FEW045 BKN060 BKN090 BKN140 BKN200 10/00 A2973 RMK AO2 SLP046 VIRGA CLDS TPG MTNS DSNT S THRU W T01000000 53020,M
LSV,2022-03-29 02:55,-115.0343,36.2362,570.00,62.60,44.60,51.72,210.00,12.00,0.00,29.67,1003.20,10.00,M,FEW,BKN,BKN,M,6000.00,7500.00,9000.00,M,M,M,M,M,M,M,M,62.60,KLSV 290255Z 21012KT 10SM FEW060 BKN075 BKN090 17/07 A2967 RMK RAB57E56 SLP032 $,M
RTS,2022-03-29 02:55,-119.8764,39.6682,1539.00,41.00,32.00,70.08,290.00,10.00,0.00,29.76,M,10.00,M,BKN,OVC,M,M,6000.00,7000.00,M,M,M,M,M,M,M,M,M,34.25,KRTS 290255Z AUTO 29010KT 10SM BKN060 OVC070 05/00 A2976 RMK AO2,M
BAM,2022-03-29 02:55,-116.8743,40.5990,1382.36,51.80,32.00,46.59,330.00,14.00,0.00,29.65,M,10.00,M,BKN,BKN,M,M,9000.00,12000.00,M,M,M,M,M,M,M,M,M,51.80,KBAM 290255Z AUTO 33014KT 10SM BKN090 BKN120 11/00 A2965 RMK AO1,M
HTH,2022-03-29 02:55,-118.6315,38.5448,1282.89,48.20,28.40,46.02,140.00,13.00,0.00,29.69,M,10.00,18.00,BKN,M,M,M,10000.00,M,M,M,M,M,M,M,M,M,M,42.32,KHTH 290255Z AUTO 14013G18KT 10SM BKN100 09/M02 A2969 RMK A01,M
TMT,2022-03-29 02:55,-117.1971,39.4643,1749.34,44.00,27.90,52.65,160.00,9.00,0.00,29.71,M,10.00,M,OVC,M,M,M,6000.00,M,M,M,M,M,M,M,M,M,M,38.56,KTMT 290255Z AUTO 16009KT 10SM OVC060 07/M02 A2971 RMK AO2 T00671023,M
LSV,2022-03-29 02:56,-115.0343,36.2362,570.00,62.00,45.50,54.86,210.00,13.00,T,29.67,1003.20,10.00,M,BKN,BKN,M,M,7000.00,9000.00,M,M,M,M,M,M,41.00,190.00,2022-03-29 01:59,61.90,KLSV 290256Z 21013KT 10SM BKN070 BKN090 17/08 A2967 RMK PK WND 19041/0159 RAB0155E0256 SLP032 P0000 60000 T01660075 52043 $,M
LAS,2022-03-29 02:56,-115.1634,36.0719,663.00,56.00,47.00,71.69,190.00,12.00,0.01,29.69,1004.10,7.00,21.00,SCT,BKN,BKN,OVC,7000.00,11000.00,15000.00,22000.00,-RA,M,M,M,M,M,M,55.90,KLAS 290256Z 19012G21KT 7SM -RA SCT070 BKN110 BKN150 OVC220 13/08 A2969 RMK AO2 RAE11B35 SLP041 P0001 60001 T01330083 51048,M
TPH,2022-03-29 02:56,-117.0904,38.0505,1654.00,40.00,33.00,76.44,340.00,10.00,0.00,29.71,1003.70,10.00,M,FEW,FEW,M,M,10000.00,12000.00,M,M,M,M,M,M,M,M,M,32.87,KTPH 290256Z AUTO 34010KT 10SM FEW100 FEW120 04/01 A2971 RMK AO2 SLP037 60000 T00440006 51005,M
EKO,2022-03-29 02:56,-115.7860,40.8242,1367.00,54.00,21.90,28.33,220.00,9.00,0.00,29.64,1001.00,10.00,M,OVC,M,M,M,10000.00,M,M,M,M,M,M,M,M,M,M,54.00,KEKO 290256Z AUTO 22009KT 10SM OVC100 12/M06 A2964 RMK AO2 SLP010 T01221056 53017,M
HND,2022-03-29 02:56,-115.1344,35.9729,742.79,54.00,45.00,71.50,210.00,18.00,T,29.70,1006.20,10.00,29.00,BKN,OVC,M,M,7000.00,8500.00,M,M,-RA,M,M,M,29.00,200.00,2022-03-29 02:52,54.00,KHND 290256Z 21018G29KT 10SM -RA BKN070 OVC085 12/07 A2970 RMK AO2 PK WND 20029/0252 RAE06B44 SLP062 P0000 60000 T01220072 51038,M
WMC,2022-03-29 02:56,-117.8072,40.9019,1315.00,46.00,38.00,73.18,300.00,5.00,0.00,29.69,1003.90,10.00,M,CLR,M,M,M,M,M,M,M,M,M,M,M,M,M,M,43.02,KWMC 290256Z AUTO 30005KT 10SM CLR 08/03 A2969 RMK AO2 SLP039 T00780033 53018,M
NFL,2022-03-29 02:56,-118.7010,39.4166,1199.00,57.00,27.00,31.43,290.00,8.00,0.00,29.65,1002.50,10.00,M,SCT,BKN,BKN,M,6000.00,12000.00,25000.00,M,M,M,M,M,M,M,M,57.00,KNFL 290256Z 29008KT 10SM SCT060 BKN120 BKN250 14/M03 A2965 RMK AO2 SLP025 T01391028 53010,M
INS,2022-03-29 02:58,-115.6733,36.5872,955.00,50.50,36.30,58.05,230.00,10.00,0.02,29.69,1002.80,10.00,M,FEW,FEW,SCT,BKN,600.00,3000.00,3900.00,5000.00,-RA,M,M,M,34.00,250.00,2022-03-29 02:11,50.50,KINS 290258Z AUTO 23010KT 10SM -RA FEW006 FEW030 SCT039 BKN050 OVC065 10/02 A2969 RMK AO2 PK WND 25034/11 RAB02 SLP028 P0002 60002 T01030024 52034 $,M
INS,2022-03-29 02:59,-115.6733,36.5872,955.00,50.00,35.60,57.52,230.00,9.00,0.00,29.69,1002.80,10.00,M,FEW,FEW,SCT,BKN,600.00,3000.00,3900.00,5000.00,M,M,M,M,M,M,M,50.00,KINS 290259Z AUTO 23009KT 10SM FEW006 FEW030 SCT039 BKN050 BKN060 OVC080 10/02 A2969 RMK AO2 RAE58 SLP028 $,M
LOL,2022-03-29 03:00,-118.5701,40.0684,1192.43,52.00,32.00,46.25,40.00,9.00,0.00,29.66,M,10.00,M,FEW,M,M,M,10000.00,M,M,M,M,M,M,M,M,M,M,52.00,KLOL 290300Z AUTO 04009KT 10SM FEW100 11/00 A2966 RMK AO2 WSHFT 0240 T01110000,M
RTS,2022-03-29 03:15,-119.8764,39.6682,1539.00,41.00,32.00,70.08,290.00,14.00,0.00,29.76,M,10.00,M,OVC,M,M,M,5500.00,M,M,M,M,M,M,M,M,M,M,32.76,KRTS 290315Z AUTO 29014KT 10SM OVC055 05/M00 A2976 RMK AO2,M
BVU,2022-03-29 03:15,-114.8611,35.9475,671.00,57.20,44.60,62.69,240.00,22.00,0.00,29.70,M,10.00,M,SCT,BKN,OVC,M,3500.00,6500.00,7500.00,M,-DZ,M,M,M,M,M,M,57.20,KBVU 290315Z AUTO 24022KT 10SM -DZ SCT035 BKN065 OVC075 14/07 A2970 RMK AO2,M
MEV,2022-03-29 03:15,-119.7500,38.9963,1441.42,39.20,37.40,93.19,190.00,13.00,0.00,29.75,M,10.00,M,FEW,BKN,OVC,M,400.00,2200.00,3200.00,M,-RA,M,M,M,M,M,M,30.79,KMEV 290315Z AUTO 19013KT 10SM -RA FEW004 BKN022 OVC032 04/03 A2975 RMK AO2,M
05U,2022-03-29 03:15,-116.0051,39.6042,1811.23,44.60,30.20,56.74,190.00,10.00,0.00,29.72,M,10.00,M,SCT,BKN,OVC,M,7500.00,9000.00,12000.00,M,M,M,M,M,M,M,M,38.77,K05U 290315Z AUTO 19010KT 10SM SCT075 BKN090 OVC120 07/M01 A2972 RMK A01,M
CXP,2022-03-29 03:15,-119.7326,39.1923,1431.00,48.20,30.20,49.53,130.00,9.00,0.00,29.75,M,10.00,15.00,OVC,M,M,M,6500.00,M,M,M,M,M,M,M,M,M,M,43.66,KCXP 290315Z AUTO 13009G15KT 10SM OVC065 09/M01 A2975 RMK AO2,M
TMT,2022-03-29 03:15,-117.1971,39.4643,1749.34,44.00,28.00,53.27,190.00,7.00,0.00,29.72,M,10.00,M,SCT,OVC,M,M,6000.00,7000.00,M,M,M,M,M,M,M,M,M,39.28,KTMT 290315Z AUTO 19007KT 10SM SCT060 OVC070 07/M02 A2972 RMK AO2 T00661022,M
HTH,2022-03-29 03:15,-118.6315,38.5448,1282.89,48.20,28.40,46.02,140.00,10.00,0.00,29.70,M,10.00,M,SCT,OVC,M,M,7000.00,10000.00,M,M,M,M,M,M,M,M,M,43.28,KHTH 290315Z AUTO 14010KT 10SM SCT070 OVC100 09/M02 A2970 RMK A01,M
BAM,2022-03-29 03:15,-116.8743,40.5990,1382.36,51.80,33.80,50.08,330.00,14.00,0.00,29.67,M,10.00,M,SCT,BKN,M,M,9000.00,11000.00,M,M,M,M,M,M,M,M,M,51.80,KBAM 290315Z AUTO 33014KT 10SM SCT090 BKN110 11/01 A2967 RMK AO1,M
05U,2022-03-29 03:25,-116.0051,39.6042,1811.23,42.80,30.20,60.79,190.00,8.00,0.00,29.72,M,10.00,M,FEW,SCT,BKN,M,7500.00,9000.00,12000.00,M,M,M,M,M,M,M,M,37.42,K05U 290325Z AUTO 19008KT 10SM FEW075 SCT090 BKN120 06/M01 A2972 RMK A01,M
INS,2022-03-29 03:27,-115.6733,36.5872,955.00,53.60,32.00,43.61,220.00,14.00,0.00,29.69,1002.60,10.00,19.00,OVC,M,M,M,9000.00,M,M,M,-RA,M,M,M,M,M,M,53.60,KINS 290327Z AUTO 22014G19KT 10SM -RA OVC090 12/00 A2969 RMK AO2 RAE0258RAB27 SLP026 $,M
LSV,2022-03-29 03:31,-115.0343,36.2362,570.00,57.20,46.40,67.12,230.00,18.00,0.00,29.69,1004.10,10.00,26.00,FEW,FEW,BKN,M,3700.00,4500.00,5500.00,M,-RA,M,M,M,M,M,M,57.20,KLSV 290331Z 23018G26KT 10SM -RA FEW037 FEW045 BKN055 14/08 A2969 RMK RAB31 SLP041 $,M
HTH,2022-03-29 03:35,-118.6315,38.5448,1282.89,48.20,28.40,46.02,140.00,11.00,0.00,29.71,M,10.00,M,FEW,SCT,BKN,M,5500.00,6500.00,7500.00,M,M,M,M,M,M,M,M,42.94,KHTH 290335Z AUTO 14011KT 10SM FEW055 SCT065 BKN075 09/M02 A2971 RMK A01,M
BAM,2022-03-29 03:35,-116.8743,40.5990,1382.36,50.00,33.80,53.54,330.00,12.00,0.00,29.68,M,10.00,M,BKN,OVC,M,M,10000.00,12000.00,M,M,M,M,M,M,M,M,M,50.00,KBAM 290335Z AUTO 33012KT 10SM BKN100 OVC120 10/01 A2968 RMK AO1,M
MEV,2022-03-29 03:35,-119.7500,38.9963,1441.42,39.20,37.40,93.19,150.00,9.00,0.00,29.77,M,5.00,M,FEW,FEW,OVC,M,400.00,1100.00,2200.00,M,-RA BR,M,M,M,M,M,M,32.47,KMEV 290335Z AUTO 15009KT 5SM -RA BR FEW004 FEW011 OVC022 04/03 A2977 RMK AO2,M
RTS,2022-03-29 03:35,-119.8764,39.6682,1539.00,41.00,32.00,70.08,290.00,11.00,0.00,29.77,M,10.00,18.00,BKN,BKN,M,M,6000.00,12000.00,M,M,M,M,M,M,M,M,M,33.84,KRTS 290335Z AUTO 29011G18KT 10SM BKN060 BKN120 05/M00 A2977 RMK AO2,M
CXP,2022-03-29 03:35,-119.7326,39.1923,1431.00,44.60,33.80,65.61,M,3.00,0.00,29.76,M,10.00,19.00,BKN,BKN,OVC,M,3900.00,4800.00,7000.00,M,M,M,M,M,M,M,M,43.09,KCXP 290335Z AUTO VRB03G19KT 10SM BKN039 BKN048 OVC070 07/01 A2976 RMK AO2,M
BVU,2022-03-29 03:35,-114.8611,35.9475,671.00,55.40,46.40,71.64,250.00,12.00,0.00,29.71,M,9.00,M,SCT,BKN,OVC,M,3300.00,5500.00,6500.00,M,-RA,M,M,M,M,M,M,55.40,KBVU 290335Z AUTO 25012KT 9SM -RA SCT033 BKN055 OVC065 13/08 A2971 RMK AO2,M
TMT,2022-03-29 03:35,-117.1971,39.4643,1749.34,43.50,28.80,55.89,210.00,6.00,0.00,29.73,M,10.00,M,OVC,M,M,M,8000.00,M,M,M,M,M,M,M,M,M,M,39.38,KTMT 290335Z AUTO 21006KT 10SM OVC080 06/M02 A2973 RMK AO2 T00641018,M
05U,2022-03-29 03:50,-116.0051,39.6042,1811.23,41.00,28.40,60.54,0.00,0.00,0.00,29.74,M,10.00,M,FEW,M,M,M,7000.00,M,M,M,M,M,M,M,M,M,M,41.00,K05U 290350Z AUTO 00000KT 10SM FEW070 05/M02 A2974 RMK A01,M
P68,2022-03-29 03:53,-116.0056,39.6014,1993.00,41.00,28.90,61.79,M,3.00,0.00,29.71,1002.40,M,M,M,M,M,M,M,M,M,M,M,M,M,M,M,M,M,38.98,KP68 290353Z AUTO VRB03KT 05/M02 A2971 RMK AO1 SLP024 T00501017,M
ELY,2022-03-29 03:53,-114.8453,39.2950,1909.00,41.00,21.00,44.47,170.00,6.00,0.00,29.71,1000.60,10.00,M,CLR,M,M,M,M,M,M,M,M,M,M,M,M,M,M,36.37,KELY 290353Z AUTO 17006KT 10SM CLR 05/M06 A2971 RMK AO2 SLP006 T00501061,M
VGT,2022-03-29 03:53,-115.1933,36.2111,667.00,56.00,49.00,77.28,180.00,12.00,0.01,29.72,1006.80,10.00,M,OVC,M,M,M,6000.00,M,M,M,-RA,M,M,M,M,M,M,55.90,KVGT 290353Z AUTO 18012KT 10SM -RA OVC060 13/09 A2972 RMK AO2 SLP068 P0001 T01330094,M
DRA,2022-03-29 03:53,-116.0278,36.6206,1009.00,53.00,32.00,44.42,M,5.00,0.00,29.68,1002.10,10.00,M,FEW,SCT,OVC,M,7500.00,9000.00,11000.00,M,M,M,M,M,M,M,M,53.10,KDRA 290353Z AUTO VRB05KT 10SM FEW075 SCT090 OVC110 12/00 A2968 RMK AO2 SLP021 T01170000,M
LOL,2022-03-29 03:53,-118.5701,40.0684,1192.43,50.00,34.00,53.97,20.00,6.00,0.00,29.69,1004.10,10.00,M,CLR,M,M,M,M,M,M,M,M,M,M,M,M,M,M,50.00,KLOL 290353Z AUTO 02006KT 10SM CLR 10/01 A2969 RMK AO2 WSHFT 0240 SLP041 T01000011,M
CXP,2022-03-29 03:55,-119.7326,39.1923,1431.00,42.80,35.60,75.50,M,4.00,0.00,29.77,M,7.00,13.00,OVC,M,M,M,3800.00,M,M,M,M,M,M,M,M,M,M,40.03,KCXP 290355Z AUTO VRB04G13KT 7SM OVC038 06/02 A2977 RMK AO2,M
RNO,2022-03-29 03:55,-119.7711,39.4839,1341.00,49.00,30.90,49.63,350.00,5.00,0.00,29.76,1005.70,10.00,M,SCT,BKN,OVC,M,6000.00,8000.00,12000.00,M,M,M,M,M,M,M,M,46.47,KRNO 290355Z 35005KT 10SM SCT060 BKN080 OVC120 09/M01 A2976 RMK AO2 SLP057 T00941006,M
RTS,2022-03-29 03:55,-119.8764,39.6682,1539.00,41.00,32.00,70.08,290.00,12.00,0.00,29.77,M,10.00,M,OVC,M,M,M,6500.00,M,M,M,M,M,M,M,M,M,M,33.46,KRTS 290355Z AUTO 29012KT 10SM OVC065 05/00 A2977 RMK AO2,M
BVU,2022-03-29 03:55,-114.8611,35.9475,671.00,55.40,46.40,71.64,240.00,8.00,0.00,29.71,M,9.00,M,FEW,SCT,OVC,M,3600.00,4400.00,6000.00,M,-RA,M,M,M,M,M,M,55.40,KBVU 290355Z AUTO 24008KT 9SM -RA FEW036 SCT044 OVC060 13/08 A2971 RMK AO2,M
TMT,2022-03-29 03:55,-117.1971,39.4643,1749.34,42.00,28.80,59.44,220.00,8.00,0.00,29.73,M,10.00,M,SCT,OVC,M,M,6000.00,7000.00,M,M,M,M,M,M,M,M,M,36.31,KTMT 290355Z AUTO 22008KT 10SM SCT060 OVC070 06/M02 A2973 RMK AO2 T00551018,M
MEV,2022-03-29 03:55,-119.7500,38.9963,1441.42,39.20,37.40,93.19,110.00,8.00,0.03,29.78,M,3.00,M,FEW,BKN,OVC,M,1100.00,1800.00,2400.00,M,-RA BR,M,M,M,M,M,M,32.98,KMEV 290355Z AUTO 11008KT 3SM -RA BR FEW011 BKN018 OVC024 04/03 A2978 RMK AO2 P0003,M
BAM,2022-03-29 03:55,-116.8743,40.5990,1382.36,50.00,33.80,53.54,330.00,11.00,0.00,29.68,M,10.00,M,OVC,M,M,M,10000.00,M,M,M,M,M,M,M,M,M,M,50.00,KBAM 290355Z AUTO 33011KT 10SM OVC100 10/01 A2968 RMK AO1,M
HTH,2022-03-29 03:55,-118.6315,38.5448,1282.89,46.40,28.40,49.24,170.00,9.00,0.00,29.72,M,10.00,M,SCT,OVC,M,M,6000.00,7000.00,M,M,M,M,M,M,M,M,M,41.42,KHTH 290355Z AUTO 17009KT 10SM SCT060 OVC070 08/M02 A2972 RMK A01,M
NFL,2022-03-29 03:56,-118.7010,39.4166,1199.00,54.00,28.90,37.89,270.00,10.00,0.00,29.69,1003.50,10.00,M,SCT,BKN,OVC,M,6000.00,12000.00,25000.00,M,M,M,M,M,M,M,M,54.00,KNFL 290356Z 27010KT 10SM SCT060 BKN120 OVC250 12/M02 A2969 RMK AO2 SLP035 T01221017,M
WMC,2022-03-29 03:56,-117.8072,40.9019,1315.00,42.00,36.00,78.80,230.00,4.00,0.00,29.71,1004.40,10.00,M,CLR,M,M,M,M,M,M,M,M,M,M,M,M,M,M,39.21,KWMC 290356Z AUTO 23004KT 10SM CLR 06/02 A2971 RMK AO2 SLP044 T00560022,M
EKO,2022-03-29 03:56,-115.7860,40.8242,1367.00,52.00,23.00,31.93,270.00,6.00,0.00,29.66,1001.70,10.00,M,OVC,M,M,M,9000.00,M,M,M,M,M,M,M,M,M,M,52.00,KEKO 290356Z AUTO 27006KT 10SM OVC090 11/M05 A2966 RMK AO2 SLP017 T01111050,M
HND,2022-03-29 03:56,-115.1344,35.9729,742.79,53.00,46.00,76.75,190.00,10.00,T,29.74,1007.70,10.00,M,SCT,OVC,M,M,4500.00,5000.00,M,M,M,M,M,M,M,M,M,53.10,KHND 290356Z AUTO 19010KT 10SM SCT045 OVC050 12/08 A2974 RMK AO2 RAE52 SLP077 P0000 T01170078,M
TPH,2022-03-29 03:56,-117.0904,38.0505,1654.00,37.00,33.00,85.64,350.00,6.00,0.00,29.72,1004.00,10.00,M,CLR,M,M,M,M,M,M,M,M,M,M,M,M,M,M,31.55,KTPH 290356Z AUTO 35006KT 10SM CLR 03/01 A2972 RMK AO2 SLP040 T00280006,M
LAS,2022-03-29 03:56,-115.1634,36.0719,663.00,54.00,48.00,80.07,190.00,8.00,0.07,29.73,1005.30,6.00,M,BKN,OVC,M,M,4400.00,5000.00,M,M,-RA,M,M,M,M,M,M,54.00,KLAS 290356Z 19008KT 6SM -RA BKN044 OVC050 12/09 A2973 RMK AO2 SLP053 P0007 T01220089,M
LSV,2022-03-29 03:57,-115.0343,36.2362,570.00,55.80,49.60,79.62,210.00,12.00,0.04,29.71,1004.80,10.00,M,FEW,OVC,M,M,4200.00,5500.00,M,M,-RA,M,M,M,28.00,210.00,2022-03-29 03:19,55.80,KLSV 290357Z 21012KT 10SM -RA FEW042 OVC055 13/10 A2971 RMK PK WND 21028/19 RAB31 SLP048 P0004 T01320098 $,M
INS,2022-03-29 03:58,-115.6733,36.5872,955.00,51.40,35.00,53.11,240.00,23.00,T,29.71,1003.30,10.00,30.00,OVC,M,M,M,6000.00,M,M,M,-RA,M,M,M,37.00,220.00,2022-03-29 03:48,51.40,KINS 290358Z AUTO 24023G30KT 10SM -RA OVC060 11/02 A2971 RMK AO2 PK WND 22037/48 RAE0258RAB27 SLP033 P0000 T01080016 $,M
05U,2022-03-29 04:10,-116.0051,39.6042,1811.23,41.00,30.20,65.16,0.00,0.00,0.00,29.74,M,10.00,M,SCT,SCT,M,M,5000.00,5500.00,M,M,M,M,M,M,M,M,M,41.00,K05U 290410Z AUTO 00000KT 10SM SCT050 SCT055 05/M01 A2974 RMK A01,M
BVU,2022-03-29 04:15,-114.8611,35.9475,671.00,55.40,48.20,76.66,160.00,5.00,0.00,29.72,M,10.00,M,SCT,OVC,M,M,4000.00,5500.00,M,M,M,M,M,M,M,M,M,55.40,KBVU 290415Z AUTO 16005KT 10SM SCT040 OVC055 13/09 A2972 RMK AO2,M
BAM,2022-03-29 04:15,-116.8743,40.5990,1382.36,50.00,33.80,53.54,320.00,10.00,0.00,29.69,M,10.00,M,OVC,M,M,M,9000.00,M,M,M,M,M,M,M,M,M,M,50.00,KBAM 290415Z AUTO 32010KT 10SM OVC090 10/01 A2969 RMK AO1,M
HTH,2022-03-29 04:15,-118.6315,38.5448,1282.89,46.40,28.40,49.24,150.00,8.00,0.00,29.73,M,10.00,M,FEW,BKN,OVC,M,6000.00,9500.00,12000.00,M,M,M,M,M,M,M,M,41.85,KHTH 290415Z AUTO 15008KT 10SM FEW060 BKN095 OVC120 08/M02 A2973 RMK A01,M
05U,2022-03-29 04:15,-116.0051,39.6042,1811.23,41.00,30.20,65.16,0.00,0.00,0.00,29.74,M,10.00,M,FEW,SCT,M,M,5000.00,5500.00,M,M,M,M,M,M,M,M,M,41.00,K05U 290415Z AUTO 00000KT 10SM FEW050 SCT055 05/M01 A2974 RMK A01,M
CXP,2022-03-29 04:15,-119.7326,39.1923,1431.00,41.00,37.40,86.89,0.00,0.00,0.00,29.79,M,10.00,11.00,SCT,BKN,OVC,M,3000.00,3600.00,5500.00,M,M,M,M,M,M,M,M,41.00,KCXP 290415Z AUTO 00000G11KT 10SM SCT030 BKN036 OVC055 05/03 A2979 RMK AO2,M
MEV,2022-03-29 04:15,-119.7500,38.9963,1441.42,39.20,37.40,93.19,140.00,4.00,0.00,29.79,M,6.00,M,FEW,BKN,OVC,M,700.00,1800.00,3900.00,M,-RA BR,M,M,M,M,M,M,35.83,KMEV 290415Z AUTO 14004KT 6SM -RA BR FEW007 BKN018 OVC039 04/03 A2979 RMK AO2,M
TMT,2022-03-29 04:15,-117.1971,39.4643,1749.34,39.40,28.20,63.90,210.00,6.00,0.00,29.74,M,10.00,M,SCT,SCT,SCT,M,6000.00,7000.00,10000.00,M,M,M,M,M,M,M,M,34.44,KTMT 290415Z AUTO 21006KT 10SM SCT060 SCT070 SCT100 04/M02 A2974 RMK AO2 T00411021,M
RTS,2022-03-29 04:15,-119.8764,39.6682,1539.00,41.00,32.00,70.08,290.00,11.00,0.00,29.78,M,10.00,M,BKN,M,M,M,6500.00,M,M,M,M,M,M,M,M,M,M,33.84,KRTS 290415Z AUTO 29011KT 10SM BKN065 05/00 A2978 RMK AO2,M
INS,2022-03-29 04:20,-115.6733,36.5872,955.00,50.00,35.60,57.52,220.00,7.00,0.00,29.71,1003.30,10.00,M,FEW,BKN,BKN,OVC,4400.00,5500.00,7000.00,10000.00,M,M,M,M,M,M,M,50.00,KINS 290420Z AUTO 22007KT 10SM FEW044 BKN055 BKN070 OVC100 10/02 A2971 RMK AO2 RAE20 SLP033 $,M
CXP,2022-03-29 04:30,-119.7326,39.1923,1431.00,41.00,35.60,80.93,0.00,0.00,0.00,29.79,M,10.00,M,FEW,BKN,OVC,M,1000.00,3500.00,6500.00,M,M,M,M,M,M,M,M,41.00,KCXP 290430Z AUTO 00000KT 10SM FEW010 BKN035 OVC065 05/02 A2979 RMK AO2,M
BAM,2022-03-29 04:35,-116.8743,40.5990,1382.36,50.00,33.80,53.54,50.00,6.00,0.00,29.71,M,10.00,M,OVC,M,M,M,8000.00,M,M,M,M,M,M,M,M,M,M,50.00,KBAM 290435Z AUTO 05006KT 10SM OVC080 10/01 A2971 RMK AO1,M
RTS,2022-03-29 04:35,-119.8764,39.6682,1539.00,41.00,32.00,70.08,290.00,9.00,0.00,29.79,M,10.00,15.00,FEW,M,M,M,6000.00,M,M,M,M,M,M,M,M,M,M,34.70,KRTS 290435Z AUTO 29009G15KT 10SM FEW060 05/00 A2979 RMK AO2,M
BVU,2022-03-29 04:35,-114.8611,35.9475,671.00,55.40,42.80,62.46,260.00,13.00,0.00,29.73,M,10.00,M,BKN,BKN,OVC,M,4300.00,5000.00,5500.00,M,M,M,M,M,M,M,M,55.40,KBVU 290435Z AUTO 26013KT 10SM BKN043 BKN050 OVC055 13/06 A2973 RMK AO2,M
MEV,2022-03-29 04:35,-119.7500,38.9963,1441.42,39.20,37.40,93.19,130.00,4.00,0.00,29.79,M,10.00,M,BKN,OVC,M,M,2800.00,4000.00,M,M,-RA,M,M,M,M,M,M,35.83,KMEV 290435Z AUTO 13004KT 10SM -RA BKN028 OVC040 04/03 A2979 RMK AO2,M
TMT,2022-03-29 04:35,-117.1971,39.4643,1749.34,37.20,28.00,69.08,200.00,6.00,0.00,29.74,M,10.00,M,SCT,M,M,M,10000.00,M,M,M,M,M,M,M,M,M,M,31.79,KTMT 290435Z AUTO 20006KT 10SM SCT100 03/M02 A2974 RMK AO2 T00291022,M
HTH,2022-03-29 04:35,-118.6315,38.5448,1282.89,46.40,30.20,53.00,130.00,6.00,0.00,29.73,M,10.00,M,OVC,M,M,M,9500.00,M,M,M,M,M,M,M,M,M,M,42.87,KHTH 290435Z AUTO 13006KT 10SM OVC095 08/M01 A2973 RMK A01,M
INS,2022-03-29 04:40,-115.6733,36.5872,955.00,51.80,37.40,57.77,330.00,5.00,0.00,29.71,1003.10,10.00,M,FEW,FEW,OVC,M,4600.00,6000.00,10000.00,M,M,M,M,M,M,M,M,51.80,KINS 290440Z AUTO 33005KT 10SM FEW046 FEW060 OVC100 11/03 A2971 RMK AO2 RAE20 SLP031 $,M
INS,2022-03-29 04:44,-115.6733,36.5872,955.00,50.00,39.20,66.27,340.00,4.00,0.00,29.71,1003.10,10.00,M,FEW,FEW,OVC,M,5000.00,6000.00,10000.00,M,-RA,M,M,M,M,M,M,50.00,KINS 290444Z AUTO 34004KT 10SM -RA FEW050 FEW060 OVC100 10/04 A2971 RMK AO2 RAE20RAB44 SLP031 $,M
05U,2022-03-29 04:50,-116.0051,39.6042,1811.23,37.40,30.20,74.98,0.00,0.00,0.00,29.75,M,10.00,M,CLR,M,M,M,M,M,M,M,M,M,M,M,M,M,M,37.40,K05U 290450Z AUTO 00000KT 10SM CLR 03/M01 A2975 RMK A01,M
ELY,2022-03-29 04:53,-114.8453,39.2950,1909.00,43.00,24.10,46.91,240.00,12.00,0.00,29.72,1000.30,10.00,M,SCT,M,M,M,9000.00,M,M,M,M,M,M,M,M,M,M,36.00,KELY 290453Z AUTO 24012KT 10SM SCT090 06/M04 A2972 RMK AO2 SLP003 T00611044,M
VGT,2022-03-29 04:53,-115.1933,36.2111,667.00,56.00,41.00,57.23,120.00,3.00,0.03,29.72,1006.60,9.00,M,BKN,OVC,M,M,4900.00,7500.00,M,M,RA,M,M,M,M,M,M,55.90,KVGT 290453Z AUTO 12003KT 9SM RA BKN049 OVC075 13/05 A2972 RMK AO2 SLP066 P0003 T01330050,M
LOL,2022-03-29 04:53,-118.5701,40.0684,1192.43,47.00,34.00,60.61,360.00,3.00,0.00,29.71,1004.80,10.00,M,SCT,M,M,M,9000.00,M,M,M,M,M,M,M,M,M,M,45.72,KLOL 290453Z AUTO 36003KT 10SM SCT090 08/01 A2971 RMK AO2 SLP048 T00830011,M
P68,2022-03-29 04:53,-116.0056,39.6014,1993.00,39.00,28.90,66.79,0.00,0.00,0.00,29.73,1003.00,M,M,M,M,M,M,M,M,M,M,M,M,M,M,M,M,M,39.00,KP68 290453Z AUTO 00000KT 04/M02 A2973 RMK AO1 SLP030 T00391017,M
DRA,2022-03-29 04:53,-116.0278,36.6206,1009.00,52.00,32.00,46.25,200.00,6.00,0.00,29.69,1002.40,10.00,M,CLR,M,M,M,M,M,M,M,M,M,M,M,M,M,M,52.00,KDRA 290453Z AUTO 20006KT 10SM CLR 11/00 A2969 RMK AO2 SLP024 T01110000,M
BAM,2022-03-29 04:55,-116.8743,40.5990,1382.36,50.00,33.80,53.54,350.00,5.00,0.00,29.72,M,10.00,M,OVC,M,M,M,9000.00,M,M,M,M,M,M,M,M,M,M,50.00,KBAM 290455Z AUTO 35005KT 10SM OVC090 10/01 A2972 RMK AO1,M
RNO,2022-03-29 04:55,-119.7711,39.4839,1341.00,47.00,33.00,58.47,10.00,6.00,0.00,29.78,1006.20,10.00,M,SCT,BKN,OVC,M,6000.00,8000.00,11000.00,M,M,M,M,M,M,M,M,43.48,KRNO 290455Z 01006KT 10SM SCT060 BKN080 OVC110 08/01 A2978 RMK AO2 SLP062 T00830006,M
TMT,2022-03-29 04:55,-117.1971,39.4643,1749.34,35.00,27.30,72.93,220.00,4.00,0.00,29.74,M,10.00,M,SCT,M,M,M,7500.00,M,M,M,M,M,M,M,M,M,M,31.04,KTMT 290455Z AUTO 22004KT 10SM SCT075 02/M03 A2974 RMK AO2 T00171026,M
BVU,2022-03-29 04:55,-114.8611,35.9475,671.00,51.80,42.80,71.26,250.00,9.00,0.00,29.75,M,3.00,21.00,FEW,SCT,OVC,M,400.00,2600.00,4500.00,M,RA,M,M,M,M,M,M,51.80,KBVU 290455Z AUTO 25009G21KT 3SM RA FEW004 SCT026 OVC045 11/06 A2975 RMK AO2,M
CXP,2022-03-29 04:55,-119.7326,39.1923,1431.00,41.00,35.60,80.93,0.00,0.00,0.00,29.80,M,10.00,M,FEW,OVC,M,M,5000.00,6500.00,M,M,M,M,M,M,M,M,M,41.00,KCXP 290455Z AUTO 00000KT 10SM FEW050 OVC065 05/02 A2980 RMK AO2,M
INS,2022-03-29 04:55,-115.6733,36.5872,955.00,50.00,37.40,61.76,0.00,0.00,0.00,29.72,1003.60,10.00,M,BKN,OVC,M,M,10000.00,12000.00,M,M,M,M,M,M,M,M,M,50.00,KINS 290455Z AUTO 00000KT 10SM BKN100 OVC120 10/03 A2972 RMK AO2 RAE20RAB44E55 SLP036 $,M
RTS,2022-03-29 04:55,-119.8764,39.6682,1539.00,41.00,32.00,70.08,310.00,8.00,0.00,29.79,M,10.00,15.00,CLR,M,M,M,M,M,M,M,M,M,M,M,M,M,M,35.20,KRTS 290455Z AUTO 31008G15KT 10SM CLR 05/00 A2979 RMK AO2,M
HTH,2022-03-29 04:55,-118.6315,38.5448,1282.89,44.60,30.20,56.74,100.00,7.00,0.00,29.74,M,10.00,M,BKN,OVC,M,M,7500.00,9500.00,M,M,M,M,M,M,M,M,M,40.14,KHTH 290455Z AUTO 10007KT 10SM BKN075 OVC095 07/M01 A2974 RMK A01,M
MEV,2022-03-29 04:55,-119.7500,38.9963,1441.42,39.20,37.40,93.19,120.00,6.00,0.04,29.79,M,10.00,M,SCT,BKN,OVC,M,1300.00,2100.00,2800.00,M,-RA,M,M,M,M,M,M,34.20,KMEV 290455Z AUTO 12006KT 10SM -RA SCT013 BKN021 OVC028 04/03 A2979 RMK AO2 P0004,M
WMC,2022-03-29 04:56,-117.8072,40.9019,1315.00,41.00,36.00,82.22,310.00,5.00,0.00,29.72,1004.90,10.00,M,SCT,M,M,M,12000.00,M,M,M,M,M,M,M,M,M,M,37.08,KWMC 290456Z AUTO 31005KT 10SM SCT120 05/02 A2972 RMK AO2 SLP049 T00500022,M
TPH,2022-03-29 04:56,-117.0904,38.0505,1654.00,38.00,32.00,79.08,60.00,4.00,0.00,29.73,1004.10,10.00,M,BKN,M,M,M,9000.00,M,M,M,M,M,M,M,M,M,M,34.31,KTPH 290456Z AUTO 06004KT 10SM BKN090 03/00 A2973 RMK AO2 SLP041 T00330000,M
HND,2022-03-29 04:56,-115.1344,35.9729,742.79,53.00,46.00,76.75,150.00,7.00,T,29.73,1007.10,10.00,M,SCT,OVC,M,M,5500.00,7000.00,M,M,-RA,M,M,M,M,M,M,53.10,KHND 290456Z AUTO 15007KT 10SM -RA SCT055 OVC070 12/08 A2973 RMK AO2 RAB0357E28B51 SLP071 P0000 T01170078,M
LAS,2022-03-29 04:56,-115.1634,36.0719,663.00,54.00,44.00,69.09,0.00,0.00,0.02,29.71,1004.80,8.00,M,FEW,OVC,M,M,4400.00,6500.00,M,M,-RA,M,M,M,M,M,M,54.00,KLAS 290456Z 00000KT 8SM -RA FEW044 OVC065 12/07 A2971 RMK AO2 RAE20B56 SLP048 SHRA OBSCURES MTNS DSNT W-N P0002 T01220067,M
EKO,2022-03-29 04:56,-115.7860,40.8242,1367.00,49.00,25.00,38.95,270.00,7.00,0.00,29.68,1002.30,10.00,17.00,BKN,M,M,M,6500.00,M,M,M,M,M,M,M,M,M,M,45.38,KEKO 290456Z AUTO 27007G17KT 10SM BKN065 09/M04 A2968 RMK AO2 SLP023 T00941039,M
INS,2022-03-29 04:58,-115.6733,36.5872,955.00,50.00,37.60,62.24,0.00,0.00,0.01,29.72,1003.60,10.00,M,BKN,OVC,M,M,10000.00,12000.00,M,M,M,M,M,M,32.00,220.00,2022-03-29 03:59,50.00,KINS 290458Z AUTO 00000KT 10SM BKN100 OVC120 10/03 A2972 RMK AO2 PK WND 22032/0359 RAE20RAB44E55 SLP036 P0001 T01000031 $,M
LSV,2022-03-29 04:58,-115.0343,36.2362,570.00,54.00,54.00,100.00,180.00,6.00,0.06,29.71,1004.80,10.00,M,SCT,M,M,M,4100.00,M,M,M,M,M,M,M,M,M,M,54.10,KLSV 290458Z 18006KT 10SM SCT041 12/12 A2971 RMK RA0331RAE0458 SLP048 P0006 T01230123 $,M
HTH,2022-03-29 05:15,-118.6315,38.5448,1282.89,46.40,30.20,53.00,90.00,6.00,0.00,29.74,M,10.00,M,BKN,OVC,M,M,7000.00,8000.00,M,M,M,M,M,M,M,M,M,42.87,KHTH 290515Z AUTO 09006KT 10SM BKN070 OVC080 08/M01 A2974 RMK A01,M
RTS,2022-03-29 05:15,-119.8764,39.6682,1539.00,39.20,32.00,75.16,310.00,3.00,0.00,29.80,M,10.00,M,CLR,M,M,M,M,M,M,M,M,M,M,M,M,M,M,36.92,KRTS 290515Z AUTO 31003KT 10SM CLR 04/M00 A2980 RMK AO2,M
05U,2022-03-29 05:15,-116.0051,39.6042,1811.23,37.40,28.40,69.67,50.00,3.00,0.00,29.76,M,10.00,M,FEW,SCT,BKN,M,6000.00,7500.00,8500.00,M,M,M,M,M,M,M,M,34.86,K05U 290515Z AUTO 05003KT 10SM FEW060 SCT075 BKN085 03/M02 A2976 RMK A01,M
MEV,2022-03-29 05:15,-119.7500,38.9963,1441.42,37.40,35.60,93.14,110.00,8.00,0.00,29.79,M,10.00,M,BKN,BKN,OVC,M,1100.00,2100.00,6500.00,M,M,M,M,M,M,M,M,30.76,KMEV 290515Z AUTO 11008KT 10SM BKN011 BKN021 OVC065 03/02 A2979 RMK AO2,M
BVU,2022-03-29 05:15,-114.8611,35.9475,671.00,51.80,42.80,71.26,100.00,5.00,0.00,29.72,M,4.00,M,FEW,BKN,OVC,M,400.00,2800.00,4700.00,M,RA,M,M,M,M,M,M,51.80,KBVU 290515Z AUTO 10005KT 4SM RA FEW004 BKN028 OVC047 11/06 A2972 RMK AO2,M
TMT,2022-03-29 05:15,-117.1971,39.4643,1749.34,33.80,27.10,76.18,0.00,0.00,0.00,29.74,M,10.00,M,SCT,M,M,M,7500.00,M,M,M,M,M,M,M,M,M,M,33.80,KTMT 290515Z AUTO 00000KT 10SM SCT075 01/M03 A2974 RMK AO2 T00101027,M
BAM,2022-03-29 05:15,-116.8743,40.5990,1382.36,50.00,33.80,53.54,30.00,4.00,0.00,29.72,M,10.00,M,SCT,OVC,M,M,9000.00,11000.00,M,M,M,M,M,M,M,M,M,50.00,KBAM 290515Z AUTO 03004KT 10SM SCT090 OVC110 10/01 A2972 RMK AO1,M
CXP,2022-03-29 05:15,-119.7326,39.1923,1431.00,41.00,35.60,80.93,0.00,0.00,0.00,29.80,M,10.00,M,FEW,FEW,OVC,M,1300.00,5000.00,7000.00,M,M,M,M,M,M,M,M,41.00,KCXP 290515Z AUTO 00000KT 10SM FEW013 FEW050 OVC070 05/02 A2980 RMK AO2,M
05U,2022-03-29 05:25,-116.0051,39.6042,1811.23,37.40,28.40,69.67,0.00,0.00,0.00,29.76,M,10.00,M,FEW,FEW,SCT,M,3300.00,6000.00,8000.00,M,M,M,M,M,M,M,M,37.40,K05U 290525Z AUTO 00000KT 10SM FEW033 FEW060 SCT080 03/M02 A2976 RMK A01,M
CXP,2022-03-29 05:30,-119.7326,39.1923,1431.00,41.00,35.60,80.93,M,4.00,0.00,29.80,M,10.00,M,OVC,M,M,M,7000.00,M,M,M,M,M,M,M,M,M,M,37.93,KCXP 290530Z AUTO VRB04KT 10SM OVC070 05/02 A2980 RMK AO2,M
TMT,2022-03-29 05:35,-117.1971,39.4643,1749.34,33.00,27.10,78.35,260.00,4.00,0.00,29.74,M,10.00,M,CLR,M,M,M,M,M,M,M,M,M,M,M,M,M,M,28.70,KTMT 290535Z AUTO 26004KT 10SM CLR 01/M03 A2974 RMK AO2 T00061027,M
MEV,2022-03-29 05:35,-119.7500,38.9963,1441.42,35.60,33.80,93.08,130.00,5.00,0.00,29.80,M,10.00,M,FEW,SCT,BKN,M,1000.00,1300.00,6500.00,M,M,M,M,M,M,M,M,30.67,KMEV 290535Z AUTO 13005KT 10SM FEW010 SCT013 BKN065 02/01 A2980 RMK AO2,M
HTH,2022-03-29 05:35,-118.6315,38.5448,1282.89,46.40,32.00,57.00,130.00,8.00,0.00,29.74,M,10.00,M,FEW,SCT,BKN,M,2800.00,4200.00,4700.00,M,M,M,M,M,M,M,M,41.85,KHTH 290535Z AUTO 13008KT 10SM FEW028 SCT042 BKN047 08/M00 A2974 RMK A01,M
BVU,2022-03-29 05:35,-114.8611,35.9475,671.00,51.80,46.40,81.74,50.00,5.00,0.00,29.71,M,10.00,M,FEW,SCT,BKN,M,2700.00,3800.00,5000.00,M,M,M,M,M,M,M,M,51.80,KBVU 290535Z AUTO 05005KT 10SM FEW027 SCT038 BKN050 11/08 A2971 RMK AO2,M
RTS,2022-03-29 05:35,-119.8764,39.6682,1539.00,39.20,32.00,75.16,270.00,6.00,0.00,29.80,M,10.00,M,FEW,M,M,M,6000.00,M,M,M,M,M,M,M,M,M,M,34.20,KRTS 290535Z AUTO 27006KT 10SM FEW060 04/M00 A2980 RMK AO2,M
BAM,2022-03-29 05:35,-116.8743,40.5990,1382.36,50.00,33.80,53.54,350.00,3.00,0.00,29.73,M,10.00,M,SCT,BKN,M,M,9000.00,12000.00,M,M,M,M,M,M,M,M,M,50.00,KBAM 290535Z AUTO 35003KT 10SM SCT090 BKN120 10/01 A2973 RMK AO1,M
VGT,2022-03-29 05:53,-115.1933,36.2111,667.00,55.00,44.00,66.61,210.00,6.00,0.01,29.70,1005.90,10.00,M,CLR,M,M,M,M,M,M,M,M,M,M,M,M,M,M,55.00,KVGT 290553Z AUTO 21006KT 10SM CLR 13/07 A2970 RMK AO2 RAE32 SLP059 P0001 60005 T01280067 10256 20122 50012,M
LOL,2022-03-29 05:53,-118.5701,40.0684,1192.43,48.00,36.00,62.97,10.00,13.00,0.00,29.73,1005.00,10.00,M,FEW,FEW,M,M,5000.00,9000.00,M,M,M,M,M,M,M,M,M,42.07,KLOL 290553Z AUTO 01013KT 10SM FEW050 FEW090 09/02 A2973 RMK AO2 SLP050 T00890022 10161 20072 51021,M
DRA,2022-03-29 05:53,-116.0278,36.6206,1009.00,50.00,34.00,53.97,350.00,5.00,0.00,29.69,1002.30,10.00,M,CLR,M,M,M,M,M,M,M,M,M,M,M,M,M,M,50.00,KDRA 290553Z AUTO 35005KT 10SM CLR 10/01 A2969 RMK AO2 SLP023 60001 T01000011 10161 20100 50010,M
ELY,2022-03-29 05:53,-114.8453,39.2950,1909.00,43.00,28.90,57.21,M,4.00,0.00,29.74,1001.10,10.00,M,OVC,M,M,M,7000.00,M,M,M,M,M,M,M,M,M,M,40.27,KELY 290553Z AUTO VRB04KT 10SM OVC070 06/M02 A2974 RMK AO2 SLP011 T00611017 10122 20039 53015,M
P68,2022-03-29 05:53,-116.0056,39.6014,1993.00,38.00,30.00,72.93,0.00,0.00,0.00,29.73,1003.00,M,M,M,M,M,M,M,M,M,M,M,M,M,M,M,M,M,37.90,KP68 290553Z AUTO 00000KT 03/M01 A2973 RMK AO1 SLP030 T00331011 10100 20028 51010,M
BVU,2022-03-29 05:55,-114.8611,35.9475,671.00,51.80,46.40,81.74,40.00,5.00,0.00,29.71,M,10.00,M,FEW,M,M,M,11000.00,M,M,M,M,M,M,M,M,M,M,51.80,KBVU 290555Z AUTO 04005KT 10SM FEW110 11/08 A2971 RMK AO2,M
CXP,2022-03-29 05:55,-119.7326,39.1923,1431.00,39.20,35.60,86.79,M,4.00,0.00,29.81,M,10.00,M,FEW,SCT,M,M,6500.00,7500.00,M,M,M,M,M,M,M,M,M,35.83,KCXP 290555Z AUTO VRB04KT 10SM FEW065 SCT075 04/02 A2981 RMK AO2,M
RNO,2022-03-29 05:55,-119.7711,39.4839,1341.00,47.00,32.00,55.94,290.00,9.00,0.00,29.78,1006.30,10.00,M,SCT,BKN,OVC,M,6000.00,10000.00,14000.00,M,M,M,M,M,M,M,M,42.04,KRNO 290555Z 29009KT 10SM SCT060 BKN100 OVC140 08/00 A2978 RMK AO2 SLP063 T00830000 10139 20083 51016,M
RTS,2022-03-29 05:55,-119.8764,39.6682,1539.00,39.20,32.00,75.16,310.00,6.00,0.00,29.80,M,10.00,M,FEW,M,M,M,6000.00,M,M,M,M,M,M,M,M,M,M,34.20,KRTS 290555Z AUTO 31006KT 10SM FEW060 04/M00 A2980 RMK AO2,M
MEV,2022-03-29 05:55,-119.7500,38.9963,1441.42,35.60,33.80,93.08,0.00,0.00,0.03,29.81,M,10.00,M,BKN,OVC,M,M,1400.00,6000.00,M,M,M,M,M,M,M,M,M,35.60,KMEV 290555Z AUTO 00000KT 10SM BKN014 OVC060 02/01 A2981 RMK AO2 P0003,M
TMT,2022-03-29 05:55,-117.1971,39.4643,1749.34,32.00,26.60,80.22,250.00,6.00,0.00,29.74,M,10.00,M,CLR,M,M,M,M,M,M,M,M,M,M,M,M,M,M,25.53,KTMT 290555Z AUTO 25006KT 10SM CLR 00/M03 A2974 RMK AO2 T00001030 10105 20000,M
HTH,2022-03-29 05:55,-118.6315,38.5448,1282.89,46.40,30.20,53.00,250.00,4.00,0.00,29.75,M,10.00,M,SCT,OVC,M,M,4600.00,6000.00,M,M,M,M,M,M,M,M,M,44.24,KHTH 290555Z AUTO 25004KT 10SM SCT046 OVC060 08/M01 A2975 RMK A01,M
BAM,2022-03-29 05:55,-116.8743,40.5990,1382.36,48.20,33.80,57.26,360.00,3.00,0.00,29.73,M,10.00,M,CLR,M,M,M,M,M,M,M,M,M,M,M,M,M,M,47.21,KBAM 290555Z AUTO 36003KT 10SM CLR 09/01 A2973 RMK AO1,M
HND,2022-03-29 05:56,-115.1344,35.9729,742.79,52.00,44.00,74.35,170.00,7.00,T,29.72,1006.60,10.00,M,CLR,M,M,M,M,M,M,M,M,M,M,M,M,M,M,52.00,KHND 290556Z AUTO 17007KT 10SM CLR 11/07 A2972 RMK AO2 RAE12 SLP066 P0000 60000 T01110067 10228 20111 50006,M
NFL,2022-03-29 05:56,-118.7010,39.4166,1199.00,51.00,33.00,49.98,340.00,8.00,0.00,29.72,1004.60,10.00,M,SCT,BKN,BKN,M,6000.00,12000.00,25000.00,M,M,M,M,M,M,M,M,51.10,KNFL 290556Z 34008KT 10SM SCT060 BKN120 BKN250 11/01 A2972 RMK AO2 SLP046 T01060006 10156 20106 51021,M
LAS,2022-03-29 05:56,-115.1634,36.0719,663.00,54.00,47.00,76.83,80.00,6.00,T,29.70,1004.40,9.00,M,FEW,FEW,BKN,M,5000.00,10000.00,19000.00,M,M,M,M,M,M,M,M,54.00,KLAS 290556Z 08006KT 9SM FEW050 FEW100 BKN190 12/08 A2970 RMK AO2 RAE11 SLP044 P0000 60010 T01220083 10233 20117 50004,M
WMC,2022-03-29 05:56,-117.8072,40.9019,1315.00,39.00,35.00,85.76,290.00,7.00,0.00,29.74,1005.10,10.00,M,CLR,M,M,M,M,M,M,M,M,M,M,M,M,M,M,33.31,KWMC 290556Z AUTO 29007KT 10SM CLR 04/02 A2974 RMK AO2 SLP051 T00390017 10111 20039 53014,M
EKO,2022-03-29 05:56,-115.7860,40.8242,1367.00,46.00,27.00,47.20,230.00,5.00,0.00,29.69,1002.50,10.00,M,CLR,M,M,M,M,M,M,M,M,M,M,M,M,M,M,43.02,KEKO 290556Z AUTO 23005KT 10SM CLR 08/M03 A2969 RMK AO2 SLP025 T00781028 10167 20072 51013,M
TPH,2022-03-29 05:56,-117.0904,38.0505,1654.00,36.00,32.00,85.23,350.00,5.00,0.00,29.74,1004.40,10.00,M,BKN,M,M,M,6500.00,M,M,M,M,M,M,M,M,M,M,31.15,KTPH 290556Z AUTO 35005KT 10SM BKN065 02/00 A2974 RMK AO2 SLP044 60000 T00220000 10083 20022 51007,M
INS,2022-03-29 05:58,-115.6733,36.5872,955.00,50.70,39.40,65.07,130.00,10.00,0.00,29.70,1002.70,10.00,M,FEW,BKN,M,M,10000.00,15000.00,M,M,M,M,M,M,M,M,M,50.70,KINS 290558Z AUTO 13010KT 10SM FEW100 BKN150 10/04 A2970 RMK AO2 SLP027 60003 T01040041 10183 20096 50003 $,M
LSV,2022-03-29 05:58,-115.0343,36.2362,570.00,54.00,54.00,100.00,80.00,11.00,T,29.69,1004.10,10.00,M,CLR,M,M,M,M,M,M,M,M,M,M,M,M,M,M,54.10,KLSV 290558Z 08011KT 10SM CLR 12/12 A2969 RMK AO2A RAB0458E01 SLP041 P0000 60008 T01230123 10253 20123 50007 $,M
CXP,2022-03-29 06:15,-119.7326,39.1923,1431.00,39.20,35.60,86.79,0.00,0.00,0.00,29.81,M,10.00,M,CLR,M,M,M,M,M,M,M,M,M,M,M,M,M,M,39.20,KCXP 290615Z AUTO 00000KT 10SM CLR 04/02 A2981 RMK AO2,M
RTS,2022-03-29 06:15,-119.8764,39.6682,1539.00,39.20,32.00,75.16,310.00,6.00,0.00,29.81,M,10.00,12.00,SCT,BKN,M,M,6000.00,11000.00,M,M,M,M,M,M,M,M,M,34.20,KRTS 290615Z AUTO 31006G12KT 10SM SCT060 BKN110 04/00 A2981 RMK AO2,M
MEV,2022-03-29 06:15,-119.7500,38.9963,1441.42,37.40,35.60,93.14,210.00,4.00,0.00,29.82,M,10.00,M,OVC,M,M,M,1500.00,M,M,M,M,M,M,M,M,M,M,33.73,KMEV 290615Z AUTO 21004KT 10SM OVC015 03/02 A2982 RMK AO2,M
BAM,2022-03-29 06:15,-116.8743,40.5990,1382.36,46.40,35.60,65.83,330.00,6.00,0.00,29.73,M,10.00,M,CLR,M,M,M,M,M,M,M,M,M,M,M,M,M,M,42.87,KBAM 290615Z AUTO 33006KT 10SM CLR 08/02 A2973 RMK AO1,M
TMT,2022-03-29 06:15,-117.1971,39.4643,1749.34,32.50,27.50,81.59,230.00,6.00,0.00,29.74,M,10.00,M,SCT,M,M,M,7500.00,M,M,M,M,M,M,M,M,M,M,26.13,KTMT 290615Z AUTO 23006KT 10SM SCT075 00/M02 A2974 RMK AO2 T00031025,M
HTH,2022-03-29 06:15,-118.6315,38.5448,1282.89,44.60,30.20,56.74,360.00,4.00,0.00,29.75,M,10.00,M,FEW,BKN,OVC,M,4800.00,6000.00,7500.00,M,M,M,M,M,M,M,M,42.13,KHTH 290615Z AUTO 36004KT 10SM FEW048 BKN060 OVC075 07/M01 A2975 RMK A01,M
BVU,2022-03-29 06:15,-114.8611,35.9475,671.00,51.80,44.60,76.34,40.00,4.00,0.00,29.71,M,10.00,M,CLR,M,M,M,M,M,M,M,M,M,M,M,M,M,M,51.80,KBVU 290615Z AUTO 04004KT 10SM CLR 11/07 A2971 RMK AO2,M
TMT,2022-03-29 06:35,-117.1971,39.4643,1749.34,29.30,24.30,81.35,200.00,3.00,0.00,29.75,M,10.00,M,SCT,M,M,M,7500.00,M,M,M,M,M,M,M,M,M,M,25.60,KTMT 290635Z AUTO 20003KT 10SM SCT075 M01/M04 A2975 RMK AO2 T10151043,M
BVU,2022-03-29 06:35,-114.8611,35.9475,671.00,51.80,46.40,81.74,60.00,3.00,0.00,29.72,M,10.00,M,CLR,M,M,M,M,M,M,M,M,M,M,M,M,M,M,51.80,KBVU 290635Z AUTO 06003KT 10SM CLR 11/08 A2972 RMK AO2,M
CXP,2022-03-29 06:35,-119.7326,39.1923,1431.00,39.20,35.60,86.79,200.00,5.00,0.00,29.82,M,10.00,M,FEW,SCT,M,M,7000.00,8000.00,M,M,M,M,M,M,M,M,M,34.95,KCXP 290635Z AUTO 20005KT 10SM FEW070 SCT080 04/02 A2982 RMK AO2,M
RTS,2022-03-29 06:35,-119.8764,39.6682,1539.00,39.20,32.00,75.16,300.00,7.00,0.00,29.82,M,10.00,M,OVC,M,M,M,6000.00,M,M,M,M,M,M,M,M,M,M,33.56,KRTS 290635Z AUTO 30007KT 10SM OVC060 04/00 A2982 RMK AO2,M
MEV,2022-03-29 06:35,-119.7500,38.9963,1441.42,35.60,33.80,93.08,0.00,0.00,0.00,29.81,M,10.00,M,BKN,M,M,M,1500.00,M,M,M,M,M,M,M,M,M,M,35.60,KMEV 290635Z AUTO 00000KT 10SM BKN015 02/01 A2981 RMK AO2,M
BAM,2022-03-29 06:35,-116.8743,40.5990,1382.36,46.40,35.60,65.83,340.00,5.00,0.00,29.73,M,10.00,M,CLR,M,M,M,M,M,M,M,M,M,M,M,M,M,M,43.50,KBAM 290635Z AUTO 34005KT 10SM CLR 08/02 A2973 RMK AO1,M
HTH,2022-03-29 06:35,-118.6315,38.5448,1282.89,44.60,32.00,61.03,10.00,4.00,0.00,29.77,M,10.00,M,SCT,BKN,OVC,M,2900.00,3700.00,5500.00,M,M,M,M,M,M,M,M,42.13,KHTH 290635Z AUTO 01004KT 10SM SCT029 BKN037 OVC055 07/M00 A2977 RMK A01,M
LOL,2022-03-29 06:53,-118.5701,40.0684,1192.43,47.00,38.00,70.73,10.00,9.00,0.00,29.75,1005.80,10.00,18.00,SCT,M,M,M,5000.00,M,M,M,M,M,M,M,M,M,M,42.04,KLOL 290653Z AUTO 01009G18KT 10SM SCT050 08/03 A2975 RMK AO2 SLP058 T00830033,M
VGT,2022-03-29 06:53,-115.1933,36.2111,667.00,55.00,45.00,68.93,230.00,3.00,0.00,29.69,1005.70,10.00,M,CLR,M,M,M,M,M,M,M,M,M,M,M,M,M,M,55.00,KVGT 290653Z AUTO 23003KT 10SM CLR 13/07 A2969 RMK AO2 SLP057 T01280072,M
DRA,2022-03-29 06:53,-116.0278,36.6206,1009.00,49.00,34.00,56.23,180.00,6.00,0.00,29.69,1002.30,10.00,M,CLR,M,M,M,M,M,M,M,M,M,M,M,M,M,M,45.88,KDRA 290653Z AUTO 18006KT 10SM CLR 09/01 A2969 RMK AO2 SLP023 T00940011,M
P68,2022-03-29 06:53,-116.0056,39.6014,1993.00,37.00,30.00,75.56,180.00,6.00,0.00,29.72,1002.50,M,M,M,M,M,M,M,M,M,M,M,M,M,M,M,M,M,31.55,KP68 290653Z AUTO 18006KT 03/M01 A2972 RMK AO1 SLP025 T00281011,M
ELY,2022-03-29 06:53,-114.8453,39.2950,1909.00,41.00,28.90,61.79,280.00,6.00,0.00,29.74,1001.50,10.00,M,OVC,M,M,M,8000.00,M,M,M,M,M,M,M,M,M,M,36.37,KELY 290653Z AUTO 28006KT 10SM OVC080 05/M02 A2974 RMK AO2 SLP015 T00501017,M
MEV,2022-03-29 06:55,-119.7500,38.9963,1441.42,35.60,33.80,93.08,0.00,0.00,0.04,29.82,M,10.00,M,CLR,M,M,M,M,M,M,M,M,M,M,M,M,M,M,35.60,KMEV 290655Z AUTO 00000KT 10SM CLR 02/01 A2982 RMK AO2 P0004,M
TMT,2022-03-29 06:55,-117.1971,39.4643,1749.34,28.20,23.90,83.68,160.00,4.00,0.00,29.76,M,10.00,M,BKN,M,M,M,7500.00,M,M,M,M,M,M,M,M,M,M,22.98,KTMT 290655Z AUTO 16004KT 10SM BKN075 M02/M04 A2976 RMK AO2 T10211045,M
HTH,2022-03-29 06:55,-118.6315,38.5448,1282.89,44.60,35.60,70.48,0.00,0.00,0.00,29.77,M,10.00,M,FEW,SCT,BKN,M,2900.00,3700.00,4500.00,M,M,M,M,M,M,M,M,44.60,KHTH 290655Z AUTO 00000KT 10SM FEW029 SCT037 BKN045 07/02 A2977 RMK A01,M
CXP,2022-03-29 06:55,-119.7326,39.1923,1431.00,37.40,35.60,93.14,0.00,0.00,0.00,29.82,M,10.00,M,BKN,OVC,M,M,7000.00,8000.00,M,M,M,M,M,M,M,M,M,37.40,KCXP 290655Z AUTO 00000KT 10SM BKN070 OVC080 03/02 A2982 RMK AO2,M
BAM,2022-03-29 06:55,-116.8743,40.5990,1382.36,46.40,35.60,65.83,0.00,0.00,0.00,29.74,M,10.00,M,SCT,M,M,M,9500.00,M,M,M,M,M,M,M,M,M,M,46.40,KBAM 290655Z AUTO 00000KT 10SM SCT095 08/02 A2974 RMK AO1,M
BVU,2022-03-29 06:55,-114.8611,35.9475,671.00,50.00,46.40,87.37,0.00,0.00,0.00,29.72,M,10.00,M,CLR,M,M,M,M,M,M,M,M,M,M,M,M,M,M,50.00,KBVU 290655Z AUTO 00000KT 10SM CLR 10/08 A2972 RMK AO2,M
RTS,2022-03-29 06:55,-119.8764,39.6682,1539.00,41.00,32.00,70.08,290.00,13.00,0.00,29.82,M,10.00,M,OVC,M,M,M,6000.00,M,M,M,M,M,M,M,M,M,M,33.10,KRTS 290655Z AUTO 29013KT 10SM OVC060 05/M00 A2982 RMK AO2,M
RNO,2022-03-29 06:55,-119.7711,39.4839,1341.00,47.00,32.00,55.94,360.00,4.00,0.00,29.81,1007.20,10.00,M,BKN,OVC,M,M,6500.00,15000.00,M,M,M,M,M,M,M,M,M,44.82,KRNO 290655Z 36004KT 10SM BKN065 OVC150 08/00 A2981 RMK AO2 SLP072 T00830000,M
EKO,2022-03-29 06:56,-115.7860,40.8242,1367.00,43.00,25.00,48.70,0.00,0.00,0.00,29.70,1002.90,10.00,M,CLR,M,M,M,M,M,M,M,M,M,M,M,M,M,M,43.00,KEKO 290656Z AUTO 00000KT 10SM CLR 06/M04 A2970 RMK AO2 SLP029 T00611039,M
WMC,2022-03-29 06:56,-117.8072,40.9019,1315.00,40.00,36.00,85.81,290.00,5.00,0.00,29.75,1005.50,10.00,M,CLR,M,M,M,M,M,M,M,M,M,M,M,M,M,M,35.78,KWMC 290656Z AUTO 29005KT 10SM CLR 04/02 A2975 RMK AO2 SLP055 T00440022,M
NFL,2022-03-29 06:56,-118.7010,39.4166,1199.00,50.00,34.00,53.97,360.00,8.00,0.00,29.75,1005.30,10.00,M,SCT,BKN,OVC,M,4600.00,5500.00,8000.00,M,M,M,M,M,M,M,M,50.00,KNFL 290656Z AUTO 36008KT 10SM SCT046 BKN055 OVC080 10/01 A2975 RMK AO2 SLP053 T01000011,M
LAS,2022-03-29 06:56,-115.1634,36.0719,663.00,53.00,48.00,82.76,130.00,4.00,0.00,29.69,1004.00,10.00,M,FEW,BKN,M,M,10000.00,23000.00,M,M,M,M,M,M,M,M,M,53.10,KLAS 290656Z 13004KT 10SM FEW100 BKN230 12/09 A2969 RMK AO2 SLP040 T01170089,M
HND,2022-03-29 06:56,-115.1344,35.9729,742.79,52.00,44.00,74.35,190.00,4.00,0.00,29.72,1006.40,10.00,M,CLR,M,M,M,M,M,M,M,M,M,M,M,M,M,M,52.00,KHND 290656Z AUTO 19004KT 10SM CLR 11/07 A2972 RMK AO2 SLP064 T01110067 402610111,M
TPH,2022-03-29 06:56,-117.0904,38.0505,1654.00,37.00,33.00,85.64,360.00,4.00,0.00,29.75,1004.60,10.00,M,OVC,M,M,M,8000.00,M,M,M,M,M,M,M,M,M,M,33.26,KTPH 290656Z AUTO 36004KT 10SM OVC080 03/01 A2975 RMK AO2 SLP046 T00280006,M
INS,2022-03-29 06:58,-115.6733,36.5872,955.00,48.20,38.00,67.89,230.00,3.00,0.00,29.70,1002.70,10.00,M,CLR,M,M,M,M,M,M,M,M,M,M,M,M,M,M,47.21,KINS 290658Z AUTO 23003KT 10SM CLR 09/03 A2970 RMK AO2 SLP027 T00900034 $,M
LSV,2022-03-29 06:58,-115.0343,36.2362,570.00,53.00,53.00,100.00,50.00,3.00,0.00,29.70,1004.30,10.00,M,CLR,M,M,M,M,M,M,M,M,M,M,M,M,M,M,53.10,KLSV 290658Z AUTO 05003KT 10SM CLR 12/12 A2970 RMK AO2 SLP043 T01170117 $,M
CXP,2022-03-29 07:15,-119.7326,39.1923,1431.00,37.40,33.80,86.69,0.00,0.00,0.00,29.83,M,10.00,M,OVC,M,M,M,7000.00,M,M,M,M,M,M,M,M,M,M,37.40,KCXP 290715Z AUTO 00000KT 10SM OVC070 03/01 A2983 RMK AO2,M
05U,2022-03-29 07:15,-116.0051,39.6042,1811.23,33.80,30.20,86.49,170.00,4.00,0.00,29.75,M,10.00,M,SCT,M,M,M,9000.00,M,M,M,M,M,M,M,M,M,M,29.52,K05U 290715Z AUTO 17004KT 10SM SCT090 01/M01 A2975 RMK A01,M
TMT,2022-03-29 07:15,-117.1971,39.4643,1749.34,30.40,25.20,80.76,110.00,3.00,0.00,29.76,M,10.00,M,OVC,M,M,M,7500.00,M,M,M,M,M,M,M,M,M,M,26.86,KTMT 290715Z AUTO 11003KT 10SM OVC075 M01/M04 A2976 RMK AO2 T10091038,M
HTH,2022-03-29 07:15,-118.6315,38.5448,1282.89,44.60,35.60,70.48,250.00,5.00,0.00,29.77,M,10.00,M,FEW,OVC,M,M,3900.00,6000.00,M,M,M,M,M,M,M,M,M,41.36,KHTH 290715Z AUTO 25005KT 10SM FEW039 OVC060 07/02 A2977 RMK A01,M
BAM,2022-03-29 07:15,-116.8743,40.5990,1382.36,44.60,35.60,70.48,330.00,4.00,0.00,29.74,M,10.00,M,BKN,M,M,M,9500.00,M,M,M,M,M,M,M,M,M,M,42.13,KBAM 290715Z AUTO 33004KT 10SM BKN095 07/02 A2974 RMK AO1,M
MEV,2022-03-29 07:15,-119.7500,38.9963,1441.42,33.80,33.80,100.00,0.00,0.00,0.00,29.82,M,10.00,M,CLR,M,M,M,M,M,M,M,M,M,M,M,M,M,M,33.80,KMEV 290715Z AUTO 00000KT 10SM CLR 01/01 A2982 RMK AO2,M
RTS,2022-03-29 07:15,-119.8764,39.6682,1539.00,41.00,32.00,70.08,300.00,8.00,0.00,29.83,M,10.00,14.00,OVC,M,M,M,6000.00,M,M,M,M,M,M,M,M,M,M,35.20,KRTS 290715Z AUTO 30008G14KT 10SM OVC060 05/M00 A2983 RMK AO2,M
BVU,2022-03-29 07:15,-114.8611,35.9475,671.00,50.00,46.40,87.37,60.00,6.00,0.00,29.72,M,10.00,M,CLR,M,M,M,M,M,M,M,M,M,M,M,M,M,M,50.00,KBVU 290715Z AUTO 06006KT 10SM CLR 10/08 A2972 RMK AO2,M
HTH,2022-03-29 07:35,-118.6315,38.5448,1282.89,44.60,35.60,70.48,230.00,5.00,0.00,29.77,M,10.00,M,SCT,BKN,OVC,M,4400.00,5000.00,6000.00,M,M,M,M,M,M,M,M,41.36,KHTH 290735Z AUTO 23005KT 10SM SCT044 BKN050 OVC060 07/02 A2977 RMK A01,M
BVU,2022-03-29 07:35,-114.8611,35.9475,671.00,50.00,48.20,93.50,40.00,4.00,0.00,29.72,M,10.00,M,FEW,M,M,M,12000.00,M,M,M,M,M,M,M,M,M,M,50.00,KBVU 290735Z AUTO 04004KT 10SM FEW120 10/09 A2972 RMK AO2,M
CXP,2022-03-29 07:35,-119.7326,39.1923,1431.00,37.40,35.60,93.14,0.00,0.00,0.00,29.83,M,10.00,M,OVC,M,M,M,7000.00,M,M,M,M,M,M,M,M,M,M,37.40,KCXP 290735Z AUTO 00000KT 10SM OVC070 03/02 A2983 RMK AO2,M
RTS,2022-03-29 07:35,-119.8764,39.6682,1539.00,41.00,32.00,70.08,280.00,8.00,0.00,29.83,M,10.00,M,FEW,SCT,BKN,M,2300.00,2900.00,6000.00,M,-DZ,M,M,M,M,M,M,35.20,KRTS 290735Z AUTO 28008KT 10SM -DZ FEW023 SCT029 BKN060 05/00 A2983 RMK AO2,M
MEV,2022-03-29 07:35,-119.7500,38.9963,1441.42,33.80,32.00,93.03,0.00,0.00,0.00,29.82,M,10.00,M,FEW,SCT,M,M,6500.00,12000.00,M,M,M,M,M,M,M,M,M,33.80,KMEV 290735Z AUTO 00000KT 10SM FEW065 SCT120 01/00 A2982 RMK AO2,M
BAM,2022-03-29 07:35,-116.8743,40.5990,1382.36,44.60,35.60,70.48,340.00,5.00,0.00,29.74,M,10.00,M,BKN,M,M,M,9500.00,M,M,M,M,M,M,M,M,M,M,41.36,KBAM 290735Z AUTO 34005KT 10SM BKN095 07/02 A2974 RMK AO1,M
TMT,2022-03-29 07:35,-117.1971,39.4643,1749.34,32.00,26.20,78.90,0.00,0.00,0.00,29.75,M,10.00,M,OVC,M,M,M,7500.00,M,M,M,M,M,M,M,M,M,M,32.00,KTMT 290735Z AUTO 00000KT 10SM OVC075 00/M03 A2975 RMK AO2 T00001032,M
CXP,2022-03-29 07:50,-119.7326,39.1923,1431.00,37.40,35.60,93.14,0.00,0.00,0.00,29.84,M,10.00,M,OVC,M,M,M,7000.00,M,M,M,M,M,M,M,M,M,M,37.40,KCXP 290750Z AUTO 00000KT 10SM OVC070 03/02 A2984 RMK AO2,M
P68,2022-03-29 07:53,-116.0056,39.6014,1993.00,33.00,27.00,78.03,190.00,5.00,0.00,29.73,1002.90,M,M,M,M,M,M,M,M,M,M,M,M,M,M,M,M,M,27.70,KP68 290753Z AUTO 19005KT 01/M03 A2973 RMK AO1 SLP029 T00061028 401560000,M
VGT,2022-03-29 07:53,-115.1933,36.2111,667.00,53.00,47.00,79.40,100.00,5.00,0.00,29.70,1006.00,10.00,M,SCT,M,M,M,11000.00,M,M,M,M,M,M,M,M,M,M,53.10,KVGT 290753Z AUTO 10005KT 10SM SCT110 12/08 A2970 RMK AO2 SLP060 T01170083 402720117,M
ELY,2022-03-29 07:53,-114.8453,39.2950,1909.00,39.00,28.00,64.37,350.00,3.00,0.00,29.74,1001.90,10.00,M,FEW,OVC,M,M,7500.00,9000.00,M,M,M,M,M,M,M,M,M,36.69,KELY 290753Z AUTO 35003KT 10SM FEW075 OVC090 04/M02 A2974 RMK AO2 SLP019 T00391022 401560028,M
LOL,2022-03-29 07:53,-118.5701,40.0684,1192.43,47.00,38.00,70.73,330.00,13.00,0.00,29.76,1006.00,10.00,M,BKN,OVC,M,M,3600.00,4500.00,M,M,M,M,M,M,M,M,M,40.66,KLOL 290753Z AUTO 33013KT 10SM BKN036 OVC045 08/03 A2976 RMK AO2 SLP060 T00830033 401720056,M
DRA,2022-03-29 07:53,-116.0278,36.6206,1009.00,47.00,34.00,60.61,0.00,0.00,0.00,29.70,1002.80,10.00,M,CLR,M,M,M,M,M,M,M,M,M,M,M,M,M,M,46.90,KDRA 290753Z AUTO 00000KT 10SM CLR 08/01 A2970 RMK AO2 SLP028 T00830011 402170083,M
TMT,2022-03-29 07:55,-117.1971,39.4643,1749.34,32.00,26.20,78.90,0.00,0.00,0.00,29.75,M,10.00,M,SCT,OVC,M,M,6500.00,7500.00,M,M,M,M,M,M,M,M,M,32.00,KTMT 290755Z AUTO 00000KT 10SM SCT065 OVC075 00/M03 A2975 RMK AO2 T00001032 401331026,M
RNO,2022-03-29 07:55,-119.7711,39.4839,1341.00,47.00,35.00,63.33,340.00,8.00,T,29.82,1007.30,10.00,M,BKN,OVC,M,M,3600.00,4400.00,M,M,-RA,M,M,M,M,M,M,42.47,KRNO 290755Z 34008KT 10SM -RA BKN036 OVC044 08/02 A2982 RMK AO2 RAB51 SLP073 P0000 T00830017 401500083,M
BVU,2022-03-29 07:55,-114.8611,35.9475,671.00,50.00,48.20,93.50,110.00,6.00,0.00,29.72,M,10.00,M,SCT,BKN,M,M,8500.00,12000.00,M,M,M,M,M,M,M,M,M,50.00,KBVU 290755Z AUTO 11006KT 10SM SCT085 BKN120 10/09 A2972 RMK AO2,M
RTS,2022-03-29 07:55,-119.8764,39.6682,1539.00,41.00,32.00,70.08,310.00,6.00,0.00,29.84,M,10.00,M,BKN,BKN,OVC,M,3000.00,5500.00,8500.00,M,M,M,M,M,M,M,M,36.37,KRTS 290755Z AUTO 31006KT 10SM BKN030 BKN055 OVC085 05/M00 A2984 RMK AO2,M
05U,2022-03-29 07:55,-116.0051,39.6042,1811.23,32.00,28.40,86.39,0.00,0.00,0.00,29.75,M,10.00,M,CLR,M,M,M,M,M,M,M,M,M,M,M,M,M,M,32.00,K05U 290755Z AUTO 00000KT 10SM CLR M00/M02 A2975 RMK A01,M
MEV,2022-03-29 07:55,-119.7500,38.9963,1441.42,33.80,33.80,100.00,0.00,0.00,0.05,29.83,M,10.00,M,BKN,OVC,M,M,6000.00,12000.00,M,M,M,M,M,M,M,M,M,33.80,KMEV 290755Z AUTO 00000KT 10SM BKN060 OVC120 01/01 A2983 RMK AO2 P0005,M
BAM,2022-03-29 07:55,-116.8743,40.5990,1382.36,44.60,35.60,70.48,330.00,6.00,0.00,29.74,M,10.00,M,SCT,M,M,M,9500.00,M,M,M,M,M,M,M,M,M,M,40.71,KBAM 290755Z AUTO 33006KT 10SM SCT095 07/02 A2974 RMK AO1,M
HTH,2022-03-29 07:55,-118.6315,38.5448,1282.89,46.40,35.60,65.83,0.00,0.00,0.00,29.77,M,10.00,M,FEW,BKN,OVC,M,3100.00,4100.00,4900.00,M,M,M,M,M,M,M,M,46.40,KHTH 290755Z AUTO 00000KT 10SM FEW031 BKN041 OVC049 08/02 A2977 RMK A01,M
NFL,2022-03-29 07:56,-118.7010,39.4166,1199.00,48.00,37.00,65.51,360.00,10.00,0.00,29.76,1005.80,10.00,M,FEW,FEW,OVC,M,4500.00,5500.00,7500.00,M,M,M,M,M,M,M,M,43.03,KNFL 290756Z AUTO 36010KT 10SM FEW045 FEW055 OVC075 09/03 A2976 RMK AO2 SLP058 T00890028 401610050,M
TPH,2022-03-29 07:56,-117.0904,38.0505,1654.00,36.00,33.00,89.09,360.00,3.00,0.00,29.74,1004.80,10.00,M,SCT,M,M,M,7000.00,M,M,M,M,M,M,M,M,M,M,33.26,KTPH 290756Z AUTO 36003KT 10SM SCT070 02/01 A2974 RMK AO2 SLP048 T00220006 401500022,M
LAS,2022-03-29 07:56,-115.1634,36.0719,663.00,52.00,48.00,86.17,70.00,6.00,0.00,29.74,1005.50,10.00,M,FEW,BKN,BKN,M,5000.00,14000.00,25000.00,M,M,M,M,M,M,M,M,52.00,KLAS 290756Z 07006KT 10SM FEW050 BKN140 BKN250 11/09 A2974 RMK AO2 SLP055 T01110089 402610106,M
EKO,2022-03-29 07:56,-115.7860,40.8242,1367.00,40.00,26.10,57.47,0.00,0.00,0.00,29.70,1003.10,10.00,M,CLR,M,M,M,M,M,M,M,M,M,M,M,M,M,M,39.90,KEKO 290756Z AUTO 00000KT 10SM CLR 04/M03 A2970 RMK AO2 SLP031 T00441033 401940039,M
WMC,2022-03-29 07:56,-117.8072,40.9019,1315.00,37.00,33.00,85.64,320.00,5.00,0.00,29.75,1005.30,10.00,M,CLR,M,M,M,M,M,M,M,M,M,M,M,M,M,M,32.33,KWMC 290756Z AUTO 32005KT 10SM CLR 03/01 A2975 RMK AO2 SLP053 T00280006 401890022,M
HND,2022-03-29 07:56,-115.1344,35.9729,742.79,52.00,42.00,68.86,210.00,9.00,0.00,29.72,1006.50,10.00,M,CLR,M,M,M,M,M,M,M,M,M,M,M,M,M,M,52.00,KHND 290756Z AUTO 21009KT 10SM CLR 11/06 A2972 RMK AO2 SLP065 T01110056,M
LSV,2022-03-29 07:58,-115.0343,36.2362,570.00,53.00,53.00,100.00,60.00,6.00,0.00,29.70,1004.30,10.00,M,CLR,M,M,M,M,M,M,M,M,M,M,M,M,M,M,52.90,KLSV 290758Z AUTO 06006KT 10SM CLR 12/12 A2970 RMK AO2 SLP043 T01160116 402750116 $,M
INS,2022-03-29 07:58,-115.6733,36.5872,955.00,48.00,38.70,70.03,240.00,5.00,0.00,29.71,1003.10,10.00,M,FEW,M,M,M,20000.00,M,M,M,M,M,M,M,M,M,M,45.40,KINS 290758Z AUTO 24005KT 10SM FEW200 09/04 A2971 RMK AO2 SLP031 T00890037 402330086 $,M
CXP,2022-03-29 08:15,-119.7326,39.1923,1431.00,39.20,35.60,86.79,0.00,0.00,0.00,29.84,M,10.00,M,FEW,FEW,OVC,M,2600.00,4000.00,7000.00,M,M,M,M,M,M,M,M,39.20,KCXP 290815Z AUTO 00000KT 10SM FEW026 FEW040 OVC070 04/02 A2984 RMK AO2,M
BVU,2022-03-29 08:15,-114.8611,35.9475,671.00,50.00,46.40,87.37,40.00,3.00,0.00,29.72,M,10.00,M,OVC,M,M,M,10000.00,M,M,M,M,M,M,M,M,M,M,50.00,KBVU 290815Z AUTO 04003KT 10SM OVC100 10/08 A2972 RMK AO2,M
RTS,2022-03-29 08:15,-119.8764,39.6682,1539.00,41.00,32.00,70.08,300.00,6.00,0.00,29.84,M,10.00,M,BKN,OVC,M,M,2700.00,3200.00,M,M,-DZ,M,M,M,M,M,M,36.37,KRTS 290815Z AUTO 30006KT 10SM -DZ BKN027 OVC032 05/00 A2984 RMK AO2,M
05U,2022-03-29 08:15,-116.0051,39.6042,1811.23,32.00,28.40,86.39,0.00,0.00,0.00,29.76,M,10.00,M,FEW,M,M,M,8000.00,M,M,M,M,M,M,M,M,M,M,32.00,K05U 290815Z AUTO 00000KT 10SM FEW080 M00/M02 A2976 RMK A01,M
MEV,2022-03-29 08:15,-119.7500,38.9963,1441.42,35.60,33.80,93.08,340.00,4.00,0.00,29.83,M,10.00,M,FEW,OVC,M,M,5000.00,6500.00,M,M,M,M,M,M,M,M,M,31.62,KMEV 290815Z AUTO 34004KT 10SM FEW050 OVC065 02/01 A2983 RMK AO2,M
TMT,2022-03-29 08:15,-117.1971,39.4643,1749.34,32.00,26.40,79.56,350.00,4.00,0.00,29.75,M,10.00,M,SCT,OVC,M,M,6500.00,7500.00,M,M,M,M,M,M,M,M,M,27.42,KTMT 290815Z AUTO 35004KT 10SM SCT065 OVC075 00/M03 A2975 RMK AO2 T00001031,M
BAM,2022-03-29 08:15,-116.8743,40.5990,1382.36,42.80,35.60,75.50,340.00,5.00,0.00,29.74,M,10.00,M,CLR,M,M,M,M,M,M,M,M,M,M,M,M,M,M,39.22,KBAM 290815Z AUTO 34005KT 10SM CLR 06/02 A2974 RMK AO1,M
HTH,2022-03-29 08:15,-118.6315,38.5448,1282.89,46.40,37.40,70.68,330.00,5.00,0.00,29.78,M,8.00,M,SCT,BKN,OVC,M,3000.00,3800.00,4800.00,M,M,M,M,M,M,M,M,43.50,KHTH 290815Z AUTO 33005KT 8SM SCT030 BKN038 OVC048 08/03 A2978 RMK A01,M
BAM,2022-03-29 08:35,-116.8743,40.5990,1382.36,42.80,35.60,75.50,320.00,6.00,0.00,29.74,M,10.00,M,CLR,M,M,M,M,M,M,M,M,M,M,M,M,M,M,38.54,KBAM 290835Z AUTO 32006KT 10SM CLR 06/02 A2974 RMK AO1,M
CXP,2022-03-29 08:35,-119.7326,39.1923,1431.00,39.20,35.60,86.79,0.00,0.00,0.00,29.84,M,10.00,M,FEW,BKN,OVC,M,2800.00,3900.00,6500.00,M,-UP,M,M,M,M,M,M,39.20,KCXP 290835Z AUTO 00000KT 10SM -UP FEW028 BKN039 OVC065 04/02 A2984 RMK AO2,M
TMT,2022-03-29 08:35,-117.1971,39.4643,1749.34,32.00,26.60,80.22,350.00,3.00,0.00,29.76,M,10.00,M,SCT,OVC,M,M,6500.00,7500.00,M,M,M,M,M,M,M,M,M,28.69,KTMT 290835Z AUTO 35003KT 10SM SCT065 OVC075 00/M03 A2976 RMK AO2 T00001030,M
HTH,2022-03-29 08:35,-118.6315,38.5448,1282.89,44.60,37.40,75.68,320.00,4.00,0.00,29.78,M,9.00,M,BKN,OVC,M,M,3100.00,4000.00,M,M,M,M,M,M,M,M,M,42.13,KHTH 290835Z AUTO 32004KT 9SM BKN031 OVC040 07/03 A2978 RMK A01,M
BVU,2022-03-29 08:35,-114.8611,35.9475,671.00,51.80,46.40,81.74,30.00,4.00,0.00,29.72,M,10.00,M,OVC,M,M,M,10000.00,M,M,M,M,M,M,M,M,M,M,51.80,KBVU 290835Z AUTO 03004KT 10SM OVC100 11/08 A2972 RMK AO2,M
RTS,2022-03-29 08:35,-119.8764,39.6682,1539.00,39.20,33.80,80.79,280.00,7.00,0.00,29.84,M,10.00,M,FEW,SCT,BKN,M,2300.00,2700.00,3500.00,M,-DZ,M,M,M,M,M,M,33.56,KRTS 290835Z AUTO 28007KT 10SM -DZ FEW023 SCT027 BKN035 04/01 A2984 RMK AO2,M
05U,2022-03-29 08:35,-116.0051,39.6042,1811.23,30.20,26.60,86.28,0.00,0.00,0.00,29.75,M,10.00,M,FEW,M,M,M,8000.00,M,M,M,M,M,M,M,M,M,M,30.20,K05U 290835Z AUTO 00000KT 10SM FEW080 M01/M03 A2975 RMK A01,M
MEV,2022-03-29 08:35,-119.7500,38.9963,1441.42,35.60,35.60,100.00,100.00,4.00,0.00,29.83,M,10.00,M,SCT,BKN,OVC,M,4700.00,7000.00,9500.00,M,M,M,M,M,M,M,M,31.62,KMEV 290835Z AUTO 10004KT 10SM SCT047 BKN070 OVC095 02/02 A2983 RMK AO2,M
DRA,2022-03-29 08:53,-116.0278,36.6206,1009.00,48.00,36.00,62.97,200.00,3.00,0.00,29.71,1003.10,10.00,M,FEW,OVC,M,M,4600.00,5500.00,M,M,M,M,M,M,M,M,M,46.98,KDRA 290853Z AUTO 20003KT 10SM FEW046 OVC055 09/02 A2971 RMK AO2 SLP031 T00890022 53005 $,M
LOL,2022-03-29 08:53,-118.5701,40.0684,1192.43,47.00,38.00,70.73,320.00,6.00,0.00,29.76,1006.30,10.00,M,OVC,M,M,M,3600.00,M,M,M,M,M,M,M,M,M,M,43.48,KLOL 290853Z AUTO 32006KT 10SM OVC036 08/03 A2976 RMK AO2 SLP063 T00830033 51011,M
VGT,2022-03-29 08:53,-115.1933,36.2111,667.00,53.00,46.00,76.75,0.00,0.00,0.00,29.70,1006.10,10.00,M,CLR,M,M,M,M,M,M,M,M,M,M,M,M,M,M,53.10,KVGT 290853Z AUTO 00000KT 10SM CLR 12/08 A2970 RMK AO2 SLP061 T01170078 53002,M
ELY,2022-03-29 08:53,-114.8453,39.2950,1909.00,37.00,28.00,69.63,300.00,5.00,0.00,29.73,1001.30,10.00,M,SCT,M,M,M,6500.00,M,M,M,M,M,M,M,M,M,M,32.33,KELY 290853Z AUTO 30005KT 10SM SCT065 03/M02 A2973 RMK AO2 SLP013 T00281022 58005,M
P68,2022-03-29 08:53,-116.0056,39.6014,1993.00,30.00,25.00,81.40,0.00,0.00,0.00,29.73,1003.50,M,M,M,M,M,M,M,M,M,M,M,M,M,M,M,M,M,30.00,KP68 290853Z AUTO 00000KT M01/M04 A2973 RMK AO1 SLP035 T10111039 53000,M
BAM,2022-03-29 08:55,-116.8743,40.5990,1382.36,42.80,35.60,75.50,340.00,6.00,0.00,29.75,M,10.00,M,CLR,M,M,M,M,M,M,M,M,M,M,M,M,M,M,38.54,KBAM 290855Z AUTO 34006KT 10SM CLR 06/02 A2975 RMK AO1,M
BVU,2022-03-29 08:55,-114.8611,35.9475,671.00,50.00,46.40,87.37,0.00,0.00,0.00,29.71,M,10.00,M,OVC,M,M,M,10000.00,M,M,M,M,M,M,M,M,M,M,50.00,KBVU 290855Z AUTO 00000KT 10SM OVC100 10/08 A2971 RMK AO2,M
MEV,2022-03-29 08:55,-119.7500,38.9963,1441.42,35.60,33.80,93.08,70.00,4.00,0.08,29.83,M,10.00,M,OVC,M,M,M,4500.00,M,M,M,M,M,M,M,M,M,M,31.62,KMEV 290855Z AUTO 07004KT 10SM OVC045 02/01 A2983 RMK AO2 P0008,M
05U,2022-03-29 08:55,-116.0051,39.6042,1811.23,28.40,26.60,92.86,0.00,0.00,0.00,29.76,M,10.00,M,CLR,M,M,M,M,M,M,M,M,M,M,M,M,M,M,28.40,K05U 290855Z AUTO 00000KT 10SM CLR M02/M03 A2976 RMK A01,M
HTH,2022-03-29 08:55,-118.6315,38.5448,1282.89,44.60,37.40,75.68,0.00,0.00,0.00,29.78,M,10.00,M,OVC,M,M,M,3900.00,M,M,M,M,M,M,M,M,M,M,44.60,KHTH 290855Z AUTO 00000KT 10SM OVC039 07/03 A2978 RMK A01,M
RTS,2022-03-29 08:55,-119.8764,39.6682,1539.00,39.20,33.80,80.79,280.00,9.00,0.00,29.84,M,10.00,M,BKN,BKN,OVC,M,2600.00,3500.00,5500.00,M,M,M,M,M,M,M,M,32.47,KRTS 290855Z AUTO 28009KT 10SM BKN026 BKN035 OVC055 04/01 A2984 RMK AO2,M
CXP,2022-03-29 08:55,-119.7326,39.1923,1431.00,39.20,35.60,86.79,0.00,0.00,0.00,29.84,M,10.00,M,FEW,BKN,OVC,M,2700.00,3200.00,3900.00,M,-UP,M,M,M,M,M,M,39.20,KCXP 290855Z AUTO 00000KT 10SM -UP FEW027 BKN032 OVC039 04/02 A2984 RMK AO2,M
RNO,2022-03-29 08:55,-119.7711,39.4839,1341.00,45.00,35.00,68.05,10.00,8.00,T,29.82,1007.50,10.00,M,BKN,OVC,M,M,3300.00,4400.00,M,M,M,M,M,M,M,M,M,40.13,KRNO 290855Z 01008KT 10SM BKN033 OVC044 07/02 A2982 RMK AO2 RAE53 SLP075 P0000 60000 T00720017 51012,M
TMT,2022-03-29 08:55,-117.1971,39.4643,1749.34,33.00,26.80,78.01,0.00,0.00,0.00,29.75,M,10.00,M,SCT,OVC,M,M,6500.00,7500.00,M,M,M,M,M,M,M,M,M,32.90,KTMT 290855Z AUTO 00000KT 10SM SCT065 OVC075 01/M03 A2975 RMK AO2 T00051029,M
HND,2022-03-29 08:56,-115.1344,35.9729,742.79,51.00,44.00,76.86,0.00,0.00,0.00,29.72,1006.60,10.00,M,FEW,M,M,M,12000.00,M,M,M,M,M,M,M,M,M,M,51.10,KHND 290856Z AUTO 00000KT 10SM FEW120 11/07 A2972 RMK AO2 SLP066 T01060067 55000,M
EKO,2022-03-29 08:56,-115.7860,40.8242,1367.00,36.00,25.00,63.98,0.00,0.00,0.00,29.70,1003.50,10.00,M,CLR,M,M,M,M,M,M,M,M,M,M,M,M,M,M,36.00,KEKO 290856Z AUTO 00000KT 10SM CLR 02/M04 A2970 RMK AO2 SLP035 T00221039 51005,M
LAS,2022-03-29 08:56,-115.1634,36.0719,663.00,52.00,46.00,79.92,70.00,7.00,0.00,29.70,1004.30,10.00,M,FEW,BKN,M,M,11000.00,15000.00,M,M,M,M,M,M,M,M,M,52.00,KLAS 290856Z 07007KT 10SM FEW110 BKN150 11/08 A2970 RMK AO2 SLP043 T01110078 58000,M
TPH,2022-03-29 08:56,-117.0904,38.0505,1654.00,36.00,32.00,85.23,30.00,5.00,0.00,29.74,1005.70,10.00,M,OVC,M,M,M,6000.00,M,M,M,M,M,M,M,M,M,M,31.15,KTPH 290856Z AUTO 03005KT 10SM OVC060 02/00 A2974 RMK AO2 SLP057 T00220000 51001,M
NFL,2022-03-29 08:56,-118.7010,39.4166,1199.00,47.00,37.00,68.27,330.00,14.00,0.00,29.78,1006.30,10.00,M,BKN,BKN,OVC,M,4300.00,5000.00,8500.00,M,M,M,M,M,M,M,M,40.37,KNFL 290856Z AUTO 33014KT 10SM BKN043 BKN050 OVC085 08/03 A2978 RMK AO2 SLP063 T00830028 51017,M
WMC,2022-03-29 08:56,-117.8072,40.9019,1315.00,36.00,34.00,92.35,270.00,6.00,0.00,29.76,1005.90,10.00,M,SCT,M,M,M,3900.00,M,M,M,M,M,M,M,M,M,M,30.35,KWMC 290856Z AUTO 27006KT 10SM SCT039 02/01 A2976 RMK AO2 SLP059 T00220011 51006,M
INS,2022-03-29 08:58,-115.6733,36.5872,955.00,46.60,39.00,74.69,0.00,0.00,0.00,29.71,1003.30,10.00,M,CLR,M,M,M,M,M,M,M,M,M,M,M,M,M,M,46.60,KINS 290858Z AUTO 00000KT 10SM CLR 08/04 A2971 RMK AO2 SLP033 T00810039 53002 $,M
LSV,2022-03-29 08:58,-115.0343,36.2362,570.00,51.00,51.00,100.00,50.00,9.00,0.00,29.70,1004.30,10.00,M,FEW,M,M,M,14000.00,M,M,M,M,M,M,M,M,M,M,51.10,KLSV 290858Z AUTO 05009KT 10SM FEW140 11/11 A2970 RMK AO2 SLP043 T01060106 50004 $,M
HTH,2022-03-29 09:15,-118.6315,38.5448,1282.89,44.60,37.40,75.68,270.00,4.00,0.00,29.78,M,10.00,M,OVC,M,M,M,3600.00,M,M,M,M,M,M,M,M,M,M,42.13,KHTH 290915Z AUTO 27004KT 10SM OVC036 07/03 A2978 RMK A01,M
CXP,2022-03-29 09:15,-119.7326,39.1923,1431.00,39.20,35.60,86.79,200.00,4.00,0.00,29.84,M,8.00,M,BKN,BKN,OVC,M,3000.00,4800.00,7000.00,M,-UP,M,M,M,M,M,M,35.83,KCXP 290915Z AUTO 20004KT 8SM -UP BKN030 BKN048 OVC070 04/02 A2984 RMK AO2,M
TMT,2022-03-29 09:15,-117.1971,39.4643,1749.34,33.00,27.10,78.98,0.00,0.00,0.00,29.76,M,10.00,M,OVC,M,M,M,6500.00,M,M,M,M,M,M,M,M,M,M,32.90,KTMT 290915Z AUTO 00000KT 10SM OVC065 01/M03 A2976 RMK AO2 T00051027,M
BVU,2022-03-29 09:15,-114.8611,35.9475,671.00,51.80,44.60,76.34,0.00,0.00,0.00,29.70,M,10.00,M,BKN,BKN,M,M,9500.00,12000.00,M,M,M,M,M,M,M,M,M,51.80,KBVU 290915Z AUTO 00000KT 10SM BKN095 BKN120 11/07 A2970 RMK AO2,M
RTS,2022-03-29 09:15,-119.8764,39.6682,1539.00,39.20,33.80,80.79,260.00,8.00,0.00,29.84,M,10.00,M,BKN,OVC,M,M,2600.00,5500.00,M,M,M,M,M,M,M,M,M,32.98,KRTS 290915Z AUTO 26008KT 10SM BKN026 OVC055 04/01 A2984 RMK AO2,M
MEV,2022-03-29 09:15,-119.7500,38.9963,1441.42,37.40,35.60,93.14,70.00,3.00,0.00,29.84,M,10.00,M,BKN,OVC,M,M,3700.00,4400.00,M,M,-RA,M,M,M,M,M,M,34.86,KMEV 290915Z AUTO 07003KT 10SM -RA BKN037 OVC044 03/02 A2984 RMK AO2,M
BAM,2022-03-29 09:15,-116.8743,40.5990,1382.36,39.20,33.80,80.79,10.00,4.00,0.00,29.75,M,10.00,M,CLR,M,M,M,M,M,M,M,M,M,M,M,M,M,M,35.83,KBAM 290915Z AUTO 01004KT 10SM CLR 04/01 A2975 RMK AO1,M
TMT,2022-03-29 09:35,-117.1971,39.4643,1749.34,32.20,26.80,80.23,0.00,0.00,0.00,29.76,M,10.00,M,OVC,M,M,M,6500.00,M,M,M,M,M,M,M,M,M,M,32.20,KTMT 290935Z AUTO 00000KT 10SM OVC065 00/M03 A2976 RMK AO2 T00011029,M
BVU,2022-03-29 09:35,-114.8611,35.9475,671.00,50.00,46.40,87.37,10.00,4.00,0.00,29.70,M,10.00,M,SCT,BKN,M,M,9500.00,12000.00,M,M,M,M,M,M,M,M,M,50.00,KBVU 290935Z AUTO 01004KT 10SM SCT095 BKN120 10/08 A2970 RMK AO2,M
CXP,2022-03-29 09:35,-119.7326,39.1923,1431.00,39.20,37.40,93.19,0.00,0.00,0.00,29.84,M,10.00,M,FEW,BKN,OVC,M,2300.00,2900.00,5500.00,M,M,M,M,M,M,M,M,39.20,KCXP 290935Z AUTO 00000KT 10SM FEW023 BKN029 OVC055 04/03 A2984 RMK AO2,M
RTS,2022-03-29 09:35,-119.8764,39.6682,1539.00,39.20,35.60,86.79,310.00,7.00,0.00,29.83,M,9.00,M,OVC,M,M,M,2400.00,M,M,M,-DZ,M,M,M,M,M,M,33.56,KRTS 290935Z AUTO 31007KT 9SM -DZ OVC024 04/02 A2983 RMK AO2,M
MEV,2022-03-29 09:35,-119.7500,38.9963,1441.42,37.40,35.60,93.14,180.00,3.00,0.00,29.84,M,9.00,M,SCT,BKN,OVC,M,2400.00,2900.00,3700.00,M,-RA,M,M,M,M,M,M,34.86,KMEV 290935Z AUTO 18003KT 9SM -RA SCT024 BKN029 OVC037 03/02 A2984 RMK AO2,M
BAM,2022-03-29 09:35,-116.8743,40.5990,1382.36,39.20,33.80,80.79,350.00,5.00,0.00,29.75,M,10.00,M,CLR,M,M,M,M,M,M,M,M,M,M,M,M,M,M,34.95,KBAM 290935Z AUTO 35005KT 10SM CLR 04/01 A2975 RMK AO1,M
HTH,2022-03-29 09:35,-118.6315,38.5448,1282.89,44.60,39.20,81.20,0.00,0.00,0.00,29.79,M,10.00,M,OVC,M,M,M,3700.00,M,M,M,M,M,M,M,M,M,M,44.60,KHTH 290935Z AUTO 00000KT 10SM OVC037 07/04 A2979 RMK A01,M
CXP,2022-03-29 09:50,-119.7326,39.1923,1431.00,39.20,37.40,93.19,0.00,0.00,0.00,29.84,M,10.00,M,FEW,SCT,BKN,M,2600.00,3000.00,3900.00,M,M,M,M,M,M,M,M,39.20,KCXP 290950Z AUTO 00000KT 10SM FEW026 SCT030 BKN039 04/03 A2984 RMK AO2,M
DRA,2022-03-29 09:53,-116.0278,36.6206,1009.00,47.00,35.00,63.33,40.00,7.00,0.00,29.70,1003.00,10.00,M,SCT,M,M,M,5500.00,M,M,M,M,M,M,M,M,M,M,42.94,KDRA 290953Z AUTO 04007KT 10SM SCT055 08/02 A2970 RMK AO2 SLP030 T00830017 $,M
VGT,2022-03-29 09:53,-115.1933,36.2111,667.00,53.00,46.00,76.75,0.00,0.00,0.00,29.69,1005.70,10.00,M,CLR,M,M,M,M,M,M,M,M,M,M,M,M,M,M,53.10,KVGT 290953Z AUTO 00000KT 10SM CLR 12/08 A2969 RMK AO2 SLP057 T01170078,M
ELY,2022-03-29 09:53,-114.8453,39.2950,1909.00,30.90,25.00,78.48,290.00,5.00,0.00,29.71,1001.80,10.00,M,CLR,M,M,M,M,M,M,M,M,M,M,M,M,M,M,25.09,KELY 290953Z AUTO 29005KT 10SM CLR M01/M04 A2971 RMK AO2 SLP018 T10061039,M
P68,2022-03-29 09:53,-116.0056,39.6014,1993.00,30.90,27.00,85.26,170.00,6.00,0.00,29.73,1003.10,M,M,M,M,M,M,M,M,M,M,M,M,M,M,M,M,M,24.21,KP68 290953Z AUTO 17006KT M01/M03 A2973 RMK AO1 SLP031 T10061028,M
LOL,2022-03-29 09:53,-118.5701,40.0684,1192.43,48.00,39.00,70.85,50.00,3.00,0.00,29.77,1006.50,10.00,M,BKN,OVC,M,M,3000.00,3700.00,M,M,M,M,M,M,M,M,M,46.98,KLOL 290953Z AUTO 05003KT 10SM BKN030 OVC037 09/04 A2977 RMK AO2 SLP065 T00890039,M
BVU,2022-03-29 09:55,-114.8611,35.9475,671.00,50.00,46.40,87.37,30.00,3.00,0.00,29.69,M,10.00,M,FEW,M,M,M,10000.00,M,M,M,M,M,M,M,M,M,M,50.00,KBVU 290955Z AUTO 03003KT 10SM FEW100 10/08 A2969 RMK AO2,M
RTS,2022-03-29 09:55,-119.8764,39.6682,1539.00,39.20,35.60,86.79,300.00,9.00,0.00,29.84,M,10.00,M,BKN,BKN,OVC,M,2100.00,2600.00,4800.00,M,-DZ,M,M,M,M,M,M,32.47,KRTS 290955Z AUTO 30009KT 10SM -DZ BKN021 BKN026 OVC048 04/02 A2984 RMK AO2,M
TMT,2022-03-29 09:55,-117.1971,39.4643,1749.34,32.50,27.50,81.59,0.00,0.00,0.00,29.76,M,10.00,M,OVC,M,M,M,6500.00,M,M,M,M,M,M,M,M,M,M,32.50,KTMT 290955Z AUTO 00000KT 10SM OVC065 00/M02 A2976 RMK AO2 T00031025,M
HTH,2022-03-29 09:55,-118.6315,38.5448,1282.89,44.60,39.20,81.20,0.00,0.00,0.01,29.79,M,10.00,M,OVC,M,M,M,3700.00,M,M,M,M,M,M,M,M,M,M,44.60,KHTH 290955Z AUTO 00000KT 10SM OVC037 07/04 A2979 RMK A01 P0001,M
BAM,2022-03-29 09:55,-116.8743,40.5990,1382.36,41.00,35.60,80.93,330.00,9.00,0.00,29.76,M,10.00,M,CLR,M,M,M,M,M,M,M,M,M,M,M,M,M,M,34.70,KBAM 290955Z AUTO 33009KT 10SM CLR 05/02 A2976 RMK AO1,M
MEV,2022-03-29 09:55,-119.7500,38.9963,1441.42,37.40,35.60,93.14,190.00,5.00,0.01,29.84,M,10.00,M,FEW,OVC,M,M,1900.00,2900.00,M,M,UP,M,M,M,M,M,M,32.81,KMEV 290955Z AUTO 19005KT 10SM UP FEW019 OVC029 03/02 A2984 RMK AO2 P0001,M
RNO,2022-03-29 09:55,-119.7711,39.4839,1341.00,45.00,36.00,70.53,30.00,4.00,T,29.83,1007.60,10.00,M,OVC,M,M,M,3200.00,M,M,M,M,M,M,M,M,M,M,42.60,KRNO 290955Z 03004KT 10SM OVC032 07/02 A2983 RMK AO2 RAB0859E10B40E50 SLP076 P0000 T00720022,M
WMC,2022-03-29 09:56,-117.8072,40.9019,1315.00,38.00,36.00,92.78,310.00,6.00,0.00,29.77,1006.50,10.00,M,BKN,M,M,M,3700.00,M,M,M,M,M,M,M,M,M,M,32.64,KWMC 290956Z AUTO 31006KT 10SM BKN037 03/02 A2977 RMK AO2 SLP065 T00330022,M
HND,2022-03-29 09:56,-115.1344,35.9729,742.79,51.00,45.00,79.54,280.00,6.00,0.00,29.71,1006.10,10.00,M,CLR,M,M,M,M,M,M,M,M,M,M,M,M,M,M,51.10,KHND 290956Z AUTO 28006KT 10SM CLR 11/07 A2971 RMK AO2 SLP061 T01060072,M
EKO,2022-03-29 09:56,-115.7860,40.8242,1367.00,36.00,26.10,66.97,0.00,0.00,0.00,29.71,1003.60,10.00,M,FEW,M,M,M,8000.00,M,M,M,M,M,M,M,M,M,M,36.00,KEKO 290956Z AUTO 00000KT 10SM FEW080 02/M03 A2971 RMK AO2 SLP036 T00221033,M
NFL,2022-03-29 09:56,-118.7010,39.4166,1199.00,45.00,40.00,82.19,290.00,8.00,0.00,29.78,1006.40,10.00,M,OVC,M,M,M,4300.00,M,M,M,M,M,M,M,M,M,M,40.13,KNFL 290956Z AUTO 29008KT 10SM OVC043 07/04 A2978 RMK AO2 SLP064 T00720044,M
LAS,2022-03-29 09:56,-115.1634,36.0719,663.00,51.00,45.00,79.54,350.00,3.00,0.00,29.69,1004.00,10.00,M,FEW,BKN,M,M,11000.00,15000.00,M,M,M,M,M,M,M,M,M,51.10,KLAS 290956Z 35003KT 10SM FEW110 BKN150 11/07 A2969 RMK AO2 SLP040 T01060072,M
TPH,2022-03-29 09:56,-117.0904,38.0505,1654.00,38.00,33.00,82.66,10.00,7.00,0.00,29.74,1005.30,10.00,M,OVC,M,M,M,5000.00,M,M,M,M,M,M,M,M,M,M,31.97,KTPH 290956Z AUTO 01007KT 10SM OVC050 03/01 A2974 RMK AO2 SLP053 T00330006,M
INS,2022-03-29 09:58,-115.6733,36.5872,955.00,47.30,37.60,68.86,180.00,4.00,0.00,29.71,1003.10,10.00,M,CLR,M,M,M,M,M,M,M,M,M,M,M,M,M,M,45.29,KINS 290958Z AUTO 18004KT 10SM CLR 09/03 A2971 RMK AO2 SLP031 T00850031 $,M
LSV,2022-03-29 09:58,-115.0343,36.2362,570.00,50.70,50.70,100.00,70.00,6.00,0.00,29.69,1004.00,10.00,M,CLR,M,M,M,M,M,M,M,M,M,M,M,M,M,M,50.70,KLSV 290958Z AUTO 07006KT 10SM CLR 10/10 A2969 RMK AO2 SLP040 T01040104 $,M
CXP,2022-03-29 10:10,-119.7326,39.1923,1431.00,39.20,37.40,93.19,0.00,0.00,0.00,29.84,M,10.00,M,FEW,SCT,OVC,M,3900.00,4600.00,5500.00,M,M,M,M,M,M,M,M,39.20,KCXP 291010Z AUTO 00000KT 10SM FEW039 SCT046 OVC055 04/03 A2984 RMK AO2,M
RTS,2022-03-29 10:15,-119.8764,39.6682,1539.00,39.20,35.60,86.79,300.00,7.00,0.00,29.84,M,10.00,M,FEW,SCT,OVC,M,1700.00,2200.00,4200.00,M,M,M,M,M,M,M,M,33.56,KRTS 291015Z AUTO 30007KT 10SM FEW017 SCT022 OVC042 04/02 A2984 RMK AO2,M
BVU,2022-03-29 10:15,-114.8611,35.9475,671.00,50.00,44.60,81.61,0.00,0.00,0.00,29.70,M,10.00,M,CLR,M,M,M,M,M,M,M,M,M,M,M,M,M,M,50.00,KBVU 291015Z AUTO 00000KT 10SM CLR 10/07 A2970 RMK AO2,M
MEV,2022-03-29 10:15,-119.7500,38.9963,1441.42,37.40,35.60,93.14,170.00,5.00,0.00,29.83,M,9.00,M,FEW,BKN,OVC,M,2300.00,2900.00,3700.00,M,-RA,M,M,M,M,M,M,32.81,KMEV 291015Z AUTO 17005KT 9SM -RA FEW023 BKN029 OVC037 03/02 A2983 RMK AO2,M
TMT,2022-03-29 10:15,-117.1971,39.4643,1749.34,33.30,27.30,78.37,0.00,0.00,0.00,29.76,M,10.00,M,OVC,M,M,M,6500.00,M,M,M,M,M,M,M,M,M,M,33.30,KTMT 291015Z AUTO 00000KT 10SM OVC065 01/M03 A2976 RMK AO2 T00071026,M
HTH,2022-03-29 10:15,-118.6315,38.5448,1282.89,44.60,37.40,75.68,350.00,10.00,0.00,29.79,M,10.00,M,OVC,M,M,M,3900.00,M,M,M,M,M,M,M,M,M,M,38.77,KHTH 291015Z AUTO 35010KT 10SM OVC039 07/03 A2979 RMK A01,M
BAM,2022-03-29 10:15,-116.8743,40.5990,1382.36,42.80,35.60,75.50,340.00,6.00,0.00,29.76,M,10.00,M,CLR,M,M,M,M,M,M,M,M,M,M,M,M,M,M,38.54,KBAM 291015Z AUTO 34006KT 10SM CLR 06/02 A2976 RMK AO1,M
05U,2022-03-29 10:25,-116.0051,39.6042,1811.23,30.20,28.40,92.92,0.00,0.00,0.00,29.75,M,10.00,M,CLR,M,M,M,M,M,M,M,M,M,M,M,M,M,M,30.20,K05U 291025Z AUTO 00000KT 10SM CLR M01/M02 A2975 RMK A01,M
LSV,2022-03-29 10:26,-115.0343,36.2362,570.00,50.00,50.00,100.00,90.00,6.00,0.00,29.69,1004.10,10.00,M,BKN,M,M,M,4100.00,M,M,M,M,M,M,M,M,M,M,50.00,KLSV 291026Z AUTO 09006KT 10SM BKN041 10/10 A2969 RMK AO2 SLP041 $,M
CXP,2022-03-29 10:30,-119.7326,39.1923,1431.00,39.20,37.40,93.19,0.00,0.00,0.00,29.85,M,10.00,M,FEW,BKN,OVC,M,3500.00,4700.00,5500.00,M,M,M,M,M,M,M,M,39.20,KCXP 291030Z AUTO 00000KT 10SM FEW035 BKN047 OVC055 04/03 A2985 RMK AO2,M
LSV,2022-03-29 10:33,-115.0343,36.2362,570.00,50.00,50.00,100.00,80.00,6.00,0.00,29.69,1004.10,10.00,M,SCT,M,M,M,4100.00,M,M,M,M,M,M,M,M,M,M,50.00,KLSV 291033Z AUTO 08006KT 10SM SCT041 10/10 A2969 RMK AO2 SLP041 $,M
BAM,2022-03-29 10:35,-116.8743,40.5990,1382.36,41.00,35.60,80.93,340.00,4.00,0.00,29.77,M,10.00,M,SCT,M,M,M,3100.00,M,M,M,M,M,M,M,M,M,M,37.93,KBAM 291035Z AUTO 34004KT 10SM SCT031 05/02 A2977 RMK AO1,M
TMT,2022-03-29 10:35,-117.1971,39.4643,1749.34,33.30,27.90,80.32,0.00,0.00,0.00,29.76,M,10.00,M,OVC,M,M,M,6500.00,M,M,M,M,M,M,M,M,M,M,33.30,KTMT 291035Z AUTO 00000KT 10SM OVC065 01/M02 A2976 RMK AO2 T00071023,M
RTS,2022-03-29 10:35,-119.8764,39.6682,1539.00,39.20,35.60,86.79,310.00,5.00,0.00,29.84,M,10.00,M,OVC,M,M,M,4100.00,M,M,M,M,M,M,M,M,M,M,34.95,KRTS 291035Z AUTO 31005KT 10SM OVC041 04/02 A2984 RMK AO2,M
BVU,2022-03-29 10:35,-114.8611,35.9475,671.00,50.00,44.60,81.61,70.00,3.00,0.00,29.70,M,10.00,M,CLR,M,M,M,M,M,M,M,M,M,M,M,M,M,M,50.00,KBVU 291035Z AUTO 07003KT 10SM CLR 10/07 A2970 RMK AO2,M
MEV,2022-03-29 10:35,-119.7500,38.9963,1441.42,37.40,35.60,93.14,230.00,5.00,0.00,29.84,M,10.00,M,SCT,BKN,OVC,M,2400.00,3200.00,6000.00,M,-RA,M,M,M,M,M,M,32.81,KMEV 291035Z AUTO 23005KT 10SM -RA SCT024 BKN032 OVC060 03/02 A2984 RMK AO2,M
HTH,2022-03-29 10:35,-118.6315,38.5448,1282.89,46.40,37.40,70.68,350.00,13.00,0.00,29.80,M,10.00,M,BKN,OVC,M,M,3500.00,4100.00,M,M,M,M,M,M,M,M,M,40.02,KHTH 291035Z AUTO 35013KT 10SM BKN035 OVC041 08/03 A2980 RMK A01,M
CXP,2022-03-29 10:50,-119.7326,39.1923,1431.00,39.20,35.60,86.79,240.00,3.00,0.00,29.85,M,10.00,M,BKN,BKN,OVC,M,3300.00,4000.00,4700.00,M,M,M,M,M,M,M,M,36.92,KCXP 291050Z AUTO 24003KT 10SM BKN033 BKN040 OVC047 04/02 A2985 RMK AO2,M
ELY,2022-03-29 10:53,-114.8453,39.2950,1909.00,30.90,26.10,82.15,170.00,5.00,0.00,29.71,1002.10,10.00,M,CLR,M,M,M,M,M,M,M,M,M,M,M,M,M,M,25.09,KELY 291053Z AUTO 17005KT 10SM CLR M01/M03 A2971 RMK AO2 SLP021 T10061033,M
LOL,2022-03-29 10:53,-118.5701,40.0684,1192.43,45.00,37.00,73.37,80.00,4.00,0.00,29.79,1007.40,10.00,M,BKN,OVC,M,M,2800.00,8000.00,M,M,M,M,M,M,M,M,M,42.60,KLOL 291053Z AUTO 08004KT 10SM BKN028 OVC080 07/03 A2979 RMK AO2 SLP074 T00720028,M
VGT,2022-03-29 10:53,-115.1933,36.2111,667.00,52.00,46.00,79.92,0.00,0.00,0.00,29.70,1006.00,10.00,M,FEW,M,M,M,7000.00,M,M,M,M,M,M,M,M,M,M,52.00,KVGT 291053Z AUTO 00000KT 10SM FEW070 11/08 A2970 RMK AO2 SLP060 T01110078,M
DRA,2022-03-29 10:53,-116.0278,36.6206,1009.00,43.00,34.00,70.30,20.00,6.00,0.00,29.70,1003.50,10.00,M,FEW,M,M,M,6000.00,M,M,M,M,M,M,M,M,M,M,38.78,KDRA 291053Z AUTO 02006KT 10SM FEW060 06/01 A2970 RMK AO2 SLP035 T00610011 $,M
P68,2022-03-29 10:53,-116.0056,39.6014,1993.00,30.00,25.00,81.40,180.00,3.00,0.00,29.73,1003.60,M,M,M,M,M,M,M,M,M,M,M,M,M,M,M,M,M,26.40,KP68 291053Z AUTO 18003KT M01/M04 A2973 RMK AO1 SLP036 T10111039,M
05U,2022-03-29 10:55,-116.0051,39.6042,1811.23,28.40,26.60,92.86,0.00,0.00,0.00,29.75,M,10.00,M,CLR,M,M,M,M,M,M,M,M,M,M,M,M,M,M,28.40,K05U 291055Z AUTO 00000KT 10SM CLR M02/M03 A2975 RMK A01,M
TMT,2022-03-29 10:55,-117.1971,39.4643,1749.34,33.60,28.20,80.35,0.00,0.00,0.00,29.77,M,10.00,M,OVC,M,M,M,6500.00,M,M,M,M,M,M,M,M,M,M,33.60,KTMT 291055Z AUTO 00000KT 10SM OVC065 01/M02 A2977 RMK AO2 T00091021,M
BVU,2022-03-29 10:55,-114.8611,35.9475,671.00,50.00,44.60,81.61,0.00,0.00,0.00,29.70,M,10.00,M,CLR,M,M,M,M,M,M,M,M,M,M,M,M,M,M,50.00,KBVU 291055Z AUTO 00000KT 10SM CLR 10/07 A2970 RMK AO2,M
RNO,2022-03-29 10:55,-119.7711,39.4839,1341.00,45.00,35.00,68.05,20.00,5.00,0.00,29.84,1008.00,10.00,M,OVC,M,M,M,3400.00,M,M,M,M,M,M,M,M,M,M,41.83,KRNO 291055Z 02005KT 10SM OVC034 07/02 A2984 RMK AO2 SLP080 T00720017,M
BAM,2022-03-29 10:55,-116.8743,40.5990,1382.36,39.20,33.80,80.79,340.00,6.00,0.00,29.78,M,10.00,M,SCT,M,M,M,2900.00,M,M,M,M,M,M,M,M,M,M,34.20,KBAM 291055Z AUTO 34006KT 10SM SCT029 04/01 A2978 RMK AO1,M
HTH,2022-03-29 10:55,-118.6315,38.5448,1282.89,44.60,37.40,75.68,350.00,14.00,0.00,29.80,M,10.00,M,OVC,M,M,M,3600.00,M,M,M,M,M,M,M,M,M,M,37.40,KHTH 291055Z AUTO 35014KT 10SM OVC036 07/03 A2980 RMK A01,M
MEV,2022-03-29 10:55,-119.7500,38.9963,1441.42,37.40,35.60,93.14,240.00,3.00,0.00,29.85,M,10.00,M,FEW,FEW,OVC,M,2400.00,3100.00,5000.00,M,M,M,M,M,M,M,M,34.86,KMEV 291055Z AUTO 24003KT 10SM FEW024 FEW031 OVC050 03/02 A2985 RMK AO2,M
RTS,2022-03-29 10:55,-119.8764,39.6682,1539.00,37.40,33.80,86.69,290.00,3.00,0.00,29.85,M,10.00,M,SCT,BKN,OVC,M,2400.00,4300.00,5000.00,M,M,M,M,M,M,M,M,34.86,KRTS 291055Z AUTO 29003KT 10SM SCT024 BKN043 OVC050 03/01 A2985 RMK AO2,M
WMC,2022-03-29 10:56,-117.8072,40.9019,1315.00,41.00,38.00,88.62,260.00,4.00,0.00,29.79,1007.30,10.00,M,SCT,OVC,M,M,4200.00,4900.00,M,M,M,M,M,M,M,M,M,37.93,KWMC 291056Z AUTO 26004KT 10SM SCT042 OVC049 05/03 A2979 RMK AO2 SLP073 T00500033,M
NFL,2022-03-29 10:56,-118.7010,39.4166,1199.00,46.00,40.00,79.13,280.00,8.00,0.00,29.79,1006.60,10.00,M,OVC,M,M,M,3100.00,M,M,M,M,M,M,M,M,M,M,41.36,KNFL 291056Z AUTO 28008KT 10SM OVC031 08/04 A2979 RMK AO2 SLP066 T00780044,M
LAS,2022-03-29 10:56,-115.1634,36.0719,663.00,52.00,44.00,74.35,0.00,0.00,0.00,29.70,1004.50,10.00,M,FEW,FEW,BKN,M,6000.00,10000.00,24000.00,M,M,M,M,M,M,M,M,52.00,KLAS 291056Z 00000KT 10SM FEW060 FEW100 BKN240 11/07 A2970 RMK AO2 SLP045 T01110067,M
TPH,2022-03-29 10:56,-117.0904,38.0505,1654.00,38.00,33.00,82.66,360.00,6.00,0.00,29.75,1005.30,10.00,M,OVC,M,M,M,4900.00,M,M,M,M,M,M,M,M,M,M,32.64,KTPH 291056Z AUTO 36006KT 10SM OVC049 03/01 A2975 RMK AO2 SLP053 T00330006,M
EKO,2022-03-29 10:56,-115.7860,40.8242,1367.00,38.00,27.00,64.49,0.00,0.00,0.00,29.73,1004.40,10.00,M,SCT,M,M,M,8500.00,M,M,M,M,M,M,M,M,M,M,37.90,KEKO 291056Z AUTO 00000KT 10SM SCT085 03/M03 A2973 RMK AO2 SLP044 T00331028,M
HND,2022-03-29 10:56,-115.1344,35.9729,742.79,49.00,45.00,86.33,310.00,3.00,0.00,29.72,1006.90,10.00,M,FEW,M,M,M,6000.00,M,M,M,M,M,M,M,M,M,M,48.01,KHND 291056Z AUTO 31003KT 10SM FEW060 09/07 A2972 RMK AO2 SLP069 T00940072,M
LSV,2022-03-29 10:58,-115.0343,36.2362,570.00,50.40,50.40,100.00,80.00,5.00,0.00,29.70,1004.30,10.00,M,CLR,M,M,M,M,M,M,M,M,M,M,M,M,M,M,50.40,KLSV 291058Z AUTO 08005KT 10SM CLR 10/10 A2970 RMK AO2 SLP043 T01020102 $,M
INS,2022-03-29 10:58,-115.6733,36.5872,955.00,43.50,38.50,82.40,0.00,0.00,0.00,29.71,1003.70,10.00,M,CLR,M,M,M,M,M,M,M,M,M,M,M,M,M,M,43.50,KINS 291058Z AUTO 00000KT 10SM CLR 06/04 A2971 RMK AO2 SLP037 T00640036 $,M
LOL,2022-03-29 11:06,-118.5701,40.0684,1192.43,44.00,37.00,75.93,70.00,3.00,0.00,29.79,M,10.00,M,SCT,BKN,OVC,M,2800.00,6500.00,9000.00,M,M,M,M,M,M,M,M,42.52,KLOL 291106Z AUTO 07003KT 10SM SCT028 BKN065 OVC090 07/03 A2979 RMK AO2 T00670028,M
BAM,2022-03-29 11:15,-116.8743,40.5990,1382.36,41.00,35.60,80.93,330.00,7.00,0.00,29.79,M,10.00,M,OVC,M,M,M,2900.00,M,M,M,M,M,M,M,M,M,M,35.75,KBAM 291115Z AUTO 33007KT 10SM OVC029 05/02 A2979 RMK AO1,M
BVU,2022-03-29 11:15,-114.8611,35.9475,671.00,48.20,46.40,93.45,0.00,0.00,0.00,29.71,M,10.00,M,BKN,M,M,M,10000.00,M,M,M,M,M,M,M,M,M,M,48.20,KBVU 291115Z AUTO 00000KT 10SM BKN100 09/08 A2971 RMK AO2,M
RTS,2022-03-29 11:15,-119.8764,39.6682,1539.00,39.20,33.80,80.79,310.00,7.00,0.00,29.85,M,10.00,M,FEW,BKN,OVC,M,1900.00,2700.00,7500.00,M,M,M,M,M,M,M,M,33.56,KRTS 291115Z AUTO 31007KT 10SM FEW019 BKN027 OVC075 04/01 A2985 RMK AO2,M
05U,2022-03-29 11:15,-116.0051,39.6042,1811.23,28.40,26.60,92.86,0.00,0.00,0.00,29.76,M,10.00,M,SCT,M,M,M,3100.00,M,M,M,M,M,M,M,M,M,M,28.40,K05U 291115Z AUTO 00000KT 10SM SCT031 M02/M03 A2976 RMK A01,M
MEV,2022-03-29 11:15,-119.7500,38.9963,1441.42,37.40,35.60,93.14,240.00,3.00,0.00,29.85,M,10.00,M,BKN,OVC,M,M,4100.00,5000.00,M,M,M,M,M,M,M,M,M,34.86,KMEV 291115Z AUTO 24003KT 10SM BKN041 OVC050 03/02 A2985 RMK AO2,M
CXP,2022-03-29 11:15,-119.7326,39.1923,1431.00,39.20,37.40,93.19,0.00,0.00,0.00,29.86,M,10.00,M,OVC,M,M,M,3300.00,M,M,M,M,M,M,M,M,M,M,39.20,KCXP 291115Z AUTO 00000KT 10SM OVC033 04/03 A2986 RMK AO2,M
HTH,2022-03-29 11:15,-118.6315,38.5448,1282.89,44.60,37.40,75.68,360.00,10.00,0.00,29.81,M,10.00,M,OVC,M,M,M,3900.00,M,M,M,M,M,M,M,M,M,M,38.77,KHTH 291115Z AUTO 36010KT 10SM OVC039 07/03 A2981 RMK A01,M
TMT,2022-03-29 11:15,-117.1971,39.4643,1749.34,33.30,28.00,80.65,0.00,0.00,0.00,29.78,M,10.00,M,OVC,M,M,M,6500.00,M,M,M,M,M,M,M,M,M,M,33.30,KTMT 291115Z AUTO 00000KT 10SM OVC065 01/M02 A2978 RMK AO2 T00071022,M
LOL,2022-03-29 11:17,-118.5701,40.0684,1192.43,44.00,36.00,72.99,90.00,3.00,0.00,29.80,M,10.00,M,BKN,BKN,OVC,M,2800.00,6000.00,9500.00,M,M,M,M,M,M,M,M,42.52,KLOL 291117Z AUTO 09003KT 10SM BKN028 BKN060 OVC095 07/02 A2980 RMK AO2 T00670022,M
NFL,2022-03-29 11:33,-118.7010,39.4166,1199.00,46.00,40.00,79.13,260.00,5.00,0.00,29.80,M,10.00,M,OVC,M,M,M,2800.00,M,M,M,M,M,M,M,M,M,M,43.02,KNFL 291133Z AUTO 26005KT 10SM OVC028 08/04 A2980 RMK AO2 T00780044,M
BAM,2022-03-29 11:35,-116.8743,40.5990,1382.36,41.00,35.60,80.93,310.00,7.00,0.00,29.79,M,10.00,M,SCT,BKN,OVC,M,2900.00,4800.00,5500.00,M,M,M,M,M,M,M,M,35.75,KBAM 291135Z AUTO 31007KT 10SM SCT029 BKN048 OVC055 05/02 A2979 RMK AO1,M
BVU,2022-03-29 11:35,-114.8611,35.9475,671.00,48.20,44.60,87.28,10.00,3.00,0.00,29.71,M,10.00,M,OVC,M,M,M,10000.00,M,M,M,M,M,M,M,M,M,M,47.21,KBVU 291135Z AUTO 01003KT 10SM OVC100 09/07 A2971 RMK AO2,M
CXP,2022-03-29 11:35,-119.7326,39.1923,1431.00,39.20,35.60,86.79,0.00,0.00,0.00,29.86,M,10.00,M,FEW,BKN,OVC,M,700.00,2300.00,3300.00,M,M,M,M,M,M,M,M,39.20,KCXP 291135Z AUTO 00000KT 10SM FEW007 BKN023 OVC033 04/02 A2986 RMK AO2,M
RTS,2022-03-29 11:35,-119.8764,39.6682,1539.00,39.20,33.80,80.79,290.00,6.00,0.00,29.86,M,10.00,M,SCT,BKN,OVC,M,2000.00,3000.00,7500.00,M,M,M,M,M,M,M,M,34.20,KRTS 291135Z AUTO 29006KT 10SM SCT020 BKN030 OVC075 04/01 A2986 RMK AO2,M
05U,2022-03-29 11:35,-116.0051,39.6042,1811.23,26.60,24.80,92.80,0.00,0.00,0.00,29.77,M,10.00,M,OVC,M,M,M,3100.00,M,M,M,M,M,M,M,M,M,M,26.60,K05U 291135Z AUTO 00000KT 10SM OVC031 M03/M04 A2977 RMK A01,M
MEV,2022-03-29 11:35,-119.7500,38.9963,1441.42,37.40,35.60,93.14,230.00,4.00,0.00,29.86,M,10.00,M,FEW,FEW,OVC,M,1600.00,2500.00,3900.00,M,-RA,M,M,M,M,M,M,33.73,KMEV 291135Z AUTO 23004KT 10SM -RA FEW016 FEW025 OVC039 03/02 A2986 RMK AO2,M
HTH,2022-03-29 11:35,-118.6315,38.5448,1282.89,44.60,37.40,75.68,360.00,15.00,0.00,29.81,M,10.00,M,OVC,M,M,M,3800.00,M,M,M,M,M,M,M,M,M,M,37.11,KHTH 291135Z AUTO 36015KT 10SM OVC038 07/03 A2981 RMK A01,M
TMT,2022-03-29 11:35,-117.1971,39.4643,1749.34,33.00,28.00,81.96,120.00,3.00,0.00,29.79,M,10.00,M,OVC,M,M,M,6500.00,M,M,M,M,M,M,M,M,M,M,29.72,KTMT 291135Z AUTO 12003KT 10SM OVC065 01/M02 A2979 RMK AO2 T00051022,M
LOL,2022-03-29 11:50,-118.5701,40.0684,1192.43,44.60,37.40,75.68,0.00,0.00,0.00,29.80,M,10.00,M,SCT,BKN,OVC,M,2700.00,4700.00,9000.00,M,M,M,M,M,M,M,M,44.60,KLOL 291150Z AUTO 00000KT 10SM SCT027 BKN047 OVC090 07/03 A2980 RMK AO2,M
DRA,2022-03-29 11:53,-116.0278,36.6206,1009.00,42.00,35.00,76.04,10.00,5.00,0.00,29.72,1004.30,10.00,M,CLR,M,M,M,M,M,M,M,M,M,M,M,M,M,M,38.39,KDRA 291153Z AUTO 01005KT 10SM CLR 06/02 A2972 RMK AO2 SLP043 70001 T00560017 10100 20056 53005 $,M
LOL,2022-03-29 11:53,-118.5701,40.0684,1192.43,45.00,38.00,76.01,70.00,3.00,0.00,29.81,1007.90,10.00,M,FEW,BKN,OVC,M,2700.00,4700.00,9000.00,M,M,M,M,M,M,M,M,43.55,KLOL 291153Z AUTO 07003KT 10SM FEW027 BKN047 OVC090 07/03 A2981 RMK AO2 SLP079 T00720033 10089 20067 51011,M
VGT,2022-03-29 11:53,-115.1933,36.2111,667.00,52.00,46.00,79.92,0.00,0.00,0.00,29.71,1006.40,10.00,M,SCT,M,M,M,8000.00,M,M,M,M,M,M,M,M,M,M,52.00,KVGT 291153Z AUTO 00000KT 10SM SCT080 11/08 A2971 RMK AO2 SLP064 70005 T01110078 10133 20111 53001,M
ELY,2022-03-29 11:53,-114.8453,39.2950,1909.00,28.00,26.10,92.46,150.00,4.00,0.00,29.72,1003.30,10.00,M,CLR,M,M,M,M,M,M,M,M,M,M,M,M,M,M,22.75,KELY 291153Z AUTO 15004KT 10SM CLR M02/M03 A2972 RMK AO2 SLP033 T10221033 10061 21022 55001,M
P68,2022-03-29 11:53,-116.0056,39.6014,1993.00,28.90,25.00,85.14,0.00,0.00,0.00,29.75,1004.80,M,M,M,M,M,M,M,M,M,M,M,M,M,M,M,M,M,28.90,KP68 291153Z AUTO 00000KT M02/M04 A2975 RMK AO1 SLP048 T10171039 10044 21028 53004,M
MEV,2022-03-29 11:55,-119.7500,38.9963,1441.42,37.40,35.60,93.14,0.00,0.00,0.00,29.86,M,10.00,M,FEW,OVC,M,M,2500.00,3600.00,M,M,M,M,M,M,M,M,M,37.40,KMEV 291155Z AUTO 00000KT 10SM FEW025 OVC036 03/02 A2986 RMK AO2,M
05U,2022-03-29 11:55,-116.0051,39.6042,1811.23,28.40,26.60,92.86,0.00,0.00,0.00,29.77,M,10.00,M,OVC,M,M,M,3100.00,M,M,M,M,M,M,M,M,M,M,28.40,K05U 291155Z AUTO 00000KT 10SM OVC031 M02/M03 A2977 RMK A01,M
RTS,2022-03-29 11:55,-119.8764,39.6682,1539.00,39.20,35.60,86.79,270.00,10.00,0.00,29.87,M,10.00,M,FEW,SCT,OVC,M,2000.00,2900.00,3900.00,M,M,M,M,M,M,M,M,32.00,KRTS 291155Z AUTO 27010KT 10SM FEW020 SCT029 OVC039 04/02 A2987 RMK AO2,M
BAM,2022-03-29 11:55,-116.8743,40.5990,1382.36,39.20,33.80,80.79,350.00,8.00,0.00,29.80,M,10.00,M,BKN,OVC,M,M,4800.00,5500.00,M,M,M,M,M,M,M,M,M,32.98,KBAM 291155Z AUTO 35008KT 10SM BKN048 OVC055 04/01 A2980 RMK AO1,M
RNO,2022-03-29 11:55,-119.7711,39.4839,1341.00,46.00,35.00,65.52,10.00,6.00,0.00,29.86,1008.70,10.00,M,BKN,OVC,M,M,3700.00,4600.00,M,M,M,M,M,M,M,M,M,42.39,KRNO 291155Z 01006KT 10SM BKN037 OVC046 08/02 A2986 RMK AO2 SLP087 60000 T00780017 10089 20072 53011,M
BVU,2022-03-29 11:55,-114.8611,35.9475,671.00,50.00,44.60,81.61,30.00,5.00,0.00,29.71,M,10.00,M,OVC,M,M,M,10000.00,M,M,M,M,M,M,M,M,M,M,50.00,KBVU 291155Z AUTO 03005KT 10SM OVC100 10/07 A2971 RMK AO2,M
HTH,2022-03-29 11:55,-118.6315,38.5448,1282.89,44.60,37.40,75.68,350.00,12.00,0.00,29.82,M,10.00,M,OVC,M,M,M,3800.00,M,M,M,M,M,M,M,M,M,M,38.04,KHTH 291155Z AUTO 35012KT 10SM OVC038 07/03 A2982 RMK A01,M
TMT,2022-03-29 11:55,-117.1971,39.4643,1749.34,33.40,28.40,81.66,0.00,0.00,0.00,29.80,M,10.00,M,OVC,M,M,M,6500.00,M,M,M,M,M,M,M,M,M,M,33.40,KTMT 291155Z AUTO 00000KT 10SM OVC065 01/M02 A2980 RMK AO2 T00081020 10009 21026,M
CXP,2022-03-29 11:55,-119.7326,39.1923,1431.00,39.20,35.60,86.79,M,5.00,0.00,29.87,M,10.00,M,BKN,OVC,M,M,2300.00,3000.00,M,M,M,M,M,M,M,M,M,34.95,KCXP 291155Z AUTO VRB05KT 10SM BKN023 OVC030 04/02 A2987 RMK AO2,M
LAS,2022-03-29 11:56,-115.1634,36.0719,663.00,52.00,44.00,74.35,360.00,4.00,0.00,29.71,1004.70,10.00,M,FEW,BKN,BKN,M,6000.00,7000.00,24000.00,M,M,M,M,M,M,M,M,52.00,KLAS 291156Z 36004KT 10SM FEW060 BKN070 BKN240 11/07 A2971 RMK AO2 SLP047 70010 T01110067 10122 20106 53002,M
NFL,2022-03-29 11:56,-118.7010,39.4166,1199.00,46.00,40.00,79.13,250.00,4.00,0.00,29.81,1007.30,10.00,M,OVC,M,M,M,2600.00,M,M,M,M,M,M,M,M,M,M,43.77,KNFL 291156Z AUTO 25004KT 10SM OVC026 08/04 A2981 RMK AO2 SLP073 T00780044 10106 20072 53010,M
HND,2022-03-29 11:56,-115.1344,35.9729,742.79,48.00,44.00,86.28,170.00,4.00,0.00,29.73,1007.10,10.00,M,FEW,M,M,M,5500.00,M,M,M,M,M,M,M,M,M,M,46.10,KHND 291156Z AUTO 17004KT 10SM FEW055 09/07 A2973 RMK AO2 SLP071 T00890067 10111 20089 53003,M
EKO,2022-03-29 11:56,-115.7860,40.8242,1367.00,38.00,28.90,69.73,200.00,3.00,0.00,29.75,1005.40,10.00,M,FEW,BKN,OVC,M,4100.00,6000.00,9000.00,M,M,M,M,M,M,M,M,35.43,KEKO 291156Z AUTO 20003KT 10SM FEW041 BKN060 OVC090 03/M02 A2975 RMK AO2 SLP054 T00331017 10078 20011 53014,M
WMC,2022-03-29 11:56,-117.8072,40.9019,1315.00,42.00,39.00,88.67,270.00,6.00,0.00,29.81,1008.00,10.00,M,OVC,M,M,M,6500.00,M,M,M,M,M,M,M,M,M,M,37.69,KWMC 291156Z AUTO 27006KT 10SM OVC065 06/04 A2981 RMK AO2 SLP080 T00560039 10056 20017 53014,M
TPH,2022-03-29 11:56,-117.0904,38.0505,1654.00,37.00,34.00,88.78,0.00,0.00,0.00,29.76,1006.20,10.00,M,BKN,BKN,M,M,2700.00,4400.00,M,M,M,M,M,M,M,M,M,37.00,KTPH 291156Z AUTO 00000KT 10SM BKN027 BKN044 03/01 A2976 RMK AO2 SLP062 T00280011 10033 20017 53004,M
INS,2022-03-29 11:58,-115.6733,36.5872,955.00,41.50,36.50,82.26,280.00,5.00,0.00,29.73,1004.50,10.00,M,CLR,M,M,M,M,M,M,M,M,M,M,M,M,M,M,37.68,KINS 291158Z AUTO 28005KT 10SM CLR 05/03 A2973 RMK AO2 SLP045 70003 T00530025 10103 20052 53005 $,M
LSV,2022-03-29 11:58,-115.0343,36.2362,570.00,49.60,49.60,100.00,80.00,3.00,0.00,29.71,1004.80,10.00,M,FEW,M,M,M,4300.00,M,M,M,M,M,M,M,M,M,M,48.81,KLSV 291158Z AUTO 08003KT 10SM FEW043 10/10 A2971 RMK AO2 SLP048 70008 T00980098 10122 20098 53002 $,M
TPH,2022-03-29 12:13,-117.0904,38.0505,1654.00,37.00,33.00,85.64,10.00,4.00,0.00,29.76,M,10.00,M,SCT,BKN,M,M,2500.00,7000.00,M,M,M,M,M,M,M,M,M,33.26,KTPH 291213Z AUTO 01004KT 10SM SCT025 BKN070 03/01 A2976 RMK AO2 T00280006,M
BVU,2022-03-29 12:15,-114.8611,35.9475,671.00,48.20,44.60,87.28,320.00,6.00,0.00,29.71,M,10.00,M,OVC,M,M,M,9500.00,M,M,M,M,M,M,M,M,M,M,45.04,KBVU 291215Z AUTO 32006KT 10SM OVC095 09/07 A2971 RMK AO2,M
HTH,2022-03-29 12:15,-118.6315,38.5448,1282.89,44.60,35.60,70.48,340.00,7.00,0.00,29.83,M,10.00,13.00,FEW,OVC,M,M,2500.00,3900.00,M,M,M,M,M,M,M,M,M,40.14,KHTH 291215Z AUTO 34007G13KT 10SM FEW025 OVC039 07/02 A2983 RMK A01,M
RTS,2022-03-29 12:15,-119.8764,39.6682,1539.00,39.20,35.60,86.79,290.00,7.00,0.00,29.88,M,10.00,M,OVC,M,M,M,3600.00,M,M,M,M,M,M,M,M,M,M,33.56,KRTS 291215Z AUTO 29007KT 10SM OVC036 04/02 A2988 RMK AO2,M
CXP,2022-03-29 12:15,-119.7326,39.1923,1431.00,39.20,35.60,86.79,0.00,0.00,0.00,29.88,M,10.00,M,BKN,OVC,M,M,2200.00,3000.00,M,M,M,M,M,M,M,M,M,39.20,KCXP 291215Z AUTO 00000KT 10SM BKN022 OVC030 04/02 A2988 RMK AO2,M
TMT,2022-03-29 12:15,-117.1971,39.4643,1749.34,34.00,28.40,79.72,0.00,0.00,0.00,29.81,M,10.00,M,SCT,OVC,M,M,5000.00,6500.00,M,M,M,M,M,M,M,M,M,34.00,KTMT 291215Z AUTO 00000KT 10SM SCT050 OVC065 01/M02 A2981 RMK AO2 T00111020,M
05U,2022-03-29 12:15,-116.0051,39.6042,1811.23,28.40,26.60,92.86,0.00,0.00,0.00,29.78,M,10.00,M,OVC,M,M,M,3000.00,M,M,M,M,M,M,M,M,M,M,28.40,K05U 291215Z AUTO 00000KT 10SM OVC030 M02/M03 A2978 RMK A01,M
BAM,2022-03-29 12:15,-116.8743,40.5990,1382.36,39.20,35.60,86.79,10.00,6.00,0.00,29.81,M,10.00,M,SCT,SCT,OVC,M,3900.00,5000.00,5500.00,M,M,M,M,M,M,M,M,34.20,KBAM 291215Z AUTO 01006KT 10SM SCT039 SCT050 OVC055 04/02 A2981 RMK AO1,M
MEV,2022-03-29 12:15,-119.7500,38.9963,1441.42,37.40,35.60,93.14,0.00,0.00,0.00,29.87,M,10.00,M,OVC,M,M,M,3500.00,M,M,M,-RA,M,M,M,M,M,M,37.40,KMEV 291215Z AUTO 00000KT 10SM -RA OVC035 03/02 A2987 RMK AO2,M
05U,2022-03-29 12:30,-116.0051,39.6042,1811.23,30.20,28.40,92.92,0.00,0.00,0.00,29.79,M,10.00,M,OVC,M,M,M,2700.00,M,M,M,M,M,M,M,M,M,M,30.20,K05U 291230Z AUTO 00000KT 10SM OVC027 M01/M02 A2979 RMK A01,M
BVU,2022-03-29 12:35,-114.8611,35.9475,671.00,48.20,44.60,87.28,330.00,3.00,0.00,29.72,M,10.00,M,FEW,M,M,M,9000.00,M,M,M,M,M,M,M,M,M,M,47.21,KBVU 291235Z AUTO 33003KT 10SM FEW090 09/07 A2972 RMK AO2,M
RTS,2022-03-29 12:35,-119.8764,39.6682,1539.00,39.20,35.60,86.79,280.00,5.00,0.00,29.89,M,10.00,M,SCT,OVC,M,M,2900.00,3600.00,M,M,M,M,M,M,M,M,M,34.95,KRTS 291235Z AUTO 28005KT 10SM SCT029 OVC036 04/02 A2989 RMK AO2,M
MEV,2022-03-29 12:35,-119.7500,38.9963,1441.42,37.40,35.60,93.14,0.00,0.00,0.00,29.88,M,10.00,M,OVC,M,M,M,3300.00,M,M,M,-RA,M,M,M,M,M,M,37.40,KMEV 291235Z AUTO 00000KT 10SM -RA OVC033 03/02 A2988 RMK AO2,M
TMT,2022-03-29 12:35,-117.1971,39.4643,1749.34,34.20,28.40,79.09,0.00,0.00,0.00,29.82,M,10.00,M,SCT,SCT,OVC,M,2900.00,4200.00,6500.00,M,M,M,M,M,M,M,M,34.20,KTMT 291235Z AUTO 00000KT 10SM SCT029 SCT042 OVC065 01/M02 A2982 RMK AO2 T00121020,M
BAM,2022-03-29 12:35,-116.8743,40.5990,1382.36,41.00,35.60,80.93,10.00,4.00,0.00,29.82,M,10.00,M,BKN,BKN,OVC,M,3700.00,4400.00,5500.00,M,M,M,M,M,M,M,M,37.93,KBAM 291235Z AUTO 01004KT 10SM BKN037 BKN044 OVC055 05/02 A2982 RMK AO1,M
HTH,2022-03-29 12:35,-118.6315,38.5448,1282.89,44.60,35.60,70.48,340.00,10.00,0.00,29.83,M,10.00,M,FEW,BKN,OVC,M,2600.00,3700.00,5000.00,M,M,M,M,M,M,M,M,38.77,KHTH 291235Z AUTO 34010KT 10SM FEW026 BKN037 OVC050 07/02 A2983 RMK A01,M
CXP,2022-03-29 12:35,-119.7326,39.1923,1431.00,39.20,35.60,86.79,190.00,6.00,0.00,29.88,M,10.00,M,OVC,M,M,M,2000.00,M,M,M,M,M,M,M,M,M,M,34.20,KCXP 291235Z AUTO 19006KT 10SM OVC020 04/02 A2988 RMK AO2,M
P68,2022-03-29 12:53,-116.0056,39.6014,1993.00,32.00,27.00,81.55,0.00,0.00,0.00,29.77,1005.40,M,M,M,M,M,M,M,M,M,M,M,M,M,M,M,M,M,32.00,KP68 291253Z AUTO 00000KT 00/M03 A2977 RMK AO1 SLP054 T00001028,M
DRA,2022-03-29 12:53,-116.0278,36.6206,1009.00,42.00,34.00,72.78,10.00,5.00,0.00,29.73,1005.10,10.00,M,CLR,M,M,M,M,M,M,M,M,M,M,M,M,M,M,38.39,KDRA 291253Z AUTO 01005KT 10SM CLR 06/01 A2973 RMK AO2 SLP051 T00560011 $,M
VGT,2022-03-29 12:53,-115.1933,36.2111,667.00,51.00,46.00,82.62,310.00,3.00,0.00,29.72,1007.00,10.00,M,CLR,M,M,M,M,M,M,M,M,M,M,M,M,M,M,51.10,KVGT 291253Z 31003KT 10SM CLR 11/08 A2972 RMK AO2 SLP070 T01060078,M
LOL,2022-03-29 12:53,-118.5701,40.0684,1192.43,45.00,39.00,79.36,60.00,3.00,T,29.83,1008.70,10.00,M,BKN,OVC,M,M,3500.00,4500.00,M,M,M,M,M,M,M,M,M,43.55,KLOL 291253Z AUTO 06003KT 10SM BKN035 OVC045 07/04 A2983 RMK AO2 RAB12E41 SLP087 P0000 T00720039,M
ELY,2022-03-29 12:53,-114.8453,39.2950,1909.00,26.10,23.00,87.87,200.00,3.00,0.00,29.74,1004.10,10.00,M,CLR,M,M,M,M,M,M,M,M,M,M,M,M,M,M,21.94,KELY 291253Z AUTO 20003KT 10SM CLR M03/M05 A2974 RMK AO2 SLP041 T10331050,M
TMT,2022-03-29 12:55,-117.1971,39.4643,1749.34,34.30,28.80,80.08,0.00,0.00,0.00,29.82,M,10.00,M,SCT,OVC,M,M,5000.00,6500.00,M,M,M,M,M,M,M,M,M,34.30,KTMT 291255Z AUTO 00000KT 10SM SCT050 OVC065 01/M02 A2982 RMK AO2 T00131018,M
RNO,2022-03-29 12:55,-119.7711,39.4839,1341.00,47.00,35.00,63.33,340.00,7.00,0.00,29.88,1009.60,10.00,M,OVC,M,M,M,3500.00,M,M,M,M,M,M,M,M,M,M,42.94,KRNO 291255Z 34007KT 10SM OVC035 08/02 A2988 RMK AO2 SLP096 T00830017,M
BVU,2022-03-29 12:55,-114.8611,35.9475,671.00,48.20,44.60,87.28,0.00,0.00,0.00,29.72,M,10.00,M,CLR,M,M,M,M,M,M,M,M,M,M,M,M,M,M,48.20,KBVU 291255Z AUTO 00000KT 10SM CLR 09/07 A2972 RMK AO2,M
CXP,2022-03-29 12:55,-119.7326,39.1923,1431.00,39.20,35.60,86.79,0.00,0.00,0.00,29.89,M,10.00,M,BKN,BKN,OVC,M,1900.00,2500.00,3300.00,M,M,M,M,M,M,M,M,39.20,KCXP 291255Z AUTO 00000KT 10SM BKN019 BKN025 OVC033 04/02 A2989 RMK AO2,M
RTS,2022-03-29 12:55,-119.8764,39.6682,1539.00,39.20,35.60,86.79,290.00,6.00,0.00,29.89,M,10.00,M,FEW,BKN,OVC,M,2700.00,3100.00,4900.00,M,M,M,M,M,M,M,M,34.20,KRTS 291255Z AUTO 29006KT 10SM FEW027 BKN031 OVC049 04/02 A2989 RMK AO2,M
MEV,2022-03-29 12:55,-119.7500,38.9963,1441.42,37.40,37.40,100.00,0.00,0.00,0.00,29.89,M,10.00,M,BKN,OVC,M,M,3200.00,4100.00,M,M,M,M,M,M,M,M,M,37.40,KMEV 291255Z AUTO 00000KT 10SM BKN032 OVC041 03/03 A2989 RMK AO2,M
BAM,2022-03-29 12:55,-116.8743,40.5990,1382.36,41.00,35.60,80.93,0.00,0.00,0.00,29.83,M,10.00,M,SCT,BKN,OVC,M,3700.00,4900.00,9500.00,M,M,M,M,M,M,M,M,41.00,KBAM 291255Z AUTO 00000KT 10SM SCT037 BKN049 OVC095 05/02 A2983 RMK AO1,M
HTH,2022-03-29 12:55,-118.6315,38.5448,1282.89,44.60,35.60,70.48,340.00,10.00,0.00,29.84,M,10.00,M,SCT,OVC,M,M,3600.00,4600.00,M,M,M,M,M,M,M,M,M,38.77,KHTH 291255Z AUTO 34010KT 10SM SCT036 OVC046 07/02 A2984 RMK A01,M
WMC,2022-03-29 12:56,-117.8072,40.9019,1315.00,43.00,39.00,85.66,330.00,7.00,0.00,29.83,1008.80,10.00,M,BKN,OVC,M,M,4400.00,8000.00,M,M,M,M,M,M,M,M,M,38.19,KWMC 291256Z AUTO 33007KT 10SM BKN044 OVC080 06/04 A2983 RMK AO2 SLP088 T00610039,M
TPH,2022-03-29 12:56,-117.0904,38.0505,1654.00,40.00,34.00,79.25,360.00,9.00,0.00,29.77,1007.00,10.00,M,FEW,OVC,M,M,2000.00,7500.00,M,M,M,M,M,M,M,M,M,33.34,KTPH 291256Z AUTO 36009KT 10SM FEW020 OVC075 04/01 A2977 RMK AO2 SLP070 T00440011,M
HND,2022-03-29 12:56,-115.1344,35.9729,742.79,47.00,44.00,89.92,170.00,4.00,0.00,29.74,1008.00,10.00,M,CLR,M,M,M,M,M,M,M,M,M,M,M,M,M,M,44.82,KHND 291256Z 17004KT 10SM CLR 08/07 A2974 RMK AO2 SLP080 T00830067,M
LAS,2022-03-29 12:56,-115.1634,36.0719,663.00,51.00,44.00,76.86,360.00,3.00,0.00,29.72,1005.40,10.00,M,FEW,BKN,M,M,8000.00,22000.00,M,M,M,M,M,M,M,M,M,51.10,KLAS 291256Z 36003KT 10SM FEW080 BKN220 11/07 A2972 RMK AO2 SLP054 T01060067,M
NFL,2022-03-29 12:56,-118.7010,39.4166,1199.00,46.00,40.00,79.13,310.00,5.00,0.00,29.83,1007.80,10.00,M,SCT,OVC,M,M,2600.00,5000.00,M,M,M,M,M,M,M,M,M,43.02,KNFL 291256Z AUTO 31005KT 10SM SCT026 OVC050 08/04 A2983 RMK AO2 SLP078 T00780044,M
EKO,2022-03-29 12:56,-115.7860,40.8242,1367.00,38.00,30.00,72.93,0.00,0.00,0.00,29.77,1006.20,10.00,M,BKN,OVC,M,M,4100.00,5000.00,M,M,M,M,M,M,M,M,M,37.90,KEKO 291256Z AUTO 00000KT 10SM BKN041 OVC050 03/M01 A2977 RMK AO2 SLP062 T00331011,M
BVU,2022-03-29 13:15,-114.8611,35.9475,671.00,48.20,44.60,87.28,0.00,0.00,0.00,29.73,M,10.00,M,SCT,SCT,M,M,3200.00,11000.00,M,M,M,M,M,M,M,M,M,48.20,KBVU 291315Z AUTO 00000KT 10SM SCT032 SCT110 09/07 A2973 RMK AO2,M
RTS,2022-03-29 13:15,-119.8764,39.6682,1539.00,39.20,35.60,86.79,310.00,4.00,0.00,29.90,M,10.00,M,OVC,M,M,M,5000.00,M,M,M,M,M,M,M,M,M,M,35.83,KRTS 291315Z AUTO 31004KT 10SM OVC050 04/02 A2990 RMK AO2,M
HTH,2022-03-29 13:15,-118.6315,38.5448,1282.89,44.60,37.40,75.68,350.00,10.00,0.00,29.85,M,10.00,M,BKN,OVC,M,M,3500.00,4500.00,M,M,M,M,M,M,M,M,M,38.77,KHTH 291315Z AUTO 35010KT 10SM BKN035 OVC045 07/03 A2985 RMK A01,M
CXP,2022-03-29 13:15,-119.7326,39.1923,1431.00,39.20,35.60,86.79,0.00,0.00,0.00,29.90,M,10.00,M,BKN,OVC,M,M,2100.00,2600.00,M,M,M,M,M,M,M,M,M,39.20,KCXP 291315Z AUTO 00000KT 10SM BKN021 OVC026 04/02 A2990 RMK AO2,M
TMT,2022-03-29 13:15,-117.1971,39.4643,1749.34,34.30,28.90,80.40,0.00,0.00,0.00,29.83,M,10.00,M,SCT,SCT,OVC,M,4500.00,5000.00,6500.00,M,M,M,M,M,M,M,M,34.30,KTMT 291315Z AUTO 00000KT 10SM SCT045 SCT050 OVC065 01/M02 A2983 RMK AO2 T00131017,M
05U,2022-03-29 13:15,-116.0051,39.6042,1811.23,32.00,28.40,86.39,0.00,0.00,0.00,29.81,M,10.00,M,OVC,M,M,M,2300.00,M,M,M,M,M,M,M,M,M,M,32.00,K05U 291315Z AUTO 00000KT 10SM OVC023 M00/M02 A2981 RMK A01,M
MEV,2022-03-29 13:15,-119.7500,38.9963,1441.42,37.40,35.60,93.14,0.00,0.00,0.00,29.89,M,10.00,M,FEW,SCT,OVC,M,3400.00,4100.00,4600.00,M,M,M,M,M,M,M,M,37.40,KMEV 291315Z AUTO 00000KT 10SM FEW034 SCT041 OVC046 03/02 A2989 RMK AO2,M
BAM,2022-03-29 13:15,-116.8743,40.5990,1382.36,41.00,35.60,80.93,140.00,3.00,0.00,29.84,M,10.00,M,BKN,OVC,M,M,4900.00,9500.00,M,M,M,M,M,M,M,M,M,38.98,KBAM 291315Z AUTO 14003KT 10SM BKN049 OVC095 05/02 A2984 RMK AO1,M
NFL,2022-03-29 13:20,-118.7010,39.4166,1199.00,47.00,40.00,76.48,310.00,8.00,0.00,29.84,M,10.00,M,BKN,BKN,OVC,M,2800.00,3200.00,5000.00,M,M,M,M,M,M,M,M,42.47,KNFL 291320Z AUTO 31008KT 10SM BKN028 BKN032 OVC050 08/04 A2984 RMK AO2 T00830044,M
INS,2022-03-29 13:23,-115.6733,36.5872,955.00,42.80,37.40,81.07,260.00,5.00,0.00,29.75,1005.40,10.00,M,BKN,BKN,M,M,5000.00,19000.00,M,M,M,M,M,M,M,M,M,39.22,KINS 291323Z AUTO 26005KT 10SM BKN050 BKN190 06/03 A2975 RMK AO2 SLP054 $,M
NFL,2022-03-29 13:34,-118.7010,39.4166,1199.00,47.00,40.00,76.48,320.00,6.00,0.00,29.85,M,10.00,M,FEW,SCT,BKN,BKN,2500.00,3200.00,6000.00,13000.00,M,M,M,M,M,M,M,43.48,KNFL 291334Z 32006KT 10SM FEW025 SCT032 BKN060 BKN130 08/04 A2985 RMK AO2 T00830044,M
05U,2022-03-29 13:35,-116.0051,39.6042,1811.23,32.00,28.40,86.39,0.00,0.00,0.00,29.82,M,10.00,M,OVC,M,M,M,2200.00,M,M,M,M,M,M,M,M,M,M,32.00,K05U 291335Z AUTO 00000KT 10SM OVC022 00/M02 A2982 RMK A01,M
BAM,2022-03-29 13:35,-116.8743,40.5990,1382.36,42.80,35.60,75.50,0.00,0.00,0.00,29.84,M,10.00,M,BKN,BKN,OVC,M,3600.00,4200.00,4900.00,M,M,M,M,M,M,M,M,42.80,KBAM 291335Z AUTO 00000KT 10SM BKN036 BKN042 OVC049 06/02 A2984 RMK AO1,M
TMT,2022-03-29 13:35,-117.1971,39.4643,1749.34,34.00,29.10,82.04,0.00,0.00,0.00,29.84,M,10.00,M,BKN,BKN,OVC,M,3200.00,4500.00,7500.00,M,M,M,M,M,M,M,M,34.00,KTMT 291335Z AUTO 00000KT 10SM BKN032 BKN045 OVC075 01/M02 A2984 RMK AO2 T00111016,M
HTH,2022-03-29 13:35,-118.6315,38.5448,1282.89,44.60,37.40,75.68,350.00,7.00,0.00,29.86,M,10.00,12.00,OVC,M,M,M,3200.00,M,M,M,M,M,M,M,M,M,M,40.14,KHTH 291335Z AUTO 35007G12KT 10SM OVC032 07/03 A2986 RMK A01,M
CXP,2022-03-29 13:35,-119.7326,39.1923,1431.00,39.20,35.60,86.79,M,4.00,0.00,29.90,M,10.00,M,OVC,M,M,M,2100.00,M,M,M,M,M,M,M,M,M,M,35.83,KCXP 291335Z AUTO VRB04KT 10SM OVC021 04/02 A2990 RMK AO2,M
BVU,2022-03-29 13:35,-114.8611,35.9475,671.00,50.00,44.60,81.61,0.00,0.00,0.00,29.74,M,10.00,M,FEW,M,M,M,3200.00,M,M,M,M,M,M,M,M,M,M,50.00,KBVU 291335Z AUTO 00000KT 10SM FEW032 10/07 A2974 RMK AO2,M
RTS,2022-03-29 13:35,-119.8764,39.6682,1539.00,39.20,33.80,80.79,0.00,0.00,0.00,29.91,M,10.00,M,BKN,BKN,M,M,5000.00,9000.00,M,M,M,M,M,M,M,M,M,39.20,KRTS 291335Z AUTO 00000KT 10SM BKN050 BKN090 04/01 A2991 RMK AO2,M
MEV,2022-03-29 13:35,-119.7500,38.9963,1441.42,37.40,37.40,100.00,0.00,0.00,0.00,29.90,M,10.00,M,FEW,OVC,M,M,3800.00,4900.00,M,M,M,M,M,M,M,M,M,37.40,KMEV 291335Z AUTO 00000KT 10SM FEW038 OVC049 03/03 A2990 RMK AO2,M
05U,2022-03-29 13:40,-116.0051,39.6042,1811.23,32.00,28.40,86.39,0.00,0.00,0.00,29.82,M,10.00,M,OVC,M,M,M,2100.00,M,M,M,M,M,M,M,M,M,M,32.00,K05U 291340Z AUTO 00000KT 10SM OVC021 00/M02 A2982 RMK A01,M
INS,2022-03-29 13:43,-115.6733,36.5872,955.00,41.00,35.60,80.93,290.00,7.00,0.00,29.75,1005.60,10.00,M,SCT,M,M,M,5000.00,M,M,M,M,M,M,M,M,M,M,35.75,KINS 291343Z AUTO 29007KT 10SM SCT050 05/02 A2975 RMK AO2 SLP056 $,M
INS,2022-03-29 13:48,-115.6733,36.5872,955.00,41.00,35.60,80.93,280.00,8.00,0.00,29.76,1006.00,10.00,M,SCT,BKN,M,M,5000.00,9000.00,M,M,M,M,M,M,M,M,M,35.20,KINS 291348Z AUTO 28008KT 10SM SCT050 BKN090 05/02 A2976 RMK AO2 SLP060 $,M
LOL,2022-03-29 13:53,-118.5701,40.0684,1192.43,45.00,42.00,89.49,60.00,4.00,0.01,29.86,1010.30,10.00,M,OVC,M,M,M,3400.00,M,M,M,-RA,M,M,M,M,M,M,42.60,KLOL 291353Z AUTO 06004KT 10SM -RA OVC034 07/06 A2986 RMK AO2 RAB14 SLP103 P0001 T00720056,M
DRA,2022-03-29 13:53,-116.0278,36.6206,1009.00,42.00,34.00,72.78,0.00,0.00,0.00,29.76,1006.10,10.00,M,FEW,BKN,OVC,M,4700.00,6000.00,9500.00,M,M,M,M,M,M,M,M,42.10,KDRA 291353Z AUTO 00000KT 10SM FEW047 BKN060 OVC095 06/01 A2976 RMK AO2 SLP061 T00560011 $,M
VGT,2022-03-29 13:53,-115.1933,36.2111,667.00,52.00,45.00,76.94,0.00,0.00,0.00,29.73,1007.90,10.00,M,CLR,M,M,M,M,M,M,M,M,M,M,M,M,M,M,52.00,KVGT 291353Z 00000KT 10SM CLR 11/07 A2973 RMK AO2 SLP079 T01110072,M
ELY,2022-03-29 13:53,-114.8453,39.2950,1909.00,23.00,19.90,87.70,200.00,6.00,0.00,29.76,1006.00,10.00,M,CLR,M,M,M,M,M,M,M,M,M,M,M,M,M,M,14.69,KELY 291353Z AUTO 20006KT 10SM CLR M05/M07 A2976 RMK AO2 SLP060 T10501067,M
P68,2022-03-29 13:53,-116.0056,39.6014,1993.00,34.00,28.90,81.37,210.00,3.00,0.00,29.79,1006.30,M,M,M,M,M,M,M,M,M,M,M,M,M,M,M,M,M,30.97,KP68 291353Z AUTO 21003KT 01/M02 A2979 RMK AO1 SLP063 T00111017,M
BAM,2022-03-29 13:55,-116.8743,40.5990,1382.36,41.00,35.60,80.93,350.00,3.00,0.00,29.85,M,10.00,M,OVC,M,M,M,3800.00,M,M,M,M,M,M,M,M,M,M,38.98,KBAM 291355Z AUTO 35003KT 10SM OVC038 05/02 A2985 RMK AO1,M
RNO,2022-03-29 13:55,-119.7711,39.4839,1341.00,47.00,35.00,63.33,340.00,9.00,0.00,29.90,1010.80,10.00,M,SCT,BKN,M,M,3500.00,4300.00,M,M,M,M,M,M,M,M,M,42.04,KRNO 291355Z 34009KT 10SM SCT035 BKN043 08/02 A2990 RMK AO2 SLP108 MTN TOPS OBSCD DSNT SW THRU NW T00830017,M
BVU,2022-03-29 13:55,-114.8611,35.9475,671.00,48.20,44.60,87.28,0.00,0.00,0.00,29.75,M,10.00,M,CLR,M,M,M,M,M,M,M,M,M,M,M,M,M,M,48.20,KBVU 291355Z AUTO 00000KT 10SM CLR 09/07 A2975 RMK AO2,M
CXP,2022-03-29 13:55,-119.7326,39.1923,1431.00,39.20,35.60,86.79,220.00,7.00,0.00,29.91,M,10.00,M,BKN,OVC,M,M,2400.00,3000.00,M,M,M,M,M,M,M,M,M,33.56,KCXP 291355Z AUTO 22007KT 10SM BKN024 OVC030 04/02 A2991 RMK AO2,M
RTS,2022-03-29 13:55,-119.8764,39.6682,1539.00,39.20,35.60,86.79,0.00,0.00,0.00,29.92,M,10.00,M,FEW,SCT,BKN,M,4200.00,4700.00,6000.00,M,M,M,M,M,M,M,M,39.20,KRTS 291355Z AUTO 00000KT 10SM FEW042 SCT047 BKN060 04/02 A2992 RMK AO2,M
MEV,2022-03-29 13:55,-119.7500,38.9963,1441.42,37.40,37.40,100.00,0.00,0.00,0.00,29.91,M,10.00,M,BKN,BKN,OVC,M,3200.00,3800.00,4800.00,M,M,M,M,M,M,M,M,37.40,KMEV 291355Z AUTO 00000KT 10SM BKN032 BKN038 OVC048 03/03 A2991 RMK AO2,M
TMT,2022-03-29 13:55,-117.1971,39.4643,1749.34,34.20,29.30,82.06,0.00,0.00,0.00,29.86,M,10.00,M,SCT,OVC,M,M,2800.00,3300.00,M,M,M,M,M,M,M,M,M,34.20,KTMT 291355Z AUTO 00000KT 10SM SCT028 OVC033 01/M01 A2986 RMK AO2 T00121015,M
HTH,2022-03-29 13:55,-118.6315,38.5448,1282.89,44.60,37.40,75.68,290.00,5.00,0.00,29.88,M,9.00,M,SCT,OVC,M,M,2400.00,3000.00,M,M,M,M,M,M,M,M,M,41.36,KHTH 291355Z AUTO 29005KT 9SM SCT024 OVC030 07/03 A2988 RMK A01,M
TPH,2022-03-29 13:56,-117.0904,38.0505,1654.00,40.00,35.00,82.80,10.00,12.00,0.00,29.80,1007.90,10.00,M,OVC,M,M,M,7000.00,M,M,M,M,M,M,M,M,M,M,32.06,KTPH 291356Z AUTO 01012KT 10SM OVC070 04/02 A2980 RMK AO2 SLP079 T00440017,M
LAS,2022-03-29 13:56,-115.1634,36.0719,663.00,51.00,43.00,73.69,0.00,0.00,0.00,29.74,1006.30,10.00,M,FEW,FEW,BKN,M,4000.00,7500.00,22000.00,M,M,M,M,M,M,M,M,51.10,KLAS 291356Z 00000KT 10SM FEW040 FEW075 BKN220 11/06 A2974 RMK AO2 SLP063 T01060061,M
EKO,2022-03-29 13:56,-115.7860,40.8242,1367.00,39.00,30.90,72.45,240.00,3.00,0.00,29.79,1007.30,10.00,M,OVC,M,M,M,5500.00,M,M,M,M,M,M,M,M,M,M,36.69,KEKO 291356Z AUTO 24003KT 10SM OVC055 04/M01 A2979 RMK AO2 SLP073 T00391006,M
WMC,2022-03-29 13:56,-117.8072,40.9019,1315.00,43.00,38.00,82.04,0.00,0.00,0.00,29.85,1009.70,10.00,M,OVC,M,M,M,5000.00,M,M,M,M,M,M,M,M,M,M,43.00,KWMC 291356Z AUTO 00000KT 10SM OVC050 06/03 A2985 RMK AO2 SLP097 T00610033,M
HND,2022-03-29 13:56,-115.1344,35.9729,742.79,48.00,42.00,79.91,180.00,5.00,0.00,29.76,1009.10,10.00,M,CLR,M,M,M,M,M,M,M,M,M,M,M,M,M,M,45.40,KHND 291356Z 18005KT 10SM CLR 09/06 A2976 RMK AO2 SLP091 T00890056,M
NFL,2022-03-29 13:56,-118.7010,39.4166,1199.00,47.00,40.00,76.48,310.00,6.00,0.00,29.86,1008.70,10.00,M,FEW,SCT,BKN,BKN,2500.00,3200.00,6000.00,13000.00,M,M,M,M,M,M,M,43.48,KNFL 291356Z 31006KT 10SM FEW025 SCT032 BKN060 BKN130 08/04 A2986 RMK AO2 SLP087 T00830044,M
INS,2022-03-29 13:58,-115.6733,36.5872,955.00,40.80,35.80,82.21,260.00,8.00,0.00,29.76,1006.00,10.00,M,FEW,BKN,M,M,5000.00,9000.00,M,M,M,M,M,M,M,M,M,34.95,KINS 291358Z AUTO 26008KT 10SM FEW050 BKN090 05/02 A2976 RMK AO2 SLP060 T00490021 $,M
LSV,2022-03-29 13:58,-115.0343,36.2362,570.00,48.00,48.00,100.00,0.00,0.00,0.00,29.74,1006.30,10.00,M,CLR,M,M,M,M,M,M,M,M,M,M,M,M,M,M,48.00,KLSV 291358Z AUTO 00000KT 10SM CLR 09/09 A2974 RMK AO2 SLP063 T00890089 $,M
LOL,2022-03-29 14:13,-118.5701,40.0684,1192.43,44.00,42.00,92.62,40.00,8.00,0.01,29.87,M,3.00,M,BKN,OVC,M,M,2900.00,3600.00,M,M,-RA BR,M,M,M,M,M,M,39.02,KLOL 291413Z AUTO 04008KT 3SM -RA BR BKN029 OVC036 07/06 A2987 RMK AO2 P0001 T00670056,M
TMT,2022-03-29 14:15,-117.1971,39.4643,1749.34,35.40,30.00,80.49,0.00,0.00,0.00,29.87,M,10.00,M,BKN,OVC,M,M,2600.00,3500.00,M,M,M,M,M,M,M,M,M,35.40,KTMT 291415Z AUTO 00000KT 10SM BKN026 OVC035 02/M01 A2987 RMK AO2 T00191011,M
MEV,2022-03-29 14:15,-119.7500,38.9963,1441.42,37.40,37.40,100.00,0.00,0.00,0.00,29.92,M,10.00,M,OVC,M,M,M,3100.00,M,M,M,M,M,M,M,M,M,M,37.40,KMEV 291415Z AUTO 00000KT 10SM OVC031 03/03 A2992 RMK AO2,M
RTS,2022-03-29 14:15,-119.8764,39.6682,1539.00,41.00,35.60,80.93,M,3.00,0.00,29.93,M,10.00,M,FEW,SCT,OVC,M,3100.00,4200.00,6000.00,M,M,M,M,M,M,M,M,38.98,KRTS 291415Z AUTO VRB03KT 10SM FEW031 SCT042 OVC060 05/02 A2993 RMK AO2,M
BVU,2022-03-29 14:15,-114.8611,35.9475,671.00,48.20,44.60,87.28,0.00,0.00,0.00,29.75,M,10.00,M,CLR,M,M,M,M,M,M,M,M,M,M,M,M,M,M,48.20,KBVU 291415Z AUTO 00000KT 10SM CLR 09/07 A2975 RMK AO2,M
CXP,2022-03-29 14:15,-119.7326,39.1923,1431.00,41.00,35.60,80.93,0.00,0.00,0.00,29.93,M,10.00,M,BKN,OVC,M,M,2700.00,3300.00,M,M,M,M,M,M,M,M,M,41.00,KCXP 291415Z AUTO 00000KT 10SM BKN027 OVC033 05/02 A2993 RMK AO2,M
BAM,2022-03-29 14:15,-116.8743,40.5990,1382.36,42.80,35.60,75.50,0.00,0.00,0.00,29.86,M,10.00,M,OVC,M,M,M,3600.00,M,M,M,M,M,M,M,M,M,M,42.80,KBAM 291415Z AUTO 00000KT 10SM OVC036 06/02 A2986 RMK AO1,M
HTH,2022-03-29 14:15,-118.6315,38.5448,1282.89,44.60,39.20,81.20,340.00,7.00,0.00,29.89,M,6.00,M,SCT,OVC,M,M,2500.00,3000.00,M,M,HZ,M,M,M,M,M,M,40.14,KHTH 291415Z AUTO 34007KT 6SM HZ SCT025 OVC030 07/04 A2989 RMK A01,M
LOL,2022-03-29 14:34,-118.5701,40.0684,1192.43,45.00,43.00,92.65,50.00,3.00,0.02,29.88,M,10.00,M,OVC,M,M,M,3400.00,M,M,M,M,M,M,M,M,M,M,43.55,KLOL 291434Z AUTO 05003KT 10SM OVC034 07/06 A2988 RMK AO2 RAE30 P0002 T00720061,M
CXP,2022-03-29 14:35,-119.7326,39.1923,1431.00,41.00,35.60,80.93,M,3.00,0.00,29.94,M,10.00,10.00,FEW,BKN,OVC,M,2600.00,3200.00,5000.00,M,M,M,M,M,M,M,M,38.98,KCXP 291435Z AUTO VRB03G10KT 10SM FEW026 BKN032 OVC050 05/02 A2994 RMK AO2,M
BVU,2022-03-29 14:35,-114.8611,35.9475,671.00,50.00,44.60,81.61,0.00,0.00,0.00,29.76,M,10.00,M,CLR,M,M,M,M,M,M,M,M,M,M,M,M,M,M,50.00,KBVU 291435Z AUTO 00000KT 10SM CLR 10/07 A2976 RMK AO2,M
RTS,2022-03-29 14:35,-119.8764,39.6682,1539.00,41.00,35.60,80.93,M,5.00,0.00,29.94,M,10.00,M,SCT,SCT,OVC,M,2000.00,3100.00,6500.00,M,M,M,M,M,M,M,M,37.08,KRTS 291435Z AUTO VRB05KT 10SM SCT020 SCT031 OVC065 05/02 A2994 RMK AO2,M
05U,2022-03-29 14:35,-116.0051,39.6042,1811.23,35.60,32.00,86.59,0.00,0.00,0.00,29.84,M,10.00,M,OVC,M,M,M,1900.00,M,M,M,M,M,M,M,M,M,M,35.60,K05U 291435Z AUTO 00000KT 10SM OVC019 02/00 A2984 RMK A01,M
MEV,2022-03-29 14:35,-119.7500,38.9963,1441.42,39.20,37.40,93.19,0.00,0.00,0.00,29.94,M,10.00,M,OVC,M,M,M,3100.00,M,M,M,M,M,M,M,M,M,M,39.20,KMEV 291435Z AUTO 00000KT 10SM OVC031 04/03 A2994 RMK AO2,M
BAM,2022-03-29 14:35,-116.8743,40.5990,1382.36,42.80,35.60,75.50,0.00,0.00,0.00,29.87,M,10.00,M,BKN,OVC,M,M,3600.00,6000.00,M,M,M,M,M,M,M,M,M,42.80,KBAM 291435Z AUTO 00000KT 10SM BKN036 OVC060 06/02 A2987 RMK AO1,M
HTH,2022-03-29 14:35,-118.6315,38.5448,1282.89,44.60,39.20,81.20,240.00,6.00,0.00,29.90,M,10.00,M,OVC,M,M,M,2800.00,M,M,M,M,M,M,M,M,M,M,40.71,KHTH 291435Z AUTO 24006KT 10SM OVC028 07/04 A2990 RMK A01,M
TMT,2022-03-29 14:35,-117.1971,39.4643,1749.34,36.00,30.20,78.93,0.00,0.00,0.00,29.87,M,10.00,M,BKN,OVC,M,M,2400.00,5000.00,M,M,M,M,M,M,M,M,M,36.10,KTMT 291435Z AUTO 00000KT 10SM BKN024 OVC050 02/M01 A2987 RMK AO2 T00231010,M
P68,2022-03-29 14:53,-116.0056,39.6014,1993.00,39.00,32.00,75.75,340.00,3.00,0.00,29.81,1006.70,M,M,M,M,M,M,M,M,M,M,M,M,M,M,M,M,M,36.69,KP68 291453Z AUTO 34003KT 04/00 A2981 RMK AO1 SLP067 T00390000 51019,M
LOL,2022-03-29 14:53,-118.5701,40.0684,1192.43,45.00,42.00,89.49,60.00,4.00,0.02,29.89,1011.20,10.00,M,SCT,OVC,M,M,2800.00,3600.00,M,M,M,M,M,M,M,M,M,42.60,KLOL 291453Z AUTO 06004KT 10SM SCT028 OVC036 07/06 A2989 RMK AO2 RAE30 SLP112 P0002 60003 T00720056 53024,M
ELY,2022-03-29 14:53,-114.8453,39.2950,1909.00,35.00,28.90,77.88,290.00,3.00,0.00,29.78,1005.20,10.00,M,CLR,M,M,M,M,M,M,M,M,M,M,M,M,M,M,32.23,KELY 291453Z AUTO 29003KT 10SM CLR 02/M02 A2978 RMK AO2 SLP052 T00171017 53016,M
VGT,2022-03-29 14:53,-115.1933,36.2111,667.00,54.00,42.00,63.98,0.00,0.00,0.00,29.76,1008.80,10.00,M,CLR,M,M,M,M,M,M,M,M,M,M,M,M,M,M,54.00,KVGT 291453Z 00000KT 10SM CLR 12/06 A2976 RMK AO2 SLP088 T01220056 53016,M
DRA,2022-03-29 14:53,-116.0278,36.6206,1009.00,45.00,36.00,70.53,0.00,0.00,0.00,29.78,1006.70,10.00,M,BKN,M,M,M,9000.00,M,M,M,M,M,M,M,M,M,M,45.00,KDRA 291453Z AUTO 00000KT 10SM BKN090 07/02 A2978 RMK AO2 SLP067 T00720022 53019 $,M
MEV,2022-03-29 14:55,-119.7500,38.9963,1441.42,39.20,37.40,93.19,0.00,0.00,0.00,29.94,M,10.00,M,BKN,OVC,M,M,3500.00,4000.00,M,M,M,M,M,M,M,M,M,39.20,KMEV 291455Z AUTO 00000KT 10SM BKN035 OVC040 04/03 A2994 RMK AO2,M
HTH,2022-03-29 14:55,-118.6315,38.5448,1282.89,44.60,39.20,81.20,270.00,7.00,0.00,29.91,M,9.00,M,OVC,M,M,M,2600.00,M,M,M,M,M,M,M,M,M,M,40.14,KHTH 291455Z AUTO 27007KT 9SM OVC026 07/04 A2991 RMK A01,M
BAM,2022-03-29 14:55,-116.8743,40.5990,1382.36,42.80,37.40,81.07,0.00,0.00,0.00,29.88,M,10.00,M,OVC,M,M,M,3600.00,M,M,M,M,M,M,M,M,M,M,42.80,KBAM 291455Z AUTO 00000KT 10SM OVC036 06/03 A2988 RMK AO1,M
RNO,2022-03-29 14:55,-119.7711,39.4839,1341.00,47.00,36.00,65.63,340.00,9.00,0.00,29.94,1011.90,10.00,M,BKN,BKN,M,M,3500.00,6000.00,M,M,M,M,M,M,M,M,M,42.04,KRNO 291455Z 34009KT 10SM BKN035 BKN060 08/02 A2994 RMK AO2 SLP119 CLDS TPG MTNS SW THRU NW T00830022 53023,M
CXP,2022-03-29 14:55,-119.7326,39.1923,1431.00,41.00,35.60,80.93,210.00,4.00,0.00,29.95,M,10.00,M,BKN,BKN,OVC,M,2900.00,4000.00,5000.00,M,M,M,M,M,M,M,M,37.93,KCXP 291455Z AUTO 21004KT 10SM BKN029 BKN040 OVC050 05/02 A2995 RMK AO2,M
BVU,2022-03-29 14:55,-114.8611,35.9475,671.00,51.80,46.40,81.74,0.00,0.00,0.00,29.77,M,10.00,M,CLR,M,M,M,M,M,M,M,M,M,M,M,M,M,M,51.80,KBVU 291455Z AUTO 00000KT 10SM CLR 11/08 A2977 RMK AO2,M
TMT,2022-03-29 14:55,-117.1971,39.4643,1749.34,38.50,32.00,77.24,0.00,0.00,0.00,29.89,M,10.00,M,BKN,BKN,OVC,M,2100.00,2800.00,5000.00,M,M,M,M,M,M,M,M,38.50,KTMT 291455Z AUTO 00000KT 10SM BKN021 BKN028 OVC050 04/00 A2989 RMK AO2 T00360000,M
RTS,2022-03-29 14:55,-119.8764,39.6682,1539.00,42.80,35.60,75.50,240.00,7.00,0.00,29.95,M,10.00,M,BKN,BKN,OVC,M,2000.00,2700.00,6500.00,M,M,M,M,M,M,M,M,37.94,KRTS 291455Z AUTO 24007KT 230V310 10SM BKN020 BKN027 OVC065 06/02 A2995 RMK AO2,M
05U,2022-03-29 14:55,-116.0051,39.6042,1811.23,37.40,33.80,86.69,0.00,0.00,0.00,29.84,M,10.00,M,BKN,OVC,M,M,1900.00,2700.00,M,M,M,M,M,M,M,M,M,37.40,K05U 291455Z AUTO 00000KT 10SM BKN019 OVC027 03/01 A2984 RMK A01,M
NFL,2022-03-29 14:56,-118.7010,39.4166,1199.00,47.00,41.00,79.82,300.00,9.00,T,29.89,1009.50,10.00,M,BKN,OVC,M,M,3000.00,5000.00,M,M,-RA,M,M,M,M,M,M,42.04,KNFL 291456Z 30009KT 10SM -RA BKN030 OVC050 08/05 A2989 RMK AO2 RAB49 SLP095 P0000 60000 T00830050 53022,M
HND,2022-03-29 14:56,-115.1344,35.9729,742.79,52.00,40.00,63.24,210.00,7.00,0.00,29.78,1009.60,10.00,M,CLR,M,M,M,M,M,M,M,M,M,M,M,M,M,M,52.00,KHND 291456Z 21007KT 10SM CLR 11/04 A2978 RMK AO2 SLP096 T01110044 53016,M
TPH,2022-03-29 14:56,-117.0904,38.0505,1654.00,42.00,35.00,76.04,320.00,20.00,0.00,29.83,1008.70,10.00,26.00,CLR,M,M,M,M,M,M,M,M,M,M,M,26.00,310.00,2022-03-29 14:55,32.55,KTPH 291456Z AUTO 32020G26KT 10SM CLR 06/02 A2983 RMK AO2 PK WND 31026/1455 SLP087 T00560017 53020,M
EKO,2022-03-29 14:56,-115.7860,40.8242,1367.00,44.00,32.00,62.21,260.00,10.00,0.00,29.81,1007.50,10.00,M,SCT,BKN,OVC,M,3600.00,7000.00,9500.00,M,M,M,M,M,M,M,M,38.14,KEKO 291456Z AUTO 26010KT 10SM SCT036 BKN070 OVC095 07/00 A2981 RMK AO2 SLP075 T00670000 51017,M
WMC,2022-03-29 14:56,-117.8072,40.9019,1315.00,44.00,39.00,82.12,320.00,7.00,0.00,29.88,1011.00,10.00,M,OVC,M,M,M,4700.00,M,M,M,M,M,M,M,M,M,M,39.53,KWMC 291456Z AUTO 32007KT 10SM OVC047 07/04 A2988 RMK AO2 SLP110 T00670039 53022,M
LAS,2022-03-29 14:56,-115.1634,36.0719,663.00,53.00,45.00,73.89,M,3.00,0.00,29.76,1007.10,10.00,M,FEW,FEW,BKN,M,7500.00,14000.00,22000.00,M,M,M,M,M,M,M,M,53.10,KLAS 291456Z VRB03KT 10SM FEW075 FEW140 BKN220 12/07 A2976 RMK AO2 SLP071 T01170072 53016,M
LSV,2022-03-29 14:58,-115.0343,36.2362,570.00,53.60,57.20,M,190.00,3.00,0.00,29.76,1007.00,10.00,M,CLR,M,M,M,M,M,M,M,M,M,M,M,M,M,M,M,KLSV 291458Z COR 19003KT 10SM CLR 12/14 A2976 RMK AO2A SLP070 52016 $ COR 1551,M
INS,2022-03-29 14:58,-115.6733,36.5872,955.00,48.20,36.70,64.25,240.00,9.00,0.00,29.78,1006.70,10.00,M,BKN,OVC,M,M,4900.00,6000.00,M,M,M,M,M,M,M,M,M,43.66,KINS 291458Z AUTO 24009KT 10SM BKN049 OVC060 09/03 A2978 RMK AO2 SLP067 T00900026 52017 $,M
05U,2022-03-29 15:05,-116.0051,39.6042,1811.23,39.20,33.80,80.79,0.00,0.00,0.00,29.85,M,10.00,M,BKN,OVC,M,M,2000.00,2700.00,M,M,M,M,M,M,M,M,M,39.20,K05U 291505Z AUTO 00000KT 10SM BKN020 OVC027 04/01 A2985 RMK A01,M
RTS,2022-03-29 15:15,-119.8764,39.6682,1539.00,42.80,35.60,75.50,270.00,3.00,0.00,29.97,M,10.00,10.00,OVC,M,M,M,2000.00,M,M,M,M,M,M,M,M,M,M,41.03,KRTS 291515Z AUTO 27003G10KT 10SM OVC020 06/02 A2997 RMK AO2,M
MEV,2022-03-29 15:15,-119.7500,38.9963,1441.42,39.20,37.40,93.19,0.00,0.00,0.00,29.95,M,10.00,M,BKN,OVC,M,M,4000.00,4700.00,M,M,M,M,M,M,M,M,M,39.20,KMEV 291515Z AUTO 00000KT 10SM BKN040 OVC047 04/03 A2995 RMK AO2,M
TMT,2022-03-29 15:15,-117.1971,39.4643,1749.34,39.20,33.40,79.51,0.00,0.00,0.00,29.89,M,10.00,M,BKN,OVC,M,M,2100.00,2600.00,M,M,-DZ,M,M,M,M,M,M,39.20,KTMT 291515Z AUTO 00000KT 10SM -DZ BKN021 OVC026 04/01 A2989 RMK AO2 T00400008,M
HTH,2022-03-29 15:15,-118.6315,38.5448,1282.89,44.60,39.20,81.20,M,5.00,0.00,29.92,M,10.00,M,OVC,M,M,M,2700.00,M,M,M,M,M,M,M,M,M,M,41.36,KHTH 291515Z AUTO VRB05KT 10SM OVC027 07/04 A2992 RMK A01,M
BAM,2022-03-29 15:15,-116.8743,40.5990,1382.36,42.80,37.40,81.07,0.00,0.00,0.00,29.88,M,10.00,M,BKN,OVC,M,M,3600.00,4300.00,M,M,M,M,M,M,M,M,M,42.80,KBAM 291515Z AUTO 00000KT 10SM BKN036 OVC043 06/03 A2988 RMK AO1,M
BVU,2022-03-29 15:15,-114.8611,35.9475,671.00,51.80,44.60,76.34,0.00,0.00,0.00,29.78,M,10.00,M,CLR,M,M,M,M,M,M,M,M,M,M,M,M,M,M,51.80,KBVU 291515Z AUTO 00000KT 10SM CLR 11/07 A2978 RMK AO2,M
CXP,2022-03-29 15:15,-119.7326,39.1923,1431.00,41.00,35.60,80.93,230.00,7.00,0.00,29.96,M,10.00,M,OVC,M,M,M,2900.00,M,M,M,M,M,M,M,M,M,M,35.75,KCXP 291515Z AUTO 23007KT 10SM OVC029 05/02 A2996 RMK AO2,M
05U,2022-03-29 15:30,-116.0051,39.6042,1811.23,39.20,33.80,80.79,0.00,0.00,0.00,29.86,M,10.00,M,OVC,M,M,M,1700.00,M,M,M,M,M,M,M,M,M,M,39.20,K05U 291530Z AUTO 00000KT 10SM OVC017 04/01 A2986 RMK A01,M
CXP,2022-03-29 15:30,-119.7326,39.1923,1431.00,41.00,35.60,80.93,0.00,0.00,0.00,29.97,M,10.00,M,OVC,M,M,M,2800.00,M,M,M,M,M,M,M,M,M,M,41.00,KCXP 291530Z AUTO 00000KT 10SM OVC028 05/02 A2997 RMK AO2,M
TMT,2022-03-29 15:35,-117.1971,39.4643,1749.34,39.60,33.40,78.28,0.00,0.00,0.00,29.89,M,10.00,M,OVC,M,M,M,2300.00,M,M,M,M,M,M,M,M,M,M,39.60,KTMT 291535Z AUTO 00000KT 10SM OVC023 04/01 A2989 RMK AO2 T00420008,M
BVU,2022-03-29 15:35,-114.8611,35.9475,671.00,51.80,44.60,76.34,0.00,0.00,0.00,29.79,M,10.00,M,CLR,M,M,M,M,M,M,M,M,M,M,M,M,M,M,51.80,KBVU 291535Z AUTO 00000KT 10SM CLR 11/07 A2979 RMK AO2,M
RTS,2022-03-29 15:35,-119.8764,39.6682,1539.00,42.80,35.60,75.50,310.00,4.00,0.00,29.98,M,10.00,M,FEW,OVC,M,M,1900.00,3900.00,M,M,M,M,M,M,M,M,M,40.03,KRTS 291535Z AUTO 31004KT 10SM FEW019 OVC039 06/02 A2998 RMK AO2,M
MEV,2022-03-29 15:35,-119.7500,38.9963,1441.42,39.20,37.40,93.19,0.00,0.00,0.00,29.96,M,10.00,M,FEW,SCT,M,M,4300.00,5500.00,M,M,M,M,M,M,M,M,M,39.20,KMEV 291535Z AUTO 00000KT 10SM FEW043 SCT055 04/03 A2996 RMK AO2,M
BAM,2022-03-29 15:35,-116.8743,40.5990,1382.36,44.60,37.40,75.68,150.00,3.00,0.00,29.89,M,10.00,M,SCT,BKN,OVC,M,3900.00,4400.00,7000.00,M,M,M,M,M,M,M,M,43.09,KBAM 291535Z AUTO 15003KT 10SM SCT039 BKN044 OVC070 07/03 A2989 RMK AO1,M
HTH,2022-03-29 15:35,-118.6315,38.5448,1282.89,44.60,39.20,81.20,240.00,5.00,0.00,29.93,M,7.00,M,OVC,M,M,M,2800.00,M,M,M,M,M,M,M,M,M,M,41.36,KHTH 291535Z AUTO 24005KT 7SM OVC028 07/04 A2993 RMK A01,M
INS,2022-03-29 15:48,-115.6733,36.5872,955.00,50.00,37.40,61.76,260.00,8.00,0.00,29.80,1007.20,10.00,M,BKN,BKN,M,M,4500.00,5500.00,M,M,-RA,M,M,M,M,M,M,50.00,KINS 291548Z AUTO 26008KT 10SM -RA BKN045 BKN055 10/03 A2980 RMK AO2 RAB48 SLP072 $,M
P68,2022-03-29 15:53,-116.0056,39.6014,1993.00,39.00,32.00,75.75,20.00,3.00,0.00,29.84,1008.20,M,M,M,M,M,M,M,M,M,M,M,M,M,M,M,M,M,36.69,KP68 291553Z AUTO 02003KT 04/00 A2984 RMK AO1 SLP082 T00390000,M
LOL,2022-03-29 15:53,-118.5701,40.0684,1192.43,48.00,43.00,82.72,50.00,5.00,0.00,29.92,1012.30,10.00,M,FEW,SCT,OVC,M,2900.00,5000.00,8500.00,M,M,M,M,M,M,M,M,45.40,KLOL 291553Z AUTO 05005KT 10SM FEW029 SCT050 OVC085 09/06 A2992 RMK AO2 SLP123 T00890061,M
ELY,2022-03-29 15:53,-114.8453,39.2950,1909.00,42.00,30.00,61.94,20.00,6.00,0.00,29.79,1005.40,10.00,M,CLR,M,M,M,M,M,M,M,M,M,M,M,M,M,M,37.69,KELY 291553Z AUTO 02006KT 10SM CLR 06/M01 A2979 RMK AO2 SLP054 T00561011,M
DRA,2022-03-29 15:53,-116.0278,36.6206,1009.00,50.00,36.00,58.44,250.00,6.00,0.00,29.81,1007.20,10.00,M,BKN,OVC,M,M,7000.00,8500.00,M,M,M,M,M,M,M,M,M,50.00,KDRA 291553Z AUTO 25006KT 10SM BKN070 OVC085 10/02 A2981 RMK AO2 SLP072 T01000022,M
VGT,2022-03-29 15:53,-115.1933,36.2111,667.00,57.00,41.00,54.99,0.00,0.00,0.00,29.77,1009.20,10.00,M,CLR,M,M,M,M,M,M,M,M,M,M,M,M,M,M,57.00,KVGT 291553Z 00000KT 10SM CLR 14/05 A2977 RMK AO2 SLP092 T01390050,M
RNO,2022-03-29 15:55,-119.7711,39.4839,1341.00,50.00,36.00,58.44,340.00,13.00,0.00,29.96,1012.60,10.00,19.00,BKN,BKN,M,M,3800.00,6000.00,M,M,M,M,M,M,M,M,M,50.00,KRNO 291555Z 34013G19KT 10SM BKN038 BKN060 10/02 A2996 RMK AO2 SLP126 CLDS TPG MTNS SW THRU NW T01000022,M
RTS,2022-03-29 15:55,-119.8764,39.6682,1539.00,42.80,35.60,75.50,350.00,10.00,0.00,29.99,M,10.00,M,OVC,M,M,M,4000.00,M,M,M,M,M,M,M,M,M,M,36.51,KRTS 291555Z AUTO 35010KT 10SM OVC040 06/02 A2999 RMK AO2,M
MEV,2022-03-29 15:55,-119.7500,38.9963,1441.42,42.80,37.40,81.07,0.00,0.00,0.00,29.98,M,10.00,M,CLR,M,M,M,M,M,M,M,M,M,M,M,M,M,M,42.80,KMEV 291555Z AUTO 00000KT 10SM CLR 06/03 A2998 RMK AO2,M
05U,2022-03-29 15:55,-116.0051,39.6042,1811.23,39.20,33.80,80.79,0.00,0.00,0.00,29.87,M,10.00,M,OVC,M,M,M,1500.00,M,M,M,M,M,M,M,M,M,M,39.20,K05U 291555Z AUTO 00000KT 10SM OVC015 04/01 A2987 RMK A01,M
BAM,2022-03-29 15:55,-116.8743,40.5990,1382.36,44.60,37.40,75.68,0.00,0.00,0.00,29.90,M,10.00,M,SCT,SCT,OVC,M,3700.00,4400.00,6000.00,M,M,M,M,M,M,M,M,44.60,KBAM 291555Z AUTO 00000KT 10SM SCT037 SCT044 OVC060 07/03 A2990 RMK AO1,M
HTH,2022-03-29 15:55,-118.6315,38.5448,1282.89,44.60,39.20,81.20,0.00,0.00,0.00,29.94,M,10.00,M,OVC,M,M,M,2700.00,M,M,M,M,M,M,M,M,M,M,44.60,KHTH 291555Z AUTO 00000KT 10SM OVC027 07/04 A2994 RMK A01,M
BVU,2022-03-29 15:55,-114.8611,35.9475,671.00,53.60,44.60,71.45,0.00,0.00,0.00,29.79,M,10.00,M,CLR,M,M,M,M,M,M,M,M,M,M,M,M,M,M,53.60,KBVU 291555Z AUTO 00000KT 10SM CLR 12/07 A2979 RMK AO2,M
TMT,2022-03-29 15:55,-117.1971,39.4643,1749.34,40.50,33.80,76.81,0.00,0.00,0.00,29.91,M,10.00,M,OVC,M,M,M,2000.00,M,M,M,M,M,M,M,M,M,M,40.50,KTMT 291555Z AUTO 00000KT 10SM OVC020 05/01 A2991 RMK AO2 T00470010,M
CXP,2022-03-29 15:55,-119.7326,39.1923,1431.00,42.80,37.40,81.07,M,5.00,0.00,29.98,M,10.00,M,BKN,OVC,M,M,2500.00,4400.00,M,M,M,M,M,M,M,M,M,39.22,KCXP 291555Z AUTO VRB05KT 10SM BKN025 OVC044 06/03 A2998 RMK AO2,M
LAS,2022-03-29 15:56,-115.1634,36.0719,663.00,55.00,43.00,63.86,180.00,3.00,0.00,29.78,1007.80,10.00,M,FEW,FEW,BKN,M,7500.00,13000.00,20000.00,M,M,M,M,M,M,M,M,55.00,KLAS 291556Z 18003KT 10SM FEW075 FEW130 BKN200 13/06 A2978 RMK AO2 SLP078 T01280061,M
EKO,2022-03-29 15:56,-115.7860,40.8242,1367.00,49.00,32.00,51.89,290.00,7.00,0.00,29.82,1007.60,10.00,M,SCT,M,M,M,8500.00,M,M,M,M,M,M,M,M,M,M,45.38,KEKO 291556Z AUTO 29007KT 10SM SCT085 09/00 A2982 RMK AO2 SLP076 T00940000,M
NFL,2022-03-29 15:56,-118.7010,39.4166,1199.00,47.00,43.00,86.21,330.00,7.00,T,29.92,1010.60,10.00,M,FEW,SCT,BKN,M,1500.00,3000.00,6000.00,M,-RA,M,M,M,M,M,M,42.94,KNFL 291556Z 33007KT 10SM -RA FEW015 SCT030 BKN060 08/06 A2992 RMK AO2 SLP106 P0000 T00830061,M
HND,2022-03-29 15:56,-115.1344,35.9729,742.79,55.00,39.00,54.70,220.00,7.00,0.00,29.80,1010.20,10.00,M,CLR,M,M,M,M,M,M,M,M,M,M,M,M,M,M,55.00,KHND 291556Z 22007KT 10SM CLR 13/04 A2980 RMK AO2 SLP102 T01280039,M
WMC,2022-03-29 15:56,-117.8072,40.9019,1315.00,47.00,39.00,73.85,310.00,9.00,0.00,29.92,1012.20,10.00,M,BKN,OVC,M,M,5000.00,5500.00,M,M,M,M,M,M,M,M,M,42.04,KWMC 291556Z AUTO 31009KT 10SM BKN050 OVC055 08/04 A2992 RMK AO2 SLP122 T00830039,M
TPH,2022-03-29 15:56,-117.0904,38.0505,1654.00,44.00,35.00,70.43,320.00,22.00,0.00,29.85,1009.80,10.00,31.00,SCT,M,M,M,8500.00,M,M,M,M,M,M,M,32.00,320.00,2022-03-29 15:36,34.78,KTPH 291556Z AUTO 32022G31KT 10SM SCT085 07/02 A2985 RMK AO2 PK WND 32032/1536 SLP098 T00670017,M
LSV,2022-03-29 15:58,-115.0343,36.2362,570.00,58.30,57.70,97.87,230.00,11.00,0.00,29.76,1007.00,10.00,M,BKN,M,M,M,12000.00,M,M,M,M,M,M,M,M,M,M,58.30,KLSV 291558Z AUTO 23011KT 10SM BKN120 15/14 A2976 RMK AO2 SLP070 T01460143 $,M
INS,2022-03-29 15:58,-115.6733,36.5872,955.00,49.80,37.40,62.22,250.00,10.00,T,29.81,1007.70,10.00,M,SCT,SCT,BKN,OVC,4500.00,5000.00,7000.00,8000.00,-RA,M,M,M,M,M,M,45.29,KINS 291558Z AUTO 25010KT 10SM -RA SCT045 SCT050 BKN070 OVC080 10/03 A2981 RMK AO2 RAB48 SLP077 P0000 T00990030 $,M
INS,2022-03-29 16:05,-115.6733,36.5872,955.00,50.00,37.40,61.76,260.00,9.00,0.00,29.81,1007.70,10.00,M,FEW,BKN,OVC,M,4500.00,7000.00,8000.00,M,M,M,M,M,M,M,M,50.00,KINS 291605Z AUTO 26009KT 10SM FEW045 BKN070 OVC080 10/03 A2981 RMK AO2 RAE05 SLP077 $,M
05U,2022-03-29 16:15,-116.0051,39.6042,1811.23,39.20,33.80,80.79,0.00,0.00,0.00,29.87,M,10.00,M,BKN,OVC,M,M,1500.00,1900.00,M,M,M,M,M,M,M,M,M,39.20,K05U 291615Z AUTO 00000KT 10SM BKN015 OVC019 04/01 A2987 RMK A01,M
BVU,2022-03-29 16:15,-114.8611,35.9475,671.00,53.60,42.80,66.70,0.00,0.00,0.00,29.80,M,10.00,M,CLR,M,M,M,M,M,M,M,M,M,M,M,M,M,M,53.60,KBVU 291615Z AUTO 00000KT 10SM CLR 12/06 A2980 RMK AO2,M
CXP,2022-03-29 16:15,-119.7326,39.1923,1431.00,42.80,37.40,81.07,210.00,6.00,0.00,29.99,M,10.00,M,OVC,M,M,M,2700.00,M,M,M,M,M,M,M,M,M,M,38.54,KCXP 291615Z AUTO 21006KT 10SM OVC027 06/03 A2999 RMK AO2,M
RTS,2022-03-29 16:15,-119.8764,39.6682,1539.00,44.60,35.60,70.48,350.00,11.00,0.00,30.00,M,10.00,17.00,OVC,M,M,M,4200.00,M,M,M,M,M,M,M,M,M,M,38.39,KRTS 291615Z AUTO 35011G17KT 10SM OVC042 07/02 A3000 RMK AO2,M
MEV,2022-03-29 16:15,-119.7500,38.9963,1441.42,42.80,37.40,81.07,0.00,0.00,0.00,29.98,M,10.00,M,BKN,M,M,M,6500.00,M,M,M,M,M,M,M,M,M,M,42.80,KMEV 291615Z AUTO 00000KT 10SM BKN065 06/03 A2998 RMK AO2,M
BAM,2022-03-29 16:15,-116.8743,40.5990,1382.36,46.40,37.40,70.68,320.00,6.00,0.00,29.90,M,10.00,M,SCT,OVC,M,M,4000.00,6000.00,M,M,M,M,M,M,M,M,M,42.87,KBAM 291615Z AUTO 32006KT 10SM SCT040 OVC060 08/03 A2990 RMK AO1,M
HTH,2022-03-29 16:15,-118.6315,38.5448,1282.89,46.40,39.20,75.84,220.00,3.00,0.00,29.95,M,10.00,M,BKN,BKN,OVC,M,2800.00,3200.00,4400.00,M,M,M,M,M,M,M,M,45.15,KHTH 291615Z AUTO 22003KT 10SM BKN028 BKN032 OVC044 08/04 A2995 RMK A01,M
TMT,2022-03-29 16:15,-117.1971,39.4643,1749.34,41.00,34.00,75.94,0.00,0.00,0.00,29.92,M,10.00,M,OVC,M,M,M,2000.00,M,M,M,M,M,M,M,M,M,M,41.00,KTMT 291615Z AUTO 00000KT 10SM OVC020 05/01 A2992 RMK AO2 T00500011,M
INS,2022-03-29 16:25,-115.6733,36.5872,955.00,51.80,37.40,57.77,280.00,12.00,0.00,29.81,1007.50,10.00,M,FEW,FEW,SCT,OVC,4200.00,4900.00,7000.00,10000.00,M,M,M,M,M,M,M,51.80,KINS 291625Z AUTO 28012KT 10SM FEW042 FEW049 SCT070 OVC100 11/03 A2981 RMK AO2 RAE05 SLP075 $,M
BAM,2022-03-29 16:35,-116.8743,40.5990,1382.36,50.00,37.40,61.76,330.00,9.00,0.00,29.91,M,10.00,M,OVC,M,M,M,7000.00,M,M,M,M,M,M,M,M,M,M,50.00,KBAM 291635Z AUTO 33009KT 10SM OVC070 10/03 A2991 RMK AO1,M
MEV,2022-03-29 16:35,-119.7500,38.9963,1441.42,42.80,37.40,81.07,0.00,0.00,0.00,30.00,M,10.00,M,FEW,OVC,M,M,5000.00,6000.00,M,M,M,M,M,M,M,M,M,42.80,KMEV 291635Z AUTO 00000KT 10SM FEW050 OVC060 06/03 A3000 RMK AO2,M
BVU,2022-03-29 16:35,-114.8611,35.9475,671.00,55.40,42.80,62.46,200.00,5.00,0.00,29.80,M,10.00,M,CLR,M,M,M,M,M,M,M,M,M,M,M,M,M,M,55.40,KBVU 291635Z AUTO 20005KT 10SM CLR 13/06 A2980 RMK AO2,M
TMT,2022-03-29 16:35,-117.1971,39.4643,1749.34,42.00,34.50,74.82,0.00,0.00,0.00,29.93,M,10.00,M,OVC,M,M,M,2000.00,M,M,M,M,M,M,M,M,M,M,41.90,KTMT 291635Z AUTO 00000KT 10SM OVC020 06/01 A2993 RMK AO2 T00550014,M
CXP,2022-03-29 16:35,-119.7326,39.1923,1431.00,44.60,37.40,75.68,210.00,5.00,0.00,30.00,M,10.00,M,BKN,OVC,M,M,2700.00,4700.00,M,M,M,M,M,M,M,M,M,41.36,KCXP 291635Z AUTO 21005KT 10SM BKN027 OVC047 07/03 A3000 RMK AO2,M
RTS,2022-03-29 16:35,-119.8764,39.6682,1539.00,46.40,35.60,65.83,360.00,11.00,0.00,30.00,M,10.00,18.00,SCT,BKN,M,M,4300.00,5000.00,M,M,M,M,M,M,M,M,M,40.66,KRTS 291635Z AUTO 36011G18KT 10SM SCT043 BKN050 08/02 A3000 RMK AO2,M
HTH,2022-03-29 16:35,-118.6315,38.5448,1282.89,46.40,39.20,75.84,0.00,0.00,0.00,29.96,M,10.00,M,SCT,OVC,M,M,3000.00,4400.00,M,M,M,M,M,M,M,M,M,46.40,KHTH 291635Z AUTO 00000KT 10SM SCT030 OVC044 08/04 A2996 RMK A01,M
05U,2022-03-29 16:35,-116.0051,39.6042,1811.23,41.00,33.80,75.33,0.00,0.00,0.00,29.88,M,10.00,M,BKN,OVC,M,M,1500.00,2100.00,M,M,M,M,M,M,M,M,M,41.00,K05U 291635Z AUTO 00000KT 10SM BKN015 OVC021 05/01 A2988 RMK A01,M
INS,2022-03-29 16:40,-115.6733,36.5872,955.00,51.80,37.40,57.77,280.00,12.00,0.00,29.82,1007.90,10.00,M,FEW,BKN,OVC,M,4200.00,7500.00,10000.00,M,M,M,M,M,M,M,M,51.80,KINS 291640Z AUTO 28012KT 10SM FEW042 BKN075 OVC100 11/03 A2982 RMK AO2 RAE05 SLP079 $,M
LSV,2022-03-29 16:53,-115.0343,36.2362,570.00,62.60,42.80,48.28,230.00,11.00,0.00,29.78,1007.50,10.00,M,OVC,M,M,M,12000.00,M,M,M,M,M,M,M,M,M,M,62.60,KLSV 291653Z AUTO 23011KT 10SM OVC120 17/06 A2978 RMK AO2 WSHFT 46 SLP075 $,M
LOL,2022-03-29 16:53,-118.5701,40.0684,1192.43,49.00,44.00,83.42,0.00,0.00,0.00,29.95,1013.50,10.00,M,OVC,M,M,M,6000.00,M,M,M,M,M,M,M,M,M,M,48.90,KLOL 291653Z AUTO 00000KT 10SM OVC060 09/07 A2995 RMK AO2 SLP135 T00940067,M
DRA,2022-03-29 16:53,-116.0278,36.6206,1009.00,51.00,37.00,58.36,230.00,8.00,0.00,29.83,1008.20,10.00,M,FEW,OVC,M,M,7000.00,9000.00,M,M,M,M,M,M,M,M,M,51.10,KDRA 291653Z AUTO 23008KT 10SM FEW070 OVC090 11/03 A2983 RMK AO2 SLP082 T01060028,M
P68,2022-03-29 16:53,-116.0056,39.6014,1993.00,44.00,34.00,67.41,M,M,0.00,29.86,1008.40,M,M,M,M,M,M,M,M,M,M,M,M,M,M,M,M,M,M,KP68 291653Z AUTO 07/01 A2986 RMK AO1 SLP084 T00670011,M
ELY,2022-03-29 16:53,-114.8453,39.2950,1909.00,47.00,30.00,51.58,M,M,0.00,29.80,1005.00,10.00,M,FEW,M,M,M,5500.00,M,M,M,M,M,M,M,M,M,M,M,KELY 291653Z AUTO 10SM FEW055 08/M01 A2980 RMK AO2 SLP050 T00831011,M
VGT,2022-03-29 16:53,-115.1933,36.2111,667.00,60.00,38.00,43.61,340.00,16.00,0.00,29.79,1009.60,10.00,20.00,BKN,OVC,M,M,8000.00,12000.00,M,M,M,M,M,M,M,M,M,60.10,KVGT 291653Z 34016G20KT 10SM BKN080 OVC120 16/03 A2979 RMK AO2 SLP096 T01560033,M
RTS,2022-03-29 16:55,-119.8764,39.6682,1539.00,48.20,35.60,61.52,360.00,15.00,0.00,30.01,M,10.00,21.00,BKN,M,M,M,5500.00,M,M,M,M,M,M,M,M,M,M,41.78,KRTS 291655Z AUTO 36015G21KT 10SM BKN055 09/02 A3001 RMK AO2,M
BVU,2022-03-29 16:55,-114.8611,35.9475,671.00,57.20,41.00,54.60,180.00,5.00,0.00,29.81,M,10.00,M,CLR,M,M,M,M,M,M,M,M,M,M,M,M,M,M,57.20,KBVU 291655Z AUTO 18005KT 10SM CLR 14/05 A2981 RMK AO2,M
CXP,2022-03-29 16:55,-119.7326,39.1923,1431.00,44.60,37.40,75.68,210.00,5.00,0.00,30.01,M,10.00,M,FEW,BKN,OVC,M,2700.00,5000.00,6000.00,M,M,M,M,M,M,M,M,41.36,KCXP 291655Z AUTO 21005KT 10SM FEW027 BKN050 OVC060 07/03 A3001 RMK AO2,M
RNO,2022-03-29 16:55,-119.7711,39.4839,1341.00,53.00,36.00,52.11,360.00,18.00,0.00,29.99,1013.40,10.00,22.00,BKN,BKN,M,M,3800.00,6000.00,M,M,M,M,M,M,M,M,M,53.10,KRNO 291655Z 36018G22KT 10SM BKN038 BKN060 12/02 A2999 RMK AO2 SLP134 MTN TOPS OBSCD SW THRU NW T01170022,M
05U,2022-03-29 16:55,-116.0051,39.6042,1811.23,44.60,33.80,65.61,0.00,0.00,0.00,29.89,M,10.00,M,BKN,OVC,M,M,2000.00,5500.00,M,M,M,M,M,M,M,M,M,44.60,K05U 291655Z AUTO 00000KT 10SM BKN020 OVC055 07/01 A2989 RMK A01,M
MEV,2022-03-29 16:55,-119.7500,38.9963,1441.42,42.80,39.20,86.99,0.00,0.00,0.00,30.01,M,10.00,M,SCT,OVC,M,M,4800.00,6000.00,M,M,M,M,M,M,M,M,M,42.80,KMEV 291655Z AUTO 00000KT 10SM SCT048 OVC060 06/04 A3001 RMK AO2,M
BAM,2022-03-29 16:55,-116.8743,40.5990,1382.36,51.80,37.40,57.77,330.00,13.00,0.00,29.91,M,10.00,20.00,SCT,BKN,M,M,2700.00,7000.00,M,M,M,M,M,M,M,M,M,51.80,KBAM 291655Z AUTO 33013G20KT 10SM SCT027 BKN070 11/03 A2991 RMK AO1,M
HTH,2022-03-29 16:55,-118.6315,38.5448,1282.89,46.40,39.20,75.84,190.00,3.00,0.00,29.97,M,10.00,M,FEW,SCT,OVC,M,2700.00,3200.00,4000.00,M,M,M,M,M,M,M,M,45.15,KHTH 291655Z AUTO 19003KT 10SM FEW027 SCT032 OVC040 08/04 A2997 RMK A01,M
TMT,2022-03-29 16:55,-117.1971,39.4643,1749.34,42.00,34.30,74.23,0.00,0.00,0.00,29.93,M,10.00,M,BKN,OVC,M,M,2000.00,2800.00,M,M,M,M,M,M,M,M,M,41.90,KTMT 291655Z AUTO 00000KT 10SM BKN020 OVC028 06/01 A2993 RMK AO2 T00550013,M
LAS,2022-03-29 16:56,-115.1634,36.0719,663.00,58.00,41.00,53.24,M,5.00,0.00,29.80,1008.40,10.00,M,FEW,FEW,BKN,M,6500.00,11000.00,20000.00,M,M,M,M,M,M,M,M,57.90,KLAS 291656Z VRB05KT 10SM FEW065 FEW110 BKN200 14/05 A2980 RMK AO2 SLP084 T01440050,M
NFL,2022-03-29 16:56,-118.7010,39.4166,1199.00,49.00,42.00,77.26,330.00,11.00,T,29.96,1011.60,10.00,M,FEW,BKN,BKN,M,1500.00,4000.00,6000.00,M,M,M,M,M,M,M,M,43.82,KNFL 291656Z 33011KT 10SM FEW015 BKN040 BKN060 09/06 A2996 RMK RAE45 SLP116 P0000 T00940056,M
WMC,2022-03-29 16:56,-117.8072,40.9019,1315.00,49.00,38.00,65.62,330.00,7.00,0.00,29.93,1012.70,10.00,M,SCT,OVC,M,M,3400.00,6000.00,M,M,M,M,M,M,M,M,M,45.38,KWMC 291656Z AUTO 33007KT 10SM SCT034 OVC060 09/03 A2993 RMK AO2 SLP127 T00940033,M
EKO,2022-03-29 16:56,-115.7860,40.8242,1367.00,50.00,30.90,47.64,320.00,12.00,0.00,29.84,1008.60,10.00,23.00,BKN,OVC,M,M,3700.00,5000.00,M,M,M,M,M,M,M,M,M,50.00,KEKO 291656Z AUTO 32012G23KT 10SM BKN037 OVC050 10/M01 A2984 RMK AO2 SLP086 T01001006,M
HND,2022-03-29 16:56,-115.1344,35.9729,742.79,57.00,37.00,47.04,0.00,0.00,0.00,29.82,1010.90,10.00,M,CLR,M,M,M,M,M,M,M,M,M,M,M,M,M,M,57.00,KHND 291656Z 00000KT 10SM CLR 14/03 A2982 RMK AO2 SLP109 T01390028,M
TPH,2022-03-29 16:56,-117.0904,38.0505,1654.00,48.00,34.00,58.16,310.00,20.00,0.00,29.89,1010.50,10.00,29.00,FEW,M,M,M,8500.00,M,M,M,M,M,M,M,34.00,320.00,2022-03-29 16:00,40.39,KTPH 291656Z AUTO 31020G29KT 10SM FEW085 09/01 A2989 RMK AO2 PK WND 32034/1600 SLP105 T00890011,M
INS,2022-03-29 16:58,-115.6733,36.5872,955.00,53.20,38.50,57.29,270.00,13.00,T,29.83,1008.20,10.00,M,BKN,OVC,M,M,7500.00,10000.00,M,M,M,M,M,M,M,M,M,53.20,KINS 291658Z AUTO 27013KT 10SM BKN075 OVC100 12/04 A2983 RMK AO2 RAE05 SLP082 P0000 T01180036 $,M
LSV,2022-03-29 16:58,-115.0343,36.2362,570.00,62.20,42.80,48.96,250.00,11.00,0.00,29.78,1007.50,10.00,M,OVC,M,M,M,12000.00,M,M,M,M,M,M,M,M,M,M,62.20,KLSV 291658Z AUTO 25011KT 10SM OVC120 17/06 A2978 RMK AO2 SLP075 T01680060 $,M
INS,2022-03-29 17:03,-115.6733,36.5872,955.00,53.60,37.40,54.07,280.00,14.00,0.00,29.83,1008.20,10.00,M,SCT,OVC,M,M,7500.00,10000.00,M,M,M,M,M,M,M,M,M,53.60,KINS 291703Z AUTO 28014KT 10SM SCT075 OVC100 12/03 A2983 RMK AO2 SLP082 $,M
EKO,2022-03-29 17:12,-115.7860,40.8242,1367.00,51.00,30.00,44.09,310.00,11.00,0.00,29.85,M,10.00,M,SCT,M,M,M,3700.00,M,M,M,M,M,M,M,M,M,M,51.10,KEKO 291712Z AUTO 31011KT 10SM SCT037 11/M01 A2985 RMK AO2 WSHFT 1652 T01061011,M
INS,2022-03-29 17:13,-115.6733,36.5872,955.00,53.60,37.40,54.07,270.00,14.00,0.00,29.84,1008.50,10.00,M,FEW,OVC,M,M,7500.00,9500.00,M,M,M,M,M,M,M,M,M,53.60,KINS 291713Z AUTO 27014KT 10SM FEW075 OVC095 12/03 A2984 RMK AO2 SLP085 $,M
RTS,2022-03-29 17:15,-119.8764,39.6682,1539.00,46.40,35.60,65.83,340.00,14.00,0.00,30.02,M,10.00,M,SCT,SCT,SCT,M,3900.00,4400.00,5500.00,M,M,M,M,M,M,M,M,39.72,KRTS 291715Z AUTO 34014KT 10SM SCT039 SCT044 SCT055 08/02 A3002 RMK AO2,M
BAM,2022-03-29 17:15,-116.8743,40.5990,1382.36,53.60,35.60,50.36,350.00,16.00,0.00,29.92,M,10.00,M,BKN,OVC,M,M,3100.00,7000.00,M,M,M,M,M,M,M,M,M,53.60,KBAM 291715Z AUTO 35016KT 10SM BKN031 OVC070 12/02 A2992 RMK AO1,M
HTH,2022-03-29 17:15,-118.6315,38.5448,1282.89,46.40,39.20,75.84,200.00,6.00,0.00,29.98,M,10.00,M,SCT,SCT,OVC,M,2300.00,2800.00,3700.00,M,M,M,M,M,M,M,M,42.87,KHTH 291715Z AUTO 20006KT 10SM SCT023 SCT028 OVC037 08/04 A2998 RMK A01,M
TMT,2022-03-29 17:15,-117.1971,39.4643,1749.34,42.30,34.20,72.80,0.00,0.00,0.00,29.95,M,10.00,M,BKN,OVC,M,M,2400.00,3300.00,M,M,M,M,M,M,M,M,M,42.30,KTMT 291715Z AUTO 00000KT 10SM BKN024 OVC033 06/01 A2995 RMK AO2 T00570012,M
CXP,2022-03-29 17:15,-119.7326,39.1923,1431.00,46.40,37.40,70.68,M,4.00,0.00,30.02,M,10.00,10.00,SCT,BKN,OVC,M,2900.00,4900.00,5500.00,M,M,M,M,M,M,M,M,44.24,KCXP 291715Z AUTO VRB04G10KT 10SM SCT029 BKN049 OVC055 08/03 A3002 RMK AO2,M
BVU,2022-03-29 17:15,-114.8611,35.9475,671.00,57.20,41.00,54.60,M,4.00,0.00,29.82,M,10.00,M,CLR,M,M,M,M,M,M,M,M,M,M,M,M,M,M,57.20,KBVU 291715Z AUTO VRB04KT 10SM CLR 14/05 A2982 RMK AO2,M
MEV,2022-03-29 17:15,-119.7500,38.9963,1441.42,44.60,39.20,81.20,M,4.00,0.00,30.02,M,10.00,M,FEW,OVC,M,M,4800.00,6000.00,M,M,M,M,M,M,M,M,M,42.13,KMEV 291715Z AUTO VRB04KT 10SM FEW048 OVC060 07/04 A3002 RMK AO2,M
05U,2022-03-29 17:30,-116.0051,39.6042,1811.23,48.20,33.80,57.26,340.00,14.00,0.00,29.90,M,10.00,M,FEW,BKN,BKN,M,1900.00,2700.00,5500.00,M,M,M,M,M,M,M,M,42.04,K05U 291730Z AUTO 34014KT 10SM FEW019 BKN027 BKN055 09/01 A2990 RMK A01,M
BAM,2022-03-29 17:35,-116.8743,40.5990,1382.36,53.60,33.80,46.88,330.00,16.00,0.00,29.92,M,10.00,20.00,SCT,BKN,BKN,M,3400.00,4000.00,5500.00,M,M,M,M,M,M,M,M,53.60,KBAM 291735Z AUTO 33016G20KT 10SM SCT034 BKN040 BKN055 12/01 A2992 RMK AO1,M
MEV,2022-03-29 17:35,-119.7500,38.9963,1441.42,44.60,39.20,81.20,0.00,0.00,0.00,30.03,M,10.00,M,FEW,OVC,M,M,5000.00,6000.00,M,M,M,M,M,M,M,M,M,44.60,KMEV 291735Z AUTO 00000KT 10SM FEW050 OVC060 07/04 A3003 RMK AO2,M
HTH,2022-03-29 17:35,-118.6315,38.5448,1282.89,48.20,39.20,70.88,M,3.00,0.00,29.99,M,10.00,M,FEW,OVC,M,M,2800.00,3300.00,M,M,M,M,M,M,M,M,M,47.21,KHTH 291735Z AUTO VRB03KT 10SM FEW028 OVC033 09/04 A2999 RMK A01,M
TMT,2022-03-29 17:35,-117.1971,39.4643,1749.34,43.30,34.20,70.06,110.00,3.00,0.00,29.95,M,10.00,M,BKN,OVC,M,M,2600.00,3400.00,M,M,M,M,M,M,M,M,M,41.61,KTMT 291735Z AUTO 11003KT 10SM BKN026 OVC034 06/01 A2995 RMK AO2 T00630012,M
RTS,2022-03-29 17:35,-119.8764,39.6682,1539.00,48.20,33.80,57.26,360.00,11.00,0.00,30.02,M,10.00,16.00,BKN,OVC,M,M,3900.00,4400.00,M,M,M,M,M,M,M,M,M,42.94,KRTS 291735Z AUTO 36011G16KT 10SM BKN039 OVC044 09/01 A3002 RMK AO2,M
CXP,2022-03-29 17:35,-119.7326,39.1923,1431.00,48.20,37.40,66.05,M,6.00,0.00,30.02,M,10.00,15.00,FEW,SCT,OVC,M,2800.00,4700.00,5500.00,M,M,M,M,M,M,M,M,45.04,KCXP 291735Z AUTO VRB06G15KT 180V240 10SM FEW028 SCT047 OVC055 09/03 A3002 RMK AO2,M
BVU,2022-03-29 17:35,-114.8611,35.9475,671.00,59.00,41.00,51.18,M,4.00,0.00,29.82,M,10.00,M,CLR,M,M,M,M,M,M,M,M,M,M,M,M,M,M,59.00,KBVU 291735Z AUTO VRB04KT 10SM CLR 15/05 A2982 RMK AO2,M
05U,2022-03-29 17:45,-116.0051,39.6042,1811.23,48.20,32.00,53.27,350.00,12.00,0.00,29.91,M,10.00,M,FEW,SCT,BKN,M,2300.00,2800.00,5500.00,M,M,M,M,M,M,M,M,42.62,K05U 291745Z AUTO 35012KT 10SM FEW023 SCT028 BKN055 09/00 A2991 RMK A01,M
ELY,2022-03-29 17:53,-114.8453,39.2950,1909.00,49.00,28.90,45.75,M,M,0.00,29.82,1005.30,10.00,M,BKN,BKN,M,M,4200.00,5500.00,M,M,M,M,M,M,M,M,M,M,KELY 291753Z AUTO 10SM BKN042 BKN055 09/M02 A2982 RMK AO2 SLP053 T00941017 10100 21050 53012,M
P68,2022-03-29 17:53,-116.0056,39.6014,1993.00,49.00,32.00,51.89,340.00,15.00,0.00,29.88,1008.70,M,25.00,M,M,M,M,M,M,M,M,M,M,M,M,M,M,M,42.69,KP68 291753Z AUTO 34015G25KT 09/00 A2988 RMK AO1 SLP087 T00940000 10094 21017 51020,M
VGT,2022-03-29 17:53,-115.1933,36.2111,667.00,61.00,37.00,40.77,330.00,15.00,0.00,29.80,1010.00,10.00,23.00,FEW,BKN,M,M,8000.00,10000.00,M,M,M,M,M,M,M,M,M,61.00,KVGT 291753Z 33015G23KT 10SM FEW080 BKN100 16/03 A2980 RMK AO2 SLP100 T01610028 10167 20106 52012,M
LOL,2022-03-29 17:53,-118.5701,40.0684,1192.43,52.00,43.00,71.28,0.00,0.00,0.00,29.96,1013.50,10.00,M,FEW,SCT,OVC,M,3100.00,4000.00,6500.00,M,M,M,M,M,M,M,M,52.00,KLOL 291753Z AUTO 00000KT 10SM FEW031 SCT040 OVC065 11/06 A2996 RMK AO2 SLP135 60003 T01110061 10111 20067 51021,M
DRA,2022-03-29 17:53,-116.0278,36.6206,1009.00,53.00,36.00,52.11,200.00,8.00,0.00,29.85,1008.60,10.00,M,BKN,M,M,M,8500.00,M,M,M,M,M,M,M,M,M,M,53.10,KDRA 291753Z AUTO 20008KT 10SM BKN085 12/02 A2985 RMK AO2 SLP086 T01170022 10117 20050 51020,M
MEV,2022-03-29 17:55,-119.7500,38.9963,1441.42,46.40,39.20,75.84,110.00,3.00,0.00,30.02,M,10.00,M,OVC,M,M,M,6000.00,M,M,M,M,M,M,M,M,M,M,45.15,KMEV 291755Z AUTO 11003KT 10SM OVC060 08/04 A3002 RMK AO2,M
BAM,2022-03-29 17:55,-116.8743,40.5990,1382.36,53.60,35.60,50.36,310.00,10.00,0.00,29.93,M,10.00,18.00,BKN,BKN,BKN,M,3800.00,4900.00,6500.00,M,M,M,M,M,M,M,M,53.60,KBAM 291755Z AUTO 31010G18KT 10SM BKN038 BKN049 BKN065 12/02 A2993 RMK AO1,M
HTH,2022-03-29 17:55,-118.6315,38.5448,1282.89,46.40,42.80,87.19,360.00,12.00,0.00,30.01,M,5.00,17.00,FEW,BKN,BKN,M,2200.00,3100.00,4100.00,M,BR,M,M,M,M,M,M,40.33,KHTH 291755Z AUTO 36012G17KT 5SM BR FEW022 BKN031 BKN041 08/06 A3001 RMK A01,M
TMT,2022-03-29 17:55,-117.1971,39.4643,1749.34,44.00,34.00,67.92,0.00,0.00,0.00,29.96,M,10.00,M,SCT,OVC,M,M,2600.00,3400.00,M,M,M,M,M,M,M,M,M,43.90,KTMT 291755Z AUTO 00000KT 10SM SCT026 OVC034 07/01 A2996 RMK AO2 T00660011 10066 20008,M
RTS,2022-03-29 17:55,-119.8764,39.6682,1539.00,50.00,33.80,53.54,360.00,10.00,0.00,30.02,M,10.00,M,OVC,M,M,M,4000.00,M,M,M,M,M,M,M,M,M,M,50.00,KRTS 291755Z AUTO 36010KT 10SM OVC040 10/01 A3002 RMK AO2,M
BVU,2022-03-29 17:55,-114.8611,35.9475,671.00,59.00,41.00,51.18,200.00,6.00,0.00,29.82,M,10.00,M,FEW,FEW,M,M,5000.00,12000.00,M,M,M,M,M,M,M,M,M,59.00,KBVU 291755Z AUTO 20006KT 10SM FEW050 FEW120 15/05 A2982 RMK AO2,M
CXP,2022-03-29 17:55,-119.7326,39.1923,1431.00,48.20,37.40,66.05,200.00,7.00,0.00,30.02,M,10.00,M,FEW,SCT,BKN,M,3200.00,3800.00,5000.00,M,M,M,M,M,M,M,M,44.53,KCXP 291755Z AUTO 20007KT 10SM FEW032 SCT038 BKN050 09/03 A3002 RMK AO2,M
RNO,2022-03-29 17:55,-119.7711,39.4839,1341.00,54.00,36.00,50.42,40.00,12.00,0.00,30.01,1013.80,10.00,18.00,SCT,SCT,M,M,3800.00,7000.00,M,M,M,M,M,M,M,M,M,54.00,KRNO 291755Z 04012G18KT 10SM SCT038 SCT070 12/02 A3001 RMK AO2 SLP138 MTN TOPS OBSCD SW THRU NW T01220022 10122 20078 51020,M
TPH,2022-03-29 17:56,-117.0904,38.0505,1654.00,52.00,34.00,50.12,320.00,18.00,0.00,29.90,1010.70,10.00,25.00,CLR,M,M,M,M,M,M,M,M,M,M,M,28.00,320.00,2022-03-29 16:57,52.00,KTPH 291756Z AUTO 32018G25KT 10SM CLR 11/01 A2990 RMK AO2 PK WND 32028/1657 SLP107 T01110011 10111 20022 51021,M
WMC,2022-03-29 17:56,-117.8072,40.9019,1315.00,52.00,37.00,56.45,340.00,10.00,0.00,29.95,1013.10,10.00,20.00,OVC,M,M,M,6500.00,M,M,M,M,M,M,M,M,M,M,52.00,KWMC 291756Z AUTO 34010G20KT 10SM OVC065 11/03 A2995 RMK AO2 SLP131 T01110028 10111 20050 51019,M
EKO,2022-03-29 17:56,-115.7860,40.8242,1367.00,53.00,30.00,40.96,300.00,15.00,0.00,29.86,1009.20,10.00,24.00,SCT,M,M,M,6000.00,M,M,M,M,M,M,M,28.00,290.00,2022-03-29 17:46,53.10,KEKO 291756Z AUTO 30015G24KT 10SM SCT060 12/M01 A2986 RMK AO2 PK WND 29028/1746 WSHFT 1652 SLP092 T01171011 10122 20028 53015,M
LAS,2022-03-29 17:56,-115.1634,36.0719,663.00,60.00,40.00,47.15,260.00,6.00,0.00,29.82,1008.80,10.00,M,FEW,SCT,BKN,M,6500.00,12000.00,20000.00,M,M,M,M,M,M,M,M,60.10,KLAS 291756Z 26006KT 10SM FEW065 SCT120 BKN200 16/04 A2982 RMK AO2 SLP088 T01560044 10156 20106 51018,M
NFL,2022-03-29 17:56,-118.7010,39.4166,1199.00,53.00,42.00,66.13,350.00,9.00,0.00,29.98,1012.30,10.00,M,SCT,BKN,BKN,M,2400.00,3200.00,6500.00,M,M,M,M,M,M,M,M,53.10,KNFL 291756Z 35009KT 10SM SCT024 BKN032 BKN065 12/06 A2998 RMK AO2 SLP123 60000 T01170056 10117 20078 51027,M
HND,2022-03-29 17:56,-115.1344,35.9729,742.79,60.00,38.00,43.61,220.00,6.00,0.00,29.84,1011.30,10.00,M,SCT,BKN,OVC,M,4900.00,6000.00,12000.00,M,M,M,M,M,M,M,M,60.10,KHND 291756Z 22006KT 10SM SCT049 BKN060 OVC120 16/03 A2984 RMK AO2 SLP113 T01560033 10161 20083 51018,M
INS,2022-03-29 17:58,-115.6733,36.5872,955.00,55.40,36.00,47.91,270.00,13.00,0.00,29.85,1008.70,10.00,M,BKN,BKN,M,M,9000.00,19000.00,M,M,M,M,M,M,M,M,M,55.40,KINS 291758Z AUTO 27013KT 10SM BKN090 BKN190 13/02 A2985 RMK AO2 SLP087 60000 T01300022 10130 20047 52020 $,M
LSV,2022-03-29 17:58,-115.0343,36.2362,570.00,64.20,41.20,42.91,320.00,6.00,0.00,29.79,1007.90,10.00,M,SCT,SCT,BKN,M,10000.00,15000.00,19000.00,M,M,M,M,M,M,M,M,64.20,KLSV 291758Z AUTO 32006KT 10SM SCT100 SCT150 BKN190 18/05 A2979 RMK AO2 SLP079 T01790051 10187 20089 52012 $,M
INS,2022-03-29 18:03,-115.6733,36.5872,955.00,55.40,35.60,47.16,270.00,12.00,0.00,29.85,1008.70,10.00,M,SCT,BKN,M,M,8500.00,19000.00,M,M,M,M,M,M,M,M,M,55.40,KINS 291803Z AUTO 27012KT 10SM SCT085 BKN190 13/02 A2985 RMK AO2 SLP087 $,M
05U,2022-03-29 18:10,-116.0051,39.6042,1811.23,48.20,32.00,53.27,330.00,11.00,0.00,29.92,M,10.00,17.00,FEW,OVC,M,M,2900.00,5500.00,M,M,M,M,M,M,M,M,M,42.94,K05U 291810Z AUTO 33011G17KT 10SM FEW029 OVC055 09/00 A2992 RMK A01,M
BAM,2022-03-29 18:15,-116.8743,40.5990,1382.36,53.60,35.60,50.36,320.00,13.00,0.00,29.93,M,10.00,16.00,BKN,BKN,OVC,M,4000.00,4900.00,5500.00,M,M,M,M,M,M,M,M,53.60,KBAM 291815Z AUTO 32013G16KT 10SM BKN040 BKN049 OVC055 12/02 A2993 RMK AO1,M
RTS,2022-03-29 18:15,-119.8764,39.6682,1539.00,50.00,33.80,53.54,20.00,10.00,0.00,30.03,M,10.00,M,BKN,M,M,M,4300.00,M,M,M,M,M,M,M,M,M,M,50.00,KRTS 291815Z AUTO 02010KT 10SM BKN043 10/01 A3003 RMK AO2,M
CXP,2022-03-29 18:15,-119.7326,39.1923,1431.00,50.00,37.40,61.76,160.00,4.00,0.00,30.02,M,10.00,M,SCT,BKN,M,M,3700.00,4700.00,M,M,M,M,M,M,M,M,M,50.00,KCXP 291815Z AUTO 16004KT 10SM SCT037 BKN047 10/03 A3002 RMK AO2,M
MEV,2022-03-29 18:15,-119.7500,38.9963,1441.42,48.20,41.00,76.01,110.00,4.00,0.00,30.02,M,10.00,M,BKN,M,M,M,6000.00,M,M,M,M,M,M,M,M,M,M,46.34,KMEV 291815Z AUTO 11004KT 10SM BKN060 09/05 A3002 RMK AO2,M
HTH,2022-03-29 18:15,-118.6315,38.5448,1282.89,46.40,41.00,81.34,330.00,7.00,0.00,30.01,M,10.00,M,FEW,BKN,OVC,M,3100.00,4000.00,4700.00,M,M,M,M,M,M,M,M,42.33,KHTH 291815Z AUTO 33007KT 10SM FEW031 BKN040 OVC047 08/05 A3001 RMK A01,M
TMT,2022-03-29 18:15,-117.1971,39.4643,1749.34,46.40,32.00,57.00,10.00,11.00,0.00,29.96,M,10.00,14.00,SCT,OVC,M,M,3600.00,4700.00,M,M,M,M,M,M,M,M,M,40.66,KTMT 291815Z AUTO 01011G14KT 10SM SCT036 OVC047 08/00 A2996 RMK AO2 T00800000,M
BVU,2022-03-29 18:15,-114.8611,35.9475,671.00,60.80,41.00,48.00,M,4.00,0.00,29.82,M,10.00,M,BKN,BKN,M,M,5000.00,5500.00,M,M,M,M,M,M,M,M,M,60.80,KBVU 291815Z AUTO VRB04KT 10SM BKN050 BKN055 16/05 A2982 RMK AO2,M
05U,2022-03-29 18:35,-116.0051,39.6042,1811.23,48.20,32.00,53.27,350.00,13.00,0.00,29.92,M,10.00,M,OVC,M,M,M,5500.00,M,M,M,M,M,M,M,M,M,M,42.32,K05U 291835Z AUTO 35013KT 10SM OVC055 09/M00 A2992 RMK A01,M
HTH,2022-03-29 18:35,-118.6315,38.5448,1282.89,46.40,41.00,81.34,330.00,7.00,0.00,30.02,M,7.00,M,FEW,FEW,OVC,M,2400.00,3000.00,3800.00,M,M,M,M,M,M,M,M,42.33,KHTH 291835Z AUTO 33007KT 7SM FEW024 FEW030 OVC038 08/05 A3002 RMK A01,M
RTS,2022-03-29 18:35,-119.8764,39.6682,1539.00,50.00,33.80,53.54,10.00,10.00,0.00,30.04,M,10.00,M,FEW,SCT,BKN,M,3300.00,4700.00,5000.00,M,M,M,M,M,M,M,M,50.00,KRTS 291835Z AUTO 01010KT 10SM FEW033 SCT047 BKN050 10/01 A3004 RMK AO2,M
TMT,2022-03-29 18:35,-117.1971,39.4643,1749.34,46.40,33.00,59.58,320.00,8.00,0.00,29.97,M,10.00,M,SCT,BKN,OVC,M,3200.00,4900.00,5500.00,M,M,M,M,M,M,M,M,41.85,KTMT 291835Z AUTO 32008KT 10SM SCT032 BKN049 OVC055 08/01 A2997 RMK AO2 T00800006,M
MEV,2022-03-29 18:35,-119.7500,38.9963,1441.42,50.00,41.00,71.07,70.00,6.00,0.00,30.02,M,10.00,M,BKN,M,M,M,6000.00,M,M,M,M,M,M,M,M,M,M,50.00,KMEV 291835Z AUTO 07006KT 10SM BKN060 10/05 A3002 RMK AO2,M
BAM,2022-03-29 18:35,-116.8743,40.5990,1382.36,55.40,35.60,47.16,320.00,11.00,0.00,29.93,M,10.00,16.00,SCT,BKN,OVC,M,3800.00,4500.00,5500.00,M,M,M,M,M,M,M,M,55.40,KBAM 291835Z AUTO 32011G16KT 10SM SCT038 BKN045 OVC055 13/02 A2993 RMK AO1,M
BVU,2022-03-29 18:35,-114.8611,35.9475,671.00,60.80,37.40,41.71,0.00,0.00,0.00,29.83,M,10.00,14.00,SCT,BKN,BKN,M,5000.00,5500.00,11000.00,M,M,M,M,M,M,M,M,60.80,KBVU 291835Z AUTO 00000G14KT 10SM SCT050 BKN055 BKN110 16/03 A2983 RMK AO2,M
CXP,2022-03-29 18:35,-119.7326,39.1923,1431.00,50.00,37.40,61.76,200.00,5.00,0.00,30.03,M,10.00,M,SCT,BKN,OVC,M,3200.00,3900.00,4700.00,M,M,M,M,M,M,M,M,50.00,KCXP 291835Z AUTO 20005KT 10SM SCT032 BKN039 OVC047 10/03 A3003 RMK AO2,M
P68,2022-03-29 18:53,-116.0056,39.6014,1993.00,49.00,30.90,49.63,340.00,14.00,0.00,29.89,1009.40,M,22.00,M,M,M,M,M,M,M,M,M,M,M,M,M,M,M,42.95,KP68 291853Z AUTO 34014G22KT 09/M01 A2989 RMK AO1 SLP094 T00941006,M
LOL,2022-03-29 18:53,-118.5701,40.0684,1192.43,58.00,37.00,45.54,360.00,7.00,0.00,29.96,1013.10,10.00,M,BKN,M,M,M,6500.00,M,M,M,M,M,M,M,M,M,M,57.90,KLOL 291853Z AUTO 36007KT 10SM BKN065 14/03 A2996 RMK AO2 SLP131 T01440028,M
ELY,2022-03-29 18:53,-114.8453,39.2950,1909.00,51.00,28.90,42.16,20.00,12.00,0.00,29.82,1005.30,10.00,19.00,SCT,BKN,M,M,4800.00,6500.00,M,M,M,M,M,M,M,M,M,51.10,KELY 291853Z AUTO 02012G19KT 10SM SCT048 BKN065 11/M02 A2982 RMK AO2 SLP053 T01061017,M
VGT,2022-03-29 18:53,-115.1933,36.2111,667.00,66.00,37.00,34.21,320.00,17.00,0.00,29.80,1009.70,10.00,22.00,BKN,M,M,M,10000.00,M,M,M,M,M,M,M,26.00,310.00,2022-03-29 18:41,66.00,KVGT 291853Z 32017G22KT 10SM BKN100 19/03 A2980 RMK AO2 PK WND 31026/1841 SLP097 T01890028,M
DRA,2022-03-29 18:53,-116.0278,36.6206,1009.00,59.00,37.00,43.78,210.00,10.00,0.00,29.85,1008.50,10.00,M,CLR,M,M,M,M,M,M,M,M,M,M,M,M,M,M,59.00,KDRA 291853Z AUTO 21010KT 170V250 10SM CLR 15/03 A2985 RMK AO2 SLP085 T01500028,M
05U,2022-03-29 18:55,-116.0051,39.6042,1811.23,50.00,30.20,46.31,350.00,13.00,0.00,29.92,M,10.00,18.00,FEW,BKN,OVC,M,3200.00,5000.00,6000.00,M,M,M,M,M,M,M,M,50.00,K05U 291855Z AUTO 35013G18KT 10SM FEW032 BKN050 OVC060 10/M01 A2992 RMK A01,M
RTS,2022-03-29 18:55,-119.8764,39.6682,1539.00,50.00,32.00,49.81,30.00,5.00,0.00,30.04,M,10.00,M,SCT,OVC,M,M,3600.00,5000.00,M,M,M,M,M,M,M,M,M,50.00,KRTS 291855Z AUTO 03005KT 10SM SCT036 OVC050 10/M00 A3004 RMK AO2,M
TMT,2022-03-29 18:55,-117.1971,39.4643,1749.34,46.60,33.40,59.85,340.00,9.00,0.00,29.97,M,10.00,M,SCT,OVC,M,M,3200.00,5500.00,M,M,M,M,M,M,M,M,M,41.67,KTMT 291855Z AUTO 34009KT 10SM SCT032 OVC055 08/01 A2997 RMK AO2 T00810008,M
CXP,2022-03-29 18:55,-119.7326,39.1923,1431.00,50.00,37.40,61.76,M,3.00,0.00,30.04,M,10.00,M,FEW,BKN,OVC,M,3100.00,3900.00,5500.00,M,M,M,M,M,M,M,M,50.00,KCXP 291855Z AUTO VRB03KT 10SM FEW031 BKN039 OVC055 10/03 A3004 RMK AO2,M
BAM,2022-03-29 18:55,-116.8743,40.5990,1382.36,55.40,33.80,43.90,330.00,13.00,0.00,29.93,M,10.00,20.00,BKN,BKN,OVC,M,4100.00,5000.00,7500.00,M,M,M,M,M,M,M,M,55.40,KBAM 291855Z AUTO 33013G20KT 10SM BKN041 BKN050 OVC075 13/01 A2993 RMK AO1,M
MEV,2022-03-29 18:55,-119.7500,38.9963,1441.42,50.00,39.20,66.27,0.00,0.00,0.00,30.03,M,10.00,M,BKN,M,M,M,6000.00,M,M,M,M,M,M,M,M,M,M,50.00,KMEV 291855Z AUTO 00000KT 10SM BKN060 10/04 A3003 RMK AO2,M
HTH,2022-03-29 18:55,-118.6315,38.5448,1282.89,46.40,42.80,87.19,0.00,0.00,0.00,30.01,M,9.00,M,FEW,SCT,BKN,M,2400.00,3000.00,3600.00,M,M,M,M,M,M,M,M,46.40,KHTH 291855Z AUTO 00000KT 9SM FEW024 SCT030 BKN036 08/06 A3001 RMK A01,M
BVU,2022-03-29 18:55,-114.8611,35.9475,671.00,62.60,37.40,39.14,240.00,10.00,0.00,29.83,M,10.00,M,BKN,BKN,BKN,M,5000.00,6000.00,11000.00,M,M,M,M,M,M,M,M,62.60,KBVU 291855Z AUTO 24010KT 10SM BKN050 BKN060 BKN110 17/03 A2983 RMK AO2,M
RNO,2022-03-29 18:55,-119.7711,39.4839,1341.00,55.00,34.00,44.90,20.00,6.00,0.00,30.02,1014.40,10.00,M,BKN,BKN,M,M,3900.00,7000.00,M,M,M,M,M,M,M,M,M,55.00,KRNO 291855Z 02006KT 10SM BKN039 BKN070 13/01 A3002 RMK AO2 SLP144 MTN TOPS OBSCD SW THRU NW T01280011,M
TPH,2022-03-29 18:56,-117.0904,38.0505,1654.00,56.00,33.00,41.92,320.00,21.00,0.00,29.91,1010.40,10.00,32.00,CLR,M,M,M,M,M,M,M,M,M,M,M,32.00,330.00,2022-03-29 18:56,55.90,KTPH 291856Z AUTO 32021G32KT 10SM CLR 13/01 A2991 RMK AO2 PK WND 33032/1856 SLP104 T01330006,M
EKO,2022-03-29 18:56,-115.7860,40.8242,1367.00,51.00,28.90,42.16,310.00,14.00,0.00,29.87,1010.10,10.00,24.00,OVC,M,M,M,6000.00,M,M,M,M,M,M,M,M,M,M,51.10,KEKO 291856Z AUTO 31014G24KT 10SM OVC060 11/M02 A2987 RMK AO2 SLP101 T01061017,M
LAS,2022-03-29 18:56,-115.1634,36.0719,663.00,62.00,39.00,42.41,M,4.00,0.00,29.81,1008.60,10.00,M,FEW,SCT,BKN,M,6500.00,12000.00,20000.00,M,M,M,M,M,M,M,M,62.10,KLAS 291856Z VRB04KT 10SM FEW065 SCT120 BKN200 17/04 A2981 RMK AO2 SLP086 T01670039,M
HND,2022-03-29 18:56,-115.1344,35.9729,742.79,60.00,37.00,42.09,0.00,0.00,0.00,29.84,1011.40,10.00,M,FEW,BKN,M,M,5500.00,11000.00,M,M,M,M,M,M,M,M,M,60.10,KHND 291856Z 00000KT 10SM FEW055 BKN110 16/03 A2984 RMK AO2 SLP114 T01560028,M
WMC,2022-03-29 18:56,-117.8072,40.9019,1315.00,56.00,36.00,47.05,320.00,11.00,0.00,29.96,1013.10,10.00,23.00,FEW,SCT,BKN,M,3600.00,6500.00,7500.00,M,M,M,M,M,M,M,M,55.90,KWMC 291856Z AUTO 32011G23KT 10SM FEW036 SCT065 BKN075 13/02 A2996 RMK AO2 SLP131 T01330022,M
NFL,2022-03-29 18:56,-118.7010,39.4166,1199.00,56.00,40.00,54.83,30.00,7.00,0.00,29.97,1012.10,10.00,M,SCT,BKN,BKN,M,3000.00,6000.00,10000.00,M,M,M,M,M,M,M,M,55.90,KNFL 291856Z 03007KT 10SM SCT030 BKN060 BKN100 13/04 A2997 RMK AO2 SLP121 T01330044,M
INS,2022-03-29 18:58,-115.6733,36.5872,955.00,58.00,35.00,41.91,270.00,10.00,0.00,29.85,1008.70,10.00,M,CLR,M,M,M,M,M,M,M,M,M,M,M,M,M,M,57.90,KINS 291858Z AUTO 27010KT 10SM CLR 14/02 A2985 RMK AO2 SLP087 T01440016 $,M
LSV,2022-03-29 18:58,-115.0343,36.2362,570.00,68.50,42.00,37.98,0.00,0.00,0.00,29.79,1007.80,10.00,M,SCT,SCT,M,M,11000.00,21000.00,M,M,M,M,M,M,M,M,M,68.50,KLSV 291858Z AUTO 00000KT 10SM SCT110 SCT210 20/06 A2979 RMK AO2 SLP078 T02030055 $,M
MEV,2022-03-29 19:15,-119.7500,38.9963,1441.42,50.00,39.20,66.27,M,3.00,0.00,30.04,M,10.00,M,FEW,OVC,M,M,2800.00,6000.00,M,M,M,M,M,M,M,M,M,50.00,KMEV 291915Z AUTO VRB03KT 10SM FEW028 OVC060 10/04 A3004 RMK AO2,M
05U,2022-03-29 19:15,-116.0051,39.6042,1811.23,50.00,30.20,46.31,350.00,18.00,0.00,29.92,M,10.00,M,SCT,BKN,OVC,M,3700.00,5500.00,7000.00,M,M,M,M,M,M,M,M,50.00,K05U 291915Z AUTO 35018KT 10SM SCT037 BKN055 OVC070 10/M01 A2992 RMK A01,M
TMT,2022-03-29 19:15,-117.1971,39.4643,1749.34,47.00,32.40,56.42,350.00,7.00,0.00,29.97,M,10.00,M,OVC,M,M,M,5500.00,M,M,M,M,M,M,M,M,M,M,43.18,KTMT 291915Z AUTO 35007KT 10SM OVC055 08/00 A2997 RMK AO2 T00840002,M
HTH,2022-03-29 19:15,-118.6315,38.5448,1282.89,50.00,42.80,76.18,M,4.00,0.00,30.00,M,10.00,M,SCT,BKN,M,M,4000.00,6000.00,M,M,M,M,M,M,M,M,M,50.00,KHTH 291915Z AUTO VRB04KT 10SM SCT040 BKN060 10/06 A3000 RMK A01,M
RTS,2022-03-29 19:15,-119.8764,39.6682,1539.00,51.80,32.00,46.59,M,3.00,0.00,30.03,M,10.00,M,BKN,BKN,M,M,4000.00,5000.00,M,M,M,M,M,M,M,M,M,51.80,KRTS 291915Z AUTO VRB03KT 10SM BKN040 BKN050 11/00 A3003 RMK AO2,M
CXP,2022-03-29 19:15,-119.7326,39.1923,1431.00,50.00,37.40,61.76,190.00,5.00,0.00,30.04,M,10.00,M,FEW,SCT,OVC,M,4000.00,5000.00,6000.00,M,M,M,M,M,M,M,M,50.00,KCXP 291915Z AUTO 19005KT 10SM FEW040 SCT050 OVC060 10/03 A3004 RMK AO2,M
BVU,2022-03-29 19:15,-114.8611,35.9475,671.00,62.60,37.40,39.14,280.00,6.00,0.00,29.82,M,10.00,M,BKN,BKN,BKN,M,5000.00,6000.00,10000.00,M,M,M,M,M,M,M,M,62.60,KBVU 291915Z AUTO 28006KT 10SM BKN050 BKN060 BKN100 17/03 A2982 RMK AO2,M
BAM,2022-03-29 19:15,-116.8743,40.5990,1382.36,57.20,32.00,38.26,330.00,12.00,0.00,29.94,M,10.00,18.00,SCT,BKN,OVC,M,4500.00,6500.00,7500.00,M,M,M,M,M,M,M,M,57.20,KBAM 291915Z AUTO 33012G18KT 10SM SCT045 BKN065 OVC075 14/00 A2994 RMK AO1,M
CXP,2022-03-29 19:30,-119.7326,39.1923,1431.00,51.80,37.40,57.77,180.00,3.00,0.00,30.04,M,10.00,M,FEW,OVC,M,M,5000.00,6000.00,M,M,M,M,M,M,M,M,M,51.80,KCXP 291930Z AUTO 18003KT 10SM FEW050 OVC060 11/03 A3004 RMK AO2,M
RTS,2022-03-29 19:35,-119.8764,39.6682,1539.00,50.00,32.00,49.81,M,3.00,0.00,30.03,M,10.00,M,OVC,M,M,M,4300.00,M,M,M,M,M,M,M,M,M,M,50.00,KRTS 291935Z AUTO VRB03KT 10SM OVC043 10/00 A3003 RMK AO2,M
TMT,2022-03-29 19:35,-117.1971,39.4643,1749.34,48.40,32.00,52.87,340.00,4.00,0.00,29.97,M,10.00,M,SCT,SCT,OVC,M,3600.00,4500.00,6500.00,M,M,M,M,M,M,M,M,46.57,KTMT 291935Z AUTO 34004KT 10SM SCT036 SCT045 OVC065 09/00 A2997 RMK AO2 T00910000,M
HTH,2022-03-29 19:35,-118.6315,38.5448,1282.89,50.00,41.00,71.07,0.00,0.00,0.00,30.01,M,10.00,M,FEW,FEW,SCT,M,1800.00,3800.00,4700.00,M,M,M,M,M,M,M,M,50.00,KHTH 291935Z AUTO 00000KT 10SM FEW018 FEW038 SCT047 10/05 A3001 RMK A01,M
BAM,2022-03-29 19:35,-116.8743,40.5990,1382.36,55.40,32.00,40.84,340.00,14.00,0.00,29.95,M,10.00,M,SCT,BKN,OVC,M,4500.00,6000.00,8000.00,M,M,M,M,M,M,M,M,55.40,KBAM 291935Z AUTO 34014KT 10SM SCT045 BKN060 OVC080 13/00 A2995 RMK AO1,M
MEV,2022-03-29 19:35,-119.7500,38.9963,1441.42,51.80,39.20,61.99,60.00,5.00,0.00,30.03,M,10.00,10.00,FEW,BKN,M,M,2800.00,6000.00,M,M,M,M,M,M,M,M,M,51.80,KMEV 291935Z AUTO 06005G10KT 10SM FEW028 BKN060 11/04 A3003 RMK AO2,M
BVU,2022-03-29 19:35,-114.8611,35.9475,671.00,62.60,37.40,39.14,M,4.00,0.00,29.82,M,10.00,M,SCT,SCT,M,M,5500.00,9500.00,M,M,M,M,M,M,M,M,M,62.60,KBVU 291935Z AUTO VRB04KT 10SM SCT055 SCT095 17/03 A2982 RMK AO2,M
05U,2022-03-29 19:35,-116.0051,39.6042,1811.23,50.00,28.40,43.03,350.00,14.00,0.00,29.93,M,10.00,23.00,FEW,SCT,OVC,M,3800.00,4900.00,6000.00,M,M,M,M,M,M,M,M,50.00,K05U 291935Z AUTO 35014G23KT 10SM FEW038 SCT049 OVC060 10/M02 A2993 RMK A01,M
P68,2022-03-29 19:53,-116.0056,39.6014,1993.00,48.00,30.00,49.49,350.00,15.00,0.00,29.91,1010.40,M,26.00,M,M,M,M,M,M,M,M,M,M,M,M,27.00,330.00,2022-03-29 19:30,41.52,KP68 291953Z AUTO 35015G26KT 09/M01 A2991 RMK AO1 PK WND 33027/1930 SLP104 T00891011,M
VGT,2022-03-29 19:53,-115.1933,36.2111,667.00,69.00,36.00,29.55,330.00,19.00,0.00,29.79,1009.30,10.00,26.00,CLR,M,M,M,M,M,M,M,M,M,M,M,31.00,330.00,2022-03-29 19:22,69.10,KVGT 291953Z 33019G26KT 10SM CLR 21/02 A2979 RMK AO2 PK WND 33031/1922 SLP093 T02060022,M
DRA,2022-03-29 19:53,-116.0278,36.6206,1009.00,63.00,36.00,36.52,M,6.00,0.00,29.84,1008.00,10.00,M,SCT,M,M,M,6000.00,M,M,M,M,M,M,M,M,M,M,63.00,KDRA 291953Z AUTO VRB06KT 10SM SCT060 17/02 A2984 RMK AO2 SLP080 T01720022,M
LOL,2022-03-29 19:53,-118.5701,40.0684,1192.43,58.00,35.00,42.24,60.00,6.00,0.00,29.96,1013.30,10.00,M,BKN,M,M,M,7000.00,M,M,M,M,M,M,M,M,M,M,57.90,KLOL 291953Z AUTO 06006KT 10SM BKN070 14/02 A2996 RMK AO2 SLP133 T01440017,M
ELY,2022-03-29 19:53,-114.8453,39.2950,1909.00,50.00,27.00,40.62,320.00,14.00,0.00,29.82,1005.50,10.00,26.00,OVC,M,M,M,5000.00,M,M,M,M,M,M,M,26.00,330.00,2022-03-29 19:47,50.00,KELY 291953Z AUTO 32014G26KT 10SM OVC050 10/M03 A2982 RMK AO2 PK WND 33026/1947 SLP055 T01001028,M
RNO,2022-03-29 19:55,-119.7711,39.4839,1341.00,57.00,34.00,41.76,M,4.00,0.00,30.01,1014.00,10.00,M,BKN,M,M,M,5000.00,M,M,M,M,M,M,M,M,M,M,57.00,KRNO 291955Z VRB04KT 10SM BKN050 14/01 A3001 RMK AO2 SLP140 T01390011,M
CXP,2022-03-29 19:55,-119.7326,39.1923,1431.00,53.60,35.60,50.36,0.00,0.00,0.00,30.03,M,10.00,M,SCT,OVC,M,M,4800.00,6000.00,M,M,M,M,M,M,M,M,M,53.60,KCXP 291955Z AUTO 00000KT 10SM SCT048 OVC060 12/02 A3003 RMK AO2,M
BAM,2022-03-29 19:55,-116.8743,40.5990,1382.36,55.40,32.00,40.84,350.00,12.00,0.00,29.94,M,10.00,17.00,SCT,SCT,OVC,M,4800.00,6000.00,7500.00,M,M,M,M,M,M,M,M,55.40,KBAM 291955Z AUTO 35012G17KT 10SM SCT048 SCT060 OVC075 13/00 A2994 RMK AO1,M
05U,2022-03-29 19:55,-116.0051,39.6042,1811.23,48.20,28.40,46.02,350.00,16.00,0.00,29.94,M,10.00,M,FEW,SCT,BKN,M,4000.00,4800.00,5500.00,M,M,M,M,M,M,M,M,41.53,K05U 291955Z AUTO 35016KT 10SM FEW040 SCT048 BKN055 09/M02 A2994 RMK A01,M
MEV,2022-03-29 19:55,-119.7500,38.9963,1441.42,51.80,39.20,61.99,360.00,4.00,0.00,30.03,M,10.00,11.00,FEW,FEW,M,M,3100.00,6000.00,M,M,M,M,M,M,M,M,M,51.80,KMEV 291955Z AUTO 36004G11KT 10SM FEW031 FEW060 11/04 A3003 RMK AO2,M
HTH,2022-03-29 19:55,-118.6315,38.5448,1282.89,51.80,41.00,66.48,M,6.00,0.00,30.01,M,10.00,M,FEW,SCT,BKN,M,2500.00,2900.00,4100.00,M,M,M,M,M,M,M,M,51.80,KHTH 291955Z AUTO VRB06KT 10SM FEW025 SCT029 BKN041 11/05 A3001 RMK A01,M
BVU,2022-03-29 19:55,-114.8611,35.9475,671.00,64.40,37.40,36.74,280.00,7.00,0.00,29.82,M,10.00,M,FEW,M,M,M,9000.00,M,M,M,M,M,M,M,M,M,M,64.40,KBVU 291955Z AUTO 28007KT 240V310 10SM FEW090 18/03 A2982 RMK AO2,M
TMT,2022-03-29 19:55,-117.1971,39.4643,1749.34,49.00,31.60,50.68,340.00,4.00,0.00,29.97,M,10.00,M,SCT,BKN,OVC,M,3800.00,4800.00,5500.00,M,M,M,M,M,M,M,M,47.39,KTMT 291955Z AUTO 34004KT 10SM SCT038 BKN048 OVC055 10/00 A2997 RMK AO2 T00951002,M
RTS,2022-03-29 19:55,-119.8764,39.6682,1539.00,51.80,30.20,43.32,M,3.00,0.00,30.03,M,10.00,M,BKN,BKN,M,M,4500.00,5000.00,M,M,M,M,M,M,M,M,M,51.80,KRTS 291955Z AUTO VRB03KT 10SM BKN045 BKN050 11/M01 A3003 RMK AO2,M
HND,2022-03-29 19:56,-115.1344,35.9729,742.79,62.00,36.00,37.69,0.00,0.00,0.00,29.84,1011.20,10.00,M,SCT,M,M,M,6000.00,M,M,M,M,M,M,M,M,M,M,62.10,KHND 291956Z 00000KT 10SM SCT060 17/02 A2984 RMK AO2 SLP112 T01670022,M
LAS,2022-03-29 19:56,-115.1634,36.0719,663.00,64.00,38.00,38.00,50.00,4.00,0.00,29.81,1008.40,10.00,M,FEW,SCT,M,M,6500.00,20000.00,M,M,M,M,M,M,M,M,M,64.00,KLAS 291956Z 05004KT 10SM FEW065 SCT200 18/03 A2981 RMK AO2 SLP084 T01780033,M
WMC,2022-03-29 19:56,-117.8072,40.9019,1315.00,56.00,35.00,45.40,340.00,11.00,0.00,29.96,1013.30,10.00,M,OVC,M,M,M,7000.00,M,M,M,M,M,M,M,M,M,M,55.90,KWMC 291956Z AUTO 34011KT 10SM OVC070 13/02 A2996 RMK AO2 SLP133 T01330017,M
EKO,2022-03-29 19:56,-115.7860,40.8242,1367.00,53.00,28.00,37.74,360.00,10.00,0.00,29.88,1010.50,10.00,23.00,FEW,OVC,M,M,4800.00,6000.00,M,M,M,M,M,M,M,M,M,53.10,KEKO 291956Z AUTO 36010G23KT 10SM FEW048 OVC060 12/M02 A2988 RMK AO2 SLP105 T01171022,M
NFL,2022-03-29 19:56,-118.7010,39.4166,1199.00,55.00,39.00,54.70,350.00,4.00,T,29.98,1012.40,10.00,M,BKN,BKN,BKN,M,4000.00,6000.00,10000.00,M,M,M,M,M,M,M,M,55.00,KNFL 291956Z 35004KT 10SM BKN040 BKN060 BKN100 13/04 A2998 RMK RAB33E43 SLP124 P0000 T01280039,M
TPH,2022-03-29 19:56,-117.0904,38.0505,1654.00,54.00,33.00,44.92,330.00,17.00,0.00,29.92,1011.20,10.00,26.00,BKN,OVC,M,M,6000.00,8000.00,M,M,M,M,M,M,30.00,320.00,2022-03-29 18:57,54.00,KTPH 291956Z AUTO 33017G26KT 10SM BKN060 OVC080 12/01 A2992 RMK AO2 PK WND 32030/1857 SLP112 T01220006,M
LSV,2022-03-29 19:58,-115.0343,36.2362,570.00,71.80,42.00,33.94,40.00,5.00,0.00,29.79,1007.60,10.00,M,FEW,FEW,SCT,M,13000.00,18000.00,20000.00,M,M,M,M,M,M,M,M,71.80,KLSV 291958Z AUTO 04005KT 10SM FEW130 FEW180 SCT200 22/06 A2979 RMK AO2 SLP076 T02210055 $,M
INS,2022-03-29 19:58,-115.6733,36.5872,955.00,61.70,35.20,37.04,250.00,14.00,0.00,29.83,1007.80,10.00,21.00,CLR,M,M,M,M,M,M,M,M,M,M,M,M,M,M,61.70,KINS 291958Z AUTO 25014G21KT 10SM CLR 17/02 A2983 RMK AO2 SLP078 T01650018 $,M
RTS,2022-03-29 20:15,-119.8764,39.6682,1539.00,51.80,32.00,46.59,220.00,7.00,0.00,30.04,M,10.00,M,BKN,OVC,M,M,4600.00,5500.00,M,M,M,M,M,M,M,M,M,51.80,KRTS 292015Z AUTO 22007KT 10SM BKN046 OVC055 11/M00 A3004 RMK AO2,M
BVU,2022-03-29 20:15,-114.8611,35.9475,671.00,64.40,35.60,34.22,M,5.00,0.00,29.82,M,10.00,M,FEW,M,M,M,6000.00,M,M,M,M,M,M,M,M,M,M,64.40,KBVU 292015Z AUTO VRB05KT 10SM FEW060 18/02 A2982 RMK AO2,M
BAM,2022-03-29 20:15,-116.8743,40.5990,1382.36,55.40,32.00,40.84,310.00,10.00,0.00,29.94,M,10.00,15.00,SCT,BKN,OVC,M,4800.00,7500.00,8500.00,M,M,M,M,M,M,M,M,55.40,KBAM 292015Z AUTO 31010G15KT 10SM SCT048 BKN075 OVC085 13/00 A2994 RMK AO1,M
05U,2022-03-29 20:15,-116.0051,39.6042,1811.23,48.20,30.20,49.53,360.00,13.00,0.00,29.94,M,10.00,M,FEW,BKN,OVC,M,4600.00,6000.00,7000.00,M,M,M,M,M,M,M,M,42.32,K05U 292015Z AUTO 36013KT 10SM FEW046 BKN060 OVC070 09/M01 A2994 RMK A01,M
TMT,2022-03-29 20:15,-117.1971,39.4643,1749.34,49.80,31.50,49.18,20.00,10.00,0.00,29.97,M,10.00,16.00,SCT,SCT,OVC,M,4000.00,4800.00,6000.00,M,M,M,M,M,M,M,M,45.29,KTMT 292015Z AUTO 02010G16KT 10SM SCT040 SCT048 OVC060 10/00 A2997 RMK AO2 T00991003,M
HTH,2022-03-29 20:15,-118.6315,38.5448,1282.89,53.60,37.40,54.07,330.00,10.00,0.00,30.01,M,10.00,17.00,FEW,BKN,BKN,M,2800.00,3200.00,3900.00,M,M,M,M,M,M,M,M,53.60,KHTH 292015Z AUTO 33010G17KT 10SM FEW028 BKN032 BKN039 12/03 A3001 RMK A01,M
MEV,2022-03-29 20:15,-119.7500,38.9963,1441.42,53.60,39.20,58.02,0.00,0.00,0.00,30.03,M,10.00,M,FEW,M,M,M,3300.00,M,M,M,M,M,M,M,M,M,M,53.60,KMEV 292015Z AUTO 00000KT 10SM FEW033 12/04 A3003 RMK AO2,M
CXP,2022-03-29 20:15,-119.7326,39.1923,1431.00,55.40,35.60,47.16,M,4.00,0.00,30.03,M,10.00,M,SCT,BKN,M,M,4700.00,5500.00,M,M,M,M,M,M,M,M,M,55.40,KCXP 292015Z AUTO VRB04KT 10SM SCT047 BKN055 13/02 A3003 RMK AO2,M
CXP,2022-03-29 20:30,-119.7326,39.1923,1431.00,55.40,33.80,43.90,240.00,4.00,0.00,30.03,M,10.00,10.00,FEW,FEW,M,M,4600.00,5500.00,M,M,M,M,M,M,M,M,M,55.40,KCXP 292030Z AUTO 24004G10KT 10SM FEW046 FEW055 13/01 A3003 RMK AO2,M
ELY,2022-03-29 20:33,-114.8453,39.2950,1909.00,49.00,28.90,45.75,40.00,18.00,0.01,29.83,M,10.00,24.00,BKN,OVC,M,M,6000.00,7000.00,M,M,M,M,M,M,M,M,M,42.00,KELY 292033Z AUTO 04018G24KT 10SM BKN060 OVC070 09/M02 A2983 RMK AO2 WSHFT 2013 RAB1959E12 P0001 T00941017,M
BVU,2022-03-29 20:35,-114.8611,35.9475,671.00,64.40,35.60,34.22,250.00,7.00,0.00,29.82,M,10.00,12.00,BKN,M,M,M,6000.00,M,M,M,M,M,M,M,M,M,M,64.40,KBVU 292035Z AUTO 25007G12KT 10SM BKN060 18/02 A2982 RMK AO2,M
TMT,2022-03-29 20:35,-117.1971,39.4643,1749.34,50.00,30.90,47.64,20.00,9.00,0.00,29.97,M,10.00,M,SCT,BKN,OVC,M,4400.00,6000.00,8000.00,M,M,M,M,M,M,M,M,50.00,KTMT 292035Z AUTO 02009KT 10SM SCT044 BKN060 OVC080 10/M01 A2997 RMK AO2 T01001006,M
RTS,2022-03-29 20:35,-119.8764,39.6682,1539.00,53.60,32.00,43.61,280.00,8.00,0.00,30.04,M,10.00,M,BKN,OVC,M,M,4700.00,6000.00,M,M,M,M,M,M,M,M,M,53.60,KRTS 292035Z AUTO 28008KT 230V310 10SM BKN047 OVC060 12/M00 A3004 RMK AO2,M
05U,2022-03-29 20:35,-116.0051,39.6042,1811.23,48.20,28.40,46.02,330.00,14.00,0.00,29.94,M,10.00,M,FEW,BKN,OVC,M,4400.00,5000.00,6500.00,M,M,M,M,M,M,M,M,42.04,K05U 292035Z AUTO 33014KT 10SM FEW044 BKN050 OVC065 09/M02 A2994 RMK A01,M
MEV,2022-03-29 20:35,-119.7500,38.9963,1441.42,55.40,39.20,54.34,0.00,0.00,0.00,30.03,M,10.00,M,FEW,M,M,M,5000.00,M,M,M,M,M,M,M,M,M,M,55.40,KMEV 292035Z AUTO 00000KT 10SM FEW050 13/04 A3003 RMK AO2,M
HTH,2022-03-29 20:35,-118.6315,38.5448,1282.89,55.40,35.60,47.16,360.00,13.00,0.00,30.01,M,10.00,M,FEW,FEW,OVC,M,3300.00,4900.00,7000.00,M,M,M,M,M,M,M,M,55.40,KHTH 292035Z AUTO 36013KT 10SM FEW033 FEW049 OVC070 13/02 A3001 RMK A01,M
BAM,2022-03-29 20:35,-116.8743,40.5990,1382.36,57.20,32.00,38.26,320.00,10.00,0.00,29.94,M,10.00,16.00,SCT,SCT,OVC,M,4800.00,6000.00,8500.00,M,M,M,M,M,M,M,M,57.20,KBAM 292035Z AUTO 32010G16KT 10SM SCT048 SCT060 OVC085 14/00 A2994 RMK AO1,M
ELY,2022-03-29 20:42,-114.8453,39.2950,1909.00,47.00,32.00,55.94,70.00,13.00,0.01,29.84,M,10.00,26.00,OVC,M,M,M,6000.00,M,M,M,M,M,M,M,26.00,60.00,2022-03-29 20:36,40.66,KELY 292042Z AUTO 07013G26KT 10SM OVC060 08/00 A2984 RMK AO2 PK WND 06026/2036 WSHFT 2022 RAB1959E12 P0001 T00830000,M
P68,2022-03-29 20:53,-116.0056,39.6014,1993.00,50.00,28.90,43.92,350.00,17.00,0.00,29.92,1010.90,M,23.00,M,M,M,M,M,M,M,M,M,M,M,M,M,M,M,50.00,KP68 292053Z AUTO 35017G23KT 10/M02 A2992 RMK AO1 SLP109 T01001017 51010,M
LOL,2022-03-29 20:53,-118.5701,40.0684,1192.43,59.00,33.00,37.49,360.00,9.00,0.00,29.97,1013.70,10.00,M,SCT,OVC,M,M,6000.00,8500.00,M,M,M,M,M,M,M,M,M,59.00,KLOL 292053Z AUTO 36009KT 10SM SCT060 OVC085 15/01 A2997 RMK AO2 SLP137 T01500006 53005,M
VGT,2022-03-29 20:53,-115.1933,36.2111,667.00,71.00,36.00,27.60,320.00,20.00,0.00,29.78,1009.10,10.00,29.00,CLR,M,M,M,M,M,M,M,M,M,M,M,30.00,300.00,2022-03-29 20:25,71.10,KVGT 292053Z 32020G29KT 10SM CLR 22/02 A2978 RMK AO2 PK WND 30030/2025 SLP091 T02170022 58005,M
ELY,2022-03-29 20:53,-114.8453,39.2950,1909.00,50.00,32.00,49.81,310.00,17.00,0.01,29.84,1006.50,10.00,25.00,BKN,OVC,M,M,6000.00,7500.00,M,M,M,M,M,M,26.00,60.00,2022-03-29 20:36,50.00,KELY 292053Z AUTO 31017G25KT 10SM BKN060 OVC075 10/00 A2984 RMK AO2 PK WND 06026/2036 WSHFT 2022 RAB1959E12 SLP065 P0001 60001 T01000000 53005,M
DRA,2022-03-29 20:53,-116.0278,36.6206,1009.00,67.00,36.00,31.87,210.00,10.00,0.00,29.82,1006.90,10.00,M,BKN,M,M,M,7500.00,M,M,M,M,M,M,M,M,M,M,66.90,KDRA 292053Z AUTO 21010KT 10SM BKN075 19/02 A2982 RMK AO2 SLP069 T01940022 58010,M
RNO,2022-03-29 20:55,-119.7711,39.4839,1341.00,59.00,34.00,38.87,0.00,0.00,0.00,30.02,1014.20,10.00,M,SCT,M,M,M,6000.00,M,M,M,M,M,M,M,M,M,M,59.00,KRNO 292055Z 00000KT 10SM SCT060 15/01 A3002 RMK AO2 SLP142 T01500011 51005,M
TMT,2022-03-29 20:55,-117.1971,39.4643,1749.34,50.00,29.80,45.56,340.00,6.00,0.00,29.97,M,10.00,M,SCT,SCT,OVC,M,4400.00,6000.00,7000.00,M,M,M,M,M,M,M,M,50.00,KTMT 292055Z AUTO 34006KT 10SM SCT044 SCT060 OVC070 10/M01 A2997 RMK AO2 T01001012,M
MEV,2022-03-29 20:55,-119.7500,38.9963,1441.42,55.40,35.60,47.16,0.00,0.00,0.00,30.03,M,10.00,M,FEW,M,M,M,5500.00,M,M,M,M,M,M,M,M,M,M,55.40,KMEV 292055Z AUTO 00000KT 10SM FEW055 13/02 A3003 RMK AO2,M
05U,2022-03-29 20:55,-116.0051,39.6042,1811.23,50.00,28.40,43.03,350.00,18.00,0.00,29.95,M,10.00,M,FEW,SCT,OVC,M,4400.00,5500.00,7000.00,M,M,M,M,M,M,M,M,50.00,K05U 292055Z AUTO 35018KT 10SM FEW044 SCT055 OVC070 10/M02 A2995 RMK A01,M
CXP,2022-03-29 20:55,-119.7326,39.1923,1431.00,57.20,32.00,38.26,0.00,0.00,0.00,30.03,M,10.00,M,BKN,BKN,BKN,M,4900.00,6000.00,7000.00,M,M,M,M,M,M,M,M,57.20,KCXP 292055Z AUTO 00000KT 10SM BKN049 BKN060 BKN070 14/00 A3003 RMK AO2,M
RTS,2022-03-29 20:55,-119.8764,39.6682,1539.00,53.60,30.20,40.54,270.00,4.00,0.00,30.04,M,10.00,M,FEW,OVC,M,M,4500.00,6000.00,M,M,M,M,M,M,M,M,M,53.60,KRTS 292055Z AUTO 27004KT 10SM FEW045 OVC060 12/M01 A3004 RMK AO2,M
BVU,2022-03-29 20:55,-114.8611,35.9475,671.00,66.20,35.60,32.14,M,6.00,0.00,29.81,M,10.00,11.00,FEW,M,M,M,6000.00,M,M,M,M,M,M,M,M,M,M,66.20,KBVU 292055Z AUTO VRB06G11KT 10SM FEW060 19/02 A2981 RMK AO2,M
BAM,2022-03-29 20:55,-116.8743,40.5990,1382.36,57.20,32.00,38.26,340.00,9.00,0.00,29.94,M,10.00,M,OVC,M,M,M,8500.00,M,M,M,M,M,M,M,M,M,M,57.20,KBAM 292055Z AUTO 34009KT 10SM OVC085 14/00 A2994 RMK AO1,M
HTH,2022-03-29 20:55,-118.6315,38.5448,1282.89,55.40,35.60,47.16,10.00,12.00,0.00,30.01,M,10.00,M,OVC,M,M,M,6500.00,M,M,M,M,M,M,M,M,M,M,55.40,KHTH 292055Z AUTO 01012KT 10SM OVC065 13/02 A3001 RMK A01,M
LAS,2022-03-29 20:56,-115.1634,36.0719,663.00,66.00,37.00,34.21,0.00,0.00,0.00,29.80,1008.30,10.00,M,FEW,SCT,SCT,M,7000.00,14000.00,20000.00,M,M,M,M,M,M,M,M,66.00,KLAS 292056Z 00000KT 10SM FEW070 SCT140 SCT200 19/03 A2980 RMK AO2 SLP083 T01890028 58003,M
HND,2022-03-29 20:56,-115.1344,35.9729,742.79,66.00,37.00,34.21,190.00,3.00,0.00,29.83,1010.90,10.00,M,CLR,M,M,M,M,M,M,M,M,M,M,M,M,M,M,66.00,KHND 292056Z 19003KT 10SM CLR 19/03 A2983 RMK AO2 SLP109 T01890028 58001,M
WMC,2022-03-29 20:56,-117.8072,40.9019,1315.00,61.00,35.00,37.81,330.00,10.00,0.00,29.95,1012.70,10.00,20.00,FEW,M,M,M,7000.00,M,M,M,M,M,M,M,M,M,M,61.00,KWMC 292056Z AUTO 33010G20KT 10SM FEW070 16/02 A2995 RMK AO2 SLP127 T01610017 50000,M
NFL,2022-03-29 20:56,-118.7010,39.4166,1199.00,60.00,35.00,39.04,310.00,10.00,0.00,29.98,1012.50,10.00,19.00,SCT,BKN,BKN,M,4500.00,5500.00,10000.00,M,M,M,M,M,M,M,M,60.10,KNFL 292056Z 31010G19KT 10SM SCT045 BKN055 BKN100 16/02 A2998 RMK SLP125 60000 T01560017 53002,M
TPH,2022-03-29 20:56,-117.0904,38.0505,1654.00,56.00,32.00,40.10,320.00,19.00,0.00,29.92,1011.00,10.00,28.00,SCT,BKN,M,M,6000.00,7500.00,M,M,M,M,M,M,30.00,340.00,2022-03-29 20:45,55.90,KTPH 292056Z AUTO 32019G28KT 10SM SCT060 BKN075 13/00 A2992 RMK AO2 PK WND 34030/2045 SLP110 T01330000 51006,M
EKO,2022-03-29 20:56,-115.7860,40.8242,1367.00,54.00,28.90,37.89,320.00,12.00,0.00,29.89,1010.90,10.00,21.00,FEW,OVC,M,M,5500.00,8000.00,M,M,M,M,M,M,M,M,M,54.00,KEKO 292056Z AUTO 32012G21KT 10SM FEW055 OVC080 12/M02 A2989 RMK AO2 SLP109 T01221017 51007,M
LSV,2022-03-29 20:58,-115.0343,36.2362,570.00,71.00,38.80,30.81,250.00,14.00,0.00,29.77,1007.10,10.00,17.00,CLR,M,M,M,M,M,M,M,M,M,M,M,M,M,M,71.10,KLSV 292058Z AUTO 25014G17KT 10SM CLR 22/04 A2977 RMK AO2 SLP071 T02170038 58008 $,M
INS,2022-03-29 20:58,-115.6733,36.5872,955.00,64.60,35.00,33.05,250.00,12.00,0.00,29.82,1007.50,10.00,15.00,SCT,M,M,M,6500.00,M,M,M,M,M,M,M,M,M,M,64.60,KINS 292058Z AUTO 25012G15KT 10SM SCT065 18/02 A2982 RMK AO2 SLP075 T01810016 58008 $,M
INS,2022-03-29 20:59,-115.6733,36.5872,955.00,64.40,35.60,34.22,280.00,13.00,0.00,29.82,1007.50,10.00,M,SCT,M,M,M,6500.00,M,M,M,M,M,M,M,M,M,M,64.40,KINS 292059Z AUTO 28013KT 10SM SCT065 18/02 A2982 RMK AO2 WSHFT 57 SLP075 $,M
LSV,2022-03-29 21:08,-115.0343,36.2362,570.00,75.20,39.20,27.26,290.00,10.00,0.00,29.76,1006.60,10.00,23.00,CLR,M,M,M,M,M,M,M,M,M,M,M,M,M,M,75.20,KLSV 292108Z AUTO 29010G23KT 10SM CLR 24/04 A2976 RMK AO2 WSHFT 05 SLP066 $,M
05U,2022-03-29 21:10,-116.0051,39.6042,1811.23,48.20,30.20,49.53,330.00,15.00,0.00,29.95,M,10.00,M,BKN,OVC,M,M,5500.00,7000.00,M,M,M,M,M,M,M,M,M,41.78,K05U 292110Z AUTO 33015KT 10SM BKN055 OVC070 09/M01 A2995 RMK A01,M
RTS,2022-03-29 21:15,-119.8764,39.6682,1539.00,53.60,30.20,40.54,330.00,9.00,0.00,30.04,M,10.00,15.00,BKN,OVC,M,M,5000.00,6000.00,M,M,M,M,M,M,M,M,M,53.60,KRTS 292115Z AUTO 33009G15KT 10SM BKN050 OVC060 12/M01 A3004 RMK AO2,M
CXP,2022-03-29 21:15,-119.7326,39.1923,1431.00,57.20,32.00,38.26,M,3.00,0.00,30.03,M,10.00,M,BKN,OVC,M,M,5000.00,5500.00,M,M,M,M,M,M,M,M,M,57.20,KCXP 292115Z AUTO VRB03KT 10SM BKN050 OVC055 14/00 A3003 RMK AO2,M
BAM,2022-03-29 21:15,-116.8743,40.5990,1382.36,57.20,30.20,35.57,340.00,9.00,0.00,29.93,M,10.00,M,SCT,SCT,OVC,M,5500.00,6500.00,8500.00,M,M,M,M,M,M,M,M,57.20,KBAM 292115Z AUTO 34009KT 10SM SCT055 SCT065 OVC085 14/M01 A2993 RMK AO1,M
TMT,2022-03-29 21:15,-117.1971,39.4643,1749.34,49.80,31.50,49.18,360.00,6.00,0.00,29.97,M,10.00,M,OVC,M,M,M,6000.00,M,M,M,M,M,M,M,M,M,M,46.97,KTMT 292115Z AUTO 36006KT 10SM OVC060 10/00 A2997 RMK AO2 T00991003,M
HTH,2022-03-29 21:15,-118.6315,38.5448,1282.89,55.40,35.60,47.16,350.00,11.00,0.00,30.01,M,10.00,M,BKN,BKN,M,M,6500.00,7500.00,M,M,M,M,M,M,M,M,M,55.40,KHTH 292115Z AUTO 35011KT 10SM BKN065 BKN075 13/02 A3001 RMK A01,M
MEV,2022-03-29 21:15,-119.7500,38.9963,1441.42,53.60,37.40,54.07,0.00,0.00,0.00,30.03,M,10.00,M,SCT,SCT,M,M,5000.00,5500.00,M,M,M,M,M,M,M,M,M,53.60,KMEV 292115Z AUTO 00000KT 10SM SCT050 SCT055 12/03 A3003 RMK AO2,M
BVU,2022-03-29 21:15,-114.8611,35.9475,671.00,68.00,35.60,30.20,M,4.00,0.00,29.81,M,10.00,M,FEW,FEW,M,M,6500.00,8500.00,M,M,M,M,M,M,M,M,M,68.00,KBVU 292115Z AUTO VRB04KT 10SM FEW065 FEW085 20/02 A2981 RMK AO2,M
CXP,2022-03-29 21:30,-119.7326,39.1923,1431.00,59.00,32.00,35.87,0.00,0.00,0.00,30.03,M,10.00,M,BKN,OVC,M,M,5000.00,6000.00,M,M,M,M,M,M,M,M,M,59.00,KCXP 292130Z AUTO 00000KT 10SM BKN050 OVC060 15/M00 A3003 RMK AO2,M
05U,2022-03-29 21:30,-116.0051,39.6042,1811.23,48.20,28.40,46.02,330.00,16.00,0.00,29.95,M,10.00,21.00,SCT,OVC,M,M,5500.00,7000.00,M,M,M,M,M,M,M,M,M,41.53,K05U 292130Z AUTO 33016G21KT 10SM SCT055 OVC070 09/M02 A2995 RMK A01,M
HTH,2022-03-29 21:35,-118.6315,38.5448,1282.89,57.20,35.60,44.19,350.00,14.00,0.00,30.01,M,10.00,19.00,BKN,M,M,M,7000.00,M,M,M,M,M,M,M,M,M,M,57.20,KHTH 292135Z AUTO 35014G19KT 10SM BKN070 14/02 A3001 RMK A01,M
BVU,2022-03-29 21:35,-114.8611,35.9475,671.00,68.00,35.60,30.20,M,6.00,0.00,29.80,M,10.00,M,FEW,M,M,M,6500.00,M,M,M,M,M,M,M,M,M,M,68.00,KBVU 292135Z AUTO VRB06KT 10SM FEW065 20/02 A2980 RMK AO2,M
RTS,2022-03-29 21:35,-119.8764,39.6682,1539.00,55.40,28.40,35.28,320.00,11.00,0.00,30.04,M,10.00,M,BKN,OVC,M,M,5500.00,6500.00,M,M,M,M,M,M,M,M,M,55.40,KRTS 292135Z AUTO 32011KT 10SM BKN055 OVC065 13/M02 A3004 RMK AO2,M
TMT,2022-03-29 21:35,-117.1971,39.4643,1749.34,51.60,30.00,43.29,330.00,12.00,0.00,29.97,M,10.00,16.00,BKN,BKN,OVC,M,6000.00,7000.00,8500.00,M,M,M,M,M,M,M,M,51.60,KTMT 292135Z AUTO 33012G16KT 10SM BKN060 BKN070 OVC085 11/M01 A2997 RMK AO2 T01091011,M
MEV,2022-03-29 21:35,-119.7500,38.9963,1441.42,55.40,37.40,50.64,110.00,5.00,0.00,30.02,M,10.00,M,FEW,SCT,BKN,M,4400.00,5000.00,7000.00,M,M,M,M,M,M,M,M,55.40,KMEV 292135Z AUTO 11005KT 10SM FEW044 SCT050 BKN070 13/03 A3002 RMK AO2,M
BAM,2022-03-29 21:35,-116.8743,40.5990,1382.36,59.00,32.00,35.87,320.00,12.00,0.00,29.93,M,10.00,18.00,SCT,SCT,OVC,M,5500.00,6500.00,8500.00,M,M,M,M,M,M,M,M,59.00,KBAM 292135Z AUTO 32012G18KT 10SM SCT055 SCT065 OVC085 15/00 A2993 RMK AO1,M
LSV,2022-03-29 21:46,-115.0343,36.2362,570.00,75.20,39.20,27.26,310.00,12.00,0.00,29.74,1005.90,10.00,17.00,CLR,M,M,M,M,M,M,M,M,M,M,M,M,M,M,75.20,KLSV 292146Z AUTO 31012G17KT 10SM CLR 24/04 A2974 RMK AO2 WSHFT 44 SLP059 $,M
LSV,2022-03-29 21:47,-115.0343,36.2362,570.00,75.20,39.20,27.26,350.00,11.00,0.00,29.75,1006.30,10.00,17.00,CLR,M,M,M,M,M,M,M,M,M,M,M,M,M,M,75.20,KLSV 292147Z AUTO 35011G17KT 10SM CLR 24/04 A2975 RMK AO2 WSHFT 46 SLP063 $,M
VGT,2022-03-29 21:53,-115.1933,36.2111,667.00,73.00,36.00,25.88,310.00,19.00,0.00,29.76,1008.50,10.00,24.00,CLR,M,M,M,M,M,M,M,M,M,M,M,26.00,340.00,2022-03-29 21:41,73.00,KVGT 292153Z 31019G24KT 10SM CLR 23/02 A2976 RMK AO2 PK WND 34026/2141 SLP085 T02280022,M
DRA,2022-03-29 21:53,-116.0278,36.6206,1009.00,67.00,32.00,27.17,290.00,6.00,0.00,29.80,1006.50,10.00,M,FEW,BKN,M,M,8000.00,11000.00,M,M,M,M,M,M,M,M,M,66.90,KDRA 292153Z AUTO 29006KT 10SM FEW080 BKN110 19/00 A2980 RMK AO2 SLP065 T01940000,M
P68,2022-03-29 21:53,-116.0056,39.6014,1993.00,50.00,28.00,42.33,350.00,17.00,0.00,29.92,1010.80,M,22.00,M,M,M,M,M,M,M,M,M,M,M,M,26.00,330.00,2022-03-29 21:34,50.00,KP68 292153Z AUTO 35017G22KT 10/M02 A2992 RMK AO1 PK WND 33026/2134 SLP108 T01001022,M
ELY,2022-03-29 21:53,-114.8453,39.2950,1909.00,51.00,28.90,42.16,320.00,24.00,0.00,29.85,1007.80,10.00,33.00,BKN,BKN,M,M,6000.00,7500.00,M,M,M,M,M,M,33.00,330.00,2022-03-29 21:53,51.10,KELY 292153Z AUTO 32024G33KT 10SM BKN060 BKN075 11/M02 A2985 RMK AO2 PK WND 33033/2153 SLP078 T01061017,M
LOL,2022-03-29 21:53,-118.5701,40.0684,1192.43,62.00,34.00,34.81,310.00,12.00,0.00,29.97,1013.20,10.00,M,FEW,M,M,M,6000.00,M,M,M,M,M,M,M,M,M,M,62.10,KLOL 292153Z AUTO 31012KT 10SM FEW060 17/01 A2997 RMK AO2 SLP132 T01670011,M
MEV,2022-03-29 21:55,-119.7500,38.9963,1441.42,53.60,37.40,54.07,80.00,3.00,0.00,30.02,M,10.00,10.00,FEW,SCT,BKN,M,4500.00,5500.00,7000.00,M,M,M,M,M,M,M,M,53.60,KMEV 292155Z AUTO 08003G10KT 10SM FEW045 SCT055 BKN070 12/03 A3002 RMK AO2,M
CXP,2022-03-29 21:55,-119.7326,39.1923,1431.00,60.80,30.20,31.28,M,3.00,0.00,30.03,M,10.00,12.00,SCT,SCT,SCT,M,5500.00,6500.00,7500.00,M,M,M,M,M,M,M,M,60.80,KCXP 292155Z AUTO VRB03G12KT 10SM SCT055 SCT065 SCT075 16/M01 A3003 RMK AO2,M
HTH,2022-03-29 21:55,-118.6315,38.5448,1282.89,55.40,35.60,47.16,350.00,13.00,0.00,30.02,M,10.00,19.00,OVC,M,M,M,7000.00,M,M,M,M,M,M,M,M,M,M,55.40,KHTH 292155Z AUTO 35013G19KT 10SM OVC070 13/02 A3002 RMK A01,M
RNO,2022-03-29 21:55,-119.7711,39.4839,1341.00,62.00,30.00,29.63,270.00,4.00,0.00,30.02,1013.80,10.00,M,SCT,M,M,M,6000.00,M,M,M,M,M,M,M,M,M,M,62.10,KRNO 292155Z 27004KT 10SM SCT060 17/M01 A3002 RMK AO2 SLP138 T01671011,M
BAM,2022-03-29 21:55,-116.8743,40.5990,1382.36,59.00,30.20,33.35,340.00,11.00,0.00,29.94,M,10.00,18.00,SCT,OVC,M,M,5500.00,9000.00,M,M,M,M,M,M,M,M,M,59.00,KBAM 292155Z AUTO 34011G18KT 10SM SCT055 OVC090 15/M01 A2994 RMK AO1,M
TMT,2022-03-29 21:55,-117.1971,39.4643,1749.34,51.00,30.70,45.37,350.00,11.00,0.00,29.97,M,10.00,18.00,SCT,OVC,M,M,4800.00,7000.00,M,M,M,M,M,M,M,M,M,51.10,KTMT 292155Z AUTO 35011G18KT 10SM SCT048 OVC070 11/M01 A2997 RMK AO2 LTG DSNT S T01061007,M
05U,2022-03-29 21:55,-116.0051,39.6042,1811.23,50.00,26.60,39.95,350.00,13.00,0.00,29.95,M,10.00,19.00,SCT,SCT,OVC,M,4600.00,6500.00,8000.00,M,M,M,M,M,M,M,M,50.00,K05U 292155Z AUTO 35013G19KT 10SM SCT046 SCT065 OVC080 10/M03 A2995 RMK A01,M
BVU,2022-03-29 21:55,-114.8611,35.9475,671.00,68.00,35.60,30.20,330.00,9.00,0.00,29.79,M,10.00,M,FEW,M,M,M,7000.00,M,M,M,M,M,M,M,M,M,M,68.00,KBVU 292155Z AUTO 33009KT 280V010 10SM FEW070 20/02 A2979 RMK AO2,M
RTS,2022-03-29 21:55,-119.8764,39.6682,1539.00,57.20,28.40,33.05,M,6.00,0.00,30.04,M,10.00,12.00,BKN,OVC,M,M,5500.00,6500.00,M,M,M,M,M,M,M,M,M,57.20,KRTS 292155Z AUTO VRB06G12KT 270V340 10SM BKN055 OVC065 14/M02 A3004 RMK AO2,M
EKO,2022-03-29 21:56,-115.7860,40.8242,1367.00,55.00,28.90,36.54,320.00,22.00,0.00,29.90,1011.00,10.00,31.00,FEW,BKN,BKN,M,4800.00,8000.00,9000.00,M,M,M,M,M,31.00,320.00,2022-03-29 21:55,55.00,KEKO 292156Z AUTO 32022G31KT 10SM FEW048 BKN080 BKN090 13/M02 A2990 RMK AO2 PK WND 32031/2155 SLP110 T01281017,M
LAS,2022-03-29 21:56,-115.1634,36.0719,663.00,68.00,36.00,30.69,210.00,4.00,0.00,29.78,1007.50,10.00,M,FEW,SCT,SCT,M,7000.00,14000.00,20000.00,M,M,M,M,M,M,M,M,68.00,KLAS 292156Z 21004KT 10SM FEW070 SCT140 SCT200 20/02 A2978 RMK AO2 SLP075 T02000022,M
NFL,2022-03-29 21:56,-118.7010,39.4166,1199.00,59.00,35.00,40.61,300.00,9.00,0.00,29.99,1012.50,10.00,M,SCT,SCT,BKN,M,4500.00,5500.00,10000.00,M,M,M,M,M,M,M,M,59.00,KNFL 292156Z 30009KT 10SM SCT045 SCT055 BKN100 15/02 A2999 RMK AO2 SLP125 T01500017,M
TPH,2022-03-29 21:56,-117.0904,38.0505,1654.00,59.00,30.00,33.08,340.00,21.00,0.00,29.92,1010.50,10.00,31.00,FEW,BKN,M,M,5500.00,8000.00,M,M,M,M,M,M,31.00,330.00,2022-03-29 21:53,59.00,KTPH 292156Z AUTO 34021G31KT 10SM FEW055 BKN080 15/M01 A2992 RMK AO2 PK WND 33031/2153 SLP105 T01501011,M
HND,2022-03-29 21:56,-115.1344,35.9729,742.79,69.00,37.00,30.74,M,6.00,0.00,29.82,1010.10,10.00,M,CLR,M,M,M,M,M,M,M,M,M,M,M,M,M,M,69.10,KHND 292156Z VRB06KT 10SM CLR 21/03 A2982 RMK AO2 SLP101 T02060028,M
LSV,2022-03-29 21:58,-115.0343,36.2362,570.00,76.00,38.50,25.91,40.00,4.00,0.00,29.76,1006.60,10.00,M,CLR,M,M,M,M,M,M,M,M,M,M,M,M,M,M,75.90,KLSV 292158Z AUTO 04004KT 10SM CLR 24/04 A2976 RMK AO2 SLP066 T02440036 $,M
INS,2022-03-29 21:58,-115.6733,36.5872,955.00,68.40,31.10,24.88,330.00,6.00,0.00,29.79,1006.20,10.00,M,FEW,M,M,M,7000.00,M,M,M,M,M,M,M,M,M,M,68.40,KINS 292158Z AUTO 33006KT 10SM FEW070 20/M00 A2979 RMK AO2 SLP062 T02021005 $,M
RTS,2022-03-29 22:15,-119.8764,39.6682,1539.00,57.20,28.40,33.05,280.00,8.00,0.00,30.03,M,10.00,16.00,BKN,OVC,M,M,5500.00,6500.00,M,M,M,M,M,M,M,M,M,57.20,KRTS 292215Z AUTO 28008G16KT 10SM BKN055 OVC065 14/M02 A3003 RMK AO2,M
BAM,2022-03-29 22:15,-116.8743,40.5990,1382.36,59.00,30.20,33.35,360.00,12.00,0.00,29.95,M,10.00,18.00,SCT,BKN,OVC,M,6500.00,7500.00,9000.00,M,M,M,M,M,M,M,M,59.00,KBAM 292215Z AUTO 36012G18KT 10SM SCT065 BKN075 OVC090 15/M01 A2995 RMK AO1,M
CXP,2022-03-29 22:15,-119.7326,39.1923,1431.00,60.80,30.20,31.28,320.00,6.00,0.00,30.02,M,10.00,M,FEW,FEW,FEW,M,6000.00,6500.00,7500.00,M,M,M,M,M,M,M,M,60.80,KCXP 292215Z AUTO 32006KT 10SM FEW060 FEW065 FEW075 16/M01 A3002 RMK AO2,M
MEV,2022-03-29 22:15,-119.7500,38.9963,1441.42,55.40,37.40,50.64,80.00,5.00,0.00,30.02,M,10.00,M,SCT,BKN,M,M,7000.00,8000.00,M,M,M,M,M,M,M,M,M,55.40,KMEV 292215Z AUTO 08005KT 10SM SCT070 BKN080 13/03 A3002 RMK AO2,M
TMT,2022-03-29 22:15,-117.1971,39.4643,1749.34,51.40,30.70,44.86,340.00,11.00,0.00,29.97,M,10.00,17.00,SCT,OVC,M,M,5000.00,7000.00,M,M,M,M,M,M,M,M,M,51.40,KTMT 292215Z AUTO 34011G17KT 10SM SCT050 OVC070 11/M01 A2997 RMK AO2 T01081007,M
BVU,2022-03-29 22:15,-114.8611,35.9475,671.00,69.80,35.60,28.39,280.00,11.00,0.00,29.79,M,10.00,16.00,FEW,M,M,M,7000.00,M,M,M,M,M,M,M,M,M,M,69.80,KBVU 292215Z AUTO 28011G16KT 250V310 10SM FEW070 21/02 A2979 RMK AO2,M
05U,2022-03-29 22:15,-116.0051,39.6042,1811.23,50.00,28.40,43.03,330.00,14.00,0.00,29.95,M,10.00,24.00,FEW,BKN,OVC,M,4600.00,7000.00,8000.00,M,M,M,M,M,M,M,M,50.00,K05U 292215Z AUTO 33014G24KT 10SM FEW046 BKN070 OVC080 10/M02 A2995 RMK A01,M
HTH,2022-03-29 22:15,-118.6315,38.5448,1282.89,57.20,35.60,44.19,340.00,12.00,0.00,30.01,M,10.00,M,OVC,M,M,M,7500.00,M,M,M,M,M,M,M,M,M,M,57.20,KHTH 292215Z AUTO 34012KT 10SM OVC075 14/02 A3001 RMK A01,M
INS,2022-03-29 22:20,-115.6733,36.5872,955.00,69.80,30.20,22.86,340.00,10.00,0.00,29.78,1005.70,10.00,17.00,FEW,BKN,M,M,8000.00,11000.00,M,M,M,M,M,M,M,M,M,69.80,KINS 292220Z AUTO 34010G17KT 10SM FEW080 BKN110 21/M01 A2978 RMK AO2 WSHFT 16 SLP057 $,M
05U,2022-03-29 22:25,-116.0051,39.6042,1811.23,50.00,28.40,43.03,330.00,15.00,0.00,29.95,M,10.00,20.00,FEW,SCT,OVC,M,5500.00,6500.00,8000.00,M,M,M,M,M,M,M,M,50.00,K05U 292225Z AUTO 33015G20KT 10SM FEW055 SCT065 OVC080 10/M02 A2995 RMK A01,M
INS,2022-03-29 22:30,-115.6733,36.5872,955.00,69.80,30.20,22.86,340.00,15.00,0.00,29.78,1005.70,10.00,M,BKN,BKN,M,M,8500.00,11000.00,M,M,M,M,M,M,M,M,M,69.80,KINS 292230Z AUTO 34015KT 10SM BKN085 BKN110 21/M01 A2978 RMK AO2 SLP057 $,M
BAM,2022-03-29 22:35,-116.8743,40.5990,1382.36,59.00,30.20,33.35,330.00,10.00,0.00,29.94,M,10.00,M,SCT,BKN,OVC,M,6500.00,7500.00,9000.00,M,M,M,M,M,M,M,M,59.00,KBAM 292235Z AUTO 33010KT 10SM SCT065 BKN075 OVC090 15/M01 A2994 RMK AO1,M
BVU,2022-03-29 22:35,-114.8611,35.9475,671.00,69.80,33.80,26.43,280.00,10.00,0.00,29.78,M,10.00,M,CLR,M,M,M,M,M,M,M,M,M,M,M,M,M,M,69.80,KBVU 292235Z AUTO 28010KT 10SM CLR 21/01 A2978 RMK AO2,M
MEV,2022-03-29 22:35,-119.7500,38.9963,1441.42,55.40,35.60,47.16,60.00,5.00,0.00,30.02,M,10.00,M,BKN,BKN,M,M,7500.00,8500.00,M,M,M,M,M,M,M,M,M,55.40,KMEV 292235Z AUTO 06005KT 10SM BKN075 BKN085 13/02 A3002 RMK AO2,M
RTS,2022-03-29 22:35,-119.8764,39.6682,1539.00,57.20,30.20,35.57,320.00,7.00,0.00,30.03,M,10.00,16.00,FEW,SCT,M,M,5500.00,6500.00,M,M,M,M,M,M,M,M,M,57.20,KRTS 292235Z AUTO 32007G16KT 280V340 10SM FEW055 SCT065 14/M01 A3003 RMK AO2,M
HTH,2022-03-29 22:35,-118.6315,38.5448,1282.89,57.20,35.60,44.19,350.00,13.00,0.00,30.01,M,10.00,19.00,OVC,M,M,M,7500.00,M,M,M,M,M,M,M,M,M,M,57.20,KHTH 292235Z AUTO 35013G19KT 10SM OVC075 14/02 A3001 RMK A01,M
CXP,2022-03-29 22:35,-119.7326,39.1923,1431.00,60.80,30.20,31.28,M,6.00,0.00,30.02,M,10.00,M,FEW,SCT,M,M,6000.00,8000.00,M,M,M,M,M,M,M,M,M,60.80,KCXP 292235Z AUTO VRB06KT 10SM FEW060 SCT080 16/M01 A3002 RMK AO2,M
TMT,2022-03-29 22:35,-117.1971,39.4643,1749.34,52.30,31.10,44.11,330.00,12.00,0.00,29.98,M,10.00,16.00,SCT,OVC,M,M,5000.00,7000.00,M,M,M,M,M,M,M,M,M,52.30,KTMT 292235Z AUTO 33012G16KT 10SM SCT050 OVC070 11/00 A2998 RMK AO2 T01131005,M
INS,2022-03-29 22:40,-115.6733,36.5872,955.00,68.00,30.20,24.32,310.00,17.00,0.00,29.79,1006.40,10.00,23.00,SCT,BKN,M,M,9000.00,11000.00,M,M,M,M,M,M,M,M,M,68.00,KINS 292240Z AUTO 31017G23KT 10SM SCT090 BKN110 20/M01 A2979 RMK AO2 SLP064 $,M
LOL,2022-03-29 22:53,-118.5701,40.0684,1192.43,63.00,32.00,31.12,310.00,11.00,0.00,29.96,1013.20,10.00,M,BKN,M,M,M,8500.00,M,M,M,M,M,M,M,M,M,M,63.00,KLOL 292253Z AUTO 31011KT 10SM BKN085 17/00 A2996 RMK AO2 SLP132 T01720000,M
DRA,2022-03-29 22:53,-116.0278,36.6206,1009.00,66.00,39.00,37.00,210.00,11.00,T,29.79,1006.50,10.00,18.00,FEW,SCT,OVC,M,5500.00,7000.00,9000.00,M,-RA,M,M,M,M,M,M,66.00,KDRA 292253Z AUTO 21011G18KT 10SM -RA FEW055 SCT070 OVC090 19/04 A2979 RMK AO2 RAB49 SLP065 P0000 T01890039,M
ELY,2022-03-29 22:53,-114.8453,39.2950,1909.00,50.00,27.00,40.62,340.00,17.00,T,29.86,1008.40,10.00,31.00,BKN,OVC,M,M,6500.00,8000.00,M,M,M,M,M,M,33.00,330.00,2022-03-29 21:54,50.00,KELY 292253Z AUTO 34017G31KT 10SM BKN065 OVC080 10/M03 A2986 RMK AO2 PK WND 33033/2154 RAB2156E14 SLP084 P0000 T01001028,M
VGT,2022-03-29 22:53,-115.1933,36.2111,667.00,74.00,36.00,25.11,320.00,5.00,0.00,29.75,1007.90,10.00,M,SCT,M,M,M,12000.00,M,M,M,M,M,M,M,M,M,M,73.90,KVGT 292253Z 32005KT 10SM SCT120 23/02 A2975 RMK AO2 SLP079 T02330022,M
P68,2022-03-29 22:53,-116.0056,39.6014,1993.00,50.00,28.90,43.92,330.00,13.00,0.00,29.92,1011.10,M,23.00,M,M,M,M,M,M,M,M,M,M,M,M,26.00,340.00,2022-03-29 22:00,50.00,KP68 292253Z AUTO 33013G23KT 10/M02 A2992 RMK AO1 PK WND 34026/2200 SLP111 T01001017,M
HTH,2022-03-29 22:55,-118.6315,38.5448,1282.89,57.20,35.60,44.19,350.00,14.00,0.00,30.01,M,10.00,M,OVC,M,M,M,8000.00,M,M,M,M,M,M,M,M,M,M,57.20,KHTH 292255Z AUTO 35014KT 10SM OVC080 14/02 A3001 RMK A01,M
BVU,2022-03-29 22:55,-114.8611,35.9475,671.00,69.80,33.80,26.43,240.00,5.00,0.00,29.78,M,10.00,M,CLR,M,M,M,M,M,M,M,M,M,M,M,M,M,M,69.80,KBVU 292255Z AUTO 24005KT 10SM CLR 21/01 A2978 RMK AO2,M
CXP,2022-03-29 22:55,-119.7326,39.1923,1431.00,60.80,30.20,31.28,M,6.00,0.00,30.01,M,10.00,M,SCT,BKN,M,M,6000.00,7500.00,M,M,M,M,M,M,M,M,M,60.80,KCXP 292255Z AUTO VRB06KT 10SM SCT060 BKN075 16/M01 A3001 RMK AO2,M
05U,2022-03-29 22:55,-116.0051,39.6042,1811.23,50.00,28.40,43.03,320.00,13.00,0.00,29.95,M,10.00,21.00,SCT,BKN,M,M,7000.00,8000.00,M,M,M,M,M,M,M,M,M,50.00,K05U 292255Z AUTO 32013G21KT 10SM SCT070 BKN080 10/M02 A2995 RMK A01,M
RNO,2022-03-29 22:55,-119.7711,39.4839,1341.00,63.00,30.90,29.77,350.00,10.00,0.00,30.00,1013.30,10.00,M,SCT,M,M,M,6500.00,M,M,M,M,M,M,M,M,M,M,63.00,KRNO 292255Z 35010KT 10SM SCT065 17/M01 A3000 RMK AO2 SLP133 T01721006,M
RTS,2022-03-29 22:55,-119.8764,39.6682,1539.00,57.20,30.20,35.57,M,5.00,0.00,30.03,M,10.00,12.00,BKN,BKN,M,M,6000.00,7000.00,M,M,M,M,M,M,M,M,M,57.20,KRTS 292255Z AUTO VRB05G12KT 10SM BKN060 BKN070 14/M01 A3003 RMK AO2,M
MEV,2022-03-29 22:55,-119.7500,38.9963,1441.42,57.20,35.60,44.19,70.00,4.00,0.00,30.01,M,10.00,M,SCT,M,M,M,7500.00,M,M,M,M,M,M,M,M,M,M,57.20,KMEV 292255Z AUTO 07004KT 10SM SCT075 14/02 A3001 RMK AO2,M
TMT,2022-03-29 22:55,-117.1971,39.4643,1749.34,52.30,31.60,45.01,310.00,12.00,0.00,29.99,M,10.00,24.00,SCT,BKN,BKN,M,5000.00,7000.00,7500.00,M,M,M,M,M,M,M,M,52.30,KTMT 292255Z AUTO 31012G24KT 10SM SCT050 BKN070 BKN075 11/00 A2999 RMK AO2 T01131002,M
BAM,2022-03-29 22:55,-116.8743,40.5990,1382.36,59.00,30.20,33.35,310.00,15.00,0.00,29.95,M,10.00,24.00,SCT,OVC,M,M,6500.00,10000.00,M,M,M,M,M,M,M,M,M,59.00,KBAM 292255Z AUTO 31015G24KT 10SM SCT065 OVC100 15/M01 A2995 RMK AO1,M
EKO,2022-03-29 22:56,-115.7860,40.8242,1367.00,54.00,28.90,37.89,320.00,14.00,0.00,29.90,1011.30,10.00,23.00,OVC,M,M,M,9000.00,M,M,M,M,M,M,M,M,M,M,54.00,KEKO 292256Z AUTO 32014G23KT 10SM OVC090 12/M02 A2990 RMK AO2 SLP113 T01221017,M
TPH,2022-03-29 22:56,-117.0904,38.0505,1654.00,58.00,32.00,37.31,330.00,23.00,0.00,29.93,1010.90,10.00,32.00,FEW,M,M,M,8000.00,M,M,M,M,M,M,M,33.00,340.00,2022-03-29 22:25,57.90,KTPH 292256Z AUTO 33023G32KT 10SM FEW080 14/00 A2993 RMK AO2 PK WND 34033/2225 SLP109 T01440000,M
HND,2022-03-29 22:56,-115.1344,35.9729,742.79,69.00,36.00,29.55,210.00,5.00,0.00,29.80,1009.60,10.00,M,FEW,M,M,M,7500.00,M,M,M,M,M,M,M,M,M,M,69.10,KHND 292256Z 21005KT 10SM FEW075 21/02 A2980 RMK AO2 SLP096 T02060022,M
LAS,2022-03-29 22:56,-115.1634,36.0719,663.00,71.00,36.00,27.60,220.00,6.00,0.00,29.77,1006.70,10.00,M,FEW,FEW,SCT,M,7000.00,14000.00,20000.00,M,M,M,M,M,M,M,M,71.10,KLAS 292256Z 22006KT 10SM FEW070 FEW140 SCT200 22/02 A2977 RMK AO2 SLP067 T02170022,M
NFL,2022-03-29 22:56,-118.7010,39.4166,1199.00,63.00,32.00,31.12,330.00,10.00,0.00,29.98,1012.40,10.00,M,SCT,BKN,BKN,M,5000.00,10000.00,25000.00,M,M,M,M,M,M,M,M,63.00,KNFL 292256Z 33010KT 290V350 10SM SCT050 BKN100 BKN250 17/00 A2998 RMK SLP124 T01720000,M
WMC,2022-03-29 22:56,-117.8072,40.9019,1315.00,59.00,30.90,34.31,350.00,13.00,0.00,29.96,1012.80,10.00,M,FEW,BKN,M,M,6500.00,8000.00,M,M,M,M,M,M,M,M,M,59.00,KWMC 292256Z AUTO 35013KT 10SM FEW065 BKN080 15/M01 A2996 RMK AO2 SLP128 T01501006,M
LSV,2022-03-29 22:58,-115.0343,36.2362,570.00,76.60,37.00,23.87,300.00,11.00,0.00,29.73,1005.50,10.00,20.00,CLR,M,M,M,M,M,M,M,M,M,M,M,M,M,M,76.60,KLSV 292258Z AUTO 30011G20KT 10SM CLR 25/03 A2973 RMK AO2 SLP055 T02480028 $,M
INS,2022-03-29 22:58,-115.6733,36.5872,955.00,68.70,29.50,23.07,320.00,14.00,0.00,29.79,1006.40,10.00,M,FEW,BKN,M,M,9000.00,12000.00,M,M,M,M,M,M,27.00,300.00,2022-03-29 22:30,68.70,KINS 292258Z AUTO 32014KT 10SM FEW090 BKN120 20/M01 A2979 RMK AO2 PK WND 30027/30 SLP064 T02041014 $,M
LSV,2022-03-29 23:12,-115.0343,36.2362,570.00,77.00,35.60,22.28,280.00,11.00,0.00,29.73,1005.50,10.00,M,CLR,M,M,M,M,M,M,M,M,M,M,M,M,M,M,77.00,KLSV 292312Z AUTO 28011KT 10SM CLR 25/02 A2973 RMK AO2 WSHFT 09 SLP055 $,M
INS,2022-03-29 23:13,-115.6733,36.5872,955.00,68.00,28.40,22.59,320.00,13.00,0.00,29.79,1006.40,10.00,M,BKN,BKN,M,M,9500.00,12000.00,M,M,M,M,M,M,M,M,M,68.00,KINS 292313Z AUTO 32013KT 10SM BKN095 BKN120 20/M02 A2979 RMK AO2 SLP064 $,M
CXP,2022-03-29 23:15,-119.7326,39.1923,1431.00,60.80,28.40,29.06,80.00,8.00,0.00,30.01,M,10.00,M,BKN,BKN,BKN,M,6000.00,6500.00,7500.00,M,M,M,M,M,M,M,M,60.80,KCXP 292315Z AUTO 08008KT 10SM BKN060 BKN065 BKN075 16/M02 A3001 RMK AO2,M
TMT,2022-03-29 23:15,-117.1971,39.4643,1749.34,53.20,28.90,39.02,310.00,14.00,0.00,29.99,M,10.00,23.00,BKN,BKN,M,M,5000.00,6500.00,M,M,M,M,M,M,M,M,M,53.20,KTMT 292315Z AUTO 31014G23KT 10SM BKN050 BKN065 12/M02 A2999 RMK AO2 T01181017,M
HTH,2022-03-29 23:15,-118.6315,38.5448,1282.89,59.00,33.80,38.56,350.00,12.00,0.00,30.00,M,10.00,M,BKN,M,M,M,8000.00,M,M,M,M,M,M,M,M,M,M,59.00,KHTH 292315Z AUTO 35012KT 10SM BKN080 15/01 A3000 RMK A01,M
BVU,2022-03-29 23:15,-114.8611,35.9475,671.00,69.80,33.80,26.43,M,4.00,0.00,29.77,M,10.00,11.00,CLR,M,M,M,M,M,M,M,M,M,M,M,M,M,M,69.80,KBVU 292315Z AUTO VRB04G11KT 10SM CLR 21/01 A2977 RMK AO2,M
05U,2022-03-29 23:15,-116.0051,39.6042,1811.23,50.00,30.20,46.31,310.00,9.00,0.00,29.96,M,10.00,16.00,FEW,BKN,M,M,7000.00,8000.00,M,M,M,M,M,M,M,M,M,50.00,K05U 292315Z AUTO 31009G16KT 10SM FEW070 BKN080 10/M01 A2996 RMK A01,M
BAM,2022-03-29 23:15,-116.8743,40.5990,1382.36,59.00,30.20,33.35,320.00,13.00,0.00,29.95,M,10.00,17.00,BKN,OVC,M,M,6500.00,9000.00,M,M,M,M,M,M,M,M,M,59.00,KBAM 292315Z AUTO 32013G17KT 10SM BKN065 OVC090 15/M01 A2995 RMK AO1,M
MEV,2022-03-29 23:15,-119.7500,38.9963,1441.42,57.20,35.60,44.19,50.00,4.00,0.00,30.00,M,10.00,M,CLR,M,M,M,M,M,M,M,M,M,M,M,M,M,M,57.20,KMEV 292315Z AUTO 05004KT 10SM CLR 14/02 A3000 RMK AO2,M
RTS,2022-03-29 23:15,-119.8764,39.6682,1539.00,57.20,30.20,35.57,320.00,10.00,0.00,30.03,M,10.00,M,BKN,BKN,M,M,6000.00,7000.00,M,M,M,M,M,M,M,M,M,57.20,KRTS 292315Z AUTO 32010KT 10SM BKN060 BKN070 14/M01 A3003 RMK AO2,M
INS,2022-03-29 23:27,-115.6733,36.5872,955.00,68.00,30.20,24.32,360.00,22.00,0.00,29.79,1006.40,10.00,26.00,BKN,BKN,M,M,8000.00,9500.00,M,M,M,M,M,M,M,M,M,68.00,KINS 292327Z AUTO 36022G26KT 10SM BKN080 BKN095 20/M01 A2979 RMK AO2 WSHFT 15 SLP064 $,M
INS,2022-03-29 23:28,-115.6733,36.5872,955.00,68.00,30.20,24.32,360.00,19.00,0.00,29.79,1006.40,10.00,26.00,BKN,BKN,M,M,8000.00,9500.00,M,M,-RA,M,M,M,M,M,M,68.00,KINS 292328Z AUTO 36019G26KT 10SM -RA BKN080 BKN095 20/M01 A2979 RMK AO2 RAB28 SLP064 $,M
05U,2022-03-29 23:35,-116.0051,39.6042,1811.23,50.00,30.20,46.31,330.00,12.00,0.00,29.96,M,10.00,M,BKN,M,M,M,8000.00,M,M,M,M,M,M,M,M,M,M,50.00,K05U 292335Z AUTO 33012KT 10SM BKN080 10/M01 A2996 RMK A01,M
BAM,2022-03-29 23:35,-116.8743,40.5990,1382.36,59.00,30.20,33.35,320.00,16.00,0.00,29.95,M,10.00,21.00,BKN,OVC,M,M,6500.00,7500.00,M,M,M,M,M,M,M,M,M,59.00,KBAM 292335Z AUTO 32016G21KT 10SM BKN065 OVC075 15/M01 A2995 RMK AO1,M
MEV,2022-03-29 23:35,-119.7500,38.9963,1441.42,59.00,33.80,38.56,0.00,0.00,0.00,30.00,M,10.00,M,CLR,M,M,M,M,M,M,M,M,M,M,M,M,M,M,59.00,KMEV 292335Z AUTO 00000KT 10SM CLR 15/01 A3000 RMK AO2,M
RTS,2022-03-29 23:35,-119.8764,39.6682,1539.00,57.20,30.20,35.57,360.00,5.00,0.00,30.03,M,10.00,11.00,SCT,BKN,M,M,5500.00,7000.00,M,M,M,M,M,M,M,M,M,57.20,KRTS 292335Z AUTO 36005G11KT 10SM SCT055 BKN070 14/M01 A3003 RMK AO2,M
BVU,2022-03-29 23:35,-114.8611,35.9475,671.00,71.60,33.80,24.86,250.00,7.00,0.00,29.77,M,10.00,13.00,CLR,M,M,M,M,M,M,M,M,M,M,M,M,M,M,71.60,KBVU 292335Z AUTO 25007G13KT 10SM CLR 22/01 A2977 RMK AO2,M
HTH,2022-03-29 23:35,-118.6315,38.5448,1282.89,59.00,33.80,38.56,360.00,12.00,0.00,30.00,M,10.00,M,CLR,M,M,M,M,M,M,M,M,M,M,M,M,M,M,59.00,KHTH 292335Z AUTO 36012KT 10SM CLR 15/01 A3000 RMK A01,M
CXP,2022-03-29 23:35,-119.7326,39.1923,1431.00,60.80,28.40,29.06,330.00,9.00,0.00,30.02,M,10.00,M,FEW,BKN,M,M,6000.00,7500.00,M,M,M,M,M,M,M,M,M,60.80,KCXP 292335Z AUTO 33009KT 10SM FEW060 BKN075 16/M02 A3002 RMK AO2,M
INS,2022-03-29 23:41,-115.6733,36.5872,955.00,68.00,30.20,24.32,330.00,14.00,0.00,29.80,1006.80,10.00,M,FEW,OVC,M,M,6000.00,8500.00,M,M,-RA,M,M,M,M,M,M,68.00,KINS 292341Z AUTO 33014KT 10SM -RA FEW060 OVC085 20/M01 A2980 RMK AO2 WSHFT 28 RAB28 SLP068 $,M
INS,2022-03-29 23:47,-115.6733,36.5872,955.00,66.20,32.00,27.83,280.00,10.00,0.00,29.80,1007.00,10.00,M,FEW,SCT,OVC,M,5000.00,6500.00,8500.00,M,-RA,M,M,M,M,M,M,66.20,KINS 292347Z AUTO 28010KT 10SM -RA FEW050 SCT065 OVC085 19/00 A2980 RMK AO2 WSHFT 41 RAB28 SLP070 $,M
LSV,2022-03-29 23:47,-115.0343,36.2362,570.00,78.80,35.60,21.00,290.00,15.00,0.00,29.73,1005.50,10.00,19.00,SCT,M,M,M,12000.00,M,M,M,M,M,M,M,M,M,M,78.80,KLSV 292347Z AUTO 29015G19KT 10SM SCT120 26/02 A2973 RMK AO2 WSHFT 40 SLP055 $,M
05U,2022-03-29 23:50,-116.0051,39.6042,1811.23,48.20,32.00,53.27,310.00,12.00,0.00,29.96,M,9.00,M,FEW,M,M,M,8000.00,M,M,M,M,M,M,M,M,M,M,42.62,K05U 292350Z AUTO 31012KT 9SM FEW080 09/M00 A2996 RMK A01,M
VGT,2022-03-29 23:53,-115.1933,36.2111,667.00,74.00,35.00,24.23,340.00,15.00,0.00,29.74,1007.60,10.00,21.00,FEW,M,M,M,12000.00,M,M,M,M,M,M,M,M,M,M,73.90,KVGT 292353Z 34015G21KT 10SM FEW120 23/02 A2974 RMK AO2 SLP076 T02330017 10239 20161 56014,M
DRA,2022-03-29 23:53,-116.0278,36.6206,1009.00,67.00,34.00,29.44,M,5.00,T,29.80,1006.70,10.00,M,OVC,M,M,M,9000.00,M,M,M,M,M,M,M,M,M,M,66.90,KDRA 292353Z AUTO VRB05KT 10SM OVC090 19/01 A2980 RMK AO2 RAE08 SLP067 P0000 60000 T01940011 10206 20117 55004,M
ELY,2022-03-29 23:53,-114.8453,39.2950,1909.00,50.00,23.00,34.39,340.00,17.00,0.00,29.88,1009.40,10.00,24.00,SCT,M,M,M,8000.00,M,M,M,M,M,M,M,30.00,320.00,2022-03-29 23:30,50.00,KELY 292353Z AUTO 34017G24KT 10SM SCT080 10/M05 A2988 RMK AO2 PK WND 32030/2330 SLP094 60001 T01001050 10122 20078 53011,M
P68,2022-03-29 23:53,-116.0056,39.6014,1993.00,50.00,30.90,47.64,310.00,14.00,0.00,29.93,1011.40,M,25.00,M,M,M,M,M,M,M,M,M,M,M,M,M,M,M,50.00,KP68 292353Z AUTO 31014G25KT 10/M01 A2993 RMK AO1 SLP114 T01001006 10111 20083 53004,M
LOL,2022-03-29 23:53,-118.5701,40.0684,1192.43,65.00,32.00,29.12,300.00,14.00,0.00,29.96,1013.00,10.00,M,SCT,BKN,M,M,7000.00,8500.00,M,M,M,M,M,M,27.00,310.00,2022-03-29 23:25,64.90,KLOL 292353Z AUTO 30014KT 10SM SCT070 BKN085 18/00 A2996 RMK AO2 PK WND 31027/2325 SLP130 T01830000 10183 20111 56003,M
BVU,2022-03-29 23:55,-114.8611,35.9475,671.00,71.60,33.80,24.86,240.00,7.00,0.00,29.76,M,10.00,13.00,CLR,M,M,M,M,M,M,M,M,M,M,M,M,M,M,71.60,KBVU 292355Z AUTO 24007G13KT 10SM CLR 22/01 A2976 RMK AO2,M
BAM,2022-03-29 23:55,-116.8743,40.5990,1382.36,55.40,33.80,43.90,300.00,10.00,0.00,29.96,M,10.00,25.00,SCT,BKN,OVC,M,5000.00,6500.00,10000.00,M,M,M,M,M,M,M,M,55.40,KBAM 292355Z AUTO 30010G25KT 10SM SCT050 BKN065 OVC100 13/01 A2996 RMK AO1,M
TMT,2022-03-29 23:55,-117.1971,39.4643,1749.34,53.40,28.90,38.73,320.00,12.00,0.00,29.99,M,10.00,20.00,SCT,SCT,OVC,M,6000.00,7000.00,8000.00,M,M,M,M,M,M,M,M,53.40,KTMT 292355Z AUTO 32012G20KT 10SM SCT060 SCT070 OVC080 12/M02 A2999 RMK AO2 T01191017 10124 20067,M
RTS,2022-03-29 23:55,-119.8764,39.6682,1539.00,57.20,28.40,33.05,270.00,9.00,0.00,30.03,M,10.00,M,BKN,BKN,M,M,5500.00,7500.00,M,M,M,M,M,M,M,M,M,57.20,KRTS 292355Z AUTO 27009KT 10SM BKN055 BKN075 14/M02 A3003 RMK AO2,M
HTH,2022-03-29 23:55,-118.6315,38.5448,1282.89,59.00,33.80,38.56,360.00,12.00,0.00,30.00,M,10.00,17.00,CLR,M,M,M,M,M,M,M,M,M,M,M,M,M,M,59.00,KHTH 292355Z AUTO 36012G17KT 10SM CLR 15/01 A3000 RMK A01,M
MEV,2022-03-29 23:55,-119.7500,38.9963,1441.42,59.00,33.80,38.56,350.00,7.00,0.00,30.01,M,10.00,M,CLR,M,M,M,M,M,M,M,M,M,M,M,M,M,M,59.00,KMEV 292355Z AUTO 35007KT 10SM CLR 15/01 A3001 RMK AO2,M
RNO,2022-03-29 23:55,-119.7711,39.4839,1341.00,62.00,30.90,30.73,310.00,11.00,0.00,30.01,1013.40,10.00,M,SCT,M,M,M,7500.00,M,M,M,M,M,M,M,M,M,M,62.10,KRNO 292355Z 31011KT 10SM SCT075 17/M01 A3001 RMK AO2 SLP134 T01671006 10183 20117 55005,M
CXP,2022-03-29 23:55,-119.7326,39.1923,1431.00,62.60,28.40,27.27,290.00,5.00,0.00,30.02,M,10.00,15.00,BKN,BKN,M,M,7500.00,8000.00,M,M,M,M,M,M,M,M,M,62.60,KCXP 292355Z AUTO 29005G15KT 10SM BKN075 BKN080 17/M02 A3002 RMK AO2,M
LAS,2022-03-29 23:56,-115.1634,36.0719,663.00,72.00,35.00,25.83,230.00,8.00,0.00,29.76,1006.40,10.00,M,FEW,FEW,SCT,M,7500.00,12000.00,20000.00,M,M,M,M,M,M,M,M,72.00,KLAS 292356Z 23008KT 10SM FEW075 FEW120 SCT200 22/02 A2976 RMK AO2 SLP064 CB DSNT NE T02220017 10222 20150 56015,M
NFL,2022-03-29 23:56,-118.7010,39.4166,1199.00,63.00,28.90,27.44,330.00,10.00,0.00,29.98,1012.20,10.00,15.00,SCT,BKN,BKN,M,5000.00,10000.00,25000.00,M,M,M,M,M,M,M,M,63.00,KNFL 292356Z 33010G15KT 10SM SCT050 BKN100 BKN250 17/M02 A2998 RMK SLP122 60000 T01721017 10178 20117 58002,M
INS,2022-03-29 23:56,-115.6733,36.5872,955.00,64.40,35.60,34.22,270.00,18.00,0.00,29.80,1007.00,10.00,26.00,FEW,SCT,BKN,M,6000.00,8500.00,10000.00,M,M,M,M,M,M,M,M,64.40,KINS 292356Z AUTO 27018G26KT 10SM FEW060 SCT085 BKN100 18/02 A2980 RMK AO2 RAB28E56 SLP070 $,M
HND,2022-03-29 23:56,-115.1344,35.9729,742.79,70.00,35.00,27.65,0.00,0.00,0.00,29.79,1009.20,10.00,M,FEW,M,M,M,9000.00,M,M,M,M,M,M,M,M,M,M,70.00,KHND 292356Z 00000KT 10SM FEW090 21/02 A2979 RMK AO2 SLP092 T02110017 10222 20156 56016,M
TPH,2022-03-29 23:56,-117.0904,38.0505,1654.00,58.00,30.90,35.69,330.00,21.00,0.00,29.93,1011.10,10.00,31.00,FEW,M,M,M,8500.00,M,M,M,M,M,M,M,36.00,340.00,2022-03-29 23:20,57.90,KTPH 292356Z AUTO 33021G31KT 10SM FEW085 14/M01 A2993 RMK AO2 PK WND 34036/2320 SLP111 T01441006 10156 20106 53004,M
WMC,2022-03-29 23:56,-117.8072,40.9019,1315.00,62.00,30.90,30.73,300.00,11.00,0.00,29.96,1012.60,10.00,22.00,FEW,BKN,M,M,6500.00,8500.00,M,M,M,M,M,M,M,M,M,62.10,KWMC 292356Z AUTO 30011G22KT 10SM FEW065 BKN085 17/M01 A2996 RMK AO2 SLP126 T01671006 10167 20111 53004,M
EKO,2022-03-29 23:56,-115.7860,40.8242,1367.00,54.00,28.90,37.89,330.00,11.00,0.00,29.92,1011.80,10.00,20.00,OVC,M,M,M,9000.00,M,M,M,M,M,M,M,M,M,M,54.00,KEKO 292356Z AUTO 33011G20KT 10SM OVC090 12/M02 A2992 RMK AO2 SLP118 T01221017 10133 20106 53008,M
INS,2022-03-29 23:58,-115.6733,36.5872,955.00,64.40,36.00,34.91,280.00,19.00,T,29.80,1007.00,10.00,26.00,FEW,SCT,BKN,M,6000.00,8500.00,11000.00,M,M,M,M,M,27.00,320.00,2022-03-29 23:26,64.40,KINS 292358Z AUTO 28019G26KT 10SM FEW060 SCT085 BKN110 18/02 A2980 RMK AO2 PK WND 32027/26 RAB28E56 SLP070 P0000 60000 T01800023 10212 20124 55006 $,M
LSV,2022-03-29 23:58,-115.0343,36.2362,570.00,77.00,36.30,22.91,310.00,13.00,0.00,29.73,1005.60,10.00,17.00,BKN,M,M,M,11000.00,M,M,M,M,M,M,M,M,M,M,77.00,KLSV 292358Z AUTO 31013G17KT 10SM BKN110 25/02 A2973 RMK AO2 SLP056 T02500024 10256 20179 57012 $,M
