station,valid,lon,lat,elevation,tmpf,dwpf,relh,drct,sknt,p01i,alti,mslp,vsby,gust,skyc1,skyc2,skyc3,skyc4,skyl1,skyl2,skyl3,skyl4,wxcodes,ice_accretion_1hr,ice_accretion_3hr,ice_accretion_6hr,peak_wind_gust,peak_wind_drct,peak_wind_time,feel,metar,snowdepth
10U,2023-12-22 00:00,-116.1876,41.9532,1637.00,46.40,33.80,61.28,140.00,6.00,0.00,30.15,M,10.00,M,CLR,M,M,M,M,M,M,M,M,M,M,M,M,M,M,42.87,K10U 220000Z AUTO 14006KT 10SM CLR 08/01 A3015 RMK AO2,M
05U,2023-12-22 00:10,-116.0051,39.6042,1811.23,44.60,32.00,61.03,0.00,0.00,0.00,30.18,M,10.00,M,M,M,M,M,M,M,M,M,M,M,M,M,M,M,M,44.60,K05U 220010Z AUTO 00000KT 10SM 07/00 A3018 RMK A01,M
BVU,2023-12-22 00:15,-114.8611,35.9475,671.00,64.40,39.20,39.43,340.00,4.00,0.00,30.03,M,10.00,M,SCT,M,M,M,9000.00,M,M,M,M,M,M,M,M,M,M,64.40,KBVU 220015Z AUTO 34004KT 10SM SCT090 18/04 A3003 RMK AO2,M
CXP,2023-12-22 00:15,-119.7326,39.1923,1431.00,48.20,37.40,66.05,0.00,0.00,0.00,30.13,M,10.00,M,BKN,M,M,M,3500.00,M,M,M,M,M,M,M,M,M,M,48.20,KCXP 220015Z AUTO 00000KT 10SM BKN035 09/03 A3013 RMK AO2,M
RTS,2023-12-22 00:15,-119.8764,39.6682,1539.00,46.40,35.60,65.83,110.00,4.00,0.00,30.12,M,10.00,M,CLR,M,M,M,M,M,M,M,M,M,M,M,M,M,M,44.24,KRTS 220015Z AUTO 11004KT 10SM CLR 08/02 A3012 RMK AO2,M
MEV,2023-12-22 00:15,-119.7500,38.9963,1441.42,44.60,39.20,81.20,230.00,4.00,0.00,30.11,M,9.00,M,FEW,M,M,M,4600.00,M,M,M,-RA,M,M,M,M,M,M,42.13,KMEV 220015Z AUTO 23004KT 9SM -RA FEW046 07/04 A3011 RMK AO2,M
BAM,2023-12-22 00:15,-116.8743,40.5990,1382.36,50.00,35.60,57.52,330.00,4.00,0.00,30.13,M,10.00,M,CLR,M,M,M,M,M,M,M,M,M,M,M,M,M,M,50.00,KBAM 220015Z AUTO 33004KT 10SM CLR 10/02 A3013 RMK AO1,M
HTH,2023-12-22 00:15,-118.6315,38.5448,1282.89,53.60,35.60,50.36,150.00,9.00,0.00,30.09,M,10.00,M,BKN,M,M,M,7000.00,M,M,M,M,M,M,M,M,M,M,53.60,KHTH 220015Z AUTO 15009KT 10SM BKN070 12/02 A3009 RMK A01,M
TMT,2023-12-22 00:15,-117.1971,39.4643,1749.34,45.00,33.00,62.58,0.00,0.00,0.00,30.15,M,10.00,M,SCT,M,M,M,7000.00,M,M,M,M,M,M,M,M,M,M,45.00,KTMT 220015Z AUTO 00000KT 10SM SCT070 07/01 A3015 RMK AO2 T00730005,M
10U,2023-12-22 00:20,-116.1876,41.9532,1637.00,42.80,33.80,70.28,130.00,6.00,0.00,30.15,M,10.00,M,CLR,M,M,M,M,M,M,M,M,M,M,M,M,M,M,38.54,K10U 220020Z AUTO 13006KT 10SM CLR 06/01 A3015 RMK AO2,M
05U,2023-12-22 00:30,-116.0051,39.6042,1811.23,44.60,32.00,61.03,0.00,0.00,0.00,30.18,M,10.00,M,M,M,M,M,M,M,M,M,M,M,M,M,M,M,M,44.60,K05U 220030Z AUTO 00000KT 10SM 07/00 A3018 RMK A01,M
BVU,2023-12-22 00:35,-114.8611,35.9475,671.00,64.40,37.40,36.74,310.00,5.00,0.00,30.03,M,10.00,M,FEW,M,M,M,9000.00,M,M,M,M,M,M,M,M,M,M,64.40,KBVU 220035Z AUTO 31005KT 10SM FEW090 18/03 A3003 RMK AO2,M
CXP,2023-12-22 00:35,-119.7326,39.1923,1431.00,48.20,39.20,70.88,0.00,0.00,0.00,30.13,M,10.00,M,BKN,OVC,M,M,3500.00,4400.00,M,M,M,M,M,M,M,M,M,48.20,KCXP 220035Z AUTO 00000KT 10SM BKN035 OVC044 09/04 A3013 RMK AO2,M
RTS,2023-12-22 00:35,-119.8764,39.6682,1539.00,44.60,35.60,70.48,130.00,3.00,0.00,30.12,M,10.00,M,CLR,M,M,M,M,M,M,M,M,M,M,M,M,M,M,43.09,KRTS 220035Z AUTO 13003KT 10SM CLR 07/02 A3012 RMK AO2,M
MEV,2023-12-22 00:35,-119.7500,38.9963,1441.42,42.80,39.20,86.99,240.00,3.00,0.00,30.12,M,10.00,M,BKN,M,M,M,5500.00,M,M,M,M,M,M,M,M,M,M,41.03,KMEV 220035Z AUTO 24003KT 10SM BKN055 06/04 A3012 RMK AO2,M
BAM,2023-12-22 00:35,-116.8743,40.5990,1382.36,48.20,35.60,61.52,340.00,3.00,0.00,30.13,M,10.00,M,CLR,M,M,M,M,M,M,M,M,M,M,M,M,M,M,47.21,KBAM 220035Z AUTO 34003KT 10SM CLR 09/02 A3013 RMK AO1,M
HTH,2023-12-22 00:35,-118.6315,38.5448,1282.89,51.80,35.60,53.81,150.00,9.00,0.00,30.09,M,10.00,M,SCT,SCT,M,M,7000.00,8000.00,M,M,M,M,M,M,M,M,M,51.80,KHTH 220035Z AUTO 15009KT 10SM SCT070 SCT080 11/02 A3009 RMK A01,M
TMT,2023-12-22 00:35,-117.1971,39.4643,1749.34,43.50,32.00,63.65,0.00,0.00,0.00,30.15,M,10.00,M,SCT,BKN,M,M,5500.00,7000.00,M,M,M,M,M,M,M,M,M,43.50,KTMT 220035Z AUTO 00000KT 10SM SCT055 BKN070 06/00 A3015 RMK AO2 T00640000,M
10U,2023-12-22 00:40,-116.1876,41.9532,1637.00,41.00,32.00,70.08,120.00,7.00,0.00,30.15,M,10.00,M,CLR,M,M,M,M,M,M,M,M,M,M,M,M,M,M,35.75,K10U 220040Z AUTO 12007KT 10SM CLR 05/00 A3015 RMK AO2,M
P68,2023-12-22 00:53,-116.0056,39.6014,1993.00,40.00,31.00,69.97,100.00,4.00,0.00,30.16,1021.60,M,M,M,M,M,M,M,M,M,M,M,M,M,M,M,M,M,36.76,KP68 220053Z AUTO 10004KT 04/M01 A3016 RMK AO1 SLP216 T00441006,M
DRA,2023-12-22 00:53,-116.0278,36.6206,1009.00,M,M,M,M,M,0.00,30.05,M,M,M,M,M,M,M,M,M,M,M,M,M,M,M,M,M,M,M,KDRA 220053Z AUTO A3005 RMK AO2 SLPNO PWINO $,M
ELY,2023-12-22 00:53,-114.8453,39.2950,1909.00,42.00,30.00,62.18,M,M,0.00,30.18,1021.30,10.00,M,OVC,M,M,M,6500.00,M,M,M,M,M,M,M,M,M,M,M,KELY 220053Z AUTO 10SM OVC065 06/M01 A3018 RMK AO2 SLP213 T00561011,M
VGT,2023-12-22 00:53,-115.1933,36.2111,667.00,65.00,40.00,39.83,0.00,0.00,0.00,30.03,1017.90,10.00,M,FEW,M,M,M,9500.00,M,M,M,M,M,M,M,M,M,M,65.00,KVGT 220053Z 00000KT 10SM FEW095 18/04 A3003 RMK AO2 SLP179 T01830044,M
LOL,2023-12-22 00:53,-118.5701,40.0684,1192.43,49.00,34.00,56.02,0.00,0.00,0.00,30.10,1020.20,10.00,M,CLR,M,M,M,M,M,M,M,M,M,M,M,M,M,M,49.00,KLOL 220053Z AUTO 00000KT 10SM CLR 09/01 A3010 RMK AO2 SLP202 T00940011,M
BVU,2023-12-22 00:55,-114.8611,35.9475,671.00,64.40,37.40,36.74,0.00,0.00,0.00,30.03,M,10.00,M,FEW,M,M,M,8000.00,M,M,M,M,M,M,M,M,M,M,64.40,KBVU 220055Z AUTO 00000KT 10SM FEW080 18/03 A3003 RMK AO2,M
CXP,2023-12-22 00:55,-119.7326,39.1923,1431.00,46.40,37.40,70.68,0.00,0.00,0.00,30.13,M,10.00,M,BKN,OVC,M,M,3500.00,4500.00,M,M,M,M,M,M,M,M,M,46.40,KCXP 220055Z AUTO 00000KT 10SM BKN035 OVC045 08/03 A3013 RMK AO2,M
INS,2023-12-22 00:55,-115.6733,36.5872,955.00,58.60,37.00,44.41,130.00,10.00,0.00,30.06,1016.30,10.00,M,FEW,M,M,M,8500.00,M,M,M,M,M,M,M,M,M,M,58.60,KINS 220055Z AUTO 13010KT 10SM FEW085 15/03 A3006 RMK AO2 SLP163 T01480027 $,M
RNO,2023-12-22 00:55,-119.7711,39.4839,1341.00,49.00,37.00,63.10,260.00,5.00,0.00,30.11,1018.70,10.00,M,FEW,BKN,M,M,4500.00,20000.00,M,M,M,M,M,M,M,M,M,46.58,KRNO 220055Z 26005KT 10SM FEW045 BKN200 09/03 A3011 RMK AO2 SLP187 T00940028,M
RTS,2023-12-22 00:55,-119.8764,39.6682,1539.00,44.60,35.60,70.48,0.00,0.00,0.00,30.12,M,10.00,M,CLR,M,M,M,M,M,M,M,M,M,M,M,M,M,M,44.60,KRTS 220055Z AUTO 00000KT 10SM CLR 07/02 A3012 RMK AO2,M
05U,2023-12-22 00:55,-116.0051,39.6042,1811.23,41.00,30.20,65.16,260.00,3.00,0.00,30.19,M,10.00,M,M,M,M,M,M,M,M,M,M,M,M,M,M,M,M,38.98,K05U 220055Z AUTO 26003KT 10SM 05/M01 A3019 RMK A01,M
MEV,2023-12-22 00:55,-119.7500,38.9963,1441.42,44.60,39.20,81.20,0.00,0.00,0.00,30.12,M,10.00,M,FEW,SCT,OVC,M,3200.00,4000.00,5000.00,M,M,M,M,M,M,M,M,44.60,KMEV 220055Z AUTO 00000KT 10SM FEW032 SCT040 OVC050 07/04 A3012 RMK AO2,M
BAM,2023-12-22 00:55,-116.8743,40.5990,1382.36,46.40,35.60,65.83,340.00,3.00,0.00,30.14,M,10.00,M,CLR,M,M,M,M,M,M,M,M,M,M,M,M,M,M,45.15,KBAM 220055Z AUTO 34003KT 10SM CLR 08/02 A3014 RMK AO1,M
HTH,2023-12-22 00:55,-118.6315,38.5448,1282.89,50.00,35.60,57.52,160.00,9.00,0.00,30.10,M,10.00,M,CLR,M,M,M,M,M,M,M,M,M,M,M,M,M,M,50.00,KHTH 220055Z AUTO 16009KT 10SM CLR 10/02 A3010 RMK A01,M
LSV,2023-12-22 00:55,-115.0343,36.2362,570.00,64.60,37.80,37.06,80.00,7.00,0.00,30.00,1014.90,10.00,M,BKN,M,M,M,10000.00,M,M,M,M,M,M,M,M,M,M,64.60,KLSV 220055Z AUTO 08007KT 10SM BKN100 18/03 A3000 RMK AO2 SLP149 T01810032 $,M
TMT,2023-12-22 00:55,-117.1971,39.4643,1749.34,42.00,32.40,68.52,0.00,0.00,0.00,30.15,M,10.00,M,OVC,M,M,M,7000.00,M,M,M,M,M,M,M,M,M,M,42.00,KTMT 220055Z AUTO 00000KT 10SM OVC070 06/00 A3015 RMK AO2 T00560002,M
EKO,2023-12-22 00:56,-115.7860,40.8242,1367.00,37.00,32.00,81.93,0.00,0.00,0.00,30.16,1023.00,10.00,M,CLR,M,M,M,M,M,M,M,M,M,M,M,M,M,M,37.00,KEKO 220056Z AUTO 00000KT 10SM CLR 03/00 A3016 RMK AO2 SLP230 T00280000 PWINO $,M
WMC,2023-12-22 00:56,-117.8072,40.9019,1315.00,46.00,33.00,60.25,70.00,7.00,0.00,30.11,1020.40,10.00,M,CLR,M,M,M,M,M,M,M,M,M,M,M,M,M,M,41.84,KWMC 220056Z AUTO 07007KT 10SM CLR 08/01 A3011 RMK AO2 SLP204 T00780006,M
HND,2023-12-22 00:56,-115.1344,35.9729,742.79,61.00,40.00,45.85,0.00,0.00,0.00,30.07,1019.30,10.00,M,OVC,M,M,M,7500.00,M,M,M,M,M,M,M,M,M,M,61.00,KHND 220056Z 00000KT 10SM OVC075 16/04 A3007 RMK AO2 SLP193 T01610044,M
TPH,2023-12-22 00:56,-117.0904,38.0505,1654.00,46.00,39.00,76.40,0.00,0.00,0.00,30.14,1019.30,10.00,M,OVC,M,M,M,7000.00,M,M,M,M,M,M,M,M,M,M,46.00,KTPH 220056Z AUTO 00000KT 10SM OVC070 08/04 A3014 RMK AO2 SLP193 T00780039,M
LAS,2023-12-22 00:56,-115.1634,36.0719,663.00,65.00,40.00,39.83,20.00,5.00,0.00,30.04,1016.30,10.00,M,FEW,SCT,BKN,M,8000.00,18000.00,22000.00,M,M,M,M,M,M,M,M,65.00,KLAS 220056Z 02005KT 10SM FEW080 SCT180 BKN220 18/04 A3004 RMK AO2 SLP163 T01830044,M
NFL,2023-12-22 00:56,-118.7010,39.4166,1199.00,47.00,33.00,58.01,20.00,6.00,0.00,30.09,1015.60,10.00,M,BKN,BKN,BKN,BKN,5000.00,8000.00,12000.00,25000.00,M,M,M,M,M,M,M,43.60,KNFL 220056Z 02006KT 10SM BKN050 BKN080 BKN120 BKN250 08/01 A3009 RMK AO2 SLP156 T00830006,M
10U,2023-12-22 01:00,-116.1876,41.9532,1637.00,41.00,32.00,70.08,130.00,9.00,0.00,30.16,M,10.00,M,CLR,M,M,M,M,M,M,M,M,M,M,M,M,M,M,34.70,K10U 220100Z AUTO 13009KT 10SM CLR 05/00 A3016 RMK AO2,M
05U,2023-12-22 01:10,-116.0051,39.6042,1811.23,41.00,32.00,70.08,0.00,0.00,0.00,30.19,M,10.00,M,M,M,M,M,M,M,M,M,M,M,M,M,M,M,M,41.00,K05U 220110Z AUTO 00000KT 10SM 05/M00 A3019 RMK A01,M
BVU,2023-12-22 01:15,-114.8611,35.9475,671.00,62.60,39.20,42.00,0.00,0.00,0.00,30.04,M,10.00,M,CLR,M,M,M,M,M,M,M,M,M,M,M,M,M,M,62.60,KBVU 220115Z AUTO 00000KT 10SM CLR 17/04 A3004 RMK AO2,M
CXP,2023-12-22 01:15,-119.7326,39.1923,1431.00,46.40,37.40,70.68,0.00,0.00,0.00,30.13,M,10.00,M,FEW,BKN,OVC,M,3500.00,4600.00,5500.00,M,M,M,M,M,M,M,M,46.40,KCXP 220115Z AUTO 00000KT 10SM FEW035 BKN046 OVC055 08/03 A3013 RMK AO2,M
RTS,2023-12-22 01:15,-119.8764,39.6682,1539.00,41.00,35.60,80.93,0.00,0.00,0.00,30.13,M,10.00,M,CLR,M,M,M,M,M,M,M,M,M,M,M,M,M,M,41.00,KRTS 220115Z AUTO 00000KT 10SM CLR 05/02 A3013 RMK AO2,M
MEV,2023-12-22 01:15,-119.7500,38.9963,1441.42,42.80,39.20,86.99,0.00,0.00,0.00,30.12,M,10.00,M,BKN,BKN,OVC,M,3200.00,4000.00,5000.00,M,M,M,M,M,M,M,M,42.80,KMEV 220115Z AUTO 00000KT 10SM BKN032 BKN040 OVC050 06/04 A3012 RMK AO2,M
BAM,2023-12-22 01:15,-116.8743,40.5990,1382.36,44.60,33.80,65.61,350.00,3.00,0.00,30.14,M,10.00,M,CLR,M,M,M,M,M,M,M,M,M,M,M,M,M,M,43.09,KBAM 220115Z AUTO 35003KT 10SM CLR 07/01 A3014 RMK AO1,M
HTH,2023-12-22 01:15,-118.6315,38.5448,1282.89,48.20,33.80,57.26,160.00,8.00,0.00,30.10,M,10.00,M,CLR,M,M,M,M,M,M,M,M,M,M,M,M,M,M,44.07,KHTH 220115Z AUTO 16008KT 10SM CLR 09/01 A3010 RMK A01,M
TMT,2023-12-22 01:15,-117.1971,39.4643,1749.34,38.50,32.00,77.24,320.00,4.00,0.00,30.15,M,10.00,M,OVC,M,M,M,7000.00,M,M,M,M,M,M,M,M,M,M,35.01,KTMT 220115Z AUTO 32004KT 10SM OVC070 04/00 A3015 RMK AO2 T00361001,M
10U,2023-12-22 01:20,-116.1876,41.9532,1637.00,39.20,32.00,75.16,120.00,5.00,0.00,30.16,M,10.00,M,CLR,M,M,M,M,M,M,M,M,M,M,M,M,M,M,34.95,K10U 220120Z AUTO 12005KT 10SM CLR 04/00 A3016 RMK AO2,M
05U,2023-12-22 01:30,-116.0051,39.6042,1811.23,39.20,30.20,69.88,0.00,0.00,0.00,30.19,M,10.00,M,M,M,M,M,M,M,M,M,M,M,M,M,M,M,M,39.20,K05U 220130Z AUTO 00000KT 10SM 04/M01 A3019 RMK A01,M
BVU,2023-12-22 01:35,-114.8611,35.9475,671.00,62.60,39.20,42.00,0.00,0.00,0.00,30.04,M,10.00,M,CLR,M,M,M,M,M,M,M,M,M,M,M,M,M,M,62.60,KBVU 220135Z AUTO 00000KT 10SM CLR 17/04 A3004 RMK AO2,M
CXP,2023-12-22 01:35,-119.7326,39.1923,1431.00,46.40,37.40,70.68,0.00,0.00,0.00,30.13,M,10.00,M,FEW,BKN,OVC,M,4800.00,5500.00,6500.00,M,M,M,M,M,M,M,M,46.40,KCXP 220135Z AUTO 00000KT 10SM FEW048 BKN055 OVC065 08/03 A3013 RMK AO2,M
RTS,2023-12-22 01:35,-119.8764,39.6682,1539.00,39.20,33.80,80.79,340.00,4.00,0.00,30.13,M,10.00,M,CLR,M,M,M,M,M,M,M,M,M,M,M,M,M,M,35.83,KRTS 220135Z AUTO 34004KT 10SM CLR 04/01 A3013 RMK AO2,M
MEV,2023-12-22 01:35,-119.7500,38.9963,1441.42,42.80,39.20,86.99,180.00,4.00,0.00,30.12,M,10.00,M,OVC,M,M,M,3400.00,M,M,M,M,M,M,M,M,M,M,40.03,KMEV 220135Z AUTO 18004KT 10SM OVC034 06/04 A3012 RMK AO2,M
BAM,2023-12-22 01:35,-116.8743,40.5990,1382.36,41.00,32.00,70.08,50.00,4.00,0.00,30.15,M,10.00,M,CLR,M,M,M,M,M,M,M,M,M,M,M,M,M,M,37.93,KBAM 220135Z AUTO 05004KT 10SM CLR 05/00 A3015 RMK AO1,M
HTH,2023-12-22 01:35,-118.6315,38.5448,1282.89,46.40,33.80,61.28,140.00,11.00,0.00,30.11,M,10.00,M,FEW,M,M,M,5500.00,M,M,M,M,M,M,M,M,M,M,40.66,KHTH 220135Z AUTO 14011KT 10SM FEW055 08/01 A3011 RMK A01,M
TMT,2023-12-22 01:35,-117.1971,39.4643,1749.34,36.30,31.00,80.89,310.00,4.00,0.00,30.15,M,10.00,M,SCT,M,M,M,7000.00,M,M,M,M,M,M,M,M,M,M,32.44,KTMT 220135Z AUTO 31004KT 10SM SCT070 02/M01 A3015 RMK AO2 T00241006,M
10U,2023-12-22 01:40,-116.1876,41.9532,1637.00,39.20,32.00,75.16,130.00,8.00,0.00,30.16,M,10.00,M,CLR,M,M,M,M,M,M,M,M,M,M,M,M,M,M,32.98,K10U 220140Z AUTO 13008KT 10SM CLR 04/00 A3016 RMK AO2,M
HTH,2023-12-22 01:50,-118.6315,38.5448,1282.89,44.60,33.80,65.61,170.00,8.00,0.00,30.11,M,10.00,M,SCT,M,M,M,5000.00,M,M,M,M,M,M,M,M,M,M,39.63,KHTH 220150Z AUTO 17008KT 10SM SCT050 07/01 A3011 RMK A01,M
05U,2023-12-22 01:50,-116.0051,39.6042,1811.23,35.60,30.20,80.51,320.00,4.00,0.00,30.20,M,10.00,M,M,M,M,M,M,M,M,M,M,M,M,M,M,M,M,31.62,K05U 220150Z AUTO 32004KT 10SM 02/M01 A3020 RMK A01,M
CXP,2023-12-22 01:50,-119.7326,39.1923,1431.00,44.60,37.40,75.68,0.00,0.00,0.00,30.13,M,10.00,M,BKN,OVC,M,M,6000.00,7000.00,M,M,M,M,M,M,M,M,M,44.60,KCXP 220150Z AUTO 00000KT 10SM BKN060 OVC070 07/03 A3013 RMK AO2,M
P68,2023-12-22 01:53,-116.0056,39.6014,1993.00,37.00,30.00,75.56,160.00,4.00,0.00,30.17,1022.30,M,M,M,M,M,M,M,M,M,M,M,M,M,M,M,M,M,33.26,KP68 220153Z AUTO 16004KT 03/M01 A3017 RMK AO1 SLP223 T00281011,M
DRA,2023-12-22 01:53,-116.0278,36.6206,1009.00,M,M,M,M,M,0.00,30.06,M,M,M,M,M,M,M,M,M,M,M,M,M,M,M,M,M,M,M,KDRA 220153Z AUTO A3006 RMK AO2 SLPNO PWINO $,M
ELY,2023-12-22 01:53,-114.8453,39.2950,1909.00,35.00,27.00,72.32,M,M,0.00,30.19,1023.50,10.00,M,CLR,M,M,M,M,M,M,M,M,M,M,M,M,M,M,M,KELY 220153Z AUTO 10SM CLR 02/M03 A3019 RMK AO2 SLP235 T00171028,M
VGT,2023-12-22 01:53,-115.1933,36.2111,667.00,64.00,40.00,41.25,260.00,4.00,0.00,30.04,1018.30,10.00,M,OVC,M,M,M,9500.00,M,M,M,M,M,M,M,M,M,M,64.00,KVGT 220153Z 26004KT 10SM OVC095 18/04 A3004 RMK AO2 SLP183 T01780044,M
LOL,2023-12-22 01:53,-118.5701,40.0684,1192.43,43.00,32.00,64.88,30.00,6.00,0.00,30.10,1021.10,10.00,M,CLR,M,M,M,M,M,M,M,M,M,M,M,M,M,M,38.78,KLOL 220153Z AUTO 03006KT 10SM CLR 06/00 A3010 RMK AO2 SLP211 T00610000,M
BVU,2023-12-22 01:55,-114.8611,35.9475,671.00,60.80,39.20,44.76,0.00,0.00,0.00,30.04,M,10.00,M,CLR,M,M,M,M,M,M,M,M,M,M,M,M,M,M,60.80,KBVU 220155Z AUTO 00000KT 10SM CLR 16/04 A3004 RMK AO2,M
INS,2023-12-22 01:55,-115.6733,36.5872,955.00,53.40,35.80,51.14,130.00,4.00,0.00,30.07,1016.90,10.00,M,CLR,M,M,M,M,M,M,M,M,M,M,M,M,M,M,53.40,KINS 220155Z AUTO 13004KT 10SM CLR 12/02 A3007 RMK AO2 SLP169 T01190021 $,M
RNO,2023-12-22 01:55,-119.7711,39.4839,1341.00,45.00,37.00,73.37,0.00,0.00,0.00,30.11,1019.10,10.00,M,SCT,M,M,M,20000.00,M,M,M,M,M,M,M,M,M,M,45.00,KRNO 220155Z 00000KT 10SM SCT200 07/03 A3011 RMK AO2 SLP191 T00720028,M
RTS,2023-12-22 01:55,-119.8764,39.6682,1539.00,37.40,32.00,80.65,350.00,3.00,0.00,30.12,M,10.00,M,CLR,M,M,M,M,M,M,M,M,M,M,M,M,M,M,34.86,KRTS 220155Z AUTO 35003KT 10SM CLR 03/00 A3012 RMK AO2,M
MEV,2023-12-22 01:55,-119.7500,38.9963,1441.42,41.00,39.20,93.24,160.00,5.00,0.00,30.12,M,10.00,M,OVC,M,M,M,3500.00,M,M,M,M,M,M,M,M,M,M,37.08,KMEV 220155Z AUTO 16005KT 10SM OVC035 05/04 A3012 RMK AO2,M
BAM,2023-12-22 01:55,-116.8743,40.5990,1382.36,41.00,33.80,75.33,40.00,4.00,0.00,30.15,M,10.00,M,CLR,M,M,M,M,M,M,M,M,M,M,M,M,M,M,37.93,KBAM 220155Z AUTO 04004KT 10SM CLR 05/01 A3015 RMK AO1,M
LSV,2023-12-22 01:55,-115.0343,36.2362,570.00,64.20,38.00,37.88,50.00,4.00,0.00,30.01,1015.30,10.00,M,OVC,M,M,M,8500.00,M,M,M,M,M,M,M,M,M,M,64.20,KLSV 220155Z AUTO 05004KT 10SM OVC085 18/03 A3001 RMK AO2 SLP153 T01790034 $,M
TMT,2023-12-22 01:55,-117.1971,39.4643,1749.34,35.60,30.20,80.51,330.00,4.00,0.00,30.16,M,10.00,M,SCT,M,M,M,7000.00,M,M,M,M,M,M,M,M,M,M,31.62,KTMT 220155Z AUTO 33004KT 10SM SCT070 02/M01 A3016 RMK AO2 T00201010,M
EKO,2023-12-22 01:56,-115.7860,40.8242,1367.00,32.00,30.00,92.22,230.00,4.00,0.00,30.17,1023.90,10.00,M,CLR,M,M,M,M,M,M,M,M,M,M,M,M,M,M,27.42,KEKO 220156Z AUTO 23004KT 10SM CLR 00/M01 A3017 RMK AO2 SLP239 T00001011 PWINO FZRANO $,M
WMC,2023-12-22 01:56,-117.8072,40.9019,1315.00,35.00,28.00,75.36,0.00,0.00,0.00,30.12,1021.50,10.00,M,CLR,M,M,M,M,M,M,M,M,M,M,M,M,M,M,35.00,KWMC 220156Z AUTO 00000KT 10SM CLR 02/M02 A3012 RMK AO2 SLP215 T00171022,M
NFL,2023-12-22 01:56,-118.7010,39.4166,1199.00,45.00,33.00,62.58,40.00,6.00,0.00,30.10,1015.80,10.00,M,BKN,BKN,BKN,BKN,5000.00,8000.00,12000.00,25000.00,M,M,M,M,M,M,M,41.19,KNFL 220156Z 04006KT 10SM BKN050 BKN080 BKN120 BKN250 07/01 A3010 RMK AO2 SLP158 T00720006,M
HND,2023-12-22 01:56,-115.1344,35.9729,742.79,60.00,40.00,47.51,160.00,5.00,0.00,30.08,1019.80,10.00,M,OVC,M,M,M,7000.00,M,M,M,M,M,M,M,M,M,M,60.00,KHND 220156Z 16005KT 10SM OVC070 16/04 A3008 RMK AO2 SLP198 T01560044,M
TPH,2023-12-22 01:56,-117.0904,38.0505,1654.00,44.00,37.00,76.22,30.00,5.00,0.00,30.14,1019.70,10.00,M,BKN,M,M,M,4600.00,M,M,M,M,M,M,M,M,M,M,40.65,KTPH 220156Z AUTO 03005KT 10SM BKN046 07/03 A3014 RMK AO2 SLP197 T00670028,M
LAS,2023-12-22 01:56,-115.1634,36.0719,663.00,65.00,40.00,39.83,0.00,0.00,0.00,30.05,1016.50,10.00,M,FEW,BKN,BKN,BKN,7000.00,9000.00,18000.00,22000.00,M,M,M,M,M,M,M,65.00,KLAS 220156Z 00000KT 10SM FEW070 BKN090 BKN180 BKN220 18/04 A3005 RMK AO2 SLP165 T01830044,M
10U,2023-12-22 02:00,-116.1876,41.9532,1637.00,39.20,32.00,75.16,130.00,7.00,0.00,30.16,M,10.00,M,CLR,M,M,M,M,M,M,M,M,M,M,M,M,M,M,33.56,K10U 220200Z AUTO 13007KT 10SM CLR 04/00 A3016 RMK AO2,M
05U,2023-12-22 02:10,-116.0051,39.6042,1811.23,33.80,28.40,80.36,10.00,3.00,0.00,30.19,M,10.00,M,M,M,M,M,M,M,M,M,M,M,M,M,M,M,M,30.75,K05U 220210Z AUTO 01003KT 10SM 01/M02 A3019 RMK A01,M
BVU,2023-12-22 02:15,-114.8611,35.9475,671.00,60.80,39.20,44.76,0.00,0.00,0.00,30.05,M,10.00,M,SCT,M,M,M,8500.00,M,M,M,M,M,M,M,M,M,M,60.80,KBVU 220215Z AUTO 00000KT 10SM SCT085 16/04 A3005 RMK AO2,M
CXP,2023-12-22 02:15,-119.7326,39.1923,1431.00,42.80,37.40,81.07,0.00,0.00,0.00,30.13,M,10.00,M,FEW,M,M,M,7000.00,M,M,M,M,M,M,M,M,M,M,42.80,KCXP 220215Z AUTO 00000KT 10SM FEW070 06/03 A3013 RMK AO2,M
RTS,2023-12-22 02:15,-119.8764,39.6682,1539.00,33.80,30.20,86.49,360.00,5.00,0.00,30.12,M,10.00,M,CLR,M,M,M,M,M,M,M,M,M,M,M,M,M,M,28.53,KRTS 220215Z AUTO 36005KT 10SM CLR 01/M01 A3012 RMK AO2,M
MEV,2023-12-22 02:15,-119.7500,38.9963,1441.42,41.00,39.20,93.24,160.00,4.00,0.00,30.12,M,10.00,M,SCT,SCT,OVC,M,3500.00,4400.00,6000.00,M,M,M,M,M,M,M,M,37.93,KMEV 220215Z AUTO 16004KT 10SM SCT035 SCT044 OVC060 05/04 A3012 RMK AO2,M
BAM,2023-12-22 02:15,-116.8743,40.5990,1382.36,39.20,32.00,75.16,50.00,5.00,0.00,30.15,M,10.00,M,CLR,M,M,M,M,M,M,M,M,M,M,M,M,M,M,34.95,KBAM 220215Z AUTO 05005KT 10SM CLR 04/00 A3015 RMK AO1,M
HTH,2023-12-22 02:15,-118.6315,38.5448,1282.89,46.40,33.80,61.28,180.00,8.00,0.00,30.11,M,10.00,M,SCT,M,M,M,5000.00,M,M,M,M,M,M,M,M,M,M,41.85,KHTH 220215Z AUTO 18008KT 10SM SCT050 08/01 A3011 RMK A01,M
TMT,2023-12-22 02:15,-117.1971,39.4643,1749.34,33.00,29.00,85.04,0.00,0.00,0.00,30.16,M,10.00,M,CLR,M,M,M,M,M,M,M,M,M,M,M,M,M,M,33.00,KTMT 220215Z AUTO 00000KT 10SM CLR 01/M02 A3016 RMK AO2 T00061017,M
10U,2023-12-22 02:20,-116.1876,41.9532,1637.00,37.40,32.00,80.65,130.00,8.00,0.00,30.16,M,10.00,M,CLR,M,M,M,M,M,M,M,M,M,M,M,M,M,M,30.76,K10U 220220Z AUTO 13008KT 10SM CLR 03/00 A3016 RMK AO2,M
05U,2023-12-22 02:30,-116.0051,39.6042,1811.23,35.60,30.20,80.51,340.00,4.00,0.00,30.19,M,10.00,M,M,M,M,M,M,M,M,M,M,M,M,M,M,M,M,31.62,K05U 220230Z AUTO 34004KT 10SM 02/M01 A3019 RMK A01,M
BVU,2023-12-22 02:35,-114.8611,35.9475,671.00,59.00,39.20,47.72,320.00,4.00,0.00,30.04,M,10.00,M,FEW,M,M,M,8500.00,M,M,M,M,M,M,M,M,M,M,59.00,KBVU 220235Z AUTO 32004KT 10SM FEW085 15/04 A3004 RMK AO2,M
CXP,2023-12-22 02:35,-119.7326,39.1923,1431.00,42.80,37.40,81.07,0.00,0.00,0.00,30.13,M,10.00,M,CLR,M,M,M,M,M,M,M,M,M,M,M,M,M,M,42.80,KCXP 220235Z AUTO 00000KT 10SM CLR 06/03 A3013 RMK AO2,M
RTS,2023-12-22 02:35,-119.8764,39.6682,1539.00,32.00,30.20,92.97,360.00,3.00,0.00,30.12,M,10.00,M,CLR,M,M,M,M,M,M,M,M,M,M,M,M,M,M,28.69,KRTS 220235Z AUTO 36003KT 10SM CLR 00/M01 A3012 RMK AO2,M
MEV,2023-12-22 02:35,-119.7500,38.9963,1441.42,39.20,39.20,100.00,100.00,3.00,0.00,30.12,M,10.00,M,SCT,OVC,M,M,4700.00,6000.00,M,M,M,M,M,M,M,M,M,36.92,KMEV 220235Z AUTO 10003KT 10SM SCT047 OVC060 04/04 A3012 RMK AO2,M
BAM,2023-12-22 02:35,-116.8743,40.5990,1382.36,39.20,32.00,75.16,30.00,6.00,0.00,30.14,M,10.00,M,CLR,M,M,M,M,M,M,M,M,M,M,M,M,M,M,34.20,KBAM 220235Z AUTO 03006KT 10SM CLR 04/00 A3014 RMK AO1,M
HTH,2023-12-22 02:35,-118.6315,38.5448,1282.89,46.40,33.80,61.28,170.00,9.00,0.00,30.11,M,10.00,M,FEW,M,M,M,5000.00,M,M,M,M,M,M,M,M,M,M,41.42,KHTH 220235Z AUTO 17009KT 10SM FEW050 08/01 A3011 RMK A01,M
TMT,2023-12-22 02:35,-117.1971,39.4643,1749.34,32.00,28.00,84.98,0.00,0.00,0.00,30.16,M,10.00,M,CLR,M,M,M,M,M,M,M,M,M,M,M,M,M,M,32.00,KTMT 220235Z AUTO 00000KT 10SM CLR 00/M02 A3016 RMK AO2 T00001023,M
10U,2023-12-22 02:40,-116.1876,41.9532,1637.00,37.40,32.00,80.65,130.00,7.00,0.00,30.16,M,10.00,M,CLR,M,M,M,M,M,M,M,M,M,M,M,M,M,M,31.36,K10U 220240Z AUTO 13007KT 10SM CLR 03/00 A3016 RMK AO2,M
05U,2023-12-22 02:50,-116.0051,39.6042,1811.23,35.60,30.20,80.51,330.00,4.00,0.00,30.19,M,10.00,M,M,M,M,M,M,M,M,M,M,M,M,M,M,M,M,31.62,K05U 220250Z AUTO 33004KT 10SM 02/M01 A3019 RMK A01,M
P68,2023-12-22 02:53,-116.0056,39.6014,1993.00,35.00,30.00,81.78,180.00,6.00,0.00,30.16,1022.10,M,M,M,M,M,M,M,M,M,M,M,M,M,M,M,M,M,29.14,KP68 220253Z AUTO 18006KT 02/M01 A3016 RMK AO1 SLP221 T00171011 50003,M
DRA,2023-12-22 02:53,-116.0278,36.6206,1009.00,M,M,M,M,M,0.00,30.06,M,M,M,M,M,M,M,M,M,M,M,M,M,M,M,M,M,M,M,KDRA 220253Z AUTO A3006 RMK AO2 SLPNO 52003 PWINO $,M
ELY,2023-12-22 02:53,-114.8453,39.2950,1909.00,35.00,27.00,72.32,M,M,0.00,30.19,1023.60,10.00,M,FEW,M,M,M,6000.00,M,M,M,M,M,M,M,M,M,M,M,KELY 220253Z AUTO 10SM FEW060 02/M03 A3019 RMK AO2 SLP236 T00171028 51005,M
VGT,2023-12-22 02:53,-115.1933,36.2111,667.00,62.00,40.00,44.25,210.00,3.00,0.00,30.05,1018.50,10.00,M,FEW,M,M,M,10000.00,M,M,M,M,M,M,M,M,M,M,62.00,KVGT 220253Z 21003KT 10SM FEW100 17/04 A3005 RMK AO2 SLP185 T01670044 53002,M
LOL,2023-12-22 02:53,-118.5701,40.0684,1192.43,35.00,27.00,72.32,0.00,0.00,0.00,30.10,1021.60,10.00,M,CLR,M,M,M,M,M,M,M,M,M,M,M,M,M,M,35.00,KLOL 220253Z AUTO 00000KT 10SM CLR 02/M03 A3010 RMK AO2 SLP216 T00171028 53002,M
BVU,2023-12-22 02:55,-114.8611,35.9475,671.00,59.00,39.20,47.72,360.00,7.00,0.00,30.04,M,10.00,M,FEW,M,M,M,8500.00,M,M,M,M,M,M,M,M,M,M,59.00,KBVU 220255Z AUTO 36007KT 10SM FEW085 15/04 A3004 RMK AO2,M
CXP,2023-12-22 02:55,-119.7326,39.1923,1431.00,41.00,35.60,80.93,0.00,0.00,0.00,30.13,M,10.00,M,CLR,M,M,M,M,M,M,M,M,M,M,M,M,M,M,41.00,KCXP 220255Z AUTO 00000KT 10SM CLR 05/02 A3013 RMK AO2,M
INS,2023-12-22 02:55,-115.6733,36.5872,955.00,56.00,37.20,49.16,130.00,4.00,0.00,30.07,1016.90,10.00,M,BKN,M,M,M,9500.00,M,M,M,M,M,M,M,M,M,M,56.00,KINS 220255Z AUTO 13004KT 10SM BKN095 13/03 A3007 RMK AO2 SLP169 T01340029 52006 $,M
RNO,2023-12-22 02:55,-119.7711,39.4839,1341.00,44.00,36.00,73.27,280.00,4.00,0.00,30.10,1019.30,10.00,M,SCT,M,M,M,20000.00,M,M,M,M,M,M,M,M,M,M,41.43,KRNO 220255Z 28004KT 10SM SCT200 07/02 A3010 RMK AO2 SLP193 T00670022 50001,M
RTS,2023-12-22 02:55,-119.8764,39.6682,1539.00,33.80,32.00,93.03,0.00,0.00,0.00,30.12,M,10.00,M,CLR,M,M,M,M,M,M,M,M,M,M,M,M,M,M,33.80,KRTS 220255Z AUTO 00000KT 10SM CLR 01/M00 A3012 RMK AO2,M
MEV,2023-12-22 02:55,-119.7500,38.9963,1441.42,37.40,35.60,93.14,90.00,5.00,0.00,30.12,M,10.00,M,FEW,BKN,BKN,M,4500.00,5000.00,6500.00,M,M,M,M,M,M,M,M,32.81,KMEV 220255Z AUTO 09005KT 10SM FEW045 BKN050 BKN065 03/02 A3012 RMK AO2,M
BAM,2023-12-22 02:55,-116.8743,40.5990,1382.36,37.40,32.00,80.65,40.00,4.00,0.00,30.14,M,10.00,M,CLR,M,M,M,M,M,M,M,M,M,M,M,M,M,M,33.73,KBAM 220255Z AUTO 04004KT 10SM CLR 03/00 A3014 RMK AO1,M
HTH,2023-12-22 02:55,-118.6315,38.5448,1282.89,46.40,33.80,61.28,170.00,8.00,0.00,30.11,M,10.00,M,FEW,SCT,SCT,M,5500.00,7500.00,8500.00,M,M,M,M,M,M,M,M,41.85,KHTH 220255Z AUTO 17008KT 10SM FEW055 SCT075 SCT085 08/01 A3011 RMK A01,M
LSV,2023-12-22 02:55,-115.0343,36.2362,570.00,65.00,38.70,37.86,0.00,0.00,0.00,30.02,1015.60,10.00,M,BKN,BKN,M,M,8000.00,10000.00,M,M,M,M,M,M,M,M,M,65.00,KLSV 220255Z AUTO 00000KT 10SM BKN080 BKN100 18/04 A3002 RMK AO2 SLP156 T01830037 53003 $,M
TMT,2023-12-22 02:55,-117.1971,39.4643,1749.34,31.00,27.00,84.92,0.00,0.00,0.00,30.16,M,10.00,M,CLR,M,M,M,M,M,M,M,M,M,M,M,M,M,M,31.00,KTMT 220255Z AUTO 00000KT 10SM CLR M01/M03 A3016 RMK AO2 T10061027,M
EKO,2023-12-22 02:56,-115.7860,40.8242,1367.00,33.00,30.00,88.58,0.00,0.00,0.00,30.17,1023.60,10.00,M,CLR,M,M,M,M,M,M,M,M,M,M,M,M,M,M,33.00,KEKO 220256Z AUTO 00000KT 10SM CLR 01/M01 A3017 RMK AO2 SLP236 T00061011 51004 PWINO FZRANO $,M
WMC,2023-12-22 02:56,-117.8072,40.9019,1315.00,34.00,27.00,75.26,120.00,4.00,0.00,30.12,1021.80,10.00,M,CLR,M,M,M,M,M,M,M,M,M,M,M,M,M,M,29.76,KWMC 220256Z AUTO 12004KT 10SM CLR 01/M03 A3012 RMK AO2 SLP218 T00111028 50004,M
NFL,2023-12-22 02:56,-118.7010,39.4166,1199.00,38.00,30.00,72.64,30.00,8.00,0.00,30.10,1015.80,10.00,M,SCT,SCT,BKN,BKN,5000.00,8000.00,12000.00,25000.00,M,M,M,M,M,M,M,31.50,KNFL 220256Z 03008KT 10SM SCT050 SCT080 BKN120 BKN250 03/M01 A3010 RMK AO2 SLP158 T00331011 51003,M
HND,2023-12-22 02:56,-115.1344,35.9729,742.79,58.00,40.00,51.03,170.00,5.00,0.00,30.08,1019.80,10.00,M,BKN,BKN,M,M,7500.00,9000.00,M,M,M,M,M,M,M,M,M,58.00,KHND 220256Z 17005KT 10SM BKN075 BKN090 14/04 A3008 RMK AO2 SLP198 T01440044 52002,M
TPH,2023-12-22 02:56,-117.0904,38.0505,1654.00,44.00,38.00,79.27,0.00,0.00,0.00,30.15,1019.90,10.00,M,SCT,OVC,M,M,4400.00,6000.00,M,M,M,M,M,M,M,M,M,44.00,KTPH 220256Z AUTO 00000KT 10SM SCT044 OVC060 07/03 A3015 RMK AO2 SLP199 T00670033 53003,M
LAS,2023-12-22 02:56,-115.1634,36.0719,663.00,62.00,40.00,44.25,270.00,4.00,0.00,30.05,1016.60,10.00,M,FEW,BKN,BKN,BKN,7000.00,9000.00,18000.00,22000.00,M,M,M,M,M,M,M,62.00,KLAS 220256Z 27004KT 10SM FEW070 BKN090 BKN180 BKN220 17/04 A3005 RMK AO2 SLP166 T01670044 53002,M
10U,2023-12-22 03:00,-116.1876,41.9532,1637.00,41.00,32.00,70.08,130.00,9.00,0.00,30.16,M,10.00,M,CLR,M,M,M,M,M,M,M,M,M,M,M,M,M,M,34.70,K10U 220300Z AUTO 13009KT 10SM CLR 05/00 A3016 RMK AO2,M
05U,2023-12-22 03:10,-116.0051,39.6042,1811.23,33.80,30.20,86.49,340.00,5.00,0.00,30.19,M,10.00,M,M,M,M,M,M,M,M,M,M,M,M,M,M,M,M,28.53,K05U 220310Z AUTO 34005KT 10SM 01/M01 A3019 RMK A01,M
BVU,2023-12-22 03:15,-114.8611,35.9475,671.00,59.00,37.40,44.47,0.00,0.00,0.00,30.04,M,10.00,M,BKN,M,M,M,8500.00,M,M,M,M,M,M,M,M,M,M,59.00,KBVU 220315Z AUTO 00000KT 10SM BKN085 15/03 A3004 RMK AO2,M
CXP,2023-12-22 03:15,-119.7326,39.1923,1431.00,41.00,37.40,86.89,0.00,0.00,0.00,30.13,M,10.00,M,CLR,M,M,M,M,M,M,M,M,M,M,M,M,M,M,41.00,KCXP 220315Z AUTO 00000KT 10SM CLR 05/03 A3013 RMK AO2,M
RTS,2023-12-22 03:15,-119.8764,39.6682,1539.00,37.40,33.80,86.69,0.00,0.00,0.00,30.12,M,10.00,M,CLR,M,M,M,M,M,M,M,M,M,M,M,M,M,M,37.40,KRTS 220315Z AUTO 00000KT 10SM CLR 03/01 A3012 RMK AO2,M
MEV,2023-12-22 03:15,-119.7500,38.9963,1441.42,35.60,35.60,100.00,90.00,7.00,0.00,30.12,M,9.00,M,FEW,SCT,SCT,M,3800.00,5000.00,6000.00,M,M,M,M,M,M,M,M,29.17,KMEV 220315Z AUTO 09007KT 9SM FEW038 SCT050 SCT060 02/02 A3012 RMK AO2,M
BAM,2023-12-22 03:15,-116.8743,40.5990,1382.36,37.40,32.00,80.65,30.00,4.00,0.00,30.14,M,10.00,M,CLR,M,M,M,M,M,M,M,M,M,M,M,M,M,M,33.73,KBAM 220315Z AUTO 03004KT 10SM CLR 03/00 A3014 RMK AO1,M
HTH,2023-12-22 03:15,-118.6315,38.5448,1282.89,44.60,32.00,61.03,M,5.00,0.00,30.11,M,10.00,M,OVC,M,M,M,7500.00,M,M,M,M,M,M,M,M,M,M,41.36,KHTH 220315Z AUTO VRB05KT 10SM OVC075 07/00 A3011 RMK A01,M
TMT,2023-12-22 03:15,-117.1971,39.4643,1749.34,30.00,26.40,86.27,210.00,4.00,0.00,30.16,M,10.00,M,CLR,M,M,M,M,M,M,M,M,M,M,M,M,M,M,25.08,KTMT 220315Z AUTO 21004KT 10SM CLR M01/M03 A3016 RMK AO2 T10111031,M
10U,2023-12-22 03:20,-116.1876,41.9532,1637.00,39.20,32.00,75.16,130.00,10.00,0.00,30.16,M,10.00,M,CLR,M,M,M,M,M,M,M,M,M,M,M,M,M,M,32.00,K10U 220320Z AUTO 13010KT 10SM CLR 04/00 A3016 RMK AO2,M
BVU,2023-12-22 03:35,-114.8611,35.9475,671.00,60.80,37.40,41.71,M,3.00,0.00,30.04,M,10.00,M,SCT,BKN,M,M,8000.00,9000.00,M,M,M,M,M,M,M,M,M,60.80,KBVU 220335Z AUTO VRB03KT 10SM SCT080 BKN090 16/03 A3004 RMK AO2 LTG DSNT SW,M
CXP,2023-12-22 03:35,-119.7326,39.1923,1431.00,39.20,35.60,86.79,0.00,0.00,0.00,30.13,M,10.00,M,CLR,M,M,M,M,M,M,M,M,M,M,M,M,M,M,39.20,KCXP 220335Z AUTO 00000KT 10SM CLR 04/02 A3013 RMK AO2,M
RTS,2023-12-22 03:35,-119.8764,39.6682,1539.00,33.80,30.20,86.49,0.00,0.00,0.00,30.12,M,10.00,M,CLR,M,M,M,M,M,M,M,M,M,M,M,M,M,M,33.80,KRTS 220335Z AUTO 00000KT 10SM CLR 01/M01 A3012 RMK AO2,M
05U,2023-12-22 03:35,-116.0051,39.6042,1811.23,32.00,28.40,86.39,360.00,4.00,0.00,30.19,M,10.00,M,M,M,M,M,M,M,M,M,M,M,M,M,M,M,M,27.42,K05U 220335Z AUTO 36004KT 10SM 00/M02 A3019 RMK A01,M
MEV,2023-12-22 03:35,-119.7500,38.9963,1441.42,33.80,33.80,100.00,90.00,6.00,0.00,30.12,M,9.00,M,FEW,FEW,M,M,4600.00,5000.00,M,M,M,M,M,M,M,M,M,27.70,KMEV 220335Z AUTO 09006KT 9SM FEW046 FEW050 01/01 A3012 RMK AO2,M
BAM,2023-12-22 03:35,-116.8743,40.5990,1382.36,37.40,32.00,80.65,20.00,5.00,0.00,30.13,M,10.00,M,CLR,M,M,M,M,M,M,M,M,M,M,M,M,M,M,32.81,KBAM 220335Z AUTO 02005KT 10SM CLR 03/00 A3013 RMK AO1,M
HTH,2023-12-22 03:35,-118.6315,38.5448,1282.89,42.80,33.80,70.28,130.00,8.00,0.00,30.11,M,10.00,M,BKN,M,M,M,8000.00,M,M,M,M,M,M,M,M,M,M,37.42,KHTH 220335Z AUTO 13008KT 10SM BKN080 06/01 A3011 RMK A01,M
TMT,2023-12-22 03:35,-117.1971,39.4643,1749.34,31.00,27.50,86.68,270.00,3.00,0.00,30.15,M,10.00,M,CLR,M,M,M,M,M,M,M,M,M,M,M,M,M,M,27.55,KTMT 220335Z AUTO 27003KT 10SM CLR 00/M02 A3015 RMK AO2 LTG DSNT S T10051025,M
10U,2023-12-22 03:40,-116.1876,41.9532,1637.00,39.20,32.00,75.16,130.00,10.00,0.00,30.16,M,10.00,M,CLR,M,M,M,M,M,M,M,M,M,M,M,M,M,M,32.00,K10U 220340Z AUTO 13010KT 10SM CLR 04/00 A3016 RMK AO2,M
P68,2023-12-22 03:53,-116.0056,39.6014,1993.00,32.00,28.00,84.98,190.00,5.00,0.00,30.16,1022.30,M,M,M,M,M,M,M,M,M,M,M,M,M,M,M,M,M,26.40,KP68 220353Z AUTO 19005KT 00/M02 A3016 RMK AO1 SLP223 T00001022,M
DRA,2023-12-22 03:53,-116.0278,36.6206,1009.00,M,M,M,M,M,0.00,30.06,M,M,M,M,M,M,M,M,M,M,M,M,M,M,M,M,M,M,M,KDRA 220353Z AUTO A3006 RMK AO2 SLPNO PWINO $,M
ELY,2023-12-22 03:53,-114.8453,39.2950,1909.00,33.00,27.00,78.34,M,M,0.00,30.19,1023.00,10.00,M,CLR,M,M,M,M,M,M,M,M,M,M,M,M,M,M,M,KELY 220353Z AUTO 10SM CLR 01/M03 A3019 RMK AO2 SLP230 T00061028,M
VGT,2023-12-22 03:53,-115.1933,36.2111,667.00,60.00,40.00,47.51,340.00,4.00,0.00,30.04,1018.40,10.00,M,BKN,M,M,M,8500.00,M,M,M,M,M,M,M,M,M,M,60.00,KVGT 220353Z 34004KT 10SM BKN085 16/04 A3004 RMK AO2 SLP184 T01560044,M
LOL,2023-12-22 03:53,-118.5701,40.0684,1192.43,34.00,27.00,75.26,0.00,0.00,0.00,30.10,1021.70,10.00,M,CLR,M,M,M,M,M,M,M,M,M,M,M,M,M,M,34.00,KLOL 220353Z AUTO 00000KT 10SM CLR 01/M03 A3010 RMK AO2 SLP217 T00111028,M
BVU,2023-12-22 03:55,-114.8611,35.9475,671.00,59.00,37.40,44.47,0.00,0.00,0.00,30.04,M,10.00,M,BKN,BKN,M,M,7500.00,8500.00,M,M,M,M,M,M,M,M,M,59.00,KBVU 220355Z AUTO 00000KT 10SM BKN075 BKN085 15/03 A3004 RMK AO2 LTG DSNT SW,M
CXP,2023-12-22 03:55,-119.7326,39.1923,1431.00,39.20,37.40,93.19,0.00,0.00,0.00,30.13,M,10.00,M,CLR,M,M,M,M,M,M,M,M,M,M,M,M,M,M,39.20,KCXP 220355Z AUTO 00000KT 10SM CLR 04/03 A3013 RMK AO2,M
INS,2023-12-22 03:55,-115.6733,36.5872,955.00,51.00,35.40,54.98,0.00,0.00,0.00,30.07,1016.90,10.00,M,SCT,SCT,M,M,6500.00,9000.00,M,M,M,M,M,M,M,M,M,51.00,KINS 220355Z AUTO 00000KT 10SM SCT065 SCT090 11/02 A3007 RMK AO2 SLP169 T01060019 $,M
RNO,2023-12-22 03:55,-119.7711,39.4839,1341.00,42.00,35.00,76.03,M,3.00,0.00,30.11,1019.40,10.00,M,SCT,M,M,M,23000.00,M,M,M,M,M,M,M,M,M,M,40.12,KRNO 220355Z VRB03KT 10SM SCT230 06/02 A3011 RMK AO2 SLP194 T00560017,M
RTS,2023-12-22 03:55,-119.8764,39.6682,1539.00,32.00,30.20,92.97,350.00,4.00,0.00,30.12,M,10.00,M,CLR,M,M,M,M,M,M,M,M,M,M,M,M,M,M,27.42,KRTS 220355Z AUTO 35004KT 10SM CLR M00/M01 A3012 RMK AO2,M
05U,2023-12-22 03:55,-116.0051,39.6042,1811.23,32.00,28.40,86.39,360.00,4.00,0.00,30.19,M,10.00,M,M,M,M,M,M,M,M,M,M,M,M,M,M,M,M,27.42,K05U 220355Z AUTO 36004KT 10SM 00/M02 A3019 RMK A01,M
MEV,2023-12-22 03:55,-119.7500,38.9963,1441.42,35.60,35.60,100.00,80.00,3.00,0.00,30.11,M,9.00,M,FEW,FEW,SCT,M,3400.00,3900.00,4600.00,M,M,M,M,M,M,M,M,32.80,KMEV 220355Z AUTO 08003KT 9SM FEW034 FEW039 SCT046 02/02 A3011 RMK AO2,M
BAM,2023-12-22 03:55,-116.8743,40.5990,1382.36,37.40,32.00,80.65,20.00,3.00,0.00,30.13,M,10.00,M,CLR,M,M,M,M,M,M,M,M,M,M,M,M,M,M,34.86,KBAM 220355Z AUTO 02003KT 10SM CLR 03/00 A3013 RMK AO1,M
HTH,2023-12-22 03:55,-118.6315,38.5448,1282.89,42.80,32.00,65.38,120.00,4.00,0.00,30.11,M,10.00,M,FEW,M,M,M,8000.00,M,M,M,M,M,M,M,M,M,M,40.03,KHTH 220355Z AUTO 12004KT 10SM FEW080 06/00 A3011 RMK A01,M
LSV,2023-12-22 03:55,-115.0343,36.2362,570.00,60.40,36.70,41.16,0.00,0.00,0.00,30.01,1015.40,10.00,M,SCT,SCT,M,M,8000.00,9500.00,M,M,M,M,M,M,M,M,M,60.40,KLSV 220355Z AUTO 00000KT 10SM SCT080 SCT095 16/03 A3001 RMK AO2 SLP154 T01580026 $,M
TMT,2023-12-22 03:55,-117.1971,39.4643,1749.34,28.40,25.30,87.99,220.00,3.00,0.00,30.16,M,10.00,M,CLR,M,M,M,M,M,M,M,M,M,M,M,M,M,M,24.57,KTMT 220355Z AUTO 22003KT 10SM CLR M02/M04 A3016 RMK AO2 T10201037,M
EKO,2023-12-22 03:56,-115.7860,40.8242,1367.00,31.00,29.00,92.19,60.00,3.00,0.00,30.16,1023.70,10.00,M,CLR,M,M,M,M,M,M,M,M,M,M,M,M,M,M,27.55,KEKO 220356Z AUTO 06003KT 10SM CLR M01/M02 A3016 RMK AO2 SLP237 T10061017 PWINO FZRANO $,M
WMC,2023-12-22 03:56,-117.8072,40.9019,1315.00,33.00,27.00,78.34,120.00,3.00,0.00,30.12,1021.90,10.00,M,CLR,M,M,M,M,M,M,M,M,M,M,M,M,M,M,29.83,KWMC 220356Z AUTO 12003KT 10SM CLR 01/M03 A3012 RMK AO2 SLP219 T00061028,M
NFL,2023-12-22 03:56,-118.7010,39.4166,1199.00,38.00,30.00,72.64,M,5.00,0.00,30.09,1015.80,10.00,M,SCT,SCT,BKN,BKN,5000.00,8000.00,12000.00,25000.00,M,M,M,M,M,M,M,33.52,KNFL 220356Z VRB05KT 10SM SCT050 SCT080 BKN120 BKN250 03/M01 A3009 RMK AO2 SLP158 T00331011,M
HND,2023-12-22 03:56,-115.1344,35.9729,742.79,55.00,39.00,54.70,160.00,5.00,0.00,30.07,1019.60,10.00,M,CLR,M,M,M,M,M,M,M,M,M,M,M,M,M,M,55.00,KHND 220356Z 16005KT 10SM CLR 13/04 A3007 RMK AO2 SLP196 T01280039,M
TPH,2023-12-22 03:56,-117.0904,38.0505,1654.00,43.00,38.00,82.37,350.00,4.00,T,30.15,1020.20,10.00,M,SCT,OVC,M,M,4000.00,6500.00,M,M,M,M,M,M,M,M,M,40.27,KTPH 220356Z AUTO 35004KT 10SM SCT040 OVC065 06/03 A3015 RMK AO2 RAB02E32 SLP202 P0000 T00610033,M
LAS,2023-12-22 03:56,-115.1634,36.0719,663.00,62.00,40.00,44.25,0.00,0.00,0.00,30.04,1016.40,10.00,M,SCT,SCT,BKN,M,7500.00,18000.00,22000.00,M,M,M,M,M,M,M,M,62.00,KLAS 220356Z 00000KT 10SM SCT075 SCT180 BKN220 17/04 A3004 RMK AO2 SLP164 T01670044,M
10U,2023-12-22 04:00,-116.1876,41.9532,1637.00,37.40,32.00,80.65,130.00,9.00,0.00,30.16,M,10.00,M,CLR,M,M,M,M,M,M,M,M,M,M,M,M,M,M,30.23,K10U 220400Z AUTO 13009KT 10SM CLR 03/M00 A3016 RMK AO2,M
05U,2023-12-22 04:10,-116.0051,39.6042,1811.23,30.20,28.40,92.92,0.00,0.00,0.00,30.19,M,10.00,M,M,M,M,M,M,M,M,M,M,M,M,M,M,M,M,30.20,K05U 220410Z AUTO 00000KT 10SM M01/M02 A3019 RMK A01,M
BVU,2023-12-22 04:15,-114.8611,35.9475,671.00,59.00,37.40,44.47,260.00,4.00,0.00,30.04,M,10.00,M,BKN,BKN,M,M,7500.00,9000.00,M,M,M,M,M,M,M,M,M,59.00,KBVU 220415Z AUTO 26004KT 10SM BKN075 BKN090 15/03 A3004 RMK AO2,M
CXP,2023-12-22 04:15,-119.7326,39.1923,1431.00,39.20,35.60,86.79,0.00,0.00,0.00,30.13,M,10.00,M,CLR,M,M,M,M,M,M,M,M,M,M,M,M,M,M,39.20,KCXP 220415Z AUTO 00000KT 10SM CLR 04/02 A3013 RMK AO2,M
RTS,2023-12-22 04:15,-119.8764,39.6682,1539.00,32.00,30.20,92.97,350.00,6.00,0.00,30.12,M,10.00,M,CLR,M,M,M,M,M,M,M,M,M,M,M,M,M,M,25.53,KRTS 220415Z AUTO 35006KT 10SM CLR M00/M01 A3012 RMK AO2,M
MEV,2023-12-22 04:15,-119.7500,38.9963,1441.42,35.60,35.60,100.00,0.00,0.00,0.00,30.11,M,10.00,M,FEW,SCT,SCT,M,3500.00,4500.00,5000.00,M,M,M,M,M,M,M,M,35.60,KMEV 220415Z AUTO 00000KT 10SM FEW035 SCT045 SCT050 02/02 A3011 RMK AO2,M
BAM,2023-12-22 04:15,-116.8743,40.5990,1382.36,37.40,32.00,80.65,40.00,4.00,0.00,30.13,M,10.00,M,CLR,M,M,M,M,M,M,M,M,M,M,M,M,M,M,33.73,KBAM 220415Z AUTO 04004KT 10SM CLR 03/00 A3013 RMK AO1,M
HTH,2023-12-22 04:15,-118.6315,38.5448,1282.89,42.80,33.80,70.28,140.00,11.00,0.00,30.11,M,10.00,M,CLR,M,M,M,M,M,M,M,M,M,M,M,M,M,M,36.11,KHTH 220415Z AUTO 14011KT 10SM CLR 06/01 A3011 RMK A01,M
TMT,2023-12-22 04:15,-117.1971,39.4643,1749.34,28.80,25.30,86.56,180.00,3.00,0.00,30.16,M,10.00,M,CLR,M,M,M,M,M,M,M,M,M,M,M,M,M,M,25.03,KTMT 220415Z AUTO 18003KT 10SM CLR M02/M04 A3016 RMK AO2 T10181037,M
10U,2023-12-22 04:20,-116.1876,41.9532,1637.00,37.40,32.00,80.65,140.00,8.00,0.00,30.16,M,10.00,M,CLR,M,M,M,M,M,M,M,M,M,M,M,M,M,M,30.76,K10U 220420Z AUTO 14008KT 10SM CLR 03/M00 A3016 RMK AO2,M
CXP,2023-12-22 04:30,-119.7326,39.1923,1431.00,37.40,35.60,93.14,310.00,4.00,0.00,30.13,M,10.00,M,CLR,M,M,M,M,M,M,M,M,M,M,M,M,M,M,33.73,KCXP 220430Z AUTO 31004KT 10SM CLR 03/02 A3013 RMK AO2,M
05U,2023-12-22 04:30,-116.0051,39.6042,1811.23,30.20,28.40,92.92,20.00,5.00,0.00,30.18,M,10.00,M,M,M,M,M,M,M,M,M,M,M,M,M,M,M,M,24.26,K05U 220430Z AUTO 02005KT 10SM M01/M02 A3018 RMK A01,M
HTH,2023-12-22 04:30,-118.6315,38.5448,1282.89,42.80,32.00,65.38,130.00,9.00,0.00,30.11,M,10.00,M,FEW,M,M,M,5500.00,M,M,M,M,M,M,M,M,M,M,36.94,KHTH 220430Z AUTO 13009KT 10SM FEW055 06/00 A3011 RMK A01,M
BVU,2023-12-22 04:35,-114.8611,35.9475,671.00,57.20,37.40,47.44,0.00,0.00,0.00,30.04,M,10.00,M,SCT,SCT,M,M,7500.00,9000.00,M,M,M,M,M,M,M,M,M,57.20,KBVU 220435Z AUTO 00000KT 10SM SCT075 SCT090 14/03 A3004 RMK AO2,M
RTS,2023-12-22 04:35,-119.8764,39.6682,1539.00,30.20,28.40,92.92,10.00,4.00,0.00,30.12,M,10.00,M,CLR,M,M,M,M,M,M,M,M,M,M,M,M,M,M,25.32,KRTS 220435Z AUTO 01004KT 10SM CLR M01/M02 A3012 RMK AO2,M
MEV,2023-12-22 04:35,-119.7500,38.9963,1441.42,35.60,33.80,93.08,0.00,0.00,0.00,30.11,M,10.00,M,FEW,FEW,FEW,M,3500.00,4200.00,4900.00,M,M,M,M,M,M,M,M,35.60,KMEV 220435Z AUTO 00000KT 10SM FEW035 FEW042 FEW049 02/01 A3011 RMK AO2,M
BAM,2023-12-22 04:35,-116.8743,40.5990,1382.36,35.60,32.00,86.59,30.00,5.00,0.00,30.13,M,10.00,M,CLR,M,M,M,M,M,M,M,M,M,M,M,M,M,M,30.67,KBAM 220435Z AUTO 03005KT 10SM CLR 02/00 A3013 RMK AO1,M
TMT,2023-12-22 04:35,-117.1971,39.4643,1749.34,29.00,26.20,89.12,220.00,8.00,0.00,30.16,M,10.00,M,CLR,M,M,M,M,M,M,M,M,M,M,M,M,M,M,20.42,KTMT 220435Z AUTO 22008KT 10SM CLR M02/M03 A3016 RMK AO2 T10161032,M
10U,2023-12-22 04:40,-116.1876,41.9532,1637.00,37.40,32.00,80.65,130.00,10.00,0.00,30.16,M,10.00,M,CLR,M,M,M,M,M,M,M,M,M,M,M,M,M,M,29.74,K10U 220440Z AUTO 13010KT 10SM CLR 03/M00 A3016 RMK AO2,M
05U,2023-12-22 04:50,-116.0051,39.6042,1811.23,33.80,32.00,93.03,350.00,6.00,0.00,30.18,M,10.00,M,M,M,M,M,M,M,M,M,M,M,M,M,M,M,M,27.70,K05U 220450Z AUTO 35006KT 10SM 01/M00 A3018 RMK A01,M
P68,2023-12-22 04:53,-116.0056,39.6014,1993.00,33.00,29.00,85.04,170.00,6.00,0.00,30.15,1020.90,M,M,M,M,M,M,M,M,M,M,M,M,M,M,M,M,M,26.73,KP68 220453Z AUTO 17006KT 01/M02 A3015 RMK AO1 SLP209 T00061017,M
DRA,2023-12-22 04:53,-116.0278,36.6206,1009.00,M,M,M,M,M,0.00,30.07,M,M,M,M,M,M,M,M,M,M,M,M,M,M,M,M,M,M,M,KDRA 220453Z AUTO A3007 RMK AO2 SLPNO PWINO $,M
ELY,2023-12-22 04:53,-114.8453,39.2950,1909.00,31.00,26.00,81.48,M,M,0.00,30.19,1022.50,10.00,M,CLR,M,M,M,M,M,M,M,M,M,M,M,M,M,M,M,KELY 220453Z AUTO 10SM CLR M01/M03 A3019 RMK AO2 SLP225 T10061033,M
VGT,2023-12-22 04:53,-115.1933,36.2111,667.00,59.00,40.00,49.23,310.00,4.00,0.00,30.04,1018.20,10.00,M,OVC,M,M,M,8500.00,M,M,M,M,M,M,M,M,M,M,59.00,KVGT 220453Z AUTO 31004KT 10SM OVC085 15/04 A3004 RMK AO2 SLP182 T01500044,M
LOL,2023-12-22 04:53,-118.5701,40.0684,1192.43,30.00,25.00,81.40,0.00,0.00,0.00,30.10,1021.30,10.00,M,CLR,M,M,M,M,M,M,M,M,M,M,M,M,M,M,30.00,KLOL 220453Z AUTO 00000KT 10SM CLR M01/M04 A3010 RMK AO2 SLP213 T10111039,M
BVU,2023-12-22 04:55,-114.8611,35.9475,671.00,53.60,37.40,54.07,0.00,0.00,0.00,30.04,M,10.00,M,FEW,M,M,M,8000.00,M,M,M,M,M,M,M,M,M,M,53.60,KBVU 220455Z AUTO 00000KT 10SM FEW080 12/03 A3004 RMK AO2,M
CXP,2023-12-22 04:55,-119.7326,39.1923,1431.00,37.40,35.60,93.14,0.00,0.00,0.00,30.12,M,10.00,M,CLR,M,M,M,M,M,M,M,M,M,M,M,M,M,M,37.40,KCXP 220455Z AUTO 00000KT 10SM CLR 03/02 A3012 RMK AO2,M
INS,2023-12-22 04:55,-115.6733,36.5872,955.00,46.40,31.60,56.09,260.00,5.00,0.00,30.07,1017.20,10.00,M,FEW,FEW,M,M,6500.00,8000.00,M,M,M,M,M,M,M,M,M,43.50,KINS 220455Z AUTO 26005KT 10SM FEW065 FEW080 08/M00 A3007 RMK AO2 SLP172 T00801002 $,M
RNO,2023-12-22 04:55,-119.7711,39.4839,1341.00,40.00,34.00,78.94,0.00,0.00,0.00,30.11,1019.40,10.00,M,SCT,M,M,M,21000.00,M,M,M,M,M,M,M,M,M,M,40.00,KRNO 220455Z 00000KT 10SM SCT210 04/01 A3011 RMK AO2 SLP194 T00440011,M
RTS,2023-12-22 04:55,-119.8764,39.6682,1539.00,33.80,33.80,100.00,360.00,4.00,0.00,30.12,M,10.00,M,CLR,M,M,M,M,M,M,M,M,M,M,M,M,M,M,29.52,KRTS 220455Z AUTO 36004KT 10SM CLR 01/01 A3012 RMK AO2,M
MEV,2023-12-22 04:55,-119.7500,38.9963,1441.42,35.60,33.80,93.08,0.00,0.00,0.00,30.11,M,10.00,M,FEW,FEW,M,M,4200.00,5000.00,M,M,M,M,M,M,M,M,M,35.60,KMEV 220455Z AUTO 00000KT 10SM FEW042 FEW050 02/01 A3011 RMK AO2,M
BAM,2023-12-22 04:55,-116.8743,40.5990,1382.36,35.60,32.00,86.59,40.00,7.00,0.00,30.13,M,10.00,M,CLR,M,M,M,M,M,M,M,M,M,M,M,M,M,M,29.17,KBAM 220455Z AUTO 04007KT 10SM CLR 02/00 A3013 RMK AO1,M
HTH,2023-12-22 04:55,-118.6315,38.5448,1282.89,41.00,32.00,70.08,150.00,8.00,0.00,30.10,M,10.00,M,FEW,SCT,M,M,5000.00,8000.00,M,M,M,M,M,M,M,M,M,35.20,KHTH 220455Z AUTO 15008KT 10SM FEW050 SCT080 05/M00 A3010 RMK A01,M
LSV,2023-12-22 04:55,-115.0343,36.2362,570.00,59.50,37.00,43.00,60.00,4.00,0.00,30.01,1015.40,10.00,M,BKN,M,M,M,8000.00,M,M,M,M,M,M,M,M,M,M,59.50,KLSV 220455Z AUTO 06004KT 10SM BKN080 15/03 A3001 RMK AO2 SLP154 T01530028 $,M
TMT,2023-12-22 04:55,-117.1971,39.4643,1749.34,28.80,25.50,87.28,210.00,6.00,0.00,30.15,M,10.00,M,CLR,M,M,M,M,M,M,M,M,M,M,M,M,M,M,21.68,KTMT 220455Z AUTO 21006KT 10SM CLR M02/M04 A3015 RMK AO2 T10181036,M
EKO,2023-12-22 04:56,-115.7860,40.8242,1367.00,31.00,29.00,92.19,40.00,3.00,0.00,30.15,1023.00,10.00,M,CLR,M,M,M,M,M,M,M,M,M,M,M,M,M,M,27.55,KEKO 220456Z AUTO 04003KT 10SM CLR M01/M02 A3015 RMK AO2 SLP230 T10061017 PWINO FZRANO $,M
WMC,2023-12-22 04:56,-117.8072,40.9019,1315.00,34.00,28.00,78.43,0.00,0.00,0.00,30.12,1020.80,10.00,M,CLR,M,M,M,M,M,M,M,M,M,M,M,M,M,M,34.00,KWMC 220456Z AUTO 00000KT 10SM CLR 01/M02 A3012 RMK AO2 SLP208 T00111022,M
NFL,2023-12-22 04:56,-118.7010,39.4166,1199.00,36.00,30.00,78.60,140.00,5.00,0.00,30.09,1015.50,10.00,M,SCT,SCT,BKN,BKN,5000.00,8000.00,12000.00,25000.00,M,M,M,M,M,M,M,31.15,KNFL 220456Z 14005KT 10SM SCT050 SCT080 BKN120 BKN250 02/M01 A3009 RMK AO2 SLP155 T00221011,M
HND,2023-12-22 04:56,-115.1344,35.9729,742.79,53.00,38.00,56.59,160.00,7.00,0.00,30.07,1019.30,10.00,M,SCT,M,M,M,7500.00,M,M,M,M,M,M,M,M,M,M,53.00,KHND 220456Z AUTO 16007KT 10SM SCT075 12/03 A3007 RMK AO2 SLP193 T01170033,M
TPH,2023-12-22 04:56,-117.0904,38.0505,1654.00,41.00,37.00,85.54,40.00,5.00,0.00,30.14,1019.90,10.00,M,BKN,M,M,M,4300.00,M,M,M,M,M,M,M,M,M,M,37.08,KTPH 220456Z AUTO 04005KT 10SM BKN043 05/03 A3014 RMK AO2 SLP199 T00500028,M
LAS,2023-12-22 04:56,-115.1634,36.0719,663.00,59.00,40.00,49.23,0.00,0.00,0.00,30.04,1016.40,10.00,M,BKN,BKN,BKN,M,7500.00,18000.00,22000.00,M,M,M,M,M,M,M,M,59.00,KLAS 220456Z 00000KT 10SM BKN075 BKN180 BKN220 15/04 A3004 RMK AO2 SLP164 T01500044,M
10U,2023-12-22 05:00,-116.1876,41.9532,1637.00,37.40,32.00,80.65,120.00,6.00,0.00,30.15,M,10.00,M,CLR,M,M,M,M,M,M,M,M,M,M,M,M,M,M,32.03,K10U 220500Z AUTO 12006KT 10SM CLR 03/M00 A3015 RMK AO2,M
05U,2023-12-22 05:10,-116.0051,39.6042,1811.23,33.80,30.20,86.49,320.00,7.00,0.00,30.18,M,10.00,M,M,M,M,M,M,M,M,M,M,M,M,M,M,M,M,26.97,K05U 220510Z AUTO 32007KT 10SM 01/M01 A3018 RMK A01,M
BVU,2023-12-22 05:15,-114.8611,35.9475,671.00,55.40,37.40,50.64,0.00,0.00,0.00,30.04,M,10.00,M,BKN,M,M,M,7500.00,M,M,M,M,M,M,M,M,M,M,55.40,KBVU 220515Z AUTO 00000KT 10SM BKN075 13/03 A3004 RMK AO2,M
CXP,2023-12-22 05:15,-119.7326,39.1923,1431.00,35.60,33.80,93.08,0.00,0.00,0.00,30.12,M,7.00,M,CLR,M,M,M,M,M,M,M,M,M,M,M,M,M,M,35.60,KCXP 220515Z AUTO 00000KT 7SM CLR 02/01 A3012 RMK AO2,M
RTS,2023-12-22 05:15,-119.8764,39.6682,1539.00,32.00,30.20,92.97,0.00,0.00,0.00,30.12,M,10.00,M,CLR,M,M,M,M,M,M,M,M,M,M,M,M,M,M,32.00,KRTS 220515Z AUTO 00000KT 10SM CLR M00/M01 A3012 RMK AO2,M
MEV,2023-12-22 05:15,-119.7500,38.9963,1441.42,32.00,32.00,100.00,0.00,0.00,0.00,30.11,M,9.00,M,FEW,FEW,FEW,M,4200.00,4800.00,5500.00,M,M,M,M,M,M,M,M,32.00,KMEV 220515Z AUTO 00000KT 9SM FEW042 FEW048 FEW055 00/M00 A3011 RMK AO2,M
BAM,2023-12-22 05:15,-116.8743,40.5990,1382.36,33.80,32.00,93.03,70.00,3.00,0.00,30.13,M,10.00,M,CLR,M,M,M,M,M,M,M,M,M,M,M,M,M,M,30.75,KBAM 220515Z AUTO 07003KT 10SM CLR 01/00 A3013 RMK AO1,M
HTH,2023-12-22 05:15,-118.6315,38.5448,1282.89,39.20,30.20,69.88,160.00,3.00,0.00,30.10,M,10.00,M,CLR,M,M,M,M,M,M,M,M,M,M,M,M,M,M,36.92,KHTH 220515Z AUTO 16003KT 10SM CLR 04/M01 A3010 RMK A01,M
TMT,2023-12-22 05:15,-117.1971,39.4643,1749.34,28.40,25.30,87.99,230.00,7.00,0.00,30.15,M,10.00,M,CLR,M,M,M,M,M,M,M,M,M,M,M,M,M,M,20.39,KTMT 220515Z AUTO 23007KT 10SM CLR M02/M04 A3015 RMK AO2 T10201037,M
10U,2023-12-22 05:20,-116.1876,41.9532,1637.00,33.80,30.20,86.49,100.00,7.00,0.00,30.15,M,10.00,M,CLR,M,M,M,M,M,M,M,M,M,M,M,M,M,M,26.97,K10U 220520Z AUTO 10007KT 10SM CLR 01/M01 A3015 RMK AO2,M
05U,2023-12-22 05:30,-116.0051,39.6042,1811.23,32.00,28.40,86.39,10.00,5.00,0.00,30.18,M,10.00,M,M,M,M,M,M,M,M,M,M,M,M,M,M,M,M,26.40,K05U 220530Z AUTO 01005KT 10SM M00/M02 A3018 RMK A01,M
BVU,2023-12-22 05:35,-114.8611,35.9475,671.00,55.40,37.40,50.64,0.00,0.00,0.00,30.04,M,10.00,M,OVC,M,M,M,7000.00,M,M,M,M,M,M,M,M,M,M,55.40,KBVU 220535Z AUTO 00000KT 10SM OVC070 13/03 A3004 RMK AO2,M
CXP,2023-12-22 05:35,-119.7326,39.1923,1431.00,33.80,33.80,100.00,0.00,0.00,0.00,30.12,M,9.00,M,CLR,M,M,M,M,M,M,M,M,M,M,M,M,M,M,33.80,KCXP 220535Z AUTO 00000KT 9SM CLR 01/01 A3012 RMK AO2,M
RTS,2023-12-22 05:35,-119.8764,39.6682,1539.00,32.00,32.00,100.00,0.00,0.00,0.00,30.12,M,10.00,M,CLR,M,M,M,M,M,M,M,M,M,M,M,M,M,M,32.00,KRTS 220535Z AUTO 00000KT 10SM CLR 00/M00 A3012 RMK AO2,M
MEV,2023-12-22 05:35,-119.7500,38.9963,1441.42,30.20,30.20,100.00,130.00,6.00,0.00,30.10,M,8.00,M,FEW,M,M,M,4200.00,M,M,M,M,M,M,M,M,M,M,23.36,KMEV 220535Z AUTO 13006KT 8SM FEW042 M01/M01 A3010 RMK AO2,M
BAM,2023-12-22 05:35,-116.8743,40.5990,1382.36,30.20,26.60,86.28,0.00,0.00,0.00,30.14,M,10.00,M,CLR,M,M,M,M,M,M,M,M,M,M,M,M,M,M,30.20,KBAM 220535Z AUTO 00000KT 10SM CLR M01/M03 A3014 RMK AO1,M
HTH,2023-12-22 05:35,-118.6315,38.5448,1282.89,44.60,33.80,65.61,160.00,11.00,0.00,30.10,M,10.00,M,CLR,M,M,M,M,M,M,M,M,M,M,M,M,M,M,38.39,KHTH 220535Z AUTO 16011KT 10SM CLR 07/01 A3010 RMK A01,M
TMT,2023-12-22 05:35,-117.1971,39.4643,1749.34,27.70,24.60,87.95,100.00,3.00,0.00,30.16,M,10.00,M,CLR,M,M,M,M,M,M,M,M,M,M,M,M,M,M,23.77,KTMT 220535Z AUTO 10003KT 10SM CLR M02/M04 A3016 RMK AO2 T10241041,M
10U,2023-12-22 05:40,-116.1876,41.9532,1637.00,35.60,32.00,86.59,90.00,8.00,0.00,30.15,M,10.00,M,CLR,M,M,M,M,M,M,M,M,M,M,M,M,M,M,28.55,K10U 220540Z AUTO 09008KT 10SM CLR 02/M00 A3015 RMK AO2,M
05U,2023-12-22 05:50,-116.0051,39.6042,1811.23,35.60,32.00,86.59,300.00,7.00,0.00,30.18,M,10.00,M,M,M,M,M,M,M,M,M,M,M,M,M,M,M,M,29.17,K05U 220550Z AUTO 30007KT 10SM 02/M00 A3018 RMK A01,M
P68,2023-12-22 05:53,-116.0056,39.6014,1993.00,36.00,31.00,81.86,150.00,8.00,0.00,30.15,1019.70,M,M,M,M,M,M,M,M,M,M,M,M,M,M,M,M,M,29.04,KP68 220553Z AUTO 15008KT 02/M01 A3015 RMK AO1 SLP197 T00221006 10078 21017 55003,M
DRA,2023-12-22 05:53,-116.0278,36.6206,1009.00,M,M,M,M,M,0.00,30.06,M,M,M,M,M,M,M,M,M,M,M,M,M,M,M,M,M,M,M,KDRA 220553Z AUTO A3006 RMK AO2 SLPNO 50000 PWINO $,M
ELY,2023-12-22 05:53,-114.8453,39.2950,1909.00,29.00,24.00,81.32,M,M,0.00,30.19,1021.50,10.00,M,CLR,M,M,M,M,M,M,M,M,M,M,M,M,M,M,M,KELY 220553Z AUTO 10SM CLR M02/M04 A3019 RMK AO2 SLP215 T10171044 10078 21022 58002,M
VGT,2023-12-22 05:53,-115.1933,36.2111,667.00,58.00,40.00,51.03,330.00,4.00,0.00,30.03,1017.80,10.00,M,BKN,M,M,M,8500.00,M,M,M,M,M,M,M,M,M,M,58.00,KVGT 220553Z AUTO 33004KT 10SM BKN085 14/04 A3003 RMK AO2 SLP178 T01440044 10194 20139 58005,M
LOL,2023-12-22 05:53,-118.5701,40.0684,1192.43,29.00,24.00,81.32,0.00,0.00,0.00,30.10,1020.50,10.00,M,CLR,M,M,M,M,M,M,M,M,M,M,M,M,M,M,29.00,KLOL 220553Z AUTO 00000KT 10SM CLR M02/M04 A3010 RMK AO2 SLP205 T10171044 10117 21022 58002,M
BVU,2023-12-22 05:55,-114.8611,35.9475,671.00,53.60,37.40,54.07,0.00,0.00,0.00,30.04,M,10.00,M,BKN,M,M,M,7000.00,M,M,M,M,M,M,M,M,M,M,53.60,KBVU 220555Z AUTO 00000KT 10SM BKN070 12/03 A3004 RMK AO2,M
CXP,2023-12-22 05:55,-119.7326,39.1923,1431.00,33.80,32.00,93.03,0.00,0.00,0.00,30.12,M,9.00,M,CLR,M,M,M,M,M,M,M,M,M,M,M,M,M,M,33.80,KCXP 220555Z AUTO 00000KT 9SM CLR 01/00 A3012 RMK AO2,M
INS,2023-12-22 05:55,-115.6733,36.5872,955.00,49.00,34.00,56.02,270.00,8.00,0.00,30.06,1016.10,10.00,M,FEW,SCT,M,M,6500.00,8500.00,M,M,M,M,M,M,M,M,M,45.05,KINS 220555Z AUTO 27008KT 10SM FEW065 SCT085 10/01 A3006 RMK AO2 SLP161 T00950012 10162 20080 58003 $,M
RNO,2023-12-22 05:55,-119.7711,39.4839,1341.00,37.00,32.00,81.93,0.00,0.00,0.00,30.10,1019.10,10.00,M,SCT,M,M,M,22000.00,M,M,M,M,M,M,M,M,M,M,37.00,KRNO 220555Z 00000KT 10SM SCT220 03/00 A3010 RMK AO2 SLP191 T00280000 10111 20028 58000,M
RTS,2023-12-22 05:55,-119.8764,39.6682,1539.00,32.00,30.20,92.97,340.00,4.00,0.00,30.11,M,10.00,M,CLR,M,M,M,M,M,M,M,M,M,M,M,M,M,M,27.42,KRTS 220555Z AUTO 34004KT 10SM CLR M00/M01 A3011 RMK AO2,M
MEV,2023-12-22 05:55,-119.7500,38.9963,1441.42,30.20,30.20,100.00,120.00,5.00,0.00,30.11,M,9.00,M,FEW,FEW,M,M,3900.00,4900.00,M,M,M,M,M,M,M,M,M,24.26,KMEV 220555Z AUTO 12005KT 9SM FEW039 FEW049 M01/M01 A3011 RMK AO2,M
BAM,2023-12-22 05:55,-116.8743,40.5990,1382.36,32.00,28.40,86.39,0.00,0.00,0.00,30.13,M,10.00,M,CLR,M,M,M,M,M,M,M,M,M,M,M,M,M,M,32.00,KBAM 220555Z AUTO 00000KT 10SM CLR 00/M02 A3013 RMK AO1,M
HTH,2023-12-22 05:55,-118.6315,38.5448,1282.89,42.80,33.80,70.28,150.00,9.00,0.00,30.10,M,10.00,M,CLR,M,M,M,M,M,M,M,M,M,M,M,M,M,M,36.94,KHTH 220555Z AUTO 15009KT 10SM CLR 06/01 A3010 RMK A01,M
LSV,2023-12-22 05:55,-115.0343,36.2362,570.00,57.00,36.50,46.12,50.00,3.00,0.00,30.01,1015.30,10.00,M,SCT,M,M,M,9000.00,M,M,M,M,M,M,M,M,M,M,57.00,KLSV 220555Z AUTO 05003KT 10SM SCT090 14/03 A3001 RMK AO2 SLP153 T01390025 10198 20136 56003 $,M
TMT,2023-12-22 05:55,-117.1971,39.4643,1749.34,26.60,23.70,88.63,0.00,0.00,0.00,30.15,M,10.00,M,CLR,M,M,M,M,M,M,M,M,M,M,M,M,M,M,26.60,KTMT 220555Z AUTO 00000KT 10SM CLR M03/M05 A3015 RMK AO2 T10301046 10088 21030,M
EKO,2023-12-22 05:56,-115.7860,40.8242,1367.00,31.00,29.00,92.19,70.00,4.00,0.00,30.15,1022.50,10.00,M,CLR,M,M,M,M,M,M,M,M,M,M,M,M,M,M,26.25,KEKO 220556Z AUTO 07004KT 10SM CLR M01/M02 A3015 RMK AO2 SLP225 T10061017 10044 21006 56004 PWINO FZRANO $,M
WMC,2023-12-22 05:56,-117.8072,40.9019,1315.00,30.00,26.00,84.85,150.00,6.00,0.00,30.12,1020.40,10.00,M,CLR,M,M,M,M,M,M,M,M,M,M,M,M,M,M,23.12,KWMC 220556Z AUTO 15006KT 10SM CLR M01/M03 A3012 RMK AO2 SLP204 T10111033 10117 21011 50000,M
NFL,2023-12-22 05:56,-118.7010,39.4166,1199.00,33.00,28.00,81.63,M,5.00,0.00,30.08,1015.50,10.00,M,SCT,SCT,BKN,BKN,5000.00,8000.00,12000.00,25000.00,M,M,M,M,M,M,M,27.58,KNFL 220556Z VRB05KT 10SM SCT050 SCT080 BKN120 BKN250 01/M02 A3008 RMK AO2 SLP155 T00061022 10111 20006 57003,M
HND,2023-12-22 05:56,-115.1344,35.9729,742.79,54.00,38.00,54.56,160.00,8.00,0.00,30.06,1018.90,10.00,M,OVC,M,M,M,7000.00,M,M,M,M,M,M,M,M,M,M,54.00,KHND 220556Z AUTO 16008KT 10SM OVC070 12/03 A3006 RMK AO2 SLP189 T01220033 10178 20117 58005,M
TPH,2023-12-22 05:56,-117.0904,38.0505,1654.00,39.00,36.00,88.87,360.00,5.00,0.00,30.14,1019.70,10.00,M,FEW,M,M,M,7000.00,M,M,M,M,M,M,M,M,M,M,34.71,KTPH 220556Z AUTO 36005KT 10SM FEW070 04/02 A3014 RMK AO2 SLP197 60000 T00390022 10094 20039 58002,M
LAS,2023-12-22 05:56,-115.1634,36.0719,663.00,58.00,39.00,49.08,190.00,3.00,0.00,30.04,1016.30,10.00,M,BKN,BKN,M,M,8000.00,22000.00,M,M,M,M,M,M,M,M,M,58.00,KLAS 220556Z 19003KT 10SM BKN080 BKN220 14/04 A3004 RMK AO2 SLP163 T01440039 10194 20144 56003,M
10U,2023-12-22 06:00,-116.1876,41.9532,1637.00,32.00,28.40,86.39,60.00,5.00,0.00,30.15,M,10.00,M,CLR,M,M,M,M,M,M,M,M,M,M,M,M,M,M,26.40,K10U 220600Z AUTO 06005KT 10SM CLR 00/M02 A3015 RMK AO2,M
CXP,2023-12-22 06:10,-119.7326,39.1923,1431.00,33.80,32.00,93.03,0.00,0.00,0.00,30.12,M,9.00,M,CLR,M,M,M,M,M,M,M,M,M,M,M,M,M,M,33.80,KCXP 220610Z AUTO 00000KT 9SM CLR 01/00 A3012 RMK AO2,M
05U,2023-12-22 06:10,-116.0051,39.6042,1811.23,32.00,28.40,86.39,M,3.00,0.00,30.18,M,10.00,M,M,M,M,M,M,M,M,M,M,M,M,M,M,M,M,28.69,K05U 220610Z AUTO VRB03KT 10SM M00/M02 A3018 RMK A01,M
HTH,2023-12-22 06:10,-118.6315,38.5448,1282.89,41.00,32.00,70.08,140.00,12.00,0.00,30.10,M,10.00,M,CLR,M,M,M,M,M,M,M,M,M,M,M,M,M,M,33.46,KHTH 220610Z AUTO 14012KT 10SM CLR 05/00 A3010 RMK A01,M
BVU,2023-12-22 06:15,-114.8611,35.9475,671.00,53.60,37.40,54.07,0.00,0.00,0.00,30.03,M,10.00,M,SCT,M,M,M,7000.00,M,M,M,M,M,M,M,M,M,M,53.60,KBVU 220615Z AUTO 00000KT 10SM SCT070 12/03 A3003 RMK AO2,M
RTS,2023-12-22 06:15,-119.8764,39.6682,1539.00,32.00,30.20,92.97,0.00,0.00,0.00,30.11,M,10.00,M,CLR,M,M,M,M,M,M,M,M,M,M,M,M,M,M,32.00,KRTS 220615Z AUTO 00000KT 10SM CLR M00/M01 A3011 RMK AO2,M
MEV,2023-12-22 06:15,-119.7500,38.9963,1441.42,30.20,30.20,100.00,130.00,3.00,0.00,30.11,M,9.00,M,CLR,M,M,M,M,M,M,M,M,M,M,M,M,M,M,26.63,KMEV 220615Z AUTO 13003KT 9SM CLR M01/M01 A3011 RMK AO2,M
BAM,2023-12-22 06:15,-116.8743,40.5990,1382.36,30.20,26.60,86.28,60.00,3.00,0.00,30.14,M,10.00,M,CLR,M,M,M,M,M,M,M,M,M,M,M,M,M,M,26.63,KBAM 220615Z AUTO 06003KT 10SM CLR M01/M03 A3014 RMK AO1,M
TMT,2023-12-22 06:15,-117.1971,39.4643,1749.34,26.00,23.40,89.73,0.00,0.00,0.00,30.15,M,10.00,M,CLR,M,M,M,M,M,M,M,M,M,M,M,M,M,M,26.00,KTMT 220615Z AUTO 00000KT 10SM CLR M03/M05 A3015 RMK AO2 T10341048,M
10U,2023-12-22 06:20,-116.1876,41.9532,1637.00,33.80,30.20,86.49,90.00,6.00,0.00,30.15,M,10.00,M,CLR,M,M,M,M,M,M,M,M,M,M,M,M,M,M,27.70,K10U 220620Z AUTO 09006KT 10SM CLR 01/M01 A3015 RMK AO2,M
05U,2023-12-22 06:30,-116.0051,39.6042,1811.23,32.00,30.20,92.97,0.00,0.00,0.00,30.18,M,10.00,M,M,M,M,M,M,M,M,M,M,M,M,M,M,M,M,32.00,K05U 220630Z AUTO 00000KT 10SM 00/M01 A3018 RMK A01,M
BVU,2023-12-22 06:35,-114.8611,35.9475,671.00,53.60,37.40,54.07,0.00,0.00,0.00,30.04,M,10.00,M,FEW,M,M,M,7000.00,M,M,M,M,M,M,M,M,M,M,53.60,KBVU 220635Z AUTO 00000KT 10SM FEW070 12/03 A3004 RMK AO2,M
CXP,2023-12-22 06:35,-119.7326,39.1923,1431.00,32.00,32.00,100.00,0.00,0.00,0.00,30.12,M,7.00,M,CLR,M,M,M,M,M,M,M,M,M,M,M,M,M,M,32.00,KCXP 220635Z AUTO 00000KT 7SM CLR 00/00 A3012 RMK AO2,M
RTS,2023-12-22 06:35,-119.8764,39.6682,1539.00,32.00,30.20,92.97,0.00,0.00,0.00,30.11,M,10.00,M,CLR,M,M,M,M,M,M,M,M,M,M,M,M,M,M,32.00,KRTS 220635Z AUTO 00000KT 10SM CLR M00/M01 A3011 RMK AO2,M
MEV,2023-12-22 06:35,-119.7500,38.9963,1441.42,32.00,30.20,92.97,M,4.00,0.00,30.11,M,10.00,M,CLR,M,M,M,M,M,M,M,M,M,M,M,M,M,M,27.42,KMEV 220635Z AUTO VRB04KT 10SM CLR M00/M01 A3011 RMK AO2,M
BAM,2023-12-22 06:35,-116.8743,40.5990,1382.36,30.20,26.60,86.28,110.00,3.00,0.00,30.14,M,10.00,M,CLR,M,M,M,M,M,M,M,M,M,M,M,M,M,M,26.63,KBAM 220635Z AUTO 11003KT 10SM CLR M01/M03 A3014 RMK AO1,M
HTH,2023-12-22 06:35,-118.6315,38.5448,1282.89,41.00,32.00,70.08,150.00,9.00,0.00,30.10,M,10.00,M,CLR,M,M,M,M,M,M,M,M,M,M,M,M,M,M,34.70,KHTH 220635Z AUTO 15009KT 10SM CLR 05/00 A3010 RMK A01,M
TMT,2023-12-22 06:35,-117.1971,39.4643,1749.34,25.00,22.60,90.44,0.00,0.00,0.00,30.15,M,10.00,M,CLR,M,M,M,M,M,M,M,M,M,M,M,M,M,M,25.00,KTMT 220635Z AUTO 00000KT 10SM CLR M04/M05 A3015 RMK AO2 T10391052,M
10U,2023-12-22 06:40,-116.1876,41.9532,1637.00,32.00,28.40,86.39,70.00,3.00,0.00,30.15,M,10.00,M,CLR,M,M,M,M,M,M,M,M,M,M,M,M,M,M,28.69,K10U 220640Z AUTO 07003KT 10SM CLR 00/M02 A3015 RMK AO2,M
05U,2023-12-22 06:50,-116.0051,39.6042,1811.23,32.00,30.20,92.97,0.00,0.00,0.00,30.18,M,10.00,M,M,M,M,M,M,M,M,M,M,M,M,M,M,M,M,32.00,K05U 220650Z AUTO 00000KT 10SM 00/M01 A3018 RMK A01,M
P68,2023-12-22 06:53,-116.0056,39.6014,1993.00,32.00,28.00,84.98,150.00,3.00,0.00,30.15,1019.30,M,M,M,M,M,M,M,M,M,M,M,M,M,M,M,M,M,28.69,KP68 220653Z AUTO 15003KT 00/M02 A3015 RMK AO1 SLP193 T00001022,M
DRA,2023-12-22 06:53,-116.0278,36.6206,1009.00,M,M,M,M,M,0.00,30.05,M,M,M,M,M,M,M,M,M,M,M,M,M,M,M,M,M,M,M,KDRA 220653Z AUTO A3005 RMK AO2 SLPNO PWINO $,M
ELY,2023-12-22 06:53,-114.8453,39.2950,1909.00,28.00,24.00,84.72,M,M,0.00,30.19,1020.70,10.00,M,CLR,M,M,M,M,M,M,M,M,M,M,M,M,M,M,M,KELY 220653Z AUTO 10SM CLR M02/M04 A3019 RMK AO2 SLP207 T10221044,M
VGT,2023-12-22 06:53,-115.1933,36.2111,667.00,56.00,40.00,54.85,0.00,0.00,0.00,30.03,1018.00,10.00,M,BKN,M,M,M,8000.00,M,M,M,M,M,M,M,M,M,M,56.00,KVGT 220653Z AUTO 00000KT 10SM BKN080 13/04 A3003 RMK AO2 SLP180 T01330044,M
LOL,2023-12-22 06:53,-118.5701,40.0684,1192.43,27.00,23.00,84.66,150.00,3.00,0.00,30.10,1020.30,10.00,M,CLR,M,M,M,M,M,M,M,M,M,M,M,M,M,M,22.97,KLOL 220653Z AUTO 15003KT 10SM CLR M03/M05 A3010 RMK AO2 SLP203 T10281050,M
BVU,2023-12-22 06:55,-114.8611,35.9475,671.00,53.60,39.20,58.02,0.00,0.00,0.00,30.03,M,10.00,M,BKN,M,M,M,7000.00,M,M,M,M,M,M,M,M,M,M,53.60,KBVU 220655Z AUTO 00000KT 10SM BKN070 12/04 A3003 RMK AO2,M
CXP,2023-12-22 06:55,-119.7326,39.1923,1431.00,32.00,32.00,100.00,0.00,0.00,0.00,30.12,M,7.00,M,CLR,M,M,M,M,M,M,M,M,M,M,M,M,M,M,32.00,KCXP 220655Z AUTO 00000KT 7SM CLR 00/00 A3012 RMK AO2,M
INS,2023-12-22 06:55,-115.6733,36.5872,955.00,47.70,34.00,58.81,260.00,10.00,0.00,30.06,1015.90,10.00,M,SCT,SCT,M,M,7500.00,9000.00,M,M,M,M,M,M,M,M,M,42.66,KINS 220655Z AUTO 26010KT 10SM SCT075 SCT090 09/01 A3006 RMK AO2 SLP159 T00870011 $,M
RNO,2023-12-22 06:55,-119.7711,39.4839,1341.00,36.00,32.00,85.23,0.00,0.00,0.00,30.10,1018.90,10.00,M,CLR,M,M,M,M,M,M,M,M,M,M,M,M,M,M,36.00,KRNO 220655Z 00000KT 10SM CLR 02/00 A3010 RMK AO2 SLP189 T00220000,M
RTS,2023-12-22 06:55,-119.8764,39.6682,1539.00,30.20,30.20,100.00,0.00,0.00,0.00,30.11,M,9.00,M,CLR,M,M,M,M,M,M,M,M,M,M,M,M,M,M,30.20,KRTS 220655Z AUTO 00000KT 9SM CLR M01/M01 A3011 RMK AO2,M
MEV,2023-12-22 06:55,-119.7500,38.9963,1441.42,30.20,30.20,100.00,0.00,0.00,0.00,30.11,M,10.00,M,CLR,M,M,M,M,M,M,M,M,M,M,M,M,M,M,30.20,KMEV 220655Z AUTO 00000KT 10SM CLR M01/M01 A3011 RMK AO2,M
BAM,2023-12-22 06:55,-116.8743,40.5990,1382.36,30.20,28.40,92.92,130.00,7.00,0.00,30.14,M,10.00,M,CLR,M,M,M,M,M,M,M,M,M,M,M,M,M,M,22.59,KBAM 220655Z AUTO 13007KT 10SM CLR M01/M02 A3014 RMK AO1,M
HTH,2023-12-22 06:55,-118.6315,38.5448,1282.89,42.80,32.00,65.38,160.00,11.00,0.00,30.10,M,10.00,M,CLR,M,M,M,M,M,M,M,M,M,M,M,M,M,M,36.11,KHTH 220655Z AUTO 16011KT 10SM CLR 06/00 A3010 RMK A01,M
LSV,2023-12-22 06:55,-115.0343,36.2362,570.00,60.60,37.40,42.01,80.00,10.00,0.00,30.01,1015.00,10.00,M,FEW,M,M,M,8000.00,M,M,M,M,M,M,M,M,M,M,60.60,KLSV 220655Z AUTO 08010KT 10SM FEW080 16/03 A3001 RMK AO2 SLP150 T01590030 $,M
TMT,2023-12-22 06:55,-117.1971,39.4643,1749.34,24.80,22.60,91.20,240.00,3.00,0.00,30.15,M,10.00,M,CLR,M,M,M,M,M,M,M,M,M,M,M,M,M,M,20.46,KTMT 220655Z AUTO 24003KT 10SM CLR M04/M05 A3015 RMK AO2 T10401052,M
EKO,2023-12-22 06:56,-115.7860,40.8242,1367.00,31.00,28.00,88.48,40.00,4.00,0.00,30.15,1022.20,10.00,M,CLR,M,M,M,M,M,M,M,M,M,M,M,M,M,M,26.25,KEKO 220656Z AUTO 04004KT 10SM CLR M01/M02 A3015 RMK AO2 SLP222 T10061022 PWINO FZRANO $,M
WMC,2023-12-22 06:56,-117.8072,40.9019,1315.00,31.00,27.00,84.92,150.00,7.00,0.00,30.11,1019.80,10.00,M,CLR,M,M,M,M,M,M,M,M,M,M,M,M,M,M,23.56,KWMC 220656Z AUTO 15007KT 10SM CLR M01/M03 A3011 RMK AO2 SLP198 T10061028,M
NFL,2023-12-22 06:56,-118.7010,39.4166,1199.00,31.00,26.00,81.48,320.00,3.00,0.00,30.09,1015.50,10.00,M,CLR,M,M,M,M,M,M,M,M,M,M,M,M,M,M,27.55,KNFL 220656Z AUTO 32003KT 10SM CLR M01/M03 A3009 RMK AO2 SLP155 T10061033,M
HND,2023-12-22 06:56,-115.1344,35.9729,742.79,54.00,38.00,54.56,170.00,5.00,0.00,30.06,1018.90,10.00,M,BKN,OVC,M,M,7000.00,8500.00,M,M,M,M,M,M,M,M,M,54.00,KHND 220656Z AUTO 17005KT 10SM BKN070 OVC085 12/03 A3006 RMK AO2 SLP189 T01220033 401830083,M
TPH,2023-12-22 06:56,-117.0904,38.0505,1654.00,38.00,35.00,88.83,350.00,4.00,0.00,30.13,1019.20,10.00,M,FEW,M,M,M,7000.00,M,M,M,M,M,M,M,M,M,M,34.43,KTPH 220656Z AUTO 35004KT 10SM FEW070 03/02 A3013 RMK AO2 SLP192 T00330017,M
LAS,2023-12-22 06:56,-115.1634,36.0719,663.00,57.00,39.00,50.88,220.00,3.00,0.00,30.04,1016.20,10.00,M,BKN,BKN,M,M,8000.00,22000.00,M,M,M,M,M,M,M,M,M,57.00,KLAS 220656Z 22003KT 10SM BKN080 BKN220 14/04 A3004 RMK AO2 SLP162 BKN080 V SCT T01390039,M
10U,2023-12-22 07:00,-116.1876,41.9532,1637.00,30.20,28.40,92.92,30.00,4.00,0.00,30.15,M,10.00,M,CLR,M,M,M,M,M,M,M,M,M,M,M,M,M,M,25.32,K10U 220700Z AUTO 03004KT 10SM CLR M01/M02 A3015 RMK AO2,M
05U,2023-12-22 07:10,-116.0051,39.6042,1811.23,35.60,32.00,86.59,0.00,0.00,0.00,30.18,M,10.00,M,M,M,M,M,M,M,M,M,M,M,M,M,M,M,M,35.60,K05U 220710Z AUTO 00000KT 10SM 02/M00 A3018 RMK A01,M
BVU,2023-12-22 07:15,-114.8611,35.9475,671.00,51.80,39.20,61.99,0.00,0.00,0.00,30.03,M,10.00,M,OVC,M,M,M,7000.00,M,M,M,M,M,M,M,M,M,M,51.80,KBVU 220715Z AUTO 00000KT 10SM OVC070 11/04 A3003 RMK AO2,M
CXP,2023-12-22 07:15,-119.7326,39.1923,1431.00,32.00,32.00,100.00,0.00,0.00,0.00,30.12,M,6.00,M,CLR,M,M,M,M,M,M,M,BR,M,M,M,M,M,M,32.00,KCXP 220715Z AUTO 00000KT 6SM BR CLR M00/M00 A3012 RMK AO2,M
RTS,2023-12-22 07:15,-119.8764,39.6682,1539.00,32.00,32.00,100.00,0.00,0.00,0.00,30.11,M,10.00,M,CLR,M,M,M,M,M,M,M,M,M,M,M,M,M,M,32.00,KRTS 220715Z AUTO 00000KT 10SM CLR M00/M00 A3011 RMK AO2,M
MEV,2023-12-22 07:15,-119.7500,38.9963,1441.42,30.20,30.20,100.00,0.00,0.00,0.00,30.10,M,10.00,M,CLR,M,M,M,M,M,M,M,M,M,M,M,M,M,M,30.20,KMEV 220715Z AUTO 00000KT 10SM CLR M01/M01 A3010 RMK AO2,M
BAM,2023-12-22 07:15,-116.8743,40.5990,1382.36,32.00,28.40,86.39,0.00,0.00,0.00,30.13,M,10.00,M,SCT,M,M,M,7000.00,M,M,M,M,M,M,M,M,M,M,32.00,KBAM 220715Z AUTO 00000KT 10SM SCT070 00/M02 A3013 RMK AO1,M
HTH,2023-12-22 07:15,-118.6315,38.5448,1282.89,41.00,32.00,70.08,160.00,11.00,0.00,30.09,M,10.00,M,CLR,M,M,M,M,M,M,M,M,M,M,M,M,M,M,33.84,KHTH 220715Z AUTO 16011KT 10SM CLR 05/00 A3009 RMK A01,M
TMT,2023-12-22 07:15,-117.1971,39.4643,1749.34,25.00,23.00,91.97,0.00,0.00,0.00,30.14,M,10.00,M,CLR,M,M,M,M,M,M,M,M,M,M,M,M,M,M,25.00,KTMT 220715Z AUTO 00000KT 10SM CLR M04/M05 A3014 RMK AO2 T10391050,M
10U,2023-12-22 07:20,-116.1876,41.9532,1637.00,28.40,26.60,92.86,70.00,3.00,0.00,30.14,M,10.00,M,CLR,M,M,M,M,M,M,M,M,M,M,M,M,M,M,24.57,K10U 220720Z AUTO 07003KT 10SM CLR M02/M03 A3014 RMK AO2,M
BVU,2023-12-22 07:35,-114.8611,35.9475,671.00,53.60,39.20,58.02,0.00,0.00,0.00,30.03,M,10.00,M,OVC,M,M,M,7500.00,M,M,M,M,M,M,M,M,M,M,53.60,KBVU 220735Z AUTO 00000KT 10SM OVC075 12/04 A3003 RMK AO2,M
CXP,2023-12-22 07:35,-119.7326,39.1923,1431.00,32.00,32.00,100.00,0.00,0.00,0.00,30.12,M,7.00,M,CLR,M,M,M,M,M,M,M,M,M,M,M,M,M,M,32.00,KCXP 220735Z AUTO 00000KT 7SM CLR M00/M00 A3012 RMK AO2,M
RTS,2023-12-22 07:35,-119.8764,39.6682,1539.00,28.40,28.40,100.00,0.00,0.00,0.00,30.11,M,10.00,M,CLR,M,M,M,M,M,M,M,M,M,M,M,M,M,M,28.40,KRTS 220735Z AUTO 00000KT 10SM CLR M02/M02 A3011 RMK AO2,M
05U,2023-12-22 07:35,-116.0051,39.6042,1811.23,32.00,28.40,86.39,0.00,0.00,0.00,30.17,M,10.00,M,M,M,M,M,M,M,M,M,M,M,M,M,M,M,M,32.00,K05U 220735Z AUTO 00000KT 10SM 00/M02 A3017 RMK A01,M
MEV,2023-12-22 07:35,-119.7500,38.9963,1441.42,30.20,28.40,92.92,60.00,3.00,0.00,30.10,M,9.00,M,FEW,FEW,M,M,300.00,3600.00,M,M,M,M,M,M,M,M,M,26.63,KMEV 220735Z AUTO 06003KT 9SM FEW003 FEW036 M01/M02 A3010 RMK AO2,M
BAM,2023-12-22 07:35,-116.8743,40.5990,1382.36,30.20,28.40,92.92,0.00,0.00,0.00,30.13,M,10.00,M,SCT,M,M,M,7000.00,M,M,M,M,M,M,M,M,M,M,30.20,KBAM 220735Z AUTO 00000KT 10SM SCT070 M01/M02 A3013 RMK AO1,M
HTH,2023-12-22 07:35,-118.6315,38.5448,1282.89,44.60,33.80,65.61,140.00,9.00,0.00,30.09,M,10.00,M,CLR,M,M,M,M,M,M,M,M,M,M,M,M,M,M,39.18,KHTH 220735Z AUTO 14009KT 10SM CLR 07/01 A3009 RMK A01,M
TMT,2023-12-22 07:35,-117.1971,39.4643,1749.34,25.30,23.00,90.83,220.00,3.00,0.00,30.14,M,10.00,M,CLR,M,M,M,M,M,M,M,M,M,M,M,M,M,M,21.03,KTMT 220735Z AUTO 22003KT 10SM CLR M04/M05 A3014 RMK AO2 T10371050,M
10U,2023-12-22 07:40,-116.1876,41.9532,1637.00,28.40,26.60,92.86,0.00,0.00,0.00,30.14,M,10.00,M,CLR,M,M,M,M,M,M,M,M,M,M,M,M,M,M,28.40,K10U 220740Z AUTO 00000KT 10SM CLR M02/M03 A3014 RMK AO2,M
05U,2023-12-22 07:50,-116.0051,39.6042,1811.23,30.20,28.40,92.92,0.00,0.00,0.00,30.17,M,10.00,M,M,M,M,M,M,M,M,M,M,M,M,M,M,M,M,30.20,K05U 220750Z AUTO 00000KT 10SM M01/M02 A3017 RMK A01,M
P68,2023-12-22 07:53,-116.0056,39.6014,1993.00,30.00,28.00,92.15,0.00,0.00,0.00,30.14,1018.50,M,M,M,M,M,M,M,M,M,M,M,M,M,M,M,M,M,30.00,KP68 220753Z AUTO 00000KT M01/M02 A3014 RMK AO1 SLP185 T10111022 401061067,M
DRA,2023-12-22 07:53,-116.0278,36.6206,1009.00,M,M,M,M,M,0.00,30.04,M,M,M,M,M,M,M,M,M,M,M,M,M,M,M,M,M,M,M,KDRA 220753Z AUTO A3004 RMK AO2 SLPNO PWINO $,M
ELY,2023-12-22 07:53,-114.8453,39.2950,1909.00,28.00,24.00,84.72,M,M,0.00,30.17,1019.80,10.00,M,CLR,M,M,M,M,M,M,M,M,M,M,M,M,M,M,M,KELY 220753Z AUTO 10SM CLR M02/M04 A3017 RMK AO2 SLP198 T10221044 401111061,M
VGT,2023-12-22 07:53,-115.1933,36.2111,667.00,54.00,39.00,56.74,0.00,0.00,0.00,30.03,1017.70,10.00,M,FEW,SCT,M,M,7500.00,9000.00,M,M,M,M,M,M,M,M,M,54.00,KVGT 220753Z AUTO 00000KT 10SM FEW075 SCT090 12/04 A3003 RMK AO2 SLP177 T01220039 402060122,M
LOL,2023-12-22 07:53,-118.5701,40.0684,1192.43,23.00,19.00,84.39,280.00,3.00,0.00,30.09,1020.30,10.00,M,CLR,M,M,M,M,M,M,M,M,M,M,M,M,M,M,18.40,KLOL 220753Z AUTO 28003KT 10SM CLR M05/M07 A3009 RMK AO2 SLP203 T10501072 401281056,M
BVU,2023-12-22 07:55,-114.8611,35.9475,671.00,51.80,39.20,61.99,50.00,4.00,0.00,30.03,M,10.00,M,OVC,M,M,M,7000.00,M,M,M,M,M,M,M,M,M,M,51.80,KBVU 220755Z AUTO 05004KT 10SM OVC070 11/04 A3003 RMK AO2 LTG DSNT S,M
CXP,2023-12-22 07:55,-119.7326,39.1923,1431.00,32.00,32.00,100.00,0.00,0.00,0.00,30.11,M,7.00,M,CLR,M,M,M,M,M,M,M,M,M,M,M,M,M,M,32.00,KCXP 220755Z AUTO 00000KT 7SM CLR M00/M00 A3011 RMK AO2,M
INS,2023-12-22 07:55,-115.6733,36.5872,955.00,45.30,33.80,63.88,220.00,7.00,0.00,30.04,1015.30,10.00,M,FEW,M,M,M,7000.00,M,M,M,M,M,M,M,M,M,M,40.99,KINS 220755Z AUTO 22007KT 10SM FEW070 07/01 A3004 RMK AO2 SLP153 T00740010 401830036 $,M
MEV,2023-12-22 07:55,-119.7500,38.9963,1441.42,28.40,28.40,100.00,0.00,0.00,0.00,30.10,M,8.00,M,FEW,M,M,M,200.00,M,M,M,M,M,M,M,M,M,M,28.40,KMEV 220755Z AUTO 00000KT 8SM FEW002 M02/M02 A3010 RMK AO2,M
RNO,2023-12-22 07:55,-119.7711,39.4839,1341.00,34.00,32.00,92.29,0.00,0.00,0.00,30.10,1018.50,9.00,M,CLR,M,M,M,M,M,M,M,M,M,M,M,M,M,M,34.00,KRNO 220755Z 00000KT 9SM CLR 01/00 A3010 RMK AO2 SLP185 T00110000 401170011,M
RTS,2023-12-22 07:55,-119.8764,39.6682,1539.00,28.40,28.40,100.00,330.00,3.00,0.00,30.10,M,10.00,M,CLR,M,M,M,M,M,M,M,M,M,M,M,M,M,M,24.57,KRTS 220755Z AUTO 33003KT 10SM CLR M02/M02 A3010 RMK AO2,M
BAM,2023-12-22 07:55,-116.8743,40.5990,1382.36,30.20,28.40,92.92,120.00,3.00,0.00,30.13,M,10.00,M,SCT,M,M,M,7500.00,M,M,M,M,M,M,M,M,M,M,26.63,KBAM 220755Z AUTO 12003KT 10SM SCT075 M01/M02 A3013 RMK AO1,M
HTH,2023-12-22 07:55,-118.6315,38.5448,1282.89,41.00,32.00,70.08,150.00,9.00,0.00,30.09,M,10.00,M,CLR,M,M,M,M,M,M,M,M,M,M,M,M,M,M,34.70,KHTH 220755Z AUTO 15009KT 10SM CLR 05/00 A3009 RMK A01,M
LSV,2023-12-22 07:55,-115.0343,36.2362,570.00,60.30,36.50,40.98,50.00,5.00,0.00,30.00,1014.70,10.00,M,BKN,BKN,M,M,7500.00,10000.00,M,M,M,M,M,M,M,M,M,60.30,KLSV 220755Z AUTO 05005KT 10SM BKN075 BKN100 16/03 A3000 RMK AO2 SLP147 T01570025 402070110 $,M
TMT,2023-12-22 07:55,-117.1971,39.4643,1749.34,25.00,23.00,91.97,0.00,0.00,0.00,30.14,M,10.00,M,CLR,M,M,M,M,M,M,M,M,M,M,M,M,M,M,25.00,KTMT 220755Z AUTO 00000KT 10SM CLR M04/M05 A3014 RMK AO2 T10381050 401011073,M
EKO,2023-12-22 07:56,-115.7860,40.8242,1367.00,29.00,27.00,92.12,0.00,0.00,0.00,30.15,1021.90,10.00,M,CLR,M,M,M,M,M,M,M,M,M,M,M,M,M,M,29.00,KEKO 220756Z AUTO 00000KT 10SM CLR M02/M03 A3015 RMK AO2 SLP219 T10171028 400941028 PWINO FZRANO $,M
WMC,2023-12-22 07:56,-117.8072,40.9019,1315.00,29.00,25.00,84.79,0.00,0.00,0.00,30.10,1019.40,10.00,M,CLR,M,M,M,M,M,M,M,M,M,M,M,M,M,M,29.00,KWMC 220756Z AUTO 00000KT 10SM CLR M02/M04 A3010 RMK AO2 SLP194 T10171039 401391061,M
NFL,2023-12-22 07:56,-118.7010,39.4166,1199.00,29.00,24.00,81.32,0.00,0.00,0.00,30.08,1015.40,10.00,M,CLR,M,M,M,M,M,M,M,M,M,M,M,M,M,M,29.00,KNFL 220756Z AUTO 00000KT 10SM CLR M02/M04 A3008 RMK AO2 SLP154 T10171044 401441022,M
HND,2023-12-22 07:56,-115.1344,35.9729,742.79,52.00,38.00,58.71,160.00,5.00,0.00,30.05,1018.50,10.00,M,FEW,M,M,M,7500.00,M,M,M,M,M,M,M,M,M,M,52.00,KHND 220756Z AUTO 16005KT 10SM FEW075 11/03 A3005 RMK AO2 SLP185 T01110033,M
TPH,2023-12-22 07:56,-117.0904,38.0505,1654.00,37.00,34.00,88.78,10.00,5.00,0.00,30.11,1018.50,10.00,M,OVC,M,M,M,7000.00,M,M,M,M,M,M,M,M,M,M,32.33,KTPH 220756Z AUTO 01005KT 10SM OVC070 03/01 A3011 RMK AO2 SLP185 T00280011 401060011,M
LAS,2023-12-22 07:56,-115.1634,36.0719,663.00,57.00,39.00,50.88,210.00,3.00,0.00,30.03,1015.80,10.00,M,SCT,BKN,M,M,8000.00,20000.00,M,M,M,M,M,M,M,M,M,57.00,KLAS 220756Z 21003KT 10SM SCT080 BKN200 14/04 A3003 RMK AO2 SLP158 ACC DSNT NW-NE T01390039 402000117,M
10U,2023-12-22 08:00,-116.1876,41.9532,1637.00,28.40,26.60,92.86,60.00,5.00,0.00,30.14,M,10.00,M,CLR,M,M,M,M,M,M,M,M,M,M,M,M,M,M,22.12,K10U 220800Z AUTO 06005KT 10SM CLR M02/M03 A3014 RMK AO2,M
BVU,2023-12-22 08:15,-114.8611,35.9475,671.00,53.60,39.20,58.02,20.00,6.00,0.00,30.01,M,10.00,M,BKN,M,M,M,7000.00,M,M,M,M,M,M,M,M,M,M,53.60,KBVU 220815Z AUTO 02006KT 10SM BKN070 12/04 A3001 RMK AO2,M
CXP,2023-12-22 08:15,-119.7326,39.1923,1431.00,32.00,32.00,100.00,0.00,0.00,0.00,30.11,M,5.00,M,CLR,M,M,M,M,M,M,M,BR,M,M,M,M,M,M,32.00,KCXP 220815Z AUTO 00000KT 5SM BR CLR M00/M00 A3011 RMK AO2,M
RTS,2023-12-22 08:15,-119.8764,39.6682,1539.00,32.00,30.20,92.97,0.00,0.00,0.00,30.09,M,10.00,M,CLR,M,M,M,M,M,M,M,M,M,M,M,M,M,M,32.00,KRTS 220815Z AUTO 00000KT 10SM CLR M00/M01 A3009 RMK AO2,M
05U,2023-12-22 08:15,-116.0051,39.6042,1811.23,32.00,28.40,86.39,M,M,0.00,30.16,M,10.00,M,M,M,M,M,M,M,M,M,M,M,M,M,M,M,M,M,K05U 220815Z AUTO 10SM M00/M02 A3016 RMK A01,M
MEV,2023-12-22 08:15,-119.7500,38.9963,1441.42,30.20,30.20,100.00,0.00,0.00,0.00,30.09,M,10.00,M,BKN,M,M,M,300.00,M,M,M,M,M,M,M,M,M,M,30.20,KMEV 220815Z AUTO 00000KT 10SM BKN003 M01/M01 A3009 RMK AO2,M
BAM,2023-12-22 08:15,-116.8743,40.5990,1382.36,28.40,26.60,92.86,0.00,0.00,0.00,30.13,M,10.00,M,SCT,M,M,M,7500.00,M,M,M,M,M,M,M,M,M,M,28.40,KBAM 220815Z AUTO 00000KT 10SM SCT075 M02/M03 A3013 RMK AO1,M
HTH,2023-12-22 08:15,-118.6315,38.5448,1282.89,39.20,32.00,75.16,160.00,8.00,0.00,30.09,M,10.00,M,CLR,M,M,M,M,M,M,M,M,M,M,M,M,M,M,32.98,KHTH 220815Z AUTO 16008KT 10SM CLR 04/M00 A3009 RMK A01,M
TMT,2023-12-22 08:15,-117.1971,39.4643,1749.34,24.80,22.60,91.20,230.00,3.00,0.00,30.13,M,10.00,M,CLR,M,M,M,M,M,M,M,M,M,M,M,M,M,M,20.46,KTMT 220815Z AUTO 23003KT 10SM CLR M04/M05 A3013 RMK AO2 T10401052,M
10U,2023-12-22 08:20,-116.1876,41.9532,1637.00,30.20,28.40,92.92,100.00,4.00,0.00,30.13,M,10.00,M,CLR,M,M,M,M,M,M,M,M,M,M,M,M,M,M,25.32,K10U 220820Z AUTO 10004KT 10SM CLR M01/M02 A3013 RMK AO2,M
05U,2023-12-22 08:30,-116.0051,39.6042,1811.23,32.00,28.40,86.39,0.00,0.00,0.00,30.15,M,10.00,M,M,M,M,M,M,M,M,M,M,M,M,M,M,M,M,32.00,K05U 220830Z AUTO 00000KT 10SM 00/M02 A3015 RMK A01,M
BVU,2023-12-22 08:35,-114.8611,35.9475,671.00,55.40,39.20,54.34,30.00,7.00,0.00,30.01,M,10.00,M,SCT,M,M,M,7000.00,M,M,M,M,M,M,M,M,M,M,55.40,KBVU 220835Z AUTO 03007KT 10SM SCT070 13/04 A3001 RMK AO2,M
CXP,2023-12-22 08:35,-119.7326,39.1923,1431.00,30.20,30.20,100.00,0.00,0.00,0.00,30.10,M,6.00,M,FEW,M,M,M,200.00,M,M,M,BR,M,M,M,M,M,M,30.20,KCXP 220835Z AUTO 00000KT 6SM BR FEW002 M01/M01 A3010 RMK AO2,M
RTS,2023-12-22 08:35,-119.8764,39.6682,1539.00,26.60,26.60,100.00,310.00,3.00,0.00,30.09,M,10.00,M,CLR,M,M,M,M,M,M,M,M,M,M,M,M,M,M,22.52,KRTS 220835Z AUTO 31003KT 10SM CLR M03/M03 A3009 RMK AO2,M
MEV,2023-12-22 08:35,-119.7500,38.9963,1441.42,28.40,28.40,100.00,210.00,3.00,0.00,30.10,M,0.25,M,OVC,M,M,M,300.00,M,M,M,FZFG,M,M,M,M,M,M,24.57,KMEV 220835Z AUTO 21003KT 1/4SM FZFG OVC003 M02/M02 A3010 RMK AO2,M
BAM,2023-12-22 08:35,-116.8743,40.5990,1382.36,28.40,26.60,92.86,0.00,0.00,0.00,30.12,M,10.00,M,CLR,M,M,M,M,M,M,M,M,M,M,M,M,M,M,28.40,KBAM 220835Z AUTO 00000KT 10SM CLR M02/M03 A3012 RMK AO1,M
HTH,2023-12-22 08:35,-118.6315,38.5448,1282.89,41.00,32.00,70.08,200.00,7.00,0.00,30.08,M,10.00,M,FEW,M,M,M,7500.00,M,M,M,M,M,M,M,M,M,M,35.75,KHTH 220835Z AUTO 20007KT 10SM FEW075 05/M00 A3008 RMK A01,M
TMT,2023-12-22 08:35,-117.1971,39.4643,1749.34,24.00,22.00,91.94,0.00,0.00,0.00,30.13,M,10.00,M,CLR,M,M,M,M,M,M,M,M,M,M,M,M,M,M,24.00,KTMT 220835Z AUTO 00000KT 10SM CLR M04/M05 A3013 RMK AO2 T10441055,M
10U,2023-12-22 08:40,-116.1876,41.9532,1637.00,30.20,28.40,92.92,M,M,0.00,30.13,M,10.00,M,CLR,M,M,M,M,M,M,M,M,M,M,M,M,M,M,M,K10U 220840Z AUTO 10SM CLR M01/M02 A3013 RMK AO2,M
P68,2023-12-22 08:53,-116.0056,39.6014,1993.00,35.00,31.00,85.17,170.00,5.00,0.00,30.12,1017.20,M,M,M,M,M,M,M,M,M,M,M,M,M,M,M,M,M,29.96,KP68 220853Z AUTO 17005KT 02/M01 A3012 RMK AO1 SLP172 T00171006 58011,M
DRA,2023-12-22 08:53,-116.0278,36.6206,1009.00,M,M,M,M,M,0.00,30.02,M,M,M,M,M,M,M,M,M,M,M,M,M,M,M,M,M,M,M,KDRA 220853Z AUTO A3002 RMK AO2 SLPNO 58012 PWINO $,M
ELY,2023-12-22 08:53,-114.8453,39.2950,1909.00,28.00,25.00,88.33,M,M,0.00,30.15,1018.80,10.00,M,CLR,M,M,M,M,M,M,M,M,M,M,M,M,M,M,M,KELY 220853Z AUTO 10SM CLR M02/M04 A3015 RMK AO2 SLP188 T10221039 58009,M
VGT,2023-12-22 08:53,-115.1933,36.2111,667.00,54.00,40.00,58.99,0.00,0.00,0.00,30.01,1017.20,10.00,M,SCT,M,M,M,8000.00,M,M,M,M,M,M,M,M,M,M,54.00,KVGT 220853Z AUTO 00000KT 10SM SCT080 12/04 A3001 RMK AO2 SLP172 T01220044 58005,M
LOL,2023-12-22 08:53,-118.5701,40.0684,1192.43,24.00,20.00,84.46,0.00,0.00,0.00,30.07,1019.30,10.00,M,CLR,M,M,M,M,M,M,M,M,M,M,M,M,M,M,24.00,KLOL 220853Z AUTO 00000KT 10SM CLR M04/M07 A3007 RMK AO2 SLP193 T10441067 58007,M
BVU,2023-12-22 08:55,-114.8611,35.9475,671.00,57.20,39.20,50.91,0.00,0.00,0.00,30.01,M,10.00,M,BKN,BKN,M,M,6500.00,7500.00,M,M,M,M,M,M,M,M,M,57.20,KBVU 220855Z AUTO 00000KT 10SM BKN065 BKN075 14/04 A3001 RMK AO2,M
CXP,2023-12-22 08:55,-119.7326,39.1923,1431.00,30.20,30.20,100.00,0.00,0.00,0.00,30.10,M,6.00,M,FEW,M,M,M,200.00,M,M,M,BR,M,M,M,M,M,M,30.20,KCXP 220855Z AUTO 00000KT 6SM BR FEW002 M01/M01 A3010 RMK AO2,M
INS,2023-12-22 08:55,-115.6733,36.5872,955.00,46.60,33.80,60.81,0.00,0.00,0.00,30.03,1014.70,10.00,M,CLR,M,M,M,M,M,M,M,M,M,M,M,M,M,M,46.60,KINS 220855Z AUTO 00000KT 10SM CLR 08/01 A3003 RMK AO2 SLP147 T00810010 57009 $,M
RNO,2023-12-22 08:55,-119.7711,39.4839,1341.00,33.00,30.00,88.58,0.00,0.00,0.00,30.08,1018.10,10.00,M,CLR,M,M,M,M,M,M,M,M,M,M,M,M,M,M,33.00,KRNO 220855Z 00000KT 10SM CLR 01/M01 A3008 RMK AO2 SLP181 T00061011 58006,M
RTS,2023-12-22 08:55,-119.8764,39.6682,1539.00,28.40,28.40,100.00,0.00,0.00,0.00,30.09,M,10.00,M,CLR,M,M,M,M,M,M,M,M,M,M,M,M,M,M,28.40,KRTS 220855Z AUTO 00000KT 10SM CLR M02/M02 A3009 RMK AO2,M
05U,2023-12-22 08:55,-116.0051,39.6042,1811.23,37.40,32.00,80.65,330.00,4.00,0.00,30.14,M,10.00,M,M,M,M,M,M,M,M,M,M,M,M,M,M,M,M,33.73,K05U 220855Z AUTO 33004KT 10SM 03/00 A3014 RMK A01,M
MEV,2023-12-22 08:55,-119.7500,38.9963,1441.42,28.40,28.40,100.00,210.00,3.00,0.00,30.09,M,5.00,M,SCT,SCT,SCT,M,300.00,1600.00,2700.00,M,BR,M,M,M,M,M,M,24.57,KMEV 220855Z AUTO 21003KT 5SM BR SCT003 SCT016 SCT027 M02/M02 A3009 RMK AO2,M
BAM,2023-12-22 08:55,-116.8743,40.5990,1382.36,28.40,26.60,92.86,0.00,0.00,0.00,30.12,M,10.00,M,CLR,M,M,M,M,M,M,M,M,M,M,M,M,M,M,28.40,KBAM 220855Z AUTO 00000KT 10SM CLR M02/M03 A3012 RMK AO1,M
HTH,2023-12-22 08:55,-118.6315,38.5448,1282.89,37.40,30.20,74.98,0.00,0.00,0.00,30.08,M,10.00,M,FEW,M,M,M,7000.00,M,M,M,M,M,M,M,M,M,M,37.40,KHTH 220855Z AUTO 00000KT 10SM FEW070 03/M01 A3008 RMK A01,M
LSV,2023-12-22 08:55,-115.0343,36.2362,570.00,59.00,36.00,42.08,100.00,7.00,0.00,29.99,1014.30,10.00,M,CLR,M,M,M,M,M,M,M,M,M,M,M,M,M,M,59.00,KLSV 220855Z AUTO 10007KT 10SM CLR 15/02 A2999 RMK AO2 SLP143 T01510023 58006 $,M
TMT,2023-12-22 08:55,-117.1971,39.4643,1749.34,22.00,20.30,93.05,0.00,0.00,0.00,30.13,M,10.00,M,CLR,M,M,M,M,M,M,M,M,M,M,M,M,M,M,22.00,KTMT 220855Z AUTO 00000KT 10SM CLR M06/M06 A3013 RMK AO2 T10561065,M
EKO,2023-12-22 08:56,-115.7860,40.8242,1367.00,30.00,27.00,88.44,0.00,0.00,0.00,30.14,1021.00,10.00,M,CLR,M,M,M,M,M,M,M,M,M,M,M,M,M,M,30.00,KEKO 220856Z AUTO 00000KT 10SM CLR M01/M03 A3014 RMK AO2 SLP210 T10111028 58004 PWINO FZRANO $,M
WMC,2023-12-22 08:56,-117.8072,40.9019,1315.00,29.00,25.00,84.79,110.00,4.00,0.00,30.09,1018.80,10.00,M,CLR,M,M,M,M,M,M,M,M,M,M,M,M,M,M,23.92,KWMC 220856Z AUTO 11004KT 10SM CLR M02/M04 A3009 RMK AO2 SLP188 T10171039 58007,M
NFL,2023-12-22 08:56,-118.7010,39.4166,1199.00,29.00,24.00,81.32,170.00,4.00,0.00,30.07,1015.00,10.00,M,CLR,M,M,M,M,M,M,M,M,M,M,M,M,M,M,23.92,KNFL 220856Z AUTO 17004KT 10SM CLR M02/M04 A3007 RMK AO2 SLP150 T10171044 58005,M
HND,2023-12-22 08:56,-115.1344,35.9729,742.79,50.00,37.00,60.79,170.00,6.00,0.00,30.04,1018.20,10.00,M,BKN,M,M,M,6500.00,M,M,M,M,M,M,M,M,M,M,50.00,KHND 220856Z AUTO 17006KT 10SM BKN065 10/03 A3004 RMK AO2 SLP182 T01000028 58006,M
TPH,2023-12-22 08:56,-117.0904,38.0505,1654.00,37.00,34.00,88.78,10.00,7.00,0.00,30.10,1018.10,10.00,M,BKN,M,M,M,7000.00,M,M,M,M,M,M,M,M,M,M,30.87,KTPH 220856Z AUTO 01007KT 10SM BKN070 03/01 A3010 RMK AO2 SLP181 T00280011 57011,M
LAS,2023-12-22 08:56,-115.1634,36.0719,663.00,56.00,40.00,54.85,280.00,4.00,0.00,30.01,1015.20,10.00,M,BKN,BKN,M,M,8000.00,20000.00,M,M,M,M,M,M,M,M,M,56.00,KLAS 220856Z 28004KT 10SM BKN080 BKN200 13/04 A3001 RMK AO2 SLP152 ACC DSNT NW-NE T01330044 58009,M
10U,2023-12-22 09:00,-116.1876,41.9532,1637.00,28.40,26.60,92.86,0.00,0.00,0.00,30.12,M,10.00,M,CLR,M,M,M,M,M,M,M,M,M,M,M,M,M,M,28.40,K10U 220900Z AUTO 00000KT 10SM CLR M02/M03 A3012 RMK AO2,M
05U,2023-12-22 09:10,-116.0051,39.6042,1811.23,33.80,28.40,80.36,0.00,0.00,0.00,30.14,M,10.00,M,M,M,M,M,M,M,M,M,M,M,M,M,M,M,M,33.80,K05U 220910Z AUTO 00000KT 10SM 01/M02 A3014 RMK A01,M
BVU,2023-12-22 09:15,-114.8611,35.9475,671.00,53.60,37.40,54.07,320.00,4.00,0.00,30.00,M,10.00,M,BKN,BKN,M,M,6500.00,7500.00,M,M,M,M,M,M,M,M,M,53.60,KBVU 220915Z AUTO 32004KT 10SM BKN065 BKN075 12/03 A3000 RMK AO2,M
CXP,2023-12-22 09:15,-119.7326,39.1923,1431.00,30.20,30.20,100.00,0.00,0.00,0.00,30.10,M,0.25,M,BKN,M,M,M,100.00,M,M,M,FZFG,M,M,M,M,M,M,30.20,KCXP 220915Z AUTO 00000KT M1/4SM FZFG BKN001 M01/M01 A3010 RMK AO2,M
RTS,2023-12-22 09:15,-119.8764,39.6682,1539.00,26.60,26.60,100.00,0.00,0.00,0.00,30.09,M,10.00,M,CLR,M,M,M,M,M,M,M,M,M,M,M,M,M,M,26.60,KRTS 220915Z AUTO 00000KT 10SM CLR M03/M03 A3009 RMK AO2,M
MEV,2023-12-22 09:15,-119.7500,38.9963,1441.42,28.40,28.40,100.00,0.00,0.00,0.00,30.09,M,6.00,M,CLR,M,M,M,M,M,M,M,BR,M,M,M,M,M,M,28.40,KMEV 220915Z AUTO 00000KT 6SM BR CLR M02/M02 A3009 RMK AO2,M
BAM,2023-12-22 09:15,-116.8743,40.5990,1382.36,28.40,24.80,86.18,0.00,0.00,0.00,30.11,M,10.00,M,CLR,M,M,M,M,M,M,M,M,M,M,M,M,M,M,28.40,KBAM 220915Z AUTO 00000KT 10SM CLR M02/M04 A3011 RMK AO1,M
HTH,2023-12-22 09:15,-118.6315,38.5448,1282.89,39.20,30.20,69.88,230.00,5.00,0.00,30.08,M,10.00,M,FEW,FEW,M,M,6000.00,7000.00,M,M,M,M,M,M,M,M,M,34.95,KHTH 220915Z AUTO 23005KT 10SM FEW060 FEW070 04/M01 A3008 RMK A01,M
TMT,2023-12-22 09:15,-117.1971,39.4643,1749.34,23.70,21.70,91.93,0.00,0.00,0.00,30.13,M,10.00,M,CLR,M,M,M,M,M,M,M,M,M,M,M,M,M,M,23.70,KTMT 220915Z AUTO 00000KT 10SM CLR M05/M06 A3013 RMK AO2 T10461057,M
10U,2023-12-22 09:20,-116.1876,41.9532,1637.00,28.40,26.60,92.86,10.00,4.00,0.00,30.12,M,10.00,M,CLR,M,M,M,M,M,M,M,M,M,M,M,M,M,M,23.22,K10U 220920Z AUTO 01004KT 10SM CLR M02/M03 A3012 RMK AO2,M
05U,2023-12-22 09:30,-116.0051,39.6042,1811.23,30.20,26.60,86.28,0.00,0.00,0.00,30.14,M,10.00,M,M,M,M,M,M,M,M,M,M,M,M,M,M,M,M,30.20,K05U 220930Z AUTO 00000KT 10SM M01/M03 A3014 RMK A01,M
BVU,2023-12-22 09:35,-114.8611,35.9475,671.00,53.60,37.40,54.07,0.00,0.00,0.00,30.00,M,10.00,M,FEW,M,M,M,6500.00,M,M,M,M,M,M,M,M,M,M,53.60,KBVU 220935Z AUTO 00000KT 10SM FEW065 12/03 A3000 RMK AO2,M
CXP,2023-12-22 09:35,-119.7326,39.1923,1431.00,30.20,30.20,100.00,0.00,0.00,0.00,30.10,M,6.00,M,FEW,M,M,M,200.00,M,M,M,BR,M,M,M,M,M,M,30.20,KCXP 220935Z AUTO 00000KT 6SM BR FEW002 M01/M01 A3010 RMK AO2,M
RTS,2023-12-22 09:35,-119.8764,39.6682,1539.00,28.40,26.60,92.86,0.00,0.00,0.00,30.08,M,10.00,M,CLR,M,M,M,M,M,M,M,M,M,M,M,M,M,M,28.40,KRTS 220935Z AUTO 00000KT 10SM CLR M02/M03 A3008 RMK AO2,M
MEV,2023-12-22 09:35,-119.7500,38.9963,1441.42,26.60,26.60,100.00,0.00,0.00,0.00,30.09,M,10.00,M,BKN,BKN,BKN,M,400.00,2300.00,3400.00,M,M,M,M,M,M,M,M,26.60,KMEV 220935Z AUTO 00000KT 10SM BKN004 BKN023 BKN034 M03/M03 A3009 RMK AO2,M
BAM,2023-12-22 09:35,-116.8743,40.5990,1382.36,26.60,23.00,86.07,0.00,0.00,0.00,30.12,M,10.00,M,CLR,M,M,M,M,M,M,M,M,M,M,M,M,M,M,26.60,KBAM 220935Z AUTO 00000KT 10SM CLR M03/M05 A3012 RMK AO1,M
HTH,2023-12-22 09:35,-118.6315,38.5448,1282.89,37.40,30.20,74.98,210.00,4.00,0.00,30.08,M,10.00,M,FEW,M,M,M,6000.00,M,M,M,M,M,M,M,M,M,M,33.73,KHTH 220935Z AUTO 21004KT 10SM FEW060 03/M01 A3008 RMK A01,M
TMT,2023-12-22 09:35,-117.1971,39.4643,1749.34,23.00,21.00,91.90,0.00,0.00,0.00,30.13,M,10.00,M,CLR,M,M,M,M,M,M,M,M,M,M,M,M,M,M,23.00,KTMT 220935Z AUTO 00000KT 10SM CLR M05/M06 A3013 RMK AO2 T10511061,M
10U,2023-12-22 09:40,-116.1876,41.9532,1637.00,28.40,26.60,92.86,60.00,3.00,0.00,30.12,M,10.00,M,CLR,M,M,M,M,M,M,M,M,M,M,M,M,M,M,24.57,K10U 220940Z AUTO 06003KT 10SM CLR M02/M03 A3012 RMK AO2,M
05U,2023-12-22 09:50,-116.0051,39.6042,1811.23,30.20,28.40,92.92,0.00,0.00,0.00,30.14,M,10.00,M,M,M,M,M,M,M,M,M,M,M,M,M,M,M,M,30.20,K05U 220950Z AUTO 00000KT 10SM M01/M02 A3014 RMK A01,M
P68,2023-12-22 09:53,-116.0056,39.6014,1993.00,31.00,28.00,88.48,210.00,4.00,0.00,30.12,1017.80,M,M,M,M,M,M,M,M,M,M,M,M,M,M,M,M,M,26.25,KP68 220953Z AUTO 21004KT M01/M02 A3012 RMK AO1 SLP178 T10061022,M
DRA,2023-12-22 09:53,-116.0278,36.6206,1009.00,M,M,M,M,M,0.00,30.02,M,M,M,M,M,M,M,M,M,M,M,M,M,M,M,M,M,M,M,KDRA 220953Z AUTO A3002 RMK AO2 SLPNO PWINO $,M
ELY,2023-12-22 09:53,-114.8453,39.2950,1909.00,28.00,25.00,88.33,M,M,0.00,30.15,1018.80,10.00,M,CLR,M,M,M,M,M,M,M,M,M,M,M,M,M,M,M,KELY 220953Z AUTO 10SM CLR M02/M04 A3015 RMK AO2 SLP188 T10221039,M
VGT,2023-12-22 09:53,-115.1933,36.2111,667.00,55.00,40.00,56.88,0.00,0.00,0.00,30.02,1017.30,10.00,M,BKN,M,M,M,8000.00,M,M,M,M,M,M,M,M,M,M,55.00,KVGT 220953Z AUTO 00000KT 10SM BKN080 13/04 A3002 RMK AO2 SLP173 T01280044,M
LOL,2023-12-22 09:53,-118.5701,40.0684,1192.43,23.00,20.00,88.08,0.00,0.00,0.00,30.07,1019.30,10.00,M,CLR,M,M,M,M,M,M,M,M,M,M,M,M,M,M,23.00,KLOL 220953Z AUTO 00000KT 10SM CLR M05/M07 A3007 RMK AO2 SLP193 T10501067,M
BVU,2023-12-22 09:55,-114.8611,35.9475,671.00,53.60,37.40,54.07,230.00,4.00,0.00,30.01,M,10.00,M,FEW,M,M,M,7500.00,M,M,M,M,M,M,M,M,M,M,53.60,KBVU 220955Z AUTO 23004KT 10SM FEW075 12/03 A3001 RMK AO2,M
CXP,2023-12-22 09:55,-119.7326,39.1923,1431.00,32.00,32.00,100.00,0.00,0.00,0.00,30.10,M,2.50,M,FEW,M,M,M,300.00,M,M,M,BR,M,M,M,M,M,M,32.00,KCXP 220955Z AUTO 00000KT 2 1/2SM BR FEW003 M00/M00 A3010 RMK AO2,M
INS,2023-12-22 09:55,-115.6733,36.5872,955.00,41.70,31.60,67.12,260.00,7.00,0.00,30.04,1015.30,10.00,M,FEW,M,M,M,6000.00,M,M,M,M,M,M,M,M,M,M,36.60,KINS 220955Z AUTO 26007KT 10SM FEW060 05/M00 A3004 RMK AO2 SLP153 T00541002 $,M
RNO,2023-12-22 09:55,-119.7711,39.4839,1341.00,31.00,29.00,92.19,0.00,0.00,0.00,30.07,1017.80,8.00,M,CLR,M,M,M,M,M,M,M,M,M,M,M,M,M,M,31.00,KRNO 220955Z 00000KT 8SM CLR M01/M02 A3007 RMK AO2 SLP178 T10061017,M
RTS,2023-12-22 09:55,-119.8764,39.6682,1539.00,26.60,26.60,100.00,350.00,4.00,0.00,30.08,M,10.00,M,CLR,M,M,M,M,M,M,M,M,M,M,M,M,M,M,21.11,KRTS 220955Z AUTO 35004KT 10SM CLR M03/M03 A3008 RMK AO2,M
MEV,2023-12-22 09:55,-119.7500,38.9963,1441.42,28.40,26.60,92.86,0.00,0.00,0.00,30.08,M,4.00,M,FEW,SCT,BKN,M,400.00,2000.00,2700.00,M,BR,M,M,M,M,M,M,28.40,KMEV 220955Z AUTO 00000KT 4SM BR FEW004 SCT020 BKN027 M02/M03 A3008 RMK AO2,M
BAM,2023-12-22 09:55,-116.8743,40.5990,1382.36,26.60,23.00,86.07,0.00,0.00,0.00,30.11,M,10.00,M,CLR,M,M,M,M,M,M,M,M,M,M,M,M,M,M,26.60,KBAM 220955Z AUTO 00000KT 10SM CLR M03/M05 A3011 RMK AO1,M
HTH,2023-12-22 09:55,-118.6315,38.5448,1282.89,35.60,28.40,74.80,240.00,4.00,0.00,30.08,M,10.00,M,FEW,M,M,M,8000.00,M,M,M,M,M,M,M,M,M,M,31.62,KHTH 220955Z AUTO 24004KT 10SM FEW080 02/M02 A3008 RMK A01,M
LSV,2023-12-22 09:55,-115.0343,36.2362,570.00,59.40,35.60,40.83,100.00,7.00,0.00,29.99,1014.30,10.00,M,BKN,M,M,M,7500.00,M,M,M,M,M,M,M,M,M,M,59.40,KLSV 220955Z AUTO 10007KT 10SM BKN075 15/02 A2999 RMK AO2 SLP143 T01520020 $,M
TMT,2023-12-22 09:55,-117.1971,39.4643,1749.34,23.00,21.20,92.69,220.00,4.00,0.00,30.13,M,10.00,M,CLR,M,M,M,M,M,M,M,M,M,M,M,M,M,M,16.91,KTMT 220955Z AUTO 22004KT 10SM CLR M05/M06 A3013 RMK AO2 T10501060,M
EKO,2023-12-22 09:56,-115.7860,40.8242,1367.00,29.00,26.00,88.38,80.00,3.00,0.00,30.14,1021.00,10.00,M,CLR,M,M,M,M,M,M,M,M,M,M,M,M,M,M,25.26,KEKO 220956Z AUTO 08003KT 10SM CLR M02/M03 A3014 RMK AO2 SLP210 T10171033 PWINO FZRANO $,M
WMC,2023-12-22 09:56,-117.8072,40.9019,1315.00,26.00,22.00,84.59,0.00,0.00,0.00,30.09,1018.50,10.00,M,CLR,M,M,M,M,M,M,M,M,M,M,M,M,M,M,26.00,KWMC 220956Z AUTO 00000KT 10SM CLR M03/M06 A3009 RMK AO2 SLP185 T10331056,M
NFL,2023-12-22 09:56,-118.7010,39.4166,1199.00,29.00,25.00,84.79,0.00,0.00,0.00,30.06,1014.80,9.00,M,CLR,M,M,M,M,M,M,M,M,M,M,M,M,M,M,29.00,KNFL 220956Z AUTO 00000KT 9SM CLR M02/M04 A3006 RMK AO2 SLP148 T10171039,M
HND,2023-12-22 09:56,-115.1344,35.9729,742.79,51.00,38.00,60.92,180.00,3.00,0.00,30.04,1018.10,10.00,M,CLR,M,M,M,M,M,M,M,M,M,M,M,M,M,M,51.00,KHND 220956Z AUTO 18003KT 10SM CLR 11/03 A3004 RMK AO2 SLP181 T01060033,M
TPH,2023-12-22 09:56,-117.0904,38.0505,1654.00,39.00,34.00,82.08,20.00,8.00,T,30.11,1017.70,10.00,M,BKN,BKN,OVC,M,4300.00,6000.00,7000.00,M,-RA,M,M,M,M,M,M,32.74,KTPH 220956Z AUTO 02008KT 10SM -RA BKN043 BKN060 OVC070 04/01 A3011 RMK AO2 RAB52 SLP177 P0000 T00390011,M
LAS,2023-12-22 09:56,-115.1634,36.0719,663.00,55.00,39.00,54.70,290.00,5.00,0.00,30.02,1015.40,10.00,M,SCT,OVC,M,M,7000.00,20000.00,M,M,M,M,M,M,M,M,M,55.00,KLAS 220956Z 29005KT 10SM SCT070 OVC200 13/04 A3002 RMK AO2 SLP154 T01280039,M
10U,2023-12-22 10:00,-116.1876,41.9532,1637.00,26.60,26.60,100.00,50.00,3.00,0.00,30.12,M,10.00,M,CLR,M,M,M,M,M,M,M,M,M,M,M,M,M,M,22.52,K10U 221000Z AUTO 05003KT 10SM CLR M03/M03 A3012 RMK AO2,M
05U,2023-12-22 10:10,-116.0051,39.6042,1811.23,28.40,26.60,92.86,30.00,6.00,0.00,30.14,M,10.00,M,M,M,M,M,M,M,M,M,M,M,M,M,M,M,M,21.19,K05U 221010Z AUTO 03006KT 10SM M02/M03 A3014 RMK A01,M
BVU,2023-12-22 10:15,-114.8611,35.9475,671.00,51.80,37.40,57.77,0.00,0.00,0.00,30.01,M,10.00,M,BKN,BKN,M,M,7000.00,8500.00,M,M,M,M,M,M,M,M,M,51.80,KBVU 221015Z AUTO 00000KT 10SM BKN070 BKN085 11/03 A3001 RMK AO2,M
CXP,2023-12-22 10:15,-119.7326,39.1923,1431.00,30.20,30.20,100.00,0.00,0.00,0.00,30.10,M,0.25,M,OVC,M,M,M,200.00,M,M,M,FZFG,M,M,M,M,M,M,30.20,KCXP 221015Z AUTO 00000KT M1/4SM FZFG OVC002 M01/M01 A3010 RMK AO2,M
RTS,2023-12-22 10:15,-119.8764,39.6682,1539.00,28.40,28.40,100.00,330.00,3.00,0.00,30.08,M,10.00,M,CLR,M,M,M,M,M,M,M,M,M,M,M,M,M,M,24.57,KRTS 221015Z AUTO 33003KT 10SM CLR M02/M02 A3008 RMK AO2,M
MEV,2023-12-22 10:15,-119.7500,38.9963,1441.42,28.40,28.40,100.00,0.00,0.00,0.00,30.08,M,0.25,M,BKN,OVC,M,M,700.00,2100.00,M,M,FZFG,M,M,M,M,M,M,28.40,KMEV 221015Z AUTO 00000KT 1/4SM FZFG BKN007 OVC021 M02/M02 A3008 RMK AO2,M
HTH,2023-12-22 10:15,-118.6315,38.5448,1282.89,37.40,30.20,74.98,240.00,4.00,0.00,30.08,M,10.00,M,BKN,M,M,M,7000.00,M,M,M,M,M,M,M,M,M,M,33.73,KHTH 221015Z AUTO 24004KT 10SM BKN070 03/M01 A3008 RMK A01,M
BAM,2023-12-22 10:15,-116.8743,40.5990,1382.36,26.60,23.00,86.07,120.00,3.00,0.00,30.11,M,10.00,M,CLR,M,M,M,M,M,M,M,M,M,M,M,M,M,M,22.52,KBAM 221015Z AUTO 12003KT 10SM CLR M03/M05 A3011 RMK AO1,M
TMT,2023-12-22 10:15,-117.1971,39.4643,1749.34,22.00,20.30,93.05,0.00,0.00,0.00,30.12,M,10.00,M,CLR,M,M,M,M,M,M,M,M,M,M,M,M,M,M,22.00,KTMT 221015Z AUTO 00000KT 10SM CLR M05/M06 A3012 RMK AO2 T10551065,M
10U,2023-12-22 10:20,-116.1876,41.9532,1637.00,26.60,26.60,100.00,40.00,4.00,0.00,30.11,M,10.00,M,CLR,M,M,M,M,M,M,M,M,M,M,M,M,M,M,21.11,K10U 221020Z AUTO 04004KT 10SM CLR M03/M03 A3011 RMK AO2,M
05U,2023-12-22 10:30,-116.0051,39.6042,1811.23,28.40,26.60,92.86,0.00,0.00,0.00,30.14,M,10.00,M,M,M,M,M,M,M,M,M,M,M,M,M,M,M,M,28.40,K05U 221030Z AUTO 00000KT 10SM M02/M03 A3014 RMK A01,M
BVU,2023-12-22 10:35,-114.8611,35.9475,671.00,50.00,37.40,61.76,0.00,0.00,0.00,30.00,M,10.00,M,BKN,OVC,M,M,7000.00,8000.00,M,M,M,M,M,M,M,M,M,50.00,KBVU 221035Z AUTO 00000KT 10SM BKN070 OVC080 10/03 A3000 RMK AO2,M
CXP,2023-12-22 10:35,-119.7326,39.1923,1431.00,30.20,30.20,100.00,0.00,0.00,0.00,30.09,M,0.25,M,OVC,M,M,M,200.00,M,M,M,FZFG,M,M,M,M,M,M,30.20,KCXP 221035Z AUTO 00000KT M1/4SM FZFG OVC002 M01/M01 A3009 RMK AO2,M
RTS,2023-12-22 10:35,-119.8764,39.6682,1539.00,28.40,26.60,92.86,0.00,0.00,0.00,30.08,M,10.00,M,CLR,M,M,M,M,M,M,M,M,M,M,M,M,M,M,28.40,KRTS 221035Z AUTO 00000KT 10SM CLR M02/M03 A3008 RMK AO2,M
MEV,2023-12-22 10:35,-119.7500,38.9963,1441.42,26.60,26.60,100.00,0.00,0.00,0.00,30.08,M,9.00,M,BKN,BKN,BKN,M,700.00,2000.00,2500.00,M,M,M,M,M,M,M,M,26.60,KMEV 221035Z AUTO 00000KT 9SM BKN007 BKN020 BKN025 M03/M03 A3008 RMK AO2,M
BAM,2023-12-22 10:35,-116.8743,40.5990,1382.36,26.60,23.00,86.07,0.00,0.00,0.00,30.11,M,10.00,M,CLR,M,M,M,M,M,M,M,M,M,M,M,M,M,M,26.60,KBAM 221035Z AUTO 00000KT 10SM CLR M03/M05 A3011 RMK AO1,M
HTH,2023-12-22 10:35,-118.6315,38.5448,1282.89,37.40,32.00,80.65,0.00,0.00,0.00,30.08,M,10.00,M,OVC,M,M,M,7500.00,M,M,M,M,M,M,M,M,M,M,37.40,KHTH 221035Z AUTO 00000KT 10SM OVC075 03/M00 A3008 RMK A01,M
TMT,2023-12-22 10:35,-117.1971,39.4643,1749.34,22.00,20.50,93.84,250.00,3.00,0.00,30.12,M,10.00,M,CLR,M,M,M,M,M,M,M,M,M,M,M,M,M,M,17.26,KTMT 221035Z AUTO 25003KT 10SM CLR M05/M06 A3012 RMK AO2 T10551064,M
10U,2023-12-22 10:40,-116.1876,41.9532,1637.00,26.60,24.80,92.80,330.00,4.00,0.00,30.11,M,10.00,M,CLR,M,M,M,M,M,M,M,M,M,M,M,M,M,M,21.11,K10U 221040Z AUTO 33004KT 10SM CLR M03/M04 A3011 RMK AO2,M
P68,2023-12-22 10:53,-116.0056,39.6014,1993.00,29.00,26.00,88.38,40.00,4.00,0.00,30.11,1017.80,M,M,M,M,M,M,M,M,M,M,M,M,M,M,M,M,M,23.92,KP68 221053Z AUTO 04004KT M02/M03 A3011 RMK AO1 SLP178 T10171033,M
DRA,2023-12-22 10:53,-116.0278,36.6206,1009.00,M,M,M,M,M,0.00,30.01,M,M,M,M,M,M,M,M,M,M,M,M,M,M,M,M,M,M,M,KDRA 221053Z AUTO A3001 RMK AO2 SLPNO PWINO $,M
ELY,2023-12-22 10:53,-114.8453,39.2950,1909.00,27.00,25.00,92.05,M,M,0.00,30.14,1019.10,10.00,M,FEW,M,M,M,7000.00,M,M,M,M,M,M,M,M,M,M,M,KELY 221053Z AUTO 10SM FEW070 M03/M04 A3014 RMK AO2 SLP191 T10281039,M
VGT,2023-12-22 10:53,-115.1933,36.2111,667.00,53.00,40.00,61.19,0.00,0.00,0.00,30.00,1016.80,10.00,M,BKN,M,M,M,8000.00,M,M,M,M,M,M,M,M,M,M,53.00,KVGT 221053Z AUTO 00000KT 10SM BKN080 12/04 A3000 RMK AO2 SLP168 T01170044,M
LOL,2023-12-22 10:53,-118.5701,40.0684,1192.43,24.00,20.00,84.46,0.00,0.00,0.00,30.06,1018.80,10.00,M,CLR,M,M,M,M,M,M,M,M,M,M,M,M,M,M,24.00,KLOL 221053Z AUTO 00000KT 10SM CLR M04/M07 A3006 RMK AO2 SLP188 T10441067,M
BVU,2023-12-22 10:55,-114.8611,35.9475,671.00,51.80,37.40,57.77,0.00,0.00,0.00,29.99,M,10.00,M,SCT,M,M,M,7000.00,M,M,M,M,M,M,M,M,M,M,51.80,KBVU 221055Z AUTO 00000KT 10SM SCT070 11/03 A2999 RMK AO2,M
CXP,2023-12-22 10:55,-119.7326,39.1923,1431.00,30.20,30.20,100.00,0.00,0.00,0.00,30.09,M,0.25,M,OVC,M,M,M,400.00,M,M,M,FZFG,M,M,M,M,M,M,30.20,KCXP 221055Z AUTO 00000KT 1/4SM FZFG OVC004 M01/M01 A3009 RMK AO2,M
INS,2023-12-22 10:55,-115.6733,36.5872,955.00,43.00,32.40,65.94,240.00,5.00,0.00,30.03,1014.90,10.00,M,CLR,M,M,M,M,M,M,M,M,M,M,M,M,M,M,39.46,KINS 221055Z AUTO 24005KT 10SM CLR 06/00 A3003 RMK AO2 SLP149 T00610002 $,M
RNO,2023-12-22 10:55,-119.7711,39.4839,1341.00,31.00,28.00,88.48,0.00,0.00,0.00,30.07,1017.90,6.00,M,FEW,M,M,M,400.00,M,M,M,BR,0.01,M,M,M,M,M,31.00,KRNO 221055Z 00000KT 6SM BR FEW004 M01/M02 A3007 RMK AO2 SLP179 I1001 T10061022,M
RTS,2023-12-22 10:55,-119.8764,39.6682,1539.00,26.60,26.60,100.00,0.00,0.00,0.00,30.07,M,10.00,M,CLR,M,M,M,M,M,M,M,M,M,M,M,M,M,M,26.60,KRTS 221055Z AUTO 00000KT 10SM CLR M03/M03 A3007 RMK AO2,M
05U,2023-12-22 10:55,-116.0051,39.6042,1811.23,28.40,26.60,92.86,120.00,4.00,0.00,30.14,M,10.00,M,M,M,M,M,M,M,M,M,M,M,M,M,M,M,M,23.22,K05U 221055Z AUTO 12004KT 10SM M02/M03 A3014 RMK A01,M
MEV,2023-12-22 10:55,-119.7500,38.9963,1441.42,24.80,24.80,100.00,50.00,4.00,0.00,30.08,M,2.00,M,BKN,BKN,BKN,M,800.00,2300.00,4100.00,M,BR,M,M,M,M,M,M,19.01,KMEV 221055Z AUTO 05004KT 2SM BR BKN008 BKN023 BKN041 M04/M04 A3008 RMK AO2 VIS 3/4V5,M
BAM,2023-12-22 10:55,-116.8743,40.5990,1382.36,26.60,23.00,86.07,0.00,0.00,0.00,30.10,M,10.00,M,CLR,M,M,M,M,M,M,M,M,M,M,M,M,M,M,26.60,KBAM 221055Z AUTO 00000KT 10SM CLR M03/M05 A3010 RMK AO1,M
HTH,2023-12-22 10:55,-118.6315,38.5448,1282.89,37.40,30.20,74.98,230.00,4.00,0.00,30.07,M,10.00,M,SCT,M,M,M,7500.00,M,M,M,M,M,M,M,M,M,M,33.73,KHTH 221055Z AUTO 23004KT 10SM SCT075 03/M01 A3007 RMK A01,M
LSV,2023-12-22 10:55,-115.0343,36.2362,570.00,58.60,35.60,42.02,90.00,6.00,0.00,29.97,1013.70,10.00,M,FEW,M,M,M,7500.00,M,M,M,M,M,M,M,M,M,M,58.60,KLSV 221055Z AUTO 09006KT 10SM FEW075 15/02 A2997 RMK AO2 SLP137 T01480020 $,M
TMT,2023-12-22 10:55,-117.1971,39.4643,1749.34,21.00,19.00,91.83,0.00,0.00,0.00,30.12,M,10.00,M,CLR,M,M,M,M,M,M,M,M,M,M,M,M,M,M,21.00,KTMT 221055Z AUTO 00000KT 10SM CLR M06/M07 A3012 RMK AO2 T10621073,M
EKO,2023-12-22 10:56,-115.7860,40.8242,1367.00,29.00,26.00,88.38,40.00,3.00,0.00,30.12,1020.40,10.00,M,CLR,M,M,M,M,M,M,M,M,M,M,M,M,M,M,25.26,KEKO 221056Z AUTO 04003KT 10SM CLR M02/M03 A3012 RMK AO2 SLP204 T10171033 PWINO FZRANO $,M
WMC,2023-12-22 10:56,-117.8072,40.9019,1315.00,27.00,23.00,84.66,M,3.00,0.00,30.07,1018.10,10.00,M,CLR,M,M,M,M,M,M,M,M,M,M,M,M,M,M,22.97,KWMC 221056Z AUTO VRB03KT 10SM CLR M03/M05 A3007 RMK AO2 SLP181 T10281050,M
NFL,2023-12-22 10:56,-118.7010,39.4166,1199.00,24.00,21.00,88.13,0.00,0.00,0.00,30.06,1014.70,10.00,M,CLR,M,M,M,M,M,M,M,M,M,M,M,M,M,M,24.00,KNFL 221056Z AUTO 00000KT 10SM CLR M04/M06 A3006 RMK AO2 SLP147 T10441061,M
HND,2023-12-22 10:56,-115.1344,35.9729,742.79,50.00,38.00,63.23,160.00,3.00,0.00,30.03,1017.80,10.00,M,BKN,M,M,M,6000.00,M,M,M,M,M,M,M,M,M,M,50.00,KHND 221056Z AUTO 16003KT 10SM BKN060 10/03 A3003 RMK AO2 SLP178 T01000033,M
TPH,2023-12-22 10:56,-117.0904,38.0505,1654.00,38.00,35.00,88.83,360.00,8.00,0.01,30.09,1017.50,10.00,M,BKN,OVC,M,M,4700.00,7000.00,M,M,M,M,M,M,M,M,M,31.50,KTPH 221056Z AUTO 36008KT 10SM BKN047 OVC070 03/02 A3009 RMK AO2 RAE14 SLP175 P0001 T00330017,M
LAS,2023-12-22 10:56,-115.1634,36.0719,663.00,56.00,39.00,52.75,250.00,4.00,0.00,30.00,1014.90,10.00,M,BKN,OVC,M,M,8000.00,20000.00,M,M,M,M,M,M,M,M,M,56.00,KLAS 221056Z 25004KT 10SM BKN080 OVC200 13/04 A3000 RMK AO2 SLP149 T01330039,M
10U,2023-12-22 11:00,-116.1876,41.9532,1637.00,26.60,24.80,92.80,0.00,0.00,0.00,30.10,M,10.00,M,CLR,M,M,M,M,M,M,M,M,M,M,M,M,M,M,26.60,K10U 221100Z AUTO 00000KT 10SM CLR M03/M04 A3010 RMK AO2,M
05U,2023-12-22 11:10,-116.0051,39.6042,1811.23,28.40,26.60,92.86,M,M,0.00,30.13,M,10.00,M,M,M,M,M,M,M,M,M,M,M,M,M,M,M,M,M,K05U 221110Z AUTO 10SM M02/M03 A3013 RMK A01,M
BVU,2023-12-22 11:15,-114.8611,35.9475,671.00,51.80,37.40,57.77,0.00,0.00,0.00,29.99,M,10.00,M,BKN,M,M,M,7000.00,M,M,M,M,M,M,M,M,M,M,51.80,KBVU 221115Z AUTO 00000KT 10SM BKN070 11/03 A2999 RMK AO2,M
CXP,2023-12-22 11:15,-119.7326,39.1923,1431.00,30.20,30.20,100.00,0.00,0.00,0.00,30.09,M,0.25,M,OVC,M,M,M,200.00,M,M,M,FZFG,M,M,M,M,M,M,30.20,KCXP 221115Z AUTO 00000KT 1/4SM FZFG OVC002 M01/M01 A3009 RMK AO2,M
RTS,2023-12-22 11:15,-119.8764,39.6682,1539.00,26.60,24.80,92.80,0.00,0.00,0.00,30.07,M,10.00,M,CLR,M,M,M,M,M,M,M,M,M,M,M,M,M,M,26.60,KRTS 221115Z AUTO 00000KT 10SM CLR M03/M04 A3007 RMK AO2,M
MEV,2023-12-22 11:15,-119.7500,38.9963,1441.42,26.60,24.80,92.80,40.00,4.00,0.00,30.07,M,0.50,M,BKN,BKN,BKN,M,800.00,2100.00,2700.00,M,FZFG,M,M,M,M,M,M,21.11,KMEV 221115Z AUTO 04004KT 1/2SM FZFG BKN008 BKN021 BKN027 M03/M04 A3007 RMK AO2,M
BAM,2023-12-22 11:15,-116.8743,40.5990,1382.36,26.60,23.00,86.07,220.00,3.00,0.00,30.09,M,10.00,M,CLR,M,M,M,M,M,M,M,M,M,M,M,M,M,M,22.52,KBAM 221115Z AUTO 22003KT 10SM CLR M03/M05 A3009 RMK AO1,M
HTH,2023-12-22 11:15,-118.6315,38.5448,1282.89,35.60,30.20,80.51,270.00,4.00,0.00,30.06,M,10.00,M,CLR,M,M,M,M,M,M,M,M,M,M,M,M,M,M,31.62,KHTH 221115Z AUTO 27004KT 10SM CLR 02/M01 A3006 RMK A01,M
TMT,2023-12-22 11:15,-117.1971,39.4643,1749.34,19.00,17.40,93.35,160.00,3.00,0.00,30.11,M,10.00,M,CLR,M,M,M,M,M,M,M,M,M,M,M,M,M,M,13.83,KTMT 221115Z AUTO 16003KT 10SM CLR M07/M08 A3011 RMK AO2 LTG DSNT S T10731081,M
10U,2023-12-22 11:20,-116.1876,41.9532,1637.00,26.60,26.60,100.00,120.00,6.00,0.00,30.09,M,10.00,M,FEW,M,M,M,7000.00,M,M,M,M,M,M,M,M,M,M,19.03,K10U 221120Z AUTO 12006KT 10SM FEW070 M03/M03 A3009 RMK AO2,M
05U,2023-12-22 11:30,-116.0051,39.6042,1811.23,26.60,26.60,100.00,160.00,4.00,0.00,30.13,M,10.00,M,M,M,M,M,M,M,M,M,M,M,M,M,M,M,M,21.11,K05U 221130Z AUTO 16004KT 10SM M03/M03 A3013 RMK A01,M
BVU,2023-12-22 11:35,-114.8611,35.9475,671.00,51.80,37.40,57.77,0.00,0.00,0.00,29.99,M,10.00,M,SCT,M,M,M,7000.00,M,M,M,M,M,M,M,M,M,M,51.80,KBVU 221135Z AUTO 00000KT 10SM SCT070 11/03 A2999 RMK AO2,M
CXP,2023-12-22 11:35,-119.7326,39.1923,1431.00,32.00,32.00,100.00,310.00,4.00,0.00,30.08,M,0.50,M,OVC,M,M,M,200.00,M,M,M,BR,M,M,M,M,M,M,27.42,KCXP 221135Z AUTO 31004KT 1/2SM BR OVC002 M00/M00 A3008 RMK AO2,M
RTS,2023-12-22 11:35,-119.8764,39.6682,1539.00,26.60,24.80,92.80,0.00,0.00,0.00,30.07,M,10.00,M,CLR,M,M,M,M,M,M,M,M,M,M,M,M,M,M,26.60,KRTS 221135Z AUTO 00000KT 10SM CLR M03/M04 A3007 RMK AO2,M
MEV,2023-12-22 11:35,-119.7500,38.9963,1441.42,26.60,26.60,100.00,0.00,0.00,0.00,30.07,M,1.75,M,BKN,BKN,OVC,M,200.00,2100.00,2500.00,M,BR,M,M,M,M,M,M,26.60,KMEV 221135Z AUTO 00000KT 1 3/4SM BR BKN002 BKN021 OVC025 M03/M03 A3007 RMK AO2 VIS 1V3,M
BAM,2023-12-22 11:35,-116.8743,40.5990,1382.36,26.60,24.80,92.80,230.00,3.00,0.00,30.09,M,10.00,M,CLR,M,M,M,M,M,M,M,M,M,M,M,M,M,M,22.52,KBAM 221135Z AUTO 23003KT 10SM CLR M03/M04 A3009 RMK AO1,M
HTH,2023-12-22 11:35,-118.6315,38.5448,1282.89,35.60,30.20,80.51,220.00,4.00,0.00,30.06,M,10.00,M,CLR,M,M,M,M,M,M,M,M,M,M,M,M,M,M,31.62,KHTH 221135Z AUTO 22004KT 10SM CLR 02/M01 A3006 RMK A01,M
TMT,2023-12-22 11:35,-117.1971,39.4643,1749.34,19.40,17.80,93.37,0.00,0.00,0.00,30.11,M,10.00,M,CLR,M,M,M,M,M,M,M,M,M,M,M,M,M,M,19.40,KTMT 221135Z AUTO 00000KT 10SM CLR M07/M08 A3011 RMK AO2 T10701079,M
10U,2023-12-22 11:40,-116.1876,41.9532,1637.00,26.60,24.80,92.80,40.00,4.00,0.00,30.09,M,10.00,M,BKN,M,M,M,6500.00,M,M,M,M,M,M,M,M,M,M,21.11,K10U 221140Z AUTO 04004KT 10SM BKN065 M03/M04 A3009 RMK AO2,M
05U,2023-12-22 11:50,-116.0051,39.6042,1811.23,26.60,26.60,100.00,170.00,4.00,0.00,30.12,M,10.00,M,M,M,M,M,M,M,M,M,M,M,M,M,M,M,M,21.11,K05U 221150Z AUTO 17004KT 10SM M03/M03 A3012 RMK A01,M
CXP,2023-12-22 11:50,-119.7326,39.1923,1431.00,32.00,32.00,100.00,0.00,0.00,0.00,30.08,M,1.00,M,OVC,M,M,M,300.00,M,M,M,BR,M,M,M,M,M,M,32.00,KCXP 221150Z AUTO 00000KT 1SM BR OVC003 M00/00 A3008 RMK AO2,M
P68,2023-12-22 11:53,-116.0056,39.6014,1993.00,27.00,26.00,95.95,360.00,3.00,0.00,30.09,1018.10,M,M,M,M,M,M,M,M,M,M,M,M,M,M,M,M,M,22.97,KP68 221153Z AUTO 36003KT M03/M03 A3009 RMK AO1 SLP181 T10281033 10028 21033 58006,M
DRA,2023-12-22 11:53,-116.0278,36.6206,1009.00,M,M,M,M,M,0.00,30.00,M,M,M,M,M,M,M,M,M,M,M,M,M,M,M,M,M,M,M,KDRA 221153Z AUTO A3000 RMK AO2 SLPNO 58006 PWINO $,M
ELY,2023-12-22 11:53,-114.8453,39.2950,1909.00,28.00,25.00,88.33,M,M,0.00,30.12,1018.70,10.00,M,OVC,M,M,M,7000.00,M,M,M,M,M,M,M,M,M,M,M,KELY 221153Z AUTO 10SM OVC070 M02/M04 A3012 RMK AO2 SLP187 T10221039 11017 21033 58008,M
VGT,2023-12-22 11:53,-115.1933,36.2111,667.00,53.00,40.00,61.19,0.00,0.00,0.00,29.99,1016.50,10.00,M,FEW,SCT,M,M,7000.00,9000.00,M,M,M,M,M,M,M,M,M,53.00,KVGT 221153Z AUTO 00000KT 10SM FEW070 SCT090 12/04 A2999 RMK AO2 SLP165 T01170044 10144 20111 58007,M
LOL,2023-12-22 11:53,-118.5701,40.0684,1192.43,23.00,19.00,84.39,0.00,0.00,0.00,30.05,1018.80,5.00,M,CLR,M,M,M,M,M,M,M,BR,M,M,M,M,M,M,23.00,KLOL 221153Z AUTO 00000KT 5SM BR CLR M05/M07 A3005 RMK AO2 SLP188 T10501072 11017 21061 58006,M
BVU,2023-12-22 11:55,-114.8611,35.9475,671.00,50.00,37.40,61.76,0.00,0.00,0.00,29.98,M,10.00,M,FEW,SCT,M,M,7500.00,8500.00,M,M,M,M,M,M,M,M,M,50.00,KBVU 221155Z AUTO 00000KT 10SM FEW075 SCT085 10/03 A2998 RMK AO2,M
INS,2023-12-22 11:55,-115.6733,36.5872,955.00,41.00,32.00,70.08,0.00,0.00,0.00,30.01,1014.40,10.00,M,CLR,M,M,M,M,M,M,M,M,M,M,M,M,M,M,41.00,KINS 221155Z AUTO 00000KT 10SM CLR 05/M00 A3001 RMK AO2 SLP144 T00511001 10098 20047 58006 $,M
RNO,2023-12-22 11:55,-119.7711,39.4839,1341.00,30.00,28.00,92.15,0.00,0.00,0.00,30.07,1017.80,6.00,M,FEW,M,M,M,200.00,M,M,M,BR,M,M,0.01,M,M,M,30.00,KRNO 221155Z 00000KT 6SM BR FEW002 M01/M02 A3007 RMK AO2 SLP178 I6001 T10111022 10039 21017 55003,M
RTS,2023-12-22 11:55,-119.8764,39.6682,1539.00,26.60,26.60,100.00,0.00,0.00,0.00,30.07,M,10.00,M,CLR,M,M,M,M,M,M,M,M,M,M,M,M,M,M,26.60,KRTS 221155Z AUTO 00000KT 10SM CLR M03/M03 A3007 RMK AO2,M
MEV,2023-12-22 11:55,-119.7500,38.9963,1441.42,26.60,26.60,100.00,0.00,0.00,0.00,30.07,M,0.25,M,OVC,M,M,M,200.00,M,M,M,FZFG,M,M,M,M,M,M,26.60,KMEV 221155Z AUTO 00000KT 1/4SM FZFG OVC002 M03/M03 A3007 RMK AO2,M
BAM,2023-12-22 11:55,-116.8743,40.5990,1382.36,26.60,23.00,86.07,0.00,0.00,0.00,30.08,M,10.00,M,CLR,M,M,M,M,M,M,M,M,M,M,M,M,M,M,26.60,KBAM 221155Z AUTO 00000KT 10SM CLR M03/M05 A3008 RMK AO1,M
HTH,2023-12-22 11:55,-118.6315,38.5448,1282.89,32.00,26.60,80.22,150.00,4.00,0.00,30.07,M,10.00,M,CLR,M,M,M,M,M,M,M,M,M,M,M,M,M,M,27.42,KHTH 221155Z AUTO 15004KT 10SM CLR 00/M03 A3007 RMK A01,M
LSV,2023-12-22 11:55,-115.0343,36.2362,570.00,58.00,35.80,43.27,100.00,9.00,0.00,29.96,1013.40,10.00,M,BKN,M,M,M,7000.00,M,M,M,M,M,M,M,M,M,M,58.00,KLSV 221155Z AUTO 10009KT 10SM BKN070 15/02 A2996 RMK AO2 SLP134 T01450021 10166 20136 58008 $,M
TMT,2023-12-22 11:55,-117.1971,39.4643,1749.34,20.50,18.70,92.60,0.00,0.00,0.00,30.10,M,10.00,M,CLR,M,M,M,M,M,M,M,M,M,M,M,M,M,M,20.50,KTMT 221155Z AUTO 00000KT 10SM CLR M06/M07 A3010 RMK AO2 T10641074 11031 21075,M
EKO,2023-12-22 11:56,-115.7860,40.8242,1367.00,28.00,25.00,88.33,80.00,5.00,0.00,30.11,1020.90,10.00,M,CLR,M,M,M,M,M,M,M,M,M,M,M,M,M,M,21.64,KEKO 221156Z AUTO 08005KT 10SM CLR M02/M04 A3011 RMK AO2 SLP209 T10221039 10000 21022 58009 PWINO FZRANO $,M
WMC,2023-12-22 11:56,-117.8072,40.9019,1315.00,26.00,22.00,84.59,140.00,4.00,0.00,30.06,1018.00,10.00,M,CLR,M,M,M,M,M,M,M,M,M,M,M,M,M,M,20.41,KWMC 221156Z AUTO 14004KT 10SM CLR M03/M06 A3006 RMK AO2 SLP180 T10331056 10000 21044 58009,M
NFL,2023-12-22 11:56,-118.7010,39.4166,1199.00,27.00,22.00,81.17,0.00,0.00,0.00,30.04,1014.20,10.00,M,CLR,M,M,M,M,M,M,M,M,M,M,M,M,M,M,27.00,KNFL 221156Z AUTO 00000KT 10SM CLR M03/M06 A3004 RMK AO2 SLP142 T10281056 10011 21044 58008,M
HND,2023-12-22 11:56,-115.1344,35.9729,742.79,49.00,38.00,65.63,0.00,0.00,0.00,30.01,1017.30,10.00,M,SCT,BKN,M,M,6500.00,9000.00,M,M,M,M,M,M,M,M,M,49.00,KHND 221156Z AUTO 00000KT 10SM SCT065 BKN090 09/03 A3001 RMK AO2 SLP173 T00940033 10122 20094 58008,M
TPH,2023-12-22 11:56,-117.0904,38.0505,1654.00,37.00,35.00,92.39,360.00,8.00,T,30.07,1017.00,10.00,M,BKN,BKN,M,M,4900.00,6000.00,M,M,M,M,M,M,M,M,M,30.27,KTPH 221156Z AUTO 36008KT 10SM BKN049 BKN060 03/02 A3007 RMK AO2 RAB14E29 SLP170 P0000 60001 70009 T00280017 10044 20022 58008,M
LAS,2023-12-22 11:56,-115.1634,36.0719,663.00,56.00,38.00,50.73,270.00,3.00,0.00,29.99,1014.50,10.00,M,SCT,BKN,OVC,M,7000.00,8500.00,20000.00,M,M,M,M,M,M,M,M,56.00,KLAS 221156Z 27003KT 10SM SCT070 BKN085 OVC200 13/03 A2999 RMK AO2 SLP145 T01330033 10144 20128 58005,M
10U,2023-12-22 12:00,-116.1876,41.9532,1637.00,28.40,26.60,92.86,0.00,0.00,0.00,30.09,M,10.00,M,OVC,M,M,M,6500.00,M,M,M,M,M,M,M,M,M,M,28.40,K10U 221200Z AUTO 00000KT 10SM OVC065 M02/M03 A3009 RMK AO2,M
05U,2023-12-22 12:10,-116.0051,39.6042,1811.23,26.60,24.80,92.80,0.00,0.00,0.00,30.12,M,10.00,M,M,M,M,M,M,M,M,M,M,M,M,M,M,M,M,26.60,K05U 221210Z AUTO 00000KT 10SM M03/M04 A3012 RMK A01,M
LOL,2023-12-22 12:13,-118.5701,40.0684,1192.43,23.00,21.00,91.90,0.00,0.00,0.00,30.06,M,1.75,M,CLR,M,M,M,M,M,M,M,BR,M,M,M,M,M,M,23.00,KLOL 221213Z AUTO 00000KT 1 3/4SM BR CLR M05/M06 A3006 RMK AO2 T10501061,M
BVU,2023-12-22 12:15,-114.8611,35.9475,671.00,50.00,37.40,61.76,0.00,0.00,0.00,29.98,M,10.00,M,FEW,BKN,M,M,7500.00,9000.00,M,M,M,M,M,M,M,M,M,50.00,KBVU 221215Z AUTO 00000KT 10SM FEW075 BKN090 10/03 A2998 RMK AO2,M
CXP,2023-12-22 12:15,-119.7326,39.1923,1431.00,32.00,32.00,100.00,0.00,0.00,0.00,30.08,M,0.25,M,OVC,M,M,M,200.00,M,M,M,FZFG,M,M,M,M,M,M,32.00,KCXP 221215Z AUTO 00000KT 1/4SM FZFG OVC002 M00/M00 A3008 RMK AO2,M
RTS,2023-12-22 12:15,-119.8764,39.6682,1539.00,24.80,24.80,100.00,0.00,0.00,0.00,30.07,M,3.00,M,CLR,M,M,M,M,M,M,M,BR,M,M,M,M,M,M,24.80,KRTS 221215Z AUTO 00000KT 3SM BR CLR M04/M04 A3007 RMK AO2,M
MEV,2023-12-22 12:15,-119.7500,38.9963,1441.42,24.80,24.80,100.00,0.00,0.00,0.00,30.07,M,0.25,M,OVC,M,M,M,200.00,M,M,M,FZFG,M,M,M,M,M,M,24.80,KMEV 221215Z AUTO 00000KT M1/4SM FZFG OVC002 M04/M04 A3007 RMK AO2,M
HTH,2023-12-22 12:15,-118.6315,38.5448,1282.89,33.80,28.40,80.36,230.00,3.00,0.00,30.06,M,10.00,M,CLR,M,M,M,M,M,M,M,M,M,M,M,M,M,M,30.75,KHTH 221215Z AUTO 23003KT 10SM CLR 01/M02 A3006 RMK A01,M
BAM,2023-12-22 12:15,-116.8743,40.5990,1382.36,24.80,23.00,92.74,0.00,0.00,0.00,30.08,M,10.00,M,CLR,M,M,M,M,M,M,M,M,M,M,M,M,M,M,24.80,KBAM 221215Z AUTO 00000KT 10SM CLR M04/M05 A3008 RMK AO1,M
TMT,2023-12-22 12:15,-117.1971,39.4643,1749.34,20.00,18.70,94.59,0.00,0.00,0.00,30.10,M,10.00,M,CLR,M,M,M,M,M,M,M,M,M,M,M,M,M,M,20.00,KTMT 221215Z AUTO 00000KT 10SM CLR M07/M07 A3010 RMK AO2 T10661074,M
10U,2023-12-22 12:20,-116.1876,41.9532,1637.00,28.40,26.60,92.86,350.00,3.00,0.00,30.08,M,10.00,M,OVC,M,M,M,6500.00,M,M,M,M,M,M,M,M,M,M,24.57,K10U 221220Z AUTO 35003KT 10SM OVC065 M02/M03 A3008 RMK AO2,M
CXP,2023-12-22 12:30,-119.7326,39.1923,1431.00,32.00,32.00,100.00,0.00,0.00,0.00,30.08,M,0.25,M,OVC,M,M,M,200.00,M,M,M,FZFG,M,M,M,M,M,M,32.00,KCXP 221230Z AUTO 00000KT 1/4SM FZFG OVC002 M00/M00 A3008 RMK AO2,M
RTS,2023-12-22 12:30,-119.8764,39.6682,1539.00,24.80,24.80,100.00,300.00,3.00,0.00,30.07,M,1.25,M,CLR,M,M,M,M,M,M,M,BR,M,M,M,M,M,M,20.46,KRTS 221230Z AUTO 30003KT 1 1/4SM BR CLR M04/M04 A3007 RMK AO2 VIS 1/2V5,M
05U,2023-12-22 12:30,-116.0051,39.6042,1811.23,26.60,24.80,92.80,320.00,4.00,0.00,30.12,M,10.00,M,M,M,M,M,M,M,M,M,M,M,M,M,M,M,M,21.11,K05U 221230Z AUTO 32004KT 10SM M03/M04 A3012 RMK A01,M
HTH,2023-12-22 12:30,-118.6315,38.5448,1282.89,32.00,26.60,80.22,0.00,0.00,0.00,30.05,M,10.00,M,CLR,M,M,M,M,M,M,M,M,M,M,M,M,M,M,32.00,KHTH 221230Z AUTO 00000KT 10SM CLR 00/M03 A3005 RMK A01,M
BVU,2023-12-22 12:35,-114.8611,35.9475,671.00,50.00,37.40,61.76,0.00,0.00,0.00,29.98,M,10.00,M,FEW,FEW,BKN,M,6500.00,7500.00,9000.00,M,M,M,M,M,M,M,M,50.00,KBVU 221235Z AUTO 00000KT 10SM FEW065 FEW075 BKN090 10/03 A2998 RMK AO2,M
RNO,2023-12-22 12:35,-119.7711,39.4839,1341.00,30.00,27.00,88.44,0.00,0.00,0.00,30.07,M,2.00,M,SCT,M,M,M,100.00,M,M,M,BR,T,M,M,M,M,M,30.00,KRNO 221235Z 00000KT 2SM BR SCT001 M01/M03 A3007 RMK AO2 I1000 T10111028,M
MEV,2023-12-22 12:35,-119.7500,38.9963,1441.42,24.80,24.80,100.00,0.00,0.00,0.00,30.07,M,0.25,M,OVC,M,M,M,200.00,M,M,M,FZFG,M,M,M,M,M,M,24.80,KMEV 221235Z AUTO 00000KT M1/4SM FZFG OVC002 M04/M04 A3007 RMK AO2,M
BAM,2023-12-22 12:35,-116.8743,40.5990,1382.36,23.00,23.00,100.00,230.00,3.00,0.00,30.08,M,10.00,M,CLR,M,M,M,M,M,M,M,M,M,M,M,M,M,M,18.40,KBAM 221235Z AUTO 23003KT 10SM CLR M05/M05 A3008 RMK AO1,M
TMT,2023-12-22 12:35,-117.1971,39.4643,1749.34,20.30,18.70,93.39,0.00,0.00,0.00,30.10,M,10.00,M,CLR,M,M,M,M,M,M,M,M,M,M,M,M,M,M,20.30,KTMT 221235Z AUTO 00000KT 10SM CLR M06/M07 A3010 RMK AO2 T10651074,M
RNO,2023-12-22 12:37,-119.7711,39.4839,1341.00,30.00,27.00,88.44,0.00,0.00,0.00,30.07,M,1.00,M,VV ,M,M,M,200.00,M,M,M,BR,T,M,M,M,M,M,30.00,KRNO 221237Z 00000KT 1SM R17R/2200VP6000FT BR VV002 M01/M03 A3007 RMK AO2 I1000 T10111028,M
RNO,2023-12-22 12:39,-119.7711,39.4839,1341.00,29.00,27.00,92.12,0.00,0.00,0.00,30.07,M,0.50,M,BKN,M,M,M,100.00,M,M,M,FZFG,T,M,M,M,M,M,29.00,KRNO 221239Z 00000KT 1/2SM R17R/2200VP6000FT FZFG BKN001 M02/M03 A3007 RMK AO2 TWR VIS 10 I1000 T10171028,M
10U,2023-12-22 12:40,-116.1876,41.9532,1637.00,28.40,26.60,92.86,0.00,0.00,0.00,30.08,M,10.00,M,OVC,M,M,M,6500.00,M,M,M,M,M,M,M,M,M,M,28.40,K10U 221240Z AUTO 00000KT 10SM OVC065 M02/M03 A3008 RMK AO2,M
LOL,2023-12-22 12:44,-118.5701,40.0684,1192.43,19.00,17.00,91.76,0.00,0.00,0.00,30.06,M,0.50,M,VV ,M,M,M,200.00,M,M,M,FZFG,M,M,M,M,M,M,19.00,KLOL 221244Z AUTO 00000KT 1/2SM FZFG VV002 M07/M08 A3006 RMK AO2 T10721083,M
05U,2023-12-22 12:50,-116.0051,39.6042,1811.23,24.80,24.80,100.00,0.00,0.00,0.00,30.11,M,10.00,M,M,M,M,M,M,M,M,M,M,M,M,M,M,M,M,24.80,K05U 221250Z AUTO 00000KT 10SM M04/M04 A3011 RMK A01,M
RNO,2023-12-22 12:51,-119.7711,39.4839,1341.00,28.40,26.60,92.86,0.00,0.00,0.00,30.07,M,1.00,M,VV ,M,M,M,100.00,M,M,M,BR,T,M,M,M,M,M,28.40,KRNO 221251Z 00000KT 1SM R17R/P6000FT BR VV001 M02/M03 A3007 RMK AO2 TWR VIS 10 I1000,M
P68,2023-12-22 12:53,-116.0056,39.6014,1993.00,25.00,23.00,91.97,0.00,0.00,0.00,30.09,1018.60,M,M,M,M,M,M,M,M,M,M,M,M,M,M,M,M,M,25.00,KP68 221253Z AUTO 00000KT M04/M05 A3009 RMK AO1 SLP186 T10391050,M
DRA,2023-12-22 12:53,-116.0278,36.6206,1009.00,M,M,M,M,M,0.00,30.00,M,M,M,M,M,M,M,M,M,M,M,M,M,M,M,M,M,M,M,KDRA 221253Z AUTO A3000 RMK AO2 SLPNO PWINO $,M
ELY,2023-12-22 12:53,-114.8453,39.2950,1909.00,28.00,25.00,88.33,M,M,0.00,30.12,1019.30,10.00,M,BKN,M,M,M,7000.00,M,M,M,M,M,M,M,M,M,M,M,KELY 221253Z AUTO 10SM BKN070 M02/M04 A3012 RMK AO2 SLP193 T10221039,M
VGT,2023-12-22 12:53,-115.1933,36.2111,667.00,52.00,39.00,61.06,0.00,0.00,0.00,29.99,1016.40,10.00,M,SCT,BKN,M,M,7500.00,9000.00,M,M,M,M,M,M,M,M,M,52.00,KVGT 221253Z AUTO 00000KT 10SM SCT075 BKN090 11/04 A2999 RMK AO2 SLP164 T01110039,M
LOL,2023-12-22 12:53,-118.5701,40.0684,1192.43,20.00,19.00,95.82,140.00,3.00,0.00,30.06,1019.40,0.50,M,VV ,M,M,M,200.00,M,M,M,FZFG,T,M,M,M,M,M,14.97,KLOL 221253Z AUTO 14003KT 1/2SM FZFG VV002 M07/M07 A3006 RMK AO2 SLP194 I1000 T10671072,M
BVU,2023-12-22 12:55,-114.8611,35.9475,671.00,50.00,37.40,61.76,0.00,0.00,0.00,29.98,M,10.00,M,BKN,BKN,OVC,M,6500.00,7500.00,8500.00,M,M,M,M,M,M,M,M,50.00,KBVU 221255Z AUTO 00000KT 10SM BKN065 BKN075 OVC085 10/03 A2998 RMK AO2,M
CXP,2023-12-22 12:55,-119.7326,39.1923,1431.00,32.00,32.00,100.00,0.00,0.00,0.00,30.08,M,0.25,M,OVC,M,M,M,200.00,M,M,M,FZFG,M,M,M,M,M,M,32.00,KCXP 221255Z AUTO 00000KT M1/4SM FZFG OVC002 M00/M00 A3008 RMK AO2,M
INS,2023-12-22 12:55,-115.6733,36.5872,955.00,41.40,31.60,67.90,0.00,0.00,0.00,30.01,1014.60,10.00,M,CLR,M,M,M,M,M,M,M,M,M,M,M,M,M,M,41.40,KINS 221255Z AUTO 00000KT 10SM CLR 05/M00 A3001 RMK AO2 SLP146 T00521002 $,M
RNO,2023-12-22 12:55,-119.7711,39.4839,1341.00,30.00,27.00,88.44,190.00,3.00,0.00,30.07,1018.00,3.00,M,BKN,M,M,M,100.00,M,M,M,BR,T,M,M,M,M,M,26.40,KRNO 221255Z 19003KT 3SM BR BKN001 M01/M03 A3007 RMK AO2 TWR VIS 10 SLP180 I1000 T10111028,M
RTS,2023-12-22 12:55,-119.8764,39.6682,1539.00,24.80,24.80,100.00,0.00,0.00,0.00,30.07,M,2.50,M,CLR,M,M,M,M,M,M,M,BR,M,M,M,M,M,M,24.80,KRTS 221255Z AUTO 00000KT 2 1/2SM BR CLR M04/M04 A3007 RMK AO2,M
MEV,2023-12-22 12:55,-119.7500,38.9963,1441.42,24.80,24.80,100.00,0.00,0.00,0.00,30.07,M,0.25,M,OVC,M,M,M,200.00,M,M,M,FZFG,M,M,M,M,M,M,24.80,KMEV 221255Z AUTO 00000KT 1/4SM FZFG OVC002 M04/M04 A3007 RMK AO2,M
BAM,2023-12-22 12:55,-116.8743,40.5990,1382.36,26.60,23.00,86.07,0.00,0.00,0.00,30.08,M,10.00,M,CLR,M,M,M,M,M,M,M,M,M,M,M,M,M,M,26.60,KBAM 221255Z AUTO 00000KT 10SM CLR M03/M05 A3008 RMK AO1,M
HTH,2023-12-22 12:55,-118.6315,38.5448,1282.89,32.00,26.60,80.22,130.00,5.00,0.00,30.05,M,10.00,M,CLR,M,M,M,M,M,M,M,M,M,M,M,M,M,M,26.40,KHTH 221255Z AUTO 13005KT 10SM CLR M00/M03 A3005 RMK A01,M
LSV,2023-12-22 12:55,-115.0343,36.2362,570.00,56.30,35.80,46.01,110.00,6.00,0.00,29.96,1013.60,10.00,M,FEW,SCT,M,M,7500.00,10000.00,M,M,M,M,M,M,M,M,M,56.30,KLSV 221255Z AUTO 11006KT 10SM FEW075 SCT100 14/02 A2996 RMK AO2 SLP136 T01350021 $,M
TMT,2023-12-22 12:55,-117.1971,39.4643,1749.34,18.00,16.70,94.54,140.00,3.00,0.00,30.10,M,10.00,M,CLR,M,M,M,M,M,M,M,M,M,M,M,M,M,M,12.68,KTMT 221255Z AUTO 14003KT 10SM CLR M08/M08 A3010 RMK AO2 T10771085,M
EKO,2023-12-22 12:56,-115.7860,40.8242,1367.00,28.00,25.00,88.33,50.00,3.00,0.00,30.09,1020.60,10.00,M,CLR,M,M,M,M,M,M,M,M,M,M,M,M,M,M,24.12,KEKO 221256Z AUTO 05003KT 10SM CLR M02/M04 A3009 RMK AO2 SLP206 T10221039 PWINO FZRANO $,M
WMC,2023-12-22 12:56,-117.8072,40.9019,1315.00,25.00,21.00,84.53,100.00,3.00,0.00,30.06,1018.50,10.00,M,CLR,M,M,M,M,M,M,M,M,T,M,M,M,M,M,20.69,KWMC 221256Z AUTO 10003KT 10SM CLR M04/M06 A3006 RMK AO2 SLP185 I1000 T10391061,M
HND,2023-12-22 12:56,-115.1344,35.9729,742.79,50.00,38.00,63.23,170.00,6.00,0.00,30.01,1017.40,10.00,M,BKN,OVC,M,M,6500.00,9000.00,M,M,M,M,M,M,M,M,M,50.00,KHND 221256Z AUTO 17006KT 10SM BKN065 OVC090 10/03 A3001 RMK AO2 SLP174 T01000033,M
TPH,2023-12-22 12:56,-117.0904,38.0505,1654.00,36.00,33.00,88.73,340.00,5.00,0.00,30.07,1017.20,10.00,M,BKN,BKN,M,M,4400.00,5500.00,M,M,M,M,M,M,M,M,M,31.15,KTPH 221256Z AUTO 34005KT 10SM BKN044 BKN055 02/01 A3007 RMK AO2 SLP172 T00220006,M
LAS,2023-12-22 12:56,-115.1634,36.0719,663.00,56.00,38.00,50.73,340.00,4.00,0.00,29.99,1014.50,10.00,M,FEW,OVC,M,M,6500.00,9500.00,M,M,M,M,M,M,M,M,M,56.00,KLAS 221256Z 34004KT 10SM FEW065 OVC095 13/03 A2999 RMK AO2 SLP145 T01330033,M
NFL,2023-12-22 12:56,-118.7010,39.4166,1199.00,23.00,20.00,88.08,0.00,0.00,0.00,30.05,1014.40,9.00,M,CLR,M,M,M,M,M,M,M,M,M,M,M,M,M,M,23.00,KNFL 221256Z AUTO 00000KT 9SM CLR M05/M07 A3005 RMK AO2 SLP144 T10501067,M
10U,2023-12-22 13:00,-116.1876,41.9532,1637.00,28.40,28.40,100.00,0.00,0.00,0.00,30.07,M,10.00,M,OVC,M,M,M,6500.00,M,M,M,M,M,M,M,M,M,M,28.40,K10U 221300Z AUTO 00000KT 10SM OVC065 M02/M02 A3007 RMK AO2,M
NFL,2023-12-22 13:01,-118.7010,39.4166,1199.00,24.00,20.00,84.46,0.00,0.00,0.00,30.05,M,1.50,M,CLR,M,M,M,M,M,M,M,BR,M,M,M,M,M,M,24.00,KNFL 221301Z AUTO 00000KT 1 1/2SM BR CLR M04/M07 A3005 RMK AO2 T10441067,M
LOL,2023-12-22 13:05,-118.5701,40.0684,1192.43,18.00,17.00,95.78,0.00,0.00,0.00,30.06,M,1.25,M,SCT,M,M,M,200.00,M,M,M,BR,M,M,M,M,M,M,18.00,KLOL 221305Z AUTO 00000KT 1 1/4SM BR SCT002 M08/M08 A3006 RMK AO2 T10781083,M
NFL,2023-12-22 13:05,-118.7010,39.4166,1199.00,24.00,22.00,91.94,0.00,0.00,0.00,30.05,M,0.75,M,VV ,M,M,M,100.00,M,M,M,BR,M,M,M,M,M,M,24.00,KNFL 221305Z AUTO 00000KT 3/4SM BR VV001 M04/M06 A3005 RMK AO2 T10441056,M
LOL,2023-12-22 13:08,-118.5701,40.0684,1192.43,18.00,17.00,95.78,0.00,0.00,0.00,30.06,M,0.75,M,VV ,M,M,M,200.00,M,M,M,BR,M,M,M,M,M,M,18.00,KLOL 221308Z AUTO 00000KT 3/4SM BR VV002 M08/M08 A3006 RMK AO2 T10781083,M
BVU,2023-12-22 13:15,-114.8611,35.9475,671.00,50.00,37.40,61.76,0.00,0.00,0.00,29.98,M,10.00,M,BKN,BKN,OVC,M,6000.00,7500.00,9000.00,M,M,M,M,M,M,M,M,50.00,KBVU 221315Z AUTO 00000KT 10SM BKN060 BKN075 OVC090 10/03 A2998 RMK AO2,M
CXP,2023-12-22 13:15,-119.7326,39.1923,1431.00,32.00,32.00,100.00,0.00,0.00,0.00,30.08,M,0.25,M,OVC,M,M,M,200.00,M,M,M,FZFG,M,M,M,M,M,M,32.00,KCXP 221315Z AUTO 00000KT M1/4SM FZFG OVC002 M00/M00 A3008 RMK AO2,M
RTS,2023-12-22 13:15,-119.8764,39.6682,1539.00,26.60,26.60,100.00,0.00,0.00,0.00,30.07,M,0.25,M,VV ,M,M,M,200.00,M,M,M,FZFG,M,M,M,M,M,M,26.60,KRTS 221315Z AUTO 00000KT 1/4SM FZFG VV002 M03/M03 A3007 RMK AO2,M
05U,2023-12-22 13:15,-116.0051,39.6042,1811.23,23.00,21.20,92.69,0.00,0.00,0.00,30.11,M,10.00,M,M,M,M,M,M,M,M,M,M,M,M,M,M,M,M,23.00,K05U 221315Z AUTO 00000KT 10SM M05/M06 A3011 RMK A01,M
MEV,2023-12-22 13:15,-119.7500,38.9963,1441.42,24.80,24.80,100.00,0.00,0.00,0.00,30.07,M,0.25,M,OVC,M,M,M,200.00,M,M,M,FZFG,M,M,M,M,M,M,24.80,KMEV 221315Z AUTO 00000KT M1/4SM FZFG OVC002 M04/M04 A3007 RMK AO2,M
HTH,2023-12-22 13:15,-118.6315,38.5448,1282.89,33.80,28.40,80.36,220.00,3.00,0.00,30.05,M,10.00,M,CLR,M,M,M,M,M,M,M,M,M,M,M,M,M,M,30.75,KHTH 221315Z AUTO 22003KT 10SM CLR 01/M02 A3005 RMK A01,M
BAM,2023-12-22 13:15,-116.8743,40.5990,1382.36,23.00,21.20,92.69,0.00,0.00,0.00,30.09,M,10.00,M,CLR,M,M,M,M,M,M,M,M,M,M,M,M,M,M,23.00,KBAM 221315Z AUTO 00000KT 10SM CLR M05/M06 A3009 RMK AO1,M
TMT,2023-12-22 13:15,-117.1971,39.4643,1749.34,19.20,18.00,94.98,0.00,0.00,0.00,30.10,M,10.00,M,CLR,M,M,M,M,M,M,M,M,M,M,M,M,M,M,19.20,KTMT 221315Z AUTO 00000KT 10SM CLR M07/M08 A3010 RMK AO2 T10711077,M
10U,2023-12-22 13:20,-116.1876,41.9532,1637.00,28.40,26.60,92.86,0.00,0.00,0.00,30.07,M,10.00,M,OVC,M,M,M,6000.00,M,M,M,M,M,M,M,M,M,M,28.40,K10U 221320Z AUTO 00000KT 10SM OVC060 M02/M03 A3007 RMK AO2,M
LOL,2023-12-22 13:20,-118.5701,40.0684,1192.43,19.00,16.00,87.87,0.00,0.00,0.00,30.06,M,1.75,M,SCT,M,M,M,200.00,M,M,M,BR,M,M,M,M,M,M,19.00,KLOL 221320Z AUTO 00000KT 1 3/4SM BR SCT002 M07/M09 A3006 RMK AO2 T10721089,M
LOL,2023-12-22 13:27,-118.5701,40.0684,1192.43,19.00,17.00,91.76,0.00,0.00,0.00,30.06,M,0.75,M,VV ,M,M,M,200.00,M,M,M,BR,M,M,M,M,M,M,19.00,KLOL 221327Z AUTO 00000KT 3/4SM BR VV002 M07/M08 A3006 RMK AO2 T10721083,M
05U,2023-12-22 13:30,-116.0051,39.6042,1811.23,23.00,21.20,92.69,0.00,0.00,0.00,30.11,M,10.00,M,M,M,M,M,M,M,M,M,M,M,M,M,M,M,M,23.00,K05U 221330Z AUTO 00000KT 10SM M05/M06 A3011 RMK A01,M
NFL,2023-12-22 13:34,-118.7010,39.4166,1199.00,26.00,23.00,88.23,0.00,0.00,0.00,30.05,M,0.50,M,CLR,M,M,M,M,M,M,M,FZFG,M,M,M,M,M,M,26.00,KNFL 221334Z AUTO 00000KT 1/2SM FZFG CLR M03/M05 A3005 RMK AO2 T10331050,M
BVU,2023-12-22 13:35,-114.8611,35.9475,671.00,50.00,37.40,61.76,0.00,0.00,0.00,29.97,M,10.00,M,BKN,BKN,M,M,6000.00,7000.00,M,M,M,M,M,M,M,M,M,50.00,KBVU 221335Z AUTO 00000KT 10SM BKN060 BKN070 10/03 A2997 RMK AO2,M
CXP,2023-12-22 13:35,-119.7326,39.1923,1431.00,32.00,32.00,100.00,0.00,0.00,0.00,30.08,M,0.25,M,OVC,M,M,M,200.00,M,M,M,FZFG,M,M,M,M,M,M,32.00,KCXP 221335Z AUTO 00000KT M1/4SM FZFG OVC002 M00/M00 A3008 RMK AO2,M
RTS,2023-12-22 13:35,-119.8764,39.6682,1539.00,24.80,24.80,100.00,0.00,0.00,0.00,30.07,M,0.25,M,VV ,M,M,M,0.00,M,M,M,FZFG,M,M,M,M,M,M,24.80,KRTS 221335Z AUTO 00000KT M1/4SM FZFG VV000 M04/M04 A3007 RMK AO2,M
MEV,2023-12-22 13:35,-119.7500,38.9963,1441.42,24.80,24.80,100.00,0.00,0.00,0.00,30.07,M,0.25,M,OVC,M,M,M,200.00,M,M,M,FZFG,M,M,M,M,M,M,24.80,KMEV 221335Z AUTO 00000KT 1/4SM FZFG OVC002 M04/M04 A3007 RMK AO2,M
BAM,2023-12-22 13:35,-116.8743,40.5990,1382.36,23.00,21.20,92.69,150.00,4.00,0.00,30.08,M,10.00,M,CLR,M,M,M,M,M,M,M,M,M,M,M,M,M,M,16.91,KBAM 221335Z AUTO 15004KT 10SM CLR M05/M06 A3008 RMK AO1,M
HTH,2023-12-22 13:35,-118.6315,38.5448,1282.89,32.00,26.60,80.22,0.00,0.00,0.00,30.06,M,10.00,M,CLR,M,M,M,M,M,M,M,M,M,M,M,M,M,M,32.00,KHTH 221335Z AUTO 00000KT 10SM CLR M00/M03 A3006 RMK A01,M
TMT,2023-12-22 13:35,-117.1971,39.4643,1749.34,19.40,18.00,94.17,0.00,0.00,0.00,30.10,M,10.00,M,CLR,M,M,M,M,M,M,M,M,M,M,M,M,M,M,19.40,KTMT 221335Z AUTO 00000KT 10SM CLR M07/M08 A3010 RMK AO2 LTG DSNT S T10701077,M
10U,2023-12-22 13:40,-116.1876,41.9532,1637.00,28.40,26.60,92.86,0.00,0.00,0.00,30.07,M,10.00,M,BKN,OVC,M,M,6000.00,11000.00,M,M,M,M,M,M,M,M,M,28.40,K10U 221340Z AUTO 00000KT 10SM BKN060 OVC110 M02/M03 A3007 RMK AO2,M
NFL,2023-12-22 13:43,-118.7010,39.4166,1199.00,24.00,23.00,95.89,0.00,0.00,0.00,30.05,M,0.50,M,VV ,M,M,M,200.00,M,M,M,FZFG,M,M,M,M,M,M,24.00,KNFL 221343Z AUTO 00000KT 1/2SM FZFG VV002 M04/M05 A3005 RMK AO2 T10441050,M
LOL,2023-12-22 13:47,-118.5701,40.0684,1192.43,19.40,17.60,92.57,0.00,0.00,0.00,30.06,M,1.25,M,FEW,M,M,M,200.00,M,M,M,BR,M,M,M,M,M,M,19.40,KLOL 221347Z AUTO 00000KT 1 1/4SM BR FEW002 M07/M08 A3006 RMK AO2,M
05U,2023-12-22 13:50,-116.0051,39.6042,1811.23,23.00,21.20,92.69,20.00,4.00,0.00,30.11,M,10.00,M,M,M,M,M,M,M,M,M,M,M,M,M,M,M,M,16.91,K05U 221350Z AUTO 02004KT 10SM M05/M06 A3011 RMK A01,M
LOL,2023-12-22 13:51,-118.5701,40.0684,1192.43,19.40,17.60,92.57,0.00,0.00,0.00,30.06,M,3.00,M,SCT,M,M,M,200.00,M,M,M,BR,M,M,M,M,M,M,19.40,KLOL 221351Z AUTO 00000KT 3SM BR SCT002 M07/M08 A3006 RMK AO2,M
RNO,2023-12-22 13:52,-119.7711,39.4839,1341.00,28.40,26.60,92.86,40.00,3.00,0.00,30.07,M,6.00,M,FEW,M,M,M,400.00,M,M,M,BR,T,M,M,M,M,M,24.57,KRNO 221352Z 04003KT 6SM R17R/2600VP6000FT BR FEW004 M02/M03 A3007 RMK AO2 I1000,M
P68,2023-12-22 13:53,-116.0056,39.6014,1993.00,22.00,20.00,91.87,210.00,5.00,0.00,30.09,1019.40,M,M,M,M,M,M,M,M,M,M,M,M,M,M,M,M,M,14.52,KP68 221353Z AUTO 21005KT M06/M07 A3009 RMK AO1 SLP194 T10561067,M
DRA,2023-12-22 13:53,-116.0278,36.6206,1009.00,M,M,M,M,M,0.00,30.00,M,M,M,M,M,M,M,M,M,M,M,M,M,M,M,M,M,M,M,KDRA 221353Z AUTO A3000 RMK AO2 SLPNO PWINO $,M
ELY,2023-12-22 13:53,-114.8453,39.2950,1909.00,26.00,24.00,92.01,M,M,0.00,30.11,1020.00,10.00,M,BKN,M,M,M,7000.00,M,M,M,M,M,M,M,M,M,M,M,KELY 221353Z AUTO 10SM BKN070 M03/M04 A3011 RMK AO2 SLP200 T10331044,M
VGT,2023-12-22 13:53,-115.1933,36.2111,667.00,52.00,38.00,58.71,0.00,0.00,0.00,29.98,1016.40,10.00,M,SCT,BKN,M,M,6500.00,10000.00,M,M,M,M,M,M,M,M,M,52.00,KVGT 221353Z AUTO 00000KT 10SM SCT065 BKN100 11/03 A2998 RMK AO2 SLP164 T01110033,M
LOL,2023-12-22 13:53,-118.5701,40.0684,1192.43,20.00,18.00,91.79,0.00,0.00,0.00,30.06,1019.80,4.00,M,SCT,M,M,M,200.00,M,M,M,BR,M,M,M,M,M,M,20.00,KLOL 221353Z AUTO 00000KT 4SM BR SCT002 M07/M08 A3006 RMK AO2 SLP198 T10671078,M
RNO,2023-12-22 13:53,-119.7711,39.4839,1341.00,29.00,27.00,92.12,50.00,4.00,0.00,30.07,1018.30,6.00,M,FEW,M,M,M,400.00,M,M,M,BR,T,M,M,M,M,M,23.92,KRNO 221353Z 05004KT 6SM R17R/2600VP6000FT BR FEW004 M02/M03 A3007 RMK AO2 SLP183 I1000 T10171028,M
BVU,2023-12-22 13:55,-114.8611,35.9475,671.00,51.80,37.40,57.77,0.00,0.00,0.00,29.98,M,10.00,M,OVC,M,M,M,6000.00,M,M,M,M,M,M,M,M,M,M,51.80,KBVU 221355Z AUTO 00000KT 10SM OVC060 11/03 A2998 RMK AO2,M
CXP,2023-12-22 13:55,-119.7326,39.1923,1431.00,30.20,30.20,100.00,0.00,0.00,0.00,30.08,M,0.25,M,OVC,M,M,M,200.00,M,M,M,FZFG,M,M,M,M,M,M,30.20,KCXP 221355Z AUTO 00000KT M1/4SM FZFG OVC002 M01/M01 A3008 RMK AO2,M
INS,2023-12-22 13:55,-115.6733,36.5872,955.00,41.00,30.70,66.49,0.00,0.00,0.00,30.01,1014.80,10.00,M,FEW,M,M,M,8000.00,M,M,M,M,M,M,M,M,M,M,41.00,KINS 221355Z AUTO 00000KT 10SM FEW080 05/M01 A3001 RMK AO2 SLP148 T00491007 $,M
RTS,2023-12-22 13:55,-119.8764,39.6682,1539.00,23.00,23.00,100.00,0.00,0.00,0.00,30.07,M,8.00,M,CLR,M,M,M,M,M,M,M,M,M,M,M,M,M,M,23.00,KRTS 221355Z AUTO 00000KT 8SM CLR M05/M05 A3007 RMK AO2,M
MEV,2023-12-22 13:55,-119.7500,38.9963,1441.42,24.80,24.80,100.00,130.00,3.00,0.00,30.07,M,0.25,M,OVC,M,M,M,200.00,M,M,M,FZFG,M,M,M,M,M,M,20.46,KMEV 221355Z AUTO 13003KT M1/4SM FZFG OVC002 M04/M04 A3007 RMK AO2,M
BAM,2023-12-22 13:55,-116.8743,40.5990,1382.36,23.00,21.20,92.69,160.00,4.00,0.00,30.09,M,10.00,M,CLR,M,M,M,M,M,M,M,M,M,M,M,M,M,M,16.91,KBAM 221355Z AUTO 16004KT 10SM CLR M05/M06 A3009 RMK AO1,M
HTH,2023-12-22 13:55,-118.6315,38.5448,1282.89,30.20,26.60,86.28,230.00,3.00,0.00,30.06,M,10.00,M,CLR,M,M,M,M,M,M,M,M,M,M,M,M,M,M,26.63,KHTH 221355Z AUTO 23003KT 10SM CLR M01/M03 A3006 RMK A01,M
LSV,2023-12-22 13:55,-115.0343,36.2362,570.00,57.60,35.20,42.87,0.00,0.00,0.00,29.96,1013.60,10.00,M,BKN,BKN,M,M,7000.00,9500.00,M,M,M,M,M,M,M,M,M,57.60,KLSV 221355Z AUTO 00000KT 10SM BKN070 BKN095 14/02 A2996 RMK AO2 SLP136 T01420018 $,M
TMT,2023-12-22 13:55,-117.1971,39.4643,1749.34,20.30,19.00,94.60,0.00,0.00,0.00,30.10,M,10.00,M,CLR,M,M,M,M,M,M,M,M,M,M,M,M,M,M,20.30,KTMT 221355Z AUTO 00000KT 10SM CLR M06/M07 A3010 RMK AO2 T10651073,M
EKO,2023-12-22 13:56,-115.7860,40.8242,1367.00,27.00,25.00,92.05,100.00,3.00,0.00,30.09,1021.30,10.00,M,CLR,M,M,M,M,M,M,M,M,M,M,M,M,M,M,22.97,KEKO 221356Z AUTO 10003KT 10SM CLR M03/M04 A3009 RMK AO2 SLP213 T10281039 PWINO FZRANO $,M
WMC,2023-12-22 13:56,-117.8072,40.9019,1315.00,27.00,23.00,84.66,0.00,0.00,0.00,30.06,1019.50,10.00,M,OVC,M,M,M,7000.00,M,M,M,M,M,M,M,M,M,M,27.00,KWMC 221356Z AUTO 00000KT 10SM OVC070 M03/M05 A3006 RMK AO2 SLP195 T10281050,M
NFL,2023-12-22 13:56,-118.7010,39.4166,1199.00,24.00,21.00,88.13,0.00,0.00,0.00,30.06,1014.60,0.25,M,VV ,M,M,M,200.00,M,M,M,FZFG,M,M,M,M,M,M,24.00,KNFL 221356Z AUTO 00000KT 1/4SM FZFG VV002 M04/M06 A3006 RMK AO2 SLP146 T10441061,M
HND,2023-12-22 13:56,-115.1344,35.9729,742.79,50.00,38.00,63.23,160.00,6.00,0.00,30.00,1017.20,10.00,M,BKN,BKN,M,M,6000.00,9500.00,M,M,M,M,M,M,M,M,M,50.00,KHND 221356Z AUTO 16006KT 10SM BKN060 BKN095 10/03 A3000 RMK AO2 SLP172 T01000033,M
TPH,2023-12-22 13:56,-117.0904,38.0505,1654.00,37.00,34.00,88.78,10.00,8.00,T,30.07,1017.20,10.00,M,BKN,BKN,M,M,4200.00,5000.00,M,M,M,M,M,M,M,M,M,30.27,KTPH 221356Z AUTO 01008KT 10SM BKN042 BKN050 03/01 A3007 RMK AO2 RAB02E16 SLP172 P0000 T00280011,M
LAS,2023-12-22 13:56,-115.1634,36.0719,663.00,57.00,37.00,47.04,340.00,6.00,0.00,29.99,1014.40,10.00,M,BKN,BKN,M,M,7000.00,10000.00,M,M,M,M,M,M,M,M,M,57.00,KLAS 221356Z 34006KT 10SM BKN070 BKN100 14/03 A2999 RMK AO2 SLP144 VIRGA DSNT SW-NW T01390028,M
10U,2023-12-22 14:00,-116.1876,41.9532,1637.00,28.40,26.60,92.86,0.00,0.00,0.00,30.07,M,10.00,M,SCT,BKN,M,M,6000.00,11000.00,M,M,M,M,M,M,M,M,M,28.40,K10U 221400Z AUTO 00000KT 10SM SCT060 BKN110 M02/M03 A3007 RMK AO2,M
LOL,2023-12-22 14:03,-118.5701,40.0684,1192.43,22.00,20.00,91.87,0.00,0.00,0.00,30.06,M,2.50,M,BKN,M,M,M,200.00,M,M,M,BR,M,M,M,M,M,M,22.00,KLOL 221403Z AUTO 00000KT 2 1/2SM BR BKN002 M06/M07 A3006 RMK AO2 VIS 1V5 T10561067,M
05U,2023-12-22 14:10,-116.0051,39.6042,1811.23,23.00,21.20,92.69,0.00,0.00,0.00,30.11,M,10.00,M,M,M,M,M,M,M,M,M,M,M,M,M,M,M,M,23.00,K05U 221410Z AUTO 00000KT 10SM M05/M06 A3011 RMK A01,M
LOL,2023-12-22 14:13,-118.5701,40.0684,1192.43,21.00,19.00,91.83,0.00,0.00,0.00,30.06,M,1.75,M,BKN,M,M,M,200.00,M,M,M,BR,M,M,M,M,M,M,21.00,KLOL 221413Z AUTO 00000KT 1 3/4SM BR BKN002 M06/M07 A3006 RMK AO2 VIS 1V4 T10611072,M
NFL,2023-12-22 14:14,-118.7010,39.4166,1199.00,23.00,23.00,100.00,0.00,0.00,0.00,30.05,M,0.50,M,VV ,M,M,M,200.00,M,M,M,FZFG,M,M,M,M,M,M,23.00,KNFL 221414Z AUTO 00000KT 1/2SM FZFG VV002 M05/M05 A3005 RMK AO2 T10501050,M
BVU,2023-12-22 14:15,-114.8611,35.9475,671.00,51.80,37.40,57.77,60.00,4.00,0.00,29.98,M,10.00,M,BKN,BKN,OVC,M,6000.00,7000.00,9500.00,M,M,M,M,M,M,M,M,51.80,KBVU 221415Z AUTO 06004KT 10SM BKN060 BKN070 OVC095 11/03 A2998 RMK AO2,M
CXP,2023-12-22 14:15,-119.7326,39.1923,1431.00,30.20,30.20,100.00,0.00,0.00,0.00,30.08,M,0.25,M,OVC,M,M,M,200.00,M,M,M,FZFG,M,M,M,M,M,M,30.20,KCXP 221415Z AUTO 00000KT M1/4SM FZFG OVC002 M01/M01 A3008 RMK AO2,M
RTS,2023-12-22 14:15,-119.8764,39.6682,1539.00,23.00,23.00,100.00,0.00,0.00,0.00,30.07,M,4.00,M,CLR,M,M,M,M,M,M,M,BR,M,M,M,M,M,M,23.00,KRTS 221415Z AUTO 00000KT 4SM BR CLR M05/M05 A3007 RMK AO2,M
MEV,2023-12-22 14:15,-119.7500,38.9963,1441.42,24.80,24.80,100.00,0.00,0.00,0.00,30.07,M,0.25,M,OVC,M,M,M,300.00,M,M,M,FZFG,M,M,M,M,M,M,24.80,KMEV 221415Z AUTO 00000KT 1/4SM FZFG OVC003 M04/M04 A3007 RMK AO2,M
BAM,2023-12-22 14:15,-116.8743,40.5990,1382.36,23.00,21.20,92.69,170.00,4.00,0.00,30.09,M,10.00,M,CLR,M,M,M,M,M,M,M,M,M,M,M,M,M,M,16.91,KBAM 221415Z AUTO 17004KT 10SM CLR M05/M06 A3009 RMK AO1,M
HTH,2023-12-22 14:15,-118.6315,38.5448,1282.89,32.00,28.40,86.39,250.00,5.00,0.00,30.07,M,10.00,M,CLR,M,M,M,M,M,M,M,M,M,M,M,M,M,M,26.40,KHTH 221415Z AUTO 25005KT 10SM CLR 00/M02 A3007 RMK A01,M
TMT,2023-12-22 14:15,-117.1971,39.4643,1749.34,20.30,19.00,94.60,0.00,0.00,0.00,30.10,M,10.00,M,CLR,M,M,M,M,M,M,M,M,M,M,M,M,M,M,20.30,KTMT 221415Z AUTO 00000KT 10SM CLR M06/M07 A3010 RMK AO2 T10651073,M
LOL,2023-12-22 14:17,-118.5701,40.0684,1192.43,20.00,19.00,95.82,0.00,0.00,0.00,30.06,M,2.00,M,SCT,M,M,M,200.00,M,M,M,BR,M,M,M,M,M,M,20.00,KLOL 221417Z AUTO 00000KT 2SM BR SCT002 M07/M07 A3006 RMK AO2 VIS 1 1/4V4 T10671072,M
10U,2023-12-22 14:20,-116.1876,41.9532,1637.00,26.60,26.60,100.00,0.00,0.00,0.00,30.07,M,10.00,M,FEW,FEW,M,M,6000.00,11000.00,M,M,M,M,M,M,M,M,M,26.60,K10U 221420Z AUTO 00000KT 10SM FEW060 FEW110 M03/M03 A3007 RMK AO2,M
05U,2023-12-22 14:30,-116.0051,39.6042,1811.23,23.00,23.00,100.00,0.00,0.00,0.00,30.11,M,10.00,M,M,M,M,M,M,M,M,M,M,M,M,M,M,M,M,23.00,K05U 221430Z AUTO 00000KT 10SM M05/M05 A3011 RMK A01,M
LOL,2023-12-22 14:31,-118.5701,40.0684,1192.43,19.00,19.00,100.00,280.00,3.00,0.00,30.06,M,7.00,M,SCT,M,M,M,200.00,M,M,M,M,T,M,M,M,M,M,13.83,KLOL 221431Z AUTO 28003KT 7SM SCT002 M07/M07 A3006 RMK AO2 I1000 T10721072,M
BVU,2023-12-22 14:35,-114.8611,35.9475,671.00,51.80,37.40,57.77,90.00,4.00,0.00,29.98,M,10.00,M,FEW,FEW,OVC,M,6000.00,7500.00,9000.00,M,M,M,M,M,M,M,M,51.80,KBVU 221435Z AUTO 09004KT 10SM FEW060 FEW075 OVC090 11/03 A2998 RMK AO2,M
CXP,2023-12-22 14:35,-119.7326,39.1923,1431.00,30.20,30.20,100.00,0.00,0.00,0.00,30.08,M,0.25,M,OVC,M,M,M,200.00,M,M,M,FZFG,M,M,M,M,M,M,30.20,KCXP 221435Z AUTO 00000KT M1/4SM FZFG OVC002 M01/M01 A3008 RMK AO2,M
RTS,2023-12-22 14:35,-119.8764,39.6682,1539.00,26.60,26.60,100.00,0.00,0.00,0.00,30.06,M,0.75,M,VV ,M,M,M,500.00,M,M,M,BR,M,M,M,M,M,M,26.60,KRTS 221435Z AUTO 00000KT 3/4SM BR VV005 M03/M03 A3006 RMK AO2,M
MEV,2023-12-22 14:35,-119.7500,38.9963,1441.42,26.60,26.60,100.00,0.00,0.00,0.00,30.07,M,0.25,M,OVC,M,M,M,200.00,M,M,M,FZFG,M,M,M,M,M,M,26.60,KMEV 221435Z AUTO 00000KT M1/4SM FZFG OVC002 M03/M03 A3007 RMK AO2,M
BAM,2023-12-22 14:35,-116.8743,40.5990,1382.36,23.00,23.00,100.00,210.00,5.00,0.00,30.09,M,10.00,M,CLR,M,M,M,M,M,M,M,M,M,M,M,M,M,M,15.71,KBAM 221435Z AUTO 21005KT 10SM CLR M05/M05 A3009 RMK AO1,M
HTH,2023-12-22 14:35,-118.6315,38.5448,1282.89,32.00,30.20,92.97,250.00,6.00,0.00,30.07,M,10.00,M,CLR,M,M,M,M,M,M,M,M,M,M,M,M,M,M,25.53,KHTH 221435Z AUTO 25006KT 10SM CLR M00/M01 A3007 RMK A01,M
TMT,2023-12-22 14:35,-117.1971,39.4643,1749.34,19.00,17.20,92.55,230.00,4.00,0.00,30.10,M,10.00,M,CLR,M,M,M,M,M,M,M,M,M,M,M,M,M,M,12.24,KTMT 221435Z AUTO 23004KT 10SM CLR M07/M08 A3010 RMK AO2 T10731082,M
LOL,2023-12-22 14:38,-118.5701,40.0684,1192.43,19.00,18.00,95.80,0.00,0.00,0.00,30.06,M,1.50,M,BKN,M,M,M,200.00,M,M,M,BR,T,M,M,M,M,M,19.00,KLOL 221438Z AUTO 00000KT 1 1/2SM BR BKN002 M07/M08 A3006 RMK AO2 I1000 T10721078,M
10U,2023-12-22 14:40,-116.1876,41.9532,1637.00,24.80,24.80,100.00,0.00,0.00,0.00,30.07,M,10.00,M,CLR,M,M,M,M,M,M,M,M,M,M,M,M,M,M,24.80,K10U 221440Z AUTO 00000KT 10SM CLR M04/M04 A3007 RMK AO2,M
LOL,2023-12-22 14:40,-118.5701,40.0684,1192.43,19.00,18.00,95.80,0.00,0.00,0.00,30.05,M,0.75,M,VV ,M,M,M,100.00,M,M,M,BR,T,M,M,M,M,M,19.00,KLOL 221440Z AUTO 00000KT 3/4SM BR VV001 M07/M08 A3005 RMK AO2 I1000 T10721078,M
NFL,2023-12-22 14:40,-118.7010,39.4166,1199.00,22.00,20.00,91.87,0.00,0.00,0.00,30.05,M,5.00,M,SCT,M,M,M,200.00,M,M,M,MIFG,M,M,M,M,M,M,22.00,KNFL 221440Z 00000KT 5SM MIFG SCT002 M06/M07 A3005 RMK AO2 VIS LWR E-S T10561067,M
RNO,2023-12-22 14:42,-119.7711,39.4839,1341.00,29.00,27.00,92.12,130.00,3.00,0.00,30.06,M,0.25,M,VV ,M,M,M,200.00,M,M,M,FZFG,T,M,M,M,M,M,25.26,KRNO 221442Z 13003KT 1/4SM R17R/1800V2800FT FZFG VV002 M02/M03 A3006 RMK AO2 TWR VIS 10 I1000 T10171028,M
P68,2023-12-22 14:53,-116.0056,39.6014,1993.00,24.00,22.00,91.94,210.00,4.00,0.00,30.08,1019.30,M,M,M,M,M,M,M,M,M,M,M,M,M,M,M,M,M,18.08,KP68 221453Z AUTO 21004KT M04/M06 A3008 RMK AO1 SLP193 T10441056 56003,M
DRA,2023-12-22 14:53,-116.0278,36.6206,1009.00,M,M,M,M,M,0.00,30.00,M,M,M,M,M,M,M,M,M,M,M,M,M,M,M,M,M,M,M,KDRA 221453Z AUTO A3000 RMK AO2 SLPNO 54000 PWINO $,M
ELY,2023-12-22 14:53,-114.8453,39.2950,1909.00,25.00,23.00,91.97,M,M,0.00,30.11,1020.40,10.00,M,FEW,M,M,M,4300.00,M,M,M,M,M,M,M,M,M,M,M,KELY 221453Z AUTO 10SM FEW043 M04/M05 A3011 RMK AO2 SLP204 T10391050 55004,M
VGT,2023-12-22 14:53,-115.1933,36.2111,667.00,53.00,39.00,58.85,350.00,3.00,0.00,29.99,1016.60,10.00,M,SCT,BKN,M,M,7000.00,10000.00,M,M,M,M,M,M,M,M,M,53.00,KVGT 221453Z 35003KT 10SM SCT070 BKN100 12/04 A2999 RMK AO2 SLP166 T01170039 55001,M
LOL,2023-12-22 14:53,-118.5701,40.0684,1192.43,18.00,16.00,91.72,300.00,4.00,0.00,30.05,1020.30,0.75,M,VV ,M,M,M,100.00,M,M,M,BR,T,T,M,M,M,M,11.07,KLOL 221453Z AUTO 30004KT 3/4SM BR VV001 M08/M09 A3005 RMK AO2 SLP203 I1000 I3000 T10781089 58001,M
BVU,2023-12-22 14:55,-114.8611,35.9475,671.00,51.80,37.40,57.77,0.00,0.00,0.00,29.98,M,10.00,M,SCT,SCT,OVC,M,6500.00,7500.00,9000.00,M,M,M,M,M,M,M,M,51.80,KBVU 221455Z AUTO 00000KT 10SM SCT065 SCT075 OVC090 11/03 A2998 RMK AO2,M
CXP,2023-12-22 14:55,-119.7326,39.1923,1431.00,30.20,30.20,100.00,0.00,0.00,0.00,30.08,M,0.25,M,OVC,M,M,M,200.00,M,M,M,FZFG,M,M,M,M,M,M,30.20,KCXP 221455Z AUTO 00000KT M1/4SM FZFG OVC002 M01/M01 A3008 RMK AO2,M
INS,2023-12-22 14:55,-115.6733,36.5872,955.00,41.00,32.00,70.08,0.00,0.00,0.00,30.02,1015.20,10.00,M,BKN,M,M,M,8500.00,M,M,M,M,M,M,M,M,M,M,41.00,KINS 221455Z AUTO 00000KT 10SM BKN085 05/M00 A3002 RMK AO2 SLP152 T00511001 53001 $,M
RNO,2023-12-22 14:55,-119.7711,39.4839,1341.00,28.00,26.00,92.08,0.00,0.00,0.00,30.06,1018.40,0.25,M,BKN,M,M,M,200.00,M,M,M,FZFG,T,T,M,M,M,M,28.00,KRNO 221455Z COR 00000KT 1/4SM R17R/2200V2800FT FZFG BKN002 M02/M03 A3006 RMK AO2 TWR VIS 10 SLP184 I1000 I3000 T10221033 58002,M
RTS,2023-12-22 14:55,-119.8764,39.6682,1539.00,24.80,24.80,100.00,0.00,0.00,0.00,30.07,M,5.00,M,CLR,M,M,M,M,M,M,M,BR,M,M,M,M,M,M,24.80,KRTS 221455Z AUTO 00000KT 5SM BR CLR M04/M04 A3007 RMK AO2,M
05U,2023-12-22 14:55,-116.0051,39.6042,1811.23,23.00,23.00,100.00,10.00,4.00,0.00,30.11,M,10.00,M,M,M,M,M,M,M,M,M,M,M,M,M,M,M,M,16.91,K05U 221455Z AUTO 01004KT 10SM M05/M05 A3011 RMK A01,M
MEV,2023-12-22 14:55,-119.7500,38.9963,1441.42,26.60,26.60,100.00,0.00,0.00,0.00,30.07,M,0.25,M,OVC,M,M,M,200.00,M,M,M,FZFG,M,M,M,M,M,M,26.60,KMEV 221455Z AUTO 00000KT M1/4SM FZFG OVC002 M03/M03 A3007 RMK AO2,M
BAM,2023-12-22 14:55,-116.8743,40.5990,1382.36,24.80,23.00,92.74,200.00,3.00,0.00,30.09,M,10.00,M,CLR,M,M,M,M,M,M,M,M,M,M,M,M,M,M,20.46,KBAM 221455Z AUTO 20003KT 10SM CLR M04/M05 A3009 RMK AO1,M
HTH,2023-12-22 14:55,-118.6315,38.5448,1282.89,30.20,28.40,92.92,220.00,4.00,0.00,30.07,M,10.00,M,CLR,M,M,M,M,M,M,M,M,M,M,M,M,M,M,25.32,KHTH 221455Z AUTO 22004KT 10SM CLR M01/M02 A3007 RMK A01,M
LSV,2023-12-22 14:55,-115.0343,36.2362,570.00,56.00,36.00,46.88,0.00,0.00,0.00,29.96,1013.60,10.00,M,FEW,SCT,M,M,7500.00,10000.00,M,M,M,M,M,M,M,M,M,56.00,KLSV 221455Z AUTO 00000KT 10SM FEW075 SCT100 13/02 A2996 RMK AO2 SLP136 T01340023 55000 $,M
TMT,2023-12-22 14:55,-117.1971,39.4643,1749.34,19.40,18.00,94.17,230.00,4.00,0.00,30.09,M,10.00,M,CLR,M,M,M,M,M,M,M,M,M,M,M,M,M,M,12.71,KTMT 221455Z AUTO 23004KT 10SM CLR M07/M08 A3009 RMK AO2 T10701078,M
EKO,2023-12-22 14:56,-115.7860,40.8242,1367.00,27.00,25.00,92.05,0.00,0.00,0.00,30.09,1021.30,10.00,M,CLR,M,M,M,M,M,M,M,M,M,M,M,M,M,M,27.00,KEKO 221456Z AUTO 00000KT 10SM CLR M03/M04 A3009 RMK AO2 SLP213 T10281039 56003 PWINO FZRANO $,M
WMC,2023-12-22 14:56,-117.8072,40.9019,1315.00,25.00,20.00,81.01,0.00,0.00,0.00,30.04,1019.00,10.00,M,CLR,M,M,M,M,M,M,M,M,T,T,M,M,M,M,25.00,KWMC 221456Z AUTO 00000KT 10SM CLR M04/M07 A3004 RMK AO2 SLP190 I1000 I3000 T10391067 58006,M
NFL,2023-12-22 14:56,-118.7010,39.4166,1199.00,22.00,19.00,88.02,140.00,3.00,0.00,30.05,1014.40,7.00,M,FEW,SCT,SCT,M,200.00,15000.00,20000.00,M,M,M,M,M,M,M,M,17.26,KNFL 221456Z 14003KT 7SM FEW002 SCT150 SCT200 M06/M07 A3005 RMK AO2 SLP144 VIS LWR E-S T10561072 50002,M
HND,2023-12-22 14:56,-115.1344,35.9729,742.79,50.00,38.00,63.23,160.00,4.00,0.00,30.01,1017.60,10.00,M,BKN,BKN,M,M,6500.00,9000.00,M,M,M,M,M,M,M,M,M,50.00,KHND 221456Z 16004KT 10SM BKN065 BKN090 10/03 A3001 RMK AO2 SLP176 T01000033 55000,M
TPH,2023-12-22 14:56,-117.0904,38.0505,1654.00,37.00,34.00,88.78,360.00,5.00,0.00,30.08,1017.70,10.00,M,BKN,OVC,M,M,4100.00,4900.00,M,M,M,M,M,M,M,M,M,32.33,KTPH 221456Z AUTO 36005KT 10SM BKN041 OVC049 03/01 A3008 RMK AO2 SLP177 60000 T00280011 53002,M
LAS,2023-12-22 14:56,-115.1634,36.0719,663.00,58.00,37.00,45.38,360.00,8.00,T,29.99,1014.60,10.00,M,BKN,BKN,OVC,M,6500.00,10000.00,20000.00,M,-RA,M,M,M,M,M,M,58.00,KLAS 221456Z 36008KT 10SM -RA BKN065 BKN100 OVC200 14/03 A2999 RMK AO2 RAB54 SLP146 P0000 60000 T01440028 55001,M
10U,2023-12-22 15:00,-116.1876,41.9532,1637.00,24.80,23.00,92.74,0.00,0.00,0.00,30.07,M,10.00,M,CLR,M,M,M,M,M,M,M,M,M,M,M,M,M,M,24.80,K10U 221500Z AUTO 00000KT 10SM CLR M04/M05 A3007 RMK AO2,M
LOL,2023-12-22 15:01,-118.5701,40.0684,1192.43,18.00,17.00,95.78,290.00,3.00,0.00,30.05,M,1.00,M,VV ,M,M,M,200.00,M,M,M,BR,M,M,M,M,M,M,12.68,KLOL 221501Z AUTO 29003KT 1SM BR VV002 M08/M08 A3005 RMK AO2 T10781083,M
RNO,2023-12-22 15:09,-119.7711,39.4839,1341.00,29.00,26.00,88.38,0.00,0.00,0.00,30.07,M,0.25,M,BKN,M,M,M,200.00,M,M,M,FZFG,M,M,M,M,M,M,29.00,KRNO 221509Z 00000KT 1/4SM R17R/1600V2200FT FZFG BKN002 M02/M03 A3007 RMK AO2 TWR VIS 10 T10171033,M
LOL,2023-12-22 15:12,-118.5701,40.0684,1192.43,18.00,18.00,100.00,M,3.00,0.00,30.05,M,0.50,M,VV ,M,M,M,200.00,M,M,M,FZFG,M,M,M,M,M,M,12.68,KLOL 221512Z AUTO VRB03KT 1/2SM FZFG VV002 M08/M08 A3005 RMK AO2 T10781078,M
BVU,2023-12-22 15:15,-114.8611,35.9475,671.00,50.00,37.40,61.76,0.00,0.00,0.00,29.98,M,10.00,M,BKN,OVC,M,M,6000.00,8000.00,M,M,M,M,M,M,M,M,M,50.00,KBVU 221515Z AUTO 00000KT 10SM BKN060 OVC080 10/03 A2998 RMK AO2,M
CXP,2023-12-22 15:15,-119.7326,39.1923,1431.00,30.20,30.20,100.00,0.00,0.00,0.00,30.08,M,0.25,M,OVC,M,M,M,200.00,M,M,M,FZFG,M,M,M,M,M,M,30.20,KCXP 221515Z AUTO 00000KT M1/4SM FZFG OVC002 M01/M01 A3008 RMK AO2,M
RTS,2023-12-22 15:15,-119.8764,39.6682,1539.00,23.00,21.20,92.69,0.00,0.00,0.00,30.07,M,1.00,M,BKN,M,M,M,100.00,M,M,M,BR,M,M,M,M,M,M,23.00,KRTS 221515Z AUTO 00000KT 1SM BR BKN001 M05/M06 A3007 RMK AO2 VIS 1/4V5,M
05U,2023-12-22 15:15,-116.0051,39.6042,1811.23,23.00,23.00,100.00,0.00,0.00,0.00,30.11,M,10.00,M,M,M,M,M,M,M,M,M,M,M,M,M,M,M,M,23.00,K05U 221515Z AUTO 00000KT 10SM M05/M05 A3011 RMK A01,M
MEV,2023-12-22 15:15,-119.7500,38.9963,1441.42,24.80,24.80,100.00,0.00,0.00,0.00,30.07,M,0.25,M,OVC,M,M,M,200.00,M,M,M,FZFG,M,M,M,M,M,M,24.80,KMEV 221515Z AUTO 00000KT M1/4SM FZFG OVC002 M04/M04 A3007 RMK AO2,M
BAM,2023-12-22 15:15,-116.8743,40.5990,1382.36,24.80,23.00,92.74,220.00,3.00,0.00,30.08,M,10.00,M,SCT,M,M,M,7500.00,M,M,M,M,M,M,M,M,M,M,20.46,KBAM 221515Z AUTO 22003KT 10SM SCT075 M04/M05 A3008 RMK AO1,M
HTH,2023-12-22 15:15,-118.6315,38.5448,1282.89,30.20,30.20,100.00,160.00,4.00,0.00,30.08,M,9.00,M,CLR,M,M,M,M,M,M,M,M,M,M,M,M,M,M,25.32,KHTH 221515Z AUTO 16004KT 9SM CLR M01/M01 A3008 RMK A01,M
TMT,2023-12-22 15:15,-117.1971,39.4643,1749.34,19.40,18.00,94.17,250.00,4.00,0.00,30.10,M,10.00,M,CLR,M,M,M,M,M,M,M,M,M,M,M,M,M,M,12.71,KTMT 221515Z AUTO 25004KT 10SM CLR M07/M08 A3010 RMK AO2 T10701077,M
10U,2023-12-22 15:20,-116.1876,41.9532,1637.00,24.80,23.00,92.74,0.00,0.00,0.00,30.06,M,10.00,M,CLR,M,M,M,M,M,M,M,M,M,M,M,M,M,M,24.80,K10U 221520Z AUTO 00000KT 10SM CLR M04/M05 A3006 RMK AO2,M
LOL,2023-12-22 15:31,-118.5701,40.0684,1192.43,17.00,15.00,91.68,0.00,0.00,0.00,30.05,M,0.25,M,VV ,M,M,M,100.00,M,M,M,FZFG,T,M,M,M,M,M,17.00,KLOL 221531Z AUTO 00000KT 1/4SM FZFG VV001 M08/M09 A3005 RMK AO2 I1000 T10831094,M
BVU,2023-12-22 15:35,-114.8611,35.9475,671.00,51.80,37.40,57.77,0.00,0.00,0.00,29.99,M,10.00,M,SCT,SCT,SCT,M,6000.00,7500.00,8500.00,M,M,M,M,M,M,M,M,51.80,KBVU 221535Z AUTO 00000KT 10SM SCT060 SCT075 SCT085 11/03 A2999 RMK AO2,M
CXP,2023-12-22 15:35,-119.7326,39.1923,1431.00,30.20,30.20,100.00,0.00,0.00,0.00,30.08,M,0.25,M,OVC,M,M,M,200.00,M,M,M,FZFG,M,M,M,M,M,M,30.20,KCXP 221535Z AUTO 00000KT M1/4SM FZFG OVC002 M01/M01 A3008 RMK AO2,M
RTS,2023-12-22 15:35,-119.8764,39.6682,1539.00,24.80,23.00,92.74,0.00,0.00,0.00,30.07,M,0.25,M,OVC,M,M,M,100.00,M,M,M,FZFG,M,M,M,M,M,M,24.80,KRTS 221535Z AUTO 00000KT M1/4SM FZFG OVC001 M04/M05 A3007 RMK AO2,M
05U,2023-12-22 15:35,-116.0051,39.6042,1811.23,24.80,23.00,92.74,10.00,5.00,0.00,30.11,M,10.00,M,M,M,M,M,M,M,M,M,M,M,M,M,M,M,M,17.84,K05U 221535Z AUTO 01005KT 10SM M04/M05 A3011 RMK A01,M
MEV,2023-12-22 15:35,-119.7500,38.9963,1441.42,24.80,24.80,100.00,0.00,0.00,0.00,30.07,M,0.75,M,OVC,M,M,M,300.00,M,M,M,BR,M,M,M,M,M,M,24.80,KMEV 221535Z AUTO 00000KT 3/4SM BR OVC003 M04/M04 A3007 RMK AO2,M
HTH,2023-12-22 15:35,-118.6315,38.5448,1282.89,32.00,32.00,100.00,200.00,4.00,0.00,30.07,M,8.00,M,CLR,M,M,M,M,M,M,M,M,M,M,M,M,M,M,27.42,KHTH 221535Z AUTO 20004KT 8SM CLR M00/M00 A3007 RMK A01,M
BAM,2023-12-22 15:35,-116.8743,40.5990,1382.36,24.80,23.00,92.74,0.00,0.00,0.00,30.08,M,10.00,M,SCT,M,M,M,7500.00,M,M,M,M,M,M,M,M,M,M,24.80,KBAM 221535Z AUTO 00000KT 10SM SCT075 M04/M05 A3008 RMK AO1,M
TMT,2023-12-22 15:35,-117.1971,39.4643,1749.34,18.50,17.00,93.74,0.00,0.00,0.00,30.10,M,10.00,M,CLR,M,M,M,M,M,M,M,M,M,M,M,M,M,M,18.50,KTMT 221535Z AUTO 00000KT 10SM CLR M07/M08 A3010 RMK AO2 T10751083,M
10U,2023-12-22 15:40,-116.1876,41.9532,1637.00,24.80,23.00,92.74,0.00,0.00,0.00,30.06,M,10.00,M,CLR,M,M,M,M,M,M,M,M,M,M,M,M,M,M,24.80,K10U 221540Z AUTO 00000KT 10SM CLR M04/M05 A3006 RMK AO2,M
RNO,2023-12-22 15:50,-119.7711,39.4839,1341.00,28.40,28.40,100.00,0.00,0.00,0.00,30.07,M,0.25,M,VV ,M,M,M,200.00,M,M,M,FZFG,M,M,M,M,M,M,28.40,KRNO 221550Z 00000KT M1/4SM R17R/0700V1000FT FZFG VV002 M02/M02 A3007 RMK AO2 TWR VIS 1/4,M
05U,2023-12-22 15:50,-116.0051,39.6042,1811.23,24.80,23.00,92.74,350.00,4.00,0.00,30.11,M,10.00,M,M,M,M,M,M,M,M,M,M,M,M,M,M,M,M,19.01,K05U 221550Z AUTO 35004KT 10SM M04/M05 A3011 RMK A01,M
P68,2023-12-22 15:53,-116.0056,39.6014,1993.00,25.00,23.00,91.97,0.00,0.00,0.00,30.09,1019.60,M,M,M,M,M,M,M,M,M,M,M,M,M,M,M,M,M,25.00,KP68 221553Z AUTO 00000KT M04/M05 A3009 RMK AO1 SLP196 T10391050,M
DRA,2023-12-22 15:53,-116.0278,36.6206,1009.00,M,M,M,M,M,0.00,30.00,M,M,M,M,M,M,M,M,M,M,M,M,M,M,M,M,M,M,M,KDRA 221553Z AUTO A3000 RMK AO2 SLPNO PWINO $,M
ELY,2023-12-22 15:53,-114.8453,39.2950,1909.00,27.00,24.00,88.28,M,M,0.00,30.11,1020.50,10.00,M,SCT,SCT,M,M,3800.00,4500.00,M,M,M,M,M,M,M,M,M,M,KELY 221553Z AUTO 10SM SCT038 SCT045 M03/M04 A3011 RMK AO2 SLP205 T10281044,M
VGT,2023-12-22 15:53,-115.1933,36.2111,667.00,54.00,40.00,58.99,320.00,4.00,0.00,29.99,1016.70,10.00,M,OVC,M,M,M,7000.00,M,M,M,M,M,M,M,M,M,M,54.00,KVGT 221553Z 32004KT 10SM OVC070 12/04 A2999 RMK AO2 SLP167 T01220044,M
LOL,2023-12-22 15:53,-118.5701,40.0684,1192.43,20.00,19.00,95.82,140.00,3.00,0.00,30.05,1020.40,0.25,M,VV ,M,M,M,100.00,M,M,M,FZFG,T,M,M,M,M,M,14.97,KLOL 221553Z AUTO 14003KT M1/4SM FZFG VV001 M07/M07 A3005 RMK AO2 SLP204 I1000 T10671072,M
BVU,2023-12-22 15:55,-114.8611,35.9475,671.00,51.80,37.40,57.77,0.00,0.00,0.00,29.99,M,10.00,M,SCT,BKN,M,M,6000.00,9000.00,M,M,M,M,M,M,M,M,M,51.80,KBVU 221555Z AUTO 00000KT 10SM SCT060 BKN090 11/03 A2999 RMK AO2,M
CXP,2023-12-22 15:55,-119.7326,39.1923,1431.00,30.20,30.20,100.00,0.00,0.00,0.00,30.08,M,0.25,M,OVC,M,M,M,200.00,M,M,M,FZFG,M,M,M,M,M,M,30.20,KCXP 221555Z AUTO 00000KT M1/4SM FZFG OVC002 M01/M01 A3008 RMK AO2,M
INS,2023-12-22 15:55,-115.6733,36.5872,955.00,42.60,32.00,65.89,320.00,5.00,0.00,30.01,1015.10,10.00,M,SCT,OVC,M,M,5000.00,7000.00,M,M,M,M,M,M,M,M,M,38.98,KINS 221555Z AUTO 32005KT 10SM SCT050 OVC070 06/00 A3001 RMK AO2 SLP151 T00590000 $,M
RNO,2023-12-22 15:55,-119.7711,39.4839,1341.00,29.00,28.00,95.99,0.00,0.00,0.00,30.07,1018.60,0.25,M,VV ,M,M,M,200.00,M,M,M,FZFG,M,M,M,M,M,M,29.00,KRNO 221555Z 00000KT M1/4SM R17R/0800V1200FT FZFG VV002 M02/M02 A3007 RMK AO2 TWR VIS 1/4 SLP186 T10171022,M
RTS,2023-12-22 15:55,-119.8764,39.6682,1539.00,23.00,23.00,100.00,0.00,0.00,0.00,30.07,M,0.25,M,BKN,M,M,M,200.00,M,M,M,FZFG,M,M,M,M,M,M,23.00,KRTS 221555Z AUTO 00000KT 1/4SM FZFG BKN002 M05/M05 A3007 RMK AO2,M
MEV,2023-12-22 15:55,-119.7500,38.9963,1441.42,26.60,26.60,100.00,0.00,0.00,0.00,30.07,M,0.75,M,OVC,M,M,M,300.00,M,M,M,BR,M,M,M,M,M,M,26.60,KMEV 221555Z AUTO 00000KT 3/4SM BR OVC003 M03/M03 A3007 RMK AO2,M
BAM,2023-12-22 15:55,-116.8743,40.5990,1382.36,23.00,21.20,92.69,150.00,3.00,0.00,30.08,M,0.75,M,VV ,M,M,M,500.00,M,M,M,M,M,M,M,M,M,M,18.40,KBAM 221555Z AUTO 15003KT 3/4SM VV005 M05/M06 A3008 RMK AO1,M
HTH,2023-12-22 15:55,-118.6315,38.5448,1282.89,32.00,32.00,100.00,0.00,0.00,0.00,30.07,M,8.00,M,CLR,M,M,M,M,M,M,M,M,M,M,M,M,M,M,32.00,KHTH 221555Z AUTO 00000KT 8SM CLR 00/00 A3007 RMK A01,M
LSV,2023-12-22 15:55,-115.0343,36.2362,570.00,56.00,38.30,51.33,290.00,3.00,0.00,29.97,1014.10,10.00,M,BKN,BKN,M,M,7000.00,10000.00,M,M,M,M,M,M,M,M,M,56.00,KLSV 221555Z AUTO 29003KT 10SM BKN070 BKN100 13/04 A2997 RMK AO2 SLP141 T01340035 $,M
TMT,2023-12-22 15:55,-117.1971,39.4643,1749.34,19.80,18.50,94.59,0.00,0.00,0.00,30.10,M,10.00,M,CLR,M,M,M,M,M,M,M,M,M,M,M,M,M,M,19.80,KTMT 221555Z AUTO 00000KT 10SM CLR M07/M07 A3010 RMK AO2 LTG DSNT S T10681075,M
EKO,2023-12-22 15:56,-115.7860,40.8242,1367.00,29.00,26.00,88.38,0.00,0.00,0.00,30.09,1021.30,10.00,M,CLR,M,M,M,M,M,M,M,M,M,M,M,M,M,M,29.00,KEKO 221556Z AUTO 00000KT 10SM CLR M02/M03 A3009 RMK AO2 SLP213 T10171033 PWINO FZRANO $,M
WMC,2023-12-22 15:56,-117.8072,40.9019,1315.00,27.00,23.00,84.66,90.00,5.00,0.00,30.04,1018.90,10.00,M,CLR,M,M,M,M,M,M,M,M,M,M,M,M,M,M,20.46,KWMC 221556Z AUTO 09005KT 10SM CLR M03/M05 A3004 RMK AO2 SLP189 T10281050,M
NFL,2023-12-22 15:56,-118.7010,39.4166,1199.00,27.00,25.00,92.05,M,3.00,0.00,30.05,1014.60,5.00,M,FEW,FEW,M,M,200.00,10000.00,M,M,BR,M,M,M,M,M,M,22.97,KNFL 221556Z VRB03KT 5SM BR FEW002 FEW100 M03/M04 A3005 RMK AO2 SLP146 VIS LWR SE-S T10281039,M
HND,2023-12-22 15:56,-115.1344,35.9729,742.79,51.00,38.00,60.92,160.00,5.00,0.00,30.02,1018.00,10.00,M,BKN,M,M,M,5500.00,M,M,M,M,M,M,M,M,M,M,51.00,KHND 221556Z 16005KT 10SM BKN055 11/03 A3002 RMK AO2 SLP180 T01060033,M
TPH,2023-12-22 15:56,-117.0904,38.0505,1654.00,36.00,33.00,88.73,360.00,4.00,0.00,30.07,1017.80,10.00,M,BKN,OVC,M,M,4000.00,4800.00,M,M,M,M,M,M,M,M,M,32.09,KTPH 221556Z AUTO 36004KT 10SM BKN040 OVC048 02/01 A3007 RMK AO2 SLP178 T00220006,M
LAS,2023-12-22 15:56,-115.1634,36.0719,663.00,57.00,37.00,47.04,110.00,4.00,T,30.00,1014.90,10.00,M,BKN,BKN,OVC,M,6500.00,9500.00,20000.00,M,M,M,M,M,M,M,M,57.00,KLAS 221556Z 11004KT 10SM BKN065 BKN095 OVC200 14/03 A3000 RMK AO2 RAE03 SLP149 P0000 T01390028,M
10U,2023-12-22 16:00,-116.1876,41.9532,1637.00,26.60,24.80,92.80,180.00,4.00,0.00,30.06,M,10.00,M,CLR,M,M,M,M,M,M,M,M,M,M,M,M,M,M,21.11,K10U 221600Z AUTO 18004KT 10SM CLR M03/M04 A3006 RMK AO2,M
LOL,2023-12-22 16:00,-118.5701,40.0684,1192.43,21.00,21.00,100.00,90.00,3.00,0.00,30.06,M,0.25,M,VV ,M,M,M,100.00,M,M,M,FZFG,M,M,M,M,M,M,16.11,KLOL 221600Z AUTO 09003KT 1/4SM FZFG VV001 M06/M06 A3006 RMK AO2 T10611061,M
LOL,2023-12-22 16:09,-118.5701,40.0684,1192.43,22.00,22.00,100.00,60.00,3.00,0.00,30.06,M,0.50,M,VV ,M,M,M,100.00,M,M,M,FZFG,M,M,M,M,M,M,17.26,KLOL 221609Z AUTO 06003KT 1/2SM FZFG VV001 M06/M06 A3006 RMK AO2 T10561056,M
05U,2023-12-22 16:10,-116.0051,39.6042,1811.23,26.60,24.80,92.80,0.00,0.00,0.00,30.11,M,10.00,M,M,M,M,M,M,M,M,M,M,M,M,M,M,M,M,26.60,K05U 221610Z AUTO 00000KT 10SM M03/M04 A3011 RMK A01,M
BVU,2023-12-22 16:15,-114.8611,35.9475,671.00,51.80,37.40,57.77,80.00,4.00,0.00,29.99,M,10.00,M,FEW,BKN,M,M,6000.00,8500.00,M,M,M,M,M,M,M,M,M,51.80,KBVU 221615Z AUTO 08004KT 10SM FEW060 BKN085 11/03 A2999 RMK AO2,M
CXP,2023-12-22 16:15,-119.7326,39.1923,1431.00,30.20,30.20,100.00,0.00,0.00,0.00,30.09,M,0.25,M,OVC,M,M,M,200.00,M,M,M,FZFG,M,M,M,M,M,M,30.20,KCXP 221615Z AUTO 00000KT M1/4SM FZFG OVC002 M01/M01 A3009 RMK AO2,M
RTS,2023-12-22 16:15,-119.8764,39.6682,1539.00,24.80,24.80,100.00,20.00,3.00,0.00,30.07,M,9.00,M,FEW,M,M,M,200.00,M,M,M,M,M,M,M,M,M,M,20.46,KRTS 221615Z AUTO 02003KT 9SM FEW002 M04/M04 A3007 RMK AO2,M
MEV,2023-12-22 16:15,-119.7500,38.9963,1441.42,26.60,26.60,100.00,0.00,0.00,0.00,30.07,M,0.25,M,OVC,M,M,M,200.00,M,M,M,FZFG,M,M,M,M,M,M,26.60,KMEV 221615Z AUTO 00000KT M1/4SM FZFG OVC002 M03/M03 A3007 RMK AO2,M
HTH,2023-12-22 16:15,-118.6315,38.5448,1282.89,35.60,33.80,93.08,0.00,0.00,0.00,30.08,M,9.00,M,CLR,M,M,M,M,M,M,M,M,M,M,M,M,M,M,35.60,KHTH 221615Z AUTO 00000KT 9SM CLR 02/01 A3008 RMK A01,M
BAM,2023-12-22 16:15,-116.8743,40.5990,1382.36,26.60,26.60,100.00,0.00,0.00,0.00,30.08,M,0.25,M,OVC,M,M,M,200.00,M,M,M,M,M,M,M,M,M,M,26.60,KBAM 221615Z AUTO 00000KT 1/4SM OVC002 M03/M03 A3008 RMK AO1,M
TMT,2023-12-22 16:15,-117.1971,39.4643,1749.34,22.30,20.30,91.88,0.00,0.00,0.00,30.10,M,10.00,M,CLR,M,M,M,M,M,M,M,M,M,M,M,M,M,M,22.30,KTMT 221615Z AUTO 00000KT 10SM CLR M05/M06 A3010 RMK AO2 T10541065,M
10U,2023-12-22 16:20,-116.1876,41.9532,1637.00,28.40,26.60,92.86,140.00,6.00,0.00,30.06,M,10.00,M,FEW,M,M,M,6000.00,M,M,M,M,M,M,M,M,M,M,21.19,K10U 221620Z AUTO 14006KT 10SM FEW060 M02/M03 A3006 RMK AO2,M
LOL,2023-12-22 16:23,-118.5701,40.0684,1192.43,25.00,23.00,91.97,0.00,0.00,0.00,30.06,M,2.00,M,OVC,M,M,M,100.00,M,M,M,BR,M,M,M,M,M,M,25.00,KLOL 221623Z AUTO 00000KT 2SM BR OVC001 M04/M05 A3006 RMK AO2 T10391050,M
LOL,2023-12-22 16:30,-118.5701,40.0684,1192.43,26.00,24.00,92.01,0.00,0.00,0.00,30.06,M,7.00,M,OVC,M,M,M,100.00,M,M,M,M,M,M,M,M,M,M,26.00,KLOL 221630Z AUTO 00000KT 7SM OVC001 M03/M04 A3006 RMK AO2 T10331044,M
05U,2023-12-22 16:30,-116.0051,39.6042,1811.23,30.20,28.40,92.92,0.00,0.00,0.00,30.11,M,10.00,M,M,M,M,M,M,M,M,M,M,M,M,M,M,M,M,30.20,K05U 221630Z AUTO 00000KT 10SM M01/M02 A3011 RMK A01,M
BVU,2023-12-22 16:35,-114.8611,35.9475,671.00,51.80,39.20,61.99,110.00,3.00,0.00,30.00,M,10.00,M,FEW,SCT,BKN,M,4800.00,5500.00,7500.00,M,M,M,M,M,M,M,M,51.80,KBVU 221635Z AUTO 11003KT 10SM FEW048 SCT055 BKN075 11/04 A3000 RMK AO2,M
CXP,2023-12-22 16:35,-119.7326,39.1923,1431.00,30.20,30.20,100.00,0.00,0.00,0.00,30.09,M,0.25,M,OVC,M,M,M,200.00,M,M,M,FZFG,M,M,M,M,M,M,30.20,KCXP 221635Z AUTO 00000KT M1/4SM FZFG OVC002 M01/M01 A3009 RMK AO2,M
RTS,2023-12-22 16:35,-119.8764,39.6682,1539.00,30.20,30.20,100.00,110.00,5.00,0.00,30.06,M,7.00,M,FEW,M,M,M,200.00,M,M,M,M,M,M,M,M,M,M,24.26,KRTS 221635Z AUTO 11005KT 7SM FEW002 M01/M01 A3006 RMK AO2,M
MEV,2023-12-22 16:35,-119.7500,38.9963,1441.42,26.60,26.60,100.00,0.00,0.00,0.00,30.08,M,0.25,M,OVC,M,M,M,200.00,M,M,M,FZFG,M,M,M,M,M,M,26.60,KMEV 221635Z AUTO 00000KT M1/4SM FZFG OVC002 M03/M03 A3008 RMK AO2,M
BAM,2023-12-22 16:35,-116.8743,40.5990,1382.36,28.40,28.40,100.00,90.00,3.00,0.00,30.07,M,2.00,M,BKN,M,M,M,200.00,M,M,M,M,M,M,M,M,M,M,24.57,KBAM 221635Z AUTO 09003KT 2SM BKN002 M02/M02 A3007 RMK AO1,M
HTH,2023-12-22 16:35,-118.6315,38.5448,1282.89,37.40,33.80,86.69,0.00,0.00,0.00,30.08,M,10.00,M,CLR,M,M,M,M,M,M,M,M,M,M,M,M,M,M,37.40,KHTH 221635Z AUTO 00000KT 10SM CLR 03/01 A3008 RMK A01,M
TMT,2023-12-22 16:35,-117.1971,39.4643,1749.34,24.40,22.00,90.41,0.00,0.00,0.00,30.10,M,10.00,M,CLR,M,M,M,M,M,M,M,M,M,M,M,M,M,M,24.40,KTMT 221635Z AUTO 00000KT 10SM CLR M04/M05 A3010 RMK AO2 T10421055,M
LOL,2023-12-22 16:37,-118.5701,40.0684,1192.43,25.00,24.00,95.91,350.00,3.00,0.00,30.06,M,1.75,M,OVC,M,M,M,100.00,M,M,M,BR,M,M,M,M,M,M,20.69,KLOL 221637Z AUTO 35003KT 1 3/4SM BR OVC001 M04/M04 A3006 RMK AO2 VIS 3/4V5 T10391044,M
10U,2023-12-22 16:40,-116.1876,41.9532,1637.00,33.80,32.00,93.03,180.00,6.00,0.00,30.05,M,10.00,M,CLR,M,M,M,M,M,M,M,M,M,M,M,M,M,M,27.70,K10U 221640Z AUTO 18006KT 10SM CLR 01/M00 A3005 RMK AO2,M
LOL,2023-12-22 16:46,-118.5701,40.0684,1192.43,26.00,26.00,100.00,320.00,3.00,0.00,30.06,M,3.00,M,BKN,M,M,M,100.00,M,M,M,BR,M,M,M,M,M,M,21.83,KLOL 221646Z AUTO 32003KT 3SM BR BKN001 M03/M03 A3006 RMK AO2 T10331033,M
LSV,2023-12-22 16:47,-115.0343,36.2362,570.00,59.00,35.60,41.42,90.00,5.00,0.00,29.97,1014.00,10.00,M,BKN,BKN,M,M,7000.00,9500.00,M,M,-RA,M,M,M,M,M,M,59.00,KLSV 221647Z 09005KT 10SM -RA BKN070 BKN095 15/02 A2997 RMK AO2A RAB47 SLP140 $,M
05U,2023-12-22 16:50,-116.0051,39.6042,1811.23,32.00,30.20,92.97,0.00,0.00,0.00,30.12,M,10.00,M,M,M,M,M,M,M,M,M,M,M,M,M,M,M,M,32.00,K05U 221650Z AUTO 00000KT 10SM 00/M01 A3012 RMK A01,M
CXP,2023-12-22 16:50,-119.7326,39.1923,1431.00,30.20,30.20,100.00,0.00,0.00,0.00,30.09,M,0.25,M,OVC,M,M,M,200.00,M,M,M,FZFG,M,M,M,M,M,M,30.20,KCXP 221650Z AUTO 00000KT M1/4SM FZFG OVC002 M01/M01 A3009 RMK AO2,M
P68,2023-12-22 16:53,-116.0056,39.6014,1993.00,33.00,30.00,88.58,0.00,0.00,0.00,30.09,1018.80,M,M,M,M,M,M,M,M,M,M,M,M,M,M,M,M,M,33.00,KP68 221653Z AUTO 00000KT 01/M01 A3009 RMK AO1 SLP188 T00061011,M
DRA,2023-12-22 16:53,-116.0278,36.6206,1009.00,M,M,M,M,M,0.00,30.01,M,M,M,M,M,M,M,M,M,M,M,M,M,M,M,M,M,M,M,KDRA 221653Z AUTO A3001 RMK AO2 SLPNO PWINO $,M
ELY,2023-12-22 16:53,-114.8453,39.2950,1909.00,36.00,30.00,78.60,M,M,0.00,30.12,1019.50,10.00,M,FEW,OVC,M,M,3600.00,8000.00,M,M,M,M,M,M,M,M,M,M,KELY 221653Z AUTO 10SM FEW036 OVC080 02/M01 A3012 RMK AO2 SLP195 T00221011 $,M
VGT,2023-12-22 16:53,-115.1933,36.2111,667.00,56.00,42.00,59.26,300.00,5.00,0.00,30.00,1017.00,10.00,M,BKN,M,M,M,6500.00,M,M,M,M,M,M,M,M,M,M,56.00,KVGT 221653Z 30005KT 10SM BKN065 13/06 A3000 RMK AO2 SLP170 T01330056,M
LOL,2023-12-22 16:53,-118.5701,40.0684,1192.43,27.00,27.00,100.00,330.00,3.00,0.00,30.06,1020.30,10.00,M,BKN,M,M,M,100.00,M,M,M,M,M,M,M,M,M,M,22.97,KLOL 221653Z AUTO 33003KT 10SM BKN001 M03/M03 A3006 RMK AO2 SLP203 T10281028,M
BVU,2023-12-22 16:55,-114.8611,35.9475,671.00,51.80,39.20,61.99,200.00,4.00,0.00,30.02,M,7.00,M,FEW,SCT,OVC,M,3400.00,4400.00,5500.00,M,-RA,M,M,M,M,M,M,51.80,KBVU 221655Z AUTO 20004KT 7SM -RA FEW034 SCT044 OVC055 11/04 A3002 RMK AO2,M
INS,2023-12-22 16:55,-115.6733,36.5872,955.00,46.00,33.80,62.21,60.00,5.00,0.00,30.02,1015.40,10.00,M,BKN,OVC,M,M,5000.00,9500.00,M,M,M,M,M,M,M,M,M,43.02,KINS 221655Z AUTO 06005KT 10SM BKN050 OVC095 08/01 A3002 RMK AO2 SLP154 T00780010 $,M
RNO,2023-12-22 16:55,-119.7711,39.4839,1341.00,30.00,29.00,96.00,0.00,0.00,0.00,30.08,1019.10,0.12,M,VV ,M,M,M,200.00,M,M,M,FZFG,0.01,M,M,M,M,M,30.00,KRNO 221655Z 00000KT 1/8SM R17R/0800V1000FT FZFG VV002 M01/M02 A3008 RMK AO2 SLP191 I1001 T10111017,M
RTS,2023-12-22 16:55,-119.8764,39.6682,1539.00,26.60,28.40,M,0.00,0.00,0.00,30.07,M,0.25,M,BKN,M,M,M,200.00,M,M,M,FZFG,M,M,M,M,M,M,M,KRTS 221655Z AUTO 00000KT M1/4SM FZFG BKN002 M03/M02 A3007 RMK AO2,M
BAM,2023-12-22 16:55,-116.8743,40.5990,1382.36,32.00,30.20,92.97,0.00,0.00,0.00,30.07,M,10.00,M,CLR,M,M,M,M,M,M,M,M,M,M,M,M,M,M,32.00,KBAM 221655Z AUTO 00000KT 10SM CLR 00/M01 A3007 RMK AO1,M
MEV,2023-12-22 16:55,-119.7500,38.9963,1441.42,26.60,26.60,100.00,0.00,0.00,0.00,30.08,M,0.25,M,OVC,M,M,M,200.00,M,M,M,FZFG,M,M,M,M,M,M,26.60,KMEV 221655Z AUTO 00000KT M1/4SM FZFG OVC002 M03/M03 A3008 RMK AO2,M
HTH,2023-12-22 16:55,-118.6315,38.5448,1282.89,39.20,33.80,80.79,0.00,0.00,0.00,30.08,M,10.00,M,CLR,M,M,M,M,M,M,M,M,M,M,M,M,M,M,39.20,KHTH 221655Z AUTO 00000KT 10SM CLR 04/01 A3008 RMK A01,M
TMT,2023-12-22 16:55,-117.1971,39.4643,1749.34,27.00,24.40,89.77,0.00,0.00,0.00,30.10,M,10.00,M,CLR,M,M,M,M,M,M,M,M,M,M,M,M,M,M,27.00,KTMT 221655Z AUTO 00000KT 10SM CLR M03/M04 A3010 RMK AO2 T10271042,M
EKO,2023-12-22 16:56,-115.7860,40.8242,1367.00,32.00,29.00,88.53,0.00,0.00,0.00,30.10,1021.00,10.00,M,CLR,M,M,M,M,M,M,M,M,M,M,M,M,M,M,32.00,KEKO 221656Z AUTO 00000KT 10SM CLR 00/M02 A3010 RMK AO2 SLP210 T00001017 PWINO FZRANO $,M
WMC,2023-12-22 16:56,-117.8072,40.9019,1315.00,37.00,32.00,81.93,0.00,0.00,0.00,30.05,1018.20,10.00,M,CLR,M,M,M,M,M,M,M,M,M,M,M,M,M,M,37.00,KWMC 221656Z AUTO 00000KT 10SM CLR 03/00 A3005 RMK AO2 SLP182 T00280000,M
NFL,2023-12-22 16:56,-118.7010,39.4166,1199.00,33.00,31.00,92.25,0.00,0.00,0.00,30.06,1014.80,10.00,M,FEW,SCT,M,M,200.00,10000.00,M,M,M,M,M,M,M,M,M,33.00,KNFL 221656Z 00000KT 10SM FEW002 SCT100 01/M01 A3006 RMK AO2 SLP148 T00061006,M
HND,2023-12-22 16:56,-115.1344,35.9729,742.79,54.00,38.00,54.56,160.00,8.00,0.00,30.04,1018.50,10.00,M,BKN,OVC,M,M,5500.00,10000.00,M,M,M,M,M,M,M,M,M,54.00,KHND 221656Z 16008KT 10SM BKN055 OVC100 12/03 A3004 RMK AO2 SLP185 T01220033,M
TPH,2023-12-22 16:56,-117.0904,38.0505,1654.00,38.00,34.00,85.35,350.00,4.00,0.00,30.08,1017.90,10.00,M,BKN,M,M,M,4200.00,M,M,M,M,M,M,M,M,M,M,34.43,KTPH 221656Z AUTO 35004KT 10SM BKN042 03/01 A3008 RMK AO2 SLP179 T00330011,M
LAS,2023-12-22 16:56,-115.1634,36.0719,663.00,58.00,38.00,47.20,50.00,4.00,0.00,30.00,1015.00,10.00,M,SCT,BKN,OVC,M,6500.00,9000.00,12000.00,M,M,M,M,M,M,M,M,58.00,KLAS 221656Z 05004KT 10SM SCT065 BKN090 OVC120 14/03 A3000 RMK AO2 SLP150 VCSH SE T01440033,M
LSV,2023-12-22 16:57,-115.0343,36.2362,570.00,59.00,37.40,44.47,80.00,7.00,0.00,29.98,1014.40,10.00,M,FEW,M,M,M,7000.00,M,M,M,M,M,M,M,M,M,M,59.00,KLSV 221657Z 08007KT 10SM FEW070 15/03 A2998 RMK AO2A SLP144 $,M
10U,2023-12-22 17:00,-116.1876,41.9532,1637.00,41.00,33.80,75.33,150.00,7.00,0.00,30.05,M,10.00,M,CLR,M,M,M,M,M,M,M,M,M,M,M,M,M,M,35.75,K10U 221700Z AUTO 15007KT 10SM CLR 05/01 A3005 RMK AO2,M
LOL,2023-12-22 17:00,-118.5701,40.0684,1192.43,28.00,27.00,95.97,270.00,3.00,0.00,30.07,M,10.00,M,SCT,M,M,M,100.00,M,M,M,M,M,M,M,M,M,M,24.12,KLOL 221700Z AUTO 27003KT 10SM SCT001 M02/M03 A3007 RMK AO2 T10221028,M
CXP,2023-12-22 17:10,-119.7326,39.1923,1431.00,32.00,32.00,100.00,0.00,0.00,0.00,30.09,M,0.25,M,OVC,M,M,M,200.00,M,M,M,FZFG,M,M,M,M,M,M,32.00,KCXP 221710Z AUTO 00000KT M1/4SM FZFG OVC002 M00/M00 A3009 RMK AO2,M
05U,2023-12-22 17:10,-116.0051,39.6042,1811.23,33.80,32.00,93.03,0.00,0.00,0.00,30.11,M,10.00,M,M,M,M,M,M,M,M,M,M,M,M,M,M,M,M,33.80,K05U 221710Z AUTO 00000KT 10SM 01/M00 A3011 RMK A01,M
BVU,2023-12-22 17:15,-114.8611,35.9475,671.00,48.20,41.00,76.01,330.00,8.00,0.00,30.02,M,4.00,M,SCT,BKN,OVC,M,3300.00,5000.00,6500.00,M,-RA,M,M,M,M,M,M,44.07,KBVU 221715Z AUTO 33008KT 4SM -RA SCT033 BKN050 OVC065 09/05 A3002 RMK AO2,M
RTS,2023-12-22 17:15,-119.8764,39.6682,1539.00,30.20,30.20,100.00,0.00,0.00,0.00,30.08,M,0.75,M,BKN,M,M,M,200.00,M,M,M,BR,M,M,M,M,M,M,30.20,KRTS 221715Z AUTO 00000KT 3/4SM BR BKN002 M01/M01 A3008 RMK AO2 VIS 1/4V5,M
MEV,2023-12-22 17:15,-119.7500,38.9963,1441.42,28.40,28.40,100.00,0.00,0.00,0.00,30.08,M,0.25,M,OVC,M,M,M,300.00,M,M,M,FZFG,M,M,M,M,M,M,28.40,KMEV 221715Z AUTO 00000KT M1/4SM FZFG OVC003 M02/M02 A3008 RMK AO2,M
BAM,2023-12-22 17:15,-116.8743,40.5990,1382.36,33.80,32.00,93.03,230.00,7.00,0.00,30.08,M,10.00,M,CLR,M,M,M,M,M,M,M,M,M,M,M,M,M,M,26.97,KBAM 221715Z AUTO 23007KT 10SM CLR 01/00 A3008 RMK AO1,M
HTH,2023-12-22 17:15,-118.6315,38.5448,1282.89,39.20,33.80,80.79,0.00,0.00,0.00,30.08,M,10.00,M,CLR,M,M,M,M,M,M,M,M,M,M,M,M,M,M,39.20,KHTH 221715Z AUTO 00000KT 10SM CLR 04/01 A3008 RMK A01,M
TMT,2023-12-22 17:15,-117.1971,39.4643,1749.34,30.20,26.00,84.17,0.00,0.00,0.00,30.10,M,10.00,M,CLR,M,M,M,M,M,M,M,M,M,M,M,M,M,M,30.20,KTMT 221715Z AUTO 00000KT 10SM CLR M01/M03 A3010 RMK AO2 T10101033,M
10U,2023-12-22 17:20,-116.1876,41.9532,1637.00,42.80,33.80,70.28,140.00,8.00,0.00,30.05,M,10.00,M,CLR,M,M,M,M,M,M,M,M,M,M,M,M,M,M,37.42,K10U 221720Z AUTO 14008KT 10SM CLR 06/01 A3005 RMK AO2,M
INS,2023-12-22 17:30,-115.6733,36.5872,955.00,50.00,35.60,57.52,350.00,4.00,0.00,30.02,1015.00,10.00,M,FEW,BKN,BKN,OVC,3000.00,5500.00,7000.00,9500.00,-RA,M,M,M,M,M,M,50.00,KINS 221730Z AUTO 35004KT 10SM -RA FEW030 BKN055 BKN070 OVC095 10/02 A3002 RMK AO2 RAB30 SLP150 $,M
05U,2023-12-22 17:30,-116.0051,39.6042,1811.23,37.40,33.80,86.69,0.00,0.00,0.00,30.11,M,10.00,M,M,M,M,M,M,M,M,M,M,M,M,M,M,M,M,37.40,K05U 221730Z AUTO 00000KT 10SM 03/01 A3011 RMK A01,M
BVU,2023-12-22 17:35,-114.8611,35.9475,671.00,50.00,44.60,81.61,350.00,8.00,0.00,30.02,M,8.00,M,FEW,BKN,OVC,M,3100.00,5500.00,6500.00,M,M,M,M,M,M,M,M,50.00,KBVU 221735Z AUTO 35008KT 8SM FEW031 BKN055 OVC065 10/07 A3002 RMK AO2,M
CXP,2023-12-22 17:35,-119.7326,39.1923,1431.00,32.00,32.00,100.00,0.00,0.00,0.00,30.10,M,0.25,M,OVC,M,M,M,200.00,M,M,M,FZFG,M,M,M,M,M,M,32.00,KCXP 221735Z AUTO 00000KT M1/4SM FZFG OVC002 M00/M00 A3010 RMK AO2,M
RTS,2023-12-22 17:35,-119.8764,39.6682,1539.00,32.00,32.00,100.00,0.00,0.00,0.00,30.08,M,5.00,M,FEW,M,M,M,200.00,M,M,M,BR,M,M,M,M,M,M,32.00,KRTS 221735Z AUTO 00000KT 5SM BR FEW002 00/00 A3008 RMK AO2,M
MEV,2023-12-22 17:35,-119.7500,38.9963,1441.42,28.40,28.40,100.00,0.00,0.00,0.00,30.08,M,0.25,M,OVC,M,M,M,300.00,M,M,M,FZFG,M,M,M,M,M,M,28.40,KMEV 221735Z AUTO 00000KT M1/4SM FZFG OVC003 M02/M02 A3008 RMK AO2,M
BAM,2023-12-22 17:35,-116.8743,40.5990,1382.36,35.60,32.00,86.59,230.00,5.00,0.00,30.08,M,10.00,M,CLR,M,M,M,M,M,M,M,M,M,M,M,M,M,M,30.67,KBAM 221735Z AUTO 23005KT 10SM CLR 02/00 A3008 RMK AO1,M
HTH,2023-12-22 17:35,-118.6315,38.5448,1282.89,41.00,33.80,75.33,0.00,0.00,0.00,30.08,M,10.00,M,CLR,M,M,M,M,M,M,M,M,M,M,M,M,M,M,41.00,KHTH 221735Z AUTO 00000KT 10SM CLR 05/01 A3008 RMK A01,M
TMT,2023-12-22 17:35,-117.1971,39.4643,1749.34,32.50,27.70,82.27,0.00,0.00,0.00,30.10,M,10.00,M,CLR,M,M,M,M,M,M,M,M,M,M,M,M,M,M,32.50,KTMT 221735Z AUTO 00000KT 10SM CLR 00/M02 A3010 RMK AO2 T00031024,M
10U,2023-12-22 17:40,-116.1876,41.9532,1637.00,44.60,33.80,65.61,140.00,7.00,0.00,30.05,M,10.00,M,CLR,M,M,M,M,M,M,M,M,M,M,M,M,M,M,40.14,K10U 221740Z AUTO 14007KT 10SM CLR 07/01 A3005 RMK AO2,M
INS,2023-12-22 17:45,-115.6733,36.5872,955.00,51.80,39.20,61.99,0.00,0.00,0.00,30.02,1015.00,10.00,M,SCT,SCT,OVC,M,5500.00,7000.00,10000.00,M,M,M,M,M,M,M,M,51.80,KINS 221745Z AUTO 00000KT 10SM SCT055 SCT070 OVC100 11/04 A3002 RMK AO2 RAB30E31DZB31E45 SLP150 $,M
P68,2023-12-22 17:53,-116.0056,39.6014,1993.00,40.00,33.00,75.84,0.00,0.00,0.00,30.08,1017.00,M,M,M,M,M,M,M,M,M,M,M,M,M,M,M,M,M,40.00,KP68 221753Z AUTO 00000KT 04/01 A3008 RMK AO1 SLP170 T00440006 10044 21056 58002,M
DRA,2023-12-22 17:53,-116.0278,36.6206,1009.00,M,M,M,M,M,0.00,30.00,M,M,M,M,M,M,M,M,M,M,M,M,M,M,M,M,M,M,M,KDRA 221753Z AUTO A3000 RMK AO2 SLPNO 50000 PWINO $,M
ELY,2023-12-22 17:53,-114.8453,39.2950,1909.00,39.00,31.00,72.75,M,M,0.00,30.11,1019.00,10.00,M,OVC,M,M,M,6000.00,M,M,M,M,M,M,M,M,M,M,M,KELY 221753Z AUTO 10SM OVC060 04/M01 A3011 RMK AO2 SLP190 T00391006 10039 21050 58001 $,M
VGT,2023-12-22 17:53,-115.1933,36.2111,667.00,56.00,47.00,71.70,150.00,8.00,T,30.03,1018.10,7.00,M,OVC,M,M,M,5500.00,M,M,M,-RA,M,M,M,M,M,M,56.00,KVGT 221753Z 15008KT 7SM -RA OVC055 13/08 A3003 RMK AO2 RAB42 SLP181 P0000 60000 T01330083 10139 20111 53013,M
LOL,2023-12-22 17:53,-118.5701,40.0684,1192.43,37.00,31.00,78.69,0.00,0.00,0.00,30.06,1019.70,10.00,M,CLR,M,M,M,M,M,M,M,M,M,M,T,M,M,M,37.00,KLOL 221753Z AUTO 00000KT 10SM CLR 03/M01 A3006 RMK AO2 SLP197 I6000 T00281006 10028 21089 50001,M
BVU,2023-12-22 17:55,-114.8611,35.9475,671.00,51.80,46.40,81.74,0.00,0.00,0.00,30.02,M,10.00,M,OVC,M,M,M,6000.00,M,M,M,M,M,M,M,M,M,M,51.80,KBVU 221755Z AUTO 00000KT 10SM OVC060 11/08 A3002 RMK AO2,M
CXP,2023-12-22 17:55,-119.7326,39.1923,1431.00,32.00,32.00,100.00,0.00,0.00,0.00,30.10,M,0.25,M,OVC,M,M,M,200.00,M,M,M,FG,M,M,M,M,M,M,32.00,KCXP 221755Z AUTO 00000KT M1/4SM FG OVC002 00/00 A3010 RMK AO2,M
INS,2023-12-22 17:55,-115.6733,36.5872,955.00,51.00,39.60,64.86,290.00,4.00,T,30.02,1015.00,10.00,M,SCT,BKN,M,M,6500.00,10000.00,M,M,M,M,M,M,M,M,M,51.00,KINS 221755Z AUTO 29004KT 10SM SCT065 BKN100 11/04 A3002 RMK AO2 RAB30E31DZB31E45 SLP150 P0000 60000 T01050042 10106 20041 53002 $,M
RNO,2023-12-22 17:55,-119.7711,39.4839,1341.00,32.00,31.00,96.04,0.00,0.00,0.00,30.09,1019.40,0.12,M,VV ,M,M,M,200.00,M,M,M,FG,M,M,0.01,M,M,M,32.00,KRNO 221755Z 00000KT 1/8SM R17R/1000V1200FT FG VV002 00/M01 A3009 RMK AO2 SLP194 I6001 T00001006 10000 21022 53006,M
LSV,2023-12-22 17:55,-115.0343,36.2362,570.00,59.50,37.60,44.03,180.00,8.00,T,30.00,1015.20,10.00,M,FEW,BKN,OVC,M,4800.00,6000.00,7000.00,M,M,M,M,M,M,M,M,59.50,KLSV 221755Z 18008KT 10SM FEW048 BKN060 OVC070 15/03 A3000 RMK AO2A SLP152 P0000 60000 T01530031 10155 20131 53013 $,M
RTS,2023-12-22 17:55,-119.8764,39.6682,1539.00,35.60,35.60,100.00,0.00,0.00,0.00,30.08,M,10.00,M,CLR,M,M,M,M,M,M,M,M,M,M,M,M,M,M,35.60,KRTS 221755Z AUTO 00000KT 10SM CLR 02/02 A3008 RMK AO2,M
05U,2023-12-22 17:55,-116.0051,39.6042,1811.23,41.00,33.80,75.33,0.00,0.00,0.00,30.10,M,10.00,M,M,M,M,M,M,M,M,M,M,M,M,M,M,M,M,41.00,K05U 221755Z AUTO 00000KT 10SM 05/01 A3010 RMK A01,M
MEV,2023-12-22 17:55,-119.7500,38.9963,1441.42,28.40,28.40,100.00,0.00,0.00,0.00,30.08,M,0.25,M,OVC,M,M,M,200.00,M,M,M,FZFG,M,M,M,M,M,M,28.40,KMEV 221755Z AUTO 00000KT M1/4SM FZFG OVC002 M02/M02 A3008 RMK AO2,M
BAM,2023-12-22 17:55,-116.8743,40.5990,1382.36,41.00,33.80,75.33,230.00,4.00,0.00,30.08,M,10.00,M,CLR,M,M,M,M,M,M,M,M,M,M,M,M,M,M,37.93,KBAM 221755Z AUTO 23004KT 10SM CLR 05/01 A3008 RMK AO1,M
HTH,2023-12-22 17:55,-118.6315,38.5448,1282.89,42.80,33.80,70.28,0.00,0.00,0.00,30.08,M,10.00,M,CLR,M,M,M,M,M,M,M,M,M,M,M,M,M,M,42.80,KHTH 221755Z AUTO 00000KT 10SM CLR 06/01 A3008 RMK A01,M
TMT,2023-12-22 17:55,-117.1971,39.4643,1749.34,34.00,29.00,81.71,0.00,0.00,0.00,30.09,M,10.00,M,CLR,M,M,M,M,M,M,M,M,M,M,M,M,M,M,34.00,KTMT 221755Z AUTO 00000KT 10SM CLR 01/M02 A3009 RMK AO2 T00111017 10011 21078,M
EKO,2023-12-22 17:56,-115.7860,40.8242,1367.00,37.00,30.00,75.56,110.00,3.00,0.00,30.09,1020.20,10.00,M,CLR,M,M,M,M,M,M,M,M,M,M,M,M,M,M,34.40,KEKO 221756Z AUTO 11003KT 10SM CLR 03/M01 A3009 RMK AO2 SLP202 T00281011 10028 21033 58002 PWINO $,M
WMC,2023-12-22 17:56,-117.8072,40.9019,1315.00,43.00,33.00,67.54,40.00,4.00,0.00,30.05,1018.00,10.00,M,CLR,M,M,M,M,M,M,M,M,M,M,T,M,M,M,40.27,KWMC 221756Z AUTO 04004KT 10SM CLR 06/01 A3005 RMK AO2 SLP180 I6000 T00610006 10061 21050 53002,M
NFL,2023-12-22 17:56,-118.7010,39.4166,1199.00,42.00,34.00,73.06,0.00,0.00,0.00,30.06,1014.70,10.00,M,FEW,SCT,M,M,200.00,10000.00,M,M,M,M,M,M,M,M,M,42.00,KNFL 221756Z 00000KT 10SM FEW002 SCT100 06/01 A3006 RMK AO2 SLP147 T00560011 10056 21061 50003,M
HND,2023-12-22 17:56,-115.1344,35.9729,742.79,51.00,47.00,86.12,180.00,3.00,0.02,30.04,1018.80,5.00,M,OVC,M,M,M,6000.00,M,M,M,-RA BR,M,M,M,M,M,M,51.00,KHND 221756Z 18003KT 5SM -RA BR OVC060 11/08 A3004 RMK AO2 RAB02 SLP188 P0002 60002 T01060083 10122 20089 51010,M
TPH,2023-12-22 17:56,-117.0904,38.0505,1654.00,44.00,36.00,73.27,10.00,4.00,0.00,30.08,1017.50,10.00,M,CLR,M,M,M,M,M,M,M,M,M,M,M,M,M,M,41.43,KTPH 221756Z AUTO 01004KT 10SM CLR 07/02 A3008 RMK AO2 SLP175 60000 T00670022 10067 20017 55000,M
LAS,2023-12-22 17:56,-115.1634,36.0719,663.00,55.00,44.00,66.36,60.00,4.00,0.01,30.03,1016.00,10.00,M,FEW,BKN,OVC,M,4000.00,6000.00,10000.00,M,M,M,M,M,M,M,M,55.00,KLAS 221756Z 06004KT 10SM FEW040 BKN060 OVC100 13/07 A3003 RMK AO2 RAB01E55 SLP160 P0001 60001 T01280067 10150 20128 53012,M
10U,2023-12-22 18:00,-116.1876,41.9532,1637.00,44.60,32.00,61.03,150.00,6.00,0.00,30.05,M,10.00,M,CLR,M,M,M,M,M,M,M,M,M,M,M,M,M,M,40.71,K10U 221800Z AUTO 15006KT 10SM CLR 07/00 A3005 RMK AO2,M
LSV,2023-12-22 18:03,-115.0343,36.2362,570.00,55.40,42.80,62.46,220.00,8.00,0.00,30.01,1015.50,10.00,M,OVC,M,M,M,6000.00,M,M,M,-RA,M,M,M,M,M,M,55.40,KLSV 221803Z 22008KT 10SM -RA OVC060 13/06 A3001 RMK AO2A RAB03 SLP155 $,M
05U,2023-12-22 18:10,-116.0051,39.6042,1811.23,41.00,33.80,75.33,0.00,0.00,0.00,30.10,M,10.00,M,M,M,M,M,M,M,M,M,M,M,M,M,M,M,M,41.00,K05U 221810Z AUTO 00000KT 10SM 05/01 A3010 RMK A01,M
BVU,2023-12-22 18:15,-114.8611,35.9475,671.00,51.80,46.40,81.74,0.00,0.00,0.00,30.01,M,6.00,M,FEW,FEW,OVC,M,2900.00,4100.00,6000.00,M,-RA,M,M,M,M,M,M,51.80,KBVU 221815Z AUTO 00000KT 6SM -RA FEW029 FEW041 OVC060 11/08 A3001 RMK AO2,M
CXP,2023-12-22 18:15,-119.7326,39.1923,1431.00,32.00,32.00,100.00,0.00,0.00,0.00,30.09,M,0.25,M,OVC,M,M,M,200.00,M,M,M,FG,M,M,M,M,M,M,32.00,KCXP 221815Z AUTO 00000KT M1/4SM FG OVC002 00/00 A3009 RMK AO2,M
RTS,2023-12-22 18:15,-119.8764,39.6682,1539.00,35.60,35.60,100.00,0.00,0.00,0.00,30.08,M,10.00,M,CLR,M,M,M,M,M,M,M,M,M,M,M,M,M,M,35.60,KRTS 221815Z AUTO 00000KT 10SM CLR 02/02 A3008 RMK AO2,M
MEV,2023-12-22 18:15,-119.7500,38.9963,1441.42,28.40,28.40,100.00,0.00,0.00,0.00,30.08,M,0.25,M,OVC,M,M,M,200.00,M,M,M,FZFG,M,M,M,M,M,M,28.40,KMEV 221815Z AUTO 00000KT M1/4SM FZFG OVC002 M02/M02 A3008 RMK AO2,M
BAM,2023-12-22 18:15,-116.8743,40.5990,1382.36,41.00,33.80,75.33,0.00,0.00,0.00,30.08,M,10.00,M,CLR,M,M,M,M,M,M,M,M,M,M,M,M,M,M,41.00,KBAM 221815Z AUTO 00000KT 10SM CLR 05/01 A3008 RMK AO1,M
HTH,2023-12-22 18:15,-118.6315,38.5448,1282.89,42.80,33.80,70.28,0.00,0.00,0.00,30.07,M,10.00,M,CLR,M,M,M,M,M,M,M,M,M,M,M,M,M,M,42.80,KHTH 221815Z AUTO 00000KT 10SM CLR 06/01 A3007 RMK A01,M
TMT,2023-12-22 18:15,-117.1971,39.4643,1749.34,37.00,30.20,76.17,0.00,0.00,0.00,30.09,M,10.00,M,CLR,M,M,M,M,M,M,M,M,M,M,M,M,M,M,37.00,KTMT 221815Z AUTO 00000KT 10SM CLR 03/M01 A3009 RMK AO2 T00271010,M
LSV,2023-12-22 18:16,-115.0343,36.2362,570.00,55.40,44.60,66.91,230.00,4.00,0.00,30.00,1015.20,10.00,M,OVC,M,M,M,6000.00,M,M,M,M,M,M,M,M,M,M,55.40,KLSV 221816Z 23004KT 10SM OVC060 13/07 A3000 RMK AO2A RAB03E16 SLP152 $,M
10U,2023-12-22 18:20,-116.1876,41.9532,1637.00,46.40,33.80,61.28,0.00,0.00,0.00,30.05,M,10.00,M,CLR,M,M,M,M,M,M,M,M,M,M,M,M,M,M,46.40,K10U 221820Z AUTO 00000KT 10SM CLR 08/01 A3005 RMK AO2,M
RNO,2023-12-22 18:22,-119.7711,39.4839,1341.00,33.00,33.00,100.00,70.00,4.00,0.00,30.08,M,0.12,M,BKN,M,M,M,200.00,M,M,M,FG,M,M,M,M,M,M,28.59,KRNO 221822Z 07004KT 1/8SM R17R/1400V2600FT FG BKN002 01/01 A3008 RMK AO2 SFC VIS 1/4 T00060006,M
LSV,2023-12-22 18:26,-115.0343,36.2362,570.00,53.60,44.60,71.45,230.00,4.00,0.00,29.99,1015.00,10.00,M,SCT,OVC,M,M,4500.00,6000.00,M,M,-RA,M,M,M,M,M,M,53.60,KLSV 221826Z 23004KT 10SM -RA SCT045 OVC060 12/07 A2999 RMK AO2A RAB03E16RAB26 SLP150 $,M
BVU,2023-12-22 18:35,-114.8611,35.9475,671.00,53.60,48.20,81.87,30.00,5.00,0.00,30.00,M,10.00,M,SCT,BKN,OVC,M,6000.00,7000.00,8000.00,M,M,M,M,M,M,M,M,53.60,KBVU 221835Z AUTO 03005KT 10SM SCT060 BKN070 OVC080 12/09 A3000 RMK AO2,M
CXP,2023-12-22 18:35,-119.7326,39.1923,1431.00,33.80,33.80,100.00,0.00,0.00,0.00,30.08,M,0.25,M,OVC,M,M,M,200.00,M,M,M,FG,M,M,M,M,M,M,33.80,KCXP 221835Z AUTO 00000KT M1/4SM FG OVC002 01/01 A3008 RMK AO2,M
RTS,2023-12-22 18:35,-119.8764,39.6682,1539.00,35.60,37.40,M,0.00,0.00,0.00,30.07,M,10.00,M,CLR,M,M,M,M,M,M,M,M,M,M,M,M,M,M,M,KRTS 221835Z AUTO 00000KT 10SM CLR 02/03 A3007 RMK AO2,M
05U,2023-12-22 18:35,-116.0051,39.6042,1811.23,42.80,33.80,70.28,0.00,0.00,0.00,30.09,M,10.00,M,M,M,M,M,M,M,M,M,M,M,M,M,M,M,M,42.80,K05U 221835Z AUTO 00000KT 10SM 06/01 A3009 RMK A01,M
MEV,2023-12-22 18:35,-119.7500,38.9963,1441.42,30.20,30.20,100.00,0.00,0.00,0.00,30.08,M,0.25,M,OVC,M,M,M,300.00,M,M,M,FZFG,M,M,M,M,M,M,30.20,KMEV 221835Z AUTO 00000KT M1/4SM FZFG OVC003 M01/M01 A3008 RMK AO2,M
BAM,2023-12-22 18:35,-116.8743,40.5990,1382.36,42.80,33.80,70.28,0.00,0.00,0.00,30.07,M,10.00,M,CLR,M,M,M,M,M,M,M,M,M,M,M,M,M,M,42.80,KBAM 221835Z AUTO 00000KT 10SM CLR 06/01 A3007 RMK AO1,M
HTH,2023-12-22 18:35,-118.6315,38.5448,1282.89,44.60,33.80,65.61,0.00,0.00,0.00,30.06,M,10.00,M,CLR,M,M,M,M,M,M,M,M,M,M,M,M,M,M,44.60,KHTH 221835Z AUTO 00000KT 10SM CLR 07/01 A3006 RMK A01,M
TMT,2023-12-22 18:35,-117.1971,39.4643,1749.34,39.70,30.70,69.93,0.00,0.00,0.00,30.08,M,10.00,M,CLR,M,M,M,M,M,M,M,M,M,M,M,M,M,M,39.70,KTMT 221835Z AUTO 00000KT 10SM CLR 04/M01 A3008 RMK AO2 T00431007,M
LSV,2023-12-22 18:39,-115.0343,36.2362,570.00,55.40,44.60,66.91,310.00,5.00,0.00,29.99,1014.80,10.00,M,FEW,OVC,M,M,4400.00,6000.00,M,M,M,M,M,M,M,M,M,55.40,KLSV 221839Z 31005KT 10SM FEW044 OVC060 13/07 A2999 RMK AO2A RAB03E16RAB26E37DZB37E39 SLP148 $,M
10U,2023-12-22 18:40,-116.1876,41.9532,1637.00,48.20,33.80,57.26,M,5.00,0.00,30.04,M,10.00,M,CLR,M,M,M,M,M,M,M,M,M,M,M,M,M,M,45.63,K10U 221840Z AUTO VRB05KT 10SM CLR 09/01 A3004 RMK AO2,M
05U,2023-12-22 18:50,-116.0051,39.6042,1811.23,42.80,33.80,70.28,M,3.00,0.00,30.08,M,10.00,M,M,M,M,M,M,M,M,M,M,M,M,M,M,M,M,41.03,K05U 221850Z AUTO VRB03KT 10SM 06/01 A3008 RMK A01,M
P68,2023-12-22 18:53,-116.0056,39.6014,1993.00,44.00,34.00,67.66,M,3.00,0.00,30.05,1016.10,M,M,M,M,M,M,M,M,M,M,M,M,M,M,M,M,M,42.41,KP68 221853Z AUTO VRB03KT 07/01 A3005 RMK AO1 SLP161 T00670011,M
DRA,2023-12-22 18:53,-116.0278,36.6206,1009.00,M,M,M,M,M,0.00,29.98,M,M,M,M,M,M,M,M,M,M,M,M,M,M,M,M,M,M,M,KDRA 221853Z AUTO A2998 RMK AO2 SLPNO PWINO $,M
ELY,2023-12-22 18:53,-114.8453,39.2950,1909.00,47.00,33.00,58.01,M,M,0.00,30.06,1016.30,10.00,M,BKN,M,M,M,7000.00,M,M,M,M,M,M,M,M,M,M,M,KELY 221853Z AUTO 10SM BKN070 08/01 A3006 RMK AO2 SLP163 T00830006 $,M
VGT,2023-12-22 18:53,-115.1933,36.2111,667.00,54.00,48.00,80.07,290.00,5.00,0.04,30.01,1017.50,8.00,M,BKN,OVC,M,M,4600.00,6000.00,M,M,-RA,M,M,M,M,M,M,54.00,KVGT 221853Z 29005KT 8SM -RA BKN046 OVC060 12/09 A3001 RMK AO2 SLP175 P0004 T01220089,M
LOL,2023-12-22 18:53,-118.5701,40.0684,1192.43,43.00,33.00,67.54,0.00,0.00,0.00,30.04,1018.50,10.00,M,CLR,M,M,M,M,M,M,M,M,M,M,M,M,M,M,43.00,KLOL 221853Z AUTO 00000KT 10SM CLR 06/01 A3004 RMK AO2 SLP185 T00610006,M
BVU,2023-12-22 18:55,-114.8611,35.9475,671.00,53.60,48.20,81.87,M,M,0.00,30.00,M,10.00,M,FEW,BKN,OVC,M,4500.00,6500.00,8000.00,M,M,M,M,M,M,M,M,53.60,KBVU 221855Z AUTO 10SM FEW045 BKN065 OVC080 12/09 A3000 RMK AO2,M
CXP,2023-12-22 18:55,-119.7326,39.1923,1431.00,33.80,33.80,100.00,0.00,0.00,0.00,30.07,M,0.25,M,OVC,M,M,M,200.00,M,M,M,FG,M,M,M,M,M,M,33.80,KCXP 221855Z AUTO 00000KT M1/4SM FG OVC002 01/01 A3007 RMK AO2,M
INS,2023-12-22 18:55,-115.6733,36.5872,955.00,50.40,35.80,57.12,30.00,4.00,0.00,30.00,1014.50,10.00,M,FEW,BKN,OVC,M,5000.00,7500.00,10000.00,M,M,M,M,M,M,M,M,50.40,KINS 221855Z AUTO 03004KT 10SM FEW050 BKN075 OVC100 10/02 A3000 RMK AO2 SLP145 T01020021 $,M
RNO,2023-12-22 18:55,-119.7711,39.4839,1341.00,35.00,34.00,96.09,90.00,4.00,0.00,30.05,1018.10,0.12,M,BKN,M,M,M,200.00,M,M,M,FG,M,M,M,M,M,M,30.92,KRNO 221855Z 09004KT 1/8SM R17R/3500VP6000FT FG BKN002 02/01 A3005 RMK AO2 SFC VIS 1/2 SLP181 T00170011,M
RTS,2023-12-22 18:55,-119.8764,39.6682,1539.00,39.20,35.60,86.79,0.00,0.00,0.00,30.06,M,10.00,M,CLR,M,M,M,M,M,M,M,M,M,M,M,M,M,M,39.20,KRTS 221855Z AUTO 00000KT 10SM CLR 04/02 A3006 RMK AO2,M
MEV,2023-12-22 18:55,-119.7500,38.9963,1441.42,30.20,30.20,100.00,0.00,0.00,0.00,30.07,M,0.25,M,OVC,M,M,M,300.00,M,M,M,FZFG,M,M,M,M,M,M,30.20,KMEV 221855Z AUTO 00000KT M1/4SM FZFG OVC003 M01/M01 A3007 RMK AO2,M
BAM,2023-12-22 18:55,-116.8743,40.5990,1382.36,44.60,33.80,65.61,0.00,0.00,0.00,30.06,M,10.00,M,CLR,M,M,M,M,M,M,M,M,M,M,M,M,M,M,44.60,KBAM 221855Z AUTO 00000KT 10SM CLR 07/01 A3006 RMK AO1,M
HTH,2023-12-22 18:55,-118.6315,38.5448,1282.89,44.60,33.80,65.61,0.00,0.00,0.00,30.05,M,10.00,M,CLR,M,M,M,M,M,M,M,M,M,M,M,M,M,M,44.60,KHTH 221855Z AUTO 00000KT 10SM CLR 07/01 A3005 RMK A01,M
TMT,2023-12-22 18:55,-117.1971,39.4643,1749.34,42.00,31.00,64.75,220.00,3.00,0.00,30.06,M,10.00,M,CLR,M,M,M,M,M,M,M,M,M,M,M,M,M,M,40.12,KTMT 221855Z AUTO 22003KT 10SM CLR 06/M01 A3006 RMK AO2 T00561006,M
LSV,2023-12-22 18:55,-115.0343,36.2362,570.00,55.20,46.40,72.16,310.00,7.00,T,29.98,1014.50,10.00,M,OVC,M,M,M,6000.00,M,M,M,M,M,M,M,M,M,M,55.20,KLSV 221855Z 31007KT 10SM OVC060 13/08 A2998 RMK AO2A RAB03E16RAB26E37DZB37E39 SLP145 P0000 T01290080 $,M
EKO,2023-12-22 18:56,-115.7860,40.8242,1367.00,41.00,32.00,70.08,0.00,0.00,0.00,30.06,1018.60,10.00,M,CLR,M,M,M,M,M,M,M,M,M,M,M,M,M,M,41.00,KEKO 221856Z AUTO 00000KT 10SM CLR 05/00 A3006 RMK AO2 SLP186 T00500000 PWINO $,M
WMC,2023-12-22 18:56,-117.8072,40.9019,1315.00,49.00,34.00,56.02,0.00,0.00,0.00,30.01,1016.20,10.00,M,CLR,M,M,M,M,M,M,M,M,M,M,M,M,M,M,49.00,KWMC 221856Z AUTO 00000KT 10SM CLR 09/01 A3001 RMK AO2 SLP162 T00940011,M
HND,2023-12-22 18:56,-115.1344,35.9729,742.79,53.00,46.00,77.03,310.00,4.00,0.01,30.03,1018.10,10.00,M,OVC,M,M,M,5000.00,M,M,M,M,M,M,M,M,M,M,53.00,KHND 221856Z 31004KT 10SM OVC050 12/08 A3003 RMK AO2 RAE07 SLP181 P0001 T01170078,M
TPH,2023-12-22 18:56,-117.0904,38.0505,1654.00,47.00,36.00,65.38,350.00,4.00,0.00,30.05,1016.40,10.00,M,CLR,M,M,M,M,M,M,M,M,M,M,M,M,M,M,44.94,KTPH 221856Z AUTO 35004KT 10SM CLR 08/02 A3005 RMK AO2 SLP164 T00830022,M
LAS,2023-12-22 18:56,-115.1634,36.0719,663.00,55.00,46.00,71.60,300.00,6.00,0.02,30.01,1015.50,10.00,M,BKN,BKN,OVC,M,4600.00,6000.00,10000.00,M,M,M,M,M,M,M,M,55.00,KLAS 221856Z 30006KT 10SM BKN046 BKN060 OVC100 13/08 A3001 RMK AO2 RAB1757E38 SLP155 P0002 T01280078,M
NFL,2023-12-22 18:56,-118.7010,39.4166,1199.00,47.00,35.00,62.84,240.00,5.00,0.00,30.03,1014.00,10.00,M,FEW,SCT,M,M,5000.00,20000.00,M,M,M,M,M,M,M,M,M,44.21,KNFL 221856Z 24005KT 10SM FEW050 SCT200 08/02 A3003 RMK AO2 SLP140 T00830017,M
10U,2023-12-22 19:00,-116.1876,41.9532,1637.00,48.20,33.80,57.26,170.00,4.00,0.00,30.03,M,10.00,M,CLR,M,M,M,M,M,M,M,M,M,M,M,M,M,M,46.34,K10U 221900Z AUTO 17004KT 10SM CLR 09/01 A3003 RMK AO2,M
05U,2023-12-22 19:10,-116.0051,39.6042,1811.23,44.60,33.80,65.61,130.00,3.00,0.00,30.07,M,10.00,M,M,M,M,M,M,M,M,M,M,M,M,M,M,M,M,43.09,K05U 221910Z AUTO 13003KT 10SM 07/01 A3007 RMK A01,M
BVU,2023-12-22 19:15,-114.8611,35.9475,671.00,55.40,46.40,71.64,30.00,5.00,0.00,29.98,M,10.00,M,FEW,OVC,M,M,4500.00,6500.00,M,M,M,M,M,M,M,M,M,55.40,KBVU 221915Z AUTO 03005KT 10SM FEW045 OVC065 13/08 A2998 RMK AO2,M
CXP,2023-12-22 19:15,-119.7326,39.1923,1431.00,33.80,33.80,100.00,0.00,0.00,0.00,30.06,M,0.25,M,OVC,M,M,M,200.00,M,M,M,FG,M,M,M,M,M,M,33.80,KCXP 221915Z AUTO 00000KT 1/4SM FG OVC002 01/01 A3006 RMK AO2,M
RTS,2023-12-22 19:15,-119.8764,39.6682,1539.00,41.00,33.80,75.33,0.00,0.00,0.00,30.04,M,10.00,M,CLR,M,M,M,M,M,M,M,M,M,M,M,M,M,M,41.00,KRTS 221915Z AUTO 00000KT 10SM CLR 05/01 A3004 RMK AO2,M
MEV,2023-12-22 19:15,-119.7500,38.9963,1441.42,30.20,30.20,100.00,0.00,0.00,0.00,30.06,M,0.25,M,OVC,M,M,M,200.00,M,M,M,FZFG,M,M,M,M,M,M,30.20,KMEV 221915Z AUTO 00000KT M1/4SM FZFG OVC002 M01/M01 A3006 RMK AO2,M
BAM,2023-12-22 19:15,-116.8743,40.5990,1382.36,46.40,35.60,65.83,100.00,3.00,0.00,30.04,M,10.00,M,CLR,M,M,M,M,M,M,M,M,M,M,M,M,M,M,45.15,KBAM 221915Z AUTO 10003KT 10SM CLR 08/02 A3004 RMK AO1,M
HTH,2023-12-22 19:15,-118.6315,38.5448,1282.89,46.40,35.60,65.83,340.00,4.00,0.00,30.03,M,10.00,M,CLR,M,M,M,M,M,M,M,M,M,M,M,M,M,M,44.24,KHTH 221915Z AUTO 34004KT 10SM CLR 08/02 A3003 RMK A01,M
TMT,2023-12-22 19:15,-117.1971,39.4643,1749.34,44.80,31.00,58.17,220.00,3.00,0.00,30.05,M,10.00,M,CLR,M,M,M,M,M,M,M,M,M,M,M,M,M,M,43.32,KTMT 221915Z AUTO 22003KT 10SM CLR 07/M01 A3005 RMK AO2 T00711006,M
INS,2023-12-22 19:18,-115.6733,36.5872,955.00,50.00,35.60,57.52,0.00,0.00,0.00,29.99,1014.10,10.00,M,OVC,M,M,M,4800.00,M,M,M,-DZ,M,M,M,M,M,M,50.00,KINS 221918Z AUTO 00000KT 10SM -DZ OVC048 10/02 A2999 RMK AO2 DZB18 SLP141 $,M
10U,2023-12-22 19:20,-116.1876,41.9532,1637.00,50.00,33.80,53.54,M,5.00,0.00,30.02,M,10.00,M,CLR,M,M,M,M,M,M,M,M,M,M,M,M,M,M,50.00,K10U 221920Z AUTO VRB05KT 10SM CLR 10/01 A3002 RMK AO2,M
RNO,2023-12-22 19:22,-119.7711,39.4839,1341.00,38.00,34.00,85.35,0.00,0.00,0.00,30.04,M,10.00,M,FEW,FEW,M,M,200.00,25000.00,M,M,M,M,M,M,M,M,M,38.00,KRNO 221922Z 00000KT 10SM FEW002 FEW250 03/01 A3004 RMK AO2 HZ ALQDS T00330011,M
LSV,2023-12-22 19:25,-115.0343,36.2362,570.00,55.40,46.40,71.64,290.00,3.00,0.00,29.97,1014.00,10.00,M,OVC,M,M,M,5500.00,M,M,M,-RA,M,M,M,M,M,M,55.40,KLSV 221925Z 29003KT 10SM -RA OVC055 13/08 A2997 RMK AO2A RAB25 SLP140 $,M
INS,2023-12-22 19:30,-115.6733,36.5872,955.00,51.80,37.40,57.77,80.00,3.00,0.00,29.99,1013.90,10.00,M,OVC,M,M,M,4600.00,M,M,M,M,M,M,M,M,M,M,51.80,KINS 221930Z AUTO 08003KT 10SM OVC046 11/03 A2999 RMK AO2 DZB18E30 SLP139 $,M
05U,2023-12-22 19:30,-116.0051,39.6042,1811.23,46.40,33.80,61.28,0.00,0.00,0.00,30.06,M,10.00,M,M,M,M,M,M,M,M,M,M,M,M,M,M,M,M,46.40,K05U 221930Z AUTO 00000KT 10SM 08/01 A3006 RMK A01,M
BVU,2023-12-22 19:35,-114.8611,35.9475,671.00,55.40,46.40,71.64,220.00,3.00,0.00,29.98,M,10.00,M,SCT,OVC,M,M,4300.00,7000.00,M,M,M,M,M,M,M,M,M,55.40,KBVU 221935Z AUTO 22003KT 10SM SCT043 OVC070 13/08 A2998 RMK AO2,M
CXP,2023-12-22 19:35,-119.7326,39.1923,1431.00,35.60,35.60,100.00,0.00,0.00,0.00,30.05,M,1.00,M,OVC,M,M,M,200.00,M,M,M,BR,M,M,M,M,M,M,35.60,KCXP 221935Z AUTO 00000KT 1SM BR OVC002 02/02 A3005 RMK AO2 VIS 3/4V4,M
RTS,2023-12-22 19:35,-119.8764,39.6682,1539.00,42.80,33.80,70.28,0.00,0.00,0.00,30.03,M,10.00,M,CLR,M,M,M,M,M,M,M,M,M,M,M,M,M,M,42.80,KRTS 221935Z AUTO 00000KT 10SM CLR 06/01 A3003 RMK AO2,M
MEV,2023-12-22 19:35,-119.7500,38.9963,1441.42,32.00,32.00,100.00,0.00,0.00,0.00,30.04,M,0.25,M,OVC,M,M,M,300.00,M,M,M,FG,M,M,M,M,M,M,32.00,KMEV 221935Z AUTO 00000KT M1/4SM FG OVC003 00/00 A3004 RMK AO2,M
BAM,2023-12-22 19:35,-116.8743,40.5990,1382.36,46.40,35.60,65.83,0.00,0.00,0.00,30.03,M,10.00,M,CLR,M,M,M,M,M,M,M,M,M,M,M,M,M,M,46.40,KBAM 221935Z AUTO 00000KT 10SM CLR 08/02 A3003 RMK AO1,M
HTH,2023-12-22 19:35,-118.6315,38.5448,1282.89,46.40,35.60,65.83,310.00,7.00,0.00,30.02,M,10.00,M,CLR,M,M,M,M,M,M,M,M,M,M,M,M,M,M,42.33,KHTH 221935Z AUTO 31007KT 10SM CLR 08/02 A3002 RMK A01,M
TMT,2023-12-22 19:35,-117.1971,39.4643,1749.34,46.40,31.00,54.75,0.00,0.00,0.00,30.03,M,10.00,M,CLR,M,M,M,M,M,M,M,M,M,M,M,M,M,M,46.40,KTMT 221935Z AUTO 00000KT 10SM CLR 08/00 A3003 RMK AO2 T00801005,M
10U,2023-12-22 19:40,-116.1876,41.9532,1637.00,50.00,33.80,53.54,190.00,9.00,0.00,30.00,M,10.00,M,CLR,M,M,M,M,M,M,M,M,M,M,M,M,M,M,50.00,K10U 221940Z AUTO 19009KT 10SM CLR 10/01 A3000 RMK AO2,M
INS,2023-12-22 19:40,-115.6733,36.5872,955.00,51.80,41.00,66.48,100.00,9.00,0.00,29.99,1014.10,10.00,M,OVC,M,M,M,4500.00,M,M,M,-RA,M,M,M,M,M,M,51.80,KINS 221940Z AUTO 10009KT 10SM -RA OVC045 11/05 A2999 RMK AO2 DZB18E30RAB40 SLP141 $,M
05U,2023-12-22 19:50,-116.0051,39.6042,1811.23,48.20,33.80,57.26,0.00,0.00,0.00,30.04,M,10.00,M,M,M,M,M,M,M,M,M,M,M,M,M,M,M,M,48.20,K05U 221950Z AUTO 00000KT 10SM 09/01 A3004 RMK A01,M
P68,2023-12-22 19:53,-116.0056,39.6014,1993.00,49.00,34.00,56.02,0.00,0.00,0.00,30.01,1014.20,M,M,M,M,M,M,M,M,M,M,M,M,M,M,M,M,M,49.00,KP68 221953Z AUTO 00000KT 09/01 A3001 RMK AO1 SLP142 T00940011,M
DRA,2023-12-22 19:53,-116.0278,36.6206,1009.00,M,M,M,M,M,0.00,29.96,M,M,M,M,M,M,M,M,M,M,M,M,M,M,M,M,M,M,M,KDRA 221953Z AUTO A2996 RMK AO2 SLPNO PWINO $,M
ELY,2023-12-22 19:53,-114.8453,39.2950,1909.00,50.00,32.00,49.81,M,M,0.00,30.02,1014.60,10.00,M,CLR,M,M,M,M,M,M,M,M,M,M,M,M,M,M,50.00,KELY 221953Z AUTO 10SM CLR 10/00 A3002 RMK AO2 SLP146 T01000000,M
VGT,2023-12-22 19:53,-115.1933,36.2111,667.00,54.00,49.00,83.13,320.00,6.00,0.02,29.98,1016.40,9.00,M,BKN,OVC,M,M,4500.00,6000.00,M,M,-RA,M,M,M,M,M,M,54.00,KVGT 221953Z 32006KT 9SM -RA BKN045 OVC060 12/09 A2998 RMK AO2 SLP164 P0002 T01220094,M
LOL,2023-12-22 19:53,-118.5701,40.0684,1192.43,49.00,34.00,56.02,180.00,6.00,0.00,29.99,1016.90,10.00,M,CLR,M,M,M,M,M,M,M,M,M,M,M,M,M,M,46.00,KLOL 221953Z AUTO 18006KT 10SM CLR 09/01 A2999 RMK AO2 SLP169 T00940011,M
BVU,2023-12-22 19:55,-114.8611,35.9475,671.00,55.40,48.20,76.66,10.00,4.00,0.00,29.95,M,10.00,M,FEW,SCT,SCT,M,4300.00,5500.00,7000.00,M,M,M,M,M,M,M,M,55.40,KBVU 221955Z AUTO 01004KT 10SM FEW043 SCT055 SCT070 13/09 A2995 RMK AO2,M
CXP,2023-12-22 19:55,-119.7326,39.1923,1431.00,35.60,37.40,M,0.00,0.00,0.00,30.04,M,6.00,M,BKN,M,M,M,300.00,M,M,M,BR,M,M,M,M,M,M,M,KCXP 221955Z AUTO 00000KT 6SM BR BKN003 02/03 A3004 RMK AO2,M
INS,2023-12-22 19:55,-115.6733,36.5872,955.00,53.00,44.40,72.49,130.00,12.00,T,29.98,1013.60,10.00,M,BKN,OVC,M,M,4700.00,7000.00,M,M,-RA,M,M,M,M,M,M,53.00,KINS 221955Z AUTO 13012KT 10SM -RA BKN047 OVC070 12/07 A2998 RMK AO2 DZB18E30RAB40 SLP136 P0000 T01160069 $,M
RNO,2023-12-22 19:55,-119.7711,39.4839,1341.00,43.00,36.00,76.12,80.00,4.00,0.00,30.01,1016.10,10.00,M,FEW,FEW,M,M,10000.00,23000.00,M,M,M,M,M,M,M,M,M,40.27,KRNO 221955Z 08004KT 10SM FEW100 FEW230 06/02 A3001 RMK AO2 SLP161 HZ ALQDS T00610022 $,M
LSV,2023-12-22 19:55,-115.0343,36.2362,570.00,54.00,47.50,78.58,280.00,3.00,0.03,29.96,1013.80,5.00,M,FEW,M,M,M,5500.00,M,M,M,-RA,M,M,M,M,M,M,54.00,KLSV 221955Z 28003KT 5SM -RA FEW055 12/09 A2996 RMK AO2A RAB25 SLP138 P0003 T01230086 $,M
RTS,2023-12-22 19:55,-119.8764,39.6682,1539.00,44.60,35.60,70.48,0.00,0.00,0.00,30.02,M,10.00,M,CLR,M,M,M,M,M,M,M,M,M,M,M,M,M,M,44.60,KRTS 221955Z AUTO 00000KT 10SM CLR 07/02 A3002 RMK AO2,M
MEV,2023-12-22 19:55,-119.7500,38.9963,1441.42,33.80,33.80,100.00,0.00,0.00,0.00,30.02,M,0.25,M,OVC,M,M,M,300.00,M,M,M,UP FG,M,M,M,M,M,M,33.80,KMEV 221955Z AUTO 00000KT M1/4SM UP FG OVC003 01/01 A3002 RMK AO2,M
BAM,2023-12-22 19:55,-116.8743,40.5990,1382.36,50.00,35.60,57.52,0.00,0.00,0.00,30.01,M,10.00,M,CLR,M,M,M,M,M,M,M,M,M,M,M,M,M,M,50.00,KBAM 221955Z AUTO 00000KT 10SM CLR 10/02 A3001 RMK AO1,M
HTH,2023-12-22 19:55,-118.6315,38.5448,1282.89,48.20,35.60,61.52,330.00,6.00,0.00,30.00,M,10.00,M,CLR,M,M,M,M,M,M,M,M,M,M,M,M,M,M,45.04,KHTH 221955Z AUTO 33006KT 10SM CLR 09/02 A3000 RMK A01,M
TMT,2023-12-22 19:55,-117.1971,39.4643,1749.34,47.00,30.70,52.87,0.00,0.00,0.00,30.02,M,10.00,M,CLR,M,M,M,M,M,M,M,M,M,M,M,M,M,M,47.00,KTMT 221955Z AUTO 00000KT 10SM CLR 08/M01 A3002 RMK AO2 T00841007,M
EKO,2023-12-22 19:56,-115.7860,40.8242,1367.00,44.00,33.00,65.01,0.00,0.00,0.00,30.01,1017.00,10.00,M,CLR,M,M,M,M,M,M,M,M,M,M,M,M,M,M,44.00,KEKO 221956Z AUTO 00000KT 10SM CLR 07/01 A3001 RMK AO2 SLP170 T00670006 PWINO $,M
WMC,2023-12-22 19:56,-117.8072,40.9019,1315.00,52.00,34.00,50.12,340.00,4.00,0.00,29.97,1014.90,10.00,M,CLR,M,M,M,M,M,M,M,M,M,M,M,M,M,M,52.00,KWMC 221956Z AUTO 34004KT 10SM CLR 11/01 A2997 RMK AO2 SLP149 T01110011,M
NFL,2023-12-22 19:56,-118.7010,39.4166,1199.00,50.00,35.00,56.16,260.00,4.00,0.00,30.00,1012.90,10.00,M,FEW,FEW,M,M,5000.00,20000.00,M,M,M,M,M,M,M,M,M,50.00,KNFL 221956Z 26004KT 10SM FEW050 FEW200 10/02 A3000 RMK AO2 SLP129 T01000017,M
HND,2023-12-22 19:56,-115.1344,35.9729,742.79,53.00,46.00,77.03,310.00,6.00,0.00,29.99,1017.00,10.00,M,SCT,OVC,M,M,4000.00,5500.00,M,M,M,M,M,M,M,M,M,53.00,KHND 221956Z 31006KT 10SM SCT040 OVC055 12/08 A2999 RMK AO2 SLP170 T01170078,M
TPH,2023-12-22 19:56,-117.0904,38.0505,1654.00,49.00,35.00,58.30,0.00,0.00,0.00,30.03,1015.40,10.00,M,CLR,M,M,M,M,M,M,M,M,M,M,M,M,M,M,49.00,KTPH 221956Z AUTO 00000KT 10SM CLR 09/02 A3003 RMK AO2 SLP154 T00940017,M
LAS,2023-12-22 19:56,-115.1634,36.0719,663.00,55.00,47.00,74.36,310.00,7.00,0.00,29.97,1014.30,10.00,M,BKN,BKN,OVC,M,4100.00,5000.00,6000.00,M,M,M,M,M,M,M,M,55.00,KLAS 221956Z 31007KT 10SM BKN041 BKN050 OVC060 13/08 A2997 RMK AO2 SLP143 T01280083,M
10U,2023-12-22 20:00,-116.1876,41.9532,1637.00,50.00,33.80,53.54,200.00,10.00,0.00,29.99,M,10.00,M,CLR,M,M,M,M,M,M,M,M,M,M,M,M,M,M,50.00,K10U 222000Z AUTO 20010KT 10SM CLR 10/01 A2999 RMK AO2,M
LSV,2023-12-22 20:06,-115.0343,36.2362,570.00,53.60,50.00,87.56,330.00,6.00,0.00,29.94,1013.10,8.00,M,BKN,M,M,M,7000.00,M,M,M,-RA,M,M,M,M,M,M,53.60,KLSV 222006Z 33006KT 8SM -RA BKN070 12/10 A2994 RMK AO2A RAE03RAB06 PRESFR SLP131 $,M
05U,2023-12-22 20:10,-116.0051,39.6042,1811.23,48.20,32.00,53.27,0.00,0.00,0.00,30.03,M,10.00,M,M,M,M,M,M,M,M,M,M,M,M,M,M,M,M,48.20,K05U 222010Z AUTO 00000KT 10SM 09/00 A3003 RMK A01,M
LSV,2023-12-22 20:12,-115.0343,36.2362,570.00,53.60,50.00,87.56,320.00,5.00,0.00,29.94,1013.10,10.00,M,BKN,M,M,M,7000.00,M,M,M,M,M,M,M,M,M,M,53.60,KLSV 222012Z 32005KT 10SM BKN070 12/10 A2994 RMK AO2A RAE03RAB06E12 SLP131 $,M
BVU,2023-12-22 20:15,-114.8611,35.9475,671.00,55.40,46.40,71.64,340.00,6.00,0.00,29.94,M,10.00,M,FEW,BKN,BKN,M,4500.00,5000.00,6500.00,M,M,M,M,M,M,M,M,55.40,KBVU 222015Z AUTO 34006KT 10SM FEW045 BKN050 BKN065 13/08 A2994 RMK AO2,M
CXP,2023-12-22 20:15,-119.7326,39.1923,1431.00,39.20,39.20,100.00,0.00,0.00,0.00,30.02,M,9.00,M,FEW,M,M,M,400.00,M,M,M,M,M,M,M,M,M,M,39.20,KCXP 222015Z AUTO 00000KT 9SM FEW004 04/04 A3002 RMK AO2,M
RTS,2023-12-22 20:15,-119.8764,39.6682,1539.00,46.40,35.60,65.83,0.00,0.00,0.00,30.00,M,10.00,M,CLR,M,M,M,M,M,M,M,M,M,M,M,M,M,M,46.40,KRTS 222015Z AUTO 00000KT 10SM CLR 08/02 A3000 RMK AO2,M
MEV,2023-12-22 20:15,-119.7500,38.9963,1441.42,35.60,35.60,100.00,250.00,3.00,0.00,30.01,M,0.50,M,OVC,M,M,M,300.00,M,M,M,FG,M,M,M,M,M,M,32.80,KMEV 222015Z AUTO 25003KT 1/2SM FG OVC003 02/02 A3001 RMK AO2,M
HTH,2023-12-22 20:15,-118.6315,38.5448,1282.89,48.20,35.60,61.52,340.00,7.00,0.00,29.99,M,10.00,M,CLR,M,M,M,M,M,M,M,M,M,M,M,M,M,M,44.53,KHTH 222015Z AUTO 34007KT 10SM CLR 09/02 A2999 RMK A01,M
BAM,2023-12-22 20:15,-116.8743,40.5990,1382.36,50.00,35.60,57.52,110.00,3.00,0.00,29.99,M,10.00,M,CLR,M,M,M,M,M,M,M,M,M,M,M,M,M,M,50.00,KBAM 222015Z AUTO 11003KT 10SM CLR 10/02 A2999 RMK AO1,M
TMT,2023-12-22 20:15,-117.1971,39.4643,1749.34,49.50,31.30,49.33,0.00,0.00,0.00,30.01,M,10.00,M,CLR,M,M,M,M,M,M,M,M,M,M,M,M,M,M,49.50,KTMT 222015Z AUTO 00000KT 10SM CLR 10/00 A3001 RMK AO2 T00971004,M
10U,2023-12-22 20:20,-116.1876,41.9532,1637.00,51.80,33.80,50.08,200.00,7.00,0.00,29.97,M,10.00,15.00,CLR,M,M,M,M,M,M,M,M,M,M,M,M,M,M,51.80,K10U 222020Z AUTO 20007G15KT 10SM CLR 11/01 A2997 RMK AO2,M
LSV,2023-12-22 20:26,-115.0343,36.2362,570.00,53.60,50.00,87.56,330.00,5.00,0.00,29.93,1012.80,10.00,M,FEW,M,M,M,6000.00,M,M,M,-DZ,M,M,M,M,M,M,53.60,KLSV 222026Z 33005KT 10SM -DZ FEW060 12/10 A2993 RMK AO2A RAE03RAB06E12DZB26 SLP128 $,M
LSV,2023-12-22 20:29,-115.0343,36.2362,570.00,53.60,50.00,87.56,330.00,7.00,0.00,29.93,1012.90,10.00,M,BKN,M,M,M,6000.00,M,M,M,M,M,M,M,M,M,M,53.60,KLSV 222029Z 33007KT 10SM BKN060 12/10 A2993 RMK AO2A RAE03RAB06E12DZB26E29 SLP129 $,M
INS,2023-12-22 20:30,-115.6733,36.5872,955.00,51.80,44.60,76.34,80.00,9.00,0.00,29.96,1013.10,10.00,M,FEW,OVC,M,M,4100.00,6000.00,M,M,M,M,M,M,M,M,M,51.80,KINS 222030Z AUTO 08009KT 10SM FEW041 OVC060 11/07 A2996 RMK AO2 RAE24DZB24E30 SLP131 $,M
05U,2023-12-22 20:30,-116.0051,39.6042,1811.23,50.00,32.00,49.81,40.00,3.00,0.00,30.02,M,10.00,M,M,M,M,M,M,M,M,M,M,M,M,M,M,M,M,50.00,K05U 222030Z AUTO 04003KT 10SM 10/00 A3002 RMK A01,M
HTH,2023-12-22 20:30,-118.6315,38.5448,1282.89,48.20,35.60,61.52,330.00,7.00,0.00,29.98,M,10.00,M,CLR,M,M,M,M,M,M,M,M,M,M,M,M,M,M,44.53,KHTH 222030Z AUTO 33007KT 10SM CLR 09/02 A2998 RMK A01,M
BVU,2023-12-22 20:35,-114.8611,35.9475,671.00,55.40,46.40,71.64,330.00,6.00,0.00,29.94,M,10.00,M,FEW,OVC,M,M,4400.00,5000.00,M,M,M,M,M,M,M,M,M,55.40,KBVU 222035Z AUTO 33006KT 10SM FEW044 OVC050 13/08 A2994 RMK AO2,M
CXP,2023-12-22 20:35,-119.7326,39.1923,1431.00,41.00,41.00,100.00,0.00,0.00,0.00,30.01,M,10.00,M,CLR,M,M,M,M,M,M,M,M,M,M,M,M,M,M,41.00,KCXP 222035Z AUTO 00000KT 10SM CLR 05/05 A3001 RMK AO2,M
INS,2023-12-22 20:35,-115.6733,36.5872,955.00,51.80,44.60,76.34,90.00,8.00,0.00,29.96,1012.90,10.00,M,FEW,OVC,M,M,4000.00,6500.00,M,M,-DZ,M,M,M,M,M,M,51.80,KINS 222035Z AUTO 09008KT 10SM -DZ FEW040 OVC065 11/07 A2996 RMK AO2 RAE24DZB24E30DZB35 SLP129 $,M
RTS,2023-12-22 20:35,-119.8764,39.6682,1539.00,46.40,33.80,61.28,0.00,0.00,0.00,30.00,M,10.00,M,CLR,M,M,M,M,M,M,M,M,M,M,M,M,M,M,46.40,KRTS 222035Z AUTO 00000KT 10SM CLR 08/01 A3000 RMK AO2,M
MEV,2023-12-22 20:35,-119.7500,38.9963,1441.42,35.60,35.60,100.00,0.00,0.00,0.00,30.00,M,8.00,M,BKN,M,M,M,300.00,M,M,M,M,M,M,M,M,M,M,35.60,KMEV 222035Z AUTO 00000KT 8SM BKN003 02/02 A3000 RMK AO2,M
BAM,2023-12-22 20:35,-116.8743,40.5990,1382.36,50.00,35.60,57.52,0.00,0.00,0.00,29.99,M,10.00,M,CLR,M,M,M,M,M,M,M,M,M,M,M,M,M,M,50.00,KBAM 222035Z AUTO 00000KT 10SM CLR 10/02 A2999 RMK AO1,M
TMT,2023-12-22 20:35,-117.1971,39.4643,1749.34,49.50,30.70,48.14,240.00,3.00,0.00,29.99,M,10.00,M,CLR,M,M,M,M,M,M,M,M,M,M,M,M,M,M,48.69,KTMT 222035Z AUTO 24003KT 10SM CLR 10/M01 A2999 RMK AO2 T00971007,M
10U,2023-12-22 20:40,-116.1876,41.9532,1637.00,51.80,33.80,50.08,200.00,10.00,0.00,29.96,M,10.00,M,CLR,M,M,M,M,M,M,M,M,M,M,M,M,M,M,51.80,K10U 222040Z AUTO 20010KT 10SM CLR 11/01 A2996 RMK AO2,M
INS,2023-12-22 20:46,-115.6733,36.5872,955.00,51.80,46.40,81.74,90.00,9.00,0.00,29.96,1012.90,10.00,M,OVC,M,M,M,6000.00,M,M,M,M,M,M,M,M,M,M,51.80,KINS 222046Z AUTO 09009KT 10SM OVC060 11/08 A2996 RMK AO2 RAE24DZB24E30DZB35E46 SLP129 $,M
05U,2023-12-22 20:50,-116.0051,39.6042,1811.23,50.00,32.00,49.81,0.00,0.00,0.00,30.01,M,10.00,M,M,M,M,M,M,M,M,M,M,M,M,M,M,M,M,50.00,K05U 222050Z AUTO 00000KT 10SM 10/00 A3001 RMK A01,M
P68,2023-12-22 20:53,-116.0056,39.6014,1993.00,49.00,33.00,53.82,0.00,0.00,0.00,29.98,1012.70,M,M,M,M,M,M,M,M,M,M,M,M,M,M,M,M,M,49.00,KP68 222053Z AUTO 00000KT 09/01 A2998 RMK AO1 SLP127 T00940006 58027,M
DRA,2023-12-22 20:53,-116.0278,36.6206,1009.00,M,M,M,M,M,0.00,29.95,M,M,M,M,M,M,M,M,M,M,M,M,M,M,M,M,M,M,M,KDRA 222053Z AUTO A2995 RMK AO2 SLPNO 56015 PWINO $,M
ELY,2023-12-22 20:53,-114.8453,39.2950,1909.00,48.00,31.00,51.54,M,M,0.00,29.99,1013.70,10.00,M,FEW,M,M,M,5000.00,M,M,M,M,M,M,M,M,M,M,M,KELY 222053Z AUTO 10SM FEW050 09/M01 A2999 RMK AO2 SLP137 T00891006 56033 $,M
VGT,2023-12-22 20:53,-115.1933,36.2111,667.00,54.00,50.00,86.29,320.00,6.00,T,29.94,1015.30,10.00,M,OVC,M,M,M,4700.00,M,M,M,M,M,M,M,M,M,M,54.00,KVGT 222053Z 32006KT 10SM OVC047 12/10 A2994 RMK AO2 RAE21 SLP153 P0000 60006 T01220100 58027,M
LOL,2023-12-22 20:53,-118.5701,40.0684,1192.43,51.00,35.00,54.12,190.00,7.00,0.00,29.96,1015.60,10.00,M,CLR,M,M,M,M,M,M,M,M,M,M,M,M,M,M,51.00,KLOL 222053Z AUTO 19007KT 10SM CLR 11/02 A2996 RMK AO2 SLP156 T01060017 58027,M
BVU,2023-12-22 20:55,-114.8611,35.9475,671.00,53.60,46.40,76.50,310.00,11.00,0.00,29.94,M,10.00,M,BKN,OVC,M,M,4300.00,5000.00,M,M,M,M,M,M,M,M,M,53.60,KBVU 222055Z AUTO 31011KT 10SM BKN043 OVC050 12/08 A2994 RMK AO2,M
CXP,2023-12-22 20:55,-119.7326,39.1923,1431.00,42.80,39.20,86.99,0.00,0.00,0.00,30.00,M,10.00,M,CLR,M,M,M,M,M,M,M,M,M,M,M,M,M,M,42.80,KCXP 222055Z AUTO 00000KT 10SM CLR 06/04 A3000 RMK AO2,M
INS,2023-12-22 20:55,-115.6733,36.5872,955.00,51.30,45.70,81.08,70.00,8.00,0.01,29.96,1012.90,10.00,M,OVC,M,M,M,6000.00,M,M,M,M,M,M,M,M,M,M,51.30,KINS 222055Z AUTO 07008KT 10SM OVC060 11/08 A2996 RMK AO2 RAE24DZB24E30DZB35E46 SLP129 P0001 60001 T01070076 57021 $,M
RNO,2023-12-22 20:55,-119.7711,39.4839,1341.00,47.00,37.00,68.02,0.00,0.00,0.00,29.98,1014.80,10.00,M,FEW,FEW,M,M,11000.00,23000.00,M,M,M,M,M,M,M,M,M,47.00,KRNO 222055Z 00000KT 10SM FEW110 FEW230 08/03 A2998 RMK AO2 SLP148 T00830028 58031 $,M
LSV,2023-12-22 20:55,-115.0343,36.2362,570.00,55.00,48.70,79.26,290.00,7.00,0.02,29.92,1012.40,10.00,M,BKN,M,M,M,6000.00,M,M,M,M,M,M,M,M,M,M,55.00,KLSV 222055Z 29007KT 10SM BKN060 13/09 A2992 RMK AO2A RAE03RAB06E12DZB26E29 SLP124 P0002 60005 T01270093 57027 $,M
RTS,2023-12-22 20:55,-119.8764,39.6682,1539.00,46.40,33.80,61.28,0.00,0.00,0.00,30.00,M,10.00,M,CLR,M,M,M,M,M,M,M,M,M,M,M,M,M,M,46.40,KRTS 222055Z AUTO 00000KT 10SM CLR 08/01 A3000 RMK AO2,M
MEV,2023-12-22 20:55,-119.7500,38.9963,1441.42,39.20,39.20,100.00,0.00,0.00,0.00,29.99,M,10.00,M,CLR,M,M,M,M,M,M,M,M,M,M,M,M,M,M,39.20,KMEV 222055Z AUTO 00000KT 10SM CLR 04/04 A2999 RMK AO2,M
BAM,2023-12-22 20:55,-116.8743,40.5990,1382.36,51.80,35.60,53.81,0.00,0.00,0.00,29.97,M,10.00,M,CLR,M,M,M,M,M,M,M,M,M,M,M,M,M,M,51.80,KBAM 222055Z AUTO 00000KT 10SM CLR 11/02 A2997 RMK AO1,M
HTH,2023-12-22 20:55,-118.6315,38.5448,1282.89,50.00,35.60,57.52,320.00,7.00,0.00,29.97,M,10.00,M,CLR,M,M,M,M,M,M,M,M,M,M,M,M,M,M,50.00,KHTH 222055Z AUTO 32007KT 10SM CLR 10/02 A2997 RMK A01,M
TMT,2023-12-22 20:55,-117.1971,39.4643,1749.34,50.50,31.00,46.95,190.00,5.00,0.00,29.98,M,10.00,M,CLR,M,M,M,M,M,M,M,M,M,M,M,M,M,M,50.50,KTMT 222055Z AUTO 19005KT 10SM CLR 10/M01 A2998 RMK AO2 T01031006,M
EKO,2023-12-22 20:56,-115.7860,40.8242,1367.00,48.00,34.00,58.16,0.00,0.00,0.00,29.98,1015.30,10.00,M,CLR,M,M,M,M,M,M,M,M,M,M,M,M,M,M,48.00,KEKO 222056Z AUTO 00000KT 10SM CLR 09/01 A2998 RMK AO2 SLP153 T00890011 58033 PWINO $,M
WMC,2023-12-22 20:56,-117.8072,40.9019,1315.00,53.00,34.00,48.30,0.00,0.00,0.00,29.95,1014.00,10.00,M,CLR,M,M,M,M,M,M,M,M,M,M,M,M,M,M,53.00,KWMC 222056Z AUTO 00000KT 10SM CLR 12/01 A2995 RMK AO2 SLP140 T01170011 56029,M
NFL,2023-12-22 20:56,-118.7010,39.4166,1199.00,53.00,36.00,52.30,230.00,3.00,0.00,29.96,1011.70,10.00,M,FEW,FEW,M,M,5000.00,20000.00,M,M,M,M,M,M,M,M,M,53.00,KNFL 222056Z 23003KT 10SM FEW050 FEW200 12/02 A2996 RMK AO2 SLP117 T01170022 58030,M
HND,2023-12-22 20:56,-115.1344,35.9729,742.79,54.00,46.00,74.26,0.00,0.00,0.00,29.98,1016.50,10.00,M,BKN,OVC,M,M,4000.00,6000.00,M,M,M,M,M,M,M,M,M,54.00,KHND 222056Z 00000KT 10SM BKN040 OVC060 12/08 A2998 RMK AO2 SLP165 60001 T01220078 58022,M
TPH,2023-12-22 20:56,-117.0904,38.0505,1654.00,49.00,35.00,58.30,0.00,0.00,0.00,29.99,1014.30,10.00,M,CLR,M,M,M,M,M,M,M,M,M,M,M,M,M,M,49.00,KTPH 222056Z AUTO 00000KT 10SM CLR 09/02 A2999 RMK AO2 SLP143 T00940017 58024,M
LAS,2023-12-22 20:56,-115.1634,36.0719,663.00,56.00,46.00,69.05,300.00,4.00,0.00,29.95,1013.60,10.00,M,BKN,OVC,M,M,4100.00,7000.00,M,M,M,M,M,M,M,M,M,56.00,KLAS 222056Z 30004KT 10SM BKN041 OVC070 13/08 A2995 RMK AO2 SLP136 60002 T01330078 58023,M
10U,2023-12-22 21:00,-116.1876,41.9532,1637.00,51.80,33.80,50.08,200.00,11.00,0.00,29.95,M,10.00,M,CLR,M,M,M,M,M,M,M,M,M,M,M,M,M,M,51.80,K10U 222100Z AUTO 20011KT 10SM CLR 11/01 A2995 RMK AO2,M
05U,2023-12-22 21:10,-116.0051,39.6042,1811.23,48.20,32.00,53.27,0.00,0.00,0.00,30.00,M,10.00,M,M,M,M,M,M,M,M,M,M,M,M,M,M,M,M,48.20,K05U 222110Z AUTO 00000KT 10SM 09/00 A3000 RMK A01,M
BVU,2023-12-22 21:15,-114.8611,35.9475,671.00,53.60,46.40,76.50,280.00,7.00,0.00,29.94,M,10.00,M,FEW,SCT,OVC,M,4300.00,5000.00,6000.00,M,M,M,M,M,M,M,M,53.60,KBVU 222115Z AUTO 28007KT 10SM FEW043 SCT050 OVC060 12/08 A2994 RMK AO2,M
CXP,2023-12-22 21:15,-119.7326,39.1923,1431.00,44.60,35.60,70.48,0.00,0.00,0.00,30.00,M,10.00,M,CLR,M,M,M,M,M,M,M,M,M,M,M,M,M,M,44.60,KCXP 222115Z AUTO 00000KT 10SM CLR 07/02 A3000 RMK AO2,M
RTS,2023-12-22 21:15,-119.8764,39.6682,1539.00,48.20,35.60,61.52,0.00,0.00,0.00,29.98,M,10.00,M,CLR,M,M,M,M,M,M,M,M,M,M,M,M,M,M,48.20,KRTS 222115Z AUTO 00000KT 10SM CLR 09/02 A2998 RMK AO2,M
MEV,2023-12-22 21:15,-119.7500,38.9963,1441.42,42.80,37.40,81.07,0.00,0.00,0.00,29.98,M,10.00,M,CLR,M,M,M,M,M,M,M,M,M,M,M,M,M,M,42.80,KMEV 222115Z AUTO 00000KT 10SM CLR 06/03 A2998 RMK AO2,M
BAM,2023-12-22 21:15,-116.8743,40.5990,1382.36,51.80,35.60,53.81,0.00,0.00,0.00,29.96,M,10.00,M,CLR,M,M,M,M,M,M,M,M,M,M,M,M,M,M,51.80,KBAM 222115Z AUTO 00000KT 10SM CLR 11/02 A2996 RMK AO1,M
HTH,2023-12-22 21:15,-118.6315,38.5448,1282.89,50.00,35.60,57.52,310.00,7.00,0.00,29.95,M,10.00,M,CLR,M,M,M,M,M,M,M,M,M,M,M,M,M,M,50.00,KHTH 222115Z AUTO 31007KT 10SM CLR 10/02 A2995 RMK A01,M
TMT,2023-12-22 21:15,-117.1971,39.4643,1749.34,50.00,30.40,46.68,0.00,0.00,0.00,29.97,M,10.00,M,CLR,M,M,M,M,M,M,M,M,M,M,M,M,M,M,50.00,KTMT 222115Z AUTO 00000KT 10SM CLR 10/M01 A2997 RMK AO2 T01011009,M
10U,2023-12-22 21:20,-116.1876,41.9532,1637.00,51.80,33.80,50.08,210.00,10.00,0.00,29.94,M,10.00,M,FEW,M,M,M,4500.00,M,M,M,M,M,M,M,M,M,M,51.80,K10U 222120Z AUTO 21010KT 10SM FEW045 11/01 A2994 RMK AO2,M
LSV,2023-12-22 21:25,-115.0343,36.2362,570.00,55.40,50.00,81.99,180.00,6.00,0.00,29.91,1012.10,10.00,M,BKN,OVC,M,M,4800.00,5500.00,M,M,M,M,M,M,M,M,M,55.40,KLSV 222125Z 18006KT 10SM BKN048 OVC055 13/10 A2991 RMK AO2A SLP121 $,M
05U,2023-12-22 21:30,-116.0051,39.6042,1811.23,48.20,33.80,57.26,0.00,0.00,0.00,29.99,M,10.00,M,M,M,M,M,M,M,M,M,M,M,M,M,M,M,M,48.20,K05U 222130Z AUTO 00000KT 10SM 09/01 A2999 RMK A01,M
BVU,2023-12-22 21:35,-114.8611,35.9475,671.00,53.60,46.40,76.50,290.00,6.00,0.00,29.93,M,10.00,M,SCT,BKN,OVC,M,6000.00,7500.00,8500.00,M,M,M,M,M,M,M,M,53.60,KBVU 222135Z AUTO 29006KT 10SM SCT060 BKN075 OVC085 12/08 A2993 RMK AO2,M
CXP,2023-12-22 21:35,-119.7326,39.1923,1431.00,46.40,35.60,65.83,0.00,0.00,0.00,29.99,M,10.00,M,CLR,M,M,M,M,M,M,M,M,M,M,M,M,M,M,46.40,KCXP 222135Z AUTO 00000KT 10SM CLR 08/02 A2999 RMK AO2,M
RTS,2023-12-22 21:35,-119.8764,39.6682,1539.00,50.00,33.80,53.54,0.00,0.00,0.00,29.97,M,10.00,M,CLR,M,M,M,M,M,M,M,M,M,M,M,M,M,M,50.00,KRTS 222135Z AUTO 00000KT 10SM CLR 10/01 A2997 RMK AO2,M
MEV,2023-12-22 21:35,-119.7500,38.9963,1441.42,44.60,37.40,75.68,0.00,0.00,0.00,29.97,M,10.00,M,CLR,M,M,M,M,M,M,M,M,M,M,M,M,M,M,44.60,KMEV 222135Z AUTO 00000KT 10SM CLR 07/03 A2997 RMK AO2,M
BAM,2023-12-22 21:35,-116.8743,40.5990,1382.36,53.60,33.80,46.88,0.00,0.00,0.00,29.95,M,10.00,M,CLR,M,M,M,M,M,M,M,M,M,M,M,M,M,M,53.60,KBAM 222135Z AUTO 00000KT 10SM CLR 12/01 A2995 RMK AO1,M
HTH,2023-12-22 21:35,-118.6315,38.5448,1282.89,50.00,35.60,57.52,330.00,6.00,0.00,29.95,M,10.00,M,CLR,M,M,M,M,M,M,M,M,M,M,M,M,M,M,50.00,KHTH 222135Z AUTO 33006KT 10SM CLR 10/02 A2995 RMK A01,M
TMT,2023-12-22 21:35,-117.1971,39.4643,1749.34,51.00,30.70,45.53,290.00,4.00,0.00,29.96,M,10.00,M,CLR,M,M,M,M,M,M,M,M,M,M,M,M,M,M,51.00,KTMT 222135Z AUTO 29004KT 10SM CLR 11/M01 A2996 RMK AO2 T01051007,M
10U,2023-12-22 21:40,-116.1876,41.9532,1637.00,51.80,33.80,50.08,230.00,6.00,0.00,29.94,M,10.00,M,FEW,SCT,M,M,5000.00,6000.00,M,M,M,M,M,M,M,M,M,51.80,K10U 222140Z AUTO 23006KT 10SM FEW050 SCT060 11/01 A2994 RMK AO2,M
LSV,2023-12-22 21:44,-115.0343,36.2362,570.00,55.40,50.00,81.99,190.00,4.00,0.00,29.91,1012.10,10.00,M,OVC,M,M,M,4900.00,M,M,M,-RA,M,M,M,M,M,M,55.40,KLSV 222144Z 19004KT 10SM -RA OVC049 13/10 A2991 RMK AO2A RAB44 SLP121 $,M
05U,2023-12-22 21:50,-116.0051,39.6042,1811.23,51.80,32.00,46.59,0.00,0.00,0.00,29.98,M,10.00,M,M,M,M,M,M,M,M,M,M,M,M,M,M,M,M,51.80,K05U 222150Z AUTO 00000KT 10SM 11/00 A2998 RMK A01,M
P68,2023-12-22 21:53,-116.0056,39.6014,1993.00,49.00,32.00,51.70,0.00,0.00,0.00,29.95,1012.00,M,M,M,M,M,M,M,M,M,M,M,M,M,M,M,M,M,49.00,KP68 222153Z AUTO 00000KT 09/00 A2995 RMK AO1 SLP120 T00940000,M
DRA,2023-12-22 21:53,-116.0278,36.6206,1009.00,M,M,M,M,M,0.00,29.94,M,M,M,M,M,M,M,M,M,M,M,M,M,M,M,M,M,M,M,KDRA 222153Z AUTO A2994 RMK AO2 SLPNO PWINO $,M
ELY,2023-12-22 21:53,-114.8453,39.2950,1909.00,49.00,32.00,51.70,M,M,0.00,29.97,1012.50,10.00,M,CLR,M,M,M,M,M,M,M,M,M,M,M,M,M,M,M,KELY 222153Z AUTO 10SM CLR 09/00 A2997 RMK AO2 SLP125 T00940000 $,M
VGT,2023-12-22 21:53,-115.1933,36.2111,667.00,56.00,49.00,77.29,230.00,4.00,T,29.93,1014.90,10.00,M,OVC,M,M,M,3900.00,M,M,M,-RA,M,M,M,M,M,M,56.00,KVGT 222153Z 23004KT 10SM -RA OVC039 13/09 A2993 RMK AO2 RAB53 SLP149 P0000 T01330094,M
LOL,2023-12-22 21:53,-118.5701,40.0684,1192.43,53.00,35.00,50.27,190.00,6.00,0.00,29.94,1014.70,10.00,M,CLR,M,M,M,M,M,M,M,M,M,M,M,M,M,M,53.00,KLOL 222153Z AUTO 19006KT 10SM CLR 12/02 A2994 RMK AO2 SLP147 T01170017,M
LSV,2023-12-22 21:54,-115.0343,36.2362,570.00,55.40,50.00,81.99,210.00,5.00,0.00,29.91,1012.10,10.00,M,OVC,M,M,M,5000.00,M,M,M,-RA,M,M,M,M,M,M,55.40,KLSV 222154Z 21005KT 10SM -RA OVC050 13/10 A2991 RMK AO2A RAB44 SLP121 $,M
BVU,2023-12-22 21:55,-114.8611,35.9475,671.00,55.40,46.40,71.64,0.00,0.00,0.00,29.93,M,10.00,M,SCT,BKN,OVC,M,4500.00,6000.00,8500.00,M,M,M,M,M,M,M,M,55.40,KBVU 222155Z AUTO 00000KT 10SM SCT045 BKN060 OVC085 13/08 A2993 RMK AO2,M
CXP,2023-12-22 21:55,-119.7326,39.1923,1431.00,46.40,35.60,65.83,0.00,0.00,0.00,29.98,M,10.00,M,CLR,M,M,M,M,M,M,M,M,M,M,M,M,M,M,46.40,KCXP 222155Z AUTO 00000KT 10SM CLR 08/02 A2998 RMK AO2,M
INS,2023-12-22 21:55,-115.6733,36.5872,955.00,50.70,45.00,80.73,70.00,3.00,0.00,29.95,1013.00,10.00,M,BKN,OVC,M,M,4700.00,5500.00,M,M,M,M,M,M,M,M,M,50.70,KINS 222155Z AUTO 07003KT 10SM BKN047 OVC055 10/07 A2995 RMK AO2 SLP130 T01040073 $,M
RNO,2023-12-22 21:55,-119.7711,39.4839,1341.00,51.00,37.00,58.58,M,4.00,0.00,29.94,1013.30,10.00,M,FEW,FEW,M,M,11000.00,23000.00,M,M,M,M,M,M,M,M,M,51.00,KRNO 222155Z VRB04KT 10SM FEW110 FEW230 11/03 A2994 RMK AO2 SLP133 T01060028 $,M
LSV,2023-12-22 21:55,-115.0343,36.2362,570.00,54.50,50.00,84.73,210.00,5.00,T,29.91,1012.10,10.00,M,OVC,M,M,M,5000.00,M,M,M,-RA,M,M,M,M,M,M,54.50,KLSV 222155Z 21005KT 10SM -RA OVC050 13/10 A2991 RMK AO2A RAB44 SLP121 P0000 T01250099 $,M
RTS,2023-12-22 21:55,-119.8764,39.6682,1539.00,50.00,33.80,53.54,130.00,3.00,0.00,29.96,M,10.00,M,CLR,M,M,M,M,M,M,M,M,M,M,M,M,M,M,50.00,KRTS 222155Z AUTO 13003KT 10SM CLR 10/01 A2996 RMK AO2,M
MEV,2023-12-22 21:55,-119.7500,38.9963,1441.42,46.40,39.20,75.84,0.00,0.00,0.00,29.97,M,10.00,M,CLR,M,M,M,M,M,M,M,M,M,M,M,M,M,M,46.40,KMEV 222155Z AUTO 00000KT 10SM CLR 08/04 A2997 RMK AO2,M
BAM,2023-12-22 21:55,-116.8743,40.5990,1382.36,53.60,33.80,46.88,0.00,0.00,0.00,29.95,M,10.00,M,CLR,M,M,M,M,M,M,M,M,M,M,M,M,M,M,53.60,KBAM 222155Z AUTO 00000KT 10SM CLR 12/01 A2995 RMK AO1,M
HTH,2023-12-22 21:55,-118.6315,38.5448,1282.89,51.80,35.60,53.81,320.00,5.00,0.00,29.94,M,10.00,M,CLR,M,M,M,M,M,M,M,M,M,M,M,M,M,M,51.80,KHTH 222155Z AUTO 32005KT 10SM CLR 11/02 A2994 RMK A01,M
TMT,2023-12-22 21:55,-117.1971,39.4643,1749.34,51.00,30.60,45.35,0.00,0.00,0.00,29.96,M,10.00,M,CLR,M,M,M,M,M,M,M,M,M,M,M,M,M,M,51.00,KTMT 222155Z AUTO 00000KT 10SM CLR 11/M01 A2996 RMK AO2 T01051008,M
EKO,2023-12-22 21:56,-115.7860,40.8242,1367.00,49.00,35.00,58.30,0.00,0.00,0.00,29.94,1014.00,10.00,M,CLR,M,M,M,M,M,M,M,M,M,M,M,M,M,M,49.00,KEKO 222156Z AUTO 00000KT 10SM CLR 09/02 A2994 RMK AO2 SLP140 T00940017 PWINO $,M
WMC,2023-12-22 21:56,-117.8072,40.9019,1315.00,55.00,33.00,43.14,260.00,12.00,0.00,29.92,1013.10,10.00,M,CLR,M,M,M,M,M,M,M,M,M,M,M,M,M,M,55.00,KWMC 222156Z AUTO 26012KT 10SM CLR 13/01 A2992 RMK AO2 SLP131 T01280006,M
NFL,2023-12-22 21:56,-118.7010,39.4166,1199.00,54.00,36.00,50.42,220.00,4.00,0.00,29.94,1011.10,10.00,M,FEW,SCT,M,M,5000.00,20000.00,M,M,M,M,M,M,M,M,M,54.00,KNFL 222156Z 22004KT 10SM FEW050 SCT200 12/02 A2994 RMK AO2 SLP111 T01220022,M
HND,2023-12-22 21:56,-115.1344,35.9729,742.79,52.00,47.00,82.99,0.00,0.00,0.05,29.97,1016.20,6.00,M,SCT,OVC,M,M,3600.00,4600.00,M,M,RA,M,M,M,M,M,M,52.00,KHND 222156Z 00000KT 6SM RA SCT036 OVC046 11/08 A2997 RMK AO2 RAB10 SLP162 P0005 T01110083,M
TPH,2023-12-22 21:56,-117.0904,38.0505,1654.00,49.00,36.00,60.66,0.00,0.00,0.00,29.97,1013.00,10.00,M,CLR,M,M,M,M,M,M,M,M,M,M,M,M,M,M,49.00,KTPH 222156Z AUTO 00000KT 10SM CLR 09/02 A2997 RMK AO2 SLP130 T00940022,M
LAS,2023-12-22 21:56,-115.1634,36.0719,663.00,54.00,48.00,80.07,240.00,4.00,0.02,29.94,1013.40,7.00,M,BKN,OVC,M,M,4000.00,5500.00,M,M,-RA,M,M,M,M,M,M,54.00,KLAS 222156Z 24004KT 7SM -RA BKN040 OVC055 12/09 A2994 RMK AO2 RAB26 SLP134 P0002 T01220089,M
10U,2023-12-22 22:00,-116.1876,41.9532,1637.00,51.80,32.00,46.59,230.00,8.00,0.00,29.93,M,10.00,15.00,SCT,BKN,M,M,4700.00,5500.00,M,M,M,M,M,M,M,M,M,51.80,K10U 222200Z AUTO 23008G15KT 10SM SCT047 BKN055 11/00 A2993 RMK AO2,M
INS,2023-12-22 22:03,-115.6733,36.5872,955.00,50.00,44.60,81.61,130.00,5.00,0.00,29.95,1013.00,10.00,M,BKN,OVC,M,M,4700.00,5500.00,M,M,-DZ,M,M,M,M,M,M,50.00,KINS 222203Z AUTO 13005KT 10SM -DZ BKN047 OVC055 10/07 A2995 RMK AO2 DZB03 SLP130 $,M
LSV,2023-12-22 22:05,-115.0343,36.2362,570.00,53.60,50.00,87.56,220.00,6.00,0.00,29.91,1012.10,8.00,M,OVC,M,M,M,4800.00,M,M,M,-RA,M,M,M,M,M,M,53.60,KLSV 222205Z AUTO 22006KT 8SM -RA OVC048 12/10 A2991 RMK AO2 RAE2157DZB2157E2158RAB2158 SLP121 $,M
05U,2023-12-22 22:10,-116.0051,39.6042,1811.23,50.00,32.00,49.81,0.00,0.00,0.00,29.97,M,10.00,M,M,M,M,M,M,M,M,M,M,M,M,M,M,M,M,50.00,K05U 222210Z AUTO 00000KT 10SM 10/00 A2997 RMK A01,M
BVU,2023-12-22 22:15,-114.8611,35.9475,671.00,55.40,46.40,71.64,280.00,7.00,0.00,29.92,M,10.00,M,BKN,OVC,M,M,4500.00,5500.00,M,M,M,M,M,M,M,M,M,55.40,KBVU 222215Z AUTO 28007KT 10SM BKN045 OVC055 13/08 A2992 RMK AO2,M
CXP,2023-12-22 22:15,-119.7326,39.1923,1431.00,48.20,35.60,61.52,0.00,0.00,0.00,29.96,M,10.00,M,CLR,M,M,M,M,M,M,M,M,M,M,M,M,M,M,48.20,KCXP 222215Z AUTO 00000KT 10SM CLR 09/02 A2996 RMK AO2,M
INS,2023-12-22 22:15,-115.6733,36.5872,955.00,50.00,44.60,81.61,0.00,0.00,0.00,29.94,1012.70,10.00,M,OVC,M,M,M,4900.00,M,M,M,M,M,M,M,M,M,M,50.00,KINS 222215Z AUTO 00000KT 10SM OVC049 10/07 A2994 RMK AO2 DZB03E15 SLP127 $,M
RTS,2023-12-22 22:15,-119.8764,39.6682,1539.00,50.00,32.00,49.81,0.00,0.00,0.00,29.96,M,10.00,M,CLR,M,M,M,M,M,M,M,M,M,M,M,M,M,M,50.00,KRTS 222215Z AUTO 00000KT 10SM CLR 10/M00 A2996 RMK AO2,M
MEV,2023-12-22 22:15,-119.7500,38.9963,1441.42,48.20,39.20,70.88,170.00,6.00,0.00,29.95,M,10.00,M,CLR,M,M,M,M,M,M,M,M,M,M,M,M,M,M,45.04,KMEV 222215Z AUTO 17006KT 10SM CLR 09/04 A2995 RMK AO2,M
BAM,2023-12-22 22:15,-116.8743,40.5990,1382.36,53.60,33.80,46.88,0.00,0.00,0.00,29.93,M,10.00,M,CLR,M,M,M,M,M,M,M,M,M,M,M,M,M,M,53.60,KBAM 222215Z AUTO 00000KT 10SM CLR 12/01 A2993 RMK AO1,M
HTH,2023-12-22 22:15,-118.6315,38.5448,1282.89,51.80,35.60,53.81,330.00,6.00,0.00,29.94,M,10.00,M,CLR,M,M,M,M,M,M,M,M,M,M,M,M,M,M,51.80,KHTH 222215Z AUTO 33006KT 10SM CLR 11/02 A2994 RMK A01,M
TMT,2023-12-22 22:15,-117.1971,39.4643,1749.34,51.30,30.20,44.13,270.00,3.00,0.00,29.95,M,10.00,M,CLR,M,M,M,M,M,M,M,M,M,M,M,M,M,M,51.30,KTMT 222215Z AUTO 27003KT 10SM CLR 11/M01 A2995 RMK AO2 T01071010,M
10U,2023-12-22 22:20,-116.1876,41.9532,1637.00,50.00,33.80,53.54,240.00,7.00,0.00,29.93,M,10.00,M,FEW,FEW,M,M,4800.00,5500.00,M,M,M,M,M,M,M,M,M,50.00,K10U 222220Z AUTO 24007KT 10SM FEW048 FEW055 10/01 A2993 RMK AO2,M
CXP,2023-12-22 22:30,-119.7326,39.1923,1431.00,50.00,35.60,57.52,M,3.00,0.00,29.96,M,10.00,M,CLR,M,M,M,M,M,M,M,M,M,M,M,M,M,M,50.00,KCXP 222230Z AUTO VRB03KT 10SM CLR 10/02 A2996 RMK AO2,M
05U,2023-12-22 22:30,-116.0051,39.6042,1811.23,50.00,32.00,49.81,0.00,0.00,0.00,29.97,M,10.00,M,M,M,M,M,M,M,M,M,M,M,M,M,M,M,M,50.00,K05U 222230Z AUTO 00000KT 10SM 10/M00 A2997 RMK A01,M
BVU,2023-12-22 22:35,-114.8611,35.9475,671.00,55.40,46.40,71.64,290.00,7.00,0.00,29.92,M,10.00,M,FEW,OVC,M,M,4500.00,5500.00,M,M,M,M,M,M,M,M,M,55.40,KBVU 222235Z AUTO 29007KT 10SM FEW045 OVC055 13/08 A2992 RMK AO2,M
LSV,2023-12-22 22:35,-115.0343,36.2362,570.00,53.60,50.00,87.56,250.00,4.00,0.00,29.91,1012.20,8.00,M,FEW,FEW,M,M,4100.00,4800.00,M,M,-RA,M,M,M,M,M,M,53.60,KLSV 222235Z AUTO 25004KT 8SM -RA FEW041 FEW048 12/10 A2991 RMK AO2 RAE2157DZB2157E2158RAB2158 SLP122 $,M
RTS,2023-12-22 22:35,-119.8764,39.6682,1539.00,51.80,32.00,46.59,M,3.00,0.00,29.96,M,10.00,M,CLR,M,M,M,M,M,M,M,M,M,M,M,M,M,M,51.80,KRTS 222235Z AUTO VRB03KT 10SM CLR 11/M00 A2996 RMK AO2,M
MEV,2023-12-22 22:35,-119.7500,38.9963,1441.42,50.00,39.20,66.27,230.00,4.00,0.00,29.95,M,10.00,M,CLR,M,M,M,M,M,M,M,M,M,M,M,M,M,M,50.00,KMEV 222235Z AUTO 23004KT 10SM CLR 10/04 A2995 RMK AO2,M
BAM,2023-12-22 22:35,-116.8743,40.5990,1382.36,55.40,33.80,43.90,220.00,4.00,0.00,29.93,M,10.00,M,CLR,M,M,M,M,M,M,M,M,M,M,M,M,M,M,55.40,KBAM 222235Z AUTO 22004KT 10SM CLR 13/01 A2993 RMK AO1,M
HTH,2023-12-22 22:35,-118.6315,38.5448,1282.89,51.80,35.60,53.81,340.00,7.00,0.00,29.94,M,10.00,M,CLR,M,M,M,M,M,M,M,M,M,M,M,M,M,M,51.80,KHTH 222235Z AUTO 34007KT 10SM CLR 11/02 A2994 RMK A01,M
TMT,2023-12-22 22:35,-117.1971,39.4643,1749.34,51.00,30.20,44.62,260.00,4.00,0.00,29.95,M,10.00,M,CLR,M,M,M,M,M,M,M,M,M,M,M,M,M,M,51.00,KTMT 222235Z AUTO 26004KT 10SM CLR 11/M01 A2995 RMK AO2 T01051010,M
10U,2023-12-22 22:40,-116.1876,41.9532,1637.00,51.80,32.00,46.59,220.00,12.00,0.00,29.93,M,10.00,M,FEW,BKN,M,M,5000.00,5500.00,M,M,M,M,M,M,M,M,M,51.80,K10U 222240Z AUTO 22012KT 10SM FEW050 BKN055 11/00 A2993 RMK AO2,M
LSV,2023-12-22 22:41,-115.0343,36.2362,570.00,53.60,50.00,87.56,230.00,3.00,0.00,29.91,1012.10,10.00,M,CLR,M,M,M,M,M,M,M,M,M,M,M,M,M,M,53.60,KLSV 222241Z AUTO 23003KT 10SM CLR 12/10 A2991 RMK AO2 RAE2157DZB2157E2158RAB2158E39DZB39E41 SLP121 $,M
LSV,2023-12-22 22:42,-115.0343,36.2362,570.00,53.60,50.00,87.56,230.00,3.00,0.00,29.91,1012.10,10.00,M,FEW,M,M,M,5000.00,M,M,M,-DZ,M,M,M,M,M,M,53.60,KLSV 222242Z AUTO 23003KT 10SM -DZ FEW050 12/10 A2991 RMK AO2 RAE2157DZB2157E2158RAB2158E39DZB39E41DZB42 SLP121 $,M
INS,2023-12-22 22:44,-115.6733,36.5872,955.00,51.80,44.60,76.34,0.00,0.00,0.00,29.94,1012.70,10.00,M,OVC,M,M,M,4700.00,M,M,M,-DZ,M,M,M,M,M,M,51.80,KINS 222244Z AUTO 00000KT 10SM -DZ OVC047 11/07 A2994 RMK AO2 DZB03E15DZB44 SLP127 $,M
P68,2023-12-22 22:53,-116.0056,39.6014,1993.00,50.00,31.00,47.83,180.00,4.00,0.00,29.94,1011.50,M,M,M,M,M,M,M,M,M,M,M,M,M,M,M,M,M,50.00,KP68 222253Z AUTO 18004KT 10/M01 A2994 RMK AO1 SLP115 T01001006,M
DRA,2023-12-22 22:53,-116.0278,36.6206,1009.00,M,M,M,M,M,0.00,29.94,M,M,M,M,M,M,M,M,M,M,M,M,M,M,M,M,M,M,M,KDRA 222253Z AUTO A2994 RMK AO2 SLPNO PWINO $,M
ELY,2023-12-22 22:53,-114.8453,39.2950,1909.00,49.00,31.00,49.65,M,M,0.00,29.95,1012.10,10.00,M,SCT,M,M,M,6500.00,M,M,M,M,M,M,M,M,M,M,M,KELY 222253Z AUTO 10SM SCT065 09/M01 A2995 RMK AO2 SLP121 T00941006 $,M
VGT,2023-12-22 22:53,-115.1933,36.2111,667.00,55.00,48.00,77.21,310.00,3.00,0.03,29.93,1015.00,10.00,M,OVC,M,M,M,5500.00,M,M,M,-RA,M,M,M,M,M,M,55.00,KVGT 222253Z 31003KT 10SM -RA OVC055 13/09 A2993 RMK AO2 SLP150 P0003 T01280089,M
LOL,2023-12-22 22:53,-118.5701,40.0684,1192.43,52.00,36.00,54.26,160.00,8.00,0.00,29.91,1013.90,10.00,M,CLR,M,M,M,M,M,M,M,M,M,M,M,M,M,M,52.00,KLOL 222253Z AUTO 16008KT 10SM CLR 11/02 A2991 RMK AO2 SLP139 T01110022,M
BVU,2023-12-22 22:55,-114.8611,35.9475,671.00,53.60,46.40,76.50,M,4.00,0.00,29.93,M,10.00,M,OVC,M,M,M,5500.00,M,M,M,M,M,M,M,M,M,M,53.60,KBVU 222255Z AUTO VRB04KT 10SM OVC055 12/08 A2993 RMK AO2,M
CXP,2023-12-22 22:55,-119.7326,39.1923,1431.00,50.00,35.60,57.52,0.00,0.00,0.00,29.96,M,6.00,M,CLR,M,M,M,M,M,M,M,HZ,M,M,M,M,M,M,50.00,KCXP 222255Z AUTO 00000KT 6SM HZ CLR 10/02 A2996 RMK AO2,M
RNO,2023-12-22 22:55,-119.7711,39.4839,1341.00,53.00,36.00,52.30,0.00,0.00,0.00,29.94,1013.00,10.00,M,FEW,FEW,M,M,11000.00,23000.00,M,M,M,M,M,M,M,M,M,53.00,KRNO 222255Z 00000KT 10SM FEW110 FEW230 12/02 A2994 RMK AO2 SLP130 T01170022 $,M
LSV,2023-12-22 22:55,-115.0343,36.2362,570.00,54.00,50.00,86.29,290.00,5.00,0.03,29.91,1012.20,10.00,M,SCT,M,M,M,5000.00,M,M,M,-RA,M,M,M,M,M,M,54.00,KLSV 222255Z AUTO 29005KT 10SM -RA SCT050 12/10 A2991 RMK AO2 RAE2157DZB2157E2158RAB2158E39DZB39E41DZB42E53RAB53 SLP122 P0003 T01220099 $,M
RTS,2023-12-22 22:55,-119.8764,39.6682,1539.00,51.80,30.20,43.32,230.00,4.00,0.00,29.96,M,10.00,M,CLR,M,M,M,M,M,M,M,M,M,M,M,M,M,M,51.80,KRTS 222255Z AUTO 23004KT 10SM CLR 11/M01 A2996 RMK AO2,M
05U,2023-12-22 22:55,-116.0051,39.6042,1811.23,50.00,30.20,46.31,330.00,4.00,0.00,29.96,M,10.00,M,M,M,M,M,M,M,M,M,M,M,M,M,M,M,M,50.00,K05U 222255Z AUTO 33004KT 10SM 10/M01 A2996 RMK A01,M
MEV,2023-12-22 22:55,-119.7500,38.9963,1441.42,50.00,37.40,61.76,250.00,7.00,0.00,29.96,M,10.00,M,CLR,M,M,M,M,M,M,M,M,M,M,M,M,M,M,50.00,KMEV 222255Z AUTO 25007KT 10SM CLR 10/03 A2996 RMK AO2,M
BAM,2023-12-22 22:55,-116.8743,40.5990,1382.36,53.60,33.80,46.88,240.00,3.00,0.00,29.93,M,10.00,M,CLR,M,M,M,M,M,M,M,M,M,M,M,M,M,M,53.60,KBAM 222255Z AUTO 24003KT 10SM CLR 12/01 A2993 RMK AO1,M
HTH,2023-12-22 22:55,-118.6315,38.5448,1282.89,51.80,35.60,53.81,330.00,8.00,0.00,29.94,M,10.00,M,CLR,M,M,M,M,M,M,M,M,M,M,M,M,M,M,51.80,KHTH 222255Z AUTO 33008KT 10SM CLR 11/02 A2994 RMK A01,M
TMT,2023-12-22 22:55,-117.1971,39.4643,1749.34,50.70,30.00,44.75,0.00,0.00,0.00,29.94,M,10.00,M,CLR,M,M,M,M,M,M,M,M,M,M,M,M,M,M,50.70,KTMT 222255Z AUTO 00000KT 10SM CLR 10/M01 A2994 RMK AO2 T01041011,M
INS,2023-12-22 22:55,-115.6733,36.5872,955.00,50.70,45.00,80.73,0.00,0.00,T,29.94,1012.70,10.00,M,OVC,M,M,M,4500.00,M,M,M,-RA,M,M,M,M,M,M,50.70,KINS 222255Z AUTO 00000KT 10SM -RA OVC045 10/07 A2994 RMK AO2 DZB03E15DZB44E52RAB52 SLP127 P0000 T01040073 $,M
EKO,2023-12-22 22:56,-115.7860,40.8242,1367.00,48.00,36.00,62.97,210.00,3.00,0.00,29.93,1013.60,10.00,M,CLR,M,M,M,M,M,M,M,M,M,M,M,M,M,M,46.98,KEKO 222256Z AUTO 21003KT 10SM CLR 09/02 A2993 RMK AO2 SLP136 T00890022 PWINO $,M
WMC,2023-12-22 22:56,-117.8072,40.9019,1315.00,54.00,34.00,46.57,240.00,12.00,0.00,29.91,1012.70,10.00,M,CLR,M,M,M,M,M,M,M,M,M,M,M,M,M,M,54.00,KWMC 222256Z AUTO 24012KT 10SM CLR 12/01 A2991 RMK AO2 SLP127 T01220011,M
NFL,2023-12-22 22:56,-118.7010,39.4166,1199.00,55.00,35.00,46.73,200.00,4.00,0.00,29.93,1010.80,10.00,M,FEW,SCT,M,M,5000.00,20000.00,M,M,M,M,M,M,M,M,M,55.00,KNFL 222256Z 20004KT 10SM FEW050 SCT200 13/02 A2993 RMK AO2 SLP108 T01280017,M
HND,2023-12-22 22:56,-115.1344,35.9729,742.79,51.00,48.00,89.42,0.00,0.00,0.05,29.96,1015.90,10.00,M,BKN,OVC,M,M,4900.00,6000.00,M,M,-RA,M,M,M,M,M,M,51.00,KHND 222256Z 00000KT 10SM -RA BKN049 OVC060 11/09 A2996 RMK AO2 SLP159 P0005 T01060089,M
TPH,2023-12-22 22:56,-117.0904,38.0505,1654.00,49.00,35.00,58.30,0.00,0.00,0.00,29.96,1012.70,10.00,M,CLR,M,M,M,M,M,M,M,M,M,M,M,M,M,M,49.00,KTPH 222256Z AUTO 00000KT 10SM CLR 09/02 A2996 RMK AO2 SLP127 T00940017,M
LAS,2023-12-22 22:56,-115.1634,36.0719,663.00,54.00,47.00,77.12,280.00,6.00,0.01,29.93,1013.00,10.00,M,FEW,BKN,OVC,M,4000.00,5500.00,7500.00,M,M,M,M,M,M,M,M,54.00,KLAS 222256Z 28006KT 10SM FEW040 BKN055 OVC075 12/08 A2993 RMK AO2 RAE37 SLP130 P0001 T01220083,M
10U,2023-12-22 23:00,-116.1876,41.9532,1637.00,50.00,32.00,49.81,230.00,8.00,0.00,29.93,M,10.00,M,SCT,SCT,M,M,6000.00,7000.00,M,M,M,M,M,M,M,M,M,50.00,K10U 222300Z AUTO 23008KT 10SM SCT060 SCT070 10/M00 A2993 RMK AO2,M
LSV,2023-12-22 23:05,-115.0343,36.2362,570.00,53.60,50.00,87.56,0.00,0.00,0.00,29.91,1012.20,10.00,M,BKN,M,M,M,4900.00,M,M,M,-DZ,M,M,M,M,M,M,53.60,KLSV 222305Z AUTO 00000KT 10SM -DZ BKN049 12/10 A2991 RMK AO2 RAE03DZB03 SLP122 $,M
LSV,2023-12-22 23:06,-115.0343,36.2362,570.00,53.60,50.00,87.56,0.00,0.00,0.00,29.91,1012.20,10.00,M,BKN,M,M,M,4900.00,M,M,M,M,M,M,M,M,M,M,53.60,KLSV 222306Z AUTO 00000KT 10SM BKN049 12/10 A2991 RMK AO2 RAE03DZB03E05 SLP122 $,M
BVU,2023-12-22 23:15,-114.8611,35.9475,671.00,55.40,44.60,66.91,330.00,7.00,0.00,29.92,M,10.00,M,BKN,OVC,M,M,5500.00,6500.00,M,M,M,M,M,M,M,M,M,55.40,KBVU 222315Z AUTO 33007KT 10SM BKN055 OVC065 13/07 A2992 RMK AO2 LTG DSNT S,M
CXP,2023-12-22 23:15,-119.7326,39.1923,1431.00,51.80,35.60,53.81,M,5.00,0.00,29.96,M,10.00,M,CLR,M,M,M,M,M,M,M,M,M,M,M,M,M,M,51.80,KCXP 222315Z AUTO VRB05KT 10SM CLR 11/02 A2996 RMK AO2,M
RTS,2023-12-22 23:15,-119.8764,39.6682,1539.00,51.80,26.60,37.38,300.00,11.00,0.00,29.96,M,10.00,M,CLR,M,M,M,M,M,M,M,M,M,M,M,M,M,M,51.80,KRTS 222315Z AUTO 30011KT 10SM CLR 11/M03 A2996 RMK AO2,M
05U,2023-12-22 23:15,-116.0051,39.6042,1811.23,48.20,30.20,49.53,360.00,3.00,0.00,29.96,M,10.00,M,M,M,M,M,M,M,M,M,M,M,M,M,M,M,M,47.21,K05U 222315Z AUTO 36003KT 10SM 09/M01 A2996 RMK A01,M
MEV,2023-12-22 23:15,-119.7500,38.9963,1441.42,50.00,37.40,61.76,230.00,4.00,0.00,29.95,M,10.00,M,CLR,M,M,M,M,M,M,M,M,M,M,M,M,M,M,50.00,KMEV 222315Z AUTO 23004KT 10SM CLR 10/03 A2995 RMK AO2,M
HTH,2023-12-22 23:15,-118.6315,38.5448,1282.89,51.80,35.60,53.81,330.00,7.00,0.00,29.95,M,10.00,M,CLR,M,M,M,M,M,M,M,M,M,M,M,M,M,M,51.80,KHTH 222315Z AUTO 33007KT 10SM CLR 11/02 A2995 RMK A01,M
BAM,2023-12-22 23:15,-116.8743,40.5990,1382.36,53.60,33.80,46.88,0.00,0.00,0.00,29.93,M,10.00,M,CLR,M,M,M,M,M,M,M,M,M,M,M,M,M,M,53.60,KBAM 222315Z AUTO 00000KT 10SM CLR 12/01 A2993 RMK AO1,M
TMT,2023-12-22 23:15,-117.1971,39.4643,1749.34,49.50,31.30,49.33,260.00,3.00,0.00,29.94,M,10.00,M,BKN,M,M,M,6000.00,M,M,M,M,M,M,M,M,M,M,48.69,KTMT 222315Z AUTO 26003KT 10SM BKN060 10/00 A2994 RMK AO2 T00971004,M
LSV,2023-12-22 23:16,-115.0343,36.2362,570.00,53.60,50.00,87.56,0.00,0.00,0.00,29.91,1012.20,10.00,M,OVC,M,M,M,5000.00,M,M,M,M,M,M,M,M,M,M,53.60,KLSV 222316Z AUTO 00000KT 10SM OVC050 12/10 A2991 RMK AO2 RAE03DZB03E05 SLP122 $,M
10U,2023-12-22 23:20,-116.1876,41.9532,1637.00,50.00,32.00,49.81,240.00,5.00,0.00,29.93,M,10.00,M,BKN,BKN,M,M,6000.00,7000.00,M,M,M,M,M,M,M,M,M,50.00,K10U 222320Z AUTO 24005KT 10SM BKN060 BKN070 10/00 A2993 RMK AO2,M
LSV,2023-12-22 23:29,-115.0343,36.2362,570.00,53.60,50.00,87.56,0.00,0.00,0.00,29.91,1012.20,9.00,M,FEW,OVC,M,M,3800.00,5000.00,M,M,-RA,M,M,M,M,M,M,53.60,KLSV 222329Z AUTO 00000KT 9SM -RA FEW038 OVC050 12/10 A2991 RMK AO2 RAE03DZB03E05RAB29 SLP122 $,M
BVU,2023-12-22 23:35,-114.8611,35.9475,671.00,55.40,44.60,66.91,350.00,7.00,0.00,29.92,M,10.00,M,BKN,OVC,M,M,5000.00,6500.00,M,M,M,M,M,M,M,M,M,55.40,KBVU 222335Z AUTO 35007KT 10SM BKN050 OVC065 13/07 A2992 RMK AO2,M
CXP,2023-12-22 23:35,-119.7326,39.1923,1431.00,51.80,35.60,53.81,220.00,3.00,0.00,29.96,M,10.00,M,CLR,M,M,M,M,M,M,M,M,M,M,M,M,M,M,51.80,KCXP 222335Z AUTO 22003KT 10SM CLR 11/02 A2996 RMK AO2,M
RTS,2023-12-22 23:35,-119.8764,39.6682,1539.00,51.80,28.40,40.25,300.00,8.00,0.00,29.96,M,10.00,M,CLR,M,M,M,M,M,M,M,M,M,M,M,M,M,M,51.80,KRTS 222335Z AUTO 30008KT 10SM CLR 11/M02 A2996 RMK AO2,M
05U,2023-12-22 23:35,-116.0051,39.6042,1811.23,48.20,32.00,53.27,330.00,4.00,0.00,29.95,M,10.00,M,M,M,M,M,M,M,M,M,M,M,M,M,M,M,M,46.34,K05U 222335Z AUTO 33004KT 10SM 09/M00 A2995 RMK A01,M
MEV,2023-12-22 23:35,-119.7500,38.9963,1441.42,48.20,37.40,66.05,0.00,0.00,0.00,29.96,M,10.00,M,CLR,M,M,M,M,M,M,M,M,M,M,M,M,M,M,48.20,KMEV 222335Z AUTO 00000KT 10SM CLR 09/03 A2996 RMK AO2,M
BAM,2023-12-22 23:35,-116.8743,40.5990,1382.36,53.60,33.80,46.88,0.00,0.00,0.00,29.93,M,10.00,M,CLR,M,M,M,M,M,M,M,M,M,M,M,M,M,M,53.60,KBAM 222335Z AUTO 00000KT 10SM CLR 12/01 A2993 RMK AO1,M
HTH,2023-12-22 23:35,-118.6315,38.5448,1282.89,50.00,35.60,57.52,310.00,6.00,0.00,29.95,M,10.00,M,CLR,M,M,M,M,M,M,M,M,M,M,M,M,M,M,50.00,KHTH 222335Z AUTO 31006KT 10SM CLR 10/02 A2995 RMK A01,M
TMT,2023-12-22 23:35,-117.1971,39.4643,1749.34,50.00,31.30,48.42,230.00,4.00,0.00,29.94,M,10.00,M,BKN,M,M,M,6000.00,M,M,M,M,M,M,M,M,M,M,50.00,KTMT 222335Z AUTO 23004KT 10SM BKN060 10/00 A2994 RMK AO2 T00991004,M
10U,2023-12-22 23:40,-116.1876,41.9532,1637.00,46.40,33.80,61.28,250.00,5.00,0.00,29.93,M,10.00,M,FEW,OVC,M,M,5000.00,6000.00,M,M,M,M,M,M,M,M,M,43.50,K10U 222340Z AUTO 25005KT 10SM FEW050 OVC060 08/01 A2993 RMK AO2,M
INS,2023-12-22 23:44,-115.6733,36.5872,955.00,50.00,46.40,87.37,0.00,0.00,0.00,29.94,1012.90,10.00,M,OVC,M,M,M,4700.00,M,M,M,M,M,M,M,M,M,M,50.00,KINS 222344Z AUTO 00000KT 10SM OVC047 10/08 A2994 RMK AO2 RAE40DZB40E44 SLP129 $,M
P68,2023-12-22 23:53,-116.0056,39.6014,1993.00,46.00,32.00,57.87,0.00,0.00,0.00,29.93,1012.00,M,M,M,M,M,M,M,M,M,M,M,M,M,M,M,M,M,46.00,KP68 222353Z AUTO 00000KT 08/00 A2993 RMK AO1 SLP120 T00780000 10106 20044 56015,M
DRA,2023-12-22 23:53,-116.0278,36.6206,1009.00,M,M,M,M,M,0.00,29.93,M,M,M,M,M,M,M,M,M,M,M,M,M,M,M,M,M,M,M,KDRA 222353Z AUTO A2993 RMK AO2 SLPNO 57006 PWINO $,M
ELY,2023-12-22 23:53,-114.8453,39.2950,1909.00,46.00,30.00,53.37,M,M,0.00,29.94,1012.10,10.00,M,CLR,M,M,M,M,M,M,M,M,M,M,M,M,M,M,M,KELY 222353Z AUTO 10SM CLR 08/M01 A2994 RMK AO2 SLP121 T00781011 10100 20039 56015 $,M
VGT,2023-12-22 23:53,-115.1933,36.2111,667.00,54.00,50.00,86.29,10.00,5.00,0.04,29.93,1014.90,4.00,M,OVC,M,M,M,5000.00,M,M,M,RA BR,M,M,M,M,M,M,54.00,KVGT 222353Z 01005KT 4SM RA BR OVC050 12/10 A2993 RMK AO2 SLP149 P0004 60013 T01220100 10133 20122 56004,M
LOL,2023-12-22 23:53,-118.5701,40.0684,1192.43,50.00,35.00,56.16,180.00,7.00,0.00,29.93,1014.60,10.00,M,CLR,M,M,M,M,M,M,M,M,M,M,M,M,M,M,50.00,KLOL 222353Z AUTO 18007KT 10SM CLR 10/02 A2993 RMK AO2 SLP146 T01000017 10117 20028 55009,M
BVU,2023-12-22 23:55,-114.8611,35.9475,671.00,53.60,46.40,76.50,350.00,10.00,0.00,29.91,M,10.00,M,OVC,M,M,M,5500.00,M,M,M,M,M,M,M,M,M,M,53.60,KBVU 222355Z AUTO 35010KT 10SM OVC055 12/08 A2991 RMK AO2,M
CXP,2023-12-22 23:55,-119.7326,39.1923,1431.00,51.80,33.80,50.08,220.00,4.00,0.00,29.96,M,10.00,M,CLR,M,M,M,M,M,M,M,M,M,M,M,M,M,M,51.80,KCXP 222355Z AUTO 22004KT 10SM CLR 11/01 A2996 RMK AO2,M
INS,2023-12-22 23:55,-115.6733,36.5872,955.00,50.00,46.80,88.70,0.00,0.00,0.01,29.94,1012.70,10.00,M,BKN,OVC,M,M,3500.00,4900.00,M,M,M,M,M,M,M,M,M,50.00,KINS 222355Z AUTO 00000KT 10SM BKN035 OVC049 10/08 A2994 RMK AO2 RAE40DZB40E44 SLP127 P0001 60002 T01010082 10117 20089 57006 $,M
RNO,2023-12-22 23:55,-119.7711,39.4839,1341.00,53.00,34.00,48.30,190.00,3.00,0.00,29.94,1012.90,10.00,M,FEW,M,M,M,5000.00,M,M,M,M,M,M,M,M,M,M,53.00,KRNO 222355Z 19003KT 10SM FEW050 12/01 A2994 RMK AO2 SLP129 T01170011 10122 20000 56013 $,M
LSV,2023-12-22 23:55,-115.0343,36.2362,570.00,53.80,50.40,88.22,240.00,3.00,0.03,29.91,1012.20,5.00,M,FEW,M,M,M,4500.00,M,M,M,-RA BR,M,M,M,M,M,M,53.80,KLSV 222355Z AUTO 24003KT 5SM -RA BR FEW045 12/10 A2991 RMK AO2 RAE03DZB03E05RAB29 SLP122 P0003 60011 T01210102 10152 20119 56003 $,M
RTS,2023-12-22 23:55,-119.8764,39.6682,1539.00,50.00,30.20,46.31,290.00,7.00,0.00,29.95,M,10.00,M,CLR,M,M,M,M,M,M,M,M,M,M,M,M,M,M,50.00,KRTS 222355Z AUTO 29007KT 10SM CLR 10/M01 A2995 RMK AO2,M
05U,2023-12-22 23:55,-116.0051,39.6042,1811.23,48.20,30.20,49.53,0.00,0.00,0.00,29.95,M,10.00,M,M,M,M,M,M,M,M,M,M,M,M,M,M,M,M,48.20,K05U 222355Z AUTO 00000KT 10SM 09/M01 A2995 RMK A01,M
MEV,2023-12-22 23:55,-119.7500,38.9963,1441.42,48.20,37.40,66.05,0.00,0.00,0.00,29.96,M,10.00,M,CLR,M,M,M,M,M,M,M,M,M,M,M,M,M,M,48.20,KMEV 222355Z AUTO 00000KT 10SM CLR 09/03 A2996 RMK AO2,M
BAM,2023-12-22 23:55,-116.8743,40.5990,1382.36,53.60,33.80,46.88,0.00,0.00,0.00,29.93,M,10.00,M,SCT,M,M,M,7500.00,M,M,M,M,M,M,M,M,M,M,53.60,KBAM 222355Z AUTO 00000KT 10SM SCT075 12/01 A2993 RMK AO1,M
HTH,2023-12-22 23:55,-118.6315,38.5448,1282.89,50.00,33.80,53.54,230.00,4.00,0.00,29.95,M,10.00,M,CLR,M,M,M,M,M,M,M,M,M,M,M,M,M,M,50.00,KHTH 222355Z AUTO 23004KT 10SM CLR 10/01 A2995 RMK A01,M
TMT,2023-12-22 23:55,-117.1971,39.4643,1749.34,49.60,29.70,46.05,230.00,4.00,0.00,29.94,M,10.00,M,SCT,OVC,M,M,6000.00,7000.00,M,M,M,M,M,M,M,M,M,47.97,KTMT 222355Z AUTO 23004KT 10SM SCT060 OVC070 10/M01 A2994 RMK AO2 T00981013 10108 20016,M
EKO,2023-12-22 23:56,-115.7860,40.8242,1367.00,45.00,35.00,67.78,230.00,3.00,0.00,29.92,1013.80,10.00,M,CLR,M,M,M,M,M,M,M,M,M,M,M,M,M,M,43.55,KEKO 222356Z AUTO 23003KT 10SM CLR 07/02 A2992 RMK AO2 SLP138 T00720017 10100 20022 56016 PWINO $,M
WMC,2023-12-22 23:56,-117.8072,40.9019,1315.00,51.00,33.00,49.96,240.00,8.00,0.00,29.93,1013.50,10.00,M,FEW,M,M,M,5500.00,M,M,M,M,M,M,M,M,M,M,51.00,KWMC 222356Z AUTO 24008KT 10SM FEW055 11/01 A2993 RMK AO2 SLP135 T01060006 10128 20061 55007,M
NFL,2023-12-22 23:56,-118.7010,39.4166,1199.00,54.00,35.00,48.46,210.00,3.00,0.00,29.93,1010.90,10.00,M,FEW,SCT,M,M,5000.00,20000.00,M,M,M,M,M,M,M,M,M,54.00,KNFL 222356Z AUTO 21003KT 10SM FEW050 SCT200 12/02 A2993 RMK AO2 SLP109 T01220017 10128 20056 55008,M
HND,2023-12-22 23:56,-115.1344,35.9729,742.79,52.00,47.00,82.99,260.00,3.00,T,29.95,1015.80,10.00,M,FEW,SCT,BKN,M,2900.00,8000.00,10000.00,M,M,M,M,M,M,M,M,52.00,KHND 222356Z 26003KT 10SM FEW029 SCT080 BKN100 11/08 A2995 RMK AO2 RAE03 SLP158 P0000 60011 T01110083 10122 20106 56007,M
TPH,2023-12-22 23:56,-117.0904,38.0505,1654.00,49.00,35.00,58.30,250.00,3.00,0.00,29.96,1013.00,10.00,M,CLR,M,M,M,M,M,M,M,M,M,M,M,M,M,M,48.12,KTPH 222356Z AUTO 25003KT 10SM CLR 09/02 A2996 RMK AO2 SLP130 T00940017 10100 20067 55010,M
LAS,2023-12-22 23:56,-115.1634,36.0719,663.00,55.00,48.00,77.21,320.00,6.00,T,29.93,1013.00,10.00,M,BKN,OVC,M,M,4600.00,6000.00,M,M,M,M,M,M,M,M,M,55.00,KLAS 222356Z 32006KT 10SM BKN046 OVC060 13/09 A2993 RMK AO2 RAB04E18 SLP130 P0000 60005 T01280089 10133 20122 55006,M
