station,valid,lon,lat,elevation,tmpf,dwpf,relh,drct,sknt,p01i,alti,mslp,vsby,gust,skyc1,skyc2,skyc3,skyc4,skyl1,skyl2,skyl3,skyl4,wxcodes,ice_accretion_1hr,ice_accretion_3hr,ice_accretion_6hr,peak_wind_gust,peak_wind_drct,peak_wind_time,feel,metar,snowdepth
05U,2024-08-03 00:10,-116.0051,39.6042,1811.23,93.20,26.60,9.21,0.00,0.00,0.00,30.26,M,10.00,M,CLR,M,M,M,M,M,M,M,M,M,M,M,M,M,M,87.72,K05U 030010Z AUTO 00000KT 10SM CLR 34/M03 A3026 RMK A01,M
BVU,2024-08-03 00:15,-114.8611,35.9475,671.00,102.20,51.80,18.72,M,5.00,0.00,29.97,M,10.00,M,CLR,M,M,M,M,M,M,M,M,M,M,M,M,M,M,99.80,KBVU 030015Z AUTO VRB05KT 10SM CLR 39/11 A2997 RMK AO2,M
CXP,2024-08-03 00:15,-119.7326,39.1923,1431.00,96.80,35.60,11.86,M,6.00,0.00,30.18,M,10.00,14.00,CLR,M,M,M,M,M,M,M,M,M,M,M,M,M,M,91.72,KCXP 030015Z AUTO VRB06G14KT 10SM CLR 36/02 A3018 RMK AO2,M
RTS,2024-08-03 00:15,-119.8764,39.6682,1539.00,93.20,33.80,12.34,360.00,14.00,0.00,30.22,M,10.00,M,CLR,M,M,M,M,M,M,M,M,M,M,M,M,M,M,88.55,KRTS 030015Z AUTO 36014KT 10SM CLR 34/01 A3022 RMK AO2,M
MEV,2024-08-03 00:15,-119.7500,38.9963,1441.42,93.20,39.20,15.27,260.00,11.00,0.00,30.17,M,10.00,M,CLR,M,M,M,M,M,M,M,M,M,M,M,M,M,M,88.92,KMEV 030015Z AUTO 26011KT 10SM CLR 34/04 A3017 RMK AO2,M
BAM,2024-08-03 00:15,-116.8743,40.5990,1382.36,100.40,32.00,9.21,340.00,3.00,0.00,30.13,M,10.00,M,CLR,M,M,M,M,M,M,M,M,M,M,M,M,M,M,94.21,KBAM 030015Z AUTO 34003KT 10SM CLR 38/00 A3013 RMK AO1,M
HTH,2024-08-03 00:15,-118.6315,38.5448,1282.89,95.00,37.40,13.46,190.00,16.00,0.00,30.15,M,10.00,24.00,CLR,M,M,M,M,M,M,M,M,M,M,M,M,M,M,90.46,KHTH 030015Z AUTO 19016G24KT 10SM CLR 35/03 A3015 RMK A01,M
10U,2024-08-03 00:15,-116.1876,41.9532,1637.00,98.60,28.40,8.40,80.00,6.00,0.00,30.21,M,10.00,11.00,CLR,M,M,M,M,M,M,M,M,M,M,M,M,M,M,92.25,K10U 030015Z AUTO 08006G11KT 10SM CLR 37/M02 A3021 RMK AO2,M
TMT,2024-08-03 00:15,-117.1971,39.4643,1749.34,91.60,34.50,13.33,310.00,5.00,0.00,30.24,M,10.00,M,SCT,M,M,M,12000.00,M,M,M,M,M,M,M,M,M,M,87.32,KTMT 030015Z AUTO 31005KT 10SM SCT120 33/01 A3024 RMK AO2 T03310014,M
05U,2024-08-03 00:30,-116.0051,39.6042,1811.23,93.20,26.60,9.21,0.00,0.00,0.00,30.25,M,10.00,M,CLR,M,M,M,M,M,M,M,M,M,M,M,M,M,M,87.72,K05U 030030Z AUTO 00000KT 10SM CLR 34/M03 A3025 RMK A01,M
MEV,2024-08-03 00:30,-119.7500,38.9963,1441.42,87.80,42.80,20.79,180.00,29.00,0.00,30.23,M,8.00,37.00,FEW,M,M,M,11000.00,M,M,M,-RA,M,M,M,M,M,M,84.40,KMEV 030030Z AUTO 18029G37KT 8SM -RA FEW110 31/06 A3023 RMK AO2 TSNO,M
BVU,2024-08-03 00:35,-114.8611,35.9475,671.00,100.40,51.80,19.76,40.00,6.00,0.00,29.96,M,10.00,M,CLR,M,M,M,M,M,M,M,M,M,M,M,M,M,M,97.90,KBVU 030035Z AUTO 04006KT 10SM CLR 38/11 A2996 RMK AO2,M
CXP,2024-08-03 00:35,-119.7326,39.1923,1431.00,96.80,35.60,11.86,340.00,10.00,0.00,30.18,M,10.00,M,CLR,M,M,M,M,M,M,M,M,M,M,M,M,M,M,91.72,KCXP 030035Z AUTO 34010KT 10SM CLR 36/02 A3018 RMK AO2 LTG DSNT S,M
RTS,2024-08-03 00:35,-119.8764,39.6682,1539.00,91.40,33.80,13.05,360.00,15.00,0.00,30.23,M,10.00,M,CLR,M,M,M,M,M,M,M,M,M,M,M,M,M,M,87.13,KRTS 030035Z AUTO 36015KT 10SM CLR 33/01 A3023 RMK AO2,M
BAM,2024-08-03 00:35,-116.8743,40.5990,1382.36,102.20,32.00,8.72,10.00,7.00,0.00,30.12,M,10.00,M,CLR,M,M,M,M,M,M,M,M,M,M,M,M,M,M,95.74,KBAM 030035Z AUTO 01007KT 10SM CLR 39/00 A3012 RMK AO1,M
HTH,2024-08-03 00:35,-118.6315,38.5448,1282.89,93.20,37.40,14.23,160.00,18.00,0.00,30.14,M,10.00,M,CLR,M,M,M,M,M,M,M,M,M,M,M,M,M,M,88.83,KHTH 030035Z AUTO 16018KT 10SM CLR 34/03 A3014 RMK A01,M
10U,2024-08-03 00:35,-116.1876,41.9532,1637.00,98.60,30.20,9.04,60.00,8.00,0.00,30.21,M,10.00,M,CLR,M,M,M,M,M,M,M,M,M,M,M,M,M,M,92.46,K10U 030035Z AUTO 06008KT 10SM CLR 37/M01 A3021 RMK AO2,M
TMT,2024-08-03 00:35,-117.1971,39.4643,1749.34,90.00,37.20,15.60,200.00,5.00,0.00,30.25,M,10.00,M,SCT,M,M,M,12000.00,M,M,M,M,M,M,M,M,M,M,86.00,KTMT 030035Z AUTO 20005KT 10SM SCT120 32/03 A3025 RMK AO2 T03230029,M
P68,2024-08-03 00:53,-116.0056,39.6014,1993.00,94.00,27.00,9.13,110.00,4.00,0.00,30.22,1014.00,M,M,M,M,M,M,M,M,M,M,M,M,M,M,M,M,M,88.36,KP68 030053Z AUTO 11004KT 34/M03 A3022 RMK AO1 SLP140 T03441028,M
DRA,2024-08-03 00:53,-116.0278,36.6206,1009.00,95.00,52.00,23.47,0.00,0.00,0.00,30.07,1012.40,10.00,M,CLR,M,M,M,M,M,M,M,M,M,M,M,M,M,M,92.31,KDRA 030053Z AUTO 00000KT 10SM CLR 35/11 A3007 RMK AO2 SLP124 T03500111,M
ELY,2024-08-03 00:53,-114.8453,39.2950,1909.00,92.00,28.00,10.12,M,4.00,0.00,30.27,1014.40,10.00,M,CLR,M,M,M,M,M,M,M,M,M,M,M,M,M,M,86.94,KELY 030053Z AUTO VRB04KT 10SM CLR 33/M02 A3027 RMK AO2 SLP144 T03331022,M
VGT,2024-08-03 00:53,-115.1933,36.2111,667.00,102.00,53.00,19.68,190.00,5.00,0.00,29.97,1013.20,10.00,M,CLR,M,M,M,M,M,M,M,M,M,M,M,M,M,M,99.96,KVGT 030053Z 19005KT 10SM CLR 39/12 A2997 RMK AO2 SLP132 T03890117,M
LOL,2024-08-03 00:53,-118.5701,40.0684,1192.43,99.00,29.00,8.50,0.00,0.00,0.00,30.07,1014.00,10.00,M,CLR,M,M,M,M,M,M,M,M,M,M,M,M,M,M,92.65,KLOL 030053Z AUTO 00000KT 10SM CLR 37/M02 A3007 RMK AO2 SLP140 T03721017,M
NFL,2024-08-03 00:54,-118.7010,39.4166,1199.00,99.00,39.00,12.68,20.00,5.00,0.00,30.08,1015.50,9.00,M,SCT,BKN,OVC,M,8000.00,12000.00,25000.00,M,M,M,M,M,M,M,M,94.19,KNFL 030054Z 02005KT 9SM SCT080 BKN120 OVC250 37/04 A3008 RMK AO2 SLP155 T03720039,M
INS,2024-08-03 00:55,-115.6733,36.5872,955.00,96.00,49.60,20.82,220.00,3.00,0.00,30.05,1011.40,10.00,M,CLR,M,M,M,M,M,M,M,M,M,M,M,M,M,M,92.81,KINS 030055Z AUTO 22003KT 10SM CLR 36/10 A3005 RMK AO2 SLP114 T03550098 $,M
BVU,2024-08-03 00:55,-114.8611,35.9475,671.00,100.40,51.80,19.76,M,4.00,0.00,29.96,M,10.00,M,CLR,M,M,M,M,M,M,M,M,M,M,M,M,M,M,97.90,KBVU 030055Z AUTO VRB04KT 10SM CLR 38/11 A2996 RMK AO2,M
CXP,2024-08-03 00:55,-119.7326,39.1923,1431.00,87.80,53.60,31.17,170.00,20.00,0.00,30.25,M,1.50,34.00,SCT,SCT,SCT,M,400.00,1300.00,11000.00,M,VCTS RA HZ,M,M,M,M,M,M,85.72,KCXP 030055Z AUTO 17020G34KT 1 1/2SM VCTS RA HZ SCT004 SCT013 SCT110 31/12 A3025 RMK AO2 LTG DSNT N AND SW,M
RTS,2024-08-03 00:55,-119.8764,39.6682,1539.00,91.40,33.80,13.05,330.00,16.00,0.00,30.23,M,10.00,22.00,CLR,M,M,M,M,M,M,M,M,M,M,M,M,M,M,87.13,KRTS 030055Z AUTO 33016G22KT 10SM CLR 33/01 A3023 RMK AO2,M
05U,2024-08-03 00:55,-116.0051,39.6042,1811.23,93.20,28.40,9.91,0.00,0.00,0.00,30.25,M,10.00,M,CLR,M,M,M,M,M,M,M,M,M,M,M,M,M,M,87.89,K05U 030055Z AUTO 00000KT 10SM CLR 34/M02 A3025 RMK A01,M
MEV,2024-08-03 00:55,-119.7500,38.9963,1441.42,68.00,57.20,68.35,210.00,31.00,0.02,30.25,M,2.00,44.00,FEW,SCT,BKN,M,300.00,5000.00,12000.00,M,RA HZ,M,M,M,M,M,M,68.00,KMEV 030055Z AUTO 21031G44KT 2SM RA HZ FEW003 SCT050 BKN120 20/14 A3025 RMK AO2 LTG DSNT ALQDS P0002 VIS 3/4V5,M
BAM,2024-08-03 00:55,-116.8743,40.5990,1382.36,100.40,32.00,9.21,10.00,5.00,0.00,30.12,M,10.00,M,CLR,M,M,M,M,M,M,M,M,M,M,M,M,M,M,94.21,KBAM 030055Z AUTO 01005KT 10SM CLR 38/00 A3012 RMK AO1,M
HTH,2024-08-03 00:55,-118.6315,38.5448,1282.89,95.00,35.60,12.53,220.00,6.00,0.00,30.13,M,10.00,M,CLR,M,M,M,M,M,M,M,M,M,M,M,M,M,M,90.25,KHTH 030055Z AUTO 22006KT 10SM CLR 35/02 A3013 RMK A01,M
10U,2024-08-03 00:55,-116.1876,41.9532,1637.00,96.80,30.20,9.55,40.00,6.00,0.00,30.21,M,10.00,M,CLR,M,M,M,M,M,M,M,M,M,M,M,M,M,M,90.96,K10U 030055Z AUTO 04006KT 10SM CLR 36/M01 A3021 RMK AO2,M
TMT,2024-08-03 00:55,-117.1971,39.4643,1749.34,90.50,36.00,14.65,220.00,6.00,0.00,30.25,M,10.00,M,SCT,M,M,M,11000.00,M,M,M,M,M,M,M,M,M,M,86.40,KTMT 030055Z AUTO 22006KT 10SM SCT110 33/02 A3025 RMK AO2 T03250023,M
RNO,2024-08-03 00:55,-119.7711,39.4839,1341.00,98.00,39.00,13.07,350.00,14.00,0.00,30.14,1014.00,10.00,21.00,SCT,BKN,M,M,10000.00,17000.00,M,M,M,M,M,M,M,M,M,93.33,KRNO 030055Z COR 35014G21KT 10SM SCT100 BKN170 37/04 A3014 RMK AO2 SLP140 T03670039,M
LSV,2024-08-03 00:55,-115.0343,36.2362,570.00,103.30,50.00,16.94,140.00,5.00,0.00,29.92,1009.80,10.00,M,CLR,M,M,M,M,M,M,M,M,M,M,M,M,M,M,100.42,KLSV 030055Z AUTO 14005KT 10SM CLR 40/10 A2992 RMK AO2 SLP098 T03960100 $,M
EKO,2024-08-03 00:56,-115.7860,40.8242,1367.00,100.00,27.00,7.60,M,M,0.00,30.16,1014.70,10.00,M,CLR,M,M,M,M,M,M,M,M,M,M,M,M,M,M,93.28,KEKO 030056Z AUTO 10SM CLR 38/M03 A3016 RMK AO2 SLP147 T03781028,M
WMC,2024-08-03 00:56,-117.8072,40.9019,1315.00,103.00,28.00,7.24,0.00,0.00,0.00,30.09,1013.40,10.00,M,CLR,M,M,M,M,M,M,M,M,M,M,M,M,M,M,95.91,KWMC 030056Z AUTO 00000KT 10SM CLR 39/M02 A3009 RMK AO2 SLP134 T03941022,M
HND,2024-08-03 00:56,-115.1344,35.9729,742.79,101.00,56.00,22.63,M,5.00,0.00,30.01,1014.20,10.00,14.00,CLR,M,M,M,M,M,M,M,M,M,M,M,M,M,M,99.95,KHND 030056Z VRB05G14KT 10SM CLR 38/13 A3001 RMK AO2 SLP142 T03830133,M
TPH,2024-08-03 00:56,-117.0904,38.0505,1654.00,86.00,45.00,23.95,320.00,5.00,T,30.24,1015.50,10.00,M,CLR,M,M,M,M,M,M,M,M,M,M,M,M,M,M,83.10,KTPH 030056Z AUTO 32005KT 10SM CLR 30/07 A3024 RMK AO2 RAE06 SLP155 P0000 T03000072,M
LAS,2024-08-03 00:56,-115.1634,36.0719,663.00,104.00,53.00,18.54,0.00,0.00,0.00,29.99,1012.00,10.00,M,FEW,FEW,SCT,M,10000.00,14000.00,20000.00,M,M,M,M,M,M,M,M,102.10,KLAS 030056Z 00000KT 10SM FEW100 FEW140 SCT200 40/12 A2999 RMK AO2 SLP120 T04000117,M
BVU,2024-08-03 01:15,-114.8611,35.9475,671.00,100.40,51.80,19.76,60.00,6.00,0.00,29.96,M,10.00,M,CLR,M,M,M,M,M,M,M,M,M,M,M,M,M,M,97.90,KBVU 030115Z AUTO 06006KT 10SM CLR 38/11 A2996 RMK AO2,M
CXP,2024-08-03 01:15,-119.7326,39.1923,1431.00,73.40,57.20,56.88,170.00,8.00,0.00,30.27,M,6.00,21.00,FEW,FEW,SCT,M,600.00,4800.00,7500.00,M,-RA HZ,M,M,M,M,M,M,73.40,KCXP 030115Z AUTO 17008G21KT 6SM -RA HZ FEW006 FEW048 SCT075 23/14 A3027 RMK AO2,M
RTS,2024-08-03 01:15,-119.8764,39.6682,1539.00,91.40,33.80,13.05,290.00,13.00,0.00,30.23,M,10.00,19.00,CLR,M,M,M,M,M,M,M,M,M,M,M,M,M,M,87.13,KRTS 030115Z AUTO 29013G19KT 10SM CLR 33/01 A3023 RMK AO2,M
05U,2024-08-03 01:15,-116.0051,39.6042,1811.23,93.20,28.40,9.91,0.00,0.00,0.00,30.25,M,10.00,M,CLR,M,M,M,M,M,M,M,M,M,M,M,M,M,M,87.89,K05U 030115Z AUTO 00000KT 10SM CLR 34/M02 A3025 RMK A01,M
MEV,2024-08-03 01:15,-119.7500,38.9963,1441.42,71.60,55.40,56.63,250.00,10.00,0.00,30.25,M,10.00,21.00,CLR,M,M,M,M,M,M,M,M,M,M,M,M,M,M,71.60,KMEV 030115Z AUTO 25010G21KT 10SM CLR 22/13 A3025 RMK AO2,M
BAM,2024-08-03 01:15,-116.8743,40.5990,1382.36,100.40,33.80,9.90,10.00,6.00,0.00,30.12,M,10.00,M,CLR,M,M,M,M,M,M,M,M,M,M,M,M,M,M,94.47,KBAM 030115Z AUTO 01006KT 10SM CLR 38/01 A3012 RMK AO1,M
HTH,2024-08-03 01:15,-118.6315,38.5448,1282.89,93.20,39.20,15.27,210.00,12.00,0.00,30.13,M,10.00,M,CLR,M,M,M,M,M,M,M,M,M,M,M,M,M,M,88.92,KHTH 030115Z AUTO 21012KT 10SM CLR 34/04 A3013 RMK A01,M
10U,2024-08-03 01:15,-116.1876,41.9532,1637.00,95.00,33.80,11.67,50.00,7.00,0.00,30.20,M,10.00,M,CLR,M,M,M,M,M,M,M,M,M,M,M,M,M,M,89.97,K10U 030115Z AUTO 05007KT 10SM CLR 35/01 A3020 RMK AO2,M
TMT,2024-08-03 01:15,-117.1971,39.4643,1749.34,89.20,39.20,17.30,230.00,8.00,0.00,30.25,M,10.00,M,CLR,M,M,M,M,M,M,M,M,M,M,M,M,M,M,85.39,KTMT 030115Z AUTO 23008KT 10SM CLR 32/04 A3025 RMK AO2 T03180040,M
BVU,2024-08-03 01:35,-114.8611,35.9475,671.00,100.40,51.80,19.76,40.00,4.00,0.00,29.96,M,10.00,M,CLR,M,M,M,M,M,M,M,M,M,M,M,M,M,M,97.90,KBVU 030135Z AUTO 04004KT 10SM CLR 38/11 A2996 RMK AO2,M
CXP,2024-08-03 01:35,-119.7326,39.1923,1431.00,75.20,55.40,50.17,M,5.00,0.00,30.27,M,10.00,M,FEW,FEW,SCT,M,4900.00,6500.00,12000.00,M,M,M,M,M,M,M,M,75.20,KCXP 030135Z AUTO VRB05KT 10SM FEW049 FEW065 SCT120 24/13 A3027 RMK AO2,M
RTS,2024-08-03 01:35,-119.8764,39.6682,1539.00,89.60,33.80,13.80,350.00,16.00,0.00,30.23,M,10.00,21.00,CLR,M,M,M,M,M,M,M,M,M,M,M,M,M,M,85.59,KRTS 030135Z AUTO 35016G21KT 10SM CLR 32/01 A3023 RMK AO2,M
05U,2024-08-03 01:35,-116.0051,39.6042,1811.23,91.40,30.20,11.28,0.00,0.00,0.00,30.25,M,10.00,M,CLR,M,M,M,M,M,M,M,M,M,M,M,M,M,M,86.71,K05U 030135Z AUTO 00000KT 10SM CLR 33/M01 A3025 RMK A01,M
MEV,2024-08-03 01:35,-119.7500,38.9963,1441.42,77.00,50.00,38.74,90.00,7.00,0.00,30.25,M,10.00,13.00,CLR,M,M,M,M,M,M,M,M,M,M,M,M,M,M,77.00,KMEV 030135Z AUTO 09007G13KT 030V200 10SM CLR 25/10 A3025 RMK AO2,M
HTH,2024-08-03 01:35,-118.6315,38.5448,1282.89,93.20,37.40,14.23,200.00,7.00,0.00,30.14,M,10.00,14.00,CLR,M,M,M,M,M,M,M,M,M,M,M,M,M,M,88.83,KHTH 030135Z AUTO 20007G14KT 10SM CLR 34/03 A3014 RMK A01,M
10U,2024-08-03 01:35,-116.1876,41.9532,1637.00,91.40,33.80,13.05,50.00,8.00,0.00,30.20,M,10.00,M,CLR,M,M,M,M,M,M,M,M,M,M,M,M,M,M,87.13,K10U 030135Z AUTO 05008KT 10SM CLR 33/01 A3020 RMK AO2,M
BAM,2024-08-03 01:35,-116.8743,40.5990,1382.36,98.60,39.20,12.94,340.00,5.00,0.00,30.11,M,10.00,M,CLR,M,M,M,M,M,M,M,M,M,M,M,M,M,M,93.89,KBAM 030135Z AUTO 34005KT 10SM CLR 37/04 A3011 RMK AO1,M
TMT,2024-08-03 01:35,-117.1971,39.4643,1749.34,89.00,38.00,16.61,220.00,7.00,0.00,30.25,M,10.00,M,CLR,M,M,M,M,M,M,M,M,M,M,M,M,M,M,85.18,KTMT 030135Z AUTO 22007KT 10SM CLR 32/03 A3025 RMK AO2 T03160033,M
P68,2024-08-03 01:53,-116.0056,39.6014,1993.00,91.00,31.00,11.80,200.00,4.00,0.00,30.22,1014.00,M,M,M,M,M,M,M,M,M,M,M,M,M,M,M,M,M,86.49,KP68 030153Z AUTO 20004KT 33/M01 A3022 RMK AO1 SLP140 T03281006,M
DRA,2024-08-03 01:53,-116.0278,36.6206,1009.00,94.00,52.00,24.20,240.00,6.00,0.00,30.07,1012.40,10.00,M,CLR,M,M,M,M,M,M,M,M,M,M,M,M,M,M,91.30,KDRA 030153Z AUTO 24006KT 10SM CLR 34/11 A3007 RMK AO2 SLP124 T03440111,M
ELY,2024-08-03 01:53,-114.8453,39.2950,1909.00,89.00,28.00,11.12,160.00,3.00,0.00,30.27,1013.90,10.00,M,CLR,M,M,M,M,M,M,M,M,M,M,M,M,M,M,84.69,KELY 030153Z AUTO 16003KT 10SM CLR 32/M02 A3027 RMK AO2 SLP139 T03171022,M
VGT,2024-08-03 01:53,-115.1933,36.2111,667.00,102.00,53.00,19.68,120.00,8.00,0.00,29.97,1013.10,10.00,M,CLR,M,M,M,M,M,M,M,M,M,M,M,M,M,M,99.96,KVGT 030153Z 12008KT 10SM CLR 39/12 A2997 RMK AO2 SLP131 T03890117,M
LOL,2024-08-03 01:53,-118.5701,40.0684,1192.43,97.00,39.00,13.48,180.00,6.00,0.00,30.06,1013.60,10.00,M,CLR,M,M,M,M,M,M,M,M,M,M,M,M,M,M,92.40,KLOL 030153Z AUTO 18006KT 10SM CLR 36/04 A3006 RMK AO2 SLP136 T03610039,M
NFL,2024-08-03 01:54,-118.7010,39.4166,1199.00,97.00,41.00,14.57,160.00,5.00,0.00,30.09,1015.80,9.00,M,SCT,BKN,OVC,M,8000.00,12000.00,25000.00,M,M,M,M,M,M,M,M,92.58,KNFL 030154Z 16005KT 9SM SCT080 BKN120 OVC250 36/05 A3009 RMK AO2 SLP158 T03610050,M
INS,2024-08-03 01:55,-115.6733,36.5872,955.00,96.40,48.70,19.89,260.00,3.00,0.00,30.04,1011.00,10.00,M,CLR,M,M,M,M,M,M,M,M,M,M,M,M,M,M,93.05,KINS 030155Z AUTO 26003KT 10SM CLR 36/09 A3004 RMK AO2 SLP110 T03580093 $,M
BVU,2024-08-03 01:55,-114.8611,35.9475,671.00,100.40,51.80,19.76,40.00,4.00,0.00,29.97,M,10.00,M,CLR,M,M,M,M,M,M,M,M,M,M,M,M,M,M,97.90,KBVU 030155Z AUTO 04004KT 10SM CLR 38/11 A2997 RMK AO2,M
CXP,2024-08-03 01:55,-119.7326,39.1923,1431.00,77.00,51.80,41.42,0.00,0.00,0.00,30.26,M,10.00,M,CLR,M,M,M,M,M,M,M,M,M,M,M,M,M,M,77.00,KCXP 030155Z AUTO 00000KT 10SM CLR 25/11 A3026 RMK AO2,M
RNO,2024-08-03 01:55,-119.7711,39.4839,1341.00,89.00,46.00,22.61,180.00,19.00,T,30.19,1016.00,10.00,30.00,FEW,BKN,BKN,M,4000.00,10000.00,15000.00,M,-RA,M,M,M,30.00,170.00,2024-08-03 01:54,85.67,KRNO 030155Z 18019G30KT 10SM -RA FEW040 BKN100CB BKN150 32/08 A3019 RMK AO2 PK WND 17030/0154 WSHFT 0136 RAB50 SLP160 CBMAM W MOV NW P0000 T03170078,M
RTS,2024-08-03 01:55,-119.8764,39.6682,1539.00,87.80,33.80,14.61,330.00,12.00,0.00,30.24,M,10.00,M,CLR,M,M,M,M,M,M,M,M,M,M,M,M,M,M,84.10,KRTS 030155Z AUTO 33012KT 10SM CLR 31/01 A3024 RMK AO2,M
05U,2024-08-03 01:55,-116.0051,39.6042,1811.23,89.60,30.20,11.94,0.00,0.00,0.00,30.25,M,10.00,M,CLR,M,M,M,M,M,M,M,M,M,M,M,M,M,M,85.34,K05U 030155Z AUTO 00000KT 10SM CLR 32/M01 A3025 RMK A01,M
MEV,2024-08-03 01:55,-119.7500,38.9963,1441.42,71.60,57.20,60.44,130.00,10.00,0.00,30.26,M,10.00,18.00,CLR,M,M,M,M,M,M,M,M,M,M,M,M,M,M,71.60,KMEV 030155Z AUTO 13010G18KT 10SM CLR 22/14 A3026 RMK AO2,M
BAM,2024-08-03 01:55,-116.8743,40.5990,1382.36,98.60,37.40,12.05,350.00,4.00,0.00,30.11,M,10.00,M,CLR,M,M,M,M,M,M,M,M,M,M,M,M,M,M,93.54,KBAM 030155Z AUTO 35004KT 10SM CLR 37/03 A3011 RMK AO1,M
HTH,2024-08-03 01:55,-118.6315,38.5448,1282.89,91.40,42.80,18.56,220.00,12.00,0.00,30.14,M,10.00,19.00,CLR,M,M,M,M,M,M,M,M,M,M,M,M,M,M,87.52,KHTH 030155Z AUTO 22012G19KT 10SM CLR 33/06 A3014 RMK A01,M
10U,2024-08-03 01:55,-116.1876,41.9532,1637.00,93.20,37.40,14.23,60.00,7.00,0.00,30.20,M,10.00,M,CLR,M,M,M,M,M,M,M,M,M,M,M,M,M,M,88.83,K10U 030155Z AUTO 06007KT 10SM CLR 34/03 A3020 RMK AO2,M
TMT,2024-08-03 01:55,-117.1971,39.4643,1749.34,87.00,39.00,18.41,250.00,9.00,0.00,30.25,M,10.00,M,CLR,M,M,M,M,M,M,M,M,M,M,M,M,M,M,83.57,KTMT 030155Z AUTO 25009KT 10SM CLR 31/04 A3025 RMK AO2 T03050038,M
LSV,2024-08-03 01:55,-115.0343,36.2362,570.00,102.20,49.00,16.87,160.00,7.00,0.00,29.92,1009.90,10.00,M,CLR,M,M,M,M,M,M,M,M,M,M,M,M,M,M,99.02,KLSV 030155Z AUTO 16007KT 10SM CLR 39/10 A2992 RMK AO2 SLP099 T03900095 $,M
EKO,2024-08-03 01:56,-115.7860,40.8242,1367.00,97.00,28.00,8.67,90.00,3.00,0.00,30.15,1013.90,10.00,M,CLR,M,M,M,M,M,M,M,M,M,M,M,M,M,M,90.87,KEKO 030156Z AUTO 09003KT 10SM CLR 36/M02 A3015 RMK AO2 SLP139 T03611022,M
WMC,2024-08-03 01:56,-117.8072,40.9019,1315.00,98.00,31.00,9.51,350.00,3.00,0.00,30.08,1013.10,10.00,M,CLR,M,M,M,M,M,M,M,M,M,M,M,M,M,M,92.06,KWMC 030156Z AUTO 35003KT 10SM CLR 37/M01 A3008 RMK AO2 SLP131 T03671006,M
HND,2024-08-03 01:56,-115.1344,35.9729,742.79,99.00,56.00,24.04,30.00,8.00,0.00,30.02,1014.50,10.00,M,CLR,M,M,M,M,M,M,M,M,M,M,M,M,M,M,97.74,KHND 030156Z 03008KT 10SM CLR 37/13 A3002 RMK AO2 SLP145 T03720133,M
TPH,2024-08-03 01:56,-117.0904,38.0505,1654.00,87.00,43.00,21.49,220.00,3.00,0.00,30.23,1015.10,10.00,M,CLR,M,M,M,M,M,M,M,M,M,M,M,M,M,M,83.76,KTPH 030156Z AUTO 22003KT 10SM CLR 31/06 A3023 RMK AO2 SLP151 T03060061,M
LAS,2024-08-03 01:56,-115.1634,36.0719,663.00,102.00,54.00,20.42,50.00,5.00,0.00,29.99,1012.10,10.00,M,FEW,FEW,SCT,M,10000.00,14000.00,20000.00,M,M,M,M,M,M,M,M,100.30,KLAS 030156Z 05005KT 10SM FEW100 FEW140 SCT200 39/12 A2999 RMK AO2 SLP121 CB DSNT E AND S-W T03890122,M
RNO,2024-08-03 02:14,-119.7711,39.4839,1341.00,87.00,47.00,25.02,240.00,16.00,T,30.20,M,10.00,32.00,FEW,SCT,BKN,M,4000.00,10000.00,15000.00,M,M,M,M,M,32.00,230.00,2024-08-03 02:07,84.08,KRNO 030214Z 24016G32KT 10SM FEW040 SCT100CB BKN150 31/08 A3020 RMK AO2 PK WND 23032/0207 WSHFT 0154 RAE00 CBMAM W MOV NW P0000 T03060083,M
BVU,2024-08-03 02:15,-114.8611,35.9475,671.00,98.60,51.80,20.87,30.00,6.00,0.00,29.97,M,10.00,M,CLR,M,M,M,M,M,M,M,M,M,M,M,M,M,M,96.00,KBVU 030215Z AUTO 03006KT 10SM CLR 37/11 A2997 RMK AO2,M
CXP,2024-08-03 02:15,-119.7326,39.1923,1431.00,78.80,48.20,34.13,200.00,6.00,0.00,30.26,M,10.00,M,CLR,M,M,M,M,M,M,M,M,M,M,M,M,M,M,78.80,KCXP 030215Z AUTO 20006KT 10SM CLR 26/09 A3026 RMK AO2,M
RTS,2024-08-03 02:15,-119.8764,39.6682,1539.00,87.80,35.60,15.70,270.00,12.00,0.00,30.26,M,10.00,19.00,CLR,M,M,M,M,M,M,M,M,M,M,M,M,M,M,84.12,KRTS 030215Z AUTO 27012G19KT 10SM CLR 31/02 A3026 RMK AO2,M
05U,2024-08-03 02:15,-116.0051,39.6042,1811.23,87.80,32.00,13.59,0.00,0.00,0.00,30.25,M,10.00,M,CLR,M,M,M,M,M,M,M,M,M,M,M,M,M,M,84.08,K05U 030215Z AUTO 00000KT 10SM CLR 31/M00 A3025 RMK A01,M
MEV,2024-08-03 02:15,-119.7500,38.9963,1441.42,71.60,55.40,56.63,130.00,7.00,0.00,30.27,M,10.00,M,CLR,M,M,M,M,M,M,M,M,M,M,M,M,M,M,71.60,KMEV 030215Z AUTO 13007KT 10SM CLR 22/13 A3027 RMK AO2,M
BAM,2024-08-03 02:15,-116.8743,40.5990,1382.36,96.80,41.00,14.66,340.00,4.00,0.00,30.11,M,10.00,M,CLR,M,M,M,M,M,M,M,M,M,M,M,M,M,M,92.39,KBAM 030215Z AUTO 34004KT 10SM CLR 36/05 A3011 RMK AO1,M
HTH,2024-08-03 02:15,-118.6315,38.5448,1282.89,91.40,41.00,17.32,230.00,8.00,0.00,30.14,M,10.00,M,CLR,M,M,M,M,M,M,M,M,M,M,M,M,M,M,87.40,KHTH 030215Z AUTO 23008KT 10SM CLR 33/05 A3014 RMK A01,M
10U,2024-08-03 02:15,-116.1876,41.9532,1637.00,91.40,35.60,14.02,30.00,5.00,0.00,30.20,M,10.00,11.00,CLR,M,M,M,M,M,M,M,M,M,M,M,M,M,M,87.17,K10U 030215Z AUTO 03005G11KT 10SM CLR 33/02 A3020 RMK AO2,M
TMT,2024-08-03 02:15,-117.1971,39.4643,1749.34,86.00,38.30,18.49,260.00,5.00,0.00,30.25,M,10.00,M,SCT,M,M,M,12000.00,M,M,M,M,M,M,M,M,M,M,82.76,KTMT 030215Z AUTO 26005KT 10SM SCT120 30/04 A3025 RMK AO2 T02990035,M
BVU,2024-08-03 02:35,-114.8611,35.9475,671.00,98.60,53.60,22.29,70.00,5.00,0.00,29.97,M,10.00,M,CLR,M,M,M,M,M,M,M,M,M,M,M,M,M,M,96.51,KBVU 030235Z AUTO 07005KT 10SM CLR 37/12 A2997 RMK AO2,M
CXP,2024-08-03 02:35,-119.7326,39.1923,1431.00,78.80,48.20,34.13,M,5.00,0.00,30.27,M,10.00,M,CLR,M,M,M,M,M,M,M,M,M,M,M,M,M,M,78.80,KCXP 030235Z AUTO VRB05KT 10SM CLR 26/09 A3027 RMK AO2,M
RTS,2024-08-03 02:35,-119.8764,39.6682,1539.00,84.20,41.00,21.76,240.00,15.00,0.00,30.27,M,10.00,22.00,CLR,M,M,M,M,M,M,M,M,M,M,M,M,M,M,81.52,KRTS 030235Z AUTO 24015G22KT 10SM CLR 29/05 A3027 RMK AO2,M
05U,2024-08-03 02:35,-116.0051,39.6042,1811.23,86.00,32.00,14.40,0.00,0.00,0.00,30.25,M,10.00,M,CLR,M,M,M,M,M,M,M,M,M,M,M,M,M,M,82.64,K05U 030235Z AUTO 00000KT 10SM CLR 30/00 A3025 RMK A01,M
MEV,2024-08-03 02:35,-119.7500,38.9963,1441.42,71.60,55.40,56.63,170.00,3.00,0.00,30.28,M,10.00,M,CLR,M,M,M,M,M,M,M,M,M,M,M,M,M,M,71.60,KMEV 030235Z AUTO 17003KT 10SM CLR 22/13 A3028 RMK AO2,M
BAM,2024-08-03 02:35,-116.8743,40.5990,1382.36,95.00,41.00,15.49,350.00,4.00,0.00,30.11,M,10.00,M,CLR,M,M,M,M,M,M,M,M,M,M,M,M,M,M,90.70,KBAM 030235Z AUTO 35004KT 10SM CLR 35/05 A3011 RMK AO1,M
HTH,2024-08-03 02:35,-118.6315,38.5448,1282.89,91.40,42.80,18.56,200.00,7.00,0.00,30.15,M,10.00,M,CLR,M,M,M,M,M,M,M,M,M,M,M,M,M,M,87.52,KHTH 030235Z AUTO 20007KT 10SM CLR 33/06 A3015 RMK A01,M
10U,2024-08-03 02:35,-116.1876,41.9532,1637.00,89.60,33.80,13.80,50.00,7.00,0.00,30.20,M,10.00,M,CLR,M,M,M,M,M,M,M,M,M,M,M,M,M,M,85.59,K10U 030235Z AUTO 05007KT 10SM CLR 32/01 A3020 RMK AO2,M
TMT,2024-08-03 02:35,-117.1971,39.4643,1749.34,84.70,37.60,18.76,230.00,4.00,0.00,30.25,M,10.00,M,CLR,M,M,M,M,M,M,M,M,M,M,M,M,M,M,81.75,KTMT 030235Z AUTO 23004KT 10SM CLR 29/03 A3025 RMK AO2 T02930031,M
05U,2024-08-03 02:50,-116.0051,39.6042,1811.23,84.20,32.00,15.25,0.00,0.00,0.00,30.25,M,10.00,M,CLR,M,M,M,M,M,M,M,M,M,M,M,M,M,M,81.28,K05U 030250Z AUTO 00000KT 10SM CLR 29/M00 A3025 RMK A01,M
P68,2024-08-03 02:53,-116.0056,39.6014,1993.00,85.00,31.00,14.28,210.00,4.00,0.00,30.23,1014.00,M,M,M,M,M,M,M,M,M,M,M,M,M,M,M,M,M,81.87,KP68 030253Z AUTO 21004KT 29/M01 A3023 RMK AO1 SLP140 T02941006 55003,M
DRA,2024-08-03 02:53,-116.0278,36.6206,1009.00,92.00,52.00,25.76,280.00,4.00,0.00,30.08,1012.80,10.00,M,CLR,M,M,M,M,M,M,M,M,M,M,M,M,M,M,89.31,KDRA 030253Z AUTO 28004KT 10SM CLR 33/11 A3008 RMK AO2 SLP128 T03330111 55001,M
ELY,2024-08-03 02:53,-114.8453,39.2950,1909.00,84.00,38.00,19.49,210.00,5.00,0.00,30.28,1013.90,10.00,M,CLR,M,M,M,M,M,M,M,M,M,M,M,M,M,M,81.26,KELY 030253Z AUTO 21005KT 10SM CLR 29/03 A3028 RMK AO2 SLP139 T02890033 53001,M
VGT,2024-08-03 02:53,-115.1933,36.2111,667.00,100.00,54.00,21.68,110.00,6.00,0.00,29.98,1013.60,10.00,M,CLR,M,M,M,M,M,M,M,M,M,M,M,M,M,M,98.14,KVGT 030253Z 11006KT 10SM CLR 38/12 A2998 RMK AO2 SLP136 T03780122 55001,M
LOL,2024-08-03 02:53,-118.5701,40.0684,1192.43,95.00,32.00,10.85,190.00,15.00,0.00,30.07,1013.30,10.00,24.00,CLR,M,M,M,M,M,M,M,M,M,M,M,M,M,M,89.71,KLOL 030253Z AUTO 19015G24KT 10SM CLR 35/00 A3007 RMK AO2 SLP133 T03500000 55004,M
NFL,2024-08-03 02:54,-118.7010,39.4166,1199.00,93.00,42.00,17.13,260.00,8.00,0.00,30.09,1015.70,9.00,M,SCT,BKN,OVC,M,8000.00,12000.00,25000.00,M,M,M,M,M,M,M,M,88.92,KNFL 030254Z 26008KT 9SM SCT080 BKN120 OVC250 34/06 A3009 RMK AO2 SLP157 T03390056 53002,M
INS,2024-08-03 02:55,-115.6733,36.5872,955.00,94.30,48.40,20.98,0.00,0.00,0.00,30.06,1011.70,10.00,M,FEW,M,M,M,19000.00,M,M,M,M,M,M,M,M,M,M,90.90,KINS 030255Z AUTO 00000KT 10SM FEW190 35/09 A3006 RMK AO2 SLP117 T03460091 55000 $,M
LSV,2024-08-03 02:55,-115.0343,36.2362,570.00,100.20,49.00,17.92,110.00,5.00,0.00,29.93,1010.30,10.00,M,CLR,M,M,M,M,M,M,M,M,M,M,M,M,M,M,96.97,KLSV 030255Z AUTO 11005KT 10SM CLR 38/09 A2993 RMK AO2 SLP103 T03790094 55000 $,M
BVU,2024-08-03 02:55,-114.8611,35.9475,671.00,96.80,53.60,23.55,50.00,5.00,0.00,29.98,M,10.00,M,CLR,M,M,M,M,M,M,M,M,M,M,M,M,M,M,94.59,KBVU 030255Z AUTO 05005KT 10SM CLR 36/12 A2998 RMK AO2,M
CXP,2024-08-03 02:55,-119.7326,39.1923,1431.00,78.80,50.00,36.51,200.00,8.00,0.00,30.26,M,10.00,19.00,FEW,SCT,M,M,8500.00,12000.00,M,M,M,M,M,M,M,M,M,78.80,KCXP 030255Z AUTO 20008G19KT 10SM FEW085 SCT120 26/10 A3026 RMK AO2,M
RNO,2024-08-03 02:55,-119.7711,39.4839,1341.00,86.00,46.00,24.88,290.00,17.00,T,30.20,1016.40,10.00,21.00,SCT,BKN,M,M,10000.00,15000.00,M,M,M,M,M,M,32.00,230.00,2024-08-03 02:07,83.19,KRNO 030255Z 29017G21KT 10SM SCT100 BKN150 30/08 A3020 RMK AO2 PK WND 23032/0207 WSHFT 0154 RAE00 SLP164 P0000 60000 T03000078 51018,M
RTS,2024-08-03 02:55,-119.8764,39.6682,1539.00,80.60,44.60,28.08,240.00,16.00,0.00,30.28,M,10.00,25.00,CLR,M,M,M,M,M,M,M,M,M,M,M,M,M,M,79.42,KRTS 030255Z AUTO 24016G25KT 10SM CLR 27/07 A3028 RMK AO2,M
MEV,2024-08-03 02:55,-119.7500,38.9963,1441.42,69.80,57.20,64.26,160.00,4.00,0.00,30.27,M,10.00,M,CLR,M,M,M,M,M,M,M,M,M,M,M,M,M,M,69.80,KMEV 030255Z AUTO 16004KT 10SM CLR 21/14 A3027 RMK AO2,M
BAM,2024-08-03 02:55,-116.8743,40.5990,1382.36,91.40,44.60,19.89,340.00,4.00,0.00,30.11,M,10.00,M,CLR,M,M,M,M,M,M,M,M,M,M,M,M,M,M,87.68,KBAM 030255Z AUTO 34004KT 10SM CLR 33/07 A3011 RMK AO1,M
HTH,2024-08-03 02:55,-118.6315,38.5448,1282.89,89.60,42.80,19.64,160.00,10.00,0.00,30.17,M,10.00,M,FEW,SCT,BKN,M,6500.00,7500.00,8500.00,M,M,M,M,M,M,M,M,85.93,KHTH 030255Z AUTO 16010KT 10SM FEW065 SCT075 BKN085 32/06 A3017 RMK A01,M
TMT,2024-08-03 02:55,-117.1971,39.4643,1749.34,85.30,37.40,18.25,150.00,8.00,0.00,30.26,M,10.00,M,CLR,M,M,M,M,M,M,M,M,M,M,M,M,M,M,82.19,KTMT 030255Z AUTO 15008KT 10SM CLR 30/03 A3026 RMK AO2 T02960030,M
10U,2024-08-03 02:55,-116.1876,41.9532,1637.00,87.80,33.80,14.61,70.00,7.00,0.00,30.20,M,10.00,M,CLR,M,M,M,M,M,M,M,M,M,M,M,M,M,M,84.10,K10U 030255Z AUTO 07007KT 10SM CLR 31/01 A3020 RMK AO2,M
EKO,2024-08-03 02:56,-115.7860,40.8242,1367.00,90.00,29.00,11.23,90.00,4.00,0.00,30.15,1014.00,10.00,M,CLR,M,M,M,M,M,M,M,M,M,M,M,M,M,M,85.53,KEKO 030256Z AUTO 09004KT 10SM CLR 32/M02 A3015 RMK AO2 SLP140 T03221017 55007,M
WMC,2024-08-03 02:56,-117.8072,40.9019,1315.00,89.00,34.00,14.18,0.00,0.00,0.00,30.08,1012.80,10.00,M,CLR,M,M,M,M,M,M,M,M,M,M,M,M,M,M,85.09,KWMC 030256Z AUTO 00000KT 10SM CLR 32/01 A3008 RMK AO2 SLP128 T03170011 56006,M
HND,2024-08-03 02:56,-115.1344,35.9729,742.79,98.00,55.00,23.89,210.00,5.00,0.00,30.03,1014.90,10.00,M,CLR,M,M,M,M,M,M,M,M,M,M,M,M,M,M,96.31,KHND 030256Z 21005KT 10SM CLR 37/13 A3003 RMK AO2 SLP149 T03670128 53002,M
TPH,2024-08-03 02:56,-117.0904,38.0505,1654.00,83.00,48.00,29.54,200.00,9.00,0.00,30.25,1015.10,10.00,M,CLR,M,M,M,M,M,M,M,M,M,M,M,M,M,M,81.18,KTPH 030256Z AUTO 20009KT 10SM CLR 28/09 A3025 RMK AO2 SLP151 60000 T02830089 55010,M
LAS,2024-08-03 02:56,-115.1634,36.0719,663.00,101.00,53.00,20.28,80.00,7.00,0.00,30.00,1012.50,10.00,M,FEW,FEW,SCT,M,10000.00,14000.00,20000.00,M,M,M,M,M,M,M,M,98.89,KLAS 030256Z 08007KT 10SM FEW100 FEW140 SCT200 38/12 A3000 RMK AO2 SLP125 VIRGA S-W CB DSNT E AND S-W T03830117 55000,M
10U,2024-08-03 03:05,-116.1876,41.9532,1637.00,87.80,33.80,14.61,80.00,7.00,0.00,30.20,M,10.00,13.00,CLR,M,M,M,M,M,M,M,M,M,M,M,M,M,M,84.10,K10U 030305Z AUTO 08007G13KT 10SM CLR 31/01 A3020 RMK AO2,M
05U,2024-08-03 03:10,-116.0051,39.6042,1811.23,82.40,32.00,16.17,0.00,0.00,0.00,30.26,M,9.00,M,CLR,M,M,M,M,M,M,M,M,M,M,M,M,M,M,80.00,K05U 030310Z AUTO 00000KT 9SM CLR 28/M00 A3026 RMK A01,M
BVU,2024-08-03 03:15,-114.8611,35.9475,671.00,95.00,53.60,24.89,50.00,5.00,0.00,29.98,M,10.00,M,CLR,M,M,M,M,M,M,M,M,M,M,M,M,M,M,92.71,KBVU 030315Z AUTO 05005KT 10SM CLR 35/12 A2998 RMK AO2,M
CXP,2024-08-03 03:15,-119.7326,39.1923,1431.00,77.00,50.00,38.74,150.00,6.00,0.00,30.27,M,10.00,16.00,SCT,SCT,OVC,M,7000.00,8500.00,11000.00,M,M,M,M,M,M,M,M,77.00,KCXP 030315Z AUTO 15006G16KT 10SM SCT070 SCT085 OVC110 25/10 A3027 RMK AO2,M
RTS,2024-08-03 03:15,-119.8764,39.6682,1539.00,78.80,44.60,29.79,250.00,14.00,0.00,30.28,M,10.00,19.00,CLR,M,M,M,M,M,M,M,M,M,M,M,M,M,M,78.80,KRTS 030315Z AUTO 25014G19KT 10SM CLR 26/07 A3028 RMK AO2,M
MEV,2024-08-03 03:15,-119.7500,38.9963,1441.42,69.80,59.00,68.55,120.00,7.00,0.00,30.26,M,10.00,M,FEW,BKN,M,M,7500.00,12000.00,M,M,M,M,M,M,M,M,M,69.80,KMEV 030315Z AUTO 12007KT 10SM FEW075 BKN120 21/15 A3026 RMK AO2,M
BAM,2024-08-03 03:15,-116.8743,40.5990,1382.36,89.60,48.20,24.11,10.00,3.00,0.00,30.11,M,10.00,M,CLR,M,M,M,M,M,M,M,M,M,M,M,M,M,M,86.44,KBAM 030315Z AUTO 01003KT 10SM CLR 32/09 A3011 RMK AO1,M
HTH,2024-08-03 03:15,-118.6315,38.5448,1282.89,89.60,42.80,19.64,220.00,10.00,0.00,30.16,M,10.00,M,FEW,SCT,BKN,M,3900.00,5500.00,7000.00,M,M,M,M,M,M,M,M,85.93,KHTH 030315Z AUTO 22010KT 10SM FEW039 SCT055 BKN070 32/06 A3016 RMK A01,M
TMT,2024-08-03 03:15,-117.1971,39.4643,1749.34,81.00,37.00,20.65,190.00,6.00,0.00,30.26,M,10.00,M,CLR,M,M,M,M,M,M,M,M,M,M,M,M,M,M,79.24,KTMT 030315Z AUTO 19006KT 10SM CLR 27/03 A3026 RMK AO2 T02730028,M
05U,2024-08-03 03:30,-116.0051,39.6042,1811.23,82.40,30.20,15.03,0.00,0.00,0.00,30.26,M,10.00,M,CLR,M,M,M,M,M,M,M,M,M,M,M,M,M,M,79.97,K05U 030330Z AUTO 00000KT 10SM CLR 28/M01 A3026 RMK A01,M
BVU,2024-08-03 03:35,-114.8611,35.9475,671.00,95.00,55.40,26.58,0.00,0.00,0.00,29.99,M,10.00,M,CLR,M,M,M,M,M,M,M,M,M,M,M,M,M,M,93.22,KBVU 030335Z AUTO 00000KT 10SM CLR 35/13 A2999 RMK AO2,M
CXP,2024-08-03 03:35,-119.7326,39.1923,1431.00,77.00,50.00,38.74,230.00,5.00,0.00,30.25,M,10.00,10.00,FEW,BKN,OVC,M,4900.00,7500.00,9500.00,M,M,M,M,M,M,M,M,77.00,KCXP 030335Z AUTO 23005G10KT 10SM FEW049 BKN075 OVC095 25/10 A3025 RMK AO2,M
RTS,2024-08-03 03:35,-119.8764,39.6682,1539.00,78.80,44.60,29.79,250.00,12.00,0.00,30.27,M,10.00,18.00,CLR,M,M,M,M,M,M,M,M,M,M,M,M,M,M,78.80,KRTS 030335Z AUTO 25012G18KT 10SM CLR 26/07 A3027 RMK AO2,M
MEV,2024-08-03 03:35,-119.7500,38.9963,1441.42,69.80,59.00,68.55,110.00,4.00,0.00,30.24,M,10.00,M,FEW,BKN,M,M,8000.00,12000.00,M,M,M,M,M,M,M,M,M,69.80,KMEV 030335Z AUTO 11004KT 10SM FEW080 BKN120 21/15 A3024 RMK AO2,M
HTH,2024-08-03 03:35,-118.6315,38.5448,1282.89,89.60,42.80,19.64,280.00,6.00,0.00,30.16,M,10.00,11.00,FEW,FEW,SCT,M,2200.00,4300.00,7500.00,M,M,M,M,M,M,M,M,85.93,KHTH 030335Z AUTO 28006G11KT 10SM FEW022 FEW043 SCT075 32/06 A3016 RMK A01,M
10U,2024-08-03 03:35,-116.1876,41.9532,1637.00,87.80,32.00,13.59,M,4.00,0.00,30.21,M,10.00,12.00,CLR,M,M,M,M,M,M,M,M,M,M,M,M,M,M,84.08,K10U 030335Z AUTO VRB04G12KT 10SM CLR 31/00 A3021 RMK AO2,M
BAM,2024-08-03 03:35,-116.8743,40.5990,1382.36,89.60,44.60,21.04,360.00,4.00,0.00,30.11,M,10.00,M,CLR,M,M,M,M,M,M,M,M,M,M,M,M,M,M,86.07,KBAM 030335Z AUTO 36004KT 10SM CLR 32/07 A3011 RMK AO1,M
TMT,2024-08-03 03:35,-117.1971,39.4643,1749.34,83.70,36.50,18.55,180.00,8.00,0.00,30.26,M,10.00,M,CLR,M,M,M,M,M,M,M,M,M,M,M,M,M,M,81.00,KTMT 030335Z AUTO 18008KT 10SM CLR 29/03 A3026 RMK AO2 T02870025,M
05U,2024-08-03 03:50,-116.0051,39.6042,1811.23,80.60,32.00,17.14,0.00,0.00,0.00,30.26,M,10.00,M,CLR,M,M,M,M,M,M,M,M,M,M,M,M,M,M,78.82,K05U 030350Z AUTO 00000KT 10SM CLR 27/00 A3026 RMK A01,M
P68,2024-08-03 03:53,-116.0056,39.6014,1993.00,82.00,32.00,16.38,M,3.00,0.00,30.24,1013.80,M,M,M,M,M,M,M,M,M,M,M,M,M,M,M,M,M,79.73,KP68 030353Z AUTO VRB03KT 28/00 A3024 RMK AO1 SLP138 T02780000,M
DRA,2024-08-03 03:53,-116.0278,36.6206,1009.00,89.00,51.00,27.27,20.00,5.00,0.00,30.10,1013.40,10.00,M,CLR,M,M,M,M,M,M,M,M,M,M,M,M,M,M,86.31,KDRA 030353Z AUTO 02005KT 10SM CLR 32/11 A3010 RMK AO2 SLP134 T03170106,M
ELY,2024-08-03 03:53,-114.8453,39.2950,1909.00,77.00,47.00,34.63,150.00,19.00,0.00,30.33,1015.40,10.00,35.00,CLR,M,M,M,M,M,M,M,M,M,M,M,38.00,140.00,2024-08-03 03:33,77.00,KELY 030353Z AUTO 15019G35KT 10SM CLR 25/08 A3033 RMK AO2 PK WND 14038/0333 SLP154 T02500083,M
VGT,2024-08-03 03:53,-115.1933,36.2111,667.00,97.00,53.00,22.90,100.00,5.00,0.00,30.00,1014.30,10.00,M,CLR,M,M,M,M,M,M,M,M,M,M,M,M,M,M,94.64,KVGT 030353Z AUTO 10005KT 10SM CLR 36/12 A3000 RMK AO2 SLP143 T03610117,M
LOL,2024-08-03 03:53,-118.5701,40.0684,1192.43,92.00,38.00,15.12,290.00,11.00,0.00,30.08,1013.30,10.00,M,CLR,M,M,M,M,M,M,M,M,M,M,M,30.00,280.00,2024-08-03 03:14,87.78,KLOL 030353Z AUTO 29011KT 10SM CLR 33/03 A3008 RMK AO2 PK WND 28030/0314 SLP133 T03330033,M
NFL,2024-08-03 03:54,-118.7010,39.4166,1199.00,88.00,47.00,24.24,260.00,15.00,0.00,30.11,1016.40,10.00,22.00,SCT,BKN,OVC,M,8000.00,12000.00,25000.00,M,M,M,M,M,M,M,M,84.91,KNFL 030354Z 26015G22KT 10SM SCT080 BKN120 OVC250 31/08 A3011 RMK AO2 SLP164 T03110083,M
INS,2024-08-03 03:55,-115.6733,36.5872,955.00,94.30,48.40,20.98,0.00,0.00,0.00,30.08,1012.30,10.00,M,CLR,M,M,M,M,M,M,M,M,M,M,M,M,M,M,90.90,KINS 030355Z AUTO 00000KT 10SM CLR 35/09 A3008 RMK AO2 SLP123 T03460091 $,M
LSV,2024-08-03 03:55,-115.0343,36.2362,570.00,97.70,48.40,18.90,90.00,4.00,0.00,29.94,1010.60,10.00,M,CLR,M,M,M,M,M,M,M,M,M,M,M,M,M,M,94.30,KLSV 030355Z AUTO 09004KT 10SM CLR 37/09 A2994 RMK AO2 SLP106 T03650091 $,M
BVU,2024-08-03 03:55,-114.8611,35.9475,671.00,95.00,55.40,26.58,0.00,0.00,0.00,29.99,M,10.00,M,CLR,M,M,M,M,M,M,M,M,M,M,M,M,M,M,93.22,KBVU 030355Z AUTO 00000KT 10SM CLR 35/13 A2999 RMK AO2,M
CXP,2024-08-03 03:55,-119.7326,39.1923,1431.00,77.00,50.00,38.74,0.00,0.00,0.00,30.25,M,10.00,M,FEW,SCT,BKN,M,4700.00,9000.00,11000.00,M,M,M,M,M,M,M,M,77.00,KCXP 030355Z AUTO 00000KT 10SM FEW047 SCT090 BKN110 25/10 A3025 RMK AO2,M
RNO,2024-08-03 03:55,-119.7711,39.4839,1341.00,83.00,47.00,28.45,290.00,15.00,0.00,30.21,1016.60,10.00,34.00,FEW,SCT,BKN,M,10000.00,15000.00,23000.00,M,M,M,M,M,34.00,270.00,2024-08-03 03:25,81.09,KRNO 030355Z 29015G34KT 10SM FEW100 SCT150 BKN230 28/08 A3021 RMK AO2 PK WND 27034/0325 SLP166 T02830083,M
RTS,2024-08-03 03:55,-119.8764,39.6682,1539.00,78.80,42.80,27.81,280.00,10.00,0.00,30.27,M,10.00,18.00,CLR,M,M,M,M,M,M,M,M,M,M,M,M,M,M,78.80,KRTS 030355Z AUTO 28010G18KT 10SM CLR 26/06 A3027 RMK AO2,M
MEV,2024-08-03 03:55,-119.7500,38.9963,1441.42,68.00,59.00,72.92,140.00,6.00,0.00,30.25,M,10.00,M,FEW,M,M,M,12000.00,M,M,M,M,M,M,M,M,M,M,68.00,KMEV 030355Z AUTO 14006KT 10SM FEW120 20/15 A3025 RMK AO2,M
BAM,2024-08-03 03:55,-116.8743,40.5990,1382.36,87.80,41.00,19.40,320.00,5.00,0.00,30.12,M,10.00,M,CLR,M,M,M,M,M,M,M,M,M,M,M,M,M,M,84.30,KBAM 030355Z AUTO 32005KT 10SM CLR 31/05 A3012 RMK AO1,M
HTH,2024-08-03 03:55,-118.6315,38.5448,1282.89,87.80,42.80,20.79,280.00,5.00,0.00,30.15,M,10.00,M,CLR,M,M,M,M,M,M,M,M,M,M,M,M,M,M,84.40,KHTH 030355Z AUTO 28005KT 10SM CLR 31/06 A3015 RMK A01,M
10U,2024-08-03 03:55,-116.1876,41.9532,1637.00,86.00,32.00,14.40,M,5.00,0.00,30.22,M,10.00,M,CLR,M,M,M,M,M,M,M,M,M,M,M,M,M,M,82.64,K10U 030355Z AUTO VRB05KT 10SM CLR 30/M00 A3022 RMK AO2,M
TMT,2024-08-03 03:55,-117.1971,39.4643,1749.34,82.40,37.40,20.04,210.00,10.00,0.00,30.27,M,10.00,M,CLR,M,M,M,M,M,M,M,M,M,M,M,M,M,M,80.14,KTMT 030355Z AUTO 21010KT 10SM CLR 28/03 A3027 RMK AO2 T02800030,M
EKO,2024-08-03 03:56,-115.7860,40.8242,1367.00,82.00,36.00,19.21,90.00,4.00,0.00,30.16,1014.60,10.00,M,CLR,M,M,M,M,M,M,M,M,M,M,M,M,M,M,79.83,KEKO 030356Z AUTO 09004KT 10SM CLR 28/02 A3016 RMK AO2 SLP146 T02780022,M
WMC,2024-08-03 03:56,-117.8072,40.9019,1315.00,84.00,29.00,13.59,260.00,8.00,0.00,30.09,1013.00,10.00,M,CLR,M,M,M,M,M,M,M,M,M,M,M,M,M,M,81.10,KWMC 030356Z AUTO 26008KT 10SM CLR 29/M02 A3009 RMK AO2 SLP130 T02891017,M
HND,2024-08-03 03:56,-115.1344,35.9729,742.79,95.00,56.00,27.16,180.00,6.00,0.00,30.05,1015.60,10.00,M,CLR,M,M,M,M,M,M,M,M,M,M,M,M,M,M,93.41,KHND 030356Z 18006KT 10SM CLR 35/13 A3005 RMK AO2 SLP156 T03500133,M
TPH,2024-08-03 03:56,-117.0904,38.0505,1654.00,81.00,47.00,30.36,200.00,6.00,0.00,30.27,1015.80,10.00,M,CLR,M,M,M,M,M,M,M,M,M,M,M,M,M,M,79.84,KTPH 030356Z AUTO 20006KT 10SM CLR 27/08 A3027 RMK AO2 SLP158 T02720083,M
LAS,2024-08-03 03:56,-115.1634,36.0719,663.00,100.00,54.00,21.68,100.00,5.00,0.00,30.01,1013.00,10.00,M,FEW,FEW,SCT,M,10000.00,14000.00,20000.00,M,M,M,M,M,M,M,M,98.14,KLAS 030356Z 10005KT 10SM FEW100 FEW140 SCT200 38/12 A3001 RMK AO2 SLP130 T03780122,M
BVU,2024-08-03 04:15,-114.8611,35.9475,671.00,91.40,59.00,33.84,60.00,3.00,0.00,30.00,M,10.00,M,CLR,M,M,M,M,M,M,M,M,M,M,M,M,M,M,90.68,KBVU 030415Z AUTO 06003KT 10SM CLR 33/15 A3000 RMK AO2,M
CXP,2024-08-03 04:15,-119.7326,39.1923,1431.00,77.00,50.00,38.74,170.00,5.00,0.00,30.26,M,10.00,M,FEW,FEW,BKN,M,7500.00,9000.00,12000.00,M,M,M,M,M,M,M,M,77.00,KCXP 030415Z AUTO 17005KT 10SM FEW075 FEW090 BKN120 25/10 A3026 RMK AO2,M
RTS,2024-08-03 04:15,-119.8764,39.6682,1539.00,78.80,42.80,27.81,280.00,8.00,0.00,30.28,M,10.00,14.00,CLR,M,M,M,M,M,M,M,M,M,M,M,M,M,M,78.80,KRTS 030415Z AUTO 28008G14KT 10SM CLR 26/06 A3028 RMK AO2,M
05U,2024-08-03 04:15,-116.0051,39.6042,1811.23,80.60,32.00,17.14,0.00,0.00,0.00,30.27,M,10.00,M,CLR,M,M,M,M,M,M,M,M,M,M,M,M,M,M,78.82,K05U 030415Z AUTO 00000KT 10SM CLR 27/M00 A3027 RMK A01,M
MEV,2024-08-03 04:15,-119.7500,38.9963,1441.42,68.00,57.20,68.35,160.00,7.00,0.00,30.26,M,10.00,M,CLR,M,M,M,M,M,M,M,M,M,M,M,M,M,M,68.00,KMEV 030415Z AUTO 16007KT 10SM CLR 20/14 A3026 RMK AO2,M
HTH,2024-08-03 04:15,-118.6315,38.5448,1282.89,87.80,42.80,20.79,210.00,5.00,0.00,30.16,M,10.00,M,CLR,M,M,M,M,M,M,M,M,M,M,M,M,M,M,84.40,KHTH 030415Z AUTO 21005KT 10SM CLR 31/06 A3016 RMK A01,M
10U,2024-08-03 04:15,-116.1876,41.9532,1637.00,84.20,33.80,16.39,M,4.00,0.00,30.22,M,10.00,M,CLR,M,M,M,M,M,M,M,M,M,M,M,M,M,M,81.30,K10U 030415Z AUTO VRB04KT 10SM CLR 29/01 A3022 RMK AO2,M
BAM,2024-08-03 04:15,-116.8743,40.5990,1382.36,87.80,42.80,20.79,0.00,0.00,0.00,30.12,M,10.00,M,CLR,M,M,M,M,M,M,M,M,M,M,M,M,M,M,84.40,KBAM 030415Z AUTO 00000KT 10SM CLR 31/06 A3012 RMK AO1,M
RTS,2024-08-03 04:25,-119.8764,39.6682,1539.00,78.80,42.80,27.81,290.00,10.00,0.00,30.29,M,10.00,M,CLR,M,M,M,M,M,M,M,M,M,M,M,M,M,M,78.80,KRTS 030425Z AUTO 29010KT 10SM CLR 26/06 A3029 RMK AO2,M
BVU,2024-08-03 04:35,-114.8611,35.9475,671.00,91.40,59.00,33.84,0.00,0.00,0.00,30.00,M,10.00,M,CLR,M,M,M,M,M,M,M,M,M,M,M,M,M,M,90.68,KBVU 030435Z AUTO 00000KT 10SM CLR 33/15 A3000 RMK AO2,M
CXP,2024-08-03 04:35,-119.7326,39.1923,1431.00,77.00,50.00,38.74,230.00,4.00,0.00,30.27,M,10.00,M,SCT,M,M,M,12000.00,M,M,M,M,M,M,M,M,M,M,77.00,KCXP 030435Z AUTO 23004KT 10SM SCT120 25/10 A3027 RMK AO2,M
05U,2024-08-03 04:35,-116.0051,39.6042,1811.23,84.20,30.20,14.18,0.00,0.00,0.00,30.27,M,10.00,M,CLR,M,M,M,M,M,M,M,M,M,M,M,M,M,M,81.26,K05U 030435Z AUTO 00000KT 10SM CLR 29/M01 A3027 RMK A01,M
MEV,2024-08-03 04:35,-119.7500,38.9963,1441.42,68.00,57.20,68.35,180.00,6.00,0.00,30.27,M,10.00,M,BKN,M,M,M,12000.00,M,M,M,M,M,M,M,M,M,M,68.00,KMEV 030435Z AUTO 18006KT 10SM BKN120 20/14 A3027 RMK AO2,M
HTH,2024-08-03 04:35,-118.6315,38.5448,1282.89,86.00,42.80,22.02,140.00,6.00,0.00,30.16,M,10.00,M,CLR,M,M,M,M,M,M,M,M,M,M,M,M,M,M,82.95,KHTH 030435Z AUTO 14006KT 10SM CLR 30/06 A3016 RMK A01,M
10U,2024-08-03 04:35,-116.1876,41.9532,1637.00,82.40,32.00,16.17,0.00,0.00,0.00,30.22,M,10.00,M,CLR,M,M,M,M,M,M,M,M,M,M,M,M,M,M,80.00,K10U 030435Z AUTO 00000KT 10SM CLR 28/00 A3022 RMK AO2,M
BAM,2024-08-03 04:35,-116.8743,40.5990,1382.36,86.00,42.80,22.02,0.00,0.00,0.00,30.12,M,10.00,M,CLR,M,M,M,M,M,M,M,M,M,M,M,M,M,M,82.95,KBAM 030435Z AUTO 00000KT 10SM CLR 30/06 A3012 RMK AO1,M
TMT,2024-08-03 04:35,-117.1971,39.4643,1749.34,80.00,38.50,22.63,180.00,9.00,0.00,30.27,M,10.00,M,CLR,M,M,M,M,M,M,M,M,M,M,M,M,M,M,78.76,KTMT 030435Z AUTO 18009KT 10SM CLR 27/04 A3027 RMK AO2 T02660036,M
P68,2024-08-03 04:53,-116.0056,39.6014,1993.00,82.00,45.00,27.24,160.00,29.00,0.00,30.26,1014.30,M,38.00,M,M,M,M,M,M,M,M,M,M,M,M,38.00,160.00,2024-08-03 04:52,80.28,KP68 030453Z AUTO 16029G38KT 28/07 A3026 RMK AO1 PK WND 16038/0452 SLP143 T02780072,M
DRA,2024-08-03 04:53,-116.0278,36.6206,1009.00,85.00,50.00,29.85,100.00,5.00,0.00,30.10,1013.70,10.00,M,CLR,M,M,M,M,M,M,M,M,M,M,M,M,M,M,82.83,KDRA 030453Z AUTO 10005KT 10SM CLR 29/10 A3010 RMK AO2 SLP137 T02940100,M
ELY,2024-08-03 04:53,-114.8453,39.2950,1909.00,76.00,45.00,33.19,230.00,9.00,0.00,30.35,1015.50,10.00,M,CLR,M,M,M,M,M,M,M,M,M,M,M,29.00,140.00,2024-08-03 04:13,76.00,KELY 030453Z AUTO 23009KT 10SM CLR 24/07 A3035 RMK AO2 PK WND 14029/0413 SLP155 T02440072,M
VGT,2024-08-03 04:53,-115.1933,36.2111,667.00,97.00,54.00,23.75,0.00,0.00,0.00,30.01,1014.40,10.00,M,CLR,M,M,M,M,M,M,M,M,M,M,M,M,M,M,94.92,KVGT 030453Z AUTO 00000KT 10SM CLR 36/12 A3001 RMK AO2 SLP144 T03610122,M
LOL,2024-08-03 04:53,-118.5701,40.0684,1192.43,88.00,40.00,18.54,270.00,9.00,0.00,30.09,1013.40,10.00,M,CLR,M,M,M,M,M,M,M,M,M,M,M,M,M,M,84.42,KLOL 030453Z AUTO 27009KT 10SM CLR 31/04 A3009 RMK AO2 SLP134 T03110044,M
NFL,2024-08-03 04:54,-118.7010,39.4166,1199.00,86.00,46.00,24.88,270.00,13.00,0.00,30.11,1016.40,10.00,M,SCT,BKN,OVC,M,8000.00,12000.00,25000.00,M,M,M,M,M,M,M,M,83.19,KNFL 030454Z 27013KT 10SM SCT080 BKN120 OVC250 30/08 A3011 RMK SLP164 T03000078,M
INS,2024-08-03 04:55,-115.6733,36.5872,955.00,90.00,50.40,25.84,240.00,5.00,0.00,30.09,1012.70,10.00,M,CLR,M,M,M,M,M,M,M,M,M,M,M,M,M,M,87.12,KINS 030455Z AUTO 24005KT 10SM CLR 32/10 A3009 RMK AO2 SLP127 T03220102 $,M
LSV,2024-08-03 04:55,-115.0343,36.2362,570.00,94.60,48.60,20.94,50.00,3.00,0.00,29.95,1011.00,10.00,M,CLR,M,M,M,M,M,M,M,M,M,M,M,M,M,M,91.23,KLSV 030455Z AUTO 05003KT 10SM CLR 35/09 A2995 RMK AO2 SLP110 T03480092 $,M
BVU,2024-08-03 04:55,-114.8611,35.9475,671.00,89.60,59.00,35.81,30.00,4.00,0.00,30.00,M,10.00,M,CLR,M,M,M,M,M,M,M,M,M,M,M,M,M,M,88.86,KBVU 030455Z AUTO 03004KT 10SM CLR 32/15 A3000 RMK AO2,M
CXP,2024-08-03 04:55,-119.7326,39.1923,1431.00,75.20,50.00,41.14,200.00,5.00,0.00,30.28,M,10.00,11.00,FEW,M,M,M,12000.00,M,M,M,M,M,M,M,M,M,M,75.20,KCXP 030455Z AUTO 20005G11KT 10SM FEW120 24/10 A3028 RMK AO2,M
RNO,2024-08-03 04:55,-119.7711,39.4839,1341.00,83.00,46.00,27.39,310.00,13.00,0.00,30.22,1016.60,10.00,20.00,SCT,BKN,M,M,14000.00,22000.00,M,M,M,M,M,M,28.00,290.00,2024-08-03 03:59,81.00,KRNO 030455Z 31013G20KT 10SM SCT140 BKN220 28/08 A3022 RMK AO2 PK WND 29028/0359 SLP166 T02830078,M
05U,2024-08-03 04:55,-116.0051,39.6042,1811.23,82.40,46.40,28.36,160.00,26.00,0.00,30.30,M,8.00,32.00,FEW,FEW,M,M,300.00,12000.00,M,M,M,M,M,M,M,M,M,80.64,K05U 030455Z AUTO 16026G32KT 8SM FEW003 FEW120 28/08 A3030 RMK A01,M
MEV,2024-08-03 04:55,-119.7500,38.9963,1441.42,69.80,55.40,60.21,200.00,6.00,0.00,30.28,M,10.00,M,SCT,BKN,OVC,M,8000.00,9000.00,11000.00,M,M,M,M,M,M,M,M,69.80,KMEV 030455Z AUTO 20006KT 10SM SCT080 BKN090 OVC110 21/13 A3028 RMK AO2,M
BAM,2024-08-03 04:55,-116.8743,40.5990,1382.36,82.40,44.60,26.49,220.00,4.00,0.00,30.12,M,10.00,M,CLR,M,M,M,M,M,M,M,M,M,M,M,M,M,M,80.50,KBAM 030455Z AUTO 22004KT 10SM CLR 28/07 A3012 RMK AO1,M
HTH,2024-08-03 04:55,-118.6315,38.5448,1282.89,86.00,42.80,22.02,190.00,6.00,0.00,30.16,M,10.00,M,SCT,M,M,M,12000.00,M,M,M,M,M,M,M,M,M,M,82.95,KHTH 030455Z AUTO 19006KT 10SM SCT120 30/06 A3016 RMK A01,M
10U,2024-08-03 04:55,-116.1876,41.9532,1637.00,82.40,32.00,16.17,0.00,0.00,0.00,30.22,M,10.00,M,CLR,M,M,M,M,M,M,M,M,M,M,M,M,M,M,80.00,K10U 030455Z AUTO 00000KT 10SM CLR 28/00 A3022 RMK AO2,M
TMT,2024-08-03 04:55,-117.1971,39.4643,1749.34,80.20,38.30,22.31,290.00,5.00,0.00,30.27,M,10.00,M,CLR,M,M,M,M,M,M,M,M,M,M,M,M,M,M,78.97,KTMT 030455Z AUTO 29005KT 10SM CLR 27/04 A3027 RMK AO2 T02680035,M
EKO,2024-08-03 04:56,-115.7860,40.8242,1367.00,81.00,30.00,15.60,130.00,8.00,0.00,30.18,1014.90,10.00,M,CLR,M,M,M,M,M,M,M,M,M,M,M,M,M,M,79.02,KEKO 030456Z AUTO 13008KT 10SM CLR 27/M01 A3018 RMK AO2 SLP149 T02721011,M
WMC,2024-08-03 04:56,-117.8072,40.9019,1315.00,91.00,34.00,13.32,260.00,10.00,0.00,30.10,1012.70,10.00,M,CLR,M,M,M,M,M,M,M,M,M,M,M,M,M,M,86.79,KWMC 030456Z AUTO 26010KT 10SM CLR 33/01 A3010 RMK AO2 SLP127 T03280011,M
HND,2024-08-03 04:56,-115.1344,35.9729,742.79,94.00,57.00,29.05,220.00,6.00,0.00,30.06,1016.00,10.00,M,CLR,M,M,M,M,M,M,M,M,M,M,M,M,M,M,92.68,KHND 030456Z 22006KT 10SM CLR 34/14 A3006 RMK AO2 SLP160 T03440139,M
TPH,2024-08-03 04:56,-117.0904,38.0505,1654.00,79.00,48.00,33.66,190.00,7.00,0.00,30.28,1016.10,10.00,M,FEW,BKN,M,M,7000.00,11000.00,M,M,M,M,M,M,M,M,M,79.00,KTPH 030456Z AUTO 19007KT 10SM FEW070 BKN110 26/09 A3028 RMK AO2 SLP161 T02610089,M
LAS,2024-08-03 04:56,-115.1634,36.0719,663.00,98.00,55.00,23.89,220.00,4.00,0.00,30.02,1013.20,10.00,M,FEW,FEW,SCT,M,10000.00,14000.00,20000.00,M,M,M,M,M,M,M,M,96.31,KLAS 030456Z 22004KT 10SM FEW100 FEW140 SCT200 37/13 A3002 RMK AO2 SLP132 T03670128,M
BVU,2024-08-03 05:15,-114.8611,35.9475,671.00,89.60,57.20,33.56,310.00,3.00,0.00,30.00,M,10.00,M,CLR,M,M,M,M,M,M,M,M,M,M,M,M,M,M,88.28,KBVU 030515Z AUTO 31003KT 10SM CLR 32/14 A3000 RMK AO2,M
CXP,2024-08-03 05:15,-119.7326,39.1923,1431.00,75.20,51.80,43.97,200.00,8.00,0.00,30.29,M,10.00,14.00,FEW,M,M,M,12000.00,M,M,M,M,M,M,M,M,M,M,75.20,KCXP 030515Z AUTO 20008G14KT 10SM FEW120 24/11 A3029 RMK AO2,M
05U,2024-08-03 05:15,-116.0051,39.6042,1811.23,80.60,48.20,32.18,170.00,21.00,0.00,30.30,M,10.00,30.00,FEW,M,M,M,11000.00,M,M,M,M,M,M,M,M,M,M,79.71,K05U 030515Z AUTO 17021G30KT 10SM FEW110 27/09 A3030 RMK A01,M
MEV,2024-08-03 05:15,-119.7500,38.9963,1441.42,71.60,53.60,53.03,190.00,8.00,0.00,30.27,M,10.00,M,FEW,SCT,BKN,M,5500.00,6500.00,8000.00,M,M,M,M,M,M,M,M,71.60,KMEV 030515Z AUTO 19008KT 10SM FEW055 SCT065 BKN080 22/12 A3027 RMK AO2,M
BAM,2024-08-03 05:15,-116.8743,40.5990,1382.36,80.60,44.60,28.08,0.00,0.00,0.00,30.12,M,10.00,M,CLR,M,M,M,M,M,M,M,M,M,M,M,M,M,M,79.42,KBAM 030515Z AUTO 00000KT 10SM CLR 27/07 A3012 RMK AO1,M
HTH,2024-08-03 05:15,-118.6315,38.5448,1282.89,86.00,44.60,23.59,140.00,6.00,0.00,30.15,M,10.00,M,FEW,SCT,BKN,M,4900.00,6000.00,11000.00,M,M,M,M,M,M,M,M,83.07,KHTH 030515Z AUTO 14006KT 10SM FEW049 SCT060 BKN110 30/07 A3015 RMK A01,M
10U,2024-08-03 05:15,-116.1876,41.9532,1637.00,77.00,32.00,19.30,0.00,0.00,0.00,30.22,M,10.00,M,CLR,M,M,M,M,M,M,M,M,M,M,M,M,M,M,77.00,K10U 030515Z AUTO 00000KT 10SM CLR 25/00 A3022 RMK AO2,M
TMT,2024-08-03 05:15,-117.1971,39.4643,1749.34,80.80,38.70,22.22,0.00,0.00,0.00,30.27,M,10.00,M,CLR,M,M,M,M,M,M,M,M,M,M,M,M,M,M,79.20,KTMT 030515Z AUTO 00000KT 10SM CLR 27/04 A3027 RMK AO2 T02710037,M
05U,2024-08-03 05:30,-116.0051,39.6042,1811.23,78.80,48.20,34.13,170.00,21.00,0.00,30.30,M,10.00,M,FEW,M,M,M,11000.00,M,M,M,M,M,M,M,M,M,M,78.80,K05U 030530Z AUTO 17021KT 10SM FEW110 26/09 A3030 RMK A01,M
BVU,2024-08-03 05:35,-114.8611,35.9475,671.00,89.60,53.60,29.45,310.00,5.00,0.00,30.00,M,10.00,M,CLR,M,M,M,M,M,M,M,M,M,M,M,M,M,M,87.36,KBVU 030535Z AUTO 31005KT 10SM CLR 32/12 A3000 RMK AO2,M
CXP,2024-08-03 05:35,-119.7326,39.1923,1431.00,75.20,50.00,41.14,0.00,0.00,0.00,30.28,M,10.00,M,FEW,FEW,SCT,M,6000.00,7500.00,8500.00,M,M,M,M,M,M,M,M,75.20,KCXP 030535Z AUTO 00000KT 10SM FEW060 FEW075 SCT085 24/10 A3028 RMK AO2,M
MEV,2024-08-03 05:35,-119.7500,38.9963,1441.42,71.60,51.80,49.64,0.00,0.00,0.00,30.24,M,10.00,M,FEW,SCT,BKN,M,4300.00,6500.00,7500.00,M,M,M,M,M,M,M,M,71.60,KMEV 030535Z AUTO 00000KT 10SM FEW043 SCT065 BKN075 22/11 A3024 RMK AO2,M
BAM,2024-08-03 05:35,-116.8743,40.5990,1382.36,80.60,42.80,26.22,200.00,3.00,0.00,30.12,M,10.00,M,CLR,M,M,M,M,M,M,M,M,M,M,M,M,M,M,79.30,KBAM 030535Z AUTO 20003KT 10SM CLR 27/06 A3012 RMK AO1,M
HTH,2024-08-03 05:35,-118.6315,38.5448,1282.89,84.20,44.60,24.99,160.00,9.00,0.00,30.15,M,10.00,M,FEW,SCT,BKN,M,4600.00,6000.00,7500.00,M,M,M,M,M,M,M,M,81.73,KHTH 030535Z AUTO 16009KT 10SM FEW046 SCT060 BKN075 29/07 A3015 RMK A01,M
10U,2024-08-03 05:35,-116.1876,41.9532,1637.00,78.80,33.80,19.55,0.00,0.00,0.00,30.22,M,10.00,M,CLR,M,M,M,M,M,M,M,M,M,M,M,M,M,M,78.80,K10U 030535Z AUTO 00000KT 10SM CLR 26/01 A3022 RMK AO2,M
TMT,2024-08-03 05:35,-117.1971,39.4643,1749.34,78.80,39.00,24.00,270.00,4.00,0.00,30.26,M,10.00,M,CLR,M,M,M,M,M,M,M,M,M,M,M,M,M,M,78.80,KTMT 030535Z AUTO 27004KT 10SM CLR 26/04 A3026 RMK AO2 T02600039,M
05U,2024-08-03 05:50,-116.0051,39.6042,1811.23,78.80,44.60,29.79,170.00,21.00,0.00,30.30,M,10.00,29.00,CLR,M,M,M,M,M,M,M,M,M,M,M,M,M,M,78.80,K05U 030550Z AUTO 17021G29KT 10SM CLR 26/07 A3030 RMK A01,M
P68,2024-08-03 05:53,-116.0056,39.6014,1993.00,79.00,45.00,30.05,180.00,25.00,0.00,30.27,1014.60,M,34.00,M,M,M,M,M,M,M,M,M,M,M,M,39.00,170.00,2024-08-03 05:00,79.00,KP68 030553Z AUTO 18025G34KT 26/07 A3027 RMK AO1 PK WND 17039/0500 SLP146 T02610072 10350 20261 51013,M
DRA,2024-08-03 05:53,-116.0278,36.6206,1009.00,86.00,51.00,30.00,100.00,3.00,0.00,30.11,1013.80,10.00,M,CLR,M,M,M,M,M,M,M,M,M,M,M,M,M,M,83.75,KDRA 030553Z AUTO 10003KT 10SM CLR 30/11 A3011 RMK AO2 SLP138 T03000106 10356 20289 51007,M
ELY,2024-08-03 05:53,-114.8453,39.2950,1909.00,75.00,44.00,33.03,250.00,5.00,0.00,30.34,1014.70,10.00,M,CLR,M,M,M,M,M,M,M,M,M,M,M,M,M,M,75.00,KELY 030553Z AUTO 25005KT 10SM CLR 24/07 A3034 RMK AO2 SLP147 T02390067 10344 20233 50017,M
VGT,2024-08-03 05:53,-115.1933,36.2111,667.00,96.00,54.00,24.49,340.00,3.00,0.00,30.01,1014.60,10.00,M,CLR,M,M,M,M,M,M,M,M,M,M,M,M,M,M,93.86,KVGT 030553Z AUTO 34003KT 10SM CLR 36/12 A3001 RMK AO2 SLP146 T03560122 10394 20356 51009,M
LOL,2024-08-03 05:53,-118.5701,40.0684,1192.43,84.00,41.00,21.90,220.00,5.00,0.00,30.10,1014.00,10.00,M,CLR,M,M,M,M,M,M,M,M,M,M,M,M,M,M,81.37,KLOL 030553Z AUTO 22005KT 10SM CLR 29/05 A3010 RMK AO2 SLP140 T02890050 10378 20289 53011,M
NFL,2024-08-03 05:54,-118.7010,39.4166,1199.00,85.00,47.00,26.67,290.00,7.00,0.00,30.12,1016.50,10.00,M,SCT,BKN,OVC,M,8000.00,12000.00,25000.00,M,M,M,M,M,M,M,M,82.51,KNFL 030554Z 29007KT 10SM SCT080 BKN120 OVC250 29/08 A3012 RMK AO2 SLP165 T02940083 10389 20294 51008,M
INS,2024-08-03 05:55,-115.6733,36.5872,955.00,87.30,52.00,29.86,230.00,8.00,0.00,30.09,1012.70,10.00,M,FEW,M,M,M,18000.00,M,M,M,M,M,M,M,M,M,M,84.99,KINS 030555Z AUTO 23008KT 10SM FEW180 31/11 A3009 RMK AO2 SLP127 T03070111 10362 20302 52010 $,M
LSV,2024-08-03 05:55,-115.0343,36.2362,570.00,94.50,49.60,21.80,50.00,3.00,0.00,29.96,1011.30,10.00,M,CLR,M,M,M,M,M,M,M,M,M,M,M,M,M,M,91.31,KLSV 030555Z AUTO 05003KT 10SM CLR 35/10 A2996 RMK AO2 SLP113 T03470098 10396 20345 52009 $,M
BVU,2024-08-03 05:55,-114.8611,35.9475,671.00,89.60,55.40,31.45,330.00,4.00,0.00,30.01,M,10.00,M,CLR,M,M,M,M,M,M,M,M,M,M,M,M,M,M,87.78,KBVU 030555Z AUTO 33004KT 10SM CLR 32/13 A3001 RMK AO2,M
CXP,2024-08-03 05:55,-119.7326,39.1923,1431.00,75.20,51.80,43.97,0.00,0.00,0.00,30.26,M,10.00,M,FEW,FEW,SCT,M,6000.00,7000.00,8000.00,M,M,M,M,M,M,M,M,75.20,KCXP 030555Z AUTO 00000KT 10SM FEW060 FEW070 SCT080 24/11 A3026 RMK AO2,M
RNO,2024-08-03 05:55,-119.7711,39.4839,1341.00,81.00,48.00,31.52,160.00,3.00,0.00,30.23,1017.00,10.00,M,BKN,M,M,M,14000.00,M,M,M,M,M,M,M,M,M,M,79.92,KRNO 030555Z 16003KT 10SM BKN140 27/09 A3023 RMK AO2 SLP170 60000 T02720089 10367 20272 53009,M
MEV,2024-08-03 05:55,-119.7500,38.9963,1441.42,69.80,55.40,60.21,80.00,8.00,0.00,30.24,M,10.00,M,FEW,OVC,M,M,7500.00,11000.00,M,M,M,M,M,M,M,M,M,69.80,KMEV 030555Z AUTO 08008KT 10SM FEW075 OVC110 21/13 A3024 RMK AO2,M
BAM,2024-08-03 05:55,-116.8743,40.5990,1382.36,78.80,37.40,22.54,180.00,6.00,0.00,30.12,M,10.00,M,CLR,M,M,M,M,M,M,M,M,M,M,M,M,M,M,78.80,KBAM 030555Z AUTO 18006KT 10SM CLR 26/03 A3012 RMK AO1,M
HTH,2024-08-03 05:55,-118.6315,38.5448,1282.89,84.20,44.60,24.99,150.00,6.00,0.00,30.15,M,10.00,M,FEW,FEW,BKN,M,5500.00,6500.00,7500.00,M,M,M,M,M,M,M,M,81.73,KHTH 030555Z AUTO 15006KT 10SM FEW055 FEW065 BKN075 29/07 A3015 RMK A01,M
10U,2024-08-03 05:55,-116.1876,41.9532,1637.00,84.20,32.00,15.25,150.00,10.00,0.00,30.21,M,10.00,15.00,CLR,M,M,M,M,M,M,M,M,M,M,M,M,M,M,81.28,K10U 030555Z AUTO 15010G15KT 10SM CLR 29/M00 A3021 RMK AO2,M
TMT,2024-08-03 05:55,-117.1971,39.4643,1749.34,77.00,39.40,25.88,90.00,5.00,0.00,30.26,M,10.00,M,CLR,M,M,M,M,M,M,M,M,M,M,M,M,M,M,77.00,KTMT 030555Z AUTO 09005KT 10SM CLR 25/04 A3026 RMK AO2 T02490041 10336 20249,M
EKO,2024-08-03 05:56,-115.7860,40.8242,1367.00,76.00,32.00,19.95,0.00,0.00,0.00,30.17,1014.50,10.00,M,CLR,M,M,M,M,M,M,M,M,M,M,M,M,M,M,76.00,KEKO 030556Z AUTO 00000KT 10SM CLR 24/00 A3017 RMK AO2 SLP145 T02440000 10389 20244 50008,M
WMC,2024-08-03 05:56,-117.8072,40.9019,1315.00,89.00,34.00,14.18,280.00,11.00,0.00,30.10,1012.50,10.00,M,CLR,M,M,M,M,M,M,M,M,M,M,M,M,M,M,85.09,KWMC 030556Z AUTO 28011KT 10SM CLR 32/01 A3010 RMK AO2 SLP125 T03170011 10406 20289 51007,M
HND,2024-08-03 05:56,-115.1344,35.9729,742.79,91.00,57.00,31.89,200.00,6.00,0.00,30.06,1016.10,10.00,M,CLR,M,M,M,M,M,M,M,M,M,M,M,M,M,M,89.59,KHND 030556Z 20006KT 10SM CLR 33/14 A3006 RMK AO2 SLP161 T03280139 10389 20328 51010,M
TPH,2024-08-03 05:56,-117.0904,38.0505,1654.00,78.00,51.00,38.90,90.00,9.00,0.00,30.31,1016.90,10.00,M,BKN,BKN,M,M,9500.00,12000.00,M,M,M,M,M,M,M,M,M,78.00,KTPH 030556Z AUTO 09009KT 10SM BKN095 BKN120 26/11 A3031 RMK AO2 LTG DSNT SW SLP169 60000 T02560106 10306 20256 53019,M
LAS,2024-08-03 05:56,-115.1634,36.0719,663.00,97.00,56.00,25.55,190.00,5.00,0.00,30.02,1013.30,10.00,M,FEW,M,M,M,20000.00,M,M,M,M,M,M,M,M,M,M,95.56,KLAS 030556Z 19005KT 10SM FEW200 36/13 A3002 RMK AO2 SLP133 T03610133 10400 20361 51008,M
05U,2024-08-03 06:10,-116.0051,39.6042,1811.23,78.80,44.60,29.79,190.00,18.00,0.00,30.30,M,10.00,25.00,CLR,M,M,M,M,M,M,M,M,M,M,M,M,M,M,78.80,K05U 030610Z AUTO 19018G25KT 10SM CLR 26/07 A3030 RMK A01,M
TPH,2024-08-03 06:12,-117.0904,38.0505,1654.00,75.00,55.00,49.78,60.00,22.00,0.00,30.32,M,10.00,29.00,FEW,FEW,OVC,M,5000.00,6500.00,9000.00,M,VCTS,M,M,M,29.00,50.00,2024-08-03 06:08,75.00,KTPH 030612Z AUTO 06022G29KT 10SM VCTS FEW050 FEW065 OVC090 24/13 A3032 RMK AO2 PK WND 05029/0608 T02390128,M
BVU,2024-08-03 06:15,-114.8611,35.9475,671.00,91.40,55.40,29.72,280.00,3.00,0.00,30.01,M,10.00,M,CLR,M,M,M,M,M,M,M,M,M,M,M,M,M,M,89.53,KBVU 030615Z AUTO 28003KT 10SM CLR 33/13 A3001 RMK AO2,M
CXP,2024-08-03 06:15,-119.7326,39.1923,1431.00,75.20,51.80,43.97,0.00,0.00,0.00,30.25,M,10.00,M,CLR,M,M,M,M,M,M,M,M,M,M,M,M,M,M,75.20,KCXP 030615Z AUTO 00000KT 10SM CLR 24/11 A3025 RMK AO2,M
MEV,2024-08-03 06:15,-119.7500,38.9963,1441.42,69.80,55.40,60.21,110.00,5.00,0.00,30.24,M,10.00,11.00,FEW,FEW,OVC,M,5500.00,8000.00,11000.00,M,M,M,M,M,M,M,M,69.80,KMEV 030615Z AUTO 11005G11KT 10SM FEW055 FEW080 OVC110 21/13 A3024 RMK AO2,M
BAM,2024-08-03 06:15,-116.8743,40.5990,1382.36,84.20,33.80,16.39,240.00,8.00,0.00,30.12,M,10.00,M,CLR,M,M,M,M,M,M,M,M,M,M,M,M,M,M,81.30,KBAM 030615Z AUTO 24008KT 10SM CLR 29/01 A3012 RMK AO1,M
HTH,2024-08-03 06:15,-118.6315,38.5448,1282.89,84.20,44.60,24.99,150.00,9.00,0.00,30.15,M,10.00,M,FEW,SCT,BKN,M,5000.00,6000.00,8000.00,M,M,M,M,M,M,M,M,81.73,KHTH 030615Z AUTO 15009KT 10SM FEW050 SCT060 BKN080 29/07 A3015 RMK A01,M
10U,2024-08-03 06:15,-116.1876,41.9532,1637.00,84.20,32.00,15.25,130.00,9.00,0.00,30.21,M,10.00,15.00,CLR,M,M,M,M,M,M,M,M,M,M,M,M,M,M,81.28,K10U 030615Z AUTO 13009G15KT 10SM CLR 29/M00 A3021 RMK AO2,M
TMT,2024-08-03 06:15,-117.1971,39.4643,1749.34,73.00,39.40,29.58,0.00,0.00,0.00,30.26,M,10.00,M,CLR,M,M,M,M,M,M,M,M,M,M,M,M,M,M,73.00,KTMT 030615Z AUTO 00000KT 10SM CLR 23/04 A3026 RMK AO2 T02270041,M
TPH,2024-08-03 06:27,-117.0904,38.0505,1654.00,73.00,57.00,57.23,60.00,18.00,T,30.33,M,10.00,28.00,FEW,OVC,M,M,5500.00,8000.00,M,M,-RA,M,M,M,29.00,50.00,2024-08-03 06:08,73.00,KTPH 030627Z AUTO 06018G28KT 10SM -RA FEW055 OVC080 23/14 A3033 RMK AO2 PK WND 05029/0608 RAB18 P0000 T02280139,M
BVU,2024-08-03 06:35,-114.8611,35.9475,671.00,89.60,57.20,33.56,0.00,0.00,0.00,30.01,M,10.00,M,CLR,M,M,M,M,M,M,M,M,M,M,M,M,M,M,88.28,KBVU 030635Z AUTO 00000KT 10SM CLR 32/14 A3001 RMK AO2,M
CXP,2024-08-03 06:35,-119.7326,39.1923,1431.00,75.20,51.80,43.97,0.00,0.00,0.00,30.25,M,10.00,M,FEW,M,M,M,12000.00,M,M,M,M,M,M,M,M,M,M,75.20,KCXP 030635Z AUTO 00000KT 10SM FEW120 24/11 A3025 RMK AO2,M
05U,2024-08-03 06:35,-116.0051,39.6042,1811.23,78.80,44.60,29.79,180.00,20.00,0.00,30.31,M,10.00,28.00,CLR,M,M,M,M,M,M,M,M,M,M,M,M,M,M,78.80,K05U 030635Z AUTO 18020G28KT 10SM CLR 26/07 A3031 RMK A01,M
MEV,2024-08-03 06:35,-119.7500,38.9963,1441.42,69.80,55.40,60.21,90.00,7.00,0.00,30.24,M,10.00,M,FEW,SCT,BKN,M,4800.00,6000.00,8000.00,M,M,M,M,M,M,M,M,69.80,KMEV 030635Z AUTO 09007KT 10SM FEW048 SCT060 BKN080 21/13 A3024 RMK AO2,M
BAM,2024-08-03 06:35,-116.8743,40.5990,1382.36,87.80,33.80,14.61,250.00,11.00,0.00,30.11,M,10.00,M,CLR,M,M,M,M,M,M,M,M,M,M,M,M,M,M,84.10,KBAM 030635Z AUTO 25011KT 10SM CLR 31/01 A3011 RMK AO1,M
HTH,2024-08-03 06:35,-118.6315,38.5448,1282.89,84.20,44.60,24.99,170.00,6.00,0.00,30.15,M,10.00,M,FEW,FEW,FEW,M,6000.00,8000.00,9000.00,M,M,M,M,M,M,M,M,81.73,KHTH 030635Z AUTO 17006KT 10SM FEW060 FEW080 FEW090 29/07 A3015 RMK A01,M
10U,2024-08-03 06:35,-116.1876,41.9532,1637.00,82.40,32.00,16.17,120.00,7.00,0.00,30.21,M,10.00,16.00,CLR,M,M,M,M,M,M,M,M,M,M,M,M,M,M,80.00,K10U 030635Z AUTO 12007G16KT 10SM CLR 28/M00 A3021 RMK AO2,M
TMT,2024-08-03 06:35,-117.1971,39.4643,1749.34,71.00,38.70,30.80,150.00,9.00,0.00,30.28,M,10.00,M,CLR,M,M,M,M,M,M,M,M,M,M,M,M,M,M,71.00,KTMT 030635Z AUTO 15009KT 10SM CLR 22/04 A3028 RMK AO2 T02170037,M
P68,2024-08-03 06:53,-116.0056,39.6014,1993.00,78.00,46.00,32.26,190.00,29.00,0.00,30.28,1014.40,M,36.00,M,M,M,M,M,M,M,M,M,M,M,M,36.00,190.00,2024-08-03 06:53,78.00,KP68 030653Z AUTO 19029G36KT 26/08 A3028 RMK AO1 PK WND 19036/0653 SLP144 T02560078,M
DRA,2024-08-03 06:53,-116.0278,36.6206,1009.00,85.00,50.00,29.85,360.00,5.00,0.00,30.11,1014.00,10.00,M,CLR,M,M,M,M,M,M,M,M,M,M,M,M,M,M,82.83,KDRA 030653Z AUTO 36005KT 10SM CLR 29/10 A3011 RMK AO2 SLP140 T02940100,M
ELY,2024-08-03 06:53,-114.8453,39.2950,1909.00,71.00,44.00,37.80,190.00,5.00,0.00,30.36,1015.30,10.00,M,CLR,M,M,M,M,M,M,M,M,M,M,M,M,M,M,71.00,KELY 030653Z AUTO 19005KT 10SM CLR 22/07 A3036 RMK AO2 SLP153 T02170067,M
VGT,2024-08-03 06:53,-115.1933,36.2111,667.00,94.00,54.00,26.05,0.00,0.00,0.00,30.01,1014.60,10.00,M,CLR,M,M,M,M,M,M,M,M,M,M,M,M,M,M,91.78,KVGT 030653Z AUTO 00000KT 10SM CLR 34/12 A3001 RMK AO2 SLP146 T03440122,M
LOL,2024-08-03 06:53,-118.5701,40.0684,1192.43,81.00,42.00,25.09,0.00,0.00,0.00,30.10,1014.10,10.00,M,CLR,M,M,M,M,M,M,M,M,M,M,M,M,M,M,79.48,KLOL 030653Z AUTO 00000KT 10SM CLR 27/06 A3010 RMK AO2 SLP141 T02720056,M
NFL,2024-08-03 06:54,-118.7010,39.4166,1199.00,84.00,46.00,26.52,190.00,4.00,0.00,30.12,1016.60,10.00,M,CLR,M,M,M,M,M,M,M,M,M,M,M,M,M,M,81.69,KNFL 030654Z AUTO 19004KT 10SM CLR 29/08 A3012 RMK AO2 SLP166 T02890078,M
INS,2024-08-03 06:55,-115.6733,36.5872,955.00,86.40,52.00,30.73,240.00,7.00,0.00,30.09,1012.90,10.00,M,FEW,M,M,M,14000.00,M,M,M,M,M,M,M,M,M,M,84.23,KINS 030655Z AUTO 24007KT 10SM FEW140 30/11 A3009 RMK AO2 SLP129 T03020112 $,M
LSV,2024-08-03 06:55,-115.0343,36.2362,570.00,91.00,48.00,22.90,0.00,0.00,0.00,29.96,1011.40,10.00,M,CLR,M,M,M,M,M,M,M,M,M,M,M,M,M,M,87.69,KLSV 030655Z AUTO 00000KT 10SM CLR 33/09 A2996 RMK AO2 SLP114 T03270088 $,M
BVU,2024-08-03 06:55,-114.8611,35.9475,671.00,87.80,57.20,35.53,0.00,0.00,0.00,30.01,M,10.00,M,CLR,M,M,M,M,M,M,M,M,M,M,M,M,M,M,86.58,KBVU 030655Z AUTO 00000KT 10SM CLR 31/14 A3001 RMK AO2,M
CXP,2024-08-03 06:55,-119.7326,39.1923,1431.00,75.20,50.00,41.14,0.00,0.00,0.00,30.25,M,10.00,M,FEW,FEW,SCT,M,5500.00,6500.00,9500.00,M,M,M,M,M,M,M,M,75.20,KCXP 030655Z AUTO 00000KT 10SM FEW055 FEW065 SCT095 24/10 A3025 RMK AO2,M
RNO,2024-08-03 06:55,-119.7711,39.4839,1341.00,81.00,46.00,29.23,0.00,0.00,0.00,30.21,1016.20,10.00,M,BKN,M,M,M,15000.00,M,M,M,M,M,M,M,M,M,M,79.76,KRNO 030655Z 00000KT 10SM BKN150 27/08 A3021 RMK AO2 SLP162 T02720078,M
RTS,2024-08-03 06:55,-119.8764,39.6682,1539.00,77.00,37.40,23.93,280.00,8.00,0.00,30.27,M,10.00,M,FEW,M,M,M,12000.00,M,M,M,M,M,M,M,M,M,M,77.00,KRTS 030655Z AUTO 28008KT 10SM FEW120 25/03 A3027 RMK AO2,M
05U,2024-08-03 06:55,-116.0051,39.6042,1811.23,77.00,46.40,33.85,180.00,19.00,0.00,30.31,M,10.00,29.00,CLR,M,M,M,M,M,M,M,M,M,M,M,M,M,M,77.00,K05U 030655Z AUTO 18019G29KT 10SM CLR 25/08 A3031 RMK A01,M
MEV,2024-08-03 06:55,-119.7500,38.9963,1441.42,68.00,55.40,64.04,150.00,6.00,0.00,30.25,M,10.00,M,FEW,SCT,BKN,M,4800.00,6000.00,8000.00,M,M,M,M,M,M,M,M,68.00,KMEV 030655Z AUTO 15006KT 10SM FEW048 SCT060 BKN080 20/13 A3025 RMK AO2,M
BAM,2024-08-03 06:55,-116.8743,40.5990,1382.36,86.00,33.80,15.48,120.00,9.00,0.00,30.14,M,10.00,17.00,CLR,M,M,M,M,M,M,M,M,M,M,M,M,M,M,82.66,KBAM 030655Z AUTO 12009G17KT 10SM CLR 30/01 A3014 RMK AO1,M
HTH,2024-08-03 06:55,-118.6315,38.5448,1282.89,84.20,44.60,24.99,190.00,4.00,0.00,30.16,M,10.00,M,CLR,M,M,M,M,M,M,M,M,M,M,M,M,M,M,81.73,KHTH 030655Z AUTO 19004KT 10SM CLR 29/07 A3016 RMK A01,M
10U,2024-08-03 06:55,-116.1876,41.9532,1637.00,78.80,32.00,18.18,80.00,5.00,0.00,30.21,M,10.00,M,CLR,M,M,M,M,M,M,M,M,M,M,M,M,M,M,78.80,K10U 030655Z AUTO 08005KT 10SM CLR 26/00 A3021 RMK AO2,M
TMT,2024-08-03 06:55,-117.1971,39.4643,1749.34,80.80,40.00,23.37,200.00,4.00,0.00,30.27,M,10.00,14.00,CLR,M,M,M,M,M,M,M,M,M,M,M,M,M,M,79.26,KTMT 030655Z AUTO 20004G14KT 10SM CLR 27/05 A3027 RMK AO2 T02710045,M
EKO,2024-08-03 06:56,-115.7860,40.8242,1367.00,69.00,37.00,30.84,270.00,3.00,0.00,30.19,1015.40,10.00,M,CLR,M,M,M,M,M,M,M,M,M,M,M,M,M,M,69.00,KEKO 030656Z AUTO 27003KT 10SM CLR 21/03 A3019 RMK AO2 SLP154 T02060028,M
WMC,2024-08-03 06:56,-117.8072,40.9019,1315.00,86.00,34.00,15.60,250.00,9.00,0.00,30.10,1012.60,10.00,M,CLR,M,M,M,M,M,M,M,M,M,M,M,M,M,M,82.66,KWMC 030656Z AUTO 25009KT 10SM CLR 30/01 A3010 RMK AO2 SLP126 T03000011,M
HND,2024-08-03 06:56,-115.1344,35.9729,742.79,90.00,58.00,34.11,210.00,8.00,0.00,30.06,1016.10,10.00,M,CLR,M,M,M,M,M,M,M,M,M,M,M,M,M,M,88.92,KHND 030656Z 21008KT 10SM CLR 32/14 A3006 RMK AO2 SLP161 T03220144 403890306,M
TPH,2024-08-03 06:56,-117.0904,38.0505,1654.00,73.00,57.00,57.23,50.00,8.00,T,30.34,1018.00,10.00,M,OVC,M,M,M,8500.00,M,M,M,M,M,M,M,29.00,50.00,2024-08-03 06:08,73.00,KTPH 030656Z AUTO 05008KT 10SM OVC085 23/14 A3034 RMK AO2 PK WND 05029/0608 RAB18E52 SLP180 P0000 T02280139,M
LAS,2024-08-03 06:56,-115.1634,36.0719,663.00,95.00,57.00,28.16,190.00,6.00,0.00,30.03,1013.40,10.00,M,FEW,FEW,M,M,14000.00,20000.00,M,M,M,M,M,M,M,M,M,93.75,KLAS 030656Z 19006KT 10SM FEW140 FEW200 35/14 A3003 RMK AO2 SLP134 T03500139,M
BVU,2024-08-03 07:15,-114.8611,35.9475,671.00,87.80,57.20,35.53,0.00,0.00,0.00,30.01,M,10.00,M,CLR,M,M,M,M,M,M,M,M,M,M,M,M,M,M,86.58,KBVU 030715Z AUTO 00000KT 10SM CLR 31/14 A3001 RMK AO2,M
CXP,2024-08-03 07:15,-119.7326,39.1923,1431.00,73.40,51.80,46.71,0.00,0.00,0.00,30.25,M,10.00,M,FEW,SCT,BKN,M,4600.00,6500.00,8000.00,M,M,M,M,M,M,M,M,73.40,KCXP 030715Z AUTO 00000KT 10SM FEW046 SCT065 BKN080 23/11 A3025 RMK AO2,M
RTS,2024-08-03 07:15,-119.8764,39.6682,1539.00,77.00,37.40,23.93,280.00,8.00,0.00,30.26,M,10.00,14.00,FEW,M,M,M,12000.00,M,M,M,M,M,M,M,M,M,M,77.00,KRTS 030715Z AUTO 28008G14KT 10SM FEW120 25/03 A3026 RMK AO2,M
05U,2024-08-03 07:15,-116.0051,39.6042,1811.23,77.00,44.60,31.62,190.00,17.00,0.00,30.30,M,10.00,25.00,CLR,M,M,M,M,M,M,M,M,M,M,M,M,M,M,77.00,K05U 030715Z AUTO 19017G25KT 10SM CLR 25/07 A3030 RMK A01,M
MEV,2024-08-03 07:15,-119.7500,38.9963,1441.42,69.80,57.20,64.26,0.00,0.00,0.00,30.24,M,10.00,M,SCT,BKN,BKN,M,3600.00,5500.00,8000.00,M,-RA,M,M,M,M,M,M,69.80,KMEV 030715Z AUTO 00000KT 10SM -RA SCT036 BKN055 BKN080 21/14 A3024 RMK AO2,M
BAM,2024-08-03 07:15,-116.8743,40.5990,1382.36,89.60,33.80,13.80,100.00,3.00,0.00,30.13,M,10.00,M,CLR,M,M,M,M,M,M,M,M,M,M,M,M,M,M,85.59,KBAM 030715Z AUTO 10003KT 10SM CLR 32/01 A3013 RMK AO1,M
HTH,2024-08-03 07:15,-118.6315,38.5448,1282.89,84.20,44.60,24.99,210.00,6.00,0.00,30.16,M,10.00,11.00,FEW,SCT,BKN,M,4300.00,6000.00,9000.00,M,M,M,M,M,M,M,M,81.73,KHTH 030715Z AUTO 21006G11KT 10SM FEW043 SCT060 BKN090 29/07 A3016 RMK A01,M
TMT,2024-08-03 07:15,-117.1971,39.4643,1749.34,77.00,42.00,28.62,240.00,8.00,0.00,30.27,M,10.00,M,CLR,M,M,M,M,M,M,M,M,M,M,M,M,M,M,77.00,KTMT 030715Z AUTO 24008KT 10SM CLR 25/06 A3027 RMK AO2 T02500055,M
10U,2024-08-03 07:15,-116.1876,41.9532,1637.00,78.80,32.00,18.18,100.00,7.00,0.00,30.21,M,10.00,M,CLR,M,M,M,M,M,M,M,M,M,M,M,M,M,M,78.80,K10U 030715Z AUTO 10007KT 10SM CLR 26/M00 A3021 RMK AO2,M
BVU,2024-08-03 07:35,-114.8611,35.9475,671.00,86.00,57.20,37.62,0.00,0.00,0.00,30.00,M,10.00,M,CLR,M,M,M,M,M,M,M,M,M,M,M,M,M,M,84.97,KBVU 030735Z AUTO 00000KT 10SM CLR 30/14 A3000 RMK AO2,M
CXP,2024-08-03 07:35,-119.7326,39.1923,1431.00,73.40,51.80,46.71,0.00,0.00,0.00,30.25,M,10.00,M,FEW,FEW,SCT,M,4400.00,6500.00,8000.00,M,M,M,M,M,M,M,M,73.40,KCXP 030735Z AUTO 00000KT 10SM FEW044 FEW065 SCT080 23/11 A3025 RMK AO2,M
RTS,2024-08-03 07:35,-119.8764,39.6682,1539.00,75.20,37.40,25.40,270.00,9.00,0.00,30.26,M,10.00,M,CLR,M,M,M,M,M,M,M,M,M,M,M,M,M,M,75.20,KRTS 030735Z AUTO 27009KT 10SM CLR 24/03 A3026 RMK AO2,M
05U,2024-08-03 07:35,-116.0051,39.6042,1811.23,77.00,44.60,31.62,190.00,15.00,0.00,30.30,M,10.00,23.00,CLR,M,M,M,M,M,M,M,M,M,M,M,M,M,M,77.00,K05U 030735Z AUTO 19015G23KT 10SM CLR 25/07 A3030 RMK A01,M
MEV,2024-08-03 07:35,-119.7500,38.9963,1441.42,68.00,55.40,64.04,0.00,0.00,0.00,30.23,M,10.00,M,FEW,SCT,BKN,M,3900.00,7000.00,9000.00,M,M,M,M,M,M,M,M,68.00,KMEV 030735Z AUTO 00000KT 10SM FEW039 SCT070 BKN090 20/13 A3023 RMK AO2,M
BAM,2024-08-03 07:35,-116.8743,40.5990,1382.36,86.00,33.80,15.48,200.00,5.00,0.00,30.12,M,10.00,M,CLR,M,M,M,M,M,M,M,M,M,M,M,M,M,M,82.66,KBAM 030735Z AUTO 20005KT 10SM CLR 30/01 A3012 RMK AO1,M
HTH,2024-08-03 07:35,-118.6315,38.5448,1282.89,84.20,44.60,24.99,150.00,13.00,0.00,30.18,M,10.00,M,FEW,SCT,BKN,M,3800.00,5500.00,6500.00,M,M,M,M,M,M,M,M,81.73,KHTH 030735Z AUTO 15013KT 10SM FEW038 SCT055 BKN065 29/07 A3018 RMK A01,M
10U,2024-08-03 07:35,-116.1876,41.9532,1637.00,78.80,32.00,18.18,100.00,8.00,0.00,30.20,M,10.00,M,CLR,M,M,M,M,M,M,M,M,M,M,M,M,M,M,78.80,K10U 030735Z AUTO 10008KT 10SM CLR 26/M00 A3020 RMK AO2,M
TMT,2024-08-03 07:35,-117.1971,39.4643,1749.34,76.00,42.60,30.28,160.00,6.00,0.00,30.28,M,10.00,M,CLR,M,M,M,M,M,M,M,M,M,M,M,M,M,M,76.00,KTMT 030735Z AUTO 16006KT 10SM CLR 25/06 A3028 RMK AO2 T02450059,M
P68,2024-08-03 07:53,-116.0056,39.6014,1993.00,79.00,43.00,27.84,210.00,10.00,0.00,30.27,1013.80,M,23.00,M,M,M,M,M,M,M,M,M,M,M,M,36.00,190.00,2024-08-03 06:58,79.00,KP68 030753Z AUTO 21010G23KT 26/06 A3027 RMK AO1 PK WND 19036/0658 SLP138 T02610061 403670111,M
DRA,2024-08-03 07:53,-116.0278,36.6206,1009.00,84.00,51.00,31.99,0.00,0.00,0.00,30.10,1013.50,10.00,M,CLR,M,M,M,M,M,M,M,M,M,M,M,M,M,M,82.22,KDRA 030753Z AUTO 00000KT 10SM CLR 29/11 A3010 RMK AO2 SLP135 T02890106 403610289,M
ELY,2024-08-03 07:53,-114.8453,39.2950,1909.00,71.00,45.00,39.27,210.00,8.00,0.00,30.34,1014.30,10.00,M,CLR,M,M,M,M,M,M,M,M,M,M,M,M,M,M,71.00,KELY 030753Z AUTO 21008KT 10SM CLR 22/07 A3034 RMK AO2 SLP143 T02170072 403610094,M
VGT,2024-08-03 07:53,-115.1933,36.2111,667.00,93.00,55.00,27.87,340.00,3.00,0.00,30.00,1014.40,10.00,M,CLR,M,M,M,M,M,M,M,M,M,M,M,M,M,M,91.03,KVGT 030753Z AUTO 34003KT 10SM CLR 34/13 A3000 RMK AO2 SLP144 T03390128 403940322,M
LOL,2024-08-03 07:53,-118.5701,40.0684,1192.43,86.00,44.00,23.05,340.00,7.00,0.00,30.09,1013.30,10.00,M,CLR,M,M,M,M,M,M,M,M,M,M,M,M,M,M,83.03,KLOL 030753Z AUTO 34007KT 300V010 10SM CLR 30/07 A3009 RMK AO2 SLP133 T03000067 403940111,M
NFL,2024-08-03 07:54,-118.7010,39.4166,1199.00,81.00,47.00,30.36,250.00,8.00,0.00,30.12,1016.70,10.00,M,CLR,M,M,M,M,M,M,M,M,M,M,M,M,M,M,79.84,KNFL 030754Z AUTO 25008KT 10SM CLR 27/08 A3012 RMK AO2 SLP167 T02720083 403940167,M
INS,2024-08-03 07:55,-115.6733,36.5872,955.00,85.00,51.00,30.97,0.00,0.00,0.00,30.09,1012.70,10.00,M,CLR,M,M,M,M,M,M,M,M,M,M,M,M,M,M,82.97,KINS 030755Z AUTO 00000KT 10SM CLR 30/11 A3009 RMK AO2 SLP127 T02950106 403700286 $,M
LSV,2024-08-03 07:55,-115.0343,36.2362,570.00,91.00,49.00,23.77,0.00,0.00,0.00,29.95,1011.00,10.00,M,CLR,M,M,M,M,M,M,M,M,M,M,M,M,M,M,87.83,KLSV 030755Z AUTO 00000KT 10SM CLR 33/10 A2995 RMK AO2 SLP110 T03270095 403960318 $,M
BVU,2024-08-03 07:55,-114.8611,35.9475,671.00,86.00,57.20,37.62,0.00,0.00,0.00,30.00,M,10.00,M,CLR,M,M,M,M,M,M,M,M,M,M,M,M,M,M,84.97,KBVU 030755Z AUTO 00000KT 10SM CLR 30/14 A3000 RMK AO2,M
CXP,2024-08-03 07:55,-119.7326,39.1923,1431.00,73.40,51.80,46.71,0.00,0.00,0.00,30.24,M,10.00,M,CLR,M,M,M,M,M,M,M,M,M,M,M,M,M,M,73.40,KCXP 030755Z AUTO 00000KT 10SM CLR 23/11 A3024 RMK AO2,M
RNO,2024-08-03 07:55,-119.7711,39.4839,1341.00,81.00,44.00,27.09,320.00,5.00,0.00,30.21,1015.70,10.00,M,BKN,M,M,M,15000.00,M,M,M,M,M,M,M,M,M,M,79.61,KRNO 030755Z 32005KT 10SM BKN150 27/07 A3021 RMK AO2 SLP157 T02720067 403780200,M
RTS,2024-08-03 07:55,-119.8764,39.6682,1539.00,75.20,37.40,25.40,270.00,9.00,0.00,30.26,M,10.00,M,CLR,M,M,M,M,M,M,M,M,M,M,M,M,M,M,75.20,KRTS 030755Z AUTO 27009KT 10SM CLR 24/03 A3026 RMK AO2,M
05U,2024-08-03 07:55,-116.0051,39.6042,1811.23,78.80,42.80,27.81,220.00,10.00,0.00,30.29,M,10.00,M,FEW,M,M,M,12000.00,M,M,M,M,M,M,M,M,M,M,78.80,K05U 030755Z AUTO 22010KT 10SM FEW120 26/06 A3029 RMK A01,M
MEV,2024-08-03 07:55,-119.7500,38.9963,1441.42,66.20,57.20,72.74,110.00,5.00,0.00,30.23,M,10.00,M,FEW,SCT,BKN,M,5500.00,6500.00,7500.00,M,M,M,M,M,M,M,M,66.20,KMEV 030755Z AUTO 11005KT 10SM FEW055 SCT065 BKN075 19/14 A3023 RMK AO2,M
BAM,2024-08-03 07:55,-116.8743,40.5990,1382.36,78.80,35.60,21.00,70.00,4.00,0.00,30.12,M,10.00,M,CLR,M,M,M,M,M,M,M,M,M,M,M,M,M,M,78.80,KBAM 030755Z AUTO 07004KT 10SM CLR 26/02 A3012 RMK AO1,M
HTH,2024-08-03 07:55,-118.6315,38.5448,1282.89,84.20,44.60,24.99,160.00,7.00,0.00,30.19,M,10.00,13.00,FEW,SCT,BKN,M,3700.00,5000.00,7000.00,M,M,M,M,M,M,M,M,81.73,KHTH 030755Z AUTO 16007G13KT 10SM FEW037 SCT050 BKN070 29/07 A3019 RMK A01,M
10U,2024-08-03 07:55,-116.1876,41.9532,1637.00,77.00,32.00,19.30,0.00,0.00,0.00,30.20,M,10.00,M,CLR,M,M,M,M,M,M,M,M,M,M,M,M,M,M,77.00,K10U 030755Z AUTO 00000KT 10SM CLR 25/M00 A3020 RMK AO2,M
TMT,2024-08-03 07:55,-117.1971,39.4643,1749.34,75.20,42.80,31.34,210.00,8.00,0.00,30.28,M,10.00,M,CLR,M,M,M,M,M,M,M,M,M,M,M,M,M,M,75.20,KTMT 030755Z AUTO 21008KT 10SM CLR 24/06 A3028 RMK AO2 T02400060 403560058,M
EKO,2024-08-03 07:56,-115.7860,40.8242,1367.00,76.00,35.00,22.49,0.00,0.00,0.00,30.21,1015.20,10.00,M,CLR,M,M,M,M,M,M,M,M,M,M,M,M,M,M,76.00,KEKO 030756Z AUTO 00000KT 10SM CLR 24/02 A3021 RMK AO2 SLP152 T02440017 403890117,M
WMC,2024-08-03 07:56,-117.8072,40.9019,1315.00,84.00,35.00,17.31,280.00,10.00,0.00,30.10,1012.50,10.00,M,CLR,M,M,M,M,M,M,M,M,M,M,M,M,M,M,81.18,KWMC 030756Z AUTO 28010KT 10SM CLR 29/02 A3010 RMK AO2 SLP125 T02890017 404220111,M
HND,2024-08-03 07:56,-115.1344,35.9729,742.79,88.00,57.00,35.05,190.00,8.00,0.00,30.06,1015.90,10.00,M,CLR,M,M,M,M,M,M,M,M,M,M,M,M,M,M,86.71,KHND 030756Z 19008KT 10SM CLR 31/14 A3006 RMK AO2 SLP159 T03110139,M
TPH,2024-08-03 07:56,-117.0904,38.0505,1654.00,71.00,55.00,56.96,350.00,19.00,T,30.33,1017.70,10.00,25.00,BKN,OVC,M,M,8500.00,10000.00,M,M,M,M,M,M,M,M,M,71.00,KTPH 030756Z AUTO 35019G25KT 10SM BKN085 OVC100 22/13 A3033 RMK AO2 RAB02E13 SLP177 P0000 T02170128 403390189,M
LAS,2024-08-03 07:56,-115.1634,36.0719,663.00,94.00,54.00,26.05,210.00,3.00,0.00,30.02,1013.10,10.00,M,FEW,SCT,M,M,14000.00,20000.00,M,M,M,M,M,M,M,M,M,91.78,KLAS 030756Z 21003KT 10SM FEW140 SCT200 34/12 A3002 RMK AO2 SLP131 T03440122 404000328,M
BVU,2024-08-03 08:15,-114.8611,35.9475,671.00,86.00,57.20,37.62,350.00,4.00,0.00,29.99,M,10.00,M,CLR,M,M,M,M,M,M,M,M,M,M,M,M,M,M,84.97,KBVU 030815Z AUTO 35004KT 10SM CLR 30/14 A2999 RMK AO2,M
CXP,2024-08-03 08:15,-119.7326,39.1923,1431.00,71.60,51.80,49.64,0.00,0.00,0.00,30.24,M,10.00,M,FEW,FEW,M,M,9000.00,11000.00,M,M,M,M,M,M,M,M,M,71.60,KCXP 030815Z AUTO 00000KT 10SM FEW090 FEW110 22/11 A3024 RMK AO2,M
RTS,2024-08-03 08:15,-119.8764,39.6682,1539.00,75.20,37.40,25.40,290.00,9.00,0.00,30.26,M,10.00,M,CLR,M,M,M,M,M,M,M,M,M,M,M,M,M,M,75.20,KRTS 030815Z AUTO 29009KT 10SM CLR 24/03 A3026 RMK AO2,M
05U,2024-08-03 08:15,-116.0051,39.6042,1811.23,78.80,41.00,25.95,200.00,9.00,0.00,30.28,M,10.00,16.00,FEW,BKN,M,M,7500.00,11000.00,M,M,M,M,M,M,M,M,M,78.80,K05U 030815Z AUTO 20009G16KT 10SM FEW075 BKN110 26/05 A3028 RMK A01,M
MEV,2024-08-03 08:15,-119.7500,38.9963,1441.42,66.20,57.20,72.74,110.00,4.00,0.00,30.23,M,10.00,M,FEW,FEW,SCT,M,4300.00,5500.00,7500.00,M,M,M,M,M,M,M,M,66.20,KMEV 030815Z AUTO 11004KT 10SM FEW043 FEW055 SCT075 19/14 A3023 RMK AO2,M
BAM,2024-08-03 08:15,-116.8743,40.5990,1382.36,80.60,35.60,19.79,150.00,3.00,0.00,30.12,M,10.00,M,CLR,M,M,M,M,M,M,M,M,M,M,M,M,M,M,78.94,KBAM 030815Z AUTO 15003KT 10SM CLR 27/02 A3012 RMK AO1,M
HTH,2024-08-03 08:15,-118.6315,38.5448,1282.89,84.20,44.60,24.99,110.00,7.00,0.00,30.21,M,10.00,M,FEW,SCT,OVC,M,4400.00,7500.00,10000.00,M,M,M,M,M,M,M,M,81.73,KHTH 030815Z AUTO 11007KT 10SM FEW044 SCT075 OVC100 29/07 A3021 RMK A01,M
10U,2024-08-03 08:15,-116.1876,41.9532,1637.00,75.20,32.00,20.49,0.00,0.00,0.00,30.20,M,10.00,M,CLR,M,M,M,M,M,M,M,M,M,M,M,M,M,M,75.20,K10U 030815Z AUTO 00000KT 10SM CLR 24/00 A3020 RMK AO2,M
TMT,2024-08-03 08:15,-117.1971,39.4643,1749.34,77.00,44.80,31.86,200.00,8.00,0.00,30.29,M,10.00,16.00,CLR,M,M,M,M,M,M,M,M,M,M,M,M,M,M,77.00,KTMT 030815Z AUTO 20008G16KT 10SM CLR 25/07 A3029 RMK AO2 T02500071,M
05U,2024-08-03 08:30,-116.0051,39.6042,1811.23,82.40,35.60,18.67,120.00,9.00,0.00,30.27,M,10.00,M,BKN,M,M,M,11000.00,M,M,M,M,M,M,M,M,M,M,80.08,K05U 030830Z AUTO 12009KT 10SM BKN110 28/02 A3027 RMK A01,M
TMT,2024-08-03 08:30,-117.1971,39.4643,1749.34,78.00,46.40,32.75,210.00,14.00,0.00,30.30,M,10.00,22.00,CLR,M,M,M,M,M,M,M,M,M,M,M,M,M,M,78.00,KTMT 030830Z AUTO 21014G22KT 10SM CLR 26/08 A3030 RMK AO2 T02550080,M
BVU,2024-08-03 08:35,-114.8611,35.9475,671.00,86.00,57.20,37.62,0.00,0.00,0.00,29.99,M,10.00,M,CLR,M,M,M,M,M,M,M,M,M,M,M,M,M,M,84.97,KBVU 030835Z AUTO 00000KT 10SM CLR 30/14 A2999 RMK AO2,M
CXP,2024-08-03 08:35,-119.7326,39.1923,1431.00,71.60,53.60,53.03,0.00,0.00,0.00,30.24,M,10.00,M,FEW,SCT,BKN,M,4200.00,5500.00,8500.00,M,M,M,M,M,M,M,M,71.60,KCXP 030835Z AUTO 00000KT 10SM FEW042 SCT055 BKN085 22/12 A3024 RMK AO2,M
RTS,2024-08-03 08:35,-119.8764,39.6682,1539.00,75.20,37.40,25.40,270.00,8.00,0.00,30.26,M,10.00,14.00,CLR,M,M,M,M,M,M,M,M,M,M,M,M,M,M,75.20,KRTS 030835Z AUTO 27008G14KT 10SM CLR 24/03 A3026 RMK AO2,M
MEV,2024-08-03 08:35,-119.7500,38.9963,1441.42,66.20,55.40,68.15,250.00,3.00,0.00,30.23,M,10.00,M,FEW,BKN,M,M,4600.00,12000.00,M,M,M,M,M,M,M,M,M,66.20,KMEV 030835Z AUTO 25003KT 10SM FEW046 BKN120 19/13 A3023 RMK AO2,M
HTH,2024-08-03 08:35,-118.6315,38.5448,1282.89,82.40,50.00,32.46,90.00,6.00,0.00,30.23,M,10.00,12.00,FEW,SCT,BKN,M,4600.00,6000.00,7000.00,M,M,M,M,M,M,M,M,80.99,KHTH 030835Z AUTO 09006G12KT 10SM FEW046 SCT060 BKN070 28/10 A3023 RMK A01,M
10U,2024-08-03 08:35,-116.1876,41.9532,1637.00,77.00,32.00,19.30,0.00,0.00,0.00,30.19,M,10.00,M,CLR,M,M,M,M,M,M,M,M,M,M,M,M,M,M,77.00,K10U 030835Z AUTO 00000KT 10SM CLR 25/M00 A3019 RMK AO2,M
BAM,2024-08-03 08:35,-116.8743,40.5990,1382.36,78.80,33.80,19.55,140.00,4.00,0.00,30.12,M,10.00,M,CLR,M,M,M,M,M,M,M,M,M,M,M,M,M,M,78.80,KBAM 030835Z AUTO 14004KT 10SM CLR 26/01 A3012 RMK AO1,M
05U,2024-08-03 08:50,-116.0051,39.6042,1811.23,77.00,44.60,31.62,30.00,12.00,0.00,30.28,M,10.00,21.00,FEW,SCT,OVC,M,5500.00,9000.00,11000.00,M,M,M,M,M,M,M,M,77.00,K05U 030850Z AUTO 03012G21KT 10SM FEW055 SCT090 OVC110 25/07 A3028 RMK A01,M
P68,2024-08-03 08:53,-116.0056,39.6014,1993.00,77.00,45.00,32.10,30.00,16.00,0.00,30.25,1013.60,M,M,M,M,M,M,M,M,M,M,M,M,M,M,27.00,50.00,2024-08-03 08:39,77.00,KP68 030853Z AUTO 03016KT 25/07 A3025 RMK AO1 PK WND 05027/0839 WSHFT 0838 SLP136 T02500072 58005,M
DRA,2024-08-03 08:53,-116.0278,36.6206,1009.00,85.00,51.00,30.97,40.00,7.00,0.00,30.10,1013.30,10.00,M,CLR,M,M,M,M,M,M,M,M,M,M,M,M,M,M,82.97,KDRA 030853Z AUTO 04007KT 10SM CLR 29/11 A3010 RMK AO2 SLP133 T02940106 58002,M
ELY,2024-08-03 08:53,-114.8453,39.2950,1909.00,70.00,46.00,42.20,0.00,0.00,0.00,30.33,1014.50,10.00,M,CLR,M,M,M,M,M,M,M,M,M,M,M,M,M,M,70.00,KELY 030853Z AUTO 00000KT 10SM CLR 21/08 A3033 RMK AO2 SLP145 T02110078 58001,M
VGT,2024-08-03 08:53,-115.1933,36.2111,667.00,90.00,55.00,30.61,290.00,3.00,0.00,30.00,1014.20,10.00,M,CLR,M,M,M,M,M,M,M,M,M,M,M,M,M,M,88.06,KVGT 030853Z AUTO 29003KT 10SM CLR 32/13 A3000 RMK AO2 SLP142 T03220128 58004,M
LOL,2024-08-03 08:53,-118.5701,40.0684,1192.43,81.00,45.00,28.15,40.00,7.00,0.00,30.09,1013.40,10.00,M,CLR,M,M,M,M,M,M,M,M,M,M,M,M,M,M,79.68,KLOL 030853Z AUTO 04007KT 10SM CLR 27/07 A3009 RMK AO2 SLP134 T02720072 55003,M
NFL,2024-08-03 08:54,-118.7010,39.4166,1199.00,81.00,47.00,30.36,210.00,8.00,0.00,30.14,1017.20,10.00,M,CLR,M,M,M,M,M,M,M,M,M,M,M,M,M,M,79.84,KNFL 030854Z AUTO 21008KT 10SM CLR 27/08 A3014 RMK AO2 SLP172 T02720083 53006,M
INS,2024-08-03 08:55,-115.6733,36.5872,955.00,83.50,50.50,31.91,290.00,3.00,0.00,30.08,1012.50,10.00,M,CLR,M,M,M,M,M,M,M,M,M,M,M,M,M,M,81.79,KINS 030855Z AUTO 29003KT 10SM CLR 29/10 A3008 RMK AO2 SLP125 T02860103 58003 $,M
LSV,2024-08-03 08:55,-115.0343,36.2362,570.00,87.80,48.60,25.91,0.00,0.00,0.00,29.94,1010.70,10.00,M,CLR,M,M,M,M,M,M,M,M,M,M,M,M,M,M,84.92,KLSV 030855Z AUTO 00000KT 10SM CLR 31/09 A2994 RMK AO2 SLP107 T03100092 58005 $,M
BVU,2024-08-03 08:55,-114.8611,35.9475,671.00,84.20,59.00,42.52,360.00,5.00,0.00,30.00,M,10.00,M,CLR,M,M,M,M,M,M,M,M,M,M,M,M,M,M,83.92,KBVU 030855Z AUTO 36005KT 10SM CLR 29/15 A3000 RMK AO2,M
CXP,2024-08-03 08:55,-119.7326,39.1923,1431.00,71.60,53.60,53.03,150.00,3.00,0.00,30.24,M,10.00,M,CLR,M,M,M,M,M,M,M,M,M,M,M,M,M,M,71.60,KCXP 030855Z AUTO 15003KT 10SM CLR 22/12 A3024 RMK AO2,M
RNO,2024-08-03 08:55,-119.7711,39.4839,1341.00,78.00,49.00,36.11,160.00,3.00,0.00,30.19,1015.40,10.00,M,SCT,BKN,M,M,10000.00,18000.00,M,M,M,M,M,M,M,M,M,78.00,KRNO 030855Z 16003KT 10SM SCT100 BKN180 26/09 A3019 RMK AO2 SLP154 T02560094 56011,M
RTS,2024-08-03 08:55,-119.8764,39.6682,1539.00,75.20,37.40,25.40,270.00,10.00,0.00,30.25,M,10.00,M,FEW,FEW,BKN,M,7000.00,8500.00,11000.00,M,M,M,M,M,M,M,M,75.20,KRTS 030855Z AUTO 27010KT 10SM FEW070 FEW085 BKN110 24/03 A3025 RMK AO2,M
MEV,2024-08-03 08:55,-119.7500,38.9963,1441.42,66.20,57.20,72.74,100.00,5.00,0.00,30.24,M,10.00,M,FEW,SCT,OVC,M,5500.00,7500.00,11000.00,M,M,M,M,M,M,M,M,66.20,KMEV 030855Z AUTO 10005KT 10SM FEW055 SCT075 OVC110 19/14 A3024 RMK AO2,M
BAM,2024-08-03 08:55,-116.8743,40.5990,1382.36,78.80,33.80,19.55,0.00,0.00,0.00,30.13,M,10.00,M,CLR,M,M,M,M,M,M,M,M,M,M,M,M,M,M,78.80,KBAM 030855Z AUTO 00000KT 10SM CLR 26/01 A3013 RMK AO1,M
HTH,2024-08-03 08:55,-118.6315,38.5448,1282.89,80.60,53.60,39.30,130.00,14.00,0.00,30.25,M,10.00,M,FEW,SCT,BKN,M,3600.00,4900.00,6000.00,M,M,M,M,M,M,M,M,80.29,KHTH 030855Z AUTO 13014KT 10SM FEW036 SCT049 BKN060 27/12 A3025 RMK A01,M
10U,2024-08-03 08:55,-116.1876,41.9532,1637.00,75.20,32.00,20.49,0.00,0.00,0.00,30.19,M,10.00,M,CLR,M,M,M,M,M,M,M,M,M,M,M,M,M,M,75.20,K10U 030855Z AUTO 00000KT 10SM CLR 24/M00 A3019 RMK AO2,M
TMT,2024-08-03 08:55,-117.1971,39.4643,1749.34,77.00,47.30,35.02,220.00,4.00,0.00,30.31,M,10.00,M,SCT,M,M,M,12000.00,M,M,M,M,M,M,M,M,M,M,77.00,KTMT 030855Z AUTO 22004KT 10SM SCT120 25/09 A3031 RMK AO2 T02490085,M
EKO,2024-08-03 08:56,-115.7860,40.8242,1367.00,76.00,43.00,30.75,M,4.00,0.00,30.21,1015.20,10.00,M,CLR,M,M,M,M,M,M,M,M,M,M,M,M,M,M,76.00,KEKO 030856Z AUTO VRB04KT 10SM CLR 24/06 A3021 RMK AO2 SLP152 T02440061 51010,M
WMC,2024-08-03 08:56,-117.8072,40.9019,1315.00,83.00,37.00,19.35,270.00,6.00,0.00,30.11,1012.60,10.00,M,CLR,M,M,M,M,M,M,M,M,M,M,M,M,M,M,80.53,KWMC 030856Z AUTO 27006KT 10SM CLR 28/03 A3011 RMK AO2 SLP126 T02830028 53002,M
HND,2024-08-03 08:56,-115.1344,35.9729,742.79,88.00,57.00,35.05,210.00,9.00,0.00,30.05,1015.60,10.00,M,CLR,M,M,M,M,M,M,M,M,M,M,M,M,M,M,86.71,KHND 030856Z 21009KT 10SM CLR 31/14 A3005 RMK AO2 SLP156 T03110139 58004,M
TPH,2024-08-03 08:56,-117.0904,38.0505,1654.00,69.00,55.00,60.99,340.00,10.00,0.00,30.30,1017.00,10.00,M,BKN,M,M,M,10000.00,M,M,M,M,M,M,M,M,M,M,69.00,KTPH 030856Z AUTO 34010KT 10SM BKN100 21/13 A3030 RMK AO2 SLP170 60000 T02060128 58003,M
LAS,2024-08-03 08:56,-115.1634,36.0719,663.00,93.00,55.00,27.87,200.00,3.00,0.00,30.02,1013.20,10.00,M,FEW,M,M,M,20000.00,M,M,M,M,M,M,M,M,M,M,91.03,KLAS 030856Z 20003KT 10SM FEW200 34/13 A3002 RMK AO2 SLP132 T03390128 58002,M
BVU,2024-08-03 09:15,-114.8611,35.9475,671.00,84.20,57.20,39.86,310.00,3.00,0.00,29.99,M,10.00,M,CLR,M,M,M,M,M,M,M,M,M,M,M,M,M,M,83.47,KBVU 030915Z AUTO 31003KT 10SM CLR 29/14 A2999 RMK AO2,M
CXP,2024-08-03 09:15,-119.7326,39.1923,1431.00,71.60,53.60,53.03,0.00,0.00,0.00,30.26,M,10.00,M,FEW,M,M,M,12000.00,M,M,M,M,M,M,M,M,M,M,71.60,KCXP 030915Z AUTO 00000KT 10SM FEW120 22/12 A3026 RMK AO2,M
RTS,2024-08-03 09:15,-119.8764,39.6682,1539.00,75.20,37.40,25.40,280.00,6.00,0.00,30.25,M,10.00,M,FEW,FEW,SCT,M,7000.00,8500.00,11000.00,M,M,M,M,M,M,M,M,75.20,KRTS 030915Z AUTO 28006KT 10SM FEW070 FEW085 SCT110 24/03 A3025 RMK AO2,M
05U,2024-08-03 09:15,-116.0051,39.6042,1811.23,73.40,46.40,38.18,80.00,6.00,0.00,30.30,M,10.00,15.00,FEW,BKN,M,M,7500.00,11000.00,M,M,M,M,M,M,M,M,M,73.40,K05U 030915Z AUTO 08006G15KT 10SM FEW075 BKN110 23/08 A3030 RMK A01,M
MEV,2024-08-03 09:15,-119.7500,38.9963,1441.42,68.00,57.20,68.35,0.00,0.00,0.00,30.23,M,10.00,M,FEW,FEW,OVC,M,5500.00,7500.00,11000.00,M,M,M,M,M,M,M,M,68.00,KMEV 030915Z AUTO 00000KT 10SM FEW055 FEW075 OVC110 20/14 A3023 RMK AO2,M
HTH,2024-08-03 09:15,-118.6315,38.5448,1282.89,73.40,60.80,64.69,200.00,10.00,0.00,30.26,M,6.00,M,M,M,M,M,M,M,M,M,HZ,M,M,M,M,M,M,73.40,KHTH 030915Z AUTO 20010KT 6SM HZ 23/16 A3026 RMK A01,M
BAM,2024-08-03 09:15,-116.8743,40.5990,1382.36,78.80,33.80,19.55,0.00,0.00,0.00,30.13,M,10.00,M,CLR,M,M,M,M,M,M,M,M,M,M,M,M,M,M,78.80,KBAM 030915Z AUTO 00000KT 10SM CLR 26/01 A3013 RMK AO1,M
TMT,2024-08-03 09:15,-117.1971,39.4643,1749.34,77.00,48.00,35.95,220.00,12.00,0.00,30.31,M,10.00,18.00,SCT,M,M,M,11000.00,M,M,M,M,M,M,M,M,M,M,77.00,KTMT 030915Z AUTO 22012G18KT 10SM SCT110 25/09 A3031 RMK AO2 T02500088,M
10U,2024-08-03 09:15,-116.1876,41.9532,1637.00,75.20,32.00,20.49,0.00,0.00,0.00,30.19,M,10.00,M,CLR,M,M,M,M,M,M,M,M,M,M,M,M,M,M,75.20,K10U 030915Z AUTO 00000KT 10SM CLR 24/M00 A3019 RMK AO2,M
BVU,2024-08-03 09:35,-114.8611,35.9475,671.00,86.00,53.60,33.01,300.00,4.00,0.00,29.99,M,10.00,M,CLR,M,M,M,M,M,M,M,M,M,M,M,M,M,M,84.18,KBVU 030935Z AUTO 30004KT 10SM CLR 30/12 A2999 RMK AO2,M
CXP,2024-08-03 09:35,-119.7326,39.1923,1431.00,73.40,50.00,43.69,310.00,5.00,0.00,30.24,M,10.00,M,FEW,SCT,BKN,M,3900.00,7000.00,12000.00,M,M,M,M,M,M,M,M,73.40,KCXP 030935Z AUTO 31005KT 10SM FEW039 SCT070 BKN120 23/10 A3024 RMK AO2,M
RTS,2024-08-03 09:35,-119.8764,39.6682,1539.00,73.40,37.40,26.98,270.00,5.00,0.00,30.25,M,10.00,M,FEW,SCT,BKN,M,6000.00,7500.00,11000.00,M,M,M,M,M,M,M,M,73.40,KRTS 030935Z AUTO 27005KT 10SM FEW060 SCT075 BKN110 23/03 A3025 RMK AO2,M
05U,2024-08-03 09:35,-116.0051,39.6042,1811.23,73.40,46.40,38.18,80.00,3.00,0.00,30.29,M,10.00,M,FEW,M,M,M,12000.00,M,M,M,M,M,M,M,M,M,M,73.40,K05U 030935Z AUTO 08003KT 10SM FEW120 23/08 A3029 RMK A01,M
MEV,2024-08-03 09:35,-119.7500,38.9963,1441.42,68.00,55.40,64.04,320.00,3.00,0.00,30.24,M,10.00,M,FEW,SCT,OVC,M,5000.00,7000.00,11000.00,M,M,M,M,M,M,M,M,68.00,KMEV 030935Z AUTO 32003KT 10SM FEW050 SCT070 OVC110 20/13 A3024 RMK AO2,M
BAM,2024-08-03 09:35,-116.8743,40.5990,1382.36,86.00,35.60,16.63,200.00,3.00,0.00,30.13,M,10.00,M,CLR,M,M,M,M,M,M,M,M,M,M,M,M,M,M,82.69,KBAM 030935Z AUTO 20003KT 10SM CLR 30/02 A3013 RMK AO1,M
HTH,2024-08-03 09:35,-118.6315,38.5448,1282.89,71.60,60.80,68.75,230.00,14.00,0.00,30.26,M,8.00,19.00,FEW,BKN,OVC,M,700.00,4100.00,11000.00,M,M,M,M,M,M,M,M,71.60,KHTH 030935Z AUTO 23014G19KT 8SM FEW007 BKN041 OVC110 22/16 A3026 RMK A01,M
10U,2024-08-03 09:35,-116.1876,41.9532,1637.00,71.60,32.00,23.13,0.00,0.00,0.00,30.19,M,10.00,M,CLR,M,M,M,M,M,M,M,M,M,M,M,M,M,M,71.60,K10U 030935Z AUTO 00000KT 10SM CLR 22/M00 A3019 RMK AO2,M
TMT,2024-08-03 09:35,-117.1971,39.4643,1749.34,75.20,48.20,38.46,220.00,6.00,0.00,30.29,M,10.00,M,SCT,M,M,M,12000.00,M,M,M,M,M,M,M,M,M,M,75.20,KTMT 030935Z AUTO 22006KT 10SM SCT120 24/09 A3029 RMK AO2 T02400090,M
P68,2024-08-03 09:53,-116.0056,39.6014,1993.00,73.00,46.00,38.11,150.00,4.00,0.00,30.27,1014.30,M,M,M,M,M,M,M,M,M,M,M,M,M,M,M,M,M,73.00,KP68 030953Z AUTO 15004KT 23/08 A3027 RMK AO1 SLP143 T02280078,M
DRA,2024-08-03 09:53,-116.0278,36.6206,1009.00,83.00,51.00,33.04,20.00,3.00,0.00,30.09,1013.30,10.00,M,CLR,M,M,M,M,M,M,M,M,M,M,M,M,M,M,81.51,KDRA 030953Z AUTO 02003KT 10SM CLR 28/11 A3009 RMK AO2 SLP133 T02830106,M
ELY,2024-08-03 09:53,-114.8453,39.2950,1909.00,68.00,45.00,43.51,0.00,0.00,0.00,30.34,1014.80,10.00,M,CLR,M,M,M,M,M,M,M,M,M,M,M,M,M,M,68.00,KELY 030953Z AUTO 00000KT 10SM CLR 20/07 A3034 RMK AO2 SLP148 T02000072,M
VGT,2024-08-03 09:53,-115.1933,36.2111,667.00,90.00,54.00,29.51,20.00,5.00,0.00,29.99,1014.10,10.00,M,CLR,M,M,M,M,M,M,M,M,M,M,M,M,M,M,87.82,KVGT 030953Z AUTO 02005KT 10SM CLR 32/12 A2999 RMK AO2 SLP141 T03220122,M
LOL,2024-08-03 09:53,-118.5701,40.0684,1192.43,79.00,46.00,31.21,140.00,9.00,0.00,30.12,1014.30,10.00,M,CLR,M,M,M,M,M,M,M,M,M,M,M,M,M,M,79.00,KLOL 030953Z AUTO 14009KT 10SM CLR 26/08 A3012 RMK AO2 SLP143 T02610078,M
NFL,2024-08-03 09:54,-118.7010,39.4166,1199.00,81.00,51.00,35.25,190.00,11.00,0.00,30.16,1017.60,10.00,M,CLR,M,M,M,M,M,M,M,M,M,M,M,M,M,M,80.22,KNFL 030954Z AUTO 19011KT 10SM CLR 27/11 A3016 RMK AO2 SLP176 T02720106,M
INS,2024-08-03 09:55,-115.6733,36.5872,955.00,83.50,50.50,31.91,210.00,4.00,0.00,30.08,1012.40,10.00,M,CLR,M,M,M,M,M,M,M,M,M,M,M,M,M,M,81.79,KINS 030955Z AUTO 21004KT 10SM CLR 29/10 A3008 RMK AO2 SLP124 T02860103 $,M
LSV,2024-08-03 09:55,-115.0343,36.2362,570.00,87.40,50.40,28.06,70.00,5.00,0.00,29.94,1010.60,10.00,M,CLR,M,M,M,M,M,M,M,M,M,M,M,M,M,M,84.82,KLSV 030955Z AUTO 07005KT 10SM CLR 31/10 A2994 RMK AO2 SLP106 T03080102 $,M
BVU,2024-08-03 09:55,-114.8611,35.9475,671.00,87.80,51.80,29.18,0.00,0.00,0.00,29.99,M,10.00,M,CLR,M,M,M,M,M,M,M,M,M,M,M,M,M,M,85.39,KBVU 030955Z AUTO 00000KT 10SM CLR 31/11 A2999 RMK AO2,M
CXP,2024-08-03 09:55,-119.7326,39.1923,1431.00,73.40,51.80,46.71,0.00,0.00,0.00,30.25,M,10.00,M,FEW,SCT,BKN,M,5500.00,7500.00,11000.00,M,M,M,M,M,M,M,M,73.40,KCXP 030955Z AUTO 00000KT 10SM FEW055 SCT075 BKN110 23/11 A3025 RMK AO2,M
RNO,2024-08-03 09:55,-119.7711,39.4839,1341.00,77.00,46.00,33.34,180.00,8.00,0.00,30.21,1015.80,10.00,M,FEW,OVC,M,M,10000.00,18000.00,M,M,M,M,M,M,M,M,M,77.00,KRNO 030955Z 18008KT 10SM FEW100 OVC180 25/08 A3021 RMK AO2 SLP158 T02500078,M
RTS,2024-08-03 09:55,-119.8764,39.6682,1539.00,73.40,37.40,26.98,280.00,7.00,0.00,30.25,M,10.00,M,FEW,FEW,FEW,M,7500.00,8500.00,11000.00,M,M,M,M,M,M,M,M,73.40,KRTS 030955Z AUTO 28007KT 10SM FEW075 FEW085 FEW110 23/03 A3025 RMK AO2,M
05U,2024-08-03 09:55,-116.0051,39.6042,1811.23,73.40,44.60,35.66,0.00,0.00,0.00,30.30,M,10.00,M,CLR,M,M,M,M,M,M,M,M,M,M,M,M,M,M,73.40,K05U 030955Z AUTO 00000KT 10SM CLR 23/07 A3030 RMK A01,M
MEV,2024-08-03 09:55,-119.7500,38.9963,1441.42,66.20,57.20,72.74,100.00,4.00,0.00,30.24,M,10.00,M,SCT,BKN,OVC,M,6500.00,8000.00,11000.00,M,M,M,M,M,M,M,M,66.20,KMEV 030955Z AUTO 10004KT 10SM SCT065 BKN080 OVC110 19/14 A3024 RMK AO2,M
BAM,2024-08-03 09:55,-116.8743,40.5990,1382.36,82.40,37.40,20.04,0.00,0.00,0.00,30.13,M,10.00,M,CLR,M,M,M,M,M,M,M,M,M,M,M,M,M,M,80.14,KBAM 030955Z AUTO 00000KT 10SM CLR 28/03 A3013 RMK AO1,M
HTH,2024-08-03 09:55,-118.6315,38.5448,1282.89,71.60,60.80,68.75,220.00,8.00,0.03,30.25,M,10.00,15.00,FEW,SCT,BKN,M,2400.00,4400.00,6000.00,M,M,M,M,M,M,M,M,71.60,KHTH 030955Z AUTO 22008G15KT 10SM FEW024 SCT044 BKN060 22/16 A3025 RMK A01 P0003,M
10U,2024-08-03 09:55,-116.1876,41.9532,1637.00,73.40,32.00,21.76,150.00,8.00,0.00,30.20,M,10.00,M,CLR,M,M,M,M,M,M,M,M,M,M,M,M,M,M,73.40,K10U 030955Z AUTO 15008KT 10SM CLR 23/00 A3020 RMK AO2,M
TMT,2024-08-03 09:55,-117.1971,39.4643,1749.34,73.00,48.20,41.41,180.00,6.00,0.00,30.30,M,10.00,M,SCT,M,M,M,12000.00,M,M,M,M,M,M,M,M,M,M,73.00,KTMT 030955Z AUTO 18006KT 10SM SCT120 23/09 A3030 RMK AO2 T02270090,M
EKO,2024-08-03 09:56,-115.7860,40.8242,1367.00,78.00,47.00,33.50,M,3.00,0.00,30.21,1015.00,10.00,M,CLR,M,M,M,M,M,M,M,M,M,M,M,M,M,M,78.00,KEKO 030956Z AUTO VRB03KT 10SM CLR 26/08 A3021 RMK AO2 SLP150 T02560083,M
WMC,2024-08-03 09:56,-117.8072,40.9019,1315.00,77.00,36.00,22.64,0.00,0.00,0.00,30.11,1012.60,10.00,M,CLR,M,M,M,M,M,M,M,M,M,M,M,M,M,M,77.00,KWMC 030956Z AUTO 00000KT 10SM CLR 25/02 A3011 RMK AO2 SLP126 T02500022,M
HND,2024-08-03 09:56,-115.1344,35.9729,742.79,87.00,57.00,36.18,200.00,10.00,0.00,30.04,1015.30,10.00,M,CLR,M,M,M,M,M,M,M,M,M,M,M,M,M,M,85.80,KHND 030956Z 20010KT 10SM CLR 31/14 A3004 RMK AO2 SLP153 T03060139,M
TPH,2024-08-03 09:56,-117.0904,38.0505,1654.00,68.00,56.00,65.45,340.00,11.00,0.00,30.29,1016.70,10.00,M,CLR,M,M,M,M,M,M,M,M,M,M,M,M,M,M,68.00,KTPH 030956Z AUTO 34011KT 10SM CLR 20/13 A3029 RMK AO2 SLP167 T02000133,M
LAS,2024-08-03 09:56,-115.1634,36.0719,663.00,91.00,54.00,28.60,210.00,5.00,0.00,30.01,1012.90,10.00,M,SCT,M,M,M,20000.00,M,M,M,M,M,M,M,M,M,M,88.78,KLAS 030956Z 21005KT 10SM SCT200 33/12 A3001 RMK AO2 SLP129 T03280122,M
BVU,2024-08-03 10:15,-114.8611,35.9475,671.00,84.20,55.40,37.35,0.00,0.00,0.00,29.99,M,10.00,M,CLR,M,M,M,M,M,M,M,M,M,M,M,M,M,M,83.09,KBVU 031015Z AUTO 00000KT 10SM CLR 29/13 A2999 RMK AO2,M
CXP,2024-08-03 10:15,-119.7326,39.1923,1431.00,73.40,51.80,46.71,0.00,0.00,0.00,30.26,M,10.00,M,FEW,SCT,OVC,M,5500.00,7500.00,11000.00,M,M,M,M,M,M,M,M,73.40,KCXP 031015Z AUTO 00000KT 10SM FEW055 SCT075 OVC110 23/11 A3026 RMK AO2,M
RTS,2024-08-03 10:15,-119.8764,39.6682,1539.00,73.40,35.60,25.13,0.00,0.00,0.00,30.26,M,10.00,M,FEW,SCT,BKN,M,4900.00,7500.00,11000.00,M,M,M,M,M,M,M,M,73.40,KRTS 031015Z AUTO 00000KT 10SM FEW049 SCT075 BKN110 23/02 A3026 RMK AO2,M
05U,2024-08-03 10:15,-116.0051,39.6042,1811.23,73.40,44.60,35.66,0.00,0.00,0.00,30.30,M,10.00,M,CLR,M,M,M,M,M,M,M,M,M,M,M,M,M,M,73.40,K05U 031015Z AUTO 00000KT 10SM CLR 23/07 A3030 RMK A01,M
MEV,2024-08-03 10:15,-119.7500,38.9963,1441.42,66.20,59.00,77.60,110.00,8.00,0.00,30.25,M,10.00,M,FEW,SCT,BKN,M,5000.00,6500.00,7500.00,M,M,M,M,M,M,M,M,66.20,KMEV 031015Z AUTO 11008KT 10SM FEW050 SCT065 BKN075 19/15 A3025 RMK AO2,M
BAM,2024-08-03 10:15,-116.8743,40.5990,1382.36,80.60,37.40,21.25,230.00,4.00,0.00,30.13,M,10.00,M,CLR,M,M,M,M,M,M,M,M,M,M,M,M,M,M,79.02,KBAM 031015Z AUTO 23004KT 10SM CLR 27/03 A3013 RMK AO1,M
HTH,2024-08-03 10:15,-118.6315,38.5448,1282.89,73.40,60.80,64.69,200.00,10.00,0.00,30.23,M,9.00,M,FEW,BKN,OVC,M,4000.00,7500.00,11000.00,M,M,M,M,M,M,M,M,73.40,KHTH 031015Z AUTO 20010KT 9SM FEW040 BKN075 OVC110 23/16 A3023 RMK A01,M
10U,2024-08-03 10:15,-116.1876,41.9532,1637.00,78.80,30.20,16.90,120.00,9.00,0.00,30.18,M,10.00,M,CLR,M,M,M,M,M,M,M,M,M,M,M,M,M,M,78.80,K10U 031015Z AUTO 12009KT 10SM CLR 26/M01 A3018 RMK AO2,M
TMT,2024-08-03 10:15,-117.1971,39.4643,1749.34,73.20,48.40,41.44,220.00,7.00,0.00,30.28,M,10.00,M,CLR,M,M,M,M,M,M,M,M,M,M,M,M,M,M,73.20,KTMT 031015Z AUTO 22007KT 10SM CLR 23/09 A3028 RMK AO2 T02290091,M
05U,2024-08-03 10:30,-116.0051,39.6042,1811.23,73.40,44.60,35.66,140.00,12.00,0.00,30.29,M,10.00,M,CLR,M,M,M,M,M,M,M,M,M,M,M,M,M,M,73.40,K05U 031030Z AUTO 14012KT 10SM CLR 23/07 A3029 RMK A01,M
BVU,2024-08-03 10:35,-114.8611,35.9475,671.00,84.20,57.20,39.86,0.00,0.00,0.00,29.99,M,10.00,M,CLR,M,M,M,M,M,M,M,M,M,M,M,M,M,M,83.47,KBVU 031035Z AUTO 00000KT 10SM CLR 29/14 A2999 RMK AO2,M
CXP,2024-08-03 10:35,-119.7326,39.1923,1431.00,71.60,51.80,49.64,0.00,0.00,0.00,30.27,M,10.00,M,OVC,M,M,M,11000.00,M,M,M,M,M,M,M,M,M,M,71.60,KCXP 031035Z AUTO 00000KT 10SM OVC110 22/11 A3027 RMK AO2,M
RTS,2024-08-03 10:35,-119.8764,39.6682,1539.00,73.40,37.40,26.98,230.00,6.00,0.00,30.26,M,10.00,M,FEW,SCT,BKN,M,4200.00,6000.00,7000.00,M,M,M,M,M,M,M,M,73.40,KRTS 031035Z AUTO 23006KT 10SM FEW042 SCT060 BKN070 23/03 A3026 RMK AO2,M
MEV,2024-08-03 10:35,-119.7500,38.9963,1441.42,66.20,57.20,72.74,260.00,6.00,0.00,30.26,M,9.00,M,FEW,FEW,OVC,M,5500.00,7000.00,11000.00,M,M,M,M,M,M,M,M,66.20,KMEV 031035Z AUTO 26006KT 9SM FEW055 FEW070 OVC110 19/14 A3026 RMK AO2,M
BAM,2024-08-03 10:35,-116.8743,40.5990,1382.36,80.60,39.20,22.81,220.00,7.00,0.00,30.14,M,10.00,M,CLR,M,M,M,M,M,M,M,M,M,M,M,M,M,M,79.10,KBAM 031035Z AUTO 22007KT 10SM CLR 27/04 A3014 RMK AO1,M
HTH,2024-08-03 10:35,-118.6315,38.5448,1282.89,75.20,59.00,57.12,220.00,5.00,0.00,30.21,M,10.00,M,FEW,SCT,BKN,M,5500.00,10000.00,12000.00,M,M,M,M,M,M,M,M,75.20,KHTH 031035Z AUTO 22005KT 10SM FEW055 SCT100 BKN120 24/15 A3021 RMK A01,M
10U,2024-08-03 10:35,-116.1876,41.9532,1637.00,80.60,30.20,15.94,120.00,11.00,0.00,30.18,M,10.00,M,CLR,M,M,M,M,M,M,M,M,M,M,M,M,M,M,78.77,K10U 031035Z AUTO 12011KT 10SM CLR 27/M01 A3018 RMK AO2,M
TMT,2024-08-03 10:35,-117.1971,39.4643,1749.34,70.70,49.00,46.12,170.00,9.00,0.00,30.28,M,10.00,M,SCT,M,M,M,12000.00,M,M,M,M,M,M,M,M,M,M,70.70,KTMT 031035Z AUTO 17009KT 10SM SCT120 22/09 A3028 RMK AO2 T02150094,M
05U,2024-08-03 10:50,-116.0051,39.6042,1811.23,73.40,44.60,35.66,0.00,0.00,0.00,30.30,M,10.00,M,CLR,M,M,M,M,M,M,M,M,M,M,M,M,M,M,73.40,K05U 031050Z AUTO 00000KT 10SM CLR 23/07 A3030 RMK A01,M
P68,2024-08-03 10:53,-116.0056,39.6014,1993.00,73.00,45.00,36.70,180.00,7.00,0.00,30.27,1014.40,M,M,M,M,M,M,M,M,M,M,M,M,M,M,M,M,M,73.00,KP68 031053Z AUTO 18007KT 23/07 A3027 RMK AO1 SLP144 T02280072,M
DRA,2024-08-03 10:53,-116.0278,36.6206,1009.00,80.00,51.00,36.42,340.00,4.00,0.00,30.09,1013.70,10.00,M,CLR,M,M,M,M,M,M,M,M,M,M,M,M,M,M,79.65,KDRA 031053Z AUTO 34004KT 10SM CLR 27/11 A3009 RMK AO2 SLP137 T02670106,M
ELY,2024-08-03 10:53,-114.8453,39.2950,1909.00,68.00,45.00,43.51,210.00,7.00,0.00,30.32,1014.40,10.00,M,CLR,M,M,M,M,M,M,M,M,M,M,M,M,M,M,68.00,KELY 031053Z AUTO 21007KT 10SM CLR 20/07 A3032 RMK AO2 SLP144 T02000072,M
VGT,2024-08-03 10:53,-115.1933,36.2111,667.00,89.00,53.00,29.36,360.00,6.00,0.00,29.99,1014.00,10.00,M,CLR,M,M,M,M,M,M,M,M,M,M,M,M,M,M,86.68,KVGT 031053Z AUTO 36006KT 10SM CLR 32/12 A2999 RMK AO2 SLP140 T03170117,M
LOL,2024-08-03 10:53,-118.5701,40.0684,1192.43,77.00,46.00,33.34,190.00,7.00,0.00,30.13,1014.90,10.00,M,CLR,M,M,M,M,M,M,M,M,M,M,M,M,M,M,77.00,KLOL 031053Z AUTO 19007KT 10SM CLR 25/08 A3013 RMK AO2 SLP149 T02500078,M
NFL,2024-08-03 10:54,-118.7010,39.4166,1199.00,80.00,54.00,40.67,180.00,15.00,0.00,30.15,1017.40,10.00,21.00,CLR,M,M,M,M,M,M,M,M,M,M,M,M,M,M,79.98,KNFL 031054Z AUTO 18015G21KT 10SM CLR 27/12 A3015 RMK AO2 SLP174 T02670122,M
INS,2024-08-03 10:55,-115.6733,36.5872,955.00,81.50,49.60,32.93,0.00,0.00,0.00,30.08,1012.50,10.00,M,CLR,M,M,M,M,M,M,M,M,M,M,M,M,M,M,80.37,KINS 031055Z AUTO 00000KT 10SM CLR 28/10 A3008 RMK AO2 SLP125 T02750098 $,M
LSV,2024-08-03 10:55,-115.0343,36.2362,570.00,87.60,50.40,27.88,0.00,0.00,0.00,29.94,1010.60,10.00,M,CLR,M,M,M,M,M,M,M,M,M,M,M,M,M,M,84.99,KLSV 031055Z AUTO 00000KT 10SM CLR 31/10 A2994 RMK AO2 SLP106 T03090102 $,M
BVU,2024-08-03 10:55,-114.8611,35.9475,671.00,84.20,57.20,39.86,0.00,0.00,0.00,29.98,M,10.00,M,CLR,M,M,M,M,M,M,M,M,M,M,M,M,M,M,83.47,KBVU 031055Z AUTO 00000KT 10SM CLR 29/14 A2998 RMK AO2,M
CXP,2024-08-03 10:55,-119.7326,39.1923,1431.00,71.60,51.80,49.64,250.00,4.00,0.00,30.27,M,10.00,M,OVC,M,M,M,11000.00,M,M,M,M,M,M,M,M,M,M,71.60,KCXP 031055Z AUTO 25004KT 10SM OVC110 22/11 A3027 RMK AO2,M
RNO,2024-08-03 10:55,-119.7711,39.4839,1341.00,77.00,49.00,37.33,140.00,9.00,0.00,30.22,1016.40,10.00,M,OVC,M,M,M,12000.00,M,M,M,M,M,M,M,M,M,M,77.00,KRNO 031055Z 14009KT 10SM OVC120 25/09 A3022 RMK AO2 SLP164 T02500094,M
RTS,2024-08-03 10:55,-119.8764,39.6682,1539.00,73.40,35.60,25.13,280.00,3.00,0.00,30.27,M,10.00,M,FEW,SCT,BKN,M,7000.00,8000.00,12000.00,M,M,M,M,M,M,M,M,73.40,KRTS 031055Z AUTO 28003KT 10SM FEW070 SCT080 BKN120 23/02 A3027 RMK AO2,M
MEV,2024-08-03 10:55,-119.7500,38.9963,1441.42,66.20,57.20,72.74,260.00,7.00,0.00,30.25,M,10.00,M,FEW,SCT,BKN,M,2900.00,5000.00,7500.00,M,M,M,M,M,M,M,M,66.20,KMEV 031055Z AUTO 26007KT 10SM FEW029 SCT050 BKN075 19/14 A3025 RMK AO2,M
HTH,2024-08-03 10:55,-118.6315,38.5448,1282.89,73.40,60.80,64.69,180.00,5.00,0.00,30.20,M,10.00,M,FEW,M,M,M,12000.00,M,M,M,M,M,M,M,M,M,M,73.40,KHTH 031055Z AUTO 18005KT 10SM FEW120 23/16 A3020 RMK A01,M
10U,2024-08-03 10:55,-116.1876,41.9532,1637.00,78.80,30.20,16.90,140.00,10.00,0.00,30.19,M,10.00,17.00,CLR,M,M,M,M,M,M,M,M,M,M,M,M,M,M,78.80,K10U 031055Z AUTO 14010G17KT 110V210 10SM CLR 26/M01 A3019 RMK AO2,M
BAM,2024-08-03 10:55,-116.8743,40.5990,1382.36,86.00,44.60,23.59,240.00,14.00,0.00,30.14,M,10.00,19.00,CLR,M,M,M,M,M,M,M,M,M,M,M,M,M,M,83.07,KBAM 031055Z AUTO 24014G19KT 10SM CLR 30/07 A3014 RMK AO1,M
TMT,2024-08-03 10:55,-117.1971,39.4643,1749.34,71.00,49.00,45.66,130.00,4.00,0.00,30.27,M,10.00,M,SCT,SCT,M,M,9000.00,12000.00,M,M,M,M,M,M,M,M,M,71.00,KTMT 031055Z AUTO 13004KT 10SM SCT090 SCT120 22/10 A3027 RMK AO2 T02160095,M
EKO,2024-08-03 10:56,-115.7860,40.8242,1367.00,77.00,46.00,33.34,300.00,3.00,0.00,30.20,1014.90,10.00,M,CLR,M,M,M,M,M,M,M,M,M,M,M,M,M,M,77.00,KEKO 031056Z AUTO 30003KT 10SM CLR 25/08 A3020 RMK AO2 SLP149 T02500078,M
WMC,2024-08-03 10:56,-117.8072,40.9019,1315.00,74.00,36.00,25.02,M,3.00,0.00,30.11,1012.90,10.00,M,CLR,M,M,M,M,M,M,M,M,M,M,M,M,M,M,74.00,KWMC 031056Z AUTO VRB03KT 10SM CLR 23/02 A3011 RMK AO2 SLP129 T02330022,M
HND,2024-08-03 10:56,-115.1344,35.9729,742.79,86.00,57.00,37.35,200.00,6.00,0.00,30.04,1015.20,10.00,M,CLR,M,M,M,M,M,M,M,M,M,M,M,M,M,M,84.92,KHND 031056Z 20006KT 10SM CLR 30/14 A3004 RMK AO2 SLP152 T03000139,M
TPH,2024-08-03 10:56,-117.0904,38.0505,1654.00,67.00,55.00,65.33,330.00,8.00,0.00,30.28,1016.40,10.00,M,CLR,M,M,M,M,M,M,M,M,M,M,M,M,M,M,67.00,KTPH 031056Z AUTO 33008KT 10SM CLR 19/13 A3028 RMK AO2 SLP164 T01940128,M
LAS,2024-08-03 10:56,-115.1634,36.0719,663.00,91.00,53.00,27.57,0.00,0.00,0.00,30.01,1012.90,10.00,M,FEW,SCT,M,M,17000.00,22000.00,M,M,M,M,M,M,M,M,M,88.55,KLAS 031056Z 00000KT 10SM FEW170 SCT220 33/12 A3001 RMK AO2 SLP129 T03280117,M
05U,2024-08-03 11:10,-116.0051,39.6042,1811.23,71.60,44.60,37.89,0.00,0.00,0.00,30.29,M,10.00,M,FEW,M,M,M,11000.00,M,M,M,M,M,M,M,M,M,M,71.60,K05U 031110Z AUTO 00000KT 10SM FEW110 22/07 A3029 RMK A01,M
BVU,2024-08-03 11:15,-114.8611,35.9475,671.00,86.00,55.40,35.25,0.00,0.00,0.00,29.98,M,10.00,M,CLR,M,M,M,M,M,M,M,M,M,M,M,M,M,M,84.54,KBVU 031115Z AUTO 00000KT 10SM CLR 30/13 A2998 RMK AO2,M
CXP,2024-08-03 11:15,-119.7326,39.1923,1431.00,73.40,51.80,46.71,0.00,0.00,0.00,30.26,M,10.00,M,FEW,FEW,OVC,M,4900.00,7000.00,11000.00,M,M,M,M,M,M,M,M,73.40,KCXP 031115Z AUTO 00000KT 10SM FEW049 FEW070 OVC110 23/11 A3026 RMK AO2,M
RTS,2024-08-03 11:15,-119.8764,39.6682,1539.00,73.40,33.80,23.39,M,5.00,0.00,30.28,M,10.00,M,OVC,M,M,M,11000.00,M,M,M,M,M,M,M,M,M,M,73.40,KRTS 031115Z AUTO VRB05KT 10SM OVC110 23/01 A3028 RMK AO2,M
MEV,2024-08-03 11:15,-119.7500,38.9963,1441.42,66.20,57.20,72.74,0.00,0.00,0.00,30.25,M,10.00,M,SCT,BKN,OVC,M,5500.00,7000.00,10000.00,M,M,M,M,M,M,M,M,66.20,KMEV 031115Z AUTO 00000KT 10SM SCT055 BKN070 OVC100 19/14 A3025 RMK AO2,M
BAM,2024-08-03 11:15,-116.8743,40.5990,1382.36,84.20,44.60,24.99,240.00,18.00,0.00,30.13,M,10.00,22.00,CLR,M,M,M,M,M,M,M,M,M,M,M,M,M,M,81.73,KBAM 031115Z AUTO 24018G22KT 10SM CLR 29/07 A3013 RMK AO1,M
HTH,2024-08-03 11:15,-118.6315,38.5448,1282.89,71.60,62.60,73.27,170.00,4.00,0.00,30.18,M,10.00,M,CLR,M,M,M,M,M,M,M,M,M,M,M,M,M,M,71.60,KHTH 031115Z AUTO 17004KT 10SM CLR 22/17 A3018 RMK A01,M
10U,2024-08-03 11:15,-116.1876,41.9532,1637.00,80.60,30.20,15.94,130.00,9.00,0.00,30.19,M,10.00,18.00,CLR,M,M,M,M,M,M,M,M,M,M,M,M,M,M,78.77,K10U 031115Z AUTO 13009G18KT 10SM CLR 27/M01 A3019 RMK AO2,M
TMT,2024-08-03 11:15,-117.1971,39.4643,1749.34,71.20,48.40,44.34,0.00,0.00,0.00,30.27,M,10.00,M,SCT,SCT,M,M,9000.00,12000.00,M,M,M,M,M,M,M,M,M,71.20,KTMT 031115Z AUTO 00000KT 10SM SCT090 SCT120 22/09 A3027 RMK AO2 T02180091,M
BVU,2024-08-03 11:35,-114.8611,35.9475,671.00,86.00,55.40,35.25,0.00,0.00,0.00,29.98,M,10.00,M,CLR,M,M,M,M,M,M,M,M,M,M,M,M,M,M,84.54,KBVU 031135Z AUTO 00000KT 10SM CLR 30/13 A2998 RMK AO2,M
CXP,2024-08-03 11:35,-119.7326,39.1923,1431.00,71.60,51.80,49.64,0.00,0.00,0.00,30.26,M,10.00,M,FEW,OVC,M,M,6500.00,11000.00,M,M,M,M,M,M,M,M,M,71.60,KCXP 031135Z AUTO 00000KT 10SM FEW065 OVC110 22/11 A3026 RMK AO2,M
RTS,2024-08-03 11:35,-119.8764,39.6682,1539.00,75.20,39.20,27.26,150.00,4.00,0.00,30.27,M,10.00,M,OVC,M,M,M,11000.00,M,M,M,M,M,M,M,M,M,M,75.20,KRTS 031135Z AUTO 15004KT 10SM OVC110 24/04 A3027 RMK AO2,M
05U,2024-08-03 11:35,-116.0051,39.6042,1811.23,73.40,42.80,33.29,150.00,8.00,0.00,30.29,M,10.00,M,BKN,M,M,M,12000.00,M,M,M,M,M,M,M,M,M,M,73.40,K05U 031135Z AUTO 15008KT 10SM BKN120 23/06 A3029 RMK A01,M
MEV,2024-08-03 11:35,-119.7500,38.9963,1441.42,66.20,59.00,77.60,60.00,5.00,0.00,30.25,M,10.00,M,FEW,SCT,OVC,M,3300.00,5500.00,10000.00,M,M,M,M,M,M,M,M,66.20,KMEV 031135Z AUTO 06005KT 10SM FEW033 SCT055 OVC100 19/15 A3025 RMK AO2,M
BAM,2024-08-03 11:35,-116.8743,40.5990,1382.36,84.20,44.60,24.99,220.00,19.00,0.00,30.13,M,10.00,23.00,CLR,M,M,M,M,M,M,M,M,M,M,M,M,M,M,81.73,KBAM 031135Z AUTO 22019G23KT 10SM CLR 29/07 A3013 RMK AO1,M
HTH,2024-08-03 11:35,-118.6315,38.5448,1282.89,69.80,62.60,77.90,140.00,6.00,0.00,30.18,M,10.00,M,CLR,M,M,M,M,M,M,M,M,M,M,M,M,M,M,69.80,KHTH 031135Z AUTO 14006KT 10SM CLR 21/17 A3018 RMK A01,M
10U,2024-08-03 11:35,-116.1876,41.9532,1637.00,77.00,32.00,19.30,200.00,6.00,0.00,30.19,M,10.00,13.00,CLR,M,M,M,M,M,M,M,M,M,M,M,M,M,M,77.00,K10U 031135Z AUTO 20006G13KT 10SM CLR 25/M00 A3019 RMK AO2,M
TMT,2024-08-03 11:35,-117.1971,39.4643,1749.34,70.70,48.00,44.43,190.00,8.00,0.00,30.26,M,10.00,M,CLR,M,M,M,M,M,M,M,M,M,M,M,M,M,M,70.70,KTMT 031135Z AUTO 19008KT 10SM CLR 22/09 A3026 RMK AO2 T02150088,M
05U,2024-08-03 11:50,-116.0051,39.6042,1811.23,73.40,44.60,35.66,150.00,5.00,0.00,30.28,M,10.00,M,BKN,M,M,M,12000.00,M,M,M,M,M,M,M,M,M,M,73.40,K05U 031150Z AUTO 15005KT 10SM BKN120 23/07 A3028 RMK A01,M
P68,2024-08-03 11:53,-116.0056,39.6014,1993.00,73.00,44.00,35.32,160.00,9.00,0.00,30.26,1014.20,M,M,M,M,M,M,M,M,M,M,M,M,M,M,M,M,M,73.00,KP68 031153Z AUTO 16009KT 23/07 A3026 RMK AO1 SLP142 T02280067 10306 20222 50002,M
DRA,2024-08-03 11:53,-116.0278,36.6206,1009.00,78.00,51.00,38.90,90.00,4.00,0.00,30.09,1013.50,10.00,M,CLR,M,M,M,M,M,M,M,M,M,M,M,M,M,M,78.00,KDRA 031153Z AUTO 09004KT 10SM CLR 26/11 A3009 RMK AO2 SLP135 T02560106 10306 20256 56002,M
ELY,2024-08-03 11:53,-114.8453,39.2950,1909.00,66.00,45.00,46.62,170.00,6.00,0.00,30.32,1014.60,10.00,M,CLR,M,M,M,M,M,M,M,M,M,M,M,M,M,M,66.00,KELY 031153Z AUTO 17006KT 10SM CLR 19/07 A3032 RMK AO2 SLP146 T01890072 10233 20189 57002,M
VGT,2024-08-03 11:53,-115.1933,36.2111,667.00,89.00,54.00,30.45,330.00,4.00,0.00,29.99,1014.00,10.00,M,CLR,M,M,M,M,M,M,M,M,M,M,M,M,M,M,86.89,KVGT 031153Z AUTO 33004KT 10SM CLR 32/12 A2999 RMK AO2 SLP140 T03170122 10356 20317 56001,M
LOL,2024-08-03 11:53,-118.5701,40.0684,1192.43,75.00,46.00,35.64,210.00,5.00,0.00,30.12,1014.70,10.00,M,CLR,M,M,M,M,M,M,M,M,M,M,M,M,M,M,75.00,KLOL 031153Z AUTO 21005KT 10SM CLR 24/08 A3012 RMK AO2 SLP147 T02390078 10311 20239 50009,M
NFL,2024-08-03 11:54,-118.7010,39.4166,1199.00,80.00,52.00,37.79,260.00,5.00,0.00,30.13,1016.80,10.00,M,CLR,M,M,M,M,M,M,M,M,M,M,M,M,M,M,79.75,KNFL 031154Z AUTO 26005KT 10SM CLR 27/11 A3013 RMK AO2 SLP168 T02670111 10294 20267 58004,M
BVU,2024-08-03 11:55,-114.8611,35.9475,671.00,82.40,57.20,42.25,350.00,4.00,0.00,29.99,M,10.00,M,CLR,M,M,M,M,M,M,M,M,M,M,M,M,M,M,82.08,KBVU 031155Z AUTO 35004KT 10SM CLR 28/14 A2999 RMK AO2,M
CXP,2024-08-03 11:55,-119.7326,39.1923,1431.00,71.60,51.80,49.64,0.00,0.00,0.00,30.26,M,10.00,M,FEW,BKN,OVC,M,4400.00,7000.00,11000.00,M,M,M,M,M,M,M,M,71.60,KCXP 031155Z AUTO 00000KT 10SM FEW044 BKN070 OVC110 22/11 A3026 RMK AO2,M
RNO,2024-08-03 11:55,-119.7711,39.4839,1341.00,78.00,51.00,38.90,310.00,7.00,T,30.19,1015.20,10.00,M,SCT,OVC,M,M,6000.00,12000.00,M,M,-RA,M,M,M,M,M,M,78.00,KRNO 031155Z 31007KT 10SM -RA SCT060 OVC120 26/11 A3019 RMK AO2 RAB42 SLP152 P0000 60000 T02560106 10272 20250 58001,M
RTS,2024-08-03 11:55,-119.8764,39.6682,1539.00,75.20,42.80,31.34,180.00,5.00,0.00,30.27,M,10.00,M,FEW,SCT,OVC,M,5000.00,7000.00,11000.00,M,M,M,M,M,M,M,M,75.20,KRTS 031155Z AUTO 18005KT 10SM FEW050 SCT070 OVC110 24/06 A3027 RMK AO2,M
MEV,2024-08-03 11:55,-119.7500,38.9963,1441.42,66.20,59.00,77.60,0.00,0.00,0.00,30.23,M,10.00,M,OVC,M,M,M,10000.00,M,M,M,M,M,M,M,M,M,M,66.20,KMEV 031155Z AUTO 00000KT 10SM OVC100 19/15 A3023 RMK AO2,M
BAM,2024-08-03 11:55,-116.8743,40.5990,1382.36,82.40,42.80,24.72,240.00,13.00,0.00,30.14,M,10.00,18.00,CLR,M,M,M,M,M,M,M,M,M,M,M,M,M,M,80.39,KBAM 031155Z AUTO 24013G18KT 10SM CLR 28/06 A3014 RMK AO1,M
HTH,2024-08-03 11:55,-118.6315,38.5448,1282.89,69.80,60.80,73.09,120.00,11.00,0.00,30.17,M,10.00,M,CLR,M,M,M,M,M,M,M,M,M,M,M,M,M,M,69.80,KHTH 031155Z AUTO 12011KT 10SM CLR 21/16 A3017 RMK A01,M
10U,2024-08-03 11:55,-116.1876,41.9532,1637.00,75.20,32.00,20.49,90.00,4.00,0.00,30.18,M,10.00,M,CLR,M,M,M,M,M,M,M,M,M,M,M,M,M,M,75.20,K10U 031155Z AUTO 09004KT 10SM CLR 24/M00 A3018 RMK AO2,M
TMT,2024-08-03 11:55,-117.1971,39.4643,1749.34,70.00,47.30,44.32,200.00,7.00,0.00,30.26,M,10.00,M,CLR,M,M,M,M,M,M,M,M,M,M,M,M,M,M,70.00,KTMT 031155Z AUTO 20007KT 10SM CLR 21/09 A3026 RMK AO2 T02110085 10271 20207,M
INS,2024-08-03 11:55,-115.6733,36.5872,955.00,82.20,50.00,32.67,220.00,3.00,0.00,30.08,1012.50,10.00,M,CLR,M,M,M,M,M,M,M,M,M,M,M,M,M,M,80.86,KINS 031155Z AUTO 22003KT 10SM CLR 28/10 A3008 RMK AO2 SLP125 T02790101 10314 20261 56002 $,M
LSV,2024-08-03 11:55,-115.0343,36.2362,570.00,86.70,49.60,27.85,0.00,0.00,0.00,29.94,1010.60,10.00,M,CLR,M,M,M,M,M,M,M,M,M,M,M,M,M,M,84.13,KLSV 031155Z AUTO 00000KT 10SM CLR 30/10 A2994 RMK AO2 SLP106 T03040098 10351 20303 53000 $,M
EKO,2024-08-03 11:56,-115.7860,40.8242,1367.00,72.00,47.00,40.94,0.00,0.00,0.00,30.19,1015.00,10.00,M,CLR,M,M,M,M,M,M,M,M,M,M,M,M,M,M,72.00,KEKO 031156Z AUTO 00000KT 10SM CLR 22/08 A3019 RMK AO2 SLP150 T02220083 10283 20194 58004,M
WMC,2024-08-03 11:56,-117.8072,40.9019,1315.00,77.00,35.00,21.76,180.00,8.00,0.00,30.11,1013.00,10.00,M,CLR,M,M,M,M,M,M,M,M,M,M,M,M,M,M,77.00,KWMC 031156Z AUTO 18008KT 10SM CLR 25/02 A3011 RMK AO2 SLP130 T02500017 10317 20233 53001,M
HND,2024-08-03 11:56,-115.1344,35.9729,742.79,85.00,56.00,37.20,260.00,7.00,0.00,30.04,1015.50,10.00,M,CLR,M,M,M,M,M,M,M,M,M,M,M,M,M,M,83.85,KHND 031156Z 26007KT 10SM CLR 29/13 A3004 RMK AO2 SLP155 T02940133 10328 20294 55001,M
TPH,2024-08-03 11:56,-117.0904,38.0505,1654.00,65.00,54.00,67.52,350.00,6.00,0.00,30.27,1017.20,10.00,M,CLR,M,M,M,M,M,M,M,M,M,M,M,M,M,M,65.00,KTPH 031156Z AUTO 35006KT 10SM CLR 18/12 A3027 RMK AO2 SLP172 60000 T01830122 10256 20183 56009,M
LAS,2024-08-03 11:56,-115.1634,36.0719,663.00,89.00,53.00,29.36,200.00,3.00,0.00,30.01,1012.90,10.00,M,FEW,SCT,M,M,17000.00,22000.00,M,M,M,M,M,M,M,M,M,86.68,KLAS 031156Z 20003KT 10SM FEW170 SCT220 32/12 A3001 RMK AO2 SLP129 T03170117 10361 20317 55003,M
05U,2024-08-03 12:10,-116.0051,39.6042,1811.23,73.40,42.80,33.29,140.00,8.00,0.00,30.29,M,10.00,M,FEW,M,M,M,12000.00,M,M,M,M,M,M,M,M,M,M,73.40,K05U 031210Z AUTO 14008KT 10SM FEW120 23/06 A3029 RMK A01,M
BVU,2024-08-03 12:15,-114.8611,35.9475,671.00,86.00,53.60,33.01,0.00,0.00,0.00,29.99,M,10.00,M,CLR,M,M,M,M,M,M,M,M,M,M,M,M,M,M,84.18,KBVU 031215Z AUTO 00000KT 10SM CLR 30/12 A2999 RMK AO2,M
CXP,2024-08-03 12:15,-119.7326,39.1923,1431.00,71.60,51.80,49.64,290.00,3.00,0.00,30.24,M,10.00,M,FEW,SCT,OVC,M,3800.00,5500.00,7000.00,M,M,M,M,M,M,M,M,71.60,KCXP 031215Z AUTO 29003KT 10SM FEW038 SCT055 OVC070 22/11 A3024 RMK AO2,M
RTS,2024-08-03 12:15,-119.8764,39.6682,1539.00,69.80,46.40,43.13,330.00,10.00,0.00,30.24,M,10.00,M,FEW,BKN,BKN,M,5000.00,7000.00,8500.00,M,-DZ,M,M,M,M,M,M,69.80,KRTS 031215Z AUTO 33010KT 10SM -DZ FEW050 BKN070 BKN085 21/08 A3024 RMK AO2,M
MEV,2024-08-03 12:15,-119.7500,38.9963,1441.42,64.40,59.00,82.62,190.00,6.00,0.00,30.23,M,10.00,M,FEW,FEW,OVC,M,6500.00,7500.00,11000.00,M,M,M,M,M,M,M,M,64.40,KMEV 031215Z AUTO 19006KT 10SM FEW065 FEW075 OVC110 18/15 A3023 RMK AO2,M
HTH,2024-08-03 12:15,-118.6315,38.5448,1282.89,69.80,59.00,68.55,110.00,10.00,0.00,30.16,M,10.00,M,CLR,M,M,M,M,M,M,M,M,M,M,M,M,M,M,69.80,KHTH 031215Z AUTO 11010KT 10SM CLR 21/15 A3016 RMK A01,M
10U,2024-08-03 12:15,-116.1876,41.9532,1637.00,71.60,32.00,23.13,150.00,6.00,0.00,30.20,M,10.00,M,CLR,M,M,M,M,M,M,M,M,M,M,M,M,M,M,71.60,K10U 031215Z AUTO 15006KT 10SM CLR 22/00 A3020 RMK AO2,M
BAM,2024-08-03 12:15,-116.8743,40.5990,1382.36,82.40,42.80,24.72,250.00,10.00,0.00,30.14,M,10.00,M,CLR,M,M,M,M,M,M,M,M,M,M,M,M,M,M,80.39,KBAM 031215Z AUTO 25010KT 10SM CLR 28/06 A3014 RMK AO1,M
TMT,2024-08-03 12:15,-117.1971,39.4643,1749.34,69.00,47.50,46.21,0.00,0.00,0.00,30.27,M,10.00,M,CLR,M,M,M,M,M,M,M,M,M,M,M,M,M,M,69.00,KTMT 031215Z AUTO 00000KT 10SM CLR 21/09 A3027 RMK AO2 T02050086,M
05U,2024-08-03 12:30,-116.0051,39.6042,1811.23,73.40,42.80,33.29,0.00,0.00,0.00,30.29,M,10.00,M,CLR,M,M,M,M,M,M,M,M,M,M,M,M,M,M,73.40,K05U 031230Z AUTO 00000KT 10SM CLR 23/06 A3029 RMK A01,M
BVU,2024-08-03 12:35,-114.8611,35.9475,671.00,87.80,53.60,31.17,210.00,3.00,0.00,29.99,M,10.00,M,CLR,M,M,M,M,M,M,M,M,M,M,M,M,M,M,85.72,KBVU 031235Z AUTO 21003KT 10SM CLR 31/12 A2999 RMK AO2,M
CXP,2024-08-03 12:35,-119.7326,39.1923,1431.00,73.40,51.80,46.71,0.00,0.00,0.00,30.24,M,10.00,M,FEW,BKN,OVC,M,3800.00,6500.00,7500.00,M,M,M,M,M,M,M,M,73.40,KCXP 031235Z AUTO 00000KT 10SM FEW038 BKN065 OVC075 23/11 A3024 RMK AO2,M
RTS,2024-08-03 12:35,-119.8764,39.6682,1539.00,69.80,42.80,37.61,330.00,7.00,0.00,30.25,M,10.00,M,FEW,SCT,BKN,M,4900.00,7000.00,11000.00,M,M,M,M,M,M,M,M,69.80,KRTS 031235Z AUTO 33007KT 10SM FEW049 SCT070 BKN110 21/06 A3025 RMK AO2,M
MEV,2024-08-03 12:35,-119.7500,38.9963,1441.42,64.40,59.00,82.62,150.00,7.00,0.00,30.23,M,10.00,M,FEW,FEW,OVC,M,6500.00,7500.00,12000.00,M,M,M,M,M,M,M,M,64.40,KMEV 031235Z AUTO 15007KT 10SM FEW065 FEW075 OVC120 18/15 A3023 RMK AO2,M
BAM,2024-08-03 12:35,-116.8743,40.5990,1382.36,80.60,44.60,28.08,240.00,9.00,0.00,30.14,M,7.00,14.00,CLR,M,M,M,M,M,M,M,M,M,M,M,M,M,M,79.42,KBAM 031235Z AUTO 24009G14KT 7SM CLR 27/07 A3014 RMK AO1,M
HTH,2024-08-03 12:35,-118.6315,38.5448,1282.89,69.80,59.00,68.55,120.00,9.00,0.00,30.17,M,10.00,M,CLR,M,M,M,M,M,M,M,M,M,M,M,M,M,M,69.80,KHTH 031235Z AUTO 12009KT 10SM CLR 21/15 A3017 RMK A01,M
10U,2024-08-03 12:35,-116.1876,41.9532,1637.00,75.20,33.80,22.02,130.00,10.00,0.00,30.20,M,10.00,M,CLR,M,M,M,M,M,M,M,M,M,M,M,M,M,M,75.20,K10U 031235Z AUTO 13010KT 10SM CLR 24/01 A3020 RMK AO2,M
TMT,2024-08-03 12:35,-117.1971,39.4643,1749.34,69.00,48.20,47.44,220.00,4.00,0.00,30.27,M,10.00,M,CLR,M,M,M,M,M,M,M,M,M,M,M,M,M,M,69.00,KTMT 031235Z AUTO 22004KT 10SM CLR 21/09 A3027 RMK AO2 T02060090,M
05U,2024-08-03 12:50,-116.0051,39.6042,1811.23,69.80,42.80,37.61,270.00,3.00,0.00,30.29,M,10.00,M,CLR,M,M,M,M,M,M,M,M,M,M,M,M,M,M,69.80,K05U 031250Z AUTO 27003KT 10SM CLR 21/06 A3029 RMK A01,M
P68,2024-08-03 12:53,-116.0056,39.6014,1993.00,71.00,44.00,37.80,250.00,5.00,0.00,30.27,1014.40,M,M,M,M,M,M,M,M,M,M,M,M,M,M,M,M,M,71.00,KP68 031253Z AUTO 25005KT 22/07 A3027 RMK AO1 SLP144 T02170067,M
DRA,2024-08-03 12:53,-116.0278,36.6206,1009.00,78.00,51.00,38.90,20.00,5.00,0.00,30.10,1013.60,10.00,M,CLR,M,M,M,M,M,M,M,M,M,M,M,M,M,M,78.00,KDRA 031253Z AUTO 02005KT 10SM CLR 26/11 A3010 RMK AO2 SLP136 T02560106,M
ELY,2024-08-03 12:53,-114.8453,39.2950,1909.00,64.00,44.00,48.12,0.00,0.00,0.00,30.33,1015.20,10.00,M,CLR,M,M,M,M,M,M,M,M,M,M,M,M,M,M,64.00,KELY 031253Z AUTO 00000KT 10SM CLR 18/07 A3033 RMK AO2 SLP152 T01780067,M
VGT,2024-08-03 12:53,-115.1933,36.2111,667.00,88.00,54.00,31.43,330.00,6.00,0.00,30.00,1014.30,10.00,M,CLR,M,M,M,M,M,M,M,M,M,M,M,M,M,M,85.98,KVGT 031253Z AUTO 33006KT 10SM CLR 31/12 A3000 RMK AO2 SLP143 T03110122,M
LOL,2024-08-03 12:53,-118.5701,40.0684,1192.43,75.00,45.00,34.31,190.00,8.00,0.00,30.12,1014.60,10.00,M,CLR,M,M,M,M,M,M,M,M,M,M,M,M,M,M,75.00,KLOL 031253Z AUTO 19008KT 10SM CLR 24/07 A3012 RMK AO2 SLP146 T02390072,M
BVU,2024-08-03 12:55,-114.8611,35.9475,671.00,82.40,57.20,42.25,0.00,0.00,0.00,30.00,M,10.00,M,CLR,M,M,M,M,M,M,M,M,M,M,M,M,M,M,82.08,KBVU 031255Z AUTO 00000KT 10SM CLR 28/14 A3000 RMK AO2,M
CXP,2024-08-03 12:55,-119.7326,39.1923,1431.00,71.60,53.60,53.03,0.00,0.00,0.00,30.24,M,10.00,M,FEW,BKN,OVC,M,3900.00,6500.00,7500.00,M,M,M,M,M,M,M,M,71.60,KCXP 031255Z AUTO 00000KT 10SM FEW039 BKN065 OVC075 22/12 A3024 RMK AO2,M
RNO,2024-08-03 12:55,-119.7711,39.4839,1341.00,78.00,47.00,33.50,290.00,4.00,T,30.19,1015.30,10.00,M,FEW,BKN,BKN,M,6000.00,12000.00,18000.00,M,M,M,M,M,M,M,M,78.00,KRNO 031255Z 29004KT 10SM FEW060 BKN120 BKN180 26/08 A3019 RMK AO2 RAE06 SLP153 P0000 T02560083,M
RTS,2024-08-03 12:55,-119.8764,39.6682,1539.00,71.60,41.00,33.00,300.00,5.00,0.00,30.25,M,5.00,M,SCT,M,M,M,12000.00,M,M,M,HZ,M,M,M,M,M,M,71.60,KRTS 031255Z AUTO 30005KT 5SM HZ SCT120 22/05 A3025 RMK AO2,M
MEV,2024-08-03 12:55,-119.7500,38.9963,1441.42,64.40,57.20,77.45,150.00,8.00,0.00,30.23,M,10.00,M,SCT,M,M,M,12000.00,M,M,M,M,M,M,M,M,M,M,64.40,KMEV 031255Z AUTO 15008KT 10SM SCT120 18/14 A3023 RMK AO2,M
BAM,2024-08-03 12:55,-116.8743,40.5990,1382.36,80.60,50.00,34.41,220.00,12.00,0.00,30.15,M,10.00,21.00,CLR,M,M,M,M,M,M,M,M,M,M,M,M,M,M,79.88,KBAM 031255Z AUTO 22012G21KT 10SM CLR 27/10 A3015 RMK AO1,M
HTH,2024-08-03 12:55,-118.6315,38.5448,1282.89,71.60,57.20,60.44,160.00,8.00,0.00,30.17,M,10.00,14.00,CLR,M,M,M,M,M,M,M,M,M,M,M,M,M,M,71.60,KHTH 031255Z AUTO 16008G14KT 10SM CLR 22/14 A3017 RMK A01,M
10U,2024-08-03 12:55,-116.1876,41.9532,1637.00,73.40,33.80,23.39,120.00,7.00,0.00,30.20,M,10.00,M,CLR,M,M,M,M,M,M,M,M,M,M,M,M,M,M,73.40,K10U 031255Z AUTO 12007KT 10SM CLR 23/01 A3020 RMK AO2,M
TMT,2024-08-03 12:55,-117.1971,39.4643,1749.34,67.60,49.60,52.45,210.00,9.00,0.00,30.27,M,10.00,M,SCT,M,M,M,12000.00,M,M,M,M,M,M,M,M,M,M,67.60,KTMT 031255Z AUTO 21009KT 10SM SCT120 20/10 A3027 RMK AO2 T01980098,M
INS,2024-08-03 12:55,-115.6733,36.5872,955.00,77.50,50.00,38.11,280.00,4.00,0.00,30.08,1012.80,10.00,M,CLR,M,M,M,M,M,M,M,M,M,M,M,M,M,M,77.50,KINS 031255Z AUTO 28004KT 10SM CLR 25/10 A3008 RMK AO2 SLP128 T02530099 $,M
LSV,2024-08-03 12:55,-115.0343,36.2362,570.00,87.00,50.70,28.73,10.00,3.00,0.00,29.95,1011.00,10.00,M,CLR,M,M,M,M,M,M,M,M,M,M,M,M,M,M,84.53,KLSV 031255Z AUTO 01003KT 10SM CLR 31/10 A2995 RMK AO2 SLP110 T03050104 $,M
EKO,2024-08-03 12:56,-115.7860,40.8242,1367.00,73.00,47.00,39.58,0.00,0.00,0.00,30.20,1015.00,10.00,M,CLR,M,M,M,M,M,M,M,M,M,M,M,M,M,M,73.00,KEKO 031256Z AUTO 00000KT 10SM CLR 23/08 A3020 RMK AO2 SLP150 T02280083,M
WMC,2024-08-03 12:56,-117.8072,40.9019,1315.00,79.00,44.00,28.93,160.00,9.00,0.00,30.13,1013.60,10.00,M,CLR,M,M,M,M,M,M,M,M,M,M,M,M,M,M,79.00,KWMC 031256Z AUTO 16009KT 10SM CLR 26/07 A3013 RMK AO2 SLP136 T02610067,M
HND,2024-08-03 12:56,-115.1344,35.9729,742.79,85.00,56.00,37.20,210.00,10.00,0.00,30.05,1015.70,10.00,M,CLR,M,M,M,M,M,M,M,M,M,M,M,M,M,M,83.85,KHND 031256Z 21010KT 10SM CLR 29/13 A3005 RMK AO2 SLP157 T02940133,M
TPH,2024-08-03 12:56,-117.0904,38.0505,1654.00,64.00,55.00,72.52,350.00,6.00,0.00,30.27,1017.10,10.00,M,CLR,M,M,M,M,M,M,M,M,M,M,M,M,M,M,64.00,KTPH 031256Z AUTO 35006KT 10SM CLR 18/13 A3027 RMK AO2 SLP171 T01780128,M
LAS,2024-08-03 12:56,-115.1634,36.0719,663.00,89.00,56.00,32.75,290.00,3.00,0.00,30.02,1013.30,10.00,M,FEW,SCT,M,M,14000.00,22000.00,M,M,M,M,M,M,M,M,M,87.37,KLAS 031256Z 29003KT 10SM FEW140 SCT220 32/13 A3002 RMK AO2 SLP133 T03170133,M
05U,2024-08-03 13:10,-116.0051,39.6042,1811.23,73.40,44.60,35.66,0.00,0.00,0.00,30.29,M,10.00,M,CLR,M,M,M,M,M,M,M,M,M,M,M,M,M,M,73.40,K05U 031310Z AUTO 00000KT 10SM CLR 23/07 A3029 RMK A01,M
BVU,2024-08-03 13:15,-114.8611,35.9475,671.00,82.40,59.00,45.07,0.00,0.00,0.00,30.00,M,10.00,M,CLR,M,M,M,M,M,M,M,M,M,M,M,M,M,M,82.46,KBVU 031315Z AUTO 00000KT 10SM CLR 28/15 A3000 RMK AO2,M
CXP,2024-08-03 13:15,-119.7326,39.1923,1431.00,69.80,53.60,56.38,0.00,0.00,0.00,30.24,M,10.00,M,FEW,SCT,SCT,M,4300.00,7000.00,12000.00,M,M,M,M,M,M,M,M,69.80,KCXP 031315Z AUTO 00000KT 10SM FEW043 SCT070 SCT120 21/12 A3024 RMK AO2,M
RTS,2024-08-03 13:15,-119.8764,39.6682,1539.00,69.80,41.00,35.09,310.00,7.00,0.00,30.24,M,10.00,M,SCT,M,M,M,12000.00,M,M,M,M,M,M,M,M,M,M,69.80,KRTS 031315Z AUTO 31007KT 10SM SCT120 21/05 A3024 RMK AO2,M
MEV,2024-08-03 13:15,-119.7500,38.9963,1441.42,64.40,57.20,77.45,90.00,3.00,0.00,30.23,M,10.00,M,BKN,M,M,M,12000.00,M,M,M,M,M,M,M,M,M,M,64.40,KMEV 031315Z AUTO 09003KT 10SM BKN120 18/14 A3023 RMK AO2,M
BAM,2024-08-03 13:15,-116.8743,40.5990,1382.36,80.60,50.00,34.41,230.00,9.00,0.00,30.15,M,10.00,M,CLR,M,M,M,M,M,M,M,M,M,M,M,M,M,M,79.88,KBAM 031315Z AUTO 23009KT 10SM CLR 27/10 A3015 RMK AO1,M
HTH,2024-08-03 13:15,-118.6315,38.5448,1282.89,71.60,57.20,60.44,160.00,8.00,0.00,30.18,M,10.00,M,CLR,M,M,M,M,M,M,M,M,M,M,M,M,M,M,71.60,KHTH 031315Z AUTO 16008KT 10SM CLR 22/14 A3018 RMK A01,M
10U,2024-08-03 13:15,-116.1876,41.9532,1637.00,75.20,35.60,23.66,140.00,11.00,0.00,30.20,M,10.00,M,CLR,M,M,M,M,M,M,M,M,M,M,M,M,M,M,75.20,K10U 031315Z AUTO 14011KT 10SM CLR 24/02 A3020 RMK AO2,M
TMT,2024-08-03 13:15,-117.1971,39.4643,1749.34,68.00,48.60,49.84,180.00,6.00,0.00,30.27,M,10.00,M,SCT,M,M,M,12000.00,M,M,M,M,M,M,M,M,M,M,68.00,KTMT 031315Z AUTO 18006KT 10SM SCT120 20/09 A3027 RMK AO2 T02000092,M
BVU,2024-08-03 13:35,-114.8611,35.9475,671.00,84.20,59.00,42.52,0.00,0.00,0.00,30.00,M,10.00,M,CLR,M,M,M,M,M,M,M,M,M,M,M,M,M,M,83.92,KBVU 031335Z AUTO 00000KT 10SM CLR 29/15 A3000 RMK AO2,M
CXP,2024-08-03 13:35,-119.7326,39.1923,1431.00,69.80,53.60,56.38,0.00,0.00,0.00,30.24,M,10.00,M,FEW,M,M,M,11000.00,M,M,M,M,M,M,M,M,M,M,69.80,KCXP 031335Z AUTO 00000KT 10SM FEW110 21/12 A3024 RMK AO2,M
RTS,2024-08-03 13:35,-119.8764,39.6682,1539.00,73.40,41.00,31.05,280.00,7.00,0.00,30.24,M,10.00,M,SCT,M,M,M,12000.00,M,M,M,M,M,M,M,M,M,M,73.40,KRTS 031335Z AUTO 28007KT 10SM SCT120 23/05 A3024 RMK AO2,M
05U,2024-08-03 13:35,-116.0051,39.6042,1811.23,71.60,44.60,37.89,0.00,0.00,0.00,30.29,M,10.00,M,CLR,M,M,M,M,M,M,M,M,M,M,M,M,M,M,71.60,K05U 031335Z AUTO 00000KT 10SM CLR 22/07 A3029 RMK A01,M
MEV,2024-08-03 13:35,-119.7500,38.9963,1441.42,66.20,55.40,68.15,240.00,3.00,0.00,30.23,M,10.00,M,OVC,M,M,M,11000.00,M,M,M,M,M,M,M,M,M,M,66.20,KMEV 031335Z AUTO 24003KT 10SM OVC110 19/13 A3023 RMK AO2,M
BAM,2024-08-03 13:35,-116.8743,40.5990,1382.36,80.60,48.20,32.18,270.00,4.00,0.00,30.15,M,10.00,M,CLR,M,M,M,M,M,M,M,M,M,M,M,M,M,M,79.71,KBAM 031335Z AUTO 27004KT 10SM CLR 27/09 A3015 RMK AO1,M
HTH,2024-08-03 13:35,-118.6315,38.5448,1282.89,71.60,57.20,60.44,180.00,8.00,0.00,30.17,M,10.00,M,CLR,M,M,M,M,M,M,M,M,M,M,M,M,M,M,71.60,KHTH 031335Z AUTO 18008KT 10SM CLR 22/14 A3017 RMK A01,M
10U,2024-08-03 13:35,-116.1876,41.9532,1637.00,75.20,37.40,25.40,140.00,6.00,0.00,30.20,M,10.00,16.00,CLR,M,M,M,M,M,M,M,M,M,M,M,M,M,M,75.20,K10U 031335Z AUTO 14006G16KT 10SM CLR 24/03 A3020 RMK AO2,M
TMT,2024-08-03 13:35,-117.1971,39.4643,1749.34,69.00,48.00,47.09,200.00,6.00,0.00,30.27,M,10.00,M,CLR,M,M,M,M,M,M,M,M,M,M,M,M,M,M,69.00,KTMT 031335Z AUTO 20006KT 10SM CLR 21/09 A3027 RMK AO2 T02050088,M
P68,2024-08-03 13:53,-116.0056,39.6014,1993.00,73.00,45.00,36.70,190.00,6.00,0.00,30.26,1014.40,M,M,M,M,M,M,M,M,M,M,M,M,M,M,M,M,M,73.00,KP68 031353Z AUTO 19006KT 23/07 A3026 RMK AO1 SLP144 T02280072,M
DRA,2024-08-03 13:53,-116.0278,36.6206,1009.00,79.00,51.00,37.64,0.00,0.00,0.00,30.10,1013.60,10.00,M,SCT,M,M,M,11000.00,M,M,M,M,M,M,M,M,M,M,79.00,KDRA 031353Z AUTO 00000KT 10SM SCT110 26/11 A3010 RMK AO2 SLP136 T02610106,M
ELY,2024-08-03 13:53,-114.8453,39.2950,1909.00,64.00,45.00,49.99,160.00,7.00,0.00,30.33,1015.20,10.00,M,CLR,M,M,M,M,M,M,M,M,M,M,M,M,M,M,64.00,KELY 031353Z AUTO 16007KT 10SM CLR 18/07 A3033 RMK AO2 SLP152 T01780072,M
VGT,2024-08-03 13:53,-115.1933,36.2111,667.00,89.00,57.00,33.96,0.00,0.00,0.00,30.01,1014.50,10.00,M,CLR,M,M,M,M,M,M,M,M,M,M,M,M,M,M,87.64,KVGT 031353Z 00000KT 10SM CLR 32/14 A3001 RMK AO2 SLP145 T03170139,M
LOL,2024-08-03 13:53,-118.5701,40.0684,1192.43,74.00,48.00,39.74,60.00,3.00,T,30.11,1014.30,10.00,M,FEW,M,M,M,9500.00,M,M,M,M,M,M,M,M,M,M,74.00,KLOL 031353Z AUTO 06003KT 10SM FEW095 23/09 A3011 RMK AO2 RAB40E50 SLP143 P0000 T02330089,M
BVU,2024-08-03 13:55,-114.8611,35.9475,671.00,86.00,59.00,40.14,0.00,0.00,0.00,30.00,M,10.00,M,CLR,M,M,M,M,M,M,M,M,M,M,M,M,M,M,85.47,KBVU 031355Z AUTO 00000KT 10SM CLR 30/15 A3000 RMK AO2,M
CXP,2024-08-03 13:55,-119.7326,39.1923,1431.00,71.60,53.60,53.03,220.00,4.00,0.00,30.24,M,10.00,M,BKN,M,M,M,12000.00,M,M,M,M,M,M,M,M,M,M,71.60,KCXP 031355Z AUTO 22004KT 10SM BKN120 22/12 A3024 RMK AO2,M
RNO,2024-08-03 13:55,-119.7711,39.4839,1341.00,78.00,46.00,32.26,M,3.00,0.00,30.19,1015.70,10.00,M,BKN,BKN,M,M,12000.00,18000.00,M,M,M,M,M,M,M,M,M,78.00,KRNO 031355Z VRB03KT 10SM BKN120 BKN180 26/08 A3019 RMK AO2 SLP157 T02560078,M
RTS,2024-08-03 13:55,-119.8764,39.6682,1539.00,73.40,44.60,35.66,270.00,12.00,0.00,30.24,M,10.00,M,FEW,M,M,M,12000.00,M,M,M,M,M,M,M,M,M,M,73.40,KRTS 031355Z AUTO 27012KT 10SM FEW120 23/07 A3024 RMK AO2,M
05U,2024-08-03 13:55,-116.0051,39.6042,1811.23,73.40,44.60,35.66,0.00,0.00,0.00,30.29,M,10.00,M,CLR,M,M,M,M,M,M,M,M,M,M,M,M,M,M,73.40,K05U 031355Z AUTO 00000KT 10SM CLR 23/07 A3029 RMK A01,M
MEV,2024-08-03 13:55,-119.7500,38.9963,1441.42,66.20,57.20,72.74,290.00,3.00,0.00,30.23,M,10.00,M,BKN,M,M,M,11000.00,M,M,M,M,M,M,M,M,M,M,66.20,KMEV 031355Z AUTO 29003KT 10SM BKN110 19/14 A3023 RMK AO2,M
BAM,2024-08-03 13:55,-116.8743,40.5990,1382.36,78.80,50.00,36.51,250.00,4.00,0.00,30.15,M,10.00,M,CLR,M,M,M,M,M,M,M,M,M,M,M,M,M,M,78.80,KBAM 031355Z AUTO 25004KT 10SM CLR 26/10 A3015 RMK AO1,M
HTH,2024-08-03 13:55,-118.6315,38.5448,1282.89,71.60,57.20,60.44,170.00,5.00,0.00,30.17,M,10.00,M,CLR,M,M,M,M,M,M,M,M,M,M,M,M,M,M,71.60,KHTH 031355Z AUTO 17005KT 10SM CLR 22/14 A3017 RMK A01,M
10U,2024-08-03 13:55,-116.1876,41.9532,1637.00,75.20,39.20,27.26,140.00,9.00,0.00,30.20,M,10.00,14.00,CLR,M,M,M,M,M,M,M,M,M,M,M,M,M,M,75.20,K10U 031355Z AUTO 14009G14KT 10SM CLR 24/04 A3020 RMK AO2,M
TMT,2024-08-03 13:55,-117.1971,39.4643,1749.34,68.50,49.00,49.73,160.00,3.00,0.00,30.27,M,10.00,M,SCT,M,M,M,12000.00,M,M,M,M,M,M,M,M,M,M,68.50,KTMT 031355Z AUTO 16003KT 10SM SCT120 20/09 A3027 RMK AO2 T02030094,M
INS,2024-08-03 13:55,-115.6733,36.5872,955.00,80.00,50.00,35.10,0.00,0.00,0.00,30.09,1013.00,10.00,M,CLR,M,M,M,M,M,M,M,M,M,M,M,M,M,M,79.55,KINS 031355Z AUTO 00000KT 10SM CLR 27/10 A3009 RMK AO2 SLP130 T02660099 $,M
LSV,2024-08-03 13:55,-115.0343,36.2362,570.00,86.40,50.40,28.97,60.00,5.00,0.00,29.96,1011.30,10.00,M,CLR,M,M,M,M,M,M,M,M,M,M,M,M,M,M,83.99,KLSV 031355Z AUTO 06005KT 10SM CLR 30/10 A2996 RMK AO2 SLP113 T03020102 $,M
EKO,2024-08-03 13:56,-115.7860,40.8242,1367.00,73.00,48.00,41.10,90.00,4.00,0.00,30.20,1015.40,10.00,M,CLR,M,M,M,M,M,M,M,M,M,M,M,M,M,M,73.00,KEKO 031356Z AUTO 09004KT 10SM CLR 23/09 A3020 RMK AO2 SLP154 T02280089,M
WMC,2024-08-03 13:56,-117.8072,40.9019,1315.00,78.00,45.00,31.06,230.00,3.00,0.00,30.13,1013.70,9.00,M,CLR,M,M,M,M,M,M,M,M,M,M,M,M,M,M,78.00,KWMC 031356Z AUTO 23003KT 9SM CLR 26/07 A3013 RMK AO2 SLP137 T02560072,M
HND,2024-08-03 13:56,-115.1344,35.9729,742.79,87.00,57.00,36.18,230.00,7.00,0.00,30.05,1015.90,10.00,M,CLR,M,M,M,M,M,M,M,M,M,M,M,M,M,M,85.80,KHND 031356Z 23007KT 10SM CLR 31/14 A3005 RMK AO2 SLP159 T03060139,M
TPH,2024-08-03 13:56,-117.0904,38.0505,1654.00,66.00,56.00,70.14,360.00,6.00,0.00,30.28,1017.00,10.00,M,CLR,M,M,M,M,M,M,M,M,M,M,M,M,M,M,66.00,KTPH 031356Z AUTO 36006KT 10SM CLR 19/13 A3028 RMK AO2 SLP170 T01890133,M
LAS,2024-08-03 13:56,-115.1634,36.0719,663.00,90.00,55.00,30.61,180.00,3.00,0.00,30.02,1013.30,10.00,M,FEW,FEW,M,M,15000.00,22000.00,M,M,M,M,M,M,M,M,M,88.06,KLAS 031356Z 18003KT 10SM FEW150 FEW220 32/13 A3002 RMK AO2 SLP133 T03220128,M
BVU,2024-08-03 14:15,-114.8611,35.9475,671.00,87.80,59.00,37.90,0.00,0.00,0.00,30.00,M,10.00,M,CLR,M,M,M,M,M,M,M,M,M,M,M,M,M,M,87.12,KBVU 031415Z AUTO 00000KT 10SM CLR 31/15 A3000 RMK AO2,M
CXP,2024-08-03 14:15,-119.7326,39.1923,1431.00,69.80,53.60,56.38,0.00,0.00,0.00,30.24,M,10.00,M,OVC,M,M,M,11000.00,M,M,M,M,M,M,M,M,M,M,69.80,KCXP 031415Z AUTO 00000KT 10SM OVC110 21/12 A3024 RMK AO2,M
RTS,2024-08-03 14:15,-119.8764,39.6682,1539.00,73.40,42.80,33.29,240.00,8.00,0.00,30.24,M,10.00,M,BKN,M,M,M,12000.00,M,M,M,M,M,M,M,M,M,M,73.40,KRTS 031415Z AUTO 24008KT 10SM BKN120 23/06 A3024 RMK AO2,M
05U,2024-08-03 14:15,-116.0051,39.6042,1811.23,73.40,44.60,35.66,0.00,0.00,0.00,30.29,M,10.00,M,CLR,M,M,M,M,M,M,M,M,M,M,M,M,M,M,73.40,K05U 031415Z AUTO 00000KT 10SM CLR 23/07 A3029 RMK A01,M
MEV,2024-08-03 14:15,-119.7500,38.9963,1441.42,68.00,57.20,68.35,0.00,0.00,0.00,30.22,M,10.00,M,SCT,M,M,M,10000.00,M,M,M,M,M,M,M,M,M,M,68.00,KMEV 031415Z AUTO 00000KT 10SM SCT100 20/14 A3022 RMK AO2,M
BAM,2024-08-03 14:15,-116.8743,40.5990,1382.36,80.60,50.00,34.41,100.00,5.00,0.00,30.15,M,10.00,M,CLR,M,M,M,M,M,M,M,M,M,M,M,M,M,M,79.88,KBAM 031415Z AUTO 10005KT 10SM CLR 27/10 A3015 RMK AO1,M
HTH,2024-08-03 14:15,-118.6315,38.5448,1282.89,73.40,59.00,60.67,0.00,0.00,0.00,30.17,M,10.00,M,CLR,M,M,M,M,M,M,M,M,M,M,M,M,M,M,73.40,KHTH 031415Z AUTO 00000KT 10SM CLR 23/15 A3017 RMK A01,M
10U,2024-08-03 14:15,-116.1876,41.9532,1637.00,77.00,41.00,27.53,120.00,10.00,0.00,30.20,M,10.00,M,CLR,M,M,M,M,M,M,M,M,M,M,M,M,M,M,77.00,K10U 031415Z AUTO 12010KT 10SM CLR 25/05 A3020 RMK AO2,M
TMT,2024-08-03 14:15,-117.1971,39.4643,1749.34,69.00,48.40,47.80,0.00,0.00,0.00,30.27,M,10.00,M,SCT,M,M,M,12000.00,M,M,M,M,M,M,M,M,M,M,69.00,KTMT 031415Z AUTO 00000KT 10SM SCT120 21/09 A3027 RMK AO2 T02060091,M
05U,2024-08-03 14:30,-116.0051,39.6042,1811.23,73.40,44.60,35.66,0.00,0.00,0.00,30.29,M,10.00,M,CLR,M,M,M,M,M,M,M,M,M,M,M,M,M,M,73.40,K05U 031430Z AUTO 00000KT 10SM CLR 23/07 A3029 RMK A01,M
BVU,2024-08-03 14:35,-114.8611,35.9475,671.00,91.40,53.60,27.83,0.00,0.00,0.00,30.00,M,10.00,M,CLR,M,M,M,M,M,M,M,M,M,M,M,M,M,M,89.08,KBVU 031435Z AUTO 00000KT 10SM CLR 33/12 A3000 RMK AO2,M
CXP,2024-08-03 14:35,-119.7326,39.1923,1431.00,69.80,53.60,56.38,0.00,0.00,0.00,30.23,M,10.00,M,BKN,M,M,M,11000.00,M,M,M,M,M,M,M,M,M,M,69.80,KCXP 031435Z AUTO 00000KT 10SM BKN110 21/12 A3023 RMK AO2,M
RTS,2024-08-03 14:35,-119.8764,39.6682,1539.00,73.40,39.20,28.96,0.00,0.00,0.00,30.25,M,10.00,M,BKN,M,M,M,12000.00,M,M,M,M,M,M,M,M,M,M,73.40,KRTS 031435Z AUTO 00000KT 10SM BKN120 23/04 A3025 RMK AO2,M
MEV,2024-08-03 14:35,-119.7500,38.9963,1441.42,68.00,59.00,72.92,90.00,4.00,0.00,30.22,M,10.00,M,CLR,M,M,M,M,M,M,M,M,M,M,M,M,M,M,68.00,KMEV 031435Z AUTO 09004KT 10SM CLR 20/15 A3022 RMK AO2,M
HTH,2024-08-03 14:35,-118.6315,38.5448,1282.89,73.40,59.00,60.67,M,M,0.00,30.17,M,10.00,M,M,M,M,M,M,M,M,M,M,M,M,M,M,M,M,73.40,KHTH 031435Z AUTO 10SM 23/15 A3017 RMK A01,M
10U,2024-08-03 14:35,-116.1876,41.9532,1637.00,78.80,41.00,25.95,120.00,7.00,0.00,30.20,M,10.00,M,CLR,M,M,M,M,M,M,M,M,M,M,M,M,M,M,78.80,K10U 031435Z AUTO 12007KT 10SM CLR 26/05 A3020 RMK AO2,M
BAM,2024-08-03 14:35,-116.8743,40.5990,1382.36,80.60,50.00,34.41,150.00,7.00,0.00,30.15,M,10.00,M,CLR,M,M,M,M,M,M,M,M,M,M,M,M,M,M,79.88,KBAM 031435Z AUTO 15007KT 10SM CLR 27/10 A3015 RMK AO1,M
TMT,2024-08-03 14:35,-117.1971,39.4643,1749.34,71.60,48.00,43.09,220.00,8.00,0.00,30.27,M,10.00,M,CLR,M,M,M,M,M,M,M,M,M,M,M,M,M,M,71.60,KTMT 031435Z AUTO 22008KT 10SM CLR 22/09 A3027 RMK AO2 T02200089,M
05U,2024-08-03 14:50,-116.0051,39.6042,1811.23,75.20,44.60,33.57,0.00,0.00,0.00,30.29,M,10.00,M,CLR,M,M,M,M,M,M,M,M,M,M,M,M,M,M,75.20,K05U 031450Z AUTO 00000KT 10SM CLR 24/07 A3029 RMK A01,M
P68,2024-08-03 14:53,-116.0056,39.6014,1993.00,74.00,45.00,35.48,0.00,0.00,0.00,30.27,1014.80,M,M,M,M,M,M,M,M,M,M,M,M,M,M,M,M,M,74.00,KP68 031453Z AUTO 00000KT 23/07 A3027 RMK AO1 SLP148 T02330072 51002,M
DRA,2024-08-03 14:53,-116.0278,36.6206,1009.00,84.00,52.00,33.19,0.00,0.00,0.00,30.10,1013.60,10.00,M,CLR,M,M,M,M,M,M,M,M,M,M,M,M,M,M,82.36,KDRA 031453Z AUTO 00000KT 10SM CLR 29/11 A3010 RMK AO2 SLP136 T02890111 51001,M
ELY,2024-08-03 14:53,-114.8453,39.2950,1909.00,68.00,46.00,45.19,190.00,8.00,0.00,30.33,1015.50,10.00,M,CLR,M,M,M,M,M,M,M,M,M,M,M,M,M,M,68.00,KELY 031453Z AUTO 19008KT 10SM CLR 20/08 A3033 RMK AO2 SLP155 T02000078 51000,M
VGT,2024-08-03 14:53,-115.1933,36.2111,667.00,93.00,55.00,27.87,0.00,0.00,0.00,30.01,1014.60,10.00,M,CLR,M,M,M,M,M,M,M,M,M,M,M,M,M,M,91.03,KVGT 031453Z 00000KT 10SM CLR 34/13 A3001 RMK AO2 SLP146 T03390128 52007,M
LOL,2024-08-03 14:53,-118.5701,40.0684,1192.43,80.00,48.00,32.57,130.00,4.00,0.00,30.11,1014.10,10.00,M,CLR,M,M,M,M,M,M,M,M,M,M,M,M,M,M,79.37,KLOL 031453Z AUTO 13004KT 10SM CLR 27/09 A3011 RMK AO2 SLP141 60000 T02670089 56005,M
NFL,2024-08-03 14:54,-118.7010,39.4166,1199.00,84.00,51.00,31.99,230.00,11.00,0.00,30.13,1016.80,10.00,M,CLR,M,M,M,M,M,M,M,M,M,M,M,M,M,M,82.22,KNFL 031454Z AUTO 23011KT 10SM CLR 29/11 A3013 RMK AO2 SLP168 T02890106 53001,M
BVU,2024-08-03 14:55,-114.8611,35.9475,671.00,91.40,53.60,27.83,0.00,0.00,0.00,30.00,M,10.00,M,CLR,M,M,M,M,M,M,M,M,M,M,M,M,M,M,89.08,KBVU 031455Z AUTO 00000KT 10SM CLR 33/12 A3000 RMK AO2,M
CXP,2024-08-03 14:55,-119.7326,39.1923,1431.00,71.60,55.40,56.63,230.00,4.00,0.00,30.24,M,10.00,M,BKN,M,M,M,11000.00,M,M,M,M,M,M,M,M,M,M,71.60,KCXP 031455Z AUTO 23004KT 10SM BKN110 22/13 A3024 RMK AO2,M
RNO,2024-08-03 14:55,-119.7711,39.4839,1341.00,78.00,49.00,36.11,300.00,7.00,0.00,30.19,1015.80,10.00,M,BKN,BKN,M,M,11000.00,16000.00,M,M,M,M,M,M,M,M,M,78.00,KRNO 031455Z 30007KT 10SM BKN110 BKN160 26/09 A3019 RMK AO2 SLP158 60000 T02560094 58001,M
RTS,2024-08-03 14:55,-119.8764,39.6682,1539.00,73.40,39.20,28.96,310.00,3.00,0.00,30.25,M,10.00,M,BKN,M,M,M,12000.00,M,M,M,M,M,M,M,M,M,M,73.40,KRTS 031455Z AUTO 31003KT 10SM BKN120 23/04 A3025 RMK AO2,M
MEV,2024-08-03 14:55,-119.7500,38.9963,1441.42,68.00,59.00,72.92,110.00,6.00,0.00,30.22,M,10.00,M,FEW,M,M,M,11000.00,M,M,M,M,M,M,M,M,M,M,68.00,KMEV 031455Z AUTO 11006KT 10SM FEW110 20/15 A3022 RMK AO2,M
BAM,2024-08-03 14:55,-116.8743,40.5990,1382.36,80.60,50.00,34.41,120.00,3.00,0.00,30.16,M,10.00,M,CLR,M,M,M,M,M,M,M,M,M,M,M,M,M,M,79.88,KBAM 031455Z AUTO 12003KT 10SM CLR 27/10 A3016 RMK AO1,M
HTH,2024-08-03 14:55,-118.6315,38.5448,1282.89,77.00,55.40,47.25,60.00,4.00,0.00,30.17,M,10.00,M,M,M,M,M,M,M,M,M,M,M,M,M,M,M,M,77.00,KHTH 031455Z AUTO 06004KT 10SM 25/13 A3017 RMK A01,M
10U,2024-08-03 14:55,-116.1876,41.9532,1637.00,78.80,42.80,27.81,120.00,7.00,0.00,30.20,M,10.00,12.00,CLR,M,M,M,M,M,M,M,M,M,M,M,M,M,M,78.80,K10U 031455Z AUTO 12007G12KT 10SM CLR 26/06 A3020 RMK AO2,M
TMT,2024-08-03 14:55,-117.1971,39.4643,1749.34,71.20,49.30,45.86,230.00,7.00,0.00,30.27,M,10.00,M,CLR,M,M,M,M,M,M,M,M,M,M,M,M,M,M,71.20,KTMT 031455Z AUTO 23007KT 10SM CLR 22/10 A3027 RMK AO2 T02180096,M
INS,2024-08-03 14:55,-115.6733,36.5872,955.00,84.60,49.60,29.78,0.00,0.00,0.00,30.09,1012.90,10.00,M,CLR,M,M,M,M,M,M,M,M,M,M,M,M,M,M,82.48,KINS 031455Z AUTO 00000KT 10SM CLR 29/10 A3009 RMK AO2 SLP129 T02920098 51004 $,M
LSV,2024-08-03 14:55,-115.0343,36.2362,570.00,91.80,51.00,24.98,0.00,0.00,0.00,29.96,1011.30,10.00,M,CLR,M,M,M,M,M,M,M,M,M,M,M,M,M,M,88.92,KLSV 031455Z AUTO 00000KT 10SM CLR 33/11 A2996 RMK AO2 SLP113 T03320105 52007 $,M
EKO,2024-08-03 14:56,-115.7860,40.8242,1367.00,79.00,49.00,34.94,70.00,3.00,0.00,30.20,1015.20,10.00,M,CLR,M,M,M,M,M,M,M,M,M,M,M,M,M,M,79.00,KEKO 031456Z AUTO 07003KT 10SM CLR 26/09 A3020 RMK AO2 SLP152 T02610094 50000 $,M
WMC,2024-08-03 14:56,-117.8072,40.9019,1315.00,82.00,43.00,25.24,290.00,7.00,0.00,30.11,1013.40,10.00,M,CLR,M,M,M,M,M,M,M,M,M,M,M,M,M,M,80.15,KWMC 031456Z AUTO 29007KT 10SM CLR 28/06 A3011 RMK AO2 SLP134 T02780061 58001,M
HND,2024-08-03 14:56,-115.1344,35.9729,742.79,90.00,57.00,32.91,230.00,6.00,0.00,30.06,1016.00,10.00,M,CLR,M,M,M,M,M,M,M,M,M,M,M,M,M,M,88.61,KHND 031456Z 23006KT 10SM CLR 32/14 A3006 RMK AO2 SLP160 T03220139 51005,M
TPH,2024-08-03 14:56,-117.0904,38.0505,1654.00,72.00,54.00,53.09,0.00,0.00,0.00,30.28,1016.80,10.00,M,CLR,M,M,M,M,M,M,M,M,M,M,M,M,M,M,72.00,KTPH 031456Z AUTO 00000KT 10SM CLR 22/12 A3028 RMK AO2 SLP168 T02220122 51003,M
LAS,2024-08-03 14:56,-115.1634,36.0719,663.00,92.00,55.00,28.75,M,3.00,0.00,30.03,1013.50,10.00,M,FEW,FEW,SCT,M,12000.00,15000.00,22000.00,M,M,M,M,M,M,M,M,90.02,KLAS 031456Z VRB03KT 10SM FEW120 FEW150 SCT220 33/13 A3003 RMK AO2 SLP135 T03330128 51006,M
05U,2024-08-03 15:10,-116.0051,39.6042,1811.23,75.20,44.60,33.57,0.00,0.00,0.00,30.29,M,10.00,M,CLR,M,M,M,M,M,M,M,M,M,M,M,M,M,M,75.20,K05U 031510Z AUTO 00000KT 10SM CLR 24/07 A3029 RMK A01,M
BVU,2024-08-03 15:15,-114.8611,35.9475,671.00,93.20,53.60,26.31,0.00,0.00,0.00,30.00,M,10.00,M,CLR,M,M,M,M,M,M,M,M,M,M,M,M,M,M,90.86,KBVU 031515Z AUTO 00000KT 10SM CLR 34/12 A3000 RMK AO2,M
CXP,2024-08-03 15:15,-119.7326,39.1923,1431.00,71.60,55.40,56.63,220.00,3.00,0.00,30.24,M,10.00,M,SCT,M,M,M,11000.00,M,M,M,M,M,M,M,M,M,M,71.60,KCXP 031515Z AUTO 22003KT 10SM SCT110 22/13 A3024 RMK AO2,M
RTS,2024-08-03 15:15,-119.8764,39.6682,1539.00,73.40,41.00,31.05,310.00,7.00,0.00,30.25,M,10.00,M,FEW,SCT,BKN,M,5000.00,7000.00,12000.00,M,-DZ,M,M,M,M,M,M,73.40,KRTS 031515Z AUTO 31007KT 10SM -DZ FEW050 SCT070 BKN120 23/05 A3025 RMK AO2,M
MEV,2024-08-03 15:15,-119.7500,38.9963,1441.42,69.80,55.40,60.21,0.00,0.00,0.00,30.22,M,10.00,M,BKN,BKN,M,M,10000.00,12000.00,M,M,M,M,M,M,M,M,M,69.80,KMEV 031515Z AUTO 00000KT 10SM BKN100 BKN120 21/13 A3022 RMK AO2,M
BAM,2024-08-03 15:15,-116.8743,40.5990,1382.36,82.40,50.00,32.46,0.00,0.00,0.00,30.15,M,10.00,M,CLR,M,M,M,M,M,M,M,M,M,M,M,M,M,M,80.99,KBAM 031515Z AUTO 00000KT 10SM CLR 28/10 A3015 RMK AO1,M
HTH,2024-08-03 15:15,-118.6315,38.5448,1282.89,78.80,53.60,41.69,0.00,0.00,0.00,30.18,M,10.00,M,CLR,M,M,M,M,M,M,M,M,M,M,M,M,M,M,78.80,KHTH 031515Z AUTO 00000KT 10SM CLR 26/12 A3018 RMK A01,M
10U,2024-08-03 15:15,-116.1876,41.9532,1637.00,84.20,41.00,21.76,220.00,9.00,0.00,30.21,M,10.00,M,CLR,M,M,M,M,M,M,M,M,M,M,M,M,M,M,81.52,K10U 031515Z AUTO 22009KT 180V240 10SM CLR 29/05 A3021 RMK AO2,M
TMT,2024-08-03 15:15,-117.1971,39.4643,1749.34,73.20,48.20,41.13,220.00,9.00,0.00,30.27,M,10.00,M,CLR,M,M,M,M,M,M,M,M,M,M,M,M,M,M,73.20,KTMT 031515Z AUTO 22009KT 10SM CLR 23/09 A3027 RMK AO2 T02290090,M
05U,2024-08-03 15:30,-116.0051,39.6042,1811.23,78.80,44.60,29.79,0.00,0.00,0.00,30.29,M,10.00,M,CLR,M,M,M,M,M,M,M,M,M,M,M,M,M,M,78.80,K05U 031530Z AUTO 00000KT 10SM CLR 26/07 A3029 RMK A01,M
BVU,2024-08-03 15:35,-114.8611,35.9475,671.00,93.20,53.60,26.31,0.00,0.00,0.00,30.00,M,10.00,M,CLR,M,M,M,M,M,M,M,M,M,M,M,M,M,M,90.86,KBVU 031535Z AUTO 00000KT 10SM CLR 34/12 A3000 RMK AO2,M
CXP,2024-08-03 15:35,-119.7326,39.1923,1431.00,73.40,53.60,49.90,0.00,0.00,0.00,30.24,M,10.00,M,SCT,M,M,M,10000.00,M,M,M,M,M,M,M,M,M,M,73.40,KCXP 031535Z AUTO 00000KT 10SM SCT100 23/12 A3024 RMK AO2,M
RTS,2024-08-03 15:35,-119.8764,39.6682,1539.00,73.40,41.00,31.05,290.00,9.00,0.00,30.24,M,10.00,M,FEW,SCT,OVC,M,6000.00,7500.00,11000.00,M,M,M,M,M,M,M,M,73.40,KRTS 031535Z AUTO 29009KT 10SM FEW060 SCT075 OVC110 23/05 A3024 RMK AO2,M
MEV,2024-08-03 15:35,-119.7500,38.9963,1441.42,69.80,57.20,64.26,310.00,5.00,0.00,30.22,M,10.00,M,SCT,BKN,M,M,9500.00,11000.00,M,M,M,M,M,M,M,M,M,69.80,KMEV 031535Z AUTO 31005KT 10SM SCT095 BKN110 21/14 A3022 RMK AO2,M
BAM,2024-08-03 15:35,-116.8743,40.5990,1382.36,82.40,50.00,32.46,0.00,0.00,0.00,30.16,M,10.00,M,CLR,M,M,M,M,M,M,M,M,M,M,M,M,M,M,80.99,KBAM 031535Z AUTO 00000KT 10SM CLR 28/10 A3016 RMK AO1,M
HTH,2024-08-03 15:35,-118.6315,38.5448,1282.89,78.80,55.40,44.52,0.00,0.00,0.00,30.18,M,10.00,M,CLR,M,M,M,M,M,M,M,M,M,M,M,M,M,M,78.80,KHTH 031535Z AUTO 00000KT 10SM CLR 26/13 A3018 RMK A01,M
10U,2024-08-03 15:35,-116.1876,41.9532,1637.00,86.00,37.40,17.85,210.00,12.00,0.00,30.21,M,10.00,M,CLR,M,M,M,M,M,M,M,M,M,M,M,M,M,M,82.73,K10U 031535Z AUTO 21012KT 10SM CLR 30/03 A3021 RMK AO2,M
TMT,2024-08-03 15:35,-117.1971,39.4643,1749.34,78.30,48.70,35.36,240.00,12.00,0.00,30.27,M,10.00,M,CLR,M,M,M,M,M,M,M,M,M,M,M,M,M,M,78.30,KTMT 031535Z AUTO 24012KT 10SM CLR 26/09 A3027 RMK AO2 T02570093,M
05U,2024-08-03 15:50,-116.0051,39.6042,1811.23,82.40,44.60,26.49,0.00,0.00,0.00,30.29,M,10.00,M,CLR,M,M,M,M,M,M,M,M,M,M,M,M,M,M,80.50,K05U 031550Z AUTO 00000KT 10SM CLR 28/07 A3029 RMK A01,M
P68,2024-08-03 15:53,-116.0056,39.6014,1993.00,80.00,45.00,29.08,0.00,0.00,0.00,30.26,1014.60,M,M,M,M,M,M,M,M,M,M,M,M,M,M,M,M,M,79.13,KP68 031553Z AUTO 00000KT 27/07 A3026 RMK AO1 SLP146 T02670072,M
DRA,2024-08-03 15:53,-116.0278,36.6206,1009.00,90.00,52.00,27.42,140.00,3.00,0.00,30.09,1013.20,10.00,M,CLR,M,M,M,M,M,M,M,M,M,M,M,M,M,M,87.40,KDRA 031553Z AUTO 14003KT 10SM CLR 32/11 A3009 RMK AO2 SLP132 T03220111,M
ELY,2024-08-03 15:53,-114.8453,39.2950,1909.00,76.00,45.00,33.19,200.00,8.00,0.00,30.32,1015.00,10.00,M,FEW,M,M,M,12000.00,M,M,M,M,M,M,M,M,M,M,76.00,KELY 031553Z AUTO 20008KT 10SM FEW120 24/07 A3032 RMK AO2 SLP150 T02440072,M
VGT,2024-08-03 15:53,-115.1933,36.2111,667.00,95.00,55.00,26.19,0.00,0.00,0.00,30.01,1014.50,10.00,M,CLR,M,M,M,M,M,M,M,M,M,M,M,M,M,M,93.10,KVGT 031553Z 00000KT 10SM CLR 35/13 A3001 RMK AO2 SLP145 T03500128,M
LOL,2024-08-03 15:53,-118.5701,40.0684,1192.43,86.00,44.00,23.05,180.00,7.00,0.00,30.10,1013.80,6.00,M,CLR,M,M,M,M,M,M,M,HZ,M,M,M,M,M,M,83.03,KLOL 031553Z AUTO 18007KT 6SM HZ CLR 30/07 A3010 RMK AO2 SLP138 T03000067,M
NFL,2024-08-03 15:54,-118.7010,39.4166,1199.00,87.00,50.00,28.00,220.00,9.00,0.00,30.13,1016.80,10.00,M,FEW,SCT,M,M,8000.00,12000.00,M,M,M,M,M,M,M,M,M,84.43,KNFL 031554Z 22009KT 10SM FEW080 SCT120 31/10 A3013 RMK AO2 SLP168 T03060100,M
BVU,2024-08-03 15:55,-114.8611,35.9475,671.00,95.00,53.60,24.89,100.00,3.00,0.00,30.00,M,10.00,M,CLR,M,M,M,M,M,M,M,M,M,M,M,M,M,M,92.71,KBVU 031555Z AUTO 10003KT 10SM CLR 35/12 A3000 RMK AO2,M
CXP,2024-08-03 15:55,-119.7326,39.1923,1431.00,75.20,53.60,46.98,0.00,0.00,0.00,30.24,M,10.00,M,SCT,M,M,M,10000.00,M,M,M,M,M,M,M,M,M,M,75.20,KCXP 031555Z AUTO 00000KT 10SM SCT100 24/12 A3024 RMK AO2,M
RNO,2024-08-03 15:55,-119.7711,39.4839,1341.00,79.00,52.00,39.06,270.00,7.00,0.00,30.20,1016.20,10.00,M,BKN,BKN,M,M,11000.00,16000.00,M,M,M,M,M,M,M,M,M,79.00,KRNO 031555Z 27007KT 10SM BKN110 BKN160 26/11 A3020 RMK AO2 SLP162 T02610111,M
RTS,2024-08-03 15:55,-119.8764,39.6682,1539.00,73.40,41.00,31.05,270.00,6.00,0.00,30.25,M,10.00,M,BKN,M,M,M,11000.00,M,M,M,M,M,M,M,M,M,M,73.40,KRTS 031555Z AUTO 27006KT 10SM BKN110 23/05 A3025 RMK AO2,M
MEV,2024-08-03 15:55,-119.7500,38.9963,1441.42,73.40,57.20,56.88,M,4.00,0.00,30.22,M,10.00,M,BKN,M,M,M,11000.00,M,M,M,M,M,M,M,M,M,M,73.40,KMEV 031555Z AUTO VRB04KT 10SM BKN110 23/14 A3022 RMK AO2,M
BAM,2024-08-03 15:55,-116.8743,40.5990,1382.36,86.00,48.20,27.03,0.00,0.00,0.00,30.15,M,10.00,M,CLR,M,M,M,M,M,M,M,M,M,M,M,M,M,M,83.40,KBAM 031555Z AUTO 00000KT 10SM CLR 30/09 A3015 RMK AO1,M
HTH,2024-08-03 15:55,-118.6315,38.5448,1282.89,80.60,53.60,39.30,0.00,0.00,0.00,30.17,M,10.00,M,CLR,M,M,M,M,M,M,M,M,M,M,M,M,M,M,80.29,KHTH 031555Z AUTO 00000KT 10SM CLR 27/12 A3017 RMK A01,M
10U,2024-08-03 15:55,-116.1876,41.9532,1637.00,86.00,37.40,17.85,240.00,8.00,0.00,30.20,M,10.00,15.00,CLR,M,M,M,M,M,M,M,M,M,M,M,M,M,M,82.73,K10U 031555Z AUTO 24008G15KT 10SM CLR 30/03 A3020 RMK AO2,M
TMT,2024-08-03 15:55,-117.1971,39.4643,1749.34,80.40,50.00,34.64,210.00,15.00,0.00,30.27,M,10.00,M,CLR,M,M,M,M,M,M,M,M,M,M,M,M,M,M,79.77,KTMT 031555Z AUTO 21015KT 10SM CLR 27/10 A3027 RMK AO2 T02690099,M
INS,2024-08-03 15:55,-115.6733,36.5872,955.00,88.00,49.00,26.13,0.00,0.00,0.00,30.08,1012.40,10.00,M,CLR,M,M,M,M,M,M,M,M,M,M,M,M,M,M,85.14,KINS 031555Z AUTO 00000KT 10SM CLR 31/09 A3008 RMK AO2 SLP124 T03120094 $,M
LSV,2024-08-03 15:55,-115.0343,36.2362,570.00,94.60,51.00,22.90,0.00,0.00,0.00,29.96,1011.30,10.00,M,CLR,M,M,M,M,M,M,M,M,M,M,M,M,M,M,91.68,KLSV 031555Z AUTO 00000KT 10SM CLR 35/11 A2996 RMK AO2 SLP113 T03480106 $,M
EKO,2024-08-03 15:56,-115.7860,40.8242,1367.00,81.00,48.00,31.52,100.00,7.00,0.00,30.19,1015.50,10.00,M,CLR,M,M,M,M,M,M,M,M,M,M,M,M,M,M,79.92,KEKO 031556Z AUTO 10007KT 10SM CLR 27/09 A3019 RMK AO2 SLP155 T02720089 $,M
WMC,2024-08-03 15:56,-117.8072,40.9019,1315.00,86.00,45.00,23.95,0.00,0.00,0.00,30.12,1013.90,10.00,M,CLR,M,M,M,M,M,M,M,M,M,M,M,M,M,M,83.10,KWMC 031556Z AUTO 00000KT 10SM CLR 30/07 A3012 RMK AO2 SLP139 T03000072,M
HND,2024-08-03 15:56,-115.1344,35.9729,742.79,94.00,57.00,29.05,240.00,7.00,0.00,30.05,1015.60,10.00,M,CLR,M,M,M,M,M,M,M,M,M,M,M,M,M,M,92.68,KHND 031556Z 24007KT 10SM CLR 34/14 A3005 RMK AO2 SLP156 T03440139,M
TPH,2024-08-03 15:56,-117.0904,38.0505,1654.00,76.00,53.00,44.75,150.00,3.00,0.00,30.28,1016.50,10.00,M,CLR,M,M,M,M,M,M,M,M,M,M,M,M,M,M,76.00,KTPH 031556Z AUTO 15003KT 10SM CLR 24/12 A3028 RMK AO2 SLP165 T02440117,M
LAS,2024-08-03 15:56,-115.1634,36.0719,663.00,97.00,54.00,23.75,0.00,0.00,0.00,30.02,1013.30,10.00,M,FEW,FEW,SCT,M,12000.00,15000.00,22000.00,M,M,M,M,M,M,M,M,94.92,KLAS 031556Z 00000KT 10SM FEW120 FEW150 SCT220 36/12 A3002 RMK AO2 SLP133 T03610122,M
05U,2024-08-03 16:10,-116.0051,39.6042,1811.23,82.40,44.60,26.49,0.00,0.00,0.00,30.29,M,10.00,11.00,CLR,M,M,M,M,M,M,M,M,M,M,M,M,M,M,80.50,K05U 031610Z AUTO 00000G11KT 10SM CLR 28/07 A3029 RMK A01,M
BVU,2024-08-03 16:15,-114.8611,35.9475,671.00,95.00,53.60,24.89,100.00,5.00,0.00,30.00,M,10.00,M,CLR,M,M,M,M,M,M,M,M,M,M,M,M,M,M,92.71,KBVU 031615Z AUTO 10005KT 10SM CLR 35/12 A3000 RMK AO2,M
CXP,2024-08-03 16:15,-119.7326,39.1923,1431.00,77.00,53.60,44.25,0.00,0.00,0.00,30.23,M,10.00,M,BKN,M,M,M,10000.00,M,M,M,M,M,M,M,M,M,M,77.00,KCXP 031615Z AUTO 00000KT 10SM BKN100 25/12 A3023 RMK AO2,M
RTS,2024-08-03 16:15,-119.8764,39.6682,1539.00,73.40,44.60,35.66,260.00,7.00,0.00,30.25,M,10.00,M,BKN,M,M,M,11000.00,M,M,M,M,M,M,M,M,M,M,73.40,KRTS 031615Z AUTO 26007KT 10SM BKN110 23/07 A3025 RMK AO2,M
MEV,2024-08-03 16:15,-119.7500,38.9963,1441.42,75.20,55.40,50.17,50.00,5.00,0.00,30.21,M,10.00,M,SCT,M,M,M,11000.00,M,M,M,M,M,M,M,M,M,M,75.20,KMEV 031615Z AUTO 05005KT 10SM SCT110 24/13 A3021 RMK AO2,M
HTH,2024-08-03 16:15,-118.6315,38.5448,1282.89,82.40,53.60,37.07,0.00,0.00,0.00,30.17,M,10.00,M,CLR,M,M,M,M,M,M,M,M,M,M,M,M,M,M,81.46,KHTH 031615Z AUTO 00000KT 10SM CLR 28/12 A3017 RMK A01,M
10U,2024-08-03 16:15,-116.1876,41.9532,1637.00,87.80,37.40,16.86,270.00,7.00,0.00,30.20,M,10.00,12.00,CLR,M,M,M,M,M,M,M,M,M,M,M,M,M,M,84.16,K10U 031615Z AUTO 27007G12KT 240V300 10SM CLR 31/03 A3020 RMK AO2,M
BAM,2024-08-03 16:15,-116.8743,40.5990,1382.36,87.80,46.40,23.85,160.00,4.00,0.00,30.15,M,10.00,M,CLR,M,M,M,M,M,M,M,M,M,M,M,M,M,M,84.68,KBAM 031615Z AUTO 16004KT 10SM CLR 31/08 A3015 RMK AO1,M
TMT,2024-08-03 16:15,-117.1971,39.4643,1749.34,82.00,49.00,31.68,220.00,14.00,0.00,30.27,M,10.00,M,CLR,M,M,M,M,M,M,M,M,M,M,M,M,M,M,80.62,KTMT 031615Z AUTO 22014KT 10SM CLR 28/10 A3027 RMK AO2 T02770095,M
BVU,2024-08-03 16:35,-114.8611,35.9475,671.00,96.80,53.60,23.55,0.00,0.00,0.00,30.00,M,10.00,M,CLR,M,M,M,M,M,M,M,M,M,M,M,M,M,M,94.59,KBVU 031635Z AUTO 00000KT 10SM CLR 36/12 A3000 RMK AO2,M
CXP,2024-08-03 16:35,-119.7326,39.1923,1431.00,80.60,51.80,36.79,0.00,0.00,0.00,30.22,M,10.00,M,FEW,FEW,M,M,10000.00,12000.00,M,M,M,M,M,M,M,M,M,80.08,KCXP 031635Z AUTO 00000KT 10SM FEW100 FEW120 27/11 A3022 RMK AO2,M
RTS,2024-08-03 16:35,-119.8764,39.6682,1539.00,77.00,44.60,31.62,280.00,11.00,0.00,30.25,M,10.00,M,FEW,FEW,SCT,M,5500.00,7000.00,11000.00,M,M,M,M,M,M,M,M,77.00,KRTS 031635Z AUTO 28011KT 10SM FEW055 FEW070 SCT110 25/07 A3025 RMK AO2,M
05U,2024-08-03 16:35,-116.0051,39.6042,1811.23,82.40,46.40,28.36,M,6.00,0.00,30.29,M,10.00,M,FEW,M,M,M,12000.00,M,M,M,M,M,M,M,M,M,M,80.64,K05U 031635Z AUTO VRB06KT 10SM FEW120 28/08 A3029 RMK A01,M
MEV,2024-08-03 16:35,-119.7500,38.9963,1441.42,77.00,53.60,44.25,0.00,0.00,0.00,30.20,M,10.00,M,SCT,SCT,M,M,10000.00,12000.00,M,M,M,M,M,M,M,M,M,77.00,KMEV 031635Z AUTO 00000KT 10SM SCT100 SCT120 25/12 A3020 RMK AO2,M
BAM,2024-08-03 16:35,-116.8743,40.5990,1382.36,89.60,46.40,22.53,280.00,5.00,0.00,30.15,M,10.00,M,CLR,M,M,M,M,M,M,M,M,M,M,M,M,M,M,86.24,KBAM 031635Z AUTO 28005KT 10SM CLR 32/08 A3015 RMK AO1,M
HTH,2024-08-03 16:35,-118.6315,38.5448,1282.89,82.40,51.80,34.69,0.00,0.00,0.00,30.16,M,10.00,M,CLR,M,M,M,M,M,M,M,M,M,M,M,M,M,M,81.20,KHTH 031635Z AUTO 00000KT 10SM CLR 28/11 A3016 RMK A01,M
10U,2024-08-03 16:35,-116.1876,41.9532,1637.00,89.60,37.40,15.92,M,6.00,0.00,30.20,M,10.00,12.00,CLR,M,M,M,M,M,M,M,M,M,M,M,M,M,M,85.67,K10U 031635Z AUTO VRB06G12KT 10SM CLR 32/03 A3020 RMK AO2,M
TMT,2024-08-03 16:35,-117.1971,39.4643,1749.34,82.60,47.70,29.59,230.00,9.00,0.00,30.26,M,10.00,15.00,CLR,M,M,M,M,M,M,M,M,M,M,M,M,M,M,80.88,KTMT 031635Z AUTO 23009G15KT 10SM CLR 28/09 A3026 RMK AO2 T02810087,M
P68,2024-08-03 16:53,-116.0056,39.6014,1993.00,84.00,47.00,27.55,280.00,5.00,0.00,30.25,1013.90,M,M,M,M,M,M,M,M,M,M,M,M,M,M,M,M,M,81.78,KP68 031653Z AUTO 28005KT 29/08 A3025 RMK AO1 SLP139 T02890083,M
ELY,2024-08-03 16:53,-114.8453,39.2950,1909.00,82.00,48.00,30.51,170.00,6.00,0.00,30.31,1014.20,10.00,M,CLR,M,M,M,M,M,M,M,M,M,M,M,M,M,M,80.53,KELY 031653Z AUTO 17006KT 10SM CLR 28/09 A3031 RMK AO2 SLP142 T02780089,M
VGT,2024-08-03 16:53,-115.1933,36.2111,667.00,98.00,55.00,23.89,90.00,5.00,0.00,30.00,1014.30,10.00,M,CLR,M,M,M,M,M,M,M,M,M,M,M,M,M,M,96.31,KVGT 031653Z 09005KT 10SM CLR 37/13 A3000 RMK AO2 SLP143 T03670128,M
LOL,2024-08-03 16:53,-118.5701,40.0684,1192.43,90.00,43.00,19.55,200.00,7.00,0.00,30.10,1013.60,7.00,M,CLR,M,M,M,M,M,M,M,M,M,M,M,M,M,M,86.29,KLOL 031653Z AUTO 20007KT 7SM CLR 32/06 A3010 RMK AO2 SLP136 T03220061,M
NFL,2024-08-03 16:54,-118.7010,39.4166,1199.00,90.00,49.00,24.53,250.00,11.00,0.00,30.12,1016.60,10.00,M,FEW,SCT,M,M,8000.00,12000.00,M,M,M,M,M,M,M,M,M,86.91,KNFL 031654Z 25011KT 10SM FEW080 SCT120 32/09 A3012 RMK AO2 SLP166 T03220094,M
BVU,2024-08-03 16:55,-114.8611,35.9475,671.00,98.60,53.60,22.29,40.00,5.00,0.00,29.99,M,10.00,M,CLR,M,M,M,M,M,M,M,M,M,M,M,M,M,M,96.51,KBVU 031655Z AUTO 04005KT 10SM CLR 37/12 A2999 RMK AO2,M
CXP,2024-08-03 16:55,-119.7326,39.1923,1431.00,80.60,51.80,36.79,360.00,4.00,0.00,30.21,M,10.00,M,FEW,M,M,M,12000.00,M,M,M,M,M,M,M,M,M,M,80.08,KCXP 031655Z AUTO 36004KT 10SM FEW120 27/11 A3021 RMK AO2,M
RNO,2024-08-03 16:55,-119.7711,39.4839,1341.00,81.00,51.00,35.25,M,3.00,T,30.19,1016.10,10.00,M,SCT,BKN,BKN,M,11000.00,15000.00,19000.00,M,M,M,M,M,M,M,M,80.22,KRNO 031655Z VRB03KT 10SM SCT110 BKN150 BKN190 27/11 A3019 RMK AO2 RAB12E21 SLP161 P0000 T02720106,M
RTS,2024-08-03 16:55,-119.8764,39.6682,1539.00,77.00,44.60,31.62,300.00,10.00,0.00,30.25,M,10.00,M,FEW,FEW,SCT,M,5500.00,6500.00,11000.00,M,M,M,M,M,M,M,M,77.00,KRTS 031655Z AUTO 30010KT 10SM FEW055 FEW065 SCT110 25/07 A3025 RMK AO2,M
05U,2024-08-03 16:55,-116.0051,39.6042,1811.23,84.20,46.40,26.76,0.00,0.00,0.00,30.28,M,10.00,M,CLR,M,M,M,M,M,M,M,M,M,M,M,M,M,M,81.87,K05U 031655Z AUTO 00000KT 10SM CLR 29/08 A3028 RMK A01,M
MEV,2024-08-03 16:55,-119.7500,38.9963,1441.42,78.80,53.60,41.69,210.00,6.00,0.00,30.20,M,10.00,M,BKN,BKN,M,M,10000.00,12000.00,M,M,M,M,M,M,M,M,M,78.80,KMEV 031655Z AUTO 21006KT 10SM BKN100 BKN120 26/12 A3020 RMK AO2,M
BAM,2024-08-03 16:55,-116.8743,40.5990,1382.36,89.60,46.40,22.53,220.00,6.00,0.00,30.15,M,10.00,M,CLR,M,M,M,M,M,M,M,M,M,M,M,M,M,M,86.24,KBAM 031655Z AUTO 22006KT 10SM CLR 32/08 A3015 RMK AO1,M
HTH,2024-08-03 16:55,-118.6315,38.5448,1282.89,84.20,53.60,34.97,0.00,0.00,0.00,30.16,M,10.00,M,CLR,M,M,M,M,M,M,M,M,M,M,M,M,M,M,82.76,KHTH 031655Z AUTO 00000KT 10SM CLR 29/12 A3016 RMK A01,M
10U,2024-08-03 16:55,-116.1876,41.9532,1637.00,87.80,35.60,15.70,220.00,9.00,0.00,30.19,M,10.00,M,CLR,M,M,M,M,M,M,M,M,M,M,M,M,M,M,84.12,K10U 031655Z AUTO 22009KT 190V250 10SM CLR 31/02 A3019 RMK AO2,M
TMT,2024-08-03 16:55,-117.1971,39.4643,1749.34,83.30,47.70,28.93,220.00,6.00,0.00,30.26,M,10.00,M,CLR,M,M,M,M,M,M,M,M,M,M,M,M,M,M,81.35,KTMT 031655Z AUTO 22006KT 10SM CLR 29/09 A3026 RMK AO2 T02850087,M
INS,2024-08-03 16:55,-115.6733,36.5872,955.00,94.50,49.60,21.80,10.00,3.00,0.00,30.07,1011.90,10.00,M,CLR,M,M,M,M,M,M,M,M,M,M,M,M,M,M,91.31,KINS 031655Z AUTO 01003KT 10SM CLR 35/10 A3007 RMK AO2 SLP119 T03470098 $,M
LSV,2024-08-03 16:55,-115.0343,36.2362,570.00,98.60,50.50,19.89,0.00,0.00,0.00,29.95,1010.90,10.00,M,CLR,M,M,M,M,M,M,M,M,M,M,M,M,M,M,95.67,KLSV 031655Z AUTO 00000KT 10SM CLR 37/10 A2995 RMK AO2 SLP109 T03700103 $,M
EKO,2024-08-03 16:56,-115.7860,40.8242,1367.00,86.00,48.00,26.82,230.00,5.00,0.00,30.19,1014.90,10.00,M,CLR,M,M,M,M,M,M,M,M,M,M,M,M,M,M,83.38,KEKO 031656Z AUTO 23005KT 10SM CLR 30/09 A3019 RMK AO2 SLP149 T03000089 $,M
WMC,2024-08-03 16:56,-117.8072,40.9019,1315.00,91.00,44.00,19.68,200.00,10.00,0.00,30.11,1012.90,10.00,15.00,CLR,M,M,M,M,M,M,M,M,M,M,M,M,M,M,87.26,KWMC 031656Z AUTO 20010G15KT 10SM CLR 33/07 A3011 RMK AO2 SLP129 T03280067,M
HND,2024-08-03 16:56,-115.1344,35.9729,742.79,97.00,57.00,26.49,M,3.00,0.00,30.05,1015.40,10.00,M,CLR,M,M,M,M,M,M,M,M,M,M,M,M,M,M,95.92,KHND 031656Z VRB03KT 10SM CLR 36/14 A3005 RMK AO2 SLP154 T03610139,M
TPH,2024-08-03 16:56,-117.0904,38.0505,1654.00,81.00,52.00,36.58,M,3.00,0.00,30.26,1015.80,10.00,M,CLR,M,M,M,M,M,M,M,M,M,M,M,M,M,M,80.34,KTPH 031656Z AUTO VRB03KT 10SM CLR 27/11 A3026 RMK AO2 SLP158 T02720111,M
LAS,2024-08-03 16:56,-115.1634,36.0719,663.00,100.00,54.00,21.68,0.00,0.00,0.00,30.02,1013.10,10.00,M,FEW,FEW,SCT,M,12000.00,15000.00,22000.00,M,M,M,M,M,M,M,M,98.14,KLAS 031656Z 00000KT 10SM FEW120 FEW150 SCT220 38/12 A3002 RMK AO2 SLP131 T03780122,M
BVU,2024-08-03 17:15,-114.8611,35.9475,671.00,98.60,53.60,22.29,M,3.00,0.00,29.99,M,10.00,M,CLR,M,M,M,M,M,M,M,M,M,M,M,M,M,M,96.51,KBVU 031715Z AUTO VRB03KT 10SM CLR 37/12 A2999 RMK AO2,M
CXP,2024-08-03 17:15,-119.7326,39.1923,1431.00,80.60,50.00,34.41,0.00,0.00,0.00,30.21,M,10.00,M,FEW,M,M,M,12000.00,M,M,M,M,M,M,M,M,M,M,79.88,KCXP 031715Z AUTO 00000KT 10SM FEW120 27/10 A3021 RMK AO2,M
RTS,2024-08-03 17:15,-119.8764,39.6682,1539.00,78.80,44.60,29.79,270.00,9.00,0.00,30.25,M,10.00,15.00,BKN,M,M,M,11000.00,M,M,M,M,M,M,M,M,M,M,78.80,KRTS 031715Z AUTO 27009G15KT 10SM BKN110 26/07 A3025 RMK AO2,M
05U,2024-08-03 17:15,-116.0051,39.6042,1811.23,82.40,46.40,28.36,0.00,0.00,0.00,30.28,M,10.00,M,CLR,M,M,M,M,M,M,M,M,M,M,M,M,M,M,80.64,K05U 031715Z AUTO 00000KT 10SM CLR 28/08 A3028 RMK A01,M
MEV,2024-08-03 17:15,-119.7500,38.9963,1441.42,77.00,55.40,47.25,230.00,8.00,0.00,30.20,M,9.00,M,BKN,M,M,M,10000.00,M,M,M,M,M,M,M,M,M,M,77.00,KMEV 031715Z AUTO 23008KT 9SM BKN100 25/13 A3020 RMK AO2,M
BAM,2024-08-03 17:15,-116.8743,40.5990,1382.36,89.60,44.60,21.04,240.00,5.00,0.00,30.14,M,10.00,M,CLR,M,M,M,M,M,M,M,M,M,M,M,M,M,M,86.07,KBAM 031715Z AUTO 24005KT 10SM CLR 32/07 A3014 RMK AO1,M
HTH,2024-08-03 17:15,-118.6315,38.5448,1282.89,86.00,51.80,30.90,40.00,7.00,0.00,30.15,M,10.00,M,CLR,M,M,M,M,M,M,M,M,M,M,M,M,M,M,83.87,KHTH 031715Z AUTO 04007KT 10SM CLR 30/11 A3015 RMK A01,M
10U,2024-08-03 17:15,-116.1876,41.9532,1637.00,87.80,35.60,15.70,230.00,8.00,0.00,30.19,M,10.00,M,CLR,M,M,M,M,M,M,M,M,M,M,M,M,M,M,84.12,K10U 031715Z AUTO 23008KT 10SM CLR 31/02 A3019 RMK AO2,M
TMT,2024-08-03 17:15,-117.1971,39.4643,1749.34,84.00,47.30,27.86,280.00,7.00,0.00,30.25,M,10.00,M,CLR,M,M,M,M,M,M,M,M,M,M,M,M,M,M,81.80,KTMT 031715Z AUTO 28007KT 10SM CLR 29/09 A3025 RMK AO2 T02890085,M
05U,2024-08-03 17:30,-116.0051,39.6042,1811.23,86.00,46.40,25.26,210.00,4.00,0.00,30.27,M,10.00,13.00,CLR,M,M,M,M,M,M,M,M,M,M,M,M,M,M,83.22,K05U 031730Z AUTO 21004G13KT 10SM CLR 30/08 A3027 RMK A01,M
BVU,2024-08-03 17:35,-114.8611,35.9475,671.00,100.40,53.60,21.11,70.00,6.00,0.00,29.99,M,10.00,M,FEW,M,M,M,10000.00,M,M,M,M,M,M,M,M,M,M,98.44,KBVU 031735Z AUTO 07006KT 10SM FEW100 38/12 A2999 RMK AO2,M
CXP,2024-08-03 17:35,-119.7326,39.1923,1431.00,82.40,50.00,32.46,220.00,4.00,0.00,30.20,M,10.00,M,SCT,M,M,M,10000.00,M,M,M,M,M,M,M,M,M,M,80.99,KCXP 031735Z AUTO 22004KT 10SM SCT100 28/10 A3020 RMK AO2,M
RTS,2024-08-03 17:35,-119.8764,39.6682,1539.00,78.80,42.80,27.81,270.00,11.00,0.00,30.24,M,10.00,M,BKN,M,M,M,10000.00,M,M,M,M,M,M,M,M,M,M,78.80,KRTS 031735Z AUTO 27011KT 10SM BKN100 26/06 A3024 RMK AO2,M
MEV,2024-08-03 17:35,-119.7500,38.9963,1441.42,78.80,53.60,41.69,230.00,6.00,0.00,30.20,M,10.00,M,SCT,M,M,M,11000.00,M,M,M,M,M,M,M,M,M,M,78.80,KMEV 031735Z AUTO 23006KT 10SM SCT110 26/12 A3020 RMK AO2,M
BAM,2024-08-03 17:35,-116.8743,40.5990,1382.36,91.40,44.60,19.89,0.00,0.00,0.00,30.13,M,10.00,M,CLR,M,M,M,M,M,M,M,M,M,M,M,M,M,M,87.68,KBAM 031735Z AUTO 00000KT 10SM CLR 33/07 A3013 RMK AO1,M
HTH,2024-08-03 17:35,-118.6315,38.5448,1282.89,86.00,50.00,28.90,0.00,0.00,0.00,30.15,M,10.00,M,FEW,M,M,M,9000.00,M,M,M,M,M,M,M,M,M,M,83.62,KHTH 031735Z AUTO 00000KT 10SM FEW090 30/10 A3015 RMK A01,M
10U,2024-08-03 17:35,-116.1876,41.9532,1637.00,89.60,35.60,14.83,M,5.00,0.00,30.19,M,10.00,M,CLR,M,M,M,M,M,M,M,M,M,M,M,M,M,M,85.62,K10U 031735Z AUTO VRB05KT 10SM CLR 32/02 A3019 RMK AO2,M
TMT,2024-08-03 17:35,-117.1971,39.4643,1749.34,85.00,47.30,26.98,260.00,7.00,0.00,30.25,M,10.00,M,CLR,M,M,M,M,M,M,M,M,M,M,M,M,M,M,82.54,KTMT 031735Z AUTO 26007KT 10SM CLR 30/09 A3025 RMK AO2 T02950085,M
P68,2024-08-03 17:53,-116.0056,39.6014,1993.00,86.00,46.00,24.88,M,5.00,0.00,30.24,1013.50,M,M,M,M,M,M,M,M,M,M,M,M,M,M,M,M,M,83.19,KP68 031753Z AUTO VRB05KT 30/08 A3024 RMK AO1 SLP135 T03000078 10306 20211 58007,M
ELY,2024-08-03 17:53,-114.8453,39.2950,1909.00,82.00,48.00,30.51,0.00,0.00,0.00,30.30,1013.80,10.00,M,FEW,M,M,M,12000.00,M,M,M,M,M,M,M,M,M,M,80.53,KELY 031753Z AUTO 00000KT 10SM FEW120 28/09 A3030 RMK AO2 SLP138 T02780089 10294 20172 58008,M
VGT,2024-08-03 17:53,-115.1933,36.2111,667.00,101.00,55.00,21.82,M,5.00,0.00,29.99,1013.70,10.00,M,CLR,M,M,M,M,M,M,M,M,M,M,M,M,M,M,99.57,KVGT 031753Z VRB05KT 10SM CLR 38/13 A2999 RMK AO2 SLP137 T03830128 10383 20306 58008,M
LOL,2024-08-03 17:53,-118.5701,40.0684,1192.43,90.00,43.00,19.55,180.00,10.00,0.00,30.08,1013.30,6.00,M,CLR,M,M,M,M,M,M,M,HZ,M,M,M,M,M,M,86.29,KLOL 031753Z AUTO 18010KT 6SM HZ CLR 32/06 A3008 RMK AO2 SLP133 60000 T03220061 10328 20222 58007,M
NFL,2024-08-03 17:54,-118.7010,39.4166,1199.00,90.00,48.00,23.63,250.00,7.00,0.00,30.11,1016.20,10.00,M,SCT,BKN,M,M,8000.00,12000.00,M,M,M,M,M,M,M,M,M,86.78,KNFL 031754Z 25007KT 10SM SCT080 BKN120 32/09 A3011 RMK AO2 SLP162 T03220089 10328 20261 58007,M
BVU,2024-08-03 17:55,-114.8611,35.9475,671.00,100.40,53.60,21.11,M,4.00,0.00,29.98,M,10.00,M,FEW,M,M,M,10000.00,M,M,M,M,M,M,M,M,M,M,98.44,KBVU 031755Z AUTO VRB04KT 10SM FEW100 38/12 A2998 RMK AO2,M
CXP,2024-08-03 17:55,-119.7326,39.1923,1431.00,82.40,51.80,34.69,220.00,4.00,0.00,30.20,M,10.00,M,BKN,BKN,M,M,10000.00,12000.00,M,M,M,M,M,M,M,M,M,81.20,KCXP 031755Z AUTO 22004KT 10SM BKN100 BKN120 28/11 A3020 RMK AO2,M
RNO,2024-08-03 17:55,-119.7711,39.4839,1341.00,88.00,48.00,25.17,340.00,6.00,0.00,30.17,1014.80,10.00,M,FEW,SCT,SCT,M,10000.00,15000.00,19000.00,M,M,M,M,M,M,M,M,85.02,KRNO 031755Z 34006KT 10SM FEW100 SCT150 SCT190 31/09 A3017 RMK AO2 SLP148 TCU DSNT SE THRU SW 60000 T03110089 10311 20239 58006,M
RTS,2024-08-03 17:55,-119.8764,39.6682,1539.00,80.60,41.00,24.46,290.00,12.00,0.00,30.24,M,10.00,17.00,FEW,M,M,M,11000.00,M,M,M,M,M,M,M,M,M,M,79.20,KRTS 031755Z AUTO 29012G17KT 10SM FEW110 27/05 A3024 RMK AO2,M
05U,2024-08-03 17:55,-116.0051,39.6042,1811.23,86.00,44.60,23.59,M,5.00,0.00,30.27,M,10.00,14.00,CLR,M,M,M,M,M,M,M,M,M,M,M,M,M,M,83.07,K05U 031755Z AUTO VRB05G14KT 10SM CLR 30/07 A3027 RMK A01,M
MEV,2024-08-03 17:55,-119.7500,38.9963,1441.42,80.60,51.80,36.79,250.00,3.00,0.00,30.19,M,9.00,M,SCT,M,M,M,10000.00,M,M,M,M,M,M,M,M,M,M,80.08,KMEV 031755Z AUTO 25003KT 9SM SCT100 27/11 A3019 RMK AO2,M
BAM,2024-08-03 17:55,-116.8743,40.5990,1382.36,91.40,44.60,19.89,0.00,0.00,0.00,30.13,M,10.00,M,CLR,M,M,M,M,M,M,M,M,M,M,M,M,M,M,87.68,KBAM 031755Z AUTO 00000KT 10SM CLR 33/07 A3013 RMK AO1,M
HTH,2024-08-03 17:55,-118.6315,38.5448,1282.89,87.80,50.00,27.29,280.00,7.00,0.00,30.14,M,10.00,M,BKN,M,M,M,9000.00,M,M,M,M,M,M,M,M,M,M,85.11,KHTH 031755Z AUTO 28007KT 10SM BKN090 31/10 A3014 RMK A01,M
10U,2024-08-03 17:55,-116.1876,41.9532,1637.00,89.60,35.60,14.83,240.00,6.00,0.00,30.18,M,10.00,M,CLR,M,M,M,M,M,M,M,M,M,M,M,M,M,M,85.62,K10U 031755Z AUTO 24006KT 10SM CLR 32/02 A3018 RMK AO2,M
TMT,2024-08-03 17:55,-117.1971,39.4643,1749.34,85.50,48.00,27.26,230.00,13.00,0.00,30.25,M,10.00,17.00,CLR,M,M,M,M,M,M,M,M,M,M,M,M,M,M,82.99,KTMT 031755Z AUTO 23013G17KT 10SM CLR 30/09 A3025 RMK AO2 T02970088 10300 20197,M
INS,2024-08-03 17:55,-115.6733,36.5872,955.00,96.00,48.40,19.91,0.00,0.00,0.00,30.06,1011.70,10.00,M,SCT,M,M,M,10000.00,M,M,M,M,M,M,M,M,M,M,92.59,KINS 031755Z AUTO 00000KT 10SM SCT100 36/09 A3006 RMK AO2 SLP117 T03550091 10358 20253 57010 $,M
LSV,2024-08-03 17:55,-115.0343,36.2362,570.00,100.80,51.00,18.95,10.00,3.00,0.00,29.94,1010.60,10.00,M,FEW,M,M,M,20000.00,M,M,M,M,M,M,M,M,M,M,98.09,KLSV 031755Z AUTO 01003KT 10SM FEW200 38/11 A2994 RMK AO2 SLP106 T03820105 10384 20294 57008 $,M
EKO,2024-08-03 17:56,-115.7860,40.8242,1367.00,88.00,48.00,25.17,240.00,5.00,0.00,30.17,1014.60,10.00,M,CLR,M,M,M,M,M,M,M,M,M,M,M,M,M,M,85.02,KEKO 031756Z AUTO 24005KT 10SM CLR 31/09 A3017 RMK AO2 SLP146 T03110089 10322 20222 58008 $,M
WMC,2024-08-03 17:56,-117.8072,40.9019,1315.00,94.00,45.00,18.62,260.00,10.00,0.00,30.10,1012.30,10.00,18.00,CLR,M,M,M,M,M,M,M,M,M,M,M,M,M,M,90.15,KWMC 031756Z AUTO 26010G18KT 10SM CLR 34/07 A3010 RMK AO2 SLP123 T03440072 10350 20250 58004,M
HND,2024-08-03 17:56,-115.1344,35.9729,742.79,100.00,57.00,24.18,0.00,0.00,0.00,30.03,1014.80,10.00,M,CLR,M,M,M,M,M,M,M,M,M,M,M,M,M,M,99.24,KHND 031756Z 00000KT 10SM CLR 38/14 A3003 RMK AO2 SLP148 T03780139 10383 20294 58010,M
TPH,2024-08-03 17:56,-117.0904,38.0505,1654.00,84.00,50.00,30.82,190.00,4.00,0.00,30.25,1015.10,10.00,M,CLR,M,M,M,M,M,M,M,M,M,M,M,M,M,M,82.09,KTPH 031756Z AUTO 19004KT 10SM CLR 29/10 A3025 RMK AO2 SLP151 T02890100 10294 20178 58009,M
LAS,2024-08-03 17:56,-115.1634,36.0719,663.00,101.00,54.00,21.04,M,5.00,0.00,30.00,1012.60,10.00,M,FEW,M,M,M,12000.00,M,M,M,M,M,M,M,M,M,M,99.22,KLAS 031756Z VRB05KT 10SM FEW120 38/12 A3000 RMK AO2 SLP126 T03830122 10389 20317 58007,M
05U,2024-08-03 18:10,-116.0051,39.6042,1811.23,86.00,46.40,25.26,0.00,0.00,0.00,30.27,M,10.00,M,CLR,M,M,M,M,M,M,M,M,M,M,M,M,M,M,83.22,K05U 031810Z AUTO 00000KT 10SM CLR 30/08 A3027 RMK A01,M
BVU,2024-08-03 18:15,-114.8611,35.9475,671.00,102.20,53.60,20.00,M,5.00,0.00,29.97,M,10.00,M,CLR,M,M,M,M,M,M,M,M,M,M,M,M,M,M,100.38,KBVU 031815Z AUTO VRB05KT 10SM CLR 39/12 A2997 RMK AO2,M
CXP,2024-08-03 18:15,-119.7326,39.1923,1431.00,82.40,50.00,32.46,M,4.00,0.00,30.20,M,10.00,M,FEW,FEW,M,M,10000.00,12000.00,M,M,M,M,M,M,M,M,M,80.99,KCXP 031815Z AUTO VRB04KT 10SM FEW100 FEW120 28/10 A3020 RMK AO2,M
RTS,2024-08-03 18:15,-119.8764,39.6682,1539.00,82.40,41.00,23.07,240.00,8.00,0.00,30.23,M,10.00,14.00,CLR,M,M,M,M,M,M,M,M,M,M,M,M,M,M,80.29,KRTS 031815Z AUTO 24008G14KT 10SM CLR 28/05 A3023 RMK AO2,M
MEV,2024-08-03 18:15,-119.7500,38.9963,1441.42,82.40,51.80,34.69,310.00,3.00,0.00,30.19,M,8.00,M,FEW,M,M,M,10000.00,M,M,M,M,M,M,M,M,M,M,81.20,KMEV 031815Z AUTO 31003KT 8SM FEW100 28/11 A3019 RMK AO2,M
BAM,2024-08-03 18:15,-116.8743,40.5990,1382.36,91.40,46.40,21.29,200.00,5.00,0.00,30.13,M,10.00,M,CLR,M,M,M,M,M,M,M,M,M,M,M,M,M,M,87.86,KBAM 031815Z AUTO 20005KT 10SM CLR 33/08 A3013 RMK AO1,M
HTH,2024-08-03 18:15,-118.6315,38.5448,1282.89,87.80,50.00,27.29,320.00,9.00,0.00,30.14,M,10.00,14.00,SCT,M,M,M,9000.00,M,M,M,M,M,M,M,M,M,M,85.11,KHTH 031815Z AUTO 32009G14KT 10SM SCT090 31/10 A3014 RMK A01,M
10U,2024-08-03 18:15,-116.1876,41.9532,1637.00,89.60,35.60,14.83,190.00,5.00,0.00,30.19,M,10.00,M,CLR,M,M,M,M,M,M,M,M,M,M,M,M,M,M,85.62,K10U 031815Z AUTO 19005KT 10SM CLR 32/02 A3019 RMK AO2,M
TMT,2024-08-03 18:15,-117.1971,39.4643,1749.34,83.70,47.50,28.34,250.00,9.00,0.00,30.24,M,10.00,M,BKN,M,M,M,11000.00,M,M,M,M,M,M,M,M,M,M,81.61,KTMT 031815Z AUTO 25009KT 10SM BKN110 29/09 A3024 RMK AO2 T02870086,M
05U,2024-08-03 18:30,-116.0051,39.6042,1811.23,87.80,46.40,23.85,0.00,0.00,0.00,30.26,M,10.00,14.00,CLR,M,M,M,M,M,M,M,M,M,M,M,M,M,M,84.68,K05U 031830Z AUTO 00000G14KT 10SM CLR 31/08 A3026 RMK A01,M
BVU,2024-08-03 18:35,-114.8611,35.9475,671.00,104.00,53.60,18.95,250.00,8.00,0.00,29.96,M,10.00,M,CLR,M,M,M,M,M,M,M,M,M,M,M,M,M,M,102.31,KBVU 031835Z AUTO 25008KT 10SM CLR 40/12 A2996 RMK AO2,M
CXP,2024-08-03 18:35,-119.7326,39.1923,1431.00,86.00,48.20,27.03,350.00,6.00,0.00,30.19,M,10.00,M,FEW,M,M,M,11000.00,M,M,M,M,M,M,M,M,M,M,83.40,KCXP 031835Z AUTO 35006KT 10SM FEW110 30/09 A3019 RMK AO2,M
RTS,2024-08-03 18:35,-119.8764,39.6682,1539.00,82.40,41.00,23.07,290.00,11.00,0.00,30.24,M,10.00,M,BKN,M,M,M,10000.00,M,M,M,M,M,M,M,M,M,M,80.29,KRTS 031835Z AUTO 29011KT 10SM BKN100 28/05 A3024 RMK AO2,M
MEV,2024-08-03 18:35,-119.7500,38.9963,1441.42,84.20,50.00,30.62,M,3.00,0.00,30.18,M,10.00,M,CLR,M,M,M,M,M,M,M,M,M,M,M,M,M,M,82.24,KMEV 031835Z AUTO VRB03KT 10SM CLR 29/10 A3018 RMK AO2,M
BAM,2024-08-03 18:35,-116.8743,40.5990,1382.36,91.40,46.40,21.29,230.00,13.00,0.00,30.13,M,10.00,17.00,CLR,M,M,M,M,M,M,M,M,M,M,M,M,M,M,87.86,KBAM 031835Z AUTO 23013G17KT 10SM CLR 33/08 A3013 RMK AO1,M
HTH,2024-08-03 18:35,-118.6315,38.5448,1282.89,82.40,59.00,45.07,310.00,9.00,0.00,30.13,M,7.00,M,CLR,M,M,M,M,M,M,M,M,M,M,M,M,M,M,82.46,KHTH 031835Z AUTO 31009KT 7SM CLR 28/15 A3013 RMK A01,M
10U,2024-08-03 18:35,-116.1876,41.9532,1637.00,87.80,37.40,16.86,M,4.00,0.00,30.18,M,10.00,M,CLR,M,M,M,M,M,M,M,M,M,M,M,M,M,M,84.16,K10U 031835Z AUTO VRB04KT 10SM CLR 31/03 A3018 RMK AO2,M
TMT,2024-08-03 18:35,-117.1971,39.4643,1749.34,84.20,48.00,28.42,260.00,11.00,0.00,30.24,M,10.00,14.00,SCT,M,M,M,11000.00,M,M,M,M,M,M,M,M,M,M,82.02,KTMT 031835Z AUTO 26011G14KT 10SM SCT110 29/09 A3024 RMK AO2 T02900088,M
05U,2024-08-03 18:50,-116.0051,39.6042,1811.23,89.60,44.60,21.04,150.00,12.00,0.00,30.25,M,10.00,M,FEW,M,M,M,9000.00,M,M,M,M,M,M,M,M,M,M,86.07,K05U 031850Z AUTO 15012KT 10SM FEW090 32/07 A3025 RMK A01,M
P68,2024-08-03 18:53,-116.0056,39.6014,1993.00,90.00,45.00,21.10,150.00,12.00,0.00,30.22,1012.60,M,21.00,M,M,M,M,M,M,M,M,M,M,M,M,M,M,M,86.45,KP68 031853Z AUTO 15012G21KT 32/07 A3022 RMK AO1 SLP126 T03220072,M
ELY,2024-08-03 18:53,-114.8453,39.2950,1909.00,86.00,48.00,26.82,M,6.00,0.00,30.28,1013.20,10.00,M,CLR,M,M,M,M,M,M,M,M,M,M,M,M,M,M,83.38,KELY 031853Z AUTO VRB06KT 10SM CLR 30/09 A3028 RMK AO2 SLP132 T03000089,M
VGT,2024-08-03 18:53,-115.1933,36.2111,667.00,101.00,55.00,21.82,130.00,7.00,0.00,29.97,1013.10,10.00,16.00,CLR,M,M,M,M,M,M,M,M,M,M,M,M,M,M,99.57,KVGT 031853Z 13007G16KT 10SM CLR 38/13 A2997 RMK AO2 SLP131 T03830128,M
LOL,2024-08-03 18:53,-118.5701,40.0684,1192.43,94.00,44.00,17.93,190.00,12.00,0.00,30.06,1012.60,7.00,M,CLR,M,M,M,M,M,M,M,M,M,M,M,M,M,M,90.04,KLOL 031853Z AUTO 19012KT 7SM CLR 34/07 A3006 RMK AO2 SLP126 T03440067,M
DRA,2024-08-03 18:53,-116.0278,36.6206,1009.00,100.00,53.00,20.90,200.00,13.00,0.00,30.06,1011.80,10.00,23.00,CLR,M,M,M,M,M,M,M,M,M,M,M,M,M,M,97.82,KDRA 031853Z AUTO 20013G23KT 10SM CLR 38/12 A3006 RMK AO2 SLP118 T03780117,M
NFL,2024-08-03 18:54,-118.7010,39.4166,1199.00,92.00,47.00,21.38,M,5.00,0.00,30.09,1015.70,10.00,M,SCT,BKN,BKN,M,8000.00,12000.00,25000.00,M,M,M,M,M,M,M,M,88.49,KNFL 031854Z VRB05KT 10SM SCT080 BKN120 BKN250 33/08 A3009 RMK SLP157 TCU DSNT S-SW T03330083,M
BVU,2024-08-03 18:55,-114.8611,35.9475,671.00,102.20,53.60,20.00,140.00,5.00,0.00,29.96,M,10.00,11.00,CLR,M,M,M,M,M,M,M,M,M,M,M,M,M,M,100.38,KBVU 031855Z AUTO 14005G11KT 10SM CLR 39/12 A2996 RMK AO2,M
CXP,2024-08-03 18:55,-119.7326,39.1923,1431.00,86.00,44.60,23.59,340.00,8.00,0.00,30.19,M,10.00,M,CLR,M,M,M,M,M,M,M,M,M,M,M,M,M,M,83.07,KCXP 031855Z AUTO 34008KT 10SM CLR 30/07 A3019 RMK AO2,M
RNO,2024-08-03 18:55,-119.7711,39.4839,1341.00,87.00,48.00,25.98,250.00,10.00,0.00,30.16,1014.60,10.00,M,SCT,BKN,BKN,M,10000.00,15000.00,19000.00,M,M,M,M,M,26.00,290.00,2024-08-03 18:24,84.18,KRNO 031855Z 25010KT 10SM SCT100CB BKN150 BKN190 31/09 A3016 RMK AO2 PK WND 29026/1824 SLP146 CB E MOV NW CB DSNT SE AND W SH DSNT W T03060089,M
RTS,2024-08-03 18:55,-119.8764,39.6682,1539.00,82.40,41.00,23.07,290.00,11.00,0.00,30.23,M,10.00,M,BKN,M,M,M,9500.00,M,M,M,M,M,M,M,M,M,M,80.29,KRTS 031855Z AUTO 29011KT 10SM BKN095 28/05 A3023 RMK AO2,M
MEV,2024-08-03 18:55,-119.7500,38.9963,1441.42,82.40,48.20,30.35,310.00,3.00,0.00,30.18,M,10.00,M,CLR,M,M,M,M,M,M,M,M,M,M,M,M,M,M,80.80,KMEV 031855Z AUTO 31003KT 10SM CLR 28/09 A3018 RMK AO2 LTG DSNT S,M
BAM,2024-08-03 18:55,-116.8743,40.5990,1382.36,91.40,46.40,21.29,230.00,11.00,0.00,30.13,M,10.00,M,CLR,M,M,M,M,M,M,M,M,M,M,M,M,M,M,87.86,KBAM 031855Z AUTO 23011KT 10SM CLR 33/08 A3013 RMK AO1,M
HTH,2024-08-03 18:55,-118.6315,38.5448,1282.89,77.00,64.40,65.12,M,5.00,0.06,30.12,M,4.00,13.00,FEW,FEW,SCT,M,2400.00,3400.00,10000.00,M,HZ,M,M,M,M,M,M,77.00,KHTH 031855Z AUTO VRB05G13KT 4SM HZ FEW024 FEW034 SCT100 25/18 A3012 RMK A01 P0006,M
10U,2024-08-03 18:55,-116.1876,41.9532,1637.00,87.80,37.40,16.86,290.00,7.00,0.00,30.16,M,10.00,M,CLR,M,M,M,M,M,M,M,M,M,M,M,M,M,M,84.16,K10U 031855Z AUTO 29007KT 10SM CLR 31/03 A3016 RMK AO2,M
TMT,2024-08-03 18:55,-117.1971,39.4643,1749.34,84.00,47.50,28.07,240.00,10.00,0.00,30.24,M,10.00,M,SCT,M,M,M,12000.00,M,M,M,M,M,M,M,M,M,M,81.82,KTMT 031855Z AUTO 24010KT 10SM SCT120 29/09 A3024 RMK AO2 T02880086,M
INS,2024-08-03 18:55,-115.6733,36.5872,955.00,97.50,48.20,18.87,110.00,4.00,0.00,30.04,1011.00,10.00,M,FEW,M,M,M,10000.00,M,M,M,M,M,M,M,M,M,M,94.06,KINS 031855Z AUTO 11004KT 10SM FEW100 36/09 A3004 RMK AO2 SLP110 T03640090 $,M
LSV,2024-08-03 18:55,-115.0343,36.2362,570.00,103.30,51.40,17.85,180.00,6.00,0.00,29.92,1009.90,10.00,M,CLR,M,M,M,M,M,M,M,M,M,M,M,M,M,M,100.83,KLSV 031855Z AUTO 18006KT 10SM CLR 40/11 A2992 RMK AO2 SLP099 T03960108 $,M
EKO,2024-08-03 18:56,-115.7860,40.8242,1367.00,91.00,47.00,22.05,M,3.00,0.00,30.16,1014.40,10.00,M,CLR,M,M,M,M,M,M,M,M,M,M,M,M,M,M,87.57,KEKO 031856Z AUTO VRB03KT 10SM CLR 33/08 A3016 RMK AO2 SLP144 T03280083 $,M
WMC,2024-08-03 18:56,-117.8072,40.9019,1315.00,95.00,44.00,17.38,280.00,8.00,0.00,30.08,1011.90,10.00,21.00,CLR,M,M,M,M,M,M,M,M,M,M,M,M,M,M,90.99,KWMC 031856Z AUTO 28008G21KT 250V340 10SM CLR 35/07 A3008 RMK AO2 SLP119 T03500067,M
HND,2024-08-03 18:56,-115.1344,35.9729,742.79,100.00,57.00,24.18,0.00,0.00,0.00,30.02,1014.40,10.00,M,CLR,M,M,M,M,M,M,M,M,M,M,M,M,M,M,99.24,KHND 031856Z 00000KT 10SM CLR 38/14 A3002 RMK AO2 SLP144 T03780139,M
TPH,2024-08-03 18:56,-117.0904,38.0505,1654.00,87.00,49.00,26.97,200.00,8.00,0.00,30.23,1014.50,10.00,16.00,CLR,M,M,M,M,M,M,M,M,M,M,M,M,M,M,84.30,KTPH 031856Z AUTO 20008G16KT 10SM CLR 31/09 A3023 RMK AO2 SLP145 T03060094,M
LAS,2024-08-03 18:56,-115.1634,36.0719,663.00,104.00,55.00,19.95,90.00,9.00,0.00,29.99,1011.90,10.00,18.00,FEW,FEW,M,M,12000.00,22000.00,M,M,M,M,M,M,M,M,M,102.85,KLAS 031856Z 09009G18KT 10SM FEW120 FEW220 40/13 A2999 RMK AO2 SLP119 CB DSNT NE-SE T04000128,M
05U,2024-08-03 19:10,-116.0051,39.6042,1811.23,87.80,42.80,20.79,210.00,5.00,0.00,30.24,M,10.00,15.00,BKN,BKN,M,M,9500.00,11000.00,M,M,M,M,M,M,M,M,M,84.40,K05U 031910Z AUTO 21005G15KT 10SM BKN095 BKN110 31/06 A3024 RMK A01,M
BVU,2024-08-03 19:15,-114.8611,35.9475,671.00,104.00,53.60,18.95,M,6.00,0.00,29.95,M,10.00,13.00,CLR,M,M,M,M,M,M,M,M,M,M,M,M,M,M,102.31,KBVU 031915Z AUTO VRB06G13KT 10SM CLR 40/12 A2995 RMK AO2,M
CXP,2024-08-03 19:15,-119.7326,39.1923,1431.00,86.00,46.40,25.26,360.00,7.00,0.00,30.18,M,10.00,13.00,CLR,M,M,M,M,M,M,M,M,M,M,M,M,M,M,83.22,KCXP 031915Z AUTO 36007G13KT 10SM CLR 30/08 A3018 RMK AO2 LTG DSNT SE,M
RTS,2024-08-03 19:15,-119.8764,39.6682,1539.00,82.40,41.00,23.07,330.00,10.00,0.00,30.22,M,10.00,18.00,BKN,M,M,M,10000.00,M,M,M,M,M,M,M,M,M,M,80.29,KRTS 031915Z AUTO 33010G18KT 10SM BKN100 28/05 A3022 RMK AO2,M
MEV,2024-08-03 19:15,-119.7500,38.9963,1441.42,82.40,48.20,30.35,290.00,3.00,0.00,30.17,M,10.00,M,CLR,M,M,M,M,M,M,M,M,M,M,M,M,M,M,80.80,KMEV 031915Z AUTO 29003KT 10SM CLR 28/09 A3017 RMK AO2 LTG DSNT SE,M
BAM,2024-08-03 19:15,-116.8743,40.5990,1382.36,93.20,46.40,20.13,250.00,8.00,0.00,30.13,M,10.00,M,CLR,M,M,M,M,M,M,M,M,M,M,M,M,M,M,89.55,KBAM 031915Z AUTO 25008KT 210V290 10SM CLR 34/08 A3013 RMK AO1,M
HTH,2024-08-03 19:15,-118.6315,38.5448,1282.89,80.60,60.80,50.95,290.00,8.00,0.00,30.11,M,10.00,M,CLR,M,M,M,M,M,M,M,M,M,M,M,M,M,M,81.46,KHTH 031915Z AUTO 29008KT 10SM CLR 27/16 A3011 RMK A01,M
TMT,2024-08-03 19:15,-117.1971,39.4643,1749.34,84.40,47.30,27.50,250.00,6.00,0.00,30.24,M,10.00,16.00,SCT,M,M,M,11000.00,M,M,M,M,M,M,M,M,M,M,82.09,KTMT 031915Z AUTO 25006G16KT 10SM SCT110 29/09 A3024 RMK AO2 T02910085,M
10U,2024-08-03 19:15,-116.1876,41.9532,1637.00,89.60,37.40,15.92,M,5.00,0.00,30.17,M,10.00,M,CLR,M,M,M,M,M,M,M,M,M,M,M,M,M,M,85.67,K10U 031915Z AUTO VRB05KT 10SM CLR 32/03 A3017 RMK AO2,M
P68,2024-08-03 19:19,-116.0056,39.6014,1993.00,88.00,44.00,21.63,230.00,11.00,0.00,30.22,M,M,19.00,M,M,M,M,M,M,M,M,M,M,M,M,M,M,M,84.65,KP68 031919Z AUTO 23011G19KT 31/07 A3022 RMK AO1 WSHFT 1902 T03110067,M
BVU,2024-08-03 19:35,-114.8611,35.9475,671.00,104.00,53.60,18.95,260.00,8.00,0.00,29.94,M,10.00,14.00,CLR,M,M,M,M,M,M,M,M,M,M,M,M,M,M,102.31,KBVU 031935Z AUTO 26008G14KT 10SM CLR 40/12 A2994 RMK AO2,M
CXP,2024-08-03 19:35,-119.7326,39.1923,1431.00,86.00,46.40,25.26,310.00,8.00,0.00,30.17,M,10.00,M,CLR,M,M,M,M,M,M,M,M,M,M,M,M,M,M,83.22,KCXP 031935Z AUTO 31008KT 10SM CLR 30/08 A3017 RMK AO2,M
RTS,2024-08-03 19:35,-119.8764,39.6682,1539.00,84.20,41.00,21.76,360.00,10.00,0.00,30.21,M,10.00,M,BKN,M,M,M,11000.00,M,M,M,M,M,M,M,M,M,M,81.52,KRTS 031935Z AUTO 36010KT 10SM BKN110 29/05 A3021 RMK AO2,M
05U,2024-08-03 19:35,-116.0051,39.6042,1811.23,87.80,42.80,20.79,210.00,9.00,0.00,30.24,M,10.00,M,BKN,BKN,M,M,10000.00,12000.00,M,M,M,M,M,M,M,M,M,84.40,K05U 031935Z AUTO 21009KT 10SM BKN100 BKN120 31/06 A3024 RMK A01,M
MEV,2024-08-03 19:35,-119.7500,38.9963,1441.42,82.40,48.20,30.35,0.00,0.00,0.00,30.17,M,10.00,M,CLR,M,M,M,M,M,M,M,VCTS,M,M,M,M,M,M,80.80,KMEV 031935Z AUTO 00000KT 10SM VCTS CLR 28/09 A3017 RMK AO2 LTG DSNT E,M
BAM,2024-08-03 19:35,-116.8743,40.5990,1382.36,93.20,46.40,20.13,250.00,7.00,0.00,30.12,M,10.00,14.00,CLR,M,M,M,M,M,M,M,M,M,M,M,M,M,M,89.55,KBAM 031935Z AUTO 25007G14KT 10SM CLR 34/08 A3012 RMK AO1,M
HTH,2024-08-03 19:35,-118.6315,38.5448,1282.89,82.40,57.20,42.25,290.00,6.00,0.00,30.11,M,10.00,M,FEW,FEW,M,M,10000.00,12000.00,M,M,M,M,M,M,M,M,M,82.08,KHTH 031935Z AUTO 29006KT 10SM FEW100 FEW120 28/14 A3011 RMK A01,M
10U,2024-08-03 19:35,-116.1876,41.9532,1637.00,89.60,37.40,15.92,0.00,0.00,0.00,30.17,M,10.00,11.00,CLR,M,M,M,M,M,M,M,M,M,M,M,M,M,M,85.67,K10U 031935Z AUTO 00000G11KT 10SM CLR 32/03 A3017 RMK AO2,M
TMT,2024-08-03 19:35,-117.1971,39.4643,1749.34,84.20,47.30,27.68,200.00,5.00,0.00,30.22,M,10.00,M,SCT,M,M,M,11000.00,M,M,M,M,M,M,M,M,M,M,81.95,KTMT 031935Z AUTO 20005KT 10SM SCT110 29/09 A3022 RMK AO2 T02900085,M
P68,2024-08-03 19:53,-116.0056,39.6014,1993.00,89.00,44.00,20.96,200.00,16.00,0.00,30.20,1012.00,M,20.00,M,M,M,M,M,M,M,M,M,M,M,M,M,M,M,85.50,KP68 031953Z AUTO 20016G20KT 32/07 A3020 RMK AO1 WSHFT 1902 SLP120 T03170067,M
DRA,2024-08-03 19:53,-116.0278,36.6206,1009.00,101.00,51.00,18.84,210.00,14.00,0.00,30.03,1010.90,10.00,30.00,CLR,M,M,M,M,M,M,M,M,M,M,M,30.00,220.00,2024-08-03 19:47,98.30,KDRA 031953Z AUTO 21014G30KT 10SM CLR 38/11 A3003 RMK AO2 PK WND 22030/1947 SLP109 T03830106,M
ELY,2024-08-03 19:53,-114.8453,39.2950,1909.00,88.00,47.00,24.24,0.00,0.00,0.00,30.26,1012.40,10.00,M,FEW,M,M,M,11000.00,M,M,M,M,M,M,M,M,M,M,84.91,KELY 031953Z AUTO 00000KT 10SM FEW110 31/08 A3026 RMK AO2 LTG DSNT NE SLP124 T03110083,M
VGT,2024-08-03 19:53,-115.1933,36.2111,667.00,105.00,56.00,20.08,160.00,10.00,0.00,29.94,1012.00,10.00,17.00,CLR,M,M,M,M,M,M,M,M,M,M,M,M,M,M,104.36,KVGT 031953Z 16010G17KT 140V220 10SM CLR 41/13 A2994 RMK AO2 SLP120 T04060133,M
LOL,2024-08-03 19:53,-118.5701,40.0684,1192.43,97.00,44.00,16.35,180.00,12.00,0.00,30.05,1011.60,10.00,20.00,CLR,M,M,M,M,M,M,M,M,M,M,M,M,M,M,92.91,KLOL 031953Z AUTO 18012G20KT 10SM CLR 36/07 A3005 RMK AO2 SLP116 T03610067,M
NFL,2024-08-03 19:54,-118.7010,39.4166,1199.00,94.00,47.00,20.09,0.00,0.00,0.00,30.06,1014.90,10.00,M,SCT,BKN,BKN,M,8000.00,12000.00,25000.00,M,M,M,M,M,M,M,M,90.40,KNFL 031954Z 00000KT 10SM SCT080 BKN120 BKN250 34/08 A3006 RMK AO2 SLP149 CB DSNT S-SW T03440083,M
BVU,2024-08-03 19:55,-114.8611,35.9475,671.00,104.00,53.60,18.95,190.00,10.00,0.00,29.93,M,10.00,M,SCT,M,M,M,10000.00,M,M,M,M,M,M,M,M,M,M,102.31,KBVU 031955Z AUTO 19010KT 160V230 10SM SCT100 40/12 A2993 RMK AO2,M
CXP,2024-08-03 19:55,-119.7326,39.1923,1431.00,84.20,46.40,26.76,0.00,0.00,0.00,30.18,M,10.00,M,SCT,M,M,M,8500.00,M,M,M,M,M,M,M,M,M,M,81.87,KCXP 031955Z AUTO 00000KT 10SM SCT085 29/08 A3018 RMK AO2,M
RNO,2024-08-03 19:55,-119.7711,39.4839,1341.00,90.00,44.00,20.31,320.00,7.00,T,30.14,1013.60,10.00,18.00,SCT,BKN,BKN,M,10000.00,15000.00,19000.00,M,M,M,M,M,M,M,M,86.37,KRNO 031955Z 32007G18KT 290V350 10SM SCT100 BKN150 BKN190 32/07 A3014 RMK AO2 LTG DSNT SE RAB04E11 SLP136 CB DSNT E THRU SE AND S THRU SW P0000 T03220067,M
RTS,2024-08-03 19:55,-119.8764,39.6682,1539.00,84.20,41.00,21.76,330.00,13.00,0.00,30.20,M,10.00,M,FEW,M,M,M,11000.00,M,M,M,M,M,M,M,M,M,M,81.52,KRTS 031955Z AUTO 33013KT 10SM FEW110 29/05 A3020 RMK AO2,M
05U,2024-08-03 19:55,-116.0051,39.6042,1811.23,89.60,42.80,19.64,210.00,13.00,0.00,30.23,M,10.00,M,FEW,M,M,M,11000.00,M,M,M,M,M,M,M,M,M,M,85.93,K05U 031955Z AUTO 21013KT 10SM FEW110 32/06 A3023 RMK A01,M
MEV,2024-08-03 19:55,-119.7500,38.9963,1441.42,84.20,50.00,30.62,140.00,5.00,0.00,30.17,M,10.00,M,FEW,M,M,M,9500.00,M,M,M,M,M,M,M,M,M,M,82.24,KMEV 031955Z AUTO 14005KT 10SM FEW095 29/10 A3017 RMK AO2,M
BAM,2024-08-03 19:55,-116.8743,40.5990,1382.36,96.80,46.40,18.02,240.00,10.00,0.00,30.11,M,10.00,14.00,CLR,M,M,M,M,M,M,M,M,M,M,M,M,M,M,93.05,KBAM 031955Z AUTO 24010G14KT 10SM CLR 36/08 A3011 RMK AO1,M
HTH,2024-08-03 19:55,-118.6315,38.5448,1282.89,80.60,51.80,36.79,M,9.00,0.03,30.12,M,3.00,29.00,FEW,SCT,BKN,M,3200.00,4000.00,6500.00,M,HZ,M,M,M,M,M,M,80.08,KHTH 031955Z AUTO VRB09G29KT 3SM HZ FEW032 SCT040 BKN065 27/11 A3012 RMK A01 P0003,M
10U,2024-08-03 19:55,-116.1876,41.9532,1637.00,89.60,37.40,15.92,0.00,0.00,0.00,30.17,M,10.00,12.00,CLR,M,M,M,M,M,M,M,M,M,M,M,M,M,M,85.67,K10U 031955Z AUTO 00000G12KT 10SM CLR 32/03 A3017 RMK AO2,M
TMT,2024-08-03 19:55,-117.1971,39.4643,1749.34,85.00,48.70,28.43,250.00,12.00,0.00,30.22,M,10.00,19.00,BKN,BKN,M,M,9000.00,11000.00,M,M,M,M,M,M,M,M,M,82.68,KTMT 031955Z AUTO 25012G19KT 10SM BKN090 BKN110 30/09 A3022 RMK AO2 T02950093,M
INS,2024-08-03 19:55,-115.6733,36.5872,955.00,99.50,48.40,17.89,80.00,4.00,0.00,30.01,1009.90,10.00,M,FEW,M,M,M,12000.00,M,M,M,M,M,M,M,M,M,M,96.13,KINS 031955Z AUTO 08004KT 10SM FEW120 38/09 A3001 RMK AO2 SLP099 T03750091 $,M
LSV,2024-08-03 19:55,-115.0343,36.2362,570.00,104.70,51.00,16.87,150.00,6.00,0.00,29.89,1008.90,10.00,M,CLR,M,M,M,M,M,M,M,M,M,M,M,M,M,M,102.16,KLSV 031955Z AUTO 15006KT 10SM CLR 40/11 A2989 RMK AO2 SLP089 T04040106 $,M
EKO,2024-08-03 19:56,-115.7860,40.8242,1367.00,90.00,46.00,21.91,190.00,9.00,0.00,30.15,1013.90,10.00,M,CLR,M,M,M,M,M,M,M,M,M,M,M,M,M,M,86.55,KEKO 031956Z AUTO 19009KT 10SM CLR 32/08 A3015 RMK AO2 SLP139 T03220078 $,M
WMC,2024-08-03 19:56,-117.8072,40.9019,1315.00,94.00,43.00,17.25,0.00,0.00,0.00,30.07,1011.60,10.00,M,CLR,M,M,M,M,M,M,M,M,M,M,M,M,M,M,89.94,KWMC 031956Z AUTO 00000KT 10SM CLR 34/06 A3007 RMK AO2 SLP116 T03440061,M
HND,2024-08-03 19:56,-115.1344,35.9729,742.79,102.00,58.00,23.60,M,5.00,0.00,29.99,1013.30,10.00,M,CLR,M,M,M,M,M,M,M,M,M,M,M,M,M,M,101.92,KHND 031956Z VRB05KT 10SM CLR 39/14 A2999 RMK AO2 SLP133 T03890144,M
TPH,2024-08-03 19:56,-117.0904,38.0505,1654.00,88.00,48.00,25.17,160.00,9.00,0.00,30.20,1013.70,10.00,24.00,SCT,M,M,M,9500.00,M,M,M,M,M,M,M,M,M,M,85.02,KTPH 031956Z AUTO 16009G24KT 10SM SCT095 31/09 A3020 RMK AO2 SLP137 T03110089,M
LAS,2024-08-03 19:56,-115.1634,36.0719,663.00,105.00,55.00,19.36,180.00,6.00,0.00,29.95,1010.80,10.00,M,FEW,FEW,M,M,12000.00,22000.00,M,M,M,M,M,M,M,M,M,103.94,KLAS 031956Z 18006KT 10SM FEW120 FEW220 41/13 A2995 RMK AO2 SLP108 CB DSNT NE-SE T04060128,M
BVU,2024-08-03 20:15,-114.8611,35.9475,671.00,104.00,53.60,18.95,0.00,0.00,0.00,29.92,M,10.00,M,FEW,M,M,M,11000.00,M,M,M,M,M,M,M,M,M,M,102.31,KBVU 032015Z AUTO 00000KT 10SM FEW110 40/12 A2992 RMK AO2,M
CXP,2024-08-03 20:15,-119.7326,39.1923,1431.00,78.80,51.80,39.02,320.00,15.00,0.00,30.19,M,9.00,M,FEW,OVC,M,M,6500.00,8000.00,M,M,-TSRA,M,M,M,M,M,M,78.80,KCXP 032015Z AUTO 32015KT 9SM -TSRA FEW065 OVC080 26/11 A3019 RMK AO2 LTG DSNT NE AND E AND W,M
RTS,2024-08-03 20:15,-119.8764,39.6682,1539.00,84.20,41.00,21.76,M,5.00,0.00,30.20,M,10.00,17.00,CLR,M,M,M,M,M,M,M,M,M,M,M,M,M,M,81.52,KRTS 032015Z AUTO VRB05G17KT 10SM CLR 29/05 A3020 RMK AO2,M
05U,2024-08-03 20:15,-116.0051,39.6042,1811.23,91.40,42.80,18.56,180.00,9.00,0.00,30.22,M,10.00,15.00,CLR,M,M,M,M,M,M,M,M,M,M,M,M,M,M,87.52,K05U 032015Z AUTO 18009G15KT 10SM CLR 33/06 A3022 RMK A01,M
MEV,2024-08-03 20:15,-119.7500,38.9963,1441.42,82.40,51.80,34.69,120.00,7.00,0.00,30.18,M,10.00,13.00,FEW,BKN,M,M,8000.00,9000.00,M,M,VCTS,M,M,M,M,M,M,81.20,KMEV 032015Z AUTO 12007G13KT 10SM VCTS FEW080 BKN090 28/11 A3018 RMK AO2 LTG DSNT NW,M
BAM,2024-08-03 20:15,-116.8743,40.5990,1382.36,96.80,46.40,18.02,260.00,12.00,0.00,30.10,M,10.00,15.00,SCT,M,M,M,11000.00,M,M,M,M,M,M,M,M,M,M,93.05,KBAM 032015Z AUTO 26012G15KT 10SM SCT110 36/08 A3010 RMK AO1,M
HTH,2024-08-03 20:15,-118.6315,38.5448,1282.89,84.20,55.40,37.35,20.00,6.00,0.00,30.12,M,10.00,M,FEW,FEW,SCT,M,3300.00,4400.00,6500.00,M,M,M,M,M,M,M,M,83.09,KHTH 032015Z AUTO 02006KT 10SM FEW033 FEW044 SCT065 29/13 A3012 RMK A01,M
10U,2024-08-03 20:15,-116.1876,41.9532,1637.00,91.40,35.60,14.02,200.00,9.00,0.00,30.16,M,10.00,M,CLR,M,M,M,M,M,M,M,M,M,M,M,M,M,M,87.17,K10U 032015Z AUTO 20009KT 10SM CLR 33/02 A3016 RMK AO2,M
TMT,2024-08-03 20:15,-117.1971,39.4643,1749.34,86.00,50.00,28.90,240.00,15.00,0.00,30.22,M,10.00,23.00,BKN,M,M,M,9000.00,M,M,M,M,M,M,M,M,M,M,83.62,KTMT 032015Z AUTO 24015G23KT 10SM BKN090 30/10 A3022 RMK AO2 T03010099,M
10U,2024-08-03 20:30,-116.1876,41.9532,1637.00,93.20,35.60,13.25,210.00,8.00,0.00,30.16,M,10.00,14.00,CLR,M,M,M,M,M,M,M,M,M,M,M,M,M,M,88.76,K10U 032030Z AUTO 21008G14KT 10SM CLR 34/02 A3016 RMK AO2,M
BVU,2024-08-03 20:35,-114.8611,35.9475,671.00,104.00,53.60,18.95,M,4.00,0.00,29.91,M,10.00,11.00,CLR,M,M,M,M,M,M,M,M,M,M,M,M,M,M,102.31,KBVU 032035Z AUTO VRB04G11KT 10SM CLR 40/12 A2991 RMK AO2,M
CXP,2024-08-03 20:35,-119.7326,39.1923,1431.00,73.40,59.00,60.67,10.00,9.00,0.00,30.21,M,8.00,17.00,SCT,BKN,OVC,M,5000.00,7000.00,8500.00,M,-RA,M,M,M,M,M,M,73.40,KCXP 032035Z AUTO 01009G17KT 8SM -RA SCT050 BKN070 OVC085 23/15 A3021 RMK AO2,M
RTS,2024-08-03 20:35,-119.8764,39.6682,1539.00,84.20,41.00,21.76,350.00,12.00,0.00,30.20,M,10.00,M,CLR,M,M,M,M,M,M,M,M,M,M,M,M,M,M,81.52,KRTS 032035Z AUTO 35012KT 10SM CLR 29/05 A3020 RMK AO2,M
05U,2024-08-03 20:35,-116.0051,39.6042,1811.23,87.80,44.60,22.27,250.00,17.00,0.00,30.22,M,10.00,M,BKN,M,M,M,10000.00,M,M,M,M,M,M,M,M,M,M,84.53,K05U 032035Z AUTO 25017KT 10SM BKN100 31/07 A3022 RMK A01,M
MEV,2024-08-03 20:35,-119.7500,38.9963,1441.42,82.40,53.60,37.07,300.00,8.00,0.00,30.18,M,9.00,M,FEW,SCT,SCT,M,5500.00,7500.00,9000.00,M,-RA,M,M,M,M,M,M,81.46,KMEV 032035Z AUTO 30008KT 9SM -RA FEW055 SCT075 SCT090 28/12 A3018 RMK AO2 LTG DSNT SE AND W,M
BAM,2024-08-03 20:35,-116.8743,40.5990,1382.36,95.00,46.40,19.04,230.00,10.00,0.00,30.09,M,10.00,M,SCT,M,M,M,11000.00,M,M,M,M,M,M,M,M,M,M,91.29,KBAM 032035Z AUTO 23010KT 10SM SCT110 35/08 A3009 RMK AO1,M
HTH,2024-08-03 20:35,-118.6315,38.5448,1282.89,84.20,57.20,39.86,360.00,13.00,0.00,30.10,M,10.00,M,FEW,M,M,M,10000.00,M,M,M,M,M,M,M,M,M,M,83.47,KHTH 032035Z AUTO 36013KT 10SM FEW100 29/14 A3010 RMK A01,M
TMT,2024-08-03 20:35,-117.1971,39.4643,1749.34,87.00,49.00,26.97,270.00,7.00,0.00,30.21,M,10.00,12.00,SCT,M,M,M,9000.00,M,M,M,M,M,M,M,M,M,M,84.30,KTMT 032035Z AUTO 27007G12KT 10SM SCT090 31/09 A3021 RMK AO2 T03060094,M
P68,2024-08-03 20:42,-116.0056,39.6014,1993.00,88.00,46.00,23.34,260.00,19.00,0.00,30.20,M,M,26.00,M,M,M,M,M,M,M,M,M,M,M,M,26.00,260.00,2024-08-03 20:41,84.81,KP68 032042Z AUTO 26019G26KT 31/08 A3020 RMK AO1 PK WND 26026/2041 WSHFT 2025 T03110078,M
05U,2024-08-03 20:50,-116.0051,39.6042,1811.23,87.80,46.40,23.85,280.00,14.00,0.00,30.22,M,10.00,22.00,BKN,M,M,M,10000.00,M,M,M,M,M,M,M,M,M,M,84.68,K05U 032050Z AUTO 28014G22KT 10SM BKN100 31/08 A3022 RMK A01,M
P68,2024-08-03 20:53,-116.0056,39.6014,1993.00,89.00,47.00,23.49,280.00,12.00,0.00,30.19,1011.80,M,31.00,M,M,M,M,M,M,M,M,M,M,M,M,31.00,260.00,2024-08-03 20:44,85.77,KP68 032053Z AUTO 28012G31KT 32/08 A3019 RMK AO1 PK WND 26031/2044 WSHFT 2025 SLP118 T03170083 56014,M
DRA,2024-08-03 20:53,-116.0278,36.6206,1009.00,102.00,49.00,16.97,220.00,13.00,0.00,30.01,1010.10,10.00,22.00,CLR,M,M,M,M,M,M,M,M,M,M,M,29.00,240.00,2024-08-03 20:34,98.82,KDRA 032053Z AUTO 22013G22KT 10SM CLR 39/09 A3001 RMK AO2 PK WND 24029/2034 SLP101 T03890094 58020,M
ELY,2024-08-03 20:53,-114.8453,39.2950,1909.00,87.00,45.00,23.20,230.00,9.00,0.00,30.23,1011.50,10.00,17.00,FEW,M,M,M,10000.00,M,M,M,M,M,M,M,M,M,M,83.90,KELY 032053Z AUTO 23009G17KT 10SM FEW100 31/07 A3023 RMK AO2 LTG DSNT NE SLP115 T03060072 58018,M
VGT,2024-08-03 20:53,-115.1933,36.2111,667.00,106.00,55.00,18.80,70.00,5.00,0.00,29.90,1010.90,10.00,16.00,CLR,M,M,M,M,M,M,M,M,M,M,M,M,M,M,105.02,KVGT 032053Z 07005G16KT 10SM CLR 41/13 A2990 RMK AO2 SLP109 T04110128 58027,M
LOL,2024-08-03 20:53,-118.5701,40.0684,1192.43,97.00,44.00,16.35,240.00,10.00,0.00,30.03,1011.40,10.00,16.00,CLR,M,M,M,M,M,M,M,M,M,M,M,M,M,M,92.91,KLOL 032053Z AUTO 24010G16KT 10SM CLR 36/07 A3003 RMK AO2 SLP114 T03610067 56015,M
NFL,2024-08-03 20:54,-118.7010,39.4166,1199.00,89.00,49.00,25.32,210.00,30.00,T,30.10,1015.90,6.00,42.00,SCT,BKN,OVC,M,8000.00,10000.00,15000.00,M,-TSRA SQ,M,M,M,42.00,210.00,2024-08-03 20:52,86.01,KNFL 032054Z COR 21030G42KT 6SM -TSRA SQ SCT080CB BKN100 OVC150 32/09 A3010 RMK AO2 PK WND 21042/2052 RAB51 TSB44 PRESRR SLP159 OCNL LTGICCG S-SW TS S MOV N P0000 60000 T03170094 55002,M
BVU,2024-08-03 20:55,-114.8611,35.9475,671.00,105.80,53.60,17.97,0.00,0.00,0.00,29.90,M,10.00,11.00,CLR,M,M,M,M,M,M,M,M,M,M,M,M,M,M,104.23,KBVU 032055Z AUTO 00000G11KT 10SM CLR 41/12 A2990 RMK AO2,M
CXP,2024-08-03 20:55,-119.7326,39.1923,1431.00,71.60,59.00,64.48,50.00,9.00,0.04,30.21,M,1.75,16.00,SCT,SCT,BKN,M,900.00,4100.00,7000.00,M,-RA HZ,M,M,M,M,M,M,71.60,KCXP 032055Z AUTO 05009G16KT 1 3/4SM -RA HZ SCT009 SCT041 BKN070 22/15 A3021 RMK AO2 P0004,M
RNO,2024-08-03 20:55,-119.7711,39.4839,1341.00,86.00,50.00,28.90,240.00,14.00,T,30.15,1014.70,10.00,20.00,SCT,BKN,BKN,M,10000.00,15000.00,19000.00,M,-RA,M,M,M,M,M,M,83.62,KRNO 032055Z 24014G20KT 10SM -RA SCT100CB BKN150 BKN190 30/10 A3015 RMK AO2 LTG DSNT SW RAB40 SLP147 CB E AND SW THRU W MOV NW CB DSNT NE AND S P0000 60000 T03000100 55004,M
RTS,2024-08-03 20:55,-119.8764,39.6682,1539.00,82.40,41.00,23.07,20.00,6.00,0.00,30.20,M,10.00,13.00,FEW,M,M,M,12000.00,M,M,M,M,M,M,M,M,M,M,80.29,KRTS 032055Z AUTO 02006G13KT 10SM FEW120 28/05 A3020 RMK AO2,M
MEV,2024-08-03 20:55,-119.7500,38.9963,1441.42,82.40,51.80,34.69,320.00,7.00,0.00,30.18,M,10.00,M,SCT,SCT,M,M,9000.00,12000.00,M,M,M,M,M,M,M,M,M,81.20,KMEV 032055Z AUTO 32007KT 10SM SCT090 SCT120 28/11 A3018 RMK AO2,M
BAM,2024-08-03 20:55,-116.8743,40.5990,1382.36,96.80,46.40,18.02,230.00,6.00,0.00,30.08,M,10.00,M,CLR,M,M,M,M,M,M,M,M,M,M,M,M,M,M,93.05,KBAM 032055Z AUTO 23006KT 10SM CLR 36/08 A3008 RMK AO1,M
HTH,2024-08-03 20:55,-118.6315,38.5448,1282.89,86.00,53.60,33.01,360.00,13.00,0.01,30.09,M,10.00,M,CLR,M,M,M,M,M,M,M,M,M,M,M,M,M,M,84.18,KHTH 032055Z AUTO 36013KT 10SM CLR 30/12 A3009 RMK A01 P0001,M
10U,2024-08-03 20:55,-116.1876,41.9532,1637.00,91.40,35.60,14.02,220.00,8.00,0.00,30.15,M,10.00,16.00,CLR,M,M,M,M,M,M,M,M,M,M,M,M,M,M,87.17,K10U 032055Z AUTO 22008G16KT 10SM CLR 33/02 A3015 RMK AO2,M
TMT,2024-08-03 20:55,-117.1971,39.4643,1749.34,87.40,47.70,25.37,290.00,7.00,0.00,30.20,M,10.00,M,CLR,M,M,M,M,M,M,M,M,M,M,M,M,M,M,84.48,KTMT 032055Z AUTO 29007KT 10SM CLR 31/09 A3020 RMK AO2 T03080087,M
INS,2024-08-03 20:55,-115.6733,36.5872,955.00,101.00,48.20,16.97,70.00,4.00,0.00,29.99,1009.30,10.00,M,FEW,M,M,M,12000.00,M,M,M,M,M,M,M,M,M,M,97.61,KINS 032055Z AUTO 07004KT 10SM FEW120 38/09 A2999 RMK AO2 SLP093 T03840090 57020 $,M
LSV,2024-08-03 20:55,-115.0343,36.2362,570.00,106.00,50.50,15.93,180.00,6.00,0.00,29.86,1007.80,10.00,M,CLR,M,M,M,M,M,M,M,M,M,M,M,M,M,M,103.34,KLSV 032055Z AUTO 18006KT 10SM CLR 41/10 A2986 RMK AO2 SLP078 T04120103 57026 $,M
EKO,2024-08-03 20:56,-115.7860,40.8242,1367.00,93.00,47.00,20.72,M,5.00,0.00,30.12,1012.50,10.00,M,CLR,M,M,M,M,M,M,M,M,M,M,M,M,M,M,89.44,KEKO 032056Z AUTO VRB05KT 10SM CLR 34/08 A3012 RMK AO2 SLP125 T03390083 58014 $,M
WMC,2024-08-03 20:56,-117.8072,40.9019,1315.00,96.00,43.00,16.22,M,3.00,0.00,30.05,1010.70,10.00,M,FEW,M,M,M,11000.00,M,M,M,M,M,M,M,M,M,M,91.83,KWMC 032056Z AUTO VRB03KT 10SM FEW110 36/06 A3005 RMK AO2 SLP107 T03560061 58015,M
HND,2024-08-03 20:56,-115.1344,35.9729,742.79,105.00,57.00,20.82,230.00,6.00,0.00,29.95,1012.10,10.00,M,FEW,M,M,M,11000.00,M,M,M,M,M,M,M,M,M,M,104.82,KHND 032056Z 23006KT 10SM FEW110 41/14 A2995 RMK AO2 SLP121 T04060139 58024,M
TPH,2024-08-03 20:56,-117.0904,38.0505,1654.00,92.00,46.00,20.58,210.00,15.00,0.00,30.18,1012.60,10.00,22.00,FEW,M,M,M,10000.00,M,M,M,M,M,M,M,M,M,M,88.38,KTPH 032056Z AUTO 21015G22KT 10SM FEW100 33/08 A3018 RMK AO2 SLP126 T03330078 58020,M
LAS,2024-08-03 20:56,-115.1634,36.0719,663.00,106.00,55.00,18.80,110.00,8.00,0.00,29.92,1009.70,10.00,15.00,FEW,M,M,M,12000.00,M,M,M,M,M,M,M,M,M,M,105.02,KLAS 032056Z 11008G15KT 10SM FEW120 41/13 A2992 RMK AO2 SLP097 CB DSNT NE-SE T04110128 58026,M
NFL,2024-08-03 21:11,-118.7010,39.4166,1199.00,76.00,60.00,57.64,250.00,21.00,T,30.09,M,4.00,34.00,SCT,BKN,OVC,M,8000.00,10000.00,15000.00,M,-TSRA BLDU,M,M,M,43.00,220.00,2024-08-03 20:57,76.00,KNFL 032111Z 25021G34KT 4SM -TSRA BLDU SCT080CB BKN100 OVC150 24/16 A3009 RMK AO2 PK WND 22043/2057 OCNL LTGIC OHD TS OHD MOV N P0000 T02440156,M
BVU,2024-08-03 21:15,-114.8611,35.9475,671.00,104.00,51.80,17.74,0.00,0.00,0.00,29.89,M,10.00,11.00,CLR,M,M,M,M,M,M,M,M,M,M,M,M,M,M,101.69,KBVU 032115Z AUTO 00000G11KT 10SM CLR 40/11 A2989 RMK AO2,M
CXP,2024-08-03 21:15,-119.7326,39.1923,1431.00,73.40,59.00,60.67,360.00,4.00,0.00,30.21,M,10.00,10.00,FEW,SCT,BKN,M,2400.00,6500.00,9500.00,M,-RA,M,M,M,M,M,M,73.40,KCXP 032115Z AUTO 36004G10KT 10SM -RA FEW024 SCT065 BKN095 23/15 A3021 RMK AO2 LTG DSNT W AND NW,M
RTS,2024-08-03 21:15,-119.8764,39.6682,1539.00,82.40,42.80,24.72,0.00,0.00,0.00,30.21,M,10.00,M,FEW,BKN,BKN,M,6500.00,8000.00,12000.00,M,M,M,M,M,M,M,M,80.39,KRTS 032115Z AUTO 00000KT 10SM FEW065 BKN080 BKN120 28/06 A3021 RMK AO2,M
05U,2024-08-03 21:15,-116.0051,39.6042,1811.23,89.60,44.60,21.04,270.00,8.00,0.00,30.20,M,10.00,M,CLR,M,M,M,M,M,M,M,M,M,M,M,M,M,M,86.07,K05U 032115Z AUTO 27008KT 10SM CLR 32/07 A3020 RMK A01,M
MEV,2024-08-03 21:15,-119.7500,38.9963,1441.42,80.60,50.00,34.41,350.00,16.00,0.00,30.17,M,10.00,M,BKN,M,M,M,8500.00,M,M,M,M,M,M,M,M,M,M,79.88,KMEV 032115Z AUTO 35016KT 10SM BKN085 27/10 A3017 RMK AO2,M
BAM,2024-08-03 21:15,-116.8743,40.5990,1382.36,95.00,46.40,19.04,270.00,5.00,0.00,30.07,M,10.00,M,CLR,M,M,M,M,M,M,M,M,M,M,M,M,M,M,91.29,KBAM 032115Z AUTO 27005KT 10SM CLR 35/08 A3007 RMK AO1,M
HTH,2024-08-03 21:15,-118.6315,38.5448,1282.89,87.80,50.00,27.29,340.00,9.00,0.00,30.09,M,10.00,M,CLR,M,M,M,M,M,M,M,M,M,M,M,M,M,M,85.11,KHTH 032115Z AUTO 34009KT 10SM CLR 31/10 A3009 RMK A01,M
10U,2024-08-03 21:15,-116.1876,41.9532,1637.00,91.40,37.40,15.05,220.00,12.00,0.00,30.14,M,10.00,M,CLR,M,M,M,M,M,M,M,M,M,M,M,M,M,M,87.23,K10U 032115Z AUTO 22012KT 10SM CLR 33/03 A3014 RMK AO2,M
TMT,2024-08-03 21:15,-117.1971,39.4643,1749.34,87.30,47.00,24.79,240.00,7.00,0.00,30.19,M,10.00,M,CLR,M,M,M,M,M,M,M,M,M,M,M,M,M,M,84.32,KTMT 032115Z AUTO 24007KT 210V270 10SM CLR 31/08 A3019 RMK AO2 T03070084,M
05U,2024-08-03 21:30,-116.0051,39.6042,1811.23,87.80,46.40,23.85,260.00,13.00,0.00,30.20,M,10.00,M,CLR,M,M,M,M,M,M,M,M,M,M,M,M,M,M,84.68,K05U 032130Z AUTO 26013KT 10SM CLR 31/08 A3020 RMK A01,M
BVU,2024-08-03 21:35,-114.8611,35.9475,671.00,107.60,51.80,15.95,160.00,6.00,0.00,29.88,M,10.00,13.00,CLR,M,M,M,M,M,M,M,M,M,M,M,M,M,M,105.43,KBVU 032135Z AUTO 16006G13KT 10SM CLR 42/11 A2988 RMK AO2,M
CXP,2024-08-03 21:35,-119.7326,39.1923,1431.00,73.40,62.60,68.94,260.00,3.00,0.00,30.20,M,9.00,M,FEW,SCT,BKN,M,3000.00,6500.00,10000.00,M,-RA,M,M,M,M,M,M,73.40,KCXP 032135Z AUTO 26003KT 9SM -RA FEW030 SCT065 BKN100 23/17 A3020 RMK AO2 LTG DSNT NW,M
RTS,2024-08-03 21:35,-119.8764,39.6682,1539.00,77.00,46.40,33.85,0.00,0.00,0.00,30.22,M,10.00,17.00,FEW,FEW,BKN,M,5500.00,6500.00,8000.00,M,M,M,M,M,M,M,M,77.00,KRTS 032135Z AUTO 00000G17KT 10SM FEW055 FEW065 BKN080 25/08 A3022 RMK AO2,M
MEV,2024-08-03 21:35,-119.7500,38.9963,1441.42,73.40,60.80,64.69,320.00,15.00,0.00,30.19,M,4.00,M,FEW,BKN,BKN,M,7000.00,8000.00,9000.00,M,-RA HZ,M,M,M,M,M,M,73.40,KMEV 032135Z AUTO 32015KT 4SM -RA HZ FEW070 BKN080 BKN090 23/16 A3019 RMK AO2 LTG DSNT SE AND W AND NW,M
BAM,2024-08-03 21:35,-116.8743,40.5990,1382.36,98.60,44.60,15.93,220.00,3.00,0.00,30.07,M,10.00,16.00,CLR,M,M,M,M,M,M,M,M,M,M,M,M,M,M,94.55,KBAM 032135Z AUTO 22003G16KT 10SM CLR 37/07 A3007 RMK AO1,M
HTH,2024-08-03 21:35,-118.6315,38.5448,1282.89,87.80,51.80,29.18,360.00,14.00,0.00,30.09,M,10.00,M,CLR,M,M,M,M,M,M,M,M,M,M,M,M,M,M,85.39,KHTH 032135Z AUTO 36014KT 10SM CLR 31/11 A3009 RMK A01,M
10U,2024-08-03 21:35,-116.1876,41.9532,1637.00,93.20,37.40,14.23,210.00,11.00,0.00,30.14,M,10.00,18.00,CLR,M,M,M,M,M,M,M,M,M,M,M,M,M,M,88.83,K10U 032135Z AUTO 21011G18KT 10SM CLR 34/03 A3014 RMK AO2,M
TMT,2024-08-03 21:35,-117.1971,39.4643,1749.34,85.30,45.30,24.77,260.00,9.00,0.00,30.19,M,10.00,18.00,CLR,M,M,M,M,M,M,M,M,M,M,M,M,M,M,82.59,KTMT 032135Z AUTO 26009G18KT 10SM CLR 30/07 A3019 RMK AO2 T02960074,M
05U,2024-08-03 21:50,-116.0051,39.6042,1811.23,91.40,44.60,19.89,M,6.00,0.00,30.19,M,10.00,14.00,CLR,M,M,M,M,M,M,M,M,M,M,M,M,M,M,87.68,K05U 032150Z AUTO VRB06G14KT 10SM CLR 33/07 A3019 RMK A01,M
P68,2024-08-03 21:53,-116.0056,39.6014,1993.00,92.00,45.00,19.82,250.00,9.00,0.00,30.15,1010.50,M,M,M,M,M,M,M,M,M,M,M,M,M,M,M,M,M,88.27,KP68 032153Z AUTO 25009KT 220V280 33/07 A3015 RMK AO1 SLP105 T03330072,M
DRA,2024-08-03 21:53,-116.0278,36.6206,1009.00,103.00,45.00,14.17,190.00,14.00,0.00,29.99,1009.40,10.00,27.00,CLR,M,M,M,M,M,M,M,M,M,M,M,27.00,180.00,2024-08-03 21:49,98.93,KDRA 032153Z AUTO 19014G27KT 10SM CLR 39/07 A2999 RMK AO2 PK WND 18027/2149 SLP094 T03940072,M
ELY,2024-08-03 21:53,-114.8453,39.2950,1909.00,91.00,43.00,18.94,240.00,10.00,0.00,30.22,1010.80,10.00,M,CLR,M,M,M,M,M,M,M,M,M,M,M,M,M,M,87.18,KELY 032153Z AUTO 24010KT 10SM CLR 33/06 A3022 RMK AO2 LTG DSNT NE SLP108 T03280061,M
VGT,2024-08-03 21:53,-115.1933,36.2111,667.00,108.00,52.00,15.88,190.00,11.00,0.00,29.87,1009.70,10.00,17.00,SCT,M,M,M,12000.00,M,M,M,M,M,M,M,M,M,M,105.91,KVGT 032153Z 19011G17KT 10SM SCT120 42/11 A2987 RMK AO2 SLP097 T04220111,M
LOL,2024-08-03 21:53,-118.5701,40.0684,1192.43,95.00,43.00,16.73,220.00,14.00,0.00,30.02,1011.30,10.00,M,CLR,M,M,M,M,M,M,M,M,M,M,M,M,M,M,90.88,KLOL 032153Z AUTO 22014KT 10SM CLR 35/06 A3002 RMK AO2 LTG DSNT SE SLP113 T03500061,M
NFL,2024-08-03 21:54,-118.7010,39.4166,1199.00,73.00,61.00,66.04,230.00,11.00,0.02,30.16,1017.60,4.00,21.00,SCT,BKN,BKN,M,8000.00,12000.00,25000.00,M,RA,M,M,M,43.00,220.00,2024-08-03 20:57,73.00,KNFL 032154Z 23011G21KT 4SM RA SCT080 BKN120 BKN250 23/16 A3016 RMK AO2 PK WND 22043/2057 TSE36 SLP176 OCNL LTGIC DSNT N-NE CB DSNT N P0002 T02280161,M
BVU,2024-08-03 21:55,-114.8611,35.9475,671.00,105.80,51.80,16.82,170.00,7.00,0.00,29.87,M,10.00,M,CLR,M,M,M,M,M,M,M,M,M,M,M,M,M,M,103.57,KBVU 032155Z AUTO 17007KT 10SM CLR 41/11 A2987 RMK AO2,M
CXP,2024-08-03 21:55,-119.7326,39.1923,1431.00,75.20,60.80,60.90,240.00,4.00,0.00,30.21,M,10.00,M,FEW,SCT,BKN,M,5500.00,7000.00,10000.00,M,-RA,M,M,M,M,M,M,75.20,KCXP 032155Z AUTO 24004KT 10SM -RA FEW055 SCT070 BKN100 24/16 A3021 RMK AO2,M
INS,2024-08-03 21:55,-115.6733,36.5872,955.00,102.00,45.50,14.88,220.00,7.00,0.00,29.96,1008.20,10.00,M,CLR,M,M,M,M,M,M,M,M,M,M,M,M,M,M,98.05,KINS 032155Z AUTO 22007KT 10SM CLR 39/08 A2996 RMK AO2 SLP082 T03890075 $,M
RNO,2024-08-03 21:55,-119.7711,39.4839,1341.00,78.00,60.00,53.94,220.00,8.00,0.02,30.17,1015.60,10.00,M,SCT,BKN,BKN,M,10000.00,15000.00,19000.00,M,M,M,M,M,26.00,280.00,2024-08-03 21:01,78.00,KRNO 032155Z 22008KT 10SM SCT100CB BKN150 BKN190 26/16 A3017 RMK AO2 PK WND 28026/2101 RAE38 SLP156 CB W MOV NW CB DSNT SE AND NW SH VC W P0002 T02560156,M
RTS,2024-08-03 21:55,-119.8764,39.6682,1539.00,77.00,46.40,33.85,220.00,8.00,0.00,30.22,M,10.00,M,BKN,M,M,M,9500.00,M,M,M,M,M,M,M,M,M,M,77.00,KRTS 032155Z AUTO 22008KT 10SM BKN095 25/08 A3022 RMK AO2,M
MEV,2024-08-03 21:55,-119.7500,38.9963,1441.42,71.60,62.60,73.27,10.00,11.00,0.01,30.18,M,10.00,M,SCT,BKN,M,M,7500.00,9000.00,M,M,M,M,M,M,M,M,M,71.60,KMEV 032155Z AUTO 01011KT 10SM SCT075 BKN090 22/17 A3018 RMK AO2 LTG DSNT W P0001,M
BAM,2024-08-03 21:55,-116.8743,40.5990,1382.36,96.80,46.40,18.02,0.00,0.00,0.00,30.05,M,10.00,M,SCT,M,M,M,12000.00,M,M,M,M,M,M,M,M,M,M,93.05,KBAM 032155Z AUTO 00000KT 10SM SCT120 36/08 A3005 RMK AO1,M
HTH,2024-08-03 21:55,-118.6315,38.5448,1282.89,89.60,51.80,27.56,340.00,14.00,0.00,30.09,M,10.00,M,CLR,M,M,M,M,M,M,M,M,M,M,M,M,M,M,87.00,KHTH 032155Z AUTO 34014KT 10SM CLR 32/11 A3009 RMK A01,M
10U,2024-08-03 21:55,-116.1876,41.9532,1637.00,93.20,37.40,14.23,220.00,9.00,0.00,30.13,M,10.00,17.00,CLR,M,M,M,M,M,M,M,M,M,M,M,M,M,M,88.83,K10U 032155Z AUTO 22009G17KT 10SM CLR 34/03 A3013 RMK AO2,M
TMT,2024-08-03 21:55,-117.1971,39.4643,1749.34,86.00,46.40,25.26,220.00,4.00,0.00,30.18,M,10.00,M,CLR,M,M,M,M,M,M,M,M,M,M,M,M,M,M,83.22,KTMT 032155Z AUTO 22004KT 10SM CLR 30/08 A3018 RMK AO2 T02990080,M
LSV,2024-08-03 21:55,-115.0343,36.2362,570.00,107.20,49.60,14.87,60.00,4.00,0.00,29.82,1006.50,10.00,M,FEW,M,M,M,13000.00,M,M,M,M,M,M,M,M,M,M,104.26,KLSV 032155Z AUTO 06004KT 10SM FEW130 42/10 A2982 RMK AO2 SLP065 T04180098 $,M
EKO,2024-08-03 21:56,-115.7860,40.8242,1367.00,92.00,47.00,21.38,220.00,4.00,0.00,30.10,1011.70,10.00,M,FEW,M,M,M,12000.00,M,M,M,M,M,M,M,M,M,M,88.49,KEKO 032156Z AUTO 22004KT 10SM FEW120 33/08 A3010 RMK AO2 SLP117 T03330083 $,M
WMC,2024-08-03 21:56,-117.8072,40.9019,1315.00,97.00,43.00,15.73,300.00,5.00,0.00,30.03,1010.30,10.00,M,FEW,M,M,M,11000.00,M,M,M,M,M,M,M,M,M,M,92.79,KWMC 032156Z AUTO 30005KT 10SM FEW110 36/06 A3003 RMK AO2 SLP103 T03610061,M
HND,2024-08-03 21:56,-115.1344,35.9729,742.79,107.00,55.00,18.25,260.00,8.00,0.00,29.92,1010.90,10.00,M,FEW,M,M,M,11000.00,M,M,M,M,M,M,M,M,M,M,106.09,KHND 032156Z 26008KT 10SM FEW110 42/13 A2992 RMK AO2 SLP109 T04170128,M
TPH,2024-08-03 21:56,-117.0904,38.0505,1654.00,90.00,46.00,21.91,150.00,10.00,0.00,30.15,1012.20,10.00,M,FEW,M,M,M,11000.00,M,M,M,M,M,M,M,M,M,M,86.55,KTPH 032156Z AUTO 15010KT 10SM FEW110 32/08 A3015 RMK AO2 SLP122 T03220078,M
LAS,2024-08-03 21:56,-115.1634,36.0719,663.00,107.00,52.00,16.35,170.00,7.00,0.00,29.89,1008.60,10.00,16.00,FEW,M,M,M,11000.00,M,M,M,M,M,M,M,M,M,M,104.89,KLAS 032156Z 17007G16KT 10SM FEW110 42/11 A2989 RMK AO2 SLP086 CB DSNT E-SE T04170111,M
05U,2024-08-03 22:10,-116.0051,39.6042,1811.23,89.60,44.60,21.04,0.00,0.00,0.00,30.18,M,10.00,12.00,CLR,M,M,M,M,M,M,M,M,M,M,M,M,M,M,86.07,K05U 032210Z AUTO 00000G12KT 10SM CLR 32/07 A3018 RMK A01,M
BVU,2024-08-03 22:15,-114.8611,35.9475,671.00,105.80,51.80,16.82,140.00,11.00,0.00,29.86,M,10.00,M,CLR,M,M,M,M,M,M,M,M,M,M,M,M,M,M,103.57,KBVU 032215Z AUTO 14011KT 10SM CLR 41/11 A2986 RMK AO2 LTG DSNT S,M
CXP,2024-08-03 22:15,-119.7326,39.1923,1431.00,75.20,62.60,64.91,0.00,0.00,0.00,30.20,M,8.00,M,FEW,SCT,BKN,M,2600.00,7000.00,11000.00,M,-RA,M,M,M,M,M,M,75.20,KCXP 032215Z AUTO 00000KT 8SM -RA FEW026 SCT070 BKN110 24/17 A3020 RMK AO2 LTG DSNT N AND NW,M
RTS,2024-08-03 22:15,-119.8764,39.6682,1539.00,71.60,53.60,53.03,240.00,18.00,0.00,30.24,M,9.00,26.00,FEW,BKN,M,M,6500.00,9000.00,M,M,-DZ,M,M,M,M,M,M,71.60,KRTS 032215Z AUTO 24018G26KT 9SM -DZ FEW065 BKN090 22/12 A3024 RMK AO2,M
MEV,2024-08-03 22:15,-119.7500,38.9963,1441.42,71.60,60.80,68.75,330.00,11.00,0.00,30.18,M,10.00,M,SCT,BKN,M,M,8000.00,10000.00,M,M,M,M,M,M,M,M,M,71.60,KMEV 032215Z AUTO 33011KT 10SM SCT080 BKN100 22/16 A3018 RMK AO2 LTG DSNT N AND NW,M
BAM,2024-08-03 22:15,-116.8743,40.5990,1382.36,95.00,44.60,17.78,0.00,0.00,0.00,30.05,M,10.00,M,BKN,M,M,M,11000.00,M,M,M,M,M,M,M,M,M,M,91.06,KBAM 032215Z AUTO 00000KT 10SM BKN110 35/07 A3005 RMK AO1,M
HTH,2024-08-03 22:15,-118.6315,38.5448,1282.89,87.80,50.00,27.29,350.00,18.00,0.00,30.10,M,10.00,23.00,SCT,M,M,M,11000.00,M,M,M,M,M,M,M,M,M,M,85.11,KHTH 032215Z AUTO 35018G23KT 10SM SCT110 31/10 A3010 RMK A01,M
10U,2024-08-03 22:15,-116.1876,41.9532,1637.00,91.40,37.40,15.05,220.00,9.00,0.00,30.13,M,10.00,19.00,CLR,M,M,M,M,M,M,M,M,M,M,M,M,M,M,87.23,K10U 032215Z AUTO 22009G19KT 10SM CLR 33/03 A3013 RMK AO2,M
TMT,2024-08-03 22:15,-117.1971,39.4643,1749.34,86.00,46.80,25.64,220.00,10.00,0.00,30.17,M,10.00,14.00,CLR,M,M,M,M,M,M,M,M,M,M,M,M,M,M,83.26,KTMT 032215Z AUTO 22010G14KT 10SM CLR 30/08 A3017 RMK AO2 T02990082,M
RNO,2024-08-03 22:18,-119.7711,39.4839,1341.00,76.00,57.00,51.76,280.00,15.00,0.00,30.18,M,10.00,25.00,SCT,BKN,M,M,10000.00,15000.00,M,M,M,M,M,M,M,M,M,76.00,KRNO 032218Z COR 28015G25KT 10SM SCT100CB BKN150 24/14 A3018 RMK AO2 WSHFT 2158 CB NW MOV N T02440139,M
05U,2024-08-03 22:30,-116.0051,39.6042,1811.23,87.80,46.40,23.85,260.00,15.00,0.00,30.17,M,10.00,20.00,CLR,M,M,M,M,M,M,M,M,M,M,M,M,M,M,84.68,K05U 032230Z AUTO 26015G20KT 10SM CLR 31/08 A3017 RMK A01,M
BVU,2024-08-03 22:35,-114.8611,35.9475,671.00,104.00,55.40,20.24,130.00,24.00,0.00,29.86,M,10.00,M,FEW,M,M,M,11000.00,M,M,M,VCTS,M,M,M,M,M,M,103.01,KBVU 032235Z AUTO 13024KT 10SM VCTS FEW110 40/13 A2986 RMK AO2 LTG DSNT ALQDS,M
CXP,2024-08-03 22:35,-119.7326,39.1923,1431.00,73.40,64.40,73.44,150.00,3.00,0.00,30.20,M,7.00,M,FEW,SCT,BKN,M,2900.00,4200.00,11000.00,M,VCTS RA,M,M,M,M,M,M,73.40,KCXP 032235Z AUTO 15003KT 7SM VCTS RA FEW029 SCT042 BKN110 23/18 A3020 RMK AO2 LTG DSNT S AND W,M
RTS,2024-08-03 22:35,-119.8764,39.6682,1539.00,68.00,55.40,64.04,250.00,13.00,0.00,30.24,M,9.00,20.00,FEW,SCT,BKN,M,5500.00,6500.00,7500.00,M,-DZ,M,M,M,M,M,M,68.00,KRTS 032235Z AUTO 25013G20KT 9SM -DZ FEW055 SCT065 BKN075 20/13 A3024 RMK AO2,M
MEV,2024-08-03 22:35,-119.7500,38.9963,1441.42,69.80,59.00,68.55,30.00,10.00,0.00,30.17,M,4.00,16.00,FEW,FEW,BKN,M,2500.00,4800.00,8000.00,M,-RA HZ,M,M,M,M,M,M,69.80,KMEV 032235Z AUTO 03010G16KT 4SM -RA HZ FEW025 FEW048 BKN080 21/15 A3017 RMK AO2 LTG DSNT N AND NW,M
BAM,2024-08-03 22:35,-116.8743,40.5990,1382.36,96.80,46.40,18.02,240.00,13.00,0.00,30.04,M,10.00,16.00,BKN,M,M,M,11000.00,M,M,M,M,M,M,M,M,M,M,93.05,KBAM 032235Z AUTO 24013G16KT 10SM BKN110 36/08 A3004 RMK AO1,M
HTH,2024-08-03 22:35,-118.6315,38.5448,1282.89,84.20,51.80,32.73,340.00,14.00,0.00,30.10,M,10.00,25.00,SCT,M,M,M,11000.00,M,M,M,M,M,M,M,M,M,M,82.48,KHTH 032235Z AUTO 34014G25KT 10SM SCT110 29/11 A3010 RMK A01,M
10U,2024-08-03 22:35,-116.1876,41.9532,1637.00,91.40,37.40,15.05,210.00,11.00,0.00,30.12,M,10.00,M,CLR,M,M,M,M,M,M,M,M,M,M,M,M,M,M,87.23,K10U 032235Z AUTO 21011KT 10SM CLR 33/03 A3012 RMK AO2,M
TMT,2024-08-03 22:35,-117.1971,39.4643,1749.34,84.70,46.00,25.93,0.00,0.00,0.00,30.15,M,10.00,M,CLR,M,M,M,M,M,M,M,M,M,M,M,M,M,M,82.20,KTMT 032235Z AUTO 00000KT 10SM CLR 29/08 A3015 RMK AO2 T02930078,M
LOL,2024-08-03 22:43,-118.5701,40.0684,1192.43,87.00,47.00,25.02,210.00,35.00,0.00,30.06,M,2.00,46.00,FEW,FEW,SCT,M,600.00,9000.00,11000.00,M,HZ,M,M,M,46.00,210.00,2024-08-03 22:42,84.08,KLOL 032243Z AUTO 21035G46KT 2SM HZ FEW006 FEW090 SCT110 31/08 A3006 RMK AO2 PK WND 21046/2242 VIS 1/2V5 T03060083,M
LOL,2024-08-03 22:45,-118.5701,40.0684,1192.43,86.00,48.00,26.82,200.00,40.00,T,30.06,M,0.50,50.00,FEW,BKN,M,M,600.00,10000.00,M,M,-RA,M,M,M,50.00,210.00,2024-08-03 22:44,83.38,KLOL 032245Z AUTO 20040G50KT 1/2SM -RA FEW006 BKN100 30/09 A3006 RMK AO2 PK WND 21050/2244 VIS M1/4V5 RAB45 PRESRR P0000 T03000089,M
MEV,2024-08-03 22:45,-119.7500,38.9963,1441.42,69.80,60.80,73.09,30.00,11.00,0.00,30.17,M,10.00,M,FEW,FEW,BKN,M,2500.00,4800.00,8000.00,M,M,M,M,M,M,M,M,69.80,KMEV 032245Z AUTO 03011KT 10SM FEW025 FEW048 BKN080 21/16 A3017 RMK AO2,M
RTS,2024-08-03 22:45,-119.8764,39.6682,1539.00,66.20,59.00,77.60,290.00,10.00,0.00,30.23,M,5.00,17.00,FEW,FEW,SCT,M,5500.00,6500.00,7500.00,M,-RA,M,M,M,M,M,M,66.20,KRTS 032245Z AUTO 29010G17KT 5SM -RA FEW055 FEW065 SCT075 19/15 A3023 RMK AO2,M
HND,2024-08-03 22:49,-115.1344,35.9729,742.79,107.60,53.60,17.04,200.00,17.00,0.00,29.89,M,10.00,20.00,BKN,M,M,M,12000.00,M,M,M,VCTS,M,M,M,M,M,M,106.13,KHND 032249Z 20017G20KT 10SM VCTS BKN120 42/12 A2989 RMK AO2 LTG DSNT E TSB43,M
CXP,2024-08-03 22:50,-119.7326,39.1923,1431.00,73.40,62.60,68.94,0.00,0.00,0.00,30.20,M,10.00,M,FEW,SCT,BKN,M,4200.00,8500.00,11000.00,M,VCTS,M,M,M,M,M,M,73.40,KCXP 032250Z AUTO 00000KT 10SM VCTS FEW042 SCT085 BKN110 23/17 A3020 RMK AO2 LTG DSNT SE-W,M
DRA,2024-08-03 22:53,-116.0278,36.6206,1009.00,103.00,43.00,13.12,240.00,15.00,0.00,29.96,1008.60,10.00,27.00,CLR,M,M,M,M,M,M,M,M,M,M,M,27.00,230.00,2024-08-03 22:44,98.56,KDRA 032253Z AUTO 24015G27KT 10SM CLR 39/06 A2996 RMK AO2 PK WND 23027/2244 SLP086 T03940061,M
ELY,2024-08-03 22:53,-114.8453,39.2950,1909.00,91.00,44.00,19.68,240.00,9.00,0.00,30.18,1009.70,10.00,21.00,FEW,M,M,M,10000.00,M,M,M,M,M,M,M,M,M,M,87.26,KELY 032253Z AUTO 24009G21KT 10SM FEW100 33/07 A3018 RMK AO2 SLP097 T03280067,M
VGT,2024-08-03 22:53,-115.1933,36.2111,667.00,108.00,50.00,14.75,180.00,10.00,0.00,29.84,1008.70,10.00,M,CLR,M,M,M,M,M,M,M,M,M,M,M,M,M,M,105.19,KVGT 032253Z 18010KT 10SM CLR 42/10 A2984 RMK AO2 LTG DSNT SE SLP087 T04220100 $,M
LOL,2024-08-03 22:53,-118.5701,40.0684,1192.43,81.00,50.00,33.97,200.00,22.00,T,30.08,1014.10,0.25,50.00,FEW,BKN,BKN,M,8000.00,10000.00,12000.00,M,-RA,M,M,M,50.00,210.00,2024-08-03 22:44,80.12,KLOL 032253Z AUTO 20022G50KT 1/4SM -RA FEW080 BKN100 BKN120 27/10 A3008 RMK AO2 PK WND 21050/2244 LTG DSNT S RAB45 PRESRR SLP141 P0000 T02720100,M
NFL,2024-08-03 22:54,-118.7010,39.4166,1199.00,85.00,57.00,38.57,280.00,9.00,0.01,30.08,1015.40,10.00,M,SCT,BKN,BKN,M,8000.00,12000.00,25000.00,M,M,M,M,M,M,M,M,84.08,KNFL 032254Z 28009KT 10SM SCT080 BKN120 BKN250 29/14 A3008 RMK RAE16 SLP154 CB DSNT NE-E AND S P0001 T02940139,M
BVU,2024-08-03 22:55,-114.8611,35.9475,671.00,102.20,55.40,21.36,80.00,7.00,0.00,29.85,M,10.00,16.00,FEW,M,M,M,12000.00,M,M,M,VCTS,M,M,M,M,M,M,101.04,KBVU 032255Z AUTO 08007G16KT 10SM VCTS FEW120 39/13 A2985 RMK AO2 LTG DSNT N AND NW,M
RNO,2024-08-03 22:55,-119.7711,39.4839,1341.00,79.00,57.00,46.87,280.00,13.00,0.00,30.16,1015.40,10.00,M,SCT,BKN,M,M,7500.00,11000.00,M,M,M,M,M,M,27.00,290.00,2024-08-03 22:27,79.00,KRNO 032255Z 28013KT 10SM SCT075 BKN110 26/14 A3016 RMK AO2 PK WND 29027/2227 WSHFT 2158 SLP154 CB DSNT S AND NW T02610139,M
05U,2024-08-03 22:55,-116.0051,39.6042,1811.23,80.60,55.40,41.97,240.00,10.00,0.00,30.18,M,5.00,19.00,FEW,M,M,M,11000.00,M,M,M,HZ,M,M,M,M,M,M,80.53,K05U 032255Z AUTO 24010G19KT 5SM HZ FEW110 27/13 A3018 RMK A01,M
BAM,2024-08-03 22:55,-116.8743,40.5990,1382.36,96.80,46.40,18.02,240.00,3.00,0.00,30.04,M,10.00,M,BKN,M,M,M,11000.00,M,M,M,M,M,M,M,M,M,M,93.05,KBAM 032255Z AUTO 24003KT 10SM BKN110 36/08 A3004 RMK AO1,M
HTH,2024-08-03 22:55,-118.6315,38.5448,1282.89,82.40,57.20,42.25,320.00,16.00,0.00,30.10,M,10.00,23.00,FEW,M,M,M,11000.00,M,M,M,M,M,M,M,M,M,M,82.08,KHTH 032255Z AUTO 32016G23KT 10SM FEW110 28/14 A3010 RMK A01,M
10U,2024-08-03 22:55,-116.1876,41.9532,1637.00,91.40,37.40,15.05,240.00,9.00,0.00,30.11,M,10.00,14.00,CLR,M,M,M,M,M,M,M,M,M,M,M,M,M,M,87.23,K10U 032255Z AUTO 24009G14KT 10SM CLR 33/03 A3011 RMK AO2,M
TMT,2024-08-03 22:55,-117.1971,39.4643,1749.34,88.00,44.80,22.30,260.00,7.00,0.00,30.14,M,10.00,M,SCT,M,M,M,11000.00,M,M,M,M,M,M,M,M,M,M,84.71,KTMT 032255Z AUTO 26007KT 10SM SCT110 31/07 A3014 RMK AO2 T03110071,M
INS,2024-08-03 22:55,-115.6733,36.5872,955.00,103.30,44.80,13.93,280.00,4.00,0.00,29.93,1007.10,10.00,M,SCT,M,M,M,11000.00,M,M,M,M,M,M,M,M,M,M,99.18,KINS 032255Z AUTO 28004KT 10SM SCT110 40/07 A2993 RMK AO2 SLP071 T03960071 $,M
LSV,2024-08-03 22:55,-115.0343,36.2362,570.00,109.00,47.30,12.95,140.00,5.00,0.00,29.79,1005.40,10.00,M,CLR,M,M,M,M,M,M,M,M,M,M,M,M,M,M,105.30,KLSV 032255Z AUTO 14005KT 10SM CLR 43/09 A2979 RMK AO2 LTG DSNT SE SLP054 T04280085 $,M
EKO,2024-08-03 22:56,-115.7860,40.8242,1367.00,93.00,47.00,20.72,M,5.00,0.00,30.08,1010.90,10.00,M,CLR,M,M,M,M,M,M,M,M,M,M,M,M,M,M,89.44,KEKO 032256Z AUTO VRB05KT 10SM CLR 34/08 A3008 RMK AO2 SLP109 T03390083 $,M
WMC,2024-08-03 22:56,-117.8072,40.9019,1315.00,89.00,52.00,28.30,220.00,11.00,T,30.02,1010.60,7.00,16.00,SCT,M,M,M,11000.00,M,M,M,-RA,M,M,M,M,M,M,86.49,KWMC 032256Z AUTO 22011G16KT 7SM -RA SCT110 32/11 A3002 RMK AO2 LTG DSNT E AND SE RAB50 SLP106 P0000 T03170111,M
HND,2024-08-03 22:56,-115.1344,35.9729,742.79,107.00,54.00,17.60,M,6.00,0.00,29.90,1010.10,10.00,20.00,BKN,M,M,M,12000.00,M,M,M,VCTS,M,M,M,M,M,M,105.66,KHND 032256Z VRB06G20KT 10SM VCTS BKN120 42/12 A2990 RMK AO2 LTG DSNT E TSB43 SLP101 T04170122,M
TPH,2024-08-03 22:56,-117.0904,38.0505,1654.00,92.00,44.00,19.08,180.00,17.00,0.00,30.13,1011.20,10.00,25.00,FEW,M,M,M,10000.00,M,M,M,M,M,M,M,M,M,M,88.17,KTPH 032256Z AUTO 18017G25KT 10SM FEW100 33/07 A3013 RMK AO2 SLP112 T03330067,M
LAS,2024-08-03 22:56,-115.1634,36.0719,663.00,109.00,50.00,14.32,220.00,7.00,0.00,29.86,1007.60,10.00,M,FEW,SCT,M,M,10000.00,14000.00,M,M,M,M,M,M,M,M,M,106.19,KLAS 032256Z 22007KT 180V260 10SM FEW100 SCT140 43/10 A2986 RMK AO2 LTG DSNT E AND SE SLP076 CB DSNT E-SE SH DSNT E-SE T04280100,M
LOL,2024-08-03 22:59,-118.5701,40.0684,1192.43,79.00,52.00,39.06,210.00,20.00,T,30.08,M,1.00,39.00,SCT,OVC,M,M,9000.00,11000.00,M,M,-RA,M,M,M,33.00,200.00,2024-08-03 22:55,79.00,KLOL 032259Z AUTO 21020G39KT 1SM -RA SCT090 OVC110 26/11 A3008 RMK AO2 PK WND 20033/2255 LTG DSNT S P0000 T02610111,M
LOL,2024-08-03 23:02,-118.5701,40.0684,1192.43,76.00,55.00,48.14,220.00,20.00,T,30.08,M,3.00,33.00,BKN,OVC,M,M,10000.00,12000.00,M,M,-RA,M,M,M,33.00,200.00,2024-08-03 22:55,76.00,KLOL 032302Z AUTO 22020G33KT 3SM -RA BKN100 OVC120 24/13 A3008 RMK AO2 PK WND 20033/2255 LTG DSNT S P0000 T02440128,M
HND,2024-08-03 23:05,-115.1344,35.9729,742.79,107.60,55.40,18.20,180.00,9.00,0.00,29.89,M,10.00,M,SCT,M,M,M,12000.00,M,M,M,M,M,M,M,M,M,M,106.91,KHND 032305Z 18009KT 10SM SCT120 42/13 A2989 RMK AO2 TSE2259,M
CXP,2024-08-03 23:10,-119.7326,39.1923,1431.00,75.20,60.80,60.90,140.00,4.00,0.00,30.19,M,10.00,M,FEW,BKN,M,M,8500.00,11000.00,M,M,M,M,M,M,M,M,M,75.20,KCXP 032310Z AUTO 14004KT 10SM FEW085 BKN110 24/16 A3019 RMK AO2 LTG DSNT NW-E,M
BVU,2024-08-03 23:15,-114.8611,35.9475,671.00,104.00,51.80,17.74,110.00,5.00,0.00,29.84,M,10.00,11.00,CLR,M,M,M,M,M,M,M,M,M,M,M,M,M,M,101.69,KBVU 032315Z AUTO 11005G11KT 10SM CLR 40/11 A2984 RMK AO2,M
RTS,2024-08-03 23:15,-119.8764,39.6682,1539.00,71.60,55.40,56.63,270.00,11.00,0.00,30.23,M,10.00,M,SCT,M,M,M,11000.00,M,M,M,M,M,M,M,M,M,M,71.60,KRTS 032315Z AUTO 27011KT 10SM SCT110 22/13 A3023 RMK AO2,M
05U,2024-08-03 23:15,-116.0051,39.6042,1811.23,84.20,48.20,28.63,290.00,7.00,0.00,30.17,M,10.00,13.00,FEW,M,M,M,11000.00,M,M,M,M,M,M,M,M,M,M,82.04,K05U 032315Z AUTO 29007G13KT 10SM FEW110 29/09 A3017 RMK A01,M
MEV,2024-08-03 23:15,-119.7500,38.9963,1441.42,69.80,59.00,68.55,60.00,9.00,0.00,30.17,M,10.00,M,BKN,BKN,M,M,8000.00,10000.00,M,M,M,M,M,M,M,M,M,69.80,KMEV 032315Z AUTO 06009KT 10SM BKN080 BKN100 21/15 A3017 RMK AO2,M
BAM,2024-08-03 23:15,-116.8743,40.5990,1382.36,98.60,46.40,17.05,250.00,13.00,0.00,30.03,M,10.00,21.00,SCT,M,M,M,11000.00,M,M,M,M,M,M,M,M,M,M,94.84,KBAM 032315Z AUTO 25013G21KT 10SM SCT110 37/08 A3003 RMK AO1,M
HTH,2024-08-03 23:15,-118.6315,38.5448,1282.89,84.20,55.40,37.35,320.00,13.00,0.00,30.09,M,10.00,18.00,FEW,M,M,M,12000.00,M,M,M,M,M,M,M,M,M,M,83.09,KHTH 032315Z AUTO 32013G18KT 10SM FEW120 29/13 A3009 RMK A01,M
10U,2024-08-03 23:15,-116.1876,41.9532,1637.00,93.20,35.60,13.25,210.00,10.00,0.00,30.10,M,10.00,M,CLR,M,M,M,M,M,M,M,M,M,M,M,M,M,M,88.76,K10U 032315Z AUTO 21010KT 10SM CLR 34/02 A3010 RMK AO2,M
TMT,2024-08-03 23:15,-117.1971,39.4643,1749.34,86.00,44.80,23.77,230.00,13.00,0.00,30.15,M,10.00,M,BKN,M,M,M,11000.00,M,M,M,M,M,M,M,M,M,M,83.09,KTMT 032315Z AUTO 23013KT 10SM BKN110 30/07 A3015 RMK AO2 T03000071,M
WMC,2024-08-03 23:23,-117.8072,40.9019,1315.00,89.00,50.00,26.28,130.00,10.00,T,30.01,M,10.00,M,BKN,OVC,M,M,9000.00,11000.00,M,M,VCTS,M,M,M,M,M,M,86.16,KWMC 032323Z AUTO 13010KT 10SM VCTS BKN090 OVC110 32/10 A3001 RMK AO2 LTG DSNT ALQDS RAE08 P0000 T03170100,M
BVU,2024-08-03 23:35,-114.8611,35.9475,671.00,104.00,51.80,17.74,M,5.00,0.00,29.83,M,10.00,M,CLR,M,M,M,M,M,M,M,M,M,M,M,M,M,M,101.69,KBVU 032335Z AUTO VRB05KT 10SM CLR 40/11 A2983 RMK AO2,M
CXP,2024-08-03 23:35,-119.7326,39.1923,1431.00,75.20,57.20,53.55,130.00,4.00,0.00,30.18,M,10.00,M,BKN,M,M,M,11000.00,M,M,M,M,M,M,M,M,M,M,75.20,KCXP 032335Z AUTO 13004KT 10SM BKN110 24/14 A3018 RMK AO2,M
RTS,2024-08-03 23:35,-119.8764,39.6682,1539.00,71.60,55.40,56.63,280.00,13.00,0.00,30.21,M,10.00,M,SCT,M,M,M,11000.00,M,M,M,M,M,M,M,M,M,M,71.60,KRTS 032335Z AUTO 28013KT 10SM SCT110 22/13 A3021 RMK AO2,M
05U,2024-08-03 23:35,-116.0051,39.6042,1811.23,86.00,48.20,27.03,0.00,0.00,0.00,30.16,M,10.00,11.00,CLR,M,M,M,M,M,M,M,M,M,M,M,M,M,M,83.40,K05U 032335Z AUTO 00000G11KT 10SM CLR 30/09 A3016 RMK A01,M
MEV,2024-08-03 23:35,-119.7500,38.9963,1441.42,71.60,60.80,68.75,20.00,5.00,0.00,30.17,M,10.00,M,BKN,BKN,M,M,7500.00,9000.00,M,M,M,M,M,M,M,M,M,71.60,KMEV 032335Z AUTO 02005KT 10SM BKN075 BKN090 22/16 A3017 RMK AO2,M
BAM,2024-08-03 23:35,-116.8743,40.5990,1382.36,98.60,46.40,17.05,260.00,12.00,0.00,30.02,M,10.00,M,CLR,M,M,M,M,M,M,M,M,M,M,M,M,M,M,94.84,KBAM 032335Z AUTO 26012KT 10SM CLR 37/08 A3002 RMK AO1,M
HTH,2024-08-03 23:35,-118.6315,38.5448,1282.89,82.40,55.40,39.58,330.00,9.00,0.00,30.09,M,10.00,M,BKN,M,M,M,12000.00,M,M,M,M,M,M,M,M,M,M,81.75,KHTH 032335Z AUTO 33009KT 10SM BKN120 28/13 A3009 RMK A01,M
10U,2024-08-03 23:35,-116.1876,41.9532,1637.00,93.20,35.60,13.25,190.00,8.00,0.00,30.09,M,10.00,M,CLR,M,M,M,M,M,M,M,M,M,M,M,M,M,M,88.76,K10U 032335Z AUTO 19008KT 10SM CLR 34/02 A3009 RMK AO2,M
TMT,2024-08-03 23:35,-117.1971,39.4643,1749.34,73.20,56.70,56.24,290.00,12.00,0.00,30.16,M,10.00,15.00,SCT,SCT,BKN,M,1800.00,2800.00,11000.00,M,-RA,M,M,M,M,M,M,73.20,KTMT 032335Z AUTO 29012G15KT 10SM -RA SCT018 SCT028 BKN110 23/14 A3016 RMK AO2 T02290137,M
WMC,2024-08-03 23:36,-117.8072,40.9019,1315.00,88.00,49.00,26.13,160.00,16.00,T,30.03,M,10.00,28.00,FEW,BKN,OVC,M,7500.00,9500.00,11000.00,M,TS,M,M,M,28.00,190.00,2024-08-03 23:34,85.14,KWMC 032336Z AUTO 16016G28KT 10SM TS FEW075 BKN095 OVC110 31/09 A3003 RMK AO2 PK WND 19028/2334 LTG DSNT NE-S RAE08 TSB30 P0000 T03110094,M
WMC,2024-08-03 23:48,-117.8072,40.9019,1315.00,79.00,54.00,42.03,210.00,25.00,T,30.06,M,7.00,38.00,BKN,OVC,M,M,9500.00,11000.00,M,M,-RA,M,M,M,38.00,210.00,2024-08-03 23:46,79.00,KWMC 032348Z AUTO 21025G38KT 7SM -RA BKN095 OVC110 26/12 A3006 RMK AO2 PK WND 21038/2346 LTG DSNT NE RAE08B41 TSB30E45 PRESRR P0000 T02610122,M
INS,2024-08-03 23:51,-115.6733,36.5872,955.00,104.00,39.20,11.00,230.00,11.00,0.00,29.90,1006.10,10.00,15.00,FEW,M,M,M,12000.00,M,M,M,M,M,M,M,M,M,M,98.56,KINS 032351Z AUTO 23011G15KT 10SM FEW120 40/04 A2990 RMK AO2 WSHFT 47 SLP061 $,M
P68,2024-08-03 23:53,-116.0056,39.6014,1993.00,90.00,46.00,21.91,300.00,9.00,0.00,30.13,1009.60,M,M,M,M,M,M,M,M,M,M,M,M,M,M,M,M,M,86.55,KP68 032353Z AUTO 30009KT 32/08 A3013 RMK AO1 SLP096 T03220078 10339 20256 56018,M
DRA,2024-08-03 23:53,-116.0278,36.6206,1009.00,102.00,44.00,14.05,230.00,12.00,0.00,29.95,1008.10,10.00,25.00,CLR,M,M,M,M,M,M,M,M,M,M,M,30.00,240.00,2024-08-03 23:08,97.77,KDRA 032353Z AUTO 23012G25KT 10SM CLR 39/07 A2995 RMK AO2 PK WND 24030/2308 SLP081 T03890067 10400 20361 56021,M
ELY,2024-08-03 23:53,-114.8453,39.2950,1909.00,91.00,39.00,16.23,200.00,12.00,0.00,30.16,1009.20,10.00,20.00,CLR,M,M,M,M,M,M,M,M,M,M,M,27.00,240.00,2024-08-03 22:59,86.94,KELY 032353Z AUTO 20012G20KT 10SM CLR 33/04 A3016 RMK AO2 PK WND 24027/2259 LTG DSNT SE SLP092 T03280039 10333 20278 58019,M
VGT,2024-08-03 23:53,-115.1933,36.2111,667.00,108.00,50.00,14.75,M,5.00,0.00,29.82,1008.00,10.00,M,CLR,M,M,M,M,M,M,M,M,M,M,M,M,M,M,105.19,KVGT 032353Z VRB05KT 10SM CLR 42/10 A2982 RMK AO2 SLP080 T04220100 10428 20383 56026 $,M
LOL,2024-08-03 23:53,-118.5701,40.0684,1192.43,83.00,54.00,36.89,180.00,7.00,T,30.08,1014.00,10.00,M,CLR,M,M,M,M,M,M,M,M,M,M,M,33.00,200.00,2024-08-03 22:55,81.94,KLOL 032353Z AUTO 18007KT 10SM CLR 28/12 A3008 RMK AO2 PK WND 20033/2255 RAE19 SLP140 P0000 60000 T02830122 10367 20239 53013,M
NFL,2024-08-03 23:54,-118.7010,39.4166,1199.00,90.00,49.00,24.53,290.00,11.00,0.00,30.06,1014.90,10.00,M,SCT,BKN,BKN,M,8000.00,12000.00,25000.00,M,M,M,M,M,M,M,M,86.91,KNFL 032354Z 29011KT 10SM SCT080 BKN120 BKN250 32/09 A3006 RMK AO2 SLP149 CB DSNT NE-E AND S 60003 T03220094 10356 20228 58010,M
BVU,2024-08-03 23:55,-114.8611,35.9475,671.00,104.00,50.00,16.59,280.00,8.00,0.00,29.84,M,10.00,23.00,FEW,FEW,M,M,9000.00,12000.00,M,M,M,M,M,M,M,M,M,101.14,KBVU 032355Z AUTO 28008G23KT 250V320 10SM FEW090 FEW120 40/10 A2984 RMK AO2,M
CXP,2024-08-03 23:55,-119.7326,39.1923,1431.00,75.20,55.40,50.17,0.00,0.00,0.00,30.18,M,10.00,M,BKN,M,M,M,11000.00,M,M,M,M,M,M,M,M,M,M,75.20,KCXP 032355Z AUTO 00000KT 10SM BKN110 24/13 A3018 RMK AO2,M
INS,2024-08-03 23:55,-115.6733,36.5872,955.00,104.00,41.40,11.98,150.00,9.00,0.00,29.90,1006.10,10.00,15.00,FEW,M,M,M,12000.00,M,M,M,M,M,M,M,M,M,M,99.06,KINS 032355Z AUTO 15009G15KT 10SM FEW120 40/05 A2990 RMK AO2 SLP061 T04000052 10404 20354 57027 $,M
RNO,2024-08-03 23:55,-119.7711,39.4839,1341.00,83.00,53.00,35.56,290.00,8.00,0.00,30.14,1014.20,10.00,M,FEW,SCT,BKN,M,7500.00,11000.00,14000.00,M,M,M,M,M,M,M,M,81.78,KRNO 032355Z 29008KT 10SM FEW075 SCT110 BKN140 28/12 A3014 RMK AO2 SLP142 CB DSNT NW 60002 T02830117 10333 20239 58005,M
RTS,2024-08-03 23:55,-119.8764,39.6682,1539.00,73.40,51.80,46.71,270.00,13.00,0.00,30.21,M,10.00,M,FEW,M,M,M,11000.00,M,M,M,M,M,M,M,M,M,M,73.40,KRTS 032355Z AUTO 27013KT 10SM FEW110 23/11 A3021 RMK AO2,M
05U,2024-08-03 23:55,-116.0051,39.6042,1811.23,89.60,44.60,21.04,0.00,0.00,0.00,30.16,M,10.00,12.00,CLR,M,M,M,M,M,M,M,M,M,M,M,M,M,M,86.07,K05U 032355Z AUTO 00000G12KT 10SM CLR 32/07 A3016 RMK A01,M
MEV,2024-08-03 23:55,-119.7500,38.9963,1441.42,75.20,59.00,57.12,360.00,5.00,0.00,30.17,M,10.00,M,FEW,SCT,SCT,M,7500.00,9000.00,11000.00,M,M,M,M,M,M,M,M,75.20,KMEV 032355Z AUTO 36005KT 10SM FEW075 SCT090 SCT110 24/15 A3017 RMK AO2,M
BAM,2024-08-03 23:55,-116.8743,40.5990,1382.36,96.80,46.40,18.02,250.00,9.00,0.00,30.04,M,10.00,19.00,SCT,M,M,M,11000.00,M,M,M,M,M,M,M,M,M,M,93.05,KBAM 032355Z AUTO 25009G19KT 10SM SCT110 36/08 A3004 RMK AO1,M
HTH,2024-08-03 23:55,-118.6315,38.5448,1282.89,82.40,55.40,39.58,320.00,8.00,0.00,30.09,M,10.00,M,BKN,M,M,M,12000.00,M,M,M,M,M,M,M,M,M,M,81.75,KHTH 032355Z AUTO 32008KT 10SM BKN120 28/13 A3009 RMK A01,M
10U,2024-08-03 23:55,-116.1876,41.9532,1637.00,95.00,37.40,13.46,200.00,6.00,0.00,30.08,M,10.00,15.00,SCT,M,M,M,12000.00,M,M,M,M,M,M,M,M,M,M,90.46,K10U 032355Z AUTO 20006G15KT 10SM SCT120 35/03 A3008 RMK AO2,M
TMT,2024-08-03 23:55,-117.1971,39.4643,1749.34,79.70,54.70,42.14,300.00,13.00,0.00,30.18,M,10.00,20.00,SCT,SCT,M,M,2800.00,11000.00,M,M,M,M,M,M,M,M,M,79.70,KTMT 032355Z AUTO 30013G20KT 10SM SCT028 SCT110 27/13 A3018 RMK AO2 T02650126 10311 20226,M
LSV,2024-08-03 23:55,-115.0343,36.2362,570.00,107.00,51.00,15.76,150.00,11.00,0.00,29.77,1004.80,10.00,M,SCT,SCT,BKN,M,13000.00,16000.00,20000.00,M,M,M,M,M,M,M,M,104.53,KLSV 032355Z AUTO 15011KT 10SM SCT130 SCT160 BKN200 42/11 A2977 RMK AO2 SLP048 T04160106 10429 20383 57029 $,M
EKO,2024-08-03 23:56,-115.7860,40.8242,1367.00,91.00,50.00,24.68,240.00,6.00,0.00,30.06,1010.60,10.00,M,CLR,M,M,M,M,M,M,M,M,M,M,M,M,M,M,87.99,KEKO 032356Z AUTO 24006KT 10SM CLR 33/10 A3006 RMK AO2 LTG DSNT E SLP106 T03280100 10350 20306 56019 $,M
WMC,2024-08-03 23:56,-117.8072,40.9019,1315.00,75.00,57.00,53.52,220.00,16.00,T,30.07,1013.10,7.00,35.00,BKN,OVC,M,M,9000.00,11000.00,M,M,-TSRA,M,M,M,38.00,210.00,2024-08-03 23:46,75.00,KWMC 032356Z AUTO 22016G35KT 7SM -TSRA BKN090 OVC110 24/14 A3007 RMK AO2 PK WND 21038/2346 LTG DSNT NE AND NW RAE08B41 TSB30E45B51 PRESRR SLP131 P0000 60000 T02390139 10378 20239 53006,M
HND,2024-08-03 23:56,-115.1344,35.9729,742.79,107.00,52.00,16.35,220.00,11.00,0.00,29.88,1009.50,10.00,M,SCT,M,M,M,12000.00,M,M,M,M,M,M,M,M,M,M,104.89,KHND 032356Z 22011KT 10SM SCT120 42/11 A2988 RMK AO2 TSE2259 SLP095 T04170111 10428 20367 56025,M
TPH,2024-08-03 23:56,-117.0904,38.0505,1654.00,92.00,41.00,17.00,180.00,17.00,0.00,30.11,1010.80,10.00,25.00,CLR,M,M,M,M,M,M,M,M,M,M,M,M,M,M,87.94,KTPH 032356Z AUTO 18017G25KT 10SM CLR 33/05 A3011 RMK AO2 SLP108 T03330050 10344 20289 56019,M
LAS,2024-08-03 23:56,-115.1634,36.0719,663.00,109.00,50.00,14.32,220.00,9.00,0.00,29.84,1007.00,10.00,M,FEW,SCT,M,M,10000.00,14000.00,M,M,M,M,M,M,M,M,M,106.19,KLAS 032356Z 22009KT 10SM FEW100 SCT140 43/10 A2984 RMK AO2 SLP070 TCU DSNT N CB DSNT NE AND SE SH DSNT SE T04280100 10433 20383 56026,M
INS,2024-08-03 23:59,-115.6733,36.5872,955.00,104.00,41.00,11.79,180.00,12.00,0.00,29.89,1005.80,10.00,20.00,FEW,M,M,M,12000.00,M,M,M,M,M,M,M,M,M,M,98.97,KINS 032359Z AUTO 18012G20KT 10SM FEW120 40/05 A2989 RMK AO2 WSHFT 58 SLP058 $,M
