station,valid,lon,lat,elevation,tmpf,dwpf,relh,drct,sknt,p01i,alti,mslp,vsby,gust,skyc1,skyc2,skyc3,skyc4,skyl1,skyl2,skyl3,skyl4,wxcodes,ice_accretion_1hr,ice_accretion_3hr,ice_accretion_6hr,peak_wind_gust,peak_wind_drct,peak_wind_time,feel,metar,snowdepth
BVU,2023-02-14 00:15,-114.8611,35.9475,671.00,59.00,28.40,30.98,160.00,15.00,0.00,29.74,M,10.00,M,CLR,M,M,M,M,M,M,M,M,M,M,M,M,M,M,59.00,KBVU 140015Z AUTO 16015KT 10SM CLR 15/M02 A2974 RMK AO2,M
CXP,2023-02-14 00:15,-119.7326,39.1923,1431.00,53.60,15.80,22.13,260.00,11.00,0.00,29.73,M,10.00,18.00,CLR,M,M,M,M,M,M,M,M,M,M,M,M,M,M,53.60,KCXP 140015Z AUTO 26011G18KT 220V280 10SM CLR 12/M09 A2973 RMK AO2,M
RTS,2023-02-14 00:15,-119.8764,39.6682,1539.00,50.00,12.20,21.59,280.00,18.00,0.00,29.73,M,10.00,26.00,CLR,M,M,M,M,M,M,M,M,M,M,M,M,M,M,50.00,KRTS 140015Z AUTO 28018G26KT 10SM CLR 10/M11 A2973 RMK AO2,M
05U,2023-02-14 00:15,-116.0051,39.6042,1811.23,39.20,17.60,41.24,180.00,7.00,0.00,29.67,M,10.00,M,M,M,M,M,M,M,M,M,M,M,M,M,M,M,M,33.56,K05U 140015Z AUTO 18007KT 10SM 04/M08 A2967 RMK A01,M
MEV,2023-02-14 00:15,-119.7500,38.9963,1441.42,51.80,19.40,27.62,260.00,22.00,0.00,29.72,M,10.00,32.00,CLR,M,M,M,M,M,M,M,M,M,M,M,M,M,M,51.80,KMEV 140015Z AUTO 26022G32KT 10SM CLR 11/M07 A2972 RMK AO2,M
BAM,2023-02-14 00:15,-116.8743,40.5990,1382.36,50.00,28.40,43.03,240.00,13.00,0.00,29.64,M,10.00,M,CLR,M,M,M,M,M,M,M,M,M,M,M,M,M,M,50.00,KBAM 140015Z AUTO 24013KT 10SM CLR 10/M02 A2964 RMK AO1,M
HTH,2023-02-14 00:15,-118.6315,38.5448,1282.89,55.40,15.80,20.73,80.00,3.00,0.00,29.69,M,10.00,M,CLR,M,M,M,M,M,M,M,M,M,M,M,M,M,M,55.40,KHTH 140015Z AUTO 08003KT 10SM CLR 13/M09 A2969 RMK A01,M
TMT,2023-02-14 00:15,-117.1971,39.4643,1749.34,41.00,23.00,48.39,240.00,9.00,0.00,29.70,M,10.00,M,CLR,M,M,M,M,M,M,M,M,M,M,M,M,M,M,34.70,KTMT 140015Z AUTO 24009KT 10SM CLR 05/M05 A2970 RMK AO2 T00501050,M
BVU,2023-02-14 00:35,-114.8611,35.9475,671.00,59.00,28.40,30.98,160.00,18.00,0.00,29.73,M,10.00,M,CLR,M,M,M,M,M,M,M,M,M,M,M,M,M,M,59.00,KBVU 140035Z AUTO 16018KT 10SM CLR 15/M02 A2973 RMK AO2,M
CXP,2023-02-14 00:35,-119.7326,39.1923,1431.00,51.80,14.00,21.86,250.00,16.00,0.00,29.71,M,10.00,29.00,CLR,M,M,M,M,M,M,M,M,M,M,M,M,M,M,51.80,KCXP 140035Z AUTO 25016G29KT 10SM CLR 11/M10 A2971 RMK AO2,M
RTS,2023-02-14 00:35,-119.8764,39.6682,1539.00,48.20,14.00,24.99,270.00,17.00,0.00,29.72,M,10.00,26.00,CLR,M,M,M,M,M,M,M,M,M,M,M,M,M,M,41.30,KRTS 140035Z AUTO 27017G26KT 10SM CLR 09/M10 A2972 RMK AO2,M
05U,2023-02-14 00:35,-116.0051,39.6042,1811.23,37.40,17.60,44.25,150.00,9.00,0.00,29.66,M,10.00,M,M,M,M,M,M,M,M,M,M,M,M,M,M,M,M,30.23,K05U 140035Z AUTO 15009KT 10SM 03/M08 A2966 RMK A01,M
MEV,2023-02-14 00:35,-119.7500,38.9963,1441.42,50.00,17.60,27.33,270.00,22.00,0.00,29.72,M,10.00,33.00,CLR,M,M,M,M,M,M,M,M,M,M,M,M,M,M,50.00,KMEV 140035Z AUTO 27022G33KT 10SM CLR 10/M08 A2972 RMK AO2,M
BAM,2023-02-14 00:35,-116.8743,40.5990,1382.36,50.00,28.40,43.03,250.00,12.00,0.00,29.64,M,10.00,M,CLR,M,M,M,M,M,M,M,M,M,M,M,M,M,M,50.00,KBAM 140035Z AUTO 25012KT 10SM CLR 10/M02 A2964 RMK AO1,M
HTH,2023-02-14 00:35,-118.6315,38.5448,1282.89,55.40,14.00,19.16,70.00,4.00,0.00,29.69,M,10.00,M,CLR,M,M,M,M,M,M,M,M,M,M,M,M,M,M,55.40,KHTH 140035Z AUTO 07004KT 10SM CLR 13/M10 A2969 RMK A01,M
TMT,2023-02-14 00:35,-117.1971,39.4643,1749.34,40.30,21.00,45.69,210.00,10.00,0.00,29.68,M,10.00,M,CLR,M,M,M,M,M,M,M,M,M,M,M,M,M,M,33.38,KTMT 140035Z AUTO 21010KT 10SM CLR 05/M06 A2968 RMK AO2 T00461061,M
P68,2023-02-14 00:53,-116.0056,39.6014,1993.00,32.00,19.90,60.55,200.00,11.00,0.00,29.63,1005.60,M,M,M,M,M,M,M,M,M,M,M,M,M,M,M,M,M,22.47,KP68 140053Z AUTO 20011KT 00/M07 A2963 RMK AO1 SLP056 T00001067,M
ELY,2023-02-14 00:53,-114.8453,39.2950,1909.00,28.00,16.00,60.25,180.00,10.00,0.00,29.65,1009.10,10.00,M,CLR,M,M,M,M,M,M,M,M,M,M,M,M,M,M,17.95,KELY 140053Z AUTO 18010KT 10SM CLR M02/M09 A2965 RMK AO2 SLP091 T10221089,M
VGT,2023-02-14 00:53,-115.1933,36.2111,667.00,63.00,27.00,25.38,130.00,9.00,0.00,29.70,1006.50,10.00,M,CLR,M,M,M,M,M,M,M,M,M,M,M,M,M,M,63.00,KVGT 140053Z 13009KT 10SM CLR 17/M03 A2970 RMK AO2 SLP065 T01721028,M
LOL,2023-02-14 00:53,-118.5701,40.0684,1192.43,53.00,18.00,24.79,340.00,20.00,0.00,29.64,1004.60,2.00,24.00,FEW,M,M,M,800.00,M,M,M,HZ,M,M,M,M,M,M,53.10,KLOL 140053Z AUTO 34020G24KT 2SM HZ FEW008 12/M08 A2964 RMK AO2 SLP046 T01171078,M
DRA,2023-02-14 00:53,-116.0278,36.6206,1009.00,58.00,14.00,17.51,210.00,14.00,0.00,29.72,1004.30,10.00,21.00,CLR,M,M,M,M,M,M,M,M,M,M,M,M,M,M,57.90,KDRA 140053Z AUTO 21014G21KT 10SM CLR 14/M10 A2972 RMK AO2 SLP043 T01441100,M
BVU,2023-02-14 00:55,-114.8611,35.9475,671.00,57.20,28.40,33.05,150.00,16.00,0.00,29.72,M,10.00,21.00,CLR,M,M,M,M,M,M,M,M,M,M,M,M,M,M,57.20,KBVU 140055Z AUTO 15016G21KT 10SM CLR 14/M02 A2972 RMK AO2,M
CXP,2023-02-14 00:55,-119.7326,39.1923,1431.00,51.80,15.80,23.65,260.00,12.00,0.00,29.71,M,10.00,21.00,CLR,M,M,M,M,M,M,M,M,M,M,M,M,M,M,51.80,KCXP 140055Z AUTO 26012G21KT 210V280 10SM CLR 11/M09 A2971 RMK AO2,M
INS,2023-02-14 00:55,-115.6733,36.5872,955.00,58.30,10.80,14.98,290.00,13.00,0.00,29.71,1004.70,10.00,M,SCT,SCT,M,M,15000.00,18000.00,M,M,M,M,M,M,M,M,M,58.30,KINS 140055Z AUTO 29013KT 10SM SCT150 SCT180 15/M12 A2971 RMK AO2 SLP047 T01461118 $,M
RNO,2023-02-14 00:55,-119.7711,39.4839,1341.00,55.00,7.00,14.23,270.00,13.00,0.00,29.69,1004.40,10.00,26.00,FEW,M,M,M,25000.00,M,M,M,M,M,M,M,32.00,270.00,2023-02-14 00:18,55.00,KRNO 140055Z 27013G26KT 10SM FEW250 13/M14 A2969 RMK AO2 PK WND 27032/0018 SLP044 T01281139,M
LSV,2023-02-14 00:55,-115.0343,36.2362,570.00,60.30,30.20,31.84,120.00,14.00,0.00,29.67,1004.00,10.00,M,CLR,M,M,M,M,M,M,M,M,M,M,M,M,M,M,60.30,KLSV 140055Z AUTO 12014KT 10SM CLR 16/M01 A2967 RMK AO2 SLP040 T01571010 $,M
LOL,2023-02-14 00:55,-118.5701,40.0684,1192.43,53.00,16.00,22.74,330.00,20.00,0.00,29.64,M,1.00,26.00,VV ,M,M,M,900.00,M,M,M,HZ,M,M,M,26.00,330.00,2023-02-14 00:55,53.10,KLOL 140055Z AUTO 33020G26KT 1SM HZ VV009 12/M09 A2964 RMK AO2 PK WND 33026/0055 T01171089,M
RTS,2023-02-14 00:55,-119.8764,39.6682,1539.00,48.20,12.20,23.09,270.00,23.00,0.00,29.71,M,10.00,29.00,CLR,M,M,M,M,M,M,M,M,M,M,M,M,M,M,40.09,KRTS 140055Z AUTO 27023G29KT 10SM CLR 09/M11 A2971 RMK AO2,M
05U,2023-02-14 00:55,-116.0051,39.6042,1811.23,33.80,19.40,55.14,200.00,10.00,0.00,29.65,M,10.00,M,M,M,M,M,M,M,M,M,M,M,M,M,M,M,M,25.23,K05U 140055Z AUTO 20010KT 10SM 01/M07 A2965 RMK A01,M
MEV,2023-02-14 00:55,-119.7500,38.9963,1441.42,48.20,17.60,29.23,280.00,21.00,0.00,29.72,M,10.00,34.00,CLR,M,M,M,M,M,M,M,M,M,M,M,M,M,M,40.46,KMEV 140055Z AUTO 28021G34KT 10SM CLR 09/M08 A2972 RMK AO2,M
BAM,2023-02-14 00:55,-116.8743,40.5990,1382.36,50.00,26.60,39.95,240.00,15.00,0.00,29.64,M,10.00,M,CLR,M,M,M,M,M,M,M,M,M,M,M,M,M,M,50.00,KBAM 140055Z AUTO 24015KT 10SM CLR 10/M03 A2964 RMK AO1,M
HTH,2023-02-14 00:55,-118.6315,38.5448,1282.89,53.60,15.80,22.13,140.00,6.00,0.00,29.67,M,10.00,M,CLR,M,M,M,M,M,M,M,M,M,M,M,M,M,M,53.60,KHTH 140055Z AUTO 14006KT 10SM CLR 12/M09 A2967 RMK A01,M
TMT,2023-02-14 00:55,-117.1971,39.4643,1749.34,38.50,21.70,50.49,200.00,9.00,0.00,29.67,M,10.00,M,CLR,M,M,M,M,M,M,M,M,M,M,M,M,M,M,31.60,KTMT 140055Z AUTO 20009KT 10SM CLR 04/M06 A2967 RMK AO2 T00361057,M
EKO,2023-02-14 00:56,-115.7860,40.8242,1367.00,37.00,21.00,51.99,0.00,0.00,0.00,29.61,1005.80,10.00,M,CLR,M,M,M,M,M,M,M,M,M,M,M,M,M,M,37.00,KEKO 140056Z AUTO 00000KT 10SM CLR 03/M06 A2961 RMK AO2 SLP058 T00281061,M
HND,2023-02-14 00:56,-115.1344,35.9729,742.79,61.00,19.90,20.23,220.00,14.00,0.00,29.73,1008.00,10.00,M,CLR,M,M,M,M,M,M,M,M,M,M,M,M,M,M,61.00,KHND 140056Z 22014KT 10SM CLR 16/M07 A2973 RMK AO2 SLP080 T01611067,M
LAS,2023-02-14 00:56,-115.1634,36.0719,663.00,62.00,18.00,17.93,230.00,11.00,0.00,29.71,1005.20,10.00,18.00,FEW,BKN,M,M,11000.00,20000.00,M,M,M,M,M,M,M,M,M,62.10,KLAS 140056Z 23011G18KT 10SM FEW110 BKN200 17/M08 A2971 RMK AO2 SLP052 T01671078,M
NFL,2023-02-14 00:56,-118.7010,39.4166,1199.00,54.00,25.00,32.26,210.00,7.00,0.00,29.63,1001.90,10.00,M,FEW,M,M,M,25000.00,M,M,M,M,M,M,M,M,M,M,54.00,KNFL 140056Z 21007KT 10SM FEW250 12/M04 A2963 RMK SLP019 T01221039,M
TPH,2023-02-14 00:56,-117.0904,38.0505,1654.00,49.00,15.10,25.55,290.00,3.00,0.00,29.72,1005.70,10.00,M,CLR,M,M,M,M,M,M,M,M,M,M,M,M,M,M,48.01,KTPH 140056Z AUTO 29003KT 10SM CLR 09/M09 A2972 RMK AO2 SLP057 T00941094,M
P68,2023-02-14 00:57,-116.0056,39.6014,1993.00,32.00,19.90,60.55,210.00,11.00,0.00,29.62,M,M,M,M,M,M,M,M,M,M,M,M,M,M,M,M,M,M,22.47,KP68 140057Z AUTO 21011KT 00/M07 A2962 RMK AO1 WSHFT 0040 T00001067,M
LOL,2023-02-14 00:58,-118.5701,40.0684,1192.43,52.00,14.00,21.70,330.00,23.00,0.00,29.64,M,0.50,27.00,VV ,M,M,M,1000.00,M,M,M,HZ,M,M,M,27.00,320.00,2023-02-14 00:58,52.00,KLOL 140058Z AUTO 33023G27KT 1/2SM HZ VV010 11/M10 A2964 RMK AO2 PK WND 32027/0058 T01111100,M
LOL,2023-02-14 01:06,-118.5701,40.0684,1192.43,51.00,12.90,21.37,330.00,21.00,0.00,29.64,M,1.00,28.00,VV ,M,M,M,1800.00,M,M,M,HZ,M,M,M,28.00,330.00,2023-02-14 01:04,51.10,KLOL 140106Z AUTO 33021G28KT 1SM HZ VV018 11/M11 A2964 RMK AO2 PK WND 33028/0104 T01061106,M
HTH,2023-02-14 01:10,-118.6315,38.5448,1282.89,51.80,14.00,21.86,70.00,4.00,0.00,29.67,M,10.00,M,CLR,M,M,M,M,M,M,M,M,M,M,M,M,M,M,51.80,KHTH 140110Z AUTO 07004KT 10SM CLR 11/M10 A2967 RMK A01,M
BVU,2023-02-14 01:15,-114.8611,35.9475,671.00,57.20,28.40,33.05,160.00,16.00,0.00,29.72,M,10.00,25.00,CLR,M,M,M,M,M,M,M,M,M,M,M,M,M,M,57.20,KBVU 140115Z AUTO 16016G25KT 10SM CLR 14/M02 A2972 RMK AO2,M
CXP,2023-02-14 01:15,-119.7326,39.1923,1431.00,50.00,10.40,19.93,260.00,14.00,0.00,29.71,M,10.00,23.00,CLR,M,M,M,M,M,M,M,M,M,M,M,M,M,M,50.00,KCXP 140115Z AUTO 26014G23KT 10SM CLR 10/M12 A2971 RMK AO2,M
RTS,2023-02-14 01:15,-119.8764,39.6682,1539.00,44.60,14.00,28.64,280.00,18.00,0.00,29.72,M,10.00,24.00,CLR,M,M,M,M,M,M,M,M,M,M,M,M,M,M,36.34,KRTS 140115Z AUTO 28018G24KT 10SM CLR 07/M10 A2972 RMK AO2,M
05U,2023-02-14 01:15,-116.0051,39.6042,1811.23,32.00,19.40,59.27,230.00,9.00,0.00,29.64,M,10.00,M,M,M,M,M,M,M,M,M,M,M,M,M,M,M,M,23.51,K05U 140115Z AUTO 23009KT 10SM 00/M07 A2964 RMK A01,M
MEV,2023-02-14 01:15,-119.7500,38.9963,1441.42,46.40,19.40,33.79,280.00,21.00,0.00,29.72,M,10.00,31.00,CLR,M,M,M,M,M,M,M,M,M,M,M,M,M,M,38.06,KMEV 140115Z AUTO 28021G31KT 10SM CLR 08/M07 A2972 RMK AO2,M
BAM,2023-02-14 01:15,-116.8743,40.5990,1382.36,46.40,26.60,45.73,220.00,12.00,0.00,29.63,M,10.00,M,BKN,M,M,M,9000.00,M,M,M,M,M,M,M,M,M,M,40.33,KBAM 140115Z AUTO 22012KT 10SM BKN090 08/M03 A2963 RMK AO1,M
TMT,2023-02-14 01:15,-117.1971,39.4643,1749.34,34.20,23.00,63.21,210.00,10.00,0.00,29.67,M,10.00,M,CLR,M,M,M,M,M,M,M,M,M,M,M,M,M,M,25.73,KTMT 140115Z AUTO 21010KT 10SM CLR 01/M05 A2967 RMK AO2 T00121050,M
LOL,2023-02-14 01:22,-118.5701,40.0684,1192.43,50.00,12.90,22.27,340.00,17.00,0.00,29.65,M,2.00,26.00,OVC,M,M,M,2100.00,M,M,M,HZ,M,M,M,28.00,330.00,2023-02-14 01:04,50.00,KLOL 140122Z AUTO 34017G26KT 2SM HZ OVC021 10/M11 A2965 RMK AO2 PK WND 33028/0104 T01001106,M
LOL,2023-02-14 01:34,-118.5701,40.0684,1192.43,45.00,21.00,38.14,360.00,23.00,0.00,29.66,M,0.75,30.00,OVC,M,M,M,2500.00,M,M,M,HZ,M,M,M,30.00,360.00,2023-02-14 01:34,35.79,KLOL 140134Z AUTO 36023G30KT 3/4SM HZ OVC025 07/M06 A2966 RMK AO2 PK WND 36030/0134 T00721061,M
BVU,2023-02-14 01:35,-114.8611,35.9475,671.00,55.40,28.40,35.28,160.00,14.00,0.00,29.73,M,10.00,20.00,CLR,M,M,M,M,M,M,M,M,M,M,M,M,M,M,55.40,KBVU 140135Z AUTO 16014G20KT 10SM CLR 13/M02 A2973 RMK AO2,M
CXP,2023-02-14 01:35,-119.7326,39.1923,1431.00,48.20,10.40,21.31,260.00,20.00,0.00,29.70,M,10.00,34.00,CLR,M,M,M,M,M,M,M,M,M,M,M,M,M,M,40.66,KCXP 140135Z AUTO 26020G34KT 10SM CLR 09/M12 A2970 RMK AO2,M
RTS,2023-02-14 01:35,-119.8764,39.6682,1539.00,42.80,14.00,30.68,290.00,15.00,0.00,29.73,M,10.00,22.00,CLR,M,M,M,M,M,M,M,M,M,M,M,M,M,M,34.78,KRTS 140135Z AUTO 29015G22KT 10SM CLR 06/M10 A2973 RMK AO2,M
05U,2023-02-14 01:35,-116.0051,39.6042,1811.23,32.00,17.60,54.87,240.00,10.00,0.00,29.64,M,10.00,M,M,M,M,M,M,M,M,M,M,M,M,M,M,M,M,22.97,K05U 140135Z AUTO 24010KT 10SM M00/M08 A2964 RMK A01,M
MEV,2023-02-14 01:35,-119.7500,38.9963,1441.42,46.40,17.60,31.28,270.00,28.00,0.00,29.71,M,10.00,M,CLR,M,M,M,M,M,M,M,M,M,M,M,M,M,M,36.81,KMEV 140135Z AUTO 27028KT 10SM CLR 08/M08 A2971 RMK AO2,M
BAM,2023-02-14 01:35,-116.8743,40.5990,1382.36,46.40,26.60,45.73,280.00,11.00,0.00,29.64,M,10.00,16.00,OVC,M,M,M,9000.00,M,M,M,M,M,M,M,M,M,M,40.66,KBAM 140135Z AUTO 28011G16KT 10SM OVC090 08/M03 A2964 RMK AO1,M
HTH,2023-02-14 01:35,-118.6315,38.5448,1282.89,51.80,12.20,20.20,0.00,0.00,0.00,29.67,M,10.00,M,CLR,M,M,M,M,M,M,M,M,M,M,M,M,M,M,51.80,KHTH 140135Z AUTO 00000KT 10SM CLR 11/M11 A2967 RMK A01,M
TMT,2023-02-14 01:35,-117.1971,39.4643,1749.34,32.50,22.60,66.54,210.00,8.00,0.00,29.66,M,10.00,M,CLR,M,M,M,M,M,M,M,M,M,M,M,M,M,M,24.73,KTMT 140135Z AUTO 21008KT 10SM CLR 00/M05 A2966 RMK AO2 T00031052,M
LOL,2023-02-14 01:50,-118.5701,40.0684,1192.43,42.80,21.20,41.84,10.00,21.00,0.00,29.69,M,1.25,32.00,OVC,M,M,M,2100.00,M,M,M,HZ,M,M,M,32.00,10.00,2023-02-14 01:45,33.26,KLOL 140150Z AUTO 01021G32KT 1 1/4SM HZ OVC021 06/M06 A2969 RMK AO2 PK WND 01032/0145 PRESRR,M
P68,2023-02-14 01:53,-116.0056,39.6014,1993.00,27.00,17.10,65.84,190.00,6.00,0.00,29.62,1005.80,M,M,M,M,M,M,M,M,M,M,M,M,M,M,M,M,M,19.51,KP68 140153Z AUTO 19006KT M03/M08 A2962 RMK AO1 WSHFT 0040 SLP058 T10281083,M
DRA,2023-02-14 01:53,-116.0278,36.6206,1009.00,55.00,14.00,19.44,200.00,13.00,0.00,29.70,1003.80,10.00,20.00,CLR,M,M,M,M,M,M,M,M,M,M,M,M,M,M,55.00,KDRA 140153Z AUTO 20013G20KT 10SM CLR 13/M10 A2970 RMK AO2 SLP038 T01281100,M
ELY,2023-02-14 01:53,-114.8453,39.2950,1909.00,30.00,12.90,48.48,200.00,10.00,0.00,29.63,1007.70,10.00,19.00,CLR,M,M,M,M,M,M,M,M,M,M,M,M,M,M,20.46,KELY 140153Z AUTO 20010G19KT 10SM CLR M01/M11 A2963 RMK AO2 SLP077 T10111106,M
VGT,2023-02-14 01:53,-115.1933,36.2111,667.00,63.00,18.00,17.37,240.00,11.00,0.00,29.69,1006.40,10.00,M,CLR,M,M,M,M,M,M,M,M,M,M,M,M,M,M,63.00,KVGT 140153Z 24011KT 10SM CLR 17/M08 A2969 RMK AO2 SLP064 T01721078,M
LOL,2023-02-14 01:53,-118.5701,40.0684,1192.43,43.00,19.90,39.29,20.00,21.00,0.00,29.69,1007.30,1.75,32.00,OVC,M,M,M,2100.00,M,M,M,HZ,M,M,M,32.00,10.00,2023-02-14 01:45,33.52,KLOL 140153Z AUTO 02021G32KT 1 3/4SM HZ OVC021 06/M07 A2969 RMK AO2 PK WND 01032/0145 PRESRR SLP073 T00611067,M
BVU,2023-02-14 01:55,-114.8611,35.9475,671.00,55.40,30.20,37.97,160.00,15.00,0.00,29.73,M,10.00,M,CLR,M,M,M,M,M,M,M,M,M,M,M,M,M,M,55.40,KBVU 140155Z AUTO 16015KT 10SM CLR 13/M01 A2973 RMK AO2,M
CXP,2023-02-14 01:55,-119.7326,39.1923,1431.00,48.20,12.20,23.09,270.00,17.00,0.00,29.70,M,10.00,28.00,CLR,M,M,M,M,M,M,M,M,M,M,M,M,M,M,41.30,KCXP 140155Z AUTO 27017G28KT 10SM CLR 09/M11 A2970 RMK AO2,M
INS,2023-02-14 01:55,-115.6733,36.5872,955.00,54.70,10.80,17.06,270.00,4.00,0.00,29.70,1004.40,10.00,M,CLR,M,M,M,M,M,M,M,M,M,M,M,M,M,M,54.70,KINS 140155Z AUTO 27004KT 10SM CLR 13/M12 A2970 RMK AO2 SLP044 T01261118 $,M
RNO,2023-02-14 01:55,-119.7711,39.4839,1341.00,50.00,10.90,20.38,290.00,21.00,0.00,29.69,1004.70,10.00,32.00,FEW,BKN,M,M,10000.00,24000.00,M,M,M,M,M,M,32.00,300.00,2023-02-14 01:48,50.00,KRNO 140155Z 29021G32KT 10SM FEW100 BKN240 10/M12 A2969 RMK AO2 PK WND 30032/0148 SLP047 T01001117,M
RTS,2023-02-14 01:55,-119.8764,39.6682,1539.00,42.80,14.00,30.68,280.00,16.00,0.00,29.74,M,10.00,24.00,CLR,M,M,M,M,M,M,M,M,M,M,M,M,M,M,34.50,KRTS 140155Z AUTO 28016G24KT 10SM CLR 06/M10 A2974 RMK AO2,M
05U,2023-02-14 01:55,-116.0051,39.6042,1811.23,26.60,17.60,68.40,0.00,0.00,0.00,29.64,M,10.00,10.00,M,M,M,M,M,M,M,M,M,M,M,M,M,M,M,26.60,K05U 140155Z AUTO 00000G10KT 10SM M03/M08 A2964 RMK A01,M
MEV,2023-02-14 01:55,-119.7500,38.9963,1441.42,44.60,19.40,36.18,260.00,24.00,0.00,29.70,M,10.00,31.00,CLR,M,M,M,M,M,M,M,M,M,M,M,M,M,M,35.06,KMEV 140155Z AUTO 26024G31KT 10SM CLR 07/M07 A2970 RMK AO2,M
BAM,2023-02-14 01:55,-116.8743,40.5990,1382.36,44.60,21.20,39.06,320.00,20.00,0.00,29.66,M,10.00,26.00,BKN,OVC,M,M,6500.00,8000.00,M,M,M,M,M,M,M,M,M,35.87,KBAM 140155Z AUTO 32020G26KT 10SM BKN065 OVC080 07/M06 A2966 RMK AO1,M
HTH,2023-02-14 01:55,-118.6315,38.5448,1282.89,51.80,12.20,20.20,110.00,4.00,0.00,29.68,M,10.00,M,CLR,M,M,M,M,M,M,M,M,M,M,M,M,M,M,51.80,KHTH 140155Z AUTO 11004KT 10SM CLR 11/M11 A2968 RMK A01,M
TMT,2023-02-14 01:55,-117.1971,39.4643,1749.34,32.50,21.20,62.72,200.00,7.00,0.00,29.66,M,10.00,M,CLR,M,M,M,M,M,M,M,M,M,M,M,M,M,M,25.39,KTMT 140155Z AUTO 20007KT 10SM CLR 00/M06 A2966 RMK AO2 T00031060,M
LSV,2023-02-14 01:55,-115.0343,36.2362,570.00,59.00,M,M,150.00,9.00,0.00,29.67,M,10.00,M,SCT,M,M,M,20000.00,M,M,M,M,M,M,M,M,M,M,M,KLSV 140155Z 15009KT 10SM SCT200 15/ A2967 RMK AO2A WND DATA ESTMD ALSTG ESTMD T0150 $ COR 0157,M
EKO,2023-02-14 01:56,-115.7860,40.8242,1367.00,30.90,21.90,68.91,270.00,4.00,0.00,29.57,1005.50,10.00,M,SCT,BKN,M,M,7000.00,9000.00,M,M,M,M,M,M,M,M,M,26.14,KEKO 140156Z AUTO 27004KT 10SM SCT070 BKN090 M01/M06 A2957 RMK AO2 SLP055 T10061056,M
HND,2023-02-14 01:56,-115.1344,35.9729,742.79,59.00,19.90,21.72,220.00,10.00,0.00,29.74,1008.20,10.00,M,CLR,M,M,M,M,M,M,M,M,M,M,M,M,M,M,59.00,KHND 140156Z 22010KT 10SM CLR 15/M07 A2974 RMK AO2 SLP082 T01501067,M
TPH,2023-02-14 01:56,-117.0904,38.0505,1654.00,37.00,15.10,40.34,230.00,4.00,0.00,29.70,1006.30,10.00,M,CLR,M,M,M,M,M,M,M,M,M,M,M,M,M,M,33.26,KTPH 140156Z AUTO 23004KT 10SM CLR 03/M09 A2970 RMK AO2 SLP063 T00281094,M
LAS,2023-02-14 01:56,-115.1634,36.0719,663.00,61.00,18.00,18.64,230.00,12.00,0.00,29.71,1005.30,10.00,19.00,FEW,BKN,M,M,11000.00,20000.00,M,M,M,M,M,M,M,M,M,61.00,KLAS 140156Z 23012G19KT 10SM FEW110 BKN200 16/M08 A2971 RMK AO2 SLP053 T01611078,M
NFL,2023-02-14 01:56,-118.7010,39.4166,1199.00,53.00,6.00,14.64,300.00,19.00,0.00,29.65,1002.40,7.00,26.00,FEW,M,M,M,25000.00,M,M,M,M,M,M,M,26.00,300.00,2023-02-14 01:56,53.10,KNFL 140156Z 30019G26KT 7SM FEW250 12/M14 A2965 RMK AO2 PK WND 30026/0156 SLP024 T01171144,M
LOL,2023-02-14 01:57,-118.5701,40.0684,1192.43,43.00,19.90,39.29,30.00,19.00,0.00,29.70,M,3.00,28.00,OVC,M,M,M,2200.00,M,M,M,HZ,M,M,M,M,M,M,33.98,KLOL 140157Z AUTO 03019G28KT 3SM HZ OVC022 06/M07 A2970 RMK AO2 PRESRR T00611067,M
LOL,2023-02-14 02:11,-118.5701,40.0684,1192.43,42.00,19.00,39.14,30.00,20.00,0.00,29.72,M,2.00,34.00,OVC,M,M,M,2200.00,M,M,M,HZ,M,M,M,34.00,10.00,2023-02-14 02:05,32.55,KLOL 140211Z AUTO 03020G34KT 2SM HZ OVC022 06/M07 A2972 RMK AO2 PK WND 01034/0205 PRESRR T00561072,M
BVU,2023-02-14 02:15,-114.8611,35.9475,671.00,55.40,30.20,37.97,160.00,16.00,0.00,29.73,M,10.00,21.00,CLR,M,M,M,M,M,M,M,M,M,M,M,M,M,M,55.40,KBVU 140215Z AUTO 16016G21KT 10SM CLR 13/M01 A2973 RMK AO2,M
CXP,2023-02-14 02:15,-119.7326,39.1923,1431.00,46.40,17.60,31.28,260.00,14.00,0.00,29.70,M,10.00,22.00,CLR,M,M,M,M,M,M,M,M,M,M,M,M,M,M,39.72,KCXP 140215Z AUTO 26014G22KT 10SM CLR 08/M08 A2970 RMK AO2,M
RTS,2023-02-14 02:15,-119.8764,39.6682,1539.00,42.80,15.80,33.18,290.00,22.00,0.00,29.75,M,10.00,M,CLR,M,M,M,M,M,M,M,M,M,M,M,M,M,M,33.04,KRTS 140215Z AUTO 29022KT 10SM CLR 06/M09 A2975 RMK AO2,M
05U,2023-02-14 02:15,-116.0051,39.6042,1811.23,24.80,17.60,73.70,180.00,3.00,0.00,29.65,M,10.00,M,M,M,M,M,M,M,M,M,M,M,M,M,M,M,M,20.46,K05U 140215Z AUTO 18003KT 10SM M04/M08 A2965 RMK A01,M
MEV,2023-02-14 02:15,-119.7500,38.9963,1441.42,44.60,19.40,36.18,270.00,27.00,0.00,29.70,M,10.00,33.00,CLR,M,M,M,M,M,M,M,M,M,M,M,M,M,M,34.52,KMEV 140215Z AUTO 27027G33KT 10SM CLR 07/M07 A2970 RMK AO2,M
BAM,2023-02-14 02:15,-116.8743,40.5990,1382.36,41.00,24.80,52.17,320.00,23.00,0.00,29.68,M,7.00,35.00,OVC,M,M,M,6500.00,M,M,M,M,M,M,M,M,M,M,30.41,KBAM 140215Z AUTO 32023G35KT 7SM OVC065 05/M04 A2968 RMK AO1,M
HTH,2023-02-14 02:15,-118.6315,38.5448,1282.89,50.00,10.40,19.93,M,4.00,0.00,29.67,M,10.00,M,CLR,M,M,M,M,M,M,M,M,M,M,M,M,M,M,50.00,KHTH 140215Z AUTO VRB04KT 10SM CLR 10/M12 A2967 RMK A01,M
TMT,2023-02-14 02:15,-117.1971,39.4643,1749.34,33.00,19.40,56.71,180.00,6.00,0.00,29.65,M,10.00,M,CLR,M,M,M,M,M,M,M,M,M,M,M,M,M,M,26.86,KTMT 140215Z AUTO 18006KT 10SM CLR 01/M07 A2965 RMK AO2 T00061070,M
LOL,2023-02-14 02:20,-118.5701,40.0684,1192.43,42.00,18.00,37.49,20.00,21.00,0.00,29.72,M,5.00,29.00,OVC,M,M,M,2800.00,M,M,M,HZ,M,M,M,34.00,10.00,2023-02-14 02:05,32.32,KLOL 140220Z AUTO 02021G29KT 5SM HZ OVC028 06/M08 A2972 RMK AO2 PK WND 01034/0205 T00561078,M
EKO,2023-02-14 02:24,-115.7860,40.8242,1367.00,30.90,24.10,75.59,330.00,22.00,T,29.63,M,3.00,41.00,FEW,BKN,OVC,M,3300.00,5500.00,7000.00,M,-SN SQ,M,M,M,41.00,330.00,2023-02-14 02:18,17.11,KEKO 140224Z AUTO 33022G41KT 3SM -SN SQ FEW033 BKN055 OVC070 M01/M04 A2963 RMK AO2 PK WND 33041/0218 SNB21 P0000 T10061044,M
EKO,2023-02-14 02:30,-115.7860,40.8242,1367.00,30.00,25.00,81.40,330.00,22.00,T,29.64,M,1.75,35.00,BKN,OVC,M,M,5000.00,7000.00,M,M,-SN,M,M,M,41.00,330.00,2023-02-14 02:18,15.90,KEKO 140230Z AUTO 33022G35KT 1 3/4SM -SN BKN050 OVC070 M01/M04 A2964 RMK AO2 PK WND 33041/0218 SNB21 P0000 T10111039,M
LOL,2023-02-14 02:32,-118.5701,40.0684,1192.43,41.00,17.10,37.63,20.00,17.00,0.00,29.73,M,7.00,27.00,OVC,M,M,M,3000.00,M,M,M,M,M,M,M,34.00,10.00,2023-02-14 02:05,31.87,KLOL 140232Z AUTO 02017G27KT 7SM OVC030 05/M08 A2973 RMK AO2 PK WND 01034/0205 T00501083,M
BVU,2023-02-14 02:35,-114.8611,35.9475,671.00,55.40,30.20,37.97,160.00,16.00,0.00,29.72,M,10.00,M,CLR,M,M,M,M,M,M,M,M,M,M,M,M,M,M,55.40,KBVU 140235Z AUTO 16016KT 10SM CLR 13/M01 A2972 RMK AO2,M
CXP,2023-02-14 02:35,-119.7326,39.1923,1431.00,46.40,19.40,33.79,270.00,14.00,0.00,29.70,M,10.00,35.00,CLR,M,M,M,M,M,M,M,M,M,M,M,M,M,M,39.72,KCXP 140235Z AUTO 27014G35KT 10SM CLR 08/M07 A2970 RMK AO2,M
RTS,2023-02-14 02:35,-119.8764,39.6682,1539.00,41.00,15.80,35.57,280.00,18.00,0.00,29.76,M,10.00,26.00,CLR,M,M,M,M,M,M,M,M,M,M,M,M,M,M,31.60,KRTS 140235Z AUTO 28018G26KT 10SM CLR 05/M09 A2976 RMK AO2,M
05U,2023-02-14 02:35,-116.0051,39.6042,1811.23,24.80,15.80,68.18,80.00,8.00,0.00,29.65,M,10.00,M,M,M,M,M,M,M,M,M,M,M,M,M,M,M,M,15.24,K05U 140235Z AUTO 08008KT 10SM M04/M09 A2965 RMK A01,M
MEV,2023-02-14 02:35,-119.7500,38.9963,1441.42,44.60,19.40,36.18,270.00,22.00,0.00,29.71,M,10.00,35.00,CLR,M,M,M,M,M,M,M,M,M,M,M,M,M,M,35.45,KMEV 140235Z AUTO 27022G35KT 10SM CLR 07/M07 A2971 RMK AO2,M
BAM,2023-02-14 02:35,-116.8743,40.5990,1382.36,37.40,26.60,64.70,340.00,26.00,0.00,29.70,M,10.00,31.00,OVC,M,M,M,6500.00,M,M,M,M,M,M,M,M,M,M,24.91,KBAM 140235Z AUTO 34026G31KT 10SM OVC065 03/M03 A2970 RMK AO1,M
HTH,2023-02-14 02:35,-118.6315,38.5448,1282.89,51.80,3.20,13.45,50.00,5.00,0.00,29.66,M,10.00,15.00,CLR,M,M,M,M,M,M,M,M,M,M,M,M,M,M,51.80,KHTH 140235Z AUTO 05005G15KT 10SM CLR 11/M16 A2966 RMK A01,M
TMT,2023-02-14 02:35,-117.1971,39.4643,1749.34,32.50,19.00,57.11,180.00,7.00,0.00,29.64,M,10.00,M,CLR,M,M,M,M,M,M,M,M,M,M,M,M,M,M,25.39,KTMT 140235Z AUTO 18007KT 10SM CLR 00/M07 A2964 RMK AO2 T00031072,M
EKO,2023-02-14 02:39,-115.7860,40.8242,1367.00,30.90,24.10,75.59,340.00,19.00,T,29.65,M,3.00,29.00,BKN,BKN,OVC,M,4800.00,5500.00,6500.00,M,-SN,M,M,M,41.00,330.00,2023-02-14 02:18,17.98,KEKO 140239Z AUTO 34019G29KT 3SM -SN BKN048 BKN055 OVC065 M01/M04 A2965 RMK AO2 PK WND 33041/0218 SNB21 P0000 T10061044,M
P68,2023-02-14 02:53,-116.0056,39.6014,1993.00,23.00,15.10,71.30,M,3.00,0.00,29.62,1007.30,M,M,M,M,M,M,M,M,M,M,M,M,M,M,M,M,M,18.40,KP68 140253Z AUTO VRB03KT M05/M09 A2962 RMK AO1 SLP073 T10501094 55007,M
DRA,2023-02-14 02:53,-116.0278,36.6206,1009.00,54.00,14.00,20.16,210.00,6.00,0.00,29.69,1003.60,10.00,17.00,CLR,M,M,M,M,M,M,M,M,M,M,M,M,M,M,54.00,KDRA 140253Z AUTO 21006G17KT 10SM CLR 12/M10 A2969 RMK AO2 SLP036 T01221100 58010,M
ELY,2023-02-14 02:53,-114.8453,39.2950,1909.00,30.90,14.00,49.05,220.00,12.00,0.00,29.61,1007.40,10.00,M,CLR,M,M,M,M,M,M,M,M,M,M,M,M,M,M,20.60,KELY 140253Z AUTO 22012KT 10SM CLR M01/M10 A2961 RMK AO2 SLP074 T10061100 56018,M
LOL,2023-02-14 02:53,-118.5701,40.0684,1192.43,40.00,17.10,39.27,20.00,17.00,0.00,29.75,1009.30,9.00,25.00,OVC,M,M,M,3200.00,M,M,M,M,M,M,M,34.00,10.00,2023-02-14 02:05,30.42,KLOL 140253Z AUTO 02017G25KT 9SM OVC032 04/M08 A2975 RMK AO2 PK WND 01034/0205 SLP093 T00441083 53033,M
VGT,2023-02-14 02:53,-115.1933,36.2111,667.00,60.00,19.90,20.88,220.00,6.00,0.00,29.68,1006.10,10.00,M,CLR,M,M,M,M,M,M,M,M,M,M,M,M,M,M,60.10,KVGT 140253Z 22006KT 10SM CLR 16/M07 A2968 RMK AO2 SLP061 T01561067 57010,M
BVU,2023-02-14 02:55,-114.8611,35.9475,671.00,53.60,28.40,37.67,160.00,11.00,0.00,29.72,M,10.00,20.00,CLR,M,M,M,M,M,M,M,M,M,M,M,M,M,M,53.60,KBVU 140255Z AUTO 16011G20KT 10SM CLR 12/M02 A2972 RMK AO2,M
CXP,2023-02-14 02:55,-119.7326,39.1923,1431.00,46.40,17.60,31.28,280.00,24.00,0.00,29.71,M,10.00,32.00,CLR,M,M,M,M,M,M,M,M,M,M,M,M,M,M,37.49,KCXP 140255Z AUTO 28024G32KT 10SM CLR 08/M08 A2971 RMK AO2,M
INS,2023-02-14 02:55,-115.6733,36.5872,955.00,54.00,11.30,17.90,220.00,3.00,0.00,29.70,1004.80,10.00,M,CLR,M,M,M,M,M,M,M,M,M,M,M,M,M,M,54.00,KINS 140255Z AUTO 22003KT 10SM CLR 12/M11 A2970 RMK AO2 SLP048 T01221115 57004 $,M
LSV,2023-02-14 02:55,-115.0343,36.2362,570.00,58.80,21.20,23.12,170.00,10.00,0.00,29.70,1005.30,10.00,M,CLR,M,M,M,M,M,M,M,M,M,M,M,M,M,M,58.80,KLSV 140255Z 17010KT 10SM CLR 15/M06 A2970 RMK AO2A SLP053 WND DATA ESTMD ALTSG ESTMD T01491060 $,M
RTS,2023-02-14 02:55,-119.8764,39.6682,1539.00,39.20,17.60,41.24,320.00,18.00,0.00,29.78,M,10.00,M,CLR,M,M,M,M,M,M,M,M,M,M,M,M,M,M,29.23,KRTS 140255Z AUTO 32018KT 10SM CLR 04/M08 A2978 RMK AO2,M
05U,2023-02-14 02:55,-116.0051,39.6042,1811.23,23.00,15.80,73.51,0.00,0.00,0.00,29.65,M,10.00,M,M,M,M,M,M,M,M,M,M,M,M,M,M,M,M,23.00,K05U 140255Z AUTO 00000KT 10SM M05/M09 A2965 RMK A01,M
MEV,2023-02-14 02:55,-119.7500,38.9963,1441.42,44.60,19.40,36.18,270.00,22.00,0.00,29.71,M,10.00,28.00,CLR,M,M,M,M,M,M,M,M,M,M,M,M,M,M,35.45,KMEV 140255Z AUTO 27022G28KT 10SM CLR 07/M07 A2971 RMK AO2,M
BAM,2023-02-14 02:55,-116.8743,40.5990,1382.36,35.60,26.60,69.46,340.00,22.00,0.00,29.71,M,10.00,28.00,BKN,OVC,M,M,7000.00,9000.00,M,M,M,M,M,M,M,M,M,23.40,KBAM 140255Z AUTO 34022G28KT 10SM BKN070 OVC090 02/M03 A2971 RMK AO1,M
HTH,2023-02-14 02:55,-118.6315,38.5448,1282.89,53.60,1.40,11.58,M,5.00,0.00,29.66,M,10.00,16.00,CLR,M,M,M,M,M,M,M,M,M,M,M,M,M,M,53.60,KHTH 140255Z AUTO VRB05G16KT 10SM CLR 12/M17 A2966 RMK A01,M
RNO,2023-02-14 02:55,-119.7711,39.4839,1341.00,47.00,15.10,27.54,320.00,13.00,0.00,29.74,1006.90,10.00,23.00,SCT,M,M,M,23000.00,M,M,M,M,M,M,M,35.00,310.00,2023-02-14 02:16,40.66,KRNO 140255Z 32013G23KT 10SM SCT230 08/M09 A2974 RMK AO2 PK WND 31035/0216 SLP069 T00831094 53016,M
TMT,2023-02-14 02:55,-117.1971,39.4643,1749.34,33.00,19.00,56.20,150.00,5.00,0.00,29.65,M,10.00,M,CLR,M,M,M,M,M,M,M,M,M,M,M,M,M,M,27.46,KTMT 140255Z AUTO 15005KT 10SM CLR 01/M07 A2965 RMK AO2 T00051072,M
EKO,2023-02-14 02:56,-115.7860,40.8242,1367.00,30.00,21.90,71.48,330.00,20.00,T,29.65,1008.60,10.00,37.00,OVC,M,M,M,4800.00,M,M,M,M,M,M,M,41.00,330.00,2023-02-14 02:18,16.48,KEKO 140256Z AUTO 33020G37KT 10SM OVC048 M01/M06 A2965 RMK AO2 PK WND 33041/0218 SNB21E50 SLP086 P0000 60000 T10111056 53015,M
HND,2023-02-14 02:56,-115.1344,35.9729,742.79,57.00,24.10,27.86,210.00,16.00,0.00,29.72,1007.80,10.00,M,CLR,M,M,M,M,M,M,M,M,M,M,M,M,M,M,57.00,KHND 140256Z 21016KT 10SM CLR 14/M04 A2972 RMK AO2 SLP078 T01391044 58006,M
TPH,2023-02-14 02:56,-117.0904,38.0505,1654.00,36.00,15.10,41.96,230.00,4.00,0.00,29.68,1006.00,10.00,M,CLR,M,M,M,M,M,M,M,M,M,M,M,M,M,M,32.09,KTPH 140256Z AUTO 23004KT 10SM CLR 02/M09 A2968 RMK AO2 SLP060 T00221094 56016,M
NFL,2023-02-14 02:56,-118.7010,39.4166,1199.00,44.00,21.90,41.00,350.00,22.00,0.00,29.72,1004.40,1.00,32.00,SCT,BKN,OVC,M,500.00,1000.00,2000.00,M,BLDU,M,M,M,35.00,340.00,2023-02-14 02:42,34.78,KNFL 140256Z 35022G32KT 1SM BLDU SCT005 BKN010 OVC020 07/M06 A2972 RMK AO2 PK WND 34035/0242 SLP044 T00671056 53020,M
LAS,2023-02-14 02:56,-115.1634,36.0719,663.00,58.00,19.90,22.59,210.00,7.00,0.00,29.69,1004.90,10.00,M,FEW,BKN,M,M,11000.00,20000.00,M,M,M,M,M,M,M,M,M,57.90,KLAS 140256Z 21007KT 10SM FEW110 BKN200 14/M07 A2969 RMK AO2 SLP049 T01441067 58007,M
05U,2023-02-14 03:10,-116.0051,39.6042,1811.23,24.80,15.80,68.18,0.00,0.00,0.00,29.65,M,10.00,M,M,M,M,M,M,M,M,M,M,M,M,M,M,M,M,24.80,K05U 140310Z AUTO 00000KT 10SM M04/M09 A2965 RMK A01,M
BVU,2023-02-14 03:15,-114.8611,35.9475,671.00,53.60,28.40,37.67,160.00,12.00,0.00,29.72,M,10.00,18.00,CLR,M,M,M,M,M,M,M,M,M,M,M,M,M,M,53.60,KBVU 140315Z AUTO 16012G18KT 10SM CLR 12/M02 A2972 RMK AO2,M
CXP,2023-02-14 03:15,-119.7326,39.1923,1431.00,44.60,19.40,36.18,280.00,18.00,0.00,29.72,M,10.00,27.00,CLR,M,M,M,M,M,M,M,M,M,M,M,M,M,M,36.34,KCXP 140315Z AUTO 28018G27KT 10SM CLR 07/M07 A2972 RMK AO2,M
RTS,2023-02-14 03:15,-119.8764,39.6682,1539.00,33.80,21.20,59.53,360.00,18.00,0.00,29.79,M,10.00,M,CLR,M,M,M,M,M,M,M,M,M,M,M,M,M,M,22.12,KRTS 140315Z AUTO 36018KT 10SM CLR 01/M06 A2979 RMK AO2,M
MEV,2023-02-14 03:15,-119.7500,38.9963,1441.42,44.60,17.60,33.49,270.00,21.00,0.00,29.71,M,10.00,28.00,CLR,M,M,M,M,M,M,M,M,M,M,M,M,M,M,35.66,KMEV 140315Z AUTO 27021G28KT 10SM CLR 07/M08 A2971 RMK AO2,M
BAM,2023-02-14 03:15,-116.8743,40.5990,1382.36,35.60,26.60,69.46,350.00,18.00,0.00,29.72,M,10.00,26.00,OVC,M,M,M,8000.00,M,M,M,M,M,M,M,M,M,M,24.49,KBAM 140315Z AUTO 35018G26KT 10SM OVC080 02/M03 A2972 RMK AO1,M
HTH,2023-02-14 03:15,-118.6315,38.5448,1282.89,51.80,1.40,12.37,M,6.00,0.00,29.67,M,10.00,13.00,CLR,M,M,M,M,M,M,M,M,M,M,M,M,M,M,51.80,KHTH 140315Z AUTO VRB06G13KT 10SM CLR 11/M17 A2967 RMK A01,M
TMT,2023-02-14 03:15,-117.1971,39.4643,1749.34,38.00,16.90,41.77,260.00,4.00,0.00,29.64,M,10.00,M,CLR,M,M,M,M,M,M,M,M,M,M,M,M,M,M,34.54,KTMT 140315Z AUTO 26004KT 10SM CLR 03/M08 A2964 RMK AO2 T00341084,M
HTH,2023-02-14 03:30,-118.6315,38.5448,1282.89,50.00,8.60,18.39,50.00,10.00,0.00,29.68,M,10.00,16.00,CLR,M,M,M,M,M,M,M,M,M,M,M,M,M,M,50.00,KHTH 140330Z AUTO 05010G16KT 10SM CLR 10/M13 A2968 RMK A01,M
BVU,2023-02-14 03:35,-114.8611,35.9475,671.00,53.60,28.40,37.67,160.00,11.00,0.00,29.72,M,10.00,17.00,CLR,M,M,M,M,M,M,M,M,M,M,M,M,M,M,53.60,KBVU 140335Z AUTO 16011G17KT 10SM CLR 12/M02 A2972 RMK AO2,M
CXP,2023-02-14 03:35,-119.7326,39.1923,1431.00,44.60,19.40,36.18,M,6.00,0.00,29.75,M,10.00,28.00,CLR,M,M,M,M,M,M,M,M,M,M,M,M,M,M,40.71,KCXP 140335Z AUTO VRB06G28KT 10SM CLR 07/M07 A2975 RMK AO2,M
RTS,2023-02-14 03:35,-119.8764,39.6682,1539.00,33.80,19.40,55.14,10.00,20.00,0.00,29.80,M,10.00,27.00,CLR,M,M,M,M,M,M,M,M,M,M,M,M,M,M,21.53,KRTS 140335Z AUTO 01020G27KT 10SM CLR 01/M07 A2980 RMK AO2,M
05U,2023-02-14 03:35,-116.0051,39.6042,1811.23,21.20,14.00,73.32,180.00,5.00,0.00,29.65,M,10.00,M,M,M,M,M,M,M,M,M,M,M,M,M,M,M,M,13.57,K05U 140335Z AUTO 18005KT 10SM M06/M10 A2965 RMK A01,M
MEV,2023-02-14 03:35,-119.7500,38.9963,1441.42,42.80,19.40,38.75,270.00,20.00,0.00,29.71,M,10.00,29.00,CLR,M,M,M,M,M,M,M,M,M,M,M,M,M,M,33.48,KMEV 140335Z AUTO 27020G29KT 10SM CLR 06/M07 A2971 RMK AO2,M
BAM,2023-02-14 03:35,-116.8743,40.5990,1382.36,35.60,23.00,59.79,340.00,23.00,0.00,29.73,M,10.00,30.00,SCT,OVC,M,M,7000.00,10000.00,M,M,M,M,M,M,M,M,M,23.15,KBAM 140335Z AUTO 34023G30KT 10SM SCT070 OVC100 02/M05 A2973 RMK AO1,M
TMT,2023-02-14 03:35,-117.1971,39.4643,1749.34,34.30,20.80,57.37,320.00,13.00,0.00,29.68,M,10.00,20.00,SCT,M,M,M,8500.00,M,M,M,M,M,M,M,M,M,M,24.51,KTMT 140335Z AUTO 32013G20KT 10SM SCT085 01/M06 A2968 RMK AO2 T00131062,M
P68,2023-02-14 03:53,-116.0056,39.6014,1993.00,18.00,12.90,80.09,30.00,11.00,0.00,29.65,1008.40,M,M,M,M,M,M,M,M,M,M,M,M,M,M,M,M,M,4.77,KP68 140353Z AUTO 03011KT M08/M11 A2965 RMK AO1 PRESRR SLP084 T10781106,M
DRA,2023-02-14 03:53,-116.0278,36.6206,1009.00,55.00,15.10,20.40,210.00,10.00,0.00,29.67,1002.70,10.00,21.00,CLR,M,M,M,M,M,M,M,M,M,M,M,M,M,M,55.00,KDRA 140353Z AUTO 21010G21KT 190V250 10SM CLR 13/M09 A2967 RMK AO2 SLP027 T01281094,M
ELY,2023-02-14 03:53,-114.8453,39.2950,1909.00,30.00,12.00,46.59,0.00,0.00,0.00,29.61,1006.40,10.00,M,CLR,M,M,M,M,M,M,M,M,M,M,M,M,M,M,30.00,KELY 140353Z AUTO 00000KT 10SM CLR M01/M11 A2961 RMK AO2 SLP064 T10111111,M
VGT,2023-02-14 03:53,-115.1933,36.2111,667.00,55.00,28.90,36.54,0.00,0.00,0.00,29.67,1005.90,10.00,M,CLR,M,M,M,M,M,M,M,M,M,M,M,M,M,M,55.00,KVGT 140353Z AUTO 00000KT 10SM CLR 13/M02 A2967 RMK AO2 SLP059 T01281017,M
LOL,2023-02-14 03:53,-118.5701,40.0684,1192.43,37.00,16.00,41.95,20.00,12.00,0.00,29.80,1011.30,10.00,22.00,OVC,M,M,M,7500.00,M,M,M,M,M,M,M,28.00,30.00,2023-02-14 02:56,28.37,KLOL 140353Z AUTO 02012G22KT 10SM OVC075 03/M09 A2980 RMK AO2 PK WND 03028/0256 SLP113 T00281089,M
BVU,2023-02-14 03:55,-114.8611,35.9475,671.00,53.60,28.40,37.67,200.00,12.00,0.00,29.73,M,10.00,M,CLR,M,M,M,M,M,M,M,M,M,M,M,M,M,M,53.60,KBVU 140355Z AUTO 20012KT 170V230 10SM CLR 12/M02 A2973 RMK AO2,M
CXP,2023-02-14 03:55,-119.7326,39.1923,1431.00,42.80,17.60,35.87,20.00,18.00,0.00,29.78,M,10.00,25.00,FEW,M,M,M,6000.00,M,M,M,M,M,M,M,M,M,M,33.97,KCXP 140355Z AUTO 02018G25KT 10SM FEW060 06/M08 A2978 RMK AO2,M
RNO,2023-02-14 03:55,-119.7711,39.4839,1341.00,39.00,21.90,49.93,330.00,13.00,0.00,29.79,1009.10,10.00,25.00,FEW,M,M,M,25000.00,M,M,M,M,M,M,M,M,M,M,30.54,KRNO 140355Z 33013G25KT 10SM FEW250 04/M06 A2979 RMK AO2 SLP091 T00391056,M
LSV,2023-02-14 03:55,-115.0343,36.2362,570.00,58.30,M,M,170.00,16.00,0.00,29.65,1004.70,10.00,M,CLR,M,M,M,M,M,M,M,M,M,M,M,M,M,M,M,KLSV 140355Z 17016KT 10SM CLR 15/ A2965 RMK AO2A SLP047 WND DATA ESTMD ALSTG ESTMD T0146 $,M
RTS,2023-02-14 03:55,-119.8764,39.6682,1539.00,32.00,19.40,59.27,360.00,17.00,0.00,29.82,M,10.00,25.00,CLR,M,M,M,M,M,M,M,M,M,M,M,M,M,M,20.08,KRTS 140355Z AUTO 36017G25KT 10SM CLR M00/M07 A2982 RMK AO2,M
05U,2023-02-14 03:55,-116.0051,39.6042,1811.23,19.40,14.00,79.16,20.00,12.00,0.00,29.69,M,10.00,M,M,M,M,M,M,M,M,M,M,M,M,M,M,M,M,5.97,K05U 140355Z AUTO 02012KT 10SM M07/M10 A2969 RMK A01,M
MEV,2023-02-14 03:55,-119.7500,38.9963,1441.42,42.80,19.40,38.75,270.00,21.00,0.00,29.72,M,10.00,28.00,CLR,M,M,M,M,M,M,M,M,M,M,M,M,M,M,33.26,KMEV 140355Z AUTO 27021G28KT 10SM CLR 06/M07 A2972 RMK AO2,M
BAM,2023-02-14 03:55,-116.8743,40.5990,1382.36,33.80,21.20,59.53,340.00,8.00,0.00,29.76,M,10.00,26.00,SCT,BKN,OVC,M,6000.00,9000.00,11000.00,M,M,M,M,M,M,M,M,26.33,KBAM 140355Z AUTO 34008G26KT 10SM SCT060 BKN090 OVC110 01/M06 A2976 RMK AO1,M
HTH,2023-02-14 03:55,-118.6315,38.5448,1282.89,50.00,8.60,18.39,350.00,12.00,0.00,29.71,M,M,30.00,FEW,FEW,M,M,2500.00,3200.00,M,M,M,M,M,M,M,M,M,50.00,KHTH 140355Z AUTO 35012G30KT FEW025 FEW032 10/M13 A2971 RMK A01,M
TMT,2023-02-14 03:55,-117.1971,39.4643,1749.34,31.60,21.20,65.03,360.00,12.00,0.00,29.71,M,10.00,20.00,SCT,M,M,M,8500.00,M,M,M,M,M,M,M,M,M,M,21.49,KTMT 140355Z AUTO 36012G20KT 10SM SCT085 00/M06 A2971 RMK AO2 T10021060,M
INS,2023-02-14 03:55,-115.6733,36.5872,955.00,47.00,19.40,33.16,100.00,6.00,0.00,29.67,1003.80,10.00,M,CLR,M,M,M,M,M,M,M,M,M,M,M,M,M,M,43.48,KINS 140355Z AUTO 10006KT 10SM CLR 08/M07 A2967 RMK AO2 SLP038 T00831070 $,M
EKO,2023-02-14 03:56,-115.7860,40.8242,1367.00,27.00,18.00,68.45,310.00,9.00,T,29.71,1010.60,10.00,20.00,FEW,BKN,OVC,M,4700.00,6000.00,11000.00,M,M,M,M,M,39.00,350.00,2023-02-14 03:20,17.30,KEKO 140356Z AUTO 31009G20KT 280V350 10SM FEW047 BKN060 OVC110 M03/M08 A2971 RMK AO2 PK WND 35039/0320 SNB13E26 SLP106 P0000 T10281078,M
NFL,2023-02-14 03:56,-118.7010,39.4166,1199.00,42.00,18.00,37.49,10.00,13.00,0.00,29.80,1006.90,1.00,20.00,SCT,BKN,OVC,M,500.00,1000.00,2000.00,M,BLDU,M,M,M,30.00,360.00,2023-02-14 02:59,34.51,KNFL 140356Z 01013G20KT 1SM BLDU SCT005 BKN010 OVC020 06/M08 A2980 RMK AO2 PK WND 36030/0259 SLP069 T00561078,M
HND,2023-02-14 03:56,-115.1344,35.9729,742.79,54.00,24.10,31.07,180.00,11.00,0.00,29.72,1007.70,10.00,M,CLR,M,M,M,M,M,M,M,M,M,M,M,M,M,M,54.00,KHND 140356Z 18011KT 10SM CLR 12/M04 A2972 RMK AO2 SLP077 T01221044,M
TPH,2023-02-14 03:56,-117.0904,38.0505,1654.00,30.90,15.10,51.47,60.00,3.00,0.00,29.67,1005.20,10.00,M,CLR,M,M,M,M,M,M,M,M,M,M,M,M,M,M,27.43,KTPH 140356Z AUTO 06003KT 10SM CLR M01/M09 A2967 RMK AO2 SLP052 T10061094,M
LAS,2023-02-14 03:56,-115.1634,36.0719,663.00,57.00,23.00,26.61,200.00,10.00,0.00,29.68,1004.50,10.00,M,FEW,SCT,M,M,11000.00,20000.00,M,M,M,M,M,M,M,M,M,57.00,KLAS 140356Z 20010KT 10SM FEW110 SCT200 14/M05 A2968 RMK AO2 SLP045 T01391050,M
BVU,2023-02-14 04:15,-114.8611,35.9475,671.00,53.60,28.40,37.67,200.00,10.00,0.00,29.72,M,10.00,18.00,CLR,M,M,M,M,M,M,M,M,M,M,M,M,M,M,53.60,KBVU 140415Z AUTO 20010G18KT 130V220 10SM CLR 12/M02 A2972 RMK AO2,M
CXP,2023-02-14 04:15,-119.7326,39.1923,1431.00,42.80,19.40,38.75,300.00,18.00,0.00,29.78,M,10.00,28.00,SCT,SCT,M,M,6000.00,7000.00,M,M,M,M,M,M,M,M,M,33.97,KCXP 140415Z AUTO 30018G28KT 10SM SCT060 SCT070 06/M07 A2978 RMK AO2,M
RTS,2023-02-14 04:15,-119.8764,39.6682,1539.00,32.00,17.60,54.87,360.00,17.00,0.00,29.84,M,10.00,25.00,FEW,M,M,M,6000.00,M,M,M,M,M,M,M,M,M,M,20.08,KRTS 140415Z AUTO 36017G25KT 10SM FEW060 M00/M08 A2984 RMK AO2,M
05U,2023-02-14 04:15,-116.0051,39.6042,1811.23,24.80,17.60,73.70,360.00,11.00,0.00,29.70,M,10.00,16.00,M,M,M,M,M,M,M,M,M,M,M,M,M,M,M,13.37,K05U 140415Z AUTO 36011G16KT 10SM M04/M08 A2970 RMK A01,M
MEV,2023-02-14 04:15,-119.7500,38.9963,1441.42,41.00,21.20,44.85,50.00,15.00,0.00,29.74,M,10.00,25.00,FEW,M,M,M,2800.00,M,M,M,M,M,M,M,M,M,M,32.45,KMEV 140415Z AUTO 05015G25KT 10SM FEW028 05/M06 A2974 RMK AO2,M
BAM,2023-02-14 04:15,-116.8743,40.5990,1382.36,33.80,21.20,59.53,100.00,5.00,0.00,29.79,M,10.00,M,SCT,BKN,OVC,M,4600.00,7000.00,9000.00,M,M,M,M,M,M,M,M,28.53,KBAM 140415Z AUTO 10005KT 10SM SCT046 BKN070 OVC090 01/M06 A2979 RMK AO1,M
HTH,2023-02-14 04:15,-118.6315,38.5448,1282.89,50.00,6.80,16.95,10.00,25.00,0.00,29.70,M,5.00,M,SCT,SCT,BKN,M,200.00,2400.00,5500.00,M,HZ,M,M,M,M,M,M,50.00,KHTH 140415Z AUTO 01025KT 5SM HZ SCT002 SCT024 BKN055 10/M14 A2970 RMK A01,M
TMT,2023-02-14 04:15,-117.1971,39.4643,1749.34,30.70,21.70,68.89,350.00,10.00,0.00,29.73,M,10.00,M,CLR,M,M,M,M,M,M,M,M,M,M,M,M,M,M,21.34,KTMT 140415Z AUTO 35010KT 10SM CLR M01/M06 A2973 RMK AO2 T10071057,M
BVU,2023-02-14 04:35,-114.8611,35.9475,671.00,53.60,28.40,37.67,230.00,6.00,0.00,29.72,M,10.00,15.00,CLR,M,M,M,M,M,M,M,M,M,M,M,M,M,M,53.60,KBVU 140435Z AUTO 23006G15KT 10SM CLR 12/M02 A2972 RMK AO2,M
CXP,2023-02-14 04:35,-119.7326,39.1923,1431.00,42.80,19.40,38.75,300.00,14.00,0.00,29.80,M,10.00,32.00,CLR,M,M,M,M,M,M,M,M,M,M,M,M,M,M,35.08,KCXP 140435Z AUTO 30014G32KT 270V330 10SM CLR 06/M07 A2980 RMK AO2,M
RTS,2023-02-14 04:35,-119.8764,39.6682,1539.00,30.20,17.60,59.01,350.00,17.00,0.00,29.85,M,10.00,22.00,FEW,FEW,M,M,5500.00,6500.00,M,M,M,M,M,M,M,M,M,17.72,KRTS 140435Z AUTO 35017G22KT 10SM FEW055 FEW065 M01/M08 A2985 RMK AO2,M
05U,2023-02-14 04:35,-116.0051,39.6042,1811.23,28.40,21.20,74.08,20.00,12.00,0.00,29.73,M,10.00,20.00,M,M,M,M,M,M,M,M,M,M,M,M,M,M,M,17.42,K05U 140435Z AUTO 02012G20KT 10SM M02/M06 A2973 RMK A01,M
MEV,2023-02-14 04:35,-119.7500,38.9963,1441.42,41.00,21.20,44.85,50.00,10.00,0.00,29.76,M,10.00,M,CLR,M,M,M,M,M,M,M,M,M,M,M,M,M,M,34.25,KMEV 140435Z AUTO 05010KT 10SM CLR 05/M06 A2976 RMK AO2,M
BAM,2023-02-14 04:35,-116.8743,40.5990,1382.36,33.80,19.40,55.14,310.00,5.00,0.00,29.79,M,10.00,M,BKN,OVC,M,M,4600.00,7000.00,M,M,M,M,M,M,M,M,M,28.53,KBAM 140435Z AUTO 31005KT 10SM BKN046 OVC070 01/M07 A2979 RMK AO1,M
HTH,2023-02-14 04:35,-118.6315,38.5448,1282.89,46.40,17.60,31.28,340.00,21.00,0.00,29.74,M,3.00,35.00,SCT,BKN,BKN,M,200.00,800.00,2600.00,M,HZ,M,M,M,M,M,M,38.06,KHTH 140435Z AUTO 34021G35KT 3SM HZ SCT002 BKN008 BKN026 08/M08 A2974 RMK A01,M
TMT,2023-02-14 04:35,-117.1971,39.4643,1749.34,30.60,21.40,68.30,0.00,0.00,0.00,29.76,M,10.00,M,BKN,BKN,M,M,4100.00,5000.00,M,M,M,M,M,M,M,M,M,30.60,KTMT 140435Z AUTO 00000KT 10SM BKN041 BKN050 M01/M06 A2976 RMK AO2 T10081059,M
P68,2023-02-14 04:53,-116.0056,39.6014,1993.00,28.00,21.00,74.67,10.00,14.00,0.00,29.71,1008.40,M,M,M,M,M,M,M,M,M,M,M,M,M,M,28.00,350.00,2023-02-14 04:24,16.01,KP68 140453Z AUTO 01014KT M02/M06 A2971 RMK AO1 PK WND 35028/0424 SLP084 T10221061,M
DRA,2023-02-14 04:53,-116.0278,36.6206,1009.00,54.00,16.00,22.00,210.00,14.00,0.00,29.66,1002.00,10.00,23.00,CLR,M,M,M,M,M,M,M,M,M,M,M,M,M,M,54.00,KDRA 140453Z AUTO 21014G23KT 10SM CLR 12/M09 A2966 RMK AO2 SLP020 T01221089,M
ELY,2023-02-14 04:53,-114.8453,39.2950,1909.00,25.00,10.90,54.50,140.00,6.00,0.00,29.59,1005.40,10.00,M,CLR,M,M,M,M,M,M,M,M,M,M,M,M,M,M,17.10,KELY 140453Z AUTO 14006KT 10SM CLR M04/M12 A2959 RMK AO2 SLP054 T10391117,M
VGT,2023-02-14 04:53,-115.1933,36.2111,667.00,52.00,28.90,40.78,0.00,0.00,0.00,29.65,1005.40,10.00,M,CLR,M,M,M,M,M,M,M,M,M,M,M,M,M,M,52.00,KVGT 140453Z AUTO 00000KT 10SM CLR 11/M02 A2965 RMK AO2 SLP054 T01111017,M
LOL,2023-02-14 04:53,-118.5701,40.0684,1192.43,36.00,15.10,41.96,10.00,10.00,0.00,29.84,1012.00,10.00,M,OVC,M,M,M,7000.00,M,M,M,M,M,M,M,26.00,30.00,2023-02-14 04:07,27.98,KLOL 140453Z AUTO 01010KT 10SM OVC070 02/M09 A2984 RMK AO2 PK WND 03026/0407 SLP120 T00221094,M
BVU,2023-02-14 04:55,-114.8611,35.9475,671.00,51.80,28.40,40.25,210.00,11.00,0.00,29.72,M,10.00,17.00,CLR,M,M,M,M,M,M,M,M,M,M,M,M,M,M,51.80,KBVU 140455Z AUTO 21011G17KT 10SM CLR 11/M02 A2972 RMK AO2,M
CXP,2023-02-14 04:55,-119.7326,39.1923,1431.00,41.00,21.20,44.85,330.00,15.00,0.00,29.80,M,10.00,25.00,CLR,M,M,M,M,M,M,M,M,M,M,M,M,M,M,32.45,KCXP 140455Z AUTO 33015G25KT 10SM CLR 05/M06 A2980 RMK AO2,M
INS,2023-02-14 04:55,-115.6733,36.5872,955.00,44.20,19.00,36.11,0.00,0.00,0.00,29.65,1002.90,10.00,M,CLR,M,M,M,M,M,M,M,M,M,M,M,M,M,M,44.20,KINS 140455Z AUTO 00000KT 10SM CLR 07/M07 A2965 RMK AO2 SLP029 T00681072 $,M
RNO,2023-02-14 04:55,-119.7711,39.4839,1341.00,36.00,19.00,49.66,20.00,14.00,0.00,29.84,1011.10,10.00,M,SCT,BKN,M,M,10000.00,23000.00,M,M,M,M,M,M,M,M,M,26.32,KRNO 140455Z 02014KT 10SM SCT100 BKN230 02/M07 A2984 RMK AO2 SLP111 T00221072,M
RTS,2023-02-14 04:55,-119.8764,39.6682,1539.00,30.20,15.80,54.59,340.00,17.00,0.00,29.85,M,10.00,25.00,CLR,M,M,M,M,M,M,M,M,M,M,M,M,M,M,17.72,KRTS 140455Z AUTO 34017G25KT 10SM CLR M01/M09 A2985 RMK AO2,M
05U,2023-02-14 04:55,-116.0051,39.6042,1811.23,28.40,23.00,79.92,20.00,12.00,0.00,29.74,M,10.00,M,M,M,M,M,M,M,M,M,M,M,M,M,M,M,M,17.42,K05U 140455Z AUTO 02012KT 10SM M02/M05 A2974 RMK A01,M
MEV,2023-02-14 04:55,-119.7500,38.9963,1441.42,41.00,23.00,48.39,50.00,17.00,0.00,29.77,M,10.00,23.00,FEW,SCT,SCT,M,4500.00,5500.00,12000.00,M,M,M,M,M,M,M,M,31.87,KMEV 140455Z AUTO 05017G23KT 10SM FEW045 SCT055 SCT120 05/M05 A2977 RMK AO2,M
BAM,2023-02-14 04:55,-116.8743,40.5990,1382.36,33.80,17.60,51.04,330.00,5.00,0.00,29.80,M,10.00,M,OVC,M,M,M,4600.00,M,M,M,M,M,M,M,M,M,M,28.53,KBAM 140455Z AUTO 33005KT 10SM OVC046 01/M08 A2980 RMK AO1,M
HTH,2023-02-14 04:55,-118.6315,38.5448,1282.89,42.80,19.40,38.75,320.00,24.00,0.00,29.76,M,2.50,31.00,BKN,BKN,OVC,M,300.00,2300.00,4700.00,M,HZ,M,M,M,M,M,M,32.63,KHTH 140455Z AUTO 32024G31KT 2 1/2SM HZ BKN003 BKN023 OVC047 06/M07 A2976 RMK A01,M
TMT,2023-02-14 04:55,-117.1971,39.4643,1749.34,29.70,21.20,70.24,30.00,10.00,0.00,29.78,M,10.00,14.00,BKN,BKN,BKN,M,3700.00,4300.00,5000.00,M,M,M,M,M,M,M,M,20.08,KTMT 140455Z AUTO 03010G14KT 10SM BKN037 BKN043 BKN050 M01/M06 A2978 RMK AO2 T10131060,M
LSV,2023-02-14 04:55,-115.0343,36.2362,570.00,58.00,M,M,160.00,14.00,0.00,29.63,1003.00,10.00,M,CLR,M,M,M,M,M,M,M,M,M,M,M,M,M,M,M,KLSV 140455Z 16014KT 10SM CLR 15/ A2963 RMK AO2A SLP030 WND DATA ESTMD ALSTG ESTMD T0145 $,M
EKO,2023-02-14 04:56,-115.7860,40.8242,1367.00,27.00,18.00,68.45,M,3.00,0.00,29.74,1011.20,10.00,M,BKN,BKN,OVC,M,3000.00,3500.00,7000.00,M,M,M,M,M,M,M,M,22.97,KEKO 140456Z AUTO VRB03KT 10SM BKN030 BKN035 OVC070 M03/M08 A2974 RMK AO2 SLP112 T10281078,M
HND,2023-02-14 04:56,-115.1344,35.9729,742.79,53.00,23.00,30.67,200.00,12.00,0.00,29.70,1006.80,10.00,M,CLR,M,M,M,M,M,M,M,M,M,M,M,M,M,M,53.10,KHND 140456Z AUTO 20012KT 10SM CLR 12/M05 A2970 RMK AO2 SLP068 T01171050,M
TPH,2023-02-14 04:56,-117.0904,38.0505,1654.00,41.00,12.90,31.33,300.00,15.00,0.00,29.68,1003.90,10.00,20.00,CLR,M,M,M,M,M,M,M,M,M,M,M,M,M,M,32.45,KTPH 140456Z AUTO 30015G20KT 10SM CLR 05/M11 A2968 RMK AO2 SLP039 T00501106,M
LAS,2023-02-14 04:56,-115.1634,36.0719,663.00,57.00,21.90,25.40,190.00,10.00,0.00,29.66,1003.80,10.00,M,CLR,M,M,M,M,M,M,M,M,M,M,M,M,M,M,57.00,KLAS 140456Z 19010KT 10SM CLR 14/M06 A2966 RMK AO2 SLP038 T01391056,M
NFL,2023-02-14 05:03,-118.7010,39.4166,1199.00,37.00,16.00,41.95,10.00,12.00,0.00,29.83,M,2.50,M,SCT,BKN,OVC,M,500.00,1000.00,2000.00,M,BLDU,M,M,M,M,M,M,28.37,KNFL 140503Z 01012KT 2 1/2SM BLDU SCT005 BKN010 OVC020 03/M09 A2983 RMK T00281089,M
BVU,2023-02-14 05:15,-114.8611,35.9475,671.00,51.80,28.40,40.25,170.00,18.00,0.00,29.70,M,10.00,24.00,CLR,M,M,M,M,M,M,M,M,M,M,M,M,M,M,51.80,KBVU 140515Z AUTO 17018G24KT 10SM CLR 11/M02 A2970 RMK AO2,M
CXP,2023-02-14 05:15,-119.7326,39.1923,1431.00,41.00,21.20,44.85,M,6.00,0.00,29.82,M,10.00,19.00,CLR,M,M,M,M,M,M,M,M,M,M,M,M,M,M,36.37,KCXP 140515Z AUTO VRB06G19KT 190V300 10SM CLR 05/M06 A2982 RMK AO2,M
RTS,2023-02-14 05:15,-119.8764,39.6682,1539.00,30.20,14.00,50.47,340.00,18.00,0.00,29.84,M,10.00,25.00,CLR,M,M,M,M,M,M,M,M,M,M,M,M,M,M,17.38,KRTS 140515Z AUTO 34018G25KT 10SM CLR M01/M10 A2984 RMK AO2,M
05U,2023-02-14 05:15,-116.0051,39.6042,1811.23,28.40,21.20,74.08,360.00,11.00,0.00,29.75,M,10.00,16.00,M,M,M,M,M,M,M,M,M,M,M,M,M,M,M,17.92,K05U 140515Z AUTO 36011G16KT 10SM M02/M06 A2975 RMK A01,M
MEV,2023-02-14 05:15,-119.7500,38.9963,1441.42,41.00,23.00,48.39,40.00,15.00,0.00,29.77,M,10.00,22.00,SCT,SCT,SCT,M,4400.00,5000.00,6500.00,M,M,M,M,M,M,M,M,32.45,KMEV 140515Z AUTO 04015G22KT 10SM SCT044 SCT050 SCT065 05/M05 A2977 RMK AO2,M
BAM,2023-02-14 05:15,-116.8743,40.5990,1382.36,33.80,17.60,51.04,350.00,3.00,0.00,29.80,M,10.00,M,SCT,OVC,M,M,4600.00,9000.00,M,M,M,M,M,M,M,M,M,30.75,KBAM 140515Z AUTO 35003KT 10SM SCT046 OVC090 01/M08 A2980 RMK AO1,M
HTH,2023-02-14 05:15,-118.6315,38.5448,1282.89,41.00,21.20,44.85,320.00,20.00,0.00,29.79,M,1.25,28.00,OVC,M,M,M,300.00,M,M,M,HZ,M,M,M,M,M,M,31.09,KHTH 140515Z AUTO 32020G28KT 1 1/4SM HZ OVC003 05/M06 A2979 RMK A01,M
TMT,2023-02-14 05:15,-117.1971,39.4643,1749.34,29.10,20.30,69.29,20.00,11.00,0.00,29.79,M,10.00,M,OVC,M,M,M,3500.00,M,M,M,M,M,M,M,M,M,M,18.80,KTMT 140515Z AUTO 02011KT 10SM OVC035 M02/M06 A2979 RMK AO2 T10161065,M
NFL,2023-02-14 05:28,-118.7010,39.4166,1199.00,37.00,16.00,41.95,10.00,18.00,0.00,29.82,M,6.00,26.00,SCT,BKN,OVC,M,1000.00,2000.00,3000.00,M,BLDU,M,M,M,26.00,360.00,2023-02-14 05:27,26.33,KNFL 140528Z 01018G26KT 6SM BLDU SCT010 BKN020 OVC030 03/M09 A2982 RMK PK WND 36026/0527 T00281089,M
BVU,2023-02-14 05:35,-114.8611,35.9475,671.00,51.80,28.40,40.25,220.00,9.00,0.00,29.70,M,10.00,18.00,CLR,M,M,M,M,M,M,M,M,M,M,M,M,M,M,51.80,KBVU 140535Z AUTO 22009G18KT 10SM CLR 11/M02 A2970 RMK AO2,M
CXP,2023-02-14 05:35,-119.7326,39.1923,1431.00,37.40,23.00,55.68,60.00,13.00,0.00,29.83,M,10.00,18.00,BKN,BKN,M,M,4700.00,5500.00,M,M,M,M,M,M,M,M,M,28.49,KCXP 140535Z AUTO 06013G18KT 10SM BKN047 BKN055 03/M05 A2983 RMK AO2,M
RTS,2023-02-14 05:35,-119.8764,39.6682,1539.00,30.20,14.00,50.47,350.00,17.00,0.00,29.85,M,10.00,26.00,CLR,M,M,M,M,M,M,M,M,M,M,M,M,M,M,17.72,KRTS 140535Z AUTO 35017G26KT 10SM CLR M01/M10 A2985 RMK AO2,M
05U,2023-02-14 05:35,-116.0051,39.6042,1811.23,28.40,21.20,74.08,10.00,8.00,0.00,29.76,M,10.00,M,M,M,M,M,M,M,M,M,M,M,M,M,M,M,M,19.68,K05U 140535Z AUTO 01008KT 10SM M02/M06 A2976 RMK A01,M
MEV,2023-02-14 05:35,-119.7500,38.9963,1441.42,41.00,21.20,44.85,40.00,14.00,0.00,29.78,M,10.00,24.00,FEW,FEW,BKN,M,3700.00,4300.00,7500.00,M,M,M,M,M,M,M,M,32.76,KMEV 140535Z AUTO 04014G24KT 10SM FEW037 FEW043 BKN075 05/M06 A2978 RMK AO2,M
BAM,2023-02-14 05:35,-116.8743,40.5990,1382.36,33.80,17.60,51.04,350.00,4.00,0.00,29.80,M,10.00,M,BKN,BKN,M,M,10000.00,11000.00,M,M,M,M,M,M,M,M,M,29.52,KBAM 140535Z AUTO 35004KT 10SM BKN100 BKN110 01/M08 A2980 RMK AO1,M
HTH,2023-02-14 05:35,-118.6315,38.5448,1282.89,41.00,21.20,44.85,330.00,17.00,0.00,29.80,M,1.00,25.00,OVC,M,M,M,200.00,M,M,M,HZ,M,M,M,M,M,M,31.87,KHTH 140535Z AUTO 33017G25KT 1SM HZ OVC002 05/M06 A2980 RMK A01,M
TMT,2023-02-14 05:35,-117.1971,39.4643,1749.34,28.60,20.30,70.72,10.00,9.00,0.00,29.78,M,10.00,M,BKN,OVC,M,M,3300.00,5500.00,M,M,M,M,M,M,M,M,M,19.29,KTMT 140535Z AUTO 01009KT 10SM BKN033 OVC055 M02/M06 A2978 RMK AO2 T10191065,M
NFL,2023-02-14 05:48,-118.7010,39.4166,1199.00,37.00,16.00,41.95,10.00,13.00,0.00,29.83,M,9.00,22.00,SCT,BKN,OVC,M,2000.00,3000.00,5000.00,M,M,M,M,M,26.00,360.00,2023-02-14 05:27,27.97,KNFL 140548Z 01013G22KT 9SM SCT020 BKN030 OVC050 03/M09 A2983 RMK AO2 PK WND 36026/0527 T00281089,M
P68,2023-02-14 05:53,-116.0056,39.6014,1993.00,27.00,19.90,74.25,360.00,13.00,0.00,29.74,1008.40,M,M,M,M,M,M,M,M,M,M,M,M,M,M,M,M,M,15.16,KP68 140553Z AUTO 36013KT M03/M07 A2974 RMK AO1 SLP084 T10281067 10044 21078 51032,M
DRA,2023-02-14 05:53,-116.0278,36.6206,1009.00,53.00,19.00,25.88,210.00,12.00,0.00,29.65,1001.60,10.00,22.00,CLR,M,M,M,M,M,M,M,M,M,M,M,27.00,180.00,2023-02-14 05:12,53.10,KDRA 140553Z AUTO 21012G22KT 10SM CLR 12/M07 A2965 RMK AO2 PK WND 18027/0512 SLP016 T01171072 10150 20111 56014,M
ELY,2023-02-14 05:53,-114.8453,39.2950,1909.00,26.10,14.00,59.71,300.00,15.00,0.00,29.64,1006.20,10.00,20.00,CLR,M,M,M,M,M,M,M,M,M,M,M,M,M,M,13.13,KELY 140553Z AUTO 30015G20KT 10SM CLR M03/M10 A2964 RMK AO2 WSHFT 0534 PRESRR SLP062 T10331100 10017 21078 53008,M
VGT,2023-02-14 05:53,-115.1933,36.2111,667.00,50.00,28.90,43.92,0.00,0.00,0.00,29.64,1005.00,10.00,M,CLR,M,M,M,M,M,M,M,M,M,M,M,M,M,M,50.00,KVGT 140553Z AUTO 00000KT 10SM CLR 10/M02 A2964 RMK AO2 SLP050 T01001017 10178 20094 56010,M
LOL,2023-02-14 05:53,-118.5701,40.0684,1192.43,35.00,12.00,37.95,30.00,8.00,0.00,29.85,1011.90,10.00,M,OVC,M,M,M,7500.00,M,M,M,M,M,M,M,M,M,M,27.93,KLOL 140553Z AUTO 03008KT 10SM OVC075 02/M11 A2985 RMK AO2 SLP119 T00171111 10133 20017 51031,M
BVU,2023-02-14 05:55,-114.8611,35.9475,671.00,51.80,28.40,40.25,M,6.00,0.00,29.71,M,10.00,M,CLR,M,M,M,M,M,M,M,M,M,M,M,M,M,M,51.80,KBVU 140555Z AUTO VRB06KT 10SM CLR 11/M02 A2971 RMK AO2,M
CXP,2023-02-14 05:55,-119.7326,39.1923,1431.00,37.40,19.40,47.80,10.00,10.00,0.00,29.84,M,10.00,M,OVC,M,M,M,4800.00,M,M,M,M,M,M,M,M,M,M,29.74,KCXP 140555Z AUTO 01010KT 10SM OVC048 03/M07 A2984 RMK AO2,M
INS,2023-02-14 05:55,-115.6733,36.5872,955.00,43.00,18.50,37.00,0.00,0.00,0.00,29.67,1003.10,10.00,M,CLR,M,M,M,M,M,M,M,M,M,M,M,M,M,M,43.00,KINS 140555Z AUTO 00000KT 10SM CLR 06/M07 A2967 RMK AO2 SLP031 T00611075 10150 20061 55009 $,M
RNO,2023-02-14 05:55,-119.7711,39.4839,1341.00,35.00,15.10,43.49,340.00,12.00,0.00,29.85,1010.90,10.00,21.00,BKN,BKN,M,M,5500.00,22000.00,M,M,M,M,M,M,M,M,M,25.95,KRNO 140555Z 34012G21KT 10SM BKN055 BKN220 02/M09 A2985 RMK AO2 SLP109 T00171094 10150 20017 51033,M
LSV,2023-02-14 05:55,-115.0343,36.2362,570.00,57.60,23.90,27.04,180.00,13.00,0.00,29.63,1002.40,10.00,M,CLR,M,M,M,M,M,M,M,M,M,M,M,M,M,M,57.60,KLSV 140555Z 18013KT 10SM CLR 14/M04 A2963 RMK AO2A SLP024 WND DATA ESTMD ALTSG ESTMD T01421045 10173 20138 $,M
RTS,2023-02-14 05:55,-119.8764,39.6682,1539.00,30.20,14.00,50.47,340.00,18.00,0.00,29.86,M,10.00,M,BKN,M,M,M,5000.00,M,M,M,M,M,M,M,M,M,M,17.38,KRTS 140555Z AUTO 34018KT 10SM BKN050 M01/M10 A2986 RMK AO2,M
05U,2023-02-14 05:55,-116.0051,39.6042,1811.23,28.40,21.20,74.08,10.00,9.00,0.00,29.76,M,10.00,15.00,M,M,M,M,M,M,M,M,M,M,M,M,M,M,M,19.04,K05U 140555Z AUTO 01009G15KT 10SM M02/M06 A2976 RMK A01,M
MEV,2023-02-14 05:55,-119.7500,38.9963,1441.42,39.20,23.00,51.89,10.00,13.00,0.00,29.80,M,10.00,20.00,FEW,BKN,M,M,5500.00,7500.00,M,M,M,M,M,M,M,M,M,30.79,KMEV 140555Z AUTO 01013G20KT 10SM FEW055 BKN075 04/M05 A2980 RMK AO2,M
BAM,2023-02-14 05:55,-116.8743,40.5990,1382.36,32.00,17.60,54.87,360.00,9.00,0.00,29.80,M,10.00,M,BKN,M,M,M,10000.00,M,M,M,M,M,M,M,M,M,M,23.51,KBAM 140555Z AUTO 36009KT 10SM BKN100 00/M08 A2980 RMK AO1,M
HTH,2023-02-14 05:55,-118.6315,38.5448,1282.89,39.20,19.40,44.55,320.00,18.00,0.00,29.81,M,1.00,M,OVC,M,M,M,200.00,M,M,M,HZ,M,M,M,M,M,M,29.23,KHTH 140555Z AUTO 32018KT 1SM HZ OVC002 04/M07 A2981 RMK A01,M
TMT,2023-02-14 05:55,-117.1971,39.4643,1749.34,27.90,20.30,72.78,360.00,7.00,0.00,29.79,M,10.00,M,SCT,SCT,OVC,M,3300.00,4800.00,5500.00,M,M,M,M,M,M,M,M,19.78,KTMT 140555Z AUTO 36007KT 10SM SCT033 SCT048 OVC055 M02/M06 A2979 RMK AO2 T10231065 10052 21023,M
EKO,2023-02-14 05:56,-115.7860,40.8242,1367.00,26.10,12.90,56.89,320.00,3.00,0.00,29.75,1010.70,10.00,M,BKN,M,M,M,10000.00,M,M,M,M,M,M,M,M,M,M,21.94,KEKO 140556Z AUTO 32003KT 10SM BKN100 M03/M11 A2975 RMK AO2 SLP107 60000 T10331106 10050 21033 51027,M
NFL,2023-02-14 05:56,-118.7010,39.4166,1199.00,37.00,15.10,40.34,10.00,12.00,0.00,29.83,1007.90,9.00,M,SCT,BKN,OVC,M,2000.00,3000.00,5000.00,M,M,M,M,M,26.00,360.00,2023-02-14 05:27,28.37,KNFL 140556Z 01012KT 9SM SCT020 BKN030 OVC050 03/M09 A2983 RMK AO2 PK WND 36026/0527 SLP079 T00281094 10144 20028 51035,M
HND,2023-02-14 05:56,-115.1344,35.9729,742.79,55.00,26.10,32.56,210.00,21.00,0.00,29.68,1005.80,10.00,28.00,CLR,M,M,M,M,M,M,M,M,M,M,M,28.00,210.00,2023-02-14 05:49,55.00,KHND 140556Z AUTO 21021G28KT 10SM CLR 13/M03 A2968 RMK AO2 PK WND 21028/0549 SLP058 T01281033 10178 20117 58014,M
TPH,2023-02-14 05:56,-117.0904,38.0505,1654.00,41.00,12.00,30.11,330.00,22.00,0.00,29.69,1003.70,10.00,33.00,CLR,M,M,M,M,M,M,M,M,M,M,M,35.00,330.00,2023-02-14 05:32,30.63,KTPH 140556Z AUTO 33022G33KT 10SM CLR 05/M11 A2969 RMK AO2 PK WND 33035/0532 SLP037 T00501111 10106 21011 53001,M
LAS,2023-02-14 05:56,-115.1634,36.0719,663.00,56.00,24.10,29.00,200.00,11.00,0.00,29.66,1003.40,10.00,M,CLR,M,M,M,M,M,M,M,M,M,M,M,M,M,M,55.90,KLAS 140556Z 20011KT 10SM CLR 13/M04 A2966 RMK AO2 SLP034 T01331044 10183 20128 56012,M
BVU,2023-02-14 06:15,-114.8611,35.9475,671.00,50.00,28.40,43.03,M,6.00,0.00,29.71,M,10.00,11.00,CLR,M,M,M,M,M,M,M,M,M,M,M,M,M,M,50.00,KBVU 140615Z AUTO VRB06G11KT 10SM CLR 10/M02 A2971 RMK AO2,M
CXP,2023-02-14 06:15,-119.7326,39.1923,1431.00,37.40,19.40,47.80,M,6.00,0.00,29.84,M,10.00,12.00,BKN,OVC,M,M,4800.00,5500.00,M,M,M,M,M,M,M,M,M,32.03,KCXP 140615Z AUTO VRB06G12KT 10SM BKN048 OVC055 03/M07 A2984 RMK AO2,M
RTS,2023-02-14 06:15,-119.8764,39.6682,1539.00,30.20,14.00,50.47,340.00,18.00,0.00,29.87,M,10.00,M,BKN,OVC,M,M,4900.00,5500.00,M,M,M,M,M,M,M,M,M,17.38,KRTS 140615Z AUTO 34018KT 10SM BKN049 OVC055 M01/M10 A2987 RMK AO2,M
05U,2023-02-14 06:15,-116.0051,39.6042,1811.23,26.60,21.20,79.77,20.00,12.00,0.00,29.76,M,10.00,M,M,M,M,M,M,M,M,M,M,M,M,M,M,M,M,15.13,K05U 140615Z AUTO 02012KT 10SM M03/M06 A2976 RMK A01,M
MEV,2023-02-14 06:15,-119.7500,38.9963,1441.42,35.60,24.80,64.46,350.00,17.00,0.00,29.80,M,10.00,25.00,OVC,M,M,M,7000.00,M,M,M,M,M,M,M,M,M,M,24.79,KMEV 140615Z AUTO 35017G25KT 10SM OVC070 02/M04 A2980 RMK AO2,M
BAM,2023-02-14 06:15,-116.8743,40.5990,1382.36,32.00,17.60,54.87,320.00,7.00,0.00,29.80,M,10.00,M,BKN,M,M,M,10000.00,M,M,M,M,M,M,M,M,M,M,24.78,KBAM 140615Z AUTO 32007KT 10SM BKN100 00/M08 A2980 RMK AO1,M
HTH,2023-02-14 06:15,-118.6315,38.5448,1282.89,39.20,15.80,38.15,340.00,19.00,0.00,29.81,M,1.00,25.00,OVC,M,M,M,200.00,M,M,M,HZ,M,M,M,M,M,M,28.96,KHTH 140615Z AUTO 34019G25KT 1SM HZ OVC002 04/M09 A2981 RMK A01,M
TMT,2023-02-14 06:15,-117.1971,39.4643,1749.34,28.00,20.30,72.48,360.00,6.00,0.00,29.80,M,10.00,M,BKN,OVC,M,M,4600.00,5500.00,M,M,M,M,M,M,M,M,M,20.71,KTMT 140615Z AUTO 36006KT 10SM BKN046 OVC055 M02/M06 A2980 RMK AO2 T10221065,M
BVU,2023-02-14 06:35,-114.8611,35.9475,671.00,50.00,28.40,43.03,220.00,7.00,0.00,29.71,M,10.00,12.00,CLR,M,M,M,M,M,M,M,M,M,M,M,M,M,M,50.00,KBVU 140635Z AUTO 22007G12KT 10SM CLR 10/M02 A2971 RMK AO2,M
CXP,2023-02-14 06:35,-119.7326,39.1923,1431.00,35.60,19.40,51.33,210.00,7.00,0.00,29.85,M,10.00,M,BKN,OVC,M,M,4700.00,5500.00,M,M,M,M,M,M,M,M,M,29.17,KCXP 140635Z AUTO 21007KT 10SM BKN047 OVC055 02/M07 A2985 RMK AO2,M
RTS,2023-02-14 06:35,-119.8764,39.6682,1539.00,30.20,14.00,50.47,330.00,14.00,0.00,29.86,M,10.00,25.00,SCT,BKN,M,M,4900.00,5500.00,M,M,M,M,M,M,M,M,M,18.84,KRTS 140635Z AUTO 33014G25KT 10SM SCT049 BKN055 M01/M10 A2986 RMK AO2,M
05U,2023-02-14 06:35,-116.0051,39.6042,1811.23,26.60,21.20,79.77,20.00,12.00,0.00,29.77,M,10.00,M,M,M,M,M,M,M,M,M,M,M,M,M,M,M,M,15.13,K05U 140635Z AUTO 02012KT 10SM M03/M06 A2977 RMK A01,M
MEV,2023-02-14 06:35,-119.7500,38.9963,1441.42,35.60,23.00,59.79,340.00,11.00,0.00,29.82,M,10.00,20.00,BKN,OVC,M,M,6000.00,7000.00,M,M,M,M,M,M,M,M,M,27.02,KMEV 140635Z AUTO 34011G20KT 10SM BKN060 OVC070 02/M05 A2982 RMK AO2,M
BAM,2023-02-14 06:35,-116.8743,40.5990,1382.36,32.00,15.80,50.75,310.00,8.00,0.00,29.81,M,10.00,M,OVC,M,M,M,10000.00,M,M,M,M,M,M,M,M,M,M,24.11,KBAM 140635Z AUTO 31008KT 10SM OVC100 00/M09 A2981 RMK AO1,M
HTH,2023-02-14 06:35,-118.6315,38.5448,1282.89,37.40,14.00,37.84,330.00,22.00,0.00,29.83,M,1.75,M,OVC,M,M,M,300.00,M,M,M,HZ,M,M,M,M,M,M,25.81,KHTH 140635Z AUTO 33022KT 1 3/4SM HZ OVC003 03/M10 A2983 RMK A01,M
TMT,2023-02-14 06:35,-117.1971,39.4643,1749.34,27.50,20.10,73.36,350.00,7.00,0.00,29.80,M,10.00,M,OVC,M,M,M,4800.00,M,M,M,M,M,M,M,M,M,M,19.29,KTMT 140635Z AUTO 35007KT 10SM OVC048 M02/M07 A2980 RMK AO2 T10251066,M
P68,2023-02-14 06:53,-116.0056,39.6014,1993.00,25.00,19.00,77.62,20.00,9.00,0.00,29.75,1008.60,M,M,M,M,M,M,M,M,M,M,M,M,M,M,M,M,M,14.81,KP68 140653Z AUTO 02009KT M04/M07 A2975 RMK AO1 SLP086 T10391072,M
DRA,2023-02-14 06:53,-116.0278,36.6206,1009.00,48.00,21.90,35.38,300.00,12.00,0.00,29.66,1002.10,10.00,M,CLR,M,M,M,M,M,M,M,M,M,M,M,M,M,M,42.37,KDRA 140653Z AUTO 30012KT 10SM CLR 09/M06 A2966 RMK AO2 SLP021 T00891056,M
ELY,2023-02-14 06:53,-114.8453,39.2950,1909.00,26.10,18.00,71.04,340.00,9.00,0.00,29.69,1006.70,10.00,19.00,SCT,OVC,M,M,3700.00,9000.00,M,M,M,M,M,M,27.00,330.00,2023-02-14 06:25,16.18,KELY 140653Z AUTO 34009G19KT 10SM SCT037 OVC090 M03/M08 A2969 RMK AO2 PK WND 33027/0625 SLP067 T10331078,M
LOL,2023-02-14 06:53,-118.5701,40.0684,1192.43,34.00,14.00,43.30,350.00,6.00,0.00,29.86,1011.90,10.00,M,OVC,M,M,M,7500.00,M,M,M,M,M,M,M,M,M,M,27.94,KLOL 140653Z AUTO 35006KT 10SM OVC075 01/M10 A2986 RMK AO2 SLP119 T00111100,M
VGT,2023-02-14 06:53,-115.1933,36.2111,667.00,49.00,28.00,44.10,0.00,0.00,0.00,29.66,1005.40,10.00,M,CLR,M,M,M,M,M,M,M,M,M,M,M,M,M,M,48.90,KVGT 140653Z AUTO 00000KT 10SM CLR 09/M02 A2966 RMK AO2 SLP054 T00941022,M
BVU,2023-02-14 06:55,-114.8611,35.9475,671.00,50.00,28.40,43.03,160.00,16.00,0.00,29.70,M,10.00,21.00,CLR,M,M,M,M,M,M,M,M,M,M,M,M,M,M,50.00,KBVU 140655Z AUTO 16016G21KT 10SM CLR 10/M02 A2970 RMK AO2,M
CXP,2023-02-14 06:55,-119.7326,39.1923,1431.00,33.80,17.60,51.04,260.00,4.00,0.00,29.85,M,10.00,M,BKN,OVC,M,M,4900.00,6000.00,M,M,M,M,M,M,M,M,M,29.52,KCXP 140655Z AUTO 26004KT 10SM BKN049 OVC060 01/M08 A2985 RMK AO2,M
INS,2023-02-14 06:55,-115.6733,36.5872,955.00,40.50,18.00,39.88,180.00,3.00,0.00,29.66,1002.70,9.00,M,CLR,M,M,M,M,M,M,M,M,M,M,M,M,M,M,38.41,KINS 140655Z AUTO 18003KT 9SM CLR 05/M08 A2966 RMK AO2 SLP027 T00471078 $,M
RNO,2023-02-14 06:55,-119.7711,39.4839,1341.00,34.00,15.10,45.43,30.00,11.00,0.00,29.86,1010.80,10.00,M,SCT,BKN,M,M,6000.00,21000.00,M,M,M,M,M,M,M,M,M,24.99,KRNO 140655Z 03011KT 10SM SCT060 BKN210 01/M09 A2986 RMK AO2 SLP108 T00111094,M
RTS,2023-02-14 06:55,-119.8764,39.6682,1539.00,28.40,15.80,58.75,350.00,15.00,0.00,29.87,M,10.00,24.00,OVC,M,M,M,5000.00,M,M,M,M,M,M,M,M,M,M,16.11,KRTS 140655Z AUTO 35015G24KT 10SM OVC050 M02/M09 A2987 RMK AO2,M
05U,2023-02-14 06:55,-116.0051,39.6042,1811.23,26.60,19.40,73.89,30.00,8.00,0.00,29.78,M,10.00,M,M,M,M,M,M,M,M,M,M,M,M,M,M,M,M,17.46,K05U 140655Z AUTO 03008KT 10SM M03/M07 A2978 RMK A01,M
MEV,2023-02-14 06:55,-119.7500,38.9963,1441.42,33.80,21.20,59.53,10.00,17.00,0.00,29.82,M,10.00,23.00,OVC,M,M,M,5000.00,M,M,M,M,M,M,M,M,M,M,22.43,KMEV 140655Z AUTO 01017G23KT 10SM OVC050 01/M06 A2982 RMK AO2,M
BAM,2023-02-14 06:55,-116.8743,40.5990,1382.36,32.00,17.60,54.87,310.00,7.00,0.00,29.81,M,10.00,M,BKN,M,M,M,10000.00,M,M,M,M,M,M,M,M,M,M,24.78,KBAM 140655Z AUTO 31007KT 10SM BKN100 00/M08 A2981 RMK AO1,M
HTH,2023-02-14 06:55,-118.6315,38.5448,1282.89,37.40,15.80,40.93,340.00,19.00,0.00,29.84,M,2.00,M,BKN,OVC,M,M,300.00,1700.00,M,M,HZ,M,M,M,M,M,M,26.58,KHTH 140655Z AUTO 34019KT 2SM HZ BKN003 OVC017 03/M09 A2984 RMK A01,M
TMT,2023-02-14 06:55,-117.1971,39.4643,1749.34,27.50,19.20,70.59,350.00,7.00,0.00,29.80,M,10.00,M,BKN,OVC,M,M,5000.00,6000.00,M,M,M,M,M,M,M,M,M,19.29,KTMT 140655Z AUTO 35007KT 10SM BKN050 OVC060 M02/M07 A2980 RMK AO2 T10251071,M
LSV,2023-02-14 06:55,-115.0343,36.2362,570.00,55.40,28.40,35.28,160.00,13.00,0.00,29.63,M,10.00,M,CLR,M,M,M,M,M,M,M,M,M,M,M,M,M,M,55.40,KLSV 140655Z COR 16013KT 10SM CLR 13/M02 A2963 RMK AO2A SLPNO WND DATA ESTMD ALTSG ESTMD $ COR 0707,M
EKO,2023-02-14 06:56,-115.7860,40.8242,1367.00,21.90,12.00,65.18,0.00,0.00,0.00,29.75,1010.70,10.00,M,SCT,SCT,M,M,4900.00,10000.00,M,M,M,M,M,M,M,M,M,21.90,KEKO 140656Z AUTO 00000KT 10SM SCT049 SCT100 M06/M11 A2975 RMK AO2 SLP107 T10561111,M
NFL,2023-02-14 06:56,-118.7010,39.4166,1199.00,36.00,15.10,41.96,10.00,12.00,0.00,29.85,1008.60,10.00,18.00,SCT,BKN,OVC,M,3000.00,5000.00,10000.00,M,M,M,M,M,M,M,M,27.09,KNFL 140656Z 01012G18KT 10SM SCT030 BKN050 OVC100 02/M09 A2985 RMK AO2 SLP086 T00221094,M
HND,2023-02-14 06:56,-115.1344,35.9729,742.79,53.00,28.00,37.74,200.00,14.00,0.00,29.68,1006.00,10.00,22.00,CLR,M,M,M,M,M,M,M,M,M,M,M,M,M,M,53.10,KHND 140656Z AUTO 20014G22KT 10SM CLR 12/M02 A2968 RMK AO2 SLP060 T01171022 401890056,M
TPH,2023-02-14 06:56,-117.0904,38.0505,1654.00,38.00,16.00,40.49,330.00,20.00,0.00,29.70,1003.80,8.00,31.00,FEW,M,M,M,2300.00,M,M,M,M,M,M,M,34.00,330.00,2023-02-14 06:24,26.98,KTPH 140656Z AUTO 33020G31KT 8SM FEW023 03/M09 A2970 RMK AO2 PK WND 33034/0624 SLP038 T00331089,M
LAS,2023-02-14 06:56,-115.1634,36.0719,663.00,55.00,28.00,35.21,220.00,8.00,0.00,29.66,1003.60,10.00,21.00,FEW,SCT,M,M,10000.00,22000.00,M,M,M,M,M,M,M,M,M,55.00,KLAS 140656Z 22008G21KT 10SM FEW100 SCT220 13/M02 A2966 RMK AO2 SLP036 T01281022,M
BVU,2023-02-14 07:15,-114.8611,35.9475,671.00,50.00,28.40,43.03,150.00,19.00,0.00,29.70,M,10.00,M,CLR,M,M,M,M,M,M,M,M,M,M,M,M,M,M,50.00,KBVU 140715Z AUTO 15019KT 10SM CLR 10/M02 A2970 RMK AO2,M
CXP,2023-02-14 07:15,-119.7326,39.1923,1431.00,33.80,15.80,47.22,240.00,4.00,0.00,29.86,M,10.00,M,BKN,OVC,M,M,4800.00,6000.00,M,M,M,M,M,M,M,M,M,29.52,KCXP 140715Z AUTO 24004KT 10SM BKN048 OVC060 01/M09 A2986 RMK AO2,M
RTS,2023-02-14 07:15,-119.8764,39.6682,1539.00,28.40,15.80,58.75,350.00,16.00,0.00,29.86,M,10.00,M,OVC,M,M,M,5000.00,M,M,M,M,M,M,M,M,M,M,15.73,KRTS 140715Z AUTO 35016KT 10SM OVC050 M02/M09 A2986 RMK AO2,M
05U,2023-02-14 07:15,-116.0051,39.6042,1811.23,24.80,19.40,79.62,30.00,7.00,0.00,29.77,M,10.00,M,M,M,M,M,M,M,M,M,M,M,M,M,M,M,M,16.00,K05U 140715Z AUTO 03007KT 10SM M04/M07 A2977 RMK A01,M
MEV,2023-02-14 07:15,-119.7500,38.9963,1441.42,33.80,19.40,55.14,10.00,14.00,0.00,29.82,M,10.00,21.00,OVC,M,M,M,5000.00,M,M,M,M,M,M,M,M,M,M,23.48,KMEV 140715Z AUTO 01014G21KT 10SM OVC050 01/M07 A2982 RMK AO2,M
BAM,2023-02-14 07:15,-116.8743,40.5990,1382.36,32.00,17.60,54.87,320.00,6.00,0.00,29.80,M,10.00,M,SCT,M,M,M,9000.00,M,M,M,M,M,M,M,M,M,M,25.53,KBAM 140715Z AUTO 32006KT 10SM SCT090 00/M08 A2980 RMK AO1,M
HTH,2023-02-14 07:15,-118.6315,38.5448,1282.89,35.60,14.00,40.63,340.00,16.00,0.00,29.85,M,4.00,23.00,FEW,BKN,OVC,M,300.00,2500.00,3400.00,M,HZ,M,M,M,M,M,M,25.11,KHTH 140715Z AUTO 34016G23KT 4SM HZ FEW003 BKN025 OVC034 02/M10 A2985 RMK A01,M
TMT,2023-02-14 07:15,-117.1971,39.4643,1749.34,26.60,19.20,73.26,20.00,5.00,0.00,29.79,M,10.00,M,OVC,M,M,M,6500.00,M,M,M,M,M,M,M,M,M,M,19.98,KTMT 140715Z AUTO 02005KT 10SM OVC065 M03/M07 A2979 RMK AO2 T10301071,M
BVU,2023-02-14 07:35,-114.8611,35.9475,671.00,50.00,30.20,46.31,150.00,18.00,0.00,29.69,M,10.00,M,CLR,M,M,M,M,M,M,M,M,M,M,M,M,M,M,50.00,KBVU 140735Z AUTO 15018KT 10SM CLR 10/M01 A2969 RMK AO2,M
CXP,2023-02-14 07:35,-119.7326,39.1923,1431.00,33.80,17.60,51.04,0.00,0.00,0.00,29.85,M,10.00,M,OVC,M,M,M,4800.00,M,M,M,M,M,M,M,M,M,M,33.80,KCXP 140735Z AUTO 00000KT 10SM OVC048 01/M08 A2985 RMK AO2,M
RTS,2023-02-14 07:35,-119.8764,39.6682,1539.00,28.40,15.80,58.75,350.00,14.00,0.00,29.86,M,10.00,M,SCT,BKN,OVC,M,4000.00,4700.00,5500.00,M,M,M,M,M,M,M,M,16.52,KRTS 140735Z AUTO 35014KT 10SM SCT040 BKN047 OVC055 M02/M09 A2986 RMK AO2,M
05U,2023-02-14 07:35,-116.0051,39.6042,1811.23,24.80,19.40,79.62,30.00,5.00,0.00,29.77,M,5.00,M,M,M,M,M,M,M,M,M,HZ,M,M,M,M,M,M,17.84,K05U 140735Z AUTO 03005KT 5SM HZ M04/M07 A2977 RMK A01,M
MEV,2023-02-14 07:35,-119.7500,38.9963,1441.42,33.80,19.40,55.14,360.00,18.00,0.00,29.81,M,10.00,28.00,OVC,M,M,M,5000.00,M,M,M,M,M,M,M,M,M,M,22.12,KMEV 140735Z AUTO 36018G28KT 10SM OVC050 01/M07 A2981 RMK AO2,M
BAM,2023-02-14 07:35,-116.8743,40.5990,1382.36,30.20,19.40,63.75,290.00,6.00,0.00,29.80,M,10.00,M,CLR,M,M,M,M,M,M,M,M,M,M,M,M,M,M,23.36,KBAM 140735Z AUTO 29006KT 10SM CLR M01/M07 A2980 RMK AO1,M
HTH,2023-02-14 07:35,-118.6315,38.5448,1282.89,35.60,14.00,40.63,320.00,16.00,0.00,29.86,M,5.00,M,FEW,SCT,BKN,M,2500.00,3300.00,4200.00,M,HZ,M,M,M,M,M,M,25.11,KHTH 140735Z AUTO 32016KT 5SM HZ FEW025 SCT033 BKN042 02/M10 A2986 RMK A01,M
TMT,2023-02-14 07:35,-117.1971,39.4643,1749.34,26.10,18.50,72.58,30.00,3.00,0.00,29.79,M,10.00,M,OVC,M,M,M,6500.00,M,M,M,M,M,M,M,M,M,M,21.94,KTMT 140735Z AUTO 03003KT 10SM OVC065 M03/M07 A2979 RMK AO2 T10331075,M
ELY,2023-02-14 07:46,-114.8453,39.2950,1909.00,26.10,16.00,65.16,20.00,11.00,0.00,29.70,M,10.00,24.00,OVC,M,M,M,3700.00,M,M,M,M,M,M,M,M,M,M,15.01,KELY 140746Z AUTO 02011G24KT 340V050 10SM OVC037 M03/M09 A2970 RMK AO2 WSHFT 0726 T10331089,M
P68,2023-02-14 07:53,-116.0056,39.6014,1993.00,24.10,19.00,80.59,350.00,4.00,0.00,29.74,1007.50,M,M,M,M,M,M,M,M,M,M,M,M,M,M,M,M,M,18.19,KP68 140753Z AUTO 35004KT M04/M07 A2974 RMK AO1 SLP075 T10441072 400441150,M
DRA,2023-02-14 07:53,-116.0278,36.6206,1009.00,48.00,25.00,40.29,290.00,11.00,0.00,29.64,1001.40,10.00,M,CLR,M,M,M,M,M,M,M,M,M,M,M,M,M,M,42.69,KDRA 140753Z AUTO 29011KT 10SM CLR 09/M04 A2964 RMK AO2 SLP014 T00891039 401610050,M
ELY,2023-02-14 07:53,-114.8453,39.2950,1909.00,26.10,17.10,68.34,20.00,8.00,0.00,29.71,1006.40,10.00,20.00,OVC,M,M,M,3700.00,M,M,M,M,M,M,M,M,M,M,16.85,KELY 140753Z AUTO 02008G20KT 10SM OVC037 M03/M08 A2971 RMK AO2 WSHFT 0726 SLP064 T10331083 400221183,M
VGT,2023-02-14 07:53,-115.1933,36.2111,667.00,48.00,27.00,43.77,40.00,5.00,0.00,29.65,1005.30,10.00,M,CLR,M,M,M,M,M,M,M,M,M,M,M,M,M,M,45.40,KVGT 140753Z AUTO 04005KT 10SM CLR 09/M03 A2965 RMK AO2 SLP053 T00891028 401890078,M
LOL,2023-02-14 07:53,-118.5701,40.0684,1192.43,34.00,10.00,36.27,350.00,8.00,0.00,29.84,1011.00,10.00,M,OVC,M,M,M,7500.00,M,M,M,M,M,M,M,M,M,M,26.58,KLOL 140753Z AUTO 35008KT 10SM OVC075 01/M12 A2984 RMK AO2 SLP110 T00111122 401331100,M
BVU,2023-02-14 07:55,-114.8611,35.9475,671.00,50.00,30.20,46.31,160.00,18.00,0.00,29.70,M,10.00,M,CLR,M,M,M,M,M,M,M,M,M,M,M,M,M,M,50.00,KBVU 140755Z AUTO 16018KT 10SM CLR 10/M01 A2970 RMK AO2,M
CXP,2023-02-14 07:55,-119.7326,39.1923,1431.00,33.80,15.80,47.22,310.00,5.00,0.00,29.85,M,10.00,11.00,BKN,OVC,M,M,5000.00,6000.00,M,M,M,M,M,M,M,M,M,28.53,KCXP 140755Z AUTO 31005G11KT 10SM BKN050 OVC060 01/M09 A2985 RMK AO2,M
RTS,2023-02-14 07:55,-119.8764,39.6682,1539.00,28.40,15.80,58.75,330.00,11.00,0.00,29.85,M,10.00,M,BKN,BKN,OVC,M,4100.00,4700.00,5500.00,M,M,M,M,M,M,M,M,17.92,KRTS 140755Z AUTO 33011KT 10SM BKN041 BKN047 OVC055 M02/M09 A2985 RMK AO2,M
05U,2023-02-14 07:55,-116.0051,39.6042,1811.23,24.80,19.40,79.62,350.00,4.00,0.00,29.77,M,4.00,M,M,M,M,M,M,M,M,M,HZ,M,M,M,M,M,M,19.01,K05U 140755Z AUTO 35004KT 4SM HZ M04/M07 A2977 RMK A01,M
MEV,2023-02-14 07:55,-119.7500,38.9963,1441.42,32.00,19.40,59.27,360.00,22.00,0.00,29.80,M,10.00,M,OVC,M,M,M,5000.00,M,M,M,M,M,M,M,M,M,M,18.58,KMEV 140755Z AUTO 36022KT 10SM OVC050 00/M07 A2980 RMK AO2,M
BAM,2023-02-14 07:55,-116.8743,40.5990,1382.36,28.40,19.40,68.61,290.00,5.00,0.00,29.80,M,10.00,M,CLR,M,M,M,M,M,M,M,M,M,M,M,M,M,M,22.12,KBAM 140755Z AUTO 29005KT 10SM CLR M02/M07 A2980 RMK AO1,M
HTH,2023-02-14 07:55,-118.6315,38.5448,1282.89,35.60,14.00,40.63,330.00,13.00,0.00,29.86,M,5.00,20.00,FEW,BKN,OVC,M,3200.00,4000.00,4600.00,M,HZ,M,M,M,M,M,M,26.18,KHTH 140755Z AUTO 33013G20KT 5SM HZ FEW032 BKN040 OVC046 02/M10 A2986 RMK A01,M
TMT,2023-02-14 07:55,-117.1971,39.4643,1749.34,26.10,18.50,72.58,0.00,0.00,0.00,29.79,M,10.00,M,OVC,M,M,M,6500.00,M,M,M,M,M,M,M,M,M,M,26.10,KTMT 140755Z AUTO 00000KT 10SM OVC065 M03/M07 A2979 RMK AO2 T10331075 400601161,M
LSV,2023-02-14 07:55,-115.0343,36.2362,570.00,M,M,M,M,M,0.00,29.64,M,M,M,M,M,M,M,M,M,M,M,M,M,M,M,M,M,M,M,KLSV 140755Z AUTO M M M M M A2964 RMK AO2 SLPNO ALSTG ESTMD 402000072 RVRNO FZRANO $,M
INS,2023-02-14 07:55,-115.6733,36.5872,955.00,36.00,16.30,44.03,250.00,5.00,0.00,29.65,1002.60,10.00,M,CLR,M,M,M,M,M,M,M,M,M,M,M,M,M,M,31.26,KINS 140755Z AUTO 25005KT 10SM CLR 02/M09 A2965 RMK AO2 SLP026 T00231087 401731007 $,M
RNO,2023-02-14 07:55,-119.7711,39.4839,1341.00,33.00,16.00,48.98,20.00,8.00,0.00,29.85,1010.30,10.00,19.00,BKN,BKN,M,M,5500.00,20000.00,M,M,M,M,M,M,M,M,M,25.47,KRNO 140755Z 02008G19KT 10SM BKN055 BKN200 01/M09 A2985 RMK AO2 SLP103 T00061089 401721039,M
EKO,2023-02-14 07:56,-115.7860,40.8242,1367.00,21.90,14.00,71.18,0.00,0.00,0.00,29.75,1010.50,10.00,M,OVC,M,M,M,4600.00,M,M,M,M,M,M,M,M,M,M,21.90,KEKO 140756Z AUTO 00000KT 10SM OVC046 M06/M10 A2975 RMK AO2 SLP105 T10561100 400501150,M
NFL,2023-02-14 07:56,-118.7010,39.4166,1199.00,36.00,14.00,39.99,360.00,7.00,0.00,29.85,1008.40,10.00,M,OVC,M,M,M,6000.00,M,M,M,M,M,M,M,M,M,M,29.65,KNFL 140756Z AUTO 36007KT 10SM OVC060 02/M10 A2985 RMK AO2 SLP084 T00221100 401441044,M
HND,2023-02-14 07:56,-115.1344,35.9729,742.79,52.00,28.90,40.78,180.00,19.00,0.00,29.68,1006.10,10.00,23.00,CLR,M,M,M,M,M,M,M,M,M,M,M,M,M,M,52.00,KHND 140756Z AUTO 18019G23KT 10SM CLR 11/M02 A2968 RMK AO2 SLP061 T01111017,M
TPH,2023-02-14 07:56,-117.0904,38.0505,1654.00,36.00,18.00,47.58,60.00,6.00,0.00,29.72,1004.60,10.00,18.00,FEW,M,M,M,3100.00,M,M,M,M,M,M,M,27.00,340.00,2023-02-14 07:02,30.35,KTPH 140756Z AUTO 06006G18KT 10SM FEW031 02/M08 A2972 RMK AO2 PK WND 34027/0702 SLP046 T00221078 401171044,M
LAS,2023-02-14 07:56,-115.1634,36.0719,663.00,54.00,28.90,37.89,160.00,9.00,0.00,29.65,1003.10,10.00,17.00,SCT,M,M,M,22000.00,M,M,M,M,M,M,M,M,M,M,54.00,KLAS 140756Z 16009G17KT 10SM SCT220 12/M02 A2965 RMK AO2 SLP031 BLDU DSNT W-N T01221017 401890078,M
LSV,2023-02-14 07:57,-115.0343,36.2362,570.00,53.60,28.40,37.67,120.00,9.00,0.00,29.64,M,10.00,M,FEW,M,M,M,20000.00,M,M,M,M,M,M,M,M,M,M,53.60,KLSV 140757Z 12009KT 10SM FEW200 12/M02 A2964 RMK A02A SLPNO WIND DATA ESTMD ALSTG ESTMD 402000072 $,M
BVU,2023-02-14 08:15,-114.8611,35.9475,671.00,50.00,30.20,46.31,150.00,16.00,0.00,29.69,M,10.00,21.00,CLR,M,M,M,M,M,M,M,M,M,M,M,M,M,M,50.00,KBVU 140815Z AUTO 15016G21KT 10SM CLR 10/M01 A2969 RMK AO2,M
CXP,2023-02-14 08:15,-119.7326,39.1923,1431.00,32.00,17.60,54.87,340.00,10.00,0.00,29.84,M,10.00,M,BKN,OVC,M,M,5000.00,6000.00,M,M,M,M,M,M,M,M,M,22.97,KCXP 140815Z AUTO 34010KT 10SM BKN050 OVC060 00/M08 A2984 RMK AO2,M
RTS,2023-02-14 08:15,-119.8764,39.6682,1539.00,28.40,15.80,58.75,350.00,11.00,0.00,29.84,M,10.00,M,BKN,BKN,OVC,M,3900.00,4700.00,5500.00,M,M,M,M,M,M,M,M,17.92,KRTS 140815Z AUTO 35011KT 10SM BKN039 BKN047 OVC055 M02/M09 A2984 RMK AO2,M
05U,2023-02-14 08:15,-116.0051,39.6042,1811.23,24.80,19.40,79.62,340.00,9.00,0.00,29.76,M,8.00,M,M,M,M,M,M,M,M,M,M,M,M,M,M,M,M,14.56,K05U 140815Z AUTO 34009KT 8SM M04/M07 A2976 RMK A01,M
MEV,2023-02-14 08:15,-119.7500,38.9963,1441.42,32.00,19.40,59.27,360.00,19.00,0.00,29.80,M,10.00,M,FEW,BKN,M,M,4400.00,5000.00,M,M,M,M,M,M,M,M,M,19.44,KMEV 140815Z AUTO 36019KT 10SM FEW044 BKN050 M00/M07 A2980 RMK AO2,M
BAM,2023-02-14 08:15,-116.8743,40.5990,1382.36,28.40,19.40,68.61,290.00,4.00,0.00,29.80,M,10.00,M,CLR,M,M,M,M,M,M,M,M,M,M,M,M,M,M,23.22,KBAM 140815Z AUTO 29004KT 10SM CLR M02/M07 A2980 RMK AO1,M
HTH,2023-02-14 08:15,-118.6315,38.5448,1282.89,35.60,12.20,37.53,330.00,11.00,0.00,29.85,M,8.00,19.00,SCT,BKN,OVC,M,2700.00,3600.00,4500.00,M,M,M,M,M,M,M,M,27.02,KHTH 140815Z AUTO 33011G19KT 8SM SCT027 BKN036 OVC045 02/M11 A2985 RMK A01,M
TMT,2023-02-14 08:15,-117.1971,39.4643,1749.34,25.20,19.60,78.98,0.00,0.00,0.00,29.78,M,10.00,M,SCT,OVC,M,M,4200.00,6500.00,M,M,M,M,M,M,M,M,M,25.20,KTMT 140815Z AUTO 00000KT 10SM SCT042 OVC065 M04/M07 A2978 RMK AO2 T10381069,M
BVU,2023-02-14 08:35,-114.8611,35.9475,671.00,50.00,30.20,46.31,160.00,19.00,0.00,29.68,M,10.00,M,CLR,M,M,M,M,M,M,M,M,M,M,M,M,M,M,50.00,KBVU 140835Z AUTO 16019KT 10SM CLR 10/M01 A2968 RMK AO2,M
CXP,2023-02-14 08:35,-119.7326,39.1923,1431.00,32.00,17.60,54.87,340.00,7.00,0.00,29.84,M,10.00,M,BKN,OVC,M,M,4900.00,6000.00,M,M,M,M,M,M,M,M,M,24.78,KCXP 140835Z AUTO 34007KT 10SM BKN049 OVC060 M00/M08 A2984 RMK AO2,M
RTS,2023-02-14 08:35,-119.8764,39.6682,1539.00,28.40,15.80,58.75,350.00,11.00,0.00,29.84,M,10.00,M,BKN,BKN,OVC,M,3800.00,4400.00,5500.00,M,M,M,M,M,M,M,M,17.92,KRTS 140835Z AUTO 35011KT 10SM BKN038 BKN044 OVC055 M02/M09 A2984 RMK AO2,M
05U,2023-02-14 08:35,-116.0051,39.6042,1811.23,24.80,17.60,73.70,340.00,9.00,0.00,29.76,M,10.00,M,M,M,M,M,M,M,M,M,M,M,M,M,M,M,M,14.56,K05U 140835Z AUTO 34009KT 10SM M04/M08 A2976 RMK A01,M
MEV,2023-02-14 08:35,-119.7500,38.9963,1441.42,32.00,19.40,59.27,30.00,12.00,0.00,29.80,M,10.00,18.00,BKN,OVC,M,M,5000.00,6000.00,M,M,M,M,M,M,M,M,M,22.00,KMEV 140835Z AUTO 03012G18KT 10SM BKN050 OVC060 M00/M07 A2980 RMK AO2,M
BAM,2023-02-14 08:35,-116.8743,40.5990,1382.36,28.40,19.40,68.61,260.00,3.00,0.00,29.79,M,10.00,M,SCT,BKN,M,M,6000.00,11000.00,M,M,M,M,M,M,M,M,M,24.57,KBAM 140835Z AUTO 26003KT 10SM SCT060 BKN110 M02/M07 A2979 RMK AO1,M
HTH,2023-02-14 08:35,-118.6315,38.5448,1282.89,35.60,14.00,40.63,330.00,12.00,0.00,29.84,M,10.00,M,FEW,BKN,OVC,M,3200.00,3800.00,4500.00,M,M,M,M,M,M,M,M,26.58,KHTH 140835Z AUTO 33012KT 10SM FEW032 BKN038 OVC045 02/M10 A2984 RMK A01,M
TMT,2023-02-14 08:35,-117.1971,39.4643,1749.34,26.60,17.80,68.99,290.00,4.00,0.00,29.77,M,10.00,M,SCT,BKN,OVC,M,4200.00,5000.00,5500.00,M,M,M,M,M,M,M,M,21.11,KTMT 140835Z AUTO 29004KT 10SM SCT042 BKN050 OVC055 M03/M08 A2977 RMK AO2 T10301079,M
HTH,2023-02-14 08:50,-118.6315,38.5448,1282.89,33.80,14.00,43.65,330.00,10.00,0.00,29.84,M,10.00,15.00,BKN,BKN,OVC,M,3900.00,4600.00,6500.00,M,M,M,M,M,M,M,M,25.23,KHTH 140850Z AUTO 33010G15KT 10SM BKN039 BKN046 OVC065 01/M10 A2984 RMK A01,M
05U,2023-02-14 08:50,-116.0051,39.6042,1811.23,24.80,15.80,68.18,330.00,9.00,0.00,29.75,M,10.00,M,M,M,M,M,M,M,M,M,M,M,M,M,M,M,M,14.56,K05U 140850Z AUTO 33009KT 10SM M04/M09 A2975 RMK A01,M
P68,2023-02-14 08:53,-116.0056,39.6014,1993.00,24.10,16.00,70.81,330.00,9.00,0.00,29.72,1006.80,M,M,M,M,M,M,M,M,M,M,M,M,M,M,M,M,M,13.69,KP68 140853Z AUTO 33009KT M04/M09 A2972 RMK AO1 SLP068 T10441089 58003,M
DRA,2023-02-14 08:53,-116.0278,36.6206,1009.00,47.00,26.10,43.95,300.00,8.00,0.00,29.64,1001.30,10.00,M,CLR,M,M,M,M,M,M,M,M,M,M,M,M,M,M,42.47,KDRA 140853Z AUTO 30008KT 10SM CLR 08/M03 A2964 RMK AO2 SLP013 T00831033 58003,M
ELY,2023-02-14 08:53,-114.8453,39.2950,1909.00,23.00,12.90,64.75,320.00,5.00,0.00,29.70,1006.00,10.00,M,OVC,M,M,M,4000.00,M,M,M,M,M,M,M,M,M,M,15.71,KELY 140853Z AUTO 32005KT 10SM OVC040 M05/M11 A2970 RMK AO2 SLP060 T10501106 50017,M
LOL,2023-02-14 08:53,-118.5701,40.0684,1192.43,34.00,10.90,37.76,340.00,10.00,0.00,29.82,1010.20,10.00,M,OVC,M,M,M,8000.00,M,M,M,M,M,M,M,M,M,M,25.48,KLOL 140853Z AUTO 34010KT 10SM OVC080 01/M12 A2982 RMK AO2 SLP102 T00111117 58008,M
VGT,2023-02-14 08:53,-115.1933,36.2111,667.00,47.00,28.00,47.54,0.00,0.00,0.00,29.64,1004.60,10.00,M,CLR,M,M,M,M,M,M,M,M,M,M,M,M,M,M,46.90,KVGT 140853Z AUTO 00000KT 10SM CLR 08/M02 A2964 RMK AO2 SLP046 T00831022 58003,M
BVU,2023-02-14 08:55,-114.8611,35.9475,671.00,50.00,30.20,46.31,150.00,17.00,0.00,29.68,M,10.00,24.00,CLR,M,M,M,M,M,M,M,M,M,M,M,M,M,M,50.00,KBVU 140855Z AUTO 15017G24KT 10SM CLR 10/M01 A2968 RMK AO2,M
CXP,2023-02-14 08:55,-119.7326,39.1923,1431.00,32.00,17.60,54.87,330.00,9.00,0.00,29.83,M,10.00,M,OVC,M,M,M,4800.00,M,M,M,M,M,M,M,M,M,M,23.51,KCXP 140855Z AUTO 33009KT 10SM OVC048 M00/M08 A2983 RMK AO2,M
INS,2023-02-14 08:55,-115.6733,36.5872,955.00,34.70,16.00,45.95,0.00,0.00,0.00,29.64,1002.10,10.00,M,CLR,M,M,M,M,M,M,M,M,M,M,M,M,M,M,34.70,KINS 140855Z AUTO 00000KT 10SM CLR 02/M09 A2964 RMK AO2 SLP021 T00151089 57007 $,M
RNO,2023-02-14 08:55,-119.7711,39.4839,1341.00,33.00,15.10,47.10,10.00,10.00,0.00,29.83,1009.30,10.00,M,BKN,BKN,M,M,4800.00,6000.00,M,M,M,M,M,M,M,M,M,24.35,KRNO 140855Z 01010KT 10SM BKN048 BKN060 01/M09 A2983 RMK AO2 SLP093 T00061094 58004,M
RTS,2023-02-14 08:55,-119.8764,39.6682,1539.00,28.40,14.00,54.31,340.00,10.00,0.00,29.84,M,10.00,15.00,BKN,BKN,OVC,M,3900.00,4700.00,5500.00,M,M,M,M,M,M,M,M,18.45,KRTS 140855Z AUTO 34010G15KT 10SM BKN039 BKN047 OVC055 M02/M10 A2984 RMK AO2,M
MEV,2023-02-14 08:55,-119.7500,38.9963,1441.42,30.20,17.60,59.01,20.00,11.00,0.00,29.79,M,10.00,16.00,FEW,SCT,OVC,M,3300.00,4500.00,5000.00,M,M,M,M,M,M,M,M,20.19,KMEV 140855Z AUTO 02011G16KT 10SM FEW033 SCT045 OVC050 M01/M08 A2979 RMK AO2,M
BAM,2023-02-14 08:55,-116.8743,40.5990,1382.36,28.40,21.20,74.08,0.00,0.00,0.00,29.79,M,10.00,M,SCT,BKN,OVC,M,6000.00,7000.00,11000.00,M,M,M,M,M,M,M,M,28.40,KBAM 140855Z AUTO 00000KT 10SM SCT060 BKN070 OVC110 M02/M06 A2979 RMK AO1,M
TMT,2023-02-14 08:55,-117.1971,39.4643,1749.34,25.90,18.00,71.63,320.00,4.00,0.00,29.76,M,10.00,M,OVC,M,M,M,5000.00,M,M,M,M,M,M,M,M,M,M,20.30,KTMT 140855Z AUTO 32004KT 10SM OVC050 M03/M08 A2976 RMK AO2 T10341078,M
LSV,2023-02-14 08:55,-115.0343,36.2362,570.00,M,M,M,M,M,0.00,29.62,M,M,M,M,M,M,M,M,M,M,M,M,M,M,M,M,M,M,M,KLSV 140855Z AUTO M M M M M A2962 RMK AO2 SLPNO ALSTG ESTMD RVRNO FZRANO $,M
EKO,2023-02-14 08:56,-115.7860,40.8242,1367.00,19.00,12.00,73.73,220.00,6.00,0.00,29.74,1009.90,10.00,M,OVC,M,M,M,6500.00,M,M,M,M,M,M,M,M,M,M,9.87,KEKO 140856Z AUTO 22006KT 10SM OVC065 M07/M11 A2974 RMK AO2 SLP099 T10721111 58002,M
NFL,2023-02-14 08:56,-118.7010,39.4166,1199.00,34.00,15.10,45.43,0.00,0.00,0.00,29.82,1007.60,10.00,M,FEW,OVC,M,M,6000.00,8500.00,M,M,M,M,M,M,M,M,M,34.00,KNFL 140856Z AUTO 00000KT 10SM FEW060 OVC085 01/M09 A2982 RMK AO2 SLP076 T00111094 58002,M
HND,2023-02-14 08:56,-115.1344,35.9729,742.79,51.00,28.00,40.63,190.00,14.00,0.00,29.67,1005.60,10.00,M,CLR,M,M,M,M,M,M,M,M,M,M,M,M,M,M,51.10,KHND 140856Z AUTO 19014KT 10SM CLR 11/M02 A2967 RMK AO2 SLP056 T01061022 58001,M
TPH,2023-02-14 08:56,-117.0904,38.0505,1654.00,35.00,17.10,47.43,360.00,10.00,0.00,29.73,1005.00,10.00,M,CLR,M,M,M,M,M,M,M,M,M,M,M,M,M,M,26.86,KTPH 140856Z AUTO 36010KT 10SM CLR 02/M08 A2973 RMK AO2 SLP050 T00171083 53013,M
LAS,2023-02-14 08:56,-115.1634,36.0719,663.00,53.00,28.90,39.16,190.00,9.00,0.00,29.64,1002.70,10.00,16.00,SCT,M,M,M,20000.00,M,M,M,M,M,M,M,M,M,M,53.10,KLAS 140856Z 19009G16KT 10SM SCT200 12/M02 A2964 RMK AO2 SLP027 T01171017 58005,M
LSV,2023-02-14 08:57,-115.0343,36.2362,570.00,51.80,28.40,40.25,120.00,12.00,0.00,29.62,M,10.00,M,FEW,M,M,M,20000.00,M,M,M,M,M,M,M,M,M,M,51.80,KLSV 140857Z 12012KT 10SM FEW200 11/M02 A2962 RMK SLPNO WND DATA ESTMD ALSTG ESTMD $,M
BVU,2023-02-14 09:15,-114.8611,35.9475,671.00,50.00,30.20,46.31,160.00,13.00,0.00,29.68,M,10.00,19.00,CLR,M,M,M,M,M,M,M,M,M,M,M,M,M,M,50.00,KBVU 140915Z AUTO 16013G19KT 10SM CLR 10/M01 A2968 RMK AO2,M
CXP,2023-02-14 09:15,-119.7326,39.1923,1431.00,30.20,17.60,59.01,320.00,8.00,0.00,29.82,M,10.00,M,OVC,M,M,M,5000.00,M,M,M,M,M,M,M,M,M,M,21.90,KCXP 140915Z AUTO 32008KT 10SM OVC050 M01/M08 A2982 RMK AO2,M
RTS,2023-02-14 09:15,-119.8764,39.6682,1539.00,28.40,14.00,54.31,360.00,12.00,0.00,29.83,M,10.00,M,BKN,BKN,OVC,M,3900.00,4500.00,5500.00,M,M,M,M,M,M,M,M,17.42,KRTS 140915Z AUTO 36012KT 10SM BKN039 BKN045 OVC055 M02/M10 A2983 RMK AO2,M
05U,2023-02-14 09:15,-116.0051,39.6042,1811.23,24.80,15.80,68.18,330.00,8.00,0.00,29.74,M,10.00,M,M,M,M,M,M,M,M,M,M,M,M,M,M,M,M,15.24,K05U 140915Z AUTO 33008KT 10SM M04/M09 A2974 RMK A01,M
MEV,2023-02-14 09:15,-119.7500,38.9963,1441.42,30.20,17.60,59.01,30.00,10.00,0.00,29.79,M,10.00,16.00,FEW,BKN,BKN,M,3500.00,4200.00,4900.00,M,M,M,M,M,M,M,M,20.71,KMEV 140915Z AUTO 03010G16KT 10SM FEW035 BKN042 BKN049 M01/M08 A2979 RMK AO2,M
BAM,2023-02-14 09:15,-116.8743,40.5990,1382.36,28.40,21.20,74.08,0.00,0.00,0.00,29.78,M,10.00,M,SCT,BKN,OVC,M,6000.00,7000.00,11000.00,M,M,M,M,M,M,M,M,28.40,KBAM 140915Z AUTO 00000KT 10SM SCT060 BKN070 OVC110 M02/M06 A2978 RMK AO1,M
HTH,2023-02-14 09:15,-118.6315,38.5448,1282.89,33.80,14.00,43.65,330.00,7.00,0.00,29.82,M,10.00,M,FEW,BKN,OVC,M,3200.00,4000.00,6000.00,M,M,M,M,M,M,M,M,26.97,KHTH 140915Z AUTO 33007KT 10SM FEW032 BKN040 OVC060 01/M10 A2982 RMK A01,M
TMT,2023-02-14 09:15,-117.1971,39.4643,1749.34,26.10,16.00,65.16,330.00,4.00,0.00,29.76,M,10.00,M,SCT,OVC,M,M,5000.00,6000.00,M,M,M,M,M,M,M,M,M,20.53,KTMT 140915Z AUTO 33004KT 10SM SCT050 OVC060 M03/M09 A2976 RMK AO2 T10331089,M
BVU,2023-02-14 09:35,-114.8611,35.9475,671.00,48.20,30.20,49.53,160.00,14.00,0.00,29.68,M,10.00,24.00,CLR,M,M,M,M,M,M,M,M,M,M,M,M,M,M,42.04,KBVU 140935Z AUTO 16014G24KT 10SM CLR 09/M01 A2968 RMK AO2,M
CXP,2023-02-14 09:35,-119.7326,39.1923,1431.00,32.00,17.60,54.87,320.00,10.00,0.00,29.82,M,10.00,M,BKN,OVC,M,M,4800.00,5500.00,M,M,M,M,M,M,M,M,M,22.97,KCXP 140935Z AUTO 32010KT 10SM BKN048 OVC055 M00/M08 A2982 RMK AO2,M
RTS,2023-02-14 09:35,-119.8764,39.6682,1539.00,26.60,14.00,58.49,340.00,11.00,0.00,29.84,M,10.00,17.00,BKN,OVC,M,M,3900.00,4800.00,M,M,M,M,M,M,M,M,M,15.64,KRTS 140935Z AUTO 34011G17KT 10SM BKN039 OVC048 M03/M10 A2984 RMK AO2,M
05U,2023-02-14 09:35,-116.0051,39.6042,1811.23,24.80,15.80,68.18,320.00,6.00,0.00,29.73,M,10.00,M,M,M,M,M,M,M,M,M,M,M,M,M,M,M,M,16.86,K05U 140935Z AUTO 32006KT 10SM M04/M09 A2973 RMK A01,M
MEV,2023-02-14 09:35,-119.7500,38.9963,1441.42,30.20,17.60,59.01,50.00,12.00,0.00,29.79,M,10.00,M,SCT,BKN,OVC,M,3600.00,4200.00,4700.00,M,M,M,M,M,M,M,M,19.71,KMEV 140935Z AUTO 05012KT 10SM SCT036 BKN042 OVC047 M01/M08 A2979 RMK AO2,M
BAM,2023-02-14 09:35,-116.8743,40.5990,1382.36,28.40,21.20,74.08,0.00,0.00,0.00,29.77,M,10.00,M,SCT,OVC,M,M,7000.00,11000.00,M,M,M,M,M,M,M,M,M,28.40,KBAM 140935Z AUTO 00000KT 10SM SCT070 OVC110 M02/M06 A2977 RMK AO1,M
HTH,2023-02-14 09:35,-118.6315,38.5448,1282.89,33.80,14.00,43.65,320.00,7.00,0.00,29.81,M,10.00,M,FEW,BKN,OVC,M,3000.00,4000.00,6000.00,M,M,M,M,M,M,M,M,26.97,KHTH 140935Z AUTO 32007KT 10SM FEW030 BKN040 OVC060 01/M10 A2981 RMK A01,M
TMT,2023-02-14 09:35,-117.1971,39.4643,1749.34,25.30,17.10,70.64,330.00,4.00,0.00,29.76,M,10.00,M,OVC,M,M,M,6000.00,M,M,M,M,M,M,M,M,M,M,19.60,KTMT 140935Z AUTO 33004KT 10SM OVC060 M04/M08 A2976 RMK AO2 T10371083,M
P68,2023-02-14 09:53,-116.0056,39.6014,1993.00,23.00,15.10,71.30,320.00,6.00,0.00,29.69,1005.80,M,M,M,M,M,M,M,M,M,M,M,M,M,M,M,M,M,14.69,KP68 140953Z AUTO 32006KT M05/M09 A2969 RMK AO1 SLP058 T10501094,M
DRA,2023-02-14 09:53,-116.0278,36.6206,1009.00,45.00,28.00,51.08,270.00,11.00,0.00,29.63,1001.10,10.00,M,CLR,M,M,M,M,M,M,M,M,M,M,M,M,M,M,38.89,KDRA 140953Z AUTO 27011KT 10SM CLR 07/M02 A2963 RMK AO2 SLP011 T00721022,M
ELY,2023-02-14 09:53,-114.8453,39.2950,1909.00,21.00,12.00,67.71,350.00,6.00,0.00,29.69,1006.20,10.00,M,BKN,OVC,M,M,4200.00,6500.00,M,M,M,M,M,M,M,M,M,12.28,KELY 140953Z AUTO 35006KT 10SM BKN042 OVC065 M06/M11 A2969 RMK AO2 SLP062 T10611111,M
LOL,2023-02-14 09:53,-118.5701,40.0684,1192.43,32.00,14.00,46.92,330.00,6.00,0.00,29.81,1009.70,10.00,M,OVC,M,M,M,7500.00,M,M,M,M,M,M,M,M,M,M,25.53,KLOL 140953Z AUTO 33006KT 10SM OVC075 00/M10 A2981 RMK AO2 SLP097 T00001100,M
VGT,2023-02-14 09:53,-115.1933,36.2111,667.00,47.00,28.00,47.54,100.00,8.00,0.00,29.64,1004.70,10.00,M,CLR,M,M,M,M,M,M,M,M,M,M,M,M,M,M,42.47,KVGT 140953Z AUTO 10008KT 10SM CLR 08/M02 A2964 RMK AO2 SLP047 T00831022,M
BVU,2023-02-14 09:55,-114.8611,35.9475,671.00,48.20,30.20,49.53,M,M,0.00,29.68,M,10.00,M,CLR,M,M,M,M,M,M,M,M,M,M,M,M,M,M,M,KBVU 140955Z AUTO 10/84000011G19KT 10SM CLR 09/M01 A2968 RMK AO2,M
CXP,2023-02-14 09:55,-119.7326,39.1923,1431.00,30.20,15.80,54.59,320.00,7.00,0.00,29.82,M,10.00,15.00,BKN,OVC,M,M,4800.00,6000.00,M,M,M,M,M,M,M,M,M,22.59,KCXP 140955Z AUTO 32007G15KT 10SM BKN048 OVC060 M01/M09 A2982 RMK AO2,M
INS,2023-02-14 09:55,-115.6733,36.5872,955.00,34.30,16.20,47.09,0.00,0.00,0.00,29.65,1002.40,10.00,M,CLR,M,M,M,M,M,M,M,M,M,M,M,M,M,M,34.30,KINS 140955Z AUTO 00000KT 10SM CLR 01/M09 A2965 RMK AO2 SLP024 T00131088 $,M
RNO,2023-02-14 09:55,-119.7711,39.4839,1341.00,32.00,14.00,46.92,360.00,9.00,0.00,29.83,1008.90,10.00,M,BKN,BKN,M,M,4600.00,6000.00,M,M,M,M,M,M,M,M,M,23.51,KRNO 140955Z 36009KT 10SM BKN046 BKN060 00/M10 A2983 RMK AO2 SLP089 T00001100,M
RTS,2023-02-14 09:55,-119.8764,39.6682,1539.00,28.40,14.00,54.31,350.00,10.00,0.00,29.83,M,10.00,M,BKN,OVC,M,M,3800.00,4600.00,M,M,M,M,M,M,M,M,M,18.45,KRTS 140955Z AUTO 35010KT 10SM BKN038 OVC046 M02/M10 A2983 RMK AO2,M
05U,2023-02-14 09:55,-116.0051,39.6042,1811.23,23.00,15.80,73.51,310.00,5.00,0.00,29.72,M,10.00,M,M,M,M,M,M,M,M,M,M,M,M,M,M,M,M,15.71,K05U 140955Z AUTO 31005KT 10SM M05/M09 A2972 RMK A01,M
MEV,2023-02-14 09:55,-119.7500,38.9963,1441.42,30.20,17.60,59.01,20.00,13.00,0.00,29.78,M,10.00,M,SCT,BKN,OVC,M,3500.00,4100.00,4900.00,M,M,M,M,M,M,M,M,19.26,KMEV 140955Z AUTO 02013KT 10SM SCT035 BKN041 OVC049 M01/M08 A2978 RMK AO2,M
BAM,2023-02-14 09:55,-116.8743,40.5990,1382.36,30.20,21.20,68.83,280.00,5.00,0.00,29.76,M,10.00,M,SCT,OVC,M,M,7500.00,11000.00,M,M,M,M,M,M,M,M,M,24.26,KBAM 140955Z AUTO 28005KT 10SM SCT075 OVC110 M01/M06 A2976 RMK AO1,M
HTH,2023-02-14 09:55,-118.6315,38.5448,1282.89,32.00,14.00,46.92,320.00,7.00,0.00,29.81,M,10.00,M,BKN,BKN,M,M,3800.00,5500.00,M,M,M,M,M,M,M,M,M,24.78,KHTH 140955Z AUTO 32007KT 10SM BKN038 BKN055 M00/M10 A2981 RMK A01,M
TMT,2023-02-14 09:55,-117.1971,39.4643,1749.34,24.80,17.40,73.07,360.00,5.00,0.00,29.74,M,10.00,M,OVC,M,M,M,6000.00,M,M,M,M,M,M,M,M,M,M,17.84,KTMT 140955Z AUTO 36005KT 10SM OVC060 M04/M08 A2974 RMK AO2 T10401081,M
EKO,2023-02-14 09:56,-115.7860,40.8242,1367.00,19.00,12.00,73.73,0.00,0.00,0.00,29.72,1009.20,10.00,M,FEW,FEW,M,M,6000.00,8000.00,M,M,M,M,M,M,M,M,M,19.00,KEKO 140956Z AUTO 00000KT 10SM FEW060 FEW080 M07/M11 A2972 RMK AO2 SLP092 T10721111,M
NFL,2023-02-14 09:56,-118.7010,39.4166,1199.00,34.00,15.10,45.43,260.00,4.00,0.00,29.82,1007.40,10.00,M,BKN,OVC,M,M,5500.00,8500.00,M,M,M,M,M,M,M,M,M,29.76,KNFL 140956Z AUTO 26004KT 10SM BKN055 OVC085 01/M09 A2982 RMK AO2 SLP074 T00111094,M
HND,2023-02-14 09:56,-115.1344,35.9729,742.79,50.00,28.90,43.92,180.00,14.00,0.00,29.67,1005.40,10.00,M,CLR,M,M,M,M,M,M,M,M,M,M,M,M,M,M,50.00,KHND 140956Z AUTO 18014KT 10SM CLR 10/M02 A2967 RMK AO2 SLP054 T01001017,M
TPH,2023-02-14 09:56,-117.0904,38.0505,1654.00,32.00,17.10,53.70,350.00,8.00,0.00,29.72,1005.10,10.00,M,CLR,M,M,M,M,M,M,M,M,M,M,M,M,M,M,24.11,KTPH 140956Z AUTO 35008KT 10SM CLR 00/M08 A2972 RMK AO2 SLP051 T00001083,M
LAS,2023-02-14 09:56,-115.1634,36.0719,663.00,53.00,28.90,39.16,200.00,12.00,0.00,29.64,1002.60,10.00,22.00,BKN,M,M,M,21000.00,M,M,M,M,M,M,M,M,M,M,53.10,KLAS 140956Z 20012G22KT 10SM BKN210 12/M02 A2964 RMK AO2 SLP026 T01171017,M
LSV,2023-02-14 09:57,-115.0343,36.2362,570.00,51.80,30.20,43.32,150.00,10.00,0.00,29.62,1002.00,10.00,18.00,FEW,M,M,M,20000.00,M,M,M,M,M,M,M,M,M,M,51.80,KLSV 140957Z 15010G18KT 10SM FEW200 11/M01 A2962 RMK A02A SLP020 WND DATA ESTMD SLP020 $,M
BVU,2023-02-14 10:15,-114.8611,35.9475,671.00,48.20,30.20,49.53,160.00,12.00,0.00,29.67,M,10.00,20.00,CLR,M,M,M,M,M,M,M,M,M,M,M,M,M,M,42.62,KBVU 141015Z AUTO 16012G20KT 10SM CLR 09/M01 A2967 RMK AO2,M
CXP,2023-02-14 10:15,-119.7326,39.1923,1431.00,30.20,15.80,54.59,320.00,14.00,0.00,29.81,M,10.00,M,BKN,OVC,M,M,4900.00,6000.00,M,M,M,M,M,M,M,M,M,18.84,KCXP 141015Z AUTO 32014KT 10SM BKN049 OVC060 M01/M09 A2981 RMK AO2,M
RTS,2023-02-14 10:15,-119.8764,39.6682,1539.00,28.40,12.20,50.17,350.00,10.00,0.00,29.83,M,10.00,M,OVC,M,M,M,3900.00,M,M,M,M,M,M,M,M,M,M,18.45,KRTS 141015Z AUTO 35010KT 10SM OVC039 M02/M11 A2983 RMK AO2,M
05U,2023-02-14 10:15,-116.0051,39.6042,1811.23,23.00,15.80,73.51,330.00,4.00,0.00,29.72,M,10.00,M,M,M,M,M,M,M,M,M,M,M,M,M,M,M,M,16.91,K05U 141015Z AUTO 33004KT 10SM M05/M09 A2972 RMK A01,M
MEV,2023-02-14 10:15,-119.7500,38.9963,1441.42,30.20,17.60,59.01,30.00,13.00,0.00,29.78,M,10.00,20.00,FEW,BKN,BKN,M,3500.00,4300.00,5000.00,M,M,M,M,M,M,M,M,19.26,KMEV 141015Z AUTO 03013G20KT 10SM FEW035 BKN043 BKN050 M01/M08 A2978 RMK AO2,M
BAM,2023-02-14 10:15,-116.8743,40.5990,1382.36,30.20,19.40,63.75,340.00,5.00,0.00,29.76,M,10.00,M,BKN,OVC,M,M,7500.00,10000.00,M,M,M,M,M,M,M,M,M,24.26,KBAM 141015Z AUTO 34005KT 10SM BKN075 OVC100 M01/M07 A2976 RMK AO1,M
HTH,2023-02-14 10:15,-118.6315,38.5448,1282.89,32.00,14.00,46.92,320.00,5.00,0.00,29.80,M,10.00,M,BKN,BKN,OVC,M,4000.00,4500.00,7000.00,M,M,M,M,M,M,M,M,26.40,KHTH 141015Z AUTO 32005KT 10SM BKN040 BKN045 OVC070 M00/M10 A2980 RMK A01,M
TMT,2023-02-14 10:15,-117.1971,39.4643,1749.34,24.80,17.40,73.07,340.00,4.00,0.00,29.74,M,10.00,M,OVC,M,M,M,6000.00,M,M,M,M,M,M,M,M,M,M,19.01,KTMT 141015Z AUTO 34004KT 10SM OVC060 M04/M08 A2974 RMK AO2 T10401081,M
BVU,2023-02-14 10:35,-114.8611,35.9475,671.00,48.20,32.00,53.27,170.00,17.00,0.00,29.66,M,10.00,22.00,CLR,M,M,M,M,M,M,M,M,M,M,M,M,M,M,41.30,KBVU 141035Z AUTO 17017G22KT 10SM CLR 09/M00 A2966 RMK AO2,M
CXP,2023-02-14 10:35,-119.7326,39.1923,1431.00,30.20,15.80,54.59,330.00,10.00,0.00,29.81,M,10.00,16.00,BKN,OVC,M,M,5000.00,6000.00,M,M,M,M,M,M,M,M,M,20.71,KCXP 141035Z AUTO 33010G16KT 10SM BKN050 OVC060 M01/M09 A2981 RMK AO2,M
RTS,2023-02-14 10:35,-119.8764,39.6682,1539.00,28.40,14.00,54.31,350.00,10.00,0.00,29.83,M,10.00,M,OVC,M,M,M,4100.00,M,M,M,M,M,M,M,M,M,M,18.45,KRTS 141035Z AUTO 35010KT 10SM OVC041 M02/M10 A2983 RMK AO2,M
05U,2023-02-14 10:35,-116.0051,39.6042,1811.23,23.00,14.00,67.96,340.00,5.00,0.00,29.71,M,10.00,M,M,M,M,M,M,M,M,M,M,M,M,M,M,M,M,15.71,K05U 141035Z AUTO 34005KT 10SM M05/M10 A2971 RMK A01,M
MEV,2023-02-14 10:35,-119.7500,38.9963,1441.42,30.20,17.60,59.01,20.00,15.00,0.00,29.77,M,10.00,22.00,BKN,BKN,BKN,M,3900.00,4600.00,5500.00,M,M,M,M,M,M,M,M,18.45,KMEV 141035Z AUTO 02015G22KT 10SM BKN039 BKN046 BKN055 M01/M08 A2977 RMK AO2,M
BAM,2023-02-14 10:35,-116.8743,40.5990,1382.36,30.20,19.40,63.75,310.00,4.00,0.00,29.76,M,10.00,M,SCT,OVC,M,M,6000.00,7500.00,M,M,M,M,M,M,M,M,M,25.32,KBAM 141035Z AUTO 31004KT 10SM SCT060 OVC075 M01/M07 A2976 RMK AO1,M
HTH,2023-02-14 10:35,-118.6315,38.5448,1282.89,30.20,15.80,54.59,310.00,5.00,0.00,29.79,M,10.00,M,BKN,OVC,M,M,3900.00,4400.00,M,M,M,M,M,M,M,M,M,24.26,KHTH 141035Z AUTO 31005KT 10SM BKN039 OVC044 M01/M09 A2979 RMK A01,M
TMT,2023-02-14 10:35,-117.1971,39.4643,1749.34,24.40,17.40,74.30,330.00,3.00,0.00,29.73,M,10.00,M,OVC,M,M,M,6000.00,M,M,M,M,M,M,M,M,M,M,20.00,KTMT 141035Z AUTO 33003KT 10SM OVC060 M04/M08 A2973 RMK AO2 T10421081,M
HTH,2023-02-14 10:50,-118.6315,38.5448,1282.89,30.20,15.80,54.59,300.00,6.00,0.00,29.79,M,10.00,M,BKN,OVC,M,M,3700.00,4400.00,M,M,M,M,M,M,M,M,M,23.36,KHTH 141050Z AUTO 30006KT 10SM BKN037 OVC044 M01/M09 A2979 RMK A01,M
P68,2023-02-14 10:53,-116.0056,39.6014,1993.00,19.90,12.90,73.83,340.00,7.00,0.00,29.68,1005.50,M,M,M,M,M,M,M,M,M,M,M,M,M,M,M,M,M,10.03,KP68 141053Z AUTO 34007KT M07/M11 A2968 RMK AO1 SLP055 T10671106,M
DRA,2023-02-14 10:53,-116.0278,36.6206,1009.00,45.00,28.90,53.00,240.00,8.00,0.00,29.64,1001.50,10.00,M,CLR,M,M,M,M,M,M,M,M,M,M,M,M,M,M,40.13,KDRA 141053Z AUTO 24008KT 10SM CLR 07/M02 A2964 RMK AO2 SLP015 T00721017,M
ELY,2023-02-14 10:53,-114.8453,39.2950,1909.00,19.00,10.00,67.46,290.00,5.00,0.00,29.65,1005.30,10.00,M,BKN,M,M,M,7000.00,M,M,M,M,M,M,M,M,M,M,10.96,KELY 141053Z AUTO 29005KT 10SM BKN070 M07/M12 A2965 RMK AO2 SLP053 T10721122,M
VGT,2023-02-14 10:53,-115.1933,36.2111,667.00,45.00,28.00,51.08,330.00,4.00,0.00,29.63,1004.40,10.00,M,CLR,M,M,M,M,M,M,M,M,M,M,M,M,M,M,42.60,KVGT 141053Z AUTO 33004KT 10SM CLR 07/M02 A2963 RMK AO2 SLP044 T00721022,M
LOL,2023-02-14 10:53,-118.5701,40.0684,1192.43,32.00,10.90,40.92,330.00,18.00,0.00,29.81,1009.60,7.00,26.00,FEW,OVC,M,M,6000.00,8000.00,M,M,M,M,M,M,26.00,310.00,2023-02-14 10:49,19.75,KLOL 141053Z AUTO 33018G26KT 7SM FEW060 OVC080 00/M12 A2981 RMK AO2 PK WND 31026/1049 SLP096 T00001117,M
BVU,2023-02-14 10:55,-114.8611,35.9475,671.00,48.20,32.00,53.27,160.00,15.00,0.00,29.66,M,10.00,22.00,CLR,M,M,M,M,M,M,M,M,M,M,M,M,M,M,41.78,KBVU 141055Z AUTO 16015G22KT 10SM CLR 09/M00 A2966 RMK AO2,M
CXP,2023-02-14 10:55,-119.7326,39.1923,1431.00,30.20,15.80,54.59,340.00,9.00,0.00,29.81,M,10.00,16.00,BKN,OVC,M,M,5000.00,6500.00,M,M,M,M,M,M,M,M,M,21.28,KCXP 141055Z AUTO 34009G16KT 10SM BKN050 OVC065 M01/M09 A2981 RMK AO2,M
INS,2023-02-14 10:55,-115.6733,36.5872,955.00,32.50,16.00,50.18,240.00,5.00,0.00,29.65,1002.60,10.00,M,CLR,M,M,M,M,M,M,M,M,M,M,M,M,M,M,26.99,KINS 141055Z AUTO 24005KT 10SM CLR 00/M09 A2965 RMK AO2 SLP026 T00031089 $,M
RNO,2023-02-14 10:55,-119.7711,39.4839,1341.00,32.00,14.00,46.92,350.00,12.00,0.00,29.83,1008.50,10.00,M,BKN,OVC,M,M,4300.00,6000.00,M,M,M,M,M,M,M,M,M,22.00,KRNO 141055Z 35012KT 10SM BKN043 OVC060 00/M10 A2983 RMK AO2 SLP085 T00001100,M
RTS,2023-02-14 10:55,-119.8764,39.6682,1539.00,26.60,14.00,58.49,350.00,23.00,0.00,29.83,M,10.00,28.00,OVC,M,M,M,4200.00,M,M,M,M,M,M,M,M,M,M,11.06,KRTS 141055Z AUTO 35023G28KT 10SM OVC042 M03/M10 A2983 RMK AO2,M
05U,2023-02-14 10:55,-116.0051,39.6042,1811.23,21.20,12.20,67.73,340.00,7.00,0.00,29.70,M,10.00,M,M,M,M,M,M,M,M,M,M,M,M,M,M,M,M,11.61,K05U 141055Z AUTO 34007KT 10SM M06/M11 A2970 RMK A01,M
MEV,2023-02-14 10:55,-119.7500,38.9963,1441.42,30.20,17.60,59.01,40.00,10.00,0.00,29.77,M,10.00,18.00,BKN,BKN,BKN,M,3900.00,4800.00,8000.00,M,M,M,M,M,M,M,M,20.71,KMEV 141055Z AUTO 04010G18KT 360V060 10SM BKN039 BKN048 BKN080 M01/M08 A2977 RMK AO2,M
BAM,2023-02-14 10:55,-116.8743,40.5990,1382.36,32.00,19.40,59.27,310.00,5.00,0.00,29.75,M,10.00,M,SCT,OVC,M,M,5500.00,7000.00,M,M,M,M,M,M,M,M,M,26.40,KBAM 141055Z AUTO 31005KT 10SM SCT055 OVC070 00/M07 A2975 RMK AO1,M
TMT,2023-02-14 10:55,-117.1971,39.4643,1749.34,24.60,16.70,71.49,330.00,6.00,0.00,29.72,M,10.00,M,SCT,OVC,M,M,4900.00,6000.00,M,M,M,M,M,M,M,M,M,16.62,KTMT 141055Z AUTO 33006KT 10SM SCT049 OVC060 M04/M08 A2972 RMK AO2 T10411085,M
EKO,2023-02-14 10:56,-115.7860,40.8242,1367.00,19.90,14.00,77.48,0.00,0.00,0.00,29.70,1007.50,10.00,M,SCT,OVC,M,M,7000.00,11000.00,M,M,M,M,M,M,M,M,M,19.90,KEKO 141056Z AUTO 00000KT 10SM SCT070 OVC110 M07/M10 A2970 RMK AO2 SLP075 T10671100,M
NFL,2023-02-14 10:56,-118.7010,39.4166,1199.00,34.00,14.00,43.30,350.00,6.00,0.00,29.80,1006.90,10.00,M,OVC,M,M,M,6000.00,M,M,M,M,M,M,M,M,M,M,27.94,KNFL 141056Z AUTO 35006KT 10SM OVC060 01/M10 A2980 RMK AO2 SLP069 T00111100,M
HND,2023-02-14 10:56,-115.1344,35.9729,742.79,50.00,28.90,43.92,190.00,16.00,0.00,29.64,1004.60,10.00,20.00,CLR,M,M,M,M,M,M,M,M,M,M,M,M,M,M,50.00,KHND 141056Z AUTO 19016G20KT 10SM CLR 10/M02 A2964 RMK AO2 SLP046 T01001017,M
TPH,2023-02-14 10:56,-117.0904,38.0505,1654.00,30.00,16.00,55.52,350.00,7.00,0.00,29.70,1004.30,10.00,M,CLR,M,M,M,M,M,M,M,M,M,M,M,M,M,M,22.34,KTPH 141056Z AUTO 35007KT 10SM CLR M01/M09 A2970 RMK AO2 SLP043 T10111089,M
LAS,2023-02-14 10:56,-115.1634,36.0719,663.00,51.00,28.90,42.16,190.00,9.00,0.00,29.63,1002.30,10.00,16.00,BKN,M,M,M,22000.00,M,M,M,M,M,M,M,M,M,M,51.10,KLAS 141056Z 19009G16KT 10SM BKN220 11/M02 A2963 RMK AO2 SLP023 T01061017,M
LSV,2023-02-14 10:57,-115.0343,36.2362,570.00,50.00,30.20,46.31,150.00,12.00,0.00,29.61,M,10.00,M,SCT,M,M,M,20000.00,M,M,M,M,M,M,M,M,M,M,50.00,KLSV 141057Z 15012KT 10SM SCT200 10/M01 A2961 RMK A02A SLPNO WND DATA ESTMD ALSTG ESTMD $,M
BVU,2023-02-14 11:15,-114.8611,35.9475,671.00,48.20,32.00,53.27,170.00,16.00,0.00,29.66,M,10.00,22.00,CLR,M,M,M,M,M,M,M,M,M,M,M,M,M,M,41.53,KBVU 141115Z AUTO 17016G22KT 10SM CLR 09/M00 A2966 RMK AO2,M
CXP,2023-02-14 11:15,-119.7326,39.1923,1431.00,30.20,15.80,54.59,330.00,12.00,0.00,29.82,M,10.00,17.00,OVC,M,M,M,5500.00,M,M,M,M,M,M,M,M,M,M,19.71,KCXP 141115Z AUTO 33012G17KT 10SM OVC055 M01/M09 A2982 RMK AO2,M
RTS,2023-02-14 11:15,-119.8764,39.6682,1539.00,26.60,14.00,58.49,330.00,15.00,0.00,29.84,M,10.00,25.00,OVC,M,M,M,4400.00,M,M,M,M,M,M,M,M,M,M,13.78,KRTS 141115Z AUTO 33015G25KT 10SM OVC044 M03/M10 A2984 RMK AO2,M
05U,2023-02-14 11:15,-116.0051,39.6042,1811.23,17.60,12.20,79.00,350.00,6.00,0.00,29.69,M,10.00,M,M,M,M,M,M,M,M,M,M,M,M,M,M,M,M,8.19,K05U 141115Z AUTO 35006KT 10SM M08/M11 A2969 RMK A01,M
MEV,2023-02-14 11:15,-119.7500,38.9963,1441.42,30.20,15.80,54.59,10.00,20.00,0.00,29.76,M,10.00,26.00,SCT,SCT,OVC,M,3700.00,5000.00,6500.00,M,M,M,M,M,M,M,M,16.75,KMEV 141115Z AUTO 01020G26KT 10SM SCT037 SCT050 OVC065 M01/M09 A2976 RMK AO2,M
BAM,2023-02-14 11:15,-116.8743,40.5990,1382.36,30.20,19.40,63.75,330.00,3.00,0.00,29.74,M,10.00,M,SCT,OVC,M,M,7000.00,8500.00,M,M,M,M,M,M,M,M,M,26.63,KBAM 141115Z AUTO 33003KT 10SM SCT070 OVC085 M01/M07 A2974 RMK AO1,M
HTH,2023-02-14 11:15,-118.6315,38.5448,1282.89,30.20,15.80,54.59,320.00,9.00,0.00,29.78,M,10.00,M,BKN,OVC,M,M,3700.00,4300.00,M,M,M,M,M,M,M,M,M,21.28,KHTH 141115Z AUTO 32009KT 10SM BKN037 OVC043 M01/M09 A2978 RMK A01,M
TMT,2023-02-14 11:15,-117.1971,39.4643,1749.34,24.80,14.50,64.42,310.00,9.00,0.00,29.72,M,10.00,M,OVC,M,M,M,5000.00,M,M,M,M,M,M,M,M,M,M,14.56,KTMT 141115Z AUTO 31009KT 10SM OVC050 M04/M10 A2972 RMK AO2 T10401097,M
CXP,2023-02-14 11:30,-119.7326,39.1923,1431.00,30.20,14.00,50.47,330.00,10.00,0.00,29.82,M,10.00,M,BKN,OVC,M,M,5500.00,6000.00,M,M,M,M,M,M,M,M,M,20.71,KCXP 141130Z AUTO 33010KT 10SM BKN055 OVC060 M01/M10 A2982 RMK AO2,M
BVU,2023-02-14 11:35,-114.8611,35.9475,671.00,48.20,32.00,53.27,160.00,19.00,0.00,29.66,M,10.00,M,CLR,M,M,M,M,M,M,M,M,M,M,M,M,M,M,40.86,KBVU 141135Z AUTO 16019KT 10SM CLR 09/M00 A2966 RMK AO2,M
RTS,2023-02-14 11:35,-119.8764,39.6682,1539.00,26.60,12.20,54.03,330.00,17.00,0.00,29.85,M,10.00,25.00,OVC,M,M,M,4400.00,M,M,M,M,M,M,M,M,M,M,13.00,KRTS 141135Z AUTO 33017G25KT 10SM OVC044 M03/M11 A2985 RMK AO2,M
05U,2023-02-14 11:35,-116.0051,39.6042,1811.23,21.20,12.20,67.73,350.00,4.00,0.00,29.69,M,10.00,M,M,M,M,M,M,M,M,M,M,M,M,M,M,M,M,14.81,K05U 141135Z AUTO 35004KT 10SM M06/M11 A2969 RMK A01,M
MEV,2023-02-14 11:35,-119.7500,38.9963,1441.42,28.40,15.80,58.75,10.00,18.00,0.00,29.77,M,10.00,30.00,FEW,SCT,BKN,M,3200.00,4700.00,6500.00,M,M,M,M,M,M,M,M,15.01,KMEV 141135Z AUTO 01018G30KT 10SM FEW032 SCT047 BKN065 M02/M09 A2977 RMK AO2,M
BAM,2023-02-14 11:35,-116.8743,40.5990,1382.36,30.20,19.40,63.75,0.00,0.00,0.00,29.73,M,10.00,M,OVC,M,M,M,8500.00,M,M,M,M,M,M,M,M,M,M,30.20,KBAM 141135Z AUTO 00000KT 10SM OVC085 M01/M07 A2973 RMK AO1,M
HTH,2023-02-14 11:35,-118.6315,38.5448,1282.89,30.20,15.80,54.59,320.00,9.00,0.00,29.78,M,10.00,M,SCT,BKN,OVC,M,3900.00,4400.00,7000.00,M,M,M,M,M,M,M,M,21.28,KHTH 141135Z AUTO 32009KT 10SM SCT039 BKN044 OVC070 M01/M09 A2978 RMK A01,M
TMT,2023-02-14 11:35,-117.1971,39.4643,1749.34,24.80,13.60,61.93,320.00,7.00,0.00,29.71,M,10.00,M,SCT,OVC,M,M,4800.00,5000.00,M,M,M,M,M,M,M,M,M,16.00,KTMT 141135Z AUTO 32007KT 10SM SCT048 OVC050 M04/M10 A2971 RMK AO2 T10401102,M
CXP,2023-02-14 11:50,-119.7326,39.1923,1431.00,30.20,15.80,54.59,350.00,9.00,0.00,29.83,M,10.00,19.00,BKN,BKN,OVC,M,5000.00,6000.00,8000.00,M,M,M,M,M,M,M,M,21.28,KCXP 141150Z AUTO 35009G19KT 10SM BKN050 BKN060 OVC080 M01/M09 A2983 RMK AO2,M
P68,2023-02-14 11:53,-116.0056,39.6014,1993.00,19.90,12.90,73.83,360.00,4.00,0.00,29.67,1004.80,M,M,M,M,M,M,M,M,M,M,M,M,M,M,M,M,M,13.29,KP68 141153Z AUTO 36004KT M07/M11 A2967 RMK AO1 SLP048 T10671106 11028 21078 56016,M
DRA,2023-02-14 11:53,-116.0278,36.6206,1009.00,40.00,24.10,52.88,0.00,0.00,0.00,29.65,1002.00,10.00,M,CLR,M,M,M,M,M,M,M,M,M,M,M,M,M,M,39.90,KDRA 141153Z AUTO 00000KT 10SM CLR 04/M04 A2965 RMK AO2 SLP020 T00441044 10117 20044 53002,M
ELY,2023-02-14 11:53,-114.8453,39.2950,1909.00,18.00,10.00,70.41,300.00,7.00,0.00,29.64,1005.00,10.00,M,OVC,M,M,M,7500.00,M,M,M,M,M,M,M,M,M,M,7.71,KELY 141153Z AUTO 30007KT 10SM OVC075 M08/M12 A2964 RMK AO2 SLP050 T10781122 11017 21083 58016,M
VGT,2023-02-14 11:53,-115.1933,36.2111,667.00,45.00,28.90,53.00,0.00,0.00,0.00,29.62,1004.20,10.00,M,CLR,M,M,M,M,M,M,M,M,M,M,M,M,M,M,45.00,KVGT 141153Z AUTO 00000KT 10SM CLR 07/M02 A2962 RMK AO2 SLP042 T00721017 10100 20067 58004,M
LOL,2023-02-14 11:53,-118.5701,40.0684,1192.43,30.00,12.90,48.48,300.00,17.00,0.00,29.81,1009.50,10.00,23.00,OVC,M,M,M,9500.00,M,M,M,M,M,M,M,27.00,310.00,2023-02-14 11:18,17.46,KLOL 141153Z AUTO 30017G23KT 10SM OVC095 M01/M11 A2981 RMK AO2 PK WND 31027/1118 SLP095 T10111106 10017 21011 56005,M
BVU,2023-02-14 11:55,-114.8611,35.9475,671.00,46.40,32.00,57.00,160.00,13.00,0.00,29.66,M,10.00,21.00,CLR,M,M,M,M,M,M,M,M,M,M,M,M,M,M,40.02,KBVU 141155Z AUTO 16013G21KT 10SM CLR 08/00 A2966 RMK AO2,M
INS,2023-02-14 11:55,-115.6733,36.5872,955.00,33.30,17.60,52.07,0.00,0.00,0.00,29.65,1002.60,10.00,M,CLR,M,M,M,M,M,M,M,M,M,M,M,M,M,M,33.30,KINS 141155Z AUTO 00000KT 10SM CLR 01/M08 A2965 RMK AO2 SLP026 T00071080 10060 20002 50001 $,M
RNO,2023-02-14 11:55,-119.7711,39.4839,1341.00,30.00,15.10,53.38,350.00,21.00,0.00,29.85,1009.30,10.00,28.00,OVC,M,M,M,4500.00,M,M,M,M,M,M,M,30.00,350.00,2023-02-14 11:28,16.19,KRNO 141155Z 35021G28KT 10SM OVC045 M01/M09 A2985 RMK AO2 PK WND 35030/1128 SLP093 T10111094 10017 21011 53004,M
RTS,2023-02-14 11:55,-119.8764,39.6682,1539.00,24.80,14.00,63.03,340.00,16.00,0.00,29.85,M,10.00,25.00,OVC,M,M,M,4500.00,M,M,M,M,M,M,M,M,M,M,11.03,KRTS 141155Z AUTO 34016G25KT 10SM OVC045 M04/M10 A2985 RMK AO2,M
05U,2023-02-14 11:55,-116.0051,39.6042,1811.23,21.20,14.00,73.32,360.00,4.00,0.00,29.69,M,10.00,M,M,M,M,M,M,M,M,M,M,M,M,M,M,M,M,14.81,K05U 141155Z AUTO 36004KT 10SM M06/M10 A2969 RMK A01,M
MEV,2023-02-14 11:55,-119.7500,38.9963,1441.42,28.40,15.80,58.75,350.00,21.00,0.00,29.78,M,10.00,26.00,FEW,SCT,BKN,M,3300.00,4100.00,6000.00,M,M,M,M,M,M,M,M,14.05,KMEV 141155Z AUTO 35021G26KT 10SM FEW033 SCT041 BKN060 M02/M09 A2978 RMK AO2,M
BAM,2023-02-14 11:55,-116.8743,40.5990,1382.36,28.40,19.40,68.61,240.00,3.00,0.00,29.73,M,10.00,M,OVC,M,M,M,11000.00,M,M,M,M,M,M,M,M,M,M,24.57,KBAM 141155Z AUTO 24003KT 10SM OVC110 M02/M07 A2973 RMK AO1,M
HTH,2023-02-14 11:55,-118.6315,38.5448,1282.89,30.20,15.80,54.59,310.00,8.00,0.00,29.79,M,10.00,M,FEW,OVC,M,M,4500.00,6500.00,M,M,M,M,M,M,M,M,M,21.90,KHTH 141155Z AUTO 31008KT 10SM FEW045 OVC065 M01/M09 A2979 RMK A01,M
TMT,2023-02-14 11:55,-117.1971,39.4643,1749.34,22.80,16.70,77.08,340.00,10.00,0.00,29.73,M,10.00,M,SCT,SCT,OVC,M,3900.00,5000.00,6000.00,M,M,M,M,M,M,M,M,11.43,KTMT 141155Z AUTO 34010KT 10SM SCT039 SCT050 OVC060 M05/M08 A2973 RMK AO2 T10511085 11020 21051,M
EKO,2023-02-14 11:56,-115.7860,40.8242,1367.00,21.00,12.00,67.71,0.00,0.00,0.00,29.67,1006.30,10.00,M,OVC,M,M,M,10000.00,M,M,M,M,M,M,M,M,M,M,21.00,KEKO 141156Z AUTO 00000KT 10SM OVC100 M06/M11 A2967 RMK AO2 SLP063 T10611111 11028 21072 58019,M
NFL,2023-02-14 11:56,-118.7010,39.4166,1199.00,33.00,12.00,41.10,330.00,17.00,0.00,29.82,1007.60,10.00,27.00,OVC,M,M,M,6000.00,M,M,M,M,M,M,M,30.00,320.00,2023-02-14 11:42,21.52,KNFL 141156Z AUTO 33017G27KT 10SM OVC060 01/M11 A2982 RMK AO2 PK WND 32030/1142 SLP076 T00061111 10028 20006 55000,M
TPH,2023-02-14 11:56,-117.0904,38.0505,1654.00,28.00,12.90,52.61,10.00,6.00,0.00,29.69,1004.10,10.00,M,CLR,M,M,M,M,M,M,M,M,M,M,M,M,M,M,20.71,KTPH 141156Z AUTO 01006KT 10SM CLR M02/M11 A2969 RMK AO2 SLP041 T10221106 10050 21022 58013,M
HND,2023-02-14 11:56,-115.1344,35.9729,742.79,49.00,28.90,45.75,200.00,16.00,0.00,29.64,1004.60,10.00,M,CLR,M,M,M,M,M,M,M,M,M,M,M,M,M,M,42.45,KHND 141156Z AUTO 20016KT 10SM CLR 09/M02 A2964 RMK AO2 SLP046 T00941017 10128 20094 56009,M
LAS,2023-02-14 11:56,-115.1634,36.0719,663.00,47.00,28.90,49.32,260.00,5.00,0.00,29.64,1002.80,10.00,M,BKN,M,M,M,22000.00,M,M,M,M,M,M,M,M,M,M,44.09,KLAS 141156Z 26005KT 10SM BKN220 08/M02 A2964 RMK AO2 SLP028 T00831017 10133 20083 55001,M
LSV,2023-02-14 11:57,-115.0343,36.2362,570.00,50.00,33.80,53.54,160.00,12.00,0.00,29.60,M,10.00,M,SCT,M,M,M,20000.00,M,M,M,M,M,M,M,M,M,M,50.00,KLSV 141157Z 16012KT 10SM SCT200 10/01 A2960 RMK A02A SLPNO WND DATA ESMTD ALSTG ESTMD 10138 20096 $,M
LOL,2023-02-14 12:07,-118.5701,40.0684,1192.43,28.90,14.00,53.21,320.00,25.00,0.00,29.82,M,2.00,31.00,FEW,SCT,OVC,M,300.00,9000.00,11000.00,M,HZ,M,M,M,31.00,330.00,2023-02-14 12:07,13.62,KLOL 141207Z AUTO 32025G31KT 2SM HZ FEW003 SCT090 OVC110 M02/M10 A2982 RMK AO2 PK WND 33031/1207 T10171100,M
BVU,2023-02-14 12:15,-114.8611,35.9475,671.00,46.40,32.00,57.00,150.00,14.00,0.00,29.66,M,10.00,M,FEW,M,M,M,4700.00,M,M,M,M,M,M,M,M,M,M,39.72,KBVU 141215Z AUTO 15014KT 10SM FEW047 08/00 A2966 RMK AO2,M
CXP,2023-02-14 12:15,-119.7326,39.1923,1431.00,28.40,14.00,54.31,350.00,17.00,0.00,29.83,M,10.00,26.00,FEW,FEW,OVC,M,5000.00,6500.00,7500.00,M,UP,M,M,M,M,M,M,15.36,KCXP 141215Z AUTO 35017G26KT 10SM UP FEW050 FEW065 OVC075 M02/M10 A2983 RMK AO2,M
RTS,2023-02-14 12:15,-119.8764,39.6682,1539.00,24.80,12.20,58.22,350.00,24.00,0.00,29.85,M,10.00,29.00,OVC,M,M,M,4900.00,M,M,M,M,M,M,M,M,M,M,8.35,KRTS 141215Z AUTO 35024G29KT 10SM OVC049 M04/M11 A2985 RMK AO2,M
05U,2023-02-14 12:15,-116.0051,39.6042,1811.23,21.20,15.80,79.31,350.00,4.00,0.00,29.68,M,6.00,M,M,M,M,M,M,M,M,M,HZ,M,M,M,M,M,M,14.81,K05U 141215Z AUTO 35004KT 6SM HZ M06/M09 A2968 RMK A01,M
MEV,2023-02-14 12:15,-119.7500,38.9963,1441.42,28.40,15.80,58.75,360.00,21.00,0.00,29.80,M,10.00,M,FEW,SCT,OVC,M,3800.00,4500.00,6000.00,M,M,M,M,M,M,M,M,14.05,KMEV 141215Z AUTO 36021KT 10SM FEW038 SCT045 OVC060 M02/M09 A2980 RMK AO2,M
BAM,2023-02-14 12:15,-116.8743,40.5990,1382.36,28.40,19.40,68.61,0.00,0.00,0.00,29.73,M,10.00,M,SCT,OVC,M,M,5000.00,11000.00,M,M,M,M,M,M,M,M,M,28.40,KBAM 141215Z AUTO 00000KT 10SM SCT050 OVC110 M02/M07 A2973 RMK AO1,M
HTH,2023-02-14 12:15,-118.6315,38.5448,1282.89,30.20,14.00,50.47,330.00,8.00,0.00,29.79,M,10.00,M,FEW,BKN,OVC,M,4800.00,6500.00,7500.00,M,M,M,M,M,M,M,M,21.90,KHTH 141215Z AUTO 33008KT 10SM FEW048 BKN065 OVC075 M01/M10 A2979 RMK A01,M
TMT,2023-02-14 12:15,-117.1971,39.4643,1749.34,22.10,17.20,81.13,350.00,10.00,0.00,29.73,M,10.00,M,SCT,OVC,M,M,5000.00,6000.00,M,M,M,M,M,M,M,M,M,10.55,KTMT 141215Z AUTO 35010KT 10SM SCT050 OVC060 M05/M08 A2973 RMK AO2 T10551082,M
LOL,2023-02-14 12:22,-118.5701,40.0684,1192.43,28.00,16.00,60.25,330.00,25.00,0.00,29.83,M,7.00,30.00,FEW,BKN,M,M,3900.00,11000.00,M,M,M,M,M,M,31.00,330.00,2023-02-14 12:07,12.40,KLOL 141222Z AUTO 33025G30KT 7SM FEW039 BKN110 M02/M09 A2983 RMK AO2 PK WND 33031/1207 T10221089,M
BVU,2023-02-14 12:35,-114.8611,35.9475,671.00,48.20,32.00,53.27,170.00,11.00,0.00,29.67,M,10.00,24.00,FEW,M,M,M,4800.00,M,M,M,M,M,M,M,M,M,M,42.94,KBVU 141235Z AUTO 17011G24KT 10SM FEW048 09/00 A2967 RMK AO2,M
CXP,2023-02-14 12:35,-119.7326,39.1923,1431.00,28.40,15.80,58.75,350.00,25.00,0.00,29.83,M,7.00,31.00,BKN,OVC,M,M,6500.00,7500.00,M,M,UP,M,M,M,M,M,M,12.94,KCXP 141235Z AUTO 35025G31KT 7SM UP BKN065 OVC075 M02/M09 A2983 RMK AO2,M
RTS,2023-02-14 12:35,-119.8764,39.6682,1539.00,23.00,8.60,53.47,350.00,26.00,0.00,29.85,M,10.00,35.00,BKN,OVC,M,M,5500.00,6500.00,M,M,M,M,M,M,M,M,M,5.35,KRTS 141235Z AUTO 35026G35KT 10SM BKN055 OVC065 M05/M13 A2985 RMK AO2,M
05U,2023-02-14 12:35,-116.0051,39.6042,1811.23,21.20,15.80,79.31,0.00,0.00,0.00,29.69,M,5.00,M,M,M,M,M,M,M,M,M,HZ,M,M,M,M,M,M,21.20,K05U 141235Z AUTO 00000KT 5SM HZ M06/M09 A2969 RMK A01,M
MEV,2023-02-14 12:35,-119.7500,38.9963,1441.42,28.40,15.80,58.75,10.00,16.00,0.00,29.81,M,10.00,26.00,FEW,BKN,OVC,M,4200.00,6000.00,7000.00,M,M,M,M,M,M,M,M,15.73,KMEV 141235Z AUTO 01016G26KT 10SM FEW042 BKN060 OVC070 M02/M09 A2981 RMK AO2,M
BAM,2023-02-14 12:35,-116.8743,40.5990,1382.36,28.40,19.40,68.61,0.00,0.00,0.00,29.73,M,10.00,M,SCT,BKN,OVC,M,4900.00,7000.00,12000.00,M,M,M,M,M,M,M,M,28.40,KBAM 141235Z AUTO 00000KT 10SM SCT049 BKN070 OVC120 M02/M07 A2973 RMK AO1,M
HTH,2023-02-14 12:35,-118.6315,38.5448,1282.89,32.00,14.00,46.92,350.00,13.00,0.00,29.80,M,10.00,M,SCT,OVC,M,M,5000.00,6500.00,M,M,M,M,M,M,M,M,M,21.57,KHTH 141235Z AUTO 35013KT 10SM SCT050 OVC065 M00/M10 A2980 RMK A01,M
TMT,2023-02-14 12:35,-117.1971,39.4643,1749.34,21.70,18.10,85.77,10.00,7.00,0.00,29.74,M,10.00,M,SCT,BKN,OVC,M,1300.00,3700.00,6000.00,M,-SN,M,M,M,M,M,M,12.22,KTMT 141235Z AUTO 01007KT 10SM -SN SCT013 BKN037 OVC060 M06/M08 A2974 RMK AO2 T10571077,M
HTH,2023-02-14 12:50,-118.6315,38.5448,1282.89,32.00,10.40,40.01,350.00,20.00,0.00,29.80,M,10.00,25.00,SCT,OVC,M,M,5500.00,6500.00,M,M,M,M,M,M,M,M,M,19.14,KHTH 141250Z AUTO 35020G25KT 10SM SCT055 OVC065 00/M12 A2980 RMK A01,M
P68,2023-02-14 12:53,-116.0056,39.6014,1993.00,19.90,16.00,84.55,20.00,3.00,0.00,29.65,1005.20,M,M,M,M,M,M,M,M,M,M,M,M,M,M,M,M,M,14.86,KP68 141253Z AUTO 02003KT M07/M09 A2965 RMK AO1 SLP052 T10671089,M
DRA,2023-02-14 12:53,-116.0278,36.6206,1009.00,37.00,26.10,64.38,0.00,0.00,0.00,29.65,1002.40,10.00,M,CLR,M,M,M,M,M,M,M,M,M,M,M,M,M,M,37.00,KDRA 141253Z AUTO 00000KT 10SM CLR 03/M03 A2965 RMK AO2 SLP024 T00281033,M
ELY,2023-02-14 12:53,-114.8453,39.2950,1909.00,18.00,10.00,70.41,300.00,6.00,0.00,29.63,1005.70,10.00,M,OVC,M,M,M,7500.00,M,M,M,M,M,M,M,M,M,M,8.67,KELY 141253Z AUTO 30006KT 10SM OVC075 M08/M12 A2963 RMK AO2 SLP057 T10781122,M
VGT,2023-02-14 12:53,-115.1933,36.2111,667.00,46.00,30.00,53.37,350.00,6.00,0.00,29.64,1004.60,10.00,M,CLR,M,M,M,M,M,M,M,M,M,M,M,M,M,M,42.39,KVGT 141253Z AUTO 35006KT 10SM CLR 08/M01 A2964 RMK AO2 SLP046 T00781011,M
LOL,2023-02-14 12:53,-118.5701,40.0684,1192.43,26.10,10.00,50.02,330.00,17.00,0.00,29.84,1011.00,10.00,25.00,CLR,M,M,M,M,M,M,M,M,M,M,M,31.00,330.00,2023-02-14 12:07,12.35,KLOL 141253Z AUTO 33017G25KT 10SM CLR M03/M12 A2984 RMK AO2 PK WND 33031/1207 SLP110 T10331122,M
BVU,2023-02-14 12:55,-114.8611,35.9475,671.00,46.40,33.80,61.28,M,4.00,0.00,29.68,M,10.00,15.00,CLR,M,M,M,M,M,M,M,M,M,M,M,M,M,M,44.24,KBVU 141255Z AUTO VRB04G15KT 10SM CLR 08/01 A2968 RMK AO2,M
CXP,2023-02-14 12:55,-119.7326,39.1923,1431.00,26.60,14.00,58.49,340.00,22.00,0.00,29.85,M,6.00,32.00,SCT,BKN,OVC,M,3300.00,4900.00,6500.00,M,-SN HZ,M,M,M,M,M,M,11.35,KCXP 141255Z AUTO 34022G32KT 6SM -SN HZ SCT033 BKN049 OVC065 M03/M10 A2985 RMK AO2,M
INS,2023-02-14 12:55,-115.6733,36.5872,955.00,34.50,19.60,54.08,120.00,4.00,0.00,29.65,1002.60,9.00,M,CLR,M,M,M,M,M,M,M,M,M,M,M,M,M,M,30.34,KINS 141255Z AUTO 12004KT 9SM CLR 01/M07 A2965 RMK AO2 SLP026 T00141069 $,M
RNO,2023-02-14 12:55,-119.7711,39.4839,1341.00,28.00,8.10,42.47,330.00,14.00,0.00,29.89,1011.20,10.00,27.00,BKN,OVC,M,M,6500.00,8000.00,M,M,M,M,M,M,33.00,350.00,2023-02-14 12:05,16.01,KRNO 141255Z 33014G27KT 10SM BKN065 OVC080 M02/M13 A2989 RMK AO2 PK WND 35033/1205 SLP112 T10221133,M
RTS,2023-02-14 12:55,-119.8764,39.6682,1539.00,23.00,8.60,53.47,360.00,17.00,0.00,29.87,M,10.00,23.00,SCT,BKN,M,M,6000.00,7000.00,M,M,M,M,M,M,M,M,M,8.28,KRTS 141255Z AUTO 36017G23KT 10SM SCT060 BKN070 M05/M13 A2987 RMK AO2,M
05U,2023-02-14 12:55,-116.0051,39.6042,1811.23,21.20,15.80,79.31,0.00,0.00,0.00,29.68,M,10.00,M,M,M,M,M,M,M,M,M,M,M,M,M,M,M,M,21.20,K05U 141255Z AUTO 00000KT 10SM M06/M09 A2968 RMK A01,M
MEV,2023-02-14 12:55,-119.7500,38.9963,1441.42,28.40,15.80,58.75,10.00,19.00,0.00,29.82,M,10.00,25.00,BKN,BKN,OVC,M,5500.00,6500.00,7500.00,M,M,M,M,M,M,M,M,14.68,KMEV 141255Z AUTO 01019G25KT 10SM BKN055 BKN065 OVC075 M02/M09 A2982 RMK AO2,M
BAM,2023-02-14 12:55,-116.8743,40.5990,1382.36,28.40,19.40,68.61,310.00,14.00,0.00,29.74,M,10.00,17.00,SCT,BKN,OVC,M,4900.00,7000.00,10000.00,M,M,M,M,M,M,M,M,16.52,KBAM 141255Z AUTO 31014G17KT 10SM SCT049 BKN070 OVC100 M02/M07 A2974 RMK AO1,M
TMT,2023-02-14 12:55,-117.1971,39.4643,1749.34,21.00,16.50,82.46,340.00,10.00,0.00,29.73,M,10.00,M,BKN,BKN,OVC,M,2800.00,3500.00,5000.00,M,-SN,M,M,M,M,M,M,9.17,KTMT 141255Z AUTO 34010KT 10SM -SN BKN028 BKN035 OVC050 M06/M09 A2973 RMK AO2 T10611086,M
EKO,2023-02-14 12:56,-115.7860,40.8242,1367.00,19.00,12.00,73.73,0.00,0.00,0.00,29.66,1006.60,10.00,M,OVC,M,M,M,9000.00,M,M,M,M,M,M,M,M,M,M,19.00,KEKO 141256Z AUTO 00000KT 10SM OVC090 M07/M11 A2966 RMK AO2 SLP066 T10721111,M
NFL,2023-02-14 12:56,-118.7010,39.4166,1199.00,30.90,10.90,42.78,310.00,15.00,T,29.83,1007.70,10.00,24.00,SCT,OVC,M,M,5000.00,7500.00,M,M,M,M,M,M,32.00,340.00,2023-02-14 12:16,19.35,KNFL 141256Z AUTO 31015G24KT 10SM SCT050 OVC075 M01/M12 A2983 RMK AO2 PK WND 34032/1216 SNB19E28 SLP077 P0000 T10061117,M
HND,2023-02-14 12:56,-115.1344,35.9729,742.79,48.00,28.90,47.32,210.00,12.00,0.00,29.66,1005.30,10.00,M,CLR,M,M,M,M,M,M,M,M,M,M,M,M,M,M,42.37,KHND 141256Z AUTO 21012KT 10SM CLR 09/M02 A2966 RMK AO2 SLP053 T00891017,M
TPH,2023-02-14 12:56,-117.0904,38.0505,1654.00,28.00,9.00,44.23,340.00,10.00,0.00,29.68,1004.10,10.00,M,CLR,M,M,M,M,M,M,M,M,M,M,M,M,M,M,17.95,KTPH 141256Z AUTO 34010KT 10SM CLR M02/M13 A2968 RMK AO2 SLP041 T10221128,M
LAS,2023-02-14 12:56,-115.1634,36.0719,663.00,46.00,28.90,51.03,250.00,3.00,0.00,29.65,1003.30,10.00,M,BKN,M,M,M,20000.00,M,M,M,M,M,M,M,M,M,M,44.69,KLAS 141256Z 25003KT 10SM BKN200 08/M02 A2965 RMK AO2 SLP033 T00781017,M
LSV,2023-02-14 12:57,-115.0343,36.2362,570.00,48.20,35.60,61.52,100.00,12.00,0.00,29.61,M,10.00,M,SCT,M,M,M,20000.00,M,M,M,M,M,M,M,M,M,M,42.62,KLSV 141257Z 10012KT 10SM SCT200 09/02 A2961 RMK SLPNO WND DATA ESTMD ALSTG ESTMD $,M
BVU,2023-02-14 13:15,-114.8611,35.9475,671.00,46.40,33.80,61.28,170.00,10.00,0.00,29.67,M,10.00,20.00,FEW,M,M,M,5000.00,M,M,M,M,M,M,M,M,M,M,41.03,KBVU 141315Z AUTO 17010G20KT 10SM FEW050 08/01 A2967 RMK AO2,M
CXP,2023-02-14 13:15,-119.7326,39.1923,1431.00,26.60,10.40,49.88,340.00,20.00,0.00,29.86,M,6.00,27.00,BKN,BKN,OVC,M,3000.00,4100.00,5000.00,M,-SN HZ,M,M,M,M,M,M,11.97,KCXP 141315Z AUTO 34020G27KT 6SM -SN HZ BKN030 BKN041 OVC050 M03/M12 A2986 RMK AO2,M
RTS,2023-02-14 13:15,-119.8764,39.6682,1539.00,21.20,6.80,53.18,10.00,15.00,0.00,29.88,M,10.00,20.00,FEW,M,M,M,7000.00,M,M,M,M,M,M,M,M,M,M,6.78,KRTS 141315Z AUTO 01015G20KT 10SM FEW070 M06/M14 A2988 RMK AO2,M
05U,2023-02-14 13:15,-116.0051,39.6042,1811.23,21.20,15.80,79.31,0.00,0.00,0.00,29.69,M,8.00,M,M,M,M,M,M,M,M,M,M,M,M,M,M,M,M,21.20,K05U 141315Z AUTO 00000KT 8SM M06/M09 A2969 RMK A01,M
MEV,2023-02-14 13:15,-119.7500,38.9963,1441.42,28.40,17.60,63.51,10.00,22.00,0.00,29.83,M,9.00,M,SCT,BKN,OVC,M,4900.00,5500.00,7500.00,M,UP,M,M,M,M,M,M,13.76,KMEV 141315Z AUTO 01022KT 9SM UP SCT049 BKN055 OVC075 M02/M08 A2983 RMK AO2,M
BAM,2023-02-14 13:15,-116.8743,40.5990,1382.36,26.60,23.00,86.07,310.00,22.00,0.00,29.76,M,1.00,28.00,BKN,BKN,OVC,M,700.00,1100.00,1600.00,M,M,M,M,M,M,M,M,11.35,KBAM 141315Z AUTO 31022G28KT 1SM BKN007 BKN011 OVC016 M03/M05 A2976 RMK AO1,M
HTH,2023-02-14 13:15,-118.6315,38.5448,1282.89,30.20,17.60,59.01,350.00,26.00,0.00,29.82,M,4.00,35.00,BKN,OVC,M,M,5500.00,6500.00,M,M,HZ,M,M,M,M,M,M,15.13,KHTH 141315Z AUTO 35026G35KT 4SM HZ BKN055 OVC065 M01/M08 A2982 RMK A01,M
TMT,2023-02-14 13:15,-117.1971,39.4643,1749.34,20.70,17.60,87.58,360.00,8.00,0.00,29.74,M,3.00,M,SCT,BKN,OVC,M,1100.00,2200.00,3000.00,M,-SN,M,M,M,M,M,M,10.19,KTMT 141315Z AUTO 36008KT 3SM -SN SCT011 BKN022 OVC030 M06/M08 A2974 RMK AO2 T10631080,M
BVU,2023-02-14 13:35,-114.8611,35.9475,671.00,46.40,33.80,61.28,190.00,9.00,0.00,29.67,M,10.00,17.00,FEW,M,M,M,4900.00,M,M,M,M,M,M,M,M,M,M,41.42,KBVU 141335Z AUTO 19009G17KT 10SM FEW049 08/01 A2967 RMK AO2,M
CXP,2023-02-14 13:35,-119.7326,39.1923,1431.00,26.60,5.00,39.08,340.00,17.00,0.00,29.87,M,10.00,M,FEW,BKN,OVC,M,2900.00,4700.00,5500.00,M,M,M,M,M,M,M,M,13.00,KCXP 141335Z AUTO 34017KT 10SM FEW029 BKN047 OVC055 M03/M15 A2987 RMK AO2,M
RTS,2023-02-14 13:35,-119.8764,39.6682,1539.00,21.20,5.00,48.99,340.00,11.00,0.00,29.89,M,10.00,M,CLR,M,M,M,M,M,M,M,M,M,M,M,M,M,M,8.82,KRTS 141335Z AUTO 34011KT 10SM CLR M06/M15 A2989 RMK AO2,M
05U,2023-02-14 13:35,-116.0051,39.6042,1811.23,21.20,15.80,79.31,320.00,12.00,0.00,29.69,M,2.50,17.00,M,M,M,M,M,M,M,M,HZ,M,M,M,M,M,M,8.26,K05U 141335Z AUTO 32012G17KT 2 1/2SM HZ M06/M09 A2969 RMK A01 VIS 2V3,M
MEV,2023-02-14 13:35,-119.7500,38.9963,1441.42,26.60,15.80,63.27,10.00,21.00,0.00,29.84,M,5.00,28.00,FEW,BKN,OVC,M,1200.00,4200.00,5000.00,M,UP HZ,M,M,M,M,M,M,11.65,KMEV 141335Z AUTO 01021G28KT 5SM UP HZ FEW012 BKN042 OVC050 M03/M09 A2984 RMK AO2,M
BAM,2023-02-14 13:35,-116.8743,40.5990,1382.36,24.80,21.20,85.96,320.00,20.00,0.00,29.76,M,1.50,28.00,SCT,BKN,OVC,M,700.00,1100.00,1800.00,M,M,M,M,M,M,M,M,9.58,KBAM 141335Z AUTO 32020G28KT 1 1/2SM SCT007 BKN011 OVC018 M04/M06 A2976 RMK AO1,M
HTH,2023-02-14 13:35,-118.6315,38.5448,1282.89,26.60,23.00,86.07,350.00,24.00,0.00,29.85,M,1.00,31.00,SCT,BKN,OVC,M,600.00,2300.00,5500.00,M,BR,M,M,M,M,M,M,10.77,KHTH 141335Z AUTO 35024G31KT 1SM BR SCT006 BKN023 OVC055 M03/M05 A2985 RMK A01,M
TMT,2023-02-14 13:35,-117.1971,39.4643,1749.34,20.10,17.20,88.30,350.00,6.00,0.00,29.74,M,2.50,M,BKN,OVC,M,M,1300.00,2100.00,M,M,-SN,M,M,M,M,M,M,11.20,KTMT 141335Z AUTO 35006KT 2 1/2SM -SN BKN013 OVC021 M07/M08 A2974 RMK AO2 T10661082,M
P68,2023-02-14 13:53,-116.0056,39.6014,1993.00,19.90,15.10,81.30,320.00,8.00,0.00,29.66,1006.10,M,M,M,M,M,M,M,M,M,M,M,M,M,M,M,M,M,9.21,KP68 141353Z AUTO 32008KT M07/M09 A2966 RMK AO1 SLP061 T10671094,M
DRA,2023-02-14 13:53,-116.0278,36.6206,1009.00,37.00,28.00,69.63,360.00,5.00,0.00,29.65,1002.40,10.00,M,CLR,M,M,M,M,M,M,M,M,M,M,M,M,M,M,32.33,KDRA 141353Z AUTO 36005KT 10SM CLR 03/M02 A2965 RMK AO2 SLP024 T00281022,M
ELY,2023-02-14 13:53,-114.8453,39.2950,1909.00,16.00,8.10,70.50,330.00,7.00,0.00,29.62,1005.30,10.00,M,OVC,M,M,M,6000.00,M,M,M,M,M,M,M,M,M,M,5.28,KELY 141353Z AUTO 33007KT 10SM OVC060 M09/M13 A2962 RMK AO2 SLP053 T10891133,M
VGT,2023-02-14 13:53,-115.1933,36.2111,667.00,45.00,30.90,57.50,300.00,6.00,0.00,29.65,1005.30,10.00,M,CLR,M,M,M,M,M,M,M,M,M,M,M,M,M,M,41.19,KVGT 141353Z 30006KT 10SM CLR 07/M01 A2965 RMK AO2 SLP053 T00721006,M
LOL,2023-02-14 13:53,-118.5701,40.0684,1192.43,25.00,3.00,38.09,340.00,22.00,0.00,29.86,1012.60,7.00,28.00,CLR,M,M,M,M,M,M,M,M,M,M,M,30.00,330.00,2023-02-14 13:40,9.21,KLOL 141353Z AUTO 34022G28KT 7SM CLR M04/M16 A2986 RMK AO2 PK WND 33030/1340 SLP126 T10391161,M
BVU,2023-02-14 13:55,-114.8611,35.9475,671.00,46.40,33.80,61.28,160.00,12.00,0.00,29.67,M,10.00,M,FEW,M,M,M,4700.00,M,M,M,M,M,M,M,M,M,M,40.33,KBVU 141355Z AUTO 16012KT 10SM FEW047 08/01 A2967 RMK AO2,M
CXP,2023-02-14 13:55,-119.7326,39.1923,1431.00,26.60,3.20,35.98,330.00,16.00,0.00,29.88,M,10.00,21.00,BKN,OVC,M,M,6000.00,7000.00,M,M,M,M,M,M,M,M,M,13.38,KCXP 141355Z AUTO 33016G21KT 10SM BKN060 OVC070 M03/M16 A2988 RMK AO2,M
INS,2023-02-14 13:55,-115.6733,36.5872,955.00,34.30,19.80,54.98,0.00,0.00,0.00,29.65,1002.90,7.00,M,CLR,M,M,M,M,M,M,M,M,M,M,M,M,M,M,34.30,KINS 141355Z AUTO 00000KT 7SM CLR 01/M07 A2965 RMK AO2 SLP029 T00131068 $,M
RTS,2023-02-14 13:55,-119.8764,39.6682,1539.00,19.40,5.00,52.89,290.00,6.00,0.00,29.89,M,10.00,14.00,CLR,M,M,M,M,M,M,M,M,M,M,M,M,M,M,10.36,KRTS 141355Z AUTO 29006G14KT 10SM CLR M07/M15 A2989 RMK AO2,M
05U,2023-02-14 13:55,-116.0051,39.6042,1811.23,21.20,15.80,79.31,340.00,10.00,0.00,29.69,M,2.50,M,M,M,M,M,M,M,M,M,HZ,M,M,M,M,M,M,9.42,K05U 141355Z AUTO 34010KT 2 1/2SM HZ M06/M09 A2969 RMK A01,M
MEV,2023-02-14 13:55,-119.7500,38.9963,1441.42,26.60,5.00,39.08,10.00,22.00,0.00,29.85,M,10.00,29.00,FEW,FEW,OVC,M,1300.00,1800.00,4300.00,M,M,M,M,M,M,M,M,11.35,KMEV 141355Z AUTO 01022G29KT 10SM FEW013 FEW018 OVC043 M03/M15 A2985 RMK AO2,M
BAM,2023-02-14 13:55,-116.8743,40.5990,1382.36,23.00,19.40,85.85,320.00,24.00,0.00,29.76,M,1.25,30.00,SCT,OVC,M,M,600.00,1400.00,M,M,M,M,M,M,M,M,M,5.92,KBAM 141355Z AUTO 32024G30KT 1 1/4SM SCT006 OVC014 M05/M07 A2976 RMK AO1,M
HTH,2023-02-14 13:55,-118.6315,38.5448,1282.89,24.80,23.00,92.74,350.00,18.00,0.00,29.86,M,1.25,26.00,BKN,BKN,OVC,M,300.00,800.00,1800.00,M,BR,M,M,M,M,M,M,10.27,KHTH 141355Z AUTO 35018G26KT 1 1/4SM BR BKN003 BKN008 OVC018 M04/M05 A2986 RMK A01,M
TMT,2023-02-14 13:55,-117.1971,39.4643,1749.34,20.10,15.80,83.11,310.00,9.00,0.00,29.74,M,4.00,M,SCT,BKN,OVC,M,1400.00,2200.00,2800.00,M,-SN,M,M,M,M,M,M,8.72,KTMT 141355Z AUTO 31009KT 4SM -SN SCT014 BKN022 OVC028 M07/M09 A2974 RMK AO2 T10661090,M
RNO,2023-02-14 13:55,-119.7711,39.4839,1341.00,26.10,4.00,37.93,320.00,13.00,0.00,29.91,1012.50,10.00,25.00,FEW,M,M,M,8000.00,M,M,M,M,M,M,M,28.00,330.00,2023-02-14 13:07,14.01,KRNO 141355Z 32013G25KT 10SM FEW080 M03/M16 A2991 RMK AO2 PK WND 33028/1307 SLP125 T10331156,M
EKO,2023-02-14 13:56,-115.7860,40.8242,1367.00,21.90,14.00,71.18,230.00,8.00,0.00,29.66,1006.80,10.00,M,BKN,OVC,M,M,6000.00,9000.00,M,M,M,M,M,M,M,M,M,11.67,KEKO 141356Z AUTO 23008KT 10SM BKN060 OVC090 M06/M10 A2966 RMK AO2 SLP068 T10561100,M
NFL,2023-02-14 13:56,-118.7010,39.4166,1199.00,28.90,5.00,35.55,320.00,17.00,0.00,29.85,1008.50,10.00,27.00,OVC,M,M,M,11000.00,M,M,M,M,M,M,M,33.00,350.00,2023-02-14 13:19,16.01,KNFL 141356Z AUTO 32017G27KT 10SM OVC110 M02/M15 A2985 RMK AO2 PK WND 35033/1319 SLP085 T10171150,M
HND,2023-02-14 13:56,-115.1344,35.9729,742.79,46.00,30.00,53.37,270.00,3.00,0.00,29.68,1006.20,10.00,M,CLR,M,M,M,M,M,M,M,M,M,M,M,M,M,M,44.69,KHND 141356Z 27003KT 10SM CLR 08/M01 A2968 RMK AO2 SLP062 T00781011,M
TPH,2023-02-14 13:56,-117.0904,38.0505,1654.00,28.00,7.00,40.41,320.00,17.00,0.00,29.68,1005.40,10.00,27.00,CLR,M,M,M,M,M,M,M,M,M,M,M,27.00,320.00,2023-02-14 13:48,14.83,KTPH 141356Z AUTO 32017G27KT 10SM CLR M02/M14 A2968 RMK AO2 PK WND 32027/1348 SLP054 T10221139,M
LAS,2023-02-14 13:56,-115.1634,36.0719,663.00,45.00,30.00,55.43,260.00,7.00,0.00,29.67,1003.90,10.00,M,SCT,M,M,M,18000.00,M,M,M,M,M,M,M,M,M,M,40.63,KLAS 141356Z 26007KT 10SM SCT180 07/M01 A2967 RMK AO2 SLP039 T00721011,M
LSV,2023-02-14 13:57,-115.0343,36.2362,570.00,48.20,30.20,49.53,260.00,8.00,0.00,29.63,M,10.00,M,SCT,M,M,M,12000.00,M,M,M,M,M,M,M,M,M,M,44.07,KLSV 141357Z 26008KT 10SM SCT120 09/M01 A2963 RMK SLPNO WND DATA ESTMD ALSTG ESTMD $,M
BVU,2023-02-14 14:15,-114.8611,35.9475,671.00,46.40,33.80,61.28,170.00,7.00,0.00,29.68,M,10.00,15.00,CLR,M,M,M,M,M,M,M,M,M,M,M,M,M,M,42.33,KBVU 141415Z AUTO 17007G15KT 10SM CLR 08/01 A2968 RMK AO2,M
CXP,2023-02-14 14:15,-119.7326,39.1923,1431.00,26.60,-0.40,30.42,340.00,17.00,0.00,29.89,M,10.00,23.00,FEW,BKN,OVC,M,5500.00,6500.00,8000.00,M,M,M,M,M,M,M,M,13.00,KCXP 141415Z AUTO 34017G23KT 10SM FEW055 BKN065 OVC080 M03/M18 A2989 RMK AO2,M
RTS,2023-02-14 14:15,-119.8764,39.6682,1539.00,19.40,5.00,52.89,300.00,10.00,0.00,29.89,M,10.00,M,CLR,M,M,M,M,M,M,M,M,M,M,M,M,M,M,7.17,KRTS 141415Z AUTO 30010KT 10SM CLR M07/M15 A2989 RMK AO2,M
05U,2023-02-14 14:15,-116.0051,39.6042,1811.23,19.40,17.60,92.57,0.00,0.00,0.00,29.69,M,6.00,M,M,M,M,M,M,M,M,M,BR,M,M,M,M,M,M,19.40,K05U 141415Z AUTO 00000KT 6SM BR M07/M08 A2969 RMK A01,M
MEV,2023-02-14 14:15,-119.7500,38.9963,1441.42,26.60,3.20,35.98,20.00,15.00,0.00,29.87,M,10.00,M,SCT,OVC,M,M,4400.00,5500.00,M,M,M,M,M,M,M,M,M,13.78,KMEV 141415Z AUTO 02015KT 10SM SCT044 OVC055 M03/M16 A2987 RMK AO2,M
BAM,2023-02-14 14:15,-116.8743,40.5990,1382.36,23.00,21.20,92.69,320.00,24.00,0.00,29.76,M,0.75,30.00,OVC,M,M,M,600.00,M,M,M,M,M,M,M,M,M,M,5.92,KBAM 141415Z AUTO 32024G30KT 3/4SM OVC006 M05/M06 A2976 RMK AO1,M
HTH,2023-02-14 14:15,-118.6315,38.5448,1282.89,24.80,23.00,92.74,360.00,22.00,0.00,29.88,M,0.50,M,OVC,M,M,M,300.00,M,M,M,BR,M,M,M,M,M,M,8.94,KHTH 141415Z AUTO 36022KT 1/2SM BR OVC003 M04/M05 A2988 RMK A01,M
TMT,2023-02-14 14:15,-117.1971,39.4643,1749.34,19.40,16.70,89.04,310.00,8.00,0.00,29.74,M,2.00,M,OVC,M,M,M,1400.00,M,M,M,-SN,M,M,M,M,M,M,8.59,KTMT 141415Z AUTO 31008KT 2SM -SN OVC014 M07/M08 A2974 RMK AO2 T10701085,M
EKO,2023-02-14 14:20,-115.7860,40.8242,1367.00,21.00,15.10,77.59,350.00,12.00,T,29.68,M,1.75,24.00,FEW,BKN,OVC,M,1800.00,3900.00,7000.00,M,-SN,M,M,M,M,M,M,8.00,KEKO 141420Z AUTO 35012G24KT 1 3/4SM -SN FEW018 BKN039 OVC070 M06/M09 A2968 RMK AO2 VIS 3/4V5 SNB14 P0000 T10611094,M
05U,2023-02-14 14:30,-116.0051,39.6042,1811.23,19.40,17.60,92.57,0.00,0.00,0.00,29.68,M,3.00,M,M,M,M,M,M,M,M,M,BR,M,M,M,M,M,M,19.40,K05U 141430Z AUTO 00000KT 3SM BR M07/M08 A2968 RMK A01,M
EKO,2023-02-14 14:34,-115.7860,40.8242,1367.00,19.90,14.00,77.48,340.00,10.00,T,29.67,M,3.00,M,FEW,OVC,M,M,1800.00,3000.00,M,M,-SN,M,M,M,M,M,M,7.79,KEKO 141434Z AUTO 34010KT 3SM -SN FEW018 OVC030 M07/M10 A2967 RMK AO2 SNB14 P0000 T10671100,M
BVU,2023-02-14 14:35,-114.8611,35.9475,671.00,44.60,33.80,65.61,160.00,10.00,0.00,29.68,M,10.00,18.00,CLR,M,M,M,M,M,M,M,M,M,M,M,M,M,M,38.77,KBVU 141435Z AUTO 16010G18KT 10SM CLR 07/01 A2968 RMK AO2,M
CXP,2023-02-14 14:35,-119.7326,39.1923,1431.00,24.80,-0.40,32.78,340.00,17.00,0.00,29.90,M,10.00,22.00,FEW,FEW,FEW,M,7000.00,8000.00,9000.00,M,M,M,M,M,M,M,M,10.64,KCXP 141435Z AUTO 34017G22KT 10SM FEW070 FEW080 FEW090 M04/M18 A2990 RMK AO2,M
RTS,2023-02-14 14:35,-119.8764,39.6682,1539.00,19.40,3.20,48.69,280.00,9.00,0.00,29.88,M,10.00,M,CLR,M,M,M,M,M,M,M,M,M,M,M,M,M,M,7.85,KRTS 141435Z AUTO 28009KT 10SM CLR M07/M16 A2988 RMK AO2,M
MEV,2023-02-14 14:35,-119.7500,38.9963,1441.42,26.60,1.40,33.09,40.00,12.00,0.00,29.89,M,10.00,20.00,SCT,OVC,M,M,5500.00,7000.00,M,M,M,M,M,M,M,M,M,15.13,KMEV 141435Z AUTO 04012G20KT 10SM SCT055 OVC070 M03/M17 A2989 RMK AO2,M
BAM,2023-02-14 14:35,-116.8743,40.5990,1382.36,23.00,21.20,92.69,330.00,18.00,0.00,29.76,M,1.25,27.00,OVC,M,M,M,1000.00,M,M,M,M,M,M,M,M,M,M,7.90,KBAM 141435Z AUTO 33018G27KT 1 1/4SM OVC010 M05/M06 A2976 RMK AO1,M
HTH,2023-02-14 14:35,-118.6315,38.5448,1282.89,24.80,19.40,79.62,340.00,23.00,0.00,29.88,M,6.00,M,SCT,BKN,OVC,M,300.00,2000.00,2600.00,M,HZ,M,M,M,M,M,M,8.64,KHTH 141435Z AUTO 34023KT 6SM HZ SCT003 BKN020 OVC026 M04/M07 A2988 RMK A01,M
TMT,2023-02-14 14:35,-117.1971,39.4643,1749.34,18.50,15.60,88.22,350.00,15.00,0.00,29.74,M,0.75,20.00,BKN,OVC,M,M,400.00,1000.00,M,M,SN,M,M,M,M,M,M,3.28,KTMT 141435Z AUTO 35015G20KT 3/4SM SN BKN004 OVC010 M07/M09 A2974 RMK AO2 T10751091,M
P68,2023-02-14 14:53,-116.0056,39.6014,1993.00,19.90,14.00,77.48,210.00,7.00,0.01,29.65,1006.30,M,M,M,M,M,M,M,M,M,M,M,M,M,M,M,M,M,10.03,KP68 141453Z AUTO 21007KT M07/M10 A2965 RMK AO1 SLP063 P0001 60001 T10671100 56004,M
DRA,2023-02-14 14:53,-116.0278,36.6206,1009.00,34.00,27.00,75.26,0.00,0.00,0.00,29.64,1002.60,10.00,M,CLR,M,M,M,M,M,M,M,M,M,M,M,M,M,M,34.00,KDRA 141453Z AUTO 00000KT 10SM CLR 01/M03 A2964 RMK AO2 SLP026 T00111028 58001,M
ELY,2023-02-14 14:53,-114.8453,39.2950,1909.00,17.10,9.00,69.99,280.00,5.00,0.00,29.64,1005.70,10.00,M,OVC,M,M,M,5000.00,M,M,M,M,M,M,M,M,M,M,8.70,KELY 141453Z AUTO 28005KT 10SM OVC050 M08/M13 A2964 RMK AO2 SLP057 T10831128 53001,M
VGT,2023-02-14 14:53,-115.1933,36.2111,667.00,45.00,30.90,57.50,350.00,6.00,0.00,29.65,1005.40,10.00,M,CLR,M,M,M,M,M,M,M,M,M,M,M,M,M,M,41.19,KVGT 141453Z 35006KT 10SM CLR 07/M01 A2965 RMK AO2 SLP054 T00721006 50009,M
LOL,2023-02-14 14:53,-118.5701,40.0684,1192.43,21.00,5.00,49.41,310.00,10.00,0.00,29.87,1013.40,10.00,M,CLR,M,M,M,M,M,M,M,M,M,M,M,26.00,340.00,2023-02-14 13:54,9.17,KLOL 141453Z AUTO 31010KT 10SM CLR M06/M15 A2987 RMK AO2 PK WND 34026/1354 SLP134 T10611150 51019,M
BVU,2023-02-14 14:55,-114.8611,35.9475,671.00,44.60,33.80,65.61,170.00,10.00,0.00,29.68,M,10.00,15.00,CLR,M,M,M,M,M,M,M,M,M,M,M,M,M,M,38.77,KBVU 141455Z AUTO 17010G15KT 10SM CLR 07/01 A2968 RMK AO2,M
CXP,2023-02-14 14:55,-119.7326,39.1923,1431.00,24.80,1.40,35.66,340.00,13.00,0.00,29.90,M,10.00,18.00,CLR,M,M,M,M,M,M,M,M,M,M,M,M,M,M,12.34,KCXP 141455Z AUTO 34013G18KT 10SM CLR M04/M17 A2990 RMK AO2,M
INS,2023-02-14 14:55,-115.6733,36.5872,955.00,32.00,20.80,62.92,0.00,0.00,0.00,29.65,1003.10,10.00,M,CLR,M,M,M,M,M,M,M,M,M,M,M,M,M,M,32.00,KINS 141455Z AUTO 00000KT 10SM CLR 00/M06 A2965 RMK AO2 SLP031 T00001062 50001 $,M
RTS,2023-02-14 14:55,-119.8764,39.6682,1539.00,19.40,5.00,52.89,320.00,7.00,0.00,29.89,M,10.00,M,CLR,M,M,M,M,M,M,M,M,M,M,M,M,M,M,9.42,KRTS 141455Z AUTO 32007KT 10SM CLR M07/M15 A2989 RMK AO2,M
05U,2023-02-14 14:55,-116.0051,39.6042,1811.23,19.40,15.80,85.63,M,7.00,0.00,29.68,M,10.00,M,M,M,M,M,M,M,M,M,M,M,M,M,M,M,M,9.42,K05U 141455Z AUTO VRB07KT 180V350 10SM M07/M09 A2968 RMK A01,M
MEV,2023-02-14 14:55,-119.7500,38.9963,1441.42,24.80,1.40,35.66,10.00,14.00,0.00,29.89,M,10.00,20.00,BKN,OVC,M,M,7000.00,9000.00,M,M,M,M,M,M,M,M,M,11.88,KMEV 141455Z AUTO 01014G20KT 10SM BKN070 OVC090 M04/M17 A2989 RMK AO2,M
BAM,2023-02-14 14:55,-116.8743,40.5990,1382.36,23.00,21.20,92.69,330.00,12.00,0.00,29.78,M,1.25,20.00,OVC,M,M,M,1300.00,M,M,M,M,M,M,M,M,M,M,10.55,KBAM 141455Z AUTO 33012G20KT 1 1/4SM OVC013 M05/M06 A2978 RMK AO1,M
HTH,2023-02-14 14:55,-118.6315,38.5448,1282.89,26.60,15.80,63.27,310.00,19.00,0.00,29.89,M,10.00,M,FEW,SCT,BKN,M,600.00,2600.00,3900.00,M,M,M,M,M,M,M,M,12.30,KHTH 141455Z AUTO 31019KT 10SM FEW006 SCT026 BKN039 M03/M09 A2989 RMK A01,M
TMT,2023-02-14 14:55,-117.1971,39.4643,1749.34,17.20,14.70,89.71,330.00,24.00,0.00,29.76,M,0.25,29.00,OVC,M,M,M,600.00,M,M,M,+SN,M,M,M,M,M,M,-1.91,KTMT 141455Z AUTO 33024G29KT M1/4SM +SN OVC006 M08/M10 A2976 RMK AO2 T10821096,M
RNO,2023-02-14 14:55,-119.7711,39.4839,1341.00,24.10,4.00,41.23,20.00,3.00,0.00,29.91,1013.20,10.00,M,FEW,M,M,M,6000.00,M,M,M,M,M,M,M,M,M,M,19.66,KRNO 141455Z 02003KT 10SM FEW060 M04/M16 A2991 RMK AO2 SLP132 T10441156 51020,M
EKO,2023-02-14 14:56,-115.7860,40.8242,1367.00,19.90,10.90,67.57,350.00,11.00,0.01,29.67,1007.40,10.00,21.00,SCT,OVC,M,M,3700.00,4600.00,M,M,M,M,M,M,M,M,M,7.18,KEKO 141456Z AUTO 35011G21KT 10SM SCT037 OVC046 M07/M12 A2967 RMK AO2 SNB14E43 SLP074 P0001 60001 T10671117 55002,M
NFL,2023-02-14 14:56,-118.7010,39.4166,1199.00,26.10,3.00,36.39,350.00,12.00,0.00,29.88,1009.20,10.00,23.00,SCT,M,M,M,10000.00,M,M,M,M,M,M,M,33.00,320.00,2023-02-14 14:14,14.49,KNFL 141456Z 35012G23KT 10SM SCT100 M03/M16 A2988 RMK AO2 PK WND 32033/1414 SLP092 60000 T10331161 53016,M
HND,2023-02-14 14:56,-115.1344,35.9729,742.79,46.00,30.00,53.37,210.00,8.00,0.00,29.68,1006.30,10.00,M,CLR,M,M,M,M,M,M,M,M,M,M,M,M,M,M,41.36,KHND 141456Z 21008KT 10SM CLR 08/M01 A2968 RMK AO2 SLP063 T00781011 50011,M
TPH,2023-02-14 14:56,-117.0904,38.0505,1654.00,24.10,17.10,74.27,330.00,27.00,T,29.72,1007.40,9.00,41.00,FEW,BKN,OVC,M,3800.00,9000.00,11000.00,M,UP,M,M,M,43.00,330.00,2023-02-14 14:28,6.58,KTPH 141456Z AUTO 33027G41KT 9SM UP FEW038 BKN090 OVC110 M04/M08 A2972 RMK AO2 PK WND 33043/1428 UPB53 SLP074 P0000 60000 T10441083 53009,M
LAS,2023-02-14 14:56,-115.1634,36.0719,663.00,46.00,30.00,53.37,250.00,4.00,0.00,29.66,1004.00,10.00,M,FEW,FEW,M,M,10000.00,18000.00,M,M,M,M,M,M,M,M,M,43.77,KLAS 141456Z 25004KT 10SM FEW100 FEW180 08/M01 A2966 RMK AO2 SLP040 T00781011 50008,M
LSV,2023-02-14 14:57,-115.0343,36.2362,570.00,43.20,28.00,54.72,220.00,3.00,0.00,29.64,M,10.00,M,FEW,SCT,M,M,12000.00,20000.00,M,M,M,M,M,M,M,M,M,41.49,KLSV 141457Z 22003KT 10SM FEW120 SCT200 08/M01 A2964 RMK A02A SLPNO T00621022 $,M
TPH,2023-02-14 15:09,-117.0904,38.0505,1654.00,24.10,16.00,70.81,330.00,28.00,T,29.73,M,1.75,42.00,FEW,BKN,OVC,M,3800.00,7500.00,9500.00,M,-SN,M,M,M,42.00,330.00,2023-02-14 15:06,6.32,KTPH 141509Z AUTO 33028G42KT 1 3/4SM -SN FEW038 BKN075 OVC095 M04/M09 A2973 RMK AO2 PK WND 33042/1506 UPE1459SNB1459 P0000 T10441089,M
HTH,2023-02-14 15:10,-118.6315,38.5448,1282.89,26.60,10.40,49.88,340.00,15.00,0.00,29.89,M,10.00,24.00,FEW,SCT,OVC,M,3900.00,4700.00,6000.00,M,M,M,M,M,M,M,M,13.78,KHTH 141510Z AUTO 34015G24KT 10SM FEW039 SCT047 OVC060 M03/M12 A2989 RMK A01,M
BVU,2023-02-14 15:15,-114.8611,35.9475,671.00,46.40,33.80,61.28,180.00,8.00,0.00,29.68,M,10.00,18.00,CLR,M,M,M,M,M,M,M,M,M,M,M,M,M,M,41.85,KBVU 141515Z AUTO 18008G18KT 10SM CLR 08/01 A2968 RMK AO2,M
CXP,2023-02-14 15:15,-119.7326,39.1923,1431.00,23.00,3.20,41.80,330.00,11.00,0.00,29.89,M,10.00,M,CLR,M,M,M,M,M,M,M,M,M,M,M,M,M,M,11.09,KCXP 141515Z AUTO 33011KT 10SM CLR M05/M16 A2989 RMK AO2,M
RTS,2023-02-14 15:15,-119.8764,39.6682,1539.00,19.40,5.00,52.89,330.00,6.00,0.00,29.90,M,10.00,M,CLR,M,M,M,M,M,M,M,M,M,M,M,M,M,M,10.36,KRTS 141515Z AUTO 33006KT 10SM CLR M07/M15 A2990 RMK AO2,M
05U,2023-02-14 15:15,-116.0051,39.6042,1811.23,19.40,14.00,79.16,230.00,5.00,0.00,29.68,M,10.00,M,M,M,M,M,M,M,M,M,M,M,M,M,M,M,M,11.43,K05U 141515Z AUTO 23005KT 10SM M07/M10 A2968 RMK A01,M
MEV,2023-02-14 15:15,-119.7500,38.9963,1441.42,24.80,-0.40,32.78,20.00,10.00,0.00,29.89,M,10.00,21.00,FEW,SCT,M,M,7000.00,9000.00,M,M,M,M,M,M,M,M,M,13.94,KMEV 141515Z AUTO 02010G21KT 10SM FEW070 SCT090 M04/M18 A2989 RMK AO2,M
BAM,2023-02-14 15:15,-116.8743,40.5990,1382.36,23.00,19.40,85.85,320.00,10.00,0.00,29.79,M,1.50,M,BKN,OVC,M,M,1300.00,2100.00,M,M,M,M,M,M,M,M,M,11.68,KBAM 141515Z AUTO 32010KT 1 1/2SM BKN013 OVC021 M05/M07 A2979 RMK AO1,M
TMT,2023-02-14 15:15,-117.1971,39.4643,1749.34,14.90,10.60,82.72,330.00,19.00,0.00,29.77,M,0.75,28.00,BKN,BKN,OVC,M,400.00,1100.00,2100.00,M,-SN,M,M,M,M,M,M,-3.18,KTMT 141515Z AUTO 33019G28KT 3/4SM -SN BKN004 BKN011 OVC021 M09/M12 A2977 RMK AO2 T10951119,M
TPH,2023-02-14 15:18,-117.0904,38.0505,1654.00,24.10,16.00,70.81,330.00,28.00,T,29.73,M,2.50,41.00,BKN,BKN,OVC,M,4000.00,6000.00,9000.00,M,-SN,M,M,M,42.00,330.00,2023-02-14 15:06,6.32,KTPH 141518Z AUTO 33028G41KT 2 1/2SM -SN BKN040 BKN060 OVC090 M04/M09 A2973 RMK AO2 PK WND 33042/1506 VIS 1 1/2V4 UPE1459SNB1459 P0000 T10441089,M
TPH,2023-02-14 15:32,-117.0904,38.0505,1654.00,23.00,14.00,67.96,330.00,34.00,T,29.74,M,6.00,47.00,BKN,BKN,OVC,M,4300.00,5000.00,7000.00,M,-SN,M,M,M,47.00,330.00,2023-02-14 15:32,3.39,KTPH 141532Z AUTO 33034G47KT 6SM -SN BKN043 BKN050 OVC070 M05/M10 A2974 RMK AO2 PK WND 33047/1532 UPE1459SNB1459 P0000 T10501100,M
BVU,2023-02-14 15:35,-114.8611,35.9475,671.00,46.40,33.80,61.28,170.00,10.00,0.00,29.68,M,10.00,M,CLR,M,M,M,M,M,M,M,M,M,M,M,M,M,M,41.03,KBVU 141535Z AUTO 17010KT 10SM CLR 08/01 A2968 RMK AO2,M
CXP,2023-02-14 15:35,-119.7326,39.1923,1431.00,24.80,3.20,38.77,320.00,7.00,0.00,29.92,M,10.00,13.00,CLR,M,M,M,M,M,M,M,M,M,M,M,M,M,M,16.00,KCXP 141535Z AUTO 32007G13KT 10SM CLR M04/M16 A2992 RMK AO2,M
RTS,2023-02-14 15:35,-119.8764,39.6682,1539.00,21.20,3.20,45.10,290.00,6.00,0.00,29.89,M,10.00,M,CLR,M,M,M,M,M,M,M,M,M,M,M,M,M,M,12.52,KRTS 141535Z AUTO 29006KT 10SM CLR M06/M16 A2989 RMK AO2,M
05U,2023-02-14 15:35,-116.0051,39.6042,1811.23,21.20,14.00,73.32,240.00,8.00,0.00,29.69,M,10.00,M,M,M,M,M,M,M,M,M,M,M,M,M,M,M,M,10.81,K05U 141535Z AUTO 24008KT 10SM M06/M10 A2969 RMK A01,M
MEV,2023-02-14 15:35,-119.7500,38.9963,1441.42,24.80,3.20,38.77,360.00,11.00,0.00,29.90,M,10.00,M,CLR,M,M,M,M,M,M,M,M,M,M,M,M,M,M,13.37,KMEV 141535Z AUTO 36011KT 10SM CLR M04/M16 A2990 RMK AO2,M
BAM,2023-02-14 15:35,-116.8743,40.5990,1382.36,23.00,19.40,85.85,320.00,7.00,0.00,29.80,M,3.00,M,SCT,OVC,M,M,2200.00,3400.00,M,M,M,M,M,M,M,M,M,13.81,KBAM 141535Z AUTO 32007KT 3SM SCT022 OVC034 M05/M07 A2980 RMK AO1,M
HTH,2023-02-14 15:35,-118.6315,38.5448,1282.89,26.60,14.00,58.49,340.00,11.00,0.00,29.91,M,10.00,M,SCT,OVC,M,M,6000.00,7500.00,M,M,M,M,M,M,M,M,M,15.64,KHTH 141535Z AUTO 34011KT 10SM SCT060 OVC075 M03/M10 A2991 RMK A01,M
TMT,2023-02-14 15:35,-117.1971,39.4643,1749.34,15.60,10.20,78.82,300.00,17.00,0.00,29.77,M,2.00,M,SCT,BKN,OVC,M,800.00,1300.00,2700.00,M,-SN,M,M,M,M,M,M,-1.41,KTMT 141535Z AUTO 30017KT 2SM -SN SCT008 BKN013 OVC027 M09/M12 A2977 RMK AO2 VIS 3/4V5 T10911121,M
P68,2023-02-14 15:53,-116.0056,39.6014,1993.00,21.00,12.00,67.71,290.00,7.00,0.00,29.66,1007.20,M,M,M,M,M,M,M,M,M,M,M,M,M,M,M,M,M,11.37,KP68 141553Z AUTO 29007KT M06/M11 A2966 RMK AO1 SLP072 T10611111,M
DRA,2023-02-14 15:53,-116.0278,36.6206,1009.00,42.00,30.00,61.94,0.00,0.00,0.00,29.64,1001.80,10.00,M,CLR,M,M,M,M,M,M,M,M,M,M,M,M,M,M,42.10,KDRA 141553Z AUTO 00000KT 10SM CLR 06/M01 A2964 RMK AO2 SLP018 T00561011,M
ELY,2023-02-14 15:53,-114.8453,39.2950,1909.00,18.00,12.00,76.97,320.00,6.00,0.00,29.62,1005.10,8.00,M,BKN,OVC,M,M,3500.00,4300.00,M,M,M,M,M,M,M,M,M,8.67,KELY 141553Z AUTO 32006KT 8SM BKN035 OVC043 M08/M11 A2962 RMK AO2 SLP051 T10781111,M
LOL,2023-02-14 15:53,-118.5701,40.0684,1192.43,24.10,4.00,41.23,0.00,0.00,0.00,29.90,1014.30,10.00,M,CLR,M,M,M,M,M,M,M,M,M,M,M,M,M,M,24.10,KLOL 141553Z AUTO 00000KT 10SM CLR M04/M16 A2990 RMK AO2 SLP143 T10441156,M
VGT,2023-02-14 15:53,-115.1933,36.2111,667.00,47.00,33.00,58.47,310.00,3.00,0.00,29.65,1005.60,10.00,M,CLR,M,M,M,M,M,M,M,M,M,M,M,M,M,M,45.72,KVGT 141553Z 31003KT 10SM CLR 08/01 A2965 RMK AO2 SLP056 T00830006,M
BVU,2023-02-14 15:55,-114.8611,35.9475,671.00,46.40,33.80,61.28,160.00,12.00,0.00,29.68,M,10.00,M,CLR,M,M,M,M,M,M,M,M,M,M,M,M,M,M,40.33,KBVU 141555Z AUTO 16012KT 10SM CLR 08/01 A2968 RMK AO2,M
CXP,2023-02-14 15:55,-119.7326,39.1923,1431.00,24.80,1.40,35.66,30.00,7.00,0.00,29.92,M,10.00,15.00,CLR,M,M,M,M,M,M,M,M,M,M,M,M,M,M,16.00,KCXP 141555Z AUTO 03007G15KT 10SM CLR M04/M17 A2992 RMK AO2,M
INS,2023-02-14 15:55,-115.6733,36.5872,955.00,39.40,23.20,51.92,0.00,0.00,0.00,29.64,1002.70,10.00,M,CLR,M,M,M,M,M,M,M,M,M,M,M,M,M,M,39.40,KINS 141555Z AUTO 00000KT 10SM CLR 04/M05 A2964 RMK AO2 SLP027 T00411049 $,M
RNO,2023-02-14 15:55,-119.7711,39.4839,1341.00,26.10,5.00,39.90,300.00,4.00,0.00,29.91,1013.50,10.00,M,FEW,M,M,M,20000.00,M,M,M,M,M,M,M,M,M,M,20.53,KRNO 141555Z 30004KT 10SM FEW200 M03/M15 A2991 RMK AO2 SLP135 T10331150,M
RTS,2023-02-14 15:55,-119.8764,39.6682,1539.00,21.20,3.20,45.10,290.00,7.00,0.00,29.89,M,10.00,M,CLR,M,M,M,M,M,M,M,M,M,M,M,M,M,M,11.61,KRTS 141555Z AUTO 29007KT 10SM CLR M06/M16 A2989 RMK AO2,M
05U,2023-02-14 15:55,-116.0051,39.6042,1811.23,21.20,12.20,67.73,280.00,6.00,0.00,29.69,M,9.00,M,M,M,M,M,M,M,M,M,M,M,M,M,M,M,M,12.52,K05U 141555Z AUTO 28006KT 9SM M06/M11 A2969 RMK A01,M
MEV,2023-02-14 15:55,-119.7500,38.9963,1441.42,26.60,1.40,33.09,350.00,12.00,0.00,29.90,M,10.00,M,CLR,M,M,M,M,M,M,M,M,M,M,M,M,M,M,15.13,KMEV 141555Z AUTO 35012KT 10SM CLR M03/M17 A2990 RMK AO2,M
BAM,2023-02-14 15:55,-116.8743,40.5990,1382.36,23.00,19.40,85.85,320.00,9.00,0.00,29.80,M,1.75,M,BKN,BKN,OVC,M,2600.00,3000.00,3600.00,M,M,M,M,M,M,M,M,12.32,KBAM 141555Z AUTO 32009KT 1 3/4SM BKN026 BKN030 OVC036 M05/M07 A2980 RMK AO1,M
HTH,2023-02-14 15:55,-118.6315,38.5448,1282.89,26.60,10.40,49.88,360.00,14.00,0.00,29.91,M,10.00,21.00,FEW,FEW,M,M,7000.00,8000.00,M,M,M,M,M,M,M,M,M,14.20,KHTH 141555Z AUTO 36014G21KT 10SM FEW070 FEW080 M03/M12 A2991 RMK A01,M
TMT,2023-02-14 15:55,-117.1971,39.4643,1749.34,14.50,6.80,70.96,320.00,7.00,0.00,29.79,M,10.00,M,SCT,SCT,M,M,2700.00,4400.00,M,M,M,M,M,M,M,M,M,3.45,KTMT 141555Z AUTO 32007KT 10SM SCT027 SCT044 M10/M14 A2979 RMK AO2 T10971140,M
LSV,2023-02-14 15:55,-115.0343,36.2362,570.00,47.00,32.70,57.10,0.00,0.00,0.00,29.64,M,10.00,M,CLR,M,M,M,M,M,M,M,M,M,M,M,M,M,M,47.10,KLSV 141555Z AUTO 00000KT 10SM CLR 08/00 A2964 RMK AO2 SLPNO T00840004 $,M
EKO,2023-02-14 15:56,-115.7860,40.8242,1367.00,19.90,10.90,67.57,360.00,8.00,0.00,29.69,1008.50,10.00,M,SCT,SCT,OVC,M,3800.00,4800.00,6000.00,M,M,M,M,M,27.00,340.00,2023-02-14 15:34,9.21,KEKO 141556Z AUTO 36008KT 330V040 10SM SCT038 SCT048 OVC060 M07/M12 A2969 RMK AO2 PK WND 34027/1534 SLP085 T10671117,M
NFL,2023-02-14 15:56,-118.7010,39.4166,1199.00,27.00,5.00,38.44,30.00,9.00,0.00,29.91,1010.20,10.00,M,FEW,SCT,M,M,5000.00,10000.00,M,M,M,M,M,M,M,M,M,17.30,KNFL 141556Z 03009KT 10SM FEW050 SCT100 M03/M15 A2991 RMK AO2 SLP102 T10281150,M
TPH,2023-02-14 15:56,-117.0904,38.0505,1654.00,24.10,10.90,56.59,330.00,29.00,T,29.75,1009.10,10.00,46.00,OVC,M,M,M,6000.00,M,M,M,M,M,M,M,47.00,330.00,2023-02-14 15:35,6.07,KTPH 141556Z AUTO 33029G46KT 10SM OVC060 M04/M12 A2975 RMK AO2 PK WND 33047/1535 UPE1459SNB1459E33 SLP091 P0000 T10441117,M
LAS,2023-02-14 15:56,-115.1634,36.0719,663.00,48.00,30.00,49.49,270.00,3.00,0.00,29.66,1003.70,10.00,M,FEW,FEW,M,M,6500.00,18000.00,M,M,M,M,M,M,M,M,M,46.98,KLAS 141556Z 27003KT 10SM FEW065 FEW180 09/M01 A2966 RMK AO2 SLP037 T00891011,M
HND,2023-02-14 15:56,-115.1344,35.9729,742.79,49.00,30.90,49.63,200.00,13.00,0.00,29.67,1006.00,10.00,M,CLR,M,M,M,M,M,M,M,M,M,M,M,M,M,M,43.22,KHND 141556Z 20013KT 10SM CLR 09/M01 A2967 RMK AO2 SLP060 T00941006,M
BVU,2023-02-14 16:15,-114.8611,35.9475,671.00,48.20,33.80,57.26,160.00,15.00,0.00,29.67,M,10.00,M,CLR,M,M,M,M,M,M,M,M,M,M,M,M,M,M,41.78,KBVU 141615Z AUTO 16015KT 10SM CLR 09/01 A2967 RMK AO2,M
CXP,2023-02-14 16:15,-119.7326,39.1923,1431.00,26.60,1.40,33.09,40.00,9.00,0.00,29.91,M,10.00,M,CLR,M,M,M,M,M,M,M,M,M,M,M,M,M,M,16.80,KCXP 141615Z AUTO 04009KT 10SM CLR M03/M17 A2991 RMK AO2,M
RTS,2023-02-14 16:15,-119.8764,39.6682,1539.00,21.20,3.20,45.10,340.00,7.00,0.00,29.91,M,10.00,M,CLR,M,M,M,M,M,M,M,M,M,M,M,M,M,M,11.61,KRTS 141615Z AUTO 34007KT 10SM CLR M06/M16 A2991 RMK AO2,M
05U,2023-02-14 16:15,-116.0051,39.6042,1811.23,21.20,14.00,73.32,350.00,19.00,0.00,29.70,M,2.00,26.00,M,M,M,M,M,M,M,M,HZ,M,M,M,M,M,M,5.15,K05U 141615Z AUTO 35019G26KT 2SM HZ M06/M10 A2970 RMK A01 VIS 1/4V3,M
MEV,2023-02-14 16:15,-119.7500,38.9963,1441.42,26.60,1.40,33.09,340.00,9.00,0.00,29.90,M,10.00,15.00,CLR,M,M,M,M,M,M,M,M,M,M,M,M,M,M,16.80,KMEV 141615Z AUTO 34009G15KT 10SM CLR M03/M17 A2990 RMK AO2,M
BAM,2023-02-14 16:15,-116.8743,40.5990,1382.36,23.00,19.40,85.85,320.00,11.00,0.00,29.81,M,0.75,15.00,BKN,OVC,M,M,1000.00,1400.00,M,M,M,M,M,M,M,M,M,11.09,KBAM 141615Z AUTO 32011G15KT 3/4SM BKN010 OVC014 M05/M07 A2981 RMK AO1,M
HTH,2023-02-14 16:15,-118.6315,38.5448,1282.89,26.60,8.60,46.02,10.00,13.00,0.00,29.92,M,10.00,M,CLR,M,M,M,M,M,M,M,M,M,M,M,M,M,M,14.65,KHTH 141615Z AUTO 01013KT 10SM CLR M03/M13 A2992 RMK A01,M
TMT,2023-02-14 16:15,-117.1971,39.4643,1749.34,17.10,6.00,60.83,300.00,15.00,0.00,29.79,M,10.00,21.00,CLR,M,M,M,M,M,M,M,M,M,M,M,M,M,M,1.46,KTMT 141615Z AUTO 30015G21KT 10SM CLR M08/M14 A2979 RMK AO2 T10831145,M
BVU,2023-02-14 16:35,-114.8611,35.9475,671.00,50.00,33.80,53.54,170.00,15.00,0.00,29.67,M,10.00,21.00,CLR,M,M,M,M,M,M,M,M,M,M,M,M,M,M,50.00,KBVU 141635Z AUTO 17015G21KT 10SM CLR 10/01 A2967 RMK AO2,M
CXP,2023-02-14 16:35,-119.7326,39.1923,1431.00,26.60,-2.20,27.94,0.00,0.00,0.00,29.92,M,10.00,M,CLR,M,M,M,M,M,M,M,M,M,M,M,M,M,M,26.60,KCXP 141635Z AUTO 00000KT 10SM CLR M03/M19 A2992 RMK AO2,M
RTS,2023-02-14 16:35,-119.8764,39.6682,1539.00,21.20,3.20,45.10,30.00,3.00,0.00,29.91,M,10.00,M,CLR,M,M,M,M,M,M,M,M,M,M,M,M,M,M,16.34,KRTS 141635Z AUTO 03003KT 10SM CLR M06/M16 A2991 RMK AO2,M
05U,2023-02-14 16:35,-116.0051,39.6042,1811.23,17.60,10.40,72.93,330.00,15.00,0.00,29.71,M,1.25,23.00,M,M,M,M,M,M,M,M,HZ,M,M,M,M,M,M,2.11,K05U 141635Z AUTO 33015G23KT 1 1/4SM HZ M08/M12 A2971 RMK A01,M
MEV,2023-02-14 16:35,-119.7500,38.9963,1441.42,26.60,1.40,33.09,330.00,7.00,0.00,29.89,M,10.00,M,CLR,M,M,M,M,M,M,M,M,M,M,M,M,M,M,18.20,KMEV 141635Z AUTO 33007KT 10SM CLR M03/M17 A2989 RMK AO2,M
BAM,2023-02-14 16:35,-116.8743,40.5990,1382.36,23.00,21.20,92.69,310.00,10.00,0.00,29.82,M,0.75,M,OVC,M,M,M,1000.00,M,M,M,M,M,M,M,M,M,M,11.68,KBAM 141635Z AUTO 31010KT 3/4SM OVC010 M05/M06 A2982 RMK AO1,M
HTH,2023-02-14 16:35,-118.6315,38.5448,1282.89,26.60,8.60,46.02,20.00,13.00,0.00,29.93,M,10.00,M,CLR,M,M,M,M,M,M,M,M,M,M,M,M,M,M,14.65,KHTH 141635Z AUTO 02013KT 10SM CLR M03/M13 A2993 RMK A01,M
TMT,2023-02-14 16:35,-117.1971,39.4643,1749.34,17.40,6.40,61.43,300.00,17.00,0.00,29.80,M,10.00,23.00,CLR,M,M,M,M,M,M,M,M,M,M,M,M,M,M,0.95,KTMT 141635Z AUTO 30017G23KT 10SM CLR M08/M14 A2980 RMK AO2 T10811142,M
P68,2023-02-14 16:53,-116.0056,39.6014,1993.00,17.10,10.00,73.20,330.00,9.00,0.00,29.71,1007.90,M,19.00,M,M,M,M,M,M,M,M,M,M,M,M,29.00,330.00,2023-02-14 16:23,4.99,KP68 141653Z AUTO 33009G19KT M08/M12 A2971 RMK AO1 PK WND 33029/1623 SLP079 T10831122,M
DRA,2023-02-14 16:53,-116.0278,36.6206,1009.00,48.00,30.00,49.49,240.00,13.00,0.00,29.64,1001.50,10.00,21.00,FEW,M,M,M,5000.00,M,M,M,M,M,M,M,M,M,M,42.07,KDRA 141653Z AUTO 24013G21KT 10SM FEW050 09/M01 A2964 RMK AO2 SLP015 T00891011,M
ELY,2023-02-14 16:53,-114.8453,39.2950,1909.00,19.00,12.00,73.73,310.00,4.00,0.00,29.62,1005.40,10.00,M,OVC,M,M,M,11000.00,M,M,M,M,M,M,M,M,M,M,12.24,KELY 141653Z AUTO 31004KT 10SM OVC110 M07/M11 A2962 RMK AO2 SLP054 T10721111,M
VGT,2023-02-14 16:53,-115.1933,36.2111,667.00,49.00,32.00,51.89,100.00,3.00,0.00,29.64,1005.20,10.00,M,BKN,M,M,M,7500.00,M,M,M,M,M,M,M,M,M,M,48.01,KVGT 141653Z 10003KT 10SM BKN075 09/00 A2964 RMK AO2 SLP052 T00940000,M
LOL,2023-02-14 16:53,-118.5701,40.0684,1192.43,28.00,4.00,35.07,50.00,5.00,0.00,29.89,1013.90,10.00,M,CLR,M,M,M,M,M,M,M,M,M,M,M,M,M,M,21.64,KLOL 141653Z AUTO 05005KT 10SM CLR M02/M16 A2989 RMK AO2 SLP139 T10221156,M
BVU,2023-02-14 16:55,-114.8611,35.9475,671.00,50.00,33.80,53.54,170.00,12.00,0.00,29.66,M,10.00,21.00,CLR,M,M,M,M,M,M,M,M,M,M,M,M,M,M,50.00,KBVU 141655Z AUTO 17012G21KT 10SM CLR 10/01 A2966 RMK AO2,M
CXP,2023-02-14 16:55,-119.7326,39.1923,1431.00,26.60,1.40,33.09,330.00,11.00,0.00,29.92,M,10.00,M,CLR,M,M,M,M,M,M,M,M,M,M,M,M,M,M,15.64,KCXP 141655Z AUTO 33011KT 10SM CLR M03/M17 A2992 RMK AO2,M
INS,2023-02-14 16:55,-115.6733,36.5872,955.00,47.00,27.70,46.95,260.00,7.00,0.00,29.62,1001.80,10.00,M,CLR,M,M,M,M,M,M,M,M,M,M,M,M,M,M,42.94,KINS 141655Z AUTO 26007KT 10SM CLR 08/M02 A2962 RMK AO2 SLP018 T00831024 $,M
RNO,2023-02-14 16:55,-119.7711,39.4839,1341.00,28.90,3.00,32.43,350.00,7.00,0.00,29.91,1013.70,10.00,M,SCT,M,M,M,20000.00,M,M,M,M,M,M,M,M,M,M,21.00,KRNO 141655Z 35007KT 10SM SCT200 M02/M16 A2991 RMK AO2 SLP137 T10171161,M
RTS,2023-02-14 16:55,-119.8764,39.6682,1539.00,23.00,3.20,41.80,0.00,0.00,0.00,29.89,M,10.00,M,CLR,M,M,M,M,M,M,M,M,M,M,M,M,M,M,23.00,KRTS 141655Z AUTO 00000KT 10SM CLR M05/M16 A2989 RMK AO2,M
05U,2023-02-14 16:55,-116.0051,39.6042,1811.23,17.60,10.40,72.93,330.00,9.00,0.00,29.73,M,10.00,16.00,M,M,M,M,M,M,M,M,M,M,M,M,M,M,M,5.61,K05U 141655Z AUTO 33009G16KT 10SM M08/M12 A2973 RMK A01,M
MEV,2023-02-14 16:55,-119.7500,38.9963,1441.42,26.60,3.20,35.98,10.00,8.00,0.00,29.91,M,10.00,14.00,CLR,M,M,M,M,M,M,M,M,M,M,M,M,M,M,17.46,KMEV 141655Z AUTO 01008G14KT 10SM CLR M03/M16 A2991 RMK AO2,M
BAM,2023-02-14 16:55,-116.8743,40.5990,1382.36,23.00,19.40,85.85,320.00,12.00,0.00,29.82,M,2.50,M,SCT,BKN,OVC,M,1200.00,3200.00,4700.00,M,M,M,M,M,M,M,M,10.55,KBAM 141655Z AUTO 32012KT 2 1/2SM SCT012 BKN032 OVC047 M05/M07 A2982 RMK AO1,M
HTH,2023-02-14 16:55,-118.6315,38.5448,1282.89,28.40,8.60,42.73,10.00,10.00,0.00,29.93,M,10.00,17.00,CLR,M,M,M,M,M,M,M,M,M,M,M,M,M,M,18.45,KHTH 141655Z AUTO 01010G17KT 10SM CLR M02/M13 A2993 RMK A01,M
TMT,2023-02-14 16:55,-117.1971,39.4643,1749.34,17.40,4.80,57.11,310.00,18.00,0.00,29.79,M,10.00,26.00,CLR,M,M,M,M,M,M,M,M,M,M,M,M,M,M,0.53,KTMT 141655Z AUTO 31018G26KT 10SM CLR M08/M15 A2979 RMK AO2 T10811151,M
LSV,2023-02-14 16:55,-115.0343,36.2362,570.00,51.00,34.00,51.81,0.00,0.00,0.00,29.62,M,10.00,M,BKN,M,M,M,8000.00,M,M,M,M,M,M,M,M,M,M,51.10,KLSV 141655Z AUTO 00000KT 10SM BKN080 11/01 A2962 RMK AO2 SLPNO T01060011 $,M
EKO,2023-02-14 16:56,-115.7860,40.8242,1367.00,19.90,10.00,64.91,360.00,7.00,T,29.71,1009.30,6.00,M,BKN,OVC,M,M,3600.00,4400.00,M,M,-SN,M,M,M,M,M,M,10.03,KEKO 141656Z AUTO 36007KT 330V030 6SM -SN BKN036 OVC044 M07/M12 A2971 RMK AO2 SNB35 SLP093 P0000 T10671122,M
NFL,2023-02-14 16:56,-118.7010,39.4166,1199.00,30.00,1.90,29.47,320.00,9.00,0.00,29.91,1010.10,10.00,M,SCT,SCT,M,M,7000.00,10000.00,M,M,M,M,M,M,M,M,M,21.03,KNFL 141656Z 32009KT 10SM SCT070 SCT100 M01/M17 A2991 RMK AO2 SLP101 T10111167,M
TPH,2023-02-14 16:56,-117.0904,38.0505,1654.00,24.10,10.90,56.59,330.00,28.00,0.00,29.78,1009.00,10.00,38.00,SCT,OVC,M,M,7000.00,8500.00,M,M,M,M,M,M,40.00,340.00,2023-02-14 15:57,6.32,KTPH 141656Z AUTO 33028G38KT 10SM SCT070 OVC085 M04/M12 A2978 RMK AO2 PK WND 34040/1557 SLP090 T10441117,M
HND,2023-02-14 16:56,-115.1344,35.9729,742.79,51.00,32.00,47.81,210.00,17.00,0.00,29.65,1005.30,10.00,22.00,CLR,M,M,M,M,M,M,M,M,M,M,M,M,M,M,51.10,KHND 141656Z 21017G22KT 10SM CLR 11/00 A2965 RMK AO2 SLP053 T01060000,M
LAS,2023-02-14 16:56,-115.1634,36.0719,663.00,51.00,30.90,45.73,200.00,11.00,0.00,29.64,1003.00,10.00,16.00,FEW,FEW,M,M,6500.00,11000.00,M,M,M,M,M,M,M,M,M,51.10,KLAS 141656Z 20011G16KT 10SM FEW065 FEW110 11/M01 A2964 RMK AO2 SLP030 T01061006,M
HTH,2023-02-14 17:10,-118.6315,38.5448,1282.89,28.40,8.60,42.73,360.00,15.00,0.00,29.92,M,10.00,M,CLR,M,M,M,M,M,M,M,M,M,M,M,M,M,M,16.11,KHTH 141710Z AUTO 36015KT 10SM CLR M02/M13 A2992 RMK A01,M
BVU,2023-02-14 17:15,-114.8611,35.9475,671.00,51.80,33.80,50.08,160.00,17.00,0.00,29.65,M,10.00,M,FEW,M,M,M,4900.00,M,M,M,M,M,M,M,M,M,M,51.80,KBVU 141715Z AUTO 16017KT 10SM FEW049 11/01 A2965 RMK AO2,M
CXP,2023-02-14 17:15,-119.7326,39.1923,1431.00,26.60,1.40,33.09,320.00,12.00,0.00,29.90,M,10.00,M,CLR,M,M,M,M,M,M,M,M,M,M,M,M,M,M,15.13,KCXP 141715Z AUTO 32012KT 10SM CLR M03/M17 A2990 RMK AO2,M
RTS,2023-02-14 17:15,-119.8764,39.6682,1539.00,23.00,3.20,41.80,0.00,0.00,0.00,29.89,M,10.00,M,CLR,M,M,M,M,M,M,M,M,M,M,M,M,M,M,23.00,KRTS 141715Z AUTO 00000KT 10SM CLR M05/M16 A2989 RMK AO2,M
05U,2023-02-14 17:15,-116.0051,39.6042,1811.23,19.40,10.40,67.51,330.00,14.00,0.00,29.74,M,1.75,M,M,M,M,M,M,M,M,M,HZ,M,M,M,M,M,M,4.92,K05U 141715Z AUTO 33014KT 1 3/4SM HZ M07/M12 A2974 RMK A01,M
MEV,2023-02-14 17:15,-119.7500,38.9963,1441.42,26.60,3.20,35.98,20.00,9.00,0.00,29.91,M,10.00,M,CLR,M,M,M,M,M,M,M,M,M,M,M,M,M,M,16.80,KMEV 141715Z AUTO 02009KT 10SM CLR M03/M16 A2991 RMK AO2,M
BAM,2023-02-14 17:15,-116.8743,40.5990,1382.36,23.00,19.40,85.85,310.00,9.00,0.00,29.82,M,4.00,M,SCT,BKN,OVC,M,1900.00,3000.00,5500.00,M,M,M,M,M,M,M,M,12.32,KBAM 141715Z AUTO 31009KT 4SM SCT019 BKN030 OVC055 M05/M07 A2982 RMK AO1,M
TMT,2023-02-14 17:15,-117.1971,39.4643,1749.34,18.10,5.00,55.92,300.00,16.00,0.00,29.79,M,10.00,22.00,CLR,M,M,M,M,M,M,M,M,M,M,M,M,M,M,2.30,KTMT 141715Z AUTO 30016G22KT 10SM CLR M08/M15 A2979 RMK AO2 T10771150,M
EKO,2023-02-14 17:23,-115.7860,40.8242,1367.00,19.90,10.90,67.57,M,M,T,29.72,M,4.00,M,BKN,OVC,M,M,2600.00,3600.00,M,M,-SN,M,M,M,M,M,M,M,KEKO 141723Z AUTO 4SM -SN BKN026 OVC036 M07/M12 A2972 RMK AO2 P0000 T10671117,M
BVU,2023-02-14 17:35,-114.8611,35.9475,671.00,51.80,33.80,50.08,180.00,16.00,0.00,29.64,M,10.00,24.00,BKN,M,M,M,4900.00,M,M,M,M,M,M,M,M,M,M,51.80,KBVU 141735Z AUTO 18016G24KT 10SM BKN049 11/01 A2964 RMK AO2,M
CXP,2023-02-14 17:35,-119.7326,39.1923,1431.00,26.60,1.40,33.09,310.00,7.00,0.00,29.90,M,10.00,M,CLR,M,M,M,M,M,M,M,M,M,M,M,M,M,M,18.20,KCXP 141735Z AUTO 31007KT 10SM CLR M03/M17 A2990 RMK AO2,M
RTS,2023-02-14 17:35,-119.8764,39.6682,1539.00,23.00,1.40,38.45,0.00,0.00,0.00,29.89,M,10.00,M,CLR,M,M,M,M,M,M,M,M,M,M,M,M,M,M,23.00,KRTS 141735Z AUTO 00000KT 10SM CLR M05/M17 A2989 RMK AO2,M
05U,2023-02-14 17:35,-116.0051,39.6042,1811.23,19.40,10.40,67.51,350.00,14.00,0.00,29.74,M,3.00,M,M,M,M,M,M,M,M,M,HZ,M,M,M,M,M,M,4.92,K05U 141735Z AUTO 35014KT 3SM HZ M07/M12 A2974 RMK A01,M
MEV,2023-02-14 17:35,-119.7500,38.9963,1441.42,26.60,1.40,33.09,10.00,8.00,0.00,29.89,M,10.00,M,CLR,M,M,M,M,M,M,M,M,M,M,M,M,M,M,17.46,KMEV 141735Z AUTO 01008KT 10SM CLR M03/M17 A2989 RMK AO2,M
BAM,2023-02-14 17:35,-116.8743,40.5990,1382.36,23.00,19.40,85.85,310.00,9.00,0.00,29.82,M,10.00,M,SCT,SCT,SCT,M,1900.00,2800.00,5500.00,M,M,M,M,M,M,M,M,12.32,KBAM 141735Z AUTO 31009KT 10SM SCT019 SCT028 SCT055 M05/M07 A2982 RMK AO1,M
HTH,2023-02-14 17:35,-118.6315,38.5448,1282.89,28.40,5.00,36.29,360.00,14.00,0.00,29.91,M,10.00,M,CLR,M,M,M,M,M,M,M,M,M,M,M,M,M,M,16.52,KHTH 141735Z AUTO 36014KT 10SM CLR M02/M15 A2991 RMK A01,M
TMT,2023-02-14 17:35,-117.1971,39.4643,1749.34,17.80,4.60,55.62,310.00,14.00,0.00,29.79,M,10.00,22.00,CLR,M,M,M,M,M,M,M,M,M,M,M,M,M,M,2.86,KTMT 141735Z AUTO 31014G22KT 10SM CLR M08/M15 A2979 RMK AO2 T10791152,M
INS,2023-02-14 17:53,-115.6733,36.5872,955.00,42.80,21.20,41.84,330.00,24.00,0.00,29.66,1003.40,10.00,32.00,FEW,FEW,BKN,OVC,1000.00,2600.00,4700.00,6000.00,-RA,M,M,M,M,M,M,32.63,KINS 141753Z AUTO 33024G32KT 10SM -RA FEW010 FEW026 BKN047 OVC060 06/M06 A2966 RMK AO2 RAB53 SLP034 $,M
P68,2023-02-14 17:53,-116.0056,39.6014,1993.00,18.00,9.00,67.33,330.00,17.00,0.00,29.71,1008.10,M,23.00,M,M,M,M,M,M,M,M,M,M,M,M,M,M,M,1.73,KP68 141753Z AUTO 33017G23KT M08/M13 A2971 RMK AO1 SLP081 60001 T10781128 11061 21083 51017,M
DRA,2023-02-14 17:53,-116.0278,36.6206,1009.00,37.00,28.90,72.24,360.00,12.00,T,29.70,1004.40,4.00,M,FEW,OVC,M,M,2200.00,3900.00,M,M,-SN,M,M,M,32.00,330.00,2023-02-14 17:40,28.37,KDRA 141753Z AUTO 36012KT 4SM -SN FEW022 OVC039 03/M02 A2970 RMK AO2 PK WND 33032/1740 WSHFT 1736 SNB51 SLP044 P0000 60000 T00281017 10089 20011 53018,M
ELY,2023-02-14 17:53,-114.8453,39.2950,1909.00,21.90,10.90,62.07,0.00,0.00,0.00,29.61,1004.60,10.00,M,FEW,SCT,BKN,M,2900.00,3700.00,12000.00,M,M,M,M,M,M,M,M,21.90,KELY 141753Z AUTO 00000KT 10SM FEW029 SCT037 BKN120 M06/M12 A2961 RMK AO2 SLP046 T10561117 11056 21089 56009,M
VGT,2023-02-14 17:53,-115.1933,36.2111,667.00,52.00,32.00,46.25,0.00,0.00,0.00,29.62,1004.40,10.00,M,FEW,M,M,M,7000.00,M,M,M,M,M,M,M,M,M,M,52.00,KVGT 141753Z 00000KT 10SM FEW070 11/00 A2962 RMK AO2 SLP044 T01110000 10111 20067 58011,M
LOL,2023-02-14 17:53,-118.5701,40.0684,1192.43,30.00,6.00,35.75,40.00,3.00,0.00,29.88,1013.50,10.00,M,FEW,M,M,M,12000.00,M,M,M,M,M,M,M,M,M,M,26.40,KLOL 141753Z AUTO 04003KT 10SM FEW120 M01/M14 A2988 RMK AO2 SLP135 T10111144 11011 21061 50003,M
BVU,2023-02-14 17:55,-114.8611,35.9475,671.00,51.80,35.60,53.81,170.00,11.00,0.00,29.64,M,10.00,22.00,OVC,M,M,M,5000.00,M,M,M,M,M,M,M,M,M,M,51.80,KBVU 141755Z AUTO 17011G22KT 10SM OVC050 11/02 A2964 RMK AO2,M
CXP,2023-02-14 17:55,-119.7326,39.1923,1431.00,28.40,1.40,30.73,320.00,8.00,0.00,29.90,M,10.00,M,CLR,M,M,M,M,M,M,M,M,M,M,M,M,M,M,19.68,KCXP 141755Z AUTO 32008KT 10SM CLR M02/M17 A2990 RMK AO2,M
INS,2023-02-14 17:55,-115.6733,36.5872,955.00,41.70,21.40,44.02,330.00,27.00,T,29.66,1003.40,9.00,32.00,FEW,FEW,BKN,OVC,1000.00,2600.00,4700.00,6000.00,-RA,M,M,M,35.00,330.00,2023-02-14 17:40,30.57,KINS 141755Z AUTO 33027G32KT 9SM -RA FEW010 FEW026 BKN047 OVC060 05/M06 A2966 RMK AO2 PK WND 33035/40 RAB53 SLP034 P0000 60000 T00541059 10091 21004 53005 $,M
RNO,2023-02-14 17:55,-119.7711,39.4839,1341.00,30.90,1.90,28.41,270.00,8.00,0.00,29.90,1013.10,10.00,M,SCT,BKN,M,M,11000.00,20000.00,M,M,M,M,M,M,M,M,M,22.76,KRNO 141755Z 27008KT 210V300 10SM SCT110 BKN200 M01/M17 A2990 RMK AO2 SLP131 T10061167 11006 21044 58005,M
RTS,2023-02-14 17:55,-119.8764,39.6682,1539.00,24.80,1.40,35.66,0.00,0.00,0.00,29.88,M,10.00,M,CLR,M,M,M,M,M,M,M,M,M,M,M,M,M,M,24.80,KRTS 141755Z AUTO 00000KT 10SM CLR M04/M17 A2988 RMK AO2,M
05U,2023-02-14 17:55,-116.0051,39.6042,1811.23,17.60,8.60,67.28,330.00,16.00,0.00,29.74,M,9.00,M,M,M,M,M,M,M,M,M,M,M,M,M,M,M,M,1.65,K05U 141755Z AUTO 33016KT 9SM M08/M13 A2974 RMK A01,M
MEV,2023-02-14 17:55,-119.7500,38.9963,1441.42,26.60,1.40,33.09,350.00,4.00,0.00,29.89,M,10.00,M,CLR,M,M,M,M,M,M,M,M,M,M,M,M,M,M,21.11,KMEV 141755Z AUTO 35004KT 10SM CLR M03/M17 A2989 RMK AO2,M
BAM,2023-02-14 17:55,-116.8743,40.5990,1382.36,24.80,17.60,73.70,300.00,7.00,0.00,29.83,M,10.00,M,SCT,SCT,SCT,M,2100.00,2600.00,3700.00,M,M,M,M,M,M,M,M,16.00,KBAM 141755Z AUTO 30007KT 10SM SCT021 SCT026 SCT037 M04/M08 A2983 RMK AO1,M
HTH,2023-02-14 17:55,-118.6315,38.5448,1282.89,30.20,5.00,33.72,360.00,12.00,0.00,29.91,M,10.00,M,CLR,M,M,M,M,M,M,M,M,M,M,M,M,M,M,19.71,KHTH 141755Z AUTO 36012KT 10SM CLR M01/M15 A2991 RMK A01,M
TMT,2023-02-14 17:55,-117.1971,39.4643,1749.34,19.40,4.80,52.41,310.00,15.00,0.00,29.79,M,M,19.00,CLR,M,M,M,M,M,M,M,M,M,M,M,M,M,M,4.45,KTMT 141755Z AUTO 31015G19KT CLR M07/M15 A2979 RMK AO2 T10701151 11053 21097 PWINO,M
LSV,2023-02-14 17:55,-115.0343,36.2362,570.00,54.00,32.70,44.04,180.00,14.00,0.00,29.59,M,10.00,M,SCT,M,M,M,8000.00,M,M,M,M,M,M,M,M,M,M,54.10,KLSV 141755Z AUTO 18014KT 10SM SCT080 12/00 A2959 RMK AO2 SLPNO T01230004 10126 20059 $,M
EKO,2023-02-14 17:56,-115.7860,40.8242,1367.00,21.00,10.90,64.48,360.00,9.00,T,29.73,1009.80,8.00,M,BKN,OVC,M,M,2700.00,3500.00,M,M,-SN,M,M,M,M,M,M,9.84,KEKO 141756Z AUTO 36009KT 8SM -SN BKN027 OVC035 M06/M12 A2973 RMK AO2 SLP098 P0000 60001 T10611117 11050 21078 51018,M
HND,2023-02-14 17:56,-115.1344,35.9729,742.79,52.00,30.90,44.24,210.00,16.00,0.00,29.64,1004.60,10.00,M,SCT,M,M,M,6000.00,M,M,M,M,M,M,M,M,M,M,52.00,KHND 141756Z 21016KT 10SM SCT060 11/M01 A2964 RMK AO2 SLP046 T01111006 10117 20072 58013,M
TPH,2023-02-14 17:56,-117.0904,38.0505,1654.00,27.00,-0.90,29.23,310.00,19.00,0.00,29.78,1008.60,10.00,29.00,SCT,M,M,M,12000.00,M,M,M,M,M,M,M,37.00,330.00,2023-02-14 16:57,12.82,KTPH 141756Z AUTO 31019G29KT 10SM SCT120 M03/M18 A2978 RMK AO2 PK WND 33037/1657 SLP086 60000 T10281183 11011 21050 50017,M
LAS,2023-02-14 17:56,-115.1634,36.0719,663.00,53.00,30.90,42.48,210.00,14.00,0.00,29.61,1002.10,10.00,26.00,SCT,SCT,M,M,6000.00,11000.00,M,M,M,M,M,M,26.00,220.00,2023-02-14 17:53,53.10,KLAS 141756Z 21014G26KT 10SM SCT060 SCT110 12/M01 A2961 RMK AO2 PK WND 22026/1753 SLP021 T01171006 10117 20072 58016,M
NFL,2023-02-14 17:56,-118.7010,39.4166,1199.00,32.00,1.90,27.17,310.00,8.00,0.00,29.89,1009.50,10.00,M,SCT,BKN,BKN,M,7000.00,12000.00,18000.00,M,M,M,M,M,M,M,M,24.11,KNFL 141756Z 31008KT 10SM SCT070 BKN120 BKN180 00/M17 A2989 RMK AO2 SLP095 60000 T00001167 10006 21039 50003,M
DRA,2023-02-14 17:57,-116.0278,36.6206,1009.00,36.00,30.00,78.60,360.00,11.00,T,29.71,M,2.50,M,SCT,BKN,OVC,M,2200.00,3300.00,4000.00,M,-SN,M,M,M,M,M,M,27.52,KDRA 141757Z AUTO 36011KT 2 1/2SM -SN SCT022 BKN033 OVC040 02/M01 A2971 RMK AO2 WSHFT 1740 VIS 1 1/2V5 P0000 T00221011,M
DRA,2023-02-14 18:03,-116.0278,36.6206,1009.00,35.00,28.90,77.88,30.00,18.00,T,29.71,M,1.25,25.00,SCT,BKN,OVC,M,2000.00,3100.00,4000.00,M,-SN,M,M,M,M,M,M,23.83,KDRA 141803Z AUTO 03018G25KT 1 1/4SM -SN SCT020 BKN031 OVC040 02/M02 A2971 RMK AO2 WSHFT 1740 P0000 T00171017,M
INS,2023-02-14 18:07,-115.6733,36.5872,955.00,35.60,26.60,69.46,350.00,21.00,0.00,29.69,1004.90,4.00,29.00,BKN,OVC,M,M,400.00,4600.00,M,M,-SN,M,M,M,M,M,M,23.65,KINS 141807Z AUTO 35021G29KT 4SM -SN BKN004 OVC046 02/M03 A2969 RMK AO2 RAE07SNB07 CIG 004V046 PRESRR SLP049 $,M
DRA,2023-02-14 18:07,-116.0278,36.6206,1009.00,34.00,28.00,78.43,20.00,22.00,0.01,29.71,M,1.00,31.00,BKN,BKN,OVC,M,1800.00,3100.00,4000.00,M,-SN,M,M,M,31.00,20.00,2023-02-14 18:07,21.26,KDRA 141807Z AUTO 02022G31KT 1SM -SN BKN018 BKN031 OVC040 01/M02 A2971 RMK AO2 PK WND 02031/1807 WSHFT 1740 P0001 T00111022,M
DRA,2023-02-14 18:11,-116.0278,36.6206,1009.00,34.00,27.00,75.26,20.00,20.00,0.01,29.71,M,0.75,31.00,BKN,BKN,OVC,M,1400.00,3100.00,4000.00,M,-SN,M,M,M,31.00,20.00,2023-02-14 18:07,21.80,KDRA 141811Z AUTO 02020G31KT 3/4SM -SN BKN014 BKN031 OVC040 01/M03 A2971 RMK AO2 PK WND 02031/1807 WSHFT 1740 P0001 T00111028,M
BVU,2023-02-14 18:15,-114.8611,35.9475,671.00,51.80,35.60,53.81,160.00,12.00,0.00,29.63,M,10.00,20.00,OVC,M,M,M,5000.00,M,M,M,M,M,M,M,M,M,M,51.80,KBVU 141815Z AUTO 16012G20KT 10SM OVC050 11/02 A2963 RMK AO2,M
CXP,2023-02-14 18:15,-119.7326,39.1923,1431.00,28.40,1.40,30.73,230.00,6.00,0.00,29.89,M,8.00,M,CLR,M,M,M,M,M,M,M,M,M,M,M,M,M,M,21.19,KCXP 141815Z AUTO 23006KT 8SM CLR M02/M17 A2989 RMK AO2,M
RTS,2023-02-14 18:15,-119.8764,39.6682,1539.00,24.80,1.40,35.66,10.00,4.00,0.00,29.87,M,10.00,M,CLR,M,M,M,M,M,M,M,M,M,M,M,M,M,M,19.01,KRTS 141815Z AUTO 01004KT 10SM CLR M04/M17 A2987 RMK AO2,M
05U,2023-02-14 18:15,-116.0051,39.6042,1811.23,19.40,10.40,67.51,350.00,17.00,0.00,29.74,M,7.00,22.00,M,M,M,M,M,M,M,M,M,M,M,M,M,M,M,3.57,K05U 141815Z AUTO 35017G22KT 7SM M07/M12 A2974 RMK A01,M
MEV,2023-02-14 18:15,-119.7500,38.9963,1441.42,28.40,1.40,30.73,320.00,6.00,0.00,29.88,M,10.00,M,CLR,M,M,M,M,M,M,M,M,M,M,M,M,M,M,21.19,KMEV 141815Z AUTO 32006KT 10SM CLR M02/M17 A2988 RMK AO2,M
BAM,2023-02-14 18:15,-116.8743,40.5990,1382.36,26.60,15.80,63.27,320.00,9.00,0.00,29.83,M,10.00,M,SCT,SCT,OVC,M,2600.00,3500.00,4400.00,M,M,M,M,M,M,M,M,16.80,KBAM 141815Z AUTO 32009KT 10SM SCT026 SCT035 OVC044 M03/M09 A2983 RMK AO1,M
HTH,2023-02-14 18:15,-118.6315,38.5448,1282.89,30.20,3.20,31.04,10.00,13.00,0.00,29.90,M,10.00,M,CLR,M,M,M,M,M,M,M,M,M,M,M,M,M,M,19.26,KHTH 141815Z AUTO 01013KT 10SM CLR M01/M16 A2990 RMK A01,M
TMT,2023-02-14 18:15,-117.1971,39.4643,1749.34,20.30,4.80,50.43,320.00,15.00,0.00,29.79,M,10.00,21.00,SCT,M,M,M,7000.00,M,M,M,M,M,M,M,M,M,M,5.61,KTMT 141815Z AUTO 32015G21KT 10SM SCT070 M06/M15 A2979 RMK AO2 T10651151,M
LSV,2023-02-14 18:18,-115.0343,36.2362,570.00,55.40,32.00,40.84,240.00,10.00,0.00,29.58,M,10.00,M,FEW,M,M,M,7500.00,M,M,M,M,M,M,M,M,M,M,55.40,KLSV 141818Z AUTO 24010KT 10SM FEW075 13/00 A2958 RMK AO2 WSHFT 08 SLPNO $,M
CXP,2023-02-14 18:30,-119.7326,39.1923,1431.00,28.40,1.40,30.73,320.00,5.00,0.00,29.88,M,10.00,M,CLR,M,M,M,M,M,M,M,M,M,M,M,M,M,M,22.12,KCXP 141830Z AUTO 32005KT 10SM CLR M02/M17 A2988 RMK AO2,M
EKO,2023-02-14 18:30,-115.7860,40.8242,1367.00,21.90,10.90,62.07,320.00,10.00,T,29.73,M,10.00,M,BKN,OVC,M,M,3500.00,4500.00,M,M,M,M,M,M,M,M,M,10.30,KEKO 141830Z AUTO 32010KT 10SM BKN035 OVC045 M06/M12 A2973 RMK AO2 SNE13 P0000 T10561117,M
INS,2023-02-14 18:32,-115.6733,36.5872,955.00,33.80,26.60,74.63,360.00,18.00,0.00,29.72,1006.20,2.75,25.00,BKN,OVC,M,M,400.00,3000.00,M,M,-SN,M,M,M,M,M,M,22.12,KINS 141832Z AUTO 36018G25KT 2 3/4SM -SN BKN004 OVC030 01/M03 A2972 RMK AO2 VIS 2 3/4V5 RAE07SNB07 PRESRR SLP062 $,M
BVU,2023-02-14 18:35,-114.8611,35.9475,671.00,53.60,30.20,40.54,210.00,10.00,0.00,29.62,M,10.00,M,BKN,OVC,M,M,5500.00,6500.00,M,M,M,M,M,M,M,M,M,53.60,KBVU 141835Z AUTO 21010KT 10SM BKN055 OVC065 12/M01 A2962 RMK AO2,M
RTS,2023-02-14 18:35,-119.8764,39.6682,1539.00,24.80,1.40,35.66,M,3.00,0.00,29.86,M,10.00,M,CLR,M,M,M,M,M,M,M,M,M,M,M,M,M,M,20.46,KRTS 141835Z AUTO VRB03KT 10SM CLR M04/M17 A2986 RMK AO2,M
05U,2023-02-14 18:35,-116.0051,39.6042,1811.23,19.40,10.40,67.51,350.00,14.00,0.00,29.74,M,9.00,19.00,M,M,M,M,M,M,M,M,M,M,M,M,M,M,M,4.92,K05U 141835Z AUTO 35014G19KT 9SM M07/M12 A2974 RMK A01,M
MEV,2023-02-14 18:35,-119.7500,38.9963,1441.42,26.60,-0.40,30.42,0.00,0.00,0.00,29.88,M,10.00,M,CLR,M,M,M,M,M,M,M,M,M,M,M,M,M,M,26.60,KMEV 141835Z AUTO 00000KT 10SM CLR M03/M18 A2988 RMK AO2,M
BAM,2023-02-14 18:35,-116.8743,40.5990,1382.36,26.60,14.00,58.49,310.00,8.00,0.00,29.83,M,10.00,M,SCT,OVC,M,M,4000.00,4600.00,M,M,M,M,M,M,M,M,M,17.46,KBAM 141835Z AUTO 31008KT 10SM SCT040 OVC046 M03/M10 A2983 RMK AO1,M
HTH,2023-02-14 18:35,-118.6315,38.5448,1282.89,30.20,3.20,31.04,10.00,10.00,0.00,29.89,M,10.00,M,CLR,M,M,M,M,M,M,M,M,M,M,M,M,M,M,20.71,KHTH 141835Z AUTO 01010KT 10SM CLR M01/M16 A2989 RMK A01,M
TMT,2023-02-14 18:35,-117.1971,39.4643,1749.34,20.30,4.50,49.75,320.00,15.00,0.00,29.79,M,M,24.00,SCT,M,M,M,7000.00,M,M,M,M,M,M,M,M,M,M,5.61,KTMT 141835Z AUTO 32015G24KT SCT070 M06/M15 A2979 RMK AO2 T10651153 PWINO,M
INS,2023-02-14 18:37,-115.6733,36.5872,955.00,33.80,26.60,74.63,350.00,21.00,0.00,29.72,1006.20,4.00,25.00,BKN,OVC,M,M,400.00,2800.00,M,M,-SN,M,M,M,M,M,M,21.25,KINS 141837Z AUTO 35021G25KT 4SM -SN BKN004 OVC028 01/M03 A2972 RMK AO2 RAE07SNB07 SLP062 $,M
INS,2023-02-14 18:42,-115.6733,36.5872,955.00,33.80,24.80,69.25,340.00,19.00,0.00,29.73,1006.50,7.00,24.00,SCT,OVC,M,M,500.00,2800.00,M,M,-SN,M,M,M,M,M,M,21.82,KINS 141842Z AUTO 34019G24KT 7SM -SN SCT005 OVC028 01/M04 A2973 RMK AO2 RAE07SNB07 CIG 004V028 SLP065 $,M
INS,2023-02-14 18:44,-115.6733,36.5872,955.00,33.80,24.80,69.25,330.00,18.00,0.00,29.74,1006.90,8.00,24.00,SCT,BKN,OVC,M,500.00,2500.00,3000.00,M,-RA,M,M,M,M,M,M,22.12,KINS 141844Z AUTO 33018G24KT 8SM -RA SCT005 BKN025 OVC030 01/M04 A2974 RMK AO2 RAE07SNB07E44RAB44 CIG 004V028 SLP069 $,M
INS,2023-02-14 18:45,-115.6733,36.5872,955.00,33.80,24.80,69.25,330.00,18.00,0.00,29.74,1006.90,8.00,24.00,SCT,BKN,OVC,M,500.00,2500.00,3000.00,M,-SN,M,M,M,M,M,M,22.12,KINS 141845Z AUTO 33018G24KT 8SM -SN SCT005 BKN025 OVC030 01/M04 A2974 RMK AO2 RAE07SNB07E44RAB44E45SNB45 CIG 004V028 SLP069 $,M
INS,2023-02-14 18:50,-115.6733,36.5872,955.00,33.80,24.80,69.25,320.00,17.00,0.00,29.74,1006.90,6.00,M,SCT,SCT,OVC,M,500.00,2400.00,3200.00,M,-SN,M,M,M,M,M,M,22.43,KINS 141850Z AUTO 32017KT 6SM -SN SCT005 SCT024 OVC032 01/M04 A2974 RMK AO2 RAE07SNB07E44RAB44E45SNB45 SLP069 $,M
P68,2023-02-14 18:53,-116.0056,39.6014,1993.00,19.00,8.10,61.94,360.00,18.00,0.00,29.71,1008.20,M,25.00,M,M,M,M,M,M,M,M,M,M,M,M,M,M,M,2.64,KP68 141853Z AUTO 36018G25KT M07/M13 A2971 RMK AO1 SLP082 T10721133,M
DRA,2023-02-14 18:53,-116.0278,36.6206,1009.00,32.00,26.10,78.58,10.00,14.00,0.01,29.74,1006.40,1.00,M,VV ,M,M,M,1300.00,M,M,M,-SN,M,M,M,31.00,20.00,2023-02-14 18:07,21.16,KDRA 141853Z AUTO 01014KT 1SM -SN VV013 00/M03 A2974 RMK AO2 PK WND 02031/1807 WSHFT 1740 SLP064 P0001 T00001033,M
ELY,2023-02-14 18:53,-114.8453,39.2950,1909.00,21.00,14.00,73.94,60.00,6.00,0.00,29.60,1004.20,10.00,M,FEW,BKN,OVC,M,3000.00,6000.00,11000.00,M,M,M,M,M,M,M,M,12.28,KELY 141853Z AUTO 06006KT 10SM FEW030 BKN060 OVC110 M06/M10 A2960 RMK AO2 SLP042 T10611100,M
VGT,2023-02-14 18:53,-115.1933,36.2111,667.00,46.00,30.90,55.36,320.00,39.00,T,29.60,1004.20,4.00,52.00,FEW,SCT,OVC,M,3600.00,5000.00,7000.00,M,-RA,M,M,M,52.00,330.00,2023-02-14 18:52,34.74,KVGT 141853Z 32039G52KT 4SM -RA FEW036 SCT050 OVC070 08/M01 A2960 RMK AO2 PK WND 33052/1852 RAB51 SLP042 P0000 T00781006,M
LOL,2023-02-14 18:53,-118.5701,40.0684,1192.43,30.00,6.00,35.75,M,M,0.00,29.87,1013.10,10.00,M,OVC,M,M,M,8500.00,M,M,M,M,M,M,M,M,M,M,M,KLOL 141853Z AUTO 10SM OVC085 M01/M14 A2987 RMK AO2 SLP131 T10111144,M
BVU,2023-02-14 18:55,-114.8611,35.9475,671.00,51.80,30.20,43.32,210.00,9.00,0.00,29.61,M,10.00,15.00,BKN,OVC,M,M,5000.00,6000.00,M,M,M,M,M,M,M,M,M,51.80,KBVU 141855Z AUTO 21009G15KT 10SM BKN050 OVC060 11/M01 A2961 RMK AO2,M
CXP,2023-02-14 18:55,-119.7326,39.1923,1431.00,30.20,-0.40,26.25,M,5.00,0.00,29.87,M,10.00,M,CLR,M,M,M,M,M,M,M,M,M,M,M,M,M,M,24.26,KCXP 141855Z AUTO VRB05KT 10SM CLR M01/M18 A2987 RMK AO2,M
INS,2023-02-14 18:55,-115.6733,36.5872,955.00,33.60,25.20,70.98,310.00,14.00,0.01,29.75,1007.20,5.00,M,FEW,SCT,OVC,M,400.00,2300.00,3200.00,M,-SN,M,M,M,34.00,330.00,2023-02-14 17:54,23.22,KINS 141855Z AUTO 31014KT 5SM -SN FEW004 SCT023 OVC032 01/M04 A2975 RMK AO2 PK WND 33034/1754 RAE07SNB07E44RAB44E45SNB45 SLP072 P0001 T00091038 $,M
RNO,2023-02-14 18:55,-119.7711,39.4839,1341.00,32.00,1.00,26.06,340.00,6.00,0.00,29.87,1012.00,10.00,M,SCT,BKN,M,M,8500.00,18000.00,M,M,M,M,M,M,M,M,M,25.53,KRNO 141855Z 34006KT 10SM SCT085 BKN180 00/M17 A2987 RMK AO2 SLP120 T00001172,M
RTS,2023-02-14 18:55,-119.8764,39.6682,1539.00,24.80,3.20,38.77,260.00,5.00,0.00,29.86,M,10.00,M,FEW,M,M,M,9500.00,M,M,M,M,M,M,M,M,M,M,17.84,KRTS 141855Z AUTO 26005KT 10SM FEW095 M04/M16 A2986 RMK AO2,M
05U,2023-02-14 18:55,-116.0051,39.6042,1811.23,21.20,8.60,57.69,350.00,16.00,0.00,29.74,M,10.00,M,M,M,M,M,M,M,M,M,M,M,M,M,M,M,M,6.34,K05U 141855Z AUTO 35016KT 10SM M06/M13 A2974 RMK A01,M
MEV,2023-02-14 18:55,-119.7500,38.9963,1441.42,28.40,1.40,30.73,M,5.00,0.00,29.86,M,10.00,M,CLR,M,M,M,M,M,M,M,M,M,M,M,M,M,M,22.12,KMEV 141855Z AUTO VRB05KT 10SM CLR M02/M17 A2986 RMK AO2,M
BAM,2023-02-14 18:55,-116.8743,40.5990,1382.36,28.40,14.00,54.31,340.00,10.00,0.00,29.82,M,10.00,M,SCT,BKN,OVC,M,2900.00,3900.00,4600.00,M,M,M,M,M,M,M,M,18.45,KBAM 141855Z AUTO 34010KT 10SM SCT029 BKN039 OVC046 M02/M10 A2982 RMK AO1,M
HTH,2023-02-14 18:55,-118.6315,38.5448,1282.89,30.20,3.20,31.04,350.00,8.00,0.00,29.88,M,10.00,M,CLR,M,M,M,M,M,M,M,M,M,M,M,M,M,M,21.90,KHTH 141855Z AUTO 35008KT 10SM CLR M01/M16 A2988 RMK A01,M
TMT,2023-02-14 18:55,-117.1971,39.4643,1749.34,20.30,4.30,49.29,320.00,15.00,0.00,29.78,M,M,22.00,CLR,M,M,M,M,M,M,M,M,M,M,M,M,M,M,5.61,KTMT 141855Z AUTO 32015G22KT CLR M06/M15 A2978 RMK AO2 T10651154 PWINO,M
LSV,2023-02-14 18:55,-115.0343,36.2362,570.00,55.80,31.80,39.93,280.00,10.00,0.00,29.57,M,10.00,M,BKN,M,M,M,6500.00,M,M,M,M,M,M,M,M,M,M,55.80,KLSV 141855Z AUTO 28010KT 10SM BKN065 13/M00 A2957 RMK AO2 SLPNO T01321001 $,M
EKO,2023-02-14 18:56,-115.7860,40.8242,1367.00,21.90,10.90,62.07,340.00,12.00,T,29.73,1010.50,4.00,M,FEW,BKN,OVC,M,2800.00,3500.00,4100.00,M,-SN,M,M,M,M,M,M,9.15,KEKO 141856Z AUTO 34012KT 4SM -SN FEW028 BKN035 OVC041 M06/M12 A2973 RMK AO2 SNE13B43 SLP105 P0000 T10561117,M
NFL,2023-02-14 18:56,-118.7010,39.4166,1199.00,34.00,-0.90,22.00,M,6.00,0.00,29.87,1008.90,10.00,M,FEW,SCT,M,M,8500.00,11000.00,M,M,M,M,M,M,M,M,M,27.94,KNFL 141856Z VRB06KT 10SM FEW085 SCT110 01/M18 A2987 RMK AO2 SLP089 T00111183,M
HND,2023-02-14 18:56,-115.1344,35.9729,742.79,52.00,30.90,44.24,220.00,17.00,0.00,29.61,1003.90,10.00,24.00,OVC,M,M,M,6500.00,M,M,M,M,M,M,M,M,M,M,52.00,KHND 141856Z 22017G24KT 10SM OVC065 11/M01 A2961 RMK AO2 SLP039 T01111006,M
LAS,2023-02-14 18:56,-115.1634,36.0719,663.00,55.00,30.00,38.21,250.00,17.00,0.00,29.60,1001.50,10.00,25.00,FEW,BKN,BKN,M,5000.00,7000.00,10000.00,M,M,M,M,M,26.00,210.00,2023-02-14 18:19,55.00,KLAS 141856Z 25017G25KT 10SM FEW050 BKN070 BKN100 13/M01 A2960 RMK AO2 PK WND 21026/1819 SLP015 VCSH NW T01281011,M
TPH,2023-02-14 18:56,-117.0904,38.0505,1654.00,28.00,-5.00,22.96,340.00,25.00,0.00,29.77,1008.70,10.00,39.00,CLR,M,M,M,M,M,M,M,M,M,M,M,39.00,330.00,2023-02-14 18:52,12.40,KTPH 141856Z AUTO 34025G39KT 10SM CLR M02/M21 A2977 RMK AO2 PK WND 33039/1852 SLP087 T10221206,M
DRA,2023-02-14 19:01,-116.0278,36.6206,1009.00,33.00,24.10,69.17,310.00,8.00,0.01,29.74,M,2.00,20.00,OVC,M,M,M,1300.00,M,M,M,-SN,M,M,M,M,M,M,25.47,KDRA 141901Z AUTO 31008G20KT 290V350 2SM -SN OVC013 01/M04 A2974 RMK AO2 P0001 T00061044,M
EKO,2023-02-14 19:03,-115.7860,40.8242,1367.00,21.00,10.90,64.48,330.00,10.00,T,29.73,M,2.50,M,BKN,OVC,M,M,2700.00,3500.00,M,M,-SN,M,M,M,M,M,M,9.17,KEKO 141903Z AUTO 33010KT 2 1/2SM -SN BKN027 OVC035 M06/M12 A2973 RMK AO2 P0000 T10611117,M
DRA,2023-02-14 19:03,-116.0278,36.6206,1009.00,33.00,25.00,71.82,280.00,8.00,0.01,29.74,M,3.00,M,OVC,M,M,M,1500.00,M,M,M,-SN,M,M,M,M,M,M,25.47,KDRA 141903Z AUTO 28008KT 3SM -SN OVC015 01/M04 A2974 RMK AO2 P0001 T00061039,M
LSV,2023-02-14 19:07,-115.0343,36.2362,570.00,53.60,30.20,40.54,300.00,36.00,0.00,29.56,1000.30,6.00,40.00,BKN,M,M,M,6000.00,M,M,M,-RA,M,M,M,M,M,M,53.60,KLSV 141907Z AUTO 30036G40KT 6SM -RA BKN060 12/M01 A2956 RMK AO2 RAB07 SLP003 $,M
DRA,2023-02-14 19:08,-116.0278,36.6206,1009.00,32.00,27.00,81.55,320.00,8.00,0.01,29.74,M,1.75,M,OVC,M,M,M,1700.00,M,M,M,-SN,M,M,M,M,M,M,24.11,KDRA 141908Z AUTO 32008KT 1 3/4SM -SN OVC017 00/M03 A2974 RMK AO2 P0001 T00001028,M
DRA,2023-02-14 19:12,-116.0278,36.6206,1009.00,32.00,27.00,81.55,350.00,8.00,0.01,29.73,M,0.75,M,VV ,M,M,M,1600.00,M,M,M,-SN,M,M,M,M,M,M,24.11,KDRA 141912Z AUTO 35008KT 3/4SM -SN VV016 00/M03 A2973 RMK AO2 P0001 T00001028,M
EKO,2023-02-14 19:14,-115.7860,40.8242,1367.00,19.90,10.90,67.57,320.00,9.00,T,29.73,M,1.25,M,BKN,OVC,M,M,1900.00,2800.00,M,M,-SN,M,M,M,M,M,M,8.47,KEKO 141914Z AUTO 32009KT 1 1/4SM -SN BKN019 OVC028 M07/M12 A2973 RMK AO2 P0000 T10671117,M
CXP,2023-02-14 19:15,-119.7326,39.1923,1431.00,30.20,1.40,28.55,M,4.00,0.00,29.86,M,10.00,M,CLR,M,M,M,M,M,M,M,M,M,M,M,M,M,M,25.32,KCXP 141915Z AUTO VRB04KT 10SM CLR M01/M17 A2986 RMK AO2,M
RTS,2023-02-14 19:15,-119.8764,39.6682,1539.00,24.80,-0.40,32.78,M,3.00,0.00,29.85,M,10.00,M,FEW,M,M,M,9000.00,M,M,M,M,M,M,M,M,M,M,20.46,KRTS 141915Z AUTO VRB03KT 10SM FEW090 M04/M18 A2985 RMK AO2,M
05U,2023-02-14 19:15,-116.0051,39.6042,1811.23,19.40,8.60,62.28,360.00,9.00,0.00,29.73,M,10.00,16.00,M,M,M,M,M,M,M,M,M,M,M,M,M,M,M,7.85,K05U 141915Z AUTO 36009G16KT 10SM M07/M13 A2973 RMK A01,M
MEV,2023-02-14 19:15,-119.7500,38.9963,1441.42,28.40,-0.40,28.25,200.00,3.00,0.00,29.86,M,10.00,M,CLR,M,M,M,M,M,M,M,M,M,M,M,M,M,M,24.57,KMEV 141915Z AUTO 20003KT 10SM CLR M02/M18 A2986 RMK AO2,M
BAM,2023-02-14 19:15,-116.8743,40.5990,1382.36,28.40,12.20,50.17,310.00,11.00,0.00,29.82,M,10.00,16.00,SCT,BKN,BKN,M,3500.00,4300.00,7000.00,M,M,M,M,M,M,M,M,17.92,KBAM 141915Z AUTO 31011G16KT 10SM SCT035 BKN043 BKN070 M02/M11 A2982 RMK AO1,M
HTH,2023-02-14 19:15,-118.6315,38.5448,1282.89,32.00,3.20,28.86,M,4.00,0.00,29.87,M,10.00,M,CLR,M,M,M,M,M,M,M,M,M,M,M,M,M,M,27.42,KHTH 141915Z AUTO VRB04KT 10SM CLR M00/M16 A2987 RMK A01,M
TMT,2023-02-14 19:15,-117.1971,39.4643,1749.34,20.80,4.50,48.70,320.00,13.00,0.00,29.78,M,M,19.00,CLR,M,M,M,M,M,M,M,M,M,M,M,M,M,M,7.22,KTMT 141915Z AUTO 32013G19KT CLR M06/M15 A2978 RMK AO2 T10621153 PWINO,M
BVU,2023-02-14 19:15,-114.8611,35.9475,671.00,51.80,28.40,40.25,240.00,17.00,0.00,29.60,M,10.00,22.00,BKN,OVC,M,M,5000.00,6000.00,M,M,M,M,M,M,M,M,M,51.80,KBVU 141915Z AUTO 24017G22KT 10SM BKN050 OVC060 11/M02 A2960 RMK AO2,M
VGT,2023-02-14 19:16,-115.1933,36.2111,667.00,39.00,34.00,82.08,310.00,33.00,0.01,29.63,M,3.00,47.00,BKN,BKN,OVC,M,2000.00,4400.00,5000.00,M,-RA,M,M,M,55.00,320.00,2023-02-14 19:04,25.81,KVGT 141916Z 31033G47KT 3SM -RA BKN020 BKN044 OVC050 04/01 A2963 RMK AO2 PK WND 32055/1904 P0001 T00390011,M
DRA,2023-02-14 19:17,-116.0278,36.6206,1009.00,30.90,28.00,88.84,10.00,7.00,0.01,29.74,M,0.50,M,VV ,M,M,M,1300.00,M,M,M,SN FZFG,M,M,M,M,M,M,23.44,KDRA 141917Z AUTO 01007KT 1/2SM SN FZFG VV013 M01/M02 A2974 RMK AO2 P0001 T10061022,M
ELY,2023-02-14 19:25,-114.8453,39.2950,1909.00,19.90,14.00,77.48,10.00,9.00,T,29.58,M,1.75,M,SCT,BKN,OVC,M,2400.00,3500.00,10000.00,M,-SN,M,M,M,M,M,M,8.47,KELY 141925Z AUTO 01009KT 1 3/4SM -SN SCT024 BKN035 OVC100 M07/M10 A2958 RMK AO2 SNB24 P0000 T10671100,M
ELY,2023-02-14 19:28,-114.8453,39.2950,1909.00,19.90,14.00,77.48,350.00,9.00,T,29.59,M,0.75,M,BKN,BKN,OVC,M,2100.00,3500.00,9500.00,M,-SN,M,M,M,M,M,M,8.47,KELY 141928Z AUTO 35009KT 3/4SM -SN BKN021 BKN035 OVC095 M07/M10 A2959 RMK AO2 SNB24 P0000 T10671100,M
HND,2023-02-14 19:29,-115.1344,35.9729,742.79,42.80,30.20,60.79,350.00,23.00,0.00,29.64,M,6.00,28.00,SCT,BKN,OVC,M,3400.00,4900.00,6500.00,M,HZ,M,M,M,28.00,360.00,2023-02-14 19:25,32.83,KHND 141929Z 35023G28KT 6SM HZ SCT034 BKN049 OVC065 06/M01 A2964 RMK AO2 PK WND 36028/1925 WSHFT 1915,M
CXP,2023-02-14 19:30,-119.7326,39.1923,1431.00,30.20,-0.40,26.25,M,5.00,0.00,29.86,M,10.00,M,CLR,M,M,M,M,M,M,M,M,M,M,M,M,M,M,24.26,KCXP 141930Z AUTO VRB05KT 10SM CLR M01/M18 A2986 RMK AO2,M
INS,2023-02-14 19:30,-115.6733,36.5872,955.00,32.00,26.60,80.22,280.00,7.00,0.00,29.75,1007.50,1.25,M,SCT,M,M,M,300.00,M,M,M,-SN,M,M,M,M,M,M,24.78,KINS 141930Z AUTO 28007KT 1 1/4SM -SN SCT003 00/M03 A2975 RMK AO2 VIS 1 1/4V5 SLP075 $,M
DRA,2023-02-14 19:31,-116.0278,36.6206,1009.00,32.00,27.00,81.55,M,6.00,0.02,29.74,M,1.25,M,OVC,M,M,M,1500.00,M,M,M,-SN,M,M,M,M,M,M,25.53,KDRA 141931Z AUTO VRB06KT 1 1/4SM -SN OVC015 00/M03 A2974 RMK AO2 P0002 T00001028,M
LAS,2023-02-14 19:31,-115.1634,36.0719,663.00,38.00,32.00,79.08,320.00,33.00,T,29.65,M,6.00,41.00,FEW,BKN,OVC,M,3000.00,5000.00,7000.00,M,-RASN,M,M,M,52.00,350.00,2023-02-14 19:19,24.28,KLAS 141931Z 32033G41KT 6SM -RASN FEW030 BKN050 OVC070 03/00 A2965 RMK AO2 PK WND 35052/1919 RAB11SNB25 P0000 T00330000 $,M
ELY,2023-02-14 19:33,-114.8453,39.2950,1909.00,19.00,15.10,84.49,320.00,10.00,T,29.59,M,0.25,M,BKN,BKN,OVC,M,1300.00,4300.00,7000.00,M,SN FZFG,M,M,M,M,M,M,6.67,KELY 141933Z AUTO 32010KT 1/4SM SN FZFG BKN013 BKN043 OVC070 M07/M09 A2959 RMK AO2 SNB24 P0000 T10721094,M
LSV,2023-02-14 19:34,-115.0343,36.2362,570.00,44.60,32.00,61.03,290.00,30.00,0.00,29.58,1001.30,10.00,43.00,FEW,M,M,M,6000.00,M,M,M,M,M,M,M,M,M,M,34.03,KLSV 141934Z AUTO 29030G43KT 10SM FEW060 07/M00 A2958 RMK AO2 RAB07E24DZB24E28RAB28E34 SLP013 $,M
INS,2023-02-14 19:35,-115.6733,36.5872,955.00,32.00,26.60,80.22,300.00,7.00,0.00,29.75,1007.50,1.00,M,BKN,M,M,M,300.00,M,M,M,-SN,M,M,M,M,M,M,24.78,KINS 141935Z AUTO 30007KT 1SM R26/5000VP6000FT -SN BKN003 M00/M03 A2975 RMK AO2 VIS 1V3 BKN V SCT SLP075 $,M
DRA,2023-02-14 19:35,-116.0278,36.6206,1009.00,32.00,26.10,78.58,M,6.00,0.02,29.74,M,2.00,M,OVC,M,M,M,1500.00,M,M,M,-SN,M,M,M,M,M,M,25.53,KDRA 141935Z AUTO VRB06KT 2SM -SN OVC015 00/M03 A2974 RMK AO2 P0002 T00001033,M
RTS,2023-02-14 19:35,-119.8764,39.6682,1539.00,26.60,3.20,35.98,290.00,5.00,0.00,29.84,M,10.00,M,SCT,SCT,BKN,M,6000.00,7000.00,8500.00,M,M,M,M,M,M,M,M,19.98,KRTS 141935Z AUTO 29005KT 10SM SCT060 SCT070 BKN085 M03/M16 A2984 RMK AO2,M
05U,2023-02-14 19:35,-116.0051,39.6042,1811.23,21.20,8.60,57.69,360.00,14.00,0.00,29.72,M,10.00,M,M,M,M,M,M,M,M,M,M,M,M,M,M,M,M,7.24,K05U 141935Z AUTO 36014KT 10SM M06/M13 A2972 RMK A01,M
MEV,2023-02-14 19:35,-119.7500,38.9963,1441.42,28.40,-0.40,28.25,0.00,0.00,0.00,29.84,M,10.00,M,CLR,M,M,M,M,M,M,M,M,M,M,M,M,M,M,28.40,KMEV 141935Z AUTO 00000KT 10SM CLR M02/M18 A2984 RMK AO2,M
BAM,2023-02-14 19:35,-116.8743,40.5990,1382.36,28.40,14.00,54.31,340.00,10.00,0.00,29.81,M,10.00,M,SCT,M,M,M,4800.00,M,M,M,M,M,M,M,M,M,M,18.45,KBAM 141935Z AUTO 34010KT 10SM SCT048 M02/M10 A2981 RMK AO1,M
HTH,2023-02-14 19:35,-118.6315,38.5448,1282.89,32.00,3.20,28.86,330.00,6.00,0.00,29.86,M,10.00,M,CLR,M,M,M,M,M,M,M,M,M,M,M,M,M,M,25.53,KHTH 141935Z AUTO 33006KT 10SM CLR M00/M16 A2986 RMK A01,M
TMT,2023-02-14 19:35,-117.1971,39.4643,1749.34,21.40,5.00,48.58,330.00,11.00,0.00,29.77,M,M,M,CLR,M,M,M,M,M,M,M,M,M,M,M,M,M,M,9.07,KTMT 141935Z AUTO 33011KT CLR M06/M15 A2977 RMK AO2 T10591150 PWINO,M
EKO,2023-02-14 19:38,-115.7860,40.8242,1367.00,19.90,10.90,67.57,320.00,12.00,T,29.73,M,2.00,17.00,BKN,OVC,M,M,1700.00,2600.00,M,M,-SN,M,M,M,M,M,M,6.60,KEKO 141938Z AUTO 32012G17KT 2SM -SN BKN017 OVC026 M07/M12 A2973 RMK AO2 P0000 T10671117,M
INS,2023-02-14 19:40,-115.6733,36.5872,955.00,32.00,26.60,80.22,260.00,5.00,0.00,29.75,1007.50,0.75,M,BKN,M,M,M,300.00,M,M,M,-SN,M,M,M,M,M,M,26.40,KINS 141940Z AUTO 26005KT 3/4SM R26/4500V5500FT -SN BKN003 M00/M03 A2975 RMK AO2 SLP075 $,M
VGT,2023-02-14 19:41,-115.1933,36.2111,667.00,38.00,32.00,79.08,320.00,29.00,0.02,29.63,M,3.00,44.00,BKN,OVC,M,M,3400.00,6000.00,M,M,-RA,M,M,M,55.00,320.00,2023-02-14 19:04,25.00,KVGT 141941Z 32029G44KT 3SM -RA BKN034 OVC060 03/00 A2963 RMK AO2 PK WND 32055/1904 P0002 T00330000,M
DRA,2023-02-14 19:43,-116.0278,36.6206,1009.00,30.90,26.10,82.15,110.00,11.00,0.03,29.73,M,4.00,16.00,OVC,M,M,M,2100.00,M,M,M,-SN,M,M,M,M,M,M,21.08,KDRA 141943Z AUTO 11011G16KT 4SM -SN OVC021 M01/M03 A2973 RMK AO2 P0003 T10061033,M
EKO,2023-02-14 19:46,-115.7860,40.8242,1367.00,19.90,12.00,70.95,330.00,10.00,T,29.73,M,1.50,M,BKN,OVC,M,M,1900.00,2800.00,M,M,-SN,M,M,M,M,M,M,7.79,KEKO 141946Z AUTO 33010KT 1 1/2SM -SN BKN019 OVC028 M07/M11 A2973 RMK AO2 P0000 T10671111,M
ELY,2023-02-14 19:51,-114.8453,39.2950,1909.00,17.60,15.80,92.50,310.00,14.00,0.02,29.58,M,0.25,22.00,VV ,M,M,M,600.00,M,M,M,+SN FZFG,M,M,M,M,M,M,2.60,KELY 141951Z AUTO 31014G22KT 1/4SM +SN FZFG VV006 M08/M09 A2958 RMK AO2 SNB24 P0002,M
P68,2023-02-14 19:53,-116.0056,39.6014,1993.00,19.90,8.10,59.60,350.00,17.00,0.00,29.69,1007.50,M,23.00,M,M,M,M,M,M,M,M,M,M,M,M,M,M,M,4.22,KP68 141953Z AUTO 35017G23KT M07/M13 A2969 RMK AO1 SLP075 T10671133,M
DRA,2023-02-14 19:53,-116.0278,36.6206,1009.00,32.00,27.00,81.55,100.00,10.00,0.03,29.70,1005.10,9.00,M,BKN,BKN,OVC,M,3300.00,4500.00,5000.00,M,M,M,M,M,M,M,M,22.97,KDRA 141953Z AUTO 10010KT 9SM BKN033 BKN045 OVC050 00/M03 A2970 RMK AO2 SNE50 PRESFR SLP051 P0003 T00001028,M
ELY,2023-02-14 19:53,-114.8453,39.2950,1909.00,18.00,14.00,84.05,310.00,19.00,0.02,29.58,1004.20,0.25,25.00,VV ,M,M,M,600.00,M,M,M,+SN FZFG,M,M,M,M,M,M,0.92,KELY 141953Z AUTO 31019G25KT 1/4SM +SN FZFG VV006 M08/M10 A2958 RMK AO2 SNB24 SLP042 P0002 T10781100,M
LOL,2023-02-14 19:53,-118.5701,40.0684,1192.43,30.00,10.00,42.62,340.00,8.00,0.00,29.85,1012.60,10.00,M,OVC,M,M,M,5500.00,M,M,M,M,M,M,M,M,M,M,21.65,KLOL 141953Z AUTO 34008KT 10SM OVC055 M01/M12 A2985 RMK AO2 SLP126 T10111122,M
VGT,2023-02-14 19:53,-115.1933,36.2111,667.00,38.00,32.00,79.08,310.00,28.00,0.02,29.63,1005.60,3.00,44.00,SCT,OVC,M,M,3800.00,6000.00,M,M,-SN,M,M,M,55.00,320.00,2023-02-14 19:04,25.19,KVGT 141953Z 31028G44KT 3SM -SN SCT038 OVC060 03/00 A2963 RMK AO2 PK WND 32055/1904 RAE42SNB42 SLP056 P0002 T00330000,M
CXP,2023-02-14 19:55,-119.7326,39.1923,1431.00,30.20,3.20,31.04,M,5.00,0.00,29.84,M,10.00,M,FEW,FEW,M,M,6000.00,8000.00,M,M,M,M,M,M,M,M,M,24.26,KCXP 141955Z AUTO VRB05KT 10SM FEW060 FEW080 M01/M16 A2984 RMK AO2,M
INS,2023-02-14 19:55,-115.6733,36.5872,955.00,30.90,28.00,88.84,230.00,8.00,T,29.76,1008.00,1.00,M,SCT,OVC,M,M,300.00,2300.00,M,M,-SN BR,M,M,M,M,M,M,22.76,KINS 141955Z AUTO 23008KT 1SM R26/4500VP6000FT -SN BR SCT003 OVC023 M01/M02 A2976 RMK AO2 CIG 003V023 SLP080 P0000 T10061022 $,M
RNO,2023-02-14 19:55,-119.7711,39.4839,1341.00,35.00,1.00,23.02,70.00,4.00,0.00,29.83,1010.70,10.00,M,BKN,BKN,M,M,7500.00,18000.00,M,M,M,M,M,M,M,M,M,31.04,KRNO 141955Z 07004KT 10SM BKN075 BKN180 02/M17 A2983 RMK AO2 SLP107 T00171172,M
RTS,2023-02-14 19:55,-119.8764,39.6682,1539.00,28.40,1.40,30.73,280.00,4.00,0.00,29.82,M,10.00,M,SCT,BKN,M,M,6000.00,7000.00,M,M,M,M,M,M,M,M,M,23.22,KRTS 141955Z AUTO 28004KT 10SM SCT060 BKN070 M02/M17 A2982 RMK AO2,M
05U,2023-02-14 19:55,-116.0051,39.6042,1811.23,21.20,8.60,57.69,360.00,16.00,0.00,29.72,M,10.00,M,M,M,M,M,M,M,M,M,M,M,M,M,M,M,M,6.34,K05U 141955Z AUTO 36016KT 10SM M06/M13 A2972 RMK A01,M
MEV,2023-02-14 19:55,-119.7500,38.9963,1441.42,28.40,1.40,30.73,140.00,4.00,0.00,29.83,M,10.00,M,CLR,M,M,M,M,M,M,M,M,M,M,M,M,M,M,23.22,KMEV 141955Z AUTO 14004KT 10SM CLR M02/M17 A2983 RMK AO2,M
BAM,2023-02-14 19:55,-116.8743,40.5990,1382.36,28.40,14.00,54.31,350.00,8.00,0.00,29.81,M,10.00,14.00,SCT,M,M,M,4600.00,M,M,M,M,M,M,M,M,M,M,19.68,KBAM 141955Z AUTO 35008G14KT 10SM SCT046 M02/M10 A2981 RMK AO1,M
HTH,2023-02-14 19:55,-118.6315,38.5448,1282.89,32.00,5.00,31.35,250.00,4.00,0.00,29.84,M,10.00,M,CLR,M,M,M,M,M,M,M,M,M,M,M,M,M,M,27.42,KHTH 141955Z AUTO 25004KT 10SM CLR M00/M15 A2984 RMK A01,M
TMT,2023-02-14 19:55,-117.1971,39.4643,1749.34,21.40,4.60,47.69,330.00,13.00,0.00,29.76,M,10.00,18.00,CLR,M,M,M,M,M,M,M,M,M,M,M,M,M,M,7.99,KTMT 141955Z AUTO 33013G18KT 10SM CLR M06/M15 A2976 RMK AO2 T10591152,M
LSV,2023-02-14 19:55,-115.0343,36.2362,570.00,42.30,32.00,66.65,290.00,33.00,T,29.57,M,10.00,43.00,CLR,M,M,M,M,M,M,M,M,M,M,M,44.00,300.00,2023-02-14 19:12,30.38,KLSV 141955Z AUTO 29033G43KT 10SM CLR 06/00 A2957 RMK AO2 PK WND 30044/12 RAB07E24DZB24E28RAB28E34 SLPNO P0000 T00570000 $,M
EKO,2023-02-14 19:56,-115.7860,40.8242,1367.00,19.90,12.00,70.95,330.00,11.00,T,29.73,1010.50,1.00,M,BKN,OVC,M,M,2300.00,3000.00,M,M,-SN,M,M,M,M,M,M,7.18,KEKO 141956Z AUTO 33011KT 1SM -SN BKN023 OVC030 M07/M11 A2973 RMK AO2 SLP105 P0000 T10671111,M
NFL,2023-02-14 19:56,-118.7010,39.4166,1199.00,33.00,1.00,24.93,40.00,6.00,0.00,29.83,1007.90,10.00,M,SCT,BKN,BKN,M,4000.00,8000.00,12000.00,M,M,M,M,M,M,M,M,26.86,KNFL 141956Z 04006KT 10SM SCT040 BKN080 BKN120 01/M17 A2983 RMK AO2 SLP079 T00061172,M
HND,2023-02-14 19:56,-115.1344,35.9729,742.79,39.00,30.00,69.85,340.00,23.00,T,29.64,1005.40,10.00,33.00,OVC,M,M,M,3800.00,M,M,M,-RA,M,M,M,33.00,350.00,2023-02-14 19:50,27.72,KHND 141956Z 34023G33KT 10SM -RA OVC038 04/M01 A2964 RMK AO2 PK WND 35033/1950 WSHFT 1915 RAB46 SLP054 P0000 T00391011,M
TPH,2023-02-14 19:56,-117.0904,38.0505,1654.00,30.00,-6.00,20.26,330.00,27.00,0.00,29.73,1007.10,10.00,40.00,CLR,M,M,M,M,M,M,M,M,M,M,M,40.00,320.00,2023-02-14 19:04,14.62,KTPH 141956Z AUTO 33027G40KT 10SM CLR M01/M21 A2973 RMK AO2 PK WND 32040/1904 SLP071 T10111211,M
LAS,2023-02-14 19:56,-115.1634,36.0719,663.00,39.00,30.00,69.85,340.00,31.00,T,29.64,1003.40,9.00,42.00,FEW,BKN,OVC,M,3000.00,5000.00,7000.00,M,M,M,M,M,52.00,350.00,2023-02-14 19:19,26.15,KLAS 141956Z 34031G42KT 9SM FEW030 BKN050 OVC070 04/M01 A2964 RMK AO2 PK WND 35052/1919 RAB11E53SNB25E53 SLP034 P0000 T00391011 $,M
INS,2023-02-14 20:05,-115.6733,36.5872,955.00,30.20,28.40,92.92,210.00,5.00,0.00,29.73,1007.00,1.88,M,SCT,BKN,OVC,M,300.00,2100.00,3200.00,M,-SN BR,M,M,M,M,M,M,24.26,KINS 142005Z AUTO 21005KT 1 7/8SM -SN BR SCT003 BKN021 OVC032 M01/M02 A2973 RMK AO2 VIS 1V1 7/8 BKN V OVC PRESFR SLP070 $,M
ELY,2023-02-14 20:05,-114.8453,39.2950,1909.00,18.00,12.00,76.97,320.00,12.00,0.02,29.58,M,1.25,20.00,BKN,OVC,M,M,900.00,1300.00,M,M,-SN,M,M,M,M,M,M,4.18,KELY 142005Z AUTO 32012G20KT 1 1/4SM -SN BKN009 OVC013 M08/M11 A2958 RMK AO2 P0002 T10781111,M
ELY,2023-02-14 20:08,-114.8453,39.2950,1909.00,19.00,12.00,73.73,320.00,13.00,0.02,29.58,M,4.00,M,BKN,OVC,M,M,900.00,1500.00,M,M,-SN,M,M,M,M,M,M,4.91,KELY 142008Z AUTO 32013KT 4SM -SN BKN009 OVC015 M07/M11 A2958 RMK AO2 P0002 T10721111,M
INS,2023-02-14 20:10,-115.6733,36.5872,955.00,30.20,28.40,92.92,210.00,5.00,0.00,29.73,1006.80,6.00,M,FEW,BKN,BKN,OVC,200.00,2100.00,3200.00,4700.00,-SN BR,M,M,M,M,M,M,24.26,KINS 142010Z AUTO 21005KT 6SM -SN BR FEW002 BKN021 BKN032 OVC047 M01/M02 A2973 RMK AO2 BKN021 V OVC SLP068 $,M
LAS,2023-02-14 20:10,-115.1634,36.0719,663.00,39.00,28.90,66.79,330.00,24.00,T,29.62,M,7.00,42.00,SCT,OVC,M,M,3000.00,5000.00,M,M,-RASN,M,M,M,42.00,340.00,2023-02-14 20:03,27.50,KLAS 142010Z 33024G42KT 7SM -RASN SCT030 OVC050 04/M02 A2962 RMK AO2 PK WND 34042/2003 RAB04SNB08 P0000 T00391017 $,M
05U,2023-02-14 20:10,-116.0051,39.6042,1811.23,21.20,8.60,57.69,10.00,15.00,0.00,29.72,M,10.00,M,M,M,M,M,M,M,M,M,M,M,M,M,M,M,M,6.78,K05U 142010Z AUTO 01015KT 10SM M06/M13 A2972 RMK A01,M
HTH,2023-02-14 20:10,-118.6315,38.5448,1282.89,32.00,3.20,28.86,M,6.00,0.00,29.83,M,10.00,12.00,CLR,M,M,M,M,M,M,M,M,M,M,M,M,M,M,25.53,KHTH 142010Z AUTO VRB06G12KT 10SM CLR M00/M16 A2983 RMK A01,M
EKO,2023-02-14 20:13,-115.7860,40.8242,1367.00,21.00,10.90,64.48,320.00,11.00,T,29.72,M,3.00,M,BKN,OVC,M,M,2300.00,3100.00,M,M,-SN,M,M,M,M,M,M,8.57,KEKO 142013Z AUTO 32011KT 3SM -SN BKN023 OVC031 M06/M12 A2972 RMK AO2 P0000 T10611117,M
BVU,2023-02-14 20:15,-114.8611,35.9475,671.00,39.20,32.00,75.16,320.00,28.00,0.00,29.61,M,5.00,39.00,FEW,SCT,M,M,4600.00,5500.00,M,M,-RA,M,M,M,M,M,M,26.97,KBVU 142015Z AUTO 32028G39KT 5SM -RA FEW046 SCT055 04/00 A2961 RMK AO2,M
CXP,2023-02-14 20:15,-119.7326,39.1923,1431.00,32.00,3.20,28.86,0.00,0.00,0.00,29.82,M,10.00,M,FEW,FEW,M,M,6000.00,8000.00,M,M,M,M,M,M,M,M,M,32.00,KCXP 142015Z AUTO 00000KT 10SM FEW060 FEW080 00/M16 A2982 RMK AO2,M
RTS,2023-02-14 20:15,-119.8764,39.6682,1539.00,28.40,1.40,30.73,M,5.00,0.00,29.81,M,10.00,13.00,BKN,BKN,M,M,5500.00,7000.00,M,M,M,M,M,M,M,M,M,22.12,KRTS 142015Z AUTO VRB05G13KT 10SM BKN055 BKN070 M02/M17 A2981 RMK AO2,M
MEV,2023-02-14 20:15,-119.7500,38.9963,1441.42,30.20,1.40,28.55,140.00,5.00,0.00,29.81,M,10.00,M,CLR,M,M,M,M,M,M,M,M,M,M,M,M,M,M,24.26,KMEV 142015Z AUTO 14005KT 10SM CLR M01/M17 A2981 RMK AO2,M
BAM,2023-02-14 20:15,-116.8743,40.5990,1382.36,28.40,14.00,54.31,350.00,7.00,0.00,29.80,M,10.00,M,CLR,M,M,M,M,M,M,M,M,M,M,M,M,M,M,20.39,KBAM 142015Z AUTO 35007KT 10SM CLR M02/M10 A2980 RMK AO1,M
TMT,2023-02-14 20:15,-117.1971,39.4643,1749.34,21.60,4.00,45.80,330.00,13.00,0.00,29.76,M,10.00,M,CLR,M,M,M,M,M,M,M,M,M,M,M,M,M,M,8.24,KTMT 142015Z AUTO 33013KT 10SM CLR M06/M16 A2976 RMK AO2 T10581156,M
ELY,2023-02-14 20:17,-114.8453,39.2950,1909.00,19.00,12.00,73.73,330.00,13.00,0.02,29.58,M,9.00,M,BKN,BKN,OVC,M,1100.00,1800.00,3400.00,M,M,M,M,M,M,M,M,4.91,KELY 142017Z AUTO 33013KT 9SM BKN011 BKN018 OVC034 M07/M11 A2958 RMK AO2 SNE12 P0002 T10721111,M
LAS,2023-02-14 20:23,-115.1634,36.0719,663.00,39.00,28.00,64.37,340.00,29.00,T,29.62,M,9.00,42.00,SCT,OVC,M,M,3000.00,5000.00,M,M,-RA,M,M,M,43.00,10.00,2023-02-14 20:18,26.50,KLAS 142023Z 34029G42KT 9SM -RA SCT030 OVC050 04/M02 A2962 RMK AO2 PK WND 01043/2018 RAB04SNB08E23 P0000 T00391022 $,M
ELY,2023-02-14 20:24,-114.8453,39.2950,1909.00,19.00,12.00,73.73,330.00,12.00,0.02,29.58,M,10.00,M,SCT,OVC,M,M,1500.00,3100.00,M,M,M,M,M,M,M,M,M,5.46,KELY 142024Z AUTO 33012KT 10SM SCT015 OVC031 M07/M11 A2958 RMK AO2 SNE12 P0002 T10721111,M
INS,2023-02-14 20:30,-115.6733,36.5872,955.00,32.00,26.60,80.22,220.00,14.00,0.00,29.72,1006.40,2.75,M,FEW,BKN,BKN,OVC,500.00,2000.00,2600.00,3500.00,-SN,M,M,M,M,M,M,21.16,KINS 142030Z AUTO 22014KT 2 3/4SM -SN FEW005 BKN020 BKN026 OVC035 M00/M03 A2972 RMK AO2 VIS 2 3/4V8 SLP064 $,M
BVU,2023-02-14 20:35,-114.8611,35.9475,671.00,39.20,30.20,69.88,320.00,26.00,0.00,29.61,M,8.00,39.00,FEW,M,M,M,4900.00,M,M,M,-RA,M,M,M,M,M,M,27.36,KBVU 142035Z AUTO 32026G39KT 8SM -RA FEW049 04/M01 A2961 RMK AO2,M
CXP,2023-02-14 20:35,-119.7326,39.1923,1431.00,32.00,3.20,28.86,140.00,6.00,0.00,29.80,M,10.00,M,FEW,M,M,M,8000.00,M,M,M,M,M,M,M,M,M,M,25.53,KCXP 142035Z AUTO 14006KT 10SM FEW080 00/M16 A2980 RMK AO2,M
RTS,2023-02-14 20:35,-119.8764,39.6682,1539.00,28.40,8.60,42.73,320.00,12.00,0.00,29.80,M,10.00,M,SCT,M,M,M,5500.00,M,M,M,M,M,M,M,M,M,M,17.42,KRTS 142035Z AUTO 32012KT 10SM SCT055 M02/M13 A2980 RMK AO2,M
05U,2023-02-14 20:35,-116.0051,39.6042,1811.23,21.20,6.80,53.18,350.00,13.00,0.00,29.71,M,10.00,M,M,M,M,M,M,M,M,M,M,M,M,M,M,M,M,7.73,K05U 142035Z AUTO 35013KT 10SM M06/M14 A2971 RMK A01,M
MEV,2023-02-14 20:35,-119.7500,38.9963,1441.42,30.20,-0.40,26.25,M,5.00,0.00,29.79,M,10.00,M,CLR,M,M,M,M,M,M,M,M,M,M,M,M,M,M,24.26,KMEV 142035Z AUTO VRB05KT 10SM CLR M01/M18 A2979 RMK AO2,M
BAM,2023-02-14 20:35,-116.8743,40.5990,1382.36,28.40,14.00,54.31,340.00,7.00,0.00,29.80,M,10.00,M,SCT,M,M,M,4800.00,M,M,M,M,M,M,M,M,M,M,20.39,KBAM 142035Z AUTO 34007KT 10SM SCT048 M02/M10 A2980 RMK AO1,M
HTH,2023-02-14 20:35,-118.6315,38.5448,1282.89,32.00,3.20,28.86,360.00,4.00,0.00,29.82,M,10.00,M,CLR,M,M,M,M,M,M,M,M,M,M,M,M,M,M,27.42,KHTH 142035Z AUTO 36004KT 10SM CLR 00/M16 A2982 RMK A01,M
TMT,2023-02-14 20:35,-117.1971,39.4643,1749.34,22.10,4.80,46.73,350.00,13.00,0.00,29.74,M,10.00,20.00,CLR,M,M,M,M,M,M,M,M,M,M,M,M,M,M,8.89,KTMT 142035Z AUTO 35013G20KT 10SM CLR M05/M15 A2974 RMK AO2 T10551151,M
EKO,2023-02-14 20:39,-115.7860,40.8242,1367.00,21.90,12.00,65.18,310.00,13.00,T,29.72,M,9.00,19.00,OVC,M,M,M,3300.00,M,M,M,M,M,M,M,M,M,M,8.63,KEKO 142039Z AUTO 31013G19KT 9SM OVC033 M06/M11 A2972 RMK AO2 SNE35 P0000 T10561111,M
INS,2023-02-14 20:40,-115.6733,36.5872,955.00,32.00,26.60,80.22,210.00,12.00,0.00,29.70,1005.70,4.00,M,FEW,BKN,BKN,OVC,500.00,2200.00,2600.00,8000.00,-SN,M,M,M,M,M,M,22.00,KINS 142040Z AUTO 21012KT 4SM -SN FEW005 BKN022 BKN026 OVC080 M00/M03 A2970 RMK AO2 PRESFR SLP057 $,M
LAS,2023-02-14 20:45,-115.1634,36.0719,663.00,40.00,26.10,57.47,330.00,24.00,T,29.63,M,10.00,48.00,FEW,BKN,OVC,M,1500.00,3000.00,5000.00,M,-RASN,M,M,M,49.00,340.00,2023-02-14 20:35,28.72,KLAS 142045Z 33024G48KT 10SM -RASN FEW015 BKN030 OVC050 04/M03 A2963 RMK AO2 PK WND 34049/2035 RAB04SNB08E23B45 P0000 T00441033 $,M
INS,2023-02-14 20:47,-115.6733,36.5872,955.00,32.00,24.80,74.44,210.00,12.00,0.00,29.69,1005.60,8.00,M,FEW,BKN,OVC,M,500.00,2100.00,8000.00,M,M,M,M,M,M,M,M,22.00,KINS 142047Z AUTO 21012KT 8SM FEW005 BKN021 OVC080 M00/M04 A2969 RMK AO2 SNE47 SLP056 $,M
INS,2023-02-14 20:52,-115.6733,36.5872,955.00,32.00,24.80,74.44,210.00,10.00,0.00,29.68,1005.30,9.00,M,FEW,SCT,OVC,M,500.00,1900.00,8000.00,M,M,M,M,M,M,M,M,22.97,KINS 142052Z AUTO 21010KT 9SM FEW005 SCT019 OVC080 00/M04 A2968 RMK AO2 SNE47 SLP053 $,M
P68,2023-02-14 20:53,-116.0056,39.6014,1993.00,19.90,8.10,59.60,360.00,11.00,0.00,29.68,1007.20,M,M,M,M,M,M,M,M,M,M,M,M,M,M,M,M,M,7.18,KP68 142053Z AUTO 36011KT M07/M13 A2968 RMK AO1 SLP072 T10671133 58009,M
ELY,2023-02-14 20:53,-114.8453,39.2950,1909.00,19.90,10.00,64.91,310.00,14.00,0.02,29.58,1004.10,10.00,M,FEW,OVC,M,M,2600.00,3300.00,M,M,M,M,M,M,M,M,M,5.57,KELY 142053Z AUTO 31014KT 10SM FEW026 OVC033 M07/M12 A2958 RMK AO2 SNE12 SLP041 P0002 60004 T10671122 56006,M
VGT,2023-02-14 20:53,-115.1933,36.2111,667.00,38.00,28.90,69.73,320.00,28.00,T,29.63,1005.60,9.00,46.00,OVC,M,M,M,6000.00,M,M,M,-SN,M,M,M,49.00,320.00,2023-02-14 20:33,25.19,KVGT 142053Z 32028G46KT 9SM -SN OVC060 03/M02 A2963 RMK AO2 PK WND 32049/2033 RAB04E36SNE04B36 SLP056 P0000 60002 T00331017 53005,M
LOL,2023-02-14 20:53,-118.5701,40.0684,1192.43,28.90,12.90,50.70,310.00,10.00,0.00,29.84,1012.10,10.00,M,OVC,M,M,M,5500.00,M,M,M,M,M,M,M,M,M,M,19.08,KLOL 142053Z AUTO 31010KT 10SM OVC055 M02/M11 A2984 RMK AO2 SLP121 T10171106 58013,M
DRA,2023-02-14 20:53,-116.0278,36.6206,1009.00,35.00,24.10,63.86,110.00,11.00,0.00,29.67,1003.90,10.00,17.00,OVC,M,M,M,10000.00,M,M,M,M,M,M,M,M,M,M,26.38,KDRA 142053Z AUTO 11011G17KT 10SM OVC100 02/M04 A2967 RMK AO2 SLP039 60004 T00171044 58009,M
BVU,2023-02-14 20:55,-114.8611,35.9475,671.00,39.20,28.40,64.93,330.00,31.00,0.00,29.61,M,10.00,39.00,FEW,FEW,SCT,M,1800.00,2400.00,3400.00,M,-RA,M,M,M,M,M,M,26.42,KBVU 142055Z AUTO 33031G39KT 10SM -RA FEW018 FEW024 SCT034 04/M02 A2961 RMK AO2,M
CXP,2023-02-14 20:55,-119.7326,39.1923,1431.00,32.00,1.40,26.55,0.00,0.00,0.00,29.79,M,10.00,M,SCT,BKN,BKN,M,6000.00,7000.00,8000.00,M,M,M,M,M,M,M,M,32.00,KCXP 142055Z AUTO 00000KT 10SM SCT060 BKN070 BKN080 M00/M17 A2979 RMK AO2,M
INS,2023-02-14 20:55,-115.6733,36.5872,955.00,32.20,25.20,75.09,220.00,10.00,T,29.68,1005.30,10.00,M,FEW,SCT,OVC,M,500.00,1700.00,8000.00,M,M,M,M,M,M,M,M,23.22,KINS 142055Z AUTO 22010KT 10SM FEW005 SCT017 OVC080 00/M04 A2968 RMK AO2 SNE47 SLP053 P0000 60001 T00011038 50004 $,M
RTS,2023-02-14 20:55,-119.8764,39.6682,1539.00,28.40,6.80,39.39,300.00,14.00,0.00,29.79,M,10.00,M,SCT,SCT,M,M,7000.00,9000.00,M,M,M,M,M,M,M,M,M,16.52,KRTS 142055Z AUTO 30014KT 10SM SCT070 SCT090 M02/M14 A2979 RMK AO2,M
05U,2023-02-14 20:55,-116.0051,39.6042,1811.23,M,M,M,10.00,11.00,0.00,29.71,M,10.00,M,M,M,M,M,M,M,M,M,M,M,M,M,M,M,M,M,K05U 142055Z AUTO 01011KT 10SM A2971 RMK A01,M
MEV,2023-02-14 20:55,-119.7500,38.9963,1441.42,30.20,3.20,31.04,140.00,5.00,0.00,29.78,M,10.00,M,SCT,BKN,M,M,7000.00,8000.00,M,M,M,M,M,M,M,M,M,24.26,KMEV 142055Z AUTO 14005KT 10SM SCT070 BKN080 M01/M16 A2978 RMK AO2,M
BAM,2023-02-14 20:55,-116.8743,40.5990,1382.36,30.20,14.00,50.47,330.00,8.00,0.00,29.80,M,10.00,M,SCT,M,M,M,4800.00,M,M,M,M,M,M,M,M,M,M,21.90,KBAM 142055Z AUTO 33008KT 10SM SCT048 M01/M10 A2980 RMK AO1,M
HTH,2023-02-14 20:55,-118.6315,38.5448,1282.89,33.80,1.40,24.70,10.00,11.00,0.00,29.81,M,10.00,M,FEW,M,M,M,10000.00,M,M,M,M,M,M,M,M,M,M,24.74,KHTH 142055Z AUTO 01011KT 10SM FEW100 01/M17 A2981 RMK A01,M
TMT,2023-02-14 20:55,-117.1971,39.4643,1749.34,22.60,5.20,46.60,340.00,14.00,0.00,29.74,M,10.00,M,CLR,M,M,M,M,M,M,M,M,M,M,M,M,M,M,9.05,KTMT 142055Z AUTO 34014KT 10SM CLR M05/M15 A2974 RMK AO2 T10521149,M
LSV,2023-02-14 20:55,-115.0343,36.2362,570.00,40.50,30.00,65.89,290.00,36.00,0.00,29.59,M,10.00,45.00,CLR,M,M,M,M,M,M,M,M,M,M,M,M,M,M,27.42,KLSV 142055Z AUTO 29036G45KT 10SM CLR 05/M01 A2959 RMK AO2 SLPNO 60000 T00471011 55000 $,M
RNO,2023-02-14 20:55,-119.7711,39.4839,1341.00,34.00,6.00,30.42,350.00,9.00,0.00,29.79,1009.30,10.00,M,BKN,BKN,M,M,6500.00,12000.00,M,M,M,M,M,M,M,M,M,26.00,KRNO 142055Z 35009KT 10SM BKN065 BKN120 01/M14 A2979 RMK AO2 SLP093 T00111144 58030,M
EKO,2023-02-14 20:56,-115.7860,40.8242,1367.00,21.90,10.90,62.07,310.00,11.00,T,29.72,1010.10,10.00,19.00,OVC,M,M,M,3600.00,M,M,M,M,M,M,M,M,M,M,9.70,KEKO 142056Z AUTO 31011G19KT 10SM OVC036 M06/M12 A2972 RMK AO2 SNE35 SLP101 P0000 60000 T10561117 58003,M
HND,2023-02-14 20:56,-115.1344,35.9729,742.79,38.00,24.10,57.18,330.00,21.00,T,29.65,1006.00,10.00,29.00,OVC,M,M,M,4000.00,M,M,M,-RA,M,M,M,35.00,350.00,2023-02-14 20:41,26.72,KHND 142056Z 33021G29KT 10SM -RA OVC040 03/M04 A2965 RMK AO2 PK WND 35035/2041 SLP060 P0000 60000 T00331044 53004,M
LAS,2023-02-14 20:56,-115.1634,36.0719,663.00,40.00,25.00,54.90,330.00,25.00,T,29.65,1003.70,9.00,43.00,FEW,BKN,OVC,M,1500.00,3000.00,5000.00,M,-SN,M,M,M,49.00,340.00,2023-02-14 20:35,28.51,KLAS 142056Z 33025G43KT 9SM -SN FEW015 BKN030 OVC050 04/M04 A2965 RMK AO2 PK WND 34049/2035 RAB04E53SNB08E23B45 SLP037 P0000 60000 T00441039 53010 $,M
TPH,2023-02-14 20:56,-117.0904,38.0505,1654.00,30.00,-5.00,21.16,330.00,22.00,0.00,29.71,1006.50,10.00,37.00,FEW,M,M,M,9000.00,M,M,M,M,M,M,M,46.00,320.00,2023-02-14 20:05,15.90,KTPH 142056Z AUTO 33022G37KT 10SM FEW090 M01/M21 A2971 RMK AO2 PK WND 32046/2005 SLP065 T10111206 58019,M
NFL,2023-02-14 20:56,-118.7010,39.4166,1199.00,33.00,3.00,27.36,320.00,11.00,0.00,29.81,1007.30,10.00,M,SCT,BKN,OVC,M,4000.00,7000.00,8500.00,M,M,M,M,M,M,M,M,23.86,KNFL 142056Z 32011KT 10SM SCT040 BKN070 OVC085 01/M16 A2981 RMK AO2 SLP073 T00061161 57022,M
BVU,2023-02-14 21:15,-114.8611,35.9475,671.00,37.40,28.40,69.67,310.00,27.00,0.00,29.65,M,6.00,43.00,FEW,SCT,SCT,M,1800.00,2300.00,5000.00,M,-RA,M,M,M,M,M,M,24.70,KBVU 142115Z AUTO 31027G43KT 6SM -RA FEW018 SCT023 SCT050 03/M02 A2965 RMK AO2,M
CXP,2023-02-14 21:15,-119.7326,39.1923,1431.00,32.00,3.20,28.86,10.00,7.00,0.00,29.79,M,10.00,M,FEW,SCT,OVC,M,2300.00,4000.00,6000.00,M,M,M,M,M,M,M,M,24.78,KCXP 142115Z AUTO 01007KT 10SM FEW023 SCT040 OVC060 M00/M16 A2979 RMK AO2,M
RTS,2023-02-14 21:15,-119.8764,39.6682,1539.00,28.40,6.80,39.39,310.00,13.00,0.00,29.79,M,10.00,19.00,FEW,FEW,M,M,7000.00,9000.00,M,M,M,M,M,M,M,M,M,16.96,KRTS 142115Z AUTO 31013G19KT 10SM FEW070 FEW090 M02/M14 A2979 RMK AO2,M
05U,2023-02-14 21:15,-116.0051,39.6042,1811.23,23.00,6.80,49.29,360.00,9.00,0.00,29.70,M,10.00,14.00,M,M,M,M,M,M,M,M,M,M,M,M,M,M,M,12.32,K05U 142115Z AUTO 36009G14KT 10SM M05/M14 A2970 RMK A01,M
MEV,2023-02-14 21:15,-119.7500,38.9963,1441.42,32.00,3.20,28.86,0.00,0.00,0.00,29.77,M,10.00,M,FEW,SCT,BKN,M,4900.00,6000.00,7000.00,M,M,M,M,M,M,M,M,32.00,KMEV 142115Z AUTO 00000KT 10SM FEW049 SCT060 BKN070 M00/M16 A2977 RMK AO2,M
BAM,2023-02-14 21:15,-116.8743,40.5990,1382.36,28.40,17.60,63.51,280.00,11.00,0.00,29.79,M,10.00,17.00,SCT,SCT,BKN,M,3500.00,4200.00,5000.00,M,M,M,M,M,M,M,M,17.92,KBAM 142115Z AUTO 28011G17KT 10SM SCT035 SCT042 BKN050 M02/M08 A2979 RMK AO1,M
HTH,2023-02-14 21:15,-118.6315,38.5448,1282.89,35.60,-2.20,19.41,350.00,14.00,0.00,29.79,M,10.00,M,CLR,M,M,M,M,M,M,M,M,M,M,M,M,M,M,25.80,KHTH 142115Z AUTO 35014KT 10SM CLR 02/M19 A2979 RMK A01,M
HND,2023-02-14 21:19,-115.1344,35.9729,742.79,35.60,28.40,74.80,330.00,23.00,T,29.67,M,1.75,30.00,FEW,OVC,M,M,1800.00,3800.00,M,M,-SN,M,M,M,34.00,330.00,2023-02-14 21:01,23.15,KHND 142119Z 33023G30KT 1 3/4SM -SN FEW018 OVC038 02/M02 A2967 RMK AO2 PK WND 33034/2101 RAE11SNB11 P0000,M
LAS,2023-02-14 21:26,-115.1634,36.0719,663.00,39.00,25.00,56.86,330.00,19.00,T,29.66,M,9.00,33.00,FEW,BKN,OVC,M,1500.00,3000.00,5000.00,M,M,M,M,M,39.00,330.00,2023-02-14 21:02,28.69,KLAS 142126Z 33019G33KT 9SM FEW015 BKN030 OVC050 04/M04 A2966 RMK AO2 PK WND 33039/2102 SNE24 P0000 T00391039,M
HND,2023-02-14 21:29,-115.1344,35.9729,742.79,35.60,26.60,69.46,340.00,18.00,T,29.67,M,3.00,27.00,FEW,BKN,OVC,M,1700.00,3100.00,4000.00,M,-SN,M,M,M,34.00,330.00,2023-02-14 21:01,24.49,KHND 142129Z 34018G27KT 3SM -SN FEW017 BKN031 OVC040 02/M03 A2967 RMK AO2 PK WND 33034/2101 RAE11SNB11 P0000,M
ELY,2023-02-14 21:32,-114.8453,39.2950,1909.00,18.00,9.00,67.33,330.00,18.00,T,29.57,M,2.50,24.00,FEW,BKN,OVC,M,2000.00,2500.00,3700.00,M,-SN,M,M,M,M,M,M,1.32,KELY 142132Z AUTO 33018G24KT 2 1/2SM -SN FEW020 BKN025 OVC037 M08/M13 A2957 RMK AO2 VIS 1 1/4V5 SNB29 P0000 T10781128,M
BVU,2023-02-14 21:35,-114.8611,35.9475,671.00,35.60,30.20,80.51,320.00,31.00,0.00,29.65,M,0.25,37.00,OVC,M,M,M,300.00,M,M,M,+UP,M,M,M,M,M,M,21.46,KBVU 142135Z AUTO 32031G37KT 1/4SM +UP OVC003 02/M01 A2965 RMK AO2,M
CXP,2023-02-14 21:35,-119.7326,39.1923,1431.00,30.20,10.40,43.04,350.00,8.00,0.00,29.79,M,10.00,M,FEW,SCT,BKN,M,2200.00,3000.00,3800.00,M,M,M,M,M,M,M,M,21.90,KCXP 142135Z AUTO 35008KT 10SM FEW022 SCT030 BKN038 M01/M12 A2979 RMK AO2,M
RTS,2023-02-14 21:35,-119.8764,39.6682,1539.00,28.40,10.40,46.32,320.00,15.00,0.00,29.79,M,10.00,M,FEW,FEW,SCT,M,3100.00,3700.00,6000.00,M,-UP,M,M,M,M,M,M,16.11,KRTS 142135Z AUTO 32015KT 10SM -UP FEW031 FEW037 SCT060 M02/M12 A2979 RMK AO2,M
05U,2023-02-14 21:35,-116.0051,39.6042,1811.23,23.00,6.80,49.29,350.00,12.00,0.00,29.70,M,10.00,18.00,M,M,M,M,M,M,M,M,M,M,M,M,M,M,M,10.55,K05U 142135Z AUTO 35012G18KT 10SM M05/M14 A2970 RMK A01,M
MEV,2023-02-14 21:35,-119.7500,38.9963,1441.42,M,M,M,M,M,0.00,M,M,M,M,M,M,M,M,M,M,M,M,M,M,M,M,M,M,M,M,KMEV 142135Z AUTO RMK AO2 PNO PWINO TSNO,M
BAM,2023-02-14 21:35,-116.8743,40.5990,1382.36,26.60,15.80,63.27,300.00,8.00,0.00,29.79,M,10.00,M,SCT,SCT,BKN,M,3700.00,5000.00,7000.00,M,M,M,M,M,M,M,M,17.46,KBAM 142135Z AUTO 30008KT 10SM SCT037 SCT050 BKN070 M03/M09 A2979 RMK AO1,M
HTH,2023-02-14 21:35,-118.6315,38.5448,1282.89,33.80,-4.00,19.14,340.00,11.00,0.00,29.78,M,10.00,M,FEW,M,M,M,9500.00,M,M,M,M,M,M,M,M,M,M,24.74,KHTH 142135Z AUTO 34011KT 10SM FEW095 01/M20 A2978 RMK A01,M
TMT,2023-02-14 21:35,-117.1971,39.4643,1749.34,22.60,5.70,47.68,340.00,12.00,0.00,29.74,M,10.00,M,CLR,M,M,M,M,M,M,M,M,M,M,M,M,M,M,10.04,KTMT 142135Z AUTO 34012KT 10SM CLR M05/M15 A2974 RMK AO2 T10521146,M
ELY,2023-02-14 21:36,-114.8453,39.2950,1909.00,18.00,10.00,70.41,330.00,19.00,T,29.57,M,1.25,25.00,BKN,OVC,M,M,2200.00,3500.00,M,M,-SN,M,M,M,M,M,M,0.92,KELY 142136Z AUTO 33019G25KT 1 1/4SM -SN BKN022 OVC035 M08/M12 A2957 RMK AO2 SNB29 P0000 T10781122,M
ELY,2023-02-14 21:45,-114.8453,39.2950,1909.00,17.10,12.00,80.01,340.00,15.00,T,29.57,M,0.50,24.00,BKN,BKN,OVC,M,1300.00,2100.00,3700.00,M,SN,M,M,M,M,M,M,1.46,KELY 142145Z AUTO 34015G24KT 1/2SM SN BKN013 BKN021 OVC037 M08/M11 A2957 RMK AO2 SNB29 P0000 T10831111,M
CXP,2023-02-14 21:50,-119.7326,39.1923,1431.00,30.20,8.60,39.70,M,6.00,0.00,29.79,M,10.00,M,FEW,FEW,BKN,M,3200.00,4100.00,5000.00,M,M,M,M,M,M,M,M,23.36,KCXP 142150Z AUTO VRB06KT 10SM FEW032 FEW041 BKN050 M01/M13 A2979 RMK AO2,M
P68,2023-02-14 21:53,-116.0056,39.6014,1993.00,21.00,5.00,49.41,350.00,13.00,0.00,29.67,1007.00,M,M,M,M,M,M,M,M,M,M,M,M,M,M,M,M,M,7.48,KP68 142153Z AUTO 35013KT M06/M15 A2967 RMK AO1 SLP070 T10611150,M
DRA,2023-02-14 21:53,-116.0278,36.6206,1009.00,42.00,1.90,18.25,340.00,19.00,0.00,29.65,1002.60,10.00,27.00,CLR,M,M,M,M,M,M,M,M,M,M,M,27.00,360.00,2023-02-14 21:48,32.79,KDRA 142153Z AUTO 34019G27KT 10SM CLR 06/M17 A2965 RMK AO2 PK WND 36027/2148 SLP026 T00561167,M
ELY,2023-02-14 21:53,-114.8453,39.2950,1909.00,17.10,10.90,76.20,330.00,14.00,T,29.57,1004.80,0.50,23.00,BKN,OVC,M,M,1100.00,2100.00,M,M,SN,M,M,M,M,M,M,1.96,KELY 142153Z AUTO 33014G23KT 1/2SM SN BKN011 OVC021 M08/M12 A2957 RMK AO2 SNB29 SLP048 P0000 T10831117,M
VGT,2023-02-14 21:53,-115.1933,36.2111,667.00,41.00,25.00,52.61,340.00,11.00,T,29.62,1005.20,10.00,M,OVC,M,M,M,7000.00,M,M,M,M,M,M,M,45.00,320.00,2023-02-14 20:54,33.84,KVGT 142153Z 34011KT 10SM OVC070 05/M04 A2962 RMK AO2 PK WND 32045/2054 RAB04E06SNE04B06E24 SLP052 P0000 T00501039,M
LOL,2023-02-14 21:53,-118.5701,40.0684,1192.43,32.00,14.00,46.92,290.00,15.00,0.00,29.82,1011.50,10.00,M,OVC,M,M,M,5500.00,M,M,M,M,M,M,M,M,M,M,20.78,KLOL 142153Z AUTO 29015KT 10SM OVC055 00/M10 A2982 RMK AO2 SLP115 T00001100,M
BVU,2023-02-14 21:55,-114.8611,35.9475,671.00,35.60,26.60,69.46,320.00,19.00,0.00,29.67,M,0.75,29.00,OVC,M,M,M,300.00,M,M,M,-UP,M,M,M,M,M,M,24.20,KBVU 142155Z AUTO 32019G29KT 3/4SM -UP OVC003 02/M03 A2967 RMK AO2,M
INS,2023-02-14 21:55,-115.6733,36.5872,955.00,37.80,19.40,47.06,260.00,13.00,0.00,29.65,1004.00,10.00,M,OVC,M,M,M,11000.00,M,M,M,M,M,M,M,M,M,M,29.00,KINS 142155Z AUTO 26013KT 10SM OVC110 03/M07 A2965 RMK AO2 SLP040 T00321070 $,M
RTS,2023-02-14 21:55,-119.8764,39.6682,1539.00,24.80,14.00,63.03,280.00,9.00,0.00,29.80,M,3.00,14.00,FEW,FEW,SCT,M,300.00,1300.00,4200.00,M,-SN,M,M,M,M,M,M,14.56,KRTS 142155Z AUTO 28009G14KT 3SM -SN FEW003 FEW013 SCT042 M04/M10 A2980 RMK AO2,M
05U,2023-02-14 21:55,-116.0051,39.6042,1811.23,23.00,3.20,41.80,350.00,11.00,0.00,29.70,M,10.00,17.00,M,M,M,M,M,M,M,M,M,M,M,M,M,M,M,11.09,K05U 142155Z AUTO 35011G17KT 10SM M05/M16 A2970 RMK A01,M
MEV,2023-02-14 21:55,-119.7500,38.9963,1441.42,32.00,8.60,36.91,30.00,12.00,0.00,29.76,M,10.00,17.00,M,M,M,M,M,M,M,M,M,M,M,M,M,M,M,22.00,KMEV 142155Z AUTO 03012G17KT 10SM M00/M13 A2976 RMK AO2,M
BAM,2023-02-14 21:55,-116.8743,40.5990,1382.36,28.40,15.80,58.75,290.00,6.00,0.00,29.79,M,10.00,M,SCT,M,M,M,7000.00,M,M,M,M,M,M,M,M,M,M,21.19,KBAM 142155Z AUTO 29006KT 10SM SCT070 M02/M09 A2979 RMK AO1,M
HTH,2023-02-14 21:55,-118.6315,38.5448,1282.89,33.80,-4.00,19.14,20.00,10.00,0.00,29.77,M,10.00,15.00,FEW,M,M,M,9000.00,M,M,M,M,M,M,M,M,M,M,25.23,KHTH 142155Z AUTO 02010G15KT 10SM FEW090 01/M20 A2977 RMK A01,M
TMT,2023-02-14 21:55,-117.1971,39.4643,1749.34,22.10,6.80,51.19,340.00,13.00,0.00,29.74,M,10.00,M,CLR,M,M,M,M,M,M,M,M,M,M,M,M,M,M,8.89,KTMT 142155Z AUTO 34013KT 10SM CLR M05/M14 A2974 RMK AO2 T10551140,M
LSV,2023-02-14 21:55,-115.0343,36.2362,570.00,40.50,28.40,61.72,290.00,12.00,0.00,29.63,M,10.00,21.00,CLR,M,M,M,M,M,M,M,M,M,M,M,43.00,280.00,2023-02-14 21:14,32.82,KLSV 142155Z AUTO 29012G21KT 10SM CLR 05/M02 A2963 RMK AO2 PK WND 28043/14 SLPNO T00471020 $,M
RNO,2023-02-14 21:55,-119.7711,39.4839,1341.00,35.00,7.00,30.33,330.00,12.00,0.00,29.78,1009.00,10.00,20.00,BKN,BKN,M,M,6500.00,12000.00,M,M,M,M,M,M,M,M,M,25.95,KRNO 142155Z 33012G20KT 10SM BKN065 BKN120 02/M14 A2978 RMK AO2 SLP090 SH VC SE THRU SW AND NW T00171139,M
EKO,2023-02-14 21:56,-115.7860,40.8242,1367.00,24.10,8.10,49.92,310.00,15.00,0.00,29.72,1009.90,10.00,21.00,OVC,M,M,M,4700.00,M,M,M,M,M,M,M,M,M,M,10.54,KEKO 142156Z AUTO 31015G21KT 10SM OVC047 M04/M13 A2972 RMK AO2 SLP099 T10441133,M
HND,2023-02-14 21:56,-115.1344,35.9729,742.79,39.00,23.00,52.30,300.00,12.00,T,29.68,1007.00,10.00,20.00,FEW,OVC,M,M,2500.00,3600.00,M,M,-RA,M,M,M,34.00,330.00,2023-02-14 21:01,30.91,KHND 142156Z 30012G20KT 10SM -RA FEW025 OVC036 04/M05 A2968 RMK AO2 PK WND 33034/2101 RAE11B56UPB33E47SNB11E33 SLP070 P0000 T00391050,M
TPH,2023-02-14 21:56,-117.0904,38.0505,1654.00,30.00,-9.00,17.51,360.00,25.00,0.00,29.69,1006.10,10.00,34.00,SCT,M,M,M,9500.00,M,M,M,M,M,M,M,37.00,330.00,2023-02-14 21:01,15.11,KTPH 142156Z AUTO 36025G34KT 10SM SCT095 M01/M23 A2969 RMK AO2 PK WND 33037/2101 SLP061 T10111228,M
LAS,2023-02-14 21:56,-115.1634,36.0719,663.00,42.00,17.10,36.07,290.00,16.00,T,29.65,1003.60,10.00,28.00,FEW,SCT,OVC,M,1500.00,3000.00,5000.00,M,M,M,M,M,39.00,330.00,2023-02-14 21:02,33.58,KLAS 142156Z 29016G28KT 10SM FEW015 SCT030 OVC050 06/M08 A2965 RMK AO2 PK WND 33039/2102 SNE24 SLP036 P0000 T00561083,M
ELY,2023-02-14 21:59,-114.8453,39.2950,1909.00,18.00,10.00,70.41,330.00,15.00,T,29.57,M,1.50,M,BKN,OVC,M,M,1400.00,2700.00,M,M,-SN,M,M,M,M,M,M,2.63,KELY 142159Z AUTO 33015KT 1 1/2SM -SN BKN014 OVC027 M08/M12 A2957 RMK AO2 P0000 T10781122,M
ELY,2023-02-14 22:01,-114.8453,39.2950,1909.00,18.00,10.00,70.41,320.00,18.00,T,29.57,M,3.00,23.00,BKN,OVC,M,M,1400.00,2700.00,M,M,-SN,M,M,M,M,M,M,1.32,KELY 142201Z AUTO 32018G23KT 3SM -SN BKN014 OVC027 M08/M12 A2957 RMK AO2 P0000 T10781122,M
ELY,2023-02-14 22:08,-114.8453,39.2950,1909.00,18.00,10.00,70.41,320.00,16.00,T,29.56,M,9.00,M,BKN,BKN,OVC,M,2000.00,3700.00,4700.00,M,M,M,M,M,M,M,M,2.17,KELY 142208Z AUTO 32016KT 9SM BKN020 BKN037 OVC047 M08/M12 A2956 RMK AO2 SNE03 P0000 T10781122,M
HND,2023-02-14 22:10,-115.1344,35.9729,742.79,37.40,30.20,74.98,240.00,14.00,T,29.67,M,10.00,M,BKN,OVC,M,M,3400.00,4300.00,M,M,-RA,M,M,M,M,M,M,28.12,KHND 142210Z 24014KT 10SM -RA BKN034 OVC043 03/M01 A2967 RMK AO2 WSHFT 2150 P0000,M
BVU,2023-02-14 22:15,-114.8611,35.9475,671.00,37.40,26.60,64.70,330.00,12.00,0.00,29.66,M,9.00,19.00,BKN,BKN,OVC,M,2400.00,3700.00,4700.00,M,M,M,M,M,M,M,M,28.87,KBVU 142215Z AUTO 33012G19KT 9SM BKN024 BKN037 OVC047 03/M03 A2966 RMK AO2,M
CXP,2023-02-14 22:15,-119.7326,39.1923,1431.00,30.20,8.60,39.70,M,3.00,0.00,29.79,M,10.00,M,BKN,BKN,M,M,4500.00,5500.00,M,M,M,M,M,M,M,M,M,26.63,KCXP 142215Z AUTO VRB03KT 10SM BKN045 BKN055 M01/M13 A2979 RMK AO2,M
RTS,2023-02-14 22:15,-119.8764,39.6682,1539.00,28.40,15.80,58.75,360.00,14.00,0.00,29.80,M,9.00,24.00,FEW,SCT,M,M,2500.00,4000.00,M,M,M,M,M,M,M,M,M,16.52,KRTS 142215Z AUTO 36014G24KT 9SM FEW025 SCT040 M02/M09 A2980 RMK AO2,M
05U,2023-02-14 22:15,-116.0051,39.6042,1811.23,21.20,5.00,48.99,360.00,12.00,0.00,29.70,M,10.00,M,M,M,M,M,M,M,M,M,M,M,M,M,M,M,M,8.26,K05U 142215Z AUTO 36012KT 10SM M06/M15 A2970 RMK A01,M
MEV,2023-02-14 22:15,-119.7500,38.9963,1441.42,28.40,17.60,63.51,20.00,18.00,0.00,29.78,M,1.75,M,SCT,BKN,BKN,M,2200.00,3500.00,4700.00,M,UP HZ,M,M,M,M,M,M,15.01,KMEV 142215Z AUTO 02018KT 1 3/4SM UP HZ SCT022 BKN035 BKN047 M02/M08 A2978 RMK AO2 VIS 3/4V2 1/2,M
BAM,2023-02-14 22:15,-116.8743,40.5990,1382.36,30.20,17.60,59.01,300.00,16.00,0.00,29.80,M,10.00,M,SCT,SCT,BKN,M,2600.00,3600.00,5000.00,M,M,M,M,M,M,M,M,18.07,KBAM 142215Z AUTO 30016KT 10SM SCT026 SCT036 BKN050 M01/M08 A2980 RMK AO1,M
HTH,2023-02-14 22:15,-118.6315,38.5448,1282.89,33.80,-4.00,19.14,10.00,11.00,0.00,29.76,M,10.00,M,CLR,M,M,M,M,M,M,M,M,M,M,M,M,M,M,24.74,KHTH 142215Z AUTO 01011KT 10SM CLR 01/M20 A2976 RMK A01,M
TMT,2023-02-14 22:15,-117.1971,39.4643,1749.34,22.10,7.70,53.32,340.00,13.00,0.00,29.74,M,10.00,M,CLR,M,M,M,M,M,M,M,M,M,M,M,M,M,M,8.89,KTMT 142215Z AUTO 34013KT 10SM CLR M05/M13 A2974 RMK AO2 T10551135,M
INS,2023-02-14 22:16,-115.6733,36.5872,955.00,41.00,15.80,35.57,310.00,12.00,0.00,29.65,1003.80,10.00,M,SCT,M,M,M,12000.00,M,M,M,M,M,M,M,M,M,M,33.46,KINS 142216Z AUTO 31012KT 10SM SCT120 05/M09 A2965 RMK AO2 WSHFT 11 SLP038 $,M
HND,2023-02-14 22:19,-115.1344,35.9729,742.79,37.40,30.20,74.98,200.00,9.00,T,29.66,M,10.00,M,FEW,BKN,OVC,M,3000.00,5000.00,6000.00,M,-RA,M,M,M,M,M,M,30.23,KHND 142219Z 20009KT 10SM -RA FEW030 BKN050 OVC060 03/M01 A2966 RMK AO2 WSHFT 2159 P0000,M
ELY,2023-02-14 22:24,-114.8453,39.2950,1909.00,19.00,10.00,67.46,320.00,20.00,T,29.56,M,10.00,27.00,BKN,BKN,OVC,M,4000.00,4700.00,5500.00,M,M,M,M,M,27.00,310.00,2023-02-14 22:24,1.87,KELY 142224Z AUTO 32020G27KT 10SM BKN040 BKN047 OVC055 M07/M12 A2956 RMK AO2 PK WND 31027/2224 SNE03 P0000 T10721122,M
CXP,2023-02-14 22:30,-119.7326,39.1923,1431.00,30.20,10.40,43.04,20.00,8.00,0.00,29.79,M,10.00,M,SCT,SCT,BKN,M,4400.00,5000.00,7000.00,M,M,M,M,M,M,M,M,21.90,KCXP 142230Z AUTO 02008KT 10SM SCT044 SCT050 BKN070 M01/M12 A2979 RMK AO2,M
BVU,2023-02-14 22:35,-114.8611,35.9475,671.00,37.40,26.60,64.70,310.00,6.00,0.00,29.66,M,10.00,12.00,FEW,SCT,OVC,M,2700.00,4600.00,6000.00,M,M,M,M,M,M,M,M,32.03,KBVU 142235Z AUTO 31006G12KT 10SM FEW027 SCT046 OVC060 03/M03 A2966 RMK AO2,M
RTS,2023-02-14 22:35,-119.8764,39.6682,1539.00,26.60,15.80,63.27,360.00,14.00,0.00,29.81,M,10.00,M,FEW,SCT,M,M,2700.00,4000.00,M,M,M,M,M,M,M,M,M,14.20,KRTS 142235Z AUTO 36014KT 10SM FEW027 SCT040 M03/M09 A2981 RMK AO2,M
05U,2023-02-14 22:35,-116.0051,39.6042,1811.23,21.20,5.00,48.99,340.00,14.00,0.00,29.70,M,10.00,M,M,M,M,M,M,M,M,M,M,M,M,M,M,M,M,7.24,K05U 142235Z AUTO 34014KT 10SM M06/M15 A2970 RMK A01,M
MEV,2023-02-14 22:35,-119.7500,38.9963,1441.42,26.60,19.40,73.89,70.00,7.00,0.00,29.78,M,3.00,M,FEW,FEW,FEW,M,2500.00,3500.00,4700.00,M,-SN HZ,M,M,M,M,M,M,18.20,KMEV 142235Z AUTO 07007KT 3SM -SN HZ FEW025 FEW035 FEW047 M03/M07 A2978 RMK AO2,M
BAM,2023-02-14 22:35,-116.8743,40.5990,1382.36,30.20,17.60,59.01,300.00,13.00,0.00,29.79,M,10.00,M,SCT,SCT,BKN,M,2000.00,2800.00,4900.00,M,M,M,M,M,M,M,M,19.26,KBAM 142235Z AUTO 30013KT 10SM SCT020 SCT028 BKN049 M01/M08 A2979 RMK AO1,M
HTH,2023-02-14 22:35,-118.6315,38.5448,1282.89,33.80,-2.20,20.85,10.00,11.00,0.00,29.76,M,10.00,18.00,CLR,M,M,M,M,M,M,M,M,M,M,M,M,M,M,24.74,KHTH 142235Z AUTO 01011G18KT 10SM CLR 01/M19 A2976 RMK A01,M
TMT,2023-02-14 22:35,-117.1971,39.4643,1749.34,21.00,9.00,59.23,350.00,10.00,0.00,29.74,M,10.00,15.00,SCT,SCT,BKN,M,4300.00,4900.00,6000.00,M,M,M,M,M,M,M,M,9.17,KTMT 142235Z AUTO 35010G15KT 10SM SCT043 SCT049 BKN060 M06/M13 A2974 RMK AO2 T10611128,M
LAS,2023-02-14 22:41,-115.1634,36.0719,663.00,44.00,19.90,37.67,M,5.00,0.00,29.65,M,10.00,M,FEW,SCT,BKN,M,1500.00,3000.00,5000.00,M,M,M,M,M,M,M,M,40.77,KLAS 142241Z VRB05KT 10SM FEW015 SCT030 BKN050 07/M07 A2965 RMK AO2 T00671067,M
P68,2023-02-14 22:53,-116.0056,39.6014,1993.00,19.90,7.00,56.71,350.00,15.00,0.00,29.68,1007.90,M,24.00,M,M,M,M,M,M,M,M,M,M,M,M,M,M,M,5.09,KP68 142253Z AUTO 35015G24KT M07/M14 A2968 RMK AO1 SLP079 T10671139,M
ELY,2023-02-14 22:53,-114.8453,39.2950,1909.00,18.00,9.00,67.33,320.00,22.00,T,29.57,1004.80,5.00,32.00,SCT,BKN,OVC,M,4800.00,5500.00,7000.00,M,HZ,M,M,M,32.00,320.00,2023-02-14 22:44,-0.17,KELY 142253Z AUTO 32022G32KT 5SM HZ SCT048 BKN055 OVC070 M08/M13 A2957 RMK AO2 PK WND 32032/2244 SNE03 SLP048 P0000 T10781128,M
LOL,2023-02-14 22:53,-118.5701,40.0684,1192.43,30.90,16.00,53.53,310.00,13.00,0.00,29.83,1011.80,10.00,M,FEW,SCT,M,M,4600.00,6000.00,M,M,M,M,M,M,M,M,M,20.16,KLOL 142253Z AUTO 31013KT 10SM FEW046 SCT060 M01/M09 A2983 RMK AO2 SLP118 T10061089,M
DRA,2023-02-14 22:53,-116.0278,36.6206,1009.00,43.00,-5.00,12.66,340.00,27.00,0.00,29.66,1003.10,10.00,39.00,CLR,M,M,M,M,M,M,M,M,M,M,M,39.00,330.00,2023-02-14 22:52,32.34,KDRA 142253Z AUTO 34027G39KT 10SM CLR 06/M21 A2966 RMK AO2 PK WND 33039/2252 SLP031 T00611206,M
VGT,2023-02-14 22:53,-115.1933,36.2111,667.00,44.00,23.00,42.95,340.00,13.00,0.00,29.64,1005.80,10.00,19.00,FEW,M,M,M,11000.00,M,M,M,M,M,M,M,M,M,M,37.07,KVGT 142253Z 34013G19KT 10SM FEW110 07/M05 A2964 RMK AO2 SLP058 T00671050,M
BVU,2023-02-14 22:55,-114.8611,35.9475,671.00,39.20,28.40,64.93,120.00,8.00,0.00,29.66,M,10.00,M,FEW,BKN,BKN,M,4800.00,6000.00,7000.00,M,M,M,M,M,M,M,M,32.98,KBVU 142255Z AUTO 12008KT 10SM FEW048 BKN060 BKN070 04/M02 A2966 RMK AO2,M
CXP,2023-02-14 22:55,-119.7326,39.1923,1431.00,30.20,12.20,46.62,340.00,15.00,0.00,29.80,M,10.00,24.00,SCT,OVC,M,M,6500.00,8000.00,M,M,M,M,M,M,M,M,M,18.45,KCXP 142255Z AUTO 34015G24KT 10SM SCT065 OVC080 M01/M11 A2980 RMK AO2,M
INS,2023-02-14 22:55,-115.6733,36.5872,955.00,41.20,-6.00,12.99,320.00,22.00,0.00,29.65,1003.80,10.00,34.00,BKN,M,M,M,13000.00,M,M,M,M,M,M,M,34.00,310.00,2023-02-14 22:49,30.90,KINS 142255Z AUTO 32022G34KT 10SM BKN130 05/M21 A2965 RMK AO2 PK WND 31034/49 SLP038 T00511211 $,M
RNO,2023-02-14 22:55,-119.7711,39.4839,1341.00,32.00,15.10,49.23,360.00,15.00,0.00,29.82,1010.50,10.00,21.00,FEW,BKN,BKN,M,4000.00,5500.00,12000.00,M,M,M,M,M,M,M,M,20.78,KRNO 142255Z 36015G21KT 10SM FEW040 BKN055 BKN120 00/M09 A2982 RMK AO2 SLP105 SH VC ALQDS T00001094,M
RTS,2023-02-14 22:55,-119.8764,39.6682,1539.00,24.80,17.60,73.70,360.00,15.00,0.00,29.82,M,4.00,M,FEW,FEW,M,M,2500.00,3000.00,M,M,-UP,M,M,M,M,M,M,11.45,KRTS 142255Z AUTO 36015KT 4SM -UP FEW025 FEW030 M04/M08 A2982 RMK AO2,M
05U,2023-02-14 22:55,-116.0051,39.6042,1811.23,21.20,6.80,53.18,360.00,15.00,0.00,29.71,M,10.00,20.00,M,M,M,M,M,M,M,M,M,M,M,M,M,M,M,6.78,K05U 142255Z AUTO 36015G20KT 10SM M06/M14 A2971 RMK A01,M
MEV,2023-02-14 22:55,-119.7500,38.9963,1441.42,28.40,15.80,58.75,40.00,6.00,0.00,29.78,M,10.00,M,FEW,M,M,M,4600.00,M,M,M,M,M,M,M,M,M,M,21.19,KMEV 142255Z AUTO 04006KT 10SM FEW046 M02/M09 A2978 RMK AO2,M
BAM,2023-02-14 22:55,-116.8743,40.5990,1382.36,30.20,17.60,59.01,310.00,13.00,0.00,29.80,M,10.00,20.00,CLR,M,M,M,M,M,M,M,M,M,M,M,M,M,M,19.26,KBAM 142255Z AUTO 31013G20KT 10SM CLR M01/M08 A2980 RMK AO1,M
HTH,2023-02-14 22:55,-118.6315,38.5448,1282.89,33.80,-0.40,22.70,360.00,15.00,0.00,29.77,M,10.00,20.00,FEW,M,M,M,5500.00,M,M,M,M,M,M,M,M,M,M,23.11,KHTH 142255Z AUTO 36015G20KT 10SM FEW055 01/M18 A2977 RMK A01,M
TMT,2023-02-14 22:55,-117.1971,39.4643,1749.34,20.30,10.20,64.39,330.00,8.00,0.00,29.75,M,10.00,M,SCT,BKN,OVC,M,4200.00,4700.00,5500.00,M,M,M,M,M,M,M,M,9.70,KTMT 142255Z AUTO 33008KT 10SM SCT042 BKN047 OVC055 M06/M12 A2975 RMK AO2 T10651121,M
LSV,2023-02-14 22:55,-115.0343,36.2362,570.00,46.40,15.80,28.93,290.00,21.00,0.00,29.61,M,10.00,28.00,CLR,M,M,M,M,M,M,M,M,M,M,M,28.00,290.00,2023-02-14 22:47,38.06,KLSV 142255Z AUTO 29021G28KT 10SM CLR 08/M09 A2961 RMK AO2 PK WND 29028/47 SLPNO T00801090 $,M
EKO,2023-02-14 22:56,-115.7860,40.8242,1367.00,24.10,8.10,49.92,300.00,11.00,0.00,29.73,1010.40,10.00,M,BKN,OVC,M,M,6000.00,7000.00,M,M,M,M,M,M,M,M,M,12.48,KEKO 142256Z AUTO 30011KT 10SM BKN060 OVC070 M04/M13 A2973 RMK AO2 SLP104 T10441133,M
NFL,2023-02-14 22:56,-118.7010,39.4166,1199.00,30.90,12.90,46.74,20.00,11.00,0.00,29.82,1007.60,10.00,21.00,SCT,BKN,BKN,BKN,5000.00,7000.00,10000.00,25000.00,M,M,M,M,M,M,M,21.08,KNFL 142256Z 02011G21KT 10SM SCT050 BKN070 BKN100 BKN250 M01/M11 A2982 RMK AO2 SLP076 SH DSNT NW-N T10061106,M
HND,2023-02-14 22:56,-115.1344,35.9729,742.79,42.00,28.00,57.08,170.00,6.00,T,29.66,1006.30,10.00,M,FEW,SCT,M,M,7000.00,11000.00,M,M,M,M,M,M,M,M,M,37.69,KHND 142256Z 17006KT 10SM FEW070 SCT110 06/M02 A2966 RMK AO2 WSHFT 2159 RAE23 SLP063 P0000 T00561022,M
LAS,2023-02-14 22:56,-115.1634,36.0719,663.00,48.00,-2.00,12.14,330.00,13.00,0.00,29.65,1003.60,10.00,20.00,FEW,SCT,BKN,M,1500.00,3000.00,5000.00,M,M,M,M,M,M,M,M,42.07,KLAS 142256Z 33013G20KT 10SM FEW015 SCT030 BKN050 09/M19 A2965 RMK AO2 SLP036 T00891189,M
TPH,2023-02-14 22:56,-117.0904,38.0505,1654.00,30.00,-7.00,19.21,350.00,20.00,0.00,29.68,1006.20,10.00,29.00,BKN,M,M,M,8000.00,M,M,M,M,M,M,M,36.00,10.00,2023-02-14 22:03,16.48,KTPH 142256Z AUTO 35020G29KT 10SM BKN080 M01/M22 A2968 RMK AO2 PK WND 01036/2203 SLP062 T10111217,M
LSV,2023-02-14 23:03,-115.0343,36.2362,570.00,46.40,12.20,24.71,340.00,12.00,0.00,29.63,M,10.00,28.00,CLR,M,M,M,M,M,M,M,M,M,M,M,M,M,M,40.33,KLSV 142303Z AUTO 34012G28KT 10SM CLR 08/M11 A2963 RMK AO2 WSHFT 2253 PRESRR SLPNO $,M
INS,2023-02-14 23:10,-115.6733,36.5872,955.00,41.00,-4.00,14.42,330.00,22.00,0.00,29.66,1004.10,5.00,29.00,BKN,OVC,M,M,2900.00,14000.00,M,M,HZ,M,M,M,M,M,M,30.63,KINS 142310Z AUTO 33022G29KT 5SM HZ BKN029 OVC140 05/M20 A2966 RMK AO2 CIG 027V140 SLP041 $,M
BVU,2023-02-14 23:15,-114.8611,35.9475,671.00,39.20,30.20,69.88,210.00,10.00,0.00,29.66,M,10.00,M,FEW,FEW,FEW,M,6000.00,7500.00,8500.00,M,M,M,M,M,M,M,M,32.00,KBVU 142315Z AUTO 21010KT 10SM FEW060 FEW075 FEW085 04/M01 A2966 RMK AO2,M
CXP,2023-02-14 23:15,-119.7326,39.1923,1431.00,30.20,12.20,46.62,360.00,14.00,0.00,29.81,M,10.00,29.00,FEW,FEW,BKN,M,4300.00,5500.00,8000.00,M,M,M,M,M,M,M,M,18.84,KCXP 142315Z AUTO 36014G29KT 10SM FEW043 FEW055 BKN080 M01/M11 A2981 RMK AO2,M
RTS,2023-02-14 23:15,-119.8764,39.6682,1539.00,24.80,17.60,73.70,360.00,14.00,0.00,29.83,M,2.00,24.00,CLR,M,M,M,M,M,M,M,-UP,M,M,M,M,M,M,11.88,KRTS 142315Z AUTO 36014G24KT 2SM -UP CLR M04/M08 A2983 RMK AO2,M
05U,2023-02-14 23:15,-116.0051,39.6042,1811.23,M,M,M,330.00,11.00,0.00,29.71,M,10.00,17.00,M,M,M,M,M,M,M,M,M,M,M,M,M,M,M,M,K05U 142315Z AUTO 33011G17KT 10SM /41 A2971 RMK A01,M
MEV,2023-02-14 23:15,-119.7500,38.9963,1441.42,28.40,15.80,58.75,310.00,11.00,0.00,29.79,M,9.00,M,FEW,FEW,SCT,M,2300.00,3600.00,4300.00,M,UP,M,M,M,M,M,M,17.92,KMEV 142315Z AUTO 31011KT 9SM UP FEW023 FEW036 SCT043 M02/M09 A2979 RMK AO2,M
BAM,2023-02-14 23:15,-116.8743,40.5990,1382.36,30.20,15.80,54.59,330.00,10.00,0.00,29.80,M,10.00,17.00,SCT,SCT,BKN,M,3000.00,3500.00,4100.00,M,M,M,M,M,M,M,M,20.71,KBAM 142315Z AUTO 33010G17KT 10SM SCT030 SCT035 BKN041 M01/M09 A2980 RMK AO1,M
HTH,2023-02-14 23:15,-118.6315,38.5448,1282.89,33.80,-0.40,22.70,350.00,19.00,0.00,29.78,M,10.00,24.00,FEW,SCT,M,M,5500.00,6500.00,M,M,M,M,M,M,M,M,M,21.82,KHTH 142315Z AUTO 35019G24KT 10SM FEW055 SCT065 01/M18 A2978 RMK A01,M
TMT,2023-02-14 23:15,-117.1971,39.4643,1749.34,20.80,12.00,68.28,330.00,9.00,0.00,29.76,M,4.00,M,SCT,BKN,OVC,M,2800.00,3800.00,5500.00,M,-SN,M,M,M,M,M,M,9.59,KTMT 142315Z AUTO 33009KT 4SM -SN SCT028 BKN038 OVC055 M06/M11 A2976 RMK AO2 T10621111,M
INS,2023-02-14 23:20,-115.6733,36.5872,955.00,41.00,-7.60,12.12,330.00,22.00,0.00,29.66,1004.10,5.00,30.00,BKN,OVC,M,M,3100.00,14000.00,M,M,HZ,M,M,M,M,M,M,30.63,KINS 142320Z AUTO 33022G30KT 5SM HZ BKN031 OVC140 05/M22 A2966 RMK AO2 SLP041 $,M
LAS,2023-02-14 23:28,-115.1634,36.0719,663.00,44.00,18.00,34.72,40.00,11.00,0.00,29.67,M,10.00,M,FEW,SCT,BKN,M,1500.00,3000.00,5000.00,M,M,M,M,M,29.00,310.00,2023-02-14 23:01,37.76,KLAS 142328Z 04011KT 10SM FEW015 SCT030 BKN050 07/M08 A2967 RMK AO2 PK WND 31029/2301 WSHFT 2308 T00671078,M
BVU,2023-02-14 23:35,-114.8611,35.9475,671.00,39.20,32.00,75.16,250.00,6.00,0.00,29.68,M,10.00,11.00,CLR,M,M,M,M,M,M,M,M,M,M,M,M,M,M,34.20,KBVU 142335Z AUTO 25006G11KT 10SM CLR 04/00 A2968 RMK AO2,M
CXP,2023-02-14 23:35,-119.7326,39.1923,1431.00,30.20,12.20,46.62,350.00,18.00,0.00,29.82,M,10.00,24.00,CLR,M,M,M,M,M,M,M,M,M,M,M,M,M,M,17.38,KCXP 142335Z AUTO 35018G24KT 10SM CLR M01/M11 A2982 RMK AO2,M
RTS,2023-02-14 23:35,-119.8764,39.6682,1539.00,24.80,15.80,68.18,10.00,11.00,0.00,29.83,M,10.00,M,CLR,M,M,M,M,M,M,M,M,M,M,M,M,M,M,13.37,KRTS 142335Z AUTO 01011KT 10SM CLR M04/M09 A2983 RMK AO2,M
05U,2023-02-14 23:35,-116.0051,39.6042,1811.23,120.20,91.40,42.69,340.00,16.00,0.00,29.71,M,10.00,M,M,M,M,M,M,M,M,M,M,M,M,M,M,M,M,177.23,K05U 142335Z AUTO 34016KT 10SM 49/33 A2971 RMK A01,M
MEV,2023-02-14 23:35,-119.7500,38.9963,1441.42,28.40,14.00,54.31,360.00,13.00,0.00,29.80,M,10.00,M,FEW,FEW,BKN,M,2300.00,3600.00,4300.00,M,M,M,M,M,M,M,M,16.96,KMEV 142335Z AUTO 36013KT 10SM FEW023 FEW036 BKN043 M02/M10 A2980 RMK AO2,M
BAM,2023-02-14 23:35,-116.8743,40.5990,1382.36,28.40,19.40,68.61,310.00,10.00,0.00,29.80,M,10.00,19.00,SCT,SCT,OVC,M,3200.00,4000.00,9500.00,M,M,M,M,M,M,M,M,18.45,KBAM 142335Z AUTO 31010G19KT 10SM SCT032 SCT040 OVC095 M02/M07 A2980 RMK AO1,M
HTH,2023-02-14 23:35,-118.6315,38.5448,1282.89,32.00,1.40,26.55,360.00,19.00,0.00,29.79,M,10.00,27.00,FEW,SCT,SCT,M,4800.00,6000.00,7000.00,M,M,M,M,M,M,M,M,19.44,KHTH 142335Z AUTO 36019G27KT 10SM FEW048 SCT060 SCT070 00/M17 A2979 RMK A01,M
LOL,2023-02-14 23:39,-118.5701,40.0684,1192.43,28.90,17.10,60.90,340.00,24.00,T,29.86,M,1.50,29.00,FEW,BKN,OVC,M,3500.00,5500.00,7000.00,M,-SN,M,M,M,30.00,340.00,2023-02-14 23:36,13.88,KLOL 142339Z AUTO 34024G29KT 1 1/2SM -SN FEW035 BKN055 OVC070 M02/M08 A2986 RMK AO2 PK WND 34030/2336 UPB19E28SNB37 P0000 T10171083,M
P68,2023-02-14 23:53,-116.0056,39.6014,1993.00,19.00,7.00,58.94,360.00,10.00,0.00,29.70,1008.40,M,20.00,M,M,M,M,M,M,M,M,M,M,M,M,M,M,M,6.67,KP68 142353Z AUTO 36010G20KT M07/M14 A2970 RMK AO1 SLP084 T10721139 11056 21083 53005,M
DRA,2023-02-14 23:53,-116.0278,36.6206,1009.00,42.00,-6.00,12.55,330.00,22.00,0.00,29.67,1003.90,10.00,35.00,CLR,M,M,M,M,M,M,M,M,M,M,M,41.00,340.00,2023-02-14 22:59,32.10,KDRA 142353Z AUTO 33022G35KT 10SM CLR 06/M21 A2967 RMK AO2 PK WND 34041/2259 SLP039 60004 T00561211 10061 21006 53000,M
ELY,2023-02-14 23:53,-114.8453,39.2950,1909.00,18.00,7.00,61.52,320.00,20.00,0.00,29.60,1006.10,9.00,31.00,OVC,M,M,M,4500.00,M,M,M,M,M,M,M,31.00,310.00,2023-02-14 23:45,0.54,KELY 142353Z AUTO 32020G31KT 9SM OVC045 M08/M14 A2960 RMK AO2 PK WND 31031/2345 SLP061 60004 T10781139 11056 21083 53006,M
VGT,2023-02-14 23:53,-115.1933,36.2111,667.00,46.00,16.00,29.63,330.00,15.00,0.00,29.65,1006.10,10.00,23.00,CLR,M,M,M,M,M,M,M,M,M,M,M,M,M,M,38.93,KVGT 142353Z 33015G23KT 10SM CLR 08/M09 A2965 RMK AO2 SLP061 60002 T00781089 10133 20028 53007,M
LOL,2023-02-14 23:53,-118.5701,40.0684,1192.43,25.00,19.00,77.62,350.00,18.00,T,29.86,1013.50,1.50,28.00,BKN,BKN,OVC,M,2300.00,3800.00,7000.00,M,-SN,M,M,M,30.00,340.00,2023-02-14 23:36,10.53,KLOL 142353Z AUTO 35018G28KT 1 1/2SM -SN BKN023 BKN038 OVC070 M04/M07 A2986 RMK AO2 PK WND 34030/2336 VIS 3/4V3 UPB19E28SNB37 SLP135 P0000 60000 T10391072 10006 21039 53007,M
BVU,2023-02-14 23:55,-114.8611,35.9475,671.00,39.20,32.00,75.16,0.00,0.00,0.00,29.68,M,10.00,M,CLR,M,M,M,M,M,M,M,M,M,M,M,M,M,M,39.20,KBVU 142355Z AUTO 00000KT 10SM CLR 04/00 A2968 RMK AO2,M
CXP,2023-02-14 23:55,-119.7326,39.1923,1431.00,26.60,19.40,73.89,350.00,17.00,0.00,29.83,M,0.50,M,BKN,BKN,BKN,M,300.00,3100.00,5500.00,M,-SN HZ,M,M,M,M,M,M,13.00,KCXP 142355Z AUTO 35017KT 1/2SM -SN HZ BKN003 BKN031 BKN055 M03/M07 A2983 RMK AO2 VIS M1/4V5,M
INS,2023-02-14 23:55,-115.6733,36.5872,955.00,41.50,-9.20,10.99,330.00,21.00,0.00,29.66,1004.10,10.00,30.00,FEW,M,M,M,2700.00,M,M,M,M,M,M,M,31.00,310.00,2023-02-14 23:02,31.52,KINS 142355Z AUTO 33021G30KT 10SM FEW027 05/M23 A2966 RMK AO2 PK WND 31031/02 SLP041 60001 T00531229 10056 21008 55004 $,M
RNO,2023-02-14 23:55,-119.7711,39.4839,1341.00,30.00,15.10,53.38,340.00,14.00,T,29.84,1011.80,10.00,M,SCT,BKN,M,M,7000.00,10000.00,M,M,M,M,M,M,28.00,350.00,2023-02-14 23:31,18.58,KRNO 142355Z 34014KT 10SM SCT070 BKN100 M01/M09 A2984 RMK AO2 PK WND 35028/2331 SNB14E23 SLP118 SH VC S THRU W P0000 60000 T10111094 10022 21011 53014,M
RTS,2023-02-14 23:55,-119.8764,39.6682,1539.00,26.60,14.00,58.49,340.00,17.00,0.00,29.84,M,10.00,M,FEW,SCT,M,M,2700.00,3300.00,M,M,M,M,M,M,M,M,M,13.00,KRTS 142355Z AUTO 34017KT 10SM FEW027 SCT033 M03/M10 A2984 RMK AO2,M
05U,2023-02-14 23:55,-116.0051,39.6042,1811.23,19.40,6.80,57.41,360.00,10.00,0.00,29.72,M,10.00,16.00,M,M,M,M,M,M,M,M,M,M,M,M,M,M,M,7.17,K05U 142355Z AUTO 36010G16KT 10SM M07/M14 A2972 RMK A01,M
MEV,2023-02-14 23:55,-119.7500,38.9963,1441.42,28.40,15.80,58.75,10.00,11.00,0.00,29.81,M,5.00,25.00,FEW,SCT,BKN,M,2800.00,4100.00,4700.00,M,UP HZ,M,M,M,M,M,M,17.92,KMEV 142355Z AUTO 01011G25KT 5SM UP HZ FEW028 SCT041 BKN047 M02/M09 A2981 RMK AO2,M
BAM,2023-02-14 23:55,-116.8743,40.5990,1382.36,28.40,14.00,54.31,320.00,11.00,0.00,29.81,M,10.00,16.00,OVC,M,M,M,9500.00,M,M,M,M,M,M,M,M,M,M,17.92,KBAM 142355Z AUTO 32011G16KT 10SM OVC095 M02/M10 A2981 RMK AO1,M
HTH,2023-02-14 23:55,-118.6315,38.5448,1282.89,30.20,6.80,36.60,350.00,23.00,0.00,29.81,M,10.00,29.00,SCT,SCT,M,M,4800.00,6000.00,M,M,M,M,M,M,M,M,M,15.89,KHTH 142355Z AUTO 35023G29KT 10SM SCT048 SCT060 M01/M14 A2981 RMK A01,M
TMT,2023-02-14 23:55,-117.1971,39.4643,1749.34,19.20,10.00,66.88,330.00,9.00,0.00,29.76,M,10.00,M,SCT,SCT,BKN,M,4200.00,5000.00,11000.00,M,M,M,M,M,M,M,M,7.60,KTMT 142355Z AUTO 33009KT 10SM SCT042 SCT050 BKN110 M07/M12 A2976 RMK AO2 6//// T10711122,M
LSV,2023-02-14 23:55,-115.0343,36.2362,570.00,46.00,22.50,39.12,90.00,5.00,0.00,29.64,M,10.00,M,CLR,M,M,M,M,M,M,M,M,M,M,M,28.00,310.00,2023-02-14 22:56,43.02,KLSV 142355Z AUTO 09005KT 10SM CLR 08/M05 A2964 RMK AO2 PK WND 31028/2256 SLPNO 60000 T00781053 10135 20044 50016 $,M
EKO,2023-02-14 23:56,-115.7860,40.8242,1367.00,23.00,9.00,54.44,300.00,5.00,0.00,29.73,1010.40,10.00,M,OVC,M,M,M,7000.00,M,M,M,M,M,M,M,M,M,M,15.71,KEKO 142356Z AUTO 30005KT 10SM OVC070 M05/M13 A2973 RMK AO2 SLP104 60000 T10501128 11039 21067 52005,M
NFL,2023-02-14 23:56,-118.7010,39.4166,1199.00,30.00,10.90,44.37,350.00,12.00,0.00,29.84,1008.10,10.00,M,SCT,BKN,BKN,BKN,5000.00,7000.00,10000.00,25000.00,M,M,M,M,M,M,M,19.46,KNFL 142356Z 35012KT 10SM SCT050 BKN070 BKN100 BKN250 M01/M12 A2984 RMK AO2 SLP081 SH DSNT NW-N T10111117 10017 21011 53007,M
HND,2023-02-14 23:56,-115.1344,35.9729,742.79,44.00,21.90,41.00,M,4.00,0.00,29.67,1006.60,10.00,M,CLR,M,M,M,M,M,M,M,M,M,M,M,M,M,M,41.55,KHND 142356Z VRB04KT 10SM CLR 07/M06 A2967 RMK AO2 SLP066 60000 T00671056 10128 20017 51008,M
TPH,2023-02-14 23:56,-117.0904,38.0505,1654.00,28.00,1.90,31.98,340.00,18.00,0.00,29.70,1007.30,10.00,28.00,FEW,M,M,M,6000.00,M,M,M,M,M,M,M,33.00,340.00,2023-02-14 23:05,14.48,KTPH 142356Z AUTO 34018G28KT 10SM FEW060 M02/M17 A2970 RMK AO2 PK WND 34033/2305 SLP073 T10221167 10000 21033 55002,M
LAS,2023-02-14 23:56,-115.1634,36.0719,663.00,45.00,17.10,32.28,50.00,11.00,0.00,29.67,1004.50,10.00,M,FEW,SCT,SCT,M,1500.00,3000.00,5000.00,M,M,M,M,M,29.00,310.00,2023-02-14 23:01,38.89,KLAS 142356Z 05011KT 10SM FEW015 SCT030 SCT050 07/M08 A2967 RMK AO2 PK WND 31029/2301 WSHFT 2308 SLP045 60000 T00721083 10128 20033 53006,M
