station,valid,lon,lat,elevation,tmpf,dwpf,relh,drct,sknt,p01i,alti,mslp,vsby,gust,skyc1,skyc2,skyc3,skyc4,skyl1,skyl2,skyl3,skyl4,wxcodes,ice_accretion_1hr,ice_accretion_3hr,ice_accretion_6hr,peak_wind_gust,peak_wind_drct,peak_wind_time,feel,metar,snowdepth
HTH,2021-10-08 00:15,-118.6315,38.5448,1282.89,69.80,30.20,22.86,330.00,6.00,0.00,29.90,M,10.00,M,FEW,M,M,M,12000.00,M,M,M,M,M,M,M,M,M,M,69.80,KHTH 080015Z AUTO 33006KT 10SM FEW120 21/M01 A2990 RMK A01,M
MEV,2021-10-08 00:15,-119.7500,38.9963,1441.42,64.40,37.40,36.74,250.00,11.00,0.00,29.94,M,10.00,M,CLR,M,M,M,M,M,M,M,M,M,M,M,M,M,M,64.40,KMEV 080015Z AUTO 25011KT 10SM CLR 18/03 A2994 RMK AO2,M
RTS,2021-10-08 00:15,-119.8764,39.6682,1539.00,57.20,37.40,47.44,260.00,15.00,0.00,29.98,M,10.00,24.00,BKN,M,M,M,10000.00,M,M,M,M,M,M,M,M,M,M,57.20,KRTS 080015Z AUTO 26015G24KT 10SM BKN100 14/03 A2998 RMK AO2,M
05U,2021-10-08 00:15,-116.0051,39.6042,1811.23,60.80,37.40,41.71,140.00,4.00,0.00,30.02,M,10.00,M,FEW,M,M,M,9500.00,M,M,M,M,M,M,M,M,M,M,60.80,K05U 080015Z AUTO 14004KT 10SM FEW095 16/03 A3002 RMK A01,M
BAM,2021-10-08 00:15,-116.8743,40.5990,1382.36,68.00,37.40,32.43,60.00,8.00,0.00,29.94,M,3.00,M,CLR,M,M,M,M,M,M,M,M,M,M,M,M,M,M,68.00,KBAM 080015Z AUTO 06008KT 3SM CLR 20/03 A2994 RMK AO1,M
BVU,2021-10-08 00:15,-114.8611,35.9475,671.00,80.60,50.00,34.41,150.00,19.00,0.00,29.92,M,10.00,M,CLR,M,M,M,M,M,M,M,M,M,M,M,M,M,M,79.88,KBVU 080015Z AUTO 15019KT 10SM CLR 27/10 A2992 RMK AO2,M
CXP,2021-10-08 00:15,-119.7326,39.1923,1431.00,64.40,35.60,34.22,270.00,11.00,0.00,29.95,M,10.00,22.00,CLR,M,M,M,M,M,M,M,M,M,M,M,M,M,M,64.40,KCXP 080015Z AUTO 27011G22KT 10SM CLR 18/02 A2995 RMK AO2,M
TMT,2021-10-08 00:15,-117.1971,39.4643,1749.34,62.00,38.30,41.56,80.00,3.00,0.00,29.99,M,10.00,M,CLR,M,M,M,M,M,M,M,M,M,M,M,M,M,M,61.90,KTMT 080015Z AUTO 08003KT 10SM CLR 17/04 A2999 RMK AO2 LTG DSNT NE T01660035,M
CXP,2021-10-08 00:30,-119.7326,39.1923,1431.00,66.20,35.60,32.14,290.00,10.00,0.00,29.95,M,10.00,17.00,CLR,M,M,M,M,M,M,M,M,M,M,M,M,M,M,66.20,KCXP 080030Z AUTO 29010G17KT 10SM CLR 19/02 A2995 RMK AO2,M
WMC,2021-10-08 00:32,-117.8072,40.9019,1315.00,64.00,38.00,38.00,250.00,17.00,0.00,29.95,M,6.00,27.00,FEW,BKN,M,M,7000.00,11000.00,M,M,VCTS HZ,M,M,M,27.00,240.00,2021-10-08 00:30,64.00,KWMC 080032Z AUTO 25017G27KT 6SM VCTS HZ FEW070 BKN110 18/03 A2995 RMK AO2 PK WND 24027/0030 LTG DSNT W AND NW PRESRR T01780033,M
TMT,2021-10-08 00:35,-117.1971,39.4643,1749.34,61.50,39.40,44.00,70.00,5.00,0.00,29.98,M,10.00,M,CLR,M,M,M,M,M,M,M,M,M,M,M,M,M,M,61.50,KTMT 080035Z AUTO 07005KT 10SM CLR 16/04 A2998 RMK AO2 T01640041,M
05U,2021-10-08 00:35,-116.0051,39.6042,1811.23,62.60,37.40,39.14,150.00,8.00,0.00,30.01,M,10.00,M,SCT,M,M,M,9000.00,M,M,M,M,M,M,M,M,M,M,62.60,K05U 080035Z AUTO 15008KT 10SM SCT090 17/03 A3001 RMK A01,M
BAM,2021-10-08 00:35,-116.8743,40.5990,1382.36,68.00,39.20,34.80,60.00,7.00,0.00,29.94,M,5.00,M,CLR,M,M,M,M,M,M,M,M,M,M,M,M,M,M,68.00,KBAM 080035Z AUTO 06007KT 5SM CLR 20/04 A2994 RMK AO1,M
HTH,2021-10-08 00:35,-118.6315,38.5448,1282.89,69.80,30.20,22.86,350.00,5.00,0.00,29.89,M,10.00,M,FEW,M,M,M,12000.00,M,M,M,M,M,M,M,M,M,M,69.80,KHTH 080035Z AUTO 35005KT 10SM FEW120 21/M01 A2989 RMK A01,M
RTS,2021-10-08 00:35,-119.8764,39.6682,1539.00,57.20,37.40,47.44,250.00,16.00,0.00,29.97,M,10.00,23.00,BKN,M,M,M,9500.00,M,M,M,M,M,M,M,M,M,M,57.20,KRTS 080035Z AUTO 25016G23KT 10SM BKN095 14/03 A2997 RMK AO2,M
MEV,2021-10-08 00:35,-119.7500,38.9963,1441.42,62.60,35.60,36.45,250.00,14.00,0.00,29.94,M,10.00,M,CLR,M,M,M,M,M,M,M,M,M,M,M,M,M,M,62.60,KMEV 080035Z AUTO 25014KT 10SM CLR 17/02 A2994 RMK AO2,M
WMC,2021-10-08 00:36,-117.8072,40.9019,1315.00,61.00,39.00,44.10,260.00,27.00,0.00,29.95,M,1.75,40.00,SCT,BKN,BKN,M,6500.00,10000.00,12000.00,M,VCTS HZ,M,M,M,40.00,250.00,2021-10-08 00:34,61.00,KWMC 080036Z AUTO 26027G40KT 1 3/4SM VCTS HZ SCT065 BKN100 BKN120 16/04 A2995 RMK AO2 PK WND 25040/0034 LTG DSNT W AND NW T01610039,M
LOL,2021-10-08 00:41,-118.5701,40.0684,1192.43,63.00,43.00,47.97,330.00,21.00,T,29.92,M,10.00,26.00,FEW,SCT,M,M,4500.00,9500.00,M,M,M,M,M,M,28.00,300.00,2021-10-08 00:26,63.00,KLOL 080041Z AUTO 33021G26KT 10SM FEW045 SCT095 17/06 A2992 RMK AO2 PK WND 30028/0026 WSHFT 0021 RAB14E25 P0000 T01720061,M
WMC,2021-10-08 00:41,-117.8072,40.9019,1315.00,52.00,43.00,71.28,280.00,20.00,T,29.97,M,0.75,40.00,FEW,BKN,OVC,M,4100.00,6500.00,11000.00,M,+RA,M,M,M,40.00,250.00,2021-10-08 00:34,52.00,KWMC 080041Z AUTO 28020G40KT 3/4SM +RA FEW041 BKN065 OVC110 11/06 A2997 RMK AO2 PK WND 25040/0034 RAB37 PRESRR P0000 T01110061 TSNO,M
WMC,2021-10-08 00:45,-117.8072,40.9019,1315.00,53.00,43.00,68.46,310.00,16.00,0.04,29.97,M,1.00,36.00,FEW,BKN,OVC,M,4600.00,6500.00,11000.00,M,+TSRA,M,M,M,40.00,250.00,2021-10-08 00:34,53.10,KWMC 080045Z AUTO 31016G36KT 1SM +TSRA FEW046 BKN065 OVC110 12/06 A2997 RMK AO2 PK WND 25040/0034 WSHFT 0028 LTG DSNT NW RAB37 P0004 T01170061,M
WMC,2021-10-08 00:50,-117.8072,40.9019,1315.00,51.80,42.80,71.26,290.00,20.00,0.10,29.98,M,2.50,36.00,SCT,BKN,OVC,M,4900.00,6500.00,11000.00,M,-TSRA,M,M,M,40.00,250.00,2021-10-08 00:34,51.80,KWMC 080050Z AUTO 29020G36KT 2 1/2SM -TSRA SCT049 BKN065 OVC110 11/06 A2998 RMK AO2 PK WND 25040/0034 WSHFT 0028 VIS 3/4V5 LTG DSNT NW RAB37 P0010,M
VGT,2021-10-08 00:53,-115.1933,36.2111,667.00,83.00,49.00,30.65,160.00,6.00,0.00,29.89,1011.80,10.00,M,CLR,M,M,M,M,M,M,M,M,M,M,M,M,M,M,81.20,KVGT 080053Z 16006KT 10SM CLR 28/09 A2989 RMK AO2 SLP118 T02830094,M
P68,2021-10-08 00:53,-116.0056,39.6014,1993.00,59.00,39.00,47.35,140.00,12.00,0.00,29.99,1011.40,M,M,M,M,M,M,M,M,M,M,M,M,M,M,M,M,M,59.00,KP68 080053Z AUTO 14012KT 15/04 A2999 RMK AO1 SLP114 T01500039,M
ELY,2021-10-08 00:53,-114.8453,39.2950,1909.00,59.00,37.00,43.78,180.00,6.00,0.00,30.05,1012.30,10.00,M,CLR,M,M,M,M,M,M,M,M,M,M,M,M,M,M,59.00,KELY 080053Z AUTO 18006KT 10SM CLR 15/03 A3005 RMK AO2 SLP123 T01500028,M
DRA,2021-10-08 00:53,-116.0278,36.6206,1009.00,76.00,40.00,27.37,200.00,11.00,0.00,29.94,1010.30,10.00,22.00,CLR,M,M,M,M,M,M,M,M,M,M,M,M,M,M,75.90,KDRA 080053Z AUTO 20011G22KT 10SM CLR 24/04 A2994 RMK AO2 SLP103 T02440044,M
LOL,2021-10-08 00:53,-118.5701,40.0684,1192.43,62.00,42.00,47.83,330.00,16.00,T,29.92,1011.30,10.00,M,FEW,M,M,M,9000.00,M,M,M,M,M,M,M,28.00,300.00,2021-10-08 00:26,62.10,KLOL 080053Z AUTO 33016KT 10SM FEW090 17/06 A2992 RMK AO2 PK WND 30028/0026 WSHFT 0021 RAB14E25 SLP113 P0000 T01670056,M
CXP,2021-10-08 00:55,-119.7326,39.1923,1431.00,64.40,35.60,34.22,290.00,5.00,0.00,29.95,M,10.00,M,CLR,M,M,M,M,M,M,M,M,M,M,M,M,M,M,64.40,KCXP 080055Z AUTO 29005KT 10SM CLR 18/02 A2995 RMK AO2,M
BAM,2021-10-08 00:55,-116.8743,40.5990,1382.36,68.00,41.00,37.32,60.00,6.00,0.00,29.94,M,3.00,M,CLR,M,M,M,M,M,M,M,M,M,M,M,M,M,M,68.00,KBAM 080055Z AUTO 06006KT 3SM CLR 20/05 A2994 RMK AO1,M
TMT,2021-10-08 00:55,-117.1971,39.4643,1749.34,59.40,39.20,47.05,80.00,6.00,0.00,29.98,M,10.00,M,SCT,M,M,M,11000.00,M,M,M,M,M,M,M,M,M,M,59.40,KTMT 080055Z AUTO 08006KT 10SM SCT110 15/04 A2998 RMK AO2 LTG DSNT NE T01520040,M
RTS,2021-10-08 00:55,-119.8764,39.6682,1539.00,57.20,37.40,47.44,260.00,12.00,0.00,29.97,M,10.00,23.00,OVC,M,M,M,9000.00,M,M,M,M,M,M,M,M,M,M,57.20,KRTS 080055Z AUTO 26012G23KT 10SM OVC090 14/03 A2997 RMK AO2,M
BVU,2021-10-08 00:55,-114.8611,35.9475,671.00,80.60,50.00,34.41,150.00,16.00,0.00,29.92,M,10.00,M,CLR,M,M,M,M,M,M,M,M,M,M,M,M,M,M,79.88,KBVU 080055Z AUTO 15016KT 10SM CLR 27/10 A2992 RMK AO2,M
HTH,2021-10-08 00:55,-118.6315,38.5448,1282.89,69.80,30.20,22.86,330.00,5.00,0.00,29.89,M,10.00,M,CLR,M,M,M,M,M,M,M,M,M,M,M,M,M,M,69.80,KHTH 080055Z AUTO 33005KT 10SM CLR 21/M01 A2989 RMK A01,M
RNO,2021-10-08 00:55,-119.7711,39.4839,1341.00,61.00,39.00,44.10,290.00,15.00,0.00,29.94,1010.50,10.00,19.00,SCT,SCT,BKN,BKN,8500.00,12000.00,16000.00,20000.00,M,M,M,M,27.00,280.00,2021-10-07 23:56,61.00,KRNO 080055Z 29015G19KT 10SM SCT085 SCT120 BKN160 BKN200 16/04 A2994 RMK AO2 PK WND 28027/2356 SLP105 ACSL OHD AND S T01610039,M
05U,2021-10-08 00:55,-116.0051,39.6042,1811.23,59.00,39.20,47.72,140.00,13.00,0.00,30.02,M,10.00,M,BKN,BKN,M,M,9500.00,11000.00,M,M,M,M,M,M,M,M,M,59.00,K05U 080055Z AUTO 14013KT 10SM BKN095 BKN110 15/04 A3002 RMK A01,M
MEV,2021-10-08 00:55,-119.7500,38.9963,1441.42,62.60,35.60,36.45,230.00,15.00,0.00,29.94,M,10.00,20.00,CLR,M,M,M,M,M,M,M,M,M,M,M,M,M,M,62.60,KMEV 080055Z AUTO 23015G20KT 10SM CLR 17/02 A2994 RMK AO2,M
HND,2021-10-08 00:56,-115.1344,35.9729,742.79,81.00,45.00,28.15,210.00,9.00,0.00,29.94,1013.50,10.00,M,CLR,M,M,M,M,M,M,M,M,M,M,M,M,M,M,79.68,KHND 080056Z 21009KT 10SM CLR 27/07 A2994 RMK AO2 SLP135 T02720072,M
WMC,2021-10-08 00:56,-117.8072,40.9019,1315.00,50.00,44.00,80.06,300.00,16.00,0.10,29.97,1013.00,9.00,28.00,SCT,BKN,OVC,M,4200.00,6500.00,9500.00,M,-TSRA,M,M,M,40.00,250.00,2021-10-08 00:34,50.00,KWMC 080056Z AUTO 30016G28KT 9SM -TSRA SCT042 BKN065 OVC095 10/07 A2997 RMK AO2 PK WND 25040/0034 WSHFT 0028 RAB37 SLP130 P0010 T01000067,M
NFL,2021-10-08 00:56,-118.7010,39.4166,1199.00,70.00,35.00,27.65,330.00,5.00,0.00,29.89,1009.80,10.00,M,SCT,BKN,BKN,BKN,6000.00,10000.00,15000.00,25000.00,M,M,M,M,M,M,M,70.00,KNFL 080056Z 33005KT 10SM SCT060 BKN100 BKN150 BKN250 21/02 A2989 RMK AO2 SLP098 SH VC S-SW T02110017,M
TPH,2021-10-08 00:56,-117.0904,38.0505,1654.00,67.00,33.00,28.39,200.00,14.00,0.00,29.99,1011.40,10.00,M,CLR,M,M,M,M,M,M,M,M,M,M,M,26.00,190.00,2021-10-08 00:10,66.90,KTPH 080056Z AUTO 20014KT 10SM CLR 19/01 A2999 RMK AO2 PK WND 19026/0010 SLP114 T01940006,M
LAS,2021-10-08 00:56,-115.1634,36.0719,663.00,81.00,48.00,31.52,180.00,3.00,0.00,29.91,1010.80,10.00,M,FEW,FEW,BKN,M,11000.00,16000.00,22000.00,M,M,M,M,M,M,M,M,79.92,KLAS 080056Z 18003KT 10SM FEW110 FEW160 BKN220 27/09 A2991 RMK AO2 SLP108 T02720089,M
EKO,2021-10-08 00:56,-115.7860,40.8242,1367.00,55.00,47.00,74.08,60.00,5.00,T,30.01,1013.60,10.00,M,FEW,M,M,M,7000.00,M,M,M,M,M,M,M,M,M,M,55.00,KEKO 080056Z AUTO 06005KT 10SM FEW070 13/08 A3001 RMK AO2 RAE2359 SLP136 P0000 T01280083,M
LSV,2021-10-08 00:58,-115.0343,36.2362,570.00,82.20,51.00,34.03,140.00,13.00,0.00,29.88,1010.00,10.00,M,CLR,M,M,M,M,M,M,M,M,M,M,M,M,M,M,80.98,KLSV 080058Z AUTO 14013KT 10SM CLR 28/11 A2988 RMK AO2 SLP100 T02790106 $,M
INS,2021-10-08 00:58,-115.6733,36.5872,955.00,76.60,41.00,27.90,60.00,6.00,0.00,29.93,1010.10,10.00,M,SCT,M,M,M,14000.00,M,M,M,M,M,M,M,30.00,110.00,2021-10-08 00:16,76.60,KINS 080058Z AUTO 06006KT 10SM SCT140 25/05 A2993 RMK AO2 PK WND 11030/16 SLP101 T02480050 $,M
WMC,2021-10-08 01:09,-117.8072,40.9019,1315.00,51.00,44.00,76.86,320.00,13.00,T,29.97,M,10.00,22.00,FEW,SCT,M,M,4200.00,8000.00,M,M,VCTS,M,M,M,M,M,M,51.10,KWMC 080109Z AUTO 32013G22KT 10SM VCTS FEW042 SCT080 11/07 A2997 RMK AO2 LTG DSNT NW-NE RAE05 TSE03 P0000 T01060067,M
CXP,2021-10-08 01:10,-119.7326,39.1923,1431.00,64.40,32.00,29.63,M,6.00,0.00,29.95,M,10.00,M,CLR,M,M,M,M,M,M,M,M,M,M,M,M,M,M,64.40,KCXP 080110Z AUTO VRB06KT 10SM CLR 18/00 A2995 RMK AO2,M
BVU,2021-10-08 01:15,-114.8611,35.9475,671.00,78.80,50.00,36.51,160.00,17.00,0.00,29.93,M,10.00,M,CLR,M,M,M,M,M,M,M,M,M,M,M,M,M,M,78.80,KBVU 080115Z AUTO 16017KT 10SM CLR 26/10 A2993 RMK AO2,M
BAM,2021-10-08 01:15,-116.8743,40.5990,1382.36,64.40,41.00,42.28,60.00,8.00,0.00,29.94,M,10.00,M,CLR,M,M,M,M,M,M,M,M,M,M,M,M,M,M,64.40,KBAM 080115Z AUTO 06008KT 10SM CLR 18/05 A2994 RMK AO1,M
MEV,2021-10-08 01:15,-119.7500,38.9963,1441.42,60.80,35.60,38.85,250.00,10.00,0.00,29.94,M,10.00,18.00,CLR,M,M,M,M,M,M,M,M,M,M,M,M,M,M,60.80,KMEV 080115Z AUTO 25010G18KT 10SM CLR 16/02 A2994 RMK AO2,M
05U,2021-10-08 01:15,-116.0051,39.6042,1811.23,57.20,39.20,50.91,140.00,8.00,0.00,30.02,M,10.00,M,SCT,BKN,OVC,M,7500.00,9000.00,11000.00,M,M,M,M,M,M,M,M,57.20,K05U 080115Z AUTO 14008KT 10SM SCT075 BKN090 OVC110 14/04 A3002 RMK A01,M
RTS,2021-10-08 01:15,-119.8764,39.6682,1539.00,57.20,37.40,47.44,260.00,12.00,0.00,29.98,M,10.00,21.00,OVC,M,M,M,8500.00,M,M,M,M,M,M,M,M,M,M,57.20,KRTS 080115Z AUTO 26012G21KT 10SM OVC085 14/03 A2998 RMK AO2,M
TMT,2021-10-08 01:15,-117.1971,39.4643,1749.34,58.00,39.60,50.42,60.00,6.00,0.00,29.97,M,10.00,M,SCT,SCT,M,M,9000.00,11000.00,M,M,M,M,M,M,M,M,M,57.90,KTMT 080115Z AUTO 06006KT 10SM SCT090 SCT110 14/04 A2997 RMK AO2 T01440042,M
HTH,2021-10-08 01:15,-118.6315,38.5448,1282.89,68.00,30.20,24.32,310.00,5.00,0.00,29.90,M,10.00,M,CLR,M,M,M,M,M,M,M,M,M,M,M,M,M,M,68.00,KHTH 080115Z AUTO 31005KT 10SM CLR 20/M01 A2990 RMK A01,M
WMC,2021-10-08 01:18,-117.8072,40.9019,1315.00,52.00,45.00,76.94,340.00,10.00,T,29.97,M,10.00,M,FEW,M,M,M,3900.00,M,M,M,M,M,M,M,M,M,M,52.00,KWMC 080118Z AUTO 34010KT 10SM FEW039 11/07 A2997 RMK AO2 LTG DSNT NW-NE RAE05 TSE03 P0000 T01110072,M
CXP,2021-10-08 01:35,-119.7326,39.1923,1431.00,64.40,32.00,29.63,M,5.00,0.00,29.96,M,10.00,M,CLR,M,M,M,M,M,M,M,M,M,M,M,M,M,M,64.40,KCXP 080135Z AUTO VRB05KT 10SM CLR 18/M00 A2996 RMK AO2,M
BAM,2021-10-08 01:35,-116.8743,40.5990,1382.36,62.60,41.00,45.04,60.00,7.00,0.00,29.94,M,10.00,M,CLR,M,M,M,M,M,M,M,M,M,M,M,M,M,M,62.60,KBAM 080135Z AUTO 06007KT 10SM CLR 17/05 A2994 RMK AO1,M
BVU,2021-10-08 01:35,-114.8611,35.9475,671.00,78.80,50.00,36.51,160.00,14.00,0.00,29.93,M,10.00,19.00,CLR,M,M,M,M,M,M,M,M,M,M,M,M,M,M,78.80,KBVU 080135Z AUTO 16014G19KT 10SM CLR 26/10 A2993 RMK AO2,M
TMT,2021-10-08 01:35,-117.1971,39.4643,1749.34,60.00,36.30,40.95,130.00,7.00,0.00,29.98,M,10.00,M,SCT,BKN,OVC,M,5500.00,7000.00,9000.00,M,M,M,M,M,M,M,M,60.10,KTMT 080135Z AUTO 13007KT 10SM SCT055 BKN070 OVC090 16/02 A2998 RMK AO2 LTG DSNT W AND NW T01560024,M
05U,2021-10-08 01:35,-116.0051,39.6042,1811.23,57.20,39.20,50.91,140.00,9.00,0.00,30.02,M,10.00,M,FEW,BKN,OVC,M,6500.00,7500.00,9500.00,M,M,M,M,M,M,M,M,57.20,K05U 080135Z AUTO 14009KT 10SM FEW065 BKN075 OVC095 14/04 A3002 RMK A01,M
MEV,2021-10-08 01:35,-119.7500,38.9963,1441.42,60.80,35.60,38.85,240.00,14.00,0.00,29.95,M,10.00,M,CLR,M,M,M,M,M,M,M,M,M,M,M,M,M,M,60.80,KMEV 080135Z AUTO 24014KT 10SM CLR 16/02 A2995 RMK AO2,M
HTH,2021-10-08 01:35,-118.6315,38.5448,1282.89,66.20,30.20,25.88,310.00,5.00,0.00,29.90,M,10.00,M,CLR,M,M,M,M,M,M,M,M,M,M,M,M,M,M,66.20,KHTH 080135Z AUTO 31005KT 10SM CLR 19/M01 A2990 RMK A01,M
RTS,2021-10-08 01:35,-119.8764,39.6682,1539.00,55.40,35.60,47.16,290.00,11.00,0.00,30.00,M,10.00,17.00,OVC,M,M,M,8500.00,M,M,M,M,M,M,M,M,M,M,55.40,KRTS 080135Z AUTO 29011G17KT 10SM OVC085 13/02 A3000 RMK AO2,M
ELY,2021-10-08 01:53,-114.8453,39.2950,1909.00,57.00,32.00,38.54,170.00,13.00,0.00,30.06,1013.40,10.00,M,CLR,M,M,M,M,M,M,M,M,M,M,M,M,M,M,57.00,KELY 080153Z AUTO 17013KT 10SM CLR 14/00 A3006 RMK AO2 SLP134 T01390000,M
LOL,2021-10-08 01:53,-118.5701,40.0684,1192.43,59.00,44.00,57.66,40.00,17.00,0.00,29.93,1011.90,10.00,27.00,FEW,SCT,M,M,9500.00,12000.00,M,M,M,M,M,M,27.00,50.00,2021-10-08 01:49,59.00,KLOL 080153Z AUTO 04017G27KT 10SM FEW095 SCT120 15/07 A2993 RMK AO2 PK WND 05027/0149 SLP119 T01500067,M
P68,2021-10-08 01:53,-116.0056,39.6014,1993.00,56.00,39.00,52.94,130.00,8.00,0.00,30.00,1012.10,M,M,M,M,M,M,M,M,M,M,M,M,M,M,M,M,M,55.90,KP68 080153Z AUTO 13008KT 13/04 A3000 RMK AO1 SLP121 T01330039,M
DRA,2021-10-08 01:53,-116.0278,36.6206,1009.00,73.00,39.00,29.12,210.00,8.00,0.00,29.94,1010.30,10.00,M,CLR,M,M,M,M,M,M,M,M,M,M,M,M,M,M,73.00,KDRA 080153Z AUTO 21008KT 10SM CLR 23/04 A2994 RMK AO2 SLP103 T02280039,M
VGT,2021-10-08 01:53,-115.1933,36.2111,667.00,81.00,47.00,30.24,170.00,8.00,0.00,29.89,1011.90,10.00,M,CLR,M,M,M,M,M,M,M,M,M,M,M,M,M,M,79.83,KVGT 080153Z 17008KT 10SM CLR 27/08 A2989 RMK AO2 SLP119 T02720083,M
TMT,2021-10-08 01:55,-117.1971,39.4643,1749.34,60.80,35.40,38.54,280.00,11.00,0.00,29.99,M,10.00,M,SCT,SCT,OVC,M,5500.00,7000.00,8000.00,M,-VCTSRA,M,M,M,M,M,M,60.80,KTMT 080155Z AUTO 28011KT 10SM -VCTSRA SCT055 SCT070 OVC080 16/02 A2999 RMK AO2 LTG DSNT N E AND W T01600019,M
HTH,2021-10-08 01:55,-118.6315,38.5448,1282.89,66.20,32.00,27.83,300.00,6.00,0.00,29.90,M,10.00,M,FEW,M,M,M,6500.00,M,M,M,M,M,M,M,M,M,M,66.20,KHTH 080155Z AUTO 30006KT 10SM FEW065 19/M00 A2990 RMK A01,M
RNO,2021-10-08 01:55,-119.7711,39.4839,1341.00,60.00,38.00,43.61,280.00,10.00,0.00,29.94,1010.80,10.00,21.00,FEW,FEW,BKN,OVC,8500.00,12000.00,17000.00,25000.00,M,M,M,M,29.00,300.00,2021-10-08 01:22,60.10,KRNO 080155Z 28010G21KT 10SM FEW085 FEW120 BKN170 OVC250 16/03 A2994 RMK AO2 PK WND 30029/0122 SLP108 T01560033,M
BAM,2021-10-08 01:55,-116.8743,40.5990,1382.36,60.80,41.00,48.00,60.00,7.00,0.00,29.94,M,10.00,M,BKN,M,M,M,10000.00,M,M,M,M,M,M,M,M,M,M,60.80,KBAM 080155Z AUTO 06007KT 10SM BKN100 16/05 A2994 RMK AO1,M
MEV,2021-10-08 01:55,-119.7500,38.9963,1441.42,59.00,37.40,44.47,220.00,6.00,0.00,29.96,M,10.00,13.00,CLR,M,M,M,M,M,M,M,M,M,M,M,M,M,M,59.00,KMEV 080155Z AUTO 22006G13KT 10SM CLR 15/03 A2996 RMK AO2,M
05U,2021-10-08 01:55,-116.0051,39.6042,1811.23,55.40,39.20,54.34,130.00,6.00,0.00,30.02,M,10.00,M,OVC,M,M,M,10000.00,M,M,M,M,M,M,M,M,M,M,55.40,K05U 080155Z AUTO 13006KT 10SM OVC100 13/04 A3002 RMK A01,M
RTS,2021-10-08 01:55,-119.8764,39.6682,1539.00,55.40,37.40,50.64,360.00,9.00,0.00,30.00,M,10.00,14.00,FEW,OVC,M,M,6500.00,8500.00,M,M,M,M,M,M,M,M,M,55.40,KRTS 080155Z AUTO 36009G14KT 10SM FEW065 OVC085 13/03 A3000 RMK AO2,M
BVU,2021-10-08 01:55,-114.8611,35.9475,671.00,78.80,50.00,36.51,160.00,15.00,0.00,29.93,M,10.00,M,CLR,M,M,M,M,M,M,M,M,M,M,M,M,M,M,78.80,KBVU 080155Z AUTO 16015KT 10SM CLR 26/10 A2993 RMK AO2,M
CXP,2021-10-08 01:55,-119.7326,39.1923,1431.00,62.60,35.60,36.45,M,5.00,0.00,29.96,M,10.00,M,CLR,M,M,M,M,M,M,M,M,M,M,M,M,M,M,62.60,KCXP 080155Z AUTO VRB05KT 10SM CLR 17/02 A2996 RMK AO2,M
TPH,2021-10-08 01:56,-117.0904,38.0505,1654.00,63.00,38.00,39.36,170.00,11.00,0.00,30.00,1011.90,10.00,M,CLR,M,M,M,M,M,M,M,M,M,M,M,M,M,M,63.00,KTPH 080156Z AUTO 17011KT 10SM CLR 17/03 A3000 RMK AO2 SLP119 T01720033,M
NFL,2021-10-08 01:56,-118.7010,39.4166,1199.00,62.00,42.00,47.83,350.00,8.00,0.00,29.91,1010.10,10.00,M,SCT,BKN,BKN,BKN,6000.00,10000.00,15000.00,25000.00,M,M,M,M,M,M,M,62.10,KNFL 080156Z 35008KT 10SM SCT060 BKN100 BKN150 BKN250 17/06 A2991 RMK AO2 SLP101 SH DSNT W-NW T01670056,M
WMC,2021-10-08 01:56,-117.8072,40.9019,1315.00,52.00,46.00,79.92,50.00,5.00,T,29.98,1013.20,10.00,M,BKN,M,M,M,11000.00,M,M,M,M,M,M,M,M,M,M,52.00,KWMC 080156Z AUTO 05005KT 10SM BKN110 11/08 A2998 RMK AO2 LTG DSNT NE RAE05 TSE03 SLP132 P0000 T01110078,M
LAS,2021-10-08 01:56,-115.1634,36.0719,663.00,80.00,50.00,34.98,170.00,7.00,0.00,29.91,1010.80,10.00,M,FEW,FEW,BKN,M,11000.00,16000.00,22000.00,M,M,M,M,M,M,M,M,79.60,KLAS 080156Z 17007KT 10SM FEW110 FEW160 BKN220 27/10 A2991 RMK AO2 SLP108 T02670100,M
EKO,2021-10-08 01:56,-115.7860,40.8242,1367.00,52.00,47.00,82.68,110.00,5.00,0.00,30.00,1013.70,10.00,M,CLR,M,M,M,M,M,M,M,M,M,M,M,M,M,M,52.00,KEKO 080156Z AUTO 11005KT 10SM CLR 11/08 A3000 RMK AO2 SLP137 T01110083,M
HND,2021-10-08 01:56,-115.1344,35.9729,742.79,78.00,49.00,35.86,160.00,12.00,0.00,29.94,1013.60,10.00,M,CLR,M,M,M,M,M,M,M,M,M,M,M,M,M,M,78.10,KHND 080156Z 16012KT 10SM CLR 26/09 A2994 RMK AO2 SLP136 T02560094,M
INS,2021-10-08 01:58,-115.6733,36.5872,955.00,74.00,45.50,36.04,100.00,22.00,0.00,29.92,1009.70,10.00,27.00,FEW,M,M,M,16000.00,M,M,M,M,M,M,M,32.00,90.00,2021-10-08 01:03,74.10,KINS 080158Z AUTO 10022G27KT 10SM FEW160 23/08 A2992 RMK AO2 PK WND 09032/03 SLP097 T02340075 $,M
LSV,2021-10-08 01:58,-115.0343,36.2362,570.00,80.60,50.00,34.41,160.00,12.00,0.00,29.90,1010.70,10.00,M,CLR,M,M,M,M,M,M,M,M,M,M,M,M,M,M,79.88,KLSV 080158Z 16012KT 10SM CLR 27/10 A2990 RMK SLP107 WND DATA ESTMD ALSTG ESTMD $,M
CXP,2021-10-08 02:15,-119.7326,39.1923,1431.00,62.60,33.80,33.93,M,4.00,0.00,29.97,M,10.00,10.00,CLR,M,M,M,M,M,M,M,M,M,M,M,M,M,M,62.60,KCXP 080215Z AUTO VRB04G10KT 10SM CLR 17/01 A2997 RMK AO2,M
BVU,2021-10-08 02:15,-114.8611,35.9475,671.00,78.80,50.00,36.51,160.00,12.00,0.00,29.93,M,10.00,M,CLR,M,M,M,M,M,M,M,M,M,M,M,M,M,M,78.80,KBVU 080215Z AUTO 16012KT 10SM CLR 26/10 A2993 RMK AO2,M
RTS,2021-10-08 02:15,-119.8764,39.6682,1539.00,55.40,35.60,47.16,300.00,14.00,0.00,29.99,M,10.00,21.00,SCT,SCT,M,M,7500.00,9500.00,M,M,M,M,M,M,M,M,M,55.40,KRTS 080215Z AUTO 30014G21KT 10SM SCT075 SCT095 13/02 A2999 RMK AO2,M
MEV,2021-10-08 02:15,-119.7500,38.9963,1441.42,59.00,35.60,41.42,260.00,13.00,0.00,29.96,M,10.00,18.00,CLR,M,M,M,M,M,M,M,M,M,M,M,M,M,M,59.00,KMEV 080215Z AUTO 26013G18KT 10SM CLR 15/02 A2996 RMK AO2,M
BAM,2021-10-08 02:15,-116.8743,40.5990,1382.36,60.80,41.00,48.00,60.00,6.00,0.00,29.95,M,5.00,M,BKN,M,M,M,10000.00,M,M,M,M,M,M,M,M,M,M,60.80,KBAM 080215Z AUTO 06006KT 5SM BKN100 16/05 A2995 RMK AO1,M
HTH,2021-10-08 02:15,-118.6315,38.5448,1282.89,66.20,33.80,29.92,290.00,6.00,0.00,29.90,M,10.00,M,FEW,M,M,M,6000.00,M,M,M,M,M,M,M,M,M,M,66.20,KHTH 080215Z AUTO 29006KT 10SM FEW060 19/01 A2990 RMK A01,M
TMT,2021-10-08 02:15,-117.1971,39.4643,1749.34,49.30,43.50,80.32,340.00,16.00,0.08,30.00,M,5.00,M,SCT,SCT,OVC,M,4900.00,6000.00,8000.00,M,+RA,M,M,M,M,M,M,42.97,KTMT 080215Z AUTO 34016KT 5SM +RA SCT049 SCT060 OVC080 10/06 A3000 RMK AO2 P0008 T00960064,M
05U,2021-10-08 02:15,-116.0051,39.6042,1811.23,55.40,37.40,50.64,140.00,10.00,0.00,30.02,M,10.00,M,BKN,M,M,M,10000.00,M,M,M,M,M,M,M,M,M,M,55.40,K05U 080215Z AUTO 14010KT 10SM BKN100 13/03 A3002 RMK A01,M
05U,2021-10-08 02:35,-116.0051,39.6042,1811.23,55.40,35.60,47.16,160.00,9.00,0.00,30.02,M,10.00,15.00,CLR,M,M,M,M,M,M,M,M,M,M,M,M,M,M,55.40,K05U 080235Z AUTO 16009G15KT 10SM CLR 13/02 A3002 RMK A01,M
TMT,2021-10-08 02:35,-117.1971,39.4643,1749.34,50.00,44.20,80.37,10.00,7.00,0.08,30.00,M,10.00,M,SCT,OVC,M,M,5000.00,8000.00,M,M,VCTS,M,M,M,M,M,M,50.00,KTMT 080235Z AUTO 01007KT 10SM VCTS SCT050 OVC080 10/07 A3000 RMK AO2 LTG DSNT W P0008 T01000068,M
HTH,2021-10-08 02:35,-118.6315,38.5448,1282.89,66.20,32.00,27.83,320.00,9.00,0.00,29.90,M,10.00,M,FEW,FEW,M,M,6000.00,7000.00,M,M,M,M,M,M,M,M,M,66.20,KHTH 080235Z AUTO 32009KT 10SM FEW060 FEW070 19/00 A2990 RMK A01,M
RTS,2021-10-08 02:35,-119.8764,39.6682,1539.00,53.60,35.60,50.36,290.00,18.00,0.00,29.99,M,10.00,24.00,CLR,M,M,M,M,M,M,M,M,M,M,M,M,M,M,53.60,KRTS 080235Z AUTO 29018G24KT 10SM CLR 12/02 A2999 RMK AO2,M
BAM,2021-10-08 02:35,-116.8743,40.5990,1382.36,59.00,39.20,47.72,10.00,7.00,0.00,29.95,M,10.00,M,SCT,M,M,M,10000.00,M,M,M,M,M,M,M,M,M,M,59.00,KBAM 080235Z AUTO 01007KT 10SM SCT100 15/04 A2995 RMK AO1,M
MEV,2021-10-08 02:35,-119.7500,38.9963,1441.42,59.00,35.60,41.42,250.00,8.00,0.00,29.97,M,10.00,16.00,CLR,M,M,M,M,M,M,M,M,M,M,M,M,M,M,59.00,KMEV 080235Z AUTO 25008G16KT 10SM CLR 15/02 A2997 RMK AO2,M
CXP,2021-10-08 02:35,-119.7326,39.1923,1431.00,60.80,33.80,36.16,300.00,9.00,0.00,29.98,M,10.00,15.00,FEW,M,M,M,9000.00,M,M,M,M,M,M,M,M,M,M,60.80,KCXP 080235Z AUTO 30009G15KT 250V330 10SM FEW090 16/01 A2998 RMK AO2,M
BVU,2021-10-08 02:35,-114.8611,35.9475,671.00,78.80,50.00,36.51,160.00,9.00,0.00,29.93,M,10.00,M,CLR,M,M,M,M,M,M,M,M,M,M,M,M,M,M,78.80,KBVU 080235Z AUTO 16009KT 10SM CLR 26/10 A2993 RMK AO2,M
DRA,2021-10-08 02:53,-116.0278,36.6206,1009.00,72.00,41.00,32.56,210.00,5.00,0.00,29.94,1010.50,10.00,M,CLR,M,M,M,M,M,M,M,M,M,M,M,M,M,M,72.00,KDRA 080253Z AUTO 21005KT 10SM CLR 22/05 A2994 RMK AO2 SLP105 T02220050 52003,M
LOL,2021-10-08 02:53,-118.5701,40.0684,1192.43,59.00,41.00,51.18,40.00,8.00,0.00,29.94,1012.10,10.00,M,BKN,M,M,M,9000.00,M,M,M,M,M,M,M,M,M,M,59.00,KLOL 080253Z AUTO 04008KT 10SM BKN090 15/05 A2994 RMK AO2 SLP121 60000 T01500050 53009,M
P68,2021-10-08 02:53,-116.0056,39.6014,1993.00,55.00,37.00,50.58,150.00,10.00,0.00,30.00,1012.00,M,M,M,M,M,M,M,M,M,M,M,M,M,M,M,M,M,55.00,KP68 080253Z AUTO 15010KT 13/03 A3000 RMK AO1 SLP120 T01280028 53001,M
ELY,2021-10-08 02:53,-114.8453,39.2950,1909.00,56.00,36.00,47.05,180.00,12.00,0.00,30.05,1012.90,10.00,M,CLR,M,M,M,M,M,M,M,M,M,M,M,M,M,M,55.90,KELY 080253Z AUTO 18012KT 10SM CLR 13/02 A3005 RMK AO2 SLP129 T01330022 57002,M
VGT,2021-10-08 02:53,-115.1933,36.2111,667.00,79.00,52.00,39.06,110.00,10.00,0.00,29.89,1012.10,10.00,M,CLR,M,M,M,M,M,M,M,M,M,M,M,M,M,M,79.00,KVGT 080253Z AUTO 11010KT 10SM CLR 26/11 A2989 RMK AO2 SLP121 T02610111 53002,M
05U,2021-10-08 02:55,-116.0051,39.6042,1811.23,55.40,35.60,47.16,160.00,8.00,0.00,30.02,M,10.00,M,CLR,M,M,M,M,M,M,M,M,M,M,M,M,M,M,55.40,K05U 080255Z AUTO 16008KT 10SM CLR 13/02 A3002 RMK A01,M
RTS,2021-10-08 02:55,-119.8764,39.6682,1539.00,53.60,35.60,50.36,280.00,16.00,0.00,30.00,M,10.00,24.00,CLR,M,M,M,M,M,M,M,M,M,M,M,M,M,M,53.60,KRTS 080255Z AUTO 28016G24KT 10SM CLR 12/02 A3000 RMK AO2,M
CXP,2021-10-08 02:55,-119.7326,39.1923,1431.00,60.80,35.60,38.85,270.00,4.00,0.00,29.98,M,10.00,M,CLR,M,M,M,M,M,M,M,M,M,M,M,M,M,M,60.80,KCXP 080255Z AUTO 27004KT 10SM CLR 16/02 A2998 RMK AO2,M
BVU,2021-10-08 02:55,-114.8611,35.9475,671.00,77.00,50.00,38.74,150.00,10.00,0.00,29.94,M,10.00,M,CLR,M,M,M,M,M,M,M,M,M,M,M,M,M,M,77.00,KBVU 080255Z AUTO 15010KT 10SM CLR 25/10 A2994 RMK AO2,M
TMT,2021-10-08 02:55,-117.1971,39.4643,1749.34,49.00,45.70,88.65,110.00,5.00,0.10,30.02,M,10.00,M,SCT,OVC,M,M,5500.00,7500.00,M,M,RA,M,M,M,M,M,M,46.47,KTMT 080255Z AUTO 11005KT 10SM RA SCT055 OVC075 09/08 A3002 RMK AO2 P0010 60010 T00940076,M
RNO,2021-10-08 02:55,-119.7711,39.4839,1341.00,59.00,38.00,45.36,10.00,7.00,0.00,29.96,1011.60,10.00,M,BKN,OVC,M,M,9500.00,14000.00,M,M,M,M,M,M,M,M,M,59.00,KRNO 080255Z 01007KT 10SM BKN095 OVC140 15/03 A2996 RMK AO2 SLP116 T01500033 53011,M
HTH,2021-10-08 02:55,-118.6315,38.5448,1282.89,66.20,32.00,27.83,320.00,9.00,0.00,29.91,M,10.00,M,BKN,BKN,M,M,6000.00,7000.00,M,M,M,M,M,M,M,M,M,66.20,KHTH 080255Z AUTO 32009KT 10SM BKN060 BKN070 19/00 A2991 RMK A01,M
BAM,2021-10-08 02:55,-116.8743,40.5990,1382.36,59.00,37.40,44.47,330.00,13.00,0.00,29.96,M,10.00,M,CLR,M,M,M,M,M,M,M,M,M,M,M,M,M,M,59.00,KBAM 080255Z AUTO 33013KT 10SM CLR 15/03 A2996 RMK AO1,M
MEV,2021-10-08 02:55,-119.7500,38.9963,1441.42,59.00,35.60,41.42,220.00,7.00,0.00,29.98,M,10.00,15.00,FEW,FEW,M,M,5500.00,10000.00,M,M,M,M,M,M,M,M,M,59.00,KMEV 080255Z AUTO 22007G15KT 10SM FEW055 FEW100 15/02 A2998 RMK AO2,M
WMC,2021-10-08 02:56,-117.8072,40.9019,1315.00,52.00,46.00,79.92,10.00,5.00,0.01,29.98,1013.10,10.00,M,FEW,FEW,BKN,M,4800.00,8000.00,11000.00,M,M,M,M,M,M,M,M,52.00,KWMC 080256Z AUTO 01005KT 10SM FEW048 FEW080 BKN110 11/08 A2998 RMK AO2 RAB24E43 SLP131 P0001 60011 T01110078 51018,M
NFL,2021-10-08 02:56,-118.7010,39.4166,1199.00,58.00,41.00,53.24,40.00,7.00,0.00,29.94,1011.10,10.00,M,SCT,BKN,BKN,OVC,6000.00,10000.00,15000.00,25000.00,M,M,M,M,M,M,M,57.90,KNFL 080256Z 04007KT 10SM SCT060 BKN100 BKN150 OVC250 14/05 A2994 RMK AO2 SLP111 SH VC SE-S T01440050 53014,M
EKO,2021-10-08 02:56,-115.7860,40.8242,1367.00,52.00,46.00,79.92,70.00,8.00,0.01,29.99,1013.40,10.00,M,SCT,SCT,BKN,M,6000.00,8000.00,11000.00,M,M,M,M,M,M,M,M,52.00,KEKO 080256Z AUTO 07008KT 10SM SCT060 SCT080 BKN110 11/08 A2999 RMK AO2 RAB25E51 SLP134 P0001 60001 T01110078 58003,M
LAS,2021-10-08 02:56,-115.1634,36.0719,663.00,79.00,46.00,31.21,170.00,4.00,0.00,29.92,1011.10,10.00,M,FEW,FEW,BKN,M,11000.00,16000.00,25000.00,M,M,M,M,M,M,M,M,79.00,KLAS 080256Z 17004KT 10SM FEW110 FEW160 BKN250 26/08 A2992 RMK AO2 SLP111 T02610078 53002,M
HND,2021-10-08 02:56,-115.1344,35.9729,742.79,78.00,47.00,33.26,160.00,12.00,0.00,29.95,1013.90,10.00,M,CLR,M,M,M,M,M,M,M,M,M,M,M,M,M,M,78.10,KHND 080256Z 16012KT 10SM CLR 26/08 A2995 RMK AO2 SLP139 T02560083 53002,M
TPH,2021-10-08 02:56,-117.0904,38.0505,1654.00,61.00,38.00,42.24,170.00,12.00,0.00,30.01,1012.20,10.00,M,CLR,M,M,M,M,M,M,M,M,M,M,M,M,M,M,61.00,KTPH 080256Z AUTO 17012KT 10SM CLR 16/03 A3001 RMK AO2 SLP122 T01610033 53005,M
INS,2021-10-08 02:58,-115.6733,36.5872,955.00,73.00,43.50,34.77,120.00,14.00,0.00,29.92,1009.70,10.00,19.00,CLR,M,M,M,M,M,M,M,M,M,M,M,27.00,120.00,2021-10-08 02:39,72.90,KINS 080258Z AUTO 12014G19KT 10SM CLR 23/06 A2992 RMK AO2 PK WND 12027/39 SLP097 T02270064 50001 $,M
LSV,2021-10-08 02:58,-115.0343,36.2362,570.00,80.60,48.20,32.18,140.00,14.00,0.00,29.91,1011.00,10.00,M,CLR,M,M,M,M,M,M,M,M,M,M,M,M,M,M,79.71,KLSV 080258Z 14014KT 10SM CLR 27/09 A2991 RMK SLP110 53006 WND DATA ESTMD ALSTG/SLP ESTMD $,M
05U,2021-10-08 03:15,-116.0051,39.6042,1811.23,53.60,37.40,54.07,150.00,8.00,0.00,30.03,M,10.00,M,CLR,M,M,M,M,M,M,M,M,M,M,M,M,M,M,53.60,K05U 080315Z AUTO 15008KT 10SM CLR 12/03 A3003 RMK A01,M
RTS,2021-10-08 03:15,-119.8764,39.6682,1539.00,53.60,35.60,50.36,290.00,14.00,0.00,30.00,M,10.00,23.00,FEW,M,M,M,12000.00,M,M,M,M,M,M,M,M,M,M,53.60,KRTS 080315Z AUTO 29014G23KT 10SM FEW120 12/02 A3000 RMK AO2,M
CXP,2021-10-08 03:15,-119.7326,39.1923,1431.00,60.80,33.80,36.16,230.00,4.00,0.00,29.98,M,10.00,12.00,CLR,M,M,M,M,M,M,M,M,M,M,M,M,M,M,60.80,KCXP 080315Z AUTO 23004G12KT 10SM CLR 16/01 A2998 RMK AO2,M
HTH,2021-10-08 03:15,-118.6315,38.5448,1282.89,64.40,33.80,31.85,310.00,7.00,0.00,29.92,M,10.00,M,SCT,SCT,M,M,6000.00,7000.00,M,M,M,M,M,M,M,M,M,64.40,KHTH 080315Z AUTO 31007KT 10SM SCT060 SCT070 18/01 A2992 RMK A01,M
BAM,2021-10-08 03:15,-116.8743,40.5990,1382.36,55.40,41.00,58.27,340.00,17.00,0.00,29.98,M,10.00,21.00,CLR,M,M,M,M,M,M,M,M,M,M,M,M,M,M,55.40,KBAM 080315Z AUTO 34017G21KT 10SM CLR 13/05 A2998 RMK AO1,M
TMT,2021-10-08 03:15,-117.1971,39.4643,1749.34,49.00,45.70,87.99,60.00,7.00,0.00,30.01,M,10.00,M,SCT,SCT,OVC,M,3100.00,5000.00,6500.00,M,-RA,M,M,M,M,M,M,45.62,KTMT 080315Z AUTO 06007KT 10SM -RA SCT031 SCT050 OVC065 10/08 A3001 RMK AO2 T00950076,M
BVU,2021-10-08 03:15,-114.8611,35.9475,671.00,77.00,48.20,36.22,150.00,10.00,0.00,29.94,M,10.00,M,CLR,M,M,M,M,M,M,M,M,M,M,M,M,M,M,77.00,KBVU 080315Z AUTO 15010KT 10SM CLR 25/09 A2994 RMK AO2,M
MEV,2021-10-08 03:15,-119.7500,38.9963,1441.42,57.20,35.60,44.19,210.00,11.00,0.00,29.98,M,10.00,M,BKN,M,M,M,6000.00,M,M,M,M,M,M,M,M,M,M,57.20,KMEV 080315Z AUTO 21011KT 10SM BKN060 14/02 A2998 RMK AO2,M
05U,2021-10-08 03:35,-116.0051,39.6042,1811.23,53.60,35.60,50.36,140.00,8.00,0.00,30.03,M,10.00,M,CLR,M,M,M,M,M,M,M,M,M,M,M,M,M,M,53.60,K05U 080335Z AUTO 14008KT 10SM CLR 12/02 A3003 RMK A01,M
CXP,2021-10-08 03:35,-119.7326,39.1923,1431.00,60.80,33.80,36.16,0.00,0.00,0.00,29.98,M,10.00,M,CLR,M,M,M,M,M,M,M,M,M,M,M,M,M,M,60.80,KCXP 080335Z AUTO 00000KT 10SM CLR 16/01 A2998 RMK AO2,M
BVU,2021-10-08 03:35,-114.8611,35.9475,671.00,77.00,50.00,38.74,150.00,8.00,0.00,29.94,M,10.00,M,CLR,M,M,M,M,M,M,M,M,M,M,M,M,M,M,77.00,KBVU 080335Z AUTO 15008KT 10SM CLR 25/10 A2994 RMK AO2,M
HTH,2021-10-08 03:35,-118.6315,38.5448,1282.89,62.60,39.20,42.00,310.00,15.00,0.00,29.93,M,10.00,20.00,FEW,M,M,M,6500.00,M,M,M,M,M,M,M,M,M,M,62.60,KHTH 080335Z AUTO 31015G20KT 10SM FEW065 17/04 A2993 RMK A01,M
TMT,2021-10-08 03:35,-117.1971,39.4643,1749.34,47.30,44.60,90.28,80.00,8.00,0.00,30.02,M,10.00,M,SCT,SCT,BKN,M,6500.00,7000.00,9000.00,M,M,M,M,M,M,M,M,42.96,KTMT 080335Z AUTO 08008KT 10SM SCT065 SCT070 BKN090 09/07 A3002 RMK AO2 T00850070,M
MEV,2021-10-08 03:35,-119.7500,38.9963,1441.42,57.20,35.60,44.19,230.00,5.00,0.00,29.98,M,10.00,11.00,BKN,BKN,M,M,6000.00,7500.00,M,M,M,M,M,M,M,M,M,57.20,KMEV 080335Z AUTO 23005G11KT 10SM BKN060 BKN075 14/02 A2998 RMK AO2,M
BAM,2021-10-08 03:35,-116.8743,40.5990,1382.36,53.60,41.00,62.23,340.00,17.00,0.00,29.98,M,10.00,22.00,SCT,M,M,M,11000.00,M,M,M,M,M,M,M,M,M,M,53.60,KBAM 080335Z AUTO 34017G22KT 10SM SCT110 12/05 A2998 RMK AO1,M
RTS,2021-10-08 03:35,-119.8764,39.6682,1539.00,53.60,37.40,54.07,300.00,13.00,0.00,30.00,M,10.00,21.00,FEW,M,M,M,12000.00,M,M,M,M,M,M,M,M,M,M,53.60,KRTS 080335Z AUTO 30013G21KT 10SM FEW120 12/03 A3000 RMK AO2,M
CXP,2021-10-08 03:50,-119.7326,39.1923,1431.00,60.80,33.80,36.16,0.00,0.00,0.00,29.99,M,10.00,M,CLR,M,M,M,M,M,M,M,M,M,M,M,M,M,M,60.80,KCXP 080350Z AUTO 00000KT 10SM CLR 16/01 A2999 RMK AO2,M
P68,2021-10-08 03:53,-116.0056,39.6014,1993.00,56.00,36.00,47.05,140.00,12.00,0.00,30.00,1011.40,M,M,M,M,M,M,M,M,M,M,M,M,M,M,M,M,M,55.90,KP68 080353Z AUTO 14012KT 13/02 A3000 RMK AO1 SLP114 T01330022,M
ELY,2021-10-08 03:53,-114.8453,39.2950,1909.00,56.00,38.00,50.71,180.00,17.00,0.00,30.05,1010.90,10.00,24.00,CLR,M,M,M,M,M,M,M,M,M,M,M,M,M,M,55.90,KELY 080353Z AUTO 18017G24KT 10SM CLR 13/03 A3005 RMK AO2 SLP109 T01330033,M
VGT,2021-10-08 03:53,-115.1933,36.2111,667.00,79.00,47.00,32.29,160.00,8.00,0.00,29.91,1012.40,10.00,M,CLR,M,M,M,M,M,M,M,M,M,M,M,M,M,M,79.00,KVGT 080353Z AUTO 16008KT 10SM CLR 26/08 A2991 RMK AO2 SLP124 T02610083,M
DRA,2021-10-08 03:53,-116.0278,36.6206,1009.00,71.00,43.00,36.25,200.00,8.00,0.00,29.94,1010.00,10.00,M,CLR,M,M,M,M,M,M,M,M,M,M,M,M,M,M,71.10,KDRA 080353Z AUTO 20008KT 10SM CLR 22/06 A2994 RMK AO2 SLP100 T02170061,M
LOL,2021-10-08 03:53,-118.5701,40.0684,1192.43,57.00,43.00,59.40,30.00,9.00,0.00,29.95,1012.20,10.00,M,SCT,M,M,M,11000.00,M,M,M,M,M,M,M,M,M,M,57.00,KLOL 080353Z AUTO 03009KT 10SM SCT110 14/06 A2995 RMK AO2 SLP122 T01390061,M
RNO,2021-10-08 03:55,-119.7711,39.4839,1341.00,58.00,38.00,47.18,20.00,4.00,0.00,29.97,1011.60,10.00,M,FEW,BKN,OVC,M,9500.00,15000.00,19000.00,M,M,M,M,M,M,M,M,57.90,KRNO 080355Z 02004KT 10SM FEW095 BKN150 OVC190 14/03 A2997 RMK AO2 SLP116 T01440033,M
BVU,2021-10-08 03:55,-114.8611,35.9475,671.00,77.00,50.00,38.74,160.00,8.00,0.00,29.93,M,10.00,M,CLR,M,M,M,M,M,M,M,M,M,M,M,M,M,M,77.00,KBVU 080355Z AUTO 16008KT 10SM CLR 25/10 A2993 RMK AO2,M
05U,2021-10-08 03:55,-116.0051,39.6042,1811.23,55.40,35.60,47.16,140.00,10.00,0.00,30.03,M,10.00,M,CLR,M,M,M,M,M,M,M,M,M,M,M,M,M,M,55.40,K05U 080355Z AUTO 14010KT 10SM CLR 13/02 A3003 RMK A01,M
MEV,2021-10-08 03:55,-119.7500,38.9963,1441.42,57.20,35.60,44.19,220.00,6.00,0.00,29.98,M,10.00,M,OVC,M,M,M,6000.00,M,M,M,M,M,M,M,M,M,M,57.20,KMEV 080355Z AUTO 22006KT 10SM OVC060 14/02 A2998 RMK AO2,M
BAM,2021-10-08 03:55,-116.8743,40.5990,1382.36,53.60,41.00,62.23,330.00,13.00,0.00,29.98,M,10.00,M,SCT,M,M,M,11000.00,M,M,M,M,M,M,M,M,M,M,53.60,KBAM 080355Z AUTO 33013KT 10SM SCT110 12/05 A2998 RMK AO1,M
HTH,2021-10-08 03:55,-118.6315,38.5448,1282.89,62.60,39.20,42.00,300.00,17.00,0.00,29.94,M,10.00,23.00,FEW,FEW,M,M,5500.00,7000.00,M,M,M,M,M,M,M,M,M,62.60,KHTH 080355Z AUTO 30017G23KT 10SM FEW055 FEW070 17/04 A2994 RMK A01,M
RTS,2021-10-08 03:55,-119.8764,39.6682,1539.00,55.40,35.60,47.16,260.00,9.00,0.00,30.00,M,10.00,M,FEW,M,M,M,12000.00,M,M,M,M,M,M,M,M,M,M,55.40,KRTS 080355Z AUTO 26009KT 10SM FEW120 13/02 A3000 RMK AO2,M
TMT,2021-10-08 03:55,-117.1971,39.4643,1749.34,46.20,43.70,90.93,60.00,6.00,0.00,30.02,M,10.00,M,SCT,BKN,M,M,9000.00,11000.00,M,M,M,M,M,M,M,M,M,42.63,KTMT 080355Z AUTO 06006KT 10SM SCT090 BKN110 08/07 A3002 RMK AO2 T00790065,M
WMC,2021-10-08 03:56,-117.8072,40.9019,1315.00,49.00,46.00,89.67,300.00,3.00,0.00,29.98,1013.20,10.00,M,SCT,BKN,M,M,10000.00,12000.00,M,M,M,M,M,M,M,M,M,48.01,KWMC 080356Z AUTO 30003KT 10SM SCT100 BKN120 09/08 A2998 RMK AO2 SLP132 T00940078,M
TPH,2021-10-08 03:56,-117.0904,38.0505,1654.00,61.00,35.00,37.81,180.00,13.00,0.00,30.01,1011.30,10.00,M,CLR,M,M,M,M,M,M,M,M,M,M,M,M,M,M,61.00,KTPH 080356Z AUTO 18013KT 10SM CLR 16/02 A3001 RMK AO2 SLP113 T01610017,M
NFL,2021-10-08 03:56,-118.7010,39.4166,1199.00,56.00,41.00,57.23,M,5.00,0.00,29.95,1011.40,10.00,M,SCT,BKN,BKN,OVC,6000.00,10000.00,15000.00,25000.00,M,M,M,M,M,M,M,55.90,KNFL 080356Z VRB05KT 10SM SCT060 BKN100 BKN150 OVC250 13/05 A2995 RMK AO2 SLP114 T01330050,M
HND,2021-10-08 03:56,-115.1344,35.9729,742.79,76.00,47.00,35.78,180.00,9.00,0.00,29.95,1013.70,10.00,M,CLR,M,M,M,M,M,M,M,M,M,M,M,M,M,M,75.90,KHND 080356Z AUTO 18009KT 10SM CLR 24/08 A2995 RMK AO2 SLP137 T02440083,M
LAS,2021-10-08 03:56,-115.1634,36.0719,663.00,78.00,47.00,33.26,180.00,4.00,0.00,29.92,1011.40,10.00,M,SCT,SCT,BKN,M,11000.00,16000.00,25000.00,M,M,M,M,M,M,M,M,78.10,KLAS 080356Z 18004KT 10SM SCT110 SCT160 BKN250 26/08 A2992 RMK AO2 SLP114 T02560083,M
EKO,2021-10-08 03:56,-115.7860,40.8242,1367.00,51.00,45.00,79.54,30.00,7.00,0.00,29.98,1013.10,10.00,M,BKN,M,M,M,11000.00,M,M,M,M,M,M,M,M,M,M,51.10,KEKO 080356Z AUTO 03007KT 10SM BKN110 11/07 A2998 RMK AO2 LTG DSNT S SLP131 T01060072,M
LSV,2021-10-08 03:58,-115.0343,36.2362,570.00,80.60,48.20,32.18,140.00,12.00,0.00,29.91,1010.90,10.00,M,BKN,M,M,M,24000.00,M,M,M,M,M,M,M,M,M,M,79.71,KLSV 080358Z 14012KT 10SM BKN240 27/09 A2991 RMK SLP109 WND DATA ESTMD ALSTG/SLP ESTMD,M
INS,2021-10-08 03:58,-115.6733,36.5872,955.00,72.50,45.50,38.04,130.00,17.00,0.00,29.92,M,10.00,M,CLR,M,M,M,M,M,M,M,M,M,M,M,29.00,110.00,2021-10-08 03:04,72.50,KINS 080358Z AUTO 13017KT 10SM CLR 23/08 A2992 RMK AO2 PK WND 11029/04 SLPNO T02250075 $,M
CXP,2021-10-08 04:15,-119.7326,39.1923,1431.00,59.00,35.60,41.42,0.00,0.00,0.00,29.99,M,10.00,M,SCT,M,M,M,6000.00,M,M,M,M,M,M,M,M,M,M,59.00,KCXP 080415Z AUTO 00000KT 10SM SCT060 15/02 A2999 RMK AO2,M
BVU,2021-10-08 04:15,-114.8611,35.9475,671.00,77.00,50.00,38.74,160.00,8.00,0.00,29.93,M,10.00,M,CLR,M,M,M,M,M,M,M,M,M,M,M,M,M,M,77.00,KBVU 080415Z AUTO 16008KT 10SM CLR 25/10 A2993 RMK AO2,M
HTH,2021-10-08 04:15,-118.6315,38.5448,1282.89,62.60,41.00,45.04,310.00,12.00,0.00,29.94,M,10.00,20.00,SCT,SCT,M,M,6000.00,7000.00,M,M,M,M,M,M,M,M,M,62.60,KHTH 080415Z AUTO 31012G20KT 10SM SCT060 SCT070 17/05 A2994 RMK A01,M
BAM,2021-10-08 04:15,-116.8743,40.5990,1382.36,53.60,41.00,62.23,320.00,10.00,0.00,29.99,M,10.00,M,BKN,M,M,M,11000.00,M,M,M,M,M,M,M,M,M,M,53.60,KBAM 080415Z AUTO 32010KT 10SM BKN110 12/05 A2999 RMK AO1,M
MEV,2021-10-08 04:15,-119.7500,38.9963,1441.42,59.00,35.60,41.42,210.00,10.00,0.00,29.98,M,10.00,19.00,OVC,M,M,M,5500.00,M,M,M,M,M,M,M,M,M,M,59.00,KMEV 080415Z AUTO 21010G19KT 10SM OVC055 15/02 A2998 RMK AO2,M
RTS,2021-10-08 04:15,-119.8764,39.6682,1539.00,53.60,35.60,50.36,270.00,10.00,0.00,30.00,M,10.00,M,FEW,M,M,M,6000.00,M,M,M,M,M,M,M,M,M,M,53.60,KRTS 080415Z AUTO 27010KT 10SM FEW060 12/02 A3000 RMK AO2,M
05U,2021-10-08 04:15,-116.0051,39.6042,1811.23,55.40,35.60,47.16,130.00,6.00,0.00,30.03,M,10.00,12.00,CLR,M,M,M,M,M,M,M,M,M,M,M,M,M,M,55.40,K05U 080415Z AUTO 13006G12KT 10SM CLR 13/02 A3003 RMK A01,M
TMT,2021-10-08 04:15,-117.1971,39.4643,1749.34,45.50,43.20,91.60,50.00,6.00,0.00,30.02,M,10.00,M,SCT,BKN,M,M,9000.00,11000.00,M,M,M,M,M,M,M,M,M,41.79,KTMT 080415Z AUTO 05006KT 10SM SCT090 BKN110 08/06 A3002 RMK AO2 T00750062,M
05U,2021-10-08 04:35,-116.0051,39.6042,1811.23,55.40,35.60,47.16,150.00,6.00,0.00,30.04,M,10.00,11.00,BKN,M,M,M,7000.00,M,M,M,M,M,M,M,M,M,M,55.40,K05U 080435Z AUTO 15006G11KT 10SM BKN070 13/02 A3004 RMK A01,M
EKO,2021-10-08 04:35,-115.7860,40.8242,1367.00,50.00,45.00,82.86,100.00,7.00,0.01,30.01,M,7.00,M,FEW,BKN,OVC,M,3100.00,6000.00,9000.00,M,-TSRA,M,M,M,M,M,M,50.00,KEKO 080435Z AUTO 10007KT 7SM -TSRA FEW031 BKN060 OVC090 10/07 A3001 RMK AO2 LTG DSNT E RAB25 TSB29 P0001 T01000072,M
BAM,2021-10-08 04:35,-116.8743,40.5990,1382.36,53.60,41.00,62.23,200.00,8.00,0.00,30.03,M,10.00,15.00,M,M,M,M,M,M,M,M,M,M,M,M,M,M,M,53.60,KBAM 080435Z AUTO 20008G15KT 10SM 12/05 A3003 RMK AO1,M
TMT,2021-10-08 04:35,-117.1971,39.4643,1749.34,45.50,43.70,93.37,0.00,0.00,0.00,30.02,M,10.00,M,BKN,OVC,M,M,8000.00,11000.00,M,M,M,M,M,M,M,M,M,45.50,KTMT 080435Z AUTO 00000KT 10SM BKN080 OVC110 08/07 A3002 RMK AO2 LTG DSNT NE T00750065,M
MEV,2021-10-08 04:35,-119.7500,38.9963,1441.42,57.20,35.60,44.19,190.00,5.00,0.00,29.98,M,10.00,11.00,FEW,SCT,BKN,M,4400.00,5000.00,6000.00,M,M,M,M,M,M,M,M,57.20,KMEV 080435Z AUTO 19005G11KT 10SM FEW044 SCT050 BKN060 14/02 A2998 RMK AO2,M
BVU,2021-10-08 04:35,-114.8611,35.9475,671.00,77.00,50.00,38.74,150.00,6.00,0.00,29.93,M,10.00,M,CLR,M,M,M,M,M,M,M,M,M,M,M,M,M,M,77.00,KBVU 080435Z AUTO 15006KT 10SM CLR 25/10 A2993 RMK AO2,M
RTS,2021-10-08 04:35,-119.8764,39.6682,1539.00,53.60,35.60,50.36,270.00,12.00,0.00,30.00,M,10.00,18.00,CLR,M,M,M,M,M,M,M,M,M,M,M,M,M,M,53.60,KRTS 080435Z AUTO 27012G18KT 10SM CLR 12/02 A3000 RMK AO2,M
HTH,2021-10-08 04:35,-118.6315,38.5448,1282.89,60.80,39.20,44.76,320.00,15.00,0.00,29.95,M,10.00,M,BKN,OVC,M,M,6000.00,7000.00,M,M,M,M,M,M,M,M,M,60.80,KHTH 080435Z AUTO 32015KT 10SM BKN060 OVC070 16/04 A2995 RMK A01,M
CXP,2021-10-08 04:35,-119.7326,39.1923,1431.00,59.00,35.60,41.42,M,4.00,0.00,29.99,M,10.00,M,BKN,M,M,M,6000.00,M,M,M,M,M,M,M,M,M,M,59.00,KCXP 080435Z AUTO VRB04KT 10SM BKN060 15/02 A2999 RMK AO2,M
ELY,2021-10-08 04:53,-114.8453,39.2950,1909.00,55.00,39.00,54.70,180.00,17.00,0.00,30.06,1010.60,10.00,M,CLR,M,M,M,M,M,M,M,M,M,M,M,27.00,160.00,2021-10-08 03:56,55.00,KELY 080453Z AUTO 18017KT 10SM CLR 13/04 A3006 RMK AO2 PK WND 16027/0356 SLP106 T01280039,M
LOL,2021-10-08 04:53,-118.5701,40.0684,1192.43,57.00,42.00,57.38,30.00,8.00,0.00,29.96,1012.20,10.00,M,FEW,SCT,M,M,8500.00,12000.00,M,M,M,M,M,M,M,M,M,57.00,KLOL 080453Z AUTO 03008KT 10SM FEW085 SCT120 14/06 A2996 RMK AO2 SLP122 T01390056,M
DRA,2021-10-08 04:53,-116.0278,36.6206,1009.00,70.00,44.00,39.26,240.00,8.00,0.00,29.94,1009.80,10.00,M,CLR,M,M,M,M,M,M,M,M,M,M,M,M,M,M,70.00,KDRA 080453Z AUTO 24008KT 10SM CLR 21/07 A2994 RMK AO2 SLP098 T02110067,M
P68,2021-10-08 04:53,-116.0056,39.6014,1993.00,54.00,37.00,52.45,110.00,5.00,0.00,30.01,1011.30,M,M,M,M,M,M,M,M,M,M,M,M,M,M,M,M,M,54.00,KP68 080453Z AUTO 11005KT 12/03 A3001 RMK AO1 SLP113 T01220028,M
VGT,2021-10-08 04:53,-115.1933,36.2111,667.00,77.00,48.00,35.95,90.00,5.00,0.00,29.89,1011.90,10.00,M,CLR,M,M,M,M,M,M,M,M,M,M,M,M,M,M,77.00,KVGT 080453Z AUTO 09005KT 10SM CLR 25/09 A2989 RMK AO2 SLP119 T02500089,M
EKO,2021-10-08 04:54,-115.7860,40.8242,1367.00,50.00,44.60,81.61,90.00,5.05,M,30.01,M,10.00,M,FEW,BKN,BKN,M,4701.00,6499.00,11000.00,M,VCTS,M,M,M,M,M,M,50.00,SPECI KEKO 080454Z 09005KT 10SM VCTS FEW047 BKN065 BKN110 10/07 A3001 RMK AO2 LTG DSNT NE AND E AND W RAB25E48 TSB29E51 P0002 FIBI,M
RNO,2021-10-08 04:55,-119.7711,39.4839,1341.00,57.00,38.00,48.73,40.00,7.00,0.00,29.98,1012.00,10.00,M,FEW,OVC,M,M,9000.00,16000.00,M,M,M,M,M,M,M,M,M,57.00,KRNO 080455Z 04007KT 10SM FEW090 OVC160 14/03 A2998 RMK AO2 SLP120 T01390033,M
05U,2021-10-08 04:55,-116.0051,39.6042,1811.23,53.60,35.60,50.36,0.00,0.00,0.00,30.04,M,10.00,M,BKN,M,M,M,7000.00,M,M,M,M,M,M,M,M,M,M,53.60,K05U 080455Z AUTO 00000KT 10SM BKN070 12/02 A3004 RMK A01,M
MEV,2021-10-08 04:55,-119.7500,38.9963,1441.42,53.60,35.60,50.36,150.00,5.00,0.00,29.98,M,10.00,M,FEW,FEW,M,M,4300.00,5000.00,M,M,M,M,M,M,M,M,M,53.60,KMEV 080455Z AUTO 15005KT 10SM FEW043 FEW050 12/02 A2998 RMK AO2,M
BAM,2021-10-08 04:55,-116.8743,40.5990,1382.36,51.80,42.80,71.26,300.00,7.00,0.00,30.01,M,10.00,M,SCT,SCT,BKN,M,3300.00,4100.00,6000.00,M,M,M,M,M,M,M,M,51.80,KBAM 080455Z AUTO 30007KT 10SM SCT033 SCT041 BKN060 11/06 A3001 RMK AO1,M
HTH,2021-10-08 04:55,-118.6315,38.5448,1282.89,60.80,39.20,44.76,320.00,14.00,0.00,29.95,M,10.00,M,BKN,OVC,M,M,6000.00,7000.00,M,M,M,M,M,M,M,M,M,60.80,KHTH 080455Z AUTO 32014KT 10SM BKN060 OVC070 16/04 A2995 RMK A01,M
TMT,2021-10-08 04:55,-117.1971,39.4643,1749.34,44.60,42.80,93.35,0.00,0.00,0.00,30.01,M,10.00,M,BKN,BKN,M,M,8000.00,11000.00,M,M,M,M,M,M,M,M,M,44.60,KTMT 080455Z AUTO 00000KT 10SM BKN080 BKN110 07/06 A3001 RMK AO2 LTG DSNT NE T00700060,M
BVU,2021-10-08 04:55,-114.8611,35.9475,671.00,75.20,50.00,41.14,140.00,5.00,0.00,29.92,M,10.00,M,CLR,M,M,M,M,M,M,M,M,M,M,M,M,M,M,75.20,KBVU 080455Z AUTO 14005KT 10SM CLR 24/10 A2992 RMK AO2,M
CXP,2021-10-08 04:55,-119.7326,39.1923,1431.00,59.00,35.60,41.42,170.00,3.00,0.00,29.99,M,10.00,M,FEW,M,M,M,5500.00,M,M,M,M,M,M,M,M,M,M,59.00,KCXP 080455Z AUTO 17003KT 10SM FEW055 15/02 A2999 RMK AO2,M
RTS,2021-10-08 04:55,-119.8764,39.6682,1539.00,53.60,35.60,50.36,280.00,11.00,0.00,30.00,M,10.00,16.00,CLR,M,M,M,M,M,M,M,M,M,M,M,M,M,M,53.60,KRTS 080455Z AUTO 28011G16KT 10SM CLR 12/02 A3000 RMK AO2,M
NFL,2021-10-08 04:56,-118.7010,39.4166,1199.00,54.00,40.00,58.76,360.00,6.00,0.00,29.94,1011.30,10.00,M,SCT,BKN,OVC,M,6000.00,10000.00,25000.00,M,M,M,M,M,M,M,M,54.00,KNFL 080456Z 36006KT 10SM SCT060 BKN100 OVC250 12/04 A2994 RMK AO2 SLP113 T01220044,M
TPH,2021-10-08 04:56,-117.0904,38.0505,1654.00,57.00,38.00,48.73,160.00,7.00,0.00,30.01,1011.70,10.00,M,CLR,M,M,M,M,M,M,M,M,M,M,M,M,M,M,57.00,KTPH 080456Z AUTO 16007KT 10SM CLR 14/03 A3001 RMK AO2 SLP117 T01390033,M
HND,2021-10-08 04:56,-115.1344,35.9729,742.79,77.00,49.00,37.19,190.00,10.00,0.00,29.94,1013.10,10.00,M,CLR,M,M,M,M,M,M,M,M,M,M,M,M,M,M,77.00,KHND 080456Z AUTO 19010KT 10SM CLR 25/09 A2994 RMK AO2 SLP131 T02500094,M
LAS,2021-10-08 04:56,-115.1634,36.0719,663.00,77.00,47.00,34.50,180.00,4.00,0.00,29.91,1010.90,10.00,M,FEW,SCT,OVC,M,11000.00,16000.00,19000.00,M,M,M,M,M,M,M,M,77.00,KLAS 080456Z 18004KT 10SM FEW110 SCT160 OVC190 25/08 A2991 RMK AO2 SLP109 T02500083,M
EKO,2021-10-08 04:56,-115.7860,40.8242,1367.00,50.00,45.00,82.86,90.00,5.00,0.02,30.01,1013.70,10.00,M,FEW,SCT,BKN,M,4700.00,6500.00,11000.00,M,VCTS,M,M,M,M,M,M,50.00,KEKO 080456Z AUTO 09005KT 10SM VCTS FEW047 SCT065 BKN110 10/07 A3001 RMK AO2 LTG DSNT NE AND E AND W RAB25E48 TSB29E51 SLP137 P0002 T01000072,M
WMC,2021-10-08 04:56,-117.8072,40.9019,1315.00,50.00,46.00,86.06,360.00,16.00,T,29.96,1012.10,9.00,21.00,FEW,SCT,OVC,M,3800.00,5500.00,7500.00,M,-RA,M,M,M,M,M,M,50.00,KWMC 080456Z AUTO 36016G21KT 9SM -RA FEW038 SCT055 OVC075 10/08 A2996 RMK AO2 RAB42 PRESFR SLP121 P0000 T01000078,M
LSV,2021-10-08 04:58,-115.0343,36.2362,570.00,78.80,48.20,34.13,120.00,6.00,0.00,29.92,1011.20,10.00,M,BKN,M,M,M,20000.00,M,M,M,M,M,M,M,M,M,M,78.80,KLSV 080458Z 12006KT 10SM BKN200 26/09 A2992 RMK SLP112 WND DATA ESTMD ALSTG/SLP112 ESTMD $,M
INS,2021-10-08 04:58,-115.6733,36.5872,955.00,70.50,45.70,41.02,120.00,9.00,0.00,29.93,M,10.00,M,CLR,M,M,M,M,M,M,M,M,M,M,M,M,M,M,70.50,KINS 080458Z AUTO 12009KT 10SM CLR 21/08 A2993 RMK AO2 SLPNO T02140076 $,M
EKO,2021-10-08 05:05,-115.7860,40.8242,1367.00,50.00,45.00,82.86,90.00,5.00,0.00,30.02,M,10.00,M,SCT,BKN,BKN,M,6500.00,9000.00,11000.00,M,M,M,M,M,M,M,M,50.00,KEKO 080505Z AUTO 09005KT 10SM SCT065 BKN090 BKN110 10/07 A3002 RMK AO2 LTG DSNT NE AND W T01000072,M
MEV,2021-10-08 05:15,-119.7500,38.9963,1441.42,55.40,35.60,47.16,260.00,4.00,0.00,29.99,M,10.00,M,SCT,SCT,SCT,M,5000.00,6000.00,10000.00,M,M,M,M,M,M,M,M,55.40,KMEV 080515Z AUTO 26004KT 10SM SCT050 SCT060 SCT100 13/02 A2999 RMK AO2,M
BVU,2021-10-08 05:15,-114.8611,35.9475,671.00,75.20,50.00,41.14,130.00,6.00,0.00,29.92,M,10.00,M,FEW,M,M,M,12000.00,M,M,M,M,M,M,M,M,M,M,75.20,KBVU 080515Z AUTO 13006KT 10SM FEW120 24/10 A2992 RMK AO2,M
HTH,2021-10-08 05:15,-118.6315,38.5448,1282.89,59.00,41.00,51.18,310.00,11.00,0.00,29.96,M,10.00,18.00,BKN,OVC,M,M,6000.00,7000.00,M,M,M,M,M,M,M,M,M,59.00,KHTH 080515Z AUTO 31011G18KT 10SM BKN060 OVC070 15/05 A2996 RMK A01,M
TMT,2021-10-08 05:15,-117.1971,39.4643,1749.34,44.00,42.40,94.41,330.00,3.00,0.00,30.02,M,10.00,M,BKN,BKN,M,M,8000.00,11000.00,M,M,M,M,M,M,M,M,M,42.29,KTMT 080515Z AUTO 33003KT 10SM BKN080 BKN110 07/06 A3002 RMK AO2 LTG DSNT NE T00660058,M
BAM,2021-10-08 05:15,-116.8743,40.5990,1382.36,50.00,44.60,81.61,0.00,0.00,0.00,30.01,M,10.00,M,SCT,M,M,M,11000.00,M,M,M,M,M,M,M,M,M,M,50.00,KBAM 080515Z AUTO 00000KT 10SM SCT110 10/07 A3001 RMK AO1,M
RTS,2021-10-08 05:15,-119.8764,39.6682,1539.00,53.60,35.60,50.36,270.00,12.00,0.00,30.00,M,10.00,M,CLR,M,M,M,M,M,M,M,M,M,M,M,M,M,M,53.60,KRTS 080515Z AUTO 27012KT 10SM CLR 12/02 A3000 RMK AO2,M
CXP,2021-10-08 05:15,-119.7326,39.1923,1431.00,59.00,35.60,41.42,200.00,3.00,0.00,29.99,M,10.00,M,CLR,M,M,M,M,M,M,M,M,M,M,M,M,M,M,59.00,KCXP 080515Z AUTO 20003KT 10SM CLR 15/02 A2999 RMK AO2,M
05U,2021-10-08 05:15,-116.0051,39.6042,1811.23,50.00,39.20,66.27,350.00,3.00,0.00,30.04,M,10.00,M,BKN,BKN,M,M,6500.00,7500.00,M,M,M,M,M,M,M,M,M,50.00,K05U 080515Z AUTO 35003KT 10SM BKN065 BKN075 10/04 A3004 RMK A01,M
TMT,2021-10-08 05:35,-117.1971,39.4643,1749.34,44.60,43.30,95.15,290.00,7.00,0.00,30.01,M,10.00,M,BKN,BKN,M,M,8000.00,10000.00,M,M,M,M,M,M,M,M,M,40.14,KTMT 080535Z AUTO 29007KT 10SM BKN080 BKN100 07/06 A3001 RMK AO2 T00700063,M
HTH,2021-10-08 05:35,-118.6315,38.5448,1282.89,59.00,39.20,47.72,310.00,11.00,0.00,29.97,M,10.00,16.00,SCT,OVC,M,M,5000.00,6000.00,M,M,M,M,M,M,M,M,M,59.00,KHTH 080535Z AUTO 31011G16KT 10SM SCT050 OVC060 15/04 A2997 RMK A01,M
BAM,2021-10-08 05:35,-116.8743,40.5990,1382.36,50.00,42.80,76.18,40.00,3.00,0.00,30.00,M,10.00,M,CLR,M,M,M,M,M,M,M,M,M,M,M,M,M,M,50.00,KBAM 080535Z AUTO 04003KT 10SM CLR 10/06 A3000 RMK AO1,M
BVU,2021-10-08 05:35,-114.8611,35.9475,671.00,75.20,50.00,41.14,0.00,0.00,0.00,29.92,M,10.00,M,CLR,M,M,M,M,M,M,M,M,M,M,M,M,M,M,75.20,KBVU 080535Z AUTO 00000KT 10SM CLR 24/10 A2992 RMK AO2,M
CXP,2021-10-08 05:35,-119.7326,39.1923,1431.00,57.20,33.80,41.13,0.00,0.00,0.00,29.99,M,10.00,M,SCT,M,M,M,8500.00,M,M,M,M,M,M,M,M,M,M,57.20,KCXP 080535Z AUTO 00000KT 10SM SCT085 14/01 A2999 RMK AO2,M
MEV,2021-10-08 05:35,-119.7500,38.9963,1441.42,57.20,35.60,44.19,260.00,11.00,0.00,29.99,M,10.00,17.00,BKN,BKN,M,M,5500.00,10000.00,M,M,M,M,M,M,M,M,M,57.20,KMEV 080535Z AUTO 26011G17KT 10SM BKN055 BKN100 14/02 A2999 RMK AO2,M
05U,2021-10-08 05:35,-116.0051,39.6042,1811.23,51.80,39.20,61.99,320.00,6.00,0.00,30.04,M,10.00,M,OVC,M,M,M,6500.00,M,M,M,M,M,M,M,M,M,M,51.80,K05U 080535Z AUTO 32006KT 10SM OVC065 11/04 A3004 RMK A01,M
RTS,2021-10-08 05:35,-119.8764,39.6682,1539.00,53.60,35.60,50.36,270.00,15.00,0.00,30.01,M,10.00,M,CLR,M,M,M,M,M,M,M,M,M,M,M,M,M,M,53.60,KRTS 080535Z AUTO 27015KT 10SM CLR 12/02 A3001 RMK AO2,M
DRA,2021-10-08 05:53,-116.0278,36.6206,1009.00,69.00,44.00,40.48,210.00,3.00,0.00,29.93,1009.50,10.00,M,CLR,M,M,M,M,M,M,M,M,M,M,M,M,M,M,69.10,KDRA 080553Z AUTO 21003KT 10SM CLR 21/07 A2993 RMK AO2 SLP095 T02060067 10267 20200 57003,M
VGT,2021-10-08 05:53,-115.1933,36.2111,667.00,76.00,51.00,41.86,M,5.00,0.00,29.90,1012.10,10.00,M,CLR,M,M,M,M,M,M,M,M,M,M,M,M,M,M,75.90,KVGT 080553Z AUTO VRB05KT 10SM CLR 24/11 A2990 RMK AO2 SLP121 T02440106 10283 20244 51002,M
LOL,2021-10-08 05:53,-118.5701,40.0684,1192.43,56.00,42.00,59.71,40.00,10.00,0.00,29.95,1011.80,10.00,M,SCT,BKN,M,M,8000.00,12000.00,M,M,M,M,M,M,M,M,M,55.90,KLOL 080553Z AUTO 04010KT 10SM SCT080 BKN120 13/06 A2995 RMK AO2 SLP118 60000 T01330056 10211 20133 50003,M
ELY,2021-10-08 05:53,-114.8453,39.2950,1909.00,53.00,39.00,58.64,200.00,12.00,0.00,30.06,1010.30,10.00,M,BKN,BKN,M,M,6000.00,8000.00,M,M,M,M,M,M,28.00,170.00,2021-10-08 04:55,53.10,KELY 080553Z AUTO 20012KT 10SM BKN060 BKN080 12/04 A3006 RMK AO2 PK WND 17028/0455 SLP103 T01170039 10172 20111 50002,M
P68,2021-10-08 05:53,-116.0056,39.6014,1993.00,49.00,39.00,68.51,340.00,6.00,0.00,30.02,1011.80,M,M,M,M,M,M,M,M,M,M,M,M,M,M,M,M,M,45.88,KP68 080553Z AUTO 34006KT 09/04 A3002 RMK AO1 SLP118 T00940039 10167 20094 53006,M
RTS,2021-10-08 05:55,-119.8764,39.6682,1539.00,53.60,35.60,50.36,270.00,8.00,0.00,30.00,M,10.00,17.00,FEW,M,M,M,6000.00,M,M,M,M,M,M,M,M,M,M,53.60,KRTS 080555Z AUTO 27008G17KT 10SM FEW060 12/02 A3000 RMK AO2,M
HTH,2021-10-08 05:55,-118.6315,38.5448,1282.89,59.00,41.00,51.18,320.00,13.00,0.00,29.96,M,10.00,M,OVC,M,M,M,5500.00,M,M,M,M,M,M,M,M,M,M,59.00,KHTH 080555Z AUTO 32013KT 10SM OVC055 15/05 A2996 RMK A01,M
CXP,2021-10-08 05:55,-119.7326,39.1923,1431.00,57.20,33.80,41.13,0.00,0.00,0.00,29.99,M,10.00,M,SCT,M,M,M,9000.00,M,M,M,M,M,M,M,M,M,M,57.20,KCXP 080555Z AUTO 00000KT 10SM SCT090 14/01 A2999 RMK AO2,M
RNO,2021-10-08 05:55,-119.7711,39.4839,1341.00,56.00,38.00,50.71,20.00,6.00,0.00,29.97,1011.40,10.00,M,SCT,OVC,M,M,9500.00,17000.00,M,M,M,M,M,M,M,M,M,55.90,KRNO 080555Z 02006KT 10SM SCT095 OVC170 13/03 A2997 RMK AO2 SLP114 T01330033 10178 20133 50002,M
BVU,2021-10-08 05:55,-114.8611,35.9475,671.00,75.20,48.20,38.46,150.00,3.00,0.00,29.93,M,10.00,M,CLR,M,M,M,M,M,M,M,M,M,M,M,M,M,M,75.20,KBVU 080555Z AUTO 15003KT 10SM CLR 24/09 A2993 RMK AO2,M
05U,2021-10-08 05:55,-116.0051,39.6042,1811.23,50.00,39.20,66.27,340.00,4.00,0.00,30.04,M,10.00,M,SCT,BKN,BKN,M,7000.00,7500.00,8500.00,M,M,M,M,M,M,M,M,50.00,K05U 080555Z AUTO 34004KT 10SM SCT070 BKN075 BKN085 10/04 A3004 RMK A01,M
MEV,2021-10-08 05:55,-119.7500,38.9963,1441.42,55.40,35.60,47.16,260.00,6.00,0.00,29.98,M,10.00,12.00,FEW,BKN,BKN,M,4800.00,5500.00,6500.00,M,M,M,M,M,M,M,M,55.40,KMEV 080555Z AUTO 26006G12KT 10SM FEW048 BKN055 BKN065 13/02 A2998 RMK AO2,M
TMT,2021-10-08 05:55,-117.1971,39.4643,1749.34,45.30,43.70,94.08,0.00,0.00,0.00,30.01,M,10.00,M,BKN,BKN,M,M,8000.00,10000.00,M,M,M,M,M,M,M,M,M,45.30,KTMT 080555Z AUTO 00000KT 10SM BKN080 BKN100 07/07 A3001 RMK AO2 60010 T00740065 10171 20066,M
BAM,2021-10-08 05:55,-116.8743,40.5990,1382.36,48.20,44.60,87.28,0.00,0.00,0.00,30.01,M,10.00,M,CLR,M,M,M,M,M,M,M,M,M,M,M,M,M,M,48.20,KBAM 080555Z AUTO 00000KT 10SM CLR 09/07 A3001 RMK AO1,M
HND,2021-10-08 05:56,-115.1344,35.9729,742.79,74.00,47.00,38.26,210.00,7.00,0.00,29.95,1013.70,10.00,M,CLR,M,M,M,M,M,M,M,M,M,M,M,M,M,M,73.90,KHND 080556Z AUTO 21007KT 10SM CLR 23/08 A2995 RMK AO2 SLP137 T02330083 10278 20233 55000,M
NFL,2021-10-08 05:56,-118.7010,39.4166,1199.00,52.00,39.00,61.06,330.00,6.00,0.00,29.95,1011.30,10.00,M,SCT,BKN,OVC,M,6000.00,10000.00,25000.00,M,M,M,M,M,M,M,M,52.00,KNFL 080556Z 33006KT 10SM SCT060 BKN100 OVC250 11/04 A2995 RMK AO2 SLP113 T01110039 10222 20106 51002,M
EKO,2021-10-08 05:56,-115.7860,40.8242,1367.00,50.00,45.00,82.86,360.00,4.00,0.01,30.02,1013.80,10.00,M,OVC,M,M,M,5500.00,M,M,M,-RA,M,M,M,M,M,M,50.00,KEKO 080556Z AUTO 36004KT 10SM -RA OVC055 10/07 A3002 RMK AO2 RAB19 SLP138 P0001 60004 T01000072 10133 20100 53007,M
TPH,2021-10-08 05:56,-117.0904,38.0505,1654.00,54.00,37.00,52.45,M,3.00,0.00,30.01,1011.60,10.00,M,CLR,M,M,M,M,M,M,M,M,M,M,M,M,M,M,54.00,KTPH 080556Z AUTO VRB03KT 10SM CLR 12/03 A3001 RMK AO2 SLP116 T01220028 10206 20117 50001,M
WMC,2021-10-08 05:56,-117.8072,40.9019,1315.00,51.00,45.00,79.54,40.00,10.00,0.01,29.97,1012.20,10.00,M,FEW,BKN,M,M,8000.00,10000.00,M,M,M,M,M,M,M,M,M,51.10,KWMC 080556Z AUTO 04010KT 10SM FEW080 BKN100 11/07 A2997 RMK AO2 RAE14 SLP122 P0001 60012 T01060072 10200 20094 55004,M
LAS,2021-10-08 05:56,-115.1634,36.0719,663.00,76.00,47.00,35.78,0.00,0.00,0.00,29.92,1011.20,10.00,M,FEW,FEW,OVC,M,11000.00,15000.00,18000.00,M,M,M,M,M,M,M,M,75.90,KLAS 080556Z 00000KT 10SM FEW110 FEW150 OVC180 24/08 A2992 RMK AO2 SLP112 T02440083 10278 20244 53002,M
LSV,2021-10-08 05:58,-115.0343,36.2362,570.00,78.80,49.60,35.97,170.00,8.00,0.00,29.90,1010.40,10.00,M,BKN,M,M,M,14000.00,M,M,M,M,M,M,M,M,M,M,78.80,KLSV 080558Z 17008KT 10SM BKN140 26/10 A2990 RMK AO2A SLP104 T02600098 10286 20256 $,M
INS,2021-10-08 05:58,-115.6733,36.5872,955.00,71.00,44.00,38.07,140.00,5.00,0.00,29.93,1009.50,10.00,M,CLR,M,M,M,M,M,M,M,M,M,M,M,M,M,M,70.90,KINS 080558Z AUTO 14005KT 10SM CLR 22/07 A2993 RMK AO2 SLP095 T02160067 10249 20214 53003 $,M
BVU,2021-10-08 06:15,-114.8611,35.9475,671.00,75.20,48.20,38.46,0.00,0.00,0.00,29.93,M,10.00,M,FEW,M,M,M,12000.00,M,M,M,M,M,M,M,M,M,M,75.20,KBVU 080615Z AUTO 00000KT 10SM FEW120 24/09 A2993 RMK AO2,M
CXP,2021-10-08 06:15,-119.7326,39.1923,1431.00,57.20,33.80,41.13,150.00,3.00,0.00,29.99,M,10.00,M,CLR,M,M,M,M,M,M,M,M,M,M,M,M,M,M,57.20,KCXP 080615Z AUTO 15003KT 10SM CLR 14/01 A2999 RMK AO2,M
RTS,2021-10-08 06:15,-119.8764,39.6682,1539.00,53.60,35.60,50.36,270.00,14.00,0.00,30.00,M,10.00,M,FEW,M,M,M,6500.00,M,M,M,M,M,M,M,M,M,M,53.60,KRTS 080615Z AUTO 27014KT 10SM FEW065 12/02 A3000 RMK AO2,M
MEV,2021-10-08 06:15,-119.7500,38.9963,1441.42,53.60,35.60,50.36,0.00,0.00,0.00,29.98,M,10.00,M,FEW,BKN,BKN,M,4900.00,6000.00,6500.00,M,M,M,M,M,M,M,M,53.60,KMEV 080615Z AUTO 00000KT 10SM FEW049 BKN060 BKN065 12/02 A2998 RMK AO2,M
05U,2021-10-08 06:15,-116.0051,39.6042,1811.23,46.40,39.20,75.84,10.00,6.00,0.00,30.04,M,10.00,M,CLR,M,M,M,M,M,M,M,M,M,M,M,M,M,M,42.87,K05U 080615Z AUTO 01006KT 10SM CLR 08/04 A3004 RMK A01,M
TMT,2021-10-08 06:15,-117.1971,39.4643,1749.34,41.00,40.30,97.32,180.00,3.00,0.00,30.01,M,10.00,M,BKN,OVC,M,M,8000.00,11000.00,M,M,M,M,M,M,M,M,M,38.98,KTMT 080615Z AUTO 18003KT 10SM BKN080 OVC110 05/05 A3001 RMK AO2 T00500046,M
HTH,2021-10-08 06:15,-118.6315,38.5448,1282.89,59.00,39.20,47.72,320.00,11.00,0.00,29.97,M,10.00,M,OVC,M,M,M,5000.00,M,M,M,M,M,M,M,M,M,M,59.00,KHTH 080615Z AUTO 32011KT 10SM OVC050 15/04 A2997 RMK A01,M
BAM,2021-10-08 06:15,-116.8743,40.5990,1382.36,48.20,44.60,87.28,0.00,0.00,0.00,30.01,M,10.00,M,BKN,BKN,M,M,10000.00,11000.00,M,M,M,M,M,M,M,M,M,48.20,KBAM 080615Z AUTO 00000KT 10SM BKN100 BKN110 09/07 A3001 RMK AO1,M
CXP,2021-10-08 06:30,-119.7326,39.1923,1431.00,57.20,33.80,41.13,0.00,0.00,0.00,29.98,M,10.00,M,CLR,M,M,M,M,M,M,M,M,M,M,M,M,M,M,57.20,KCXP 080630Z AUTO 00000KT 10SM CLR 14/01 A2998 RMK AO2,M
RTS,2021-10-08 06:35,-119.8764,39.6682,1539.00,51.80,35.60,53.81,270.00,9.00,0.00,30.00,M,10.00,M,FEW,M,M,M,9500.00,M,M,M,M,M,M,M,M,M,M,51.80,KRTS 080635Z AUTO 27009KT 10SM FEW095 11/02 A3000 RMK AO2,M
MEV,2021-10-08 06:35,-119.7500,38.9963,1441.42,55.40,35.60,47.16,0.00,0.00,0.00,29.98,M,10.00,M,SCT,M,M,M,6000.00,M,M,M,M,M,M,M,M,M,M,55.40,KMEV 080635Z AUTO 00000KT 10SM SCT060 13/02 A2998 RMK AO2,M
HTH,2021-10-08 06:35,-118.6315,38.5448,1282.89,57.20,39.20,50.91,310.00,9.00,0.00,29.97,M,10.00,M,BKN,OVC,M,M,5500.00,6500.00,M,M,M,M,M,M,M,M,M,57.20,KHTH 080635Z AUTO 31009KT 10SM BKN055 OVC065 14/04 A2997 RMK A01,M
BAM,2021-10-08 06:35,-116.8743,40.5990,1382.36,50.00,44.60,81.61,360.00,11.00,0.00,30.00,M,10.00,M,SCT,SCT,OVC,M,5500.00,7000.00,9000.00,M,M,M,M,M,M,M,M,50.00,KBAM 080635Z AUTO 36011KT 10SM SCT055 SCT070 OVC090 10/07 A3000 RMK AO1,M
BVU,2021-10-08 06:35,-114.8611,35.9475,671.00,75.20,46.40,35.94,220.00,7.00,0.00,29.92,M,10.00,M,BKN,M,M,M,11000.00,M,M,M,M,M,M,M,M,M,M,75.20,KBVU 080635Z AUTO 22007KT 10SM BKN110 24/08 A2992 RMK AO2,M
TMT,2021-10-08 06:35,-117.1971,39.4643,1749.34,41.20,40.00,95.83,160.00,6.00,0.00,30.01,M,10.00,M,SCT,BKN,M,M,8000.00,11000.00,M,M,M,M,M,M,M,M,M,36.61,KTMT 080635Z AUTO 16006KT 10SM SCT080 BKN110 05/05 A3001 RMK AO2 LTG DSNT NE T00510045,M
05U,2021-10-08 06:35,-116.0051,39.6042,1811.23,44.60,39.20,81.20,0.00,0.00,0.00,30.04,M,10.00,M,CLR,M,M,M,M,M,M,M,M,M,M,M,M,M,M,44.60,K05U 080635Z AUTO 00000KT 10SM CLR 07/04 A3004 RMK A01,M
INS,2021-10-08 06:51,-115.6733,36.5872,955.00,71.60,46.40,40.57,160.00,12.00,0.00,29.91,1008.70,10.00,19.00,BKN,M,M,M,14000.00,M,M,M,M,M,M,M,M,M,M,71.60,KINS 080651Z AUTO 16012G19KT 10SM BKN140 22/08 A2991 RMK AO2 WSHFT 40 SLP087 $,M
ELY,2021-10-08 06:53,-114.8453,39.2950,1909.00,55.00,41.00,59.13,160.00,17.00,0.00,30.05,1009.60,10.00,25.00,BKN,OVC,M,M,5500.00,7500.00,M,M,M,M,M,M,M,M,M,55.00,KELY 080653Z AUTO 16017G25KT 10SM BKN055 OVC075 13/05 A3005 RMK AO2 SLP096 T01280050,M
DRA,2021-10-08 06:53,-116.0278,36.6206,1009.00,70.00,42.00,36.36,130.00,6.00,0.00,29.93,1009.10,10.00,M,CLR,M,M,M,M,M,M,M,M,M,M,M,M,M,M,70.00,KDRA 080653Z AUTO 13006KT 10SM CLR 21/06 A2993 RMK AO2 SLP091 T02110056,M
P68,2021-10-08 06:53,-116.0056,39.6014,1993.00,42.00,37.00,81.98,340.00,5.00,0.00,30.01,1011.70,M,M,M,M,M,M,M,M,M,M,M,M,M,M,M,M,M,38.39,KP68 080653Z AUTO 34005KT 06/03 A3001 RMK AO1 SLP117 T00560028,M
LOL,2021-10-08 06:53,-118.5701,40.0684,1192.43,56.00,42.00,59.71,30.00,7.00,0.00,29.95,1011.70,10.00,M,BKN,OVC,M,M,8000.00,10000.00,M,M,M,M,M,M,M,M,M,55.90,KLOL 080653Z AUTO 03007KT 10SM BKN080 OVC100 13/06 A2995 RMK AO2 SLP117 T01330056,M
VGT,2021-10-08 06:53,-115.1933,36.2111,667.00,76.00,50.00,40.19,120.00,4.00,0.00,29.88,1011.50,10.00,M,CLR,M,M,M,M,M,M,M,M,M,M,M,M,M,M,75.90,KVGT 080653Z AUTO 12004KT 10SM CLR 24/10 A2988 RMK AO2 SLP115 T02440100,M
05U,2021-10-08 06:55,-116.0051,39.6042,1811.23,42.80,37.40,81.07,0.00,0.00,0.00,30.04,M,10.00,M,CLR,M,M,M,M,M,M,M,M,M,M,M,M,M,M,42.80,K05U 080655Z AUTO 00000KT 10SM CLR 06/03 A3004 RMK A01,M
TMT,2021-10-08 06:55,-117.1971,39.4643,1749.34,41.70,40.00,93.99,220.00,4.00,0.00,30.00,M,10.00,M,SCT,M,M,M,10000.00,M,M,M,M,M,M,M,M,M,M,38.75,KTMT 080655Z AUTO 22004KT 10SM SCT100 05/05 A3000 RMK AO2 T00540045,M
RTS,2021-10-08 06:55,-119.8764,39.6682,1539.00,51.80,35.60,53.81,270.00,4.00,0.00,30.00,M,10.00,10.00,FEW,FEW,M,M,8000.00,9500.00,M,M,M,M,M,M,M,M,M,51.80,KRTS 080655Z AUTO 27004G10KT 10SM FEW080 FEW095 11/02 A3000 RMK AO2,M
HTH,2021-10-08 06:55,-118.6315,38.5448,1282.89,57.20,39.20,50.91,320.00,10.00,0.00,29.96,M,10.00,M,OVC,M,M,M,5500.00,M,M,M,M,M,M,M,M,M,M,57.20,KHTH 080655Z AUTO 32010KT 10SM OVC055 14/04 A2996 RMK A01,M
BAM,2021-10-08 06:55,-116.8743,40.5990,1382.36,50.00,44.60,81.61,50.00,7.00,0.00,29.98,M,10.00,M,SCT,BKN,OVC,M,7000.00,9000.00,11000.00,M,M,M,M,M,M,M,M,50.00,KBAM 080655Z AUTO 05007KT 10SM SCT070 BKN090 OVC110 10/07 A2998 RMK AO1,M
MEV,2021-10-08 06:55,-119.7500,38.9963,1441.42,53.60,35.60,50.36,0.00,0.00,0.00,29.98,M,10.00,M,CLR,M,M,M,M,M,M,M,M,M,M,M,M,M,M,53.60,KMEV 080655Z AUTO 00000KT 10SM CLR 12/02 A2998 RMK AO2,M
CXP,2021-10-08 06:55,-119.7326,39.1923,1431.00,57.20,33.80,41.13,0.00,0.00,0.00,29.98,M,10.00,M,FEW,M,M,M,10000.00,M,M,M,M,M,M,M,M,M,M,57.20,KCXP 080655Z AUTO 00000KT 10SM FEW100 14/01 A2998 RMK AO2,M
BVU,2021-10-08 06:55,-114.8611,35.9475,671.00,77.00,42.80,29.51,200.00,10.00,0.00,29.92,M,10.00,16.00,SCT,M,M,M,11000.00,M,M,M,M,M,M,M,M,M,M,77.00,KBVU 080655Z AUTO 20010G16KT 10SM SCT110 25/06 A2992 RMK AO2,M
RNO,2021-10-08 06:55,-119.7711,39.4839,1341.00,55.00,38.00,52.40,360.00,4.00,0.00,29.98,1011.40,10.00,M,SCT,OVC,M,M,9500.00,17000.00,M,M,M,M,M,M,M,M,M,55.00,KRNO 080655Z 36004KT 10SM SCT095 OVC170 13/03 A2998 RMK AO2 SLP114 T01280033,M
HND,2021-10-08 06:56,-115.1344,35.9729,742.79,73.00,47.00,39.43,190.00,6.00,0.00,29.94,1013.20,10.00,M,CLR,M,M,M,M,M,M,M,M,M,M,M,M,M,M,73.00,KHND 080656Z AUTO 19006KT 10SM CLR 23/08 A2994 RMK AO2 SLP132 T02280083 402780167,M
NFL,2021-10-08 06:56,-118.7010,39.4166,1199.00,51.00,38.00,60.46,M,5.00,0.00,29.95,1011.40,10.00,M,SCT,BKN,OVC,M,6000.00,10000.00,25000.00,M,M,M,M,M,M,M,M,51.10,KNFL 080656Z VRB05KT 10SM SCT060 BKN100 OVC250 11/03 A2995 RMK AO2 SLP114 T01060033,M
WMC,2021-10-08 06:56,-117.8072,40.9019,1315.00,51.00,46.00,82.62,10.00,8.00,0.00,29.99,1012.80,10.00,M,OVC,M,M,M,6500.00,M,M,M,M,M,M,M,M,M,M,51.10,KWMC 080656Z AUTO 01008KT 10SM OVC065 11/08 A2999 RMK AO2 SLP128 T01060078,M
LAS,2021-10-08 06:56,-115.1634,36.0719,663.00,75.00,48.00,38.43,190.00,6.00,0.00,29.91,1010.70,10.00,M,FEW,BKN,OVC,M,11000.00,16000.00,22000.00,M,M,M,M,M,M,M,M,75.00,KLAS 080656Z 19006KT 10SM FEW110 BKN160 OVC220 24/09 A2991 RMK AO2 SLP107 T02390089,M
EKO,2021-10-08 06:56,-115.7860,40.8242,1367.00,50.00,45.00,82.86,90.00,5.00,T,30.01,1013.20,10.00,M,BKN,OVC,M,M,7000.00,9000.00,M,M,M,M,M,M,M,M,M,50.00,KEKO 080656Z AUTO 09005KT 10SM BKN070 OVC090 10/07 A3001 RMK AO2 RAE23 SLP132 P0000 T01000072,M
TPH,2021-10-08 06:56,-117.0904,38.0505,1654.00,54.00,36.00,50.42,160.00,9.00,0.00,30.01,1011.50,10.00,M,CLR,M,M,M,M,M,M,M,M,M,M,M,M,M,M,54.00,KTPH 080656Z AUTO 16009KT 10SM CLR 12/02 A3001 RMK AO2 SLP115 T01220022,M
INS,2021-10-08 06:58,-115.6733,36.5872,955.00,71.20,46.40,41.13,140.00,11.00,0.00,29.92,1009.00,10.00,21.00,BKN,M,M,M,14000.00,M,M,M,M,M,M,M,26.00,130.00,2021-10-08 06:15,71.20,KINS 080658Z AUTO 14011G21KT 10SM BKN140 22/08 A2992 RMK AO2 PK WND 13026/15 SLP090 T02180080 $,M
LSV,2021-10-08 06:58,-115.0343,36.2362,570.00,77.50,47.70,34.97,160.00,5.00,0.00,29.89,1010.10,10.00,M,FEW,FEW,M,M,15000.00,18000.00,M,M,M,M,M,M,M,M,M,77.50,KLSV 080658Z AUTO 16005KT 10SM FEW150 FEW180 25/09 A2989 RMK AO2 SLP101 T02530087 $,M
BVU,2021-10-08 07:15,-114.8611,35.9475,671.00,78.80,41.00,25.95,190.00,11.00,0.00,29.92,M,10.00,19.00,FEW,M,M,M,12000.00,M,M,M,M,M,M,M,M,M,M,78.80,KBVU 080715Z AUTO 19011G19KT 10SM FEW120 26/05 A2992 RMK AO2,M
CXP,2021-10-08 07:15,-119.7326,39.1923,1431.00,55.40,33.80,43.90,0.00,0.00,0.00,29.98,M,10.00,M,FEW,M,M,M,10000.00,M,M,M,M,M,M,M,M,M,M,55.40,KCXP 080715Z AUTO 00000KT 10SM FEW100 13/01 A2998 RMK AO2,M
RTS,2021-10-08 07:15,-119.8764,39.6682,1539.00,51.80,35.60,53.81,260.00,9.00,0.00,30.00,M,10.00,M,FEW,SCT,M,M,6000.00,10000.00,M,M,M,M,M,M,M,M,M,51.80,KRTS 080715Z AUTO 26009KT 10SM FEW060 SCT100 11/02 A3000 RMK AO2,M
05U,2021-10-08 07:15,-116.0051,39.6042,1811.23,44.60,39.20,81.20,0.00,0.00,0.00,30.04,M,10.00,M,CLR,M,M,M,M,M,M,M,M,M,M,M,M,M,M,44.60,K05U 080715Z AUTO 00000KT 10SM CLR 07/04 A3004 RMK A01,M
HTH,2021-10-08 07:15,-118.6315,38.5448,1282.89,57.20,41.00,54.60,320.00,10.00,0.00,29.97,M,10.00,M,SCT,BKN,OVC,M,4600.00,5500.00,6500.00,M,M,M,M,M,M,M,M,57.20,KHTH 080715Z AUTO 32010KT 10SM SCT046 BKN055 OVC065 14/05 A2997 RMK A01,M
MEV,2021-10-08 07:15,-119.7500,38.9963,1441.42,55.40,35.60,47.16,M,4.00,0.00,29.97,M,10.00,11.00,CLR,M,M,M,M,M,M,M,M,M,M,M,M,M,M,55.40,KMEV 080715Z AUTO VRB04G11KT 10SM CLR 13/02 A2997 RMK AO2,M
BAM,2021-10-08 07:15,-116.8743,40.5990,1382.36,50.00,44.60,81.61,0.00,0.00,0.00,29.99,M,10.00,M,SCT,BKN,M,M,8000.00,11000.00,M,M,M,M,M,M,M,M,M,50.00,KBAM 080715Z AUTO 00000KT 10SM SCT080 BKN110 10/07 A2999 RMK AO1,M
TMT,2021-10-08 07:15,-117.1971,39.4643,1749.34,41.00,40.00,96.57,220.00,3.00,0.00,30.00,M,10.00,M,SCT,M,M,M,8000.00,M,M,M,M,M,M,M,M,M,M,38.98,KTMT 080715Z AUTO 22003KT 10SM SCT080 05/05 A3000 RMK AO2 T00500045,M
INS,2021-10-08 07:27,-115.6733,36.5872,955.00,71.60,46.40,40.57,130.00,12.00,0.00,29.91,1008.50,10.00,M,FEW,M,M,M,15000.00,M,M,M,M,M,M,M,M,M,M,71.60,KINS 080727Z AUTO 13012KT 10SM FEW150 22/08 A2991 RMK AO2 WSHFT 22 SLP085 $,M
LSV,2021-10-08 07:27,-115.0343,36.2362,570.00,77.00,46.40,33.85,150.00,5.00,0.00,29.89,M,10.00,M,CLR,M,M,M,M,M,M,M,M,M,M,M,M,M,M,77.00,KLSV 080727Z 15005KT 10SM CLR 25/08 A2989,M
CXP,2021-10-08 07:30,-119.7326,39.1923,1431.00,55.40,33.80,43.90,0.00,0.00,0.00,29.98,M,10.00,M,CLR,M,M,M,M,M,M,M,M,M,M,M,M,M,M,55.40,KCXP 080730Z AUTO 00000KT 10SM CLR 13/01 A2998 RMK AO2,M
BAM,2021-10-08 07:35,-116.8743,40.5990,1382.36,46.40,44.60,93.40,0.00,0.00,0.00,30.00,M,10.00,M,SCT,M,M,M,10000.00,M,M,M,M,M,M,M,M,M,M,46.40,KBAM 080735Z AUTO 00000KT 10SM SCT100 08/07 A3000 RMK AO1,M
MEV,2021-10-08 07:35,-119.7500,38.9963,1441.42,55.40,35.60,47.16,230.00,10.00,0.00,29.97,M,10.00,M,CLR,M,M,M,M,M,M,M,M,M,M,M,M,M,M,55.40,KMEV 080735Z AUTO 23010KT 210V280 10SM CLR 13/02 A2997 RMK AO2,M
TMT,2021-10-08 07:35,-117.1971,39.4643,1749.34,40.00,39.20,96.56,240.00,4.00,0.00,30.00,M,10.00,M,BKN,M,M,M,7000.00,M,M,M,M,M,M,M,M,M,M,36.88,KTMT 080735Z AUTO 24004KT 10SM BKN070 05/04 A3000 RMK AO2 T00450040,M
05U,2021-10-08 07:35,-116.0051,39.6042,1811.23,41.00,37.40,86.89,0.00,0.00,0.00,30.04,M,10.00,M,CLR,M,M,M,M,M,M,M,M,M,M,M,M,M,M,41.00,K05U 080735Z AUTO 00000KT 10SM CLR 05/03 A3004 RMK A01,M
RTS,2021-10-08 07:35,-119.8764,39.6682,1539.00,51.80,37.40,57.77,250.00,11.00,0.00,30.00,M,10.00,17.00,FEW,M,M,M,7000.00,M,M,M,M,M,M,M,M,M,M,51.80,KRTS 080735Z AUTO 25011G17KT 10SM FEW070 11/03 A3000 RMK AO2,M
BVU,2021-10-08 07:35,-114.8611,35.9475,671.00,78.80,37.40,22.54,190.00,12.00,0.00,29.92,M,10.00,M,FEW,M,M,M,12000.00,M,M,M,M,M,M,M,M,M,M,78.80,KBVU 080735Z AUTO 19012KT 10SM FEW120 26/03 A2992 RMK AO2,M
HTH,2021-10-08 07:35,-118.6315,38.5448,1282.89,57.20,41.00,54.60,310.00,5.00,0.00,29.97,M,10.00,M,BKN,OVC,M,M,4900.00,6000.00,M,M,M,M,M,M,M,M,M,57.20,KHTH 080735Z AUTO 31005KT 10SM BKN049 OVC060 14/05 A2997 RMK A01,M
VGT,2021-10-08 07:53,-115.1933,36.2111,667.00,76.00,48.00,37.29,140.00,6.00,0.00,29.89,1011.50,10.00,M,CLR,M,M,M,M,M,M,M,M,M,M,M,M,M,M,75.90,KVGT 080753Z AUTO 14006KT 10SM CLR 24/09 A2989 RMK AO2 SLP115 T02440089 402890167,M
P68,2021-10-08 07:53,-116.0056,39.6014,1993.00,40.00,36.00,85.81,M,4.00,0.00,30.01,1011.60,M,M,M,M,M,M,M,M,M,M,M,M,M,M,M,M,M,36.65,KP68 080753Z AUTO VRB04KT 04/02 A3001 RMK AO1 SLP116 T00440022 401780022,M
ELY,2021-10-08 07:53,-114.8453,39.2950,1909.00,52.00,41.00,66.00,210.00,11.00,0.00,30.05,1010.00,10.00,M,BKN,OVC,M,M,4900.00,6500.00,M,M,M,M,M,M,M,M,M,52.00,KELY 080753Z AUTO 21011KT 10SM BKN049 OVC065 11/05 A3005 RMK AO2 SLP100 T01110050 401780028,M
DRA,2021-10-08 07:53,-116.0278,36.6206,1009.00,70.00,43.00,37.64,230.00,15.00,0.00,29.93,1009.00,10.00,M,CLR,M,M,M,M,M,M,M,M,M,M,M,26.00,240.00,2021-10-08 07:40,70.00,KDRA 080753Z AUTO 23015KT 10SM CLR 21/06 A2993 RMK AO2 PK WND 24026/0740 SLP090 T02110061 402780122,M
LOL,2021-10-08 07:53,-118.5701,40.0684,1192.43,55.00,44.00,66.61,20.00,6.00,0.00,29.95,1011.60,10.00,M,BKN,OVC,M,M,7000.00,8500.00,M,M,M,M,M,M,M,M,M,55.00,KLOL 080753Z AUTO 02006KT 10SM BKN070 OVC085 13/07 A2995 RMK AO2 SLP116 T01280067 402330089,M
MEV,2021-10-08 07:55,-119.7500,38.9963,1441.42,55.40,35.60,47.16,M,4.00,0.00,29.97,M,10.00,M,FEW,M,M,M,6000.00,M,M,M,M,M,M,M,M,M,M,55.40,KMEV 080755Z AUTO VRB04KT 10SM FEW060 13/02 A2997 RMK AO2,M
HTH,2021-10-08 07:55,-118.6315,38.5448,1282.89,55.40,41.00,58.27,320.00,3.00,0.00,29.96,M,10.00,M,FEW,BKN,M,M,5000.00,6000.00,M,M,M,M,M,M,M,M,M,55.40,KHTH 080755Z AUTO 32003KT 10SM FEW050 BKN060 13/05 A2996 RMK A01,M
TMT,2021-10-08 07:55,-117.1971,39.4643,1749.34,39.60,39.00,97.69,0.00,0.00,0.00,30.00,M,10.00,M,OVC,M,M,M,7000.00,M,M,M,M,M,M,M,M,M,M,39.60,KTMT 080755Z AUTO 00000KT 10SM OVC070 04/04 A3000 RMK AO2 T00420039 401800017,M
05U,2021-10-08 07:55,-116.0051,39.6042,1811.23,39.20,35.60,86.79,0.00,0.00,0.00,30.04,M,10.00,M,CLR,M,M,M,M,M,M,M,M,M,M,M,M,M,M,39.20,K05U 080755Z AUTO 00000KT 10SM CLR 04/02 A3004 RMK A01,M
RTS,2021-10-08 07:55,-119.8764,39.6682,1539.00,51.80,37.40,57.77,260.00,9.00,0.00,29.99,M,10.00,M,BKN,BKN,M,M,6000.00,7000.00,M,M,M,M,M,M,M,M,M,51.80,KRTS 080755Z AUTO 26009KT 10SM BKN060 BKN070 11/03 A2999 RMK AO2,M
RNO,2021-10-08 07:55,-119.7711,39.4839,1341.00,55.00,37.00,50.58,350.00,5.00,0.00,29.97,1011.30,10.00,M,SCT,OVC,M,M,10000.00,17000.00,M,M,M,M,M,M,M,M,M,55.00,KRNO 080755Z 35005KT 10SM SCT100 OVC170 13/03 A2997 RMK AO2 SLP113 T01280028 402000111,M
CXP,2021-10-08 07:55,-119.7326,39.1923,1431.00,55.40,33.80,43.90,0.00,0.00,0.00,29.98,M,10.00,M,CLR,M,M,M,M,M,M,M,M,M,M,M,M,M,M,55.40,KCXP 080755Z AUTO 00000KT 10SM CLR 13/01 A2998 RMK AO2,M
BVU,2021-10-08 07:55,-114.8611,35.9475,671.00,77.00,35.60,22.28,170.00,8.00,0.00,29.92,M,10.00,M,FEW,M,M,M,12000.00,M,M,M,M,M,M,M,M,M,M,77.00,KBVU 080755Z AUTO 17008KT 10SM FEW120 25/02 A2992 RMK AO2,M
BAM,2021-10-08 07:55,-116.8743,40.5990,1382.36,48.20,44.60,87.28,0.00,0.00,0.00,30.00,M,10.00,M,OVC,M,M,M,10000.00,M,M,M,M,M,M,M,M,M,M,48.20,KBAM 080755Z AUTO 00000KT 10SM OVC100 09/07 A3000 RMK AO1,M
HND,2021-10-08 07:56,-115.1344,35.9729,742.79,73.00,47.00,39.43,240.00,4.00,0.00,29.93,1012.80,10.00,M,CLR,M,M,M,M,M,M,M,M,M,M,M,M,M,M,73.00,KHND 080756Z AUTO 24004KT 10SM CLR 23/08 A2993 RMK AO2 SLP128 T02280083,M
TPH,2021-10-08 07:56,-117.0904,38.0505,1654.00,53.00,36.00,52.11,170.00,7.00,0.00,30.00,1010.90,10.00,M,CLR,M,M,M,M,M,M,M,M,M,M,M,M,M,M,53.10,KTPH 080756Z AUTO 17007KT 10SM CLR 12/02 A3000 RMK AO2 SLP109 T01170022 402220067,M
WMC,2021-10-08 07:56,-117.8072,40.9019,1315.00,50.00,46.00,86.06,60.00,11.00,0.04,29.97,1012.00,10.00,M,BKN,OVC,M,M,6000.00,7000.00,M,M,-RA,M,M,M,M,M,M,50.00,KWMC 080756Z AUTO 06011KT 10SM -RA BKN060 OVC070 10/08 A2997 RMK AO2 RAB06 SLP120 P0004 T01000078 402170094,M
EKO,2021-10-08 07:56,-115.7860,40.8242,1367.00,50.00,45.00,82.86,30.00,8.00,0.01,30.00,1012.60,10.00,M,BKN,OVC,M,M,7000.00,10000.00,M,M,-RA,M,M,M,M,M,M,50.00,KEKO 080756Z AUTO 03008KT 10SM -RA BKN070 OVC100 10/07 A3000 RMK AO2 RAB18 SLP126 P0001 T01000072 401890094,M
NFL,2021-10-08 07:56,-118.7010,39.4166,1199.00,50.00,38.00,62.98,0.00,0.00,0.00,29.94,1011.20,10.00,M,SCT,M,M,M,9000.00,M,M,M,M,M,M,M,M,M,M,50.00,KNFL 080756Z AUTO 00000KT 10SM SCT090 10/03 A2994 RMK AO2 SLP112 T01000033 402390094,M
LAS,2021-10-08 07:56,-115.1634,36.0719,663.00,76.00,46.00,34.58,170.00,5.00,0.00,29.90,1010.40,10.00,M,FEW,SCT,OVC,M,11000.00,14000.00,19000.00,M,M,M,M,M,M,M,M,75.90,KLAS 080756Z 17005KT 10SM FEW110 SCT140 OVC190 24/08 A2990 RMK AO2 SLP104 T02440078 402780189,M
LSV,2021-10-08 07:58,-115.0343,36.2362,570.00,77.20,46.60,33.88,170.00,5.00,0.00,29.89,1010.10,10.00,M,FEW,FEW,SCT,M,13000.00,17000.00,19000.00,M,M,M,M,M,M,M,M,77.20,KLSV 080758Z AUTO 17005KT 10SM FEW130 FEW170 SCT190 25/08 A2989 RMK AO2 SLP101 T02510081 402860196 $,M
INS,2021-10-08 07:58,-115.6733,36.5872,955.00,70.30,44.80,39.91,110.00,4.00,0.00,29.91,1008.70,10.00,M,FEW,M,M,M,15000.00,M,M,M,M,M,M,M,M,M,M,70.30,KINS 080758Z AUTO 11004KT 10SM FEW150 21/07 A2991 RMK AO2 SLP087 T02130071 402640123 $,M
BVU,2021-10-08 08:15,-114.8611,35.9475,671.00,78.80,33.80,19.55,190.00,11.00,0.00,29.92,M,10.00,M,FEW,M,M,M,12000.00,M,M,M,M,M,M,M,M,M,M,78.80,KBVU 080815Z AUTO 19011KT 10SM FEW120 26/01 A2992 RMK AO2,M
RTS,2021-10-08 08:15,-119.8764,39.6682,1539.00,51.80,37.40,57.77,260.00,8.00,0.00,30.00,M,10.00,M,BKN,BKN,M,M,6000.00,7000.00,M,M,M,M,M,M,M,M,M,51.80,KRTS 080815Z AUTO 26008KT 10SM BKN060 BKN070 11/03 A3000 RMK AO2,M
BAM,2021-10-08 08:15,-116.8743,40.5990,1382.36,46.40,46.40,100.00,130.00,3.00,0.00,30.00,M,10.00,M,SCT,BKN,M,M,10000.00,12000.00,M,M,M,M,M,M,M,M,M,45.15,KBAM 080815Z AUTO 13003KT 10SM SCT100 BKN120 08/08 A3000 RMK AO1,M
05U,2021-10-08 08:15,-116.0051,39.6042,1811.23,37.40,33.80,86.69,0.00,0.00,0.00,30.04,M,10.00,M,CLR,M,M,M,M,M,M,M,M,M,M,M,M,M,M,37.40,K05U 080815Z AUTO 00000KT 10SM CLR 03/01 A3004 RMK A01,M
MEV,2021-10-08 08:15,-119.7500,38.9963,1441.42,55.40,35.60,47.16,170.00,9.00,0.00,29.97,M,10.00,M,FEW,SCT,M,M,6500.00,7500.00,M,M,M,M,M,M,M,M,M,55.40,KMEV 080815Z AUTO 17009KT 10SM FEW065 SCT075 13/02 A2997 RMK AO2,M
HTH,2021-10-08 08:15,-118.6315,38.5448,1282.89,55.40,39.20,54.34,320.00,4.00,0.00,29.96,M,10.00,M,BKN,BKN,M,M,6000.00,7000.00,M,M,M,M,M,M,M,M,M,55.40,KHTH 080815Z AUTO 32004KT 10SM BKN060 BKN070 13/04 A2996 RMK A01,M
TMT,2021-10-08 08:15,-117.1971,39.4643,1749.34,39.70,39.00,97.31,0.00,0.00,0.00,30.00,M,10.00,M,OVC,M,M,M,7000.00,M,M,M,M,M,M,M,M,M,M,39.70,KTMT 080815Z AUTO 00000KT 10SM OVC070 04/04 A3000 RMK AO2 LTG DSNT NE T00430039,M
CXP,2021-10-08 08:15,-119.7326,39.1923,1431.00,57.20,33.80,41.13,0.00,0.00,0.00,29.98,M,10.00,M,CLR,M,M,M,M,M,M,M,M,M,M,M,M,M,M,57.20,KCXP 080815Z AUTO 00000KT 10SM CLR 14/01 A2998 RMK AO2,M
05U,2021-10-08 08:35,-116.0051,39.6042,1811.23,37.40,33.80,86.69,0.00,0.00,0.00,30.04,M,10.00,M,CLR,M,M,M,M,M,M,M,M,M,M,M,M,M,M,37.40,K05U 080835Z AUTO 00000KT 10SM CLR 03/01 A3004 RMK A01,M
CXP,2021-10-08 08:35,-119.7326,39.1923,1431.00,57.20,33.80,41.13,0.00,0.00,0.00,29.98,M,10.00,M,CLR,M,M,M,M,M,M,M,M,M,M,M,M,M,M,57.20,KCXP 080835Z AUTO 00000KT 10SM CLR 14/01 A2998 RMK AO2,M
RTS,2021-10-08 08:35,-119.8764,39.6682,1539.00,50.00,37.40,61.76,300.00,4.00,0.00,30.00,M,10.00,M,FEW,BKN,OVC,M,4800.00,5500.00,6500.00,M,M,M,M,M,M,M,M,50.00,KRTS 080835Z AUTO 30004KT 10SM FEW048 BKN055 OVC065 10/03 A3000 RMK AO2,M
TMT,2021-10-08 08:35,-117.1971,39.4643,1749.34,39.20,38.30,96.54,0.00,0.00,0.00,30.00,M,10.00,M,BKN,OVC,M,M,7000.00,8000.00,M,M,M,M,M,M,M,M,M,39.20,KTMT 080835Z AUTO 00000KT 10SM BKN070 OVC080 04/04 A3000 RMK AO2 LTG DSNT NE T00400035,M
BVU,2021-10-08 08:35,-114.8611,35.9475,671.00,77.00,35.60,22.28,190.00,7.00,0.00,29.92,M,10.00,12.00,CLR,M,M,M,M,M,M,M,M,M,M,M,M,M,M,77.00,KBVU 080835Z AUTO 19007G12KT 10SM CLR 25/02 A2992 RMK AO2,M
MEV,2021-10-08 08:35,-119.7500,38.9963,1441.42,55.40,35.60,47.16,180.00,12.00,0.00,29.97,M,10.00,M,BKN,BKN,M,M,7500.00,9000.00,M,M,M,M,M,M,M,M,M,55.40,KMEV 080835Z AUTO 18012KT 10SM BKN075 BKN090 13/02 A2997 RMK AO2,M
BAM,2021-10-08 08:35,-116.8743,40.5990,1382.36,46.40,46.40,100.00,0.00,0.00,0.00,30.00,M,10.00,M,BKN,BKN,M,M,8500.00,12000.00,M,M,M,M,M,M,M,M,M,46.40,KBAM 080835Z AUTO 00000KT 10SM BKN085 BKN120 08/08 A3000 RMK AO1,M
HTH,2021-10-08 08:35,-118.6315,38.5448,1282.89,55.40,39.20,54.34,0.00,0.00,0.00,29.96,M,10.00,M,OVC,M,M,M,5500.00,M,M,M,M,M,M,M,M,M,M,55.40,KHTH 080835Z AUTO 00000KT 10SM OVC055 13/04 A2996 RMK A01,M
LOL,2021-10-08 08:53,-118.5701,40.0684,1192.43,54.00,44.00,69.09,20.00,6.00,0.00,29.94,1011.40,10.00,M,OVC,M,M,M,8000.00,M,M,M,M,M,M,M,M,M,M,54.00,KLOL 080853Z AUTO 02006KT 10SM OVC080 12/07 A2994 RMK AO2 SLP114 T01220067 58003,M
VGT,2021-10-08 08:53,-115.1933,36.2111,667.00,76.00,45.00,33.30,M,6.00,0.00,29.89,1011.50,10.00,M,CLR,M,M,M,M,M,M,M,M,M,M,M,M,M,M,75.90,KVGT 080853Z AUTO VRB06KT 10SM CLR 24/07 A2989 RMK AO2 SLP115 T02440072 56004,M
DRA,2021-10-08 08:53,-116.0278,36.6206,1009.00,70.00,40.00,33.39,180.00,15.00,0.00,29.90,1008.20,10.00,23.00,CLR,M,M,M,M,M,M,M,M,M,M,M,M,M,M,70.00,KDRA 080853Z AUTO 18015G23KT 10SM CLR 21/04 A2990 RMK AO2 SLP082 T02110044 58009,M
P68,2021-10-08 08:53,-116.0056,39.6014,1993.00,36.00,33.00,89.09,0.00,0.00,0.00,30.01,1012.10,M,M,M,M,M,M,M,M,M,M,M,M,M,M,M,M,M,36.00,KP68 080853Z AUTO 00000KT 02/01 A3001 RMK AO1 SLP121 T00220006 55003,M
ELY,2021-10-08 08:53,-114.8453,39.2950,1909.00,52.00,42.00,68.86,210.00,15.00,0.00,30.04,1009.70,10.00,21.00,SCT,BKN,M,M,4800.00,6000.00,M,M,M,M,M,M,M,M,M,52.00,KELY 080853Z AUTO 21015G21KT 10SM SCT048 BKN060 11/06 A3004 RMK AO2 SLP097 T01110056 56004,M
RNO,2021-10-08 08:55,-119.7711,39.4839,1341.00,54.00,38.00,54.34,20.00,8.00,0.00,29.96,1011.00,10.00,M,SCT,SCT,OVC,M,5500.00,10000.00,15000.00,M,M,M,M,M,M,M,M,54.00,KRNO 080855Z 02008KT 10SM SCT055 SCT100 OVC150 12/03 A2996 RMK AO2 SLP110 T01220033 58004,M
BVU,2021-10-08 08:55,-114.8611,35.9475,671.00,78.80,35.60,21.00,190.00,16.00,0.00,29.91,M,10.00,M,CLR,M,M,M,M,M,M,M,M,M,M,M,M,M,M,78.80,KBVU 080855Z AUTO 19016KT 10SM CLR 26/02 A2991 RMK AO2,M
CXP,2021-10-08 08:55,-119.7326,39.1923,1431.00,55.40,33.80,43.90,0.00,0.00,0.00,29.98,M,10.00,M,CLR,M,M,M,M,M,M,M,M,M,M,M,M,M,M,55.40,KCXP 080855Z AUTO 00000KT 10SM CLR 13/01 A2998 RMK AO2,M
RTS,2021-10-08 08:55,-119.8764,39.6682,1539.00,50.00,39.20,66.27,260.00,8.00,0.00,30.00,M,10.00,M,FEW,SCT,BKN,M,2600.00,4800.00,5500.00,M,-DZ,M,M,M,M,M,M,50.00,KRTS 080855Z AUTO 26008KT 10SM -DZ FEW026 SCT048 BKN055 10/04 A3000 RMK AO2,M
05U,2021-10-08 08:55,-116.0051,39.6042,1811.23,35.60,33.80,93.08,0.00,0.00,0.00,30.03,M,10.00,M,CLR,M,M,M,M,M,M,M,M,M,M,M,M,M,M,35.60,K05U 080855Z AUTO 00000KT 10SM CLR 02/01 A3003 RMK A01,M
MEV,2021-10-08 08:55,-119.7500,38.9963,1441.42,55.40,33.80,43.90,180.00,10.00,0.00,29.96,M,10.00,M,BKN,BKN,M,M,8000.00,9000.00,M,M,M,M,M,M,M,M,M,55.40,KMEV 080855Z AUTO 18010KT 10SM BKN080 BKN090 13/01 A2996 RMK AO2,M
BAM,2021-10-08 08:55,-116.8743,40.5990,1382.36,46.40,46.40,100.00,0.00,0.00,0.00,30.01,M,10.00,M,SCT,BKN,M,M,8500.00,11000.00,M,M,M,M,M,M,M,M,M,46.40,KBAM 080855Z AUTO 00000KT 10SM SCT085 BKN110 08/08 A3001 RMK AO1,M
HTH,2021-10-08 08:55,-118.6315,38.5448,1282.89,53.60,39.20,58.02,0.00,0.00,0.00,29.96,M,10.00,M,OVC,M,M,M,5500.00,M,M,M,M,M,M,M,M,M,M,53.60,KHTH 080855Z AUTO 00000KT 10SM OVC055 12/04 A2996 RMK A01,M
TMT,2021-10-08 08:55,-117.1971,39.4643,1749.34,40.30,39.40,96.56,0.00,0.00,0.00,30.00,M,10.00,M,OVC,M,M,M,7000.00,M,M,M,M,M,M,M,M,M,M,40.30,KTMT 080855Z AUTO 00000KT 10SM OVC070 05/04 A3000 RMK AO2 T00460041,M
HND,2021-10-08 08:56,-115.1344,35.9729,742.79,74.00,38.00,27.06,190.00,10.00,0.00,29.93,1012.80,10.00,M,CLR,M,M,M,M,M,M,M,M,M,M,M,M,M,M,73.90,KHND 080856Z AUTO 19010KT 10SM CLR 23/03 A2993 RMK AO2 SLP128 T02330033 55006,M
TPH,2021-10-08 08:56,-117.0904,38.0505,1654.00,54.00,36.00,50.42,160.00,3.00,0.00,29.99,1010.20,10.00,M,CLR,M,M,M,M,M,M,M,M,M,M,M,M,M,M,54.00,KTPH 080856Z AUTO 16003KT 10SM CLR 12/02 A2999 RMK AO2 SLP102 T01220022 58005,M
NFL,2021-10-08 08:56,-118.7010,39.4166,1199.00,50.00,39.00,65.75,190.00,3.00,0.00,29.94,1011.10,10.00,M,CLR,M,M,M,M,M,M,M,M,M,M,M,M,M,M,50.00,KNFL 080856Z AUTO 19003KT 10SM CLR 10/04 A2994 RMK AO2 SLP111 T01000039 58002,M
WMC,2021-10-08 08:56,-117.8072,40.9019,1315.00,50.00,46.00,86.06,40.00,15.00,0.01,29.97,1012.00,10.00,M,OVC,M,M,M,5500.00,M,M,M,-RA,M,M,M,M,M,M,50.00,KWMC 080856Z AUTO 04015KT 10SM -RA OVC055 10/08 A2997 RMK AO2 RAE11B37 SLP120 P0001 60005 T01000078 51001,M
EKO,2021-10-08 08:56,-115.7860,40.8242,1367.00,49.00,45.00,86.33,50.00,5.00,0.01,29.99,1012.40,10.00,M,FEW,BKN,BKN,M,4200.00,7000.00,8500.00,M,M,M,M,M,M,M,M,46.47,KEKO 080856Z AUTO 05005KT 10SM FEW042 BKN070 BKN085 09/07 A2999 RMK AO2 RAE18B35E44 SLP124 P0001 60002 T00940072 56008,M
LAS,2021-10-08 08:56,-115.1634,36.0719,663.00,74.00,44.00,34.40,160.00,3.00,0.00,29.91,1010.70,10.00,M,FEW,SCT,OVC,M,14000.00,16000.00,20000.00,M,M,M,M,M,M,M,M,73.90,KLAS 080856Z 16003KT 10SM FEW140 SCT160 OVC200 23/07 A2991 RMK AO2 SLP107 T02330067 55004,M
INS,2021-10-08 08:58,-115.6733,36.5872,955.00,69.80,43.00,37.90,110.00,7.00,0.00,29.91,1008.70,10.00,M,CLR,M,M,M,M,M,M,M,M,M,M,M,M,M,M,69.80,KINS 080858Z AUTO 11007KT 10SM CLR 21/06 A2991 RMK AO2 SLP087 T02100061 56007 $,M
LSV,2021-10-08 08:58,-115.0343,36.2362,570.00,75.20,45.70,35.00,220.00,5.00,0.00,29.89,1010.10,10.00,M,SCT,M,M,M,19000.00,M,M,M,M,M,M,M,M,M,M,75.20,KLSV 080858Z AUTO 22005KT 10SM SCT190 24/08 A2989 RMK AO2 SLP101 T02400076 55001 $,M
TMT,2021-10-08 09:15,-117.1971,39.4643,1749.34,40.50,39.40,95.81,110.00,5.00,0.00,30.00,M,10.00,M,OVC,M,M,M,7000.00,M,M,M,M,M,M,M,M,M,M,36.49,KTMT 080915Z AUTO 11005KT 10SM OVC070 05/04 A3000 RMK AO2 T00470041,M
MEV,2021-10-08 09:15,-119.7500,38.9963,1441.42,55.40,33.80,43.90,190.00,12.00,0.00,29.95,M,10.00,M,CLR,M,M,M,M,M,M,M,M,M,M,M,M,M,M,55.40,KMEV 080915Z AUTO 19012KT 10SM CLR 13/01 A2995 RMK AO2,M
HTH,2021-10-08 09:15,-118.6315,38.5448,1282.89,51.80,37.40,57.77,180.00,5.00,0.00,29.96,M,10.00,M,OVC,M,M,M,5500.00,M,M,M,M,M,M,M,M,M,M,51.80,KHTH 080915Z AUTO 18005KT 10SM OVC055 11/03 A2996 RMK A01,M
BAM,2021-10-08 09:15,-116.8743,40.5990,1382.36,46.40,42.80,87.19,360.00,3.00,0.00,30.00,M,10.00,M,SCT,BKN,M,M,8500.00,11000.00,M,M,M,M,M,M,M,M,M,45.15,KBAM 080915Z AUTO 36003KT 10SM SCT085 BKN110 08/06 A3000 RMK AO1,M
RTS,2021-10-08 09:15,-119.8764,39.6682,1539.00,48.20,41.00,76.01,270.00,5.00,0.00,30.00,M,10.00,M,FEW,BKN,OVC,M,2600.00,5000.00,7500.00,M,M,M,M,M,M,M,M,45.63,KRTS 080915Z AUTO 27005KT 10SM FEW026 BKN050 OVC075 09/05 A3000 RMK AO2,M
CXP,2021-10-08 09:15,-119.7326,39.1923,1431.00,53.60,33.80,46.88,0.00,0.00,0.00,29.97,M,10.00,M,BKN,M,M,M,9500.00,M,M,M,M,M,M,M,M,M,M,53.60,KCXP 080915Z AUTO 00000KT 10SM BKN095 12/01 A2997 RMK AO2,M
05U,2021-10-08 09:15,-116.0051,39.6042,1811.23,35.60,33.80,93.08,0.00,0.00,0.00,30.03,M,10.00,M,CLR,M,M,M,M,M,M,M,M,M,M,M,M,M,M,35.60,K05U 080915Z AUTO 00000KT 10SM CLR 02/01 A3003 RMK A01,M
BVU,2021-10-08 09:15,-114.8611,35.9475,671.00,77.00,35.60,22.28,140.00,8.00,0.00,29.91,M,10.00,M,CLR,M,M,M,M,M,M,M,M,M,M,M,M,M,M,77.00,KBVU 080915Z AUTO 14008KT 10SM CLR 25/02 A2991 RMK AO2,M
MEV,2021-10-08 09:35,-119.7500,38.9963,1441.42,55.40,33.80,43.90,210.00,14.00,0.00,29.96,M,10.00,M,BKN,BKN,M,M,7000.00,8000.00,M,M,M,M,M,M,M,M,M,55.40,KMEV 080935Z AUTO 21014KT 10SM BKN070 BKN080 13/01 A2996 RMK AO2,M
RTS,2021-10-08 09:35,-119.8764,39.6682,1539.00,48.20,39.20,70.88,0.00,0.00,0.00,29.99,M,10.00,M,SCT,SCT,BKN,M,5000.00,6500.00,11000.00,M,M,M,M,M,M,M,M,48.20,KRTS 080935Z AUTO 00000KT 10SM SCT050 SCT065 BKN110 09/04 A2999 RMK AO2,M
HTH,2021-10-08 09:35,-118.6315,38.5448,1282.89,53.60,37.40,54.07,190.00,4.00,0.00,29.96,M,10.00,M,BKN,OVC,M,M,5500.00,6500.00,M,M,M,M,M,M,M,M,M,53.60,KHTH 080935Z AUTO 19004KT 10SM BKN055 OVC065 12/03 A2996 RMK A01,M
05U,2021-10-08 09:35,-116.0051,39.6042,1811.23,37.40,33.80,86.69,0.00,0.00,0.00,30.02,M,10.00,M,CLR,M,M,M,M,M,M,M,M,M,M,M,M,M,M,37.40,K05U 080935Z AUTO 00000KT 10SM CLR 03/01 A3002 RMK A01,M
TMT,2021-10-08 09:35,-117.1971,39.4643,1749.34,37.00,36.50,98.43,0.00,0.00,0.00,29.99,M,10.00,M,BKN,M,M,M,7000.00,M,M,M,M,M,M,M,M,M,M,36.90,KTMT 080935Z AUTO 00000KT 10SM BKN070 03/03 A2999 RMK AO2 T00270025,M
BVU,2021-10-08 09:35,-114.8611,35.9475,671.00,77.00,37.40,23.93,150.00,9.00,0.00,29.92,M,10.00,M,CLR,M,M,M,M,M,M,M,M,M,M,M,M,M,M,77.00,KBVU 080935Z AUTO 15009KT 10SM CLR 25/03 A2992 RMK AO2,M
BAM,2021-10-08 09:35,-116.8743,40.5990,1382.36,46.40,42.80,87.19,0.00,0.00,0.00,29.99,M,10.00,M,SCT,SCT,M,M,7500.00,11000.00,M,M,M,M,M,M,M,M,M,46.40,KBAM 080935Z AUTO 00000KT 10SM SCT075 SCT110 08/06 A2999 RMK AO1,M
CXP,2021-10-08 09:35,-119.7326,39.1923,1431.00,53.60,33.80,46.88,0.00,0.00,0.00,29.97,M,10.00,M,FEW,M,M,M,9500.00,M,M,M,M,M,M,M,M,M,M,53.60,KCXP 080935Z AUTO 00000KT 10SM FEW095 12/01 A2997 RMK AO2,M
CXP,2021-10-08 09:50,-119.7326,39.1923,1431.00,51.80,33.80,50.08,0.00,0.00,0.00,29.97,M,10.00,M,CLR,M,M,M,M,M,M,M,M,M,M,M,M,M,M,51.80,KCXP 080950Z AUTO 00000KT 10SM CLR 11/01 A2997 RMK AO2,M
VGT,2021-10-08 09:53,-115.1933,36.2111,667.00,76.00,45.00,33.30,210.00,6.00,0.00,29.88,1011.40,10.00,M,CLR,M,M,M,M,M,M,M,M,M,M,M,M,M,M,75.90,KVGT 080953Z AUTO 21006KT 10SM CLR 24/07 A2988 RMK AO2 SLP114 T02440072,M
ELY,2021-10-08 09:53,-114.8453,39.2950,1909.00,53.00,43.00,68.46,200.00,13.00,0.00,30.02,1009.80,10.00,21.00,BKN,BKN,BKN,M,5000.00,6000.00,9000.00,M,M,M,M,M,M,M,M,53.10,KELY 080953Z AUTO 20013G21KT 10SM BKN050 BKN060 BKN090 12/06 A3002 RMK AO2 SLP098 T01170061,M
DRA,2021-10-08 09:53,-116.0278,36.6206,1009.00,68.00,40.00,35.76,240.00,15.00,0.00,29.91,1008.50,10.00,M,CLR,M,M,M,M,M,M,M,M,M,M,M,M,M,M,68.00,KDRA 080953Z AUTO 24015KT 10SM CLR 20/04 A2991 RMK AO2 SLP085 T02000044,M
P68,2021-10-08 09:53,-116.0056,39.6014,1993.00,37.00,33.00,85.64,260.00,4.00,0.00,30.00,1012.10,M,M,M,M,M,M,M,M,M,M,M,M,M,M,M,M,M,33.26,KP68 080953Z AUTO 26004KT 03/01 A3000 RMK AO1 SLP121 T00280006,M
LOL,2021-10-08 09:53,-118.5701,40.0684,1192.43,54.00,44.00,69.09,360.00,4.00,0.00,29.94,1011.30,10.00,M,OVC,M,M,M,7500.00,M,M,M,M,M,M,M,M,M,M,54.00,KLOL 080953Z AUTO 36004KT 10SM OVC075 12/07 A2994 RMK AO2 SLP113 T01220067,M
HTH,2021-10-08 09:55,-118.6315,38.5448,1282.89,53.60,37.40,54.07,230.00,5.00,0.00,29.95,M,10.00,M,OVC,M,M,M,5500.00,M,M,M,M,M,M,M,M,M,M,53.60,KHTH 080955Z AUTO 23005KT 10SM OVC055 12/03 A2995 RMK A01,M
BVU,2021-10-08 09:55,-114.8611,35.9475,671.00,75.20,35.60,23.66,180.00,5.00,0.00,29.92,M,10.00,11.00,CLR,M,M,M,M,M,M,M,M,M,M,M,M,M,M,75.20,KBVU 080955Z AUTO 18005G11KT 10SM CLR 24/02 A2992 RMK AO2,M
BAM,2021-10-08 09:55,-116.8743,40.5990,1382.36,46.40,44.60,93.40,350.00,4.00,0.00,29.99,M,10.00,M,BKN,BKN,M,M,7500.00,12000.00,M,M,M,M,M,M,M,M,M,44.24,KBAM 080955Z AUTO 35004KT 10SM BKN075 BKN120 08/07 A2999 RMK AO1,M
RTS,2021-10-08 09:55,-119.8764,39.6682,1539.00,48.20,41.00,76.01,270.00,5.00,0.00,29.99,M,10.00,M,FEW,FEW,BKN,M,4900.00,5500.00,6500.00,M,M,M,M,M,M,M,M,45.63,KRTS 080955Z AUTO 27005KT 10SM FEW049 FEW055 BKN065 09/05 A2999 RMK AO2,M
RNO,2021-10-08 09:55,-119.7711,39.4839,1341.00,54.00,39.00,56.74,30.00,6.00,0.00,29.96,1010.60,10.00,M,SCT,BKN,OVC,M,7000.00,11000.00,15000.00,M,M,M,M,M,M,M,M,54.00,KRNO 080955Z 03006KT 10SM SCT070 BKN110 OVC150 12/04 A2996 RMK AO2 SLP106 T01220039,M
MEV,2021-10-08 09:55,-119.7500,38.9963,1441.42,55.40,33.80,43.90,200.00,11.00,0.00,29.96,M,10.00,M,BKN,OVC,M,M,7000.00,8000.00,M,M,M,M,M,M,M,M,M,55.40,KMEV 080955Z AUTO 20011KT 10SM BKN070 OVC080 13/01 A2996 RMK AO2,M
05U,2021-10-08 09:55,-116.0051,39.6042,1811.23,35.60,33.80,93.08,0.00,0.00,0.00,30.02,M,10.00,M,CLR,M,M,M,M,M,M,M,M,M,M,M,M,M,M,35.60,K05U 080955Z AUTO 00000KT 10SM CLR 02/01 A3002 RMK A01,M
TMT,2021-10-08 09:55,-117.1971,39.4643,1749.34,36.70,36.00,97.66,160.00,4.00,0.00,29.99,M,10.00,M,OVC,M,M,M,7000.00,M,M,M,M,M,M,M,M,M,M,32.91,KTMT 080955Z AUTO 16004KT 10SM OVC070 03/02 A2999 RMK AO2 T00260023,M
NFL,2021-10-08 09:56,-118.7010,39.4166,1199.00,49.00,38.00,65.62,160.00,4.00,0.00,29.93,1010.90,10.00,M,FEW,BKN,M,M,8000.00,9500.00,M,M,M,M,M,M,M,M,M,47.16,KNFL 080956Z AUTO 16004KT 10SM FEW080 BKN095 09/03 A2993 RMK AO2 SLP109 T00940033,M
EKO,2021-10-08 09:56,-115.7860,40.8242,1367.00,49.00,45.00,86.33,70.00,6.00,0.00,29.98,1012.10,10.00,M,OVC,M,M,M,7000.00,M,M,M,M,M,M,M,M,M,M,45.88,KEKO 080956Z AUTO 07006KT 10SM OVC070 09/07 A2998 RMK AO2 SLP121 T00940072,M
LAS,2021-10-08 09:56,-115.1634,36.0719,663.00,77.00,39.00,25.47,230.00,7.00,0.00,29.90,1010.30,10.00,M,FEW,BKN,OVC,M,14000.00,16000.00,20000.00,M,M,M,M,M,M,M,M,77.00,KLAS 080956Z 23007KT 10SM FEW140 BKN160 OVC200 25/04 A2990 RMK AO2 SLP103 T02500039,M
WMC,2021-10-08 09:56,-117.8072,40.9019,1315.00,49.00,46.00,89.67,50.00,12.00,0.01,29.98,1012.20,10.00,M,BKN,OVC,M,M,4900.00,7500.00,M,M,-RA,M,M,M,M,M,M,43.51,KWMC 080956Z AUTO 05012KT 10SM -RA BKN049 OVC075 09/08 A2998 RMK AO2 LTG DSNT SE SLP122 P0001 T00940078,M
HND,2021-10-08 09:56,-115.1344,35.9729,742.79,75.00,40.00,28.20,190.00,3.00,0.00,29.93,1012.80,10.00,M,CLR,M,M,M,M,M,M,M,M,M,M,M,M,M,M,75.00,KHND 080956Z AUTO 19003KT 10SM CLR 24/04 A2993 RMK AO2 SLP128 T02390044,M
TPH,2021-10-08 09:56,-117.0904,38.0505,1654.00,52.00,35.00,52.36,0.00,0.00,0.00,29.98,1010.00,10.00,M,SCT,M,M,M,12000.00,M,M,M,M,M,M,M,M,M,M,52.00,KTPH 080956Z AUTO 00000KT 10SM SCT120 11/02 A2998 RMK AO2 SLP100 T01110017,M
LSV,2021-10-08 09:58,-115.0343,36.2362,570.00,76.00,42.40,29.95,0.00,0.00,0.00,29.88,1009.80,10.00,M,SCT,M,M,M,15000.00,M,M,M,M,M,M,M,M,M,M,76.10,KLSV 080958Z AUTO 00000KT 10SM SCT150 25/06 A2988 RMK AO2 SLP098 T02450058 $,M
INS,2021-10-08 09:58,-115.6733,36.5872,955.00,70.30,40.00,33.05,100.00,4.00,0.00,29.89,1007.80,10.00,M,FEW,M,M,M,11000.00,M,M,M,M,M,M,M,M,M,M,70.30,KINS 080958Z AUTO 10004KT 10SM FEW110 21/04 A2989 RMK AO2 SLP078 T02130044 $,M
RTS,2021-10-08 10:15,-119.8764,39.6682,1539.00,48.20,39.20,70.88,290.00,6.00,0.00,29.99,M,10.00,M,FEW,BKN,OVC,M,4500.00,5000.00,6500.00,M,M,M,M,M,M,M,M,45.04,KRTS 081015Z AUTO 29006KT 10SM FEW045 BKN050 OVC065 09/04 A2999 RMK AO2,M
MEV,2021-10-08 10:15,-119.7500,38.9963,1441.42,53.60,35.60,50.36,200.00,10.00,0.00,29.95,M,10.00,M,FEW,BKN,M,M,7000.00,8000.00,M,M,M,M,M,M,M,M,M,53.60,KMEV 081015Z AUTO 20010KT 10SM FEW070 BKN080 12/02 A2995 RMK AO2,M
BVU,2021-10-08 10:15,-114.8611,35.9475,671.00,75.20,37.40,25.40,160.00,14.00,0.00,29.91,M,10.00,M,BKN,M,M,M,11000.00,M,M,M,M,M,M,M,M,M,M,75.20,KBVU 081015Z AUTO 16014KT 10SM BKN110 24/03 A2991 RMK AO2,M
HTH,2021-10-08 10:15,-118.6315,38.5448,1282.89,51.80,37.40,57.77,200.00,4.00,0.00,29.95,M,10.00,M,BKN,BKN,OVC,M,5500.00,6500.00,12000.00,M,M,M,M,M,M,M,M,51.80,KHTH 081015Z AUTO 20004KT 10SM BKN055 BKN065 OVC120 11/03 A2995 RMK A01,M
TMT,2021-10-08 10:15,-117.1971,39.4643,1749.34,39.40,38.30,95.79,0.00,0.00,0.00,29.99,M,10.00,M,OVC,M,M,M,7000.00,M,M,M,M,M,M,M,M,M,M,39.40,KTMT 081015Z AUTO 00000KT 10SM OVC070 04/04 A2999 RMK AO2 T00410035,M
CXP,2021-10-08 10:15,-119.7326,39.1923,1431.00,53.60,33.80,46.88,50.00,4.00,0.00,29.96,M,10.00,M,BKN,M,M,M,9000.00,M,M,M,M,M,M,M,M,M,M,53.60,KCXP 081015Z AUTO 05004KT 10SM BKN090 12/01 A2996 RMK AO2,M
05U,2021-10-08 10:15,-116.0051,39.6042,1811.23,37.40,33.80,86.69,0.00,0.00,0.00,30.02,M,10.00,M,CLR,M,M,M,M,M,M,M,M,M,M,M,M,M,M,37.40,K05U 081015Z AUTO 00000KT 10SM CLR 03/01 A3002 RMK A01,M
BAM,2021-10-08 10:15,-116.8743,40.5990,1382.36,46.40,44.60,93.40,340.00,5.00,0.00,29.99,M,10.00,M,OVC,M,M,M,7500.00,M,M,M,M,M,M,M,M,M,M,43.50,KBAM 081015Z AUTO 34005KT 10SM OVC075 08/07 A2999 RMK AO1,M
05U,2021-10-08 10:35,-116.0051,39.6042,1811.23,35.60,32.00,86.59,0.00,0.00,0.00,30.01,M,10.00,M,CLR,M,M,M,M,M,M,M,M,M,M,M,M,M,M,35.60,K05U 081035Z AUTO 00000KT 10SM CLR 02/00 A3001 RMK A01,M
BVU,2021-10-08 10:35,-114.8611,35.9475,671.00,77.00,33.80,20.74,190.00,16.00,0.00,29.91,M,10.00,27.00,OVC,M,M,M,11000.00,M,M,M,M,M,M,M,M,M,M,77.00,KBVU 081035Z AUTO 19016G27KT 10SM OVC110 25/01 A2991 RMK AO2,M
CXP,2021-10-08 10:35,-119.7326,39.1923,1431.00,53.60,33.80,46.88,0.00,0.00,0.00,29.96,M,10.00,M,FEW,OVC,M,M,7500.00,9500.00,M,M,M,M,M,M,M,M,M,53.60,KCXP 081035Z AUTO 00000KT 10SM FEW075 OVC095 12/01 A2996 RMK AO2,M
RTS,2021-10-08 10:35,-119.8764,39.6682,1539.00,48.20,39.20,70.88,0.00,0.00,0.00,29.98,M,10.00,M,FEW,SCT,OVC,M,5000.00,7000.00,9000.00,M,M,M,M,M,M,M,M,48.20,KRTS 081035Z AUTO 00000KT 10SM FEW050 SCT070 OVC090 09/04 A2998 RMK AO2,M
BAM,2021-10-08 10:35,-116.8743,40.5990,1382.36,46.40,44.60,93.40,350.00,4.00,0.00,29.98,M,10.00,M,OVC,M,M,M,7500.00,M,M,M,M,M,M,M,M,M,M,44.24,KBAM 081035Z AUTO 35004KT 10SM OVC075 08/07 A2998 RMK AO1,M
HTH,2021-10-08 10:35,-118.6315,38.5448,1282.89,51.80,37.40,57.77,190.00,4.00,0.00,29.95,M,10.00,M,BKN,OVC,M,M,5500.00,6500.00,M,M,M,M,M,M,M,M,M,51.80,KHTH 081035Z AUTO 19004KT 10SM BKN055 OVC065 11/03 A2995 RMK A01,M
TMT,2021-10-08 10:35,-117.1971,39.4643,1749.34,39.40,38.00,94.30,0.00,0.00,0.00,29.99,M,10.00,M,OVC,M,M,M,7000.00,M,M,M,M,M,M,M,M,M,M,39.40,KTMT 081035Z AUTO 00000KT 10SM OVC070 04/03 A2999 RMK AO2 T00410033,M
MEV,2021-10-08 10:35,-119.7500,38.9963,1441.42,53.60,35.60,50.36,200.00,10.00,0.00,29.95,M,10.00,M,FEW,M,M,M,9000.00,M,M,M,M,M,M,M,M,M,M,53.60,KMEV 081035Z AUTO 20010KT 10SM FEW090 12/02 A2995 RMK AO2,M
P68,2021-10-08 10:53,-116.0056,39.6014,1993.00,37.00,33.00,85.64,160.00,3.00,0.00,29.99,1011.20,M,M,M,M,M,M,M,M,M,M,M,M,M,M,M,M,M,34.40,KP68 081053Z AUTO 16003KT 03/01 A2999 RMK AO1 SLP112 T00280006,M
LOL,2021-10-08 10:53,-118.5701,40.0684,1192.43,51.00,41.00,68.23,0.00,0.00,0.00,29.93,1010.90,10.00,M,OVC,M,M,M,7000.00,M,M,M,M,M,M,M,M,M,M,51.10,KLOL 081053Z AUTO 00000KT 10SM OVC070 11/05 A2993 RMK AO2 SLP109 T01060050,M
DRA,2021-10-08 10:53,-116.0278,36.6206,1009.00,69.00,37.00,30.74,200.00,13.00,0.00,29.92,1008.70,10.00,M,FEW,M,M,M,12000.00,M,M,M,M,M,M,M,M,M,M,69.10,KDRA 081053Z AUTO 20013KT 10SM FEW120 21/03 A2992 RMK AO2 SLP087 T02060028,M
ELY,2021-10-08 10:53,-114.8453,39.2950,1909.00,51.00,43.00,73.69,200.00,6.00,0.00,30.02,1009.30,10.00,M,OVC,M,M,M,4700.00,M,M,M,M,M,M,M,M,M,M,51.10,KELY 081053Z AUTO 20006KT 10SM OVC047 11/06 A3002 RMK AO2 SLP093 T01060061,M
VGT,2021-10-08 10:53,-115.1933,36.2111,667.00,77.00,41.00,27.53,200.00,7.00,0.00,29.89,1011.50,10.00,M,SCT,M,M,M,11000.00,M,M,M,M,M,M,M,M,M,M,77.00,KVGT 081053Z AUTO 20007KT 10SM SCT110 25/05 A2989 RMK AO2 SLP115 T02500050,M
TMT,2021-10-08 10:55,-117.1971,39.4643,1749.34,39.60,38.30,95.05,0.00,0.00,0.00,29.99,M,10.00,M,OVC,M,M,M,7000.00,M,M,M,M,M,M,M,M,M,M,39.60,KTMT 081055Z AUTO 00000KT 10SM OVC070 04/04 A2999 RMK AO2 T00420035,M
BVU,2021-10-08 10:55,-114.8611,35.9475,671.00,78.80,33.80,19.55,200.00,11.00,0.00,29.94,M,10.00,22.00,FEW,OVC,M,M,8000.00,11000.00,M,M,M,M,M,M,M,M,M,78.80,KBVU 081055Z AUTO 20011G22KT 10SM FEW080 OVC110 26/01 A2994 RMK AO2,M
HTH,2021-10-08 10:55,-118.6315,38.5448,1282.89,53.60,39.20,58.02,0.00,0.00,0.00,29.94,M,10.00,M,BKN,OVC,M,M,5000.00,6000.00,M,M,M,M,M,M,M,M,M,53.60,KHTH 081055Z AUTO 00000KT 10SM BKN050 OVC060 12/04 A2994 RMK A01,M
BAM,2021-10-08 10:55,-116.8743,40.5990,1382.36,46.40,44.60,93.40,360.00,3.00,0.00,29.99,M,10.00,M,BKN,M,M,M,7500.00,M,M,M,M,M,M,M,M,M,M,45.15,KBAM 081055Z AUTO 36003KT 10SM BKN075 08/07 A2999 RMK AO1,M
RTS,2021-10-08 10:55,-119.8764,39.6682,1539.00,48.20,39.20,70.88,250.00,5.00,0.00,30.00,M,10.00,M,SCT,BKN,OVC,M,3900.00,5000.00,9000.00,M,M,M,M,M,M,M,M,45.63,KRTS 081055Z AUTO 25005KT 10SM SCT039 BKN050 OVC090 09/04 A3000 RMK AO2,M
05U,2021-10-08 10:55,-116.0051,39.6042,1811.23,35.60,33.80,93.08,0.00,0.00,0.00,30.01,M,10.00,M,CLR,M,M,M,M,M,M,M,M,M,M,M,M,M,M,35.60,K05U 081055Z AUTO 00000KT 10SM CLR 02/01 A3001 RMK A01,M
CXP,2021-10-08 10:55,-119.7326,39.1923,1431.00,53.60,33.80,46.88,0.00,0.00,0.00,29.96,M,10.00,M,OVC,M,M,M,8500.00,M,M,M,M,M,M,M,M,M,M,53.60,KCXP 081055Z AUTO 00000KT 10SM OVC085 12/01 A2996 RMK AO2,M
RNO,2021-10-08 10:55,-119.7711,39.4839,1341.00,52.00,42.00,68.86,310.00,8.00,T,29.96,1011.00,10.00,M,FEW,BKN,OVC,M,4000.00,6000.00,8500.00,M,-RA,M,M,M,M,M,M,52.00,KRNO 081055Z 31008KT 10SM -RA FEW040 BKN060 OVC085 11/06 A2996 RMK AO2 LTG DSNT N RAB50 TSE48 SLP110 P0000 T01110056,M
MEV,2021-10-08 10:55,-119.7500,38.9963,1441.42,51.80,35.60,53.81,180.00,9.00,0.00,29.95,M,10.00,M,SCT,BKN,M,M,8000.00,9000.00,M,M,M,M,M,M,M,M,M,51.80,KMEV 081055Z AUTO 18009KT 10SM SCT080 BKN090 11/02 A2995 RMK AO2,M
TPH,2021-10-08 10:56,-117.0904,38.0505,1654.00,51.00,35.00,54.13,20.00,3.00,0.00,29.98,1010.00,10.00,M,CLR,M,M,M,M,M,M,M,M,M,M,M,M,M,M,51.10,KTPH 081056Z AUTO 02003KT 10SM CLR 11/02 A2998 RMK AO2 SLP100 T01060017,M
WMC,2021-10-08 10:56,-117.8072,40.9019,1315.00,49.00,46.00,89.67,40.00,13.00,0.01,29.95,1011.20,10.00,18.00,OVC,M,M,M,7000.00,M,M,M,M,M,M,M,M,M,M,43.22,KWMC 081056Z AUTO 04013G18KT 10SM OVC070 09/08 A2995 RMK AO2 LTG DSNT E AND SE RAE11 SLP112 P0001 T00940078,M
EKO,2021-10-08 10:56,-115.7860,40.8242,1367.00,47.00,44.00,89.92,0.00,0.00,0.00,29.97,1011.80,10.00,M,FEW,M,M,M,6500.00,M,M,M,M,M,M,M,M,M,M,46.90,KEKO 081056Z AUTO 00000KT 10SM FEW065 08/07 A2997 RMK AO2 SLP118 T00830067,M
HND,2021-10-08 10:56,-115.1344,35.9729,742.79,77.00,42.00,28.73,210.00,24.00,0.00,29.93,1012.70,10.00,36.00,FEW,BKN,OVC,M,6000.00,9000.00,11000.00,M,M,M,M,M,37.00,210.00,2021-10-08 10:40,77.00,KHND 081056Z AUTO 21024G36KT 10SM FEW060 BKN090 OVC110 25/06 A2993 RMK AO2 PK WND 21037/1040 SLP127 T02500056,M
NFL,2021-10-08 10:56,-118.7010,39.4166,1199.00,50.00,38.00,62.98,0.00,0.00,0.00,29.92,1010.60,10.00,M,SCT,BKN,M,M,8000.00,9500.00,M,M,M,M,M,M,M,M,M,50.00,KNFL 081056Z AUTO 00000KT 10SM SCT080 BKN095 10/03 A2992 RMK AO2 SLP106 T01000033,M
LAS,2021-10-08 10:56,-115.1634,36.0719,663.00,79.00,39.00,23.85,200.00,20.00,0.00,29.90,1010.20,8.00,39.00,FEW,BKN,OVC,M,6000.00,11000.00,16000.00,M,VCBLDU,M,M,M,39.00,210.00,2021-10-08 10:55,79.00,KLAS 081056Z 20020G39KT 8SM VCBLDU FEW060 BKN110 OVC160 26/04 A2990 RMK AO2 PK WND 21039/1055 SLP102 T02610039,M
LSV,2021-10-08 10:58,-115.0343,36.2362,570.00,74.50,41.00,29.93,220.00,6.00,0.00,29.89,1010.10,10.00,M,CLR,M,M,M,M,M,M,M,M,M,M,M,M,M,M,74.50,KLSV 081058Z AUTO 22006KT 10SM CLR 24/05 A2989 RMK AO2 SLP101 T02360050 $,M
INS,2021-10-08 10:58,-115.6733,36.5872,955.00,67.80,40.60,37.00,0.00,0.00,0.00,29.91,1008.70,10.00,M,FEW,M,M,M,12000.00,M,M,M,M,M,M,M,M,M,M,67.80,KINS 081058Z AUTO 00000KT 10SM FEW120 20/05 A2991 RMK AO2 SLP087 T01990048 $,M
BAM,2021-10-08 11:15,-116.8743,40.5990,1382.36,44.60,44.60,100.00,360.00,4.00,0.00,29.99,M,10.00,M,SCT,SCT,M,M,7500.00,8000.00,M,M,M,M,M,M,M,M,M,42.13,KBAM 081115Z AUTO 36004KT 10SM SCT075 SCT080 07/07 A2999 RMK AO1,M
05U,2021-10-08 11:15,-116.0051,39.6042,1811.23,35.60,32.00,86.59,M,4.00,0.00,30.01,M,10.00,M,CLR,M,M,M,M,M,M,M,M,M,M,M,M,M,M,31.62,K05U 081115Z AUTO VRB04KT 10SM CLR 02/00 A3001 RMK A01,M
MEV,2021-10-08 11:15,-119.7500,38.9963,1441.42,51.80,35.60,53.81,190.00,7.00,0.00,29.95,M,10.00,M,BKN,OVC,M,M,7000.00,8000.00,M,M,VCTS,M,M,M,M,M,M,51.80,KMEV 081115Z AUTO 19007KT 10SM VCTS BKN070 OVC080 11/02 A2995 RMK AO2 LTG DSNT N,M
RTS,2021-10-08 11:15,-119.8764,39.6682,1539.00,44.60,41.00,87.09,270.00,9.00,0.00,30.00,M,3.00,M,FEW,BKN,OVC,M,300.00,2500.00,4000.00,M,RA,M,M,M,M,M,M,39.18,KRTS 081115Z AUTO 27009KT 3SM RA FEW003 BKN025 OVC040 07/05 A3000 RMK AO2,M
HTH,2021-10-08 11:15,-118.6315,38.5448,1282.89,53.60,33.80,46.88,160.00,6.00,0.00,29.94,M,10.00,M,BKN,BKN,OVC,M,4900.00,6500.00,10000.00,M,M,M,M,M,M,M,M,53.60,KHTH 081115Z AUTO 16006KT 10SM BKN049 BKN065 OVC100 12/01 A2994 RMK A01,M
BVU,2021-10-08 11:15,-114.8611,35.9475,671.00,77.00,41.00,27.53,230.00,20.00,0.00,29.95,M,5.00,31.00,FEW,SCT,BKN,M,2900.00,6000.00,7500.00,M,HZ,M,M,M,M,M,M,77.00,KBVU 081115Z AUTO 23020G31KT 5SM HZ FEW029 SCT060 BKN075 25/05 A2995 RMK AO2,M
TMT,2021-10-08 11:15,-117.1971,39.4643,1749.34,38.50,37.40,95.78,0.00,0.00,0.00,29.99,M,10.00,M,OVC,M,M,M,7000.00,M,M,M,M,M,M,M,M,M,M,38.50,KTMT 081115Z AUTO 00000KT 10SM OVC070 04/03 A2999 RMK AO2 LTG DSNT NW T00360030,M
CXP,2021-10-08 11:15,-119.7326,39.1923,1431.00,55.40,37.40,50.64,350.00,7.00,0.00,29.96,M,10.00,14.00,FEW,SCT,BKN,M,5000.00,6500.00,8000.00,M,VCTS,M,M,M,M,M,M,55.40,KCXP 081115Z AUTO 35007G14KT 320V020 10SM VCTS FEW050 SCT065 BKN080 13/03 A2996 RMK AO2 LTG DSNT N,M
RNO,2021-10-08 11:33,-119.7711,39.4839,1341.00,47.00,44.00,89.92,300.00,8.00,0.03,29.97,M,9.00,M,FEW,BKN,OVC,M,2700.00,3800.00,5000.00,M,-RA,M,M,M,M,M,M,42.47,KRNO 081133Z 30008KT 9SM -RA FEW027 BKN038 OVC050 08/07 A2997 RMK AO2 LTG DSNT N AND NE AND S P0003 T00830067,M
BAM,2021-10-08 11:35,-116.8743,40.5990,1382.36,46.40,44.60,93.40,10.00,5.00,0.00,29.98,M,10.00,M,SCT,BKN,BKN,M,5000.00,7000.00,9500.00,M,M,M,M,M,M,M,M,43.50,KBAM 081135Z AUTO 01005KT 10SM SCT050 BKN070 BKN095 08/07 A2998 RMK AO1,M
TMT,2021-10-08 11:35,-117.1971,39.4643,1749.34,35.00,34.30,96.86,130.00,5.00,0.00,29.98,M,10.00,M,SCT,M,M,M,6000.00,M,M,M,M,M,M,M,M,M,M,30.08,KTMT 081135Z AUTO 13005KT 10SM SCT060 02/01 A2998 RMK AO2 T00170013,M
HTH,2021-10-08 11:35,-118.6315,38.5448,1282.89,55.40,33.80,43.90,0.00,0.00,0.00,29.93,M,10.00,M,OVC,M,M,M,5000.00,M,M,M,M,M,M,M,M,M,M,55.40,KHTH 081135Z AUTO 00000KT 10SM OVC050 13/01 A2993 RMK A01,M
MEV,2021-10-08 11:35,-119.7500,38.9963,1441.42,53.60,35.60,50.36,0.00,0.00,0.00,29.95,M,10.00,M,FEW,OVC,M,M,5000.00,7000.00,M,M,M,M,M,M,M,M,M,53.60,KMEV 081135Z AUTO 00000KT 10SM FEW050 OVC070 12/02 A2995 RMK AO2 LTG DSNT N,M
05U,2021-10-08 11:35,-116.0051,39.6042,1811.23,41.00,33.80,75.33,0.00,0.00,0.00,30.01,M,10.00,M,CLR,M,M,M,M,M,M,M,M,M,M,M,M,M,M,41.00,K05U 081135Z AUTO 00000KT 10SM CLR 05/01 A3001 RMK A01,M
CXP,2021-10-08 11:35,-119.7326,39.1923,1431.00,53.60,39.20,58.02,360.00,7.00,0.00,29.97,M,10.00,13.00,FEW,FEW,OVC,M,5500.00,6500.00,7500.00,M,M,M,M,M,M,M,M,53.60,KCXP 081135Z AUTO 36007G13KT 10SM FEW055 FEW065 OVC075 12/04 A2997 RMK AO2 LTG DSNT N AND W,M
BVU,2021-10-08 11:35,-114.8611,35.9475,671.00,75.20,42.80,31.34,240.00,13.00,0.00,29.95,M,10.00,21.00,FEW,SCT,BKN,M,3500.00,6500.00,7500.00,M,M,M,M,M,M,M,M,75.20,KBVU 081135Z AUTO 24013G21KT 10SM FEW035 SCT065 BKN075 24/06 A2995 RMK AO2,M
RTS,2021-10-08 11:35,-119.8764,39.6682,1539.00,44.60,39.20,81.20,290.00,7.00,0.00,30.00,M,9.00,12.00,FEW,SCT,BKN,M,400.00,2500.00,3900.00,M,-DZ,M,M,M,M,M,M,40.14,KRTS 081135Z AUTO 29007G12KT 9SM -DZ FEW004 SCT025 BKN039 07/04 A3000 RMK AO2,M
VGT,2021-10-08 11:53,-115.1933,36.2111,667.00,77.00,40.00,26.38,200.00,14.00,0.00,29.90,1012.00,10.00,20.00,SCT,M,M,M,12000.00,M,M,M,M,M,M,M,M,M,M,77.00,KVGT 081153Z AUTO 20014G20KT 10SM SCT120 25/04 A2990 RMK AO2 SLP120 T02500044 10256 20239 53005,M
P68,2021-10-08 11:53,-116.0056,39.6014,1993.00,43.00,33.00,67.82,150.00,7.00,0.00,29.98,1010.10,M,M,M,M,M,M,M,M,M,M,M,M,M,M,M,M,M,38.19,KP68 081153Z AUTO 15007KT 06/01 A2998 RMK AO1 SLP101 T00610006 10094 20017 58009,M
LOL,2021-10-08 11:53,-118.5701,40.0684,1192.43,53.00,45.00,73.89,20.00,8.00,0.00,29.92,1010.80,10.00,M,OVC,M,M,M,7000.00,M,M,M,M,M,M,M,M,M,M,53.10,KLOL 081153Z AUTO 02008KT 10SM OVC070 12/07 A2992 RMK AO2 SLP108 T01170072 10133 20106 57006,M
ELY,2021-10-08 11:53,-114.8453,39.2950,1909.00,53.00,43.00,68.46,230.00,9.00,0.00,30.02,1008.90,10.00,M,BKN,OVC,M,M,4900.00,6000.00,M,M,M,M,M,M,M,M,M,53.10,KELY 081153Z AUTO 23009KT 10SM BKN049 OVC060 12/06 A3002 RMK AO2 SLP089 T01170061 10128 20100 56007,M
DRA,2021-10-08 11:53,-116.0278,36.6206,1009.00,68.00,36.00,30.69,210.00,17.00,0.00,29.92,1008.80,10.00,28.00,CLR,M,M,M,M,M,M,M,M,M,M,M,28.00,210.00,2021-10-08 11:44,68.00,KDRA 081153Z AUTO 21017G28KT 10SM CLR 20/02 A2992 RMK AO2 PK WND 21028/1144 SLP088 T02000022 10222 20194 51004,M
HTH,2021-10-08 11:55,-118.6315,38.5448,1282.89,53.60,37.40,54.07,0.00,0.00,0.00,29.93,M,10.00,M,OVC,M,M,M,4900.00,M,M,M,M,M,M,M,M,M,M,53.60,KHTH 081155Z AUTO 00000KT 10SM OVC049 12/03 A2993 RMK A01,M
MEV,2021-10-08 11:55,-119.7500,38.9963,1441.42,51.80,35.60,53.81,M,4.00,0.00,29.97,M,10.00,M,BKN,OVC,M,M,6000.00,7000.00,M,M,M,M,M,M,M,M,M,51.80,KMEV 081155Z AUTO VRB04KT 10SM BKN060 OVC070 11/02 A2997 RMK AO2 LTG DSNT N,M
BAM,2021-10-08 11:55,-116.8743,40.5990,1382.36,46.40,46.40,100.00,350.00,4.00,0.00,29.98,M,10.00,M,SCT,SCT,BKN,M,5000.00,7000.00,9500.00,M,M,M,M,M,M,M,M,44.24,KBAM 081155Z AUTO 35004KT 10SM SCT050 SCT070 BKN095 08/08 A2998 RMK AO1,M
CXP,2021-10-08 11:55,-119.7326,39.1923,1431.00,51.80,39.20,61.99,360.00,9.00,0.00,29.96,M,10.00,16.00,BKN,OVC,M,M,7500.00,8500.00,M,M,M,M,M,M,M,M,M,51.80,KCXP 081155Z AUTO 36009G16KT 330V030 10SM BKN075 OVC085 11/04 A2996 RMK AO2 LTG DSNT N,M
RTS,2021-10-08 11:55,-119.8764,39.6682,1539.00,46.40,39.20,75.84,260.00,10.00,0.12,30.01,M,10.00,M,BKN,OVC,M,M,4200.00,4800.00,M,M,M,M,M,M,M,M,M,41.03,KRTS 081155Z AUTO 26010KT 10SM BKN042 OVC048 08/04 A3001 RMK AO2 P0012,M
BVU,2021-10-08 11:55,-114.8611,35.9475,671.00,73.40,46.40,38.18,180.00,10.00,0.00,29.97,M,10.00,15.00,FEW,SCT,BKN,M,3900.00,5000.00,6000.00,M,-DZ,M,M,M,M,M,M,73.40,KBVU 081155Z AUTO 18010G15KT 10SM -DZ FEW039 SCT050 BKN060 23/08 A2997 RMK AO2,M
05U,2021-10-08 11:55,-116.0051,39.6042,1811.23,41.00,33.80,75.33,180.00,3.00,0.00,30.00,M,10.00,M,CLR,M,M,M,M,M,M,M,M,M,M,M,M,M,M,38.98,K05U 081155Z AUTO 18003KT 10SM CLR 05/01 A3000 RMK A01,M
TMT,2021-10-08 11:55,-117.1971,39.4643,1749.34,34.70,34.20,98.03,200.00,3.00,0.00,29.99,M,10.00,M,SCT,M,M,M,6500.00,M,M,M,M,M,M,M,M,M,M,31.78,KTMT 081155Z AUTO 20003KT 10SM SCT065 02/01 A2999 RMK AO2 70010 T00150012 10071 20012,M
RNO,2021-10-08 11:55,-119.7711,39.4839,1341.00,48.00,42.00,79.91,0.00,0.00,0.03,29.98,1012.10,10.00,M,FEW,BKN,OVC,M,3600.00,6500.00,7500.00,M,-RA,M,M,M,M,M,M,48.00,KRNO 081155Z 00000KT 10SM -RA FEW036 BKN065 OVC075 09/06 A2998 RMK AO2 LTG DSNT N AND NE SLP121 P0003 60003 70004 T00890056 10139 20083 53006,M
HND,2021-10-08 11:56,-115.1344,35.9729,742.79,69.00,50.00,50.56,210.00,17.00,T,29.99,1015.00,10.00,34.00,OVC,M,M,M,8500.00,M,M,M,-RA,M,M,M,42.00,210.00,2021-10-08 11:23,69.10,KHND 081156Z AUTO 21017G34KT 10SM -RA OVC085 21/10 A2999 RMK AO2 PK WND 21042/1123 RAB34 PRESRR SLP150 P0000 60000 T02060100 10256 20206 53019,M
WMC,2021-10-08 11:56,-117.8072,40.9019,1315.00,48.00,46.00,92.74,60.00,13.00,T,29.96,1011.50,10.00,M,BKN,OVC,M,M,7000.00,8500.00,M,M,M,M,M,M,M,M,M,42.07,KWMC 081156Z AUTO 06013KT 10SM BKN070 OVC085 09/08 A2996 RMK AO2 RAB33E43 SLP115 P0000 60007 70019 T00890078 10106 20089 58005,M
LAS,2021-10-08 11:56,-115.1634,36.0719,663.00,75.00,43.00,31.79,200.00,24.00,0.00,29.93,1011.10,9.00,40.00,FEW,BKN,OVC,M,7000.00,10000.00,12000.00,M,VCBLDU,M,M,M,40.00,190.00,2021-10-08 11:53,75.00,KLAS 081156Z 20024G40KT 9SM VCBLDU FEW070 BKN100 OVC120 24/06 A2993 RMK AO2 PK WND 19040/1153 SLP111 T02390061 10261 20233 53005,M
EKO,2021-10-08 11:56,-115.7860,40.8242,1367.00,46.00,44.00,93.03,280.00,3.00,0.00,29.97,1013.10,10.00,M,BKN,OVC,M,M,7000.00,8500.00,M,M,M,M,M,M,M,M,M,44.69,KEKO 081156Z AUTO 28003KT 10SM BKN070 OVC085 08/07 A2997 RMK AO2 SLP131 60002 70017 T00780067 10100 20072 55005,M
TPH,2021-10-08 11:56,-117.0904,38.0505,1654.00,48.00,35.00,60.76,0.00,0.00,0.00,29.97,1009.80,10.00,M,CLR,M,M,M,M,M,M,M,M,M,M,M,M,M,M,48.00,KTPH 081156Z AUTO 00000KT 10SM CLR 09/02 A2997 RMK AO2 SLP098 T00890017 10128 20072 58008,M
NFL,2021-10-08 11:56,-118.7010,39.4166,1199.00,51.00,39.00,63.12,210.00,3.00,0.00,29.92,1010.70,10.00,M,FEW,BKN,M,M,7500.00,10000.00,M,M,M,M,M,M,M,M,M,51.10,KNFL 081156Z AUTO 21003KT 10SM FEW075 BKN100 11/04 A2992 RMK AO2 SLP107 T01060039 10117 20089 55004,M
INS,2021-10-08 11:58,-115.6733,36.5872,955.00,71.40,34.70,25.94,360.00,5.00,0.00,29.90,1008.30,10.00,M,FEW,FEW,M,M,10000.00,13000.00,M,M,M,M,M,M,M,M,M,71.40,KINS 081158Z AUTO 36005KT 10SM FEW100 FEW130 22/02 A2990 RMK AO2 SLP083 T02190015 10219 20195 55003 $,M
LSV,2021-10-08 11:58,-115.0343,36.2362,570.00,78.00,42.00,27.89,200.00,26.00,0.00,29.90,1010.30,9.00,32.00,CLR,M,M,M,M,M,M,M,M,M,M,M,32.00,210.00,2021-10-08 11:24,77.90,KLSV 081158Z AUTO 20026G32KT 9SM CLR 26/06 A2990 RMK AO2 PK WND 21032/24 SLP103 T02550056 10259 20227 53003 $,M
CXP,2021-10-08 12:15,-119.7326,39.1923,1431.00,51.80,37.40,57.77,360.00,11.00,0.00,29.97,M,10.00,M,SCT,OVC,M,M,6000.00,7500.00,M,M,M,M,M,M,M,M,M,51.80,KCXP 081215Z AUTO 36011KT 10SM SCT060 OVC075 11/03 A2997 RMK AO2,M
MEV,2021-10-08 12:15,-119.7500,38.9963,1441.42,51.80,37.40,57.77,240.00,7.00,0.00,29.96,M,10.00,M,SCT,BKN,OVC,M,6000.00,7500.00,8500.00,M,M,M,M,M,M,M,M,51.80,KMEV 081215Z AUTO 24007KT 10SM SCT060 BKN075 OVC085 11/03 A2996 RMK AO2,M
HTH,2021-10-08 12:15,-118.6315,38.5448,1282.89,51.80,37.40,57.77,80.00,3.00,0.00,29.93,M,10.00,M,OVC,M,M,M,4800.00,M,M,M,M,M,M,M,M,M,M,51.80,KHTH 081215Z AUTO 08003KT 10SM OVC048 11/03 A2993 RMK A01,M
05U,2021-10-08 12:15,-116.0051,39.6042,1811.23,39.20,32.00,75.16,190.00,4.00,0.00,30.00,M,10.00,M,CLR,M,M,M,M,M,M,M,M,M,M,M,M,M,M,35.83,K05U 081215Z AUTO 19004KT 10SM CLR 04/M00 A3000 RMK A01,M
BVU,2021-10-08 12:15,-114.8611,35.9475,671.00,71.60,48.20,43.42,200.00,8.00,0.00,29.98,M,10.00,M,FEW,SCT,OVC,M,3600.00,5000.00,7000.00,M,M,M,M,M,M,M,M,71.60,KBVU 081215Z AUTO 20008KT 10SM FEW036 SCT050 OVC070 22/09 A2998 RMK AO2,M
BAM,2021-10-08 12:15,-116.8743,40.5990,1382.36,46.40,46.40,100.00,340.00,7.00,0.00,29.98,M,10.00,M,BKN,M,M,M,9500.00,M,M,M,M,M,M,M,M,M,M,42.33,KBAM 081215Z AUTO 34007KT 10SM BKN095 08/08 A2998 RMK AO1,M
RTS,2021-10-08 12:15,-119.8764,39.6682,1539.00,44.60,39.20,81.20,270.00,9.00,0.00,30.00,M,10.00,M,SCT,BKN,OVC,M,3200.00,4200.00,5500.00,M,-RA,M,M,M,M,M,M,39.18,KRTS 081215Z AUTO 27009KT 10SM -RA SCT032 BKN042 OVC055 07/04 A3000 RMK AO2,M
TMT,2021-10-08 12:15,-117.1971,39.4643,1749.34,35.00,34.70,98.42,250.00,4.00,0.00,29.99,M,10.00,M,BKN,M,M,M,6500.00,M,M,M,M,M,M,M,M,M,M,31.04,KTMT 081215Z AUTO 25004KT 10SM BKN065 02/02 A2999 RMK AO2 LTG DSNT W T00170015,M
LSV,2021-10-08 12:17,-115.0343,36.2362,570.00,77.00,44.60,31.62,210.00,35.00,0.00,29.92,1011.00,2.75,49.00,CLR,M,M,M,M,M,M,M,HZ,M,M,M,M,M,M,77.00,KLSV 081217Z AUTO 21035G49KT 2 3/4SM HZ CLR 25/07 A2992 RMK AO2 VIS 2 3/4V10 PRESRR SLP110 $,M
LSV,2021-10-08 12:18,-115.0343,36.2362,570.00,77.00,44.60,31.62,200.00,33.00,0.00,29.92,1011.00,1.88,49.00,CLR,M,M,M,M,M,M,M,HZ,M,M,M,M,M,M,77.00,KLSV 081218Z AUTO 20033G49KT 1 7/8SM HZ CLR 25/07 A2992 RMK AO2 VIS 1 7/8V10 SLP110 $,M
LSV,2021-10-08 12:19,-115.0343,36.2362,570.00,77.00,44.60,31.62,200.00,35.00,0.00,29.92,1011.00,1.25,49.00,CLR,M,M,M,M,M,M,M,HZ,M,M,M,M,M,M,77.00,KLSV 081219Z AUTO 20035G49KT 1 1/4SM HZ CLR 25/07 A2992 RMK AO2 VIS 1 1/4V9 SLP110 $,M
LSV,2021-10-08 12:20,-115.0343,36.2362,570.00,77.00,44.60,31.62,200.00,37.00,0.00,29.92,1011.00,1.00,49.00,CLR,M,M,M,M,M,M,M,HZ,M,M,M,M,M,M,77.00,KLSV 081220Z AUTO 20037G49KT 1SM R21L/2800VP6000FT HZ CLR 25/07 A2992 RMK AO2 VIS 1V8 SLP110 $,M
LSV,2021-10-08 12:22,-115.0343,36.2362,570.00,77.00,46.40,33.85,200.00,33.00,0.00,29.93,1011.40,1.12,49.00,CLR,M,M,M,M,M,M,M,HZ,M,M,M,M,M,M,77.00,KLSV 081222Z AUTO 20033G49KT 1 1/8SM HZ CLR 25/08 A2993 RMK AO2 VIS 1V6 SLP114 $,M
LSV,2021-10-08 12:23,-115.0343,36.2362,570.00,75.20,48.20,38.46,200.00,34.00,0.00,29.93,1011.50,1.50,47.00,CLR,M,M,M,M,M,M,M,HZ,M,M,M,M,M,M,75.20,KLSV 081223Z AUTO 20034G47KT 1 1/2SM HZ CLR 24/09 A2993 RMK AO2 VIS 1V5 SLP115 $,M
LSV,2021-10-08 12:24,-115.0343,36.2362,570.00,75.20,50.00,41.14,200.00,35.00,0.00,29.93,1011.50,1.88,47.00,CLR,M,M,M,M,M,M,M,HZ,M,M,M,M,M,M,75.20,KLSV 081224Z AUTO 20035G47KT 1 7/8SM HZ CLR 24/10 A2993 RMK AO2 VIS 1V4 SLP115 $,M
LSV,2021-10-08 12:25,-115.0343,36.2362,570.00,75.20,50.00,41.14,190.00,31.00,0.00,29.93,1011.50,2.50,47.00,CLR,M,M,M,M,M,M,M,HZ,M,M,M,M,M,M,75.20,KLSV 081225Z AUTO 19031G47KT 2 1/2SM HZ CLR 24/10 A2993 RMK AO2 VIS 1V4 SLP115 $,M
LSV,2021-10-08 12:26,-115.0343,36.2362,570.00,73.40,50.00,43.69,190.00,29.00,0.00,29.94,1011.80,3.00,47.00,CLR,M,M,M,M,M,M,M,HZ,M,M,M,M,M,M,73.40,KLSV 081226Z AUTO 19029G47KT 3SM HZ CLR 23/10 A2994 RMK AO2 SLP118 $,M
LSV,2021-10-08 12:27,-115.0343,36.2362,570.00,73.40,51.80,46.71,200.00,28.00,0.00,29.94,1011.80,4.00,44.00,CLR,M,M,M,M,M,M,M,-RA,M,M,M,M,M,M,73.40,KLSV 081227Z AUTO 20028G44KT 4SM -RA CLR 23/11 A2994 RMK AO2 RAB26 SLP118 $,M
LSV,2021-10-08 12:29,-115.0343,36.2362,570.00,73.40,50.00,43.69,200.00,28.00,0.00,29.94,1011.80,7.00,44.00,CLR,M,M,M,M,M,M,M,M,M,M,M,M,M,M,73.40,KLSV 081229Z AUTO 20028G44KT 7SM CLR 23/10 A2994 RMK AO2 RAB26E29RAB29 SLP118 $,M
HTH,2021-10-08 12:35,-118.6315,38.5448,1282.89,53.60,35.60,50.36,240.00,3.00,0.00,29.93,M,10.00,M,BKN,OVC,M,M,4800.00,9000.00,M,M,M,M,M,M,M,M,M,53.60,KHTH 081235Z AUTO 24003KT 10SM BKN048 OVC090 12/02 A2993 RMK A01,M
05U,2021-10-08 12:35,-116.0051,39.6042,1811.23,39.20,32.00,75.16,0.00,0.00,0.00,29.99,M,10.00,M,CLR,M,M,M,M,M,M,M,M,M,M,M,M,M,M,39.20,K05U 081235Z AUTO 00000KT 10SM CLR 04/00 A2999 RMK A01,M
CXP,2021-10-08 12:35,-119.7326,39.1923,1431.00,53.60,37.40,54.07,320.00,5.00,0.00,29.97,M,10.00,12.00,SCT,BKN,OVC,M,5500.00,6500.00,9500.00,M,M,M,M,M,M,M,M,53.60,KCXP 081235Z AUTO 32005G12KT 10SM SCT055 BKN065 OVC095 12/03 A2997 RMK AO2,M
BVU,2021-10-08 12:35,-114.8611,35.9475,671.00,71.60,46.40,40.57,190.00,3.00,0.00,29.98,M,10.00,M,FEW,SCT,OVC,M,4100.00,6500.00,7500.00,M,M,M,M,M,M,M,M,71.60,KBVU 081235Z AUTO 19003KT 10SM FEW041 SCT065 OVC075 22/08 A2998 RMK AO2,M
TMT,2021-10-08 12:35,-117.1971,39.4643,1749.34,35.00,34.20,97.25,0.00,0.00,0.00,29.99,M,10.00,M,SCT,BKN,BKN,M,6500.00,8000.00,12000.00,M,M,M,M,M,M,M,M,34.90,KTMT 081235Z AUTO 00000KT 10SM SCT065 BKN080 BKN120 02/01 A2999 RMK AO2 LTG DSNT NE T00160012,M
MEV,2021-10-08 12:35,-119.7500,38.9963,1441.42,51.80,37.40,57.77,0.00,0.00,0.00,29.96,M,10.00,M,FEW,FEW,BKN,M,5500.00,6500.00,8000.00,M,M,M,M,M,M,M,M,51.80,KMEV 081235Z AUTO 00000KT 10SM FEW055 FEW065 BKN080 11/03 A2996 RMK AO2,M
BAM,2021-10-08 12:35,-116.8743,40.5990,1382.36,46.40,46.40,100.00,330.00,5.00,0.00,29.98,M,10.00,M,OVC,M,M,M,9500.00,M,M,M,M,M,M,M,M,M,M,43.50,KBAM 081235Z AUTO 33005KT 10SM OVC095 08/08 A2998 RMK AO1,M
RTS,2021-10-08 12:35,-119.8764,39.6682,1539.00,44.60,41.00,87.09,260.00,7.00,0.00,30.01,M,10.00,M,BKN,BKN,OVC,M,3100.00,3700.00,5500.00,M,M,M,M,M,M,M,M,40.14,KRTS 081235Z AUTO 26007KT 10SM BKN031 BKN037 OVC055 07/05 A3001 RMK AO2,M
LSV,2021-10-08 12:41,-115.0343,36.2362,570.00,69.80,51.80,52.77,200.00,26.00,0.00,29.95,1012.30,10.00,32.00,CLR,M,M,M,M,M,M,M,-RA,M,M,M,M,M,M,69.80,KLSV 081241Z AUTO 20026G32KT 10SM -RA CLR 21/11 A2995 RMK AO2 RAB26E29RAB29E29RAB41 SLP123 $,M
LSV,2021-10-08 12:51,-115.0343,36.2362,570.00,68.00,53.60,59.97,200.00,22.00,0.00,29.96,1012.70,10.00,M,FEW,M,M,M,4400.00,M,M,M,M,M,M,M,M,M,M,68.00,KLSV 081251Z AUTO 20022KT 10SM FEW044 20/12 A2996 RMK AO2 RAB26E29RAB29E29RAB41E51 SLP127 $,M
P68,2021-10-08 12:53,-116.0056,39.6014,1993.00,45.00,35.00,68.05,140.00,6.00,0.00,29.96,1009.90,M,M,M,M,M,M,M,M,M,M,M,M,M,M,M,M,M,41.19,KP68 081253Z AUTO 14006KT 07/02 A2996 RMK AO1 SLP099 T00720017,M
ELY,2021-10-08 12:53,-114.8453,39.2950,1909.00,51.00,43.00,73.69,220.00,7.00,0.00,30.01,1009.30,10.00,M,BKN,OVC,M,M,6000.00,8000.00,M,M,M,M,M,M,M,M,M,51.10,KELY 081253Z AUTO 22007KT 10SM BKN060 OVC080 11/06 A3001 RMK AO2 SLP093 T01060061,M
LOL,2021-10-08 12:53,-118.5701,40.0684,1192.43,52.00,44.00,74.35,30.00,8.00,0.00,29.92,1011.10,10.00,M,BKN,M,M,M,7000.00,M,M,M,M,M,M,M,M,M,M,52.00,KLOL 081253Z AUTO 03008KT 10SM BKN070 11/07 A2992 RMK AO2 LTG DSNT W SLP111 T01110067,M
VGT,2021-10-08 12:53,-115.1933,36.2111,667.00,70.00,50.00,49.03,170.00,19.00,T,29.92,1012.80,10.00,30.00,FEW,OVC,M,M,7000.00,9000.00,M,M,-RA,M,M,M,38.00,200.00,2021-10-08 12:15,70.00,KVGT 081253Z 17019G30KT 10SM -RA FEW070 OVC090 21/10 A2992 RMK AO2 PK WND 20038/1215 RAB17 SLP128 P0000 T02110100,M
DRA,2021-10-08 12:53,-116.0278,36.6206,1009.00,67.00,39.00,35.86,200.00,16.00,0.00,29.92,1009.20,10.00,26.00,OVC,M,M,M,9000.00,M,M,M,M,M,M,M,30.00,230.00,2021-10-08 12:25,66.90,KDRA 081253Z AUTO 20016G26KT 10SM OVC090 19/04 A2992 RMK AO2 PK WND 23030/1225 SLP092 T01940039,M
MEV,2021-10-08 12:55,-119.7500,38.9963,1441.42,51.80,37.40,57.77,240.00,5.00,0.00,29.96,M,10.00,M,FEW,BKN,BKN,M,5500.00,7000.00,8000.00,M,VCTS,M,M,M,M,M,M,51.80,KMEV 081255Z AUTO 24005KT 10SM VCTS FEW055 BKN070 BKN080 11/03 A2996 RMK AO2 LTG DSNT E,M
RNO,2021-10-08 12:55,-119.7711,39.4839,1341.00,48.00,43.00,82.72,330.00,6.00,0.07,29.98,1012.40,7.00,M,SCT,BKN,OVC,M,3600.00,6000.00,8000.00,M,-RA,M,M,M,M,M,M,44.80,KRNO 081255Z 33006KT 7SM -RA SCT036 BKN060 OVC080 09/06 A2998 RMK AO2 LTG DSNT SE SLP124 P0007 T00890061,M
BAM,2021-10-08 12:55,-116.8743,40.5990,1382.36,46.40,44.60,93.40,130.00,3.00,0.00,29.97,M,10.00,M,BKN,M,M,M,9500.00,M,M,M,M,M,M,M,M,M,M,45.15,KBAM 081255Z AUTO 13003KT 10SM BKN095 08/07 A2997 RMK AO1,M
RTS,2021-10-08 12:55,-119.8764,39.6682,1539.00,44.60,41.00,87.09,290.00,7.00,0.00,30.01,M,10.00,12.00,SCT,BKN,OVC,M,3400.00,4000.00,7500.00,M,M,M,M,M,M,M,M,40.14,KRTS 081255Z AUTO 29007G12KT 10SM SCT034 BKN040 OVC075 07/05 A3001 RMK AO2,M
HTH,2021-10-08 12:55,-118.6315,38.5448,1282.89,53.60,37.40,54.07,0.00,0.00,0.00,29.94,M,10.00,M,FEW,SCT,BKN,M,4400.00,5500.00,7500.00,M,M,M,M,M,M,M,M,53.60,KHTH 081255Z AUTO 00000KT 10SM FEW044 SCT055 BKN075 12/03 A2994 RMK A01,M
05U,2021-10-08 12:55,-116.0051,39.6042,1811.23,44.60,35.60,70.48,0.00,0.00,0.00,29.99,M,10.00,M,SCT,M,M,M,12000.00,M,M,M,M,M,M,M,M,M,M,44.60,K05U 081255Z AUTO 00000KT 10SM SCT120 07/02 A2999 RMK A01,M
LSV,2021-10-08 12:55,-115.0343,36.2362,570.00,68.00,53.60,59.97,200.00,21.00,0.00,29.97,1013.00,10.00,M,FEW,M,M,M,8500.00,M,M,M,-RA,M,M,M,M,M,M,68.00,KLSV 081255Z AUTO 20021KT 10SM -RA FEW085 20/12 A2997 RMK AO2 RAB26E29RAB29E29RAB41E51RAB55 SLP130 $,M
CXP,2021-10-08 12:55,-119.7326,39.1923,1431.00,53.60,35.60,50.36,340.00,7.00,0.00,29.98,M,10.00,M,FEW,BKN,OVC,M,6500.00,8000.00,9000.00,M,VCTS,M,M,M,M,M,M,53.60,KCXP 081255Z AUTO 34007KT 10SM VCTS FEW065 BKN080 OVC090 12/02 A2998 RMK AO2 LTG DSNT SE,M
BVU,2021-10-08 12:55,-114.8611,35.9475,671.00,68.00,51.80,56.13,310.00,6.00,0.00,29.99,M,10.00,M,FEW,SCT,OVC,M,4500.00,7000.00,7500.00,M,-RA,M,M,M,M,M,M,68.00,KBVU 081255Z AUTO 31006KT 10SM -RA FEW045 SCT070 OVC075 20/11 A2999 RMK AO2,M
TMT,2021-10-08 12:55,-117.1971,39.4643,1749.34,35.00,34.20,97.25,0.00,0.00,0.00,29.99,M,10.00,M,SCT,BKN,M,M,6500.00,10000.00,M,M,M,M,M,M,M,M,M,34.90,KTMT 081255Z AUTO 00000KT 10SM SCT065 BKN100 02/01 A2999 RMK AO2 T00160012,M
LAS,2021-10-08 12:56,-115.1634,36.0719,663.00,66.00,52.00,60.60,210.00,9.00,0.03,29.98,1013.30,9.00,M,SCT,OVC,M,M,7500.00,9000.00,M,M,-RA VCBLDU,M,M,M,42.00,210.00,2021-10-08 12:01,66.00,KLAS 081256Z 21009KT 9SM -RA VCBLDU SCT075 OVC090 19/11 A2998 RMK AO2 PK WND 21042/1201 RAB1159 SLP133 P0003 T01890111,M
EKO,2021-10-08 12:56,-115.7860,40.8242,1367.00,45.00,43.00,92.65,0.00,0.00,0.00,29.96,1012.80,10.00,M,BKN,OVC,M,M,6500.00,7500.00,M,M,M,M,M,M,M,M,M,45.00,KEKO 081256Z AUTO 00000KT 10SM BKN065 OVC075 07/06 A2996 RMK AO2 SLP128 T00720061,M
HND,2021-10-08 12:56,-115.1344,35.9729,742.79,64.00,54.00,69.92,220.00,10.00,0.03,30.02,1016.20,10.00,M,OVC,M,M,M,9000.00,M,M,M,-RA,M,M,M,M,M,M,64.00,KHND 081256Z AUTO 22010KT 10SM -RA OVC090 18/12 A3002 RMK AO2 SLP162 P0003 T01780122,M
WMC,2021-10-08 12:56,-117.8072,40.9019,1315.00,48.00,45.00,89.29,70.00,11.00,0.00,29.94,1012.50,10.00,16.00,FEW,BKN,OVC,M,6000.00,9500.00,11000.00,M,M,M,M,M,M,M,M,42.69,KWMC 081256Z AUTO 07011G16KT 10SM FEW060 BKN095 OVC110 09/07 A2994 RMK AO2 SLP125 T00890072,M
NFL,2021-10-08 12:56,-118.7010,39.4166,1199.00,47.00,36.00,65.63,0.00,0.00,0.00,29.91,1010.30,10.00,M,SCT,M,M,M,9000.00,M,M,M,M,M,M,M,M,M,M,46.90,KNFL 081256Z AUTO 00000KT 10SM SCT090 08/02 A2991 RMK AO2 SLP103 T00830022,M
TPH,2021-10-08 12:56,-117.0904,38.0505,1654.00,49.00,37.00,63.34,210.00,3.00,0.00,29.97,1010.30,10.00,M,CLR,M,M,M,M,M,M,M,M,M,M,M,M,M,M,48.01,KTPH 081256Z AUTO 21003KT 10SM CLR 09/03 A2997 RMK AO2 SLP103 T00940028,M
LSV,2021-10-08 12:58,-115.0343,36.2362,570.00,67.80,53.40,59.95,200.00,21.00,T,29.97,1013.00,10.00,M,FEW,M,M,M,8500.00,M,M,M,-RA,M,M,M,49.00,200.00,2021-10-08 12:11,67.80,KLSV 081258Z AUTO 20021KT 10SM -RA FEW085 20/12 A2997 RMK AO2 PK WND 20049/11 RAB26E29RAB29E29RAB41E51RAB55 SLP130 P0000 T01990119 $,M
INS,2021-10-08 12:58,-115.6733,36.5872,955.00,71.60,35.00,25.97,190.00,7.00,0.00,29.92,1009.00,10.00,M,FEW,BKN,M,M,11000.00,17000.00,M,M,M,M,M,M,M,M,M,71.60,KINS 081258Z AUTO 19007KT 10SM FEW110 BKN170 22/02 A2992 RMK AO2 SLP090 T02200016 $,M
LSV,2021-10-08 13:06,-115.0343,36.2362,570.00,68.00,53.60,59.97,160.00,20.00,0.00,29.94,1012.00,10.00,M,FEW,FEW,FEW,M,4500.00,5000.00,8500.00,M,-RA,M,M,M,M,M,M,68.00,KLSV 081306Z AUTO 16020KT 10SM -RA FEW045 FEW050 FEW085 20/12 A2994 RMK AO2 WSHFT 1256 PRESFR SLP120 $,M
TMT,2021-10-08 13:15,-117.1971,39.4643,1749.34,35.60,35.00,98.03,0.00,0.00,0.00,29.99,M,10.00,M,SCT,BKN,OVC,M,6000.00,7000.00,10000.00,M,-DZ,M,M,M,M,M,M,35.60,KTMT 081315Z AUTO 00000KT 10SM -DZ SCT060 BKN070 OVC100 02/02 A2999 RMK AO2 T00200017,M
HTH,2021-10-08 13:15,-118.6315,38.5448,1282.89,53.60,41.00,62.23,220.00,4.00,0.00,29.93,M,10.00,M,FEW,BKN,OVC,M,3500.00,6000.00,7000.00,M,M,M,M,M,M,M,M,53.60,KHTH 081315Z AUTO 22004KT 10SM FEW035 BKN060 OVC070 12/05 A2993 RMK A01,M
BVU,2021-10-08 13:15,-114.8611,35.9475,671.00,68.00,50.00,52.51,220.00,3.00,0.00,30.00,M,10.00,M,FEW,SCT,BKN,M,3700.00,4700.00,7000.00,M,-RA,M,M,M,M,M,M,68.00,KBVU 081315Z AUTO 22003KT 10SM -RA FEW037 SCT047 BKN070 20/10 A3000 RMK AO2,M
CXP,2021-10-08 13:15,-119.7326,39.1923,1431.00,53.60,37.40,54.07,0.00,0.00,0.00,29.98,M,10.00,M,BKN,OVC,M,M,7500.00,9500.00,M,M,M,M,M,M,M,M,M,53.60,KCXP 081315Z AUTO 00000KT 10SM BKN075 OVC095 12/03 A2998 RMK AO2,M
05U,2021-10-08 13:15,-116.0051,39.6042,1811.23,42.80,33.80,70.28,220.00,4.00,0.00,29.99,M,10.00,M,OVC,M,M,M,11000.00,M,M,M,M,M,M,M,M,M,M,40.03,K05U 081315Z AUTO 22004KT 10SM OVC110 06/01 A2999 RMK A01,M
RTS,2021-10-08 13:15,-119.8764,39.6682,1539.00,42.80,41.00,93.30,310.00,12.00,0.00,30.02,M,7.00,M,FEW,BKN,OVC,M,2400.00,3400.00,3900.00,M,-RA,M,M,M,M,M,M,35.75,KRTS 081315Z AUTO 31012KT 7SM -RA FEW024 BKN034 OVC039 06/05 A3002 RMK AO2,M
BAM,2021-10-08 13:15,-116.8743,40.5990,1382.36,42.80,42.80,100.00,140.00,5.00,0.00,29.97,M,10.00,M,BKN,BKN,M,M,7000.00,9500.00,M,M,M,M,M,M,M,M,M,39.22,KBAM 081315Z AUTO 14005KT 10SM BKN070 BKN095 06/06 A2997 RMK AO1,M
MEV,2021-10-08 13:15,-119.7500,38.9963,1441.42,51.80,35.60,53.81,160.00,6.00,0.00,29.97,M,10.00,M,FEW,SCT,BKN,M,5500.00,7000.00,8000.00,M,M,M,M,M,M,M,M,51.80,KMEV 081315Z AUTO 16006KT 10SM FEW055 SCT070 BKN080 11/02 A2997 RMK AO2,M
LSV,2021-10-08 13:34,-115.0343,36.2362,570.00,68.00,51.80,56.13,160.00,19.00,0.00,29.89,M,10.00,26.00,FEW,FEW,M,M,4500.00,7000.00,M,M,M,M,M,M,M,M,M,68.00,KLSV 081334Z AUTO 16019G26KT 10SM FEW045 FEW070 20/11 A2989 RMK AO2 RAE34 PRESFR SLPNO $,M
RTS,2021-10-08 13:35,-119.8764,39.6682,1539.00,42.80,39.20,86.99,310.00,12.00,0.00,30.02,M,8.00,M,FEW,BKN,OVC,M,2200.00,3600.00,5500.00,M,-DZ,M,M,M,M,M,M,35.75,KRTS 081335Z AUTO 31012KT 8SM -DZ FEW022 BKN036 OVC055 06/04 A3002 RMK AO2,M
BVU,2021-10-08 13:35,-114.8611,35.9475,671.00,68.00,50.00,52.51,140.00,5.00,0.00,30.01,M,9.00,M,FEW,BKN,OVC,M,3100.00,3800.00,7500.00,M,-RA,M,M,M,M,M,M,68.00,KBVU 081335Z AUTO 14005KT 9SM -RA FEW031 BKN038 OVC075 20/10 A3001 RMK AO2,M
05U,2021-10-08 13:35,-116.0051,39.6042,1811.23,42.80,35.60,75.50,250.00,5.00,0.00,29.99,M,10.00,M,FEW,BKN,OVC,M,6500.00,7500.00,10000.00,M,M,M,M,M,M,M,M,39.22,K05U 081335Z AUTO 25005KT 10SM FEW065 BKN075 OVC100 06/02 A2999 RMK A01,M
TMT,2021-10-08 13:35,-117.1971,39.4643,1749.34,37.00,36.50,98.43,50.00,3.00,0.00,29.97,M,10.00,M,SCT,BKN,OVC,M,4800.00,6000.00,8500.00,M,-DZ,M,M,M,M,M,M,34.29,KTMT 081335Z AUTO 05003KT 10SM -DZ SCT048 BKN060 OVC085 03/03 A2997 RMK AO2 LTG DSNT W T00270025,M
HTH,2021-10-08 13:35,-118.6315,38.5448,1282.89,55.40,41.00,58.27,M,3.00,0.00,29.92,M,10.00,M,FEW,SCT,OVC,M,4400.00,6000.00,7500.00,M,M,M,M,M,M,M,M,55.40,KHTH 081335Z AUTO VRB03KT 10SM FEW044 SCT060 OVC075 13/05 A2992 RMK A01,M
BAM,2021-10-08 13:35,-116.8743,40.5990,1382.36,42.80,42.80,100.00,0.00,0.00,0.00,29.97,M,10.00,M,BKN,OVC,M,M,7000.00,9500.00,M,M,M,M,M,M,M,M,M,42.80,KBAM 081335Z AUTO 00000KT 10SM BKN070 OVC095 06/06 A2997 RMK AO1,M
MEV,2021-10-08 13:35,-119.7500,38.9963,1441.42,51.80,37.40,57.77,0.00,0.00,0.00,29.97,M,10.00,M,BKN,OVC,M,M,6500.00,7500.00,M,M,M,M,M,M,M,M,M,51.80,KMEV 081335Z AUTO 00000KT 10SM BKN065 OVC075 11/03 A2997 RMK AO2 LTG DSNT NE AND E,M
CXP,2021-10-08 13:35,-119.7326,39.1923,1431.00,51.80,35.60,53.81,0.00,0.00,0.00,29.97,M,10.00,M,BKN,OVC,M,M,7500.00,9500.00,M,M,VCTS,M,M,M,M,M,M,51.80,KCXP 081335Z AUTO 00000KT 10SM VCTS BKN075 OVC095 11/02 A2997 RMK AO2 LTG DSNT E,M
INS,2021-10-08 13:42,-115.6733,36.5872,955.00,69.80,37.40,30.49,130.00,13.00,0.00,29.91,1008.80,10.00,23.00,BKN,M,M,M,16000.00,M,M,M,M,M,M,M,M,M,M,69.80,KINS 081342Z AUTO 13013G23KT 10SM BKN160 21/03 A2991 RMK AO2 WSHFT 41 SLP088 $,M
LOL,2021-10-08 13:53,-118.5701,40.0684,1192.43,52.00,45.00,76.94,360.00,9.00,0.00,29.93,1011.90,10.00,M,OVC,M,M,M,6500.00,M,M,M,M,M,M,M,M,M,M,52.00,KLOL 081353Z AUTO 36009KT 10SM OVC065 11/07 A2993 RMK AO2 LTG DSNT NW SLP119 T01110072,M
DRA,2021-10-08 13:53,-116.0278,36.6206,1009.00,66.00,41.00,39.99,190.00,16.00,0.00,29.93,1009.50,10.00,27.00,SCT,BKN,M,M,7000.00,8500.00,M,M,M,M,M,M,38.00,190.00,2021-10-08 13:30,66.00,KDRA 081353Z AUTO 19016G27KT 10SM SCT070 BKN085 19/05 A2993 RMK AO2 PK WND 19038/1330 SLP095 T01890050,M
P68,2021-10-08 13:53,-116.0056,39.6014,1993.00,44.00,36.00,72.99,190.00,5.00,0.00,29.96,1010.00,M,M,M,M,M,M,M,M,M,M,M,M,M,M,M,M,M,40.77,KP68 081353Z AUTO 19005KT 07/02 A2996 RMK AO1 SLP100 T00670022,M
VGT,2021-10-08 13:53,-115.1933,36.2111,667.00,69.00,50.00,50.56,210.00,12.00,T,29.92,1013.00,10.00,M,CLR,M,M,M,M,M,M,M,M,M,M,M,28.00,160.00,2021-10-08 13:13,69.10,KVGT 081353Z 21012KT 10SM CLR 21/10 A2992 RMK AO2 PK WND 16028/1313 RAE20 SLP130 P0000 T02060100,M
ELY,2021-10-08 13:53,-114.8453,39.2950,1909.00,54.00,43.00,66.24,160.00,14.00,0.00,30.00,1008.70,10.00,20.00,BKN,OVC,M,M,6000.00,7000.00,M,M,M,M,M,M,M,M,M,54.00,KELY 081353Z AUTO 16014G20KT 10SM BKN060 OVC070 12/06 A3000 RMK AO2 SLP087 T01220061,M
MEV,2021-10-08 13:55,-119.7500,38.9963,1441.42,50.00,35.60,57.52,0.00,0.00,0.00,29.97,M,10.00,M,BKN,BKN,BKN,M,6000.00,7500.00,12000.00,M,VCTS,M,M,M,M,M,M,50.00,KMEV 081355Z AUTO 00000KT 10SM VCTS BKN060 BKN075 BKN120 10/02 A2997 RMK AO2 LTG DSNT NE,M
RNO,2021-10-08 13:55,-119.7711,39.4839,1341.00,48.00,41.00,76.58,350.00,16.00,0.02,29.98,1012.50,10.00,24.00,FEW,BKN,OVC,M,2000.00,4000.00,6000.00,M,M,M,M,M,M,M,M,41.27,KRNO 081355Z 35016G24KT 10SM FEW020 BKN040 OVC060 09/05 A2998 RMK AO2 LTG DSNT E RAE40 SLP125 P0002 T00890050,M
TMT,2021-10-08 13:55,-117.1971,39.4643,1749.34,37.00,36.50,98.43,250.00,5.00,0.00,29.99,M,7.00,M,BKN,BKN,BKN,M,7500.00,8500.00,12000.00,M,VCTS,M,M,M,M,M,M,32.21,KTMT 081355Z AUTO 25005KT 7SM VCTS BKN075 BKN085 BKN120 03/03 A2999 RMK AO2 LTG DSNT W T00270025,M
BAM,2021-10-08 13:55,-116.8743,40.5990,1382.36,42.80,42.80,100.00,130.00,4.00,0.00,29.97,M,10.00,M,OVC,M,M,M,7000.00,M,M,M,M,M,M,M,M,M,M,40.03,KBAM 081355Z AUTO 13004KT 10SM OVC070 06/06 A2997 RMK AO1,M
RTS,2021-10-08 13:55,-119.8764,39.6682,1539.00,41.00,39.20,93.24,310.00,11.00,0.01,30.02,M,8.00,M,FEW,FEW,OVC,M,2100.00,2900.00,5500.00,M,-DZ,M,M,M,M,M,M,33.84,KRTS 081355Z AUTO 31011KT 8SM -DZ FEW021 FEW029 OVC055 05/04 A3002 RMK AO2 P0001,M
BVU,2021-10-08 13:55,-114.8611,35.9475,671.00,64.40,53.60,67.95,140.00,10.00,0.00,30.00,M,9.00,M,BKN,OVC,M,M,3500.00,4200.00,M,M,-RA,M,M,M,M,M,M,64.40,KBVU 081355Z AUTO 14010KT 9SM -RA BKN035 OVC042 18/12 A3000 RMK AO2,M
CXP,2021-10-08 13:55,-119.7326,39.1923,1431.00,51.80,37.40,57.77,310.00,4.00,0.00,29.98,M,10.00,M,BKN,OVC,M,M,7000.00,9500.00,M,M,VCTS,M,M,M,M,M,M,51.80,KCXP 081355Z AUTO 31004KT 10SM VCTS BKN070 OVC095 11/03 A2998 RMK AO2 LTG DSNT E,M
05U,2021-10-08 13:55,-116.0051,39.6042,1811.23,44.60,35.60,70.48,0.00,0.00,0.00,29.99,M,10.00,M,SCT,BKN,OVC,M,7000.00,8500.00,10000.00,M,M,M,M,M,M,M,M,44.60,K05U 081355Z AUTO 00000KT 10SM SCT070 BKN085 OVC100 07/02 A2999 RMK A01,M
HTH,2021-10-08 13:55,-118.6315,38.5448,1282.89,53.60,41.00,62.23,140.00,3.00,0.00,29.92,M,10.00,M,FEW,FEW,OVC,M,5500.00,7000.00,11000.00,M,M,M,M,M,M,M,M,53.60,KHTH 081355Z AUTO 14003KT 10SM FEW055 FEW070 OVC110 12/05 A2992 RMK A01,M
HND,2021-10-08 13:56,-115.1344,35.9729,742.79,67.00,50.00,54.54,150.00,11.00,T,29.94,1013.60,10.00,17.00,SCT,M,M,M,11000.00,M,M,M,M,M,M,M,M,M,M,66.90,KHND 081356Z 15011G17KT 10SM SCT110 19/10 A2994 RMK AO2 RAE50 PRESRR SLP136 P0000 T01940100,M
EKO,2021-10-08 13:56,-115.7860,40.8242,1367.00,44.00,42.00,92.62,0.00,0.00,0.00,29.96,1012.80,7.00,M,CLR,M,M,M,M,M,M,M,M,M,M,M,M,M,M,44.10,KEKO 081356Z AUTO 00000KT 7SM CLR 07/06 A2996 RMK AO2 SLP128 T00670056,M
NFL,2021-10-08 13:56,-118.7010,39.4166,1199.00,49.00,38.00,65.62,0.00,0.00,0.00,29.91,1010.30,10.00,M,BKN,M,M,M,7000.00,M,M,M,M,M,M,M,M,M,M,48.90,KNFL 081356Z AUTO 00000KT 10SM BKN070 09/03 A2991 RMK AO2 SLP103 T00940033,M
TPH,2021-10-08 13:56,-117.0904,38.0505,1654.00,43.00,34.00,70.30,160.00,4.00,0.00,29.97,1011.40,10.00,M,CLR,M,M,M,M,M,M,M,M,M,M,M,M,M,M,40.27,KTPH 081356Z AUTO 16004KT 10SM CLR 06/01 A2997 RMK AO2 SLP114 T00610011,M
WMC,2021-10-08 13:56,-117.8072,40.9019,1315.00,48.00,45.00,89.29,50.00,8.00,T,29.94,1012.10,10.00,M,OVC,M,M,M,7500.00,M,M,M,-RA,M,M,M,M,M,M,43.82,KWMC 081356Z AUTO 05008KT 10SM -RA OVC075 09/07 A2994 RMK AO2 RAB50 SLP121 P0000 T00890072,M
LAS,2021-10-08 13:56,-115.1634,36.0719,663.00,67.00,52.00,58.74,190.00,7.00,T,29.94,1011.80,10.00,M,FEW,BKN,M,M,8000.00,11000.00,M,M,M,M,M,M,M,M,M,66.90,KLAS 081356Z 19007KT 10SM FEW080 BKN110 19/11 A2994 RMK AO2 RAE22 PRESRR SLP118 P0000 T01940111,M
INS,2021-10-08 13:57,-115.6733,36.5872,955.00,66.20,44.60,45.60,110.00,14.00,0.00,29.93,1009.70,10.00,25.00,BKN,BKN,M,M,8000.00,16000.00,M,M,M,M,M,M,M,M,M,66.20,KINS 081357Z AUTO 11014G25KT 10SM BKN080 BKN160 19/07 A2993 RMK AO2 PRESRR SLP097 $,M
INS,2021-10-08 13:58,-115.6733,36.5872,955.00,66.00,45.00,46.80,110.00,14.00,0.00,29.93,1009.70,10.00,25.00,BKN,BKN,M,M,8000.00,16000.00,M,M,M,M,M,M,28.00,120.00,2021-10-08 13:44,66.00,KINS 081358Z AUTO 11014G25KT 10SM BKN080 BKN160 19/07 A2993 RMK AO2 PK WND 12028/44 SLP097 T01890073 $,M
LSV,2021-10-08 13:58,-115.0343,36.2362,570.00,69.60,50.20,50.08,160.00,14.00,0.01,29.92,M,10.00,24.00,CLR,M,M,M,M,M,M,M,M,M,M,M,26.00,160.00,2021-10-08 13:31,69.60,KLSV 081358Z AUTO 16014G24KT 10SM CLR 21/10 A2992 RMK AO2 PK WND 16026/31 RAE34 PRESRR SLPNO P0001 T02090101 $,M
LOL,2021-10-08 14:14,-118.5701,40.0684,1192.43,51.00,42.00,71.19,320.00,19.00,0.00,29.94,M,10.00,24.00,FEW,OVC,M,M,4200.00,6000.00,M,M,M,M,M,M,M,M,M,51.10,KLOL 081414Z AUTO 32019G24KT 10SM FEW042 OVC060 11/06 A2994 RMK AO2 WSHFT 1354 LTG DSNT N T01060056,M
05U,2021-10-08 14:15,-116.0051,39.6042,1811.23,44.60,35.60,70.48,0.00,0.00,0.00,29.98,M,10.00,M,FEW,OVC,M,M,7500.00,9500.00,M,M,M,M,M,M,M,M,M,44.60,K05U 081415Z AUTO 00000KT 10SM FEW075 OVC095 07/02 A2998 RMK A01,M
TMT,2021-10-08 14:15,-117.1971,39.4643,1749.34,37.60,37.40,99.22,290.00,3.00,0.00,29.98,M,10.00,M,SCT,OVC,M,M,7500.00,11000.00,M,M,VCTS,M,M,M,M,M,M,35.09,KTMT 081415Z AUTO 29003KT 10SM VCTS SCT075 OVC110 03/03 A2998 RMK AO2 T00310030,M
CXP,2021-10-08 14:15,-119.7326,39.1923,1431.00,51.80,35.60,53.81,300.00,12.00,0.00,29.98,M,10.00,18.00,BKN,OVC,M,M,5000.00,7000.00,M,M,M,M,M,M,M,M,M,51.80,KCXP 081415Z AUTO 30012G18KT 10SM BKN050 OVC070 11/02 A2998 RMK AO2 LTG DSNT NE AND E,M
MEV,2021-10-08 14:15,-119.7500,38.9963,1441.42,48.20,35.60,61.52,240.00,6.00,0.00,29.98,M,10.00,M,FEW,BKN,BKN,M,4900.00,7000.00,12000.00,M,M,M,M,M,M,M,M,45.04,KMEV 081415Z AUTO 24006KT 10SM FEW049 BKN070 BKN120 09/02 A2998 RMK AO2 LTG DSNT NE,M
HTH,2021-10-08 14:15,-118.6315,38.5448,1282.89,51.80,41.00,66.48,0.00,0.00,0.00,29.92,M,10.00,M,SCT,SCT,M,M,10000.00,12000.00,M,M,M,M,M,M,M,M,M,51.80,KHTH 081415Z AUTO 00000KT 10SM SCT100 SCT120 11/05 A2992 RMK A01,M
RTS,2021-10-08 14:15,-119.8764,39.6682,1539.00,41.00,39.20,93.24,310.00,10.00,0.00,30.02,M,6.00,17.00,BKN,BKN,OVC,M,2400.00,4900.00,5500.00,M,-RA,M,M,M,M,M,M,34.25,KRTS 081415Z AUTO 31010G17KT 6SM -RA BKN024 BKN049 OVC055 05/04 A3002 RMK AO2,M
BAM,2021-10-08 14:15,-116.8743,40.5990,1382.36,42.80,42.80,100.00,0.00,0.00,0.00,29.95,M,10.00,M,SCT,BKN,M,M,7000.00,9500.00,M,M,M,M,M,M,M,M,M,42.80,KBAM 081415Z AUTO 00000KT 10SM SCT070 BKN095 06/06 A2995 RMK AO1,M
BVU,2021-10-08 14:15,-114.8611,35.9475,671.00,62.60,55.40,77.29,110.00,18.00,0.00,29.94,M,7.00,24.00,FEW,SCT,BKN,M,300.00,3700.00,6000.00,M,-RA,M,M,M,M,M,M,62.60,KBVU 081415Z AUTO 11018G24KT 7SM -RA FEW003 SCT037 BKN060 17/13 A2994 RMK AO2,M
HTH,2021-10-08 14:35,-118.6315,38.5448,1282.89,51.80,41.00,66.48,150.00,4.00,0.00,29.93,M,10.00,M,BKN,M,M,M,9000.00,M,M,M,M,M,M,M,M,M,M,51.80,KHTH 081435Z AUTO 15004KT 10SM BKN090 11/05 A2993 RMK A01,M
BAM,2021-10-08 14:35,-116.8743,40.5990,1382.36,42.80,42.80,100.00,130.00,4.00,0.00,29.95,M,10.00,M,SCT,SCT,M,M,9500.00,11000.00,M,M,M,M,M,M,M,M,M,40.03,KBAM 081435Z AUTO 13004KT 10SM SCT095 SCT110 06/06 A2995 RMK AO1,M
TMT,2021-10-08 14:35,-117.1971,39.4643,1749.34,38.50,38.30,99.22,140.00,3.00,0.00,29.97,M,7.00,M,SCT,M,M,M,11000.00,M,M,M,M,M,M,M,M,M,M,36.12,KTMT 081435Z AUTO 14003KT 7SM SCT110 04/04 A2997 RMK AO2 T00360035,M
05U,2021-10-08 14:35,-116.0051,39.6042,1811.23,46.40,37.40,70.68,0.00,0.00,0.00,29.98,M,10.00,M,OVC,M,M,M,9000.00,M,M,M,M,M,M,M,M,M,M,46.40,K05U 081435Z AUTO 00000KT 10SM OVC090 08/03 A2998 RMK A01,M
CXP,2021-10-08 14:35,-119.7326,39.1923,1431.00,51.80,33.80,50.08,280.00,6.00,0.00,29.99,M,10.00,14.00,FEW,BKN,OVC,M,4400.00,5000.00,12000.00,M,M,M,M,M,M,M,M,51.80,KCXP 081435Z AUTO 28006G14KT 10SM FEW044 BKN050 OVC120 11/01 A2999 RMK AO2,M
BVU,2021-10-08 14:35,-114.8611,35.9475,671.00,62.60,53.60,72.38,140.00,9.00,0.00,29.97,M,10.00,14.00,FEW,FEW,SCT,M,6500.00,9000.00,11000.00,M,M,M,M,M,M,M,M,62.60,KBVU 081435Z AUTO 14009G14KT 10SM FEW065 FEW090 SCT110 17/12 A2997 RMK AO2,M
RTS,2021-10-08 14:35,-119.8764,39.6682,1539.00,41.00,39.20,93.24,280.00,5.00,0.00,30.02,M,4.00,11.00,FEW,SCT,OVC,M,2400.00,3100.00,3700.00,M,-RA,M,M,M,M,M,M,37.08,KRTS 081435Z AUTO 28005G11KT 4SM -RA FEW024 SCT031 OVC037 05/04 A3002 RMK AO2,M
MEV,2021-10-08 14:35,-119.7500,38.9963,1441.42,48.20,37.40,66.05,M,6.00,0.00,29.99,M,10.00,17.00,FEW,SCT,BKN,M,4000.00,4700.00,5500.00,M,M,M,M,M,M,M,M,45.04,KMEV 081435Z AUTO VRB06G17KT 10SM FEW040 SCT047 BKN055 09/03 A2999 RMK AO2,M
NFL,2021-10-08 14:38,-118.7010,39.4166,1199.00,41.00,37.00,85.54,280.00,16.00,0.09,29.97,M,1.25,37.00,BKN,BKN,OVC,M,2600.00,3300.00,4800.00,M,-RAGR BR,M,M,M,37.00,250.00,2021-10-08 14:30,32.15,KNFL 081438Z 28016G37KT 1 1/4SM -RAGR BR BKN026 BKN033 OVC048 05/03 A2997 RMK AO2 PK WND 25037/1430 RAB34GRB38 P0009 T00500028,M
NFL,2021-10-08 14:44,-118.7010,39.4166,1199.00,39.20,35.60,86.79,290.00,13.00,0.00,29.97,M,1.00,M,FEW,OVC,M,M,2600.00,3600.00,M,M,-TSRAGR,M,M,M,37.00,250.00,2021-10-08 14:30,30.79,KNFL 081444Z COR 29013KT 1SM -TSRAGR FEW026 OVC036CB 04/02 A2997 RMK PK WND 25037/1430 RAB34GRB38 TSB44 FQT LTGCCCG OVHD TS OVHD MOV NE,M
NFL,2021-10-08 14:47,-118.7010,39.4166,1199.00,39.20,37.40,93.19,300.00,10.00,0.00,29.97,M,1.25,M,FEW,BKN,OVC,M,2600.00,3300.00,4000.00,M,-TSRAGR,M,M,M,37.00,250.00,2021-10-08 14:30,32.00,KNFL 081447Z COR 30010KT 1 1/4SM -TSRAGR FEW026 BKN033CB OVC040 04/03 A2997 RMK PK WND 25037/1430 WSHFT 1433 RAB34GRB38 TSB44 FRQ LTGICCCCG OVHD TS OVHD MOV NE IR//,M
DRA,2021-10-08 14:53,-116.0278,36.6206,1009.00,65.00,44.00,46.81,200.00,18.00,0.00,29.94,1010.00,10.00,26.00,FEW,BKN,M,M,6000.00,9000.00,M,M,M,M,M,M,34.00,190.00,2021-10-08 14:13,64.90,KDRA 081453Z AUTO 20018G26KT 10SM FEW060 BKN090 18/07 A2994 RMK AO2 PK WND 19034/1413 SLP100 T01830067 53006,M
P68,2021-10-08 14:53,-116.0056,39.6014,1993.00,48.00,38.00,67.87,340.00,7.00,0.00,29.96,1009.50,M,M,M,M,M,M,M,M,M,M,M,M,M,M,M,M,M,44.28,KP68 081453Z AUTO 34007KT 09/03 A2996 RMK AO1 SLP095 T00890033 56006,M
VGT,2021-10-08 14:53,-115.1933,36.2111,667.00,69.00,50.00,50.56,110.00,5.00,T,29.94,1013.80,10.00,M,FEW,FEW,FEW,M,4600.00,8000.00,12000.00,M,-RA,M,M,M,M,M,M,69.10,KVGT 081453Z 11005KT 10SM -RA FEW046 FEW080 FEW120 21/10 A2994 RMK AO2 RAB41 SLP138 P0000 60000 T02060100 53013,M
ELY,2021-10-08 14:53,-114.8453,39.2950,1909.00,54.00,42.00,63.98,150.00,17.00,0.00,29.99,1008.60,10.00,26.00,BKN,OVC,M,M,7500.00,9000.00,M,M,M,M,M,M,26.00,140.00,2021-10-08 14:46,54.00,KELY 081453Z AUTO 15017G26KT 10SM BKN075 OVC090 12/06 A2999 RMK AO2 PK WND 14026/1446 LTG DSNT N SLP086 T01220056 57008,M
LOL,2021-10-08 14:53,-118.5701,40.0684,1192.43,50.00,40.00,68.10,330.00,16.00,0.00,29.94,1012.20,10.00,M,BKN,OVC,M,M,4300.00,6500.00,M,M,M,M,M,M,28.00,320.00,2021-10-08 14:29,50.00,KLOL 081453Z AUTO 33016KT 10SM BKN043 OVC065 10/04 A2994 RMK AO2 PK WND 32028/1429 WSHFT 1354 LTG DSNT S SLP122 T01000044 53004,M
CXP,2021-10-08 14:55,-119.7326,39.1923,1431.00,50.00,37.40,61.76,340.00,13.00,0.00,30.00,M,10.00,M,SCT,OVC,M,M,3900.00,4800.00,M,M,M,M,M,M,M,M,M,50.00,KCXP 081455Z AUTO 34013KT 10SM SCT039 OVC048 10/03 A3000 RMK AO2,M
TMT,2021-10-08 14:55,-117.1971,39.4643,1749.34,39.40,38.50,96.55,0.00,0.00,0.00,29.98,M,10.00,M,CLR,M,M,M,M,M,M,M,M,M,M,M,M,M,M,39.40,KTMT 081455Z AUTO 00000KT 10SM CLR 04/04 A2998 RMK AO2 T00410036,M
BAM,2021-10-08 14:55,-116.8743,40.5990,1382.36,44.60,44.60,100.00,0.00,0.00,0.00,29.94,M,10.00,M,SCT,SCT,SCT,M,7000.00,9500.00,12000.00,M,M,M,M,M,M,M,M,44.60,KBAM 081455Z AUTO 00000KT 10SM SCT070 SCT095 SCT120 07/07 A2994 RMK AO1,M
HTH,2021-10-08 14:55,-118.6315,38.5448,1282.89,53.60,39.20,58.02,210.00,4.00,0.00,29.93,M,10.00,M,BKN,BKN,M,M,9000.00,11000.00,M,M,M,M,M,M,M,M,M,53.60,KHTH 081455Z AUTO 21004KT 10SM BKN090 BKN110 12/04 A2993 RMK A01,M
RTS,2021-10-08 14:55,-119.8764,39.6682,1539.00,41.00,39.20,93.24,280.00,9.00,0.01,30.03,M,6.00,M,BKN,BKN,M,M,2900.00,3500.00,M,M,-DZ,M,M,M,M,M,M,34.70,KRTS 081455Z AUTO 28009KT 6SM -DZ BKN029 BKN035 05/04 A3003 RMK AO2 P0001,M
05U,2021-10-08 14:55,-116.0051,39.6042,1811.23,48.20,37.40,66.05,360.00,3.00,0.00,29.98,M,10.00,M,BKN,BKN,M,M,9000.00,12000.00,M,M,M,M,M,M,M,M,M,47.21,K05U 081455Z AUTO 36003KT 10SM BKN090 BKN120 09/03 A2998 RMK A01,M
MEV,2021-10-08 14:55,-119.7500,38.9963,1441.42,46.40,39.20,75.84,250.00,12.00,0.00,29.99,M,5.00,18.00,FEW,BKN,BKN,M,2700.00,3800.00,4700.00,M,-RA HZ,M,M,M,M,M,M,40.33,KMEV 081455Z AUTO 25012G18KT 5SM -RA HZ FEW027 BKN038 BKN047 08/04 A2999 RMK AO2,M
RNO,2021-10-08 14:55,-119.7711,39.4839,1341.00,44.00,38.00,78.66,310.00,9.00,T,29.99,1013.20,10.00,M,FEW,BKN,OVC,M,2000.00,4500.00,6000.00,M,-RA,M,M,M,27.00,300.00,2021-10-08 14:43,38.56,KRNO 081455Z 31009KT 10SM -RA FEW020 BKN045 OVC060 07/03 A2999 RMK AO2 PK WND 30027/1443 RAB1358 SLP132 P0000 60009 T00670033 53004,M
BVU,2021-10-08 14:55,-114.8611,35.9475,671.00,62.60,55.40,77.29,150.00,7.00,0.00,29.98,M,10.00,M,CLR,M,M,M,M,M,M,M,M,M,M,M,M,M,M,62.60,KBVU 081455Z AUTO 15007KT 10SM CLR 17/13 A2998 RMK AO2,M
WMC,2021-10-08 14:56,-117.8072,40.9019,1315.00,48.00,45.00,89.29,40.00,9.00,T,29.92,1011.60,10.00,M,FEW,OVC,M,M,4800.00,6000.00,M,M,M,M,M,M,M,M,M,43.41,KWMC 081456Z AUTO 04009KT 10SM FEW048 OVC060 09/07 A2992 RMK AO2 LTG DSNT W AND NW RAE00B22E37 SLP116 P0000 60000 T00890072 58009,M
NFL,2021-10-08 14:56,-118.7010,39.4166,1199.00,40.00,38.00,92.48,310.00,7.00,0.44,29.97,1011.90,1.75,M,FEW,OVC,M,M,2600.00,4700.00,M,M,TSRA,M,M,M,37.00,250.00,2021-10-08 14:30,34.41,KNFL 081456Z 31007KT 1 3/4SM TSRA FEW026 OVC047 04/03 A2997 RMK AO2 PK WND 25037/1430 WSHFT 1433 RAB34GRB38E51 TSB44 SLP119 FRQ LTGCCCG OVHD TS OVHD MOV NE SLR// P0044 60044 T00440033 53012,M
LAS,2021-10-08 14:56,-115.1634,36.0719,663.00,67.00,52.00,58.74,180.00,4.00,T,29.96,1012.60,10.00,M,FEW,OVC,M,M,9000.00,11000.00,M,M,-RA,M,M,M,M,M,M,66.90,KLAS 081456Z 18004KT 10SM -RA FEW090 OVC110 19/11 A2996 RMK AO2 RAB44 SLP126 P0000 60003 T01940111 51011,M
HND,2021-10-08 14:56,-115.1344,35.9729,742.79,64.00,53.00,67.66,200.00,9.00,T,29.99,1015.20,10.00,M,FEW,SCT,M,M,10000.00,11000.00,M,M,-RA,M,M,M,M,M,M,64.00,KHND 081456Z 20009KT 10SM -RA FEW100 SCT110 18/12 A2999 RMK AO2 RAB54 SLP152 P0000 60003 T01780117 55001,M
EKO,2021-10-08 14:56,-115.7860,40.8242,1367.00,45.00,43.00,92.65,150.00,3.00,0.00,29.95,1012.30,10.00,M,SCT,M,M,M,9000.00,M,M,M,M,M,M,M,M,M,M,43.55,KEKO 081456Z AUTO 15003KT 10SM SCT090 07/06 A2995 RMK AO2 SLP123 T00720061 58008,M
TPH,2021-10-08 14:56,-117.0904,38.0505,1654.00,47.00,34.00,60.61,0.00,0.00,0.00,29.97,1010.90,10.00,M,CLR,M,M,M,M,M,M,M,M,M,M,M,M,M,M,46.90,KTPH 081456Z AUTO 00000KT 10SM CLR 08/01 A2997 RMK AO2 SLP109 T00830011 50001,M
LSV,2021-10-08 14:58,-115.0343,36.2362,570.00,66.70,53.80,63.19,120.00,10.00,0.00,29.95,M,10.00,M,CLR,M,M,M,M,M,M,M,M,M,M,M,M,M,M,66.70,KLSV 081458Z AUTO 12010KT 10SM CLR 19/12 A2995 RMK AO2 SLPNO 60001 T01930121 50016 $,M
INS,2021-10-08 14:58,-115.6733,36.5872,955.00,65.80,44.00,45.02,130.00,21.00,0.00,29.93,1009.70,10.00,M,BKN,BKN,M,M,7000.00,9000.00,M,M,M,M,M,M,30.00,110.00,2021-10-08 14:01,65.80,KINS 081458Z AUTO 13021KT 10SM BKN070 BKN090 19/07 A2993 RMK AO2 PK WND 11030/01 SLP097 T01880066 50008 $,M
BAM,2021-10-08 15:15,-116.8743,40.5990,1382.36,44.60,44.60,100.00,0.00,0.00,0.00,29.94,M,10.00,M,BKN,BKN,BKN,M,7000.00,9000.00,11000.00,M,M,M,M,M,M,M,M,44.60,KBAM 081515Z AUTO 00000KT 10SM BKN070 BKN090 BKN110 07/07 A2994 RMK AO1,M
MEV,2021-10-08 15:15,-119.7500,38.9963,1441.42,46.40,39.20,75.84,280.00,11.00,0.00,29.99,M,10.00,M,FEW,SCT,BKN,M,2600.00,6000.00,7000.00,M,M,M,M,M,M,M,M,40.66,KMEV 081515Z AUTO 28011KT 10SM FEW026 SCT060 BKN070 08/04 A2999 RMK AO2,M
CXP,2021-10-08 15:15,-119.7326,39.1923,1431.00,48.20,39.20,70.88,330.00,6.00,0.00,30.00,M,5.00,M,SCT,BKN,M,M,3400.00,4800.00,M,M,-RA,M,M,M,M,M,M,45.04,KCXP 081515Z AUTO 33006KT 5SM -RA SCT034 BKN048 09/04 A3000 RMK AO2,M
HTH,2021-10-08 15:15,-118.6315,38.5448,1282.89,53.60,39.20,58.02,M,5.00,0.00,29.95,M,10.00,M,BKN,BKN,M,M,8000.00,10000.00,M,M,M,M,M,M,M,M,M,53.60,KHTH 081515Z AUTO VRB05KT 10SM BKN080 BKN100 12/04 A2995 RMK A01,M
TMT,2021-10-08 15:15,-117.1971,39.4643,1749.34,42.00,40.50,94.00,0.00,0.00,0.00,29.97,M,10.00,M,CLR,M,M,M,M,M,M,M,M,M,M,M,M,M,M,42.10,KTMT 081515Z AUTO 00000KT 10SM CLR 06/05 A2997 RMK AO2 T00560047,M
RTS,2021-10-08 15:15,-119.8764,39.6682,1539.00,41.00,37.40,86.89,290.00,4.00,0.00,30.02,M,6.00,M,SCT,BKN,M,M,3000.00,3600.00,M,M,-RA,M,M,M,M,M,M,37.93,KRTS 081515Z AUTO 29004KT 6SM -RA SCT030 BKN036 05/03 A3002 RMK AO2,M
05U,2021-10-08 15:15,-116.0051,39.6042,1811.23,46.40,39.20,75.84,0.00,0.00,0.00,29.98,M,10.00,M,FEW,M,M,M,11000.00,M,M,M,M,M,M,M,M,M,M,46.40,K05U 081515Z AUTO 00000KT 10SM FEW110 08/04 A2998 RMK A01,M
BVU,2021-10-08 15:15,-114.8611,35.9475,671.00,64.40,53.60,67.95,160.00,7.00,0.00,30.00,M,10.00,M,FEW,M,M,M,11000.00,M,M,M,M,M,M,M,M,M,M,64.40,KBVU 081515Z AUTO 16007KT 10SM FEW110 18/12 A3000 RMK AO2,M
INS,2021-10-08 15:28,-115.6733,36.5872,955.00,66.20,44.60,45.60,120.00,19.00,0.00,29.92,1009.30,10.00,25.00,SCT,SCT,M,M,7000.00,9000.00,M,M,M,M,M,M,M,M,M,66.20,KINS 081528Z AUTO 12019G25KT 10SM SCT070 SCT090 19/07 A2992 RMK AO2 SLP093 $,M
WMC,2021-10-08 15:30,-117.8072,40.9019,1315.00,44.60,41.00,87.09,280.00,16.00,0.00,29.96,M,5.00,30.00,SCT,BKN,OVC,M,1700.00,2300.00,7500.00,M,RA BR,M,M,M,M,M,M,36.84,KWMC 081530Z AUTO 28016G30KT 5SM RA BR SCT017 BKN023 OVC075 07/05 A2996,M
NFL,2021-10-08 15:32,-118.7010,39.4166,1199.00,M,M,M,M,M,0.07,29.98,M,M,M,M,M,M,M,M,M,M,M,M,M,M,M,M,M,M,M,KNFL 081532Z AUTO A2998 RMK AO2 RAE32 P0007 PWINO,M
INS,2021-10-08 15:33,-115.6733,36.5872,955.00,66.20,44.60,45.60,120.00,20.00,0.00,29.92,1009.30,10.00,24.00,BKN,M,M,M,7000.00,M,M,M,M,M,M,M,M,M,M,66.20,KINS 081533Z AUTO 12020G24KT 10SM BKN070 19/07 A2992 RMK AO2 SLP093 $,M
CXP,2021-10-08 15:35,-119.7326,39.1923,1431.00,48.20,37.40,66.05,0.00,0.00,0.00,30.00,M,10.00,M,FEW,FEW,BKN,M,3400.00,4600.00,5500.00,M,M,M,M,M,M,M,M,48.20,KCXP 081535Z AUTO 00000KT 10SM FEW034 FEW046 BKN055 09/03 A3000 RMK AO2,M
BVU,2021-10-08 15:35,-114.8611,35.9475,671.00,64.40,55.40,72.56,140.00,10.00,0.00,29.98,M,10.00,M,FEW,SCT,BKN,M,4600.00,6500.00,10000.00,M,M,M,M,M,M,M,M,64.40,KBVU 081535Z AUTO 14010KT 10SM FEW046 SCT065 BKN100 18/13 A2998 RMK AO2,M
HTH,2021-10-08 15:35,-118.6315,38.5448,1282.89,53.60,39.20,58.02,0.00,0.00,0.00,29.96,M,10.00,M,SCT,BKN,OVC,M,5000.00,6000.00,8000.00,M,M,M,M,M,M,M,M,53.60,KHTH 081535Z AUTO 00000KT 10SM SCT050 BKN060 OVC080 12/04 A2996 RMK A01,M
TMT,2021-10-08 15:35,-117.1971,39.4643,1749.34,44.20,41.70,90.85,0.00,0.00,0.00,29.97,M,10.00,M,CLR,M,M,M,M,M,M,M,M,M,M,M,M,M,M,44.20,KTMT 081535Z AUTO 00000KT 10SM CLR 07/05 A2997 RMK AO2 LTG DSNT E T00680054,M
RTS,2021-10-08 15:35,-119.8764,39.6682,1539.00,41.00,37.40,86.89,340.00,5.00,0.00,30.01,M,10.00,M,FEW,M,M,M,3300.00,M,M,M,-DZ,M,M,M,M,M,M,37.08,KRTS 081535Z AUTO 34005KT 10SM -DZ FEW033 05/03 A3001 RMK AO2,M
05U,2021-10-08 15:35,-116.0051,39.6042,1811.23,48.20,39.20,70.88,20.00,4.00,0.00,29.98,M,10.00,M,CLR,M,M,M,M,M,M,M,M,M,M,M,M,M,M,46.34,K05U 081535Z AUTO 02004KT 10SM CLR 09/04 A2998 RMK A01,M
MEV,2021-10-08 15:35,-119.7500,38.9963,1441.42,48.20,37.40,66.05,280.00,12.00,0.00,30.00,M,10.00,M,BKN,OVC,M,M,5500.00,7000.00,M,M,M,M,M,M,M,M,M,42.62,KMEV 081535Z AUTO 28012KT 10SM BKN055 OVC070 09/03 A3000 RMK AO2,M
BAM,2021-10-08 15:35,-116.8743,40.5990,1382.36,46.40,46.40,100.00,230.00,3.00,0.00,29.95,M,10.00,M,SCT,BKN,OVC,M,4400.00,5000.00,7000.00,M,M,M,M,M,M,M,M,45.15,KBAM 081535Z AUTO 23003KT 10SM SCT044 BKN050 OVC070 08/08 A2995 RMK AO1,M
LSV,2021-10-08 15:50,-115.0343,36.2362,570.00,66.20,55.40,68.15,160.00,5.00,0.00,29.96,M,10.00,M,BKN,M,M,M,15000.00,M,M,M,-RA,M,M,M,M,M,M,66.20,KLSV 081550Z 16005KT 10SM -RA BKN150 19/13 A2996 RMK SLPNO $,M
VGT,2021-10-08 15:53,-115.1933,36.2111,667.00,67.00,55.00,65.56,120.00,5.00,T,29.95,1014.30,10.00,M,FEW,OVC,M,M,7500.00,10000.00,M,M,-RA,M,M,M,M,M,M,66.90,KVGT 081553Z 12005KT 10SM -RA FEW075 OVC100 19/13 A2995 RMK AO2 SLP143 P0000 T01940128,M
LOL,2021-10-08 15:53,-118.5701,40.0684,1192.43,49.00,42.00,77.26,M,5.00,0.05,29.97,1013.70,1.50,M,FEW,OVC,M,M,2800.00,4400.00,M,M,+RA,M,M,M,M,M,M,46.47,KLOL 081553Z AUTO VRB05KT 1 1/2SM +RA FEW028 OVC044 09/06 A2997 RMK AO2 LTG DSNT SE RAB17 SLP137 P0005 T00940056,M
ELY,2021-10-08 15:53,-114.8453,39.2950,1909.00,56.00,41.00,57.23,160.00,18.00,0.00,29.98,1008.00,10.00,30.00,BKN,BKN,M,M,6500.00,8000.00,M,M,M,M,M,M,30.00,140.00,2021-10-08 15:49,55.90,KELY 081553Z AUTO 16018G30KT 10SM BKN065 BKN080 13/05 A2998 RMK AO2 PK WND 14030/1549 SLP080 T01330050,M
P68,2021-10-08 15:53,-116.0056,39.6014,1993.00,53.00,41.00,63.38,0.00,0.00,0.00,29.95,1008.60,M,M,M,M,M,M,M,M,M,M,M,M,M,M,M,M,M,53.10,KP68 081553Z AUTO 00000KT 12/05 A2995 RMK AO1 SLP086 T01170050,M
DRA,2021-10-08 15:53,-116.0278,36.6206,1009.00,63.00,44.00,50.03,220.00,14.00,0.00,29.94,1010.40,10.00,M,FEW,BKN,BKN,M,6000.00,8000.00,9000.00,M,M,M,M,M,M,M,M,63.00,KDRA 081553Z AUTO 22014KT 10SM FEW060 BKN080 BKN090 17/07 A2994 RMK AO2 SLP104 T01720067,M
CXP,2021-10-08 15:55,-119.7326,39.1923,1431.00,50.00,37.40,61.76,120.00,7.00,0.00,30.01,M,10.00,M,FEW,BKN,OVC,M,4700.00,6000.00,7000.00,M,M,M,M,M,M,M,M,50.00,KCXP 081555Z AUTO 12007KT 10SM FEW047 BKN060 OVC070 10/03 A3001 RMK AO2,M
BVU,2021-10-08 15:55,-114.8611,35.9475,671.00,64.40,55.40,72.56,150.00,7.00,0.00,29.99,M,10.00,M,FEW,FEW,BKN,M,4600.00,6500.00,9500.00,M,M,M,M,M,M,M,M,64.40,KBVU 081555Z AUTO 15007KT 10SM FEW046 FEW065 BKN095 18/13 A2999 RMK AO2,M
RTS,2021-10-08 15:55,-119.8764,39.6682,1539.00,42.80,37.40,81.07,340.00,3.00,0.01,30.01,M,10.00,M,CLR,M,M,M,M,M,M,M,M,M,M,M,M,M,M,41.03,KRTS 081555Z AUTO 34003KT 10SM CLR 06/03 A3001 RMK AO2 P0001,M
MEV,2021-10-08 15:55,-119.7500,38.9963,1441.42,48.20,37.40,66.05,270.00,13.00,0.00,30.00,M,10.00,21.00,SCT,BKN,BKN,M,5500.00,6500.00,7500.00,M,M,M,M,M,M,M,M,42.32,KMEV 081555Z AUTO 27013G21KT 10SM SCT055 BKN065 BKN075 09/03 A3000 RMK AO2,M
BAM,2021-10-08 15:55,-116.8743,40.5990,1382.36,44.60,44.60,100.00,270.00,5.00,0.00,29.96,M,M,M,M,M,M,M,M,M,M,M,M,M,M,M,M,M,M,41.36,KBAM 081555Z AUTO 27005KT 07/07 A2996 RMK AO1,M
RNO,2021-10-08 15:55,-119.7711,39.4839,1341.00,46.00,38.00,73.18,310.00,8.00,T,30.00,1013.40,10.00,M,FEW,SCT,BKN,BKN,2500.00,4500.00,6000.00,14000.00,M,M,M,M,M,M,M,41.36,KRNO 081555Z 31008KT 10SM FEW025 SCT045 BKN060 BKN140 08/03 A3000 RMK AO2 RAE45 SLP134 P0000 T00780033,M
05U,2021-10-08 15:55,-116.0051,39.6042,1811.23,53.60,41.00,62.23,0.00,0.00,0.00,29.97,M,10.00,M,CLR,M,M,M,M,M,M,M,M,M,M,M,M,M,M,53.60,K05U 081555Z AUTO 00000KT 10SM CLR 12/05 A2997 RMK A01,M
TMT,2021-10-08 15:55,-117.1971,39.4643,1749.34,46.40,43.30,88.87,0.00,0.00,0.00,29.97,M,10.00,M,CLR,M,M,M,M,M,M,M,M,M,M,M,M,M,M,46.40,KTMT 081555Z AUTO 00000KT 10SM CLR 08/06 A2997 RMK AO2 LTG DSNT W T00800063,M
HTH,2021-10-08 15:55,-118.6315,38.5448,1282.89,51.80,41.00,66.48,310.00,7.00,0.00,29.97,M,3.00,M,SCT,BKN,OVC,M,3000.00,4100.00,6000.00,M,HZ,M,M,M,M,M,M,51.80,KHTH 081555Z AUTO 31007KT 3SM HZ SCT030 BKN041 OVC060 11/05 A2997 RMK A01,M
WMC,2021-10-08 15:56,-117.8072,40.9019,1315.00,44.00,42.00,92.62,250.00,12.00,0.06,30.00,1014.60,2.00,18.00,SCT,OVC,M,M,2500.00,3800.00,M,M,+RA BR,M,M,M,30.00,250.00,2021-10-08 15:24,37.40,KWMC 081556Z AUTO 25012G18KT 2SM +RA BR SCT025 OVC038 07/06 A3000 RMK AO2 PK WND 25030/1524 WSHFT 1516 LTG DSNT NW RAB23 SLP146 P0006 T00670056,M
LAS,2021-10-08 15:56,-115.1634,36.0719,663.00,66.00,54.00,65.21,0.00,0.00,0.01,29.97,1013.10,10.00,M,SCT,OVC,M,M,5500.00,9000.00,M,M,-RA,M,M,M,M,M,M,66.00,KLAS 081556Z 00000KT 10SM -RA SCT055 OVC090 19/12 A2997 RMK AO2 SLP131 P0001 T01890122,M
TPH,2021-10-08 15:56,-117.0904,38.0505,1654.00,55.00,37.00,50.58,190.00,12.00,0.00,29.98,1010.40,10.00,M,CLR,M,M,M,M,M,M,M,M,M,M,M,M,M,M,55.00,KTPH 081556Z AUTO 19012KT 10SM CLR 13/03 A2998 RMK AO2 SLP104 T01280028,M
EKO,2021-10-08 15:56,-115.7860,40.8242,1367.00,47.00,44.00,89.92,220.00,5.00,0.00,29.94,1012.30,10.00,M,OVC,M,M,M,10000.00,M,M,M,M,M,M,M,M,M,M,44.09,KEKO 081556Z AUTO 22005KT 10SM OVC100 08/07 A2994 RMK AO2 SLP123 T00830067,M
HND,2021-10-08 15:56,-115.1344,35.9729,742.79,64.00,53.00,67.66,150.00,10.00,T,29.98,1015.00,10.00,M,FEW,SCT,BKN,M,4800.00,7000.00,8500.00,M,M,M,M,M,M,M,M,64.00,KHND 081556Z 15010KT 10SM FEW048 SCT070 BKN085 18/12 A2998 RMK AO2 RAE42 SLP150 P0000 T01780117,M
NFL,2021-10-08 15:56,-118.7010,39.4166,1199.00,M,M,M,M,M,0.07,29.98,1012.50,M,M,M,M,M,M,M,M,M,M,M,M,M,M,M,M,M,M,KNFL 081556Z AUTO A2998 RMK AO2 RAE32 SLP125 P0007 PWINO,M
LSV,2021-10-08 15:57,-115.0343,36.2362,570.00,66.20,53.60,63.82,0.00,0.00,0.00,29.96,M,10.00,M,BKN,M,M,M,14000.00,M,M,M,-RA,M,M,M,M,M,M,66.20,KLSV 081557Z 00000KT 10SM -RA BKN140 19/12 A2996 RMK AO2A RAB57 SLPNO $,M
LSV,2021-10-08 15:58,-115.0343,36.2362,570.00,66.40,56.30,69.93,20.00,3.00,T,29.95,1012.50,10.00,M,BKN,M,M,M,7000.00,M,M,M,-RA,M,M,M,M,M,M,66.40,KLSV 081558Z 02003KT 10SM -RA BKN070 19/14 A2995 RMK RAB1557E02 SLP125 P0000 T01910135 $,M
INS,2021-10-08 15:58,-115.6733,36.5872,955.00,65.00,45.30,49.00,120.00,28.00,0.00,29.92,1009.50,10.00,32.00,SCT,BKN,M,M,7500.00,9000.00,M,M,M,M,M,M,M,M,M,64.90,KINS 081558Z AUTO 12028G32KT 10SM SCT075 BKN090 18/07 A2992 RMK AO2 SLP095 T01830074 $,M
LOL,2021-10-08 16:06,-118.5701,40.0684,1192.43,48.00,45.00,89.29,80.00,5.00,0.04,29.98,M,3.00,M,SCT,OVC,M,M,3200.00,4200.00,M,M,RA BR,M,M,M,M,M,M,45.40,KLOL 081606Z AUTO 08005KT 3SM RA BR SCT032 OVC042 09/07 A2998 RMK AO2 LTG DSNT SE AND S P0004 T00890072,M
NFL,2021-10-08 16:12,-118.7010,39.4166,1199.00,45.00,25.00,45.12,M,6.00,0.00,29.99,M,5.00,M,FEW,BKN,BKN,OVC,1000.00,4000.00,7000.00,13000.00,-RA,M,M,M,M,M,M,41.19,KNFL 081612Z VRB06KT 5SM -RA FEW010 BKN040 BKN070 OVC130 07/M04 A2999 RMK AO2 RAB12 TS DSNT NE MOV NE T00721039,M
INS,2021-10-08 16:13,-115.6733,36.5872,955.00,64.40,46.40,51.98,110.00,24.00,0.00,29.91,1009.20,10.00,31.00,SCT,M,M,M,8000.00,M,M,M,M,M,M,M,M,M,M,64.40,KINS 081613Z AUTO 11024G31KT 10SM SCT080 18/08 A2991 RMK AO2 SLP092 $,M
CXP,2021-10-08 16:15,-119.7326,39.1923,1431.00,50.00,37.40,61.76,120.00,4.00,0.00,30.01,M,10.00,M,BKN,OVC,M,M,4300.00,7000.00,M,M,M,M,M,M,M,M,M,50.00,KCXP 081615Z AUTO 12004KT 10SM BKN043 OVC070 10/03 A3001 RMK AO2,M
BAM,2021-10-08 16:15,-116.8743,40.5990,1382.36,46.40,46.40,100.00,230.00,4.00,0.00,29.96,M,7.00,M,SCT,BKN,OVC,M,800.00,3000.00,5000.00,M,M,M,M,M,M,M,M,44.24,KBAM 081615Z AUTO 23004KT 7SM SCT008 BKN030 OVC050 08/08 A2996 RMK AO1,M
MEV,2021-10-08 16:15,-119.7500,38.9963,1441.42,48.20,37.40,66.05,300.00,13.00,0.00,30.00,M,10.00,M,SCT,BKN,BKN,M,5500.00,6500.00,8000.00,M,M,M,M,M,M,M,M,42.32,KMEV 081615Z AUTO 30013KT 10SM SCT055 BKN065 BKN080 09/03 A3000 RMK AO2,M
05U,2021-10-08 16:15,-116.0051,39.6042,1811.23,57.20,37.40,47.44,M,4.00,0.00,29.96,M,10.00,M,BKN,M,M,M,4700.00,M,M,M,M,M,M,M,M,M,M,57.20,K05U 081615Z AUTO VRB04KT 10SM BKN047 14/03 A2996 RMK A01,M
RTS,2021-10-08 16:15,-119.8764,39.6682,1539.00,42.80,37.40,81.07,120.00,5.00,0.00,30.01,M,10.00,M,CLR,M,M,M,M,M,M,M,M,M,M,M,M,M,M,39.22,KRTS 081615Z AUTO 12005KT 10SM CLR 06/03 A3001 RMK AO2,M
WMC,2021-10-08 16:15,-117.8072,40.9019,1315.00,45.00,43.00,92.65,270.00,8.00,0.07,30.00,M,3.00,M,FEW,OVC,M,M,2400.00,3600.00,M,M,RA BR,M,M,M,M,M,M,40.13,KWMC 081615Z AUTO 27008KT 3SM RA BR FEW024 OVC036 07/06 A3000 RMK AO2 P0007 T00720061,M
BVU,2021-10-08 16:15,-114.8611,35.9475,671.00,64.40,55.40,72.56,220.00,8.00,0.00,29.99,M,10.00,M,CLR,M,M,M,M,M,M,M,M,M,M,M,M,M,M,64.40,KBVU 081615Z AUTO 22008KT 10SM CLR 18/13 A2999 RMK AO2,M
HTH,2021-10-08 16:15,-118.6315,38.5448,1282.89,51.80,44.60,76.34,320.00,10.00,0.00,29.98,M,3.00,M,FEW,BKN,OVC,M,2800.00,3500.00,4400.00,M,HZ,M,M,M,M,M,M,51.80,KHTH 081615Z AUTO 32010KT 3SM HZ FEW028 BKN035 OVC044 11/07 A2998 RMK A01,M
TMT,2021-10-08 16:15,-117.1971,39.4643,1749.34,46.80,44.00,90.26,0.00,0.00,0.00,29.96,M,10.00,M,CLR,M,M,M,M,M,M,M,VCTS,M,M,M,M,M,M,46.80,KTMT 081615Z AUTO 00000KT 10SM VCTS CLR 08/07 A2996 RMK AO2 LTG DSNT NE AND NW T00820067,M
INS,2021-10-08 16:28,-115.6733,36.5872,955.00,62.60,48.20,59.26,110.00,27.00,0.00,29.91,1009.40,10.00,33.00,BKN,M,M,M,8500.00,M,M,M,M,M,M,M,M,M,M,62.60,KINS 081628Z AUTO 11027G33KT 10SM BKN085 17/09 A2991 RMK AO2 SLP094 $,M
WMC,2021-10-08 16:30,-117.8072,40.9019,1315.00,45.00,43.00,92.65,280.00,5.00,0.13,30.00,M,2.50,M,OVC,M,M,M,3400.00,M,M,M,+RA BR,M,M,M,M,M,M,41.83,KWMC 081630Z AUTO 28005KT 2 1/2SM +RA BR OVC034 07/06 A3000 RMK AO2 P0013 T00720061,M
MEV,2021-10-08 16:35,-119.7500,38.9963,1441.42,50.00,37.40,61.76,290.00,8.00,0.00,30.00,M,10.00,M,SCT,BKN,OVC,M,4800.00,5500.00,9000.00,M,M,M,M,M,M,M,M,50.00,KMEV 081635Z AUTO 29008KT 10SM SCT048 BKN055 OVC090 10/03 A3000 RMK AO2,M
BAM,2021-10-08 16:35,-116.8743,40.5990,1382.36,46.40,46.40,100.00,0.00,0.00,0.00,29.95,M,10.00,M,SCT,BKN,OVC,M,1300.00,8500.00,11000.00,M,M,M,M,M,M,M,M,46.40,KBAM 081635Z AUTO 00000KT 10SM SCT013 BKN085 OVC110 08/08 A2995 RMK AO1,M
RTS,2021-10-08 16:35,-119.8764,39.6682,1539.00,44.60,37.40,75.68,280.00,3.00,0.00,30.01,M,10.00,10.00,CLR,M,M,M,M,M,M,M,M,M,M,M,M,M,M,43.09,KRTS 081635Z AUTO 28003G10KT 10SM CLR 07/03 A3001 RMK AO2,M
05U,2021-10-08 16:35,-116.0051,39.6042,1811.23,59.00,37.40,44.47,170.00,12.00,0.00,29.96,M,10.00,M,SCT,M,M,M,4600.00,M,M,M,M,M,M,M,M,M,M,59.00,K05U 081635Z AUTO 17012KT 10SM SCT046 15/03 A2996 RMK A01,M
TMT,2021-10-08 16:35,-117.1971,39.4643,1749.34,47.00,43.00,85.57,0.00,0.00,0.00,29.96,M,10.00,M,SCT,M,M,M,11000.00,M,M,M,VCTS,M,M,M,M,M,M,47.10,KTMT 081635Z AUTO 00000KT 10SM VCTS SCT110 08/06 A2996 RMK AO2 LTG DSNT N AND NW T00840061,M
BVU,2021-10-08 16:35,-114.8611,35.9475,671.00,64.40,55.40,72.56,180.00,4.00,0.00,29.98,M,10.00,M,SCT,M,M,M,9000.00,M,M,M,-RA,M,M,M,M,M,M,64.40,KBVU 081635Z AUTO 18004KT 10SM -RA SCT090 18/13 A2998 RMK AO2,M
HTH,2021-10-08 16:35,-118.6315,38.5448,1282.89,50.00,44.60,81.61,50.00,5.00,0.00,29.99,M,M,M,FEW,SCT,BKN,M,2400.00,3000.00,3500.00,M,HZ,M,M,M,M,M,M,50.00,KHTH 081635Z AUTO 05005KT HZ FEW024 SCT030 BKN035 10/07 A2999 RMK A01,M
CXP,2021-10-08 16:35,-119.7326,39.1923,1431.00,51.80,37.40,57.77,M,4.00,0.00,30.01,M,10.00,M,SCT,BKN,OVC,M,4200.00,5000.00,11000.00,M,M,M,M,M,M,M,M,51.80,KCXP 081635Z AUTO VRB04KT 10SM SCT042 BKN050 OVC110 11/03 A3001 RMK AO2,M
INS,2021-10-08 16:38,-115.6733,36.5872,955.00,62.60,50.00,63.38,110.00,26.00,0.00,29.91,1009.40,10.00,33.00,SCT,M,M,M,8500.00,M,M,M,M,M,M,M,M,M,M,62.60,KINS 081638Z AUTO 11026G33KT 10SM SCT085 17/10 A2991 RMK AO2 SLP094 $,M
VGT,2021-10-08 16:53,-115.1933,36.2111,667.00,66.00,56.00,69.88,90.00,6.00,T,29.95,1014.20,10.00,M,SCT,OVC,M,M,7000.00,9000.00,M,M,-RA,M,M,M,M,M,M,66.00,KVGT 081653Z 09006KT 10SM -RA SCT070 OVC090 19/13 A2995 RMK AO2 SLP142 P0000 T01890133,M
ELY,2021-10-08 16:53,-114.8453,39.2950,1909.00,59.00,39.00,47.35,160.00,23.00,0.00,29.96,1007.00,10.00,34.00,SCT,BKN,M,M,6000.00,8000.00,M,M,M,M,M,M,35.00,150.00,2021-10-08 16:38,59.00,KELY 081653Z AUTO 16023G34KT 10SM SCT060 BKN080 15/04 A2996 RMK AO2 PK WND 15035/1638 SLP070 T01500039,M
LOL,2021-10-08 16:53,-118.5701,40.0684,1192.43,46.00,44.00,93.03,100.00,4.00,0.13,30.00,1014.60,7.00,M,OVC,M,M,M,4200.00,M,M,M,-RA,M,M,M,M,M,M,43.77,KLOL 081653Z AUTO 10004KT 7SM -RA OVC042 08/07 A3000 RMK AO2 LTG DSNT E SLP146 P0013 T00780067,M
DRA,2021-10-08 16:53,-116.0278,36.6206,1009.00,65.00,45.00,48.44,220.00,15.00,0.00,29.96,1010.80,10.00,21.00,FEW,BKN,OVC,M,4400.00,7000.00,8500.00,M,M,M,M,M,M,M,M,64.90,KDRA 081653Z AUTO 22015G21KT 10SM FEW044 BKN070 OVC085 18/07 A2996 RMK AO2 SLP108 T01830072,M
P68,2021-10-08 16:53,-116.0056,39.6014,1993.00,58.00,36.00,43.78,200.00,10.00,0.00,29.92,1007.60,M,19.00,M,M,M,M,M,M,M,M,M,M,M,M,M,M,M,57.90,KP68 081653Z AUTO 20010G19KT 14/02 A2992 RMK AO1 SLP076 T01440022,M
BVU,2021-10-08 16:55,-114.8611,35.9475,671.00,66.20,53.60,63.82,190.00,10.00,0.00,29.98,M,10.00,M,FEW,BKN,M,M,6000.00,10000.00,M,M,M,M,M,M,M,M,M,66.20,KBVU 081655Z AUTO 19010KT 10SM FEW060 BKN100 19/12 A2998 RMK AO2,M
RTS,2021-10-08 16:55,-119.8764,39.6682,1539.00,46.40,37.40,70.68,330.00,7.00,0.00,30.01,M,10.00,13.00,CLR,M,M,M,M,M,M,M,M,M,M,M,M,M,M,42.33,KRTS 081655Z AUTO 33007G13KT 10SM CLR 08/03 A3001 RMK AO2,M
BAM,2021-10-08 16:55,-116.8743,40.5990,1382.36,46.40,46.40,100.00,350.00,4.00,0.00,29.93,M,10.00,M,BKN,OVC,M,M,9000.00,11000.00,M,M,M,M,M,M,M,M,M,44.24,KBAM 081655Z AUTO 35004KT 10SM BKN090 OVC110 08/08 A2993 RMK AO1,M
HTH,2021-10-08 16:55,-118.6315,38.5448,1282.89,50.00,46.40,87.37,110.00,9.00,0.06,29.99,M,6.00,M,FEW,FEW,FEW,M,3000.00,3600.00,4800.00,M,HZ,M,M,M,M,M,M,50.00,KHTH 081655Z AUTO 11009KT 6SM HZ FEW030 FEW036 FEW048 10/08 A2999 RMK A01 P0006,M
MEV,2021-10-08 16:55,-119.7500,38.9963,1441.42,53.60,35.60,50.36,190.00,7.00,0.00,29.99,M,10.00,M,FEW,FEW,SCT,M,5500.00,6500.00,8500.00,M,M,M,M,M,M,M,M,53.60,KMEV 081655Z AUTO 19007KT 10SM FEW055 FEW065 SCT085 12/02 A2999 RMK AO2 LTG DSNT NE,M
RNO,2021-10-08 16:55,-119.7711,39.4839,1341.00,48.00,40.00,73.38,230.00,6.00,0.00,30.00,1013.20,10.00,M,FEW,SCT,BKN,BKN,4500.00,6000.00,8000.00,13000.00,M,M,M,M,M,M,M,44.80,KRNO 081655Z 23006KT 10SM FEW045 SCT060 BKN080 BKN130 09/04 A3000 RMK AO2 SLP132 ACSL DSNT ALQDS MTN TOPS OBSCD DSNT S THRU W T00890044,M
05U,2021-10-08 16:55,-116.0051,39.6042,1811.23,59.00,35.60,41.42,200.00,8.00,0.00,29.95,M,10.00,13.00,FEW,M,M,M,4800.00,M,M,M,M,M,M,M,M,M,M,59.00,K05U 081655Z AUTO 20008G13KT 10SM FEW048 15/02 A2995 RMK A01,M
TMT,2021-10-08 16:55,-117.1971,39.4643,1749.34,48.60,43.30,81.82,0.00,0.00,0.00,29.97,M,10.00,M,BKN,M,M,M,11000.00,M,M,M,VCTS,M,M,M,M,M,M,48.60,KTMT 081655Z AUTO 00000KT 10SM VCTS BKN110 09/06 A2997 RMK AO2 LTG DSNT NW THRU NE T00920063,M
CXP,2021-10-08 16:55,-119.7326,39.1923,1431.00,53.60,35.60,50.36,M,4.00,0.00,30.01,M,10.00,M,SCT,BKN,BKN,M,4200.00,5000.00,7000.00,M,M,M,M,M,M,M,M,53.60,KCXP 081655Z AUTO VRB04KT 10SM SCT042 BKN050 BKN070 12/02 A3001 RMK AO2 LTG DSNT NE,M
HND,2021-10-08 16:56,-115.1344,35.9729,742.79,66.00,53.00,63.10,180.00,11.00,T,29.99,1015.10,10.00,M,FEW,SCT,BKN,M,5000.00,7000.00,9000.00,M,M,M,M,M,M,M,M,66.00,KHND 081656Z 18011KT 10SM FEW050 SCT070 BKN090 19/12 A2999 RMK AO2 RAB1557E24 SLP151 P0000 T01890117,M
LAS,2021-10-08 16:56,-115.1634,36.0719,663.00,66.00,55.00,67.64,340.00,5.00,T,29.97,1013.00,10.00,M,FEW,FEW,OVC,M,4700.00,6500.00,9000.00,M,M,M,M,M,M,M,M,66.00,KLAS 081656Z 34005KT 10SM FEW047 FEW065 OVC090 19/13 A2997 RMK AO2 RAE05 SLP130 P0000 T01890128,M
WMC,2021-10-08 16:56,-117.8072,40.9019,1315.00,45.00,43.00,92.65,300.00,3.00,0.22,29.99,1014.30,2.50,M,FEW,OVC,M,M,2800.00,3600.00,M,M,RA BR,M,M,M,M,M,M,43.55,KWMC 081656Z AUTO 30003KT 2 1/2SM RA BR FEW028 OVC036 07/06 A2999 RMK AO2 SLP143 P0022 T00720061,M
TPH,2021-10-08 16:56,-117.0904,38.0505,1654.00,56.00,35.00,45.40,220.00,17.00,0.00,29.97,1010.50,10.00,22.00,CLR,M,M,M,M,M,M,M,M,M,M,M,M,M,M,55.90,KTPH 081656Z AUTO 22017G22KT 10SM CLR 13/02 A2997 RMK AO2 SLP105 T01330017,M
NFL,2021-10-08 16:56,-118.7010,39.4166,1199.00,45.00,25.00,45.12,M,6.00,0.00,30.00,1012.90,6.00,M,SCT,BKN,BKN,OVC,1000.00,4000.00,7000.00,13000.00,HZ,M,M,M,M,M,M,41.19,KNFL 081656Z AUTO VRB06KT 6SM HZ SCT010 BKN040 BKN070 OVC130 07/M04 A3000 RMK AO2 RAB12E32 SLP129 TS DSNT NE MOV NE T00721039 PWINO,M
EKO,2021-10-08 16:56,-115.7860,40.8242,1367.00,51.00,45.00,79.54,0.00,0.00,0.00,29.92,1011.00,10.00,M,FEW,BKN,M,M,7500.00,11000.00,M,M,M,M,M,M,M,M,M,51.10,KEKO 081656Z AUTO 00000KT 10SM FEW075 BKN110 11/07 A2992 RMK AO2 SLP110 T01060072,M
INS,2021-10-08 16:58,-115.6733,36.5872,955.00,63.50,48.40,57.84,100.00,17.00,0.00,29.92,1009.50,10.00,28.00,SCT,M,M,M,8000.00,M,M,M,M,M,M,M,33.00,100.00,2021-10-08 16:19,63.50,KINS 081658Z AUTO 10017G28KT 10SM SCT080 18/09 A2992 RMK AO2 PK WND 10033/19 SLP095 T01750091 $,M
LSV,2021-10-08 16:58,-115.0343,36.2362,570.00,67.80,53.80,60.83,0.00,0.00,0.00,29.97,M,10.00,M,BKN,BKN,M,M,5000.00,6000.00,M,M,-RA,M,M,M,M,M,M,67.80,KLSV 081658Z COR 00000KT 10SM -RA BKN050 BKN060 20/12 A2997 RMK SLPNO 60001 T01990121 10257 20189 52011 $ COR 1742,M
WMC,2021-10-08 17:05,-117.8072,40.9019,1315.00,46.00,44.00,93.03,300.00,3.00,0.01,29.99,M,4.00,M,FEW,BKN,OVC,M,2800.00,3500.00,4700.00,M,-RA BR,M,M,M,M,M,M,44.69,KWMC 081705Z AUTO 30003KT 4SM -RA BR FEW028 BKN035 OVC047 08/07 A2999 RMK AO2 P0001 T00780067,M
BAM,2021-10-08 17:15,-116.8743,40.5990,1382.36,46.40,46.40,100.00,0.00,0.00,0.00,29.95,M,10.00,M,SCT,OVC,M,M,7500.00,9000.00,M,M,M,M,M,M,M,M,M,46.40,KBAM 081715Z AUTO 00000KT 10SM SCT075 OVC090 08/08 A2995 RMK AO1,M
RTS,2021-10-08 17:15,-119.8764,39.6682,1539.00,46.40,37.40,70.68,290.00,7.00,0.00,30.02,M,10.00,M,SCT,M,M,M,8500.00,M,M,M,M,M,M,M,M,M,M,42.33,KRTS 081715Z AUTO 29007KT 10SM SCT085 08/03 A3002 RMK AO2,M
HTH,2021-10-08 17:15,-118.6315,38.5448,1282.89,51.80,42.80,71.26,120.00,7.00,0.00,29.99,M,10.00,M,CLR,M,M,M,M,M,M,M,M,M,M,M,M,M,M,51.80,KHTH 081715Z AUTO 12007KT 10SM CLR 11/06 A2999 RMK A01,M
BVU,2021-10-08 17:15,-114.8611,35.9475,671.00,64.40,55.40,72.56,230.00,6.00,0.00,29.98,M,10.00,M,OVC,M,M,M,10000.00,M,M,M,M,M,M,M,M,M,M,64.40,KBVU 081715Z AUTO 23006KT 10SM OVC100 18/13 A2998 RMK AO2,M
CXP,2021-10-08 17:15,-119.7326,39.1923,1431.00,51.80,35.60,53.81,M,4.00,0.00,30.01,M,10.00,M,FEW,SCT,M,M,4200.00,5000.00,M,M,M,M,M,M,M,M,M,51.80,KCXP 081715Z AUTO VRB04KT 10SM FEW042 SCT050 11/02 A3001 RMK AO2,M
05U,2021-10-08 17:15,-116.0051,39.6042,1811.23,60.80,33.80,36.16,160.00,11.00,0.00,29.94,M,10.00,M,SCT,M,M,M,6000.00,M,M,M,M,M,M,M,M,M,M,60.80,K05U 081715Z AUTO 16011KT 10SM SCT060 16/01 A2994 RMK A01,M
MEV,2021-10-08 17:15,-119.7500,38.9963,1441.42,55.40,35.60,47.16,150.00,7.00,0.00,30.00,M,10.00,M,FEW,M,M,M,9000.00,M,M,M,M,M,M,M,M,M,M,55.40,KMEV 081715Z AUTO 15007KT 10SM FEW090 13/02 A3000 RMK AO2,M
TMT,2021-10-08 17:15,-117.1971,39.4643,1749.34,50.20,44.20,79.78,0.00,0.00,0.00,29.97,M,10.00,M,BKN,OVC,M,M,6500.00,11000.00,M,M,TS,M,M,M,M,M,M,50.20,KTMT 081715Z AUTO 00000KT 10SM TS BKN065 OVC110 10/07 A2997 RMK AO2 LTG DSNT N T01010068,M
WMC,2021-10-08 17:28,-117.8072,40.9019,1315.00,47.00,44.00,89.92,0.00,0.00,0.02,29.99,M,10.00,M,SCT,SCT,OVC,M,800.00,2900.00,3700.00,M,M,M,M,M,M,M,M,46.90,KWMC 081728Z AUTO 00000KT 10SM SCT008 SCT029 OVC037 08/07 A2999 RMK AO2 RAE20 P0002 T00830067,M
BAM,2021-10-08 17:35,-116.8743,40.5990,1382.36,48.20,48.20,100.00,340.00,5.00,0.00,29.95,M,10.00,M,BKN,BKN,OVC,M,500.00,1400.00,9000.00,M,M,M,M,M,M,M,M,45.63,KBAM 081735Z AUTO 34005KT 10SM BKN005 BKN014 OVC090 09/09 A2995 RMK AO1,M
CXP,2021-10-08 17:35,-119.7326,39.1923,1431.00,55.40,33.80,43.90,M,4.00,0.00,30.00,M,10.00,M,FEW,SCT,M,M,5000.00,11000.00,M,M,M,M,M,M,M,M,M,55.40,KCXP 081735Z AUTO VRB04KT 10SM FEW050 SCT110 13/01 A3000 RMK AO2,M
MEV,2021-10-08 17:35,-119.7500,38.9963,1441.42,55.40,33.80,43.90,M,5.00,0.00,29.99,M,10.00,M,FEW,M,M,M,4500.00,M,M,M,M,M,M,M,M,M,M,55.40,KMEV 081735Z AUTO VRB05KT 10SM FEW045 13/01 A2999 RMK AO2,M
05U,2021-10-08 17:35,-116.0051,39.6042,1811.23,60.80,33.80,36.16,160.00,12.00,0.00,29.94,M,10.00,M,SCT,BKN,M,M,5500.00,12000.00,M,M,M,M,M,M,M,M,M,60.80,K05U 081735Z AUTO 16012KT 10SM SCT055 BKN120 16/01 A2994 RMK A01,M
HTH,2021-10-08 17:35,-118.6315,38.5448,1282.89,51.80,42.80,71.26,110.00,7.00,0.00,30.00,M,10.00,M,CLR,M,M,M,M,M,M,M,M,M,M,M,M,M,M,51.80,KHTH 081735Z AUTO 11007KT 10SM CLR 11/06 A3000 RMK A01,M
RTS,2021-10-08 17:35,-119.8764,39.6682,1539.00,48.20,35.60,61.52,260.00,8.00,0.00,30.01,M,10.00,M,BKN,M,M,M,8000.00,M,M,M,M,M,M,M,M,M,M,44.07,KRTS 081735Z AUTO 26008KT 10SM BKN080 09/02 A3001 RMK AO2,M
TMT,2021-10-08 17:35,-117.1971,39.4643,1749.34,49.60,44.40,82.20,270.00,3.00,0.01,29.97,M,10.00,M,OVC,M,M,M,6500.00,M,M,M,-RA,M,M,M,M,M,M,48.81,KTMT 081735Z AUTO 27003KT 10SM -RA OVC065 10/07 A2997 RMK AO2 LTG DSNT N AND E P0001 T00980069,M
LSV,2021-10-08 17:39,-115.0343,36.2362,570.00,66.20,57.20,72.74,0.00,0.00,0.00,29.98,1013.60,10.00,M,SCT,BKN,M,M,4900.00,7000.00,M,M,-DZ,M,M,M,M,M,M,66.20,KLSV 081739Z AUTO 00000KT 10SM -DZ SCT049 BKN070 19/14 A2998 RMK AO2 RAE1658RAB18E37DZB38 SLP136 $,M
P68,2021-10-08 17:53,-116.0056,39.6014,1993.00,61.00,34.00,36.19,180.00,11.00,0.00,29.91,1007.20,M,19.00,M,M,M,M,M,M,M,M,M,M,M,M,M,M,M,61.00,KP68 081753Z AUTO 18011G19KT 16/01 A2991 RMK AO1 SLP072 T01610011 10161 20033 58013,M
DRA,2021-10-08 17:53,-116.0278,36.6206,1009.00,66.00,45.00,46.62,180.00,18.00,0.00,29.96,1011.00,10.00,26.00,BKN,BKN,M,M,4000.00,4700.00,M,M,M,M,M,M,26.00,190.00,2021-10-08 17:53,66.00,KDRA 081753Z AUTO 18018G26KT 10SM BKN040 BKN047 19/07 A2996 RMK AO2 PK WND 19026/1753 SLP110 T01890072 10200 20172 51007,M
VGT,2021-10-08 17:53,-115.1933,36.2111,667.00,65.00,57.00,75.56,100.00,4.00,T,29.97,1015.10,10.00,M,FEW,BKN,OVC,M,4800.00,6500.00,8000.00,M,-RA,M,M,M,M,M,M,64.90,KVGT 081753Z 10004KT 10SM -RA FEW048 BKN065 OVC080 18/14 A2997 RMK AO2 SLP151 P0000 60000 T01830139 10250 20183 53010,M
LOL,2021-10-08 17:53,-118.5701,40.0684,1192.43,47.00,45.00,93.06,90.00,6.00,0.11,29.99,1014.20,10.00,M,SCT,OVC,M,M,5000.00,7000.00,M,M,M,M,M,M,M,M,M,43.48,KLOL 081753Z AUTO 09006KT 10SM SCT050 OVC070 08/07 A2999 RMK AO2 RAE51 SLP142 P0011 60029 T00830072 10117 20078 50015,M
ELY,2021-10-08 17:53,-114.8453,39.2950,1909.00,59.00,36.00,42.08,180.00,18.00,0.00,29.94,1006.70,10.00,34.00,BKN,M,M,M,6000.00,M,M,M,M,M,M,M,36.00,170.00,2021-10-08 17:27,59.00,KELY 081753Z AUTO 18018G34KT 10SM BKN060 15/02 A2994 RMK AO2 PK WND 17036/1727 SLP067 T01500022 10161 20106 58014,M
BAM,2021-10-08 17:55,-116.8743,40.5990,1382.36,50.00,50.00,100.00,340.00,11.00,0.00,29.95,M,10.00,M,BKN,BKN,OVC,M,700.00,1800.00,6500.00,M,M,M,M,M,M,M,M,50.00,KBAM 081755Z AUTO 34011KT 10SM BKN007 BKN018 OVC065 10/10 A2995 RMK AO1,M
MEV,2021-10-08 17:55,-119.7500,38.9963,1441.42,55.40,33.80,43.90,340.00,7.00,0.00,29.99,M,10.00,M,SCT,SCT,M,M,4700.00,5500.00,M,M,M,M,M,M,M,M,M,55.40,KMEV 081755Z AUTO 34007KT 310V010 10SM SCT047 SCT055 13/01 A2999 RMK AO2 LTG DSNT E,M
TMT,2021-10-08 17:55,-117.1971,39.4643,1749.34,50.00,44.40,80.99,310.00,4.00,0.01,29.97,M,5.00,M,OVC,M,M,M,6000.00,M,M,M,VCTS HZ,M,M,M,M,M,M,50.00,KTMT 081755Z AUTO 31004KT 5SM VCTS HZ OVC060 10/07 A2997 RMK AO2 P0001 60001 T01000069 10101 20015,M
HTH,2021-10-08 17:55,-118.6315,38.5448,1282.89,53.60,42.80,66.70,110.00,5.00,0.00,30.00,M,10.00,M,CLR,M,M,M,M,M,M,M,M,M,M,M,M,M,M,53.60,KHTH 081755Z AUTO 11005KT 10SM CLR 12/06 A3000 RMK A01,M
05U,2021-10-08 17:55,-116.0051,39.6042,1811.23,62.60,32.00,31.56,180.00,12.00,0.00,29.94,M,10.00,M,OVC,M,M,M,12000.00,M,M,M,M,M,M,M,M,M,M,62.60,K05U 081755Z AUTO 18012KT 10SM OVC120 17/00 A2994 RMK A01,M
RTS,2021-10-08 17:55,-119.8764,39.6682,1539.00,48.20,35.60,61.52,M,6.00,0.00,30.02,M,10.00,M,FEW,M,M,M,8000.00,M,M,M,M,M,M,M,M,M,M,45.04,KRTS 081755Z AUTO VRB06KT 10SM FEW080 09/02 A3002 RMK AO2,M
RNO,2021-10-08 17:55,-119.7711,39.4839,1341.00,54.00,37.00,52.45,M,3.00,0.00,29.99,1012.60,10.00,M,FEW,FEW,SCT,BKN,5000.00,8000.00,10000.00,14000.00,M,M,M,M,M,M,M,54.00,KRNO 081755Z VRB03KT 10SM FEW050 FEW080 SCT100 BKN140 12/03 A2999 RMK AO2 SLP126 ACSL DSNT ALQDS MTN TOPS OBSCD DSNT S THRU SW 60009 T01220028 10122 20067 58001,M
BVU,2021-10-08 17:55,-114.8611,35.9475,671.00,68.00,53.60,59.97,150.00,4.00,0.00,30.00,M,10.00,M,SCT,SCT,M,M,8500.00,12000.00,M,M,M,M,M,M,M,M,M,68.00,KBVU 081755Z AUTO 15004KT 10SM SCT085 SCT120 20/12 A3000 RMK AO2,M
CXP,2021-10-08 17:55,-119.7326,39.1923,1431.00,55.40,30.20,37.97,M,4.00,0.00,30.01,M,10.00,M,FEW,SCT,SCT,M,5000.00,9500.00,11000.00,M,M,M,M,M,M,M,M,55.40,KCXP 081755Z AUTO VRB04KT 10SM FEW050 SCT095 SCT110 13/M01 A3001 RMK AO2 LTG DSNT E,M
LAS,2021-10-08 17:56,-115.1634,36.0719,663.00,66.00,57.00,72.72,0.00,0.00,0.01,29.98,1013.60,7.00,M,FEW,BKN,OVC,M,4400.00,6000.00,8500.00,M,-RA,M,M,M,M,M,M,66.00,KLAS 081756Z 00000KT 7SM -RA FEW044 BKN060 OVC085 19/14 A2998 RMK AO2 RAB09 SLP136 P0001 60005 T01890139 10239 20183 52008,M
EKO,2021-10-08 17:56,-115.7860,40.8242,1367.00,58.00,45.00,62.07,M,3.00,0.00,29.90,1009.70,10.00,M,CLR,M,M,M,M,M,M,M,M,M,M,M,M,M,M,57.90,KEKO 081756Z AUTO VRB03KT 10SM CLR 14/07 A2990 RMK AO2 SLP097 T01440072 10144 20067 58014,M
HND,2021-10-08 17:56,-115.1344,35.9729,742.79,66.00,55.00,67.64,200.00,10.00,T,30.01,1015.90,10.00,M,FEW,BKN,OVC,M,3300.00,5500.00,7000.00,M,-RA,M,M,M,M,M,M,66.00,KHND 081756Z 20010KT 10SM -RA FEW033 BKN055 OVC070 19/13 A3001 RMK AO2 RAB08E26B49 SLP159 P0000 60003 T01890128 10206 20167 53006,M
TPH,2021-10-08 17:56,-117.0904,38.0505,1654.00,59.00,34.00,38.87,210.00,15.00,0.00,29.97,1010.20,10.00,M,CLR,M,M,M,M,M,M,M,M,M,M,M,M,M,M,59.00,KTPH 081756Z AUTO 21015KT 10SM CLR 15/01 A2997 RMK AO2 SLP102 T01500011 10150 20039 58000,M
NFL,2021-10-08 17:56,-118.7010,39.4166,1199.00,46.00,26.10,45.47,M,5.00,0.00,30.00,1012.80,10.00,M,SCT,SCT,BKN,BKN,1000.00,3000.00,7000.00,13000.00,M,M,M,M,M,M,M,43.02,KNFL 081756Z VRB05KT 10SM SCT010 SCT030 BKN070 BKN130 BKN180 08/M03 A3000 RMK AO2 SLP128 6//// T00781033 50009,M
WMC,2021-10-08 17:56,-117.8072,40.9019,1315.00,47.00,43.00,86.21,90.00,3.00,0.02,29.98,1013.60,10.00,M,SCT,OVC,M,M,900.00,5500.00,M,M,-RA,M,M,M,M,M,M,45.72,KWMC 081756Z AUTO 09003KT 10SM -RA SCT009 OVC055 08/06 A2998 RMK AO2 RAE20B48 SLP136 P0002 60030 T00830061 10094 20067 50016,M
LSV,2021-10-08 17:58,-115.0343,36.2362,570.00,66.40,56.00,68.92,0.00,0.00,0.03,29.98,1013.50,8.00,M,FEW,SCT,SCT,M,4000.00,4900.00,6500.00,M,RA,M,M,M,M,M,M,66.40,KLSV 081758Z AUTO 00000KT 8SM RA FEW040 SCT049 SCT065 19/13 A2998 RMK AO2 RAE1658RAB18E37DZB38E46RAB46 SLP135 P0003 60004 T01910133 10254 20189 50008 $,M
INS,2021-10-08 17:58,-115.6733,36.5872,955.00,65.00,51.00,60.90,80.00,24.00,0.00,29.94,1010.20,10.00,31.00,FEW,SCT,BKN,M,4700.00,9000.00,20000.00,M,M,M,M,M,31.00,100.00,2021-10-08 17:54,64.90,KINS 081758Z AUTO 08024G31KT 10SM FEW047 SCT090 BKN200 18/11 A2994 RMK AO2 PK WND 10031/54 SLP102 T01830106 10223 20171 53005 $,M
INS,2021-10-08 17:59,-115.6733,36.5872,955.00,64.40,51.80,63.60,80.00,22.00,0.00,29.94,1010.20,10.00,31.00,FEW,SCT,SCT,BKN,4900.00,8000.00,9500.00,20000.00,M,M,M,M,M,M,M,64.40,KINS 081759Z AUTO 08022G31KT 10SM FEW049 SCT080 SCT095 BKN200 18/11 A2994 RMK AO2 WSHFT 44 SLP102 $,M
INS,2021-10-08 18:14,-115.6733,36.5872,955.00,64.40,51.80,63.60,80.00,21.00,0.00,29.95,1010.50,10.00,31.00,FEW,SCT,BKN,M,3900.00,4700.00,8000.00,M,M,M,M,M,M,M,M,64.40,KINS 081814Z AUTO 08021G31KT 10SM FEW039 SCT047 BKN080 18/11 A2995 RMK AO2 SLP105 $,M
BAM,2021-10-08 18:15,-116.8743,40.5990,1382.36,50.00,50.00,100.00,350.00,16.00,0.00,29.95,M,10.00,21.00,BKN,BKN,OVC,M,900.00,1700.00,2600.00,M,M,M,M,M,M,M,M,50.00,KBAM 081815Z AUTO 35016G21KT 10SM BKN009 BKN017 OVC026 10/10 A2995 RMK AO1,M
BVU,2021-10-08 18:15,-114.8611,35.9475,671.00,66.20,55.40,68.15,150.00,12.00,0.00,29.99,M,10.00,M,FEW,SCT,BKN,M,4900.00,5500.00,7000.00,M,M,M,M,M,M,M,M,66.20,KBVU 081815Z AUTO 15012KT 10SM FEW049 SCT055 BKN070 19/13 A2999 RMK AO2,M
CXP,2021-10-08 18:15,-119.7326,39.1923,1431.00,55.40,30.20,37.97,M,5.00,0.00,30.00,M,10.00,M,BKN,BKN,OVC,M,4900.00,5500.00,9000.00,M,M,M,M,M,M,M,M,55.40,KCXP 081815Z AUTO VRB05KT 10SM BKN049 BKN055 OVC090 13/M01 A3000 RMK AO2,M
RTS,2021-10-08 18:15,-119.8764,39.6682,1539.00,50.00,37.40,61.76,310.00,8.00,0.00,30.01,M,10.00,M,SCT,SCT,M,M,3100.00,8000.00,M,M,M,M,M,M,M,M,M,50.00,KRTS 081815Z AUTO 31008KT 10SM SCT031 SCT080 10/03 A3001 RMK AO2,M
05U,2021-10-08 18:15,-116.0051,39.6042,1811.23,60.80,32.00,33.64,170.00,12.00,0.00,29.93,M,10.00,M,SCT,SCT,BKN,M,6000.00,8500.00,12000.00,M,M,M,M,M,M,M,M,60.80,K05U 081815Z AUTO 17012KT 10SM SCT060 SCT085 BKN120 16/M00 A2993 RMK A01,M
MEV,2021-10-08 18:15,-119.7500,38.9963,1441.42,57.20,32.00,38.26,260.00,8.00,0.00,30.00,M,10.00,M,FEW,FEW,BKN,M,4700.00,5500.00,10000.00,M,M,M,M,M,M,M,M,57.20,KMEV 081815Z AUTO 26008KT 10SM FEW047 FEW055 BKN100 14/00 A3000 RMK AO2,M
HTH,2021-10-08 18:15,-118.6315,38.5448,1282.89,53.60,41.00,62.23,90.00,5.00,0.00,30.00,M,10.00,M,FEW,BKN,M,M,6000.00,8000.00,M,M,M,M,M,M,M,M,M,53.60,KHTH 081815Z AUTO 09005KT 10SM FEW060 BKN080 12/05 A3000 RMK A01,M
TMT,2021-10-08 18:15,-117.1971,39.4643,1749.34,51.00,43.50,75.68,290.00,8.00,0.00,29.97,M,10.00,M,SCT,OVC,M,M,3300.00,6000.00,M,M,M,M,M,M,M,M,M,50.90,KTMT 081815Z AUTO 29008KT 10SM SCT033 OVC060 11/06 A2997 RMK AO2 LTG DSNT NE T01050064,M
INS,2021-10-08 18:19,-115.6733,36.5872,955.00,64.40,50.00,59.50,60.00,13.00,0.00,29.95,1010.50,10.00,31.00,SCT,SCT,BKN,M,3900.00,4800.00,8000.00,M,M,M,M,M,M,M,M,64.40,KINS 081819Z AUTO 06013G31KT 10SM SCT039 SCT048 BKN080 18/10 A2995 RMK AO2 WSHFT 11 SLP105 $,M
INS,2021-10-08 18:24,-115.6733,36.5872,955.00,66.20,48.20,52.25,120.00,9.00,0.00,29.95,1010.50,10.00,M,FEW,SCT,M,M,3800.00,7500.00,M,M,M,M,M,M,M,M,M,66.20,KINS 081824Z AUTO 12009KT 10SM FEW038 SCT075 19/09 A2995 RMK AO2 SLP105 $,M
LSV,2021-10-08 18:32,-115.0343,36.2362,570.00,66.20,60.80,82.74,90.00,5.00,0.00,29.97,1013.20,10.00,M,FEW,M,M,M,4400.00,M,M,M,M,M,M,M,M,M,M,66.20,KLSV 081832Z AUTO 09005KT 10SM FEW044 19/16 A2997 RMK AO2 RAE32 SLP132 $,M
INS,2021-10-08 18:34,-115.6733,36.5872,955.00,66.20,50.00,55.88,110.00,11.00,0.00,29.94,1010.20,10.00,24.00,SCT,BKN,BKN,M,4200.00,5000.00,7500.00,M,M,M,M,M,M,M,M,66.20,KINS 081834Z AUTO 11011G24KT 10SM SCT042 BKN050 BKN075 19/10 A2994 RMK AO2 SLP102 $,M
BVU,2021-10-08 18:35,-114.8611,35.9475,671.00,66.20,57.20,72.74,160.00,9.00,0.00,29.99,M,10.00,M,BKN,BKN,OVC,M,4100.00,4900.00,5500.00,M,M,M,M,M,M,M,M,66.20,KBVU 081835Z AUTO 16009KT 10SM BKN041 BKN049 OVC055 19/14 A2999 RMK AO2,M
BAM,2021-10-08 18:35,-116.8743,40.5990,1382.36,46.40,46.40,100.00,340.00,17.00,0.00,29.96,M,10.00,20.00,SCT,BKN,OVC,M,900.00,1700.00,2700.00,M,M,M,M,M,M,M,M,38.94,KBAM 081835Z AUTO 34017G20KT 10SM SCT009 BKN017 OVC027 08/08 A2996 RMK AO1,M
RTS,2021-10-08 18:35,-119.8764,39.6682,1539.00,50.00,35.60,57.52,M,4.00,0.00,30.02,M,10.00,10.00,FEW,BKN,M,M,3200.00,9000.00,M,M,M,M,M,M,M,M,M,50.00,KRTS 081835Z AUTO VRB04G10KT 10SM FEW032 BKN090 10/02 A3002 RMK AO2,M
TMT,2021-10-08 18:35,-117.1971,39.4643,1749.34,46.80,41.20,80.74,300.00,15.00,0.00,29.99,M,10.00,19.00,SCT,BKN,OVC,M,2200.00,3100.00,6000.00,M,VCTS,M,M,M,M,M,M,39.97,KTMT 081835Z AUTO 30015G19KT 10SM VCTS SCT022 BKN031 OVC060 08/05 A2999 RMK AO2 LTG DSNT NE S AND SW T00820051,M
HTH,2021-10-08 18:35,-118.6315,38.5448,1282.89,55.40,42.80,62.46,120.00,4.00,0.00,30.00,M,10.00,M,FEW,FEW,SCT,M,5000.00,6000.00,8000.00,M,M,M,M,M,M,M,M,55.40,KHTH 081835Z AUTO 12004KT 10SM FEW050 FEW060 SCT080 13/06 A3000 RMK A01,M
MEV,2021-10-08 18:35,-119.7500,38.9963,1441.42,57.20,30.20,35.57,M,4.00,0.00,30.00,M,10.00,13.00,BKN,M,M,M,10000.00,M,M,M,M,M,M,M,M,M,M,57.20,KMEV 081835Z AUTO VRB04G13KT 10SM BKN100 14/M01 A3000 RMK AO2,M
05U,2021-10-08 18:35,-116.0051,39.6042,1811.23,62.60,30.20,29.35,190.00,16.00,0.00,29.92,M,10.00,M,FEW,SCT,M,M,6000.00,8500.00,M,M,M,M,M,M,M,M,M,62.60,K05U 081835Z AUTO 19016KT 10SM FEW060 SCT085 17/M01 A2992 RMK A01,M
CXP,2021-10-08 18:35,-119.7326,39.1923,1431.00,59.00,28.40,30.98,190.00,9.00,0.00,30.01,M,10.00,M,FEW,BKN,OVC,M,5000.00,5500.00,9000.00,M,M,M,M,M,M,M,M,59.00,KCXP 081835Z AUTO 19009KT 10SM FEW050 BKN055 OVC090 15/M02 A3001 RMK AO2,M
LSV,2021-10-08 18:36,-115.0343,36.2362,570.00,66.20,60.80,82.74,60.00,4.00,0.00,29.97,1013.20,10.00,M,FEW,M,M,M,6000.00,M,M,M,-DZ,M,M,M,M,M,M,66.20,KLSV 081836Z AUTO 06004KT 10SM -DZ FEW060 19/16 A2997 RMK AO2 RAE32DZB36 SLP132 $,M
LSV,2021-10-08 18:38,-115.0343,36.2362,570.00,66.20,60.80,82.74,70.00,4.00,0.00,29.97,1013.20,10.00,M,FEW,M,M,M,6000.00,M,M,M,M,M,M,M,M,M,M,66.20,KLSV 081838Z AUTO 07004KT 10SM FEW060 19/16 A2997 RMK AO2 RAE32DZB36E38 SLP132 $,M
INS,2021-10-08 18:44,-115.6733,36.5872,955.00,68.00,46.40,45.88,310.00,6.00,0.00,29.94,1010.00,10.00,M,FEW,FEW,M,M,4500.00,5000.00,M,M,M,M,M,M,M,M,M,68.00,KINS 081844Z AUTO 31006KT 10SM FEW045 FEW050 20/08 A2994 RMK AO2 SLP100 $,M
INS,2021-10-08 18:52,-115.6733,36.5872,955.00,69.80,42.80,37.61,90.00,12.00,0.00,29.92,1009.30,10.00,17.00,FEW,FEW,M,M,4500.00,5000.00,M,M,M,M,M,M,M,M,M,69.80,KINS 081852Z AUTO 09012G17KT 10SM FEW045 FEW050 21/06 A2992 RMK AO2 WSHFT 51 PRESFR SLP093 $,M
DRA,2021-10-08 18:53,-116.0278,36.6206,1009.00,68.00,45.00,43.51,200.00,17.00,0.00,29.92,1009.20,10.00,29.00,FEW,M,M,M,4400.00,M,M,M,M,M,M,M,35.00,180.00,2021-10-08 18:07,68.00,KDRA 081853Z AUTO 20017G29KT 10SM FEW044 20/07 A2992 RMK AO2 PK WND 18035/1807 SLP092 T02000072,M
VGT,2021-10-08 18:53,-115.1933,36.2111,667.00,66.00,59.00,78.14,M,4.00,T,29.96,1014.50,10.00,M,FEW,BKN,OVC,M,2400.00,6000.00,8500.00,M,M,M,M,M,M,M,M,66.00,KVGT 081853Z VRB04KT 10SM FEW024 BKN060 OVC085 19/15 A2996 RMK AO2 RAE18 SLP145 P0000 T01890150,M
ELY,2021-10-08 18:53,-114.8453,39.2950,1909.00,62.00,28.00,27.30,200.00,19.00,0.00,29.93,1005.60,10.00,31.00,FEW,SCT,M,M,7500.00,11000.00,M,M,M,M,M,M,38.00,190.00,2021-10-08 18:29,62.10,KELY 081853Z AUTO 20019G31KT 10SM FEW075 SCT110 17/M02 A2993 RMK AO2 PK WND 19038/1829 SLP056 T01671022,M
P68,2021-10-08 18:53,-116.0056,39.6014,1993.00,60.00,30.00,31.80,180.00,15.00,0.00,29.89,1007.30,M,M,M,M,M,M,M,M,M,M,M,M,M,M,M,M,M,60.10,KP68 081853Z AUTO 18015KT 16/M01 A2989 RMK AO1 SLP073 T01561011,M
LOL,2021-10-08 18:53,-118.5701,40.0684,1192.43,51.00,44.00,76.86,0.00,0.00,0.00,29.99,1014.10,10.00,M,BKN,BKN,OVC,M,1600.00,2600.00,4900.00,M,M,M,M,M,M,M,M,51.10,KLOL 081853Z AUTO 00000KT 10SM BKN016 BKN026 OVC049 11/07 A2999 RMK AO2 SLP141 T01060067,M
RNO,2021-10-08 18:55,-119.7711,39.4839,1341.00,55.00,37.00,50.58,150.00,4.00,0.00,29.99,1012.80,10.00,M,FEW,FEW,SCT,BKN,6000.00,10000.00,12000.00,15000.00,M,M,M,M,M,M,M,55.00,KRNO 081855Z 15004KT 10SM FEW060 FEW100 SCT120 BKN150 13/03 A2999 RMK AO2 SLP128 ACSL DSNT ALQDS T01280028,M
TMT,2021-10-08 18:55,-117.1971,39.4643,1749.34,44.20,40.30,86.06,280.00,16.00,0.00,30.00,M,10.00,25.00,SCT,SCT,OVC,M,2600.00,3000.00,3500.00,M,-VCTSDZ,M,M,M,M,M,M,36.32,KTMT 081855Z AUTO 28016G25KT 10SM -VCTSDZ SCT026 SCT030 OVC035 07/05 A3000 RMK AO2 LTG DSNT NE AND S T00680046,M
BVU,2021-10-08 18:55,-114.8611,35.9475,671.00,66.20,57.20,72.74,150.00,12.00,0.00,29.98,M,10.00,M,SCT,BKN,OVC,M,4000.00,4800.00,7500.00,M,M,M,M,M,M,M,M,66.20,KBVU 081855Z AUTO 15012KT 10SM SCT040 BKN048 OVC075 19/14 A2998 RMK AO2,M
BAM,2021-10-08 18:55,-116.8743,40.5990,1382.36,46.40,46.40,100.00,330.00,13.00,0.00,29.96,M,10.00,M,SCT,BKN,OVC,M,2000.00,4500.00,6000.00,M,M,M,M,M,M,M,M,40.02,KBAM 081855Z AUTO 33013KT 10SM SCT020 BKN045 OVC060 08/08 A2996 RMK AO1,M
CXP,2021-10-08 18:55,-119.7326,39.1923,1431.00,57.20,30.20,35.57,280.00,12.00,0.00,30.01,M,10.00,18.00,OVC,M,M,M,5500.00,M,M,M,M,M,M,M,M,M,M,57.20,KCXP 081855Z AUTO 28012G18KT 10SM OVC055 14/M01 A3001 RMK AO2 LTG DSNT SE,M
HTH,2021-10-08 18:55,-118.6315,38.5448,1282.89,55.40,39.20,54.34,0.00,0.00,0.00,30.00,M,10.00,M,FEW,SCT,BKN,M,4700.00,6000.00,7500.00,M,M,M,M,M,M,M,M,55.40,KHTH 081855Z AUTO 00000KT 10SM FEW047 SCT060 BKN075 13/04 A3000 RMK A01,M
MEV,2021-10-08 18:55,-119.7500,38.9963,1441.42,59.00,28.40,30.98,M,3.00,0.00,30.00,M,10.00,12.00,FEW,M,M,M,6000.00,M,M,M,M,M,M,M,M,M,M,59.00,KMEV 081855Z AUTO VRB03G12KT 10SM FEW060 15/M02 A3000 RMK AO2,M
05U,2021-10-08 18:55,-116.0051,39.6042,1811.23,60.80,28.40,29.06,170.00,14.00,0.00,29.91,M,10.00,M,FEW,SCT,M,M,7000.00,9000.00,M,M,M,M,M,M,M,M,M,60.80,K05U 081855Z AUTO 17014KT 10SM FEW070 SCT090 16/M02 A2991 RMK A01,M
RTS,2021-10-08 18:55,-119.8764,39.6682,1539.00,51.80,37.40,57.77,250.00,8.00,0.00,30.02,M,10.00,16.00,SCT,BKN,M,M,3600.00,9000.00,M,M,M,M,M,M,M,M,M,51.80,KRTS 081855Z AUTO 25008G16KT 240V300 10SM SCT036 BKN090 11/03 A3002 RMK AO2,M
HND,2021-10-08 18:56,-115.1344,35.9729,742.79,67.00,55.00,65.56,210.00,8.00,0.01,30.00,1015.70,10.00,M,FEW,M,M,M,7500.00,M,M,M,M,M,M,M,M,M,M,66.90,KHND 081856Z 21008KT 10SM FEW075 19/13 A3000 RMK AO2 RAE39 SLP157 P0001 T01940128,M
EKO,2021-10-08 18:56,-115.7860,40.8242,1367.00,54.00,47.00,76.83,180.00,5.00,0.02,29.89,1009.60,10.00,M,FEW,BKN,OVC,M,3000.00,7000.00,10000.00,M,M,M,M,M,M,M,M,54.00,KEKO 081856Z AUTO 18005KT 10SM FEW030 BKN070 OVC100 12/08 A2989 RMK AO2 LTG DSNT SW RAB27E49 SLP096 P0002 T01220083,M
NFL,2021-10-08 18:56,-118.7010,39.4166,1199.00,56.00,33.00,41.92,M,3.00,0.00,29.99,1012.60,10.00,M,SCT,SCT,BKN,BKN,1000.00,3000.00,7000.00,13000.00,M,M,M,M,M,M,M,55.90,KNFL 081856Z VRB03KT 10SM SCT010 SCT030 BKN070 BKN130 BKN180 13/01 A2999 RMK AO2 SLP126 T01330006,M
LAS,2021-10-08 18:56,-115.1634,36.0719,663.00,66.00,56.00,69.88,M,5.00,0.02,29.98,1013.30,10.00,M,FEW,BKN,M,M,3000.00,8500.00,M,M,M,M,M,M,M,M,M,66.00,KLAS 081856Z VRB05KT 10SM FEW030 BKN085 19/13 A2998 RMK AO2 RAE31 SLP133 P0002 T01890133,M
TPH,2021-10-08 18:56,-117.0904,38.0505,1654.00,60.00,34.00,37.37,M,5.00,0.00,29.97,1010.30,10.00,16.00,FEW,M,M,M,5500.00,M,M,M,M,M,M,M,M,M,M,60.10,KTPH 081856Z AUTO VRB05G16KT 10SM FEW055 16/01 A2997 RMK AO2 SLP103 T01560011,M
INS,2021-10-08 18:56,-115.6733,36.5872,955.00,69.80,46.40,43.13,110.00,20.00,0.00,29.91,1009.00,10.00,24.00,FEW,FEW,M,M,4500.00,5000.00,M,M,M,M,M,M,M,M,M,69.80,KINS 081856Z AUTO 11020G24KT 10SM FEW045 FEW050 21/08 A2991 RMK AO2 WSHFT 52 SLP090 $,M
WMC,2021-10-08 18:56,-117.8072,40.9019,1315.00,47.00,42.00,83.28,0.00,0.00,0.04,29.99,1014.00,10.00,M,BKN,OVC,M,M,3700.00,4400.00,M,M,-RA,M,M,M,M,M,M,46.90,KWMC 081856Z AUTO 00000KT 10SM -RA BKN037 OVC044 08/06 A2999 RMK AO2 SLP140 P0004 T00830056,M
INS,2021-10-08 18:58,-115.6733,36.5872,955.00,70.00,47.00,43.99,110.00,19.00,0.00,29.91,1009.00,10.00,24.00,FEW,FEW,M,M,4500.00,5000.00,M,M,M,M,M,M,39.00,210.00,2021-10-08 18:26,70.00,KINS 081858Z AUTO 11019G24KT 10SM FEW045 FEW050 21/08 A2991 RMK AO2 PK WND 21039/26 SLP090 T02110084 $,M
LSV,2021-10-08 18:58,-115.0343,36.2362,570.00,66.60,60.40,80.45,0.00,0.00,0.02,29.96,1012.90,10.00,M,FEW,BKN,M,M,6500.00,9000.00,M,M,M,M,M,M,M,M,M,66.60,KLSV 081858Z AUTO 00000KT 10SM FEW065 BKN090 19/16 A2996 RMK AO2 RAE32DZB36E38 SLP129 P0002 T01920158 $,M
INS,2021-10-08 19:06,-115.6733,36.5872,955.00,69.80,46.40,43.13,120.00,13.00,0.00,29.90,1008.70,10.00,20.00,CLR,M,M,M,M,M,M,M,M,M,M,M,M,M,M,69.80,KINS 081906Z AUTO 12013G20KT 10SM CLR 21/08 A2990 RMK AO2 WSHFT 04 SLP087 $,M
INS,2021-10-08 19:11,-115.6733,36.5872,955.00,69.80,44.60,40.29,80.00,16.00,0.00,29.90,1008.70,10.00,20.00,CLR,M,M,M,M,M,M,M,M,M,M,M,M,M,M,69.80,KINS 081911Z AUTO 08016G20KT 10SM CLR 21/07 A2990 RMK AO2 WSHFT 07 SLP087 $,M
CXP,2021-10-08 19:15,-119.7326,39.1923,1431.00,57.20,26.60,30.69,290.00,13.00,0.00,30.01,M,10.00,18.00,BKN,M,M,M,5500.00,M,M,M,M,M,M,M,M,M,M,57.20,KCXP 081915Z AUTO 29013G18KT 10SM BKN055 14/M03 A3001 RMK AO2,M
TMT,2021-10-08 19:15,-117.1971,39.4643,1749.34,42.60,40.30,91.50,280.00,10.00,0.02,30.02,M,4.00,17.00,BKN,OVC,M,M,2800.00,3500.00,M,M,RA,M,M,M,M,M,M,36.26,KTMT 081915Z AUTO 28010G17KT 4SM RA BKN028 OVC035 06/05 A3002 RMK AO2 LTG DSNT NE AND SE P0002 T00590046,M
BAM,2021-10-08 19:15,-116.8743,40.5990,1382.36,44.60,44.60,100.00,320.00,15.00,0.00,29.99,M,2.00,M,M,M,M,M,M,M,M,M,M,M,M,M,M,M,M,37.11,KBAM 081915Z AUTO 32015KT 2SM 07/07 A2999 RMK AO1,M
BVU,2021-10-08 19:15,-114.8611,35.9475,671.00,66.20,57.20,72.74,150.00,13.00,0.00,29.97,M,10.00,M,SCT,BKN,OVC,M,4000.00,6500.00,7500.00,M,M,M,M,M,M,M,M,66.20,KBVU 081915Z AUTO 15013KT 10SM SCT040 BKN065 OVC075 19/14 A2997 RMK AO2,M
RTS,2021-10-08 19:15,-119.8764,39.6682,1539.00,51.80,35.60,53.81,310.00,9.00,0.00,30.02,M,10.00,M,FEW,SCT,M,M,3700.00,9000.00,M,M,M,M,M,M,M,M,M,51.80,KRTS 081915Z AUTO 31009KT 10SM FEW037 SCT090 11/02 A3002 RMK AO2,M
05U,2021-10-08 19:15,-116.0051,39.6042,1811.23,62.60,28.40,27.27,220.00,13.00,0.00,29.90,M,10.00,19.00,BKN,BKN,M,M,7000.00,8000.00,M,M,M,M,M,M,M,M,M,62.60,K05U 081915Z AUTO 22013G19KT 10SM BKN070 BKN080 17/M02 A2990 RMK A01,M
MEV,2021-10-08 19:15,-119.7500,38.9963,1441.42,59.00,23.00,24.76,260.00,12.00,0.00,30.00,M,10.00,M,FEW,M,M,M,6500.00,M,M,M,M,M,M,M,M,M,M,59.00,KMEV 081915Z AUTO 26012KT 240V300 10SM FEW065 15/M05 A3000 RMK AO2,M
HTH,2021-10-08 19:15,-118.6315,38.5448,1282.89,55.40,41.00,58.27,M,6.00,0.00,30.00,M,10.00,M,FEW,SCT,SCT,M,4800.00,6000.00,7500.00,M,M,M,M,M,M,M,M,55.40,KHTH 081915Z AUTO VRB06KT 10SM FEW048 SCT060 SCT075 13/05 A3000 RMK A01,M
HND,2021-10-08 19:19,-115.1344,35.9729,742.79,66.20,55.40,68.15,200.00,8.00,0.00,30.00,M,10.00,M,BKN,BKN,OVC,M,2800.00,3500.00,7500.00,M,M,M,M,M,M,M,M,66.20,KHND 081919Z 20008KT 10SM BKN028 BKN035 OVC075 19/13 A3000 RMK AO2,M
TPH,2021-10-08 19:20,-117.0904,38.0505,1654.00,56.00,36.00,47.05,330.00,24.00,0.00,29.98,M,10.00,31.00,BKN,M,M,M,6000.00,M,M,M,M,M,M,M,31.00,320.00,2021-10-08 19:13,55.90,KTPH 081920Z AUTO 33024G31KT 10SM BKN060 13/02 A2998 RMK AO2 PK WND 32031/1913 WSHFT 1900 T01330022,M
INS,2021-10-08 19:24,-115.6733,36.5872,955.00,71.60,46.40,40.57,130.00,21.00,0.00,29.89,1008.10,10.00,28.00,CLR,M,M,M,M,M,M,M,M,M,M,M,M,M,M,71.60,KINS 081924Z AUTO 13021G28KT 10SM CLR 22/08 A2989 RMK AO2 WSHFT 11 SLP081 $,M
LOL,2021-10-08 19:27,-118.5701,40.0684,1192.43,52.00,44.00,74.35,0.00,0.00,0.00,29.99,M,10.00,M,FEW,SCT,OVC,M,2400.00,3300.00,7000.00,M,M,M,M,M,M,M,M,52.00,KLOL 081927Z AUTO 00000KT 10SM FEW024 SCT033 OVC070 11/07 A2999 RMK AO2 T01110067,M
EKO,2021-10-08 19:33,-115.7860,40.8242,1367.00,53.00,48.00,82.76,200.00,3.00,0.01,29.87,M,8.00,M,FEW,BKN,OVC,M,3600.00,5000.00,7000.00,M,-TSRA,M,M,M,M,M,M,53.10,KEKO 081933Z AUTO 20003KT 8SM -TSRA FEW036 BKN050 OVC070 12/09 A2987 RMK AO2 LTG DSNT SW RAB1858 TSB27 P0001 T01170089,M
CXP,2021-10-08 19:35,-119.7326,39.1923,1431.00,57.20,26.60,30.69,270.00,11.00,0.00,30.01,M,10.00,18.00,CLR,M,M,M,M,M,M,M,M,M,M,M,M,M,M,57.20,KCXP 081935Z AUTO 27011G18KT 10SM CLR 14/M03 A3001 RMK AO2,M
HTH,2021-10-08 19:35,-118.6315,38.5448,1282.89,55.40,42.80,62.46,360.00,8.00,0.00,30.00,M,10.00,M,BKN,BKN,BKN,M,3300.00,4600.00,6000.00,M,M,M,M,M,M,M,M,55.40,KHTH 081935Z AUTO 36008KT 10SM BKN033 BKN046 BKN060 13/06 A3000 RMK A01,M
MEV,2021-10-08 19:35,-119.7500,38.9963,1441.42,57.20,21.20,24.49,280.00,7.00,0.00,30.00,M,10.00,13.00,CLR,M,M,M,M,M,M,M,M,M,M,M,M,M,M,57.20,KMEV 081935Z AUTO 28007G13KT 10SM CLR 14/M06 A3000 RMK AO2,M
05U,2021-10-08 19:35,-116.0051,39.6042,1811.23,64.40,26.60,23.77,220.00,13.00,0.00,29.90,M,10.00,19.00,SCT,SCT,M,M,7000.00,8500.00,M,M,M,M,M,M,M,M,M,64.40,K05U 081935Z AUTO 22013G19KT 10SM SCT070 SCT085 18/M03 A2990 RMK A01,M
RTS,2021-10-08 19:35,-119.8764,39.6682,1539.00,51.80,35.60,53.81,M,6.00,0.00,30.01,M,10.00,12.00,BKN,M,M,M,9000.00,M,M,M,M,M,M,M,M,M,M,51.80,KRTS 081935Z AUTO VRB06G12KT 10SM BKN090 11/02 A3001 RMK AO2,M
BVU,2021-10-08 19:35,-114.8611,35.9475,671.00,66.20,59.00,77.60,160.00,10.00,0.00,29.97,M,10.00,M,SCT,SCT,OVC,M,3600.00,4900.00,7000.00,M,M,M,M,M,M,M,M,66.20,KBVU 081935Z AUTO 16010KT 10SM SCT036 SCT049 OVC070 19/15 A2997 RMK AO2,M
BAM,2021-10-08 19:35,-116.8743,40.5990,1382.36,46.40,46.40,100.00,320.00,3.00,0.00,30.00,M,5.00,M,M,M,M,M,M,M,M,M,M,M,M,M,M,M,M,45.15,KBAM 081935Z AUTO 32003KT 5SM 08/08 A3000 RMK AO1,M
TMT,2021-10-08 19:35,-117.1971,39.4643,1749.34,43.00,41.00,92.58,230.00,6.00,0.05,30.03,M,7.00,M,SCT,SCT,OVC,M,1600.00,2100.00,2900.00,M,TSRA,M,M,M,M,M,M,38.78,KTMT 081935Z AUTO 23006KT 7SM TSRA SCT016 SCT021 OVC029 06/05 A3003 RMK AO2 LTG DSNT NE P0005 T00610050,M
HND,2021-10-08 19:37,-115.1344,35.9729,742.79,68.00,53.60,59.97,200.00,12.00,0.00,29.98,M,10.00,M,SCT,BKN,BKN,M,3000.00,3900.00,8000.00,M,M,M,M,M,M,M,M,68.00,KHND 081937Z 20012KT 10SM SCT030 BKN039 BKN080 20/12 A2998 RMK AO2 PRESFR,M
EKO,2021-10-08 19:48,-115.7860,40.8242,1367.00,52.00,45.00,76.94,250.00,14.00,0.04,29.89,M,4.00,20.00,SCT,BKN,OVC,M,3200.00,5000.00,6500.00,M,+RA,M,M,M,M,M,M,52.00,KEKO 081948Z AUTO 25014G20KT 4SM +RA SCT032 BKN050 OVC065 11/07 A2989 RMK AO2 LTG DSNT SW AND W RAB1858 TSB27E42 P0004 T01110072,M
ELY,2021-10-08 19:53,-114.8453,39.2950,1909.00,52.00,36.00,54.26,170.00,15.00,0.00,29.93,1007.40,10.00,27.00,BKN,M,M,M,11000.00,M,M,M,M,M,M,M,37.00,180.00,2021-10-08 18:58,52.00,KELY 081953Z AUTO 17015G27KT 10SM BKN110 11/02 A2993 RMK AO2 PK WND 18037/1858 SLP074 T01110022,M
P68,2021-10-08 19:53,-116.0056,39.6014,1993.00,62.00,25.00,24.12,210.00,13.00,0.00,29.86,1006.50,M,24.00,M,M,M,M,M,M,M,M,M,M,M,M,M,M,M,62.10,KP68 081953Z AUTO 21013G24KT 17/M04 A2986 RMK AO1 SLP065 T01671039,M
VGT,2021-10-08 19:53,-115.1933,36.2111,667.00,69.00,58.00,67.50,130.00,10.00,0.00,29.92,1013.10,10.00,M,FEW,BKN,OVC,M,2500.00,5000.00,6000.00,M,M,M,M,M,M,M,M,69.10,KVGT 081953Z 13010KT 10SM FEW025 BKN050 OVC060 21/14 A2992 RMK AO2 SLP131 T02060144,M
LOL,2021-10-08 19:53,-118.5701,40.0684,1192.43,52.00,45.00,76.94,160.00,6.00,0.00,29.99,1014.00,10.00,M,BKN,OVC,M,M,2000.00,7000.00,M,M,M,M,M,M,M,M,M,52.00,KLOL 081953Z AUTO 16006KT 10SM BKN020 OVC070 11/07 A2999 RMK AO2 SLP140 T01110072,M
DRA,2021-10-08 19:53,-116.0278,36.6206,1009.00,70.00,43.00,37.64,200.00,27.00,0.00,29.91,1008.80,10.00,39.00,CLR,M,M,M,M,M,M,M,M,M,M,M,39.00,210.00,2021-10-08 19:44,70.00,KDRA 081953Z AUTO 20027G39KT 10SM CLR 21/06 A2991 RMK AO2 PK WND 21039/1944 SLP088 T02110061,M
LSV,2021-10-08 19:54,-115.0343,36.2362,570.00,68.00,60.80,77.75,170.00,7.00,0.00,29.93,1011.80,10.00,M,SCT,BKN,BKN,M,3900.00,4700.00,9000.00,M,M,M,M,M,M,M,M,68.00,KLSV 081954Z AUTO 17007KT 10SM SCT039 BKN047 BKN090 20/16 A2993 RMK AO2 SLP118 $,M
EKO,2021-10-08 19:54,-115.7860,40.8242,1367.00,50.00,44.60,81.61,270.00,14.97,M,29.89,M,2.00,24.10,SCT,BKN,OVC,M,3198.00,3999.00,6499.00,M,+RA,M,M,M,M,M,M,50.00,SPECI KEKO 081954Z 27015G24KT 2SM +RA SCT032 BKN040 OVC065 10/07 A2989 RMK AO2 LTG DSNT SW RAB1858 TSB27E42 P0008 FIBI,M
BVU,2021-10-08 19:55,-114.8611,35.9475,671.00,66.20,59.00,77.60,180.00,10.00,0.00,29.96,M,10.00,M,SCT,BKN,OVC,M,3500.00,4200.00,5000.00,M,M,M,M,M,M,M,M,66.20,KBVU 081955Z AUTO 18010KT 10SM SCT035 BKN042 OVC050 19/15 A2996 RMK AO2,M
RNO,2021-10-08 19:55,-119.7711,39.4839,1341.00,58.00,34.00,40.43,M,4.00,0.00,29.98,1012.10,10.00,M,FEW,FEW,SCT,BKN,7000.00,10000.00,12000.00,15000.00,M,M,M,M,M,M,M,57.90,KRNO 081955Z VRB04KT 10SM FEW070 FEW100 SCT120 BKN150 BKN210 14/01 A2998 RMK AO2 SLP121 ACSL DSNT ALQDS T01440011,M
RTS,2021-10-08 19:55,-119.8764,39.6682,1539.00,51.80,35.60,53.81,300.00,5.00,0.00,30.01,M,10.00,M,BKN,BKN,M,M,4200.00,9000.00,M,M,M,M,M,M,M,M,M,51.80,KRTS 081955Z AUTO 30005KT 10SM BKN042 BKN090 11/02 A3001 RMK AO2,M
TMT,2021-10-08 19:55,-117.1971,39.4643,1749.34,42.00,40.50,94.73,180.00,9.00,0.07,30.04,M,10.00,M,SCT,SCT,OVC,M,1700.00,2200.00,2900.00,M,-RA,M,M,M,M,M,M,35.82,KTMT 081955Z AUTO 18009KT 10SM -RA SCT017 SCT022 OVC029 06/05 A3004 RMK AO2 LTG DSNT NE AND S P0007 T00550047,M
HTH,2021-10-08 19:55,-118.6315,38.5448,1282.89,57.20,42.80,58.52,0.00,0.00,0.00,29.99,M,10.00,M,FEW,M,M,M,3300.00,M,M,M,M,M,M,M,M,M,M,57.20,KHTH 081955Z AUTO 00000KT 10SM FEW033 14/06 A2999 RMK A01,M
MEV,2021-10-08 19:55,-119.7500,38.9963,1441.42,57.20,21.20,24.49,270.00,7.00,0.00,30.00,M,10.00,14.00,CLR,M,M,M,M,M,M,M,M,M,M,M,M,M,M,57.20,KMEV 081955Z AUTO 27007G14KT 10SM CLR 14/M06 A3000 RMK AO2,M
05U,2021-10-08 19:55,-116.0051,39.6042,1811.23,62.60,24.80,23.50,210.00,14.00,0.00,29.89,M,10.00,19.00,BKN,BKN,M,M,8500.00,12000.00,M,M,M,M,M,M,M,M,M,62.60,K05U 081955Z AUTO 21014G19KT 10SM BKN085 BKN120 17/M04 A2989 RMK A01,M
BAM,2021-10-08 19:55,-116.8743,40.5990,1382.36,46.40,46.40,100.00,330.00,6.00,0.00,30.01,M,7.00,M,BKN,BKN,OVC,M,700.00,1500.00,3400.00,M,M,M,M,M,M,M,M,42.87,KBAM 081955Z AUTO 33006KT 7SM BKN007 BKN015 OVC034 08/08 A3001 RMK AO1,M
CXP,2021-10-08 19:55,-119.7326,39.1923,1431.00,57.20,24.80,28.48,250.00,12.00,0.00,30.01,M,10.00,20.00,CLR,M,M,M,M,M,M,M,M,M,M,M,M,M,M,57.20,KCXP 081955Z AUTO 25012G20KT 10SM CLR 14/M04 A3001 RMK AO2,M
NFL,2021-10-08 19:56,-118.7010,39.4166,1199.00,56.00,37.00,48.95,350.00,6.00,0.00,29.99,1012.50,10.00,M,FEW,SCT,BKN,BKN,2000.00,7000.00,10000.00,18000.00,M,M,M,M,M,M,M,55.90,KNFL 081956Z 35006KT 10SM FEW020 SCT070 BKN100 BKN180 13/03 A2999 RMK AO2 SLP125 T01330028,M
HND,2021-10-08 19:56,-115.1344,35.9729,742.79,70.00,54.00,56.82,200.00,14.00,0.00,29.97,1014.40,10.00,18.00,FEW,M,M,M,3300.00,M,M,M,M,M,M,M,M,M,M,70.00,KHND 081956Z 20014G18KT 10SM FEW033 21/12 A2997 RMK AO2 SLP144 T02110122,M
LSV,2021-10-08 19:56,-115.0343,36.2362,570.00,68.00,60.80,77.75,170.00,8.00,0.00,29.93,1011.80,10.00,M,SCT,SCT,BKN,M,3900.00,4600.00,9000.00,M,M,M,M,M,M,M,M,68.00,KLSV 081956Z AUTO 17008KT 10SM SCT039 SCT046 BKN090 20/16 A2993 RMK AO2 SLP118 $,M
EKO,2021-10-08 19:56,-115.7860,40.8242,1367.00,50.00,44.00,80.06,280.00,13.00,0.11,29.89,1010.10,1.75,24.00,BKN,BKN,OVC,M,3500.00,4500.00,6000.00,M,VCTS +RA,M,M,M,M,M,M,50.00,KEKO 081956Z AUTO 28013G24KT 1 3/4SM VCTS +RA BKN035 BKN045 OVC060 10/07 A2989 RMK AO2 VIS 1V4 LTG DSNT S AND SW RAB1858 TSB27E42 SLP101 P0011 T01000067,M
TPH,2021-10-08 19:56,-117.0904,38.0505,1654.00,58.00,37.00,45.54,340.00,20.00,0.00,29.97,1010.50,10.00,M,FEW,SCT,M,M,5000.00,10000.00,M,M,M,M,M,M,31.00,330.00,2021-10-08 19:21,57.90,KTPH 081956Z AUTO 34020KT 10SM FEW050 SCT100 14/03 A2997 RMK AO2 PK WND 33031/1921 WSHFT 1900 LTG DSNT S SLP105 T01440028,M
WMC,2021-10-08 19:56,-117.8072,40.9019,1315.00,48.00,43.00,82.72,170.00,4.00,T,29.96,1013.10,10.00,M,BKN,OVC,M,M,3400.00,10000.00,M,M,M,M,M,M,M,M,M,46.10,KWMC 081956Z AUTO 17004KT 10SM BKN034 OVC100 09/06 A2996 RMK AO2 RAE11 SLP131 P0000 T00890061,M
LAS,2021-10-08 19:56,-115.1634,36.0719,663.00,70.00,54.00,56.82,210.00,9.00,0.00,29.94,1011.90,10.00,16.00,FEW,BKN,BKN,M,4700.00,9000.00,11000.00,M,M,M,M,M,M,M,M,70.00,KLAS 081956Z 21009G16KT 10SM FEW047 BKN090 BKN110 21/12 A2994 RMK AO2 SLP119 T02110122,M
LSV,2021-10-08 19:57,-115.0343,36.2362,570.00,68.00,60.80,77.75,170.00,7.00,0.00,29.93,1011.80,10.00,M,SCT,BKN,BKN,M,3900.00,4600.00,9000.00,M,M,M,M,M,M,M,M,68.00,KLSV 081957Z AUTO 17007KT 10SM SCT039 BKN046 BKN090 20/16 A2993 RMK AO2 SLP118 $,M
INS,2021-10-08 19:58,-115.6733,36.5872,955.00,72.30,35.40,25.88,210.00,21.00,0.00,29.88,1007.80,10.00,25.00,CLR,M,M,M,M,M,M,M,M,M,M,M,37.00,200.00,2021-10-08 19:53,72.30,KINS 081958Z AUTO 21021G25KT 10SM CLR 22/02 A2988 RMK AO2 PK WND 20037/53 SLP078 T02240019 $,M
LSV,2021-10-08 19:58,-115.0343,36.2362,570.00,68.50,61.70,78.90,170.00,7.00,0.00,29.93,1011.80,10.00,M,SCT,BKN,BKN,M,3900.00,4600.00,9000.00,M,M,M,M,M,M,M,M,68.50,KLSV 081958Z AUTO 17007KT 10SM SCT039 BKN046 BKN090 20/17 A2993 RMK AO2 SLP118 T02030165 $,M
EKO,2021-10-08 20:02,-115.7860,40.8242,1367.00,50.00,44.00,80.06,280.00,10.00,0.07,29.88,M,3.00,M,FEW,BKN,OVC,M,3200.00,4900.00,6000.00,M,VCTS -RA,M,M,M,M,M,M,50.00,KEKO 082002Z AUTO 28010KT 3SM VCTS -RA FEW032 BKN049 OVC060 10/07 A2988 RMK AO2 LTG DSNT S AND SW P0007 T01000067,M
P68,2021-10-08 20:12,-116.0056,39.6014,1993.00,55.00,36.00,48.62,290.00,18.00,0.00,29.88,M,M,26.00,M,M,M,M,M,M,M,M,M,M,M,M,26.00,290.00,2021-10-08 20:08,55.00,KP68 082012Z AUTO 29018G26KT 13/02 A2988 RMK AO1 PK WND 29026/2008 WSHFT 1955 T01280022,M
05U,2021-10-08 20:15,-116.0051,39.6042,1811.23,55.40,35.60,47.16,290.00,15.00,0.00,29.90,M,10.00,21.00,SCT,SCT,M,M,9000.00,12000.00,M,M,M,M,M,M,M,M,M,55.40,K05U 082015Z AUTO 29015G21KT 10SM SCT090 SCT120 13/02 A2990 RMK A01,M
BAM,2021-10-08 20:15,-116.8743,40.5990,1382.36,46.40,46.40,100.00,330.00,7.00,0.00,30.00,M,7.00,M,SCT,OVC,M,M,900.00,1300.00,M,M,M,M,M,M,M,M,M,42.33,KBAM 082015Z AUTO 33007KT 7SM SCT009 OVC013 08/08 A3000 RMK AO1,M
HTH,2021-10-08 20:15,-118.6315,38.5448,1282.89,55.40,42.80,62.46,0.00,0.00,0.00,29.99,M,10.00,M,FEW,SCT,M,M,3000.00,9500.00,M,M,M,M,M,M,M,M,M,55.40,KHTH 082015Z AUTO 00000KT 10SM FEW030 SCT095 13/06 A2999 RMK A01,M
CXP,2021-10-08 20:15,-119.7326,39.1923,1431.00,55.40,23.00,28.20,260.00,12.00,0.00,30.00,M,10.00,18.00,FEW,M,M,M,9000.00,M,M,M,M,M,M,M,M,M,M,55.40,KCXP 082015Z AUTO 26012G18KT 220V280 10SM FEW090 13/M05 A3000 RMK AO2,M
RTS,2021-10-08 20:15,-119.8764,39.6682,1539.00,53.60,33.80,46.88,230.00,10.00,0.00,30.00,M,10.00,16.00,SCT,BKN,BKN,M,4300.00,4900.00,6000.00,M,M,M,M,M,M,M,M,53.60,KRTS 082015Z AUTO 23010G16KT 10SM SCT043 BKN049 BKN060 12/01 A3000 RMK AO2,M
MEV,2021-10-08 20:15,-119.7500,38.9963,1441.42,59.00,21.20,22.95,240.00,9.00,0.00,29.99,M,10.00,15.00,CLR,M,M,M,M,M,M,M,M,M,M,M,M,M,M,59.00,KMEV 082015Z AUTO 24009G15KT 10SM CLR 15/M06 A2999 RMK AO2,M
TMT,2021-10-08 20:15,-117.1971,39.4643,1749.34,39.70,37.60,92.11,160.00,10.00,0.00,30.03,M,10.00,M,SCT,OVC,M,M,2400.00,2900.00,M,M,-RA,M,M,M,M,M,M,32.62,KTMT 082015Z AUTO 16010KT 10SM -RA SCT024 OVC029 04/03 A3003 RMK AO2 LTG DSNT NE T00430031,M
BVU,2021-10-08 20:15,-114.8611,35.9475,671.00,68.00,57.20,68.35,150.00,14.00,0.00,29.94,M,10.00,M,SCT,BKN,OVC,M,4300.00,5000.00,7000.00,M,M,M,M,M,M,M,M,68.00,KBVU 082015Z AUTO 15014KT 10SM SCT043 BKN050 OVC070 20/14 A2994 RMK AO2,M
LOL,2021-10-08 20:23,-118.5701,40.0684,1192.43,54.00,44.00,69.09,180.00,4.00,0.00,29.98,M,10.00,M,FEW,BKN,M,M,2200.00,8500.00,M,M,M,M,M,M,M,M,M,54.00,KLOL 082023Z AUTO 18004KT 10SM FEW022 BKN085 12/07 A2998 RMK AO2 T01220067,M
WMC,2021-10-08 20:23,-117.8072,40.9019,1315.00,48.00,43.00,82.72,200.00,6.00,0.00,29.96,M,10.00,M,SCT,BKN,OVC,M,1800.00,2700.00,3300.00,M,M,M,M,M,M,M,M,44.80,KWMC 082023Z AUTO 20006KT 10SM SCT018 BKN027 OVC033 09/06 A2996 RMK AO2 T00890061,M
EKO,2021-10-08 20:30,-115.7860,40.8242,1367.00,50.00,44.00,80.06,240.00,17.00,0.08,29.91,M,9.00,24.00,SCT,OVC,M,M,3900.00,4800.00,M,M,-TSRA,M,M,M,M,M,M,50.00,KEKO 082030Z AUTO 24017G24KT 9SM -TSRA SCT039 OVC048 10/07 A2991 RMK AO2 LTG DSNT NE-S TSB24 PRESRR P0008 T01000067,M
RTS,2021-10-08 20:35,-119.8764,39.6682,1539.00,55.40,32.00,40.84,250.00,9.00,0.00,30.00,M,10.00,17.00,FEW,BKN,M,M,6000.00,10000.00,M,M,M,M,M,M,M,M,M,55.40,KRTS 082035Z AUTO 25009G17KT 10SM FEW060 BKN100 13/00 A3000 RMK AO2,M
BVU,2021-10-08 20:35,-114.8611,35.9475,671.00,68.00,59.00,72.92,140.00,11.00,0.00,29.93,M,10.00,M,SCT,BKN,M,M,7000.00,8000.00,M,M,M,M,M,M,M,M,M,68.00,KBVU 082035Z AUTO 14011KT 10SM SCT070 BKN080 20/15 A2993 RMK AO2,M
CXP,2021-10-08 20:35,-119.7326,39.1923,1431.00,59.00,24.80,26.70,270.00,12.00,0.00,30.00,M,10.00,M,SCT,M,M,M,10000.00,M,M,M,M,M,M,M,M,M,M,59.00,KCXP 082035Z AUTO 27012KT 10SM SCT100 15/M04 A3000 RMK AO2,M
05U,2021-10-08 20:35,-116.0051,39.6042,1811.23,50.00,35.60,57.52,270.00,24.00,0.00,29.94,M,9.00,31.00,FEW,SCT,M,M,7000.00,8500.00,M,M,M,M,M,M,M,M,M,50.00,K05U 082035Z AUTO 27024G31KT 9SM FEW070 SCT085 10/02 A2994 RMK A01,M
MEV,2021-10-08 20:35,-119.7500,38.9963,1441.42,60.80,23.00,23.23,250.00,15.00,0.00,29.98,M,10.00,21.00,CLR,M,M,M,M,M,M,M,M,M,M,M,M,M,M,60.80,KMEV 082035Z AUTO 25015G21KT 10SM CLR 16/M05 A2998 RMK AO2,M
HTH,2021-10-08 20:35,-118.6315,38.5448,1282.89,55.40,42.80,62.46,0.00,0.00,0.00,29.99,M,10.00,M,FEW,SCT,M,M,7500.00,9000.00,M,M,M,M,M,M,M,M,M,55.40,KHTH 082035Z AUTO 00000KT 10SM FEW075 SCT090 13/06 A2999 RMK A01,M
TMT,2021-10-08 20:35,-117.1971,39.4643,1749.34,41.70,39.40,91.47,170.00,7.00,0.00,30.02,M,10.00,M,BKN,OVC,M,M,3100.00,4000.00,M,M,-RA,M,M,M,M,M,M,36.60,KTMT 082035Z AUTO 17007KT 10SM -RA BKN031 OVC040 05/04 A3002 RMK AO2 LTG DSNT NE T00540041,M
BAM,2021-10-08 20:35,-116.8743,40.5990,1382.36,44.60,44.60,100.00,360.00,8.00,0.00,29.99,M,5.00,M,OVC,M,M,M,1300.00,M,M,M,M,M,M,M,M,M,M,39.63,KBAM 082035Z AUTO 36008KT 5SM OVC013 07/07 A2999 RMK AO1,M
LSV,2021-10-08 20:44,-115.0343,36.2362,570.00,71.60,57.20,60.44,170.00,9.00,0.00,29.90,1010.80,10.00,M,SCT,BKN,M,M,4100.00,5000.00,M,M,M,M,M,M,M,M,M,71.60,KLSV 082044Z AUTO 17009KT 10SM SCT041 BKN050 22/14 A2990 RMK AO2 SLP108 $,M
EKO,2021-10-08 20:49,-115.7860,40.8242,1367.00,46.00,42.00,86.16,250.00,17.00,0.12,29.94,M,3.00,27.00,FEW,SCT,OVC,M,1500.00,2800.00,3400.00,M,RA BR,M,M,M,27.00,260.00,2021-10-08 20:39,38.42,KEKO 082049Z AUTO 25017G27KT 3SM RA BR FEW015 SCT028 OVC034 08/06 A2994 RMK AO2 PK WND 26027/2039 LTG DSNT SE AND S TSB24E43 P0012 T00780056,M
VGT,2021-10-08 20:53,-115.1933,36.2111,667.00,73.00,52.00,47.69,170.00,17.00,0.00,29.88,1011.70,10.00,26.00,FEW,SCT,M,M,4700.00,6500.00,M,M,M,M,M,M,26.00,180.00,2021-10-08 20:50,73.00,KVGT 082053Z 17017G26KT 10SM FEW047 SCT065 23/11 A2988 RMK AO2 PK WND 18026/2050 SLP117 60000 T02280111 58029,M
LOL,2021-10-08 20:53,-118.5701,40.0684,1192.43,57.00,44.00,61.95,M,3.00,0.00,29.96,1012.90,10.00,M,FEW,OVC,M,M,2600.00,9500.00,M,M,M,M,M,M,M,M,M,57.00,KLOL 082053Z AUTO VRB03KT 10SM FEW026 OVC095 14/07 A2996 RMK AO2 SLP129 T01390067 58007,M
ELY,2021-10-08 20:53,-114.8453,39.2950,1909.00,59.00,32.00,35.87,200.00,14.00,0.00,29.90,1005.30,10.00,27.00,FEW,BKN,M,M,5000.00,6000.00,M,M,M,M,M,M,33.00,150.00,2021-10-08 20:42,59.00,KELY 082053Z AUTO 20014G27KT 10SM FEW050 BKN060 15/00 A2990 RMK AO2 PK WND 15033/2042 LTG DSNT SE SLP053 T01500000 58011,M
P68,2021-10-08 20:53,-116.0056,39.6014,1993.00,43.00,39.00,85.66,280.00,21.00,0.02,29.97,1012.80,M,42.00,M,M,M,M,M,M,M,M,M,M,M,M,45.00,280.00,2021-10-08 20:43,33.52,KP68 082053Z AUTO 28021G42KT 06/04 A2997 RMK AO1 PK WND 28045/2043 WSHFT 1955 PRESRR SLP128 P0002 60002 T00610039 53018,M
DRA,2021-10-08 20:53,-116.0278,36.6206,1009.00,70.00,42.00,36.36,210.00,24.00,0.00,29.89,1008.30,10.00,38.00,CLR,M,M,M,M,M,M,M,M,M,M,M,38.00,210.00,2021-10-08 20:26,70.00,KDRA 082053Z AUTO 21024G38KT 10SM CLR 21/06 A2989 RMK AO2 PK WND 21038/2026 SLP083 T02110056 56021,M
RNO,2021-10-08 20:55,-119.7711,39.4839,1341.00,60.00,23.00,23.81,300.00,18.00,0.00,29.97,1011.50,10.00,25.00,FEW,FEW,SCT,BKN,7000.00,11000.00,15000.00,20000.00,M,M,M,M,M,M,M,60.10,KRNO 082055Z 30018G25KT 10SM FEW070 FEW110 SCT150 BKN200 BKN250 16/M05 A2997 RMK AO2 SLP115 CB DSNT E ACSL DSNT ALQDS T01561050 58006,M
BVU,2021-10-08 20:55,-114.8611,35.9475,671.00,69.80,57.20,64.26,150.00,13.00,0.00,29.92,M,10.00,M,FEW,FEW,SCT,M,4900.00,5500.00,8500.00,M,M,M,M,M,M,M,M,69.80,KBVU 082055Z AUTO 15013KT 10SM FEW049 FEW055 SCT085 21/14 A2992 RMK AO2,M
TMT,2021-10-08 20:55,-117.1971,39.4643,1749.34,44.00,41.20,89.46,190.00,10.00,0.00,30.02,M,10.00,M,BKN,OVC,M,M,3300.00,4200.00,M,M,-DZ,M,M,M,M,M,M,38.14,KTMT 082055Z AUTO 19010KT 10SM -DZ BKN033 OVC042 07/05 A3002 RMK AO2 LTG DSNT NE 60007 T00670051,M
05U,2021-10-08 20:55,-116.0051,39.6042,1811.23,42.80,39.20,86.99,270.00,18.00,0.04,30.00,M,2.50,31.00,BKN,BKN,M,M,2700.00,7500.00,M,M,HZ,M,M,M,M,M,M,33.97,K05U 082055Z AUTO 27018G31KT 2 1/2SM HZ BKN027 BKN075 06/04 A3000 RMK A01 P0004,M
RTS,2021-10-08 20:55,-119.8764,39.6682,1539.00,55.40,32.00,40.84,230.00,13.00,0.00,30.00,M,10.00,M,FEW,SCT,M,M,5000.00,10000.00,M,M,M,M,M,M,M,M,M,55.40,KRTS 082055Z AUTO 23013KT 10SM FEW050 SCT100 13/00 A3000 RMK AO2,M
CXP,2021-10-08 20:55,-119.7326,39.1923,1431.00,59.00,23.00,24.76,290.00,10.00,0.00,29.99,M,10.00,M,SCT,M,M,M,10000.00,M,M,M,M,M,M,M,M,M,M,59.00,KCXP 082055Z AUTO 29010KT 10SM SCT100 15/M05 A2999 RMK AO2,M
BAM,2021-10-08 20:55,-116.8743,40.5990,1382.36,46.40,46.40,100.00,360.00,8.00,0.00,29.97,M,7.00,M,SCT,BKN,OVC,M,1300.00,4000.00,5000.00,M,M,M,M,M,M,M,M,41.85,KBAM 082055Z AUTO 36008KT 7SM SCT013 BKN040 OVC050 08/08 A2997 RMK AO1,M
MEV,2021-10-08 20:55,-119.7500,38.9963,1441.42,62.60,23.00,21.79,240.00,13.00,0.00,29.98,M,10.00,18.00,CLR,M,M,M,M,M,M,M,M,M,M,M,M,M,M,62.60,KMEV 082055Z AUTO 24013G18KT 10SM CLR 17/M05 A2998 RMK AO2,M
HTH,2021-10-08 20:55,-118.6315,38.5448,1282.89,55.40,42.80,62.46,180.00,4.00,0.00,29.98,M,9.00,13.00,FEW,FEW,SCT,M,2700.00,4900.00,6500.00,M,M,M,M,M,M,M,M,55.40,KHTH 082055Z AUTO 18004G13KT 9SM FEW027 FEW049 SCT065 13/06 A2998 RMK A01,M
HND,2021-10-08 20:56,-115.1344,35.9729,742.79,71.00,52.00,50.86,240.00,14.00,0.00,29.96,1014.00,10.00,M,BKN,OVC,M,M,4200.00,5500.00,M,M,M,M,M,M,M,M,M,71.10,KHND 082056Z 24014KT 10SM BKN042 OVC055 22/11 A2996 RMK AO2 SLP140 60001 T02170111 58016,M
LAS,2021-10-08 20:56,-115.1634,36.0719,663.00,71.00,53.00,52.96,200.00,8.00,0.00,29.92,1011.10,10.00,21.00,SCT,BKN,BKN,M,4800.00,6000.00,20000.00,M,M,M,M,M,M,M,M,71.10,KLAS 082056Z 20008G21KT 10SM SCT048 BKN060 BKN200 22/12 A2992 RMK AO2 SLP111 60002 T02170117 58021,M
EKO,2021-10-08 20:56,-115.7860,40.8242,1367.00,47.00,42.00,83.28,260.00,17.00,0.14,29.94,1012.10,3.00,M,FEW,FEW,OVC,M,1500.00,2800.00,3400.00,M,RA,M,M,M,27.00,260.00,2021-10-08 20:39,39.59,KEKO 082056Z AUTO 26017KT 3SM RA FEW015 FEW028 OVC034 08/06 A2994 RMK AO2 PK WND 26027/2039 LTG DSNT SE TSB24E43 SLP121 P0014 60027 T00830056 53012,M
WMC,2021-10-08 20:56,-117.8072,40.9019,1315.00,49.00,44.00,83.42,190.00,3.00,0.00,29.96,1013.10,10.00,M,BKN,OVC,M,M,2700.00,3200.00,M,M,M,M,M,M,M,M,M,48.01,KWMC 082056Z AUTO 19003KT 10SM BKN027 OVC032 09/07 A2996 RMK AO2 SLP131 60004 T00940067 58003,M
TPH,2021-10-08 20:56,-117.0904,38.0505,1654.00,52.00,37.00,56.45,290.00,25.00,0.00,29.97,1011.30,10.00,33.00,OVC,M,M,M,6000.00,M,M,M,M,M,M,M,35.00,300.00,2021-10-08 20:37,52.00,KTPH 082056Z AUTO 29025G33KT 10SM OVC060 11/03 A2997 RMK AO2 PK WND 30035/2037 SLP113 T01110028 53001,M
NFL,2021-10-08 20:56,-118.7010,39.4166,1199.00,58.00,43.00,57.51,0.00,0.00,0.00,29.96,1011.80,10.00,M,M,M,M,M,M,M,M,M,M,M,M,M,M,M,M,57.90,KNFL 082056Z AUTO 00000KT 10SM 14/06 A2996 RMK AO2 SLP118 T01440061 58010,M
LSV,2021-10-08 20:58,-115.0343,36.2362,570.00,72.00,56.80,58.77,190.00,10.00,0.00,29.89,1010.40,10.00,16.00,FEW,SCT,M,M,4200.00,5000.00,M,M,M,M,M,M,M,M,M,72.00,KLSV 082058Z AUTO 19010G16KT 10SM FEW042 SCT050 22/14 A2989 RMK AO2 SLP104 60003 T02220138 57027 $,M
INS,2021-10-08 20:58,-115.6733,36.5872,955.00,72.30,34.50,24.97,210.00,11.00,0.00,29.87,1007.60,10.00,24.00,CLR,M,M,M,M,M,M,M,M,M,M,M,39.00,210.00,2021-10-08 20:00,72.30,KINS 082058Z AUTO 21011G24KT 10SM CLR 22/01 A2987 RMK AO2 PK WND 21039/00 SLP076 T02240014 57023 $,M
ELY,2021-10-08 21:05,-114.8453,39.2950,1909.00,60.00,30.00,31.80,190.00,12.00,0.00,29.90,M,10.00,32.00,BKN,M,M,M,6000.00,M,M,M,M,M,M,M,32.00,220.00,2021-10-08 21:02,60.10,KELY 082105Z AUTO 19012G32KT 140V230 10SM BKN060 16/M01 A2990 RMK AO2 PK WND 22032/2102 WSHFT 2045 LTG DSNT SE T01561011,M
BVU,2021-10-08 21:15,-114.8611,35.9475,671.00,69.80,57.20,64.26,170.00,13.00,0.00,29.91,M,10.00,M,FEW,SCT,BKN,M,4300.00,4900.00,8500.00,M,M,M,M,M,M,M,M,69.80,KBVU 082115Z AUTO 17013KT 10SM FEW043 SCT049 BKN085 21/14 A2991 RMK AO2,M
CXP,2021-10-08 21:15,-119.7326,39.1923,1431.00,60.80,17.60,18.46,310.00,11.00,0.00,29.99,M,10.00,20.00,CLR,M,M,M,M,M,M,M,M,M,M,M,M,M,M,60.80,KCXP 082115Z AUTO 31011G20KT 10SM CLR 16/M08 A2999 RMK AO2,M
05U,2021-10-08 21:15,-116.0051,39.6042,1811.23,41.00,37.40,86.89,280.00,12.00,0.00,30.01,M,5.00,18.00,OVC,M,M,M,2700.00,M,M,M,BR,M,M,M,M,M,M,33.46,K05U 082115Z AUTO 28012G18KT 5SM BR OVC027 05/03 A3001 RMK A01,M
TMT,2021-10-08 21:15,-117.1971,39.4643,1749.34,44.60,40.00,84.10,210.00,10.00,0.00,30.01,M,10.00,M,BKN,OVC,M,M,3100.00,4100.00,M,M,M,M,M,M,M,M,M,38.77,KTMT 082115Z AUTO 21010KT 10SM BKN031 OVC041 07/05 A3001 RMK AO2 LTG DSNT NE T00700045,M
HTH,2021-10-08 21:15,-118.6315,38.5448,1282.89,57.20,41.00,54.60,0.00,0.00,0.00,29.97,M,10.00,M,FEW,FEW,SCT,M,4900.00,7000.00,10000.00,M,M,M,M,M,M,M,M,57.20,KHTH 082115Z AUTO 00000KT 10SM FEW049 FEW070 SCT100 14/05 A2997 RMK A01,M
RTS,2021-10-08 21:15,-119.8764,39.6682,1539.00,53.60,30.20,40.54,230.00,12.00,0.00,30.00,M,10.00,22.00,FEW,M,M,M,5000.00,M,M,M,M,M,M,M,M,M,M,53.60,KRTS 082115Z AUTO 23012G22KT 200V280 10SM FEW050 12/M01 A3000 RMK AO2,M
MEV,2021-10-08 21:15,-119.7500,38.9963,1441.42,60.80,21.20,21.53,230.00,13.00,0.00,29.97,M,10.00,22.00,CLR,M,M,M,M,M,M,M,M,M,M,M,M,M,M,60.80,KMEV 082115Z AUTO 23013G22KT 10SM CLR 16/M06 A2997 RMK AO2,M
BAM,2021-10-08 21:15,-116.8743,40.5990,1382.36,48.20,44.60,87.28,0.00,0.00,0.00,29.96,M,10.00,M,SCT,SCT,BKN,M,4600.00,5500.00,7000.00,M,M,M,M,M,M,M,M,48.20,KBAM 082115Z AUTO 00000KT 10SM SCT046 SCT055 BKN070 09/07 A2996 RMK AO1,M
BVU,2021-10-08 21:35,-114.8611,35.9475,671.00,71.60,55.40,56.63,230.00,5.00,0.00,29.91,M,10.00,14.00,FEW,FEW,SCT,M,3800.00,4300.00,5500.00,M,M,M,M,M,M,M,M,71.60,KBVU 082135Z AUTO 23005G14KT 10SM FEW038 FEW043 SCT055 22/13 A2991 RMK AO2,M
CXP,2021-10-08 21:35,-119.7326,39.1923,1431.00,60.80,17.60,18.46,280.00,8.00,0.00,29.99,M,10.00,M,CLR,M,M,M,M,M,M,M,M,M,M,M,M,M,M,60.80,KCXP 082135Z AUTO 28008KT 10SM CLR 16/M08 A2999 RMK AO2,M
BAM,2021-10-08 21:35,-116.8743,40.5990,1382.36,50.00,44.60,81.61,240.00,4.00,0.00,29.98,M,10.00,M,SCT,SCT,SCT,M,1400.00,6000.00,7000.00,M,M,M,M,M,M,M,M,50.00,KBAM 082135Z AUTO 24004KT 10SM SCT014 SCT060 SCT070 10/07 A2998 RMK AO1,M
HTH,2021-10-08 21:35,-118.6315,38.5448,1282.89,57.20,37.40,47.44,0.00,0.00,0.00,29.96,M,10.00,M,SCT,SCT,M,M,9000.00,11000.00,M,M,M,M,M,M,M,M,M,57.20,KHTH 082135Z AUTO 00000KT 10SM SCT090 SCT110 14/03 A2996 RMK A01,M
RTS,2021-10-08 21:35,-119.8764,39.6682,1539.00,55.40,26.60,32.76,280.00,13.00,0.00,30.00,M,10.00,18.00,SCT,SCT,M,M,5500.00,6500.00,M,M,M,M,M,M,M,M,M,55.40,KRTS 082135Z AUTO 28013G18KT 10SM SCT055 SCT065 13/M03 A3000 RMK AO2,M
05U,2021-10-08 21:35,-116.0051,39.6042,1811.23,41.00,37.40,86.89,270.00,8.00,0.00,30.03,M,5.00,16.00,BKN,BKN,BKN,M,2700.00,3400.00,4200.00,M,BR,M,M,M,M,M,M,35.20,K05U 082135Z AUTO 27008G16KT 5SM BR BKN027 BKN034 BKN042 05/03 A3003 RMK A01,M
MEV,2021-10-08 21:35,-119.7500,38.9963,1441.42,62.60,21.20,20.20,250.00,17.00,0.00,29.97,M,10.00,M,CLR,M,M,M,M,M,M,M,M,M,M,M,M,M,M,62.60,KMEV 082135Z AUTO 25017KT 10SM CLR 17/M06 A2997 RMK AO2,M
TMT,2021-10-08 21:35,-117.1971,39.4643,1749.34,45.50,41.50,85.80,210.00,12.00,0.00,30.01,M,10.00,M,SCT,SCT,OVC,M,3100.00,4400.00,5500.00,M,M,M,M,M,M,M,M,39.18,KTMT 082135Z AUTO 21012KT 10SM SCT031 SCT044 OVC055 08/05 A3001 RMK AO2 T00750053,M
05U,2021-10-08 21:50,-116.0051,39.6042,1811.23,42.80,39.20,86.99,270.00,7.00,0.00,30.03,M,3.00,M,FEW,SCT,BKN,M,2400.00,2800.00,4200.00,M,BR,M,M,M,M,M,M,37.94,K05U 082150Z AUTO 27007KT 3SM BR FEW024 SCT028 BKN042 06/04 A3003 RMK A01,M
P68,2021-10-08 21:53,-116.0056,39.6014,1993.00,42.00,38.00,84.93,270.00,9.00,0.05,30.01,1014.10,M,M,M,M,M,M,M,M,M,M,M,M,M,M,29.00,260.00,2021-10-08 20:56,36.07,KP68 082153Z AUTO 27009KT 06/03 A3001 RMK AO1 PK WND 26029/2056 SLP141 P0005 T00560033,M
LOL,2021-10-08 21:53,-118.5701,40.0684,1192.43,58.00,40.00,51.02,M,3.00,0.00,29.95,1012.40,10.00,M,FEW,M,M,M,5500.00,M,M,M,M,M,M,M,M,M,M,57.90,KLOL 082153Z AUTO VRB03KT 10SM FEW055 14/04 A2995 RMK AO2 SLP124 T01440044,M
ELY,2021-10-08 21:53,-114.8453,39.2950,1909.00,60.00,34.00,37.37,170.00,19.00,0.00,29.89,1004.60,10.00,29.00,SCT,BKN,M,M,6000.00,10000.00,M,M,M,M,M,M,32.00,220.00,2021-10-08 21:02,60.10,KELY 082153Z AUTO 17019G29KT 10SM SCT060 BKN100 16/01 A2989 RMK AO2 PK WND 22032/2102 WSHFT 2045 SLP046 T01560011,M
DRA,2021-10-08 21:53,-116.0278,36.6206,1009.00,71.00,41.00,33.57,210.00,16.00,0.00,29.91,1009.00,10.00,29.00,FEW,M,M,M,5500.00,M,M,M,M,M,M,M,38.00,210.00,2021-10-08 20:57,71.10,KDRA 082153Z AUTO 21016G29KT 10SM FEW055 22/05 A2991 RMK AO2 PK WND 21038/2057 SLP090 T02170050,M
VGT,2021-10-08 21:53,-115.1933,36.2111,667.00,76.00,43.00,30.85,240.00,17.00,0.00,29.87,1011.00,10.00,21.00,CLR,M,M,M,M,M,M,M,M,M,M,M,27.00,180.00,2021-10-08 20:56,75.90,KVGT 082153Z 24017G21KT 10SM CLR 24/06 A2987 RMK AO2 PK WND 18027/2056 SLP110 T02440061,M
HTH,2021-10-08 21:55,-118.6315,38.5448,1282.89,57.20,37.40,47.44,0.00,0.00,0.00,29.97,M,10.00,M,SCT,BKN,M,M,7500.00,9000.00,M,M,M,M,M,M,M,M,M,57.20,KHTH 082155Z AUTO 00000KT 10SM SCT075 BKN090 14/03 A2997 RMK A01,M
RTS,2021-10-08 21:55,-119.8764,39.6682,1539.00,55.40,26.60,32.76,290.00,14.00,0.00,30.00,M,10.00,M,FEW,M,M,M,6000.00,M,M,M,M,M,M,M,M,M,M,55.40,KRTS 082155Z AUTO 29014KT 10SM FEW060 13/M03 A3000 RMK AO2,M
RNO,2021-10-08 21:55,-119.7711,39.4839,1341.00,60.00,26.10,27.10,320.00,17.00,0.00,29.95,1011.10,10.00,24.00,FEW,FEW,SCT,SCT,7000.00,12000.00,16000.00,22000.00,M,M,M,M,28.00,310.00,2021-10-08 21:42,60.10,KRNO 082155Z 32017G24KT 10SM FEW070 FEW120 SCT160 SCT220 16/M03 A2995 RMK AO2 PK WND 31028/2142 SLP111 ACSL DSNT NE THRU SE T01561033,M
TMT,2021-10-08 21:55,-117.1971,39.4643,1749.34,46.60,41.40,81.99,210.00,12.00,0.00,30.01,M,10.00,M,SCT,OVC,M,M,4000.00,5000.00,M,M,M,M,M,M,M,M,M,40.58,KTMT 082155Z AUTO 21012KT 10SM SCT040 OVC050 08/05 A3001 RMK AO2 T00810052,M
BVU,2021-10-08 21:55,-114.8611,35.9475,671.00,73.40,51.80,46.71,M,4.00,0.00,29.90,M,10.00,M,SCT,M,M,M,6000.00,M,M,M,M,M,M,M,M,M,M,73.40,KBVU 082155Z AUTO VRB04KT 10SM SCT060 23/11 A2990 RMK AO2,M
CXP,2021-10-08 21:55,-119.7326,39.1923,1431.00,60.80,15.80,17.07,320.00,11.00,0.00,29.99,M,10.00,18.00,CLR,M,M,M,M,M,M,M,M,M,M,M,M,M,M,60.80,KCXP 082155Z AUTO 32011G18KT 10SM CLR 16/M09 A2999 RMK AO2,M
MEV,2021-10-08 21:55,-119.7500,38.9963,1441.42,60.80,23.00,23.23,290.00,13.00,0.00,29.98,M,10.00,19.00,CLR,M,M,M,M,M,M,M,M,M,M,M,M,M,M,60.80,KMEV 082155Z AUTO 29013G19KT 10SM CLR 16/M05 A2998 RMK AO2,M
BAM,2021-10-08 21:55,-116.8743,40.5990,1382.36,50.00,44.60,81.61,230.00,7.00,0.00,29.98,M,10.00,M,SCT,BKN,BKN,M,1400.00,2000.00,7500.00,M,M,M,M,M,M,M,M,50.00,KBAM 082155Z AUTO 23007KT 10SM SCT014 BKN020 BKN075 10/07 A2998 RMK AO1,M
WMC,2021-10-08 21:56,-117.8072,40.9019,1315.00,51.00,44.00,76.86,160.00,7.00,0.00,29.96,1012.80,10.00,M,SCT,BKN,OVC,M,2300.00,2900.00,7000.00,M,M,M,M,M,M,M,M,51.10,KWMC 082156Z AUTO 16007KT 10SM SCT023 BKN029 OVC070 11/07 A2996 RMK AO2 SLP128 T01060067,M
NFL,2021-10-08 21:56,-118.7010,39.4166,1199.00,58.00,45.00,62.07,60.00,7.00,T,29.95,1011.40,10.00,M,FEW,SCT,BKN,BKN,2000.00,4000.00,7000.00,13000.00,M,M,M,M,M,M,M,57.90,KNFL 082156Z 06007KT 10SM FEW020 SCT040 BKN070 BKN130 BKN180 14/07 A2995 RMK AO2 RAB31E56 SLP114 P0000 T01440072 $,M
HND,2021-10-08 21:56,-115.1344,35.9729,742.79,73.00,45.00,36.70,240.00,18.00,0.00,29.92,1012.70,10.00,26.00,CLR,M,M,M,M,M,M,M,M,M,M,M,29.00,220.00,2021-10-08 21:46,73.00,KHND 082156Z 24018G26KT 10SM CLR 23/07 A2992 RMK AO2 PK WND 22029/2146 SLP127 T02280072,M
LAS,2021-10-08 21:56,-115.1634,36.0719,663.00,73.00,47.00,39.43,250.00,14.00,0.00,29.90,1010.40,10.00,24.00,FEW,FEW,SCT,M,4800.00,6000.00,22000.00,M,M,M,M,M,29.00,190.00,2021-10-08 21:05,73.00,KLAS 082156Z 25014G24KT 10SM FEW048 FEW060 SCT220 23/08 A2990 RMK AO2 PK WND 19029/2105 SLP104 T02280083,M
TPH,2021-10-08 21:56,-117.0904,38.0505,1654.00,55.00,37.00,50.58,300.00,6.00,T,29.99,1011.70,10.00,M,SCT,M,M,M,9500.00,M,M,M,M,M,M,M,30.00,300.00,2021-10-08 21:00,55.00,KTPH 082156Z AUTO 30006KT 10SM SCT095 13/03 A2999 RMK AO2 PK WND 30030/2100 RAB2059E27 SLP117 P0000 T01280028,M
EKO,2021-10-08 21:56,-115.7860,40.8242,1367.00,45.00,41.00,85.77,220.00,14.00,0.07,29.94,1012.50,10.00,M,FEW,BKN,OVC,M,1700.00,4700.00,6000.00,M,M,M,M,M,M,M,M,37.92,KEKO 082156Z AUTO 22014KT 10SM FEW017 BKN047 OVC060 07/05 A2994 RMK AO2 RAE55 SLP125 P0007 T00720050,M
LSV,2021-10-08 21:58,-115.0343,36.2362,570.00,74.70,47.30,37.81,210.00,19.00,0.00,29.86,1009.30,10.00,M,FEW,M,M,M,5000.00,M,M,M,M,M,M,M,M,M,M,74.70,KLSV 082158Z AUTO 21019KT 10SM FEW050 24/09 A2986 RMK AO2 SLP093 T02370085 $,M
INS,2021-10-08 21:58,-115.6733,36.5872,955.00,73.60,33.40,22.87,230.00,16.00,0.00,29.88,1007.80,10.00,19.00,CLR,M,M,M,M,M,M,M,M,M,M,M,33.00,210.00,2021-10-08 21:00,73.60,KINS 082158Z AUTO 23016G19KT 10SM CLR 23/01 A2988 RMK AO2 PK WND 21033/00 SLP078 T02310008 $,M
WMC,2021-10-08 22:13,-117.8072,40.9019,1315.00,52.00,44.00,74.35,140.00,6.00,0.00,29.95,M,10.00,M,FEW,SCT,BKN,M,2900.00,3800.00,7000.00,M,M,M,M,M,M,M,M,52.00,KWMC 082213Z AUTO 14006KT 10SM FEW029 SCT038 BKN070 11/07 A2995 RMK AO2 T01110067,M
ELY,2021-10-08 22:14,-114.8453,39.2950,1909.00,59.00,32.00,35.87,200.00,12.00,0.00,29.90,M,10.00,24.00,SCT,OVC,M,M,6000.00,9000.00,M,M,M,M,M,M,34.00,150.00,2021-10-08 21:57,59.00,KELY 082214Z AUTO 20012G24KT 10SM SCT060 OVC090 15/00 A2990 RMK AO2 PK WND 15034/2157 WSHFT 2154 T01500000,M
CXP,2021-10-08 22:15,-119.7326,39.1923,1431.00,59.00,15.80,18.20,300.00,11.00,0.00,30.00,M,10.00,20.00,CLR,M,M,M,M,M,M,M,M,M,M,M,M,M,M,59.00,KCXP 082215Z AUTO 30011G20KT 10SM CLR 15/M09 A3000 RMK AO2,M
RTS,2021-10-08 22:15,-119.8764,39.6682,1539.00,55.40,23.00,28.20,290.00,11.00,0.00,30.00,M,10.00,17.00,CLR,M,M,M,M,M,M,M,M,M,M,M,M,M,M,55.40,KRTS 082215Z AUTO 29011G17KT 10SM CLR 13/M05 A3000 RMK AO2,M
BVU,2021-10-08 22:15,-114.8611,35.9475,671.00,77.00,46.40,33.85,240.00,18.00,0.00,29.90,M,10.00,M,FEW,M,M,M,6000.00,M,M,M,M,M,M,M,M,M,M,77.00,KBVU 082215Z AUTO 24018KT 10SM FEW060 25/08 A2990 RMK AO2,M
05U,2021-10-08 22:15,-116.0051,39.6042,1811.23,42.80,39.20,86.99,0.00,0.00,0.00,30.02,M,5.00,M,FEW,M,M,M,2500.00,M,M,M,BR,M,M,M,M,M,M,42.80,K05U 082215Z AUTO 00000KT 5SM BR FEW025 06/04 A3002 RMK A01,M
MEV,2021-10-08 22:15,-119.7500,38.9963,1441.42,60.80,24.80,25.04,280.00,9.00,0.00,29.99,M,10.00,18.00,CLR,M,M,M,M,M,M,M,M,M,M,M,M,M,M,60.80,KMEV 082215Z AUTO 28009G18KT 10SM CLR 16/M04 A2999 RMK AO2,M
BAM,2021-10-08 22:15,-116.8743,40.5990,1382.36,50.00,44.60,81.61,220.00,9.00,0.00,29.97,M,10.00,M,BKN,BKN,OVC,M,2200.00,2900.00,7500.00,M,M,M,M,M,M,M,M,50.00,KBAM 082215Z AUTO 22009KT 10SM BKN022 BKN029 OVC075 10/07 A2997 RMK AO1,M
HTH,2021-10-08 22:15,-118.6315,38.5448,1282.89,59.00,35.60,41.42,M,3.00,0.00,29.97,M,10.00,M,FEW,BKN,M,M,8000.00,9000.00,M,M,M,M,M,M,M,M,M,59.00,KHTH 082215Z AUTO VRB03KT 10SM FEW080 BKN090 15/02 A2997 RMK A01,M
TMT,2021-10-08 22:15,-117.1971,39.4643,1749.34,47.00,40.60,78.59,210.00,10.00,0.00,30.01,M,10.00,M,SCT,BKN,OVC,M,3800.00,4400.00,6500.00,M,M,M,M,M,M,M,M,41.65,KTMT 082215Z AUTO 21010KT 10SM SCT038 BKN044 OVC065 08/05 A3001 RMK AO2 LTG DSNT SW T00830048,M
HTH,2021-10-08 22:35,-118.6315,38.5448,1282.89,59.00,35.60,41.42,0.00,0.00,0.00,29.96,M,10.00,M,SCT,M,M,M,10000.00,M,M,M,M,M,M,M,M,M,M,59.00,KHTH 082235Z AUTO 00000KT 10SM SCT100 15/02 A2996 RMK A01,M
BVU,2021-10-08 22:35,-114.8611,35.9475,671.00,75.20,44.60,33.57,230.00,16.00,0.00,29.90,M,10.00,22.00,FEW,M,M,M,6500.00,M,M,M,M,M,M,M,M,M,M,75.20,KBVU 082235Z AUTO 23016G22KT 10SM FEW065 24/07 A2990 RMK AO2,M
CXP,2021-10-08 22:35,-119.7326,39.1923,1431.00,60.80,17.60,18.46,300.00,10.00,0.00,30.00,M,10.00,16.00,CLR,M,M,M,M,M,M,M,M,M,M,M,M,M,M,60.80,KCXP 082235Z AUTO 30010G16KT 10SM CLR 16/M08 A3000 RMK AO2 LTG DSNT NE AND E,M
RTS,2021-10-08 22:35,-119.8764,39.6682,1539.00,55.40,23.00,28.20,300.00,8.00,0.00,30.00,M,10.00,20.00,CLR,M,M,M,M,M,M,M,M,M,M,M,M,M,M,55.40,KRTS 082235Z AUTO 30008G20KT 10SM CLR 13/M05 A3000 RMK AO2,M
05U,2021-10-08 22:35,-116.0051,39.6042,1811.23,44.60,39.20,81.20,0.00,0.00,0.00,30.01,M,10.00,M,CLR,M,M,M,M,M,M,M,M,M,M,M,M,M,M,44.60,K05U 082235Z AUTO 00000KT 10SM CLR 07/04 A3001 RMK A01,M
MEV,2021-10-08 22:35,-119.7500,38.9963,1441.42,60.80,21.20,21.53,280.00,9.00,0.00,29.99,M,10.00,16.00,FEW,M,M,M,8000.00,M,M,M,M,M,M,M,M,M,M,60.80,KMEV 082235Z AUTO 28009G16KT 10SM FEW080 16/M06 A2999 RMK AO2 LTG DSNT NE AND E,M
BAM,2021-10-08 22:35,-116.8743,40.5990,1382.36,50.00,44.60,81.61,240.00,8.00,0.00,29.97,M,10.00,M,SCT,BKN,OVC,M,2200.00,4100.00,4900.00,M,M,M,M,M,M,M,M,50.00,KBAM 082235Z AUTO 24008KT 10SM SCT022 BKN041 OVC049 10/07 A2997 RMK AO1,M
TMT,2021-10-08 22:35,-117.1971,39.4643,1749.34,47.70,36.00,63.68,310.00,10.00,0.00,30.00,M,10.00,M,SCT,SCT,BKN,M,3500.00,4200.00,6500.00,M,M,M,M,M,M,M,M,42.66,KTMT 082235Z AUTO 31010KT 10SM SCT035 SCT042 BKN065 09/02 A3000 RMK AO2 LTG DSNT NE AND S T00870022,M
ELY,2021-10-08 22:45,-114.8453,39.2950,1909.00,45.00,43.00,92.65,310.00,21.00,0.02,29.93,M,4.00,28.00,SCT,BKN,BKN,M,4600.00,6000.00,11000.00,M,+RA BR,M,M,M,38.00,240.00,2021-10-08 22:30,36.19,KELY 082245Z AUTO 31021G28KT 4SM +RA BR SCT046 BKN060 BKN110 07/06 A2993 RMK AO2 PK WND 24038/2230 WSHFT 2225 RAB32 P0002 T00720061 $,M
DRA,2021-10-08 22:53,-116.0278,36.6206,1009.00,71.00,37.00,28.71,220.00,16.00,0.00,29.89,1008.20,10.00,34.00,CLR,M,M,M,M,M,M,M,M,M,M,M,34.00,210.00,2021-10-08 22:46,71.10,KDRA 082253Z AUTO 22016G34KT 10SM CLR 22/03 A2989 RMK AO2 PK WND 21034/2246 SLP082 T02170028,M
LOL,2021-10-08 22:53,-118.5701,40.0684,1192.43,59.00,42.00,53.40,140.00,7.00,0.00,29.95,1012.60,10.00,M,SCT,M,M,M,5000.00,M,M,M,M,M,M,M,M,M,M,59.00,KLOL 082253Z AUTO 14007KT 10SM SCT050 15/06 A2995 RMK AO2 SLP126 T01500056,M
ELY,2021-10-08 22:53,-114.8453,39.2950,1909.00,45.00,43.00,92.65,300.00,16.00,0.05,29.95,1009.10,6.00,28.00,FEW,BKN,BKN,M,4100.00,5000.00,6500.00,M,-RA BR,M,M,M,38.00,240.00,2021-10-08 22:30,37.36,KELY 082253Z AUTO 30016G28KT 6SM -RA BR FEW041 BKN050 BKN065 07/06 A2995 RMK AO2 PK WND 24038/2230 WSHFT 2232 LTG DSNT SE RAB32 PRESRR SLP091 P0005 T00720061 $,M
VGT,2021-10-08 22:53,-115.1933,36.2111,667.00,76.00,42.00,29.80,240.00,17.00,0.00,29.85,1010.40,10.00,26.00,CLR,M,M,M,M,M,M,M,M,M,M,M,29.00,230.00,2021-10-08 22:20,75.90,KVGT 082253Z 24017G26KT 10SM CLR 24/06 A2985 RMK AO2 PK WND 23029/2220 SLP104 T02440056,M
P68,2021-10-08 22:53,-116.0056,39.6014,1993.00,44.00,39.00,82.12,220.00,5.00,0.03,29.99,1013.20,M,M,M,M,M,M,M,M,M,M,M,M,M,M,M,M,M,40.77,KP68 082253Z AUTO 22005KT 07/04 A2999 RMK AO1 SLP132 P0003 T00670039,M
EKO,2021-10-08 22:54,-115.7860,40.8242,1367.00,48.20,42.80,81.47,210.00,9.91,M,29.94,M,10.00,M,FEW,BKN,BKN,M,2001.00,2401.00,11000.00,M,M,M,M,M,M,M,M,43.31,SPECI KEKO 082254Z 21010KT 10SM FEW020 BKN024 BKN110 09/06 A2994 RMK AO2 P0001 FIBI,M
RNO,2021-10-08 22:55,-119.7711,39.4839,1341.00,60.00,21.00,21.88,300.00,18.00,0.00,29.96,1011.40,10.00,22.00,FEW,FEW,FEW,M,7500.00,16000.00,22000.00,M,M,M,M,M,26.00,300.00,2021-10-08 22:01,60.10,KRNO 082255Z 30018G22KT 10SM FEW075 FEW160 FEW220 16/M06 A2996 RMK AO2 PK WND 30026/2201 SLP114 ACSL DSNT ALQDS T01561061,M
HTH,2021-10-08 22:55,-118.6315,38.5448,1282.89,59.00,35.60,41.42,0.00,0.00,0.00,29.96,M,10.00,M,FEW,M,M,M,10000.00,M,M,M,M,M,M,M,M,M,M,59.00,KHTH 082255Z AUTO 00000KT 10SM FEW100 15/02 A2996 RMK A01,M
BAM,2021-10-08 22:55,-116.8743,40.5990,1382.36,51.80,44.60,76.34,240.00,8.00,0.00,29.97,M,10.00,M,SCT,BKN,OVC,M,3700.00,4900.00,5500.00,M,M,M,M,M,M,M,M,51.80,KBAM 082255Z AUTO 24008KT 10SM SCT037 BKN049 OVC055 11/07 A2997 RMK AO1,M
MEV,2021-10-08 22:55,-119.7500,38.9963,1441.42,59.00,21.20,22.95,260.00,8.00,0.00,29.99,M,10.00,M,FEW,M,M,M,8000.00,M,M,M,M,M,M,M,M,M,M,59.00,KMEV 082255Z AUTO 26008KT 10SM FEW080 15/M06 A2999 RMK AO2,M
TMT,2021-10-08 22:55,-117.1971,39.4643,1749.34,48.60,35.20,59.65,310.00,11.00,0.00,30.01,M,10.00,17.00,SCT,BKN,M,M,5000.00,7000.00,M,M,M,M,M,M,M,M,M,43.44,KTMT 082255Z AUTO 31011G17KT 10SM SCT050 BKN070 09/02 A3001 RMK AO2 LTG DSNT SE T00920018,M
05U,2021-10-08 22:55,-116.0051,39.6042,1811.23,46.40,39.20,75.84,0.00,0.00,0.02,30.01,M,10.00,M,FEW,M,M,M,9500.00,M,M,M,M,M,M,M,M,M,M,46.40,K05U 082255Z AUTO 00000KT 10SM FEW095 08/04 A3001 RMK A01 P0002,M
RTS,2021-10-08 22:55,-119.8764,39.6682,1539.00,55.40,24.80,30.40,290.00,11.00,0.00,30.00,M,10.00,18.00,CLR,M,M,M,M,M,M,M,M,M,M,M,M,M,M,55.40,KRTS 082255Z AUTO 29011G18KT 10SM CLR 13/M04 A3000 RMK AO2,M
BVU,2021-10-08 22:55,-114.8611,35.9475,671.00,75.20,42.80,31.34,250.00,16.00,0.00,29.90,M,10.00,21.00,CLR,M,M,M,M,M,M,M,M,M,M,M,M,M,M,75.20,KBVU 082255Z AUTO 25016G21KT 10SM CLR 24/06 A2990 RMK AO2,M
CXP,2021-10-08 22:55,-119.7326,39.1923,1431.00,60.80,17.60,18.46,330.00,5.00,0.00,30.00,M,10.00,M,CLR,M,M,M,M,M,M,M,M,M,M,M,M,M,M,60.80,KCXP 082255Z AUTO 33005KT 10SM CLR 16/M08 A3000 RMK AO2,M
NFL,2021-10-08 22:56,-118.7010,39.4166,1199.00,57.00,43.00,59.40,40.00,4.00,0.00,29.95,1011.60,10.00,M,FEW,BKN,BKN,BKN,4000.00,6000.00,12000.00,18000.00,M,M,M,M,M,M,M,57.00,KNFL 082256Z 04004KT 10SM FEW040 BKN060 BKN120 BKN180 14/06 A2995 RMK AO2 SLP116 CB DSNT SE-S AND NW-N T01390061 $,M
EKO,2021-10-08 22:56,-115.7860,40.8242,1367.00,48.00,42.00,79.91,220.00,11.00,0.01,29.94,1012.40,10.00,M,SCT,BKN,BKN,M,2000.00,2600.00,12000.00,M,M,M,M,M,M,M,M,42.69,KEKO 082256Z AUTO 22011KT 10SM SCT020 BKN026 BKN120 09/06 A2994 RMK AO2 SLP124 P0001 T00890056,M
LAS,2021-10-08 22:56,-115.1634,36.0719,663.00,74.00,43.00,32.98,240.00,17.00,0.00,29.89,1009.90,10.00,26.00,FEW,FEW,SCT,M,4800.00,6000.00,22000.00,M,M,M,M,M,30.00,240.00,2021-10-08 22:35,73.90,KLAS 082256Z 24017G26KT 10SM FEW048 FEW060 SCT220 23/06 A2989 RMK AO2 PK WND 24030/2235 SLP099 T02330061,M
TPH,2021-10-08 22:56,-117.0904,38.0505,1654.00,58.00,36.00,43.78,360.00,12.00,0.00,29.99,1011.50,10.00,M,FEW,FEW,FEW,M,4500.00,6500.00,9500.00,M,M,M,M,M,M,M,M,57.90,KTPH 082256Z AUTO 36012KT 10SM FEW045 FEW065 FEW095 14/02 A2999 RMK AO2 LTG DSNT S SLP115 T01440022,M
WMC,2021-10-08 22:56,-117.8072,40.9019,1315.00,52.00,43.00,71.28,190.00,3.00,0.00,29.96,1012.70,10.00,M,FEW,M,M,M,3800.00,M,M,M,M,M,M,M,M,M,M,52.00,KWMC 082256Z AUTO 19003KT 10SM FEW038 11/06 A2996 RMK AO2 SLP127 T01110061,M
HND,2021-10-08 22:56,-115.1344,35.9729,742.79,73.00,43.00,34.00,240.00,22.00,0.00,29.91,1012.00,10.00,28.00,CLR,M,M,M,M,M,M,M,M,M,M,M,28.00,230.00,2021-10-08 22:55,73.00,KHND 082256Z 24022G28KT 10SM CLR 23/06 A2991 RMK AO2 PK WND 23028/2255 SLP120 T02280061,M
LSV,2021-10-08 22:58,-115.0343,36.2362,570.00,75.20,44.00,32.93,210.00,24.00,0.00,29.83,1008.30,10.00,M,CLR,M,M,M,M,M,M,M,M,M,M,M,30.00,190.00,2021-10-08 22:40,75.20,KLSV 082258Z AUTO 21024KT 10SM CLR 24/07 A2983 RMK AO2 PK WND 19030/40 SLP083 T02400067 $,M
INS,2021-10-08 22:58,-115.6733,36.5872,955.00,71.80,35.00,26.01,230.00,14.00,0.00,29.88,1008.00,10.00,23.00,CLR,M,M,M,M,M,M,M,M,M,M,M,27.00,210.00,2021-10-08 22:28,71.80,KINS 082258Z AUTO 23014G23KT 10SM CLR 22/02 A2988 RMK AO2 PK WND 21027/28 SLP080 T02210017 $,M
TMT,2021-10-08 23:15,-117.1971,39.4643,1749.34,49.00,35.20,58.54,260.00,5.00,0.00,30.01,M,10.00,14.00,SCT,BKN,OVC,M,4200.00,5000.00,7000.00,M,M,M,M,M,M,M,M,46.70,KTMT 082315Z AUTO 26005G14KT 10SM SCT042 BKN050 OVC070 10/02 A3001 RMK AO2 T00950018,M
RTS,2021-10-08 23:15,-119.8764,39.6682,1539.00,55.40,24.80,30.40,280.00,13.00,0.00,30.01,M,10.00,18.00,CLR,M,M,M,M,M,M,M,M,M,M,M,M,M,M,55.40,KRTS 082315Z AUTO 28013G18KT 10SM CLR 13/M04 A3001 RMK AO2,M
CXP,2021-10-08 23:15,-119.7326,39.1923,1431.00,60.80,19.40,19.94,M,4.00,0.00,30.00,M,10.00,M,CLR,M,M,M,M,M,M,M,M,M,M,M,M,M,M,60.80,KCXP 082315Z AUTO VRB04KT 10SM CLR 16/M07 A3000 RMK AO2,M
HTH,2021-10-08 23:15,-118.6315,38.5448,1282.89,59.00,35.60,41.42,M,3.00,0.00,29.96,M,10.00,M,SCT,M,M,M,10000.00,M,M,M,M,M,M,M,M,M,M,59.00,KHTH 082315Z AUTO VRB03KT 10SM SCT100 15/02 A2996 RMK A01,M
BVU,2021-10-08 23:15,-114.8611,35.9475,671.00,75.20,41.00,29.23,240.00,19.00,0.00,29.90,M,10.00,24.00,CLR,M,M,M,M,M,M,M,M,M,M,M,M,M,M,75.20,KBVU 082315Z AUTO 24019G24KT 10SM CLR 24/05 A2990 RMK AO2,M
MEV,2021-10-08 23:15,-119.7500,38.9963,1441.42,60.80,15.80,17.07,250.00,11.00,0.00,29.99,M,10.00,18.00,CLR,M,M,M,M,M,M,M,M,M,M,M,M,M,M,60.80,KMEV 082315Z AUTO 25011G18KT 10SM CLR 16/M09 A2999 RMK AO2,M
05U,2021-10-08 23:15,-116.0051,39.6042,1811.23,44.60,39.20,81.20,220.00,5.00,0.00,30.01,M,10.00,M,SCT,BKN,BKN,M,5000.00,8000.00,9500.00,M,M,M,M,M,M,M,M,41.36,K05U 082315Z AUTO 22005KT 10SM SCT050 BKN080 BKN095 07/04 A3001 RMK A01,M
BAM,2021-10-08 23:15,-116.8743,40.5990,1382.36,51.80,44.60,76.34,240.00,10.00,0.00,29.97,M,10.00,M,SCT,BKN,OVC,M,3300.00,3900.00,4900.00,M,M,M,M,M,M,M,M,51.80,KBAM 082315Z AUTO 24010KT 10SM SCT033 BKN039 OVC049 11/07 A2997 RMK AO1,M
EKO,2021-10-08 23:21,-115.7860,40.8242,1367.00,47.00,41.00,79.82,210.00,11.00,0.00,29.95,M,10.00,M,FEW,SCT,M,M,2000.00,2900.00,M,M,M,M,M,M,M,M,M,41.30,KEKO 082321Z AUTO 21011KT 10SM FEW020 SCT029 08/05 A2995 RMK AO2 T00830050,M
CXP,2021-10-08 23:30,-119.7326,39.1923,1431.00,59.00,17.60,19.68,300.00,15.00,0.00,30.00,M,10.00,M,FEW,M,M,M,8500.00,M,M,M,M,M,M,M,M,M,M,59.00,KCXP 082330Z AUTO 30015KT 10SM FEW085 15/M08 A3000 RMK AO2,M
BVU,2021-10-08 23:35,-114.8611,35.9475,671.00,75.20,41.00,29.23,250.00,19.00,0.00,29.90,M,10.00,M,CLR,M,M,M,M,M,M,M,M,M,M,M,M,M,M,75.20,KBVU 082335Z AUTO 25019KT 10SM CLR 24/05 A2990 RMK AO2,M
RTS,2021-10-08 23:35,-119.8764,39.6682,1539.00,55.40,24.80,30.40,290.00,10.00,0.00,30.01,M,10.00,M,CLR,M,M,M,M,M,M,M,M,M,M,M,M,M,M,55.40,KRTS 082335Z AUTO 29010KT 10SM CLR 13/M04 A3001 RMK AO2,M
05U,2021-10-08 23:35,-116.0051,39.6042,1811.23,46.40,39.20,75.84,0.00,0.00,0.00,30.01,M,10.00,M,OVC,M,M,M,5500.00,M,M,M,M,M,M,M,M,M,M,46.40,K05U 082335Z AUTO 00000KT 10SM OVC055 08/04 A3001 RMK A01,M
MEV,2021-10-08 23:35,-119.7500,38.9963,1441.42,59.00,17.60,19.68,260.00,15.00,0.00,29.99,M,10.00,20.00,CLR,M,M,M,M,M,M,M,M,M,M,M,M,M,M,59.00,KMEV 082335Z AUTO 26015G20KT 10SM CLR 15/M08 A2999 RMK AO2,M
BAM,2021-10-08 23:35,-116.8743,40.5990,1382.36,50.00,44.60,81.61,250.00,11.00,0.00,29.97,M,10.00,M,SCT,BKN,OVC,M,3600.00,4700.00,7000.00,M,M,M,M,M,M,M,M,50.00,KBAM 082335Z AUTO 25011KT 10SM SCT036 BKN047 OVC070 10/07 A2997 RMK AO1,M
HTH,2021-10-08 23:35,-118.6315,38.5448,1282.89,59.00,33.80,38.56,M,4.00,0.00,29.95,M,10.00,M,BKN,M,M,M,10000.00,M,M,M,M,M,M,M,M,M,M,59.00,KHTH 082335Z AUTO VRB04KT 10SM BKN100 15/01 A2995 RMK A01,M
VGT,2021-10-08 23:53,-115.1933,36.2111,667.00,75.00,42.00,30.71,220.00,15.00,0.00,29.83,1009.70,10.00,29.00,CLR,M,M,M,M,M,M,M,M,M,M,M,31.00,220.00,2021-10-08 23:28,75.00,KVGT 082353Z 22015G29KT 10SM CLR 24/06 A2983 RMK AO2 PK WND 22031/2328 SLP097 60000 T02390056 10244 20183 58017,M
ELY,2021-10-08 23:53,-114.8453,39.2950,1909.00,45.00,M,M,310.00,8.00,0.02,29.97,1009.70,10.00,18.00,OVC,M,M,M,5000.00,M,M,M,-RA,M,M,M,28.00,290.00,2021-10-08 23:09,M,KELY 082353Z AUTO 31008G18KT 10SM -RA OVC050 07/ A2997 RMK AO2 PK WND 29028/2309 LTG DSNT NE SLP097 P0002 60007 T0072 10178 20067 51022 $,M
DRA,2021-10-08 23:53,-116.0278,36.6206,1009.00,70.00,35.00,27.65,210.00,16.00,0.00,29.88,1007.90,10.00,28.00,CLR,M,M,M,M,M,M,M,M,M,M,M,34.00,220.00,2021-10-08 23:35,70.00,KDRA 082353Z AUTO 21016G28KT 10SM CLR 21/02 A2988 RMK AO2 PK WND 22034/2335 SLP079 T02110017 10222 20183 58005,M
P68,2021-10-08 23:53,-116.0056,39.6014,1993.00,45.00,38.00,76.01,210.00,3.00,0.00,29.98,1012.10,M,M,M,M,M,M,M,M,M,M,M,M,M,M,M,M,M,43.55,KP68 082353Z AUTO 21003KT 07/03 A2998 RMK AO1 SLP121 60010 T00720033 10178 20056 50001,M
LOL,2021-10-08 23:53,-118.5701,40.0684,1192.43,57.00,44.00,61.95,140.00,8.00,0.00,29.94,1012.30,10.00,M,SCT,M,M,M,7000.00,M,M,M,M,M,M,M,M,M,M,57.00,KLOL 082353Z AUTO 14008KT 10SM SCT070 14/07 A2994 RMK AO2 SLP123 T01390067 10156 20106 56006,M
BVU,2021-10-08 23:55,-114.8611,35.9475,671.00,75.20,39.20,27.26,240.00,17.00,0.00,29.89,M,10.00,22.00,CLR,M,M,M,M,M,M,M,M,M,M,M,M,M,M,75.20,KBVU 082355Z AUTO 24017G22KT 10SM CLR 24/04 A2989 RMK AO2,M
RNO,2021-10-08 23:55,-119.7711,39.4839,1341.00,58.00,19.90,22.59,290.00,14.00,0.00,29.97,1012.40,10.00,M,FEW,FEW,M,M,8500.00,18000.00,M,M,M,M,M,M,26.00,300.00,2021-10-08 23:11,57.90,KRNO 082355Z 29014KT 10SM FEW085 FEW180 14/M07 A2997 RMK AO2 PK WND 30026/2311 SLP124 ACSL DSNT N AND S THRU NW T01441067 10161 20122 53002,M
MEV,2021-10-08 23:55,-119.7500,38.9963,1441.42,59.00,19.40,21.26,240.00,13.00,0.00,30.00,M,10.00,M,CLR,M,M,M,M,M,M,M,M,M,M,M,M,M,M,59.00,KMEV 082355Z AUTO 24013KT 10SM CLR 15/M07 A3000 RMK AO2,M
RTS,2021-10-08 23:55,-119.8764,39.6682,1539.00,53.60,23.00,30.11,290.00,14.00,0.00,30.01,M,10.00,19.00,CLR,M,M,M,M,M,M,M,M,M,M,M,M,M,M,53.60,KRTS 082355Z AUTO 29014G19KT 10SM CLR 12/M05 A3001 RMK AO2,M
05U,2021-10-08 23:55,-116.0051,39.6042,1811.23,46.40,39.20,75.84,0.00,0.00,0.00,30.01,M,10.00,M,BKN,M,M,M,5500.00,M,M,M,M,M,M,M,M,M,M,46.40,K05U 082355Z AUTO 00000KT 10SM BKN055 08/04 A3001 RMK A01,M
TMT,2021-10-08 23:55,-117.1971,39.4643,1749.34,50.50,31.80,48.50,290.00,9.00,0.00,30.01,M,10.00,M,SCT,BKN,M,M,4800.00,7000.00,M,M,M,M,M,M,M,M,M,50.50,KTMT 082355Z AUTO 29009KT 10SM SCT048 BKN070 10/00 A3001 RMK AO2 60007 T01031001 10105 20042,M
CXP,2021-10-08 23:55,-119.7326,39.1923,1431.00,59.00,14.00,16.83,300.00,12.00,0.00,30.00,M,10.00,M,CLR,M,M,M,M,M,M,M,M,M,M,M,M,M,M,59.00,KCXP 082355Z AUTO 30012KT 10SM CLR 15/M10 A3000 RMK AO2,M
HTH,2021-10-08 23:55,-118.6315,38.5448,1282.89,59.00,35.60,41.42,M,3.00,0.00,29.96,M,10.00,M,BKN,M,M,M,10000.00,M,M,M,M,M,M,M,M,M,M,59.00,KHTH 082355Z AUTO VRB03KT 10SM BKN100 15/02 A2996 RMK A01,M
BAM,2021-10-08 23:55,-116.8743,40.5990,1382.36,51.80,44.60,76.34,260.00,11.00,0.00,29.97,M,10.00,M,BKN,BKN,OVC,M,4400.00,5000.00,7000.00,M,M,M,M,M,M,M,M,51.80,KBAM 082355Z AUTO 26011KT 10SM BKN044 BKN050 OVC070 11/07 A2997 RMK AO1,M
EKO,2021-10-08 23:56,-115.7860,40.8242,1367.00,47.00,41.00,79.82,230.00,9.00,0.00,29.95,1012.80,10.00,M,SCT,OVC,M,M,2400.00,3500.00,M,M,M,M,M,M,M,M,M,42.04,KEKO 082356Z AUTO 23009KT 10SM SCT024 OVC035 08/05 A2995 RMK AO2 SLP128 60035 T00830050 10144 20072 53004,M
TPH,2021-10-08 23:56,-117.0904,38.0505,1654.00,55.00,32.00,41.44,350.00,22.00,0.00,30.00,1012.50,10.00,29.00,SCT,BKN,M,M,5500.00,7000.00,M,M,M,M,M,M,29.00,350.00,2021-10-08 23:56,55.00,KTPH 082356Z AUTO 35022G29KT 10SM SCT055 BKN070 13/00 A3000 RMK AO2 PK WND 35029/2356 LTG DSNT SW SLP125 60000 T01280000 10167 20094 51008,M
NFL,2021-10-08 23:56,-118.7010,39.4166,1199.00,60.00,40.00,47.15,30.00,4.00,0.00,29.94,1011.20,10.00,M,FEW,SCT,SCT,M,5000.00,8000.00,16000.00,M,M,M,M,M,M,M,M,60.10,KNFL 082356Z 03004KT 10SM FEW050 SCT080 SCT160 16/04 A2994 RMK AO2 SLP112 CB DSNT N 60000 T01560044 57006 $,M
LAS,2021-10-08 23:56,-115.1634,36.0719,663.00,72.00,42.00,33.97,230.00,16.00,0.00,29.88,1009.90,10.00,25.00,FEW,FEW,SCT,M,4800.00,6000.00,22000.00,M,M,M,M,M,28.00,240.00,2021-10-08 23:08,72.00,KLAS 082356Z 23016G25KT 10SM FEW048 FEW060 SCT220 22/06 A2988 RMK AO2 PK WND 24028/2308 SLP099 60002 T02220056 10233 20183 56012,M
HND,2021-10-08 23:56,-115.1344,35.9729,742.79,71.00,44.00,37.81,220.00,20.00,0.00,29.89,1012.00,10.00,26.00,CLR,M,M,M,M,M,M,M,M,M,M,M,27.00,220.00,2021-10-08 23:52,71.10,KHND 082356Z 22020G26KT 10SM CLR 22/07 A2989 RMK AO2 PK WND 22027/2352 SLP120 60001 T02170067 10233 20172 56019,M
WMC,2021-10-08 23:56,-117.8072,40.9019,1315.00,53.00,43.00,68.46,150.00,5.00,0.00,29.95,1012.30,10.00,M,FEW,BKN,M,M,8000.00,10000.00,M,M,M,M,M,M,M,M,M,53.10,KWMC 082356Z AUTO 15005KT 10SM FEW080 BKN100 12/06 A2995 RMK AO2 SLP123 60004 T01170061 10117 20078 58005,M
LSV,2021-10-08 23:58,-115.0343,36.2362,570.00,74.00,44.00,33.91,210.00,20.00,0.00,29.85,1008.90,10.00,M,CLR,M,M,M,M,M,M,M,M,M,M,M,29.00,210.00,2021-10-08 23:16,74.10,KLSV 082358Z AUTO 21020KT 10SM CLR 23/07 A2985 RMK AO2 PK WND 21029/16 SLP089 60003 T02340066 10241 20185 55013 $,M
INS,2021-10-08 23:58,-115.6733,36.5872,955.00,71.80,30.90,21.97,270.00,5.00,0.00,29.87,1007.50,10.00,M,CLR,M,M,M,M,M,M,M,M,M,M,M,M,M,M,71.80,KINS 082358Z AUTO 27005KT 10SM CLR 22/M01 A2987 RMK AO2 SLP075 T02211006 10231 20181 50001 $,M
