station,valid,lon,lat,elevation,tmpf,dwpf,relh,drct,sknt,p01i,alti,mslp,vsby,gust,skyc1,skyc2,skyc3,skyc4,skyl1,skyl2,skyl3,skyl4,wxcodes,ice_accretion_1hr,ice_accretion_3hr,ice_accretion_6hr,peak_wind_gust,peak_wind_drct,peak_wind_time,feel,metar,snowdepth
05U,2024-08-31 00:10,-116.0051,39.6042,1811.23,87.80,23.00,9.39,360.00,12.00,0.00,30.27,M,10.00,17.00,CLR,M,M,M,M,M,M,M,M,M,M,M,M,M,M,83.43,K05U 310010Z AUTO 36012G17KT 10SM CLR 31/M05 A3027 RMK A01,M
BVU,2024-08-31 00:15,-114.8611,35.9475,671.00,102.20,35.60,10.07,200.00,6.00,0.00,29.95,M,10.00,M,CLR,M,M,M,M,M,M,M,M,M,M,M,M,M,M,96.30,KBVU 310015Z AUTO 20006KT 10SM CLR 39/02 A2995 RMK AO2,M
CXP,2024-08-31 00:15,-119.7326,39.1923,1431.00,91.40,17.60,6.66,60.00,10.00,0.00,30.18,M,10.00,15.00,CLR,M,M,M,M,M,M,M,M,M,M,M,M,M,M,85.76,KCXP 310015Z AUTO 06010G15KT 10SM CLR 33/M08 A3018 RMK AO2,M
RTS,2024-08-31 00:15,-119.8764,39.6682,1539.00,89.60,14.00,6.03,140.00,8.00,0.00,30.20,M,10.00,M,CLR,M,M,M,M,M,M,M,M,M,M,M,M,M,M,84.30,KRTS 310015Z AUTO 14008KT 10SM CLR 32/M10 A3020 RMK AO2,M
MEV,2024-08-31 00:15,-119.7500,38.9963,1441.42,91.40,26.60,9.74,290.00,11.00,0.00,30.16,M,10.00,M,CLR,M,M,M,M,M,M,M,M,M,M,M,M,M,M,86.36,KMEV 310015Z AUTO 29011KT 10SM CLR 33/M03 A3016 RMK AO2,M
BAM,2024-08-31 00:15,-116.8743,40.5990,1382.36,89.60,10.40,5.14,330.00,6.00,0.00,30.20,M,10.00,M,CLR,M,M,M,M,M,M,M,M,M,M,M,M,M,M,84.17,KBAM 310015Z AUTO 33006KT 10SM CLR 32/M12 A3020 RMK AO1,M
HTH,2024-08-31 00:15,-118.6315,38.5448,1282.89,93.20,19.40,6.80,320.00,6.00,0.00,30.11,M,10.00,11.00,CLR,M,M,M,M,M,M,M,M,M,M,M,M,M,M,87.18,KHTH 310015Z AUTO 32006G11KT 10SM CLR 34/M07 A3011 RMK A01,M
TMT,2024-08-31 00:15,-117.1971,39.4643,1749.34,87.00,24.00,10.04,330.00,11.00,0.00,30.25,M,10.00,M,CLR,M,M,M,M,M,M,M,M,M,M,M,M,M,M,82.92,KTMT 310015Z AUTO 33011KT 10SM CLR 31/M04 A3025 RMK AO2 T03051044,M
10U,2024-08-31 00:15,-116.1876,41.9532,1637.00,84.20,15.80,7.74,50.00,7.00,0.00,30.25,M,10.00,M,CLR,M,M,M,M,M,M,M,M,M,M,M,M,M,M,80.51,K10U 310015Z AUTO 05007KT 10SM CLR 29/M09 A3025 RMK AO2,M
05U,2024-08-31 00:30,-116.0051,39.6042,1811.23,86.00,23.00,9.94,10.00,11.00,0.00,30.27,M,10.00,M,CLR,M,M,M,M,M,M,M,M,M,M,M,M,M,M,82.14,K05U 310030Z AUTO 01011KT 10SM CLR 30/M05 A3027 RMK A01,M
BVU,2024-08-31 00:35,-114.8611,35.9475,671.00,102.20,35.60,10.07,240.00,5.00,0.00,29.95,M,10.00,M,CLR,M,M,M,M,M,M,M,M,M,M,M,M,M,M,96.30,KBVU 310035Z AUTO 24005KT 10SM CLR 39/02 A2995 RMK AO2,M
BAM,2024-08-31 00:35,-116.8743,40.5990,1382.36,89.60,6.80,4.37,330.00,7.00,0.00,30.19,M,10.00,M,CLR,M,M,M,M,M,M,M,M,M,M,M,M,M,M,84.07,KBAM 310035Z AUTO 33007KT 10SM CLR 32/M14 A3019 RMK AO1,M
CXP,2024-08-31 00:35,-119.7326,39.1923,1431.00,91.40,19.40,7.19,80.00,9.00,0.00,30.17,M,10.00,M,CLR,M,M,M,M,M,M,M,M,M,M,M,M,M,M,85.86,KCXP 310035Z AUTO 08009KT 10SM CLR 33/M07 A3017 RMK AO2,M
RTS,2024-08-31 00:35,-119.8764,39.6682,1539.00,89.60,15.80,6.52,90.00,11.00,0.00,30.20,M,10.00,M,CLR,M,M,M,M,M,M,M,M,M,M,M,M,M,M,84.37,KRTS 310035Z AUTO 09011KT 10SM CLR 32/M09 A3020 RMK AO2,M
MEV,2024-08-31 00:35,-119.7500,38.9963,1441.42,89.60,35.60,14.83,280.00,14.00,0.00,30.16,M,10.00,M,CLR,M,M,M,M,M,M,M,M,M,M,M,M,M,M,85.62,KMEV 310035Z AUTO 28014KT 10SM CLR 32/02 A3016 RMK AO2,M
HTH,2024-08-31 00:35,-118.6315,38.5448,1282.89,93.20,19.40,6.80,330.00,9.00,0.00,30.11,M,10.00,M,CLR,M,M,M,M,M,M,M,M,M,M,M,M,M,M,87.18,KHTH 310035Z AUTO 33009KT 10SM CLR 34/M07 A3011 RMK A01,M
TMT,2024-08-31 00:35,-117.1971,39.4643,1749.34,86.00,23.50,10.15,360.00,10.00,0.00,30.25,M,10.00,17.00,CLR,M,M,M,M,M,M,M,M,M,M,M,M,M,M,82.17,KTMT 310035Z AUTO 36010G17KT 10SM CLR 30/M05 A3025 RMK AO2 T03001047,M
10U,2024-08-31 00:35,-116.1876,41.9532,1637.00,84.20,15.80,7.74,50.00,8.00,0.00,30.25,M,10.00,M,CLR,M,M,M,M,M,M,M,M,M,M,M,M,M,M,80.51,K10U 310035Z AUTO 05008KT 10SM CLR 29/M09 A3025 RMK AO2,M
05U,2024-08-31 00:50,-116.0051,39.6042,1811.23,86.00,21.20,9.21,10.00,10.00,0.00,30.27,M,10.00,M,CLR,M,M,M,M,M,M,M,M,M,M,M,M,M,M,82.04,K05U 310050Z AUTO 01010KT 10SM CLR 30/M06 A3027 RMK A01,M
P68,2024-08-31 00:53,-116.0056,39.6014,1993.00,86.00,21.00,9.13,20.00,11.00,0.00,30.24,1017.10,M,M,M,M,M,M,M,M,M,M,M,M,M,M,M,M,M,82.02,KP68 310053Z AUTO 02011KT 30/M06 A3024 RMK AO1 SLP171 T03001061,M
DRA,2024-08-31 00:53,-116.0278,36.6206,1009.00,97.00,36.00,11.98,190.00,7.00,0.00,30.05,1012.30,10.00,M,CLR,M,M,M,M,M,M,M,M,M,M,M,M,M,M,91.96,KDRA 310053Z AUTO 19007KT 10SM CLR 36/02 A3005 RMK AO2 SLP123 T03610022,M
ELY,2024-08-31 00:53,-114.8453,39.2950,1909.00,86.00,22.00,9.53,310.00,10.00,0.00,30.26,1016.00,10.00,M,CLR,M,M,M,M,M,M,M,M,M,M,M,M,M,M,82.08,KELY 310053Z AUTO 31010KT 10SM CLR 30/M06 A3026 RMK AO2 SLP160 T03001056,M
VGT,2024-08-31 00:53,-115.1933,36.2111,667.00,102.00,39.00,11.58,230.00,10.00,0.00,29.95,1012.90,10.00,M,CLR,M,M,M,M,M,M,M,M,M,M,M,M,M,M,96.77,KVGT 310053Z 23010KT 10SM CLR 39/04 A2995 RMK AO2 SLP129 T03890039,M
LOL,2024-08-31 00:53,-118.5701,40.0684,1192.43,93.00,21.00,7.33,0.00,0.00,0.00,30.11,1016.30,10.00,M,CLR,M,M,M,M,M,M,M,M,M,M,M,M,M,M,87.13,KLOL 310053Z AUTO 00000KT 10SM CLR 34/M06 A3011 RMK AO2 SLP163 T03391061,M
BVU,2024-08-31 00:55,-114.8611,35.9475,671.00,100.40,35.60,10.63,M,3.00,0.00,29.95,M,10.00,M,CLR,M,M,M,M,M,M,M,M,M,M,M,M,M,M,94.76,KBVU 310055Z AUTO VRB03KT 10SM CLR 38/02 A2995 RMK AO2,M
RNO,2024-08-31 00:55,-119.7711,39.4839,1341.00,92.00,55.00,28.75,M,3.00,0.00,30.14,1014.70,10.00,M,FEW,M,M,M,10000.00,M,M,M,M,M,M,M,M,M,M,90.02,KRNO 310055Z VRB03KT 10SM FEW100 33/13 A3014 RMK AO2 SLP147 T03330128 $,M
CXP,2024-08-31 00:55,-119.7326,39.1923,1431.00,89.60,17.60,7.05,70.00,7.00,0.00,30.17,M,10.00,14.00,CLR,M,M,M,M,M,M,M,M,M,M,M,M,M,M,84.45,KCXP 310055Z AUTO 07007G14KT 10SM CLR 32/M08 A3017 RMK AO2,M
RTS,2024-08-31 00:55,-119.8764,39.6682,1539.00,89.60,14.00,6.03,90.00,6.00,0.00,30.20,M,10.00,M,CLR,M,M,M,M,M,M,M,M,M,M,M,M,M,M,84.30,KRTS 310055Z AUTO 09006KT 10SM CLR 32/M10 A3020 RMK AO2,M
MEV,2024-08-31 00:55,-119.7500,38.9963,1441.42,87.80,33.80,14.61,270.00,13.00,0.00,30.16,M,10.00,M,CLR,M,M,M,M,M,M,M,M,M,M,M,M,M,M,84.10,KMEV 310055Z AUTO 27013KT 10SM CLR 31/01 A3016 RMK AO2,M
BAM,2024-08-31 00:55,-116.8743,40.5990,1382.36,89.60,6.80,4.37,340.00,7.00,0.00,30.19,M,5.00,M,CLR,M,M,M,M,M,M,M,M,M,M,M,M,M,M,84.07,KBAM 310055Z AUTO 34007KT 5SM CLR 32/M14 A3019 RMK AO1,M
HTH,2024-08-31 00:55,-118.6315,38.5448,1282.89,93.20,19.40,6.80,330.00,9.00,0.00,30.11,M,10.00,M,CLR,M,M,M,M,M,M,M,M,M,M,M,M,M,M,87.18,KHTH 310055Z AUTO 33009KT 10SM CLR 34/M07 A3011 RMK A01,M
TMT,2024-08-31 00:55,-117.1971,39.4643,1749.34,85.50,24.40,10.71,350.00,12.00,0.00,30.25,M,10.00,M,CLR,M,M,M,M,M,M,M,M,M,M,M,M,M,M,81.88,KTMT 310055Z AUTO 35012KT 10SM CLR 30/M04 A3025 RMK AO2 T02971042,M
10U,2024-08-31 00:55,-116.1876,41.9532,1637.00,82.40,17.60,8.87,70.00,6.00,0.00,30.25,M,10.00,M,CLR,M,M,M,M,M,M,M,M,M,M,M,M,M,M,79.36,K10U 310055Z AUTO 07006KT 10SM CLR 28/M08 A3025 RMK AO2,M
INS,2024-08-31 00:55,-115.6733,36.5872,955.00,96.00,33.00,10.96,130.00,6.00,0.00,30.04,1011.80,10.00,M,BKN,BKN,M,M,15000.00,17000.00,M,M,M,M,M,M,M,M,M,90.66,KINS 310055Z AUTO 13006KT 10SM BKN150 BKN170 36/01 A3004 RMK AO2 SLP118 T03550005,M
LSV,2024-08-31 00:55,-115.0343,36.2362,570.00,103.30,30.60,7.97,180.00,9.00,0.00,29.90,1009.40,10.00,M,CLR,M,M,M,M,M,M,M,M,M,M,M,M,M,M,96.49,KLSV 310055Z AUTO 18009KT 10SM CLR 40/M01 A2990 RMK AO2 SLP094 T03961008 $,M
EKO,2024-08-31 00:56,-115.7860,40.8242,1367.00,87.00,6.00,4.58,0.00,0.00,0.00,30.22,1018.90,10.00,M,CLR,M,M,M,M,M,M,M,M,M,M,M,M,M,M,82.18,KEKO 310056Z AUTO 00000KT 10SM CLR 31/M14 A3022 RMK AO2 SLP189 T03061144,M
HND,2024-08-31 00:56,-115.1344,35.9729,742.79,98.00,42.00,14.68,90.00,4.00,0.00,30.01,1014.40,10.00,M,CLR,M,M,M,M,M,M,M,M,M,M,M,M,M,M,93.63,KHND 310056Z 09004KT 10SM CLR 37/06 A3001 RMK AO2 SLP144 T03670056,M
TPH,2024-08-31 00:56,-117.0904,38.0505,1654.00,87.00,26.00,10.91,180.00,7.00,0.00,30.21,1015.60,10.00,M,CLR,M,M,M,M,M,M,M,M,M,M,M,M,M,M,83.06,KTPH 310056Z AUTO 18007KT 10SM CLR 31/M03 A3021 RMK AO2 SLP156 T03061033,M
LAS,2024-08-31 00:56,-115.1634,36.0719,663.00,97.00,44.00,16.35,130.00,6.00,0.00,29.97,1012.00,10.00,M,FEW,FEW,SCT,M,12000.00,16000.00,22000.00,M,M,M,M,M,M,M,M,92.91,KLAS 310056Z 13006KT 10SM FEW120 FEW160 SCT220 36/06 A2997 RMK AO2 SLP120 T03610067 $,M
NFL,2024-08-31 00:57,-118.7010,39.4166,1199.00,94.00,22.00,7.41,30.00,6.00,0.00,30.11,1016.10,10.00,M,FEW,M,M,M,8000.00,M,M,M,M,M,M,M,M,M,M,87.94,KNFL 310057Z 03006KT 10SM FEW080 34/M06 A3011 RMK AO2 SLP161 T03441056,M
05U,2024-08-31 01:10,-116.0051,39.6042,1811.23,84.20,21.20,9.76,20.00,10.00,0.00,30.27,M,10.00,M,CLR,M,M,M,M,M,M,M,M,M,M,M,M,M,M,80.77,K05U 310110Z AUTO 02010KT 10SM CLR 29/M06 A3027 RMK A01,M
BVU,2024-08-31 01:15,-114.8611,35.9475,671.00,100.40,35.60,10.63,110.00,6.00,0.00,29.95,M,10.00,M,CLR,M,M,M,M,M,M,M,M,M,M,M,M,M,M,94.76,KBVU 310115Z AUTO 11006KT 10SM CLR 38/02 A2995 RMK AO2,M
RTS,2024-08-31 01:15,-119.8764,39.6682,1539.00,87.80,14.00,6.38,130.00,8.00,0.00,30.20,M,10.00,M,CLR,M,M,M,M,M,M,M,M,M,M,M,M,M,M,83.00,KRTS 310115Z AUTO 13008KT 10SM CLR 31/M10 A3020 RMK AO2,M
BAM,2024-08-31 01:15,-116.8743,40.5990,1382.36,87.80,12.20,5.89,340.00,5.00,0.00,30.19,M,7.00,M,CLR,M,M,M,M,M,M,M,M,M,M,M,M,M,M,82.93,KBAM 310115Z AUTO 34005KT 7SM CLR 31/M11 A3019 RMK AO1,M
HTH,2024-08-31 01:15,-118.6315,38.5448,1282.89,93.20,19.40,6.80,330.00,10.00,0.00,30.10,M,10.00,M,CLR,M,M,M,M,M,M,M,M,M,M,M,M,M,M,87.18,KHTH 310115Z AUTO 33010KT 10SM CLR 34/M07 A3010 RMK A01,M
TMT,2024-08-31 01:15,-117.1971,39.4643,1749.34,84.20,24.00,10.98,340.00,10.00,0.00,30.25,M,10.00,16.00,CLR,M,M,M,M,M,M,M,M,M,M,M,M,M,M,80.95,KTMT 310115Z AUTO 34010G16KT 10SM CLR 29/M04 A3025 RMK AO2 T02901044,M
10U,2024-08-31 01:15,-116.1876,41.9532,1637.00,78.80,19.40,10.78,60.00,5.00,0.00,30.25,M,9.00,M,CLR,M,M,M,M,M,M,M,M,M,M,M,M,M,M,78.80,K10U 310115Z AUTO 06005KT 9SM CLR 26/M07 A3025 RMK AO2,M
CXP,2024-08-31 01:15,-119.7326,39.1923,1431.00,89.60,19.40,7.61,250.00,3.00,0.00,30.18,M,10.00,M,CLR,M,M,M,M,M,M,M,M,M,M,M,M,M,M,84.54,KCXP 310115Z AUTO 25003KT 10SM CLR 32/M07 A3018 RMK AO2,M
MEV,2024-08-31 01:15,-119.7500,38.9963,1441.42,87.80,32.00,13.59,280.00,14.00,0.00,30.16,M,10.00,19.00,CLR,M,M,M,M,M,M,M,M,M,M,M,M,M,M,84.08,KMEV 310115Z AUTO 28014G19KT 10SM CLR 31/00 A3016 RMK AO2,M
05U,2024-08-31 01:30,-116.0051,39.6042,1811.23,82.40,24.80,12.03,360.00,8.00,0.00,30.26,M,10.00,M,CLR,M,M,M,M,M,M,M,M,M,M,M,M,M,M,79.79,K05U 310130Z AUTO 36008KT 10SM CLR 28/M04 A3026 RMK A01,M
BVU,2024-08-31 01:35,-114.8611,35.9475,671.00,100.40,35.60,10.63,110.00,10.00,0.00,29.95,M,10.00,M,CLR,M,M,M,M,M,M,M,M,M,M,M,M,M,M,94.76,KBVU 310135Z AUTO 11010KT 10SM CLR 38/02 A2995 RMK AO2,M
CXP,2024-08-31 01:35,-119.7326,39.1923,1431.00,87.80,32.00,13.59,300.00,11.00,0.00,30.18,M,10.00,M,CLR,M,M,M,M,M,M,M,M,M,M,M,M,M,M,84.08,KCXP 310135Z AUTO 30011KT 10SM CLR 31/00 A3018 RMK AO2,M
RTS,2024-08-31 01:35,-119.8764,39.6682,1539.00,87.80,15.80,6.90,90.00,11.00,0.00,30.20,M,10.00,M,CLR,M,M,M,M,M,M,M,M,M,M,M,M,M,M,83.07,KRTS 310135Z AUTO 09011KT 10SM CLR 31/M09 A3020 RMK AO2,M
MEV,2024-08-31 01:35,-119.7500,38.9963,1441.42,86.00,32.00,14.40,280.00,11.00,0.00,30.17,M,10.00,22.00,CLR,M,M,M,M,M,M,M,M,M,M,M,M,M,M,82.64,KMEV 310135Z AUTO 28011G22KT 10SM CLR 30/00 A3017 RMK AO2,M
BAM,2024-08-31 01:35,-116.8743,40.5990,1382.36,87.80,12.20,5.89,350.00,5.00,0.00,30.19,M,10.00,M,CLR,M,M,M,M,M,M,M,M,M,M,M,M,M,M,82.93,KBAM 310135Z AUTO 35005KT 10SM CLR 31/M11 A3019 RMK AO1,M
HTH,2024-08-31 01:35,-118.6315,38.5448,1282.89,91.40,19.40,7.19,330.00,10.00,0.00,30.10,M,10.00,M,CLR,M,M,M,M,M,M,M,M,M,M,M,M,M,M,85.86,KHTH 310135Z AUTO 33010KT 10SM CLR 33/M07 A3010 RMK A01,M
10U,2024-08-31 01:35,-116.1876,41.9532,1637.00,77.00,19.40,11.44,70.00,5.00,0.00,30.25,M,9.00,M,CLR,M,M,M,M,M,M,M,M,M,M,M,M,M,M,77.00,K10U 310135Z AUTO 07005KT 9SM CLR 25/M07 A3025 RMK AO2,M
TMT,2024-08-31 01:35,-117.1971,39.4643,1749.34,83.00,24.00,11.41,340.00,9.00,0.00,30.25,M,10.00,M,CLR,M,M,M,M,M,M,M,M,M,M,M,M,M,M,80.13,KTMT 310135Z AUTO 34009KT 10SM CLR 28/M04 A3025 RMK AO2 T02841045,M
05U,2024-08-31 01:50,-116.0051,39.6042,1811.23,78.80,26.60,14.59,0.00,0.00,0.00,30.27,M,10.00,M,CLR,M,M,M,M,M,M,M,M,M,M,M,M,M,M,78.80,K05U 310150Z AUTO 00000KT 10SM CLR 26/M03 A3027 RMK A01,M
P68,2024-08-31 01:53,-116.0056,39.6014,1993.00,78.00,27.00,15.22,10.00,8.00,0.00,30.24,1017.50,M,M,M,M,M,M,M,M,M,M,M,M,M,M,M,M,M,78.00,KP68 310153Z AUTO 01008KT 26/M03 A3024 RMK AO1 SLP175 T02561028,M
DRA,2024-08-31 01:53,-116.0278,36.6206,1009.00,95.00,35.00,12.24,130.00,4.00,0.00,30.04,1012.10,10.00,M,CLR,M,M,M,M,M,M,M,M,M,M,M,M,M,M,90.15,KDRA 310153Z AUTO 13004KT 10SM CLR 35/02 A3004 RMK AO2 SLP121 T03500017,M
ELY,2024-08-31 01:53,-114.8453,39.2950,1909.00,81.00,21.00,10.73,290.00,6.00,0.00,30.26,1016.30,10.00,M,CLR,M,M,M,M,M,M,M,M,M,M,M,M,M,M,78.63,KELY 310153Z AUTO 29006KT 10SM CLR 27/M06 A3026 RMK AO2 SLP163 T02721061,M
VGT,2024-08-31 01:53,-115.1933,36.2111,667.00,101.00,39.00,11.94,180.00,5.00,0.00,29.96,1013.00,10.00,M,CLR,M,M,M,M,M,M,M,M,M,M,M,M,M,M,95.90,KVGT 310153Z 18005KT 10SM CLR 38/04 A2996 RMK AO2 SLP130 T03830039,M
LOL,2024-08-31 01:53,-118.5701,40.0684,1192.43,89.00,26.00,10.24,80.00,4.00,0.00,30.11,1016.50,10.00,M,CLR,M,M,M,M,M,M,M,M,M,M,M,M,M,M,84.52,KLOL 310153Z AUTO 08004KT 10SM CLR 32/M03 A3011 RMK AO2 SLP165 T03171033,M
BVU,2024-08-31 01:55,-114.8611,35.9475,671.00,100.40,35.60,10.63,160.00,8.00,0.00,29.96,M,10.00,M,CLR,M,M,M,M,M,M,M,M,M,M,M,M,M,M,94.76,KBVU 310155Z AUTO 16008KT 10SM CLR 38/02 A2996 RMK AO2,M
RNO,2024-08-31 01:55,-119.7711,39.4839,1341.00,89.00,52.00,28.30,80.00,5.00,0.00,30.14,1015.20,10.00,M,FEW,M,M,M,10000.00,M,M,M,M,M,M,M,M,M,M,86.49,KRNO 310155Z 08005KT 10SM FEW100 32/11 A3014 RMK AO2 SLP152 T03170111,M
CXP,2024-08-31 01:55,-119.7326,39.1923,1431.00,86.00,33.80,15.48,290.00,10.00,0.00,30.18,M,10.00,M,CLR,M,M,M,M,M,M,M,M,M,M,M,M,M,M,82.66,KCXP 310155Z AUTO 29010KT 10SM CLR 30/01 A3018 RMK AO2,M
LSV,2024-08-31 01:55,-115.0343,36.2362,570.00,101.70,29.30,7.93,210.00,8.00,0.00,29.90,1009.40,10.00,M,SCT,M,M,M,18000.00,M,M,M,M,M,M,M,M,M,M,94.97,KLSV 310155Z AUTO 21008KT 10SM SCT180 39/M01 A2990 RMK AO2 SLP094 T03871015 $,M
RTS,2024-08-31 01:55,-119.8764,39.6682,1539.00,86.00,14.00,6.75,40.00,8.00,0.00,30.20,M,10.00,M,CLR,M,M,M,M,M,M,M,M,M,M,M,M,M,M,81.71,KRTS 310155Z AUTO 04008KT 10SM CLR 30/M10 A3020 RMK AO2,M
MEV,2024-08-31 01:55,-119.7500,38.9963,1441.42,84.20,32.00,15.25,270.00,11.00,0.00,30.17,M,10.00,18.00,CLR,M,M,M,M,M,M,M,M,M,M,M,M,M,M,81.28,KMEV 310155Z AUTO 27011G18KT 10SM CLR 29/M00 A3017 RMK AO2,M
BAM,2024-08-31 01:55,-116.8743,40.5990,1382.36,86.00,14.00,6.75,350.00,5.00,0.00,30.19,M,10.00,M,CLR,M,M,M,M,M,M,M,M,M,M,M,M,M,M,81.71,KBAM 310155Z AUTO 35005KT 10SM CLR 30/M10 A3019 RMK AO1,M
HTH,2024-08-31 01:55,-118.6315,38.5448,1282.89,89.60,21.20,8.22,310.00,8.00,0.00,30.10,M,10.00,M,CLR,M,M,M,M,M,M,M,M,M,M,M,M,M,M,84.64,KHTH 310155Z AUTO 31008KT 10SM CLR 32/M06 A3010 RMK A01,M
10U,2024-08-31 01:55,-116.1876,41.9532,1637.00,75.20,17.60,11.24,40.00,5.00,0.00,30.26,M,9.00,M,CLR,M,M,M,M,M,M,M,M,M,M,M,M,M,M,75.20,K10U 310155Z AUTO 04005KT 9SM CLR 24/M08 A3026 RMK AO2,M
INS,2024-08-31 01:55,-115.6733,36.5872,955.00,95.50,32.70,10.99,110.00,6.00,0.00,30.03,1011.50,10.00,M,SCT,M,M,M,18000.00,M,M,M,M,M,M,M,M,M,M,90.21,KINS 310155Z AUTO 11006KT 10SM SCT180 35/00 A3003 RMK AO2 SLP115 T03530004,M
EKO,2024-08-31 01:56,-115.7860,40.8242,1367.00,82.00,6.00,5.37,270.00,3.00,0.00,30.21,1018.70,10.00,M,CLR,M,M,M,M,M,M,M,M,M,M,M,M,M,M,78.66,KEKO 310156Z AUTO 27003KT 10SM CLR 28/M14 A3021 RMK AO2 SLP187 T02781144,M
HND,2024-08-31 01:56,-115.1344,35.9729,742.79,97.00,41.00,14.57,220.00,10.00,0.00,30.01,1014.60,10.00,M,CLR,M,M,M,M,M,M,M,M,M,M,M,M,M,M,92.58,KHND 310156Z 22010KT 10SM CLR 36/05 A3001 RMK AO2 SLP146 T03610050,M
TPH,2024-08-31 01:56,-117.0904,38.0505,1654.00,86.00,26.00,11.27,150.00,3.00,0.00,30.21,1015.50,10.00,M,CLR,M,M,M,M,M,M,M,M,M,M,M,M,M,M,82.35,KTPH 310156Z AUTO 15003KT 10SM CLR 30/M03 A3021 RMK AO2 SLP155 T03001033,M
LAS,2024-08-31 01:56,-115.1634,36.0719,663.00,97.00,44.00,16.35,M,3.00,0.00,29.98,1012.10,10.00,M,FEW,FEW,SCT,M,12000.00,16000.00,22000.00,M,M,M,M,M,M,M,M,92.91,KLAS 310156Z VRB03KT 10SM FEW120 FEW160 SCT220 36/06 A2998 RMK AO2 SLP121 VIRGA DSNT N AND E-S T03610067 $,M
NFL,2024-08-31 01:57,-118.7010,39.4166,1199.00,90.00,25.00,9.52,30.00,8.00,0.00,30.10,1015.90,10.00,M,FEW,M,M,M,8000.00,M,M,M,M,M,M,M,M,M,M,85.19,KNFL 310157Z 03008KT 10SM FEW080 32/M04 A3010 RMK AO2 SLP159 T03221039,M
05U,2024-08-31 02:10,-116.0051,39.6042,1811.23,71.60,28.40,19.98,0.00,0.00,0.00,30.27,M,10.00,M,CLR,M,M,M,M,M,M,M,M,M,M,M,M,M,M,71.60,K05U 310210Z AUTO 00000KT 10SM CLR 22/M02 A3027 RMK A01,M
BVU,2024-08-31 02:15,-114.8611,35.9475,671.00,100.40,35.60,10.63,160.00,9.00,0.00,29.96,M,10.00,M,CLR,M,M,M,M,M,M,M,M,M,M,M,M,M,M,94.76,KBVU 310215Z AUTO 16009KT 10SM CLR 38/02 A2996 RMK AO2,M
CXP,2024-08-31 02:15,-119.7326,39.1923,1431.00,84.20,33.80,16.39,290.00,5.00,0.00,30.18,M,10.00,11.00,CLR,M,M,M,M,M,M,M,M,M,M,M,M,M,M,81.30,KCXP 310215Z AUTO 29005G11KT 10SM CLR 29/01 A3018 RMK AO2,M
RTS,2024-08-31 02:15,-119.8764,39.6682,1539.00,84.20,14.00,7.16,10.00,6.00,0.00,30.21,M,10.00,11.00,CLR,M,M,M,M,M,M,M,M,M,M,M,M,M,M,80.44,KRTS 310215Z AUTO 01006G11KT 10SM CLR 29/M10 A3021 RMK AO2,M
MEV,2024-08-31 02:15,-119.7500,38.9963,1441.42,82.40,32.00,16.17,300.00,11.00,0.00,30.17,M,10.00,17.00,CLR,M,M,M,M,M,M,M,M,M,M,M,M,M,M,80.00,KMEV 310215Z AUTO 30011G17KT 10SM CLR 28/00 A3017 RMK AO2,M
BAM,2024-08-31 02:15,-116.8743,40.5990,1382.36,80.60,17.60,9.40,350.00,5.00,0.00,30.19,M,10.00,M,CLR,M,M,M,M,M,M,M,M,M,M,M,M,M,M,78.45,KBAM 310215Z AUTO 35005KT 10SM CLR 27/M08 A3019 RMK AO1,M
HTH,2024-08-31 02:15,-118.6315,38.5448,1282.89,87.80,19.40,8.06,310.00,9.00,0.00,30.11,M,10.00,M,CLR,M,M,M,M,M,M,M,M,M,M,M,M,M,M,83.23,KHTH 310215Z AUTO 31009KT 10SM CLR 31/M07 A3011 RMK A01,M
TMT,2024-08-31 02:15,-117.1971,39.4643,1749.34,78.00,23.00,12.89,350.00,8.00,0.00,30.26,M,10.00,M,CLR,M,M,M,M,M,M,M,M,M,M,M,M,M,M,78.00,KTMT 310215Z AUTO 35008KT 10SM CLR 26/M05 A3026 RMK AO2 T02561051,M
10U,2024-08-31 02:15,-116.1876,41.9532,1637.00,71.60,17.60,12.69,50.00,6.00,0.00,30.26,M,9.00,M,CLR,M,M,M,M,M,M,M,M,M,M,M,M,M,M,71.60,K10U 310215Z AUTO 05006KT 9SM CLR 22/M08 A3026 RMK AO2,M
05U,2024-08-31 02:30,-116.0051,39.6042,1811.23,71.60,24.80,17.22,0.00,0.00,0.00,30.28,M,10.00,M,CLR,M,M,M,M,M,M,M,M,M,M,M,M,M,M,71.60,K05U 310230Z AUTO 00000KT 10SM CLR 22/M04 A3028 RMK A01,M
BVU,2024-08-31 02:35,-114.8611,35.9475,671.00,98.60,35.60,11.23,170.00,6.00,0.00,29.96,M,10.00,M,CLR,M,M,M,M,M,M,M,M,M,M,M,M,M,M,93.23,KBVU 310235Z AUTO 17006KT 10SM CLR 37/02 A2996 RMK AO2,M
CXP,2024-08-31 02:35,-119.7326,39.1923,1431.00,82.40,33.80,17.38,350.00,4.00,0.00,30.19,M,10.00,M,CLR,M,M,M,M,M,M,M,M,M,M,M,M,M,M,80.03,KCXP 310235Z AUTO 35004KT 10SM CLR 28/01 A3019 RMK AO2,M
RTS,2024-08-31 02:35,-119.8764,39.6682,1539.00,80.60,33.80,18.42,310.00,7.00,0.00,30.22,M,10.00,13.00,CLR,M,M,M,M,M,M,M,M,M,M,M,M,M,M,78.88,KRTS 310235Z AUTO 31007G13KT 10SM CLR 27/01 A3022 RMK AO2,M
MEV,2024-08-31 02:35,-119.7500,38.9963,1441.42,80.60,33.80,18.42,280.00,11.00,0.00,30.18,M,10.00,M,CLR,M,M,M,M,M,M,M,M,M,M,M,M,M,M,78.88,KMEV 310235Z AUTO 28011KT 10SM CLR 27/01 A3018 RMK AO2,M
BAM,2024-08-31 02:35,-116.8743,40.5990,1382.36,78.80,17.60,9.98,350.00,4.00,0.00,30.19,M,10.00,M,CLR,M,M,M,M,M,M,M,M,M,M,M,M,M,M,78.80,KBAM 310235Z AUTO 35004KT 10SM CLR 26/M08 A3019 RMK AO1,M
HTH,2024-08-31 02:35,-118.6315,38.5448,1282.89,87.80,19.40,8.06,310.00,12.00,0.00,30.11,M,10.00,M,CLR,M,M,M,M,M,M,M,M,M,M,M,M,M,M,83.23,KHTH 310235Z AUTO 31012KT 10SM CLR 31/M07 A3011 RMK A01,M
TMT,2024-08-31 02:35,-117.1971,39.4643,1749.34,73.80,23.50,15.14,20.00,5.00,0.00,30.27,M,10.00,M,CLR,M,M,M,M,M,M,M,M,M,M,M,M,M,M,73.80,KTMT 310235Z AUTO 02005KT 10SM CLR 23/M05 A3027 RMK AO2 T02321047,M
10U,2024-08-31 02:35,-116.1876,41.9532,1637.00,69.80,17.60,13.49,60.00,5.00,0.00,30.26,M,9.00,M,CLR,M,M,M,M,M,M,M,M,M,M,M,M,M,M,69.80,K10U 310235Z AUTO 06005KT 9SM CLR 21/M08 A3026 RMK AO2,M
05U,2024-08-31 02:50,-116.0051,39.6042,1811.23,69.80,23.00,16.98,0.00,0.00,0.00,30.29,M,10.00,M,CLR,M,M,M,M,M,M,M,M,M,M,M,M,M,M,69.80,K05U 310250Z AUTO 00000KT 10SM CLR 21/M05 A3029 RMK A01,M
DRA,2024-08-31 02:53,-116.0278,36.6206,1009.00,88.00,35.00,15.23,100.00,6.00,0.00,30.05,1012.60,10.00,M,CLR,M,M,M,M,M,M,M,M,M,M,M,M,M,M,84.28,KDRA 310253Z AUTO 10006KT 10SM CLR 31/02 A3005 RMK AO2 SLP126 T03110017 53002,M
ELY,2024-08-31 02:53,-114.8453,39.2950,1909.00,70.00,18.00,13.63,M,3.00,0.00,30.28,1017.40,10.00,M,CLR,M,M,M,M,M,M,M,M,M,M,M,M,M,M,70.00,KELY 310253Z AUTO VRB03KT 10SM CLR 21/M08 A3028 RMK AO2 SLP174 T02111078 53007,M
VGT,2024-08-31 02:53,-115.1933,36.2111,667.00,100.00,40.00,12.79,230.00,4.00,0.00,29.97,1013.30,10.00,M,CLR,M,M,M,M,M,M,M,M,M,M,M,M,M,M,95.26,KVGT 310253Z 23004KT 10SM CLR 38/04 A2997 RMK AO2 SLP133 T03780044 53004,M
LOL,2024-08-31 02:53,-118.5701,40.0684,1192.43,81.00,22.00,11.20,20.00,8.00,0.00,30.11,1016.10,10.00,M,CLR,M,M,M,M,M,M,M,M,M,M,M,M,M,M,78.69,KLOL 310253Z AUTO 02008KT 10SM CLR 27/M06 A3011 RMK AO2 SLP161 T02721056 55002,M
BVU,2024-08-31 02:55,-114.8611,35.9475,671.00,98.60,35.60,11.23,160.00,8.00,0.00,29.97,M,10.00,M,CLR,M,M,M,M,M,M,M,M,M,M,M,M,M,M,93.23,KBVU 310255Z AUTO 16008KT 10SM CLR 37/02 A2997 RMK AO2,M
INS,2024-08-31 02:55,-115.6733,36.5872,955.00,92.50,34.50,12.96,120.00,3.00,0.00,30.04,1011.60,10.00,M,CLR,M,M,M,M,M,M,M,M,M,M,M,M,M,M,88.10,KINS 310255Z AUTO 12003KT 10SM CLR 34/01 A3004 RMK AO2 SLP116 T03360014 50003,M
RNO,2024-08-31 02:55,-119.7711,39.4839,1341.00,85.00,50.00,29.85,290.00,14.00,0.00,30.16,1016.10,10.00,M,FEW,M,M,M,10000.00,M,M,M,M,M,M,M,M,M,M,82.83,KRNO 310255Z 29014KT 10SM FEW100 29/10 A3016 RMK AO2 SLP161 T02940100 53007,M
CXP,2024-08-31 02:55,-119.7326,39.1923,1431.00,82.40,33.80,17.38,340.00,9.00,0.00,30.20,M,10.00,M,CLR,M,M,M,M,M,M,M,M,M,M,M,M,M,M,80.03,KCXP 310255Z AUTO 34009KT 10SM CLR 28/01 A3020 RMK AO2,M
RTS,2024-08-31 02:55,-119.8764,39.6682,1539.00,78.80,35.60,21.00,300.00,10.00,0.00,30.23,M,10.00,M,CLR,M,M,M,M,M,M,M,M,M,M,M,M,M,M,78.80,KRTS 310255Z AUTO 30010KT 10SM CLR 26/02 A3023 RMK AO2,M
MEV,2024-08-31 02:55,-119.7500,38.9963,1441.42,80.60,33.80,18.42,320.00,8.00,0.00,30.19,M,10.00,18.00,CLR,M,M,M,M,M,M,M,M,M,M,M,M,M,M,78.88,KMEV 310255Z AUTO 32008G18KT 10SM CLR 27/01 A3019 RMK AO2,M
BAM,2024-08-31 02:55,-116.8743,40.5990,1382.36,77.00,17.60,10.59,340.00,4.00,0.00,30.19,M,10.00,M,CLR,M,M,M,M,M,M,M,M,M,M,M,M,M,M,77.00,KBAM 310255Z AUTO 34004KT 10SM CLR 25/M08 A3019 RMK AO1,M
HTH,2024-08-31 02:55,-118.6315,38.5448,1282.89,86.00,17.60,7.90,320.00,10.00,0.00,30.12,M,10.00,M,CLR,M,M,M,M,M,M,M,M,M,M,M,M,M,M,81.85,KHTH 310255Z AUTO 32010KT 10SM CLR 30/M08 A3012 RMK A01,M
TMT,2024-08-31 02:55,-117.1971,39.4643,1749.34,71.00,23.00,16.30,350.00,6.00,0.00,30.27,M,10.00,M,CLR,M,M,M,M,M,M,M,M,M,M,M,M,M,M,71.00,KTMT 310255Z AUTO 35006KT 10SM CLR 22/M05 A3027 RMK AO2 T02171050,M
10U,2024-08-31 02:55,-116.1876,41.9532,1637.00,62.60,17.60,17.32,210.00,3.00,0.00,30.27,M,10.00,M,CLR,M,M,M,M,M,M,M,M,M,M,M,M,M,M,62.60,K10U 310255Z AUTO 21003KT 10SM CLR 17/M08 A3027 RMK AO2,M
LSV,2024-08-31 02:55,-115.0343,36.2362,570.00,99.00,33.00,10.00,220.00,4.00,0.00,29.91,1009.80,10.00,M,BKN,M,M,M,18000.00,M,M,M,M,M,M,M,M,M,M,93.16,KLSV 310255Z AUTO 22004KT 10SM BKN180 37/01 A2991 RMK AO2 SLP098 T03730005 52006 $,M
EKO,2024-08-31 02:56,-115.7860,40.8242,1367.00,71.00,9.00,8.87,0.00,0.00,0.00,30.22,1019.70,10.00,M,CLR,M,M,M,M,M,M,M,M,M,M,M,M,M,M,71.00,KEKO 310256Z AUTO 00000KT 10SM CLR 22/M13 A3022 RMK AO2 SLP197 T02171128 53002,M
HND,2024-08-31 02:56,-115.1344,35.9729,742.79,95.00,41.00,15.49,210.00,6.00,0.00,30.02,1015.00,10.00,M,CLR,M,M,M,M,M,M,M,M,M,M,M,M,M,M,90.70,KHND 310256Z 21006KT 10SM CLR 35/05 A3002 RMK AO2 SLP150 T03500050 53005,M
TPH,2024-08-31 02:56,-117.0904,38.0505,1654.00,78.00,26.00,14.61,230.00,6.00,0.00,30.22,1015.90,10.00,M,CLR,M,M,M,M,M,M,M,M,M,M,M,M,M,M,78.00,KTPH 310256Z AUTO 23006KT 10SM CLR 26/M03 A3022 RMK AO2 SLP159 T02561033 53001,M
LAS,2024-08-31 02:56,-115.1634,36.0719,663.00,94.00,43.00,17.25,220.00,6.00,0.00,29.99,1012.50,10.00,M,FEW,FEW,SCT,M,12000.00,16000.00,22000.00,M,M,M,M,M,M,M,M,89.94,KLAS 310256Z 22006KT 10SM FEW120 FEW160 SCT220 34/06 A2999 RMK AO2 SLP125 T03440061 53004 $,M
NFL,2024-08-31 02:57,-118.7010,39.4166,1199.00,81.00,31.00,16.25,20.00,8.00,0.00,30.10,1016.10,10.00,M,CLR,M,M,M,M,M,M,M,M,M,M,M,M,M,M,79.04,KNFL 310257Z 02008KT 10SM CLR 27/M01 A3010 RMK AO2 SLP161 T02721006 55004,M
05U,2024-08-31 03:10,-116.0051,39.6042,1811.23,68.00,21.20,16.74,0.00,0.00,0.00,30.30,M,10.00,M,CLR,M,M,M,M,M,M,M,M,M,M,M,M,M,M,68.00,K05U 310310Z AUTO 00000KT 10SM CLR 20/M06 A3030 RMK A01,M
BVU,2024-08-31 03:15,-114.8611,35.9475,671.00,98.60,35.60,11.23,200.00,7.00,0.00,29.97,M,10.00,M,CLR,M,M,M,M,M,M,M,M,M,M,M,M,M,M,93.23,KBVU 310315Z AUTO 20007KT 10SM CLR 37/02 A2997 RMK AO2,M
CXP,2024-08-31 03:15,-119.7326,39.1923,1431.00,80.60,33.80,18.42,0.00,0.00,0.00,30.21,M,10.00,M,CLR,M,M,M,M,M,M,M,M,M,M,M,M,M,M,78.88,KCXP 310315Z AUTO 00000KT 10SM CLR 27/01 A3021 RMK AO2,M
RTS,2024-08-31 03:15,-119.8764,39.6682,1539.00,77.00,35.60,22.28,290.00,8.00,0.00,30.24,M,10.00,M,CLR,M,M,M,M,M,M,M,M,M,M,M,M,M,M,77.00,KRTS 310315Z AUTO 29008KT 10SM CLR 25/02 A3024 RMK AO2,M
MEV,2024-08-31 03:15,-119.7500,38.9963,1441.42,78.80,33.80,19.55,340.00,5.00,0.00,30.20,M,10.00,M,CLR,M,M,M,M,M,M,M,M,M,M,M,M,M,M,78.80,KMEV 310315Z AUTO 34005KT 10SM CLR 26/01 A3020 RMK AO2,M
BAM,2024-08-31 03:15,-116.8743,40.5990,1382.36,71.60,19.40,13.71,40.00,3.00,0.00,30.20,M,10.00,M,CLR,M,M,M,M,M,M,M,M,M,M,M,M,M,M,71.60,KBAM 310315Z AUTO 04003KT 10SM CLR 22/M07 A3020 RMK AO1,M
HTH,2024-08-31 03:15,-118.6315,38.5448,1282.89,86.00,19.40,8.53,320.00,14.00,0.00,30.13,M,10.00,M,CLR,M,M,M,M,M,M,M,M,M,M,M,M,M,M,81.94,KHTH 310315Z AUTO 32014KT 10SM CLR 30/M07 A3013 RMK A01,M
TMT,2024-08-31 03:15,-117.1971,39.4643,1749.34,68.00,22.00,17.31,0.00,0.00,0.00,30.28,M,10.00,M,CLR,M,M,M,M,M,M,M,M,M,M,M,M,M,M,68.00,KTMT 310315Z AUTO 00000KT 10SM CLR 20/M05 A3028 RMK AO2 T02011055,M
10U,2024-08-31 03:15,-116.1876,41.9532,1637.00,59.00,15.80,18.20,M,4.00,0.00,30.28,M,10.00,M,CLR,M,M,M,M,M,M,M,M,M,M,M,M,M,M,59.00,K10U 310315Z AUTO VRB04KT 10SM CLR 15/M09 A3028 RMK AO2,M
05U,2024-08-31 03:30,-116.0051,39.6042,1811.23,64.40,26.60,23.77,0.00,0.00,0.00,30.31,M,10.00,M,CLR,M,M,M,M,M,M,M,M,M,M,M,M,M,M,64.40,K05U 310330Z AUTO 00000KT 10SM CLR 18/M03 A3031 RMK A01,M
BVU,2024-08-31 03:35,-114.8611,35.9475,671.00,96.80,35.60,11.86,180.00,4.00,0.00,29.98,M,10.00,M,CLR,M,M,M,M,M,M,M,M,M,M,M,M,M,M,91.72,KBVU 310335Z AUTO 18004KT 10SM CLR 36/02 A2998 RMK AO2,M
CXP,2024-08-31 03:35,-119.7326,39.1923,1431.00,77.00,33.80,20.74,0.00,0.00,0.00,30.22,M,10.00,M,CLR,M,M,M,M,M,M,M,M,M,M,M,M,M,M,77.00,KCXP 310335Z AUTO 00000KT 10SM CLR 25/01 A3022 RMK AO2,M
RTS,2024-08-31 03:35,-119.8764,39.6682,1539.00,75.20,35.60,23.66,280.00,9.00,0.00,30.25,M,10.00,M,CLR,M,M,M,M,M,M,M,M,M,M,M,M,M,M,75.20,KRTS 310335Z AUTO 28009KT 10SM CLR 24/02 A3025 RMK AO2,M
MEV,2024-08-31 03:35,-119.7500,38.9963,1441.42,71.60,35.60,26.71,190.00,6.00,0.00,30.21,M,10.00,M,CLR,M,M,M,M,M,M,M,M,M,M,M,M,M,M,71.60,KMEV 310335Z AUTO 19006KT 10SM CLR 22/02 A3021 RMK AO2,M
BAM,2024-08-31 03:35,-116.8743,40.5990,1382.36,64.40,15.80,15.04,170.00,5.00,0.00,30.21,M,10.00,M,CLR,M,M,M,M,M,M,M,M,M,M,M,M,M,M,64.40,KBAM 310335Z AUTO 17005KT 10SM CLR 18/M09 A3021 RMK AO1,M
HTH,2024-08-31 03:35,-118.6315,38.5448,1282.89,84.20,23.00,10.53,330.00,10.00,0.00,30.14,M,10.00,M,CLR,M,M,M,M,M,M,M,M,M,M,M,M,M,M,80.88,KHTH 310335Z AUTO 33010KT 10SM CLR 29/M05 A3014 RMK A01,M
TMT,2024-08-31 03:35,-117.1971,39.4643,1749.34,59.50,23.40,24.74,180.00,3.00,0.00,30.29,M,10.00,M,CLR,M,M,M,M,M,M,M,M,M,M,M,M,M,M,59.50,KTMT 310335Z AUTO 18003KT 10SM CLR 15/M05 A3029 RMK AO2 T01531048,M
10U,2024-08-31 03:35,-116.1876,41.9532,1637.00,55.40,15.80,20.73,280.00,4.00,0.00,30.28,M,10.00,M,CLR,M,M,M,M,M,M,M,M,M,M,M,M,M,M,55.40,K10U 310335Z AUTO 28004KT 10SM CLR 13/M09 A3028 RMK AO2,M
05U,2024-08-31 03:50,-116.0051,39.6042,1811.23,62.60,21.20,20.20,0.00,0.00,0.00,30.32,M,10.00,M,CLR,M,M,M,M,M,M,M,M,M,M,M,M,M,M,62.60,K05U 310350Z AUTO 00000KT 10SM CLR 17/M06 A3032 RMK A01,M
P68,2024-08-31 03:53,-116.0056,39.6014,1993.00,62.00,23.00,22.26,200.00,4.00,0.00,30.30,1018.90,M,M,M,M,M,M,M,M,M,M,M,M,M,M,M,M,M,62.00,KP68 310353Z AUTO 20004KT 17/M05 A3030 RMK AO1 SLP189 T01671050,M
DRA,2024-08-31 03:53,-116.0278,36.6206,1009.00,85.00,35.00,16.76,110.00,6.00,0.00,30.07,1012.90,10.00,M,CLR,M,M,M,M,M,M,M,M,M,M,M,M,M,M,81.91,KDRA 310353Z AUTO 11006KT 10SM CLR 29/02 A3007 RMK AO2 SLP129 T02940017,M
ELY,2024-08-31 03:53,-114.8453,39.2950,1909.00,71.00,18.00,13.18,0.00,0.00,0.00,30.32,1017.10,10.00,M,CLR,M,M,M,M,M,M,M,M,M,M,M,M,M,M,71.00,KELY 310353Z AUTO 00000KT 10SM CLR 22/M08 A3032 RMK AO2 SLP171 T02171078,M
VGT,2024-08-31 03:53,-115.1933,36.2111,667.00,97.00,41.00,14.57,250.00,4.00,0.00,29.98,1013.80,10.00,M,CLR,M,M,M,M,M,M,M,M,M,M,M,M,M,M,92.58,KVGT 310353Z AUTO 25004KT 10SM CLR 36/05 A2998 RMK AO2 SLP138 T03610050,M
LOL,2024-08-31 03:53,-118.5701,40.0684,1192.43,76.00,17.00,10.67,30.00,8.00,0.00,30.13,1016.50,10.00,M,CLR,M,M,M,M,M,M,M,M,M,M,M,M,M,M,76.00,KLOL 310353Z AUTO 03008KT 10SM CLR 24/M08 A3013 RMK AO2 SLP165 T02441083,M
BVU,2024-08-31 03:55,-114.8611,35.9475,671.00,95.00,35.60,12.53,240.00,4.00,0.00,29.98,M,10.00,M,CLR,M,M,M,M,M,M,M,M,M,M,M,M,M,M,90.25,KBVU 310355Z AUTO 24004KT 10SM CLR 35/02 A2998 RMK AO2,M
INS,2024-08-31 03:55,-115.6733,36.5872,955.00,91.00,33.30,12.95,0.00,0.00,0.00,30.05,1011.70,10.00,M,CLR,M,M,M,M,M,M,M,M,M,M,M,M,M,M,86.77,KINS 310355Z AUTO 00000KT 10SM CLR 33/01 A3005 RMK AO2 SLP117 T03270007,M
RNO,2024-08-31 03:55,-119.7711,39.4839,1341.00,83.00,48.00,29.54,290.00,11.00,0.00,30.19,1016.60,10.00,M,FEW,M,M,M,10000.00,M,M,M,M,M,M,M,M,M,M,81.18,KRNO 310355Z 29011KT 10SM FEW100 28/09 A3019 RMK AO2 SLP166 T02830089,M
LSV,2024-08-31 03:55,-115.0343,36.2362,570.00,97.00,36.00,11.98,0.00,0.00,0.00,29.93,1010.40,10.00,M,SCT,M,M,M,18000.00,M,M,M,M,M,M,M,M,M,M,91.96,KLSV 310355Z AUTO 00000KT 10SM SCT180 36/02 A2993 RMK AO2 SLP104 T03610022 $,M
BAM,2024-08-31 03:55,-116.8743,40.5990,1382.36,64.40,12.20,12.84,160.00,5.00,0.00,30.22,M,10.00,M,CLR,M,M,M,M,M,M,M,M,M,M,M,M,M,M,64.40,KBAM 310355Z AUTO 16005KT 10SM CLR 18/M11 A3022 RMK AO1,M
CXP,2024-08-31 03:55,-119.7326,39.1923,1431.00,77.00,33.80,20.74,0.00,0.00,0.00,30.22,M,10.00,M,CLR,M,M,M,M,M,M,M,M,M,M,M,M,M,M,77.00,KCXP 310355Z AUTO 00000KT 10SM CLR 25/01 A3022 RMK AO2,M
RTS,2024-08-31 03:55,-119.8764,39.6682,1539.00,73.40,33.80,23.39,290.00,8.00,0.00,30.26,M,10.00,M,CLR,M,M,M,M,M,M,M,M,M,M,M,M,M,M,73.40,KRTS 310355Z AUTO 29008KT 10SM CLR 23/01 A3026 RMK AO2,M
MEV,2024-08-31 03:55,-119.7500,38.9963,1441.42,69.80,37.40,30.49,120.00,7.00,0.00,30.22,M,10.00,M,CLR,M,M,M,M,M,M,M,M,M,M,M,M,M,M,69.80,KMEV 310355Z AUTO 12007KT 10SM CLR 21/03 A3022 RMK AO2,M
HTH,2024-08-31 03:55,-118.6315,38.5448,1282.89,84.20,19.40,9.04,320.00,9.00,0.00,30.14,M,10.00,M,CLR,M,M,M,M,M,M,M,M,M,M,M,M,M,M,80.68,KHTH 310355Z AUTO 32009KT 10SM CLR 29/M07 A3014 RMK A01,M
TMT,2024-08-31 03:55,-117.1971,39.4643,1749.34,61.70,23.00,22.50,0.00,0.00,0.00,30.29,M,10.00,M,CLR,M,M,M,M,M,M,M,M,M,M,M,M,M,M,61.70,KTMT 310355Z AUTO 00000KT 10SM CLR 17/M05 A3029 RMK AO2 T01651050,M
10U,2024-08-31 03:55,-116.1876,41.9532,1637.00,55.40,15.80,20.73,270.00,3.00,0.00,30.29,M,10.00,M,CLR,M,M,M,M,M,M,M,M,M,M,M,M,M,M,55.40,K10U 310355Z AUTO 27003KT 10SM CLR 13/M09 A3029 RMK AO2,M
EKO,2024-08-31 03:56,-115.7860,40.8242,1367.00,64.00,12.00,12.91,0.00,0.00,0.00,30.24,1020.10,10.00,M,CLR,M,M,M,M,M,M,M,M,M,M,M,M,M,M,64.00,KEKO 310356Z AUTO 00000KT 10SM CLR 18/M11 A3024 RMK AO2 SLP201 T01781111,M
HND,2024-08-31 03:56,-115.1344,35.9729,742.79,92.00,44.00,19.08,200.00,5.00,0.00,30.04,1015.30,10.00,M,CLR,M,M,M,M,M,M,M,M,M,M,M,M,M,M,88.17,KHND 310356Z AUTO 20005KT 10SM CLR 33/07 A3004 RMK AO2 SLP153 T03330067,M
TPH,2024-08-31 03:56,-117.0904,38.0505,1654.00,74.00,25.00,16.01,200.00,6.00,0.00,30.24,1016.20,10.00,M,CLR,M,M,M,M,M,M,M,M,M,M,M,M,M,M,74.00,KTPH 310356Z AUTO 20006KT 10SM CLR 23/M04 A3024 RMK AO2 SLP162 T02331039,M
LAS,2024-08-31 03:56,-115.1634,36.0719,663.00,91.00,43.00,18.94,200.00,5.00,0.00,30.00,1012.90,10.00,M,FEW,FEW,M,M,12000.00,22000.00,M,M,M,M,M,M,M,M,M,87.18,KLAS 310356Z 20005KT 10SM FEW120 FEW220 33/06 A3000 RMK AO2 SLP129 T03280061 $,M
NFL,2024-08-31 03:57,-118.7010,39.4166,1199.00,73.00,28.00,18.74,40.00,5.00,0.00,30.12,1016.50,10.00,M,CLR,M,M,M,M,M,M,M,M,M,M,M,M,M,M,73.00,KNFL 310357Z 04005KT 10SM CLR 23/M02 A3012 RMK AO2 SLP165 T02281022,M
05U,2024-08-31 04:10,-116.0051,39.6042,1811.23,60.80,21.20,21.53,0.00,0.00,0.00,30.33,M,10.00,M,CLR,M,M,M,M,M,M,M,M,M,M,M,M,M,M,60.80,K05U 310410Z AUTO 00000KT 10SM CLR 16/M06 A3033 RMK A01,M
BVU,2024-08-31 04:15,-114.8611,35.9475,671.00,93.20,41.00,16.37,0.00,0.00,0.00,29.98,M,10.00,M,CLR,M,M,M,M,M,M,M,M,M,M,M,M,M,M,89.03,KBVU 310415Z AUTO 00000KT 10SM CLR 34/05 A2998 RMK AO2,M
CXP,2024-08-31 04:15,-119.7326,39.1923,1431.00,77.00,32.00,19.30,200.00,3.00,0.00,30.23,M,10.00,M,CLR,M,M,M,M,M,M,M,M,M,M,M,M,M,M,77.00,KCXP 310415Z AUTO 20003KT 10SM CLR 25/00 A3023 RMK AO2,M
RTS,2024-08-31 04:15,-119.8764,39.6682,1539.00,77.00,32.00,19.30,M,4.00,0.00,30.26,M,10.00,12.00,CLR,M,M,M,M,M,M,M,M,M,M,M,M,M,M,77.00,KRTS 310415Z AUTO VRB04G12KT 10SM CLR 25/00 A3026 RMK AO2,M
MEV,2024-08-31 04:15,-119.7500,38.9963,1441.42,71.60,35.60,26.71,0.00,0.00,0.00,30.22,M,10.00,M,FEW,M,M,M,6000.00,M,M,M,M,M,M,M,M,M,M,71.60,KMEV 310415Z AUTO 00000KT 10SM FEW060 22/02 A3022 RMK AO2,M
BAM,2024-08-31 04:15,-116.8743,40.5990,1382.36,62.60,10.40,12.63,150.00,6.00,0.00,30.22,M,10.00,M,CLR,M,M,M,M,M,M,M,M,M,M,M,M,M,M,62.60,KBAM 310415Z AUTO 15006KT 10SM CLR 17/M12 A3022 RMK AO1,M
HTH,2024-08-31 04:15,-118.6315,38.5448,1282.89,82.40,17.60,8.87,320.00,10.00,0.00,30.15,M,10.00,M,CLR,M,M,M,M,M,M,M,M,M,M,M,M,M,M,79.36,KHTH 310415Z AUTO 32010KT 10SM CLR 28/M08 A3015 RMK A01,M
TMT,2024-08-31 04:15,-117.1971,39.4643,1749.34,58.60,24.60,26.86,250.00,4.00,0.00,30.29,M,10.00,M,CLR,M,M,M,M,M,M,M,M,M,M,M,M,M,M,58.60,KTMT 310415Z AUTO 25004KT 10SM CLR 15/M04 A3029 RMK AO2 T01481041,M
10U,2024-08-31 04:15,-116.1876,41.9532,1637.00,55.40,15.80,20.73,280.00,4.00,0.00,30.29,M,10.00,M,CLR,M,M,M,M,M,M,M,M,M,M,M,M,M,M,55.40,K10U 310415Z AUTO 28004KT 10SM CLR 13/M09 A3029 RMK AO2,M
05U,2024-08-31 04:30,-116.0051,39.6042,1811.23,55.40,21.20,26.13,0.00,0.00,0.00,30.33,M,10.00,M,CLR,M,M,M,M,M,M,M,M,M,M,M,M,M,M,55.40,K05U 310430Z AUTO 00000KT 10SM CLR 13/M06 A3033 RMK A01,M
BVU,2024-08-31 04:35,-114.8611,35.9475,671.00,89.60,42.80,19.64,0.00,0.00,0.00,29.99,M,10.00,M,CLR,M,M,M,M,M,M,M,M,M,M,M,M,M,M,85.93,KBVU 310435Z AUTO 00000KT 10SM CLR 32/06 A2999 RMK AO2,M
CXP,2024-08-31 04:35,-119.7326,39.1923,1431.00,73.40,35.60,25.13,0.00,0.00,0.00,30.24,M,10.00,M,CLR,M,M,M,M,M,M,M,M,M,M,M,M,M,M,73.40,KCXP 310435Z AUTO 00000KT 10SM CLR 23/02 A3024 RMK AO2,M
RTS,2024-08-31 04:35,-119.8764,39.6682,1539.00,73.40,32.00,21.76,260.00,8.00,0.00,30.26,M,10.00,M,CLR,M,M,M,M,M,M,M,M,M,M,M,M,M,M,73.40,KRTS 310435Z AUTO 26008KT 10SM CLR 23/M00 A3026 RMK AO2,M
MEV,2024-08-31 04:35,-119.7500,38.9963,1441.42,69.80,35.60,28.39,120.00,3.00,0.00,30.23,M,10.00,M,FEW,FEW,M,M,4900.00,5500.00,M,M,M,M,M,M,M,M,M,69.80,KMEV 310435Z AUTO 12003KT 10SM FEW049 FEW055 21/02 A3023 RMK AO2,M
BAM,2024-08-31 04:35,-116.8743,40.5990,1382.36,60.80,12.20,14.58,160.00,6.00,0.00,30.22,M,10.00,M,CLR,M,M,M,M,M,M,M,M,M,M,M,M,M,M,60.80,KBAM 310435Z AUTO 16006KT 10SM CLR 16/M11 A3022 RMK AO1,M
HTH,2024-08-31 04:35,-118.6315,38.5448,1282.89,80.60,19.40,10.16,330.00,10.00,0.00,30.15,M,10.00,M,CLR,M,M,M,M,M,M,M,M,M,M,M,M,M,M,78.56,KHTH 310435Z AUTO 33010KT 10SM CLR 27/M07 A3015 RMK A01,M
TMT,2024-08-31 04:35,-117.1971,39.4643,1749.34,48.70,22.30,35.05,160.00,4.00,0.00,30.31,M,10.00,M,CLR,M,M,M,M,M,M,M,M,M,M,M,M,M,M,46.92,KTMT 310435Z AUTO 16004KT 10SM CLR 09/M05 A3031 RMK AO2 T00931054,M
10U,2024-08-31 04:35,-116.1876,41.9532,1637.00,57.20,17.60,20.99,260.00,3.00,0.00,30.29,M,8.00,M,CLR,M,M,M,M,M,M,M,M,M,M,M,M,M,M,57.20,K10U 310435Z AUTO 26003KT 8SM CLR 14/M08 A3029 RMK AO2,M
05U,2024-08-31 04:50,-116.0051,39.6042,1811.23,57.20,17.60,20.99,0.00,0.00,0.00,30.33,M,10.00,M,CLR,M,M,M,M,M,M,M,M,M,M,M,M,M,M,57.20,K05U 310450Z AUTO 00000KT 10SM CLR 14/M08 A3033 RMK A01,M
P68,2024-08-31 04:53,-116.0056,39.6014,1993.00,57.00,19.00,22.46,170.00,6.00,0.00,30.30,1019.20,M,M,M,M,M,M,M,M,M,M,M,M,M,M,M,M,M,57.00,KP68 310453Z AUTO 17006KT 14/M07 A3030 RMK AO1 SLP192 T01391072,M
DRA,2024-08-31 04:53,-116.0278,36.6206,1009.00,82.00,35.00,18.47,90.00,5.00,0.00,30.07,1012.80,10.00,M,CLR,M,M,M,M,M,M,M,M,M,M,M,M,M,M,79.80,KDRA 310453Z AUTO 09005KT 10SM CLR 28/02 A3007 RMK AO2 SLP128 T02780017,M
ELY,2024-08-31 04:53,-114.8453,39.2950,1909.00,64.00,18.00,16.77,M,3.00,0.00,30.33,1017.60,10.00,M,CLR,M,M,M,M,M,M,M,M,M,M,M,M,M,M,64.00,KELY 310453Z AUTO VRB03KT 10SM CLR 18/M08 A3033 RMK AO2 SLP176 T01781078,M
VGT,2024-08-31 04:53,-115.1933,36.2111,667.00,96.00,41.00,15.02,0.00,0.00,0.00,29.99,1014.10,10.00,M,CLR,M,M,M,M,M,M,M,M,M,M,M,M,M,M,91.64,KVGT 310453Z AUTO 00000KT 10SM CLR 36/05 A2999 RMK AO2 SLP141 T03560050,M
LOL,2024-08-31 04:53,-118.5701,40.0684,1192.43,72.00,16.00,11.68,M,3.00,0.00,30.13,1016.70,10.00,M,CLR,M,M,M,M,M,M,M,M,M,M,M,M,M,M,72.00,KLOL 310453Z AUTO VRB03KT 10SM CLR 22/M09 A3013 RMK AO2 SLP167 T02221089,M
BVU,2024-08-31 04:55,-114.8611,35.9475,671.00,91.40,39.20,16.15,0.00,0.00,0.00,29.99,M,10.00,M,CLR,M,M,M,M,M,M,M,M,M,M,M,M,M,M,87.30,KBVU 310455Z AUTO 00000KT 10SM CLR 33/04 A2999 RMK AO2,M
RNO,2024-08-31 04:55,-119.7711,39.4839,1341.00,80.00,46.00,30.20,0.00,0.00,0.00,30.20,1016.80,10.00,M,CLR,M,M,M,M,M,M,M,M,M,M,M,M,M,M,79.20,KRNO 310455Z 00000KT 10SM CLR 27/08 A3020 RMK AO2 SLP168 T02670078,M
CXP,2024-08-31 04:55,-119.7326,39.1923,1431.00,71.60,35.60,26.71,0.00,0.00,0.00,30.24,M,10.00,M,CLR,M,M,M,M,M,M,M,M,M,M,M,M,M,M,71.60,KCXP 310455Z AUTO 00000KT 10SM CLR 22/02 A3024 RMK AO2,M
LSV,2024-08-31 04:55,-115.0343,36.2362,570.00,96.00,35.20,11.96,0.00,0.00,0.00,29.94,1010.60,10.00,M,CLR,M,M,M,M,M,M,M,M,M,M,M,M,M,M,91.00,KLSV 310455Z AUTO 00000KT 10SM CLR 36/02 A2994 RMK AO2 SLP106 T03560018 $,M
RTS,2024-08-31 04:55,-119.8764,39.6682,1539.00,73.40,30.20,20.23,0.00,0.00,0.00,30.26,M,10.00,M,CLR,M,M,M,M,M,M,M,M,M,M,M,M,M,M,73.40,KRTS 310455Z AUTO 00000KT 10SM CLR 23/M01 A3026 RMK AO2,M
MEV,2024-08-31 04:55,-119.7500,38.9963,1441.42,62.60,35.60,36.45,160.00,6.00,0.00,30.23,M,10.00,M,CLR,M,M,M,M,M,M,M,M,M,M,M,M,M,M,62.60,KMEV 310455Z AUTO 16006KT 10SM CLR 17/02 A3023 RMK AO2,M
BAM,2024-08-31 04:55,-116.8743,40.5990,1382.36,60.80,12.20,14.58,170.00,6.00,0.00,30.22,M,10.00,M,CLR,M,M,M,M,M,M,M,M,M,M,M,M,M,M,60.80,KBAM 310455Z AUTO 17006KT 10SM CLR 16/M11 A3022 RMK AO1,M
HTH,2024-08-31 04:55,-118.6315,38.5448,1282.89,M,M,M,340.00,8.00,0.00,30.15,M,M,M,M,M,M,M,M,M,M,M,M,M,M,M,M,M,M,M,KHTH 310455Z AUTO 34008KT A3015 RMK A01,M
TMT,2024-08-31 04:55,-117.1971,39.4643,1749.34,51.40,25.00,35.50,180.00,3.00,0.00,30.31,M,10.00,M,CLR,M,M,M,M,M,M,M,M,M,M,M,M,M,M,51.40,KTMT 310455Z AUTO 18003KT 10SM CLR 11/M04 A3031 RMK AO2 T01081038,M
10U,2024-08-31 04:55,-116.1876,41.9532,1637.00,53.60,17.60,23.93,290.00,5.00,0.00,30.29,M,8.00,M,CLR,M,M,M,M,M,M,M,M,M,M,M,M,M,M,53.60,K10U 310455Z AUTO 29005KT 8SM CLR 12/M08 A3029 RMK AO2,M
INS,2024-08-31 04:55,-115.6733,36.5872,955.00,86.40,31.50,13.93,260.00,3.00,0.00,30.06,1011.90,10.00,M,CLR,M,M,M,M,M,M,M,M,M,M,M,M,M,M,82.95,KINS 310455Z AUTO 26003KT 10SM CLR 30/M00 A3006 RMK AO2 SLP119 T03021003,M
EKO,2024-08-31 04:56,-115.7860,40.8242,1367.00,62.00,10.00,12.67,0.00,0.00,0.00,30.24,1019.60,10.00,M,CLR,M,M,M,M,M,M,M,M,M,M,M,M,M,M,62.00,KEKO 310456Z AUTO 00000KT 10SM CLR 17/M12 A3024 RMK AO2 SLP196 T01671122,M
HND,2024-08-31 04:56,-115.1344,35.9729,742.79,91.00,41.00,17.54,160.00,6.00,0.00,30.04,1015.30,10.00,M,CLR,M,M,M,M,M,M,M,M,M,M,M,M,M,M,87.04,KHND 310456Z AUTO 16006KT 10SM CLR 33/05 A3004 RMK AO2 SLP153 T03280050,M
TPH,2024-08-31 04:56,-117.0904,38.0505,1654.00,71.00,25.00,17.72,30.00,3.00,0.00,30.25,1016.30,10.00,M,CLR,M,M,M,M,M,M,M,M,M,M,M,M,M,M,71.00,KTPH 310456Z AUTO 03003KT 10SM CLR 22/M04 A3025 RMK AO2 SLP163 T02171039,M
LAS,2024-08-31 04:56,-115.1634,36.0719,663.00,88.00,44.00,21.63,210.00,5.00,0.00,30.01,1013.10,10.00,M,FEW,FEW,M,M,12000.00,22000.00,M,M,M,M,M,M,M,M,M,84.65,KLAS 310456Z 21005KT 10SM FEW120 FEW220 31/07 A3001 RMK AO2 SLP131 T03110067 $,M
NFL,2024-08-31 04:57,-118.7010,39.4166,1199.00,70.00,27.00,19.92,350.00,4.00,0.00,30.12,1016.70,9.00,M,CLR,M,M,M,M,M,M,M,M,M,M,M,M,M,M,70.00,KNFL 310457Z 35004KT 9SM CLR 21/M03 A3012 RMK AO2 SLP167 T02111028,M
05U,2024-08-31 05:10,-116.0051,39.6042,1811.23,55.40,17.60,22.41,0.00,0.00,0.00,30.33,M,10.00,M,CLR,M,M,M,M,M,M,M,M,M,M,M,M,M,M,55.40,K05U 310510Z AUTO 00000KT 10SM CLR 13/M08 A3033 RMK A01,M
BVU,2024-08-31 05:15,-114.8611,35.9475,671.00,87.80,42.80,20.79,310.00,3.00,0.00,29.99,M,10.00,M,CLR,M,M,M,M,M,M,M,M,M,M,M,M,M,M,84.40,KBVU 310515Z AUTO 31003KT 10SM CLR 31/06 A2999 RMK AO2,M
CXP,2024-08-31 05:15,-119.7326,39.1923,1431.00,73.40,30.20,20.23,0.00,0.00,0.00,30.24,M,10.00,M,CLR,M,M,M,M,M,M,M,M,M,M,M,M,M,M,73.40,KCXP 310515Z AUTO 00000KT 10SM CLR 23/M01 A3024 RMK AO2,M
RTS,2024-08-31 05:15,-119.8764,39.6682,1539.00,71.60,32.00,23.13,320.00,4.00,0.00,30.26,M,10.00,M,CLR,M,M,M,M,M,M,M,M,M,M,M,M,M,M,71.60,KRTS 310515Z AUTO 32004KT 10SM CLR 22/M00 A3026 RMK AO2,M
MEV,2024-08-31 05:15,-119.7500,38.9963,1441.42,62.60,35.60,36.45,0.00,0.00,0.00,30.24,M,10.00,M,FEW,M,M,M,5500.00,M,M,M,M,M,M,M,M,M,M,62.60,KMEV 310515Z AUTO 00000KT 10SM FEW055 17/02 A3024 RMK AO2,M
BAM,2024-08-31 05:15,-116.8743,40.5990,1382.36,60.80,12.20,14.58,160.00,5.00,0.00,30.22,M,10.00,M,CLR,M,M,M,M,M,M,M,M,M,M,M,M,M,M,60.80,KBAM 310515Z AUTO 16005KT 10SM CLR 16/M11 A3022 RMK AO1,M
HTH,2024-08-31 05:15,-118.6315,38.5448,1282.89,78.80,28.40,15.71,340.00,6.00,0.00,30.16,M,10.00,M,M,M,M,M,M,M,M,M,M,M,M,M,M,M,M,78.80,KHTH 310515Z AUTO 34006KT 10SM 26/M02 A3016 RMK A01,M
TMT,2024-08-31 05:15,-117.1971,39.4643,1749.34,50.00,24.80,37.08,0.00,0.00,0.00,30.31,M,10.00,M,CLR,M,M,M,M,M,M,M,M,M,M,M,M,M,M,50.00,KTMT 310515Z AUTO 00000KT 10SM CLR 10/M04 A3031 RMK AO2 T00991040,M
10U,2024-08-31 05:15,-116.1876,41.9532,1637.00,55.40,17.60,22.41,300.00,5.00,0.00,30.29,M,8.00,M,CLR,M,M,M,M,M,M,M,M,M,M,M,M,M,M,55.40,K10U 310515Z AUTO 30005KT 8SM CLR 13/M08 A3029 RMK AO2,M
05U,2024-08-31 05:30,-116.0051,39.6042,1811.23,53.60,17.60,23.93,0.00,0.00,0.00,30.33,M,10.00,M,CLR,M,M,M,M,M,M,M,M,M,M,M,M,M,M,53.60,K05U 310530Z AUTO 00000KT 10SM CLR 12/M08 A3033 RMK A01,M
BVU,2024-08-31 05:35,-114.8611,35.9475,671.00,87.80,41.00,19.40,0.00,0.00,0.00,29.98,M,10.00,M,CLR,M,M,M,M,M,M,M,M,M,M,M,M,M,M,84.30,KBVU 310535Z AUTO 00000KT 10SM CLR 31/05 A2998 RMK AO2,M
CXP,2024-08-31 05:35,-119.7326,39.1923,1431.00,73.40,32.00,21.76,0.00,0.00,0.00,30.24,M,10.00,M,CLR,M,M,M,M,M,M,M,M,M,M,M,M,M,M,73.40,KCXP 310535Z AUTO 00000KT 10SM CLR 23/M00 A3024 RMK AO2,M
RTS,2024-08-31 05:35,-119.8764,39.6682,1539.00,73.40,32.00,21.76,320.00,4.00,0.00,30.26,M,10.00,11.00,CLR,M,M,M,M,M,M,M,M,M,M,M,M,M,M,73.40,KRTS 310535Z AUTO 32004G11KT 10SM CLR 23/M00 A3026 RMK AO2,M
MEV,2024-08-31 05:35,-119.7500,38.9963,1441.42,64.40,33.80,31.85,190.00,5.00,0.00,30.23,M,10.00,M,FEW,FEW,M,M,4700.00,5500.00,M,M,M,M,M,M,M,M,M,64.40,KMEV 310535Z AUTO 19005KT 10SM FEW047 FEW055 18/01 A3023 RMK AO2,M
BAM,2024-08-31 05:35,-116.8743,40.5990,1382.36,59.00,14.00,16.83,190.00,3.00,0.00,30.22,M,10.00,M,CLR,M,M,M,M,M,M,M,M,M,M,M,M,M,M,59.00,KBAM 310535Z AUTO 19003KT 10SM CLR 15/M10 A3022 RMK AO1,M
HTH,2024-08-31 05:35,-118.6315,38.5448,1282.89,78.80,23.00,12.55,340.00,8.00,0.00,30.16,M,10.00,M,CLR,M,M,M,M,M,M,M,M,M,M,M,M,M,M,78.80,KHTH 310535Z AUTO 34008KT 10SM CLR 26/M05 A3016 RMK A01,M
TMT,2024-08-31 05:35,-117.1971,39.4643,1749.34,49.50,23.00,35.03,210.00,3.00,0.00,30.31,M,10.00,M,CLR,M,M,M,M,M,M,M,M,M,M,M,M,M,M,48.69,KTMT 310535Z AUTO 21003KT 10SM CLR 10/M05 A3031 RMK AO2 T00971049,M
10U,2024-08-31 05:35,-116.1876,41.9532,1637.00,55.40,17.60,22.41,310.00,3.00,0.00,30.29,M,8.00,M,CLR,M,M,M,M,M,M,M,M,M,M,M,M,M,M,55.40,K10U 310535Z AUTO 31003KT 8SM CLR 13/M08 A3029 RMK AO2,M
05U,2024-08-31 05:50,-116.0051,39.6042,1811.23,51.80,15.80,23.65,0.00,0.00,0.00,30.33,M,10.00,M,CLR,M,M,M,M,M,M,M,M,M,M,M,M,M,M,51.80,K05U 310550Z AUTO 00000KT 10SM CLR 11/M09 A3033 RMK A01,M
P68,2024-08-31 05:53,-116.0056,39.6014,1993.00,53.00,19.00,25.98,200.00,3.00,0.00,30.31,1019.00,M,M,M,M,M,M,M,M,M,M,M,M,M,M,M,M,M,53.00,KP68 310553Z AUTO 20003KT 12/M07 A3031 RMK AO1 SLP190 T01171072 10311 20111 51011,M
DRA,2024-08-31 05:53,-116.0278,36.6206,1009.00,80.00,34.00,18.94,50.00,3.00,0.00,30.08,1012.80,10.00,M,CLR,M,M,M,M,M,M,M,M,M,M,M,M,M,M,78.59,KDRA 310553Z AUTO 05003KT 10SM CLR 27/01 A3008 RMK AO2 SLP128 T02670011 10361 20261 51007,M
ELY,2024-08-31 05:53,-114.8453,39.2950,1909.00,63.00,15.00,15.26,M,3.00,0.00,30.35,1017.40,10.00,M,CLR,M,M,M,M,M,M,M,M,M,M,M,M,M,M,63.00,KELY 310553Z AUTO VRB03KT 10SM CLR 17/M09 A3035 RMK AO2 SLP174 T01721094 10306 20156 51017,M
VGT,2024-08-31 05:53,-115.1933,36.2111,667.00,92.00,41.00,17.00,170.00,4.00,0.00,29.99,1014.00,10.00,M,CLR,M,M,M,M,M,M,M,M,M,M,M,M,M,M,87.94,KVGT 310553Z AUTO 17004KT 10SM CLR 33/05 A2999 RMK AO2 SLP140 T03330050 10394 20333 50006,M
LOL,2024-08-31 05:53,-118.5701,40.0684,1192.43,59.00,26.00,28.07,140.00,8.00,0.00,30.13,1017.10,10.00,M,CLR,M,M,M,M,M,M,M,M,M,M,M,M,M,M,59.00,KLOL 310553Z AUTO 14008KT 10SM CLR 15/M03 A3013 RMK AO2 SLP171 T01501033 10339 20150 51007 $,M
BVU,2024-08-31 05:55,-114.8611,35.9475,671.00,86.00,44.60,23.59,0.00,0.00,0.00,29.98,M,10.00,M,CLR,M,M,M,M,M,M,M,M,M,M,M,M,M,M,83.07,KBVU 310555Z AUTO 00000KT 10SM CLR 30/07 A2998 RMK AO2,M
RNO,2024-08-31 05:55,-119.7711,39.4839,1341.00,75.00,43.00,31.79,190.00,3.00,0.00,30.20,1017.00,10.00,M,CLR,M,M,M,M,M,M,M,M,M,M,M,M,M,M,75.00,KRNO 310555Z 19003KT 10SM CLR 24/06 A3020 RMK AO2 SLP170 T02390061 10344 20239 51013,M
LSV,2024-08-31 05:55,-115.0343,36.2362,570.00,94.00,35.80,13.03,0.00,0.00,0.00,29.93,1010.20,10.00,M,FEW,M,M,M,23000.00,M,M,M,M,M,M,M,M,M,M,89.48,KLSV 310555Z AUTO 00000KT 10SM FEW230 35/02 A2993 RMK AO2 SLP102 T03450021 10404 20345 50006 $,M
CXP,2024-08-31 05:55,-119.7326,39.1923,1431.00,69.80,32.00,24.59,0.00,0.00,0.00,30.24,M,10.00,M,CLR,M,M,M,M,M,M,M,M,M,M,M,M,M,M,69.80,KCXP 310555Z AUTO 00000KT 10SM CLR 21/00 A3024 RMK AO2,M
RTS,2024-08-31 05:55,-119.8764,39.6682,1539.00,71.60,32.00,23.13,340.00,4.00,0.00,30.26,M,10.00,M,CLR,M,M,M,M,M,M,M,M,M,M,M,M,M,M,71.60,KRTS 310555Z AUTO 34004KT 10SM CLR 22/00 A3026 RMK AO2,M
MEV,2024-08-31 05:55,-119.7500,38.9963,1441.42,60.80,33.80,36.16,110.00,5.00,0.00,30.23,M,10.00,M,FEW,FEW,M,M,4600.00,5500.00,M,M,M,M,M,M,M,M,M,60.80,KMEV 310555Z AUTO 11005KT 10SM FEW046 FEW055 16/01 A3023 RMK AO2,M
BAM,2024-08-31 05:55,-116.8743,40.5990,1382.36,55.40,12.20,17.70,160.00,3.00,0.00,30.22,M,10.00,M,CLR,M,M,M,M,M,M,M,M,M,M,M,M,M,M,55.40,KBAM 310555Z AUTO 16003KT 10SM CLR 13/M11 A3022 RMK AO1,M
HTH,2024-08-31 05:55,-118.6315,38.5448,1282.89,77.00,23.00,13.32,110.00,4.00,0.00,30.17,M,10.00,M,CLR,M,M,M,M,M,M,M,M,M,M,M,M,M,M,77.00,KHTH 310555Z AUTO 11004KT 10SM CLR 25/M05 A3017 RMK A01,M
TMT,2024-08-31 05:55,-117.1971,39.4643,1749.34,46.60,23.00,39.06,0.00,0.00,0.00,30.31,M,10.00,M,CLR,M,M,M,M,M,M,M,M,M,M,M,M,M,M,46.60,KTMT 310555Z AUTO 00000KT 10SM CLR 08/M05 A3031 RMK AO2 T00811051 10307 20081,M
10U,2024-08-31 05:55,-116.1876,41.9532,1637.00,55.40,17.60,22.41,M,3.00,0.00,30.29,M,8.00,M,CLR,M,M,M,M,M,M,M,M,M,M,M,M,M,M,55.40,K10U 310555Z AUTO VRB03KT 8SM CLR 13/M08 A3029 RMK AO2,M
INS,2024-08-31 05:55,-115.6733,36.5872,955.00,83.70,31.00,14.89,0.00,0.00,0.00,30.07,1012.20,10.00,M,CLR,M,M,M,M,M,M,M,M,M,M,M,M,M,M,80.90,KINS 310555Z AUTO 00000KT 10SM CLR 29/M00 A3007 RMK AO2 SLP122 T02871005 10371 20283 51007,M
EKO,2024-08-31 05:56,-115.7860,40.8242,1367.00,60.00,8.00,12.44,70.00,5.00,0.00,30.25,1019.70,10.00,M,CLR,M,M,M,M,M,M,M,M,M,M,M,M,M,M,60.00,KEKO 310556Z AUTO 07005KT 10SM CLR 16/M13 A3025 RMK AO2 SLP197 T01561133 10317 20139 51009,M
HND,2024-08-31 05:56,-115.1344,35.9729,742.79,88.00,42.00,20.03,170.00,5.00,0.00,30.04,1015.40,10.00,M,CLR,M,M,M,M,M,M,M,M,M,M,M,M,M,M,84.52,KHND 310556Z AUTO 17005KT 10SM CLR 31/06 A3004 RMK AO2 SLP154 T03110056 10378 20311 50004,M
TPH,2024-08-31 05:56,-117.0904,38.0505,1654.00,68.00,25.00,19.63,0.00,0.00,0.00,30.26,1016.50,10.00,M,CLR,M,M,M,M,M,M,M,M,M,M,M,M,M,M,68.00,KTPH 310556Z AUTO 00000KT 10SM CLR 20/M04 A3026 RMK AO2 SLP165 T02001039 10317 20194 51011,M
LAS,2024-08-31 05:56,-115.1634,36.0719,663.00,88.00,45.00,22.47,210.00,3.00,0.00,30.00,1012.80,10.00,M,FEW,M,M,M,20000.00,M,M,M,M,M,M,M,M,M,M,84.72,KLAS 310556Z 21003KT 10SM FEW200 31/07 A3000 RMK AO2 SLP128 T03110072 10361 20311 50004 $,M
NFL,2024-08-31 05:57,-118.7010,39.4166,1199.00,66.00,32.00,28.03,0.00,0.00,0.00,30.12,1016.60,10.00,M,CLR,M,M,M,M,M,M,M,M,M,M,M,M,M,M,66.00,KNFL 310557Z AUTO 00000KT 10SM CLR 19/00 A3012 RMK AO2 SLP166 T01890000 10350 20189 50005,M
05U,2024-08-31 06:10,-116.0051,39.6042,1811.23,50.00,15.80,25.28,0.00,0.00,0.00,30.33,M,10.00,M,CLR,M,M,M,M,M,M,M,M,M,M,M,M,M,M,50.00,K05U 310610Z AUTO 00000KT 10SM CLR 10/M09 A3033 RMK A01,M
BVU,2024-08-31 06:15,-114.8611,35.9475,671.00,84.20,44.60,24.99,50.00,3.00,0.00,29.98,M,10.00,M,CLR,M,M,M,M,M,M,M,M,M,M,M,M,M,M,81.73,KBVU 310615Z AUTO 05003KT 10SM CLR 29/07 A2998 RMK AO2,M
CXP,2024-08-31 06:15,-119.7326,39.1923,1431.00,66.20,32.00,27.83,0.00,0.00,0.00,30.24,M,10.00,M,CLR,M,M,M,M,M,M,M,M,M,M,M,M,M,M,66.20,KCXP 310615Z AUTO 00000KT 10SM CLR 19/M00 A3024 RMK AO2,M
RTS,2024-08-31 06:15,-119.8764,39.6682,1539.00,73.40,32.00,21.76,300.00,6.00,0.00,30.26,M,10.00,M,CLR,M,M,M,M,M,M,M,M,M,M,M,M,M,M,73.40,KRTS 310615Z AUTO 30006KT 10SM CLR 23/M00 A3026 RMK AO2,M
MEV,2024-08-31 06:15,-119.7500,38.9963,1441.42,60.80,35.60,38.85,120.00,5.00,0.00,30.23,M,10.00,M,FEW,M,M,M,5500.00,M,M,M,M,M,M,M,M,M,M,60.80,KMEV 310615Z AUTO 12005KT 10SM FEW055 16/02 A3023 RMK AO2,M
BAM,2024-08-31 06:15,-116.8743,40.5990,1382.36,55.40,12.20,17.70,200.00,5.00,0.00,30.22,M,10.00,M,CLR,M,M,M,M,M,M,M,M,M,M,M,M,M,M,55.40,KBAM 310615Z AUTO 20005KT 10SM CLR 13/M11 A3022 RMK AO1,M
HTH,2024-08-31 06:15,-118.6315,38.5448,1282.89,78.80,21.20,11.64,0.00,0.00,0.00,30.16,M,10.00,M,CLR,M,M,M,M,M,M,M,M,M,M,M,M,M,M,78.80,KHTH 310615Z AUTO 00000KT 10SM CLR 26/M06 A3016 RMK A01,M
TMT,2024-08-31 06:15,-117.1971,39.4643,1749.34,42.80,21.20,41.84,160.00,7.00,0.00,30.31,M,10.00,M,CLR,M,M,M,M,M,M,M,M,M,M,M,M,M,M,37.94,KTMT 310615Z AUTO 16007KT 10SM CLR 06/M06 A3031 RMK AO2 T00601060,M
10U,2024-08-31 06:15,-116.1876,41.9532,1637.00,55.40,17.60,22.41,320.00,3.00,0.00,30.28,M,8.00,M,CLR,M,M,M,M,M,M,M,M,M,M,M,M,M,M,55.40,K10U 310615Z AUTO 32003KT 8SM CLR 13/M08 A3028 RMK AO2,M
05U,2024-08-31 06:30,-116.0051,39.6042,1811.23,50.00,15.80,25.28,0.00,0.00,0.00,30.32,M,10.00,M,CLR,M,M,M,M,M,M,M,M,M,M,M,M,M,M,50.00,K05U 310630Z AUTO 00000KT 10SM CLR 10/M09 A3032 RMK A01,M
HTH,2024-08-31 06:30,-118.6315,38.5448,1282.89,75.20,24.80,15.25,180.00,4.00,0.00,30.17,M,10.00,M,CLR,M,M,M,M,M,M,M,M,M,M,M,M,M,M,75.20,KHTH 310630Z AUTO 18004KT 10SM CLR 24/M04 A3017 RMK A01,M
BVU,2024-08-31 06:35,-114.8611,35.9475,671.00,86.00,42.80,22.02,0.00,0.00,0.00,29.98,M,10.00,M,CLR,M,M,M,M,M,M,M,M,M,M,M,M,M,M,82.95,KBVU 310635Z AUTO 00000KT 10SM CLR 30/06 A2998 RMK AO2,M
CXP,2024-08-31 06:35,-119.7326,39.1923,1431.00,66.20,32.00,27.83,0.00,0.00,0.00,30.24,M,10.00,M,CLR,M,M,M,M,M,M,M,M,M,M,M,M,M,M,66.20,KCXP 310635Z AUTO 00000KT 10SM CLR 19/00 A3024 RMK AO2,M
RTS,2024-08-31 06:35,-119.8764,39.6682,1539.00,69.80,32.00,24.59,310.00,6.00,0.00,30.26,M,10.00,M,CLR,M,M,M,M,M,M,M,M,M,M,M,M,M,M,69.80,KRTS 310635Z AUTO 31006KT 10SM CLR 21/M00 A3026 RMK AO2,M
MEV,2024-08-31 06:35,-119.7500,38.9963,1441.42,62.60,35.60,36.45,0.00,0.00,0.00,30.23,M,10.00,11.00,SCT,M,M,M,5000.00,M,M,M,M,M,M,M,M,M,M,62.60,KMEV 310635Z AUTO 00000G11KT 10SM SCT050 17/02 A3023 RMK AO2,M
BAM,2024-08-31 06:35,-116.8743,40.5990,1382.36,51.80,12.20,20.20,110.00,3.00,0.00,30.22,M,10.00,M,CLR,M,M,M,M,M,M,M,M,M,M,M,M,M,M,51.80,KBAM 310635Z AUTO 11003KT 10SM CLR 11/M11 A3022 RMK AO1,M
TMT,2024-08-31 06:35,-117.1971,39.4643,1749.34,44.20,23.00,42.79,190.00,5.00,0.00,30.31,M,10.00,M,CLR,M,M,M,M,M,M,M,M,M,M,M,M,M,M,40.88,KTMT 310635Z AUTO 19005KT 10SM CLR 07/M05 A3031 RMK AO2 T00681051,M
10U,2024-08-31 06:35,-116.1876,41.9532,1637.00,55.40,19.40,24.21,330.00,3.00,0.00,30.28,M,8.00,M,CLR,M,M,M,M,M,M,M,M,M,M,M,M,M,M,55.40,K10U 310635Z AUTO 33003KT 8SM CLR 13/M07 A3028 RMK AO2,M
05U,2024-08-31 06:50,-116.0051,39.6042,1811.23,51.80,14.00,21.86,0.00,0.00,0.00,30.32,M,10.00,M,CLR,M,M,M,M,M,M,M,M,M,M,M,M,M,M,51.80,K05U 310650Z AUTO 00000KT 10SM CLR 11/M10 A3032 RMK A01,M
P68,2024-08-31 06:53,-116.0056,39.6014,1993.00,51.00,17.00,25.66,190.00,5.00,0.00,30.30,1018.60,M,M,M,M,M,M,M,M,M,M,M,M,M,M,M,M,M,51.00,KP68 310653Z AUTO 19005KT 11/M08 A3030 RMK AO1 SLP186 T01061083,M
DRA,2024-08-31 06:53,-116.0278,36.6206,1009.00,78.00,34.00,20.23,M,3.00,0.00,30.07,1012.60,10.00,M,CLR,M,M,M,M,M,M,M,M,M,M,M,M,M,M,78.00,KDRA 310653Z AUTO VRB03KT 10SM CLR 26/01 A3007 RMK AO2 SLP126 T02560011,M
ELY,2024-08-31 06:53,-114.8453,39.2950,1909.00,51.00,16.00,24.57,130.00,4.00,0.00,30.34,1017.90,10.00,M,CLR,M,M,M,M,M,M,M,M,M,M,M,M,M,M,51.00,KELY 310653Z AUTO 13004KT 10SM CLR 11/M09 A3034 RMK AO2 SLP179 T01061089,M
VGT,2024-08-31 06:53,-115.1933,36.2111,667.00,92.00,40.00,16.35,300.00,4.00,0.00,29.98,1013.50,10.00,M,CLR,M,M,M,M,M,M,M,M,M,M,M,M,M,M,87.88,KVGT 310653Z AUTO 30004KT 10SM CLR 33/04 A2998 RMK AO2 SLP135 T03330044,M
LOL,2024-08-31 06:53,-118.5701,40.0684,1192.43,60.00,23.00,23.90,0.00,0.00,0.00,30.14,1016.90,10.00,M,CLR,M,M,M,M,M,M,M,M,M,M,M,M,M,M,60.00,KLOL 310653Z AUTO 00000KT 10SM CLR 16/M05 A3014 RMK AO2 SLP169 T01561050 $,M
BVU,2024-08-31 06:55,-114.8611,35.9475,671.00,84.20,48.20,28.63,360.00,3.00,0.00,29.98,M,10.00,M,CLR,M,M,M,M,M,M,M,M,M,M,M,M,M,M,82.04,KBVU 310655Z AUTO 36003KT 10SM CLR 29/09 A2998 RMK AO2,M
RNO,2024-08-31 06:55,-119.7711,39.4839,1341.00,73.00,42.00,32.71,0.00,0.00,0.00,30.20,1016.70,10.00,M,CLR,M,M,M,M,M,M,M,M,M,M,M,M,M,M,73.00,KRNO 310655Z 00000KT 10SM CLR 23/06 A3020 RMK AO2 SLP167 T02280056,M
CXP,2024-08-31 06:55,-119.7326,39.1923,1431.00,64.40,30.20,27.55,0.00,0.00,0.00,30.24,M,10.00,M,CLR,M,M,M,M,M,M,M,M,M,M,M,M,M,M,64.40,KCXP 310655Z AUTO 00000KT 10SM CLR 18/M01 A3024 RMK AO2,M
RTS,2024-08-31 06:55,-119.8764,39.6682,1539.00,66.20,30.20,25.88,320.00,5.00,0.00,30.26,M,10.00,M,CLR,M,M,M,M,M,M,M,M,M,M,M,M,M,M,66.20,KRTS 310655Z AUTO 32005KT 10SM CLR 19/M01 A3026 RMK AO2,M
MEV,2024-08-31 06:55,-119.7500,38.9963,1441.42,60.80,33.80,36.16,0.00,0.00,0.00,30.24,M,10.00,M,FEW,M,M,M,5000.00,M,M,M,M,M,M,M,M,M,M,60.80,KMEV 310655Z AUTO 00000KT 10SM FEW050 16/01 A3024 RMK AO2,M
BAM,2024-08-31 06:55,-116.8743,40.5990,1382.36,51.80,12.20,20.20,150.00,3.00,0.00,30.22,M,10.00,M,CLR,M,M,M,M,M,M,M,M,M,M,M,M,M,M,51.80,KBAM 310655Z AUTO 15003KT 10SM CLR 11/M11 A3022 RMK AO1,M
HTH,2024-08-31 06:55,-118.6315,38.5448,1282.89,73.40,23.00,15.03,0.00,0.00,0.00,30.17,M,10.00,M,CLR,M,M,M,M,M,M,M,M,M,M,M,M,M,M,73.40,KHTH 310655Z AUTO 00000KT 10SM CLR 23/M05 A3017 RMK A01,M
TMT,2024-08-31 06:55,-117.1971,39.4643,1749.34,45.50,21.00,37.42,220.00,4.00,0.00,30.31,M,10.00,M,CLR,M,M,M,M,M,M,M,M,M,M,M,M,M,M,43.18,KTMT 310655Z AUTO 22004KT 10SM CLR 08/M06 A3031 RMK AO2 T00751062,M
10U,2024-08-31 06:55,-116.1876,41.9532,1637.00,50.00,15.80,25.28,300.00,4.00,0.00,30.28,M,8.00,M,CLR,M,M,M,M,M,M,M,M,M,M,M,M,M,M,50.00,K10U 310655Z AUTO 30004KT 8SM CLR 10/M09 A3028 RMK AO2,M
INS,2024-08-31 06:55,-115.6733,36.5872,955.00,83.00,32.00,15.85,0.00,0.00,0.00,30.06,1011.80,10.00,M,SCT,BKN,M,M,17000.00,21000.00,M,M,M,M,M,M,M,M,M,80.41,KINS 310655Z AUTO 00000KT 10SM SCT170 BKN210 28/00 A3006 RMK AO2 SLP118 T02840001,M
LSV,2024-08-31 06:55,-115.0343,36.2362,570.00,87.00,33.80,14.99,50.00,5.00,0.00,29.92,1010.00,10.00,M,CLR,M,M,M,M,M,M,M,M,M,M,M,M,M,M,83.45,KLSV 310655Z AUTO 05005KT 10SM CLR 31/01 A2992 RMK AO2 SLP100 T03060010 $,M
EKO,2024-08-31 06:56,-115.7860,40.8242,1367.00,51.00,19.00,27.96,210.00,3.00,0.00,30.25,1020.10,10.00,M,CLR,M,M,M,M,M,M,M,M,M,M,M,M,M,M,51.00,KEKO 310656Z AUTO 21003KT 10SM CLR 11/M07 A3025 RMK AO2 SLP201 T01061072,M
HND,2024-08-31 06:56,-115.1344,35.9729,742.79,87.00,41.00,19.90,180.00,7.00,0.00,30.03,1015.00,10.00,M,CLR,M,M,M,M,M,M,M,M,M,M,M,M,M,M,83.65,KHND 310656Z AUTO 18007KT 10SM CLR 31/05 A3003 RMK AO2 SLP150 T03060050 403940256,M
TPH,2024-08-31 06:56,-117.0904,38.0505,1654.00,65.00,24.00,20.89,M,4.00,0.00,30.26,1016.60,10.00,M,CLR,M,M,M,M,M,M,M,M,M,M,M,M,M,M,65.00,KTPH 310656Z AUTO VRB04KT 10SM CLR 18/M04 A3026 RMK AO2 SLP166 T01831044,M
LAS,2024-08-31 06:56,-115.1634,36.0719,663.00,86.00,39.00,19.01,220.00,3.00,0.00,29.99,1012.50,10.00,M,FEW,M,M,M,20000.00,M,M,M,M,M,M,M,M,M,M,82.78,KLAS 310656Z 22003KT 10SM FEW200 30/04 A2999 RMK AO2 SLP125 T03000039 $,M
NFL,2024-08-31 06:57,-118.7010,39.4166,1199.00,63.00,34.00,33.72,270.00,5.00,0.00,30.14,1017.20,10.00,M,CLR,M,M,M,M,M,M,M,M,M,M,M,M,M,M,63.00,KNFL 310657Z AUTO 27005KT 10SM CLR 17/01 A3014 RMK AO2 SLP172 T01720011,M
05U,2024-08-31 07:10,-116.0051,39.6042,1811.23,50.00,19.40,29.52,0.00,0.00,0.00,30.32,M,10.00,M,CLR,M,M,M,M,M,M,M,M,M,M,M,M,M,M,50.00,K05U 310710Z AUTO 00000KT 10SM CLR 10/M07 A3032 RMK A01,M
BVU,2024-08-31 07:15,-114.8611,35.9475,671.00,86.00,41.00,20.54,320.00,4.00,0.00,29.98,M,10.00,M,CLR,M,M,M,M,M,M,M,M,M,M,M,M,M,M,82.86,KBVU 310715Z AUTO 32004KT 10SM CLR 30/05 A2998 RMK AO2,M
CXP,2024-08-31 07:15,-119.7326,39.1923,1431.00,66.20,28.40,24.04,310.00,3.00,0.00,30.25,M,10.00,M,CLR,M,M,M,M,M,M,M,M,M,M,M,M,M,M,66.20,KCXP 310715Z AUTO 31003KT 10SM CLR 19/M02 A3025 RMK AO2,M
RTS,2024-08-31 07:15,-119.8764,39.6682,1539.00,64.40,30.20,27.55,330.00,7.00,0.00,30.26,M,10.00,M,CLR,M,M,M,M,M,M,M,M,M,M,M,M,M,M,64.40,KRTS 310715Z AUTO 33007KT 10SM CLR 18/M01 A3026 RMK AO2,M
MEV,2024-08-31 07:15,-119.7500,38.9963,1441.42,57.20,35.60,44.19,110.00,4.00,0.00,30.24,M,10.00,M,FEW,FEW,M,M,4700.00,5500.00,M,M,M,M,M,M,M,M,M,57.20,KMEV 310715Z AUTO 11004KT 10SM FEW047 FEW055 14/02 A3024 RMK AO2,M
BAM,2024-08-31 07:15,-116.8743,40.5990,1382.36,51.80,12.20,20.20,0.00,0.00,0.00,30.23,M,10.00,M,CLR,M,M,M,M,M,M,M,M,M,M,M,M,M,M,51.80,KBAM 310715Z AUTO 00000KT 10SM CLR 11/M11 A3023 RMK AO1,M
HTH,2024-08-31 07:15,-118.6315,38.5448,1282.89,71.60,23.00,15.97,210.00,5.00,0.00,30.17,M,10.00,M,CLR,M,M,M,M,M,M,M,M,M,M,M,M,M,M,71.60,KHTH 310715Z AUTO 21005KT 10SM CLR 22/M05 A3017 RMK A01,M
TMT,2024-08-31 07:15,-117.1971,39.4643,1749.34,45.70,28.80,51.40,240.00,6.00,0.00,30.31,M,10.00,M,CLR,M,M,M,M,M,M,M,M,M,M,M,M,M,M,42.03,KTMT 310715Z AUTO 24006KT 10SM CLR 08/M02 A3031 RMK AO2 T00761018,M
10U,2024-08-31 07:15,-116.1876,41.9532,1637.00,48.20,15.80,27.04,0.00,0.00,0.00,30.28,M,8.00,M,CLR,M,M,M,M,M,M,M,M,M,M,M,M,M,M,48.20,K10U 310715Z AUTO 00000KT 8SM CLR 09/M09 A3028 RMK AO2,M
05U,2024-08-31 07:30,-116.0051,39.6042,1811.23,48.20,15.80,27.04,0.00,0.00,0.00,30.32,M,10.00,M,CLR,M,M,M,M,M,M,M,M,M,M,M,M,M,M,48.20,K05U 310730Z AUTO 00000KT 10SM CLR 09/M09 A3032 RMK A01,M
BVU,2024-08-31 07:35,-114.8611,35.9475,671.00,86.00,41.00,20.54,10.00,5.00,0.00,29.98,M,10.00,M,CLR,M,M,M,M,M,M,M,M,M,M,M,M,M,M,82.86,KBVU 310735Z AUTO 01005KT 10SM CLR 30/05 A2998 RMK AO2,M
CXP,2024-08-31 07:35,-119.7326,39.1923,1431.00,66.20,30.20,25.88,0.00,0.00,0.00,30.25,M,10.00,M,CLR,M,M,M,M,M,M,M,M,M,M,M,M,M,M,66.20,KCXP 310735Z AUTO 00000KT 10SM CLR 19/M01 A3025 RMK AO2,M
RTS,2024-08-31 07:35,-119.8764,39.6682,1539.00,64.40,28.40,25.60,330.00,4.00,0.00,30.26,M,10.00,M,CLR,M,M,M,M,M,M,M,M,M,M,M,M,M,M,64.40,KRTS 310735Z AUTO 33004KT 10SM CLR 18/M02 A3026 RMK AO2,M
MEV,2024-08-31 07:35,-119.7500,38.9963,1441.42,53.60,35.60,50.36,140.00,6.00,0.00,30.24,M,10.00,M,FEW,M,M,M,5000.00,M,M,M,M,M,M,M,M,M,M,53.60,KMEV 310735Z AUTO 14006KT 10SM FEW050 12/02 A3024 RMK AO2,M
BAM,2024-08-31 07:35,-116.8743,40.5990,1382.36,50.00,14.00,23.37,0.00,0.00,0.00,30.23,M,10.00,M,CLR,M,M,M,M,M,M,M,M,M,M,M,M,M,M,50.00,KBAM 310735Z AUTO 00000KT 10SM CLR 10/M10 A3023 RMK AO1,M
HTH,2024-08-31 07:35,-118.6315,38.5448,1282.89,71.60,23.00,15.97,210.00,5.00,0.00,30.17,M,10.00,M,CLR,M,M,M,M,M,M,M,M,M,M,M,M,M,M,71.60,KHTH 310735Z AUTO 21005KT 10SM CLR 22/M05 A3017 RMK A01,M
TMT,2024-08-31 07:35,-117.1971,39.4643,1749.34,46.00,26.00,45.29,240.00,5.00,0.00,30.31,M,10.00,M,CLR,M,M,M,M,M,M,M,M,M,M,M,M,M,M,43.02,KTMT 310735Z AUTO 24005KT 10SM CLR 08/M03 A3031 RMK AO2 T00781034,M
10U,2024-08-31 07:35,-116.1876,41.9532,1637.00,46.40,15.80,28.93,0.00,0.00,0.00,30.28,M,7.00,M,CLR,M,M,M,M,M,M,M,M,M,M,M,M,M,M,46.40,K10U 310735Z AUTO 00000KT 7SM CLR 08/M09 A3028 RMK AO2,M
05U,2024-08-31 07:50,-116.0051,39.6042,1811.23,50.00,14.00,23.37,0.00,0.00,0.00,30.33,M,10.00,M,CLR,M,M,M,M,M,M,M,M,M,M,M,M,M,M,50.00,K05U 310750Z AUTO 00000KT 10SM CLR 10/M10 A3033 RMK A01,M
P68,2024-08-31 07:53,-116.0056,39.6014,1993.00,51.00,16.00,24.57,190.00,3.00,0.00,30.30,1018.20,M,M,M,M,M,M,M,M,M,M,M,M,M,M,M,M,M,51.00,KP68 310753Z AUTO 19003KT 11/M09 A3030 RMK AO1 SLP182 T01061089 403220039,M
DRA,2024-08-31 07:53,-116.0278,36.6206,1009.00,75.00,33.00,21.47,80.00,3.00,0.00,30.07,1012.70,10.00,M,CLR,M,M,M,M,M,M,M,M,M,M,M,M,M,M,75.00,KDRA 310753Z AUTO 08003KT 10SM CLR 24/01 A3007 RMK AO2 SLP127 T02390006 403890200,M
ELY,2024-08-31 07:53,-114.8453,39.2950,1909.00,49.00,17.00,27.64,190.00,11.00,0.00,30.35,1018.10,10.00,M,CLR,M,M,M,M,M,M,M,M,M,M,M,M,M,M,43.95,KELY 310753Z AUTO 19011KT 10SM CLR 09/M08 A3035 RMK AO2 SLP181 T00941083 403170033,M
VGT,2024-08-31 07:53,-115.1933,36.2111,667.00,89.00,40.00,17.96,0.00,0.00,0.00,29.98,1013.80,10.00,M,CLR,M,M,M,M,M,M,M,M,M,M,M,M,M,M,85.26,KVGT 310753Z AUTO 00000KT 10SM CLR 32/04 A2998 RMK AO2 SLP138 T03170044 404110267,M
LOL,2024-08-31 07:53,-118.5701,40.0684,1192.43,56.00,20.00,24.30,0.00,0.00,0.00,30.15,1017.20,10.00,M,CLR,M,M,M,M,M,M,M,M,M,M,M,M,M,M,56.00,KLOL 310753Z AUTO 00000KT 10SM CLR 13/M07 A3015 RMK AO2 SLP172 T01331067 403440039 $,M
BVU,2024-08-31 07:55,-114.8611,35.9475,671.00,84.20,44.60,24.99,50.00,3.00,0.00,29.98,M,10.00,M,CLR,M,M,M,M,M,M,M,M,M,M,M,M,M,M,81.73,KBVU 310755Z AUTO 05003KT 10SM CLR 29/07 A2998 RMK AO2,M
RNO,2024-08-31 07:55,-119.7711,39.4839,1341.00,67.00,42.00,40.15,160.00,4.00,0.00,30.22,1017.50,10.00,M,CLR,M,M,M,M,M,M,M,M,M,M,M,M,M,M,67.00,KRNO 310755Z 16004KT 10SM CLR 19/06 A3022 RMK AO2 SLP175 T01940056 403500128,M
CXP,2024-08-31 07:55,-119.7326,39.1923,1431.00,62.60,30.20,29.35,300.00,3.00,0.00,30.25,M,10.00,M,CLR,M,M,M,M,M,M,M,M,M,M,M,M,M,M,62.60,KCXP 310755Z AUTO 30003KT 10SM CLR 17/M01 A3025 RMK AO2,M
RTS,2024-08-31 07:55,-119.8764,39.6682,1539.00,62.60,28.40,27.27,310.00,5.00,0.00,30.26,M,10.00,M,CLR,M,M,M,M,M,M,M,M,M,M,M,M,M,M,62.60,KRTS 310755Z AUTO 31005KT 10SM CLR 17/M02 A3026 RMK AO2,M
MEV,2024-08-31 07:55,-119.7500,38.9963,1441.42,55.40,32.00,40.84,130.00,6.00,0.00,30.24,M,10.00,M,FEW,FEW,M,M,5000.00,6000.00,M,M,M,M,M,M,M,M,M,55.40,KMEV 310755Z AUTO 13006KT 10SM FEW050 FEW060 13/00 A3024 RMK AO2,M
BAM,2024-08-31 07:55,-116.8743,40.5990,1382.36,50.00,15.80,25.28,0.00,0.00,0.00,30.23,M,10.00,M,CLR,M,M,M,M,M,M,M,M,M,M,M,M,M,M,50.00,KBAM 310755Z AUTO 00000KT 10SM CLR 10/M09 A3023 RMK AO1,M
HTH,2024-08-31 07:55,-118.6315,38.5448,1282.89,69.80,21.20,15.73,210.00,6.00,0.00,30.17,M,10.00,M,CLR,M,M,M,M,M,M,M,M,M,M,M,M,M,M,69.80,KHTH 310755Z AUTO 21006KT 10SM CLR 21/M06 A3017 RMK A01,M
TMT,2024-08-31 07:55,-117.1971,39.4643,1749.34,46.60,26.00,44.27,230.00,6.00,0.00,30.31,M,10.00,M,CLR,M,M,M,M,M,M,M,M,M,M,M,M,M,M,43.11,KTMT 310755Z AUTO 23006KT 10SM CLR 08/M03 A3031 RMK AO2 T00811033 403151003,M
10U,2024-08-31 07:55,-116.1876,41.9532,1637.00,44.60,15.80,30.98,120.00,3.00,0.00,30.29,M,8.00,M,CLR,M,M,M,M,M,M,M,M,M,M,M,M,M,M,43.09,K10U 310755Z AUTO 12003KT 8SM CLR 07/M09 A3029 RMK AO2,M
INS,2024-08-31 07:55,-115.6733,36.5872,955.00,79.50,31.00,17.07,330.00,4.00,0.00,30.06,1011.90,10.00,M,BKN,M,M,M,17000.00,M,M,M,M,M,M,M,M,M,M,79.50,KINS 310755Z AUTO 33004KT 10SM BKN170 26/M01 A3006 RMK AO2 SLP119 T02641006 403820187,M
LSV,2024-08-31 07:55,-115.0343,36.2362,570.00,88.50,35.00,14.99,20.00,5.00,0.00,29.93,1010.30,10.00,M,CLR,M,M,M,M,M,M,M,M,M,M,M,M,M,M,84.69,KLSV 310755Z AUTO 02005KT 10SM CLR 31/02 A2993 RMK AO2 SLP103 T03140016 404070249 $,M
EKO,2024-08-31 07:56,-115.7860,40.8242,1367.00,49.00,15.00,25.34,0.00,0.00,0.00,30.26,1020.10,10.00,M,CLR,M,M,M,M,M,M,M,M,M,M,M,M,M,M,49.00,KEKO 310756Z AUTO 00000KT 10SM CLR 09/M09 A3026 RMK AO2 SLP201 T00941094 403170039,M
HND,2024-08-31 07:56,-115.1344,35.9729,742.79,86.00,43.00,22.19,180.00,7.00,0.00,30.03,1015.00,10.00,M,CLR,M,M,M,M,M,M,M,M,M,M,M,M,M,M,82.97,KHND 310756Z AUTO 18007KT 10SM CLR 30/06 A3003 RMK AO2 SLP150 T03000061,M
TPH,2024-08-31 07:56,-117.0904,38.0505,1654.00,67.00,25.00,20.32,360.00,6.00,0.00,30.27,1016.20,10.00,M,CLR,M,M,M,M,M,M,M,M,M,M,M,M,M,M,67.00,KTPH 310756Z AUTO 36006KT 10SM CLR 19/M04 A3027 RMK AO2 SLP162 T01941039 403330128,M
LAS,2024-08-31 07:56,-115.1634,36.0719,663.00,84.00,39.00,20.27,220.00,4.00,0.00,30.00,1012.60,10.00,M,CLR,M,M,M,M,M,M,M,M,M,M,M,M,M,M,81.29,KLAS 310756Z 22004KT 10SM CLR 29/04 A3000 RMK AO2 SLP126 T02890039 403830267 $,M
NFL,2024-08-31 07:57,-118.7010,39.4166,1199.00,60.00,33.00,36.03,160.00,8.00,0.00,30.14,1017.20,10.00,M,CLR,M,M,M,M,M,M,M,M,M,M,M,M,M,M,60.00,KNFL 310757Z AUTO 16008KT 10SM CLR 16/01 A3014 RMK AO2 SLP172 T01560006 403500100,M
05U,2024-08-31 08:10,-116.0051,39.6042,1811.23,48.20,14.00,24.99,0.00,0.00,0.00,30.32,M,10.00,M,CLR,M,M,M,M,M,M,M,M,M,M,M,M,M,M,48.20,K05U 310810Z AUTO 00000KT 10SM CLR 09/M10 A3032 RMK A01,M
BVU,2024-08-31 08:15,-114.8611,35.9475,671.00,86.00,44.60,23.59,100.00,4.00,0.00,29.98,M,10.00,M,CLR,M,M,M,M,M,M,M,M,M,M,M,M,M,M,83.07,KBVU 310815Z AUTO 10004KT 10SM CLR 30/07 A2998 RMK AO2,M
CXP,2024-08-31 08:15,-119.7326,39.1923,1431.00,62.60,30.20,29.35,310.00,4.00,0.00,30.25,M,10.00,M,CLR,M,M,M,M,M,M,M,M,M,M,M,M,M,M,62.60,KCXP 310815Z AUTO 31004KT 10SM CLR 17/M01 A3025 RMK AO2,M
RTS,2024-08-31 08:15,-119.8764,39.6682,1539.00,64.40,28.40,25.60,320.00,4.00,0.00,30.26,M,10.00,M,CLR,M,M,M,M,M,M,M,M,M,M,M,M,M,M,64.40,KRTS 310815Z AUTO 32004KT 10SM CLR 18/M02 A3026 RMK AO2,M
MEV,2024-08-31 08:15,-119.7500,38.9963,1441.42,51.80,35.60,53.81,120.00,8.00,0.00,30.24,M,10.00,M,FEW,M,M,M,5000.00,M,M,M,M,M,M,M,M,M,M,51.80,KMEV 310815Z AUTO 12008KT 10SM FEW050 11/02 A3024 RMK AO2,M
BAM,2024-08-31 08:15,-116.8743,40.5990,1382.36,51.80,17.60,25.56,30.00,4.00,0.00,30.22,M,10.00,M,CLR,M,M,M,M,M,M,M,M,M,M,M,M,M,M,51.80,KBAM 310815Z AUTO 03004KT 10SM CLR 11/M08 A3022 RMK AO1,M
HTH,2024-08-31 08:15,-118.6315,38.5448,1282.89,69.80,21.20,15.73,M,4.00,0.00,30.18,M,10.00,M,CLR,M,M,M,M,M,M,M,M,M,M,M,M,M,M,69.80,KHTH 310815Z AUTO VRB04KT 10SM CLR 21/M06 A3018 RMK A01,M
TMT,2024-08-31 08:15,-117.1971,39.4643,1749.34,40.00,23.50,51.37,160.00,4.00,0.00,30.31,M,10.00,M,CLR,M,M,M,M,M,M,M,M,M,M,M,M,M,M,36.76,KTMT 310815Z AUTO 16004KT 10SM CLR 04/M05 A3031 RMK AO2 T00441047,M
10U,2024-08-31 08:15,-116.1876,41.9532,1637.00,42.80,15.80,33.18,0.00,0.00,0.00,30.29,M,7.00,M,CLR,M,M,M,M,M,M,M,M,M,M,M,M,M,M,42.80,K10U 310815Z AUTO 00000KT 7SM CLR 06/M09 A3029 RMK AO2,M
05U,2024-08-31 08:30,-116.0051,39.6042,1811.23,51.80,14.00,21.86,0.00,0.00,0.00,30.32,M,10.00,M,CLR,M,M,M,M,M,M,M,M,M,M,M,M,M,M,51.80,K05U 310830Z AUTO 00000KT 10SM CLR 11/M10 A3032 RMK A01,M
BVU,2024-08-31 08:35,-114.8611,35.9475,671.00,86.00,46.40,25.26,70.00,5.00,0.00,29.98,M,10.00,M,CLR,M,M,M,M,M,M,M,M,M,M,M,M,M,M,83.22,KBVU 310835Z AUTO 07005KT 10SM CLR 30/08 A2998 RMK AO2,M
CXP,2024-08-31 08:35,-119.7326,39.1923,1431.00,66.20,32.00,27.83,0.00,0.00,0.00,30.25,M,10.00,M,CLR,M,M,M,M,M,M,M,M,M,M,M,M,M,M,66.20,KCXP 310835Z AUTO 00000KT 10SM CLR 19/M00 A3025 RMK AO2,M
RTS,2024-08-31 08:35,-119.8764,39.6682,1539.00,60.80,28.40,29.06,340.00,7.00,0.00,30.26,M,10.00,M,CLR,M,M,M,M,M,M,M,M,M,M,M,M,M,M,60.80,KRTS 310835Z AUTO 34007KT 10SM CLR 16/M02 A3026 RMK AO2,M
MEV,2024-08-31 08:35,-119.7500,38.9963,1441.42,53.60,32.00,43.61,120.00,9.00,0.00,30.24,M,10.00,M,FEW,FEW,M,M,4400.00,5000.00,M,M,M,M,M,M,M,M,M,53.60,KMEV 310835Z AUTO 12009KT 10SM FEW044 FEW050 12/00 A3024 RMK AO2,M
BAM,2024-08-31 08:35,-116.8743,40.5990,1382.36,48.20,19.40,31.57,0.00,0.00,0.00,30.22,M,10.00,M,CLR,M,M,M,M,M,M,M,M,M,M,M,M,M,M,48.20,KBAM 310835Z AUTO 00000KT 10SM CLR 09/M07 A3022 RMK AO1,M
HTH,2024-08-31 08:35,-118.6315,38.5448,1282.89,68.00,21.20,16.74,290.00,4.00,0.00,30.18,M,10.00,M,CLR,M,M,M,M,M,M,M,M,M,M,M,M,M,M,68.00,KHTH 310835Z AUTO 29004KT 10SM CLR 20/M06 A3018 RMK A01,M
TMT,2024-08-31 08:35,-117.1971,39.4643,1749.34,41.00,24.40,51.31,0.00,0.00,0.00,30.31,M,10.00,M,CLR,M,M,M,M,M,M,M,M,M,M,M,M,M,M,41.00,KTMT 310835Z AUTO 00000KT 10SM CLR 05/M04 A3031 RMK AO2 T00511042,M
10U,2024-08-31 08:35,-116.1876,41.9532,1637.00,46.40,15.80,28.93,0.00,0.00,0.00,30.29,M,7.00,M,CLR,M,M,M,M,M,M,M,M,M,M,M,M,M,M,46.40,K10U 310835Z AUTO 00000KT 7SM CLR 08/M09 A3029 RMK AO2,M
05U,2024-08-31 08:50,-116.0051,39.6042,1811.23,50.00,14.00,23.37,0.00,0.00,0.00,30.32,M,10.00,M,CLR,M,M,M,M,M,M,M,M,M,M,M,M,M,M,50.00,K05U 310850Z AUTO 00000KT 10SM CLR 10/M10 A3032 RMK A01,M
P68,2024-08-31 08:53,-116.0056,39.6014,1993.00,49.00,15.00,25.34,180.00,6.00,0.00,30.30,1018.00,M,M,M,M,M,M,M,M,M,M,M,M,M,M,M,M,M,46.00,KP68 310853Z AUTO 18006KT 09/M09 A3030 RMK AO1 SLP180 T00941094 56001,M
DRA,2024-08-31 08:53,-116.0278,36.6206,1009.00,75.00,33.00,21.47,110.00,3.00,0.00,30.07,1012.70,10.00,M,CLR,M,M,M,M,M,M,M,M,M,M,M,M,M,M,75.00,KDRA 310853Z AUTO 11003KT 10SM CLR 24/01 A3007 RMK AO2 SLP127 T02390006 56002,M
ELY,2024-08-31 08:53,-114.8453,39.2950,1909.00,47.00,17.00,29.79,160.00,9.00,0.00,30.35,1018.40,10.00,M,CLR,M,M,M,M,M,M,M,M,M,M,M,M,M,M,42.17,KELY 310853Z AUTO 16009KT 10SM CLR 08/M08 A3035 RMK AO2 SLP184 T00831083 53002,M
VGT,2024-08-31 08:53,-115.1933,36.2111,667.00,87.00,40.00,19.14,350.00,7.00,0.00,29.98,1013.60,10.00,M,CLR,M,M,M,M,M,M,M,M,M,M,M,M,M,M,83.60,KVGT 310853Z AUTO 35007KT 10SM CLR 31/04 A2998 RMK AO2 SLP136 T03060044 56003,M
LOL,2024-08-31 08:53,-118.5701,40.0684,1192.43,50.00,23.00,34.39,210.00,4.00,0.00,30.16,1017.80,10.00,M,CLR,M,M,M,M,M,M,M,M,M,M,M,M,M,M,50.00,KLOL 310853Z AUTO 21004KT 10SM CLR 10/M05 A3016 RMK AO2 SLP178 T01001050 53007 $,M
BVU,2024-08-31 08:55,-114.8611,35.9475,671.00,86.00,46.40,25.26,60.00,5.00,0.00,29.98,M,10.00,M,CLR,M,M,M,M,M,M,M,M,M,M,M,M,M,M,83.22,KBVU 310855Z AUTO 06005KT 10SM CLR 30/08 A2998 RMK AO2,M
INS,2024-08-31 08:55,-115.6733,36.5872,955.00,78.30,31.30,17.97,0.00,0.00,0.00,30.06,1011.90,10.00,M,OVC,M,M,M,16000.00,M,M,M,M,M,M,M,M,M,M,78.30,KINS 310855Z AUTO 00000KT 10SM OVC160 26/M00 A3006 RMK AO2 SLP119 T02571004 55000,M
RNO,2024-08-31 08:55,-119.7711,39.4839,1341.00,66.00,41.00,39.99,0.00,0.00,0.00,30.22,1017.30,10.00,M,CLR,M,M,M,M,M,M,M,M,M,M,M,M,M,M,66.00,KRNO 310855Z 00000KT 10SM CLR 19/05 A3022 RMK AO2 SLP173 T01890050 50005,M
CXP,2024-08-31 08:55,-119.7326,39.1923,1431.00,60.80,32.00,33.64,0.00,0.00,0.00,30.25,M,10.00,M,CLR,M,M,M,M,M,M,M,M,M,M,M,M,M,M,60.80,KCXP 310855Z AUTO 00000KT 10SM CLR 16/00 A3025 RMK AO2,M
RTS,2024-08-31 08:55,-119.8764,39.6682,1539.00,60.80,28.40,29.06,340.00,6.00,0.00,30.26,M,10.00,M,CLR,M,M,M,M,M,M,M,M,M,M,M,M,M,M,60.80,KRTS 310855Z AUTO 34006KT 10SM CLR 16/M02 A3026 RMK AO2,M
MEV,2024-08-31 08:55,-119.7500,38.9963,1441.42,53.60,33.80,46.88,0.00,0.00,0.00,30.24,M,10.00,M,FEW,SCT,M,M,4400.00,5000.00,M,M,M,M,M,M,M,M,M,53.60,KMEV 310855Z AUTO 00000KT 10SM FEW044 SCT050 12/01 A3024 RMK AO2,M
BAM,2024-08-31 08:55,-116.8743,40.5990,1382.36,44.60,19.40,36.18,100.00,4.00,0.00,30.22,M,10.00,M,CLR,M,M,M,M,M,M,M,M,M,M,M,M,M,M,42.13,KBAM 310855Z AUTO 10004KT 10SM CLR 07/M07 A3022 RMK AO1,M
HTH,2024-08-31 08:55,-118.6315,38.5448,1282.89,64.40,23.00,20.46,270.00,5.00,0.00,30.18,M,10.00,M,CLR,M,M,M,M,M,M,M,M,M,M,M,M,M,M,64.40,KHTH 310855Z AUTO 27005KT 10SM CLR 18/M05 A3018 RMK A01,M
TMT,2024-08-31 08:55,-117.1971,39.4643,1749.34,41.70,24.60,50.36,0.00,0.00,0.00,30.31,M,10.00,M,CLR,M,M,M,M,M,M,M,M,M,M,M,M,M,M,41.70,KTMT 310855Z AUTO 00000KT 10SM CLR 05/M04 A3031 RMK AO2 T00541041,M
10U,2024-08-31 08:55,-116.1876,41.9532,1637.00,51.80,19.40,27.62,110.00,6.00,0.00,30.28,M,8.00,M,CLR,M,M,M,M,M,M,M,M,M,M,M,M,M,M,51.80,K10U 310855Z AUTO 11006KT 8SM CLR 11/M07 A3028 RMK AO2,M
LSV,2024-08-31 08:55,-115.0343,36.2362,570.00,87.80,36.00,15.95,40.00,5.00,0.00,29.93,1010.30,10.00,M,BKN,M,M,M,18000.00,M,M,M,M,M,M,M,M,M,M,84.13,KLSV 310855Z AUTO 04005KT 10SM BKN180 31/02 A2993 RMK AO2 SLP103 T03100022 55001 $,M
EKO,2024-08-31 08:56,-115.7860,40.8242,1367.00,48.00,15.00,26.31,0.00,0.00,0.00,30.26,1020.10,10.00,M,CLR,M,M,M,M,M,M,M,M,M,M,M,M,M,M,48.00,KEKO 310856Z AUTO 00000KT 10SM CLR 09/M09 A3026 RMK AO2 SLP201 T00891094 50004,M
HND,2024-08-31 08:56,-115.1344,35.9729,742.79,85.00,42.00,22.05,180.00,7.00,0.00,30.03,1014.90,10.00,M,CLR,M,M,M,M,M,M,M,M,M,M,M,M,M,M,82.15,KHND 310856Z AUTO 18007KT 10SM CLR 29/06 A3003 RMK AO2 SLP149 T02940056 56003,M
TPH,2024-08-31 08:56,-117.0904,38.0505,1654.00,63.00,25.00,23.36,340.00,6.00,0.00,30.26,1016.50,10.00,M,CLR,M,M,M,M,M,M,M,M,M,M,M,M,M,M,63.00,KTPH 310856Z AUTO 34006KT 10SM CLR 17/M04 A3026 RMK AO2 SLP165 T01721039 50001,M
LAS,2024-08-31 08:56,-115.1634,36.0719,663.00,82.00,39.00,21.62,240.00,3.00,0.00,29.99,1012.70,10.00,M,CLR,M,M,M,M,M,M,M,M,M,M,M,M,M,M,79.94,KLAS 310856Z 24003KT 10SM CLR 28/04 A2999 RMK AO2 SLP127 T02780039 56002 $,M
NFL,2024-08-31 08:57,-118.7010,39.4166,1199.00,60.00,34.00,37.50,250.00,4.00,0.00,30.15,1017.40,10.00,M,CLR,M,M,M,M,M,M,M,M,M,M,M,M,M,M,60.00,KNFL 310857Z AUTO 25004KT 10SM CLR 16/01 A3015 RMK AO2 SLP174 T01560011 51008,M
05U,2024-08-31 09:10,-116.0051,39.6042,1811.23,50.00,14.00,23.37,0.00,0.00,0.00,30.32,M,10.00,M,CLR,M,M,M,M,M,M,M,M,M,M,M,M,M,M,50.00,K05U 310910Z AUTO 00000KT 10SM CLR 10/M10 A3032 RMK A01,M
BVU,2024-08-31 09:15,-114.8611,35.9475,671.00,84.20,46.40,26.76,60.00,5.00,0.00,29.97,M,10.00,M,CLR,M,M,M,M,M,M,M,M,M,M,M,M,M,M,81.87,KBVU 310915Z AUTO 06005KT 10SM CLR 29/08 A2997 RMK AO2,M
CXP,2024-08-31 09:15,-119.7326,39.1923,1431.00,59.00,33.80,38.56,0.00,0.00,0.00,30.25,M,10.00,M,CLR,M,M,M,M,M,M,M,M,M,M,M,M,M,M,59.00,KCXP 310915Z AUTO 00000KT 10SM CLR 15/01 A3025 RMK AO2,M
RTS,2024-08-31 09:15,-119.8764,39.6682,1539.00,60.80,28.40,29.06,330.00,4.00,0.00,30.26,M,10.00,M,CLR,M,M,M,M,M,M,M,M,M,M,M,M,M,M,60.80,KRTS 310915Z AUTO 33004KT 10SM CLR 16/M02 A3026 RMK AO2,M
MEV,2024-08-31 09:15,-119.7500,38.9963,1441.42,53.60,33.80,46.88,170.00,4.00,0.00,30.23,M,10.00,M,SCT,SCT,M,M,4200.00,4900.00,M,M,M,M,M,M,M,M,M,53.60,KMEV 310915Z AUTO 17004KT 10SM SCT042 SCT049 12/01 A3023 RMK AO2,M
BAM,2024-08-31 09:15,-116.8743,40.5990,1382.36,44.60,19.40,36.18,0.00,0.00,0.00,30.22,M,10.00,M,CLR,M,M,M,M,M,M,M,M,M,M,M,M,M,M,44.60,KBAM 310915Z AUTO 00000KT 10SM CLR 07/M07 A3022 RMK AO1,M
HTH,2024-08-31 09:15,-118.6315,38.5448,1282.89,66.20,26.60,22.33,220.00,7.00,0.00,30.18,M,10.00,M,CLR,M,M,M,M,M,M,M,M,M,M,M,M,M,M,66.20,KHTH 310915Z AUTO 22007KT 10SM CLR 19/M03 A3018 RMK A01,M
TMT,2024-08-31 09:15,-117.1971,39.4643,1749.34,43.00,26.00,50.77,230.00,3.00,0.00,30.31,M,10.00,M,CLR,M,M,M,M,M,M,M,M,M,M,M,M,M,M,41.26,KTMT 310915Z AUTO 23003KT 10SM CLR 06/M03 A3031 RMK AO2 T00611033,M
10U,2024-08-31 09:15,-116.1876,41.9532,1637.00,48.20,19.40,31.57,100.00,4.00,0.00,30.28,M,10.00,M,CLR,M,M,M,M,M,M,M,M,M,M,M,M,M,M,46.34,K10U 310915Z AUTO 10004KT 10SM CLR 09/M07 A3028 RMK AO2,M
05U,2024-08-31 09:30,-116.0051,39.6042,1811.23,48.20,15.80,27.04,0.00,0.00,0.00,30.32,M,10.00,M,CLR,M,M,M,M,M,M,M,M,M,M,M,M,M,M,48.20,K05U 310930Z AUTO 00000KT 10SM CLR 09/M09 A3032 RMK A01,M
BVU,2024-08-31 09:35,-114.8611,35.9475,671.00,84.20,46.40,26.76,60.00,4.00,0.00,29.97,M,10.00,M,CLR,M,M,M,M,M,M,M,M,M,M,M,M,M,M,81.87,KBVU 310935Z AUTO 06004KT 10SM CLR 29/08 A2997 RMK AO2,M
CXP,2024-08-31 09:35,-119.7326,39.1923,1431.00,59.00,35.60,41.42,0.00,0.00,0.00,30.25,M,10.00,M,CLR,M,M,M,M,M,M,M,M,M,M,M,M,M,M,59.00,KCXP 310935Z AUTO 00000KT 10SM CLR 15/02 A3025 RMK AO2,M
RTS,2024-08-31 09:35,-119.8764,39.6682,1539.00,53.60,26.60,34.98,350.00,7.00,0.00,30.26,M,10.00,M,CLR,M,M,M,M,M,M,M,M,M,M,M,M,M,M,53.60,KRTS 310935Z AUTO 35007KT 10SM CLR 12/M03 A3026 RMK AO2,M
MEV,2024-08-31 09:35,-119.7500,38.9963,1441.42,50.00,33.80,53.54,130.00,3.00,0.00,30.24,M,10.00,M,FEW,SCT,SCT,M,3900.00,4600.00,5500.00,M,M,M,M,M,M,M,M,50.00,KMEV 310935Z AUTO 13003KT 10SM FEW039 SCT046 SCT055 10/01 A3024 RMK AO2,M
BAM,2024-08-31 09:35,-116.8743,40.5990,1382.36,46.40,15.80,28.93,0.00,0.00,0.00,30.23,M,10.00,M,CLR,M,M,M,M,M,M,M,M,M,M,M,M,M,M,46.40,KBAM 310935Z AUTO 00000KT 10SM CLR 08/M09 A3023 RMK AO1,M
HTH,2024-08-31 09:35,-118.6315,38.5448,1282.89,66.20,28.40,24.04,200.00,7.00,0.00,30.18,M,10.00,M,CLR,M,M,M,M,M,M,M,M,M,M,M,M,M,M,66.20,KHTH 310935Z AUTO 20007KT 10SM CLR 19/M02 A3018 RMK A01,M
TMT,2024-08-31 09:35,-117.1971,39.4643,1749.34,43.00,24.80,48.30,230.00,3.00,0.00,30.31,M,10.00,M,CLR,M,M,M,M,M,M,M,M,M,M,M,M,M,M,41.26,KTMT 310935Z AUTO 23003KT 10SM CLR 06/M04 A3031 RMK AO2 T00621040,M
10U,2024-08-31 09:35,-116.1876,41.9532,1637.00,48.20,19.40,31.57,0.00,0.00,0.00,30.28,M,8.00,M,CLR,M,M,M,M,M,M,M,M,M,M,M,M,M,M,48.20,K10U 310935Z AUTO 00000KT 8SM CLR 09/M07 A3028 RMK AO2,M
05U,2024-08-31 09:50,-116.0051,39.6042,1811.23,50.00,12.20,21.59,0.00,0.00,0.00,30.32,M,10.00,M,CLR,M,M,M,M,M,M,M,M,M,M,M,M,M,M,50.00,K05U 310950Z AUTO 00000KT 10SM CLR 10/M11 A3032 RMK A01,M
P68,2024-08-31 09:53,-116.0056,39.6014,1993.00,50.00,13.00,22.36,180.00,7.00,0.00,30.30,1017.70,M,M,M,M,M,M,M,M,M,M,M,M,M,M,M,M,M,50.00,KP68 310953Z AUTO 18007KT 10/M11 A3030 RMK AO1 SLP177 T01001106,M
DRA,2024-08-31 09:53,-116.0278,36.6206,1009.00,74.00,33.00,22.20,100.00,5.00,0.00,30.07,1012.90,10.00,M,CLR,M,M,M,M,M,M,M,M,M,M,M,M,M,M,74.00,KDRA 310953Z AUTO 10005KT 10SM CLR 23/01 A3007 RMK AO2 SLP129 T02330006,M
LOL,2024-08-31 09:53,-118.5701,40.0684,1192.43,49.00,25.00,38.81,150.00,5.00,0.00,30.16,1018.00,10.00,M,CLR,M,M,M,M,M,M,M,M,M,M,M,M,M,M,46.58,KLOL 310953Z AUTO 15005KT 10SM CLR 09/M04 A3016 RMK AO2 SLP180 T00941039 $,M
INS,2024-08-31 09:55,-115.6733,36.5872,955.00,77.00,31.50,18.91,0.00,0.00,0.00,30.06,1011.90,10.00,M,OVC,M,M,M,15000.00,M,M,M,M,M,M,M,M,M,M,77.00,KINS 310955Z AUTO 00000KT 10SM OVC150 25/M00 A3006 RMK AO2 SLP119 T02491003,M
LSV,2024-08-31 09:55,-115.0343,36.2362,570.00,87.60,35.80,15.92,10.00,4.00,0.00,29.93,1010.20,10.00,M,CLR,M,M,M,M,M,M,M,M,M,M,M,M,M,M,83.96,KLSV 310955Z AUTO 01004KT 10SM CLR 31/02 A2993 RMK AO2 SLP102 T03090021 $,M
BVU,2024-08-31 09:55,-114.8611,35.9475,671.00,84.20,46.40,26.76,70.00,5.00,0.00,29.97,M,10.00,M,CLR,M,M,M,M,M,M,M,M,M,M,M,M,M,M,81.87,KBVU 310955Z AUTO 07005KT 10SM CLR 29/08 A2997 RMK AO2,M
CXP,2024-08-31 09:55,-119.7326,39.1923,1431.00,57.20,35.60,44.19,0.00,0.00,0.00,30.25,M,10.00,M,CLR,M,M,M,M,M,M,M,M,M,M,M,M,M,M,57.20,KCXP 310955Z AUTO 00000KT 10SM CLR 14/02 A3025 RMK AO2,M
RNO,2024-08-31 09:55,-119.7711,39.4839,1341.00,63.00,41.00,44.41,0.00,0.00,0.00,30.23,1017.60,10.00,M,CLR,M,M,M,M,M,M,M,M,M,M,M,M,M,M,63.00,KRNO 310955Z 00000KT 10SM CLR 17/05 A3023 RMK AO2 SLP176 T01720050,M
RTS,2024-08-31 09:55,-119.8764,39.6682,1539.00,59.00,28.40,30.98,360.00,5.00,0.00,30.26,M,10.00,M,CLR,M,M,M,M,M,M,M,M,M,M,M,M,M,M,59.00,KRTS 310955Z AUTO 36005KT 10SM CLR 15/M02 A3026 RMK AO2,M
MEV,2024-08-31 09:55,-119.7500,38.9963,1441.42,50.00,35.60,57.52,0.00,0.00,0.00,30.24,M,10.00,M,FEW,SCT,SCT,M,3900.00,4500.00,6000.00,M,M,M,M,M,M,M,M,50.00,KMEV 310955Z AUTO 00000KT 10SM FEW039 SCT045 SCT060 10/02 A3024 RMK AO2,M
BAM,2024-08-31 09:55,-116.8743,40.5990,1382.36,50.00,17.60,27.33,0.00,0.00,0.00,30.23,M,10.00,M,CLR,M,M,M,M,M,M,M,M,M,M,M,M,M,M,50.00,KBAM 310955Z AUTO 00000KT 10SM CLR 10/M08 A3023 RMK AO1,M
HTH,2024-08-31 09:55,-118.6315,38.5448,1282.89,68.00,28.40,22.59,0.00,0.00,0.00,30.18,M,10.00,M,CLR,M,M,M,M,M,M,M,M,M,M,M,M,M,M,68.00,KHTH 310955Z AUTO 00000KT 10SM CLR 20/M02 A3018 RMK A01,M
TMT,2024-08-31 09:55,-117.1971,39.4643,1749.34,40.00,23.40,51.15,200.00,3.00,0.00,30.31,M,10.00,M,CLR,M,M,M,M,M,M,M,M,M,M,M,M,M,M,37.83,KTMT 310955Z AUTO 20003KT 10SM CLR 04/M05 A3031 RMK AO2 T00441048,M
10U,2024-08-31 09:55,-116.1876,41.9532,1637.00,46.40,17.60,31.28,0.00,0.00,0.00,30.28,M,8.00,M,CLR,M,M,M,M,M,M,M,M,M,M,M,M,M,M,46.40,K10U 310955Z AUTO 00000KT 8SM CLR 08/M08 A3028 RMK AO2,M
EKO,2024-08-31 09:56,-115.7860,40.8242,1367.00,49.00,16.00,26.47,0.00,0.00,0.00,30.26,1019.80,10.00,M,CLR,M,M,M,M,M,M,M,M,M,M,M,M,M,M,49.00,KEKO 310956Z AUTO 00000KT 10SM CLR 09/M09 A3026 RMK AO2 SLP198 T00941089,M
TPH,2024-08-31 09:56,-117.0904,38.0505,1654.00,61.00,24.00,24.05,340.00,9.00,0.00,30.27,1016.70,10.00,M,CLR,M,M,M,M,M,M,M,M,M,M,M,M,M,M,61.00,KTPH 310956Z AUTO 34009KT 10SM CLR 16/M04 A3027 RMK AO2 SLP167 T01611044,M
NFL,2024-08-31 09:57,-118.7010,39.4166,1199.00,57.00,33.00,40.12,160.00,5.00,0.00,30.15,1017.60,10.00,M,CLR,M,M,M,M,M,M,M,M,M,M,M,M,M,M,57.00,KNFL 310957Z AUTO 16005KT 10SM CLR 14/01 A3015 RMK AO2 SLP176 T01390006,M
05U,2024-08-31 10:10,-116.0051,39.6042,1811.23,50.00,12.20,21.59,0.00,0.00,0.00,30.32,M,10.00,M,CLR,M,M,M,M,M,M,M,M,M,M,M,M,M,M,50.00,K05U 311010Z AUTO 00000KT 10SM CLR 10/M11 A3032 RMK A01,M
HTH,2024-08-31 10:10,-118.6315,38.5448,1282.89,68.00,28.40,22.59,0.00,0.00,0.00,30.17,M,10.00,M,CLR,M,M,M,M,M,M,M,M,M,M,M,M,M,M,68.00,KHTH 311010Z AUTO 00000KT 10SM CLR 20/M02 A3017 RMK A01,M
BVU,2024-08-31 10:15,-114.8611,35.9475,671.00,84.20,44.60,24.99,80.00,6.00,0.00,29.98,M,10.00,M,CLR,M,M,M,M,M,M,M,M,M,M,M,M,M,M,81.73,KBVU 311015Z AUTO 08006KT 10SM CLR 29/07 A2998 RMK AO2,M
CXP,2024-08-31 10:15,-119.7326,39.1923,1431.00,57.20,35.60,44.19,0.00,0.00,0.00,30.25,M,10.00,M,CLR,M,M,M,M,M,M,M,M,M,M,M,M,M,M,57.20,KCXP 311015Z AUTO 00000KT 10SM CLR 14/02 A3025 RMK AO2,M
RTS,2024-08-31 10:15,-119.8764,39.6682,1539.00,55.40,26.60,32.76,350.00,4.00,0.00,30.26,M,10.00,M,CLR,M,M,M,M,M,M,M,M,M,M,M,M,M,M,55.40,KRTS 311015Z AUTO 35004KT 10SM CLR 13/M03 A3026 RMK AO2,M
MEV,2024-08-31 10:15,-119.7500,38.9963,1441.42,48.20,33.80,57.26,110.00,4.00,0.00,30.24,M,10.00,M,FEW,FEW,SCT,M,3700.00,4600.00,5500.00,M,M,M,M,M,M,M,M,46.34,KMEV 311015Z AUTO 11004KT 10SM FEW037 FEW046 SCT055 09/01 A3024 RMK AO2,M
BAM,2024-08-31 10:15,-116.8743,40.5990,1382.36,48.20,17.60,29.23,60.00,4.00,0.00,30.23,M,10.00,M,CLR,M,M,M,M,M,M,M,M,M,M,M,M,M,M,46.34,KBAM 311015Z AUTO 06004KT 10SM CLR 09/M08 A3023 RMK AO1,M
TMT,2024-08-31 10:15,-117.1971,39.4643,1749.34,36.70,22.00,54.88,0.00,0.00,0.00,30.31,M,10.00,M,CLR,M,M,M,M,M,M,M,M,M,M,M,M,M,M,36.70,KTMT 311015Z AUTO 00000KT 10SM CLR 03/M06 A3031 RMK AO2 T00261056,M
10U,2024-08-31 10:15,-116.1876,41.9532,1637.00,44.60,15.80,30.98,0.00,0.00,0.00,30.29,M,8.00,M,CLR,M,M,M,M,M,M,M,M,M,M,M,M,M,M,44.60,K10U 311015Z AUTO 00000KT 8SM CLR 07/M09 A3029 RMK AO2,M
05U,2024-08-31 10:30,-116.0051,39.6042,1811.23,50.00,12.20,21.59,0.00,0.00,0.00,30.33,M,10.00,M,CLR,M,M,M,M,M,M,M,M,M,M,M,M,M,M,50.00,K05U 311030Z AUTO 00000KT 10SM CLR 10/M11 A3033 RMK A01,M
BVU,2024-08-31 10:35,-114.8611,35.9475,671.00,84.20,44.60,24.99,100.00,5.00,0.00,29.98,M,10.00,M,CLR,M,M,M,M,M,M,M,M,M,M,M,M,M,M,81.73,KBVU 311035Z AUTO 10005KT 10SM CLR 29/07 A2998 RMK AO2,M
CXP,2024-08-31 10:35,-119.7326,39.1923,1431.00,57.20,33.80,41.13,0.00,0.00,0.00,30.25,M,10.00,M,CLR,M,M,M,M,M,M,M,M,M,M,M,M,M,M,57.20,KCXP 311035Z AUTO 00000KT 10SM CLR 14/01 A3025 RMK AO2,M
RTS,2024-08-31 10:35,-119.8764,39.6682,1539.00,53.60,26.60,34.98,10.00,6.00,0.00,30.26,M,10.00,M,CLR,M,M,M,M,M,M,M,M,M,M,M,M,M,M,53.60,KRTS 311035Z AUTO 01006KT 10SM CLR 12/M03 A3026 RMK AO2,M
MEV,2024-08-31 10:35,-119.7500,38.9963,1441.42,48.20,32.00,53.27,120.00,3.00,0.00,30.23,M,10.00,M,FEW,FEW,SCT,M,4200.00,4900.00,5500.00,M,M,M,M,M,M,M,M,47.21,KMEV 311035Z AUTO 12003KT 10SM FEW042 FEW049 SCT055 09/00 A3023 RMK AO2,M
BAM,2024-08-31 10:35,-116.8743,40.5990,1382.36,46.40,19.40,33.79,90.00,4.00,0.00,30.23,M,10.00,M,CLR,M,M,M,M,M,M,M,M,M,M,M,M,M,M,44.24,KBAM 311035Z AUTO 09004KT 10SM CLR 08/M07 A3023 RMK AO1,M
HTH,2024-08-31 10:35,-118.6315,38.5448,1282.89,62.60,23.00,21.79,0.00,0.00,0.00,30.18,M,10.00,M,CLR,M,M,M,M,M,M,M,M,M,M,M,M,M,M,62.60,KHTH 311035Z AUTO 00000KT 10SM CLR 17/M05 A3018 RMK A01,M
TMT,2024-08-31 10:35,-117.1971,39.4643,1749.34,36.00,22.00,56.42,0.00,0.00,0.00,30.31,M,10.00,M,CLR,M,M,M,M,M,M,M,M,M,M,M,M,M,M,36.00,KTMT 311035Z AUTO 00000KT 10SM CLR 02/M05 A3031 RMK AO2 T00221055,M
10U,2024-08-31 10:35,-116.1876,41.9532,1637.00,41.00,17.60,38.45,90.00,3.00,0.00,30.28,M,10.00,M,CLR,M,M,M,M,M,M,M,M,M,M,M,M,M,M,38.98,K10U 311035Z AUTO 09003KT 10SM CLR 05/M08 A3028 RMK AO2,M
05U,2024-08-31 10:50,-116.0051,39.6042,1811.23,51.80,10.40,18.64,0.00,0.00,0.00,30.32,M,10.00,M,CLR,M,M,M,M,M,M,M,M,M,M,M,M,M,M,51.80,K05U 311050Z AUTO 00000KT 10SM CLR 11/M12 A3032 RMK A01,M
P68,2024-08-31 10:53,-116.0056,39.6014,1993.00,51.00,13.00,21.55,190.00,6.00,0.00,30.30,1017.80,M,M,M,M,M,M,M,M,M,M,M,M,M,M,M,M,M,51.00,KP68 311053Z AUTO 19006KT 11/M11 A3030 RMK AO1 SLP178 T01061106,M
DRA,2024-08-31 10:53,-116.0278,36.6206,1009.00,72.00,33.00,23.75,0.00,0.00,0.00,30.07,1012.90,10.00,M,CLR,M,M,M,M,M,M,M,M,M,M,M,M,M,M,72.00,KDRA 311053Z AUTO 00000KT 10SM CLR 22/01 A3007 RMK AO2 SLP129 T02220006,M
ELY,2024-08-31 10:53,-114.8453,39.2950,1909.00,44.00,18.00,34.86,190.00,6.00,0.00,30.35,1018.60,10.00,M,CLR,M,M,M,M,M,M,M,M,M,M,M,M,M,M,39.98,KELY 311053Z AUTO 19006KT 10SM CLR 07/M08 A3035 RMK AO2 SLP186 T00671078,M
VGT,2024-08-31 10:53,-115.1933,36.2111,667.00,86.00,40.00,19.76,330.00,3.00,0.00,29.98,1013.70,10.00,M,CLR,M,M,M,M,M,M,M,M,M,M,M,M,M,M,82.82,KVGT 311053Z AUTO 33003KT 10SM CLR 30/04 A2998 RMK AO2 SLP137 T03000044,M
LOL,2024-08-31 10:53,-118.5701,40.0684,1192.43,48.00,20.00,32.64,0.00,0.00,0.00,30.16,1018.00,10.00,M,CLR,M,M,M,M,M,M,M,M,M,M,M,M,M,M,48.00,KLOL 311053Z AUTO 00000KT 10SM CLR 09/M07 A3016 RMK AO2 SLP180 T00891067 $,M
BVU,2024-08-31 10:55,-114.8611,35.9475,671.00,80.60,48.20,32.18,80.00,3.00,0.00,29.98,M,10.00,M,CLR,M,M,M,M,M,M,M,M,M,M,M,M,M,M,79.71,KBVU 311055Z AUTO 08003KT 10SM CLR 27/09 A2998 RMK AO2,M
RNO,2024-08-31 10:55,-119.7711,39.4839,1341.00,64.00,41.00,42.88,0.00,0.00,0.00,30.22,1017.10,10.00,M,CLR,M,M,M,M,M,M,M,M,M,M,M,M,M,M,64.00,KRNO 311055Z 00000KT 10SM CLR 18/05 A3022 RMK AO2 SLP171 T01780050,M
CXP,2024-08-31 10:55,-119.7326,39.1923,1431.00,55.40,32.00,40.84,0.00,0.00,0.00,30.25,M,10.00,M,CLR,M,M,M,M,M,M,M,M,M,M,M,M,M,M,55.40,KCXP 311055Z AUTO 00000KT 10SM CLR 13/M00 A3025 RMK AO2,M
RTS,2024-08-31 10:55,-119.8764,39.6682,1539.00,51.80,26.60,37.38,0.00,0.00,0.00,30.26,M,10.00,M,CLR,M,M,M,M,M,M,M,M,M,M,M,M,M,M,51.80,KRTS 311055Z AUTO 00000KT 10SM CLR 11/M03 A3026 RMK AO2,M
MEV,2024-08-31 10:55,-119.7500,38.9963,1441.42,48.20,33.80,57.26,130.00,3.00,0.00,30.24,M,10.00,M,FEW,FEW,SCT,M,4200.00,5000.00,5500.00,M,M,M,M,M,M,M,M,47.21,KMEV 311055Z AUTO 13003KT 10SM FEW042 FEW050 SCT055 09/01 A3024 RMK AO2,M
BAM,2024-08-31 10:55,-116.8743,40.5990,1382.36,44.60,17.60,33.49,130.00,3.00,0.00,30.23,M,10.00,M,CLR,M,M,M,M,M,M,M,M,M,M,M,M,M,M,43.09,KBAM 311055Z AUTO 13003KT 10SM CLR 07/M08 A3023 RMK AO1,M
HTH,2024-08-31 10:55,-118.6315,38.5448,1282.89,64.40,23.00,20.46,240.00,4.00,0.00,30.18,M,10.00,M,CLR,M,M,M,M,M,M,M,M,M,M,M,M,M,M,64.40,KHTH 311055Z AUTO 24004KT 10SM CLR 18/M05 A3018 RMK A01,M
TMT,2024-08-31 10:55,-117.1971,39.4643,1749.34,37.20,22.00,53.81,0.00,0.00,0.00,30.31,M,10.00,M,CLR,M,M,M,M,M,M,M,M,M,M,M,M,M,M,37.20,KTMT 311055Z AUTO 00000KT 10SM CLR 03/M06 A3031 RMK AO2 T00291056,M
10U,2024-08-31 10:55,-116.1876,41.9532,1637.00,42.80,17.60,35.87,120.00,5.00,0.00,30.28,M,9.00,M,CLR,M,M,M,M,M,M,M,M,M,M,M,M,M,M,39.22,K10U 311055Z AUTO 12005KT 9SM CLR 06/M08 A3028 RMK AO2,M
INS,2024-08-31 10:55,-115.6733,36.5872,955.00,73.20,29.70,19.96,0.00,0.00,0.00,30.07,1012.40,10.00,M,BKN,BKN,M,M,15000.00,17000.00,M,M,M,M,M,M,M,M,M,73.20,KINS 311055Z AUTO 00000KT 10SM BKN150 BKN170 23/M01 A3007 RMK AO2 SLP124 T02291013,M
LSV,2024-08-31 10:55,-115.0343,36.2362,570.00,88.70,36.70,15.94,70.00,4.00,0.00,29.93,1010.20,10.00,M,BKN,M,M,M,15000.00,M,M,M,M,M,M,M,M,M,M,84.89,KLSV 311055Z AUTO 07004KT 10SM BKN150 32/03 A2993 RMK AO2 SLP102 T03150026 $,M
EKO,2024-08-31 10:56,-115.7860,40.8242,1367.00,48.00,18.00,29.96,90.00,5.00,0.00,30.27,1020.30,10.00,M,CLR,M,M,M,M,M,M,M,M,M,M,M,M,M,M,45.40,KEKO 311056Z AUTO 09005KT 10SM CLR 09/M08 A3027 RMK AO2 SLP203 T00891078,M
HND,2024-08-31 10:56,-115.1344,35.9729,742.79,84.00,41.00,21.90,190.00,7.00,0.00,30.03,1015.20,10.00,M,CLR,M,M,M,M,M,M,M,M,M,M,M,M,M,M,81.37,KHND 311056Z AUTO 19007KT 10SM CLR 29/05 A3003 RMK AO2 SLP152 T02890050,M
TPH,2024-08-31 10:56,-117.0904,38.0505,1654.00,62.00,25.00,24.20,350.00,11.00,0.00,30.26,1016.50,10.00,M,CLR,M,M,M,M,M,M,M,M,M,M,M,M,M,M,62.00,KTPH 311056Z AUTO 35011KT 10SM CLR 17/M04 A3026 RMK AO2 SLP165 T01671039,M
LAS,2024-08-31 10:56,-115.1634,36.0719,663.00,77.00,36.00,22.64,270.00,5.00,0.00,30.00,1012.80,10.00,M,CLR,M,M,M,M,M,M,M,M,M,M,M,M,M,M,77.00,KLAS 311056Z 27005KT 10SM CLR 25/02 A3000 RMK AO2 SLP128 T02500022 $,M
NFL,2024-08-31 10:57,-118.7010,39.4166,1199.00,57.00,29.00,34.12,150.00,3.00,0.00,30.15,1017.50,10.00,M,CLR,M,M,M,M,M,M,M,M,M,M,M,M,M,M,57.00,KNFL 311057Z AUTO 15003KT 10SM CLR 14/M02 A3015 RMK AO2 SLP175 T01391017,M
05U,2024-08-31 11:10,-116.0051,39.6042,1811.23,50.00,14.00,23.37,0.00,0.00,0.00,30.32,M,10.00,M,CLR,M,M,M,M,M,M,M,M,M,M,M,M,M,M,50.00,K05U 311110Z AUTO 00000KT 10SM CLR 10/M10 A3032 RMK A01,M
BVU,2024-08-31 11:15,-114.8611,35.9475,671.00,77.00,50.00,38.74,0.00,0.00,0.00,29.98,M,10.00,M,CLR,M,M,M,M,M,M,M,M,M,M,M,M,M,M,77.00,KBVU 311115Z AUTO 00000KT 10SM CLR 25/10 A2998 RMK AO2,M
CXP,2024-08-31 11:15,-119.7326,39.1923,1431.00,53.60,35.60,50.36,0.00,0.00,0.00,30.25,M,10.00,M,CLR,M,M,M,M,M,M,M,M,M,M,M,M,M,M,53.60,KCXP 311115Z AUTO 00000KT 10SM CLR 12/02 A3025 RMK AO2,M
RTS,2024-08-31 11:15,-119.8764,39.6682,1539.00,53.60,28.40,37.67,0.00,0.00,0.00,30.26,M,10.00,M,CLR,M,M,M,M,M,M,M,M,M,M,M,M,M,M,53.60,KRTS 311115Z AUTO 00000KT 10SM CLR 12/M02 A3026 RMK AO2,M
MEV,2024-08-31 11:15,-119.7500,38.9963,1441.42,46.40,33.80,61.28,0.00,0.00,0.00,30.23,M,10.00,M,FEW,SCT,M,M,4300.00,5000.00,M,M,M,M,M,M,M,M,M,46.40,KMEV 311115Z AUTO 00000KT 10SM FEW043 SCT050 08/01 A3023 RMK AO2,M
BAM,2024-08-31 11:15,-116.8743,40.5990,1382.36,42.80,14.00,30.68,0.00,0.00,0.00,30.23,M,10.00,M,CLR,M,M,M,M,M,M,M,M,M,M,M,M,M,M,42.80,KBAM 311115Z AUTO 00000KT 10SM CLR 06/M10 A3023 RMK AO1,M
HTH,2024-08-31 11:15,-118.6315,38.5448,1282.89,66.20,23.00,19.22,250.00,5.00,0.00,30.18,M,10.00,M,CLR,M,M,M,M,M,M,M,M,M,M,M,M,M,M,66.20,KHTH 311115Z AUTO 25005KT 10SM CLR 19/M05 A3018 RMK A01,M
TMT,2024-08-31 11:15,-117.1971,39.4643,1749.34,37.60,22.00,52.97,0.00,0.00,0.00,30.31,M,10.00,M,CLR,M,M,M,M,M,M,M,M,M,M,M,M,M,M,37.60,KTMT 311115Z AUTO 00000KT 10SM CLR 03/M05 A3031 RMK AO2 T00311055,M
10U,2024-08-31 11:15,-116.1876,41.9532,1637.00,42.80,19.40,38.75,140.00,4.00,0.00,30.28,M,10.00,M,CLR,M,M,M,M,M,M,M,M,M,M,M,M,M,M,40.03,K10U 311115Z AUTO 14004KT 10SM CLR 06/M07 A3028 RMK AO2,M
05U,2024-08-31 11:30,-116.0051,39.6042,1811.23,46.40,14.00,26.75,0.00,0.00,0.00,30.32,M,10.00,M,CLR,M,M,M,M,M,M,M,M,M,M,M,M,M,M,46.40,K05U 311130Z AUTO 00000KT 10SM CLR 08/M10 A3032 RMK A01,M
BVU,2024-08-31 11:35,-114.8611,35.9475,671.00,78.80,48.20,34.13,70.00,4.00,0.00,29.98,M,10.00,M,CLR,M,M,M,M,M,M,M,M,M,M,M,M,M,M,78.80,KBVU 311135Z AUTO 07004KT 10SM CLR 26/09 A2998 RMK AO2,M
CXP,2024-08-31 11:35,-119.7326,39.1923,1431.00,53.60,35.60,50.36,0.00,0.00,0.00,30.25,M,10.00,M,CLR,M,M,M,M,M,M,M,M,M,M,M,M,M,M,53.60,KCXP 311135Z AUTO 00000KT 10SM CLR 12/02 A3025 RMK AO2,M
RTS,2024-08-31 11:35,-119.8764,39.6682,1539.00,53.60,28.40,37.67,310.00,5.00,0.00,30.26,M,10.00,M,CLR,M,M,M,M,M,M,M,M,M,M,M,M,M,M,53.60,KRTS 311135Z AUTO 31005KT 10SM CLR 12/M02 A3026 RMK AO2,M
MEV,2024-08-31 11:35,-119.7500,38.9963,1441.42,46.40,35.60,65.83,0.00,0.00,0.00,30.24,M,10.00,M,FEW,SCT,M,M,4500.00,5000.00,M,M,M,M,M,M,M,M,M,46.40,KMEV 311135Z AUTO 00000KT 10SM FEW045 SCT050 08/02 A3024 RMK AO2,M
BAM,2024-08-31 11:35,-116.8743,40.5990,1382.36,41.00,15.80,35.57,0.00,0.00,0.00,30.23,M,10.00,M,CLR,M,M,M,M,M,M,M,M,M,M,M,M,M,M,41.00,KBAM 311135Z AUTO 00000KT 10SM CLR 05/M09 A3023 RMK AO1,M
HTH,2024-08-31 11:35,-118.6315,38.5448,1282.89,66.20,23.00,19.22,230.00,5.00,0.00,30.18,M,10.00,M,CLR,M,M,M,M,M,M,M,M,M,M,M,M,M,M,66.20,KHTH 311135Z AUTO 23005KT 10SM CLR 19/M05 A3018 RMK A01,M
TMT,2024-08-31 11:35,-117.1971,39.4643,1749.34,39.20,22.30,50.38,0.00,0.00,0.00,30.30,M,10.00,M,CLR,M,M,M,M,M,M,M,M,M,M,M,M,M,M,39.20,KTMT 311135Z AUTO 00000KT 10SM CLR 04/M05 A3030 RMK AO2 T00401054,M
10U,2024-08-31 11:35,-116.1876,41.9532,1637.00,44.60,19.40,36.18,170.00,6.00,0.00,30.28,M,10.00,M,CLR,M,M,M,M,M,M,M,M,M,M,M,M,M,M,40.71,K10U 311135Z AUTO 17006KT 10SM CLR 07/M07 A3028 RMK AO2,M
05U,2024-08-31 11:50,-116.0051,39.6042,1811.23,46.40,12.20,24.71,0.00,0.00,0.00,30.32,M,10.00,M,CLR,M,M,M,M,M,M,M,M,M,M,M,M,M,M,46.40,K05U 311150Z AUTO 00000KT 10SM CLR 08/M11 A3032 RMK A01,M
P68,2024-08-31 11:53,-116.0056,39.6014,1993.00,49.00,13.00,23.21,200.00,8.00,0.00,30.30,1017.90,M,M,M,M,M,M,M,M,M,M,M,M,M,M,M,M,M,45.05,KP68 311153Z AUTO 20008KT 09/M11 A3030 RMK AO1 SLP179 T00941106 10122 20078 56000,M
DRA,2024-08-31 11:53,-116.0278,36.6206,1009.00,71.00,33.00,24.57,0.00,0.00,0.00,30.08,1013.40,10.00,M,CLR,M,M,M,M,M,M,M,M,M,M,M,M,M,M,71.00,KDRA 311153Z AUTO 00000KT 10SM CLR 22/01 A3008 RMK AO2 SLP134 T02170006 10278 20217 53003,M
ELY,2024-08-31 11:53,-114.8453,39.2950,1909.00,44.00,17.00,33.39,180.00,8.00,0.00,30.35,1018.80,10.00,M,CLR,M,M,M,M,M,M,M,M,M,M,M,M,M,M,38.90,KELY 311153Z AUTO 18008KT 10SM CLR 07/M08 A3035 RMK AO2 SLP188 T00671083 10172 20061 55000,M
VGT,2024-08-31 11:53,-115.1933,36.2111,667.00,86.00,41.00,20.54,10.00,6.00,0.00,29.98,1013.80,10.00,M,CLR,M,M,M,M,M,M,M,M,M,M,M,M,M,M,82.86,KVGT 311153Z AUTO 01006KT 10SM CLR 30/05 A2998 RMK AO2 SLP138 T03000050 10339 20294 52001,M
LOL,2024-08-31 11:53,-118.5701,40.0684,1192.43,47.00,25.00,41.83,350.00,4.00,0.00,30.16,1018.00,10.00,M,CLR,M,M,M,M,M,M,M,M,M,M,M,M,M,M,44.94,KLOL 311153Z AUTO 35004KT 10SM CLR 08/M04 A3016 RMK AO2 SLP180 T00831039 10167 20072 51002 $,M
BVU,2024-08-31 11:55,-114.8611,35.9475,671.00,78.80,48.20,34.13,0.00,0.00,0.00,29.99,M,10.00,M,CLR,M,M,M,M,M,M,M,M,M,M,M,M,M,M,78.80,KBVU 311155Z AUTO 00000KT 10SM CLR 26/09 A2999 RMK AO2,M
RNO,2024-08-31 11:55,-119.7711,39.4839,1341.00,64.00,37.00,36.68,0.00,0.00,0.00,30.22,1017.20,10.00,M,CLR,M,M,M,M,M,M,M,M,M,M,M,M,M,M,64.00,KRNO 311155Z 00000KT 10SM CLR 18/03 A3022 RMK AO2 SLP172 T01780028 10239 20167 58001,M
CXP,2024-08-31 11:55,-119.7326,39.1923,1431.00,55.40,32.00,40.84,300.00,4.00,0.00,30.25,M,10.00,M,CLR,M,M,M,M,M,M,M,M,M,M,M,M,M,M,55.40,KCXP 311155Z AUTO 30004KT 10SM CLR 13/00 A3025 RMK AO2,M
RTS,2024-08-31 11:55,-119.8764,39.6682,1539.00,53.60,26.60,34.98,360.00,5.00,0.00,30.26,M,10.00,M,CLR,M,M,M,M,M,M,M,M,M,M,M,M,M,M,53.60,KRTS 311155Z AUTO 36005KT 10SM CLR 12/M03 A3026 RMK AO2,M
MEV,2024-08-31 11:55,-119.7500,38.9963,1441.42,48.20,33.80,57.26,60.00,4.00,0.00,30.23,M,10.00,M,FEW,FEW,M,M,4600.00,5500.00,M,M,M,M,M,M,M,M,M,46.34,KMEV 311155Z AUTO 06004KT 10SM FEW046 FEW055 09/01 A3023 RMK AO2,M
BAM,2024-08-31 11:55,-116.8743,40.5990,1382.36,41.00,14.00,32.88,0.00,0.00,0.00,30.24,M,10.00,M,CLR,M,M,M,M,M,M,M,M,M,M,M,M,M,M,41.00,KBAM 311155Z AUTO 00000KT 10SM CLR 05/M10 A3024 RMK AO1,M
HTH,2024-08-31 11:55,-118.6315,38.5448,1282.89,64.40,23.00,20.46,250.00,6.00,0.00,30.18,M,10.00,M,CLR,M,M,M,M,M,M,M,M,M,M,M,M,M,M,64.40,KHTH 311155Z AUTO 25006KT 10SM CLR 18/M05 A3018 RMK A01,M
TMT,2024-08-31 11:55,-117.1971,39.4643,1749.34,37.00,22.00,54.23,0.00,0.00,0.00,30.31,M,10.00,M,CLR,M,M,M,M,M,M,M,M,M,M,M,M,M,M,37.00,KTMT 311155Z AUTO 00000KT 10SM CLR 03/M06 A3031 RMK AO2 T00281056 10082 20014,M
10U,2024-08-31 11:55,-116.1876,41.9532,1637.00,42.80,17.60,35.87,170.00,7.00,0.00,30.28,M,10.00,M,CLR,M,M,M,M,M,M,M,M,M,M,M,M,M,M,37.94,K10U 311155Z AUTO 17007KT 10SM CLR 06/M08 A3028 RMK AO2,M
INS,2024-08-31 11:55,-115.6733,36.5872,955.00,73.60,31.30,21.01,300.00,4.00,0.00,30.06,1012.10,10.00,M,SCT,OVC,M,M,13000.00,16000.00,M,M,M,M,M,M,M,M,M,73.60,KINS 311155Z AUTO 30004KT 10SM SCT130 OVC160 23/M00 A3006 RMK AO2 SLP121 T02311004 10290 20228 50000,M
LSV,2024-08-31 11:55,-115.0343,36.2362,570.00,85.30,37.00,17.97,40.00,4.00,0.00,29.94,1010.60,10.00,M,BKN,BKN,M,M,16000.00,18000.00,M,M,M,M,M,M,M,M,M,82.18,KLSV 311155Z AUTO 04004KT 10SM BKN160 BKN180 30/03 A2994 RMK AO2 SLP106 T02960027 10344 20291 53002 $,M
EKO,2024-08-31 11:56,-115.7860,40.8242,1367.00,46.00,17.00,30.94,90.00,3.00,0.00,30.27,1020.40,10.00,M,CLR,M,M,M,M,M,M,M,M,M,M,M,M,M,M,44.69,KEKO 311156Z AUTO 09003KT 10SM CLR 08/M08 A3027 RMK AO2 SLP204 T00781083 10156 20072 52003,M
HND,2024-08-31 11:56,-115.1344,35.9729,742.79,81.00,41.00,24.14,200.00,9.00,0.00,30.03,1015.40,10.00,M,CLR,M,M,M,M,M,M,M,M,M,M,M,M,M,M,79.43,KHND 311156Z AUTO 20009KT 10SM CLR 27/05 A3003 RMK AO2 SLP154 T02720050 10317 20272 53003,M
TPH,2024-08-31 11:56,-117.0904,38.0505,1654.00,63.00,24.00,22.41,350.00,11.00,0.00,30.26,1016.30,10.00,M,CLR,M,M,M,M,M,M,M,M,M,M,M,M,M,M,63.00,KTPH 311156Z AUTO 35011KT 10SM CLR 17/M04 A3026 RMK AO2 SLP163 T01721044 10200 20156 58001,M
LAS,2024-08-31 11:56,-115.1634,36.0719,663.00,79.00,36.00,21.19,200.00,3.00,0.00,30.00,1013.10,10.00,M,SCT,M,M,M,15000.00,M,M,M,M,M,M,M,M,M,M,79.00,KLAS 311156Z 20003KT 10SM SCT150 26/02 A3000 RMK AO2 SLP131 T02610022 10311 20250 53003 $,M
NFL,2024-08-31 11:57,-118.7010,39.4166,1199.00,56.00,23.00,27.59,150.00,7.00,0.00,30.15,1017.50,10.00,M,CLR,M,M,M,M,M,M,M,M,M,M,M,M,M,M,56.00,KNFL 311157Z AUTO 15007KT 10SM CLR 13/M05 A3015 RMK AO2 SLP175 T01331050 10189 20117 51001,M
05U,2024-08-31 12:10,-116.0051,39.6042,1811.23,48.20,14.00,24.99,200.00,4.00,0.00,30.32,M,10.00,M,CLR,M,M,M,M,M,M,M,M,M,M,M,M,M,M,46.34,K05U 311210Z AUTO 20004KT 10SM CLR 09/M10 A3032 RMK A01,M
BVU,2024-08-31 12:15,-114.8611,35.9475,671.00,82.40,42.80,24.72,0.00,0.00,0.00,29.99,M,10.00,M,CLR,M,M,M,M,M,M,M,M,M,M,M,M,M,M,80.39,KBVU 311215Z AUTO 00000KT 10SM CLR 28/06 A2999 RMK AO2,M
CXP,2024-08-31 12:15,-119.7326,39.1923,1431.00,55.40,33.80,43.90,0.00,0.00,0.00,30.25,M,10.00,M,CLR,M,M,M,M,M,M,M,M,M,M,M,M,M,M,55.40,KCXP 311215Z AUTO 00000KT 10SM CLR 13/01 A3025 RMK AO2,M
RTS,2024-08-31 12:15,-119.8764,39.6682,1539.00,57.20,28.40,33.05,0.00,0.00,0.00,30.26,M,10.00,M,CLR,M,M,M,M,M,M,M,M,M,M,M,M,M,M,57.20,KRTS 311215Z AUTO 00000KT 10SM CLR 14/M02 A3026 RMK AO2,M
MEV,2024-08-31 12:15,-119.7500,38.9963,1441.42,46.40,32.00,57.00,140.00,3.00,0.00,30.23,M,10.00,M,SCT,M,M,M,4800.00,M,M,M,M,M,M,M,M,M,M,45.15,KMEV 311215Z AUTO 14003KT 10SM SCT048 08/00 A3023 RMK AO2,M
BAM,2024-08-31 12:15,-116.8743,40.5990,1382.36,41.00,17.60,38.45,260.00,3.00,0.00,30.24,M,10.00,M,CLR,M,M,M,M,M,M,M,M,M,M,M,M,M,M,38.98,KBAM 311215Z AUTO 26003KT 10SM CLR 05/M08 A3024 RMK AO1,M
HTH,2024-08-31 12:15,-118.6315,38.5448,1282.89,64.40,24.80,22.06,220.00,5.00,0.00,30.19,M,10.00,M,CLR,M,M,M,M,M,M,M,M,M,M,M,M,M,M,64.40,KHTH 311215Z AUTO 22005KT 10SM CLR 18/M04 A3019 RMK A01,M
TMT,2024-08-31 12:15,-117.1971,39.4643,1749.34,36.50,21.60,54.39,0.00,0.00,0.00,30.31,M,10.00,M,CLR,M,M,M,M,M,M,M,M,M,M,M,M,M,M,36.50,KTMT 311215Z AUTO 00000KT 10SM CLR 03/M06 A3031 RMK AO2 T00251058,M
10U,2024-08-31 12:15,-116.1876,41.9532,1637.00,41.00,17.60,38.45,90.00,6.00,0.00,30.29,M,10.00,M,CLR,M,M,M,M,M,M,M,M,M,M,M,M,M,M,36.37,K10U 311215Z AUTO 09006KT 10SM CLR 05/M08 A3029 RMK AO2,M
05U,2024-08-31 12:30,-116.0051,39.6042,1811.23,48.20,12.20,23.09,0.00,0.00,0.00,30.33,M,10.00,M,CLR,M,M,M,M,M,M,M,M,M,M,M,M,M,M,48.20,K05U 311230Z AUTO 00000KT 10SM CLR 09/M11 A3033 RMK A01,M
BVU,2024-08-31 12:35,-114.8611,35.9475,671.00,77.00,44.60,31.62,20.00,4.00,0.00,29.99,M,10.00,M,CLR,M,M,M,M,M,M,M,M,M,M,M,M,M,M,77.00,KBVU 311235Z AUTO 02004KT 10SM CLR 25/07 A2999 RMK AO2,M
CXP,2024-08-31 12:35,-119.7326,39.1923,1431.00,51.80,33.80,50.08,0.00,0.00,0.00,30.25,M,10.00,M,CLR,M,M,M,M,M,M,M,M,M,M,M,M,M,M,51.80,KCXP 311235Z AUTO 00000KT 10SM CLR 11/01 A3025 RMK AO2,M
RTS,2024-08-31 12:35,-119.8764,39.6682,1539.00,51.80,26.60,37.38,340.00,5.00,0.00,30.26,M,10.00,M,CLR,M,M,M,M,M,M,M,M,M,M,M,M,M,M,51.80,KRTS 311235Z AUTO 34005KT 10SM CLR 11/M03 A3026 RMK AO2,M
MEV,2024-08-31 12:35,-119.7500,38.9963,1441.42,46.40,33.80,61.28,0.00,0.00,0.00,30.23,M,10.00,M,FEW,FEW,M,M,3800.00,4900.00,M,M,M,M,M,M,M,M,M,46.40,KMEV 311235Z AUTO 00000KT 10SM FEW038 FEW049 08/01 A3023 RMK AO2,M
BAM,2024-08-31 12:35,-116.8743,40.5990,1382.36,41.00,17.60,38.45,0.00,0.00,0.00,30.24,M,10.00,M,CLR,M,M,M,M,M,M,M,M,M,M,M,M,M,M,41.00,KBAM 311235Z AUTO 00000KT 10SM CLR 05/M08 A3024 RMK AO1,M
HTH,2024-08-31 12:35,-118.6315,38.5448,1282.89,62.60,24.80,23.50,230.00,5.00,0.00,30.19,M,10.00,M,CLR,M,M,M,M,M,M,M,M,M,M,M,M,M,M,62.60,KHTH 311235Z AUTO 23005KT 10SM CLR 17/M04 A3019 RMK A01,M
TMT,2024-08-31 12:35,-117.1971,39.4643,1749.34,37.00,22.00,54.23,0.00,0.00,0.00,30.31,M,10.00,M,CLR,M,M,M,M,M,M,M,M,M,M,M,M,M,M,37.00,KTMT 311235Z AUTO 00000KT 10SM CLR 03/M06 A3031 RMK AO2 T00271056,M
10U,2024-08-31 12:35,-116.1876,41.9532,1637.00,42.80,19.40,38.75,40.00,4.00,0.00,30.29,M,7.00,M,FEW,M,M,M,300.00,M,M,M,M,M,M,M,M,M,M,40.03,K10U 311235Z AUTO 04004KT 7SM FEW003 06/M07 A3029 RMK AO2,M
05U,2024-08-31 12:50,-116.0051,39.6042,1811.23,46.40,14.00,26.75,0.00,0.00,0.00,30.33,M,10.00,M,CLR,M,M,M,M,M,M,M,M,M,M,M,M,M,M,46.40,K05U 311250Z AUTO 00000KT 10SM CLR 08/M10 A3033 RMK A01,M
P68,2024-08-31 12:53,-116.0056,39.6014,1993.00,47.00,16.00,28.53,190.00,5.00,0.00,30.31,1018.70,M,M,M,M,M,M,M,M,M,M,M,M,M,M,M,M,M,44.21,KP68 311253Z AUTO 19005KT 08/M09 A3031 RMK AO1 SLP187 T00831089,M
DRA,2024-08-31 12:53,-116.0278,36.6206,1009.00,71.00,34.00,25.58,0.00,0.00,0.00,30.08,1013.40,10.00,M,CLR,M,M,M,M,M,M,M,M,M,M,M,M,M,M,71.00,KDRA 311253Z AUTO 00000KT 10SM CLR 22/01 A3008 RMK AO2 SLP134 T02170011,M
ELY,2024-08-31 12:53,-114.8453,39.2950,1909.00,42.00,17.00,36.05,180.00,6.00,0.00,30.36,1019.30,10.00,M,CLR,M,M,M,M,M,M,M,M,M,M,M,M,M,M,37.57,KELY 311253Z AUTO 18006KT 10SM CLR 06/M08 A3036 RMK AO2 SLP193 T00561083,M
VGT,2024-08-31 12:53,-115.1933,36.2111,667.00,85.00,41.00,21.21,310.00,5.00,0.00,30.00,1014.30,10.00,M,CLR,M,M,M,M,M,M,M,M,M,M,M,M,M,M,82.10,KVGT 311253Z AUTO 31005KT 10SM CLR 29/05 A3000 RMK AO2 SLP143 T02940050,M
LOL,2024-08-31 12:53,-118.5701,40.0684,1192.43,43.00,21.00,41.17,M,5.00,0.00,30.17,1018.50,10.00,M,CLR,M,M,M,M,M,M,M,M,M,M,M,M,M,M,39.46,KLOL 311253Z AUTO VRB05KT 10SM CLR 06/M06 A3017 RMK AO2 SLP185 T00611061 $,M
BVU,2024-08-31 12:55,-114.8611,35.9475,671.00,80.60,42.80,26.22,50.00,3.00,0.00,29.99,M,10.00,M,CLR,M,M,M,M,M,M,M,M,M,M,M,M,M,M,79.30,KBVU 311255Z AUTO 05003KT 10SM CLR 27/06 A2999 RMK AO2,M
INS,2024-08-31 12:55,-115.6733,36.5872,955.00,74.00,31.50,20.90,0.00,0.00,0.00,30.08,1013.00,10.00,M,OVC,M,M,M,16000.00,M,M,M,M,M,M,M,M,M,M,74.00,KINS 311255Z AUTO 00000KT 10SM OVC160 23/M00 A3008 RMK AO2 SLP130 T02331003,M
RNO,2024-08-31 12:55,-119.7711,39.4839,1341.00,58.00,41.00,53.05,180.00,3.00,0.00,30.22,1017.90,10.00,M,FEW,M,M,M,20000.00,M,M,M,M,M,M,M,M,M,M,58.00,KRNO 311255Z 18003KT 10SM FEW200 14/05 A3022 RMK AO2 SLP179 T01440050,M
CXP,2024-08-31 12:55,-119.7326,39.1923,1431.00,51.80,33.80,50.08,0.00,0.00,0.00,30.25,M,10.00,M,CLR,M,M,M,M,M,M,M,M,M,M,M,M,M,M,51.80,KCXP 311255Z AUTO 00000KT 10SM CLR 11/01 A3025 RMK AO2,M
RTS,2024-08-31 12:55,-119.8764,39.6682,1539.00,51.80,26.60,37.38,340.00,6.00,0.00,30.26,M,10.00,M,CLR,M,M,M,M,M,M,M,M,M,M,M,M,M,M,51.80,KRTS 311255Z AUTO 34006KT 10SM CLR 11/M03 A3026 RMK AO2,M
MEV,2024-08-31 12:55,-119.7500,38.9963,1441.42,46.40,35.60,65.83,0.00,0.00,0.00,30.24,M,10.00,M,FEW,M,M,M,4700.00,M,M,M,M,M,M,M,M,M,M,46.40,KMEV 311255Z AUTO 00000KT 10SM FEW047 08/02 A3024 RMK AO2,M
BAM,2024-08-31 12:55,-116.8743,40.5990,1382.36,39.20,14.00,35.26,0.00,0.00,0.00,30.24,M,10.00,M,CLR,M,M,M,M,M,M,M,M,M,M,M,M,M,M,39.20,KBAM 311255Z AUTO 00000KT 10SM CLR 04/M10 A3024 RMK AO1,M
HTH,2024-08-31 12:55,-118.6315,38.5448,1282.89,62.60,23.00,21.79,250.00,4.00,0.00,30.20,M,10.00,M,CLR,M,M,M,M,M,M,M,M,M,M,M,M,M,M,62.60,KHTH 311255Z AUTO 25004KT 10SM CLR 17/M05 A3020 RMK A01,M
TMT,2024-08-31 12:55,-117.1971,39.4643,1749.34,36.00,21.70,55.71,200.00,3.00,0.00,30.31,M,10.00,M,CLR,M,M,M,M,M,M,M,M,M,M,M,M,M,M,33.26,KTMT 311255Z AUTO 20003KT 10SM CLR 02/M06 A3031 RMK AO2 T00221057,M
10U,2024-08-31 12:55,-116.1876,41.9532,1637.00,39.20,21.20,48.10,20.00,5.00,0.00,30.29,M,8.00,M,SCT,M,M,M,300.00,M,M,M,M,M,M,M,M,M,M,34.95,K10U 311255Z AUTO 02005KT 8SM SCT003 04/M06 A3029 RMK AO2,M
LSV,2024-08-31 12:55,-115.0343,36.2362,570.00,85.00,39.60,20.09,0.00,0.00,0.00,29.95,1011.00,10.00,M,SCT,M,M,M,16000.00,M,M,M,M,M,M,M,M,M,M,82.04,KLSV 311255Z AUTO 00000KT 10SM SCT160 30/04 A2995 RMK AO2 SLP110 T02950042 $,M
EKO,2024-08-31 12:56,-115.7860,40.8242,1367.00,45.00,21.00,38.14,80.00,4.00,0.00,30.28,1021.00,10.00,M,CLR,M,M,M,M,M,M,M,M,M,M,M,M,M,M,42.60,KEKO 311256Z AUTO 08004KT 10SM CLR 07/M06 A3028 RMK AO2 SLP210 T00721061,M
HND,2024-08-31 12:56,-115.1344,35.9729,742.79,78.00,40.00,25.62,190.00,6.00,0.00,30.04,1015.80,10.00,M,CLR,M,M,M,M,M,M,M,M,M,M,M,M,M,M,78.00,KHND 311256Z AUTO 19006KT 10SM CLR 26/04 A3004 RMK AO2 SLP158 T02560044,M
TPH,2024-08-31 12:56,-117.0904,38.0505,1654.00,62.00,23.00,22.26,360.00,11.00,0.00,30.26,1016.60,10.00,M,CLR,M,M,M,M,M,M,M,M,M,M,M,M,M,M,62.00,KTPH 311256Z AUTO 36011KT 10SM CLR 17/M05 A3026 RMK AO2 SLP166 T01671050,M
LAS,2024-08-31 12:56,-115.1634,36.0719,663.00,79.00,36.00,21.19,240.00,4.00,0.00,30.01,1013.40,10.00,M,SCT,M,M,M,15000.00,M,M,M,M,M,M,M,M,M,M,79.00,KLAS 311256Z 24004KT 10SM SCT150 26/02 A3001 RMK AO2 SLP134 T02610022 $,M
NFL,2024-08-31 12:57,-118.7010,39.4166,1199.00,58.00,21.00,23.59,210.00,5.00,0.00,30.16,1017.80,10.00,M,CLR,M,M,M,M,M,M,M,M,M,M,M,M,M,M,58.00,KNFL 311257Z AUTO 21005KT 10SM CLR 14/M06 A3016 RMK AO2 SLP178 T01441061,M
05U,2024-08-31 13:10,-116.0051,39.6042,1811.23,46.40,15.80,28.93,0.00,0.00,0.00,30.34,M,10.00,M,CLR,M,M,M,M,M,M,M,M,M,M,M,M,M,M,46.40,K05U 311310Z AUTO 00000KT 10SM CLR 08/M09 A3034 RMK A01,M
BVU,2024-08-31 13:15,-114.8611,35.9475,671.00,77.00,46.40,33.85,60.00,4.00,0.00,30.00,M,10.00,M,CLR,M,M,M,M,M,M,M,M,M,M,M,M,M,M,77.00,KBVU 311315Z AUTO 06004KT 10SM CLR 25/08 A3000 RMK AO2,M
CXP,2024-08-31 13:15,-119.7326,39.1923,1431.00,51.80,35.60,53.81,0.00,0.00,0.00,30.25,M,10.00,M,CLR,M,M,M,M,M,M,M,M,M,M,M,M,M,M,51.80,KCXP 311315Z AUTO 00000KT 10SM CLR 11/02 A3025 RMK AO2,M
RTS,2024-08-31 13:15,-119.8764,39.6682,1539.00,51.80,26.60,37.38,330.00,3.00,0.00,30.26,M,10.00,M,CLR,M,M,M,M,M,M,M,M,M,M,M,M,M,M,51.80,KRTS 311315Z AUTO 33003KT 10SM CLR 11/M03 A3026 RMK AO2,M
MEV,2024-08-31 13:15,-119.7500,38.9963,1441.42,44.60,32.00,61.03,0.00,0.00,0.00,30.24,M,10.00,M,CLR,M,M,M,M,M,M,M,M,M,M,M,M,M,M,44.60,KMEV 311315Z AUTO 00000KT 10SM CLR 07/00 A3024 RMK AO2,M
BAM,2024-08-31 13:15,-116.8743,40.5990,1382.36,41.00,14.00,32.88,150.00,3.00,0.00,30.25,M,10.00,M,CLR,M,M,M,M,M,M,M,M,M,M,M,M,M,M,38.98,KBAM 311315Z AUTO 15003KT 10SM CLR 05/M10 A3025 RMK AO1,M
HTH,2024-08-31 13:15,-118.6315,38.5448,1282.89,62.60,23.00,21.79,260.00,3.00,0.00,30.20,M,10.00,M,CLR,M,M,M,M,M,M,M,M,M,M,M,M,M,M,62.60,KHTH 311315Z AUTO 26003KT 10SM CLR 17/M05 A3020 RMK A01,M
TMT,2024-08-31 13:15,-117.1971,39.4643,1749.34,34.30,22.60,61.91,0.00,0.00,0.00,30.32,M,10.00,M,CLR,M,M,M,M,M,M,M,M,M,M,M,M,M,M,34.30,KTMT 311315Z AUTO 00000KT 10SM CLR 01/M05 A3032 RMK AO2 T00131052,M
10U,2024-08-31 13:15,-116.1876,41.9532,1637.00,35.60,19.40,51.33,0.00,0.00,0.00,30.30,M,6.00,M,FEW,M,M,M,300.00,M,M,M,HZ,M,M,M,M,M,M,35.60,K10U 311315Z AUTO 00000KT 6SM HZ FEW003 02/M07 A3030 RMK AO2,M
05U,2024-08-31 13:30,-116.0051,39.6042,1811.23,48.20,14.00,24.99,0.00,0.00,0.00,30.35,M,10.00,M,CLR,M,M,M,M,M,M,M,M,M,M,M,M,M,M,48.20,K05U 311330Z AUTO 00000KT 10SM CLR 09/M10 A3035 RMK A01,M
BVU,2024-08-31 13:35,-114.8611,35.9475,671.00,78.80,44.60,29.79,10.00,4.00,0.00,30.00,M,10.00,M,CLR,M,M,M,M,M,M,M,M,M,M,M,M,M,M,78.80,KBVU 311335Z AUTO 01004KT 10SM CLR 26/07 A3000 RMK AO2,M
CXP,2024-08-31 13:35,-119.7326,39.1923,1431.00,51.80,37.40,57.77,0.00,0.00,0.00,30.26,M,10.00,M,CLR,M,M,M,M,M,M,M,M,M,M,M,M,M,M,51.80,KCXP 311335Z AUTO 00000KT 10SM CLR 11/03 A3026 RMK AO2,M
RTS,2024-08-31 13:35,-119.8764,39.6682,1539.00,50.00,28.40,43.03,360.00,4.00,0.00,30.26,M,10.00,M,CLR,M,M,M,M,M,M,M,M,M,M,M,M,M,M,50.00,KRTS 311335Z AUTO 36004KT 10SM CLR 10/M02 A3026 RMK AO2,M
MEV,2024-08-31 13:35,-119.7500,38.9963,1441.42,46.40,33.80,61.28,110.00,4.00,0.00,30.25,M,10.00,M,CLR,M,M,M,M,M,M,M,M,M,M,M,M,M,M,44.24,KMEV 311335Z AUTO 11004KT 10SM CLR 08/01 A3025 RMK AO2,M
BAM,2024-08-31 13:35,-116.8743,40.5990,1382.36,41.00,17.60,38.45,0.00,0.00,0.00,30.26,M,10.00,M,CLR,M,M,M,M,M,M,M,M,M,M,M,M,M,M,41.00,KBAM 311335Z AUTO 00000KT 10SM CLR 05/M08 A3026 RMK AO1,M
HTH,2024-08-31 13:35,-118.6315,38.5448,1282.89,60.80,23.00,23.23,0.00,0.00,0.00,30.21,M,10.00,M,CLR,M,M,M,M,M,M,M,M,M,M,M,M,M,M,60.80,KHTH 311335Z AUTO 00000KT 10SM CLR 16/M05 A3021 RMK A01,M
TMT,2024-08-31 13:35,-117.1971,39.4643,1749.34,38.30,25.30,59.17,260.00,3.00,0.00,30.33,M,10.00,M,CLR,M,M,M,M,M,M,M,M,M,M,M,M,M,M,35.89,KTMT 311335Z AUTO 26003KT 10SM CLR 04/M04 A3033 RMK AO2 T00351037,M
10U,2024-08-31 13:35,-116.1876,41.9532,1637.00,37.40,21.20,51.61,0.00,0.00,0.00,30.30,M,6.00,M,CLR,M,M,M,M,M,M,M,HZ,M,M,M,M,M,M,37.40,K10U 311335Z AUTO 00000KT 6SM HZ CLR 03/M06 A3030 RMK AO2,M
05U,2024-08-31 13:50,-116.0051,39.6042,1811.23,50.00,12.20,21.59,0.00,0.00,0.00,30.35,M,10.00,M,CLR,M,M,M,M,M,M,M,M,M,M,M,M,M,M,50.00,K05U 311350Z AUTO 00000KT 10SM CLR 10/M11 A3035 RMK A01,M
P68,2024-08-31 13:53,-116.0056,39.6014,1993.00,49.00,14.00,24.26,190.00,5.00,0.00,30.33,1020.00,M,M,M,M,M,M,M,M,M,M,M,M,M,M,M,M,M,46.58,KP68 311353Z AUTO 19005KT 09/M10 A3033 RMK AO1 SLP200 T00941100,M
DRA,2024-08-31 13:53,-116.0278,36.6206,1009.00,72.00,34.00,24.72,90.00,5.00,0.00,30.10,1014.00,10.00,M,CLR,M,M,M,M,M,M,M,M,M,M,M,M,M,M,72.00,KDRA 311353Z AUTO 09005KT 10SM CLR 22/01 A3010 RMK AO2 SLP140 T02220011,M
ELY,2024-08-31 13:53,-114.8453,39.2950,1909.00,44.00,18.00,34.86,180.00,10.00,0.00,30.37,1020.00,10.00,M,CLR,M,M,M,M,M,M,M,M,M,M,M,M,M,M,38.02,KELY 311353Z AUTO 18010KT 10SM CLR 07/M08 A3037 RMK AO2 SLP200 T00671078,M
VGT,2024-08-31 13:53,-115.1933,36.2111,667.00,85.00,42.00,22.05,320.00,6.00,0.00,30.02,1015.00,10.00,M,CLR,M,M,M,M,M,M,M,M,M,M,M,M,M,M,82.15,KVGT 311353Z 32006KT 10SM CLR 29/06 A3002 RMK AO2 SLP150 T02940056,M
LOL,2024-08-31 13:53,-118.5701,40.0684,1192.43,45.00,28.00,51.08,110.00,7.00,0.00,30.19,1019.20,10.00,M,CLR,M,M,M,M,M,M,M,M,M,M,M,M,M,M,40.63,KLOL 311353Z AUTO 11007KT 10SM CLR 07/M02 A3019 RMK AO2 SLP192 T00721022 $,M
BVU,2024-08-31 13:55,-114.8611,35.9475,671.00,80.60,42.80,26.22,10.00,4.00,0.00,30.01,M,10.00,M,CLR,M,M,M,M,M,M,M,M,M,M,M,M,M,M,79.30,KBVU 311355Z AUTO 01004KT 10SM CLR 27/06 A3001 RMK AO2,M
RNO,2024-08-31 13:55,-119.7711,39.4839,1341.00,60.00,38.00,43.94,0.00,0.00,0.00,30.23,1018.40,10.00,M,FEW,M,M,M,14000.00,M,M,M,M,M,M,M,M,M,M,60.00,KRNO 311355Z 00000KT 10SM FEW140 16/03 A3023 RMK AO2 SLP184 T01560033,M
LSV,2024-08-31 13:55,-115.0343,36.2362,570.00,82.40,38.50,20.93,0.00,0.00,0.00,29.98,1012.20,10.00,M,CLR,M,M,M,M,M,M,M,M,M,M,M,M,M,M,80.18,KLSV 311355Z AUTO 00000KT 10SM CLR 28/04 A2998 RMK AO2 SLP122 T02800036 $,M
CXP,2024-08-31 13:55,-119.7326,39.1923,1431.00,53.60,33.80,46.88,0.00,0.00,0.00,30.27,M,10.00,M,CLR,M,M,M,M,M,M,M,M,M,M,M,M,M,M,53.60,KCXP 311355Z AUTO 00000KT 10SM CLR 12/01 A3027 RMK AO2,M
RTS,2024-08-31 13:55,-119.8764,39.6682,1539.00,50.00,26.60,39.95,340.00,5.00,0.00,30.27,M,10.00,M,CLR,M,M,M,M,M,M,M,M,M,M,M,M,M,M,50.00,KRTS 311355Z AUTO 34005KT 10SM CLR 10/M03 A3027 RMK AO2,M
MEV,2024-08-31 13:55,-119.7500,38.9963,1441.42,46.40,35.60,65.83,110.00,3.00,0.00,30.26,M,10.00,M,CLR,M,M,M,M,M,M,M,M,M,M,M,M,M,M,45.15,KMEV 311355Z AUTO 11003KT 10SM CLR 08/02 A3026 RMK AO2,M
BAM,2024-08-31 13:55,-116.8743,40.5990,1382.36,41.00,17.60,38.45,0.00,0.00,0.00,30.26,M,10.00,M,CLR,M,M,M,M,M,M,M,M,M,M,M,M,M,M,41.00,KBAM 311355Z AUTO 00000KT 10SM CLR 05/M08 A3026 RMK AO1,M
HTH,2024-08-31 13:55,-118.6315,38.5448,1282.89,62.60,26.60,25.32,0.00,0.00,0.00,30.21,M,10.00,M,CLR,M,M,M,M,M,M,M,M,M,M,M,M,M,M,62.60,KHTH 311355Z AUTO 00000KT 10SM CLR 17/M03 A3021 RMK A01,M
TMT,2024-08-31 13:55,-117.1971,39.4643,1749.34,40.50,24.30,52.09,300.00,4.00,0.00,30.33,M,10.00,M,CLR,M,M,M,M,M,M,M,M,M,M,M,M,M,M,37.35,KTMT 311355Z AUTO 30004KT 10SM CLR 05/M04 A3033 RMK AO2 T00471043,M
10U,2024-08-31 13:55,-116.1876,41.9532,1637.00,41.00,21.20,44.85,0.00,0.00,0.00,30.31,M,5.00,M,CLR,M,M,M,M,M,M,M,HZ,M,M,M,M,M,M,41.00,K10U 311355Z AUTO 00000KT 5SM HZ CLR 05/M06 A3031 RMK AO2,M
INS,2024-08-31 13:55,-115.6733,36.5872,955.00,75.60,31.60,19.89,0.00,0.00,0.00,30.10,1013.40,10.00,M,OVC,M,M,M,15000.00,M,M,M,M,M,M,M,M,M,M,75.60,KINS 311355Z AUTO 00000KT 10SM OVC150 24/M00 A3010 RMK AO2 SLP134 T02421002,M
EKO,2024-08-31 13:56,-115.7860,40.8242,1367.00,44.00,20.00,37.97,140.00,3.00,0.00,30.30,1022.20,10.00,M,CLR,M,M,M,M,M,M,M,M,M,M,M,M,M,M,42.41,KEKO 311356Z AUTO 14003KT 10SM CLR 07/M07 A3030 RMK AO2 SLP222 T00671067,M
HND,2024-08-31 13:56,-115.1344,35.9729,742.79,81.00,41.00,24.14,200.00,6.00,0.00,30.06,1016.40,10.00,M,CLR,M,M,M,M,M,M,M,M,M,M,M,M,M,M,79.43,KHND 311356Z 20006KT 10SM CLR 27/05 A3006 RMK AO2 SLP164 T02720050,M
TPH,2024-08-31 13:56,-117.0904,38.0505,1654.00,63.00,23.00,21.49,10.00,8.00,0.00,30.28,1017.30,10.00,M,CLR,M,M,M,M,M,M,M,M,M,M,M,M,M,M,63.00,KTPH 311356Z AUTO 01008KT 10SM CLR 17/M05 A3028 RMK AO2 SLP173 T01721050,M
LAS,2024-08-31 13:56,-115.1634,36.0719,663.00,83.00,41.00,22.62,280.00,4.00,0.00,30.03,1014.00,10.00,M,SCT,BKN,M,M,15000.00,25000.00,M,M,M,M,M,M,M,M,M,80.69,KLAS 311356Z 28004KT 10SM SCT150 BKN250 29/05 A3003 RMK AO2 SLP140 T02830050 $,M
NFL,2024-08-31 13:57,-118.7010,39.4166,1199.00,58.00,25.00,27.91,0.00,0.00,0.00,30.18,1018.30,10.00,M,CLR,M,M,M,M,M,M,M,M,M,M,M,M,M,M,58.00,KNFL 311357Z AUTO 00000KT 10SM CLR 14/M04 A3018 RMK AO2 SLP183 T01441039,M
05U,2024-08-31 14:10,-116.0051,39.6042,1811.23,51.80,12.20,20.20,0.00,0.00,0.00,30.35,M,10.00,M,CLR,M,M,M,M,M,M,M,M,M,M,M,M,M,M,51.80,K05U 311410Z AUTO 00000KT 10SM CLR 11/M11 A3035 RMK A01,M
BVU,2024-08-31 14:15,-114.8611,35.9475,671.00,80.60,46.40,30.07,30.00,4.00,0.00,30.02,M,10.00,M,CLR,M,M,M,M,M,M,M,M,M,M,M,M,M,M,79.56,KBVU 311415Z AUTO 03004KT 10SM CLR 27/08 A3002 RMK AO2,M
CXP,2024-08-31 14:15,-119.7326,39.1923,1431.00,53.60,35.60,50.36,0.00,0.00,0.00,30.27,M,10.00,M,CLR,M,M,M,M,M,M,M,M,M,M,M,M,M,M,53.60,KCXP 311415Z AUTO 00000KT 10SM CLR 12/02 A3027 RMK AO2,M
RTS,2024-08-31 14:15,-119.8764,39.6682,1539.00,50.00,28.40,43.03,0.00,0.00,0.00,30.27,M,10.00,M,CLR,M,M,M,M,M,M,M,M,M,M,M,M,M,M,50.00,KRTS 311415Z AUTO 00000KT 10SM CLR 10/M02 A3027 RMK AO2,M
MEV,2024-08-31 14:15,-119.7500,38.9963,1441.42,48.20,35.60,61.52,0.00,0.00,0.00,30.26,M,10.00,M,CLR,M,M,M,M,M,M,M,M,M,M,M,M,M,M,48.20,KMEV 311415Z AUTO 00000KT 10SM CLR 09/02 A3026 RMK AO2,M
BAM,2024-08-31 14:15,-116.8743,40.5990,1382.36,44.60,17.60,33.49,0.00,0.00,0.00,30.27,M,10.00,M,CLR,M,M,M,M,M,M,M,M,M,M,M,M,M,M,44.60,KBAM 311415Z AUTO 00000KT 10SM CLR 07/M08 A3027 RMK AO1,M
HTH,2024-08-31 14:15,-118.6315,38.5448,1282.89,64.40,24.80,22.06,210.00,3.00,0.00,30.22,M,10.00,M,CLR,M,M,M,M,M,M,M,M,M,M,M,M,M,M,64.40,KHTH 311415Z AUTO 21003KT 10SM CLR 18/M04 A3022 RMK A01,M
TMT,2024-08-31 14:15,-117.1971,39.4643,1749.34,42.00,25.00,50.61,0.00,0.00,0.00,30.34,M,10.00,M,CLR,M,M,M,M,M,M,M,M,M,M,M,M,M,M,42.00,KTMT 311415Z AUTO 00000KT 10SM CLR 06/M04 A3034 RMK AO2 T00561039,M
10U,2024-08-31 14:15,-116.1876,41.9532,1637.00,44.60,21.20,39.06,0.00,0.00,0.00,30.31,M,6.00,M,CLR,M,M,M,M,M,M,M,HZ,M,M,M,M,M,M,44.60,K10U 311415Z AUTO 00000KT 6SM HZ CLR 07/M06 A3031 RMK AO2,M
05U,2024-08-31 14:30,-116.0051,39.6042,1811.23,53.60,14.00,20.46,0.00,0.00,0.00,30.36,M,10.00,M,CLR,M,M,M,M,M,M,M,M,M,M,M,M,M,M,53.60,K05U 311430Z AUTO 00000KT 10SM CLR 12/M10 A3036 RMK A01,M
BVU,2024-08-31 14:35,-114.8611,35.9475,671.00,86.00,46.40,25.26,0.00,0.00,0.00,30.02,M,10.00,M,CLR,M,M,M,M,M,M,M,M,M,M,M,M,M,M,83.22,KBVU 311435Z AUTO 00000KT 10SM CLR 30/08 A3002 RMK AO2,M
CXP,2024-08-31 14:35,-119.7326,39.1923,1431.00,57.20,35.60,44.19,0.00,0.00,0.00,30.27,M,10.00,M,CLR,M,M,M,M,M,M,M,M,M,M,M,M,M,M,57.20,KCXP 311435Z AUTO 00000KT 10SM CLR 14/02 A3027 RMK AO2,M
RTS,2024-08-31 14:35,-119.8764,39.6682,1539.00,55.40,35.60,47.16,0.00,0.00,0.00,30.27,M,10.00,M,CLR,M,M,M,M,M,M,M,M,M,M,M,M,M,M,55.40,KRTS 311435Z AUTO 00000KT 10SM CLR 13/02 A3027 RMK AO2,M
MEV,2024-08-31 14:35,-119.7500,38.9963,1441.42,50.00,33.80,53.54,0.00,0.00,0.00,30.26,M,10.00,M,CLR,M,M,M,M,M,M,M,M,M,M,M,M,M,M,50.00,KMEV 311435Z AUTO 00000KT 10SM CLR 10/01 A3026 RMK AO2,M
BAM,2024-08-31 14:35,-116.8743,40.5990,1382.36,46.40,17.60,31.28,0.00,0.00,0.00,30.27,M,10.00,M,CLR,M,M,M,M,M,M,M,M,M,M,M,M,M,M,46.40,KBAM 311435Z AUTO 00000KT 10SM CLR 08/M08 A3027 RMK AO1,M
HTH,2024-08-31 14:35,-118.6315,38.5448,1282.89,69.80,24.80,18.30,0.00,0.00,0.00,30.22,M,10.00,M,CLR,M,M,M,M,M,M,M,M,M,M,M,M,M,M,69.80,KHTH 311435Z AUTO 00000KT 10SM CLR 21/M04 A3022 RMK A01,M
10U,2024-08-31 14:35,-116.1876,41.9532,1637.00,50.00,23.00,34.39,0.00,0.00,0.00,30.32,M,6.00,M,CLR,M,M,M,M,M,M,M,HZ,M,M,M,M,M,M,50.00,K10U 311435Z AUTO 00000KT 6SM HZ CLR 10/M05 A3032 RMK AO2,M
RTS,2024-08-31 14:45,-119.8764,39.6682,1539.00,57.20,35.60,44.19,0.00,0.00,0.00,30.28,M,10.00,M,CLR,M,M,M,M,M,M,M,M,M,M,M,M,M,M,57.20,KRTS 311445Z AUTO 00000KT 10SM CLR 14/02 A3028 RMK AO2,M
05U,2024-08-31 14:50,-116.0051,39.6042,1811.23,60.80,14.00,15.78,0.00,0.00,0.00,30.36,M,10.00,M,CLR,M,M,M,M,M,M,M,M,M,M,M,M,M,M,60.80,K05U 311450Z AUTO 00000KT 10SM CLR 16/M10 A3036 RMK A01,M
P68,2024-08-31 14:53,-116.0056,39.6014,1993.00,61.00,15.00,16.37,0.00,0.00,0.00,30.33,1020.00,M,M,M,M,M,M,M,M,M,M,M,M,M,M,M,M,M,61.00,KP68 311453Z AUTO 00000KT 16/M09 A3033 RMK AO1 SLP200 T01611094 51009,M
DRA,2024-08-31 14:53,-116.0278,36.6206,1009.00,78.00,35.00,21.05,310.00,4.00,0.00,30.11,1014.60,10.00,M,CLR,M,M,M,M,M,M,M,M,M,M,M,M,M,M,78.00,KDRA 311453Z AUTO 31004KT 10SM CLR 26/02 A3011 RMK AO2 SLP146 T02560017 53010,M
ELY,2024-08-31 14:53,-114.8453,39.2950,1909.00,54.00,20.00,26.13,180.00,11.00,0.00,30.38,1020.30,10.00,M,CLR,M,M,M,M,M,M,M,M,M,M,M,M,M,M,54.00,KELY 311453Z AUTO 18011KT 10SM CLR 12/M07 A3038 RMK AO2 SLP203 T01221067 51006,M
VGT,2024-08-31 14:53,-115.1933,36.2111,667.00,87.00,42.00,20.68,360.00,4.00,0.00,30.03,1015.50,10.00,M,CLR,M,M,M,M,M,M,M,M,M,M,M,M,M,M,83.70,KVGT 311453Z 36004KT 10SM CLR 31/06 A3003 RMK AO2 SLP155 T03060056 53015,M
LOL,2024-08-31 14:53,-118.5701,40.0684,1192.43,54.00,27.00,35.05,0.00,0.00,0.00,30.20,1019.60,10.00,M,CLR,M,M,M,M,M,M,M,M,M,M,M,M,M,M,54.00,KLOL 311453Z AUTO 00000KT 10SM CLR 12/M03 A3020 RMK AO2 SLP196 T01221028 53012,M
BVU,2024-08-31 14:55,-114.8611,35.9475,671.00,87.80,42.80,20.79,0.00,0.00,0.00,30.03,M,10.00,M,CLR,M,M,M,M,M,M,M,M,M,M,M,M,M,M,84.40,KBVU 311455Z AUTO 00000KT 10SM CLR 31/06 A3003 RMK AO2,M
RNO,2024-08-31 14:55,-119.7711,39.4839,1341.00,61.00,40.00,45.85,0.00,0.00,0.00,30.24,1019.00,10.00,M,FEW,M,M,M,14000.00,M,M,M,M,M,M,M,M,M,M,61.00,KRNO 311455Z 00000KT 10SM FEW140 16/04 A3024 RMK AO2 SLP190 T01610044 53008,M
CXP,2024-08-31 14:55,-119.7326,39.1923,1431.00,59.00,35.60,41.42,0.00,0.00,0.00,30.28,M,10.00,M,CLR,M,M,M,M,M,M,M,M,M,M,M,M,M,M,59.00,KCXP 311455Z AUTO 00000KT 10SM CLR 15/02 A3028 RMK AO2,M
MEV,2024-08-31 14:55,-119.7500,38.9963,1441.42,55.40,35.60,47.16,0.00,0.00,0.00,30.26,M,10.00,M,CLR,M,M,M,M,M,M,M,M,M,M,M,M,M,M,55.40,KMEV 311455Z AUTO 00000KT 10SM CLR 13/02 A3026 RMK AO2,M
BAM,2024-08-31 14:55,-116.8743,40.5990,1382.36,51.80,19.40,27.62,0.00,0.00,0.00,30.27,M,10.00,M,CLR,M,M,M,M,M,M,M,M,M,M,M,M,M,M,51.80,KBAM 311455Z AUTO 00000KT 10SM CLR 11/M07 A3027 RMK AO1,M
HTH,2024-08-31 14:55,-118.6315,38.5448,1282.89,71.60,26.60,18.55,0.00,0.00,0.00,30.22,M,10.00,M,CLR,M,M,M,M,M,M,M,M,M,M,M,M,M,M,71.60,KHTH 311455Z AUTO 00000KT 10SM CLR 22/M03 A3022 RMK A01,M
TMT,2024-08-31 14:55,-117.1971,39.4643,1749.34,47.70,26.00,42.47,0.00,0.00,0.00,30.34,M,10.00,M,CLR,M,M,M,M,M,M,M,M,M,M,M,M,M,M,47.70,KTMT 311455Z AUTO 00000KT 10SM CLR 09/M03 A3034 RMK AO2 T00871034,M
10U,2024-08-31 14:55,-116.1876,41.9532,1637.00,53.60,23.00,30.11,0.00,0.00,0.00,30.32,M,7.00,M,CLR,M,M,M,M,M,M,M,M,M,M,M,M,M,M,53.60,K10U 311455Z AUTO 00000KT 7SM CLR 12/M05 A3032 RMK AO2,M
INS,2024-08-31 14:55,-115.6733,36.5872,955.00,78.00,32.40,18.97,0.00,0.00,0.00,30.11,1013.80,10.00,M,BKN,BKN,M,M,15000.00,17000.00,M,M,M,M,M,M,M,M,M,78.00,KINS 311455Z AUTO 00000KT 10SM BKN150 BKN170 26/00 A3011 RMK AO2 SLP138 T02560002 52015,M
LSV,2024-08-31 14:55,-115.0343,36.2362,570.00,87.40,38.70,17.96,80.00,4.00,0.00,29.99,1012.40,10.00,M,FEW,BKN,M,M,11000.00,15000.00,M,M,M,M,M,M,M,M,M,83.88,KLSV 311455Z AUTO 08004KT 10SM FEW110 BKN150 31/04 A2999 RMK AO2 SLP124 T03080037 52017 $,M
EKO,2024-08-31 14:56,-115.7860,40.8242,1367.00,53.00,21.00,28.29,0.00,0.00,0.00,30.31,1022.70,10.00,M,CLR,M,M,M,M,M,M,M,M,M,M,M,M,M,M,53.00,KEKO 311456Z AUTO 00000KT 10SM CLR 12/M06 A3031 RMK AO2 SLP227 T01171061 52012,M
HND,2024-08-31 14:56,-115.1344,35.9729,742.79,84.00,42.00,22.77,190.00,4.00,0.00,30.08,1016.90,10.00,M,CLR,M,M,M,M,M,M,M,M,M,M,M,M,M,M,81.42,KHND 311456Z 19004KT 10SM CLR 29/06 A3008 RMK AO2 SLP169 T02890056 53014,M
TPH,2024-08-31 14:56,-117.0904,38.0505,1654.00,63.00,29.00,27.56,320.00,3.00,T,30.29,1018.60,10.00,M,BKN,M,M,M,12000.00,M,M,M,M,M,M,M,M,M,M,63.00,KTPH 311456Z AUTO 32003KT 10SM BKN120 17/M02 A3029 RMK AO2 RAB22E38 SLP186 P0000 60000 T01721017 53010,M
LAS,2024-08-31 14:56,-115.1634,36.0719,663.00,86.00,50.00,28.90,300.00,3.00,0.00,30.05,1014.50,10.00,M,FEW,SCT,BKN,M,14000.00,18000.00,25000.00,M,M,M,M,M,M,M,M,83.62,KLAS 311456Z 30003KT 10SM FEW140 SCT180 BKN250 30/10 A3005 RMK AO2 SLP145 T03000100 53014 $,M
NFL,2024-08-31 14:57,-118.7010,39.4166,1199.00,65.00,31.00,27.87,0.00,0.00,0.00,30.19,1018.70,10.00,M,CLR,M,M,M,M,M,M,M,M,M,M,M,M,M,M,65.00,KNFL 311457Z AUTO 00000KT 10SM CLR 18/M01 A3019 RMK AO2 SLP187 T01831006 53012,M
LAS,2024-08-31 15:10,-115.1634,36.0719,663.00,87.00,50.00,28.00,0.00,0.00,T,30.05,M,10.00,M,FEW,FEW,SCT,BKN,4000.00,11000.00,18000.00,25000.00,-RA,M,M,M,M,M,M,84.43,KLAS 311510Z 00000KT 10SM -RA FEW040 FEW110 SCT180 BKN250 30/10 A3005 RMK AO2 RAB06 P0000 T03060100 $,M
05U,2024-08-31 15:10,-116.0051,39.6042,1811.23,62.60,12.20,13.68,0.00,0.00,0.00,30.36,M,10.00,M,CLR,M,M,M,M,M,M,M,M,M,M,M,M,M,M,62.60,K05U 311510Z AUTO 00000KT 10SM CLR 17/M11 A3036 RMK A01,M
BVU,2024-08-31 15:15,-114.8611,35.9475,671.00,89.60,42.80,19.64,0.00,0.00,0.00,30.03,M,10.00,M,CLR,M,M,M,M,M,M,M,M,M,M,M,M,M,M,85.93,KBVU 311515Z AUTO 00000KT 10SM CLR 32/06 A3003 RMK AO2,M
CXP,2024-08-31 15:15,-119.7326,39.1923,1431.00,60.80,33.80,36.16,0.00,0.00,0.00,30.28,M,10.00,M,CLR,M,M,M,M,M,M,M,M,M,M,M,M,M,M,60.80,KCXP 311515Z AUTO 00000KT 10SM CLR 16/01 A3028 RMK AO2,M
MEV,2024-08-31 15:15,-119.7500,38.9963,1441.42,59.00,35.60,41.42,0.00,0.00,0.00,30.26,M,10.00,M,CLR,M,M,M,M,M,M,M,M,M,M,M,M,M,M,59.00,KMEV 311515Z AUTO 00000KT 10SM CLR 15/02 A3026 RMK AO2,M
BAM,2024-08-31 15:15,-116.8743,40.5990,1382.36,55.40,19.40,24.21,0.00,0.00,0.00,30.27,M,10.00,M,CLR,M,M,M,M,M,M,M,M,M,M,M,M,M,M,55.40,KBAM 311515Z AUTO 00000KT 10SM CLR 13/M07 A3027 RMK AO1,M
HTH,2024-08-31 15:15,-118.6315,38.5448,1282.89,69.80,24.80,18.30,0.00,0.00,0.00,30.23,M,10.00,M,CLR,M,M,M,M,M,M,M,M,M,M,M,M,M,M,69.80,KHTH 311515Z AUTO 00000KT 10SM CLR 21/M04 A3023 RMK A01,M
TMT,2024-08-31 15:15,-117.1971,39.4643,1749.34,50.50,25.70,37.78,0.00,0.00,0.00,30.34,M,10.00,M,CLR,M,M,M,M,M,M,M,M,M,M,M,M,M,M,50.50,KTMT 311515Z AUTO 00000KT 10SM CLR 10/M03 A3034 RMK AO2 T01031035,M
10U,2024-08-31 15:15,-116.1876,41.9532,1637.00,55.40,23.00,28.20,0.00,0.00,0.00,30.32,M,7.00,M,CLR,M,M,M,M,M,M,M,M,M,M,M,M,M,M,55.40,K10U 311515Z AUTO 00000KT 7SM CLR 13/M05 A3032 RMK AO2,M
05U,2024-08-31 15:30,-116.0051,39.6042,1811.23,66.20,10.40,11.14,0.00,0.00,0.00,30.36,M,10.00,M,CLR,M,M,M,M,M,M,M,M,M,M,M,M,M,M,66.20,K05U 311530Z AUTO 00000KT 10SM CLR 19/M12 A3036 RMK A01,M
MEV,2024-08-31 15:30,-119.7500,38.9963,1441.42,62.60,37.40,39.14,0.00,0.00,0.00,30.26,M,10.00,M,CLR,M,M,M,M,M,M,M,M,M,M,M,M,M,M,62.60,KMEV 311530Z AUTO 00000KT 10SM CLR 17/03 A3026 RMK AO2,M
10U,2024-08-31 15:30,-116.1876,41.9532,1637.00,59.00,24.80,26.70,0.00,0.00,0.00,30.32,M,7.00,M,CLR,M,M,M,M,M,M,M,M,M,M,M,M,M,M,59.00,K10U 311530Z AUTO 00000KT 7SM CLR 15/M04 A3032 RMK AO2,M
BVU,2024-08-31 15:35,-114.8611,35.9475,671.00,91.40,42.80,18.56,0.00,0.00,0.00,30.03,M,10.00,M,CLR,M,M,M,M,M,M,M,M,M,M,M,M,M,M,87.52,KBVU 311535Z AUTO 00000KT 10SM CLR 33/06 A3003 RMK AO2,M
BAM,2024-08-31 15:35,-116.8743,40.5990,1382.36,60.80,21.20,21.53,0.00,0.00,0.00,30.27,M,10.00,M,CLR,M,M,M,M,M,M,M,M,M,M,M,M,M,M,60.80,KBAM 311535Z AUTO 00000KT 10SM CLR 16/M06 A3027 RMK AO1,M
TMT,2024-08-31 15:35,-117.1971,39.4643,1749.34,54.70,26.20,33.05,0.00,0.00,0.00,30.34,M,10.00,M,CLR,M,M,M,M,M,M,M,M,M,M,M,M,M,M,54.70,KTMT 311535Z AUTO 00000KT 10SM CLR 13/M03 A3034 RMK AO2 T01261032,M
CXP,2024-08-31 15:35,-119.7326,39.1923,1431.00,66.20,32.00,27.83,0.00,0.00,0.00,30.27,M,10.00,M,CLR,M,M,M,M,M,M,M,M,M,M,M,M,M,M,66.20,KCXP 311535Z AUTO 00000KT 10SM CLR 19/M00 A3027 RMK AO2,M
HTH,2024-08-31 15:35,-118.6315,38.5448,1282.89,71.60,24.80,17.22,0.00,0.00,0.00,30.23,M,10.00,M,M,M,M,M,M,M,M,M,M,M,M,M,M,M,M,71.60,KHTH 311535Z AUTO 00000KT 10SM 22/M04 A3023 RMK A01,M
05U,2024-08-31 15:50,-116.0051,39.6042,1811.23,66.20,12.20,12.06,0.00,0.00,0.00,30.36,M,10.00,M,CLR,M,M,M,M,M,M,M,M,M,M,M,M,M,M,66.20,K05U 311550Z AUTO 00000KT 10SM CLR 19/M11 A3036 RMK A01,M
P68,2024-08-31 15:53,-116.0056,39.6014,1993.00,69.00,13.00,11.35,40.00,4.00,0.00,30.33,1019.60,M,M,M,M,M,M,M,M,M,M,M,M,M,M,M,M,M,69.00,KP68 311553Z AUTO 04004KT 21/M11 A3033 RMK AO1 SLP196 T02061106,M
DRA,2024-08-31 15:53,-116.0278,36.6206,1009.00,83.00,36.00,18.60,0.00,0.00,0.00,30.13,1015.10,10.00,M,FEW,M,M,M,11000.00,M,M,M,M,M,M,M,M,M,M,80.50,KDRA 311553Z AUTO 00000KT 10SM FEW110 28/02 A3013 RMK AO2 SLP151 T02830022,M
ELY,2024-08-31 15:53,-114.8453,39.2950,1909.00,66.00,24.00,20.18,160.00,4.00,0.00,30.37,1018.40,10.00,M,CLR,M,M,M,M,M,M,M,M,M,M,M,M,M,M,66.00,KELY 311553Z AUTO 16004KT 10SM CLR 19/M04 A3037 RMK AO2 SLP184 T01891044,M
VGT,2024-08-31 15:53,-115.1933,36.2111,667.00,90.00,42.00,18.81,0.00,0.00,0.00,30.05,1016.00,10.00,M,CLR,M,M,M,M,M,M,M,M,M,M,M,M,M,M,86.22,KVGT 311553Z 00000KT 10SM CLR 32/06 A3005 RMK AO2 SLP160 T03220056,M
LOL,2024-08-31 15:53,-118.5701,40.0684,1192.43,62.00,28.00,27.40,290.00,3.00,0.00,30.20,1019.60,10.00,M,CLR,M,M,M,M,M,M,M,M,M,M,M,M,M,M,62.00,KLOL 311553Z AUTO 29003KT 10SM CLR 17/M02 A3020 RMK AO2 SLP196 T01671022,M
BVU,2024-08-31 15:55,-114.8611,35.9475,671.00,91.40,41.00,17.32,0.00,0.00,0.00,30.03,M,10.00,M,CLR,M,M,M,M,M,M,M,M,M,M,M,M,M,M,87.40,KBVU 311555Z AUTO 00000KT 10SM CLR 33/05 A3003 RMK AO2,M
INS,2024-08-31 15:55,-115.6733,36.5872,955.00,80.40,31.60,16.98,0.00,0.00,0.00,30.12,1014.10,10.00,M,OVC,M,M,M,13000.00,M,M,M,M,M,M,M,M,M,M,78.94,KINS 311555Z AUTO 00000KT 10SM OVC130 27/M00 A3012 RMK AO2 SLP141 T02691002,M
RNO,2024-08-31 15:55,-119.7711,39.4839,1341.00,67.00,40.00,37.16,0.00,0.00,0.00,30.24,1018.60,10.00,M,FEW,M,M,M,14000.00,M,M,M,M,M,M,M,M,M,M,67.00,KRNO 311555Z 00000KT 10SM FEW140 19/04 A3024 RMK AO2 SLP186 T01940044,M
LSV,2024-08-31 15:55,-115.0343,36.2362,570.00,93.60,37.20,13.94,60.00,5.00,0.00,30.00,1012.70,10.00,M,FEW,M,M,M,18000.00,M,M,M,M,M,M,M,M,M,M,89.18,KLSV 311555Z AUTO 06005KT 10SM FEW180 34/03 A3000 RMK AO2 SLP127 T03420029 $,M
BAM,2024-08-31 15:55,-116.8743,40.5990,1382.36,64.40,26.60,23.77,40.00,3.00,0.00,30.27,M,10.00,M,CLR,M,M,M,M,M,M,M,M,M,M,M,M,M,M,64.40,KBAM 311555Z AUTO 04003KT 10SM CLR 18/M03 A3027 RMK AO1,M
TMT,2024-08-31 15:55,-117.1971,39.4643,1749.34,58.00,26.80,30.07,0.00,0.00,0.00,30.34,M,10.00,M,CLR,M,M,M,M,M,M,M,M,M,M,M,M,M,M,58.00,KTMT 311555Z AUTO 00000KT 10SM CLR 15/M03 A3034 RMK AO2 T01451029,M
CXP,2024-08-31 15:55,-119.7326,39.1923,1431.00,68.00,32.00,26.15,210.00,4.00,0.00,30.27,M,10.00,M,CLR,M,M,M,M,M,M,M,M,M,M,M,M,M,M,68.00,KCXP 311555Z AUTO 21004KT 10SM CLR 20/00 A3027 RMK AO2,M
HTH,2024-08-31 15:55,-118.6315,38.5448,1282.89,73.40,23.00,15.03,0.00,0.00,0.00,30.23,M,10.00,M,CLR,M,M,M,M,M,M,M,M,M,M,M,M,M,M,73.40,KHTH 311555Z AUTO 00000KT 10SM CLR 23/M05 A3023 RMK A01,M
10U,2024-08-31 15:55,-116.1876,41.9532,1637.00,62.60,24.80,23.50,0.00,0.00,0.00,30.32,M,8.00,M,CLR,M,M,M,M,M,M,M,M,M,M,M,M,M,M,62.60,K10U 311555Z AUTO 00000KT 8SM CLR 17/M04 A3032 RMK AO2,M
EKO,2024-08-31 15:56,-115.7860,40.8242,1367.00,60.00,19.00,20.17,0.00,0.00,0.00,30.31,1022.70,10.00,M,CLR,M,M,M,M,M,M,M,M,M,M,M,M,M,M,60.00,KEKO 311556Z AUTO 00000KT 10SM CLR 16/M07 A3031 RMK AO2 SLP227 T01561072,M
HND,2024-08-31 15:56,-115.1344,35.9729,742.79,88.00,42.00,20.03,240.00,6.00,0.00,30.09,1017.30,10.00,M,FEW,M,M,M,9000.00,M,M,M,M,M,M,M,M,M,M,84.52,KHND 311556Z 24006KT 10SM FEW090 31/06 A3009 RMK AO2 SLP173 T03110056,M
TPH,2024-08-31 15:56,-117.0904,38.0505,1654.00,71.00,30.00,21.77,0.00,0.00,0.00,30.30,1018.40,10.00,M,CLR,M,M,M,M,M,M,M,M,M,M,M,M,M,M,71.00,KTPH 311556Z AUTO 00000KT 10SM CLR 22/M01 A3030 RMK AO2 SLP184 T02171011,M
LAS,2024-08-31 15:56,-115.1634,36.0719,663.00,88.00,57.00,35.05,160.00,3.00,T,30.07,1015.20,10.00,M,FEW,FEW,SCT,BKN,4200.00,11000.00,18000.00,25000.00,M,M,M,M,M,M,M,86.71,KLAS 311556Z 16003KT 10SM FEW042 FEW110 SCT180 BKN250 31/14 A3007 RMK AO2 RAB06E16 SLP152 P0000 T03110139 $,M
NFL,2024-08-31 15:57,-118.7010,39.4166,1199.00,73.00,31.00,21.18,0.00,0.00,0.00,30.19,1018.70,10.00,M,CLR,M,M,M,M,M,M,M,M,M,M,M,M,M,M,73.00,KNFL 311557Z AUTO 00000KT 10SM CLR 23/M01 A3019 RMK AO2 SLP187 T02281006,M
05U,2024-08-31 16:10,-116.0051,39.6042,1811.23,68.00,14.00,12.27,0.00,0.00,0.00,30.36,M,10.00,M,CLR,M,M,M,M,M,M,M,M,M,M,M,M,M,M,68.00,K05U 311610Z AUTO 00000KT 10SM CLR 20/M10 A3036 RMK A01,M
BVU,2024-08-31 16:15,-114.8611,35.9475,671.00,93.20,41.00,16.37,0.00,0.00,0.00,30.04,M,10.00,M,CLR,M,M,M,M,M,M,M,M,M,M,M,M,M,M,89.03,KBVU 311615Z AUTO 00000KT 10SM CLR 34/05 A3004 RMK AO2,M
BAM,2024-08-31 16:15,-116.8743,40.5990,1382.36,69.80,26.60,19.72,40.00,7.00,0.00,30.27,M,10.00,M,CLR,M,M,M,M,M,M,M,M,M,M,M,M,M,M,69.80,KBAM 311615Z AUTO 04007KT 10SM CLR 21/M03 A3027 RMK AO1,M
TMT,2024-08-31 16:15,-117.1971,39.4643,1749.34,63.70,29.00,26.89,0.00,0.00,0.00,30.34,M,10.00,M,CLR,M,M,M,M,M,M,M,M,M,M,M,M,M,M,63.70,KTMT 311615Z AUTO 00000KT 10SM CLR 18/M02 A3034 RMK AO2 T01761017,M
CXP,2024-08-31 16:15,-119.7326,39.1923,1431.00,69.80,32.00,24.59,0.00,0.00,0.00,30.27,M,10.00,M,CLR,M,M,M,M,M,M,M,M,M,M,M,M,M,M,69.80,KCXP 311615Z AUTO 00000KT 10SM CLR 21/00 A3027 RMK AO2,M
HTH,2024-08-31 16:15,-118.6315,38.5448,1282.89,75.20,24.80,15.25,300.00,5.00,0.00,30.23,M,10.00,M,CLR,M,M,M,M,M,M,M,M,M,M,M,M,M,M,75.20,KHTH 311615Z AUTO 30005KT 10SM CLR 24/M04 A3023 RMK A01,M
10U,2024-08-31 16:15,-116.1876,41.9532,1637.00,66.20,23.00,19.22,330.00,3.00,0.00,30.32,M,8.00,M,CLR,M,M,M,M,M,M,M,M,M,M,M,M,M,M,66.20,K10U 311615Z AUTO 33003KT 8SM CLR 19/M05 A3032 RMK AO2,M
05U,2024-08-31 16:30,-116.0051,39.6042,1811.23,69.80,19.40,14.57,0.00,0.00,0.00,30.36,M,10.00,M,CLR,M,M,M,M,M,M,M,M,M,M,M,M,M,M,69.80,K05U 311630Z AUTO 00000KT 10SM CLR 21/M07 A3036 RMK A01,M
INS,2024-08-31 16:33,-115.6733,36.5872,955.00,84.20,33.80,16.39,260.00,5.00,0.00,30.13,1014.50,10.00,M,OVC,M,M,M,12000.00,M,M,M,-RA,M,M,M,M,M,M,81.30,KINS 311633Z AUTO 26005KT 10SM -RA OVC120 29/01 A3013 RMK AO2 RAB33 SLP145,M
BVU,2024-08-31 16:35,-114.8611,35.9475,671.00,95.00,39.20,14.44,0.00,0.00,0.00,30.04,M,10.00,M,CLR,M,M,M,M,M,M,M,M,M,M,M,M,M,M,90.57,KBVU 311635Z AUTO 00000KT 10SM CLR 35/04 A3004 RMK AO2,M
BAM,2024-08-31 16:35,-116.8743,40.5990,1382.36,71.60,28.40,19.98,40.00,4.00,0.00,30.27,M,10.00,M,CLR,M,M,M,M,M,M,M,M,M,M,M,M,M,M,71.60,KBAM 311635Z AUTO 04004KT 10SM CLR 22/M02 A3027 RMK AO1,M
TMT,2024-08-31 16:35,-117.1971,39.4643,1749.34,69.00,27.50,21.04,0.00,0.00,0.00,30.33,M,10.00,M,CLR,M,M,M,M,M,M,M,M,M,M,M,M,M,M,69.00,KTMT 311635Z AUTO 00000KT 10SM CLR 21/M02 A3033 RMK AO2 T02061025,M
CXP,2024-08-31 16:35,-119.7326,39.1923,1431.00,71.60,32.00,23.13,210.00,4.00,0.00,30.27,M,10.00,M,CLR,M,M,M,M,M,M,M,M,M,M,M,M,M,M,71.60,KCXP 311635Z AUTO 21004KT 10SM CLR 22/00 A3027 RMK AO2,M
HTH,2024-08-31 16:35,-118.6315,38.5448,1282.89,75.20,24.80,15.25,300.00,5.00,0.00,30.23,M,10.00,M,CLR,M,M,M,M,M,M,M,M,M,M,M,M,M,M,75.20,KHTH 311635Z AUTO 30005KT 10SM CLR 24/M04 A3023 RMK A01,M
10U,2024-08-31 16:35,-116.1876,41.9532,1637.00,69.80,23.00,16.98,0.00,0.00,0.00,30.32,M,9.00,M,CLR,M,M,M,M,M,M,M,M,M,M,M,M,M,M,69.80,K10U 311635Z AUTO 00000KT 9SM CLR 21/M05 A3032 RMK AO2,M
05U,2024-08-31 16:50,-116.0051,39.6042,1811.23,71.60,19.40,13.71,0.00,0.00,0.00,30.36,M,10.00,M,CLR,M,M,M,M,M,M,M,M,M,M,M,M,M,M,71.60,K05U 311650Z AUTO 00000KT 10SM CLR 22/M07 A3036 RMK A01,M
P68,2024-08-31 16:53,-116.0056,39.6014,1993.00,75.00,20.00,12.54,M,4.00,0.00,30.33,1019.60,M,M,M,M,M,M,M,M,M,M,M,M,M,M,M,M,M,75.00,KP68 311653Z AUTO VRB04KT 24/M07 A3033 RMK AO1 SLP196 T02391067,M
DRA,2024-08-31 16:53,-116.0278,36.6206,1009.00,89.00,40.00,17.96,60.00,12.00,0.00,30.13,1014.90,10.00,26.00,CLR,M,M,M,M,M,M,M,M,M,M,M,26.00,70.00,2024-08-31 16:47,85.26,KDRA 311653Z AUTO 06012G26KT 10SM CLR 32/04 A3013 RMK AO2 PK WND 07026/1647 SLP149 T03170044,M
ELY,2024-08-31 16:53,-114.8453,39.2950,1909.00,74.00,22.00,14.12,110.00,4.00,0.00,30.36,1018.20,10.00,M,CLR,M,M,M,M,M,M,M,M,M,M,M,M,M,M,74.00,KELY 311653Z AUTO 11004KT 10SM CLR 23/M06 A3036 RMK AO2 SLP182 T02331056,M
VGT,2024-08-31 16:53,-115.1933,36.2111,667.00,95.00,43.00,16.73,360.00,10.00,0.00,30.04,1015.60,10.00,M,CLR,M,M,M,M,M,M,M,M,M,M,M,M,M,M,90.88,KVGT 311653Z 36010KT 10SM CLR 35/06 A3004 RMK AO2 SLP156 T03500061,M
LOL,2024-08-31 16:53,-118.5701,40.0684,1192.43,77.00,22.00,12.77,M,4.00,0.00,30.20,1018.60,10.00,M,CLR,M,M,M,M,M,M,M,M,M,M,M,M,M,M,77.00,KLOL 311653Z AUTO VRB04KT 10SM CLR 25/M06 A3020 RMK AO2 SLP186 T02501056,M
BVU,2024-08-31 16:55,-114.8611,35.9475,671.00,95.00,39.20,14.44,M,M,0.00,30.04,M,10.00,M,CLR,M,M,M,M,M,M,M,M,M,M,M,M,M,M,90.57,KBVU 311655Z AUTO VRBKT 10SM CLR 35/04 A3004 RMK AO2,M
INS,2024-08-31 16:55,-115.6733,36.5872,955.00,86.00,37.60,17.99,340.00,4.00,T,30.12,1014.10,10.00,M,FEW,OVC,M,M,2500.00,12000.00,M,M,-RA,M,M,M,M,M,M,82.74,KINS 311655Z AUTO 34004KT 10SM -RA FEW025 OVC120 30/03 A3012 RMK AO2 RAB33E34DZB34E38RAB38E55DZB55 SLP141 P0000 T03000031,M
RNO,2024-08-31 16:55,-119.7711,39.4839,1341.00,72.00,41.00,32.56,0.00,0.00,0.00,30.24,1018.20,10.00,M,FEW,M,M,M,14000.00,M,M,M,M,M,M,M,M,M,M,72.00,KRNO 311655Z 00000KT 10SM FEW140 22/05 A3024 RMK AO2 SLP182 T02220050,M
BAM,2024-08-31 16:55,-116.8743,40.5990,1382.36,73.40,26.60,17.46,40.00,5.00,0.00,30.27,M,10.00,M,CLR,M,M,M,M,M,M,M,M,M,M,M,M,M,M,73.40,KBAM 311655Z AUTO 04005KT 10SM CLR 23/M03 A3027 RMK AO1,M
TMT,2024-08-31 16:55,-117.1971,39.4643,1749.34,70.70,25.70,18.43,0.00,0.00,0.00,30.33,M,10.00,M,CLR,M,M,M,M,M,M,M,M,M,M,M,M,M,M,70.70,KTMT 311655Z AUTO 00000KT 10SM CLR 22/M03 A3033 RMK AO2 T02151035,M
CXP,2024-08-31 16:55,-119.7326,39.1923,1431.00,73.40,33.80,23.39,0.00,0.00,0.00,30.27,M,10.00,M,CLR,M,M,M,M,M,M,M,M,M,M,M,M,M,M,73.40,KCXP 311655Z AUTO 00000KT 10SM CLR 23/01 A3027 RMK AO2,M
HTH,2024-08-31 16:55,-118.6315,38.5448,1282.89,77.00,23.00,13.32,340.00,5.00,0.00,30.23,M,10.00,M,CLR,M,M,M,M,M,M,M,M,M,M,M,M,M,M,77.00,KHTH 311655Z AUTO 34005KT 10SM CLR 25/M05 A3023 RMK A01,M
10U,2024-08-31 16:55,-116.1876,41.9532,1637.00,71.60,21.20,14.80,0.00,0.00,0.00,30.32,M,10.00,M,CLR,M,M,M,M,M,M,M,M,M,M,M,M,M,M,71.60,K10U 311655Z AUTO 00000KT 10SM CLR 22/M06 A3032 RMK AO2,M
LSV,2024-08-31 16:55,-115.0343,36.2362,570.00,94.60,38.00,13.95,0.00,0.00,0.00,30.01,1013.00,10.00,M,SCT,M,M,M,17000.00,M,M,M,M,M,M,M,M,M,M,90.13,KLSV 311655Z AUTO 00000KT 10SM SCT170 35/03 A3001 RMK AO2 SLP130 T03480033 $,M
EKO,2024-08-31 16:56,-115.7860,40.8242,1367.00,69.00,21.00,16.03,0.00,0.00,0.00,30.30,1021.50,10.00,M,CLR,M,M,M,M,M,M,M,M,M,M,M,M,M,M,69.00,KEKO 311656Z AUTO 00000KT 10SM CLR 21/M06 A3030 RMK AO2 SLP215 T02061061,M
HND,2024-08-31 16:56,-115.1344,35.9729,742.79,93.00,42.00,17.13,250.00,4.00,0.00,30.10,1017.30,10.00,M,CLR,M,M,M,M,M,M,M,M,M,M,M,M,M,M,88.92,KHND 311656Z 25004KT 10SM CLR 34/06 A3010 RMK AO2 SLP173 T03390056,M
TPH,2024-08-31 16:56,-117.0904,38.0505,1654.00,79.00,30.00,16.66,140.00,4.00,0.00,30.30,1018.10,10.00,M,CLR,M,M,M,M,M,M,M,M,M,M,M,M,M,M,79.00,KTPH 311656Z AUTO 14004KT 10SM CLR 26/M01 A3030 RMK AO2 SLP181 T02611011,M
LAS,2024-08-31 16:56,-115.1634,36.0719,663.00,92.00,49.00,23.04,M,5.00,0.00,30.07,1015.20,10.00,M,FEW,FEW,SCT,BKN,5000.00,11000.00,18000.00,25000.00,M,M,M,M,M,M,M,88.77,KLAS 311656Z VRB05KT 10SM FEW050 FEW110 SCT180 BKN250 33/09 A3007 RMK AO2 SLP152 T03330094 $,M
NFL,2024-08-31 16:57,-118.7010,39.4166,1199.00,78.00,28.00,15.86,0.00,0.00,0.00,30.20,1019.10,10.00,M,CLR,M,M,M,M,M,M,M,M,M,M,M,M,M,M,78.00,KNFL 311657Z AUTO 00000KT 10SM CLR 26/M02 A3020 RMK AO2 SLP191 T02561022,M
INS,2024-08-31 17:00,-115.6733,36.5872,955.00,86.00,37.40,17.85,360.00,5.00,0.00,30.13,1014.50,10.00,M,FEW,OVC,M,M,2500.00,12000.00,M,M,M,M,M,M,M,M,M,82.73,KINS 311700Z AUTO 36005KT 10SM FEW025 OVC120 30/03 A3013 RMK AO2 RAE1655DZB1655E1656RAB1656E00 SLP145,M
05U,2024-08-31 17:10,-116.0051,39.6042,1811.23,73.40,17.60,11.94,M,4.00,0.00,30.36,M,10.00,M,CLR,M,M,M,M,M,M,M,M,M,M,M,M,M,M,73.40,K05U 311710Z AUTO VRB04KT 10SM CLR 23/M08 A3036 RMK A01,M
INS,2024-08-31 17:14,-115.6733,36.5872,955.00,87.80,39.20,18.09,20.00,4.00,0.00,30.14,1014.70,10.00,M,FEW,SCT,OVC,M,4000.00,10000.00,12000.00,M,-DZ,M,M,M,M,M,M,84.22,KINS 311714Z AUTO 02004KT 10SM -DZ FEW040 SCT100 OVC120 31/04 A3014 RMK AO2 RAE1655DZB1655E1656RAB1656E00DZB14 SLP147,M
BVU,2024-08-31 17:15,-114.8611,35.9475,671.00,96.80,41.00,14.66,30.00,6.00,0.00,30.03,M,10.00,M,CLR,M,M,M,M,M,M,M,M,M,M,M,M,M,M,92.39,KBVU 311715Z AUTO 03006KT 10SM CLR 36/05 A3003 RMK AO2,M
BAM,2024-08-31 17:15,-116.8743,40.5990,1382.36,77.00,30.20,17.94,20.00,6.00,0.00,30.27,M,10.00,M,CLR,M,M,M,M,M,M,M,M,M,M,M,M,M,M,77.00,KBAM 311715Z AUTO 02006KT 10SM CLR 25/M01 A3027 RMK AO1,M
TMT,2024-08-31 17:15,-117.1971,39.4643,1749.34,72.70,25.00,16.73,0.00,0.00,0.00,30.32,M,10.00,M,CLR,M,M,M,M,M,M,M,M,M,M,M,M,M,M,72.70,KTMT 311715Z AUTO 00000KT 10SM CLR 23/M04 A3032 RMK AO2 T02261038,M
HTH,2024-08-31 17:15,-118.6315,38.5448,1282.89,78.80,24.80,13.54,350.00,4.00,0.00,30.23,M,10.00,M,CLR,M,M,M,M,M,M,M,M,M,M,M,M,M,M,78.80,KHTH 311715Z AUTO 35004KT 10SM CLR 26/M04 A3023 RMK A01,M
10U,2024-08-31 17:15,-116.1876,41.9532,1637.00,73.40,21.20,13.93,10.00,3.00,0.00,30.31,M,10.00,M,CLR,M,M,M,M,M,M,M,M,M,M,M,M,M,M,73.40,K10U 311715Z AUTO 01003KT 10SM CLR 23/M06 A3031 RMK AO2,M
CXP,2024-08-31 17:15,-119.7326,39.1923,1431.00,75.20,33.80,22.02,0.00,0.00,0.00,30.27,M,10.00,M,CLR,M,M,M,M,M,M,M,M,M,M,M,M,M,M,75.20,KCXP 311715Z AUTO 00000KT 10SM CLR 24/01 A3027 RMK AO2,M
05U,2024-08-31 17:30,-116.0051,39.6042,1811.23,75.20,15.80,10.40,0.00,0.00,0.00,30.36,M,10.00,M,CLR,M,M,M,M,M,M,M,M,M,M,M,M,M,M,75.20,K05U 311730Z AUTO 00000KT 10SM CLR 24/M09 A3036 RMK A01,M
INS,2024-08-31 17:31,-115.6733,36.5872,955.00,87.80,37.40,16.86,50.00,10.00,0.00,30.13,1014.50,10.00,M,FEW,OVC,M,M,4200.00,11000.00,M,M,M,M,M,M,M,M,M,84.16,KINS 311731Z AUTO 05010KT 10SM FEW042 OVC110 31/03 A3013 RMK AO2 RAE1655DZB1655E1656RAB1656E00DZB14E31 SLP145,M
BVU,2024-08-31 17:35,-114.8611,35.9475,671.00,95.00,41.00,15.49,0.00,0.00,0.00,30.03,M,10.00,M,CLR,M,M,M,M,M,M,M,M,M,M,M,M,M,M,90.70,KBVU 311735Z AUTO 00000KT 10SM CLR 35/05 A3003 RMK AO2,M
CXP,2024-08-31 17:35,-119.7326,39.1923,1431.00,77.00,33.80,20.74,0.00,0.00,0.00,30.26,M,10.00,M,CLR,M,M,M,M,M,M,M,M,M,M,M,M,M,M,77.00,KCXP 311735Z AUTO 00000KT 10SM CLR 25/01 A3026 RMK AO2,M
RTS,2024-08-31 17:35,-119.8764,39.6682,1539.00,78.80,28.40,15.71,160.00,6.00,0.00,30.27,M,10.00,M,CLR,M,M,M,M,M,M,M,M,M,M,M,M,M,M,78.80,KRTS 311735Z AUTO 16006KT 10SM CLR 26/M02 A3027 RMK AO2,M
MEV,2024-08-31 17:35,-119.7500,38.9963,1441.42,77.00,33.80,20.74,0.00,0.00,0.00,30.24,M,10.00,M,CLR,M,M,M,M,M,M,M,M,M,M,M,M,M,M,77.00,KMEV 311735Z AUTO 00000KT 10SM CLR 25/01 A3024 RMK AO2,M
BAM,2024-08-31 17:35,-116.8743,40.5990,1382.36,77.00,28.40,16.67,10.00,4.00,0.00,30.26,M,10.00,M,CLR,M,M,M,M,M,M,M,M,M,M,M,M,M,M,77.00,KBAM 311735Z AUTO 01004KT 10SM CLR 25/M02 A3026 RMK AO1,M
TMT,2024-08-31 17:35,-117.1971,39.4643,1749.34,75.40,28.00,17.29,240.00,5.00,0.00,30.33,M,10.00,M,CLR,M,M,M,M,M,M,M,M,M,M,M,M,M,M,75.40,KTMT 311735Z AUTO 24005KT 10SM CLR 24/M02 A3033 RMK AO2 T02411022,M
05U,2024-08-31 17:50,-116.0051,39.6042,1811.23,77.00,15.80,9.79,0.00,0.00,0.00,30.35,M,10.00,M,CLR,M,M,M,M,M,M,M,M,M,M,M,M,M,M,77.00,K05U 311750Z AUTO 00000KT 10SM CLR 25/M09 A3035 RMK A01,M
P68,2024-08-31 17:53,-116.0056,39.6014,1993.00,79.00,16.00,9.25,300.00,4.00,0.00,30.32,1019.20,M,M,M,M,M,M,M,M,M,M,M,M,M,M,M,M,M,79.00,KP68 311753Z AUTO 30004KT 26/M09 A3032 RMK AO1 SLP192 T02611089 10261 20078 58004,M
DRA,2024-08-31 17:53,-116.0278,36.6206,1009.00,96.00,39.00,13.90,60.00,10.00,0.00,30.12,1014.30,10.00,15.00,CLR,M,M,M,M,M,M,M,M,M,M,M,M,M,M,91.48,KDRA 311753Z AUTO 06010G15KT 10SM CLR 36/04 A3012 RMK AO2 SLP143 T03560039 10356 20211 50002,M
ELY,2024-08-31 17:53,-114.8453,39.2950,1909.00,80.00,30.00,16.12,M,M,0.00,30.35,1017.00,10.00,M,CLR,M,M,M,M,M,M,M,M,M,M,M,M,M,M,78.46,KELY 311753Z AUTO 10SM CLR 27/M01 A3035 RMK AO2 SLP170 T02671011 10272 20050 58008,M
VGT,2024-08-31 17:53,-115.1933,36.2111,667.00,98.00,44.00,15.86,40.00,4.00,0.00,30.04,1015.90,10.00,M,CLR,M,M,M,M,M,M,M,M,M,M,M,M,M,M,93.88,KVGT 311753Z 04004KT 10SM CLR 37/07 A3004 RMK AO2 SLP159 T03670067 10367 20289 51004,M
LOL,2024-08-31 17:53,-118.5701,40.0684,1192.43,85.00,22.00,9.84,40.00,7.00,0.00,30.18,1018.40,7.00,M,CLR,M,M,M,M,M,M,M,M,M,M,M,M,M,M,81.38,KLOL 311753Z AUTO 04007KT 7SM CLR 29/M06 A3018 RMK AO2 SLP184 T02941056 10294 20050 58006,M
BVU,2024-08-31 17:55,-114.8611,35.9475,671.00,96.80,39.20,13.66,50.00,4.00,0.00,30.02,M,10.00,M,CLR,M,M,M,M,M,M,M,M,M,M,M,M,M,M,92.23,KBVU 311755Z AUTO 05004KT 10SM CLR 36/04 A3002 RMK AO2,M
INS,2024-08-31 17:55,-115.6733,36.5872,955.00,89.00,35.20,14.88,0.00,0.00,T,30.11,1013.80,10.00,M,FEW,BKN,BKN,M,8000.00,12000.00,16000.00,M,M,M,M,M,M,M,M,85.11,KINS 311755Z AUTO 00000KT 10SM FEW080 BKN120 BKN160 32/02 A3011 RMK AO2 RAE1655DZB1655E1656RAB1656E00DZB14E31 SLP138 P0000 60000 T03160018 10316 20225 50000,M
RNO,2024-08-31 17:55,-119.7711,39.4839,1341.00,78.00,45.00,31.06,0.00,0.00,0.00,30.22,1017.50,10.00,M,FEW,M,M,M,14000.00,M,M,M,M,M,M,M,M,M,M,78.00,KRNO 311755Z 00000KT 10SM FEW140 26/07 A3022 RMK AO2 SLP175 T02560072 10267 20139 58008,M
CXP,2024-08-31 17:55,-119.7326,39.1923,1431.00,80.60,32.00,17.14,0.00,0.00,0.00,30.26,M,10.00,M,CLR,M,M,M,M,M,M,M,M,M,M,M,M,M,M,78.82,KCXP 311755Z AUTO 00000KT 10SM CLR 27/00 A3026 RMK AO2,M
RTS,2024-08-31 17:55,-119.8764,39.6682,1539.00,80.60,30.20,15.94,110.00,6.00,0.00,30.26,M,10.00,M,CLR,M,M,M,M,M,M,M,M,M,M,M,M,M,M,78.77,KRTS 311755Z AUTO 11006KT 10SM CLR 27/M01 A3026 RMK AO2,M
MEV,2024-08-31 17:55,-119.7500,38.9963,1441.42,78.80,33.80,19.55,0.00,0.00,0.00,30.24,M,10.00,M,CLR,M,M,M,M,M,M,M,M,M,M,M,M,M,M,78.80,KMEV 311755Z AUTO 00000KT 10SM CLR 26/01 A3024 RMK AO2,M
BAM,2024-08-31 17:55,-116.8743,40.5990,1382.36,78.80,23.00,12.55,20.00,4.00,0.00,30.25,M,7.00,M,CLR,M,M,M,M,M,M,M,M,M,M,M,M,M,M,78.80,KBAM 311755Z AUTO 02004KT 7SM CLR 26/M05 A3025 RMK AO1,M
HTH,2024-08-31 17:55,-118.6315,38.5448,1282.89,80.60,26.60,13.75,M,3.00,0.00,30.22,M,10.00,M,CLR,M,M,M,M,M,M,M,M,M,M,M,M,M,M,78.68,KHTH 311755Z AUTO VRB03KT 10SM CLR 27/M03 A3022 RMK A01,M
TMT,2024-08-31 17:55,-117.1971,39.4643,1749.34,78.00,24.00,13.44,220.00,7.00,0.00,30.32,M,10.00,M,CLR,M,M,M,M,M,M,M,M,M,M,M,M,M,M,78.00,KTMT 311755Z AUTO 22007KT 10SM CLR 26/M04 A3032 RMK AO2 T02551045 10256 20007,M
10U,2024-08-31 17:55,-116.1876,41.9532,1637.00,78.80,19.40,10.78,0.00,0.00,0.00,30.30,M,10.00,M,CLR,M,M,M,M,M,M,M,M,M,M,M,M,M,M,78.80,K10U 311755Z AUTO 00000KT 10SM CLR 26/M07 A3030 RMK AO2,M
LSV,2024-08-31 17:55,-115.0343,36.2362,570.00,98.20,37.00,12.01,0.00,0.00,0.00,29.99,1012.30,10.00,M,CLR,M,M,M,M,M,M,M,M,M,M,M,M,M,M,93.13,KLSV 311755Z AUTO 00000KT 10SM CLR 37/03 A2999 RMK AO2 SLP123 T03680027 10370 20278 50000 $,M
EKO,2024-08-31 17:56,-115.7860,40.8242,1367.00,78.00,22.00,12.36,M,3.00,0.00,30.28,1020.40,10.00,M,CLR,M,M,M,M,M,M,M,M,M,M,M,M,M,M,78.00,KEKO 311756Z AUTO VRB03KT 10SM CLR 26/M06 A3028 RMK AO2 SLP204 T02561056 10256 20061 58009,M
HND,2024-08-31 17:56,-115.1344,35.9729,742.79,95.00,44.00,17.38,350.00,6.00,0.00,30.09,1017.00,10.00,M,CLR,M,M,M,M,M,M,M,M,M,M,M,M,M,M,90.99,KHND 311756Z 35006KT 10SM CLR 35/07 A3009 RMK AO2 SLP170 T03500067 10350 20256 50003,M
TPH,2024-08-31 17:56,-117.0904,38.0505,1654.00,82.00,30.00,15.10,140.00,10.00,0.00,30.31,1018.30,10.00,M,SCT,M,M,M,12000.00,M,M,M,M,M,M,M,M,M,M,79.69,KTPH 311756Z AUTO 14010KT 10SM SCT120 28/M01 A3031 RMK AO2 SLP183 60000 T02781011 10278 20161 51005,M
LAS,2024-08-31 17:56,-115.1634,36.0719,663.00,93.00,47.00,20.72,340.00,5.00,0.00,30.06,1014.90,10.00,M,FEW,FEW,SCT,BKN,6000.00,11000.00,18000.00,25000.00,M,M,M,M,M,M,M,89.44,KLAS 311756Z 34005KT 10SM FEW060 FEW110 SCT180 BKN250 34/08 A3006 RMK AO2 SLP149 60000 T03390083 50004 $,M
NFL,2024-08-31 17:57,-118.7010,39.4166,1199.00,83.00,22.00,10.49,0.00,0.00,0.00,30.19,1018.80,10.00,M,CLR,M,M,M,M,M,M,M,M,M,M,M,M,M,M,80.00,KNFL 311757Z AUTO 00000KT 10SM CLR 28/M06 A3019 RMK AO2 SLP188 T02831056 10283 20128 50000,M
05U,2024-08-31 18:10,-116.0051,39.6042,1811.23,78.80,15.80,9.23,0.00,0.00,0.00,30.34,M,10.00,M,CLR,M,M,M,M,M,M,M,M,M,M,M,M,M,M,78.80,K05U 311810Z AUTO 00000KT 10SM CLR 26/M09 A3034 RMK A01,M
BVU,2024-08-31 18:15,-114.8611,35.9475,671.00,98.60,41.00,13.87,M,4.00,0.00,30.02,M,10.00,M,CLR,M,M,M,M,M,M,M,M,M,M,M,M,M,M,94.09,KBVU 311815Z AUTO VRB04KT 10SM CLR 37/05 A3002 RMK AO2,M
CXP,2024-08-31 18:15,-119.7326,39.1923,1431.00,82.40,32.00,16.17,210.00,4.00,0.00,30.25,M,10.00,M,CLR,M,M,M,M,M,M,M,M,M,M,M,M,M,M,80.00,KCXP 311815Z AUTO 21004KT 10SM CLR 28/M00 A3025 RMK AO2,M
RTS,2024-08-31 18:15,-119.8764,39.6682,1539.00,82.40,30.20,15.03,130.00,6.00,0.00,30.26,M,10.00,M,CLR,M,M,M,M,M,M,M,M,M,M,M,M,M,M,79.97,KRTS 311815Z AUTO 13006KT 10SM CLR 28/M01 A3026 RMK AO2,M
MEV,2024-08-31 18:15,-119.7500,38.9963,1441.42,80.60,33.80,18.42,0.00,0.00,0.00,30.23,M,9.00,M,CLR,M,M,M,M,M,M,M,M,M,M,M,M,M,M,78.88,KMEV 311815Z AUTO 00000KT 9SM CLR 27/01 A3023 RMK AO2,M
BAM,2024-08-31 18:15,-116.8743,40.5990,1382.36,80.60,23.00,11.83,360.00,3.00,0.00,30.25,M,10.00,M,CLR,M,M,M,M,M,M,M,M,M,M,M,M,M,M,78.80,KBAM 311815Z AUTO 36003KT 10SM CLR 27/M05 A3025 RMK AO1,M
HTH,2024-08-31 18:15,-118.6315,38.5448,1282.89,82.40,28.40,13.96,M,4.00,0.00,30.21,M,10.00,M,CLR,M,M,M,M,M,M,M,M,M,M,M,M,M,M,79.94,KHTH 311815Z AUTO VRB04KT 10SM CLR 28/M02 A3021 RMK A01,M
TMT,2024-08-31 18:15,-117.1971,39.4643,1749.34,79.30,20.50,11.11,230.00,4.00,0.00,30.32,M,10.00,M,CLR,M,M,M,M,M,M,M,M,M,M,M,M,M,M,79.30,KTMT 311815Z AUTO 23004KT 10SM CLR 26/M06 A3032 RMK AO2 T02631064,M
10U,2024-08-31 18:15,-116.1876,41.9532,1637.00,80.60,17.60,9.40,0.00,0.00,0.00,30.30,M,10.00,M,CLR,M,M,M,M,M,M,M,M,M,M,M,M,M,M,78.45,K10U 311815Z AUTO 00000KT 10SM CLR 27/M08 A3030 RMK AO2,M
05U,2024-08-31 18:30,-116.0051,39.6042,1811.23,80.60,17.60,9.40,M,3.00,0.00,30.34,M,10.00,M,CLR,M,M,M,M,M,M,M,M,M,M,M,M,M,M,78.45,K05U 311830Z AUTO VRB03KT 10SM CLR 27/M08 A3034 RMK A01,M
BVU,2024-08-31 18:35,-114.8611,35.9475,671.00,98.60,41.00,13.87,50.00,7.00,0.00,30.01,M,10.00,M,CLR,M,M,M,M,M,M,M,M,M,M,M,M,M,M,94.09,KBVU 311835Z AUTO 05007KT 10SM CLR 37/05 A3001 RMK AO2,M
CXP,2024-08-31 18:35,-119.7326,39.1923,1431.00,84.20,30.20,14.18,M,4.00,0.00,30.24,M,9.00,M,CLR,M,M,M,M,M,M,M,M,M,M,M,M,M,M,81.26,KCXP 311835Z AUTO VRB04KT 9SM CLR 29/M01 A3024 RMK AO2,M
RTS,2024-08-31 18:35,-119.8764,39.6682,1539.00,84.20,28.40,13.18,M,4.00,0.00,30.26,M,10.00,M,CLR,M,M,M,M,M,M,M,M,M,M,M,M,M,M,81.25,KRTS 311835Z AUTO VRB04KT 10SM CLR 29/M02 A3026 RMK AO2,M
MEV,2024-08-31 18:35,-119.7500,38.9963,1441.42,82.40,32.00,16.17,0.00,0.00,0.00,30.22,M,9.00,M,CLR,M,M,M,M,M,M,M,M,M,M,M,M,M,M,80.00,KMEV 311835Z AUTO 00000KT 9SM CLR 28/M00 A3022 RMK AO2,M
BAM,2024-08-31 18:35,-116.8743,40.5990,1382.36,82.40,23.00,11.16,360.00,3.00,0.00,30.24,M,7.00,M,CLR,M,M,M,M,M,M,M,M,M,M,M,M,M,M,79.67,KBAM 311835Z AUTO 36003KT 7SM CLR 28/M05 A3024 RMK AO1,M
HTH,2024-08-31 18:35,-118.6315,38.5448,1282.89,84.20,28.40,13.18,320.00,5.00,0.00,30.21,M,10.00,M,CLR,M,M,M,M,M,M,M,M,M,M,M,M,M,M,81.25,KHTH 311835Z AUTO 32005KT 10SM CLR 29/M02 A3021 RMK A01,M
TMT,2024-08-31 18:35,-117.1971,39.4643,1749.34,82.60,20.70,10.06,0.00,0.00,0.00,30.31,M,10.00,M,CLR,M,M,M,M,M,M,M,M,M,M,M,M,M,M,79.66,KTMT 311835Z AUTO 00000KT 10SM CLR 28/M06 A3031 RMK AO2 T02811063,M
10U,2024-08-31 18:35,-116.1876,41.9532,1637.00,84.20,15.80,7.74,0.00,0.00,0.00,30.29,M,10.00,M,CLR,M,M,M,M,M,M,M,M,M,M,M,M,M,M,80.51,K10U 311835Z AUTO 00000KT 10SM CLR 29/M09 A3029 RMK AO2,M
05U,2024-08-31 18:50,-116.0051,39.6042,1811.23,82.40,21.20,10.34,0.00,0.00,0.00,30.33,M,10.00,M,CLR,M,M,M,M,M,M,M,M,M,M,M,M,M,M,79.55,K05U 311850Z AUTO 00000KT 10SM CLR 28/M06 A3033 RMK A01,M
P68,2024-08-31 18:53,-116.0056,39.6014,1993.00,84.00,21.00,9.74,40.00,5.00,0.00,30.30,1017.90,M,M,M,M,M,M,M,M,M,M,M,M,M,M,M,M,M,80.63,KP68 311853Z AUTO 04005KT 29/M06 A3030 RMK AO1 SLP179 T02891061,M
DRA,2024-08-31 18:53,-116.0278,36.6206,1009.00,96.00,39.00,13.90,130.00,11.00,0.00,30.10,1013.80,10.00,18.00,CLR,M,M,M,M,M,M,M,M,M,M,M,M,M,M,91.48,KDRA 311853Z AUTO 13011G18KT 10SM CLR 36/04 A3010 RMK AO2 SLP138 T03560039,M
ELY,2024-08-31 18:53,-114.8453,39.2950,1909.00,85.00,28.00,12.63,M,4.00,0.00,30.32,1017.10,10.00,M,CLR,M,M,M,M,M,M,M,M,M,M,M,M,M,M,81.80,KELY 311853Z AUTO VRB04KT 10SM CLR 29/M02 A3032 RMK AO2 SLP171 T02941022,M
VGT,2024-08-31 18:53,-115.1933,36.2111,667.00,101.00,44.00,14.48,0.00,0.00,0.00,30.02,1014.90,10.00,M,CLR,M,M,M,M,M,M,M,M,M,M,M,M,M,M,96.80,KVGT 311853Z 00000KT 10SM CLR 38/07 A3002 RMK AO2 SLP149 T03830067,M
LOL,2024-08-31 18:53,-118.5701,40.0684,1192.43,86.00,24.00,10.37,M,M,0.00,30.17,1018.10,9.00,M,CLR,M,M,M,M,M,M,M,M,M,M,M,M,M,M,82.21,KLOL 311853Z AUTO 9SM CLR 30/M04 A3017 RMK AO2 SLP181 T03001044,M
BVU,2024-08-31 18:55,-114.8611,35.9475,671.00,100.40,41.00,13.14,40.00,7.00,0.00,30.00,M,10.00,M,CLR,M,M,M,M,M,M,M,M,M,M,M,M,M,M,95.79,KBVU 311855Z AUTO 04007KT 10SM CLR 38/05 A3000 RMK AO2,M
INS,2024-08-31 18:55,-115.6733,36.5872,955.00,95.70,32.70,10.93,50.00,7.00,0.00,30.09,1012.90,10.00,M,SCT,M,M,M,17000.00,M,M,M,M,M,M,M,M,M,M,90.38,KINS 311855Z AUTO 05007KT 10SM SCT170 35/00 A3009 RMK AO2 SLP129 T03540004,M
RNO,2024-08-31 18:55,-119.7711,39.4839,1341.00,84.00,49.00,29.69,0.00,0.00,0.00,30.20,1016.60,10.00,M,FEW,M,M,M,14000.00,M,M,M,M,M,M,M,M,M,M,81.98,KRNO 311855Z 00000KT 10SM FEW140 29/09 A3020 RMK AO2 SLP166 T02890094,M
CXP,2024-08-31 18:55,-119.7326,39.1923,1431.00,86.00,26.60,11.55,100.00,5.00,0.00,30.24,M,10.00,M,CLR,M,M,M,M,M,M,M,M,M,M,M,M,M,M,82.39,KCXP 311855Z AUTO 10005KT 10SM CLR 30/M03 A3024 RMK AO2,M
RTS,2024-08-31 18:55,-119.8764,39.6682,1539.00,84.20,21.20,9.76,130.00,10.00,0.00,30.26,M,10.00,15.00,CLR,M,M,M,M,M,M,M,M,M,M,M,M,M,M,80.77,KRTS 311855Z AUTO 13010G15KT 10SM CLR 29/M06 A3026 RMK AO2,M
MEV,2024-08-31 18:55,-119.7500,38.9963,1441.42,84.20,30.20,14.18,330.00,5.00,0.00,30.22,M,8.00,M,CLR,M,M,M,M,M,M,M,M,M,M,M,M,M,M,81.26,KMEV 311855Z AUTO 33005KT 8SM CLR 29/M01 A3022 RMK AO2,M
BAM,2024-08-31 18:55,-116.8743,40.5990,1382.36,86.00,24.80,10.72,40.00,4.00,0.00,30.23,M,10.00,M,CLR,M,M,M,M,M,M,M,M,M,M,M,M,M,M,82.26,KBAM 311855Z AUTO 04004KT 10SM CLR 30/M04 A3023 RMK AO1,M
HTH,2024-08-31 18:55,-118.6315,38.5448,1282.89,86.00,26.60,11.55,0.00,0.00,0.00,30.20,M,10.00,M,CLR,M,M,M,M,M,M,M,M,M,M,M,M,M,M,82.39,KHTH 311855Z AUTO 00000KT 10SM CLR 30/M03 A3020 RMK A01,M
TMT,2024-08-31 18:55,-117.1971,39.4643,1749.34,83.70,18.70,8.92,150.00,3.00,0.00,30.30,M,10.00,M,CLR,M,M,M,M,M,M,M,M,M,M,M,M,M,M,80.30,KTMT 311855Z AUTO 15003KT 10SM CLR 29/M07 A3030 RMK AO2 T02871074,M
10U,2024-08-31 18:55,-116.1876,41.9532,1637.00,84.20,15.80,7.74,0.00,0.00,0.00,30.28,M,10.00,M,CLR,M,M,M,M,M,M,M,M,M,M,M,M,M,M,80.51,K10U 311855Z AUTO 00000KT 10SM CLR 29/M09 A3028 RMK AO2,M
LSV,2024-08-31 18:55,-115.0343,36.2362,570.00,99.70,35.80,10.95,0.00,0.00,0.00,29.97,1011.70,10.00,M,FEW,FEW,M,M,15000.00,18000.00,M,M,M,M,M,M,M,M,M,94.19,KLSV 311855Z AUTO 00000KT 10SM FEW150 FEW180 38/02 A2997 RMK AO2 SLP117 T03760021 $,M
EKO,2024-08-31 18:56,-115.7860,40.8242,1367.00,83.00,16.00,8.12,0.00,0.00,0.00,30.26,1019.90,10.00,M,CLR,M,M,M,M,M,M,M,M,M,M,M,M,M,M,79.69,KEKO 311856Z AUTO 00000KT 10SM CLR 28/M09 A3026 RMK AO2 SLP199 T02831089,M
HND,2024-08-31 18:56,-115.1344,35.9729,742.79,96.00,44.00,16.86,M,3.00,0.00,30.07,1016.20,10.00,M,CLR,M,M,M,M,M,M,M,M,M,M,M,M,M,M,91.95,KHND 311856Z VRB03KT 10SM CLR 36/07 A3007 RMK AO2 SLP162 T03560067,M
TPH,2024-08-31 18:56,-117.0904,38.0505,1654.00,82.00,32.00,16.38,M,3.00,0.00,30.29,1018.10,10.00,M,SCT,M,M,M,11000.00,M,M,M,M,M,M,M,M,M,M,79.73,KTPH 311856Z AUTO VRB03KT 10SM SCT110 28/00 A3029 RMK AO2 SLP181 T02780000,M
LAS,2024-08-31 18:56,-115.1634,36.0719,663.00,94.00,47.00,20.09,M,3.00,0.00,30.04,1014.10,10.00,M,FEW,FEW,SCT,SCT,6000.00,11000.00,18000.00,25000.00,M,M,M,M,M,M,M,90.40,KLAS 311856Z VRB03KT 10SM FEW060 FEW110 SCT180 SCT250 34/08 A3004 RMK AO2 SLP141 T03440083 $,M
NFL,2024-08-31 18:57,-118.7010,39.4166,1199.00,84.00,24.00,11.05,290.00,4.00,0.00,30.17,1018.20,9.00,M,CLR,M,M,M,M,M,M,M,M,M,M,M,M,M,M,80.81,KNFL 311857Z AUTO 29004KT 9SM CLR 29/M04 A3017 RMK AO2 SLP182 T02891044,M
05U,2024-08-31 19:10,-116.0051,39.6042,1811.23,84.20,21.20,9.76,0.00,0.00,0.00,30.32,M,10.00,M,CLR,M,M,M,M,M,M,M,M,M,M,M,M,M,M,80.77,K05U 311910Z AUTO 00000KT 10SM CLR 29/M06 A3032 RMK A01,M
BVU,2024-08-31 19:15,-114.8611,35.9475,671.00,100.40,39.20,12.25,M,4.00,0.00,30.00,M,10.00,11.00,CLR,M,M,M,M,M,M,M,M,M,M,M,M,M,M,95.43,KBVU 311915Z AUTO VRB04G11KT 10SM CLR 38/04 A3000 RMK AO2,M
CXP,2024-08-31 19:15,-119.7326,39.1923,1431.00,87.80,26.60,10.91,0.00,0.00,0.00,30.22,M,8.00,M,CLR,M,M,M,M,M,M,M,M,M,M,M,M,M,M,83.69,KCXP 311915Z AUTO 00000KT 8SM CLR 31/M03 A3022 RMK AO2,M
RTS,2024-08-31 19:15,-119.8764,39.6682,1539.00,84.20,21.20,9.76,0.00,0.00,0.00,30.25,M,10.00,12.00,CLR,M,M,M,M,M,M,M,M,M,M,M,M,M,M,80.77,KRTS 311915Z AUTO 00000G12KT 10SM CLR 29/M06 A3025 RMK AO2,M
MEV,2024-08-31 19:15,-119.7500,38.9963,1441.42,86.00,28.40,12.44,310.00,5.00,0.00,30.21,M,8.00,M,CLR,M,M,M,M,M,M,M,M,M,M,M,M,M,M,82.54,KMEV 311915Z AUTO 31005KT 8SM CLR 30/M02 A3021 RMK AO2,M
BAM,2024-08-31 19:15,-116.8743,40.5990,1382.36,86.00,24.80,10.72,320.00,4.00,0.00,30.23,M,7.00,M,CLR,M,M,M,M,M,M,M,M,M,M,M,M,M,M,82.26,KBAM 311915Z AUTO 32004KT 7SM CLR 30/M04 A3023 RMK AO1,M
HTH,2024-08-31 19:15,-118.6315,38.5448,1282.89,86.00,24.80,10.72,M,4.00,0.00,30.19,M,10.00,M,CLR,M,M,M,M,M,M,M,M,M,M,M,M,M,M,82.26,KHTH 311915Z AUTO VRB04KT 10SM CLR 30/M04 A3019 RMK A01,M
TMT,2024-08-31 19:15,-117.1971,39.4643,1749.34,85.30,19.80,8.88,340.00,3.00,0.00,30.29,M,10.00,M,CLR,M,M,M,M,M,M,M,M,M,M,M,M,M,M,81.47,KTMT 311915Z AUTO 34003KT 10SM CLR 30/M07 A3029 RMK AO2 T02961068,M
10U,2024-08-31 19:15,-116.1876,41.9532,1637.00,86.00,10.40,5.76,M,3.00,0.00,30.28,M,10.00,M,CLR,M,M,M,M,M,M,M,M,M,M,M,M,M,M,81.58,K10U 311915Z AUTO VRB03KT 10SM CLR 30/M12 A3028 RMK AO2,M
05U,2024-08-31 19:30,-116.0051,39.6042,1811.23,84.20,21.20,9.76,0.00,0.00,0.00,30.31,M,10.00,M,CLR,M,M,M,M,M,M,M,M,M,M,M,M,M,M,80.77,K05U 311930Z AUTO 00000KT 10SM CLR 29/M06 A3031 RMK A01,M
BVU,2024-08-31 19:35,-114.8611,35.9475,671.00,100.40,39.20,12.25,10.00,4.00,0.00,29.99,M,10.00,11.00,CLR,M,M,M,M,M,M,M,M,M,M,M,M,M,M,95.43,KBVU 311935Z AUTO 01004G11KT 10SM CLR 38/04 A2999 RMK AO2,M
CXP,2024-08-31 19:35,-119.7326,39.1923,1431.00,87.80,26.60,10.91,M,5.00,0.00,30.21,M,8.00,M,CLR,M,M,M,M,M,M,M,M,M,M,M,M,M,M,83.69,KCXP 311935Z AUTO VRB05KT 8SM CLR 31/M03 A3021 RMK AO2,M
RTS,2024-08-31 19:35,-119.8764,39.6682,1539.00,86.00,21.20,9.21,160.00,9.00,0.00,30.24,M,10.00,M,CLR,M,M,M,M,M,M,M,M,M,M,M,M,M,M,82.04,KRTS 311935Z AUTO 16009KT 130V190 10SM CLR 30/M06 A3024 RMK AO2,M
MEV,2024-08-31 19:35,-119.7500,38.9963,1441.42,87.80,26.60,10.91,M,6.00,0.00,30.19,M,9.00,M,CLR,M,M,M,M,M,M,M,M,M,M,M,M,M,M,83.69,KMEV 311935Z AUTO VRB06KT 9SM CLR 31/M03 A3019 RMK AO2,M
BAM,2024-08-31 19:35,-116.8743,40.5990,1382.36,87.80,24.80,10.12,350.00,4.00,0.00,30.21,M,10.00,M,CLR,M,M,M,M,M,M,M,M,M,M,M,M,M,M,83.56,KBAM 311935Z AUTO 35004KT 10SM CLR 31/M04 A3021 RMK AO1,M
HTH,2024-08-31 19:35,-118.6315,38.5448,1282.89,87.80,23.00,9.39,M,5.00,0.00,30.18,M,10.00,M,CLR,M,M,M,M,M,M,M,M,M,M,M,M,M,M,83.43,KHTH 311935Z AUTO VRB05KT 10SM CLR 31/M05 A3018 RMK A01,M
TMT,2024-08-31 19:35,-117.1971,39.4643,1749.34,85.30,20.00,8.95,340.00,4.00,0.00,30.28,M,10.00,M,CLR,M,M,M,M,M,M,M,M,M,M,M,M,M,M,81.48,KTMT 311935Z AUTO 34004KT 10SM CLR 30/M07 A3028 RMK AO2 T02961067,M
10U,2024-08-31 19:35,-116.1876,41.9532,1637.00,84.20,12.20,6.61,0.00,0.00,0.00,30.27,M,10.00,M,CLR,M,M,M,M,M,M,M,M,M,M,M,M,M,M,80.37,K10U 311935Z AUTO 00000KT 10SM CLR 29/M11 A3027 RMK AO2,M
05U,2024-08-31 19:50,-116.0051,39.6042,1811.23,86.00,21.20,9.21,0.00,0.00,0.00,30.30,M,10.00,M,CLR,M,M,M,M,M,M,M,M,M,M,M,M,M,M,82.04,K05U 311950Z AUTO 00000KT 10SM CLR 30/M06 A3030 RMK A01,M
P68,2024-08-31 19:53,-116.0056,39.6014,1993.00,86.00,21.00,9.13,160.00,4.00,0.00,30.27,1016.80,M,M,M,M,M,M,M,M,M,M,M,M,M,M,M,M,M,82.02,KP68 311953Z AUTO 16004KT 30/M06 A3027 RMK AO1 SLP168 T03001061,M
DRA,2024-08-31 19:53,-116.0278,36.6206,1009.00,98.00,39.00,13.07,M,M,0.00,30.08,1013.00,10.00,M,CLR,M,M,M,M,M,M,M,M,M,M,M,M,M,M,93.33,KDRA 311953Z AUTO 10SM CLR 37/04 A3008 RMK AO2 SLP130 T03670039,M
ELY,2024-08-31 19:53,-114.8453,39.2950,1909.00,86.00,26.00,11.27,180.00,9.00,0.00,30.30,1016.40,10.00,15.00,CLR,M,M,M,M,M,M,M,M,M,M,M,M,M,M,82.35,KELY 311953Z AUTO 18009G15KT 10SM CLR 30/M03 A3030 RMK AO2 SLP164 T03001033,M
VGT,2024-08-31 19:53,-115.1933,36.2111,667.00,101.00,43.00,13.94,0.00,0.00,0.00,29.99,1014.20,10.00,M,CLR,M,M,M,M,M,M,M,M,M,M,M,M,M,M,96.64,KVGT 311953Z 00000KT 10SM CLR 38/06 A2999 RMK AO2 SLP142 T03830061,M
LOL,2024-08-31 19:53,-118.5701,40.0684,1192.43,90.00,23.00,8.76,M,3.00,0.00,30.15,1017.30,10.00,M,CLR,M,M,M,M,M,M,M,M,M,M,M,M,M,M,85.05,KLOL 311953Z AUTO VRB03KT 10SM CLR 32/M05 A3015 RMK AO2 SLP173 T03221050,M
BVU,2024-08-31 19:55,-114.8611,35.9475,671.00,100.40,39.20,12.25,M,5.00,0.00,29.98,M,10.00,M,CLR,M,M,M,M,M,M,M,M,M,M,M,M,M,M,95.43,KBVU 311955Z AUTO VRB05KT 10SM CLR 38/04 A2998 RMK AO2,M
RNO,2024-08-31 19:55,-119.7711,39.4839,1341.00,88.00,53.00,30.30,150.00,3.00,0.00,30.17,1015.70,10.00,M,FEW,M,M,M,14000.00,M,M,M,M,M,M,M,M,M,M,85.78,KRNO 311955Z 15003KT 10SM FEW140 31/12 A3017 RMK AO2 SLP157 T03110117,M
CXP,2024-08-31 19:55,-119.7326,39.1923,1431.00,87.80,23.00,9.39,0.00,0.00,0.00,30.20,M,10.00,M,CLR,M,M,M,M,M,M,M,M,M,M,M,M,M,M,83.43,KCXP 311955Z AUTO 00000KT 10SM CLR 31/M05 A3020 RMK AO2,M
LSV,2024-08-31 19:55,-115.0343,36.2362,570.00,102.00,32.40,8.92,0.00,0.00,0.00,29.94,1010.60,10.00,M,CLR,M,M,M,M,M,M,M,M,M,M,M,M,M,M,95.63,KLSV 311955Z AUTO 00000KT 10SM CLR 39/00 A2994 RMK AO2 SLP106 T03880002 $,M
RTS,2024-08-31 19:55,-119.8764,39.6682,1539.00,86.00,23.00,9.94,160.00,8.00,0.00,30.23,M,10.00,M,CLR,M,M,M,M,M,M,M,M,M,M,M,M,M,M,82.14,KRTS 311955Z AUTO 16008KT 10SM CLR 30/M05 A3023 RMK AO2,M
MEV,2024-08-31 19:55,-119.7500,38.9963,1441.42,87.80,28.40,11.74,320.00,8.00,0.00,30.18,M,10.00,M,CLR,M,M,M,M,M,M,M,M,M,M,M,M,M,M,83.84,KMEV 311955Z AUTO 32008KT 280V340 10SM CLR 31/M02 A3018 RMK AO2,M
BAM,2024-08-31 19:55,-116.8743,40.5990,1382.36,89.60,21.20,8.22,70.00,3.00,0.00,30.21,M,10.00,M,CLR,M,M,M,M,M,M,M,M,M,M,M,M,M,M,84.64,KBAM 311955Z AUTO 07003KT 10SM CLR 32/M06 A3021 RMK AO1,M
HTH,2024-08-31 19:55,-118.6315,38.5448,1282.89,87.80,23.00,9.39,0.00,0.00,0.00,30.16,M,10.00,M,CLR,M,M,M,M,M,M,M,M,M,M,M,M,M,M,83.43,KHTH 311955Z AUTO 00000KT 10SM CLR 31/M05 A3016 RMK A01,M
TMT,2024-08-31 19:55,-117.1971,39.4643,1749.34,86.50,21.60,9.22,260.00,3.00,0.00,30.28,M,10.00,M,CLR,M,M,M,M,M,M,M,M,M,M,M,M,M,M,82.41,KTMT 311955Z AUTO 26003KT 10SM CLR 30/M06 A3028 RMK AO2 T03031058,M
10U,2024-08-31 19:55,-116.1876,41.9532,1637.00,86.00,12.20,6.24,10.00,6.00,0.00,30.26,M,10.00,M,CLR,M,M,M,M,M,M,M,M,M,M,M,M,M,M,81.64,K10U 311955Z AUTO 01006KT 10SM CLR 30/M11 A3026 RMK AO2,M
INS,2024-08-31 19:55,-115.6733,36.5872,955.00,96.30,33.30,10.99,70.00,7.00,0.00,30.08,1012.60,10.00,M,BKN,OVC,M,M,12000.00,15000.00,M,M,M,M,M,M,M,M,M,90.95,KINS 311955Z AUTO 07007KT 10SM BKN120 OVC150 36/01 A3008 RMK AO2 SLP126 T03570007,M
EKO,2024-08-31 19:56,-115.7860,40.8242,1367.00,88.00,8.00,4.85,0.00,0.00,0.00,30.23,1018.60,10.00,M,CLR,M,M,M,M,M,M,M,M,M,M,M,M,M,M,82.95,KEKO 311956Z AUTO 00000KT 10SM CLR 31/M13 A3023 RMK AO2 SLP186 T03111133,M
HND,2024-08-31 19:56,-115.1344,35.9729,742.79,100.00,44.00,14.92,320.00,4.00,0.00,30.04,1015.30,10.00,M,CLR,M,M,M,M,M,M,M,M,M,M,M,M,M,M,95.83,KHND 311956Z 32004KT 10SM CLR 38/07 A3004 RMK AO2 SLP153 T03780067,M
TPH,2024-08-31 19:56,-117.0904,38.0505,1654.00,88.00,33.00,14.06,120.00,8.00,0.00,30.26,1016.20,10.00,M,CLR,M,M,M,M,M,M,M,M,M,M,M,M,M,M,84.25,KTPH 311956Z AUTO 12008KT 100V200 10SM CLR 31/01 A3026 RMK AO2 SLP162 T03110006,M
LAS,2024-08-31 19:56,-115.1634,36.0719,663.00,101.00,50.00,18.15,60.00,5.00,0.00,30.01,1013.10,10.00,M,FEW,FEW,SCT,M,6000.00,11000.00,25000.00,M,M,M,M,M,M,M,M,98.04,KLAS 311956Z 06005KT 10SM FEW060 FEW110 SCT250 39/10 A3001 RMK AO2 SLP131 T03830100 $,M
NFL,2024-08-31 19:57,-118.7010,39.4166,1199.00,89.00,20.00,7.96,260.00,4.00,0.00,30.15,1017.50,10.00,M,CLR,M,M,M,M,M,M,M,M,M,M,M,M,M,M,84.13,KNFL 311957Z AUTO 26004KT 10SM CLR 32/M07 A3015 RMK AO2 SLP175 T03171067,M
INS,2024-08-31 20:06,-115.6733,36.5872,955.00,96.80,35.60,11.86,210.00,21.00,0.00,30.07,1012.40,10.00,26.00,BKN,OVC,M,M,13000.00,15000.00,M,M,M,M,M,M,M,M,M,91.72,KINS 312006Z AUTO 21021G26KT 10SM BKN130 OVC150 36/02 A3007 RMK AO2 WSHFT 04 SLP124,M
05U,2024-08-31 20:10,-116.0051,39.6042,1811.23,86.00,21.20,9.21,0.00,0.00,0.00,30.30,M,10.00,M,CLR,M,M,M,M,M,M,M,M,M,M,M,M,M,M,82.04,K05U 312010Z AUTO 00000KT 10SM CLR 30/M06 A3030 RMK A01,M
BVU,2024-08-31 20:15,-114.8611,35.9475,671.00,102.20,39.20,11.60,20.00,5.00,0.00,29.97,M,10.00,M,CLR,M,M,M,M,M,M,M,M,M,M,M,M,M,M,96.99,KBVU 312015Z AUTO 02005KT 10SM CLR 39/04 A2997 RMK AO2,M
CXP,2024-08-31 20:15,-119.7326,39.1923,1431.00,89.60,21.20,8.22,M,4.00,0.00,30.19,M,9.00,M,CLR,M,M,M,M,M,M,M,M,M,M,M,M,M,M,84.64,KCXP 312015Z AUTO VRB04KT 9SM CLR 32/M06 A3019 RMK AO2,M
RTS,2024-08-31 20:15,-119.8764,39.6682,1539.00,87.80,23.00,9.39,190.00,8.00,0.00,30.22,M,10.00,13.00,CLR,M,M,M,M,M,M,M,M,M,M,M,M,M,M,83.43,KRTS 312015Z AUTO 19008G13KT 10SM CLR 31/M05 A3022 RMK AO2,M
MEV,2024-08-31 20:15,-119.7500,38.9963,1441.42,89.60,26.60,10.30,M,5.00,0.00,30.17,M,9.00,10.00,CLR,M,M,M,M,M,M,M,M,M,M,M,M,M,M,85.02,KMEV 312015Z AUTO VRB05G10KT 9SM CLR 32/M03 A3017 RMK AO2,M
BAM,2024-08-31 20:15,-116.8743,40.5990,1382.36,89.60,19.40,7.61,0.00,0.00,0.00,30.20,M,10.00,M,CLR,M,M,M,M,M,M,M,M,M,M,M,M,M,M,84.54,KBAM 312015Z AUTO 00000KT 10SM CLR 32/M07 A3020 RMK AO1,M
HTH,2024-08-31 20:15,-118.6315,38.5448,1282.89,89.60,23.00,8.87,M,6.00,0.00,30.15,M,10.00,M,CLR,M,M,M,M,M,M,M,M,M,M,M,M,M,M,84.75,KHTH 312015Z AUTO VRB06KT 330V030 10SM CLR 32/M05 A3015 RMK A01,M
TMT,2024-08-31 20:15,-117.1971,39.4643,1749.34,87.00,23.00,9.63,240.00,5.00,0.00,30.27,M,10.00,M,CLR,M,M,M,M,M,M,M,M,M,M,M,M,M,M,82.86,KTMT 312015Z AUTO 24005KT 10SM CLR 31/M05 A3027 RMK AO2 T03051051,M
10U,2024-08-31 20:15,-116.1876,41.9532,1637.00,87.80,10.40,5.44,M,3.00,0.00,30.26,M,10.00,M,CLR,M,M,M,M,M,M,M,M,M,M,M,M,M,M,82.88,K10U 312015Z AUTO VRB03KT 10SM CLR 31/M12 A3026 RMK AO2,M
05U,2024-08-31 20:30,-116.0051,39.6042,1811.23,86.00,21.20,9.21,0.00,0.00,0.00,30.28,M,10.00,M,CLR,M,M,M,M,M,M,M,M,M,M,M,M,M,M,82.04,K05U 312030Z AUTO 00000KT 10SM CLR 30/M06 A3028 RMK A01,M
BVU,2024-08-31 20:35,-114.8611,35.9475,671.00,102.20,39.20,11.60,10.00,5.00,0.00,29.96,M,10.00,11.00,CLR,M,M,M,M,M,M,M,M,M,M,M,M,M,M,96.99,KBVU 312035Z AUTO 01005G11KT 10SM CLR 39/04 A2996 RMK AO2,M
CXP,2024-08-31 20:35,-119.7326,39.1923,1431.00,89.60,19.40,7.61,0.00,0.00,0.00,30.18,M,10.00,M,CLR,M,M,M,M,M,M,M,M,M,M,M,M,M,M,84.54,KCXP 312035Z AUTO 00000KT 10SM CLR 32/M07 A3018 RMK AO2,M
RTS,2024-08-31 20:35,-119.8764,39.6682,1539.00,87.80,23.00,9.39,160.00,10.00,0.00,30.21,M,10.00,M,CLR,M,M,M,M,M,M,M,M,M,M,M,M,M,M,83.43,KRTS 312035Z AUTO 16010KT 10SM CLR 31/M05 A3021 RMK AO2,M
MEV,2024-08-31 20:35,-119.7500,38.9963,1441.42,89.60,26.60,10.30,M,3.00,0.00,30.16,M,8.00,M,CLR,M,M,M,M,M,M,M,M,M,M,M,M,M,M,85.02,KMEV 312035Z AUTO VRB03KT 8SM CLR 32/M03 A3016 RMK AO2,M
HTH,2024-08-31 20:35,-118.6315,38.5448,1282.89,91.40,21.20,7.77,M,6.00,0.00,30.14,M,10.00,M,CLR,M,M,M,M,M,M,M,M,M,M,M,M,M,M,85.96,KHTH 312035Z AUTO VRB06KT 10SM CLR 33/M06 A3014 RMK A01,M
TMT,2024-08-31 20:35,-117.1971,39.4643,1749.34,87.00,24.00,10.04,260.00,6.00,0.00,30.27,M,10.00,M,CLR,M,M,M,M,M,M,M,M,M,M,M,M,M,M,82.92,KTMT 312035Z AUTO 26006KT 10SM CLR 31/M04 A3027 RMK AO2 T03061045,M
10U,2024-08-31 20:35,-116.1876,41.9532,1637.00,87.80,8.60,5.02,140.00,7.00,0.00,30.25,M,10.00,M,CLR,M,M,M,M,M,M,M,M,M,M,M,M,M,M,82.82,K10U 312035Z AUTO 14007KT 10SM CLR 31/M13 A3025 RMK AO2,M
05U,2024-08-31 20:50,-116.0051,39.6042,1811.23,89.60,24.80,9.56,0.00,0.00,0.00,30.27,M,10.00,M,CLR,M,M,M,M,M,M,M,M,M,M,M,M,M,M,84.88,K05U 312050Z AUTO 00000KT 10SM CLR 32/M04 A3027 RMK A01,M
P68,2024-08-31 20:53,-116.0056,39.6014,1993.00,88.00,24.00,9.73,M,5.00,0.00,30.24,1015.80,M,M,M,M,M,M,M,M,M,M,M,M,M,M,M,M,M,83.65,KP68 312053Z AUTO VRB05KT 31/M04 A3024 RMK AO1 SLP158 T03111044 58022,M
DRA,2024-08-31 20:53,-116.0278,36.6206,1009.00,98.00,39.00,13.07,110.00,19.00,0.00,30.06,1012.50,10.00,24.00,CLR,M,M,M,M,M,M,M,M,M,M,M,28.00,130.00,2024-08-31 20:21,93.33,KDRA 312053Z AUTO 11019G24KT 10SM CLR 37/04 A3006 RMK AO2 PK WND 13028/2021 SLP125 T03670039 56017,M
ELY,2024-08-31 20:53,-114.8453,39.2950,1909.00,88.00,25.00,10.14,150.00,5.00,0.00,30.28,1015.50,10.00,M,CLR,M,M,M,M,M,M,M,M,M,M,M,M,M,M,83.71,KELY 312053Z AUTO 15005KT 10SM CLR 31/M04 A3028 RMK AO2 SLP155 T03111039 58020,M
VGT,2024-08-31 20:53,-115.1933,36.2111,667.00,103.00,42.00,12.63,80.00,4.00,0.00,29.96,1013.00,10.00,M,CLR,M,M,M,M,M,M,M,M,M,M,M,M,M,M,98.33,KVGT 312053Z 08004KT 10SM CLR 39/06 A2996 RMK AO2 SLP130 T03940056 58027,M
LOL,2024-08-31 20:53,-118.5701,40.0684,1192.43,92.00,18.00,6.65,M,4.00,0.00,30.12,1016.50,10.00,M,CLR,M,M,M,M,M,M,M,M,M,M,M,M,M,M,86.22,KLOL 312053Z AUTO VRB04KT 10SM CLR 33/M08 A3012 RMK AO2 SLP165 T03331078 58018,M
BVU,2024-08-31 20:55,-114.8611,35.9475,671.00,102.20,37.40,10.81,M,3.00,0.00,29.95,M,10.00,M,CLR,M,M,M,M,M,M,M,M,M,M,M,M,M,M,96.63,KBVU 312055Z AUTO VRB03KT 10SM CLR 39/03 A2995 RMK AO2,M
INS,2024-08-31 20:55,-115.6733,36.5872,955.00,96.30,35.40,11.95,220.00,13.00,0.00,30.05,1011.60,10.00,M,CLR,M,M,M,M,M,M,M,M,M,M,M,30.00,240.00,2024-08-31 20:11,91.28,KINS 312055Z AUTO 22013KT 10SM CLR 36/02 A3005 RMK AO2 PK WND 24030/11 SLP116 T03570019 57020,M
RNO,2024-08-31 20:55,-119.7711,39.4839,1341.00,93.00,56.00,28.90,90.00,6.00,0.00,30.14,1014.40,10.00,M,FEW,M,M,M,14000.00,M,M,M,M,M,M,M,M,M,M,91.32,KRNO 312055Z 09006KT 10SM FEW140 34/13 A3014 RMK AO2 SLP144 T03390133 58022,M
CXP,2024-08-31 20:55,-119.7326,39.1923,1431.00,89.60,19.40,7.61,90.00,4.00,0.00,30.18,M,10.00,14.00,CLR,M,M,M,M,M,M,M,M,M,M,M,M,M,M,84.54,KCXP 312055Z AUTO 09004G14KT 10SM CLR 32/M07 A3018 RMK AO2,M
RTS,2024-08-31 20:55,-119.8764,39.6682,1539.00,87.80,19.40,8.06,M,6.00,0.00,30.21,M,10.00,18.00,CLR,M,M,M,M,M,M,M,M,M,M,M,M,M,M,83.23,KRTS 312055Z AUTO VRB06G18KT 10SM CLR 31/M07 A3021 RMK AO2,M
MEV,2024-08-31 20:55,-119.7500,38.9963,1441.42,91.40,26.60,9.74,M,6.00,0.00,30.16,M,9.00,M,CLR,M,M,M,M,M,M,M,M,M,M,M,M,M,M,86.36,KMEV 312055Z AUTO VRB06KT 9SM CLR 33/M03 A3016 RMK AO2,M
BAM,2024-08-31 20:55,-116.8743,40.5990,1382.36,91.40,17.60,6.66,0.00,0.00,0.00,30.19,M,10.00,M,CLR,M,M,M,M,M,M,M,M,M,M,M,M,M,M,85.76,KBAM 312055Z AUTO 00000KT 10SM CLR 33/M08 A3019 RMK AO1,M
HTH,2024-08-31 20:55,-118.6315,38.5448,1282.89,91.40,21.20,7.77,290.00,7.00,0.00,30.13,M,10.00,13.00,CLR,M,M,M,M,M,M,M,M,M,M,M,M,M,M,85.96,KHTH 312055Z AUTO 29007G13KT 10SM CLR 33/M06 A3013 RMK A01,M
TMT,2024-08-31 20:55,-117.1971,39.4643,1749.34,86.00,22.00,9.53,250.00,3.00,0.00,30.26,M,10.00,M,CLR,M,M,M,M,M,M,M,M,M,M,M,M,M,M,82.08,KTMT 312055Z AUTO 25003KT 10SM CLR 30/M05 A3026 RMK AO2 T03011055,M
10U,2024-08-31 20:55,-116.1876,41.9532,1637.00,87.80,8.60,5.02,M,4.00,0.00,30.24,M,10.00,12.00,CLR,M,M,M,M,M,M,M,M,M,M,M,M,M,M,82.82,K10U 312055Z AUTO VRB04G12KT 10SM CLR 31/M13 A3024 RMK AO2,M
LSV,2024-08-31 20:55,-115.0343,36.2362,570.00,102.70,33.00,8.94,180.00,3.00,0.00,29.91,1009.60,10.00,M,CLR,M,M,M,M,M,M,M,M,M,M,M,M,M,M,96.31,KLSV 312055Z AUTO 18003KT 10SM CLR 39/01 A2991 RMK AO2 SLP096 T03930006 57027 $,M
EKO,2024-08-31 20:56,-115.7860,40.8242,1367.00,90.00,14.00,5.95,M,3.00,0.00,30.20,1017.60,10.00,M,CLR,M,M,M,M,M,M,M,M,M,M,M,M,M,M,84.59,KEKO 312056Z AUTO VRB03KT 10SM CLR 32/M10 A3020 RMK AO2 SLP176 T03221100 58024,M
HND,2024-08-31 20:56,-115.1344,35.9729,742.79,102.00,42.00,13.01,M,5.00,0.00,30.00,1013.90,10.00,M,CLR,M,M,M,M,M,M,M,M,M,M,M,M,M,M,97.45,KHND 312056Z VRB05KT 10SM CLR 39/06 A3000 RMK AO2 SLP139 T03890056 58027,M
TPH,2024-08-31 20:56,-117.0904,38.0505,1654.00,87.00,33.00,14.52,0.00,0.00,0.00,30.24,1015.80,10.00,M,CLR,M,M,M,M,M,M,M,M,M,M,M,M,M,M,83.44,KTPH 312056Z AUTO 00000KT 10SM CLR 31/01 A3024 RMK AO2 SLP158 T03060006 58021,M
LAS,2024-08-31 20:56,-115.1634,36.0719,663.00,102.00,34.00,9.51,M,M,0.00,29.97,1011.90,10.00,M,FEW,M,M,M,9000.00,M,M,M,M,M,M,M,M,M,M,95.87,KLAS 312056Z 10SM FEW090 39/01 A2997 RMK AO2 SLP119 CB DSNT E T03890011 58027 $,M
NFL,2024-08-31 20:57,-118.7010,39.4166,1199.00,93.00,24.00,8.31,260.00,4.00,0.00,30.12,1016.40,10.00,M,CLR,M,M,M,M,M,M,M,M,M,M,M,M,M,M,87.35,KNFL 312057Z AUTO 26004KT 10SM CLR 34/M04 A3012 RMK AO2 SLP164 T03391044 58023,M
LAS,2024-08-31 21:01,-115.1634,36.0719,663.00,102.00,34.00,9.51,M,5.00,0.00,29.97,M,10.00,M,FEW,M,M,M,9000.00,M,M,M,M,M,M,M,M,M,M,95.87,KLAS 312101Z VRB05KT 10SM FEW090 39/01 A2997 RMK AO2 CB DSNT E T03890011 $,M
05U,2024-08-31 21:10,-116.0051,39.6042,1811.23,86.00,21.20,9.21,0.00,0.00,0.00,30.27,M,10.00,M,CLR,M,M,M,M,M,M,M,M,M,M,M,M,M,M,82.04,K05U 312110Z AUTO 00000KT 10SM CLR 30/M06 A3027 RMK A01,M
BVU,2024-08-31 21:15,-114.8611,35.9475,671.00,102.20,37.40,10.81,190.00,9.00,0.00,29.94,M,10.00,15.00,CLR,M,M,M,M,M,M,M,M,M,M,M,M,M,M,96.63,KBVU 312115Z AUTO 19009G15KT 150V230 10SM CLR 39/03 A2994 RMK AO2,M
CXP,2024-08-31 21:15,-119.7326,39.1923,1431.00,91.40,19.40,7.19,M,5.00,0.00,30.16,M,10.00,M,CLR,M,M,M,M,M,M,M,M,M,M,M,M,M,M,85.86,KCXP 312115Z AUTO VRB05KT 10SM CLR 33/M07 A3016 RMK AO2,M
RTS,2024-08-31 21:15,-119.8764,39.6682,1539.00,89.60,21.20,8.22,150.00,7.00,0.00,30.20,M,10.00,M,CLR,M,M,M,M,M,M,M,M,M,M,M,M,M,M,84.64,KRTS 312115Z AUTO 15007KT 10SM CLR 32/M06 A3020 RMK AO2,M
MEV,2024-08-31 21:15,-119.7500,38.9963,1441.42,91.40,26.60,9.74,260.00,9.00,0.00,30.15,M,9.00,M,CLR,M,M,M,M,M,M,M,M,M,M,M,M,M,M,86.36,KMEV 312115Z AUTO 26009KT 210V300 9SM CLR 33/M03 A3015 RMK AO2,M
BAM,2024-08-31 21:15,-116.8743,40.5990,1382.36,91.40,19.40,7.19,20.00,3.00,0.00,30.17,M,7.00,M,CLR,M,M,M,M,M,M,M,M,M,M,M,M,M,M,85.86,KBAM 312115Z AUTO 02003KT 7SM CLR 33/M07 A3017 RMK AO1,M
HTH,2024-08-31 21:15,-118.6315,38.5448,1282.89,93.20,21.20,7.34,340.00,6.00,0.00,30.12,M,10.00,M,CLR,M,M,M,M,M,M,M,M,M,M,M,M,M,M,87.29,KHTH 312115Z AUTO 34006KT 10SM CLR 34/M06 A3012 RMK A01,M
TMT,2024-08-31 21:15,-117.1971,39.4643,1749.34,86.70,23.00,9.72,250.00,3.00,0.00,30.25,M,10.00,M,CLR,M,M,M,M,M,M,M,M,M,M,M,M,M,M,82.64,KTMT 312115Z AUTO 25003KT 10SM CLR 30/M05 A3025 RMK AO2 T03041051,M
10U,2024-08-31 21:15,-116.1876,41.9532,1637.00,87.80,8.60,5.02,M,5.00,0.00,30.23,M,10.00,M,CLR,M,M,M,M,M,M,M,M,M,M,M,M,M,M,82.82,K10U 312115Z AUTO VRB05KT 10SM CLR 31/M13 A3023 RMK AO2,M
05U,2024-08-31 21:30,-116.0051,39.6042,1811.23,87.80,21.20,8.70,0.00,0.00,0.00,30.26,M,10.00,M,CLR,M,M,M,M,M,M,M,M,M,M,M,M,M,M,83.33,K05U 312130Z AUTO 00000KT 10SM CLR 31/M06 A3026 RMK A01,M
BVU,2024-08-31 21:35,-114.8611,35.9475,671.00,102.20,37.40,10.81,0.00,0.00,0.00,29.93,M,10.00,M,CLR,M,M,M,M,M,M,M,M,M,M,M,M,M,M,96.63,KBVU 312135Z AUTO 00000KT 10SM CLR 39/03 A2993 RMK AO2,M
CXP,2024-08-31 21:35,-119.7326,39.1923,1431.00,91.40,21.20,7.77,0.00,0.00,0.00,30.16,M,10.00,17.00,CLR,M,M,M,M,M,M,M,M,M,M,M,M,M,M,85.96,KCXP 312135Z AUTO 00000G17KT 10SM CLR 33/M06 A3016 RMK AO2,M
RTS,2024-08-31 21:35,-119.8764,39.6682,1539.00,89.60,21.20,8.22,190.00,5.00,0.00,30.19,M,10.00,11.00,CLR,M,M,M,M,M,M,M,M,M,M,M,M,M,M,84.64,KRTS 312135Z AUTO 19005G11KT 10SM CLR 32/M06 A3019 RMK AO2,M
MEV,2024-08-31 21:35,-119.7500,38.9963,1441.42,91.40,26.60,9.74,0.00,0.00,0.00,30.15,M,9.00,10.00,CLR,M,M,M,M,M,M,M,M,M,M,M,M,M,M,86.36,KMEV 312135Z AUTO 00000G10KT 9SM CLR 33/M03 A3015 RMK AO2,M
BAM,2024-08-31 21:35,-116.8743,40.5990,1382.36,91.40,19.40,7.19,0.00,0.00,0.00,30.16,M,7.00,M,CLR,M,M,M,M,M,M,M,M,M,M,M,M,M,M,85.86,KBAM 312135Z AUTO 00000KT 7SM CLR 33/M07 A3016 RMK AO1,M
HTH,2024-08-31 21:35,-118.6315,38.5448,1282.89,93.20,19.40,6.80,330.00,9.00,0.00,30.10,M,10.00,M,CLR,M,M,M,M,M,M,M,M,M,M,M,M,M,M,87.18,KHTH 312135Z AUTO 33009KT 10SM CLR 34/M07 A3010 RMK A01,M
TMT,2024-08-31 21:35,-117.1971,39.4643,1749.34,87.00,25.00,10.47,220.00,3.00,0.00,30.24,M,10.00,M,CLR,M,M,M,M,M,M,M,M,M,M,M,M,M,M,82.99,KTMT 312135Z AUTO 22003KT 10SM CLR 31/M04 A3024 RMK AO2 T03051039,M
10U,2024-08-31 21:35,-116.1876,41.9532,1637.00,89.60,8.60,4.74,M,5.00,0.00,30.22,M,10.00,M,CLR,M,M,M,M,M,M,M,M,M,M,M,M,M,M,84.12,K10U 312135Z AUTO VRB05KT 10SM CLR 32/M13 A3022 RMK AO2,M
05U,2024-08-31 21:50,-116.0051,39.6042,1811.23,86.00,21.20,9.21,0.00,0.00,0.00,30.26,M,10.00,M,CLR,M,M,M,M,M,M,M,M,M,M,M,M,M,M,82.04,K05U 312150Z AUTO 00000KT 10SM CLR 30/M06 A3026 RMK A01,M
P68,2024-08-31 21:53,-116.0056,39.6014,1993.00,86.00,21.00,9.13,180.00,5.00,0.00,30.23,1015.60,M,M,M,M,M,M,M,M,M,M,M,M,M,M,M,M,M,82.02,KP68 312153Z AUTO 18005KT 30/M06 A3023 RMK AO1 SLP156 T03001061,M
DRA,2024-08-31 21:53,-116.0278,36.6206,1009.00,98.00,39.00,13.07,M,3.00,0.00,30.03,1011.60,10.00,M,CLR,M,M,M,M,M,M,M,M,M,M,M,M,M,M,93.33,KDRA 312153Z AUTO VRB03KT 10SM CLR 37/04 A3003 RMK AO2 SLP116 T03670039,M
ELY,2024-08-31 21:53,-114.8453,39.2950,1909.00,85.00,31.00,14.28,200.00,17.00,0.00,30.27,1015.80,10.00,M,CLR,M,M,M,M,M,M,M,M,M,M,M,26.00,220.00,2024-08-31 21:34,81.87,KELY 312153Z AUTO 20017KT 10SM CLR 29/M01 A3027 RMK AO2 PK WND 22026/2134 SLP158 T02941006,M
VGT,2024-08-31 21:53,-115.1933,36.2111,667.00,103.00,41.00,12.15,110.00,5.00,0.00,29.93,1012.00,10.00,M,CLR,M,M,M,M,M,M,M,M,M,M,M,M,M,M,98.09,KVGT 312153Z 11005KT 10SM CLR 39/05 A2993 RMK AO2 SLP120 T03940050,M
LOL,2024-08-31 21:53,-118.5701,40.0684,1192.43,95.00,22.00,7.18,260.00,6.00,0.00,30.09,1015.40,10.00,M,CLR,M,M,M,M,M,M,M,M,M,M,M,M,M,M,88.68,KLOL 312153Z AUTO 26006KT 10SM CLR 35/M06 A3009 RMK AO2 SLP154 T03501056,M
BVU,2024-08-31 21:55,-114.8611,35.9475,671.00,104.00,37.40,10.25,330.00,6.00,0.00,29.92,M,10.00,M,CLR,M,M,M,M,M,M,M,M,M,M,M,M,M,M,98.19,KBVU 312155Z AUTO 33006KT 10SM CLR 40/03 A2992 RMK AO2,M
RNO,2024-08-31 21:55,-119.7711,39.4839,1341.00,94.00,59.00,31.21,80.00,7.00,0.00,30.11,1013.50,10.00,M,SCT,M,M,M,14000.00,M,M,M,M,M,M,M,M,M,M,93.42,KRNO 312155Z 08007KT 040V110 10SM SCT140 34/15 A3011 RMK AO2 SLP135 T03440150,M
LSV,2024-08-31 21:55,-115.0343,36.2362,570.00,104.40,31.30,7.94,250.00,6.00,0.00,29.88,1008.60,10.00,M,CLR,M,M,M,M,M,M,M,M,M,M,M,M,M,M,97.52,KLSV 312155Z AUTO 25006KT 10SM CLR 40/M00 A2988 RMK AO2 SLP086 T04021004 $,M
CXP,2024-08-31 21:55,-119.7326,39.1923,1431.00,91.40,24.80,9.04,M,4.00,0.00,30.15,M,10.00,12.00,CLR,M,M,M,M,M,M,M,M,M,M,M,M,M,M,86.21,KCXP 312155Z AUTO VRB04G12KT 10SM CLR 33/M04 A3015 RMK AO2,M
RTS,2024-08-31 21:55,-119.8764,39.6682,1539.00,89.60,19.40,7.61,140.00,6.00,0.00,30.18,M,10.00,12.00,CLR,M,M,M,M,M,M,M,M,M,M,M,M,M,M,84.54,KRTS 312155Z AUTO 14006G12KT 10SM CLR 32/M07 A3018 RMK AO2,M
MEV,2024-08-31 21:55,-119.7500,38.9963,1441.42,93.20,26.60,9.21,270.00,9.00,0.00,30.14,M,9.00,14.00,CLR,M,M,M,M,M,M,M,M,M,M,M,M,M,M,87.72,KMEV 312155Z AUTO 27009G14KT 240V310 9SM CLR 34/M03 A3014 RMK AO2,M
BAM,2024-08-31 21:55,-116.8743,40.5990,1382.36,93.20,19.40,6.80,330.00,3.00,0.00,30.15,M,10.00,M,CLR,M,M,M,M,M,M,M,M,M,M,M,M,M,M,87.18,KBAM 312155Z AUTO 33003KT 10SM CLR 34/M07 A3015 RMK AO1,M
HTH,2024-08-31 21:55,-118.6315,38.5448,1282.89,95.00,21.20,6.95,360.00,9.00,0.00,30.09,M,10.00,M,CLR,M,M,M,M,M,M,M,M,M,M,M,M,M,M,88.62,KHTH 312155Z AUTO 36009KT 10SM CLR 35/M06 A3009 RMK A01,M
TMT,2024-08-31 21:55,-117.1971,39.4643,1749.34,87.00,24.40,10.21,230.00,4.00,0.00,30.24,M,10.00,M,CLR,M,M,M,M,M,M,M,M,M,M,M,M,M,M,82.95,KTMT 312155Z AUTO 23004KT 10SM CLR 31/M04 A3024 RMK AO2 T03051042,M
10U,2024-08-31 21:55,-116.1876,41.9532,1637.00,89.60,6.80,4.37,M,3.00,0.00,30.21,M,10.00,M,CLR,M,M,M,M,M,M,M,M,M,M,M,M,M,M,84.07,K10U 312155Z AUTO VRB03KT 10SM CLR 32/M14 A3021 RMK AO2,M
INS,2024-08-31 21:55,-115.6733,36.5872,955.00,95.70,35.00,11.98,190.00,12.00,0.00,30.03,1011.00,10.00,M,CLR,M,M,M,M,M,M,M,M,M,M,M,M,M,M,90.72,KINS 312155Z AUTO 19012KT 10SM CLR 35/02 A3003 RMK AO2 SLP110 T03540016,M
EKO,2024-08-31 21:56,-115.7860,40.8242,1367.00,92.00,18.00,6.65,M,M,0.00,30.17,1016.20,10.00,M,CLR,M,M,M,M,M,M,M,M,M,M,M,M,M,M,86.22,KEKO 312156Z AUTO 10SM CLR 33/M08 A3017 RMK AO2 SLP162 T03331078,M
HND,2024-08-31 21:56,-115.1344,35.9729,742.79,102.00,43.00,13.52,M,3.00,0.00,29.97,1013.00,10.00,M,CLR,M,M,M,M,M,M,M,M,M,M,M,M,M,M,97.60,KHND 312156Z VRB03KT 10SM CLR 39/06 A2997 RMK AO2 SLP130 T03890061,M
TPH,2024-08-31 21:56,-117.0904,38.0505,1654.00,89.00,32.00,13.09,M,6.00,0.00,30.21,1014.80,10.00,19.00,BKN,M,M,M,12000.00,M,M,M,M,M,M,M,M,M,M,85.07,KTPH 312156Z AUTO VRB06G19KT 10SM BKN120 32/00 A3021 RMK AO2 SLP148 T03170000,M
LAS,2024-08-31 21:56,-115.1634,36.0719,663.00,103.00,34.00,9.23,M,3.00,0.00,29.94,1011.00,10.00,M,FEW,M,M,M,9000.00,M,M,M,M,M,M,M,M,M,M,96.72,KLAS 312156Z VRB03KT 10SM FEW090 39/01 A2994 RMK AO2 SLP110 CB DSNT SE T03940011 $,M
NFL,2024-08-31 21:57,-118.7010,39.4166,1199.00,97.00,27.00,8.32,100.00,5.00,0.00,30.08,1015.30,10.00,M,CLR,M,M,M,M,M,M,M,M,M,M,M,M,M,M,90.77,KNFL 312157Z AUTO 10005KT 10SM CLR 36/M03 A3008 RMK AO2 SLP153 T03611028,M
05U,2024-08-31 22:10,-116.0051,39.6042,1811.23,86.00,24.80,10.72,200.00,14.00,0.00,30.25,M,10.00,19.00,CLR,M,M,M,M,M,M,M,M,M,M,M,M,M,M,82.26,K05U 312210Z AUTO 20014G19KT 10SM CLR 30/M04 A3025 RMK A01,M
BVU,2024-08-31 22:15,-114.8611,35.9475,671.00,102.20,37.40,10.81,0.00,0.00,0.00,29.91,M,10.00,M,CLR,M,M,M,M,M,M,M,M,M,M,M,M,M,M,96.63,KBVU 312215Z AUTO 00000KT 10SM CLR 39/03 A2991 RMK AO2 LTG DSNT SE,M
CXP,2024-08-31 22:15,-119.7326,39.1923,1431.00,91.40,26.60,9.74,M,6.00,0.00,30.14,M,10.00,M,CLR,M,M,M,M,M,M,M,M,M,M,M,M,M,M,86.36,KCXP 312215Z AUTO VRB06KT 10SM CLR 33/M03 A3014 RMK AO2,M
RTS,2024-08-31 22:15,-119.8764,39.6682,1539.00,89.60,19.40,7.61,110.00,8.00,0.00,30.17,M,10.00,M,CLR,M,M,M,M,M,M,M,M,M,M,M,M,M,M,84.54,KRTS 312215Z AUTO 11008KT 10SM CLR 32/M07 A3017 RMK AO2,M
MEV,2024-08-31 22:15,-119.7500,38.9963,1441.42,93.20,28.40,9.91,240.00,6.00,0.00,30.13,M,10.00,15.00,CLR,M,M,M,M,M,M,M,M,M,M,M,M,M,M,87.89,KMEV 312215Z AUTO 24006G15KT 10SM CLR 34/M02 A3013 RMK AO2,M
BAM,2024-08-31 22:15,-116.8743,40.5990,1382.36,93.20,21.20,7.34,0.00,0.00,0.00,30.15,M,10.00,M,CLR,M,M,M,M,M,M,M,M,M,M,M,M,M,M,87.29,KBAM 312215Z AUTO 00000KT 10SM CLR 34/M06 A3015 RMK AO1,M
HTH,2024-08-31 22:15,-118.6315,38.5448,1282.89,95.00,21.20,6.95,10.00,7.00,0.00,30.09,M,10.00,M,CLR,M,M,M,M,M,M,M,M,M,M,M,M,M,M,88.62,KHTH 312215Z AUTO 01007KT 340V040 10SM CLR 35/M06 A3009 RMK A01,M
TMT,2024-08-31 22:15,-117.1971,39.4643,1749.34,88.50,35.00,14.99,120.00,14.00,0.00,30.24,M,10.00,22.00,CLR,M,M,M,M,M,M,M,M,M,M,M,M,M,M,84.69,KTMT 312215Z AUTO 12014G22KT 10SM CLR 31/02 A3024 RMK AO2 T03140017,M
10U,2024-08-31 22:15,-116.1876,41.9532,1637.00,89.60,6.80,4.37,250.00,12.00,0.00,30.21,M,10.00,18.00,CLR,M,M,M,M,M,M,M,M,M,M,M,M,M,M,84.07,K10U 312215Z AUTO 25012G18KT 10SM CLR 32/M14 A3021 RMK AO2,M
05U,2024-08-31 22:30,-116.0051,39.6042,1811.23,86.00,24.80,10.72,0.00,0.00,0.00,30.26,M,10.00,10.00,CLR,M,M,M,M,M,M,M,M,M,M,M,M,M,M,82.26,K05U 312230Z AUTO 00000G10KT 10SM CLR 30/M04 A3026 RMK A01,M
BVU,2024-08-31 22:35,-114.8611,35.9475,671.00,102.20,37.40,10.81,60.00,6.00,0.00,29.91,M,10.00,M,CLR,M,M,M,M,M,M,M,M,M,M,M,M,M,M,96.63,KBVU 312235Z AUTO 06006KT 10SM CLR 39/03 A2991 RMK AO2,M
CXP,2024-08-31 22:35,-119.7326,39.1923,1431.00,91.40,24.80,9.04,60.00,5.00,0.00,30.14,M,10.00,M,CLR,M,M,M,M,M,M,M,M,M,M,M,M,M,M,86.21,KCXP 312235Z AUTO 06005KT 10SM CLR 33/M04 A3014 RMK AO2,M
RTS,2024-08-31 22:35,-119.8764,39.6682,1539.00,89.60,17.60,7.05,M,4.00,0.00,30.17,M,10.00,M,CLR,M,M,M,M,M,M,M,M,M,M,M,M,M,M,84.45,KRTS 312235Z AUTO VRB04KT 10SM CLR 32/M08 A3017 RMK AO2,M
MEV,2024-08-31 22:35,-119.7500,38.9963,1441.42,91.40,30.20,11.28,240.00,13.00,0.00,30.13,M,10.00,M,CLR,M,M,M,M,M,M,M,M,M,M,M,M,M,M,86.71,KMEV 312235Z AUTO 24013KT 10SM CLR 33/M01 A3013 RMK AO2,M
BAM,2024-08-31 22:35,-116.8743,40.5990,1382.36,95.00,23.00,7.49,20.00,3.00,0.00,30.14,M,10.00,M,CLR,M,M,M,M,M,M,M,M,M,M,M,M,M,M,88.76,KBAM 312235Z AUTO 02003KT 10SM CLR 35/M05 A3014 RMK AO1,M
HTH,2024-08-31 22:35,-118.6315,38.5448,1282.89,95.00,21.20,6.95,340.00,8.00,0.00,30.08,M,10.00,M,CLR,M,M,M,M,M,M,M,M,M,M,M,M,M,M,88.62,KHTH 312235Z AUTO 34008KT 310V010 10SM CLR 35/M06 A3008 RMK A01,M
TMT,2024-08-31 22:35,-117.1971,39.4643,1749.34,86.00,32.00,14.40,130.00,5.00,0.00,30.24,M,10.00,M,CLR,M,M,M,M,M,M,M,M,M,M,M,M,M,M,82.64,KTMT 312235Z AUTO 13005KT 10SM CLR 30/00 A3024 RMK AO2 T03010000,M
10U,2024-08-31 22:35,-116.1876,41.9532,1637.00,89.60,5.00,4.03,200.00,6.00,0.00,30.20,M,10.00,12.00,CLR,M,M,M,M,M,M,M,M,M,M,M,M,M,M,84.03,K10U 312235Z AUTO 20006G12KT 10SM CLR 32/M15 A3020 RMK AO2,M
05U,2024-08-31 22:50,-116.0051,39.6042,1811.23,86.00,28.40,12.44,210.00,15.00,0.00,30.25,M,10.00,23.00,CLR,M,M,M,M,M,M,M,M,M,M,M,M,M,M,82.54,K05U 312250Z AUTO 21015G23KT 10SM CLR 30/M02 A3025 RMK A01,M
P68,2024-08-31 22:53,-116.0056,39.6014,1993.00,85.00,29.00,13.16,210.00,13.00,0.00,30.23,1015.50,M,29.00,M,M,M,M,M,M,M,M,M,M,M,M,29.00,200.00,2024-08-31 22:45,81.86,KP68 312253Z AUTO 21013G29KT 29/M02 A3023 RMK AO1 PK WND 20029/2245 SLP155 T02941017,M
DRA,2024-08-31 22:53,-116.0278,36.6206,1009.00,98.00,39.00,13.07,M,3.00,0.00,30.02,1011.10,10.00,M,CLR,M,M,M,M,M,M,M,M,M,M,M,M,M,M,93.33,KDRA 312253Z AUTO VRB03KT 10SM CLR 37/04 A3002 RMK AO2 SLP111 T03670039,M
ELY,2024-08-31 22:53,-114.8453,39.2950,1909.00,84.00,28.00,13.04,M,5.00,0.00,30.26,1015.90,10.00,M,CLR,M,M,M,M,M,M,M,M,M,M,M,M,M,M,81.10,KELY 312253Z AUTO VRB05KT 10SM CLR 29/M02 A3026 RMK AO2 SLP159 T02891022,M
VGT,2024-08-31 22:53,-115.1933,36.2111,667.00,104.00,41.00,11.79,240.00,5.00,0.00,29.91,1011.40,10.00,M,CLR,M,M,M,M,M,M,M,M,M,M,M,M,M,M,98.97,KVGT 312253Z 24005KT 10SM CLR 40/05 A2991 RMK AO2 SLP114 T04000050,M
LOL,2024-08-31 22:53,-118.5701,40.0684,1192.43,95.00,25.00,8.15,260.00,12.00,0.00,30.07,1014.60,10.00,M,CLR,M,M,M,M,M,M,M,M,M,M,M,M,M,M,88.93,KLOL 312253Z AUTO 26012KT 10SM CLR 35/M04 A3007 RMK AO2 SLP146 T03501039,M
BVU,2024-08-31 22:55,-114.8611,35.9475,671.00,102.20,37.40,10.81,100.00,6.00,0.00,29.91,M,10.00,M,CLR,M,M,M,M,M,M,M,M,M,M,M,M,M,M,96.63,KBVU 312255Z AUTO 10006KT 10SM CLR 39/03 A2991 RMK AO2 LTG DSNT NE-S,M
RNO,2024-08-31 22:55,-119.7711,39.4839,1341.00,94.00,58.00,30.11,60.00,5.00,0.00,30.10,1013.00,10.00,M,SCT,M,M,M,12000.00,M,M,M,M,M,M,M,M,M,M,93.04,KRNO 312255Z 06005KT 10SM SCT120 34/14 A3010 RMK AO2 SLP130 T03440144,M
CXP,2024-08-31 22:55,-119.7326,39.1923,1431.00,91.40,24.80,9.04,90.00,6.00,0.00,30.14,M,10.00,M,CLR,M,M,M,M,M,M,M,M,M,M,M,M,M,M,86.21,KCXP 312255Z AUTO 09006KT 10SM CLR 33/M04 A3014 RMK AO2,M
LSV,2024-08-31 22:55,-115.0343,36.2362,570.00,105.00,28.40,6.93,0.00,0.00,0.00,29.86,1007.80,10.00,M,CLR,M,M,M,M,M,M,M,M,M,M,M,M,M,M,97.65,KLSV 312255Z AUTO 00000KT 10SM CLR 41/M02 A2986 RMK AO2 SLP078 T04051020 $,M
RTS,2024-08-31 22:55,-119.8764,39.6682,1539.00,91.40,19.40,7.19,210.00,10.00,0.00,30.16,M,10.00,15.00,CLR,M,M,M,M,M,M,M,M,M,M,M,M,M,M,85.86,KRTS 312255Z AUTO 21010G15KT 10SM CLR 33/M07 A3016 RMK AO2,M
MEV,2024-08-31 22:55,-119.7500,38.9963,1441.42,91.40,32.00,12.14,240.00,14.00,0.00,30.13,M,10.00,19.00,CLR,M,M,M,M,M,M,M,M,M,M,M,M,M,M,86.91,KMEV 312255Z AUTO 24014G19KT 10SM CLR 33/00 A3013 RMK AO2,M
BAM,2024-08-31 22:55,-116.8743,40.5990,1382.36,95.00,24.80,8.08,10.00,5.00,0.00,30.13,M,10.00,M,CLR,M,M,M,M,M,M,M,M,M,M,M,M,M,M,88.91,KBAM 312255Z AUTO 01005KT 10SM CLR 35/M04 A3013 RMK AO1,M
HTH,2024-08-31 22:55,-118.6315,38.5448,1282.89,95.00,23.00,7.49,280.00,7.00,0.00,30.07,M,10.00,M,CLR,M,M,M,M,M,M,M,M,M,M,M,M,M,M,88.76,KHTH 312255Z AUTO 28007KT 240V320 10SM CLR 35/M05 A3007 RMK A01,M
TMT,2024-08-31 22:55,-117.1971,39.4643,1749.34,85.00,32.70,15.29,140.00,7.00,0.00,30.24,M,10.00,M,CLR,M,M,M,M,M,M,M,M,M,M,M,M,M,M,81.88,KTMT 312255Z AUTO 14007KT 10SM CLR 30/00 A3024 RMK AO2 T02950004,M
10U,2024-08-31 22:55,-116.1876,41.9532,1637.00,89.60,3.20,3.71,M,5.00,0.00,30.20,M,10.00,M,CLR,M,M,M,M,M,M,M,M,M,M,M,M,M,M,83.99,K10U 312255Z AUTO VRB05KT 10SM CLR 32/M16 A3020 RMK AO2,M
INS,2024-08-31 22:55,-115.6733,36.5872,955.00,96.00,35.00,11.87,160.00,6.00,0.00,30.01,1010.60,10.00,M,BKN,BKN,M,M,13000.00,15000.00,M,M,M,M,M,M,M,M,M,90.97,KINS 312255Z AUTO 16006KT 10SM BKN130 BKN150 36/02 A3001 RMK AO2 SLP106 T03550017,M
EKO,2024-08-31 22:56,-115.7860,40.8242,1367.00,93.00,21.00,7.33,220.00,6.00,0.00,30.15,1015.50,10.00,M,CLR,M,M,M,M,M,M,M,M,M,M,M,M,M,M,87.13,KEKO 312256Z AUTO 22006KT 10SM CLR 34/M06 A3015 RMK AO2 SLP155 T03391061,M
HND,2024-08-31 22:56,-115.1344,35.9729,742.79,104.00,42.00,12.26,210.00,15.00,0.00,29.96,1012.50,10.00,23.00,CLR,M,M,M,M,M,M,M,M,M,M,M,M,M,M,99.21,KHND 312256Z 21015G23KT 10SM CLR 40/06 A2996 RMK AO2 LTG DSNT E AND SE SLP125 T04000056,M
TPH,2024-08-31 22:56,-117.0904,38.0505,1654.00,90.00,32.00,12.68,210.00,9.00,0.00,30.19,1014.10,10.00,19.00,SCT,M,M,M,12000.00,M,M,M,M,M,M,M,M,M,M,85.84,KTPH 312256Z AUTO 21009G19KT 10SM SCT120 32/00 A3019 RMK AO2 SLP141 T03220000,M
LAS,2024-08-31 22:56,-115.1634,36.0719,663.00,103.00,34.00,9.23,200.00,7.00,0.00,29.94,1010.70,10.00,M,FEW,M,M,M,9000.00,M,M,M,M,M,M,M,M,M,M,96.72,KLAS 312256Z 20007KT 10SM FEW090 39/01 A2994 RMK AO2 LTG DSNT E AND SE SLP107 T03940011 $,M
NFL,2024-08-31 22:57,-118.7010,39.4166,1199.00,95.00,29.00,9.61,M,M,0.00,30.06,1014.70,10.00,M,CLR,M,M,M,M,M,M,M,M,M,M,M,M,M,M,89.34,KNFL 312257Z AUTO 10SM CLR 35/M02 A3006 RMK AO2 SLP147 T03501017,M
05U,2024-08-31 23:10,-116.0051,39.6042,1811.23,82.40,32.00,16.17,190.00,12.00,0.00,30.26,M,10.00,18.00,CLR,M,M,M,M,M,M,M,M,M,M,M,M,M,M,80.00,K05U 312310Z AUTO 19012G18KT 10SM CLR 28/M00 A3026 RMK A01,M
BVU,2024-08-31 23:15,-114.8611,35.9475,671.00,102.20,37.40,10.81,80.00,19.00,0.00,29.92,M,10.00,27.00,CLR,M,M,M,M,M,M,M,VCTS,M,M,M,M,M,M,96.63,KBVU 312315Z AUTO 08019G27KT 10SM VCTS CLR 39/03 A2992 RMK AO2 LTG DSNT E-S,M
CXP,2024-08-31 23:15,-119.7326,39.1923,1431.00,91.40,26.60,9.74,M,5.00,0.00,30.13,M,10.00,11.00,CLR,M,M,M,M,M,M,M,M,M,M,M,M,M,M,86.36,KCXP 312315Z AUTO VRB05G11KT 10SM CLR 33/M03 A3013 RMK AO2,M
RTS,2024-08-31 23:15,-119.8764,39.6682,1539.00,89.60,17.60,7.05,0.00,0.00,0.00,30.16,M,10.00,M,CLR,M,M,M,M,M,M,M,M,M,M,M,M,M,M,84.45,KRTS 312315Z AUTO 00000KT 10SM CLR 32/M08 A3016 RMK AO2,M
MEV,2024-08-31 23:15,-119.7500,38.9963,1441.42,91.40,33.80,13.05,260.00,10.00,0.00,30.13,M,10.00,17.00,CLR,M,M,M,M,M,M,M,M,M,M,M,M,M,M,87.13,KMEV 312315Z AUTO 26010G17KT 10SM CLR 33/01 A3013 RMK AO2,M
BAM,2024-08-31 23:15,-116.8743,40.5990,1382.36,95.00,26.60,8.71,10.00,6.00,0.00,30.13,M,10.00,M,CLR,M,M,M,M,M,M,M,M,M,M,M,M,M,M,89.08,KBAM 312315Z AUTO 01006KT 10SM CLR 35/M03 A3013 RMK AO1,M
HTH,2024-08-31 23:15,-118.6315,38.5448,1282.89,95.00,23.00,7.49,360.00,7.00,0.00,30.07,M,10.00,M,CLR,M,M,M,M,M,M,M,M,M,M,M,M,M,M,88.76,KHTH 312315Z AUTO 36007KT 340V040 10SM CLR 35/M05 A3007 RMK A01,M
TMT,2024-08-31 23:15,-117.1971,39.4643,1749.34,87.30,34.00,14.97,180.00,7.00,0.00,30.24,M,10.00,18.00,SCT,M,M,M,12000.00,M,M,M,M,M,M,M,M,M,M,83.69,KTMT 312315Z AUTO 18007G18KT 10SM SCT120 31/01 A3024 RMK AO2 T03070012,M
10U,2024-08-31 23:15,-116.1876,41.9532,1637.00,89.60,3.20,3.71,0.00,0.00,0.00,30.19,M,10.00,M,CLR,M,M,M,M,M,M,M,M,M,M,M,M,M,M,83.99,K10U 312315Z AUTO 00000KT 10SM CLR 32/M16 A3019 RMK AO2,M
05U,2024-08-31 23:30,-116.0051,39.6042,1811.23,82.40,30.20,15.03,210.00,10.00,0.00,30.25,M,10.00,M,CLR,M,M,M,M,M,M,M,M,M,M,M,M,M,M,79.97,K05U 312330Z AUTO 21010KT 10SM CLR 28/M01 A3025 RMK A01,M
HTH,2024-08-31 23:30,-118.6315,38.5448,1282.89,95.00,23.00,7.49,270.00,8.00,0.00,30.06,M,10.00,M,CLR,M,M,M,M,M,M,M,M,M,M,M,M,M,M,88.76,KHTH 312330Z AUTO 27008KT 240V300 10SM CLR 35/M05 A3006 RMK A01,M
BVU,2024-08-31 23:35,-114.8611,35.9475,671.00,96.80,44.60,16.83,120.00,19.00,0.00,29.92,M,8.00,36.00,CLR,M,M,M,M,M,M,M,M,M,M,M,M,M,M,92.79,KBVU 312335Z AUTO 12019G36KT 8SM CLR 36/07 A2992 RMK AO2,M
CXP,2024-08-31 23:35,-119.7326,39.1923,1431.00,93.20,28.40,9.91,270.00,12.00,0.00,30.13,M,10.00,M,CLR,M,M,M,M,M,M,M,M,M,M,M,M,M,M,87.89,KCXP 312335Z AUTO 27012KT 10SM CLR 34/M02 A3013 RMK AO2,M
RTS,2024-08-31 23:35,-119.8764,39.6682,1539.00,87.80,19.40,8.06,200.00,4.00,0.00,30.16,M,10.00,M,CLR,M,M,M,M,M,M,M,M,M,M,M,M,M,M,83.23,KRTS 312335Z AUTO 20004KT 10SM CLR 31/M07 A3016 RMK AO2,M
MEV,2024-08-31 23:35,-119.7500,38.9963,1441.42,87.80,35.60,15.70,270.00,9.00,0.00,30.13,M,10.00,M,CLR,M,M,M,M,M,M,M,M,M,M,M,M,M,M,84.12,KMEV 312335Z AUTO 27009KT 10SM CLR 31/02 A3013 RMK AO2,M
BAM,2024-08-31 23:35,-116.8743,40.5990,1382.36,95.00,24.80,8.08,360.00,8.00,0.00,30.12,M,10.00,M,CLR,M,M,M,M,M,M,M,M,M,M,M,M,M,M,88.91,KBAM 312335Z AUTO 36008KT 10SM CLR 35/M04 A3012 RMK AO1,M
TMT,2024-08-31 23:35,-117.1971,39.4643,1749.34,84.40,33.30,15.97,240.00,12.00,0.00,30.25,M,10.00,16.00,SCT,M,M,M,12000.00,M,M,M,M,M,M,M,M,M,M,81.44,KTMT 312335Z AUTO 24012G16KT 10SM SCT120 29/01 A3025 RMK AO2 T02910007,M
10U,2024-08-31 23:35,-116.1876,41.9532,1637.00,89.60,3.20,3.71,220.00,5.00,0.00,30.19,M,10.00,M,CLR,M,M,M,M,M,M,M,M,M,M,M,M,M,M,83.99,K10U 312335Z AUTO 22005KT 10SM CLR 32/M16 A3019 RMK AO2,M
05U,2024-08-31 23:50,-116.0051,39.6042,1811.23,84.20,30.20,14.18,200.00,8.00,0.00,30.25,M,10.00,13.00,CLR,M,M,M,M,M,M,M,M,M,M,M,M,M,M,81.26,K05U 312350Z AUTO 20008G13KT 10SM CLR 29/M01 A3025 RMK A01,M
P68,2024-08-31 23:53,-116.0056,39.6014,1993.00,83.00,30.00,14.62,210.00,8.00,0.00,30.22,1015.90,M,M,M,M,M,M,M,M,M,M,M,M,M,M,M,M,M,80.39,KP68 312353Z AUTO 21008KT 28/M01 A3022 RMK AO1 SLP159 T02831011 10317 20261 56005,M
DRA,2024-08-31 23:53,-116.0278,36.6206,1009.00,99.00,39.00,12.68,M,5.00,0.00,30.00,1010.50,10.00,M,CLR,M,M,M,M,M,M,M,M,M,M,M,M,M,M,94.19,KDRA 312353Z AUTO VRB05KT 10SM CLR 37/04 A3000 RMK AO2 SLP105 T03720039 10383 20350 56020,M
ELY,2024-08-31 23:53,-114.8453,39.2950,1909.00,83.00,30.00,14.62,240.00,9.00,0.00,30.25,1015.40,10.00,16.00,CLR,M,M,M,M,M,M,M,M,M,M,M,M,M,M,80.39,KELY 312353Z AUTO 24009G16KT 10SM CLR 28/M01 A3025 RMK AO2 SLP154 T02831011 10317 20267 58007,M
VGT,2024-08-31 23:53,-115.1933,36.2111,667.00,104.00,42.00,12.26,200.00,13.00,0.00,29.90,1011.10,10.00,M,CLR,M,M,M,M,M,M,M,M,M,M,M,M,M,M,99.21,KVGT 312353Z 20013KT 10SM CLR 40/06 A2990 RMK AO2 LTG DSNT NE AND SE SLP111 T04000056 10411 20361 56018,M
LOL,2024-08-31 23:53,-118.5701,40.0684,1192.43,93.00,27.00,9.42,0.00,0.00,0.00,30.05,1014.30,10.00,M,CLR,M,M,M,M,M,M,M,M,M,M,M,M,M,M,87.60,KLOL 312353Z AUTO 00000KT 10SM CLR 34/M03 A3005 RMK AO2 SLP143 T03391028 10356 20289 56021,M
BVU,2024-08-31 23:55,-114.8611,35.9475,671.00,93.20,50.00,23.04,170.00,25.00,0.00,29.94,M,9.00,M,FEW,SCT,SCT,M,5500.00,7000.00,9000.00,M,TS,M,M,M,M,M,M,90.10,KBVU 312355Z AUTO 17025KT 9SM TS FEW055 SCT070 SCT090 34/10 A2994 RMK AO2 LTG DSNT ALQDS,M
INS,2024-08-31 23:55,-115.6733,36.5872,955.00,96.80,33.60,10.95,20.00,3.00,0.00,29.99,1009.70,10.00,M,BKN,M,M,M,16000.00,M,M,M,M,M,M,M,M,M,M,91.41,KINS 312355Z AUTO 02003KT 10SM BKN160 36/01 A2999 RMK AO2 SLP097 T03600009 10367 20317 57017,M
RNO,2024-08-31 23:55,-119.7711,39.4839,1341.00,92.00,57.00,30.91,M,5.00,0.00,30.08,1012.60,10.00,M,SCT,M,M,M,11000.00,M,M,M,M,M,M,M,M,M,M,90.60,KRNO 312355Z VRB05KT 10SM SCT110CB 33/14 A3008 RMK AO2 SLP126 VIRGA CB SW MOV N T03330139 10350 20256 56018,M
CXP,2024-08-31 23:55,-119.7326,39.1923,1431.00,91.40,30.20,11.28,260.00,10.00,0.00,30.13,M,10.00,17.00,CLR,M,M,M,M,M,M,M,M,M,M,M,M,M,M,86.71,KCXP 312355Z AUTO 26010G17KT 10SM CLR 33/M01 A3013 RMK AO2,M
RTS,2024-08-31 23:55,-119.8764,39.6682,1539.00,87.80,19.40,8.06,M,4.00,0.00,30.15,M,10.00,M,CLR,M,M,M,M,M,M,M,M,M,M,M,M,M,M,83.23,KRTS 312355Z AUTO VRB04KT 10SM CLR 31/M07 A3015 RMK AO2,M
MEV,2024-08-31 23:55,-119.7500,38.9963,1441.42,89.60,33.80,13.80,290.00,11.00,0.00,30.13,M,10.00,M,CLR,M,M,M,M,M,M,M,M,M,M,M,M,M,M,85.59,KMEV 312355Z AUTO 29011KT 10SM CLR 32/01 A3013 RMK AO2,M
BAM,2024-08-31 23:55,-116.8743,40.5990,1382.36,95.00,26.60,8.71,360.00,8.00,0.00,30.12,M,10.00,M,CLR,M,M,M,M,M,M,M,M,M,M,M,M,M,M,89.08,KBAM 312355Z AUTO 36008KT 10SM CLR 35/M03 A3012 RMK AO1,M
HTH,2024-08-31 23:55,-118.6315,38.5448,1282.89,95.00,23.00,7.49,280.00,11.00,0.00,30.05,M,10.00,M,CLR,M,M,M,M,M,M,M,M,M,M,M,M,M,M,88.76,KHTH 312355Z AUTO 28011KT 10SM CLR 35/M05 A3005 RMK A01,M
TMT,2024-08-31 23:55,-117.1971,39.4643,1749.34,81.70,33.60,17.63,250.00,14.00,0.00,30.24,M,10.00,M,CLR,M,M,M,M,M,M,M,M,M,M,M,M,M,M,79.57,KTMT 312355Z AUTO 25014KT 10SM CLR 28/01 A3024 RMK AO2 T02760009 10315 20261,M
10U,2024-08-31 23:55,-116.1876,41.9532,1637.00,89.60,3.20,3.71,0.00,0.00,0.00,30.18,M,10.00,M,CLR,M,M,M,M,M,M,M,M,M,M,M,M,M,M,83.99,K10U 312355Z AUTO 00000KT 10SM CLR 32/M16 A3018 RMK AO2,M
LSV,2024-08-31 23:55,-115.0343,36.2362,570.00,103.50,30.70,7.96,270.00,4.00,0.00,29.85,1007.60,10.00,M,CLR,M,M,M,M,M,M,M,M,M,M,M,M,M,M,96.67,KLSV 312355Z AUTO 27004KT 10SM CLR 40/M01 A2985 RMK AO2 LTG DSNT NE AND SE SLP076 T03971007 10406 20369 57017 $,M
EKO,2024-08-31 23:56,-115.7860,40.8242,1367.00,92.00,19.00,6.94,260.00,5.00,0.00,30.14,1015.40,10.00,M,CLR,M,M,M,M,M,M,M,M,M,M,M,M,M,M,86.28,KEKO 312356Z AUTO 26005KT 10SM CLR 33/M07 A3014 RMK AO2 SLP154 T03331072 10344 20256 56018,M
HND,2024-08-31 23:56,-115.1344,35.9729,742.79,103.00,43.00,13.12,M,M,0.00,29.98,1013.20,10.00,M,CLR,M,M,M,M,M,M,M,M,M,M,M,M,M,M,98.56,KHND 312356Z 10SM CLR 39/06 A2998 RMK AO2 LTG DSNT NE-SE SLP132 T03940061 10400 20350 55008 $,M
TPH,2024-08-31 23:56,-117.0904,38.0505,1654.00,89.00,34.00,14.18,150.00,10.00,0.00,30.18,1013.80,10.00,19.00,BKN,M,M,M,12000.00,M,M,M,M,M,M,M,M,M,M,85.09,KTPH 312356Z AUTO 15010G19KT 100V190 10SM BKN120 32/01 A3018 RMK AO2 SLP138 T03170011 10328 20272 56015,M
LAS,2024-08-31 23:56,-115.1634,36.0719,663.00,103.00,34.00,9.23,260.00,13.00,0.00,29.93,1010.50,10.00,M,FEW,M,M,M,9000.00,M,M,M,M,M,M,M,M,M,M,96.72,KLAS 312356Z 26013KT 10SM FEW090 40/01 A2993 RMK AO2 LTG DSNT NE AND SE SLP105 T03940011 56013 $,M
NFL,2024-08-31 23:57,-118.7010,39.4166,1199.00,96.00,30.00,9.71,M,3.00,0.00,30.04,1014.20,10.00,M,CLR,M,M,M,M,M,M,M,M,M,M,M,M,M,M,90.27,KNFL 312357Z AUTO VRB03KT 10SM CLR 36/M01 A3004 RMK AO2 SLP142 T03561011 10367 20283 56023,M
